station,valid,metar
ZBAA,2000-01-01 00:00,ZBAA 010000Z AUTO 01002KT 2 1/2SM M02/M12 A3024 RMK SLP241 T10181124 57006 IEM_DS3505
ZBAA,2000-01-01 01:00,ZBAA 010100Z AUTO 31006KT 2 1/2SM M02/M12 A3027 RMK T10201120 IEM_DS3505
ZBAA,2000-01-01 02:00,ZBAA 010200Z AUTO 31004KT 2 1/2SM M01/M12 A3027 RMK T10101120 IEM_DS3505
ZBAA,2000-01-01 03:00,ZBAA 010300Z AUTO 35002KT 3SM 00/M13 A3024 RMK SLP238 T00031133 57003 IEM_DS3505
ZBAA,2000-01-01 04:00,ZBAA 010400Z AUTO 30004KT 00/M13 A3021 RMK T00001130 IEM_DS3505
ZBAA,2000-01-01 05:00,ZBAA 010500Z AUTO 30006KT 00/M12 A3018 RMK T00001120 IEM_DS3505
ZBAA,2000-01-01 06:00,ZBAA 010600Z AUTO 08002KT 4SM 01/M13 A3015 RMK SLP201 T00101130 57036 IEM_DS3505
ZBAA,2000-01-01 07:00,ZBAA 010700Z AUTO 32004KT 00/M12 A3012 RMK T00001120 IEM_DS3505
ZBAA,2000-01-01 08:00,ZBAA 010800Z AUTO 28002KT 00/M11 A3012 RMK T00001110 IEM_DS3505
ZBAA,2000-01-01 09:00,ZBAA 010900Z AUTO 00000KT 3SM M00/M12 A3009 RMK SLP195 T10011123 57006 IEM_DS3505
ZBAA,2000-01-01 10:00,ZBAA 011000Z AUTO 26002KT 3SM 00/M10 A3012 RMK T00001100 IEM_DS3505
ZBAA,2000-01-01 11:00,ZBAA 011100Z AUTO 25002KT 2 1/2SM M01/M09 A3012 RMK T10101090 IEM_DS3505
ZBAA,2000-01-01 12:00,ZBAA 011200Z AUTO 00000KT 6SM M02/M10 A3012 RMK SLP202 T10151100 52006 IEM_DS3505
ZBAA,2000-01-01 13:00,ZBAA 011300Z AUTO 28008KT 2 1/2SM M01/M10 A3015 RMK T10101100 IEM_DS3505
ZBAA,2000-01-01 14:00,ZBAA 011400Z AUTO 24004KT 2SM M02/M03 A3015 RMK T10201030 IEM_DS3505
ZBAA,2000-01-01 15:00,ZBAA 011500Z AUTO 23006KT 6SM M02/M09 A3012 RMK SLP208 T10211086 52006 IEM_DS3505
ZBAA,2000-01-01 16:00,ZBAA 011600Z AUTO 30012G21KT 6SM 02/M09 A3012 RMK T00201090 IEM_DS3505
ZBAA,2000-01-01 17:00,ZBAA 011700Z AUTO 29017G27KT 4SM 02/M12 A3015 RMK T00201120 IEM_DS3505
ZBAA,2000-01-01 18:00,ZBAA 011800Z AUTO 30021G37KT 5SM 02/M15 A3018 RMK 60000 SLP206 T00171148 57001 IEM_DS3505
ZBAA,2000-01-01 19:00,ZBAA 011900Z AUTO 31023KT 5SM M01/M16 A3018 RMK T10101160 IEM_DS3505
ZBAA,2000-01-01 20:00,ZBAA 012000Z AUTO 6SM M02/M16 A3021 RMK T10201160 IEM_DS3505
ZBAA,2000-01-01 21:00,ZBAA 012100Z AUTO 31014KT 12SM M00/M19 A3021 RMK SLP223 T10051190 52017 IEM_DS3505
ZBAA,2000-01-01 22:00,ZBAA 012200Z AUTO 35008KT 6SM M04/M17 A3021 RMK T10401170 IEM_DS3505
ZBAA,2000-01-01 23:00,ZBAA 012300Z AUTO 34008KT 6SM M03/M18 A3021 RMK T10301180 IEM_DS3505
ZBAA,2000-01-02 00:00,ZBAA 020000Z AUTO 01006KT 17SM M01/M22 A3024 RMK SLP243 T10111223 52019 IEM_DS3505
ZBAA,2000-01-02 01:00,ZBAA 020100Z AUTO 33012KT 6SM M02/M21 A3027 RMK T10201210 IEM_DS3505
ZBAA,2000-01-02 02:00,ZBAA 020200Z AUTO 33010KT 6SM 00/M22 A3027 RMK T00001220 IEM_DS3505
ZBAA,2000-01-02 03:00,ZBAA 020300Z AUTO 34006KT 9SM 02/M23 A3027 RMK SLP240 T00201234 57003 IEM_DS3505
ZBAA,2000-01-02 04:00,ZBAA 020400Z AUTO 31006KT 6SM 01/M22 A3024 RMK T00101220 IEM_DS3505
ZBAA,2000-01-02 05:00,ZBAA 020500Z AUTO 32008KT 6SM 02/M23 A3021 RMK T00201230 IEM_DS3505
ZBAA,2000-01-02 06:00,ZBAA 020600Z AUTO 28008KT 12SM 04/M22 A3018 RMK SLP214 T00391219 57025 IEM_DS3505
ZBAA,2000-01-02 07:00,ZBAA 020700Z AUTO 30008KT 6SM 03/M23 A3015 RMK T00301230 IEM_DS3505
ZBAA,2000-01-02 08:00,ZBAA 020800Z AUTO 32006KT 6SM 03/M21 A3015 RMK T00301210 IEM_DS3505
ZBAA,2000-01-02 09:00,ZBAA 020900Z AUTO 24002KT 6SM 02/M20 A3018 RMK SLP219 T00201197 52005 IEM_DS3505
ZBAA,2000-01-02 10:00,ZBAA 021000Z AUTO 34002KT 6SM 00/M21 A3018 RMK T00001210 IEM_DS3505
ZBAA,2000-01-02 11:00,ZBAA 021100Z AUTO 06002KT 6SM M01/M18 A3021 RMK T10101180 IEM_DS3505
ZBAA,2000-01-02 12:00,ZBAA 021200Z AUTO 13002KT 6SM M02/M19 A3021 RMK SLP230 T10221186 52010 IEM_DS3505
ZBAA,2000-01-02 13:00,ZBAA 021300Z AUTO 00000KT 6SM M03/M19 A3021 RMK T10301190 IEM_DS3505
ZBAA,2000-01-02 14:00,ZBAA 021400Z AUTO 34002KT 6SM M04/M19 A3024 RMK T10401190 IEM_DS3505
ZBAA,2000-01-02 15:00,ZBAA 021500Z AUTO 07002KT 6SM M03/M20 A3024 RMK SLP238 T10311198 52008 IEM_DS3505
ZBAA,2000-01-02 16:00,ZBAA 021600Z AUTO 13002KT 6SM M06/M17 A3024 RMK T10601170 IEM_DS3505
ZBAA,2000-01-02 17:00,ZBAA 021700Z AUTO 14002KT 6SM M04/M19 A3024 RMK T10401190 IEM_DS3505
ZBAA,2000-01-02 18:00,ZBAA 021800Z AUTO 08004KT 6SM M05/M20 A3024 RMK SLP239 T10481200 52002 IEM_DS3505
ZBAA,2000-01-02 19:00,ZBAA 021900Z AUTO 09004KT 6SM M05/M18 A3027 RMK T10501180 IEM_DS3505
ZBAA,2000-01-02 20:00,ZBAA 022000Z AUTO 10004KT 6SM M05/M12 A3024 RMK T10501120 IEM_DS3505
ZBAA,2000-01-02 21:00,ZBAA 022100Z AUTO 06004KT 3SM M06/M12 A3024 RMK SLP243 T10641117 52003 IEM_DS3505
ZBAA,2000-01-02 22:00,ZBAA 022200Z AUTO 00000KT 6SM M06/M11 A3024 RMK T10601110 IEM_DS3505
ZBAA,2000-01-02 23:00,ZBAA 022300Z AUTO 00000KT 6SM M06/M13 A3024 RMK T10601130 IEM_DS3505
ZBAA,2000-01-03 00:00,ZBAA 030000Z AUTO 08004KT 2 1/2SM M06/M10 A3024 RMK SLP244 T10651097 52001 IEM_DS3505
ZBAA,2000-01-03 01:00,ZBAA 030100Z AUTO 14002KT 3SM M05/M09 A3027 RMK T10501090 IEM_DS3505
ZBAA,2000-01-03 02:00,ZBAA 030200Z AUTO 13004KT 3SM M03/M08 A3027 RMK T10301080 IEM_DS3505
ZBAA,2000-01-03 03:00,ZBAA 030300Z AUTO 10006KT 4SM M02/M08 A3027 RMK SLP247 T10241082 52003 IEM_DS3505
ZBAA,2000-01-03 04:00,ZBAA 030400Z AUTO 12008KT 3SM M02/M07 A3024 RMK T10201070 IEM_DS3505
ZBAA,2000-01-03 05:00,ZBAA 030500Z AUTO 12010KT 3SM M03/M06 A3021 RMK T10301060 IEM_DS3505
ZBAA,2000-01-03 06:00,ZBAA 030600Z AUTO 10010KT 5SM M03/M07 A3021 RMK 60000 SLP229 T10281073 57018 IEM_DS3505
ZBAA,2000-01-03 07:00,ZBAA 030700Z AUTO 12006KT 1 1/4SM M04/M04 A3021 RMK T10401040 IEM_DS3505
ZBAA,2000-01-03 08:00,ZBAA 030800Z AUTO 10006KT 1 1/4SM M04/M04 A3021 RMK T10401040 IEM_DS3505
ZBAA,2000-01-03 09:00,ZBAA 030900Z AUTO 09006KT 3SM M04/M05 A3021 RMK SLP228 T10351052 57001 IEM_DS3505
ZBAA,2000-01-03 10:00,ZBAA 031000Z AUTO 11004KT 1 1/4SM M04/M05 A3024 RMK T10401050 IEM_DS3505
ZBAA,2000-01-03 11:00,ZBAA 031100Z AUTO 11006KT 2 1/2SM M04/M06 A3024 RMK T10401060 IEM_DS3505
ZBAA,2000-01-03 12:00,ZBAA 031200Z AUTO 11010KT 6SM M04/M08 A3027 RMK 60002 SLP245 T10411080 52017 IEM_DS3505
ZBAA,2000-01-03 13:00,ZBAA 031300Z AUTO 12004KT 4SM M05/M07 A3027 RMK T10501070 IEM_DS3505
ZBAA,2000-01-03 14:00,ZBAA 031400Z AUTO 13006KT 4SM M05/M07 A3027 RMK T10501070 IEM_DS3505
ZBAA,2000-01-03 15:00,ZBAA 031500Z AUTO 08004KT 6SM M05/M09 A3027 RMK SLP251 T10511088 52006 IEM_DS3505
ZBAA,2000-01-03 16:00,ZBAA 031600Z AUTO 00000KT 3SM M05/M07 A3027 RMK T10501070 IEM_DS3505
ZBAA,2000-01-03 17:00,ZBAA 031700Z AUTO 00000KT 3SM M05/M07 A3027 RMK T10501070 IEM_DS3505
ZBAA,2000-01-03 18:00,ZBAA 031800Z AUTO 09002KT 6SM M05/M09 A3024 RMK 60003 SLP244 T10511088 57007 IEM_DS3505
ZBAA,2000-01-03 19:00,ZBAA 031900Z AUTO 00000KT 3SM M05/M07 A3027 RMK T10501070 IEM_DS3505
ZBAA,2000-01-03 20:00,ZBAA 032000Z AUTO 36002KT 2 1/2SM M05/M07 A3024 RMK T10501070 IEM_DS3505
ZBAA,2000-01-03 21:00,ZBAA 032100Z AUTO 04004KT 6SM M05/M08 A3024 RMK 70002 SLP234 T10481085 57010 IEM_DS3505
ZBAA,2000-01-03 22:00,ZBAA 032200Z AUTO 02002KT 3SM M05/M07 A3024 RMK T10501070 IEM_DS3505
ZBAA,2000-01-03 23:00,ZBAA 032300Z AUTO 30004KT 3SM M05/M07 A3024 RMK T10501070 IEM_DS3505
ZBAA,2000-01-04 00:00,ZBAA 040000Z AUTO 03004KT 6SM M04/M08 A3024 RMK 60003 SLP241 T10411078 52007 IEM_DS3505
ZBAA,2000-01-04 01:00,ZBAA 040100Z AUTO 33006KT 3SM M04/M06 A3027 RMK T10401060 IEM_DS3505
ZBAA,2000-01-04 02:00,ZBAA 040200Z AUTO 33004KT 3SM M03/M06 A3027 RMK T10301060 IEM_DS3505
ZBAA,2000-01-04 03:00,ZBAA 040300Z AUTO 00000KT 6SM M03/M06 A3027 RMK SLP248 T10291058 52007 IEM_DS3505
ZBAA,2000-01-04 05:00,ZBAA 040500Z AUTO 36004KT 2 1/2SM M03/M05 A3021 RMK T10301050 IEM_DS3505
ZBAA,2000-01-04 06:00,ZBAA 040600Z AUTO 03004KT 6SM M02/M06 A3021 RMK 60000 SLP224 T10211056 57024 IEM_DS3505
ZBAA,2000-01-04 07:00,ZBAA 040700Z AUTO 35004KT 2 1/2SM M02/M05 A3021 RMK T10201050 IEM_DS3505
ZBAA,2000-01-04 08:00,ZBAA 040800Z AUTO 02002KT 2 1/2SM M02/M04 A3021 RMK T10201040 IEM_DS3505
ZBAA,2000-01-04 09:00,ZBAA 040900Z AUTO 01002KT 2 1/2SM M02/M05 A3024 RMK T10201050 IEM_DS3505
ZBAA,2000-01-04 10:00,ZBAA 041000Z AUTO 25002KT 2 1/2SM M02/M04 A3024 RMK T10201040 IEM_DS3505
ZBAA,2000-01-04 11:00,ZBAA 041100Z AUTO 36002KT 2 1/2SM M02/M04 A3024 RMK T10201040 IEM_DS3505
ZBAA,2000-01-04 12:00,ZBAA 041200Z AUTO 08004KT 6SM M02/M05 A3024 RMK 60000 SLP240 T10231049 52002 IEM_DS3505
ZBAA,2000-01-04 13:00,ZBAA 041300Z AUTO 00000KT 2SM M02/M04 A3024 RMK T10201040 IEM_DS3505
ZBAA,2000-01-04 14:00,ZBAA 041400Z AUTO 14002KT 2SM M02/M04 A3024 RMK T10201040 IEM_DS3505
ZBAA,2000-01-04 15:00,ZBAA 041500Z AUTO 11002KT 6SM M02/M05 A3024 RMK SLP245 T10251048 52005 IEM_DS3505
ZBAA,2000-01-04 16:00,ZBAA 041600Z AUTO 17002KT 1 1/2SM M02/M04 A3024 RMK T10201040 IEM_DS3505
ZBAA,2000-01-04 17:00,ZBAA 041700Z AUTO 20004KT 1 1/2SM M02/M03 A3024 RMK T10201030 IEM_DS3505
ZBAA,2000-01-04 18:00,ZBAA 041800Z AUTO 10002KT 2 1/2SM M03/M04 A3024 RMK 60000 SLP243 T10271043 57002 IEM_DS3505
ZBAA,2000-01-04 19:00,ZBAA 041900Z AUTO 14002KT 1SM M02/M03 A3027 RMK T10201030 IEM_DS3505
ZBAA,2000-01-04 20:00,ZBAA 042000Z AUTO 12002KT 1SM M02/M03 A3024 RMK T10201030 IEM_DS3505
ZBAA,2000-01-04 21:00,ZBAA 042100Z AUTO 11002KT 2 1/2SM M03/M04 A3021 RMK 70002 SLP224 T10301044 57019 IEM_DS3505
ZBAA,2000-01-04 22:00,ZBAA 042200Z AUTO 00000KT 1/2SM M03/M03 A3021 RMK T10301030 IEM_DS3505
ZBAA,2000-01-04 23:00,ZBAA 042300Z AUTO 14002KT 1/2SM M03/M03 A3021 RMK T10301030 IEM_DS3505
ZBAA,2000-01-05 00:00,ZBAA 050000Z AUTO 13002KT 1 1/2SM M03/M04 A3021 RMK 60001 SLP233 T10311044 52009 IEM_DS3505
ZBAA,2000-01-05 01:00,ZBAA 050100Z AUTO 17002KT 1/2SM M02/M02 A3021 RMK T10201020 IEM_DS3505
ZBAA,2000-01-05 02:00,ZBAA 050200Z AUTO 00000KT 1/2SM M02/M02 A3024 RMK T10201020 IEM_DS3505
ZBAA,2000-01-05 03:00,ZBAA 050300Z AUTO 16002KT 1SM M02/M03 A3024 RMK SLP235 T10211034 52002 IEM_DS3505
ZBAA,2000-01-05 04:00,ZBAA 050400Z AUTO 28004KT 1SM M02/M02 A3021 RMK T10201020 IEM_DS3505
ZBAA,2000-01-05 05:00,ZBAA 050500Z AUTO 27004KT 1SM M02/M02 A3018 RMK T10201020 IEM_DS3505
ZBAA,2000-01-05 06:00,ZBAA 050600Z AUTO 19004KT 1 1/4SM M02/M03 A3015 RMK 60012 SLP217 T10181032 4////1032 57018 IEM_DS3505
ZBAA,2000-01-05 07:00,ZBAA 050700Z AUTO 22002KT 1SM M01/M01 A3015 RMK T10101010 IEM_DS3505
ZBAA,2000-01-05 08:00,ZBAA 050800Z AUTO 15002KT 1SM M02/M02 A3015 RMK T10201020 IEM_DS3505
ZBAA,2000-01-05 09:00,ZBAA 050900Z AUTO 21004KT 1SM M02/M04 A3018 RMK SLP219 T10201036 52002 IEM_DS3505
ZBAA,2000-01-05 10:00,ZBAA 051000Z AUTO 14002KT 1SM M02/M02 A3018 RMK T10201020 IEM_DS3505
ZBAA,2000-01-05 11:00,ZBAA 051100Z AUTO 13002KT 1SM M02/M02 A3021 RMK T10201020 IEM_DS3505
ZBAA,2000-01-05 12:00,ZBAA 051200Z AUTO 23004KT 1 1/4SM M03/M04 A3021 RMK 60002 SLP230 T10261042 52011 IEM_DS3505
ZBAA,2000-01-05 13:00,ZBAA 051300Z AUTO 00000KT 1SM M02/M02 A3021 RMK T10201020 IEM_DS3505
ZBAA,2000-01-05 14:00,ZBAA 051400Z AUTO 31002KT 1/2SM M02/M02 A3021 RMK T10201020 IEM_DS3505
ZBAA,2000-01-05 15:00,ZBAA 051500Z AUTO 00000KT 1 1/4SM M03/M05 A3021 RMK SLP237 T10321049 52007 IEM_DS3505
ZBAA,2000-01-05 16:00,ZBAA 051600Z AUTO 32008KT 4SM M03/M06 A3024 RMK T10301060 IEM_DS3505
ZBAA,2000-01-05 17:00,ZBAA 051700Z AUTO 36008KT 3SM M03/M04 A3024 RMK T10301040 IEM_DS3505
ZBAA,2000-01-05 18:00,ZBAA 051800Z AUTO 01004KT 12SM M04/M12 A3024 RMK 60000 SLP242 T10361122 52005 IEM_DS3505
ZBAA,2000-01-05 19:00,ZBAA 051900Z AUTO 34016KT 6SM M05/M14 A3027 RMK T10501140 IEM_DS3505
ZBAA,2000-01-05 21:00,ZBAA 052100Z AUTO 32012G25KT 9SM M06/M20 A3030 RMK 70013 SLP259 T10551195 52017 IEM_DS3505
ZBAA,2000-01-05 22:00,ZBAA 052200Z AUTO 29010G19KT 6SM M08/M19 A3036 RMK T10801190 IEM_DS3505
ZBAA,2000-01-06 01:00,ZBAA 060100Z AUTO 29012KT 6SM M09/M22 A3042 RMK T10901220 IEM_DS3505
ZBAA,2000-01-06 02:00,ZBAA 060200Z AUTO 32014KT 6SM A3045 RMK IEM_DS3505
ZBAA,2000-01-06 03:00,ZBAA 060300Z AUTO 33008KT 19SM M08/M24 A3042 RMK SLP299 T10771238 52005 IEM_DS3505
ZBAA,2000-01-06 04:00,ZBAA 060400Z AUTO 31014G25KT 6SM M08/M23 A3042 RMK T10801230 IEM_DS3505
ZBAA,2000-01-06 05:00,ZBAA 060500Z AUTO 29017G29KT 6SM M09/M23 A3039 RMK T10901230 IEM_DS3505
ZBAA,2000-01-06 06:00,ZBAA 060600Z AUTO 32012G31KT 12SM M08/M27 A3036 RMK SLP285 T10771266 57014 IEM_DS3505
ZBAA,2000-01-06 08:00,ZBAA 060800Z AUTO 31014G23KT 6SM M09/M26 A3039 RMK T10901260 IEM_DS3505
ZBAA,2000-01-06 09:00,ZBAA 060900Z AUTO 31014KT 12SM M08/M27 A3039 RMK SLP288 T10831266 52002 IEM_DS3505
ZBAA,2000-01-06 10:00,ZBAA 061000Z AUTO 31025G41KT 6SM M09/M26 A3039 RMK T10901260 IEM_DS3505
ZBAA,2000-01-06 11:00,ZBAA 061100Z AUTO 31019G31KT 6SM M10/M27 A3042 RMK T11001270 IEM_DS3505
ZBAA,2000-01-06 12:00,ZBAA 061200Z AUTO 31019KT 12SM M09/M29 A3042 RMK SLP304 T10921290 52016 IEM_DS3505
ZBAA,2000-01-06 13:00,ZBAA 061300Z AUTO 31017KT 6SM M10/M26 A3045 RMK T11001260 IEM_DS3505
ZBAA,2000-01-06 14:00,ZBAA 061400Z AUTO 31017KT 6SM M11/M27 A3045 RMK T11101270 IEM_DS3505
ZBAA,2000-01-06 15:00,ZBAA 061500Z AUTO 30014KT 12SM M10/M30 A3045 RMK SLP309 T11031299 52005 IEM_DS3505
ZBAA,2000-01-06 16:00,ZBAA 061600Z AUTO 31012KT 6SM M12/M27 A3047 RMK T11201270 IEM_DS3505
ZBAA,2000-01-06 17:00,ZBAA 061700Z AUTO 30010KT 6SM M12/M27 A3047 RMK T11201270 IEM_DS3505
ZBAA,2000-01-06 20:00,ZBAA 062000Z AUTO 34002KT 6SM M14/M27 A3047 RMK T11401270 IEM_DS3505
ZBAA,2000-01-06 21:00,ZBAA 062100Z AUTO 27004KT 19SM M12/M30 A3045 RMK SLP313 T11241296 57001 IEM_DS3505
ZBAA,2000-01-06 22:00,ZBAA 062200Z AUTO 11002KT 6SM M16/M27 A3045 RMK T11601270 IEM_DS3505
ZBAA,2000-01-06 23:00,ZBAA 062300Z AUTO 00000KT 6SM M15/M28 A3045 RMK T11501280 IEM_DS3505
ZBAA,2000-01-07 00:00,ZBAA 070000Z AUTO 33002KT 16SM M12/M30 A3045 RMK SLP312 T11171300 57001 IEM_DS3505
ZBAA,2000-01-07 01:00,ZBAA 070100Z AUTO 31006KT 6SM M12/M28 A3045 RMK T11201280 IEM_DS3505
ZBAA,2000-01-07 02:00,ZBAA 070200Z AUTO 32006KT 6SM M11/M27 A3045 RMK T11101270 IEM_DS3505
ZBAA,2000-01-07 03:00,ZBAA 070300Z AUTO 32006KT 7SM M08/M29 A3045 RMK SLP301 T10781291 57011 IEM_DS3505
ZBAA,2000-01-07 04:00,ZBAA 070400Z AUTO 30014G23KT 6SM M08/M26 A3039 RMK T10801260 IEM_DS3505
ZBAA,2000-01-07 05:00,ZBAA 070500Z AUTO 31016KT 6SM M08/M28 A3036 RMK T10801280 IEM_DS3505
ZBAA,2000-01-07 06:00,ZBAA 070600Z AUTO 23004KT 16SM M07/M26 A3030 RMK SLP266 T10661257 57035 IEM_DS3505
ZBAA,2000-01-07 07:00,ZBAA 070700Z AUTO 28006KT 6SM M07/M26 A3030 RMK T10701260 IEM_DS3505
ZBAA,2000-01-07 08:00,ZBAA 070800Z AUTO 22004KT 6SM M06/M28 A3027 RMK T10601280 IEM_DS3505
ZBAA,2000-01-07 09:00,ZBAA 070900Z AUTO 21004KT 7SM M08/M24 A3027 RMK SLP251 T10811245 57015 IEM_DS3505
ZBAA,2000-01-07 10:00,ZBAA 071000Z AUTO 19006KT 6SM M10/M22 A3027 RMK T11001220 IEM_DS3505
ZBAA,2000-01-07 11:00,ZBAA 071100Z AUTO 19008KT 6SM M10/M22 A3027 RMK T11001220 IEM_DS3505
ZBAA,2000-01-07 12:00,ZBAA 071200Z AUTO 23004KT 4SM M10/M22 A3030 RMK SLP261 T11011216 52010 IEM_DS3505
ZBAA,2000-01-07 13:00,ZBAA 071300Z AUTO 00000KT 6SM M09/M20 A3030 RMK T10901200 IEM_DS3505
ZBAA,2000-01-07 14:00,ZBAA 071400Z AUTO 12002KT 6SM M11/M19 A3030 RMK T11101190 IEM_DS3505
ZBAA,2000-01-07 15:00,ZBAA 071500Z AUTO 23002KT 6SM M10/M21 A3030 RMK SLP258 T11051206 57003 IEM_DS3505
ZBAA,2000-01-07 16:00,ZBAA 071600Z AUTO 01002KT 4SM M13/M18 A3030 RMK T11301180 IEM_DS3505
ZBAA,2000-01-07 17:00,ZBAA 071700Z AUTO 36004KT 4SM M15/M19 A3027 RMK T11501190 IEM_DS3505
ZBAA,2000-01-07 18:00,ZBAA 071800Z AUTO 00000KT 6SM M12/M20 A3027 RMK SLP247 T11211201 57011 IEM_DS3505
ZBAA,2000-01-07 19:00,ZBAA 071900Z AUTO 31002KT 4SM M14/M19 A3027 RMK T11401190 IEM_DS3505
ZBAA,2000-01-07 20:00,ZBAA 072000Z AUTO 35002KT 4SM M15/M19 A3027 RMK T11501190 IEM_DS3505
ZBAA,2000-01-07 21:00,ZBAA 072100Z AUTO 08002KT 6SM M13/M20 A3027 RMK SLP245 T11321195 57002 IEM_DS3505
ZBAA,2000-01-07 22:00,ZBAA 072200Z AUTO 35006KT 5SM M16/M19 A3027 RMK T11601190 IEM_DS3505
ZBAA,2000-01-07 23:00,ZBAA 072300Z AUTO 33004KT 6SM M15/M19 A3027 RMK T11501190 IEM_DS3505
ZBAA,2000-01-08 00:00,ZBAA 080000Z AUTO 05002KT 2 1/2SM M13/M19 A3030 RMK SLP257 T11291194 52012 IEM_DS3505
ZBAA,2000-01-08 01:00,ZBAA 080100Z AUTO 36004KT 6SM M13/M18 A3030 RMK T11301180 IEM_DS3505
ZBAA,2000-01-08 02:00,ZBAA 080200Z AUTO 35006KT 6SM M11/M18 A3033 RMK T11101180 IEM_DS3505
ZBAA,2000-01-08 03:00,ZBAA 080300Z AUTO 07002KT 5SM M08/M19 A3030 RMK SLP259 T10791188 52002 IEM_DS3505
ZBAA,2000-01-08 04:00,ZBAA 080400Z AUTO 6SM M08/M18 A3027 RMK T10801180 IEM_DS3505
ZBAA,2000-01-08 06:00,ZBAA 080600Z AUTO 15002KT 6SM M04/M18 A3021 RMK SLP231 T10411179 57028 IEM_DS3505
ZBAA,2000-01-08 07:00,ZBAA 080700Z AUTO 6SM M05/M18 A3021 RMK T10501180 IEM_DS3505
ZBAA,2000-01-08 08:00,ZBAA 080800Z AUTO 12002KT 6SM M05/M17 A3021 RMK T10501170 IEM_DS3505
ZBAA,2000-01-08 09:00,ZBAA 080900Z AUTO 20002KT 6SM M05/M17 A3021 RMK SLP229 T10481169 57002 IEM_DS3505
ZBAA,2000-01-08 10:00,ZBAA 081000Z AUTO 07002KT 6SM M07/M16 A3021 RMK T10701160 IEM_DS3505
ZBAA,2000-01-08 11:00,ZBAA 081100Z AUTO 08002KT 6SM M08/M16 A3024 RMK T10801160 IEM_DS3505
ZBAA,2000-01-08 12:00,ZBAA 081200Z AUTO 17002KT 6SM M07/M16 A3024 RMK SLP238 T10731161 52009 IEM_DS3505
ZBAA,2000-01-08 13:00,ZBAA 081300Z AUTO 10002KT 5SM M08/M15 A3024 RMK T10801150 IEM_DS3505
ZBAA,2000-01-08 14:00,ZBAA 081400Z AUTO 00000KT M09/M16 A3024 RMK T10901160 IEM_DS3505
ZBAA,2000-01-08 15:00,ZBAA 081500Z AUTO 00000KT 6SM M08/M15 A3024 RMK SLP241 T10791153 52003 IEM_DS3505
ZBAA,2000-01-08 16:00,ZBAA 081600Z AUTO 03002KT 3SM M10/M13 A3024 RMK T11001130 IEM_DS3505
ZBAA,2000-01-08 17:00,ZBAA 081700Z AUTO 02002KT 2 1/2SM M10/M13 A3021 RMK T11001130 IEM_DS3505
ZBAA,2000-01-08 18:00,ZBAA 081800Z AUTO 02002KT 5SM M09/M14 A3021 RMK SLP232 T10861139 57008 IEM_DS3505
ZBAA,2000-01-08 19:00,ZBAA 081900Z AUTO 35002KT 2SM M09/M13 A3024 RMK T10901130 IEM_DS3505
ZBAA,2000-01-08 20:00,ZBAA 082000Z AUTO 34002KT 2 1/2SM M09/M14 A3021 RMK T10901140 IEM_DS3505
ZBAA,2000-01-08 21:00,ZBAA 082100Z AUTO 05004KT 6SM M07/M14 A3021 RMK SLP221 T10711139 57011 IEM_DS3505
ZBAA,2000-01-08 22:00,ZBAA 082200Z AUTO 34004KT 2 1/2SM M10/M14 A3018 RMK T11001140 IEM_DS3505
ZBAA,2000-01-08 23:00,ZBAA 082300Z AUTO 34004KT 2 1/2SM M11/M15 A3018 RMK T11101150 IEM_DS3505
ZBAA,2000-01-09 00:00,ZBAA 090000Z AUTO 07002KT 4SM M09/M16 A3018 RMK SLP219 T10901163 57003 IEM_DS3505
ZBAA,2000-01-09 01:00,ZBAA 090100Z AUTO 35004KT 2 1/2SM M10/M14 A3021 RMK T11001140 IEM_DS3505
ZBAA,2000-01-09 02:00,ZBAA 090200Z AUTO 36004KT 3SM M08/M13 A3021 RMK T10801130 IEM_DS3505
ZBAA,2000-01-09 03:00,ZBAA 090300Z AUTO 08002KT 5SM M04/M15 A3021 RMK SLP229 T10441147 52010 IEM_DS3505
ZBAA,2000-01-09 04:00,ZBAA 090400Z AUTO 02002KT 3SM M05/M13 A3018 RMK T10501130 IEM_DS3505
ZBAA,2000-01-09 05:00,ZBAA 090500Z AUTO 3SM M03/M13 A3018 RMK T10301130 IEM_DS3505
ZBAA,2000-01-09 07:00,ZBAA 090700Z AUTO 04002KT 3SM M03/M13 A3015 RMK T10301130 IEM_DS3505
ZBAA,2000-01-09 08:00,ZBAA 090800Z AUTO 36002KT 3SM M03/M12 A3018 RMK T10301120 IEM_DS3505
ZBAA,2000-01-09 09:00,ZBAA 090900Z AUTO 00000KT 5SM M03/M13 A3021 RMK SLP225 T10321131 52013 IEM_DS3505
ZBAA,2000-01-09 10:00,ZBAA 091000Z AUTO 35004KT 2 1/2SM M06/M13 A3021 RMK T10601130 IEM_DS3505
ZBAA,2000-01-09 11:00,ZBAA 091100Z AUTO 22002KT 2 1/2SM M04/M13 A3024 RMK T10401130 IEM_DS3505
ZBAA,2000-01-09 12:00,ZBAA 091200Z AUTO 31002KT 4SM M06/M12 A3024 RMK SLP243 T10621124 52017 IEM_DS3505
ZBAA,2000-01-09 13:00,ZBAA 091300Z AUTO 00000KT 2SM M07/M13 A3024 RMK T10701130 IEM_DS3505
ZBAA,2000-01-09 14:00,ZBAA 091400Z AUTO 00000KT 1 1/2SM M10/M14 A3027 RMK T11001140 IEM_DS3505
ZBAA,2000-01-09 15:00,ZBAA 091500Z AUTO 00000KT 3SM M08/M13 A3030 RMK SLP260 T10761132 52017 IEM_DS3505
ZBAA,2000-01-09 16:00,ZBAA 091600Z AUTO 17002KT 1 1/2SM M10/M13 A3030 RMK T11001130 IEM_DS3505
ZBAA,2000-01-09 17:00,ZBAA 091700Z AUTO 00000KT 1 1/4SM M10/M13 A3033 RMK T11001130 IEM_DS3505
ZBAA,2000-01-09 18:00,ZBAA 091800Z AUTO 00000KT 2 1/2SM M09/M12 A3033 RMK SLP272 T10891122 52013 IEM_DS3505
ZBAA,2000-01-09 19:00,ZBAA 091900Z AUTO 01002KT 1 1/4SM M11/M13 A3036 RMK T11101130 IEM_DS3505
ZBAA,2000-01-09 20:00,ZBAA 092000Z AUTO 00000KT 1SM M12/M13 A3036 RMK T11201130 IEM_DS3505
ZBAA,2000-01-09 21:00,ZBAA 092100Z AUTO 06004KT 2 1/2SM M11/M14 A3039 RMK SLP285 T11101142 52012 IEM_DS3505
ZBAA,2000-01-09 22:00,ZBAA 092200Z AUTO 01002KT 1SM M11/M13 A3039 RMK T11101130 IEM_DS3505
ZBAA,2000-01-09 23:00,ZBAA 092300Z AUTO 36004KT 1 1/4SM M11/M13 A3042 RMK T11101130 IEM_DS3505
ZBAA,2000-01-10 00:00,ZBAA 100000Z AUTO 36002KT 2SM M09/M13 A3045 RMK SLP306 T10921128 52021 IEM_DS3505
ZBAA,2000-01-10 01:00,ZBAA 100100Z AUTO 35004KT 2SM M10/M12 A3045 RMK T11001120 IEM_DS3505
ZBAA,2000-01-10 02:00,ZBAA 100200Z AUTO 34004KT 5SM M06/M13 A3045 RMK T10601130 IEM_DS3505
ZBAA,2000-01-10 03:00,ZBAA 100300Z AUTO 05002KT 2SM M03/M12 A3047 RMK SLP314 T10311122 52008 IEM_DS3505
ZBAA,2000-01-10 04:00,ZBAA 100400Z AUTO 34004KT 6SM M03/M12 A3045 RMK T10301120 IEM_DS3505
ZBAA,2000-01-10 05:00,ZBAA 100500Z AUTO 02002KT 6SM M01/M13 A3045 RMK T10101130 IEM_DS3505
ZBAA,2000-01-10 06:00,ZBAA 100600Z AUTO 10002KT 2 1/2SM M00/M11 A3042 RMK SLP299 T10011114 57014 IEM_DS3505
ZBAA,2000-01-10 07:00,ZBAA 100700Z AUTO 13002KT 00/M12 A3042 RMK T00001120 IEM_DS3505
ZBAA,2000-01-10 08:00,ZBAA 100800Z AUTO 00000KT 00/M12 A3045 RMK T00001120 IEM_DS3505
ZBAA,2000-01-10 09:00,ZBAA 100900Z AUTO 05002KT 2 1/2SM M02/M12 A3045 RMK SLP312 T10211116 52012 IEM_DS3505
ZBAA,2000-01-10 10:00,ZBAA 101000Z AUTO 03002KT 2 1/2SM M02/M11 A3047 RMK T10201110 IEM_DS3505
ZBAA,2000-01-10 11:00,ZBAA 101100Z AUTO 07002KT 2 1/2SM M04/M11 A3047 RMK T10401110 IEM_DS3505
ZBAA,2000-01-10 12:00,ZBAA 101200Z AUTO 10004KT 3SM M05/M12 A3050 RMK SLP328 T10481122 52016 IEM_DS3505
ZBAA,2000-01-10 13:00,ZBAA 101300Z AUTO 12006KT 2SM M05/M07 A3050 RMK T10501070 IEM_DS3505
ZBAA,2000-01-10 14:00,ZBAA 101400Z AUTO 12006KT 2 1/2SM M05/M07 A3053 RMK T10501070 IEM_DS3505
ZBAA,2000-01-10 15:00,ZBAA 101500Z AUTO 09008KT 6SM M06/M09 A3053 RMK SLP340 T10551090 52012 IEM_DS3505
ZBAA,2000-01-10 16:00,ZBAA 101600Z AUTO 12006KT 4SM M05/M08 A3053 RMK T10501080 IEM_DS3505
ZBAA,2000-01-10 17:00,ZBAA 101700Z AUTO 13002KT 7SM M05/M08 A3053 RMK T10501080 IEM_DS3505
ZBAA,2000-01-10 18:00,ZBAA 101800Z AUTO 06004KT 6SM M05/M10 A3053 RMK 60003 SLP333 T10531099 57006 IEM_DS3505
ZBAA,2000-01-10 19:00,ZBAA 101900Z AUTO 00000KT 7SM M05/M08 A3053 RMK T10501080 IEM_DS3505
ZBAA,2000-01-10 20:00,ZBAA 102000Z AUTO 17002KT 7SM M05/M08 A3053 RMK T10501080 IEM_DS3505
ZBAA,2000-01-10 21:00,ZBAA 102100Z AUTO 07004KT 6SM M06/M10 A3050 RMK 70003 SLP324 T10551102 57009 IEM_DS3505
ZBAA,2000-01-10 22:00,ZBAA 102200Z AUTO 14002KT 1 1/2SM M05/M08 A3047 RMK T10501080 IEM_DS3505
ZBAA,2000-01-10 23:00,ZBAA 102300Z AUTO 14002KT 1SM M06/M08 A3050 RMK T10601080 IEM_DS3505
ZBAA,2000-01-11 00:00,ZBAA 110000Z AUTO 05002KT 1 1/2SM M06/M08 A3050 RMK 60004 SLP328 T10611083 52003 IEM_DS3505
ZBAA,2000-01-11 01:00,ZBAA 110100Z AUTO 15002KT 1SM M06/M07 A3050 RMK T10601070 IEM_DS3505
ZBAA,2000-01-11 02:00,ZBAA 110200Z AUTO 15004KT 1 1/4SM M06/M07 A3053 RMK T10601070 IEM_DS3505
ZBAA,2000-01-11 03:00,ZBAA 110300Z AUTO 08004KT 2SM M06/M08 A3053 RMK SLP331 T10551075 52003 IEM_DS3505
ZBAA,2000-01-11 04:00,ZBAA 110400Z AUTO 10004KT 1 1/4SM M06/M07 A3047 RMK T10601070 IEM_DS3505
ZBAA,2000-01-11 05:00,ZBAA 110500Z AUTO 11004KT 2SM M06/M07 A3045 RMK T10601070 IEM_DS3505
ZBAA,2000-01-11 06:00,ZBAA 110600Z AUTO 10004KT 2 1/2SM M05/M07 A3042 RMK 60008 SLP298 T10491070 57032 IEM_DS3505
ZBAA,2000-01-11 07:00,ZBAA 110700Z AUTO 12004KT 1 1/4SM M06/M07 A3042 RMK T10601070 IEM_DS3505
ZBAA,2000-01-11 08:00,ZBAA 110800Z AUTO 13004KT 1 1/2SM M06/M07 A3039 RMK T10601070 IEM_DS3505
ZBAA,2000-01-11 09:00,ZBAA 110900Z AUTO 06002KT 2 1/2SM M06/M08 A3039 RMK SLP296 T10581077 57003 IEM_DS3505
ZBAA,2000-01-11 10:00,ZBAA 111000Z AUTO 10002KT 1 1/2SM M06/M07 A3042 RMK T10601070 IEM_DS3505
ZBAA,2000-01-11 11:00,ZBAA 111100Z AUTO 12002KT 2SM M06/M07 A3042 RMK T10601070 IEM_DS3505
ZBAA,2000-01-11 12:00,ZBAA 111200Z AUTO 13002KT 2SM M06/M08 A3042 RMK 60001 SLP296 T10591080 54000 IEM_DS3505
ZBAA,2000-01-11 13:00,ZBAA 111300Z AUTO 11004KT 1 1/4SM M06/M07 A3042 RMK T10601070 IEM_DS3505
ZBAA,2000-01-11 14:00,ZBAA 111400Z AUTO 07002KT 1 1/4SM M06/M07 A3039 RMK T10601070 IEM_DS3505
ZBAA,2000-01-11 15:00,ZBAA 111500Z AUTO 17002KT 3SM M06/M08 A3039 RMK SLP293 T10581084 57003 IEM_DS3505
ZBAA,2000-01-11 16:00,ZBAA 111600Z AUTO 09002KT 1 1/4SM M06/M07 A3039 RMK T10601070 IEM_DS3505
ZBAA,2000-01-11 17:00,ZBAA 111700Z AUTO 10002KT 1SM M06/M07 A3039 RMK T10601070 IEM_DS3505
ZBAA,2000-01-11 18:00,ZBAA 111800Z AUTO 17002KT 1 1/4SM M06/M08 A3036 RMK 60002 SLP280 T10591080 57012 IEM_DS3505
ZBAA,2000-01-11 19:00,ZBAA 111900Z AUTO 11002KT 1SM M06/M07 A3036 RMK T10601070 IEM_DS3505
ZBAA,2000-01-11 20:00,ZBAA 112000Z AUTO 10002KT 1SM M07/M07 A3033 RMK T10701070 IEM_DS3505
ZBAA,2000-01-11 21:00,ZBAA 112100Z AUTO 14002KT 2SM M07/M09 A3030 RMK 70018 SLP262 T10681086 57018 IEM_DS3505
ZBAA,2000-01-11 22:00,ZBAA 112200Z AUTO 13002KT 1SM M07/M07 A3030 RMK T10701070 IEM_DS3505
ZBAA,2000-01-11 23:00,ZBAA 112300Z AUTO 09002KT 1SM M07/M08 A3030 RMK T10701080 IEM_DS3505
ZBAA,2000-01-12 00:00,ZBAA 120000Z AUTO 23002KT 1 1/2SM M06/M08 A3033 RMK 60003 SLP271 T10651083 52008 IEM_DS3505
ZBAA,2000-01-12 01:00,ZBAA 120100Z AUTO 00000KT 1SM M07/M07 A3033 RMK T10701070 IEM_DS3505
ZBAA,2000-01-12 02:00,ZBAA 120200Z AUTO 11002KT 1SM M06/M07 A3033 RMK T10601070 IEM_DS3505
ZBAA,2000-01-12 03:00,ZBAA 120300Z AUTO 21004KT 3SM M05/M08 A3033 RMK SLP266 T10521078 57004 IEM_DS3505
ZBAA,2000-01-12 04:00,ZBAA 120400Z AUTO 00000KT 1SM M05/M06 A3030 RMK T10501060 IEM_DS3505
ZBAA,2000-01-12 05:00,ZBAA 120500Z AUTO 00000KT 1SM M04/M06 A3027 RMK T10401060 IEM_DS3505
ZBAA,2000-01-12 06:00,ZBAA 120600Z AUTO 21004KT 3SM M04/M08 A3024 RMK 60000 SLP240 T10441075 57026 IEM_DS3505
ZBAA,2000-01-12 07:00,ZBAA 120700Z AUTO 00000KT 1 1/4SM M04/M06 A3024 RMK T10401060 IEM_DS3505
ZBAA,2000-01-12 08:00,ZBAA 120800Z AUTO 19004KT 1 1/4SM M04/M07 A3024 RMK T10401070 IEM_DS3505
ZBAA,2000-01-12 09:00,ZBAA 120900Z AUTO 25002KT 2 1/2SM M05/M08 A3024 RMK SLP245 T10541080 52005 IEM_DS3505
ZBAA,2000-01-12 10:00,ZBAA 121000Z AUTO 22004KT 1SM M06/M07 A3027 RMK T10601070 IEM_DS3505
ZBAA,2000-01-12 11:00,ZBAA 121100Z AUTO 00000KT 1SM M08/M08 A3027 RMK T10801080 IEM_DS3505
ZBAA,2000-01-12 12:00,ZBAA 121200Z AUTO 31006KT 6SM M04/M10 A3030 RMK SLP257 T10371099 52012 IEM_DS3505
ZBAA,2000-01-12 13:00,ZBAA 121300Z AUTO 32010KT 6SM M05/M13 A3030 RMK T10501130 IEM_DS3505
ZBAA,2000-01-12 14:00,ZBAA 121400Z AUTO 30010KT 6SM M05/M14 A3030 RMK T10501140 IEM_DS3505
ZBAA,2000-01-12 15:00,ZBAA 121500Z AUTO 34006KT 9SM M04/M16 A3033 RMK SLP263 T10431161 52006 IEM_DS3505
ZBAA,2000-01-12 16:00,ZBAA 121600Z AUTO 31014KT 6SM M06/M15 A3033 RMK T10601150 IEM_DS3505
ZBAA,2000-01-12 17:00,ZBAA 121700Z AUTO 32012KT 6SM M07/M16 A3033 RMK T10701160 IEM_DS3505
ZBAA,2000-01-12 18:00,ZBAA 121800Z AUTO 33004KT 10SM M06/M18 A3036 RMK SLP267 T10611177 52004 IEM_DS3505
ZBAA,2000-01-12 19:00,ZBAA 121900Z AUTO 32008KT 6SM M09/M18 A3033 RMK T10901180 IEM_DS3505
ZBAA,2000-01-12 20:00,ZBAA 122000Z AUTO 02004KT 6SM M11/M19 A3036 RMK T11101190 IEM_DS3505
ZBAA,2000-01-12 21:00,ZBAA 122100Z AUTO 05004KT 12SM M08/M19 A3033 RMK 70001 SLP270 T10771186 52002 IEM_DS3505
ZBAA,2000-01-12 22:00,ZBAA 122200Z AUTO 03006KT 6SM M11/M18 A3036 RMK T11101180 IEM_DS3505
ZBAA,2000-01-12 23:00,ZBAA 122300Z AUTO 01008KT 6SM M10/M18 A3036 RMK T11001180 IEM_DS3505
ZBAA,2000-01-13 00:00,ZBAA 130000Z AUTO 03002KT 7SM M10/M19 A3036 RMK SLP279 T11001191 52009 IEM_DS3505
ZBAA,2000-01-13 01:00,ZBAA 130100Z AUTO 04004KT 6SM M10/M19 A3039 RMK T11001190 IEM_DS3505
ZBAA,2000-01-13 02:00,ZBAA 130200Z AUTO 02008KT 6SM M08/M19 A3042 RMK T10801190 IEM_DS3505
ZBAA,2000-01-13 03:00,ZBAA 130300Z AUTO 06004KT 12SM M06/M18 A3042 RMK SLP298 T10591185 52019 IEM_DS3505
ZBAA,2000-01-13 04:00,ZBAA 130400Z AUTO 03004KT 6SM M06/M17 A3039 RMK T10601170 IEM_DS3505
ZBAA,2000-01-13 05:00,ZBAA 130500Z AUTO 09002KT 6SM M04/M17 A3036 RMK T10401170 IEM_DS3505
ZBAA,2000-01-13 06:00,ZBAA 130600Z AUTO 11004KT 9SM M04/M15 RMK SLP257 T10381148 57040 IEM_DS3505
ZBAA,2000-01-13 07:00,ZBAA 130700Z AUTO 00000KT 6SM M04/M17 A3030 RMK T10401170 IEM_DS3505
ZBAA,2000-01-13 08:00,ZBAA 130800Z AUTO 18004KT 6SM M04/M16 A3033 RMK T10401160 IEM_DS3505
ZBAA,2000-01-13 09:00,ZBAA 130900Z AUTO 22006KT 9SM M06/M15 A3033 RMK SLP270 T10571146 52012 IEM_DS3505
ZBAA,2000-01-13 10:00,ZBAA 131000Z AUTO 18006KT 6SM M06/M13 A3033 RMK T10601130 IEM_DS3505
ZBAA,2000-01-13 11:00,ZBAA 131100Z AUTO 17006KT 6SM M06/M12 A3033 RMK T10601120 IEM_DS3505
ZBAA,2000-01-13 12:00,ZBAA 131200Z AUTO 23002KT 4SM M07/M14 A3036 RMK SLP279 T10691139 52009 IEM_DS3505
ZBAA,2000-01-13 13:00,ZBAA 131300Z AUTO 16002KT 3SM M08/M11 A3036 RMK T10801110 IEM_DS3505
ZBAA,2000-01-13 14:00,ZBAA 131400Z AUTO 00000KT 2 1/2SM M09/M12 A3036 RMK T10901120 IEM_DS3505
ZBAA,2000-01-13 15:00,ZBAA 131500Z AUTO 22002KT 2 1/2SM M07/M13 A3036 RMK SLP277 T10741130 57002 IEM_DS3505
ZBAA,2000-01-13 16:00,ZBAA 131600Z AUTO 00000KT 2 1/2SM M10/M12 A3036 RMK T11001120 IEM_DS3505
ZBAA,2000-01-13 17:00,ZBAA 131700Z AUTO 00000KT 2 1/2SM M09/M12 A3036 RMK T10901120 IEM_DS3505
ZBAA,2000-01-13 18:00,ZBAA 131800Z AUTO 00000KT 5SM M10/M14 A3033 RMK SLP274 T11011137 57003 IEM_DS3505
ZBAA,2000-01-13 19:00,ZBAA 131900Z AUTO 08002KT 2 1/2SM M09/M12 A3036 RMK T10901120 IEM_DS3505
ZBAA,2000-01-13 20:00,ZBAA 132000Z AUTO 00000KT 2 1/2SM M09/M12 A3033 RMK T10901120 IEM_DS3505
ZBAA,2000-01-13 21:00,ZBAA 132100Z AUTO 00000KT 5SM M10/M13 A3033 RMK SLP268 T10971133 57006 IEM_DS3505
ZBAA,2000-01-13 22:00,ZBAA 132200Z AUTO 00000KT 2SM M10/M12 A3033 RMK T11001120 IEM_DS3505
ZBAA,2000-01-13 23:00,ZBAA 132300Z AUTO 03002KT 2SM M10/M12 A3033 RMK T11001120 IEM_DS3505
ZBAA,2000-01-14 00:00,ZBAA 140000Z AUTO 24002KT 4SM M08/M13 A3036 RMK SLP278 T10801128 52010 IEM_DS3505
ZBAA,2000-01-14 01:00,ZBAA 140100Z AUTO 2 1/2SM M10/M13 A3039 RMK T11001130 IEM_DS3505
ZBAA,2000-01-14 02:00,ZBAA 140200Z AUTO 35002KT 2 1/2SM M09/M12 A3039 RMK T10901120 IEM_DS3505
ZBAA,2000-01-14 03:00,ZBAA 140300Z AUTO 00000KT 4SM M05/M11 A3039 RMK SLP288 T10461109 52011 IEM_DS3505
ZBAA,2000-01-14 04:00,ZBAA 140400Z AUTO 35002KT 2 1/2SM M06/M11 A3039 RMK T10601110 IEM_DS3505
ZBAA,2000-01-14 05:00,ZBAA 140500Z AUTO 06002KT 2SM M05/M10 A3033 RMK T10501100 IEM_DS3505
ZBAA,2000-01-14 06:00,ZBAA 140600Z AUTO 17002KT 5SM M03/M10 A3030 RMK SLP261 T10281103 57028 IEM_DS3505
ZBAA,2000-01-14 07:00,ZBAA 140700Z AUTO 05002KT 2SM M04/M10 A3030 RMK T10401100 IEM_DS3505
ZBAA,2000-01-14 08:00,ZBAA 140800Z AUTO 12002KT 2SM M04/M11 A3030 RMK T10401110 IEM_DS3505
ZBAA,2000-01-14 09:00,ZBAA 140900Z AUTO 23002KT 5SM M05/M10 A3030 RMK SLP266 T10461103 52005 IEM_DS3505
ZBAA,2000-01-14 10:00,ZBAA 141000Z AUTO 00000KT 1 1/2SM M08/M11 A3033 RMK T10801110 IEM_DS3505
ZBAA,2000-01-14 11:00,ZBAA 141100Z AUTO 16002KT 1 1/4SM M08/M11 A3036 RMK T10801110 IEM_DS3505
ZBAA,2000-01-14 12:00,ZBAA 141200Z AUTO 17002KT 2 1/2SM M08/M11 A3039 RMK SLP285 T10781113 52019 IEM_DS3505
ZBAA,2000-01-14 13:00,ZBAA 141300Z AUTO 00000KT 1SM M10/M11 A3039 RMK T11001110 IEM_DS3505
ZBAA,2000-01-14 14:00,ZBAA 141400Z AUTO 01002KT 1SM M11/M12 A3042 RMK T11101120 IEM_DS3505
ZBAA,2000-01-14 15:00,ZBAA 141500Z AUTO 16002KT 2SM M09/M12 A3039 RMK SLP293 T10921115 52008 IEM_DS3505
ZBAA,2000-01-14 16:00,ZBAA 141600Z AUTO 00000KT 1SM M11/M12 A3042 RMK T11101120 IEM_DS3505
ZBAA,2000-01-14 17:00,ZBAA 141700Z AUTO 00000KT 1SM M11/M12 A3042 RMK T11101120 IEM_DS3505
ZBAA,2000-01-14 18:00,ZBAA 141800Z AUTO 06002KT 1 1/4SM M10/M12 A3042 RMK SLP298 T11021122 52005 IEM_DS3505
ZBAA,2000-01-14 19:00,ZBAA 141900Z AUTO 02002KT 1SM M12/M13 A3042 RMK T11201130 IEM_DS3505
ZBAA,2000-01-14 20:00,ZBAA 142000Z AUTO 06002KT 1SM M13/M14 A3042 RMK T11301140 IEM_DS3505
ZBAA,2000-01-14 21:00,ZBAA 142100Z AUTO 06004KT 1 1/4SM M10/M12 A3042 RMK SLP296 T10961118 57002 IEM_DS3505
ZBAA,2000-01-14 22:00,ZBAA 142200Z AUTO 00000KT 1SM M11/M12 A3042 RMK T11101120 IEM_DS3505
ZBAA,2000-01-14 23:00,ZBAA 142300Z AUTO 09002KT 1SM M10/M11 A3042 RMK T11001110 IEM_DS3505
ZBAA,2000-01-15 00:00,ZBAA 150000Z AUTO 08004KT 1 1/4SM M10/M12 A3042 RMK SLP303 T11001122 52007 IEM_DS3505
ZBAA,2000-01-15 01:00,ZBAA 150100Z AUTO 00000KT 1/2SM M09/M10 A3045 RMK T10901100 IEM_DS3505
ZBAA,2000-01-15 02:00,ZBAA 150200Z AUTO 00000KT 1SM M09/M10 A3045 RMK T10901100 IEM_DS3505
ZBAA,2000-01-15 03:00,ZBAA 150300Z AUTO 08004KT 1SM M07/M10 A3047 RMK SLP308 T10741104 52005 IEM_DS3505
ZBAA,2000-01-15 04:00,ZBAA 150400Z AUTO 05002KT 1SM M07/M09 A3045 RMK T10701090 IEM_DS3505
ZBAA,2000-01-15 05:00,ZBAA 150500Z AUTO 11004KT 1SM M06/M09 A3042 RMK T10601090 IEM_DS3505
ZBAA,2000-01-15 06:00,ZBAA 150600Z AUTO 08004KT 1 1/4SM M05/M10 A3039 RMK SLP282 T10491095 57026 IEM_DS3505
ZBAA,2000-01-15 07:00,ZBAA 150700Z AUTO 09002KT 1SM M05/M08 A3039 RMK T10501080 IEM_DS3505
ZBAA,2000-01-15 08:00,ZBAA 150800Z AUTO 06002KT 1SM M05/M09 A3039 RMK T10501090 IEM_DS3505
ZBAA,2000-01-15 09:00,ZBAA 150900Z AUTO 04002KT 2SM M06/M10 A3039 RMK SLP293 T10561098 52011 IEM_DS3505
ZBAA,2000-01-15 10:00,ZBAA 151000Z AUTO 00000KT 1SM M07/M09 A3042 RMK T10701090 IEM_DS3505
ZBAA,2000-01-15 11:00,ZBAA 151100Z AUTO 34002KT 1SM M10/M11 A3045 RMK T11001110 IEM_DS3505
ZBAA,2000-01-15 12:00,ZBAA 151200Z AUTO 00000KT 1 1/4SM M08/M11 A3045 RMK SLP308 T10781106 52015 IEM_DS3505
ZBAA,2000-01-15 13:00,ZBAA 151300Z AUTO 34002KT 1SM M10/M11 A3045 RMK T11001110 IEM_DS3505
ZBAA,2000-01-15 14:00,ZBAA 151400Z AUTO 35004KT 1SM M11/M12 A3047 RMK T11101120 IEM_DS3505
ZBAA,2000-01-15 15:00,ZBAA 151500Z AUTO 00000KT 1SM M09/M11 A3047 RMK SLP323 T10881108 52015 IEM_DS3505
ZBAA,2000-01-15 16:00,ZBAA 151600Z AUTO 1SM M11/M12 A3050 RMK T11101120 IEM_DS3505
ZBAA,2000-01-15 17:00,ZBAA 151700Z AUTO 34002KT 1SM M11/M12 A3050 RMK T11101120 IEM_DS3505
ZBAA,2000-01-15 18:00,ZBAA 151800Z AUTO 00000KT 1/4SM M10/M12 A3050 RMK SLP330 T11041123 52007 IEM_DS3505
ZBAA,2000-01-15 19:00,ZBAA 151900Z AUTO 34006KT 1SM M12/M13 A3050 RMK T11201130 IEM_DS3505
ZBAA,2000-01-15 21:00,ZBAA 152100Z AUTO 01002KT 6SM M08/M13 A3050 RMK SLP327 T10801126 57003 IEM_DS3505
ZBAA,2000-01-15 22:00,ZBAA 152200Z AUTO 04004KT 3SM M10/M14 A3053 RMK T11001140 IEM_DS3505
ZBAA,2000-01-15 23:00,ZBAA 152300Z AUTO 11002KT 2 1/2SM M13/M15 A3056 RMK T11301150 IEM_DS3505
ZBAA,2000-01-16 00:00,ZBAA 160000Z AUTO 07004KT 1/8SM M13/M16 A3056 RMK SLP353 T11341155 52025 IEM_DS3505
ZBAA,2000-01-16 01:00,ZBAA 160100Z AUTO 13002KT 1/8SM M14/M15 A3059 RMK T11401150 IEM_DS3505
ZBAA,2000-01-16 02:00,ZBAA 160200Z AUTO 14004KT 1/8SM M13/M14 A3062 RMK T11301140 IEM_DS3505
ZBAA,2000-01-16 03:00,ZBAA 160300Z AUTO 06002KT 1/8SM M10/M12 A3059 RMK SLP359 T11031123 52007 IEM_DS3505
ZBAA,2000-01-16 04:00,ZBAA 160400Z AUTO 14004KT 1/4SM M10/M11 A3056 RMK T11001110 IEM_DS3505
ZBAA,2000-01-16 05:00,ZBAA 160500Z AUTO 16002KT 1SM M08/M09 A3053 RMK T10801090 IEM_DS3505
ZBAA,2000-01-16 06:00,ZBAA 160600Z AUTO 12002KT 1SM M08/M10 A3050 RMK 60003 SLP327 T10771095 57032 IEM_DS3505
ZBAA,2000-01-16 07:00,ZBAA 160700Z AUTO 13004KT 1SM M07/M08 A3047 RMK T10701080 IEM_DS3505
ZBAA,2000-01-16 08:00,ZBAA 160800Z AUTO 15002KT 1SM M06/M08 A3047 RMK T10601080 IEM_DS3505
ZBAA,2000-01-16 09:00,ZBAA 160900Z AUTO 11002KT 1SM M08/M11 A3047 RMK SLP322 T10841106 57005 IEM_DS3505
ZBAA,2000-01-16 10:00,ZBAA 161000Z AUTO 11002KT 1SM M08/M10 A3047 RMK T10801100 IEM_DS3505
ZBAA,2000-01-16 11:00,ZBAA 161100Z AUTO 15002KT 1SM M09/M10 A3047 RMK T10901100 IEM_DS3505
ZBAA,2000-01-16 12:00,ZBAA 161200Z AUTO 00000KT 1SM M09/M11 A3050 RMK SLP328 T10881106 52005 IEM_DS3505
ZBAA,2000-01-16 13:00,ZBAA 161300Z AUTO 00000KT 1/2SM M09/M09 A3050 RMK T10901090 IEM_DS3505
ZBAA,2000-01-16 14:00,ZBAA 161400Z AUTO 00000KT 3/8SM M10/M10 A3050 RMK T11001100 IEM_DS3505
ZBAA,2000-01-16 15:00,ZBAA 161500Z AUTO 00000KT 1SM M10/M11 A3047 RMK SLP320 T10971114 57007 IEM_DS3505
ZBAA,2000-01-16 16:00,ZBAA 161600Z AUTO 00000KT 1/4SM M13/M14 A3047 RMK T11301140 IEM_DS3505
ZBAA,2000-01-16 17:00,ZBAA 161700Z AUTO 36002KT 1/4SM M12/M13 A3047 RMK T11201130 IEM_DS3505
ZBAA,2000-01-16 18:00,ZBAA 161800Z AUTO 00000KT 0SM M12/M14 A3045 RMK SLP313 T11201140 57007 IEM_DS3505
ZBAA,2000-01-16 19:00,ZBAA 161900Z AUTO 33002KT 3/8SM M13/M13 A3045 RMK T11301130 IEM_DS3505
ZBAA,2000-01-16 20:00,ZBAA 162000Z AUTO 00000KT 3/8SM M12/M13 A3045 RMK T11201130 IEM_DS3505
ZBAA,2000-01-16 21:00,ZBAA 162100Z AUTO 11002KT 1/8SM M12/M14 A3045 RMK 70003 SLP305 T11171138 57008 IEM_DS3505
ZBAA,2000-01-16 22:00,ZBAA 162200Z AUTO 35004KT 3/8SM M13/M14 A3042 RMK T11301140 IEM_DS3505
ZBAA,2000-01-16 23:00,ZBAA 162300Z AUTO 33004KT 3/8SM M14/M15 A3042 RMK T11401150 IEM_DS3505
ZBAA,2000-01-17 00:00,ZBAA 170000Z AUTO 00000KT 1/8SM M11/M13 A3042 RMK 70003 SLP303 T11081128 57002 IEM_DS3505
ZBAA,2000-01-17 01:00,ZBAA 170100Z AUTO 32006KT 1SM M13/M14 A3045 RMK T11301140 IEM_DS3505
ZBAA,2000-01-17 02:00,ZBAA 170200Z AUTO 33004KT 1 1/4SM M11/M13 A3045 RMK T11101130 IEM_DS3505
ZBAA,2000-01-17 03:00,ZBAA 170300Z AUTO 21002KT 1/4SM M10/M12 A3045 RMK SLP308 T11051125 52005 IEM_DS3505
ZBAA,2000-01-17 04:00,ZBAA 170400Z AUTO 33002KT 2SM M07/M13 A3042 RMK T10701130 IEM_DS3505
ZBAA,2000-01-17 05:00,ZBAA 170500Z AUTO 2 1/2SM M05/M12 A3036 RMK T10501120 IEM_DS3505
ZBAA,2000-01-17 06:00,ZBAA 170600Z AUTO 19004KT 1 1/4SM M06/M08 A3033 RMK SLP271 T10601077 57037 IEM_DS3505
ZBAA,2000-01-17 07:00,ZBAA 170700Z AUTO 15004KT 1 1/4SM M02/M08 A3030 RMK T10201080 IEM_DS3505
ZBAA,2000-01-17 08:00,ZBAA 170800Z AUTO 14004KT 1SM M03/M08 A3030 RMK T10301080 IEM_DS3505
ZBAA,2000-01-17 09:00,ZBAA 170900Z AUTO 21002KT 4SM M06/M11 A3030 RMK SLP267 T10571108 57004 IEM_DS3505
ZBAA,2000-01-17 10:00,ZBAA 171000Z AUTO 15002KT 1SM M06/M10 A3030 RMK T10601100 IEM_DS3505
ZBAA,2000-01-17 11:00,ZBAA 171100Z AUTO 10002KT 1SM M08/M11 A3033 RMK T10801110 IEM_DS3505
ZBAA,2000-01-17 12:00,ZBAA 171200Z AUTO 22002KT 1SM M09/M12 A3033 RMK SLP273 T10931115 52006 IEM_DS3505
ZBAA,2000-01-17 13:00,ZBAA 171300Z AUTO 10002KT 1SM M10/M11 A3033 RMK T11001110 IEM_DS3505
ZBAA,2000-01-17 14:00,ZBAA 171400Z AUTO 06002KT 1SM M11/M12 A3033 RMK T11101120 IEM_DS3505
ZBAA,2000-01-17 15:00,ZBAA 171500Z AUTO 00000KT 1SM M11/M13 A3036 RMK SLP274 T11091129 52001 IEM_DS3505
ZBAA,2000-01-17 16:00,ZBAA 171600Z AUTO 04002KT 3/8SM M12/M13 A3033 RMK T11201130 IEM_DS3505
ZBAA,2000-01-17 17:00,ZBAA 171700Z AUTO 00000KT 3/8SM M12/M13 A3033 RMK T11201130 IEM_DS3505
ZBAA,2000-01-17 18:00,ZBAA 171800Z AUTO 24002KT 3/8SM M12/M14 RMK SLP263 T11171137 57011 IEM_DS3505
ZBAA,2000-01-17 19:00,ZBAA 171900Z AUTO 35002KT 1/8SM M12/M13 A3033 RMK T11201130 IEM_DS3505
ZBAA,2000-01-17 20:00,ZBAA 172000Z AUTO 34002KT 1/8SM M13/M14 A3030 RMK T11301140 IEM_DS3505
ZBAA,2000-01-17 21:00,ZBAA 172100Z AUTO 05004KT 1SM M11/M13 A3030 RMK SLP256 T11081128 57007 IEM_DS3505
ZBAA,2000-01-17 22:00,ZBAA 172200Z AUTO 32008KT 1SM M11/M12 A3030 RMK T11101120 IEM_DS3505
ZBAA,2000-01-17 23:00,ZBAA 172300Z AUTO 32006KT 1SM M12/M13 A3030 RMK T11201130 IEM_DS3505
ZBAA,2000-01-18 00:00,ZBAA 180000Z AUTO 30008KT 4SM A3033 RMK SLP271 52015 IEM_DS3505
ZBAA,2000-01-18 01:00,ZBAA 180100Z AUTO 31010KT 6SM M05/M14 A3036 RMK T10501140 IEM_DS3505
ZBAA,2000-01-18 02:00,ZBAA 180200Z AUTO 32010KT 6SM M03/M15 A3036 RMK T10301150 IEM_DS3505
ZBAA,2000-01-18 03:00,ZBAA 180300Z AUTO 31019KT 16SM M00/M20 A3036 RMK SLP273 T10021198 52003 IEM_DS3505
ZBAA,2000-01-18 04:00,ZBAA 180400Z AUTO 32014KT 6SM M01/M14 A3033 RMK T10101140 IEM_DS3505
ZBAA,2000-01-18 05:00,ZBAA 180500Z AUTO 30016KT 6SM M01/M15 A3033 RMK T10101150 IEM_DS3505
ZBAA,2000-01-18 06:00,ZBAA 180600Z AUTO 30016G27KT 19SM M00/M20 A3030 RMK SLP268 T10051195 57005 IEM_DS3505
ZBAA,2000-01-18 07:00,ZBAA 180700Z AUTO 31016KT 6SM M01/M15 A3033 RMK T10101150 IEM_DS3505
ZBAA,2000-01-18 08:00,ZBAA 180800Z AUTO 32025G39KT 6SM M02/M17 A3036 RMK T10201170 IEM_DS3505
ZBAA,2000-01-18 09:00,ZBAA 180900Z AUTO 31008G37KT 17SM M03/M19 A3039 RMK SLP292 T10261189 52023 IEM_DS3505
ZBAA,2000-01-18 10:00,ZBAA 181000Z AUTO 32025G39KT 6SM M04/M17 A3042 RMK T10401170 IEM_DS3505
ZBAA,2000-01-18 11:00,ZBAA 181100Z AUTO 32019G29KT 6SM M05/M19 A3045 RMK T10501190 IEM_DS3505
ZBAA,2000-01-18 12:00,ZBAA 181200Z AUTO 34004KT 12SM M05/M20 A3047 RMK SLP315 T10491197 52024 IEM_DS3505
ZBAA,2000-01-18 13:00,ZBAA 181300Z AUTO 32019KT 6SM M06/M19 A3047 RMK T10601190 IEM_DS3505
ZBAA,2000-01-18 14:00,ZBAA 181400Z AUTO 32017KT 6SM M06/M19 A3047 RMK T10601190 IEM_DS3505
ZBAA,2000-01-18 15:00,ZBAA 181500Z AUTO 33004G25KT 12SM M06/M21 A3047 RMK SLP325 T10561207 52009 IEM_DS3505
ZBAA,2000-01-18 16:00,ZBAA 181600Z AUTO 31017G31KT 6SM M07/M20 A3047 RMK T10701200 IEM_DS3505
ZBAA,2000-01-18 17:00,ZBAA 181700Z AUTO 30017KT 6SM M07/M21 A3047 RMK T10701210 IEM_DS3505
ZBAA,2000-01-18 18:00,ZBAA 181800Z AUTO 04002KT 19SM M09/M22 A3047 RMK SLP324 T10871216 54000 IEM_DS3505
ZBAA,2000-01-18 19:00,ZBAA 181900Z AUTO 36008KT 6SM M09/M21 A3047 RMK T10901210 IEM_DS3505
ZBAA,2000-01-18 20:00,ZBAA 182000Z AUTO 31016KT 6SM M08/M20 A3047 RMK T10801200 IEM_DS3505
ZBAA,2000-01-18 21:00,ZBAA 182100Z AUTO 11002KT 11SM M12/M21 A3045 RMK SLP319 T11191209 57006 IEM_DS3505
ZBAA,2000-01-18 22:00,ZBAA 182200Z AUTO 31012KT 6SM M09/M21 A3045 RMK T10901210 IEM_DS3505
ZBAA,2000-01-18 23:00,ZBAA 182300Z AUTO 6SM M11/M22 A3047 RMK T11101220 IEM_DS3505
ZBAA,2000-01-19 00:00,ZBAA 190000Z AUTO 08004KT 6SM M11/M20 RMK SLP317 T11131198 57002 IEM_DS3505
ZBAA,2000-01-19 01:00,ZBAA 190100Z AUTO 08004KT 6SM M11/M20 A3047 RMK SLP317 T11131198 57002 IEM_DS3505
ZBAA,2000-01-19 02:00,ZBAA 190200Z AUTO 05002KT 6SM M07/M20 A3047 RMK T10701200 IEM_DS3505
ZBAA,2000-01-19 03:00,ZBAA 190300Z AUTO 21004KT 6SM M06/M18 A3047 RMK SLP318 T10601176 52001 IEM_DS3505
ZBAA,2000-01-19 04:00,ZBAA 190400Z AUTO 14002KT 6SM M05/M18 A3045 RMK T10501180 IEM_DS3505
ZBAA,2000-01-19 05:00,ZBAA 190500Z AUTO 12006KT 6SM M05/M17 A3042 RMK T10501170 IEM_DS3505
ZBAA,2000-01-19 06:00,ZBAA 190600Z AUTO 22006KT 6SM M03/M18 A3036 RMK SLP283 T10291176 57034 IEM_DS3505
ZBAA,2000-01-19 07:00,ZBAA 190700Z AUTO 21006KT 6SM M02/M18 A3036 RMK T10201180 IEM_DS3505
ZBAA,2000-01-19 08:00,ZBAA 190800Z AUTO 19008KT 6SM M03/M16 A3036 RMK T10301160 IEM_DS3505
ZBAA,2000-01-19 09:00,ZBAA 190900Z AUTO 09002KT 6SM M04/M15 A3036 RMK SLP282 T10391149 57002 IEM_DS3505
ZBAA,2000-01-19 10:00,ZBAA 191000Z AUTO 03004KT 6SM M06/M15 A3039 RMK T10601150 IEM_DS3505
ZBAA,2000-01-19 11:00,ZBAA 191100Z AUTO 03004KT 6SM M08/M14 A3042 RMK T10801140 IEM_DS3505
ZBAA,2000-01-19 12:00,ZBAA 191200Z AUTO 03004KT 6SM M06/M14 A3045 RMK SLP307 T10591141 52025 IEM_DS3505
ZBAA,2000-01-19 13:00,ZBAA 191300Z AUTO 02004KT 5SM M09/M17 A3047 RMK T10901170 IEM_DS3505
ZBAA,2000-01-19 15:00,ZBAA 191500Z AUTO 02004KT 6SM M08/M17 A3050 RMK SLP331 T10791172 52024 IEM_DS3505
ZBAA,2000-01-19 16:00,ZBAA 191600Z AUTO 01006KT 6SM M09/M20 A3053 RMK T10901200 IEM_DS3505
ZBAA,2000-01-19 17:00,ZBAA 191700Z AUTO 02006KT 6SM M09/M21 A3056 RMK T10901210 IEM_DS3505
ZBAA,2000-01-19 18:00,ZBAA 191800Z AUTO 03006KT 9SM M09/M22 A3056 RMK SLP350 T10881224 52019 IEM_DS3505
ZBAA,2000-01-19 19:00,ZBAA 191900Z AUTO 01006KT 6SM M11/M21 A3059 RMK T11101210 IEM_DS3505
ZBAA,2000-01-19 20:00,ZBAA 192000Z AUTO 01006KT 6SM M11/M21 A3059 RMK T11101210 IEM_DS3505
ZBAA,2000-01-19 21:00,ZBAA 192100Z AUTO 04006KT 19SM M10/M23 A3059 RMK SLP357 T11001228 52007 IEM_DS3505
ZBAA,2000-01-19 22:00,ZBAA 192200Z AUTO 02004KT 6SM M12/M22 A3062 RMK T11201220 IEM_DS3505
ZBAA,2000-01-19 23:00,ZBAA 192300Z AUTO 01006KT 6SM M12/M22 A3062 RMK T11201220 IEM_DS3505
ZBAA,2000-01-20 00:00,ZBAA 200000Z AUTO 32002KT 6SM M11/M23 A3065 RMK SLP381 T11091229 52024 IEM_DS3505
ZBAA,2000-01-20 01:00,ZBAA 200100Z AUTO 01008KT 6SM M11/M21 A3068 RMK T11101210 IEM_DS3505
ZBAA,2000-01-20 02:00,ZBAA 200200Z AUTO 02008KT 6SM M09/M21 A3071 RMK T10901210 IEM_DS3505
ZBAA,2000-01-20 03:00,ZBAA 200300Z AUTO 03004KT 17SM M06/M22 A3071 RMK SLP402 T10621220 52021 IEM_DS3505
ZBAA,2000-01-20 04:00,ZBAA 200400Z AUTO 05004KT 6SM M06/M20 A3071 RMK T10601200 IEM_DS3505
ZBAA,2000-01-20 05:00,ZBAA 200500Z AUTO 6SM M05/M23 A3068 RMK T10501230 IEM_DS3505
ZBAA,2000-01-20 06:00,ZBAA 200600Z AUTO 07002KT 17SM M04/M22 A3068 RMK SLP387 T10411220 57015 IEM_DS3505
ZBAA,2000-01-20 07:00,ZBAA 200700Z AUTO 09002KT 6SM M05/M21 A3068 RMK T10501210 IEM_DS3505
ZBAA,2000-01-20 08:00,ZBAA 200800Z AUTO 13002KT 6SM M04/M20 A3068 RMK T10401200 IEM_DS3505
ZBAA,2000-01-20 09:00,ZBAA 200900Z AUTO 15004KT 17SM M06/M20 A3068 RMK SLP393 T10561203 52006 IEM_DS3505
ZBAA,2000-01-20 10:00,ZBAA 201000Z AUTO 13002KT 6SM M07/M18 A3071 RMK T10701180 IEM_DS3505
ZBAA,2000-01-20 11:00,ZBAA 201100Z AUTO 13002KT 6SM M08/M18 A3071 RMK T10801180 IEM_DS3505
ZBAA,2000-01-20 12:00,ZBAA 201200Z AUTO 20002KT 9SM M08/M20 A3074 RMK SLP408 T10791196 52014 IEM_DS3505
ZBAA,2000-01-20 13:00,ZBAA 201300Z AUTO 00000KT 6SM M09/M19 A3074 RMK T10901190 IEM_DS3505
ZBAA,2000-01-20 14:00,ZBAA 201400Z AUTO 08004KT 6SM M11/M17 A3074 RMK T11101170 IEM_DS3505
ZBAA,2000-01-20 15:00,ZBAA 201500Z AUTO 25002KT 7SM M09/M17 A3077 RMK SLP418 T10941169 52010 IEM_DS3505
ZBAA,2000-01-20 16:00,ZBAA 201600Z AUTO 10002KT 6SM M13/M18 A3074 RMK T11301180 IEM_DS3505
ZBAA,2000-01-20 17:00,ZBAA 201700Z AUTO 09002KT 5SM M13/M18 A3074 RMK T11301180 IEM_DS3505
ZBAA,2000-01-20 18:00,ZBAA 201800Z AUTO 00000KT 6SM M11/M17 A3077 RMK SLP416 T11091171 57001 IEM_DS3505
ZBAA,2000-01-20 19:00,ZBAA 201900Z AUTO 02002KT 4SM M14/M18 A3077 RMK T11401180 IEM_DS3505
ZBAA,2000-01-20 20:00,ZBAA 202000Z AUTO 00000KT 4SM M14/M17 A3074 RMK T11401170 IEM_DS3505
ZBAA,2000-01-20 21:00,ZBAA 202100Z AUTO 07002KT 6SM M13/M18 A3074 RMK SLP409 T11271182 57008 IEM_DS3505
ZBAA,2000-01-20 22:00,ZBAA 202200Z AUTO 34002KT 3SM M15/M18 A3074 RMK T11501180 IEM_DS3505
ZBAA,2000-01-20 23:00,ZBAA 202300Z AUTO 35002KT 4SM M16/M19 A3074 RMK T11601190 IEM_DS3505
ZBAA,2000-01-21 00:00,ZBAA 210000Z AUTO 04002KT 5SM M12/M19 A3074 RMK SLP411 T11231188 52002 IEM_DS3505
ZBAA,2000-01-21 01:00,ZBAA 210100Z AUTO 01002KT 2 1/2SM M14/M17 A3077 RMK T11401170 IEM_DS3505
ZBAA,2000-01-21 02:00,ZBAA 210200Z AUTO 35002KT 3SM M12/M17 A3077 RMK T11201170 IEM_DS3505
ZBAA,2000-01-21 03:00,ZBAA 210300Z AUTO 10004KT 6SM M08/M16 A3077 RMK SLP412 T10761164 52002 IEM_DS3505
ZBAA,2000-01-21 04:00,ZBAA 210400Z AUTO 10002KT 3SM M08/M16 A3074 RMK T10801160 IEM_DS3505
ZBAA,2000-01-21 05:00,ZBAA 210500Z AUTO 08002KT 3SM M07/M15 A3068 RMK T10701150 IEM_DS3505
ZBAA,2000-01-21 06:00,ZBAA 210600Z AUTO 18004KT 7SM M06/M11 A3065 RMK SLP376 T10571110 57036 IEM_DS3505
ZBAA,2000-01-21 07:00,ZBAA 210700Z AUTO 05004KT 3SM M06/M12 A3065 RMK T10601120 IEM_DS3505
ZBAA,2000-01-21 08:00,ZBAA 210800Z AUTO 05004KT 3SM M06/M11 A3062 RMK T10601110 IEM_DS3505
ZBAA,2000-01-21 09:00,ZBAA 210900Z AUTO 00000KT 7SM M05/M10 A3059 RMK SLP361 T10541103 57015 IEM_DS3505
ZBAA,2000-01-21 10:00,ZBAA 211000Z AUTO 08002KT 2 1/2SM M06/M10 A3059 RMK T10601100 IEM_DS3505
ZBAA,2000-01-21 11:00,ZBAA 211100Z AUTO 09002KT 2SM M06/M09 A3059 RMK T10601090 IEM_DS3505
ZBAA,2000-01-21 12:00,ZBAA 211200Z AUTO 14002KT 2SM M06/M09 A3059 RMK 60001 SLP356 T10601086 57005 IEM_DS3505
ZBAA,2000-01-21 13:00,ZBAA 211300Z AUTO 10002KT 1SM M07/M08 A3056 RMK T10701080 IEM_DS3505
ZBAA,2000-01-21 14:00,ZBAA 211400Z AUTO 06002KT 1SM M07/M08 A3056 RMK T10701080 IEM_DS3505
ZBAA,2000-01-21 15:00,ZBAA 211500Z AUTO 12002KT 1 1/4SM M06/M08 A3053 RMK SLP342 T10641085 57014 IEM_DS3505
ZBAA,2000-01-21 17:00,ZBAA 211700Z AUTO 36002KT 1 1/4SM M08/M09 A3050 RMK T10801090 IEM_DS3505
ZBAA,2000-01-21 18:00,ZBAA 211800Z AUTO 00000KT 2 1/2SM M07/M09 A3047 RMK 60008 SLP321 T10691088 57021 IEM_DS3505
ZBAA,2000-01-21 19:00,ZBAA 211900Z AUTO 33002KT 1SM M08/M08 A3047 RMK T10801080 IEM_DS3505
ZBAA,2000-01-21 20:00,ZBAA 212000Z AUTO 34004KT 1SM M08/M08 A3045 RMK T10801080 IEM_DS3505
ZBAA,2000-01-21 21:00,ZBAA 212100Z AUTO 04002KT 2SM M07/M09 A3042 RMK 70010 SLP300 T10711090 57021 IEM_DS3505
ZBAA,2000-01-21 22:00,ZBAA 212200Z AUTO 32004KT 1SM M08/M08 A3042 RMK T10801080 IEM_DS3505
ZBAA,2000-01-21 23:00,ZBAA 212300Z AUTO 31004KT 1SM M08/M08 A3042 RMK T10801080 IEM_DS3505
ZBAA,2000-01-22 00:00,ZBAA 220000Z AUTO 02002KT 2SM M07/M09 A3042 RMK 60004 SLP294 T10741093 57006 IEM_DS3505
ZBAA,2000-01-22 01:00,ZBAA 220100Z AUTO 33002KT 1SM M07/M08 A3042 RMK T10701080 IEM_DS3505
ZBAA,2000-01-22 02:00,ZBAA 220200Z AUTO 29004KT 1SM M07/M08 A3042 RMK T10701080 IEM_DS3505
ZBAA,2000-01-22 03:00,ZBAA 220300Z AUTO 08002KT 2 1/2SM M05/M09 A3039 RMK SLP288 T10541086 57006 IEM_DS3505
ZBAA,2000-01-22 04:00,ZBAA 220400Z AUTO 02002KT 1 1/2SM M06/M07 A3036 RMK T10601070 IEM_DS3505
ZBAA,2000-01-22 05:00,ZBAA 220500Z AUTO 03002KT 1 1/2SM M05/M07 A3033 RMK T10501070 IEM_DS3505
ZBAA,2000-01-22 06:00,ZBAA 220600Z AUTO 12002KT 3SM M04/M08 A3030 RMK 60000 SLP258 T10371083 57029 IEM_DS3505
ZBAA,2000-01-22 07:00,ZBAA 220700Z AUTO 00000KT 2SM M04/M08 A3030 RMK T10401080 IEM_DS3505
ZBAA,2000-01-22 08:00,ZBAA 220800Z AUTO 00000KT 2SM M04/M08 A3030 RMK T10401080 IEM_DS3505
ZBAA,2000-01-22 09:00,ZBAA 220900Z AUTO 00000KT 4SM M06/M10 A3030 RMK SLP260 T10571096 52002 IEM_DS3505
ZBAA,2000-01-22 10:00,ZBAA 221000Z AUTO 1 1/2SM M07/M10 A3030 RMK T10701100 IEM_DS3505
ZBAA,2000-01-22 11:00,ZBAA 221100Z AUTO 33002KT 1 1/4SM M08/M09 A3033 RMK T10801090 IEM_DS3505
ZBAA,2000-01-22 12:00,ZBAA 221200Z AUTO 23002KT 1 1/4SM M08/M10 A3033 RMK SLP274 T10831105 52013 IEM_DS3505
ZBAA,2000-01-22 13:00,ZBAA 221300Z AUTO 28002G12KT 1SM M07/M09 A3036 RMK T10701090 IEM_DS3505
ZBAA,2000-01-22 14:00,ZBAA 221400Z AUTO 34002KT 1SM M11/M12 A3036 RMK T11101120 IEM_DS3505
ZBAA,2000-01-22 15:00,ZBAA 221500Z AUTO 28002KT 1/8SM M09/M11 A3036 RMK SLP282 T10921109 52008 IEM_DS3505
ZBAA,2000-01-22 16:00,ZBAA 221600Z AUTO 31006KT 1SM M09/M11 A3039 RMK T10901110 IEM_DS3505
ZBAA,2000-01-22 17:00,ZBAA 221700Z AUTO 31004KT 1SM M12/M13 A3039 RMK T11201130 IEM_DS3505
ZBAA,2000-01-22 18:00,ZBAA 221800Z AUTO 23002KT 1SM M10/M12 A3039 RMK SLP289 T10971116 52007 IEM_DS3505
ZBAA,2000-01-22 19:00,ZBAA 221900Z AUTO 34006KT 1SM M12/M13 A3039 RMK T11201130 IEM_DS3505
ZBAA,2000-01-22 20:00,ZBAA 222000Z AUTO 33008KT 1 1/4SM M10/M12 A3039 RMK T11001120 IEM_DS3505
ZBAA,2000-01-22 21:00,ZBAA 222100Z AUTO 34002KT 1SM M09/M11 A3042 RMK 70002 SLP300 T10881106 52011 IEM_DS3505
ZBAA,2000-01-22 22:00,ZBAA 222200Z AUTO 36006KT 2 1/2SM M12/M15 A3045 RMK T11201150 IEM_DS3505
ZBAA,2000-01-22 23:00,ZBAA 222300Z AUTO 03008KT 6SM M07/M16 A3045 RMK T10701160 IEM_DS3505
ZBAA,2000-01-23 00:00,ZBAA 230000Z AUTO 05002KT 6SM M07/M16 A3047 RMK 70000 SLP320 T10731164 52020 IEM_DS3505
ZBAA,2000-01-23 01:00,ZBAA 230100Z AUTO 03010KT 6SM M07/M17 A3050 RMK T10701170 IEM_DS3505
ZBAA,2000-01-23 02:00,ZBAA 230200Z AUTO 03010KT 6SM M06/M17 A3053 RMK T10601170 IEM_DS3505
ZBAA,2000-01-23 03:00,ZBAA 230300Z AUTO 04008KT 6SM M04/M17 A3053 RMK SLP341 T10441171 52021 IEM_DS3505
ZBAA,2000-01-23 04:00,ZBAA 230400Z AUTO 03010KT 6SM M04/M16 A3053 RMK T10401160 IEM_DS3505
ZBAA,2000-01-23 05:00,ZBAA 230500Z AUTO 06006KT 6SM M03/M15 A3053 RMK T10301150 IEM_DS3505
ZBAA,2000-01-23 06:00,ZBAA 230600Z AUTO 15006KT 6SM M04/M11 A3053 RMK SLP338 T10411113 57003 IEM_DS3505
ZBAA,2000-01-23 07:00,ZBAA 230700Z AUTO 08002KT 6SM M02/M16 A3053 RMK T10201160 IEM_DS3505
ZBAA,2000-01-23 08:00,ZBAA 230800Z AUTO 21002KT 6SM M02/M17 A3056 RMK T10201170 IEM_DS3505
ZBAA,2000-01-23 09:00,ZBAA 230900Z AUTO 00000KT 5SM M06/M12 A3059 RMK SLP358 T10551116 52020 IEM_DS3505
ZBAA,2000-01-23 10:00,ZBAA 231000Z AUTO 00000KT 6SM M06/M14 A3062 RMK T10601140 IEM_DS3505
ZBAA,2000-01-23 11:00,ZBAA 231100Z AUTO 32010KT 6SM M05/M15 A3065 RMK T10501150 IEM_DS3505
ZBAA,2000-01-23 12:00,ZBAA 231200Z AUTO 34004KT 6SM M05/M15 A3065 RMK SLP384 T10541146 52026 IEM_DS3505
ZBAA,2000-01-23 13:00,ZBAA 231300Z AUTO 34012G21KT 6SM M06/M19 A3068 RMK T10601190 IEM_DS3505
ZBAA,2000-01-23 14:00,ZBAA 231400Z AUTO 35008KT 6SM M09/M19 A3071 RMK T10901190 IEM_DS3505
ZBAA,2000-01-23 15:00,ZBAA 231500Z AUTO 34010KT 7SM M07/M20 A3077 RMK SLP411 T10671202 52027 IEM_DS3505
ZBAA,2000-01-23 16:00,ZBAA 231600Z AUTO 35008KT 6SM M10/M20 A3077 RMK T11001200 IEM_DS3505
ZBAA,2000-01-23 17:00,ZBAA 231700Z AUTO 01008KT 6SM M10/M21 A3080 RMK T11001210 IEM_DS3505
ZBAA,2000-01-23 18:00,ZBAA 231800Z AUTO 02008KT 12SM M09/M21 A3083 RMK SLP431 T10891212 52020 IEM_DS3505
ZBAA,2000-01-23 19:00,ZBAA 231900Z AUTO 36006KT 6SM M13/M22 A3086 RMK T11301220 IEM_DS3505
ZBAA,2000-01-23 20:00,ZBAA 232000Z AUTO 01008KT 6SM M12/M22 A3086 RMK T11201220 IEM_DS3505
ZBAA,2000-01-23 21:00,ZBAA 232100Z AUTO 03008KT 19SM M11/M23 A3086 RMK SLP446 T11111228 52014 IEM_DS3505
ZBAA,2000-01-23 22:00,ZBAA 232200Z AUTO 01008KT 6SM M13/M23 A3089 RMK T11301230 IEM_DS3505
ZBAA,2000-01-23 23:00,ZBAA 232300Z AUTO 01008KT 6SM M13/M24 A3089 RMK T11301240 IEM_DS3505
ZBAA,2000-01-24 00:00,ZBAA 240000Z AUTO 02006KT 16SM M12/M24 A3092 RMK SLP459 T11221241 52013 IEM_DS3505
ZBAA,2000-01-24 01:00,ZBAA 240100Z AUTO 02006KT 6SM M13/M24 A3092 RMK T11301240 IEM_DS3505
ZBAA,2000-01-24 02:00,ZBAA 240200Z AUTO 02006KT 6SM M12/M24 A3095 RMK T11201240 IEM_DS3505
ZBAA,2000-01-24 03:00,ZBAA 240300Z AUTO 36010KT 16SM M09/M24 A3095 RMK SLP468 T10861237 52009 IEM_DS3505
ZBAA,2000-01-24 04:00,ZBAA 240400Z AUTO 03008KT 6SM M10/M23 A3092 RMK T11001230 IEM_DS3505
ZBAA,2000-01-24 05:00,ZBAA 240500Z AUTO 03006KT 6SM M09/M23 A3089 RMK T10901230 IEM_DS3505
ZBAA,2000-01-24 06:00,ZBAA 240600Z AUTO 04008KT 16SM M07/M22 A3086 RMK SLP446 T10731222 57022 IEM_DS3505
ZBAA,2000-01-24 07:00,ZBAA 240700Z AUTO 02006KT 6SM M08/M21 A3086 RMK T10801210 IEM_DS3505
ZBAA,2000-01-24 08:00,ZBAA 240800Z AUTO 01006KT 6SM M07/M22 A3083 RMK T10701220 IEM_DS3505
ZBAA,2000-01-24 09:00,ZBAA 240900Z AUTO 04006KT 12SM M07/M22 A3086 RMK SLP445 T10711224 57001 IEM_DS3505
ZBAA,2000-01-24 10:00,ZBAA 241000Z AUTO 34006KT 6SM M11/M23 A3086 RMK T11101230 IEM_DS3505
ZBAA,2000-01-24 11:00,ZBAA 241100Z AUTO 29004KT 6SM M09/M22 A3089 RMK T10901220 IEM_DS3505
ZBAA,2000-01-24 12:00,ZBAA 241200Z AUTO 32004KT 12SM M08/M23 A3089 RMK SLP459 T10781234 52014 IEM_DS3505
ZBAA,2000-01-24 13:00,ZBAA 241300Z AUTO 32010KT 6SM M11/M23 A3089 RMK T11101230 IEM_DS3505
ZBAA,2000-01-24 14:00,ZBAA 241400Z AUTO 33012KT 6SM M10/M24 A3089 RMK T11001240 IEM_DS3505
ZBAA,2000-01-24 15:00,ZBAA 241500Z AUTO 35006KT 12SM M10/M24 A3089 RMK SLP461 T10951237 52002 IEM_DS3505
ZBAA,2000-01-24 16:00,ZBAA 241600Z AUTO 35008KT 6SM M14/M24 A3089 RMK T11401240 IEM_DS3505
ZBAA,2000-01-24 17:00,ZBAA 241700Z AUTO 01008KT 6SM M13/M24 A3089 RMK T11301240 IEM_DS3505
ZBAA,2000-01-24 18:00,ZBAA 241800Z AUTO 35006KT 12SM M10/M24 A3089 RMK SLP456 T11031241 57005 IEM_DS3505
ZBAA,2000-01-24 19:00,ZBAA 241900Z AUTO 36008KT 6SM M16/M24 A3089 RMK T11601240 IEM_DS3505
ZBAA,2000-01-24 20:00,ZBAA 242000Z AUTO 34004KT 6SM M16/M25 A3089 RMK T11601250 IEM_DS3505
ZBAA,2000-01-24 21:00,ZBAA 242100Z AUTO 01004KT 9SM M11/M24 A3086 RMK SLP448 T11111238 57008 IEM_DS3505
ZBAA,2000-01-24 22:00,ZBAA 242200Z AUTO 35008KT 6SM M17/M25 A3086 RMK T11701250 IEM_DS3505
ZBAA,2000-01-24 23:00,ZBAA 242300Z AUTO 36006KT 6SM M15/M25 A3086 RMK T11501250 IEM_DS3505
ZBAA,2000-01-25 00:00,ZBAA 250000Z AUTO 34004KT 9SM M10/M24 A3086 RMK SLP446 T11041235 57002 IEM_DS3505
ZBAA,2000-01-25 03:00,ZBAA 250300Z AUTO 32008KT 12SM M07/M23 A3083 RMK SLP437 T10681230 57008 IEM_DS3505
ZBAA,2000-01-25 04:00,ZBAA 250400Z AUTO 32019KT 6SM M07/M21 A3080 RMK T10701210 IEM_DS3505
ZBAA,2000-01-25 05:00,ZBAA 250500Z AUTO 03006KT 6SM M07/M19 A3077 RMK T10701190 IEM_DS3505
ZBAA,2000-01-25 06:00,ZBAA 250600Z AUTO 34006KT 16SM M04/M21 A3074 RMK SLP411 T10441213 57026 IEM_DS3505
ZBAA,2000-01-25 07:00,ZBAA 250700Z AUTO 30016KT 6SM M05/M20 A3074 RMK T10501200 IEM_DS3505
ZBAA,2000-01-25 08:00,ZBAA 250800Z AUTO 30014G23KT 6SM M05/M19 A3074 RMK T10501190 IEM_DS3505
ZBAA,2000-01-25 09:00,ZBAA 250900Z AUTO 33008KT 16SM M05/M22 A3074 RMK SLP416 T10461220 52005 IEM_DS3505
ZBAA,2000-01-25 10:00,ZBAA 251000Z AUTO 31017KT 6SM M06/M19 A3077 RMK T10601190 IEM_DS3505
ZBAA,2000-01-25 11:00,ZBAA 251100Z AUTO 31014G23KT 6SM M07/M19 A3077 RMK T10701190 IEM_DS3505
ZBAA,2000-01-25 12:00,ZBAA 251200Z AUTO 33006KT 9SM M06/M22 A3080 RMK SLP424 T10611215 52008 IEM_DS3505
ZBAA,2000-01-25 13:00,ZBAA 251300Z AUTO 31012KT 6SM M07/M20 A3080 RMK T10701200 IEM_DS3505
ZBAA,2000-01-25 14:00,ZBAA 251400Z AUTO 31021KT 6SM M07/M20 A3077 RMK T10701200 IEM_DS3505
ZBAA,2000-01-25 15:00,ZBAA 251500Z AUTO 33008KT 9SM M07/M22 A3077 RMK SLP424 T10661220 54000 IEM_DS3505
ZBAA,2000-01-25 16:00,ZBAA 251600Z AUTO 31014KT 6SM M08/M20 A3080 RMK T10801200 IEM_DS3505
ZBAA,2000-01-25 17:00,ZBAA 251700Z AUTO 32014KT 6SM M08/M20 A3077 RMK T10801200 IEM_DS3505
ZBAA,2000-01-25 18:00,ZBAA 251800Z AUTO 34006KT 12SM M07/M22 A3080 RMK SLP425 T10731222 52001 IEM_DS3505
ZBAA,2000-01-25 19:00,ZBAA 251900Z AUTO 36006KT 6SM M13/M23 A3080 RMK T11301230 IEM_DS3505
ZBAA,2000-01-25 20:00,ZBAA 252000Z AUTO 35006KT 6SM M13/M21 A3080 RMK T11301210 IEM_DS3505
ZBAA,2000-01-25 21:00,ZBAA 252100Z AUTO 00000KT 19SM M08/M22 A3080 RMK SLP422 T10761224 57003 IEM_DS3505
ZBAA,2000-01-25 23:00,ZBAA 252300Z AUTO 01008KT 6SM M11/M21 A3083 RMK T11101210 IEM_DS3505
ZBAA,2000-01-26 00:00,ZBAA 260000Z AUTO 05004KT 16SM M10/M21 RMK SLP437 T11021214 52014 IEM_DS3505
ZBAA,2000-01-26 01:00,ZBAA 260100Z AUTO 02010KT 6SM M10/M20 A3083 RMK T11001200 IEM_DS3505
ZBAA,2000-01-26 02:00,ZBAA 260200Z AUTO 02008KT 6SM M08/M19 A3083 RMK T10801190 IEM_DS3505
ZBAA,2000-01-26 03:00,ZBAA 260300Z AUTO 34006KT 19SM M04/M20 A3083 RMK SLP436 T10381200 54000 IEM_DS3505
ZBAA,2000-01-26 04:00,ZBAA 260400Z AUTO 02008KT 6SM M05/M17 A3080 RMK T10501170 IEM_DS3505
ZBAA,2000-01-26 05:00,ZBAA 260500Z AUTO 03008KT 6SM M04/M16 A3077 RMK T10401160 IEM_DS3505
ZBAA,2000-01-26 06:00,ZBAA 260600Z AUTO 34008KT 16SM M00/M19 A3074 RMK SLP409 T10021187 57027 IEM_DS3505
ZBAA,2000-01-26 07:00,ZBAA 260700Z AUTO 03004KT 6SM M02/M16 A3074 RMK T10201160 IEM_DS3505
ZBAA,2000-01-26 08:00,ZBAA 260800Z AUTO 34004KT 6SM M02/M14 A3074 RMK T10201140 IEM_DS3505
ZBAA,2000-01-26 09:00,ZBAA 260900Z AUTO 33004KT 12SM M01/M18 A3074 RMK SLP406 T10081183 57003 IEM_DS3505
ZBAA,2000-01-26 10:00,ZBAA 261000Z AUTO 31016KT 6SM M03/M16 A3074 RMK T10301160 IEM_DS3505
ZBAA,2000-01-26 11:00,ZBAA 261100Z AUTO 31016KT 6SM M03/M17 A3074 RMK T10301170 IEM_DS3505
ZBAA,2000-01-26 12:00,ZBAA 261200Z AUTO 35006KT 12SM M03/M18 A3077 RMK SLP416 T10291183 52010 IEM_DS3505
ZBAA,2000-01-26 13:00,ZBAA 261300Z AUTO 35006KT 6SM M06/M16 A3077 RMK T10601160 IEM_DS3505
ZBAA,2000-01-26 14:00,ZBAA 261400Z AUTO 36006KT 6SM M06/M17 A3080 RMK T10601170 IEM_DS3505
ZBAA,2000-01-26 15:00,ZBAA 261500Z AUTO 02006KT 12SM M04/M19 A3080 RMK SLP422 T10421191 52006 IEM_DS3505
ZBAA,2000-01-26 16:00,ZBAA 261600Z AUTO 00000KT 6SM M09/M18 A3080 RMK T10901180 IEM_DS3505
ZBAA,2000-01-26 17:00,ZBAA 261700Z AUTO 6SM M09/M18 A3080 RMK T10901180 IEM_DS3505
ZBAA,2000-01-26 18:00,ZBAA 261800Z AUTO 04002KT 7SM M06/M19 A3077 RMK SLP420 T10641189 57002 IEM_DS3505
ZBAA,2000-01-26 19:00,ZBAA 261900Z AUTO 35006KT 6SM M10/M18 A3077 RMK T11001180 IEM_DS3505
ZBAA,2000-01-26 20:00,ZBAA 262000Z AUTO 36004KT 6SM M11/M19 A3077 RMK T11101190 IEM_DS3505
ZBAA,2000-01-26 21:00,ZBAA 262100Z AUTO 04004KT 11SM M08/M20 A3074 RMK SLP412 T10751196 57008 IEM_DS3505
ZBAA,2000-01-26 22:00,ZBAA 262200Z AUTO 36006KT 6SM M12/M19 A3074 RMK T11201190 IEM_DS3505
ZBAA,2000-01-26 23:00,ZBAA 262300Z AUTO 36006KT 6SM M14/M19 A3077 RMK T11401190 IEM_DS3505
ZBAA,2000-01-27 00:00,ZBAA 270000Z AUTO 03002KT 7SM M08/M20 A3077 RMK SLP415 T10791196 52003 IEM_DS3505
ZBAA,2000-01-27 01:00,ZBAA 270100Z AUTO 01006KT 6SM M08/M18 A3074 RMK T10801180 IEM_DS3505
ZBAA,2000-01-27 02:00,ZBAA 270200Z AUTO 01006KT 6SM M06/M17 A3074 RMK T10601170 IEM_DS3505
ZBAA,2000-01-27 03:00,ZBAA 270300Z AUTO 33004KT 6SM M03/M19 A3074 RMK SLP406 T10281191 57009 IEM_DS3505
ZBAA,2000-01-27 04:00,ZBAA 270400Z AUTO 03004KT 6SM M04/M16 A3071 RMK T10401160 IEM_DS3505
ZBAA,2000-01-27 05:00,ZBAA 270500Z AUTO 6SM M02/M16 A3068 RMK T10201160 IEM_DS3505
ZBAA,2000-01-27 06:00,ZBAA 270600Z AUTO 23006KT 6SM M00/M16 A3065 RMK SLP374 T10031157 57031 IEM_DS3505
ZBAA,2000-01-27 07:00,ZBAA 270700Z AUTO 6SM 01/M15 A3062 RMK T00101150 IEM_DS3505
ZBAA,2000-01-27 08:00,ZBAA 270800Z AUTO 27002KT 6SM 00/M15 A3059 RMK T00001150 IEM_DS3505
ZBAA,2000-01-27 09:00,ZBAA 270900Z AUTO 23006KT 6SM M02/M14 A3059 RMK SLP365 T10161143 57010 IEM_DS3505
ZBAA,2000-01-27 10:00,ZBAA 271000Z AUTO 17004KT 5SM M03/M12 RMK T10301120 IEM_DS3505
ZBAA,2000-01-27 11:00,ZBAA 271100Z AUTO 22006KT 5SM M03/M13 A3059 RMK T10301130 IEM_DS3505
ZBAA,2000-01-27 12:00,ZBAA 271200Z AUTO 22004KT 6SM M05/M14 RMK SLP362 T10501138 57003 IEM_DS3505
ZBAA,2000-01-27 13:00,ZBAA 271300Z AUTO 24002KT M04/M12 A3059 RMK T10401120 IEM_DS3505
ZBAA,2000-01-27 14:00,ZBAA 271400Z AUTO 00000KT 4SM M07/M12 A3059 RMK T10701120 IEM_DS3505
ZBAA,2000-01-27 15:00,ZBAA 271500Z AUTO 24002KT 6SM M07/M14 A3059 RMK SLP358 T10661141 57004 IEM_DS3505
ZBAA,2000-01-27 16:00,ZBAA 271600Z AUTO 00000KT 2 1/2SM M09/M13 A3059 RMK T10901130 IEM_DS3505
ZBAA,2000-01-27 17:00,ZBAA 271700Z AUTO 35002KT 2 1/2SM M11/M14 A3056 RMK T11101140 IEM_DS3505
ZBAA,2000-01-27 18:00,ZBAA 271800Z AUTO 20002KT 5SM M10/M14 A3056 RMK SLP347 T10951143 57011 IEM_DS3505
ZBAA,2000-01-27 19:00,ZBAA 271900Z AUTO 2SM M13/M16 A3056 RMK T11301160 IEM_DS3505
ZBAA,2000-01-27 20:00,ZBAA 272000Z AUTO 34002KT 2SM M13/M16 A3053 RMK T11301160 IEM_DS3505
ZBAA,2000-01-27 21:00,ZBAA 272100Z AUTO 21002KT 6SM M10/M14 A3053 RMK SLP337 T11051145 57010 IEM_DS3505
ZBAA,2000-01-27 22:00,ZBAA 272200Z AUTO 33002KT 2 1/2SM M14/M16 A3053 RMK T11401160 IEM_DS3505
ZBAA,2000-01-27 23:00,ZBAA 272300Z AUTO 34004KT 2 1/2SM M14/M16 A3053 RMK T11401160 IEM_DS3505
ZBAA,2000-01-28 00:00,ZBAA 280000Z AUTO 04002KT 1 1/4SM M11/M14 A3053 RMK SLP338 T11121142 52001 IEM_DS3505
ZBAA,2000-01-28 02:00,ZBAA 280200Z AUTO 34004KT 4SM M09/M14 A3053 RMK T10901140 IEM_DS3505
ZBAA,2000-01-28 03:00,ZBAA 280300Z AUTO 05002KT 5SM M03/M15 A3053 RMK SLP338 T10321154 52001 IEM_DS3505
ZBAA,2000-01-28 04:00,ZBAA 280400Z AUTO 05002KT M03/M13 A3050 RMK T10301130 IEM_DS3505
ZBAA,2000-01-28 05:00,ZBAA 280500Z AUTO 13004KT 6SM M02/M14 A3047 RMK T10201140 IEM_DS3505
ZBAA,2000-01-28 06:00,ZBAA 280600Z AUTO 10004KT 6SM M00/M15 A3045 RMK SLP305 T10041150 57033 IEM_DS3505
ZBAA,2000-01-28 07:00,ZBAA 280700Z AUTO 14002KT 6SM 00/M14 A3042 RMK T00001140 IEM_DS3505
ZBAA,2000-01-28 08:00,ZBAA 280800Z AUTO 15002KT 6SM M01/M14 A3042 RMK T10101140 IEM_DS3505
ZBAA,2000-01-28 09:00,ZBAA 280900Z AUTO 19004KT 5SM M02/M11 A3045 RMK SLP306 T10161114 54000 IEM_DS3505
ZBAA,2000-01-28 10:00,ZBAA 281000Z AUTO 00000KT M03/M13 A3045 RMK T10301130 IEM_DS3505
ZBAA,2000-01-28 11:00,ZBAA 281100Z AUTO 18006KT 2 1/2SM M03/M10 A3045 RMK T10301100 IEM_DS3505
ZBAA,2000-01-28 12:00,ZBAA 281200Z AUTO 25002KT 5SM M05/M11 A3047 RMK SLP318 T10481107 52012 IEM_DS3505
ZBAA,2000-01-28 13:00,ZBAA 281300Z AUTO 00000KT 1 1/2SM M05/M09 A3047 RMK T10501090 IEM_DS3505
ZBAA,2000-01-28 14:00,ZBAA 281400Z AUTO 11002KT 1 1/2SM M05/M09 A3047 RMK T10501090 IEM_DS3505
ZBAA,2000-01-28 15:00,ZBAA 281500Z AUTO 24002KT 4SM M05/M11 A3047 RMK SLP323 T10481109 52005 IEM_DS3505
ZBAA,2000-01-28 16:00,ZBAA 281600Z AUTO 34002KT 1 1/2SM M06/M10 A3050 RMK T10601100 IEM_DS3505
ZBAA,2000-01-28 17:00,ZBAA 281700Z AUTO 30002KT 2SM M06/M12 A3050 RMK T10601120 IEM_DS3505
ZBAA,2000-01-28 18:00,ZBAA 281800Z AUTO 32010KT 9SM M02/M19 A3050 RMK SLP326 T10231191 52004 IEM_DS3505
ZBAA,2000-01-28 19:00,ZBAA 281900Z AUTO 30019KT 6SM M05/M18 A3053 RMK T10501180 IEM_DS3505
ZBAA,2000-01-28 20:00,ZBAA 282000Z AUTO 31023KT 6SM M05/M18 A3053 RMK T10501180 IEM_DS3505
ZBAA,2000-01-28 21:00,ZBAA 282100Z AUTO 32012KT 12SM M04/M21 A3053 RMK SLP338 T10431213 52012 IEM_DS3505
ZBAA,2000-01-28 22:00,ZBAA 282200Z AUTO 31019KT 6SM M07/M18 A3056 RMK T10701180 IEM_DS3505
ZBAA,2000-01-28 23:00,ZBAA 282300Z AUTO 32016KT 6SM M07/M18 A3059 RMK T10701180 IEM_DS3505
ZBAA,2000-01-29 00:00,ZBAA 290000Z AUTO 33008KT 12SM M06/M22 A3062 RMK SLP366 T10581217 52027 IEM_DS3505
ZBAA,2000-01-29 01:00,ZBAA 290100Z AUTO 32017KT 6SM M07/M19 A3065 RMK T10701190 IEM_DS3505
ZBAA,2000-01-29 02:00,ZBAA 290200Z AUTO 31019KT 6SM M06/M19 A3065 RMK T10601190 IEM_DS3505
ZBAA,2000-01-29 03:00,ZBAA 290300Z AUTO 33012KT 12SM M04/M22 A3065 RMK SLP379 T10401219 52013 IEM_DS3505
ZBAA,2000-01-29 04:00,ZBAA 290400Z AUTO 32017KT 6SM M03/M16 A3065 RMK T10301160 IEM_DS3505
ZBAA,2000-01-29 05:00,ZBAA 290500Z AUTO 32016KT 6SM M03/M16 A3062 RMK T10301160 IEM_DS3505
ZBAA,2000-01-29 06:00,ZBAA 290600Z AUTO 31012KT 12SM M03/M22 A3059 RMK SLP364 T10261223 57014 IEM_DS3505
ZBAA,2000-01-29 07:00,ZBAA 290700Z AUTO 31021G31KT 6SM M03/M18 A3062 RMK T10301180 IEM_DS3505
ZBAA,2000-01-29 08:00,ZBAA 290800Z AUTO 31021G33KT 6SM M03/M19 A3062 RMK T10301190 IEM_DS3505
ZBAA,2000-01-29 09:00,ZBAA 290900Z AUTO 30016KT 16SM M04/M23 A3065 RMK SLP386 T10361232 52021 IEM_DS3505
ZBAA,2000-01-29 10:00,ZBAA 291000Z AUTO 31021G31KT 6SM M05/M21 A3071 RMK T10501210 IEM_DS3505
ZBAA,2000-01-29 11:00,ZBAA 291100Z AUTO 32023KT 6SM M06/M21 A3074 RMK T10601210 IEM_DS3505
ZBAA,2000-01-29 12:00,ZBAA 291200Z AUTO 33010KT 19SM M06/M24 A3077 RMK SLP419 T10551237 52033 IEM_DS3505
ZBAA,2000-01-29 13:00,ZBAA 291300Z AUTO 31016KT 6SM M07/M21 A3080 RMK T10701210 IEM_DS3505
ZBAA,2000-01-29 14:00,ZBAA 291400Z AUTO 32016KT 6SM M08/M21 A3080 RMK T10801210 IEM_DS3505
ZBAA,2000-01-29 15:00,ZBAA 291500Z AUTO 33006KT 19SM M07/M23 A3083 RMK SLP440 T10681234 52021 IEM_DS3505
ZBAA,2000-01-29 16:00,ZBAA 291600Z AUTO 1 1/4SM RMK IEM_DS3505
ZBAA,2000-01-29 17:00,ZBAA 291700Z AUTO 31017KT 6SM M09/M22 A3083 RMK T10901220 IEM_DS3505
ZBAA,2000-01-29 18:00,ZBAA 291800Z AUTO 34004KT 19SM M08/M24 A3083 RMK SLP441 T10791235 52001 IEM_DS3505
ZBAA,2000-01-29 19:00,ZBAA 291900Z AUTO 31014G23KT 6SM M09/M22 A3083 RMK T10901220 IEM_DS3505
ZBAA,2000-01-29 20:00,ZBAA 292000Z AUTO 31014KT 6SM M09/M22 A3083 RMK T10901220 IEM_DS3505
ZBAA,2000-01-29 21:00,ZBAA 292100Z AUTO 34004KT 19SM M09/M24 A3086 RMK SLP445 T10881235 52004 IEM_DS3505
ZBAA,2000-01-29 22:00,ZBAA 292200Z AUTO 33012KT 6SM M10/M22 A3086 RMK T11001220 IEM_DS3505
ZBAA,2000-01-29 23:00,ZBAA 292300Z AUTO 02004KT 6SM M11/M23 A3089 RMK T11101230 IEM_DS3505
ZBAA,2000-01-30 00:00,ZBAA 300000Z AUTO 35004KT 11SM M10/M22 A3089 RMK SLP460 T10951223 52014 IEM_DS3505
ZBAA,2000-01-30 01:00,ZBAA 300100Z AUTO 05004KT 6SM M10/M21 A3092 RMK T11001210 IEM_DS3505
ZBAA,2000-01-30 02:00,ZBAA 300200Z AUTO 33012KT 6SM M07/M22 A3092 RMK T10701220 IEM_DS3505
ZBAA,2000-01-30 03:00,ZBAA 300300Z AUTO 32008KT 12SM M06/M23 RMK SLP466 T10551227 52007 IEM_DS3505
ZBAA,2000-01-30 04:00,ZBAA 300400Z AUTO 35010KT 6SM M06/M20 A3089 RMK T10601200 IEM_DS3505
ZBAA,2000-01-30 05:00,ZBAA 300500Z AUTO 01008KT 6SM M05/M18 A3086 RMK T10501180 IEM_DS3505
ZBAA,2000-01-30 06:00,ZBAA 300600Z AUTO 33008G21KT 19SM M04/M24 A3086 RMK SLP447 T10371244 57019 IEM_DS3505
ZBAA,2000-01-30 07:00,ZBAA 300700Z AUTO 28017KT 6SM M04/M20 A3086 RMK T10401200 IEM_DS3505
ZBAA,2000-01-30 08:00,ZBAA 300800Z AUTO 29017G27KT 6SM M05/M21 A3086 RMK T10501210 IEM_DS3505
ZBAA,2000-01-30 09:00,ZBAA 300900Z AUTO 32014G29KT 19SM M05/M25 A3089 RMK SLP465 T10491254 52018 IEM_DS3505
ZBAA,2000-01-30 10:00,ZBAA 301000Z AUTO 30019KT 6SM M07/M23 A3092 RMK T10701230 IEM_DS3505
ZBAA,2000-01-30 11:00,ZBAA 301100Z AUTO 32021KT 6SM M08/M25 A3095 RMK T10801250 IEM_DS3505
ZBAA,2000-01-30 12:00,ZBAA 301200Z AUTO 33004G29KT 19SM M07/M26 A3098 RMK SLP492 T10741264 52026 IEM_DS3505
ZBAA,2000-01-30 13:00,ZBAA 301300Z AUTO 32016KT 6SM M10/M25 A3101 RMK T11001250 IEM_DS3505
ZBAA,2000-01-30 14:00,ZBAA 301400Z AUTO 31014KT 6SM M10/M25 A3101 RMK T11001250 IEM_DS3505
ZBAA,2000-01-30 15:00,ZBAA 301500Z AUTO 33004KT 12SM M09/M27 RMK SLP505 T10921274 52013 IEM_DS3505
ZBAA,2000-01-30 16:00,ZBAA 301600Z AUTO 31014KT 6SM M11/M26 A3101 RMK T11101260 IEM_DS3505
ZBAA,2000-01-30 17:00,ZBAA 301700Z AUTO 31012KT 6SM M11/M25 A3101 RMK T11101250 IEM_DS3505
ZBAA,2000-01-30 18:00,ZBAA 301800Z AUTO 02006KT 19SM M10/M27 A3101 RMK SLP498 T11011271 57007 IEM_DS3505
ZBAA,2000-01-30 19:00,ZBAA 301900Z AUTO 35008KT 6SM M13/M24 A3101 RMK T11301240 IEM_DS3505
ZBAA,2000-01-30 20:00,ZBAA 302000Z AUTO 01008KT 6SM M13/M25 A3101 RMK T11301250 IEM_DS3505
ZBAA,2000-01-30 21:00,ZBAA 302100Z AUTO 34008KT 19SM M11/M27 A3098 RMK SLP490 T11061271 57008 IEM_DS3505
ZBAA,2000-01-30 22:00,ZBAA 302200Z AUTO 01004KT 6SM M14/M25 A3101 RMK T11401250 IEM_DS3505
ZBAA,2000-01-30 23:00,ZBAA 302300Z AUTO 36008KT 6SM M15/M24 A3101 RMK T11501240 IEM_DS3505
ZBAA,2000-01-31 00:00,ZBAA 310000Z AUTO 02004KT 12SM M12/M26 A3101 RMK SLP497 T11251264 52007 IEM_DS3505
ZBAA,2000-01-31 01:00,ZBAA 310100Z AUTO 02006KT 6SM M12/M25 A3101 RMK T11201250 IEM_DS3505
ZBAA,2000-01-31 02:00,ZBAA 310200Z AUTO 02006KT 6SM M10/M24 A3101 RMK T11001240 IEM_DS3505
ZBAA,2000-01-31 03:00,ZBAA 310300Z AUTO 35008KT 12SM M07/M27 A3098 RMK SLP485 T10711267 57012 IEM_DS3505
ZBAA,2000-01-31 04:00,ZBAA 310400Z AUTO 02008KT 6SM M08/M23 A3095 RMK T10801230 IEM_DS3505
ZBAA,2000-01-31 05:00,ZBAA 310500Z AUTO 36006KT 6SM M06/M21 A3089 RMK T10601210 IEM_DS3505
ZBAA,2000-01-31 06:00,ZBAA 310600Z AUTO 36006KT 19SM M04/M26 A3086 RMK SLP448 T10431262 57036 IEM_DS3505
ZBAA,2000-01-31 07:00,ZBAA 310700Z AUTO 32004KT 6SM M05/M22 A3086 RMK T10501220 IEM_DS3505
ZBAA,2000-01-31 08:00,ZBAA 310800Z AUTO 35002KT 6SM M04/M23 A3083 RMK T10401230 IEM_DS3505
ZBAA,2000-01-31 09:00,ZBAA 310900Z AUTO 03002KT 12SM M04/M26 A3080 RMK SLP434 T10381258 57014 IEM_DS3505
ZBAA,2000-01-31 10:00,ZBAA 311000Z AUTO 05002KT 6SM M06/M20 A3083 RMK T10601200 IEM_DS3505
ZBAA,2000-01-31 11:00,ZBAA 311100Z AUTO 31002KT 6SM M07/M19 A3083 RMK T10701190 IEM_DS3505
ZBAA,2000-01-31 12:00,ZBAA 311200Z AUTO 25002KT 6SM M08/M19 A3083 RMK SLP439 T10791193 52004 IEM_DS3505
ZBAA,2000-01-31 13:00,ZBAA 311300Z AUTO 24002KT 6SM M08/M19 A3083 RMK T10801190 IEM_DS3505
ZBAA,2000-01-31 14:00,ZBAA 311400Z AUTO 06002KT 5SM M10/M18 A3080 RMK T11001180 IEM_DS3505
ZBAA,2000-01-31 15:00,ZBAA 311500Z AUTO 23002KT 6SM M10/M18 A3080 RMK SLP429 T10961182 57010 IEM_DS3505
ZBAA,2000-01-31 16:00,ZBAA 311600Z AUTO 35006KT M12/M19 A3080 RMK T11201190 IEM_DS3505
ZBAA,2000-01-31 17:00,ZBAA 311700Z AUTO 02006KT 5SM M11/M21 A3077 RMK T11101210 IEM_DS3505
ZBAA,2000-01-31 18:00,ZBAA 311800Z AUTO 05002KT 6SM M09/M22 A3077 RMK SLP413 T10901222 57015 IEM_DS3505
ZBAA,2000-01-31 19:00,ZBAA 311900Z AUTO 01006KT 6SM M11/M22 A3074 RMK T11101220 IEM_DS3505
ZBAA,2000-01-31 20:00,ZBAA 312000Z AUTO 36006KT 6SM M12/M21 A3071 RMK T11201210 IEM_DS3505
ZBAA,2000-01-31 21:00,ZBAA 312100Z AUTO 05004KT 9SM M10/M23 A3071 RMK SLP395 T11051232 57018 IEM_DS3505
ZBAA,2000-01-31 22:00,ZBAA 312200Z AUTO 36006KT 6SM M13/M21 A3071 RMK T11301210 IEM_DS3505
ZBAA,2000-01-31 23:00,ZBAA 312300Z AUTO 01004KT 6SM M12/M22 A3068 RMK T11201220 IEM_DS3505
ZBAA,2000-02-01 00:00,ZBAA 010000Z AUTO 04002KT 6SM M11/M24 A3068 RMK SLP391 T11101237 57005 IEM_DS3505
ZBAA,2000-02-01 01:00,ZBAA 010100Z AUTO 01006KT 6SM M10/M22 A3068 RMK T11001220 IEM_DS3505
ZBAA,2000-02-01 02:00,ZBAA 010200Z AUTO 02006KT 6SM M09/M22 A3068 RMK T10901220 IEM_DS3505
ZBAA,2000-02-01 03:00,ZBAA 010300Z AUTO 01004KT 12SM M06/M24 A3065 RMK SLP378 T10601241 57012 IEM_DS3505
ZBAA,2000-02-01 04:00,ZBAA 010400Z AUTO 35004KT 6SM M07/M22 A3062 RMK T10701220 IEM_DS3505
ZBAA,2000-02-01 05:00,ZBAA 010500Z AUTO 6SM M05/M21 A3059 RMK T10501210 IEM_DS3505
ZBAA,2000-02-01 06:00,ZBAA 010600Z AUTO 22002KT 9SM M03/M21 A3053 RMK SLP342 T10321208 57036 IEM_DS3505
ZBAA,2000-02-01 07:00,ZBAA 010700Z AUTO 26004KT 6SM M03/M22 A3050 RMK T10301220 IEM_DS3505
ZBAA,2000-02-01 08:00,ZBAA 010800Z AUTO 19002KT 6SM M02/M22 A3050 RMK T10201220 IEM_DS3505
ZBAA,2000-02-01 09:00,ZBAA 010900Z AUTO 21006KT 9SM M04/M19 A3050 RMK SLP330 T10451194 57012 IEM_DS3505
ZBAA,2000-02-01 10:00,ZBAA 011000Z AUTO 19006KT 6SM M05/M18 A3050 RMK T10501180 IEM_DS3505
ZBAA,2000-02-01 11:00,ZBAA 011100Z AUTO 20002KT 5SM M05/M18 A3050 RMK T10501180 IEM_DS3505
ZBAA,2000-02-01 12:00,ZBAA 011200Z AUTO 25004KT 6SM M07/M18 A3053 RMK SLP336 T10681175 52006 IEM_DS3505
ZBAA,2000-02-01 13:00,ZBAA 011300Z AUTO 29002KT M08/M17 A3050 RMK T10801170 IEM_DS3505
ZBAA,2000-02-01 14:00,ZBAA 011400Z AUTO 00000KT M10/M17 A3053 RMK T11001170 IEM_DS3505
ZBAA,2000-02-01 15:00,ZBAA 011500Z AUTO 24002KT 6SM M09/M17 A3053 RMK SLP337 T10931168 52001 IEM_DS3505
ZBAA,2000-02-01 16:00,ZBAA 011600Z AUTO 36004KT 2 1/2SM M11/M18 A3053 RMK T11101180 IEM_DS3505
ZBAA,2000-02-01 17:00,ZBAA 011700Z AUTO 35006KT 2 1/2SM M13/M19 A3050 RMK T11301190 IEM_DS3505
ZBAA,2000-02-01 18:00,ZBAA 011800Z AUTO 27002KT 5SM M09/M16 A3050 RMK SLP331 T10921157 57006 IEM_DS3505
ZBAA,2000-02-01 19:00,ZBAA 011900Z AUTO 36004KT M13/M21 A3050 RMK T11301210 IEM_DS3505
ZBAA,2000-02-01 20:00,ZBAA 012000Z AUTO 36004KT 6SM M12/M22 A3047 RMK T11201220 IEM_DS3505
ZBAA,2000-02-01 21:00,ZBAA 012100Z AUTO 06002KT 7SM M12/M21 A3047 RMK SLP318 T11191213 57013 IEM_DS3505
ZBAA,2000-02-01 22:00,ZBAA 012200Z AUTO 36006KT 6SM M13/M22 A3047 RMK T11301220 IEM_DS3505
ZBAA,2000-02-01 23:00,ZBAA 012300Z AUTO 01008KT 6SM M11/M23 A3050 RMK T11101230 IEM_DS3505
ZBAA,2000-02-02 00:00,ZBAA 020000Z AUTO 26002KT 5SM M12/M21 A3050 RMK SLP333 T11201209 52015 IEM_DS3505
ZBAA,2000-02-02 01:00,ZBAA 020100Z AUTO 36006KT 6SM M08/M22 A3053 RMK T10801220 IEM_DS3505
ZBAA,2000-02-02 02:00,ZBAA 020200Z AUTO 35006KT 6SM M06/M22 A3053 RMK T10601220 IEM_DS3505
ZBAA,2000-02-02 03:00,ZBAA 020300Z AUTO 06002KT 9SM M03/M25 A3050 RMK SLP331 T10321246 57002 IEM_DS3505
ZBAA,2000-02-02 04:00,ZBAA 020400Z AUTO 36008KT 6SM M03/M21 A3047 RMK T10301210 IEM_DS3505
ZBAA,2000-02-02 05:00,ZBAA 020500Z AUTO 31016KT 6SM M02/M24 A3045 RMK T10201240 IEM_DS3505
ZBAA,2000-02-02 06:00,ZBAA 020600Z AUTO 31002KT 16SM M01/M26 A3042 RMK SLP298 T10061263 57032 IEM_DS3505
ZBAA,2000-02-02 07:00,ZBAA 020700Z AUTO 30012KT 6SM 00/M23 A3039 RMK T00001230 IEM_DS3505
ZBAA,2000-02-02 08:00,ZBAA 020800Z AUTO 31014G23KT 6SM 00/M25 A3039 RMK T00001250 IEM_DS3505
ZBAA,2000-02-02 09:00,ZBAA 020900Z AUTO 22006KT 12SM M02/M16 A3039 RMK SLP291 T10171165 57008 IEM_DS3505
ZBAA,2000-02-02 10:00,ZBAA 021000Z AUTO 29012KT 6SM M03/M23 A3039 RMK T10301230 IEM_DS3505
ZBAA,2000-02-02 11:00,ZBAA 021100Z AUTO 30012KT 6SM M04/M22 A3042 RMK T10401220 IEM_DS3505
ZBAA,2000-02-02 12:00,ZBAA 021200Z AUTO 30006KT 9SM M03/M24 A3045 RMK SLP306 T10271236 52015 IEM_DS3505
ZBAA,2000-02-02 13:00,ZBAA 021300Z AUTO 31016KT 6SM M04/M24 A3045 RMK T10401240 IEM_DS3505
ZBAA,2000-02-02 14:00,ZBAA 021400Z AUTO 32014KT 6SM M05/M24 A3045 RMK T10501240 IEM_DS3505
ZBAA,2000-02-02 15:00,ZBAA 021500Z AUTO 34008KT 9SM M04/M25 A3047 RMK SLP312 T10441250 52007 IEM_DS3505
ZBAA,2000-02-02 16:00,ZBAA 021600Z AUTO 01006KT 6SM M07/M22 A3047 RMK T10701220 IEM_DS3505
ZBAA,2000-02-02 17:00,ZBAA 021700Z AUTO 03004KT 6SM M08/M21 A3047 RMK T10801210 IEM_DS3505
ZBAA,2000-02-02 18:00,ZBAA 021800Z AUTO 05002KT 12SM M07/M24 RMK SLP315 T10661237 52003 IEM_DS3505
ZBAA,2000-02-02 19:00,ZBAA 021900Z AUTO 01008KT 6SM M09/M22 A3047 RMK T10901220 IEM_DS3505
ZBAA,2000-02-02 20:00,ZBAA 022000Z AUTO 35008KT 6SM M11/M21 A3047 RMK T11101210 IEM_DS3505
ZBAA,2000-02-02 21:00,ZBAA 022100Z AUTO 06006KT 16SM M09/M23 A3047 RMK SLP310 T10931228 57006 IEM_DS3505
ZBAA,2000-02-02 22:00,ZBAA 022200Z AUTO 36010KT 6SM M10/M22 A3047 RMK T11001220 IEM_DS3505
ZBAA,2000-02-02 23:00,ZBAA 022300Z AUTO 36008KT 6SM M10/M22 A3047 RMK T11001220 IEM_DS3505
ZBAA,2000-02-03 00:00,ZBAA 030000Z AUTO 31002KT 7SM M08/M24 A3050 RMK SLP325 T10821238 52015 IEM_DS3505
ZBAA,2000-02-03 01:00,ZBAA 030100Z AUTO 03008KT 6SM M08/M22 A3050 RMK T10801220 IEM_DS3505
ZBAA,2000-02-03 02:00,ZBAA 030200Z AUTO 02006KT 6SM M05/M22 A3050 RMK T10501220 IEM_DS3505
ZBAA,2000-02-03 03:00,ZBAA 030300Z AUTO 35006KT 14SM M01/M26 A3050 RMK SLP326 T10121259 52001 IEM_DS3505
ZBAA,2000-02-03 04:00,ZBAA 030400Z AUTO 03008KT 6SM M03/M21 A3047 RMK T10301210 IEM_DS3505
ZBAA,2000-02-03 05:00,ZBAA 030500Z AUTO 01008KT 6SM M01/M22 A3045 RMK T10101220 IEM_DS3505
ZBAA,2000-02-03 06:00,ZBAA 030600Z AUTO 25002KT 12SM 02/M25 A3042 RMK SLP303 T00221251 57022 IEM_DS3505
ZBAA,2000-02-03 07:00,ZBAA 030700Z AUTO 03004KT 6SM 01/M19 A3042 RMK T00101190 IEM_DS3505
ZBAA,2000-02-03 08:00,ZBAA 030800Z AUTO 02002KT 6SM 02/M19 A3042 RMK T00201190 IEM_DS3505
ZBAA,2000-02-03 09:00,ZBAA 030900Z AUTO 23006KT 11SM 00/M19 A3042 RMK SLP303 T00021189 54000 IEM_DS3505
ZBAA,2000-02-03 10:00,ZBAA 031000Z AUTO 11002KT 6SM M02/M16 A3045 RMK T10201160 IEM_DS3505
ZBAA,2000-02-03 11:00,ZBAA 031100Z AUTO 00000KT 6SM M02/M16 A3047 RMK T10201160 IEM_DS3505
ZBAA,2000-02-03 12:00,ZBAA 031200Z AUTO 26002KT 12SM M03/M15 A3047 RMK SLP319 T10321148 52015 IEM_DS3505
ZBAA,2000-02-03 13:00,ZBAA 031300Z AUTO 36004KT M05/M17 A3047 RMK T10501170 IEM_DS3505
ZBAA,2000-02-03 14:00,ZBAA 031400Z AUTO 35002KT M06/M16 A3047 RMK T10601160 IEM_DS3505
ZBAA,2000-02-03 15:00,ZBAA 031500Z AUTO 26002KT 12SM M06/M13 A3047 RMK SLP318 T10571130 57001 IEM_DS3505
ZBAA,2000-02-03 16:00,ZBAA 031600Z AUTO 35004KT M08/M15 A3047 RMK T10801150 IEM_DS3505
ZBAA,2000-02-03 17:00,ZBAA 031700Z AUTO 29002KT M07/M17 A3047 RMK T10701170 IEM_DS3505
ZBAA,2000-02-03 18:00,ZBAA 031800Z AUTO 32002KT M08/M15 A3047 RMK T10801150 IEM_DS3505
ZBAA,2000-02-03 19:00,ZBAA 031900Z AUTO 00000KT M10/M17 A3047 RMK T11001170 IEM_DS3505
ZBAA,2000-02-03 20:00,ZBAA 032000Z AUTO 32002KT M09/M17 A3047 RMK T10901170 IEM_DS3505
ZBAA,2000-02-03 21:00,ZBAA 032100Z AUTO 00000KT 2SM M09/M14 A3047 RMK SLP312 T10931135 57006 IEM_DS3505
ZBAA,2000-02-03 22:00,ZBAA 032200Z AUTO 35006KT 5SM M13/M18 A3045 RMK T11301180 IEM_DS3505
ZBAA,2000-02-03 23:00,ZBAA 032300Z AUTO 36006KT 6SM M13/M19 A3047 RMK T11301190 IEM_DS3505
ZBAA,2000-02-04 00:00,ZBAA 040000Z AUTO 04002KT 6SM M09/M18 A3047 RMK SLP319 T10911185 52006 IEM_DS3505
ZBAA,2000-02-04 01:00,ZBAA 040100Z AUTO 34004KT 6SM M09/M17 A3047 RMK T10901170 IEM_DS3505
ZBAA,2000-02-04 02:00,ZBAA 040200Z AUTO 35006KT 6SM M05/M18 A3047 RMK T10501180 IEM_DS3505
ZBAA,2000-02-04 03:00,ZBAA 040300Z AUTO 05004KT 7SM M01/M19 A3047 RMK SLP316 T10131187 57002 IEM_DS3505
ZBAA,2000-02-04 04:00,ZBAA 040400Z AUTO 02004KT 6SM M01/M17 A3045 RMK T10101170 IEM_DS3505
ZBAA,2000-02-04 05:00,ZBAA 040500Z AUTO 6SM 00/M17 A3042 RMK T00001170 IEM_DS3505
ZBAA,2000-02-04 06:00,ZBAA 040600Z AUTO 00000KT 7SM 02/M18 A3036 RMK SLP283 T00191180 57033 IEM_DS3505
ZBAA,2000-02-04 07:00,ZBAA 040700Z AUTO 03002KT 6SM 02/M16 A3036 RMK T00201160 IEM_DS3505
ZBAA,2000-02-04 08:00,ZBAA 040800Z AUTO 08002KT 6SM 02/M17 A3033 RMK T00201170 IEM_DS3505
ZBAA,2000-02-04 09:00,ZBAA 040900Z AUTO 21002KT 6SM 02/M15 A3033 RMK SLP271 T00161149 57012 IEM_DS3505
ZBAA,2000-02-04 10:00,ZBAA 041000Z AUTO 05002KT 6SM M01/M13 A3036 RMK T10101130 IEM_DS3505
ZBAA,2000-02-04 11:00,ZBAA 041100Z AUTO 10002KT 5SM M03/M14 A3036 RMK T10301140 IEM_DS3505
ZBAA,2000-02-04 12:00,ZBAA 041200Z AUTO 24002KT 5SM M02/M11 A3036 RMK SLP283 T10221112 52012 IEM_DS3505
ZBAA,2000-02-04 13:00,ZBAA 041300Z AUTO 10002KT 3SM M03/M13 A3039 RMK T10301130 IEM_DS3505
ZBAA,2000-02-04 14:00,ZBAA 041400Z AUTO 02002KT 2 1/2SM M05/M11 A3039 RMK T10501110 IEM_DS3505
ZBAA,2000-02-04 15:00,ZBAA 041500Z AUTO 07002KT 2 1/2SM M06/M12 A3036 RMK SLP281 T10581115 57002 IEM_DS3505
ZBAA,2000-02-04 16:00,ZBAA 041600Z AUTO 02002KT 2 1/2SM M06/M12 A3036 RMK T10601120 IEM_DS3505
ZBAA,2000-02-04 17:00,ZBAA 041700Z AUTO 01002KT 2 1/2SM M06/M11 A3033 RMK T10601110 IEM_DS3505
ZBAA,2000-02-04 18:00,ZBAA 041800Z AUTO 00000KT 2SM M04/M11 A3033 RMK SLP267 T10401106 57014 IEM_DS3505
ZBAA,2000-02-04 19:00,ZBAA 041900Z AUTO 35002KT 2SM M07/M11 A3033 RMK T10701110 IEM_DS3505
ZBAA,2000-02-04 20:00,ZBAA 042000Z AUTO 34004KT 2SM M07/M11 A3030 RMK T10701110 IEM_DS3505
ZBAA,2000-02-04 21:00,ZBAA 042100Z AUTO 03002KT 2 1/2SM M04/M13 A3027 RMK SLP250 T10431129 57017 IEM_DS3505
ZBAA,2000-02-04 22:00,ZBAA 042200Z AUTO 01002KT 2SM M06/M12 A3027 RMK T10601120 IEM_DS3505
ZBAA,2000-02-04 23:00,ZBAA 042300Z AUTO 36002KT 2 1/2SM M06/M12 A3027 RMK T10601120 IEM_DS3505
ZBAA,2000-02-05 00:00,ZBAA 050000Z AUTO 04002KT 1 1/4SM M04/M13 A3027 RMK SLP252 T10421130 52002 IEM_DS3505
ZBAA,2000-02-05 01:00,ZBAA 050100Z AUTO 00000KT 3SM M05/M11 A3030 RMK T10501110 IEM_DS3505
ZBAA,2000-02-05 02:00,ZBAA 050200Z AUTO 35002KT 3SM M03/M12 A3027 RMK T10301120 IEM_DS3505
ZBAA,2000-02-05 03:00,ZBAA 050300Z AUTO 04004KT 3SM M02/M11 A3027 RMK SLP250 T10191114 57002 IEM_DS3505
ZBAA,2000-02-05 04:00,ZBAA 050400Z AUTO 00000KT 3SM M02/M12 A3024 RMK T10201120 IEM_DS3505
ZBAA,2000-02-05 05:00,ZBAA 050500Z AUTO 00000KT 3SM 00/M12 A3021 RMK T00001120 IEM_DS3505
ZBAA,2000-02-05 06:00,ZBAA 050600Z AUTO 07002KT 3SM 00/M12 A3021 RMK SLP223 T00021117 57027 IEM_DS3505
ZBAA,2000-02-05 07:00,ZBAA 050700Z AUTO 13004KT 3SM 00/M12 A3018 RMK T00001120 IEM_DS3505
ZBAA,2000-02-05 08:00,ZBAA 050800Z AUTO 12004KT 3SM 01/M11 A3018 RMK T00101110 IEM_DS3505
ZBAA,2000-02-05 09:00,ZBAA 050900Z AUTO 16002KT 4SM 00/M11 A3018 RMK SLP219 T00021111 57004 IEM_DS3505
ZBAA,2000-02-05 10:00,ZBAA 051000Z AUTO 11002KT 2 1/2SM M02/M11 A3018 RMK T10201110 IEM_DS3505
ZBAA,2000-02-05 11:00,ZBAA 051100Z AUTO 7SM M03/M10 A3021 RMK T10301100 IEM_DS3505
ZBAA,2000-02-05 12:00,ZBAA 051200Z AUTO 00000KT 3SM M04/M11 A3021 RMK SLP232 T10401108 52013 IEM_DS3505
ZBAA,2000-02-05 13:00,ZBAA 051300Z AUTO 00000KT 2SM M04/M09 A3024 RMK T10401090 IEM_DS3505
ZBAA,2000-02-05 14:00,ZBAA 051400Z AUTO 00000KT 1 1/2SM M05/M10 A3024 RMK T10501100 IEM_DS3505
ZBAA,2000-02-05 15:00,ZBAA 051500Z AUTO 00000KT 1 1/4SM M05/M10 A3024 RMK SLP238 T10531104 52006 IEM_DS3505
ZBAA,2000-02-05 16:00,ZBAA 051600Z AUTO 02004KT 1SM M06/M11 A3024 RMK T10601110 IEM_DS3505
ZBAA,2000-02-05 17:00,ZBAA 051700Z AUTO 29002KT 1SM M05/M10 A3024 RMK T10501100 IEM_DS3505
ZBAA,2000-02-05 18:00,ZBAA 051800Z AUTO 07002KT 1 1/4SM M06/M10 A3024 RMK SLP237 T10561105 57001 IEM_DS3505
ZBAA,2000-02-05 19:00,ZBAA 051900Z AUTO 31004KT 1SM M07/M10 A3024 RMK T10701100 IEM_DS3505
ZBAA,2000-02-05 20:00,ZBAA 052000Z AUTO 35006KT 1SM M08/M11 A3024 RMK T10801110 IEM_DS3505
ZBAA,2000-02-05 21:00,ZBAA 052100Z AUTO 02004KT 3SM M04/M12 A3024 RMK SLP234 T10441120 57003 IEM_DS3505
ZBAA,2000-02-05 22:00,ZBAA 052200Z AUTO 33004KT 2 1/2SM M08/M13 A3024 RMK T10801130 IEM_DS3505
ZBAA,2000-02-05 23:00,ZBAA 052300Z AUTO 34006KT 3SM M10/M14 A3027 RMK T11001140 IEM_DS3505
ZBAA,2000-02-06 00:00,ZBAA 060000Z AUTO 03004KT 6SM M04/M15 A3027 RMK SLP244 T10351148 52010 IEM_DS3505
ZBAA,2000-02-06 01:00,ZBAA 060100Z AUTO 36008KT 6SM M04/M13 A3027 RMK T10401130 IEM_DS3505
ZBAA,2000-02-06 02:00,ZBAA 060200Z AUTO 01008KT 6SM M01/M14 A3030 RMK T10101140 IEM_DS3505
ZBAA,2000-02-06 03:00,ZBAA 060300Z AUTO 04008KT 12SM 02/M17 A3027 RMK SLP245 T00151173 52001 IEM_DS3505
ZBAA,2000-02-06 04:00,ZBAA 060400Z AUTO 02008KT 6SM 02/M15 A3024 RMK T00201150 IEM_DS3505
ZBAA,2000-02-06 05:00,ZBAA 060500Z AUTO 02006KT 6SM 03/M15 A3021 RMK T00301150 IEM_DS3505
ZBAA,2000-02-06 06:00,ZBAA 060600Z AUTO 34004KT 19SM 04/M18 A3018 RMK SLP220 T00451183 57024 IEM_DS3505
ZBAA,2000-02-06 07:00,ZBAA 060700Z AUTO 05004KT 6SM 03/M15 A3018 RMK T00301150 IEM_DS3505
ZBAA,2000-02-06 08:00,ZBAA 060800Z AUTO 6SM 04/M15 A3018 RMK T00401150 IEM_DS3505
ZBAA,2000-02-06 09:00,ZBAA 060900Z AUTO 23004KT 5SM 02/M11 A3018 RMK SLP223 T00151109 52002 IEM_DS3505
ZBAA,2000-02-06 10:00,ZBAA 061000Z AUTO 10002KT 6SM 01/M14 A3018 RMK T00101140 IEM_DS3505
ZBAA,2000-02-06 11:00,ZBAA 061100Z AUTO 08002KT 6SM 00/M14 A3018 RMK T00001140 IEM_DS3505
ZBAA,2000-02-06 12:00,ZBAA 061200Z AUTO 25002KT 5SM M00/M11 A3021 RMK SLP228 T10041108 52005 IEM_DS3505
ZBAA,2000-02-06 13:00,ZBAA 061300Z AUTO 07002KT 6SM 00/M12 A3021 RMK T00001120 IEM_DS3505
ZBAA,2000-02-06 14:00,ZBAA 061400Z AUTO 11004KT 5SM M01/M11 A3024 RMK T10101110 IEM_DS3505
ZBAA,2000-02-06 15:00,ZBAA 061500Z AUTO 08004KT 6SM M01/M10 A3024 RMK SLP239 T10141102 52011 IEM_DS3505
ZBAA,2000-02-06 16:00,ZBAA 061600Z AUTO 03004KT 3SM M02/M06 A3030 RMK T10201060 IEM_DS3505
ZBAA,2000-02-06 17:00,ZBAA 061700Z AUTO 34006KT 7SM M02/M07 A3030 RMK T10201070 IEM_DS3505
ZBAA,2000-02-06 18:00,ZBAA 061800Z AUTO 01006KT 5SM M02/M08 A3033 RMK 60003 SLP267 T10181079 52029 IEM_DS3505
ZBAA,2000-02-06 19:00,ZBAA 061900Z AUTO 33008KT 6SM M02/M15 A3033 RMK T10201150 IEM_DS3505
ZBAA,2000-02-06 20:00,ZBAA 062000Z AUTO 32016G25KT 6SM M03/M20 A3033 RMK T10301200 IEM_DS3505
ZBAA,2000-02-06 21:00,ZBAA 062100Z AUTO 33004KT 19SM M03/M21 A3033 RMK 70003 SLP269 T10301206 52001 IEM_DS3505
ZBAA,2000-02-06 22:00,ZBAA 062200Z AUTO 29004KT 6SM M05/M20 A3033 RMK T10501200 IEM_DS3505
ZBAA,2000-02-06 23:00,ZBAA 062300Z AUTO 31006KT 6SM M07/M20 A3033 RMK T10701200 IEM_DS3505
ZBAA,2000-02-07 00:00,ZBAA 070000Z AUTO 23002KT 12SM M05/M20 A3033 RMK 70003 SLP268 T10471199 57001 IEM_DS3505
ZBAA,2000-02-07 01:00,ZBAA 070100Z AUTO 31014KT 6SM M02/M18 A3030 RMK T10201180 IEM_DS3505
ZBAA,2000-02-07 02:00,ZBAA 070200Z AUTO 34006KT 6SM M01/M19 A3030 RMK T10101190 IEM_DS3505
ZBAA,2000-02-07 03:00,ZBAA 070300Z AUTO 30010G19KT 19SM 01/M21 A3027 RMK SLP252 T00061209 57016 IEM_DS3505
ZBAA,2000-02-07 04:00,ZBAA 070400Z AUTO 29016KT 6SM 01/M19 A3024 RMK T00101190 IEM_DS3505
ZBAA,2000-02-07 05:00,ZBAA 070500Z AUTO 27017KT 6SM 01/M19 A3018 RMK T00101190 IEM_DS3505
ZBAA,2000-02-07 06:00,ZBAA 070600Z AUTO 27012G27KT 19SM 03/M21 A3015 RMK SLP213 T00281211 57038 IEM_DS3505
ZBAA,2000-02-07 07:00,ZBAA 070700Z AUTO 31021KT 6SM 02/M19 A3012 RMK T00201190 IEM_DS3505
ZBAA,2000-02-07 08:00,ZBAA 070800Z AUTO 33012G21KT 6SM 03/M20 A3012 RMK T00301200 IEM_DS3505
ZBAA,2000-02-07 09:00,ZBAA 070900Z AUTO 30010G25KT 16SM 02/M18 A3012 RMK SLP207 T00251181 57006 IEM_DS3505
ZBAA,2000-02-07 10:00,ZBAA 071000Z AUTO 36012KT 6SM 00/M20 A3018 RMK T00001200 IEM_DS3505
ZBAA,2000-02-07 11:00,ZBAA 071100Z AUTO 01016KT 6SM M01/M21 A3018 RMK T10101210 IEM_DS3505
ZBAA,2000-02-07 12:00,ZBAA 071200Z AUTO 03008KT 19SM M01/M22 A3021 RMK SLP232 T10131224 52024 IEM_DS3505
ZBAA,2000-02-07 13:00,ZBAA 071300Z AUTO 36014G23KT 6SM M03/M21 A3024 RMK T10301210 IEM_DS3505
ZBAA,2000-02-07 14:00,ZBAA 071400Z AUTO 01017KT 6SM M04/M21 A3027 RMK T10401210 IEM_DS3505
ZBAA,2000-02-07 15:00,ZBAA 071500Z AUTO 04008G23KT 12SM M05/M22 A3033 RMK SLP268 T10471221 52036 IEM_DS3505
ZBAA,2000-02-07 16:00,ZBAA 071600Z AUTO 01010KT 6SM M07/M22 A3039 RMK T10701220 IEM_DS3505
ZBAA,2000-02-07 17:00,ZBAA 071700Z AUTO 02008KT 6SM M08/M23 A3042 RMK T10801230 IEM_DS3505
ZBAA,2000-02-07 18:00,ZBAA 071800Z AUTO 34010KT 6SM M09/M24 A3045 RMK T10901240 IEM_DS3505
ZBAA,2000-02-07 19:00,ZBAA 071900Z AUTO 33008KT 6SM M09/M24 A3045 RMK T10901240 IEM_DS3505
ZBAA,2000-02-07 20:00,ZBAA 072000Z AUTO 35010KT 6SM M10/M24 A3045 RMK T11001240 IEM_DS3505
ZBAA,2000-02-07 21:00,ZBAA 072100Z AUTO 01008KT 19SM M08/M26 A3047 RMK SLP309 T10751264 52007 IEM_DS3505
ZBAA,2000-02-07 22:00,ZBAA 072200Z AUTO 04004KT 6SM M10/M24 A3047 RMK T11001240 IEM_DS3505
ZBAA,2000-02-07 23:00,ZBAA 072300Z AUTO 03004KT 6SM M12/M24 A3050 RMK T11201240 IEM_DS3505
ZBAA,2000-02-08 00:00,ZBAA 080000Z AUTO 06006KT 19SM M09/M25 A3053 RMK SLP335 T10891248 52025 IEM_DS3505
ZBAA,2000-02-08 01:00,ZBAA 080100Z AUTO 04006KT 6SM M08/M24 A3056 RMK T10801240 IEM_DS3505
ZBAA,2000-02-08 02:00,ZBAA 080200Z AUTO 02008KT 6SM M07/M24 A3053 RMK T10701240 IEM_DS3505
ZBAA,2000-02-08 03:00,ZBAA 080300Z AUTO 00000KT 19SM M05/M25 A3053 RMK SLP329 T10491254 57005 IEM_DS3505
ZBAA,2000-02-08 04:00,ZBAA 080400Z AUTO 35008KT 6SM M03/M24 A3047 RMK T10301240 IEM_DS3505
ZBAA,2000-02-08 05:00,ZBAA 080500Z AUTO 35006KT 6SM M02/M23 A3045 RMK T10201230 IEM_DS3505
ZBAA,2000-02-08 06:00,ZBAA 080600Z AUTO 27008KT 16SM M01/M26 A3042 RMK SLP297 T10061263 57032 IEM_DS3505
ZBAA,2000-02-08 07:00,ZBAA 080700Z AUTO 6SM M01/M22 A3039 RMK T10101220 IEM_DS3505
ZBAA,2000-02-08 08:00,ZBAA 080800Z AUTO 35004KT 6SM M01/M23 A3036 RMK T10101230 IEM_DS3505
ZBAA,2000-02-08 09:00,ZBAA 080900Z AUTO 21006KT 9SM M01/M24 A3036 RMK SLP281 T10071240 57016 IEM_DS3505
ZBAA,2000-02-08 10:00,ZBAA 081000Z AUTO 08002KT 6SM M03/M20 A3036 RMK T10301200 IEM_DS3505
ZBAA,2000-02-08 11:00,ZBAA 081100Z AUTO 00000KT 6SM M04/M20 A3036 RMK T10401200 IEM_DS3505
ZBAA,2000-02-08 12:00,ZBAA 081200Z AUTO 21002KT 9SM M05/M18 A3036 RMK SLP285 T10491183 52003 IEM_DS3505
ZBAA,2000-02-08 13:00,ZBAA 081300Z AUTO 36002KT 6SM M05/M17 A3036 RMK T10501170 IEM_DS3505
ZBAA,2000-02-08 14:00,ZBAA 081400Z AUTO 00000KT 6SM M06/M18 A3036 RMK T10601180 IEM_DS3505
ZBAA,2000-02-08 15:00,ZBAA 081500Z AUTO 22002KT 7SM M06/M15 A3036 RMK SLP280 T10651154 57005 IEM_DS3505
ZBAA,2000-02-08 16:00,ZBAA 081600Z AUTO 04002KT 6SM M09/M15 A3036 RMK T10901150 IEM_DS3505
ZBAA,2000-02-08 17:00,ZBAA 081700Z AUTO 36002KT M09/M16 A3036 RMK T10901160 IEM_DS3505
ZBAA,2000-02-08 18:00,ZBAA 081800Z AUTO 25002KT 7SM M08/M14 A3033 RMK SLP270 T10751143 57009 IEM_DS3505
ZBAA,2000-02-08 19:00,ZBAA 081900Z AUTO 35004KT M11/M18 A3033 RMK T11101180 IEM_DS3505
ZBAA,2000-02-08 20:00,ZBAA 082000Z AUTO 36004KT M11/M18 A3030 RMK T11101180 IEM_DS3505
ZBAA,2000-02-08 21:00,ZBAA 082100Z AUTO 24002KT 6SM M09/M14 A3030 RMK SLP256 T10911139 57014 IEM_DS3505
ZBAA,2000-02-08 22:00,ZBAA 082200Z AUTO 34004KT 6SM M13/M19 A3027 RMK T11301190 IEM_DS3505
ZBAA,2000-02-08 23:00,ZBAA 082300Z AUTO 34002KT 6SM M12/M19 A3030 RMK T11201190 IEM_DS3505
ZBAA,2000-02-09 00:00,ZBAA 090000Z AUTO 00000KT 3SM M09/M14 A3030 RMK SLP257 T10931143 54000 IEM_DS3505
ZBAA,2000-02-09 01:00,ZBAA 090100Z AUTO 35006KT 6SM M08/M18 A3030 RMK T10801180 IEM_DS3505
ZBAA,2000-02-09 02:00,ZBAA 090200Z AUTO 02006KT 6SM M05/M19 A3030 RMK T10501190 IEM_DS3505
ZBAA,2000-02-09 03:00,ZBAA 090300Z AUTO 07002KT 12SM M01/M21 A3027 RMK SLP251 T10091209 57005 IEM_DS3505
ZBAA,2000-02-09 04:00,ZBAA 090400Z AUTO 30002KT 6SM M01/M20 A3024 RMK T10101200 IEM_DS3505
ZBAA,2000-02-09 05:00,ZBAA 090500Z AUTO 6SM 01/M21 A3021 RMK T00101210 IEM_DS3505
ZBAA,2000-02-09 06:00,ZBAA 090600Z AUTO 22006KT 12SM 02/M17 RMK SLP220 T00211168 57031 IEM_DS3505
ZBAA,2000-02-09 07:00,ZBAA 090700Z AUTO 6SM 02/M19 A3015 RMK T00201190 IEM_DS3505
ZBAA,2000-02-09 08:00,ZBAA 090800Z AUTO 19004KT 6SM 03/M19 A3015 RMK T00301190 IEM_DS3505
ZBAA,2000-02-09 09:00,ZBAA 090900Z AUTO 22004KT 9SM 01/M14 A3015 RMK SLP209 T00081143 57011 IEM_DS3505
ZBAA,2000-02-09 10:00,ZBAA 091000Z AUTO 16004KT 6SM M01/M14 A3015 RMK T10101140 IEM_DS3505
ZBAA,2000-02-09 11:00,ZBAA 091100Z AUTO 18004KT 6SM M02/M13 A3015 RMK T10201130 IEM_DS3505
ZBAA,2000-02-09 12:00,ZBAA 091200Z AUTO 23002KT 6SM M02/M14 A3015 RMK SLP216 T10231137 52007 IEM_DS3505
ZBAA,2000-02-09 13:00,ZBAA 091300Z AUTO 17002KT 6SM M03/M13 A3018 RMK T10301130 IEM_DS3505
ZBAA,2000-02-09 14:00,ZBAA 091400Z AUTO 13002KT 6SM M05/M13 A3018 RMK T10501130 IEM_DS3505
ZBAA,2000-02-09 15:00,ZBAA 091500Z AUTO 09002KT 6SM M06/M14 A3015 RMK SLP214 T10631138 57002 IEM_DS3505
ZBAA,2000-02-09 16:00,ZBAA 091600Z AUTO 04002KT 3SM M06/M11 A3015 RMK T10601110 IEM_DS3505
ZBAA,2000-02-09 17:00,ZBAA 091700Z AUTO 00000KT 3SM M07/M12 A3015 RMK T10701120 IEM_DS3505
ZBAA,2000-02-09 18:00,ZBAA 091800Z AUTO 00000KT 6SM M06/M13 A3015 RMK SLP208 T10601133 57006 IEM_DS3505
ZBAA,2000-02-09 19:00,ZBAA 091900Z AUTO 35004KT M07/M13 A3015 RMK T10701130 IEM_DS3505
ZBAA,2000-02-09 20:00,ZBAA 092000Z AUTO 35004KT 4SM M09/M14 A3012 RMK T10901140 IEM_DS3505
ZBAA,2000-02-09 21:00,ZBAA 092100Z AUTO 03002KT 6SM M07/M13 A3012 RMK SLP196 T10661128 57012 IEM_DS3505
ZBAA,2000-02-09 22:00,ZBAA 092200Z AUTO 34004KT 4SM M09/M14 A3012 RMK T10901140 IEM_DS3505
ZBAA,2000-02-09 23:00,ZBAA 092300Z AUTO 34004KT 6SM M10/M15 A3012 RMK T11001150 IEM_DS3505
ZBAA,2000-02-10 00:00,ZBAA 100000Z AUTO 04004KT 5SM M06/M15 A3012 RMK SLP199 T10621146 52003 IEM_DS3505
ZBAA,2000-02-10 01:00,ZBAA 100100Z AUTO 36004KT M06/M13 A3012 RMK T10601130 IEM_DS3505
ZBAA,2000-02-10 02:00,ZBAA 100200Z AUTO 36004KT 5SM M04/M13 A3012 RMK T10401130 IEM_DS3505
ZBAA,2000-02-10 03:00,ZBAA 100300Z AUTO 03002KT 6SM M01/M15 A3012 RMK SLP198 T10061148 57001 IEM_DS3505
ZBAA,2000-02-10 04:00,ZBAA 100400Z AUTO 5SM 00/M12 A3009 RMK T00001120 IEM_DS3505
ZBAA,2000-02-10 05:00,ZBAA 100500Z AUTO 5SM 01/M12 A3006 RMK T00101120 IEM_DS3505
ZBAA,2000-02-10 06:00,ZBAA 100600Z AUTO 08004KT 7SM 03/M14 A3003 RMK SLP170 T00301145 57027 IEM_DS3505
ZBAA,2000-02-10 07:00,ZBAA 100700Z AUTO 00000KT 5SM 04/M12 A3003 RMK T00401120 IEM_DS3505
ZBAA,2000-02-10 08:00,ZBAA 100800Z AUTO 06002KT 04/M12 A3003 RMK T00401120 IEM_DS3505
ZBAA,2000-02-10 09:00,ZBAA 100900Z AUTO 21004KT 6SM 03/M14 A3003 RMK SLP170 T00321144 54000 IEM_DS3505
ZBAA,2000-02-10 10:00,ZBAA 101000Z AUTO 09002KT 01/M13 A3006 RMK T00101130 IEM_DS3505
ZBAA,2000-02-10 11:00,ZBAA 101100Z AUTO 02002KT 2 1/2SM 00/M12 A3006 RMK T00001120 IEM_DS3505
ZBAA,2000-02-10 12:00,ZBAA 101200Z AUTO 30004KT 6SM M00/M12 A3009 RMK SLP192 T10021121 52021 IEM_DS3505
ZBAA,2000-02-10 13:00,ZBAA 101300Z AUTO 30002KT 2 1/2SM M01/M11 A3012 RMK T10101110 IEM_DS3505
ZBAA,2000-02-10 14:00,ZBAA 101400Z AUTO 02004KT M02/M11 A3012 RMK T10201110 IEM_DS3505
ZBAA,2000-02-10 15:00,ZBAA 101500Z AUTO 00000KT 11SM 01/M15 A3015 RMK SLP207 T00131151 52016 IEM_DS3505
ZBAA,2000-02-10 16:00,ZBAA 101600Z AUTO 35006KT 6SM M04/M14 A3015 RMK T10401140 IEM_DS3505
ZBAA,2000-02-10 17:00,ZBAA 101700Z AUTO 34006KT 6SM M03/M14 A3018 RMK T10301140 IEM_DS3505
ZBAA,2000-02-10 18:00,ZBAA 101800Z AUTO 03004KT 12SM M01/M16 A3018 RMK SLP216 T10071156 52009 IEM_DS3505
ZBAA,2000-02-10 19:00,ZBAA 101900Z AUTO 35006KT 6SM M05/M14 A3018 RMK T10501140 IEM_DS3505
ZBAA,2000-02-10 20:00,ZBAA 102000Z AUTO 6SM M04/M15 A3018 RMK T10401150 IEM_DS3505
ZBAA,2000-02-10 21:00,ZBAA 102100Z AUTO 04004KT 12SM M03/M16 A3018 RMK SLP213 T10281164 57003 IEM_DS3505
ZBAA,2000-02-10 22:00,ZBAA 102200Z AUTO 36006KT 6SM M05/M16 A3018 RMK T10501160 IEM_DS3505
ZBAA,2000-02-10 23:00,ZBAA 102300Z AUTO 02008KT 6SM M04/M16 A3018 RMK T10401160 IEM_DS3505
ZBAA,2000-02-11 00:00,ZBAA 110000Z AUTO 00000KT 9SM M04/M16 A3021 RMK SLP231 T10401165 52017 IEM_DS3505
ZBAA,2000-02-11 01:00,ZBAA 110100Z AUTO 02006KT 6SM M02/M15 A3021 RMK T10201150 IEM_DS3505
ZBAA,2000-02-11 02:00,ZBAA 110200Z AUTO 02006KT 6SM 01/M16 A3021 RMK T00101160 IEM_DS3505
ZBAA,2000-02-11 03:00,ZBAA 110300Z AUTO 02002KT 9SM 04/M16 A3021 RMK SLP232 T00361160 52001 IEM_DS3505
ZBAA,2000-02-11 04:00,ZBAA 110400Z AUTO 6SM 04/M16 A3018 RMK T00401160 IEM_DS3505
ZBAA,2000-02-11 05:00,ZBAA 110500Z AUTO 6SM 06/M15 A3015 RMK T00601150 IEM_DS3505
ZBAA,2000-02-11 06:00,ZBAA 110600Z AUTO 23006KT 6SM 07/M13 A3012 RMK SLP200 T00691127 57031 IEM_DS3505
ZBAA,2000-02-11 07:00,ZBAA 110700Z AUTO 22008KT 6SM 08/M13 A3009 RMK T00801130 IEM_DS3505
ZBAA,2000-02-11 08:00,ZBAA 110800Z AUTO 21006KT 6SM 08/M12 A3009 RMK T00801120 IEM_DS3505
ZBAA,2000-02-11 09:00,ZBAA 110900Z AUTO 22006KT 6SM 06/M11 A3006 RMK SLP188 T00611114 57012 IEM_DS3505
ZBAA,2000-02-11 10:00,ZBAA 111000Z AUTO 20006KT 04/M10 A3009 RMK T00401100 IEM_DS3505
ZBAA,2000-02-11 11:00,ZBAA 111100Z AUTO 19004KT 3SM 03/M10 A3009 RMK T00301100 IEM_DS3505
ZBAA,2000-02-11 12:00,ZBAA 111200Z AUTO 20004KT 4SM 02/M10 A3009 RMK SLP193 T00201095 52005 IEM_DS3505
ZBAA,2000-02-11 13:00,ZBAA 111300Z AUTO 00000KT 2 1/2SM M01/M10 A3012 RMK T10101100 IEM_DS3505
ZBAA,2000-02-11 14:00,ZBAA 111400Z AUTO 05002KT 2 1/2SM M03/M09 A3009 RMK T10301090 IEM_DS3505
ZBAA,2000-02-11 15:00,ZBAA 111500Z AUTO 00000KT 2SM M00/M08 A3009 RMK SLP193 T10051075 54000 IEM_DS3505
ZBAA,2000-02-11 16:00,ZBAA 111600Z AUTO 00000KT 2SM M03/M09 A3012 RMK T10301090 IEM_DS3505
ZBAA,2000-02-11 17:00,ZBAA 111700Z AUTO 01002KT 2SM M03/M09 A3012 RMK T10301090 IEM_DS3505
ZBAA,2000-02-11 18:00,ZBAA 111800Z AUTO 00000KT 2SM M04/M09 A3009 RMK SLP192 T10381092 57001 IEM_DS3505
ZBAA,2000-02-11 19:00,ZBAA 111900Z AUTO 35002KT 2SM M05/M10 A3009 RMK T10501100 IEM_DS3505
ZBAA,2000-02-11 20:00,ZBAA 112000Z AUTO 34002KT 2 1/2SM M05/M09 A3009 RMK T10501090 IEM_DS3505
ZBAA,2000-02-11 21:00,ZBAA 112100Z AUTO 03002KT 3SM M03/M09 A3009 RMK SLP183 T10271091 57009 IEM_DS3505
ZBAA,2000-02-11 22:00,ZBAA 112200Z AUTO 34004KT 2 1/2SM M07/M10 A3009 RMK T10701100 IEM_DS3505
ZBAA,2000-02-11 23:00,ZBAA 112300Z AUTO 36004KT 4SM M05/M10 A3009 RMK T10501100 IEM_DS3505
ZBAA,2000-02-12 00:00,ZBAA 120000Z AUTO 03002KT 2 1/2SM M02/M10 A3009 RMK SLP192 T10201102 52009 IEM_DS3505
ZBAA,2000-02-12 01:00,ZBAA 120100Z AUTO 01004KT M02/M09 A3012 RMK T10201090 IEM_DS3505
ZBAA,2000-02-12 02:00,ZBAA 120200Z AUTO 03002KT 3SM 01/M08 A3012 RMK T00101080 IEM_DS3505
ZBAA,2000-02-12 03:00,ZBAA 120300Z AUTO 02002KT 4SM 02/M08 A3012 RMK SLP203 T00181085 52011 IEM_DS3505
ZBAA,2000-02-12 05:00,ZBAA 120500Z AUTO 11004KT 2 1/2SM 05/M07 A3009 RMK T00501070 IEM_DS3505
ZBAA,2000-02-12 06:00,ZBAA 120600Z AUTO 10008KT 3SM 06/M07 A3006 RMK SLP180 T00631073 57023 IEM_DS3505
ZBAA,2000-02-12 07:00,ZBAA 120700Z AUTO 13012KT 2 1/2SM 06/M07 A3006 RMK T00601070 IEM_DS3505
ZBAA,2000-02-12 08:00,ZBAA 120800Z AUTO 13010KT 5SM 05/M07 A3009 RMK T00501070 IEM_DS3505
ZBAA,2000-02-12 09:00,ZBAA 120900Z AUTO 13008KT 9SM 02/M11 A3009 RMK SLP191 T00241107 52011 IEM_DS3505
ZBAA,2000-02-12 10:00,ZBAA 121000Z AUTO 13008KT 6SM 02/M10 A3012 RMK T00201100 IEM_DS3505
ZBAA,2000-02-12 11:00,ZBAA 121100Z AUTO 15004KT 6SM 00/M10 A3012 RMK T00001100 IEM_DS3505
ZBAA,2000-02-12 12:00,ZBAA 121200Z AUTO 00000KT 6SM M01/M10 A3015 RMK SLP211 T10111104 52019 IEM_DS3505
ZBAA,2000-02-12 13:00,ZBAA 121300Z AUTO 00000KT 6SM M02/M09 A3018 RMK T10201090 IEM_DS3505
ZBAA,2000-02-12 14:00,ZBAA 121400Z AUTO 15002KT 6SM M02/M10 A3021 RMK T10201100 IEM_DS3505
ZBAA,2000-02-12 15:00,ZBAA 121500Z AUTO 00000KT 6SM M04/M10 A3021 RMK SLP227 T10361102 52016 IEM_DS3505
ZBAA,2000-02-12 16:00,ZBAA 121600Z AUTO 18004KT 6SM M03/M11 A3021 RMK T10301110 IEM_DS3505
ZBAA,2000-02-12 17:00,ZBAA 121700Z AUTO 14002KT 6SM M04/M11 A3018 RMK T10401110 IEM_DS3505
ZBAA,2000-02-12 18:00,ZBAA 121800Z AUTO 09004KT 11SM M03/M12 A3018 RMK SLP221 T10311122 57005 IEM_DS3505
ZBAA,2000-02-12 19:00,ZBAA 121900Z AUTO 20002KT 6SM M04/M10 A3018 RMK T10401100 IEM_DS3505
ZBAA,2000-02-12 20:00,ZBAA 122000Z AUTO 24004KT 6SM M03/M10 A3018 RMK T10301100 IEM_DS3505
ZBAA,2000-02-12 21:00,ZBAA 122100Z AUTO 12004KT 11SM M03/M11 A3015 RMK SLP213 T10341106 57008 IEM_DS3505
ZBAA,2000-02-12 22:00,ZBAA 122200Z AUTO 16002KT 6SM M04/M09 A3018 RMK T10401090 IEM_DS3505
ZBAA,2000-02-12 23:00,ZBAA 122300Z AUTO 15002KT 6SM M04/M09 A3018 RMK T10401090 IEM_DS3505
ZBAA,2000-02-13 00:00,ZBAA 130000Z AUTO 13004KT 10SM M02/M11 A3021 RMK SLP225 T10251112 52011 IEM_DS3505
ZBAA,2000-02-13 01:00,ZBAA 130100Z AUTO 18004KT 6SM M02/M09 A3021 RMK T10201090 IEM_DS3505
ZBAA,2000-02-13 02:00,ZBAA 130200Z AUTO 18004KT 6SM M01/M09 A3021 RMK T10101090 IEM_DS3505
ZBAA,2000-02-13 03:00,ZBAA 130300Z AUTO 15004KT 9SM 01/M12 A3021 RMK SLP225 T00091117 52001 IEM_DS3505
ZBAA,2000-02-13 04:00,ZBAA 130400Z AUTO 17004KT 6SM 02/M10 A3018 RMK T00201100 IEM_DS3505
ZBAA,2000-02-13 05:00,ZBAA 130500Z AUTO 19006KT 6SM 03/M10 A3015 RMK T00301100 IEM_DS3505
ZBAA,2000-02-13 06:00,ZBAA 130600Z AUTO 20004KT 9SM 03/M13 A3012 RMK SLP204 T00311127 57021 IEM_DS3505
ZBAA,2000-02-13 07:00,ZBAA 130700Z AUTO 17008KT 6SM 05/M09 A3012 RMK T00501090 IEM_DS3505
ZBAA,2000-02-13 08:00,ZBAA 130800Z AUTO 17006KT 6SM 05/M10 A3012 RMK T00501100 IEM_DS3505
ZBAA,2000-02-13 09:00,ZBAA 130900Z AUTO 18006KT 12SM 04/M12 A3012 RMK SLP201 T00371118 57003 IEM_DS3505
ZBAA,2000-02-13 10:00,ZBAA 131000Z AUTO 14004KT 6SM 02/M11 A3015 RMK T00201110 IEM_DS3505
ZBAA,2000-02-13 11:00,ZBAA 131100Z AUTO 16004KT 6SM 00/M10 A3018 RMK T00001100 IEM_DS3505
ZBAA,2000-02-13 12:00,ZBAA 131200Z AUTO 17008KT 6SM M00/M11 A3018 RMK SLP227 T10011114 52025 IEM_DS3505
ZBAA,2000-02-13 13:00,ZBAA 131300Z AUTO 16004KT 6SM M02/M10 A3024 RMK T10201100 IEM_DS3505
ZBAA,2000-02-13 14:00,ZBAA 131400Z AUTO 13004KT 6SM M02/M10 A3024 RMK T10201100 IEM_DS3505
ZBAA,2000-02-13 15:00,ZBAA 131500Z AUTO 23002KT 6SM M04/M12 A3027 RMK SLP255 T10391118 52028 IEM_DS3505
ZBAA,2000-02-13 16:00,ZBAA 131600Z AUTO 12002KT 6SM M04/M11 A3030 RMK T10401110 IEM_DS3505
ZBAA,2000-02-13 17:00,ZBAA 131700Z AUTO 05002KT 6SM M06/M11 A3030 RMK T10601110 IEM_DS3505
ZBAA,2000-02-13 18:00,ZBAA 131800Z AUTO 04004KT 6SM M05/M13 A3030 RMK SLP255 T10471130 54000 IEM_DS3505
ZBAA,2000-02-13 19:00,ZBAA 131900Z AUTO 32008KT 6SM M03/M14 A3030 RMK T10301140 IEM_DS3505
ZBAA,2000-02-13 20:00,ZBAA 132000Z AUTO 30004KT 6SM M05/M15 A3030 RMK T10501150 IEM_DS3505
ZBAA,2000-02-13 21:00,ZBAA 132100Z AUTO 36004KT 9SM M02/M17 A3030 RMK SLP255 T10191171 52001 IEM_DS3505
ZBAA,2000-02-13 22:00,ZBAA 132200Z AUTO 34004KT 6SM M05/M16 A3030 RMK T10501160 IEM_DS3505
ZBAA,2000-02-13 23:00,ZBAA 132300Z AUTO 23002KT 6SM M06/M16 A3030 RMK T10601160 IEM_DS3505
ZBAA,2000-02-14 00:00,ZBAA 140000Z AUTO 32006KT 16SM M01/M19 A3033 RMK SLP267 T10141188 52011 IEM_DS3505
ZBAA,2000-02-14 01:00,ZBAA 140100Z AUTO 29008KT 6SM M02/M16 A3033 RMK T10201160 IEM_DS3505
ZBAA,2000-02-14 02:00,ZBAA 140200Z AUTO 30016KT 6SM M01/M18 A3033 RMK T10101180 IEM_DS3505
ZBAA,2000-02-14 03:00,ZBAA 140300Z AUTO 30014G25KT 12SM 00/M22 A3030 RMK SLP265 T00031218 57002 IEM_DS3505
ZBAA,2000-02-14 04:00,ZBAA 140400Z AUTO 29019G29KT 7SM 01/M20 A3030 RMK T00101200 IEM_DS3505
ZBAA,2000-02-14 05:00,ZBAA 140500Z AUTO 30016G27KT 7SM 00/M22 A3027 RMK T00001220 IEM_DS3505
ZBAA,2000-02-14 06:00,ZBAA 140600Z AUTO 32019G27KT 12SM 00/M25 A3027 RMK SLP254 T00051246 4////1071 57011 IEM_DS3505
ZBAA,2000-02-14 07:00,ZBAA 140700Z AUTO 31023G33KT 7SM 01/M25 A3027 RMK T00101250 IEM_DS3505
ZBAA,2000-02-14 08:00,ZBAA 140800Z AUTO 32017G27KT 7SM 01/M25 A3027 RMK T00101250 IEM_DS3505
ZBAA,2000-02-14 09:00,ZBAA 140900Z AUTO 35016KT 7SM 00/M25 A3027 RMK T00001250 IEM_DS3505
ZBAA,2000-02-14 10:00,ZBAA 141000Z AUTO 34014KT 6SM M02/M24 A3030 RMK T10201240 IEM_DS3505
ZBAA,2000-02-14 11:00,ZBAA 141100Z AUTO 34016KT 6SM M02/M24 A3033 RMK T10201240 IEM_DS3505
ZBAA,2000-02-14 12:00,ZBAA 141200Z AUTO 32008G27KT 16SM M02/M26 A3036 RMK SLP284 T10181256 52028 IEM_DS3505
ZBAA,2000-02-14 13:00,ZBAA 141300Z AUTO 35014KT 6SM M04/M24 A3039 RMK T10401240 IEM_DS3505
ZBAA,2000-02-14 14:00,ZBAA 141400Z AUTO 36010KT 6SM M05/M25 A3042 RMK T10501250 IEM_DS3505
ZBAA,2000-02-14 15:00,ZBAA 141500Z AUTO 31002KT 12SM M04/M26 A3042 RMK SLP299 T10361256 52015 IEM_DS3505
ZBAA,2000-02-14 16:00,ZBAA 141600Z AUTO 36010KT 6SM M06/M24 A3042 RMK T10601240 IEM_DS3505
ZBAA,2000-02-14 17:00,ZBAA 141700Z AUTO 34004KT 6SM M08/M24 A3039 RMK T10801240 IEM_DS3505
ZBAA,2000-02-14 18:00,ZBAA 141800Z AUTO 32006KT 12SM M04/M24 A3039 RMK SLP287 T10451245 57012 IEM_DS3505
ZBAA,2000-02-14 19:00,ZBAA 141900Z AUTO 28006KT 6SM M07/M24 A3036 RMK T10701240 IEM_DS3505
ZBAA,2000-02-14 20:00,ZBAA 142000Z AUTO 27004KT 6SM M07/M23 A3033 RMK T10701230 IEM_DS3505
ZBAA,2000-02-14 21:00,ZBAA 142100Z AUTO 23004KT 12SM M06/M22 A3033 RMK SLP274 T10631225 57013 IEM_DS3505
ZBAA,2000-02-14 22:00,ZBAA 142200Z AUTO 23004KT 6SM M06/M22 A3036 RMK T10601220 IEM_DS3505
ZBAA,2000-02-14 23:00,ZBAA 142300Z AUTO 28004KT 6SM M08/M21 A3036 RMK T10801210 IEM_DS3505
ZBAA,2000-02-15 00:00,ZBAA 150000Z AUTO 20004KT 16SM M05/M24 A3036 RMK SLP282 T10471236 52008 IEM_DS3505
ZBAA,2000-02-15 01:00,ZBAA 150100Z AUTO 00000KT 6SM M05/M20 A3036 RMK T10501200 IEM_DS3505
ZBAA,2000-02-15 02:00,ZBAA 150200Z AUTO 32006KT 6SM M02/M23 A3036 RMK T10201230 IEM_DS3505
ZBAA,2000-02-15 03:00,ZBAA 150300Z AUTO 29012KT 19SM 00/M25 A3036 RMK SLP275 T00001250 57007 IEM_DS3505
ZBAA,2000-02-15 04:00,ZBAA 150400Z AUTO 29012KT 6SM 00/M24 A3033 RMK T00001240 IEM_DS3505
ZBAA,2000-02-15 05:00,ZBAA 150500Z AUTO 30016KT 6SM 01/M24 A3027 RMK T00101240 IEM_DS3505
ZBAA,2000-02-15 06:00,ZBAA 150600Z AUTO 33012G25KT 12SM 02/M25 A3024 RMK SLP246 T00221251 57029 IEM_DS3505
ZBAA,2000-02-15 07:00,ZBAA 150700Z AUTO 30017G29KT 6SM 02/M24 A3024 RMK T00201240 IEM_DS3505
ZBAA,2000-02-15 08:00,ZBAA 150800Z AUTO 35012KT 6SM 03/M25 A3021 RMK T00301250 IEM_DS3505
ZBAA,2000-02-15 09:00,ZBAA 150900Z AUTO 32010KT 12SM 03/M25 A3021 RMK SLP236 T00271247 57010 IEM_DS3505
ZBAA,2000-02-15 10:00,ZBAA 151000Z AUTO 36008KT 6SM 00/M23 A3024 RMK T00001230 IEM_DS3505
ZBAA,2000-02-15 11:00,ZBAA 151100Z AUTO 36006KT 6SM M02/M22 A3024 RMK T10201220 IEM_DS3505
ZBAA,2000-02-15 12:00,ZBAA 151200Z AUTO 23004KT 7SM M02/M22 A3027 RMK SLP248 T10191223 52012 IEM_DS3505
ZBAA,2000-02-15 13:00,ZBAA 151300Z AUTO 01002KT 6SM M03/M21 A3027 RMK T10301210 IEM_DS3505
ZBAA,2000-02-15 14:00,ZBAA 151400Z AUTO 34002KT 6SM M03/M21 A3030 RMK T10301210 IEM_DS3505
ZBAA,2000-02-15 15:00,ZBAA 151500Z AUTO 02002KT 6SM M04/M22 A3030 RMK SLP255 T10411225 52007 IEM_DS3505
ZBAA,2000-02-15 16:00,ZBAA 151600Z AUTO 34002KT 6SM M05/M20 A3030 RMK T10501200 IEM_DS3505
ZBAA,2000-02-15 17:00,ZBAA 151700Z AUTO 00000KT 6SM M07/M18 A3030 RMK T10701180 IEM_DS3505
ZBAA,2000-02-15 18:00,ZBAA 151800Z AUTO 08004KT 7SM M05/M21 A3030 RMK SLP253 T10501210 57002 IEM_DS3505
ZBAA,2000-02-15 19:00,ZBAA 151900Z AUTO 35004KT 6SM M07/M20 A3030 RMK T10701200 IEM_DS3505
ZBAA,2000-02-15 20:00,ZBAA 152000Z AUTO 04002KT 6SM M07/M19 A3027 RMK T10701190 IEM_DS3505
ZBAA,2000-02-15 21:00,ZBAA 152100Z AUTO 04006KT 9SM M05/M21 A3027 RMK SLP250 T10491209 57003 IEM_DS3505
ZBAA,2000-02-15 22:00,ZBAA 152200Z AUTO 35002KT 6SM M08/M21 A3030 RMK T10801210 IEM_DS3505
ZBAA,2000-02-15 23:00,ZBAA 152300Z AUTO 02006KT 6SM M08/M21 A3030 RMK T10801210 IEM_DS3505
ZBAA,2000-02-16 00:00,ZBAA 160000Z AUTO 00000KT 6SM M06/M20 A3033 RMK SLP267 T10611197 52017 IEM_DS3505
ZBAA,2000-02-16 01:00,ZBAA 160100Z AUTO 36008KT 6SM M05/M20 A3033 RMK T10501200 IEM_DS3505
ZBAA,2000-02-16 02:00,ZBAA 160200Z AUTO 01008KT 6SM M03/M21 A3033 RMK T10301210 IEM_DS3505
ZBAA,2000-02-16 03:00,ZBAA 160300Z AUTO 08006KT 16SM M01/M23 A3033 RMK SLP268 T10091227 52001 IEM_DS3505
ZBAA,2000-02-16 04:00,ZBAA 160400Z AUTO 31004KT 6SM 00/M21 A3030 RMK T00001210 IEM_DS3505
ZBAA,2000-02-16 05:00,ZBAA 160500Z AUTO 30002KT 6SM 01/M21 A3027 RMK T00101210 IEM_DS3505
ZBAA,2000-02-16 06:00,ZBAA 160600Z AUTO 22004KT 12SM 03/M22 A3024 RMK SLP236 T00281219 57032 IEM_DS3505
ZBAA,2000-02-16 07:00,ZBAA 160700Z AUTO 17004KT 6SM 03/M20 A3021 RMK T00301200 IEM_DS3505
ZBAA,2000-02-16 08:00,ZBAA 160800Z AUTO 20008KT 6SM 03/M20 A3021 RMK T00301200 IEM_DS3505
ZBAA,2000-02-16 09:00,ZBAA 160900Z AUTO 21004KT 19SM 03/M22 A3018 RMK SLP224 T00291218 57012 IEM_DS3505
ZBAA,2000-02-16 10:00,ZBAA 161000Z AUTO 16004KT 6SM 01/M20 A3021 RMK T00101200 IEM_DS3505
ZBAA,2000-02-16 11:00,ZBAA 161100Z AUTO 13002KT 6SM 00/M20 A3021 RMK T00001200 IEM_DS3505
ZBAA,2000-02-16 12:00,ZBAA 161200Z AUTO 07002KT 16SM M02/M20 A3024 RMK SLP235 T10171195 52011 IEM_DS3505
ZBAA,2000-02-16 13:00,ZBAA 161300Z AUTO 03004KT 6SM M02/M16 A3024 RMK T10201160 IEM_DS3505
ZBAA,2000-02-16 14:00,ZBAA 161400Z AUTO 10002KT 6SM M04/M15 A3027 RMK T10401150 IEM_DS3505
ZBAA,2000-02-16 15:00,ZBAA 161500Z AUTO 20002KT 12SM M03/M14 A3027 RMK SLP253 T10311144 52018 IEM_DS3505
ZBAA,2000-02-16 16:00,ZBAA 161600Z AUTO 00000KT 6SM M05/M11 A3030 RMK T10501110 IEM_DS3505
ZBAA,2000-02-16 17:00,ZBAA 161700Z AUTO 34004KT 6SM M07/M17 A3030 RMK T10701170 IEM_DS3505
ZBAA,2000-02-16 18:00,ZBAA 161800Z AUTO 00000KT 7SM M06/M14 A3030 RMK SLP262 T10581145 52009 IEM_DS3505
ZBAA,2000-02-16 19:00,ZBAA 161900Z AUTO 01002KT 6SM M07/M15 A3033 RMK T10701150 IEM_DS3505
ZBAA,2000-02-16 20:00,ZBAA 162000Z AUTO 06004KT 7SM M07/M14 A3033 RMK SLP266 T10671144 52004 IEM_DS3505
ZBAA,2000-02-16 21:00,ZBAA 162100Z AUTO 06004KT 7SM M07/M14 A3033 RMK SLP266 T10671144 52004 IEM_DS3505
ZBAA,2000-02-16 22:00,ZBAA 162200Z AUTO 36004KT 6SM M09/M17 A3033 RMK T10901170 IEM_DS3505
ZBAA,2000-02-16 23:00,ZBAA 162300Z AUTO 36004KT 6SM M09/M19 A3036 RMK T10901190 IEM_DS3505
ZBAA,2000-02-17 00:00,ZBAA 170000Z AUTO 01002KT 5SM M06/M16 A3036 RMK SLP282 T10561156 52016 IEM_DS3505
ZBAA,2000-02-17 01:00,ZBAA 170100Z AUTO 35006KT 6SM M05/M19 A3039 RMK T10501190 IEM_DS3505
ZBAA,2000-02-17 02:00,ZBAA 170200Z AUTO 36006KT 6SM M03/M20 A3039 RMK T10301200 IEM_DS3505
ZBAA,2000-02-17 03:00,ZBAA 170300Z AUTO 03004KT 6SM M00/M19 A3039 RMK SLP283 T10011191 52001 IEM_DS3505
ZBAA,2000-02-17 04:00,ZBAA 170400Z AUTO 30002KT 6SM 01/M18 A3036 RMK T00101180 IEM_DS3505
ZBAA,2000-02-17 05:00,ZBAA 170500Z AUTO 21004KT 6SM 02/M18 A3033 RMK T00201180 IEM_DS3505
ZBAA,2000-02-17 06:00,ZBAA 170600Z AUTO 14004KT 9SM 04/M18 A3030 RMK SLP256 T00351178 57027 IEM_DS3505
ZBAA,2000-02-17 07:00,ZBAA 170700Z AUTO 6SM 04/M17 A3027 RMK T00401170 IEM_DS3505
ZBAA,2000-02-17 08:00,ZBAA 170800Z AUTO 17004KT 6SM 04/M17 A3027 RMK T00401170 IEM_DS3505
ZBAA,2000-02-17 09:00,ZBAA 170900Z AUTO 14004KT 9SM 03/M19 A3027 RMK SLP250 T00341186 57006 IEM_DS3505
ZBAA,2000-02-17 10:00,ZBAA 171000Z AUTO 11002KT 6SM 01/M16 A3027 RMK T00101160 IEM_DS3505
ZBAA,2000-02-17 11:00,ZBAA 171100Z AUTO 10002KT 6SM 00/M16 A3027 RMK T00001160 IEM_DS3505
ZBAA,2000-02-17 12:00,ZBAA 171200Z AUTO 15004KT 6SM M00/M16 A3030 RMK SLP261 T10041158 52011 IEM_DS3505
ZBAA,2000-02-17 13:00,ZBAA 171300Z AUTO 13002KT 6SM M03/M15 A3033 RMK T10301150 IEM_DS3505
ZBAA,2000-02-17 15:00,ZBAA 171500Z AUTO 00000KT 9SM M04/M12 A3033 RMK SLP270 T10361117 52009 IEM_DS3505
ZBAA,2000-02-17 16:00,ZBAA 171600Z AUTO 12002KT 6SM M05/M09 A3036 RMK T10501090 IEM_DS3505
ZBAA,2000-02-17 18:00,ZBAA 171800Z AUTO 07004KT 9SM M06/M10 A3036 RMK SLP278 T10611103 52008 IEM_DS3505
ZBAA,2000-02-17 19:00,ZBAA 171900Z AUTO 12002KT 6SM M06/M09 A3036 RMK T10601090 IEM_DS3505
ZBAA,2000-02-17 20:00,ZBAA 172000Z AUTO 00000KT 6SM M06/M09 A3036 RMK T10601090 IEM_DS3505
ZBAA,2000-02-17 21:00,ZBAA 172100Z AUTO 09002KT 6SM M06/M11 A3036 RMK SLP275 T10641113 57003 IEM_DS3505
ZBAA,2000-02-17 22:00,ZBAA 172200Z AUTO 00000KT 3SM M06/M09 A3036 RMK T10601090 IEM_DS3505
ZBAA,2000-02-17 23:00,ZBAA 172300Z AUTO 00000KT 2 1/2SM M05/M08 A3033 RMK T10501080 IEM_DS3505
ZBAA,2000-02-18 00:00,ZBAA 180000Z AUTO 08004KT 6SM M04/M08 A3036 RMK SLP273 T10401084 57002 IEM_DS3505
ZBAA,2000-02-18 01:00,ZBAA 180100Z AUTO 03002KT 3SM M04/M07 A3036 RMK T10401070 IEM_DS3505
ZBAA,2000-02-18 02:00,ZBAA 180200Z AUTO 30002KT 4SM M03/M06 A3033 RMK T10301060 IEM_DS3505
ZBAA,2000-02-18 03:00,ZBAA 180300Z AUTO 04004KT 6SM M02/M08 A3033 RMK SLP270 T10191082 57003 IEM_DS3505
ZBAA,2000-02-18 04:00,ZBAA 180400Z AUTO 12002KT 6SM M02/M06 A3033 RMK T10201060 IEM_DS3505
ZBAA,2000-02-18 05:00,ZBAA 180500Z AUTO 06002KT 6SM M01/M06 A3030 RMK T10101060 IEM_DS3505
ZBAA,2000-02-18 06:00,ZBAA 180600Z AUTO 09002KT 6SM M01/M08 A3027 RMK SLP246 T10121084 57024 IEM_DS3505
ZBAA,2000-02-18 07:00,ZBAA 180700Z AUTO 14002KT 5SM M01/M07 A3024 RMK T10101070 IEM_DS3505
ZBAA,2000-02-18 08:00,ZBAA 180800Z AUTO 05002KT 5SM M01/M08 A3024 RMK T10101080 IEM_DS3505
ZBAA,2000-02-18 09:00,ZBAA 180900Z AUTO 04004KT 6SM M01/M10 A3021 RMK SLP224 T10071098 57022 IEM_DS3505
ZBAA,2000-02-18 10:00,ZBAA 181000Z AUTO 03002KT 5SM M01/M08 A3018 RMK T10101080 IEM_DS3505
ZBAA,2000-02-18 11:00,ZBAA 181100Z AUTO 05002KT 5SM M02/M08 A3021 RMK T10201080 IEM_DS3505
ZBAA,2000-02-18 12:00,ZBAA 181200Z AUTO 04002KT 6SM M01/M10 A3021 RMK SLP229 T10111101 52005 IEM_DS3505
ZBAA,2000-02-18 13:00,ZBAA 181300Z AUTO 31004KT 6SM M01/M10 A3021 RMK T10101100 IEM_DS3505
ZBAA,2000-02-18 14:00,ZBAA 181400Z AUTO 32006KT 6SM M02/M09 A3021 RMK T10201090 IEM_DS3505
ZBAA,2000-02-18 15:00,ZBAA 181500Z AUTO 00000KT 6SM M01/M12 A3021 RMK SLP225 T10111120 57004 IEM_DS3505
ZBAA,2000-02-18 16:00,ZBAA 181600Z AUTO 33004KT 4SM M04/M09 A3021 RMK T10401090 IEM_DS3505
ZBAA,2000-02-18 17:00,ZBAA 181700Z AUTO 33006KT M03/M09 A3018 RMK T10301090 IEM_DS3505
ZBAA,2000-02-18 18:00,ZBAA 181800Z AUTO 35004KT 4SM M04/M09 A3018 RMK T10401090 IEM_DS3505
ZBAA,2000-02-18 19:00,ZBAA 181900Z AUTO 36006KT 5SM M05/M12 A3018 RMK T10501120 IEM_DS3505
ZBAA,2000-02-18 20:00,ZBAA 182000Z AUTO 36008KT 6SM M04/M11 A3018 RMK T10401110 IEM_DS3505
ZBAA,2000-02-18 21:00,ZBAA 182100Z AUTO 03004KT 6SM M03/M14 A3018 RMK SLP212 T10331140 57006 IEM_DS3505
ZBAA,2000-02-18 22:00,ZBAA 182200Z AUTO 36010KT 6SM M05/M12 A3018 RMK T10501120 IEM_DS3505
ZBAA,2000-02-18 23:00,ZBAA 182300Z AUTO 01010KT 6SM M02/M14 A3021 RMK T10201140 IEM_DS3505
ZBAA,2000-02-19 00:00,ZBAA 190000Z AUTO 04008KT 9SM M02/M16 A3024 RMK SLP240 T10181155 52028 IEM_DS3505
ZBAA,2000-02-19 01:00,ZBAA 190100Z AUTO 36010KT 6SM 00/M15 A3027 RMK T00001150 IEM_DS3505
ZBAA,2000-02-19 02:00,ZBAA 190200Z AUTO 36012KT 6SM 02/M16 A3027 RMK T00201160 IEM_DS3505
ZBAA,2000-02-19 03:00,ZBAA 190300Z AUTO 33014KT 6SM 03/M16 A3024 RMK T00301160 IEM_DS3505
ZBAA,2000-02-19 04:00,ZBAA 190400Z AUTO 34014KT 6SM 03/M17 A3024 RMK T00301170 IEM_DS3505
ZBAA,2000-02-19 05:00,ZBAA 190500Z AUTO 34014KT 6SM 04/M18 A3021 RMK T00401180 IEM_DS3505
ZBAA,2000-02-19 06:00,ZBAA 190600Z AUTO 33008KT 12SM 05/M18 A3018 RMK SLP216 T00481181 57021 IEM_DS3505
ZBAA,2000-02-19 07:00,ZBAA 190700Z AUTO 34012G21KT 6SM 06/M18 A3015 RMK T00601180 IEM_DS3505
ZBAA,2000-02-19 08:00,ZBAA 190800Z AUTO 34012KT 6SM 06/M18 A3015 RMK T00601180 IEM_DS3505
ZBAA,2000-02-19 09:00,ZBAA 190900Z AUTO 32008KT 12SM 06/M19 A3015 RMK SLP209 T00551190 57007 IEM_DS3505
ZBAA,2000-02-19 10:00,ZBAA 191000Z AUTO 01006KT 6SM 03/M17 A3018 RMK T00301170 IEM_DS3505
ZBAA,2000-02-19 11:00,ZBAA 191100Z AUTO 35008KT 6SM M01/M18 A3018 RMK T10101180 IEM_DS3505
ZBAA,2000-02-19 12:00,ZBAA 191200Z AUTO 01002KT 16SM 02/M19 A3021 RMK SLP227 T00231188 52018 IEM_DS3505
ZBAA,2000-02-19 13:00,ZBAA 191300Z AUTO 01010KT 6SM 00/M16 A3024 RMK T00001160 IEM_DS3505
ZBAA,2000-02-19 14:00,ZBAA 191400Z AUTO 02012KT 6SM 00/M16 A3024 RMK T00001160 IEM_DS3505
ZBAA,2000-02-19 15:00,ZBAA 191500Z AUTO 04004KT 16SM M01/M18 A3027 RMK SLP244 T10101180 52016 IEM_DS3505
ZBAA,2000-02-19 16:00,ZBAA 191600Z AUTO 02008KT 6SM M02/M16 A3027 RMK T10201160 IEM_DS3505
ZBAA,2000-02-19 17:00,ZBAA 191700Z AUTO 03006KT 6SM M03/M16 A3027 RMK T10301160 IEM_DS3505
ZBAA,2000-02-19 18:00,ZBAA 191800Z AUTO 05004KT 19SM M03/M18 A3027 RMK SLP249 T10311181 52006 IEM_DS3505
ZBAA,2000-02-19 20:00,ZBAA 192000Z AUTO 02008KT 6SM M04/M17 A3027 RMK T10401170 IEM_DS3505
ZBAA,2000-02-19 21:00,ZBAA 192100Z AUTO 03006KT 19SM M04/M18 A3027 RMK SLP243 T10421183 57006 IEM_DS3505
ZBAA,2000-02-19 22:00,ZBAA 192200Z AUTO 36006KT 6SM M07/M17 A3027 RMK T10701170 IEM_DS3505
ZBAA,2000-02-19 23:00,ZBAA 192300Z AUTO 36006KT 6SM M08/M17 A3027 RMK T10801170 IEM_DS3505
ZBAA,2000-02-20 00:00,ZBAA 200000Z AUTO 05004KT 12SM M04/M17 A3030 RMK SLP253 T10361171 52009 IEM_DS3505
ZBAA,2000-02-20 01:00,ZBAA 200100Z AUTO 02006KT 6SM M03/M16 A3030 RMK T10301160 IEM_DS3505
ZBAA,2000-02-20 02:00,ZBAA 200200Z AUTO 01008KT 6SM M01/M16 A3030 RMK T10101160 IEM_DS3505
ZBAA,2000-02-20 03:00,ZBAA 200300Z AUTO 34008KT 16SM 02/M19 A3030 RMK SLP251 T00191192 57001 IEM_DS3505
ZBAA,2000-02-20 04:00,ZBAA 200400Z AUTO 02004KT 6SM 02/M17 A3027 RMK T00201170 IEM_DS3505
ZBAA,2000-02-20 05:00,ZBAA 200500Z AUTO 32004KT 6SM 04/M18 A3024 RMK T00401180 IEM_DS3505
ZBAA,2000-02-20 06:00,ZBAA 200600Z AUTO 04006KT 19SM 05/M21 A3018 RMK SLP222 T00461213 57029 IEM_DS3505
ZBAA,2000-02-20 07:00,ZBAA 200700Z AUTO 34006KT 6SM 06/M19 A3018 RMK T00601190 IEM_DS3505
ZBAA,2000-02-20 08:00,ZBAA 200800Z AUTO 6SM 05/M19 A3015 RMK T00501190 IEM_DS3505
ZBAA,2000-02-20 09:00,ZBAA 200900Z AUTO 23006KT 16SM 04/M17 A3015 RMK SLP215 T00421173 57007 IEM_DS3505
ZBAA,2000-02-20 10:00,ZBAA 201000Z AUTO 15002KT 6SM 02/M19 A3018 RMK T00201190 IEM_DS3505
ZBAA,2000-02-20 11:00,ZBAA 201100Z AUTO 11002KT 6SM 01/M18 A3021 RMK T00101180 IEM_DS3505
ZBAA,2000-02-20 12:00,ZBAA 201200Z AUTO 18002KT 6SM 00/M17 A3021 RMK SLP231 T00011166 52015 IEM_DS3505
ZBAA,2000-02-20 13:00,ZBAA 201300Z AUTO 19004KT 5SM M01/M16 A3021 RMK T10101160 IEM_DS3505
ZBAA,2000-02-20 14:00,ZBAA 201400Z AUTO 00000KT M03/M14 A3024 RMK T10301140 IEM_DS3505
ZBAA,2000-02-20 15:00,ZBAA 201500Z AUTO 26004KT 4SM M01/M15 A3027 RMK SLP245 T10091154 52014 IEM_DS3505
ZBAA,2000-02-20 16:00,ZBAA 201600Z AUTO 33002KT 3SM M03/M16 A3027 RMK T10301160 IEM_DS3505
ZBAA,2000-02-20 17:00,ZBAA 201700Z AUTO 36002KT 3SM M05/M15 A3027 RMK T10501150 IEM_DS3505
ZBAA,2000-02-20 18:00,ZBAA 201800Z AUTO 09002KT 4SM M05/M15 A3027 RMK SLP247 T10471150 52003 IEM_DS3505
ZBAA,2000-02-20 19:00,ZBAA 201900Z AUTO 01006KT 5SM M05/M16 A3027 RMK T10501160 IEM_DS3505
ZBAA,2000-02-20 20:00,ZBAA 202000Z AUTO 32004KT 6SM M05/M16 A3027 RMK T10501160 IEM_DS3505
ZBAA,2000-02-20 21:00,ZBAA 202100Z AUTO 00000KT 4SM M06/M14 A3027 RMK SLP245 T10561143 57003 IEM_DS3505
ZBAA,2000-02-20 22:00,ZBAA 202200Z AUTO 34006KT 6SM M08/M16 A3027 RMK T10801160 IEM_DS3505
ZBAA,2000-02-20 23:00,ZBAA 202300Z AUTO 01006KT 6SM M05/M16 A3027 RMK T10501160 IEM_DS3505
ZBAA,2000-02-21 00:00,ZBAA 210000Z AUTO 03002KT 5SM M04/M17 A3030 RMK SLP257 T10381169 52012 IEM_DS3505
ZBAA,2000-02-21 01:00,ZBAA 210100Z AUTO 03002KT 6SM M02/M16 A3030 RMK T10201160 IEM_DS3505
ZBAA,2000-02-21 02:00,ZBAA 210200Z AUTO 01004KT 6SM 00/M16 A3030 RMK T00001160 IEM_DS3505
ZBAA,2000-02-21 03:00,ZBAA 210300Z AUTO 03004KT 4SM 01/M15 A3030 RMK SLP257 T00081151 54000 IEM_DS3505
ZBAA,2000-02-21 04:00,ZBAA 210400Z AUTO 6SM 03/M15 A3027 RMK T00301150 IEM_DS3505
ZBAA,2000-02-21 05:00,ZBAA 210500Z AUTO 13004KT 6SM 04/M14 A3024 RMK T00401140 IEM_DS3505
ZBAA,2000-02-21 06:00,ZBAA 210600Z AUTO 12006KT 5SM 05/M14 A3021 RMK SLP223 T00541140 57033 IEM_DS3505
ZBAA,2000-02-21 07:00,ZBAA 210700Z AUTO 13004KT 5SM 06/M13 A3018 RMK T00601130 IEM_DS3505
ZBAA,2000-02-21 08:00,ZBAA 210800Z AUTO 16004KT 06/M12 A3015 RMK T00601120 IEM_DS3505
ZBAA,2000-02-21 09:00,ZBAA 210900Z AUTO 21004KT 6SM 06/M13 A3015 RMK SLP212 T00551134 57011 IEM_DS3505
ZBAA,2000-02-21 11:00,ZBAA 211100Z AUTO 11002KT 3SM 02/M12 A3018 RMK T00201120 IEM_DS3505
ZBAA,2000-02-21 12:00,ZBAA 211200Z AUTO 12006KT 6SM M01/M12 RMK SLP229 T10111123 52016 IEM_DS3505
ZBAA,2000-02-21 14:00,ZBAA 211400Z AUTO 13004KT M02/M08 A3024 RMK T10201080 IEM_DS3505
ZBAA,2000-02-21 15:00,ZBAA 211500Z AUTO 07004KT 6SM M02/M08 A3027 RMK SLP245 T10191078 52016 IEM_DS3505
ZBAA,2000-02-21 16:00,ZBAA 211600Z AUTO 36002KT M02/M09 A3027 RMK T10201090 IEM_DS3505
ZBAA,2000-02-21 17:00,ZBAA 211700Z AUTO 33002KT M02/M09 A3027 RMK T10201090 IEM_DS3505
ZBAA,2000-02-21 18:00,ZBAA 211800Z AUTO 05004KT 6SM M01/M09 A3024 RMK SLP240 T10141086 57004 IEM_DS3505
ZBAA,2000-02-21 19:00,ZBAA 211900Z AUTO 34004KT M02/M09 A3024 RMK T10201090 IEM_DS3505
ZBAA,2000-02-21 20:00,ZBAA 212000Z AUTO 34004KT M03/M09 A3024 RMK T10301090 IEM_DS3505
ZBAA,2000-02-21 21:00,ZBAA 212100Z AUTO 07006KT 6SM M02/M11 A3021 RMK SLP227 T10161109 57013 IEM_DS3505
ZBAA,2000-02-21 22:00,ZBAA 212200Z AUTO 28006KT 4SM M03/M08 A3021 RMK T10301080 IEM_DS3505
ZBAA,2000-02-21 23:00,ZBAA 212300Z AUTO 27004KT 4SM M04/M09 A3021 RMK T10401090 IEM_DS3505
ZBAA,2000-02-22 00:00,ZBAA 220000Z AUTO 04002KT 6SM M02/M10 A3024 RMK SLP242 T10191102 52014 IEM_DS3505
ZBAA,2000-02-22 01:00,ZBAA 220100Z AUTO 27004KT 2 1/2SM M02/M09 A3027 RMK T10201090 IEM_DS3505
ZBAA,2000-02-22 02:00,ZBAA 220200Z AUTO 28004KT 2 1/2SM 00/M09 A3027 RMK T00001090 IEM_DS3505
ZBAA,2000-02-22 03:00,ZBAA 220300Z AUTO 07006KT 6SM 01/M09 A3027 RMK T00071090 52007 IEM_DS3505
ZBAA,2000-02-22 04:00,ZBAA 220400Z AUTO 6SM 03/M11 A3024 RMK T00301110 IEM_DS3505
ZBAA,2000-02-22 05:00,ZBAA 220500Z AUTO 6SM 04/M10 A3021 RMK T00401100 IEM_DS3505
ZBAA,2000-02-22 06:00,ZBAA 220600Z AUTO 07004KT 6SM 05/M11 A3018 RMK SLP218 T00511110 57030 IEM_DS3505
ZBAA,2000-02-22 07:00,ZBAA 220700Z AUTO 05002KT 6SM 06/M10 A3015 RMK T00601100 IEM_DS3505
ZBAA,2000-02-22 08:00,ZBAA 220800Z AUTO 00000KT 6SM 07/M10 A3015 RMK T00701100 IEM_DS3505
ZBAA,2000-02-22 09:00,ZBAA 220900Z AUTO 14002KT 6SM 04/M12 A3015 RMK SLP211 T00431121 57007 IEM_DS3505
ZBAA,2000-02-22 10:00,ZBAA 221000Z AUTO 20006KT 04/M10 A3015 RMK T00401100 IEM_DS3505
ZBAA,2000-02-22 11:00,ZBAA 221100Z AUTO 23004KT 2 1/2SM 04/M09 A3018 RMK T00401090 IEM_DS3505
ZBAA,2000-02-22 12:00,ZBAA 221200Z AUTO 29002KT 6SM 01/M10 A3021 RMK SLP227 T00081103 52016 IEM_DS3505
ZBAA,2000-02-22 13:00,ZBAA 221300Z AUTO 00000KT 2 1/2SM M01/M10 A3024 RMK T10101100 IEM_DS3505
ZBAA,2000-02-22 14:00,ZBAA 221400Z AUTO 34002KT 2 1/2SM 00/M09 A3024 RMK T00001090 IEM_DS3505
ZBAA,2000-02-22 15:00,ZBAA 221500Z AUTO 29004KT 6SM 01/M08 A3027 RMK SLP248 T00141084 52021 IEM_DS3505
ZBAA,2000-02-22 16:00,ZBAA 221600Z AUTO 02004KT 2SM 00/M09 A3030 RMK T00001090 IEM_DS3505
ZBAA,2000-02-22 17:00,ZBAA 221700Z AUTO 02004KT 2SM 00/M12 A3030 RMK T00001120 IEM_DS3505
ZBAA,2000-02-22 18:00,ZBAA 221800Z AUTO 03004KT 9SM 01/M15 A3030 RMK SLP260 T00091146 52012 IEM_DS3505
ZBAA,2000-02-22 19:00,ZBAA 221900Z AUTO 01012KT 6SM M01/M17 A3033 RMK T10101170 IEM_DS3505
ZBAA,2000-02-22 20:00,ZBAA 222000Z AUTO 03004KT 6SM M01/M17 A3033 RMK T10101170 IEM_DS3505
ZBAA,2000-02-22 21:00,ZBAA 222100Z AUTO 05006KT 12SM M01/M19 A3036 RMK SLP274 T10121191 52014 IEM_DS3505
ZBAA,2000-02-22 22:00,ZBAA 222200Z AUTO 36008KT 6SM M03/M18 A3036 RMK T10301180 IEM_DS3505
ZBAA,2000-02-22 23:00,ZBAA 222300Z AUTO 36008KT 6SM M03/M17 A3039 RMK T10301170 IEM_DS3505
ZBAA,2000-02-23 00:00,ZBAA 230000Z AUTO 03004KT 12SM M02/M19 A3042 RMK SLP296 T10171186 52021 IEM_DS3505
ZBAA,2000-02-23 01:00,ZBAA 230100Z AUTO 04008KT 6SM M01/M18 A3045 RMK T10101180 IEM_DS3505
ZBAA,2000-02-23 02:00,ZBAA 230200Z AUTO 04006KT 6SM 01/M19 A3045 RMK T00101190 IEM_DS3505
ZBAA,2000-02-23 03:00,ZBAA 230300Z AUTO 02006KT 12SM 03/M19 A3045 RMK SLP303 T00271191 52007 IEM_DS3505
ZBAA,2000-02-23 04:00,ZBAA 230400Z AUTO 33006KT 6SM 03/M18 A3042 RMK T00301180 IEM_DS3505
ZBAA,2000-02-23 05:00,ZBAA 230500Z AUTO 35006KT 6SM 04/M18 A3039 RMK T00401180 IEM_DS3505
ZBAA,2000-02-23 06:00,ZBAA 230600Z AUTO 33008KT 12SM 07/M22 A3036 RMK SLP272 T00671216 57030 IEM_DS3505
ZBAA,2000-02-23 07:00,ZBAA 230700Z AUTO 01004KT 6SM 06/M19 A3033 RMK T00601190 IEM_DS3505
ZBAA,2000-02-23 08:00,ZBAA 230800Z AUTO 6SM 06/M18 A3033 RMK T00601180 IEM_DS3505
ZBAA,2000-02-23 09:00,ZBAA 230900Z AUTO 33008KT 12SM 07/M22 A3030 RMK SLP262 T00681215 57010 IEM_DS3505
ZBAA,2000-02-23 10:00,ZBAA 231000Z AUTO 06002KT 6SM 04/M19 A3033 RMK T00401190 IEM_DS3505
ZBAA,2000-02-23 11:00,ZBAA 231100Z AUTO 16002KT 6SM 02/M20 A3036 RMK T00201200 IEM_DS3505
ZBAA,2000-02-23 12:00,ZBAA 231200Z AUTO 25008KT 9SM 03/M16 A3039 RMK SLP294 T00341162 52031 IEM_DS3505
ZBAA,2000-02-23 13:00,ZBAA 231300Z AUTO 03004KT 6SM 00/M17 A3042 RMK T00001170 IEM_DS3505
ZBAA,2000-02-23 14:00,ZBAA 231400Z AUTO 01006KT 6SM M01/M18 A3045 RMK T10101180 IEM_DS3505
ZBAA,2000-02-23 15:00,ZBAA 231500Z AUTO 06004KT 9SM M00/M18 A3045 RMK SLP307 T10031178 52013 IEM_DS3505
ZBAA,2000-02-23 16:00,ZBAA 231600Z AUTO 01008KT 6SM 01/M16 A3045 RMK T00101160 IEM_DS3505
ZBAA,2000-02-23 17:00,ZBAA 231700Z AUTO 01006KT 6SM M01/M17 A3047 RMK T10101170 IEM_DS3505
ZBAA,2000-02-23 18:00,ZBAA 231800Z AUTO 05004KT 9SM M01/M18 A3047 RMK SLP322 T10091183 52016 IEM_DS3505
ZBAA,2000-02-23 19:00,ZBAA 231900Z AUTO 06002KT 6SM M02/M20 A3047 RMK T10201200 IEM_DS3505
ZBAA,2000-02-23 21:00,ZBAA 232100Z AUTO 09002KT 9SM M04/M19 A3053 RMK SLP336 T10441189 52013 IEM_DS3505
ZBAA,2000-02-23 22:00,ZBAA 232200Z AUTO 6SM M03/M20 A3053 RMK T10301200 IEM_DS3505
ZBAA,2000-02-23 23:00,ZBAA 232300Z AUTO 01002KT 6SM M05/M20 A3056 RMK T10501200 IEM_DS3505
ZBAA,2000-02-24 00:00,ZBAA 240000Z AUTO 00000KT 6SM M03/M19 A3059 RMK SLP354 T10301193 52018 IEM_DS3505
ZBAA,2000-02-24 01:00,ZBAA 240100Z AUTO 36004KT 6SM M02/M20 A3059 RMK T10201200 IEM_DS3505
ZBAA,2000-02-24 02:00,ZBAA 240200Z AUTO 03004KT 6SM 00/M21 A3059 RMK T00001210 IEM_DS3505
ZBAA,2000-02-24 03:00,ZBAA 240300Z AUTO 15002KT 9SM 02/M22 A3059 RMK SLP356 T00151222 52002 IEM_DS3505
ZBAA,2000-02-24 04:00,ZBAA 240400Z AUTO 6SM 03/M21 A3056 RMK T00301210 IEM_DS3505
ZBAA,2000-02-24 05:00,ZBAA 240500Z AUTO 23002KT 6SM 04/M20 A3050 RMK T00401200 IEM_DS3505
ZBAA,2000-02-24 06:00,ZBAA 240600Z AUTO 27004KT 14SM 04/M20 A3047 RMK SLP320 T00401202 57036 IEM_DS3505
ZBAA,2000-02-24 07:00,ZBAA 240700Z AUTO 22006KT 6SM 04/M19 A3045 RMK T00401190 IEM_DS3505
ZBAA,2000-02-24 08:00,ZBAA 240800Z AUTO 20006KT 6SM 04/M18 A3042 RMK T00401180 IEM_DS3505
ZBAA,2000-02-24 09:00,ZBAA 240900Z AUTO 22006KT 9SM 04/M20 A3042 RMK SLP300 T00381196 57020 IEM_DS3505
ZBAA,2000-02-24 10:00,ZBAA 241000Z AUTO 19004KT 6SM 02/M19 A3042 RMK T00201190 IEM_DS3505
ZBAA,2000-02-24 11:00,ZBAA 241100Z AUTO 17004KT 5SM 00/M18 A3042 RMK T00001180 IEM_DS3505
ZBAA,2000-02-24 12:00,ZBAA 241200Z AUTO 19002KT 6SM M00/M18 A3042 RMK SLP300 T10011181 54000 IEM_DS3505
ZBAA,2000-02-24 13:00,ZBAA 241300Z AUTO 16002KT M01/M16 A3042 RMK T10101160 IEM_DS3505
ZBAA,2000-02-24 14:00,ZBAA 241400Z AUTO 11002KT 3SM M03/M15 A3042 RMK T10301150 IEM_DS3505
ZBAA,2000-02-24 15:00,ZBAA 241500Z AUTO 20004KT 7SM M01/M17 A3042 RMK SLP297 T10071173 57003 IEM_DS3505
ZBAA,2000-02-24 16:00,ZBAA 241600Z AUTO 17006KT 3SM M03/M16 A3039 RMK T10301160 IEM_DS3505
ZBAA,2000-02-24 17:00,ZBAA 241700Z AUTO 18004KT 3SM M03/M16 A3039 RMK T10301160 IEM_DS3505
ZBAA,2000-02-24 18:00,ZBAA 241800Z AUTO 21004KT 6SM M01/M16 A3039 RMK SLP281 T10101159 57015 IEM_DS3505
ZBAA,2000-02-24 19:00,ZBAA 241900Z AUTO 09002KT M03/M14 A3033 RMK T10301140 IEM_DS3505
ZBAA,2000-02-24 20:00,ZBAA 242000Z AUTO 12002KT 5SM M03/M15 A3030 RMK T10301150 IEM_DS3505
ZBAA,2000-02-24 21:00,ZBAA 242100Z AUTO 16002KT 7SM M02/M15 A3030 RMK SLP255 T10241147 57026 IEM_DS3505
ZBAA,2000-02-24 22:00,ZBAA 242200Z AUTO 00000KT M03/M14 A3030 RMK T10301140 IEM_DS3505
ZBAA,2000-02-24 23:00,ZBAA 242300Z AUTO 07002KT 5SM M03/M14 A3027 RMK T10301140 IEM_DS3505
ZBAA,2000-02-25 00:00,ZBAA 250000Z AUTO 08002KT 6SM M02/M14 A3027 RMK SLP248 T10181138 57008 IEM_DS3505
ZBAA,2000-02-25 01:00,ZBAA 250100Z AUTO 00000KT M02/M14 A3027 RMK T10201140 IEM_DS3505
ZBAA,2000-02-25 02:00,ZBAA 250200Z AUTO 6SM M01/M13 A3024 RMK T10101130 IEM_DS3505
ZBAA,2000-02-25 03:00,ZBAA 250300Z AUTO 05004KT 6SM 00/M15 A3024 RMK SLP234 T00041147 57013 IEM_DS3505
ZBAA,2000-02-25 04:00,ZBAA 250400Z AUTO 02002KT 01/M13 A3021 RMK T00101130 IEM_DS3505
ZBAA,2000-02-25 05:00,ZBAA 250500Z AUTO 02/M13 A3018 RMK T00201130 IEM_DS3505
ZBAA,2000-02-25 06:00,ZBAA 250600Z AUTO 09002KT 6SM 05/M15 A3012 RMK SLP204 T00461147 57030 IEM_DS3505
ZBAA,2000-02-25 07:00,ZBAA 250700Z AUTO 26006KT 5SM 06/M11 A3009 RMK T00601110 IEM_DS3505
ZBAA,2000-02-25 08:00,ZBAA 250800Z AUTO 29008KT 6SM 07/M12 A3009 RMK T00701120 IEM_DS3505
ZBAA,2000-02-25 09:00,ZBAA 250900Z AUTO 21004KT 9SM 05/M13 A3009 RMK SLP192 T00521127 57012 IEM_DS3505
ZBAA,2000-02-25 10:00,ZBAA 251000Z AUTO 29008KT 6SM 06/M12 A3009 RMK T00601120 IEM_DS3505
ZBAA,2000-02-25 11:00,ZBAA 251100Z AUTO 29008KT 6SM 05/M11 A3012 RMK T00501110 IEM_DS3505
ZBAA,2000-02-25 12:00,ZBAA 251200Z AUTO 25002KT 6SM 02/M10 A3012 RMK SLP206 T00171098 52014 IEM_DS3505
ZBAA,2000-02-25 13:00,ZBAA 251300Z AUTO 29008KT 6SM 03/M10 A3012 RMK T00301100 IEM_DS3505
ZBAA,2000-02-25 14:00,ZBAA 251400Z AUTO 29006KT 6SM 02/M10 A3015 RMK T00201100 IEM_DS3505
ZBAA,2000-02-25 15:00,ZBAA 251500Z AUTO 23004KT 5SM M00/M04 A3015 RMK SLP216 T10011042 52010 IEM_DS3505
ZBAA,2000-02-25 16:00,ZBAA 251600Z AUTO 33012KT 6SM 02/M13 A3018 RMK T00201130 IEM_DS3505
ZBAA,2000-02-25 17:00,ZBAA 251700Z AUTO 34008KT 6SM 00/M14 A3018 RMK T00001140 IEM_DS3505
ZBAA,2000-02-25 18:00,ZBAA 251800Z AUTO 03002KT 9SM 01/M14 A3018 RMK SLP224 T00101141 52008 IEM_DS3505
ZBAA,2000-02-25 19:00,ZBAA 251900Z AUTO 36006KT 6SM M03/M15 A3018 RMK T10301150 IEM_DS3505
ZBAA,2000-02-25 20:00,ZBAA 252000Z AUTO 02006KT 6SM M01/M14 A3018 RMK T10101140 IEM_DS3505
ZBAA,2000-02-25 21:00,ZBAA 252100Z AUTO 32002KT 9SM M02/M10 A3018 RMK SLP218 T10231103 57006 IEM_DS3505
ZBAA,2000-02-25 22:00,ZBAA 252200Z AUTO 34004KT 6SM M04/M15 A3018 RMK T10401150 IEM_DS3505
ZBAA,2000-02-25 23:00,ZBAA 252300Z AUTO 34006KT 6SM M05/M14 A3018 RMK T10501140 IEM_DS3505
ZBAA,2000-02-26 00:00,ZBAA 260000Z AUTO 36002KT 6SM 01/M14 A3021 RMK SLP231 T00131135 52013 IEM_DS3505
ZBAA,2000-02-26 01:00,ZBAA 260100Z AUTO 01004KT 6SM 01/M14 A3021 RMK T00101140 IEM_DS3505
ZBAA,2000-02-26 02:00,ZBAA 260200Z AUTO 34004KT 6SM 04/M14 A3021 RMK T00401140 IEM_DS3505
ZBAA,2000-02-26 03:00,ZBAA 260300Z AUTO 26010KT 6SM 07/M17 A3021 RMK SLP229 T00721168 57002 IEM_DS3505
ZBAA,2000-02-26 04:00,ZBAA 260400Z AUTO 30016G25KT 6SM 08/M17 A3018 RMK T00801170 IEM_DS3505
ZBAA,2000-02-26 05:00,ZBAA 260500Z AUTO 30019KT 6SM 08/M18 A3015 RMK T00801180 IEM_DS3505
ZBAA,2000-02-26 06:00,ZBAA 260600Z AUTO 23010KT 16SM 09/M17 RMK SLP201 T00931167 57028 IEM_DS3505
ZBAA,2000-02-26 07:00,ZBAA 260700Z AUTO 30016G29KT 6SM 10/M17 A3012 RMK T01001170 IEM_DS3505
ZBAA,2000-02-26 08:00,ZBAA 260800Z AUTO 31017G29KT 6SM 10/M17 A3009 RMK T01001170 IEM_DS3505
ZBAA,2000-02-26 09:00,ZBAA 260900Z AUTO 22006KT 9SM 09/M16 A3009 RMK SLP191 T00901161 57010 IEM_DS3505
ZBAA,2000-02-26 10:00,ZBAA 261000Z AUTO 32006KT 6SM 08/M17 A3009 RMK T00801170 IEM_DS3505
ZBAA,2000-02-26 11:00,ZBAA 261100Z AUTO 10004KT 6SM 06/M18 A3012 RMK T00601180 IEM_DS3505
ZBAA,2000-02-26 12:00,ZBAA 261200Z AUTO 23004KT 6SM 05/M16 A3012 RMK SLP196 T00471162 52005 IEM_DS3505
ZBAA,2000-02-26 13:00,ZBAA 261300Z AUTO 13004KT 6SM 02/M17 A3012 RMK T00201170 IEM_DS3505
ZBAA,2000-02-26 14:00,ZBAA 261400Z AUTO 15004KT 6SM 03/M14 A3012 RMK T00301140 IEM_DS3505
ZBAA,2000-02-26 15:00,ZBAA 261500Z AUTO 33004KT 6SM 02/M08 A3012 RMK SLP200 T00181085 52004 IEM_DS3505
ZBAA,2000-02-26 16:00,ZBAA 261600Z AUTO 07002KT 6SM 01/M13 A3012 RMK T00101130 IEM_DS3505
ZBAA,2000-02-26 17:00,ZBAA 261700Z AUTO 14002KT 6SM M01/M15 A3012 RMK T10101150 IEM_DS3505
ZBAA,2000-02-26 18:00,ZBAA 261800Z AUTO 11004KT 3SM M03/M10 A3015 RMK SLP203 T10261097 52003 IEM_DS3505
ZBAA,2000-02-26 19:00,ZBAA 261900Z AUTO 35006KT 6SM M04/M15 A3015 RMK T10401150 IEM_DS3505
ZBAA,2000-02-26 20:00,ZBAA 262000Z AUTO 35010KT 6SM M02/M15 A3012 RMK T10201150 IEM_DS3505
ZBAA,2000-02-26 21:00,ZBAA 262100Z AUTO 01004KT 7SM 00/M15 A3015 RMK SLP207 T00041151 52004 IEM_DS3505
ZBAA,2000-02-26 22:00,ZBAA 262200Z AUTO 30004KT 6SM M02/M15 A3015 RMK T10201150 IEM_DS3505
ZBAA,2000-02-26 23:00,ZBAA 262300Z AUTO 31004KT 6SM M03/M15 A3018 RMK T10301150 IEM_DS3505
ZBAA,2000-02-27 00:00,ZBAA 270000Z AUTO 35002KT 12SM 03/M15 A3021 RMK SLP228 T00311149 52021 IEM_DS3505
ZBAA,2000-02-27 01:00,ZBAA 270100Z AUTO 32002KT 6SM 03/M14 A3021 RMK T00301140 IEM_DS3505
ZBAA,2000-02-27 02:00,ZBAA 270200Z AUTO 30006KT 6SM 06/M14 A3024 RMK T00601140 IEM_DS3505
ZBAA,2000-02-27 03:00,ZBAA 270300Z AUTO 32004KT 16SM 08/M17 A3021 RMK SLP233 T00821168 52005 IEM_DS3505
ZBAA,2000-02-27 04:00,ZBAA 270400Z AUTO 31012G23KT 6SM 09/M16 A3021 RMK T00901160 IEM_DS3505
ZBAA,2000-02-27 05:00,ZBAA 270500Z AUTO 29012KT 6SM 09/M17 A3021 RMK T00901170 IEM_DS3505
ZBAA,2000-02-27 06:00,ZBAA 270600Z AUTO 36010KT 16SM 11/M17 A3018 RMK SLP218 T01071174 57015 IEM_DS3505
ZBAA,2000-02-27 07:00,ZBAA 270700Z AUTO 32012G21KT 6SM 11/M17 A3018 RMK T01101170 IEM_DS3505
ZBAA,2000-02-27 08:00,ZBAA 270800Z AUTO 35012KT 6SM 11/M18 A3018 RMK T01101180 IEM_DS3505
ZBAA,2000-02-27 09:00,ZBAA 270900Z AUTO 04006KT 16SM 10/M18 A3018 RMK SLP221 T01001180 52003 IEM_DS3505
ZBAA,2000-02-27 10:00,ZBAA 271000Z AUTO 36010KT 6SM 08/M18 A3021 RMK T00801180 IEM_DS3505
ZBAA,2000-02-27 11:00,ZBAA 271100Z AUTO 04006KT 6SM 05/M17 A3027 RMK T00501170 IEM_DS3505
ZBAA,2000-02-27 12:00,ZBAA 271200Z AUTO 06004KT 12SM 05/M18 A3030 RMK SLP260 T00471175 52039 IEM_DS3505
ZBAA,2000-02-27 13:00,ZBAA 271300Z AUTO 04008KT 6SM 04/M16 A3036 RMK T00401160 IEM_DS3505
ZBAA,2000-02-27 14:00,ZBAA 271400Z AUTO 03004KT 6SM 02/M15 A3039 RMK T00201150 IEM_DS3505
ZBAA,2000-02-27 15:00,ZBAA 271500Z AUTO 08006KT 12SM 00/M17 A3045 RMK SLP306 T00001167 52045 IEM_DS3505
ZBAA,2000-02-27 16:00,ZBAA 271600Z AUTO 08002KT 6SM 00/M16 A3047 RMK T00001160 IEM_DS3505
ZBAA,2000-02-27 17:00,ZBAA 271700Z AUTO 14006KT 6SM M03/M08 A3050 RMK T10301080 IEM_DS3505
ZBAA,2000-02-27 18:00,ZBAA 271800Z AUTO 09004KT 12SM M04/M10 A3053 RMK SLP338 T10351095 52033 IEM_DS3505
ZBAA,2000-02-27 19:00,ZBAA 271900Z AUTO 00000KT 6SM M03/M07 A3056 RMK T10301070 IEM_DS3505
ZBAA,2000-02-27 20:00,ZBAA 272000Z AUTO 34002KT 6SM M04/M08 A3056 RMK T10401080 IEM_DS3505
ZBAA,2000-02-27 21:00,ZBAA 272100Z AUTO 03002KT 12SM M04/M10 A3056 RMK SLP351 T10351095 52013 IEM_DS3505
ZBAA,2000-02-27 22:00,ZBAA 272200Z AUTO 00000KT 6SM M05/M08 A3059 RMK T10501080 IEM_DS3505
ZBAA,2000-02-27 23:00,ZBAA 272300Z AUTO 00000KT 5SM M06/M08 A3059 RMK T10601080 IEM_DS3505
ZBAA,2000-02-28 00:00,ZBAA 280000Z AUTO 14006KT 6SM M02/M11 A3062 RMK SLP375 T10251114 52023 IEM_DS3505
ZBAA,2000-02-28 01:00,ZBAA 280100Z AUTO 18010KT 5SM M01/M12 A3065 RMK T10101120 IEM_DS3505
ZBAA,2000-02-28 02:00,ZBAA 280200Z AUTO 17010KT 6SM 00/M15 A3065 RMK T00001150 IEM_DS3505
ZBAA,2000-02-28 03:00,ZBAA 280300Z AUTO 20006KT 7SM 00/M10 A3065 RMK SLP382 T00031105 52007 IEM_DS3505
ZBAA,2000-02-28 04:00,ZBAA 280400Z AUTO 20006KT 6SM 02/M10 A3065 RMK T00201100 IEM_DS3505
ZBAA,2000-02-28 05:00,ZBAA 280500Z AUTO 20008KT 6SM 03/M10 A3062 RMK T00301100 IEM_DS3505
ZBAA,2000-02-28 06:00,ZBAA 280600Z AUTO 22012KT 12SM 04/M12 A3056 RMK SLP352 T00351120 57030 IEM_DS3505
ZBAA,2000-02-28 07:00,ZBAA 280700Z AUTO 21008KT 6SM 04/M10 A3053 RMK T00401100 IEM_DS3505
ZBAA,2000-02-28 08:00,ZBAA 280800Z AUTO 21006KT 6SM 05/M11 A3050 RMK T00501110 IEM_DS3505
ZBAA,2000-02-28 09:00,ZBAA 280900Z AUTO 20006KT 9SM 04/M12 A3050 RMK SLP332 T00381121 57020 IEM_DS3505
ZBAA,2000-02-28 10:00,ZBAA 281000Z AUTO 18006KT 6SM 02/M11 A3050 RMK T00201110 IEM_DS3505
ZBAA,2000-02-28 11:00,ZBAA 281100Z AUTO 18004KT 6SM 01/M11 A3050 RMK T00101110 IEM_DS3505
ZBAA,2000-02-28 12:00,ZBAA 281200Z AUTO 20004KT 9SM 01/M12 A3053 RMK SLP335 T00061120 52003 IEM_DS3505
ZBAA,2000-02-28 13:00,ZBAA 281300Z AUTO 15004KT 6SM M01/M11 A3053 RMK T10101110 IEM_DS3505
ZBAA,2000-02-28 14:00,ZBAA 281400Z AUTO 15004KT 6SM M02/M11 A3053 RMK T10201110 IEM_DS3505
ZBAA,2000-02-28 15:00,ZBAA 281500Z AUTO 16002KT 9SM M02/M12 A3053 RMK SLP337 T10211118 52002 IEM_DS3505
ZBAA,2000-02-28 16:00,ZBAA 281600Z AUTO 13004KT 6SM M04/M11 A3053 RMK T10401110 IEM_DS3505
ZBAA,2000-02-28 17:00,ZBAA 281700Z AUTO 14004KT 6SM M05/M11 A3050 RMK T10501110 IEM_DS3505
ZBAA,2000-02-28 18:00,ZBAA 281800Z AUTO 14002KT 9SM M05/M12 A3050 RMK SLP327 T10511116 57010 IEM_DS3505
ZBAA,2000-02-28 19:00,ZBAA 281900Z AUTO 06002KT 6SM M06/M10 A3047 RMK T10601100 IEM_DS3505
ZBAA,2000-02-28 20:00,ZBAA 282000Z AUTO 00000KT 6SM M06/M11 A3047 RMK T10601110 IEM_DS3505
ZBAA,2000-02-28 21:00,ZBAA 282100Z AUTO 20002KT 9SM M05/M11 A3045 RMK SLP311 T10511110 57016 IEM_DS3505
ZBAA,2000-02-28 22:00,ZBAA 282200Z AUTO 00000KT 6SM M07/M10 A3045 RMK T10701100 IEM_DS3505
ZBAA,2000-02-28 23:00,ZBAA 282300Z AUTO 35002KT 4SM M06/M10 A3045 RMK T10601100 IEM_DS3505
ZBAA,2000-02-29 00:00,ZBAA 290000Z AUTO 19002KT 5SM M04/M09 A3045 RMK SLP310 T10401094 57001 IEM_DS3505
ZBAA,2000-02-29 01:00,ZBAA 290100Z AUTO 35006KT M02/M09 A3045 RMK T10201090 IEM_DS3505
ZBAA,2000-02-29 02:00,ZBAA 290200Z AUTO 03004KT 6SM 00/M09 A3045 RMK T00001090 IEM_DS3505
ZBAA,2000-02-29 03:00,ZBAA 290300Z AUTO 08002KT 6SM 03/M10 A3042 RMK SLP298 T00261102 57011 IEM_DS3505
ZBAA,2000-02-29 04:00,ZBAA 290400Z AUTO 32004KT 04/M09 A3039 RMK T00401090 IEM_DS3505
ZBAA,2000-02-29 05:00,ZBAA 290500Z AUTO 06/M09 A3036 RMK T00601090 IEM_DS3505
ZBAA,2000-02-29 06:00,ZBAA 290600Z AUTO 20002KT 6SM 07/M10 A3033 RMK SLP263 T00671100 57035 IEM_DS3505
ZBAA,2000-02-29 07:00,ZBAA 290700Z AUTO 19004KT 08/M09 A3030 RMK T00801090 IEM_DS3505
ZBAA,2000-02-29 08:00,ZBAA 290800Z AUTO 20004KT 08/M09 A3027 RMK T00801090 IEM_DS3505
ZBAA,2000-02-29 09:00,ZBAA 290900Z AUTO 22004KT 8SM 08/M08 A3027 RMK SLP249 T00751085 57014 IEM_DS3505
ZBAA,2000-02-29 10:00,ZBAA 291000Z AUTO 15002KT 2 1/2SM 05/M09 A3027 RMK T00501090 IEM_DS3505
ZBAA,2000-02-29 11:00,ZBAA 291100Z AUTO 00000KT 2 1/2SM 04/M09 A3030 RMK T00401090 IEM_DS3505
ZBAA,2000-02-29 12:00,ZBAA 291200Z AUTO 00000KT 6SM 02/M08 A3030 RMK SLP260 T00221084 52010 IEM_DS3505
ZBAA,2000-02-29 13:00,ZBAA 291300Z AUTO 11002KT 2SM 00/M08 A3030 RMK T00001080 IEM_DS3505
ZBAA,2000-02-29 14:00,ZBAA 291400Z AUTO 1 1/2SM 00/M07 A3033 RMK T00001070 IEM_DS3505
ZBAA,2000-02-29 15:00,ZBAA 291500Z AUTO 00000KT 6SM M01/M08 A3030 RMK SLP261 T10091081 52001 IEM_DS3505
ZBAA,2000-02-29 16:00,ZBAA 291600Z AUTO 03002KT 1 1/4SM M01/M07 A3030 RMK T10101070 IEM_DS3505
ZBAA,2000-02-29 17:00,ZBAA 291700Z AUTO 00000KT 1 1/4SM M01/M07 A3030 RMK T10101070 IEM_DS3505
ZBAA,2000-02-29 18:00,ZBAA 291800Z AUTO 01004KT 3SM 00/M08 A3030 RMK SLP255 T00021077 57005 IEM_DS3505
ZBAA,2000-02-29 19:00,ZBAA 291900Z AUTO 35004KT 2SM M03/M09 A3027 RMK T10301090 IEM_DS3505
ZBAA,2000-02-29 20:00,ZBAA 292000Z AUTO 35006KT 2SM M03/M08 A3027 RMK T10301080 IEM_DS3505
ZBAA,2000-02-29 21:00,ZBAA 292100Z AUTO 03004KT 2 1/2SM M00/M09 A3027 RMK SLP244 T10021088 57011 IEM_DS3505
ZBAA,2000-02-29 22:00,ZBAA 292200Z AUTO 33006KT 2 1/2SM M03/M08 A3027 RMK T10301080 IEM_DS3505
ZBAA,2000-02-29 23:00,ZBAA 292300Z AUTO 34006KT 2 1/2SM M03/M08 A3027 RMK T10301080 IEM_DS3505
ZBAA,2000-03-01 00:00,ZBAA 010000Z AUTO 06004KT 3SM M01/M08 A3027 RMK SLP249 T10071081 52005 IEM_DS3505
ZBAA,2000-03-01 01:00,ZBAA 010100Z AUTO 00000KT 2 1/2SM 00/M07 A3030 RMK T00001070 IEM_DS3505
ZBAA,2000-03-01 02:00,ZBAA 010200Z AUTO 3SM 04/M06 A3027 RMK T00401060 IEM_DS3505
ZBAA,2000-03-01 03:00,ZBAA 010300Z AUTO 04004KT 5SM 06/M08 A3027 RMK SLP246 T00591080 57003 IEM_DS3505
ZBAA,2000-03-01 04:00,ZBAA 010400Z AUTO 27002KT 2 1/2SM 07/M06 A3024 RMK T00701060 IEM_DS3505
ZBAA,2000-03-01 05:00,ZBAA 010500Z AUTO 11004KT 2 1/2SM 08/M05 A3021 RMK T00801050 IEM_DS3505
ZBAA,2000-03-01 06:00,ZBAA 010600Z AUTO 07004KT 5SM 10/M05 A3018 RMK SLP218 T00971046 57028 IEM_DS3505
ZBAA,2000-03-01 07:00,ZBAA 010700Z AUTO 11004KT 2 1/2SM 10/M03 A3015 RMK T01001030 IEM_DS3505
ZBAA,2000-03-01 08:00,ZBAA 010800Z AUTO 14004KT 2 1/2SM 10/M03 A3015 RMK T01001030 IEM_DS3505
ZBAA,2000-03-01 09:00,ZBAA 010900Z AUTO 14002KT 6SM 09/M04 A3015 RMK SLP206 T00891039 57012 IEM_DS3505
ZBAA,2000-03-01 10:00,ZBAA 011000Z AUTO 13002KT 2SM A3015 RMK IEM_DS3505
ZBAA,2000-03-01 11:00,ZBAA 011100Z AUTO 00000KT 1 1/2SM 06/M03 A3018 RMK T00601030 IEM_DS3505
ZBAA,2000-03-01 12:00,ZBAA 011200Z AUTO 12002KT 4SM 03/M04 A3018 RMK SLP219 T00341040 52013 IEM_DS3505
ZBAA,2000-03-01 13:00,ZBAA 011300Z AUTO 00000KT 1 1/4SM 04/M02 A3018 RMK T00401020 IEM_DS3505
ZBAA,2000-03-01 14:00,ZBAA 011400Z AUTO 01004KT 1 1/4SM 02/M02 A3021 RMK T00201020 IEM_DS3505
ZBAA,2000-03-01 15:00,ZBAA 011500Z AUTO 09002KT 2SM 02/M04 A3018 RMK SLP223 T00221035 52004 IEM_DS3505
ZBAA,2000-03-01 16:00,ZBAA 011600Z AUTO 00000KT 1SM 01/M03 A3018 RMK T00101030 IEM_DS3505
ZBAA,2000-03-01 17:00,ZBAA 011700Z AUTO 00000KT 1SM 01/M03 A3018 RMK T00101030 IEM_DS3505
ZBAA,2000-03-01 18:00,ZBAA 011800Z AUTO 36002KT 2SM 00/M04 A3018 RMK SLP222 T00011041 57001 IEM_DS3505
ZBAA,2000-03-01 19:00,ZBAA 011900Z AUTO 36004KT 1SM 00/M03 A3018 RMK T00001030 IEM_DS3505
ZBAA,2000-03-01 20:00,ZBAA 012000Z AUTO 03002KT 1SM M02/M04 A3018 RMK T10201040 IEM_DS3505
ZBAA,2000-03-01 21:00,ZBAA 012100Z AUTO 04004KT 2SM 01/M04 A3015 RMK SLP211 T00111035 57011 IEM_DS3505
ZBAA,2000-03-01 23:00,ZBAA 012300Z AUTO 34004KT 1SM M01/M04 A3015 RMK T10101040 IEM_DS3505
ZBAA,2000-03-02 00:00,ZBAA 020000Z AUTO 01004KT 2SM 02/M03 A3018 RMK SLP217 T00171032 52006 IEM_DS3505
ZBAA,2000-03-02 01:00,ZBAA 020100Z AUTO 35004KT 1 1/4SM 02/M04 A3018 RMK T00201040 IEM_DS3505
ZBAA,2000-03-02 02:00,ZBAA 020200Z AUTO 01004KT 1 1/2SM 04/M03 A3018 RMK T00401030 IEM_DS3505
ZBAA,2000-03-02 03:00,ZBAA 020300Z AUTO 07004KT 2 1/2SM 07/M03 A3015 RMK SLP208 T00701032 57009 IEM_DS3505
ZBAA,2000-03-02 04:00,ZBAA 020400Z AUTO 1 1/2SM 09/M02 A3012 RMK T00901020 IEM_DS3505
ZBAA,2000-03-02 05:00,ZBAA 020500Z AUTO 15004KT 1 1/2SM 10/M01 A3009 RMK T01001010 IEM_DS3505
ZBAA,2000-03-02 06:00,ZBAA 020600Z AUTO 11006KT 2 1/2SM 11/M02 A3006 RMK SLP173 T01071016 57034 IEM_DS3505
ZBAA,2000-03-02 07:00,ZBAA 020700Z AUTO 14004KT 1 1/4SM 11/00 A3003 RMK T01100000 IEM_DS3505
ZBAA,2000-03-02 08:00,ZBAA 020800Z AUTO 14004KT 1 1/4SM 11/00 A3000 RMK T01100000 IEM_DS3505
ZBAA,2000-03-02 09:00,ZBAA 020900Z AUTO 16002KT 2SM 11/M02 A3000 RMK SLP160 T01131021 57013 IEM_DS3505
ZBAA,2000-03-02 10:00,ZBAA 021000Z AUTO 09002KT 1SM 08/00 A3003 RMK T00800000 IEM_DS3505
ZBAA,2000-03-02 11:00,ZBAA 021100Z AUTO 09004KT 1SM 08/M01 A3000 RMK T00801010 IEM_DS3505
ZBAA,2000-03-02 12:00,ZBAA 021200Z AUTO 12004KT 2SM 06/M02 A3003 RMK SLP168 T00581020 52007 IEM_DS3505
ZBAA,2000-03-02 13:00,ZBAA 021300Z AUTO 13004KT 1 1/2SM 06/M02 A3003 RMK T00601020 IEM_DS3505
ZBAA,2000-03-02 14:00,ZBAA 021400Z AUTO 33004KT 1 1/2SM 06/M02 A3003 RMK T00601020 IEM_DS3505
ZBAA,2000-03-02 15:00,ZBAA 021500Z AUTO 00000KT 2 1/2SM 05/M03 A3003 RMK SLP170 T00541031 52003 IEM_DS3505
ZBAA,2000-03-02 16:00,ZBAA 021600Z AUTO 35006KT 1 1/4SM 04/M02 A3003 RMK T00401020 IEM_DS3505
ZBAA,2000-03-02 17:00,ZBAA 021700Z AUTO 34004KT 1SM 04/M02 A3006 RMK T00401020 IEM_DS3505
ZBAA,2000-03-02 18:00,ZBAA 021800Z AUTO 00000KT 2 1/2SM 05/M03 A3006 RMK SLP173 T00531032 52003 IEM_DS3505
ZBAA,2000-03-02 19:00,ZBAA 021900Z AUTO 32004KT 1SM 03/M02 A3006 RMK T00301020 IEM_DS3505
ZBAA,2000-03-02 20:00,ZBAA 022000Z AUTO 33006KT 1SM 04/M01 A3003 RMK T00401010 IEM_DS3505
ZBAA,2000-03-02 21:00,ZBAA 022100Z AUTO 03002KT 2SM 05/M04 A3003 RMK SLP170 T00471035 57003 IEM_DS3505
ZBAA,2000-03-02 22:00,ZBAA 022200Z AUTO 35006KT 1SM 03/M02 A3003 RMK T00301020 IEM_DS3505
ZBAA,2000-03-02 23:00,ZBAA 022300Z AUTO 34006KT 1 1/4SM 05/M11 A3006 RMK T00501110 IEM_DS3505
ZBAA,2000-03-03 00:00,ZBAA 030000Z AUTO 35004KT 2 1/2SM 08/M15 A3009 RMK SLP183 T00831152 52013 IEM_DS3505
ZBAA,2000-03-03 01:00,ZBAA 030100Z AUTO 32010KT 1 1/2SM 09/M14 A3009 RMK T00901140 IEM_DS3505
ZBAA,2000-03-03 02:00,ZBAA 030200Z AUTO 31012KT 4SM 11/M16 A3009 RMK T01101160 IEM_DS3505
ZBAA,2000-03-03 03:00,ZBAA 030300Z AUTO 34006KT 4SM 12/M18 A3006 RMK SLP183 T01251182 54000 IEM_DS3505
ZBAA,2000-03-03 04:00,ZBAA 030400Z AUTO 33008KT 6SM 14/M18 A3006 RMK T01401180 IEM_DS3505
ZBAA,2000-03-03 05:00,ZBAA 030500Z AUTO 32010KT 7SM 15/M18 A3003 RMK T01501180 IEM_DS3505
ZBAA,2000-03-03 06:00,ZBAA 030600Z AUTO 34002KT 6SM 16/M18 A2997 RMK SLP152 T01581183 57031 IEM_DS3505
ZBAA,2000-03-03 07:00,ZBAA 030700Z AUTO 32008KT 6SM 16/M18 A2997 RMK T01601180 IEM_DS3505
ZBAA,2000-03-03 08:00,ZBAA 030800Z AUTO 31008KT 6SM 16/M18 A2994 RMK T01601180 IEM_DS3505
ZBAA,2000-03-03 09:00,ZBAA 030900Z AUTO 21002KT 7SM 15/M17 A2994 RMK SLP142 T01521173 57010 IEM_DS3505
ZBAA,2000-03-03 10:00,ZBAA 031000Z AUTO 29006KT 6SM 14/M20 A2994 RMK T01401200 IEM_DS3505
ZBAA,2000-03-03 11:00,ZBAA 031100Z AUTO 27006KT 6SM 13/M18 A2997 RMK T01301180 IEM_DS3505
ZBAA,2000-03-03 12:00,ZBAA 031200Z AUTO 22004KT 6SM 09/M11 A2997 RMK SLP159 T00941112 52017 IEM_DS3505
ZBAA,2000-03-03 13:00,ZBAA 031300Z AUTO 25006KT 10/M12 A3000 RMK T01001120 IEM_DS3505
ZBAA,2000-03-03 14:00,ZBAA 031400Z AUTO 26006KT 08/M11 A3003 RMK T00801110 IEM_DS3505
ZBAA,2000-03-03 15:00,ZBAA 031500Z AUTO 31004KT 6SM 08/M11 A3006 RMK SLP178 T00821106 52019 IEM_DS3505
ZBAA,2000-03-03 16:00,ZBAA 031600Z AUTO 35006KT 5SM 03/M15 A3009 RMK T00301150 IEM_DS3505
ZBAA,2000-03-03 17:00,ZBAA 031700Z AUTO 34006KT 6SM 02/M14 A3012 RMK T00201140 IEM_DS3505
ZBAA,2000-03-03 18:00,ZBAA 031800Z AUTO 33012KT 6SM 09/M18 A3015 RMK SLP208 T00871181 52030 IEM_DS3505
ZBAA,2000-03-03 19:00,ZBAA 031900Z AUTO 33012KT 6SM 06/M18 A3015 RMK T00601180 IEM_DS3505
ZBAA,2000-03-03 20:00,ZBAA 032000Z AUTO 34008KT 6SM 02/M18 A3018 RMK T00201180 IEM_DS3505
ZBAA,2000-03-03 21:00,ZBAA 032100Z AUTO 34006KT 7SM 07/M19 A3021 RMK SLP226 T00691186 52018 IEM_DS3505
ZBAA,2000-03-03 22:00,ZBAA 032200Z AUTO 33006KT 6SM 02/M17 A3024 RMK T00201170 IEM_DS3505
ZBAA,2000-03-03 23:00,ZBAA 032300Z AUTO 32006KT 6SM 02/M17 A3024 RMK T00201170 IEM_DS3505
ZBAA,2000-03-04 00:00,ZBAA 040000Z AUTO 35010KT 9SM 07/M21 A3027 RMK SLP251 T00671206 52025 IEM_DS3505
ZBAA,2000-03-04 01:00,ZBAA 040100Z AUTO 02004KT 6SM 08/M17 A3030 RMK T00801170 IEM_DS3505
ZBAA,2000-03-04 02:00,ZBAA 040200Z AUTO 36008KT 6SM 09/M19 A3030 RMK T00901190 IEM_DS3505
ZBAA,2000-03-04 03:00,ZBAA 040300Z AUTO 35006KT 19SM 09/M21 A3030 RMK SLP256 T00911208 52005 IEM_DS3505
ZBAA,2000-03-04 04:00,ZBAA 040400Z AUTO 02006KT 6SM 09/M20 A3027 RMK T00901200 IEM_DS3505
ZBAA,2000-03-04 05:00,ZBAA 040500Z AUTO 36004KT 6SM 10/M19 A3024 RMK T01001190 IEM_DS3505
ZBAA,2000-03-04 06:00,ZBAA 040600Z AUTO 29008KT 19SM 11/M17 A3021 RMK SLP224 T01101172 57032 IEM_DS3505
ZBAA,2000-03-04 07:00,ZBAA 040700Z AUTO 6SM 11/M19 A3018 RMK T01101190 IEM_DS3505
ZBAA,2000-03-04 08:00,ZBAA 040800Z AUTO 06004KT 6SM 11/M19 A3018 RMK T01101190 IEM_DS3505
ZBAA,2000-03-04 09:00,ZBAA 040900Z AUTO 11006KT 19SM 10/M19 A3018 RMK SLP214 T01041187 57010 IEM_DS3505
ZBAA,2000-03-04 10:00,ZBAA 041000Z AUTO 14004KT 6SM 09/M20 A3018 RMK T00901200 IEM_DS3505
ZBAA,2000-03-04 11:00,ZBAA 041100Z AUTO 18006KT 6SM 07/M18 A3018 RMK T00701180 IEM_DS3505
ZBAA,2000-03-04 12:00,ZBAA 041200Z AUTO 22002KT 12SM 07/M15 A3018 RMK SLP222 T00671152 52008 IEM_DS3505
ZBAA,2000-03-04 13:00,ZBAA 041300Z AUTO 17004KT 6SM 06/M16 A3018 RMK T00601160 IEM_DS3505
ZBAA,2000-03-04 14:00,ZBAA 041400Z AUTO 16004KT 6SM 04/M16 A3018 RMK T00401160 IEM_DS3505
ZBAA,2000-03-04 15:00,ZBAA 041500Z AUTO 22002KT 9SM 05/M17 A3018 RMK SLP218 T00471168 57005 IEM_DS3505
ZBAA,2000-03-04 16:00,ZBAA 041600Z AUTO 19006KT 6SM 05/M16 A3015 RMK T00501160 IEM_DS3505
ZBAA,2000-03-04 17:00,ZBAA 041700Z AUTO 18006KT 6SM 03/M15 A3015 RMK T00301150 IEM_DS3505
ZBAA,2000-03-04 18:00,ZBAA 041800Z AUTO 20004KT 12SM 04/M16 A3015 RMK SLP208 T00361155 57009 IEM_DS3505
ZBAA,2000-03-04 19:00,ZBAA 041900Z AUTO 15004KT 6SM 01/M13 A3012 RMK T00101130 IEM_DS3505
ZBAA,2000-03-04 20:00,ZBAA 042000Z AUTO 13002KT 6SM 02/M13 A3009 RMK T00201130 IEM_DS3505
ZBAA,2000-03-04 21:00,ZBAA 042100Z AUTO 21002KT 12SM 02/M12 A3009 RMK SLP187 T00201118 57021 IEM_DS3505
ZBAA,2000-03-04 22:00,ZBAA 042200Z AUTO 12004KT 6SM M01/M12 A3009 RMK T10101120 IEM_DS3505
ZBAA,2000-03-04 23:00,ZBAA 042300Z AUTO 13004KT 6SM M01/M10 A3009 RMK T10101100 IEM_DS3505
ZBAA,2000-03-05 00:00,ZBAA 050000Z AUTO 12004KT 6SM 01/M10 A3009 RMK SLP183 T00131096 57005 IEM_DS3505
ZBAA,2000-03-05 01:00,ZBAA 050100Z AUTO 13006KT 5SM 02/M08 A3006 RMK T00201080 IEM_DS3505
ZBAA,2000-03-05 02:00,ZBAA 050200Z AUTO 19002KT 9SM 04/M09 A3006 RMK T00401090 IEM_DS3505
ZBAA,2000-03-05 03:00,ZBAA 050300Z AUTO 21008KT 9SM 09/M10 A3003 RMK SLP160 T00911103 57022 IEM_DS3505
ZBAA,2000-03-05 04:00,ZBAA 050400Z AUTO 09/M08 A3000 RMK T00901080 IEM_DS3505
ZBAA,2000-03-05 05:00,ZBAA 050500Z AUTO 27002KT 10/M08 A2994 RMK T01001080 IEM_DS3505
ZBAA,2000-03-05 06:00,ZBAA 050600Z AUTO 21006KT 12SM 13/M13 A2988 RMK SLP119 T01261132 57041 IEM_DS3505
ZBAA,2000-03-05 07:00,ZBAA 050700Z AUTO 18008KT 5SM 13/M12 A2985 RMK T01301120 IEM_DS3505
ZBAA,2000-03-05 08:00,ZBAA 050800Z AUTO 20008KT 6SM 13/M14 A2983 RMK T01301140 IEM_DS3505
ZBAA,2000-03-05 09:00,ZBAA 050900Z AUTO 21004KT 12SM 12/M12 A2983 RMK SLP100 T01251125 57019 IEM_DS3505
ZBAA,2000-03-05 10:00,ZBAA 051000Z AUTO 23008KT 6SM 12/M12 A2983 RMK T01201120 IEM_DS3505
ZBAA,2000-03-05 11:00,ZBAA 051100Z AUTO 31012KT 6SM 12/M18 A2988 RMK T01201180 IEM_DS3505
ZBAA,2000-03-05 12:00,ZBAA 051200Z AUTO 32016KT 19SM 12/M19 A2991 RMK SLP126 T01151189 52026 IEM_DS3505
ZBAA,2000-03-05 13:00,ZBAA 051300Z AUTO 34014KT 6SM 09/M19 A2994 RMK T00901190 IEM_DS3505
ZBAA,2000-03-05 14:00,ZBAA 051400Z AUTO 35008KT 6SM 06/M19 A3000 RMK T00601190 IEM_DS3505
ZBAA,2000-03-05 15:00,ZBAA 051500Z AUTO 33008KT 12SM 08/M19 A3003 RMK SLP165 T00801186 52039 IEM_DS3505
ZBAA,2000-03-05 16:00,ZBAA 051600Z AUTO 35014KT 6SM 05/M18 A3003 RMK T00501180 IEM_DS3505
ZBAA,2000-03-05 17:00,ZBAA 051700Z AUTO 34016KT 6SM 05/M19 A3006 RMK T00501190 IEM_DS3505
ZBAA,2000-03-05 18:00,ZBAA 051800Z AUTO 31012KT 19SM 06/M20 A3009 RMK SLP184 T00581204 52019 IEM_DS3505
ZBAA,2000-03-05 19:00,ZBAA 051900Z AUTO 35010KT 6SM 02/M21 A3009 RMK T00201210 IEM_DS3505
ZBAA,2000-03-05 20:00,ZBAA 052000Z AUTO 36017KT 6SM 03/M23 A3009 RMK T00301230 IEM_DS3505
ZBAA,2000-03-05 21:00,ZBAA 052100Z AUTO 33010KT 12SM 04/M24 A3012 RMK SLP208 T00361240 52024 IEM_DS3505
ZBAA,2000-03-05 22:00,ZBAA 052200Z AUTO 35014KT 6SM 00/M26 A3018 RMK T00001260 IEM_DS3505
ZBAA,2000-03-05 23:00,ZBAA 052300Z AUTO 35014KT 6SM 00/M28 A3021 RMK T00001280 IEM_DS3505
ZBAA,2000-03-06 00:00,ZBAA 060000Z AUTO 02006KT 12SM 02/M25 A3027 RMK SLP240 T00181254 52032 IEM_DS3505
ZBAA,2000-03-06 01:00,ZBAA 060100Z AUTO 02012KT 6SM 01/M26 A3027 RMK T00101260 IEM_DS3505
ZBAA,2000-03-06 02:00,ZBAA 060200Z AUTO 01008KT 6SM 02/M25 A3030 RMK T00201250 IEM_DS3505
ZBAA,2000-03-06 03:00,ZBAA 060300Z AUTO 33008KT 6SM 04/M24 A3027 RMK SLP252 T00451243 52011 IEM_DS3505
ZBAA,2000-03-06 04:00,ZBAA 060400Z AUTO 01008KT 6SM 04/M26 A3027 RMK T00401260 IEM_DS3505
ZBAA,2000-03-06 05:00,ZBAA 060500Z AUTO 30012KT 6SM 06/M27 A3024 RMK T00601270 IEM_DS3505
ZBAA,2000-03-06 06:00,ZBAA 060600Z AUTO 31012G25KT 10SM 07/M25 A3021 RMK SLP227 T00731246 57024 IEM_DS3505
ZBAA,2000-03-06 07:00,ZBAA 060700Z AUTO 30012G21KT 6SM 07/M26 A3021 RMK T00701260 IEM_DS3505
ZBAA,2000-03-06 08:00,ZBAA 060800Z AUTO 32010KT 6SM 08/M26 A3018 RMK T00801260 IEM_DS3505
ZBAA,2000-03-06 09:00,ZBAA 060900Z AUTO 33008KT 12SM 09/M25 A3018 RMK SLP212 T00891249 57015 IEM_DS3505
ZBAA,2000-03-06 10:00,ZBAA 061000Z AUTO 01004KT 6SM 06/M26 A3018 RMK T00601260 IEM_DS3505
ZBAA,2000-03-06 11:00,ZBAA 061100Z AUTO 02004KT 6SM 05/M23 A3018 RMK T00501230 IEM_DS3505
ZBAA,2000-03-06 12:00,ZBAA 061200Z AUTO 13004KT 6SM 02/M19 A3021 RMK SLP231 T00241188 52018 IEM_DS3505
ZBAA,2000-03-06 13:00,ZBAA 061300Z AUTO 15002KT 6SM 01/M24 A3024 RMK T00101240 IEM_DS3505
ZBAA,2000-03-06 14:00,ZBAA 061400Z AUTO 06002KT 6SM 00/M21 A3027 RMK T00001210 IEM_DS3505
ZBAA,2000-03-06 15:00,ZBAA 061500Z AUTO 18002KT 6SM 01/M20 A3027 RMK SLP246 T00131203 52015 IEM_DS3505
ZBAA,2000-03-06 16:00,ZBAA 061600Z AUTO 03002KT 6SM M01/M19 A3027 RMK T10101190 IEM_DS3505
ZBAA,2000-03-06 17:00,ZBAA 061700Z AUTO 02004KT 6SM 00/M22 A3027 RMK T00001220 IEM_DS3505
ZBAA,2000-03-06 18:00,ZBAA 061800Z AUTO 03002KT 9SM M00/M17 A3030 RMK SLP258 T10041170 52012 IEM_DS3505
ZBAA,2000-03-06 19:00,ZBAA 061900Z AUTO 00000KT 6SM M01/M21 A3030 RMK T10101210 IEM_DS3505
ZBAA,2000-03-06 20:00,ZBAA 062000Z AUTO 36006KT 6SM M04/M20 A3030 RMK T10401200 IEM_DS3505
ZBAA,2000-03-06 21:00,ZBAA 062100Z AUTO 03004KT 9SM 00/M23 A3030 RMK SLP260 T00011233 52002 IEM_DS3505
ZBAA,2000-03-06 22:00,ZBAA 062200Z AUTO 03006KT 6SM M01/M21 A3033 RMK T10101210 IEM_DS3505
ZBAA,2000-03-06 23:00,ZBAA 062300Z AUTO 02006KT 6SM M01/M24 A3036 RMK T10101240 IEM_DS3505
ZBAA,2000-03-07 00:00,ZBAA 070000Z AUTO 04008KT 12SM M00/M25 A3039 RMK SLP281 T10041253 52021 IEM_DS3505
ZBAA,2000-03-07 01:00,ZBAA 070100Z AUTO 03012KT 6SM M01/M24 A3039 RMK T10101240 IEM_DS3505
ZBAA,2000-03-07 02:00,ZBAA 070200Z AUTO 05010KT 6SM 01/M24 A3039 RMK T00101240 IEM_DS3505
ZBAA,2000-03-07 03:00,ZBAA 070300Z AUTO 04008KT 19SM 04/M23 A3036 RMK SLP278 T00381229 57003 IEM_DS3505
ZBAA,2000-03-07 04:00,ZBAA 070400Z AUTO 02008KT 6SM 04/M23 A3033 RMK T00401230 IEM_DS3505
ZBAA,2000-03-07 05:00,ZBAA 070500Z AUTO 29006G17KT 6SM 06/M22 A3030 RMK T00601220 IEM_DS3505
ZBAA,2000-03-07 06:00,ZBAA 070600Z AUTO 01006KT 19SM 07/M25 A3024 RMK SLP240 T00691249 57038 IEM_DS3505
ZBAA,2000-03-07 07:00,ZBAA 070700Z AUTO 28014G27KT 6SM 07/M25 A3021 RMK T00701250 IEM_DS3505
ZBAA,2000-03-07 08:00,ZBAA 070800Z AUTO 28016G25KT 6SM 07/M26 A3018 RMK T00701260 IEM_DS3505
ZBAA,2000-03-07 09:00,ZBAA 070900Z AUTO 32019G25KT 9SM 07/M28 A3018 RMK SLP215 T00741277 57025 IEM_DS3505
ZBAA,2000-03-07 10:00,ZBAA 071000Z AUTO 29014KT 6SM 07/M25 A3015 RMK T00701250 IEM_DS3505
ZBAA,2000-03-07 11:00,ZBAA 071100Z AUTO 26006KT 6SM 06/M25 A3015 RMK T00601250 IEM_DS3505
ZBAA,2000-03-07 12:00,ZBAA 071200Z AUTO 24008KT 9SM 04/M19 A3015 RMK SLP216 T00411193 52001 IEM_DS3505
ZBAA,2000-03-07 13:00,ZBAA 071300Z AUTO 25006KT 6SM 05/M17 A3018 RMK T00501170 IEM_DS3505
ZBAA,2000-03-07 14:00,ZBAA 071400Z AUTO 34010KT 6SM 03/M19 A3021 RMK T00301190 IEM_DS3505
ZBAA,2000-03-07 15:00,ZBAA 071500Z AUTO 31010KT 7SM 07/M22 A3024 RMK SLP231 T00671216 52016 IEM_DS3505
ZBAA,2000-03-07 16:00,ZBAA 071600Z AUTO 33010KT 6SM 03/M19 A3021 RMK T00301190 IEM_DS3505
ZBAA,2000-03-07 17:00,ZBAA 071700Z AUTO 20004KT 6SM 02/M18 A3021 RMK T00201180 IEM_DS3505
ZBAA,2000-03-07 18:00,ZBAA 071800Z AUTO 13002KT 9SM 01/M16 A3021 RMK SLP232 T00061162 54000 IEM_DS3505
ZBAA,2000-03-07 19:00,ZBAA 071900Z AUTO 6SM 01/M15 A3021 RMK T00101150 IEM_DS3505
ZBAA,2000-03-07 20:00,ZBAA 072000Z AUTO 19004KT 6SM 00/M16 A3018 RMK T00001160 IEM_DS3505
ZBAA,2000-03-07 21:00,ZBAA 072100Z AUTO 25006KT 9SM 00/M15 A3021 RMK SLP230 T00021152 57002 IEM_DS3505
ZBAA,2000-03-07 22:00,ZBAA 072200Z AUTO 30004KT 6SM M02/M15 A3021 RMK T10201150 IEM_DS3505
ZBAA,2000-03-07 23:00,ZBAA 072300Z AUTO 34002KT 6SM M03/M15 A3021 RMK T10301150 IEM_DS3505
ZBAA,2000-03-08 00:00,ZBAA 080000Z AUTO 23002KT 5SM 01/M13 A3024 RMK SLP239 T00111129 52009 IEM_DS3505
ZBAA,2000-03-08 01:00,ZBAA 080100Z AUTO 36002KT 5SM 03/M14 A3024 RMK T00301140 IEM_DS3505
ZBAA,2000-03-08 02:00,ZBAA 080200Z AUTO 33004KT 6SM 07/M15 A3027 RMK T00701150 IEM_DS3505
ZBAA,2000-03-08 03:00,ZBAA 080300Z AUTO 28014KT 19SM 09/M17 A3024 RMK SLP243 T00921168 52004 IEM_DS3505
ZBAA,2000-03-08 04:00,ZBAA 080400Z AUTO 28016G25KT 6SM 10/M16 A3024 RMK T01001160 IEM_DS3505
ZBAA,2000-03-08 05:00,ZBAA 080500Z AUTO 31014KT 6SM 11/M16 A3021 RMK T01101160 IEM_DS3505
ZBAA,2000-03-08 06:00,ZBAA 080600Z AUTO 34008KT 19SM 12/M16 A3018 RMK SLP217 T01191165 57025 IEM_DS3505
ZBAA,2000-03-08 07:00,ZBAA 080700Z AUTO 29014G23KT 6SM 12/M16 A3015 RMK T01201160 IEM_DS3505
ZBAA,2000-03-08 08:00,ZBAA 080800Z AUTO 27010KT 6SM 12/M15 A3015 RMK T01201150 IEM_DS3505
ZBAA,2000-03-08 09:00,ZBAA 080900Z AUTO 29012KT 19SM 12/M17 A3012 RMK SLP201 T01201174 57016 IEM_DS3505
ZBAA,2000-03-08 10:00,ZBAA 081000Z AUTO 33008G17KT 6SM 11/M16 A3012 RMK T01101160 IEM_DS3505
ZBAA,2000-03-08 11:00,ZBAA 081100Z AUTO 35004KT 6SM 08/M16 A3015 RMK T00801160 IEM_DS3505
ZBAA,2000-03-08 12:00,ZBAA 081200Z AUTO 29006KT 6SM 09/M17 A3018 RMK SLP224 T00861173 52022 IEM_DS3505
ZBAA,2000-03-08 13:00,ZBAA 081300Z AUTO 01006KT 6SM 03/M18 A3021 RMK T00301180 IEM_DS3505
ZBAA,2000-03-08 14:00,ZBAA 081400Z AUTO 02002KT 6SM 04/M16 A3024 RMK T00401160 IEM_DS3505
ZBAA,2000-03-08 15:00,ZBAA 081500Z AUTO 03002KT 12SM 06/M17 A3027 RMK SLP248 T00571173 52024 IEM_DS3505
ZBAA,2000-03-08 16:00,ZBAA 081600Z AUTO 00000KT 6SM 03/M15 A3030 RMK T00301150 IEM_DS3505
ZBAA,2000-03-08 17:00,ZBAA 081700Z AUTO 12004KT 6SM M01/M14 A3030 RMK T10101140 IEM_DS3505
ZBAA,2000-03-08 18:00,ZBAA 081800Z AUTO 05004KT 9SM M01/M05 A3033 RMK SLP264 T10081054 52016 IEM_DS3505
ZBAA,2000-03-08 19:00,ZBAA 081900Z AUTO 18002KT 6SM M03/M07 A3033 RMK T10301070 IEM_DS3505
ZBAA,2000-03-08 21:00,ZBAA 082100Z AUTO 09002KT 6SM M03/M06 RMK SLP273 T10271061 52009 IEM_DS3505
ZBAA,2000-03-08 22:00,ZBAA 082200Z AUTO 17002KT 4SM M03/M05 A3036 RMK T10301050 IEM_DS3505
ZBAA,2000-03-08 23:00,ZBAA 082300Z AUTO 00000KT 4SM M03/M05 A3036 RMK T10301050 IEM_DS3505
ZBAA,2000-03-09 00:00,ZBAA 090000Z AUTO 30002KT 5SM M01/M06 A3039 RMK SLP289 T10081057 52016 IEM_DS3505
ZBAA,2000-03-09 01:00,ZBAA 090100Z AUTO 00000KT 02/M04 A3039 RMK T00201040 IEM_DS3505
ZBAA,2000-03-09 02:00,ZBAA 090200Z AUTO 20004KT 5SM 04/M05 A3042 RMK T00401050 IEM_DS3505
ZBAA,2000-03-09 03:00,ZBAA 090300Z AUTO 11002KT 11SM 07/M12 A3039 RMK SLP288 T00661124 57001 IEM_DS3505
ZBAA,2000-03-09 04:00,ZBAA 090400Z AUTO 19004KT 6SM 07/M11 A3036 RMK T00701110 IEM_DS3505
ZBAA,2000-03-09 05:00,ZBAA 090500Z AUTO 6SM 09/M12 A3033 RMK T00901120 IEM_DS3505
ZBAA,2000-03-09 06:00,ZBAA 090600Z AUTO 21006KT 12SM 09/M14 A3027 RMK SLP253 T00941136 57035 IEM_DS3505
ZBAA,2000-03-09 07:00,ZBAA 090700Z AUTO 19008KT 6SM 10/M13 A3024 RMK T01001130 IEM_DS3505
ZBAA,2000-03-09 08:00,ZBAA 090800Z AUTO 19008G17KT 6SM 11/M12 A3024 RMK T01101120 IEM_DS3505
ZBAA,2000-03-09 09:00,ZBAA 090900Z AUTO 22008KT 12SM 10/M14 A3024 RMK SLP235 T01001138 57018 IEM_DS3505
ZBAA,2000-03-09 10:00,ZBAA 091000Z AUTO 21008KT 6SM 09/M13 A3024 RMK T00901130 IEM_DS3505
ZBAA,2000-03-09 11:00,ZBAA 091100Z AUTO 17004KT 6SM 07/M11 A3024 RMK T00701110 IEM_DS3505
ZBAA,2000-03-09 12:00,ZBAA 091200Z AUTO 17002KT 11SM 06/M12 A3024 RMK SLP241 T00641116 52006 IEM_DS3505
ZBAA,2000-03-09 13:00,ZBAA 091300Z AUTO 12004KT 6SM 04/M10 A3027 RMK T00401100 IEM_DS3505
ZBAA,2000-03-09 14:00,ZBAA 091400Z AUTO 12004KT 6SM 02/M08 A3027 RMK T00201080 IEM_DS3505
ZBAA,2000-03-09 15:00,ZBAA 091500Z AUTO 10002KT 12SM 01/M10 A3027 RMK SLP251 T00141103 52010 IEM_DS3505
ZBAA,2000-03-09 16:00,ZBAA 091600Z AUTO 36004KT 6SM M02/M08 A3030 RMK T10201080 IEM_DS3505
ZBAA,2000-03-09 17:00,ZBAA 091700Z AUTO 12002KT 6SM 00/M07 A3030 RMK T00001070 IEM_DS3505
ZBAA,2000-03-09 18:00,ZBAA 091800Z AUTO 08004KT 7SM M01/M07 A3033 RMK SLP263 T10061072 52012 IEM_DS3505
ZBAA,2000-03-09 19:00,ZBAA 091900Z AUTO 19002KT 6SM M01/M07 A3030 RMK T10101070 IEM_DS3505
ZBAA,2000-03-09 20:00,ZBAA 092000Z AUTO 31004KT 6SM M02/M07 A3030 RMK T10201070 IEM_DS3505
ZBAA,2000-03-09 21:00,ZBAA 092100Z AUTO 04002KT 6SM M01/M08 A3030 RMK SLP254 T10131080 57009 IEM_DS3505
ZBAA,2000-03-09 22:00,ZBAA 092200Z AUTO 34004KT 6SM M02/M08 A3030 RMK T10201080 IEM_DS3505
ZBAA,2000-03-09 23:00,ZBAA 092300Z AUTO 34006KT 5SM M02/M09 A3030 RMK T10201090 IEM_DS3505
ZBAA,2000-03-10 00:00,ZBAA 100000Z AUTO 02004KT 6SM 01/M08 A3030 RMK SLP254 T00131077 54000 IEM_DS3505
ZBAA,2000-03-10 01:00,ZBAA 100100Z AUTO 36006KT 03/M09 A3030 RMK T00301090 IEM_DS3505
ZBAA,2000-03-10 02:00,ZBAA 100200Z AUTO 36006KT 5SM 05/M09 A3030 RMK T00501090 IEM_DS3505
ZBAA,2000-03-10 03:00,ZBAA 100300Z AUTO 03004KT 6SM 08/M11 A3027 RMK SLP248 T00811107 57005 IEM_DS3505
ZBAA,2000-03-10 04:00,ZBAA 100400Z AUTO 6SM 09/M11 A3024 RMK T00901110 IEM_DS3505
ZBAA,2000-03-10 05:00,ZBAA 100500Z AUTO 6SM 11/M10 A3021 RMK T01101100 IEM_DS3505
ZBAA,2000-03-10 06:00,ZBAA 100600Z AUTO 08006KT 6SM 11/M11 A3015 RMK SLP211 T01121108 57038 IEM_DS3505
ZBAA,2000-03-10 07:00,ZBAA 100700Z AUTO 6SM 12/M12 A3012 RMK T01201120 IEM_DS3505
ZBAA,2000-03-10 08:00,ZBAA 100800Z AUTO 6SM 13/M13 A3009 RMK T01301130 IEM_DS3505
ZBAA,2000-03-10 09:00,ZBAA 100900Z AUTO 14004KT 7SM 11/M09 A3009 RMK SLP193 T01101093 57018 IEM_DS3505
ZBAA,2000-03-10 10:00,ZBAA 101000Z AUTO 18006KT 6SM 10/M09 A3009 RMK T01001090 IEM_DS3505
ZBAA,2000-03-10 11:00,ZBAA 101100Z AUTO 17006KT 5SM 08/M09 A3012 RMK T00801090 IEM_DS3505
ZBAA,2000-03-10 12:00,ZBAA 101200Z AUTO 16006KT 6SM 07/M09 A3012 RMK SLP203 T00741090 52010 IEM_DS3505
ZBAA,2000-03-10 13:00,ZBAA 101300Z AUTO 16004KT 06/M07 A3012 RMK T00601070 IEM_DS3505
ZBAA,2000-03-10 14:00,ZBAA 101400Z AUTO 12002KT 5SM 05/M07 A3015 RMK T00501070 IEM_DS3505
ZBAA,2000-03-10 15:00,ZBAA 101500Z AUTO 08004KT 6SM 03/M07 A3015 RMK SLP206 T00331074 52003 IEM_DS3505
ZBAA,2000-03-10 16:00,ZBAA 101600Z AUTO 11004KT 03/M07 A3015 RMK T00301070 IEM_DS3505
ZBAA,2000-03-10 17:00,ZBAA 101700Z AUTO 36004KT 00/M08 A3015 RMK T00001080 IEM_DS3505
ZBAA,2000-03-10 18:00,ZBAA 101800Z AUTO 00000KT 7SM 01/M07 A3015 RMK SLP202 T00131067 57003 IEM_DS3505
ZBAA,2000-03-10 19:00,ZBAA 101900Z AUTO 24004KT 02/M06 A3012 RMK T00201060 IEM_DS3505
ZBAA,2000-03-10 20:00,ZBAA 102000Z AUTO 34002KT 4SM M01/M06 A3009 RMK T10101060 IEM_DS3505
ZBAA,2000-03-10 21:00,ZBAA 102100Z AUTO 00000KT 9SM 00/M05 A3009 RMK SLP190 T00021050 57012 IEM_DS3505
ZBAA,2000-03-10 22:00,ZBAA 102200Z AUTO 35006KT M01/M07 A3009 RMK T10101070 IEM_DS3505
ZBAA,2000-03-10 23:00,ZBAA 102300Z AUTO 35006KT 3SM 01/M08 A3009 RMK T00101080 IEM_DS3505
ZBAA,2000-03-11 00:00,ZBAA 110000Z AUTO 19002KT 3SM 02/M03 A3009 RMK SLP195 T00231032 52004 IEM_DS3505
ZBAA,2000-03-11 01:00,ZBAA 110100Z AUTO 35006KT 3SM 05/M09 A3012 RMK T00501090 IEM_DS3505
ZBAA,2000-03-11 02:00,ZBAA 110200Z AUTO 36006KT 6SM 08/M09 A3012 RMK T00801090 IEM_DS3505
ZBAA,2000-03-11 03:00,ZBAA 110300Z AUTO 04004KT 6SM 11/M13 A3009 RMK SLP188 T01061133 57006 IEM_DS3505
ZBAA,2000-03-11 04:00,ZBAA 110400Z AUTO 02010KT 6SM 12/M15 A3006 RMK T01201150 IEM_DS3505
ZBAA,2000-03-11 05:00,ZBAA 110500Z AUTO 03006KT 6SM 14/M15 A3003 RMK T01401150 IEM_DS3505
ZBAA,2000-03-11 06:00,ZBAA 110600Z AUTO 03006KT 19SM 14/M17 A3000 RMK SLP159 T01411169 57029 IEM_DS3505
ZBAA,2000-03-11 07:00,ZBAA 110700Z AUTO 6SM 15/M15 A2997 RMK T01501150 IEM_DS3505
ZBAA,2000-03-11 08:00,ZBAA 110800Z AUTO 6SM 16/M17 A2997 RMK T01601170 IEM_DS3505
ZBAA,2000-03-11 09:00,ZBAA 110900Z AUTO 13006KT 9SM 13/M12 A2997 RMK SLP147 T01321120 57012 IEM_DS3505
ZBAA,2000-03-11 10:00,ZBAA 111000Z AUTO 15004KT 6SM 12/M12 A2997 RMK T01201120 IEM_DS3505
ZBAA,2000-03-11 11:00,ZBAA 111100Z AUTO 18006KT 6SM 10/M12 A2997 RMK T01001120 IEM_DS3505
ZBAA,2000-03-11 12:00,ZBAA 111200Z AUTO 19002KT 5SM 09/M11 A3000 RMK SLP162 T00861113 52015 IEM_DS3505
ZBAA,2000-03-11 13:00,ZBAA 111300Z AUTO 14004KT 07/M09 A3003 RMK T00701090 IEM_DS3505
ZBAA,2000-03-11 14:00,ZBAA 111400Z AUTO 11004KT 05/M06 A3003 RMK T00501060 IEM_DS3505
ZBAA,2000-03-11 15:00,ZBAA 111500Z AUTO 22004KT 4SM 05/M05 A3006 RMK SLP171 T00481047 52009 IEM_DS3505
ZBAA,2000-03-11 17:00,ZBAA 111700Z AUTO 34004KT 3SM 00/M05 A3006 RMK T00001050 IEM_DS3505
ZBAA,2000-03-11 18:00,ZBAA 111800Z AUTO 08002KT 4SM 02/M05 A3006 RMK SLP177 T00151047 52006 IEM_DS3505
ZBAA,2000-03-11 19:00,ZBAA 111900Z AUTO 00000KT 2SM 02/M04 A3006 RMK T00201040 IEM_DS3505
ZBAA,2000-03-11 20:00,ZBAA 112000Z AUTO 35004KT 1 1/2SM 00/M04 A3003 RMK T00001040 IEM_DS3505
ZBAA,2000-03-11 21:00,ZBAA 112100Z AUTO 06002KT 3SM 01/M04 A3003 RMK SLP171 T00061044 57006 IEM_DS3505
ZBAA,2000-03-11 22:00,ZBAA 112200Z AUTO 33006KT 3SM 00/M09 A3006 RMK T00001090 IEM_DS3505
ZBAA,2000-03-11 23:00,ZBAA 112300Z AUTO 34006KT M01/M10 A3006 RMK T10101100 IEM_DS3505
ZBAA,2000-03-12 00:00,ZBAA 120000Z AUTO 01004KT 6SM 05/M10 A3006 RMK SLP176 T00541095 52005 IEM_DS3505
ZBAA,2000-03-12 01:00,ZBAA 120100Z AUTO 34006KT 5SM 07/M10 A3006 RMK T00701100 IEM_DS3505
ZBAA,2000-03-12 02:00,ZBAA 120200Z AUTO 5SM 10/M11 A3006 RMK T01001110 IEM_DS3505
ZBAA,2000-03-12 03:00,ZBAA 120300Z AUTO 06004KT 9SM 13/M13 A3006 RMK SLP177 T01261132 52001 IEM_DS3505
ZBAA,2000-03-12 04:00,ZBAA 120400Z AUTO 6SM 14/M13 A3003 RMK T01401130 IEM_DS3505
ZBAA,2000-03-12 05:00,ZBAA 120500Z AUTO 6SM 15/M15 A3003 RMK T01501150 IEM_DS3505
ZBAA,2000-03-12 06:00,ZBAA 120600Z AUTO 13004KT 12SM 15/M13 A3000 RMK SLP157 T01481132 57020 IEM_DS3505
ZBAA,2000-03-12 07:00,ZBAA 120700Z AUTO 21006KT 6SM 16/M15 A2997 RMK T01601150 IEM_DS3505
ZBAA,2000-03-12 08:00,ZBAA 120800Z AUTO 19008G17KT 6SM 16/M14 A2997 RMK T01601140 IEM_DS3505
ZBAA,2000-03-12 09:00,ZBAA 120900Z AUTO 18004KT 6SM 15/M13 A2997 RMK SLP149 T01481132 57008 IEM_DS3505
ZBAA,2000-03-12 10:00,ZBAA 121000Z AUTO 18006KT 6SM 12/M13 A2997 RMK T01201130 IEM_DS3505
ZBAA,2000-03-12 11:00,ZBAA 121100Z AUTO 19004KT 6SM 11/M12 A3000 RMK T01101120 IEM_DS3505
ZBAA,2000-03-12 12:00,ZBAA 121200Z AUTO 22004KT 6SM 09/M01 A3000 RMK SLP167 T00941010 52018 IEM_DS3505
ZBAA,2000-03-12 13:00,ZBAA 121300Z AUTO 20006KT 3SM 09/M05 A3003 RMK T00901050 IEM_DS3505
ZBAA,2000-03-12 14:00,ZBAA 121400Z AUTO 18006KT 2SM 08/M01 A3006 RMK T00801010 IEM_DS3505
ZBAA,2000-03-12 15:00,ZBAA 121500Z AUTO 17002KT 6SM 07/00 A3006 RMK SLP180 T00700000 52013 IEM_DS3505
ZBAA,2000-03-12 16:00,ZBAA 121600Z AUTO 11006KT 1 1/4SM 05/00 A3006 RMK T00500000 IEM_DS3505
ZBAA,2000-03-12 17:00,ZBAA 121700Z AUTO 11004KT 1 1/4SM 03/M02 A3009 RMK T00301020 IEM_DS3505
ZBAA,2000-03-12 18:00,ZBAA 121800Z AUTO 11004KT 2 1/2SM 03/M02 A3006 RMK SLP182 T00331016 52002 IEM_DS3505
ZBAA,2000-03-12 19:00,ZBAA 121900Z AUTO 00000KT 1 1/4SM 03/M01 A3009 RMK T00301010 IEM_DS3505
ZBAA,2000-03-12 20:00,ZBAA 122000Z AUTO 10002KT 1 1/4SM 03/M01 A3009 RMK T00301010 IEM_DS3505
ZBAA,2000-03-12 21:00,ZBAA 122100Z AUTO 06004KT 1SM 02/M01 A3012 RMK SLP190 T00211006 52008 IEM_DS3505
ZBAA,2000-03-12 22:00,ZBAA 122200Z AUTO 11004KT 2 1/2SM 02/M04 A3012 RMK T00201040 IEM_DS3505
ZBAA,2000-03-12 23:00,ZBAA 122300Z AUTO 14002KT 2 1/2SM 02/M06 A3015 RMK T00201060 IEM_DS3505
ZBAA,2000-03-13 00:00,ZBAA 130000Z AUTO 04004KT 5SM 02/M06 A3018 RMK SLP212 T00241059 52022 IEM_DS3505
ZBAA,2000-03-13 01:00,ZBAA 130100Z AUTO 12004KT 5SM 05/M06 A3018 RMK T00501060 IEM_DS3505
ZBAA,2000-03-13 02:00,ZBAA 130200Z AUTO 12004KT 5SM 06/M06 A3021 RMK T00601060 IEM_DS3505
ZBAA,2000-03-13 03:00,ZBAA 130300Z AUTO 06008KT 6SM 07/M06 A3021 RMK SLP219 T00691064 52007 IEM_DS3505
ZBAA,2000-03-13 04:00,ZBAA 130400Z AUTO 05004KT 08/M05 A3018 RMK T00801050 IEM_DS3505
ZBAA,2000-03-13 05:00,ZBAA 130500Z AUTO 09/M04 A3015 RMK T00901040 IEM_DS3505
ZBAA,2000-03-13 06:00,ZBAA 130600Z AUTO 06006KT 6SM 10/M06 A3015 RMK SLP203 T01011058 57016 IEM_DS3505
ZBAA,2000-03-13 07:00,ZBAA 130700Z AUTO 12004KT 10/M03 A3012 RMK T01001030 IEM_DS3505
ZBAA,2000-03-13 08:00,ZBAA 130800Z AUTO 12006KT 11/M02 A3012 RMK T01101020 IEM_DS3505
ZBAA,2000-03-13 09:00,ZBAA 130900Z AUTO 10006KT 6SM 11/M03 A3012 RMK SLP203 T01061034 54000 IEM_DS3505
ZBAA,2000-03-13 10:00,ZBAA 131000Z AUTO 00000KT 3SM 10/M02 A3015 RMK T01001020 IEM_DS3505
ZBAA,2000-03-13 11:00,ZBAA 131100Z AUTO 12002KT 2 1/2SM 08/M02 A3018 RMK T00801020 IEM_DS3505
ZBAA,2000-03-13 12:00,ZBAA 131200Z AUTO 13004KT 6SM 06/M01 A3021 RMK SLP230 T00591008 52026 IEM_DS3505
ZBAA,2000-03-13 13:00,ZBAA 131300Z AUTO 13004KT 2 1/2SM 05/M03 A3024 RMK T00501030 IEM_DS3505
ZBAA,2000-03-13 14:00,ZBAA 131400Z AUTO 11004KT 2SM 05/M03 A3027 RMK T00501030 IEM_DS3505
ZBAA,2000-03-13 15:00,ZBAA 131500Z AUTO 08004KT 6SM 04/M03 A3027 RMK SLP254 T00451030 52024 IEM_DS3505
ZBAA,2000-03-13 16:00,ZBAA 131600Z AUTO 13006KT 2 1/2SM 04/M01 A3030 RMK T00401010 IEM_DS3505
ZBAA,2000-03-13 17:00,ZBAA 131700Z AUTO 11004KT 3SM 04/M02 A3030 RMK T00401020 IEM_DS3505
ZBAA,2000-03-13 18:00,ZBAA 131800Z AUTO 08006KT 12SM 03/M02 A3030 RMK SLP257 T00341019 52004 IEM_DS3505
ZBAA,2000-03-13 19:00,ZBAA 131900Z AUTO 11002KT 04/M05 A3030 RMK T00401050 IEM_DS3505
ZBAA,2000-03-13 20:00,ZBAA 132000Z AUTO 00000KT 5SM 04/M07 A3030 RMK T00401070 IEM_DS3505
ZBAA,2000-03-13 21:00,ZBAA 132100Z AUTO 08002KT 12SM 03/M05 A3030 RMK SLP257 T00331053 54000 IEM_DS3505
ZBAA,2000-03-13 22:00,ZBAA 132200Z AUTO 00000KT 6SM 04/M08 A3030 RMK T00401080 IEM_DS3505
ZBAA,2000-03-13 23:00,ZBAA 132300Z AUTO 16004KT 04/M08 A3033 RMK T00401080 IEM_DS3505
ZBAA,2000-03-14 00:00,ZBAA 140000Z AUTO 08006KT 9SM 03/M09 A3033 RMK SLP270 T00311091 52012 IEM_DS3505
ZBAA,2000-03-14 01:00,ZBAA 140100Z AUTO 10004KT 04/M09 A3033 RMK T00401090 IEM_DS3505
ZBAA,2000-03-14 02:00,ZBAA 140200Z AUTO 11004KT 6SM 04/M09 A3033 RMK T00401090 IEM_DS3505
ZBAA,2000-03-14 03:00,ZBAA 140300Z AUTO 08006KT 6SM 03/M08 A3033 RMK SLP259 T00301080 57011 IEM_DS3505
ZBAA,2000-03-14 04:00,ZBAA 140400Z AUTO 11004KT 6SM 03/M10 A3027 RMK T00301100 IEM_DS3505
ZBAA,2000-03-14 05:00,ZBAA 140500Z AUTO 12004KT 7SM 03/M10 A3024 RMK T00301100 IEM_DS3505
ZBAA,2000-03-14 06:00,ZBAA 140600Z AUTO 08006KT 6SM 03/M09 A3021 RMK 60003 SLP225 T00321087 57034 IEM_DS3505
ZBAA,2000-03-14 07:00,ZBAA 140700Z AUTO 00000KT 5SM 04/M08 A3018 RMK T00401080 IEM_DS3505
ZBAA,2000-03-14 08:00,ZBAA 140800Z AUTO 04002KT 04/M08 A3015 RMK T00401080 IEM_DS3505
ZBAA,2000-03-14 09:00,ZBAA 140900Z AUTO 05004KT 6SM 05/M08 A3012 RMK SLP197 T00461081 57028 IEM_DS3505
ZBAA,2000-03-14 10:00,ZBAA 141000Z AUTO 36006KT 04/M07 A3012 RMK T00401070 IEM_DS3505
ZBAA,2000-03-14 12:00,ZBAA 141200Z AUTO 03004KT 7SM 03/M04 A3012 RMK SLP194 T00301042 57003 IEM_DS3505
ZBAA,2000-03-14 13:00,ZBAA 141300Z AUTO 35010KT 5SM 02/00 A3012 RMK T00200000 IEM_DS3505
ZBAA,2000-03-14 14:00,ZBAA 141400Z AUTO 35008KT 5SM 02/00 A3012 RMK T00200000 IEM_DS3505
ZBAA,2000-03-14 15:00,ZBAA 141500Z AUTO 02006KT 6SM 02/M02 A3012 RMK SLP194 T00191017 54000 IEM_DS3505
ZBAA,2000-03-14 17:00,ZBAA 141700Z AUTO 35004KT 1SM 00/00 A3009 RMK T00000000 IEM_DS3505
ZBAA,2000-03-14 18:00,ZBAA 141800Z AUTO 02002KT 2 1/2SM 01/M00 A3006 RMK 60028 SLP177 T00141002 57017 IEM_DS3505
ZBAA,2000-03-14 19:00,ZBAA 141900Z AUTO 34002KT 1SM 00/00 A3003 RMK T00000000 IEM_DS3505
ZBAA,2000-03-14 20:00,ZBAA 142000Z AUTO 33004KT 1SM 01/01 A3000 RMK T00100010 IEM_DS3505
ZBAA,2000-03-14 21:00,ZBAA 142100Z AUTO 02002KT 2 1/2SM 01/M00 A3000 RMK 70030 SLP156 T00111005 57021 IEM_DS3505
ZBAA,2000-03-14 22:00,ZBAA 142200Z AUTO 28006KT 1SM 00/00 A3000 RMK T00000000 IEM_DS3505
ZBAA,2000-03-14 23:00,ZBAA 142300Z AUTO 28004KT 1/4SM 00/00 A3000 RMK T00000000 IEM_DS3505
ZBAA,2000-03-15 00:00,ZBAA 150000Z AUTO 27004KT 1 1/4SM 02/01 A3000 RMK 60002 SLP158 T00220006 52002 IEM_DS3505
ZBAA,2000-03-15 01:00,ZBAA 150100Z AUTO 34006KT 1/8SM 00/00 A3000 RMK T00000000 IEM_DS3505
ZBAA,2000-03-15 02:00,ZBAA 150200Z AUTO 00000KT 1/4SM 01/01 A3000 RMK T00100010 IEM_DS3505
ZBAA,2000-03-15 03:00,ZBAA 150300Z AUTO 25006KT 2SM 07/04 A2997 RMK SLP152 T00710037 57005 IEM_DS3505
ZBAA,2000-03-15 04:00,ZBAA 150400Z AUTO 28008KT 2 1/2SM 08/04 A2997 RMK T00800040 IEM_DS3505
ZBAA,2000-03-15 05:00,ZBAA 150500Z AUTO 31014G23KT 6SM 13/M04 A2994 RMK T01301040 IEM_DS3505
ZBAA,2000-03-15 06:00,ZBAA 150600Z AUTO 34008KT 12SM 13/M08 A2991 RMK SLP131 T01341084 57021 IEM_DS3505
ZBAA,2000-03-15 07:00,ZBAA 150700Z AUTO 28014KT 7SM 14/M04 A2988 RMK T01401040 IEM_DS3505
ZBAA,2000-03-15 08:00,ZBAA 150800Z AUTO 32014G23KT 7SM 15/M06 A2988 RMK T01501060 IEM_DS3505
ZBAA,2000-03-15 09:00,ZBAA 150900Z AUTO 31010KT 16SM 13/M07 A2991 RMK SLP130 T01341072 57001 IEM_DS3505
ZBAA,2000-03-15 10:00,ZBAA 151000Z AUTO 32010KT 6SM 13/M10 A2991 RMK T01301100 IEM_DS3505
ZBAA,2000-03-15 11:00,ZBAA 151100Z AUTO 34008KT 6SM 10/M09 A2994 RMK T01001090 IEM_DS3505
ZBAA,2000-03-15 12:00,ZBAA 151200Z AUTO 33004KT 9SM 12/M13 A2997 RMK SLP151 T01151126 52021 IEM_DS3505
ZBAA,2000-03-15 13:00,ZBAA 151300Z AUTO 01004KT 6SM 07/M08 A3000 RMK T00701080 IEM_DS3505
ZBAA,2000-03-15 14:00,ZBAA 151400Z AUTO 33006KT 6SM 07/M09 A3003 RMK T00701090 IEM_DS3505
ZBAA,2000-03-15 15:00,ZBAA 151500Z AUTO 26002KT 5SM 06/M08 A3003 RMK SLP170 T00581084 52019 IEM_DS3505
ZBAA,2000-03-15 16:00,ZBAA 151600Z AUTO 28008KT 6SM 06/M10 A3003 RMK T00601100 IEM_DS3505
ZBAA,2000-03-15 17:00,ZBAA 151700Z AUTO 27006KT 6SM 05/M09 A3000 RMK T00501090 IEM_DS3505
ZBAA,2000-03-15 18:00,ZBAA 151800Z AUTO 25004KT 6SM 04/M07 A3000 RMK SLP160 T00371071 57010 IEM_DS3505
ZBAA,2000-03-15 19:00,ZBAA 151900Z AUTO 32004KT 6SM 04/M06 A3000 RMK T00401060 IEM_DS3505
ZBAA,2000-03-15 20:00,ZBAA 152000Z AUTO 04002KT 6SM 01/M05 A3000 RMK T00101050 IEM_DS3505
ZBAA,2000-03-15 21:00,ZBAA 152100Z AUTO 22002KT 6SM 01/M06 A3000 RMK SLP155 T00121063 57005 IEM_DS3505
ZBAA,2000-03-15 22:00,ZBAA 152200Z AUTO 22002KT 6SM 01/M06 A3000 RMK T00101060 IEM_DS3505
ZBAA,2000-03-15 23:00,ZBAA 152300Z AUTO 6SM 01/M05 A3000 RMK T00101050 IEM_DS3505
ZBAA,2000-03-16 00:00,ZBAA 160000Z AUTO 26004KT 6SM 05/M05 A3000 RMK SLP161 T00521049 52006 IEM_DS3505
ZBAA,2000-03-16 01:00,ZBAA 160100Z AUTO 31004KT 6SM 08/M07 A3000 RMK T00801070 IEM_DS3505
ZBAA,2000-03-16 02:00,ZBAA 160200Z AUTO 28006KT 6SM 11/M07 A3000 RMK T01101070 IEM_DS3505
ZBAA,2000-03-16 03:00,ZBAA 160300Z AUTO 21004KT 9SM 14/M07 A3000 RMK SLP155 T01351071 57006 IEM_DS3505
ZBAA,2000-03-16 04:00,ZBAA 160400Z AUTO 29010KT 6SM 15/M09 A2997 RMK T01501090 IEM_DS3505
ZBAA,2000-03-16 05:00,ZBAA 160500Z AUTO 29014KT 6SM 15/M12 A2994 RMK T01501120 IEM_DS3505
ZBAA,2000-03-16 06:00,ZBAA 160600Z AUTO 30008KT 19SM 16/M14 A2991 RMK SLP128 T01601143 57027 IEM_DS3505
ZBAA,2000-03-16 07:00,ZBAA 160700Z AUTO 27012KT 6SM 16/M12 A2988 RMK T01601120 IEM_DS3505
ZBAA,2000-03-16 08:00,ZBAA 160800Z AUTO 28014KT 6SM 16/M11 A2985 RMK T01601110 IEM_DS3505
ZBAA,2000-03-16 09:00,ZBAA 160900Z AUTO 27004KT 16SM 16/M13 A2985 RMK SLP113 T01591134 57015 IEM_DS3505
ZBAA,2000-03-16 10:00,ZBAA 161000Z AUTO 27008KT 6SM 15/M11 A2985 RMK T01501110 IEM_DS3505
ZBAA,2000-03-16 11:00,ZBAA 161100Z AUTO 24006KT 6SM 14/M10 A2985 RMK T01401100 IEM_DS3505
ZBAA,2000-03-16 12:00,ZBAA 161200Z AUTO 21004KT 3SM 11/M09 A2988 RMK SLP119 T01081089 52006 IEM_DS3505
ZBAA,2000-03-16 13:00,ZBAA 161300Z AUTO 20006KT 6SM 11/M08 A2988 RMK T01101080 IEM_DS3505
ZBAA,2000-03-16 14:00,ZBAA 161400Z AUTO 21006KT 6SM 11/M08 A2988 RMK T01101080 IEM_DS3505
ZBAA,2000-03-16 15:00,ZBAA 161500Z AUTO 23006KT 7SM 08/M08 A2988 RMK SLP122 T00831082 52003 IEM_DS3505
ZBAA,2000-03-16 16:00,ZBAA 161600Z AUTO 29002KT 6SM 07/M07 A2988 RMK T00701070 IEM_DS3505
ZBAA,2000-03-16 17:00,ZBAA 161700Z AUTO 6SM 10/M08 A2988 RMK T01001080 IEM_DS3505
ZBAA,2000-03-16 18:00,ZBAA 161800Z AUTO 23004KT 9SM 06/M09 A2985 RMK SLP114 T00601090 57007 IEM_DS3505
ZBAA,2000-03-16 19:00,ZBAA 161900Z AUTO 29002KT 6SM 04/M05 A2985 RMK T00401050 IEM_DS3505
ZBAA,2000-03-16 20:00,ZBAA 162000Z AUTO 00000KT 6SM 03/M05 A2985 RMK T00301050 IEM_DS3505
ZBAA,2000-03-16 21:00,ZBAA 162100Z AUTO 31004KT 6SM 06/M10 A2985 RMK SLP109 T00591095 57005 IEM_DS3505
ZBAA,2000-03-16 22:00,ZBAA 162200Z AUTO 00000KT 6SM 00/M05 A2985 RMK T00001050 IEM_DS3505
ZBAA,2000-03-16 23:00,ZBAA 162300Z AUTO 00000KT 5SM 01/M05 A2988 RMK T00101050 IEM_DS3505
ZBAA,2000-03-17 00:00,ZBAA 170000Z AUTO 21002KT 4SM 06/M06 A2988 RMK SLP117 T00651057 52007 IEM_DS3505
ZBAA,2000-03-17 01:00,ZBAA 170100Z AUTO 07002KT 09/M05 A2988 RMK T00901050 IEM_DS3505
ZBAA,2000-03-17 02:00,ZBAA 170200Z AUTO 12002KT 9SM 12/M05 A2988 RMK T01201050 IEM_DS3505
ZBAA,2000-03-17 03:00,ZBAA 170300Z AUTO 20004KT 9SM 15/M11 A2988 RMK SLP116 T01491106 54000 IEM_DS3505
ZBAA,2000-03-17 04:00,ZBAA 170400Z AUTO 21006KT 6SM 16/M11 A2985 RMK T01601110 IEM_DS3505
ZBAA,2000-03-17 05:00,ZBAA 170500Z AUTO 19006KT 6SM 18/M12 A2983 RMK T01801120 IEM_DS3505
ZBAA,2000-03-17 06:00,ZBAA 170600Z AUTO 23006KT 19SM 20/M15 A2980 RMK SLP088 T01961154 57028 IEM_DS3505
ZBAA,2000-03-17 07:00,ZBAA 170700Z AUTO 20006KT 6SM 20/M14 A2977 RMK T02001140 IEM_DS3505
ZBAA,2000-03-17 08:00,ZBAA 170800Z AUTO 22010KT 6SM 20/M15 A2977 RMK T02001150 IEM_DS3505
ZBAA,2000-03-17 09:00,ZBAA 170900Z AUTO 19008KT 19SM 19/M14 A2977 RMK SLP075 T01931142 57013 IEM_DS3505
ZBAA,2000-03-17 10:00,ZBAA 171000Z AUTO 20008KT 6SM 18/M14 A2977 RMK T01801140 IEM_DS3505
ZBAA,2000-03-17 11:00,ZBAA 171100Z AUTO 18008KT 6SM 14/M11 A2977 RMK T01401110 IEM_DS3505
ZBAA,2000-03-17 12:00,ZBAA 171200Z AUTO 17004KT 12SM 14/M14 A2977 RMK SLP083 T01451135 52008 IEM_DS3505
ZBAA,2000-03-17 13:00,ZBAA 171300Z AUTO 18006KT 6SM 11/M09 A2977 RMK T01101090 IEM_DS3505
ZBAA,2000-03-17 14:00,ZBAA 171400Z AUTO 17006KT 6SM 11/M09 A2977 RMK T01101090 IEM_DS3505
ZBAA,2000-03-17 15:00,ZBAA 171500Z AUTO 20008KT 16SM 12/M13 A2977 RMK SLP082 T01251133 57001 IEM_DS3505
ZBAA,2000-03-17 16:00,ZBAA 171600Z AUTO 19008KT 6SM 12/M11 A2974 RMK T01201110 IEM_DS3505
ZBAA,2000-03-17 17:00,ZBAA 171700Z AUTO 19008KT 6SM 11/M07 A2974 RMK T01101070 IEM_DS3505
ZBAA,2000-03-17 18:00,ZBAA 171800Z AUTO 15004KT 6SM 10/M06 A2971 RMK T01001060 IEM_DS3505
ZBAA,2000-03-17 19:00,ZBAA 171900Z AUTO 31012KT 6SM 10/M05 A2971 RMK T01001050 IEM_DS3505
ZBAA,2000-03-17 20:00,ZBAA 172000Z AUTO 30002KT 06/M04 A2971 RMK T00601040 IEM_DS3505
ZBAA,2000-03-17 21:00,ZBAA 172100Z AUTO 31004KT 9SM 09/M06 A2971 RMK SLP059 T00911059 52003 IEM_DS3505
ZBAA,2000-03-17 22:00,ZBAA 172200Z AUTO 31017KT 1 1/2SM 13/M13 A2974 RMK T01301130 IEM_DS3505
ZBAA,2000-03-17 23:00,ZBAA 172300Z AUTO 30012KT 2 1/2SM 13/M12 A2974 RMK T01301120 IEM_DS3505
ZBAA,2000-03-18 00:00,ZBAA 180000Z AUTO 30010G29KT 5SM 14/M15 A2974 RMK SLP077 T01431146 52018 IEM_DS3505
ZBAA,2000-03-18 01:00,ZBAA 180100Z AUTO 31027G43KT 3SM 13/M11 A2980 RMK T01301110 IEM_DS3505
ZBAA,2000-03-18 02:00,ZBAA 180200Z AUTO 30019G29KT 2 1/2SM 13/M09 A2983 RMK T01301090 IEM_DS3505
ZBAA,2000-03-18 03:00,ZBAA 180300Z AUTO 32014G43KT 5SM 14/M12 A2983 RMK SLP104 T01401121 52027 IEM_DS3505
ZBAA,2000-03-18 04:00,ZBAA 180400Z AUTO 32027G39KT 3SM 15/M11 A2985 RMK T01501110 IEM_DS3505
ZBAA,2000-03-18 05:00,ZBAA 180500Z AUTO 31025G39KT 3SM 15/M11 A2985 RMK T01501110 IEM_DS3505
ZBAA,2000-03-18 06:00,ZBAA 180600Z AUTO 00000KT 6SM 16/M14 A2988 RMK SLP121 T01571135 4////0083 52017 IEM_DS3505
ZBAA,2000-03-18 08:00,ZBAA 180800Z AUTO 04014KT 7SM 14/M09 A2994 RMK T01401090 IEM_DS3505
ZBAA,2000-03-18 09:00,ZBAA 180900Z AUTO 34010KT 9SM 14/M13 A3000 RMK SLP157 T01391131 52036 IEM_DS3505
ZBAA,2000-03-18 10:00,ZBAA 181000Z AUTO 33016G25KT 6SM 13/M11 A3003 RMK T01301110 IEM_DS3505
ZBAA,2000-03-18 11:00,ZBAA 181100Z AUTO 36010KT 6SM 10/M11 A3009 RMK T01001110 IEM_DS3505
ZBAA,2000-03-18 12:00,ZBAA 181200Z AUTO 01008KT 16SM 11/M17 A3012 RMK SLP201 T01101172 52044 IEM_DS3505
ZBAA,2000-03-18 13:00,ZBAA 181300Z AUTO 35004KT 6SM 06/M11 A3018 RMK T00601110 IEM_DS3505
ZBAA,2000-03-18 14:00,ZBAA 181400Z AUTO 02008KT 6SM 07/M14 A3024 RMK T00701140 IEM_DS3505
ZBAA,2000-03-18 15:00,ZBAA 181500Z AUTO 04006KT 16SM 08/M17 A3027 RMK SLP249 T00781171 52047 IEM_DS3505
ZBAA,2000-03-18 16:00,ZBAA 181600Z AUTO 04006KT 6SM 06/M14 A3027 RMK T00601140 IEM_DS3505
ZBAA,2000-03-18 17:00,ZBAA 181700Z AUTO 05004KT 6SM 05/M13 A3030 RMK T00501130 IEM_DS3505
ZBAA,2000-03-18 18:00,ZBAA 181800Z AUTO 05004KT 12SM 04/M15 A3030 RMK SLP257 T00431149 52008 IEM_DS3505
ZBAA,2000-03-18 19:00,ZBAA 181900Z AUTO 27004KT 6SM 04/M11 A3030 RMK T00401110 IEM_DS3505
ZBAA,2000-03-18 20:00,ZBAA 182000Z AUTO 34004KT 6SM 00/M11 A3030 RMK T00001110 IEM_DS3505
ZBAA,2000-03-18 21:00,ZBAA 182100Z AUTO 24002KT 12SM 02/M11 A3030 RMK SLP253 T00161114 57004 IEM_DS3505
ZBAA,2000-03-18 22:00,ZBAA 182200Z AUTO 00000KT 6SM 01/M12 A3030 RMK T00101120 IEM_DS3505
ZBAA,2000-03-18 23:00,ZBAA 182300Z AUTO 34002KT 6SM 00/M10 A3030 RMK T00001100 IEM_DS3505
ZBAA,2000-03-19 00:00,ZBAA 190000Z AUTO 06002KT 9SM 06/M12 A3030 RMK SLP261 T00571122 52008 IEM_DS3505
ZBAA,2000-03-19 01:00,ZBAA 190100Z AUTO 04004KT 6SM 06/M10 A3033 RMK T00601100 IEM_DS3505
ZBAA,2000-03-19 02:00,ZBAA 190200Z AUTO 6SM 08/M13 A3033 RMK T00801130 IEM_DS3505
ZBAA,2000-03-19 03:00,ZBAA 190300Z AUTO 23008KT 9SM 10/M10 A3030 RMK SLP260 T00961099 57001 IEM_DS3505
ZBAA,2000-03-19 04:00,ZBAA 190400Z AUTO 18006KT 6SM 11/M15 A3027 RMK T01101150 IEM_DS3505
ZBAA,2000-03-19 05:00,ZBAA 190500Z AUTO 18008KT 6SM 12/M12 A3021 RMK T01201120 IEM_DS3505
ZBAA,2000-03-19 06:00,ZBAA 190600Z AUTO 22008KT 12SM 12/M15 A3018 RMK SLP222 T01181147 57038 IEM_DS3505
ZBAA,2000-03-19 07:00,ZBAA 190700Z AUTO 17008KT 6SM 12/M13 A3015 RMK T01201130 IEM_DS3505
ZBAA,2000-03-19 08:00,ZBAA 190800Z AUTO 18008KT 6SM 13/M13 A3012 RMK T01301130 IEM_DS3505
ZBAA,2000-03-19 09:00,ZBAA 190900Z AUTO 22010KT 12SM 12/M13 A3012 RMK SLP198 T01201129 57024 IEM_DS3505
ZBAA,2000-03-19 10:00,ZBAA 191000Z AUTO 18010KT 6SM 11/M12 A3012 RMK T01101120 IEM_DS3505
ZBAA,2000-03-19 11:00,ZBAA 191100Z AUTO 16006KT 6SM 09/M11 A3012 RMK T00901110 IEM_DS3505
ZBAA,2000-03-19 12:00,ZBAA 191200Z AUTO 18006KT 7SM 09/M10 A3012 RMK SLP203 T00901104 52005 IEM_DS3505
ZBAA,2000-03-19 13:00,ZBAA 191300Z AUTO 18006KT 6SM 06/M08 A3015 RMK T00601080 IEM_DS3505
ZBAA,2000-03-19 14:00,ZBAA 191400Z AUTO 17004KT 6SM 06/M08 A3015 RMK T00601080 IEM_DS3505
ZBAA,2000-03-19 15:00,ZBAA 191500Z AUTO 19004KT 9SM 06/M10 A3015 RMK SLP207 T00651098 52004 IEM_DS3505
ZBAA,2000-03-19 16:00,ZBAA 191600Z AUTO 12004KT 6SM 03/M07 A3015 RMK T00301070 IEM_DS3505
ZBAA,2000-03-19 17:00,ZBAA 191700Z AUTO 12004KT 6SM 03/M08 A3012 RMK T00301080 IEM_DS3505
ZBAA,2000-03-19 18:00,ZBAA 191800Z AUTO 15002KT 12SM 03/M09 A3012 RMK SLP200 T00291090 57007 IEM_DS3505
ZBAA,2000-03-19 19:00,ZBAA 191900Z AUTO 10004KT 6SM 02/M06 A3012 RMK T00201060 IEM_DS3505
ZBAA,2000-03-19 20:00,ZBAA 192000Z AUTO 10002KT 6SM 01/M06 A3009 RMK T00101060 IEM_DS3505
ZBAA,2000-03-19 21:00,ZBAA 192100Z AUTO 10002KT 12SM 02/M09 A3012 RMK SLP194 T00161090 57006 IEM_DS3505
ZBAA,2000-03-19 22:00,ZBAA 192200Z AUTO 12004KT 6SM 00/M06 A3009 RMK T00001060 IEM_DS3505
ZBAA,2000-03-19 23:00,ZBAA 192300Z AUTO 12004KT 6SM 01/M05 A3009 RMK T00101050 IEM_DS3505
ZBAA,2000-03-20 00:00,ZBAA 200000Z AUTO 10002KT 9SM 03/M07 A3009 RMK SLP190 T00271072 57004 IEM_DS3505
ZBAA,2000-03-20 01:00,ZBAA 200100Z AUTO 13004KT 05/M05 A3009 RMK T00501050 IEM_DS3505
ZBAA,2000-03-20 02:00,ZBAA 200200Z AUTO 15004KT 7SM 07/M06 A3009 RMK T00701060 IEM_DS3505
ZBAA,2000-03-20 03:00,ZBAA 200300Z AUTO 22006KT 7SM 09/M08 A3009 RMK SLP185 T00861079 57005 IEM_DS3505
ZBAA,2000-03-20 04:00,ZBAA 200400Z AUTO 16008KT 6SM 09/M06 A3006 RMK T00901060 IEM_DS3505
ZBAA,2000-03-20 05:00,ZBAA 200500Z AUTO 27008KT 6SM 09/M03 A3003 RMK SLP154 T00901032 57003 IEM_DS3505
ZBAA,2000-03-20 06:00,ZBAA 200600Z AUTO 09006KT 6SM 10/M06 A3000 RMK SLP157 T00971065 57028 IEM_DS3505
ZBAA,2000-03-20 07:00,ZBAA 200700Z AUTO 12004KT 6SM 10/M05 A3000 RMK T01001050 IEM_DS3505
ZBAA,2000-03-20 08:00,ZBAA 200800Z AUTO 6SM 09/M03 A2997 RMK T00901030 IEM_DS3505
ZBAA,2000-03-20 09:00,ZBAA 200900Z AUTO 27008KT 6SM 09/M03 A3000 RMK SLP154 T00901032 57003 IEM_DS3505
ZBAA,2000-03-20 10:00,ZBAA 201000Z AUTO 09002KT 4SM 07/01 A3003 RMK T00700010 IEM_DS3505
ZBAA,2000-03-20 11:00,ZBAA 201100Z AUTO 36006KT 4SM 05/04 A3003 RMK T00500040 IEM_DS3505
ZBAA,2000-03-20 12:00,ZBAA 201200Z AUTO 03004KT 6SM 06/02 A3006 RMK 60001 SLP177 T00560021 52022 IEM_DS3505
ZBAA,2000-03-20 14:00,ZBAA 201400Z AUTO 03002KT 1 1/2SM 04/04 A3012 RMK T00400040 IEM_DS3505
ZBAA,2000-03-20 15:00,ZBAA 201500Z AUTO 01006KT 4SM 04/02 A3012 RMK SLP195 T00450019 52018 IEM_DS3505
ZBAA,2000-03-20 16:00,ZBAA 201600Z AUTO 34006KT 1 1/4SM 04/04 A3012 RMK T00400040 IEM_DS3505
ZBAA,2000-03-20 17:00,ZBAA 201700Z AUTO 33008KT 1 1/2SM 04/04 A3012 RMK T00400040 IEM_DS3505
ZBAA,2000-03-20 18:00,ZBAA 201800Z AUTO 01002KT 3SM 04/01 A3015 RMK 60003 SLP202 T00420011 52008 IEM_DS3505
ZBAA,2000-03-20 19:00,ZBAA 201900Z AUTO 32006KT 1 1/4SM 03/03 A3015 RMK T00300030 IEM_DS3505
ZBAA,2000-03-20 20:00,ZBAA 202000Z AUTO 34006KT 1SM 01/01 A3012 RMK T00100010 IEM_DS3505
ZBAA,2000-03-20 21:00,ZBAA 202100Z AUTO 34002KT 4SM 04/01 A3015 RMK 70004 SLP204 T00390006 52002 IEM_DS3505
ZBAA,2000-03-20 22:00,ZBAA 202200Z AUTO 34006KT 1 1/2SM 02/01 A3018 RMK T00200010 IEM_DS3505
ZBAA,2000-03-20 23:00,ZBAA 202300Z AUTO 34006KT 1 1/2SM 03/02 A3018 RMK T00300020 IEM_DS3505
ZBAA,2000-03-21 00:00,ZBAA 210000Z AUTO 03004KT 4SM 06/01 A3021 RMK 70004 SLP229 T00620010 52024 IEM_DS3505
ZBAA,2000-03-21 01:00,ZBAA 210100Z AUTO 35008KT 2 1/2SM 07/04 A3024 RMK T00700040 IEM_DS3505
ZBAA,2000-03-21 02:00,ZBAA 210200Z AUTO 01008KT 4SM 09/04 A3024 RMK T00900040 IEM_DS3505
ZBAA,2000-03-21 03:00,ZBAA 210300Z AUTO 01006KT 7SM 11/M00 A3024 RMK SLP242 T01111003 52014 IEM_DS3505
ZBAA,2000-03-21 04:00,ZBAA 210400Z AUTO 6SM 13/M02 A3024 RMK T01301020 IEM_DS3505
ZBAA,2000-03-21 05:00,ZBAA 210500Z AUTO 14004KT 9SM 14/M03 A3021 RMK SLP212 T01361032 57014 IEM_DS3505
ZBAA,2000-03-21 06:00,ZBAA 210600Z AUTO 13004KT 9SM 14/M04 A3021 RMK SLP226 T01371044 57016 IEM_DS3505
ZBAA,2000-03-21 07:00,ZBAA 210700Z AUTO 16006KT 6SM 14/M04 A3018 RMK T01401040 IEM_DS3505
ZBAA,2000-03-21 08:00,ZBAA 210800Z AUTO 14008KT 6SM 14/M06 A3018 RMK T01401060 IEM_DS3505
ZBAA,2000-03-21 09:00,ZBAA 210900Z AUTO 14004KT 9SM 14/M03 A3015 RMK SLP212 T01361032 57014 IEM_DS3505
ZBAA,2000-03-21 10:00,ZBAA 211000Z AUTO 17006KT 6SM 13/M03 A3018 RMK T01301030 IEM_DS3505
ZBAA,2000-03-21 11:00,ZBAA 211100Z AUTO 18006KT 6SM 10/M01 A3018 RMK T01001010 IEM_DS3505
ZBAA,2000-03-21 12:00,ZBAA 211200Z AUTO 17006KT 7SM 10/01 A3024 RMK SLP243 T00950007 52031 IEM_DS3505
ZBAA,2000-03-21 13:00,ZBAA 211300Z AUTO 19008KT 4SM 08/03 A3027 RMK T00800030 IEM_DS3505
ZBAA,2000-03-21 14:00,ZBAA 211400Z AUTO 18006KT 4SM 06/02 A3030 RMK T00600020 IEM_DS3505
ZBAA,2000-03-21 15:00,ZBAA 211500Z AUTO 21004KT 6SM 05/M04 A3030 RMK SLP261 T00521036 52017 IEM_DS3505
ZBAA,2000-03-21 16:00,ZBAA 211600Z AUTO 15004KT 4SM 04/M01 A3030 RMK T00401010 IEM_DS3505
ZBAA,2000-03-21 17:00,ZBAA 211700Z AUTO 12004KT 4SM 03/M01 A3030 RMK T00301010 IEM_DS3505
ZBAA,2000-03-21 18:00,ZBAA 211800Z AUTO 19002KT 6SM 04/M05 A3027 RMK SLP251 T00421050 57009 IEM_DS3505
ZBAA,2000-03-21 19:00,ZBAA 211900Z AUTO 11004KT 2 1/2SM 01/M02 A3027 RMK T00101020 IEM_DS3505
ZBAA,2000-03-21 20:00,ZBAA 212000Z AUTO 13002KT 2 1/2SM 01/M01 A3024 RMK T00101010 IEM_DS3505
ZBAA,2000-03-21 21:00,ZBAA 212100Z AUTO 12002KT 6SM 02/M04 A3024 RMK SLP233 T00201043 57018 IEM_DS3505
ZBAA,2000-03-21 22:00,ZBAA 212200Z AUTO 10004KT 2SM 01/M01 A3021 RMK T00101010 IEM_DS3505
ZBAA,2000-03-21 23:00,ZBAA 212300Z AUTO 00000KT 1 1/2SM 00/M01 A3024 RMK T00001010 IEM_DS3505
ZBAA,2000-03-22 00:00,ZBAA 220000Z AUTO 14006KT 4SM 03/M02 A3021 RMK SLP226 T00291020 57007 IEM_DS3505
ZBAA,2000-03-22 01:00,ZBAA 220100Z AUTO 00000KT 2SM 04/01 A3021 RMK T00400010 IEM_DS3505
ZBAA,2000-03-22 02:00,ZBAA 220200Z AUTO 13002KT 2 1/2SM 05/00 A3021 RMK T00500000 IEM_DS3505
ZBAA,2000-03-22 03:00,ZBAA 220300Z AUTO 00000KT 6SM 07/M03 A3018 RMK SLP216 T00721028 57010 IEM_DS3505
ZBAA,2000-03-22 04:00,ZBAA 220400Z AUTO 00000KT 2 1/2SM 07/00 A3018 RMK T00700000 IEM_DS3505
ZBAA,2000-03-22 05:00,ZBAA 220500Z AUTO 29004KT 2 1/2SM 07/00 A3015 RMK T00700000 IEM_DS3505
ZBAA,2000-03-22 06:00,ZBAA 220600Z AUTO 00000KT 6SM 07/M00 A3012 RMK 60000 SLP200 T00701002 57016 IEM_DS3505
ZBAA,2000-03-22 07:00,ZBAA 220700Z AUTO 19006KT 2 1/2SM 07/01 A3009 RMK T00700010 IEM_DS3505
ZBAA,2000-03-22 08:00,ZBAA 220800Z AUTO 23008KT 2 1/2SM 08/02 A3009 RMK T00800020 IEM_DS3505
ZBAA,2000-03-22 09:00,ZBAA 220900Z AUTO 24006KT 6SM 07/02 A3006 RMK SLP185 T00690018 57016 IEM_DS3505
ZBAA,2000-03-22 10:00,ZBAA 221000Z AUTO 22006KT 2 1/2SM 08/03 A3006 RMK T00800030 IEM_DS3505
ZBAA,2000-03-22 11:00,ZBAA 221100Z AUTO 23006KT 2SM 07/03 A3006 RMK T00700030 IEM_DS3505
ZBAA,2000-03-22 12:00,ZBAA 221200Z AUTO 24010KT 6SM 06/02 A3009 RMK 60003 SLP199 T00620023 52014 IEM_DS3505
ZBAA,2000-03-22 13:00,ZBAA 221300Z AUTO 33008KT 2 1/2SM 07/04 A3012 RMK T00700040 IEM_DS3505
ZBAA,2000-03-22 14:00,ZBAA 221400Z AUTO 29008KT 2SM 08/01 A3015 RMK T00800010 IEM_DS3505
ZBAA,2000-03-22 15:00,ZBAA 221500Z AUTO 30014G21KT 6SM 10/M19 A3015 RMK SLP216 T01001190 52018 IEM_DS3505
ZBAA,2000-03-22 16:00,ZBAA 221600Z AUTO 27010KT 1 1/2SM 09/M15 A3015 RMK T00901150 IEM_DS3505
ZBAA,2000-03-22 17:00,ZBAA 221700Z AUTO 29012G21KT 2 1/2SM 09/M15 A3015 RMK T00901150 IEM_DS3505
ZBAA,2000-03-22 18:00,ZBAA 221800Z AUTO 30016KT 6SM 09/M22 A3015 RMK SLP215 T00911220 57001 IEM_DS3505
ZBAA,2000-03-22 19:00,ZBAA 221900Z AUTO 30010KT 3SM 08/M17 A3015 RMK T00801170 IEM_DS3505
ZBAA,2000-03-22 20:00,ZBAA 222000Z AUTO 28010KT 06/M14 A3015 RMK T00601140 IEM_DS3505
ZBAA,2000-03-22 21:00,ZBAA 222100Z AUTO 30010KT 12SM 07/M16 A3015 RMK 70001 SLP211 T00711162 57004 IEM_DS3505
ZBAA,2000-03-22 22:00,ZBAA 222200Z AUTO 29010KT 6SM 05/M12 A3015 RMK T00501120 IEM_DS3505
ZBAA,2000-03-22 23:00,ZBAA 222300Z AUTO 29012KT 6SM 05/M12 A3018 RMK T00501120 IEM_DS3505
ZBAA,2000-03-23 00:00,ZBAA 230000Z AUTO 28010KT 16SM 08/M16 A3018 RMK 70001 SLP219 T00771157 52008 IEM_DS3505
ZBAA,2000-03-23 01:00,ZBAA 230100Z AUTO 30014KT 6SM 09/M13 A3018 RMK T00901130 IEM_DS3505
ZBAA,2000-03-23 02:00,ZBAA 230200Z AUTO 30014KT 6SM 10/M14 A3015 RMK T01001140 IEM_DS3505
ZBAA,2000-03-23 03:00,ZBAA 230300Z AUTO 30012G25KT 19SM 11/M20 A3009 RMK SLP198 T01061196 57021 IEM_DS3505
ZBAA,2000-03-23 04:00,ZBAA 230400Z AUTO 29019G29KT 6SM 12/M20 A3009 RMK T01201200 IEM_DS3505
ZBAA,2000-03-23 05:00,ZBAA 230500Z AUTO 30021G33KT 6SM 13/M21 A3003 RMK T01301210 IEM_DS3505
ZBAA,2000-03-23 06:00,ZBAA 230600Z AUTO 29017G33KT 11SM 13/M19 A3000 RMK SLP168 T01271192 57030 IEM_DS3505
ZBAA,2000-03-23 07:00,ZBAA 230700Z AUTO 34023G37KT 6SM 11/M18 A3003 RMK T01101180 IEM_DS3505
ZBAA,2000-03-23 08:00,ZBAA 230800Z AUTO 33023G37KT 6SM 11/M17 A3006 RMK T01101170 IEM_DS3505
ZBAA,2000-03-23 09:00,ZBAA 230900Z AUTO 30016G29KT 9SM 10/M19 A3009 RMK SLP190 T01011189 52022 IEM_DS3505
ZBAA,2000-03-23 10:00,ZBAA 231000Z AUTO 32021G33KT 6SM 09/M20 A3012 RMK T00901200 IEM_DS3505
ZBAA,2000-03-23 11:00,ZBAA 231100Z AUTO 33021G33KT 6SM 09/M20 A3015 RMK T00901200 IEM_DS3505
ZBAA,2000-03-23 12:00,ZBAA 231200Z AUTO 33010G27KT 7SM 08/M20 A3018 RMK SLP224 T00841202 52034 IEM_DS3505
ZBAA,2000-03-23 13:00,ZBAA 231300Z AUTO 33016KT 6SM 07/M20 A3021 RMK T00701200 IEM_DS3505
ZBAA,2000-03-23 14:00,ZBAA 231400Z AUTO 33017G29KT 6SM 07/M20 A3021 RMK T00701200 IEM_DS3505
ZBAA,2000-03-23 15:00,ZBAA 231500Z AUTO 10002G23KT 6SM 05/M18 A3024 RMK SLP237 T00471182 52012 IEM_DS3505
ZBAA,2000-03-23 16:00,ZBAA 231600Z AUTO 32012KT 6SM 06/M20 A3024 RMK T00601200 IEM_DS3505
ZBAA,2000-03-23 17:00,ZBAA 231700Z AUTO 31010KT 6SM 06/M20 A3021 RMK T00601200 IEM_DS3505
ZBAA,2000-03-23 18:00,ZBAA 231800Z AUTO 18004KT 9SM 03/M16 A3021 RMK SLP228 T00261158 57008 IEM_DS3505
ZBAA,2000-03-23 19:00,ZBAA 231900Z AUTO 21006KT 6SM 03/M17 A3018 RMK T00301170 IEM_DS3505
ZBAA,2000-03-23 20:00,ZBAA 232000Z AUTO 18006KT 6SM 02/M14 A3018 RMK T00201140 IEM_DS3505
ZBAA,2000-03-23 21:00,ZBAA 232100Z AUTO 27006KT 12SM 02/M16 A3015 RMK SLP216 T00211163 57012 IEM_DS3505
ZBAA,2000-03-23 22:00,ZBAA 232200Z AUTO 20004KT 6SM 03/M15 A3018 RMK T00301150 IEM_DS3505
ZBAA,2000-03-23 23:00,ZBAA 232300Z AUTO 22006KT 6SM 04/M15 A3018 RMK T00401150 IEM_DS3505
ZBAA,2000-03-24 00:00,ZBAA 240000Z AUTO 24004KT 9SM 06/M16 A3018 RMK SLP224 T00571160 52008 IEM_DS3505
ZBAA,2000-03-24 01:00,ZBAA 240100Z AUTO 24010KT 6SM 09/M16 A3018 RMK T00901160 IEM_DS3505
ZBAA,2000-03-24 02:00,ZBAA 240200Z AUTO 29012KT 6SM 11/M16 A3018 RMK T01101160 IEM_DS3505
ZBAA,2000-03-24 03:00,ZBAA 240300Z AUTO 25008KT 12SM 12/M17 A3015 RMK SLP213 T01181166 57011 IEM_DS3505
ZBAA,2000-03-24 04:00,ZBAA 240400Z AUTO 28010KT 6SM 14/M15 A3012 RMK T01401150 IEM_DS3505
ZBAA,2000-03-24 05:00,ZBAA 240500Z AUTO 27014KT 6SM 15/M14 A3009 RMK T01501140 IEM_DS3505
ZBAA,2000-03-24 06:00,ZBAA 240600Z AUTO 31014G23KT 12SM 15/M16 A3009 RMK SLP186 T01531160 57027 IEM_DS3505
ZBAA,2000-03-24 07:00,ZBAA 240700Z AUTO 28017G27KT 6SM 16/M16 A3006 RMK T01601160 IEM_DS3505
ZBAA,2000-03-24 08:00,ZBAA 240800Z AUTO 28017G31KT 6SM 16/M15 A3003 RMK T01601150 IEM_DS3505
ZBAA,2000-03-24 09:00,ZBAA 240900Z AUTO 30017KT 12SM 16/M17 A3003 RMK SLP175 T01561170 57011 IEM_DS3505
ZBAA,2000-03-24 10:00,ZBAA 241000Z AUTO 31014KT 6SM 15/M15 A3006 RMK T01501150 IEM_DS3505
ZBAA,2000-03-24 11:00,ZBAA 241100Z AUTO 32008KT 6SM 13/M15 A3009 RMK T01301150 IEM_DS3505
ZBAA,2000-03-24 12:00,ZBAA 241200Z AUTO 31008KT 12SM 14/M17 A3012 RMK SLP198 T01381172 52023 IEM_DS3505
ZBAA,2000-03-24 13:00,ZBAA 241300Z AUTO 35008KT 6SM 09/M14 A3015 RMK T00901140 IEM_DS3505
ZBAA,2000-03-24 14:00,ZBAA 241400Z AUTO 35010KT 6SM 09/M15 A3018 RMK T00901150 IEM_DS3505
ZBAA,2000-03-24 15:00,ZBAA 241500Z AUTO 35002KT 12SM 10/M17 A3018 RMK SLP221 T01021169 52023 IEM_DS3505
ZBAA,2000-03-24 16:00,ZBAA 241600Z AUTO 32010KT 6SM 10/M17 A3018 RMK T01001170 IEM_DS3505
ZBAA,2000-03-24 17:00,ZBAA 241700Z AUTO 32008KT 6SM 09/M17 A3018 RMK T00901170 IEM_DS3505
ZBAA,2000-03-24 18:00,ZBAA 241800Z AUTO 28004KT 6SM 07/M13 A3015 RMK SLP212 T00741134 57009 IEM_DS3505
ZBAA,2000-03-24 19:00,ZBAA 241900Z AUTO 21004KT 6SM 05/M13 A3015 RMK T00501130 IEM_DS3505
ZBAA,2000-03-24 20:00,ZBAA 242000Z AUTO 26002KT 6SM 04/M13 A3012 RMK T00401130 IEM_DS3505
ZBAA,2000-03-24 21:00,ZBAA 242100Z AUTO 31004KT 16SM 09/M16 A3012 RMK SLP195 T00871156 57016 IEM_DS3505
ZBAA,2000-03-24 22:00,ZBAA 242200Z AUTO 04002KT 6SM 02/M11 A3012 RMK T00201110 IEM_DS3505
ZBAA,2000-03-24 23:00,ZBAA 242300Z AUTO 20002KT 6SM 03/M10 A3015 RMK T00301100 IEM_DS3505
ZBAA,2000-03-25 00:00,ZBAA 250000Z AUTO 24010KT 9SM 09/M14 A3015 RMK SLP210 T00931137 52014 IEM_DS3505
ZBAA,2000-03-25 01:00,ZBAA 250100Z AUTO 26004KT 6SM 13/M10 A3015 RMK T01301100 IEM_DS3505
ZBAA,2000-03-25 02:00,ZBAA 250200Z AUTO 30010KT 6SM 15/M12 A3015 RMK T01501120 IEM_DS3505
ZBAA,2000-03-25 03:00,ZBAA 250300Z AUTO 29006KT 16SM 16/M14 A3012 RMK SLP203 T01601143 57007 IEM_DS3505
ZBAA,2000-03-25 04:00,ZBAA 250400Z AUTO 28014KT 6SM 17/M13 A3009 RMK T01701130 IEM_DS3505
ZBAA,2000-03-25 05:00,ZBAA 250500Z AUTO 28016KT 6SM 17/M13 A3009 RMK T01701130 IEM_DS3505
ZBAA,2000-03-25 06:00,ZBAA 250600Z AUTO 31014G29KT 19SM 18/M14 A3003 RMK SLP174 T01841136 57028 IEM_DS3505
ZBAA,2000-03-25 07:00,ZBAA 250700Z AUTO 28017G27KT 6SM 19/M12 A3000 RMK T01901120 IEM_DS3505
ZBAA,2000-03-25 08:00,ZBAA 250800Z AUTO 28017G27KT 6SM 19/M12 A3000 RMK T01901120 IEM_DS3505
ZBAA,2000-03-25 09:00,ZBAA 250900Z AUTO 31014G27KT 16SM 19/M13 A3000 RMK SLP162 T01871134 57012 IEM_DS3505
ZBAA,2000-03-25 10:00,ZBAA 251000Z AUTO 32010KT 6SM 18/M12 A3000 RMK T01801120 IEM_DS3505
ZBAA,2000-03-25 11:00,ZBAA 251100Z AUTO 32008KT 6SM 17/M11 A3000 RMK T01701110 IEM_DS3505
ZBAA,2000-03-25 12:00,ZBAA 251200Z AUTO 30008KT 16SM 17/M14 A3003 RMK SLP171 T01731145 52009 IEM_DS3505
ZBAA,2000-03-25 13:00,ZBAA 251300Z AUTO 28004KT 6SM 14/M10 A3006 RMK T01401100 IEM_DS3505
ZBAA,2000-03-25 14:00,ZBAA 251400Z AUTO 26004KT 6SM 13/M11 A3006 RMK T01301110 IEM_DS3505
ZBAA,2000-03-25 15:00,ZBAA 251500Z AUTO 21004KT 9SM 10/M10 A3006 RMK SLP176 T00981097 52004 IEM_DS3505
ZBAA,2000-03-25 16:00,ZBAA 251600Z AUTO 22004KT 6SM 08/M08 A3003 RMK T00801080 IEM_DS3505
ZBAA,2000-03-25 17:00,ZBAA 251700Z AUTO 24002KT 6SM 09/M07 A3003 RMK T00901070 IEM_DS3505
ZBAA,2000-03-25 18:00,ZBAA 251800Z AUTO 22004KT 9SM 08/M09 A3000 RMK SLP159 T00841090 57016 IEM_DS3505
ZBAA,2000-03-25 19:00,ZBAA 251900Z AUTO 09004KT 6SM 04/M06 A3000 RMK T00401060 IEM_DS3505
ZBAA,2000-03-25 20:00,ZBAA 252000Z AUTO 11004KT 6SM 02/M06 A2997 RMK T00201060 IEM_DS3505
ZBAA,2000-03-25 21:00,ZBAA 252100Z AUTO 08006KT 12SM 03/M05 A2997 RMK SLP144 T00271054 57015 IEM_DS3505
ZBAA,2000-03-25 22:00,ZBAA 252200Z AUTO 02002KT 6SM 02/M05 A2997 RMK T00201050 IEM_DS3505
ZBAA,2000-03-25 23:00,ZBAA 252300Z AUTO 6SM 02/M04 A2997 RMK T00201040 IEM_DS3505
ZBAA,2000-03-26 00:00,ZBAA 260000Z AUTO 08002KT 4SM 06/M04 A2994 RMK SLP138 T00571041 57006 IEM_DS3505
ZBAA,2000-03-26 01:00,ZBAA 260100Z AUTO 12002KT 5SM 08/M04 A2994 RMK T00801040 IEM_DS3505
ZBAA,2000-03-26 02:00,ZBAA 260200Z AUTO 11004KT 5SM 11/M03 A2991 RMK T01101030 IEM_DS3505
ZBAA,2000-03-26 03:00,ZBAA 260300Z AUTO 13002KT 7SM 16/M06 A2988 RMK SLP116 T01621055 57022 IEM_DS3505
ZBAA,2000-03-26 04:00,ZBAA 260400Z AUTO 18004KT 6SM 18/M06 A2985 RMK T01801060 IEM_DS3505
ZBAA,2000-03-26 05:00,ZBAA 260500Z AUTO 20008KT 6SM 21/M08 A2980 RMK T02101080 IEM_DS3505
ZBAA,2000-03-26 06:00,ZBAA 260600Z AUTO 26012KT 19SM 24/M16 A2974 RMK SLP064 T02401157 57051 IEM_DS3505
ZBAA,2000-03-26 07:00,ZBAA 260700Z AUTO 15006KT 6SM 23/M11 A2971 RMK T02301110 IEM_DS3505
ZBAA,2000-03-26 08:00,ZBAA 260800Z AUTO 6SM 23/M13 A2968 RMK T02301130 IEM_DS3505
ZBAA,2000-03-26 09:00,ZBAA 260900Z AUTO 23008KT 19SM 23/M13 A2965 RMK SLP035 T02301129 57030 IEM_DS3505
ZBAA,2000-03-26 10:00,ZBAA 261000Z AUTO 17006KT 6SM 20/M13 A2962 RMK T02001130 IEM_DS3505
ZBAA,2000-03-26 11:00,ZBAA 261100Z AUTO 20008KT 6SM 20/M12 A2962 RMK T02001120 IEM_DS3505
ZBAA,2000-03-26 12:00,ZBAA 261200Z AUTO 20006KT 7SM 18/M13 A2962 RMK SLP030 T01821126 57005 IEM_DS3505
ZBAA,2000-03-26 13:00,ZBAA 261300Z AUTO 21006KT 6SM 18/M10 A2962 RMK T01801100 IEM_DS3505
ZBAA,2000-03-26 14:00,ZBAA 261400Z AUTO 20010KT 6SM 19/M10 A2959 RMK T01901100 IEM_DS3505
ZBAA,2000-03-26 15:00,ZBAA 261500Z AUTO 22008G25KT 6SM 16/M09 A2956 RMK SLP011 T01641094 57018 IEM_DS3505
ZBAA,2000-03-26 16:00,ZBAA 261600Z AUTO 22010KT 6SM 18/M08 A2953 RMK T01801080 IEM_DS3505
ZBAA,2000-03-26 17:00,ZBAA 261700Z AUTO 21006KT 6SM 17/M08 A2953 RMK T01701080 IEM_DS3505
ZBAA,2000-03-26 18:00,ZBAA 261800Z AUTO 23004KT 6SM 14/M06 A2950 RMK SLP991 T01351061 57020 IEM_DS3505
ZBAA,2000-03-26 19:00,ZBAA 261900Z AUTO 00000KT 5SM 13/M05 A2950 RMK T01301050 IEM_DS3505
ZBAA,2000-03-26 20:00,ZBAA 262000Z AUTO 35002KT 5SM 12/M06 A2947 RMK T01201060 IEM_DS3505
ZBAA,2000-03-26 21:00,ZBAA 262100Z AUTO 28004KT 6SM 13/M06 A2947 RMK SLP971 T01261063 57020 IEM_DS3505
ZBAA,2000-03-26 22:00,ZBAA 262200Z AUTO 33004KT 09/M04 A2947 RMK T00901040 IEM_DS3505
ZBAA,2000-03-26 23:00,ZBAA 262300Z AUTO 31008KT 13/M06 A2947 RMK T01301060 IEM_DS3505
ZBAA,2000-03-27 00:00,ZBAA 270000Z AUTO 29008KT 6SM 18/M10 A2947 RMK SLP977 T01801098 52006 IEM_DS3505
ZBAA,2000-03-27 01:00,ZBAA 270100Z AUTO 31014KT 5SM 18/M07 A2950 RMK T01801070 IEM_DS3505
ZBAA,2000-03-27 02:00,ZBAA 270200Z AUTO 31019KT 6SM 19/M07 A2950 RMK T01901070 IEM_DS3505
ZBAA,2000-03-27 03:00,ZBAA 270300Z AUTO 31019G41KT 4SM 19/M10 A2950 RMK SLP988 T01881101 52011 IEM_DS3505
ZBAA,2000-03-27 04:00,ZBAA 270400Z AUTO 31025G35KT 6SM 18/M09 A2950 RMK T01801090 IEM_DS3505
ZBAA,2000-03-27 05:00,ZBAA 270500Z AUTO 32025G35KT 6SM 18/M08 A2953 RMK T01801080 IEM_DS3505
ZBAA,2000-03-27 06:00,ZBAA 270600Z AUTO 33014KT 7SM 19/M11 A2953 RMK SLP001 T01911109 4////0121 52013 IEM_DS3505
ZBAA,2000-03-27 07:00,ZBAA 270700Z AUTO 32025G37KT 6SM 19/M10 A2956 RMK T01901100 IEM_DS3505
ZBAA,2000-03-27 08:00,ZBAA 270800Z AUTO 31029G43KT 6SM 17/M07 A2959 RMK T01701070 IEM_DS3505
ZBAA,2000-03-27 09:00,ZBAA 270900Z AUTO 34016G41KT 9SM 15/M11 A2965 RMK SLP035 T01521112 52033 IEM_DS3505
ZBAA,2000-03-27 10:00,ZBAA 271000Z AUTO 33025G39KT 6SM 14/M11 A2968 RMK T01401110 IEM_DS3505
ZBAA,2000-03-27 11:00,ZBAA 271100Z AUTO 33021G31KT 6SM 13/M11 A2974 RMK T01301110 IEM_DS3505
ZBAA,2000-03-27 12:00,ZBAA 271200Z AUTO 33016G31KT 7SM 12/M14 A2977 RMK SLP083 T01251142 52048 IEM_DS3505
ZBAA,2000-03-27 13:00,ZBAA 271300Z AUTO 33017G27KT 6SM 12/M12 A2983 RMK T01201120 IEM_DS3505
ZBAA,2000-03-27 14:00,ZBAA 271400Z AUTO 33017KT 6SM 11/M09 A2985 RMK T01101090 IEM_DS3505
ZBAA,2000-03-27 15:00,ZBAA 271500Z AUTO 32014KT 12SM 10/M10 A2988 RMK SLP113 T01041103 52030 IEM_DS3505
ZBAA,2000-03-27 16:00,ZBAA 271600Z AUTO 31016KT 6SM 09/M08 A2988 RMK T00901080 IEM_DS3505
ZBAA,2000-03-27 17:00,ZBAA 271700Z AUTO 31014KT 6SM 09/M08 A2991 RMK T00901080 IEM_DS3505
ZBAA,2000-03-27 18:00,ZBAA 271800Z AUTO 32010KT 16SM 10/M11 A2991 RMK SLP130 T00961110 40194//// 52017 IEM_DS3505
ZBAA,2000-03-27 19:00,ZBAA 271900Z AUTO 31014KT 6SM 09/M09 A2991 RMK T00901090 IEM_DS3505
ZBAA,2000-03-27 20:00,ZBAA 272000Z AUTO 31014KT 6SM 08/M10 A2994 RMK T00801100 IEM_DS3505
ZBAA,2000-03-27 21:00,ZBAA 272100Z AUTO 32008KT 19SM 09/M13 A2994 RMK SLP140 T00891127 52010 IEM_DS3505
ZBAA,2000-03-27 22:00,ZBAA 272200Z AUTO 32012KT 6SM 07/M10 A2997 RMK T00701100 IEM_DS3505
ZBAA,2000-03-27 23:00,ZBAA 272300Z AUTO 33010KT 6SM 07/M11 A3000 RMK T00701110 IEM_DS3505
ZBAA,2000-03-28 00:00,ZBAA 280000Z AUTO 33012KT 19SM 10/M14 A3003 RMK SLP167 T00951142 52026 IEM_DS3505
ZBAA,2000-03-28 01:00,ZBAA 280100Z AUTO 36010KT 6SM 11/M12 A3003 RMK T01101120 IEM_DS3505
ZBAA,2000-03-28 02:00,ZBAA 280200Z AUTO 01014G23KT 6SM 11/M13 A3006 RMK T01101130 IEM_DS3505
ZBAA,2000-03-28 03:00,ZBAA 280300Z AUTO 34008G21KT 12SM 12/M16 A3003 RMK SLP172 T01251160 52006 IEM_DS3505
ZBAA,2000-03-28 04:00,ZBAA 280400Z AUTO 35014KT 6SM 14/M13 A3003 RMK T01401130 IEM_DS3505
ZBAA,2000-03-28 05:00,ZBAA 280500Z AUTO 32019G29KT 6SM 15/M15 A3003 RMK T01501150 IEM_DS3505
ZBAA,2000-03-28 06:00,ZBAA 280600Z AUTO 31019G27KT 12SM 14/M17 A3003 RMK SLP165 T01391171 4////0086 57007 IEM_DS3505
ZBAA,2000-03-28 07:00,ZBAA 280700Z AUTO 32019G33KT 6SM 15/M15 A3003 RMK T01501150 IEM_DS3505
ZBAA,2000-03-28 08:00,ZBAA 280800Z AUTO 32017G27KT 6SM 15/M15 A3003 RMK T01501150 IEM_DS3505
ZBAA,2000-03-28 09:00,ZBAA 280900Z AUTO 35014KT 12SM 15/M17 A3003 RMK SLP174 T01461166 52009 IEM_DS3505
ZBAA,2000-03-28 10:00,ZBAA 281000Z AUTO 33016KT 6SM 14/M16 A3006 RMK T01401160 IEM_DS3505
ZBAA,2000-03-28 11:00,ZBAA 281100Z AUTO 35010KT 6SM 12/M15 A3009 RMK T01201150 IEM_DS3505
ZBAA,2000-03-28 12:00,ZBAA 281200Z AUTO 35008KT 16SM 13/M17 A3012 RMK SLP198 T01261170 52023 IEM_DS3505
ZBAA,2000-03-28 13:00,ZBAA 281300Z AUTO 36006KT 6SM 09/M14 A3015 RMK T00901140 IEM_DS3505
ZBAA,2000-03-28 14:00,ZBAA 281400Z AUTO 02006KT 6SM 09/M13 A3015 RMK T00901130 IEM_DS3505
ZBAA,2000-03-28 15:00,ZBAA 281500Z AUTO 34006KT 12SM 11/M17 A3018 RMK SLP217 T01091173 52019 IEM_DS3505
ZBAA,2000-03-28 16:00,ZBAA 281600Z AUTO 04002KT 6SM 07/M12 A3018 RMK T00701120 IEM_DS3505
ZBAA,2000-03-28 17:00,ZBAA 281700Z AUTO 35006KT 6SM 04/M10 A3018 RMK T00401100 IEM_DS3505
ZBAA,2000-03-28 18:00,ZBAA 281800Z AUTO 00000KT 12SM 08/M13 A3021 RMK SLP225 T00751127 52008 IEM_DS3505
ZBAA,2000-03-28 19:00,ZBAA 281900Z AUTO 35004KT 6SM 04/M09 A3018 RMK T00401090 IEM_DS3505
ZBAA,2000-03-28 20:00,ZBAA 282000Z AUTO 35008KT 6SM 01/M09 A3018 RMK T00101090 IEM_DS3505
ZBAA,2000-03-28 21:00,ZBAA 282100Z AUTO 00000KT 12SM 05/M10 A3018 RMK SLP219 T00531104 57006 IEM_DS3505
ZBAA,2000-03-28 22:00,ZBAA 282200Z AUTO 24002KT 6SM 04/M07 A3018 RMK T00401070 IEM_DS3505
ZBAA,2000-03-28 23:00,ZBAA 282300Z AUTO 03004KT 6SM 05/M06 A3018 RMK T00501060 IEM_DS3505
ZBAA,2000-03-29 00:00,ZBAA 290000Z AUTO 29002KT 6SM 08/M09 A3018 RMK SLP222 T00851094 52003 IEM_DS3505
ZBAA,2000-03-29 01:00,ZBAA 290100Z AUTO 00000KT 6SM 10/M07 A3018 RMK T01001070 IEM_DS3505
ZBAA,2000-03-29 02:00,ZBAA 290200Z AUTO 6SM 12/M11 A3018 RMK T01201110 IEM_DS3505
ZBAA,2000-03-29 03:00,ZBAA 290300Z AUTO 19006KT 12SM 13/M12 A3015 RMK SLP205 T01291115 57017 IEM_DS3505
ZBAA,2000-03-29 04:00,ZBAA 290400Z AUTO 20010KT 6SM 14/M14 A3009 RMK T01401140 IEM_DS3505
ZBAA,2000-03-29 05:00,ZBAA 290500Z AUTO 19012KT 6SM 15/M12 A3006 RMK T01501120 IEM_DS3505
ZBAA,2000-03-29 06:00,ZBAA 290600Z AUTO 22008KT 12SM 16/M12 A3000 RMK SLP162 T01571116 57042 IEM_DS3505
ZBAA,2000-03-29 07:00,ZBAA 290700Z AUTO 22008KT 6SM 16/M11 A2997 RMK T01601110 IEM_DS3505
ZBAA,2000-03-29 08:00,ZBAA 290800Z AUTO 18010KT 6SM 17/M11 A2994 RMK T01701110 IEM_DS3505
ZBAA,2000-03-29 09:00,ZBAA 290900Z AUTO 19008KT 11SM 17/M12 A2991 RMK SLP124 T01691116 57038 IEM_DS3505
ZBAA,2000-03-29 10:00,ZBAA 291000Z AUTO 18008KT 6SM 16/M10 A2988 RMK T01601100 IEM_DS3505
ZBAA,2000-03-29 11:00,ZBAA 291100Z AUTO 15004KT 6SM 14/M09 A2988 RMK T01401090 IEM_DS3505
ZBAA,2000-03-29 12:00,ZBAA 291200Z AUTO 09004KT 7SM 11/M08 A2991 RMK SLP122 T01101077 57003 IEM_DS3505
ZBAA,2000-03-29 13:00,ZBAA 291300Z AUTO 09004KT 6SM 12/M07 A2991 RMK T01201070 IEM_DS3505
ZBAA,2000-03-29 14:00,ZBAA 291400Z AUTO 11004KT 6SM 10/M07 A2991 RMK T01001070 IEM_DS3505
ZBAA,2000-03-29 15:00,ZBAA 291500Z AUTO 10006KT 7SM 09/M04 A2991 RMK SLP124 T00891042 52002 IEM_DS3505
ZBAA,2000-03-29 16:00,ZBAA 291600Z AUTO 10004KT 6SM 08/M01 A2991 RMK T00801010 IEM_DS3505
ZBAA,2000-03-29 17:00,ZBAA 291700Z AUTO 35002KT 6SM 06/M02 A2988 RMK T00601020 IEM_DS3505
ZBAA,2000-03-29 18:00,ZBAA 291800Z AUTO 05006KT 6SM 07/M02 A2988 RMK SLP110 T00691015 57013 IEM_DS3505
ZBAA,2000-03-29 19:00,ZBAA 291900Z AUTO 00000KT 6SM 06/00 A2985 RMK T00600000 IEM_DS3505
ZBAA,2000-03-29 20:00,ZBAA 292000Z AUTO 02002KT 6SM 06/M03 A2985 RMK T00601030 IEM_DS3505
ZBAA,2000-03-29 21:00,ZBAA 292100Z AUTO 02004KT 6SM 07/M03 A2985 RMK SLP104 T00661033 57006 IEM_DS3505
ZBAA,2000-03-29 22:00,ZBAA 292200Z AUTO 32004KT 6SM 07/M03 A2985 RMK T00701030 IEM_DS3505
ZBAA,2000-03-29 23:00,ZBAA 292300Z AUTO 33002KT 6SM 07/M02 A2983 RMK T00701020 IEM_DS3505
ZBAA,2000-03-30 00:00,ZBAA 300000Z AUTO 05006KT 6SM 10/M05 A2985 RMK SLP104 T00951051 54000 IEM_DS3505
ZBAA,2000-03-30 01:00,ZBAA 300100Z AUTO 02002KT 6SM 11/M05 A2985 RMK T01101050 IEM_DS3505
ZBAA,2000-03-30 02:00,ZBAA 300200Z AUTO 6SM 13/M06 A2983 RMK T01301060 IEM_DS3505
ZBAA,2000-03-30 03:00,ZBAA 300300Z AUTO 07008KT 6SM 14/M03 A2983 RMK SLP089 T01381034 57015 IEM_DS3505
ZBAA,2000-03-30 04:00,ZBAA 300400Z AUTO 6SM 17/M03 A2980 RMK T01701030 IEM_DS3505
ZBAA,2000-03-30 05:00,ZBAA 300500Z AUTO 04004KT 5SM 17/M03 A2977 RMK T01701030 IEM_DS3505
ZBAA,2000-03-30 06:00,ZBAA 300600Z AUTO 05006KT 6SM 17/M03 A2974 RMK SLP064 T01741033 57025 IEM_DS3505
ZBAA,2000-03-30 07:00,ZBAA 300700Z AUTO 5SM 18/M03 A2971 RMK T01801030 IEM_DS3505
ZBAA,2000-03-30 08:00,ZBAA 300800Z AUTO 06004KT 5SM 19/M03 A2971 RMK T01901030 IEM_DS3505
ZBAA,2000-03-30 09:00,ZBAA 300900Z AUTO 07006KT 6SM 18/M02 A2971 RMK SLP056 T01781019 57008 IEM_DS3505
ZBAA,2000-03-30 10:00,ZBAA 301000Z AUTO 06002KT 5SM 18/M01 A2974 RMK T01801010 IEM_DS3505
ZBAA,2000-03-30 11:00,ZBAA 301100Z AUTO 14004KT 5SM 15/00 A2974 RMK T01500000 IEM_DS3505
ZBAA,2000-03-30 12:00,ZBAA 301200Z AUTO 09002KT 6SM 13/M01 A2977 RMK SLP073 T01291007 52017 IEM_DS3505
ZBAA,2000-03-30 13:00,ZBAA 301300Z AUTO 00000KT 14/02 A2977 RMK T01400020 IEM_DS3505
ZBAA,2000-03-30 14:00,ZBAA 301400Z AUTO 28004KT 13/00 A2980 RMK T01300000 IEM_DS3505
ZBAA,2000-03-30 15:00,ZBAA 301500Z AUTO 00000KT 5SM 10/M00 A2980 RMK SLP088 T01011001 52015 IEM_DS3505
ZBAA,2000-03-30 16:00,ZBAA 301600Z AUTO 00000KT 3SM 09/02 A2980 RMK T00900020 IEM_DS3505
ZBAA,2000-03-30 17:00,ZBAA 301700Z AUTO 07002KT 3SM 08/03 A2983 RMK T00800030 IEM_DS3505
ZBAA,2000-03-30 18:00,ZBAA 301800Z AUTO 05002KT 3SM 10/M00 A2983 RMK SLP100 T00951001 52012 IEM_DS3505
ZBAA,2000-03-30 19:00,ZBAA 301900Z AUTO 18002KT 2 1/2SM 08/01 A2985 RMK T00800010 IEM_DS3505
ZBAA,2000-03-30 20:00,ZBAA 302000Z AUTO 01002KT 2SM 06/01 A2988 RMK T00600010 IEM_DS3505
ZBAA,2000-03-30 21:00,ZBAA 302100Z AUTO 06002KT 3SM 04/M01 A2988 RMK SLP120 T00401010 52020 IEM_DS3505
ZBAA,2000-03-30 23:00,ZBAA 302300Z AUTO 04004KT 08/M04 A2994 RMK T00801040 IEM_DS3505
ZBAA,2000-03-31 00:00,ZBAA 310000Z AUTO 09006KT 4SM 09/M01 A3000 RMK SLP163 T00911007 52042 IEM_DS3505
ZBAA,2000-03-31 01:00,ZBAA 310100Z AUTO 10006KT 6SM 13/M01 A3003 RMK T01301010 IEM_DS3505
ZBAA,2000-03-31 02:00,ZBAA 310200Z AUTO 11004KT 6SM 15/M03 A3003 RMK T01501030 IEM_DS3505
ZBAA,2000-03-31 03:00,ZBAA 310300Z AUTO 16006KT 6SM 15/M02 A3003 RMK SLP172 T01471018 52010 IEM_DS3505
ZBAA,2000-03-31 04:00,ZBAA 310400Z AUTO 20008KT 6SM 16/M05 A3003 RMK T01601050 IEM_DS3505
ZBAA,2000-03-31 05:00,ZBAA 310500Z AUTO 18006KT 6SM 17/M03 A3000 RMK T01701030 IEM_DS3505
ZBAA,2000-03-31 06:00,ZBAA 310600Z AUTO 22008KT 12SM 18/M04 A2994 RMK SLP144 T01751044 57028 IEM_DS3505
ZBAA,2000-03-31 07:00,ZBAA 310700Z AUTO 20012KT 6SM 18/M03 A2994 RMK T01801030 IEM_DS3505
ZBAA,2000-03-31 08:00,ZBAA 310800Z AUTO 21012KT 6SM 18/M04 A2991 RMK T01801040 IEM_DS3505
ZBAA,2000-03-31 09:00,ZBAA 310900Z AUTO 20008KT 12SM 17/M07 A2994 RMK SLP138 T01681069 57007 IEM_DS3505
ZBAA,2000-03-31 10:00,ZBAA 311000Z AUTO 17016G25KT 6SM 15/M08 A2994 RMK T01501080 IEM_DS3505
ZBAA,2000-03-31 11:00,ZBAA 311100Z AUTO 16010KT 6SM 13/M09 A2997 RMK T01301090 IEM_DS3505
ZBAA,2000-03-31 12:00,ZBAA 311200Z AUTO 16006KT 9SM 12/M10 A3003 RMK SLP166 T01201096 52028 IEM_DS3505
ZBAA,2000-03-31 13:00,ZBAA 311300Z AUTO 12008KT 6SM 09/M07 A3006 RMK T00901070 IEM_DS3505
ZBAA,2000-03-31 14:00,ZBAA 311400Z AUTO 11008KT 6SM 08/M07 A3006 RMK T00801070 IEM_DS3505
ZBAA,2000-03-31 15:00,ZBAA 311500Z AUTO 09004KT 12SM 06/M07 A3009 RMK SLP182 T00631069 52016 IEM_DS3505
ZBAA,2000-03-31 16:00,ZBAA 311600Z AUTO 09004KT 6SM 06/M08 A3009 RMK T00601080 IEM_DS3505
ZBAA,2000-03-31 17:00,ZBAA 311700Z AUTO 06002KT 6SM 05/M07 A3009 RMK T00501070 IEM_DS3505
ZBAA,2000-03-31 18:00,ZBAA 311800Z AUTO 06004KT 9SM 05/M06 A3009 RMK SLP184 T00501056 52002 IEM_DS3505
ZBAA,2000-03-31 19:00,ZBAA 311900Z AUTO 00000KT 6SM 04/M08 A3006 RMK T00401080 IEM_DS3505
ZBAA,2000-03-31 20:00,ZBAA 312000Z AUTO 00000KT 6SM 03/M05 A3006 RMK T00301050 IEM_DS3505
ZBAA,2000-03-31 21:00,ZBAA 312100Z AUTO 04002KT 9SM 04/M06 A3006 RMK SLP173 T00391061 57011 IEM_DS3505
ZBAA,2000-03-31 22:00,ZBAA 312200Z AUTO 00000KT 6SM 04/M06 A3006 RMK T00401060 IEM_DS3505
ZBAA,2000-03-31 23:00,ZBAA 312300Z AUTO 02002KT 6SM 04/M05 A3006 RMK T00401050 IEM_DS3505
ZBAA,2000-04-01 00:00,ZBAA 010000Z AUTO 07004KT 6SM 06/M06 A3006 RMK SLP177 T00571065 52004 IEM_DS3505
ZBAA,2000-04-01 01:00,ZBAA 010100Z AUTO 6SM 08/M07 A3006 RMK T00801070 IEM_DS3505
ZBAA,2000-04-01 02:00,ZBAA 010200Z AUTO 10004KT 6SM 08/M06 A3006 RMK T00801060 IEM_DS3505
ZBAA,2000-04-01 03:00,ZBAA 010300Z AUTO 11002KT 6SM 10/M03 A3003 RMK SLP167 T01021034 57010 IEM_DS3505
ZBAA,2000-04-01 04:00,ZBAA 010400Z AUTO 13006KT 6SM 12/M03 A3000 RMK T01201030 IEM_DS3505
ZBAA,2000-04-01 05:00,ZBAA 010500Z AUTO 13006KT 6SM 13/M02 A2997 RMK T01301020 IEM_DS3505
ZBAA,2000-04-01 06:00,ZBAA 010600Z AUTO 29004KT 6SM 14/M03 A2997 RMK SLP140 T01371026 57027 IEM_DS3505
ZBAA,2000-04-01 07:00,ZBAA 010700Z AUTO 00000KT 6SM 13/M02 A2994 RMK T01301020 IEM_DS3505
ZBAA,2000-04-01 08:00,ZBAA 010800Z AUTO 01004KT 6SM 14/M01 A2994 RMK T01401010 IEM_DS3505
ZBAA,2000-04-01 09:00,ZBAA 010900Z AUTO 02004KT 6SM 14/M03 A2994 RMK SLP137 T01411027 57003 IEM_DS3505
ZBAA,2000-04-01 10:00,ZBAA 011000Z AUTO 01008KT 4SM 11/02 A2997 RMK T01100020 IEM_DS3505
ZBAA,2000-04-01 11:00,ZBAA 011100Z AUTO 01006KT 2 1/2SM 09/06 A2997 RMK T00900060 IEM_DS3505
ZBAA,2000-04-01 12:00,ZBAA 011200Z AUTO 21008KT 6SM 14/M01 A3000 RMK 60003 SLP159 T01401008 52022 IEM_DS3505
ZBAA,2000-04-01 13:00,ZBAA 011300Z AUTO 02002KT 2 1/2SM 08/06 A3003 RMK T00800060 IEM_DS3505
ZBAA,2000-04-01 14:00,ZBAA 011400Z AUTO 08002KT 2 1/2SM 09/06 A3006 RMK T00900060 IEM_DS3505
ZBAA,2000-04-01 15:00,ZBAA 011500Z AUTO 19004KT 9SM 12/M00 A3006 RMK SLP180 T01151003 52021 IEM_DS3505
ZBAA,2000-04-01 16:00,ZBAA 011600Z AUTO 14004KT 10/04 A3006 RMK T01000040 IEM_DS3505
ZBAA,2000-04-01 17:00,ZBAA 011700Z AUTO 16006KT 6SM 11/03 A3006 RMK T01100030 IEM_DS3505
ZBAA,2000-04-01 18:00,ZBAA 011800Z AUTO 17004KT 9SM 10/01 A3006 RMK SLP179 T01000006 54000 IEM_DS3505
ZBAA,2000-04-01 19:00,ZBAA 011900Z AUTO 15006KT 6SM 10/03 A3006 RMK T01000030 IEM_DS3505
ZBAA,2000-04-01 20:00,ZBAA 012000Z AUTO 17004KT 6SM 10/03 A3009 RMK T01000030 IEM_DS3505
ZBAA,2000-04-01 21:00,ZBAA 012100Z AUTO 17002KT 12SM 09/01 A3009 RMK 70003 SLP191 T00920014 52011 IEM_DS3505
ZBAA,2000-04-01 23:00,ZBAA 012300Z AUTO 16002KT 6SM 09/04 A3012 RMK T00900040 IEM_DS3505
ZBAA,2000-04-02 00:00,ZBAA 020000Z AUTO 20002KT 7SM 10/02 A3015 RMK 70003 SLP211 T00950019 52020 IEM_DS3505
ZBAA,2000-04-02 01:00,ZBAA 020100Z AUTO 12008KT 6SM 09/03 A3018 RMK T00900030 IEM_DS3505
ZBAA,2000-04-02 02:00,ZBAA 020200Z AUTO 12006KT 6SM 09/03 A3021 RMK T00900030 IEM_DS3505
ZBAA,2000-04-02 03:00,ZBAA 020300Z AUTO 09004KT 7SM 12/03 A3018 RMK SLP219 T01170027 52008 IEM_DS3505
ZBAA,2000-04-02 04:00,ZBAA 020400Z AUTO 14006KT 5SM 12/04 A3018 RMK T01200040 IEM_DS3505
ZBAA,2000-04-02 05:00,ZBAA 020500Z AUTO 13004KT 5SM 13/04 A3015 RMK T01300040 IEM_DS3505
ZBAA,2000-04-02 06:00,ZBAA 020600Z AUTO 13006KT 9SM 14/03 A3012 RMK SLP200 T01420028 57019 IEM_DS3505
ZBAA,2000-04-02 07:00,ZBAA 020700Z AUTO 13008KT 6SM 14/04 A3009 RMK T01400040 IEM_DS3505
ZBAA,2000-04-02 08:00,ZBAA 020800Z AUTO 18006KT 6SM 15/04 A3009 RMK T01500040 IEM_DS3505
ZBAA,2000-04-02 09:00,ZBAA 020900Z AUTO 13008KT 7SM 14/03 A3009 RMK SLP189 T01390034 57011 IEM_DS3505
ZBAA,2000-04-02 10:00,ZBAA 021000Z AUTO 15006KT 6SM 14/04 A3009 RMK T01400040 IEM_DS3505
ZBAA,2000-04-02 11:00,ZBAA 021100Z AUTO 14006KT 6SM 12/04 A3009 RMK T01200040 IEM_DS3505
ZBAA,2000-04-02 12:00,ZBAA 021200Z AUTO 13008KT 9SM 11/03 A3012 RMK SLP203 T01060029 52014 IEM_DS3505
ZBAA,2000-04-02 13:00,ZBAA 021300Z AUTO 16006KT 6SM 10/05 A3015 RMK T01000050 IEM_DS3505
ZBAA,2000-04-02 14:00,ZBAA 021400Z AUTO 14006KT 6SM 09/04 A3015 RMK T00900040 IEM_DS3505
ZBAA,2000-04-02 15:00,ZBAA 021500Z AUTO 14002KT 11SM 08/02 A3012 RMK SLP205 T00810019 52002 IEM_DS3505
ZBAA,2000-04-02 16:00,ZBAA 021600Z AUTO 6SM 08/04 A3015 RMK T00800040 IEM_DS3505
ZBAA,2000-04-02 17:00,ZBAA 021700Z AUTO 13002KT 6SM 08/05 A3015 RMK T00800050 IEM_DS3505
ZBAA,2000-04-02 18:00,ZBAA 021800Z AUTO 10002KT 6SM 06/02 A3012 RMK SLP191 T00640021 57014 IEM_DS3505
ZBAA,2000-04-02 19:00,ZBAA 021900Z AUTO 12004KT 4SM 06/04 A3009 RMK T00600040 IEM_DS3505
ZBAA,2000-04-02 20:00,ZBAA 022000Z AUTO 08002KT 4SM 06/04 A3006 RMK T00600040 IEM_DS3505
ZBAA,2000-04-02 21:00,ZBAA 022100Z AUTO 08004KT 5SM 05/02 A3006 RMK SLP178 T00490023 57013 IEM_DS3505
ZBAA,2000-04-02 22:00,ZBAA 022200Z AUTO 13002KT 2 1/2SM 06/04 A3006 RMK T00600040 IEM_DS3505
ZBAA,2000-04-02 23:00,ZBAA 022300Z AUTO 13004KT 2 1/2SM 06/04 A3006 RMK T00600040 IEM_DS3505
ZBAA,2000-04-03 00:00,ZBAA 030000Z AUTO 00000KT 3SM 06/03 A3006 RMK SLP180 T00590029 52002 IEM_DS3505
ZBAA,2000-04-03 01:00,ZBAA 030100Z AUTO 17004KT 2 1/2SM 08/05 A3006 RMK T00800050 IEM_DS3505
ZBAA,2000-04-03 02:00,ZBAA 030200Z AUTO 2 1/2SM 09/05 A3006 RMK T00900050 IEM_DS3505
ZBAA,2000-04-03 03:00,ZBAA 030300Z AUTO 13002KT 4SM 11/04 A3003 RMK SLP169 T01090037 57011 IEM_DS3505
ZBAA,2000-04-03 04:00,ZBAA 030400Z AUTO 14004KT 2 1/2SM 12/06 A3000 RMK T01200060 IEM_DS3505
ZBAA,2000-04-03 05:00,ZBAA 030500Z AUTO 15006KT 3SM 14/06 A2997 RMK T01400060 IEM_DS3505
ZBAA,2000-04-03 06:00,ZBAA 030600Z AUTO 22008KT 6SM 18/06 A2991 RMK SLP125 T01750055 57043 IEM_DS3505
ZBAA,2000-04-03 07:00,ZBAA 030700Z AUTO 20004KT 2 1/2SM 17/07 A2988 RMK T01700070 IEM_DS3505
ZBAA,2000-04-03 08:00,ZBAA 030800Z AUTO 3SM 18/07 A2983 RMK T01800070 IEM_DS3505
ZBAA,2000-04-03 09:00,ZBAA 030900Z AUTO 24004KT 5SM 19/06 A2983 RMK SLP092 T01880060 57033 IEM_DS3505
ZBAA,2000-04-03 10:00,ZBAA 031000Z AUTO 09004KT 3SM 17/07 A2980 RMK T01700070 IEM_DS3505
ZBAA,2000-04-03 11:00,ZBAA 031100Z AUTO 35006KT 2SM 15/08 A2980 RMK T01500080 IEM_DS3505
ZBAA,2000-04-03 12:00,ZBAA 031200Z AUTO 00000KT 4SM 15/06 A2983 RMK SLP098 T01470065 52006 IEM_DS3505
ZBAA,2000-04-03 13:00,ZBAA 031300Z AUTO 00000KT 1 1/2SM 13/07 A2983 RMK T01300070 IEM_DS3505
ZBAA,2000-04-03 14:00,ZBAA 031400Z AUTO 00000KT 1 1/2SM 13/07 A2983 RMK T01300070 IEM_DS3505
ZBAA,2000-04-03 15:00,ZBAA 031500Z AUTO 16004KT 6SM 14/02 A2983 RMK SLP091 T01400023 57007 IEM_DS3505
ZBAA,2000-04-03 16:00,ZBAA 031600Z AUTO 10006KT 6SM 12/05 A2983 RMK T01200050 IEM_DS3505
ZBAA,2000-04-03 17:00,ZBAA 031700Z AUTO 09002KT 6SM 11/05 A2983 RMK T01100050 IEM_DS3505
ZBAA,2000-04-03 18:00,ZBAA 031800Z AUTO 27002KT 5SM 13/04 A2985 RMK SLP102 T01280040 52011 IEM_DS3505
ZBAA,2000-04-03 19:00,ZBAA 031900Z AUTO 01004KT 5SM 10/05 A2983 RMK T01000050 IEM_DS3505
ZBAA,2000-04-03 20:00,ZBAA 032000Z AUTO 35006KT 5SM 11/04 A2985 RMK T01100040 IEM_DS3505
ZBAA,2000-04-03 21:00,ZBAA 032100Z AUTO 33010KT 4SM 14/M14 A2988 RMK SLP111 T01451145 52009 IEM_DS3505
ZBAA,2000-04-03 22:00,ZBAA 032200Z AUTO 32025G35KT 3SM 12/M12 A2991 RMK T01201120 IEM_DS3505
ZBAA,2000-04-03 23:00,ZBAA 032300Z AUTO 32031G41KT 6SM 10/M09 A2997 RMK T01001090 IEM_DS3505
ZBAA,2000-04-04 00:00,ZBAA 040000Z AUTO 33014G31KT 5SM 11/M10 A3000 RMK SLP158 T01061096 52047 IEM_DS3505
ZBAA,2000-04-04 01:00,ZBAA 040100Z AUTO 31027G37KT 6SM 12/M08 A3003 RMK T01201080 IEM_DS3505
ZBAA,2000-04-04 02:00,ZBAA 040200Z AUTO 32019G31KT 6SM 13/M09 A3006 RMK T01301090 IEM_DS3505
ZBAA,2000-04-04 03:00,ZBAA 040300Z AUTO 31016G31KT 12SM 13/M10 A3006 RMK SLP182 T01331104 52023 IEM_DS3505
ZBAA,2000-04-04 04:00,ZBAA 040400Z AUTO 31021G31KT 6SM 13/M11 A3006 RMK T01301110 IEM_DS3505
ZBAA,2000-04-04 05:00,ZBAA 040500Z AUTO 31017KT 6SM 14/M12 A3006 RMK T01401120 IEM_DS3505
ZBAA,2000-04-04 06:00,ZBAA 040600Z AUTO 33010KT 16SM 14/M14 A3003 RMK SLP169 T01401139 57012 IEM_DS3505
ZBAA,2000-04-04 07:00,ZBAA 040700Z AUTO 36019KT 6SM 16/M15 A3000 RMK T01601150 IEM_DS3505
ZBAA,2000-04-04 08:00,ZBAA 040800Z AUTO 33021G31KT 6SM 16/M16 A3003 RMK T01601160 IEM_DS3505
ZBAA,2000-04-04 09:00,ZBAA 040900Z AUTO 34012G29KT 19SM 14/M15 A3006 RMK SLP174 T01411148 52005 IEM_DS3505
ZBAA,2000-04-04 10:00,ZBAA 041000Z AUTO 35017KT 6SM 13/M17 A3009 RMK T01301170 IEM_DS3505
ZBAA,2000-04-04 11:00,ZBAA 041100Z AUTO 35016KT 6SM 11/M19 A3009 RMK T01101190 IEM_DS3505
ZBAA,2000-04-04 12:00,ZBAA 041200Z AUTO 34006KT 12SM 12/M19 A3015 RMK SLP209 T01171188 52034 IEM_DS3505
ZBAA,2000-04-04 13:00,ZBAA 041300Z AUTO 33014KT 6SM 10/M20 A3018 RMK T01001200 IEM_DS3505
ZBAA,2000-04-04 14:00,ZBAA 041400Z AUTO 34016G25KT 6SM 10/M19 A3021 RMK T01001190 IEM_DS3505
ZBAA,2000-04-04 15:00,ZBAA 041500Z AUTO 33006G25KT 9SM 09/M20 A3021 RMK SLP234 T00941195 52025 IEM_DS3505
ZBAA,2000-04-04 16:00,ZBAA 041600Z AUTO 33016KT 6SM 09/M20 A3024 RMK T00901200 IEM_DS3505
ZBAA,2000-04-04 17:00,ZBAA 041700Z AUTO 32008KT 6SM 06/M19 A3024 RMK T00601190 IEM_DS3505
ZBAA,2000-04-04 18:00,ZBAA 041800Z AUTO 00000KT 12SM 07/M20 A3024 RMK SLP240 T00741200 52006 IEM_DS3505
ZBAA,2000-04-04 19:00,ZBAA 041900Z AUTO 31010KT 6SM 06/M17 A3024 RMK T00601170 IEM_DS3505
ZBAA,2000-04-04 20:00,ZBAA 042000Z AUTO 31014KT 6SM 06/M17 A3024 RMK T00601170 IEM_DS3505
ZBAA,2000-04-04 21:00,ZBAA 042100Z AUTO 33002KT 9SM 06/M18 A3024 RMK SLP237 T00591179 57003 IEM_DS3505
ZBAA,2000-04-04 23:00,ZBAA 042300Z AUTO 31006KT 6SM 06/M17 A3024 RMK T00601170 IEM_DS3505
ZBAA,2000-04-05 00:00,ZBAA 050000Z AUTO 35002KT 11SM 09/M19 A3024 RMK SLP242 T00891188 52005 IEM_DS3505
ZBAA,2000-04-05 02:00,ZBAA 050200Z AUTO 29010KT 6SM 11/M20 A3021 RMK T01101200 IEM_DS3505
ZBAA,2000-04-05 03:00,ZBAA 050300Z AUTO 22008G16KT 16SM 13/M17 A3018 RMK SLP221 T01261170 57020 IEM_DS3505
ZBAA,2000-04-05 04:00,ZBAA 050400Z AUTO 21008KT 6SM 13/M19 A3015 RMK T01301190 IEM_DS3505
ZBAA,2000-04-05 05:00,ZBAA 050500Z AUTO 22010KT 6SM 14/M18 A3009 RMK T01401180 IEM_DS3505
ZBAA,2000-04-05 06:00,ZBAA 050600Z AUTO 22010KT 19SM 15/M15 A3006 RMK SLP179 T01491152 57043 IEM_DS3505
ZBAA,2000-04-05 08:00,ZBAA 050800Z AUTO 19016KT 6SM 16/M15 A2997 RMK T01601150 IEM_DS3505
ZBAA,2000-04-05 09:00,ZBAA 050900Z AUTO 22010KT 12SM 15/M13 A2994 RMK SLP139 T01531129 57039 IEM_DS3505
ZBAA,2000-04-05 10:00,ZBAA 051000Z AUTO 20016KT 6SM 15/M12 A2991 RMK T01501120 IEM_DS3505
ZBAA,2000-04-05 11:00,ZBAA 051100Z AUTO 19010G21KT 6SM 14/M11 A2991 RMK T01401110 IEM_DS3505
ZBAA,2000-04-05 12:00,ZBAA 051200Z AUTO 21012G21KT 9SM 13/M11 A2994 RMK SLP136 T01271109 57003 IEM_DS3505
ZBAA,2000-04-05 13:00,ZBAA 051300Z AUTO 20010KT 6SM 13/M10 A2994 RMK T01301100 IEM_DS3505
ZBAA,2000-04-05 14:00,ZBAA 051400Z AUTO 20012KT 6SM 12/M08 A2991 RMK T01201080 IEM_DS3505
ZBAA,2000-04-05 15:00,ZBAA 051500Z AUTO 22014KT 7SM 11/M09 RMK SLP129 T01111086 57007 IEM_DS3505
ZBAA,2000-04-05 16:00,ZBAA 051600Z AUTO 20010KT 6SM 11/M08 A2991 RMK T01101080 IEM_DS3505
ZBAA,2000-04-05 17:00,ZBAA 051700Z AUTO 21008KT 6SM 11/M07 A2988 RMK T01101070 IEM_DS3505
ZBAA,2000-04-05 18:00,ZBAA 051800Z AUTO 22012KT 9SM 10/M06 A2988 RMK SLP113 T00991056 57016 IEM_DS3505
ZBAA,2000-04-05 19:00,ZBAA 051900Z AUTO 19004KT 6SM 08/M05 A2985 RMK T00801050 IEM_DS3505
ZBAA,2000-04-05 20:00,ZBAA 052000Z AUTO 14002KT 6SM 05/M04 A2983 RMK T00501040 IEM_DS3505
ZBAA,2000-04-05 21:00,ZBAA 052100Z AUTO 21004KT 7SM 07/M04 A2980 RMK SLP089 T00661041 57024 IEM_DS3505
ZBAA,2000-04-05 22:00,ZBAA 052200Z AUTO 13002KT 6SM 05/M03 A2980 RMK T00501030 IEM_DS3505
ZBAA,2000-04-05 23:00,ZBAA 052300Z AUTO 13004KT 6SM 05/M02 A2980 RMK T00501020 IEM_DS3505
ZBAA,2000-04-06 00:00,ZBAA 060000Z AUTO 20002KT 6SM 07/M03 A2980 RMK SLP090 T00731027 52001 IEM_DS3505
ZBAA,2000-04-06 01:00,ZBAA 060100Z AUTO 09/M01 A2980 RMK T00901010 IEM_DS3505
ZBAA,2000-04-06 02:00,ZBAA 060200Z AUTO 29012KT 4SM 14/M05 A2980 RMK T01401050 IEM_DS3505
ZBAA,2000-04-06 03:00,ZBAA 060300Z AUTO 32010G41KT 2SM 15/M15 A2983 RMK SLP097 T01501151 52007 IEM_DS3505
ZBAA,2000-04-06 04:00,ZBAA 060400Z AUTO 29021G33KT 3SM 16/M22 A2985 RMK T01601220 IEM_DS3505
ZBAA,2000-04-06 05:00,ZBAA 060500Z AUTO 29025G43KT 1 1/2SM 15/M24 A2983 RMK T01501240 IEM_DS3505
ZBAA,2000-04-06 06:00,ZBAA 060600Z AUTO 32008G47KT 2SM 16/M26 A2983 RMK SLP101 T01551263 4////0056 52004 IEM_DS3505
ZBAA,2000-04-06 07:00,ZBAA 060700Z AUTO 30019G39KT 1SM 15/M27 A2985 RMK T01501270 IEM_DS3505
ZBAA,2000-04-06 08:00,ZBAA 060800Z AUTO 31027G41KT 1SM 14/M27 A2985 RMK T01401270 IEM_DS3505
ZBAA,2000-04-06 09:00,ZBAA 060900Z AUTO 32014G39KT 1 1/4SM 14/M27 A2988 RMK SLP117 T01421272 52016 IEM_DS3505
ZBAA,2000-04-06 10:00,ZBAA 061000Z AUTO 31025G35KT 1SM 13/M28 A2991 RMK T01301280 IEM_DS3505
ZBAA,2000-04-06 11:00,ZBAA 061100Z AUTO 31017KT 1SM 13/M28 A2994 RMK T01301280 IEM_DS3505
ZBAA,2000-04-06 12:00,ZBAA 061200Z AUTO 31017G27KT 1 1/4SM 12/M28 A2997 RMK SLP150 T01251284 52032 IEM_DS3505
ZBAA,2000-04-06 13:00,ZBAA 061300Z AUTO 31019G29KT 1SM 12/M29 A3000 RMK T01201290 IEM_DS3505
ZBAA,2000-04-06 14:00,ZBAA 061400Z AUTO 33016KT 1 1/2SM 12/M27 A3003 RMK T01201270 IEM_DS3505
ZBAA,2000-04-06 15:00,ZBAA 061500Z AUTO 32006KT 2SM 12/M27 A3006 RMK SLP177 T01161266 52028 IEM_DS3505
ZBAA,2000-04-06 16:00,ZBAA 061600Z AUTO 01004KT 3SM 09/M24 A3006 RMK T00901240 IEM_DS3505
ZBAA,2000-04-06 17:00,ZBAA 061700Z AUTO 30010G23KT 3SM 10/M26 A3006 RMK T01001260 IEM_DS3505
ZBAA,2000-04-06 18:00,ZBAA 061800Z AUTO 32006KT 6SM 11/M22 A3006 RMK SLP176 T01061222 40163//// 57001 IEM_DS3505
ZBAA,2000-04-06 19:00,ZBAA 061900Z AUTO 28010KT 6SM 09/M21 A3003 RMK T00901210 IEM_DS3505
ZBAA,2000-04-06 20:00,ZBAA 062000Z AUTO 27008KT 6SM 09/M20 A3003 RMK T00901200 IEM_DS3505
ZBAA,2000-04-06 21:00,ZBAA 062100Z AUTO 25004KT 11SM 08/M20 A3003 RMK SLP168 T00801205 57009 IEM_DS3505
ZBAA,2000-04-06 22:00,ZBAA 062200Z AUTO 26006KT 6SM 09/M20 A3003 RMK T00901200 IEM_DS3505
ZBAA,2000-04-06 23:00,ZBAA 062300Z AUTO 26006KT 6SM 10/M20 A3003 RMK T01001200 IEM_DS3505
ZBAA,2000-04-07 00:00,ZBAA 070000Z AUTO 22004KT 5SM 10/M14 A3006 RMK SLP184 T00951135 52016 IEM_DS3505
ZBAA,2000-04-07 01:00,ZBAA 070100Z AUTO 30012KT 6SM 15/M18 A3009 RMK T01501180 IEM_DS3505
ZBAA,2000-04-07 02:00,ZBAA 070200Z AUTO 02008KT 6SM 16/M17 A3009 RMK T01601170 IEM_DS3505
ZBAA,2000-04-07 03:00,ZBAA 070300Z AUTO 22004KT 4SM 16/M12 A3009 RMK SLP192 T01581125 52009 IEM_DS3505
ZBAA,2000-04-07 04:00,ZBAA 070400Z AUTO 35006KT 6SM 17/M16 A3009 RMK T01701160 IEM_DS3505
ZBAA,2000-04-07 05:00,ZBAA 070500Z AUTO 6SM 19/M16 A3006 RMK T01901160 IEM_DS3505
ZBAA,2000-04-07 06:00,ZBAA 070600Z AUTO 31004KT 7SM 19/M15 A3006 RMK SLP172 T01881146 57020 IEM_DS3505
ZBAA,2000-04-07 07:00,ZBAA 070700Z AUTO 05006KT 6SM 18/M14 A3003 RMK T01801140 IEM_DS3505
ZBAA,2000-04-07 08:00,ZBAA 070800Z AUTO 6SM 19/M15 A3003 RMK T01901150 IEM_DS3505
ZBAA,2000-04-07 09:00,ZBAA 070900Z AUTO 12008KT 16SM 18/M10 A3003 RMK SLP167 T01751102 57005 IEM_DS3505
ZBAA,2000-04-07 10:00,ZBAA 071000Z AUTO 10008KT 6SM 17/M14 A3003 RMK T01701140 IEM_DS3505
ZBAA,2000-04-07 11:00,ZBAA 071100Z AUTO 09004KT 6SM 15/M12 A3006 RMK T01501120 IEM_DS3505
ZBAA,2000-04-07 12:00,ZBAA 071200Z AUTO 12006KT 9SM 12/M06 A3009 RMK SLP186 T01211058 52018 IEM_DS3505
ZBAA,2000-04-07 13:00,ZBAA 071300Z AUTO 12002KT 6SM 11/M08 A3009 RMK T01101080 IEM_DS3505
ZBAA,2000-04-07 14:00,ZBAA 071400Z AUTO 11004KT 6SM 11/M06 A3012 RMK T01101060 IEM_DS3505
ZBAA,2000-04-07 15:00,ZBAA 071500Z AUTO 10006KT 6SM 10/M07 A3012 RMK SLP199 T01001067 52013 IEM_DS3505
ZBAA,2000-04-07 16:00,ZBAA 071600Z AUTO 11006KT 6SM 10/M07 A3015 RMK T01001070 IEM_DS3505
ZBAA,2000-04-07 17:00,ZBAA 071700Z AUTO 12006KT 6SM 08/M06 A3015 RMK T00801060 IEM_DS3505
ZBAA,2000-04-07 18:00,ZBAA 071800Z AUTO 10006KT 7SM 07/M02 A3012 RMK SLP200 T00661023 52002 IEM_DS3505
ZBAA,2000-04-07 19:00,ZBAA 071900Z AUTO 14004KT 6SM 07/M03 A3012 RMK T00701030 IEM_DS3505
ZBAA,2000-04-07 20:00,ZBAA 072000Z AUTO 14004KT 6SM 06/M03 A3015 RMK T00601030 IEM_DS3505
ZBAA,2000-04-07 21:00,ZBAA 072100Z AUTO 06004KT 6SM 04/M03 A3012 RMK SLP198 T00421033 57003 IEM_DS3505
ZBAA,2000-04-07 22:00,ZBAA 072200Z AUTO 12002KT 6SM 05/M05 A3012 RMK T00501050 IEM_DS3505
ZBAA,2000-04-07 23:00,ZBAA 072300Z AUTO 00000KT 5SM 06/M06 A3012 RMK T00601060 IEM_DS3505
ZBAA,2000-04-08 00:00,ZBAA 080000Z AUTO 08004KT 6SM 07/M03 A3012 RMK SLP192 T00741026 57006 IEM_DS3505
ZBAA,2000-04-08 01:00,ZBAA 080100Z AUTO 14006KT 10/M03 A3009 RMK T01001030 IEM_DS3505
ZBAA,2000-04-08 02:00,ZBAA 080200Z AUTO 13006KT 6SM 12/M01 A3006 RMK T01201010 IEM_DS3505
ZBAA,2000-04-08 03:00,ZBAA 080300Z AUTO 15004KT 6SM 13/M02 A3003 RMK SLP171 T01311020 57020 IEM_DS3505
ZBAA,2000-04-08 04:00,ZBAA 080400Z AUTO 16008KT 15/M01 A3000 RMK T01501010 IEM_DS3505
ZBAA,2000-04-08 05:00,ZBAA 080500Z AUTO 19012KT 16/M01 A2997 RMK T01601010 IEM_DS3505
ZBAA,2000-04-08 06:00,ZBAA 080600Z AUTO 21010KT 5SM 18/M01 A2994 RMK SLP133 T01761006 57038 IEM_DS3505
ZBAA,2000-04-08 07:00,ZBAA 080700Z AUTO 20008KT 18/01 A2988 RMK T01800010 IEM_DS3505
ZBAA,2000-04-08 08:00,ZBAA 080800Z AUTO 19008KT 3SM 18/01 A2985 RMK T01800010 IEM_DS3505
ZBAA,2000-04-08 09:00,ZBAA 080900Z AUTO 23004KT 5SM 18/M04 A2985 RMK SLP106 T01831043 57027 IEM_DS3505
ZBAA,2000-04-08 10:00,ZBAA 081000Z AUTO 2 1/2SM 18/00 A2983 RMK T01800000 IEM_DS3505
ZBAA,2000-04-08 11:00,ZBAA 081100Z AUTO 23004KT 2 1/2SM 17/00 A2983 RMK T01700000 IEM_DS3505
ZBAA,2000-04-08 12:00,ZBAA 081200Z AUTO 12004KT 6SM 14/02 A2983 RMK SLP096 T01370020 57010 IEM_DS3505
ZBAA,2000-04-08 13:00,ZBAA 081300Z AUTO 14004KT 2 1/2SM 15/02 A2983 RMK T01500020 IEM_DS3505
ZBAA,2000-04-08 14:00,ZBAA 081400Z AUTO 12006KT 2 1/2SM 15/03 A2983 RMK T01500030 IEM_DS3505
ZBAA,2000-04-08 15:00,ZBAA 081500Z AUTO 13006KT 7SM 13/02 A2980 RMK SLP086 T01330020 57010 IEM_DS3505
ZBAA,2000-04-08 16:00,ZBAA 081600Z AUTO 11004KT 12/03 A2980 RMK T01200030 IEM_DS3505
ZBAA,2000-04-08 17:00,ZBAA 081700Z AUTO 12006KT 12/03 A2977 RMK T01200030 IEM_DS3505
ZBAA,2000-04-08 18:00,ZBAA 081800Z AUTO 10004KT 6SM 10/03 A2974 RMK SLP071 T01040028 57015 IEM_DS3505
ZBAA,2000-04-08 19:00,ZBAA 081900Z AUTO 13004KT 6SM 12/03 A2974 RMK T01200030 IEM_DS3505
ZBAA,2000-04-08 20:00,ZBAA 082000Z AUTO 34002KT 6SM 10/03 A2977 RMK T01000030 IEM_DS3505
ZBAA,2000-04-08 21:00,ZBAA 082100Z AUTO 35002KT 6SM 11/02 A2977 RMK SLP073 T01060025 52002 IEM_DS3505
ZBAA,2000-04-08 22:00,ZBAA 082200Z AUTO 03004KT 6SM 11/04 A2977 RMK T01100040 IEM_DS3505
ZBAA,2000-04-08 23:00,ZBAA 082300Z AUTO 01002KT 5SM 11/04 A2977 RMK T01100040 IEM_DS3505
ZBAA,2000-04-09 00:00,ZBAA 090000Z AUTO 35010KT 5SM 14/M03 A2980 RMK SLP081 T01351032 52008 IEM_DS3505
ZBAA,2000-04-09 01:00,ZBAA 090100Z AUTO 33014KT 6SM 13/00 A2983 RMK T01300000 IEM_DS3505
ZBAA,2000-04-09 02:00,ZBAA 090200Z AUTO 35014KT 6SM 12/01 A2988 RMK T01200010 IEM_DS3505
ZBAA,2000-04-09 03:00,ZBAA 090300Z AUTO 34012G33KT 6SM 08/M04 A2994 RMK SLP129 T00841037 52047 IEM_DS3505
ZBAA,2000-04-09 04:00,ZBAA 090400Z AUTO 03012KT 6SM 08/01 A2997 RMK T00800010 IEM_DS3505
ZBAA,2000-04-09 05:00,ZBAA 090500Z AUTO 32033G51KT 4SM 09/M11 A3000 RMK T00901110 IEM_DS3505
ZBAA,2000-04-09 06:00,ZBAA 090600Z AUTO 33016G51KT 7SM 07/M11 A3000 RMK 60003 SLP165 T00731113 4////0073 52036 IEM_DS3505
ZBAA,2000-04-09 07:00,ZBAA 090700Z AUTO 32037G51KT 2 1/2SM 09/M21 A3003 RMK T00901210 IEM_DS3505
ZBAA,2000-04-09 08:00,ZBAA 090800Z AUTO 34025G41KT 5SM 09/M21 A3006 RMK T00901210 IEM_DS3505
ZBAA,2000-04-09 09:00,ZBAA 090900Z AUTO 33014G33KT 9SM 08/M21 A3009 RMK SLP190 T00841213 52025 IEM_DS3505
ZBAA,2000-04-09 10:00,ZBAA 091000Z AUTO 34019G31KT 5SM 08/M22 A3012 RMK T00801220 IEM_DS3505
ZBAA,2000-04-09 11:00,ZBAA 091100Z AUTO 35014KT 6SM 07/M23 A3018 RMK T00701230 IEM_DS3505
ZBAA,2000-04-09 12:00,ZBAA 091200Z AUTO 31014KT 6SM 08/M23 A3021 RMK SLP229 T00791229 52039 IEM_DS3505
ZBAA,2000-04-09 13:00,ZBAA 091300Z AUTO 33014G23KT 3SM 08/M25 A3024 RMK T00801250 IEM_DS3505
ZBAA,2000-04-09 14:00,ZBAA 091400Z AUTO 34012G23KT 3SM 08/M23 A3024 RMK T00801230 IEM_DS3505
ZBAA,2000-04-09 15:00,ZBAA 091500Z AUTO 32006KT 6SM 08/M22 A3021 RMK SLP231 T00761219 52002 IEM_DS3505
ZBAA,2000-04-09 16:00,ZBAA 091600Z AUTO 25002KT 3SM 07/M23 A3021 RMK T00701230 IEM_DS3505
ZBAA,2000-04-09 17:00,ZBAA 091700Z AUTO 3SM 05/M14 A3018 RMK T00501140 IEM_DS3505
ZBAA,2000-04-09 18:00,ZBAA 091800Z AUTO 23006KT 6SM 06/M19 A3015 RMK SLP213 T00551190 57018 IEM_DS3505
ZBAA,2000-04-09 19:00,ZBAA 091900Z AUTO 21002KT 2 1/2SM 05/M16 A3015 RMK T00501160 IEM_DS3505
ZBAA,2000-04-09 20:00,ZBAA 092000Z AUTO 21004KT 2 1/2SM 04/M14 A3012 RMK T00401140 IEM_DS3505
ZBAA,2000-04-09 21:00,ZBAA 092100Z AUTO 20002KT 6SM 03/M15 A3012 RMK 70003 SLP200 T00311149 57013 IEM_DS3505
ZBAA,2000-04-09 22:00,ZBAA 092200Z AUTO 00000KT 2 1/2SM 01/M11 A3012 RMK T00101110 IEM_DS3505
ZBAA,2000-04-09 23:00,ZBAA 092300Z AUTO 01004KT 2SM 02/M12 A3015 RMK T00201120 IEM_DS3505
ZBAA,2000-04-10 00:00,ZBAA 100000Z AUTO 19002KT 4SM 06/M12 A3015 RMK 70003 SLP208 T00601120 52008 IEM_DS3505
ZBAA,2000-04-10 01:00,ZBAA 100100Z AUTO 04002KT 2SM 08/M12 A3015 RMK T00801120 IEM_DS3505
ZBAA,2000-04-10 02:00,ZBAA 100200Z AUTO 22006KT 3SM 12/M13 A3015 RMK T01201130 IEM_DS3505
ZBAA,2000-04-10 03:00,ZBAA 100300Z AUTO 21006KT 9SM 13/M13 A3012 RMK SLP197 T01341134 57010 IEM_DS3505
ZBAA,2000-04-10 04:00,ZBAA 100400Z AUTO 27014KT 6SM 16/M12 A3006 RMK T01601120 IEM_DS3505
ZBAA,2000-04-10 05:00,ZBAA 100500Z AUTO 27017G27KT 6SM 17/M12 A3003 RMK T01701120 IEM_DS3505
ZBAA,2000-04-10 06:00,ZBAA 100600Z AUTO 24008KT 12SM 17/M12 A3000 RMK SLP167 T01711124 57030 IEM_DS3505
ZBAA,2000-04-10 07:00,ZBAA 100700Z AUTO 27016KT 6SM 19/M12 A2997 RMK T01901120 IEM_DS3505
ZBAA,2000-04-10 08:00,ZBAA 100800Z AUTO 29014G23KT 6SM 20/M11 A2994 RMK T02001110 IEM_DS3505
ZBAA,2000-04-10 09:00,ZBAA 100900Z AUTO 23006G23KT 12SM 18/M10 A2994 RMK SLP142 T01831096 57025 IEM_DS3505
ZBAA,2000-04-10 10:00,ZBAA 101000Z AUTO 28010KT 6SM 19/M13 A2991 RMK T01901130 IEM_DS3505
ZBAA,2000-04-10 11:00,ZBAA 101100Z AUTO 28006KT 6SM 18/M12 A2991 RMK T01801120 IEM_DS3505
ZBAA,2000-04-10 12:00,ZBAA 101200Z AUTO 23006KT 9SM 15/M08 A2994 RMK SLP143 T01481085 54000 IEM_DS3505
ZBAA,2000-04-10 13:00,ZBAA 101300Z AUTO 24006KT 6SM 15/M10 A2997 RMK T01501100 IEM_DS3505
ZBAA,2000-04-10 14:00,ZBAA 101400Z AUTO 23006KT 6SM 15/M09 A2994 RMK T01501090 IEM_DS3505
ZBAA,2000-04-10 15:00,ZBAA 101500Z AUTO 23008KT 9SM 12/M06 A2994 RMK SLP142 T01181065 54000 IEM_DS3505
ZBAA,2000-04-10 16:00,ZBAA 101600Z AUTO 22004KT 6SM 10/M06 A2994 RMK T01001060 IEM_DS3505
ZBAA,2000-04-10 17:00,ZBAA 101700Z AUTO 00000KT 6SM 09/M05 A2991 RMK T00901050 IEM_DS3505
ZBAA,2000-04-10 18:00,ZBAA 101800Z AUTO 23006KT 9SM 09/M04 A2991 RMK SLP131 T00901042 57011 IEM_DS3505
ZBAA,2000-04-10 19:00,ZBAA 101900Z AUTO 00000KT 5SM 06/M03 A2991 RMK T00601030 IEM_DS3505
ZBAA,2000-04-10 20:00,ZBAA 102000Z AUTO 00000KT 04/M03 A2991 RMK T00401030 IEM_DS3505
ZBAA,2000-04-10 21:00,ZBAA 102100Z AUTO 25002KT 9SM 06/M03 A2991 RMK SLP125 T00621034 57006 IEM_DS3505
ZBAA,2000-04-10 22:00,ZBAA 102200Z AUTO 12002KT 4SM 03/M02 A2991 RMK T00301020 IEM_DS3505
ZBAA,2000-04-10 23:00,ZBAA 102300Z AUTO 00000KT 06/M01 A2991 RMK T00601010 IEM_DS3505
ZBAA,2000-04-11 00:00,ZBAA 110000Z AUTO 21004KT 5SM 10/M02 A2988 RMK SLP121 T01031020 57004 IEM_DS3505
ZBAA,2000-04-11 01:00,ZBAA 110100Z AUTO 13/M01 A2988 RMK T01301010 IEM_DS3505
ZBAA,2000-04-11 02:00,ZBAA 110200Z AUTO 6SM 18/M04 A2985 RMK T01801040 IEM_DS3505
ZBAA,2000-04-11 03:00,ZBAA 110300Z AUTO 13004KT 6SM 20/M02 A2983 RMK SLP097 T01971025 57024 IEM_DS3505
ZBAA,2000-04-11 04:00,ZBAA 110400Z AUTO 26008KT 6SM 23/M11 A2977 RMK T02301110 IEM_DS3505
ZBAA,2000-04-11 05:00,ZBAA 110500Z AUTO 25006KT 6SM 24/M12 A2974 RMK T02401120 IEM_DS3505
ZBAA,2000-04-11 06:00,ZBAA 110600Z AUTO 17006KT 12SM 24/M09 A2971 RMK SLP056 T02351086 57040 IEM_DS3505
ZBAA,2000-04-11 07:00,ZBAA 110700Z AUTO 20010G21KT 6SM 24/M11 A2965 RMK T02401110 IEM_DS3505
ZBAA,2000-04-11 08:00,ZBAA 110800Z AUTO 19012KT 6SM 24/M11 A2962 RMK T02401110 IEM_DS3505
ZBAA,2000-04-11 09:00,ZBAA 110900Z AUTO 22008KT 12SM 22/M05 A2962 RMK SLP032 T02231047 57025 IEM_DS3505
ZBAA,2000-04-11 10:00,ZBAA 111000Z AUTO 21012KT 6SM 22/M06 A2962 RMK T02201060 IEM_DS3505
ZBAA,2000-04-11 11:00,ZBAA 111100Z AUTO 22012KT 6SM 21/M06 A2962 RMK T02101060 IEM_DS3505
ZBAA,2000-04-11 12:00,ZBAA 111200Z AUTO 19004KT 6SM 19/M03 A2962 RMK SLP032 T01861029 54000 IEM_DS3505
ZBAA,2000-04-11 13:00,ZBAA 111300Z AUTO 21012KT 6SM 20/M01 A2962 RMK T02001010 IEM_DS3505
ZBAA,2000-04-11 14:00,ZBAA 111400Z AUTO 22010KT 6SM 19/M01 A2962 RMK T01901010 IEM_DS3505
ZBAA,2000-04-11 15:00,ZBAA 111500Z AUTO 24004KT 6SM 15/M01 A2962 RMK SLP022 T01541012 57009 IEM_DS3505
ZBAA,2000-04-11 16:00,ZBAA 111600Z AUTO 14002KT 6SM 14/01 A2959 RMK T01400010 IEM_DS3505
ZBAA,2000-04-11 17:00,ZBAA 111700Z AUTO 09002KT 6SM 12/02 A2959 RMK T01200020 IEM_DS3505
ZBAA,2000-04-11 18:00,ZBAA 111800Z AUTO 12002KT 6SM 10/00 A2956 RMK SLP011 T00990005 57011 IEM_DS3505
ZBAA,2000-04-11 19:00,ZBAA 111900Z AUTO 36002KT 6SM 10/01 A2956 RMK T01000010 IEM_DS3505
ZBAA,2000-04-11 20:00,ZBAA 112000Z AUTO 36002KT 6SM 08/00 A2956 RMK T00800000 IEM_DS3505
ZBAA,2000-04-11 21:00,ZBAA 112100Z AUTO 00000KT 4SM 08/01 A2956 RMK SLP005 T00770007 57006 IEM_DS3505
ZBAA,2000-04-11 22:00,ZBAA 112200Z AUTO 34004KT 09/00 A2956 RMK T00900000 IEM_DS3505
ZBAA,2000-04-11 23:00,ZBAA 112300Z AUTO 35004KT 10/00 A2959 RMK T01000000 IEM_DS3505
ZBAA,2000-04-12 00:00,ZBAA 120000Z AUTO 09002KT 3SM 14/02 A2959 RMK SLP014 T01450021 52009 IEM_DS3505
ZBAA,2000-04-12 01:00,ZBAA 120100Z AUTO 36004KT 6SM 18/M01 A2959 RMK T01801010 IEM_DS3505
ZBAA,2000-04-12 02:00,ZBAA 120200Z AUTO 05004KT 6SM 20/00 A2959 RMK T02000000 IEM_DS3505
ZBAA,2000-04-12 03:00,ZBAA 120300Z AUTO 23002KT 4SM 23/00 A2956 RMK SLP010 T02320004 57004 IEM_DS3505
ZBAA,2000-04-12 04:00,ZBAA 120400Z AUTO 28006KT 6SM 27/M05 A2953 RMK T02701050 IEM_DS3505
ZBAA,2000-04-12 05:00,ZBAA 120500Z AUTO 27008G17KT 6SM 29/M12 A2950 RMK T02901120 IEM_DS3505
ZBAA,2000-04-12 06:00,ZBAA 120600Z AUTO 29008KT 6SM 29/M08 A2950 RMK SLP988 T02901085 57022 IEM_DS3505
ZBAA,2000-04-12 07:00,ZBAA 120700Z AUTO 26010KT 6SM 29/M12 A2947 RMK T02901120 IEM_DS3505
ZBAA,2000-04-12 08:00,ZBAA 120800Z AUTO 26010G19KT 6SM 30/M11 A2947 RMK T03001110 IEM_DS3505
ZBAA,2000-04-12 09:00,ZBAA 120900Z AUTO 28014KT 19SM 29/M12 A2947 RMK SLP981 T02891122 57007 IEM_DS3505
ZBAA,2000-04-12 10:00,ZBAA 121000Z AUTO 11012G23KT 4SM 22/07 A2953 RMK T02200070 IEM_DS3505
ZBAA,2000-04-12 11:00,ZBAA 121100Z AUTO 13012KT 5SM 19/04 A2959 RMK T01900040 IEM_DS3505
ZBAA,2000-04-12 12:00,ZBAA 121200Z AUTO 10006KT 6SM 16/02 A2968 RMK SLP043 T01550020 52061 IEM_DS3505
ZBAA,2000-04-12 13:00,ZBAA 121300Z AUTO 6SM 17/03 A2971 RMK T01700030 IEM_DS3505
ZBAA,2000-04-12 14:00,ZBAA 121400Z AUTO 17004KT 6SM 15/03 A2974 RMK T01500030 IEM_DS3505
ZBAA,2000-04-12 15:00,ZBAA 121500Z AUTO 07006KT 6SM 15/02 A2980 RMK SLP081 T01490015 52038 IEM_DS3505
ZBAA,2000-04-12 16:00,ZBAA 121600Z AUTO 26002KT 6SM 16/04 A2977 RMK T01600040 IEM_DS3505
ZBAA,2000-04-12 17:00,ZBAA 121700Z AUTO 25002KT 6SM 15/04 A2980 RMK T01500040 IEM_DS3505
ZBAA,2000-04-12 18:00,ZBAA 121800Z AUTO 00000KT 6SM 13/00 RMK SLP085 T01340005 52005 IEM_DS3505
ZBAA,2000-04-12 19:00,ZBAA 121900Z AUTO 6SM 13/04 A2980 RMK T01300040 IEM_DS3505
ZBAA,2000-04-12 20:00,ZBAA 122000Z AUTO 01006KT 13/03 A2983 RMK T01300030 IEM_DS3505
ZBAA,2000-04-12 21:00,ZBAA 122100Z AUTO 02004KT 6SM 15/M02 A2985 RMK SLP104 T01461023 52019 IEM_DS3505
ZBAA,2000-04-12 22:00,ZBAA 122200Z AUTO 03006KT 6SM 15/M07 A2991 RMK T01501070 IEM_DS3505
ZBAA,2000-04-12 23:00,ZBAA 122300Z AUTO 03012G25KT 6SM 14/M12 A2994 RMK T01401120 IEM_DS3505
ZBAA,2000-04-13 00:00,ZBAA 130000Z AUTO 04010G19KT 9SM 14/M14 A2997 RMK SLP142 T01421137 52037 IEM_DS3505
ZBAA,2000-04-13 01:00,ZBAA 130100Z AUTO 03012KT 6SM 14/M11 A2997 RMK T01401110 IEM_DS3505
ZBAA,2000-04-13 02:00,ZBAA 130200Z AUTO 03008KT 6SM 14/M11 A3000 RMK T01401110 IEM_DS3505
ZBAA,2000-04-13 03:00,ZBAA 130300Z AUTO 04006KT 12SM 15/M13 A3000 RMK SLP162 T01511130 52020 IEM_DS3505
ZBAA,2000-04-13 04:00,ZBAA 130400Z AUTO 02008KT 6SM 16/M12 A3000 RMK T01601120 IEM_DS3505
ZBAA,2000-04-13 05:00,ZBAA 130500Z AUTO 01010KT 6SM 16/M14 A3000 RMK T01601140 IEM_DS3505
ZBAA,2000-04-13 06:00,ZBAA 130600Z AUTO 35008G17KT 12SM 17/M16 A3000 RMK SLP152 T01691161 57010 IEM_DS3505
ZBAA,2000-04-13 07:00,ZBAA 130700Z AUTO 03008KT 7SM 16/M11 A2997 RMK T01601110 IEM_DS3505
ZBAA,2000-04-13 08:00,ZBAA 130800Z AUTO 03006KT 7SM 16/M10 A2997 RMK T01601100 IEM_DS3505
ZBAA,2000-04-13 09:00,ZBAA 130900Z AUTO 05006KT 12SM 16/M13 A3000 RMK SLP162 T01561126 52010 IEM_DS3505
ZBAA,2000-04-13 10:00,ZBAA 131000Z AUTO 06002KT 7SM 15/M10 A3003 RMK T01501100 IEM_DS3505
ZBAA,2000-04-13 11:00,ZBAA 131100Z AUTO 02004KT 7SM 15/M09 A3003 RMK T01501090 IEM_DS3505
ZBAA,2000-04-13 12:00,ZBAA 131200Z AUTO 36002KT 12SM 14/M12 A3006 RMK SLP181 T01451117 52019 IEM_DS3505
ZBAA,2000-04-13 13:00,ZBAA 131300Z AUTO 36008KT 6SM 14/M14 A3009 RMK T01401140 IEM_DS3505
ZBAA,2000-04-13 14:00,ZBAA 131400Z AUTO 34006KT 6SM 13/M13 A3012 RMK T01301130 IEM_DS3505
ZBAA,2000-04-13 15:00,ZBAA 131500Z AUTO 31002KT 7SM 14/M15 A3009 RMK SLP194 T01381150 52013 IEM_DS3505
ZBAA,2000-04-13 16:00,ZBAA 131600Z AUTO 30006KT 6SM 12/M13 A3009 RMK T01201130 IEM_DS3505
ZBAA,2000-04-13 17:00,ZBAA 131700Z AUTO 31006KT 6SM 12/M14 A3009 RMK T01201140 IEM_DS3505
ZBAA,2000-04-13 18:00,ZBAA 131800Z AUTO 34002KT 9SM 13/M16 A3009 RMK SLP185 T01301156 57009 IEM_DS3505
ZBAA,2000-04-13 19:00,ZBAA 131900Z AUTO 32008KT 6SM 11/M13 A3009 RMK T01101130 IEM_DS3505
ZBAA,2000-04-13 20:00,ZBAA 132000Z AUTO 32008KT 6SM 11/M13 A3009 RMK T01101130 IEM_DS3505
ZBAA,2000-04-13 21:00,ZBAA 132100Z AUTO 32002KT 9SM 12/M15 A3009 RMK SLP186 T01231152 52001 IEM_DS3505
ZBAA,2000-04-13 22:00,ZBAA 132200Z AUTO 35004KT 6SM 09/M10 A3009 RMK T00901100 IEM_DS3505
ZBAA,2000-04-13 23:00,ZBAA 132300Z AUTO 35004KT 6SM 10/M09 A3009 RMK T01001090 IEM_DS3505
ZBAA,2000-04-14 00:00,ZBAA 140000Z AUTO 33004KT 11SM 15/M13 A3009 RMK SLP193 T01461134 52007 IEM_DS3505
ZBAA,2000-04-14 01:00,ZBAA 140100Z AUTO 35006KT 6SM 15/M09 A3009 RMK T01501090 IEM_DS3505
ZBAA,2000-04-14 02:00,ZBAA 140200Z AUTO 32006KT 6SM 17/M10 A3012 RMK T01701100 IEM_DS3505
ZBAA,2000-04-14 03:00,ZBAA 140300Z AUTO 29004KT 16SM 17/M11 A3009 RMK SLP192 T01721114 57001 IEM_DS3505
ZBAA,2000-04-14 04:00,ZBAA 140400Z AUTO 26006KT 6SM 18/M10 A3006 RMK T01801100 IEM_DS3505
ZBAA,2000-04-14 05:00,ZBAA 140500Z AUTO 27008KT 6SM 19/M12 A3003 RMK T01901120 IEM_DS3505
ZBAA,2000-04-14 06:00,ZBAA 140600Z AUTO 01004KT 19SM 19/M13 A3000 RMK SLP161 T01931130 57031 IEM_DS3505
ZBAA,2000-04-14 07:00,ZBAA 140700Z AUTO 27012KT 6SM 20/M11 A2997 RMK T02001110 IEM_DS3505
ZBAA,2000-04-14 08:00,ZBAA 140800Z AUTO 9SM RMK IEM_DS3505
ZBAA,2000-04-14 09:00,ZBAA 140900Z AUTO 24008KT 12SM 17/M08 A2997 RMK SLP152 T01691082 57009 IEM_DS3505
ZBAA,2000-04-14 10:00,ZBAA 141000Z AUTO 25004KT 6SM 18/M10 A2997 RMK T01801100 IEM_DS3505
ZBAA,2000-04-14 11:00,ZBAA 141100Z AUTO 21006KT 6SM 16/M07 A3000 RMK T01601070 IEM_DS3505
ZBAA,2000-04-14 13:00,ZBAA 141300Z AUTO 17004KT 6SM 13/M04 A3003 RMK T01301040 IEM_DS3505
ZBAA,2000-04-14 14:00,ZBAA 141400Z AUTO 25002KT 6SM 13/M06 A3003 RMK T01301060 IEM_DS3505
ZBAA,2000-04-14 15:00,ZBAA 141500Z AUTO 20002KT 9SM 10/M05 A3003 RMK SLP169 T01011046 52006 IEM_DS3505
ZBAA,2000-04-14 16:00,ZBAA 141600Z AUTO 00000KT 6SM 10/M04 A3003 RMK T01001040 IEM_DS3505
ZBAA,2000-04-14 17:00,ZBAA 141700Z AUTO 31004KT 6SM 10/M04 A3003 RMK T01001040 IEM_DS3505
ZBAA,2000-04-14 18:00,ZBAA 141800Z AUTO 20002KT 6SM 09/M02 A3003 RMK SLP166 T00871019 57002 IEM_DS3505
ZBAA,2000-04-14 19:00,ZBAA 141900Z AUTO 30004KT 6SM 09/M05 A3003 RMK T00901050 IEM_DS3505
ZBAA,2000-04-14 20:00,ZBAA 142000Z AUTO 00000KT 6SM 06/M02 A3003 RMK T00601020 IEM_DS3505
ZBAA,2000-04-14 21:00,ZBAA 142100Z AUTO 34002KT 6SM 10/M06 A3003 RMK SLP164 T01001063 57002 IEM_DS3505
ZBAA,2000-04-14 22:00,ZBAA 142200Z AUTO 24002KT 6SM 07/M03 A3003 RMK T00701030 IEM_DS3505
ZBAA,2000-04-14 23:00,ZBAA 142300Z AUTO 33002KT 6SM 09/M01 A3003 RMK T00901010 IEM_DS3505
ZBAA,2000-04-15 00:00,ZBAA 150000Z AUTO 33002KT 6SM 15/M08 A3003 RMK SLP168 T01521082 52004 IEM_DS3505
ZBAA,2000-04-15 01:00,ZBAA 150100Z AUTO 31008KT 6SM 17/M07 A3003 RMK T01701070 IEM_DS3505
ZBAA,2000-04-15 02:00,ZBAA 150200Z AUTO 31008KT 6SM 19/M09 A3003 RMK T01901090 IEM_DS3505
ZBAA,2000-04-15 03:00,ZBAA 150300Z AUTO 34004KT 16SM 21/M11 A3000 RMK SLP159 T02061108 57009 IEM_DS3505
ZBAA,2000-04-15 04:00,ZBAA 150400Z AUTO 31006KT 6SM 21/M11 A2997 RMK T02101110 IEM_DS3505
ZBAA,2000-04-15 05:00,ZBAA 150500Z AUTO 6SM 22/M11 A2994 RMK T02201110 IEM_DS3505
ZBAA,2000-04-15 06:00,ZBAA 150600Z AUTO 08002KT 16SM 22/M11 A2991 RMK SLP127 T02201109 57032 IEM_DS3505
ZBAA,2000-04-15 07:00,ZBAA 150700Z AUTO 26012KT 6SM 24/M11 A2985 RMK T02401110 IEM_DS3505
ZBAA,2000-04-15 08:00,ZBAA 150800Z AUTO 26010G19KT 6SM 23/M11 A2985 RMK T02301110 IEM_DS3505
ZBAA,2000-04-15 09:00,ZBAA 150900Z AUTO 22012G19KT 16SM 21/M08 A2983 RMK SLP104 T02131081 57023 IEM_DS3505
ZBAA,2000-04-15 10:00,ZBAA 151000Z AUTO 21010KT 6SM 22/M08 A2983 RMK T02201080 IEM_DS3505
ZBAA,2000-04-15 11:00,ZBAA 151100Z AUTO 21012KT 6SM 20/M06 A2983 RMK T02001060 IEM_DS3505
ZBAA,2000-04-15 12:00,ZBAA 151200Z AUTO 23008KT 16SM 17/M06 A2983 RMK SLP105 T01741064 52001 IEM_DS3505
ZBAA,2000-04-15 13:00,ZBAA 151300Z AUTO 22012KT 6SM 19/M05 A2983 RMK T01901050 IEM_DS3505
ZBAA,2000-04-15 14:00,ZBAA 151400Z AUTO 22014KT 6SM 18/M05 A2983 RMK T01801050 IEM_DS3505
ZBAA,2000-04-15 15:00,ZBAA 151500Z AUTO 23008KT 16SM 15/M04 A2983 RMK SLP107 T01541045 52002 IEM_DS3505
ZBAA,2000-04-15 16:00,ZBAA 151600Z AUTO 25004KT 6SM 16/M03 A2983 RMK T01601030 IEM_DS3505
ZBAA,2000-04-15 17:00,ZBAA 151700Z AUTO 00000KT 6SM 12/M02 A2983 RMK T01201020 IEM_DS3505
ZBAA,2000-04-15 18:00,ZBAA 151800Z AUTO 26004KT 7SM 12/M04 A2983 RMK SLP094 T01231043 57012 IEM_DS3505
ZBAA,2000-04-15 19:00,ZBAA 151900Z AUTO 34004KT 6SM 07/M04 A2983 RMK T00701040 IEM_DS3505
ZBAA,2000-04-15 20:00,ZBAA 152000Z AUTO 34002KT 6SM 08/M03 A2983 RMK T00801030 IEM_DS3505
ZBAA,2000-04-15 21:00,ZBAA 152100Z AUTO 35002KT 6SM 10/M03 A2980 RMK SLP092 T00991027 57003 IEM_DS3505
ZBAA,2000-04-15 22:00,ZBAA 152200Z AUTO 34004KT 6SM 08/M04 A2983 RMK T00801040 IEM_DS3505
ZBAA,2000-04-15 23:00,ZBAA 152300Z AUTO 35004KT 6SM 10/M04 A2983 RMK T01001040 IEM_DS3505
ZBAA,2000-04-16 00:00,ZBAA 160000Z AUTO 06006KT 6SM 14/M04 A2985 RMK SLP102 T01421045 52010 IEM_DS3505
ZBAA,2000-04-16 01:00,ZBAA 160100Z AUTO 11004KT 6SM 15/M01 A2985 RMK T01501010 IEM_DS3505
ZBAA,2000-04-16 02:00,ZBAA 160200Z AUTO 12006KT 6SM 18/00 A2985 RMK T01800000 IEM_DS3505
ZBAA,2000-04-16 03:00,ZBAA 160300Z AUTO 11006KT 6SM 19/00 A2983 RMK SLP098 T01880000 57004 IEM_DS3505
ZBAA,2000-04-16 04:00,ZBAA 160400Z AUTO 13010KT 6SM 19/02 A2980 RMK T01900020 IEM_DS3505
ZBAA,2000-04-16 05:00,ZBAA 160500Z AUTO 12012KT 6SM 19/02 A2980 RMK T01900020 IEM_DS3505
ZBAA,2000-04-16 06:00,ZBAA 160600Z AUTO 12008KT 6SM 21/04 A2977 RMK SLP078 T02100042 57019 IEM_DS3505
ZBAA,2000-04-16 07:00,ZBAA 160700Z AUTO 12010KT 6SM 21/05 A2974 RMK T02100050 IEM_DS3505
ZBAA,2000-04-16 08:00,ZBAA 160800Z AUTO 13012KT 6SM 20/05 A2971 RMK T02000050 IEM_DS3505
ZBAA,2000-04-16 09:00,ZBAA 160900Z AUTO 11006KT 6SM 21/04 A2971 RMK SLP057 T02080040 57022 IEM_DS3505
ZBAA,2000-04-16 10:00,ZBAA 161000Z AUTO 12008KT 6SM 19/03 A2971 RMK T01900030 IEM_DS3505
ZBAA,2000-04-16 11:00,ZBAA 161100Z AUTO 12008KT 6SM 17/00 A2974 RMK T01700000 IEM_DS3505
ZBAA,2000-04-16 12:00,ZBAA 161200Z AUTO 10006KT 6SM 15/02 A2977 RMK SLP077 T01460025 52020 IEM_DS3505
ZBAA,2000-04-16 13:00,ZBAA 161300Z AUTO 12006KT 6SM 14/M03 A2980 RMK T01401030 IEM_DS3505
ZBAA,2000-04-16 14:00,ZBAA 161400Z AUTO 11004KT 6SM 13/M04 A2980 RMK T01301040 IEM_DS3505
ZBAA,2000-04-16 15:00,ZBAA 161500Z AUTO 06004KT 9SM 11/M02 A2983 RMK SLP093 T01121022 52016 IEM_DS3505
ZBAA,2000-04-16 16:00,ZBAA 161600Z AUTO 00000KT 6SM 10/M04 A2983 RMK T01001040 IEM_DS3505
ZBAA,2000-04-16 17:00,ZBAA 161700Z AUTO 01002KT 6SM 10/M05 A2983 RMK T01001050 IEM_DS3505
ZBAA,2000-04-16 18:00,ZBAA 161800Z AUTO 03002KT 6SM 10/M04 A2980 RMK SLP086 T00961036 57007 IEM_DS3505
ZBAA,2000-04-16 19:00,ZBAA 161900Z AUTO 26002KT 6SM 09/M04 A2980 RMK T00901040 IEM_DS3505
ZBAA,2000-04-16 20:00,ZBAA 162000Z AUTO 29004KT 6SM 09/M04 A2980 RMK T00901040 IEM_DS3505
ZBAA,2000-04-16 21:00,ZBAA 162100Z AUTO 08004KT 6SM 08/M03 A2977 RMK SLP082 T00811031 57004 IEM_DS3505
ZBAA,2000-04-16 22:00,ZBAA 162200Z AUTO 27002KT 6SM 08/M03 A2980 RMK T00801030 IEM_DS3505
ZBAA,2000-04-16 23:00,ZBAA 162300Z AUTO 30002KT 6SM 10/M03 A2980 RMK T01001030 IEM_DS3505
ZBAA,2000-04-17 00:00,ZBAA 170000Z AUTO 04002KT 5SM 14/M03 A2980 RMK SLP088 T01381034 52006 IEM_DS3505
ZBAA,2000-04-17 01:00,ZBAA 170100Z AUTO 04004KT 5SM 14/M01 A2980 RMK T01401010 IEM_DS3505
ZBAA,2000-04-17 02:00,ZBAA 170200Z AUTO 05004KT 5SM 17/M01 A2983 RMK T01701010 IEM_DS3505
ZBAA,2000-04-17 03:00,ZBAA 170300Z AUTO 08006KT 6SM 18/00 A2980 RMK SLP090 T01840001 52003 IEM_DS3505
ZBAA,2000-04-17 04:00,ZBAA 170400Z AUTO 08006KT 6SM 21/01 A2977 RMK T02100010 IEM_DS3505
ZBAA,2000-04-17 05:00,ZBAA 170500Z AUTO 08004KT 6SM 23/M01 A2977 RMK T02301010 IEM_DS3505
ZBAA,2000-04-17 06:00,ZBAA 170600Z AUTO 14004KT 6SM 21/00 A2974 RMK SLP074 T02090002 57017 IEM_DS3505
ZBAA,2000-04-17 07:00,ZBAA 170700Z AUTO 16004KT 6SM 24/M02 A2974 RMK T02401020 IEM_DS3505
ZBAA,2000-04-17 08:00,ZBAA 170800Z AUTO 17006KT 6SM 23/M02 A2974 RMK T02301020 IEM_DS3505
ZBAA,2000-04-17 09:00,ZBAA 170900Z AUTO 00000KT 6SM 21/01 A2974 RMK SLP071 T02120010 57003 IEM_DS3505
ZBAA,2000-04-17 10:00,ZBAA 171000Z AUTO 20004KT 6SM 21/00 A2974 RMK T02100000 IEM_DS3505
ZBAA,2000-04-17 11:00,ZBAA 171100Z AUTO 16002KT 19/03 A2977 RMK T01900030 IEM_DS3505
ZBAA,2000-04-17 12:00,ZBAA 171200Z AUTO 00000KT 6SM 17/04 A2980 RMK SLP089 T01700037 52018 IEM_DS3505
ZBAA,2000-04-17 13:00,ZBAA 171300Z AUTO 14004KT 17/04 A2983 RMK T01700040 IEM_DS3505
ZBAA,2000-04-17 14:00,ZBAA 171400Z AUTO 12004KT 17/05 A2985 RMK T01700050 IEM_DS3505
ZBAA,2000-04-17 15:00,ZBAA 171500Z AUTO 11004KT 6SM 15/05 A2988 RMK SLP114 T01460049 52025 IEM_DS3505
ZBAA,2000-04-17 16:00,ZBAA 171600Z AUTO 14006KT 2 1/2SM 14/08 A2988 RMK T01400080 IEM_DS3505
ZBAA,2000-04-17 17:00,ZBAA 171700Z AUTO 13004KT 2 1/2SM 14/08 A2988 RMK T01400080 IEM_DS3505
ZBAA,2000-04-17 18:00,ZBAA 171800Z AUTO 02002KT 6SM 14/05 A2988 RMK SLP119 T01350054 52005 IEM_DS3505
ZBAA,2000-04-17 19:00,ZBAA 171900Z AUTO 23004KT 13/06 A2988 RMK T01300060 IEM_DS3505
ZBAA,2000-04-17 20:00,ZBAA 172000Z AUTO 26002KT 13/06 A2988 RMK T01300060 IEM_DS3505
ZBAA,2000-04-17 21:00,ZBAA 172100Z AUTO 00000KT 6SM 12/03 A2991 RMK SLP120 T01250032 52001 IEM_DS3505
ZBAA,2000-04-17 22:00,ZBAA 172200Z AUTO 00000KT 13/05 A2988 RMK T01300050 IEM_DS3505
ZBAA,2000-04-17 23:00,ZBAA 172300Z AUTO 14002KT 13/06 A2991 RMK T01300060 IEM_DS3505
ZBAA,2000-04-18 00:00,ZBAA 180000Z AUTO 26002KT 5SM 12/07 A2991 RMK 60000 SLP132 T01180069 52012 IEM_DS3505
ZBAA,2000-04-18 01:00,ZBAA 180100Z AUTO 29004KT 4SM 14/05 A2994 RMK T01400050 IEM_DS3505
ZBAA,2000-04-18 02:00,ZBAA 180200Z AUTO 33004KT 2SM 12/09 A2994 RMK T01200090 IEM_DS3505
ZBAA,2000-04-18 03:00,ZBAA 180300Z AUTO 02004KT 3SM 12/09 A2994 RMK SLP134 T01200094 52002 IEM_DS3505
ZBAA,2000-04-18 04:00,ZBAA 180400Z AUTO 01006KT 1SM 12/11 A2994 RMK T01200110 IEM_DS3505
ZBAA,2000-04-18 05:00,ZBAA 180500Z AUTO 02006KT 1SM 12/11 A2991 RMK T01200110 IEM_DS3505
ZBAA,2000-04-18 06:00,ZBAA 180600Z AUTO 05004KT 4SM 13/09 A2991 RMK 60016 SLP122 T01270088 57012 IEM_DS3505
ZBAA,2000-04-18 07:00,ZBAA 180700Z AUTO 04002KT 1SM 13/12 A2988 RMK T01300120 IEM_DS3505
ZBAA,2000-04-18 08:00,ZBAA 180800Z AUTO 05002KT 1SM 13/12 A2988 RMK T01300120 IEM_DS3505
ZBAA,2000-04-18 09:00,ZBAA 180900Z AUTO 07004KT 4SM 13/10 A2985 RMK SLP107 T01320096 57015 IEM_DS3505
ZBAA,2000-04-18 10:00,ZBAA 181000Z AUTO 03002KT 1SM 13/12 A2985 RMK T01300120 IEM_DS3505
ZBAA,2000-04-18 11:00,ZBAA 181100Z AUTO 28004KT 1 1/2SM 13/12 A2988 RMK T01300120 IEM_DS3505
ZBAA,2000-04-18 12:00,ZBAA 181200Z AUTO 09002KT 3SM 12/10 RMK 60003 SLP112 T01240096 52005 IEM_DS3505
ZBAA,2000-04-18 13:00,ZBAA 181300Z AUTO 35002KT 1SM 12/12 A2988 RMK T01200120 IEM_DS3505
ZBAA,2000-04-18 14:00,ZBAA 181400Z AUTO 36002KT 1SM 12/12 A2991 RMK T01200120 IEM_DS3505
ZBAA,2000-04-18 15:00,ZBAA 181500Z AUTO 00000KT 3SM 12/10 A2988 RMK SLP123 T01250104 52011 IEM_DS3505
ZBAA,2000-04-18 16:00,ZBAA 181600Z AUTO 20002KT 1SM 12/12 A2988 RMK T01200120 IEM_DS3505
ZBAA,2000-04-18 17:00,ZBAA 181700Z AUTO 00000KT 1SM 12/12 A2985 RMK T01200120 IEM_DS3505
ZBAA,2000-04-18 18:00,ZBAA 181800Z AUTO 00000KT 1 1/4SM 12/10 A2985 RMK SLP109 T01150098 57014 IEM_DS3505
ZBAA,2000-04-18 19:00,ZBAA 181900Z AUTO 00000KT 1SM 11/11 A2983 RMK T01100110 IEM_DS3505
ZBAA,2000-04-18 20:00,ZBAA 182000Z AUTO 14002KT 1SM 10/10 A2983 RMK T01000100 IEM_DS3505
ZBAA,2000-04-18 21:00,ZBAA 182100Z AUTO 11002KT 1 1/4SM 10/08 A2983 RMK 70018 SLP098 T00970080 57011 IEM_DS3505
ZBAA,2000-04-18 22:00,ZBAA 182200Z AUTO 13002KT 3/8SM 07/07 A2983 RMK T00700070 IEM_DS3505
ZBAA,2000-04-18 23:00,ZBAA 182300Z AUTO 12004KT 3/8SM 10/10 A2985 RMK T01000100 IEM_DS3505
ZBAA,2000-04-19 00:00,ZBAA 190000Z AUTO 17002KT 1/4SM 10/09 A2985 RMK 70017 SLP112 T01010089 52014 IEM_DS3505
ZBAA,2000-04-19 01:00,ZBAA 190100Z AUTO 14004KT 1SM 12/12 A2988 RMK T01200120 IEM_DS3505
ZBAA,2000-04-19 02:00,ZBAA 190200Z AUTO 12004KT 1SM 11/11 A2988 RMK T01100110 IEM_DS3505
ZBAA,2000-04-19 03:00,ZBAA 190300Z AUTO 00000KT 2SM 12/10 A2988 RMK SLP115 T01250102 52003 IEM_DS3505
ZBAA,2000-04-19 04:00,ZBAA 190400Z AUTO 14002KT 1SM 14/12 A2985 RMK T01400120 IEM_DS3505
ZBAA,2000-04-19 05:00,ZBAA 190500Z AUTO 10002KT 1SM 15/12 A2983 RMK T01500120 IEM_DS3505
ZBAA,2000-04-19 06:00,ZBAA 190600Z AUTO 07002KT 2 1/2SM 16/12 A2983 RMK SLP090 T01630119 57025 IEM_DS3505
ZBAA,2000-04-19 07:00,ZBAA 190700Z AUTO 08002KT 1SM 16/13 A2980 RMK T01600130 IEM_DS3505
ZBAA,2000-04-19 08:00,ZBAA 190800Z AUTO 02006KT 1SM 15/13 A2977 RMK T01500130 IEM_DS3505
ZBAA,2000-04-19 09:00,ZBAA 190900Z AUTO 02002KT 2SM 16/12 A2977 RMK SLP073 T01630119 57017 IEM_DS3505
ZBAA,2000-04-19 10:00,ZBAA 191000Z AUTO 01002KT 1SM 15/13 A2977 RMK T01500130 IEM_DS3505
ZBAA,2000-04-19 11:00,ZBAA 191100Z AUTO 33006KT 1SM 15/12 A2977 RMK T01500120 IEM_DS3505
ZBAA,2000-04-19 12:00,ZBAA 191200Z AUTO 32004KT 1SM 15/12 A2980 RMK T01500120 IEM_DS3505
ZBAA,2000-04-19 13:00,ZBAA 191300Z AUTO 29008KT 1SM 14/12 A2980 RMK T01400120 IEM_DS3505
ZBAA,2000-04-19 14:00,ZBAA 191400Z AUTO 31006KT 1SM 14/13 A2980 RMK T01400130 IEM_DS3505
ZBAA,2000-04-19 15:00,ZBAA 191500Z AUTO 00000KT 1SM 13/12 A2980 RMK SLP085 T01340116 52001 IEM_DS3505
ZBAA,2000-04-19 16:00,ZBAA 191600Z AUTO 16002KT 1/2SM 13/13 A2977 RMK T01300130 IEM_DS3505
ZBAA,2000-04-19 17:00,ZBAA 191700Z AUTO 16004KT 3/8SM 13/13 A2977 RMK T01300130 IEM_DS3505
ZBAA,2000-04-19 18:00,ZBAA 191800Z AUTO 26002KT 1 1/4SM 13/12 A2974 RMK 60059 SLP068 T01300117 57017 IEM_DS3505
ZBAA,2000-04-19 19:00,ZBAA 191900Z AUTO 00000KT 1/4SM 13/13 A2974 RMK T01300130 IEM_DS3505
ZBAA,2000-04-19 20:00,ZBAA 192000Z AUTO 00000KT 1/4SM 13/13 A2971 RMK T01300130 IEM_DS3505
ZBAA,2000-04-19 21:00,ZBAA 192100Z AUTO 22004KT 1 1/4SM 13/12 A2968 RMK 70057 SLP053 T01300119 57015 IEM_DS3505
ZBAA,2000-04-19 22:00,ZBAA 192200Z AUTO 14002KT 1/4SM 13/13 A2968 RMK T01300130 IEM_DS3505
ZBAA,2000-04-19 23:00,ZBAA 192300Z AUTO 19004KT 3/8SM 13/13 A2968 RMK T01300130 IEM_DS3505
ZBAA,2000-04-20 00:00,ZBAA 200000Z AUTO 23004KT 1SM 13/12 A2971 RMK 60003 SLP052 T01340120 57001 IEM_DS3505
ZBAA,2000-04-20 01:00,ZBAA 200100Z AUTO 19006KT 1SM 14/14 A2968 RMK T01400140 IEM_DS3505
ZBAA,2000-04-20 02:00,ZBAA 200200Z AUTO 18006KT 1SM 16/14 A2968 RMK T01600140 IEM_DS3505
ZBAA,2000-04-20 03:00,ZBAA 200300Z AUTO 19006KT 2 1/2SM 17/13 A2965 RMK SLP043 T01730126 57009 IEM_DS3505
ZBAA,2000-04-20 04:00,ZBAA 200400Z AUTO 24006KT 2 1/2SM 21/08 A2965 RMK T02100080 IEM_DS3505
ZBAA,2000-04-20 05:00,ZBAA 200500Z AUTO 29012KT 5SM 22/04 A2962 RMK T02200040 IEM_DS3505
ZBAA,2000-04-20 06:00,ZBAA 200600Z AUTO 12002G27KT 5SM 22/08 A2962 RMK SLP025 T02240085 57017 IEM_DS3505
ZBAA,2000-04-20 07:00,ZBAA 200700Z AUTO 31023G33KT 6SM 23/01 A2959 RMK T02300010 IEM_DS3505
ZBAA,2000-04-20 08:00,ZBAA 200800Z AUTO 31016G25KT 6SM 24/01 A2956 RMK T02400010 IEM_DS3505
ZBAA,2000-04-20 09:00,ZBAA 200900Z AUTO 08002G29KT 6SM 20/09 A2956 RMK SLP018 T02050088 57007 IEM_DS3505
ZBAA,2000-04-20 10:00,ZBAA 201000Z AUTO 31019G31KT 6SM 22/01 A2959 RMK T02200010 IEM_DS3505
ZBAA,2000-04-20 11:00,ZBAA 201100Z AUTO 35010KT 6SM 19/04 A2962 RMK T01900040 IEM_DS3505
ZBAA,2000-04-20 12:00,ZBAA 201200Z AUTO 29004KT 6SM 18/10 A2962 RMK SLP033 T01830099 52015 IEM_DS3505
ZBAA,2000-04-20 13:00,ZBAA 201300Z AUTO 31006KT 6SM 18/03 A2965 RMK T01800030 IEM_DS3505
ZBAA,2000-04-20 14:00,ZBAA 201400Z AUTO 33008KT 6SM 16/02 A2965 RMK T01600020 IEM_DS3505
ZBAA,2000-04-20 15:00,ZBAA 201500Z AUTO 34006KT 6SM 14/02 A2968 RMK T01400020 IEM_DS3505
ZBAA,2000-04-20 16:00,ZBAA 201600Z AUTO 28004KT 6SM 15/00 A2968 RMK T01500000 IEM_DS3505
ZBAA,2000-04-20 17:00,ZBAA 201700Z AUTO 28006KT 6SM 15/01 A2968 RMK T01500010 IEM_DS3505
ZBAA,2000-04-20 18:00,ZBAA 201800Z AUTO 31010KT 19SM 16/M00 A2968 RMK SLP045 T01611001 57001 IEM_DS3505
ZBAA,2000-04-20 19:00,ZBAA 201900Z AUTO 31014KT 6SM 14/02 A2968 RMK T01400020 IEM_DS3505
ZBAA,2000-04-20 20:00,ZBAA 202000Z AUTO 31010KT 6SM 14/02 A2968 RMK T01400020 IEM_DS3505
ZBAA,2000-04-20 21:00,ZBAA 202100Z AUTO 34004KT 19SM 14/M00 A2971 RMK SLP056 T01411003 52011 IEM_DS3505
ZBAA,2000-04-20 22:00,ZBAA 202200Z AUTO 00000KT 6SM 11/03 A2971 RMK T01100030 IEM_DS3505
ZBAA,2000-04-20 23:00,ZBAA 202300Z AUTO 34004KT 6SM 14/02 A2971 RMK T01400020 IEM_DS3505
ZBAA,2000-04-21 01:00,ZBAA 210100Z AUTO 28017G31KT 6SM 17/M01 A2974 RMK T01701010 IEM_DS3505
ZBAA,2000-04-21 02:00,ZBAA 210200Z AUTO 28025G41KT 6SM 18/M05 A2974 RMK T01801050 IEM_DS3505
ZBAA,2000-04-21 03:00,ZBAA 210300Z AUTO 33008G37KT 12SM 19/M05 A2974 RMK SLP064 T01861047 54000 IEM_DS3505
ZBAA,2000-04-21 04:00,ZBAA 210400Z AUTO 30017G29KT 6SM 19/M07 A2974 RMK T01901070 IEM_DS3505
ZBAA,2000-04-21 05:00,ZBAA 210500Z AUTO 28017G29KT 6SM 20/M06 A2971 RMK T02001060 IEM_DS3505
ZBAA,2000-04-21 06:00,ZBAA 210600Z AUTO 34008KT 12SM 21/M08 A2971 RMK SLP049 T02121082 4////0127 57015 IEM_DS3505
ZBAA,2000-04-21 07:00,ZBAA 210700Z AUTO 28016G25KT 6SM 22/M07 A2968 RMK T02201070 IEM_DS3505
ZBAA,2000-04-21 08:00,ZBAA 210800Z AUTO 31017G27KT 6SM 22/M06 A2965 RMK T02201060 IEM_DS3505
ZBAA,2000-04-21 09:00,ZBAA 210900Z AUTO 29014G27KT 12SM 21/M08 A2968 RMK SLP040 T02131081 57009 IEM_DS3505
ZBAA,2000-04-21 10:00,ZBAA 211000Z AUTO 31017G27KT 6SM 20/M07 A2968 RMK T02001070 IEM_DS3505
ZBAA,2000-04-21 11:00,ZBAA 211100Z AUTO 33017G29KT 6SM 18/M06 A2971 RMK T01801060 IEM_DS3505
ZBAA,2000-04-21 12:00,ZBAA 211200Z AUTO 32016G27KT 12SM 18/M09 A2974 RMK SLP066 T01751093 52026 IEM_DS3505
ZBAA,2000-04-21 13:00,ZBAA 211300Z AUTO 35012KT 6SM 14/M05 A2983 RMK T01401050 IEM_DS3505
ZBAA,2000-04-21 14:00,ZBAA 211400Z AUTO 33014G23KT 6SM 14/M06 A2985 RMK T01401060 IEM_DS3505
ZBAA,2000-04-21 15:00,ZBAA 211500Z AUTO 03004KT 19SM 14/M06 A2985 RMK SLP109 T01351061 52042 IEM_DS3505
ZBAA,2000-04-21 16:00,ZBAA 211600Z AUTO 34006KT 6SM 11/M05 A2985 RMK T01101050 IEM_DS3505
ZBAA,2000-04-21 17:00,ZBAA 211700Z AUTO 34006KT 6SM 09/M04 A2983 RMK T00901040 IEM_DS3505
ZBAA,2000-04-21 18:00,ZBAA 211800Z AUTO 31010KT 19SM 14/M11 A2983 RMK SLP099 T01361109 57009 IEM_DS3505
ZBAA,2000-04-21 19:00,ZBAA 211900Z AUTO 00000KT 6SM 09/M04 A2983 RMK T00901040 IEM_DS3505
ZBAA,2000-04-21 20:00,ZBAA 212000Z AUTO 29004KT 6SM 09/M05 A2983 RMK T00901050 IEM_DS3505
ZBAA,2000-04-21 21:00,ZBAA 212100Z AUTO 27004KT 19SM 11/M10 A2983 RMK SLP096 T01101098 57004 IEM_DS3505
ZBAA,2000-04-21 22:00,ZBAA 212200Z AUTO 29006KT 6SM 11/M08 A2983 RMK T01101080 IEM_DS3505
ZBAA,2000-04-21 23:00,ZBAA 212300Z AUTO 30006KT 6SM 12/M07 A2983 RMK T01201070 IEM_DS3505
ZBAA,2000-04-22 00:00,ZBAA 220000Z AUTO 31017KT 19SM 14/M10 A2983 RMK SLP097 T01411105 52001 IEM_DS3505
ZBAA,2000-04-22 01:00,ZBAA 220100Z AUTO 30016G31KT 6SM 15/M06 A2980 RMK T01501060 IEM_DS3505
ZBAA,2000-04-22 02:00,ZBAA 220200Z AUTO 31019G31KT 7SM 16/M05 A2980 RMK T01601050 IEM_DS3505
ZBAA,2000-04-22 03:00,ZBAA 220300Z AUTO 30019G41KT 19SM 15/M07 A2983 RMK SLP099 T01501071 52003 IEM_DS3505
ZBAA,2000-04-22 04:00,ZBAA 220400Z AUTO 28019KT 7SM 16/M03 A2980 RMK T01601030 IEM_DS3505
ZBAA,2000-04-22 05:00,ZBAA 220500Z AUTO 32029G45KT 7SM 16/M05 A2983 RMK T01601050 IEM_DS3505
ZBAA,2000-04-22 06:00,ZBAA 220600Z AUTO 33014G33KT 19SM 17/M09 A2980 RMK SLP090 T01671092 4////0110 57010 IEM_DS3505
ZBAA,2000-04-22 07:00,ZBAA 220700Z AUTO 31021KT 7SM 16/M07 A2980 RMK T01601070 IEM_DS3505
ZBAA,2000-04-22 08:00,ZBAA 220800Z AUTO 33023G37KT 7SM 17/M09 A2977 RMK T01701090 IEM_DS3505
ZBAA,2000-04-22 09:00,ZBAA 220900Z AUTO 30017G33KT 19SM 16/M11 A2977 RMK SLP084 T01651110 57006 IEM_DS3505
ZBAA,2000-04-22 11:00,ZBAA 221100Z AUTO 33016G27KT 6SM 16/M10 A2980 RMK T01601100 IEM_DS3505
ZBAA,2000-04-22 13:00,ZBAA 221300Z AUTO 34016G29KT 6SM 15/M11 A2985 RMK T01501110 IEM_DS3505
ZBAA,2000-04-22 14:00,ZBAA 221400Z AUTO 33014KT 6SM 14/M11 A2988 RMK T01401110 IEM_DS3505
ZBAA,2000-04-22 15:00,ZBAA 221500Z AUTO 33008KT 19SM 14/M14 A2988 RMK SLP118 T01441136 52019 IEM_DS3505
ZBAA,2000-04-22 16:00,ZBAA 221600Z AUTO 31012KT 6SM 13/M12 A2988 RMK T01301120 IEM_DS3505
ZBAA,2000-04-22 17:00,ZBAA 221700Z AUTO 31012KT 6SM 13/M12 A2988 RMK T01301120 IEM_DS3505
ZBAA,2000-04-22 18:00,ZBAA 221800Z AUTO 29004KT 19SM 13/M13 A2988 RMK SLP121 T01271132 52003 IEM_DS3505
ZBAA,2000-04-22 19:00,ZBAA 221900Z AUTO 29006KT 6SM 10/M10 A2988 RMK T01001100 IEM_DS3505
ZBAA,2000-04-22 20:00,ZBAA 222000Z AUTO 28006KT 6SM 10/M10 A2988 RMK T01001100 IEM_DS3505
ZBAA,2000-04-22 21:00,ZBAA 222100Z AUTO 29002KT 12SM 10/M12 A2988 RMK SLP120 T01051121 57001 IEM_DS3505
ZBAA,2000-04-22 22:00,ZBAA 222200Z AUTO 25006KT 6SM 10/M10 A2988 RMK T01001100 IEM_DS3505
ZBAA,2000-04-22 23:00,ZBAA 222300Z AUTO 27004KT 6SM 13/M10 A2988 RMK T01301100 IEM_DS3505
ZBAA,2000-04-23 00:00,ZBAA 230000Z AUTO 27006KT 19SM 15/M12 A2988 RMK SLP124 T01541119 52004 IEM_DS3505
ZBAA,2000-04-23 01:00,ZBAA 230100Z AUTO 29012KT 6SM 17/M11 A2988 RMK T01701110 IEM_DS3505
ZBAA,2000-04-23 02:00,ZBAA 230200Z AUTO 28012KT 6SM 19/M11 A2985 RMK T01901110 IEM_DS3505
ZBAA,2000-04-23 03:00,ZBAA 230300Z AUTO 22010G21KT 16SM 18/M10 A2985 RMK SLP111 T01761101 57013 IEM_DS3505
ZBAA,2000-04-23 04:00,ZBAA 230400Z AUTO 23010KT 6SM 21/M10 A2983 RMK T02101100 IEM_DS3505
ZBAA,2000-04-23 05:00,ZBAA 230500Z AUTO 27006G16KT 6SM 22/M10 A2977 RMK T02201100 IEM_DS3505
ZBAA,2000-04-23 06:00,ZBAA 230600Z AUTO 22008KT 19SM 21/M06 A2974 RMK SLP070 T02101057 57040 IEM_DS3505
ZBAA,2000-04-23 07:00,ZBAA 230700Z AUTO 26014KT 6SM 23/M10 A2971 RMK T02301100 IEM_DS3505
ZBAA,2000-04-23 08:00,ZBAA 230800Z AUTO 25010G21KT 6SM 24/M11 A2968 RMK T02401110 IEM_DS3505
ZBAA,2000-04-23 09:00,ZBAA 230900Z AUTO 21010KT 16SM 22/M04 A2965 RMK SLP047 T02151037 57023 IEM_DS3505
ZBAA,2000-04-23 10:00,ZBAA 231000Z AUTO 21012KT 6SM 22/M04 A2968 RMK T02201040 IEM_DS3505
ZBAA,2000-04-23 11:00,ZBAA 231100Z AUTO 21010KT 6SM 20/M02 A2968 RMK T02001020 IEM_DS3505
ZBAA,2000-04-23 12:00,ZBAA 231200Z AUTO 24004KT 16SM 17/M02 A2971 RMK SLP060 T01711025 52013 IEM_DS3505
ZBAA,2000-04-23 13:00,ZBAA 231300Z AUTO 22010KT 6SM 19/M01 A2974 RMK T01901010 IEM_DS3505
ZBAA,2000-04-23 14:00,ZBAA 231400Z AUTO 22008KT 6SM 19/M01 A2971 RMK T01901010 IEM_DS3505
ZBAA,2000-04-23 15:00,ZBAA 231500Z AUTO 26004KT 12SM 15/M01 A2974 RMK SLP068 T01511010 52007 IEM_DS3505
ZBAA,2000-04-23 16:00,ZBAA 231600Z AUTO 00000KT 6SM 14/00 A2974 RMK T01400000 IEM_DS3505
ZBAA,2000-04-23 17:00,ZBAA 231700Z AUTO 6SM 10/02 A2974 RMK T01000020 IEM_DS3505
ZBAA,2000-04-23 18:00,ZBAA 231800Z AUTO 10002KT 6SM 10/02 A2974 RMK SLP065 T01040018 57003 IEM_DS3505
ZBAA,2000-04-23 19:00,ZBAA 231900Z AUTO 00000KT 6SM 10/02 A2974 RMK T01000020 IEM_DS3505
ZBAA,2000-04-23 20:00,ZBAA 232000Z AUTO 6SM 10/03 A2971 RMK T01000030 IEM_DS3505
ZBAA,2000-04-23 21:00,ZBAA 232100Z AUTO 00000KT 6SM 10/02 A2971 RMK SLP059 T00990023 57005 IEM_DS3505
ZBAA,2000-04-23 22:00,ZBAA 232200Z AUTO 00000KT 6SM 10/04 A2974 RMK T01000040 IEM_DS3505
ZBAA,2000-04-23 23:00,ZBAA 232300Z AUTO 02002KT 5SM 11/03 A2974 RMK T01100030 IEM_DS3505
ZBAA,2000-04-24 00:00,ZBAA 240000Z AUTO 04004KT 6SM 13/03 A2974 RMK SLP064 T01330031 52004 IEM_DS3505
ZBAA,2000-04-24 01:00,ZBAA 240100Z AUTO 09004KT 5SM 15/03 A2974 RMK T01500030 IEM_DS3505
ZBAA,2000-04-24 02:00,ZBAA 240200Z AUTO 10006KT 5SM 18/04 A2971 RMK T01800040 IEM_DS3505
ZBAA,2000-04-24 03:00,ZBAA 240300Z AUTO 12006KT 5SM 19/05 A2971 RMK SLP052 T01920046 57011 IEM_DS3505
ZBAA,2000-04-24 04:00,ZBAA 240400Z AUTO 15008KT 21/04 A2968 RMK T02100040 IEM_DS3505
ZBAA,2000-04-24 05:00,ZBAA 240500Z AUTO 16008KT 5SM 23/04 A2965 RMK T02300040 IEM_DS3505
ZBAA,2000-04-24 06:00,ZBAA 240600Z AUTO 12004KT 6SM 22/06 A2962 RMK SLP027 T02210060 57025 IEM_DS3505
ZBAA,2000-04-24 07:00,ZBAA 240700Z AUTO 14006KT 22/06 A2959 RMK T02200060 IEM_DS3505
ZBAA,2000-04-24 08:00,ZBAA 240800Z AUTO 13004KT 22/04 A2959 RMK T02200040 IEM_DS3505
ZBAA,2000-04-24 09:00,ZBAA 240900Z AUTO 20004KT 6SM 22/06 A2959 RMK SLP013 T02200063 57014 IEM_DS3505
ZBAA,2000-04-24 10:00,ZBAA 241000Z AUTO 18006KT 5SM 22/06 A2959 RMK T02200060 IEM_DS3505
ZBAA,2000-04-24 11:00,ZBAA 241100Z AUTO 18006KT 20/09 A2956 RMK T02000090 IEM_DS3505
ZBAA,2000-04-24 14:00,ZBAA 241400Z AUTO 36006KT 17/09 A2965 RMK T01700090 IEM_DS3505
ZBAA,2000-04-24 15:00,ZBAA 241500Z AUTO 00000KT 6SM 17/10 A2965 RMK SLP029 T01730102 52003 IEM_DS3505
ZBAA,2000-04-24 16:00,ZBAA 241600Z AUTO 00000KT 4SM 15/10 A2962 RMK T01500100 IEM_DS3505
ZBAA,2000-04-24 17:00,ZBAA 241700Z AUTO 35002KT 3SM 14/10 A2962 RMK T01400100 IEM_DS3505
ZBAA,2000-04-24 18:00,ZBAA 241800Z AUTO 04002KT 6SM 16/08 A2962 RMK 60003 SLP024 T01560081 57005 IEM_DS3505
ZBAA,2000-04-24 19:00,ZBAA 241900Z AUTO 36002KT 2 1/2SM 13/10 A2959 RMK T01300100 IEM_DS3505
ZBAA,2000-04-24 20:00,ZBAA 242000Z AUTO 2 1/2SM 13/10 A2959 RMK T01300100 IEM_DS3505
ZBAA,2000-04-24 21:00,ZBAA 242100Z AUTO 02002KT 6SM 14/08 A2959 RMK 70003 SLP014 T01370083 57010 IEM_DS3505
ZBAA,2000-04-24 22:00,ZBAA 242200Z AUTO 27002KT 2 1/2SM 13/10 A2959 RMK T01300100 IEM_DS3505
ZBAA,2000-04-24 23:00,ZBAA 242300Z AUTO 30006KT 2 1/2SM 14/09 A2962 RMK T01400090 IEM_DS3505
ZBAA,2000-04-25 00:00,ZBAA 250000Z AUTO 33004KT 5SM 16/05 A2962 RMK 70003 SLP023 T01640048 52009 IEM_DS3505
ZBAA,2000-04-25 01:00,ZBAA 250100Z AUTO 02004KT 1 1/2SM 16/09 A2962 RMK T01600090 IEM_DS3505
ZBAA,2000-04-25 02:00,ZBAA 250200Z AUTO 01012KT 1 1/4SM 17/04 A2959 RMK T01700040 IEM_DS3505
ZBAA,2000-04-25 03:00,ZBAA 250300Z AUTO 04008KT 2SM 19/M01 A2959 RMK SLP015 T01871006 57008 IEM_DS3505
ZBAA,2000-04-25 04:00,ZBAA 250400Z AUTO 34014KT 1 1/2SM 20/01 A2959 RMK T02000010 IEM_DS3505
ZBAA,2000-04-25 05:00,ZBAA 250500Z AUTO 31021KT 2 1/2SM 21/M09 A2959 RMK T02101090 IEM_DS3505
ZBAA,2000-04-25 06:00,ZBAA 250600Z AUTO 32008G29KT 5SM 19/M11 A2956 RMK SLP011 T01941106 57004 IEM_DS3505
ZBAA,2000-04-25 07:00,ZBAA 250700Z AUTO 31025G39KT 1SM 16/M04 A2962 RMK T01601040 IEM_DS3505
ZBAA,2000-04-25 08:00,ZBAA 250800Z AUTO 31017G29KT 2 1/2SM 15/M05 A2965 RMK T01501050 IEM_DS3505
ZBAA,2000-04-25 09:00,ZBAA 250900Z AUTO 31016G29KT 5SM 16/M05 A2965 RMK SLP040 T01561054 52028 IEM_DS3505
ZBAA,2000-04-25 10:00,ZBAA 251000Z AUTO 32016KT 2SM 16/M06 A2965 RMK T01601060 IEM_DS3505
ZBAA,2000-04-25 11:00,ZBAA 251100Z AUTO 31016KT 2SM 16/M05 A2968 RMK T01601050 IEM_DS3505
ZBAA,2000-04-25 12:00,ZBAA 251200Z AUTO 31010G21KT 4SM 16/M05 A2971 RMK SLP064 T01561054 52025 IEM_DS3505
ZBAA,2000-04-25 13:00,ZBAA 251300Z AUTO 31016KT 2SM 16/M04 A2974 RMK T01601040 IEM_DS3505
ZBAA,2000-04-25 14:00,ZBAA 251400Z AUTO 31014KT 2SM 16/M03 A2977 RMK T01601030 IEM_DS3505
ZBAA,2000-04-25 15:00,ZBAA 251500Z AUTO 32008KT 5SM 16/M06 A2980 RMK SLP085 T01591057 52020 IEM_DS3505
ZBAA,2000-04-25 16:00,ZBAA 251600Z AUTO 32014KT 1 1/2SM 15/M05 A2980 RMK T01501050 IEM_DS3505
ZBAA,2000-04-25 17:00,ZBAA 251700Z AUTO 31012KT 2SM 15/M04 A2977 RMK T01501040 IEM_DS3505
ZBAA,2000-04-25 18:00,ZBAA 251800Z AUTO 32006KT 4SM 15/M05 A2977 RMK SLP079 T01491049 57005 IEM_DS3505
ZBAA,2000-04-25 19:00,ZBAA 251900Z AUTO 27004KT 2 1/2SM 14/M02 A2977 RMK T01401020 IEM_DS3505
ZBAA,2000-04-25 20:00,ZBAA 252000Z AUTO 31012KT 5SM 14/M02 A2977 RMK T01401020 IEM_DS3505
ZBAA,2000-04-25 21:00,ZBAA 252100Z AUTO 30004KT 4SM 11/M02 A2977 RMK SLP082 T01091025 52002 IEM_DS3505
ZBAA,2000-04-25 22:00,ZBAA 252200Z AUTO 30010KT 6SM 14/M01 A2980 RMK T01401010 IEM_DS3505
ZBAA,2000-04-25 23:00,ZBAA 252300Z AUTO 31008KT 6SM 15/M01 A2983 RMK T01501010 IEM_DS3505
ZBAA,2000-04-26 00:00,ZBAA 260000Z AUTO 33010KT 12SM 16/M04 A2983 RMK SLP097 T01651035 52015 IEM_DS3505
ZBAA,2000-04-26 01:00,ZBAA 260100Z AUTO 36008KT 6SM 17/00 A2983 RMK T01700000 IEM_DS3505
ZBAA,2000-04-26 02:00,ZBAA 260200Z AUTO 36006KT 6SM 18/00 A2985 RMK T01800000 IEM_DS3505
ZBAA,2000-04-26 03:00,ZBAA 260300Z AUTO 33010KT 16SM 20/M04 A2985 RMK SLP103 T02001036 52007 IEM_DS3505
ZBAA,2000-04-26 04:00,ZBAA 260400Z AUTO 02008KT 7SM 19/00 A2983 RMK T01900000 IEM_DS3505
ZBAA,2000-04-26 05:00,ZBAA 260500Z AUTO 35008KT 7SM 20/M01 A2983 RMK T02001010 IEM_DS3505
ZBAA,2000-04-26 06:00,ZBAA 260600Z AUTO 00000KT 19SM 21/M06 A2983 RMK SLP094 T02071059 57009 IEM_DS3505
ZBAA,2000-04-26 07:00,ZBAA 260700Z AUTO 06004KT 7SM 20/M02 A2980 RMK T02001020 IEM_DS3505
ZBAA,2000-04-26 08:00,ZBAA 260800Z AUTO 31017KT 6SM 21/M02 A2980 RMK T02101020 IEM_DS3505
ZBAA,2000-04-26 09:00,ZBAA 260900Z AUTO 32014G27KT 19SM 19/M03 A2983 RMK SLP099 T01941034 52004 IEM_DS3505
ZBAA,2000-04-26 10:00,ZBAA 261000Z AUTO 36014KT 6SM 19/00 A2983 RMK T01900000 IEM_DS3505
ZBAA,2000-04-26 11:00,ZBAA 261100Z AUTO 36006KT 6SM 18/01 A2985 RMK T01800010 IEM_DS3505
ZBAA,2000-04-26 12:00,ZBAA 261200Z AUTO 02006KT 12SM 18/M01 A2988 RMK 60003 SLP115 T01761011 52016 IEM_DS3505
ZBAA,2000-04-26 13:00,ZBAA 261300Z AUTO 35006KT 6SM 14/03 A2988 RMK T01400030 IEM_DS3505
ZBAA,2000-04-26 14:00,ZBAA 261400Z AUTO 35006KT 6SM 12/04 A2991 RMK T01200040 IEM_DS3505
ZBAA,2000-04-26 15:00,ZBAA 261500Z AUTO 00000KT 9SM 13/01 A2991 RMK SLP126 T01340014 52011 IEM_DS3505
ZBAA,2000-04-26 16:00,ZBAA 261600Z AUTO 27004KT 6SM 12/04 A2991 RMK T01200040 IEM_DS3505
ZBAA,2000-04-26 17:00,ZBAA 261700Z AUTO 00000KT 6SM 11/04 A2991 RMK T01100040 IEM_DS3505
ZBAA,2000-04-26 18:00,ZBAA 261800Z AUTO 26002KT 9SM 10/03 A2991 RMK SLP125 T01010027 57001 IEM_DS3505
ZBAA,2000-04-26 19:00,ZBAA 261900Z AUTO 36004KT 6SM 10/05 A2991 RMK T01000050 IEM_DS3505
ZBAA,2000-04-26 20:00,ZBAA 262000Z AUTO 35004KT 6SM 08/05 A2991 RMK T00800050 IEM_DS3505
ZBAA,2000-04-26 21:00,ZBAA 262100Z AUTO 00000KT 9SM 09/02 A2991 RMK 70003 SLP125 T00880024 54000 IEM_DS3505
ZBAA,2000-04-26 22:00,ZBAA 262200Z AUTO 35004KT 6SM 08/05 A2991 RMK T00800050 IEM_DS3505
ZBAA,2000-04-26 23:00,ZBAA 262300Z AUTO 6SM 10/06 A2991 RMK T01000060 IEM_DS3505
ZBAA,2000-04-27 00:00,ZBAA 270000Z AUTO 13002KT 5SM 15/05 A2994 RMK 70003 SLP135 T01480048 52010 IEM_DS3505
ZBAA,2000-04-27 01:00,ZBAA 270100Z AUTO 04004KT 6SM 17/04 A2994 RMK T01700040 IEM_DS3505
ZBAA,2000-04-27 02:00,ZBAA 270200Z AUTO 6SM 19/02 A2991 RMK T01900020 IEM_DS3505
ZBAA,2000-04-27 03:00,ZBAA 270300Z AUTO 01004KT 19SM 21/M04 A2991 RMK SLP124 T02141038 57010 IEM_DS3505
ZBAA,2000-04-27 04:00,ZBAA 270400Z AUTO 13006KT 6SM 22/M02 A2988 RMK T02201020 IEM_DS3505
ZBAA,2000-04-27 05:00,ZBAA 270500Z AUTO 6SM 23/M03 A2983 RMK T02301030 IEM_DS3505
ZBAA,2000-04-27 06:00,ZBAA 270600Z AUTO 18004KT 19SM 23/00 A2980 RMK SLP096 T02260005 57029 IEM_DS3505
ZBAA,2000-04-27 07:00,ZBAA 270700Z AUTO 18008KT 6SM 25/M03 A2977 RMK T02501030 IEM_DS3505
ZBAA,2000-04-27 08:00,ZBAA 270800Z AUTO 17012KT 6SM 24/M02 A2977 RMK T02401020 IEM_DS3505
ZBAA,2000-04-27 09:00,ZBAA 270900Z AUTO 18008KT 19SM 23/M02 A2977 RMK SLP077 T02341022 57018 IEM_DS3505
ZBAA,2000-04-27 10:00,ZBAA 271000Z AUTO 17010KT 6SM 23/00 A2977 RMK T02300000 IEM_DS3505
ZBAA,2000-04-27 11:00,ZBAA 271100Z AUTO 18008KT 6SM 21/01 A2977 RMK T02100010 IEM_DS3505
ZBAA,2000-04-27 12:00,ZBAA 271200Z AUTO 20004KT 6SM 20/02 A2980 RMK SLP086 T01950015 52009 IEM_DS3505
ZBAA,2000-04-27 13:00,ZBAA 271300Z AUTO 12004KT 6SM 17/04 A2980 RMK T01700040 IEM_DS3505
ZBAA,2000-04-27 14:00,ZBAA 271400Z AUTO 11004KT 6SM 17/05 A2980 RMK T01700050 IEM_DS3505
ZBAA,2000-04-27 15:00,ZBAA 271500Z AUTO 19002KT 7SM 17/02 A2980 RMK SLP090 T01740018 52004 IEM_DS3505
ZBAA,2000-04-27 16:00,ZBAA 271600Z AUTO 12004KT 6SM 15/04 A2980 RMK T01500040 IEM_DS3505
ZBAA,2000-04-27 17:00,ZBAA 271700Z AUTO 11004KT 6SM 14/05 A2983 RMK T01400050 IEM_DS3505
ZBAA,2000-04-27 18:00,ZBAA 271800Z AUTO 11002KT 9SM 13/02 A2980 RMK SLP090 T01290022 54000 IEM_DS3505
ZBAA,2000-04-27 19:00,ZBAA 271900Z AUTO 11002KT 6SM 12/06 A2980 RMK T01200060 IEM_DS3505
ZBAA,2000-04-27 20:00,ZBAA 272000Z AUTO 12002KT 6SM 12/06 A2980 RMK T01200060 IEM_DS3505
ZBAA,2000-04-27 21:00,ZBAA 272100Z AUTO 02002KT 6SM 12/03 A2980 RMK SLP086 T01150033 57004 IEM_DS3505
ZBAA,2000-04-27 22:00,ZBAA 272200Z AUTO 00000KT 6SM 11/07 A2980 RMK T01100070 IEM_DS3505
ZBAA,2000-04-27 23:00,ZBAA 272300Z AUTO 01002KT 4SM 12/07 A2983 RMK T01200070 IEM_DS3505
ZBAA,2000-04-28 00:00,ZBAA 280000Z AUTO 08002KT 6SM 15/06 A2983 RMK SLP094 T01520062 52008 IEM_DS3505
ZBAA,2000-04-28 01:00,ZBAA 280100Z AUTO 17/09 A2983 RMK T01700090 IEM_DS3505
ZBAA,2000-04-28 02:00,ZBAA 280200Z AUTO 13004KT 6SM 19/07 A2983 RMK T01900070 IEM_DS3505
ZBAA,2000-04-28 03:00,ZBAA 280300Z AUTO 10002KT 6SM 20/06 A2980 RMK SLP088 T01990059 57006 IEM_DS3505
ZBAA,2000-04-28 04:00,ZBAA 280400Z AUTO 12006KT 21/08 A2977 RMK T02100080 IEM_DS3505
ZBAA,2000-04-28 05:00,ZBAA 280500Z AUTO 12008KT 5SM 22/10 A2974 RMK T02200100 IEM_DS3505
ZBAA,2000-04-28 06:00,ZBAA 280600Z AUTO 19004KT 6SM 24/07 A2971 RMK SLP061 T02420069 57027 IEM_DS3505
ZBAA,2000-04-28 07:00,ZBAA 280700Z AUTO 18008KT 5SM 25/08 A2971 RMK T02500080 IEM_DS3505
ZBAA,2000-04-28 08:00,ZBAA 280800Z AUTO 18008KT 5SM 26/09 A2968 RMK T02600090 IEM_DS3505
ZBAA,2000-04-28 09:00,ZBAA 280900Z AUTO 19004KT 6SM 25/06 A2968 RMK SLP048 T02510059 57013 IEM_DS3505
ZBAA,2000-04-28 10:00,ZBAA 281000Z AUTO 17006KT 25/09 A2968 RMK T02500090 IEM_DS3505
ZBAA,2000-04-28 11:00,ZBAA 281100Z AUTO 16004KT 23/08 A2968 RMK T02300080 IEM_DS3505
ZBAA,2000-04-28 12:00,ZBAA 281200Z AUTO 00000KT 6SM 20/07 A2971 RMK SLP056 T02030073 52008 IEM_DS3505
ZBAA,2000-04-28 13:00,ZBAA 281300Z AUTO 11002KT 2 1/2SM 20/09 A2974 RMK T02000090 IEM_DS3505
ZBAA,2000-04-28 14:00,ZBAA 281400Z AUTO 13002KT 2 1/2SM 19/09 A2974 RMK T01900090 IEM_DS3505
ZBAA,2000-04-28 15:00,ZBAA 281500Z AUTO 17004KT 6SM 20/08 A2974 RMK SLP066 T02020079 52010 IEM_DS3505
ZBAA,2000-04-28 16:00,ZBAA 281600Z AUTO 15004KT 2 1/2SM 18/10 A2974 RMK T01800100 IEM_DS3505
ZBAA,2000-04-28 17:00,ZBAA 281700Z AUTO 12004KT 2 1/2SM 17/10 A2971 RMK T01700100 IEM_DS3505
ZBAA,2000-04-28 18:00,ZBAA 281800Z AUTO 29002KT 7SM 18/08 A2974 RMK SLP060 T01840081 57006 IEM_DS3505
ZBAA,2000-04-28 19:00,ZBAA 281900Z AUTO 18004KT 17/10 A2971 RMK T01700100 IEM_DS3505
ZBAA,2000-04-28 20:00,ZBAA 282000Z AUTO 28004KT 17/10 A2971 RMK T01700100 IEM_DS3505
ZBAA,2000-04-28 21:00,ZBAA 282100Z AUTO 33006G17KT 6SM 20/06 A2977 RMK SLP070 T01970058 52010 IEM_DS3505
ZBAA,2000-04-28 22:00,ZBAA 282200Z AUTO 31025G37KT 16/08 A2980 RMK T01600080 IEM_DS3505
ZBAA,2000-04-28 23:00,ZBAA 282300Z AUTO 31019G29KT 7SM 14/08 A2985 RMK T01400080 IEM_DS3505
ZBAA,2000-04-29 00:00,ZBAA 290000Z AUTO 32014G27KT 9SM 13/05 A2991 RMK 60003 SLP120 T01310050 52049 IEM_DS3505
ZBAA,2000-04-29 01:00,ZBAA 290100Z AUTO 01006KT 7SM 11/09 A2991 RMK T01100090 IEM_DS3505
ZBAA,2000-04-29 02:00,ZBAA 290200Z AUTO 7SM 10/09 A2991 RMK T01000090 IEM_DS3505
ZBAA,2000-04-29 03:00,ZBAA 290300Z AUTO 01004KT 7SM 12/07 A2988 RMK SLP119 T01180069 57001 IEM_DS3505
ZBAA,2000-04-29 04:00,ZBAA 290400Z AUTO 36004KT 6SM 13/09 A2985 RMK T01300090 IEM_DS3505
ZBAA,2000-04-29 05:00,ZBAA 290500Z AUTO 06004KT 6SM 15/09 A2985 RMK T01500090 IEM_DS3505
ZBAA,2000-04-29 06:00,ZBAA 290600Z AUTO 13006KT 7SM 18/07 A2980 RMK 60008 SLP090 T01800074 57028 IEM_DS3505
ZBAA,2000-04-29 07:00,ZBAA 290700Z AUTO 16008KT 6SM 19/09 A2977 RMK T01900090 IEM_DS3505
ZBAA,2000-04-29 08:00,ZBAA 290800Z AUTO 18016KT 20/08 A2974 RMK T02000080 IEM_DS3505
ZBAA,2000-04-29 09:00,ZBAA 290900Z AUTO 21010KT 6SM 20/06 A2971 RMK SLP060 T02020055 57030 IEM_DS3505
ZBAA,2000-04-29 10:00,ZBAA 291000Z AUTO 19006KT 20/09 A2971 RMK T02000090 IEM_DS3505
ZBAA,2000-04-29 11:00,ZBAA 291100Z AUTO 15002KT 18/10 A2974 RMK T01800100 IEM_DS3505
ZBAA,2000-04-29 12:00,ZBAA 291200Z AUTO 22008KT 7SM 18/06 A2974 RMK SLP075 T01780061 52014 IEM_DS3505
ZBAA,2000-04-29 13:00,ZBAA 291300Z AUTO 16/10 A2977 RMK T01600100 IEM_DS3505
ZBAA,2000-04-29 14:00,ZBAA 291400Z AUTO 18002KT 4SM 16/11 A2977 RMK T01600110 IEM_DS3505
ZBAA,2000-04-29 15:00,ZBAA 291500Z AUTO 23006KT 6SM 17/05 A2977 RMK SLP080 T01670054 52006 IEM_DS3505
ZBAA,2000-04-29 16:00,ZBAA 291600Z AUTO 4SM 14/10 A2977 RMK T01400100 IEM_DS3505
ZBAA,2000-04-29 17:00,ZBAA 291700Z AUTO 09004KT 4SM 13/10 A2977 RMK T01300100 IEM_DS3505
ZBAA,2000-04-29 18:00,ZBAA 291800Z AUTO 00000KT 6SM 13/06 A2977 RMK SLP073 T01320061 57008 IEM_DS3505
ZBAA,2000-04-29 19:00,ZBAA 291900Z AUTO 07002KT 4SM 12/09 A2977 RMK T01200090 IEM_DS3505
ZBAA,2000-04-29 20:00,ZBAA 292000Z AUTO 00000KT 4SM 11/09 A2977 RMK T01100090 IEM_DS3505
ZBAA,2000-04-29 21:00,ZBAA 292100Z AUTO 01002KT 6SM 11/07 A2977 RMK 70006 SLP078 T01130074 52005 IEM_DS3505
ZBAA,2000-04-29 22:00,ZBAA 292200Z AUTO 00000KT 2 1/2SM 10/09 A2977 RMK T01000090 IEM_DS3505
ZBAA,2000-04-29 23:00,ZBAA 292300Z AUTO 00000KT 4SM 13/11 A2980 RMK T01300110 IEM_DS3505
ZBAA,2000-04-30 00:00,ZBAA 300000Z AUTO 00000KT 6SM 16/08 A2980 RMK 70006 SLP088 T01620084 52011 IEM_DS3505
ZBAA,2000-04-30 01:00,ZBAA 300100Z AUTO 5SM 18/11 A2980 RMK T01800110 IEM_DS3505
ZBAA,2000-04-30 02:00,ZBAA 300200Z AUTO 18002KT 6SM 22/08 A2977 RMK T02200080 IEM_DS3505
ZBAA,2000-04-30 03:00,ZBAA 300300Z AUTO 22006KT 6SM 24/05 A2974 RMK SLP071 T02420051 57017 IEM_DS3505
ZBAA,2000-04-30 04:00,ZBAA 300400Z AUTO 27014G25KT 6SM 29/M01 A2971 RMK T02901010 IEM_DS3505
ZBAA,2000-04-30 05:00,ZBAA 300500Z AUTO 27016KT 6SM 29/M01 A2968 RMK T02901010 IEM_DS3505
ZBAA,2000-04-30 06:00,ZBAA 300600Z AUTO 23008KT 12SM 29/01 RMK SLP038 T02890006 57033 IEM_DS3505
ZBAA,2000-04-30 07:00,ZBAA 300700Z AUTO 29016G25KT 6SM 31/M02 A2962 RMK T03101020 IEM_DS3505
ZBAA,2000-04-30 08:00,ZBAA 300800Z AUTO 28016G27KT 6SM 31/M01 A2959 RMK T03101010 IEM_DS3505
ZBAA,2000-04-30 09:00,ZBAA 300900Z AUTO 24006KT 12SM 29/02 A2956 RMK SLP016 T02930018 57022 IEM_DS3505
ZBAA,2000-04-30 10:00,ZBAA 301000Z AUTO 31010KT 6SM 31/M02 A2956 RMK T03101020 IEM_DS3505
ZBAA,2000-04-30 11:00,ZBAA 301100Z AUTO 32012KT 6SM 29/M03 A2959 RMK T02901030 IEM_DS3505
ZBAA,2000-04-30 12:00,ZBAA 301200Z AUTO 29006KT 19SM 28/M06 A2962 RMK SLP026 T02811063 52010 IEM_DS3505
ZBAA,2000-04-30 13:00,ZBAA 301300Z AUTO 32012KT 6SM 27/M03 A2965 RMK T02701030 IEM_DS3505
ZBAA,2000-04-30 14:00,ZBAA 301400Z AUTO 33017G31KT 6SM 27/M04 A2968 RMK T02701040 IEM_DS3505
ZBAA,2000-04-30 15:00,ZBAA 301500Z AUTO 32006KT 12SM 25/M05 A2968 RMK SLP049 T02521051 52024 IEM_DS3505
ZBAA,2000-04-30 16:00,ZBAA 301600Z AUTO 29006KT 6SM 23/M01 A2968 RMK T02301010 IEM_DS3505
ZBAA,2000-04-30 17:00,ZBAA 301700Z AUTO 31010KT 6SM 23/M02 A2968 RMK T02301020 IEM_DS3505
ZBAA,2000-04-30 18:00,ZBAA 301800Z AUTO 32002KT 6SM 19/M01 A2968 RMK SLP054 T01911008 52005 IEM_DS3505
ZBAA,2000-04-30 19:00,ZBAA 301900Z AUTO 35008KT 6SM 19/01 A2971 RMK T01900010 IEM_DS3505
ZBAA,2000-04-30 20:00,ZBAA 302000Z AUTO 03006KT 6SM 20/01 A2974 RMK T02000010 IEM_DS3505
ZBAA,2000-04-30 21:00,ZBAA 302100Z AUTO 06006KT 16SM 19/M01 A2977 RMK SLP073 T01901014 52019 IEM_DS3505
ZBAA,2000-04-30 22:00,ZBAA 302200Z AUTO 05002KT 6SM 16/01 A2980 RMK T01600010 IEM_DS3505
ZBAA,2000-04-30 23:00,ZBAA 302300Z AUTO 09004KT 6SM 17/04 A2983 RMK T01700040 IEM_DS3505
ZBAA,2000-05-01 00:00,ZBAA 010000Z AUTO 11004KT 9SM 18/06 A2988 RMK SLP114 T01750061 52040 IEM_DS3505
ZBAA,2000-05-01 01:00,ZBAA 010100Z AUTO 13004KT 6SM 20/07 A2988 RMK T02000070 IEM_DS3505
ZBAA,2000-05-01 02:00,ZBAA 010200Z AUTO 12008KT 6SM 21/06 A2991 RMK T02100060 IEM_DS3505
ZBAA,2000-05-01 03:00,ZBAA 010300Z AUTO 14006KT 9SM 21/07 A2991 RMK SLP129 T02080071 52015 IEM_DS3505
ZBAA,2000-05-01 04:00,ZBAA 010400Z AUTO 15006KT 6SM 22/04 A2991 RMK T02200040 IEM_DS3505
ZBAA,2000-05-01 05:00,ZBAA 010500Z AUTO 6SM 23/06 A2988 RMK T02300060 IEM_DS3505
ZBAA,2000-05-01 06:00,ZBAA 010600Z AUTO 16006KT 12SM 23/05 A2988 RMK SLP113 T02270052 57016 IEM_DS3505
ZBAA,2000-05-01 07:00,ZBAA 010700Z AUTO 6SM 24/05 A2985 RMK T02400050 IEM_DS3505
ZBAA,2000-05-01 08:00,ZBAA 010800Z AUTO 19006KT 6SM 24/06 A2985 RMK T02400060 IEM_DS3505
ZBAA,2000-05-01 09:00,ZBAA 010900Z AUTO 13006KT 9SM 22/07 A2985 RMK SLP107 T02180073 57006 IEM_DS3505
ZBAA,2000-05-01 10:00,ZBAA 011000Z AUTO 18008KT 6SM 23/06 A2985 RMK T02300060 IEM_DS3505
ZBAA,2000-05-01 11:00,ZBAA 011100Z AUTO 17006KT 6SM 21/06 A2988 RMK T02100060 IEM_DS3505
ZBAA,2000-05-01 12:00,ZBAA 011200Z AUTO 18004KT 9SM 20/05 A2991 RMK SLP127 T01950052 52020 IEM_DS3505
ZBAA,2000-05-01 13:00,ZBAA 011300Z AUTO 16008KT 6SM 18/06 A2994 RMK T01800060 IEM_DS3505
ZBAA,2000-05-01 14:00,ZBAA 011400Z AUTO 17010KT 6SM 17/05 A2997 RMK T01700050 IEM_DS3505
ZBAA,2000-05-01 15:00,ZBAA 011500Z AUTO 22002KT 12SM 16/03 A2997 RMK SLP151 T01550033 52023 IEM_DS3505
ZBAA,2000-05-01 16:00,ZBAA 011600Z AUTO 11004KT 6SM 15/05 A2997 RMK T01500050 IEM_DS3505
ZBAA,2000-05-01 17:00,ZBAA 011700Z AUTO 11004KT 6SM 13/07 A3000 RMK T01300070 IEM_DS3505
ZBAA,2000-05-01 18:00,ZBAA 011800Z AUTO 19002KT 12SM 14/03 A3000 RMK SLP152 T01400029 52002 IEM_DS3505
ZBAA,2000-05-01 19:00,ZBAA 011900Z AUTO 13004KT 6SM 12/06 A3000 RMK T01200060 IEM_DS3505
ZBAA,2000-05-01 20:00,ZBAA 012000Z AUTO 11004KT 6SM 11/06 A2997 RMK T01100060 IEM_DS3505
ZBAA,2000-05-01 21:00,ZBAA 012100Z AUTO 19002KT 6SM 12/03 A2997 RMK SLP148 T01210034 57005 IEM_DS3505
ZBAA,2000-05-01 22:00,ZBAA 012200Z AUTO 10002KT 6SM 10/06 A2997 RMK T01000060 IEM_DS3505
ZBAA,2000-05-01 23:00,ZBAA 012300Z AUTO 00000KT 6SM 13/06 A3000 RMK T01300060 IEM_DS3505
ZBAA,2000-05-02 00:00,ZBAA 020000Z AUTO 23004KT 9SM 16/04 A3000 RMK SLP155 T01590040 52007 IEM_DS3505
ZBAA,2000-05-02 01:00,ZBAA 020100Z AUTO 12002KT 6SM 17/07 A3000 RMK T01700070 IEM_DS3505
ZBAA,2000-05-02 02:00,ZBAA 020200Z AUTO 19004KT 6SM 20/05 A2997 RMK T02000050 IEM_DS3505
ZBAA,2000-05-02 03:00,ZBAA 020300Z AUTO 21008KT 9SM 22/03 A2994 RMK SLP141 T02160033 57013 IEM_DS3505
ZBAA,2000-05-02 04:00,ZBAA 020400Z AUTO 19010KT 6SM 23/03 A2994 RMK T02300030 IEM_DS3505
ZBAA,2000-05-02 05:00,ZBAA 020500Z AUTO 20010KT 6SM 24/03 A2991 RMK T02400030 IEM_DS3505
ZBAA,2000-05-02 06:00,ZBAA 020600Z AUTO 18004KT 12SM 24/03 A2988 RMK SLP113 T02380032 57028 IEM_DS3505
ZBAA,2000-05-02 07:00,ZBAA 020700Z AUTO 19012KT 6SM 24/04 A2985 RMK T02400040 IEM_DS3505
ZBAA,2000-05-02 08:00,ZBAA 020800Z AUTO 19010KT 6SM 25/05 A2983 RMK T02500050 IEM_DS3505
ZBAA,2000-05-02 09:00,ZBAA 020900Z AUTO 20004KT 12SM 24/04 A2980 RMK SLP087 T02450038 57026 IEM_DS3505
ZBAA,2000-05-02 10:00,ZBAA 021000Z AUTO 18010KT 6SM 24/06 A2980 RMK T02400060 IEM_DS3505
ZBAA,2000-05-02 11:00,ZBAA 021100Z AUTO 16006KT 6SM 23/06 A2980 RMK T02300060 IEM_DS3505
ZBAA,2000-05-02 12:00,ZBAA 021200Z AUTO 13002KT 7SM 20/05 A2980 RMK SLP086 T02010054 57001 IEM_DS3505
ZBAA,2000-05-02 13:00,ZBAA 021300Z AUTO 12004KT 6SM 20/09 A2980 RMK T02000090 IEM_DS3505
ZBAA,2000-05-02 14:00,ZBAA 021400Z AUTO 10004KT 6SM 19/09 A2983 RMK T01900090 IEM_DS3505
ZBAA,2000-05-02 15:00,ZBAA 021500Z AUTO 08004KT 6SM 18/08 A2985 RMK SLP098 T01790085 52012 IEM_DS3505
ZBAA,2000-05-02 16:00,ZBAA 021600Z AUTO 12004KT 6SM 17/09 A2983 RMK T01700090 IEM_DS3505
ZBAA,2000-05-02 17:00,ZBAA 021700Z AUTO 30004KT 6SM 17/09 A2983 RMK T01700090 IEM_DS3505
ZBAA,2000-05-02 18:00,ZBAA 021800Z AUTO 06002KT 6SM 16/08 A2980 RMK SLP085 T01600085 57013 IEM_DS3505
ZBAA,2000-05-02 19:00,ZBAA 021900Z AUTO 00000KT 6SM 16/09 A2977 RMK T01600090 IEM_DS3505
ZBAA,2000-05-02 20:00,ZBAA 022000Z AUTO 00000KT 6SM 15/10 A2977 RMK T01500100 IEM_DS3505
ZBAA,2000-05-02 21:00,ZBAA 022100Z AUTO 35002KT 6SM 16/07 A2977 RMK SLP079 T01590074 57006 IEM_DS3505
ZBAA,2000-05-02 22:00,ZBAA 022200Z AUTO 00000KT 5SM 14/09 A2977 RMK T01400090 IEM_DS3505
ZBAA,2000-05-02 23:00,ZBAA 022300Z AUTO 00000KT 5SM 15/10 A2980 RMK T01500100 IEM_DS3505
ZBAA,2000-05-03 00:00,ZBAA 030000Z AUTO 08004KT 6SM 18/08 A2980 RMK SLP090 T01810075 52011 IEM_DS3505
ZBAA,2000-05-03 01:00,ZBAA 030100Z AUTO 21/10 A2983 RMK T02100100 IEM_DS3505
ZBAA,2000-05-03 02:00,ZBAA 030200Z AUTO 02002KT 6SM 24/09 A2983 RMK T02400090 IEM_DS3505
ZBAA,2000-05-03 03:00,ZBAA 030300Z AUTO 11004KT 6SM 24/07 A2983 RMK SLP094 T02450072 52004 IEM_DS3505
ZBAA,2000-05-03 04:00,ZBAA 030400Z AUTO 6SM 28/03 A2980 RMK T02800030 IEM_DS3505
ZBAA,2000-05-03 05:00,ZBAA 030500Z AUTO 35004KT 6SM 29/01 A2980 RMK T02900010 IEM_DS3505
ZBAA,2000-05-03 06:00,ZBAA 030600Z AUTO 07006KT 11SM 29/02 A2977 RMK SLP072 T02920025 57022 IEM_DS3505
ZBAA,2000-05-03 07:00,ZBAA 030700Z AUTO 13004KT 6SM 30/03 A2974 RMK T03000030 IEM_DS3505
ZBAA,2000-05-03 08:00,ZBAA 030800Z AUTO 11004KT 6SM 30/02 A2974 RMK T03000020 IEM_DS3505
ZBAA,2000-05-03 09:00,ZBAA 030900Z AUTO 20004KT 12SM 29/02 A2971 RMK SLP065 T02910016 57007 IEM_DS3505
ZBAA,2000-05-03 10:00,ZBAA 031000Z AUTO 16002KT 6SM 29/03 A2974 RMK T02900030 IEM_DS3505
ZBAA,2000-05-03 11:00,ZBAA 031100Z AUTO 19006KT 6SM 27/04 A2974 RMK T02700040 IEM_DS3505
ZBAA,2000-05-03 12:00,ZBAA 031200Z AUTO 16002KT 9SM 23/05 A2977 RMK SLP078 T02310051 52013 IEM_DS3505
ZBAA,2000-05-03 13:00,ZBAA 031300Z AUTO 20006KT 6SM 24/06 A2980 RMK T02400060 IEM_DS3505
ZBAA,2000-05-03 14:00,ZBAA 031400Z AUTO 11006KT 6SM 22/07 A2980 RMK T02200070 IEM_DS3505
ZBAA,2000-05-03 15:00,ZBAA 031500Z AUTO 13006KT 9SM 19/06 A2983 RMK SLP094 T01870056 52016 IEM_DS3505
ZBAA,2000-05-03 16:00,ZBAA 031600Z AUTO 12008KT 19/12 A2983 RMK T01900120 IEM_DS3505
ZBAA,2000-05-03 17:00,ZBAA 031700Z AUTO 12006KT 18/11 A2983 RMK T01800110 IEM_DS3505
ZBAA,2000-05-03 18:00,ZBAA 031800Z AUTO 10004KT 7SM 15/10 A2983 RMK SLP090 T01530097 57004 IEM_DS3505
ZBAA,2000-05-03 19:00,ZBAA 031900Z AUTO 00000KT 4SM 16/11 A2983 RMK T01600110 IEM_DS3505
ZBAA,2000-05-03 20:00,ZBAA 032000Z AUTO 00000KT 4SM 15/11 A2980 RMK T01500110 IEM_DS3505
ZBAA,2000-05-03 21:00,ZBAA 032100Z AUTO 08002KT 5SM 13/10 A2980 RMK SLP085 T01310096 57005 IEM_DS3505
ZBAA,2000-05-03 22:00,ZBAA 032200Z AUTO 13002KT 4SM 14/10 A2980 RMK T01400100 IEM_DS3505
ZBAA,2000-05-03 23:00,ZBAA 032300Z AUTO 13002KT 3SM 15/11 A2983 RMK T01500110 IEM_DS3505
ZBAA,2000-05-04 00:00,ZBAA 040000Z AUTO 09004KT 2 1/2SM 16/12 A2983 RMK SLP091 T01580116 52006 IEM_DS3505
ZBAA,2000-05-04 01:00,ZBAA 040100Z AUTO 13004KT 3SM 19/13 A2980 RMK T01900130 IEM_DS3505
ZBAA,2000-05-04 02:00,ZBAA 040200Z AUTO 3SM 20/14 A2980 RMK T02000140 IEM_DS3505
ZBAA,2000-05-04 03:00,ZBAA 040300Z AUTO 09004KT 3SM 21/13 A2977 RMK SLP078 T02060128 57013 IEM_DS3505
ZBAA,2000-05-04 04:00,ZBAA 040400Z AUTO 13006KT 2 1/2SM 23/14 A2974 RMK T02300140 IEM_DS3505
ZBAA,2000-05-04 05:00,ZBAA 040500Z AUTO 13006KT 2 1/2SM 24/14 A2974 RMK T02400140 IEM_DS3505
ZBAA,2000-05-04 06:00,ZBAA 040600Z AUTO 13006KT 3SM 24/15 A2971 RMK T02400150 IEM_DS3505
ZBAA,2000-05-04 07:00,ZBAA 040700Z AUTO 11006KT 3SM 26/16 A2968 RMK T02600160 IEM_DS3505
ZBAA,2000-05-04 08:00,ZBAA 040800Z AUTO 13006KT 26/16 A2965 RMK T02600160 IEM_DS3505
ZBAA,2000-05-04 09:00,ZBAA 040900Z AUTO 12008KT 6SM 25/15 A2965 RMK SLP031 T02510149 57022 IEM_DS3505
ZBAA,2000-05-04 10:00,ZBAA 041000Z AUTO 12006KT 5SM 25/14 A2968 RMK T02500140 IEM_DS3505
ZBAA,2000-05-04 11:00,ZBAA 041100Z AUTO 09002KT 5SM 24/12 A2971 RMK T02400120 IEM_DS3505
ZBAA,2000-05-04 12:00,ZBAA 041200Z AUTO 05006KT 7SM 23/11 A2971 RMK SLP063 T02270108 52032 IEM_DS3505
ZBAA,2000-05-04 13:00,ZBAA 041300Z AUTO 00000KT 22/13 A2977 RMK T02200130 IEM_DS3505
ZBAA,2000-05-04 14:00,ZBAA 041400Z AUTO 30004KT 4SM 23/13 A2980 RMK T02300130 IEM_DS3505
ZBAA,2000-05-04 15:00,ZBAA 041500Z AUTO 08004KT 7SM 20/11 A2983 RMK SLP093 T01980113 52030 IEM_DS3505
ZBAA,2000-05-04 16:00,ZBAA 041600Z AUTO 02004KT 7SM 21/08 A2985 RMK T02100080 IEM_DS3505
ZBAA,2000-05-04 17:00,ZBAA 041700Z AUTO 02008KT 7SM 21/08 A2985 RMK T02100080 IEM_DS3505
ZBAA,2000-05-04 18:00,ZBAA 041800Z AUTO 01010KT 12SM 22/04 A2988 RMK SLP114 T02180035 52021 IEM_DS3505
ZBAA,2000-05-04 19:00,ZBAA 041900Z AUTO 01008KT 6SM 20/06 A2991 RMK T02000060 IEM_DS3505
ZBAA,2000-05-04 20:00,ZBAA 042000Z AUTO 01010KT 6SM 20/04 A2994 RMK T02000040 IEM_DS3505
ZBAA,2000-05-04 21:00,ZBAA 042100Z AUTO 03006G23KT 19SM 19/01 A2997 RMK SLP153 T01940014 52039 IEM_DS3505
ZBAA,2000-05-04 22:00,ZBAA 042200Z AUTO 02008KT 6SM 19/01 A3003 RMK T01900010 IEM_DS3505
ZBAA,2000-05-04 23:00,ZBAA 042300Z AUTO 01008KT 6SM 19/02 A3009 RMK T01900020 IEM_DS3505
ZBAA,2000-05-05 00:00,ZBAA 050000Z AUTO 03012KT 17SM 20/M05 A3009 RMK SLP191 T02041054 52038 IEM_DS3505
ZBAA,2000-05-05 01:00,ZBAA 050100Z AUTO 03010G19KT 6SM 20/M03 A3012 RMK T02001030 IEM_DS3505
ZBAA,2000-05-05 02:00,ZBAA 050200Z AUTO 03008KT 6SM 22/M05 A3015 RMK T02201050 IEM_DS3505
ZBAA,2000-05-05 03:00,ZBAA 050300Z AUTO 02006G17KT 12SM 22/M08 A3015 RMK SLP203 T02211085 52012 IEM_DS3505
ZBAA,2000-05-05 04:00,ZBAA 050400Z AUTO 05006KT 6SM 24/M06 A3012 RMK T02401060 IEM_DS3505
ZBAA,2000-05-05 05:00,ZBAA 050500Z AUTO 07006KT 6SM 24/M06 A3012 RMK T02401060 IEM_DS3505
ZBAA,2000-05-05 06:00,ZBAA 050600Z AUTO 09008KT 16SM 24/M07 A3009 RMK SLP187 T02421069 57016 IEM_DS3505
ZBAA,2000-05-05 07:00,ZBAA 050700Z AUTO 6SM 25/M08 A3009 RMK T02501080 IEM_DS3505
ZBAA,2000-05-05 08:00,ZBAA 050800Z AUTO 6SM 26/M09 A3006 RMK T02601090 IEM_DS3505
ZBAA,2000-05-05 09:00,ZBAA 050900Z AUTO 14008KT 16SM 22/M03 A3006 RMK SLP186 T02231031 57001 IEM_DS3505
ZBAA,2000-05-05 10:00,ZBAA 051000Z AUTO 15008KT 6SM 24/M02 A3009 RMK T02401020 IEM_DS3505
ZBAA,2000-05-05 11:00,ZBAA 051100Z AUTO 18010KT 6SM 21/03 A3012 RMK T02100030 IEM_DS3505
ZBAA,2000-05-05 12:00,ZBAA 051200Z AUTO 17008KT 9SM 19/02 A3015 RMK SLP207 T01930018 52021 IEM_DS3505
ZBAA,2000-05-05 13:00,ZBAA 051300Z AUTO 17008KT 6SM 18/03 A3015 RMK T01800030 IEM_DS3505
ZBAA,2000-05-05 14:00,ZBAA 051400Z AUTO 17008KT 6SM 17/06 A3018 RMK T01700060 IEM_DS3505
ZBAA,2000-05-05 15:00,ZBAA 051500Z AUTO 20004KT 9SM 15/04 A3021 RMK SLP226 T01470038 52018 IEM_DS3505
ZBAA,2000-05-05 16:00,ZBAA 051600Z AUTO 12004KT 6SM 14/06 A3021 RMK T01400060 IEM_DS3505
ZBAA,2000-05-05 17:00,ZBAA 051700Z AUTO 10002KT 6SM 13/06 A3021 RMK T01300060 IEM_DS3505
ZBAA,2000-05-05 18:00,ZBAA 051800Z AUTO 00000KT 12SM 12/04 A3021 RMK SLP226 T01240036 54000 IEM_DS3505
ZBAA,2000-05-05 19:00,ZBAA 051900Z AUTO 13002KT 6SM 10/05 A3021 RMK T01000050 IEM_DS3505
ZBAA,2000-05-05 20:00,ZBAA 052000Z AUTO 14002KT 6SM 09/06 A3021 RMK T00900060 IEM_DS3505
ZBAA,2000-05-05 21:00,ZBAA 052100Z AUTO 24002KT 12SM 11/04 A3021 RMK SLP224 T01130041 57002 IEM_DS3505
ZBAA,2000-05-05 22:00,ZBAA 052200Z AUTO 00000KT 6SM 10/07 A3018 RMK T01000070 IEM_DS3505
ZBAA,2000-05-05 23:00,ZBAA 052300Z AUTO 12002KT 6SM 12/07 A3018 RMK T01200070 IEM_DS3505
ZBAA,2000-05-06 00:00,ZBAA 060000Z AUTO 24006KT 9SM 15/07 A3018 RMK SLP222 T01510069 57002 IEM_DS3505
ZBAA,2000-05-06 01:00,ZBAA 060100Z AUTO 6SM 17/07 A3018 RMK T01700070 IEM_DS3505
ZBAA,2000-05-06 02:00,ZBAA 060200Z AUTO 6SM 19/07 A3018 RMK T01900070 IEM_DS3505
ZBAA,2000-05-06 03:00,ZBAA 060300Z AUTO 21004KT 7SM 21/08 A3015 RMK SLP206 T02090079 57015 IEM_DS3505
ZBAA,2000-05-06 04:00,ZBAA 060400Z AUTO 17004KT 24/06 A3012 RMK T02400060 IEM_DS3505
ZBAA,2000-05-06 05:00,ZBAA 060500Z AUTO 20006G16KT 25/05 A3009 RMK T02500050 IEM_DS3505
ZBAA,2000-05-06 06:00,ZBAA 060600Z AUTO 22008KT 9SM 26/03 A3006 RMK SLP175 T02580031 57031 IEM_DS3505
ZBAA,2000-05-06 07:00,ZBAA 060700Z AUTO 19008G17KT 6SM 27/06 A3000 RMK T02700060 IEM_DS3505
ZBAA,2000-05-06 08:00,ZBAA 060800Z AUTO 19010KT 6SM 27/05 A2997 RMK T02700050 IEM_DS3505
ZBAA,2000-05-06 09:00,ZBAA 060900Z AUTO 22008KT 9SM 26/03 A2997 RMK SLP145 T02590026 57030 IEM_DS3505
ZBAA,2000-05-06 10:00,ZBAA 061000Z AUTO 20010KT 6SM 26/05 A2994 RMK T02600050 IEM_DS3505
ZBAA,2000-05-06 11:00,ZBAA 061100Z AUTO 19006KT 6SM 24/03 A2994 RMK T02400030 IEM_DS3505
ZBAA,2000-05-06 12:00,ZBAA 061200Z AUTO 21004KT 9SM 22/02 A2997 RMK SLP144 T02180020 57001 IEM_DS3505
ZBAA,2000-05-06 13:00,ZBAA 061300Z AUTO 16004KT 6SM 20/05 A2997 RMK T02000050 IEM_DS3505
ZBAA,2000-05-06 14:00,ZBAA 061400Z AUTO 11002KT 6SM 20/05 A2997 RMK T02000050 IEM_DS3505
ZBAA,2000-05-06 15:00,ZBAA 061500Z AUTO 21004KT 7SM 19/04 A2997 RMK SLP147 T01870045 52003 IEM_DS3505
ZBAA,2000-05-06 16:00,ZBAA 061600Z AUTO 00000KT 6SM 16/07 A2997 RMK T01600070 IEM_DS3505
ZBAA,2000-05-06 17:00,ZBAA 061700Z AUTO 00000KT 6SM 15/08 A2997 RMK T01500080 IEM_DS3505
ZBAA,2000-05-06 18:00,ZBAA 061800Z AUTO 00000KT 7SM 14/06 A2994 RMK SLP137 T01440060 57010 IEM_DS3505
ZBAA,2000-05-06 19:00,ZBAA 061900Z AUTO 00000KT 6SM 14/08 A2994 RMK T01400080 IEM_DS3505
ZBAA,2000-05-06 20:00,ZBAA 062000Z AUTO 35004KT 6SM 14/07 A2994 RMK T01400070 IEM_DS3505
ZBAA,2000-05-06 21:00,ZBAA 062100Z AUTO 00000KT 6SM 11/06 A2994 RMK SLP135 T01130063 57002 IEM_DS3505
ZBAA,2000-05-06 22:00,ZBAA 062200Z AUTO 35006KT 6SM 13/07 A2994 RMK T01300070 IEM_DS3505
ZBAA,2000-05-06 23:00,ZBAA 062300Z AUTO 35004KT 6SM 17/06 A2994 RMK T01700060 IEM_DS3505
ZBAA,2000-05-07 00:00,ZBAA 070000Z AUTO 00000KT 5SM 19/07 A2994 RMK SLP141 T01930074 52006 IEM_DS3505
ZBAA,2000-05-07 01:00,ZBAA 070100Z AUTO 36006KT 6SM 22/05 A2994 RMK T02200050 IEM_DS3505
ZBAA,2000-05-07 02:00,ZBAA 070200Z AUTO 6SM 24/06 A2994 RMK T02400060 IEM_DS3505
ZBAA,2000-05-07 03:00,ZBAA 070300Z AUTO 17002KT 6SM 27/05 A2991 RMK SLP133 T02730050 57008 IEM_DS3505
ZBAA,2000-05-07 04:00,ZBAA 070400Z AUTO 17004KT 6SM 29/06 A2991 RMK T02900060 IEM_DS3505
ZBAA,2000-05-07 05:00,ZBAA 070500Z AUTO 20006KT 6SM 30/03 A2985 RMK T03000030 IEM_DS3505
ZBAA,2000-05-07 06:00,ZBAA 070600Z AUTO 19006KT 7SM 30/06 A2985 RMK SLP104 T03020062 57029 IEM_DS3505
ZBAA,2000-05-07 07:00,ZBAA 070700Z AUTO 19010KT 6SM 32/05 A2980 RMK T03200050 IEM_DS3505
ZBAA,2000-05-07 08:00,ZBAA 070800Z AUTO 20012KT 6SM 32/M02 A2980 RMK T03201020 IEM_DS3505
ZBAA,2000-05-07 09:00,ZBAA 070900Z AUTO 21008KT 11SM 30/M00 A2977 RMK SLP083 T02981005 57021 IEM_DS3505
ZBAA,2000-05-07 10:00,ZBAA 071000Z AUTO 20010KT 6SM 30/02 A2977 RMK T03000020 IEM_DS3505
ZBAA,2000-05-07 11:00,ZBAA 071100Z AUTO 19008KT 6SM 28/M02 A2977 RMK T02801020 IEM_DS3505
ZBAA,2000-05-07 12:00,ZBAA 071200Z AUTO 22008KT 10SM 25/01 A2977 RMK SLP087 T02470010 52004 IEM_DS3505
ZBAA,2000-05-07 13:00,ZBAA 071300Z AUTO 21014KT 6SM 26/03 A2980 RMK T02600030 IEM_DS3505
ZBAA,2000-05-07 14:00,ZBAA 071400Z AUTO 22012KT 6SM 26/03 A2980 RMK T02600030 IEM_DS3505
ZBAA,2000-05-07 15:00,ZBAA 071500Z AUTO 23010KT 10SM 22/02 A2980 RMK SLP088 T02240015 52001 IEM_DS3505
ZBAA,2000-05-07 16:00,ZBAA 071600Z AUTO 19006KT 6SM 23/03 A2980 RMK T02300030 IEM_DS3505
ZBAA,2000-05-07 17:00,ZBAA 071700Z AUTO 18008KT 6SM 21/04 A2980 RMK T02100040 IEM_DS3505
ZBAA,2000-05-07 18:00,ZBAA 071800Z AUTO 21004KT 11SM 19/05 A2983 RMK SLP091 T01880046 52004 IEM_DS3505
ZBAA,2000-05-07 19:00,ZBAA 071900Z AUTO 12004KT 6SM 16/07 A2983 RMK T01600070 IEM_DS3505
ZBAA,2000-05-07 20:00,ZBAA 072000Z AUTO 13004KT 6SM 15/07 A2983 RMK T01500070 IEM_DS3505
ZBAA,2000-05-07 21:00,ZBAA 072100Z AUTO 00000KT 7SM 16/06 A2985 RMK SLP102 T01570062 52010 IEM_DS3505
ZBAA,2000-05-07 22:00,ZBAA 072200Z AUTO 10002KT 6SM 14/07 A2988 RMK T01400070 IEM_DS3505
ZBAA,2000-05-07 23:00,ZBAA 072300Z AUTO 09002KT 6SM 16/08 A2988 RMK T01600080 IEM_DS3505
ZBAA,2000-05-08 00:00,ZBAA 080000Z AUTO 09002KT 7SM 20/08 A2991 RMK SLP124 T01960080 52022 IEM_DS3505
ZBAA,2000-05-08 01:00,ZBAA 080100Z AUTO 12008KT 6SM 21/10 A2991 RMK T02100100 IEM_DS3505
ZBAA,2000-05-08 02:00,ZBAA 080200Z AUTO 13010KT 6SM 23/10 A2991 RMK T02300100 IEM_DS3505
ZBAA,2000-05-08 03:00,ZBAA 080300Z AUTO 11006KT 9SM 24/12 A2991 RMK SLP132 T02370121 52008 IEM_DS3505
ZBAA,2000-05-08 04:00,ZBAA 080400Z AUTO 14010KT 6SM 26/10 A2991 RMK T02600100 IEM_DS3505
ZBAA,2000-05-08 05:00,ZBAA 080500Z AUTO 14008KT 6SM 26/11 A2991 RMK T02600110 IEM_DS3505
ZBAA,2000-05-08 06:00,ZBAA 080600Z AUTO 11006KT 7SM 25/09 A2988 RMK SLP114 T02540093 57018 IEM_DS3505
ZBAA,2000-05-08 07:00,ZBAA 080700Z AUTO 14012G21KT 7SM 26/11 A2985 RMK T02600110 IEM_DS3505
ZBAA,2000-05-08 08:00,ZBAA 080800Z AUTO 15012KT 7SM 24/07 A2988 RMK T02400070 IEM_DS3505
ZBAA,2000-05-08 09:00,ZBAA 080900Z AUTO 13008KT 7SM 21/03 A2988 RMK SLP113 T02060034 57001 IEM_DS3505
ZBAA,2000-05-08 10:00,ZBAA 081000Z AUTO 15010KT 6SM 21/05 A2988 RMK T02100050 IEM_DS3505
ZBAA,2000-05-08 11:00,ZBAA 081100Z AUTO 16008KT 6SM 21/05 A2988 RMK T02100050 IEM_DS3505
ZBAA,2000-05-08 12:00,ZBAA 081200Z AUTO 15004KT 9SM 19/00 A2991 RMK SLP132 T01880000 52019 IEM_DS3505
ZBAA,2000-05-08 13:00,ZBAA 081300Z AUTO 19004KT 6SM 19/05 A2994 RMK T01900050 IEM_DS3505
ZBAA,2000-05-08 14:00,ZBAA 081400Z AUTO 23002KT 6SM 19/04 A2994 RMK T01900040 IEM_DS3505
ZBAA,2000-05-08 15:00,ZBAA 081500Z AUTO 00000KT 7SM 17/02 A2994 RMK SLP134 T01740022 52001 IEM_DS3505
ZBAA,2000-05-08 16:00,ZBAA 081600Z AUTO 00000KT 6SM 17/07 A2991 RMK T01700070 IEM_DS3505
ZBAA,2000-05-08 17:00,ZBAA 081700Z AUTO 17006KT 6SM 18/01 A2991 RMK T01800010 IEM_DS3505
ZBAA,2000-05-08 18:00,ZBAA 081800Z AUTO 05004KT 9SM 17/M00 A2988 RMK SLP113 T01711001 57020 IEM_DS3505
ZBAA,2000-05-08 19:00,ZBAA 081900Z AUTO 36004KT 6SM 17/02 A2985 RMK T01700020 IEM_DS3505
ZBAA,2000-05-08 20:00,ZBAA 082000Z AUTO 33004KT 6SM 16/02 A2985 RMK T01600020 IEM_DS3505
ZBAA,2000-05-08 21:00,ZBAA 082100Z AUTO 07004KT 9SM 16/01 A2985 RMK SLP102 T01590013 57011 IEM_DS3505
ZBAA,2000-05-08 22:00,ZBAA 082200Z AUTO 16002KT 6SM 16/02 A2985 RMK T01600020 IEM_DS3505
ZBAA,2000-05-08 23:00,ZBAA 082300Z AUTO 18004KT 7SM 16/05 A2988 RMK T01600050 IEM_DS3505
ZBAA,2000-05-09 00:00,ZBAA 090000Z AUTO 05004KT 9SM 15/06 A2991 RMK 60003 SLP123 T01500061 52020 IEM_DS3505
ZBAA,2000-05-09 01:00,ZBAA 090100Z AUTO 29008KT 5SM 13/11 A2991 RMK T01300110 IEM_DS3505
ZBAA,2000-05-09 02:00,ZBAA 090200Z AUTO 31008KT 7SM 12/11 A2991 RMK T01200110 IEM_DS3505
ZBAA,2000-05-09 03:00,ZBAA 090300Z AUTO 35002KT 5SM 12/09 A2991 RMK SLP128 T01210088 52005 IEM_DS3505
ZBAA,2000-05-09 04:00,ZBAA 090400Z AUTO 31008KT 7SM 12/11 A2991 RMK T01200110 IEM_DS3505
ZBAA,2000-05-09 05:00,ZBAA 090500Z AUTO 35012KT 7SM 12/11 A2988 RMK T01200110 IEM_DS3505
ZBAA,2000-05-09 06:00,ZBAA 090600Z AUTO 03006KT 6SM 12/08 A2988 RMK 60028 SLP109 T01200085 57019 IEM_DS3505
ZBAA,2000-05-09 07:00,ZBAA 090700Z AUTO 02010KT 7SM 12/09 A2985 RMK T01200090 IEM_DS3505
ZBAA,2000-05-09 08:00,ZBAA 090800Z AUTO 02010G21KT 7SM 12/09 A2985 RMK T01200090 IEM_DS3505
ZBAA,2000-05-09 09:00,ZBAA 090900Z AUTO 03010KT 16SM 12/06 A2983 RMK SLP099 T01240060 57010 IEM_DS3505
ZBAA,2000-05-09 10:00,ZBAA 091000Z AUTO 02008KT 6SM 12/09 A2983 RMK T01200090 IEM_DS3505
ZBAA,2000-05-09 11:00,ZBAA 091100Z AUTO 02010KT 6SM 12/08 A2985 RMK T01200080 IEM_DS3505
ZBAA,2000-05-09 12:00,ZBAA 091200Z AUTO 04006KT 19SM 12/05 A2985 RMK 60003 SLP107 T01160053 52008 IEM_DS3505
ZBAA,2000-05-09 13:00,ZBAA 091300Z AUTO 02008KT 6SM 11/08 A2985 RMK T01100080 IEM_DS3505
ZBAA,2000-05-09 14:00,ZBAA 091400Z AUTO 02006KT 6SM 11/07 A2985 RMK T01100070 IEM_DS3505
ZBAA,2000-05-09 15:00,ZBAA 091500Z AUTO 02006KT 19SM 12/05 A2985 RMK SLP107 T01160046 54000 IEM_DS3505
ZBAA,2000-05-09 16:00,ZBAA 091600Z AUTO 3SM RMK IEM_DS3505
ZBAA,2000-05-09 17:00,ZBAA 091700Z AUTO 01006KT 7SM 11/08 A2985 RMK T01100080 IEM_DS3505
ZBAA,2000-05-09 18:00,ZBAA 091800Z AUTO 01006KT 16SM 11/05 A2983 RMK SLP101 T01130050 57006 IEM_DS3505
ZBAA,2000-05-09 19:00,ZBAA 091900Z AUTO 36004KT 7SM 10/09 A2983 RMK T01000090 IEM_DS3505
ZBAA,2000-05-09 20:00,ZBAA 092000Z AUTO 34002KT 6SM 10/09 A2983 RMK T01000090 IEM_DS3505
ZBAA,2000-05-09 21:00,ZBAA 092100Z AUTO 00000KT 9SM 10/05 A2983 RMK 70027 SLP093 T01050053 57008 IEM_DS3505
ZBAA,2000-05-09 22:00,ZBAA 092200Z AUTO 36004KT 6SM 10/08 A2983 RMK T01000080 IEM_DS3505
ZBAA,2000-05-09 23:00,ZBAA 092300Z AUTO 35004KT 6SM 11/09 A2983 RMK T01100090 IEM_DS3505
ZBAA,2000-05-10 00:00,ZBAA 100000Z AUTO 35004KT 19SM 14/04 A2983 RMK 70027 SLP096 T01430043 52003 IEM_DS3505
ZBAA,2000-05-10 01:00,ZBAA 100100Z AUTO 35010KT 6SM 16/06 A2983 RMK T01600060 IEM_DS3505
ZBAA,2000-05-10 02:00,ZBAA 100200Z AUTO 35012KT 6SM 18/04 A2983 RMK T01800040 IEM_DS3505
ZBAA,2000-05-10 03:00,ZBAA 100300Z AUTO 01008KT 19SM 18/02 A2980 RMK SLP089 T01840019 57006 IEM_DS3505
ZBAA,2000-05-10 04:00,ZBAA 100400Z AUTO 6SM 20/05 A2980 RMK T02000050 IEM_DS3505
ZBAA,2000-05-10 05:00,ZBAA 100500Z AUTO 05006KT 6SM 21/05 A2977 RMK T02100050 IEM_DS3505
ZBAA,2000-05-10 06:00,ZBAA 100600Z AUTO 01006KT 19SM 21/01 A2974 RMK SLP068 T02090013 57021 IEM_DS3505
ZBAA,2000-05-10 07:00,ZBAA 100700Z AUTO 6SM 22/04 A2974 RMK T02200040 IEM_DS3505
ZBAA,2000-05-10 08:00,ZBAA 100800Z AUTO 6SM 22/05 A2971 RMK T02200050 IEM_DS3505
ZBAA,2000-05-10 09:00,ZBAA 100900Z AUTO 20004KT 19SM 22/02 A2971 RMK SLP056 T02170019 57012 IEM_DS3505
ZBAA,2000-05-10 10:00,ZBAA 101000Z AUTO 18002KT 6SM 23/04 A2971 RMK T02300040 IEM_DS3505
ZBAA,2000-05-10 11:00,ZBAA 101100Z AUTO 22010KT 6SM 21/05 A2971 RMK T02100050 IEM_DS3505
ZBAA,2000-05-10 12:00,ZBAA 101200Z AUTO 22006KT 12SM 18/05 A2971 RMK SLP066 T01790052 52010 IEM_DS3505
ZBAA,2000-05-10 13:00,ZBAA 101300Z AUTO 23008KT 6SM 19/07 A2974 RMK T01900070 IEM_DS3505
ZBAA,2000-05-10 14:00,ZBAA 101400Z AUTO 09006KT 6SM 17/08 A2977 RMK T01700080 IEM_DS3505
ZBAA,2000-05-10 15:00,ZBAA 101500Z AUTO 24004KT 12SM 17/06 A2977 RMK SLP076 T01690059 52010 IEM_DS3505
ZBAA,2000-05-10 16:00,ZBAA 101600Z AUTO 11004KT 6SM 14/08 A2977 RMK T01400080 IEM_DS3505
ZBAA,2000-05-10 17:00,ZBAA 101700Z AUTO 17002KT 6SM 13/08 A2977 RMK T01300080 IEM_DS3505
ZBAA,2000-05-10 18:00,ZBAA 101800Z AUTO 17002KT 9SM 12/06 A2977 RMK SLP077 T01230057 52001 IEM_DS3505
ZBAA,2000-05-10 19:00,ZBAA 101900Z AUTO 00000KT 6SM 11/08 A2977 RMK T01100080 IEM_DS3505
ZBAA,2000-05-10 20:00,ZBAA 102000Z AUTO 00000KT 6SM 11/08 A2977 RMK T01100080 IEM_DS3505
ZBAA,2000-05-10 21:00,ZBAA 102100Z AUTO 21002KT 7SM 11/06 A2977 RMK SLP074 T01070063 57003 IEM_DS3505
ZBAA,2000-05-10 22:00,ZBAA 102200Z AUTO 6SM 10/08 A2977 RMK T01000080 IEM_DS3505
ZBAA,2000-05-10 23:00,ZBAA 102300Z AUTO 36004KT 6SM 13/09 A2977 RMK T01300090 IEM_DS3505
ZBAA,2000-05-11 00:00,ZBAA 110000Z AUTO 03002KT 3SM 17/08 A2977 RMK SLP074 T01710077 54000 IEM_DS3505
ZBAA,2000-05-11 01:00,ZBAA 110100Z AUTO 6SM 18/10 A2977 RMK T01800100 IEM_DS3505
ZBAA,2000-05-11 02:00,ZBAA 110200Z AUTO 6SM 21/06 A2974 RMK T02100060 IEM_DS3505
ZBAA,2000-05-11 03:00,ZBAA 110300Z AUTO 15006KT 6SM 22/08 A2971 RMK SLP060 T02220080 57014 IEM_DS3505
ZBAA,2000-05-11 04:00,ZBAA 110400Z AUTO 6SM 25/06 A2971 RMK T02500060 IEM_DS3505
ZBAA,2000-05-11 05:00,ZBAA 110500Z AUTO 19010KT 5SM 25/09 A2968 RMK T02500090 IEM_DS3505
ZBAA,2000-05-11 06:00,ZBAA 110600Z AUTO 20010KT 10SM 26/04 A2962 RMK SLP031 T02560036 57029 IEM_DS3505
ZBAA,2000-05-11 07:00,ZBAA 110700Z AUTO 16010KT 6SM 25/06 A2962 RMK T02500060 IEM_DS3505
ZBAA,2000-05-11 08:00,ZBAA 110800Z AUTO 19014KT 6SM 25/08 A2962 RMK T02500080 IEM_DS3505
ZBAA,2000-05-11 09:00,ZBAA 110900Z AUTO 19006KT 9SM 22/06 A2962 RMK SLP032 T02190062 52001 IEM_DS3505
ZBAA,2000-05-11 10:00,ZBAA 111000Z AUTO 20010KT 6SM 22/08 A2962 RMK T02200080 IEM_DS3505
ZBAA,2000-05-11 11:00,ZBAA 111100Z AUTO 18010KT 6SM 21/08 A2965 RMK T02100080 IEM_DS3505
ZBAA,2000-05-11 12:00,ZBAA 111200Z AUTO 21008KT 9SM 19/05 A2965 RMK 60003 SLP043 T01930054 52011 IEM_DS3505
ZBAA,2000-05-11 13:00,ZBAA 111300Z AUTO 19008KT 6SM 19/08 A2968 RMK T01900080 IEM_DS3505
ZBAA,2000-05-11 14:00,ZBAA 111400Z AUTO 18006KT 7SM 18/09 A2968 RMK T01800090 IEM_DS3505
ZBAA,2000-05-11 15:00,ZBAA 111500Z AUTO 21008KT 12SM 17/06 A2968 RMK SLP043 T01730062 54000 IEM_DS3505
ZBAA,2000-05-11 16:00,ZBAA 111600Z AUTO 15004KT 6SM 18/08 A2968 RMK T01800080 IEM_DS3505
ZBAA,2000-05-11 17:00,ZBAA 111700Z AUTO 13002KT 6SM 17/09 A2968 RMK T01700090 IEM_DS3505
ZBAA,2000-05-11 18:00,ZBAA 111800Z AUTO 00000KT 10SM 15/08 A2965 RMK 60003 SLP041 T01520078 57002 IEM_DS3505
ZBAA,2000-05-11 19:00,ZBAA 111900Z AUTO 03002KT 6SM 16/09 A2965 RMK T01600090 IEM_DS3505
ZBAA,2000-05-11 20:00,ZBAA 112000Z AUTO 19002KT 6SM 15/09 A2965 RMK T01500090 IEM_DS3505
ZBAA,2000-05-11 21:00,ZBAA 112100Z AUTO 00000KT 6SM 14/09 A2965 RMK 70003 SLP038 T01380089 57003 IEM_DS3505
ZBAA,2000-05-11 22:00,ZBAA 112200Z AUTO 00000KT 6SM 15/11 A2968 RMK T01500110 IEM_DS3505
ZBAA,2000-05-11 23:00,ZBAA 112300Z AUTO 19002KT 6SM 15/11 A2971 RMK T01500110 IEM_DS3505
ZBAA,2000-05-12 00:00,ZBAA 120000Z AUTO 22002KT 6SM 16/09 A2971 RMK 60003 SLP064 T01590093 52026 IEM_DS3505
ZBAA,2000-05-12 01:00,ZBAA 120100Z AUTO 23004KT 5SM 18/10 A2974 RMK T01800100 IEM_DS3505
ZBAA,2000-05-12 02:00,ZBAA 120200Z AUTO 5SM 20/11 A2977 RMK T02000110 IEM_DS3505
ZBAA,2000-05-12 03:00,ZBAA 120300Z AUTO 11004KT 7SM 21/09 A2977 RMK SLP074 T02080088 52010 IEM_DS3505
ZBAA,2000-05-12 04:00,ZBAA 120400Z AUTO 6SM 22/10 A2977 RMK T02200100 IEM_DS3505
ZBAA,2000-05-12 05:00,ZBAA 120500Z AUTO 7SM 23/10 A2974 RMK T02300100 IEM_DS3505
ZBAA,2000-05-12 06:00,ZBAA 120600Z AUTO 33002KT 9SM 23/06 A2974 RMK SLP069 T02310060 57005 IEM_DS3505
ZBAA,2000-05-12 07:00,ZBAA 120700Z AUTO 25006KT 6SM 24/09 A2974 RMK T02400090 IEM_DS3505
ZBAA,2000-05-12 08:00,ZBAA 120800Z AUTO 27006KT 6SM 24/07 A2974 RMK T02400070 IEM_DS3505
ZBAA,2000-05-12 09:00,ZBAA 120900Z AUTO 21006KT 9SM 23/06 A2974 RMK SLP068 T02330057 57001 IEM_DS3505
ZBAA,2000-05-12 10:00,ZBAA 121000Z AUTO 20006KT 6SM 24/07 A2974 RMK T02400070 IEM_DS3505
ZBAA,2000-05-12 11:00,ZBAA 121100Z AUTO 22006KT 6SM 23/06 A2974 RMK T02300060 IEM_DS3505
ZBAA,2000-05-12 12:00,ZBAA 121200Z AUTO 22002KT 6SM 20/05 A2977 RMK SLP076 T01970054 52008 IEM_DS3505
ZBAA,2000-05-12 13:00,ZBAA 121300Z AUTO 21004KT 6SM 20/05 A2977 RMK T02000050 IEM_DS3505
ZBAA,2000-05-12 14:00,ZBAA 121400Z AUTO 20004KT 6SM 19/06 A2977 RMK T01900060 IEM_DS3505
ZBAA,2000-05-12 15:00,ZBAA 121500Z AUTO 20002KT 6SM 17/06 A2977 RMK SLP084 T01670063 52008 IEM_DS3505
ZBAA,2000-05-12 16:00,ZBAA 121600Z AUTO 24004KT 6SM 18/07 A2977 RMK T01800070 IEM_DS3505
ZBAA,2000-05-12 17:00,ZBAA 121700Z AUTO 24004KT 6SM 18/08 A2977 RMK T01800080 IEM_DS3505
ZBAA,2000-05-12 18:00,ZBAA 121800Z AUTO 22004KT 9SM 15/06 A2977 RMK SLP080 T01490057 57004 IEM_DS3505
ZBAA,2000-05-12 19:00,ZBAA 121900Z AUTO 00000KT 15/09 A2977 RMK T01500090 IEM_DS3505
ZBAA,2000-05-12 20:00,ZBAA 122000Z AUTO 00000KT 4SM 12/09 A2977 RMK T01200090 IEM_DS3505
ZBAA,2000-05-12 21:00,ZBAA 122100Z AUTO 22002KT 9SM 13/06 A2977 RMK 70003 SLP073 T01340056 57007 IEM_DS3505
ZBAA,2000-05-12 22:00,ZBAA 122200Z AUTO 00000KT 4SM 12/10 A2977 RMK T01200100 IEM_DS3505
ZBAA,2000-05-12 23:00,ZBAA 122300Z AUTO 11002KT 4SM 14/10 A2980 RMK T01400100 IEM_DS3505
ZBAA,2000-05-13 00:00,ZBAA 130000Z AUTO 23004KT 7SM 18/08 A2980 RMK SLP088 T01790085 52015 IEM_DS3505
ZBAA,2000-05-13 01:00,ZBAA 130100Z AUTO 20/12 A2980 RMK T02000120 IEM_DS3505
ZBAA,2000-05-13 02:00,ZBAA 130200Z AUTO 00000KT 9SM 20/10 A2980 RMK T02000100 IEM_DS3505
ZBAA,2000-05-13 03:00,ZBAA 130300Z AUTO 23014KT 9SM 23/04 A2977 RMK SLP079 T02310036 57009 IEM_DS3505
ZBAA,2000-05-13 04:00,ZBAA 130400Z AUTO 22012KT 5SM 24/06 A2974 RMK T02400060 IEM_DS3505
ZBAA,2000-05-13 05:00,ZBAA 130500Z AUTO 20010KT 6SM 26/07 A2974 RMK T02600070 IEM_DS3505
ZBAA,2000-05-13 06:00,ZBAA 130600Z AUTO 21012KT 12SM 26/02 A2971 RMK SLP061 T02580025 57018 IEM_DS3505
ZBAA,2000-05-13 07:00,ZBAA 130700Z AUTO 19010KT 6SM 27/05 A2971 RMK T02700050 IEM_DS3505
ZBAA,2000-05-13 08:00,ZBAA 130800Z AUTO 18008KT 6SM 25/06 A2971 RMK T02500060 IEM_DS3505
ZBAA,2000-05-13 09:00,ZBAA 130900Z AUTO 19008KT 12SM 25/03 A2968 RMK SLP050 T02530033 57011 IEM_DS3505
ZBAA,2000-05-13 10:00,ZBAA 131000Z AUTO 17008KT 6SM 25/05 A2968 RMK T02500050 IEM_DS3505
ZBAA,2000-05-13 11:00,ZBAA 131100Z AUTO 17006KT 6SM 23/06 A2971 RMK T02300060 IEM_DS3505
ZBAA,2000-05-13 12:00,ZBAA 131200Z AUTO 21004KT 9SM 22/04 A2974 RMK SLP065 T02160042 52015 IEM_DS3505
ZBAA,2000-05-13 13:00,ZBAA 131300Z AUTO 18006KT 6SM 20/06 A2974 RMK T02000060 IEM_DS3505
ZBAA,2000-05-13 14:00,ZBAA 131400Z AUTO 17004KT 6SM 19/07 A2977 RMK T01900070 IEM_DS3505
ZBAA,2000-05-13 15:00,ZBAA 131500Z AUTO 20006KT 9SM 19/06 A2977 RMK SLP076 T01930058 52011 IEM_DS3505
ZBAA,2000-05-13 16:00,ZBAA 131600Z AUTO 16006KT 6SM 19/08 A2977 RMK T01900080 IEM_DS3505
ZBAA,2000-05-13 17:00,ZBAA 131700Z AUTO 14004KT 6SM 17/09 A2977 RMK T01700090 IEM_DS3505
ZBAA,2000-05-13 18:00,ZBAA 131800Z AUTO 19002KT 7SM 17/08 A2974 RMK SLP071 T01720076 57005 IEM_DS3505
ZBAA,2000-05-13 19:00,ZBAA 131900Z AUTO 13006KT 6SM 16/10 A2977 RMK T01600100 IEM_DS3505
ZBAA,2000-05-13 20:00,ZBAA 132000Z AUTO 13006KT 7SM 16/10 A2974 RMK T01600100 IEM_DS3505
ZBAA,2000-05-13 21:00,ZBAA 132100Z AUTO 15004KT 5SM 16/10 A2977 RMK 70003 SLP074 T01580095 52003 IEM_DS3505
ZBAA,2000-05-13 22:00,ZBAA 132200Z AUTO 11004KT 4SM 16/11 A2977 RMK T01600110 IEM_DS3505
ZBAA,2000-05-13 23:00,ZBAA 132300Z AUTO 08002KT 2 1/2SM 15/12 A2977 RMK T01500120 IEM_DS3505
ZBAA,2000-05-14 00:00,ZBAA 140000Z AUTO 00000KT 4SM 15/12 A2980 RMK 60008 SLP088 T01520116 52014 IEM_DS3505
ZBAA,2000-05-14 01:00,ZBAA 140100Z AUTO 13002KT 1 1/2SM 15/14 A2980 RMK T01500140 IEM_DS3505
ZBAA,2000-05-14 02:00,ZBAA 140200Z AUTO 12006KT 1SM 15/14 A2980 RMK T01500140 IEM_DS3505
ZBAA,2000-05-14 03:00,ZBAA 140300Z AUTO 14006KT 2 1/2SM 15/14 A2980 RMK SLP081 T01540138 57008 IEM_DS3505
ZBAA,2000-05-14 04:00,ZBAA 140400Z AUTO 13008KT 1 1/4SM 15/15 A2977 RMK T01500150 IEM_DS3505
ZBAA,2000-05-14 05:00,ZBAA 140500Z AUTO 13006KT 1 1/2SM 15/15 A2974 RMK T01500150 IEM_DS3505
ZBAA,2000-05-14 06:00,ZBAA 140600Z AUTO 12006KT 2 1/2SM 16/14 A2974 RMK 60035 SLP060 T01600135 57020 IEM_DS3505
ZBAA,2000-05-14 07:00,ZBAA 140700Z AUTO 12006KT 1SM 15/15 A2974 RMK T01500150 IEM_DS3505
ZBAA,2000-05-14 08:00,ZBAA 140800Z AUTO 12008KT 1 1/2SM 15/14 A2971 RMK T01500140 IEM_DS3505
ZBAA,2000-05-14 09:00,ZBAA 140900Z AUTO 08004KT 2 1/2SM 15/13 A2974 RMK SLP063 T01510133 52002 IEM_DS3505
ZBAA,2000-05-14 10:00,ZBAA 141000Z AUTO 10006KT 1SM 14/14 A2974 RMK T01400140 IEM_DS3505
ZBAA,2000-05-14 11:00,ZBAA 141100Z AUTO 02002KT 1 1/4SM 15/14 A2977 RMK T01500140 IEM_DS3505
ZBAA,2000-05-14 12:00,ZBAA 141200Z AUTO 05004KT 3SM 14/12 A2980 RMK 60039 SLP085 T01440117 52022 IEM_DS3505
ZBAA,2000-05-14 13:00,ZBAA 141300Z AUTO 01002KT 3SM 14/14 A2983 RMK T01400140 IEM_DS3505
ZBAA,2000-05-14 14:00,ZBAA 141400Z AUTO 00000KT 3SM 14/14 A2985 RMK T01400140 IEM_DS3505
ZBAA,2000-05-14 15:00,ZBAA 141500Z AUTO 05004KT 6SM 14/10 A2985 RMK SLP102 T01410103 52017 IEM_DS3505
ZBAA,2000-05-14 16:00,ZBAA 141600Z AUTO 00000KT 5SM 14/12 A2985 RMK T01400120 IEM_DS3505
ZBAA,2000-05-14 17:00,ZBAA 141700Z AUTO 01002KT 4SM 14/12 A2983 RMK T01400120 IEM_DS3505
ZBAA,2000-05-14 18:00,ZBAA 141800Z AUTO 00000KT 5SM 14/10 A2983 RMK 60003 SLP101 T01380102 57001 IEM_DS3505
ZBAA,2000-05-14 19:00,ZBAA 141900Z AUTO 35004KT 4SM 14/13 A2983 RMK T01400130 IEM_DS3505
ZBAA,2000-05-14 20:00,ZBAA 142000Z AUTO 33002KT 4SM 14/13 A2985 RMK T01400130 IEM_DS3505
ZBAA,2000-05-14 21:00,ZBAA 142100Z AUTO 00000KT 2SM 13/11 A2985 RMK 70089 SLP106 T01320114 52005 IEM_DS3505
ZBAA,2000-05-14 22:00,ZBAA 142200Z AUTO 33004KT 6SM 14/13 A2988 RMK T01400130 IEM_DS3505
ZBAA,2000-05-14 23:00,ZBAA 142300Z AUTO 32004KT 6SM 14/13 A2988 RMK T01400130 IEM_DS3505
ZBAA,2000-05-15 00:00,ZBAA 150000Z AUTO 02002KT 6SM 16/11 A2991 RMK 60008 SLP127 T01650110 52021 IEM_DS3505
ZBAA,2000-05-15 01:00,ZBAA 150100Z AUTO 03002KT 6SM 18/12 A2991 RMK T01800120 IEM_DS3505
ZBAA,2000-05-15 02:00,ZBAA 150200Z AUTO 7SM 18/12 A2991 RMK T01800120 IEM_DS3505
ZBAA,2000-05-15 03:00,ZBAA 150300Z AUTO 04006KT 7SM 20/09 A2991 RMK SLP130 T01980094 52004 IEM_DS3505
ZBAA,2000-05-15 04:00,ZBAA 150400Z AUTO 7SM 21/11 A2991 RMK T02100110 IEM_DS3505
ZBAA,2000-05-15 05:00,ZBAA 150500Z AUTO 7SM 20/12 A2991 RMK T02000120 IEM_DS3505
ZBAA,2000-05-15 06:00,ZBAA 150600Z AUTO 08006KT 9SM 20/09 A2991 RMK SLP128 T02050091 57003 IEM_DS3505
ZBAA,2000-05-15 07:00,ZBAA 150700Z AUTO 06002KT 6SM 22/11 A2991 RMK T02200110 IEM_DS3505
ZBAA,2000-05-15 08:00,ZBAA 150800Z AUTO 10004KT 6SM 22/11 A2991 RMK T02200110 IEM_DS3505
ZBAA,2000-05-15 09:00,ZBAA 150900Z AUTO 13002KT 9SM 21/10 A2991 RMK SLP127 T02110097 57001 IEM_DS3505
ZBAA,2000-05-15 10:00,ZBAA 151000Z AUTO 17006KT 6SM 21/12 A2991 RMK T02100120 IEM_DS3505
ZBAA,2000-05-15 11:00,ZBAA 151100Z AUTO 18006KT 6SM 20/12 A2991 RMK T02000120 IEM_DS3505
ZBAA,2000-05-15 12:00,ZBAA 151200Z AUTO 19002KT 7SM 19/10 A2994 RMK SLP141 T01880104 52014 IEM_DS3505
ZBAA,2000-05-15 13:00,ZBAA 151300Z AUTO 6SM 18/13 A2997 RMK T01800130 IEM_DS3505
ZBAA,2000-05-15 14:00,ZBAA 151400Z AUTO 20004KT 6SM 17/13 A2997 RMK T01700130 IEM_DS3505
ZBAA,2000-05-15 15:00,ZBAA 151500Z AUTO 24002KT 6SM 16/10 A2997 RMK SLP147 T01650101 52006 IEM_DS3505
ZBAA,2000-05-15 16:00,ZBAA 151600Z AUTO 00000KT 4SM 15/13 A2997 RMK T01500130 IEM_DS3505
ZBAA,2000-05-15 17:00,ZBAA 151700Z AUTO 00000KT 3SM 14/13 A2994 RMK T01400130 IEM_DS3505
ZBAA,2000-05-15 18:00,ZBAA 151800Z AUTO 00000KT 6SM 14/10 A2994 RMK SLP138 T01450101 57009 IEM_DS3505
ZBAA,2000-05-15 19:00,ZBAA 151900Z AUTO 00000KT 1 1/2SM 13/13 A2994 RMK T01300130 IEM_DS3505
ZBAA,2000-05-15 20:00,ZBAA 152000Z AUTO 00000KT 1 1/4SM 13/13 A2994 RMK T01300130 IEM_DS3505
ZBAA,2000-05-15 21:00,ZBAA 152100Z AUTO 23002KT 2 1/2SM 13/10 A2994 RMK SLP135 T01290103 57003 IEM_DS3505
ZBAA,2000-05-15 22:00,ZBAA 152200Z AUTO 36002KT 1 1/2SM 12/12 A2994 RMK T01200120 IEM_DS3505
ZBAA,2000-05-15 23:00,ZBAA 152300Z AUTO 29002KT 2SM 15/14 A2994 RMK T01500140 IEM_DS3505
ZBAA,2000-05-16 00:00,ZBAA 160000Z AUTO 30004KT 3SM 18/13 A2994 RMK SLP133 T01820127 57001 IEM_DS3505
ZBAA,2000-05-16 01:00,ZBAA 160100Z AUTO 4SM 19/14 A2994 RMK T01900140 IEM_DS3505
ZBAA,2000-05-16 02:00,ZBAA 160200Z AUTO 5SM 21/14 A2994 RMK T02100140 IEM_DS3505
ZBAA,2000-05-16 03:00,ZBAA 160300Z AUTO 15002KT 5SM 24/14 A2991 RMK SLP127 T02400136 57006 IEM_DS3505
ZBAA,2000-05-16 04:00,ZBAA 160400Z AUTO 20006KT 5SM 24/14 A2988 RMK T02400140 IEM_DS3505
ZBAA,2000-05-16 05:00,ZBAA 160500Z AUTO 6SM 26/14 A2985 RMK T02600140 IEM_DS3505
ZBAA,2000-05-16 06:00,ZBAA 160600Z AUTO 22006KT 14SM 28/06 A2985 RMK SLP103 T02820063 57024 IEM_DS3505
ZBAA,2000-05-16 07:00,ZBAA 160700Z AUTO 21006KT 29/11 A2980 RMK T02900110 IEM_DS3505
ZBAA,2000-05-16 08:00,ZBAA 160800Z AUTO 21006KT 6SM 29/05 A2980 RMK T02900050 IEM_DS3505
ZBAA,2000-05-16 09:00,ZBAA 160900Z AUTO 21006KT 12SM 28/04 A2980 RMK SLP086 T02760040 57017 IEM_DS3505
ZBAA,2000-05-16 10:00,ZBAA 161000Z AUTO 20010KT 6SM 27/06 A2977 RMK T02700060 IEM_DS3505
ZBAA,2000-05-16 11:00,ZBAA 161100Z AUTO 22008KT 6SM 26/06 A2980 RMK T02600060 IEM_DS3505
ZBAA,2000-05-16 12:00,ZBAA 161200Z AUTO 23004KT 9SM 23/07 A2980 RMK SLP090 T02260068 52004 IEM_DS3505
ZBAA,2000-05-16 13:00,ZBAA 161300Z AUTO 20006KT 6SM 23/08 A2980 RMK T02300080 IEM_DS3505
ZBAA,2000-05-16 14:00,ZBAA 161400Z AUTO 18006KT 6SM 21/10 A2980 RMK T02100100 IEM_DS3505
ZBAA,2000-05-16 15:00,ZBAA 161500Z AUTO 21006KT 9SM 20/09 A2980 RMK SLP089 T02040090 57001 IEM_DS3505
ZBAA,2000-05-16 16:00,ZBAA 161600Z AUTO 17008KT 6SM 19/11 A2980 RMK T01900110 IEM_DS3505
ZBAA,2000-05-16 17:00,ZBAA 161700Z AUTO 15004KT 6SM 19/11 A2980 RMK T01900110 IEM_DS3505
ZBAA,2000-05-16 18:00,ZBAA 161800Z AUTO 20004KT 9SM 19/09 A2980 RMK SLP081 T01900089 57008 IEM_DS3505
ZBAA,2000-05-16 19:00,ZBAA 161900Z AUTO 13006KT 4SM 16/13 A2977 RMK T01600130 IEM_DS3505
ZBAA,2000-05-16 20:00,ZBAA 162000Z AUTO 12004KT 4SM 16/13 A2977 RMK T01600130 IEM_DS3505
ZBAA,2000-05-16 21:00,ZBAA 162100Z AUTO 22004KT 6SM 19/10 A2977 RMK SLP075 T01920102 57006 IEM_DS3505
ZBAA,2000-05-16 22:00,ZBAA 162200Z AUTO 11004KT 2SM 16/13 A2977 RMK T01600130 IEM_DS3505
ZBAA,2000-05-16 23:00,ZBAA 162300Z AUTO 13006KT 2SM 16/14 A2977 RMK T01600140 IEM_DS3505
ZBAA,2000-05-17 00:00,ZBAA 170000Z AUTO 17004KT 6SM 21/13 A2974 RMK SLP069 T02060126 57006 IEM_DS3505
ZBAA,2000-05-17 01:00,ZBAA 170100Z AUTO 14006KT 2 1/2SM 20/15 A2974 RMK T02000150 IEM_DS3505
ZBAA,2000-05-17 02:00,ZBAA 170200Z AUTO 15008KT 2 1/2SM 23/16 A2971 RMK T02300160 IEM_DS3505
ZBAA,2000-05-17 03:00,ZBAA 170300Z AUTO 17008KT 5SM 24/13 A2971 RMK SLP053 T02420131 57016 IEM_DS3505
ZBAA,2000-05-17 04:00,ZBAA 170400Z AUTO 17010G21KT 25/16 A2968 RMK T02500160 IEM_DS3505
ZBAA,2000-05-17 05:00,ZBAA 170500Z AUTO 20010KT 25/16 A2965 RMK T02500160 IEM_DS3505
ZBAA,2000-05-17 06:00,ZBAA 170600Z AUTO 23006KT 5SM 26/14 A2962 RMK SLP020 T02630138 57032 IEM_DS3505
ZBAA,2000-05-17 07:00,ZBAA 170700Z AUTO 31008KT 4SM 24/17 A2959 RMK T02400170 IEM_DS3505
ZBAA,2000-05-17 08:00,ZBAA 170800Z AUTO 28004KT 25/18 A2956 RMK T02500180 IEM_DS3505
ZBAA,2000-05-17 09:00,ZBAA 170900Z AUTO 25006KT 5SM 26/14 A2956 RMK SLP001 T02570139 57019 IEM_DS3505
ZBAA,2000-05-17 10:00,ZBAA 171000Z AUTO 12010G19KT 6SM 22/09 A2959 RMK T02200090 IEM_DS3505
ZBAA,2000-05-17 11:00,ZBAA 171100Z AUTO 10008KT 6SM 19/12 A2962 RMK T01900120 IEM_DS3505
ZBAA,2000-05-17 12:00,ZBAA 171200Z AUTO 07008KT 7SM 18/10 A2968 RMK 60003 SLP042 T01750104 52040 IEM_DS3505
ZBAA,2000-05-17 13:00,ZBAA 171300Z AUTO 18004KT 6SM RMK IEM_DS3505
ZBAA,2000-05-17 14:00,ZBAA 171400Z AUTO 00000KT 6SM 17/11 A2974 RMK T01700110 IEM_DS3505
ZBAA,2000-05-17 15:00,ZBAA 171500Z AUTO 08006KT 6SM 16/09 A2971 RMK SLP063 T01620089 52021 IEM_DS3505
ZBAA,2000-05-17 16:00,ZBAA 171600Z AUTO 19002KT 6SM 15/11 A2971 RMK T01500110 IEM_DS3505
ZBAA,2000-05-17 17:00,ZBAA 171700Z AUTO 19004KT 6SM 16/11 A2971 RMK T01600110 IEM_DS3505
ZBAA,2000-05-17 18:00,ZBAA 171800Z AUTO 11006KT 6SM 14/10 A2971 RMK SLP053 T01400095 57010 IEM_DS3505
ZBAA,2000-05-17 19:00,ZBAA 171900Z AUTO 13006KT 6SM 14/11 A2971 RMK T01400110 IEM_DS3505
ZBAA,2000-05-17 20:00,ZBAA 172000Z AUTO 16002KT 6SM 13/11 A2971 RMK T01300110 IEM_DS3505
ZBAA,2000-05-17 21:00,ZBAA 172100Z AUTO 03002KT 6SM 13/10 A2968 RMK 70003 SLP049 T01300095 57004 IEM_DS3505
ZBAA,2000-05-17 22:00,ZBAA 172200Z AUTO 31002KT 4SM 13/12 A2968 RMK T01300120 IEM_DS3505
ZBAA,2000-05-17 23:00,ZBAA 172300Z AUTO 00000KT 4SM 15/12 A2968 RMK T01500120 IEM_DS3505
ZBAA,2000-05-18 00:00,ZBAA 180000Z AUTO 10002KT 6SM 16/11 A2968 RMK 70003 SLP046 T01600110 57003 IEM_DS3505
ZBAA,2000-05-18 01:00,ZBAA 180100Z AUTO 10004KT 6SM 20/16 RMK T02000160 IEM_DS3505
ZBAA,2000-05-18 02:00,ZBAA 180200Z AUTO 6SM 18/12 A2968 RMK T01800120 IEM_DS3505
ZBAA,2000-05-18 03:00,ZBAA 180300Z AUTO 04004KT 6SM 19/10 A2965 RMK SLP037 T01920105 57009 IEM_DS3505
ZBAA,2000-05-18 04:00,ZBAA 180400Z AUTO 32002KT 6SM 22/12 A2962 RMK T02200120 IEM_DS3505
ZBAA,2000-05-18 05:00,ZBAA 180500Z AUTO 28008KT 7SM 22/11 A2962 RMK T02200110 IEM_DS3505
ZBAA,2000-05-18 06:00,ZBAA 180600Z AUTO 23002KT 9SM 20/10 RMK 60016 SLP027 T01970099 57010 IEM_DS3505
ZBAA,2000-05-18 07:00,ZBAA 180700Z AUTO 30019G31KT 6SM 21/06 A2962 RMK T02100060 IEM_DS3505
ZBAA,2000-05-18 08:00,ZBAA 180800Z AUTO 28017G27KT 6SM 21/06 A2959 RMK T02100060 IEM_DS3505
ZBAA,2000-05-18 09:00,ZBAA 180900Z AUTO 30008G29KT 19SM 21/04 A2959 RMK SLP019 T02060038 57008 IEM_DS3505
ZBAA,2000-05-18 10:00,ZBAA 181000Z AUTO 30016G25KT 6SM 20/07 A2959 RMK T02000070 IEM_DS3505
ZBAA,2000-05-18 11:00,ZBAA 181100Z AUTO 33014KT 6SM 18/08 A2962 RMK T01800080 IEM_DS3505
ZBAA,2000-05-18 12:00,ZBAA 181200Z AUTO 31006KT 19SM 19/04 A2965 RMK SLP033 T01900036 52014 IEM_DS3505
ZBAA,2000-05-18 13:00,ZBAA 181300Z AUTO 33004KT 6SM 17/08 A2965 RMK T01700080 IEM_DS3505
ZBAA,2000-05-18 14:00,ZBAA 181400Z AUTO 35004KT 6SM 16/09 A2965 RMK T01600090 IEM_DS3505
ZBAA,2000-05-18 15:00,ZBAA 181500Z AUTO 00000KT 7SM 14/07 A2965 RMK SLP037 T01420070 52003 IEM_DS3505
ZBAA,2000-05-18 16:00,ZBAA 181600Z AUTO 36004KT 6SM 14/10 A2965 RMK T01400100 IEM_DS3505
ZBAA,2000-05-18 17:00,ZBAA 181700Z AUTO 01004KT 6SM 14/09 A2965 RMK T01400090 IEM_DS3505
ZBAA,2000-05-18 18:00,ZBAA 181800Z AUTO 20002KT 6SM 13/08 A2962 RMK SLP032 T01270082 57004 IEM_DS3505
ZBAA,2000-05-18 19:00,ZBAA 181900Z AUTO 34006KT 6SM 13/09 A2962 RMK T01300090 IEM_DS3505
ZBAA,2000-05-18 20:00,ZBAA 182000Z AUTO 36006KT 6SM 12/10 A2965 RMK T01200100 IEM_DS3505
ZBAA,2000-05-18 21:00,ZBAA 182100Z AUTO 00000KT 6SM 11/08 A2965 RMK 70016 SLP035 T01070076 52003 IEM_DS3505
ZBAA,2000-05-18 22:00,ZBAA 182200Z AUTO 36004KT 6SM 12/10 A2965 RMK T01200100 IEM_DS3505
ZBAA,2000-05-18 23:00,ZBAA 182300Z AUTO 34004KT 6SM 15/10 A2968 RMK T01500100 IEM_DS3505
ZBAA,2000-05-19 00:00,ZBAA 190000Z AUTO 00000KT 6SM 16/09 A2968 RMK 70016 SLP050 T01640094 52015 IEM_DS3505
ZBAA,2000-05-19 01:00,ZBAA 190100Z AUTO 01002KT 6SM 17/12 A2971 RMK T01700120 IEM_DS3505
ZBAA,2000-05-19 02:00,ZBAA 190200Z AUTO 36004KT 6SM 21/10 A2971 RMK T02100100 IEM_DS3505
ZBAA,2000-05-19 03:00,ZBAA 190300Z AUTO 32008KT 16SM 24/06 A2971 RMK SLP060 T02360060 52010 IEM_DS3505
ZBAA,2000-05-19 04:00,ZBAA 190400Z AUTO 04004KT 7SM 23/10 A2974 RMK T02300100 IEM_DS3505
ZBAA,2000-05-19 05:00,ZBAA 190500Z AUTO 32008KT 7SM 24/08 A2971 RMK T02400080 IEM_DS3505
ZBAA,2000-05-19 06:00,ZBAA 190600Z AUTO 34008KT 19SM 24/05 A2971 RMK SLP053 T02430047 57007 IEM_DS3505
ZBAA,2000-05-19 07:00,ZBAA 190700Z AUTO 36006KT 7SM 26/08 A2968 RMK T02600080 IEM_DS3505
ZBAA,2000-05-19 08:00,ZBAA 190800Z AUTO 36006KT 7SM 27/08 A2968 RMK T02700080 IEM_DS3505
ZBAA,2000-05-19 09:00,ZBAA 190900Z AUTO 02004KT 19SM 26/05 A2968 RMK SLP049 T02550052 57004 IEM_DS3505
ZBAA,2000-05-19 10:00,ZBAA 191000Z AUTO 01008KT 6SM 26/07 A2971 RMK T02600070 IEM_DS3505
ZBAA,2000-05-19 11:00,ZBAA 191100Z AUTO 11004G14KT 6SM 23/09 A2971 RMK T02300090 IEM_DS3505
ZBAA,2000-05-19 12:00,ZBAA 191200Z AUTO 12006KT 12SM 18/11 A2974 RMK SLP070 T01830107 52021 IEM_DS3505
ZBAA,2000-05-19 13:00,ZBAA 191300Z AUTO 16006KT 6SM 18/12 A2977 RMK T01800120 IEM_DS3505
ZBAA,2000-05-19 14:00,ZBAA 191400Z AUTO 19002KT 6SM 18/12 A2980 RMK T01800120 IEM_DS3505
ZBAA,2000-05-19 15:00,ZBAA 191500Z AUTO 06002KT 6SM 17/11 A2980 RMK SLP083 T01660113 52013 IEM_DS3505
ZBAA,2000-05-19 16:00,ZBAA 191600Z AUTO 00000KT 6SM 15/12 A2980 RMK T01500120 IEM_DS3505
ZBAA,2000-05-19 17:00,ZBAA 191700Z AUTO 12002KT 6SM 15/12 A2980 RMK T01500120 IEM_DS3505
ZBAA,2000-05-19 18:00,ZBAA 191800Z AUTO 08002KT 6SM 14/11 A2980 RMK SLP085 T01430107 52002 IEM_DS3505
ZBAA,2000-05-19 19:00,ZBAA 191900Z AUTO 12004KT 6SM 14/13 A2980 RMK T01400130 IEM_DS3505
ZBAA,2000-05-19 20:00,ZBAA 192000Z AUTO 11002KT 4SM 14/13 A2980 RMK T01400130 IEM_DS3505
ZBAA,2000-05-19 21:00,ZBAA 192100Z AUTO 06002KT 4SM 13/11 A2980 RMK SLP086 T01340113 52001 IEM_DS3505
ZBAA,2000-05-19 22:00,ZBAA 192200Z AUTO 13004KT 1SM 13/13 A2980 RMK T01300130 IEM_DS3505
ZBAA,2000-05-19 23:00,ZBAA 192300Z AUTO 11004KT 1 1/2SM 14/14 A2983 RMK T01400140 IEM_DS3505
ZBAA,2000-05-20 00:00,ZBAA 200000Z AUTO 06006KT 2 1/2SM 16/12 A2983 RMK SLP091 T01570125 52005 IEM_DS3505
ZBAA,2000-05-20 01:00,ZBAA 200100Z AUTO 13006KT 4SM 18/14 A2980 RMK T01800140 IEM_DS3505
ZBAA,2000-05-20 02:00,ZBAA 200200Z AUTO 12006KT 5SM 21/14 A2977 RMK T02100140 IEM_DS3505
ZBAA,2000-05-20 03:00,ZBAA 200300Z AUTO 14006KT 6SM 22/12 A2977 RMK SLP074 T02250125 57017 IEM_DS3505
ZBAA,2000-05-20 04:00,ZBAA 200400Z AUTO 16008KT 6SM 23/14 A2974 RMK T02300140 IEM_DS3505
ZBAA,2000-05-20 05:00,ZBAA 200500Z AUTO 13008KT 6SM 24/15 A2971 RMK T02400150 IEM_DS3505
ZBAA,2000-05-20 06:00,ZBAA 200600Z AUTO 11004KT 12SM 26/11 A2968 RMK SLP048 T02560110 57026 IEM_DS3505
ZBAA,2000-05-20 07:00,ZBAA 200700Z AUTO 13008KT 5SM RMK IEM_DS3505
ZBAA,2000-05-20 08:00,ZBAA 200800Z AUTO 13008KT 6SM 24/14 A2968 RMK T02400140 IEM_DS3505
ZBAA,2000-05-20 09:00,ZBAA 200900Z AUTO 12010KT 12SM 23/12 A2965 RMK SLP040 T02330123 57008 IEM_DS3505
ZBAA,2000-05-20 10:00,ZBAA 201000Z AUTO 13008KT 6SM 23/13 A2965 RMK T02300130 IEM_DS3505
ZBAA,2000-05-20 11:00,ZBAA 201100Z AUTO 13006KT 6SM 22/14 A2968 RMK T02200140 IEM_DS3505
ZBAA,2000-05-20 12:00,ZBAA 201200Z AUTO 11006KT 11SM 20/12 A2968 RMK SLP045 T01970117 52005 IEM_DS3505
ZBAA,2000-05-20 13:00,ZBAA 201300Z AUTO 11004KT 6SM 20/14 A2971 RMK T02000140 IEM_DS3505
ZBAA,2000-05-20 14:00,ZBAA 201400Z AUTO 12004KT 6SM 19/13 A2968 RMK T01900130 IEM_DS3505
ZBAA,2000-05-20 15:00,ZBAA 201500Z AUTO 07004KT 9SM 18/11 A2971 RMK SLP051 T01790112 52006 IEM_DS3505
ZBAA,2000-05-20 16:00,ZBAA 201600Z AUTO 09002KT 6SM 18/13 A2968 RMK T01800130 IEM_DS3505
ZBAA,2000-05-20 17:00,ZBAA 201700Z AUTO 00000KT 6SM 17/13 A2968 RMK T01700130 IEM_DS3505
ZBAA,2000-05-20 18:00,ZBAA 201800Z AUTO 05002KT 6SM 16/11 A2965 RMK SLP037 T01630106 57014 IEM_DS3505
ZBAA,2000-05-20 19:00,ZBAA 201900Z AUTO 36002KT 6SM 16/13 A2965 RMK T01600130 IEM_DS3505
ZBAA,2000-05-20 20:00,ZBAA 202000Z AUTO 34004KT 4SM 16/13 A2965 RMK T01600130 IEM_DS3505
ZBAA,2000-05-20 21:00,ZBAA 202100Z AUTO 02002KT 6SM 16/11 A2965 RMK SLP039 T01630106 52002 IEM_DS3505
ZBAA,2000-05-20 22:00,ZBAA 202200Z AUTO 34006KT 5SM 17/14 A2968 RMK T01700140 IEM_DS3505
ZBAA,2000-05-20 23:00,ZBAA 202300Z AUTO 34008KT 5SM 18/14 A2968 RMK T01800140 IEM_DS3505
ZBAA,2000-05-21 00:00,ZBAA 210000Z AUTO 02006KT 6SM 21/12 A2971 RMK SLP055 T02130119 52016 IEM_DS3505
ZBAA,2000-05-21 01:00,ZBAA 210100Z AUTO 01006KT 6SM 24/14 A2971 RMK T02400140 IEM_DS3505
ZBAA,2000-05-21 02:00,ZBAA 210200Z AUTO 35008KT 6SM 26/13 A2971 RMK T02600130 IEM_DS3505
ZBAA,2000-05-21 03:00,ZBAA 210300Z AUTO 01008KT 16SM 28/09 A2971 RMK SLP058 T02770086 52003 IEM_DS3505
ZBAA,2000-05-21 04:00,ZBAA 210400Z AUTO 03010KT 6SM 29/09 A2971 RMK T02900090 IEM_DS3505
ZBAA,2000-05-21 05:00,ZBAA 210500Z AUTO 03008KT 6SM 30/10 A2971 RMK T03000100 IEM_DS3505
ZBAA,2000-05-21 06:00,ZBAA 210600Z AUTO 11006G17KT 19SM 29/13 A2971 RMK SLP054 T02860133 57004 IEM_DS3505
ZBAA,2000-05-21 08:00,ZBAA 210800Z AUTO 11006KT 6SM 30/12 A2968 RMK T03000120 IEM_DS3505
ZBAA,2000-05-21 09:00,ZBAA 210900Z AUTO 12006KT 16SM 27/13 A2971 RMK SLP056 T02680128 52002 IEM_DS3505
ZBAA,2000-05-21 10:00,ZBAA 211000Z AUTO 16008KT 6SM 29/15 A2971 RMK T02900150 IEM_DS3505
ZBAA,2000-05-21 11:00,ZBAA 211100Z AUTO 16006KT 6SM 27/14 A2974 RMK T02700140 IEM_DS3505
ZBAA,2000-05-21 12:00,ZBAA 211200Z AUTO 16008KT 12SM 24/14 A2977 RMK SLP079 T02420137 52023 IEM_DS3505
ZBAA,2000-05-21 13:00,ZBAA 211300Z AUTO 15008KT 6SM 24/16 A2980 RMK T02400160 IEM_DS3505
ZBAA,2000-05-21 14:00,ZBAA 211400Z AUTO 14006KT 6SM 22/14 A2983 RMK T02200140 IEM_DS3505
ZBAA,2000-05-21 15:00,ZBAA 211500Z AUTO 20004KT 12SM 21/10 A2985 RMK SLP109 T02070105 52030 IEM_DS3505
ZBAA,2000-05-21 16:00,ZBAA 211600Z AUTO 21004KT 6SM 21/14 A2988 RMK T02100140 IEM_DS3505
ZBAA,2000-05-21 17:00,ZBAA 211700Z AUTO 00000KT 6SM 20/14 A2988 RMK T02000140 IEM_DS3505
ZBAA,2000-05-21 18:00,ZBAA 211800Z AUTO 00000KT 12SM 20/11 A2988 RMK SLP119 T02000107 52010 IEM_DS3505
ZBAA,2000-05-21 19:00,ZBAA 211900Z AUTO 00000KT 6SM 19/15 A2988 RMK T01900150 IEM_DS3505
ZBAA,2000-05-21 20:00,ZBAA 212000Z AUTO 00000KT 7SM 19/15 A2991 RMK T01900150 IEM_DS3505
ZBAA,2000-05-21 21:00,ZBAA 212100Z AUTO 04002KT 6SM 19/12 A2991 RMK 70003 SLP124 T01900123 52005 IEM_DS3505
ZBAA,2000-05-21 22:00,ZBAA 212200Z AUTO 24002KT 6SM 19/15 A2991 RMK T01900150 IEM_DS3505
ZBAA,2000-05-21 23:00,ZBAA 212300Z AUTO 19004KT 5SM 20/15 A2991 RMK T02000150 IEM_DS3505
ZBAA,2000-05-22 00:00,ZBAA 220000Z AUTO 16004KT 6SM 20/12 A2991 RMK 60003 SLP127 T02050125 52003 IEM_DS3505
ZBAA,2000-05-22 01:00,ZBAA 220100Z AUTO 19004KT 6SM 22/14 A2991 RMK T02200140 IEM_DS3505
ZBAA,2000-05-22 02:00,ZBAA 220200Z AUTO 6SM 24/14 A2988 RMK T02400140 IEM_DS3505
ZBAA,2000-05-22 03:00,ZBAA 220300Z AUTO 12002KT 9SM 24/11 A2988 RMK SLP116 T02350109 57011 IEM_DS3505
ZBAA,2000-05-22 04:00,ZBAA 220400Z AUTO 16004KT 6SM 26/12 A2985 RMK T02600120 IEM_DS3505
ZBAA,2000-05-22 05:00,ZBAA 220500Z AUTO 10004KT 6SM 26/13 A2985 RMK T02600130 IEM_DS3505
ZBAA,2000-05-22 06:00,ZBAA 220600Z AUTO 13008KT 7SM 25/14 A2983 RMK SLP097 T02520144 57019 IEM_DS3505
ZBAA,2000-05-22 07:00,ZBAA 220700Z AUTO 15008KT 6SM 27/13 A2980 RMK T02700130 IEM_DS3505
ZBAA,2000-05-22 08:00,ZBAA 220800Z AUTO 14006KT 6SM 27/14 A2980 RMK T02700140 IEM_DS3505
ZBAA,2000-05-22 09:00,ZBAA 220900Z AUTO 11002KT 7SM 25/14 A2977 RMK SLP077 T02540142 57020 IEM_DS3505
ZBAA,2000-05-22 10:00,ZBAA 221000Z AUTO 12002KT 6SM 26/13 A2977 RMK T02600130 IEM_DS3505
ZBAA,2000-05-22 11:00,ZBAA 221100Z AUTO 13004KT 6SM 25/10 A2977 RMK T02500100 IEM_DS3505
ZBAA,2000-05-22 12:00,ZBAA 221200Z AUTO 14004KT 9SM 21/11 A2977 RMK SLP073 T02130111 57004 IEM_DS3505
ZBAA,2000-05-22 13:00,ZBAA 221300Z AUTO 16002KT 6SM 22/13 A2977 RMK T02200130 IEM_DS3505
ZBAA,2000-05-22 14:00,ZBAA 221400Z AUTO 11002KT 6SM 21/13 A2980 RMK T02100130 IEM_DS3505
ZBAA,2000-05-22 15:00,ZBAA 221500Z AUTO 00000KT 6SM 20/10 A2980 RMK SLP085 T01980105 52012 IEM_DS3505
ZBAA,2000-05-22 16:00,ZBAA 221600Z AUTO 15004KT 6SM 19/14 A2980 RMK T01900140 IEM_DS3505
ZBAA,2000-05-22 17:00,ZBAA 221700Z AUTO 14002KT 6SM 19/14 A2977 RMK T01900140 IEM_DS3505
ZBAA,2000-05-22 18:00,ZBAA 221800Z AUTO 00000KT 6SM 17/12 A2977 RMK SLP072 T01710116 57013 IEM_DS3505
ZBAA,2000-05-22 19:00,ZBAA 221900Z AUTO 00000KT 6SM 17/14 A2977 RMK T01700140 IEM_DS3505
ZBAA,2000-05-22 20:00,ZBAA 222000Z AUTO 07002KT 4SM 17/13 A2977 RMK T01700130 IEM_DS3505
ZBAA,2000-05-22 21:00,ZBAA 222100Z AUTO 13002KT 6SM 16/13 A2977 RMK SLP076 T01550126 52004 IEM_DS3505
ZBAA,2000-05-22 22:00,ZBAA 222200Z AUTO 01002KT 4SM 17/14 A2977 RMK T01700140 IEM_DS3505
ZBAA,2000-05-22 23:00,ZBAA 222300Z AUTO 35004KT 3SM 19/14 A2980 RMK T01900140 IEM_DS3505
ZBAA,2000-05-23 00:00,ZBAA 230000Z AUTO 09002KT 6SM 21/12 A2980 RMK SLP088 T02100124 52012 IEM_DS3505
ZBAA,2000-05-23 01:00,ZBAA 230100Z AUTO 33002KT 6SM 23/14 A2980 RMK T02300140 IEM_DS3505
ZBAA,2000-05-23 02:00,ZBAA 230200Z AUTO 29002KT 6SM 25/13 A2980 RMK T02500130 IEM_DS3505
ZBAA,2000-05-23 03:00,ZBAA 230300Z AUTO 11002KT 6SM 26/12 A2977 RMK SLP081 T02560118 57007 IEM_DS3505
ZBAA,2000-05-23 04:00,ZBAA 230400Z AUTO 6SM 28/13 A2977 RMK T02800130 IEM_DS3505
ZBAA,2000-05-23 05:00,ZBAA 230500Z AUTO 6SM 30/14 A2974 RMK T03000140 IEM_DS3505
ZBAA,2000-05-23 06:00,ZBAA 230600Z AUTO 11004KT 12SM 28/10 A2974 RMK SLP063 T02820104 57018 IEM_DS3505
ZBAA,2000-05-23 07:00,ZBAA 230700Z AUTO 6SM 31/12 A2971 RMK T03100120 IEM_DS3505
ZBAA,2000-05-23 08:00,ZBAA 230800Z AUTO 17006KT 6SM 31/13 A2971 RMK T03100130 IEM_DS3505
ZBAA,2000-05-23 09:00,ZBAA 230900Z AUTO 13004KT 11SM 29/14 A2968 RMK SLP050 T02910141 57013 IEM_DS3505
ZBAA,2000-05-23 10:00,ZBAA 231000Z AUTO 20006KT 6SM 29/13 A2968 RMK T02900130 IEM_DS3505
ZBAA,2000-05-23 11:00,ZBAA 231100Z AUTO 14002KT 6SM 27/15 A2971 RMK T02700150 IEM_DS3505
ZBAA,2000-05-23 12:00,ZBAA 231200Z AUTO 13004KT 9SM 24/13 A2971 RMK SLP060 T02440133 52010 IEM_DS3505
ZBAA,2000-05-23 13:00,ZBAA 231300Z AUTO 15002KT 6SM 25/14 A2974 RMK T02500140 IEM_DS3505
ZBAA,2000-05-23 14:00,ZBAA 231400Z AUTO 15002KT 6SM 24/15 A2974 RMK T02400150 IEM_DS3505
ZBAA,2000-05-23 15:00,ZBAA 231500Z AUTO 14004KT 6SM 22/14 A2974 RMK SLP068 T02190141 52008 IEM_DS3505
ZBAA,2000-05-23 16:00,ZBAA 231600Z AUTO 11004KT 6SM 22/17 A2974 RMK T02200170 IEM_DS3505
ZBAA,2000-05-23 17:00,ZBAA 231700Z AUTO 12004KT 4SM 21/17 A2974 RMK T02100170 IEM_DS3505
ZBAA,2000-05-23 18:00,ZBAA 231800Z AUTO 08002KT 4SM 20/16 A2974 RMK SLP068 T02000161 52001 IEM_DS3505
ZBAA,2000-05-23 19:00,ZBAA 231900Z AUTO 00000KT 4SM 20/17 A2977 RMK T02000170 IEM_DS3505
ZBAA,2000-05-23 20:00,ZBAA 232000Z AUTO 11002KT 4SM 19/17 A2974 RMK T01900170 IEM_DS3505
ZBAA,2000-05-23 21:00,ZBAA 232100Z AUTO 00000KT 3SM 18/15 A2974 RMK SLP071 T01830154 52003 IEM_DS3505
ZBAA,2000-05-23 23:00,ZBAA 232300Z AUTO 00000KT 2SM 20/18 A2977 RMK T02000180 IEM_DS3505
ZBAA,2000-05-24 00:00,ZBAA 240000Z AUTO 08002KT 5SM 22/17 A2977 RMK SLP076 T02160168 52004 IEM_DS3505
ZBAA,2000-05-24 01:00,ZBAA 240100Z AUTO 2 1/2SM 23/18 A2977 RMK T02300180 IEM_DS3505
ZBAA,2000-05-24 02:00,ZBAA 240200Z AUTO 2 1/2SM 25/19 A2977 RMK T02500190 IEM_DS3505
ZBAA,2000-05-24 03:00,ZBAA 240300Z AUTO 10002KT 4SM 26/17 A2974 RMK SLP066 T02650170 57010 IEM_DS3505
ZBAA,2000-05-24 04:00,ZBAA 240400Z AUTO 2 1/2SM 28/18 A2971 RMK T02800180 IEM_DS3505
ZBAA,2000-05-24 05:00,ZBAA 240500Z AUTO 15004KT 3SM 30/19 A2968 RMK T03000190 IEM_DS3505
ZBAA,2000-05-24 06:00,ZBAA 240600Z AUTO 13004KT 5SM 30/19 A2968 RMK SLP042 T03030194 57023 IEM_DS3505
ZBAA,2000-05-24 07:00,ZBAA 240700Z AUTO 17008KT 3SM 32/20 A2965 RMK T03200200 IEM_DS3505
ZBAA,2000-05-24 08:00,ZBAA 240800Z AUTO 18008KT 3SM 32/20 A2962 RMK T03200200 IEM_DS3505
ZBAA,2000-05-24 09:00,ZBAA 240900Z AUTO 19006KT 7SM 33/17 A2959 RMK SLP019 T03330166 57023 IEM_DS3505
ZBAA,2000-05-24 10:00,ZBAA 241000Z AUTO 18008KT 6SM 32/19 A2959 RMK T03200190 IEM_DS3505
ZBAA,2000-05-24 11:00,ZBAA 241100Z AUTO 12002KT 5SM 31/19 A2962 RMK T03100190 IEM_DS3505
ZBAA,2000-05-24 12:00,ZBAA 241200Z AUTO 12002KT 7SM 28/17 A2962 RMK SLP028 T02780174 52009 IEM_DS3505
ZBAA,2000-05-24 13:00,ZBAA 241300Z AUTO 13004KT 28/21 A2965 RMK T02800210 IEM_DS3505
ZBAA,2000-05-24 14:00,ZBAA 241400Z AUTO 13004KT 4SM 26/21 A2965 RMK T02600210 IEM_DS3505
ZBAA,2000-05-24 15:00,ZBAA 241500Z AUTO 00000KT 6SM 26/18 A2968 RMK SLP044 T02560183 52016 IEM_DS3505
ZBAA,2000-05-24 16:00,ZBAA 241600Z AUTO 12002KT 4SM 25/20 A2968 RMK T02500200 IEM_DS3505
ZBAA,2000-05-24 17:00,ZBAA 241700Z AUTO 00000KT 4SM 24/20 A2968 RMK T02400200 IEM_DS3505
ZBAA,2000-05-24 18:00,ZBAA 241800Z AUTO 09002KT 6SM 23/17 A2968 RMK SLP044 T02340174 54000 IEM_DS3505
ZBAA,2000-05-24 19:00,ZBAA 241900Z AUTO 00000KT 4SM 23/20 A2968 RMK T02300200 IEM_DS3505
ZBAA,2000-05-24 20:00,ZBAA 242000Z AUTO 09002KT 4SM 23/19 A2968 RMK T02300190 IEM_DS3505
ZBAA,2000-05-24 21:00,ZBAA 242100Z AUTO 10002KT 4SM 21/17 A2968 RMK SLP049 T02110171 52005 IEM_DS3505
ZBAA,2000-05-24 22:00,ZBAA 242200Z AUTO 12002KT 2 1/2SM 21/19 A2971 RMK T02100190 IEM_DS3505
ZBAA,2000-05-24 23:00,ZBAA 242300Z AUTO 2SM 23/19 A2971 RMK T02300190 IEM_DS3505
ZBAA,2000-05-25 00:00,ZBAA 250000Z AUTO 06002KT 5SM 24/18 A2974 RMK SLP062 T02380180 52013 IEM_DS3505
ZBAA,2000-05-25 01:00,ZBAA 250100Z AUTO 00000KT 3SM 27/20 A2974 RMK T02700200 IEM_DS3505
ZBAA,2000-05-25 02:00,ZBAA 250200Z AUTO 3SM 28/20 A2974 RMK T02800200 IEM_DS3505
ZBAA,2000-05-25 03:00,ZBAA 250300Z AUTO 12004KT 4SM 30/19 A2971 RMK SLP056 T02950192 57006 IEM_DS3505
ZBAA,2000-05-25 04:00,ZBAA 250400Z AUTO 11006KT 4SM 32/21 A2968 RMK T03200210 IEM_DS3505
ZBAA,2000-05-25 05:00,ZBAA 250500Z AUTO 14006KT 33/19 A2965 RMK T03300190 IEM_DS3505
ZBAA,2000-05-25 06:00,ZBAA 250600Z AUTO 12006KT 6SM 32/18 A2965 RMK SLP034 T03230181 57022 IEM_DS3505
ZBAA,2000-05-25 07:00,ZBAA 250700Z AUTO 13010KT 6SM 33/19 A2962 RMK T03300190 IEM_DS3505
ZBAA,2000-05-25 08:00,ZBAA 250800Z AUTO 12010KT 6SM 33/19 A2962 RMK T03300190 IEM_DS3505
ZBAA,2000-05-25 09:00,ZBAA 250900Z AUTO 10006KT 9SM 31/16 A2962 RMK SLP020 T03110159 57014 IEM_DS3505
ZBAA,2000-05-25 10:00,ZBAA 251000Z AUTO 13010KT 6SM 31/17 A2962 RMK T03100170 IEM_DS3505
ZBAA,2000-05-25 11:00,ZBAA 251100Z AUTO 12008KT 6SM 29/18 A2962 RMK T02900180 IEM_DS3505
ZBAA,2000-05-25 12:00,ZBAA 251200Z AUTO 10006KT 12SM 26/18 A2965 RMK SLP037 T02640175 52017 IEM_DS3505
ZBAA,2000-05-25 13:00,ZBAA 251300Z AUTO 11010KT 6SM 26/20 A2968 RMK T02600200 IEM_DS3505
ZBAA,2000-05-25 14:00,ZBAA 251400Z AUTO 11008KT 6SM 25/20 A2971 RMK T02500200 IEM_DS3505
ZBAA,2000-05-25 15:00,ZBAA 251500Z AUTO 09006KT 7SM 23/18 A2971 RMK SLP059 T02340185 52022 IEM_DS3505
ZBAA,2000-05-25 16:00,ZBAA 251600Z AUTO 11008KT 6SM 24/20 A2974 RMK T02400200 IEM_DS3505
ZBAA,2000-05-25 17:00,ZBAA 251700Z AUTO 11006KT 6SM 24/20 A2974 RMK T02400200 IEM_DS3505
ZBAA,2000-05-25 18:00,ZBAA 251800Z AUTO 11006KT 7SM 22/18 A2974 RMK SLP063 T02220178 52004 IEM_DS3505
ZBAA,2000-05-25 19:00,ZBAA 251900Z AUTO 12006KT 7SM 22/19 A2974 RMK T02200190 IEM_DS3505
ZBAA,2000-05-25 20:00,ZBAA 252000Z AUTO 11006KT 7SM 21/19 A2974 RMK T02100190 IEM_DS3505
ZBAA,2000-05-25 21:00,ZBAA 252100Z AUTO 11002KT 7SM 21/16 A2977 RMK SLP074 T02070159 52011 IEM_DS3505
ZBAA,2000-05-25 22:00,ZBAA 252200Z AUTO 12006KT 7SM 21/19 A2980 RMK T02100190 IEM_DS3505
ZBAA,2000-05-25 23:00,ZBAA 252300Z AUTO 13008KT 6SM 22/18 A2980 RMK T02200180 IEM_DS3505
ZBAA,2000-05-26 00:00,ZBAA 260000Z AUTO 11004KT 11SM 22/15 A2983 RMK SLP092 T02230149 52018 IEM_DS3505
ZBAA,2000-05-26 01:00,ZBAA 260100Z AUTO 15006KT 6SM 24/17 A2983 RMK T02400170 IEM_DS3505
ZBAA,2000-05-26 02:00,ZBAA 260200Z AUTO 17008KT 6SM 25/16 A2983 RMK T02500160 IEM_DS3505
ZBAA,2000-05-26 03:00,ZBAA 260300Z AUTO 15004KT 12SM 26/14 A2980 RMK SLP087 T02600135 57005 IEM_DS3505
ZBAA,2000-05-26 04:00,ZBAA 260400Z AUTO 19008G25KT 7SM 26/16 A2980 RMK T02600160 IEM_DS3505
ZBAA,2000-05-26 05:00,ZBAA 260500Z AUTO 18010KT 7SM 28/15 A2977 RMK T02800150 IEM_DS3505
ZBAA,2000-05-26 06:00,ZBAA 260600Z AUTO 14008KT 12SM 26/12 A2977 RMK SLP072 T02560121 57015 IEM_DS3505
ZBAA,2000-05-26 07:00,ZBAA 260700Z AUTO 18012KT 7SM 28/13 A2974 RMK T02800130 IEM_DS3505
ZBAA,2000-05-26 08:00,ZBAA 260800Z AUTO 16006KT 6SM 27/14 A2974 RMK T02700140 IEM_DS3505
ZBAA,2000-05-26 09:00,ZBAA 260900Z AUTO 13006KT 12SM 26/12 A2971 RMK SLP060 T02560125 57013 IEM_DS3505
ZBAA,2000-05-26 10:00,ZBAA 261000Z AUTO 17006KT 6SM 26/13 A2971 RMK T02600130 IEM_DS3505
ZBAA,2000-05-26 11:00,ZBAA 261100Z AUTO 17006KT 6SM 25/14 A2971 RMK T02500140 IEM_DS3505
ZBAA,2000-05-26 12:00,ZBAA 261200Z AUTO 24006KT 12SM 22/14 A2974 RMK SLP068 T02170136 52008 IEM_DS3505
ZBAA,2000-05-26 13:00,ZBAA 261300Z AUTO 21006KT 6SM 23/16 A2974 RMK T02300160 IEM_DS3505
ZBAA,2000-05-26 14:00,ZBAA 261400Z AUTO 28010KT 6SM 21/14 A2977 RMK T02100140 IEM_DS3505
ZBAA,2000-05-26 15:00,ZBAA 261500Z AUTO 32004KT 9SM 21/11 A2977 RMK SLP075 T02080106 52007 IEM_DS3505
ZBAA,2000-05-26 16:00,ZBAA 261600Z AUTO 34012KT 7SM 20/14 A2977 RMK T02000140 IEM_DS3505
ZBAA,2000-05-26 17:00,ZBAA 261700Z AUTO 33012KT 7SM 19/14 A2980 RMK T01900140 IEM_DS3505
ZBAA,2000-05-26 18:00,ZBAA 261800Z AUTO 34006KT 6SM 16/13 A2980 RMK 60003 SLP083 T01630129 52008 IEM_DS3505
ZBAA,2000-05-26 19:00,ZBAA 261900Z AUTO 32014KT 7SM 16/15 A2980 RMK T01600150 IEM_DS3505
ZBAA,2000-05-26 20:00,ZBAA 262000Z AUTO 34014KT 7SM 16/14 A2983 RMK T01600140 IEM_DS3505
ZBAA,2000-05-26 21:00,ZBAA 262100Z AUTO 34006KT 6SM 15/12 A2983 RMK 70019 SLP097 T01540120 52014 IEM_DS3505
ZBAA,2000-05-26 22:00,ZBAA 262200Z AUTO 33010KT 7SM 16/14 A2985 RMK T01600140 IEM_DS3505
ZBAA,2000-05-26 23:00,ZBAA 262300Z AUTO 30012KT 7SM 14/13 A2985 RMK T01400130 IEM_DS3505
ZBAA,2000-05-27 00:00,ZBAA 270000Z AUTO 01010KT 12SM 15/10 A2985 RMK 60031 SLP101 T01540098 52004 IEM_DS3505
ZBAA,2000-05-27 01:00,ZBAA 270100Z AUTO 31006KT 6SM 17/13 A2985 RMK T01700130 IEM_DS3505
ZBAA,2000-05-27 02:00,ZBAA 270200Z AUTO 01004KT 6SM 19/13 A2985 RMK T01900130 IEM_DS3505
ZBAA,2000-05-27 03:00,ZBAA 270300Z AUTO 01006KT 19SM 22/08 A2983 RMK SLP096 T02180080 57005 IEM_DS3505
ZBAA,2000-05-27 04:00,ZBAA 270400Z AUTO 6SM 23/11 A2980 RMK T02300110 IEM_DS3505
ZBAA,2000-05-27 05:00,ZBAA 270500Z AUTO 6SM 23/12 A2977 RMK T02300120 IEM_DS3505
ZBAA,2000-05-27 06:00,ZBAA 270600Z AUTO 16004KT 19SM 24/11 A2974 RMK 60003 SLP070 T02450111 57026 IEM_DS3505
ZBAA,2000-05-27 07:00,ZBAA 270700Z AUTO 13006KT 6SM 25/13 A2971 RMK T02500130 IEM_DS3505
ZBAA,2000-05-27 08:00,ZBAA 270800Z AUTO 18006KT 7SM 25/15 A2974 RMK T02500150 IEM_DS3505
ZBAA,2000-05-27 09:00,ZBAA 270900Z AUTO 19006KT 19SM 25/11 A2971 RMK SLP057 T02510109 57013 IEM_DS3505
ZBAA,2000-05-27 10:00,ZBAA 271000Z AUTO 19010KT 6SM 25/14 A2968 RMK T02500140 IEM_DS3505
ZBAA,2000-05-27 11:00,ZBAA 271100Z AUTO 13006KT 6SM 24/14 A2974 RMK T02400140 IEM_DS3505
ZBAA,2000-05-27 12:00,ZBAA 271200Z AUTO 17002KT 16SM 22/12 A2977 RMK SLP079 T02220125 52022 IEM_DS3505
ZBAA,2000-05-27 13:00,ZBAA 271300Z AUTO 27006KT 6SM 23/14 A2980 RMK T02300140 IEM_DS3505
ZBAA,2000-05-27 14:00,ZBAA 271400Z AUTO 23008KT 6SM 22/15 A2977 RMK T02200150 IEM_DS3505
ZBAA,2000-05-27 15:00,ZBAA 271500Z AUTO 25004KT 9SM 20/12 A2980 RMK SLP088 T01960124 52009 IEM_DS3505
ZBAA,2000-05-27 16:00,ZBAA 271600Z AUTO 30004KT 6SM 21/16 A2980 RMK T02100160 IEM_DS3505
ZBAA,2000-05-27 17:00,ZBAA 271700Z AUTO 30008KT 6SM 20/13 A2980 RMK T02000130 IEM_DS3505
ZBAA,2000-05-27 18:00,ZBAA 271800Z AUTO 25002KT 11SM 18/13 A2980 RMK SLP082 T01840126 57006 IEM_DS3505
ZBAA,2000-05-27 19:00,ZBAA 271900Z AUTO 01006KT 6SM 18/10 A2980 RMK T01800100 IEM_DS3505
ZBAA,2000-05-27 20:00,ZBAA 272000Z AUTO 33010KT 6SM 19/11 A2980 RMK T01900110 IEM_DS3505
ZBAA,2000-05-27 21:00,ZBAA 272100Z AUTO 00000KT 5SM 15/12 A2983 RMK 70015 SLP096 T01500118 52014 IEM_DS3505
ZBAA,2000-05-27 22:00,ZBAA 272200Z AUTO 35006KT 6SM 17/13 A2985 RMK T01700130 IEM_DS3505
ZBAA,2000-05-27 23:00,ZBAA 272300Z AUTO 01008KT 6SM 20/12 A2985 RMK T02000120 IEM_DS3505
ZBAA,2000-05-28 00:00,ZBAA 280000Z AUTO 34004KT 12SM 24/06 A2988 RMK 70003 SLP114 T02410064 52018 IEM_DS3505
ZBAA,2000-05-28 01:00,ZBAA 280100Z AUTO 6SM 24/10 A2988 RMK T02400100 IEM_DS3505
ZBAA,2000-05-28 02:00,ZBAA 280200Z AUTO 6SM 26/09 A2985 RMK T02600090 IEM_DS3505
ZBAA,2000-05-28 03:00,ZBAA 280300Z AUTO 06004KT 19SM 29/02 A2985 RMK SLP110 T02920025 57003 IEM_DS3505
ZBAA,2000-05-28 04:00,ZBAA 280400Z AUTO 28008KT 6SM 30/05 A2985 RMK T03000050 IEM_DS3505
ZBAA,2000-05-28 05:00,ZBAA 280500Z AUTO 6SM 32/04 A2983 RMK T03200040 IEM_DS3505
ZBAA,2000-05-28 06:00,ZBAA 280600Z AUTO 13002KT 19SM 30/00 A2980 RMK SLP093 T03050001 57017 IEM_DS3505
ZBAA,2000-05-28 07:00,ZBAA 280700Z AUTO 28006KT 6SM 32/01 A2977 RMK T03200010 IEM_DS3505
ZBAA,2000-05-28 08:00,ZBAA 280800Z AUTO 18004KT 6SM 32/03 A2977 RMK T03200030 IEM_DS3505
ZBAA,2000-05-28 09:00,ZBAA 280900Z AUTO 20006KT 19SM 31/04 A2977 RMK SLP078 T03140035 57016 IEM_DS3505
ZBAA,2000-05-28 10:00,ZBAA 281000Z AUTO 19010KT 6SM 31/06 A2977 RMK T03100060 IEM_DS3505
ZBAA,2000-05-28 11:00,ZBAA 281100Z AUTO 20010KT 6SM 29/06 A2977 RMK T02900060 IEM_DS3505
ZBAA,2000-05-28 12:00,ZBAA 281200Z AUTO 22006KT 9SM 26/07 A2977 RMK SLP085 T02600066 52008 IEM_DS3505
ZBAA,2000-05-28 13:00,ZBAA 281300Z AUTO 21010KT 6SM 27/07 A2980 RMK T02700070 IEM_DS3505
ZBAA,2000-05-28 14:00,ZBAA 281400Z AUTO 22010KT 6SM 27/07 A2980 RMK T02700070 IEM_DS3505
ZBAA,2000-05-28 15:00,ZBAA 281500Z AUTO 22004KT 11SM 22/08 A2980 RMK SLP090 T02230084 52004 IEM_DS3505
ZBAA,2000-05-28 16:00,ZBAA 281600Z AUTO 24004KT 6SM 25/05 A2980 RMK T02500050 IEM_DS3505
ZBAA,2000-05-28 17:00,ZBAA 281700Z AUTO 6SM 23/07 A2980 RMK T02300070 IEM_DS3505
ZBAA,2000-05-28 18:00,ZBAA 281800Z AUTO 23004KT 9SM 21/08 A2980 RMK SLP082 T02080078 57007 IEM_DS3505
ZBAA,2000-05-28 19:00,ZBAA 281900Z AUTO 00000KT 6SM 17/12 A2977 RMK T01700120 IEM_DS3505
ZBAA,2000-05-28 20:00,ZBAA 282000Z AUTO 00000KT 6SM 17/12 A2977 RMK T01700120 IEM_DS3505
ZBAA,2000-05-28 21:00,ZBAA 282100Z AUTO 00000KT 9SM 17/08 A2977 RMK SLP080 T01690081 57002 IEM_DS3505
ZBAA,2000-05-28 22:00,ZBAA 282200Z AUTO 07002KT 6SM 17/12 A2980 RMK T01700120 IEM_DS3505
ZBAA,2000-05-28 23:00,ZBAA 282300Z AUTO 05002KT 6SM 20/12 A2980 RMK T02000120 IEM_DS3505
ZBAA,2000-05-29 00:00,ZBAA 290000Z AUTO 22002KT 7SM 22/12 A2980 RMK SLP084 T02210115 52004 IEM_DS3505
ZBAA,2000-05-29 01:00,ZBAA 290100Z AUTO 6SM 24/13 A2980 RMK T02400130 IEM_DS3505
ZBAA,2000-05-29 02:00,ZBAA 290200Z AUTO 12SM 27/12 A2977 RMK T02700120 IEM_DS3505
ZBAA,2000-05-29 03:00,ZBAA 290300Z AUTO 20004KT 12SM 30/09 A2974 RMK SLP068 T02990089 57016 IEM_DS3505
ZBAA,2000-05-29 04:00,ZBAA 290400Z AUTO 21010KT 6SM 32/08 A2971 RMK T03200080 IEM_DS3505
ZBAA,2000-05-29 05:00,ZBAA 290500Z AUTO 18014KT 6SM 32/06 A2971 RMK T03200060 IEM_DS3505
ZBAA,2000-05-29 06:00,ZBAA 290600Z AUTO 21008KT 16SM 32/08 A2968 RMK SLP046 T03190076 57022 IEM_DS3505
ZBAA,2000-05-29 07:00,ZBAA 290700Z AUTO 19012KT 6SM 33/07 A2965 RMK T03300070 IEM_DS3505
ZBAA,2000-05-29 08:00,ZBAA 290800Z AUTO 17012KT 6SM 32/07 A2965 RMK T03200070 IEM_DS3505
ZBAA,2000-05-29 09:00,ZBAA 290900Z AUTO 22010G23KT 12SM 29/08 A2962 RMK SLP032 T02930078 57014 IEM_DS3505
ZBAA,2000-05-29 10:00,ZBAA 291000Z AUTO 20014KT 6SM 30/07 A2962 RMK T03000070 IEM_DS3505
ZBAA,2000-05-29 11:00,ZBAA 291100Z AUTO 19008KT 6SM 29/08 A2962 RMK T02900080 IEM_DS3505
ZBAA,2000-05-29 12:00,ZBAA 291200Z AUTO 23010G17KT 9SM 26/11 A2965 RMK SLP043 T02560114 52011 IEM_DS3505
ZBAA,2000-05-29 13:00,ZBAA 291300Z AUTO 21016G25KT 6SM 26/11 A2965 RMK T02600110 IEM_DS3505
ZBAA,2000-05-29 14:00,ZBAA 291400Z AUTO 21014KT 6SM 25/12 A2968 RMK T02500120 IEM_DS3505
ZBAA,2000-05-29 15:00,ZBAA 291500Z AUTO 21008KT 12SM 21/11 A2968 RMK SLP047 T02140114 52003 IEM_DS3505
ZBAA,2000-05-29 16:00,ZBAA 291600Z AUTO 19010KT 6SM 22/13 A2965 RMK T02200130 IEM_DS3505
ZBAA,2000-05-29 17:00,ZBAA 291700Z AUTO 17010KT 6SM 21/14 A2965 RMK T02100140 IEM_DS3505
ZBAA,2000-05-29 18:00,ZBAA 291800Z AUTO 21008KT 12SM 19/12 A2962 RMK SLP031 T01930116 57015 IEM_DS3505
ZBAA,2000-05-29 19:00,ZBAA 291900Z AUTO 17008KT 6SM 20/13 A2962 RMK T02000130 IEM_DS3505
ZBAA,2000-05-29 20:00,ZBAA 292000Z AUTO 14002KT 6SM 19/13 A2962 RMK T01900130 IEM_DS3505
ZBAA,2000-05-29 21:00,ZBAA 292100Z AUTO 21004KT 12SM 18/11 A2962 RMK SLP027 T01750111 57004 IEM_DS3505
ZBAA,2000-05-29 22:00,ZBAA 292200Z AUTO 13004KT 6SM 18/13 A2962 RMK T01800130 IEM_DS3505
ZBAA,2000-05-29 23:00,ZBAA 292300Z AUTO 13004KT 6SM 19/14 A2962 RMK T01900140 IEM_DS3505
ZBAA,2000-05-30 00:00,ZBAA 300000Z AUTO 22006KT 16SM 20/11 A2965 RMK SLP031 T01990114 52004 IEM_DS3505
ZBAA,2000-05-30 01:00,ZBAA 300100Z AUTO 12004KT 6SM 22/13 A2965 RMK T02200130 IEM_DS3505
ZBAA,2000-05-30 02:00,ZBAA 300200Z AUTO 16006KT 6SM 23/13 A2962 RMK T02300130 IEM_DS3505
ZBAA,2000-05-30 03:00,ZBAA 300300Z AUTO 16006KT 9SM 24/12 A2962 RMK SLP021 T02420115 57010 IEM_DS3505
ZBAA,2000-05-30 04:00,ZBAA 300400Z AUTO 18010KT 6SM 25/13 A2959 RMK T02500130 IEM_DS3505
ZBAA,2000-05-30 05:00,ZBAA 300500Z AUTO 18008KT 6SM 26/14 A2956 RMK T02600140 IEM_DS3505
ZBAA,2000-05-30 06:00,ZBAA 300600Z AUTO 21006KT 12SM 27/13 A2953 RMK SLP998 T02660130 57023 IEM_DS3505
ZBAA,2000-05-30 07:00,ZBAA 300700Z AUTO 17008KT 6SM 27/14 A2953 RMK T02700140 IEM_DS3505
ZBAA,2000-05-30 08:00,ZBAA 300800Z AUTO 18010KT 6SM 27/14 A2953 RMK T02700140 IEM_DS3505
ZBAA,2000-05-30 09:00,ZBAA 300900Z AUTO 15002KT 12SM 27/12 A2953 RMK SLP999 T02680121 52001 IEM_DS3505
ZBAA,2000-05-30 10:00,ZBAA 301000Z AUTO 13008KT 6SM 26/15 A2953 RMK T02600150 IEM_DS3505
ZBAA,2000-05-30 11:00,ZBAA 301100Z AUTO 15008KT 6SM 24/15 A2956 RMK T02400150 IEM_DS3505
ZBAA,2000-05-30 12:00,ZBAA 301200Z AUTO 12004KT 9SM 22/14 A2959 RMK SLP013 T02150137 52013 IEM_DS3505
ZBAA,2000-05-30 13:00,ZBAA 301300Z AUTO 12004KT 6SM 22/16 A2962 RMK T02200160 IEM_DS3505
ZBAA,2000-05-30 14:00,ZBAA 301400Z AUTO 09004KT 6SM 21/16 A2962 RMK T02100160 IEM_DS3505
ZBAA,2000-05-30 15:00,ZBAA 301500Z AUTO 10002KT 9SM 20/15 A2962 RMK SLP027 T02040148 52014 IEM_DS3505
ZBAA,2000-05-30 16:00,ZBAA 301600Z AUTO 10006KT 6SM 20/17 A2962 RMK T02000170 IEM_DS3505
ZBAA,2000-05-30 17:00,ZBAA 301700Z AUTO 13002KT 6SM 19/17 A2965 RMK T01900170 IEM_DS3505
ZBAA,2000-05-30 18:00,ZBAA 301800Z AUTO 08002KT 6SM 18/15 A2962 RMK SLP022 T01840151 57004 IEM_DS3505
ZBAA,2000-05-30 19:00,ZBAA 301900Z AUTO 10006KT 4SM 18/17 A2959 RMK T01800170 IEM_DS3505
ZBAA,2000-05-30 20:00,ZBAA 302000Z AUTO 11006KT 3SM 18/17 A2959 RMK T01800170 IEM_DS3505
ZBAA,2000-05-30 21:00,ZBAA 302100Z AUTO 08004KT 4SM 18/16 A2962 RMK 70003 SLP020 T01750155 57002 IEM_DS3505
ZBAA,2000-05-30 22:00,ZBAA 302200Z AUTO 14004KT 2SM 18/17 A2962 RMK T01800170 IEM_DS3505
ZBAA,2000-05-30 23:00,ZBAA 302300Z AUTO 12006KT 2SM 18/17 A2962 RMK T01800170 IEM_DS3505
ZBAA,2000-05-31 00:00,ZBAA 310000Z AUTO 08006KT 4SM 19/16 A2965 RMK 60003 SLP030 T01870158 52009 IEM_DS3505
ZBAA,2000-05-31 01:00,ZBAA 310100Z AUTO 13004KT 1 1/2SM 19/17 A2965 RMK T01900170 IEM_DS3505
ZBAA,2000-05-31 02:00,ZBAA 310200Z AUTO 12006KT 1 1/2SM 19/17 A2965 RMK T01900170 IEM_DS3505
ZBAA,2000-05-31 03:00,ZBAA 310300Z AUTO 10004KT 4SM 21/17 A2965 RMK SLP034 T02140166 52004 IEM_DS3505
ZBAA,2000-05-31 04:00,ZBAA 310400Z AUTO 11006KT 1 1/2SM 22/18 A2965 RMK T02200180 IEM_DS3505
ZBAA,2000-05-31 05:00,ZBAA 310500Z AUTO 12006KT 1 1/2SM 22/18 A2959 RMK T02200180 IEM_DS3505
ZBAA,2000-05-31 06:00,ZBAA 310600Z AUTO 18002KT 3SM 24/18 A2959 RMK 60003 SLP013 T02440181 57021 IEM_DS3505
ZBAA,2000-05-31 07:00,ZBAA 310700Z AUTO 06004KT 2 1/2SM 24/19 A2959 RMK T02400190 IEM_DS3505
ZBAA,2000-05-31 08:00,ZBAA 310800Z AUTO 04006G16KT 2 1/2SM 22/18 A2959 RMK T02200180 IEM_DS3505
ZBAA,2000-05-31 09:00,ZBAA 310900Z AUTO 06010KT 4SM 24/16 A2959 RMK SLP008 T02350163 57005 IEM_DS3505
ZBAA,2000-05-31 10:00,ZBAA 311000Z AUTO 1 1/2SM 22/18 A2959 RMK T02200180 IEM_DS3505
ZBAA,2000-05-31 11:00,ZBAA 311100Z AUTO 06006KT 4SM 21/17 A2962 RMK T02100170 IEM_DS3505
ZBAA,2000-05-31 12:00,ZBAA 311200Z AUTO 08006KT 4SM 20/14 A2965 RMK 60003 SLP035 T01980135 52027 IEM_DS3505
ZBAA,2000-05-31 13:00,ZBAA 311300Z AUTO 02004KT 4SM 19/16 A2968 RMK T01900160 IEM_DS3505
ZBAA,2000-05-31 14:00,ZBAA 311400Z AUTO 4SM 18/16 A2971 RMK T01800160 IEM_DS3505
ZBAA,2000-05-31 15:00,ZBAA 311500Z AUTO 07004KT 5SM 19/14 A2971 RMK SLP058 T01940142 52023 IEM_DS3505
ZBAA,2000-05-31 16:00,ZBAA 311600Z AUTO 00000KT 4SM 18/16 A2974 RMK T01800160 IEM_DS3505
ZBAA,2000-05-31 17:00,ZBAA 311700Z AUTO 00000KT 4SM 17/16 A2974 RMK T01700160 IEM_DS3505
ZBAA,2000-05-31 18:00,ZBAA 311800Z AUTO 00000KT 4SM 19/15 A2974 RMK SLP065 T01890152 52007 IEM_DS3505
ZBAA,2000-05-31 19:00,ZBAA 311900Z AUTO 36002KT 2 1/2SM 18/17 A2977 RMK T01800170 IEM_DS3505
ZBAA,2000-05-31 20:00,ZBAA 312000Z AUTO 34004KT 3SM 17/16 A2977 RMK T01700160 IEM_DS3505
ZBAA,2000-05-31 21:00,ZBAA 312100Z AUTO 02002KT 4SM 19/15 A2977 RMK 70003 SLP081 T01880147 52016 IEM_DS3505
ZBAA,2000-05-31 22:00,ZBAA 312200Z AUTO 35004KT 3SM 17/16 A2980 RMK T01700160 IEM_DS3505
ZBAA,2000-05-31 23:00,ZBAA 312300Z AUTO 01008KT 4SM 19/17 A2980 RMK T01900170 IEM_DS3505
ZBAA,2000-06-01 00:00,ZBAA 010000Z AUTO 36004KT 6SM 22/15 A2983 RMK 70003 SLP097 T02210147 52016 IEM_DS3505
ZBAA,2000-06-01 01:00,ZBAA 010100Z AUTO 02006KT 6SM 24/15 A2985 RMK T02400150 IEM_DS3505
ZBAA,2000-06-01 02:00,ZBAA 010200Z AUTO 6SM 26/14 A2985 RMK T02600140 IEM_DS3505
ZBAA,2000-06-01 03:00,ZBAA 010300Z AUTO 08006KT 12SM 26/12 A2985 RMK SLP104 T02580116 52007 IEM_DS3505
ZBAA,2000-06-01 04:00,ZBAA 010400Z AUTO 6SM 27/13 A2983 RMK T02700130 IEM_DS3505
ZBAA,2000-06-01 05:00,ZBAA 010500Z AUTO 13006KT 6SM 28/13 A2983 RMK T02800130 IEM_DS3505
ZBAA,2000-06-01 06:00,ZBAA 010600Z AUTO 14004KT 12SM 27/12 A2983 RMK SLP102 T02700119 57002 IEM_DS3505
ZBAA,2000-06-01 07:00,ZBAA 010700Z AUTO 16006KT 6SM 28/14 A2983 RMK T02800140 IEM_DS3505
ZBAA,2000-06-01 08:00,ZBAA 010800Z AUTO 16006KT 6SM 28/15 A2983 RMK T02800150 IEM_DS3505
ZBAA,2000-06-01 09:00,ZBAA 010900Z AUTO 16006KT 6SM 28/15 A2983 RMK T02800150 IEM_DS3505
ZBAA,2000-06-01 10:00,ZBAA 011000Z AUTO 12004KT 6SM 28/16 A2983 RMK T02800160 IEM_DS3505
ZBAA,2000-06-01 11:00,ZBAA 011100Z AUTO 12004KT 6SM 26/17 A2983 RMK T02600170 IEM_DS3505
ZBAA,2000-06-01 12:00,ZBAA 011200Z AUTO 14004KT 7SM 23/16 A2985 RMK SLP109 T02270158 52010 IEM_DS3505
ZBAA,2000-06-01 13:00,ZBAA 011300Z AUTO 14004KT 6SM 23/18 A2988 RMK T02300180 IEM_DS3505
ZBAA,2000-06-01 14:00,ZBAA 011400Z AUTO 14004KT 6SM 22/18 A2991 RMK T02200180 IEM_DS3505
ZBAA,2000-06-01 15:00,ZBAA 011500Z AUTO 21002KT 6SM 21/14 A2991 RMK SLP131 T02130145 52022 IEM_DS3505
ZBAA,2000-06-01 16:00,ZBAA 011600Z AUTO 14004KT 6SM 20/17 A2994 RMK T02000170 IEM_DS3505
ZBAA,2000-06-01 17:00,ZBAA 011700Z AUTO 15002KT 6SM 20/16 A2994 RMK T02000160 IEM_DS3505
ZBAA,2000-06-01 18:00,ZBAA 011800Z AUTO 00000KT 6SM 21/14 A2994 RMK SLP138 T02060140 52007 IEM_DS3505
ZBAA,2000-06-01 19:00,ZBAA 011900Z AUTO 09002KT 4SM 19/17 A2994 RMK T01900170 IEM_DS3505
ZBAA,2000-06-01 20:00,ZBAA 012000Z AUTO 4SM 18/16 A2994 RMK T01800160 IEM_DS3505
ZBAA,2000-06-01 21:00,ZBAA 012100Z AUTO 06002KT 6SM 19/15 A2994 RMK SLP138 T01890148 54000 IEM_DS3505
ZBAA,2000-06-01 22:00,ZBAA 012200Z AUTO 35004KT 3SM 18/17 A2997 RMK T01800170 IEM_DS3505
ZBAA,2000-06-01 23:00,ZBAA 012300Z AUTO 36002KT 3SM 20/16 A2997 RMK T02000160 IEM_DS3505
ZBAA,2000-06-02 00:00,ZBAA 020000Z AUTO 07004KT 6SM 22/15 A2997 RMK SLP145 T02230147 52007 IEM_DS3505
ZBAA,2000-06-02 01:00,ZBAA 020100Z AUTO 24/18 A2997 RMK T02400180 IEM_DS3505
ZBAA,2000-06-02 02:00,ZBAA 020200Z AUTO 5SM 26/19 A2997 RMK T02600190 IEM_DS3505
ZBAA,2000-06-02 03:00,ZBAA 020300Z AUTO 11004KT 6SM 27/15 A2994 RMK SLP139 T02700154 57006 IEM_DS3505
ZBAA,2000-06-02 04:00,ZBAA 020400Z AUTO 5SM 28/19 A2991 RMK T02800190 IEM_DS3505
ZBAA,2000-06-02 05:00,ZBAA 020500Z AUTO 6SM 29/17 A2991 RMK T02900170 IEM_DS3505
ZBAA,2000-06-02 06:00,ZBAA 020600Z AUTO 16006KT 6SM 30/15 A2988 RMK T03000150 IEM_DS3505
ZBAA,2000-06-02 07:00,ZBAA 020700Z AUTO 13004KT 6SM 30/16 A2988 RMK T03000160 IEM_DS3505
ZBAA,2000-06-02 08:00,ZBAA 020800Z AUTO 15004KT 6SM 30/16 A2988 RMK T03000160 IEM_DS3505
ZBAA,2000-06-02 09:00,ZBAA 020900Z AUTO 14006KT 9SM 27/15 A2988 RMK SLP113 T02700147 57008 IEM_DS3505
ZBAA,2000-06-02 10:00,ZBAA 021000Z AUTO 17010KT 6SM 28/17 A2988 RMK T02800170 IEM_DS3505
ZBAA,2000-06-02 11:00,ZBAA 021100Z AUTO 17008KT 6SM 27/15 A2988 RMK T02700150 IEM_DS3505
ZBAA,2000-06-02 12:00,ZBAA 021200Z AUTO 15004KT 9SM 24/14 A2988 RMK SLP123 T02380137 52010 IEM_DS3505
ZBAA,2000-06-02 13:00,ZBAA 021300Z AUTO 17006KT 6SM 24/16 A2991 RMK T02400160 IEM_DS3505
ZBAA,2000-06-02 14:00,ZBAA 021400Z AUTO 14004KT 6SM 23/18 A2991 RMK T02300180 IEM_DS3505
ZBAA,2000-06-02 15:00,ZBAA 021500Z AUTO 12002KT 6SM 21/14 A2994 RMK SLP134 T02130142 52011 IEM_DS3505
ZBAA,2000-06-02 16:00,ZBAA 021600Z AUTO 11004KT 4SM 21/17 A2994 RMK T02100170 IEM_DS3505
ZBAA,2000-06-02 17:00,ZBAA 021700Z AUTO 09002KT 3SM 20/18 A2991 RMK T02000180 IEM_DS3505
ZBAA,2000-06-02 18:00,ZBAA 021800Z AUTO 07002KT 6SM 20/15 A2991 RMK SLP122 T02000152 57012 IEM_DS3505
ZBAA,2000-06-02 19:00,ZBAA 021900Z AUTO 00000KT 3SM 19/17 A2988 RMK T01900170 IEM_DS3505
ZBAA,2000-06-02 20:00,ZBAA 022000Z AUTO 00000KT 2 1/2SM 19/18 A2988 RMK T01900180 IEM_DS3505
ZBAA,2000-06-02 21:00,ZBAA 022100Z AUTO 00000KT 7SM 20/15 A2991 RMK SLP123 T01970152 52001 IEM_DS3505
ZBAA,2000-06-02 22:00,ZBAA 022200Z AUTO 34004KT 2SM 20/18 A2991 RMK T02000180 IEM_DS3505
ZBAA,2000-06-02 23:00,ZBAA 022300Z AUTO 34006KT 2SM 21/18 A2988 RMK T02100180 IEM_DS3505
ZBAA,2000-06-03 00:00,ZBAA 030000Z AUTO 05002KT 4SM 23/15 A2991 RMK SLP125 T02270148 52002 IEM_DS3505
ZBAA,2000-06-03 01:00,ZBAA 030100Z AUTO 35004KT 3SM 24/18 A2991 RMK T02400180 IEM_DS3505
ZBAA,2000-06-03 02:00,ZBAA 030200Z AUTO 01004KT 3SM 25/18 A2988 RMK T02500180 IEM_DS3505
ZBAA,2000-06-03 03:00,ZBAA 030300Z AUTO 04004KT 6SM 27/15 A2988 RMK SLP117 T02670148 57008 IEM_DS3505
ZBAA,2000-06-03 04:00,ZBAA 030400Z AUTO 27/18 A2988 RMK T02700180 IEM_DS3505
ZBAA,2000-06-03 05:00,ZBAA 030500Z AUTO 29/18 A2985 RMK T02900180 IEM_DS3505
ZBAA,2000-06-03 06:00,ZBAA 030600Z AUTO 5SM 30/18 A2985 RMK T03000180 IEM_DS3505
ZBAA,2000-06-03 07:00,ZBAA 030700Z AUTO 18006KT 6SM 30/16 A2983 RMK T03000160 IEM_DS3505
ZBAA,2000-06-03 08:00,ZBAA 030800Z AUTO 18006KT 6SM 30/16 A2983 RMK T03000160 IEM_DS3505
ZBAA,2000-06-03 09:00,ZBAA 030900Z AUTO 20004KT 9SM 30/12 A2983 RMK SLP093 T02960116 57011 IEM_DS3505
ZBAA,2000-06-03 10:00,ZBAA 031000Z AUTO 18006KT 6SM 30/15 A2980 RMK T03000150 IEM_DS3505
ZBAA,2000-06-03 11:00,ZBAA 031100Z AUTO 18006KT 6SM 28/16 A2980 RMK T02800160 IEM_DS3505
ZBAA,2000-06-03 12:00,ZBAA 031200Z AUTO 23002KT 9SM 26/13 A2983 RMK SLP096 T02590131 52002 IEM_DS3505
ZBAA,2000-06-03 13:00,ZBAA 031300Z AUTO 21006KT 6SM 26/16 A2983 RMK T02600160 IEM_DS3505
ZBAA,2000-06-03 14:00,ZBAA 031400Z AUTO 20002KT 6SM 24/15 A2983 RMK T02400150 IEM_DS3505
ZBAA,2000-06-03 15:00,ZBAA 031500Z AUTO 00000KT 6SM 23/15 A2983 RMK SLP099 T02280146 52003 IEM_DS3505
ZBAA,2000-06-03 16:00,ZBAA 031600Z AUTO 10002KT 4SM 21/16 A2983 RMK T02100160 IEM_DS3505
ZBAA,2000-06-03 17:00,ZBAA 031700Z AUTO 00000KT 4SM 20/17 A2983 RMK T02000170 IEM_DS3505
ZBAA,2000-06-03 18:00,ZBAA 031800Z AUTO 00000KT 6SM 20/15 A2983 RMK SLP090 T02040150 57008 IEM_DS3505
ZBAA,2000-06-03 19:00,ZBAA 031900Z AUTO 00000KT 4SM 19/17 A2980 RMK T01900170 IEM_DS3505
ZBAA,2000-06-03 20:00,ZBAA 032000Z AUTO 36004KT 4SM 19/17 A2983 RMK T01900170 IEM_DS3505
ZBAA,2000-06-03 21:00,ZBAA 032100Z AUTO 00000KT 4SM 19/16 A2983 RMK SLP092 T01930156 52002 IEM_DS3505
ZBAA,2000-06-03 22:00,ZBAA 032200Z AUTO 35004KT 2SM 19/17 A2983 RMK T01900170 IEM_DS3505
ZBAA,2000-06-03 23:00,ZBAA 032300Z AUTO 33004KT 3SM 21/18 A2983 RMK T02100180 IEM_DS3505
ZBAA,2000-06-04 00:00,ZBAA 040000Z AUTO 29002KT 4SM 24/16 A2983 RMK SLP095 T02440159 52003 IEM_DS3505
ZBAA,2000-06-04 01:00,ZBAA 040100Z AUTO 35002KT 6SM 26/17 A2983 RMK T02600170 IEM_DS3505
ZBAA,2000-06-04 02:00,ZBAA 040200Z AUTO 6SM 28/16 A2980 RMK T02800160 IEM_DS3505
ZBAA,2000-06-04 03:00,ZBAA 040300Z AUTO 25006KT 6SM 30/11 A2980 RMK SLP085 T02970108 57010 IEM_DS3505
ZBAA,2000-06-04 04:00,ZBAA 040400Z AUTO 6SM 32/13 A2977 RMK T03200130 IEM_DS3505
ZBAA,2000-06-04 05:00,ZBAA 040500Z AUTO 19008KT 6SM 34/12 A2974 RMK T03400120 IEM_DS3505
ZBAA,2000-06-04 06:00,ZBAA 040600Z AUTO 24006KT 9SM 33/10 A2974 RMK SLP065 T03320099 57020 IEM_DS3505
ZBAA,2000-06-04 07:00,ZBAA 040700Z AUTO 19004KT 6SM 34/10 A2971 RMK T03400100 IEM_DS3505
ZBAA,2000-06-04 08:00,ZBAA 040800Z AUTO 20004KT 6SM 35/08 A2971 RMK T03500080 IEM_DS3505
ZBAA,2000-06-04 09:00,ZBAA 040900Z AUTO 22008KT 12SM 32/10 A2971 RMK SLP059 T03210096 57006 IEM_DS3505
ZBAA,2000-06-04 10:00,ZBAA 041000Z AUTO 19012KT 6SM 32/12 A2971 RMK T03200120 IEM_DS3505
ZBAA,2000-06-04 11:00,ZBAA 041100Z AUTO 21010KT 6SM 31/12 A2971 RMK T03100120 IEM_DS3505
ZBAA,2000-06-04 12:00,ZBAA 041200Z AUTO 22006KT 12SM 27/10 A2971 RMK SLP064 T02720104 52005 IEM_DS3505
ZBAA,2000-06-04 13:00,ZBAA 041300Z AUTO 20008KT 6SM 28/12 A2974 RMK T02800120 IEM_DS3505
ZBAA,2000-06-04 14:00,ZBAA 041400Z AUTO 20008KT 6SM 27/14 A2974 RMK T02700140 IEM_DS3505
ZBAA,2000-06-04 15:00,ZBAA 041500Z AUTO 21004KT 9SM 23/14 A2974 RMK SLP074 T02330138 52009 IEM_DS3505
ZBAA,2000-06-04 16:00,ZBAA 041600Z AUTO 20004KT 6SM 25/15 A2977 RMK T02500150 IEM_DS3505
ZBAA,2000-06-04 17:00,ZBAA 041700Z AUTO 00000KT 6SM 23/15 A2977 RMK T02300150 IEM_DS3505
ZBAA,2000-06-04 18:00,ZBAA 041800Z AUTO 25004KT 6SM 21/14 A2974 RMK SLP070 T02110140 57003 IEM_DS3505
ZBAA,2000-06-04 19:00,ZBAA 041900Z AUTO 00000KT 5SM 19/15 A2977 RMK T01900150 IEM_DS3505
ZBAA,2000-06-04 20:00,ZBAA 042000Z AUTO 00000KT 4SM 19/16 A2977 RMK T01900160 IEM_DS3505
ZBAA,2000-06-04 21:00,ZBAA 042100Z AUTO 00000KT 5SM 18/14 A2977 RMK SLP080 T01840141 52010 IEM_DS3505
ZBAA,2000-06-04 22:00,ZBAA 042200Z AUTO 00000KT 4SM 19/16 A2980 RMK T01900160 IEM_DS3505
ZBAA,2000-06-04 23:00,ZBAA 042300Z AUTO 00000KT 4SM 22/17 A2980 RMK T02200170 IEM_DS3505
ZBAA,2000-06-05 00:00,ZBAA 050000Z AUTO 22002KT 5SM 24/14 A2980 RMK SLP086 T02440142 52006 IEM_DS3505
ZBAA,2000-06-05 01:00,ZBAA 050100Z AUTO 5SM 27/17 A2980 RMK T02700170 IEM_DS3505
ZBAA,2000-06-05 02:00,ZBAA 050200Z AUTO 5SM 29/16 A2980 RMK T02900160 IEM_DS3505
ZBAA,2000-06-05 03:00,ZBAA 050300Z AUTO 22004KT 12SM 30/12 A2977 RMK SLP077 T03020117 57009 IEM_DS3505
ZBAA,2000-06-05 04:00,ZBAA 050400Z AUTO 25004KT 5SM 32/13 A2974 RMK T03200130 IEM_DS3505
ZBAA,2000-06-05 05:00,ZBAA 050500Z AUTO 6SM 34/11 A2974 RMK T03400110 IEM_DS3505
ZBAA,2000-06-05 06:00,ZBAA 050600Z AUTO 22010KT 16SM 33/09 A2971 RMK SLP059 T03300091 57018 IEM_DS3505
ZBAA,2000-06-05 07:00,ZBAA 050700Z AUTO 19012KT 6SM 34/12 A2968 RMK T03400120 IEM_DS3505
ZBAA,2000-06-05 08:00,ZBAA 050800Z AUTO 20012KT 6SM 35/12 A2968 RMK T03500120 IEM_DS3505
ZBAA,2000-06-05 09:00,ZBAA 050900Z AUTO 21008KT 12SM 33/12 A2965 RMK SLP042 T03270118 57017 IEM_DS3505
ZBAA,2000-06-05 10:00,ZBAA 051000Z AUTO 20010KT 6SM 33/13 A2965 RMK T03300130 IEM_DS3505
ZBAA,2000-06-05 11:00,ZBAA 051100Z AUTO 19006KT 6SM 31/14 A2965 RMK T03100140 IEM_DS3505
ZBAA,2000-06-05 12:00,ZBAA 051200Z AUTO 22004KT 9SM 29/11 A2968 RMK SLP043 T02860112 52001 IEM_DS3505
ZBAA,2000-06-05 13:00,ZBAA 051300Z AUTO 14002KT 6SM 27/14 A2968 RMK T02700140 IEM_DS3505
ZBAA,2000-06-05 14:00,ZBAA 051400Z AUTO 15002KT 6SM 26/14 A2968 RMK T02600140 IEM_DS3505
ZBAA,2000-06-05 15:00,ZBAA 051500Z AUTO 24004KT 7SM 25/14 A2971 RMK SLP052 T02510140 52009 IEM_DS3505
ZBAA,2000-06-05 16:00,ZBAA 051600Z AUTO 18004KT 5SM 25/16 A2971 RMK T02500160 IEM_DS3505
ZBAA,2000-06-05 17:00,ZBAA 051700Z AUTO 10002KT 5SM 23/17 A2968 RMK T02300170 IEM_DS3505
ZBAA,2000-06-05 18:00,ZBAA 051800Z AUTO 25004KT 7SM 23/14 A2971 RMK SLP053 T02320140 52001 IEM_DS3505
ZBAA,2000-06-05 19:00,ZBAA 051900Z AUTO 00000KT 4SM 21/16 A2971 RMK T02100160 IEM_DS3505
ZBAA,2000-06-05 20:00,ZBAA 052000Z AUTO 00000KT 4SM 20/17 A2968 RMK T02000170 IEM_DS3505
ZBAA,2000-06-05 21:00,ZBAA 052100Z AUTO 00000KT 5SM 21/14 A2968 RMK SLP049 T02110140 57004 IEM_DS3505
ZBAA,2000-06-05 22:00,ZBAA 052200Z AUTO 00000KT 4SM 20/17 A2968 RMK T02000170 IEM_DS3505
ZBAA,2000-06-05 23:00,ZBAA 052300Z AUTO 00000KT 4SM 22/17 A2971 RMK T02200170 IEM_DS3505
ZBAA,2000-06-06 00:00,ZBAA 060000Z AUTO 26002KT 4SM 25/15 RMK SLP055 T02490153 52006 IEM_DS3505
ZBAA,2000-06-06 02:00,ZBAA 060200Z AUTO 29/17 A2968 RMK T02900170 IEM_DS3505
ZBAA,2000-06-06 03:00,ZBAA 060300Z AUTO 19006KT 5SM 32/13 A2968 RMK SLP045 T03160134 57010 IEM_DS3505
ZBAA,2000-06-06 04:00,ZBAA 060400Z AUTO 17006KT 5SM 33/17 A2965 RMK T03300170 IEM_DS3505
ZBAA,2000-06-06 05:00,ZBAA 060500Z AUTO 20010KT 35/15 A2962 RMK T03500150 IEM_DS3505
ZBAA,2000-06-06 06:00,ZBAA 060600Z AUTO 21012KT 9SM 35/10 A2962 RMK SLP024 T03470099 57021 IEM_DS3505
ZBAA,2000-06-06 07:00,ZBAA 060700Z AUTO 18010KT 5SM 35/12 A2959 RMK T03500120 IEM_DS3505
ZBAA,2000-06-06 08:00,ZBAA 060800Z AUTO 19010KT 5SM 34/13 A2959 RMK T03400130 IEM_DS3505
ZBAA,2000-06-06 09:00,ZBAA 060900Z AUTO 20004KT 9SM 32/10 A2956 RMK SLP010 T03250105 57014 IEM_DS3505
ZBAA,2000-06-06 10:00,ZBAA 061000Z AUTO 20010KT 6SM 33/13 A2956 RMK T03300130 IEM_DS3505
ZBAA,2000-06-06 11:00,ZBAA 061100Z AUTO 21006KT 6SM 32/13 A2959 RMK T03200130 IEM_DS3505
ZBAA,2000-06-06 12:00,ZBAA 061200Z AUTO 18002KT 6SM 29/13 A2956 RMK SLP009 T02920130 57001 IEM_DS3505
ZBAA,2000-06-06 13:00,ZBAA 061300Z AUTO 14002KT 5SM 28/15 A2956 RMK T02800150 IEM_DS3505
ZBAA,2000-06-06 14:00,ZBAA 061400Z AUTO 00000KT 27/17 A2956 RMK T02700170 IEM_DS3505
ZBAA,2000-06-06 15:00,ZBAA 061500Z AUTO 20004KT 6SM 26/15 A2956 RMK SLP006 T02650152 57003 IEM_DS3505
ZBAA,2000-06-06 16:00,ZBAA 061600Z AUTO 14006KT 26/18 A2953 RMK T02600180 IEM_DS3505
ZBAA,2000-06-06 17:00,ZBAA 061700Z AUTO 18004KT 26/18 A2953 RMK T02600180 IEM_DS3505
ZBAA,2000-06-06 18:00,ZBAA 061800Z AUTO 20006KT 9SM 27/14 A2950 RMK SLP987 T02710135 57018 IEM_DS3505
ZBAA,2000-06-06 19:00,ZBAA 061900Z AUTO 00000KT 24/18 A2950 RMK T02400180 IEM_DS3505
ZBAA,2000-06-06 20:00,ZBAA 062000Z AUTO 29004KT 25/17 A2950 RMK T02500170 IEM_DS3505
ZBAA,2000-06-06 21:00,ZBAA 062100Z AUTO 27004KT 6SM 26/14 A2953 RMK SLP994 T02590141 52006 IEM_DS3505
ZBAA,2000-06-06 22:00,ZBAA 062200Z AUTO 34010KT 4SM 24/18 A2953 RMK T02400180 IEM_DS3505
ZBAA,2000-06-06 23:00,ZBAA 062300Z AUTO 34010KT 7SM 23/19 A2956 RMK T02300190 IEM_DS3505
ZBAA,2000-06-07 00:00,ZBAA 070000Z AUTO 34012KT 11SM 23/16 A2962 RMK 60003 SLP010 T02320158 52016 IEM_DS3505
ZBAA,2000-06-07 01:00,ZBAA 070100Z AUTO 34012KT 7SM 21/19 A2962 RMK T02100190 IEM_DS3505
ZBAA,2000-06-07 02:00,ZBAA 070200Z AUTO 34010G19KT 7SM 21/19 A2962 RMK T02100190 IEM_DS3505
ZBAA,2000-06-07 03:00,ZBAA 070300Z AUTO 32008KT 19SM 23/15 A2962 RMK SLP019 T02300151 52009 IEM_DS3505
ZBAA,2000-06-07 04:00,ZBAA 070400Z AUTO 36006KT 6SM 21/20 A2962 RMK T02100200 IEM_DS3505
ZBAA,2000-06-07 05:00,ZBAA 070500Z AUTO 36004KT 6SM 23/20 A2959 RMK T02300200 IEM_DS3505
ZBAA,2000-06-07 06:00,ZBAA 070600Z AUTO 27004KT 9SM 26/16 A2959 RMK 60002 SLP016 T02580161 57003 IEM_DS3505
ZBAA,2000-06-07 07:00,ZBAA 070700Z AUTO 6SM 28/18 A2956 RMK T02800180 IEM_DS3505
ZBAA,2000-06-07 08:00,ZBAA 070800Z AUTO 11004KT 6SM 29/15 A2956 RMK T02900150 IEM_DS3505
ZBAA,2000-06-07 09:00,ZBAA 070900Z AUTO 17006KT 9SM 28/15 A2953 RMK SLP002 T02800153 57014 IEM_DS3505
ZBAA,2000-06-07 10:00,ZBAA 071000Z AUTO 18008KT 6SM 29/16 A2953 RMK T02900160 IEM_DS3505
ZBAA,2000-06-07 11:00,ZBAA 071100Z AUTO 17010KT 6SM 27/17 A2956 RMK T02700170 IEM_DS3505
ZBAA,2000-06-07 12:00,ZBAA 071200Z AUTO 19004KT 12SM 24/15 A2956 RMK SLP007 T02430150 52005 IEM_DS3505
ZBAA,2000-06-07 13:00,ZBAA 071300Z AUTO 17006KT 6SM 23/18 A2956 RMK T02300180 IEM_DS3505
ZBAA,2000-06-07 14:00,ZBAA 071400Z AUTO 16004KT 6SM 23/17 A2959 RMK T02300170 IEM_DS3505
ZBAA,2000-06-07 15:00,ZBAA 071500Z AUTO 20004KT 12SM 21/16 A2956 RMK SLP009 T02130158 52001 IEM_DS3505
ZBAA,2000-06-07 16:00,ZBAA 071600Z AUTO 00000KT 6SM 20/17 A2959 RMK T02000170 IEM_DS3505
ZBAA,2000-06-07 17:00,ZBAA 071700Z AUTO 12002KT 6SM 19/18 A2959 RMK T01900180 IEM_DS3505
ZBAA,2000-06-07 18:00,ZBAA 071800Z AUTO 14002KT 7SM 18/15 A2956 RMK SLP010 T01830154 52002 IEM_DS3505
ZBAA,2000-06-07 19:00,ZBAA 071900Z AUTO 00000KT 6SM 18/17 A2956 RMK T01800170 IEM_DS3505
ZBAA,2000-06-07 20:00,ZBAA 072000Z AUTO 09002KT 6SM 18/17 A2959 RMK T01800170 IEM_DS3505
ZBAA,2000-06-07 21:00,ZBAA 072100Z AUTO 00000KT 6SM 17/16 A2959 RMK 70002 SLP011 T01730155 52001 IEM_DS3505
ZBAA,2000-06-07 22:00,ZBAA 072200Z AUTO 00000KT 2 1/2SM 17/17 A2959 RMK T01700170 IEM_DS3505
ZBAA,2000-06-07 23:00,ZBAA 072300Z AUTO 00000KT 2 1/2SM 19/18 A2959 RMK T01900180 IEM_DS3505
ZBAA,2000-06-08 00:00,ZBAA 080000Z AUTO 00000KT 6SM 22/16 A2959 RMK 70002 SLP013 T02250165 52002 IEM_DS3505
ZBAA,2000-06-08 01:00,ZBAA 080100Z AUTO 3SM 24/19 A2956 RMK T02400190 IEM_DS3505
ZBAA,2000-06-08 02:00,ZBAA 080200Z AUTO 6SM 26/19 A2956 RMK T02600190 IEM_DS3505
ZBAA,2000-06-08 03:00,ZBAA 080300Z AUTO 00000KT 6SM 28/16 A2953 RMK SLP001 T02790162 57012 IEM_DS3505
ZBAA,2000-06-08 04:00,ZBAA 080400Z AUTO 19006KT 30/15 A2953 RMK T03000150 IEM_DS3505
ZBAA,2000-06-08 05:00,ZBAA 080500Z AUTO 22006KT 5SM 32/15 A2950 RMK T03200150 IEM_DS3505
ZBAA,2000-06-08 06:00,ZBAA 080600Z AUTO 06004KT 12SM 32/10 A2947 RMK SLP976 T03240099 57025 IEM_DS3505
ZBAA,2000-06-08 07:00,ZBAA 080700Z AUTO 29010KT 7SM 34/06 A2944 RMK T03400060 IEM_DS3505
ZBAA,2000-06-08 08:00,ZBAA 080800Z AUTO 05006G17KT 7SM 34/14 A2947 RMK T03400140 IEM_DS3505
ZBAA,2000-06-08 09:00,ZBAA 080900Z AUTO 07012G25KT 12SM 32/12 A2953 RMK SLP989 T03200118 52013 IEM_DS3505
ZBAA,2000-06-08 10:00,ZBAA 081000Z AUTO 11017G29KT 5SM 23/14 A2962 RMK T02300140 IEM_DS3505
ZBAA,2000-06-08 11:00,ZBAA 081100Z AUTO 12012KT 6SM 22/14 A2965 RMK T02200140 IEM_DS3505
ZBAA,2000-06-08 12:00,ZBAA 081200Z AUTO 10010KT 19SM 20/11 A2968 RMK SLP049 T01990114 52059 IEM_DS3505
ZBAA,2000-06-08 13:00,ZBAA 081300Z AUTO 00000KT 7SM 20/14 A2974 RMK T02000140 IEM_DS3505
ZBAA,2000-06-08 14:00,ZBAA 081400Z AUTO 00000KT 6SM 20/14 A2977 RMK T02000140 IEM_DS3505
ZBAA,2000-06-08 15:00,ZBAA 081500Z AUTO 10002KT 12SM 18/11 A2977 RMK SLP084 T01780111 52035 IEM_DS3505
ZBAA,2000-06-08 16:00,ZBAA 081600Z AUTO 00000KT 6SM 18/13 A2980 RMK T01800130 IEM_DS3505
ZBAA,2000-06-08 17:00,ZBAA 081700Z AUTO 22004KT 6SM 18/12 A2983 RMK T01800120 IEM_DS3505
ZBAA,2000-06-08 18:00,ZBAA 081800Z AUTO 00000KT 9SM 16/10 A2983 RMK SLP096 T01620105 52012 IEM_DS3505
ZBAA,2000-06-08 19:00,ZBAA 081900Z AUTO 02002KT 6SM 18/09 A2983 RMK T01800090 IEM_DS3505
ZBAA,2000-06-08 20:00,ZBAA 082000Z AUTO 01002KT 6SM 17/09 A2985 RMK T01700090 IEM_DS3505
ZBAA,2000-06-08 21:00,ZBAA 082100Z AUTO 04002KT 12SM 18/07 A2985 RMK SLP103 T01820067 52008 IEM_DS3505
ZBAA,2000-06-08 22:00,ZBAA 082200Z AUTO 35006KT 6SM 16/10 A2985 RMK T01600100 IEM_DS3505
ZBAA,2000-06-08 23:00,ZBAA 082300Z AUTO 01006KT 6SM 19/10 A2985 RMK T01900100 IEM_DS3505
ZBAA,2000-06-09 00:00,ZBAA 090000Z AUTO 01004KT 19SM 20/07 A2988 RMK SLP118 T02040071 52014 IEM_DS3505
ZBAA,2000-06-09 01:00,ZBAA 090100Z AUTO 04006KT 6SM 22/08 A2988 RMK T02200080 IEM_DS3505
ZBAA,2000-06-09 02:00,ZBAA 090200Z AUTO 01006KT 6SM 24/07 A2988 RMK T02400070 IEM_DS3505
ZBAA,2000-06-09 03:00,ZBAA 090300Z AUTO 32004KT 19SM 25/06 A2985 RMK SLP108 T02460064 57010 IEM_DS3505
ZBAA,2000-06-09 04:00,ZBAA 090400Z AUTO 6SM 26/05 A2983 RMK T02600050 IEM_DS3505
ZBAA,2000-06-09 05:00,ZBAA 090500Z AUTO 6SM 26/03 A2983 RMK T02600030 IEM_DS3505
ZBAA,2000-06-09 06:00,ZBAA 090600Z AUTO 23002KT 19SM 26/00 A2980 RMK SLP089 T02630002 57019 IEM_DS3505
ZBAA,2000-06-09 07:00,ZBAA 090700Z AUTO 6SM 28/04 A2980 RMK T02800040 IEM_DS3505
ZBAA,2000-06-09 08:00,ZBAA 090800Z AUTO 6SM 28/02 A2980 RMK T02800020 IEM_DS3505
ZBAA,2000-06-09 09:00,ZBAA 090900Z AUTO 17004KT 19SM 27/01 A2977 RMK SLP080 T02700007 57009 IEM_DS3505
ZBAA,2000-06-09 10:00,ZBAA 091000Z AUTO 13004KT 6SM 27/03 A2977 RMK T02700030 IEM_DS3505
ZBAA,2000-06-09 11:00,ZBAA 091100Z AUTO 19006KT 6SM 26/05 A2980 RMK T02600050 IEM_DS3505
ZBAA,2000-06-09 12:00,ZBAA 091200Z AUTO 16004KT 19SM 24/02 A2983 RMK SLP095 T02400022 52015 IEM_DS3505
ZBAA,2000-06-09 13:00,ZBAA 091300Z AUTO 18006KT 6SM 22/06 A2983 RMK T02200060 IEM_DS3505
ZBAA,2000-06-09 14:00,ZBAA 091400Z AUTO 17004KT 6SM 21/07 A2985 RMK T02100070 IEM_DS3505
ZBAA,2000-06-09 15:00,ZBAA 091500Z AUTO 22004KT 12SM 21/03 A2985 RMK SLP107 T02060034 52012 IEM_DS3505
ZBAA,2000-06-09 16:00,ZBAA 091600Z AUTO 18004KT 6SM 20/06 A2985 RMK T02000060 IEM_DS3505
ZBAA,2000-06-09 17:00,ZBAA 091700Z AUTO 15004KT 6SM 19/06 A2985 RMK T01900060 IEM_DS3505
ZBAA,2000-06-09 18:00,ZBAA 091800Z AUTO 23004KT 12SM 19/03 A2985 RMK SLP112 T01920034 52005 IEM_DS3505
ZBAA,2000-06-09 19:00,ZBAA 091900Z AUTO 16004KT 6SM 17/07 A2985 RMK T01700070 IEM_DS3505
ZBAA,2000-06-09 20:00,ZBAA 092000Z AUTO 00000KT 6SM 16/08 A2985 RMK T01600080 IEM_DS3505
ZBAA,2000-06-09 21:00,ZBAA 092100Z AUTO 21004KT 12SM 18/04 A2985 RMK SLP107 T01850036 57005 IEM_DS3505
ZBAA,2000-06-09 22:00,ZBAA 092200Z AUTO 00000KT 6SM 16/08 A2988 RMK T01600080 IEM_DS3505
ZBAA,2000-06-09 23:00,ZBAA 092300Z AUTO 02002KT 6SM 19/09 A2985 RMK T01900090 IEM_DS3505
ZBAA,2000-06-10 00:00,ZBAA 100000Z AUTO 34002KT 7SM 23/05 A2988 RMK SLP111 T02280053 52004 IEM_DS3505
ZBAA,2000-06-10 01:00,ZBAA 100100Z AUTO 6SM 23/08 A2985 RMK T02300080 IEM_DS3505
ZBAA,2000-06-10 02:00,ZBAA 100200Z AUTO 6SM 25/07 A2985 RMK T02500070 IEM_DS3505
ZBAA,2000-06-10 03:00,ZBAA 100300Z AUTO 25006KT 12SM 27/06 A2985 RMK SLP100 T02720061 57011 IEM_DS3505
ZBAA,2000-06-10 04:00,ZBAA 100400Z AUTO 6SM 28/09 A2983 RMK T02800090 IEM_DS3505
ZBAA,2000-06-10 05:00,ZBAA 100500Z AUTO 6SM 29/09 A2980 RMK T02900090 IEM_DS3505
ZBAA,2000-06-10 06:00,ZBAA 100600Z AUTO 11002KT 16SM 30/04 A2977 RMK SLP075 T03040042 57024 IEM_DS3505
ZBAA,2000-06-10 07:00,ZBAA 100700Z AUTO 18004KT 6SM 32/05 A2974 RMK T03200050 IEM_DS3505
ZBAA,2000-06-10 08:00,ZBAA 100800Z AUTO 05004KT 6SM 30/07 A2977 RMK T03000070 IEM_DS3505
ZBAA,2000-06-10 09:00,ZBAA 100900Z AUTO 04014KT 16SM 28/06 A2977 RMK SLP072 T02850060 57004 IEM_DS3505
ZBAA,2000-06-10 10:00,ZBAA 101000Z AUTO 05002KT 6SM 26/11 A2974 RMK T02600110 IEM_DS3505
ZBAA,2000-06-10 11:00,ZBAA 101100Z AUTO 03002KT 6SM 26/12 A2977 RMK T02600120 IEM_DS3505
ZBAA,2000-06-10 12:00,ZBAA 101200Z AUTO 03002KT 12SM 25/08 A2980 RMK 60003 SLP079 T02530079 52008 IEM_DS3505
ZBAA,2000-06-10 13:00,ZBAA 101300Z AUTO 02004KT 6SM 23/12 A2980 RMK T02300120 IEM_DS3505
ZBAA,2000-06-10 14:00,ZBAA 101400Z AUTO 6SM 21/12 A2983 RMK T02100120 IEM_DS3505
ZBAA,2000-06-10 15:00,ZBAA 101500Z AUTO 08002KT 9SM 22/09 A2983 RMK SLP090 T02250093 52010 IEM_DS3505
ZBAA,2000-06-10 16:00,ZBAA 101600Z AUTO 02004KT 6SM 21/12 A2983 RMK T02100120 IEM_DS3505
ZBAA,2000-06-10 17:00,ZBAA 101700Z AUTO 35006KT 6SM 19/13 A2983 RMK T01900130 IEM_DS3505
ZBAA,2000-06-10 18:00,ZBAA 101800Z AUTO 03002KT 12SM 21/10 A2983 RMK SLP092 T02110100 52003 IEM_DS3505
ZBAA,2000-06-10 19:00,ZBAA 101900Z AUTO 00000KT 6SM 18/13 A2983 RMK T01800130 IEM_DS3505
ZBAA,2000-06-10 20:00,ZBAA 102000Z AUTO 02004KT 6SM 19/13 A2983 RMK T01900130 IEM_DS3505
ZBAA,2000-06-10 21:00,ZBAA 102100Z AUTO 04002KT 12SM 19/11 A2985 RMK 70003 SLP103 T01930108 52010 IEM_DS3505
ZBAA,2000-06-10 22:00,ZBAA 102200Z AUTO 00000KT 6SM 18/14 A2985 RMK T01800140 IEM_DS3505
ZBAA,2000-06-10 23:00,ZBAA 102300Z AUTO 36004KT 6SM 21/13 A2988 RMK T02100130 IEM_DS3505
ZBAA,2000-06-11 00:00,ZBAA 110000Z AUTO 08006KT 6SM 23/13 A2988 RMK 70003 SLP117 T02280127 52014 IEM_DS3505
ZBAA,2000-06-11 01:00,ZBAA 110100Z AUTO 6SM 25/11 A2988 RMK T02500110 IEM_DS3505
ZBAA,2000-06-11 02:00,ZBAA 110200Z AUTO 6SM 26/11 A2988 RMK T02600110 IEM_DS3505
ZBAA,2000-06-11 03:00,ZBAA 110300Z AUTO 08006KT 9SM 27/10 A2988 RMK SLP119 T02700103 52002 IEM_DS3505
ZBAA,2000-06-11 04:00,ZBAA 110400Z AUTO 19006KT 6SM 29/11 A2988 RMK T02900110 IEM_DS3505
ZBAA,2000-06-11 05:00,ZBAA 110500Z AUTO 6SM 30/11 A2985 RMK T03000110 IEM_DS3505
ZBAA,2000-06-11 06:00,ZBAA 110600Z AUTO 10002KT 16SM 29/07 A2985 RMK SLP103 T02940074 57015 IEM_DS3505
ZBAA,2000-06-11 07:00,ZBAA 110700Z AUTO 14008KT 6SM 30/09 A2983 RMK T03000090 IEM_DS3505
ZBAA,2000-06-11 08:00,ZBAA 110800Z AUTO 16012KT 6SM 31/09 A2983 RMK T03100090 IEM_DS3505
ZBAA,2000-06-11 09:00,ZBAA 110900Z AUTO 10010KT 9SM 26/06 A2985 RMK SLP107 T02610062 52003 IEM_DS3505
ZBAA,2000-06-11 10:00,ZBAA 111000Z AUTO 10002KT 7SM 23/13 A2988 RMK T02300130 IEM_DS3505
ZBAA,2000-06-11 11:00,ZBAA 111100Z AUTO 00000KT 7SM 22/13 A2991 RMK T02200130 IEM_DS3505
ZBAA,2000-06-11 12:00,ZBAA 111200Z AUTO 07002KT 12SM 23/11 A2991 RMK 60003 SLP133 T02290113 52026 IEM_DS3505
ZBAA,2000-06-11 13:00,ZBAA 111300Z AUTO 29004KT 6SM 21/15 A2994 RMK T02100150 IEM_DS3505
ZBAA,2000-06-11 14:00,ZBAA 111400Z AUTO 31006KT 6SM 21/14 A2994 RMK T02100140 IEM_DS3505
ZBAA,2000-06-11 15:00,ZBAA 111500Z AUTO 00000KT 12SM 21/11 A2994 RMK SLP135 T02130108 52002 IEM_DS3505
ZBAA,2000-06-11 16:00,ZBAA 111600Z AUTO 32004KT 6SM 19/15 A2994 RMK T01900150 IEM_DS3505
ZBAA,2000-06-11 17:00,ZBAA 111700Z AUTO 32006KT 6SM 19/15 A2991 RMK T01900150 IEM_DS3505
ZBAA,2000-06-11 18:00,ZBAA 111800Z AUTO 31002KT 12SM 20/11 A2991 RMK SLP130 T02020112 57005 IEM_DS3505
ZBAA,2000-06-11 19:00,ZBAA 111900Z AUTO 34004KT 6SM 17/13 A2991 RMK T01700130 IEM_DS3505
ZBAA,2000-06-11 20:00,ZBAA 112000Z AUTO 33004KT 6SM 18/12 A2991 RMK T01800120 IEM_DS3505
ZBAA,2000-06-11 21:00,ZBAA 112100Z AUTO 00000KT 9SM 18/11 A2991 RMK 70003 SLP131 T01750106 52001 IEM_DS3505
ZBAA,2000-06-11 22:00,ZBAA 112200Z AUTO 34004KT 6SM 18/13 A2991 RMK T01800130 IEM_DS3505
ZBAA,2000-06-11 23:00,ZBAA 112300Z AUTO 35004KT 6SM 21/13 A2991 RMK T02100130 IEM_DS3505
ZBAA,2000-06-12 00:00,ZBAA 120000Z AUTO 32006KT 9SM 24/08 A2991 RMK 70003 SLP131 T02450081 54000 IEM_DS3505
ZBAA,2000-06-12 01:00,ZBAA 120100Z AUTO 31006KT 6SM 25/11 A2991 RMK T02500110 IEM_DS3505
ZBAA,2000-06-12 02:00,ZBAA 120200Z AUTO 6SM 27/11 A2991 RMK T02700110 IEM_DS3505
ZBAA,2000-06-12 03:00,ZBAA 120300Z AUTO 30008KT 19SM 30/06 A2988 RMK SLP118 T03050057 57012 IEM_DS3505
ZBAA,2000-06-12 04:00,ZBAA 120400Z AUTO 30006KT 6SM 32/09 A2985 RMK T03200090 IEM_DS3505
ZBAA,2000-06-12 05:00,ZBAA 120500Z AUTO 34006KT 6SM 33/04 A2983 RMK T03300040 IEM_DS3505
ZBAA,2000-06-12 06:00,ZBAA 120600Z AUTO 14002KT 19SM 33/00 A2980 RMK SLP092 T03340002 57026 IEM_DS3505
ZBAA,2000-06-12 07:00,ZBAA 120700Z AUTO 33008KT 6SM 34/05 A2980 RMK T03400050 IEM_DS3505
ZBAA,2000-06-12 08:00,ZBAA 120800Z AUTO 30008KT 6SM 34/05 A2977 RMK T03400050 IEM_DS3505
ZBAA,2000-06-12 09:00,ZBAA 120900Z AUTO 31008G16KT 19SM 34/01 A2974 RMK SLP070 T03410007 57022 IEM_DS3505
ZBAA,2000-06-12 10:00,ZBAA 121000Z AUTO 26006KT 6SM 34/04 A2974 RMK T03400040 IEM_DS3505
ZBAA,2000-06-12 11:00,ZBAA 121100Z AUTO 24006KT 6SM 33/04 A2974 RMK T03300040 IEM_DS3505
ZBAA,2000-06-12 12:00,ZBAA 121200Z AUTO 22004KT 19SM 29/05 A2974 RMK SLP068 T02930048 57002 IEM_DS3505
ZBAA,2000-06-12 13:00,ZBAA 121300Z AUTO 23006KT 6SM 30/06 A2974 RMK T03000060 IEM_DS3505
ZBAA,2000-06-12 14:00,ZBAA 121400Z AUTO 22008KT 6SM 29/07 A2974 RMK T02900070 IEM_DS3505
ZBAA,2000-06-12 15:00,ZBAA 121500Z AUTO 23004KT 12SM 27/04 A2974 RMK SLP071 T02660044 52003 IEM_DS3505
ZBAA,2000-06-12 16:00,ZBAA 121600Z AUTO 00000KT 6SM 27/07 A2974 RMK T02700070 IEM_DS3505
ZBAA,2000-06-12 17:00,ZBAA 121700Z AUTO 00000KT 6SM 23/09 A2974 RMK T02300090 IEM_DS3505
ZBAA,2000-06-12 18:00,ZBAA 121800Z AUTO 21004KT 12SM 23/06 A2974 RMK SLP067 T02320056 57004 IEM_DS3505
ZBAA,2000-06-12 19:00,ZBAA 121900Z AUTO 36004KT 6SM 19/11 A2974 RMK T01900110 IEM_DS3505
ZBAA,2000-06-12 20:00,ZBAA 122000Z AUTO 00000KT 6SM 19/12 A2974 RMK T01900120 IEM_DS3505
ZBAA,2000-06-12 21:00,ZBAA 122100Z AUTO 31002KT 6SM 22/06 A2974 RMK SLP068 T02210060 52001 IEM_DS3505
ZBAA,2000-06-12 22:00,ZBAA 122200Z AUTO 35004KT 6SM 21/11 A2974 RMK T02100110 IEM_DS3505
ZBAA,2000-06-12 23:00,ZBAA 122300Z AUTO 35006KT 6SM 23/11 A2974 RMK T02300110 IEM_DS3505
ZBAA,2000-06-13 00:00,ZBAA 130000Z AUTO 03002KT 9SM 28/08 A2974 RMK SLP067 T02820085 57001 IEM_DS3505
ZBAA,2000-06-13 01:00,ZBAA 130100Z AUTO 36004KT 6SM 29/10 A2974 RMK T02900100 IEM_DS3505
ZBAA,2000-06-13 02:00,ZBAA 130200Z AUTO 31004KT 6SM 32/10 A2971 RMK T03200100 IEM_DS3505
ZBAA,2000-06-13 03:00,ZBAA 130300Z AUTO 29006KT 19SM 35/03 A2971 RMK SLP052 T03520027 57015 IEM_DS3505
ZBAA,2000-06-13 04:00,ZBAA 130400Z AUTO 29010KT 6SM 37/04 A2968 RMK T03700040 IEM_DS3505
ZBAA,2000-06-13 05:00,ZBAA 130500Z AUTO 30008KT 6SM 38/03 A2965 RMK T03800030 IEM_DS3505
ZBAA,2000-06-13 06:00,ZBAA 130600Z AUTO 30006KT 19SM 38/02 A2959 RMK SLP021 T03800025 57030 IEM_DS3505
ZBAA,2000-06-13 07:00,ZBAA 130700Z AUTO 23006KT 6SM 39/03 A2956 RMK T03900030 IEM_DS3505
ZBAA,2000-06-13 08:00,ZBAA 130800Z AUTO 23008KT 6SM 40/04 A2956 RMK T04000040 IEM_DS3505
ZBAA,2000-06-13 09:00,ZBAA 130900Z AUTO 23006KT 19SM 39/03 A2953 RMK SLP997 T03870030 57024 IEM_DS3505
ZBAA,2000-06-13 10:00,ZBAA 131000Z AUTO 22010KT 6SM 39/04 A2950 RMK T03900040 IEM_DS3505
ZBAA,2000-06-13 11:00,ZBAA 131100Z AUTO 21008KT 6SM 37/06 A2950 RMK T03700060 IEM_DS3505
ZBAA,2000-06-13 12:00,ZBAA 131200Z AUTO 22006KT 19SM 33/05 A2953 RMK SLP993 T03290047 57004 IEM_DS3505
ZBAA,2000-06-13 13:00,ZBAA 131300Z AUTO 20006KT 6SM 33/06 A2953 RMK T03300060 IEM_DS3505
ZBAA,2000-06-13 14:00,ZBAA 131400Z AUTO 18006KT 6SM 32/06 A2953 RMK T03200060 IEM_DS3505
ZBAA,2000-06-13 15:00,ZBAA 131500Z AUTO 22008KT 12SM 30/04 A2956 RMK SLP002 T02980037 52009 IEM_DS3505
ZBAA,2000-06-13 16:00,ZBAA 131600Z AUTO 00000KT 6SM 27/09 A2956 RMK T02700090 IEM_DS3505
ZBAA,2000-06-13 17:00,ZBAA 131700Z AUTO 00000KT 6SM 26/11 A2956 RMK T02600110 IEM_DS3505
ZBAA,2000-06-13 18:00,ZBAA 131800Z AUTO 21002KT 7SM 24/05 A2956 RMK SLP004 T02440053 52002 IEM_DS3505
ZBAA,2000-06-13 19:00,ZBAA 131900Z AUTO 34004KT 6SM 24/10 A2956 RMK T02400100 IEM_DS3505
ZBAA,2000-06-13 20:00,ZBAA 132000Z AUTO 00000KT 6SM 23/11 A2956 RMK T02300110 IEM_DS3505
ZBAA,2000-06-13 21:00,ZBAA 132100Z AUTO 00000KT 6SM 23/07 A2959 RMK SLP012 T02260068 52008 IEM_DS3505
ZBAA,2000-06-13 22:00,ZBAA 132200Z AUTO 00000KT 6SM 22/12 A2959 RMK T02200120 IEM_DS3505
ZBAA,2000-06-13 23:00,ZBAA 132300Z AUTO 00000KT 5SM 26/11 A2959 RMK T02600110 IEM_DS3505
ZBAA,2000-06-14 00:00,ZBAA 140000Z AUTO 05006G14KT 5SM 29/07 A2962 RMK SLP019 T02880074 52007 IEM_DS3505
ZBAA,2000-06-14 01:00,ZBAA 140100Z AUTO 08006KT 30/10 A2962 RMK T03000100 IEM_DS3505
ZBAA,2000-06-14 02:00,ZBAA 140200Z AUTO 10006KT 6SM 32/11 A2962 RMK T03200110 IEM_DS3505
ZBAA,2000-06-14 03:00,ZBAA 140300Z AUTO 07008KT 6SM 32/08 A2959 RMK SLP017 T03220078 57003 IEM_DS3505
ZBAA,2000-06-14 04:00,ZBAA 140400Z AUTO 11008KT 34/11 A2959 RMK T03400110 IEM_DS3505
ZBAA,2000-06-14 05:00,ZBAA 140500Z AUTO 14008KT 35/11 A2956 RMK T03500110 IEM_DS3505
ZBAA,2000-06-14 06:00,ZBAA 140600Z AUTO 07004KT 4SM 36/08 A2953 RMK SLP994 T03650084 57022 IEM_DS3505
ZBAA,2000-06-14 07:00,ZBAA 140700Z AUTO 12006KT 37/10 A2950 RMK T03700100 IEM_DS3505
ZBAA,2000-06-14 08:00,ZBAA 140800Z AUTO 13004KT 38/10 A2950 RMK T03800100 IEM_DS3505
ZBAA,2000-06-14 09:00,ZBAA 140900Z AUTO 22006KT 5SM 38/06 A2950 RMK SLP979 T03790058 57015 IEM_DS3505
ZBAA,2000-06-14 10:00,ZBAA 141000Z AUTO 12008KT 35/16 A2950 RMK T03500160 IEM_DS3505
ZBAA,2000-06-14 11:00,ZBAA 141100Z AUTO 13006KT 34/16 A2950 RMK T03400160 IEM_DS3505
ZBAA,2000-06-14 12:00,ZBAA 141200Z AUTO 12004KT 6SM 30/09 A2953 RMK SLP992 T03030092 52013 IEM_DS3505
ZBAA,2000-06-14 13:00,ZBAA 141300Z AUTO 11004KT 29/14 A2956 RMK T02900140 IEM_DS3505
ZBAA,2000-06-14 14:00,ZBAA 141400Z AUTO 12002KT 28/15 A2956 RMK T02800150 IEM_DS3505
ZBAA,2000-06-14 15:00,ZBAA 141500Z AUTO 00000KT 5SM 28/11 A2959 RMK SLP011 T02750107 52018 IEM_DS3505
ZBAA,2000-06-14 16:00,ZBAA 141600Z AUTO 14004KT 3SM 26/15 A2956 RMK T02600150 IEM_DS3505
ZBAA,2000-06-14 17:00,ZBAA 141700Z AUTO 00000KT 3SM 26/15 A2956 RMK T02600150 IEM_DS3505
ZBAA,2000-06-14 18:00,ZBAA 141800Z AUTO 21004KT 6SM 27/10 A2959 RMK SLP010 T02720100 54000 IEM_DS3505
ZBAA,2000-06-14 19:00,ZBAA 141900Z AUTO 00000KT 24/15 A2956 RMK T02400150 IEM_DS3505
ZBAA,2000-06-14 20:00,ZBAA 142000Z AUTO 13004KT 24/15 A2959 RMK T02400150 IEM_DS3505
ZBAA,2000-06-14 21:00,ZBAA 142100Z AUTO 15002KT 6SM 24/11 A2959 RMK SLP014 T02400110 52004 IEM_DS3505
ZBAA,2000-06-14 22:00,ZBAA 142200Z AUTO 00000KT 23/15 A2962 RMK T02300150 IEM_DS3505
ZBAA,2000-06-14 23:00,ZBAA 142300Z AUTO 5SM RMK IEM_DS3505
ZBAA,2000-06-15 00:00,ZBAA 150000Z AUTO 19004KT 6SM 27/10 A2962 RMK SLP030 T02720100 52015 IEM_DS3505
ZBAA,2000-06-15 01:00,ZBAA 150100Z AUTO 17004KT 29/14 A2965 RMK T02900140 IEM_DS3505
ZBAA,2000-06-15 02:00,ZBAA 150200Z AUTO 16004KT 6SM 30/14 A2965 RMK T03000140 IEM_DS3505
ZBAA,2000-06-15 03:00,ZBAA 150300Z AUTO 16004KT 6SM 31/11 A2965 RMK SLP032 T03130112 52002 IEM_DS3505
ZBAA,2000-06-15 04:00,ZBAA 150400Z AUTO 13006KT 33/15 A2965 RMK T03300150 IEM_DS3505
ZBAA,2000-06-15 05:00,ZBAA 150500Z AUTO 14006KT 33/15 A2962 RMK T03300150 IEM_DS3505
ZBAA,2000-06-15 06:00,ZBAA 150600Z AUTO 09006KT 7SM 34/12 A2962 RMK SLP018 T03430115 57013 IEM_DS3505
ZBAA,2000-06-15 07:00,ZBAA 150700Z AUTO 12008KT 6SM 35/13 A2959 RMK T03500130 IEM_DS3505
ZBAA,2000-06-15 08:00,ZBAA 150800Z AUTO 17008KT 6SM 35/12 A2959 RMK T03500120 IEM_DS3505
ZBAA,2000-06-15 09:00,ZBAA 150900Z AUTO 13010KT 11SM 34/10 A2959 RMK SLP012 T03440103 57007 IEM_DS3505
ZBAA,2000-06-15 10:00,ZBAA 151000Z AUTO 13006KT 6SM 33/14 A2959 RMK T03300140 IEM_DS3505
ZBAA,2000-06-15 11:00,ZBAA 151100Z AUTO 14006KT 6SM 32/15 A2962 RMK T03200150 IEM_DS3505
ZBAA,2000-06-15 12:00,ZBAA 151200Z AUTO 11006KT 7SM 30/12 A2965 RMK SLP034 T03050115 52022 IEM_DS3505
ZBAA,2000-06-15 13:00,ZBAA 151300Z AUTO 13008KT 6SM 29/14 A2968 RMK T02900140 IEM_DS3505
ZBAA,2000-06-15 14:00,ZBAA 151400Z AUTO 11006KT 28/15 A2971 RMK T02800150 IEM_DS3505
ZBAA,2000-06-15 15:00,ZBAA 151500Z AUTO 11004KT 6SM 27/13 A2971 RMK SLP061 T02660134 52027 IEM_DS3505
ZBAA,2000-06-15 16:00,ZBAA 151600Z AUTO 00000KT 28/15 A2974 RMK T02800150 IEM_DS3505
ZBAA,2000-06-15 17:00,ZBAA 151700Z AUTO 00000KT 26/16 A2974 RMK T02600160 IEM_DS3505
ZBAA,2000-06-15 18:00,ZBAA 151800Z AUTO 02002KT 6SM 26/14 A2974 RMK SLP061 T02550140 54000 IEM_DS3505
ZBAA,2000-06-15 19:00,ZBAA 151900Z AUTO 00000KT 25/16 A2974 RMK T02500160 IEM_DS3505
ZBAA,2000-06-15 20:00,ZBAA 152000Z AUTO 00000KT 24/16 A2974 RMK T02400160 IEM_DS3505
ZBAA,2000-06-15 21:00,ZBAA 152100Z AUTO 02002KT 6SM 24/13 A2977 RMK SLP071 T02440133 52010 IEM_DS3505
ZBAA,2000-06-15 22:00,ZBAA 152200Z AUTO 00000KT 6SM 24/14 A2977 RMK T02400140 IEM_DS3505
ZBAA,2000-06-15 23:00,ZBAA 152300Z AUTO 00000KT 6SM 25/16 A2980 RMK T02500160 IEM_DS3505
ZBAA,2000-06-16 00:00,ZBAA 160000Z AUTO 06004KT 6SM 26/15 A2983 RMK SLP090 T02600148 52019 IEM_DS3505
ZBAA,2000-06-16 01:00,ZBAA 160100Z AUTO 00000KT 28/15 A2983 RMK T02800150 IEM_DS3505
ZBAA,2000-06-16 02:00,ZBAA 160200Z AUTO 00000KT 5SM 29/16 A2983 RMK T02900160 IEM_DS3505
ZBAA,2000-06-16 03:00,ZBAA 160300Z AUTO 12006KT 5SM 31/14 A2983 RMK SLP094 T03070144 52004 IEM_DS3505
ZBAA,2000-06-16 04:00,ZBAA 160400Z AUTO 14006KT 33/16 A2983 RMK T03300160 IEM_DS3505
ZBAA,2000-06-16 05:00,ZBAA 160500Z AUTO 13006KT 34/16 A2980 RMK T03400160 IEM_DS3505
ZBAA,2000-06-16 06:00,ZBAA 160600Z AUTO 10004KT 5SM 34/12 A2980 RMK SLP082 T03350125 57012 IEM_DS3505
ZBAA,2000-06-16 07:00,ZBAA 160700Z AUTO 12010KT 34/14 A2977 RMK T03400140 IEM_DS3505
ZBAA,2000-06-16 08:00,ZBAA 160800Z AUTO 20014G27KT 4SM 30/13 A2980 RMK T03000130 IEM_DS3505
ZBAA,2000-06-16 09:00,ZBAA 160900Z AUTO 14004KT 4SM 25/18 A2980 RMK SLP086 T02460176 52004 IEM_DS3505
ZBAA,2000-06-16 10:00,ZBAA 161000Z AUTO 13006KT 6SM 30/14 A2983 RMK T03000140 IEM_DS3505
ZBAA,2000-06-16 11:00,ZBAA 161100Z AUTO 15004KT 6SM 29/12 A2985 RMK T02900120 IEM_DS3505
ZBAA,2000-06-16 12:00,ZBAA 161200Z AUTO 05006KT 6SM 27/15 A2988 RMK 60028 SLP116 T02700147 52030 IEM_DS3505
ZBAA,2000-06-16 13:00,ZBAA 161300Z AUTO 00000KT 6SM 25/15 A2994 RMK T02500150 IEM_DS3505
ZBAA,2000-06-16 14:00,ZBAA 161400Z AUTO 00000KT 6SM 24/15 A2994 RMK T02400150 IEM_DS3505
ZBAA,2000-06-16 15:00,ZBAA 161500Z AUTO 01004KT 9SM 24/15 A2994 RMK SLP138 T02420149 52021 IEM_DS3505
ZBAA,2000-06-16 16:00,ZBAA 161600Z AUTO 00000KT 6SM 26/13 A2994 RMK T02600130 IEM_DS3505
ZBAA,2000-06-16 17:00,ZBAA 161700Z AUTO 00000KT 6SM 25/14 A2994 RMK T02500140 IEM_DS3505
ZBAA,2000-06-16 18:00,ZBAA 161800Z AUTO 02002KT 7SM 24/14 A2994 RMK 60004 SLP137 T02370141 54000 IEM_DS3505
ZBAA,2000-06-16 19:00,ZBAA 161900Z AUTO 35002KT 6SM 24/15 A2994 RMK T02400150 IEM_DS3505
ZBAA,2000-06-16 20:00,ZBAA 162000Z AUTO 00000KT 6SM 22/15 A2994 RMK T02200150 IEM_DS3505
ZBAA,2000-06-16 21:00,ZBAA 162100Z AUTO 01004KT 6SM 23/13 A2997 RMK 70032 SLP142 T02280133 52004 IEM_DS3505
ZBAA,2000-06-16 22:00,ZBAA 162200Z AUTO 00000KT 6SM 22/16 A2997 RMK T02200160 IEM_DS3505
ZBAA,2000-06-16 23:00,ZBAA 162300Z AUTO 00000KT 6SM 25/16 A3000 RMK T02500160 IEM_DS3505
ZBAA,2000-06-17 00:00,ZBAA 170000Z AUTO 32004KT 6SM 26/14 A3000 RMK 70032 SLP157 T02590141 52016 IEM_DS3505
ZBAA,2000-06-17 01:00,ZBAA 170100Z AUTO 35006KT 6SM 27/15 A3000 RMK T02700150 IEM_DS3505
ZBAA,2000-06-17 02:00,ZBAA 170200Z AUTO 33004KT 6SM 29/13 A3000 RMK T02900130 IEM_DS3505
ZBAA,2000-06-17 03:00,ZBAA 170300Z AUTO 02004KT 9SM 29/12 A2997 RMK SLP150 T02940115 57007 IEM_DS3505
ZBAA,2000-06-17 04:00,ZBAA 170400Z AUTO 6SM 32/13 A2997 RMK T03200130 IEM_DS3505
ZBAA,2000-06-17 06:00,ZBAA 170600Z AUTO 19002KT 12SM 32/10 A2991 RMK SLP130 T03250105 57020 IEM_DS3505
ZBAA,2000-06-17 07:00,ZBAA 170700Z AUTO 22006KT 6SM 34/12 A2991 RMK T03400120 IEM_DS3505
ZBAA,2000-06-17 08:00,ZBAA 170800Z AUTO 26004KT 6SM 34/11 A2988 RMK T03400110 IEM_DS3505
ZBAA,2000-06-17 09:00,ZBAA 170900Z AUTO 33004KT 16SM 33/09 A2988 RMK SLP113 T03320093 57017 IEM_DS3505
ZBAA,2000-06-17 10:00,ZBAA 171000Z AUTO 22004KT 6SM 33/12 A2988 RMK T03300120 IEM_DS3505
ZBAA,2000-06-17 11:00,ZBAA 171100Z AUTO 00000KT 6SM 32/11 A2988 RMK T03200110 IEM_DS3505
ZBAA,2000-06-17 12:00,ZBAA 171200Z AUTO 00000KT 7SM 29/12 A2988 RMK SLP116 T02900116 52003 IEM_DS3505
ZBAA,2000-06-17 13:00,ZBAA 171300Z AUTO 00000KT 6SM 27/14 A2988 RMK T02700140 IEM_DS3505
ZBAA,2000-06-17 14:00,ZBAA 171400Z AUTO 00000KT 6SM 26/14 A2991 RMK T02600140 IEM_DS3505
ZBAA,2000-06-17 15:00,ZBAA 171500Z AUTO 00000KT 6SM 26/13 A2991 RMK SLP122 T02640128 52006 IEM_DS3505
ZBAA,2000-06-17 16:00,ZBAA 171600Z AUTO 00000KT 5SM 25/15 A2991 RMK T02500150 IEM_DS3505
ZBAA,2000-06-17 17:00,ZBAA 171700Z AUTO 00000KT 5SM 24/15 A2991 RMK T02400150 IEM_DS3505
ZBAA,2000-06-17 18:00,ZBAA 171800Z AUTO 00000KT 4SM 24/14 A2991 RMK SLP120 T02420143 57002 IEM_DS3505
ZBAA,2000-06-17 19:00,ZBAA 171900Z AUTO 00000KT 5SM 23/15 A2991 RMK T02300150 IEM_DS3505
ZBAA,2000-06-17 20:00,ZBAA 172000Z AUTO 00000KT 5SM 22/14 A2988 RMK T02200140 IEM_DS3505
ZBAA,2000-06-17 21:00,ZBAA 172100Z AUTO 00000KT 4SM 22/13 A2991 RMK SLP122 T02200131 52002 IEM_DS3505
ZBAA,2000-06-17 22:00,ZBAA 172200Z AUTO 35002KT 5SM 22/14 A2991 RMK T02200140 IEM_DS3505
ZBAA,2000-06-17 23:00,ZBAA 172300Z AUTO 34006KT 7SM 24/14 A2991 RMK T02400140 IEM_DS3505
ZBAA,2000-06-18 00:00,ZBAA 180000Z AUTO 02002KT 6SM 27/13 A2991 RMK SLP128 T02690126 52006 IEM_DS3505
ZBAA,2000-06-18 01:00,ZBAA 180100Z AUTO 32004KT 6SM 29/13 A2991 RMK T02900130 IEM_DS3505
ZBAA,2000-06-18 02:00,ZBAA 180200Z AUTO 31002KT 6SM 31/13 A2988 RMK T03100130 IEM_DS3505
ZBAA,2000-06-18 03:00,ZBAA 180300Z AUTO 09004KT 6SM 33/10 A2988 RMK SLP115 T03310105 57013 IEM_DS3505
ZBAA,2000-06-18 04:00,ZBAA 180400Z AUTO 22006KT 6SM 34/12 A2985 RMK T03400120 IEM_DS3505
ZBAA,2000-06-18 05:00,ZBAA 180500Z AUTO 24006KT 6SM 35/11 A2983 RMK T03500110 IEM_DS3505
ZBAA,2000-06-18 06:00,ZBAA 180600Z AUTO 20004KT 9SM 36/09 A2980 RMK SLP089 T03550091 57026 IEM_DS3505
ZBAA,2000-06-18 07:00,ZBAA 180700Z AUTO 18004KT 6SM 37/09 A2980 RMK T03700090 IEM_DS3505
ZBAA,2000-06-18 08:00,ZBAA 180800Z AUTO 18008KT 6SM 36/11 A2977 RMK T03600110 IEM_DS3505
ZBAA,2000-06-18 09:00,ZBAA 180900Z AUTO 17004KT 9SM 35/10 A2974 RMK SLP071 T03530097 57018 IEM_DS3505
ZBAA,2000-06-18 10:00,ZBAA 181000Z AUTO 18010KT 6SM 35/13 A2974 RMK T03500130 IEM_DS3505
ZBAA,2000-06-18 11:00,ZBAA 181100Z AUTO 18006KT 6SM 33/13 A2974 RMK T03300130 IEM_DS3505
ZBAA,2000-06-18 12:00,ZBAA 181200Z AUTO 20002KT 7SM 31/11 A2974 RMK SLP069 T03130112 57002 IEM_DS3505
ZBAA,2000-06-18 13:00,ZBAA 181300Z AUTO 00000KT 30/14 A2977 RMK T03000140 IEM_DS3505
ZBAA,2000-06-18 14:00,ZBAA 181400Z AUTO 00000KT 29/14 A2977 RMK T02900140 IEM_DS3505
ZBAA,2000-06-18 15:00,ZBAA 181500Z AUTO 23002KT 6SM 29/10 A2977 RMK SLP078 T02860103 52009 IEM_DS3505
ZBAA,2000-06-18 16:00,ZBAA 181600Z AUTO 00000KT 26/15 A2977 RMK T02600150 IEM_DS3505
ZBAA,2000-06-18 17:00,ZBAA 181700Z AUTO 00000KT 3SM 24/15 A2977 RMK T02400150 IEM_DS3505
ZBAA,2000-06-18 18:00,ZBAA 181800Z AUTO 00000KT 3SM 25/12 A2977 RMK SLP076 T02520118 57002 IEM_DS3505
ZBAA,2000-06-18 19:00,ZBAA 181900Z AUTO 00000KT 2 1/2SM 23/15 A2977 RMK T02300150 IEM_DS3505
ZBAA,2000-06-18 20:00,ZBAA 182000Z AUTO 00000KT 2 1/2SM 23/14 A2977 RMK T02300140 IEM_DS3505
ZBAA,2000-06-18 21:00,ZBAA 182100Z AUTO 00000KT 2SM 23/13 A2977 RMK SLP074 T02260128 57002 IEM_DS3505
ZBAA,2000-06-18 22:00,ZBAA 182200Z AUTO 00000KT 2SM 23/15 A2977 RMK T02300150 IEM_DS3505
ZBAA,2000-06-18 23:00,ZBAA 182300Z AUTO 00000KT 2SM 25/16 A2977 RMK T02500160 IEM_DS3505
ZBAA,2000-06-19 00:00,ZBAA 190000Z AUTO 36002KT 2 1/2SM 27/13 A2980 RMK T02700130 IEM_DS3505
ZBAA,2000-06-19 01:00,ZBAA 190100Z AUTO 00000KT 2 1/2SM 29/14 A2977 RMK T02900140 IEM_DS3505
ZBAA,2000-06-19 02:00,ZBAA 190200Z AUTO 00000KT 2 1/2SM 32/14 A2977 RMK T03200140 IEM_DS3505
ZBAA,2000-06-19 03:00,ZBAA 190300Z AUTO 20004KT 3SM 35/12 A2974 RMK SLP070 T03470118 57010 IEM_DS3505
ZBAA,2000-06-19 04:00,ZBAA 190400Z AUTO 23008KT 3SM 36/13 A2974 RMK T03600130 IEM_DS3505
ZBAA,2000-06-19 05:00,ZBAA 190500Z AUTO 21010KT 37/11 A2971 RMK T03700110 IEM_DS3505
ZBAA,2000-06-19 06:00,ZBAA 190600Z AUTO 19010KT 9SM 37/09 A2971 RMK SLP051 T03680094 57019 IEM_DS3505
ZBAA,2000-06-19 07:00,ZBAA 190700Z AUTO 22006KT 6SM 37/10 A2968 RMK T03700100 IEM_DS3505
ZBAA,2000-06-19 08:00,ZBAA 190800Z AUTO 18012KT 5SM 36/13 A2965 RMK T03600130 IEM_DS3505
ZBAA,2000-06-19 09:00,ZBAA 190900Z AUTO 21010KT 9SM 36/10 A2965 RMK SLP036 T03620097 57015 IEM_DS3505
ZBAA,2000-06-19 10:00,ZBAA 191000Z AUTO 18008KT 5SM 35/12 A2965 RMK T03500120 IEM_DS3505
ZBAA,2000-06-19 11:00,ZBAA 191100Z AUTO 18008KT 5SM 34/13 A2965 RMK T03400130 IEM_DS3505
ZBAA,2000-06-19 12:00,ZBAA 191200Z AUTO 20004KT 7SM 32/11 A2965 RMK SLP041 T03240110 52005 IEM_DS3505
ZBAA,2000-06-19 13:00,ZBAA 191300Z AUTO 00000KT 30/14 A2968 RMK T03000140 IEM_DS3505
ZBAA,2000-06-19 14:00,ZBAA 191400Z AUTO 00000KT 29/15 A2968 RMK T02900150 IEM_DS3505
ZBAA,2000-06-19 15:00,ZBAA 191500Z AUTO 22004KT 7SM 29/12 A2968 RMK SLP046 T02890115 52005 IEM_DS3505
ZBAA,2000-06-19 16:00,ZBAA 191600Z AUTO 00000KT 27/15 A2968 RMK T02700150 IEM_DS3505
ZBAA,2000-06-19 17:00,ZBAA 191700Z AUTO 00000KT 25/15 A2968 RMK T02500150 IEM_DS3505
ZBAA,2000-06-19 18:00,ZBAA 191800Z AUTO 21002KT 6SM 27/12 A2968 RMK SLP043 T02690122 57002 IEM_DS3505
ZBAA,2000-06-19 19:00,ZBAA 191900Z AUTO 00000KT 25/16 A2968 RMK T02500160 IEM_DS3505
ZBAA,2000-06-19 20:00,ZBAA 192000Z AUTO 00000KT 3SM 24/16 A2968 RMK T02400160 IEM_DS3505
ZBAA,2000-06-19 21:00,ZBAA 192100Z AUTO 29004KT 5SM 26/13 A2968 RMK SLP046 T02640128 52003 IEM_DS3505
ZBAA,2000-06-19 22:00,ZBAA 192200Z AUTO 1 1/2SM 24/17 A2968 RMK T02400170 IEM_DS3505
ZBAA,2000-06-19 23:00,ZBAA 192300Z AUTO 34004KT 2SM 25/16 A2968 RMK T02500160 IEM_DS3505
ZBAA,2000-06-20 00:00,ZBAA 200000Z AUTO 16002KT 4SM 28/14 A2968 RMK SLP049 T02820137 52002 IEM_DS3505
ZBAA,2000-06-20 01:00,ZBAA 200100Z AUTO 00000KT 2SM 28/18 A2968 RMK T02800180 IEM_DS3505
ZBAA,2000-06-20 02:00,ZBAA 200200Z AUTO 00000KT 1 1/2SM 30/17 A2968 RMK T03000170 IEM_DS3505
ZBAA,2000-06-20 03:00,ZBAA 200300Z AUTO 02002KT 5SM 34/13 A2968 RMK SLP039 T03370127 57009 IEM_DS3505
ZBAA,2000-06-20 04:00,ZBAA 200400Z AUTO 25002KT 2SM 34/14 A2965 RMK T03400140 IEM_DS3505
ZBAA,2000-06-20 05:00,ZBAA 200500Z AUTO 22004KT 3SM 35/14 A2965 RMK T03500140 IEM_DS3505
ZBAA,2000-06-20 06:00,ZBAA 200600Z AUTO 17002KT 6SM 36/10 A2962 RMK SLP023 T03550099 57016 IEM_DS3505
ZBAA,2000-06-20 07:00,ZBAA 200700Z AUTO 23002KT 5SM 37/11 A2959 RMK T03700110 IEM_DS3505
ZBAA,2000-06-20 08:00,ZBAA 200800Z AUTO 6SM 35/10 A2959 RMK T03500100 IEM_DS3505
ZBAA,2000-06-20 09:00,ZBAA 200900Z AUTO 20012G33KT 4SM 30/11 A2962 RMK SLP032 T02960112 52008 IEM_DS3505
ZBAA,2000-06-20 10:00,ZBAA 201000Z AUTO 21014KT 31/14 A2965 RMK T03100140 IEM_DS3505
ZBAA,2000-06-20 11:00,ZBAA 201100Z AUTO 22010KT 7SM 30/14 A2965 RMK T03000140 IEM_DS3505
ZBAA,2000-06-20 12:00,ZBAA 201200Z AUTO 22006KT 9SM 28/13 A2965 RMK 60003 SLP042 T02780126 52010 IEM_DS3505
ZBAA,2000-06-20 13:00,ZBAA 201300Z AUTO 16002KT 6SM 27/14 A2968 RMK T02700140 IEM_DS3505
ZBAA,2000-06-20 14:00,ZBAA 201400Z AUTO 21006KT 6SM 28/13 A2968 RMK T02800130 IEM_DS3505
ZBAA,2000-06-20 15:00,ZBAA 201500Z AUTO 30008KT 10SM 26/11 A2965 RMK SLP031 T02650114 57011 IEM_DS3505
ZBAA,2000-06-20 16:00,ZBAA 201600Z AUTO 36006KT 6SM 25/14 A2962 RMK T02500140 IEM_DS3505
ZBAA,2000-06-20 17:00,ZBAA 201700Z AUTO 00000KT 6SM 24/15 A2965 RMK T02400150 IEM_DS3505
ZBAA,2000-06-20 18:00,ZBAA 201800Z AUTO 00000KT 9SM 23/14 A2965 RMK SLP037 T02260137 52006 IEM_DS3505
ZBAA,2000-06-20 19:00,ZBAA 201900Z AUTO 00000KT 6SM 23/15 A2965 RMK T02300150 IEM_DS3505
ZBAA,2000-06-20 20:00,ZBAA 202000Z AUTO 00000KT 6SM 23/15 A2965 RMK T02300150 IEM_DS3505
ZBAA,2000-06-20 21:00,ZBAA 202100Z AUTO 24002KT 9SM 23/14 A2968 RMK 70003 SLP045 T02280139 52008 IEM_DS3505
ZBAA,2000-06-20 22:00,ZBAA 202200Z AUTO 00000KT 3SM 22/16 A2968 RMK T02200160 IEM_DS3505
ZBAA,2000-06-20 23:00,ZBAA 202300Z AUTO 00000KT 24/17 A2971 RMK T02400170 IEM_DS3505
ZBAA,2000-06-21 00:00,ZBAA 210000Z AUTO 02002KT 7SM 27/14 A2971 RMK 70003 SLP049 T02690140 52004 IEM_DS3505
ZBAA,2000-06-21 01:00,ZBAA 210100Z AUTO 01004KT 28/16 A2968 RMK T02800160 IEM_DS3505
ZBAA,2000-06-21 02:00,ZBAA 210200Z AUTO 9SM 30/14 A2968 RMK T03000140 IEM_DS3505
ZBAA,2000-06-21 03:00,ZBAA 210300Z AUTO 15002KT 9SM 31/12 A2968 RMK SLP043 T03090123 57006 IEM_DS3505
ZBAA,2000-06-21 04:00,ZBAA 210400Z AUTO 19004KT 6SM 33/15 A2965 RMK T03300150 IEM_DS3505
ZBAA,2000-06-21 05:00,ZBAA 210500Z AUTO 6SM 34/15 A2965 RMK T03400150 IEM_DS3505
ZBAA,2000-06-21 06:00,ZBAA 210600Z AUTO 16004KT 9SM 34/12 A2962 RMK SLP022 T03440121 57021 IEM_DS3505
ZBAA,2000-06-21 07:00,ZBAA 210700Z AUTO 3SM RMK IEM_DS3505
ZBAA,2000-06-21 08:00,ZBAA 210800Z AUTO 19004KT 6SM 35/15 A2959 RMK T03500150 IEM_DS3505
ZBAA,2000-06-21 09:00,ZBAA 210900Z AUTO 16004KT 12SM 35/10 A2956 RMK SLP007 T03460098 57015 IEM_DS3505
ZBAA,2000-06-21 10:00,ZBAA 211000Z AUTO 20006KT 6SM 34/14 A2956 RMK T03400140 IEM_DS3505
ZBAA,2000-06-21 11:00,ZBAA 211100Z AUTO 14002KT 6SM 33/16 A2956 RMK T03300160 IEM_DS3505
ZBAA,2000-06-21 12:00,ZBAA 211200Z AUTO 13008KT 12SM 31/15 A2959 RMK SLP016 T03080153 52009 IEM_DS3505
ZBAA,2000-06-21 14:00,ZBAA 211400Z AUTO 13006KT 6SM 28/18 A2962 RMK T02800180 IEM_DS3505
ZBAA,2000-06-21 15:00,ZBAA 211500Z AUTO 12002KT 6SM 26/17 A2962 RMK SLP028 T02590173 52012 IEM_DS3505
ZBAA,2000-06-21 16:00,ZBAA 211600Z AUTO 11004KT 6SM 26/20 A2965 RMK T02600200 IEM_DS3505
ZBAA,2000-06-21 17:00,ZBAA 211700Z AUTO 05002KT 5SM 25/20 A2965 RMK T02500200 IEM_DS3505
ZBAA,2000-06-21 18:00,ZBAA 211800Z AUTO 08004KT 6SM 24/18 A2965 RMK SLP029 T02440176 52001 IEM_DS3505
ZBAA,2000-06-21 19:00,ZBAA 211900Z AUTO 00000KT 4SM 24/19 A2965 RMK T02400190 IEM_DS3505
ZBAA,2000-06-21 20:00,ZBAA 212000Z AUTO 00000KT 4SM 24/19 A2962 RMK T02400190 IEM_DS3505
ZBAA,2000-06-21 21:00,ZBAA 212100Z AUTO 05002KT 2 1/2SM 23/18 A2965 RMK SLP030 T02280181 52001 IEM_DS3505
ZBAA,2000-06-21 22:00,ZBAA 212200Z AUTO 00000KT 2SM 23/20 A2965 RMK T02300200 IEM_DS3505
ZBAA,2000-06-21 23:00,ZBAA 212300Z AUTO 00000KT 3SM 24/20 A2965 RMK T02400200 IEM_DS3505
ZBAA,2000-06-22 00:00,ZBAA 220000Z AUTO 06004KT 5SM 24/19 A2968 RMK SLP041 T02440188 52011 IEM_DS3505
ZBAA,2000-06-22 01:00,ZBAA 220100Z AUTO 13006KT 3SM 27/21 A2968 RMK T02700210 IEM_DS3505
ZBAA,2000-06-22 02:00,ZBAA 220200Z AUTO 13004KT 3SM 28/22 A2965 RMK T02800220 IEM_DS3505
ZBAA,2000-06-22 03:00,ZBAA 220300Z AUTO 18004KT 5SM 29/19 A2965 RMK SLP035 T02920186 57006 IEM_DS3505
ZBAA,2000-06-22 04:00,ZBAA 220400Z AUTO 14004KT 31/21 A2962 RMK T03100210 IEM_DS3505
ZBAA,2000-06-22 05:00,ZBAA 220500Z AUTO 17008KT 32/20 A2959 RMK T03200200 IEM_DS3505
ZBAA,2000-06-22 06:00,ZBAA 220600Z AUTO 22004KT 6SM 33/17 A2956 RMK SLP010 T03290167 57025 IEM_DS3505
ZBAA,2000-06-22 07:00,ZBAA 220700Z AUTO 17006G17KT 34/20 A2956 RMK T03400200 IEM_DS3505
ZBAA,2000-06-22 08:00,ZBAA 220800Z AUTO 16008KT 33/19 A2953 RMK T03300190 IEM_DS3505
ZBAA,2000-06-22 09:00,ZBAA 220900Z AUTO 15008KT 7SM 32/15 A2953 RMK SLP995 T03210147 57015 IEM_DS3505
ZBAA,2000-06-22 10:00,ZBAA 221000Z AUTO 15008KT 6SM 31/18 A2953 RMK T03100180 IEM_DS3505
ZBAA,2000-06-22 11:00,ZBAA 221100Z AUTO 14008KT 6SM 31/18 A2956 RMK T03100180 IEM_DS3505
ZBAA,2000-06-22 12:00,ZBAA 221200Z AUTO 14006KT 10SM 28/15 A2956 RMK SLP001 T02850151 52006 IEM_DS3505
ZBAA,2000-06-22 13:00,ZBAA 221300Z AUTO 13006KT 6SM 27/20 A2956 RMK T02700200 IEM_DS3505
ZBAA,2000-06-22 14:00,ZBAA 221400Z AUTO 00000KT 6SM 26/20 A2959 RMK T02600200 IEM_DS3505
ZBAA,2000-06-22 15:00,ZBAA 221500Z AUTO 11004KT 7SM 24/18 A2962 RMK SLP023 T02400184 52022 IEM_DS3505
ZBAA,2000-06-22 16:00,ZBAA 221600Z AUTO 00000KT 5SM 23/20 A2962 RMK T02300200 IEM_DS3505
ZBAA,2000-06-22 17:00,ZBAA 221700Z AUTO 00000KT 5SM 23/20 A2962 RMK T02300200 IEM_DS3505
ZBAA,2000-06-22 18:00,ZBAA 221800Z AUTO 07004KT 6SM 22/18 A2962 RMK SLP025 T02220184 52002 IEM_DS3505
ZBAA,2000-06-22 19:00,ZBAA 221900Z AUTO 7SM RMK IEM_DS3505
ZBAA,2000-06-22 20:00,ZBAA 222000Z AUTO 00000KT 4SM 22/20 A2962 RMK T02200200 IEM_DS3505
ZBAA,2000-06-22 21:00,ZBAA 222100Z AUTO 07004KT 6SM 22/18 A2962 RMK SLP025 T02170185 54000 IEM_DS3505
ZBAA,2000-06-22 22:00,ZBAA 222200Z AUTO 00000KT 4SM 22/20 A2962 RMK T02200200 IEM_DS3505
ZBAA,2000-06-22 23:00,ZBAA 222300Z AUTO 4SM 23/20 A2962 RMK T02300200 IEM_DS3505
ZBAA,2000-06-23 00:00,ZBAA 230000Z AUTO 11002KT 5SM 23/19 A2962 RMK SLP026 T02300188 52001 IEM_DS3505
ZBAA,2000-06-23 01:00,ZBAA 230100Z AUTO 00000KT 4SM 24/20 A2962 RMK T02400200 IEM_DS3505
ZBAA,2000-06-23 02:00,ZBAA 230200Z AUTO 5SM 27/20 A2962 RMK T02700200 IEM_DS3505
ZBAA,2000-06-23 03:00,ZBAA 230300Z AUTO 07002KT 5SM 26/19 A2959 RMK SLP020 T02610188 57006 IEM_DS3505
ZBAA,2000-06-23 04:00,ZBAA 230400Z AUTO 00000KT 29/20 A2959 RMK T02900200 IEM_DS3505
ZBAA,2000-06-23 05:00,ZBAA 230500Z AUTO 18006KT 30/22 A2956 RMK T03000220 IEM_DS3505
ZBAA,2000-06-23 06:00,ZBAA 230600Z AUTO 18002G17KT 4SM 31/20 A2953 RMK SLP998 T03100197 57022 IEM_DS3505
ZBAA,2000-06-23 07:00,ZBAA 230700Z AUTO 18006KT 32/22 A2950 RMK T03200220 IEM_DS3505
ZBAA,2000-06-23 08:00,ZBAA 230800Z AUTO 20008KT 32/22 A2950 RMK T03200220 IEM_DS3505
ZBAA,2000-06-23 09:00,ZBAA 230900Z AUTO 20004KT 6SM 33/18 A2947 RMK SLP979 T03320178 57019 IEM_DS3505
ZBAA,2000-06-23 10:00,ZBAA 231000Z AUTO 15004KT 32/21 A2950 RMK T03200210 IEM_DS3505
ZBAA,2000-06-23 11:00,ZBAA 231100Z AUTO 13006KT 30/23 A2950 RMK T03000230 IEM_DS3505
ZBAA,2000-06-23 12:00,ZBAA 231200Z AUTO 11006KT 6SM 30/19 A2950 RMK SLP991 T02950192 52012 IEM_DS3505
ZBAA,2000-06-23 13:00,ZBAA 231300Z AUTO 14006KT 5SM 28/19 A2956 RMK T02800190 IEM_DS3505
ZBAA,2000-06-23 14:00,ZBAA 231400Z AUTO 26006KT 7SM 28/19 A2959 RMK T02800190 IEM_DS3505
ZBAA,2000-06-23 15:00,ZBAA 231500Z AUTO 09004KT 6SM 27/18 A2956 RMK SLP008 T02680179 52017 IEM_DS3505
ZBAA,2000-06-23 16:00,ZBAA 231600Z AUTO 00000KT 4SM 26/20 A2959 RMK T02600200 IEM_DS3505
ZBAA,2000-06-23 17:00,ZBAA 231700Z AUTO 35004KT 2 1/2SM 25/22 A2959 RMK T02500220 IEM_DS3505
ZBAA,2000-06-23 18:00,ZBAA 231800Z AUTO 06004KT 6SM 25/19 A2959 RMK SLP009 T02530190 52001 IEM_DS3505
ZBAA,2000-06-23 19:00,ZBAA 231900Z AUTO 10004KT 2 1/2SM 25/22 A2956 RMK T02500220 IEM_DS3505
ZBAA,2000-06-23 20:00,ZBAA 232000Z AUTO 13002KT 3SM 24/22 A2959 RMK T02400220 IEM_DS3505
ZBAA,2000-06-23 21:00,ZBAA 232100Z AUTO 07004KT 5SM 24/19 A2959 RMK SLP014 T02410194 52005 IEM_DS3505
ZBAA,2000-06-23 22:00,ZBAA 232200Z AUTO 15002KT 2 1/2SM 24/22 A2959 RMK T02400220 IEM_DS3505
ZBAA,2000-06-23 23:00,ZBAA 232300Z AUTO 19004KT 1 1/2SM 23/22 A2962 RMK T02300220 IEM_DS3505
ZBAA,2000-06-24 00:00,ZBAA 240000Z AUTO 00000KT 2 1/2SM 23/20 A2965 RMK 60016 SLP033 T02280203 52019 IEM_DS3505
ZBAA,2000-06-24 01:00,ZBAA 240100Z AUTO 24006KT 1 1/4SM 23/22 A2965 RMK T02300220 IEM_DS3505
ZBAA,2000-06-24 02:00,ZBAA 240200Z AUTO 25006KT 1 1/2SM 23/22 A2965 RMK T02300220 IEM_DS3505
ZBAA,2000-06-24 03:00,ZBAA 240300Z AUTO 28004KT 4SM 23/20 A2965 RMK SLP043 T02320203 52010 IEM_DS3505
ZBAA,2000-06-24 04:00,ZBAA 240400Z AUTO 30006KT 7SM 24/20 A2965 RMK T02400200 IEM_DS3505
ZBAA,2000-06-24 05:00,ZBAA 240500Z AUTO 29006KT 7SM 25/19 A2965 RMK T02500190 IEM_DS3505
ZBAA,2000-06-24 06:00,ZBAA 240600Z AUTO 36004KT 12SM 26/16 A2965 RMK 60031 SLP031 T02620159 57012 IEM_DS3505
ZBAA,2000-06-24 07:00,ZBAA 240700Z AUTO 6SM 28/21 A2962 RMK T02800210 IEM_DS3505
ZBAA,2000-06-24 08:00,ZBAA 240800Z AUTO 34004KT 6SM 29/21 A2962 RMK T02900210 IEM_DS3505
ZBAA,2000-06-24 09:00,ZBAA 240900Z AUTO 11002KT 19SM 29/17 A2962 RMK SLP024 T02860172 57007 IEM_DS3505
ZBAA,2000-06-24 10:00,ZBAA 241000Z AUTO 13004KT 6SM 28/20 A2962 RMK T02800200 IEM_DS3505
ZBAA,2000-06-24 11:00,ZBAA 241100Z AUTO 15002KT 6SM 27/21 A2965 RMK T02700210 IEM_DS3505
ZBAA,2000-06-24 12:00,ZBAA 241200Z AUTO 23002KT 6SM 25/19 A2965 RMK SLP040 T02530190 52016 IEM_DS3505
ZBAA,2000-06-24 13:00,ZBAA 241300Z AUTO 20006KT 5SM 26/22 A2968 RMK T02600220 IEM_DS3505
ZBAA,2000-06-24 14:00,ZBAA 241400Z AUTO 12004KT 4SM 25/22 A2971 RMK T02500220 IEM_DS3505
ZBAA,2000-06-24 15:00,ZBAA 241500Z AUTO 00000KT 6SM 23/20 A2971 RMK SLP055 T02320198 52015 IEM_DS3505
ZBAA,2000-06-24 16:00,ZBAA 241600Z AUTO 12004KT 2 1/2SM 24/22 A2971 RMK T02400220 IEM_DS3505
ZBAA,2000-06-24 17:00,ZBAA 241700Z AUTO 11006KT 2SM 23/22 A2971 RMK T02300220 IEM_DS3505
ZBAA,2000-06-24 18:00,ZBAA 241800Z AUTO 11004KT 3SM 23/20 A2971 RMK SLP055 T02260196 54000 IEM_DS3505
ZBAA,2000-06-24 19:00,ZBAA 241900Z AUTO 13004KT 1 1/4SM 23/22 A2971 RMK T02300220 IEM_DS3505
ZBAA,2000-06-24 20:00,ZBAA 242000Z AUTO 14002KT 1SM 22/22 A2974 RMK T02200220 IEM_DS3505
ZBAA,2000-06-24 21:00,ZBAA 242100Z AUTO 07002KT 2 1/2SM 22/19 A2974 RMK 70046 SLP065 T02190193 52010 IEM_DS3505
ZBAA,2000-06-24 22:00,ZBAA 242200Z AUTO 16002KT 1 1/4SM 22/21 A2974 RMK T02200210 IEM_DS3505
ZBAA,2000-06-24 23:00,ZBAA 242300Z AUTO 16004KT 1 1/4SM 22/21 A2977 RMK T02200210 IEM_DS3505
ZBAA,2000-06-25 00:00,ZBAA 250000Z AUTO 00000KT 5SM 23/19 A2977 RMK 70031 SLP075 T02260188 52010 IEM_DS3505
ZBAA,2000-06-25 01:00,ZBAA 250100Z AUTO 12002KT 1 1/2SM 23/21 A2977 RMK T02300210 IEM_DS3505
ZBAA,2000-06-25 02:00,ZBAA 250200Z AUTO 2SM 24/21 A2977 RMK T02400210 IEM_DS3505
ZBAA,2000-06-25 03:00,ZBAA 250300Z AUTO 12004KT 5SM 25/19 A2977 RMK SLP072 T02480190 57003 IEM_DS3505
ZBAA,2000-06-25 04:00,ZBAA 250400Z AUTO 18004KT 2 1/2SM 26/21 A2974 RMK T02600210 IEM_DS3505
ZBAA,2000-06-25 05:00,ZBAA 250500Z AUTO 18006KT 2 1/2SM 26/21 A2974 RMK T02600210 IEM_DS3505
ZBAA,2000-06-25 06:00,ZBAA 250600Z AUTO 15002KT 5SM 25/19 A2971 RMK SLP061 T02500192 57011 IEM_DS3505
ZBAA,2000-06-25 07:00,ZBAA 250700Z AUTO 17008KT 2 1/2SM 27/21 A2971 RMK T02700210 IEM_DS3505
ZBAA,2000-06-25 08:00,ZBAA 250800Z AUTO 18008KT 2 1/2SM 26/22 A2971 RMK T02600220 IEM_DS3505
ZBAA,2000-06-25 09:00,ZBAA 250900Z AUTO 16002KT 5SM 25/20 A2968 RMK SLP047 T02510197 57014 IEM_DS3505
ZBAA,2000-06-25 10:00,ZBAA 251000Z AUTO 17006KT 2 1/2SM 26/22 A2968 RMK T02600220 IEM_DS3505
ZBAA,2000-06-25 11:00,ZBAA 251100Z AUTO 15004KT 2 1/2SM 25/21 A2968 RMK T02500210 IEM_DS3505
ZBAA,2000-06-25 12:00,ZBAA 251200Z AUTO 21002KT 4SM 23/20 A2968 RMK SLP049 T02330201 52001 IEM_DS3505
ZBAA,2000-06-25 13:00,ZBAA 251300Z AUTO 17002KT 1 1/2SM 23/22 A2968 RMK T02300220 IEM_DS3505
ZBAA,2000-06-25 14:00,ZBAA 251400Z AUTO 12002KT 1 1/4SM 23/22 A2968 RMK T02300220 IEM_DS3505
ZBAA,2000-06-25 15:00,ZBAA 251500Z AUTO 21002KT 2 1/2SM 22/20 A2968 RMK SLP051 T02240198 52002 IEM_DS3505
ZBAA,2000-06-25 16:00,ZBAA 251600Z AUTO 13002KT 1 1/4SM 22/22 A2968 RMK T02200220 IEM_DS3505
ZBAA,2000-06-25 17:00,ZBAA 251700Z AUTO 14002KT 1SM 22/22 A2968 RMK T02200220 IEM_DS3505
ZBAA,2000-06-25 18:00,ZBAA 251800Z AUTO 00000KT 2SM 21/19 A2965 RMK SLP042 T02140191 57008 IEM_DS3505
ZBAA,2000-06-25 19:00,ZBAA 251900Z AUTO 1SM 22/21 A2968 RMK T02200210 IEM_DS3505
ZBAA,2000-06-25 20:00,ZBAA 252000Z AUTO 00000KT 1SM 21/21 A2968 RMK T02100210 IEM_DS3505
ZBAA,2000-06-25 21:00,ZBAA 252100Z AUTO 00000KT 1 1/4SM 21/19 A2968 RMK SLP045 T02090190 52003 IEM_DS3505
ZBAA,2000-06-25 22:00,ZBAA 252200Z AUTO 11002KT 1SM 21/21 A2968 RMK T02100210 IEM_DS3505
ZBAA,2000-06-25 23:00,ZBAA 252300Z AUTO 00000KT 1SM 22/21 A2968 RMK T02200210 IEM_DS3505
ZBAA,2000-06-26 00:00,ZBAA 260000Z AUTO 06002KT 2 1/2SM 24/21 A2968 RMK SLP049 T02370206 52004 IEM_DS3505
ZBAA,2000-06-26 01:00,ZBAA 260100Z AUTO 1 1/4SM 26/22 A2968 RMK T02600220 IEM_DS3505
ZBAA,2000-06-26 02:00,ZBAA 260200Z AUTO 14004KT 2SM 26/20 A2965 RMK T02600200 IEM_DS3505
ZBAA,2000-06-26 03:00,ZBAA 260300Z AUTO 20004KT 5SM 29/16 A2965 RMK SLP034 T02870159 57015 IEM_DS3505
ZBAA,2000-06-26 04:00,ZBAA 260400Z AUTO 18004KT 2 1/2SM 29/20 A2962 RMK T02900200 IEM_DS3505
ZBAA,2000-06-26 05:00,ZBAA 260500Z AUTO 17008KT 2 1/2SM 31/19 A2959 RMK T03100190 IEM_DS3505
ZBAA,2000-06-26 06:00,ZBAA 260600Z AUTO 23004KT 19SM 32/14 A2959 RMK SLP015 T03180140 57019 IEM_DS3505
ZBAA,2000-06-26 07:00,ZBAA 260700Z AUTO 16008KT 6SM 33/16 A2956 RMK T03300160 IEM_DS3505
ZBAA,2000-06-26 08:00,ZBAA 260800Z AUTO 17010KT 6SM 33/15 A2956 RMK T03300150 IEM_DS3505
ZBAA,2000-06-26 09:00,ZBAA 260900Z AUTO 22006KT 16SM 33/13 A2953 RMK SLP001 T03280130 57014 IEM_DS3505
ZBAA,2000-06-26 10:00,ZBAA 261000Z AUTO 17008KT 6SM 33/17 A2956 RMK T03300170 IEM_DS3505
ZBAA,2000-06-26 11:00,ZBAA 261100Z AUTO 14004KT 6SM 31/17 A2956 RMK T03100170 IEM_DS3505
ZBAA,2000-06-26 12:00,ZBAA 261200Z AUTO 17002KT 9SM 30/14 A2956 RMK SLP011 T02970139 52010 IEM_DS3505
ZBAA,2000-06-26 13:00,ZBAA 261300Z AUTO 13006KT 6SM 28/20 A2959 RMK T02800200 IEM_DS3505
ZBAA,2000-06-26 14:00,ZBAA 261400Z AUTO 14006KT 6SM 27/20 A2962 RMK T02700200 IEM_DS3505
ZBAA,2000-06-26 15:00,ZBAA 261500Z AUTO 14004KT 12SM 25/16 A2962 RMK SLP027 T02510157 52016 IEM_DS3505
ZBAA,2000-06-26 16:00,ZBAA 261600Z AUTO 12004KT 6SM 24/19 A2965 RMK T02400190 IEM_DS3505
ZBAA,2000-06-26 17:00,ZBAA 261700Z AUTO 11004KT 5SM 23/21 A2965 RMK T02300210 IEM_DS3505
ZBAA,2000-06-26 18:00,ZBAA 261800Z AUTO 08002KT 6SM 23/18 A2965 RMK SLP030 T02270180 52003 IEM_DS3505
ZBAA,2000-06-26 19:00,ZBAA 261900Z AUTO 08002KT 2 1/2SM 22/21 A2965 RMK T02200210 IEM_DS3505
ZBAA,2000-06-26 20:00,ZBAA 262000Z AUTO 10002KT 2 1/2SM 22/21 A2965 RMK T02200210 IEM_DS3505
ZBAA,2000-06-26 21:00,ZBAA 262100Z AUTO 08004KT 1 1/2SM 22/20 A2965 RMK SLP037 T02190198 52007 IEM_DS3505
ZBAA,2000-06-26 22:00,ZBAA 262200Z AUTO 15002KT 2SM 22/21 A2968 RMK T02200210 IEM_DS3505
ZBAA,2000-06-26 23:00,ZBAA 262300Z AUTO 18004KT 2SM 23/22 A2968 RMK T02300220 IEM_DS3505
ZBAA,2000-06-27 00:00,ZBAA 270000Z AUTO 16002KT 2 1/2SM 23/19 A2968 RMK SLP042 T02340193 52005 IEM_DS3505
ZBAA,2000-06-27 01:00,ZBAA 270100Z AUTO 2 1/2SM 24/22 A2965 RMK T02400220 IEM_DS3505
ZBAA,2000-06-27 02:00,ZBAA 270200Z AUTO 13002KT 2 1/2SM 25/22 A2965 RMK T02500220 IEM_DS3505
ZBAA,2000-06-27 03:00,ZBAA 270300Z AUTO 18004KT 4SM 28/20 A2965 RMK SLP037 T02750198 57005 IEM_DS3505
ZBAA,2000-06-27 04:00,ZBAA 270400Z AUTO 17006KT 2 1/2SM 29/22 A2965 RMK T02900220 IEM_DS3505
ZBAA,2000-06-27 05:00,ZBAA 270500Z AUTO 17006KT 2 1/2SM 30/22 A2962 RMK T03000220 IEM_DS3505
ZBAA,2000-06-27 06:00,ZBAA 270600Z AUTO 15004KT 6SM 33/17 A2959 RMK SLP014 T03330171 57023 IEM_DS3505
ZBAA,2000-06-27 07:00,ZBAA 270700Z AUTO 17008KT 34/20 A2956 RMK T03400200 IEM_DS3505
ZBAA,2000-06-27 08:00,ZBAA 270800Z AUTO 18008KT 6SM 34/20 A2956 RMK T03400200 IEM_DS3505
ZBAA,2000-06-27 09:00,ZBAA 270900Z AUTO 21006KT 7SM 35/16 A2956 RMK SLP003 T03480157 57011 IEM_DS3505
ZBAA,2000-06-27 10:00,ZBAA 271000Z AUTO 17008KT 6SM 35/19 A2956 RMK T03500190 IEM_DS3505
ZBAA,2000-06-27 11:00,ZBAA 271100Z AUTO 16006KT 6SM 33/20 A2956 RMK T03300200 IEM_DS3505
ZBAA,2000-06-27 12:00,ZBAA 271200Z AUTO 20004KT 9SM 32/13 A2959 RMK SLP013 T03170130 52010 IEM_DS3505
ZBAA,2000-06-27 13:00,ZBAA 271300Z AUTO 16004KT 6SM 30/18 A2959 RMK T03000180 IEM_DS3505
ZBAA,2000-06-27 14:00,ZBAA 271400Z AUTO 13006KT 6SM 29/19 A2962 RMK T02900190 IEM_DS3505
ZBAA,2000-06-27 15:00,ZBAA 271500Z AUTO 14006KT 9SM 27/18 A2962 RMK SLP030 T02730175 52017 IEM_DS3505
ZBAA,2000-06-27 16:00,ZBAA 271600Z AUTO 13004KT 6SM 26/21 A2962 RMK T02600210 IEM_DS3505
ZBAA,2000-06-27 17:00,ZBAA 271700Z AUTO 12006KT 6SM 25/22 A2962 RMK T02500220 IEM_DS3505
ZBAA,2000-06-27 18:00,ZBAA 271800Z AUTO 11004KT 7SM 25/17 A2962 RMK SLP019 T02500167 57011 IEM_DS3505
ZBAA,2000-06-27 19:00,ZBAA 271900Z AUTO 12004KT 6SM 24/20 A2962 RMK T02400200 IEM_DS3505
ZBAA,2000-06-27 20:00,ZBAA 272000Z AUTO 03002KT 5SM 23/20 A2962 RMK T02300200 IEM_DS3505
ZBAA,2000-06-27 21:00,ZBAA 272100Z AUTO 03002KT 6SM 23/18 A2962 RMK SLP028 T02330184 52009 IEM_DS3505
ZBAA,2000-06-27 22:00,ZBAA 272200Z AUTO 04002KT 6SM 24/20 A2962 RMK T02400200 IEM_DS3505
ZBAA,2000-06-27 23:00,ZBAA 272300Z AUTO 10002KT 5SM 24/21 A2965 RMK T02400210 IEM_DS3505
ZBAA,2000-06-28 00:00,ZBAA 280000Z AUTO 07004KT 6SM 25/19 A2965 RMK SLP028 T02480192 54000 IEM_DS3505
ZBAA,2000-06-28 01:00,ZBAA 280100Z AUTO 12002KT 4SM 26/21 A2962 RMK T02600210 IEM_DS3505
ZBAA,2000-06-28 02:00,ZBAA 280200Z AUTO 5SM 28/21 A2965 RMK T02800210 IEM_DS3505
ZBAA,2000-06-28 03:00,ZBAA 280300Z AUTO 05004KT 5SM 28/18 A2965 RMK SLP030 T02750185 52002 IEM_DS3505
ZBAA,2000-06-28 04:00,ZBAA 280400Z AUTO 04002KT 28/22 A2962 RMK T02800220 IEM_DS3505
ZBAA,2000-06-28 05:00,ZBAA 280500Z AUTO 13002KT 29/22 A2962 RMK T02900220 IEM_DS3505
ZBAA,2000-06-28 06:00,ZBAA 280600Z AUTO 01002KT 6SM 28/19 A2959 RMK SLP016 T02840193 57014 IEM_DS3505
ZBAA,2000-06-28 07:00,ZBAA 280700Z AUTO 35004KT 29/22 A2959 RMK T02900220 IEM_DS3505
ZBAA,2000-06-28 08:00,ZBAA 280800Z AUTO 35004KT 4SM 28/23 A2959 RMK T02800230 IEM_DS3505
ZBAA,2000-06-28 09:00,ZBAA 280900Z AUTO 27004KT 6SM 26/19 A2959 RMK SLP014 T02600187 57002 IEM_DS3505
ZBAA,2000-06-28 10:00,ZBAA 281000Z AUTO 26006KT 4SM 26/19 A2959 RMK T02600190 IEM_DS3505
ZBAA,2000-06-28 11:00,ZBAA 281100Z AUTO 26008KT 7SM 25/19 A2959 RMK T02500190 IEM_DS3505
ZBAA,2000-06-28 12:00,ZBAA 281200Z AUTO 26004KT 6SM 22/18 A2959 RMK 60004 SLP016 T02230181 52002 IEM_DS3505
ZBAA,2000-06-28 13:00,ZBAA 281300Z AUTO 25004KT 3SM 23/20 A2959 RMK T02300200 IEM_DS3505
ZBAA,2000-06-28 14:00,ZBAA 281400Z AUTO 17002KT 2 1/2SM 23/21 A2962 RMK T02300210 IEM_DS3505
ZBAA,2000-06-28 15:00,ZBAA 281500Z AUTO 23002KT 7SM 23/18 A2962 RMK SLP022 T02300183 52006 IEM_DS3505
ZBAA,2000-06-28 16:00,ZBAA 281600Z AUTO 01004KT 2 1/2SM 23/19 A2962 RMK T02300190 IEM_DS3505
ZBAA,2000-06-28 17:00,ZBAA 281700Z AUTO 02002KT 3SM 22/19 A2959 RMK T02200190 IEM_DS3505
ZBAA,2000-06-28 18:00,ZBAA 281800Z AUTO 04002KT 5SM 21/18 A2956 RMK 60003 SLP007 T02130179 57015 IEM_DS3505
ZBAA,2000-06-28 19:00,ZBAA 281900Z AUTO 33004KT 4SM 20/19 A2956 RMK T02000190 IEM_DS3505
ZBAA,2000-06-28 20:00,ZBAA 282000Z AUTO 32004KT 4SM 20/18 A2956 RMK T02000180 IEM_DS3505
ZBAA,2000-06-28 21:00,ZBAA 282100Z AUTO 00000KT 5SM 20/16 A2956 RMK 70005 SLP002 T01970164 57005 IEM_DS3505
ZBAA,2000-06-28 22:00,ZBAA 282200Z AUTO 33004KT 6SM 21/18 A2956 RMK T02100180 IEM_DS3505
ZBAA,2000-06-28 23:00,ZBAA 282300Z AUTO 35004KT 6SM 22/19 A2956 RMK T02200190 IEM_DS3505
ZBAA,2000-06-29 00:00,ZBAA 290000Z AUTO 05002KT 6SM 24/17 A2956 RMK 70005 SLP003 T02440169 52001 IEM_DS3505
ZBAA,2000-06-29 01:00,ZBAA 290100Z AUTO 6SM 26/18 A2953 RMK T02600180 IEM_DS3505
ZBAA,2000-06-29 02:00,ZBAA 290200Z AUTO 6SM 27/18 A2953 RMK T02700180 IEM_DS3505
ZBAA,2000-06-29 03:00,ZBAA 290300Z AUTO 18006KT 7SM 29/14 A2953 RMK SLP993 T02860137 57010 IEM_DS3505
ZBAA,2000-06-29 04:00,ZBAA 290400Z AUTO 18006KT 30/18 A2950 RMK T03000180 IEM_DS3505
ZBAA,2000-06-29 05:00,ZBAA 290500Z AUTO 18010KT 31/17 A2947 RMK T03100170 IEM_DS3505
ZBAA,2000-06-29 06:00,ZBAA 290600Z AUTO 22010KT 9SM 31/15 A2944 RMK SLP967 T03070152 57026 IEM_DS3505
ZBAA,2000-06-29 07:00,ZBAA 290700Z AUTO 19014KT 7SM 32/18 A2941 RMK T03200180 IEM_DS3505
ZBAA,2000-06-29 08:00,ZBAA 290800Z AUTO 21012KT 7SM 30/18 A2944 RMK T03000180 IEM_DS3505
ZBAA,2000-06-29 09:00,ZBAA 290900Z AUTO 30014KT 5SM 27/16 A2941 RMK SLP964 T02660156 57003 IEM_DS3505
ZBAA,2000-06-29 10:00,ZBAA 291000Z AUTO 23008KT 6SM 28/17 A2941 RMK T02800170 IEM_DS3505
ZBAA,2000-06-29 11:00,ZBAA 291100Z AUTO 21004KT 6SM 28/17 A2944 RMK T02800170 IEM_DS3505
ZBAA,2000-06-29 12:00,ZBAA 291200Z AUTO 25004KT 9SM 26/16 A2944 RMK 60003 SLP973 T02590165 52009 IEM_DS3505
ZBAA,2000-06-29 13:00,ZBAA 291300Z AUTO 29006KT 6SM 28/17 A2950 RMK T02800170 IEM_DS3505
ZBAA,2000-06-29 14:00,ZBAA 291400Z AUTO 22002KT 6SM 26/18 A2950 RMK T02600180 IEM_DS3505
ZBAA,2000-06-29 15:00,ZBAA 291500Z AUTO 25002KT 9SM 24/15 A2953 RMK SLP995 T02390154 52022 IEM_DS3505
ZBAA,2000-06-29 16:00,ZBAA 291600Z AUTO 26006KT 5SM 25/18 A2953 RMK T02500180 IEM_DS3505
ZBAA,2000-06-29 17:00,ZBAA 291700Z AUTO 29004KT 23/17 A2953 RMK T02300170 IEM_DS3505
ZBAA,2000-06-29 18:00,ZBAA 291800Z AUTO 20002KT 9SM 22/13 A2953 RMK SLP997 T02160133 52002 IEM_DS3505
ZBAA,2000-06-29 19:00,ZBAA 291900Z AUTO 28002KT 4SM 21/16 A2953 RMK T02100160 IEM_DS3505
ZBAA,2000-06-29 20:00,ZBAA 292000Z AUTO 30002KT 6SM 21/15 A2953 RMK T02100150 IEM_DS3505
ZBAA,2000-06-29 21:00,ZBAA 292100Z AUTO 25002KT 6SM 19/13 A2956 RMK 70003 SLP003 T01930128 52006 IEM_DS3505
ZBAA,2000-06-29 22:00,ZBAA 292200Z AUTO 27002KT 6SM 21/15 A2956 RMK T02100150 IEM_DS3505
ZBAA,2000-06-29 23:00,ZBAA 292300Z AUTO 6SM 24/12 A2959 RMK T02400120 IEM_DS3505
ZBAA,2000-06-30 00:00,ZBAA 300000Z AUTO 26002KT 6SM 29/10 A2959 RMK 70003 SLP015 T02930104 52012 IEM_DS3505
ZBAA,2000-06-30 01:00,ZBAA 300100Z AUTO 29008KT 6SM 30/11 A2959 RMK T03000110 IEM_DS3505
ZBAA,2000-06-30 02:00,ZBAA 300200Z AUTO 26008KT 6SM 33/10 A2959 RMK T03300100 IEM_DS3505
ZBAA,2000-06-30 03:00,ZBAA 300300Z AUTO 29008KT 19SM 34/05 A2956 RMK SLP011 T03380054 57004 IEM_DS3505
ZBAA,2000-06-30 04:00,ZBAA 300400Z AUTO 27012KT 7SM 35/09 A2956 RMK T03500090 IEM_DS3505
ZBAA,2000-06-30 05:00,ZBAA 300500Z AUTO 27012G21KT 7SM 36/08 A2953 RMK T03600080 IEM_DS3505
ZBAA,2000-06-30 06:00,ZBAA 300600Z AUTO 34008G23KT 19SM 37/04 A2953 RMK SLP994 T03710042 57017 IEM_DS3505
ZBAA,2000-06-30 07:00,ZBAA 300700Z AUTO 27010KT 6SM 37/07 A2950 RMK T03700070 IEM_DS3505
ZBAA,2000-06-30 08:00,ZBAA 300800Z AUTO 29010KT 6SM 38/08 A2950 RMK T03800080 IEM_DS3505
ZBAA,2000-06-30 09:00,ZBAA 300900Z AUTO 32006KT 19SM 38/04 A2950 RMK SLP984 T03800037 57010 IEM_DS3505
ZBAA,2000-06-30 10:00,ZBAA 301000Z AUTO 34010KT 6SM 38/05 A2950 RMK T03800050 IEM_DS3505
ZBAA,2000-06-30 11:00,ZBAA 301100Z AUTO 35006KT 6SM 36/06 A2953 RMK T03600060 IEM_DS3505
ZBAA,2000-06-30 12:00,ZBAA 301200Z AUTO 25004KT 12SM 34/09 A2953 RMK SLP001 T03360090 52018 IEM_DS3505
ZBAA,2000-06-30 13:00,ZBAA 301300Z AUTO 00000KT 6SM 30/10 A2956 RMK T03000100 IEM_DS3505
ZBAA,2000-06-30 14:00,ZBAA 301400Z AUTO 16002KT 6SM 30/10 A2959 RMK T03000100 IEM_DS3505
ZBAA,2000-06-30 15:00,ZBAA 301500Z AUTO 21002KT 12SM 29/11 A2959 RMK SLP020 T02880110 52018 IEM_DS3505
ZBAA,2000-06-30 16:00,ZBAA 301600Z AUTO 17002KT 6SM 26/14 A2962 RMK T02600140 IEM_DS3505
ZBAA,2000-06-30 17:00,ZBAA 301700Z AUTO 00000KT 6SM 25/13 A2962 RMK T02500130 IEM_DS3505
ZBAA,2000-06-30 18:00,ZBAA 301800Z AUTO 21002KT 9SM 26/12 A2962 RMK SLP023 T02650118 52004 IEM_DS3505
ZBAA,2000-06-30 19:00,ZBAA 301900Z AUTO 33002KT 6SM 23/12 A2962 RMK T02300120 IEM_DS3505
ZBAA,2000-06-30 20:00,ZBAA 302000Z AUTO 03002KT 6SM 21/12 A2962 RMK T02100120 IEM_DS3505
ZBAA,2000-06-30 21:00,ZBAA 302100Z AUTO 00000KT 6SM 23/14 A2962 RMK SLP025 T02300135 52002 IEM_DS3505
ZBAA,2000-06-30 22:00,ZBAA 302200Z AUTO 01002KT 6SM 22/14 A2965 RMK T02200140 IEM_DS3505
ZBAA,2000-06-30 23:00,ZBAA 302300Z AUTO 04002KT 6SM 25/15 A2965 RMK T02500150 IEM_DS3505
ZBAA,2000-07-01 00:00,ZBAA 010000Z AUTO 04002KT 6SM 28/12 A2965 RMK SLP037 T02780118 52011 IEM_DS3505
ZBAA,2000-07-01 01:00,ZBAA 010100Z AUTO 6SM 30/14 A2965 RMK T03000140 IEM_DS3505
ZBAA,2000-07-01 02:00,ZBAA 010200Z AUTO 6SM 32/15 A2965 RMK T03200150 IEM_DS3505
ZBAA,2000-07-01 03:00,ZBAA 010300Z AUTO 07004KT 6SM 32/14 A2965 RMK SLP037 T03250137 54000 IEM_DS3505
ZBAA,2000-07-01 04:00,ZBAA 010400Z AUTO 13006KT 6SM 35/15 A2965 RMK T03500150 IEM_DS3505
ZBAA,2000-07-01 05:00,ZBAA 010500Z AUTO 14004KT 6SM 37/15 A2962 RMK T03700150 IEM_DS3505
ZBAA,2000-07-01 06:00,ZBAA 010600Z AUTO 13004KT 12SM 38/12 A2959 RMK SLP019 T03780117 57017 IEM_DS3505
ZBAA,2000-07-01 07:00,ZBAA 010700Z AUTO 18006KT 6SM 39/12 A2959 RMK T03900120 IEM_DS3505
ZBAA,2000-07-01 08:00,ZBAA 010800Z AUTO 16008KT 6SM 40/08 A2959 RMK T04000080 IEM_DS3505
ZBAA,2000-07-01 09:00,ZBAA 010900Z AUTO 20004KT 12SM 38/10 A2956 RMK SLP009 T03800104 57010 IEM_DS3505
ZBAA,2000-07-01 10:00,ZBAA 011000Z AUTO 15004KT 6SM 37/14 A2959 RMK T03700140 IEM_DS3505
ZBAA,2000-07-01 11:00,ZBAA 011100Z AUTO 13004KT 6SM 36/17 A2959 RMK T03600170 IEM_DS3505
ZBAA,2000-07-01 12:00,ZBAA 011200Z AUTO 13004KT 12SM 33/14 A2959 RMK SLP016 T03340145 52007 IEM_DS3505
ZBAA,2000-07-01 13:00,ZBAA 011300Z AUTO 12002KT 6SM 32/17 A2962 RMK T03200170 IEM_DS3505
ZBAA,2000-07-01 14:00,ZBAA 011400Z AUTO 12002KT 6SM 31/16 A2962 RMK T03100160 IEM_DS3505
ZBAA,2000-07-01 15:00,ZBAA 011500Z AUTO 18002KT 9SM 30/13 A2962 RMK SLP028 T03040128 52011 IEM_DS3505
ZBAA,2000-07-01 16:00,ZBAA 011600Z AUTO 13004KT 6SM 30/16 A2962 RMK T03000160 IEM_DS3505
ZBAA,2000-07-01 17:00,ZBAA 011700Z AUTO 14002KT 6SM 28/16 A2965 RMK T02800160 IEM_DS3505
ZBAA,2000-07-01 18:00,ZBAA 011800Z AUTO 21004KT 9SM 29/12 A2965 RMK SLP034 T02940115 52007 IEM_DS3505
ZBAA,2000-07-01 19:00,ZBAA 011900Z AUTO 12006KT 6SM 27/17 A2965 RMK T02700170 IEM_DS3505
ZBAA,2000-07-01 20:00,ZBAA 012000Z AUTO 14002KT 6SM 26/17 A2968 RMK T02600170 IEM_DS3505
ZBAA,2000-07-01 21:00,ZBAA 012100Z AUTO 26004KT 7SM 27/14 A2968 RMK SLP049 T02660140 52015 IEM_DS3505
ZBAA,2000-07-01 22:00,ZBAA 012200Z AUTO 12002KT 6SM 24/18 A2971 RMK T02400180 IEM_DS3505
ZBAA,2000-07-01 23:00,ZBAA 012300Z AUTO 10004KT 5SM 27/19 A2971 RMK T02700190 IEM_DS3505
ZBAA,2000-07-02 00:00,ZBAA 020000Z AUTO 17002KT 6SM 30/15 A2974 RMK SLP063 T02980148 52014 IEM_DS3505
ZBAA,2000-07-02 01:00,ZBAA 020100Z AUTO 14004KT 5SM 30/19 A2974 RMK T03000190 IEM_DS3505
ZBAA,2000-07-02 02:00,ZBAA 020200Z AUTO 13004KT 5SM 31/20 A2974 RMK T03100200 IEM_DS3505
ZBAA,2000-07-02 03:00,ZBAA 020300Z AUTO 16006KT 7SM 35/17 A2974 RMK SLP066 T03480171 52003 IEM_DS3505
ZBAA,2000-07-02 04:00,ZBAA 020400Z AUTO 17006KT 6SM 37/19 A2974 RMK T03700190 IEM_DS3505
ZBAA,2000-07-02 05:00,ZBAA 020500Z AUTO 17006KT 6SM 38/19 A2971 RMK T03800190 IEM_DS3505
ZBAA,2000-07-02 06:00,ZBAA 020600Z AUTO 16004KT 12SM 38/14 A2968 RMK SLP050 T03840143 57016 IEM_DS3505
ZBAA,2000-07-02 07:00,ZBAA 020700Z AUTO 16012KT 6SM 39/16 A2968 RMK T03900160 IEM_DS3505
ZBAA,2000-07-02 08:00,ZBAA 020800Z AUTO 18008KT 6SM 39/18 A2968 RMK T03900180 IEM_DS3505
ZBAA,2000-07-02 09:00,ZBAA 020900Z AUTO 21006KT 12SM 38/15 A2965 RMK SLP038 T03750153 57012 IEM_DS3505
ZBAA,2000-07-02 10:00,ZBAA 021000Z AUTO 18006KT 6SM 37/18 A2965 RMK T03700180 IEM_DS3505
ZBAA,2000-07-02 11:00,ZBAA 021100Z AUTO 15012KT 6SM 34/21 A2968 RMK T03400210 IEM_DS3505
ZBAA,2000-07-02 12:00,ZBAA 021200Z AUTO 09002KT 12SM 31/17 A2971 RMK 60003 SLP053 T03100166 52014 IEM_DS3505
ZBAA,2000-07-02 13:00,ZBAA 021300Z AUTO 12006KT 6SM 32/21 A2974 RMK T03200210 IEM_DS3505
ZBAA,2000-07-02 14:00,ZBAA 021400Z AUTO 12004KT 6SM 31/24 A2974 RMK T03100240 IEM_DS3505
ZBAA,2000-07-02 15:00,ZBAA 021500Z AUTO 12006KT 6SM 30/22 A2974 RMK SLP062 T03040218 52009 IEM_DS3505
ZBAA,2000-07-02 16:00,ZBAA 021600Z AUTO 3SM 29/25 A2974 RMK T02900250 IEM_DS3505
ZBAA,2000-07-02 17:00,ZBAA 021700Z AUTO 3SM 29/25 A2974 RMK T02900250 IEM_DS3505
ZBAA,2000-07-02 18:00,ZBAA 021800Z AUTO 07004KT 6SM 29/22 A2974 RMK SLP068 T02870222 52007 IEM_DS3505
ZBAA,2000-07-02 19:00,ZBAA 021900Z AUTO 12004KT 4SM 28/23 A2974 RMK T02800230 IEM_DS3505
ZBAA,2000-07-02 20:00,ZBAA 022000Z AUTO 12004KT 4SM 27/23 A2974 RMK T02700230 IEM_DS3505
ZBAA,2000-07-02 21:00,ZBAA 022100Z AUTO 08006KT 5SM 26/22 A2977 RMK 70003 SLP068 T02600217 54000 IEM_DS3505
ZBAA,2000-07-02 22:00,ZBAA 022200Z AUTO 12008KT 2 1/2SM 27/25 A2977 RMK T02700250 IEM_DS3505
ZBAA,2000-07-02 23:00,ZBAA 022300Z AUTO 12008KT 2 1/2SM 27/25 A2977 RMK T02700250 IEM_DS3505
ZBAA,2000-07-03 00:00,ZBAA 030000Z AUTO 09006KT 4SM 27/23 A2977 RMK 70003 SLP079 T02680226 52010 IEM_DS3505
ZBAA,2000-07-03 01:00,ZBAA 030100Z AUTO 12008KT 1 1/2SM 27/24 A2977 RMK T02700240 IEM_DS3505
ZBAA,2000-07-03 02:00,ZBAA 030200Z AUTO 12010KT 1 1/2SM 28/24 A2980 RMK T02800240 IEM_DS3505
ZBAA,2000-07-03 03:00,ZBAA 030300Z AUTO 10006KT 4SM 27/22 A2980 RMK SLP081 T02690225 52002 IEM_DS3505
ZBAA,2000-07-03 04:00,ZBAA 030400Z AUTO 11008KT 1 1/2SM 28/24 A2980 RMK T02800240 IEM_DS3505
ZBAA,2000-07-03 05:00,ZBAA 030500Z AUTO 14006KT 2SM 29/24 A2977 RMK T02900240 IEM_DS3505
ZBAA,2000-07-03 06:00,ZBAA 030600Z AUTO 06006KT 3SM 30/22 A2977 RMK SLP066 T02990224 57015 IEM_DS3505
ZBAA,2000-07-03 07:00,ZBAA 030700Z AUTO 12010KT 2SM 30/25 A2974 RMK T03000250 IEM_DS3505
ZBAA,2000-07-03 08:00,ZBAA 030800Z AUTO 13008KT 2SM 29/25 A2974 RMK T02900250 IEM_DS3505
ZBAA,2000-07-03 09:00,ZBAA 030900Z AUTO 04004KT 4SM 26/23 A2974 RMK SLP065 T02580227 57001 IEM_DS3505
ZBAA,2000-07-03 10:00,ZBAA 031000Z AUTO 03002KT 4SM 26/23 A2977 RMK T02600230 IEM_DS3505
ZBAA,2000-07-03 11:00,ZBAA 031100Z AUTO 36004KT 4SM 26/23 A2977 RMK T02600230 IEM_DS3505
ZBAA,2000-07-03 12:00,ZBAA 031200Z AUTO 12004KT 3SM 27/23 A2977 RMK 60012 SLP077 T02720226 52012 IEM_DS3505
ZBAA,2000-07-03 13:00,ZBAA 031300Z AUTO 35002KT 4SM 26/23 A2977 RMK T02600230 IEM_DS3505
ZBAA,2000-07-03 14:00,ZBAA 031400Z AUTO 09002KT 3SM 25/23 A2977 RMK T02500230 IEM_DS3505
ZBAA,2000-07-03 15:00,ZBAA 031500Z AUTO 07004KT 3SM 26/22 A2977 RMK SLP079 T02570218 52002 IEM_DS3505
ZBAA,2000-07-03 16:00,ZBAA 031600Z AUTO 10002KT 3SM 26/23 A2977 RMK T02600230 IEM_DS3505
ZBAA,2000-07-03 17:00,ZBAA 031700Z AUTO 01002KT 3SM 25/23 A2977 RMK T02500230 IEM_DS3505
ZBAA,2000-07-03 18:00,ZBAA 031800Z AUTO 08006KT 4SM 25/21 A2977 RMK SLP073 T02500213 57006 IEM_DS3505
ZBAA,2000-07-03 19:00,ZBAA 031900Z AUTO 09002KT 3SM 26/23 A2977 RMK T02600230 IEM_DS3505
ZBAA,2000-07-03 20:00,ZBAA 032000Z AUTO 09006KT 3SM 26/23 A2977 RMK T02600230 IEM_DS3505
ZBAA,2000-07-03 21:00,ZBAA 032100Z AUTO 08006KT 4SM 25/21 A2977 RMK 70012 SLP069 T02460211 57004 IEM_DS3505
ZBAA,2000-07-03 22:00,ZBAA 032200Z AUTO 09008KT 3SM 26/23 A2977 RMK T02600230 IEM_DS3505
ZBAA,2000-07-03 23:00,ZBAA 032300Z AUTO 10008KT 4SM 26/23 A2977 RMK T02600230 IEM_DS3505
ZBAA,2000-07-04 00:00,ZBAA 040000Z AUTO 09008KT 5SM 25/22 A2980 RMK 70012 SLP076 T02490216 52007 IEM_DS3505
ZBAA,2000-07-04 01:00,ZBAA 040100Z AUTO 10010KT 3SM 26/23 A2980 RMK T02600230 IEM_DS3505
ZBAA,2000-07-04 02:00,ZBAA 040200Z AUTO 10012KT 3SM 26/23 A2980 RMK T02600230 IEM_DS3505
ZBAA,2000-07-04 03:00,ZBAA 040300Z AUTO 07014G19KT 5SM 26/22 A2980 RMK SLP081 T02620218 52005 IEM_DS3505
ZBAA,2000-07-04 04:00,ZBAA 040400Z AUTO 10008KT 3SM 27/24 A2980 RMK T02700240 IEM_DS3505
ZBAA,2000-07-04 05:00,ZBAA 040500Z AUTO 10010KT 4SM 27/23 A2980 RMK T02700230 IEM_DS3505
ZBAA,2000-07-04 06:00,ZBAA 040600Z AUTO 07006KT 2 1/2SM 25/23 A2980 RMK 60043 SLP083 T02490230 52002 IEM_DS3505
ZBAA,2000-07-04 07:00,ZBAA 040700Z AUTO 09008G19KT 5SM 26/25 A2980 RMK T02600250 IEM_DS3505
ZBAA,2000-07-04 08:00,ZBAA 040800Z AUTO 10008KT 4SM 26/25 A2980 RMK T02600250 IEM_DS3505
ZBAA,2000-07-04 09:00,ZBAA 040900Z AUTO 10002KT 3SM 25/23 A2980 RMK SLP085 T02520227 52002 IEM_DS3505
ZBAA,2000-07-04 10:00,ZBAA 041000Z AUTO 10008KT 4SM 25/24 A2980 RMK T02500240 IEM_DS3505
ZBAA,2000-07-04 11:00,ZBAA 041100Z AUTO 11008KT 7SM 23/23 A2983 RMK T02300230 IEM_DS3505
ZBAA,2000-07-04 12:00,ZBAA 041200Z AUTO 11006KT 4SM 23/21 A2985 RMK 60020 SLP101 T02300211 52015 IEM_DS3505
ZBAA,2000-07-04 13:00,ZBAA 041300Z AUTO 08006KT 7SM 22/22 A2988 RMK T02200220 IEM_DS3505
ZBAA,2000-07-04 14:00,ZBAA 041400Z AUTO 7SM 22/22 A2988 RMK T02200220 IEM_DS3505
ZBAA,2000-07-04 15:00,ZBAA 041500Z AUTO 07004KT 5SM 22/20 A2988 RMK SLP119 T02240203 52018 IEM_DS3505
ZBAA,2000-07-04 16:00,ZBAA 041600Z AUTO 02002KT 7SM 23/23 A2991 RMK T02300230 IEM_DS3505
ZBAA,2000-07-04 17:00,ZBAA 041700Z AUTO 36004KT 7SM 22/22 A2988 RMK T02200220 IEM_DS3505
ZBAA,2000-07-04 18:00,ZBAA 041800Z AUTO 00000KT 2 1/2SM 22/21 A2991 RMK 60012 SLP119 T02250208 54000 IEM_DS3505
ZBAA,2000-07-04 19:00,ZBAA 041900Z AUTO 02004KT 3SM 22/22 A2988 RMK T02200220 IEM_DS3505
ZBAA,2000-07-04 20:00,ZBAA 042000Z AUTO 35004KT 2SM 22/22 A2988 RMK T02200220 IEM_DS3505
ZBAA,2000-07-04 22:00,ZBAA 042200Z AUTO 34004KT 7SM 22/22 A2991 RMK T02200220 IEM_DS3505
ZBAA,2000-07-04 23:00,ZBAA 042300Z AUTO 35002KT 4SM 23/23 A2991 RMK T02300230 IEM_DS3505
ZBAA,2000-07-05 00:00,ZBAA 050000Z AUTO 03004KT 3SM 23/22 A2994 RMK 60154 SLP130 T02310217 52009 IEM_DS3505
ZBAA,2000-07-05 01:00,ZBAA 050100Z AUTO 01004KT 5SM 24/24 A2994 RMK T02400240 IEM_DS3505
ZBAA,2000-07-05 02:00,ZBAA 050200Z AUTO 01004KT 4SM 25/25 A2994 RMK T02500250 IEM_DS3505
ZBAA,2000-07-05 03:00,ZBAA 050300Z AUTO 04002KT 5SM 26/23 A2994 RMK SLP133 T02580229 52004 IEM_DS3505
ZBAA,2000-07-05 04:00,ZBAA 050400Z AUTO 4SM 28/25 A2994 RMK T02800250 IEM_DS3505
ZBAA,2000-07-05 05:00,ZBAA 050500Z AUTO 10004KT 5SM 28/24 A2994 RMK T02800240 IEM_DS3505
ZBAA,2000-07-05 06:00,ZBAA 050600Z AUTO 10006KT 6SM 29/22 A2991 RMK SLP122 T02870220 57011 IEM_DS3505
ZBAA,2000-07-05 07:00,ZBAA 050700Z AUTO 12006KT 5SM 30/24 A2988 RMK T03000240 IEM_DS3505
ZBAA,2000-07-05 08:00,ZBAA 050800Z AUTO 15004KT 5SM 29/25 A2988 RMK T02900250 IEM_DS3505
ZBAA,2000-07-05 09:00,ZBAA 050900Z AUTO 13004KT 12SM 28/22 A2988 RMK SLP110 T02820220 57012 IEM_DS3505
ZBAA,2000-07-05 10:00,ZBAA 051000Z AUTO 21004KT 6SM 29/24 A2985 RMK T02900240 IEM_DS3505
ZBAA,2000-07-05 11:00,ZBAA 051100Z AUTO 20004KT 6SM 28/24 A2985 RMK T02800240 IEM_DS3505
ZBAA,2000-07-05 12:00,ZBAA 051200Z AUTO 19002KT 6SM 27/22 A2985 RMK SLP111 T02660222 52001 IEM_DS3505
ZBAA,2000-07-05 13:00,ZBAA 051300Z AUTO 19006KT 7SM 27/24 A2988 RMK T02700240 IEM_DS3505
ZBAA,2000-07-05 14:00,ZBAA 051400Z AUTO 19004KT 5SM 27/24 A2988 RMK T02700240 IEM_DS3505
ZBAA,2000-07-05 15:00,ZBAA 051500Z AUTO 00000KT 6SM 25/22 A2988 RMK SLP117 T02490224 52005 IEM_DS3505
ZBAA,2000-07-05 16:00,ZBAA 051600Z AUTO 07002KT 4SM 25/24 A2988 RMK T02500240 IEM_DS3505
ZBAA,2000-07-05 17:00,ZBAA 051700Z AUTO 12002KT 4SM 24/24 A2988 RMK T02400240 IEM_DS3505
ZBAA,2000-07-05 18:00,ZBAA 051800Z AUTO 07002KT 5SM 24/22 A2988 RMK SLP110 T02430222 57006 IEM_DS3505
ZBAA,2000-07-05 19:00,ZBAA 051900Z AUTO 00000KT 3SM 24/24 A2985 RMK T02400240 IEM_DS3505
ZBAA,2000-07-05 20:00,ZBAA 052000Z AUTO 35002KT 3SM 24/24 A2985 RMK T02400240 IEM_DS3505
ZBAA,2000-07-05 21:00,ZBAA 052100Z AUTO 00000KT 5SM 24/22 A2985 RMK 70047 SLP109 T02390218 57001 IEM_DS3505
ZBAA,2000-07-05 22:00,ZBAA 052200Z AUTO 00000KT 4SM 24/24 A2988 RMK T02400240 IEM_DS3505
ZBAA,2000-07-05 23:00,ZBAA 052300Z AUTO 00000KT 4SM 25/25 A2988 RMK T02500250 IEM_DS3505
ZBAA,2000-07-06 00:00,ZBAA 060000Z AUTO 14002KT 6SM 27/22 A2988 RMK SLP115 T02740219 52006 IEM_DS3505
ZBAA,2000-07-06 01:00,ZBAA 060100Z AUTO 10002KT 4SM 27/25 A2988 RMK T02700250 IEM_DS3505
ZBAA,2000-07-06 02:00,ZBAA 060200Z AUTO 7SM 28/24 A2988 RMK T02800240 IEM_DS3505
ZBAA,2000-07-06 03:00,ZBAA 060300Z AUTO 02002KT 16SM 30/21 A2985 RMK SLP106 T03050207 57009 IEM_DS3505
ZBAA,2000-07-06 04:00,ZBAA 060400Z AUTO 11004KT 6SM 31/23 A2985 RMK T03100230 IEM_DS3505
ZBAA,2000-07-06 05:00,ZBAA 060500Z AUTO 03002KT 6SM 31/24 A2983 RMK T03100240 IEM_DS3505
ZBAA,2000-07-06 06:00,ZBAA 060600Z AUTO 11002KT 9SM 31/21 A2980 RMK SLP089 T03080210 57017 IEM_DS3505
ZBAA,2000-07-06 07:00,ZBAA 060700Z AUTO 15004KT 6SM 32/24 A2980 RMK T03200240 IEM_DS3505
ZBAA,2000-07-06 08:00,ZBAA 060800Z AUTO 6SM 33/24 A2977 RMK T03300240 IEM_DS3505
ZBAA,2000-07-06 09:00,ZBAA 060900Z AUTO 24002KT 9SM 32/21 A2974 RMK SLP069 T03190214 57020 IEM_DS3505
ZBAA,2000-07-06 10:00,ZBAA 061000Z AUTO 15002KT 6SM 32/24 A2974 RMK T03200240 IEM_DS3505
ZBAA,2000-07-06 11:00,ZBAA 061100Z AUTO 31002KT 7SM 31/25 A2974 RMK T03100250 IEM_DS3505
ZBAA,2000-07-06 12:00,ZBAA 061200Z AUTO 26002KT 6SM 30/22 A2974 RMK SLP067 T02990218 57002 IEM_DS3505
ZBAA,2000-07-06 13:00,ZBAA 061300Z AUTO 00000KT 5SM 29/24 A2977 RMK T02900240 IEM_DS3505
ZBAA,2000-07-06 14:00,ZBAA 061400Z AUTO 29002KT 5SM 29/23 A2977 RMK T02900230 IEM_DS3505
ZBAA,2000-07-06 15:00,ZBAA 061500Z AUTO 28002KT 5SM 29/22 A2977 RMK SLP077 T02880223 52010 IEM_DS3505
ZBAA,2000-07-06 16:00,ZBAA 061600Z AUTO 30002KT 4SM 27/24 A2977 RMK T02700240 IEM_DS3505
ZBAA,2000-07-06 17:00,ZBAA 061700Z AUTO 01002KT 3SM 27/24 A2977 RMK T02700240 IEM_DS3505
ZBAA,2000-07-06 18:00,ZBAA 061800Z AUTO 00000KT 3SM 26/23 A2977 RMK SLP071 T02640231 57006 IEM_DS3505
ZBAA,2000-07-06 19:00,ZBAA 061900Z AUTO 00000KT 3SM 26/25 A2977 RMK T02600250 IEM_DS3505
ZBAA,2000-07-06 20:00,ZBAA 062000Z AUTO 36002KT 2 1/2SM 26/25 A2974 RMK T02600250 IEM_DS3505
ZBAA,2000-07-06 21:00,ZBAA 062100Z AUTO 00000KT 3SM 26/23 A2974 RMK SLP070 T02590232 57001 IEM_DS3505
ZBAA,2000-07-06 22:00,ZBAA 062200Z AUTO 35002KT 4SM 26/24 A2977 RMK T02600240 IEM_DS3505
ZBAA,2000-07-06 23:00,ZBAA 062300Z AUTO 30004KT 4SM 27/24 A2977 RMK T02700240 IEM_DS3505
ZBAA,2000-07-07 00:00,ZBAA 070000Z AUTO 04002KT 3SM 29/23 A2977 RMK SLP071 T02890229 52001 IEM_DS3505
ZBAA,2000-07-07 01:00,ZBAA 070100Z AUTO 35004KT 4SM 29/25 A2977 RMK T02900250 IEM_DS3505
ZBAA,2000-07-07 02:00,ZBAA 070200Z AUTO 5SM 31/24 A2974 RMK T03100240 IEM_DS3505
ZBAA,2000-07-07 03:00,ZBAA 070300Z AUTO 12004KT 4SM 32/21 A2974 RMK SLP064 T03170213 57007 IEM_DS3505
ZBAA,2000-07-07 04:00,ZBAA 070400Z AUTO 12002KT 5SM 33/22 A2971 RMK T03300220 IEM_DS3505
ZBAA,2000-07-07 05:00,ZBAA 070500Z AUTO 22010KT 5SM 29/25 A2971 RMK T02900250 IEM_DS3505
ZBAA,2000-07-07 06:00,ZBAA 070600Z AUTO 22004KT 7SM 34/20 A2971 RMK SLP048 T03360200 57016 IEM_DS3505
ZBAA,2000-07-07 07:00,ZBAA 070700Z AUTO 13002KT 5SM 33/23 A2968 RMK T03300230 IEM_DS3505
ZBAA,2000-07-07 08:00,ZBAA 070800Z AUTO 15004KT 5SM 33/24 A2965 RMK T03300240 IEM_DS3505
ZBAA,2000-07-07 09:00,ZBAA 070900Z AUTO 25006KT 16SM 33/17 A2965 RMK SLP032 T03340167 57016 IEM_DS3505
ZBAA,2000-07-07 10:00,ZBAA 071000Z AUTO 17006KT 6SM 33/23 A2965 RMK T03300230 IEM_DS3505
ZBAA,2000-07-07 11:00,ZBAA 071100Z AUTO 10004KT 7SM 29/23 A2965 RMK T02900230 IEM_DS3505
ZBAA,2000-07-07 12:00,ZBAA 071200Z AUTO 22002KT 12SM 31/19 A2965 RMK SLP036 T03090189 52004 IEM_DS3505
ZBAA,2000-07-07 13:00,ZBAA 071300Z AUTO 00000KT 4SM 27/24 A2965 RMK T02700240 IEM_DS3505
ZBAA,2000-07-07 14:00,ZBAA 071400Z AUTO 13002KT 4SM 26/25 A2968 RMK T02600250 IEM_DS3505
ZBAA,2000-07-07 15:00,ZBAA 071500Z AUTO 20002KT 6SM 28/21 RMK SLP044 T02820207 52008 IEM_DS3505
ZBAA,2000-07-07 15:18,ZBAA 071518Z AUTO 00000KT 3SM 26/25 A2968 RMK T02600250 IEM_DS3505
ZBAA,2000-07-07 16:00,ZBAA 071600Z AUTO 10002KT 3SM 26/24 A2968 RMK T02600240 IEM_DS3505
ZBAA,2000-07-07 17:00,ZBAA 071700Z AUTO 11002KT 3SM 26/24 A2968 RMK T02600240 IEM_DS3505
ZBAA,2000-07-07 18:00,ZBAA 071800Z AUTO 00000KT 6SM 26/22 A2965 RMK SLP039 T02630217 57005 IEM_DS3505
ZBAA,2000-07-07 19:00,ZBAA 071900Z AUTO 00000KT 2SM 25/24 A2965 RMK T02500240 IEM_DS3505
ZBAA,2000-07-07 20:00,ZBAA 072000Z AUTO 00000KT 2SM 25/24 A2965 RMK T02500240 IEM_DS3505
ZBAA,2000-07-07 21:00,ZBAA 072100Z AUTO 29004KT 5SM 26/21 A2965 RMK SLP035 T02610213 57004 IEM_DS3505
ZBAA,2000-07-07 22:00,ZBAA 072200Z AUTO 35002KT 2SM 25/24 A2965 RMK T02500240 IEM_DS3505
ZBAA,2000-07-07 23:00,ZBAA 072300Z AUTO 00000KT 2 1/2SM 26/24 A2965 RMK T02600240 IEM_DS3505
ZBAA,2000-07-08 00:00,ZBAA 080000Z AUTO 21002KT 4SM 29/22 A2968 RMK SLP041 T02860219 52006 IEM_DS3505
ZBAA,2000-07-08 01:00,ZBAA 080100Z AUTO 15002KT 2 1/2SM 29/25 A2965 RMK T02900250 IEM_DS3505
ZBAA,2000-07-08 02:00,ZBAA 080200Z AUTO 16002KT 2 1/2SM 31/25 A2965 RMK T03100250 IEM_DS3505
ZBAA,2000-07-08 03:00,ZBAA 080300Z AUTO 21004KT 6SM 32/21 A2965 RMK SLP034 T03220211 57007 IEM_DS3505
ZBAA,2000-07-08 04:00,ZBAA 080400Z AUTO 14006KT 3SM 32/24 A2962 RMK T03200240 IEM_DS3505
ZBAA,2000-07-08 05:00,ZBAA 080500Z AUTO 14006KT 33/24 A2962 RMK T03300240 IEM_DS3505
ZBAA,2000-07-08 06:00,ZBAA 080600Z AUTO 23006KT 9SM 32/19 A2959 RMK 60003 SLP019 T03230192 57015 IEM_DS3505
ZBAA,2000-07-08 07:00,ZBAA 080700Z AUTO 21004KT 6SM 33/22 A2959 RMK T03300220 IEM_DS3505
ZBAA,2000-07-08 08:00,ZBAA 080800Z AUTO 18004KT 6SM 33/23 A2959 RMK T03300230 IEM_DS3505
ZBAA,2000-07-08 09:00,ZBAA 080900Z AUTO 23004KT 9SM 33/19 A2956 RMK SLP009 T03270189 57010 IEM_DS3505
ZBAA,2000-07-08 10:00,ZBAA 081000Z AUTO 20002KT 6SM 32/24 A2956 RMK T03200240 IEM_DS3505
ZBAA,2000-07-08 11:00,ZBAA 081100Z AUTO 23002KT 6SM 32/23 A2959 RMK T03200230 IEM_DS3505
ZBAA,2000-07-08 12:00,ZBAA 081200Z AUTO 00000KT 6SM 30/21 A2959 RMK 60003 SLP016 T03050213 52007 IEM_DS3505
ZBAA,2000-07-08 13:00,ZBAA 081300Z AUTO 14002KT 5SM 29/26 A2962 RMK T02900260 IEM_DS3505
ZBAA,2000-07-08 14:00,ZBAA 081400Z AUTO 15002KT 4SM 29/26 A2962 RMK T02900260 IEM_DS3505
ZBAA,2000-07-08 15:00,ZBAA 081500Z AUTO 23002KT 6SM 29/20 A2962 RMK SLP024 T02920201 52008 IEM_DS3505
ZBAA,2000-07-08 16:00,ZBAA 081600Z AUTO 30002KT 6SM 28/22 A2962 RMK T02800220 IEM_DS3505
ZBAA,2000-07-08 17:00,ZBAA 081700Z AUTO 28004KT 6SM 27/22 A2962 RMK T02700220 IEM_DS3505
ZBAA,2000-07-08 18:00,ZBAA 081800Z AUTO 00000KT 12SM 28/19 A2962 RMK SLP024 T02760189 54000 IEM_DS3505
ZBAA,2000-07-08 19:00,ZBAA 081900Z AUTO 34002KT 6SM 26/22 A2962 RMK T02600220 IEM_DS3505
ZBAA,2000-07-08 20:00,ZBAA 082000Z AUTO 28004KT 6SM 25/22 A2962 RMK T02500220 IEM_DS3505
ZBAA,2000-07-08 21:00,ZBAA 082100Z AUTO 35004KT 12SM 27/18 A2965 RMK 70003 SLP032 T02670183 52008 IEM_DS3505
ZBAA,2000-07-08 22:00,ZBAA 082200Z AUTO 02002KT 6SM 26/23 A2965 RMK T02600230 IEM_DS3505
ZBAA,2000-07-08 23:00,ZBAA 082300Z AUTO 00000KT 5SM 27/23 A2968 RMK T02700230 IEM_DS3505
ZBAA,2000-07-09 00:00,ZBAA 090000Z AUTO 36004KT 7SM 28/20 A2968 RMK 70003 SLP048 T02770198 52016 IEM_DS3505
ZBAA,2000-07-09 01:00,ZBAA 090100Z AUTO 28006KT 6SM 28/23 A2971 RMK T02800230 IEM_DS3505
ZBAA,2000-07-09 02:00,ZBAA 090200Z AUTO 30010G19KT 6SM 28/22 A2971 RMK T02800220 IEM_DS3505
ZBAA,2000-07-09 03:00,ZBAA 090300Z AUTO 31004KT 7SM 30/20 A2971 RMK SLP052 T02960199 52004 IEM_DS3505
ZBAA,2000-07-09 04:00,ZBAA 090400Z AUTO 33006KT 6SM 30/22 A2971 RMK T03000220 IEM_DS3505
ZBAA,2000-07-09 05:00,ZBAA 090500Z AUTO 36006KT 6SM 31/23 A2971 RMK T03100230 IEM_DS3505
ZBAA,2000-07-09 06:00,ZBAA 090600Z AUTO 05006KT 7SM 32/19 A2968 RMK SLP045 T03230192 57007 IEM_DS3505
ZBAA,2000-07-09 07:00,ZBAA 090700Z AUTO 34006KT 6SM 31/23 A2968 RMK T03100230 IEM_DS3505
ZBAA,2000-07-09 08:00,ZBAA 090800Z AUTO 35008KT 6SM 30/23 A2968 RMK T03000230 IEM_DS3505
ZBAA,2000-07-09 09:00,ZBAA 090900Z AUTO 02004KT 7SM 32/20 A2968 RMK SLP041 T03230196 57004 IEM_DS3505
ZBAA,2000-07-09 10:00,ZBAA 091000Z AUTO 34006KT 6SM 31/22 A2968 RMK T03100220 IEM_DS3505
ZBAA,2000-07-09 11:00,ZBAA 091100Z AUTO 33006KT 6SM 30/23 A2968 RMK T03000230 IEM_DS3505
ZBAA,2000-07-09 12:00,ZBAA 091200Z AUTO 08002KT 7SM 30/21 A2968 RMK SLP051 T02970208 52010 IEM_DS3505
ZBAA,2000-07-09 13:00,ZBAA 091300Z AUTO 00000KT 6SM 28/23 A2974 RMK T02800230 IEM_DS3505
ZBAA,2000-07-09 14:00,ZBAA 091400Z AUTO 23002KT 7SM 29/23 A2974 RMK T02900230 IEM_DS3505
ZBAA,2000-07-09 15:00,ZBAA 091500Z AUTO 03002KT 6SM 28/20 A2974 RMK SLP067 T02850205 52016 IEM_DS3505
ZBAA,2000-07-09 16:00,ZBAA 091600Z AUTO 34002KT 6SM 25/21 A2974 RMK T02500210 IEM_DS3505
ZBAA,2000-07-09 17:00,ZBAA 091700Z AUTO 36002KT 5SM 25/22 A2977 RMK T02500220 IEM_DS3505
ZBAA,2000-07-09 18:00,ZBAA 091800Z AUTO 36002KT 6SM 26/19 A2974 RMK SLP068 T02650191 52001 IEM_DS3505
ZBAA,2000-07-09 19:00,ZBAA 091900Z AUTO 00000KT 3SM 25/24 A2974 RMK T02500240 IEM_DS3505
ZBAA,2000-07-09 20:00,ZBAA 092000Z AUTO 00000KT 4SM 25/23 A2974 RMK T02500230 IEM_DS3505
ZBAA,2000-07-09 21:00,ZBAA 092100Z AUTO 01002KT 4SM 25/24 A2977 RMK T02500240 IEM_DS3505
ZBAA,2000-07-09 22:00,ZBAA 092200Z AUTO 12002KT 3SM 26/23 A2977 RMK T02600230 IEM_DS3505
ZBAA,2000-07-09 23:00,ZBAA 092300Z AUTO 36002KT 2SM 26/23 A2977 RMK T02600230 IEM_DS3505
ZBAA,2000-07-10 00:00,ZBAA 100000Z AUTO 06006KT 4SM 27/22 A2977 RMK SLP078 T02660216 52009 IEM_DS3505
ZBAA,2000-07-10 01:00,ZBAA 100100Z AUTO 10006KT 2 1/2SM 27/24 A2980 RMK T02700240 IEM_DS3505
ZBAA,2000-07-10 02:00,ZBAA 100200Z AUTO 12004KT 3SM 29/24 A2977 RMK T02900240 IEM_DS3505
ZBAA,2000-07-10 03:00,ZBAA 100300Z AUTO 08006KT 5SM 30/22 A2977 RMK SLP078 T02960223 54000 IEM_DS3505
ZBAA,2000-07-10 04:00,ZBAA 100400Z AUTO 09004KT 3SM 31/25 A2977 RMK T03100250 IEM_DS3505
ZBAA,2000-07-10 05:00,ZBAA 100500Z AUTO 13004KT 31/24 A2974 RMK T03100240 IEM_DS3505
ZBAA,2000-07-10 06:00,ZBAA 100600Z AUTO 07004KT 6SM 32/21 A2974 RMK SLP061 T03250207 57017 IEM_DS3505
ZBAA,2000-07-10 07:00,ZBAA 100700Z AUTO 13006KT 5SM 33/24 A2971 RMK T03300240 IEM_DS3505
ZBAA,2000-07-10 08:00,ZBAA 100800Z AUTO 12006KT 5SM 33/23 A2971 RMK T03300230 IEM_DS3505
ZBAA,2000-07-10 09:00,ZBAA 100900Z AUTO 10006KT 6SM 32/20 A2971 RMK SLP049 T03220205 57012 IEM_DS3505
ZBAA,2000-07-10 10:00,ZBAA 101000Z AUTO 13008KT 5SM 31/22 A2968 RMK T03100220 IEM_DS3505
ZBAA,2000-07-10 11:00,ZBAA 101100Z AUTO 13008KT 6SM 30/22 A2971 RMK T03000220 IEM_DS3505
ZBAA,2000-07-10 12:00,ZBAA 101200Z AUTO 11002KT 9SM 28/20 A2971 RMK SLP056 T02840202 52007 IEM_DS3505
ZBAA,2000-07-10 13:00,ZBAA 101300Z AUTO 13004KT 6SM 27/22 A2971 RMK T02700220 IEM_DS3505
ZBAA,2000-07-10 14:00,ZBAA 101400Z AUTO 17004KT 6SM 26/23 A2971 RMK T02600230 IEM_DS3505
ZBAA,2000-07-10 15:00,ZBAA 101500Z AUTO 00000KT 6SM 26/20 A2971 RMK SLP055 T02640203 57001 IEM_DS3505
ZBAA,2000-07-10 16:00,ZBAA 101600Z AUTO 10004KT 5SM 25/23 A2971 RMK T02500230 IEM_DS3505
ZBAA,2000-07-10 17:00,ZBAA 101700Z AUTO 13004KT 4SM 25/23 A2968 RMK T02500230 IEM_DS3505
ZBAA,2000-07-10 18:00,ZBAA 101800Z AUTO 13002KT 5SM 25/22 A2968 RMK SLP046 T02540215 57009 IEM_DS3505
ZBAA,2000-07-10 19:00,ZBAA 101900Z AUTO 11002KT 3SM 25/24 A2965 RMK T02500240 IEM_DS3505
ZBAA,2000-07-10 20:00,ZBAA 102000Z AUTO 10002KT 3SM 25/24 A2965 RMK T02500240 IEM_DS3505
ZBAA,2000-07-10 21:00,ZBAA 102100Z AUTO 27002KT 4SM 25/22 A2965 RMK SLP033 T02470216 57013 IEM_DS3505
ZBAA,2000-07-10 22:00,ZBAA 102200Z AUTO 08002KT 2 1/2SM 24/24 A2965 RMK T02400240 IEM_DS3505
ZBAA,2000-07-10 23:00,ZBAA 102300Z AUTO 13002KT 2SM 25/24 A2965 RMK T02500240 IEM_DS3505
ZBAA,2000-07-11 00:00,ZBAA 110000Z AUTO 24004KT 5SM 26/21 A2965 RMK SLP034 T02600208 52001 IEM_DS3505
ZBAA,2000-07-11 01:00,ZBAA 110100Z AUTO 22006KT 7SM A2962 RMK SLP996 57023 IEM_DS3505
ZBAA,2000-07-11 02:00,ZBAA 110200Z AUTO 25004KT 2 1/2SM 29/25 A2962 RMK T02900250 IEM_DS3505
ZBAA,2000-07-11 03:00,ZBAA 110300Z AUTO 24006KT 5SM 31/22 A2959 RMK SLP020 T03060219 57014 IEM_DS3505
ZBAA,2000-07-11 04:00,ZBAA 110400Z AUTO 23006KT 2 1/2SM 32/25 A2956 RMK T03200250 IEM_DS3505
ZBAA,2000-07-11 05:00,ZBAA 110500Z AUTO 23008KT 2 1/2SM 34/25 A2956 RMK T03400250 IEM_DS3505
ZBAA,2000-07-11 06:00,ZBAA 110600Z AUTO 22006KT 7SM 35/21 A2953 RMK SLP996 T03490208 57023 IEM_DS3505
ZBAA,2000-07-11 07:00,ZBAA 110700Z AUTO 23006KT 36/24 A2950 RMK T03600240 IEM_DS3505
ZBAA,2000-07-11 08:00,ZBAA 110800Z AUTO 20008KT 37/24 A2947 RMK T03700240 IEM_DS3505
ZBAA,2000-07-11 09:00,ZBAA 110900Z AUTO 21008KT 9SM 36/21 A2947 RMK SLP983 T03610208 57013 IEM_DS3505
ZBAA,2000-07-11 10:00,ZBAA 111000Z AUTO 20008KT 6SM 36/24 A2950 RMK T03600240 IEM_DS3505
ZBAA,2000-07-11 11:00,ZBAA 111100Z AUTO 17006KT 6SM 34/23 A2950 RMK T03400230 IEM_DS3505
ZBAA,2000-07-11 12:00,ZBAA 111200Z AUTO 21004KT 9SM 33/20 A2950 RMK SLP991 T03290197 52008 IEM_DS3505
ZBAA,2000-07-11 13:00,ZBAA 111300Z AUTO 16004KT 6SM 32/24 A2953 RMK T03200240 IEM_DS3505
ZBAA,2000-07-11 14:00,ZBAA 111400Z AUTO 23004KT 6SM 32/25 A2953 RMK T03200250 IEM_DS3505
ZBAA,2000-07-11 15:00,ZBAA 111500Z AUTO 23006KT 7SM 30/21 A2953 RMK SLP995 T03050213 52004 IEM_DS3505
ZBAA,2000-07-11 16:00,ZBAA 111600Z AUTO 00000KT 4SM 28/25 A2953 RMK T02800250 IEM_DS3505
ZBAA,2000-07-11 17:00,ZBAA 111700Z AUTO 00000KT 4SM 27/25 A2953 RMK T02700250 IEM_DS3505
ZBAA,2000-07-11 18:00,ZBAA 111800Z AUTO 22002KT 7SM 28/21 A2953 RMK SLP997 T02750211 52002 IEM_DS3505
ZBAA,2000-07-11 19:00,ZBAA 111900Z AUTO 36002KT 4SM 26/25 A2953 RMK T02600250 IEM_DS3505
ZBAA,2000-07-11 20:00,ZBAA 112000Z AUTO 00000KT 4SM 26/24 A2953 RMK T02600240 IEM_DS3505
ZBAA,2000-07-11 21:00,ZBAA 112100Z AUTO 00000KT 4SM 26/22 A2956 RMK SLP003 T02580219 52006 IEM_DS3505
ZBAA,2000-07-11 22:00,ZBAA 112200Z AUTO 35002KT 2SM 26/24 A2956 RMK T02600240 IEM_DS3505
ZBAA,2000-07-11 23:00,ZBAA 112300Z AUTO 35004KT 2 1/2SM 28/25 A2959 RMK T02800250 IEM_DS3505
ZBAA,2000-07-12 00:00,ZBAA 120000Z AUTO 04004KT 4SM 31/22 A2959 RMK SLP016 T03100220 52013 IEM_DS3505
ZBAA,2000-07-12 01:00,ZBAA 120100Z AUTO 5SM 32/25 A2962 RMK T03200250 IEM_DS3505
ZBAA,2000-07-12 02:00,ZBAA 120200Z AUTO 09004KT 5SM 33/26 A2962 RMK T03300260 IEM_DS3505
ZBAA,2000-07-12 03:00,ZBAA 120300Z AUTO 08006KT 5SM 35/22 A2959 RMK SLP018 T03540224 52002 IEM_DS3505
ZBAA,2000-07-12 04:00,ZBAA 120400Z AUTO 13006KT 6SM 36/24 A2959 RMK T03600240 IEM_DS3505
ZBAA,2000-07-12 05:00,ZBAA 120500Z AUTO 15006KT 6SM 37/23 A2956 RMK T03700230 IEM_DS3505
ZBAA,2000-07-12 06:00,ZBAA 120600Z AUTO 17002KT 6SM 38/19 A2956 RMK SLP000 T03780188 57018 IEM_DS3505
ZBAA,2000-07-12 07:00,ZBAA 120700Z AUTO 15006KT 6SM 38/24 A2953 RMK T03800240 IEM_DS3505
ZBAA,2000-07-12 08:00,ZBAA 120800Z AUTO 18004G14KT 6SM 38/22 A2950 RMK T03800220 IEM_DS3505
ZBAA,2000-07-12 09:00,ZBAA 120900Z AUTO 19004KT 9SM 38/20 A2950 RMK SLP984 T03820196 57016 IEM_DS3505
ZBAA,2000-07-12 10:00,ZBAA 121000Z AUTO 13004KT 6SM 37/24 A2950 RMK T03700240 IEM_DS3505
ZBAA,2000-07-12 11:00,ZBAA 121100Z AUTO 10002KT 6SM 36/23 A2953 RMK T03600230 IEM_DS3505
ZBAA,2000-07-12 12:00,ZBAA 121200Z AUTO 00000KT 6SM 34/20 A2950 RMK SLP991 T03450201 52007 IEM_DS3505
ZBAA,2000-07-12 13:00,ZBAA 121300Z AUTO 22004KT 6SM 34/23 A2950 RMK T03400230 IEM_DS3505
ZBAA,2000-07-12 14:00,ZBAA 121400Z AUTO 18004KT 6SM 34/23 A2950 RMK T03400230 IEM_DS3505
ZBAA,2000-07-12 15:00,ZBAA 121500Z AUTO 22008KT 7SM 32/20 A2953 RMK SLP998 T03190205 52007 IEM_DS3505
ZBAA,2000-07-12 16:00,ZBAA 121600Z AUTO 19006KT 6SM 31/24 A2953 RMK T03100240 IEM_DS3505
ZBAA,2000-07-12 17:00,ZBAA 121700Z AUTO 19006KT 5SM 30/24 A2953 RMK T03000240 IEM_DS3505
ZBAA,2000-07-12 18:00,ZBAA 121800Z AUTO 22006KT 11SM 28/20 A2953 RMK SLP998 T02760199 54000 IEM_DS3505
ZBAA,2000-07-12 19:00,ZBAA 121900Z AUTO 18006KT 6SM 28/23 A2953 RMK T02800230 IEM_DS3505
ZBAA,2000-07-12 20:00,ZBAA 122000Z AUTO 13004KT 6SM 26/23 A2953 RMK T02600230 IEM_DS3505
ZBAA,2000-07-12 21:00,ZBAA 122100Z AUTO 21004KT 7SM 25/20 A2953 RMK SLP999 T02520205 52001 IEM_DS3505
ZBAA,2000-07-12 22:00,ZBAA 122200Z AUTO 14002KT 6SM 25/23 A2953 RMK T02500230 IEM_DS3505
ZBAA,2000-07-12 23:00,ZBAA 122300Z AUTO 15002KT 4SM 27/24 A2956 RMK T02700240 IEM_DS3505
ZBAA,2000-07-13 00:00,ZBAA 130000Z AUTO 24004KT 6SM 27/22 A2956 RMK SLP007 T02700215 52008 IEM_DS3505
ZBAA,2000-07-13 01:00,ZBAA 130100Z AUTO 5SM 29/24 A2956 RMK T02900240 IEM_DS3505
ZBAA,2000-07-13 02:00,ZBAA 130200Z AUTO 6SM 30/25 A2956 RMK T03000250 IEM_DS3505
ZBAA,2000-07-13 03:00,ZBAA 130300Z AUTO 14002KT 6SM 32/22 A2956 RMK SLP007 T03180216 54000 IEM_DS3505
ZBAA,2000-07-13 04:00,ZBAA 130400Z AUTO 15004KT 5SM 34/26 A2956 RMK T03400260 IEM_DS3505
ZBAA,2000-07-13 05:00,ZBAA 130500Z AUTO 16004KT 3SM 35/26 A2953 RMK T03500260 IEM_DS3505
ZBAA,2000-07-13 06:00,ZBAA 130600Z AUTO 19006KT 9SM 36/19 A2953 RMK SLP994 T03600194 57013 IEM_DS3505
ZBAA,2000-07-13 07:00,ZBAA 130700Z AUTO 17010KT 6SM 37/23 A2950 RMK T03700230 IEM_DS3505
ZBAA,2000-07-13 08:00,ZBAA 130800Z AUTO 17008KT 6SM 37/21 A2950 RMK T03700210 IEM_DS3505
ZBAA,2000-07-13 09:00,ZBAA 130900Z AUTO 21010KT 12SM 36/18 A2947 RMK SLP980 T03650176 57014 IEM_DS3505
ZBAA,2000-07-13 10:00,ZBAA 131000Z AUTO 18006KT 6SM 36/21 A2947 RMK T03600210 IEM_DS3505
ZBAA,2000-07-13 11:00,ZBAA 131100Z AUTO 20008KT 6SM 35/19 A2947 RMK T03500190 IEM_DS3505
ZBAA,2000-07-13 12:00,ZBAA 131200Z AUTO 21004KT 9SM 33/20 A2947 RMK SLP982 T03290197 52002 IEM_DS3505
ZBAA,2000-07-13 13:00,ZBAA 131300Z AUTO 15002KT 6SM 32/22 A2950 RMK T03200220 IEM_DS3505
ZBAA,2000-07-13 14:00,ZBAA 131400Z AUTO 17006KT 6SM 30/23 A2950 RMK T03000230 IEM_DS3505
ZBAA,2000-07-13 15:00,ZBAA 131500Z AUTO 22006KT 9SM 30/19 A2950 RMK SLP990 T03000194 52008 IEM_DS3505
ZBAA,2000-07-13 16:00,ZBAA 131600Z AUTO 22006KT 6SM 31/22 A2950 RMK T03100220 IEM_DS3505
ZBAA,2000-07-13 17:00,ZBAA 131700Z AUTO 12002KT 6SM 26/24 A2950 RMK T02600240 IEM_DS3505
ZBAA,2000-07-13 18:00,ZBAA 131800Z AUTO 21002KT 6SM 28/21 A2950 RMK SLP983 T02750208 57007 IEM_DS3505
ZBAA,2000-07-13 19:00,ZBAA 131900Z AUTO 00000KT 6SM 25/23 A2950 RMK T02500230 IEM_DS3505
ZBAA,2000-07-13 20:00,ZBAA 132000Z AUTO 00000KT 6SM 25/23 A2950 RMK T02500230 IEM_DS3505
ZBAA,2000-07-13 21:00,ZBAA 132100Z AUTO 00000KT 5SM 25/21 A2950 RMK SLP991 T02510212 52008 IEM_DS3505
ZBAA,2000-07-13 22:00,ZBAA 132200Z AUTO 00000KT 3SM 25/23 A2953 RMK T02500230 IEM_DS3505
ZBAA,2000-07-13 23:00,ZBAA 132300Z AUTO 00000KT 2 1/2SM 27/24 A2953 RMK T02700240 IEM_DS3505
ZBAA,2000-07-14 00:00,ZBAA 140000Z AUTO 22006KT 5SM 29/22 A2956 RMK SLP001 T02870217 52010 IEM_DS3505
ZBAA,2000-07-14 01:00,ZBAA 140100Z AUTO 2 1/2SM 31/25 A2956 RMK T03100250 IEM_DS3505
ZBAA,2000-07-14 03:00,ZBAA 140300Z AUTO 21008KT 6SM 34/20 A2956 RMK SLP002 T03380202 52001 IEM_DS3505
ZBAA,2000-07-14 04:00,ZBAA 140400Z AUTO 18006KT 35/23 A2956 RMK T03500230 IEM_DS3505
ZBAA,2000-07-14 05:00,ZBAA 140500Z AUTO 19008KT 36/23 A2953 RMK T03600230 IEM_DS3505
ZBAA,2000-07-14 06:00,ZBAA 140600Z AUTO 20006KT 12SM 37/19 A2953 RMK SLP994 T03690189 57008 IEM_DS3505
ZBAA,2000-07-14 07:00,ZBAA 140700Z AUTO 21008KT 6SM 38/20 A2950 RMK T03800200 IEM_DS3505
ZBAA,2000-07-14 08:00,ZBAA 140800Z AUTO 20010KT 6SM 38/21 A2950 RMK T03800210 IEM_DS3505
ZBAA,2000-07-14 09:00,ZBAA 140900Z AUTO 22008KT 12SM 37/18 A2950 RMK SLP983 T03700176 57011 IEM_DS3505
ZBAA,2000-07-14 10:00,ZBAA 141000Z AUTO 18008KT 6SM 36/22 A2947 RMK T03600220 IEM_DS3505
ZBAA,2000-07-14 11:00,ZBAA 141100Z AUTO 18008KT 6SM 35/22 A2950 RMK T03500220 IEM_DS3505
ZBAA,2000-07-14 12:00,ZBAA 141200Z AUTO 21004KT 9SM 33/20 A2950 RMK SLP989 T03310199 52006 IEM_DS3505
ZBAA,2000-07-14 13:00,ZBAA 141300Z AUTO 18006KT 5SM 32/23 A2953 RMK T03200230 IEM_DS3505
ZBAA,2000-07-14 14:00,ZBAA 141400Z AUTO 15004KT 5SM 31/23 A2953 RMK T03100230 IEM_DS3505
ZBAA,2000-07-14 15:00,ZBAA 141500Z AUTO 21004KT 12SM 31/21 A2956 RMK SLP002 T03070209 52013 IEM_DS3505
ZBAA,2000-07-14 16:00,ZBAA 141600Z AUTO 18004KT 5SM 30/24 A2956 RMK T03000240 IEM_DS3505
ZBAA,2000-07-14 17:00,ZBAA 141700Z AUTO 13002KT 4SM 29/24 A2953 RMK T02900240 IEM_DS3505
ZBAA,2000-07-14 18:00,ZBAA 141800Z AUTO 21004KT 6SM 29/22 A2956 RMK SLP004 T02860221 52002 IEM_DS3505
ZBAA,2000-07-14 19:00,ZBAA 141900Z AUTO 13004KT 4SM 27/25 A2956 RMK T02700250 IEM_DS3505
ZBAA,2000-07-14 20:00,ZBAA 142000Z AUTO 11006KT 4SM 27/25 A2959 RMK T02700250 IEM_DS3505
ZBAA,2000-07-14 21:00,ZBAA 142100Z AUTO 22002KT 4SM 27/23 A2959 RMK SLP015 T02680229 52011 IEM_DS3505
ZBAA,2000-07-14 22:00,ZBAA 142200Z AUTO 12002KT 2 1/2SM 27/25 A2959 RMK T02700250 IEM_DS3505
ZBAA,2000-07-14 23:00,ZBAA 142300Z AUTO 13004KT 2 1/2SM 28/26 A2962 RMK T02800260 IEM_DS3505
ZBAA,2000-07-15 00:00,ZBAA 150000Z AUTO 22004KT 5SM 29/23 A2962 RMK SLP028 T02900232 52013 IEM_DS3505
ZBAA,2000-07-15 01:00,ZBAA 150100Z AUTO 14002KT 2 1/2SM 30/26 A2962 RMK T03000260 IEM_DS3505
ZBAA,2000-07-15 02:00,ZBAA 150200Z AUTO 17004KT 2 1/2SM 31/27 A2965 RMK T03100270 IEM_DS3505
ZBAA,2000-07-15 03:00,ZBAA 150300Z AUTO 22004KT 4SM 30/24 A2965 RMK SLP034 T03030240 52005 IEM_DS3505
ZBAA,2000-07-15 04:00,ZBAA 150400Z AUTO 21004G16KT 3SM 32/26 A2965 RMK T03200260 IEM_DS3505
ZBAA,2000-07-15 05:00,ZBAA 150500Z AUTO 20004KT 33/24 A2962 RMK T03300240 IEM_DS3505
ZBAA,2000-07-15 06:00,ZBAA 150600Z AUTO 18004KT 7SM 32/22 A2962 RMK SLP028 T03200221 57006 IEM_DS3505
ZBAA,2000-07-15 07:00,ZBAA 150700Z AUTO 17004KT 32/26 A2962 RMK T03200260 IEM_DS3505
ZBAA,2000-07-15 08:00,ZBAA 150800Z AUTO 18006KT 5SM 32/25 A2962 RMK T03200250 IEM_DS3505
ZBAA,2000-07-15 09:00,ZBAA 150900Z AUTO 23004KT 9SM 32/20 A2962 RMK SLP025 T03160205 57003 IEM_DS3505
ZBAA,2000-07-15 11:00,ZBAA 151100Z AUTO 27004KT 7SM 32/24 A2962 RMK T03200240 IEM_DS3505
ZBAA,2000-07-15 12:00,ZBAA 151200Z AUTO 21004KT 9SM 28/20 A2962 RMK SLP028 T02840204 52003 IEM_DS3505
ZBAA,2000-07-15 13:00,ZBAA 151300Z AUTO 18008KT 6SM 28/24 A2965 RMK T02800240 IEM_DS3505
ZBAA,2000-07-15 14:00,ZBAA 151400Z AUTO 16002KT 7SM 27/24 A2965 RMK T02700240 IEM_DS3505
ZBAA,2000-07-15 15:00,ZBAA 151500Z AUTO 12002KT 7SM 28/24 A2965 RMK T02800240 IEM_DS3505
ZBAA,2000-07-15 16:00,ZBAA 151600Z AUTO 11004KT 7SM 28/24 A2965 RMK T02800240 IEM_DS3505
ZBAA,2000-07-15 17:00,ZBAA 151700Z AUTO 11004KT 7SM 27/24 A2965 RMK T02700240 IEM_DS3505
ZBAA,2000-07-15 18:00,ZBAA 151800Z AUTO 21002KT 6SM 26/22 A2962 RMK 60003 SLP029 T02590218 57006 IEM_DS3505
ZBAA,2000-07-15 19:00,ZBAA 151900Z AUTO 11006KT 6SM 26/24 A2962 RMK T02600240 IEM_DS3505
ZBAA,2000-07-15 20:00,ZBAA 152000Z AUTO 12006KT 4SM 24/24 A2962 RMK T02400240 IEM_DS3505
ZBAA,2000-07-15 22:00,ZBAA 152200Z AUTO 00000KT 6SM 24/14 A2977 RMK T02400140 IEM_DS3505
ZBAA,2000-07-15 23:00,ZBAA 152300Z AUTO 00000KT 4SM 24/24 A2965 RMK T02400240 IEM_DS3505
ZBAA,2000-07-16 00:00,ZBAA 160000Z AUTO 07002KT 7SM 25/21 A2965 RMK 60000 SLP036 T02470214 52008 IEM_DS3505
ZBAA,2000-07-16 01:00,ZBAA 160100Z AUTO 27006KT 4SM 25/24 A2965 RMK T02500240 IEM_DS3505
ZBAA,2000-07-16 02:00,ZBAA 160200Z AUTO 28004KT 4SM 25/24 A2968 RMK T02500240 IEM_DS3505
ZBAA,2000-07-16 03:00,ZBAA 160300Z AUTO 07004KT 6SM 27/21 A2968 RMK SLP041 T02660214 52005 IEM_DS3505
ZBAA,2000-07-16 04:00,ZBAA 160400Z AUTO 7SM RMK IEM_DS3505
ZBAA,2000-07-16 05:00,ZBAA 160500Z AUTO 10004KT 6SM 26/24 A2965 RMK T02600240 IEM_DS3505
ZBAA,2000-07-16 06:00,ZBAA 160600Z AUTO 09006KT 6SM 28/22 A2965 RMK 60003 SLP033 T02810216 57008 IEM_DS3505
ZBAA,2000-07-16 07:00,ZBAA 160700Z AUTO 12006KT 6SM 28/24 A2965 RMK T02800240 IEM_DS3505
ZBAA,2000-07-16 08:00,ZBAA 160800Z AUTO 13006KT 7SM 28/24 A2965 RMK T02800240 IEM_DS3505
ZBAA,2000-07-16 09:00,ZBAA 160900Z AUTO 13006KT 6SM 28/22 A2965 RMK SLP030 T02850220 57003 IEM_DS3505
ZBAA,2000-07-16 10:00,ZBAA 161000Z AUTO 11004KT 7SM 27/25 A2965 RMK T02700250 IEM_DS3505
ZBAA,2000-07-16 11:00,ZBAA 161100Z AUTO 12004KT 7SM 27/25 A2965 RMK T02700250 IEM_DS3505
ZBAA,2000-07-16 12:00,ZBAA 161200Z AUTO 18004KT 9SM 26/22 A2965 RMK SLP034 T02640225 52004 IEM_DS3505
ZBAA,2000-07-16 13:00,ZBAA 161300Z AUTO 13004KT 4SM 26/25 A2968 RMK T02600250 IEM_DS3505
ZBAA,2000-07-16 14:00,ZBAA 161400Z AUTO 07002KT 4SM 26/25 A2968 RMK T02600250 IEM_DS3505
ZBAA,2000-07-16 15:00,ZBAA 161500Z AUTO 06002KT 7SM 26/23 A2965 RMK SLP034 T02600229 54000 IEM_DS3505
ZBAA,2000-07-16 16:00,ZBAA 161600Z AUTO 11002KT 2 1/2SM 25/25 A2965 RMK T02500250 IEM_DS3505
ZBAA,2000-07-16 17:00,ZBAA 161700Z AUTO 05002KT 2SM 25/25 A2965 RMK T02500250 IEM_DS3505
ZBAA,2000-07-16 18:00,ZBAA 161800Z AUTO 13004KT 3SM 26/23 A2965 RMK 60003 SLP033 T02570232 57001 IEM_DS3505
ZBAA,2000-07-16 19:00,ZBAA 161900Z AUTO 00000KT 1 1/4SM 25/25 A2965 RMK T02500250 IEM_DS3505
ZBAA,2000-07-16 20:00,ZBAA 162000Z AUTO 08002KT 1 1/4SM 25/25 A2965 RMK T02500250 IEM_DS3505
ZBAA,2000-07-16 21:00,ZBAA 162100Z AUTO 08004KT 3SM 25/23 A2965 RMK 70001 SLP033 T02510226 54000 IEM_DS3505
ZBAA,2000-07-16 22:00,ZBAA 162200Z AUTO 13002KT 2 1/2SM 25/25 A2965 RMK T02500250 IEM_DS3505
ZBAA,2000-07-16 23:00,ZBAA 162300Z AUTO 10002KT 2SM 25/25 A2965 RMK T02500250 IEM_DS3505
ZBAA,2000-07-17 00:00,ZBAA 170000Z AUTO 09002KT 5SM 26/23 A2968 RMK 60003 SLP042 T02610228 52009 IEM_DS3505
ZBAA,2000-07-17 01:00,ZBAA 170100Z AUTO 00000KT 1 1/4SM 26/25 A2968 RMK T02600250 IEM_DS3505
ZBAA,2000-07-17 02:00,ZBAA 170200Z AUTO 2SM 28/25 A2965 RMK T02800250 IEM_DS3505
ZBAA,2000-07-17 03:00,ZBAA 170300Z AUTO 14002KT 6SM 30/22 A2965 RMK SLP032 T03010225 57010 IEM_DS3505
ZBAA,2000-07-17 04:00,ZBAA 170400Z AUTO 2 1/2SM 31/26 A2962 RMK T03100260 IEM_DS3505
ZBAA,2000-07-17 05:00,ZBAA 170500Z AUTO 3SM 32/25 A2962 RMK T03200250 IEM_DS3505
ZBAA,2000-07-17 06:00,ZBAA 170600Z AUTO 10004KT 6SM 33/22 A2959 RMK SLP017 T03280220 57015 IEM_DS3505
ZBAA,2000-07-17 07:00,ZBAA 170700Z AUTO 18004KT 3SM 33/25 A2959 RMK T03300250 IEM_DS3505
ZBAA,2000-07-17 08:00,ZBAA 170800Z AUTO 15004KT 33/25 A2956 RMK T03300250 IEM_DS3505
ZBAA,2000-07-17 09:00,ZBAA 170900Z AUTO 13006KT 7SM 33/22 A2956 RMK SLP004 T03290217 57013 IEM_DS3505
ZBAA,2000-07-17 10:00,ZBAA 171000Z AUTO 17006KT 4SM A2956 RMK IEM_DS3505
ZBAA,2000-07-17 11:00,ZBAA 171100Z AUTO 15008KT 4SM 31/26 A2956 RMK T03100260 IEM_DS3505
ZBAA,2000-07-17 12:00,ZBAA 171200Z AUTO 14004KT 6SM 30/24 A2959 RMK SLP015 T02980235 52011 IEM_DS3505
ZBAA,2000-07-17 13:00,ZBAA 171300Z AUTO 14004KT 3SM 29/26 A2959 RMK T02900260 IEM_DS3505
ZBAA,2000-07-17 14:00,ZBAA 171400Z AUTO 12004KT 2 1/2SM 28/26 A2962 RMK T02800260 IEM_DS3505
ZBAA,2000-07-17 15:00,ZBAA 171500Z AUTO 11002KT 6SM 28/24 A2962 RMK SLP025 T02790241 52010 IEM_DS3505
ZBAA,2000-07-17 16:00,ZBAA 171600Z AUTO 13006KT 2 1/2SM 27/26 A2962 RMK T02700260 IEM_DS3505
ZBAA,2000-07-17 17:00,ZBAA 171700Z AUTO 14004KT 2 1/2SM 26/25 A2962 RMK T02600250 IEM_DS3505
ZBAA,2000-07-17 18:00,ZBAA 171800Z AUTO 11002KT 5SM 26/24 A2962 RMK SLP027 T02640235 52002 IEM_DS3505
ZBAA,2000-07-17 19:00,ZBAA 171900Z AUTO 12004KT 2 1/2SM 26/25 A2962 RMK T02600250 IEM_DS3505
ZBAA,2000-07-17 20:00,ZBAA 172000Z AUTO 10002KT 2 1/2SM 25/25 A2962 RMK T02500250 IEM_DS3505
ZBAA,2000-07-17 21:00,ZBAA 172100Z AUTO 08002KT 4SM 25/23 A2962 RMK 70003 SLP024 T02540229 57003 IEM_DS3505
ZBAA,2000-07-17 22:00,ZBAA 172200Z AUTO 14002KT 1 1/2SM 25/25 A2962 RMK T02500250 IEM_DS3505
ZBAA,2000-07-17 23:00,ZBAA 172300Z AUTO 13002KT 1 1/2SM 26/25 A2962 RMK T02600250 IEM_DS3505
ZBAA,2000-07-18 00:00,ZBAA 180000Z AUTO 15004KT 4SM 26/23 A2965 RMK SLP039 T02630230 52015 IEM_DS3505
ZBAA,2000-07-18 01:00,ZBAA 180100Z AUTO 10002KT 2SM 27/26 A2965 RMK T02700260 IEM_DS3505
ZBAA,2000-07-18 02:00,ZBAA 180200Z AUTO 02004KT 2 1/2SM 29/26 A2962 RMK T02900260 IEM_DS3505
ZBAA,2000-07-18 03:00,ZBAA 180300Z AUTO 08008KT 6SM 31/22 A2959 RMK SLP019 T03110224 57020 IEM_DS3505
ZBAA,2000-07-18 04:00,ZBAA 180400Z AUTO 3SM 32/26 A2959 RMK T03200260 IEM_DS3505
ZBAA,2000-07-18 05:00,ZBAA 180500Z AUTO 15008KT 3SM 31/26 A2959 RMK T03100260 IEM_DS3505
ZBAA,2000-07-18 06:00,ZBAA 180600Z AUTO 12004KT 6SM 34/23 A2959 RMK SLP009 T03350229 57009 IEM_DS3505
ZBAA,2000-07-18 07:00,ZBAA 180700Z AUTO 15004KT 2SM 33/27 A2956 RMK T03300270 IEM_DS3505
ZBAA,2000-07-18 08:00,ZBAA 180800Z AUTO 13004KT 2SM 33/26 A2953 RMK T03300260 IEM_DS3505
ZBAA,2000-07-18 09:00,ZBAA 180900Z AUTO 15002KT 9SM 34/20 A2953 RMK SLP996 T03400200 57013 IEM_DS3505
ZBAA,2000-07-18 10:00,ZBAA 181000Z AUTO 13010KT 7SM 31/25 A2953 RMK T03100250 IEM_DS3505
ZBAA,2000-07-18 11:00,ZBAA 181100Z AUTO 13010KT 7SM 30/25 A2956 RMK T03000250 IEM_DS3505
ZBAA,2000-07-18 12:00,ZBAA 181200Z AUTO 11006KT 6SM 28/24 A2959 RMK 60020 SLP019 T02820238 52022 IEM_DS3505
ZBAA,2000-07-18 13:00,ZBAA 181300Z AUTO 13008KT 5SM 28/25 A2962 RMK T02800250 IEM_DS3505
ZBAA,2000-07-18 14:00,ZBAA 181400Z AUTO 13008KT 5SM 27/25 A2962 RMK T02700250 IEM_DS3505
ZBAA,2000-07-18 15:00,ZBAA 181500Z AUTO 09002KT 9SM 27/22 A2965 RMK SLP031 T02660222 52012 IEM_DS3505
ZBAA,2000-07-18 16:00,ZBAA 181600Z AUTO 13004KT 5SM 26/24 A2965 RMK T02600240 IEM_DS3505
ZBAA,2000-07-18 17:00,ZBAA 181700Z AUTO 13002KT 5SM 26/24 A2962 RMK T02600240 IEM_DS3505
ZBAA,2000-07-18 18:00,ZBAA 181800Z AUTO 13002KT 6SM 26/22 A2962 RMK SLP026 T02570222 57005 IEM_DS3505
ZBAA,2000-07-18 19:00,ZBAA 181900Z AUTO 13004KT 4SM 26/24 A2962 RMK T02600240 IEM_DS3505
ZBAA,2000-07-18 20:00,ZBAA 182000Z AUTO 16004KT 6SM 25/24 A2962 RMK T02500240 IEM_DS3505
ZBAA,2000-07-18 21:00,ZBAA 182100Z AUTO 09002KT 5SM 25/22 A2962 RMK 70020 SLP024 T02500221 57002 IEM_DS3505
ZBAA,2000-07-18 22:00,ZBAA 182200Z AUTO 14002KT 6SM 25/24 A2962 RMK T02500240 IEM_DS3505
ZBAA,2000-07-18 23:00,ZBAA 182300Z AUTO 15002KT 4SM 25/24 A2962 RMK T02500240 IEM_DS3505
ZBAA,2000-07-19 00:00,ZBAA 190000Z AUTO 06004KT 4SM 26/22 A2965 RMK 70020 SLP030 T02600223 52006 IEM_DS3505
ZBAA,2000-07-19 01:00,ZBAA 190100Z AUTO 17002KT 3SM 26/24 A2965 RMK T02600240 IEM_DS3505
ZBAA,2000-07-19 02:00,ZBAA 190200Z AUTO 15004KT 2SM 28/25 A2965 RMK T02800250 IEM_DS3505
ZBAA,2000-07-19 03:00,ZBAA 190300Z AUTO 11004KT 2 1/2SM 28/22 A2965 RMK SLP031 T02760223 52001 IEM_DS3505
ZBAA,2000-07-19 04:00,ZBAA 190400Z AUTO 2 1/2SM 29/24 A2962 RMK T02900240 IEM_DS3505
ZBAA,2000-07-19 05:00,ZBAA 190500Z AUTO 19002KT 3SM 29/24 A2962 RMK T02900240 IEM_DS3505
ZBAA,2000-07-19 06:00,ZBAA 190600Z AUTO 15006KT 2 1/2SM 29/22 A2962 RMK SLP024 T02910221 57007 IEM_DS3505
ZBAA,2000-07-19 07:00,ZBAA 190700Z AUTO 18004KT 2 1/2SM 29/25 A2962 RMK T02900250 IEM_DS3505
ZBAA,2000-07-19 08:00,ZBAA 190800Z AUTO 16004KT 2 1/2SM 30/25 A2959 RMK T03000250 IEM_DS3505
ZBAA,2000-07-19 09:00,ZBAA 190900Z AUTO 11002KT 4SM 30/22 A2956 RMK SLP009 T02980223 57015 IEM_DS3505
ZBAA,2000-07-19 10:00,ZBAA 191000Z AUTO 11002KT 2 1/2SM 30/25 A2956 RMK T03000250 IEM_DS3505
ZBAA,2000-07-19 11:00,ZBAA 191100Z AUTO 16002KT 2 1/2SM 29/25 A2956 RMK T02900250 IEM_DS3505
ZBAA,2000-07-19 12:00,ZBAA 191200Z AUTO 00000KT 5SM 29/23 A2959 RMK SLP013 T02890226 52004 IEM_DS3505
ZBAA,2000-07-19 13:00,ZBAA 191300Z AUTO 15002KT 2SM 28/25 A2962 RMK T02800250 IEM_DS3505
ZBAA,2000-07-19 14:00,ZBAA 191400Z AUTO 14002KT 2SM 28/25 A2962 RMK T02800250 IEM_DS3505
ZBAA,2000-07-19 15:00,ZBAA 191500Z AUTO 17004KT 6SM 28/23 A2962 RMK SLP026 T02800227 52013 IEM_DS3505
ZBAA,2000-07-19 16:00,ZBAA 191600Z AUTO 15004KT 3SM 27/25 A2962 RMK T02700250 IEM_DS3505
ZBAA,2000-07-19 17:00,ZBAA 191700Z AUTO 15004KT 4SM 27/25 A2962 RMK T02700250 IEM_DS3505
ZBAA,2000-07-19 18:00,ZBAA 191800Z AUTO 16004KT 5SM 26/23 A2959 RMK 60003 SLP019 T02650228 57007 IEM_DS3505
ZBAA,2000-07-19 19:00,ZBAA 191900Z AUTO 15004KT 3SM 26/25 A2959 RMK T02600250 IEM_DS3505
ZBAA,2000-07-19 20:00,ZBAA 192000Z AUTO 13004KT 3SM 25/24 A2959 RMK T02500240 IEM_DS3505
ZBAA,2000-07-19 21:00,ZBAA 192100Z AUTO 13004KT 3SM 25/24 A2962 RMK T02500240 IEM_DS3505
ZBAA,2000-07-19 22:00,ZBAA 192200Z AUTO 14006KT 2 1/2SM 25/25 A2962 RMK T02500250 IEM_DS3505
ZBAA,2000-07-19 23:00,ZBAA 192300Z AUTO 16004KT 2 1/2SM 25/24 A2959 RMK T02500240 IEM_DS3505
ZBAA,2000-07-20 00:00,ZBAA 200000Z AUTO 18004KT 2 1/2SM 26/23 A2959 RMK 60003 SLP022 T02590230 52002 IEM_DS3505
ZBAA,2000-07-20 01:00,ZBAA 200100Z AUTO 17006KT 4SM 26/25 A2962 RMK T02600250 IEM_DS3505
ZBAA,2000-07-20 02:00,ZBAA 200200Z AUTO 16004KT 4SM 27/25 A2959 RMK T02700250 IEM_DS3505
ZBAA,2000-07-20 03:00,ZBAA 200300Z AUTO 22006KT 6SM 28/23 A2959 RMK SLP020 T02850230 57002 IEM_DS3505
ZBAA,2000-07-20 04:00,ZBAA 200400Z AUTO 18008KT 4SM 29/25 A2959 RMK T02900250 IEM_DS3505
ZBAA,2000-07-20 05:00,ZBAA 200500Z AUTO 17008KT 4SM 30/26 A2959 RMK T03000260 IEM_DS3505
ZBAA,2000-07-20 06:00,ZBAA 200600Z AUTO 22006KT 7SM 31/24 A2956 RMK SLP008 T03080235 57012 IEM_DS3505
ZBAA,2000-07-20 07:00,ZBAA 200700Z AUTO 20008KT 4SM 31/26 A2956 RMK T03100260 IEM_DS3505
ZBAA,2000-07-20 08:00,ZBAA 200800Z AUTO 18008KT 5SM 31/26 A2953 RMK T03100260 IEM_DS3505
ZBAA,2000-07-20 09:00,ZBAA 200900Z AUTO 20006KT 6SM 32/24 A2953 RMK SLP994 T03180236 57014 IEM_DS3505
ZBAA,2000-07-20 10:00,ZBAA 201000Z AUTO 17004KT 2 1/2SM 31/27 A2953 RMK T03100270 IEM_DS3505
ZBAA,2000-07-20 11:00,ZBAA 201100Z AUTO 06002KT 2 1/2SM 30/27 A2953 RMK T03000270 IEM_DS3505
ZBAA,2000-07-20 12:00,ZBAA 201200Z AUTO 18002KT 6SM 31/24 A2953 RMK SLP998 T03120243 52004 IEM_DS3505
ZBAA,2000-07-20 13:00,ZBAA 201300Z AUTO 04002KT 1 1/2SM 29/26 A2953 RMK T02900260 IEM_DS3505
ZBAA,2000-07-20 14:00,ZBAA 201400Z AUTO 04002KT 1 1/2SM 29/26 A2953 RMK T02900260 IEM_DS3505
ZBAA,2000-07-20 15:00,ZBAA 201500Z AUTO 20002KT 4SM 30/24 A2953 RMK SLP999 T03040245 52002 IEM_DS3505
ZBAA,2000-07-20 16:00,ZBAA 201600Z AUTO 14004KT 1 1/2SM 30/27 A2953 RMK T03000270 IEM_DS3505
ZBAA,2000-07-20 17:00,ZBAA 201700Z AUTO 15004KT 1 1/2SM 30/27 A2953 RMK T03000270 IEM_DS3505
ZBAA,2000-07-20 18:00,ZBAA 201800Z AUTO 20008KT 6SM 30/24 A2950 RMK SLP989 T02990241 57010 IEM_DS3505
ZBAA,2000-07-20 19:00,ZBAA 201900Z AUTO 17006KT 2 1/2SM 30/26 A2950 RMK T03000260 IEM_DS3505
ZBAA,2000-07-20 20:00,ZBAA 202000Z AUTO 15004KT 2 1/2SM 29/26 A2950 RMK T02900260 IEM_DS3505
ZBAA,2000-07-20 21:00,ZBAA 202100Z AUTO 19006KT 5SM 28/24 A2950 RMK 70003 SLP983 T02830241 57006 IEM_DS3505
ZBAA,2000-07-20 22:00,ZBAA 202200Z AUTO 15006KT 2 1/2SM 28/26 A2950 RMK T02800260 IEM_DS3505
ZBAA,2000-07-20 23:00,ZBAA 202300Z AUTO 16002KT 2SM 28/27 A2953 RMK T02800270 IEM_DS3505
ZBAA,2000-07-21 00:00,ZBAA 210000Z AUTO 21004KT 3SM 28/25 A2953 RMK SLP995 T02820248 52012 IEM_DS3505
ZBAA,2000-07-21 01:00,ZBAA 210100Z AUTO 24004KT 1 1/2SM 29/27 A2953 RMK T02900270 IEM_DS3505
ZBAA,2000-07-21 02:00,ZBAA 210200Z AUTO 1 1/2SM 30/27 A2956 RMK T03000270 IEM_DS3505
ZBAA,2000-07-21 03:00,ZBAA 210300Z AUTO 01002KT 2 1/2SM 31/25 A2956 RMK SLP003 T03090253 52007 IEM_DS3505
ZBAA,2000-07-21 04:00,ZBAA 210400Z AUTO 2SM 33/28 A2953 RMK T03300280 IEM_DS3505
ZBAA,2000-07-21 05:00,ZBAA 210500Z AUTO 29008KT 2 1/2SM 33/26 A2953 RMK T03300260 IEM_DS3505
ZBAA,2000-07-21 06:00,ZBAA 210600Z AUTO 34006KT 12SM 34/16 A2953 RMK 60003 SLP991 T03370157 57011 IEM_DS3505
ZBAA,2000-07-21 07:00,ZBAA 210700Z AUTO 30012KT 6SM 34/20 A2950 RMK T03400200 IEM_DS3505
ZBAA,2000-07-21 08:00,ZBAA 210800Z AUTO 29010KT 7SM 32/20 A2950 RMK T03200200 IEM_DS3505
ZBAA,2000-07-21 09:00,ZBAA 210900Z AUTO 00000KT 12SM 33/17 A2950 RMK SLP982 T03260173 57009 IEM_DS3505
ZBAA,2000-07-21 10:00,ZBAA 211000Z AUTO 29008KT 6SM 31/19 A2950 RMK T03100190 IEM_DS3505
ZBAA,2000-07-21 11:00,ZBAA 211100Z AUTO 28008KT 6SM 31/19 A2950 RMK T03100190 IEM_DS3505
ZBAA,2000-07-21 12:00,ZBAA 211200Z AUTO 28004KT 10SM 31/16 A2953 RMK 60003 SLP993 T03070156 52011 IEM_DS3505
ZBAA,2000-07-21 13:00,ZBAA 211300Z AUTO 25004KT 6SM 29/19 A2953 RMK T02900190 IEM_DS3505
ZBAA,2000-07-21 14:00,ZBAA 211400Z AUTO 26004KT 6SM 29/19 A2953 RMK T02900190 IEM_DS3505
ZBAA,2000-07-21 15:00,ZBAA 211500Z AUTO 24002KT 10SM 28/16 A2953 RMK SLP999 T02840157 52005 IEM_DS3505
ZBAA,2000-07-21 16:00,ZBAA 211600Z AUTO 29008KT 6SM 28/18 A2953 RMK T02800180 IEM_DS3505
ZBAA,2000-07-21 17:00,ZBAA 211700Z AUTO 29008KT 6SM 29/16 A2953 RMK T02900160 IEM_DS3505
ZBAA,2000-07-21 18:00,ZBAA 211800Z AUTO 30004KT 12SM 27/15 A2953 RMK SLP992 T02730147 57006 IEM_DS3505
ZBAA,2000-07-21 19:00,ZBAA 211900Z AUTO 29008KT 6SM 28/16 A2953 RMK T02800160 IEM_DS3505
ZBAA,2000-07-21 20:00,ZBAA 212000Z AUTO 29006KT 6SM 27/16 A2953 RMK T02700160 IEM_DS3505
ZBAA,2000-07-21 21:00,ZBAA 212100Z AUTO 34004KT 6SM 26/13 A2953 RMK 70003 SLP992 T02560131 57001 IEM_DS3505
ZBAA,2000-07-21 22:00,ZBAA 212200Z AUTO 35006KT 6SM 23/18 A2953 RMK T02300180 IEM_DS3505
ZBAA,2000-07-21 23:00,ZBAA 212300Z AUTO 34006KT 6SM 26/19 A2953 RMK T02600190 IEM_DS3505
ZBAA,2000-07-22 00:00,ZBAA 220000Z AUTO 00000KT 12SM 30/13 A2956 RMK 70003 SLP999 T03030132 52008 IEM_DS3505
ZBAA,2000-07-22 01:00,ZBAA 220100Z AUTO 33006KT 6SM 30/17 A2953 RMK T03000170 IEM_DS3505
ZBAA,2000-07-22 02:00,ZBAA 220200Z AUTO 30008KT 6SM 32/15 A2953 RMK T03200150 IEM_DS3505
ZBAA,2000-07-22 03:00,ZBAA 220300Z AUTO 33008G23KT 19SM 35/08 A2950 RMK SLP987 T03460084 57012 IEM_DS3505
ZBAA,2000-07-22 04:00,ZBAA 220400Z AUTO 32017G27KT 6SM 35/11 A2950 RMK T03500110 IEM_DS3505
ZBAA,2000-07-22 05:00,ZBAA 220500Z AUTO 30017KT 6SM 36/12 A2947 RMK T03600120 IEM_DS3505
ZBAA,2000-07-22 06:00,ZBAA 220600Z AUTO 30010KT 19SM 37/07 A2944 RMK SLP971 T03670068 57016 IEM_DS3505
ZBAA,2000-07-22 07:00,ZBAA 220700Z AUTO 30016G25KT 6SM 37/12 A2944 RMK T03700120 IEM_DS3505
ZBAA,2000-07-22 08:00,ZBAA 220800Z AUTO 28014KT 6SM 37/10 A2941 RMK T03700100 IEM_DS3505
ZBAA,2000-07-22 09:00,ZBAA 220900Z AUTO 29010KT 19SM 37/06 A2938 RMK SLP951 T03740064 57020 IEM_DS3505
ZBAA,2000-07-22 10:00,ZBAA 221000Z AUTO 28010KT 6SM 36/13 A2938 RMK T03600130 IEM_DS3505
ZBAA,2000-07-22 11:00,ZBAA 221100Z AUTO 28008KT 6SM 35/13 A2938 RMK T03500130 IEM_DS3505
ZBAA,2000-07-22 12:00,ZBAA 221200Z AUTO 25004KT 19SM 34/08 A2941 RMK SLP958 T03350075 52007 IEM_DS3505
ZBAA,2000-07-22 13:00,ZBAA 221300Z AUTO 28008KT 6SM 31/14 A2944 RMK T03100140 IEM_DS3505
ZBAA,2000-07-22 14:00,ZBAA 221400Z AUTO 28010KT 6SM 30/13 A2944 RMK T03000130 IEM_DS3505
ZBAA,2000-07-22 15:00,ZBAA 221500Z AUTO 28004KT 12SM 29/09 A2944 RMK SLP969 T02880090 52011 IEM_DS3505
ZBAA,2000-07-22 16:00,ZBAA 221600Z AUTO 30010KT 6SM 30/10 A2944 RMK T03000100 IEM_DS3505
ZBAA,2000-07-22 17:00,ZBAA 221700Z AUTO 32012KT 6SM 30/09 A2944 RMK T03000090 IEM_DS3505
ZBAA,2000-07-22 18:00,ZBAA 221800Z AUTO 30004KT 19SM 30/06 A2941 RMK SLP957 T03040057 57012 IEM_DS3505
ZBAA,2000-07-22 19:00,ZBAA 221900Z AUTO 32012KT 6SM 30/07 A2941 RMK T03000070 IEM_DS3505
ZBAA,2000-07-22 20:00,ZBAA 222000Z AUTO 04004KT 6SM 25/09 A2944 RMK T02500090 IEM_DS3505
ZBAA,2000-07-22 21:00,ZBAA 222100Z AUTO 31006KT 11SM 28/06 A2944 RMK SLP966 T02800062 52009 IEM_DS3505
ZBAA,2000-07-22 22:00,ZBAA 222200Z AUTO 35004KT 6SM 24/11 A2944 RMK T02400110 IEM_DS3505
ZBAA,2000-07-22 23:00,ZBAA 222300Z AUTO 35002KT 6SM 25/18 A2944 RMK T02500180 IEM_DS3505
ZBAA,2000-07-23 00:00,ZBAA 230000Z AUTO 32002KT 9SM 30/07 A2947 RMK SLP973 T03020074 52007 IEM_DS3505
ZBAA,2000-07-23 01:00,ZBAA 230100Z AUTO 31002KT 6SM 30/14 A2947 RMK T03000140 IEM_DS3505
ZBAA,2000-07-23 02:00,ZBAA 230200Z AUTO 33004KT 6SM 33/14 A2947 RMK T03300140 IEM_DS3505
ZBAA,2000-07-23 03:00,ZBAA 230300Z AUTO 29004KT 19SM 35/05 A2947 RMK SLP970 T03460052 57003 IEM_DS3505
ZBAA,2000-07-23 04:00,ZBAA 230400Z AUTO 31008KT 6SM 35/10 A2944 RMK T03500100 IEM_DS3505
ZBAA,2000-07-23 05:00,ZBAA 230500Z AUTO 28010KT 6SM 36/11 A2941 RMK T03600110 IEM_DS3505
ZBAA,2000-07-23 06:00,ZBAA 230600Z AUTO 30008KT 19SM 36/07 A2938 RMK SLP954 T03640066 57016 IEM_DS3505
ZBAA,2000-07-23 07:00,ZBAA 230700Z AUTO 26010KT 7SM 37/11 A2938 RMK T03700110 IEM_DS3505
ZBAA,2000-07-23 08:00,ZBAA 230800Z AUTO 27012KT 7SM 37/11 A2935 RMK T03700110 IEM_DS3505
ZBAA,2000-07-23 09:00,ZBAA 230900Z AUTO 30008KT 19SM 37/05 A2935 RMK SLP936 T03740054 57018 IEM_DS3505
ZBAA,2000-07-23 10:00,ZBAA 231000Z AUTO 26008KT 7SM 37/11 A2935 RMK T03700110 IEM_DS3505
ZBAA,2000-07-23 11:00,ZBAA 231100Z AUTO 25006KT 6SM 35/14 A2935 RMK T03500140 IEM_DS3505
ZBAA,2000-07-23 12:00,ZBAA 231200Z AUTO 25004KT 12SM 32/10 A2938 RMK SLP949 T03250100 52013 IEM_DS3505
ZBAA,2000-07-23 13:00,ZBAA 231300Z AUTO 27006KT 6SM 32/13 A2941 RMK T03200130 IEM_DS3505
ZBAA,2000-07-23 14:00,ZBAA 231400Z AUTO 27004KT 6SM 30/14 A2941 RMK T03000140 IEM_DS3505
ZBAA,2000-07-23 15:00,ZBAA 231500Z AUTO 29002KT 12SM 30/11 A2944 RMK SLP963 T02990114 52014 IEM_DS3505
ZBAA,2000-07-23 16:00,ZBAA 231600Z AUTO 27006KT 6SM 26/15 A2944 RMK T02600150 IEM_DS3505
ZBAA,2000-07-23 17:00,ZBAA 231700Z AUTO 01002KT 6SM 26/12 A2944 RMK T02600120 IEM_DS3505
ZBAA,2000-07-23 18:00,ZBAA 231800Z AUTO 33002KT 6SM 26/11 A2947 RMK SLP970 T02590109 52007 IEM_DS3505
ZBAA,2000-07-23 19:00,ZBAA 231900Z AUTO 33004KT 6SM 24/12 A2947 RMK T02400120 IEM_DS3505
ZBAA,2000-07-23 20:00,ZBAA 232000Z AUTO 33004KT 6SM 25/10 A2950 RMK T02500100 IEM_DS3505
ZBAA,2000-07-23 21:00,ZBAA 232100Z AUTO 34004KT 19SM 28/05 A2950 RMK SLP981 T02810051 52011 IEM_DS3505
ZBAA,2000-07-23 22:00,ZBAA 232200Z AUTO 34004KT 6SM 24/10 A2953 RMK T02400100 IEM_DS3505
ZBAA,2000-07-23 23:00,ZBAA 232300Z AUTO 34004KT 6SM 27/12 A2956 RMK T02700120 IEM_DS3505
ZBAA,2000-07-24 00:00,ZBAA 240000Z AUTO 01004KT 16SM 31/09 A2956 RMK SLP005 T03060089 52024 IEM_DS3505
ZBAA,2000-07-24 01:00,ZBAA 240100Z AUTO 36006KT 6SM 31/13 A2956 RMK T03100130 IEM_DS3505
ZBAA,2000-07-24 02:00,ZBAA 240200Z AUTO 35004KT 6SM 32/13 A2959 RMK T03200130 IEM_DS3505
ZBAA,2000-07-24 03:00,ZBAA 240300Z AUTO 05006KT 19SM 34/08 A2956 RMK SLP009 T03450083 52004 IEM_DS3505
ZBAA,2000-07-24 04:00,ZBAA 240400Z AUTO 6SM 35/11 A2956 RMK T03500110 IEM_DS3505
ZBAA,2000-07-24 05:00,ZBAA 240500Z AUTO 29006KT 6SM 36/11 A2956 RMK T03600110 IEM_DS3505
ZBAA,2000-07-24 06:00,ZBAA 240600Z AUTO 27008KT 19SM 36/07 A2953 RMK SLP997 T03620073 57012 IEM_DS3505
ZBAA,2000-07-24 07:00,ZBAA 240700Z AUTO 6SM 36/10 A2953 RMK T03600100 IEM_DS3505
ZBAA,2000-07-24 08:00,ZBAA 240800Z AUTO 21008KT 6SM 36/10 A2950 RMK T03600100 IEM_DS3505
ZBAA,2000-07-24 09:00,ZBAA 240900Z AUTO 22008KT 16SM 36/08 A2950 RMK SLP988 T03560077 57009 IEM_DS3505
ZBAA,2000-07-24 10:00,ZBAA 241000Z AUTO 17006KT 6SM 35/14 A2950 RMK T03500140 IEM_DS3505
ZBAA,2000-07-24 11:00,ZBAA 241100Z AUTO 18008KT 6SM 33/13 A2950 RMK T03300130 IEM_DS3505
ZBAA,2000-07-24 12:00,ZBAA 241200Z AUTO 16004KT 11SM 32/12 A2953 RMK SLP995 T03170115 52007 IEM_DS3505
ZBAA,2000-07-24 13:00,ZBAA 241300Z AUTO 16006KT 6SM 29/15 A2956 RMK T02900150 IEM_DS3505
ZBAA,2000-07-24 14:00,ZBAA 241400Z AUTO 12004KT 6SM 28/17 A2956 RMK T02800170 IEM_DS3505
ZBAA,2000-07-24 15:00,ZBAA 241500Z AUTO 16004KT 12SM 28/13 A2959 RMK SLP013 T02780130 52017 IEM_DS3505
ZBAA,2000-07-24 16:00,ZBAA 241600Z AUTO 13004KT 6SM 26/19 A2959 RMK T02600190 IEM_DS3505
ZBAA,2000-07-24 17:00,ZBAA 241700Z AUTO 11004KT 6SM 25/19 A2962 RMK T02500190 IEM_DS3505
ZBAA,2000-07-24 18:00,ZBAA 241800Z AUTO 08004KT 10SM 25/17 A2959 RMK SLP019 T02490174 52007 IEM_DS3505
ZBAA,2000-07-24 19:00,ZBAA 241900Z AUTO 12006KT 6SM 25/20 A2959 RMK T02500200 IEM_DS3505
ZBAA,2000-07-24 20:00,ZBAA 242000Z AUTO 12004KT 6SM 25/19 A2962 RMK T02500190 IEM_DS3505
ZBAA,2000-07-24 21:00,ZBAA 242100Z AUTO 05002KT 9SM 24/18 A2962 RMK SLP019 T02430175 57001 IEM_DS3505
ZBAA,2000-07-24 22:00,ZBAA 242200Z AUTO 00000KT 6SM 25/19 A2962 RMK T02500190 IEM_DS3505
ZBAA,2000-07-24 23:00,ZBAA 242300Z AUTO 6SM 26/19 A2962 RMK T02600190 IEM_DS3505
ZBAA,2000-07-25 00:00,ZBAA 250000Z AUTO 09002KT 6SM 26/18 A2965 RMK SLP032 T02610175 52013 IEM_DS3505
ZBAA,2000-07-25 01:00,ZBAA 250100Z AUTO 12002KT 6SM 27/20 A2965 RMK T02700200 IEM_DS3505
ZBAA,2000-07-25 02:00,ZBAA 250200Z AUTO 14004KT 6SM 29/19 A2962 RMK T02900190 IEM_DS3505
ZBAA,2000-07-25 03:00,ZBAA 250300Z AUTO 05004KT 9SM 30/17 A2962 RMK SLP022 T03050169 57010 IEM_DS3505
ZBAA,2000-07-25 04:00,ZBAA 250400Z AUTO 6SM 32/20 A2959 RMK T03200200 IEM_DS3505
ZBAA,2000-07-25 05:00,ZBAA 250500Z AUTO 17006KT 6SM 34/18 A2956 RMK T03400180 IEM_DS3505
ZBAA,2000-07-25 06:00,ZBAA 250600Z AUTO 20004KT 16SM 35/13 A2956 RMK SLP003 T03510133 57018 IEM_DS3505
ZBAA,2000-07-25 07:00,ZBAA 250700Z AUTO 17010KT 6SM 35/16 A2953 RMK T03500160 IEM_DS3505
ZBAA,2000-07-25 08:00,ZBAA 250800Z AUTO 18010KT 6SM 35/16 A2953 RMK T03500160 IEM_DS3505
ZBAA,2000-07-25 09:00,ZBAA 250900Z AUTO 22006KT 12SM 34/16 A2953 RMK SLP991 T03400155 57013 IEM_DS3505
ZBAA,2000-07-25 10:00,ZBAA 251000Z AUTO 18006KT 6SM 34/17 A2950 RMK T03400170 IEM_DS3505
ZBAA,2000-07-25 11:00,ZBAA 251100Z AUTO 18006KT 6SM 32/18 A2950 RMK T03200180 IEM_DS3505
ZBAA,2000-07-25 12:00,ZBAA 251200Z AUTO 21004KT 6SM 31/19 A2950 RMK SLP991 T03110188 54000 IEM_DS3505
ZBAA,2000-07-25 13:00,ZBAA 251300Z AUTO 15004KT 6SM 29/21 A2953 RMK T02900210 IEM_DS3505
ZBAA,2000-07-25 14:00,ZBAA 251400Z AUTO 14002KT 6SM 29/22 A2956 RMK T02900220 IEM_DS3505
ZBAA,2000-07-25 15:00,ZBAA 251500Z AUTO 18002KT 6SM 29/20 A2956 RMK SLP002 T02900205 52011 IEM_DS3505
ZBAA,2000-07-25 16:00,ZBAA 251600Z AUTO 12004KT 6SM 28/21 A2956 RMK T02800210 IEM_DS3505
ZBAA,2000-07-25 17:00,ZBAA 251700Z AUTO 13004KT 6SM 27/22 A2956 RMK T02700220 IEM_DS3505
ZBAA,2000-07-25 18:00,ZBAA 251800Z AUTO 14004KT 6SM 28/20 A2953 RMK SLP996 T02760204 57005 IEM_DS3505
ZBAA,2000-07-25 19:00,ZBAA 251900Z AUTO 12002KT 6SM 26/23 A2953 RMK T02600230 IEM_DS3505
ZBAA,2000-07-25 20:00,ZBAA 252000Z AUTO 11004KT 6SM 26/23 A2953 RMK T02600230 IEM_DS3505
ZBAA,2000-07-25 21:00,ZBAA 252100Z AUTO 11002KT 5SM 26/21 A2953 RMK SLP997 T02650213 52001 IEM_DS3505
ZBAA,2000-07-25 22:00,ZBAA 252200Z AUTO 12002KT 4SM 26/23 A2953 RMK T02600230 IEM_DS3505
ZBAA,2000-07-25 23:00,ZBAA 252300Z AUTO 01002KT 3SM 26/23 A2956 RMK T02600230 IEM_DS3505
ZBAA,2000-07-26 00:00,ZBAA 260000Z AUTO 12002KT 3SM 28/23 A2956 RMK SLP000 T02820227 52003 IEM_DS3505
ZBAA,2000-07-26 01:00,ZBAA 260100Z AUTO 12002KT 3SM 28/24 A2956 RMK T02800240 IEM_DS3505
ZBAA,2000-07-26 02:00,ZBAA 260200Z AUTO 2 1/2SM 30/25 A2953 RMK T03000250 IEM_DS3505
ZBAA,2000-07-26 03:00,ZBAA 260300Z AUTO 18004KT 3SM 32/24 A2953 RMK SLP991 T03150239 57009 IEM_DS3505
ZBAA,2000-07-26 04:00,ZBAA 260400Z AUTO 18004KT 1 1/2SM 32/26 A2950 RMK T03200260 IEM_DS3505
ZBAA,2000-07-26 05:00,ZBAA 260500Z AUTO 17006KT 1 1/4SM 33/27 A2947 RMK T03300270 IEM_DS3505
ZBAA,2000-07-26 06:00,ZBAA 260600Z AUTO 20006KT 4SM 34/24 A2947 RMK SLP970 T03440237 57021 IEM_DS3505
ZBAA,2000-07-26 07:00,ZBAA 260700Z AUTO 19010KT 2SM 35/27 A2944 RMK T03500270 IEM_DS3505
ZBAA,2000-07-26 08:00,ZBAA 260800Z AUTO 17008KT 2 1/2SM 35/27 A2941 RMK T03500270 IEM_DS3505
ZBAA,2000-07-26 09:00,ZBAA 260900Z AUTO 21008KT 5SM 34/24 A2941 RMK SLP956 T03420242 57014 IEM_DS3505
ZBAA,2000-07-26 10:00,ZBAA 261000Z AUTO 17008KT 2 1/2SM 34/27 A2941 RMK T03400270 IEM_DS3505
ZBAA,2000-07-26 11:00,ZBAA 261100Z AUTO 17006KT 2 1/2SM 33/27 A2941 RMK T03300270 IEM_DS3505
ZBAA,2000-07-26 12:00,ZBAA 261200Z AUTO 18004KT 4SM 32/23 A2941 RMK SLP960 T03220232 52004 IEM_DS3505
ZBAA,2000-07-26 13:00,ZBAA 261300Z AUTO 15006KT 32/26 A2947 RMK T03200260 IEM_DS3505
ZBAA,2000-07-26 14:00,ZBAA 261400Z AUTO 1 1/4SM RMK IEM_DS3505
ZBAA,2000-07-26 15:00,ZBAA 261500Z AUTO 18004KT 6SM 31/22 A2947 RMK SLP973 T03060217 52013 IEM_DS3505
ZBAA,2000-07-26 16:00,ZBAA 261600Z AUTO 17008KT 5SM 30/25 A2944 RMK T03000250 IEM_DS3505
ZBAA,2000-07-26 17:00,ZBAA 261700Z AUTO 17008KT 5SM 30/24 A2944 RMK T03000240 IEM_DS3505
ZBAA,2000-07-26 18:00,ZBAA 261800Z AUTO 19004KT 6SM 29/20 A2944 RMK SLP960 T02870199 57013 IEM_DS3505
ZBAA,2000-07-26 19:00,ZBAA 261900Z AUTO 16006KT 5SM 28/23 A2941 RMK T02800230 IEM_DS3505
ZBAA,2000-07-26 20:00,ZBAA 262000Z AUTO 17006KT 5SM 28/23 A2941 RMK T02800230 IEM_DS3505
ZBAA,2000-07-26 21:00,ZBAA 262100Z AUTO 20004KT 6SM 28/21 A2941 RMK SLP954 T02780206 57006 IEM_DS3505
ZBAA,2000-07-26 22:00,ZBAA 262200Z AUTO 18004KT 4SM 28/24 A2941 RMK T02800240 IEM_DS3505
ZBAA,2000-07-26 23:00,ZBAA 262300Z AUTO 13002KT 3SM 28/24 A2941 RMK T02800240 IEM_DS3505
ZBAA,2000-07-27 00:00,ZBAA 270000Z AUTO 20006KT 5SM 28/21 A2941 RMK SLP950 T02850213 57004 IEM_DS3505
ZBAA,2000-07-27 01:00,ZBAA 270100Z AUTO 17006KT 3SM 28/24 A2941 RMK T02800240 IEM_DS3505
ZBAA,2000-07-27 02:00,ZBAA 270200Z AUTO 13002KT 3SM 28/26 A2941 RMK T02800260 IEM_DS3505
ZBAA,2000-07-27 03:00,ZBAA 270300Z AUTO 20004KT 6SM 30/22 A2941 RMK SLP949 T02960218 57001 IEM_DS3505
ZBAA,2000-07-27 04:00,ZBAA 270400Z AUTO 15004KT 3SM 30/25 A2938 RMK T03000250 IEM_DS3505
ZBAA,2000-07-27 05:00,ZBAA 270500Z AUTO 17004KT 3SM 31/26 A2938 RMK T03100260 IEM_DS3505
ZBAA,2000-07-27 06:00,ZBAA 270600Z AUTO 22004KT 6SM 32/23 A2941 RMK 60003 SLP950 T03170227 52001 IEM_DS3505
ZBAA,2000-07-27 07:00,ZBAA 270700Z AUTO 1 1/2SM 32/26 A2941 RMK T03200260 IEM_DS3505
ZBAA,2000-07-27 08:00,ZBAA 270800Z AUTO 36004KT 1 1/2SM 29/26 A2941 RMK T02900260 IEM_DS3505
ZBAA,2000-07-27 09:00,ZBAA 270900Z AUTO 01006KT 6SM 30/20 A2941 RMK SLP953 T03020202 52003 IEM_DS3505
ZBAA,2000-07-27 10:00,ZBAA 271000Z AUTO 12008KT 1 1/2SM 27/25 A2944 RMK T02700250 IEM_DS3505
ZBAA,2000-07-27 11:00,ZBAA 271100Z AUTO 12008KT 3SM 25/24 A2947 RMK T02500240 IEM_DS3505
ZBAA,2000-07-27 12:00,ZBAA 271200Z AUTO 08006KT 6SM 25/21 A2947 RMK 60003 SLP978 T02530214 52024 IEM_DS3505
ZBAA,2000-07-27 13:00,ZBAA 271300Z AUTO 13004KT 2SM 24/23 A2950 RMK T02400230 IEM_DS3505
ZBAA,2000-07-27 14:00,ZBAA 271400Z AUTO 11002KT 2SM 24/22 A2953 RMK T02400220 IEM_DS3505
ZBAA,2000-07-27 15:00,ZBAA 271500Z AUTO 08006KT 3SM 24/21 A2953 RMK SLP994 T02370206 52016 IEM_DS3505
ZBAA,2000-07-27 16:00,ZBAA 271600Z AUTO 09002KT 2SM 24/22 A2953 RMK T02400220 IEM_DS3505
ZBAA,2000-07-27 17:00,ZBAA 271700Z AUTO 16002KT 2SM 24/22 A2953 RMK T02400220 IEM_DS3505
ZBAA,2000-07-27 18:00,ZBAA 271800Z AUTO 07004KT 5SM 24/20 A2953 RMK SLP990 T02370196 57004 IEM_DS3505
ZBAA,2000-07-27 19:00,ZBAA 271900Z AUTO 12002KT 2SM 23/22 A2953 RMK T02300220 IEM_DS3505
ZBAA,2000-07-27 20:00,ZBAA 272000Z AUTO 00000KT 2SM 23/22 A2953 RMK T02300220 IEM_DS3505
ZBAA,2000-07-27 21:00,ZBAA 272100Z AUTO 00000KT 6SM 23/20 A2953 RMK 70003 SLP000 T02280196 52010 IEM_DS3505
ZBAA,2000-07-27 22:00,ZBAA 272200Z AUTO 1SM 23/22 A2956 RMK T02300220 IEM_DS3505
ZBAA,2000-07-27 23:00,ZBAA 272300Z AUTO 35004KT 2SM 25/23 A2959 RMK T02500230 IEM_DS3505
ZBAA,2000-07-28 00:00,ZBAA 280000Z AUTO 00000KT 6SM 29/12 A2959 RMK 70003 SLP019 T02870117 52019 IEM_DS3505
ZBAA,2000-07-28 02:00,ZBAA 280200Z AUTO 32010KT 6SM 32/09 A2962 RMK T03200090 IEM_DS3505
ZBAA,2000-07-28 03:00,ZBAA 280300Z AUTO 01006G17KT 19SM 33/02 A2959 RMK SLP018 T03330022 54000 IEM_DS3505
ZBAA,2000-07-28 04:00,ZBAA 280400Z AUTO 31006KT 6SM 34/07 A2959 RMK T03400070 IEM_DS3505
ZBAA,2000-07-28 05:00,ZBAA 280500Z AUTO 6SM 35/06 A2956 RMK T03500060 IEM_DS3505
ZBAA,2000-07-28 06:00,ZBAA 280600Z AUTO 36008G19KT 19SM 36/02 A2956 RMK SLP005 T03580020 57014 IEM_DS3505
ZBAA,2000-07-28 07:00,ZBAA 280700Z AUTO 28012G21KT 6SM 36/08 A2953 RMK T03600080 IEM_DS3505
ZBAA,2000-07-28 08:00,ZBAA 280800Z AUTO 29012KT 6SM 35/08 A2953 RMK T03500080 IEM_DS3505
ZBAA,2000-07-28 09:00,ZBAA 280900Z AUTO 29010KT 19SM 36/02 A2953 RMK SLP992 T03590021 57013 IEM_DS3505
ZBAA,2000-07-28 10:00,ZBAA 281000Z AUTO 28008KT 6SM 34/10 A2953 RMK T03400100 IEM_DS3505
ZBAA,2000-07-28 11:00,ZBAA 281100Z AUTO 25004KT 6SM 32/11 A2953 RMK T03200110 IEM_DS3505
ZBAA,2000-07-28 12:00,ZBAA 281200Z AUTO 25002KT 19SM 32/06 A2953 RMK SLP996 T03190055 52005 IEM_DS3505
ZBAA,2000-07-28 13:00,ZBAA 281300Z AUTO 29008KT 6SM 31/11 A2953 RMK T03100110 IEM_DS3505
ZBAA,2000-07-28 14:00,ZBAA 281400Z AUTO 27006KT 6SM 30/13 A2953 RMK T03000130 IEM_DS3505
ZBAA,2000-07-28 15:00,ZBAA 281500Z AUTO 26002KT 9SM 29/14 A2953 RMK SLP993 T02920138 57004 IEM_DS3505
ZBAA,2000-07-28 16:00,ZBAA 281600Z AUTO 26006KT 6SM 29/14 A2950 RMK T02900140 IEM_DS3505
ZBAA,2000-07-28 17:00,ZBAA 281700Z AUTO 29006KT 6SM 29/12 A2950 RMK T02900120 IEM_DS3505
ZBAA,2000-07-28 18:00,ZBAA 281800Z AUTO 30002KT 6SM 29/10 A2950 RMK SLP982 T02890101 57010 IEM_DS3505
ZBAA,2000-07-28 19:00,ZBAA 281900Z AUTO 29010KT 6SM 30/11 A2947 RMK T03000110 IEM_DS3505
ZBAA,2000-07-28 20:00,ZBAA 282000Z AUTO 29012KT 6SM 29/11 A2950 RMK T02900110 IEM_DS3505
ZBAA,2000-07-28 21:00,ZBAA 282100Z AUTO 33004KT 19SM 29/08 A2947 RMK SLP976 T02930084 57006 IEM_DS3505
ZBAA,2000-07-28 22:00,ZBAA 282200Z AUTO 31010KT 6SM 27/13 A2947 RMK T02700130 IEM_DS3505
ZBAA,2000-07-28 23:00,ZBAA 282300Z AUTO 31004KT 6SM 27/13 A2947 RMK T02700130 IEM_DS3505
ZBAA,2000-07-29 00:00,ZBAA 290000Z AUTO 28002KT 12SM 28/11 A2947 RMK 60003 SLP980 T02850107 52004 IEM_DS3505
ZBAA,2000-07-29 01:00,ZBAA 290100Z AUTO 29006KT 6SM 29/15 A2947 RMK T02900150 IEM_DS3505
ZBAA,2000-07-29 02:00,ZBAA 290200Z AUTO 30012KT 6SM 31/13 A2947 RMK T03100130 IEM_DS3505
ZBAA,2000-07-29 03:00,ZBAA 290300Z AUTO 30012KT 19SM 33/07 A2947 RMK SLP971 T03290070 57010 IEM_DS3505
ZBAA,2000-07-29 04:00,ZBAA 290400Z AUTO 31012KT 6SM 31/11 A2944 RMK T03100110 IEM_DS3505
ZBAA,2000-07-29 05:00,ZBAA 290500Z AUTO 29012KT 6SM 32/11 A2944 RMK T03200110 IEM_DS3505
ZBAA,2000-07-29 06:00,ZBAA 290600Z AUTO 31008KT 19SM 34/06 A2941 RMK SLP952 T03390055 57018 IEM_DS3505
ZBAA,2000-07-29 07:00,ZBAA 290700Z AUTO 28014G25KT 6SM 34/09 A2938 RMK T03400090 IEM_DS3505
ZBAA,2000-07-29 08:00,ZBAA 290800Z AUTO 27019KT 6SM 34/06 A2938 RMK T03400060 IEM_DS3505
ZBAA,2000-07-29 09:00,ZBAA 290900Z AUTO 23008KT 17SM 30/10 A2938 RMK SLP951 T03050105 57001 IEM_DS3505
ZBAA,2000-07-29 10:00,ZBAA 291000Z AUTO 32016KT 6SM 33/09 A2938 RMK T03300090 IEM_DS3505
ZBAA,2000-07-29 11:00,ZBAA 291100Z AUTO 31014G23KT 6SM 31/09 A2941 RMK T03100090 IEM_DS3505
ZBAA,2000-07-29 12:00,ZBAA 291200Z AUTO 29008KT 19SM 29/07 A2944 RMK 60003 SLP966 T02930067 52015 IEM_DS3505
ZBAA,2000-07-29 13:00,ZBAA 291300Z AUTO 29008KT 6SM 27/11 A2944 RMK T02700110 IEM_DS3505
ZBAA,2000-07-29 14:00,ZBAA 291400Z AUTO 28008KT 6SM 27/11 A2947 RMK T02700110 IEM_DS3505
ZBAA,2000-07-29 15:00,ZBAA 291500Z AUTO 26004KT 19SM 27/08 A2947 RMK SLP974 T02740083 52007 IEM_DS3505
ZBAA,2000-07-29 16:00,ZBAA 291600Z AUTO 29010G21KT 6SM 26/13 A2947 RMK T02600130 IEM_DS3505
ZBAA,2000-07-29 17:00,ZBAA 291700Z AUTO 28008KT 6SM 25/13 A2947 RMK T02500130 IEM_DS3505
ZBAA,2000-07-29 18:00,ZBAA 291800Z AUTO 29004KT 19SM 26/10 A2947 RMK SLP973 T02570103 54000 IEM_DS3505
ZBAA,2000-07-29 19:00,ZBAA 291900Z AUTO 29006KT 6SM 24/14 A2947 RMK T02400140 IEM_DS3505
ZBAA,2000-07-29 20:00,ZBAA 292000Z AUTO 31010KT 6SM 25/13 A2947 RMK T02500130 IEM_DS3505
ZBAA,2000-07-29 21:00,ZBAA 292100Z AUTO 32006KT 12SM 26/10 A2947 RMK 70003 SLP973 T02570099 57001 IEM_DS3505
ZBAA,2000-07-29 22:00,ZBAA 292200Z AUTO 30012KT 6SM 25/13 A2947 RMK T02500130 IEM_DS3505
ZBAA,2000-07-29 23:00,ZBAA 292300Z AUTO 30014KT 6SM 26/13 A2947 RMK T02600130 IEM_DS3505
ZBAA,2000-07-30 00:00,ZBAA 300000Z AUTO 35006KT 19SM 29/09 A2947 RMK 70003 SLP981 T02870094 52008 IEM_DS3505
ZBAA,2000-07-30 01:00,ZBAA 300100Z AUTO 31012KT 6SM 29/13 A2947 RMK T02900130 IEM_DS3505
ZBAA,2000-07-30 02:00,ZBAA 300200Z AUTO 30012KT 6SM 30/14 A2947 RMK T03000140 IEM_DS3505
ZBAA,2000-07-30 03:00,ZBAA 300300Z AUTO 33008KT 16SM 32/09 A2947 RMK SLP982 T03180094 52002 IEM_DS3505
ZBAA,2000-07-30 04:00,ZBAA 300400Z AUTO 32010KT 6SM 33/13 A2947 RMK T03300130 IEM_DS3505
ZBAA,2000-07-30 05:00,ZBAA 300500Z AUTO 32010G19KT 6SM 34/13 A2944 RMK T03400130 IEM_DS3505
ZBAA,2000-07-30 06:00,ZBAA 300600Z AUTO 34008KT 19SM 35/10 A2944 RMK SLP965 T03460098 57017 IEM_DS3505
ZBAA,2000-07-30 07:00,ZBAA 300700Z AUTO 33008KT 6SM 36/12 A2941 RMK T03600120 IEM_DS3505
ZBAA,2000-07-30 08:00,ZBAA 300800Z AUTO 34012KT 6SM 35/10 A2941 RMK T03500100 IEM_DS3505
ZBAA,2000-07-30 09:00,ZBAA 300900Z AUTO 36006KT 19SM 36/08 A2944 RMK SLP960 T03570077 57005 IEM_DS3505
ZBAA,2000-07-30 10:00,ZBAA 301000Z AUTO 01004KT 6SM 35/11 A2944 RMK T03500110 IEM_DS3505
ZBAA,2000-07-30 11:00,ZBAA 301100Z AUTO 00000KT 6SM 33/13 A2944 RMK T03300130 IEM_DS3505
ZBAA,2000-07-30 12:00,ZBAA 301200Z AUTO 00000KT 12SM 30/09 A2944 RMK SLP969 T03050089 52009 IEM_DS3505
ZBAA,2000-07-30 13:00,ZBAA 301300Z AUTO 00000KT 6SM 28/15 A2947 RMK T02800150 IEM_DS3505
ZBAA,2000-07-30 14:00,ZBAA 301400Z AUTO 22002KT 6SM 28/15 A2947 RMK T02800150 IEM_DS3505
ZBAA,2000-07-30 15:00,ZBAA 301500Z AUTO 25004KT 12SM 28/14 A2950 RMK SLP981 T02760136 52011 IEM_DS3505
ZBAA,2000-07-30 16:00,ZBAA 301600Z AUTO 10002KT 6SM 24/18 A2950 RMK T02400180 IEM_DS3505
ZBAA,2000-07-30 17:00,ZBAA 301700Z AUTO 01002KT 6SM 24/19 A2950 RMK T02400190 IEM_DS3505
ZBAA,2000-07-30 18:00,ZBAA 301800Z AUTO 01002KT 6SM 25/15 A2950 RMK SLP985 T02520150 52005 IEM_DS3505
ZBAA,2000-07-30 19:00,ZBAA 301900Z AUTO 00000KT 6SM 23/19 A2950 RMK T02300190 IEM_DS3505
ZBAA,2000-07-30 20:00,ZBAA 302000Z AUTO 36002KT 6SM 23/19 A2950 RMK T02300190 IEM_DS3505
ZBAA,2000-07-30 21:00,ZBAA 302100Z AUTO 01002KT 9SM 24/17 A2953 RMK SLP990 T02360174 52005 IEM_DS3505
ZBAA,2000-07-30 22:00,ZBAA 302200Z AUTO 01004KT 6SM 22/18 A2953 RMK T02200180 IEM_DS3505
ZBAA,2000-07-30 23:00,ZBAA 302300Z AUTO 34004KT 6SM 25/18 A2953 RMK T02500180 IEM_DS3505
ZBAA,2000-07-31 00:00,ZBAA 310000Z AUTO 34004KT 9SM 29/10 A2953 RMK SLP998 T02940100 52008 IEM_DS3505
ZBAA,2000-07-31 01:00,ZBAA 310100Z AUTO 36004KT 6SM 29/15 A2953 RMK T02900150 IEM_DS3505
ZBAA,2000-07-31 02:00,ZBAA 310200Z AUTO 6SM 32/14 A2956 RMK T03200140 IEM_DS3505
ZBAA,2000-07-31 03:00,ZBAA 310300Z AUTO 01006KT 19SM 34/08 A2953 RMK SLP997 T03380085 57001 IEM_DS3505
ZBAA,2000-07-31 04:00,ZBAA 310400Z AUTO 26006KT 6SM 35/12 A2953 RMK T03500120 IEM_DS3505
ZBAA,2000-07-31 05:00,ZBAA 310500Z AUTO 30006KT 6SM 36/11 A2950 RMK T03600110 IEM_DS3505
ZBAA,2000-07-31 06:00,ZBAA 310600Z AUTO 35004KT 19SM 36/06 A2950 RMK SLP984 T03650057 57013 IEM_DS3505
ZBAA,2000-07-31 07:00,ZBAA 310700Z AUTO 28010KT 6SM 37/07 A2950 RMK T03700070 IEM_DS3505
ZBAA,2000-07-31 08:00,ZBAA 310800Z AUTO 26008KT 6SM 37/09 A2947 RMK T03700090 IEM_DS3505
ZBAA,2000-07-31 09:00,ZBAA 310900Z AUTO 20004KT 19SM 36/08 A2947 RMK SLP978 T03570085 57006 IEM_DS3505
ZBAA,2000-07-31 10:00,ZBAA 311000Z AUTO 21004KT 7SM 36/06 A2947 RMK T03600060 IEM_DS3505
ZBAA,2000-07-31 11:00,ZBAA 311100Z AUTO 17008KT 7SM 33/14 A2950 RMK T03300140 IEM_DS3505
ZBAA,2000-07-31 12:00,ZBAA 311200Z AUTO 21002KT 6SM 31/12 A2953 RMK SLP994 T03090118 52016 IEM_DS3505
ZBAA,2000-07-31 13:00,ZBAA 311300Z AUTO 11010KT 6SM 30/17 A2956 RMK T03000170 IEM_DS3505
ZBAA,2000-07-31 14:00,ZBAA 311400Z AUTO 12010KT 6SM 28/16 A2959 RMK T02800160 IEM_DS3505
ZBAA,2000-07-31 15:00,ZBAA 311500Z AUTO 10008KT 6SM 26/16 A2962 RMK SLP023 T02600163 52028 IEM_DS3505
ZBAA,2000-07-31 16:00,ZBAA 311600Z AUTO 11008KT 6SM 25/16 A2962 RMK T02500160 IEM_DS3505
ZBAA,2000-07-31 17:00,ZBAA 311700Z AUTO 32004KT 6SM 25/16 A2965 RMK T02500160 IEM_DS3505
ZBAA,2000-07-31 18:00,ZBAA 311800Z AUTO 04002KT 9SM 24/15 A2965 RMK SLP032 T02350148 52009 IEM_DS3505
ZBAA,2000-07-31 19:00,ZBAA 311900Z AUTO 34002KT 6SM 23/16 A2965 RMK T02300160 IEM_DS3505
ZBAA,2000-07-31 20:00,ZBAA 312000Z AUTO 16002KT 6SM 22/17 A2965 RMK T02200170 IEM_DS3505
ZBAA,2000-07-31 21:00,ZBAA 312100Z AUTO 00000KT 9SM 23/15 A2965 RMK SLP039 T02280152 52007 IEM_DS3505
ZBAA,2000-07-31 22:00,ZBAA 312200Z AUTO 30004KT 6SM 23/18 A2968 RMK T02300180 IEM_DS3505
ZBAA,2000-07-31 23:00,ZBAA 312300Z AUTO 33004KT 6SM 24/18 A2968 RMK T02400180 IEM_DS3505
ZBAA,2000-08-01 00:00,ZBAA 010000Z AUTO 07006KT 9SM 26/15 A2971 RMK SLP052 T02570154 52013 IEM_DS3505
ZBAA,2000-08-01 01:00,ZBAA 010100Z AUTO 6SM 28/18 A2971 RMK T02800180 IEM_DS3505
ZBAA,2000-08-01 02:00,ZBAA 010200Z AUTO 6SM 29/19 A2971 RMK T02900190 IEM_DS3505
ZBAA,2000-08-01 03:00,ZBAA 010300Z AUTO 05002KT 9SM 29/19 A2968 RMK SLP047 T02940188 57005 IEM_DS3505
ZBAA,2000-08-01 04:00,ZBAA 010400Z AUTO 10006KT 6SM 32/21 A2968 RMK T03200210 IEM_DS3505
ZBAA,2000-08-01 05:00,ZBAA 010500Z AUTO 6SM 33/20 A2965 RMK T03300200 IEM_DS3505
ZBAA,2000-08-01 06:00,ZBAA 010600Z AUTO 23008KT 7SM 34/16 A2965 RMK SLP032 T03430162 57015 IEM_DS3505
ZBAA,2000-08-01 07:00,ZBAA 010700Z AUTO 17008KT 6SM 34/20 A2962 RMK T03400200 IEM_DS3505
ZBAA,2000-08-01 08:00,ZBAA 010800Z AUTO 20010KT 6SM 36/18 A2962 RMK T03600180 IEM_DS3505
ZBAA,2000-08-01 09:00,ZBAA 010900Z AUTO 19008KT 9SM 35/16 A2962 RMK SLP023 T03500159 57009 IEM_DS3505
ZBAA,2000-08-01 10:00,ZBAA 011000Z AUTO 18010KT 6SM 34/18 A2962 RMK T03400180 IEM_DS3505
ZBAA,2000-08-01 11:00,ZBAA 011100Z AUTO 16006KT 6SM 33/20 A2962 RMK T03300200 IEM_DS3505
ZBAA,2000-08-01 12:00,ZBAA 011200Z AUTO 18004KT 9SM 32/18 A2965 RMK SLP037 T03160182 52014 IEM_DS3505
ZBAA,2000-08-01 13:00,ZBAA 011300Z AUTO 18006KT 6SM 30/21 A2968 RMK T03000210 IEM_DS3505
ZBAA,2000-08-01 14:00,ZBAA 011400Z AUTO 19006KT 6SM 30/21 A2968 RMK T03000210 IEM_DS3505
ZBAA,2000-08-01 15:00,ZBAA 011500Z AUTO 16004KT 12SM 29/19 A2971 RMK SLP053 T02880194 52016 IEM_DS3505
ZBAA,2000-08-01 16:00,ZBAA 011600Z AUTO 14004KT 6SM 27/22 A2971 RMK T02700220 IEM_DS3505
ZBAA,2000-08-01 17:00,ZBAA 011700Z AUTO 14004KT 6SM 27/23 A2971 RMK T02700230 IEM_DS3505
ZBAA,2000-08-01 18:00,ZBAA 011800Z AUTO 14002KT 6SM 26/21 A2971 RMK SLP060 T02630206 52007 IEM_DS3505
ZBAA,2000-08-01 19:00,ZBAA 011900Z AUTO 13004KT 4SM 26/23 A2974 RMK T02600230 IEM_DS3505
ZBAA,2000-08-01 20:00,ZBAA 012000Z AUTO 13006KT 4SM 26/23 A2974 RMK T02600230 IEM_DS3505
ZBAA,2000-08-01 21:00,ZBAA 012100Z AUTO 08002KT 5SM 25/22 A2977 RMK SLP069 T02530218 52009 IEM_DS3505
ZBAA,2000-08-01 22:00,ZBAA 012200Z AUTO 14002KT 3SM 26/24 A2977 RMK T02600240 IEM_DS3505
ZBAA,2000-08-01 23:00,ZBAA 012300Z AUTO 12004KT 2 1/2SM 26/24 A2977 RMK T02600240 IEM_DS3505
ZBAA,2000-08-02 00:00,ZBAA 020000Z AUTO 11004KT 4SM 27/22 A2977 RMK SLP079 T02740224 52010 IEM_DS3505
ZBAA,2000-08-02 01:00,ZBAA 020100Z AUTO 12006KT 3SM 29/24 A2977 RMK T02900240 IEM_DS3505
ZBAA,2000-08-02 02:00,ZBAA 020200Z AUTO 13008KT 3SM 29/24 A2977 RMK T02900240 IEM_DS3505
ZBAA,2000-08-02 03:00,ZBAA 020300Z AUTO 22004KT 6SM 29/21 A2977 RMK SLP078 T02890214 57001 IEM_DS3505
ZBAA,2000-08-02 04:00,ZBAA 020400Z AUTO 31021G31KT 7SM 25/20 A2980 RMK T02500200 IEM_DS3505
ZBAA,2000-08-02 05:00,ZBAA 020500Z AUTO 25006G16KT 7SM 23/20 A2977 RMK T02300200 IEM_DS3505
ZBAA,2000-08-02 06:00,ZBAA 020600Z AUTO 35006KT 12SM 27/15 A2977 RMK SLP070 T02730150 57008 IEM_DS3505
ZBAA,2000-08-02 07:00,ZBAA 020700Z AUTO 10010KT 6SM 25/20 A2980 RMK T02500200 IEM_DS3505
ZBAA,2000-08-02 08:00,ZBAA 020800Z AUTO 09008KT 7SM 22/19 A2983 RMK T02200190 IEM_DS3505
ZBAA,2000-08-02 09:00,ZBAA 020900Z AUTO 07012KT 9SM 24/17 A2983 RMK SLP081 T02400168 52011 IEM_DS3505
ZBAA,2000-08-02 10:00,ZBAA 021000Z AUTO 29004KT 7SM 22/21 A2983 RMK T02200210 IEM_DS3505
ZBAA,2000-08-02 11:00,ZBAA 021100Z AUTO 03006KT 5SM 21/21 A2983 RMK T02100210 IEM_DS3505
ZBAA,2000-08-02 12:00,ZBAA 021200Z AUTO 33006KT 5SM 22/19 A2985 RMK 60146 SLP099 T02170193 52018 IEM_DS3505
ZBAA,2000-08-02 13:00,ZBAA 021300Z AUTO 36002KT 7SM 21/20 A2985 RMK T02100200 IEM_DS3505
ZBAA,2000-08-02 14:00,ZBAA 021400Z AUTO 35006KT 7SM 21/20 A2983 RMK T02100200 IEM_DS3505
ZBAA,2000-08-02 15:00,ZBAA 021500Z AUTO 29004KT 6SM 22/19 A2985 RMK SLP109 T02220186 52009 IEM_DS3505
ZBAA,2000-08-02 16:00,ZBAA 021600Z AUTO 32006KT 7SM 22/20 A2985 RMK T02200200 IEM_DS3505
ZBAA,2000-08-02 17:00,ZBAA 021700Z AUTO 02004KT 6SM 22/20 A2985 RMK T02200200 IEM_DS3505
ZBAA,2000-08-02 18:00,ZBAA 021800Z AUTO 02002KT 6SM 22/18 A2983 RMK 60000 SLP098 T02230181 57010 IEM_DS3505
ZBAA,2000-08-02 19:00,ZBAA 021900Z AUTO 36002KT 6SM 22/21 A2983 RMK T02200210 IEM_DS3505
ZBAA,2000-08-02 20:00,ZBAA 022000Z AUTO 01002KT 5SM 21/20 A2985 RMK T02100200 IEM_DS3505
ZBAA,2000-08-02 21:00,ZBAA 022100Z AUTO 03002KT 4SM 21/19 A2985 RMK 70149 SLP103 T02130187 52004 IEM_DS3505
ZBAA,2000-08-02 22:00,ZBAA 022200Z AUTO 04002KT 4SM 20/20 A2988 RMK T02000200 IEM_DS3505
ZBAA,2000-08-02 23:00,ZBAA 022300Z AUTO 03002KT 3SM 21/21 A2988 RMK T02100210 IEM_DS3505
ZBAA,2000-08-03 00:00,ZBAA 030000Z AUTO 03004KT 6SM 22/19 A2988 RMK 60000 SLP114 T02200186 52011 IEM_DS3505
ZBAA,2000-08-03 01:00,ZBAA 030100Z AUTO 35004KT 3SM 22/21 A2988 RMK T02200210 IEM_DS3505
ZBAA,2000-08-03 02:00,ZBAA 030200Z AUTO 36004KT 4SM 23/21 A2988 RMK T02300210 IEM_DS3505
ZBAA,2000-08-03 03:00,ZBAA 030300Z AUTO 02004KT 6SM 25/19 A2988 RMK SLP114 T02460190 52001 IEM_DS3505
ZBAA,2000-08-03 04:00,ZBAA 030400Z AUTO 36004KT 6SM 26/21 A2988 RMK T02600210 IEM_DS3505
ZBAA,2000-08-03 05:00,ZBAA 030500Z AUTO 6SM 26/20 A2988 RMK T02600200 IEM_DS3505
ZBAA,2000-08-03 06:00,ZBAA 030600Z AUTO 07004KT 6SM 26/18 A2988 RMK SLP115 T02590183 54000 IEM_DS3505
ZBAA,2000-08-03 07:00,ZBAA 030700Z AUTO 13002KT 5SM 26/21 A2988 RMK T02600210 IEM_DS3505
ZBAA,2000-08-03 08:00,ZBAA 030800Z AUTO 12002KT 5SM 26/21 A2988 RMK T02600210 IEM_DS3505
ZBAA,2000-08-03 09:00,ZBAA 030900Z AUTO 05002KT 12SM 27/17 A2985 RMK SLP103 T02740173 57012 IEM_DS3505
ZBAA,2000-08-03 10:00,ZBAA 031000Z AUTO 6SM 26/20 A2985 RMK T02600200 IEM_DS3505
ZBAA,2000-08-03 11:00,ZBAA 031100Z AUTO 03002KT 6SM 26/22 A2985 RMK T02600220 IEM_DS3505
ZBAA,2000-08-03 12:00,ZBAA 031200Z AUTO 03002KT 6SM 25/17 A2985 RMK SLP104 T02520174 52001 IEM_DS3505
ZBAA,2000-08-03 13:00,ZBAA 031300Z AUTO 01004KT 4SM 24/22 A2985 RMK T02400220 IEM_DS3505
ZBAA,2000-08-03 14:00,ZBAA 031400Z AUTO 34004KT 4SM 24/22 A2988 RMK T02400220 IEM_DS3505
ZBAA,2000-08-03 15:00,ZBAA 031500Z AUTO 06002KT 4SM 24/20 A2985 RMK SLP109 T02370200 52005 IEM_DS3505
ZBAA,2000-08-03 16:00,ZBAA 031600Z AUTO 33002KT 3SM 23/22 A2988 RMK T02300220 IEM_DS3505
ZBAA,2000-08-03 17:00,ZBAA 031700Z AUTO 36002KT 3SM 22/22 A2988 RMK T02200220 IEM_DS3505
ZBAA,2000-08-03 18:00,ZBAA 031800Z AUTO 03002KT 5SM 24/19 A2988 RMK SLP111 T02350190 52002 IEM_DS3505
ZBAA,2000-08-03 19:00,ZBAA 031900Z AUTO 34002KT 3SM 22/21 A2988 RMK T02200210 IEM_DS3505
ZBAA,2000-08-03 20:00,ZBAA 032000Z AUTO 36002KT 3SM 22/21 A2988 RMK T02200210 IEM_DS3505
ZBAA,2000-08-03 21:00,ZBAA 032100Z AUTO 01002KT 5SM 23/19 A2988 RMK 70003 SLP121 T02260194 52010 IEM_DS3505
ZBAA,2000-08-03 22:00,ZBAA 032200Z AUTO 30002KT 3SM 22/21 A2991 RMK T02200210 IEM_DS3505
ZBAA,2000-08-03 23:00,ZBAA 032300Z AUTO 34002KT 3SM 23/22 A2991 RMK T02300220 IEM_DS3505
ZBAA,2000-08-04 00:00,ZBAA 040000Z AUTO 02002KT 5SM 24/20 A2991 RMK SLP129 T02450202 52008 IEM_DS3505
ZBAA,2000-08-04 01:00,ZBAA 040100Z AUTO 00000KT 3SM 26/22 A2991 RMK T02600220 IEM_DS3505
ZBAA,2000-08-04 02:00,ZBAA 040200Z AUTO 3SM 27/23 A2991 RMK T02700230 IEM_DS3505
ZBAA,2000-08-04 03:00,ZBAA 040300Z AUTO 36002KT 4SM 28/18 A2991 RMK SLP125 T02810185 57004 IEM_DS3505
ZBAA,2000-08-04 04:00,ZBAA 040400Z AUTO 07002KT 2 1/2SM 29/22 A2991 RMK T02900220 IEM_DS3505
ZBAA,2000-08-04 05:00,ZBAA 040500Z AUTO 2 1/2SM 29/22 A2988 RMK T02900220 IEM_DS3505
ZBAA,2000-08-04 06:00,ZBAA 040600Z AUTO 14004KT 7SM 30/17 A2988 RMK SLP113 T03030174 57011 IEM_DS3505
ZBAA,2000-08-04 07:00,ZBAA 040700Z AUTO 31/21 A2985 RMK T03100210 IEM_DS3505
ZBAA,2000-08-04 08:00,ZBAA 040800Z AUTO 17002KT 31/22 A2985 RMK T03100220 IEM_DS3505
ZBAA,2000-08-04 09:00,ZBAA 040900Z AUTO 13004KT 6SM 30/20 A2985 RMK SLP104 T02960196 57009 IEM_DS3505
ZBAA,2000-08-04 10:00,ZBAA 041000Z AUTO 00000KT 3SM 29/24 A2983 RMK T02900240 IEM_DS3505
ZBAA,2000-08-04 11:00,ZBAA 041100Z AUTO 18006KT 29/22 A2985 RMK T02900220 IEM_DS3505
ZBAA,2000-08-04 12:00,ZBAA 041200Z AUTO 07002KT 7SM 27/18 A2985 RMK SLP104 T02730180 54000 IEM_DS3505
ZBAA,2000-08-04 13:00,ZBAA 041300Z AUTO 13002KT 4SM 25/23 A2985 RMK T02500230 IEM_DS3505
ZBAA,2000-08-04 14:00,ZBAA 041400Z AUTO 12002KT 3SM 25/23 A2988 RMK T02500230 IEM_DS3505
ZBAA,2000-08-04 15:00,ZBAA 041500Z AUTO 00000KT 6SM 25/19 A2988 RMK SLP116 T02540191 52012 IEM_DS3505
ZBAA,2000-08-04 16:00,ZBAA 041600Z AUTO 00000KT 2 1/2SM 24/23 A2988 RMK T02400230 IEM_DS3505
ZBAA,2000-08-04 17:00,ZBAA 041700Z AUTO 10002KT 2 1/2SM 23/22 A2988 RMK T02300220 IEM_DS3505
ZBAA,2000-08-04 18:00,ZBAA 041800Z AUTO 00000KT 5SM 24/20 A2988 RMK SLP115 T02440197 57001 IEM_DS3505
ZBAA,2000-08-04 19:00,ZBAA 041900Z AUTO 00000KT 2SM 23/22 A2988 RMK T02300220 IEM_DS3505
ZBAA,2000-08-04 20:00,ZBAA 042000Z AUTO 00000KT 1 1/4SM 22/22 A2988 RMK T02200220 IEM_DS3505
ZBAA,2000-08-04 21:00,ZBAA 042100Z AUTO 04002KT 4SM 24/20 A2991 RMK SLP120 T02360205 52005 IEM_DS3505
ZBAA,2000-08-04 22:00,ZBAA 042200Z AUTO 35002KT 1 1/4SM 22/22 A2991 RMK T02200220 IEM_DS3505
ZBAA,2000-08-04 23:00,ZBAA 042300Z AUTO 00000KT 1 1/4SM 24/23 A2991 RMK T02400230 IEM_DS3505
ZBAA,2000-08-05 00:00,ZBAA 050000Z AUTO 10002KT 4SM 25/22 A2991 RMK SLP125 T02490222 52005 IEM_DS3505
ZBAA,2000-08-05 01:00,ZBAA 050100Z AUTO 00000KT 1 1/2SM 25/24 A2991 RMK T02500240 IEM_DS3505
ZBAA,2000-08-05 02:00,ZBAA 050200Z AUTO 1 1/2SM 27/24 A2991 RMK T02700240 IEM_DS3505
ZBAA,2000-08-05 03:00,ZBAA 050300Z AUTO 11002KT 5SM 28/21 A2991 RMK SLP125 T02850213 54000 IEM_DS3505
ZBAA,2000-08-05 04:00,ZBAA 050400Z AUTO 2SM 29/23 A2991 RMK T02900230 IEM_DS3505
ZBAA,2000-08-05 05:00,ZBAA 050500Z AUTO 12002KT 2 1/2SM 29/24 A2988 RMK T02900240 IEM_DS3505
ZBAA,2000-08-05 06:00,ZBAA 050600Z AUTO 22002KT 6SM 30/19 A2988 RMK SLP113 T02960193 57012 IEM_DS3505
ZBAA,2000-08-05 07:00,ZBAA 050700Z AUTO 18006KT 3SM 30/21 A2985 RMK T03000210 IEM_DS3505
ZBAA,2000-08-05 08:00,ZBAA 050800Z AUTO 16002KT 2 1/2SM 31/22 A2983 RMK T03100220 IEM_DS3505
ZBAA,2000-08-05 09:00,ZBAA 050900Z AUTO 21002KT 6SM 30/20 A2983 RMK SLP099 T02980204 57014 IEM_DS3505
ZBAA,2000-08-05 10:00,ZBAA 051000Z AUTO 19004KT 3SM 30/23 A2983 RMK T03000230 IEM_DS3505
ZBAA,2000-08-05 11:00,ZBAA 051100Z AUTO 16002KT 3SM 28/23 A2983 RMK T02800230 IEM_DS3505
ZBAA,2000-08-05 12:00,ZBAA 051200Z AUTO 00000KT 5SM 28/21 A2985 RMK SLP101 T02790212 52002 IEM_DS3505
ZBAA,2000-08-05 13:00,ZBAA 051300Z AUTO 15002KT 2 1/2SM 27/23 A2985 RMK T02700230 IEM_DS3505
ZBAA,2000-08-05 14:00,ZBAA 051400Z AUTO 13002KT 2 1/2SM 26/24 A2985 RMK T02600240 IEM_DS3505
ZBAA,2000-08-05 15:00,ZBAA 051500Z AUTO 00000KT 4SM 27/21 A2985 RMK SLP109 T02670210 52008 IEM_DS3505
ZBAA,2000-08-05 16:00,ZBAA 051600Z AUTO 14002KT 2SM 26/23 A2985 RMK T02600230 IEM_DS3505
ZBAA,2000-08-05 17:00,ZBAA 051700Z AUTO 13002KT 2SM 25/23 A2985 RMK T02500230 IEM_DS3505
ZBAA,2000-08-05 18:00,ZBAA 051800Z AUTO 20002KT 4SM 25/21 A2985 RMK SLP108 T02530210 57001 IEM_DS3505
ZBAA,2000-08-05 19:00,ZBAA 051900Z AUTO 09002KT 1 1/4SM 24/23 A2985 RMK T02400230 IEM_DS3505
ZBAA,2000-08-05 20:00,ZBAA 052000Z AUTO 00000KT 1 1/4SM 24/23 A2985 RMK T02400230 IEM_DS3505
ZBAA,2000-08-05 21:00,ZBAA 052100Z AUTO 13002KT 5SM 24/21 A2985 RMK SLP102 T02430214 57006 IEM_DS3505
ZBAA,2000-08-05 22:00,ZBAA 052200Z AUTO 11002KT 1 1/4SM 23/23 A2985 RMK T02300230 IEM_DS3505
ZBAA,2000-08-05 23:00,ZBAA 052300Z AUTO 07002KT 1 1/2SM 24/24 A2985 RMK T02400240 IEM_DS3505
ZBAA,2000-08-06 00:00,ZBAA 060000Z AUTO 15002KT 6SM 26/22 A2985 RMK SLP107 T02580217 52005 IEM_DS3505
ZBAA,2000-08-06 01:00,ZBAA 060100Z AUTO 00000KT 2SM 27/25 A2985 RMK T02700250 IEM_DS3505
ZBAA,2000-08-06 02:00,ZBAA 060200Z AUTO 2 1/2SM 28/24 A2985 RMK T02800240 IEM_DS3505
ZBAA,2000-08-06 03:00,ZBAA 060300Z AUTO 15002KT 6SM 29/21 A2985 RMK SLP108 T02860209 52001 IEM_DS3505
ZBAA,2000-08-06 04:00,ZBAA 060400Z AUTO 3SM 30/23 A2985 RMK T03000230 IEM_DS3505
ZBAA,2000-08-06 05:00,ZBAA 060500Z AUTO 18006KT 30/23 A2983 RMK T03000230 IEM_DS3505
ZBAA,2000-08-06 06:00,ZBAA 060600Z AUTO 26008KT 5SM 27/21 A2983 RMK 60003 SLP100 T02730211 57008 IEM_DS3505
ZBAA,2000-08-06 07:00,ZBAA 060700Z AUTO 21008G19KT 2 1/2SM 29/24 A2983 RMK T02900240 IEM_DS3505
ZBAA,2000-08-06 08:00,ZBAA 060800Z AUTO 21006KT 5SM 29/22 A2983 RMK T02900220 IEM_DS3505
ZBAA,2000-08-06 09:00,ZBAA 060900Z AUTO 21006KT 6SM 27/19 A2983 RMK SLP095 T02670191 57005 IEM_DS3505
ZBAA,2000-08-06 10:00,ZBAA 061000Z AUTO 19006KT 28/21 A2983 RMK T02800210 IEM_DS3505
ZBAA,2000-08-06 11:00,ZBAA 061100Z AUTO 22010KT 5SM 26/19 A2983 RMK T02600190 IEM_DS3505
ZBAA,2000-08-06 12:00,ZBAA 061200Z AUTO 22006KT 5SM 23/19 A2983 RMK 60003 SLP101 T02270193 52005 IEM_DS3505
ZBAA,2000-08-06 13:00,ZBAA 061300Z AUTO 19006KT 4SM 25/20 A2985 RMK T02500200 IEM_DS3505
ZBAA,2000-08-06 14:00,ZBAA 061400Z AUTO 23002KT 4SM 25/20 A2983 RMK T02500200 IEM_DS3505
ZBAA,2000-08-06 15:00,ZBAA 061500Z AUTO 20002KT 6SM 22/18 A2983 RMK SLP101 T02240184 54000 IEM_DS3505
ZBAA,2000-08-06 16:00,ZBAA 061600Z AUTO 12004KT 4SM 23/21 A2985 RMK T02300210 IEM_DS3505
ZBAA,2000-08-06 17:00,ZBAA 061700Z AUTO 11002KT 3SM 23/21 A2985 RMK T02300210 IEM_DS3505
ZBAA,2000-08-06 18:00,ZBAA 061800Z AUTO 14002KT 6SM 22/19 A2985 RMK 60003 SLP103 T02220190 52003 IEM_DS3505
ZBAA,2000-08-06 19:00,ZBAA 061900Z AUTO 14002KT 2 1/2SM 23/21 A2985 RMK T02300210 IEM_DS3505
ZBAA,2000-08-06 20:00,ZBAA 062000Z AUTO 15004KT 2 1/2SM 22/21 A2985 RMK T02200210 IEM_DS3505
ZBAA,2000-08-06 21:00,ZBAA 062100Z AUTO 00000KT 4SM 22/19 A2985 RMK 70003 SLP106 T02210193 52002 IEM_DS3505
ZBAA,2000-08-06 22:00,ZBAA 062200Z AUTO 00000KT 2SM 22/21 A2985 RMK T02200210 IEM_DS3505
ZBAA,2000-08-06 23:00,ZBAA 062300Z AUTO 00000KT 2SM 23/22 A2985 RMK T02300220 IEM_DS3505
ZBAA,2000-08-07 00:00,ZBAA 070000Z AUTO 22004KT 5SM 24/20 A2988 RMK 70003 SLP114 T02370196 52008 IEM_DS3505
ZBAA,2000-08-07 01:00,ZBAA 070100Z AUTO 3SM 25/22 A2988 RMK T02500220 IEM_DS3505
ZBAA,2000-08-07 02:00,ZBAA 070200Z AUTO 5SM 27/21 A2985 RMK T02700210 IEM_DS3505
ZBAA,2000-08-07 03:00,ZBAA 070300Z AUTO 21004KT 5SM 27/19 A2985 RMK SLP108 T02730189 57005 IEM_DS3505
ZBAA,2000-08-07 04:00,ZBAA 070400Z AUTO 14004KT 29/22 A2985 RMK T02900220 IEM_DS3505
ZBAA,2000-08-07 05:00,ZBAA 070500Z AUTO 5SM 29/20 A2983 RMK T02900200 IEM_DS3505
ZBAA,2000-08-07 06:00,ZBAA 070600Z AUTO 18004KT 9SM 30/19 A2983 RMK SLP098 T02950189 57010 IEM_DS3505
ZBAA,2000-08-07 07:00,ZBAA 070700Z AUTO 18008KT 6SM 30/22 A2983 RMK T03000220 IEM_DS3505
ZBAA,2000-08-07 08:00,ZBAA 070800Z AUTO 16008KT 6SM 29/22 A2983 RMK T02900220 IEM_DS3505
ZBAA,2000-08-07 09:00,ZBAA 070900Z AUTO 21004KT 7SM 27/19 A2983 RMK SLP095 T02740190 57003 IEM_DS3505
ZBAA,2000-08-07 10:00,ZBAA 071000Z AUTO 19008KT 28/22 A2983 RMK T02800220 IEM_DS3505
ZBAA,2000-08-07 11:00,ZBAA 071100Z AUTO 20006KT 27/21 A2983 RMK T02700210 IEM_DS3505
ZBAA,2000-08-07 12:00,ZBAA 071200Z AUTO 20002KT 6SM 26/18 RMK SLP093 T02580180 57002 IEM_DS3505
ZBAA,2000-08-07 13:00,ZBAA 071300Z AUTO 16002KT 4SM 26/21 A2983 RMK T02600210 IEM_DS3505
ZBAA,2000-08-07 14:00,ZBAA 071400Z AUTO 15002KT 4SM 26/21 A2983 RMK T02600210 IEM_DS3505
ZBAA,2000-08-07 15:00,ZBAA 071500Z AUTO 20002KT 6SM 25/18 A2983 RMK SLP097 T02520179 52004 IEM_DS3505
ZBAA,2000-08-07 16:00,ZBAA 071600Z AUTO 14002KT 4SM 25/21 A2983 RMK T02500210 IEM_DS3505
ZBAA,2000-08-07 17:00,ZBAA 071700Z AUTO 09002KT 3SM 25/22 A2980 RMK T02500220 IEM_DS3505
ZBAA,2000-08-07 18:00,ZBAA 071800Z AUTO 14004KT 5SM 24/20 A2980 RMK SLP089 T02430196 57008 IEM_DS3505
ZBAA,2000-08-07 19:00,ZBAA 071900Z AUTO 12004KT 3SM 25/21 A2980 RMK T02500210 IEM_DS3505
ZBAA,2000-08-07 20:00,ZBAA 072000Z AUTO 11002KT 3SM 24/21 A2980 RMK T02400210 IEM_DS3505
ZBAA,2000-08-07 21:00,ZBAA 072100Z AUTO 32002KT 4SM 23/20 A2980 RMK 70003 SLP086 T02320198 57003 IEM_DS3505
ZBAA,2000-08-07 22:00,ZBAA 072200Z AUTO 30008KT 1SM 23/22 A2983 RMK T02300220 IEM_DS3505
ZBAA,2000-08-07 23:00,ZBAA 072300Z AUTO 01004KT 1SM 22/22 A2983 RMK T02200220 IEM_DS3505
ZBAA,2000-08-08 00:00,ZBAA 080000Z AUTO 08004KT 1 1/2SM 22/21 A2983 RMK 60063 SLP094 T02230206 52007 IEM_DS3505
ZBAA,2000-08-08 01:00,ZBAA 080100Z AUTO 00000KT 1SM 22/22 A2983 RMK T02200220 IEM_DS3505
ZBAA,2000-08-08 02:00,ZBAA 080200Z AUTO 1SM 23/23 A2983 RMK T02300230 IEM_DS3505
ZBAA,2000-08-08 03:00,ZBAA 080300Z AUTO 09006KT 2 1/2SM 23/21 A2980 RMK SLP086 T02290212 57008 IEM_DS3505
ZBAA,2000-08-08 04:00,ZBAA 080400Z AUTO 11006KT 1 1/2SM 23/23 A2980 RMK T02300230 IEM_DS3505
ZBAA,2000-08-08 05:00,ZBAA 080500Z AUTO 10006KT 1 1/4SM 23/23 A2977 RMK T02300230 IEM_DS3505
ZBAA,2000-08-08 06:00,ZBAA 080600Z AUTO 10004KT 2 1/2SM 23/21 A2977 RMK 60024 SLP069 T02310212 57016 IEM_DS3505
ZBAA,2000-08-08 07:00,ZBAA 080700Z AUTO 11006KT 1 1/2SM 23/23 A2974 RMK T02300230 IEM_DS3505
ZBAA,2000-08-08 08:00,ZBAA 080800Z AUTO 11006KT 1 1/2SM 23/23 A2974 RMK T02300230 IEM_DS3505
ZBAA,2000-08-08 09:00,ZBAA 080900Z AUTO 10004KT 1 1/4SM 24/22 A2974 RMK SLP061 T02390222 57008 IEM_DS3505
ZBAA,2000-08-08 10:00,ZBAA 081000Z AUTO 11006KT 2SM 23/23 A2971 RMK T02300230 IEM_DS3505
ZBAA,2000-08-08 11:00,ZBAA 081100Z AUTO 10004KT 1 1/2SM 23/23 A2971 RMK T02300230 IEM_DS3505
ZBAA,2000-08-08 12:00,ZBAA 081200Z AUTO 16002KT 1 1/4SM 24/23 A2974 RMK 60004 SLP065 T02420226 52003 IEM_DS3505
ZBAA,2000-08-08 13:00,ZBAA 081300Z AUTO 19004KT 1 1/4SM 24/24 A2974 RMK T02400240 IEM_DS3505
ZBAA,2000-08-08 14:00,ZBAA 081400Z AUTO 18002KT 1SM 24/24 A2974 RMK T02400240 IEM_DS3505
ZBAA,2000-08-08 15:00,ZBAA 081500Z AUTO 27002KT 2SM 24/22 A2974 RMK SLP070 T02350219 52005 IEM_DS3505
ZBAA,2000-08-08 16:00,ZBAA 081600Z AUTO 28004KT 1SM 23/23 A2974 RMK T02300230 IEM_DS3505
ZBAA,2000-08-08 17:00,ZBAA 081700Z AUTO 28002KT 1SM 23/23 A2971 RMK T02300230 IEM_DS3505
ZBAA,2000-08-08 18:00,ZBAA 081800Z AUTO 05002KT 1 1/2SM 23/22 A2971 RMK 60004 SLP054 T02340218 57015 IEM_DS3505
ZBAA,2000-08-08 19:00,ZBAA 081900Z AUTO 16002KT 1SM 23/23 A2971 RMK T02300230 IEM_DS3505
ZBAA,2000-08-08 20:00,ZBAA 082000Z AUTO 27002KT 1SM 23/23 A2971 RMK T02300230 IEM_DS3505
ZBAA,2000-08-08 21:00,ZBAA 082100Z AUTO 00000KT 1SM 24/22 A2971 RMK 70097 SLP053 T02360222 57001 IEM_DS3505
ZBAA,2000-08-08 22:00,ZBAA 082200Z AUTO 00000KT 1SM 23/23 A2971 RMK T02300230 IEM_DS3505
ZBAA,2000-08-08 23:00,ZBAA 082300Z AUTO 31004KT 1 1/4SM 23/23 A2971 RMK T02300230 IEM_DS3505
ZBAA,2000-08-09 00:00,ZBAA 090000Z AUTO 36002KT 2SM 25/23 A2971 RMK 70034 SLP052 T02460230 57001 IEM_DS3505
ZBAA,2000-08-09 01:00,ZBAA 090100Z AUTO 01004KT 1 1/4SM 24/24 A2971 RMK T02400240 IEM_DS3505
ZBAA,2000-08-09 02:00,ZBAA 090200Z AUTO 07002KT 1 1/4SM 26/25 A2971 RMK T02600250 IEM_DS3505
ZBAA,2000-08-09 03:00,ZBAA 090300Z AUTO 05006KT 5SM 28/22 A2968 RMK SLP046 T02820224 57006 IEM_DS3505
ZBAA,2000-08-09 04:00,ZBAA 090400Z AUTO 2SM 29/25 A2968 RMK T02900250 IEM_DS3505
ZBAA,2000-08-09 05:00,ZBAA 090500Z AUTO 16004KT 2 1/2SM 29/25 A2965 RMK T02900250 IEM_DS3505
ZBAA,2000-08-09 06:00,ZBAA 090600Z AUTO 13004KT 5SM 30/22 A2965 RMK SLP031 T03010223 57015 IEM_DS3505
ZBAA,2000-08-09 07:00,ZBAA 090700Z AUTO 13004KT 3SM 30/26 A2962 RMK T03000260 IEM_DS3505
ZBAA,2000-08-09 08:00,ZBAA 090800Z AUTO 16006KT 3SM 30/26 A2962 RMK T03000260 IEM_DS3505
ZBAA,2000-08-09 09:00,ZBAA 090900Z AUTO 17004KT 5SM 30/23 A2959 RMK SLP019 T03040228 57012 IEM_DS3505
ZBAA,2000-08-09 10:00,ZBAA 091000Z AUTO 14004KT 3SM 29/26 A2962 RMK T02900260 IEM_DS3505
ZBAA,2000-08-09 11:00,ZBAA 091100Z AUTO 14004KT 3SM 28/26 A2962 RMK T02800260 IEM_DS3505
ZBAA,2000-08-09 12:00,ZBAA 091200Z AUTO 14004KT 5SM 28/24 A2965 RMK SLP036 T02810241 52017 IEM_DS3505
ZBAA,2000-08-09 13:00,ZBAA 091300Z AUTO 13004KT 2SM 27/26 A2968 RMK T02700260 IEM_DS3505
ZBAA,2000-08-09 14:00,ZBAA 091400Z AUTO 13004KT 2SM 26/26 A2968 RMK T02600260 IEM_DS3505
ZBAA,2000-08-09 15:00,ZBAA 091500Z AUTO 21002KT 4SM 27/24 A2968 RMK SLP039 T02660241 52003 IEM_DS3505
ZBAA,2000-08-09 16:00,ZBAA 091600Z AUTO 10004KT 1 1/4SM 26/26 A2965 RMK T02600260 IEM_DS3505
ZBAA,2000-08-09 17:00,ZBAA 091700Z AUTO 13002KT 1SM 25/25 A2965 RMK T02500250 IEM_DS3505
ZBAA,2000-08-09 18:00,ZBAA 091800Z AUTO 14002KT 1 1/2SM 26/24 A2965 RMK SLP035 T02550237 57004 IEM_DS3505
ZBAA,2000-08-09 19:00,ZBAA 091900Z AUTO 12002KT 1SM 25/25 A2965 RMK T02500250 IEM_DS3505
ZBAA,2000-08-09 21:00,ZBAA 092100Z AUTO 00000KT 1 1/4SM 25/24 RMK SLP036 T02520236 52001 IEM_DS3505
ZBAA,2000-08-09 22:00,ZBAA 092200Z AUTO 13002KT 3/8SM 25/25 A2968 RMK T02500250 IEM_DS3505
ZBAA,2000-08-09 23:00,ZBAA 092300Z AUTO 13002KT 1/8SM 25/25 A2968 RMK T02500250 IEM_DS3505
ZBAA,2000-08-10 00:00,ZBAA 100000Z AUTO 14004KT 3/8SM 26/24 A2968 RMK SLP042 T02550241 52006 IEM_DS3505
ZBAA,2000-08-10 01:00,ZBAA 100100Z AUTO 15004KT 1SM 26/26 A2968 RMK T02600260 IEM_DS3505
ZBAA,2000-08-10 02:00,ZBAA 100200Z AUTO 08004KT 1SM 26/26 A2968 RMK T02600260 IEM_DS3505
ZBAA,2000-08-10 03:00,ZBAA 100300Z AUTO 14004KT 4SM 28/24 A2968 RMK SLP044 T02770243 52002 IEM_DS3505
ZBAA,2000-08-10 04:00,ZBAA 100400Z AUTO 14006KT 1 1/2SM 29/27 A2965 RMK T02900270 IEM_DS3505
ZBAA,2000-08-10 05:00,ZBAA 100500Z AUTO 13006KT 1 1/2SM 30/27 A2965 RMK T03000270 IEM_DS3505
ZBAA,2000-08-10 06:00,ZBAA 100600Z AUTO 15004KT 5SM 30/25 A2962 RMK SLP029 T03050249 57015 IEM_DS3505
ZBAA,2000-08-10 07:00,ZBAA 100700Z AUTO 14006KT 2 1/2SM 31/27 A2962 RMK T03100270 IEM_DS3505
ZBAA,2000-08-10 08:00,ZBAA 100800Z AUTO 18008KT 2 1/2SM 31/27 A2962 RMK T03100270 IEM_DS3505
ZBAA,2000-08-10 09:00,ZBAA 100900Z AUTO 17004KT 5SM 31/25 A2959 RMK SLP018 T03090248 57011 IEM_DS3505
ZBAA,2000-08-10 10:00,ZBAA 101000Z AUTO 17004KT 2SM 30/27 A2959 RMK T03000270 IEM_DS3505
ZBAA,2000-08-10 11:00,ZBAA 101100Z AUTO 16004KT 1 1/2SM 29/27 A2962 RMK T02900270 IEM_DS3505
ZBAA,2000-08-10 12:00,ZBAA 101200Z AUTO 17002KT 2 1/2SM 29/25 A2962 RMK SLP029 T02900250 52011 IEM_DS3505
ZBAA,2000-08-10 13:00,ZBAA 101300Z AUTO 13002KT 1 1/4SM 27/27 A2965 RMK T02700270 IEM_DS3505
ZBAA,2000-08-10 14:00,ZBAA 101400Z AUTO 08004KT 1SM 27/27 A2965 RMK T02700270 IEM_DS3505
ZBAA,2000-08-10 15:00,ZBAA 101500Z AUTO 13002KT 2SM 27/25 RMK SLP035 T02730248 52006 IEM_DS3505
ZBAA,2000-08-10 16:00,ZBAA 101600Z AUTO 4SM 25/23 A2965 RMK T02500230 IEM_DS3505
ZBAA,2000-08-10 17:00,ZBAA 101700Z AUTO 09004KT 2SM 21/21 A2965 RMK T02100210 IEM_DS3505
ZBAA,2000-08-10 18:00,ZBAA 101800Z AUTO 06006KT 6SM 25/21 A2968 RMK 60002 SLP039 T02460209 52004 IEM_DS3505
ZBAA,2000-08-10 19:00,ZBAA 101900Z AUTO 11008KT 2 1/2SM 21/21 A2965 RMK T02100210 IEM_DS3505
ZBAA,2000-08-10 20:00,ZBAA 102000Z AUTO 29004KT 2 1/2SM 22/22 A2968 RMK T02200220 IEM_DS3505
ZBAA,2000-08-10 21:00,ZBAA 102100Z AUTO 18006KT 2SM 22/22 A2968 RMK 70200 SLP049 T02240218 52013 IEM_DS3505
ZBAA,2000-08-10 22:00,ZBAA 102200Z AUTO 06004KT 4SM 21/21 A2968 RMK T02100210 IEM_DS3505
ZBAA,2000-08-10 23:00,ZBAA 102300Z AUTO 12002KT 4SM 22/22 A2971 RMK T02200220 IEM_DS3505
ZBAA,2000-08-11 00:00,ZBAA 110000Z AUTO 07004KT 6SM 23/21 A2974 RMK 60213 SLP060 T02280214 52011 IEM_DS3505
ZBAA,2000-08-11 01:00,ZBAA 110100Z AUTO 29004KT 5SM 24/23 A2974 RMK T02400230 IEM_DS3505
ZBAA,2000-08-11 02:00,ZBAA 110200Z AUTO 5SM 26/23 A2974 RMK T02600230 IEM_DS3505
ZBAA,2000-08-11 03:00,ZBAA 110300Z AUTO 00000KT 6SM 27/21 A2974 RMK SLP069 T02660207 52007 IEM_DS3505
ZBAA,2000-08-11 04:00,ZBAA 110400Z AUTO 13002KT 5SM 27/23 A2974 RMK T02700230 IEM_DS3505
ZBAA,2000-08-11 05:00,ZBAA 110500Z AUTO 7SM 28/24 A2974 RMK T02800240 IEM_DS3505
ZBAA,2000-08-11 06:00,ZBAA 110600Z AUTO 17002KT 7SM 29/24 A2971 RMK T02900240 IEM_DS3505
ZBAA,2000-08-11 07:00,ZBAA 110700Z AUTO 10004KT 7SM 29/24 A2968 RMK T02900240 IEM_DS3505
ZBAA,2000-08-11 08:00,ZBAA 110800Z AUTO 5SM 29/25 A2968 RMK T02900250 IEM_DS3505
ZBAA,2000-08-11 09:00,ZBAA 110900Z AUTO 23002KT 11SM 30/21 A2968 RMK SLP043 T02960210 57012 IEM_DS3505
ZBAA,2000-08-11 10:00,ZBAA 111000Z AUTO 00000KT 4SM 28/25 A2968 RMK T02800250 IEM_DS3505
ZBAA,2000-08-11 11:00,ZBAA 111100Z AUTO 09002KT 4SM 27/25 A2968 RMK T02700250 IEM_DS3505
ZBAA,2000-08-11 12:00,ZBAA 111200Z AUTO 11002KT 5SM 27/25 A2971 RMK T02700250 IEM_DS3505
ZBAA,2000-08-11 13:00,ZBAA 111300Z AUTO 00000KT 7SM 26/25 A2974 RMK T02600250 IEM_DS3505
ZBAA,2000-08-11 14:00,ZBAA 111400Z AUTO 00000KT 7SM 26/25 A2974 RMK T02600250 IEM_DS3505
ZBAA,2000-08-11 15:00,ZBAA 111500Z AUTO 11002KT 6SM 27/23 RMK SLP065 T02670234 52012 IEM_DS3505
ZBAA,2000-08-11 16:00,ZBAA 111600Z AUTO 11002KT 7SM 26/25 A2974 RMK T02600250 IEM_DS3505
ZBAA,2000-08-11 17:00,ZBAA 111700Z AUTO 07002KT 5SM 26/25 A2974 RMK T02600250 IEM_DS3505
ZBAA,2000-08-11 18:00,ZBAA 111800Z AUTO 14006KT 3SM 26/24 RMK SLP062 T02580235 57003 IEM_DS3505
ZBAA,2000-08-11 19:00,ZBAA 111900Z AUTO 00000KT 3SM 26/25 A2974 RMK T02600250 IEM_DS3505
ZBAA,2000-08-11 20:00,ZBAA 112000Z AUTO 09002KT 2SM 25/25 A2974 RMK T02500250 IEM_DS3505
ZBAA,2000-08-11 21:00,ZBAA 112100Z AUTO 11002KT 1 1/2SM 25/25 A2974 RMK T02500250 IEM_DS3505
ZBAA,2000-08-11 22:00,ZBAA 112200Z AUTO 10002KT 1 1/4SM 25/25 A2974 RMK T02500250 IEM_DS3505
ZBAA,2000-08-11 23:00,ZBAA 112300Z AUTO 12002KT 2SM 25/25 A2974 RMK T02500250 IEM_DS3505
ZBAA,2000-08-12 00:00,ZBAA 120000Z AUTO 12004KT 3SM 26/23 A2977 RMK SLP072 T02590232 52008 IEM_DS3505
ZBAA,2000-08-12 01:00,ZBAA 120100Z AUTO 12004KT 2 1/2SM 26/25 A2977 RMK T02600250 IEM_DS3505
ZBAA,2000-08-12 02:00,ZBAA 120200Z AUTO 18004KT 2 1/2SM 26/25 A2977 RMK T02600250 IEM_DS3505
ZBAA,2000-08-12 03:00,ZBAA 120300Z AUTO 00000KT 6SM 25/21 A2977 RMK SLP073 T02510212 52001 IEM_DS3505
ZBAA,2000-08-12 04:00,ZBAA 120400Z AUTO 01008KT 7SM 25/24 A2977 RMK T02500240 IEM_DS3505
ZBAA,2000-08-12 05:00,ZBAA 120500Z AUTO 7SM 26/24 A2977 RMK T02600240 IEM_DS3505
ZBAA,2000-08-12 06:00,ZBAA 120600Z AUTO 03004KT 7SM 26/24 A2974 RMK T02600240 IEM_DS3505
ZBAA,2000-08-12 07:00,ZBAA 120700Z AUTO 01004KT 6SM 26/24 A2974 RMK T02600240 IEM_DS3505
ZBAA,2000-08-12 08:00,ZBAA 120800Z AUTO 31004KT 6SM 28/25 A2974 RMK T02800250 IEM_DS3505
ZBAA,2000-08-12 09:00,ZBAA 120900Z AUTO 00000KT 4SM 29/23 RMK SLP059 T02900230 57006 IEM_DS3505
ZBAA,2000-08-12 10:00,ZBAA 121000Z AUTO 28002KT 6SM 27/25 A2971 RMK T02700250 IEM_DS3505
ZBAA,2000-08-12 11:00,ZBAA 121100Z AUTO 10004KT 5SM 26/25 A2971 RMK T02600250 IEM_DS3505
ZBAA,2000-08-12 12:00,ZBAA 121200Z AUTO 05002KT 4SM 27/23 A2974 RMK SLP061 T02710229 52002 IEM_DS3505
ZBAA,2000-08-12 14:00,ZBAA 121400Z AUTO 08004KT 4SM 25/25 A2974 RMK T02500250 IEM_DS3505
ZBAA,2000-08-12 15:00,ZBAA 121500Z AUTO 00000KT 4SM 25/24 A2974 RMK T02500240 IEM_DS3505
ZBAA,2000-08-12 16:00,ZBAA 121600Z AUTO 14002KT 4SM 24/24 A2974 RMK T02400240 IEM_DS3505
ZBAA,2000-08-12 17:00,ZBAA 121700Z AUTO 00000KT 4SM 25/24 A2974 RMK T02500240 IEM_DS3505
ZBAA,2000-08-12 18:00,ZBAA 121800Z AUTO 12002KT 2 1/2SM 24/22 RMK 60020 SLP064 T02410220 57002 IEM_DS3505
ZBAA,2000-08-12 19:00,ZBAA 121900Z AUTO 16004KT 4SM 23/23 A2974 RMK T02300230 IEM_DS3505
ZBAA,2000-08-12 20:00,ZBAA 122000Z AUTO 00000KT 4SM 23/23 A2974 RMK T02300230 IEM_DS3505
ZBAA,2000-08-12 21:00,ZBAA 122100Z AUTO 02004KT 3SM 23/22 A2971 RMK 70030 SLP056 T02340217 57008 IEM_DS3505
ZBAA,2000-08-12 22:00,ZBAA 122200Z AUTO 2SM 23/23 A2971 RMK T02300230 IEM_DS3505
ZBAA,2000-08-12 23:00,ZBAA 122300Z AUTO 03002KT 2 1/2SM 23/23 A2971 RMK T02300230 IEM_DS3505
ZBAA,2000-08-13 00:00,ZBAA 130000Z AUTO 05004KT 4SM 24/22 A2974 RMK 60008 SLP062 T02410222 52006 IEM_DS3505
ZBAA,2000-08-13 01:00,ZBAA 130100Z AUTO 6SM 26/25 A2971 RMK T02600250 IEM_DS3505
ZBAA,2000-08-13 02:00,ZBAA 130200Z AUTO 18002KT 7SM 27/25 A2971 RMK T02700250 IEM_DS3505
ZBAA,2000-08-13 03:00,ZBAA 130300Z AUTO 12004KT 4SM 27/23 A2971 RMK SLP056 T02730227 57006 IEM_DS3505
ZBAA,2000-08-13 04:00,ZBAA 130400Z AUTO 13004KT 7SM 28/25 A2971 RMK T02800250 IEM_DS3505
ZBAA,2000-08-13 05:00,ZBAA 130500Z AUTO 11004KT 7SM 29/24 A2968 RMK T02900240 IEM_DS3505
ZBAA,2000-08-13 06:00,ZBAA 130600Z AUTO 12006KT 6SM 30/23 A2968 RMK SLP042 T02980230 57014 IEM_DS3505
ZBAA,2000-08-13 07:00,ZBAA 130700Z AUTO 13006KT 7SM 30/26 A2968 RMK T03000260 IEM_DS3505
ZBAA,2000-08-13 08:00,ZBAA 130800Z AUTO 12008KT 7SM 29/26 A2965 RMK T02900260 IEM_DS3505
ZBAA,2000-08-13 09:00,ZBAA 130900Z AUTO 13006KT 6SM 28/24 A2965 RMK SLP035 T02840240 57007 IEM_DS3505
ZBAA,2000-08-13 10:00,ZBAA 131000Z AUTO 13006KT 6SM 28/25 A2965 RMK T02800250 IEM_DS3505
ZBAA,2000-08-13 11:00,ZBAA 131100Z AUTO 14004KT 4SM 27/25 A2965 RMK T02700250 IEM_DS3505
ZBAA,2000-08-13 12:00,ZBAA 131200Z AUTO 11002KT 6SM 27/23 A2968 RMK SLP045 T02660229 52010 IEM_DS3505
ZBAA,2000-08-13 15:00,ZBAA 131500Z AUTO 12002KT 5SM 25/23 A2968 RMK SLP049 T02530228 52004 IEM_DS3505
ZBAA,2000-08-13 16:00,ZBAA 131600Z AUTO 00000KT 3SM 25/24 A2971 RMK T02500240 IEM_DS3505
ZBAA,2000-08-13 17:00,ZBAA 131700Z AUTO 08002KT 2 1/2SM 25/24 A2968 RMK T02500240 IEM_DS3505
ZBAA,2000-08-13 18:00,ZBAA 131800Z AUTO 10002KT 6SM 25/22 A2968 RMK SLP041 T02460225 57008 IEM_DS3505
ZBAA,2000-08-13 19:00,ZBAA 131900Z AUTO 09002KT 2SM 24/24 A2965 RMK T02400240 IEM_DS3505
ZBAA,2000-08-13 20:00,ZBAA 132000Z AUTO 09002KT 1 1/2SM 24/24 A2965 RMK T02400240 IEM_DS3505
ZBAA,2000-08-13 21:00,ZBAA 132100Z AUTO 05002KT 6SM 24/22 A2965 RMK SLP033 T02430224 57008 IEM_DS3505
ZBAA,2000-08-13 22:00,ZBAA 132200Z AUTO 00000KT 1 1/2SM 24/24 A2965 RMK T02400240 IEM_DS3505
ZBAA,2000-08-13 23:00,ZBAA 132300Z AUTO 00000KT 1 1/2SM 25/25 A2965 RMK T02500250 IEM_DS3505
ZBAA,2000-08-14 00:00,ZBAA 140000Z AUTO 02002KT 4SM 26/23 A2965 RMK SLP035 T02600233 52002 IEM_DS3505
ZBAA,2000-08-14 01:00,ZBAA 140100Z AUTO 00000KT 2 1/2SM 27/25 A2965 RMK T02700250 IEM_DS3505
ZBAA,2000-08-14 02:00,ZBAA 140200Z AUTO 05002KT 2 1/2SM 28/26 A2965 RMK T02800260 IEM_DS3505
ZBAA,2000-08-14 03:00,ZBAA 140300Z AUTO 15004KT 2 1/2SM 29/24 A2962 RMK SLP029 T02900241 57006 IEM_DS3505
ZBAA,2000-08-14 04:00,ZBAA 140400Z AUTO 2SM 30/27 A2962 RMK T03000270 IEM_DS3505
ZBAA,2000-08-14 05:00,ZBAA 140500Z AUTO 15004KT 1 1/2SM 31/27 A2959 RMK T03100270 IEM_DS3505
ZBAA,2000-08-14 06:00,ZBAA 140600Z AUTO 18006KT 1SM 31/27 A2959 RMK T03100270 IEM_DS3505
ZBAA,2000-08-14 09:00,ZBAA 140900Z AUTO 23004KT 4SM 30/24 A2956 RMK SLP008 T02990245 57007 IEM_DS3505
ZBAA,2000-08-14 10:00,ZBAA 141000Z AUTO 22004KT 2SM 30/27 A2956 RMK T03000270 IEM_DS3505
ZBAA,2000-08-14 11:00,ZBAA 141100Z AUTO 20004KT 2SM 29/27 A2956 RMK T02900270 IEM_DS3505
ZBAA,2000-08-14 12:00,ZBAA 141200Z AUTO 25004KT 4SM 27/23 A2956 RMK 60003 SLP012 T02720230 52004 IEM_DS3505
ZBAA,2000-08-14 13:00,ZBAA 141300Z AUTO 20002KT 1 1/2SM 28/26 A2959 RMK T02800260 IEM_DS3505
ZBAA,2000-08-14 14:00,ZBAA 141400Z AUTO 24004KT 1 1/2SM 28/26 A2959 RMK T02800260 IEM_DS3505
ZBAA,2000-08-14 15:00,ZBAA 141500Z AUTO 30002KT 4SM 27/22 A2959 RMK SLP017 T02700222 52005 IEM_DS3505
ZBAA,2000-08-14 16:00,ZBAA 141600Z AUTO 00000KT 2 1/2SM 26/24 A2959 RMK T02600240 IEM_DS3505
ZBAA,2000-08-14 17:00,ZBAA 141700Z AUTO 00000KT 2 1/2SM 26/24 A2959 RMK T02600240 IEM_DS3505
ZBAA,2000-08-14 18:00,ZBAA 141800Z AUTO 24002KT 4SM 25/23 RMK SLP008 T02520229 57009 IEM_DS3505
ZBAA,2000-08-14 19:00,ZBAA 141900Z AUTO 36002KT 2 1/2SM 25/24 A2956 RMK T02500240 IEM_DS3505
ZBAA,2000-08-14 20:00,ZBAA 142000Z AUTO 34002KT 2 1/2SM 25/24 A2956 RMK T02500240 IEM_DS3505
ZBAA,2000-08-14 21:00,ZBAA 142100Z AUTO 27002KT 5SM 25/22 A2956 RMK 70003 SLP012 T02470224 52004 IEM_DS3505
ZBAA,2000-08-14 22:00,ZBAA 142200Z AUTO 00000KT 1 1/4SM 25/24 A2959 RMK T02500240 IEM_DS3505
ZBAA,2000-08-14 23:00,ZBAA 142300Z AUTO 35002KT 1SM 25/25 A2959 RMK T02500250 IEM_DS3505
ZBAA,2000-08-15 00:00,ZBAA 150000Z AUTO 34002KT 5SM 27/23 A2959 RMK 70003 SLP019 T02660229 52007 IEM_DS3505
ZBAA,2000-08-15 01:00,ZBAA 150100Z AUTO 36004KT 2 1/2SM 28/26 A2959 RMK T02800260 IEM_DS3505
ZBAA,2000-08-15 02:00,ZBAA 150200Z AUTO 01002KT 2 1/2SM 29/26 A2959 RMK T02900260 IEM_DS3505
ZBAA,2000-08-15 03:00,ZBAA 150300Z AUTO 03002KT 6SM 33/19 A2959 RMK SLP020 T03320186 52001 IEM_DS3505
ZBAA,2000-08-15 04:00,ZBAA 150400Z AUTO 25004KT 6SM 33/21 A2959 RMK T03300210 IEM_DS3505
ZBAA,2000-08-15 05:00,ZBAA 150500Z AUTO 27004KT 6SM 34/20 A2959 RMK T03400200 IEM_DS3505
ZBAA,2000-08-15 06:00,ZBAA 150600Z AUTO 22002KT 6SM 35/18 A2956 RMK SLP004 T03480184 57015 IEM_DS3505
ZBAA,2000-08-15 08:00,ZBAA 150800Z AUTO 11002KT 6SM 35/19 A2953 RMK T03500190 IEM_DS3505
ZBAA,2000-08-15 09:00,ZBAA 150900Z AUTO 19004KT 12SM 34/19 A2950 RMK SLP993 T03370194 57012 IEM_DS3505
ZBAA,2000-08-15 10:00,ZBAA 151000Z AUTO 19008KT 6SM 32/24 A2950 RMK T03200240 IEM_DS3505
ZBAA,2000-08-15 11:00,ZBAA 151100Z AUTO 15004KT 6SM 30/24 A2953 RMK T03000240 IEM_DS3505
ZBAA,2000-08-15 12:00,ZBAA 151200Z AUTO 14002KT 7SM 29/22 A2953 RMK SLP000 T02860216 52007 IEM_DS3505
ZBAA,2000-08-15 13:00,ZBAA 151300Z AUTO 16004KT 6SM 28/24 A2956 RMK T02800240 IEM_DS3505
ZBAA,2000-08-15 15:00,ZBAA 151500Z AUTO 25002KT 6SM 27/21 A2956 RMK SLP009 T02680211 52009 IEM_DS3505
ZBAA,2000-08-15 16:00,ZBAA 151600Z AUTO 12006KT 3SM 25/24 A2956 RMK T02500240 IEM_DS3505
ZBAA,2000-08-15 17:00,ZBAA 151700Z AUTO 14002KT 3SM 25/24 A2956 RMK T02500240 IEM_DS3505
ZBAA,2000-08-15 18:00,ZBAA 151800Z AUTO 18002KT 5SM 25/22 A2956 RMK SLP008 T02540223 54000 IEM_DS3505
ZBAA,2000-08-15 19:00,ZBAA 151900Z AUTO 01002KT 2SM 24/23 A2959 RMK T02400230 IEM_DS3505
ZBAA,2000-08-15 20:00,ZBAA 152000Z AUTO 35002KT 2SM 23/23 A2956 RMK T02300230 IEM_DS3505
ZBAA,2000-08-15 21:00,ZBAA 152100Z AUTO 00000KT 1 1/4SM 24/22 A2959 RMK SLP012 T02390222 52003 IEM_DS3505
ZBAA,2000-08-15 22:00,ZBAA 152200Z AUTO 34002KT 1 1/2SM 22/22 A2959 RMK T02200220 IEM_DS3505
ZBAA,2000-08-15 23:00,ZBAA 152300Z AUTO 35004KT 2SM 24/23 A2959 RMK T02400230 IEM_DS3505
ZBAA,2000-08-16 00:00,ZBAA 160000Z AUTO 05002KT 2 1/2SM 26/22 A2962 RMK SLP022 T02630222 52010 IEM_DS3505
ZBAA,2000-08-16 01:00,ZBAA 160100Z AUTO 1SM 25/25 A2962 RMK T02500250 IEM_DS3505
ZBAA,2000-08-16 02:00,ZBAA 160200Z AUTO 1SM 26/25 A2962 RMK T02600250 IEM_DS3505
ZBAA,2000-08-16 03:00,ZBAA 160300Z AUTO 10004KT 2 1/2SM 30/23 A2962 RMK SLP026 T02950227 52004 IEM_DS3505
ZBAA,2000-08-16 04:00,ZBAA 160400Z AUTO 15004KT 1SM 31/27 A2962 RMK T03100270 IEM_DS3505
ZBAA,2000-08-16 05:00,ZBAA 160500Z AUTO 13004KT 1 1/2SM 32/26 A2962 RMK T03200260 IEM_DS3505
ZBAA,2000-08-16 06:00,ZBAA 160600Z AUTO 20006KT 7SM 34/21 A2962 RMK SLP021 T03350213 57005 IEM_DS3505
ZBAA,2000-08-16 07:00,ZBAA 160700Z AUTO 13006KT 33/25 A2959 RMK T03300250 IEM_DS3505
ZBAA,2000-08-16 08:00,ZBAA 160800Z AUTO 12004KT 33/26 A2962 RMK T03300260 IEM_DS3505
ZBAA,2000-08-16 09:00,ZBAA 160900Z AUTO 12004KT 6SM 34/24 A2959 RMK SLP018 T03350235 57003 IEM_DS3505
ZBAA,2000-08-16 10:00,ZBAA 161000Z AUTO 12004KT 3SM 31/27 A2959 RMK T03100270 IEM_DS3505
ZBAA,2000-08-16 11:00,ZBAA 161100Z AUTO 11004KT 4SM 30/27 A2962 RMK T03000270 IEM_DS3505
ZBAA,2000-08-16 12:00,ZBAA 161200Z AUTO 16004KT 6SM 30/23 A2965 RMK SLP031 T03030232 52013 IEM_DS3505
ZBAA,2000-08-16 13:00,ZBAA 161300Z AUTO 07008G17KT 2 1/2SM 28/24 A2968 RMK T02800240 IEM_DS3505
ZBAA,2000-08-16 14:00,ZBAA 161400Z AUTO 08002KT 6SM 26/21 A2971 RMK T02600210 IEM_DS3505
ZBAA,2000-08-16 15:00,ZBAA 161500Z AUTO 10004KT 5SM 28/24 A2971 RMK SLP053 T02780244 52022 IEM_DS3505
ZBAA,2000-08-16 16:00,ZBAA 161600Z AUTO 03002KT 6SM 25/21 A2971 RMK T02500210 IEM_DS3505
ZBAA,2000-08-16 17:00,ZBAA 161700Z AUTO 6SM 24/21 A2974 RMK T02400210 IEM_DS3505
ZBAA,2000-08-16 18:00,ZBAA 161800Z AUTO 05002KT 4SM 26/22 A2971 RMK SLP061 T02610218 52008 IEM_DS3505
ZBAA,2000-08-16 19:00,ZBAA 161900Z AUTO 02002KT 7SM 24/21 A2974 RMK T02400210 IEM_DS3505
ZBAA,2000-08-16 20:00,ZBAA 162000Z AUTO 00000KT 4SM 24/22 A2974 RMK T02400220 IEM_DS3505
ZBAA,2000-08-16 21:00,ZBAA 162100Z AUTO 10002KT 2 1/2SM 26/24 A2977 RMK SLP070 T02650242 52009 IEM_DS3505
ZBAA,2000-08-16 22:00,ZBAA 162200Z AUTO 13004KT 1SM 26/25 A2974 RMK T02600250 IEM_DS3505
ZBAA,2000-08-16 23:00,ZBAA 162300Z AUTO 19004KT 1SM 26/26 A2977 RMK T02600260 IEM_DS3505
ZBAA,2000-08-17 00:00,ZBAA 170000Z AUTO 20002KT 2 1/2SM 27/24 RMK SLP090 T02690242 52020 IEM_DS3505
ZBAA,2000-08-17 01:00,ZBAA 170100Z AUTO 03010KT 4SM 21/21 A2985 RMK T02100210 IEM_DS3505
ZBAA,2000-08-17 02:00,ZBAA 170200Z AUTO 03006G16KT 7SM 22/21 A2988 RMK T02200210 IEM_DS3505
ZBAA,2000-08-17 03:00,ZBAA 170300Z AUTO 00000KT 7SM 25/19 A2988 RMK SLP114 T02530192 52024 IEM_DS3505
ZBAA,2000-08-17 04:00,ZBAA 170400Z AUTO 01010KT 6SM 25/21 A2988 RMK T02500210 IEM_DS3505
ZBAA,2000-08-17 05:00,ZBAA 170500Z AUTO 36008KT 6SM 27/21 A2985 RMK T02700210 IEM_DS3505
ZBAA,2000-08-17 06:00,ZBAA 170600Z AUTO 35008KT 6SM 27/21 A2985 RMK T02700210 IEM_DS3505
ZBAA,2000-08-17 07:00,ZBAA 170700Z AUTO 35008KT 6SM 28/21 A2983 RMK T02800210 IEM_DS3505
ZBAA,2000-08-17 08:00,ZBAA 170800Z AUTO 36006KT 6SM 28/22 A2983 RMK T02800220 IEM_DS3505
ZBAA,2000-08-17 09:00,ZBAA 170900Z AUTO 35002KT 16SM 29/17 A2985 RMK SLP102 T02910170 52003 IEM_DS3505
ZBAA,2000-08-17 10:00,ZBAA 171000Z AUTO 29006G17KT 6SM 27/22 A2985 RMK T02700220 IEM_DS3505
ZBAA,2000-08-17 11:00,ZBAA 171100Z AUTO 36008KT 6SM 25/19 A2985 RMK T02500190 IEM_DS3505
ZBAA,2000-08-17 12:00,ZBAA 171200Z AUTO 03004KT 12SM 26/15 A2983 RMK SLP096 T02600151 57006 IEM_DS3505
ZBAA,2000-08-17 13:00,ZBAA 171300Z AUTO 33008KT 6SM 24/19 A2985 RMK T02400190 IEM_DS3505
ZBAA,2000-08-17 14:00,ZBAA 171400Z AUTO 7SM RMK IEM_DS3505
ZBAA,2000-08-17 15:00,ZBAA 171500Z AUTO 03002KT 12SM 26/16 A2985 RMK SLP106 T02570157 52010 IEM_DS3505
ZBAA,2000-08-17 16:00,ZBAA 171600Z AUTO 03004KT 6SM 23/20 A2988 RMK T02300200 IEM_DS3505
ZBAA,2000-08-17 17:00,ZBAA 171700Z AUTO 36006KT 6SM 23/19 A2985 RMK T02300190 IEM_DS3505
ZBAA,2000-08-17 18:00,ZBAA 171800Z AUTO 34004KT 6SM 23/19 A2988 RMK T02300190 IEM_DS3505
ZBAA,2000-08-17 19:00,ZBAA 171900Z AUTO 35006KT 6SM 23/19 A2988 RMK T02300190 IEM_DS3505
ZBAA,2000-08-17 20:00,ZBAA 172000Z AUTO 7SM RMK IEM_DS3505
ZBAA,2000-08-17 21:00,ZBAA 172100Z AUTO 02002KT 12SM 24/16 A2985 RMK 70003 SLP107 T02430158 57003 IEM_DS3505
ZBAA,2000-08-17 23:00,ZBAA 172300Z AUTO 01004KT 6SM 23/20 A2985 RMK T02300200 IEM_DS3505
ZBAA,2000-08-18 00:00,ZBAA 180000Z AUTO 02004KT 11SM 25/17 A2988 RMK 70003 SLP111 T02460168 52004 IEM_DS3505
ZBAA,2000-08-18 01:00,ZBAA 180100Z AUTO 34006KT 6SM 25/20 A2988 RMK T02500200 IEM_DS3505
ZBAA,2000-08-18 02:00,ZBAA 180200Z AUTO 35004KT 6SM 25/21 A2988 RMK T02500210 IEM_DS3505
ZBAA,2000-08-18 03:00,ZBAA 180300Z AUTO 36004KT 9SM 28/16 A2988 RMK SLP115 T02770160 52004 IEM_DS3505
ZBAA,2000-08-18 04:00,ZBAA 180400Z AUTO 35004KT 6SM 27/21 A2988 RMK T02700210 IEM_DS3505
ZBAA,2000-08-18 05:00,ZBAA 180500Z AUTO 04002KT 6SM 28/22 A2985 RMK T02800220 IEM_DS3505
ZBAA,2000-08-18 06:00,ZBAA 180600Z AUTO 6SM 29/23 A2983 RMK T02900230 IEM_DS3505
ZBAA,2000-08-18 07:00,ZBAA 180700Z AUTO 10002KT 6SM 29/23 A2983 RMK T02900230 IEM_DS3505
ZBAA,2000-08-18 08:00,ZBAA 180800Z AUTO 11002KT 6SM 29/22 A2980 RMK T02900220 IEM_DS3505
ZBAA,2000-08-18 09:00,ZBAA 180900Z AUTO 04004KT 7SM 30/18 A2983 RMK SLP090 T02950183 57005 IEM_DS3505
ZBAA,2000-08-18 10:00,ZBAA 181000Z AUTO 04002KT 6SM 28/24 A2983 RMK T02800240 IEM_DS3505
ZBAA,2000-08-18 12:00,ZBAA 181200Z AUTO 10002KT 6SM 27/19 A2983 RMK SLP097 T02700191 52007 IEM_DS3505
ZBAA,2000-08-18 13:00,ZBAA 181300Z AUTO 34002KT 6SM 25/20 A2983 RMK T02500200 IEM_DS3505
ZBAA,2000-08-18 14:00,ZBAA 181400Z AUTO 34004KT 6SM 23/19 A2983 RMK T02300190 IEM_DS3505
ZBAA,2000-08-18 15:00,ZBAA 181500Z AUTO 02002KT 6SM 25/18 A2983 RMK SLP096 T02480178 57001 IEM_DS3505
ZBAA,2000-08-18 16:00,ZBAA 181600Z AUTO 36004KT 6SM 22/19 A2983 RMK T02200190 IEM_DS3505
ZBAA,2000-08-18 17:00,ZBAA 181700Z AUTO 01004KT 6SM 22/18 A2983 RMK T02200180 IEM_DS3505
ZBAA,2000-08-18 18:00,ZBAA 181800Z AUTO 03002KT 12SM 23/16 A2980 RMK SLP086 T02300156 57010 IEM_DS3505
ZBAA,2000-08-18 19:00,ZBAA 181900Z AUTO 01004KT 6SM 21/18 A2980 RMK T02100180 IEM_DS3505
ZBAA,2000-08-18 20:00,ZBAA 182000Z AUTO 35004KT 6SM 20/19 A2980 RMK T02000190 IEM_DS3505
ZBAA,2000-08-18 21:00,ZBAA 182100Z AUTO 36002KT 9SM 22/15 A2980 RMK SLP081 T02230154 57005 IEM_DS3505
ZBAA,2000-08-18 22:00,ZBAA 182200Z AUTO 31008KT 6SM 22/18 A2980 RMK T02200180 IEM_DS3505
ZBAA,2000-08-18 23:00,ZBAA 182300Z AUTO 35002KT 6SM 22/20 A2980 RMK T02200200 IEM_DS3505
ZBAA,2000-08-19 00:00,ZBAA 190000Z AUTO 33004KT 7SM 24/16 A2980 RMK 60003 SLP086 T02450165 52005 IEM_DS3505
ZBAA,2000-08-19 01:00,ZBAA 190100Z AUTO 32008KT 7SM 23/20 A2983 RMK T02300200 IEM_DS3505
ZBAA,2000-08-19 02:00,ZBAA 190200Z AUTO 32010KT 6SM 24/20 A2983 RMK T02400200 IEM_DS3505
ZBAA,2000-08-19 03:00,ZBAA 190300Z AUTO 32006KT 6SM 24/17 A2983 RMK SLP095 T02440169 52009 IEM_DS3505
ZBAA,2000-08-19 04:00,ZBAA 190400Z AUTO 33006KT 7SM 23/21 A2983 RMK T02300210 IEM_DS3505
ZBAA,2000-08-19 05:00,ZBAA 190500Z AUTO 35008KT 7SM 23/20 A2980 RMK T02300200 IEM_DS3505
ZBAA,2000-08-19 06:00,ZBAA 190600Z AUTO 03002KT 7SM 23/17 A2980 RMK 60003 SLP082 T02320172 57014 IEM_DS3505
ZBAA,2000-08-19 07:00,ZBAA 190700Z AUTO 33010KT 7SM 23/19 A2977 RMK T02300190 IEM_DS3505
ZBAA,2000-08-19 08:00,ZBAA 190800Z AUTO 34006KT 7SM 24/20 A2977 RMK T02400200 IEM_DS3505
ZBAA,2000-08-19 09:00,ZBAA 190900Z AUTO 06006KT 9SM 27/15 A2974 RMK SLP068 T02660147 57013 IEM_DS3505
ZBAA,2000-08-19 10:00,ZBAA 191000Z AUTO 06002KT 7SM 25/21 A2974 RMK T02500210 IEM_DS3505
ZBAA,2000-08-19 11:00,ZBAA 191100Z AUTO 01004KT 6SM 24/20 A2977 RMK T02400200 IEM_DS3505
ZBAA,2000-08-19 12:00,ZBAA 191200Z AUTO 03002KT 6SM 23/16 A2980 RMK 60003 SLP084 T02340165 52015 IEM_DS3505
ZBAA,2000-08-19 13:00,ZBAA 191300Z AUTO 02008G17KT 6SM 23/19 A2983 RMK T02300190 IEM_DS3505
ZBAA,2000-08-19 14:00,ZBAA 191400Z AUTO 36008KT 6SM 22/17 A2983 RMK T02200170 IEM_DS3505
ZBAA,2000-08-19 15:00,ZBAA 191500Z AUTO 35004KT 16SM 23/14 A2983 RMK SLP096 T02270140 52012 IEM_DS3505
ZBAA,2000-08-19 16:00,ZBAA 191600Z AUTO 36006KT 6SM 20/16 A2983 RMK T02000160 IEM_DS3505
ZBAA,2000-08-19 17:00,ZBAA 191700Z AUTO 35002KT 6SM 19/16 A2983 RMK T01900160 IEM_DS3505
ZBAA,2000-08-19 18:00,ZBAA 191800Z AUTO 03004KT 11SM 21/14 A2983 RMK SLP094 T02060138 57002 IEM_DS3505
ZBAA,2000-08-19 19:00,ZBAA 191900Z AUTO 01006KT 6SM 19/16 A2983 RMK T01900160 IEM_DS3505
ZBAA,2000-08-19 20:00,ZBAA 192000Z AUTO 35006KT 6SM 17/16 A2983 RMK T01700160 IEM_DS3505
ZBAA,2000-08-19 21:00,ZBAA 192100Z AUTO 34002KT 14SM 20/13 A2983 RMK 70003 SLP095 T01990131 52001 IEM_DS3505
ZBAA,2000-08-19 22:00,ZBAA 192200Z AUTO 33006KT 6SM 18/16 A2983 RMK T01800160 IEM_DS3505
ZBAA,2000-08-19 23:00,ZBAA 192300Z AUTO 01006KT 6SM 20/16 A2985 RMK T02000160 IEM_DS3505
ZBAA,2000-08-20 00:00,ZBAA 200000Z AUTO 02004KT 12SM 23/14 A2985 RMK 70003 SLP101 T02270138 52006 IEM_DS3505
ZBAA,2000-08-20 01:00,ZBAA 200100Z AUTO 36006KT 6SM 24/18 A2985 RMK T02400180 IEM_DS3505
ZBAA,2000-08-20 02:00,ZBAA 200200Z AUTO 01004KT 6SM 26/17 A2985 RMK T02600170 IEM_DS3505
ZBAA,2000-08-20 03:00,ZBAA 200300Z AUTO 01006KT 19SM 27/12 A2985 RMK SLP102 T02720124 52002 IEM_DS3505
ZBAA,2000-08-20 04:00,ZBAA 200400Z AUTO 36010KT 6SM 27/17 A2983 RMK T02700170 IEM_DS3505
ZBAA,2000-08-20 05:00,ZBAA 200500Z AUTO 02006KT 6SM 28/17 A2983 RMK T02800170 IEM_DS3505
ZBAA,2000-08-20 06:00,ZBAA 200600Z AUTO 04008KT 19SM 29/12 A2980 RMK SLP088 T02940124 57014 IEM_DS3505
ZBAA,2000-08-20 07:00,ZBAA 200700Z AUTO 02004KT 6SM 30/18 A2980 RMK T03000180 IEM_DS3505
ZBAA,2000-08-20 08:00,ZBAA 200800Z AUTO 35006KT 6SM 29/18 A2977 RMK T02900180 IEM_DS3505
ZBAA,2000-08-20 09:00,ZBAA 200900Z AUTO 04004KT 19SM 30/12 A2977 RMK SLP076 T02970122 57012 IEM_DS3505
ZBAA,2000-08-20 10:00,ZBAA 201000Z AUTO 6SM 29/17 A2977 RMK T02900170 IEM_DS3505
ZBAA,2000-08-20 11:00,ZBAA 201100Z AUTO 10002KT 6SM 26/19 A2977 RMK T02600190 IEM_DS3505
ZBAA,2000-08-20 12:00,ZBAA 201200Z AUTO 05002KT 19SM 25/15 A2980 RMK SLP085 T02530148 52008 IEM_DS3505
ZBAA,2000-08-20 13:00,ZBAA 201300Z AUTO 00000KT 6SM 24/18 A2980 RMK T02400180 IEM_DS3505
ZBAA,2000-08-20 14:00,ZBAA 201400Z AUTO 27006KT 6SM 24/19 A2980 RMK T02400190 IEM_DS3505
ZBAA,2000-08-20 15:00,ZBAA 201500Z AUTO 25002KT 12SM 24/15 A2983 RMK SLP091 T02410153 52006 IEM_DS3505
ZBAA,2000-08-20 16:00,ZBAA 201600Z AUTO 00000KT 6SM 21/20 A2983 RMK T02100200 IEM_DS3505
ZBAA,2000-08-20 17:00,ZBAA 201700Z AUTO 00000KT 6SM 21/20 A2983 RMK T02100200 IEM_DS3505
ZBAA,2000-08-20 18:00,ZBAA 201800Z AUTO 21002KT 6SM 22/17 A2983 RMK SLP088 T02190168 57002 IEM_DS3505
ZBAA,2000-08-20 19:00,ZBAA 201900Z AUTO 02002KT 6SM 20/19 A2983 RMK T02000190 IEM_DS3505
ZBAA,2000-08-20 20:00,ZBAA 202000Z AUTO 33002KT 6SM 20/19 A2983 RMK T02000190 IEM_DS3505
ZBAA,2000-08-20 21:00,ZBAA 202100Z AUTO 04002KT 6SM 22/17 A2983 RMK SLP093 T02150167 52005 IEM_DS3505
ZBAA,2000-08-20 22:00,ZBAA 202200Z AUTO 36006KT 6SM 20/18 A2983 RMK T02000180 IEM_DS3505
ZBAA,2000-08-20 23:00,ZBAA 202300Z AUTO 01004KT 6SM 22/18 A2983 RMK T02200180 IEM_DS3505
ZBAA,2000-08-21 00:00,ZBAA 210000Z AUTO 01004KT 12SM 24/15 A2985 RMK SLP100 T02390146 52007 IEM_DS3505
ZBAA,2000-08-21 01:00,ZBAA 210100Z AUTO 01004KT 6SM 25/17 A2985 RMK T02500170 IEM_DS3505
ZBAA,2000-08-21 02:00,ZBAA 210200Z AUTO 6SM 27/16 A2983 RMK T02700160 IEM_DS3505
ZBAA,2000-08-21 03:00,ZBAA 210300Z AUTO 06004KT 12SM 28/12 A2983 RMK SLP095 T02790123 IEM_DS3505
ZBAA,2000-08-21 04:00,ZBAA 210400Z AUTO 03004KT 6SM 29/17 A2980 RMK T02900170 IEM_DS3505
ZBAA,2000-08-21 05:00,ZBAA 210500Z AUTO 6SM 29/15 A2980 RMK T02900150 IEM_DS3505
ZBAA,2000-08-21 06:00,ZBAA 210600Z AUTO 11004KT 12SM 29/15 A2977 RMK SLP079 T02940152 57016 IEM_DS3505
ZBAA,2000-08-21 07:00,ZBAA 210700Z AUTO 16004KT 6SM 29/17 A2977 RMK T02900170 IEM_DS3505
ZBAA,2000-08-21 08:00,ZBAA 210800Z AUTO 09004KT 6SM 29/17 A2977 RMK T02900170 IEM_DS3505
ZBAA,2000-08-21 09:00,ZBAA 210900Z AUTO 17004KT 12SM 30/16 A2977 RMK SLP074 T02970162 57005 IEM_DS3505
ZBAA,2000-08-21 10:00,ZBAA 211000Z AUTO 10002KT 6SM 28/20 A2977 RMK T02800200 IEM_DS3505
ZBAA,2000-08-21 11:00,ZBAA 211100Z AUTO 11002KT 6SM 26/21 A2977 RMK T02600210 IEM_DS3505
ZBAA,2000-08-21 12:00,ZBAA 211200Z AUTO 21002KT 9SM 26/17 A2980 RMK SLP085 T02620173 52011 IEM_DS3505
ZBAA,2000-08-21 13:00,ZBAA 211300Z AUTO 20006KT 6SM 26/20 A2980 RMK T02600200 IEM_DS3505
ZBAA,2000-08-21 14:00,ZBAA 211400Z AUTO 16004KT 6SM 24/20 A2980 RMK T02400200 IEM_DS3505
ZBAA,2000-08-21 15:00,ZBAA 211500Z AUTO 21002KT 7SM 24/18 A2980 RMK SLP093 T02370175 52007 IEM_DS3505
ZBAA,2000-08-21 16:00,ZBAA 211600Z AUTO 13002KT 6SM 22/20 A2983 RMK T02200200 IEM_DS3505
ZBAA,2000-08-21 17:00,ZBAA 211700Z AUTO 10002KT 6SM 21/20 A2983 RMK T02100200 IEM_DS3505
ZBAA,2000-08-21 18:00,ZBAA 211800Z AUTO 00000KT 12SM 22/18 A2980 RMK SLP089 T02220176 57003 IEM_DS3505
ZBAA,2000-08-21 19:00,ZBAA 211900Z AUTO 11002KT 6SM 21/20 A2980 RMK T02100200 IEM_DS3505
ZBAA,2000-08-21 20:00,ZBAA 212000Z AUTO 10004KT 4SM 20/20 A2983 RMK T02000200 IEM_DS3505
ZBAA,2000-08-21 21:00,ZBAA 212100Z AUTO 14002KT 9SM 22/18 A2983 RMK SLP091 T02150179 52002 IEM_DS3505
ZBAA,2000-08-21 22:00,ZBAA 212200Z AUTO 09004KT 4SM 21/20 A2983 RMK T02100200 IEM_DS3505
ZBAA,2000-08-21 23:00,ZBAA 212300Z AUTO 12004KT 3SM 21/20 A2983 RMK T02100200 IEM_DS3505
ZBAA,2000-08-22 00:00,ZBAA 220000Z AUTO 13002KT 6SM 22/19 A2983 RMK SLP100 T02240188 52008 IEM_DS3505
ZBAA,2000-08-22 01:00,ZBAA 220100Z AUTO 12006KT 2 1/2SM 22/21 A2983 RMK T02200210 IEM_DS3505
ZBAA,2000-08-22 02:00,ZBAA 220200Z AUTO 13004KT 2 1/2SM 23/21 A2983 RMK T02300210 IEM_DS3505
ZBAA,2000-08-22 03:00,ZBAA 220300Z AUTO 16004KT 6SM 25/18 A2983 RMK SLP096 T02510183 57003 IEM_DS3505
ZBAA,2000-08-22 04:00,ZBAA 220400Z AUTO 12004KT 2 1/2SM 25/22 A2983 RMK T02500220 IEM_DS3505
ZBAA,2000-08-22 05:00,ZBAA 220500Z AUTO 22004KT 3SM 25/22 A2983 RMK T02500220 IEM_DS3505
ZBAA,2000-08-22 06:00,ZBAA 220600Z AUTO 07002KT 4SM 23/20 A2983 RMK 60008 SLP092 T02300202 57005 IEM_DS3505
ZBAA,2000-08-22 07:00,ZBAA 220700Z AUTO 00000KT 1 1/2SM 23/23 A2980 RMK T02300230 IEM_DS3505
ZBAA,2000-08-22 08:00,ZBAA 220800Z AUTO 36004KT 1SM 23/22 A2980 RMK T02300220 IEM_DS3505
ZBAA,2000-08-22 09:00,ZBAA 220900Z AUTO 10002KT 2 1/2SM 23/21 A2980 RMK SLP082 T02310206 57010 IEM_DS3505
ZBAA,2000-08-22 10:00,ZBAA 221000Z AUTO 08002KT 1SM 23/23 A2977 RMK T02300230 IEM_DS3505
ZBAA,2000-08-22 11:00,ZBAA 221100Z AUTO 02002KT 1SM 23/23 A2980 RMK T02300230 IEM_DS3505
ZBAA,2000-08-22 12:00,ZBAA 221200Z AUTO 12002KT 4SM 22/20 A2980 RMK 60004 SLP086 T02250204 52004 IEM_DS3505
ZBAA,2000-08-22 13:00,ZBAA 221300Z AUTO 00000KT 1SM 22/22 A2983 RMK T02200220 IEM_DS3505
ZBAA,2000-08-22 14:00,ZBAA 221400Z AUTO 26002KT 1SM 22/22 A2983 RMK T02200220 IEM_DS3505
ZBAA,2000-08-22 15:00,ZBAA 221500Z AUTO 12004KT 1 1/4SM 22/20 A2980 RMK SLP086 T02180199 54000 IEM_DS3505
ZBAA,2000-08-22 16:00,ZBAA 221600Z AUTO 29002KT 1SM 22/22 A2980 RMK T02200220 IEM_DS3505
ZBAA,2000-08-22 17:00,ZBAA 221700Z AUTO 00000KT 1SM 22/22 A2980 RMK T02200220 IEM_DS3505
ZBAA,2000-08-22 18:00,ZBAA 221800Z AUTO 20002KT 1 1/4SM 22/20 A2980 RMK SLP086 T02200205 54000 IEM_DS3505
ZBAA,2000-08-22 19:00,ZBAA 221900Z AUTO 27002KT 1/2SM 22/22 A2980 RMK T02200220 IEM_DS3505
ZBAA,2000-08-22 20:00,ZBAA 222000Z AUTO 27002KT 3/8SM 22/22 A2980 RMK T02200220 IEM_DS3505
ZBAA,2000-08-22 21:00,ZBAA 222100Z AUTO 00000KT 1/4SM 21/20 A2980 RMK 70011 SLP084 T02130199 57002 IEM_DS3505
ZBAA,2000-08-22 22:00,ZBAA 222200Z AUTO 00000KT 1/2SM 21/21 A2980 RMK T02100210 IEM_DS3505
ZBAA,2000-08-22 23:00,ZBAA 222300Z AUTO 26002KT 1/2SM 21/21 A2983 RMK T02100210 IEM_DS3505
ZBAA,2000-08-23 00:00,ZBAA 230000Z AUTO 21002KT 1/2SM 22/20 A2983 RMK 70011 SLP097 T02150201 52013 IEM_DS3505
ZBAA,2000-08-23 01:00,ZBAA 230100Z AUTO 17002KT 1 1/4SM 23/22 A2983 RMK T02300220 IEM_DS3505
ZBAA,2000-08-23 02:00,ZBAA 230200Z AUTO 27002KT 1 1/4SM 25/22 A2983 RMK T02500220 IEM_DS3505
ZBAA,2000-08-23 03:00,ZBAA 230300Z AUTO 22002KT 2SM 24/20 A2983 RMK SLP102 T02450202 52005 IEM_DS3505
ZBAA,2000-08-23 04:00,ZBAA 230400Z AUTO 16004KT 1 1/2SM 27/23 A2983 RMK T02700230 IEM_DS3505
ZBAA,2000-08-23 05:00,ZBAA 230500Z AUTO 18002KT 1 1/2SM 28/22 A2983 RMK T02800220 IEM_DS3505
ZBAA,2000-08-23 06:00,ZBAA 230600Z AUTO 15002KT 4SM 29/20 A2980 RMK SLP087 T02890204 57014 IEM_DS3505
ZBAA,2000-08-23 07:00,ZBAA 230700Z AUTO 17004KT 2SM 30/23 A2977 RMK T03000230 IEM_DS3505
ZBAA,2000-08-23 08:00,ZBAA 230800Z AUTO 18006KT 2 1/2SM 30/24 A2977 RMK T03000240 IEM_DS3505
ZBAA,2000-08-23 09:00,ZBAA 230900Z AUTO 21004KT 5SM 30/20 A2980 RMK SLP082 T02960202 57005 IEM_DS3505
ZBAA,2000-08-23 10:00,ZBAA 231000Z AUTO 18008KT 2SM 28/23 A2977 RMK T02800230 IEM_DS3505
ZBAA,2000-08-23 11:00,ZBAA 231100Z AUTO 20008KT 2SM 27/23 A2980 RMK T02700230 IEM_DS3505
ZBAA,2000-08-23 12:00,ZBAA 231200Z AUTO 20002KT 6SM 27/21 RMK SLP096 T02660207 52013 IEM_DS3505
ZBAA,2000-08-23 13:00,ZBAA 231300Z AUTO 17004KT 1 1/2SM 25/23 A2983 RMK T02500230 IEM_DS3505
ZBAA,2000-08-23 14:00,ZBAA 231400Z AUTO 18006KT 1 1/2SM 25/23 A2983 RMK T02500230 IEM_DS3505
ZBAA,2000-08-23 15:00,ZBAA 231500Z AUTO 20002KT 6SM 25/21 RMK SLP100 T02460209 52005 IEM_DS3505
ZBAA,2000-08-23 16:00,ZBAA 231600Z AUTO 09002KT 1SM 23/22 A2985 RMK T02300220 IEM_DS3505
ZBAA,2000-08-23 17:00,ZBAA 231700Z AUTO 10002KT 1SM 22/22 A2985 RMK T02200220 IEM_DS3505
ZBAA,2000-08-23 18:00,ZBAA 231800Z AUTO 00000KT 3SM 23/20 A2983 RMK SLP097 T02260205 57003 IEM_DS3505
ZBAA,2000-08-23 19:00,ZBAA 231900Z AUTO 00000KT 1SM 21/21 A2983 RMK T02100210 IEM_DS3505
ZBAA,2000-08-23 20:00,ZBAA 232000Z AUTO 35002KT 1SM 21/21 A2983 RMK T02100210 IEM_DS3505
ZBAA,2000-08-23 21:00,ZBAA 232100Z AUTO 00000KT 1 1/4SM 22/21 A2983 RMK SLP095 T02230206 57002 IEM_DS3505
ZBAA,2000-08-23 22:00,ZBAA 232200Z AUTO 33002KT 1SM 20/20 A2983 RMK T02000200 IEM_DS3505
ZBAA,2000-08-23 23:00,ZBAA 232300Z AUTO 00000KT 1SM 21/21 A2985 RMK T02100210 IEM_DS3505
ZBAA,2000-08-24 00:00,ZBAA 240000Z AUTO 02002KT 2SM 24/22 A2985 RMK SLP106 T02380217 52011 IEM_DS3505
ZBAA,2000-08-24 01:00,ZBAA 240100Z AUTO 35002KT 1 1/2SM 25/23 A2985 RMK T02500230 IEM_DS3505
ZBAA,2000-08-24 02:00,ZBAA 240200Z AUTO 2SM 27/23 A2985 RMK T02700230 IEM_DS3505
ZBAA,2000-08-24 03:00,ZBAA 240300Z AUTO 00000KT 3SM 29/22 A2985 RMK SLP101 T02910218 57005 IEM_DS3505
ZBAA,2000-08-24 04:00,ZBAA 240400Z AUTO 2 1/2SM 30/23 A2983 RMK T03000230 IEM_DS3505
ZBAA,2000-08-24 05:00,ZBAA 240500Z AUTO 13002KT 31/23 A2980 RMK T03100230 IEM_DS3505
ZBAA,2000-08-24 06:00,ZBAA 240600Z AUTO 31/23 A2977 RMK T03100230 IEM_DS3505
ZBAA,2000-08-24 07:00,ZBAA 240700Z AUTO 11002KT 5SM 32/23 A2974 RMK T03200230 IEM_DS3505
ZBAA,2000-08-24 08:00,ZBAA 240800Z AUTO 14002KT 5SM 32/22 A2974 RMK T03200220 IEM_DS3505
ZBAA,2000-08-24 09:00,ZBAA 240900Z AUTO 12002KT 6SM 32/20 A2974 RMK SLP066 T03210197 57011 IEM_DS3505
ZBAA,2000-08-24 10:00,ZBAA 241000Z AUTO 08002KT 5SM 31/23 A2974 RMK T03100230 IEM_DS3505
ZBAA,2000-08-24 11:00,ZBAA 241100Z AUTO 00000KT 5SM 28/22 A2974 RMK T02800220 IEM_DS3505
ZBAA,2000-08-24 12:00,ZBAA 241200Z AUTO 00000KT 6SM 28/21 A2977 RMK SLP076 T02760209 52010 IEM_DS3505
ZBAA,2000-08-24 13:00,ZBAA 241300Z AUTO 00000KT 4SM 26/22 A2980 RMK T02600220 IEM_DS3505
ZBAA,2000-08-24 14:00,ZBAA 241400Z AUTO 00000KT 4SM 25/23 A2980 RMK T02500230 IEM_DS3505
ZBAA,2000-08-24 15:00,ZBAA 241500Z AUTO 00000KT 6SM 25/21 A2980 RMK SLP083 T02490210 52007 IEM_DS3505
ZBAA,2000-08-24 16:00,ZBAA 241600Z AUTO 11004KT 2SM 25/24 A2980 RMK T02500240 IEM_DS3505
ZBAA,2000-08-24 17:00,ZBAA 241700Z AUTO 07002KT 2SM 24/23 A2980 RMK T02400230 IEM_DS3505
ZBAA,2000-08-24 18:00,ZBAA 241800Z AUTO 00000KT 4SM 24/21 A2980 RMK SLP083 T02450214 54000 IEM_DS3505
ZBAA,2000-08-24 19:00,ZBAA 241900Z AUTO 04002KT 1 1/2SM 23/22 A2980 RMK T02300220 IEM_DS3505
ZBAA,2000-08-24 20:00,ZBAA 242000Z AUTO 00000KT 1 1/2SM 23/22 A2980 RMK T02300220 IEM_DS3505
ZBAA,2000-08-24 21:00,ZBAA 242100Z AUTO 09002KT 3SM 23/21 A2980 RMK SLP084 T02290208 52001 IEM_DS3505
ZBAA,2000-08-24 22:00,ZBAA 242200Z AUTO 35004KT 2 1/2SM 21/21 A2980 RMK T02100210 IEM_DS3505
ZBAA,2000-08-24 23:00,ZBAA 242300Z AUTO 35002KT 3SM 22/21 A2980 RMK T02200210 IEM_DS3505
ZBAA,2000-08-25 00:00,ZBAA 250000Z AUTO 00000KT 3SM 25/21 A2980 RMK SLP089 T02510210 52005 IEM_DS3505
ZBAA,2000-08-25 01:00,ZBAA 250100Z AUTO 6SM 26/21 A2980 RMK T02600210 IEM_DS3505
ZBAA,2000-08-25 02:00,ZBAA 250200Z AUTO 01004KT 6SM 27/21 A2980 RMK T02700210 IEM_DS3505
ZBAA,2000-08-25 03:00,ZBAA 250300Z AUTO 11002KT 3SM 28/22 A2980 RMK SLP081 T02780216 57008 IEM_DS3505
ZBAA,2000-08-25 04:00,ZBAA 250400Z AUTO 17002KT 6SM 29/22 A2977 RMK T02900220 IEM_DS3505
ZBAA,2000-08-25 05:00,ZBAA 250500Z AUTO 6SM 30/23 A2974 RMK T03000230 IEM_DS3505
ZBAA,2000-08-25 06:00,ZBAA 250600Z AUTO 23002KT 4SM 31/22 A2974 RMK SLP063 T03090220 57018 IEM_DS3505
ZBAA,2000-08-25 07:00,ZBAA 250700Z AUTO 17006KT 2 1/2SM 31/26 A2971 RMK T03100260 IEM_DS3505
ZBAA,2000-08-25 08:00,ZBAA 250800Z AUTO 13004KT 5SM 31/25 A2971 RMK T03100250 IEM_DS3505
ZBAA,2000-08-25 09:00,ZBAA 250900Z AUTO 15004KT 4SM 32/22 A2968 RMK SLP046 T03160218 57017 IEM_DS3505
ZBAA,2000-08-25 10:00,ZBAA 251000Z AUTO 16002KT 2 1/2SM 30/26 A2968 RMK T03000260 IEM_DS3505
ZBAA,2000-08-25 11:00,ZBAA 251100Z AUTO 08002KT 2SM 28/26 A2971 RMK T02800260 IEM_DS3505
ZBAA,2000-08-25 12:00,ZBAA 251200Z AUTO 21002KT 6SM 28/22 A2974 RMK SLP062 T02820217 52016 IEM_DS3505
ZBAA,2000-08-25 13:00,ZBAA 251300Z AUTO 36002KT 1 1/2SM 27/25 A2974 RMK T02700250 IEM_DS3505
ZBAA,2000-08-25 14:00,ZBAA 251400Z AUTO 04006KT 4SM 27/23 A2977 RMK T02700230 IEM_DS3505
ZBAA,2000-08-25 15:00,ZBAA 251500Z AUTO 08008KT 4SM 26/20 A2974 RMK SLP071 T02600196 52009 IEM_DS3505
ZBAA,2000-08-25 16:00,ZBAA 251600Z AUTO 29012KT 7SM 24/19 A2977 RMK T02400190 IEM_DS3505
ZBAA,2000-08-25 17:00,ZBAA 251700Z AUTO 28004KT 7SM 23/19 A2974 RMK T02300190 IEM_DS3505
ZBAA,2000-08-25 18:00,ZBAA 251800Z AUTO 29002KT 7SM 24/16 A2971 RMK 60003 SLP060 T02420157 57011 IEM_DS3505
ZBAA,2000-08-25 19:00,ZBAA 251900Z AUTO 28004KT 6SM 22/20 A2971 RMK T02200200 IEM_DS3505
ZBAA,2000-08-25 20:00,ZBAA 252000Z AUTO 00000KT 6SM 20/20 A2971 RMK T02000200 IEM_DS3505
ZBAA,2000-08-25 21:00,ZBAA 252100Z AUTO 03002KT 6SM 21/17 A2971 RMK 70003 SLP057 T02140172 57003 IEM_DS3505
ZBAA,2000-08-25 22:00,ZBAA 252200Z AUTO 34006KT 6SM 19/18 A2974 RMK T01900180 IEM_DS3505
ZBAA,2000-08-25 23:00,ZBAA 252300Z AUTO 35006KT 6SM 21/19 A2974 RMK T02100190 IEM_DS3505
ZBAA,2000-08-26 00:00,ZBAA 260000Z AUTO 03004KT 9SM 24/16 A2974 RMK 70003 SLP069 T02430158 52012 IEM_DS3505
ZBAA,2000-08-26 01:00,ZBAA 260100Z AUTO 35004KT 6SM 25/20 A2977 RMK T02500200 IEM_DS3505
ZBAA,2000-08-26 02:00,ZBAA 260200Z AUTO 04004KT 6SM 27/19 A2977 RMK T02700190 IEM_DS3505
ZBAA,2000-08-26 03:00,ZBAA 260300Z AUTO 08004KT 6SM 29/17 A2977 RMK SLP069 T02890171 54000 IEM_DS3505
ZBAA,2000-08-26 04:00,ZBAA 260400Z AUTO 10004KT 6SM 30/19 A2974 RMK T03000190 IEM_DS3505
ZBAA,2000-08-26 05:00,ZBAA 260500Z AUTO 6SM 30/22 A2974 RMK T03000220 IEM_DS3505
ZBAA,2000-08-26 06:00,ZBAA 260600Z AUTO 13004KT 9SM 31/18 A2971 RMK SLP059 T03100180 57010 IEM_DS3505
ZBAA,2000-08-26 07:00,ZBAA 260700Z AUTO 15004KT 6SM 32/22 A2971 RMK T03200220 IEM_DS3505
ZBAA,2000-08-26 08:00,ZBAA 260800Z AUTO 23006KT 7SM 31/21 A2971 RMK T03100210 IEM_DS3505
ZBAA,2000-08-26 09:00,ZBAA 260900Z AUTO 25002KT 12SM 31/15 A2971 RMK SLP054 T03110151 57005 IEM_DS3505
ZBAA,2000-08-26 10:00,ZBAA 261000Z AUTO 27006KT 7SM 29/21 A2971 RMK T02900210 IEM_DS3505
ZBAA,2000-08-26 11:00,ZBAA 261100Z AUTO 6SM 27/22 A2974 RMK T02700220 IEM_DS3505
ZBAA,2000-08-26 12:00,ZBAA 261200Z AUTO 08006KT 27/19 A2977 RMK SLP075 T02710187 52021 IEM_DS3505
ZBAA,2000-08-26 13:00,ZBAA 261300Z AUTO 11006KT 6SM 24/19 A2980 RMK T02400190 IEM_DS3505
ZBAA,2000-08-26 14:00,ZBAA 261400Z AUTO 13002KT 6SM 23/20 A2983 RMK T02300200 IEM_DS3505
ZBAA,2000-08-26 15:00,ZBAA 261500Z AUTO 07002KT 6SM 23/18 A2983 RMK SLP093 T02330175 52017 IEM_DS3505
ZBAA,2000-08-26 16:00,ZBAA 261600Z AUTO 28002KT 6SM 23/20 A2983 RMK T02300200 IEM_DS3505
ZBAA,2000-08-26 17:00,ZBAA 261700Z AUTO 00000KT 7SM 23/20 A2983 RMK T02300200 IEM_DS3505
ZBAA,2000-08-26 18:00,ZBAA 261800Z AUTO 05002KT 6SM 23/18 A2983 RMK SLP095 T02280177 52003 IEM_DS3505
ZBAA,2000-08-26 19:00,ZBAA 261900Z AUTO 00000KT 4SM 23/21 A2983 RMK T02300210 IEM_DS3505
ZBAA,2000-08-26 20:00,ZBAA 262000Z AUTO 13002KT 4SM 23/21 A2983 RMK T02300210 IEM_DS3505
ZBAA,2000-08-26 21:00,ZBAA 262100Z AUTO 08004KT 6SM 22/18 A2983 RMK SLP096 T02170175 52001 IEM_DS3505
ZBAA,2000-08-26 22:00,ZBAA 262200Z AUTO 11002KT 4SM 23/20 A2985 RMK T02300200 IEM_DS3505
ZBAA,2000-08-26 23:00,ZBAA 262300Z AUTO 10002KT 4SM 23/21 A2985 RMK T02300210 IEM_DS3505
ZBAA,2000-08-27 00:00,ZBAA 270000Z AUTO 13004KT 6SM 24/18 A2988 RMK SLP114 T02350182 52018 IEM_DS3505
ZBAA,2000-08-27 01:00,ZBAA 270100Z AUTO 11004KT 4SM 25/21 A2988 RMK T02500210 IEM_DS3505
ZBAA,2000-08-27 02:00,ZBAA 270200Z AUTO 12004KT 4SM 26/23 A2988 RMK T02600230 IEM_DS3505
ZBAA,2000-08-27 03:00,ZBAA 270300Z AUTO 20002KT 6SM 28/19 A2988 RMK SLP116 T02810188 52002 IEM_DS3505
ZBAA,2000-08-27 04:00,ZBAA 270400Z AUTO 19006KT 28/22 A2988 RMK T02800220 IEM_DS3505
ZBAA,2000-08-27 05:00,ZBAA 270500Z AUTO 13004KT 29/23 A2985 RMK T02900230 IEM_DS3505
ZBAA,2000-08-27 06:00,ZBAA 270600Z AUTO 13006KT 7SM 30/20 A2985 RMK SLP101 T02990199 57015 IEM_DS3505
ZBAA,2000-08-27 07:00,ZBAA 270700Z AUTO 11006KT 4SM 28/24 A2983 RMK T02800240 IEM_DS3505
ZBAA,2000-08-27 08:00,ZBAA 270800Z AUTO 11006KT 4SM 28/24 A2985 RMK T02800240 IEM_DS3505
ZBAA,2000-08-27 09:00,ZBAA 270900Z AUTO 21002KT 6SM 30/19 A2985 RMK SLP105 T03000194 52004 IEM_DS3505
ZBAA,2000-08-27 10:00,ZBAA 271000Z AUTO 30017G33KT 1 1/4SM 24/17 A2988 RMK T02400170 IEM_DS3505
ZBAA,2000-08-27 11:00,ZBAA 271100Z AUTO 35010KT 7SM 19/19 A2991 RMK T01900190 IEM_DS3505
ZBAA,2000-08-27 12:00,ZBAA 271200Z AUTO 30002KT 7SM 21/17 A2994 RMK 60126 SLP130 T02130173 52024 IEM_DS3505
ZBAA,2000-08-27 13:00,ZBAA 271300Z AUTO 31004KT 6SM 21/18 A2994 RMK T02100180 IEM_DS3505
ZBAA,2000-08-27 14:00,ZBAA 271400Z AUTO 05002KT 6SM 20/19 A2988 RMK T02000190 IEM_DS3505
ZBAA,2000-08-27 15:00,ZBAA 271500Z AUTO 27002KT 6SM 22/17 A2991 RMK SLP127 T02160168 57003 IEM_DS3505
ZBAA,2000-08-27 16:00,ZBAA 271600Z AUTO 26004KT 6SM 20/19 A2991 RMK T02000190 IEM_DS3505
ZBAA,2000-08-27 17:00,ZBAA 271700Z AUTO 6SM 20/19 A2991 RMK T02000190 IEM_DS3505
ZBAA,2000-08-27 18:00,ZBAA 271800Z AUTO 07002KT 5SM 20/17 RMK 60003 SLP120 T01960172 57007 IEM_DS3505
ZBAA,2000-08-27 19:00,ZBAA 271900Z AUTO 32006KT 6SM 19/19 A2991 RMK T01900190 IEM_DS3505
ZBAA,2000-08-27 20:00,ZBAA 272000Z AUTO 30004KT 6SM 19/18 A2991 RMK T01900180 IEM_DS3505
ZBAA,2000-08-27 21:00,ZBAA 272100Z AUTO 07004KT 5SM 19/17 A2991 RMK 70126 SLP126 T01890169 52006 IEM_DS3505
ZBAA,2000-08-27 22:00,ZBAA 272200Z AUTO 34006KT 6SM 19/18 A2991 RMK T01900180 IEM_DS3505
ZBAA,2000-08-27 23:00,ZBAA 272300Z AUTO 7SM 19/18 A2994 RMK T01900180 IEM_DS3505
ZBAA,2000-08-28 00:00,ZBAA 280000Z AUTO 10002KT 7SM 22/18 A2994 RMK 70126 SLP139 T02210175 52013 IEM_DS3505
ZBAA,2000-08-28 01:00,ZBAA 280100Z AUTO 4SM 22/20 A2997 RMK T02200200 IEM_DS3505
ZBAA,2000-08-28 02:00,ZBAA 280200Z AUTO 3SM 24/21 A2997 RMK T02400210 IEM_DS3505
ZBAA,2000-08-28 03:00,ZBAA 280300Z AUTO 18002KT 6SM 27/16 A2994 RMK SLP135 T02720165 57004 IEM_DS3505
ZBAA,2000-08-28 04:00,ZBAA 280400Z AUTO 17004KT 27/20 A2994 RMK T02700200 IEM_DS3505
ZBAA,2000-08-28 05:00,ZBAA 280500Z AUTO 21002KT 28/21 A2991 RMK T02800210 IEM_DS3505
ZBAA,2000-08-28 06:00,ZBAA 280600Z AUTO 25002KT 6SM 30/17 A2988 RMK SLP118 T02960174 57017 IEM_DS3505
ZBAA,2000-08-28 07:00,ZBAA 280700Z AUTO 3SM 29/22 A2985 RMK T02900220 IEM_DS3505
ZBAA,2000-08-28 08:00,ZBAA 280800Z AUTO 28004KT 3SM 28/22 A2985 RMK T02800220 IEM_DS3505
ZBAA,2000-08-28 09:00,ZBAA 280900Z AUTO 25006KT 6SM 28/17 A2985 RMK SLP110 T02750171 57008 IEM_DS3505
ZBAA,2000-08-28 10:00,ZBAA 281000Z AUTO 23004KT 27/21 A2985 RMK T02700210 IEM_DS3505
ZBAA,2000-08-28 11:00,ZBAA 281100Z AUTO 23006KT 7SM 24/17 A2985 RMK T02400170 IEM_DS3505
ZBAA,2000-08-28 12:00,ZBAA 281200Z AUTO 22008KT 9SM 22/16 A2985 RMK 60008 SLP114 T02200163 52004 IEM_DS3505
ZBAA,2000-08-28 13:00,ZBAA 281300Z AUTO 14002KT 6SM 22/19 A2991 RMK T02200190 IEM_DS3505
ZBAA,2000-08-28 14:00,ZBAA 281400Z AUTO 11004KT 7SM 22/19 A2991 RMK T02200190 IEM_DS3505
ZBAA,2000-08-28 15:00,ZBAA 281500Z AUTO 08002KT 7SM 21/18 A2991 RMK SLP126 T02110183 52012 IEM_DS3505
ZBAA,2000-08-28 16:00,ZBAA 281600Z AUTO 12004KT 4SM 21/19 A2991 RMK T02100190 IEM_DS3505
ZBAA,2000-08-28 17:00,ZBAA 281700Z AUTO 35004KT 4SM 21/20 A2988 RMK T02100200 IEM_DS3505
ZBAA,2000-08-28 18:00,ZBAA 281800Z AUTO 24002KT 6SM 21/18 RMK 60003 SLP113 T02060178 57012 IEM_DS3505
ZBAA,2000-08-28 19:00,ZBAA 281900Z AUTO 00000KT 2 1/2SM 20/19 A2988 RMK T02000190 IEM_DS3505
ZBAA,2000-08-28 20:00,ZBAA 282000Z AUTO 25002KT 2 1/2SM 20/19 A2988 RMK T02000190 IEM_DS3505
ZBAA,2000-08-28 21:00,ZBAA 282100Z AUTO 00000KT 6SM 19/17 A2988 RMK 70007 SLP113 T01930174 57001 IEM_DS3505
ZBAA,2000-08-28 22:00,ZBAA 282200Z AUTO 00000KT 2SM 19/19 A2988 RMK T01900190 IEM_DS3505
ZBAA,2000-08-28 23:00,ZBAA 282300Z AUTO 00000KT 2SM 20/20 A2988 RMK T02000200 IEM_DS3505
ZBAA,2000-08-29 00:00,ZBAA 290000Z AUTO 09004KT 5SM 22/18 A2988 RMK 70007 SLP119 T02250181 52006 IEM_DS3505
ZBAA,2000-08-29 01:00,ZBAA 290100Z AUTO 11004KT 3SM 23/20 A2991 RMK T02300200 IEM_DS3505
ZBAA,2000-08-29 02:00,ZBAA 290200Z AUTO 12004KT 3SM 24/21 A2991 RMK T02400210 IEM_DS3505
ZBAA,2000-08-29 03:00,ZBAA 290300Z AUTO 29002KT 4SM 26/17 A2988 RMK SLP120 T02600171 52001 IEM_DS3505
ZBAA,2000-08-29 04:00,ZBAA 290400Z AUTO 17004KT 27/20 A2988 RMK T02700200 IEM_DS3505
ZBAA,2000-08-29 05:00,ZBAA 290500Z AUTO 19004KT 3SM 28/20 A2985 RMK T02800200 IEM_DS3505
ZBAA,2000-08-29 06:00,ZBAA 290600Z AUTO 22004KT 9SM 28/17 A2983 RMK SLP095 T02800169 57025 IEM_DS3505
ZBAA,2000-08-29 07:00,ZBAA 290700Z AUTO 08004KT 3SM 29/21 A2980 RMK T02900210 IEM_DS3505
ZBAA,2000-08-29 08:00,ZBAA 290800Z AUTO 12004KT 29/21 A2977 RMK T02900210 IEM_DS3505
ZBAA,2000-08-29 09:00,ZBAA 290900Z AUTO 21006KT 7SM 28/17 A2977 RMK SLP078 T02830172 57017 IEM_DS3505
ZBAA,2000-08-29 10:00,ZBAA 291000Z AUTO 16006KT 6SM 27/21 A2977 RMK T02700210 IEM_DS3505
ZBAA,2000-08-29 11:00,ZBAA 291100Z AUTO 16004KT 6SM 25/20 A2980 RMK T02500200 IEM_DS3505
ZBAA,2000-08-29 12:00,ZBAA 291200Z AUTO 19002KT 6SM 25/19 A2980 RMK SLP088 T02460190 52010 IEM_DS3505
ZBAA,2000-08-29 13:00,ZBAA 291300Z AUTO 07002KT 5SM 23/21 A2983 RMK T02300210 IEM_DS3505
ZBAA,2000-08-29 14:00,ZBAA 291400Z AUTO 00000KT 4SM 22/21 A2983 RMK T02200210 IEM_DS3505
ZBAA,2000-08-29 15:00,ZBAA 291500Z AUTO 17002KT 6SM 24/18 A2983 RMK SLP101 T02360185 52013 IEM_DS3505
ZBAA,2000-08-29 16:00,ZBAA 291600Z AUTO 15002KT 4SM 22/21 A2983 RMK T02200210 IEM_DS3505
ZBAA,2000-08-29 17:00,ZBAA 291700Z AUTO 11002KT 3SM 21/21 A2983 RMK T02100210 IEM_DS3505
ZBAA,2000-08-29 18:00,ZBAA 291800Z AUTO 00000KT 6SM 23/19 A2983 RMK SLP091 T02260194 57009 IEM_DS3505
ZBAA,2000-08-29 19:00,ZBAA 291900Z AUTO 00000KT 2 1/2SM 21/21 A2983 RMK T02100210 IEM_DS3505
ZBAA,2000-08-29 20:00,ZBAA 292000Z AUTO 00000KT 2SM 21/21 A2980 RMK T02100210 IEM_DS3505
ZBAA,2000-08-29 21:00,ZBAA 292100Z AUTO 09002KT 4SM 22/19 A2980 RMK SLP087 T02160193 57004 IEM_DS3505
ZBAA,2000-08-29 22:00,ZBAA 292200Z AUTO 00000KT 1 1/2SM 21/21 A2983 RMK T02100210 IEM_DS3505
ZBAA,2000-08-29 23:00,ZBAA 292300Z AUTO 2SM 22/21 A2983 RMK T02200210 IEM_DS3505
ZBAA,2000-08-30 00:00,ZBAA 300000Z AUTO 11004KT 4SM 23/21 A2985 RMK SLP102 T02310206 52014 IEM_DS3505
ZBAA,2000-08-30 01:00,ZBAA 300100Z AUTO 13004KT 1 1/2SM 23/23 A2985 RMK T02300230 IEM_DS3505
ZBAA,2000-08-30 02:00,ZBAA 300200Z AUTO 25008KT 2SM 21/20 A2985 RMK T02100200 IEM_DS3505
ZBAA,2000-08-30 03:00,ZBAA 300300Z AUTO 01004KT 6SM 23/17 A2985 RMK SLP101 T02280173 57001 IEM_DS3505
ZBAA,2000-08-30 04:00,ZBAA 300400Z AUTO 28004KT 6SM 22/21 A2983 RMK T02200210 IEM_DS3505
ZBAA,2000-08-30 05:00,ZBAA 300500Z AUTO 6SM 25/21 A2980 RMK T02500210 IEM_DS3505
ZBAA,2000-08-30 06:00,ZBAA 300600Z AUTO 11002KT 9SM 26/18 A2977 RMK 60003 SLP079 T02600182 57021 IEM_DS3505
ZBAA,2000-08-30 07:00,ZBAA 300700Z AUTO 12004KT 4SM 26/23 A2977 RMK T02600230 IEM_DS3505
ZBAA,2000-08-30 08:00,ZBAA 300800Z AUTO 15004KT 4SM 26/22 A2977 RMK T02600220 IEM_DS3505
ZBAA,2000-08-30 09:00,ZBAA 300900Z AUTO 13008KT 6SM 25/18 A2977 RMK SLP073 T02510178 57007 IEM_DS3505
ZBAA,2000-08-30 10:00,ZBAA 301000Z AUTO 14004KT 4SM 24/21 A2974 RMK T02400210 IEM_DS3505
ZBAA,2000-08-30 11:00,ZBAA 301100Z AUTO 11002KT 4SM 23/21 A2977 RMK T02300210 IEM_DS3505
ZBAA,2000-08-30 12:00,ZBAA 301200Z AUTO 11004KT 6SM 22/19 A2977 RMK SLP082 T02250187 52009 IEM_DS3505
ZBAA,2000-08-30 13:00,ZBAA 301300Z AUTO 15004KT 4SM 21/20 A2980 RMK T02100200 IEM_DS3505
ZBAA,2000-08-30 14:00,ZBAA 301400Z AUTO 16002KT 4SM 21/19 A2980 RMK T02100190 IEM_DS3505
ZBAA,2000-08-30 15:00,ZBAA 301500Z AUTO 06004KT 6SM 20/17 A2980 RMK SLP082 T02050171 54000 IEM_DS3505
ZBAA,2000-08-30 16:00,ZBAA 301600Z AUTO 18002KT 4SM 20/19 A2980 RMK T02000190 IEM_DS3505
ZBAA,2000-08-30 17:00,ZBAA 301700Z AUTO 11002KT 4SM 19/19 A2977 RMK T01900190 IEM_DS3505
ZBAA,2000-08-30 18:00,ZBAA 301800Z AUTO 03002KT 6SM 20/18 A2977 RMK SLP071 T02010177 57011 IEM_DS3505
ZBAA,2000-08-30 19:00,ZBAA 301900Z AUTO 30002KT 4SM 19/19 A2974 RMK T01900190 IEM_DS3505
ZBAA,2000-08-30 20:00,ZBAA 302000Z AUTO 04002KT 3SM 19/19 A2974 RMK T01900190 IEM_DS3505
ZBAA,2000-08-30 21:00,ZBAA 302100Z AUTO 35002KT 4SM 20/18 A2974 RMK 70003 SLP066 T01990179 57005 IEM_DS3505
ZBAA,2000-08-30 22:00,ZBAA 302200Z AUTO 00000KT 1 1/2SM 20/20 A2974 RMK T02000200 IEM_DS3505
ZBAA,2000-08-30 23:00,ZBAA 302300Z AUTO 34004KT 1 1/2SM 20/20 A2974 RMK T02000200 IEM_DS3505
ZBAA,2000-08-31 00:00,ZBAA 310000Z AUTO 34002KT 5SM 22/18 A2974 RMK 70003 SLP061 T02250185 57005 IEM_DS3505
ZBAA,2000-08-31 01:00,ZBAA 310100Z AUTO 01004KT 2 1/2SM 23/20 A2974 RMK T02300200 IEM_DS3505
ZBAA,2000-08-31 02:00,ZBAA 310200Z AUTO 30006KT 3SM 25/20 A2971 RMK T02500200 IEM_DS3505
ZBAA,2000-08-31 03:00,ZBAA 310300Z AUTO 04002KT 6SM 27/18 A2971 RMK SLP050 T02680179 57010 IEM_DS3505
ZBAA,2000-08-31 04:00,ZBAA 310400Z AUTO 36004KT 5SM 27/21 A2968 RMK T02700210 IEM_DS3505
ZBAA,2000-08-31 05:00,ZBAA 310500Z AUTO 5SM 28/21 A2965 RMK T02800210 IEM_DS3505
ZBAA,2000-08-31 06:00,ZBAA 310600Z AUTO 13002KT 6SM 29/18 A2962 RMK SLP028 T02900178 57022 IEM_DS3505
ZBAA,2000-08-31 07:00,ZBAA 310700Z AUTO 13002KT 6SM 30/20 A2962 RMK T03000200 IEM_DS3505
ZBAA,2000-08-31 08:00,ZBAA 310800Z AUTO 13004KT 6SM 29/21 A2959 RMK T02900210 IEM_DS3505
ZBAA,2000-08-31 09:00,ZBAA 310900Z AUTO 15004KT 7SM 28/18 A2959 RMK SLP016 T02780185 57012 IEM_DS3505
ZBAA,2000-08-31 10:00,ZBAA 311000Z AUTO 15004KT 6SM 27/22 A2959 RMK T02700220 IEM_DS3505
ZBAA,2000-08-31 12:00,ZBAA 311200Z AUTO 00000KT 6SM 25/19 A2962 RMK SLP024 T02520189 52008 IEM_DS3505
ZBAA,2000-08-31 13:00,ZBAA 311300Z AUTO 14002KT 4SM 24/22 A2962 RMK T02400220 IEM_DS3505
ZBAA,2000-08-31 14:00,ZBAA 311400Z AUTO 20004KT 3SM 24/21 A2962 RMK T02400210 IEM_DS3505
ZBAA,2000-08-31 15:00,ZBAA 311500Z AUTO 25002KT 4SM 24/20 A2962 RMK SLP027 T02360195 52003 IEM_DS3505
ZBAA,2000-08-31 16:00,ZBAA 311600Z AUTO 00000KT 2 1/2SM 22/22 A2962 RMK T02200220 IEM_DS3505
ZBAA,2000-08-31 17:00,ZBAA 311700Z AUTO 14002KT 2SM 21/21 A2962 RMK T02100210 IEM_DS3505
ZBAA,2000-08-31 18:00,ZBAA 311800Z AUTO 23002KT 4SM 22/20 A2962 RMK SLP028 T02230195 52001 IEM_DS3505
ZBAA,2000-08-31 19:00,ZBAA 311900Z AUTO 01002KT 1 1/4SM 21/21 A2965 RMK T02100210 IEM_DS3505
ZBAA,2000-08-31 20:00,ZBAA 312000Z AUTO 35004KT 1 1/4SM 20/20 A2965 RMK T02000200 IEM_DS3505
ZBAA,2000-08-31 21:00,ZBAA 312100Z AUTO 00000KT 1 1/2SM 21/19 A2965 RMK SLP035 T02110192 52007 IEM_DS3505
ZBAA,2000-08-31 22:00,ZBAA 312200Z AUTO 33004KT 1 1/4SM 21/20 A2965 RMK T02100200 IEM_DS3505
ZBAA,2000-08-31 23:00,ZBAA 312300Z AUTO 34006KT 2SM 22/21 A2968 RMK T02200210 IEM_DS3505
ZBAA,2000-09-01 00:00,ZBAA 010000Z AUTO 34004KT 3SM 24/20 A2968 RMK SLP049 T02420203 52014 IEM_DS3505
ZBAA,2000-09-01 02:00,ZBAA 010200Z AUTO 35006KT 4SM 27/22 A2971 RMK T02700220 IEM_DS3505
ZBAA,2000-09-01 03:00,ZBAA 010300Z AUTO 02002KT 5SM 30/18 A2971 RMK SLP055 T02960184 52006 IEM_DS3505
ZBAA,2000-09-01 04:00,ZBAA 010400Z AUTO 5SM 30/21 A2971 RMK T03000210 IEM_DS3505
ZBAA,2000-09-01 05:00,ZBAA 010500Z AUTO 16004KT 5SM 32/22 A2968 RMK T03200220 IEM_DS3505
ZBAA,2000-09-01 06:00,ZBAA 010600Z AUTO 15004KT 6SM 32/18 A2968 RMK SLP043 T03200179 57012 IEM_DS3505
ZBAA,2000-09-01 07:00,ZBAA 010700Z AUTO 15004KT 6SM 32/21 A2965 RMK T03200210 IEM_DS3505
ZBAA,2000-09-01 08:00,ZBAA 010800Z AUTO 15004KT 5SM 32/22 A2965 RMK T03200220 IEM_DS3505
ZBAA,2000-09-01 09:00,ZBAA 010900Z AUTO 20004KT 7SM 31/17 A2965 RMK SLP041 T03130172 57002 IEM_DS3505
ZBAA,2000-09-01 10:00,ZBAA 011000Z AUTO 15004KT 29/22 A2968 RMK T02900220 IEM_DS3505
ZBAA,2000-09-01 11:00,ZBAA 011100Z AUTO 14004KT 28/21 A2968 RMK T02800210 IEM_DS3505
ZBAA,2000-09-01 12:00,ZBAA 011200Z AUTO 17002KT 6SM 27/20 A2971 RMK SLP057 T02710200 52016 IEM_DS3505
ZBAA,2000-09-01 13:00,ZBAA 011300Z AUTO 14002KT 4SM 26/23 A2971 RMK T02600230 IEM_DS3505
ZBAA,2000-09-01 14:00,ZBAA 011400Z AUTO 15002KT 3SM 25/23 A2974 RMK T02500230 IEM_DS3505
ZBAA,2000-09-01 15:00,ZBAA 011500Z AUTO 00000KT 6SM 25/20 A2974 RMK SLP071 T02470200 52014 IEM_DS3505
ZBAA,2000-09-01 16:00,ZBAA 011600Z AUTO 00000KT 2 1/2SM 23/23 A2977 RMK T02300230 IEM_DS3505
ZBAA,2000-09-01 17:00,ZBAA 011700Z AUTO 07002KT 2 1/2SM 23/23 A2977 RMK T02300230 IEM_DS3505
ZBAA,2000-09-01 18:00,ZBAA 011800Z AUTO 08002KT 4SM 23/20 A2977 RMK SLP079 T02260198 52008 IEM_DS3505
ZBAA,2000-09-01 21:00,ZBAA 012100Z AUTO 00000KT 3SM 23/20 A2980 RMK SLP089 T02270200 52010 IEM_DS3505
ZBAA,2000-09-01 22:00,ZBAA 012200Z AUTO 36002KT 2SM 22/22 A2983 RMK T02200220 IEM_DS3505
ZBAA,2000-09-01 23:00,ZBAA 012300Z AUTO 36002KT 1 1/4SM 23/22 A2985 RMK T02300220 IEM_DS3505
ZBAA,2000-09-02 00:00,ZBAA 020000Z AUTO 08002KT 2 1/2SM 24/21 A2985 RMK SLP103 T02450214 52014 IEM_DS3505
ZBAA,2000-09-02 01:00,ZBAA 020100Z AUTO 1 1/2SM 26/24 A2985 RMK T02600240 IEM_DS3505
ZBAA,2000-09-02 02:00,ZBAA 020200Z AUTO 1 1/2SM 28/24 A2985 RMK T02800240 IEM_DS3505
ZBAA,2000-09-02 03:00,ZBAA 020300Z AUTO 11002KT 2SM 29/22 A2985 RMK SLP104 T02920219 52001 IEM_DS3505
ZBAA,2000-09-02 04:00,ZBAA 020400Z AUTO 14002KT 2 1/2SM 31/25 A2983 RMK T03100250 IEM_DS3505
ZBAA,2000-09-02 05:00,ZBAA 020500Z AUTO 2 1/2SM 32/23 A2983 RMK T03200230 IEM_DS3505
ZBAA,2000-09-02 06:00,ZBAA 020600Z AUTO 20006KT 5SM 31/20 A2980 RMK SLP089 T03140197 57015 IEM_DS3505
ZBAA,2000-09-02 07:00,ZBAA 020700Z AUTO 17004KT 2 1/2SM 32/24 A2980 RMK T03200240 IEM_DS3505
ZBAA,2000-09-02 08:00,ZBAA 020800Z AUTO 15004KT 2 1/2SM 31/24 A2980 RMK T03100240 IEM_DS3505
ZBAA,2000-09-02 09:00,ZBAA 020900Z AUTO 21004KT 5SM 31/19 A2980 RMK SLP085 T03100190 57004 IEM_DS3505
ZBAA,2000-09-02 10:00,ZBAA 021000Z AUTO 15002KT 2 1/2SM 29/24 A2980 RMK T02900240 IEM_DS3505
ZBAA,2000-09-02 11:00,ZBAA 021100Z AUTO 10002KT 2 1/2SM 28/24 A2983 RMK T02800240 IEM_DS3505
ZBAA,2000-09-02 12:00,ZBAA 021200Z AUTO 17002KT 6SM 28/21 A2985 RMK SLP103 T02790207 52018 IEM_DS3505
ZBAA,2000-09-02 13:00,ZBAA 021300Z AUTO 10002KT 2 1/2SM 26/24 A2985 RMK T02600240 IEM_DS3505
ZBAA,2000-09-02 14:00,ZBAA 021400Z AUTO 11004KT 2 1/2SM 25/23 A2985 RMK T02500230 IEM_DS3505
ZBAA,2000-09-02 15:00,ZBAA 021500Z AUTO 15004KT 6SM 25/21 A2988 RMK SLP113 T02500207 52010 IEM_DS3505
ZBAA,2000-09-02 16:00,ZBAA 021600Z AUTO 10002KT 2SM 24/23 A2988 RMK T02400230 IEM_DS3505
ZBAA,2000-09-02 17:00,ZBAA 021700Z AUTO 00000KT 2SM 23/22 A2988 RMK T02300220 IEM_DS3505
ZBAA,2000-09-02 18:00,ZBAA 021800Z AUTO 00000KT 2 1/2SM 23/20 A2988 RMK SLP115 T02330203 52002 IEM_DS3505
ZBAA,2000-09-02 19:00,ZBAA 021900Z AUTO 00000KT 1 1/2SM 22/22 A2988 RMK T02200220 IEM_DS3505
ZBAA,2000-09-02 20:00,ZBAA 022000Z AUTO 13002KT 1 1/4SM 22/22 A2988 RMK T02200220 IEM_DS3505
ZBAA,2000-09-02 21:00,ZBAA 022100Z AUTO 08004KT 2SM 22/20 A2988 RMK SLP117 T02210200 52002 IEM_DS3505
ZBAA,2000-09-02 22:00,ZBAA 022200Z AUTO 01002KT 1SM 22/22 A2988 RMK T02200220 IEM_DS3505
ZBAA,2000-09-02 23:00,ZBAA 022300Z AUTO 00000KT 1SM 23/22 A2991 RMK T02300220 IEM_DS3505
ZBAA,2000-09-03 00:00,ZBAA 030000Z AUTO 08002KT 2SM 24/21 A2991 RMK SLP124 T02380213 52007 IEM_DS3505
ZBAA,2000-09-03 01:00,ZBAA 030100Z AUTO 1 1/4SM 25/23 A2991 RMK T02500230 IEM_DS3505
ZBAA,2000-09-03 02:00,ZBAA 030200Z AUTO 2SM 27/23 A2991 RMK T02700230 IEM_DS3505
ZBAA,2000-09-03 03:00,ZBAA 030300Z AUTO 20002KT 3SM 29/22 A2991 RMK SLP122 T02870220 57002 IEM_DS3505
ZBAA,2000-09-03 04:00,ZBAA 030400Z AUTO 2 1/2SM 29/24 A2988 RMK T02900240 IEM_DS3505
ZBAA,2000-09-03 05:00,ZBAA 030500Z AUTO 12004KT 2 1/2SM 30/24 A2985 RMK T03000240 IEM_DS3505
ZBAA,2000-09-03 06:00,ZBAA 030600Z AUTO 16004KT 6SM 31/20 A2985 RMK SLP104 T03110204 57018 IEM_DS3505
ZBAA,2000-09-03 07:00,ZBAA 030700Z AUTO 17006KT 5SM 31/24 A2983 RMK T03100240 IEM_DS3505
ZBAA,2000-09-03 08:00,ZBAA 030800Z AUTO 15006KT 31/24 A2983 RMK T03100240 IEM_DS3505
ZBAA,2000-09-03 09:00,ZBAA 030900Z AUTO 19004KT 6SM 30/20 A2983 RMK SLP094 T03040201 57010 IEM_DS3505
ZBAA,2000-09-03 10:00,ZBAA 031000Z AUTO 15002KT 4SM 29/24 A2983 RMK T02900240 IEM_DS3505
ZBAA,2000-09-03 11:00,ZBAA 031100Z AUTO 17004KT 4SM 28/24 A2983 RMK T02800240 IEM_DS3505
ZBAA,2000-09-03 12:00,ZBAA 031200Z AUTO 17002KT 6SM 28/20 A2985 RMK SLP102 T02790199 52008 IEM_DS3505
ZBAA,2000-09-03 13:00,ZBAA 031300Z AUTO 12002KT 4SM 26/23 A2985 RMK T02600230 IEM_DS3505
ZBAA,2000-09-03 14:00,ZBAA 031400Z AUTO 13004KT 4SM 25/23 A2985 RMK T02500230 IEM_DS3505
ZBAA,2000-09-03 15:00,ZBAA 031500Z AUTO 23002KT 7SM 25/19 A2985 RMK SLP104 T02540188 52002 IEM_DS3505
ZBAA,2000-09-03 16:00,ZBAA 031600Z AUTO 14004KT 5SM 25/21 A2985 RMK T02500210 IEM_DS3505
ZBAA,2000-09-03 17:00,ZBAA 031700Z AUTO 15004KT 5SM 24/21 A2983 RMK T02400210 IEM_DS3505
ZBAA,2000-09-03 18:00,ZBAA 031800Z AUTO 17002KT 6SM 24/19 A2983 RMK SLP096 T02380187 57008 IEM_DS3505
ZBAA,2000-09-03 19:00,ZBAA 031900Z AUTO 14002KT 5SM 23/21 A2983 RMK T02300210 IEM_DS3505
ZBAA,2000-09-03 20:00,ZBAA 032000Z AUTO 00000KT 4SM 23/21 A2983 RMK T02300210 IEM_DS3505
ZBAA,2000-09-03 21:00,ZBAA 032100Z AUTO 00000KT 6SM 23/19 A2983 RMK SLP091 T02270191 57005 IEM_DS3505
ZBAA,2000-09-03 22:00,ZBAA 032200Z AUTO 00000KT 3SM 22/22 A2983 RMK T02200220 IEM_DS3505
ZBAA,2000-09-03 23:00,ZBAA 032300Z AUTO 09002KT 2 1/2SM 23/22 A2983 RMK T02300220 IEM_DS3505
ZBAA,2000-09-04 00:00,ZBAA 040000Z AUTO 24002KT 6SM 25/20 A2985 RMK SLP101 T02510195 52010 IEM_DS3505
ZBAA,2000-09-04 01:00,ZBAA 040100Z AUTO 01002KT 2 1/2SM 24/23 A2985 RMK T02400230 IEM_DS3505
ZBAA,2000-09-04 02:00,ZBAA 040200Z AUTO 36004KT 2 1/2SM 25/23 A2985 RMK T02500230 IEM_DS3505
ZBAA,2000-09-04 03:00,ZBAA 040300Z AUTO 01004KT 6SM 26/19 A2985 RMK SLP110 T02570191 52009 IEM_DS3505
ZBAA,2000-09-04 04:00,ZBAA 040400Z AUTO 31008KT 6SM 26/18 A2985 RMK T02600180 IEM_DS3505
ZBAA,2000-09-04 05:00,ZBAA 040500Z AUTO 30014KT 6SM 26/18 A2985 RMK T02600180 IEM_DS3505
ZBAA,2000-09-04 06:00,ZBAA 040600Z AUTO 34010KT 9SM 26/14 A2985 RMK SLP105 T02570139 57005 IEM_DS3505
ZBAA,2000-09-04 07:00,ZBAA 040700Z AUTO 30014KT 6SM 24/17 A2985 RMK T02400170 IEM_DS3505
ZBAA,2000-09-04 08:00,ZBAA 040800Z AUTO 31012KT 7SM 24/18 A2985 RMK T02400180 IEM_DS3505
ZBAA,2000-09-04 09:00,ZBAA 040900Z AUTO 34010KT 9SM 23/14 A2988 RMK SLP110 T02330138 52004 IEM_DS3505
ZBAA,2000-09-04 10:00,ZBAA 041000Z AUTO 32016KT 7SM 21/18 A2988 RMK T02100180 IEM_DS3505
ZBAA,2000-09-04 11:00,ZBAA 041100Z AUTO 32012KT 7SM 20/18 A2991 RMK T02000180 IEM_DS3505
ZBAA,2000-09-04 12:00,ZBAA 041200Z AUTO 33010KT 9SM 19/15 A2994 RMK 60003 SLP140 T01930152 52030 IEM_DS3505
ZBAA,2000-09-04 13:00,ZBAA 041300Z AUTO 32010KT 7SM 19/18 A2997 RMK T01900180 IEM_DS3505
ZBAA,2000-09-04 14:00,ZBAA 041400Z AUTO 30008KT 7SM 19/18 A3000 RMK T01900180 IEM_DS3505
ZBAA,2000-09-04 15:00,ZBAA 041500Z AUTO 35008KT 7SM 18/15 A3000 RMK SLP155 T01800153 52014 IEM_DS3505
ZBAA,2000-09-04 16:00,ZBAA 041600Z AUTO 33008KT 7SM 18/17 A3003 RMK T01800170 IEM_DS3505
ZBAA,2000-09-04 17:00,ZBAA 041700Z AUTO 32010KT 7SM 18/17 A3003 RMK T01800170 IEM_DS3505
ZBAA,2000-09-04 18:00,ZBAA 041800Z AUTO 36002KT 9SM 18/15 A3003 RMK 60055 SLP160 T01770150 52006 IEM_DS3505
ZBAA,2000-09-04 19:00,ZBAA 041900Z AUTO 35006KT 7SM 17/17 A3003 RMK T01700170 IEM_DS3505
ZBAA,2000-09-04 20:00,ZBAA 042000Z AUTO 36006KT 7SM 17/16 A3003 RMK T01700160 IEM_DS3505
ZBAA,2000-09-04 21:00,ZBAA 042100Z AUTO 00000KT 12SM 17/14 A3006 RMK 70061 SLP169 T01730140 52009 IEM_DS3505
ZBAA,2000-09-04 22:00,ZBAA 042200Z AUTO 03004KT 7SM 17/15 A3006 RMK T01700150 IEM_DS3505
ZBAA,2000-09-04 23:00,ZBAA 042300Z AUTO 34004KT 7SM 17/16 A3009 RMK T01700160 IEM_DS3505
ZBAA,2000-09-05 00:00,ZBAA 050000Z AUTO 04004KT 19SM 19/12 A3009 RMK 60004 SLP183 T01890124 52013 IEM_DS3505
ZBAA,2000-09-05 01:00,ZBAA 050100Z AUTO 36006KT 6SM 20/15 A3009 RMK T02000150 IEM_DS3505
ZBAA,2000-09-05 02:00,ZBAA 050200Z AUTO 32004KT 6SM 21/16 A3009 RMK T02100160 IEM_DS3505
ZBAA,2000-09-05 03:00,ZBAA 050300Z AUTO 02006KT 12SM 23/10 A3009 RMK SLP183 T02260101 52001 IEM_DS3505
ZBAA,2000-09-05 04:00,ZBAA 050400Z AUTO 01008KT 6SM 24/12 A3006 RMK T02400120 IEM_DS3505
ZBAA,2000-09-05 05:00,ZBAA 050500Z AUTO 36006KT 6SM 25/10 A3003 RMK T02500100 IEM_DS3505
ZBAA,2000-09-05 06:00,ZBAA 050600Z AUTO 03002KT 19SM 25/08 A3000 RMK SLP160 T02530075 57023 IEM_DS3505
ZBAA,2000-09-05 07:00,ZBAA 050700Z AUTO 6SM 26/10 A2997 RMK T02600100 IEM_DS3505
ZBAA,2000-09-05 08:00,ZBAA 050800Z AUTO 17006KT 6SM 26/12 A2997 RMK T02600120 IEM_DS3505
ZBAA,2000-09-05 09:00,ZBAA 050900Z AUTO 17004KT 19SM 24/09 A2997 RMK SLP146 T02450093 57014 IEM_DS3505
ZBAA,2000-09-05 10:00,ZBAA 051000Z AUTO 17002KT 6SM 23/14 A2997 RMK T02300140 IEM_DS3505
ZBAA,2000-09-05 11:00,ZBAA 051100Z AUTO 20006KT 6SM 22/13 A2997 RMK T02200130 IEM_DS3505
ZBAA,2000-09-05 12:00,ZBAA 051200Z AUTO 24002KT 9SM 21/11 A3000 RMK SLP156 T02100114 52010 IEM_DS3505
ZBAA,2000-09-05 13:00,ZBAA 051300Z AUTO 35006KT 6SM 18/11 A3000 RMK T01800110 IEM_DS3505
ZBAA,2000-09-05 14:00,ZBAA 051400Z AUTO 34006KT 6SM 20/07 A3000 RMK T02000070 IEM_DS3505
ZBAA,2000-09-05 15:00,ZBAA 051500Z AUTO 33006KT 12SM 21/03 A3003 RMK SLP164 T02060034 52008 IEM_DS3505
ZBAA,2000-09-05 16:00,ZBAA 051600Z AUTO 35006KT 6SM 17/08 A3003 RMK T01700080 IEM_DS3505
ZBAA,2000-09-05 17:00,ZBAA 051700Z AUTO 31006KT 6SM 17/05 A3003 RMK T01700050 IEM_DS3505
ZBAA,2000-09-05 18:00,ZBAA 051800Z AUTO 32004KT 12SM 20/M00 A3003 RMK SLP171 T01991001 52007 IEM_DS3505
ZBAA,2000-09-05 19:00,ZBAA 051900Z AUTO 35008KT 6SM 15/06 A3006 RMK T01500060 IEM_DS3505
ZBAA,2000-09-05 20:00,ZBAA 052000Z AUTO 35004KT 6SM 16/05 A3006 RMK T01600050 IEM_DS3505
ZBAA,2000-09-05 21:00,ZBAA 052100Z AUTO 03002KT 12SM 16/03 A3006 RMK 70003 SLP175 T01550027 52004 IEM_DS3505
ZBAA,2000-09-05 22:00,ZBAA 052200Z AUTO 01002KT 6SM 14/06 A3009 RMK T01400060 IEM_DS3505
ZBAA,2000-09-05 23:00,ZBAA 052300Z AUTO 00000KT 6SM 17/09 A3009 RMK T01700090 IEM_DS3505
ZBAA,2000-09-06 00:00,ZBAA 060000Z AUTO 04006KT 19SM 19/02 A3009 RMK SLP188 T01930022 52013 IEM_DS3505
ZBAA,2000-09-06 01:00,ZBAA 060100Z AUTO 01004KT 6SM 20/03 A3012 RMK T02000030 IEM_DS3505
ZBAA,2000-09-06 02:00,ZBAA 060200Z AUTO 32004KT 6SM 21/05 A3009 RMK T02100050 IEM_DS3505
ZBAA,2000-09-06 03:00,ZBAA 060300Z AUTO 32008KT 19SM 23/M03 A3009 RMK SLP182 T02271028 57006 IEM_DS3505
ZBAA,2000-09-06 04:00,ZBAA 060400Z AUTO 33006KT 6SM 23/04 A3006 RMK T02300040 IEM_DS3505
ZBAA,2000-09-06 05:00,ZBAA 060500Z AUTO 33008KT 6SM 24/05 A3003 RMK T02400050 IEM_DS3505
ZBAA,2000-09-06 06:00,ZBAA 060600Z AUTO 32010KT 19SM 25/ A3000 RMK SLP154 57028 IEM_DS3505
ZBAA,2000-09-06 07:00,ZBAA 060700Z AUTO 28006KT 6SM 25/07 A2997 RMK T02500070 IEM_DS3505
ZBAA,2000-09-06 08:00,ZBAA 060800Z AUTO 31008KT 6SM 25/03 A2997 RMK T02500030 IEM_DS3505
ZBAA,2000-09-06 09:00,ZBAA 060900Z AUTO 27006KT 6SM 25/04 A2997 RMK T02500040 IEM_DS3505
ZBAA,2000-09-06 10:00,ZBAA 061000Z AUTO 26004KT 6SM 25/05 A2997 RMK T02500050 IEM_DS3505
ZBAA,2000-09-06 11:00,ZBAA 061100Z AUTO 20004KT 6SM 21/07 A2997 RMK T02100070 IEM_DS3505
ZBAA,2000-09-06 12:00,ZBAA 061200Z AUTO 22002KT 7SM 20/06 A3000 RMK SLP158 T01960064 52014 IEM_DS3505
ZBAA,2000-09-06 13:00,ZBAA 061300Z AUTO 21006KT 6SM 20/06 A3000 RMK T02000060 IEM_DS3505
ZBAA,2000-09-06 14:00,ZBAA 061400Z AUTO 22006KT 6SM 20/07 A3000 RMK T02000070 IEM_DS3505
ZBAA,2000-09-06 15:00,ZBAA 061500Z AUTO 24002KT 9SM 17/08 A3000 RMK SLP162 T01710075 52003 IEM_DS3505
ZBAA,2000-09-06 16:00,ZBAA 061600Z AUTO 11002KT 6SM 14/11 A3003 RMK T01400110 IEM_DS3505
ZBAA,2000-09-06 17:00,ZBAA 061700Z AUTO 01002KT 6SM 14/12 A3000 RMK T01400120 IEM_DS3505
ZBAA,2000-09-06 18:00,ZBAA 061800Z AUTO 27002KT 6SM 15/09 A3000 RMK SLP159 T01500089 57002 IEM_DS3505
ZBAA,2000-09-06 19:00,ZBAA 061900Z AUTO 33004KT 6SM 13/11 A3000 RMK T01300110 IEM_DS3505
ZBAA,2000-09-06 20:00,ZBAA 062000Z AUTO 33004KT 6SM 12/10 A3000 RMK T01200100 IEM_DS3505
ZBAA,2000-09-06 21:00,ZBAA 062100Z AUTO 00000KT 7SM 14/09 A3000 RMK SLP159 T01410087 54000 IEM_DS3505
ZBAA,2000-09-06 22:00,ZBAA 062200Z AUTO 34004KT 6SM 11/10 A3003 RMK T01100100 IEM_DS3505
ZBAA,2000-09-06 23:00,ZBAA 062300Z AUTO 34004KT 6SM 14/12 A3003 RMK T01400120 IEM_DS3505
ZBAA,2000-09-07 00:00,ZBAA 070000Z AUTO 33002KT 7SM 20/06 A3003 RMK SLP165 T01960060 52006 IEM_DS3505
ZBAA,2000-09-07 01:00,ZBAA 070100Z AUTO 35006KT 6SM 20/11 A3003 RMK T02000110 IEM_DS3505
ZBAA,2000-09-07 02:00,ZBAA 070200Z AUTO 33004KT 6SM 22/11 A3003 RMK T02200110 IEM_DS3505
ZBAA,2000-09-07 03:00,ZBAA 070300Z AUTO 02004KT 17SM 26/06 A3003 RMK SLP163 T02550057 57002 IEM_DS3505
ZBAA,2000-09-07 04:00,ZBAA 070400Z AUTO 6SM 26/08 A3000 RMK T02600080 IEM_DS3505
ZBAA,2000-09-07 05:00,ZBAA 070500Z AUTO 26004KT 6SM 27/07 A3000 RMK T02700070 IEM_DS3505
ZBAA,2000-09-07 06:00,ZBAA 070600Z AUTO 28002KT 19SM 28/M00 A2997 RMK SLP144 T02761004 57019 IEM_DS3505
ZBAA,2000-09-07 07:00,ZBAA 070700Z AUTO 14004KT 6SM 28/08 A2994 RMK T02800080 IEM_DS3505
ZBAA,2000-09-07 08:00,ZBAA 070800Z AUTO 13004KT 6SM 28/07 A2994 RMK T02800070 IEM_DS3505
ZBAA,2000-09-07 09:00,ZBAA 070900Z AUTO 13004KT 19SM 27/06 A2994 RMK SLP140 T02670056 57004 IEM_DS3505
ZBAA,2000-09-07 10:00,ZBAA 071000Z AUTO 14002KT 6SM 25/12 A2994 RMK T02500120 IEM_DS3505
ZBAA,2000-09-07 11:00,ZBAA 071100Z AUTO 17004KT 6SM 22/10 A2997 RMK T02200100 IEM_DS3505
ZBAA,2000-09-07 12:00,ZBAA 071200Z AUTO 18002KT 9SM 21/09 A2997 RMK SLP152 T02110094 52012 IEM_DS3505
ZBAA,2000-09-07 13:00,ZBAA 071300Z AUTO 14002KT 6SM 18/13 A3000 RMK T01800130 IEM_DS3505
ZBAA,2000-09-07 14:00,ZBAA 071400Z AUTO 13004KT 6SM 18/13 A3000 RMK T01800130 IEM_DS3505
ZBAA,2000-09-07 15:00,ZBAA 071500Z AUTO 18002KT 10SM 19/09 A3000 RMK SLP155 T01880090 52003 IEM_DS3505
ZBAA,2000-09-07 16:00,ZBAA 071600Z AUTO 03002KT 6SM 16/13 A3000 RMK T01600130 IEM_DS3505
ZBAA,2000-09-07 17:00,ZBAA 071700Z AUTO 00000KT 6SM 15/13 A3000 RMK T01500130 IEM_DS3505
ZBAA,2000-09-07 18:00,ZBAA 071800Z AUTO 26002KT 6SM 17/10 A3000 RMK SLP153 T01700097 57002 IEM_DS3505
ZBAA,2000-09-07 19:00,ZBAA 071900Z AUTO 00000KT 5SM 14/12 A3000 RMK T01400120 IEM_DS3505
ZBAA,2000-09-07 20:00,ZBAA 072000Z AUTO 01002KT 5SM 14/13 A3000 RMK T01400130 IEM_DS3505
ZBAA,2000-09-07 21:00,ZBAA 072100Z AUTO 00000KT 5SM 14/11 A3000 RMK SLP158 T01420106 52005 IEM_DS3505
ZBAA,2000-09-07 22:00,ZBAA 072200Z AUTO 35004KT 6SM 13/12 A3003 RMK T01300120 IEM_DS3505
ZBAA,2000-09-07 23:00,ZBAA 072300Z AUTO 36002KT 6SM 14/13 A3003 RMK T01400130 IEM_DS3505
ZBAA,2000-09-08 00:00,ZBAA 080000Z AUTO 00000KT 6SM 20/12 A3003 RMK SLP170 T01970117 52012 IEM_DS3505
ZBAA,2000-09-08 01:00,ZBAA 080100Z AUTO 04002KT 6SM 20/14 A3006 RMK T02000140 IEM_DS3505
ZBAA,2000-09-08 02:00,ZBAA 080200Z AUTO 5SM 22/14 A3006 RMK T02200140 IEM_DS3505
ZBAA,2000-09-08 03:00,ZBAA 080300Z AUTO 17002KT 5SM 25/11 A3003 RMK SLP170 T02530108 54000 IEM_DS3505
ZBAA,2000-09-08 04:00,ZBAA 080400Z AUTO 17004KT 26/14 A3003 RMK T02600140 IEM_DS3505
ZBAA,2000-09-08 05:00,ZBAA 080500Z AUTO 17004KT 27/13 A3000 RMK T02700130 IEM_DS3505
ZBAA,2000-09-08 06:00,ZBAA 080600Z AUTO 20008KT 12SM 28/08 A3000 RMK SLP154 T02810079 57016 IEM_DS3505
ZBAA,2000-09-08 07:00,ZBAA 080700Z AUTO 18008KT 6SM 29/14 A2997 RMK T02900140 IEM_DS3505
ZBAA,2000-09-08 08:00,ZBAA 080800Z AUTO 18008KT 6SM 28/12 A2997 RMK T02800120 IEM_DS3505
ZBAA,2000-09-08 09:00,ZBAA 080900Z AUTO 20006KT 12SM 28/08 A2997 RMK SLP146 T02770081 57008 IEM_DS3505
ZBAA,2000-09-08 10:00,ZBAA 081000Z AUTO 16004KT 7SM 25/14 A2997 RMK T02500140 IEM_DS3505
ZBAA,2000-09-08 11:00,ZBAA 081100Z AUTO 17004KT 6SM 23/13 A2997 RMK T02300130 IEM_DS3505
ZBAA,2000-09-08 12:00,ZBAA 081200Z AUTO 17002KT 9SM 22/11 A3003 RMK SLP161 T02210109 52015 IEM_DS3505
ZBAA,2000-09-08 13:00,ZBAA 081300Z AUTO 14002KT 6SM 20/14 A3003 RMK T02000140 IEM_DS3505
ZBAA,2000-09-08 14:00,ZBAA 081400Z AUTO 16006KT 6SM 19/14 A3003 RMK T01900140 IEM_DS3505
ZBAA,2000-09-08 15:00,ZBAA 081500Z AUTO 13004KT 6SM 19/14 A3003 RMK T01900140 IEM_DS3505
ZBAA,2000-09-08 16:00,ZBAA 081600Z AUTO 16002KT 5SM 18/14 A3003 RMK T01800140 IEM_DS3505
ZBAA,2000-09-08 17:00,ZBAA 081700Z AUTO 00000KT 4SM 16/15 A3003 RMK T01600150 IEM_DS3505
ZBAA,2000-09-08 18:00,ZBAA 081800Z AUTO 25002KT 6SM 18/11 A3003 RMK SLP166 T01750113 57001 IEM_DS3505
ZBAA,2000-09-08 19:00,ZBAA 081900Z AUTO 09002KT 4SM 15/14 A3003 RMK T01500140 IEM_DS3505
ZBAA,2000-09-08 20:00,ZBAA 082000Z AUTO 00000KT 3SM 15/14 A3003 RMK T01500140 IEM_DS3505
ZBAA,2000-09-08 21:00,ZBAA 082100Z AUTO 00000KT 5SM 16/12 A3003 RMK SLP167 T01550117 52001 IEM_DS3505
ZBAA,2000-09-08 22:00,ZBAA 082200Z AUTO 36002KT 3SM 14/13 A3006 RMK T01400130 IEM_DS3505
ZBAA,2000-09-08 23:00,ZBAA 082300Z AUTO 34004KT 4SM 15/15 A3006 RMK T01500150 IEM_DS3505
ZBAA,2000-09-09 00:00,ZBAA 090000Z AUTO 05002KT 5SM 19/14 A3006 RMK SLP178 T01890135 52011 IEM_DS3505
ZBAA,2000-09-09 01:00,ZBAA 090100Z AUTO 01004KT 6SM 20/15 A3009 RMK T02000150 IEM_DS3505
ZBAA,2000-09-09 02:00,ZBAA 090200Z AUTO 01004KT 6SM 22/15 A3006 RMK T02200150 IEM_DS3505
ZBAA,2000-09-09 03:00,ZBAA 090300Z AUTO 00000KT 6SM 25/12 A3006 RMK SLP178 T02490115 54000 IEM_DS3505
ZBAA,2000-09-09 04:00,ZBAA 090400Z AUTO 6SM 26/15 A3006 RMK T02600150 IEM_DS3505
ZBAA,2000-09-09 05:00,ZBAA 090500Z AUTO 17006KT 6SM 27/16 A3003 RMK T02700160 IEM_DS3505
ZBAA,2000-09-09 06:00,ZBAA 090600Z AUTO 22008KT 7SM 28/10 A3000 RMK SLP154 T02810099 57024 IEM_DS3505
ZBAA,2000-09-09 07:00,ZBAA 090700Z AUTO 6SM 29/14 A2997 RMK T02900140 IEM_DS3505
ZBAA,2000-09-09 08:00,ZBAA 090800Z AUTO 18004KT 6SM 29/14 A2997 RMK T02900140 IEM_DS3505
ZBAA,2000-09-09 09:00,ZBAA 090900Z AUTO 20004KT 9SM 28/09 A2997 RMK SLP149 T02770091 57005 IEM_DS3505
ZBAA,2000-09-09 10:00,ZBAA 091000Z AUTO 16006KT 6SM 25/15 A2997 RMK T02500150 IEM_DS3505
ZBAA,2000-09-09 11:00,ZBAA 091100Z AUTO 19008KT 6SM 24/14 A2997 RMK T02400140 IEM_DS3505
ZBAA,2000-09-09 12:00,ZBAA 091200Z AUTO 20002KT 6SM 22/12 A3000 RMK SLP157 T02250122 52008 IEM_DS3505
ZBAA,2000-09-09 13:00,ZBAA 091300Z AUTO 13004KT 6SM 20/15 A3000 RMK T02000150 IEM_DS3505
ZBAA,2000-09-09 14:00,ZBAA 091400Z AUTO 14004KT 6SM 19/15 A3003 RMK T01900150 IEM_DS3505
ZBAA,2000-09-09 15:00,ZBAA 091500Z AUTO 18002KT 6SM 19/13 A3003 RMK SLP165 T01940131 52008 IEM_DS3505
ZBAA,2000-09-09 16:00,ZBAA 091600Z AUTO 06002KT 4SM 18/16 A3003 RMK T01800160 IEM_DS3505
ZBAA,2000-09-09 17:00,ZBAA 091700Z AUTO 07002KT 4SM 17/15 A3003 RMK T01700150 IEM_DS3505
ZBAA,2000-09-09 18:00,ZBAA 091800Z AUTO 20002KT 5SM 18/13 A3000 RMK SLP160 T01810128 57005 IEM_DS3505
ZBAA,2000-09-09 19:00,ZBAA 091900Z AUTO 36002KT 4SM 15/15 A3003 RMK T01500150 IEM_DS3505
ZBAA,2000-09-09 20:00,ZBAA 092000Z AUTO 00000KT 3SM 15/15 A3003 RMK T01500150 IEM_DS3505
ZBAA,2000-09-09 21:00,ZBAA 092100Z AUTO 00000KT 4SM 16/13 A3003 RMK SLP162 T01600129 52002 IEM_DS3505
ZBAA,2000-09-09 22:00,ZBAA 092200Z AUTO 35004KT 2SM 15/15 A3003 RMK T01500150 IEM_DS3505
ZBAA,2000-09-09 23:00,ZBAA 092300Z AUTO 01004KT 2 1/2SM 16/15 A3003 RMK T01600150 IEM_DS3505
ZBAA,2000-09-10 00:00,ZBAA 100000Z AUTO 02002KT 3SM 19/14 A3003 RMK SLP167 T01930141 52005 IEM_DS3505
ZBAA,2000-09-10 01:00,ZBAA 100100Z AUTO 01004KT 6SM 21/16 A3003 RMK T02100160 IEM_DS3505
ZBAA,2000-09-10 02:00,ZBAA 100200Z AUTO 01004KT 6SM 23/14 A3003 RMK T02300140 IEM_DS3505
ZBAA,2000-09-10 03:00,ZBAA 100300Z AUTO 08004KT 5SM 25/14 A3003 RMK SLP165 T02470145 57002 IEM_DS3505
ZBAA,2000-09-10 04:00,ZBAA 100400Z AUTO 6SM 26/15 A3000 RMK T02600150 IEM_DS3505
ZBAA,2000-09-10 05:00,ZBAA 100500Z AUTO 6SM 27/18 A2997 RMK T02700180 IEM_DS3505
ZBAA,2000-09-10 06:00,ZBAA 100600Z AUTO 17002KT 6SM 27/14 A2997 RMK SLP143 T02710142 57022 IEM_DS3505
ZBAA,2000-09-10 07:00,ZBAA 100700Z AUTO 16006KT 27/18 A2994 RMK T02700180 IEM_DS3505
ZBAA,2000-09-10 08:00,ZBAA 100800Z AUTO 16004KT 27/16 A2994 RMK T02700160 IEM_DS3505
ZBAA,2000-09-10 09:00,ZBAA 100900Z AUTO 21006KT 6SM 27/13 A2991 RMK SLP131 T02720132 57012 IEM_DS3505
ZBAA,2000-09-10 10:00,ZBAA 101000Z AUTO 16004KT 25/17 A2991 RMK T02500170 IEM_DS3505
ZBAA,2000-09-10 11:00,ZBAA 101100Z AUTO 17004KT 2 1/2SM 23/17 A2994 RMK T02300170 IEM_DS3505
ZBAA,2000-09-10 12:00,ZBAA 101200Z AUTO 20002KT 6SM 22/10 A2994 RMK SLP141 T02210096 52010 IEM_DS3505
ZBAA,2000-09-10 13:00,ZBAA 101300Z AUTO 15004KT 2 1/2SM 20/14 A2994 RMK T02000140 IEM_DS3505
ZBAA,2000-09-10 14:00,ZBAA 101400Z AUTO 13002KT 2 1/2SM 20/14 A2994 RMK T02000140 IEM_DS3505
ZBAA,2000-09-10 15:00,ZBAA 101500Z AUTO 21002KT 6SM 20/10 A2994 RMK SLP139 T01980105 57002 IEM_DS3505
ZBAA,2000-09-10 16:00,ZBAA 101600Z AUTO 12002KT 2 1/2SM 19/15 A2994 RMK T01900150 IEM_DS3505
ZBAA,2000-09-10 17:00,ZBAA 101700Z AUTO 00000KT 2SM 18/15 A2994 RMK T01800150 IEM_DS3505
ZBAA,2000-09-10 18:00,ZBAA 101800Z AUTO 23002KT 6SM 18/11 A2994 RMK SLP131 T01810112 57008 IEM_DS3505
ZBAA,2000-09-10 19:00,ZBAA 101900Z AUTO 00000KT 2SM 16/14 A2994 RMK T01600140 IEM_DS3505
ZBAA,2000-09-10 20:00,ZBAA 102000Z AUTO 36002KT 1 1/4SM 16/15 A2994 RMK T01600150 IEM_DS3505
ZBAA,2000-09-10 21:00,ZBAA 102100Z AUTO 00000KT 5SM 15/12 A2994 RMK SLP132 T01500118 52001 IEM_DS3505
ZBAA,2000-09-10 22:00,ZBAA 102200Z AUTO 34004KT 1 1/4SM 16/15 A2994 RMK T01600150 IEM_DS3505
ZBAA,2000-09-10 23:00,ZBAA 102300Z AUTO 35002KT 1 1/4SM 16/15 A2994 RMK T01600150 IEM_DS3505
ZBAA,2000-09-11 00:00,ZBAA 110000Z AUTO 07002KT 2 1/2SM 19/14 A2994 RMK SLP138 T01940142 52006 IEM_DS3505
ZBAA,2000-09-11 01:00,ZBAA 110100Z AUTO 2SM 21/17 A2997 RMK T02100170 IEM_DS3505
ZBAA,2000-09-11 02:00,ZBAA 110200Z AUTO 10002KT 2 1/2SM 23/17 A2997 RMK T02300170 IEM_DS3505
ZBAA,2000-09-11 03:00,ZBAA 110300Z AUTO 13002KT 6SM 25/13 A2997 RMK SLP146 T02530129 52008 IEM_DS3505
ZBAA,2000-09-11 04:00,ZBAA 110400Z AUTO 3SM 26/17 A2994 RMK T02600170 IEM_DS3505
ZBAA,2000-09-11 05:00,ZBAA 110500Z AUTO 12004KT 3SM 27/17 A2994 RMK T02700170 IEM_DS3505
ZBAA,2000-09-11 06:00,ZBAA 110600Z AUTO 18002KT 9SM 28/07 A2991 RMK SLP128 T02850072 57018 IEM_DS3505
ZBAA,2000-09-11 07:00,ZBAA 110700Z AUTO 16006KT 6SM 29/10 A2991 RMK T02900100 IEM_DS3505
ZBAA,2000-09-11 08:00,ZBAA 110800Z AUTO 17008KT 6SM 29/09 A2991 RMK T02900090 IEM_DS3505
ZBAA,2000-09-11 09:00,ZBAA 110900Z AUTO 19004G17KT 12SM 28/06 A2991 RMK SLP125 T02810057 57003 IEM_DS3505
ZBAA,2000-09-11 10:00,ZBAA 111000Z AUTO 16004KT 6SM 25/10 A2991 RMK T02500100 IEM_DS3505
ZBAA,2000-09-11 11:00,ZBAA 111100Z AUTO 17002KT 6SM 23/09 A2991 RMK T02300090 IEM_DS3505
ZBAA,2000-09-11 12:00,ZBAA 111200Z AUTO 21002KT 7SM 22/07 A2994 RMK SLP136 T02230073 52011 IEM_DS3505
ZBAA,2000-09-11 13:00,ZBAA 111300Z AUTO 20004KT 6SM 24/09 A2994 RMK T02400090 IEM_DS3505
ZBAA,2000-09-11 14:00,ZBAA 111400Z AUTO 00000KT 19/12 A2997 RMK T01900120 IEM_DS3505
ZBAA,2000-09-11 15:00,ZBAA 111500Z AUTO 13002KT 7SM 18/10 A2997 RMK SLP148 T01780100 52011 IEM_DS3505
ZBAA,2000-09-11 16:00,ZBAA 111600Z AUTO 00000KT 3SM 17/13 A2997 RMK T01700130 IEM_DS3505
ZBAA,2000-09-11 17:00,ZBAA 111700Z AUTO 34004KT 2 1/2SM 15/14 A2997 RMK T01500140 IEM_DS3505
ZBAA,2000-09-11 18:00,ZBAA 111800Z AUTO 07002KT 6SM 16/10 A2997 RMK SLP149 T01560104 52002 IEM_DS3505
ZBAA,2000-09-11 19:00,ZBAA 111900Z AUTO 00000KT 2 1/2SM 15/12 A2997 RMK T01500120 IEM_DS3505
ZBAA,2000-09-11 20:00,ZBAA 112000Z AUTO 34004KT 4SM 14/12 A3000 RMK T01400120 IEM_DS3505
ZBAA,2000-09-11 21:00,ZBAA 112100Z AUTO 04004KT 6SM 16/11 A3000 RMK SLP156 T01630113 52007 IEM_DS3505
ZBAA,2000-09-11 22:00,ZBAA 112200Z AUTO 35004KT 4SM 14/11 A3003 RMK T01400110 IEM_DS3505
ZBAA,2000-09-11 23:00,ZBAA 112300Z AUTO 35002KT 4SM 14/12 A3003 RMK T01400120 IEM_DS3505
ZBAA,2000-09-12 00:00,ZBAA 120000Z AUTO 07002KT 6SM 19/13 A3003 RMK SLP164 T01880128 52008 IEM_DS3505
ZBAA,2000-09-12 01:00,ZBAA 120100Z AUTO 34008KT 5SM 19/14 A3006 RMK T01900140 IEM_DS3505
ZBAA,2000-09-12 02:00,ZBAA 120200Z AUTO 6SM 22/13 A3006 RMK T02200130 IEM_DS3505
ZBAA,2000-09-12 03:00,ZBAA 120300Z AUTO 03004KT 4SM 23/14 A3006 RMK SLP178 T02270138 52014 IEM_DS3505
ZBAA,2000-09-12 04:00,ZBAA 120400Z AUTO 6SM 25/15 A3006 RMK T02500150 IEM_DS3505
ZBAA,2000-09-12 05:00,ZBAA 120500Z AUTO 10004KT 25/17 A3006 RMK T02500170 IEM_DS3505
ZBAA,2000-09-12 06:00,ZBAA 120600Z AUTO 08002KT 4SM 26/16 A3003 RMK SLP168 T02580161 57010 IEM_DS3505
ZBAA,2000-09-12 07:00,ZBAA 120700Z AUTO 00000KT 5SM 26/18 A3003 RMK T02600180 IEM_DS3505
ZBAA,2000-09-12 08:00,ZBAA 120800Z AUTO 13002KT 6SM 26/18 A3003 RMK T02600180 IEM_DS3505
ZBAA,2000-09-12 09:00,ZBAA 120900Z AUTO 00000KT 6SM 26/15 A3003 RMK SLP162 T02630151 57006 IEM_DS3505
ZBAA,2000-09-12 10:00,ZBAA 121000Z AUTO 00000KT 6SM 24/15 A3003 RMK T02400150 IEM_DS3505
ZBAA,2000-09-12 11:00,ZBAA 121100Z AUTO 36002KT 22/15 A3003 RMK T02200150 IEM_DS3505
ZBAA,2000-09-12 12:00,ZBAA 121200Z AUTO 33002KT 3SM 22/16 A3006 RMK SLP174 T02230159 52012 IEM_DS3505
ZBAA,2000-09-12 13:00,ZBAA 121300Z AUTO 01002KT 2 1/2SM 19/17 A3006 RMK T01900170 IEM_DS3505
ZBAA,2000-09-12 14:00,ZBAA 121400Z AUTO 31002KT 2 1/2SM 20/15 A3009 RMK T02000150 IEM_DS3505
ZBAA,2000-09-12 15:00,ZBAA 121500Z AUTO 34002KT 2 1/2SM 19/16 A3009 RMK SLP184 T01890158 52009 IEM_DS3505
ZBAA,2000-09-12 16:00,ZBAA 121600Z AUTO 00000KT 2SM 17/16 A3009 RMK T01700160 IEM_DS3505
ZBAA,2000-09-12 17:00,ZBAA 121700Z AUTO 31002KT 2SM 17/15 A3009 RMK T01700150 IEM_DS3505
ZBAA,2000-09-12 18:00,ZBAA 121800Z AUTO 00000KT 2 1/2SM 18/14 A3009 RMK SLP181 T01760141 57002 IEM_DS3505
ZBAA,2000-09-12 19:00,ZBAA 121900Z AUTO 36004KT 2 1/2SM 17/15 A3009 RMK T01700150 IEM_DS3505
ZBAA,2000-09-12 20:00,ZBAA 122000Z AUTO 34006KT 2 1/2SM 15/14 A3006 RMK T01500140 IEM_DS3505
ZBAA,2000-09-12 21:00,ZBAA 122100Z AUTO 00000KT 5SM 17/12 A3009 RMK SLP182 T01660122 52001 IEM_DS3505
ZBAA,2000-09-12 22:00,ZBAA 122200Z AUTO 33006KT 4SM 15/13 A3009 RMK T01500130 IEM_DS3505
ZBAA,2000-09-12 23:00,ZBAA 122300Z AUTO 34006KT 4SM 16/14 A3009 RMK T01600140 IEM_DS3505
ZBAA,2000-09-13 00:00,ZBAA 130000Z AUTO 36002KT 3SM 20/13 A3009 RMK SLP189 T02050127 52007 IEM_DS3505
ZBAA,2000-09-13 01:00,ZBAA 130100Z AUTO 35004KT 21/15 A3012 RMK T02100150 IEM_DS3505
ZBAA,2000-09-13 02:00,ZBAA 130200Z AUTO 36004KT 5SM 23/14 A3012 RMK T02300140 IEM_DS3505
ZBAA,2000-09-13 03:00,ZBAA 130300Z AUTO 02004KT 6SM 26/10 A3009 RMK SLP185 T02610103 57004 IEM_DS3505
ZBAA,2000-09-13 04:00,ZBAA 130400Z AUTO 35004KT 6SM 27/12 A3006 RMK T02700120 IEM_DS3505
ZBAA,2000-09-13 05:00,ZBAA 130500Z AUTO 7SM 29/12 A3006 RMK T02900120 IEM_DS3505
ZBAA,2000-09-13 06:00,ZBAA 130600Z AUTO 05004KT 12SM 29/08 A3003 RMK SLP166 T02890075 57019 IEM_DS3505
ZBAA,2000-09-13 07:00,ZBAA 130700Z AUTO 7SM 30/12 A3000 RMK T03000120 IEM_DS3505
ZBAA,2000-09-13 08:00,ZBAA 130800Z AUTO 18004KT 7SM 29/11 A3000 RMK T02900110 IEM_DS3505
ZBAA,2000-09-13 09:00,ZBAA 130900Z AUTO 14004KT 12SM 28/09 A2997 RMK SLP153 T02810094 57013 IEM_DS3505
ZBAA,2000-09-13 10:00,ZBAA 131000Z AUTO 17004KT 6SM 26/11 A3000 RMK T02600110 IEM_DS3505
ZBAA,2000-09-13 11:00,ZBAA 131100Z AUTO 16002KT 6SM 23/14 A3000 RMK T02300140 IEM_DS3505
ZBAA,2000-09-13 12:00,ZBAA 131200Z AUTO 00000KT 6SM 23/12 A3000 RMK SLP162 T02260120 52009 IEM_DS3505
ZBAA,2000-09-13 13:00,ZBAA 131300Z AUTO 14002KT 6SM 21/15 A3003 RMK T02100150 IEM_DS3505
ZBAA,2000-09-13 14:00,ZBAA 131400Z AUTO 00000KT 6SM 19/16 A3003 RMK T01900160 IEM_DS3505
ZBAA,2000-09-13 15:00,ZBAA 131500Z AUTO 00000KT 6SM 20/13 A3003 RMK SLP163 T02020132 52001 IEM_DS3505
ZBAA,2000-09-13 16:00,ZBAA 131600Z AUTO 00000KT 4SM 18/16 A3003 RMK T01800160 IEM_DS3505
ZBAA,2000-09-13 17:00,ZBAA 131700Z AUTO 00000KT 4SM 17/16 A3003 RMK T01700160 IEM_DS3505
ZBAA,2000-09-13 18:00,ZBAA 131800Z AUTO 00000KT 5SM 17/13 A3003 RMK SLP161 T01730134 57002 IEM_DS3505
ZBAA,2000-09-13 19:00,ZBAA 131900Z AUTO 02002KT 4SM 17/15 A3003 RMK T01700150 IEM_DS3505
ZBAA,2000-09-13 20:00,ZBAA 132000Z AUTO 34002KT 4SM 16/15 A3000 RMK T01600150 IEM_DS3505
ZBAA,2000-09-13 21:00,ZBAA 132100Z AUTO 03002KT 5SM 18/13 A3000 RMK SLP158 T01830134 57003 IEM_DS3505
ZBAA,2000-09-13 22:00,ZBAA 132200Z AUTO 29004KT 5SM 17/15 A3003 RMK T01700150 IEM_DS3505
ZBAA,2000-09-13 23:00,ZBAA 132300Z AUTO 35004KT 6SM 17/15 A3003 RMK T01700150 IEM_DS3505
ZBAA,2000-09-14 00:00,ZBAA 140000Z AUTO 06004KT 6SM 22/13 A3003 RMK SLP166 T02170126 52008 IEM_DS3505
ZBAA,2000-09-14 01:00,ZBAA 140100Z AUTO 01004KT 6SM 22/15 A3003 RMK T02200150 IEM_DS3505
ZBAA,2000-09-14 02:00,ZBAA 140200Z AUTO 36006KT 6SM 25/14 A3003 RMK T02500140 IEM_DS3505
ZBAA,2000-09-14 03:00,ZBAA 140300Z AUTO 06004KT 9SM 26/11 A3003 RMK SLP163 T02580108 57003 IEM_DS3505
ZBAA,2000-09-14 04:00,ZBAA 140400Z AUTO 7SM 27/15 A3000 RMK T02700150 IEM_DS3505
ZBAA,2000-09-14 05:00,ZBAA 140500Z AUTO 7SM 28/15 A2997 RMK T02800150 IEM_DS3505
ZBAA,2000-09-14 06:00,ZBAA 140600Z AUTO 08002KT 9SM 28/10 A2994 RMK SLP139 T02830105 57024 IEM_DS3505
ZBAA,2000-09-14 07:00,ZBAA 140700Z AUTO 13004KT 7SM 29/14 A2994 RMK T02900140 IEM_DS3505
ZBAA,2000-09-14 08:00,ZBAA 140800Z AUTO 19004KT 7SM 29/13 A2991 RMK T02900130 IEM_DS3505
ZBAA,2000-09-14 09:00,ZBAA 140900Z AUTO 12004KT 11SM 28/10 A2991 RMK SLP126 T02780101 57013 IEM_DS3505
ZBAA,2000-09-14 10:00,ZBAA 141000Z AUTO 13004KT 6SM 26/16 A2991 RMK T02600160 IEM_DS3505
ZBAA,2000-09-14 11:00,ZBAA 141100Z AUTO 13002KT 6SM 24/16 A2991 RMK T02400160 IEM_DS3505
ZBAA,2000-09-14 12:00,ZBAA 141200Z AUTO 14002KT 9SM 23/13 A2994 RMK SLP134 T02260128 52008 IEM_DS3505
ZBAA,2000-09-14 13:00,ZBAA 141300Z AUTO 12002KT 6SM 20/17 A2994 RMK T02000170 IEM_DS3505
ZBAA,2000-09-14 14:00,ZBAA 141400Z AUTO 13002KT 4SM 19/16 A2994 RMK T01900160 IEM_DS3505
ZBAA,2000-09-14 15:00,ZBAA 141500Z AUTO 23002KT 6SM 21/16 A2994 RMK SLP136 T02090163 52002 IEM_DS3505
ZBAA,2000-09-14 16:00,ZBAA 141600Z AUTO 00000KT 1 1/4SM 18/17 A2994 RMK T01800170 IEM_DS3505
ZBAA,2000-09-14 17:00,ZBAA 141700Z AUTO 06002KT 1 1/4SM 18/17 A2991 RMK T01800170 IEM_DS3505
ZBAA,2000-09-14 18:00,ZBAA 141800Z AUTO 00000KT 3SM 19/16 A2991 RMK SLP126 T01930156 57010 IEM_DS3505
ZBAA,2000-09-14 19:00,ZBAA 141900Z AUTO 36002KT 1 1/4SM 17/16 A2991 RMK T01700160 IEM_DS3505
ZBAA,2000-09-14 20:00,ZBAA 142000Z AUTO 35006KT 2SM 15/15 A2991 RMK T01500150 IEM_DS3505
ZBAA,2000-09-14 21:00,ZBAA 142100Z AUTO 01002KT 2SM 18/16 A2988 RMK SLP117 T01790155 57009 IEM_DS3505
ZBAA,2000-09-14 22:00,ZBAA 142200Z AUTO 34006KT 3SM 16/14 A2988 RMK T01600140 IEM_DS3505
ZBAA,2000-09-14 23:00,ZBAA 142300Z AUTO 35006KT 3SM 16/15 A2991 RMK T01600150 IEM_DS3505
ZBAA,2000-09-15 00:00,ZBAA 150000Z AUTO 03002KT 5SM 21/14 A2988 RMK SLP118 T02120144 52001 IEM_DS3505
ZBAA,2000-09-15 01:00,ZBAA 150100Z AUTO 35006KT 6SM 22/16 A2988 RMK T02200160 IEM_DS3505
ZBAA,2000-09-15 02:00,ZBAA 150200Z AUTO 33006KT 6SM 25/15 A2988 RMK T02500150 IEM_DS3505
ZBAA,2000-09-15 03:00,ZBAA 150300Z AUTO 02004KT 7SM 28/10 A2988 RMK SLP116 T02750103 57002 IEM_DS3505
ZBAA,2000-09-15 04:00,ZBAA 150400Z AUTO 03002KT 6SM 28/14 A2985 RMK T02800140 IEM_DS3505
ZBAA,2000-09-15 05:00,ZBAA 150500Z AUTO 7SM 29/12 A2983 RMK T02900120 IEM_DS3505
ZBAA,2000-09-15 06:00,ZBAA 150600Z AUTO 10004KT 12SM 29/08 A2983 RMK SLP093 T02920083 57023 IEM_DS3505
ZBAA,2000-09-15 07:00,ZBAA 150700Z AUTO 7SM 30/08 A2980 RMK T03000080 IEM_DS3505
ZBAA,2000-09-15 08:00,ZBAA 150800Z AUTO 18004KT 6SM 30/09 A2977 RMK T03000090 IEM_DS3505
ZBAA,2000-09-15 09:00,ZBAA 150900Z AUTO 13006KT 12SM 29/09 A2977 RMK SLP078 T02870094 57015 IEM_DS3505
ZBAA,2000-09-15 10:00,ZBAA 151000Z AUTO 19004KT 6SM 26/13 A2977 RMK T02600130 IEM_DS3505
ZBAA,2000-09-15 11:00,ZBAA 151100Z AUTO 20006KT 6SM 27/11 A2977 RMK T02700110 IEM_DS3505
ZBAA,2000-09-15 12:00,ZBAA 151200Z AUTO 21002KT 6SM 24/12 A2977 RMK SLP081 T02430120 52003 IEM_DS3505
ZBAA,2000-09-15 13:00,ZBAA 151300Z AUTO 23004KT 5SM 25/13 A2977 RMK T02500130 IEM_DS3505
ZBAA,2000-09-15 14:00,ZBAA 151400Z AUTO 04002KT 21/15 A2977 RMK T02100150 IEM_DS3505
ZBAA,2000-09-15 15:00,ZBAA 151500Z AUTO 29002KT 6SM 21/12 A2977 RMK SLP076 T02100124 57005 IEM_DS3505
ZBAA,2000-09-15 16:00,ZBAA 151600Z AUTO 35004KT 3SM 19/15 A2977 RMK T01900150 IEM_DS3505
ZBAA,2000-09-15 17:00,ZBAA 151700Z AUTO 35004KT 2 1/2SM 19/15 A2977 RMK T01900150 IEM_DS3505
ZBAA,2000-09-15 18:00,ZBAA 151800Z AUTO 26002KT 4SM 19/13 A2974 RMK SLP069 T01900132 57006 IEM_DS3505
ZBAA,2000-09-15 19:00,ZBAA 151900Z AUTO 34002KT 5SM 18/14 A2974 RMK T01800140 IEM_DS3505
ZBAA,2000-09-15 20:00,ZBAA 152000Z AUTO 33004KT 6SM 17/13 A2974 RMK T01700130 IEM_DS3505
ZBAA,2000-09-15 21:00,ZBAA 152100Z AUTO 34002KT 5SM 18/12 A2974 RMK SLP062 T01770117 57008 IEM_DS3505
ZBAA,2000-09-15 22:00,ZBAA 152200Z AUTO 35006KT 6SM 16/13 A2974 RMK T01600130 IEM_DS3505
ZBAA,2000-09-15 23:00,ZBAA 152300Z AUTO 34004KT 6SM 17/14 A2974 RMK T01700140 IEM_DS3505
ZBAA,2000-09-16 00:00,ZBAA 160000Z AUTO 31002KT 7SM 23/11 A2974 RMK SLP066 T02280106 52005 IEM_DS3505
ZBAA,2000-09-16 01:00,ZBAA 160100Z AUTO 36008KT 6SM 24/13 A2974 RMK T02400130 IEM_DS3505
ZBAA,2000-09-16 02:00,ZBAA 160200Z AUTO 35004KT 6SM 26/13 A2974 RMK T02600130 IEM_DS3505
ZBAA,2000-09-16 03:00,ZBAA 160300Z AUTO 30008KT 12SM 30/07 A2974 RMK SLP060 T03020074 57006 IEM_DS3505
ZBAA,2000-09-16 04:00,ZBAA 160400Z AUTO 32006KT 6SM 31/13 A2971 RMK T03100130 IEM_DS3505
ZBAA,2000-09-16 05:00,ZBAA 160500Z AUTO 32006KT 6SM 33/14 A2968 RMK T03300140 IEM_DS3505
ZBAA,2000-09-16 06:00,ZBAA 160600Z AUTO 01004KT 19SM 34/04 A2965 RMK SLP040 T03440041 57020 IEM_DS3505
ZBAA,2000-09-16 07:00,ZBAA 160700Z AUTO 26008KT 6SM 34/07 A2965 RMK T03400070 IEM_DS3505
ZBAA,2000-09-16 08:00,ZBAA 160800Z AUTO 29008KT 6SM 34/07 A2965 RMK T03400070 IEM_DS3505
ZBAA,2000-09-16 09:00,ZBAA 160900Z AUTO 28004KT 19SM 34/02 A2962 RMK SLP032 T03390017 57008 IEM_DS3505
ZBAA,2000-09-16 10:00,ZBAA 161000Z AUTO 25004KT 6SM 32/09 A2965 RMK T03200090 IEM_DS3505
ZBAA,2000-09-16 11:00,ZBAA 161100Z AUTO 6SM 30/09 A2965 RMK T03000090 IEM_DS3505
ZBAA,2000-09-16 12:00,ZBAA 161200Z AUTO 25004KT 12SM 27/08 A2968 RMK SLP045 T02730082 52013 IEM_DS3505
ZBAA,2000-09-16 13:00,ZBAA 161300Z AUTO 35004KT 6SM 25/10 A2971 RMK T02500100 IEM_DS3505
ZBAA,2000-09-16 14:00,ZBAA 161400Z AUTO 35006KT 6SM 22/11 A2971 RMK T02200110 IEM_DS3505
ZBAA,2000-09-16 15:00,ZBAA 161500Z AUTO 03006KT 16SM 27/04 A2974 RMK SLP065 T02680040 52020 IEM_DS3505
ZBAA,2000-09-16 16:00,ZBAA 161600Z AUTO 6SM 24/08 A2977 RMK T02400080 IEM_DS3505
ZBAA,2000-09-16 17:00,ZBAA 161700Z AUTO 30004KT 6SM 21/09 A2980 RMK T02100090 IEM_DS3505
ZBAA,2000-09-16 18:00,ZBAA 161800Z AUTO 00000KT 7SM 20/10 A2980 RMK SLP084 T02020095 52019 IEM_DS3505
ZBAA,2000-09-16 19:00,ZBAA 161900Z AUTO 29004KT 6SM 20/08 A2980 RMK T02000080 IEM_DS3505
ZBAA,2000-09-16 20:00,ZBAA 162000Z AUTO 08002KT 6SM 17/11 A2980 RMK T01700110 IEM_DS3505
ZBAA,2000-09-16 21:00,ZBAA 162100Z AUTO 00000KT 7SM 18/10 A2983 RMK SLP092 T01760103 52008 IEM_DS3505
ZBAA,2000-09-16 22:00,ZBAA 162200Z AUTO 35002KT 6SM 16/11 A2983 RMK T01600110 IEM_DS3505
ZBAA,2000-09-16 23:00,ZBAA 162300Z AUTO 36002KT 6SM 18/10 A2985 RMK T01800100 IEM_DS3505
ZBAA,2000-09-17 00:00,ZBAA 170000Z AUTO 00000KT 4SM 24/09 A2985 RMK SLP105 T02380094 52013 IEM_DS3505
ZBAA,2000-09-17 01:00,ZBAA 170100Z AUTO 01002KT 6SM 23/12 A2988 RMK T02300120 IEM_DS3505
ZBAA,2000-09-17 02:00,ZBAA 170200Z AUTO 6SM 26/07 A2988 RMK T02600070 IEM_DS3505
ZBAA,2000-09-17 03:00,ZBAA 170300Z AUTO 17004KT 12SM 27/07 A2985 RMK SLP108 T02740068 52002 IEM_DS3505
ZBAA,2000-09-17 04:00,ZBAA 170400Z AUTO 17006KT 6SM 28/11 A2983 RMK T02800110 IEM_DS3505
ZBAA,2000-09-17 05:00,ZBAA 170500Z AUTO 17006KT 6SM 29/08 A2983 RMK T02900080 IEM_DS3505
ZBAA,2000-09-17 06:00,ZBAA 170600Z AUTO 23004KT 12SM 30/06 A2980 RMK SLP082 T02990059 57025 IEM_DS3505
ZBAA,2000-09-17 07:00,ZBAA 170700Z AUTO 18006KT 6SM 30/11 A2977 RMK T03000110 IEM_DS3505
ZBAA,2000-09-17 08:00,ZBAA 170800Z AUTO 18008KT 6SM 30/11 A2974 RMK T03000110 IEM_DS3505
ZBAA,2000-09-17 09:00,ZBAA 170900Z AUTO 21006KT 16SM 29/07 A2974 RMK SLP068 T02940068 57015 IEM_DS3505
ZBAA,2000-09-17 10:00,ZBAA 171000Z AUTO 15004KT 6SM 27/12 A2974 RMK T02700120 IEM_DS3505
ZBAA,2000-09-17 11:00,ZBAA 171100Z AUTO 13002KT 6SM 24/12 A2974 RMK T02400120 IEM_DS3505
ZBAA,2000-09-17 12:00,ZBAA 171200Z AUTO 14004KT 7SM 24/11 A2977 RMK SLP076 T02360107 52008 IEM_DS3505
ZBAA,2000-09-17 13:00,ZBAA 171300Z AUTO 12004KT 6SM 22/16 A2980 RMK T02200160 IEM_DS3505
ZBAA,2000-09-17 14:00,ZBAA 171400Z AUTO 12004KT 6SM 20/16 A2980 RMK T02000160 IEM_DS3505
ZBAA,2000-09-17 15:00,ZBAA 171500Z AUTO 14004KT 9SM 20/13 A2983 RMK SLP090 T02040126 52014 IEM_DS3505
ZBAA,2000-09-17 16:00,ZBAA 171600Z AUTO 09004KT 6SM 19/17 A2983 RMK T01900170 IEM_DS3505
ZBAA,2000-09-17 17:00,ZBAA 171700Z AUTO 11002KT 6SM 18/17 A2983 RMK T01800170 IEM_DS3505
ZBAA,2000-09-17 18:00,ZBAA 171800Z AUTO 09002KT 6SM 18/14 A2983 RMK SLP096 T01760141 52006 IEM_DS3505
ZBAA,2000-09-17 19:00,ZBAA 171900Z AUTO 02002KT 6SM 18/17 A2983 RMK T01800170 IEM_DS3505
ZBAA,2000-09-17 20:00,ZBAA 172000Z AUTO 00000KT 6SM 17/17 A2983 RMK T01700170 IEM_DS3505
ZBAA,2000-09-17 21:00,ZBAA 172100Z AUTO 04002KT 6SM 18/16 A2985 RMK SLP102 T01780156 52006 IEM_DS3505
ZBAA,2000-09-17 22:00,ZBAA 172200Z AUTO 00000KT 6SM 17/16 A2985 RMK T01700160 IEM_DS3505
ZBAA,2000-09-17 23:00,ZBAA 172300Z AUTO 01002KT 6SM 17/16 A2988 RMK T01700160 IEM_DS3505
ZBAA,2000-09-18 00:00,ZBAA 180000Z AUTO 07006KT 5SM 19/15 A2988 RMK SLP113 T01910154 52011 IEM_DS3505
ZBAA,2000-09-18 01:00,ZBAA 180100Z AUTO 6SM 22/17 A2988 RMK T02200170 IEM_DS3505
ZBAA,2000-09-18 02:00,ZBAA 180200Z AUTO 11004KT 6SM 23/18 A2988 RMK T02300180 IEM_DS3505
ZBAA,2000-09-18 03:00,ZBAA 180300Z AUTO 13004KT 9SM 24/14 A2988 RMK SLP110 T02440145 57002 IEM_DS3505
ZBAA,2000-09-18 04:00,ZBAA 180400Z AUTO 13006KT 6SM 26/17 A2985 RMK T02600170 IEM_DS3505
ZBAA,2000-09-18 05:00,ZBAA 180500Z AUTO 16004KT 6SM 27/18 A2985 RMK T02700180 IEM_DS3505
ZBAA,2000-09-18 06:00,ZBAA 180600Z AUTO 12004KT 9SM 28/15 A2983 RMK SLP095 T02830149 57016 IEM_DS3505
ZBAA,2000-09-18 07:00,ZBAA 180700Z AUTO 19006KT 6SM 29/17 A2980 RMK T02900170 IEM_DS3505
ZBAA,2000-09-18 08:00,ZBAA 180800Z AUTO 17006KT 6SM 29/17 A2980 RMK T02900170 IEM_DS3505
ZBAA,2000-09-18 09:00,ZBAA 180900Z AUTO 18002KT 6SM 28/13 A2980 RMK SLP087 T02840131 57008 IEM_DS3505
ZBAA,2000-09-18 10:00,ZBAA 181000Z AUTO 15002KT 6SM 25/18 A2980 RMK T02500180 IEM_DS3505
ZBAA,2000-09-18 11:00,ZBAA 181100Z AUTO 09002KT 6SM 24/18 A2983 RMK T02400180 IEM_DS3505
ZBAA,2000-09-18 12:00,ZBAA 181200Z AUTO 07002KT 7SM 23/15 A2985 RMK SLP104 T02330154 52017 IEM_DS3505
ZBAA,2000-09-18 13:00,ZBAA 181300Z AUTO 08002KT 3SM 23/20 A2988 RMK T02300200 IEM_DS3505
ZBAA,2000-09-18 14:00,ZBAA 181400Z AUTO 10004KT 2 1/2SM 22/21 A2988 RMK T02200210 IEM_DS3505
ZBAA,2000-09-18 15:00,ZBAA 181500Z AUTO 07004KT 2 1/2SM 22/20 A2988 RMK SLP115 T02180195 52011 IEM_DS3505
ZBAA,2000-09-18 16:00,ZBAA 181600Z AUTO 00000KT 2 1/2SM 21/21 A2988 RMK T02100210 IEM_DS3505
ZBAA,2000-09-18 17:00,ZBAA 181700Z AUTO 00000KT 2SM 21/21 A2988 RMK T02100210 IEM_DS3505
ZBAA,2000-09-18 18:00,ZBAA 181800Z AUTO 33002KT 2 1/2SM 21/19 A2988 RMK SLP115 T02100191 54000 IEM_DS3505
ZBAA,2000-09-18 19:00,ZBAA 181900Z AUTO 00000KT 1 1/2SM 21/21 A2988 RMK T02100210 IEM_DS3505
ZBAA,2000-09-18 20:00,ZBAA 182000Z AUTO 00000KT 1 1/2SM 21/21 A2988 RMK T02100210 IEM_DS3505
ZBAA,2000-09-18 21:00,ZBAA 182100Z AUTO 06002KT 4SM 21/19 A2988 RMK SLP119 T02140190 52004 IEM_DS3505
ZBAA,2000-09-18 22:00,ZBAA 182200Z AUTO 00000KT 1SM 20/20 A2991 RMK T02000200 IEM_DS3505
ZBAA,2000-09-18 23:00,ZBAA 182300Z AUTO 00000KT 1SM 20/20 A2991 RMK T02000200 IEM_DS3505
ZBAA,2000-09-19 00:00,ZBAA 190000Z AUTO 07002KT 4SM 22/19 A2991 RMK SLP130 T02160193 52011 IEM_DS3505
ZBAA,2000-09-19 01:00,ZBAA 190100Z AUTO 02002KT 1SM 22/21 A2994 RMK T02200210 IEM_DS3505
ZBAA,2000-09-19 02:00,ZBAA 190200Z AUTO 00000KT 1 1/4SM 23/21 A2994 RMK T02300210 IEM_DS3505
ZBAA,2000-09-19 03:00,ZBAA 190300Z AUTO 11002KT 2 1/2SM 24/20 A2994 RMK SLP135 T02450196 52005 IEM_DS3505
ZBAA,2000-09-19 04:00,ZBAA 190400Z AUTO 16002KT 1 1/2SM 25/21 A2994 RMK T02500210 IEM_DS3505
ZBAA,2000-09-19 05:00,ZBAA 190500Z AUTO 1 1/2SM 26/22 A2991 RMK T02600220 IEM_DS3505
ZBAA,2000-09-19 06:00,ZBAA 190600Z AUTO 14004KT 4SM 28/18 A2991 RMK SLP122 T02790180 57013 IEM_DS3505
ZBAA,2000-09-19 07:00,ZBAA 190700Z AUTO 2SM 28/22 A2988 RMK T02800220 IEM_DS3505
ZBAA,2000-09-19 08:00,ZBAA 190800Z AUTO 2SM 29/23 A2988 RMK T02900230 IEM_DS3505
ZBAA,2000-09-19 09:00,ZBAA 190900Z AUTO 19002KT 4SM 27/19 A2988 RMK SLP117 T02730189 57005 IEM_DS3505
ZBAA,2000-09-19 10:00,ZBAA 191000Z AUTO 15004KT 2SM 26/22 A2988 RMK T02600220 IEM_DS3505
ZBAA,2000-09-19 11:00,ZBAA 191100Z AUTO 11002KT 1 1/2SM 24/22 A2991 RMK T02400220 IEM_DS3505
ZBAA,2000-09-19 12:00,ZBAA 191200Z AUTO 20002KT 2SM 23/19 A2994 RMK SLP136 T02330193 52019 IEM_DS3505
ZBAA,2000-09-19 13:00,ZBAA 191300Z AUTO 09002KT 1 1/4SM 22/21 A2997 RMK T02200210 IEM_DS3505
ZBAA,2000-09-19 14:00,ZBAA 191400Z AUTO 00000KT 1SM 22/21 A2997 RMK T02200210 IEM_DS3505
ZBAA,2000-09-19 15:00,ZBAA 191500Z AUTO 21004KT 2SM 23/20 A3000 RMK SLP150 T02280196 52014 IEM_DS3505
ZBAA,2000-09-19 16:00,ZBAA 191600Z AUTO 21004KT 1SM 22/22 A3000 RMK T02200220 IEM_DS3505
ZBAA,2000-09-19 17:00,ZBAA 191700Z AUTO 05002KT 1SM 22/22 A3000 RMK T02200220 IEM_DS3505
ZBAA,2000-09-19 18:00,ZBAA 191800Z AUTO 11002KT 1 1/2SM 22/20 A3000 RMK SLP154 T02210195 52004 IEM_DS3505
ZBAA,2000-09-19 19:00,ZBAA 191900Z AUTO 00000KT 1SM 22/21 A3000 RMK T02200210 IEM_DS3505
ZBAA,2000-09-19 20:00,ZBAA 192000Z AUTO 05002KT 1SM 21/21 A3000 RMK T02100210 IEM_DS3505
ZBAA,2000-09-19 21:00,ZBAA 192100Z AUTO 27010KT 1 1/2SM 22/19 A3003 RMK SLP170 T02250193 52016 IEM_DS3505
ZBAA,2000-09-19 22:00,ZBAA 192200Z AUTO 35006KT 1 1/4SM 21/19 A3003 RMK T02100190 IEM_DS3505
ZBAA,2000-09-19 23:00,ZBAA 192300Z AUTO 02004KT 4SM 19/18 A3006 RMK T01900180 IEM_DS3505
ZBAA,2000-09-20 00:00,ZBAA 200000Z AUTO 05006KT 5SM 22/15 A3009 RMK SLP183 T02190148 52013 IEM_DS3505
ZBAA,2000-09-20 01:00,ZBAA 200100Z AUTO 01002KT 4SM 21/18 A3009 RMK T02100180 IEM_DS3505
ZBAA,2000-09-20 02:00,ZBAA 200200Z AUTO 01004KT 4SM 22/18 A3012 RMK T02200180 IEM_DS3505
ZBAA,2000-09-20 03:00,ZBAA 200300Z AUTO 05006KT 5SM 25/16 A3009 RMK SLP185 T02480165 52002 IEM_DS3505
ZBAA,2000-09-20 04:00,ZBAA 200400Z AUTO 01006KT 25/19 A3009 RMK T02500190 IEM_DS3505
ZBAA,2000-09-20 05:00,ZBAA 200500Z AUTO 01008KT 6SM 26/18 A3009 RMK T02600180 IEM_DS3505
ZBAA,2000-09-20 06:00,ZBAA 200600Z AUTO 01004KT 6SM 26/16 A3006 RMK SLP174 T02630160 57011 IEM_DS3505
ZBAA,2000-09-20 07:00,ZBAA 200700Z AUTO 01008KT 6SM 26/17 A3006 RMK T02600170 IEM_DS3505
ZBAA,2000-09-20 08:00,ZBAA 200800Z AUTO 03004KT 6SM 26/18 A3006 RMK T02600180 IEM_DS3505
ZBAA,2000-09-20 09:00,ZBAA 200900Z AUTO 04004KT 6SM 25/14 A3006 RMK SLP165 T02510140 57009 IEM_DS3505
ZBAA,2000-09-20 10:00,ZBAA 201000Z AUTO 01006KT 7SM 24/17 A3006 RMK T02400170 IEM_DS3505
ZBAA,2000-09-20 11:00,ZBAA 201100Z AUTO 03008G21KT 3SM 19/18 A3006 RMK T01900180 IEM_DS3505
ZBAA,2000-09-20 12:00,ZBAA 201200Z AUTO 35010KT 7SM 21/13 A3012 RMK 60000 SLP186 T02110133 52021 IEM_DS3505
ZBAA,2000-09-20 13:00,ZBAA 201300Z AUTO 35008KT 4SM 19/18 A3012 RMK T01900180 IEM_DS3505
ZBAA,2000-09-20 14:00,ZBAA 201400Z AUTO 32006KT 3SM 19/19 A3012 RMK T01900190 IEM_DS3505
ZBAA,2000-09-20 15:00,ZBAA 201500Z AUTO 35004KT 9SM 20/15 A3015 RMK SLP205 T01970147 52018 IEM_DS3505
ZBAA,2000-09-20 16:00,ZBAA 201600Z AUTO 33008KT 7SM 19/17 A3015 RMK T01900170 IEM_DS3505
ZBAA,2000-09-20 17:00,ZBAA 201700Z AUTO 33006KT 6SM 18/17 A3012 RMK T01800170 IEM_DS3505
ZBAA,2000-09-20 18:00,ZBAA 201800Z AUTO 01004KT 6SM 18/15 A3012 RMK 60002 SLP195 T01810148 57009 IEM_DS3505
ZBAA,2000-09-20 19:00,ZBAA 201900Z AUTO 35006KT 7SM 19/17 A3012 RMK T01900170 IEM_DS3505
ZBAA,2000-09-20 20:00,ZBAA 202000Z AUTO 32006KT 7SM 19/17 A3012 RMK T01900170 IEM_DS3505
ZBAA,2000-09-20 21:00,ZBAA 202100Z AUTO 02004KT 6SM 19/15 A3012 RMK 70003 SLP189 T01930148 57006 IEM_DS3505
ZBAA,2000-09-20 22:00,ZBAA 202200Z AUTO 35006KT 7SM 18/17 A3012 RMK T01800170 IEM_DS3505
ZBAA,2000-09-20 23:00,ZBAA 202300Z AUTO 36004KT 5SM 19/18 A3012 RMK T01900180 IEM_DS3505
ZBAA,2000-09-21 00:00,ZBAA 210000Z AUTO 06004KT 6SM 20/16 A3012 RMK 70003 SLP199 T02050165 52010 IEM_DS3505
ZBAA,2000-09-21 01:00,ZBAA 210100Z AUTO 01002KT 4SM 21/18 A3015 RMK T02100180 IEM_DS3505
ZBAA,2000-09-21 02:00,ZBAA 210200Z AUTO 4SM 22/20 A3015 RMK T02200200 IEM_DS3505
ZBAA,2000-09-21 03:00,ZBAA 210300Z AUTO 08004KT 3SM 23/17 A3012 RMK SLP199 T02340167 54000 IEM_DS3505
ZBAA,2000-09-21 04:00,ZBAA 210400Z AUTO 10004KT 4SM 24/21 A3012 RMK T02400210 IEM_DS3505
ZBAA,2000-09-21 05:00,ZBAA 210500Z AUTO 09004KT 4SM 25/21 A3009 RMK T02500210 IEM_DS3505
ZBAA,2000-09-21 06:00,ZBAA 210600Z AUTO 20002KT 5SM 26/16 A3006 RMK SLP176 T02650162 57023 IEM_DS3505
ZBAA,2000-09-21 07:00,ZBAA 210700Z AUTO 17006KT 26/19 A3003 RMK T02600190 IEM_DS3505
ZBAA,2000-09-21 08:00,ZBAA 210800Z AUTO 24004KT 4SM 25/21 A3003 RMK T02500210 IEM_DS3505
ZBAA,2000-09-21 09:00,ZBAA 210900Z AUTO 25002KT 5SM 25/15 A3006 RMK SLP171 T02520152 57005 IEM_DS3505
ZBAA,2000-09-21 10:00,ZBAA 211000Z AUTO 04004KT 3SM 21/20 A3006 RMK T02100200 IEM_DS3505
ZBAA,2000-09-21 11:00,ZBAA 211100Z AUTO 36006KT 2 1/2SM 20/19 A3009 RMK T02000190 IEM_DS3505
ZBAA,2000-09-21 12:00,ZBAA 211200Z AUTO 04002KT 6SM 22/15 A3009 RMK 60003 SLP185 T02170153 52014 IEM_DS3505
ZBAA,2000-09-21 13:00,ZBAA 211300Z AUTO 01006KT 4SM 19/17 A3012 RMK T01900170 IEM_DS3505
ZBAA,2000-09-21 14:00,ZBAA 211400Z AUTO 02004KT 4SM 19/17 A3009 RMK T01900170 IEM_DS3505
ZBAA,2000-09-21 15:00,ZBAA 211500Z AUTO 02004KT 6SM 19/15 A3009 RMK SLP187 T01930150 52002 IEM_DS3505
ZBAA,2000-09-21 16:00,ZBAA 211600Z AUTO 02004KT 5SM 19/17 A3009 RMK T01900170 IEM_DS3505
ZBAA,2000-09-21 17:00,ZBAA 211700Z AUTO 01006KT 5SM 18/17 A3006 RMK T01800170 IEM_DS3505
ZBAA,2000-09-21 18:00,ZBAA 211800Z AUTO 34004KT 6SM 19/15 A3006 RMK SLP178 T01940149 57009 IEM_DS3505
ZBAA,2000-09-21 19:00,ZBAA 211900Z AUTO 35006KT 7SM 18/17 A3006 RMK T01800170 IEM_DS3505
ZBAA,2000-09-21 20:00,ZBAA 212000Z AUTO 34004KT 7SM 18/17 A3006 RMK T01800170 IEM_DS3505
ZBAA,2000-09-21 21:00,ZBAA 212100Z AUTO 00000KT 6SM 20/16 A3003 RMK 70003 SLP171 T01960155 57007 IEM_DS3505
ZBAA,2000-09-21 22:00,ZBAA 212200Z AUTO 35002KT 7SM 18/17 A3003 RMK T01800170 IEM_DS3505
ZBAA,2000-09-21 23:00,ZBAA 212300Z AUTO 03002KT 4SM 19/17 A3006 RMK T01900170 IEM_DS3505
ZBAA,2000-09-22 00:00,ZBAA 220000Z AUTO 01002KT 5SM 20/16 A3006 RMK 70003 SLP171 T02000163 54000 IEM_DS3505
ZBAA,2000-09-22 01:00,ZBAA 220100Z AUTO 01002KT 4SM 19/18 A3006 RMK T01900180 IEM_DS3505
ZBAA,2000-09-22 02:00,ZBAA 220200Z AUTO 34004KT 4SM 20/18 A3006 RMK T02000180 IEM_DS3505
ZBAA,2000-09-22 03:00,ZBAA 220300Z AUTO 04002KT 3SM 22/17 A3003 RMK SLP166 T02190173 57005 IEM_DS3505
ZBAA,2000-09-22 04:00,ZBAA 220400Z AUTO 07002KT 2 1/2SM 22/20 A3000 RMK T02200200 IEM_DS3505
ZBAA,2000-09-22 05:00,ZBAA 220500Z AUTO 12004KT 2SM 23/20 A3000 RMK T02300200 IEM_DS3505
ZBAA,2000-09-22 06:00,ZBAA 220600Z AUTO 13006KT 3SM 24/18 A2997 RMK SLP142 T02400175 57024 IEM_DS3505
ZBAA,2000-09-22 07:00,ZBAA 220700Z AUTO 14004KT 1 1/2SM 24/20 A2994 RMK T02400200 IEM_DS3505
ZBAA,2000-09-22 08:00,ZBAA 220800Z AUTO 14004KT 3SM 25/19 A2991 RMK T02500190 IEM_DS3505
ZBAA,2000-09-22 09:00,ZBAA 220900Z AUTO 19004KT 5SM 25/16 A2991 RMK SLP130 T02530159 57012 IEM_DS3505
ZBAA,2000-09-22 10:00,ZBAA 221000Z AUTO 10002KT 2 1/2SM 23/20 A2991 RMK T02300200 IEM_DS3505
ZBAA,2000-09-22 11:00,ZBAA 221100Z AUTO 11002KT 2SM 22/20 A2991 RMK T02200200 IEM_DS3505
ZBAA,2000-09-22 12:00,ZBAA 221200Z AUTO 14004KT 4SM 22/16 A2994 RMK SLP134 T02220158 52004 IEM_DS3505
ZBAA,2000-09-22 13:00,ZBAA 221300Z AUTO 12004KT 1 1/4SM 21/20 A2994 RMK T02100200 IEM_DS3505
ZBAA,2000-09-22 14:00,ZBAA 221400Z AUTO 12002KT 1SM 20/20 A2994 RMK T02000200 IEM_DS3505
ZBAA,2000-09-22 15:00,ZBAA 221500Z AUTO 16002KT 4SM 20/16 A2994 RMK SLP132 T02040158 57002 IEM_DS3505
ZBAA,2000-09-22 16:00,ZBAA 221600Z AUTO 12002KT 1SM 20/20 A2991 RMK T02000200 IEM_DS3505
ZBAA,2000-09-22 17:00,ZBAA 221700Z AUTO 12002KT 1SM 19/19 A2991 RMK T01900190 IEM_DS3505
ZBAA,2000-09-22 18:00,ZBAA 221800Z AUTO 00000KT 2SM 19/17 A2991 RMK SLP121 T01930167 57011 IEM_DS3505
ZBAA,2000-09-22 19:00,ZBAA 221900Z AUTO 07002KT 1/2SM 19/19 A2988 RMK T01900190 IEM_DS3505
ZBAA,2000-09-22 20:00,ZBAA 222000Z AUTO 10004KT 1/4SM 18/18 A2988 RMK T01800180 IEM_DS3505
ZBAA,2000-09-22 21:00,ZBAA 222100Z AUTO 00000KT 2SM 19/17 A2988 RMK 70003 SLP117 T01920166 57004 IEM_DS3505
ZBAA,2000-09-22 22:00,ZBAA 222200Z AUTO 09002KT 1/8SM 19/19 A2988 RMK T01900190 IEM_DS3505
ZBAA,2000-09-22 23:00,ZBAA 222300Z AUTO 33002KT 1/4SM 19/19 A2991 RMK T01900190 IEM_DS3505
ZBAA,2000-09-23 00:00,ZBAA 230000Z AUTO 00000KT 1 1/4SM 20/18 A2991 RMK 60003 SLP126 T02020180 52009 IEM_DS3505
ZBAA,2000-09-23 01:00,ZBAA 230100Z AUTO 30002KT 3/8SM 19/19 A2994 RMK T01900190 IEM_DS3505
ZBAA,2000-09-23 02:00,ZBAA 230200Z AUTO 31010KT 7SM 24/17 A2994 RMK T02400170 IEM_DS3505
ZBAA,2000-09-23 03:00,ZBAA 230300Z AUTO 34006KT 6SM 25/12 A2991 RMK SLP129 T02460122 52003 IEM_DS3505
ZBAA,2000-09-23 04:00,ZBAA 230400Z AUTO 30014KT 6SM 24/12 A2991 RMK T02400120 IEM_DS3505
ZBAA,2000-09-23 05:00,ZBAA 230500Z AUTO 30012KT 6SM 26/13 A2991 RMK T02600130 IEM_DS3505
ZBAA,2000-09-23 06:00,ZBAA 230600Z AUTO 35006KT 19SM 27/09 A2988 RMK 60003 SLP117 T02660086 57012 IEM_DS3505
ZBAA,2000-09-23 07:00,ZBAA 230700Z AUTO 31014KT 6SM 27/11 A2988 RMK T02700110 IEM_DS3505
ZBAA,2000-09-23 08:00,ZBAA 230800Z AUTO 32012KT 7SM 26/11 A2988 RMK T02600110 IEM_DS3505
ZBAA,2000-09-23 09:00,ZBAA 230900Z AUTO 35004KT 19SM 26/05 A2988 RMK SLP118 T02580049 52001 IEM_DS3505
ZBAA,2000-09-23 10:00,ZBAA 231000Z AUTO 30008KT 6SM 23/09 A2991 RMK T02300090 IEM_DS3505
ZBAA,2000-09-23 11:00,ZBAA 231100Z AUTO 29008KT 6SM 22/08 A2994 RMK T02200080 IEM_DS3505
ZBAA,2000-09-23 12:00,ZBAA 231200Z AUTO 33004KT 16SM 23/02 A2997 RMK SLP139 T02330022 52021 IEM_DS3505
ZBAA,2000-09-23 13:00,ZBAA 231300Z AUTO 35008KT 6SM 18/10 A2997 RMK T01800100 IEM_DS3505
ZBAA,2000-09-23 14:00,ZBAA 231400Z AUTO 35006KT 6SM 17/10 A3000 RMK T01700100 IEM_DS3505
ZBAA,2000-09-23 15:00,ZBAA 231500Z AUTO 03006KT 19SM 21/02 A3003 RMK SLP158 T02060020 52019 IEM_DS3505
ZBAA,2000-09-23 16:00,ZBAA 231600Z AUTO 36010KT 6SM 18/06 A3000 RMK T01800060 IEM_DS3505
ZBAA,2000-09-23 17:00,ZBAA 231700Z AUTO 35004KT 6SM 15/07 A3003 RMK T01500070 IEM_DS3505
ZBAA,2000-09-23 18:00,ZBAA 231800Z AUTO 04004KT 19SM 18/02 A3003 RMK SLP168 T01750023 52010 IEM_DS3505
ZBAA,2000-09-23 19:00,ZBAA 231900Z AUTO 35006KT 6SM 14/07 A3003 RMK T01400070 IEM_DS3505
ZBAA,2000-09-23 20:00,ZBAA 232000Z AUTO 35004KT 6SM 13/08 A3006 RMK T01300080 IEM_DS3505
ZBAA,2000-09-23 21:00,ZBAA 232100Z AUTO 33004KT 6SM 13/08 A3006 RMK T01300080 IEM_DS3505
ZBAA,2000-09-23 22:00,ZBAA 232200Z AUTO 34004KT 6SM 13/07 A3006 RMK T01300070 IEM_DS3505
ZBAA,2000-09-23 23:00,ZBAA 232300Z AUTO 33006KT 6SM 14/07 A3006 RMK T01400070 IEM_DS3505
ZBAA,2000-09-24 00:00,ZBAA 240000Z AUTO 35008KT 6SM 16/08 A3006 RMK T01600080 IEM_DS3505
ZBAA,2000-09-24 01:00,ZBAA 240100Z AUTO 36006KT 6SM 18/07 A3009 RMK T01800070 IEM_DS3505
ZBAA,2000-09-24 02:00,ZBAA 240200Z AUTO 01006KT 6SM 20/07 A3009 RMK T02000070 IEM_DS3505
ZBAA,2000-09-24 03:00,ZBAA 240300Z AUTO 03004KT 16SM 20/01 A3006 RMK SLP182 T02050014 52001 IEM_DS3505
ZBAA,2000-09-24 04:00,ZBAA 240400Z AUTO 6SM 22/05 A3006 RMK T02200050 IEM_DS3505
ZBAA,2000-09-24 05:00,ZBAA 240500Z AUTO 00000KT 6SM 22/04 A3006 RMK T02200040 IEM_DS3505
ZBAA,2000-09-24 06:00,ZBAA 240600Z AUTO 16004KT 19SM 22/03 A3003 RMK SLP168 T02200027 57014 IEM_DS3505
ZBAA,2000-09-24 07:00,ZBAA 240700Z AUTO 19002KT 6SM 21/07 A3003 RMK T02100070 IEM_DS3505
ZBAA,2000-09-24 08:00,ZBAA 240800Z AUTO 14002KT 6SM 21/10 A3000 RMK T02100100 IEM_DS3505
ZBAA,2000-09-24 09:00,ZBAA 240900Z AUTO 24002KT 16SM 20/04 A3000 RMK SLP157 T02000037 57011 IEM_DS3505
ZBAA,2000-09-24 10:00,ZBAA 241000Z AUTO 22002KT 6SM 20/06 A3000 RMK T02000060 IEM_DS3505
ZBAA,2000-09-24 11:00,ZBAA 241100Z AUTO 00000KT 6SM 17/09 A3000 RMK T01700090 IEM_DS3505
ZBAA,2000-09-24 12:00,ZBAA 241200Z AUTO 24002KT 9SM 17/08 A3003 RMK 60003 SLP167 T01660075 52009 IEM_DS3505
ZBAA,2000-09-24 13:00,ZBAA 241300Z AUTO 25002KT 6SM 16/09 A3003 RMK T01600090 IEM_DS3505
ZBAA,2000-09-24 14:00,ZBAA 241400Z AUTO 35002KT 6SM 15/10 A3003 RMK T01500100 IEM_DS3505
ZBAA,2000-09-24 15:00,ZBAA 241500Z AUTO 24002KT 9SM 14/08 A3003 RMK SLP170 T01430076 52003 IEM_DS3505
ZBAA,2000-09-24 16:00,ZBAA 241600Z AUTO 34004KT 4SM 13/10 A3003 RMK T01300100 IEM_DS3505
ZBAA,2000-09-24 17:00,ZBAA 241700Z AUTO 34004KT 4SM 12/10 A3006 RMK T01200100 IEM_DS3505
ZBAA,2000-09-24 18:00,ZBAA 241800Z AUTO 00000KT 6SM 12/09 A3006 RMK SLP174 T01180092 52004 IEM_DS3505
ZBAA,2000-09-24 19:00,ZBAA 241900Z AUTO 33006KT 6SM 12/09 A3006 RMK T01200090 IEM_DS3505
ZBAA,2000-09-24 20:00,ZBAA 242000Z AUTO 34004KT 6SM 11/09 A3006 RMK T01100090 IEM_DS3505
ZBAA,2000-09-24 21:00,ZBAA 242100Z AUTO 00000KT 6SM 11/08 A3006 RMK 70003 SLP176 T01090085 52002 IEM_DS3505
ZBAA,2000-09-24 22:00,ZBAA 242200Z AUTO 34006KT 6SM 10/09 A3006 RMK T01000090 IEM_DS3505
ZBAA,2000-09-24 23:00,ZBAA 242300Z AUTO 35004KT 6SM 11/09 A3009 RMK T01100090 IEM_DS3505
ZBAA,2000-09-25 00:00,ZBAA 250000Z AUTO 36004KT 7SM 17/08 A3009 RMK 70003 SLP190 T01670076 52014 IEM_DS3505
ZBAA,2000-09-25 01:00,ZBAA 250100Z AUTO 35006KT 6SM 18/11 A3012 RMK T01800110 IEM_DS3505
ZBAA,2000-09-25 02:00,ZBAA 250200Z AUTO 36004KT 6SM 21/09 A3012 RMK T02100090 IEM_DS3505
ZBAA,2000-09-25 03:00,ZBAA 250300Z AUTO 00000KT 7SM 23/06 A3012 RMK SLP193 T02340063 52004 IEM_DS3505
ZBAA,2000-09-25 04:00,ZBAA 250400Z AUTO 28004KT 6SM 25/09 A3009 RMK T02500090 IEM_DS3505
ZBAA,2000-09-25 05:00,ZBAA 250500Z AUTO 29004KT 6SM 26/08 A3006 RMK T02600080 IEM_DS3505
ZBAA,2000-09-25 06:00,ZBAA 250600Z AUTO 00000KT 16SM 28/M01 A3006 RMK SLP172 T02811009 57021 IEM_DS3505
ZBAA,2000-09-25 07:00,ZBAA 250700Z AUTO 21004KT 6SM 28/07 A3003 RMK T02800070 IEM_DS3505
ZBAA,2000-09-25 08:00,ZBAA 250800Z AUTO 6SM 29/03 A3003 RMK T02900030 IEM_DS3505
ZBAA,2000-09-25 09:00,ZBAA 250900Z AUTO 24004KT 12SM 28/01 A3003 RMK SLP167 T02770013 57005 IEM_DS3505
ZBAA,2000-09-25 10:00,ZBAA 251000Z AUTO 22002KT 6SM 25/04 A3003 RMK T02500040 IEM_DS3505
ZBAA,2000-09-25 11:00,ZBAA 251100Z AUTO 21004KT 6SM 23/08 A3006 RMK T02300080 IEM_DS3505
ZBAA,2000-09-25 12:00,ZBAA 251200Z AUTO 19002KT 6SM 20/04 A3006 RMK SLP183 T02040036 52015 IEM_DS3505
ZBAA,2000-09-25 13:00,ZBAA 251300Z AUTO 11002KT 6SM 17/12 A3009 RMK T01700120 IEM_DS3505
ZBAA,2000-09-25 14:00,ZBAA 251400Z AUTO 13002KT 5SM 16/13 A3009 RMK T01600130 IEM_DS3505
ZBAA,2000-09-25 15:00,ZBAA 251500Z AUTO 23002KT 6SM 17/06 A3012 RMK SLP193 T01660062 52010 IEM_DS3505
ZBAA,2000-09-25 16:00,ZBAA 251600Z AUTO 03002KT 4SM 14/13 A3012 RMK T01400130 IEM_DS3505
ZBAA,2000-09-25 17:00,ZBAA 251700Z AUTO 36002KT 4SM 13/12 A3012 RMK T01300120 IEM_DS3505
ZBAA,2000-09-25 18:00,ZBAA 251800Z AUTO 00000KT 6SM 14/07 A3012 RMK SLP195 T01360074 52003 IEM_DS3505
ZBAA,2000-09-25 19:00,ZBAA 251900Z AUTO 36002KT 5SM 13/11 A3012 RMK T01300110 IEM_DS3505
ZBAA,2000-09-25 20:00,ZBAA 252000Z AUTO 33002KT 5SM 12/10 A3012 RMK T01200100 IEM_DS3505
ZBAA,2000-09-25 21:00,ZBAA 252100Z AUTO 00000KT 6SM 14/08 A3012 RMK SLP198 T01420080 52003 IEM_DS3505
ZBAA,2000-09-25 22:00,ZBAA 252200Z AUTO 35004KT 6SM 12/10 A3015 RMK T01200100 IEM_DS3505
ZBAA,2000-09-25 23:00,ZBAA 252300Z AUTO 35004KT 6SM 12/11 A3018 RMK T01200110 IEM_DS3505
ZBAA,2000-09-26 00:00,ZBAA 260000Z AUTO 04002KT 6SM 17/08 A3018 RMK SLP214 T01680085 52015 IEM_DS3505
ZBAA,2000-09-26 01:00,ZBAA 260100Z AUTO 36004KT 5SM 17/12 A3018 RMK T01700120 IEM_DS3505
ZBAA,2000-09-26 02:00,ZBAA 260200Z AUTO 01002KT 6SM 18/13 A3018 RMK T01800130 IEM_DS3505
ZBAA,2000-09-26 03:00,ZBAA 260300Z AUTO 00000KT 6SM 20/08 A3018 RMK SLP217 T02040084 52003 IEM_DS3505
ZBAA,2000-09-26 04:00,ZBAA 260400Z AUTO 6SM 20/12 A3018 RMK T02000120 IEM_DS3505
ZBAA,2000-09-26 05:00,ZBAA 260500Z AUTO 00000KT 6SM 21/13 A3018 RMK T02100130 IEM_DS3505
ZBAA,2000-09-26 06:00,ZBAA 260600Z AUTO 03002KT 5SM 22/09 A3015 RMK SLP204 T02170086 57013 IEM_DS3505
ZBAA,2000-09-26 07:00,ZBAA 260700Z AUTO 00000KT 6SM 21/12 A3012 RMK T02100120 IEM_DS3505
ZBAA,2000-09-26 08:00,ZBAA 260800Z AUTO 00000KT 6SM 22/13 A3012 RMK T02200130 IEM_DS3505
ZBAA,2000-09-26 09:00,ZBAA 260900Z AUTO 04002KT 5SM 21/10 A3012 RMK SLP194 T02130096 57010 IEM_DS3505
ZBAA,2000-09-26 10:00,ZBAA 261000Z AUTO 00000KT 4SM 19/15 A3012 RMK T01900150 IEM_DS3505
ZBAA,2000-09-26 11:00,ZBAA 261100Z AUTO 27004KT 4SM 19/14 A3012 RMK T01900140 IEM_DS3505
ZBAA,2000-09-26 12:00,ZBAA 261200Z AUTO 00000KT 4SM 19/11 A3012 RMK SLP201 T01870108 52007 IEM_DS3505
ZBAA,2000-09-26 13:00,ZBAA 261300Z AUTO 29004KT 3SM 19/13 A3012 RMK T01900130 IEM_DS3505
ZBAA,2000-09-26 14:00,ZBAA 261400Z AUTO 00000KT 2SM 17/14 A3012 RMK T01700140 IEM_DS3505
ZBAA,2000-09-26 15:00,ZBAA 261500Z AUTO 28002KT 3SM 18/12 A3012 RMK SLP198 T01770117 57003 IEM_DS3505
ZBAA,2000-09-26 16:00,ZBAA 261600Z AUTO 29002KT 2 1/2SM 16/14 A3012 RMK T01600140 IEM_DS3505
ZBAA,2000-09-26 17:00,ZBAA 261700Z AUTO 36004KT 3SM 17/14 A3012 RMK T01700140 IEM_DS3505
ZBAA,2000-09-26 18:00,ZBAA 261800Z AUTO 00000KT 4SM 17/12 A3009 RMK SLP190 T01720115 57007 IEM_DS3505
ZBAA,2000-09-26 19:00,ZBAA 261900Z AUTO 00000KT 4SM 16/14 A3012 RMK T01600140 IEM_DS3505
ZBAA,2000-09-26 20:00,ZBAA 262000Z AUTO 36002KT 4SM 16/14 A3009 RMK T01600140 IEM_DS3505
ZBAA,2000-09-26 21:00,ZBAA 262100Z AUTO 04002KT 6SM 17/12 A3009 RMK 70003 SLP188 T01700123 57003 IEM_DS3505
ZBAA,2000-09-26 22:00,ZBAA 262200Z AUTO 36004KT 4SM 16/13 A3009 RMK T01600130 IEM_DS3505
ZBAA,2000-09-26 23:00,ZBAA 262300Z AUTO 23002KT 6SM 16/13 A3012 RMK T01600130 IEM_DS3505
ZBAA,2000-09-27 00:00,ZBAA 270000Z AUTO 01002KT 3SM 17/13 A3012 RMK 60004 SLP196 T01670132 52008 IEM_DS3505
ZBAA,2000-09-27 01:00,ZBAA 270100Z AUTO 30004KT 4SM 17/14 A3015 RMK T01700140 IEM_DS3505
ZBAA,2000-09-27 02:00,ZBAA 270200Z AUTO 36004KT 3SM 17/14 A3015 RMK T01700140 IEM_DS3505
ZBAA,2000-09-27 03:00,ZBAA 270300Z AUTO 32004KT 5SM 17/11 A3015 RMK SLP204 T01730109 52008 IEM_DS3505
ZBAA,2000-09-27 04:00,ZBAA 270400Z AUTO 30008KT 5SM 17/14 A3012 RMK T01700140 IEM_DS3505
ZBAA,2000-09-27 05:00,ZBAA 270500Z AUTO 30010KT 7SM 17/11 A3012 RMK T01700110 IEM_DS3505
ZBAA,2000-09-27 06:00,ZBAA 270600Z AUTO 32004KT 6SM 16/11 A3012 RMK 60012 SLP193 T01620109 57011 IEM_DS3505
ZBAA,2000-09-27 07:00,ZBAA 270700Z AUTO 34006KT 7SM 17/15 A3009 RMK T01700150 IEM_DS3505
ZBAA,2000-09-27 08:00,ZBAA 270800Z AUTO 35006KT 6SM 17/14 A3009 RMK T01700140 IEM_DS3505
ZBAA,2000-09-27 09:00,ZBAA 270900Z AUTO 02002KT 9SM 17/11 A3009 RMK SLP182 T01690114 57011 IEM_DS3505
ZBAA,2000-09-27 10:00,ZBAA 271000Z AUTO 02004KT 6SM 16/14 A3006 RMK T01600140 IEM_DS3505
ZBAA,2000-09-27 11:00,ZBAA 271100Z AUTO 35006KT 6SM 15/14 A3009 RMK T01500140 IEM_DS3505
ZBAA,2000-09-27 12:00,ZBAA 271200Z AUTO 00000KT 6SM 16/12 A3009 RMK 60003 SLP184 T01630115 52002 IEM_DS3505
ZBAA,2000-09-27 13:00,ZBAA 271300Z AUTO 34006KT 6SM 16/14 A3009 RMK T01600140 IEM_DS3505
ZBAA,2000-09-27 14:00,ZBAA 271400Z AUTO 35004KT 6SM 15/14 A3009 RMK T01500140 IEM_DS3505
ZBAA,2000-09-27 15:00,ZBAA 271500Z AUTO 03002KT 6SM 16/10 A3009 RMK SLP183 T01600103 57001 IEM_DS3505
ZBAA,2000-09-27 16:00,ZBAA 271600Z AUTO 34006KT 6SM 15/14 A3009 RMK T01500140 IEM_DS3505
ZBAA,2000-09-27 17:00,ZBAA 271700Z AUTO 34006KT 6SM 15/13 A3006 RMK T01500130 IEM_DS3505
ZBAA,2000-09-27 18:00,ZBAA 271800Z AUTO 02002KT 12SM 16/10 A3006 RMK SLP177 T01590104 57006 IEM_DS3505
ZBAA,2000-09-27 20:00,ZBAA 272000Z AUTO 35004KT 6SM 14/14 A3006 RMK T01400140 IEM_DS3505
ZBAA,2000-09-27 21:00,ZBAA 272100Z AUTO 01002KT 9SM 16/11 A3006 RMK 70020 SLP174 T01570107 57003 IEM_DS3505
ZBAA,2000-09-27 22:00,ZBAA 272200Z AUTO 35006KT 6SM 14/13 A3006 RMK T01400130 IEM_DS3505
ZBAA,2000-09-27 23:00,ZBAA 272300Z AUTO 35004KT 6SM 14/14 A3006 RMK T01400140 IEM_DS3505
ZBAA,2000-09-28 00:00,ZBAA 280000Z AUTO 00000KT 9SM 17/11 A3009 RMK 70016 SLP183 T01680111 52009 IEM_DS3505
ZBAA,2000-09-28 01:00,ZBAA 280100Z AUTO 35006KT 6SM 18/14 A3009 RMK T01800140 IEM_DS3505
ZBAA,2000-09-28 02:00,ZBAA 280200Z AUTO 36006KT 6SM 19/13 A3009 RMK T01900130 IEM_DS3505
ZBAA,2000-09-28 03:00,ZBAA 280300Z AUTO 35004KT 12SM 21/09 A3006 RMK SLP175 T02060086 57007 IEM_DS3505
ZBAA,2000-09-28 04:00,ZBAA 280400Z AUTO 6SM 22/13 A3003 RMK T02200130 IEM_DS3505
ZBAA,2000-09-28 06:00,ZBAA 280600Z AUTO 06004KT 11SM 23/10 A3000 RMK SLP158 T02330097 57017 IEM_DS3505
ZBAA,2000-09-28 07:00,ZBAA 280700Z AUTO 11004KT 6SM 24/13 A3000 RMK T02400130 IEM_DS3505
ZBAA,2000-09-28 08:00,ZBAA 280800Z AUTO 6SM 24/13 A3000 RMK T02400130 IEM_DS3505
ZBAA,2000-09-28 09:00,ZBAA 280900Z AUTO 14004KT 9SM 23/10 A3000 RMK SLP153 T02310105 57005 IEM_DS3505
ZBAA,2000-09-28 10:00,ZBAA 281000Z AUTO 19004KT 6SM 21/13 A3000 RMK T02100130 IEM_DS3505
ZBAA,2000-09-28 11:00,ZBAA 281100Z AUTO 16002KT 6SM 20/15 A3003 RMK T02000150 IEM_DS3505
ZBAA,2000-09-28 12:00,ZBAA 281200Z AUTO 00000KT 7SM 18/12 A3003 RMK SLP169 T01840119 52015 IEM_DS3505
ZBAA,2000-09-28 13:00,ZBAA 281300Z AUTO 17002KT 6SM 17/15 A3006 RMK T01700150 IEM_DS3505
ZBAA,2000-09-28 14:00,ZBAA 281400Z AUTO 16002KT 4SM 17/15 A3006 RMK T01700150 IEM_DS3505
ZBAA,2000-09-28 15:00,ZBAA 281500Z AUTO 00000KT 6SM 16/12 A3006 RMK SLP179 T01590121 52010 IEM_DS3505
ZBAA,2000-09-28 16:00,ZBAA 281600Z AUTO 00000KT 3SM 16/15 A3006 RMK T01600150 IEM_DS3505
ZBAA,2000-09-28 17:00,ZBAA 281700Z AUTO 09002KT 3SM 15/14 A3006 RMK T01500140 IEM_DS3505
ZBAA,2000-09-28 18:00,ZBAA 281800Z AUTO 00000KT 4SM 15/12 A3006 RMK SLP179 T01540120 52001 IEM_DS3505
ZBAA,2000-09-28 19:00,ZBAA 281900Z AUTO 13002KT 2SM 15/15 A3006 RMK T01500150 IEM_DS3505
ZBAA,2000-09-28 20:00,ZBAA 282000Z AUTO 36002KT 1 1/4SM 14/14 A3006 RMK T01400140 IEM_DS3505
ZBAA,2000-09-28 21:00,ZBAA 282100Z AUTO 00000KT 3SM 15/13 A3006 RMK SLP179 T01500129 54000 IEM_DS3505
ZBAA,2000-09-28 22:00,ZBAA 282200Z AUTO 36004KT 1SM 15/15 A3009 RMK T01500150 IEM_DS3505
ZBAA,2000-09-28 23:00,ZBAA 282300Z AUTO 35002KT 1 1/4SM 16/16 A3009 RMK T01600160 IEM_DS3505
ZBAA,2000-09-29 00:00,ZBAA 290000Z AUTO 09002KT 1/4SM 16/14 A3009 RMK SLP186 T01590143 52006 IEM_DS3505
ZBAA,2000-09-29 01:00,ZBAA 290100Z AUTO 16002KT 1 1/4SM 17/17 A3009 RMK T01700170 IEM_DS3505
ZBAA,2000-09-29 02:00,ZBAA 290200Z AUTO 12002KT 1 1/4SM 18/17 A3009 RMK T01800170 IEM_DS3505
ZBAA,2000-09-29 03:00,ZBAA 290300Z AUTO 17002KT 3SM 21/14 A3006 RMK SLP177 T02090143 57009 IEM_DS3505
ZBAA,2000-09-29 04:00,ZBAA 290400Z AUTO 18002KT 2 1/2SM 22/16 A3003 RMK T02200160 IEM_DS3505
ZBAA,2000-09-29 05:00,ZBAA 290500Z AUTO 16004KT 2 1/2SM 24/17 A3003 RMK T02400170 IEM_DS3505
ZBAA,2000-09-29 06:00,ZBAA 290600Z AUTO 25004KT 9SM 25/12 A3000 RMK SLP154 T02510117 57022 IEM_DS3505
ZBAA,2000-09-29 07:00,ZBAA 290700Z AUTO 18004KT 3SM 25/15 A3000 RMK T02500150 IEM_DS3505
ZBAA,2000-09-29 08:00,ZBAA 290800Z AUTO 18006KT 24/15 A2997 RMK T02400150 IEM_DS3505
ZBAA,2000-09-29 09:00,ZBAA 290900Z AUTO 22004KT 7SM 24/12 A2997 RMK SLP152 T02370121 57002 IEM_DS3505
ZBAA,2000-09-29 10:00,ZBAA 291000Z AUTO 19006KT 5SM 23/16 A2997 RMK T02300160 IEM_DS3505
ZBAA,2000-09-29 11:00,ZBAA 291100Z AUTO 20004KT 22/15 A2997 RMK T02200150 IEM_DS3505
ZBAA,2000-09-29 12:00,ZBAA 291200Z AUTO 00000KT 6SM 20/14 A3000 RMK SLP157 T02030135 52004 IEM_DS3505
ZBAA,2000-09-29 13:00,ZBAA 291300Z AUTO 36002KT 2SM 20/17 A3003 RMK T02000170 IEM_DS3505
ZBAA,2000-09-29 14:00,ZBAA 291400Z AUTO 01002KT 1 1/2SM 19/17 A3003 RMK T01900170 IEM_DS3505
ZBAA,2000-09-29 15:00,ZBAA 291500Z AUTO 00000KT 4SM 19/14 A3003 RMK SLP168 T01860145 52011 IEM_DS3505
ZBAA,2000-09-29 16:00,ZBAA 291600Z AUTO 34002KT 1SM 17/17 A3003 RMK T01700170 IEM_DS3505
ZBAA,2000-09-29 17:00,ZBAA 291700Z AUTO 36002KT 1SM 16/16 A3006 RMK T01600160 IEM_DS3505
ZBAA,2000-09-29 18:00,ZBAA 291800Z AUTO 03002KT 2SM 17/14 A3006 RMK SLP174 T01730142 52007 IEM_DS3505
ZBAA,2000-09-29 19:00,ZBAA 291900Z AUTO 35006KT 1SM 16/15 A3006 RMK T01600150 IEM_DS3505
ZBAA,2000-09-29 20:00,ZBAA 292000Z AUTO 34004KT 1SM 15/15 A3006 RMK T01500150 IEM_DS3505
ZBAA,2000-09-29 21:00,ZBAA 292100Z AUTO 35002KT 2 1/2SM 17/14 A3006 RMK SLP178 T01710138 52004 IEM_DS3505
ZBAA,2000-09-29 22:00,ZBAA 292200Z AUTO 34004KT 1SM 14/14 A3009 RMK T01400140 IEM_DS3505
ZBAA,2000-09-29 23:00,ZBAA 292300Z AUTO 35006KT 1SM 15/15 A3012 RMK T01500150 IEM_DS3505
ZBAA,2000-09-30 00:00,ZBAA 300000Z AUTO 01004KT 4SM 20/11 A3012 RMK SLP194 T01970110 52016 IEM_DS3505
ZBAA,2000-09-30 01:00,ZBAA 300100Z AUTO 01008KT 6SM 20/14 A3012 RMK T02000140 IEM_DS3505
ZBAA,2000-09-30 02:00,ZBAA 300200Z AUTO 01010KT 6SM 22/12 A3015 RMK T02200120 IEM_DS3505
ZBAA,2000-09-30 03:00,ZBAA 300300Z AUTO 02006KT 19SM 23/07 A3012 RMK SLP197 T02310072 52002 IEM_DS3505
ZBAA,2000-09-30 04:00,ZBAA 300400Z AUTO 36008KT 6SM 25/10 A3009 RMK T02500100 IEM_DS3505
ZBAA,2000-09-30 05:00,ZBAA 300500Z AUTO 35004KT 6SM 26/11 A3006 RMK T02600110 IEM_DS3505
ZBAA,2000-09-30 06:00,ZBAA 300600Z AUTO 07004KT 19SM 26/05 A3006 RMK SLP174 T02610046 57022 IEM_DS3505
ZBAA,2000-09-30 07:00,ZBAA 300700Z AUTO 6SM 26/08 A3003 RMK T02600080 IEM_DS3505
ZBAA,2000-09-30 08:00,ZBAA 300800Z AUTO 11002KT 6SM 26/08 A3003 RMK T02600080 IEM_DS3505
ZBAA,2000-09-30 09:00,ZBAA 300900Z AUTO 18002KT 19SM 25/05 A3003 RMK SLP168 T02470050 57006 IEM_DS3505
ZBAA,2000-09-30 10:00,ZBAA 301000Z AUTO 16002KT 6SM 22/11 A3003 RMK T02200110 IEM_DS3505
ZBAA,2000-09-30 11:00,ZBAA 301100Z AUTO 14002KT 6SM 21/13 A3003 RMK T02100130 IEM_DS3505
ZBAA,2000-09-30 12:00,ZBAA 301200Z AUTO 00000KT 7SM 20/07 A3006 RMK SLP175 T02020073 52007 IEM_DS3505
ZBAA,2000-09-30 13:00,ZBAA 301300Z AUTO 13004KT 6SM 19/14 A3006 RMK T01900140 IEM_DS3505
ZBAA,2000-09-30 14:00,ZBAA 301400Z AUTO 12002KT 2 1/2SM 19/17 A3006 RMK T01900170 IEM_DS3505
ZBAA,2000-09-30 15:00,ZBAA 301500Z AUTO 00000KT 6SM 19/15 A3006 RMK SLP180 T01860149 52004 IEM_DS3505
ZBAA,2000-09-30 16:00,ZBAA 301600Z AUTO 08002KT 2SM 18/18 A3006 RMK T01800180 IEM_DS3505
ZBAA,2000-09-30 17:00,ZBAA 301700Z AUTO 00000KT 2SM 18/18 A3006 RMK T01800180 IEM_DS3505
ZBAA,2000-09-30 18:00,ZBAA 301800Z AUTO 06004KT 6SM 18/16 A3006 RMK 60003 SLP171 T01850163 57008 IEM_DS3505
ZBAA,2000-09-30 19:00,ZBAA 301900Z AUTO 13002KT 4SM 19/18 A3003 RMK T01900180 IEM_DS3505
ZBAA,2000-09-30 20:00,ZBAA 302000Z AUTO 10002KT 3SM 19/17 A3003 RMK T01900170 IEM_DS3505
ZBAA,2000-09-30 21:00,ZBAA 302100Z AUTO 05002KT 5SM 18/15 A3000 RMK 70003 SLP161 T01780152 57010 IEM_DS3505
ZBAA,2000-09-30 22:00,ZBAA 302200Z AUTO 00000KT 2 1/2SM 19/17 A3000 RMK T01900170 IEM_DS3505
ZBAA,2000-09-30 23:00,ZBAA 302300Z AUTO 15002KT 2 1/2SM 18/17 A3000 RMK T01800170 IEM_DS3505
ZBAA,2000-10-01 00:00,ZBAA 010000Z AUTO 00000KT 5SM 18/15 A3000 RMK 70003 SLP155 T01830154 57006 IEM_DS3505
ZBAA,2000-10-01 01:00,ZBAA 010100Z AUTO 2 1/2SM 19/18 A3000 RMK T01900180 IEM_DS3505
ZBAA,2000-10-01 02:00,ZBAA 010200Z AUTO 2 1/2SM 20/18 A3000 RMK T02000180 IEM_DS3505
ZBAA,2000-10-01 03:00,ZBAA 010300Z AUTO 03002KT 3SM 20/16 A3000 RMK SLP154 T01970162 57001 IEM_DS3505
ZBAA,2000-10-01 04:00,ZBAA 010400Z AUTO 19004KT 2 1/2SM 21/19 A2997 RMK T02100190 IEM_DS3505
ZBAA,2000-10-01 05:00,ZBAA 010500Z AUTO 18006KT 2 1/2SM 21/19 A2997 RMK T02100190 IEM_DS3505
ZBAA,2000-10-01 06:00,ZBAA 010600Z AUTO 22006KT 3SM 20/17 A2994 RMK 60003 SLP139 T02050169 57015 IEM_DS3505
ZBAA,2000-10-01 07:00,ZBAA 010700Z AUTO 19006G16KT 1 1/2SM 22/19 A2994 RMK T02200190 IEM_DS3505
ZBAA,2000-10-01 08:00,ZBAA 010800Z AUTO 21006KT 2SM 23/18 A2991 RMK T02300180 IEM_DS3505
ZBAA,2000-10-01 09:00,ZBAA 010900Z AUTO 21002KT 5SM 22/16 A2991 RMK SLP126 T02210157 57013 IEM_DS3505
ZBAA,2000-10-01 10:00,ZBAA 011000Z AUTO 15002KT 2SM 20/17 A2991 RMK T02000170 IEM_DS3505
ZBAA,2000-10-01 11:00,ZBAA 011100Z AUTO 13002KT 1 1/2SM 18/18 A2991 RMK T01800180 IEM_DS3505
ZBAA,2000-10-01 12:00,ZBAA 011200Z AUTO 00000KT 4SM 18/15 A2994 RMK SLP133 T01780151 52007 IEM_DS3505
ZBAA,2000-10-01 13:00,ZBAA 011300Z AUTO 13002KT 1SM 17/17 A2994 RMK T01700170 IEM_DS3505
ZBAA,2000-10-01 14:00,ZBAA 011400Z AUTO 00000KT 1SM 16/16 A2994 RMK T01600160 IEM_DS3505
ZBAA,2000-10-01 15:00,ZBAA 011500Z AUTO 22002KT 2SM 16/14 A2994 RMK SLP137 T01620144 52003 IEM_DS3505
ZBAA,2000-10-01 16:00,ZBAA 011600Z AUTO 01002KT 1/2SM 14/14 A2994 RMK T01400140 IEM_DS3505
ZBAA,2000-10-01 17:00,ZBAA 011700Z AUTO 04002KT 1/2SM 15/15 A2994 RMK T01500150 IEM_DS3505
ZBAA,2000-10-01 18:00,ZBAA 011800Z AUTO 21002KT 1/4SM 14/13 A2994 RMK SLP137 T01450129 54000 IEM_DS3505
ZBAA,2000-10-01 19:00,ZBAA 011900Z AUTO 13002KT 1/2SM RMK IEM_DS3505
ZBAA,2000-10-01 20:00,ZBAA 012000Z AUTO 15002KT 1SM 12/12 A2994 RMK T01200120 IEM_DS3505
ZBAA,2000-10-01 21:00,ZBAA 012100Z AUTO 00000KT 1/4SM 14/13 A2994 RMK 70003 SLP137 T01410128 52001 IEM_DS3505
ZBAA,2000-10-01 22:00,ZBAA 012200Z AUTO 04002KT 1SM 12/12 A2997 RMK T01200120 IEM_DS3505
ZBAA,2000-10-01 23:00,ZBAA 012300Z AUTO 00000KT 1/8SM 13/13 A2997 RMK T01300130 IEM_DS3505
ZBAA,2000-10-02 00:00,ZBAA 020000Z AUTO 06004KT 1/4SM 14/13 A3000 RMK 70003 SLP156 T01440133 52018 IEM_DS3505
ZBAA,2000-10-02 01:00,ZBAA 020100Z AUTO 17004KT 6SM A3003 RMK SLP147 57019 IEM_DS3505
ZBAA,2000-10-02 02:00,ZBAA 020200Z AUTO 10008KT 4SM 18/15 A3003 RMK T01800150 IEM_DS3505
ZBAA,2000-10-02 03:00,ZBAA 020300Z AUTO 10006KT 5SM 19/13 A3003 RMK SLP166 T01920134 52011 IEM_DS3505
ZBAA,2000-10-02 04:00,ZBAA 020400Z AUTO 14006KT 6SM 21/14 A3000 RMK T02100140 IEM_DS3505
ZBAA,2000-10-02 05:00,ZBAA 020500Z AUTO 18006KT 6SM 23/12 A3000 RMK T02300120 IEM_DS3505
ZBAA,2000-10-02 06:00,ZBAA 020600Z AUTO 17004KT 6SM 23/12 A2997 RMK SLP147 T02280122 57019 IEM_DS3505
ZBAA,2000-10-02 07:00,ZBAA 020700Z AUTO 17006KT 6SM 23/13 A2994 RMK T02300130 IEM_DS3505
ZBAA,2000-10-02 08:00,ZBAA 020800Z AUTO 20006KT 6SM 23/13 A2994 RMK T02300130 IEM_DS3505
ZBAA,2000-10-02 09:00,ZBAA 020900Z AUTO 21004KT 6SM 22/14 A2997 RMK SLP142 T02200139 57005 IEM_DS3505
ZBAA,2000-10-02 10:00,ZBAA 021000Z AUTO 15002KT 2 1/2SM 20/16 A2997 RMK T02000160 IEM_DS3505
ZBAA,2000-10-02 11:00,ZBAA 021100Z AUTO 10004KT 2 1/2SM 20/16 A3000 RMK T02000160 IEM_DS3505
ZBAA,2000-10-02 12:00,ZBAA 021200Z AUTO 00000KT 5SM 18/15 A3000 RMK SLP158 T01830146 52015 IEM_DS3505
ZBAA,2000-10-02 13:00,ZBAA 021300Z AUTO 10004KT 4SM 17/14 A3000 RMK T01700140 IEM_DS3505
ZBAA,2000-10-02 14:00,ZBAA 021400Z AUTO 12002KT 4SM 16/14 A3003 RMK T01600140 IEM_DS3505
ZBAA,2000-10-02 15:00,ZBAA 021500Z AUTO 17002KT 7SM 17/12 A3003 RMK SLP161 T01690122 52003 IEM_DS3505
ZBAA,2000-10-02 16:00,ZBAA 021600Z AUTO 10002KT 4SM 16/13 A3003 RMK T01600130 IEM_DS3505
ZBAA,2000-10-02 17:00,ZBAA 021700Z AUTO 08002KT 5SM 16/14 A3003 RMK T01600140 IEM_DS3505
ZBAA,2000-10-02 18:00,ZBAA 021800Z AUTO 11004KT 6SM 17/13 A3000 RMK SLP157 T01690127 57003 IEM_DS3505
ZBAA,2000-10-02 19:00,ZBAA 021900Z AUTO 10002KT 7SM 16/14 A3000 RMK T01600140 IEM_DS3505
ZBAA,2000-10-02 20:00,ZBAA 022000Z AUTO 03002KT 7SM 16/14 A3000 RMK T01600140 IEM_DS3505
ZBAA,2000-10-02 21:00,ZBAA 022100Z AUTO 00000KT 5SM 16/13 A3003 RMK 70004 SLP160 T01640131 52003 IEM_DS3505
ZBAA,2000-10-02 22:00,ZBAA 022200Z AUTO 26002KT 4SM 15/14 A3000 RMK T01500140 IEM_DS3505
ZBAA,2000-10-02 23:00,ZBAA 022300Z AUTO 01002KT 3SM 15/15 A3003 RMK T01500150 IEM_DS3505
ZBAA,2000-10-03 00:00,ZBAA 030000Z AUTO 11002KT 4SM 16/13 A3003 RMK 60008 SLP164 T01550134 52003 IEM_DS3505
ZBAA,2000-10-03 01:00,ZBAA 030100Z AUTO 11004KT 4SM 16/15 A3000 RMK T01600150 IEM_DS3505
ZBAA,2000-10-03 02:00,ZBAA 030200Z AUTO 12004KT 4SM 16/15 A3003 RMK T01600150 IEM_DS3505
ZBAA,2000-10-03 03:00,ZBAA 030300Z AUTO 08004KT 3SM 17/14 A3003 RMK SLP159 T01660137 57005 IEM_DS3505
ZBAA,2000-10-03 04:00,ZBAA 030400Z AUTO 11006KT 4SM 16/14 A3000 RMK T01600140 IEM_DS3505
ZBAA,2000-10-03 05:00,ZBAA 030500Z AUTO 10004KT 4SM 16/14 A2997 RMK T01600140 IEM_DS3505
ZBAA,2000-10-03 06:00,ZBAA 030600Z AUTO 06004KT 4SM 16/13 A2994 RMK SLP140 T01580127 57019 IEM_DS3505
ZBAA,2000-10-03 07:00,ZBAA 030700Z AUTO 12004KT 4SM 16/14 A2994 RMK T01600140 IEM_DS3505
ZBAA,2000-10-03 08:00,ZBAA 030800Z AUTO 06002KT 4SM 16/15 A2994 RMK T01600150 IEM_DS3505
ZBAA,2000-10-03 09:00,ZBAA 030900Z AUTO 06006KT 3SM 17/14 A2994 RMK SLP135 T01680135 57005 IEM_DS3505
ZBAA,2000-10-03 10:00,ZBAA 031000Z AUTO 36002KT 4SM 16/15 A2997 RMK T01600150 IEM_DS3505
ZBAA,2000-10-03 11:00,ZBAA 031100Z AUTO 24004KT 4SM 16/15 A3000 RMK T01600150 IEM_DS3505
ZBAA,2000-10-03 12:00,ZBAA 031200Z AUTO 08002KT 3SM 16/13 A2997 RMK 60008 SLP142 T01570134 52007 IEM_DS3505
ZBAA,2000-10-03 13:00,ZBAA 031300Z AUTO 33004KT 2 1/2SM 15/15 A2997 RMK T01500150 IEM_DS3505
ZBAA,2000-10-03 14:00,ZBAA 031400Z AUTO 03002KT 1 1/4SM 15/15 A2997 RMK T01500150 IEM_DS3505
ZBAA,2000-10-03 15:00,ZBAA 031500Z AUTO 33002KT 2 1/2SM 16/14 A2997 RMK SLP148 T01570135 52006 IEM_DS3505
ZBAA,2000-10-03 16:00,ZBAA 031600Z AUTO 00000KT 1SM 14/14 A2997 RMK T01400140 IEM_DS3505
ZBAA,2000-10-03 17:00,ZBAA 031700Z AUTO 23002KT 1SM 14/14 A2997 RMK T01400140 IEM_DS3505
ZBAA,2000-10-03 18:00,ZBAA 031800Z AUTO 05002KT 2SM 15/13 A2997 RMK 60000 SLP141 T01490131 57007 IEM_DS3505
ZBAA,2000-10-03 19:00,ZBAA 031900Z AUTO 01004KT 1SM 15/15 A2994 RMK T01500150 IEM_DS3505
ZBAA,2000-10-03 20:00,ZBAA 032000Z AUTO 34004KT 1SM 14/14 A2997 RMK T01400140 IEM_DS3505
ZBAA,2000-10-03 21:00,ZBAA 032100Z AUTO 04002KT 2SM 15/14 A2997 RMK 70011 SLP147 T01530135 52006 IEM_DS3505
ZBAA,2000-10-03 22:00,ZBAA 032200Z AUTO 22002KT 1SM 14/14 A2997 RMK T01400140 IEM_DS3505
ZBAA,2000-10-03 23:00,ZBAA 032300Z AUTO 32004KT 1SM 14/14 A3000 RMK T01400140 IEM_DS3505
ZBAA,2000-10-04 00:00,ZBAA 040000Z AUTO 03002KT 2 1/2SM 16/14 A3003 RMK 70007 SLP166 T01590143 52019 IEM_DS3505
ZBAA,2000-10-04 01:00,ZBAA 040100Z AUTO 36006KT 3SM 17/16 A3003 RMK T01700160 IEM_DS3505
ZBAA,2000-10-04 02:00,ZBAA 040200Z AUTO 01006KT 4SM 19/15 A3003 RMK T01900150 IEM_DS3505
ZBAA,2000-10-04 03:00,ZBAA 040300Z AUTO 04006KT 7SM 21/10 A3003 RMK SLP170 T02090098 52005 IEM_DS3505
ZBAA,2000-10-04 04:00,ZBAA 040400Z AUTO 05006KT 6SM 23/10 A3003 RMK T02300100 IEM_DS3505
ZBAA,2000-10-04 05:00,ZBAA 040500Z AUTO 6SM 24/08 A3000 RMK T02400080 IEM_DS3505
ZBAA,2000-10-04 06:00,ZBAA 040600Z AUTO 06004KT 19SM 24/05 A3000 RMK SLP154 T02440053 57016 IEM_DS3505
ZBAA,2000-10-04 07:00,ZBAA 040700Z AUTO 01004KT 6SM 25/07 A3000 RMK T02500070 IEM_DS3505
ZBAA,2000-10-04 08:00,ZBAA 040800Z AUTO 6SM 25/07 A2997 RMK T02500070 IEM_DS3505
ZBAA,2000-10-04 09:00,ZBAA 040900Z AUTO 00000KT 16SM 23/07 A3000 RMK SLP158 T02340067 52004 IEM_DS3505
ZBAA,2000-10-04 10:00,ZBAA 041000Z AUTO 23002KT 6SM 22/09 A3003 RMK T02200090 IEM_DS3505
ZBAA,2000-10-04 11:00,ZBAA 041100Z AUTO 17004KT 6SM 19/10 A3003 RMK T01900100 IEM_DS3505
ZBAA,2000-10-04 12:00,ZBAA 041200Z AUTO 00000KT 6SM 18/10 A3006 RMK SLP176 T01800096 52017 IEM_DS3505
ZBAA,2000-10-04 13:00,ZBAA 041300Z AUTO 00000KT 6SM 16/13 A3009 RMK T01600130 IEM_DS3505
ZBAA,2000-10-04 14:00,ZBAA 041400Z AUTO 12002KT 6SM 15/13 A3009 RMK T01500130 IEM_DS3505
ZBAA,2000-10-04 15:00,ZBAA 041500Z AUTO 13004KT 5SM 15/11 A3009 RMK SLP188 T01540110 52012 IEM_DS3505
ZBAA,2000-10-04 16:00,ZBAA 041600Z AUTO 08002KT 4SM 14/13 A3009 RMK T01400130 IEM_DS3505
ZBAA,2000-10-04 17:00,ZBAA 041700Z AUTO 4SM 14/13 A3012 RMK T01400130 IEM_DS3505
ZBAA,2000-10-04 18:00,ZBAA 041800Z AUTO 00000KT 5SM 15/11 A3012 RMK SLP192 T01490109 52005 IEM_DS3505
ZBAA,2000-10-04 19:00,ZBAA 041900Z AUTO 00000KT 2 1/2SM 14/14 A3012 RMK T01400140 IEM_DS3505
ZBAA,2000-10-04 20:00,ZBAA 042000Z AUTO 35002KT 2 1/2SM 14/14 A3012 RMK T01400140 IEM_DS3505
ZBAA,2000-10-04 21:00,ZBAA 042100Z AUTO 00000KT 2 1/2SM 14/12 A3015 RMK SLP205 T01410118 52012 IEM_DS3505
ZBAA,2000-10-04 22:00,ZBAA 042200Z AUTO 11004KT 5SM 14/12 A3012 RMK T01400120 IEM_DS3505
ZBAA,2000-10-04 23:00,ZBAA 042300Z AUTO 36004KT 4SM 14/13 A3015 RMK T01400130 IEM_DS3505
ZBAA,2000-10-05 00:00,ZBAA 050000Z AUTO 01002KT 3SM 17/13 A3018 RMK SLP211 T01690129 52006 IEM_DS3505
ZBAA,2000-10-05 01:00,ZBAA 050100Z AUTO 7SM 17/13 A3018 RMK T01700130 IEM_DS3505
ZBAA,2000-10-05 02:00,ZBAA 050200Z AUTO 7SM 19/14 A3018 RMK T01900140 IEM_DS3505
ZBAA,2000-10-05 03:00,ZBAA 050300Z AUTO 14004KT 6SM 21/13 A3015 RMK SLP205 T02070127 57006 IEM_DS3505
ZBAA,2000-10-05 04:00,ZBAA 050400Z AUTO 13004KT 7SM 21/15 A3012 RMK T02100150 IEM_DS3505
ZBAA,2000-10-05 05:00,ZBAA 050500Z AUTO 13006KT 7SM 22/15 A3009 RMK T02200150 IEM_DS3505
ZBAA,2000-10-05 06:00,ZBAA 050600Z AUTO 24004KT 9SM 22/12 A3009 RMK SLP182 T02200120 57023 IEM_DS3505
ZBAA,2000-10-05 07:00,ZBAA 050700Z AUTO 10004KT 7SM 19/17 A3006 RMK T01900170 IEM_DS3505
ZBAA,2000-10-05 08:00,ZBAA 050800Z AUTO 07002KT 6SM 19/17 A3003 RMK T01900170 IEM_DS3505
ZBAA,2000-10-05 09:00,ZBAA 050900Z AUTO 17004KT 6SM 20/13 A3003 RMK SLP170 T01970132 57012 IEM_DS3505
ZBAA,2000-10-05 10:00,ZBAA 051000Z AUTO 13004KT 7SM 19/15 A3003 RMK T01900150 IEM_DS3505
ZBAA,2000-10-05 11:00,ZBAA 051100Z AUTO 12002KT 7SM 18/15 A3003 RMK T01800150 IEM_DS3505
ZBAA,2000-10-05 12:00,ZBAA 051200Z AUTO 12004KT 9SM 18/13 A3003 RMK 60003 SLP169 T01850132 57001 IEM_DS3505
ZBAA,2000-10-05 13:00,ZBAA 051300Z AUTO 13002KT 7SM 18/15 A3003 RMK T01800150 IEM_DS3505
ZBAA,2000-10-05 14:00,ZBAA 051400Z AUTO 06002KT 7SM 18/15 A3003 RMK T01800150 IEM_DS3505
ZBAA,2000-10-05 15:00,ZBAA 051500Z AUTO 07002KT 12SM 18/14 A3003 RMK SLP164 T01750138 57005 IEM_DS3505
ZBAA,2000-10-05 16:00,ZBAA 051600Z AUTO 00000KT 7SM 17/15 A3000 RMK T01700150 IEM_DS3505
ZBAA,2000-10-05 17:00,ZBAA 051700Z AUTO 01002KT 7SM 17/15 A3000 RMK T01700150 IEM_DS3505
ZBAA,2000-10-05 18:00,ZBAA 051800Z AUTO 03002KT 6SM 16/13 A3000 RMK SLP157 T01650127 57006 IEM_DS3505
ZBAA,2000-10-05 19:00,ZBAA 051900Z AUTO 00000KT 7SM 17/16 A3000 RMK T01700160 IEM_DS3505
ZBAA,2000-10-05 20:00,ZBAA 052000Z AUTO 00000KT 7SM 17/16 A3000 RMK T01700160 IEM_DS3505
ZBAA,2000-10-05 21:00,ZBAA 052100Z AUTO 07002KT 6SM 16/13 A3000 RMK 70003 SLP154 T01610130 57004 IEM_DS3505
ZBAA,2000-10-05 22:00,ZBAA 052200Z AUTO 36002KT 4SM 16/16 A3000 RMK T01600160 IEM_DS3505
ZBAA,2000-10-05 23:00,ZBAA 052300Z AUTO 16002KT 4SM 16/15 A3000 RMK T01600150 IEM_DS3505
ZBAA,2000-10-06 00:00,ZBAA 060000Z AUTO 12002KT 6SM 16/14 A3003 RMK 70003 SLP164 T01650138 52010 IEM_DS3505
ZBAA,2000-10-06 01:00,ZBAA 060100Z AUTO 12004KT 2 1/2SM 17/16 A3003 RMK T01700160 IEM_DS3505
ZBAA,2000-10-06 02:00,ZBAA 060200Z AUTO 12002KT 2 1/2SM 18/16 A3003 RMK T01800160 IEM_DS3505
ZBAA,2000-10-06 03:00,ZBAA 060300Z AUTO 16004KT 2 1/2SM 18/15 A3003 RMK SLP164 T01780149 54000 IEM_DS3505
ZBAA,2000-10-06 04:00,ZBAA 060400Z AUTO 1 1/2SM 18/17 A3000 RMK T01800170 IEM_DS3505
ZBAA,2000-10-06 05:00,ZBAA 060500Z AUTO 06002KT 1 1/2SM 18/17 A3000 RMK T01800170 IEM_DS3505
ZBAA,2000-10-06 06:00,ZBAA 060600Z AUTO 18004KT 1 1/4SM 18/16 A2997 RMK SLP146 T01820155 57018 IEM_DS3505
ZBAA,2000-10-06 07:00,ZBAA 060700Z AUTO 16006KT 1SM 19/18 A2997 RMK T01900180 IEM_DS3505
ZBAA,2000-10-06 08:00,ZBAA 060800Z AUTO 16002KT 1SM 20/18 A2994 RMK T02000180 IEM_DS3505
ZBAA,2000-10-06 09:00,ZBAA 060900Z AUTO 03002KT 2SM 20/16 A2994 RMK SLP140 T01950156 57006 IEM_DS3505
ZBAA,2000-10-06 10:00,ZBAA 061000Z AUTO 00000KT 1SM 18/17 A2994 RMK T01800170 IEM_DS3505
ZBAA,2000-10-06 11:00,ZBAA 061100Z AUTO 34002KT 1SM 17/17 A2994 RMK T01700170 IEM_DS3505
ZBAA,2000-10-06 12:00,ZBAA 061200Z AUTO 07002KT 1 1/4SM 17/15 A2997 RMK SLP145 T01720152 52005 IEM_DS3505
ZBAA,2000-10-06 13:00,ZBAA 061300Z AUTO 00000KT 1SM 16/16 A2997 RMK T01600160 IEM_DS3505
ZBAA,2000-10-06 14:00,ZBAA 061400Z AUTO 00000KT 1SM 16/16 A2997 RMK T01600160 IEM_DS3505
ZBAA,2000-10-06 15:00,ZBAA 061500Z AUTO 32004KT 1/2SM 17/15 A2997 RMK SLP143 T01680150 57002 IEM_DS3505
ZBAA,2000-10-06 16:00,ZBAA 061600Z AUTO 11004KT 1SM 16/16 A2994 RMK T01600160 IEM_DS3505
ZBAA,2000-10-06 17:00,ZBAA 061700Z AUTO 10002KT 1/2SM 16/16 A2994 RMK T01600160 IEM_DS3505
ZBAA,2000-10-06 18:00,ZBAA 061800Z AUTO 10002KT 1SM 16/15 A2994 RMK SLP136 T01610146 57007 IEM_DS3505
ZBAA,2000-10-06 19:00,ZBAA 061900Z AUTO 19004KT 1/2SM 16/16 A2994 RMK T01600160 IEM_DS3505
ZBAA,2000-10-06 20:00,ZBAA 062000Z AUTO 00000KT 1/2SM 16/16 A2994 RMK T01600160 IEM_DS3505
ZBAA,2000-10-06 21:00,ZBAA 062100Z AUTO 15004KT 2SM 17/15 A2994 RMK SLP129 T01670147 57006 IEM_DS3505
ZBAA,2000-10-06 22:00,ZBAA 062200Z AUTO 10004KT 1SM 16/16 A2994 RMK T01600160 IEM_DS3505
ZBAA,2000-10-06 23:00,ZBAA 062300Z AUTO 10004KT 1SM 17/17 A2994 RMK T01700170 IEM_DS3505
ZBAA,2000-10-07 00:00,ZBAA 070000Z AUTO 14002KT 2SM 17/15 A2997 RMK SLP144 T01680152 52014 IEM_DS3505
ZBAA,2000-10-07 01:00,ZBAA 070100Z AUTO 15004KT 1SM 18/17 A2997 RMK T01800170 IEM_DS3505
ZBAA,2000-10-07 02:00,ZBAA 070200Z AUTO 23002KT 1SM 18/17 A2997 RMK T01800170 IEM_DS3505
ZBAA,2000-10-07 03:00,ZBAA 070300Z AUTO 04002KT 2SM 19/16 A2997 RMK SLP139 T01910156 57004 IEM_DS3505
ZBAA,2000-10-07 04:00,ZBAA 070400Z AUTO 03002KT 1SM 19/18 A2994 RMK T01900180 IEM_DS3505
ZBAA,2000-10-07 05:00,ZBAA 070500Z AUTO 01004KT 1SM 20/18 A2994 RMK T02000180 IEM_DS3505
ZBAA,2000-10-07 06:00,ZBAA 070600Z AUTO 07002KT 1 1/4SM 19/16 A2994 RMK SLP132 T01930160 57007 IEM_DS3505
ZBAA,2000-10-07 07:00,ZBAA 070700Z AUTO 36002KT 1SM 20/18 A2994 RMK T02000180 IEM_DS3505
ZBAA,2000-10-07 08:00,ZBAA 070800Z AUTO 01004KT 1SM 19/18 A2994 RMK T01900180 IEM_DS3505
ZBAA,2000-10-07 09:00,ZBAA 070900Z AUTO 34008G19KT 12SM 21/02 A2997 RMK SLP141 T02120015 52009 IEM_DS3505
ZBAA,2000-10-07 10:00,ZBAA 071000Z AUTO 31012KT 6SM 19/08 A3000 RMK T01900080 IEM_DS3505
ZBAA,2000-10-07 11:00,ZBAA 071100Z AUTO 31017KT 7SM 17/09 A3000 RMK T01700090 IEM_DS3505
ZBAA,2000-10-07 12:00,ZBAA 071200Z AUTO 32008KT 12SM 14/09 A3003 RMK 60004 SLP169 T01450087 52027 IEM_DS3505
ZBAA,2000-10-07 13:00,ZBAA 071300Z AUTO 31008KT 7SM 14/11 A3003 RMK T01400110 IEM_DS3505
ZBAA,2000-10-07 14:00,ZBAA 071400Z AUTO 29004KT 7SM 13/12 A3003 RMK T01300120 IEM_DS3505
ZBAA,2000-10-07 15:00,ZBAA 071500Z AUTO 04004KT 9SM 13/10 A3003 RMK SLP160 T01330099 57009 IEM_DS3505
ZBAA,2000-10-07 16:00,ZBAA 071600Z AUTO 35004KT 6SM 12/11 A3000 RMK T01200110 IEM_DS3505
ZBAA,2000-10-07 17:00,ZBAA 071700Z AUTO 02002KT 6SM 12/11 A3000 RMK T01200110 IEM_DS3505
ZBAA,2000-10-07 18:00,ZBAA 071800Z AUTO 36002KT 6SM 11/11 A3000 RMK T01100110 IEM_DS3505
ZBAA,2000-10-07 19:00,ZBAA 071900Z AUTO 34006KT 6SM 10/09 A3000 RMK T01000090 IEM_DS3505
ZBAA,2000-10-07 20:00,ZBAA 072000Z AUTO 34002KT 6SM 09/08 A3000 RMK T00900080 IEM_DS3505
ZBAA,2000-10-07 21:00,ZBAA 072100Z AUTO 33004KT 12SM 14/02 A3006 RMK 70020 SLP168 T01350015 52010 IEM_DS3505
ZBAA,2000-10-07 22:00,ZBAA 072200Z AUTO 35008KT 6SM 09/07 A3003 RMK T00900070 IEM_DS3505
ZBAA,2000-10-07 23:00,ZBAA 072300Z AUTO 36006KT 6SM 10/06 A3006 RMK T01000060 IEM_DS3505
ZBAA,2000-10-08 00:00,ZBAA 080000Z AUTO 01004KT 19SM 15/02 A3009 RMK T01540016 IEM_DS3505
ZBAA,2000-10-08 01:00,ZBAA 080100Z AUTO 33008KT 6SM 15/06 A3009 RMK T01500060 IEM_DS3505
ZBAA,2000-10-08 02:00,ZBAA 080200Z AUTO 35008KT 6SM 17/05 A3009 RMK T01700050 IEM_DS3505
ZBAA,2000-10-08 03:00,ZBAA 080300Z AUTO 33006KT 19SM 19/M02 A3006 RMK SLP180 T01881021 57004 IEM_DS3505
ZBAA,2000-10-08 04:00,ZBAA 080400Z AUTO 32004KT 6SM 20/03 A3006 RMK T02000030 IEM_DS3505
ZBAA,2000-10-08 05:00,ZBAA 080500Z AUTO 6SM 20/04 A3000 RMK T02000040 IEM_DS3505
ZBAA,2000-10-08 06:00,ZBAA 080600Z AUTO 05006KT 19SM 22/M04 A2997 RMK SLP151 T02161037 57029 IEM_DS3505
ZBAA,2000-10-08 07:00,ZBAA 080700Z AUTO 36004KT 6SM 22/02 A2997 RMK T02200020 IEM_DS3505
ZBAA,2000-10-08 08:00,ZBAA 080800Z AUTO 35002KT 6SM 22/02 A2997 RMK T02200020 IEM_DS3505
ZBAA,2000-10-08 09:00,ZBAA 080900Z AUTO 04002KT 12SM 21/M02 A2997 RMK SLP152 T02061018 52001 IEM_DS3505
ZBAA,2000-10-08 10:00,ZBAA 081000Z AUTO 00000KT 6SM 17/06 A2997 RMK T01700060 IEM_DS3505
ZBAA,2000-10-08 11:00,ZBAA 081100Z AUTO 20002KT 6SM 16/07 A2997 RMK T01600070 IEM_DS3505
ZBAA,2000-10-08 12:00,ZBAA 081200Z AUTO 27002KT 7SM 16/05 A3000 RMK SLP162 T01600050 52010 IEM_DS3505
ZBAA,2000-10-08 13:00,ZBAA 081300Z AUTO 00000KT 6SM 13/10 A3003 RMK T01300100 IEM_DS3505
ZBAA,2000-10-08 14:00,ZBAA 081400Z AUTO 12002KT 5SM 11/09 A3003 RMK T01100090 IEM_DS3505
ZBAA,2000-10-08 15:00,ZBAA 081500Z AUTO 16002KT 7SM 13/05 A3006 RMK SLP171 T01320054 52009 IEM_DS3505
ZBAA,2000-10-08 16:00,ZBAA 081600Z AUTO 00000KT 4SM 13/09 A3003 RMK T01300090 IEM_DS3505
ZBAA,2000-10-08 17:00,ZBAA 081700Z AUTO 4SM 12/09 A3006 RMK T01200090 IEM_DS3505
ZBAA,2000-10-08 18:00,ZBAA 081800Z AUTO 00000KT 6SM 13/06 A3006 RMK SLP177 T01330055 52006 IEM_DS3505
ZBAA,2000-10-08 19:00,ZBAA 081900Z AUTO 00000KT 6SM 12/09 A3006 RMK T01200090 IEM_DS3505
ZBAA,2000-10-08 20:00,ZBAA 082000Z AUTO 01002KT 6SM 12/10 A3006 RMK T01200100 IEM_DS3505
ZBAA,2000-10-08 21:00,ZBAA 082100Z AUTO 31002KT 6SM 13/07 A3006 RMK SLP177 T01320070 54000 IEM_DS3505
ZBAA,2000-10-08 22:00,ZBAA 082200Z AUTO 36004KT 6SM 12/10 A3009 RMK T01200100 IEM_DS3505
ZBAA,2000-10-08 23:00,ZBAA 082300Z AUTO 36004KT 7SM 13/10 A3009 RMK T01300100 IEM_DS3505
ZBAA,2000-10-09 00:00,ZBAA 090000Z AUTO 03004KT 6SM 14/07 A3012 RMK SLP193 T01370070 52016 IEM_DS3505
ZBAA,2000-10-09 01:00,ZBAA 090100Z AUTO 34004KT 5SM 12/11 A3012 RMK T01200110 IEM_DS3505
ZBAA,2000-10-09 02:00,ZBAA 090200Z AUTO 32002KT 7SM 14/12 A3012 RMK T01400120 IEM_DS3505
ZBAA,2000-10-09 03:00,ZBAA 090300Z AUTO 08004KT 9SM 16/08 A3009 RMK SLP180 T01630075 57013 IEM_DS3505
ZBAA,2000-10-09 04:00,ZBAA 090400Z AUTO 01002KT 6SM 15/11 A3006 RMK T01500110 IEM_DS3505
ZBAA,2000-10-09 05:00,ZBAA 090500Z AUTO 01004KT 6SM 15/11 A3006 RMK T01500110 IEM_DS3505
ZBAA,2000-10-09 06:00,ZBAA 090600Z AUTO 07004KT 9SM 15/09 A3003 RMK 60003 SLP171 T01540089 57009 IEM_DS3505
ZBAA,2000-10-09 07:00,ZBAA 090700Z AUTO 16002KT 6SM 15/12 A3003 RMK T01500120 IEM_DS3505
ZBAA,2000-10-09 08:00,ZBAA 090800Z AUTO 12002KT 6SM 15/12 A3003 RMK T01500120 IEM_DS3505
ZBAA,2000-10-09 09:00,ZBAA 090900Z AUTO 09002KT 6SM 15/09 A3000 RMK SLP162 T01480094 57009 IEM_DS3505
ZBAA,2000-10-09 10:00,ZBAA 091000Z AUTO 14002KT 6SM 14/12 A3003 RMK T01400120 IEM_DS3505
ZBAA,2000-10-09 11:00,ZBAA 091100Z AUTO 16002KT 6SM 14/13 A3003 RMK T01400130 IEM_DS3505
ZBAA,2000-10-09 12:00,ZBAA 091200Z AUTO 21002KT 6SM 14/10 A3003 RMK SLP171 T01440100 52009 IEM_DS3505
ZBAA,2000-10-09 13:00,ZBAA 091300Z AUTO 13002KT 5SM 14/13 RMK T01400130 IEM_DS3505
ZBAA,2000-10-09 14:00,ZBAA 091400Z AUTO 18004KT 4SM 14/12 A3003 RMK T01400120 IEM_DS3505
ZBAA,2000-10-09 15:00,ZBAA 091500Z AUTO 23002KT 6SM 13/09 A3003 RMK SLP170 T01340093 57001 IEM_DS3505
ZBAA,2000-10-09 16:00,ZBAA 091600Z AUTO 15002KT 4SM 13/11 A3000 RMK T01300110 IEM_DS3505
ZBAA,2000-10-09 17:00,ZBAA 091700Z AUTO 00000KT 4SM 13/12 A3003 RMK T01300120 IEM_DS3505
ZBAA,2000-10-09 18:00,ZBAA 091800Z AUTO 22004KT 5SM 13/10 A3000 RMK 60003 SLP161 T01300102 57009 IEM_DS3505
ZBAA,2000-10-09 19:00,ZBAA 091900Z AUTO 00000KT 3SM 13/12 A3000 RMK T01300120 IEM_DS3505
ZBAA,2000-10-09 20:00,ZBAA 092000Z AUTO 00000KT 3SM 12/12 A3000 RMK T01200120 IEM_DS3505
ZBAA,2000-10-09 21:00,ZBAA 092100Z AUTO 23002KT 4SM 12/10 A2997 RMK 70003 SLP152 T01230102 57009 IEM_DS3505
ZBAA,2000-10-09 22:00,ZBAA 092200Z AUTO 00000KT 2SM 12/12 A2997 RMK T01200120 IEM_DS3505
ZBAA,2000-10-09 23:00,ZBAA 092300Z AUTO 26002KT 1 1/2SM 12/12 A3000 RMK T01200120 IEM_DS3505
ZBAA,2000-10-10 00:00,ZBAA 100000Z AUTO 23004KT 4SM 12/10 A3003 RMK 60003 SLP166 T01240101 52014 IEM_DS3505
ZBAA,2000-10-10 01:00,ZBAA 100100Z AUTO 28002KT 2SM 14/12 A3003 RMK T01400120 IEM_DS3505
ZBAA,2000-10-10 02:00,ZBAA 100200Z AUTO 20002KT 2SM 15/13 A3003 RMK T01500130 IEM_DS3505
ZBAA,2000-10-10 03:00,ZBAA 100300Z AUTO 23006KT 4SM 15/11 A3003 RMK SLP166 T01490107 54000 IEM_DS3505
ZBAA,2000-10-10 04:00,ZBAA 100400Z AUTO 25004KT 2SM 16/12 A3000 RMK T01600120 IEM_DS3505
ZBAA,2000-10-10 05:00,ZBAA 100500Z AUTO 2SM 17/13 A3000 RMK T01700130 IEM_DS3505
ZBAA,2000-10-10 06:00,ZBAA 100600Z AUTO 22002KT 6SM 16/10 A2997 RMK SLP148 T01650104 57018 IEM_DS3505
ZBAA,2000-10-10 07:00,ZBAA 100700Z AUTO 08002KT 2SM 17/13 A2997 RMK T01700130 IEM_DS3505
ZBAA,2000-10-10 08:00,ZBAA 100800Z AUTO 09002KT 1 1/2SM 17/13 A2997 RMK T01700130 IEM_DS3505
ZBAA,2000-10-10 09:00,ZBAA 100900Z AUTO 22004KT 5SM 16/11 A2997 RMK SLP149 T01630108 52001 IEM_DS3505
ZBAA,2000-10-10 10:00,ZBAA 101000Z AUTO 19002KT 1SM 16/13 A3000 RMK T01600130 IEM_DS3505
ZBAA,2000-10-10 11:00,ZBAA 101100Z AUTO 18002KT 1SM 15/13 A3000 RMK T01500130 IEM_DS3505
ZBAA,2000-10-10 12:00,ZBAA 101200Z AUTO 22002KT 6SM 15/12 A3003 RMK SLP168 T01510115 52019 IEM_DS3505
ZBAA,2000-10-10 13:00,ZBAA 101300Z AUTO 33002KT 1SM 14/13 A3006 RMK T01400130 IEM_DS3505
ZBAA,2000-10-10 14:00,ZBAA 101400Z AUTO 33006KT 1 1/4SM 15/13 A3009 RMK T01500130 IEM_DS3505
ZBAA,2000-10-10 15:00,ZBAA 101500Z AUTO 31002KT 6SM 15/12 A3009 RMK SLP187 T01500116 52019 IEM_DS3505
ZBAA,2000-10-10 16:00,ZBAA 101600Z AUTO 31008KT 1 1/2SM 16/13 A3012 RMK T01600130 IEM_DS3505
ZBAA,2000-10-10 17:00,ZBAA 101700Z AUTO 34008KT 2SM 16/11 A3012 RMK T01600110 IEM_DS3505
ZBAA,2000-10-10 18:00,ZBAA 101800Z AUTO 34010KT 19SM 18/M02 A3015 RMK SLP201 T01801023 52014 IEM_DS3505
ZBAA,2000-10-10 19:00,ZBAA 101900Z AUTO 34012KT 6SM 16/03 A3015 RMK T01600030 IEM_DS3505
ZBAA,2000-10-10 20:00,ZBAA 102000Z AUTO 35012KT 6SM 16/03 A3021 RMK T01600030 IEM_DS3505
ZBAA,2000-10-10 21:00,ZBAA 102100Z AUTO 34012KT 19SM 16/M02 A3021 RMK SLP225 T01571022 52024 IEM_DS3505
ZBAA,2000-10-10 22:00,ZBAA 102200Z AUTO 01012G21KT 6SM 13/02 A3027 RMK T01300020 IEM_DS3505
ZBAA,2000-10-10 23:00,ZBAA 102300Z AUTO 01010KT 6SM 12/01 A3030 RMK T01200010 IEM_DS3505
ZBAA,2000-10-11 00:00,ZBAA 110000Z AUTO 03002KT 19SM 12/M01 A3033 RMK SLP268 T01241011 52042 IEM_DS3505
ZBAA,2000-10-11 01:00,ZBAA 110100Z AUTO 01008KT 6SM 12/01 A3036 RMK T01200010 IEM_DS3505
ZBAA,2000-10-11 02:00,ZBAA 110200Z AUTO 36008KT 6SM 12/01 A3039 RMK T01200010 IEM_DS3505
ZBAA,2000-10-11 03:00,ZBAA 110300Z AUTO 02008KT 19SM 12/M08 A3039 RMK SLP283 T01211078 52015 IEM_DS3505
ZBAA,2000-10-11 04:00,ZBAA 110400Z AUTO 30012KT 6SM 14/M04 A3039 RMK T01401040 IEM_DS3505
ZBAA,2000-10-11 05:00,ZBAA 110500Z AUTO 32008KT 6SM 14/M05 A3036 RMK T01401050 IEM_DS3505
ZBAA,2000-10-11 06:00,ZBAA 110600Z AUTO 35006KT 19SM 15/M06 A3036 RMK SLP276 T01511064 57006 IEM_DS3505
ZBAA,2000-10-11 07:00,ZBAA 110700Z AUTO 6SM 14/M04 A3036 RMK T01401040 IEM_DS3505
ZBAA,2000-10-11 08:00,ZBAA 110800Z AUTO 02004KT 6SM 14/M04 A3036 RMK T01401040 IEM_DS3505
ZBAA,2000-10-11 09:00,ZBAA 110900Z AUTO 04002KT 16SM 13/M05 A3036 RMK SLP277 T01341051 52001 IEM_DS3505
ZBAA,2000-10-11 10:00,ZBAA 111000Z AUTO 01002KT 6SM 11/M01 A3039 RMK T01101010 IEM_DS3505
ZBAA,2000-10-11 11:00,ZBAA 111100Z AUTO 35006KT 6SM 10/M05 A3039 RMK T01001050 IEM_DS3505
ZBAA,2000-10-11 12:00,ZBAA 111200Z AUTO 33004KT 9SM 11/M06 A3045 RMK SLP303 T01141059 52025 IEM_DS3505
ZBAA,2000-10-11 13:00,ZBAA 111300Z AUTO 36006KT 6SM 09/M04 A3045 RMK T00901040 IEM_DS3505
ZBAA,2000-10-11 14:00,ZBAA 111400Z AUTO 32014KT 6SM 10/M10 A3047 RMK T01001100 IEM_DS3505
ZBAA,2000-10-11 15:00,ZBAA 111500Z AUTO 33008KT 16SM 11/M15 A3050 RMK SLP321 T01071148 52018 IEM_DS3505
ZBAA,2000-10-11 16:00,ZBAA 111600Z AUTO 12002KT 6SM 05/M03 A3050 RMK T00501030 IEM_DS3505
ZBAA,2000-10-11 17:00,ZBAA 111700Z AUTO 35002KT 6SM 06/M06 A3050 RMK T00601060 IEM_DS3505
ZBAA,2000-10-11 18:00,ZBAA 111800Z AUTO 35004KT 19SM 09/M14 A3050 RMK SLP329 T00921145 52008 IEM_DS3505
ZBAA,2000-10-11 19:00,ZBAA 111900Z AUTO 31012KT 6SM 08/M10 A3050 RMK T00801100 IEM_DS3505
ZBAA,2000-10-11 20:00,ZBAA 112000Z AUTO 31012KT 6SM 07/M10 A3050 RMK T00701100 IEM_DS3505
ZBAA,2000-10-11 21:00,ZBAA 112100Z AUTO 00000KT 19SM 06/M11 A3050 RMK SLP331 T00621109 52002 IEM_DS3505
ZBAA,2000-10-11 22:00,ZBAA 112200Z AUTO 31014KT 6SM 07/M12 A3050 RMK T00701120 IEM_DS3505
ZBAA,2000-10-11 23:00,ZBAA 112300Z AUTO 32012KT 6SM 07/M11 A3050 RMK T00701110 IEM_DS3505
ZBAA,2000-10-12 00:00,ZBAA 120000Z AUTO 32004KT 16SM 09/M12 A3053 RMK SLP334 T00881122 52003 IEM_DS3505
ZBAA,2000-10-12 01:00,ZBAA 120100Z AUTO 33012KT 6SM 10/M12 A3053 RMK T01001120 IEM_DS3505
ZBAA,2000-10-12 02:00,ZBAA 120200Z AUTO 32012KT 6SM 12/M11 A3050 RMK T01201110 IEM_DS3505
ZBAA,2000-10-12 03:00,ZBAA 120300Z AUTO 36008KT 19SM 12/M12 A3047 RMK SLP321 T01191123 57013 IEM_DS3505
ZBAA,2000-10-12 04:00,ZBAA 120400Z AUTO 29010KT 6SM 13/M09 A3045 RMK T01301090 IEM_DS3505
ZBAA,2000-10-12 05:00,ZBAA 120500Z AUTO 30010KT 6SM 14/M08 A3042 RMK T01401080 IEM_DS3505
ZBAA,2000-10-12 06:00,ZBAA 120600Z AUTO 33008KT 19SM 14/M13 A3039 RMK SLP286 T01421128 57035 IEM_DS3505
ZBAA,2000-10-12 07:00,ZBAA 120700Z AUTO 29012G21KT 6SM 14/M10 A3036 RMK T01401100 IEM_DS3505
ZBAA,2000-10-12 08:00,ZBAA 120800Z AUTO 27010KT 6SM 15/M10 A3033 RMK T01501100 IEM_DS3505
ZBAA,2000-10-12 09:00,ZBAA 120900Z AUTO 29008KT 19SM 14/M14 A3033 RMK SLP271 T01431136 57015 IEM_DS3505
ZBAA,2000-10-12 10:00,ZBAA 121000Z AUTO 28008KT 6SM 12/M09 A3033 RMK T01201090 IEM_DS3505
ZBAA,2000-10-12 11:00,ZBAA 121100Z AUTO 32010KT 6SM 12/M09 A3036 RMK T01201090 IEM_DS3505
ZBAA,2000-10-12 12:00,ZBAA 121200Z AUTO 00000KT 19SM 10/M10 A3039 RMK SLP285 T01031104 52014 IEM_DS3505
ZBAA,2000-10-12 13:00,ZBAA 121300Z AUTO 35006KT 6SM 09/M07 A3039 RMK T00901070 IEM_DS3505
ZBAA,2000-10-12 14:00,ZBAA 121400Z AUTO 34006KT 6SM 08/M07 A3039 RMK T00801070 IEM_DS3505
ZBAA,2000-10-12 15:00,ZBAA 121500Z AUTO 00000KT 6SM 08/M08 A3039 RMK SLP290 T00851076 52005 IEM_DS3505
ZBAA,2000-10-12 16:00,ZBAA 121600Z AUTO 33004KT 6SM 08/M08 A3039 RMK T00801080 IEM_DS3505
ZBAA,2000-10-12 17:00,ZBAA 121700Z AUTO 28006KT 6SM 06/M05 A3039 RMK T00601050 IEM_DS3505
ZBAA,2000-10-12 18:00,ZBAA 121800Z AUTO 30004KT 9SM 08/M09 A3039 RMK SLP287 T00801093 57003 IEM_DS3505
ZBAA,2000-10-12 19:00,ZBAA 121900Z AUTO 32017KT 6SM 09/M11 A3036 RMK T00901110 IEM_DS3505
ZBAA,2000-10-12 20:00,ZBAA 122000Z AUTO 33010KT 6SM 07/M10 A3036 RMK T00701100 IEM_DS3505
ZBAA,2000-10-12 21:00,ZBAA 122100Z AUTO 00000KT 12SM 07/M10 A3036 RMK SLP281 T00681099 57006 IEM_DS3505
ZBAA,2000-10-12 22:00,ZBAA 122200Z AUTO 28006KT 6SM 05/M07 A3036 RMK T00501070 IEM_DS3505
ZBAA,2000-10-12 23:00,ZBAA 122300Z AUTO 28008KT 6SM 06/M07 A3039 RMK T00601070 IEM_DS3505
ZBAA,2000-10-13 00:00,ZBAA 130000Z AUTO 14002KT 6SM 09/M06 A3039 RMK SLP285 T00901063 52004 IEM_DS3505
ZBAA,2000-10-13 01:00,ZBAA 130100Z AUTO 30016G25KT 6SM 10/M08 A3039 RMK T01001080 IEM_DS3505
ZBAA,2000-10-13 02:00,ZBAA 130200Z AUTO 30014KT 6SM 12/M10 A3036 RMK T01201100 IEM_DS3505
ZBAA,2000-10-13 03:00,ZBAA 130300Z AUTO 31010G23KT 19SM 13/M14 A3033 RMK SLP269 T01331135 57016 IEM_DS3505
ZBAA,2000-10-13 04:00,ZBAA 130400Z AUTO 28012KT 6SM 14/M10 A3030 RMK T01401100 IEM_DS3505
ZBAA,2000-10-13 05:00,ZBAA 130500Z AUTO 30014KT 6SM 15/M10 A3027 RMK T01501100 IEM_DS3505
ZBAA,2000-10-13 06:00,ZBAA 130600Z AUTO 26008G23KT 19SM 16/M14 A3021 RMK SLP233 T01561136 57036 IEM_DS3505
ZBAA,2000-10-13 07:00,ZBAA 130700Z AUTO 27012KT 6SM 15/M11 A3018 RMK T01501110 IEM_DS3505
ZBAA,2000-10-13 08:00,ZBAA 130800Z AUTO 27012KT 6SM 16/M11 A3018 RMK T01601110 IEM_DS3505
ZBAA,2000-10-13 09:00,ZBAA 130900Z AUTO 23004KT 19SM 15/M10 A3018 RMK SLP224 T01461101 57009 IEM_DS3505
ZBAA,2000-10-13 10:00,ZBAA 131000Z AUTO 24004KT 6SM 13/M09 A3018 RMK T01301090 IEM_DS3505
ZBAA,2000-10-13 11:00,ZBAA 131100Z AUTO 20004KT 6SM 12/M07 A3018 RMK T01201070 IEM_DS3505
ZBAA,2000-10-13 12:00,ZBAA 131200Z AUTO 24004KT 19SM 11/M08 A3021 RMK SLP232 T01071075 52008 IEM_DS3505
ZBAA,2000-10-13 13:00,ZBAA 131300Z AUTO 23006KT 6SM 11/M06 A3021 RMK T01101060 IEM_DS3505
ZBAA,2000-10-13 14:00,ZBAA 131400Z AUTO 28002KT 6SM 09/M05 A3021 RMK T00901050 IEM_DS3505
ZBAA,2000-10-13 15:00,ZBAA 131500Z AUTO 28004KT 19SM 08/M06 A3021 RMK SLP232 T00841057 54000 IEM_DS3505
ZBAA,2000-10-13 16:00,ZBAA 131600Z AUTO 21004KT 6SM 05/M02 A3021 RMK T00501020 IEM_DS3505
ZBAA,2000-10-13 17:00,ZBAA 131700Z AUTO 03004KT 6SM 04/M01 A3021 RMK T00401010 IEM_DS3505
ZBAA,2000-10-13 18:00,ZBAA 131800Z AUTO 20002KT 6SM 05/M03 A3021 RMK SLP232 T00471031 54000 IEM_DS3505
ZBAA,2000-10-13 19:00,ZBAA 131900Z AUTO 36004KT 6SM 05/M01 A3021 RMK T00501010 IEM_DS3505
ZBAA,2000-10-13 20:00,ZBAA 132000Z AUTO 00000KT 6SM 02/M01 A3021 RMK T00201010 IEM_DS3505
ZBAA,2000-10-13 21:00,ZBAA 132100Z AUTO 00000KT 6SM 03/M02 A3021 RMK SLP227 T00331018 57005 IEM_DS3505
ZBAA,2000-10-13 22:00,ZBAA 132200Z AUTO 32002KT 6SM 03/01 A3021 RMK T00300010 IEM_DS3505
ZBAA,2000-10-13 23:00,ZBAA 132300Z AUTO 33002KT 6SM 03/M01 A3021 RMK T00301010 IEM_DS3505
ZBAA,2000-10-14 00:00,ZBAA 140000Z AUTO 00000KT 1 1/2SM 08/00 A3024 RMK SLP233 T00790002 52006 IEM_DS3505
ZBAA,2000-10-14 01:00,ZBAA 140100Z AUTO 6SM 09/00 A3024 RMK T00900000 IEM_DS3505
ZBAA,2000-10-14 02:00,ZBAA 140200Z AUTO 6SM 12/M01 A3021 RMK T01201010 IEM_DS3505
ZBAA,2000-10-14 03:00,ZBAA 140300Z AUTO 16002KT 6SM 16/M03 A3021 RMK SLP228 T01581031 57005 IEM_DS3505
ZBAA,2000-10-14 04:00,ZBAA 140400Z AUTO 23006KT 6SM 18/M08 A3018 RMK T01801080 IEM_DS3505
ZBAA,2000-10-14 05:00,ZBAA 140500Z AUTO 19008KT 6SM 18/M05 A3015 RMK T01801050 IEM_DS3505
ZBAA,2000-10-14 06:00,ZBAA 140600Z AUTO 20008KT 12SM 19/M11 A3012 RMK SLP202 T01921108 57026 IEM_DS3505
ZBAA,2000-10-14 07:00,ZBAA 140700Z AUTO 22008KT 6SM 19/M07 A3012 RMK T01901070 IEM_DS3505
ZBAA,2000-10-14 08:00,ZBAA 140800Z AUTO 19008KT 6SM 19/M07 A3012 RMK T01901070 IEM_DS3505
ZBAA,2000-10-14 09:00,ZBAA 140900Z AUTO 21004G19KT 16SM 18/M08 A3012 RMK SLP202 T01751085 54000 IEM_DS3505
ZBAA,2000-10-14 10:00,ZBAA 141000Z AUTO 22006KT 6SM 16/M05 A3012 RMK T01601050 IEM_DS3505
ZBAA,2000-10-14 11:00,ZBAA 141100Z AUTO 19008KT 6SM 13/M03 A3015 RMK T01301030 IEM_DS3505
ZBAA,2000-10-14 12:00,ZBAA 141200Z AUTO 21002KT 6SM 13/M06 A3018 RMK SLP218 T01301055 52016 IEM_DS3505
ZBAA,2000-10-14 13:00,ZBAA 141300Z AUTO 30004KT 14/M04 A3021 RMK T01401040 IEM_DS3505
ZBAA,2000-10-14 14:00,ZBAA 141400Z AUTO 00000KT 3SM 10/M01 A3021 RMK T01001010 IEM_DS3505
ZBAA,2000-10-14 15:00,ZBAA 141500Z AUTO 29004KT 6SM 11/M04 A3024 RMK SLP240 T01121036 52022 IEM_DS3505
ZBAA,2000-10-14 16:00,ZBAA 141600Z AUTO 7SM RMK IEM_DS3505
ZBAA,2000-10-14 17:00,ZBAA 141700Z AUTO 35006KT 07/00 A3030 RMK T00700000 IEM_DS3505
ZBAA,2000-10-14 18:00,ZBAA 141800Z AUTO 35002KT 12SM 11/M07 A3033 RMK SLP264 T01081069 52025 IEM_DS3505
ZBAA,2000-10-14 19:00,ZBAA 141900Z AUTO 35008KT 6SM 06/00 A3036 RMK T00600000 IEM_DS3505
ZBAA,2000-10-14 20:00,ZBAA 142000Z AUTO 36004KT 6SM 05/M02 A3036 RMK T00501020 IEM_DS3505
ZBAA,2000-10-14 21:00,ZBAA 142100Z AUTO 01004KT 16SM 09/M07 A3039 RMK SLP282 T00941068 52017 IEM_DS3505
ZBAA,2000-10-14 22:00,ZBAA 142200Z AUTO 36002KT 6SM 06/M03 A3042 RMK T00601030 IEM_DS3505
ZBAA,2000-10-14 23:00,ZBAA 142300Z AUTO 02002KT 6SM 06/M03 A3045 RMK T00601030 IEM_DS3505
ZBAA,2000-10-15 00:00,ZBAA 150000Z AUTO 04004KT 6SM 11/M07 A3047 RMK SLP314 T01061066 52032 IEM_DS3505
ZBAA,2000-10-15 01:00,ZBAA 150100Z AUTO 01006KT 6SM 12/M03 A3050 RMK T01201030 IEM_DS3505
ZBAA,2000-10-15 02:00,ZBAA 150200Z AUTO 01008KT 6SM 14/M06 A3050 RMK T01401060 IEM_DS3505
ZBAA,2000-10-15 03:00,ZBAA 150300Z AUTO 06008KT 19SM 15/M08 A3050 RMK SLP331 T01501077 52017 IEM_DS3505
ZBAA,2000-10-15 04:00,ZBAA 150400Z AUTO 6SM 17/M06 A3050 RMK T01701060 IEM_DS3505
ZBAA,2000-10-15 05:00,ZBAA 150500Z AUTO 26006KT 6SM 16/M08 A3047 RMK T01601080 IEM_DS3505
ZBAA,2000-10-15 06:00,ZBAA 150600Z AUTO 15004KT 19SM 17/M09 A3045 RMK SLP306 T01661092 57025 IEM_DS3505
ZBAA,2000-10-15 07:00,ZBAA 150700Z AUTO 16004KT 6SM 17/M08 A3042 RMK T01701080 IEM_DS3505
ZBAA,2000-10-15 08:00,ZBAA 150800Z AUTO 18004KT 6SM 17/M07 A3042 RMK T01701070 IEM_DS3505
ZBAA,2000-10-15 09:00,ZBAA 150900Z AUTO 17004KT 19SM 15/M03 A3042 RMK SLP299 T01541030 57007 IEM_DS3505
ZBAA,2000-10-15 10:00,ZBAA 151000Z AUTO 18008KT 6SM 12/M02 A3042 RMK T01201020 IEM_DS3505
ZBAA,2000-10-15 11:00,ZBAA 151100Z AUTO 17006KT 6SM 11/03 A3045 RMK T01100030 IEM_DS3505
ZBAA,2000-10-15 12:00,ZBAA 151200Z AUTO 15006KT 9SM 12/04 A3047 RMK SLP313 T01150036 52014 IEM_DS3505
ZBAA,2000-10-15 13:00,ZBAA 151300Z AUTO 15004KT 6SM 09/04 A3047 RMK T00900040 IEM_DS3505
ZBAA,2000-10-15 14:00,ZBAA 151400Z AUTO 00000KT 6SM 08/05 A3047 RMK T00800050 IEM_DS3505
ZBAA,2000-10-15 15:00,ZBAA 151500Z AUTO 22002KT 9SM 10/04 A3047 RMK SLP315 T01000044 52002 IEM_DS3505
ZBAA,2000-10-15 16:00,ZBAA 151600Z AUTO 10004KT 6SM 08/05 A3045 RMK T00800050 IEM_DS3505
ZBAA,2000-10-15 17:00,ZBAA 151700Z AUTO 12002KT 6SM 07/05 A3045 RMK T00700050 IEM_DS3505
ZBAA,2000-10-15 18:00,ZBAA 151800Z AUTO 00000KT 6SM 08/04 A3045 RMK SLP304 T00810045 57011 IEM_DS3505
ZBAA,2000-10-15 19:00,ZBAA 151900Z AUTO 13002KT 7SM 07/05 A3042 RMK T00700050 IEM_DS3505
ZBAA,2000-10-15 20:00,ZBAA 152000Z AUTO 13002KT 7SM 07/05 A3039 RMK T00700050 IEM_DS3505
ZBAA,2000-10-15 21:00,ZBAA 152100Z AUTO 07004KT 6SM 07/04 A3039 RMK SLP285 T00730036 57019 IEM_DS3505
ZBAA,2000-10-15 22:00,ZBAA 152200Z AUTO 14004KT 5SM 07/04 A3036 RMK T00700040 IEM_DS3505
ZBAA,2000-10-15 23:00,ZBAA 152300Z AUTO 00000KT 5SM 08/05 A3036 RMK T00800050 IEM_DS3505
ZBAA,2000-10-16 00:00,ZBAA 160000Z AUTO 05002KT 6SM 09/04 A3036 RMK SLP278 T00880039 57007 IEM_DS3505
ZBAA,2000-10-16 01:00,ZBAA 160100Z AUTO 00000KT 4SM 09/05 A3036 RMK T00900050 IEM_DS3505
ZBAA,2000-10-16 02:00,ZBAA 160200Z AUTO 11002KT 4SM 11/07 A3036 RMK T01100070 IEM_DS3505
ZBAA,2000-10-16 03:00,ZBAA 160300Z AUTO 16002KT 6SM 14/06 A3030 RMK SLP259 T01350059 57019 IEM_DS3505
ZBAA,2000-10-16 04:00,ZBAA 160400Z AUTO 16004KT 5SM 15/08 A3027 RMK T01500080 IEM_DS3505
ZBAA,2000-10-16 05:00,ZBAA 160500Z AUTO 18006KT 5SM 16/08 A3021 RMK T01600080 IEM_DS3505
ZBAA,2000-10-16 06:00,ZBAA 160600Z AUTO 21006KT 7SM 17/06 A3018 RMK SLP220 T01680061 57039 IEM_DS3505
ZBAA,2000-10-16 07:00,ZBAA 160700Z AUTO 19004KT 17/08 A3015 RMK T01700080 IEM_DS3505
ZBAA,2000-10-16 08:00,ZBAA 160800Z AUTO 19006KT 17/08 A3012 RMK T01700080 IEM_DS3505
ZBAA,2000-10-16 09:00,ZBAA 160900Z AUTO 21004KT 5SM 17/04 A3009 RMK SLP191 T01730043 57028 IEM_DS3505
ZBAA,2000-10-16 10:00,ZBAA 161000Z AUTO 13002KT 4SM 14/09 A3009 RMK T01400090 IEM_DS3505
ZBAA,2000-10-16 11:00,ZBAA 161100Z AUTO 11002KT 3SM 12/09 A3009 RMK T01200090 IEM_DS3505
ZBAA,2000-10-16 12:00,ZBAA 161200Z AUTO 16004KT 5SM 14/05 A3009 RMK SLP186 T01440047 57006 IEM_DS3505
ZBAA,2000-10-16 13:00,ZBAA 161300Z AUTO 13004KT 2 1/2SM 11/08 A3009 RMK T01100080 IEM_DS3505
ZBAA,2000-10-16 14:00,ZBAA 161400Z AUTO 14002KT 2 1/2SM 11/08 A3006 RMK T01100080 IEM_DS3505
ZBAA,2000-10-16 15:00,ZBAA 161500Z AUTO 24002KT 5SM 12/05 A3006 RMK SLP177 T01250050 57008 IEM_DS3505
ZBAA,2000-10-16 16:00,ZBAA 161600Z AUTO 13002KT 1 1/2SM 09/07 A3006 RMK T00900070 IEM_DS3505
ZBAA,2000-10-16 17:00,ZBAA 161700Z AUTO 28002KT 1 1/2SM 09/07 A3003 RMK T00900070 IEM_DS3505
ZBAA,2000-10-16 18:00,ZBAA 161800Z AUTO 00000KT 3SM 09/05 A3003 RMK SLP168 T00860054 57009 IEM_DS3505
ZBAA,2000-10-16 19:00,ZBAA 161900Z AUTO 00000KT 1SM 07/07 A3003 RMK T00700070 IEM_DS3505
ZBAA,2000-10-16 20:00,ZBAA 162000Z AUTO 00000KT 1SM 07/07 A3003 RMK T00700070 IEM_DS3505
ZBAA,2000-10-16 21:00,ZBAA 162100Z AUTO 00000KT 2 1/2SM 08/06 A3003 RMK SLP162 T00840059 57006 IEM_DS3505
ZBAA,2000-10-16 22:00,ZBAA 162200Z AUTO 36002KT 1SM 06/06 A3003 RMK T00600060 IEM_DS3505
ZBAA,2000-10-16 23:00,ZBAA 162300Z AUTO 00000KT 1SM 06/06 A3003 RMK T00600060 IEM_DS3505
ZBAA,2000-10-17 00:00,ZBAA 170000Z AUTO 04002KT 1 1/4SM 09/07 A3006 RMK SLP176 T00860067 52013 IEM_DS3505
ZBAA,2000-10-17 01:00,ZBAA 170100Z AUTO 1SM 09/09 A3009 RMK T00900090 IEM_DS3505
ZBAA,2000-10-17 02:00,ZBAA 170200Z AUTO 36004KT 1 1/4SM 12/09 A3009 RMK T01200090 IEM_DS3505
ZBAA,2000-10-17 03:00,ZBAA 170300Z AUTO 07006KT 2 1/2SM 15/07 A3009 RMK SLP188 T01480074 52013 IEM_DS3505
ZBAA,2000-10-17 04:00,ZBAA 170400Z AUTO 01008G17KT 19/06 A3009 RMK T01900060 IEM_DS3505
ZBAA,2000-10-17 05:00,ZBAA 170500Z AUTO 04006KT 6SM 21/05 A3009 RMK T02100050 IEM_DS3505
ZBAA,2000-10-17 06:00,ZBAA 170600Z AUTO 04006KT 9SM 22/02 A3009 RMK SLP183 T02180015 57005 IEM_DS3505
ZBAA,2000-10-17 07:00,ZBAA 170700Z AUTO 06006KT 6SM 22/02 A3009 RMK T02200020 IEM_DS3505
ZBAA,2000-10-17 08:00,ZBAA 170800Z AUTO 6SM 21/02 A3012 RMK T02100020 IEM_DS3505
ZBAA,2000-10-17 09:00,ZBAA 170900Z AUTO 10004KT 5SM 18/07 A3015 RMK SLP209 T01750070 52026 IEM_DS3505
ZBAA,2000-10-17 10:00,ZBAA 171000Z AUTO 36002KT 1 1/2SM 15/10 A3018 RMK T01500100 IEM_DS3505
ZBAA,2000-10-17 11:00,ZBAA 171100Z AUTO 12004KT 1 1/4SM 14/10 A3024 RMK T01400100 IEM_DS3505
ZBAA,2000-10-17 12:00,ZBAA 171200Z AUTO 14006KT 12SM 14/06 A3027 RMK SLP253 T01410060 52043 IEM_DS3505
ZBAA,2000-10-17 13:00,ZBAA 171300Z AUTO 14006KT 6SM 14/07 A3030 RMK T01400070 IEM_DS3505
ZBAA,2000-10-17 14:00,ZBAA 171400Z AUTO 16008KT 6SM 12/04 A3033 RMK T01200040 IEM_DS3505
ZBAA,2000-10-17 15:00,ZBAA 171500Z AUTO 11004KT 12SM 12/02 A3036 RMK SLP275 T01190016 52022 IEM_DS3505
ZBAA,2000-10-17 16:00,ZBAA 171600Z AUTO 16008KT 6SM 11/02 A3036 RMK T01100020 IEM_DS3505
ZBAA,2000-10-17 17:00,ZBAA 171700Z AUTO 15006KT 6SM 11/M01 A3036 RMK T01101010 IEM_DS3505
ZBAA,2000-10-17 18:00,ZBAA 171800Z AUTO 09004KT 12SM 10/M05 A3039 RMK SLP284 T01031052 52010 IEM_DS3505
ZBAA,2000-10-17 19:00,ZBAA 171900Z AUTO 15004KT 6SM 09/M03 A3039 RMK T00901030 IEM_DS3505
ZBAA,2000-10-17 20:00,ZBAA 172000Z AUTO 13006KT 6SM 09/M05 A3039 RMK T00901050 IEM_DS3505
ZBAA,2000-10-17 21:00,ZBAA 172100Z AUTO 15008KT 19SM 08/M07 A3039 RMK SLP284 T00851072 57001 IEM_DS3505
ZBAA,2000-10-17 22:00,ZBAA 172200Z AUTO 16008KT 6SM 08/M06 A3039 RMK T00801060 IEM_DS3505
ZBAA,2000-10-17 23:00,ZBAA 172300Z AUTO 14008KT 6SM 08/M08 A3039 RMK T00801080 IEM_DS3505
ZBAA,2000-10-18 00:00,ZBAA 180000Z AUTO 13006KT 19SM 07/M09 A3039 RMK SLP284 T00741090 54000 IEM_DS3505
ZBAA,2000-10-18 01:00,ZBAA 180100Z AUTO 14004KT 7SM 07/M10 A3039 RMK T00701100 IEM_DS3505
ZBAA,2000-10-18 02:00,ZBAA 180200Z AUTO 13002KT 7SM 07/M09 A3039 RMK T00701090 IEM_DS3505
ZBAA,2000-10-18 03:00,ZBAA 180300Z AUTO 13006KT 19SM 08/M09 A3036 RMK SLP273 T00831091 57011 IEM_DS3505
ZBAA,2000-10-18 04:00,ZBAA 180400Z AUTO 09002KT 7SM 08/M08 A3033 RMK T00801080 IEM_DS3505
ZBAA,2000-10-18 05:00,ZBAA 180500Z AUTO 7SM 08/M08 A3027 RMK T00801080 IEM_DS3505
ZBAA,2000-10-18 06:00,ZBAA 180600Z AUTO 10004KT 19SM 09/M04 A3024 RMK SLP232 T00941041 57041 IEM_DS3505
ZBAA,2000-10-18 07:00,ZBAA 180700Z AUTO 10004KT 7SM 09/M05 A3021 RMK T00901050 IEM_DS3505
ZBAA,2000-10-18 08:00,ZBAA 180800Z AUTO 10002KT 7SM 09/M03 A3018 RMK T00901030 IEM_DS3505
ZBAA,2000-10-18 09:00,ZBAA 180900Z AUTO 12002KT 12SM 10/M01 A3015 RMK SLP210 T00961014 57022 IEM_DS3505
ZBAA,2000-10-18 10:00,ZBAA 181000Z AUTO 03002KT 5SM 09/M01 A3015 RMK T00901010 IEM_DS3505
ZBAA,2000-10-18 11:00,ZBAA 181100Z AUTO 01002KT 09/00 A3015 RMK T00900000 IEM_DS3505
ZBAA,2000-10-18 12:00,ZBAA 181200Z AUTO 13004KT 6SM 09/M02 A3015 RMK SLP203 T00921015 57007 IEM_DS3505
ZBAA,2000-10-18 13:00,ZBAA 181300Z AUTO 01002KT 08/M02 A3015 RMK T00801020 IEM_DS3505
ZBAA,2000-10-18 14:00,ZBAA 181400Z AUTO 02002KT 08/00 A3015 RMK T00800000 IEM_DS3505
ZBAA,2000-10-18 15:00,ZBAA 181500Z AUTO 14002KT 6SM 09/M01 A3012 RMK SLP198 T00911010 57005 IEM_DS3505
ZBAA,2000-10-18 16:00,ZBAA 181600Z AUTO 28002KT 09/01 A3012 RMK T00900010 IEM_DS3505
ZBAA,2000-10-18 17:00,ZBAA 181700Z AUTO 30004KT 5SM 08/01 A3009 RMK T00800010 IEM_DS3505
ZBAA,2000-10-18 18:00,ZBAA 181800Z AUTO 08002KT 7SM 09/M01 A3006 RMK 60003 SLP181 T00871008 57017 IEM_DS3505
ZBAA,2000-10-18 19:00,ZBAA 181900Z AUTO 31006KT 4SM 06/04 A3006 RMK T00600040 IEM_DS3505
ZBAA,2000-10-18 20:00,ZBAA 182000Z AUTO 28002KT 2 1/2SM 06/05 A3003 RMK T00600050 IEM_DS3505
ZBAA,2000-10-18 21:00,ZBAA 182100Z AUTO 00000KT 6SM 07/03 A3003 RMK 70001 SLP167 T00670033 57014 IEM_DS3505
ZBAA,2000-10-18 22:00,ZBAA 182200Z AUTO 28004KT 2 1/2SM 06/06 A3003 RMK T00600060 IEM_DS3505
ZBAA,2000-10-18 23:00,ZBAA 182300Z AUTO 30004KT 3SM 07/06 A3003 RMK T00700060 IEM_DS3505
ZBAA,2000-10-19 00:00,ZBAA 190000Z AUTO 30002KT 5SM 08/04 A3003 RMK 60002 SLP170 T00790043 52003 IEM_DS3505
ZBAA,2000-10-19 01:00,ZBAA 190100Z AUTO 29004KT 4SM 08/06 A3006 RMK T00800060 IEM_DS3505
ZBAA,2000-10-19 02:00,ZBAA 190200Z AUTO 30002KT 4SM 09/07 A3003 RMK T00900070 IEM_DS3505
ZBAA,2000-10-19 03:00,ZBAA 190300Z AUTO 04002KT 5SM 10/05 A3003 RMK SLP170 T01050047 54000 IEM_DS3505
ZBAA,2000-10-19 04:00,ZBAA 190400Z AUTO 5SM 11/07 A3003 RMK T01100070 IEM_DS3505
ZBAA,2000-10-19 05:00,ZBAA 190500Z AUTO 4SM 13/09 A3000 RMK T01300090 IEM_DS3505
ZBAA,2000-10-19 06:00,ZBAA 190600Z AUTO 06002KT 6SM 14/05 A2997 RMK SLP147 T01380052 57022 IEM_DS3505
ZBAA,2000-10-19 07:00,ZBAA 190700Z AUTO 15/09 A2997 RMK T01500090 IEM_DS3505
ZBAA,2000-10-19 08:00,ZBAA 190800Z AUTO 20002KT 4SM 14/09 A2997 RMK T01400090 IEM_DS3505
ZBAA,2000-10-19 09:00,ZBAA 190900Z AUTO 21002KT 4SM 14/05 A2997 RMK SLP152 T01400054 52004 IEM_DS3505
ZBAA,2000-10-19 10:00,ZBAA 191000Z AUTO 00000KT 2SM 12/09 A3000 RMK T01200090 IEM_DS3505
ZBAA,2000-10-19 11:00,ZBAA 191100Z AUTO 00000KT 1 1/2SM 11/09 A3003 RMK T01100090 IEM_DS3505
ZBAA,2000-10-19 12:00,ZBAA 191200Z AUTO 00000KT 3SM 10/06 A3003 RMK SLP170 T00990055 52018 IEM_DS3505
ZBAA,2000-10-19 13:00,ZBAA 191300Z AUTO 32004KT 1 1/2SM 09/08 A3006 RMK T00900080 IEM_DS3505
ZBAA,2000-10-19 14:00,ZBAA 191400Z AUTO 32006KT 1 1/2SM 10/09 A3009 RMK T01000090 IEM_DS3505
ZBAA,2000-10-19 15:00,ZBAA 191500Z AUTO 28002KT 2 1/2SM 10/06 A3012 RMK SLP195 T00950062 52025 IEM_DS3505
ZBAA,2000-10-19 16:00,ZBAA 191600Z AUTO 01004KT 3SM 08/06 A3012 RMK T00800060 IEM_DS3505
ZBAA,2000-10-19 17:00,ZBAA 191700Z AUTO 01004KT 6SM 07/01 A3015 RMK T00700010 IEM_DS3505
ZBAA,2000-10-19 18:00,ZBAA 191800Z AUTO 04004KT 7SM 09/M02 A3015 RMK SLP207 T00921024 52012 IEM_DS3505
ZBAA,2000-10-19 19:00,ZBAA 191900Z AUTO 36004KT 6SM 05/M02 A3015 RMK T00501020 IEM_DS3505
ZBAA,2000-10-19 20:00,ZBAA 192000Z AUTO 34006KT 6SM 04/M01 A3015 RMK T00401010 IEM_DS3505
ZBAA,2000-10-19 21:00,ZBAA 192100Z AUTO 02002KT 9SM 06/M05 A3015 RMK 70001 SLP206 T00621051 57001 IEM_DS3505
ZBAA,2000-10-19 22:00,ZBAA 192200Z AUTO 33004KT 6SM 04/M03 A3015 RMK T00401030 IEM_DS3505
ZBAA,2000-10-19 23:00,ZBAA 192300Z AUTO 28006KT 6SM 04/M01 A3021 RMK T00401010 IEM_DS3505
ZBAA,2000-10-20 00:00,ZBAA 200000Z AUTO 08002KT 6SM 09/M04 A3024 RMK SLP231 T00891039 52025 IEM_DS3505
ZBAA,2000-10-20 01:00,ZBAA 200100Z AUTO 01004KT 6SM 08/M01 A3024 RMK T00801010 IEM_DS3505
ZBAA,2000-10-20 02:00,ZBAA 200200Z AUTO 32002KT 6SM 11/M04 A3024 RMK T01101040 IEM_DS3505
ZBAA,2000-10-20 03:00,ZBAA 200300Z AUTO 15002KT 12SM 14/M07 A3024 RMK SLP235 T01371070 52004 IEM_DS3505
ZBAA,2000-10-20 04:00,ZBAA 200400Z AUTO 16008KT 6SM 14/M04 A3021 RMK T01401040 IEM_DS3505
ZBAA,2000-10-20 05:00,ZBAA 200500Z AUTO 16008G17KT 6SM 16/M07 A3015 RMK T01601070 IEM_DS3505
ZBAA,2000-10-20 06:00,ZBAA 200600Z AUTO 21008KT 16SM 16/M10 A3012 RMK SLP205 T01611096 57029 IEM_DS3505
ZBAA,2000-10-20 07:00,ZBAA 200700Z AUTO 18010KT 6SM 16/M06 A3012 RMK T01601060 IEM_DS3505
ZBAA,2000-10-20 08:00,ZBAA 200800Z AUTO 18008KT 6SM 16/M05 A3012 RMK T01601050 IEM_DS3505
ZBAA,2000-10-20 09:00,ZBAA 200900Z AUTO 17002KT 9SM 15/M05 A3009 RMK SLP189 T01541050 57017 IEM_DS3505
ZBAA,2000-10-20 10:00,ZBAA 201000Z AUTO 12002KT 6SM 13/M01 A3012 RMK T01301010 IEM_DS3505
ZBAA,2000-10-20 11:00,ZBAA 201100Z AUTO 14002KT 6SM 11/01 A3012 RMK T01100010 IEM_DS3505
ZBAA,2000-10-20 12:00,ZBAA 201200Z AUTO 00000KT 6SM 13/M01 A3015 RMK SLP207 T01311012 52018 IEM_DS3505
ZBAA,2000-10-20 13:00,ZBAA 201300Z AUTO 12002KT 10/01 A3018 RMK T01000010 IEM_DS3505
ZBAA,2000-10-20 15:00,ZBAA 201500Z AUTO 11002KT 6SM 10/M00 A3018 RMK SLP213 T01031005 52006 IEM_DS3505
ZBAA,2000-10-20 16:00,ZBAA 201600Z AUTO 02004KT 3SM 08/04 A3018 RMK T00800040 IEM_DS3505
ZBAA,2000-10-20 17:00,ZBAA 201700Z AUTO 36004KT 3SM 06/04 A3021 RMK T00600040 IEM_DS3505
ZBAA,2000-10-20 18:00,ZBAA 201800Z AUTO 03002KT 9SM 08/03 A3021 RMK SLP224 T00850027 52011 IEM_DS3505
ZBAA,2000-10-20 19:00,ZBAA 201900Z AUTO 36006KT 4SM 05/02 A3021 RMK T00500020 IEM_DS3505
ZBAA,2000-10-20 20:00,ZBAA 202000Z AUTO 34004KT 4SM 06/02 A3021 RMK T00600020 IEM_DS3505
ZBAA,2000-10-20 21:00,ZBAA 202100Z AUTO 34002KT 12SM 08/M01 A3021 RMK SLP232 T00831009 52008 IEM_DS3505
ZBAA,2000-10-20 22:00,ZBAA 202200Z AUTO 34004KT 5SM 05/01 A3024 RMK T00500010 IEM_DS3505
ZBAA,2000-10-20 23:00,ZBAA 202300Z AUTO 01004KT 6SM 06/M01 A3024 RMK T00601010 IEM_DS3505
ZBAA,2000-10-21 00:00,ZBAA 210000Z AUTO 03004KT 7SM 11/M06 A3027 RMK SLP249 T01061058 52017 IEM_DS3505
ZBAA,2000-10-21 01:00,ZBAA 210100Z AUTO 03004KT 6SM 12/M05 A3030 RMK T01201050 IEM_DS3505
ZBAA,2000-10-21 02:00,ZBAA 210200Z AUTO 03008KT 6SM 14/M09 A3030 RMK T01401090 IEM_DS3505
ZBAA,2000-10-21 03:00,ZBAA 210300Z AUTO 05006KT 14SM 16/M10 A3030 RMK SLP254 T01601097 52005 IEM_DS3505
ZBAA,2000-10-21 04:00,ZBAA 210400Z AUTO 02006KT 6SM 17/M08 A3027 RMK T01701080 IEM_DS3505
ZBAA,2000-10-21 05:00,ZBAA 210500Z AUTO 01004KT 6SM 17/M12 A3024 RMK T01701120 IEM_DS3505
ZBAA,2000-10-21 06:00,ZBAA 210600Z AUTO 15004KT 16SM 18/M05 A3021 RMK SLP231 T01801052 57022 IEM_DS3505
ZBAA,2000-10-21 07:00,ZBAA 210700Z AUTO 6SM 18/M09 A3021 RMK T01801090 IEM_DS3505
ZBAA,2000-10-21 08:00,ZBAA 210800Z AUTO 13004KT 6SM 18/M01 A3021 RMK T01801010 IEM_DS3505
ZBAA,2000-10-21 09:00,ZBAA 210900Z AUTO 00000KT 12SM 16/M03 A3021 RMK SLP223 T01581026 57009 IEM_DS3505
ZBAA,2000-10-21 10:00,ZBAA 211000Z AUTO 00000KT 6SM 13/M01 A3021 RMK T01301010 IEM_DS3505
ZBAA,2000-10-21 11:00,ZBAA 211100Z AUTO 00000KT 6SM 12/01 A3021 RMK T01200010 IEM_DS3505
ZBAA,2000-10-21 12:00,ZBAA 211200Z AUTO 14006KT 9SM 13/06 A3024 RMK SLP233 T01330062 52010 IEM_DS3505
ZBAA,2000-10-21 13:00,ZBAA 211300Z AUTO 13002KT 5SM 11/06 A3024 RMK T01100060 IEM_DS3505
ZBAA,2000-10-21 14:00,ZBAA 211400Z AUTO 13002KT 5SM 11/07 A3027 RMK T01100070 IEM_DS3505
ZBAA,2000-10-21 15:00,ZBAA 211500Z AUTO 00000KT 12SM 12/04 A3027 RMK SLP243 T01230043 52010 IEM_DS3505
ZBAA,2000-10-21 16:00,ZBAA 211600Z AUTO 00000KT 7SM 10/06 A3024 RMK T01000060 IEM_DS3505
ZBAA,2000-10-21 17:00,ZBAA 211700Z AUTO 20002KT 7SM 11/06 A3024 RMK T01100060 IEM_DS3505
ZBAA,2000-10-21 18:00,ZBAA 211800Z AUTO 02002KT 9SM 12/03 A3021 RMK SLP230 T01210026 57012 IEM_DS3505
ZBAA,2000-10-21 19:00,ZBAA 211900Z AUTO 30002KT 7SM 11/07 A3021 RMK T01100070 IEM_DS3505
ZBAA,2000-10-21 20:00,ZBAA 212000Z AUTO 36002KT 7SM 11/06 A3018 RMK T01100060 IEM_DS3505
ZBAA,2000-10-21 21:00,ZBAA 212100Z AUTO 32004KT 7SM 11/06 A3018 RMK T01100060 IEM_DS3505
ZBAA,2000-10-21 22:00,ZBAA 212200Z AUTO 34002KT 7SM 11/07 A3018 RMK T01100070 IEM_DS3505
ZBAA,2000-10-21 23:00,ZBAA 212300Z AUTO 33002KT 5SM 11/06 A3018 RMK T01100060 IEM_DS3505
ZBAA,2000-10-22 00:00,ZBAA 220000Z AUTO 02002KT 6SM 12/04 A3018 RMK SLP214 T01220035 57001 IEM_DS3505
ZBAA,2000-10-22 01:00,ZBAA 220100Z AUTO 01004KT 3SM 12/09 A3018 RMK T01200090 IEM_DS3505
ZBAA,2000-10-22 02:00,ZBAA 220200Z AUTO 35004KT 3SM 12/09 A3015 RMK T01200090 IEM_DS3505
ZBAA,2000-10-22 03:00,ZBAA 220300Z AUTO 06006KT 4SM 11/08 A3012 RMK SLP196 T01080077 57019 IEM_DS3505
ZBAA,2000-10-22 04:00,ZBAA 220400Z AUTO 31006KT 1 1/2SM 11/10 A3009 RMK T01100100 IEM_DS3505
ZBAA,2000-10-22 05:00,ZBAA 220500Z AUTO 34006KT 1 1/2SM 10/10 A3009 RMK T01000100 IEM_DS3505
ZBAA,2000-10-22 06:00,ZBAA 220600Z AUTO 34002KT 2 1/2SM 10/08 A3006 RMK 60091 SLP179 T01010084 57017 IEM_DS3505
ZBAA,2000-10-22 07:00,ZBAA 220700Z AUTO 31004KT 1 1/4SM 10/10 A3006 RMK T01000100 IEM_DS3505
ZBAA,2000-10-22 08:00,ZBAA 220800Z AUTO 02002KT 1 1/4SM 10/10 A3003 RMK T01000100 IEM_DS3505
ZBAA,2000-10-22 09:00,ZBAA 220900Z AUTO 04004KT 2 1/2SM 10/09 A3003 RMK SLP160 T01040087 57018 IEM_DS3505
ZBAA,2000-10-22 10:00,ZBAA 221000Z AUTO 35004KT 1SM 11/11 A3003 RMK T01100110 IEM_DS3505
ZBAA,2000-10-22 11:00,ZBAA 221100Z AUTO 36004KT 1SM 11/11 A3003 RMK T01100110 IEM_DS3505
ZBAA,2000-10-22 12:00,ZBAA 221200Z AUTO 04002KT 2 1/2SM 11/09 A3003 RMK 60020 SLP164 T01080092 52004 IEM_DS3505
ZBAA,2000-10-22 13:00,ZBAA 221300Z AUTO 36004KT 1SM 11/11 A3003 RMK T01100110 IEM_DS3505
ZBAA,2000-10-22 14:00,ZBAA 221400Z AUTO 35002KT 1SM 11/11 A3003 RMK T01100110 IEM_DS3505
ZBAA,2000-10-22 15:00,ZBAA 221500Z AUTO 33002KT 2SM 11/10 A3003 RMK SLP166 T01110097 52001 IEM_DS3505
ZBAA,2000-10-22 16:00,ZBAA 221600Z AUTO 01002KT 1SM 11/11 A3003 RMK T01100110 IEM_DS3505
ZBAA,2000-10-22 17:00,ZBAA 221700Z AUTO 00000KT 1SM 11/11 A3003 RMK T01100110 IEM_DS3505
ZBAA,2000-10-22 18:00,ZBAA 221800Z AUTO 06002KT 2SM 11/10 A3000 RMK 60008 SLP161 T01130099 57005 IEM_DS3505
ZBAA,2000-10-22 19:00,ZBAA 221900Z AUTO 35002KT 1/4SM 11/11 A3000 RMK T01100110 IEM_DS3505
ZBAA,2000-10-22 20:00,ZBAA 222000Z AUTO 32004KT 1/8SM 11/11 A3000 RMK T01100110 IEM_DS3505
ZBAA,2000-10-22 21:00,ZBAA 222100Z AUTO 32002KT 1 1/4SM 11/10 A3000 RMK 70119 SLP160 T01140100 57001 IEM_DS3505
ZBAA,2000-10-22 22:00,ZBAA 222200Z AUTO 00000KT 3/8SM 12/12 A3000 RMK T01200120 IEM_DS3505
ZBAA,2000-10-22 23:00,ZBAA 222300Z AUTO 24002KT 1/2SM 11/11 A3003 RMK T01100110 IEM_DS3505
ZBAA,2000-10-23 00:00,ZBAA 230000Z AUTO 00000KT 1 1/4SM 11/10 A3006 RMK 70119 SLP180 T01140102 52020 IEM_DS3505
ZBAA,2000-10-23 01:00,ZBAA 230100Z AUTO 00000KT 1 1/2SM 12/12 A3009 RMK T01200120 IEM_DS3505
ZBAA,2000-10-23 02:00,ZBAA 230200Z AUTO 22004KT 2 1/2SM 12/12 A3009 RMK T01200120 IEM_DS3505
ZBAA,2000-10-23 03:00,ZBAA 230300Z AUTO 09004KT 3SM 13/12 A3009 RMK SLP180 T01320118 52001 IEM_DS3505
ZBAA,2000-10-23 04:00,ZBAA 230400Z AUTO 00000KT 5SM 14/12 A3006 RMK T01400120 IEM_DS3505
ZBAA,2000-10-23 05:00,ZBAA 230500Z AUTO 16004KT 7SM 15/11 A3003 RMK T01500110 IEM_DS3505
ZBAA,2000-10-23 06:00,ZBAA 230600Z AUTO 05002KT 4SM 15/10 A3000 RMK SLP156 T01500098 57024 IEM_DS3505
ZBAA,2000-10-23 07:00,ZBAA 230700Z AUTO 14004KT 7SM 15/12 A3000 RMK T01500120 IEM_DS3505
ZBAA,2000-10-23 08:00,ZBAA 230800Z AUTO 15004KT 7SM 14/12 A3000 RMK T01400120 IEM_DS3505
ZBAA,2000-10-23 09:00,ZBAA 230900Z AUTO 14006KT 6SM 14/10 A3000 RMK SLP159 T01380102 52003 IEM_DS3505
ZBAA,2000-10-23 10:00,ZBAA 231000Z AUTO 14002KT 4SM 14/12 A3003 RMK T01400120 IEM_DS3505
ZBAA,2000-10-23 11:00,ZBAA 231100Z AUTO 13004KT 4SM 14/12 A3003 RMK T01400120 IEM_DS3505
ZBAA,2000-10-23 12:00,ZBAA 231200Z AUTO 00000KT 5SM 13/10 A3006 RMK 60003 SLP178 T01330103 52019 IEM_DS3505
ZBAA,2000-10-23 13:00,ZBAA 231300Z AUTO 22002KT 3SM 13/12 A3006 RMK T01300120 IEM_DS3505
ZBAA,2000-10-23 14:00,ZBAA 231400Z AUTO 00000KT 2 1/2SM 13/12 A3006 RMK T01300120 IEM_DS3505
ZBAA,2000-10-23 15:00,ZBAA 231500Z AUTO 00000KT 3SM 13/10 A3003 RMK SLP171 T01270104 57007 IEM_DS3505
ZBAA,2000-10-23 16:00,ZBAA 231600Z AUTO 00000KT 2SM 13/12 A3003 RMK T01300120 IEM_DS3505
ZBAA,2000-10-23 17:00,ZBAA 231700Z AUTO 23002KT 1 1/2SM 12/12 A3003 RMK T01200120 IEM_DS3505
ZBAA,2000-10-23 18:00,ZBAA 231800Z AUTO 00000KT 3SM 13/10 A3003 RMK 60003 SLP169 T01260105 57002 IEM_DS3505
ZBAA,2000-10-23 19:00,ZBAA 231900Z AUTO 34002KT 1 1/4SM 13/12 A3003 RMK T01300120 IEM_DS3505
ZBAA,2000-10-23 20:00,ZBAA 232000Z AUTO 33004KT 1 1/4SM 13/12 A3003 RMK T01300120 IEM_DS3505
ZBAA,2000-10-23 21:00,ZBAA 232100Z AUTO 21002KT 2SM 12/10 A3003 RMK 70003 SLP167 T01180099 57002 IEM_DS3505
ZBAA,2000-10-23 22:00,ZBAA 232200Z AUTO 29008KT 6SM 13/10 A3006 RMK T01300100 IEM_DS3505
ZBAA,2000-10-23 23:00,ZBAA 232300Z AUTO 29010KT 6SM 13/07 A3006 RMK T01300070 IEM_DS3505
ZBAA,2000-10-24 00:00,ZBAA 240000Z AUTO 33006KT 10SM 14/04 A3012 RMK 70003 SLP201 T01410041 52034 IEM_DS3505
ZBAA,2000-10-24 01:00,ZBAA 240100Z AUTO 32021KT 6SM 16/02 A3015 RMK T01600020 IEM_DS3505
ZBAA,2000-10-24 02:00,ZBAA 240200Z AUTO 32021G31KT 6SM 17/00 A3018 RMK T01700000 IEM_DS3505
ZBAA,2000-10-24 03:00,ZBAA 240300Z AUTO 33008G35KT 12SM 15/M03 A3018 RMK SLP217 T01531026 52016 IEM_DS3505
ZBAA,2000-10-24 04:00,ZBAA 240400Z AUTO 32023G33KT 6SM 16/M11 A3018 RMK T01601110 IEM_DS3505
ZBAA,2000-10-24 05:00,ZBAA 240500Z AUTO 32019G29KT 6SM 15/M10 A3018 RMK T01501100 IEM_DS3505
ZBAA,2000-10-24 06:00,ZBAA 240600Z AUTO 33012G27KT 12SM 14/M11 A3021 RMK SLP229 T01421112 52012 IEM_DS3505
ZBAA,2000-10-24 07:00,ZBAA 240700Z AUTO 32021KT 6SM 13/M10 A3024 RMK T01301100 IEM_DS3505
ZBAA,2000-10-24 08:00,ZBAA 240800Z AUTO 32025G35KT 6SM 13/M12 A3024 RMK T01301120 IEM_DS3505
ZBAA,2000-10-24 09:00,ZBAA 240900Z AUTO 31016G27KT 16SM 12/M12 A3027 RMK SLP249 T01161118 52019 IEM_DS3505
ZBAA,2000-10-24 10:00,ZBAA 241000Z AUTO 32016KT 6SM 11/M14 A3030 RMK T01101140 IEM_DS3505
ZBAA,2000-10-24 11:00,ZBAA 241100Z AUTO 32016KT 6SM 10/M14 A3036 RMK T01001140 IEM_DS3505
ZBAA,2000-10-24 12:00,ZBAA 241200Z AUTO 33006G27KT 19SM 09/M13 A3036 RMK SLP283 T00931130 52034 IEM_DS3505
ZBAA,2000-10-24 13:00,ZBAA 241300Z AUTO 32017G27KT 6SM 08/M15 A3039 RMK T00801150 IEM_DS3505
ZBAA,2000-10-24 14:00,ZBAA 241400Z AUTO 32017KT 6SM 08/M15 A3042 RMK T00801150 IEM_DS3505
ZBAA,2000-10-24 15:00,ZBAA 241500Z AUTO 01004KT 19SM 07/M14 A3042 RMK SLP295 T00711137 52011 IEM_DS3505
ZBAA,2000-10-24 16:00,ZBAA 241600Z AUTO 32010KT 6SM 06/M14 A3042 RMK T00601140 IEM_DS3505
ZBAA,2000-10-24 17:00,ZBAA 241700Z AUTO 32010KT 6SM 05/M13 A3042 RMK T00501130 IEM_DS3505
ZBAA,2000-10-24 18:00,ZBAA 241800Z AUTO 01008KT 19SM 06/M15 A3042 RMK SLP293 T00591147 57001 IEM_DS3505
ZBAA,2000-10-24 19:00,ZBAA 241900Z AUTO 34006KT 6SM 00/M08 A3042 RMK T00001080 IEM_DS3505
ZBAA,2000-10-24 20:00,ZBAA 242000Z AUTO 36004KT 6SM 02/M08 A3042 RMK T00201080 IEM_DS3505
ZBAA,2000-10-24 21:00,ZBAA 242100Z AUTO 06006KT 19SM 03/M11 A3042 RMK SLP290 T00331106 57004 IEM_DS3505
ZBAA,2000-10-24 22:00,ZBAA 242200Z AUTO 35004KT 6SM 01/M08 A3042 RMK T00101080 IEM_DS3505
ZBAA,2000-10-24 23:00,ZBAA 242300Z AUTO 35006KT 6SM 00/M07 A3042 RMK T00001070 IEM_DS3505
ZBAA,2000-10-25 00:00,ZBAA 250000Z AUTO 01004KT 9SM 05/M11 A3042 RMK SLP300 T00481112 52010 IEM_DS3505
ZBAA,2000-10-25 01:00,ZBAA 250100Z AUTO 01004KT 6SM 06/M07 A3045 RMK T00601070 IEM_DS3505
ZBAA,2000-10-25 02:00,ZBAA 250200Z AUTO 02004KT 6SM 08/M09 A3045 RMK T00801090 IEM_DS3505
ZBAA,2000-10-25 03:00,ZBAA 250300Z AUTO 36004KT 19SM 09/M12 A3042 RMK SLP296 T00941123 57003 IEM_DS3505
ZBAA,2000-10-25 04:00,ZBAA 250400Z AUTO 35004KT 6SM 10/M11 A3039 RMK T01001110 IEM_DS3505
ZBAA,2000-10-25 05:00,ZBAA 250500Z AUTO 6SM 11/M11 A3036 RMK T01101110 IEM_DS3505
ZBAA,2000-10-25 06:00,ZBAA 250600Z AUTO 23004KT 16SM 12/M11 A3033 RMK SLP270 T01161111 57026 IEM_DS3505
ZBAA,2000-10-25 07:00,ZBAA 250700Z AUTO 19004KT 6SM 12/M10 A3030 RMK T01201100 IEM_DS3505
ZBAA,2000-10-25 08:00,ZBAA 250800Z AUTO 14006KT 6SM 12/M08 A3030 RMK T01201080 IEM_DS3505
ZBAA,2000-10-25 09:00,ZBAA 250900Z AUTO 23004G16KT 12SM 10/M07 A3030 RMK SLP268 T01011071 57003 IEM_DS3505
ZBAA,2000-10-25 10:00,ZBAA 251000Z AUTO 21006KT 6SM 09/M05 A3033 RMK T00901050 IEM_DS3505
ZBAA,2000-10-25 11:00,ZBAA 251100Z AUTO 20004KT 6SM 07/M04 A3036 RMK T00701040 IEM_DS3505
ZBAA,2000-10-25 12:00,ZBAA 251200Z AUTO 22004KT 9SM 07/M04 A3036 RMK SLP283 T00681040 52015 IEM_DS3505
ZBAA,2000-10-25 13:00,ZBAA 251300Z AUTO 07002KT 6SM 05/00 A3039 RMK T00500000 IEM_DS3505
ZBAA,2000-10-25 14:00,ZBAA 251400Z AUTO 00000KT 4SM 03/00 A3039 RMK T00300000 IEM_DS3505
ZBAA,2000-10-25 15:00,ZBAA 251500Z AUTO 00000KT 7SM 04/M03 A3042 RMK SLP294 T00431027 52011 IEM_DS3505
ZBAA,2000-10-25 16:00,ZBAA 251600Z AUTO 34002KT 4SM 03/01 A3042 RMK T00300010 IEM_DS3505
ZBAA,2000-10-25 17:00,ZBAA 251700Z AUTO 32002KT 3SM 02/00 A3042 RMK T00200000 IEM_DS3505
ZBAA,2000-10-25 18:00,ZBAA 251800Z AUTO 03002KT 3SM 02/M02 A3042 RMK SLP299 T00211020 52005 IEM_DS3505
ZBAA,2000-10-25 19:00,ZBAA 251900Z AUTO 34004KT 5SM 02/M01 A3042 RMK T00201010 IEM_DS3505
ZBAA,2000-10-25 20:00,ZBAA 252000Z AUTO 34004KT 6SM 01/M02 A3042 RMK T00101020 IEM_DS3505
ZBAA,2000-10-25 21:00,ZBAA 252100Z AUTO 03002KT 4SM 03/M02 A3045 RMK SLP303 T00271022 52004 IEM_DS3505
ZBAA,2000-10-25 22:00,ZBAA 252200Z AUTO 35006KT 6SM 00/M02 A3045 RMK T00001020 IEM_DS3505
ZBAA,2000-10-25 23:00,ZBAA 252300Z AUTO 31004KT 6SM 01/M02 A3045 RMK T00101020 IEM_DS3505
ZBAA,2000-10-26 00:00,ZBAA 260000Z AUTO 12002KT 7SM 04/M02 A3047 RMK SLP320 T00441024 52017 IEM_DS3505
ZBAA,2000-10-26 01:00,ZBAA 260100Z AUTO 36002KT 6SM 06/M01 A3050 RMK T00601010 IEM_DS3505
ZBAA,2000-10-26 02:00,ZBAA 260200Z AUTO 12002KT 6SM 09/M02 A3047 RMK T00901020 IEM_DS3505
ZBAA,2000-10-26 03:00,ZBAA 260300Z AUTO 09004KT 6SM 10/M01 A3047 RMK SLP317 T01041007 57002 IEM_DS3505
ZBAA,2000-10-26 04:00,ZBAA 260400Z AUTO 13008KT 6SM 11/M04 A3045 RMK T01101040 IEM_DS3505
ZBAA,2000-10-26 05:00,ZBAA 260500Z AUTO 15008KT 6SM 13/M05 A3045 RMK T01301050 IEM_DS3505
ZBAA,2000-10-26 06:00,ZBAA 260600Z AUTO 18004KT 7SM 14/M04 A3042 RMK SLP294 T01351041 57023 IEM_DS3505
ZBAA,2000-10-26 07:00,ZBAA 260700Z AUTO 14008KT 6SM 14/M04 A3039 RMK T01401040 IEM_DS3505
ZBAA,2000-10-26 09:00,ZBAA 260900Z AUTO 20004KT 6SM 12/M06 A3039 RMK SLP289 T01251064 57005 IEM_DS3505
ZBAA,2000-10-26 10:00,ZBAA 261000Z AUTO 14002KT 10/M02 A3039 RMK T01001020 IEM_DS3505
ZBAA,2000-10-26 11:00,ZBAA 261100Z AUTO 14004KT 09/02 A3042 RMK T00900020 IEM_DS3505
ZBAA,2000-10-26 12:00,ZBAA 261200Z AUTO 13006KT 6SM 08/01 A3042 RMK SLP297 T00810013 52007 IEM_DS3505
ZBAA,2000-10-26 13:00,ZBAA 261300Z AUTO 14004KT 6SM 07/04 A3042 RMK T00700040 IEM_DS3505
ZBAA,2000-10-26 14:00,ZBAA 261400Z AUTO 13004KT 6SM 06/04 A3042 RMK T00600040 IEM_DS3505
ZBAA,2000-10-26 15:00,ZBAA 261500Z AUTO 06002KT 6SM 05/02 A3042 RMK SLP300 T00540015 52003 IEM_DS3505
ZBAA,2000-10-26 16:00,ZBAA 261600Z AUTO 11002KT 6SM 05/03 A3042 RMK T00500030 IEM_DS3505
ZBAA,2000-10-26 17:00,ZBAA 261700Z AUTO 10002KT 6SM 04/02 A3042 RMK T00400020 IEM_DS3505
ZBAA,2000-10-26 18:00,ZBAA 261800Z AUTO 03004KT 6SM 04/01 A3045 RMK SLP301 T00420007 52002 IEM_DS3505
ZBAA,2000-10-26 19:00,ZBAA 261900Z AUTO 00000KT 5SM 03/02 A3042 RMK T00300020 IEM_DS3505
ZBAA,2000-10-26 20:00,ZBAA 262000Z AUTO 35002KT 2 1/2SM 03/02 A3042 RMK T00300020 IEM_DS3505
ZBAA,2000-10-26 21:00,ZBAA 262100Z AUTO 07002KT 2 1/2SM 02/00 A3042 RMK SLP294 T00250004 57008 IEM_DS3505
ZBAA,2000-10-26 22:00,ZBAA 262200Z AUTO 34002KT 2SM 02/02 A3042 RMK T00200020 IEM_DS3505
ZBAA,2000-10-26 23:00,ZBAA 262300Z AUTO 35002KT 1 1/2SM 02/02 A3042 RMK T00200020 IEM_DS3505
ZBAA,2000-10-27 00:00,ZBAA 270000Z AUTO 06004KT 2 1/2SM 05/02 A3045 RMK SLP309 T00460023 52015 IEM_DS3505
ZBAA,2000-10-27 01:00,ZBAA 270100Z AUTO 35002KT 1 1/2SM 05/05 A3045 RMK T00500050 IEM_DS3505
ZBAA,2000-10-27 02:00,ZBAA 270200Z AUTO 2 1/2SM 07/04 A3045 RMK T00700040 IEM_DS3505
ZBAA,2000-10-27 03:00,ZBAA 270300Z AUTO 06002KT 4SM 09/03 A3045 RMK SLP302 T00860031 57007 IEM_DS3505
ZBAA,2000-10-27 04:00,ZBAA 270400Z AUTO 11/04 A3042 RMK T01100040 IEM_DS3505
ZBAA,2000-10-27 05:00,ZBAA 270500Z AUTO 12/04 A3039 RMK T01200040 IEM_DS3505
ZBAA,2000-10-27 06:00,ZBAA 270600Z AUTO 10002KT 6SM 11/01 A3036 RMK SLP277 T01140011 57024 IEM_DS3505
ZBAA,2000-10-27 07:00,ZBAA 270700Z AUTO 12002KT 11/03 A3036 RMK T01100030 IEM_DS3505
ZBAA,2000-10-27 08:00,ZBAA 270800Z AUTO 00000KT 11/03 A3033 RMK T01100030 IEM_DS3505
ZBAA,2000-10-27 09:00,ZBAA 270900Z AUTO 00000KT 2 1/2SM 11/03 A3033 RMK SLP269 T01060029 57009 IEM_DS3505
ZBAA,2000-10-27 10:00,ZBAA 271000Z AUTO 10/04 A3036 RMK T01000040 IEM_DS3505
ZBAA,2000-10-27 11:00,ZBAA 271100Z AUTO 00000KT 2 1/2SM 09/05 A3036 RMK T00900050 IEM_DS3505
ZBAA,2000-10-27 12:00,ZBAA 271200Z AUTO 00000KT 3SM 10/04 A3036 RMK SLP281 T00960040 52012 IEM_DS3505
ZBAA,2000-10-27 13:00,ZBAA 271300Z AUTO 27002KT 2SM 10/04 A3039 RMK T01000040 IEM_DS3505
ZBAA,2000-10-27 14:00,ZBAA 271400Z AUTO 36004KT 1 1/2SM 09/07 A3039 RMK T00900070 IEM_DS3505
ZBAA,2000-10-27 15:00,ZBAA 271500Z AUTO 36002KT 3SM 09/05 A3039 RMK SLP284 T00890053 52004 IEM_DS3505
ZBAA,2000-10-27 16:00,ZBAA 271600Z AUTO 36004KT 1SM 08/07 A3039 RMK T00800070 IEM_DS3505
ZBAA,2000-10-27 17:00,ZBAA 271700Z AUTO 35002KT 1 1/4SM 08/07 A3039 RMK T00800070 IEM_DS3505
ZBAA,2000-10-27 18:00,ZBAA 271800Z AUTO 03002KT 5SM 08/05 A3036 RMK 60000 SLP281 T00840050 57003 IEM_DS3505
ZBAA,2000-10-27 19:00,ZBAA 271900Z AUTO 00000KT 1SM 08/08 A3036 RMK T00800080 IEM_DS3505
ZBAA,2000-10-27 20:00,ZBAA 272000Z AUTO 30002KT 1SM 08/07 A3036 RMK T00800070 IEM_DS3505
ZBAA,2000-10-27 21:00,ZBAA 272100Z AUTO 00000KT 3SM 08/06 A3036 RMK SLP274 T00840060 57007 IEM_DS3505
ZBAA,2000-10-27 22:00,ZBAA 272200Z AUTO 00000KT 1SM 07/07 A3036 RMK T00700070 IEM_DS3505
ZBAA,2000-10-27 23:00,ZBAA 272300Z AUTO 01002KT 1SM 08/07 A3033 RMK T00800070 IEM_DS3505
ZBAA,2000-10-28 00:00,ZBAA 280000Z AUTO 06002KT 2SM 08/06 A3036 RMK 60004 SLP273 T00800060 57001 IEM_DS3505
ZBAA,2000-10-28 01:00,ZBAA 280100Z AUTO 34006KT 1 1/4SM 09/08 A3036 RMK T00900080 IEM_DS3505
ZBAA,2000-10-28 02:00,ZBAA 280200Z AUTO 36004KT 2SM 10/08 A3033 RMK T01000080 IEM_DS3505
ZBAA,2000-10-28 03:00,ZBAA 280300Z AUTO 11002KT 5SM 11/06 A3033 RMK SLP270 T01120057 57003 IEM_DS3505
ZBAA,2000-10-28 04:00,ZBAA 280400Z AUTO 28002KT 2 1/2SM 13/07 A3030 RMK T01300070 IEM_DS3505
ZBAA,2000-10-28 05:00,ZBAA 280500Z AUTO 25004KT 3SM 14/07 A3027 RMK T01400070 IEM_DS3505
ZBAA,2000-10-28 06:00,ZBAA 280600Z AUTO 24004KT 3SM 15/06 A3024 RMK T01500060 IEM_DS3505
ZBAA,2000-10-28 07:00,ZBAA 280700Z AUTO 17004KT 15/05 A3024 RMK T01500050 IEM_DS3505
ZBAA,2000-10-28 08:00,ZBAA 280800Z AUTO 16004KT 15/06 A3021 RMK T01500060 IEM_DS3505
ZBAA,2000-10-28 09:00,ZBAA 280900Z AUTO 21002KT 4SM 12/06 A3024 RMK SLP237 T01160057 57003 IEM_DS3505
ZBAA,2000-10-28 10:00,ZBAA 281000Z AUTO 13004KT 1SM 11/09 A3024 RMK T01100090 IEM_DS3505
ZBAA,2000-10-28 11:00,ZBAA 281100Z AUTO 14002KT 1SM 10/08 A3027 RMK T01000080 IEM_DS3505
ZBAA,2000-10-28 12:00,ZBAA 281200Z AUTO 00000KT 2 1/2SM 09/06 A3027 RMK SLP246 T00940058 52009 IEM_DS3505
ZBAA,2000-10-28 13:00,ZBAA 281300Z AUTO 36002KT 1SM 09/08 A3027 RMK T00900080 IEM_DS3505
ZBAA,2000-10-28 14:00,ZBAA 281400Z AUTO 1SM 10/08 A3027 RMK T01000080 IEM_DS3505
ZBAA,2000-10-28 15:00,ZBAA 281500Z AUTO 34004KT 2SM 09/07 A3027 RMK SLP249 T00930066 52003 IEM_DS3505
ZBAA,2000-10-28 16:00,ZBAA 281600Z AUTO 31004KT 1SM 10/09 A3027 RMK T01000090 IEM_DS3505
ZBAA,2000-10-28 17:00,ZBAA 281700Z AUTO 34002KT 1SM 09/09 A3024 RMK T00900090 IEM_DS3505
ZBAA,2000-10-28 18:00,ZBAA 281800Z AUTO 33002G21KT 2 1/2SM 10/05 A3027 RMK SLP243 T01040046 57006 IEM_DS3505
ZBAA,2000-10-28 19:00,ZBAA 281900Z AUTO 24004KT 6SM 11/M01 A3024 RMK T01101010 IEM_DS3505
ZBAA,2000-10-28 20:00,ZBAA 282000Z AUTO 30006KT 6SM 11/M01 A3024 RMK T01101010 IEM_DS3505
ZBAA,2000-10-28 21:00,ZBAA 282100Z AUTO 01004KT 12SM 11/M08 A3024 RMK 70003 SLP241 T01111081 57002 IEM_DS3505
ZBAA,2000-10-28 22:00,ZBAA 282200Z AUTO 36006KT 6SM 09/M01 A3024 RMK T00901010 IEM_DS3505
ZBAA,2000-10-28 23:00,ZBAA 282300Z AUTO 35006KT 6SM 07/M02 A3024 RMK T00701020 IEM_DS3505
ZBAA,2000-10-29 00:00,ZBAA 290000Z AUTO 35008KT 12SM 08/M01 A3027 RMK SLP246 T00801010 52005 IEM_DS3505
ZBAA,2000-10-29 01:00,ZBAA 290100Z AUTO 36004KT 6SM 10/M06 A3027 RMK T01001060 IEM_DS3505
ZBAA,2000-10-29 02:00,ZBAA 290200Z AUTO 6SM 12/M05 A3027 RMK T01201050 IEM_DS3505
ZBAA,2000-10-29 03:00,ZBAA 290300Z AUTO 31012KT 19SM 12/M11 A3024 RMK SLP244 T01251111 57002 IEM_DS3505
ZBAA,2000-10-29 04:00,ZBAA 290400Z AUTO 34012KT 6SM 14/M11 A3024 RMK T01401110 IEM_DS3505
ZBAA,2000-10-29 05:00,ZBAA 290500Z AUTO 28008KT 6SM 14/M10 A3018 RMK T01401100 IEM_DS3505
ZBAA,2000-10-29 06:00,ZBAA 290600Z AUTO 32006G19KT 19SM 15/M12 A3015 RMK SLP210 T01461116 57033 IEM_DS3505
ZBAA,2000-10-29 07:00,ZBAA 290700Z AUTO 28010KT 6SM 14/M08 A3012 RMK T01401080 IEM_DS3505
ZBAA,2000-10-29 08:00,ZBAA 290800Z AUTO 28010G19KT 6SM 14/M11 A3012 RMK T01401110 IEM_DS3505
ZBAA,2000-10-29 09:00,ZBAA 290900Z AUTO 24006KT 16SM 13/M07 A3009 RMK SLP197 T01281067 57014 IEM_DS3505
ZBAA,2000-10-29 10:00,ZBAA 291000Z AUTO 28006KT 6SM 12/M08 A3012 RMK T01201080 IEM_DS3505
ZBAA,2000-10-29 11:00,ZBAA 291100Z AUTO 6SM 11/M04 A3012 RMK T01101040 IEM_DS3505
ZBAA,2000-10-29 12:00,ZBAA 291200Z AUTO 23002KT 3SM 09/M02 A3012 RMK SLP202 T00941022 52005 IEM_DS3505
ZBAA,2000-10-29 13:00,ZBAA 291300Z AUTO 20004KT 6SM 09/M01 A3012 RMK T00901010 IEM_DS3505
ZBAA,2000-10-29 14:00,ZBAA 291400Z AUTO 19006KT 6SM 08/M01 A3012 RMK T00801010 IEM_DS3505
ZBAA,2000-10-29 15:00,ZBAA 291500Z AUTO 20004KT 7SM 08/M02 A3009 RMK SLP196 T00791016 57006 IEM_DS3505
ZBAA,2000-10-29 16:00,ZBAA 291600Z AUTO 21006KT 6SM 07/01 A3009 RMK T00700010 IEM_DS3505
ZBAA,2000-10-29 17:00,ZBAA 291700Z AUTO 14002KT 6SM 05/01 A3009 RMK T00500010 IEM_DS3505
ZBAA,2000-10-29 18:00,ZBAA 291800Z AUTO 23004KT 7SM 06/00 A3009 RMK SLP189 T00560004 57007 IEM_DS3505
ZBAA,2000-10-29 19:00,ZBAA 291900Z AUTO 11002KT 6SM 03/02 A3009 RMK T00300020 IEM_DS3505
ZBAA,2000-10-29 20:00,ZBAA 292000Z AUTO 01002KT 4SM 03/02 A3006 RMK T00300020 IEM_DS3505
ZBAA,2000-10-29 21:00,ZBAA 292100Z AUTO 20002KT 5SM 04/01 A3006 RMK SLP179 T00390010 57010 IEM_DS3505
ZBAA,2000-10-29 22:00,ZBAA 292200Z AUTO 00000KT 2 1/2SM 01/01 A3006 RMK T00100010 IEM_DS3505
ZBAA,2000-10-29 23:00,ZBAA 292300Z AUTO 00000KT 2 1/2SM 01/01 A3006 RMK T00100010 IEM_DS3505
ZBAA,2000-10-30 00:00,ZBAA 300000Z AUTO 25004KT 3SM 04/02 A3009 RMK SLP194 T00420016 52015 IEM_DS3505
ZBAA,2000-10-30 01:00,ZBAA 300100Z AUTO 11002KT 2SM 06/05 A3012 RMK T00600050 IEM_DS3505
ZBAA,2000-10-30 02:00,ZBAA 300200Z AUTO 2SM 07/05 A3009 RMK T00700050 IEM_DS3505
ZBAA,2000-10-30 03:00,ZBAA 300300Z AUTO 13004KT 5SM 10/02 A3009 RMK SLP190 T00990023 57004 IEM_DS3505
ZBAA,2000-10-30 04:00,ZBAA 300400Z AUTO 14004KT 11/04 A3006 RMK T01100040 IEM_DS3505
ZBAA,2000-10-30 05:00,ZBAA 300500Z AUTO 13/02 A3006 RMK T01300020 IEM_DS3505
ZBAA,2000-10-30 06:00,ZBAA 300600Z AUTO 19004KT 7SM 13/02 A3003 RMK SLP170 T01320025 57020 IEM_DS3505
ZBAA,2000-10-30 07:00,ZBAA 300700Z AUTO 19006KT 13/04 A3003 RMK T01300040 IEM_DS3505
ZBAA,2000-10-30 08:00,ZBAA 300800Z AUTO 18006KT 13/04 A3003 RMK T01300040 IEM_DS3505
ZBAA,2000-10-30 09:00,ZBAA 300900Z AUTO 22004KT 6SM 12/03 A3003 RMK SLP173 T01180026 52003 IEM_DS3505
ZBAA,2000-10-30 10:00,ZBAA 301000Z AUTO 15004KT 2 1/2SM 10/06 A3006 RMK T01000060 IEM_DS3505
ZBAA,2000-10-30 11:00,ZBAA 301100Z AUTO 14002KT 2 1/2SM 10/06 A3009 RMK T01000060 IEM_DS3505
ZBAA,2000-10-30 12:00,ZBAA 301200Z AUTO 11002KT 5SM 09/03 A3012 RMK SLP194 T00900030 52021 IEM_DS3505
ZBAA,2000-10-30 13:00,ZBAA 301300Z AUTO 7SM RMK IEM_DS3505
ZBAA,2000-10-30 14:00,ZBAA 301400Z AUTO 36004KT 1 1/4SM 08/06 A3015 RMK T00800060 IEM_DS3505
ZBAA,2000-10-30 15:00,ZBAA 301500Z AUTO 03002KT 5SM 09/04 A3018 RMK SLP214 T00860042 52020 IEM_DS3505
ZBAA,2000-10-30 16:00,ZBAA 301600Z AUTO 34006KT 1 1/2SM 08/06 A3018 RMK T00800060 IEM_DS3505
ZBAA,2000-10-30 17:00,ZBAA 301700Z AUTO 31006KT 1 1/2SM 09/06 A3021 RMK T00900060 IEM_DS3505
ZBAA,2000-10-30 18:00,ZBAA 301800Z AUTO 35008KT 19SM 11/M11 A3021 RMK SLP224 T01071106 52010 IEM_DS3505
ZBAA,2000-10-30 19:00,ZBAA 301900Z AUTO 36004KT 6SM 08/M03 A3021 RMK T00801030 IEM_DS3505
ZBAA,2000-10-30 20:00,ZBAA 302000Z AUTO 35006KT 6SM 08/M03 A3024 RMK T00801030 IEM_DS3505
ZBAA,2000-10-30 21:00,ZBAA 302100Z AUTO 00000KT 19SM 10/M08 A3024 RMK SLP237 T01011075 52013 IEM_DS3505
ZBAA,2000-10-30 22:00,ZBAA 302200Z AUTO 34006KT 6SM 08/M04 A3024 RMK T00801040 IEM_DS3505
ZBAA,2000-10-30 23:00,ZBAA 302300Z AUTO 36006KT 6SM 06/M03 A3027 RMK T00601030 IEM_DS3505
ZBAA,2000-10-31 00:00,ZBAA 310000Z AUTO 33006KT 19SM 10/M09 A3030 RMK SLP256 T00971088 52019 IEM_DS3505
ZBAA,2000-10-31 01:00,ZBAA 310100Z AUTO 32010KT 6SM 10/M06 A3030 RMK T01001060 IEM_DS3505
ZBAA,2000-10-31 02:00,ZBAA 310200Z AUTO 32012KT 6SM 11/M08 A3030 RMK T01101080 IEM_DS3505
ZBAA,2000-10-31 03:00,ZBAA 310300Z AUTO 35008KT 19SM 12/M10 A3030 RMK SLP260 T01201102 52004 IEM_DS3505
ZBAA,2000-10-31 04:00,ZBAA 310400Z AUTO 33012G21KT 6SM 13/M08 A3027 RMK T01301080 IEM_DS3505
ZBAA,2000-10-31 05:00,ZBAA 310500Z AUTO 32008KT 6SM 13/M10 A3027 RMK T01301100 IEM_DS3505
ZBAA,2000-10-31 06:00,ZBAA 310600Z AUTO 00000KT 19SM 13/M11 A3024 RMK SLP240 T01341111 57020 IEM_DS3505
ZBAA,2000-10-31 07:00,ZBAA 310700Z AUTO 28006KT 6SM 14/M09 A3024 RMK T01401090 IEM_DS3505
ZBAA,2000-10-31 08:00,ZBAA 310800Z AUTO 26010KT 6SM 13/M08 A3024 RMK T01301080 IEM_DS3505
ZBAA,2000-10-31 09:00,ZBAA 310900Z AUTO 28004KT 19SM 12/M10 A3024 RMK SLP239 T01251104 57001 IEM_DS3505
ZBAA,2000-10-31 10:00,ZBAA 311000Z AUTO 24004KT 6SM 11/M07 A3024 RMK T01101070 IEM_DS3505
ZBAA,2000-10-31 11:00,ZBAA 311100Z AUTO 23004KT 6SM 11/M07 A3024 RMK T01101070 IEM_DS3505
ZBAA,2000-10-31 12:00,ZBAA 311200Z AUTO 23002KT 12SM 09/M07 A3027 RMK SLP249 T00911071 52010 IEM_DS3505
ZBAA,2000-10-31 13:00,ZBAA 311300Z AUTO 22006KT 6SM 10/M05 A3027 RMK T01001050 IEM_DS3505
ZBAA,2000-10-31 14:00,ZBAA 311400Z AUTO 24004KT 6SM 09/M04 A3027 RMK T00901040 IEM_DS3505
ZBAA,2000-10-31 15:00,ZBAA 311500Z AUTO 23002KT 12SM 06/M04 A3027 RMK SLP251 T00641043 52001 IEM_DS3505
ZBAA,2000-10-31 16:00,ZBAA 311600Z AUTO 01002KT 6SM 04/00 A3027 RMK T00400000 IEM_DS3505
ZBAA,2000-10-31 17:00,ZBAA 311700Z AUTO 34004KT 6SM 03/M02 A3027 RMK T00301020 IEM_DS3505
ZBAA,2000-10-31 18:00,ZBAA 311800Z AUTO 29002KT 6SM 05/M03 A3027 RMK SLP250 T00481034 54000 IEM_DS3505
ZBAA,2000-10-31 19:00,ZBAA 311900Z AUTO 34004KT 6SM 01/M02 A3027 RMK T00101020 IEM_DS3505
ZBAA,2000-10-31 20:00,ZBAA 312000Z AUTO 34004KT 6SM 02/M02 A3027 RMK T00201020 IEM_DS3505
ZBAA,2000-10-31 21:00,ZBAA 312100Z AUTO 00000KT 6SM 01/M03 A3027 RMK SLP243 T00101033 57007 IEM_DS3505
ZBAA,2000-10-31 22:00,ZBAA 312200Z AUTO 34004KT 6SM 01/M02 A3027 RMK T00101020 IEM_DS3505
ZBAA,2000-10-31 23:00,ZBAA 312300Z AUTO 34004KT 6SM 01/M03 A3027 RMK T00101030 IEM_DS3505
ZBAA,2000-11-01 00:00,ZBAA 010000Z AUTO 00000KT 2 1/2SM 04/M01 A3027 RMK SLP245 T00421006 52002 IEM_DS3505
ZBAA,2000-11-01 01:00,ZBAA 010100Z AUTO 35002KT 6SM 06/M02 A3027 RMK T00601020 IEM_DS3505
ZBAA,2000-11-01 02:00,ZBAA 010200Z AUTO 6SM 09/M04 A3024 RMK T00901040 IEM_DS3505
ZBAA,2000-11-01 03:00,ZBAA 010300Z AUTO 16002KT 7SM 13/M05 A3024 RMK SLP236 T01281047 57009 IEM_DS3505
ZBAA,2000-11-01 04:00,ZBAA 010400Z AUTO 18006KT 6SM 13/M06 A3021 RMK T01301060 IEM_DS3505
ZBAA,2000-11-01 05:00,ZBAA 010500Z AUTO 19006KT 6SM 15/M05 A3015 RMK T01501050 IEM_DS3505
ZBAA,2000-11-01 06:00,ZBAA 010600Z AUTO 22008KT 12SM 15/M09 A3012 RMK SLP203 T01531088 57033 IEM_DS3505
ZBAA,2000-11-01 07:00,ZBAA 010700Z AUTO 19010KT 6SM 15/M06 A3012 RMK T01501060 IEM_DS3505
ZBAA,2000-11-01 08:00,ZBAA 010800Z AUTO 18008KT 6SM 15/M06 A3009 RMK T01501060 IEM_DS3505
ZBAA,2000-11-01 09:00,ZBAA 010900Z AUTO 21004KT 7SM 13/M06 A3009 RMK SLP192 T01341056 57011 IEM_DS3505
ZBAA,2000-11-01 10:00,ZBAA 011000Z AUTO 00000KT 6SM 10/M02 A3012 RMK T01001020 IEM_DS3505
ZBAA,2000-11-01 11:00,ZBAA 011100Z AUTO 12002KT 6SM 09/M01 A3012 RMK T00901010 IEM_DS3505
ZBAA,2000-11-01 12:00,ZBAA 011200Z AUTO 15002KT 7SM 08/M03 A3012 RMK SLP201 T00811034 52009 IEM_DS3505
ZBAA,2000-11-01 13:00,ZBAA 011300Z AUTO 12002KT 06/00 A3012 RMK T00600000 IEM_DS3505
ZBAA,2000-11-01 14:00,ZBAA 011400Z AUTO 15002KT 4SM 06/01 A3012 RMK T00600010 IEM_DS3505
ZBAA,2000-11-01 15:00,ZBAA 011500Z AUTO 00000KT 6SM 05/M02 A3012 RMK SLP201 T00541019 54000 IEM_DS3505
ZBAA,2000-11-01 16:00,ZBAA 011600Z AUTO 00000KT 2 1/2SM 04/01 A3012 RMK T00400010 IEM_DS3505
ZBAA,2000-11-01 17:00,ZBAA 011700Z AUTO 00000KT 2 1/2SM 02/01 A3012 RMK T00200010 IEM_DS3505
ZBAA,2000-11-01 18:00,ZBAA 011800Z AUTO 21002KT 6SM 05/M02 A3012 RMK SLP200 T00481023 57001 IEM_DS3505
ZBAA,2000-11-01 19:00,ZBAA 011900Z AUTO 35004KT 2 1/2SM 01/00 A3012 RMK T00100000 IEM_DS3505
ZBAA,2000-11-01 20:00,ZBAA 012000Z AUTO 01002KT 2 1/2SM 02/01 A3012 RMK T00200010 IEM_DS3505
ZBAA,2000-11-01 21:00,ZBAA 012100Z AUTO 33002KT 3SM 03/M01 A3012 RMK SLP200 T00301010 54000 IEM_DS3505
ZBAA,2000-11-01 22:00,ZBAA 012200Z AUTO 35006KT 2 1/2SM 02/00 A3012 RMK T00200000 IEM_DS3505
ZBAA,2000-11-01 23:00,ZBAA 012300Z AUTO 26002KT 2SM 02/00 A3015 RMK T00200000 IEM_DS3505
ZBAA,2000-11-02 00:00,ZBAA 020000Z AUTO 00000KT 4SM 04/M00 A3015 RMK SLP209 T00431005 52009 IEM_DS3505
ZBAA,2000-11-02 01:00,ZBAA 020100Z AUTO 36006KT 4SM 07/02 A3015 RMK T00700020 IEM_DS3505
ZBAA,2000-11-02 02:00,ZBAA 020200Z AUTO 36004KT 6SM 09/02 A3015 RMK T00900020 IEM_DS3505
ZBAA,2000-11-02 03:00,ZBAA 020300Z AUTO 07002KT 6SM 14/M02 A3015 RMK SLP209 T01351024 54000 IEM_DS3505
ZBAA,2000-11-02 04:00,ZBAA 020400Z AUTO 5SM 14/00 A3012 RMK T01400000 IEM_DS3505
ZBAA,2000-11-02 05:00,ZBAA 020500Z AUTO 5SM 17/00 A3009 RMK T01700000 IEM_DS3505
ZBAA,2000-11-02 06:00,ZBAA 020600Z AUTO 14004KT 6SM 17/M01 A3009 RMK SLP190 T01701011 57019 IEM_DS3505
ZBAA,2000-11-02 07:00,ZBAA 020700Z AUTO 17006KT 5SM 18/00 A3009 RMK T01800000 IEM_DS3505
ZBAA,2000-11-02 08:00,ZBAA 020800Z AUTO 17004KT 17/01 A3009 RMK T01700010 IEM_DS3505
ZBAA,2000-11-02 09:00,ZBAA 020900Z AUTO 19002KT 5SM 15/01 A3009 RMK SLP189 T01510006 57001 IEM_DS3505
ZBAA,2000-11-02 10:00,ZBAA 021000Z AUTO 17002KT 3SM 12/04 A3012 RMK T01200040 IEM_DS3505
ZBAA,2000-11-02 11:00,ZBAA 021100Z AUTO 08002KT 2 1/2SM 10/04 A3012 RMK T01000040 IEM_DS3505
ZBAA,2000-11-02 12:00,ZBAA 021200Z AUTO 14002KT 4SM 09/02 A3015 RMK SLP205 T00920019 52016 IEM_DS3505
ZBAA,2000-11-02 13:00,ZBAA 021300Z AUTO 00000KT 1 1/2SM 08/05 A3015 RMK T00800050 IEM_DS3505
ZBAA,2000-11-02 14:00,ZBAA 021400Z AUTO 09002KT 1 1/4SM 07/05 A3015 RMK T00700050 IEM_DS3505
ZBAA,2000-11-02 15:00,ZBAA 021500Z AUTO 15002KT 4SM 08/02 A3015 RMK SLP211 T00840020 52006 IEM_DS3505
ZBAA,2000-11-02 16:00,ZBAA 021600Z AUTO 00000KT 1SM 06/04 A3018 RMK T00600040 IEM_DS3505
ZBAA,2000-11-02 17:00,ZBAA 021700Z AUTO 00000KT 1SM 06/05 A3015 RMK T00600050 IEM_DS3505
ZBAA,2000-11-02 18:00,ZBAA 021800Z AUTO 00000KT 2SM 05/02 A3015 RMK SLP210 T00510019 57001 IEM_DS3505
ZBAA,2000-11-02 19:00,ZBAA 021900Z AUTO 00000KT 1SM 05/04 A3015 RMK T00500040 IEM_DS3505
ZBAA,2000-11-02 20:00,ZBAA 022000Z AUTO 35002KT 1SM 05/04 A3015 RMK T00500040 IEM_DS3505
ZBAA,2000-11-02 21:00,ZBAA 022100Z AUTO 00000KT 1 1/4SM 04/02 A3015 RMK SLP209 T00440019 57001 IEM_DS3505
ZBAA,2000-11-02 22:00,ZBAA 022200Z AUTO 35002KT 1SM 04/04 A3018 RMK T00400040 IEM_DS3505
ZBAA,2000-11-02 23:00,ZBAA 022300Z AUTO 00000KT 1/2SM 04/04 A3018 RMK T00400040 IEM_DS3505
ZBAA,2000-11-03 00:00,ZBAA 030000Z AUTO 05002KT 1SM 05/03 A3021 RMK SLP226 T00510031 52017 IEM_DS3505
ZBAA,2000-11-03 01:00,ZBAA 030100Z AUTO 00000KT 1SM 06/06 A3021 RMK T00600060 IEM_DS3505
ZBAA,2000-11-03 02:00,ZBAA 030200Z AUTO 1SM 09/07 A3021 RMK T00900070 IEM_DS3505
ZBAA,2000-11-03 03:00,ZBAA 030300Z AUTO 10004KT 2SM 10/06 A3018 RMK SLP224 T01010057 57002 IEM_DS3505
ZBAA,2000-11-03 04:00,ZBAA 030400Z AUTO 15004KT 1SM 12/08 A3018 RMK T01200080 IEM_DS3505
ZBAA,2000-11-03 05:00,ZBAA 030500Z AUTO 13006KT 1SM 13/08 A3012 RMK T01300080 IEM_DS3505
ZBAA,2000-11-03 06:00,ZBAA 030600Z AUTO 00000KT 3SM 13/06 A3012 RMK SLP196 T01330060 57028 IEM_DS3505
ZBAA,2000-11-03 07:00,ZBAA 030700Z AUTO 13002KT 1 1/4SM 14/08 A3012 RMK T01400080 IEM_DS3505
ZBAA,2000-11-03 08:00,ZBAA 030800Z AUTO 1 1/2SM 14/08 A3012 RMK T01400080 IEM_DS3505
ZBAA,2000-11-03 09:00,ZBAA 030900Z AUTO 04002KT 3SM 13/06 A3009 RMK SLP187 T01310058 57009 IEM_DS3505
ZBAA,2000-11-03 10:00,ZBAA 031000Z AUTO 00000KT 1SM 12/08 A3009 RMK T01200080 IEM_DS3505
ZBAA,2000-11-03 11:00,ZBAA 031100Z AUTO 28004KT 1SM 11/08 A3012 RMK T01100080 IEM_DS3505
ZBAA,2000-11-03 12:00,ZBAA 031200Z AUTO 00000KT 2SM 12/06 A3012 RMK SLP197 T01170060 52010 IEM_DS3505
ZBAA,2000-11-03 13:00,ZBAA 031300Z AUTO 32002KT 1SM 10/08 A3009 RMK T01000080 IEM_DS3505
ZBAA,2000-11-03 14:00,ZBAA 031400Z AUTO 30002KT 1SM 10/08 A3012 RMK T01000080 IEM_DS3505
ZBAA,2000-11-03 15:00,ZBAA 031500Z AUTO 00000KT 1 1/4SM 10/07 A3009 RMK SLP191 T01020067 57006 IEM_DS3505
ZBAA,2000-11-03 16:00,ZBAA 031600Z AUTO 00000KT 1SM 09/07 A3003 RMK T00900070 IEM_DS3505
ZBAA,2000-11-03 17:00,ZBAA 031700Z AUTO 33002KT 1SM 09/07 A3006 RMK T00900070 IEM_DS3505
ZBAA,2000-11-03 18:00,ZBAA 031800Z AUTO 35004KT 2 1/2SM 10/06 A3006 RMK SLP181 T00960065 57010 IEM_DS3505
ZBAA,2000-11-03 19:00,ZBAA 031900Z AUTO 27004KT 1SM 08/07 A3006 RMK T00800070 IEM_DS3505
ZBAA,2000-11-03 20:00,ZBAA 032000Z AUTO 30017G33KT 5SM 13/M03 A3006 RMK T01301030 IEM_DS3505
ZBAA,2000-11-03 21:00,ZBAA 032100Z AUTO 32010KT 12SM 12/M06 A3012 RMK SLP189 T01191064 52009 IEM_DS3505
ZBAA,2000-11-03 22:00,ZBAA 032200Z AUTO 02002KT 6SM 09/M04 A3012 RMK T00901040 IEM_DS3505
ZBAA,2000-11-03 23:00,ZBAA 032300Z AUTO 29002KT 08/M04 A3012 RMK T00801040 IEM_DS3505
ZBAA,2000-11-04 00:00,ZBAA 040000Z AUTO 35004KT 6SM 10/M11 A3015 RMK SLP210 T01051108 52020 IEM_DS3505
ZBAA,2000-11-04 01:00,ZBAA 040100Z AUTO 28008KT 10/M10 A3018 RMK T01001100 IEM_DS3505
ZBAA,2000-11-04 02:00,ZBAA 040200Z AUTO 30010KT 4SM 12/M13 A3015 RMK T01201130 IEM_DS3505
ZBAA,2000-11-04 03:00,ZBAA 040300Z AUTO 35008KT 4SM 13/M12 A3015 RMK SLP211 T01271124 52001 IEM_DS3505
ZBAA,2000-11-04 04:00,ZBAA 040400Z AUTO 30014G23KT 13/M12 A3012 RMK T01301120 IEM_DS3505
ZBAA,2000-11-04 05:00,ZBAA 040500Z AUTO 31021G33KT 13/M14 A3009 RMK T01301140 IEM_DS3505
ZBAA,2000-11-04 06:00,ZBAA 040600Z AUTO 22006KT 6SM 14/M11 A3006 RMK SLP183 T01391114 57027 IEM_DS3505
ZBAA,2000-11-04 07:00,ZBAA 040700Z AUTO 29008KT 14/M12 A3006 RMK T01401120 IEM_DS3505
ZBAA,2000-11-04 08:00,ZBAA 040800Z AUTO 27002KT 13/M12 A3006 RMK T01301120 IEM_DS3505
ZBAA,2000-11-04 09:00,ZBAA 040900Z AUTO 15004KT 11/M07 A3003 RMK T01101070 IEM_DS3505
ZBAA,2000-11-04 10:00,ZBAA 041000Z AUTO 15002KT 10/M07 A3003 RMK T01001070 IEM_DS3505
ZBAA,2000-11-04 11:00,ZBAA 041100Z AUTO 13004KT 09/M06 A3006 RMK T00901060 IEM_DS3505
ZBAA,2000-11-04 12:00,ZBAA 041200Z AUTO 09002KT 6SM 08/M07 A3006 RMK SLP173 T00811068 52002 IEM_DS3505
ZBAA,2000-11-04 13:00,ZBAA 041300Z AUTO 00000KT 07/M06 A3006 RMK T00701060 IEM_DS3505
ZBAA,2000-11-04 14:00,ZBAA 041400Z AUTO 00000KT 06/M02 A3006 RMK T00601020 IEM_DS3505
ZBAA,2000-11-04 15:00,ZBAA 041500Z AUTO 00000KT 6SM 07/M08 A3003 RMK SLP169 T00711080 57004 IEM_DS3505
ZBAA,2000-11-04 16:00,ZBAA 041600Z AUTO 08002KT 2SM 04/M02 A3003 RMK T00401020 IEM_DS3505
ZBAA,2000-11-04 17:00,ZBAA 041700Z AUTO 00000KT 2SM 03/M02 A3003 RMK T00301020 IEM_DS3505
ZBAA,2000-11-04 18:00,ZBAA 041800Z AUTO 00000KT 6SM 03/M04 A3003 RMK SLP164 T00331037 57005 IEM_DS3505
ZBAA,2000-11-04 19:00,ZBAA 041900Z AUTO 36002KT 2SM 02/M01 A3003 RMK T00201010 IEM_DS3505
ZBAA,2000-11-04 20:00,ZBAA 042000Z AUTO 34004KT 2 1/2SM 02/M02 A3000 RMK T00201020 IEM_DS3505
ZBAA,2000-11-04 21:00,ZBAA 042100Z AUTO 01004KT 5SM 04/M04 A3000 RMK SLP157 T00361036 57007 IEM_DS3505
ZBAA,2000-11-04 22:00,ZBAA 042200Z AUTO 36002KT 2 1/2SM 02/M02 A3000 RMK T00201020 IEM_DS3505
ZBAA,2000-11-04 23:00,ZBAA 042300Z AUTO 35004KT 2 1/2SM 01/M02 A3000 RMK T00101020 IEM_DS3505
ZBAA,2000-11-05 00:00,ZBAA 050000Z AUTO 01004KT 4SM 05/M03 A3000 RMK SLP152 T00481027 57005 IEM_DS3505
ZBAA,2000-11-05 01:00,ZBAA 050100Z AUTO 34004KT 2 1/2SM 05/M01 A3000 RMK T00501010 IEM_DS3505
ZBAA,2000-11-05 02:00,ZBAA 050200Z AUTO 35004KT 3SM 09/M03 A2997 RMK T00901030 IEM_DS3505
ZBAA,2000-11-05 03:00,ZBAA 050300Z AUTO 04006KT 4SM 10/M01 A2997 RMK SLP143 T00991014 57009 IEM_DS3505
ZBAA,2000-11-05 04:00,ZBAA 050400Z AUTO 29002KT 11/M02 A2991 RMK T01101020 IEM_DS3505
ZBAA,2000-11-05 05:00,ZBAA 050500Z AUTO 13/00 A2988 RMK T01300000 IEM_DS3505
ZBAA,2000-11-05 06:00,ZBAA 050600Z AUTO 11002KT 4SM 13/02 A2985 RMK SLP111 T01330020 57032 IEM_DS3505
ZBAA,2000-11-05 07:00,ZBAA 050700Z AUTO 10002KT 14/04 A2985 RMK T01400040 IEM_DS3505
ZBAA,2000-11-05 08:00,ZBAA 050800Z AUTO 00000KT 14/05 A2985 RMK T01400050 IEM_DS3505
ZBAA,2000-11-05 09:00,ZBAA 050900Z AUTO 00000KT 3SM 12/03 A2985 RMK SLP105 T01200030 57006 IEM_DS3505
ZBAA,2000-11-05 10:00,ZBAA 051000Z AUTO 33004KT 2 1/2SM 12/01 A2985 RMK T01200010 IEM_DS3505
ZBAA,2000-11-05 11:00,ZBAA 051100Z AUTO 00000KT 2 1/2SM 11/02 A2988 RMK T01100020 IEM_DS3505
ZBAA,2000-11-05 12:00,ZBAA 051200Z AUTO 00000KT 2SM 09/04 A2988 RMK SLP117 T00900042 52012 IEM_DS3505
ZBAA,2000-11-05 13:00,ZBAA 051300Z AUTO 31002KT 2SM 10/01 A2988 RMK T01000010 IEM_DS3505
ZBAA,2000-11-05 14:00,ZBAA 051400Z AUTO 33002KT 1 1/2SM 09/03 A2988 RMK T00900030 IEM_DS3505
ZBAA,2000-11-05 15:00,ZBAA 051500Z AUTO 00000KT 2 1/2SM 08/01 A2988 RMK SLP121 T00830012 52004 IEM_DS3505
ZBAA,2000-11-05 16:00,ZBAA 051600Z AUTO 28002KT 2SM 08/03 A2988 RMK T00800030 IEM_DS3505
ZBAA,2000-11-05 17:00,ZBAA 051700Z AUTO 00000KT 1 1/2SM 06/02 A2988 RMK T00600020 IEM_DS3505
ZBAA,2000-11-05 18:00,ZBAA 051800Z AUTO 00000KT 2SM 06/02 A2988 RMK SLP123 T00600025 52002 IEM_DS3505
ZBAA,2000-11-05 19:00,ZBAA 051900Z AUTO 32004KT 1 1/2SM 06/03 A2988 RMK T00600030 IEM_DS3505
ZBAA,2000-11-05 20:00,ZBAA 052000Z AUTO 33004KT 1 1/2SM 05/03 A2991 RMK T00500030 IEM_DS3505
ZBAA,2000-11-05 21:00,ZBAA 052100Z AUTO 00000KT 2SM 05/01 A2991 RMK SLP131 T00480008 52008 IEM_DS3505
ZBAA,2000-11-05 22:00,ZBAA 052200Z AUTO 32008KT 1 1/2SM 07/04 A2997 RMK T00700040 IEM_DS3505
ZBAA,2000-11-05 23:00,ZBAA 052300Z AUTO 34010KT 1 1/2SM 07/04 A2997 RMK T00700040 IEM_DS3505
ZBAA,2000-11-06 00:00,ZBAA 060000Z AUTO 00000KT 1 1/4SM 07/03 A3000 RMK SLP150 T00690026 52019 IEM_DS3505
ZBAA,2000-11-06 01:00,ZBAA 060100Z AUTO 34006KT 3SM 09/03 A3003 RMK T00900030 IEM_DS3505
ZBAA,2000-11-06 02:00,ZBAA 060200Z AUTO 01006KT 6SM 11/01 A3006 RMK T01100010 IEM_DS3505
ZBAA,2000-11-06 03:00,ZBAA 060300Z AUTO 36008KT 6SM 14/M10 A3006 RMK SLP164 T01351096 52014 IEM_DS3505
ZBAA,2000-11-06 04:00,ZBAA 060400Z AUTO 35010KT 13/M05 A3006 RMK T01301050 IEM_DS3505
ZBAA,2000-11-06 05:00,ZBAA 060500Z AUTO 01010KT 5SM 13/M09 A3003 RMK T01301090 IEM_DS3505
ZBAA,2000-11-06 06:00,ZBAA 060600Z AUTO 33008KT 6SM 14/M13 A3003 RMK SLP171 T01441127 52007 IEM_DS3505
ZBAA,2000-11-06 07:00,ZBAA 060700Z AUTO 31012KT 5SM 13/M10 A3006 RMK T01301100 IEM_DS3505
ZBAA,2000-11-06 08:00,ZBAA 060800Z AUTO 31016KT 13/M11 A3009 RMK T01301110 IEM_DS3505
ZBAA,2000-11-06 09:00,ZBAA 060900Z AUTO 33012KT 6SM 12/M15 A3012 RMK SLP194 T01231152 52023 IEM_DS3505
ZBAA,2000-11-06 10:00,ZBAA 061000Z AUTO 29004KT 7SM 12/M13 A3015 RMK T01201130 IEM_DS3505
ZBAA,2000-11-06 11:00,ZBAA 061100Z AUTO 31008KT 6SM 11/M14 A3021 RMK T01101140 IEM_DS3505
ZBAA,2000-11-06 12:00,ZBAA 061200Z AUTO 35012KT 12SM 10/M18 A3024 RMK SLP233 T01031177 52039 IEM_DS3505
ZBAA,2000-11-06 13:00,ZBAA 061300Z AUTO 32017G27KT 6SM 08/M16 A3027 RMK T00801160 IEM_DS3505
ZBAA,2000-11-06 14:00,ZBAA 061400Z AUTO 33016G25KT 6SM 07/M18 A3033 RMK T00701180 IEM_DS3505
ZBAA,2000-11-06 15:00,ZBAA 061500Z AUTO 33016KT 12SM 06/M21 A3036 RMK SLP273 T00611210 52039 IEM_DS3505
ZBAA,2000-11-06 16:00,ZBAA 061600Z AUTO 35016KT 6SM 03/M19 A3039 RMK T00301190 IEM_DS3505
ZBAA,2000-11-06 17:00,ZBAA 061700Z AUTO 36014KT 6SM 02/M20 A3045 RMK T00201200 IEM_DS3505
ZBAA,2000-11-06 18:00,ZBAA 061800Z AUTO 33016KT 12SM 03/M24 A3045 RMK SLP304 T00271237 52032 IEM_DS3505
ZBAA,2000-11-06 19:00,ZBAA 061900Z AUTO 36012G21KT 6SM 00/M22 A3047 RMK T00001220 IEM_DS3505
ZBAA,2000-11-06 20:00,ZBAA 062000Z AUTO 34014KT 6SM M01/M23 A3050 RMK T10101230 IEM_DS3505
ZBAA,2000-11-06 21:00,ZBAA 062100Z AUTO 34010G25KT 12SM M00/M28 A3053 RMK SLP333 T10011279 52028 IEM_DS3505
ZBAA,2000-11-06 22:00,ZBAA 062200Z AUTO 33014KT 6SM M01/M27 A3056 RMK T10101270 IEM_DS3505
ZBAA,2000-11-06 23:00,ZBAA 062300Z AUTO 32019G29KT 6SM M02/M28 A3059 RMK T10201280 IEM_DS3505
ZBAA,2000-11-07 00:00,ZBAA 070000Z AUTO 34008KT 19SM M01/M28 A3062 RMK SLP358 T10121277 52025 IEM_DS3505
ZBAA,2000-11-07 01:00,ZBAA 070100Z AUTO 32016KT 6SM M01/M27 A3065 RMK T10101270 IEM_DS3505
ZBAA,2000-11-07 02:00,ZBAA 070200Z AUTO 31019KT 6SM 00/M26 A3065 RMK T00001260 IEM_DS3505
ZBAA,2000-11-07 03:00,ZBAA 070300Z AUTO 34010G29KT 19SM 01/M26 A3062 RMK SLP379 T00101260 52021 IEM_DS3505
ZBAA,2000-11-07 04:00,ZBAA 070400Z AUTO 33016KT 6SM 02/M26 A3062 RMK T00201260 IEM_DS3505
ZBAA,2000-11-07 05:00,ZBAA 070500Z AUTO 33014G25KT 6SM 03/M25 A3059 RMK T00301250 IEM_DS3505
ZBAA,2000-11-07 06:00,ZBAA 070600Z AUTO 34006KT 19SM 03/M26 A3056 RMK SLP355 T00301255 57024 IEM_DS3505
ZBAA,2000-11-07 07:00,ZBAA 070700Z AUTO 31016KT 6SM 04/M26 A3056 RMK T00401260 IEM_DS3505
ZBAA,2000-11-07 08:00,ZBAA 070800Z AUTO 31012G21KT 6SM 04/M26 A3056 RMK T00401260 IEM_DS3505
ZBAA,2000-11-07 09:00,ZBAA 070900Z AUTO 32008KT 12SM 03/M26 A3056 RMK SLP352 T00281256 57004 IEM_DS3505
ZBAA,2000-11-07 10:00,ZBAA 071000Z AUTO 35002KT 6SM 01/M22 A3059 RMK T00101220 IEM_DS3505
ZBAA,2000-11-07 11:00,ZBAA 071100Z AUTO 35006KT 6SM 00/M20 A3059 RMK T00001200 IEM_DS3505
ZBAA,2000-11-07 12:00,ZBAA 071200Z AUTO 32004KT 19SM 02/M25 A3062 RMK SLP364 T00231250 52012 IEM_DS3505
ZBAA,2000-11-07 13:00,ZBAA 071300Z AUTO 36004KT 6SM 00/M17 A3062 RMK T00001170 IEM_DS3505
ZBAA,2000-11-07 14:00,ZBAA 071400Z AUTO 36006KT 6SM M01/M18 A3062 RMK T10101180 IEM_DS3505
ZBAA,2000-11-07 15:00,ZBAA 071500Z AUTO 04002KT 12SM 01/M23 A3062 RMK SLP368 T00081228 52004 IEM_DS3505
ZBAA,2000-11-07 16:00,ZBAA 071600Z AUTO 34002KT 5SM RMK IEM_DS3505
ZBAA,2000-11-07 17:00,ZBAA 071700Z AUTO 03006KT 6SM M01/M16 A3062 RMK T10101160 IEM_DS3505
ZBAA,2000-11-07 18:00,ZBAA 071800Z AUTO 03002KT 9SM M00/M21 A3062 RMK SLP364 T10041211 57004 IEM_DS3505
ZBAA,2000-11-07 19:00,ZBAA 071900Z AUTO 02006KT 6SM M01/M20 A3059 RMK T10101200 IEM_DS3505
ZBAA,2000-11-07 20:00,ZBAA 072000Z AUTO 01002KT 6SM M02/M21 A3056 RMK T10201210 IEM_DS3505
ZBAA,2000-11-07 21:00,ZBAA 072100Z AUTO 03002KT 19SM M02/M22 RMK SLP345 T10161215 57019 IEM_DS3505
ZBAA,2000-11-07 22:00,ZBAA 072200Z AUTO 02006KT 6SM M02/M21 A3056 RMK T10201210 IEM_DS3505
ZBAA,2000-11-07 23:00,ZBAA 072300Z AUTO 02008KT 6SM M02/M20 A3056 RMK T10201200 IEM_DS3505
ZBAA,2000-11-08 00:00,ZBAA 080000Z AUTO 03004KT 12SM M01/M24 RMK SLP345 T10101242 54000 IEM_DS3505
ZBAA,2000-11-08 01:00,ZBAA 080100Z AUTO 02008KT 6SM M01/M20 A3056 RMK T10101200 IEM_DS3505
ZBAA,2000-11-08 02:00,ZBAA 080200Z AUTO 02006KT 6SM 00/M20 A3056 RMK T00001200 IEM_DS3505
ZBAA,2000-11-08 04:00,ZBAA 080400Z AUTO 6SM 01/M21 A3050 RMK T00101210 IEM_DS3505
ZBAA,2000-11-08 05:00,ZBAA 080500Z AUTO 16006KT 6SM 01/M16 A3047 RMK T00101160 IEM_DS3505
ZBAA,2000-11-08 06:00,ZBAA 080600Z AUTO 23002KT 12SM M00/M10 A3045 RMK 60003 SLP311 T10031102 57030 IEM_DS3505
ZBAA,2000-11-08 07:00,ZBAA 080700Z AUTO 19008KT 6SM 00/M10 A3045 RMK T00001100 IEM_DS3505
ZBAA,2000-11-08 08:00,ZBAA 080800Z AUTO 17006KT 6SM 00/M10 A3042 RMK T00001100 IEM_DS3505
ZBAA,2000-11-08 09:00,ZBAA 080900Z AUTO 12004KT 12SM 00/M11 A3042 RMK SLP295 T00011112 57016 IEM_DS3505
ZBAA,2000-11-08 10:00,ZBAA 081000Z AUTO 12004KT 6SM 00/M09 A3042 RMK T00001090 IEM_DS3505
ZBAA,2000-11-08 11:00,ZBAA 081100Z AUTO 11004KT 6SM 00/M09 A3039 RMK T00001090 IEM_DS3505
ZBAA,2000-11-08 12:00,ZBAA 081200Z AUTO 11004KT 12SM M00/M11 A3039 RMK SLP291 T10011114 57004 IEM_DS3505
ZBAA,2000-11-08 13:00,ZBAA 081300Z AUTO 09002KT 6SM 00/M09 A3039 RMK T00001090 IEM_DS3505
ZBAA,2000-11-08 14:00,ZBAA 081400Z AUTO 08004KT 6SM 00/M08 A3039 RMK T00001080 IEM_DS3505
ZBAA,2000-11-08 15:00,ZBAA 081500Z AUTO 08002KT 12SM 00/M10 A3036 RMK SLP278 T00021095 57013 IEM_DS3505
ZBAA,2000-11-08 16:00,ZBAA 081600Z AUTO 07002KT 6SM 00/M07 A3036 RMK T00001070 IEM_DS3505
ZBAA,2000-11-08 17:00,ZBAA 081700Z AUTO 04002KT 6SM 00/M07 A3036 RMK T00001070 IEM_DS3505
ZBAA,2000-11-08 18:00,ZBAA 081800Z AUTO 06004KT 7SM M00/M10 A3036 RMK SLP273 T10011097 57005 IEM_DS3505
ZBAA,2000-11-08 19:00,ZBAA 081900Z AUTO 01002KT 5SM 00/M07 A3033 RMK T00001070 IEM_DS3505
ZBAA,2000-11-08 20:00,ZBAA 082000Z AUTO 36002KT 5SM 00/M08 A3033 RMK T00001080 IEM_DS3505
ZBAA,2000-11-08 21:00,ZBAA 082100Z AUTO 01002KT 7SM M00/M09 A3033 RMK 70003 SLP271 T10011087 57002 IEM_DS3505
ZBAA,2000-11-08 22:00,ZBAA 082200Z AUTO 36004KT 6SM 00/M05 A3036 RMK T00001050 IEM_DS3505
ZBAA,2000-11-08 23:00,ZBAA 082300Z AUTO 01006KT 4SM M01/M04 A3036 RMK T10101040 IEM_DS3505
ZBAA,2000-11-09 00:00,ZBAA 090000Z AUTO 06004KT 6SM 00/M07 A3039 RMK 70003 SLP288 T00011071 52017 IEM_DS3505
ZBAA,2000-11-09 01:00,ZBAA 090100Z AUTO 01008KT 4SM M01/M03 A3042 RMK T10101030 IEM_DS3505
ZBAA,2000-11-09 02:00,ZBAA 090200Z AUTO 5SM 00/M04 A3042 RMK T00001040 IEM_DS3505
ZBAA,2000-11-09 03:00,ZBAA 090300Z AUTO 04008KT 6SM 00/M06 A3045 RMK SLP302 T00051063 52014 IEM_DS3505
ZBAA,2000-11-09 04:00,ZBAA 090400Z AUTO 02008KT 5SM 01/M02 A3042 RMK T00101020 IEM_DS3505
ZBAA,2000-11-09 05:00,ZBAA 090500Z AUTO 02008KT 7SM 01/M02 A3042 RMK T00101020 IEM_DS3505
ZBAA,2000-11-09 07:00,ZBAA 090700Z AUTO 01014KT 6SM 02/M03 A3042 RMK T00201030 IEM_DS3505
ZBAA,2000-11-09 08:00,ZBAA 090800Z AUTO 02012KT 7SM 01/M02 A3045 RMK T00101020 IEM_DS3505
ZBAA,2000-11-09 09:00,ZBAA 090900Z AUTO 05008KT 4SM 01/M05 A3045 RMK SLP309 T00101046 IEM_DS3505
ZBAA,2000-11-09 10:00,ZBAA 091000Z AUTO 02010KT 7SM 01/M04 A3047 RMK T00101040 IEM_DS3505
ZBAA,2000-11-09 11:00,ZBAA 091100Z AUTO 01006KT 7SM 01/M05 A3050 RMK T00101050 IEM_DS3505
ZBAA,2000-11-09 12:00,ZBAA 091200Z AUTO 01004KT 12SM 01/M07 A3053 RMK 60003 SLP335 T00111071 52026 IEM_DS3505
ZBAA,2000-11-09 13:00,ZBAA 091300Z AUTO 36006KT 7SM 00/M05 A3056 RMK T00001050 IEM_DS3505
ZBAA,2000-11-09 14:00,ZBAA 091400Z AUTO 32010KT 6SM 01/M10 A3056 RMK T00101100 IEM_DS3505
ZBAA,2000-11-09 15:00,ZBAA 091500Z AUTO 33008KT 19SM 01/M15 A3059 RMK SLP355 T00101150 52020 IEM_DS3505
ZBAA,2000-11-09 16:00,ZBAA 091600Z AUTO 34008KT 6SM M01/M10 A3059 RMK T10101100 IEM_DS3505
ZBAA,2000-11-09 17:00,ZBAA 091700Z AUTO 34012KT 6SM 00/M14 A3062 RMK T00001140 IEM_DS3505
ZBAA,2000-11-09 18:00,ZBAA 091800Z AUTO 34010G25KT 9SM M00/M16 A3062 RMK SLP368 T10011159 52013 IEM_DS3505
ZBAA,2000-11-09 19:00,ZBAA 091900Z AUTO 32016G25KT 6SM 00/M15 A3062 RMK T00001150 IEM_DS3505
ZBAA,2000-11-09 20:00,ZBAA 092000Z AUTO 32016G25KT 6SM M01/M16 A3062 RMK T10101160 IEM_DS3505
ZBAA,2000-11-09 21:00,ZBAA 092100Z AUTO 33008KT 9SM M01/M17 A3062 RMK 70003 SLP371 T10071173 52003 IEM_DS3505
ZBAA,2000-11-09 22:00,ZBAA 092200Z AUTO 32021G31KT 6SM M01/M18 A3062 RMK T10101180 IEM_DS3505
ZBAA,2000-11-09 23:00,ZBAA 092300Z AUTO 31017G29KT 6SM M02/M20 A3065 RMK T10201200 IEM_DS3505
ZBAA,2000-11-10 00:00,ZBAA 100000Z AUTO 32006KT 12SM M01/M20 A3068 RMK 70003 SLP394 T10111200 52023 IEM_DS3505
ZBAA,2000-11-10 01:00,ZBAA 100100Z AUTO 32023G35KT 6SM 00/M21 A3071 RMK T00001210 IEM_DS3505
ZBAA,2000-11-10 02:00,ZBAA 100200Z AUTO 31016G25KT 6SM 01/M20 A3071 RMK T00101200 IEM_DS3505
ZBAA,2000-11-10 03:00,ZBAA 100300Z AUTO 31010KT 19SM 01/M22 A3071 RMK SLP395 T00141215 52001 IEM_DS3505
ZBAA,2000-11-10 04:00,ZBAA 100400Z AUTO 31014KT 6SM 02/M19 A3065 RMK T00201190 IEM_DS3505
ZBAA,2000-11-10 05:00,ZBAA 100500Z AUTO 30014G23KT 6SM 03/M19 A3062 RMK T00301190 IEM_DS3505
ZBAA,2000-11-10 06:00,ZBAA 100600Z AUTO 34006KT 19SM 04/M23 A3059 RMK SLP367 T00371229 57028 IEM_DS3505
ZBAA,2000-11-10 07:00,ZBAA 100700Z AUTO 30012G21KT 6SM 03/M20 A3059 RMK T00301200 IEM_DS3505
ZBAA,2000-11-10 08:00,ZBAA 100800Z AUTO 30014KT 6SM 03/M20 A3059 RMK T00301200 IEM_DS3505
ZBAA,2000-11-10 09:00,ZBAA 100900Z AUTO 32006KT 19SM 03/M23 A3059 RMK SLP357 T00261229 57010 IEM_DS3505
ZBAA,2000-11-10 10:00,ZBAA 101000Z AUTO 28010KT 6SM 01/M18 A3059 RMK T00101180 IEM_DS3505
ZBAA,2000-11-10 11:00,ZBAA 101100Z AUTO 30012KT 6SM 01/M19 A3059 RMK T00101190 IEM_DS3505
ZBAA,2000-11-10 12:00,ZBAA 101200Z AUTO 33002KT 6SM 01/M21 A3062 RMK SLP371 T00121210 52014 IEM_DS3505
ZBAA,2000-11-10 13:00,ZBAA 101300Z AUTO 30004KT 6SM 00/M17 A3062 RMK T00001170 IEM_DS3505
ZBAA,2000-11-10 14:00,ZBAA 101400Z AUTO 36004KT 6SM M01/M17 A3065 RMK T10101170 IEM_DS3505
ZBAA,2000-11-10 15:00,ZBAA 101500Z AUTO 00000KT 6SM M01/M18 A3062 RMK SLP364 T10071182 57007 IEM_DS3505
ZBAA,2000-11-10 16:00,ZBAA 101600Z AUTO 33008KT 6SM M01/M17 A3059 RMK T10101170 IEM_DS3505
ZBAA,2000-11-10 17:00,ZBAA 101700Z AUTO 31004KT 6SM 00/M17 A3059 RMK T00001170 IEM_DS3505
ZBAA,2000-11-10 18:00,ZBAA 101800Z AUTO 00000KT 9SM M02/M15 A3056 RMK SLP352 T10151149 57012 IEM_DS3505
ZBAA,2000-11-10 19:00,ZBAA 101900Z AUTO 26004KT 6SM M02/M15 A3056 RMK T10201150 IEM_DS3505
ZBAA,2000-11-10 20:00,ZBAA 102000Z AUTO 00000KT 6SM M03/M14 A3053 RMK T10301140 IEM_DS3505
ZBAA,2000-11-10 21:00,ZBAA 102100Z AUTO 00000KT 9SM M03/M11 A3050 RMK SLP330 T10321107 57022 IEM_DS3505
ZBAA,2000-11-10 22:00,ZBAA 102200Z AUTO 01002KT 6SM M05/M10 A3050 RMK T10501100 IEM_DS3505
ZBAA,2000-11-10 23:00,ZBAA 102300Z AUTO 01002KT 6SM M04/M14 A3047 RMK T10401140 IEM_DS3505
ZBAA,2000-11-11 00:00,ZBAA 110000Z AUTO 00000KT 2 1/2SM M04/M10 A3050 RMK SLP323 T10401104 57007 IEM_DS3505
ZBAA,2000-11-11 01:00,ZBAA 110100Z AUTO 01002KT 6SM M01/M10 A3047 RMK T10101100 IEM_DS3505
ZBAA,2000-11-11 02:00,ZBAA 110200Z AUTO 02002KT 6SM 01/M11 A3045 RMK T00101110 IEM_DS3505
ZBAA,2000-11-11 03:00,ZBAA 110300Z AUTO 23002KT 7SM 03/M11 A3042 RMK SLP304 T00311108 57018 IEM_DS3505
ZBAA,2000-11-11 04:00,ZBAA 110400Z AUTO 20006KT 6SM 04/M11 A3039 RMK T00401110 IEM_DS3505
ZBAA,2000-11-11 05:00,ZBAA 110500Z AUTO 21008KT 6SM 06/M14 A3036 RMK T00601140 IEM_DS3505
ZBAA,2000-11-11 06:00,ZBAA 110600Z AUTO 22008KT 12SM 06/M16 A3030 RMK SLP264 T00561155 57040 IEM_DS3505
ZBAA,2000-11-11 07:00,ZBAA 110700Z AUTO 19010KT 6SM 06/M15 A3027 RMK T00601150 IEM_DS3505
ZBAA,2000-11-11 08:00,ZBAA 110800Z AUTO 20008KT 6SM 05/M15 A3027 RMK T00501150 IEM_DS3505
ZBAA,2000-11-11 09:00,ZBAA 110900Z AUTO 22006KT 6SM 04/M14 A3027 RMK SLP254 T00421140 57010 IEM_DS3505
ZBAA,2000-11-11 10:00,ZBAA 111000Z AUTO 23006KT 6SM 04/M13 A3030 RMK T00401130 IEM_DS3505
ZBAA,2000-11-11 11:00,ZBAA 111100Z AUTO 25004KT 6SM 03/M12 A3030 RMK T00301120 IEM_DS3505
ZBAA,2000-11-11 12:00,ZBAA 111200Z AUTO 25006KT 6SM 02/M12 A3033 RMK SLP273 T00221116 52018 IEM_DS3505
ZBAA,2000-11-11 13:00,ZBAA 111300Z AUTO 28010KT 6SM RMK IEM_DS3505
ZBAA,2000-11-11 14:00,ZBAA 111400Z AUTO 28006KT 6SM 03/M11 A3036 RMK T00301110 IEM_DS3505
ZBAA,2000-11-11 15:00,ZBAA 111500Z AUTO 00000KT 4SM 01/M11 A3036 RMK SLP277 T00131107 52005 IEM_DS3505
ZBAA,2000-11-11 16:00,ZBAA 111600Z AUTO 28008KT 6SM 02/M11 A3036 RMK T00201110 IEM_DS3505
ZBAA,2000-11-11 17:00,ZBAA 111700Z AUTO 32004KT 6SM 01/M11 A3036 RMK T00101110 IEM_DS3505
ZBAA,2000-11-11 18:00,ZBAA 111800Z AUTO 33004KT 12SM 03/M15 A3036 RMK SLP278 T00271148 52001 IEM_DS3505
ZBAA,2000-11-11 19:00,ZBAA 111900Z AUTO 32010KT 6SM M01/M13 A3036 RMK T10101130 IEM_DS3505
ZBAA,2000-11-11 20:00,ZBAA 112000Z AUTO 31006KT 6SM 00/M14 A3036 RMK T00001140 IEM_DS3505
ZBAA,2000-11-11 21:00,ZBAA 112100Z AUTO 35002KT 12SM 00/M15 A3036 RMK SLP279 T00051146 52001 IEM_DS3505
ZBAA,2000-11-11 22:00,ZBAA 112200Z AUTO 32008KT 6SM M01/M14 A3036 RMK T10101140 IEM_DS3505
ZBAA,2000-11-11 23:00,ZBAA 112300Z AUTO 32004KT 6SM M01/M14 A3039 RMK T10101140 IEM_DS3505
ZBAA,2000-11-12 00:00,ZBAA 120000Z AUTO 08004KT 6SM M01/M11 A3039 RMK SLP288 T10071111 52008 IEM_DS3505
ZBAA,2000-11-12 01:00,ZBAA 120100Z AUTO 32006KT 6SM 03/M14 A3039 RMK T00301140 IEM_DS3505
ZBAA,2000-11-12 02:00,ZBAA 120200Z AUTO 30008KT 6SM 04/M14 A3039 RMK T00401140 IEM_DS3505
ZBAA,2000-11-12 03:00,ZBAA 120300Z AUTO 18002KT 9SM 06/M14 A3036 RMK SLP278 T00621144 57009 IEM_DS3505
ZBAA,2000-11-12 04:00,ZBAA 120400Z AUTO 30014KT 6SM 07/M16 A3033 RMK T00701160 IEM_DS3505
ZBAA,2000-11-12 05:00,ZBAA 120500Z AUTO 29010KT 6SM 08/M15 A3027 RMK T00801150 IEM_DS3505
ZBAA,2000-11-12 06:00,ZBAA 120600Z AUTO 22008G16KT 19SM 07/M15 A3027 RMK SLP250 T00721154 57028 IEM_DS3505
ZBAA,2000-11-12 07:00,ZBAA 120700Z AUTO 20008KT 6SM 08/M14 A3024 RMK T00801140 IEM_DS3505
ZBAA,2000-11-12 08:00,ZBAA 120800Z AUTO 19010KT 6SM 07/M14 A3024 RMK T00701140 IEM_DS3505
ZBAA,2000-11-12 09:00,ZBAA 120900Z AUTO 21004KT 6SM 06/M14 A3024 RMK SLP242 T00561138 57008 IEM_DS3505
ZBAA,2000-11-12 10:00,ZBAA 121000Z AUTO 20006KT 6SM 04/M13 A3024 RMK T00401130 IEM_DS3505
ZBAA,2000-11-12 11:00,ZBAA 121100Z AUTO 20008KT 5SM 05/M11 A3024 RMK T00501110 IEM_DS3505
ZBAA,2000-11-12 12:00,ZBAA 121200Z AUTO 18002KT 6SM 02/M11 A3024 RMK SLP245 T00251106 52003 IEM_DS3505
ZBAA,2000-11-12 13:00,ZBAA 121300Z AUTO 14002KT 02/M09 A3027 RMK T00201090 IEM_DS3505
ZBAA,2000-11-12 14:00,ZBAA 121400Z AUTO 18006KT 02/M08 A3027 RMK T00201080 IEM_DS3505
ZBAA,2000-11-12 15:00,ZBAA 121500Z AUTO 19002KT 6SM 01/M10 A3027 RMK SLP248 T00071095 52003 IEM_DS3505
ZBAA,2000-11-12 16:00,ZBAA 121600Z AUTO 06002KT 2 1/2SM M02/M06 A3027 RMK T10201060 IEM_DS3505
ZBAA,2000-11-12 17:00,ZBAA 121700Z AUTO 04002KT 2 1/2SM M02/M06 A3027 RMK T10201060 IEM_DS3505
ZBAA,2000-11-12 18:00,ZBAA 121800Z AUTO 00000KT 6SM M02/M08 A3027 RMK SLP241 T10181085 57007 IEM_DS3505
ZBAA,2000-11-12 19:00,ZBAA 121900Z AUTO 01002KT 2SM M04/M07 A3024 RMK T10401070 IEM_DS3505
ZBAA,2000-11-12 20:00,ZBAA 122000Z AUTO 35002KT 2SM M03/M08 A3024 RMK T10301080 IEM_DS3505
ZBAA,2000-11-12 21:00,ZBAA 122100Z AUTO 05002KT 5SM M03/M07 A3024 RMK SLP232 T10261073 57009 IEM_DS3505
ZBAA,2000-11-12 22:00,ZBAA 122200Z AUTO 00000KT 2SM M04/M08 A3024 RMK T10401080 IEM_DS3505
ZBAA,2000-11-12 23:00,ZBAA 122300Z AUTO 09002KT 2SM M04/M07 A3024 RMK T10401070 IEM_DS3505
ZBAA,2000-11-13 00:00,ZBAA 130000Z AUTO 00000KT 3SM M01/M08 A3027 RMK SLP242 T10141077 52010 IEM_DS3505
ZBAA,2000-11-13 01:00,ZBAA 130100Z AUTO 35002KT 2SM M01/M06 A3027 RMK T10101060 IEM_DS3505
ZBAA,2000-11-13 02:00,ZBAA 130200Z AUTO 01004KT 2SM 01/M05 A3027 RMK T00101050 IEM_DS3505
ZBAA,2000-11-13 03:00,ZBAA 130300Z AUTO 07004KT 6SM 05/M07 A3024 RMK SLP241 T00511070 57001 IEM_DS3505
ZBAA,2000-11-13 04:00,ZBAA 130400Z AUTO 10004KT 2 1/2SM 05/M04 A3021 RMK T00501040 IEM_DS3505
ZBAA,2000-11-13 05:00,ZBAA 130500Z AUTO 11004KT 2 1/2SM 07/M05 A3018 RMK T00701050 IEM_DS3505
ZBAA,2000-11-13 06:00,ZBAA 130600Z AUTO 13004KT 6SM 08/M08 A3018 RMK SLP219 T00751077 57022 IEM_DS3505
ZBAA,2000-11-13 07:00,ZBAA 130700Z AUTO 16006KT 2 1/2SM 08/M06 A3018 RMK T00801060 IEM_DS3505
ZBAA,2000-11-13 08:00,ZBAA 130800Z AUTO 14004KT 2 1/2SM 08/M05 A3015 RMK T00801050 IEM_DS3505
ZBAA,2000-11-13 09:00,ZBAA 130900Z AUTO 00000KT 6SM 06/M05 A3018 RMK SLP220 T00551049 52001 IEM_DS3505
ZBAA,2000-11-13 10:00,ZBAA 131000Z AUTO 14004KT 2SM 03/M03 A3021 RMK T00301030 IEM_DS3505
ZBAA,2000-11-13 11:00,ZBAA 131100Z AUTO 12002KT 1 1/2SM 03/M03 A3021 RMK T00301030 IEM_DS3505
ZBAA,2000-11-13 12:00,ZBAA 131200Z AUTO 00000KT 2 1/2SM 02/M05 A3024 RMK SLP236 T00171048 52016 IEM_DS3505
ZBAA,2000-11-13 14:00,ZBAA 131400Z AUTO 35002KT 1 1/4SM 00/M03 A3024 RMK T00001030 IEM_DS3505
ZBAA,2000-11-13 16:00,ZBAA 131600Z AUTO 35002KT 1SM 00/M04 A3027 RMK T00001040 IEM_DS3505
ZBAA,2000-11-13 17:00,ZBAA 131700Z AUTO 31002KT 1SM 00/M04 A3027 RMK T00001040 IEM_DS3505
ZBAA,2000-11-13 18:00,ZBAA 131800Z AUTO 33004KT 1 1/4SM M02/M05 A3030 RMK T10201050 IEM_DS3505
ZBAA,2000-11-13 19:00,ZBAA 131900Z AUTO 35004KT 1 1/4SM M02/M05 A3030 RMK T10201050 IEM_DS3505
ZBAA,2000-11-13 20:00,ZBAA 132000Z AUTO 35004KT 1 1/4SM M02/M06 A3030 RMK T10201060 IEM_DS3505
ZBAA,2000-11-13 21:00,ZBAA 132100Z AUTO 00000KT 2SM M02/M05 A3030 RMK SLP258 T10201051 52002 IEM_DS3505
ZBAA,2000-11-13 22:00,ZBAA 132200Z AUTO 34006KT 1 1/4SM M03/M05 A3030 RMK T10301050 IEM_DS3505
ZBAA,2000-11-13 23:00,ZBAA 132300Z AUTO 33004KT 1 1/4SM M04/M06 A3033 RMK T10401060 IEM_DS3505
ZBAA,2000-11-14 00:00,ZBAA 140000Z AUTO 00000KT 2SM 00/M05 A3036 RMK SLP275 T00011053 52017 IEM_DS3505
ZBAA,2000-11-14 01:00,ZBAA 140100Z AUTO 36004KT 1 1/2SM 00/M02 A3036 RMK T00001020 IEM_DS3505
ZBAA,2000-11-14 02:00,ZBAA 140200Z AUTO 35004KT 2SM 03/M01 A3036 RMK T00301010 IEM_DS3505
ZBAA,2000-11-14 03:00,ZBAA 140300Z AUTO 05002KT 2 1/2SM 06/M05 A3036 RMK SLP282 T00611049 52007 IEM_DS3505
ZBAA,2000-11-14 04:00,ZBAA 140400Z AUTO 01004KT 3SM 09/M05 A3036 RMK T00901050 IEM_DS3505
ZBAA,2000-11-14 05:00,ZBAA 140500Z AUTO 04002KT 11/M06 A3033 RMK T01101060 IEM_DS3505
ZBAA,2000-11-14 06:00,ZBAA 140600Z AUTO 20002KT 3SM 10/M06 A3033 RMK SLP270 T00971065 57012 IEM_DS3505
ZBAA,2000-11-14 07:00,ZBAA 140700Z AUTO 17004KT 3SM 12/M04 A3033 RMK T01201040 IEM_DS3505
ZBAA,2000-11-14 08:00,ZBAA 140800Z AUTO 21006KT 2 1/2SM 11/M04 A3033 RMK T01101040 IEM_DS3505
ZBAA,2000-11-14 09:00,ZBAA 140900Z AUTO 25004KT 2SM 07/M05 A3033 RMK SLP276 T00741053 52006 IEM_DS3505
ZBAA,2000-11-14 10:00,ZBAA 141000Z AUTO 18002KT 1 1/2SM 06/M04 A3036 RMK T00601040 IEM_DS3505
ZBAA,2000-11-14 11:00,ZBAA 141100Z AUTO 03002KT 1 1/2SM 03/M03 A3039 RMK T00301030 IEM_DS3505
ZBAA,2000-11-14 12:00,ZBAA 141200Z AUTO 24002KT 2 1/2SM 03/M06 A3042 RMK SLP299 T00321057 52023 IEM_DS3505
ZBAA,2000-11-14 13:00,ZBAA 141300Z AUTO 00000KT 1 1/4SM 02/M04 A3045 RMK T00201040 IEM_DS3505
ZBAA,2000-11-14 14:00,ZBAA 141400Z AUTO 1 1/4SM 01/M03 A3047 RMK T00101030 IEM_DS3505
ZBAA,2000-11-14 15:00,ZBAA 141500Z AUTO 32010KT 12SM 08/M14 A3050 RMK SLP326 T00791136 52027 IEM_DS3505
ZBAA,2000-11-14 16:00,ZBAA 141600Z AUTO 34004KT 03/M07 A3053 RMK T00301070 IEM_DS3505
ZBAA,2000-11-14 17:00,ZBAA 141700Z AUTO 01006KT 6SM 04/M09 A3056 RMK T00401090 IEM_DS3505
ZBAA,2000-11-14 18:00,ZBAA 141800Z AUTO 00000KT 19SM 05/M16 A3059 RMK SLP351 T00511159 52025 IEM_DS3505
ZBAA,2000-11-14 19:00,ZBAA 141900Z AUTO 01014KT 6SM 04/M13 A3059 RMK T00401130 IEM_DS3505
ZBAA,2000-11-14 20:00,ZBAA 142000Z AUTO 02008KT 6SM 02/M13 A3062 RMK T00201130 IEM_DS3505
ZBAA,2000-11-14 21:00,ZBAA 142100Z AUTO 06004KT 19SM 02/M16 A3065 RMK SLP374 T00221162 52023 IEM_DS3505
ZBAA,2000-11-14 22:00,ZBAA 142200Z AUTO 01012KT 6SM 02/M16 A3065 RMK T00201160 IEM_DS3505
ZBAA,2000-11-14 23:00,ZBAA 142300Z AUTO 02008KT 6SM 01/M16 A3068 RMK T00101160 IEM_DS3505
ZBAA,2000-11-15 00:00,ZBAA 150000Z AUTO 04012KT 12SM 02/M21 A3071 RMK SLP397 T00201211 52022 IEM_DS3505
ZBAA,2000-11-15 01:00,ZBAA 150100Z AUTO 01012G21KT 6SM 02/M19 A3074 RMK T00201190 IEM_DS3505
ZBAA,2000-11-15 02:00,ZBAA 150200Z AUTO 02014KT 6SM 03/M21 A3074 RMK T00301210 IEM_DS3505
ZBAA,2000-11-15 03:00,ZBAA 150300Z AUTO 04010KT 19SM 03/M22 A3074 RMK SLP403 T00331215 52006 IEM_DS3505
ZBAA,2000-11-15 04:00,ZBAA 150400Z AUTO 36014KT 6SM 04/M20 A3071 RMK T00401200 IEM_DS3505
ZBAA,2000-11-15 05:00,ZBAA 150500Z AUTO 36010KT 6SM 05/M20 A3068 RMK T00501200 IEM_DS3505
ZBAA,2000-11-15 06:00,ZBAA 150600Z AUTO 02006KT 19SM 05/M23 A3068 RMK SLP381 T00521227 57021 IEM_DS3505
ZBAA,2000-11-15 07:00,ZBAA 150700Z AUTO 05004KT 6SM 06/M20 A3065 RMK T00601200 IEM_DS3505
ZBAA,2000-11-15 08:00,ZBAA 150800Z AUTO 07002KT 6SM 05/M20 A3065 RMK T00501200 IEM_DS3505
ZBAA,2000-11-15 09:00,ZBAA 150900Z AUTO 13002KT 12SM 03/M17 A3065 RMK SLP377 T00331168 57005 IEM_DS3505
ZBAA,2000-11-15 10:00,ZBAA 151000Z AUTO 09002KT 6SM 03/M15 A3065 RMK T00301150 IEM_DS3505
ZBAA,2000-11-15 11:00,ZBAA 151100Z AUTO 15002KT 6SM 02/M14 A3065 RMK T00201140 IEM_DS3505
ZBAA,2000-11-15 12:00,ZBAA 151200Z AUTO 14002KT 6SM 03/M14 A3065 RMK SLP382 T00261144 52005 IEM_DS3505
ZBAA,2000-11-15 13:00,ZBAA 151300Z AUTO 10002KT 6SM 02/M13 A3065 RMK T00201130 IEM_DS3505
ZBAA,2000-11-15 14:00,ZBAA 151400Z AUTO 14004KT 6SM 02/M11 A3065 RMK T00201110 IEM_DS3505
ZBAA,2000-11-15 15:00,ZBAA 151500Z AUTO 17002KT 6SM 02/M12 A3065 RMK SLP378 T00191122 57004 IEM_DS3505
ZBAA,2000-11-15 16:00,ZBAA 151600Z AUTO 16004KT 6SM 01/M10 A3065 RMK T00101100 IEM_DS3505
ZBAA,2000-11-15 17:00,ZBAA 151700Z AUTO 14004KT 6SM 01/M10 A3062 RMK T00101100 IEM_DS3505
ZBAA,2000-11-15 18:00,ZBAA 151800Z AUTO 24004KT 3SM M01/M03 A3062 RMK 60001 SLP371 T10111033 57007 IEM_DS3505
ZBAA,2000-11-15 19:00,ZBAA 151900Z AUTO 20010KT 5SM M01/M03 A3062 RMK T10101030 IEM_DS3505
ZBAA,2000-11-15 20:00,ZBAA 152000Z AUTO 16004KT 4SM M01/M02 A3059 RMK T10101020 IEM_DS3505
ZBAA,2000-11-15 21:00,ZBAA 152100Z AUTO 15002KT 5SM M02/M03 A3056 RMK 70006 SLP348 T10161032 57023 IEM_DS3505
ZBAA,2000-11-15 22:00,ZBAA 152200Z AUTO 13004KT 2 1/2SM M02/M02 A3056 RMK T10201020 IEM_DS3505
ZBAA,2000-11-15 23:00,ZBAA 152300Z AUTO 13004KT 2SM M02/M02 A3053 RMK T10201020 IEM_DS3505
ZBAA,2000-11-16 00:00,ZBAA 160000Z AUTO 21004KT 3SM M01/M03 A3053 RMK 60004 SLP346 T10131029 57002 IEM_DS3505
ZBAA,2000-11-16 01:00,ZBAA 160100Z AUTO 14004KT 2SM M01/M01 A3053 RMK T10101010 IEM_DS3505
ZBAA,2000-11-16 02:00,ZBAA 160200Z AUTO 14004KT 1SM M01/M01 A3053 RMK T10101010 IEM_DS3505
ZBAA,2000-11-16 03:00,ZBAA 160300Z AUTO 17004KT 4SM M01/M02 A3050 RMK SLP326 T10071024 57019 IEM_DS3505
ZBAA,2000-11-16 04:00,ZBAA 160400Z AUTO 16006KT 1 1/2SM M01/M01 A3047 RMK T10101010 IEM_DS3505
ZBAA,2000-11-16 05:00,ZBAA 160500Z AUTO 15004KT 2SM M01/M01 A3045 RMK T10101010 IEM_DS3505
ZBAA,2000-11-16 06:00,ZBAA 160600Z AUTO 19004KT 5SM 00/M02 A3042 RMK 60000 SLP296 T00021022 57031 IEM_DS3505
ZBAA,2000-11-16 07:00,ZBAA 160700Z AUTO 15006KT 2SM 00/M01 A3039 RMK T00001010 IEM_DS3505
ZBAA,2000-11-16 08:00,ZBAA 160800Z AUTO 14004KT 2SM 00/00 A3039 RMK T00000000 IEM_DS3505
ZBAA,2000-11-16 09:00,ZBAA 160900Z AUTO 06002KT 4SM 01/M02 A3039 RMK SLP289 T00091015 57007 IEM_DS3505
ZBAA,2000-11-16 10:00,ZBAA 161000Z AUTO 07002KT 1 1/2SM 00/00 A3042 RMK T00000000 IEM_DS3505
ZBAA,2000-11-16 11:00,ZBAA 161100Z AUTO 04002KT 1 1/2SM 00/00 A3042 RMK T00000000 IEM_DS3505
ZBAA,2000-11-16 12:00,ZBAA 161200Z AUTO 05002KT 2 1/2SM 01/M01 A3042 RMK 60003 SLP293 T00101012 52004 IEM_DS3505
ZBAA,2000-11-16 13:00,ZBAA 161300Z AUTO 00000KT 1 1/4SM 00/00 A3042 RMK T00000000 IEM_DS3505
ZBAA,2000-11-16 14:00,ZBAA 161400Z AUTO 05002KT 1SM 00/00 A3039 RMK T00000000 IEM_DS3505
ZBAA,2000-11-16 15:00,ZBAA 161500Z AUTO 04002KT 2SM 00/M02 A3039 RMK SLP289 T00051016 57004 IEM_DS3505
ZBAA,2000-11-16 16:00,ZBAA 161600Z AUTO 35002KT 1SM 00/00 A3039 RMK T00000000 IEM_DS3505
ZBAA,2000-11-16 17:00,ZBAA 161700Z AUTO 35004KT 1SM M01/M01 A3039 RMK T10101010 IEM_DS3505
ZBAA,2000-11-16 18:00,ZBAA 161800Z AUTO 07002KT 1 1/4SM M01/M02 A3039 RMK SLP284 T10081025 57005 IEM_DS3505
ZBAA,2000-11-16 19:00,ZBAA 161900Z AUTO 01002KT 1SM M02/M02 A3039 RMK T10201020 IEM_DS3505
ZBAA,2000-11-16 20:00,ZBAA 162000Z AUTO 28004KT 1SM M02/M02 A3039 RMK T10201020 IEM_DS3505
ZBAA,2000-11-16 21:00,ZBAA 162100Z AUTO 00000KT 1/4SM M02/M03 A3039 RMK 70002 SLP288 T10181032 52004 IEM_DS3505
ZBAA,2000-11-16 22:00,ZBAA 162200Z AUTO 31006KT 1/8SM M03/M03 A3039 RMK T10301030 IEM_DS3505
ZBAA,2000-11-16 23:00,ZBAA 162300Z AUTO 34002KT 1/8SM M04/M04 A3042 RMK T10401040 IEM_DS3505
ZBAA,2000-11-17 00:00,ZBAA 170000Z AUTO 31008KT 2 1/2SM M01/M02 A3045 RMK 70001 SLP308 T10101024 52020 IEM_DS3505
ZBAA,2000-11-17 01:00,ZBAA 170100Z AUTO 35004KT 3SM M02/M02 A3047 RMK T10201020 IEM_DS3505
ZBAA,2000-11-17 02:00,ZBAA 170200Z AUTO 31008KT 6SM 03/M05 A3047 RMK T00301050 IEM_DS3505
ZBAA,2000-11-17 03:00,ZBAA 170300Z AUTO 34008KT 19SM 05/M12 A3047 RMK SLP320 T00471117 52013 IEM_DS3505
ZBAA,2000-11-17 04:00,ZBAA 170400Z AUTO 30010KT 6SM 04/M09 A3047 RMK T00401090 IEM_DS3505
ZBAA,2000-11-17 05:00,ZBAA 170500Z AUTO 31006KT 6SM 05/M10 A3045 RMK T00501100 IEM_DS3505
ZBAA,2000-11-17 06:00,ZBAA 170600Z AUTO 33006G21KT 19SM 06/M14 A3042 RMK SLP302 T00591136 57018 IEM_DS3505
ZBAA,2000-11-17 07:00,ZBAA 170700Z AUTO 28012KT 6SM 05/M11 A3042 RMK T00501110 IEM_DS3505
ZBAA,2000-11-17 08:00,ZBAA 170800Z AUTO 29010KT 6SM 05/M12 A3042 RMK T00501120 IEM_DS3505
ZBAA,2000-11-17 09:00,ZBAA 170900Z AUTO 07002KT 16SM 04/M13 A3045 RMK SLP303 T00431134 52001 IEM_DS3505
ZBAA,2000-11-17 10:00,ZBAA 171000Z AUTO 30010KT 6SM 04/M12 A3045 RMK T00401120 IEM_DS3505
ZBAA,2000-11-17 11:00,ZBAA 171100Z AUTO 32010KT 6SM 03/M12 A3045 RMK T00301120 IEM_DS3505
ZBAA,2000-11-17 12:00,ZBAA 171200Z AUTO 00000KT 6SM 01/M11 A3047 RMK SLP316 T00111106 52012 IEM_DS3505
ZBAA,2000-11-17 13:00,ZBAA 171300Z AUTO 33004KT 6SM 00/M11 A3047 RMK T00001110 IEM_DS3505
ZBAA,2000-11-17 14:00,ZBAA 171400Z AUTO 03002KT 6SM M01/M09 A3047 RMK T10101090 IEM_DS3505
ZBAA,2000-11-17 15:00,ZBAA 171500Z AUTO 00000KT 6SM M00/M08 A3047 RMK SLP320 T10031082 52004 IEM_DS3505
ZBAA,2000-11-17 16:00,ZBAA 171600Z AUTO 29002KT 00/M09 A3047 RMK T00001090 IEM_DS3505
ZBAA,2000-11-17 17:00,ZBAA 171700Z AUTO 34004KT M02/M08 A3050 RMK T10201080 IEM_DS3505
ZBAA,2000-11-17 18:00,ZBAA 171800Z AUTO 21002KT 4SM M01/M08 A3050 RMK SLP327 T10091079 52008 IEM_DS3505
ZBAA,2000-11-17 19:00,ZBAA 171900Z AUTO 35002KT 4SM M03/M08 A3050 RMK T10301080 IEM_DS3505
ZBAA,2000-11-17 20:00,ZBAA 172000Z AUTO 00000KT 4SM M03/M08 A3050 RMK T10301080 IEM_DS3505
ZBAA,2000-11-17 21:00,ZBAA 172100Z AUTO 05002KT 6SM 00/M08 A3047 RMK SLP317 T00001077 57010 IEM_DS3505
ZBAA,2000-11-17 22:00,ZBAA 172200Z AUTO 34002KT 4SM M04/M07 A3047 RMK T10401070 IEM_DS3505
ZBAA,2000-11-17 23:00,ZBAA 172300Z AUTO 34004KT 5SM M04/M08 A3050 RMK T10401080 IEM_DS3505
ZBAA,2000-11-18 00:00,ZBAA 180000Z AUTO 04002KT 5SM M01/M08 A3050 RMK SLP332 T10071077 52014 IEM_DS3505
ZBAA,2000-11-18 01:00,ZBAA 180100Z AUTO 00000KT 5SM M02/M06 A3050 RMK T10201060 IEM_DS3505
ZBAA,2000-11-18 02:00,ZBAA 180200Z AUTO 01002KT 5SM M01/M06 A3053 RMK T10101060 IEM_DS3505
ZBAA,2000-11-18 03:00,ZBAA 180300Z AUTO 08002KT 6SM 01/M08 A3053 RMK SLP337 T00111079 52005 IEM_DS3505
ZBAA,2000-11-18 04:00,ZBAA 180400Z AUTO 07004KT 01/M06 A3050 RMK T00101060 IEM_DS3505
ZBAA,2000-11-18 05:00,ZBAA 180500Z AUTO 09004KT 02/M06 A3047 RMK T00201060 IEM_DS3505
ZBAA,2000-11-18 06:00,ZBAA 180600Z AUTO 03002KT 5SM 05/M05 A3047 RMK SLP309 T00471051 57027 IEM_DS3505
ZBAA,2000-11-18 07:00,ZBAA 180700Z AUTO 03002KT 03/M05 A3045 RMK T00301050 IEM_DS3505
ZBAA,2000-11-18 08:00,ZBAA 180800Z AUTO 02002KT 03/M05 A3045 RMK T00301050 IEM_DS3505
ZBAA,2000-11-18 09:00,ZBAA 180900Z AUTO 07002KT 5SM 04/M04 A3042 RMK SLP299 T00381041 57010 IEM_DS3505
ZBAA,2000-11-18 10:00,ZBAA 181000Z AUTO 01004KT 01/M06 A3042 RMK T00101060 IEM_DS3505
ZBAA,2000-11-18 11:00,ZBAA 181100Z AUTO 35004KT 00/M06 A3042 RMK T00001060 IEM_DS3505
ZBAA,2000-11-18 12:00,ZBAA 181200Z AUTO 05002KT 6SM 02/M07 A3045 RMK SLP307 T00251066 52007 IEM_DS3505
ZBAA,2000-11-18 13:00,ZBAA 181300Z AUTO 33002KT 3SM 01/M05 A3045 RMK T00101050 IEM_DS3505
ZBAA,2000-11-18 14:00,ZBAA 181400Z AUTO 00000KT 2 1/2SM 01/M04 A3045 RMK T00101040 IEM_DS3505
ZBAA,2000-11-18 15:00,ZBAA 181500Z AUTO 00000KT 3SM 02/M05 A3045 RMK SLP307 T00221052 52001 IEM_DS3505
ZBAA,2000-11-18 16:00,ZBAA 181600Z AUTO 18004KT 1 1/2SM 01/M02 A3045 RMK T00101020 IEM_DS3505
ZBAA,2000-11-18 17:00,ZBAA 181700Z AUTO 16004KT 1SM 01/00 A3042 RMK T00100000 IEM_DS3505
ZBAA,2000-11-18 18:00,ZBAA 181800Z AUTO 00000KT 1 1/4SM 00/M02 A3042 RMK 60004 SLP296 T00051016 57011 IEM_DS3505
ZBAA,2000-11-18 19:00,ZBAA 181900Z AUTO 08004KT 1SM 00/00 A3039 RMK T00000000 IEM_DS3505
ZBAA,2000-11-18 20:00,ZBAA 182000Z AUTO 06002KT 1/2SM 00/00 A3039 RMK T00000000 IEM_DS3505
ZBAA,2000-11-18 21:00,ZBAA 182100Z AUTO 00000KT 1SM 00/M02 A3036 RMK 70011 SLP278 T00021015 57018 IEM_DS3505
ZBAA,2000-11-18 22:00,ZBAA 182200Z AUTO 00000KT 1/4SM 00/00 A3036 RMK T00000000 IEM_DS3505
ZBAA,2000-11-18 23:00,ZBAA 182300Z AUTO 31002KT 3/8SM 00/00 A3036 RMK T00000000 IEM_DS3505
ZBAA,2000-11-19 00:00,ZBAA 190000Z AUTO 04002KT 1SM 00/M01 A3036 RMK 60016 SLP282 T00041012 52004 IEM_DS3505
ZBAA,2000-11-19 01:00,ZBAA 190100Z AUTO 00000KT 3/8SM 01/01 A3036 RMK T00100010 IEM_DS3505
ZBAA,2000-11-19 02:00,ZBAA 190200Z AUTO 00000KT 1SM 01/01 A3036 RMK T00100010 IEM_DS3505
ZBAA,2000-11-19 03:00,ZBAA 190300Z AUTO 10002KT 1 1/4SM 01/M01 A3036 RMK SLP283 T00101006 54000 IEM_DS3505
ZBAA,2000-11-19 04:00,ZBAA 190400Z AUTO 16002KT 1SM 01/01 A3036 RMK T00100010 IEM_DS3505
ZBAA,2000-11-19 05:00,ZBAA 190500Z AUTO 19002KT 1SM 02/01 A3033 RMK T00200010 IEM_DS3505
ZBAA,2000-11-19 06:00,ZBAA 190600Z AUTO 20002KT 2 1/2SM 03/01 A3033 RMK 60003 SLP263 T00270008 57019 IEM_DS3505
ZBAA,2000-11-19 07:00,ZBAA 190700Z AUTO 13002KT 1 1/4SM 02/02 A3030 RMK T00200020 IEM_DS3505
ZBAA,2000-11-19 08:00,ZBAA 190800Z AUTO 36002KT 1SM 02/02 A3030 RMK T00200020 IEM_DS3505
ZBAA,2000-11-19 09:00,ZBAA 190900Z AUTO 31017KT 16SM 06/M10 A3030 RMK SLP261 T00591103 57002 IEM_DS3505
ZBAA,2000-11-19 10:00,ZBAA 191000Z AUTO 30010KT 6SM 04/M05 A3033 RMK T00401050 IEM_DS3505
ZBAA,2000-11-19 11:00,ZBAA 191100Z AUTO 30019KT 6SM 04/M07 A3033 RMK T00401070 IEM_DS3505
ZBAA,2000-11-19 12:00,ZBAA 191200Z AUTO 30010KT 19SM 04/M11 A3036 RMK SLP277 T00421113 52016 IEM_DS3505
ZBAA,2000-11-19 13:00,ZBAA 191300Z AUTO 29014G23KT 6SM 02/M08 A3039 RMK T00201080 IEM_DS3505
ZBAA,2000-11-19 14:00,ZBAA 191400Z AUTO 30016KT 6SM 02/M09 A3039 RMK T00201090 IEM_DS3505
ZBAA,2000-11-19 15:00,ZBAA 191500Z AUTO 32006KT 11SM 02/M13 A3039 RMK SLP290 T00211128 52013 IEM_DS3505
ZBAA,2000-11-19 16:00,ZBAA 191600Z AUTO 32012KT 6SM 00/M11 A3039 RMK T00001110 IEM_DS3505
ZBAA,2000-11-19 17:00,ZBAA 191700Z AUTO 32014KT 6SM 00/M12 A3039 RMK T00001120 IEM_DS3505
ZBAA,2000-11-19 18:00,ZBAA 191800Z AUTO 34004KT 19SM M00/M12 A3039 RMK SLP285 T10011123 57005 IEM_DS3505
ZBAA,2000-11-19 19:00,ZBAA 191900Z AUTO 32014KT 6SM 00/M12 A3039 RMK T00001120 IEM_DS3505
ZBAA,2000-11-19 20:00,ZBAA 192000Z AUTO 31012KT 6SM 00/M12 A3036 RMK T00001120 IEM_DS3505
ZBAA,2000-11-19 21:00,ZBAA 192100Z AUTO 04002KT 19SM M01/M12 A3036 RMK 70011 SLP280 T10081120 57005 IEM_DS3505
ZBAA,2000-11-19 22:00,ZBAA 192200Z AUTO 32010KT 6SM M01/M12 A3036 RMK T10101120 IEM_DS3505
ZBAA,2000-11-19 23:00,ZBAA 192300Z AUTO 03004KT 6SM M02/M11 A3039 RMK T10201110 IEM_DS3505
ZBAA,2000-11-20 00:00,ZBAA 200000Z AUTO 01004KT 9SM M00/M13 A3039 RMK 70003 SLP287 T10051127 52007 IEM_DS3505
ZBAA,2000-11-20 01:00,ZBAA 200100Z AUTO 36006KT 6SM M01/M10 A3039 RMK T10101100 IEM_DS3505
ZBAA,2000-11-20 02:00,ZBAA 200200Z AUTO 36004KT 6SM 01/M11 A3039 RMK T00101110 IEM_DS3505
ZBAA,2000-11-20 03:00,ZBAA 200300Z AUTO 00000KT 12SM 02/M14 A3039 RMK SLP288 T00241137 52001 IEM_DS3505
ZBAA,2000-11-20 04:00,ZBAA 200400Z AUTO 04006KT 6SM 02/M11 A3036 RMK T00201110 IEM_DS3505
ZBAA,2000-11-20 05:00,ZBAA 200500Z AUTO 35006KT 6SM 03/M11 A3033 RMK T00301110 IEM_DS3505
ZBAA,2000-11-20 06:00,ZBAA 200600Z AUTO 35008KT 19SM 05/M16 A3033 RMK SLP261 T00541157 57027 IEM_DS3505
ZBAA,2000-11-20 07:00,ZBAA 200700Z AUTO 32008G19KT 6SM 04/M12 A3030 RMK T00401120 IEM_DS3505
ZBAA,2000-11-20 08:00,ZBAA 200800Z AUTO 29012KT 6SM 04/M12 A3033 RMK T00401120 IEM_DS3505
ZBAA,2000-11-20 09:00,ZBAA 200900Z AUTO 32006KT 9SM 03/M15 A3033 RMK SLP270 T00341152 52009 IEM_DS3505
ZBAA,2000-11-20 10:00,ZBAA 201000Z AUTO 32006KT 6SM 01/M11 A3036 RMK T00101110 IEM_DS3505
ZBAA,2000-11-20 11:00,ZBAA 201100Z AUTO 29006KT 6SM 02/M12 A3036 RMK T00201120 IEM_DS3505
ZBAA,2000-11-20 12:00,ZBAA 201200Z AUTO 33004KT 9SM 02/M14 A3036 RMK SLP282 T00221139 52012 IEM_DS3505
ZBAA,2000-11-20 13:00,ZBAA 201300Z AUTO 30004KT 6SM 01/M12 A3039 RMK T00101120 IEM_DS3505
ZBAA,2000-11-20 14:00,ZBAA 201400Z AUTO 27004KT 6SM 00/M11 A3039 RMK T00001110 IEM_DS3505
ZBAA,2000-11-20 15:00,ZBAA 201500Z AUTO 35002KT 7SM 01/M12 A3039 RMK SLP292 T00061120 52009 IEM_DS3505
ZBAA,2000-11-20 16:00,ZBAA 201600Z AUTO 35006KT 6SM M01/M11 A3039 RMK T10101110 IEM_DS3505
ZBAA,2000-11-20 17:00,ZBAA 201700Z AUTO 36004KT 6SM M02/M10 A3039 RMK T10201100 IEM_DS3505
ZBAA,2000-11-20 18:00,ZBAA 201800Z AUTO 15004KT 6SM M01/M08 A3039 RMK SLP290 T10101080 57001 IEM_DS3505
ZBAA,2000-11-20 21:00,ZBAA 202100Z AUTO 00000KT 9SM M02/M09 A3039 RMK SLP291 T10221091 54000 IEM_DS3505
ZBAA,2000-11-20 22:00,ZBAA 202200Z AUTO 26002KT 6SM M04/M09 A3039 RMK T10401090 IEM_DS3505
ZBAA,2000-11-20 23:00,ZBAA 202300Z AUTO 36004KT 6SM M06/M08 A3042 RMK T10601080 IEM_DS3505
ZBAA,2000-11-21 00:00,ZBAA 210000Z AUTO 25002KT 5SM M02/M08 A3042 RMK SLP301 T10241075 52010 IEM_DS3505
ZBAA,2000-11-21 01:00,ZBAA 210100Z AUTO 36004KT 6SM M03/M07 A3045 RMK T10301070 IEM_DS3505
ZBAA,2000-11-21 02:00,ZBAA 210200Z AUTO 08002KT 5SM M02/M07 A3045 RMK T10201070 IEM_DS3505
ZBAA,2000-11-21 03:00,ZBAA 210300Z AUTO 13002KT 12SM 02/M13 A3042 RMK SLP298 T00221131 57002 IEM_DS3505
ZBAA,2000-11-21 04:00,ZBAA 210400Z AUTO 10004KT 02/M07 A3042 RMK T00201070 IEM_DS3505
ZBAA,2000-11-21 05:00,ZBAA 210500Z AUTO 10004KT 02/M08 A3036 RMK T00201080 IEM_DS3505
ZBAA,2000-11-21 06:00,ZBAA 210600Z AUTO 17004KT 9SM 04/M12 A3033 RMK SLP266 T00451115 57032 IEM_DS3505
ZBAA,2000-11-21 08:00,ZBAA 210800Z AUTO 11004KT 5SM 03/M07 A3030 RMK T00301070 IEM_DS3505
ZBAA,2000-11-21 09:00,ZBAA 210900Z AUTO 13004KT 5SM 02/M08 A3030 RMK SLP258 T00231084 57008 IEM_DS3505
ZBAA,2000-11-21 10:00,ZBAA 211000Z AUTO 06002KT 3SM 00/M06 A3030 RMK T00001060 IEM_DS3505
ZBAA,2000-11-21 11:00,ZBAA 211100Z AUTO 01002KT 3SM M01/M06 A3033 RMK T10101060 IEM_DS3505
ZBAA,2000-11-21 12:00,ZBAA 211200Z AUTO 12004KT 6SM M00/M07 A3033 RMK SLP262 T10031073 52003 IEM_DS3505
ZBAA,2000-11-21 13:00,ZBAA 211300Z AUTO 35002KT 2 1/2SM M01/M08 A3030 RMK T10101080 IEM_DS3505
ZBAA,2000-11-21 14:00,ZBAA 211400Z AUTO 01004KT 1 1/2SM M02/M07 A3030 RMK T10201070 IEM_DS3505
ZBAA,2000-11-21 15:00,ZBAA 211500Z AUTO 02004KT 4SM M00/M06 A3030 RMK SLP253 T10021062 57009 IEM_DS3505
ZBAA,2000-11-21 16:00,ZBAA 211600Z AUTO 36004KT 1 1/2SM M01/M06 A3027 RMK T10101060 IEM_DS3505
ZBAA,2000-11-21 17:00,ZBAA 211700Z AUTO 34004KT 2SM M02/M06 A3024 RMK T10201060 IEM_DS3505
ZBAA,2000-11-21 18:00,ZBAA 211800Z AUTO 04002KT 3SM M01/M07 A3024 RMK SLP233 T10131072 57019 IEM_DS3505
ZBAA,2000-11-21 19:00,ZBAA 211900Z AUTO 31002KT 2SM M03/M06 A3021 RMK T10301060 IEM_DS3505
ZBAA,2000-11-21 20:00,ZBAA 212000Z AUTO 32004KT 2SM M03/M07 A3021 RMK T10301070 IEM_DS3505
ZBAA,2000-11-21 21:00,ZBAA 212100Z AUTO 00000KT 4SM M01/M08 A3021 RMK SLP222 T10131078 57011 IEM_DS3505
ZBAA,2000-11-21 22:00,ZBAA 212200Z AUTO 28004KT 2SM M03/M07 A3021 RMK T10301070 IEM_DS3505
ZBAA,2000-11-21 23:00,ZBAA 212300Z AUTO 31006KT 2SM M03/M06 A3021 RMK T10301060 IEM_DS3505
ZBAA,2000-11-22 00:00,ZBAA 220000Z AUTO 07002KT 3SM M02/M07 A3021 RMK SLP230 T10181069 52007 IEM_DS3505
ZBAA,2000-11-22 01:00,ZBAA 220100Z AUTO 33004KT 2 1/2SM M01/M05 A3024 RMK T10101050 IEM_DS3505
ZBAA,2000-11-22 02:00,ZBAA 220200Z AUTO 35004KT 4SM 01/M04 A3024 RMK T00101040 IEM_DS3505
ZBAA,2000-11-22 03:00,ZBAA 220300Z AUTO 31002KT 4SM 03/M06 A3021 RMK SLP233 T00321062 52004 IEM_DS3505
ZBAA,2000-11-22 05:00,ZBAA 220500Z AUTO 05002KT 05/M02 A3018 RMK T00501020 IEM_DS3505
ZBAA,2000-11-22 06:00,ZBAA 220600Z AUTO 16004KT 6SM 05/M05 A3018 RMK SLP216 T00521054 57017 IEM_DS3505
ZBAA,2000-11-22 07:00,ZBAA 220700Z AUTO 15002KT 3SM 06/M02 A3018 RMK T00601020 IEM_DS3505
ZBAA,2000-11-22 08:00,ZBAA 220800Z AUTO 13002KT 3SM 05/M02 A3018 RMK T00501020 IEM_DS3505
ZBAA,2000-11-22 09:00,ZBAA 220900Z AUTO 00000KT 4SM 04/M06 A3018 RMK SLP225 T00361055 52009 IEM_DS3505
ZBAA,2000-11-22 10:00,ZBAA 221000Z AUTO 13002KT 2SM 01/M02 A3021 RMK T00101020 IEM_DS3505
ZBAA,2000-11-22 11:00,ZBAA 221100Z AUTO 00000KT 1 1/2SM 00/M02 A3024 RMK T00001020 IEM_DS3505
ZBAA,2000-11-22 12:00,ZBAA 221200Z AUTO 27002KT 3SM 01/M05 A3024 RMK SLP243 T00131047 52018 IEM_DS3505
ZBAA,2000-11-22 13:00,ZBAA 221300Z AUTO 00000KT 1SM 00/M02 A3027 RMK T00001020 IEM_DS3505
ZBAA,2000-11-22 14:00,ZBAA 221400Z AUTO 36002KT 1SM M01/M02 A3027 RMK T10101020 IEM_DS3505
ZBAA,2000-11-22 15:00,ZBAA 221500Z AUTO 29002KT 1 1/4SM M00/M04 A3027 RMK SLP252 T10051038 52008 IEM_DS3505
ZBAA,2000-11-22 16:00,ZBAA 221600Z AUTO 34002KT 1SM M02/M03 A3027 RMK T10201030 IEM_DS3505
ZBAA,2000-11-22 17:00,ZBAA 221700Z AUTO 34004KT 1SM M02/M03 A3027 RMK T10201030 IEM_DS3505
ZBAA,2000-11-22 18:00,ZBAA 221800Z AUTO 04002KT 1 1/4SM M00/M04 A3027 RMK SLP245 T10031042 57006 IEM_DS3505
ZBAA,2000-11-22 19:00,ZBAA 221900Z AUTO 33006KT 1 1/4SM M02/M03 A3027 RMK T10201030 IEM_DS3505
ZBAA,2000-11-22 20:00,ZBAA 222000Z AUTO 04002KT 1 1/4SM M02/M03 A3027 RMK T10201030 IEM_DS3505
ZBAA,2000-11-22 21:00,ZBAA 222100Z AUTO 00000KT 1 1/4SM M01/M04 A3027 RMK SLP248 T10131040 52003 IEM_DS3505
ZBAA,2000-11-22 22:00,ZBAA 222200Z AUTO 34002KT 1 1/4SM M02/M03 A3027 RMK T10201030 IEM_DS3505
ZBAA,2000-11-22 23:00,ZBAA 222300Z AUTO 01004KT 1 1/4SM M04/M05 A3030 RMK T10401050 IEM_DS3505
ZBAA,2000-11-23 00:00,ZBAA 230000Z AUTO 04004KT 2SM M01/M04 A3033 RMK SLP263 T10141039 52014 IEM_DS3505
ZBAA,2000-11-23 01:00,ZBAA 230100Z AUTO 35002KT 1 1/2SM M01/M02 A3033 RMK T10101020 IEM_DS3505
ZBAA,2000-11-23 02:00,ZBAA 230200Z AUTO 01002KT 2SM 01/M03 A3030 RMK T00101030 IEM_DS3505
ZBAA,2000-11-23 03:00,ZBAA 230300Z AUTO 01002KT 1 1/4SM 01/M02 A3030 RMK SLP257 T00141023 57005 IEM_DS3505
ZBAA,2000-11-23 04:00,ZBAA 230400Z AUTO 03002KT 2SM 02/M02 A3027 RMK T00201020 IEM_DS3505
ZBAA,2000-11-23 05:00,ZBAA 230500Z AUTO 09002KT 2SM 03/M01 A3024 RMK T00301010 IEM_DS3505
ZBAA,2000-11-23 06:00,ZBAA 230600Z AUTO 08006KT 2 1/2SM 03/M02 A3024 RMK SLP235 T00301021 57022 IEM_DS3505
ZBAA,2000-11-23 07:00,ZBAA 230700Z AUTO 11006KT 2 1/2SM 03/M01 A3021 RMK T00301010 IEM_DS3505
ZBAA,2000-11-23 08:00,ZBAA 230800Z AUTO 13004KT 2 1/2SM 03/M01 A3021 RMK T00301010 IEM_DS3505
ZBAA,2000-11-23 09:00,ZBAA 230900Z AUTO 04002KT 2 1/2SM 01/M02 A3024 RMK SLP234 T00131023 57001 IEM_DS3505
ZBAA,2000-11-23 10:00,ZBAA 231000Z AUTO 00000KT 2 1/2SM 02/M01 A3024 RMK T00201010 IEM_DS3505
ZBAA,2000-11-23 11:00,ZBAA 231100Z AUTO 17002KT 2 1/2SM 02/00 A3027 RMK T00200000 IEM_DS3505
ZBAA,2000-11-23 12:00,ZBAA 231200Z AUTO 05004KT 6SM 02/M02 A3027 RMK SLP247 T00221023 52013 IEM_DS3505
ZBAA,2000-11-23 13:00,ZBAA 231300Z AUTO 00000KT 2 1/2SM 02/00 A3027 RMK T00200000 IEM_DS3505
ZBAA,2000-11-23 14:00,ZBAA 231400Z AUTO 32002KT 2SM 02/00 A3027 RMK T00200000 IEM_DS3505
ZBAA,2000-11-23 15:00,ZBAA 231500Z AUTO 02002KT 7SM 02/M03 A3027 RMK SLP250 T00221027 52003 IEM_DS3505
ZBAA,2000-11-23 16:00,ZBAA 231600Z AUTO 30006KT 1 1/2SM 02/00 A3027 RMK T00200000 IEM_DS3505
ZBAA,2000-11-23 17:00,ZBAA 231700Z AUTO 29006KT 1 1/2SM 03/00 A3027 RMK T00300000 IEM_DS3505
ZBAA,2000-11-23 18:00,ZBAA 231800Z AUTO 32002KT 5SM 03/M02 A3027 RMK SLP250 T00271024 54000 IEM_DS3505
ZBAA,2000-11-23 19:00,ZBAA 231900Z AUTO 33004KT 1 1/4SM 02/00 A3027 RMK T00200000 IEM_DS3505
ZBAA,2000-11-23 20:00,ZBAA 232000Z AUTO 35004KT 1 1/4SM 02/00 A3027 RMK T00200000 IEM_DS3505
ZBAA,2000-11-23 21:00,ZBAA 232100Z AUTO 03002KT 6SM 03/M01 A3024 RMK SLP237 T00311014 57013 IEM_DS3505
ZBAA,2000-11-23 22:00,ZBAA 232200Z AUTO 34004KT 1 1/4SM 02/00 A3024 RMK T00200000 IEM_DS3505
ZBAA,2000-11-23 23:00,ZBAA 232300Z AUTO 33004KT 1 1/4SM 03/00 A3024 RMK T00300000 IEM_DS3505
ZBAA,2000-11-24 00:00,ZBAA 240000Z AUTO 04002KT 3SM 03/M02 A3027 RMK SLP245 T00341019 52008 IEM_DS3505
ZBAA,2000-11-24 01:00,ZBAA 240100Z AUTO 31006KT 1 1/4SM 03/00 A3027 RMK T00300000 IEM_DS3505
ZBAA,2000-11-24 02:00,ZBAA 240200Z AUTO 27004KT 1 1/4SM 03/00 A3027 RMK T00300000 IEM_DS3505
ZBAA,2000-11-24 03:00,ZBAA 240300Z AUTO 05004KT 2 1/2SM 04/M02 A3027 RMK SLP248 T00411025 52003 IEM_DS3505
ZBAA,2000-11-24 04:00,ZBAA 240400Z AUTO 34002KT 1 1/2SM 04/00 A3024 RMK T00400000 IEM_DS3505
ZBAA,2000-11-24 05:00,ZBAA 240500Z AUTO 35004KT 1 1/2SM 04/00 A3024 RMK T00400000 IEM_DS3505
ZBAA,2000-11-24 06:00,ZBAA 240600Z AUTO 09004KT 2 1/2SM 04/M01 A3021 RMK 60003 SLP231 T00361013 57017 IEM_DS3505
ZBAA,2000-11-24 07:00,ZBAA 240700Z AUTO 12002KT 1SM 04/01 A3021 RMK T00400010 IEM_DS3505
ZBAA,2000-11-24 08:00,ZBAA 240800Z AUTO 00000KT 1SM 03/02 A3021 RMK T00300020 IEM_DS3505
ZBAA,2000-11-24 09:00,ZBAA 240900Z AUTO 01002KT 1SM 03/01 A3021 RMK SLP225 T00300009 57006 IEM_DS3505
ZBAA,2000-11-24 10:00,ZBAA 241000Z AUTO 00000KT 1SM 03/02 A3021 RMK T00300020 IEM_DS3505
ZBAA,2000-11-24 11:00,ZBAA 241100Z AUTO 00000KT 1/2SM 03/03 A3021 RMK T00300030 IEM_DS3505
ZBAA,2000-11-24 12:00,ZBAA 241200Z AUTO 10004KT 4SM 03/00 A3021 RMK 60001 SLP230 T00260002 52005 IEM_DS3505
ZBAA,2000-11-24 13:00,ZBAA 241300Z AUTO 20004KT 1/2SM 03/03 A3021 RMK T00300030 IEM_DS3505
ZBAA,2000-11-24 14:00,ZBAA 241400Z AUTO 20004KT 1SM 02/02 A3021 RMK T00200020 IEM_DS3505
ZBAA,2000-11-24 15:00,ZBAA 241500Z AUTO 08004KT 2 1/2SM 02/M01 A3021 RMK SLP224 T00181008 57006 IEM_DS3505
ZBAA,2000-11-24 16:00,ZBAA 241600Z AUTO 18002KT 1SM 02/02 A3018 RMK T00200020 IEM_DS3505
ZBAA,2000-11-24 17:00,ZBAA 241700Z AUTO 15002KT 1SM 02/02 A3018 RMK T00200020 IEM_DS3505
ZBAA,2000-11-24 18:00,ZBAA 241800Z AUTO 07004KT 2 1/2SM 02/M00 A3015 RMK 60004 SLP204 T00151003 57020 IEM_DS3505
ZBAA,2000-11-24 19:00,ZBAA 241900Z AUTO 17002KT 1SM 01/01 A3012 RMK T00100010 IEM_DS3505
ZBAA,2000-11-24 20:00,ZBAA 242000Z AUTO 17002KT 1SM 01/01 A3009 RMK T00100010 IEM_DS3505
ZBAA,2000-11-24 21:00,ZBAA 242100Z AUTO 00000KT 2SM 01/M00 A3012 RMK 70009 SLP199 T00141002 57005 IEM_DS3505
ZBAA,2000-11-24 22:00,ZBAA 242200Z AUTO 34002KT 1SM 02/02 A3009 RMK T00200020 IEM_DS3505
ZBAA,2000-11-24 23:00,ZBAA 242300Z AUTO 35002KT 1SM 02/02 A3009 RMK T00200020 IEM_DS3505
ZBAA,2000-11-25 00:00,ZBAA 250000Z AUTO 14002KT 1SM 02/00 A3012 RMK 60003 SLP200 T00190003 52001 IEM_DS3505
ZBAA,2000-11-25 01:00,ZBAA 250100Z AUTO 27004KT 1SM 02/02 A3012 RMK T00200020 IEM_DS3505
ZBAA,2000-11-25 02:00,ZBAA 250200Z AUTO 29002KT 1SM 03/03 A3015 RMK T00300030 IEM_DS3505
ZBAA,2000-11-25 03:00,ZBAA 250300Z AUTO 33002KT 3SM 05/02 A3015 RMK SLP205 T00490018 52005 IEM_DS3505
ZBAA,2000-11-25 04:00,ZBAA 250400Z AUTO 02002KT 2SM 05/04 A3012 RMK T00500040 IEM_DS3505
ZBAA,2000-11-25 05:00,ZBAA 250500Z AUTO 03004KT 2SM 06/04 A3012 RMK T00600040 IEM_DS3505
ZBAA,2000-11-25 06:00,ZBAA 250600Z AUTO 11002KT 2 1/2SM 07/02 A3009 RMK SLP194 T00730020 57011 IEM_DS3505
ZBAA,2000-11-25 07:00,ZBAA 250700Z AUTO 01004KT 2 1/2SM 08/05 A3012 RMK T00800050 IEM_DS3505
ZBAA,2000-11-25 08:00,ZBAA 250800Z AUTO 07002KT 2 1/2SM 08/05 A3012 RMK T00800050 IEM_DS3505
ZBAA,2000-11-25 09:00,ZBAA 250900Z AUTO 26002KT 2SM 06/02 A3018 RMK SLP220 T00580025 52026 IEM_DS3505
ZBAA,2000-11-25 10:00,ZBAA 251000Z AUTO 35008KT 2 1/2SM 06/04 A3021 RMK T00600040 IEM_DS3505
ZBAA,2000-11-25 11:00,ZBAA 251100Z AUTO 36006KT 4SM 06/03 A3027 RMK T00600030 IEM_DS3505
ZBAA,2000-11-25 12:00,ZBAA 251200Z AUTO 35006KT 16SM 08/M13 A3027 RMK SLP254 T00791130 52034 IEM_DS3505
ZBAA,2000-11-25 13:00,ZBAA 251300Z AUTO 02006KT 6SM 06/M07 A3033 RMK T00601070 IEM_DS3505
ZBAA,2000-11-25 15:00,ZBAA 251500Z AUTO 04004KT 16SM 04/M11 A3039 RMK SLP283 T00441112 52029 IEM_DS3505
ZBAA,2000-11-25 16:00,ZBAA 251600Z AUTO 03006KT 6SM 03/M08 A3039 RMK T00301080 IEM_DS3505
ZBAA,2000-11-25 17:00,ZBAA 251700Z AUTO 03004KT 6SM 02/M09 A3042 RMK T00201090 IEM_DS3505
ZBAA,2000-11-25 18:00,ZBAA 251800Z AUTO 03004KT 19SM 02/M11 A3042 RMK SLP293 T00191108 52010 IEM_DS3505
ZBAA,2000-11-25 19:00,ZBAA 251900Z AUTO 01006KT 6SM 01/M09 A3042 RMK T00101090 IEM_DS3505
ZBAA,2000-11-25 20:00,ZBAA 252000Z AUTO 02006KT 6SM 01/M09 A3039 RMK T00101090 IEM_DS3505
ZBAA,2000-11-25 21:00,ZBAA 252100Z AUTO 05002KT 19SM 00/M10 A3039 RMK 70000 SLP292 T00011104 57001 IEM_DS3505
ZBAA,2000-11-25 22:00,ZBAA 252200Z AUTO 10004KT 6SM M01/M08 A3042 RMK T10101080 IEM_DS3505
ZBAA,2000-11-25 23:00,ZBAA 252300Z AUTO 00000KT 6SM M02/M09 A3042 RMK T10201090 IEM_DS3505
ZBAA,2000-11-26 00:00,ZBAA 260000Z AUTO 25002KT 4SM M00/M09 A3045 RMK SLP305 T10051086 52013 IEM_DS3505
ZBAA,2000-11-26 01:00,ZBAA 260100Z AUTO 6SM 01/M06 A3045 RMK T00101060 IEM_DS3505
ZBAA,2000-11-26 02:00,ZBAA 260200Z AUTO 05002KT 6SM 02/M02 A3045 RMK T00201020 IEM_DS3505
ZBAA,2000-11-26 03:00,ZBAA 260300Z AUTO 00000KT 6SM 04/M10 A3045 RMK SLP302 T00441097 57003 IEM_DS3505
ZBAA,2000-11-26 04:00,ZBAA 260400Z AUTO 02004KT 5SM 04/M03 A3042 RMK T00401030 IEM_DS3505
ZBAA,2000-11-26 05:00,ZBAA 260500Z AUTO 10004KT 5SM 05/M03 A3039 RMK T00501030 IEM_DS3505
ZBAA,2000-11-26 06:00,ZBAA 260600Z AUTO 19006KT 6SM 06/M02 A3036 RMK SLP276 T00591024 57026 IEM_DS3505
ZBAA,2000-11-26 07:00,ZBAA 260700Z AUTO 18008KT 6SM 07/M02 A3033 RMK T00701020 IEM_DS3505
ZBAA,2000-11-26 08:00,ZBAA 260800Z AUTO 19008KT 6SM 06/00 A3033 RMK T00600000 IEM_DS3505
ZBAA,2000-11-26 09:00,ZBAA 260900Z AUTO 23004KT 6SM 04/M01 A3033 RMK SLP276 T00401011 54000 IEM_DS3505
ZBAA,2000-11-26 10:00,ZBAA 261000Z AUTO 24004KT 3SM 04/00 A3036 RMK T00400000 IEM_DS3505
ZBAA,2000-11-26 11:00,ZBAA 261100Z AUTO 15002KT 2 1/2SM 02/M01 A3036 RMK T00201010 IEM_DS3505
ZBAA,2000-11-26 12:00,ZBAA 261200Z AUTO 23004KT 5SM 02/M02 A3039 RMK SLP284 T00201016 52008 IEM_DS3505
ZBAA,2000-11-26 13:00,ZBAA 261300Z AUTO 00000KT 1 1/2SM M01/M01 A3039 RMK T10101010 IEM_DS3505
ZBAA,2000-11-26 14:00,ZBAA 261400Z AUTO 10002KT 1 1/2SM M01/M01 A3039 RMK T10101010 IEM_DS3505
ZBAA,2000-11-26 15:00,ZBAA 261500Z AUTO 00000KT 2 1/2SM 00/M03 A3039 RMK SLP286 T00041026 52001 IEM_DS3505
ZBAA,2000-11-26 16:00,ZBAA 261600Z AUTO 02002KT 1SM M01/M01 A3039 RMK T10101010 IEM_DS3505
ZBAA,2000-11-26 17:00,ZBAA 261700Z AUTO 03002KT 1SM M02/M02 A3036 RMK T10201020 IEM_DS3505
ZBAA,2000-11-26 18:00,ZBAA 261800Z AUTO 00000KT 2SM M01/M03 A3036 RMK SLP277 T10101032 57008 IEM_DS3505
ZBAA,2000-11-26 19:00,ZBAA 261900Z AUTO 03002KT 1 1/4SM M01/M01 A3036 RMK T10101010 IEM_DS3505
ZBAA,2000-11-26 20:00,ZBAA 262000Z AUTO 36002KT 1 1/2SM M02/M02 A3033 RMK T10201020 IEM_DS3505
ZBAA,2000-11-26 21:00,ZBAA 262100Z AUTO 35002KT 1 1/4SM 00/M02 A3033 RMK SLP268 T00051016 57009 IEM_DS3505
ZBAA,2000-11-26 22:00,ZBAA 262200Z AUTO 32004KT 2SM M02/M03 A3033 RMK T10201030 IEM_DS3505
ZBAA,2000-11-26 23:00,ZBAA 262300Z AUTO 32004KT 2SM M03/M04 A3033 RMK T10301040 IEM_DS3505
ZBAA,2000-11-27 00:00,ZBAA 270000Z AUTO 04002KT 2SM M01/M03 A3036 RMK SLP278 T10121034 52009 IEM_DS3505
ZBAA,2000-11-27 01:00,ZBAA 270100Z AUTO 35004KT 1 1/2SM M01/M02 A3039 RMK T10101020 IEM_DS3505
ZBAA,2000-11-27 02:00,ZBAA 270200Z AUTO 35004KT 2 1/2SM 01/M01 A3039 RMK T00101010 IEM_DS3505
ZBAA,2000-11-27 03:00,ZBAA 270300Z AUTO 09004KT 2 1/2SM 04/M01 A3036 RMK SLP278 T00411014 52001 IEM_DS3505
ZBAA,2000-11-27 04:00,ZBAA 270400Z AUTO 31004KT 05/M03 A3033 RMK T00501030 IEM_DS3505
ZBAA,2000-11-27 05:00,ZBAA 270500Z AUTO 31004KT 6SM 07/M09 A3030 RMK T00701090 IEM_DS3505
ZBAA,2000-11-27 06:00,ZBAA 270600Z AUTO 35008KT 11SM 09/M16 A3030 RMK SLP253 T00901161 57025 IEM_DS3505
ZBAA,2000-11-27 07:00,ZBAA 270700Z AUTO 33004KT 6SM 09/M14 A3027 RMK T00901140 IEM_DS3505
ZBAA,2000-11-27 08:00,ZBAA 270800Z AUTO 06002KT 6SM 08/M12 A3030 RMK T00801120 IEM_DS3505
ZBAA,2000-11-27 09:00,ZBAA 270900Z AUTO 25004KT 5SM 06/M04 A3030 RMK SLP263 T00601041 52010 IEM_DS3505
ZBAA,2000-11-27 10:00,ZBAA 271000Z AUTO 35002KT 6SM 03/M08 A3033 RMK T00301080 IEM_DS3505
ZBAA,2000-11-27 11:00,ZBAA 271100Z AUTO 36004KT 5SM 03/M08 A3036 RMK T00301080 IEM_DS3505
ZBAA,2000-11-27 12:00,ZBAA 271200Z AUTO 07004KT 5SM 02/M04 A3036 RMK SLP287 T00151043 52023 IEM_DS3505
ZBAA,2000-11-27 13:00,ZBAA 271300Z AUTO 02004KT 03/M10 A3039 RMK T00301100 IEM_DS3505
ZBAA,2000-11-27 14:00,ZBAA 271400Z AUTO 28002KT 02/M11 A3039 RMK T00201110 IEM_DS3505
ZBAA,2000-11-27 15:00,ZBAA 271500Z AUTO 25002KT 4SM 00/M03 A3042 RMK SLP298 T00021032 52011 IEM_DS3505
ZBAA,2000-11-27 16:00,ZBAA 271600Z AUTO 32002KT 4SM M02/M07 A3045 RMK T10201070 IEM_DS3505
ZBAA,2000-11-27 17:00,ZBAA 271700Z AUTO 29002KT 4SM M01/M06 A3042 RMK T10101060 IEM_DS3505
ZBAA,2000-11-27 18:00,ZBAA 271800Z AUTO 00000KT 1 1/4SM M01/M04 A3045 RMK SLP302 T10111039 52005 IEM_DS3505
ZBAA,2000-11-27 19:00,ZBAA 271900Z AUTO 08002KT 4SM M03/M06 A3045 RMK T10301060 IEM_DS3505
ZBAA,2000-11-27 20:00,ZBAA 272000Z AUTO 05002KT 4SM M04/M07 A3042 RMK T10401070 IEM_DS3505
ZBAA,2000-11-27 21:00,ZBAA 272100Z AUTO 07002KT 4SM M02/M06 A3042 RMK SLP296 T10161056 57006 IEM_DS3505
ZBAA,2000-11-27 22:00,ZBAA 272200Z AUTO 12002KT 1/4SM M02/M03 A3042 RMK T10201030 IEM_DS3505
ZBAA,2000-11-27 23:00,ZBAA 272300Z AUTO 13002KT 1SM M02/M02 A3045 RMK T10201020 IEM_DS3505
ZBAA,2000-11-28 00:00,ZBAA 280000Z AUTO 10006KT 1/8SM M03/M04 A3045 RMK SLP309 T10261043 52012 IEM_DS3505
ZBAA,2000-11-28 01:00,ZBAA 280100Z AUTO 01002KT 1SM M02/M02 A3047 RMK T10201020 IEM_DS3505
ZBAA,2000-11-28 02:00,ZBAA 280200Z AUTO 13002KT 1SM M01/M01 A3045 RMK T10101010 IEM_DS3505
ZBAA,2000-11-28 03:00,ZBAA 280300Z AUTO 11002KT 3/8SM M02/M04 A3045 RMK SLP303 T10221036 57006 IEM_DS3505
ZBAA,2000-11-28 04:00,ZBAA 280400Z AUTO 02002KT 1 1/4SM 01/M01 A3042 RMK T00101010 IEM_DS3505
ZBAA,2000-11-28 05:00,ZBAA 280500Z AUTO 14004KT 1 1/4SM 02/M01 A3036 RMK T00201010 IEM_DS3505
ZBAA,2000-11-28 06:00,ZBAA 280600Z AUTO 20004KT 1SM M02/M03 A3033 RMK SLP271 T10171031 57032 IEM_DS3505
ZBAA,2000-11-28 08:00,ZBAA 280800Z AUTO 12004KT 1SM M01/M01 A3030 RMK T10101010 IEM_DS3505
ZBAA,2000-11-28 09:00,ZBAA 280900Z AUTO 22004KT 1/4SM M02/M03 A3030 RMK SLP260 T10161030 57011 IEM_DS3505
ZBAA,2000-11-28 10:00,ZBAA 281000Z AUTO 16004KT 3/8SM M01/M01 A3030 RMK T10101010 IEM_DS3505
ZBAA,2000-11-28 11:00,ZBAA 281100Z AUTO 19004KT 3/8SM M01/M01 A3027 RMK T10101010 IEM_DS3505
ZBAA,2000-11-28 12:00,ZBAA 281200Z AUTO 22006KT 1SM M02/M04 A3027 RMK SLP255 T10221035 57005 IEM_DS3505
ZBAA,2000-11-28 13:00,ZBAA 281300Z AUTO 16004KT 3/8SM M01/M01 A3027 RMK T10101010 IEM_DS3505
ZBAA,2000-11-28 14:00,ZBAA 281400Z AUTO 17004KT 3/8SM M01/M01 A3030 RMK T10101010 IEM_DS3505
ZBAA,2000-11-28 15:00,ZBAA 281500Z AUTO 35002KT 1SM M02/M03 A3027 RMK SLP256 T10151029 52001 IEM_DS3505
ZBAA,2000-11-28 16:00,ZBAA 281600Z AUTO 10002KT 3/8SM M01/M01 A3027 RMK T10101010 IEM_DS3505
ZBAA,2000-11-28 17:00,ZBAA 281700Z AUTO 3/8SM M01/M01 A3027 RMK T10101010 IEM_DS3505
ZBAA,2000-11-28 18:00,ZBAA 281800Z AUTO 08002KT 1 1/4SM M01/M02 A3027 RMK SLP248 T10081022 57008 IEM_DS3505
ZBAA,2000-11-28 19:00,ZBAA 281900Z AUTO 36006KT 3/8SM M01/M01 A3027 RMK T10101010 IEM_DS3505
ZBAA,2000-11-28 20:00,ZBAA 282000Z AUTO 36004KT 1/2SM M01/M02 A3027 RMK T10101020 IEM_DS3505
ZBAA,2000-11-28 21:00,ZBAA 282100Z AUTO 07002KT 2SM M01/M03 A3024 RMK SLP246 T10111031 57002 IEM_DS3505
ZBAA,2000-11-28 22:00,ZBAA 282200Z AUTO 28006KT 1SM M02/M02 A3027 RMK T10201020 IEM_DS3505
ZBAA,2000-11-28 23:00,ZBAA 282300Z AUTO 28006KT 1SM M02/M03 A3027 RMK T10201030 IEM_DS3505
ZBAA,2000-11-29 00:00,ZBAA 290000Z AUTO 22002KT 2SM M01/M04 A3030 RMK SLP262 T10141036 52016 IEM_DS3505
ZBAA,2000-11-29 01:00,ZBAA 290100Z AUTO 32006KT 1/2SM M01/M02 A3033 RMK T10101020 IEM_DS3505
ZBAA,2000-11-29 02:00,ZBAA 290200Z AUTO 32006KT 1SM 01/M02 A3033 RMK T00101020 IEM_DS3505
ZBAA,2000-11-29 03:00,ZBAA 290300Z AUTO 14002KT 1 1/4SM 02/M02 A3033 RMK SLP268 T00151021 52007 IEM_DS3505
ZBAA,2000-11-29 04:00,ZBAA 290400Z AUTO 02004KT 1 1/4SM 05/M01 A3033 RMK T00501010 IEM_DS3505
ZBAA,2000-11-29 05:00,ZBAA 290500Z AUTO 03004KT 2 1/2SM 07/M04 A3030 RMK T00701040 IEM_DS3505
ZBAA,2000-11-29 06:00,ZBAA 290600Z AUTO 20004KT 08/M09 A3030 RMK T00801090 IEM_DS3505
ZBAA,2000-11-29 07:00,ZBAA 290700Z AUTO 02006KT 6SM 09/M10 A3030 RMK T00901100 IEM_DS3505
ZBAA,2000-11-29 08:00,ZBAA 290800Z AUTO 03004KT 6SM 08/M07 A3030 RMK T00801070 IEM_DS3505
ZBAA,2000-11-29 09:00,ZBAA 290900Z AUTO 24002KT 2 1/2SM 04/M02 A3033 RMK SLP269 T00431023 52011 IEM_DS3505
ZBAA,2000-11-29 10:00,ZBAA 291000Z AUTO 19006KT 1 1/4SM 04/M01 A3036 RMK T00401010 IEM_DS3505
ZBAA,2000-11-29 11:00,ZBAA 291100Z AUTO 1SM 03/M01 A3036 RMK T00301010 IEM_DS3505
ZBAA,2000-11-29 12:00,ZBAA 291200Z AUTO 25002KT 1SM 02/M02 A3039 RMK SLP285 T00161022 52015 IEM_DS3505
ZBAA,2000-11-29 13:00,ZBAA 291300Z AUTO 00000KT 1SM M01/M02 A3039 RMK T10101020 IEM_DS3505
ZBAA,2000-11-29 14:00,ZBAA 291400Z AUTO 11004KT 1SM M01/M01 A3042 RMK T10101010 IEM_DS3505
ZBAA,2000-11-29 15:00,ZBAA 291500Z AUTO 08006KT 1SM M00/M03 A3042 RMK SLP299 T10011026 52014 IEM_DS3505
ZBAA,2000-11-29 16:00,ZBAA 291600Z AUTO 11004KT 2SM 01/M02 A3042 RMK T00101020 IEM_DS3505
ZBAA,2000-11-29 17:00,ZBAA 291700Z AUTO 11004KT 2 1/2SM 01/M03 A3042 RMK T00101030 IEM_DS3505
ZBAA,2000-11-29 18:00,ZBAA 291800Z AUTO 10004KT 6SM 01/M05 RMK SLP299 T00061046 52001 IEM_DS3505
ZBAA,2000-11-29 21:00,ZBAA 292100Z AUTO 00000KT 11SM M00/M05 RMK SLP295 T10011053 57004 IEM_DS3505
ZBAA,2000-11-30 00:00,ZBAA 300000Z AUTO 08004KT 11SM M00/M05 RMK SLP300 T10031051 52004 IEM_DS3505
ZBAA,2000-11-30 03:00,ZBAA 300300Z AUTO 11002KT 11SM 01/M05 RMK SLP291 T00121048 57009 IEM_DS3505
ZBAA,2000-11-30 06:00,ZBAA 300600Z AUTO 00000KT 9SM 04/M03 RMK SLP260 T00421033 57030 IEM_DS3505
ZBAA,2000-11-30 09:00,ZBAA 300900Z AUTO 02002KT 6SM 03/M03 RMK SLP256 T00291030 57004 IEM_DS3505
ZBAA,2000-11-30 12:00,ZBAA 301200Z AUTO 04002KT 4SM 00/M05 RMK SLP261 T00031053 52004 IEM_DS3505
ZBAA,2000-11-30 15:00,ZBAA 301500Z AUTO 04002KT 4SM M01/M04 RMK SLP264 T10081041 52003 IEM_DS3505
ZBAA,2000-11-30 18:00,ZBAA 301800Z AUTO 35002KT 2 1/2SM M01/M04 RMK SLP265 T10131041 52002 IEM_DS3505
ZBAA,2000-11-30 21:00,ZBAA 302100Z AUTO 00000KT 2 1/2SM M02/M05 RMK SLP259 T10241047 57006 IEM_DS3505
ZBAA,2000-12-01 00:00,ZBAA 010000Z AUTO 28002KT 1 1/4SM M01/M04 RMK SLP273 T10091036 52013 IEM_DS3505
ZBAA,2000-12-01 03:00,ZBAA 010300Z AUTO 06002KT 2SM 04/M03 RMK SLP267 T00381030 57005 IEM_DS3505
ZBAA,2000-12-01 06:00,ZBAA 010600Z AUTO 22002KT 2 1/2SM 05/M03 RMK SLP244 T00501030 57023 IEM_DS3505
ZBAA,2000-12-01 09:00,ZBAA 010900Z AUTO 22002KT 2 1/2SM 04/M03 RMK SLP245 T00351026 52001 IEM_DS3505
ZBAA,2000-12-01 12:00,ZBAA 011200Z AUTO 00000KT 2SM 01/M03 RMK SLP251 T00141027 52006 IEM_DS3505
ZBAA,2000-12-01 15:00,ZBAA 011500Z AUTO 22002KT 2 1/2SM 01/M02 RMK SLP255 T00141020 52004 IEM_DS3505
ZBAA,2000-12-01 18:00,ZBAA 011800Z AUTO 00000KT 2SM M00/M03 A3030 RMK SLP265 T10021027 52010 IEM_DS3505
ZBAA,2000-12-01 19:00,ZBAA 011900Z AUTO 33004KT 1SM M01/M02 A3033 RMK T10101020 IEM_DS3505
ZBAA,2000-12-01 20:00,ZBAA 012000Z AUTO 33008KT 1SM 01/M01 A3033 RMK T00101010 IEM_DS3505
ZBAA,2000-12-01 21:00,ZBAA 012100Z AUTO 01002KT 2 1/2SM 02/M02 A3033 RMK SLP260 T00171019 57005 IEM_DS3505
ZBAA,2000-12-01 22:00,ZBAA 012200Z AUTO 32019KT 6SM 05/M10 A3033 RMK T00501100 IEM_DS3505
ZBAA,2000-12-01 23:00,ZBAA 012300Z AUTO 31023KT 6SM 05/M15 A3036 RMK T00501150 IEM_DS3505
ZBAA,2000-12-02 00:00,ZBAA 020000Z AUTO 34008G27KT 9SM 05/M16 A3042 RMK SLP295 T00491161 52035 IEM_DS3505
ZBAA,2000-12-02 01:00,ZBAA 020100Z AUTO 31019KT 6SM 05/M16 A3042 RMK T00501160 IEM_DS3505
ZBAA,2000-12-02 02:00,ZBAA 020200Z AUTO 31017KT 6SM 06/M16 A3045 RMK T00601160 IEM_DS3505
ZBAA,2000-12-02 03:00,ZBAA 020300Z AUTO 32014G33KT 7SM 06/M16 A3045 RMK SLP307 T00611163 52012 IEM_DS3505
ZBAA,2000-12-02 04:00,ZBAA 020400Z AUTO 32021G35KT 6SM 06/M20 A3045 RMK T00601200 IEM_DS3505
ZBAA,2000-12-02 05:00,ZBAA 020500Z AUTO 33016KT 6SM 07/M19 A3042 RMK T00701190 IEM_DS3505
ZBAA,2000-12-02 06:00,ZBAA 020600Z AUTO 32014KT 12SM 07/M20 A3042 RMK SLP290 T00691195 57017 IEM_DS3505
ZBAA,2000-12-02 07:00,ZBAA 020700Z AUTO 30014KT 6SM 07/M16 A3039 RMK T00701160 IEM_DS3505
ZBAA,2000-12-02 08:00,ZBAA 020800Z AUTO 30014G23KT 6SM 05/M17 A3039 RMK T00501170 IEM_DS3505
ZBAA,2000-12-02 09:00,ZBAA 020900Z AUTO 34004KT 9SM 05/M19 RMK SLP300 T00501194 52010 IEM_DS3505
ZBAA,2000-12-02 09:30,ZBAA 020930Z AUTO 28010KT 6SM 03/M16 A3042 RMK T00301160 IEM_DS3505
ZBAA,2000-12-02 10:00,ZBAA 021000Z AUTO 29012KT 6SM 04/M17 A3045 RMK T00401170 IEM_DS3505
ZBAA,2000-12-02 11:00,ZBAA 021100Z AUTO 31010KT 6SM 03/M17 A3045 RMK T00301170 IEM_DS3505
ZBAA,2000-12-02 12:00,ZBAA 021200Z AUTO 35002KT 12SM 04/M18 A3047 RMK SLP314 T00371183 52014 IEM_DS3505
ZBAA,2000-12-02 13:00,ZBAA 021300Z AUTO 6SM 00/M15 A3047 RMK T00001150 IEM_DS3505
ZBAA,2000-12-02 14:00,ZBAA 021400Z AUTO 02004KT 6SM 01/M15 A3047 RMK T00101150 IEM_DS3505
ZBAA,2000-12-02 15:00,ZBAA 021500Z AUTO 00000KT 6SM 01/M16 A3047 RMK SLP317 T00081164 52002 IEM_DS3505
ZBAA,2000-12-02 16:00,ZBAA 021600Z AUTO 35004KT 6SM M01/M14 A3047 RMK T10101140 IEM_DS3505
ZBAA,2000-12-02 17:00,ZBAA 021700Z AUTO 03006KT 6SM M01/M13 A3045 RMK T10101130 IEM_DS3505
ZBAA,2000-12-02 18:00,ZBAA 021800Z AUTO 00000KT 6SM M03/M13 A3045 RMK SLP306 T10271132 57010 IEM_DS3505
ZBAA,2000-12-02 19:00,ZBAA 021900Z AUTO 32004KT 6SM M03/M14 A3045 RMK T10301140 IEM_DS3505
ZBAA,2000-12-02 20:00,ZBAA 022000Z AUTO 02002KT 6SM M04/M11 A3042 RMK T10401110 IEM_DS3505
ZBAA,2000-12-02 21:00,ZBAA 022100Z AUTO 26002KT 6SM M03/M11 A3042 RMK SLP293 T10301114 57013 IEM_DS3505
ZBAA,2000-12-02 22:00,ZBAA 022200Z AUTO 18002KT 6SM M05/M09 A3039 RMK T10501090 IEM_DS3505
ZBAA,2000-12-02 23:00,ZBAA 022300Z AUTO 00000KT 6SM M05/M09 A3039 RMK T10501090 IEM_DS3505
ZBAA,2000-12-03 00:00,ZBAA 030000Z AUTO 00000KT 6SM M04/M12 A3039 RMK SLP287 T10391118 57007 IEM_DS3505
ZBAA,2000-12-03 01:00,ZBAA 030100Z AUTO 06002KT 6SM M03/M10 A3039 RMK T10301100 IEM_DS3505
ZBAA,2000-12-03 02:00,ZBAA 030200Z AUTO 10004KT 6SM M01/M08 A3039 RMK T10101080 IEM_DS3505
ZBAA,2000-12-03 03:00,ZBAA 030300Z AUTO 18002KT 6SM 03/M13 A3036 RMK SLP275 T00311127 57011 IEM_DS3505
ZBAA,2000-12-03 04:00,ZBAA 030400Z AUTO 00000KT 6SM 03/M10 A3033 RMK T00301100 IEM_DS3505
ZBAA,2000-12-03 05:00,ZBAA 030500Z AUTO 6SM 04/M11 A3027 RMK T00401110 IEM_DS3505
ZBAA,2000-12-03 06:00,ZBAA 030600Z AUTO 20006KT 9SM 06/M15 A3024 RMK SLP233 T00601146 57042 IEM_DS3505
ZBAA,2000-12-03 07:00,ZBAA 030700Z AUTO 19004KT 6SM 06/M12 A3021 RMK T00601120 IEM_DS3505
ZBAA,2000-12-03 08:00,ZBAA 030800Z AUTO 35004KT 6SM 03/M11 A3021 RMK T00301110 IEM_DS3505
ZBAA,2000-12-03 09:00,ZBAA 030900Z AUTO 20002KT 6SM 04/M12 A3018 RMK SLP223 T00401123 57010 IEM_DS3505
ZBAA,2000-12-03 10:00,ZBAA 031000Z AUTO 36002KT 00/M09 A3018 RMK T00001090 IEM_DS3505
ZBAA,2000-12-03 11:00,ZBAA 031100Z AUTO 00000KT 3SM M01/M08 A3018 RMK T10101080 IEM_DS3505
ZBAA,2000-12-03 12:00,ZBAA 031200Z AUTO 14004KT 9SM 01/M12 A3015 RMK SLP212 T00081118 57012 IEM_DS3505
ZBAA,2000-12-03 13:00,ZBAA 031300Z AUTO 06002KT 3SM M02/M07 A3015 RMK T10201070 IEM_DS3505
ZBAA,2000-12-03 14:00,ZBAA 031400Z AUTO 07002KT 2 1/2SM M03/M07 A3015 RMK T10301070 IEM_DS3505
ZBAA,2000-12-03 15:00,ZBAA 031500Z AUTO 14002KT 12SM M01/M10 A3012 RMK SLP195 T10081099 57016 IEM_DS3505
ZBAA,2000-12-03 16:00,ZBAA 031600Z AUTO 14002KT 2 1/2SM M02/M08 A3009 RMK T10201080 IEM_DS3505
ZBAA,2000-12-03 17:00,ZBAA 031700Z AUTO 12002KT 2 1/2SM M04/M07 A3006 RMK T10401070 IEM_DS3505
ZBAA,2000-12-03 18:00,ZBAA 031800Z AUTO 00000KT 6SM M02/M09 A3003 RMK SLP166 T10241091 57029 IEM_DS3505
ZBAA,2000-12-03 19:00,ZBAA 031900Z AUTO 00000KT 2 1/2SM M04/M07 A3000 RMK T10401070 IEM_DS3505
ZBAA,2000-12-03 20:00,ZBAA 032000Z AUTO 34004KT 2 1/2SM M05/M08 A2997 RMK T10501080 IEM_DS3505
ZBAA,2000-12-03 21:00,ZBAA 032100Z AUTO 02002KT 4SM M03/M07 A2997 RMK SLP142 T10281071 57024 IEM_DS3505
ZBAA,2000-12-03 22:00,ZBAA 032200Z AUTO 36002KT 3SM M05/M07 A2994 RMK T10501070 IEM_DS3505
ZBAA,2000-12-03 23:00,ZBAA 032300Z AUTO 04002KT 2 1/2SM M04/M06 A2994 RMK T10401060 IEM_DS3505
ZBAA,2000-12-04 00:00,ZBAA 040000Z AUTO 04002KT 4SM M04/M08 A2997 RMK SLP145 T10401083 52003 IEM_DS3505
ZBAA,2000-12-04 01:00,ZBAA 040100Z AUTO 00000KT 1 1/2SM M03/M05 A2997 RMK T10301050 IEM_DS3505
ZBAA,2000-12-04 02:00,ZBAA 040200Z AUTO 36004KT 1 1/2SM M01/M05 A2997 RMK T10101050 IEM_DS3505
ZBAA,2000-12-04 03:00,ZBAA 040300Z AUTO 03002KT 5SM 02/M07 A2997 RMK SLP149 T00241069 52004 IEM_DS3505
ZBAA,2000-12-04 04:00,ZBAA 040400Z AUTO 32004KT 3SM 05/M07 A2997 RMK T00501070 IEM_DS3505
ZBAA,2000-12-04 05:00,ZBAA 040500Z AUTO 27010KT 09/M10 A2994 RMK T00901100 IEM_DS3505
ZBAA,2000-12-04 06:00,ZBAA 040600Z AUTO 32008G27KT 7SM 11/M16 A2994 RMK SLP139 T01101162 57009 IEM_DS3505
ZBAA,2000-12-04 07:00,ZBAA 040700Z AUTO 28014KT 6SM 10/M14 A2997 RMK T01001140 IEM_DS3505
ZBAA,2000-12-04 08:00,ZBAA 040800Z AUTO 30021G33KT 6SM 10/M16 A2997 RMK T01001160 IEM_DS3505
ZBAA,2000-12-04 09:00,ZBAA 040900Z AUTO 32008KT 9SM 09/M17 A3003 RMK SLP175 T00911169 52035 IEM_DS3505
ZBAA,2000-12-04 10:00,ZBAA 041000Z AUTO 33010KT 6SM 06/M15 A3009 RMK T00601150 IEM_DS3505
ZBAA,2000-12-04 11:00,ZBAA 041100Z AUTO 35016KT 6SM 05/M15 A3015 RMK T00501150 IEM_DS3505
ZBAA,2000-12-04 12:00,ZBAA 041200Z AUTO 33008KT 7SM 06/M18 A3018 RMK SLP224 T00561181 52049 IEM_DS3505
ZBAA,2000-12-04 13:00,ZBAA 041300Z AUTO 34010KT 6SM 02/M15 A3021 RMK T00201150 IEM_DS3505
ZBAA,2000-12-04 14:00,ZBAA 041400Z AUTO 33016G25KT 6SM 02/M16 A3024 RMK T00201160 IEM_DS3505
ZBAA,2000-12-04 15:00,ZBAA 041500Z AUTO 34002KT 12SM 02/M17 A3027 RMK SLP248 T00171166 52024 IEM_DS3505
ZBAA,2000-12-04 16:00,ZBAA 041600Z AUTO 35010KT 6SM 00/M16 A3027 RMK T00001160 IEM_DS3505
ZBAA,2000-12-04 17:00,ZBAA 041700Z AUTO 36008KT 6SM 00/M16 A3030 RMK T00001160 IEM_DS3505
ZBAA,2000-12-04 18:00,ZBAA 041800Z AUTO 06006KT 19SM M03/M17 A3030 RMK SLP263 T10261166 52005 IEM_DS3505
ZBAA,2000-12-04 19:00,ZBAA 041900Z AUTO 02002KT 6SM M02/M14 A3033 RMK T10201140 IEM_DS3505
ZBAA,2000-12-04 20:00,ZBAA 042000Z AUTO 36004KT 6SM M05/M14 A3033 RMK T10501140 IEM_DS3505
ZBAA,2000-12-04 21:00,ZBAA 042100Z AUTO 01006KT 6SM M04/M15 A3033 RMK T10401150 IEM_DS3505
ZBAA,2000-12-04 22:00,ZBAA 042200Z AUTO 36006KT 6SM M05/M14 A3033 RMK T10501140 IEM_DS3505
ZBAA,2000-12-04 23:00,ZBAA 042300Z AUTO 01004KT 6SM M05/M13 A3033 RMK T10501130 IEM_DS3505
ZBAA,2000-12-05 00:00,ZBAA 050000Z AUTO 19004KT 6SM M04/M14 A3036 RMK SLP281 T10351137 52018 IEM_DS3505
ZBAA,2000-12-05 01:00,ZBAA 050100Z AUTO 28004KT 6SM M02/M14 A3039 RMK T10201140 IEM_DS3505
ZBAA,2000-12-05 02:00,ZBAA 050200Z AUTO 6SM 00/M14 A3039 RMK T00001140 IEM_DS3505
ZBAA,2000-12-05 03:00,ZBAA 050300Z AUTO 23006KT 12SM 02/M16 A3039 RMK SLP286 T00201159 52004 IEM_DS3505
ZBAA,2000-12-05 04:00,ZBAA 050400Z AUTO 19008KT 6SM 02/M15 A3036 RMK T00201150 IEM_DS3505
ZBAA,2000-12-05 05:00,ZBAA 050500Z AUTO 18010KT 6SM 04/M15 A3030 RMK T00401150 IEM_DS3505
ZBAA,2000-12-05 06:00,ZBAA 050600Z AUTO 20008KT 19SM 04/M16 A3027 RMK SLP249 T00431160 57036 IEM_DS3505
ZBAA,2000-12-05 07:00,ZBAA 050700Z AUTO 18008KT 6SM 04/M15 A3027 RMK T00401150 IEM_DS3505
ZBAA,2000-12-05 08:00,ZBAA 050800Z AUTO 17006KT 6SM 04/M14 A3024 RMK T00401140 IEM_DS3505
ZBAA,2000-12-05 09:00,ZBAA 050900Z AUTO 16002KT 12SM 03/M14 A3024 RMK SLP241 T00261140 57008 IEM_DS3505
ZBAA,2000-12-05 10:00,ZBAA 051000Z AUTO 12004KT 6SM 00/M12 A3024 RMK T00001120 IEM_DS3505
ZBAA,2000-12-05 11:00,ZBAA 051100Z AUTO 13004KT 6SM M01/M11 A3024 RMK T10101110 IEM_DS3505
ZBAA,2000-12-05 12:00,ZBAA 051200Z AUTO 14004KT 12SM M01/M12 A3024 RMK SLP237 T10061116 57005 IEM_DS3505
ZBAA,2000-12-05 13:00,ZBAA 051300Z AUTO 11002KT M02/M11 A3024 RMK T10201110 IEM_DS3505
ZBAA,2000-12-05 14:00,ZBAA 051400Z AUTO 11002KT M02/M10 A3024 RMK T10201100 IEM_DS3505
ZBAA,2000-12-05 15:00,ZBAA 051500Z AUTO 06002KT 7SM M02/M10 A3024 RMK SLP235 T10171105 57002 IEM_DS3505
ZBAA,2000-12-05 16:00,ZBAA 051600Z AUTO 01004KT 4SM M05/M10 A3021 RMK T10501100 IEM_DS3505
ZBAA,2000-12-05 17:00,ZBAA 051700Z AUTO 34002KT M04/M10 A3024 RMK T10401100 IEM_DS3505
ZBAA,2000-12-05 18:00,ZBAA 051800Z AUTO 04002KT 9SM M02/M10 A3024 RMK SLP235 T10231096 52001 IEM_DS3505
ZBAA,2000-12-05 19:00,ZBAA 051900Z AUTO 33002KT M03/M10 A3021 RMK T10301100 IEM_DS3505
ZBAA,2000-12-05 20:00,ZBAA 052000Z AUTO 28002KT M03/M10 A3021 RMK T10301100 IEM_DS3505
ZBAA,2000-12-05 21:00,ZBAA 052100Z AUTO 02002KT 9SM M02/M11 A3021 RMK SLP224 T10241109 57011 IEM_DS3505
ZBAA,2000-12-05 22:00,ZBAA 052200Z AUTO 34004KT 3SM M04/M10 A3021 RMK T10401100 IEM_DS3505
ZBAA,2000-12-05 23:00,ZBAA 052300Z AUTO 35004KT 2 1/2SM M06/M10 A3021 RMK T10601100 IEM_DS3505
ZBAA,2000-12-06 00:00,ZBAA 060000Z AUTO 02002KT 6SM M03/M10 A3024 RMK SLP234 T10281101 52009 IEM_DS3505
ZBAA,2000-12-06 01:00,ZBAA 060100Z AUTO 32004KT 2 1/2SM M03/M07 A3024 RMK T10301070 IEM_DS3505
ZBAA,2000-12-06 02:00,ZBAA 060200Z AUTO 36006KT 6SM 00/M07 A3024 RMK T00001070 IEM_DS3505
ZBAA,2000-12-06 03:00,ZBAA 060300Z AUTO 02004KT 6SM 02/M11 A3024 RMK SLP237 T00221109 52004 IEM_DS3505
ZBAA,2000-12-06 04:00,ZBAA 060400Z AUTO 5SM 04/M08 A3021 RMK T00401080 IEM_DS3505
ZBAA,2000-12-06 05:00,ZBAA 060500Z AUTO 02002KT 6SM 04/M08 A3018 RMK T00401080 IEM_DS3505
ZBAA,2000-12-06 06:00,ZBAA 060600Z AUTO 05002KT 6SM 06/M10 A3018 RMK SLP216 T00551102 57021 IEM_DS3505
ZBAA,2000-12-06 07:00,ZBAA 060700Z AUTO 01002KT 6SM 06/M09 A3018 RMK T00601090 IEM_DS3505
ZBAA,2000-12-06 08:00,ZBAA 060800Z AUTO 00000KT 6SM 06/M09 A3018 RMK T00601090 IEM_DS3505
ZBAA,2000-12-06 09:00,ZBAA 060900Z AUTO 21002KT 5SM 03/M09 A3021 RMK SLP226 T00341089 52010 IEM_DS3505
ZBAA,2000-12-06 10:00,ZBAA 061000Z AUTO 03/M09 A3021 RMK T00301090 IEM_DS3505
ZBAA,2000-12-06 11:00,ZBAA 061100Z AUTO 04002KT 00/M07 A3024 RMK T00001070 IEM_DS3505
ZBAA,2000-12-06 12:00,ZBAA 061200Z AUTO 01002KT 2 1/2SM M00/M08 A3027 RMK SLP246 T10021079 52019 IEM_DS3505
ZBAA,2000-12-06 13:00,ZBAA 061300Z AUTO 00000KT 2SM M01/M07 A3027 RMK T10101070 IEM_DS3505
ZBAA,2000-12-06 14:00,ZBAA 061400Z AUTO 00000KT 2SM M02/M06 A3030 RMK T10201060 IEM_DS3505
ZBAA,2000-12-06 15:00,ZBAA 061500Z AUTO 00000KT 1 1/2SM M02/M07 A3030 RMK SLP260 T10191072 52014 IEM_DS3505
ZBAA,2000-12-06 16:00,ZBAA 061600Z AUTO 30002KT 2SM M01/M07 A3030 RMK T10101070 IEM_DS3505
ZBAA,2000-12-06 17:00,ZBAA 061700Z AUTO 27002KT 2SM M02/M07 A3033 RMK T10201070 IEM_DS3505
ZBAA,2000-12-06 18:00,ZBAA 061800Z AUTO 03002KT 2SM M01/M06 A3033 RMK SLP264 T10131064 52005 IEM_DS3505
ZBAA,2000-12-06 19:00,ZBAA 061900Z AUTO 35006KT 2SM M03/M07 A3033 RMK T10301070 IEM_DS3505
ZBAA,2000-12-06 20:00,ZBAA 062000Z AUTO 36004KT 2SM M03/M06 A3033 RMK T10301060 IEM_DS3505
ZBAA,2000-12-06 21:00,ZBAA 062100Z AUTO 02004KT 4SM M01/M08 A3033 RMK SLP268 T10131080 52004 IEM_DS3505
ZBAA,2000-12-06 22:00,ZBAA 062200Z AUTO 00000KT 3SM M03/M07 A3036 RMK T10301070 IEM_DS3505
ZBAA,2000-12-06 23:00,ZBAA 062300Z AUTO 00000KT 3SM M04/M06 A3036 RMK T10401060 IEM_DS3505
ZBAA,2000-12-07 00:00,ZBAA 070000Z AUTO 11004KT 3SM M02/M07 A3039 RMK SLP290 T10211072 52021 IEM_DS3505
ZBAA,2000-12-07 01:00,ZBAA 070100Z AUTO 17006KT 1SM M02/M03 A3042 RMK T10201030 IEM_DS3505
ZBAA,2000-12-07 02:00,ZBAA 070200Z AUTO 14004KT 1SM 00/M03 A3045 RMK T00001030 IEM_DS3505
ZBAA,2000-12-07 03:00,ZBAA 070300Z AUTO 08004KT 3SM 01/M03 A3042 RMK SLP300 T00131034 52010 IEM_DS3505
ZBAA,2000-12-07 04:00,ZBAA 070400Z AUTO 10002KT 1 1/4SM 02/M02 A3039 RMK T00201020 IEM_DS3505
ZBAA,2000-12-07 05:00,ZBAA 070500Z AUTO 12004KT 1 1/2SM 03/M02 A3036 RMK T00301020 IEM_DS3505
ZBAA,2000-12-07 06:00,ZBAA 070600Z AUTO 08004KT 4SM 02/M04 A3033 RMK SLP268 T00251036 57031 IEM_DS3505
ZBAA,2000-12-07 07:00,ZBAA 070700Z AUTO 15004KT 1 1/2SM 03/M02 A3033 RMK T00301020 IEM_DS3505
ZBAA,2000-12-07 08:00,ZBAA 070800Z AUTO 14006KT 1 1/2SM 02/M03 A3033 RMK T00201030 IEM_DS3505
ZBAA,2000-12-07 09:00,ZBAA 070900Z AUTO 12002KT 5SM 01/M04 A3033 RMK SLP267 T00141038 57002 IEM_DS3505
ZBAA,2000-12-07 10:00,ZBAA 071000Z AUTO 15004KT 2 1/2SM 02/M02 A3033 RMK T00201020 IEM_DS3505
ZBAA,2000-12-07 11:00,ZBAA 071100Z AUTO 16004KT 2 1/2SM 01/M03 A3033 RMK T00101030 IEM_DS3505
ZBAA,2000-12-07 12:00,ZBAA 071200Z AUTO 00000KT 4SM 01/M04 A3033 RMK SLP264 T00081036 57003 IEM_DS3505
ZBAA,2000-12-07 13:00,ZBAA 071300Z AUTO 11004KT 2 1/2SM 01/M03 A3033 RMK T00101030 IEM_DS3505
ZBAA,2000-12-07 14:00,ZBAA 071400Z AUTO 15004KT 2 1/2SM 01/M03 A3030 RMK T00101030 IEM_DS3505
ZBAA,2000-12-07 15:00,ZBAA 071500Z AUTO 13002KT 4SM 01/M04 A3030 RMK SLP255 T00061040 57008 IEM_DS3505
ZBAA,2000-12-07 16:00,ZBAA 071600Z AUTO 08002KT 2SM 00/M04 A3027 RMK T00001040 IEM_DS3505
ZBAA,2000-12-07 17:00,ZBAA 071700Z AUTO 09002KT 2 1/2SM 00/M04 A3027 RMK T00001040 IEM_DS3505
ZBAA,2000-12-07 18:00,ZBAA 071800Z AUTO 14002KT 3SM M00/M03 A3024 RMK SLP244 T10011031 57011 IEM_DS3505
ZBAA,2000-12-07 19:00,ZBAA 071900Z AUTO 00000KT 3SM 00/M04 A3024 RMK T00001040 IEM_DS3505
ZBAA,2000-12-07 20:00,ZBAA 072000Z AUTO 01002KT 3SM 00/M03 A3021 RMK T00001030 IEM_DS3505
ZBAA,2000-12-07 21:00,ZBAA 072100Z AUTO 10002KT 4SM M00/M03 A3021 RMK SLP224 T10011030 57020 IEM_DS3505
ZBAA,2000-12-07 23:00,ZBAA 072300Z AUTO 35004KT 3SM 00/M03 A3021 RMK T00001030 IEM_DS3505
ZBAA,2000-12-08 00:00,ZBAA 080000Z AUTO 20002KT 2 1/2SM 00/M03 A3018 RMK SLP224 T00051034 54000 IEM_DS3505
ZBAA,2000-12-08 01:00,ZBAA 080100Z AUTO 35004KT 2SM 00/M03 A3021 RMK T00001030 IEM_DS3505
ZBAA,2000-12-08 02:00,ZBAA 080200Z AUTO 35004KT 2 1/2SM 01/M03 A3021 RMK T00101030 IEM_DS3505
ZBAA,2000-12-08 03:00,ZBAA 080300Z AUTO 02002KT 3SM 02/M04 A3018 RMK SLP219 T00221041 57005 IEM_DS3505
ZBAA,2000-12-08 04:00,ZBAA 080400Z AUTO 29004KT 2SM 02/M03 A3015 RMK T00201030 IEM_DS3505
ZBAA,2000-12-08 05:00,ZBAA 080500Z AUTO 2SM 03/M03 A3012 RMK T00301030 IEM_DS3505
ZBAA,2000-12-08 06:00,ZBAA 080600Z AUTO 00000KT 2 1/2SM 03/M04 A3009 RMK SLP187 T00341040 57032 IEM_DS3505
ZBAA,2000-12-08 07:00,ZBAA 080700Z AUTO 17002KT 2SM 04/M02 A3009 RMK T00401020 IEM_DS3505
ZBAA,2000-12-08 08:00,ZBAA 080800Z AUTO 21004KT 2SM 03/M03 A3006 RMK T00301030 IEM_DS3505
ZBAA,2000-12-08 09:00,ZBAA 080900Z AUTO 23002KT 2 1/2SM 02/M04 A3009 RMK SLP186 T00191040 57001 IEM_DS3505
ZBAA,2000-12-08 10:00,ZBAA 081000Z AUTO 15002KT 1SM M01/M03 A3009 RMK T10101030 IEM_DS3505
ZBAA,2000-12-08 11:00,ZBAA 081100Z AUTO 17002KT 1SM 00/M02 A3009 RMK T00001020 IEM_DS3505
ZBAA,2000-12-08 12:00,ZBAA 081200Z AUTO 30002KT 1 1/2SM 00/M03 A3009 RMK SLP191 T00011031 52005 IEM_DS3505
ZBAA,2000-12-08 13:00,ZBAA 081300Z AUTO 00000KT 1SM M01/M03 A3012 RMK T10101030 IEM_DS3505
ZBAA,2000-12-08 14:00,ZBAA 081400Z AUTO 00000KT 1SM M01/M02 A3012 RMK T10101020 IEM_DS3505
ZBAA,2000-12-08 15:00,ZBAA 081500Z AUTO 19002KT 2 1/2SM 01/M02 A3009 RMK SLP193 T00141023 52002 IEM_DS3505
ZBAA,2000-12-08 16:00,ZBAA 081600Z AUTO 09002KT 1SM 00/M02 A3009 RMK T00001020 IEM_DS3505
ZBAA,2000-12-08 17:00,ZBAA 081700Z AUTO 00000KT 1SM 00/M01 A3009 RMK T00001010 IEM_DS3505
ZBAA,2000-12-08 18:00,ZBAA 081800Z AUTO 07002KT 2SM 01/M02 A3009 RMK SLP191 T00121022 57002 IEM_DS3505
ZBAA,2000-12-08 19:00,ZBAA 081900Z AUTO 00000KT 1SM 00/M01 A3009 RMK T00001010 IEM_DS3505
ZBAA,2000-12-08 20:00,ZBAA 082000Z AUTO 34004KT 1SM 00/M01 A3009 RMK T00001010 IEM_DS3505
ZBAA,2000-12-08 21:00,ZBAA 082100Z AUTO 36002KT 1 1/4SM 01/M01 A3009 RMK 70003 SLP183 T00141008 57008 IEM_DS3505
ZBAA,2000-12-08 22:00,ZBAA 082200Z AUTO 33006KT 1SM 00/M01 A3009 RMK T00001010 IEM_DS3505
ZBAA,2000-12-08 23:00,ZBAA 082300Z AUTO 35004KT 1SM 01/M01 A3009 RMK T00101010 IEM_DS3505
ZBAA,2000-12-09 00:00,ZBAA 090000Z AUTO 34002KT 1 1/4SM 01/M02 A3009 RMK 60000 SLP194 T00081024 52011 IEM_DS3505
ZBAA,2000-12-09 01:00,ZBAA 090100Z AUTO 35006KT 1SM 01/M01 A3012 RMK T00101010 IEM_DS3505
ZBAA,2000-12-09 02:00,ZBAA 090200Z AUTO 01008KT 1SM 02/00 A3015 RMK T00200000 IEM_DS3505
ZBAA,2000-12-09 03:00,ZBAA 090300Z AUTO 06004KT 3SM 04/M03 A3015 RMK SLP209 T00431027 52015 IEM_DS3505
ZBAA,2000-12-09 04:00,ZBAA 090400Z AUTO 36006KT 2SM 07/M03 A3015 RMK T00701030 IEM_DS3505
ZBAA,2000-12-09 05:00,ZBAA 090500Z AUTO 34014G25KT 6SM 08/M09 A3015 RMK T00801090 IEM_DS3505
ZBAA,2000-12-09 06:00,ZBAA 090600Z AUTO 36010KT 7SM 07/M13 A3015 RMK SLP212 T00721130 52003 IEM_DS3505
ZBAA,2000-12-09 07:00,ZBAA 090700Z AUTO 31017KT 6SM 07/M13 A3021 RMK T00701130 IEM_DS3505
ZBAA,2000-12-09 08:00,ZBAA 090800Z AUTO 31017KT 6SM 05/M15 A3024 RMK T00501150 IEM_DS3505
ZBAA,2000-12-09 09:00,ZBAA 090900Z AUTO 33008KT 11SM 05/M16 A3024 RMK SLP246 T00461163 52034 IEM_DS3505
ZBAA,2000-12-09 10:00,ZBAA 091000Z AUTO 33016KT 6SM 04/M17 A3030 RMK T00401170 IEM_DS3505
ZBAA,2000-12-09 11:00,ZBAA 091100Z AUTO 34012KT 6SM 03/M18 A3033 RMK T00301180 IEM_DS3505
ZBAA,2000-12-09 12:00,ZBAA 091200Z AUTO 00000KT 9SM 02/M22 A3036 RMK SLP274 T00251222 52028 IEM_DS3505
ZBAA,2000-12-09 13:00,ZBAA 091300Z AUTO 35012KT 6SM 01/M19 A3039 RMK T00101190 IEM_DS3505
ZBAA,2000-12-09 14:00,ZBAA 091400Z AUTO 34012KT 6SM 01/M22 A3042 RMK T00101220 IEM_DS3505
ZBAA,2000-12-09 15:00,ZBAA 091500Z AUTO 01010KT 12SM 00/M25 A3047 RMK SLP313 T00021248 52038 IEM_DS3505
ZBAA,2000-12-09 16:00,ZBAA 091600Z AUTO 33010KT 6SM M01/M23 A3047 RMK T10101230 IEM_DS3505
ZBAA,2000-12-09 17:00,ZBAA 091700Z AUTO 34012KT 6SM M02/M24 A3050 RMK T10201240 IEM_DS3505
ZBAA,2000-12-09 18:00,ZBAA 091800Z AUTO 02006KT 19SM M02/M25 A3053 RMK SLP332 T10151246 52020 IEM_DS3505
ZBAA,2000-12-09 19:00,ZBAA 091900Z AUTO 35010KT 6SM M05/M21 A3053 RMK T10501210 IEM_DS3505
ZBAA,2000-12-09 20:00,ZBAA 092000Z AUTO 04006KT 6SM M04/M23 A3053 RMK T10401230 IEM_DS3505
ZBAA,2000-12-09 21:00,ZBAA 092100Z AUTO 35004KT 19SM M03/M26 A3053 RMK 70000 SLP341 T10271256 52008 IEM_DS3505
ZBAA,2000-12-09 22:00,ZBAA 092200Z AUTO 34010KT 6SM M06/M22 A3056 RMK T10601220 IEM_DS3505
ZBAA,2000-12-09 23:00,ZBAA 092300Z AUTO 33012KT 6SM M06/M25 A3056 RMK T10601250 IEM_DS3505
ZBAA,2000-12-10 00:00,ZBAA 100000Z AUTO 33004KT 19SM M04/M27 A3056 RMK SLP352 T10421268 52011 IEM_DS3505
ZBAA,2000-12-10 01:00,ZBAA 100100Z AUTO 32010KT 6SM M04/M26 A3059 RMK T10401260 IEM_DS3505
ZBAA,2000-12-10 02:00,ZBAA 100200Z AUTO 32010KT 6SM M03/M25 A3059 RMK T10301250 IEM_DS3505
ZBAA,2000-12-10 03:00,ZBAA 100300Z AUTO 32004KT 19SM M01/M26 A3056 RMK SLP347 T10111259 57005 IEM_DS3505
ZBAA,2000-12-10 04:00,ZBAA 100400Z AUTO 34006KT 6SM M01/M25 A3053 RMK T10101250 IEM_DS3505
ZBAA,2000-12-10 05:00,ZBAA 100500Z AUTO 33008KT 6SM 00/M23 A3050 RMK T00001230 IEM_DS3505
ZBAA,2000-12-10 06:00,ZBAA 100600Z AUTO 28016KT 6SM 01/M23 A3047 RMK T00101230 IEM_DS3505
ZBAA,2000-12-10 07:00,ZBAA 100700Z AUTO 28017G29KT 6SM 01/M22 A3047 RMK T00101220 IEM_DS3505
ZBAA,2000-12-10 08:00,ZBAA 100800Z AUTO 28014G23KT 6SM 01/M23 A3047 RMK T00101230 IEM_DS3505
ZBAA,2000-12-10 09:00,ZBAA 100900Z AUTO 25006KT 9SM M00/M20 A3050 RMK SLP331 T10041199 52011 IEM_DS3505
ZBAA,2000-12-10 10:00,ZBAA 101000Z AUTO 31008KT 6SM 00/M24 A3050 RMK T00001240 IEM_DS3505
ZBAA,2000-12-10 11:00,ZBAA 101100Z AUTO 00000KT 6SM M02/M22 A3053 RMK T10201220 IEM_DS3505
ZBAA,2000-12-10 12:00,ZBAA 101200Z AUTO 26004KT 7SM M02/M19 A3053 RMK SLP341 T10181187 52010 IEM_DS3505
ZBAA,2000-12-10 13:00,ZBAA 101300Z AUTO 00000KT 6SM M04/M18 A3056 RMK T10401180 IEM_DS3505
ZBAA,2000-12-10 14:00,ZBAA 101400Z AUTO 09002KT 6SM M05/M14 A3056 RMK T10501140 IEM_DS3505
ZBAA,2000-12-10 15:00,ZBAA 101500Z AUTO 25006KT 7SM M02/M18 A3059 RMK SLP355 T10251180 52014 IEM_DS3505
ZBAA,2000-12-10 16:00,ZBAA 101600Z AUTO 36004KT 6SM M06/M15 A3059 RMK T10601150 IEM_DS3505
ZBAA,2000-12-10 17:00,ZBAA 101700Z AUTO 35002KT 6SM M05/M19 A3062 RMK T10501190 IEM_DS3505
ZBAA,2000-12-10 18:00,ZBAA 101800Z AUTO 11002KT 6SM M04/M16 A3065 RMK SLP375 T10391164 52020 IEM_DS3505
ZBAA,2000-12-10 19:00,ZBAA 101900Z AUTO 35006KT 6SM M07/M18 A3065 RMK T10701180 IEM_DS3505
ZBAA,2000-12-10 20:00,ZBAA 102000Z AUTO 02006KT 6SM M06/M19 A3068 RMK T10601190 IEM_DS3505
ZBAA,2000-12-10 21:00,ZBAA 102100Z AUTO 04008KT 9SM M05/M21 A3068 RMK SLP386 T10481212 52011 IEM_DS3505
ZBAA,2000-12-10 22:00,ZBAA 102200Z AUTO 01008KT 6SM M06/M21 A3071 RMK T10601210 IEM_DS3505
ZBAA,2000-12-10 23:00,ZBAA 102300Z AUTO 01006KT 6SM M07/M21 A3071 RMK T10701210 IEM_DS3505
ZBAA,2000-12-11 00:00,ZBAA 110000Z AUTO 03006KT 12SM M06/M22 A3071 RMK SLP402 T10601223 52015 IEM_DS3505
ZBAA,2000-12-11 01:00,ZBAA 110100Z AUTO 35002KT 6SM M05/M21 A3074 RMK T10501210 IEM_DS3505
ZBAA,2000-12-11 02:00,ZBAA 110200Z AUTO 02002KT 6SM M03/M22 A3077 RMK T10301220 IEM_DS3505
ZBAA,2000-12-11 03:00,ZBAA 110300Z AUTO 03006KT 12SM M01/M24 A3074 RMK SLP405 T10121244 52004 IEM_DS3505
ZBAA,2000-12-11 04:00,ZBAA 110400Z AUTO 32006KT 6SM M01/M23 A3071 RMK T10101230 IEM_DS3505
ZBAA,2000-12-11 05:00,ZBAA 110500Z AUTO 33004KT 6SM 00/M24 A3068 RMK T00001240 IEM_DS3505
ZBAA,2000-12-11 06:00,ZBAA 110600Z AUTO 21006KT 12SM 00/M22 A3065 RMK SLP383 T00041217 57022 IEM_DS3505
ZBAA,2000-12-11 07:00,ZBAA 110700Z AUTO 30010KT 6SM 01/M26 A3065 RMK T00101260 IEM_DS3505
ZBAA,2000-12-11 08:00,ZBAA 110800Z AUTO 30008KT 6SM 01/M26 A3065 RMK T00101260 IEM_DS3505
ZBAA,2000-12-11 09:00,ZBAA 110900Z AUTO 25006KT 11SM M02/M20 A3065 RMK SLP389 T10181196 52005 IEM_DS3505
ZBAA,2000-12-11 10:00,ZBAA 111000Z AUTO 23008KT 6SM M02/M18 A3065 RMK T10201180 IEM_DS3505
ZBAA,2000-12-11 11:00,ZBAA 111100Z AUTO 22006KT 6SM M02/M18 A3065 RMK T10201180 IEM_DS3505
ZBAA,2000-12-11 12:00,ZBAA 111200Z AUTO 23004KT 7SM M04/M18 A3065 RMK SLP375 T10361178 57014 IEM_DS3505
ZBAA,2000-12-11 13:00,ZBAA 111300Z AUTO 35004KT 6SM M05/M18 A3062 RMK T10501180 IEM_DS3505
ZBAA,2000-12-11 14:00,ZBAA 111400Z AUTO 33002KT 5SM M06/M19 A3062 RMK T10601190 IEM_DS3505
ZBAA,2000-12-11 15:00,ZBAA 111500Z AUTO 25004KT 6SM M04/M19 A3062 RMK SLP366 T10421187 57009 IEM_DS3505
ZBAA,2000-12-11 16:00,ZBAA 111600Z AUTO 35002KT 5SM M06/M19 A3059 RMK T10601190 IEM_DS3505
ZBAA,2000-12-11 17:00,ZBAA 111700Z AUTO 01002KT M07/M17 A3059 RMK T10701170 IEM_DS3505
ZBAA,2000-12-11 18:00,ZBAA 111800Z AUTO 25004KT 7SM M05/M19 A3059 RMK SLP355 T10531190 57010 IEM_DS3505
ZBAA,2000-12-11 19:00,ZBAA 111900Z AUTO 35004KT M08/M17 A3059 RMK T10801170 IEM_DS3505
ZBAA,2000-12-11 20:00,ZBAA 112000Z AUTO 36002KT 3SM M09/M16 A3056 RMK T10901160 IEM_DS3505
ZBAA,2000-12-11 21:00,ZBAA 112100Z AUTO 01002KT 6SM M08/M17 A3053 RMK SLP334 T10831166 57022 IEM_DS3505
ZBAA,2000-12-11 22:00,ZBAA 112200Z AUTO 35004KT 5SM M11/M17 A3050 RMK T11101170 IEM_DS3505
ZBAA,2000-12-11 23:00,ZBAA 112300Z AUTO 24002KT 5SM M09/M16 A3050 RMK T10901160 IEM_DS3505
ZBAA,2000-12-12 00:00,ZBAA 120000Z AUTO 00000KT 4SM M08/M16 A3050 RMK SLP324 T10781159 57010 IEM_DS3505
ZBAA,2000-12-12 01:00,ZBAA 120100Z AUTO 32002KT 6SM M07/M15 A3047 RMK T10701150 IEM_DS3505
ZBAA,2000-12-12 02:00,ZBAA 120200Z AUTO 27006KT 6SM M03/M18 A3045 RMK T10301180 IEM_DS3505
ZBAA,2000-12-12 03:00,ZBAA 120300Z AUTO 18002KT 6SM 01/M16 A3045 RMK SLP305 T00111162 57018 IEM_DS3505
ZBAA,2000-12-12 04:00,ZBAA 120400Z AUTO 08004KT 6SM 01/M15 A3039 RMK T00101150 IEM_DS3505
ZBAA,2000-12-12 05:00,ZBAA 120500Z AUTO 6SM 03/M18 A3033 RMK T00301180 IEM_DS3505
ZBAA,2000-12-12 06:00,ZBAA 120600Z AUTO 19004KT 12SM 03/M20 A3030 RMK SLP265 T00341199 57040 IEM_DS3505
ZBAA,2000-12-12 07:00,ZBAA 120700Z AUTO 29012KT 6SM 04/M24 A3030 RMK T00401240 IEM_DS3505
ZBAA,2000-12-12 08:00,ZBAA 120800Z AUTO 19008KT 6SM 03/M19 A3027 RMK T00301190 IEM_DS3505
ZBAA,2000-12-12 09:00,ZBAA 120900Z AUTO 23002KT 6SM 01/M17 A3027 RMK SLP259 T00081174 57006 IEM_DS3505
ZBAA,2000-12-12 10:00,ZBAA 121000Z AUTO 22008KT 6SM 01/M17 A3027 RMK T00101170 IEM_DS3505
ZBAA,2000-12-12 11:00,ZBAA 121100Z AUTO 21008KT 5SM 01/M16 A3027 RMK T00101160 IEM_DS3505
ZBAA,2000-12-12 12:00,ZBAA 121200Z AUTO 22002KT 7SM M01/M16 A3027 RMK SLP251 T10141163 57008 IEM_DS3505
ZBAA,2000-12-12 13:00,ZBAA 121300Z AUTO 23006KT 00/M16 A3027 RMK T00001160 IEM_DS3505
ZBAA,2000-12-12 14:00,ZBAA 121400Z AUTO 00000KT M04/M13 A3024 RMK T10401130 IEM_DS3505
ZBAA,2000-12-12 15:00,ZBAA 121500Z AUTO 19002KT 6SM M04/M16 A3024 RMK SLP242 T10371162 57009 IEM_DS3505
ZBAA,2000-12-12 16:00,ZBAA 121600Z AUTO 03002KT M06/M13 A3024 RMK T10601130 IEM_DS3505
ZBAA,2000-12-12 17:00,ZBAA 121700Z AUTO 01004KT 2SM M07/M12 A3021 RMK T10701120 IEM_DS3505
ZBAA,2000-12-12 18:00,ZBAA 121800Z AUTO 08002KT 4SM M06/M16 A3021 RMK SLP224 T10571157 57018 IEM_DS3505
ZBAA,2000-12-12 19:00,ZBAA 121900Z AUTO 34004KT 2SM M09/M14 A3018 RMK T10901140 IEM_DS3505
ZBAA,2000-12-12 20:00,ZBAA 122000Z AUTO 35002KT 2 1/2SM M08/M13 A3018 RMK T10801130 IEM_DS3505
ZBAA,2000-12-12 21:00,ZBAA 122100Z AUTO 05002KT 5SM M07/M14 A3015 RMK SLP207 T10731145 57017 IEM_DS3505
ZBAA,2000-12-12 22:00,ZBAA 122200Z AUTO 33006KT 3SM M09/M14 A3015 RMK T10901140 IEM_DS3505
ZBAA,2000-12-12 23:00,ZBAA 122300Z AUTO 35004KT 4SM M09/M13 A3015 RMK T10901130 IEM_DS3505
ZBAA,2000-12-13 00:00,ZBAA 130000Z AUTO 02002KT 5SM M06/M14 A3015 RMK SLP213 T10581136 52006 IEM_DS3505
ZBAA,2000-12-13 01:00,ZBAA 130100Z AUTO 36004KT M06/M13 A3018 RMK T10601130 IEM_DS3505
ZBAA,2000-12-13 02:00,ZBAA 130200Z AUTO 36004KT 6SM M04/M13 A3018 RMK T10401130 IEM_DS3505
ZBAA,2000-12-13 03:00,ZBAA 130300Z AUTO 34002KT 5SM 00/M15 A3015 RMK SLP213 T00051150 54000 IEM_DS3505
ZBAA,2000-12-13 04:00,ZBAA 130400Z AUTO 01002KT 6SM 02/M14 A3015 RMK T00201140 IEM_DS3505
ZBAA,2000-12-13 05:00,ZBAA 130500Z AUTO 30004KT 6SM 05/M16 A3012 RMK T00501160 IEM_DS3505
ZBAA,2000-12-13 06:00,ZBAA 130600Z AUTO 06004KT 6SM 04/M17 A3009 RMK SLP192 T00431172 57020 IEM_DS3505
ZBAA,2000-12-13 07:00,ZBAA 130700Z AUTO 31016KT 6SM 05/M19 A3012 RMK T00501190 IEM_DS3505
ZBAA,2000-12-13 08:00,ZBAA 130800Z AUTO 30014KT 6SM 04/M19 A3012 RMK T00401190 IEM_DS3505
ZBAA,2000-12-13 09:00,ZBAA 130900Z AUTO 32008KT 6SM 04/M20 A3015 RMK SLP211 T00371197 52018 IEM_DS3505
ZBAA,2000-12-13 10:00,ZBAA 131000Z AUTO 31010KT 6SM 02/M17 A3018 RMK T00201170 IEM_DS3505
ZBAA,2000-12-13 11:00,ZBAA 131100Z AUTO 33002KT 6SM 00/M17 A3021 RMK T00001170 IEM_DS3505
ZBAA,2000-12-13 12:00,ZBAA 131200Z AUTO 33004KT 6SM 02/M20 A3021 RMK SLP231 T00221195 52020 IEM_DS3505
ZBAA,2000-12-13 13:00,ZBAA 131300Z AUTO 01004KT 6SM M02/M16 A3024 RMK T10201160 IEM_DS3505
ZBAA,2000-12-13 14:00,ZBAA 131400Z AUTO 32004KT 6SM M03/M17 A3024 RMK T10301170 IEM_DS3505
ZBAA,2000-12-13 15:00,ZBAA 131500Z AUTO 03002KT 6SM M01/M19 A3027 RMK SLP242 T10061186 52011 IEM_DS3505
ZBAA,2000-12-13 16:00,ZBAA 131600Z AUTO 35004KT 6SM M03/M17 A3027 RMK T10301170 IEM_DS3505
ZBAA,2000-12-13 17:00,ZBAA 131700Z AUTO 34004KT 6SM M03/M16 A3027 RMK T10301160 IEM_DS3505
ZBAA,2000-12-13 18:00,ZBAA 131800Z AUTO 01002KT 6SM M04/M17 A3027 RMK SLP250 T10401171 52009 IEM_DS3505
ZBAA,2000-12-13 19:00,ZBAA 131900Z AUTO 01002KT 6SM M04/M16 A3027 RMK T10401160 IEM_DS3505
ZBAA,2000-12-13 20:00,ZBAA 132000Z AUTO 34006KT 6SM M07/M15 A3027 RMK T10701150 IEM_DS3505
ZBAA,2000-12-13 21:00,ZBAA 132100Z AUTO 01002KT 7SM M04/M17 A3024 RMK SLP240 T10421173 57010 IEM_DS3505
ZBAA,2000-12-13 22:00,ZBAA 132200Z AUTO 35004KT 6SM M07/M15 A3024 RMK T10701150 IEM_DS3505
ZBAA,2000-12-13 23:00,ZBAA 132300Z AUTO 34004KT 6SM M07/M15 A3024 RMK T10701150 IEM_DS3505
ZBAA,2000-12-14 00:00,ZBAA 140000Z AUTO 04002KT 6SM M06/M16 A3027 RMK SLP243 T10621161 52002 IEM_DS3505
ZBAA,2000-12-14 01:00,ZBAA 140100Z AUTO 35002KT 6SM M05/M13 A3024 RMK T10501130 IEM_DS3505
ZBAA,2000-12-14 02:00,ZBAA 140200Z AUTO 36002KT 6SM M03/M13 A3024 RMK T10301130 IEM_DS3505
ZBAA,2000-12-14 03:00,ZBAA 140300Z AUTO 17002KT 6SM 01/M13 A3024 RMK SLP233 T00061127 57010 IEM_DS3505
ZBAA,2000-12-14 04:00,ZBAA 140400Z AUTO 5SM 01/M11 A3018 RMK T00101110 IEM_DS3505
ZBAA,2000-12-14 05:00,ZBAA 140500Z AUTO 14002KT 5SM 02/M10 A3015 RMK T00201100 IEM_DS3505
ZBAA,2000-12-14 06:00,ZBAA 140600Z AUTO 03002KT 6SM 03/M13 A3012 RMK SLP201 T00331134 57031 IEM_DS3505
ZBAA,2000-12-14 07:00,ZBAA 140700Z AUTO 14002KT 02/M10 A3012 RMK T00201100 IEM_DS3505
ZBAA,2000-12-14 08:00,ZBAA 140800Z AUTO 08002KT 3SM 02/M10 A3012 RMK T00201100 IEM_DS3505
ZBAA,2000-12-14 09:00,ZBAA 140900Z AUTO 00000KT 6SM 01/M13 A3012 RMK SLP195 T00101127 57006 IEM_DS3505
ZBAA,2000-12-14 10:00,ZBAA 141000Z AUTO 00000KT 2 1/2SM M02/M10 A3012 RMK T10201100 IEM_DS3505
ZBAA,2000-12-14 11:00,ZBAA 141100Z AUTO 36002KT 2SM M02/M09 A3009 RMK T10201090 IEM_DS3505
ZBAA,2000-12-14 12:00,ZBAA 141200Z AUTO 23002KT 6SM M01/M13 A3009 RMK SLP191 T10071129 57005 IEM_DS3505
ZBAA,2000-12-14 13:00,ZBAA 141300Z AUTO 00000KT 1 1/2SM M03/M09 A3009 RMK T10301090 IEM_DS3505
ZBAA,2000-12-14 14:00,ZBAA 141400Z AUTO 35002KT 1 1/4SM M04/M09 A3009 RMK T10401090 IEM_DS3505
ZBAA,2000-12-14 15:00,ZBAA 141500Z AUTO 02002KT 5SM M04/M12 A3009 RMK SLP187 T10401121 57004 IEM_DS3505
ZBAA,2000-12-14 16:00,ZBAA 141600Z AUTO 32002KT 1 1/4SM M04/M09 A3009 RMK T10401090 IEM_DS3505
ZBAA,2000-12-14 17:00,ZBAA 141700Z AUTO 31004KT 1 1/4SM M03/M09 A3009 RMK T10301090 IEM_DS3505
ZBAA,2000-12-14 18:00,ZBAA 141800Z AUTO 01002KT 4SM M03/M10 A3012 RMK SLP192 T10301105 52006 IEM_DS3505
ZBAA,2000-12-14 19:00,ZBAA 141900Z AUTO 31004KT 2SM M05/M11 A3012 RMK T10501110 IEM_DS3505
ZBAA,2000-12-14 20:00,ZBAA 142000Z AUTO 36004KT 2SM M05/M10 A3012 RMK T10501100 IEM_DS3505
ZBAA,2000-12-14 21:00,ZBAA 142100Z AUTO 36004KT 4SM M04/M12 A3012 RMK SLP199 T10361117 52007 IEM_DS3505
ZBAA,2000-12-14 22:00,ZBAA 142200Z AUTO 34004KT 2SM M05/M11 A3015 RMK T10501110 IEM_DS3505
ZBAA,2000-12-14 23:00,ZBAA 142300Z AUTO 33006KT 2 1/2SM M05/M11 A3021 RMK T10501110 IEM_DS3505
ZBAA,2000-12-15 00:00,ZBAA 150000Z AUTO 32006KT 7SM 03/M18 A3021 RMK SLP227 T00271185 52028 IEM_DS3505
ZBAA,2000-12-15 01:00,ZBAA 150100Z AUTO 30014KT 6SM 02/M13 A3024 RMK T00201130 IEM_DS3505
ZBAA,2000-12-15 02:00,ZBAA 150200Z AUTO 30012KT 6SM 03/M14 A3027 RMK T00301140 IEM_DS3505
ZBAA,2000-12-15 03:00,ZBAA 150300Z AUTO 31010KT 12SM 04/M22 A3030 RMK SLP253 T00411217 52026 IEM_DS3505
ZBAA,2000-12-15 04:00,ZBAA 150400Z AUTO 31014KT 6SM 04/M18 A3027 RMK T00401180 IEM_DS3505
ZBAA,2000-12-15 05:00,ZBAA 150500Z AUTO 29012G21KT 6SM 05/M20 A3027 RMK T00501200 IEM_DS3505
ZBAA,2000-12-15 06:00,ZBAA 150600Z AUTO 30014KT 19SM 04/M22 A3030 RMK SLP259 T00451223 52006 IEM_DS3505
ZBAA,2000-12-15 07:00,ZBAA 150700Z AUTO 29014KT 6SM 04/M20 A3033 RMK T00401200 IEM_DS3505
ZBAA,2000-12-15 08:00,ZBAA 150800Z AUTO 29008KT 6SM 04/M20 A3033 RMK T00401200 IEM_DS3505
ZBAA,2000-12-15 09:00,ZBAA 150900Z AUTO 31010KT 12SM 04/M22 A3036 RMK SLP280 T00371220 52020 IEM_DS3505
ZBAA,2000-12-15 10:00,ZBAA 151000Z AUTO 35006KT 6SM 00/M20 A3039 RMK T00001200 IEM_DS3505
ZBAA,2000-12-15 11:00,ZBAA 151100Z AUTO 35006KT 6SM M01/M18 A3042 RMK T10101180 IEM_DS3505
ZBAA,2000-12-15 12:00,ZBAA 151200Z AUTO 04004KT 12SM 01/M20 A3045 RMK SLP299 T00111198 52020 IEM_DS3505
ZBAA,2000-12-15 13:00,ZBAA 151300Z AUTO 36004KT 6SM M04/M17 A3045 RMK T10401170 IEM_DS3505
ZBAA,2000-12-15 14:00,ZBAA 151400Z AUTO 02004KT 6SM M03/M17 A3045 RMK T10301170 IEM_DS3505
ZBAA,2000-12-15 15:00,ZBAA 151500Z AUTO 02004KT 12SM M02/M19 A3047 RMK SLP316 T10191192 52016 IEM_DS3505
ZBAA,2000-12-15 16:00,ZBAA 151600Z AUTO 35002KT 6SM M04/M17 A3047 RMK T10401170 IEM_DS3505
ZBAA,2000-12-15 17:00,ZBAA 151700Z AUTO 26002KT 6SM M04/M17 A3047 RMK T10401170 IEM_DS3505
ZBAA,2000-12-15 18:00,ZBAA 151800Z AUTO 03004KT 7SM M03/M19 A3047 RMK SLP316 T10291188 54000 IEM_DS3505
ZBAA,2000-12-15 19:00,ZBAA 151900Z AUTO 31002KT 6SM M06/M17 A3047 RMK T10601170 IEM_DS3505
ZBAA,2000-12-15 20:00,ZBAA 152000Z AUTO 32004KT 6SM M06/M17 A3047 RMK T10601170 IEM_DS3505
ZBAA,2000-12-15 21:00,ZBAA 152100Z AUTO 23002KT 9SM M05/M16 A3047 RMK SLP320 T10461155 52004 IEM_DS3505
ZBAA,2000-12-15 22:00,ZBAA 152200Z AUTO 08002KT 6SM M07/M14 A3047 RMK T10701140 IEM_DS3505
ZBAA,2000-12-15 23:00,ZBAA 152300Z AUTO 00000KT 6SM M08/M13 A3050 RMK T10801130 IEM_DS3505
ZBAA,2000-12-16 00:00,ZBAA 160000Z AUTO 15002KT 4SM M06/M16 A3050 RMK SLP325 T10611158 52005 IEM_DS3505
ZBAA,2000-12-16 01:00,ZBAA 160100Z AUTO 09002KT M06/M13 A3050 RMK T10601130 IEM_DS3505
ZBAA,2000-12-16 02:00,ZBAA 160200Z AUTO 09004KT 6SM M04/M14 A3050 RMK T10401140 IEM_DS3505
ZBAA,2000-12-16 03:00,ZBAA 160300Z AUTO 15004KT 6SM M00/M16 A3047 RMK SLP318 T10031161 57007 IEM_DS3505
ZBAA,2000-12-16 04:00,ZBAA 160400Z AUTO 11006KT 6SM 00/M15 A3042 RMK T00001150 IEM_DS3505
ZBAA,2000-12-16 05:00,ZBAA 160500Z AUTO 12004KT 6SM 02/M15 A3039 RMK T00201150 IEM_DS3505
ZBAA,2000-12-16 06:00,ZBAA 160600Z AUTO 17006KT 9SM 03/M17 A3036 RMK SLP273 T00331174 57045 IEM_DS3505
ZBAA,2000-12-16 07:00,ZBAA 160700Z AUTO 18006KT 6SM 04/M15 A3033 RMK T00401150 IEM_DS3505
ZBAA,2000-12-16 08:00,ZBAA 160800Z AUTO 14004KT 6SM 03/M15 A3033 RMK T00301150 IEM_DS3505
ZBAA,2000-12-16 09:00,ZBAA 160900Z AUTO 18002KT 6SM 02/M17 A3033 RMK SLP269 T00221167 57004 IEM_DS3505
ZBAA,2000-12-16 10:00,ZBAA 161000Z AUTO 03004KT 5SM M01/M13 A3036 RMK T10101130 IEM_DS3505
ZBAA,2000-12-16 11:00,ZBAA 161100Z AUTO 32004KT 5SM M01/M15 A3036 RMK T10101150 IEM_DS3505
ZBAA,2000-12-16 12:00,ZBAA 161200Z AUTO 05002KT 9SM M02/M15 A3036 RMK SLP272 T10231146 52003 IEM_DS3505
ZBAA,2000-12-16 13:00,ZBAA 161300Z AUTO 36002KT M04/M13 A3033 RMK T10401130 IEM_DS3505
ZBAA,2000-12-16 14:00,ZBAA 161400Z AUTO 35002KT M04/M14 A3033 RMK T10401140 IEM_DS3505
ZBAA,2000-12-16 15:00,ZBAA 161500Z AUTO 03002KT 9SM M03/M15 A3033 RMK SLP268 T10281147 57004 IEM_DS3505
ZBAA,2000-12-16 16:00,ZBAA 161600Z AUTO 35002KT 3SM M05/M14 A3033 RMK T10501140 IEM_DS3505
ZBAA,2000-12-16 17:00,ZBAA 161700Z AUTO 33004KT 3SM M06/M13 A3033 RMK T10601130 IEM_DS3505
ZBAA,2000-12-16 18:00,ZBAA 161800Z AUTO 04002KT 6SM M04/M13 A3033 RMK SLP265 T10361127 57003 IEM_DS3505
ZBAA,2000-12-16 19:00,ZBAA 161900Z AUTO 34002KT 3SM M05/M13 A3033 RMK T10501130 IEM_DS3505
ZBAA,2000-12-16 20:00,ZBAA 162000Z AUTO 34006KT 3SM M08/M13 A3030 RMK T10801130 IEM_DS3505
ZBAA,2000-12-16 21:00,ZBAA 162100Z AUTO 02002KT 6SM M04/M14 A3027 RMK SLP250 T10371141 57015 IEM_DS3505
ZBAA,2000-12-16 22:00,ZBAA 162200Z AUTO 34004KT 3SM M07/M12 A3027 RMK T10701120 IEM_DS3505
ZBAA,2000-12-16 23:00,ZBAA 162300Z AUTO 35006KT 4SM M07/M12 A3030 RMK T10701120 IEM_DS3505
ZBAA,2000-12-17 00:00,ZBAA 170000Z AUTO 03004KT 6SM M03/M14 A3030 RMK SLP253 T10341138 52003 IEM_DS3505
ZBAA,2000-12-17 01:00,ZBAA 170100Z AUTO 35004KT M04/M10 A3030 RMK T10401100 IEM_DS3505
ZBAA,2000-12-17 02:00,ZBAA 170200Z AUTO 35004KT 6SM M03/M11 A3030 RMK T10301110 IEM_DS3505
ZBAA,2000-12-17 03:00,ZBAA 170300Z AUTO 01004KT 6SM 00/M12 A3027 RMK SLP248 T00041125 57005 IEM_DS3505
ZBAA,2000-12-17 04:00,ZBAA 170400Z AUTO 32004KT 00/M11 A3024 RMK T00001110 IEM_DS3505
ZBAA,2000-12-17 05:00,ZBAA 170500Z AUTO 03002KT 01/M11 A3018 RMK T00101110 IEM_DS3505
ZBAA,2000-12-17 06:00,ZBAA 170600Z AUTO 07006KT 6SM 02/M09 A3018 RMK SLP214 T00161093 57033 IEM_DS3505
ZBAA,2000-12-17 07:00,ZBAA 170700Z AUTO 05002KT 3SM 02/M09 A3015 RMK T00201090 IEM_DS3505
ZBAA,2000-12-17 08:00,ZBAA 170800Z AUTO 07002KT 3SM 01/M07 A3015 RMK T00101070 IEM_DS3505
ZBAA,2000-12-17 09:00,ZBAA 170900Z AUTO 07002KT 5SM M00/M08 A3015 RMK SLP209 T10021076 57006 IEM_DS3505
ZBAA,2000-12-17 10:00,ZBAA 171000Z AUTO 00000KT 1 1/2SM M01/M04 A3015 RMK T10101040 IEM_DS3505
ZBAA,2000-12-17 11:00,ZBAA 171100Z AUTO 00000KT 1 1/2SM 00/M04 A3015 RMK T00001040 IEM_DS3505
ZBAA,2000-12-17 12:00,ZBAA 171200Z AUTO 01002KT 3SM 01/M05 A3015 RMK SLP204 T00081054 57004 IEM_DS3505
ZBAA,2000-12-17 13:00,ZBAA 171300Z AUTO 02002KT 1 1/2SM 00/M04 A3015 RMK T00001040 IEM_DS3505
ZBAA,2000-12-17 14:00,ZBAA 171400Z AUTO 01002KT 1 1/4SM 00/M04 A3012 RMK T00001040 IEM_DS3505
ZBAA,2000-12-17 15:00,ZBAA 171500Z AUTO 02002KT 3SM 01/M05 A3012 RMK SLP195 T00071047 57009 IEM_DS3505
ZBAA,2000-12-17 16:00,ZBAA 171600Z AUTO 36002KT 1 1/4SM 00/M04 A3009 RMK T00001040 IEM_DS3505
ZBAA,2000-12-17 17:00,ZBAA 171700Z AUTO 35004KT 1 1/4SM 00/M04 A3009 RMK T00001040 IEM_DS3505
ZBAA,2000-12-17 18:00,ZBAA 171800Z AUTO 04004KT 2 1/2SM 01/M05 A3009 RMK SLP186 T00071051 57009 IEM_DS3505
ZBAA,2000-12-17 19:00,ZBAA 171900Z AUTO 29004KT 1 1/4SM 00/M05 A3009 RMK T00001050 IEM_DS3505
ZBAA,2000-12-17 20:00,ZBAA 172000Z AUTO 32006KT 1 1/2SM 00/M05 A3009 RMK T00001050 IEM_DS3505
ZBAA,2000-12-17 21:00,ZBAA 172100Z AUTO 01002KT 4SM 00/M06 A3006 RMK SLP181 T00041056 57005 IEM_DS3505
ZBAA,2000-12-17 22:00,ZBAA 172200Z AUTO 29004KT 1 1/2SM 00/M05 A3009 RMK T00001050 IEM_DS3505
ZBAA,2000-12-17 23:00,ZBAA 172300Z AUTO 31006KT 1 1/2SM M02/M05 A3009 RMK T10201050 IEM_DS3505
ZBAA,2000-12-18 00:00,ZBAA 180000Z AUTO 33002KT 2SM M00/M07 A3009 RMK SLP192 T10021066 52011 IEM_DS3505
ZBAA,2000-12-18 01:00,ZBAA 180100Z AUTO 29004KT 1SM M01/M04 A3012 RMK T10101040 IEM_DS3505
ZBAA,2000-12-18 02:00,ZBAA 180200Z AUTO 30002KT 1 1/2SM 01/M05 A3012 RMK T00101050 IEM_DS3505
ZBAA,2000-12-18 03:00,ZBAA 180300Z AUTO 29012KT 6SM 07/M11 A3012 RMK SLP198 T00701106 52006 IEM_DS3505
ZBAA,2000-12-18 04:00,ZBAA 180400Z AUTO 30019KT 6SM 06/M09 A3012 RMK T00601090 IEM_DS3505
ZBAA,2000-12-18 05:00,ZBAA 180500Z AUTO 30016G25KT 6SM 07/M10 A3012 RMK T00701100 IEM_DS3505
ZBAA,2000-12-18 06:00,ZBAA 180600Z AUTO 32012G31KT 7SM 07/M14 A3012 RMK SLP203 T00731135 52005 IEM_DS3505
ZBAA,2000-12-18 07:00,ZBAA 180700Z AUTO 34019G29KT 6SM 07/M13 A3015 RMK T00701130 IEM_DS3505
ZBAA,2000-12-18 08:00,ZBAA 180800Z AUTO 34016G25KT 6SM 06/M13 A3018 RMK T00601130 IEM_DS3505
ZBAA,2000-12-18 09:00,ZBAA 180900Z AUTO 32010KT 11SM 06/M14 A3024 RMK SLP236 T00551144 52033 IEM_DS3505
ZBAA,2000-12-18 10:00,ZBAA 181000Z AUTO 33016G25KT 6SM 04/M13 A3027 RMK T00401130 IEM_DS3505
ZBAA,2000-12-18 11:00,ZBAA 181100Z AUTO 33019G29KT 6SM 04/M14 A3033 RMK T00401140 IEM_DS3505
ZBAA,2000-12-18 12:00,ZBAA 181200Z AUTO 33006KT 9SM 03/M15 A3036 RMK SLP282 T00311149 52046 IEM_DS3505
ZBAA,2000-12-18 13:00,ZBAA 181300Z AUTO 32016KT 6SM 02/M15 A3039 RMK T00201150 IEM_DS3505
ZBAA,2000-12-18 14:00,ZBAA 181400Z AUTO 33014KT 6SM 01/M15 A3045 RMK T00101150 IEM_DS3505
ZBAA,2000-12-18 15:00,ZBAA 181500Z AUTO 35004KT 9SM 02/M15 A3047 RMK SLP312 T00151149 52030 IEM_DS3505
ZBAA,2000-12-18 16:00,ZBAA 181600Z AUTO 34008KT 6SM M02/M15 A3047 RMK T10201150 IEM_DS3505
ZBAA,2000-12-18 17:00,ZBAA 181700Z AUTO 36008KT 6SM M02/M15 A3050 RMK T10201150 IEM_DS3505
ZBAA,2000-12-18 18:00,ZBAA 181800Z AUTO 36006KT 11SM 00/M17 A3056 RMK SLP334 T00011170 52022 IEM_DS3505
ZBAA,2000-12-18 19:00,ZBAA 181900Z AUTO 35004KT 6SM M05/M14 A3056 RMK T10501140 IEM_DS3505
ZBAA,2000-12-18 20:00,ZBAA 182000Z AUTO 02006KT 6SM M03/M14 A3053 RMK T10301140 IEM_DS3505
ZBAA,2000-12-18 21:00,ZBAA 182100Z AUTO 04006KT 19SM M03/M17 A3053 RMK SLP331 T10261166 57004 IEM_DS3505
ZBAA,2000-12-18 22:00,ZBAA 182200Z AUTO 03008KT 6SM M03/M15 A3053 RMK T10301150 IEM_DS3505
ZBAA,2000-12-18 23:00,ZBAA 182300Z AUTO 01008KT 6SM M03/M15 A3053 RMK T10301150 IEM_DS3505
ZBAA,2000-12-19 00:00,ZBAA 190000Z AUTO 02004KT 9SM M02/M17 A3056 RMK SLP344 T10221173 52013 IEM_DS3505
ZBAA,2000-12-19 01:00,ZBAA 190100Z AUTO 35008KT 6SM M03/M15 A3056 RMK T10301150 IEM_DS3505
ZBAA,2000-12-19 02:00,ZBAA 190200Z AUTO 01004KT 6SM M02/M15 A3056 RMK T10201150 IEM_DS3505
ZBAA,2000-12-19 03:00,ZBAA 190300Z AUTO 02002KT 12SM M00/M17 A3056 RMK SLP351 T10041170 52007 IEM_DS3505
ZBAA,2000-12-19 04:00,ZBAA 190400Z AUTO 01002KT 6SM M01/M15 A3053 RMK T10101150 IEM_DS3505
ZBAA,2000-12-19 05:00,ZBAA 190500Z AUTO 00000KT 6SM 00/M15 A3053 RMK T00001150 IEM_DS3505
ZBAA,2000-12-19 06:00,ZBAA 190600Z AUTO 19004KT 11SM 01/M17 A3047 RMK SLP323 T00081169 57028 IEM_DS3505
ZBAA,2000-12-19 07:00,ZBAA 190700Z AUTO 16004KT 6SM 01/M15 A3047 RMK T00101150 IEM_DS3505
ZBAA,2000-12-19 08:00,ZBAA 190800Z AUTO 15006KT 6SM 00/M14 A3045 RMK T00001140 IEM_DS3505
ZBAA,2000-12-19 09:00,ZBAA 190900Z AUTO 19002KT 9SM M00/M16 A3045 RMK SLP305 T10031157 57018 IEM_DS3505
ZBAA,2000-12-19 10:00,ZBAA 191000Z AUTO 17002KT 6SM M01/M13 A3045 RMK T10101130 IEM_DS3505
ZBAA,2000-12-19 11:00,ZBAA 191100Z AUTO 19006KT 6SM 00/M14 A3042 RMK T00001140 IEM_DS3505
ZBAA,2000-12-19 12:00,ZBAA 191200Z AUTO 24002KT 7SM M00/M15 A3042 RMK SLP300 T10031153 57005 IEM_DS3505
ZBAA,2000-12-19 13:00,ZBAA 191300Z AUTO 28004KT 6SM M01/M13 A3042 RMK T10101130 IEM_DS3505
ZBAA,2000-12-19 14:00,ZBAA 191400Z AUTO 32002KT 5SM M01/M13 A3042 RMK T10101130 IEM_DS3505
ZBAA,2000-12-19 15:00,ZBAA 191500Z AUTO 16002KT 6SM M02/M14 A3039 RMK SLP285 T10151136 57015 IEM_DS3505
ZBAA,2000-12-19 16:00,ZBAA 191600Z AUTO 00000KT M03/M12 A3036 RMK T10301120 IEM_DS3505
ZBAA,2000-12-19 17:00,ZBAA 191700Z AUTO 00000KT 3SM M03/M11 A3033 RMK T10301110 IEM_DS3505
ZBAA,2000-12-19 18:00,ZBAA 191800Z AUTO 22002KT 6SM M02/M13 A3033 RMK SLP267 T10231131 57018 IEM_DS3505
ZBAA,2000-12-19 19:00,ZBAA 191900Z AUTO 31002KT 2 1/2SM M05/M10 A3030 RMK T10501100 IEM_DS3505
ZBAA,2000-12-19 20:00,ZBAA 192000Z AUTO 01004KT 2 1/2SM M07/M11 A3030 RMK T10701110 IEM_DS3505
ZBAA,2000-12-19 21:00,ZBAA 192100Z AUTO 17002KT 6SM M06/M13 A3030 RMK SLP257 T10551128 57010 IEM_DS3505
ZBAA,2000-12-19 22:00,ZBAA 192200Z AUTO 33006KT 3SM M07/M12 A3030 RMK T10701120 IEM_DS3505
ZBAA,2000-12-19 23:00,ZBAA 192300Z AUTO 34006KT 3SM M07/M11 A3030 RMK T10701110 IEM_DS3505
ZBAA,2000-12-20 00:00,ZBAA 200000Z AUTO 21002KT 2SM M05/M11 A3033 RMK SLP267 T10491114 52010 IEM_DS3505
ZBAA,2000-12-20 01:00,ZBAA 200100Z AUTO 02004KT 3SM M02/M10 A3033 RMK T10201100 IEM_DS3505
ZBAA,2000-12-20 02:00,ZBAA 200200Z AUTO 01002KT 5SM 00/M09 A3033 RMK T00001090 IEM_DS3505
ZBAA,2000-12-20 03:00,ZBAA 200300Z AUTO 12002KT 5SM 06/M10 A3033 RMK SLP264 T00611101 57002 IEM_DS3505
ZBAA,2000-12-20 04:00,ZBAA 200400Z AUTO 6SM 05/M11 A3027 RMK T00501110 IEM_DS3505
ZBAA,2000-12-20 05:00,ZBAA 200500Z AUTO 28006KT 6SM 07/M11 A3024 RMK T00701110 IEM_DS3505
ZBAA,2000-12-20 06:00,ZBAA 200600Z AUTO 22008KT 12SM 08/M15 A3021 RMK SLP233 T00851150 57031 IEM_DS3505
ZBAA,2000-12-20 07:00,ZBAA 200700Z AUTO 20008KT 6SM 08/M11 A3021 RMK T00801110 IEM_DS3505
ZBAA,2000-12-20 08:00,ZBAA 200800Z AUTO 21008KT 6SM 07/M12 A3021 RMK T00701120 IEM_DS3505
ZBAA,2000-12-20 09:00,ZBAA 200900Z AUTO 19004KT 6SM 05/M13 A3021 RMK SLP233 T00531130 54000 IEM_DS3505
ZBAA,2000-12-20 10:00,ZBAA 201000Z AUTO 22002KT 6SM 04/M11 A3021 RMK T00401110 IEM_DS3505
ZBAA,2000-12-20 11:00,ZBAA 201100Z AUTO 23006KT 6SM 04/M10 A3021 RMK T00401100 IEM_DS3505
ZBAA,2000-12-20 12:00,ZBAA 201200Z AUTO 21002KT 6SM 03/M13 A3021 RMK SLP233 T00301132 57001 IEM_DS3505
ZBAA,2000-12-20 13:00,ZBAA 201300Z AUTO 28006KT 04/M10 A3021 RMK T00401100 IEM_DS3505
ZBAA,2000-12-20 14:00,ZBAA 201400Z AUTO 00000KT 00/M11 A3021 RMK T00001110 IEM_DS3505
ZBAA,2000-12-20 15:00,ZBAA 201500Z AUTO 26004KT 6SM 02/M13 A3021 RMK SLP229 T00211132 57003 IEM_DS3505
ZBAA,2000-12-20 16:00,ZBAA 201600Z AUTO 35004KT M03/M10 A3021 RMK T10301100 IEM_DS3505
ZBAA,2000-12-20 17:00,ZBAA 201700Z AUTO M03/M10 A3018 RMK T10301100 IEM_DS3505
ZBAA,2000-12-20 18:00,ZBAA 201800Z AUTO 29002KT 7SM M02/M11 A3018 RMK SLP221 T10191106 57008 IEM_DS3505
ZBAA,2000-12-20 19:00,ZBAA 201900Z AUTO 34002KT 4SM M05/M10 A3018 RMK T10501100 IEM_DS3505
ZBAA,2000-12-20 20:00,ZBAA 202000Z AUTO 02002KT 4SM M04/M09 A3015 RMK T10401090 IEM_DS3505
ZBAA,2000-12-20 21:00,ZBAA 202100Z AUTO 00000KT 12SM M03/M11 A3012 RMK SLP198 T10331110 57023 IEM_DS3505
ZBAA,2000-12-20 22:00,ZBAA 202200Z AUTO 01004KT 4SM M05/M10 A3009 RMK T10501100 IEM_DS3505
ZBAA,2000-12-20 23:00,ZBAA 202300Z AUTO 20002KT 4SM M06/M09 A3012 RMK T10601090 IEM_DS3505
ZBAA,2000-12-21 00:00,ZBAA 210000Z AUTO 29002KT 5SM M04/M10 A3009 RMK SLP190 T10391099 57008 IEM_DS3505
ZBAA,2000-12-21 01:00,ZBAA 210100Z AUTO 00000KT 1 1/2SM M03/M07 A3009 RMK T10301070 IEM_DS3505
ZBAA,2000-12-21 02:00,ZBAA 210200Z AUTO 01004KT 2SM M02/M07 A3009 RMK T10201070 IEM_DS3505
ZBAA,2000-12-21 03:00,ZBAA 210300Z AUTO 24002KT 4SM 04/M10 A3006 RMK SLP179 T00431105 57011 IEM_DS3505
ZBAA,2000-12-21 04:00,ZBAA 210400Z AUTO 10002KT 2SM 04/M07 A3003 RMK T00401070 IEM_DS3505
ZBAA,2000-12-21 05:00,ZBAA 210500Z AUTO 13002KT 2 1/2SM 05/M08 A2997 RMK T00501080 IEM_DS3505
ZBAA,2000-12-21 06:00,ZBAA 210600Z AUTO 21002KT 7SM 08/M11 A2994 RMK SLP139 T00801113 57040 IEM_DS3505
ZBAA,2000-12-21 07:00,ZBAA 210700Z AUTO 13004KT 3SM 07/M09 A2991 RMK T00701090 IEM_DS3505
ZBAA,2000-12-21 08:00,ZBAA 210800Z AUTO 12004KT 3SM 06/M08 A2991 RMK T00601080 IEM_DS3505
ZBAA,2000-12-21 09:00,ZBAA 210900Z AUTO 00000KT 5SM 05/M11 A2991 RMK SLP132 T00481108 57007 IEM_DS3505
ZBAA,2000-12-21 10:00,ZBAA 211000Z AUTO 02004KT 2SM 01/M08 A2994 RMK T00101080 IEM_DS3505
ZBAA,2000-12-21 11:00,ZBAA 211100Z AUTO 09002KT 2SM 00/M08 A2994 RMK T00001080 IEM_DS3505
ZBAA,2000-12-21 12:00,ZBAA 211200Z AUTO 00000KT 4SM M00/M09 A2994 RMK SLP135 T10051093 52003 IEM_DS3505
ZBAA,2000-12-21 13:00,ZBAA 211300Z AUTO 34004KT 2SM 00/M09 A2994 RMK T00001090 IEM_DS3505
ZBAA,2000-12-21 14:00,ZBAA 211400Z AUTO 00000KT 1 1/2SM M01/M08 A2994 RMK T10101080 IEM_DS3505
ZBAA,2000-12-21 15:00,ZBAA 211500Z AUTO 03002KT 2 1/2SM M01/M08 A2994 RMK SLP138 T10061082 52003 IEM_DS3505
ZBAA,2000-12-21 16:00,ZBAA 211600Z AUTO 34006KT 1 1/4SM M02/M09 A2994 RMK T10201090 IEM_DS3505
ZBAA,2000-12-21 17:00,ZBAA 211700Z AUTO 33002KT 1 1/2SM M01/M08 A2994 RMK T10101080 IEM_DS3505
ZBAA,2000-12-21 18:00,ZBAA 211800Z AUTO 03004KT 2 1/2SM 02/M09 A2997 RMK SLP141 T00161090 52004 IEM_DS3505
ZBAA,2000-12-21 19:00,ZBAA 211900Z AUTO 29008KT 2SM M02/M07 A2997 RMK T10201070 IEM_DS3505
ZBAA,2000-12-21 20:00,ZBAA 212000Z AUTO 32006KT 2SM M03/M08 A2997 RMK T10301080 IEM_DS3505
ZBAA,2000-12-21 21:00,ZBAA 212100Z AUTO 02002KT 9SM A2997 RMK SLP151 52010 IEM_DS3505
ZBAA,2000-12-21 22:00,ZBAA 212200Z AUTO 28008KT 5SM 00/M09 A3000 RMK T00001090 IEM_DS3505
ZBAA,2000-12-21 23:00,ZBAA 212300Z AUTO 28008KT 6SM 02/M11 A3003 RMK T00201110 IEM_DS3505
ZBAA,2000-12-22 00:00,ZBAA 220000Z AUTO 30004KT 7SM 03/M13 A3006 RMK SLP177 T00331134 52025 IEM_DS3505
ZBAA,2000-12-22 01:00,ZBAA 220100Z AUTO 30017KT 6SM 03/M13 A3009 RMK T00301130 IEM_DS3505
ZBAA,2000-12-22 02:00,ZBAA 220200Z AUTO 30010KT 6SM 05/M13 A3012 RMK T00501130 IEM_DS3505
ZBAA,2000-12-22 03:00,ZBAA 220300Z AUTO 35008KT 9SM 05/M15 A3012 RMK SLP197 T00471151 52020 IEM_DS3505
ZBAA,2000-12-22 04:00,ZBAA 220400Z AUTO 32010KT 6SM 05/M14 A3009 RMK T00501140 IEM_DS3505
ZBAA,2000-12-22 05:00,ZBAA 220500Z AUTO 01008KT 6SM 05/M12 A3006 RMK T00501120 IEM_DS3505
ZBAA,2000-12-22 06:00,ZBAA 220600Z AUTO 35008KT 9SM 05/M16 A3003 RMK SLP168 T00531157 57029 IEM_DS3505
ZBAA,2000-12-22 07:00,ZBAA 220700Z AUTO 03006KT 6SM 04/M13 A3006 RMK T00401130 IEM_DS3505
ZBAA,2000-12-22 08:00,ZBAA 220800Z AUTO 05004KT 6SM 04/M14 A3006 RMK T00401140 IEM_DS3505
ZBAA,2000-12-22 09:00,ZBAA 220900Z AUTO 04002KT 11SM 03/M15 A3009 RMK SLP185 T00321153 52017 IEM_DS3505
ZBAA,2000-12-22 10:00,ZBAA 221000Z AUTO 01002KT 6SM 01/M14 A3009 RMK T00101140 IEM_DS3505
ZBAA,2000-12-22 11:00,ZBAA 221100Z AUTO 35004KT 6SM 00/M13 A3012 RMK T00001130 IEM_DS3505
ZBAA,2000-12-22 12:00,ZBAA 221200Z AUTO 01004KT 6SM 02/M16 A3012 RMK SLP199 T00191155 52014 IEM_DS3505
ZBAA,2000-12-22 13:00,ZBAA 221300Z AUTO 10006KT 4SM 00/M04 A3015 RMK T00001040 IEM_DS3505
ZBAA,2000-12-22 14:00,ZBAA 221400Z AUTO 13006KT 3SM 00/M04 A3018 RMK T00001040 IEM_DS3505
ZBAA,2000-12-22 15:00,ZBAA 221500Z AUTO 07004KT 6SM M00/M06 A3018 RMK SLP219 T10031055 52020 IEM_DS3505
ZBAA,2000-12-22 16:00,ZBAA 221600Z AUTO 12006KT 4SM M01/M05 A3018 RMK T10101050 IEM_DS3505
ZBAA,2000-12-22 17:00,ZBAA 221700Z AUTO 13006KT 4SM M01/M05 A3018 RMK T10101050 IEM_DS3505
ZBAA,2000-12-22 18:00,ZBAA 221800Z AUTO 14004KT 7SM M01/M06 A3018 RMK SLP219 T10141059 54000 IEM_DS3505
ZBAA,2000-12-22 19:00,ZBAA 221900Z AUTO 10002KT 4SM M02/M05 A3018 RMK T10201050 IEM_DS3505
ZBAA,2000-12-22 20:00,ZBAA 222000Z AUTO 11002KT 4SM M03/M06 A3018 RMK T10301060 IEM_DS3505
ZBAA,2000-12-22 21:00,ZBAA 222100Z AUTO 21004KT 7SM M03/M06 A3015 RMK SLP208 T10281059 57011 IEM_DS3505
ZBAA,2000-12-22 22:00,ZBAA 222200Z AUTO 12004KT 4SM M03/M06 A3015 RMK T10301060 IEM_DS3505
ZBAA,2000-12-22 23:00,ZBAA 222300Z AUTO 15002KT 4SM M04/M07 A3015 RMK T10401070 IEM_DS3505
ZBAA,2000-12-23 00:00,ZBAA 230000Z AUTO 22004KT 5SM M03/M05 A3015 RMK SLP214 T10271050 52006 IEM_DS3505
ZBAA,2000-12-23 01:00,ZBAA 230100Z AUTO 00000KT 4SM M04/M05 A3018 RMK T10401050 IEM_DS3505
ZBAA,2000-12-23 02:00,ZBAA 230200Z AUTO 23002KT 4SM 00/M04 A3018 RMK T00001040 IEM_DS3505
ZBAA,2000-12-23 03:00,ZBAA 230300Z AUTO 31012KT 12SM 03/ A3018 RMK SLP220 52006 IEM_DS3505
ZBAA,2000-12-23 04:00,ZBAA 230400Z AUTO 30019KT 6SM 03/M21 A3015 RMK T00301210 IEM_DS3505
ZBAA,2000-12-23 05:00,ZBAA 230500Z AUTO 34016KT 6SM 03/M22 A3015 RMK T00301220 IEM_DS3505
ZBAA,2000-12-23 06:00,ZBAA 230600Z AUTO 32012KT 12SM 04/M22 A3015 RMK SLP206 T00381220 57014 IEM_DS3505
ZBAA,2000-12-23 07:00,ZBAA 230700Z AUTO 35014KT 6SM 03/M22 A3015 RMK T00301220 IEM_DS3505
ZBAA,2000-12-23 08:00,ZBAA 230800Z AUTO 02008KT 6SM 01/M22 A3015 RMK T00101220 IEM_DS3505
ZBAA,2000-12-23 09:00,ZBAA 230900Z AUTO 07008KT 12SM 00/M23 A3015 RMK SLP215 T00011226 52008 IEM_DS3505
ZBAA,2000-12-23 10:00,ZBAA 231000Z AUTO 04004KT 6SM M01/M22 A3018 RMK T10101220 IEM_DS3505
ZBAA,2000-12-23 11:00,ZBAA 231100Z AUTO 09004KT 6SM M02/M21 A3021 RMK T10201210 IEM_DS3505
ZBAA,2000-12-23 12:00,ZBAA 231200Z AUTO 06002KT 12SM M03/M21 A3021 RMK SLP228 T10271213 52013 IEM_DS3505
ZBAA,2000-12-23 13:00,ZBAA 231300Z AUTO 00000KT 6SM M03/M21 A3021 RMK T10301210 IEM_DS3505
ZBAA,2000-12-23 14:00,ZBAA 231400Z AUTO 28004KT 6SM M03/M19 A3021 RMK T10301190 IEM_DS3505
ZBAA,2000-12-23 15:00,ZBAA 231500Z AUTO 00000KT 6SM M03/M19 A3021 RMK SLP229 T10281187 52001 IEM_DS3505
ZBAA,2000-12-23 16:00,ZBAA 231600Z AUTO 6SM M04/M18 A3021 RMK T10401180 IEM_DS3505
ZBAA,2000-12-23 17:00,ZBAA 231700Z AUTO 00000KT 6SM M05/M18 A3018 RMK T10501180 IEM_DS3505
ZBAA,2000-12-23 18:00,ZBAA 231800Z AUTO 11002KT 9SM M03/M20 A3018 RMK SLP221 T10281195 57007 IEM_DS3505
ZBAA,2000-12-23 19:00,ZBAA 231900Z AUTO 00000KT 6SM M04/M17 A3018 RMK T10401170 IEM_DS3505
ZBAA,2000-12-23 20:00,ZBAA 232000Z AUTO 16004KT 6SM M04/M17 A3018 RMK T10401170 IEM_DS3505
ZBAA,2000-12-23 21:00,ZBAA 232100Z AUTO 06006KT 12SM M03/M18 A3018 RMK SLP213 T10331179 57009 IEM_DS3505
ZBAA,2000-12-23 22:00,ZBAA 232200Z AUTO 05004KT 6SM M04/M17 A3018 RMK T10401170 IEM_DS3505
ZBAA,2000-12-23 23:00,ZBAA 232300Z AUTO 04002KT 6SM M04/M17 A3018 RMK T10401170 IEM_DS3505
ZBAA,2000-12-24 00:00,ZBAA 240000Z AUTO 06004KT 9SM M04/M16 A3021 RMK SLP223 T10351163 52010 IEM_DS3505
ZBAA,2000-12-24 01:00,ZBAA 240100Z AUTO 03002KT 6SM M04/M10 A3021 RMK T10401100 IEM_DS3505
ZBAA,2000-12-24 02:00,ZBAA 240200Z AUTO 01008KT 6SM M03/M11 A3024 RMK T10301110 IEM_DS3505
ZBAA,2000-12-24 03:00,ZBAA 240300Z AUTO 05006KT 11SM M02/M10 A3024 RMK SLP237 T10211097 52014 IEM_DS3505
ZBAA,2000-12-24 04:00,ZBAA 240400Z AUTO 03004KT 6SM M01/M12 A3021 RMK T10101120 IEM_DS3505
ZBAA,2000-12-24 05:00,ZBAA 240500Z AUTO 33004KT 6SM M01/M11 A3018 RMK T10101110 IEM_DS3505
ZBAA,2000-12-24 06:00,ZBAA 240600Z AUTO 10004KT 12SM 00/M11 RMK SLP221 T00011109 57016 IEM_DS3505
ZBAA,2000-12-24 07:00,ZBAA 240700Z AUTO 04004KT 6SM 00/M11 A3018 RMK T00001110 IEM_DS3505
ZBAA,2000-12-24 08:00,ZBAA 240800Z AUTO 03002KT 6SM 00/M11 A3021 RMK T00001110 IEM_DS3505
ZBAA,2000-12-24 09:00,ZBAA 240900Z AUTO 20004KT 12SM M01/M10 A3021 RMK SLP234 T10121097 52013 IEM_DS3505
ZBAA,2000-12-24 10:00,ZBAA 241000Z AUTO 01002KT 6SM M02/M10 A3024 RMK T10201100 IEM_DS3505
ZBAA,2000-12-24 11:00,ZBAA 241100Z AUTO 16004KT 6SM M04/M10 A3027 RMK T10401100 IEM_DS3505
ZBAA,2000-12-24 12:00,ZBAA 241200Z AUTO 34004KT 9SM M01/M11 A3027 RMK SLP249 T10101108 52015 IEM_DS3505
ZBAA,2000-12-24 13:00,ZBAA 241300Z AUTO 02002KT 6SM M04/M09 A3027 RMK T10401090 IEM_DS3505
ZBAA,2000-12-24 14:00,ZBAA 241400Z AUTO 36002KT 6SM M05/M08 A3030 RMK T10501080 IEM_DS3505
ZBAA,2000-12-24 15:00,ZBAA 241500Z AUTO 03004KT 9SM M02/M13 A3033 RMK SLP263 T10221127 52014 IEM_DS3505
ZBAA,2000-12-24 16:00,ZBAA 241600Z AUTO 01006KT 6SM M04/M13 A3033 RMK T10401130 IEM_DS3505
ZBAA,2000-12-24 17:00,ZBAA 241700Z AUTO 34008KT 6SM M06/M14 A3033 RMK T10601140 IEM_DS3505
ZBAA,2000-12-24 18:00,ZBAA 241800Z AUTO 19002KT 12SM M05/M12 A3036 RMK SLP278 T10471121 52015 IEM_DS3505
ZBAA,2000-12-24 19:00,ZBAA 241900Z AUTO 35008KT 6SM M05/M16 A3039 RMK T10501160 IEM_DS3505
ZBAA,2000-12-24 20:00,ZBAA 242000Z AUTO 35004KT 6SM M06/M17 A3039 RMK T10601170 IEM_DS3505
ZBAA,2000-12-24 21:00,ZBAA 242100Z AUTO 01004KT 19SM M05/M18 A3042 RMK SLP294 T10471177 52016 IEM_DS3505
ZBAA,2000-12-24 22:00,ZBAA 242200Z AUTO 07002KT 6SM M07/M17 A3045 RMK T10701170 IEM_DS3505
ZBAA,2000-12-24 23:00,ZBAA 242300Z AUTO 35006KT 6SM M05/M18 A3045 RMK T10501180 IEM_DS3505
ZBAA,2000-12-25 00:00,ZBAA 250000Z AUTO 03006KT 19SM M04/M19 A3047 RMK SLP315 T10391192 52021 IEM_DS3505
ZBAA,2000-12-25 01:00,ZBAA 250100Z AUTO 02006KT 6SM M05/M18 A3050 RMK T10501180 IEM_DS3505
ZBAA,2000-12-25 02:00,ZBAA 250200Z AUTO 04006KT 6SM M03/M19 A3050 RMK T10301190 IEM_DS3505
ZBAA,2000-12-25 03:00,ZBAA 250300Z AUTO 04008KT 19SM M01/M19 A3053 RMK SLP330 T10081192 52015 IEM_DS3505
ZBAA,2000-12-25 04:00,ZBAA 250400Z AUTO 04004KT 6SM M01/M20 A3050 RMK T10101200 IEM_DS3505
ZBAA,2000-12-25 05:00,ZBAA 250500Z AUTO 03004KT 6SM 00/M19 A3047 RMK T00001190 IEM_DS3505
ZBAA,2000-12-25 06:00,ZBAA 250600Z AUTO 22004KT 19SM 01/M14 A3047 RMK SLP321 T00101141 57009 IEM_DS3505
ZBAA,2000-12-25 07:00,ZBAA 250700Z AUTO 06004KT 6SM 01/M20 A3047 RMK T00101200 IEM_DS3505
ZBAA,2000-12-25 08:00,ZBAA 250800Z AUTO 11004KT 6SM 00/M20 A3050 RMK T00001200 IEM_DS3505
ZBAA,2000-12-25 09:00,ZBAA 250900Z AUTO 22006KT 6SM M01/M14 A3050 RMK SLP329 T10111145 52008 IEM_DS3505
ZBAA,2000-12-25 10:00,ZBAA 251000Z AUTO 02002KT 6SM M03/M19 A3050 RMK T10301190 IEM_DS3505
ZBAA,2000-12-25 11:00,ZBAA 251100Z AUTO 34002KT 6SM M04/M20 A3053 RMK T10401200 IEM_DS3505
ZBAA,2000-12-25 12:00,ZBAA 251200Z AUTO 12004KT 6SM M04/M15 A3053 RMK SLP339 T10421148 52010 IEM_DS3505
ZBAA,2000-12-25 13:00,ZBAA 251300Z AUTO 11004KT 6SM M06/M15 A3053 RMK T10601150 IEM_DS3505
ZBAA,2000-12-25 14:00,ZBAA 251400Z AUTO 11004KT 4SM A3056 RMK IEM_DS3505
ZBAA,2000-12-25 15:00,ZBAA 251500Z AUTO 14004KT 6SM M05/M15 A3056 RMK SLP345 T10541146 52005 IEM_DS3505
ZBAA,2000-12-25 16:00,ZBAA 251600Z AUTO 07002KT M08/M14 A3056 RMK T10801140 IEM_DS3505
ZBAA,2000-12-25 17:00,ZBAA 251700Z AUTO 07002KT 4SM M09/M13 A3056 RMK T10901130 IEM_DS3505
ZBAA,2000-12-25 18:00,ZBAA 251800Z AUTO 13004KT 6SM M07/M14 A3056 RMK SLP347 T10711139 52003 IEM_DS3505
ZBAA,2000-12-25 19:00,ZBAA 251900Z AUTO 03002KT 4SM M09/M13 A3059 RMK T10901130 IEM_DS3505
ZBAA,2000-12-25 20:00,ZBAA 252000Z AUTO 00000KT 4SM M08/M13 A3056 RMK T10801130 IEM_DS3505
ZBAA,2000-12-25 21:00,ZBAA 252100Z AUTO 06004KT 6SM M07/M12 A3056 RMK SLP343 T10721124 57004 IEM_DS3505
ZBAA,2000-12-25 22:00,ZBAA 252200Z AUTO 03002KT M07/M13 A3053 RMK T10701130 IEM_DS3505
ZBAA,2000-12-25 23:00,ZBAA 252300Z AUTO 36002KT 4SM M07/M12 A3056 RMK T10701120 IEM_DS3505
ZBAA,2000-12-26 00:00,ZBAA 260000Z AUTO 11002KT 4SM M06/M12 A3056 RMK SLP346 T10591124 52002 IEM_DS3505
ZBAA,2000-12-26 01:00,ZBAA 260100Z AUTO 08002KT 3SM M06/M12 A3056 RMK T10601120 IEM_DS3505
ZBAA,2000-12-26 02:00,ZBAA 260200Z AUTO 12004KT 4SM M05/M14 A3056 RMK T10501140 IEM_DS3505
ZBAA,2000-12-26 03:00,ZBAA 260300Z AUTO 13004KT 4SM M04/M14 A3056 RMK SLP343 T10391138 57002 IEM_DS3505
ZBAA,2000-12-26 04:00,ZBAA 260400Z AUTO 12008KT M03/M13 A3053 RMK T10301130 IEM_DS3505
ZBAA,2000-12-26 05:00,ZBAA 260500Z AUTO 11008KT 3SM M03/M14 A3047 RMK T10301140 IEM_DS3505
ZBAA,2000-12-26 06:00,ZBAA 260600Z AUTO 14008KT 4SM M02/M14 A3045 RMK SLP308 T10181135 57035 IEM_DS3505
ZBAA,2000-12-26 08:00,ZBAA 260800Z AUTO 11008KT 2 1/2SM M03/M08 A3045 RMK T10301080 IEM_DS3505
ZBAA,2000-12-26 09:00,ZBAA 260900Z AUTO 10006KT 5SM M03/M09 A3045 RMK SLP311 T10331087 52002 IEM_DS3505
ZBAA,2000-12-26 10:00,ZBAA 261000Z AUTO 12006KT 2 1/2SM M05/M07 A3047 RMK T10501070 IEM_DS3505
ZBAA,2000-12-26 11:00,ZBAA 261100Z AUTO 12004KT 2 1/2SM M05/M07 A3047 RMK T10501070 IEM_DS3505
ZBAA,2000-12-26 12:00,ZBAA 261200Z AUTO 07006KT 6SM M05/M08 A3047 RMK SLP321 T10471079 52010 IEM_DS3505
ZBAA,2000-12-26 13:00,ZBAA 261300Z AUTO 10004KT 2 1/2SM M05/M07 A3050 RMK T10501070 IEM_DS3505
ZBAA,2000-12-26 14:00,ZBAA 261400Z AUTO 00000KT 2 1/2SM M05/M07 A3047 RMK T10501070 IEM_DS3505
ZBAA,2000-12-26 15:00,ZBAA 261500Z AUTO 07004KT 6SM M05/M08 A3047 RMK SLP320 T10491081 57001 IEM_DS3505
ZBAA,2000-12-26 16:00,ZBAA 261600Z AUTO 00000KT 2 1/2SM M05/M07 A3047 RMK T10501070 IEM_DS3505
ZBAA,2000-12-26 17:00,ZBAA 261700Z AUTO 00000KT 2 1/2SM M05/M06 A3047 RMK T10501060 IEM_DS3505
ZBAA,2000-12-26 18:00,ZBAA 261800Z AUTO 06004KT 4SM M04/M08 A3047 RMK SLP319 T10451076 54000 IEM_DS3505
ZBAA,2000-12-26 19:00,ZBAA 261900Z AUTO 27002KT 2 1/2SM M06/M07 A3047 RMK T10601070 IEM_DS3505
ZBAA,2000-12-26 20:00,ZBAA 262000Z AUTO 35002KT 2SM M07/M08 A3047 RMK T10701080 IEM_DS3505
ZBAA,2000-12-26 21:00,ZBAA 262100Z AUTO 08002KT 2 1/2SM M07/M10 A3047 RMK SLP320 T10711098 54000 IEM_DS3505
ZBAA,2000-12-26 22:00,ZBAA 262200Z AUTO 01004KT 1 1/4SM M07/M08 A3050 RMK T10701080 IEM_DS3505
ZBAA,2000-12-26 23:00,ZBAA 262300Z AUTO 34004KT 1 1/4SM M08/M08 A3050 RMK T10801080 IEM_DS3505
ZBAA,2000-12-27 00:00,ZBAA 270000Z AUTO 00000KT 2SM M07/M10 RMK SLP336 T10711098 52016 IEM_DS3505
ZBAA,2000-12-27 01:00,ZBAA 270100Z AUTO 36004KT 2SM M05/M07 A3053 RMK T10501070 IEM_DS3505
ZBAA,2000-12-27 02:00,ZBAA 270200Z AUTO 35008KT 2 1/2SM M04/M07 A3053 RMK T10401070 IEM_DS3505
ZBAA,2000-12-27 03:00,ZBAA 270300Z AUTO 32008KT 6SM 01/M13 A3053 RMK SLP339 T00121132 52004 IEM_DS3505
ZBAA,2000-12-27 04:00,ZBAA 270400Z AUTO 36006KT 5SM 01/M10 A3053 RMK T00101100 IEM_DS3505
ZBAA,2000-12-27 05:00,ZBAA 270500Z AUTO 35006KT 5SM 02/M11 A3050 RMK T00201110 IEM_DS3505
ZBAA,2000-12-27 06:00,ZBAA 270600Z AUTO 33008KT 12SM 03/M15 A3050 RMK SLP323 T00331152 57016 IEM_DS3505
ZBAA,2000-12-27 07:00,ZBAA 270700Z AUTO 30012KT 6SM 03/M13 A3047 RMK T00301130 IEM_DS3505
ZBAA,2000-12-27 08:00,ZBAA 270800Z AUTO 28012KT 6SM 02/M13 A3050 RMK T00201130 IEM_DS3505
ZBAA,2000-12-27 09:00,ZBAA 270900Z AUTO 32006KT 12SM 02/M16 A3053 RMK SLP334 T00191155 52011 IEM_DS3505
ZBAA,2000-12-27 11:00,ZBAA 271100Z AUTO 30010KT 6SM 00/M15 A3056 RMK T00001150 IEM_DS3505
ZBAA,2000-12-27 12:00,ZBAA 271200Z AUTO 00000KT 9SM M00/M16 A3059 RMK SLP354 T10021156 52020 IEM_DS3505
ZBAA,2000-12-27 14:00,ZBAA 271400Z AUTO 06002KT 6SM M05/M17 A3059 RMK T10501170 IEM_DS3505
ZBAA,2000-12-27 15:00,ZBAA 271500Z AUTO 10004KT 9SM M06/M14 A3062 RMK SLP362 T10551142 52007 IEM_DS3505
ZBAA,2000-12-27 16:00,ZBAA 271600Z AUTO 11002KT 1SM M07/M08 A3062 RMK T10701080 IEM_DS3505
ZBAA,2000-12-27 17:00,ZBAA 271700Z AUTO 10002KT 1SM M08/M09 A3059 RMK T10801090 IEM_DS3505
ZBAA,2000-12-27 18:00,ZBAA 271800Z AUTO 08006KT 3SM M07/M10 A3059 RMK SLP360 T10731095 57001 IEM_DS3505
ZBAA,2000-12-27 19:00,ZBAA 271900Z AUTO 12004KT 1SM M07/M07 A3059 RMK T10701070 IEM_DS3505
ZBAA,2000-12-27 20:00,ZBAA 272000Z AUTO 10004KT 1SM M07/M07 A3059 RMK T10701070 IEM_DS3505
ZBAA,2000-12-27 21:00,ZBAA 272100Z AUTO 06002KT 3/8SM M08/M10 A3059 RMK SLP354 T10771096 57006 IEM_DS3505
ZBAA,2000-12-27 22:00,ZBAA 272200Z AUTO 11004KT 1SM M07/M08 A3059 RMK T10701080 IEM_DS3505
ZBAA,2000-12-27 23:00,ZBAA 272300Z AUTO 1 1/4SM M07/M08 A3059 RMK T10701080 IEM_DS3505
ZBAA,2000-12-28 00:00,ZBAA 280000Z AUTO 08004KT 1SM M07/M09 A3059 RMK SLP353 T10741092 57001 IEM_DS3505
ZBAA,2000-12-28 01:00,ZBAA 280100Z AUTO 2SM M07/M08 A3059 RMK T10701080 IEM_DS3505
ZBAA,2000-12-28 02:00,ZBAA 280200Z AUTO 06004KT 2SM M07/M08 A3059 RMK T10701080 IEM_DS3505
ZBAA,2000-12-28 03:00,ZBAA 280300Z AUTO 06002KT 3SM M06/M08 A3056 RMK SLP351 T10621080 57003 IEM_DS3505
ZBAA,2000-12-28 04:00,ZBAA 280400Z AUTO 10004KT 2 1/2SM M04/M08 A3053 RMK T10401080 IEM_DS3505
ZBAA,2000-12-28 05:00,ZBAA 280500Z AUTO 13004KT 3SM M04/M08 A3050 RMK T10401080 IEM_DS3505
ZBAA,2000-12-28 06:00,ZBAA 280600Z AUTO 13002KT 6SM M03/M09 A3047 RMK SLP314 T10321094 57037 IEM_DS3505
ZBAA,2000-12-28 07:00,ZBAA 280700Z AUTO 09002KT 2 1/2SM M03/M08 A3045 RMK T10301080 IEM_DS3505
ZBAA,2000-12-28 08:00,ZBAA 280800Z AUTO 14004KT 2 1/2SM M03/M07 A3045 RMK T10301070 IEM_DS3505
ZBAA,2000-12-28 09:00,ZBAA 280900Z AUTO 18004KT 4SM M03/M09 A3042 RMK SLP302 T10331087 57012 IEM_DS3505
ZBAA,2000-12-28 10:00,ZBAA 281000Z AUTO 13002KT 2SM M03/M07 A3042 RMK T10301070 IEM_DS3505
ZBAA,2000-12-28 11:00,ZBAA 281100Z AUTO 10004KT 1 1/4SM M03/M06 A3042 RMK T10301060 IEM_DS3505
ZBAA,2000-12-28 12:00,ZBAA 281200Z AUTO 09002KT 3SM M04/M09 A3042 RMK SLP299 T10401086 57003 IEM_DS3505
ZBAA,2000-12-28 13:00,ZBAA 281300Z AUTO 12004KT 1SM M04/M06 A3042 RMK T10401060 IEM_DS3505
ZBAA,2000-12-28 14:00,ZBAA 281400Z AUTO 09004KT 1SM M03/M06 A3039 RMK T10301060 IEM_DS3505
ZBAA,2000-12-28 15:00,ZBAA 281500Z AUTO 08002KT 2 1/2SM M05/M08 A3039 RMK SLP290 T10471079 57008 IEM_DS3505
ZBAA,2000-12-28 16:00,ZBAA 281600Z AUTO 18002KT 1SM M04/M06 A3039 RMK T10401060 IEM_DS3505
ZBAA,2000-12-28 17:00,ZBAA 281700Z AUTO 00000KT 1SM M04/M06 A3036 RMK T10401060 IEM_DS3505
ZBAA,2000-12-28 18:00,ZBAA 281800Z AUTO 03002KT 6SM M05/M08 A3036 RMK SLP281 T10471078 57009 IEM_DS3505
ZBAA,2000-12-28 19:00,ZBAA 281900Z AUTO 00000KT 1SM M05/M07 A3036 RMK T10501070 IEM_DS3505
ZBAA,2000-12-28 20:00,ZBAA 282000Z AUTO 00000KT 1SM M06/M07 A3033 RMK T10601070 IEM_DS3505
ZBAA,2000-12-28 21:00,ZBAA 282100Z AUTO 02002KT 5SM M06/M08 A3033 RMK SLP263 T10611085 57018 IEM_DS3505
ZBAA,2000-12-28 22:00,ZBAA 282200Z AUTO 32004KT 1 1/2SM M06/M08 A3033 RMK T10601080 IEM_DS3505
ZBAA,2000-12-28 23:00,ZBAA 282300Z AUTO 29002KT 1 1/2SM M06/M08 A3033 RMK T10601080 IEM_DS3505
ZBAA,2000-12-29 00:00,ZBAA 290000Z AUTO 05002KT 2 1/2SM M06/M09 A3033 RMK SLP266 T10601087 52003 IEM_DS3505
ZBAA,2000-12-29 01:00,ZBAA 290100Z AUTO 32002KT 1SM M06/M08 A3033 RMK T10601080 IEM_DS3505
ZBAA,2000-12-29 02:00,ZBAA 290200Z AUTO 33004KT 1SM M04/M07 A3033 RMK T10401070 IEM_DS3505
ZBAA,2000-12-29 03:00,ZBAA 290300Z AUTO 05002KT 2 1/2SM M02/M07 A3033 RMK SLP262 T10171074 57004 IEM_DS3505
ZBAA,2000-12-29 04:00,ZBAA 290400Z AUTO 1 1/2SM M01/M07 A3027 RMK T10101070 IEM_DS3505
ZBAA,2000-12-29 05:00,ZBAA 290500Z AUTO 02002KT 1 1/2SM M01/M07 A3024 RMK T10101070 IEM_DS3505
ZBAA,2000-12-29 06:00,ZBAA 290600Z AUTO 12002KT 2 1/2SM 00/M08 A3021 RMK SLP228 T00001082 57034 IEM_DS3505
ZBAA,2000-12-29 07:00,ZBAA 290700Z AUTO 14002KT 1 1/2SM 01/M07 A3018 RMK T00101070 IEM_DS3505
ZBAA,2000-12-29 08:00,ZBAA 290800Z AUTO 20004KT 1 1/2SM 00/M07 A3018 RMK T00001070 IEM_DS3505
ZBAA,2000-12-29 09:00,ZBAA 290900Z AUTO 14002KT 2 1/2SM M02/M08 A3018 RMK SLP219 T10151082 57009 IEM_DS3505
ZBAA,2000-12-29 10:00,ZBAA 291000Z AUTO 17002KT 1 1/2SM M02/M07 A3018 RMK T10201070 IEM_DS3505
ZBAA,2000-12-29 11:00,ZBAA 291100Z AUTO 16004KT 1 1/4SM M03/M08 A3018 RMK T10301080 IEM_DS3505
ZBAA,2000-12-29 12:00,ZBAA 291200Z AUTO 20004KT 2 1/2SM M03/M08 A3015 RMK SLP215 T10301077 57004 IEM_DS3505
ZBAA,2000-12-29 13:00,ZBAA 291300Z AUTO 19008KT 1 1/4SM M03/M06 A3015 RMK T10301060 IEM_DS3505
ZBAA,2000-12-29 14:00,ZBAA 291400Z AUTO 16004KT 1SM M04/M06 A3015 RMK T10401060 IEM_DS3505
ZBAA,2000-12-29 15:00,ZBAA 291500Z AUTO 22002KT 2SM M04/M07 A3015 RMK SLP211 T10401069 57004 IEM_DS3505
ZBAA,2000-12-29 16:00,ZBAA 291600Z AUTO 17002KT 1SM M06/M07 A3015 RMK T10601070 IEM_DS3505
ZBAA,2000-12-29 17:00,ZBAA 291700Z AUTO 00000KT 1SM M06/M07 A3015 RMK T10601070 IEM_DS3505
ZBAA,2000-12-29 18:00,ZBAA 291800Z AUTO 22002KT 1SM M05/M08 A3015 RMK SLP205 T10521075 57006 IEM_DS3505
ZBAA,2000-12-29 19:00,ZBAA 291900Z AUTO 11002KT 1SM M06/M07 A3015 RMK T10601070 IEM_DS3505
ZBAA,2000-12-29 20:00,ZBAA 292000Z AUTO 35002KT 1SM M07/M07 A3012 RMK T10701070 IEM_DS3505
ZBAA,2000-12-29 21:00,ZBAA 292100Z AUTO 18004KT 1SM M06/M08 A3012 RMK SLP198 T10651083 57007 IEM_DS3505
ZBAA,2000-12-29 22:00,ZBAA 292200Z AUTO 00000KT 1SM M07/M08 A3012 RMK T10701080 IEM_DS3505
ZBAA,2000-12-29 23:00,ZBAA 292300Z AUTO 36004KT 1SM M09/M09 A3015 RMK T10901090 IEM_DS3505
ZBAA,2000-12-30 00:00,ZBAA 300000Z AUTO 28002KT 1SM M07/M09 A3018 RMK SLP217 T10701088 52019 IEM_DS3505
ZBAA,2000-12-30 01:00,ZBAA 300100Z AUTO 34006KT 1SM M05/M06 A3018 RMK T10501060 IEM_DS3505
ZBAA,2000-12-30 02:00,ZBAA 300200Z AUTO 02002KT 1SM M03/M05 A3021 RMK T10301050 IEM_DS3505
ZBAA,2000-12-30 03:00,ZBAA 300300Z AUTO 31016KT 6SM A3021 RMK SLP229 52013 IEM_DS3505
ZBAA,2000-12-30 04:00,ZBAA 300400Z AUTO 31006KT 3SM 04/M11 A3021 RMK T00401110 IEM_DS3505
ZBAA,2000-12-30 05:00,ZBAA 300500Z AUTO 31010KT 6SM 06/M13 A3021 RMK T00601130 IEM_DS3505
ZBAA,2000-12-30 06:00,ZBAA 300600Z AUTO 31016KT 19SM 06/M19 A3021 RMK SLP228 T00561189 57001 IEM_DS3505
ZBAA,2000-12-30 07:00,ZBAA 300700Z AUTO 33016KT 6SM 05/M18 A3024 RMK T00501180 IEM_DS3505
ZBAA,2000-12-30 08:00,ZBAA 300800Z AUTO 33016G27KT 6SM 05/M19 A3024 RMK T00501190 IEM_DS3505
ZBAA,2000-12-30 09:00,ZBAA 300900Z AUTO 33004KT 12SM 04/M18 A3027 RMK SLP252 T00391181 52023 IEM_DS3505
ZBAA,2000-12-30 10:00,ZBAA 301000Z AUTO 36008KT 6SM 01/M19 A3030 RMK T00101190 IEM_DS3505
ZBAA,2000-12-30 11:00,ZBAA 301100Z AUTO 35008KT 6SM M01/M17 A3033 RMK T10101170 IEM_DS3505
ZBAA,2000-12-30 12:00,ZBAA 301200Z AUTO 03004KT 12SM 00/M19 RMK SLP274 T00041187 52022 IEM_DS3505
ZBAA,2000-12-30 13:00,ZBAA 301300Z AUTO 36008KT 6SM M03/M17 A3036 RMK T10301170 IEM_DS3505
ZBAA,2000-12-30 14:00,ZBAA 301400Z AUTO 02004KT 6SM M01/M16 A3036 RMK T10101160 IEM_DS3505
ZBAA,2000-12-30 15:00,ZBAA 301500Z AUTO 02004KT 7SM M01/M18 A3036 RMK SLP282 T10121177 52008 IEM_DS3505
ZBAA,2000-12-30 16:00,ZBAA 301600Z AUTO 04002KT 6SM M04/M16 A3039 RMK T10401160 IEM_DS3505
ZBAA,2000-12-30 17:00,ZBAA 301700Z AUTO 00000KT 6SM M03/M17 A3039 RMK T10301170 IEM_DS3505
ZBAA,2000-12-30 18:00,ZBAA 301800Z AUTO 01002KT 7SM M02/M18 A3039 RMK SLP288 T10241179 52007 IEM_DS3505
ZBAA,2000-12-30 19:00,ZBAA 301900Z AUTO 33004KT 6SM M07/M16 A3039 RMK T10701160 IEM_DS3505
ZBAA,2000-12-30 20:00,ZBAA 302000Z AUTO 33004KT 6SM M06/M16 A3039 RMK T10601160 IEM_DS3505
ZBAA,2000-12-30 21:00,ZBAA 302100Z AUTO 25002KT 6SM M06/M15 A3039 RMK SLP286 T10581152 57003 IEM_DS3505
ZBAA,2000-12-30 22:00,ZBAA 302200Z AUTO 31004KT 6SM M08/M16 A3039 RMK T10801160 IEM_DS3505
ZBAA,2000-12-30 23:00,ZBAA 302300Z AUTO 35006KT 6SM M08/M16 A3039 RMK T10801160 IEM_DS3505
