station,valid,metar
ZBAA,2004-01-01 00:00,ZBAA 010000Z AUTO 29008KT 7SM 04/M13 A3018 RMK SLP215 T00411129 52026 IEM_DS3505
ZBAA,2004-01-01 01:00,ZBAA 010100Z AUTO 29004KT 6SM 03/M14 A3018 RMK T00301140 IEM_DS3505
ZBAA,2004-01-01 02:00,ZBAA 010200Z AUTO 32016KT 6SM 04/M15 A3018 RMK T00401150 IEM_DS3505
ZBAA,2004-01-01 03:00,ZBAA 010300Z AUTO 27008KT 9SM 06/M16 A3018 RMK SLP222 T00591155 52007 IEM_DS3505
ZBAA,2004-01-01 04:00,ZBAA 010400Z AUTO 32016KT 6SM 06/M14 A3015 RMK T00601140 IEM_DS3505
ZBAA,2004-01-01 05:00,ZBAA 010500Z AUTO 29016KT 6SM 06/M14 A3012 RMK T00601140 IEM_DS3505
ZBAA,2004-01-01 06:00,ZBAA 010600Z AUTO 29012KT 12SM 07/M17 A3012 RMK SLP209 T00671173 57013 IEM_DS3505
ZBAA,2004-01-01 07:00,ZBAA 010700Z AUTO 28012KT 6SM 06/M15 A3012 RMK T00601150 IEM_DS3505
ZBAA,2004-01-01 08:00,ZBAA 010800Z AUTO 29012KT 6SM 06/M15 A3012 RMK T00601150 IEM_DS3505
ZBAA,2004-01-01 09:00,ZBAA 010900Z AUTO 32010KT 16SM 06/M17 A3015 RMK SLP209 T00571169 54000 IEM_DS3505
ZBAA,2004-01-01 10:00,ZBAA 011000Z AUTO 28006KT 6SM 03/M15 A3015 RMK T00301150 IEM_DS3505
ZBAA,2004-01-01 11:00,ZBAA 011100Z AUTO 05002KT 6SM 00/M15 A3018 RMK T00001150 IEM_DS3505
ZBAA,2004-01-01 12:00,ZBAA 011200Z AUTO 27006KT 7SM 04/M15 A3018 RMK SLP223 T00351150 52014 IEM_DS3505
ZBAA,2004-01-01 13:00,ZBAA 011300Z AUTO 6SM M01/M15 A3018 RMK T10101150 IEM_DS3505
ZBAA,2004-01-01 14:00,ZBAA 011400Z AUTO 00000KT M01/M14 A3018 RMK T10101140 IEM_DS3505
ZBAA,2004-01-01 15:00,ZBAA 011500Z AUTO 25004KT 6SM M01/M14 A3018 RMK SLP218 T10131137 57005 IEM_DS3505
ZBAA,2004-01-01 16:00,ZBAA 011600Z AUTO 00000KT 3SM M03/M13 A3015 RMK T10301130 IEM_DS3505
ZBAA,2004-01-01 17:00,ZBAA 011700Z AUTO 00000KT 3SM M06/M12 A3015 RMK T10601120 IEM_DS3505
ZBAA,2004-01-01 18:00,ZBAA 011800Z AUTO 25002KT 5SM M03/M10 A3012 RMK SLP207 T10281104 57011 IEM_DS3505
ZBAA,2004-01-01 19:00,ZBAA 011900Z AUTO 00000KT M06/M12 A3012 RMK T10601120 IEM_DS3505
ZBAA,2004-01-01 20:00,ZBAA 012000Z AUTO 10002KT 5SM M06/M11 A3012 RMK T10601110 IEM_DS3505
ZBAA,2004-01-01 21:00,ZBAA 012100Z AUTO 22004KT 6SM M04/M11 A3009 RMK SLP190 T10401110 57017 IEM_DS3505
ZBAA,2004-01-01 22:00,ZBAA 012200Z AUTO 01002KT 6SM M02/M14 A3009 RMK T10201140 IEM_DS3505
ZBAA,2004-01-01 23:00,ZBAA 012300Z AUTO 22002KT 6SM M05/M12 A3009 RMK T10501120 IEM_DS3505
ZBAA,2004-01-02 00:00,ZBAA 020000Z AUTO 19002KT 6SM M06/M12 A3009 RMK T10601120 IEM_DS3505
ZBAA,2004-01-02 01:00,ZBAA 020100Z AUTO 3SM M03/M09 A3009 RMK T10301090 IEM_DS3505
ZBAA,2004-01-02 02:00,ZBAA 020200Z AUTO 29004KT 5SM 04/M13 A3009 RMK T00401130 IEM_DS3505
ZBAA,2004-01-02 03:00,ZBAA 020300Z AUTO 22008KT 6SM 03/M08 A3009 RMK SLP196 T00281081 52006 IEM_DS3505
ZBAA,2004-01-02 04:00,ZBAA 020400Z AUTO 29012KT 6SM 08/M16 A3006 RMK T00801160 IEM_DS3505
ZBAA,2004-01-02 05:00,ZBAA 020500Z AUTO 29014KT 6SM 08/M16 A3003 RMK T00801160 IEM_DS3505
ZBAA,2004-01-02 06:00,ZBAA 020600Z AUTO 22006G25KT 12SM 09/M12 A3003 RMK SLP169 T00901125 57027 IEM_DS3505
ZBAA,2004-01-02 07:00,ZBAA 020700Z AUTO 29014KT 6SM 09/M15 A3000 RMK T00901150 IEM_DS3505
ZBAA,2004-01-02 08:00,ZBAA 020800Z AUTO 28014KT 6SM 09/M14 A3000 RMK T00901140 IEM_DS3505
ZBAA,2004-01-02 09:00,ZBAA 020900Z AUTO 16004KT 7SM 06/M16 A3003 RMK SLP174 T00641155 52005 IEM_DS3505
ZBAA,2004-01-02 10:00,ZBAA 021000Z AUTO 27008KT 6SM 07/M14 A3006 RMK T00701140 IEM_DS3505
ZBAA,2004-01-02 11:00,ZBAA 021100Z AUTO 29008KT 6SM 06/M13 A3009 RMK T00601130 IEM_DS3505
ZBAA,2004-01-02 12:00,ZBAA 021200Z AUTO 27006KT 7SM 06/M14 A3012 RMK SLP198 T00621145 52024 IEM_DS3505
ZBAA,2004-01-02 13:00,ZBAA 021300Z AUTO 32002KT 6SM 02/M14 A3015 RMK T00201140 IEM_DS3505
ZBAA,2004-01-02 14:00,ZBAA 021400Z AUTO 29004KT 6SM 02/M13 A3018 RMK T00201130 IEM_DS3505
ZBAA,2004-01-02 15:00,ZBAA 021500Z AUTO 29006KT 12SM 06/M15 A3018 RMK SLP220 T00621146 52022 IEM_DS3505
ZBAA,2004-01-02 16:00,ZBAA 021600Z AUTO 28002KT 5SM M01/M13 A3021 RMK T10101130 IEM_DS3505
ZBAA,2004-01-02 17:00,ZBAA 021700Z AUTO 30006KT 5SM 01/M13 A3021 RMK T00101130 IEM_DS3505
ZBAA,2004-01-02 18:00,ZBAA 021800Z AUTO 36006KT 19SM 05/M15 A3024 RMK SLP226 T00501149 52007 IEM_DS3505
ZBAA,2004-01-02 19:00,ZBAA 021900Z AUTO 32010KT 6SM 01/M14 A3024 RMK T00101140 IEM_DS3505
ZBAA,2004-01-02 20:00,ZBAA 022000Z AUTO 34006KT 6SM M04/M15 A3024 RMK T10401150 IEM_DS3505
ZBAA,2004-01-02 21:00,ZBAA 022100Z AUTO 04004KT 12SM 02/M14 A3024 RMK SLP240 T00181140 52013 IEM_DS3505
ZBAA,2004-01-02 22:00,ZBAA 022200Z AUTO 36004KT 6SM M04/M14 A3027 RMK T10401140 IEM_DS3505
ZBAA,2004-01-02 23:00,ZBAA 022300Z AUTO 36004KT 6SM M05/M14 A3030 RMK T10501140 IEM_DS3505
ZBAA,2004-01-03 00:00,ZBAA 030000Z AUTO 02008KT 7SM 00/M13 A3033 RMK SLP257 T00001131 52017 IEM_DS3505
ZBAA,2004-01-03 01:00,ZBAA 030100Z AUTO 02006KT 6SM M01/M12 A3033 RMK T10101120 IEM_DS3505
ZBAA,2004-01-03 02:00,ZBAA 030200Z AUTO 03004KT 6SM 02/M13 A3036 RMK T00201130 IEM_DS3505
ZBAA,2004-01-03 03:00,ZBAA 030300Z AUTO 25004KT 12SM 05/M11 A3036 RMK SLP277 T00511107 52020 IEM_DS3505
ZBAA,2004-01-03 04:00,ZBAA 030400Z AUTO 10004KT 6SM 06/M14 A3033 RMK T00601140 IEM_DS3505
ZBAA,2004-01-03 05:00,ZBAA 030500Z AUTO 22006KT 6SM 07/M14 A3030 RMK T00701140 IEM_DS3505
ZBAA,2004-01-03 06:00,ZBAA 030600Z AUTO 20006KT 16SM 08/M13 A3027 RMK SLP258 T00751126 57019 IEM_DS3505
ZBAA,2004-01-03 07:00,ZBAA 030700Z AUTO 20006KT 6SM 08/M14 A3027 RMK T00801140 IEM_DS3505
ZBAA,2004-01-03 08:00,ZBAA 030800Z AUTO 18006KT 6SM 07/M14 A3027 RMK T00701140 IEM_DS3505
ZBAA,2004-01-03 09:00,ZBAA 030900Z AUTO 22004KT 16SM 05/M12 A3027 RMK SLP252 T00541124 57006 IEM_DS3505
ZBAA,2004-01-03 10:00,ZBAA 031000Z AUTO 21004KT 6SM 04/M13 A3027 RMK T00401130 IEM_DS3505
ZBAA,2004-01-03 11:00,ZBAA 031100Z AUTO 19006KT 6SM 04/M13 A3030 RMK T00401130 IEM_DS3505
ZBAA,2004-01-03 12:00,ZBAA 031200Z AUTO 20004KT 6SM 02/M10 A3030 RMK SLP261 T00161101 52008 IEM_DS3505
ZBAA,2004-01-03 13:00,ZBAA 031300Z AUTO 14004KT 6SM M03/M11 A3033 RMK T10301110 IEM_DS3505
ZBAA,2004-01-03 14:00,ZBAA 031400Z AUTO 12004KT 6SM M02/M12 A3033 RMK T10201120 IEM_DS3505
ZBAA,2004-01-03 15:00,ZBAA 031500Z AUTO 20006KT 7SM M00/M11 A3033 RMK SLP269 T10011109 52009 IEM_DS3505
ZBAA,2004-01-03 16:00,ZBAA 031600Z AUTO 11004KT 6SM M03/M11 A3033 RMK T10301110 IEM_DS3505
ZBAA,2004-01-03 17:00,ZBAA 031700Z AUTO 02002KT 6SM M05/M11 A3033 RMK T10501110 IEM_DS3505
ZBAA,2004-01-03 18:00,ZBAA 031800Z AUTO 27002KT 7SM M02/M11 A3033 RMK SLP269 T10241109 54000 IEM_DS3505
ZBAA,2004-01-03 19:00,ZBAA 031900Z AUTO 34002KT 3SM M06/M11 A3036 RMK T10601110 IEM_DS3505
ZBAA,2004-01-03 20:00,ZBAA 032000Z AUTO 01002KT 2 1/2SM M05/M11 A3033 RMK T10501110 IEM_DS3505
ZBAA,2004-01-03 21:00,ZBAA 032100Z AUTO 04002KT 9SM M05/M10 A3033 RMK SLP267 T10461104 57003 IEM_DS3505
ZBAA,2004-01-03 22:00,ZBAA 032200Z AUTO 36004KT 2 1/2SM M06/M11 A3033 RMK T10601110 IEM_DS3505
ZBAA,2004-01-03 23:00,ZBAA 032300Z AUTO 35002KT 2 1/2SM M06/M11 A3033 RMK T10601110 IEM_DS3505
ZBAA,2004-01-04 00:00,ZBAA 040000Z AUTO 04004KT 6SM M04/M11 A3036 RMK SLP273 T10421109 52006 IEM_DS3505
ZBAA,2004-01-04 01:00,ZBAA 040100Z AUTO 35006KT 2 1/2SM A3036 RMK IEM_DS3505
ZBAA,2004-01-04 02:00,ZBAA 040200Z AUTO 36004KT 2 1/2SM M01/M11 A3039 RMK T10101110 IEM_DS3505
ZBAA,2004-01-04 03:00,ZBAA 040300Z AUTO 04004KT 6SM 01/M08 A3039 RMK SLP283 T00131081 52010 IEM_DS3505
ZBAA,2004-01-04 04:00,ZBAA 040400Z AUTO 01002KT 03/M11 A3036 RMK T00301110 IEM_DS3505
ZBAA,2004-01-04 05:00,ZBAA 040500Z AUTO 03002KT 04/M11 A3030 RMK T00401110 IEM_DS3505
ZBAA,2004-01-04 06:00,ZBAA 040600Z AUTO 04003KT 6SM 05/M12 A3027 RMK SLP255 T00521123 57027 IEM_DS3505
ZBAA,2004-01-04 07:00,ZBAA 040700Z AUTO 00000KT 5SM 05/M11 A3027 RMK T00501110 IEM_DS3505
ZBAA,2004-01-04 08:00,ZBAA 040800Z AUTO 18002KT 5SM 05/M11 A3027 RMK T00501110 IEM_DS3505
ZBAA,2004-01-04 09:00,ZBAA 040900Z AUTO 00000KT 6SM 04/M07 A3027 RMK SLP254 T00441072 57002 IEM_DS3505
ZBAA,2004-01-04 10:00,ZBAA 041000Z AUTO 00000KT 3SM 01/M11 A3030 RMK T00101110 IEM_DS3505
ZBAA,2004-01-04 11:00,ZBAA 041100Z AUTO 22002KT 2 1/2SM 01/M11 A3030 RMK T00101110 IEM_DS3505
ZBAA,2004-01-04 12:00,ZBAA 041200Z AUTO 22002KT 5SM M00/M08 A3033 RMK SLP270 T10011084 52016 IEM_DS3505
ZBAA,2004-01-04 13:00,ZBAA 041300Z AUTO 00000KT 1 1/2SM M02/M11 A3036 RMK T10201110 IEM_DS3505
ZBAA,2004-01-04 14:00,ZBAA 041400Z AUTO 00000KT 1 1/4SM M01/M10 A3036 RMK T10101100 IEM_DS3505
ZBAA,2004-01-04 15:00,ZBAA 041500Z AUTO 07004KT 4SM M02/M08 A3036 RMK SLP277 T10211085 52007 IEM_DS3505
ZBAA,2004-01-04 16:00,ZBAA 041600Z AUTO 34004KT 1 1/4SM M06/M11 A3036 RMK T10601110 IEM_DS3505
ZBAA,2004-01-04 17:00,ZBAA 041700Z AUTO 34004KT 1 1/4SM M06/M10 A3036 RMK T10601100 IEM_DS3505
ZBAA,2004-01-04 18:00,ZBAA 041800Z AUTO 04004KT 2SM M03/M08 A3036 RMK SLP281 T10261082 52004 IEM_DS3505
ZBAA,2004-01-04 19:00,ZBAA 041900Z AUTO 33004KT 1 1/2SM M06/M11 A3039 RMK T10601110 IEM_DS3505
ZBAA,2004-01-04 20:00,ZBAA 042000Z AUTO 34008KT 2 1/2SM M08/M12 A3036 RMK T10801120 IEM_DS3505
ZBAA,2004-01-04 21:00,ZBAA 042100Z AUTO 00000KT 4SM M04/M09 A3036 RMK SLP280 T10421089 57001 IEM_DS3505
ZBAA,2004-01-04 21:30,ZBAA 042130Z AUTO 34006KT 4SM M06/M11 A3036 RMK T10601110 IEM_DS3505
ZBAA,2004-01-04 22:00,ZBAA 042200Z AUTO 31006KT 5SM M05/M12 A3036 RMK T10501120 IEM_DS3505
ZBAA,2004-01-04 23:00,ZBAA 042300Z AUTO 33004KT 5SM M07/M13 A3039 RMK T10701130 IEM_DS3505
ZBAA,2004-01-05 00:00,ZBAA 050000Z AUTO 00000KT 2 1/2SM M04/M10 A3039 RMK SLP289 T10411103 52009 IEM_DS3505
ZBAA,2004-01-05 01:00,ZBAA 050100Z AUTO 34006KT 5SM M03/M11 A3042 RMK T10301110 IEM_DS3505
ZBAA,2004-01-05 02:00,ZBAA 050200Z AUTO 35006KT 5SM 00/M11 A3042 RMK T00001110 IEM_DS3505
ZBAA,2004-01-05 03:00,ZBAA 050300Z AUTO 02004KT 5SM 03/M11 A3042 RMK T00301110 IEM_DS3505
ZBAA,2004-01-05 04:00,ZBAA 050400Z AUTO 01004KT 6SM 05/M12 A3039 RMK T00501120 IEM_DS3505
ZBAA,2004-01-05 05:00,ZBAA 050500Z AUTO 02002KT 6SM 06/M12 A3036 RMK T00601120 IEM_DS3505
ZBAA,2004-01-05 06:00,ZBAA 050600Z AUTO 14002KT 12SM 08/M14 A3033 RMK SLP270 T00771137 57025 IEM_DS3505
ZBAA,2004-01-05 07:00,ZBAA 050700Z AUTO 00000KT 6SM 08/M12 A3033 RMK T00801120 IEM_DS3505
ZBAA,2004-01-05 08:00,ZBAA 050800Z AUTO 20004KT 6SM 07/M12 A3033 RMK T00701120 IEM_DS3505
ZBAA,2004-01-05 09:00,ZBAA 050900Z AUTO 22002KT 7SM 05/M13 A3033 RMK SLP276 T00531130 52005 IEM_DS3505
ZBAA,2004-01-05 10:00,ZBAA 051000Z AUTO 18004KT 04/M12 A3036 RMK T00401120 IEM_DS3505
ZBAA,2004-01-05 11:00,ZBAA 051100Z AUTO 03/M12 A3036 RMK T00301120 IEM_DS3505
ZBAA,2004-01-05 12:00,ZBAA 051200Z AUTO 25004KT 7SM 01/M11 A3036 RMK SLP284 T00091111 52008 IEM_DS3505
ZBAA,2004-01-05 13:00,ZBAA 051300Z AUTO 06002KT 3SM M03/M12 A3039 RMK T10301120 IEM_DS3505
ZBAA,2004-01-05 14:00,ZBAA 051400Z AUTO 04002KT 2SM M03/M12 A3039 RMK T10301120 IEM_DS3505
ZBAA,2004-01-05 15:00,ZBAA 051500Z AUTO 09002KT 6SM M01/M10 A3039 RMK SLP290 T10091097 52006 IEM_DS3505
ZBAA,2004-01-05 15:30,ZBAA 051530Z AUTO 00000KT 1 1/4SM M03/M10 A3039 RMK T10301100 IEM_DS3505
ZBAA,2004-01-05 16:00,ZBAA 051600Z AUTO 09002KT 1 1/4SM M04/M10 A3039 RMK T10401100 IEM_DS3505
ZBAA,2004-01-05 17:00,ZBAA 051700Z AUTO 04002KT 1 1/4SM M05/M11 A3039 RMK T10501110 IEM_DS3505
ZBAA,2004-01-05 18:00,ZBAA 051800Z AUTO 07002KT 6SM M02/M09 A3039 RMK SLP287 T10171093 57002 IEM_DS3505
ZBAA,2004-01-05 19:00,ZBAA 051900Z AUTO 01002KT 1 1/4SM M04/M09 A3039 RMK T10401090 IEM_DS3505
ZBAA,2004-01-05 20:00,ZBAA 052000Z AUTO 34002KT 1 1/4SM M05/M09 A3036 RMK T10501090 IEM_DS3505
ZBAA,2004-01-05 21:00,ZBAA 052100Z AUTO 07004KT 6SM M03/M09 A3036 RMK SLP275 T10261093 57012 IEM_DS3505
ZBAA,2004-01-05 22:00,ZBAA 052200Z AUTO 34004KT 3SM M06/M11 A3036 RMK T10601110 IEM_DS3505
ZBAA,2004-01-05 23:00,ZBAA 052300Z AUTO 35006KT 4SM M06/M11 A3036 RMK T10601110 IEM_DS3505
ZBAA,2004-01-06 00:00,ZBAA 060000Z AUTO 11004KT 4SM M03/M08 A3036 RMK SLP278 T10311085 52002 IEM_DS3505
ZBAA,2004-01-06 01:00,ZBAA 060100Z AUTO 34006KT 5SM M03/M11 A3036 RMK T10301110 IEM_DS3505
ZBAA,2004-01-06 02:00,ZBAA 060200Z AUTO 34006KT 5SM 00/M12 A3036 RMK T00001120 IEM_DS3505
ZBAA,2004-01-06 03:00,ZBAA 060300Z AUTO 29002KT 6SM 03/M12 A3036 RMK SLP279 T00341120 52001 IEM_DS3505
ZBAA,2004-01-06 04:00,ZBAA 060400Z AUTO 36004KT 5SM 04/M11 A3033 RMK T00401110 IEM_DS3505
ZBAA,2004-01-06 05:00,ZBAA 060500Z AUTO 25004KT 6SM 06/M11 A3030 RMK T00601110 IEM_DS3505
ZBAA,2004-01-06 06:00,ZBAA 060600Z AUTO 27002G17KT 6SM 08/M14 A3027 RMK SLP250 T00801135 57028 IEM_DS3505
ZBAA,2004-01-06 07:00,ZBAA 060700Z AUTO 30012KT 6SM 09/M15 A3027 RMK T00901150 IEM_DS3505
ZBAA,2004-01-06 08:00,ZBAA 060800Z AUTO 31014KT 6SM 09/M17 A3027 RMK T00901170 IEM_DS3505
ZBAA,2004-01-06 09:00,ZBAA 060900Z AUTO 29002KT 4SM 04/M11 A3027 RMK SLP256 T00451111 52006 IEM_DS3505
ZBAA,2004-01-06 10:00,ZBAA 061000Z AUTO 27006KT 6SM 06/M16 A3027 RMK T00601160 IEM_DS3505
ZBAA,2004-01-06 11:00,ZBAA 061100Z AUTO 25006KT 5SM 04/M15 A3030 RMK T00401150 IEM_DS3505
ZBAA,2004-01-06 12:00,ZBAA 061200Z AUTO 27004KT 6SM 02/M11 A3033 RMK SLP272 T00221106 52015 IEM_DS3505
ZBAA,2004-01-06 13:00,ZBAA 061300Z AUTO 29006KT 5SM 04/M15 A3033 RMK T00401150 IEM_DS3505
ZBAA,2004-01-06 14:00,ZBAA 061400Z AUTO 31004KT 5SM 01/M15 A3036 RMK T00101150 IEM_DS3505
ZBAA,2004-01-06 15:00,ZBAA 061500Z AUTO 27002KT 6SM M01/M09 A3039 RMK SLP289 T10101091 52017 IEM_DS3505
ZBAA,2004-01-06 16:00,ZBAA 061600Z AUTO 34006KT M05/M14 A3042 RMK T10501140 IEM_DS3505
ZBAA,2004-01-06 17:00,ZBAA 061700Z AUTO 33008KT M01/M13 A3045 RMK T10101130 IEM_DS3505
ZBAA,2004-01-06 18:00,ZBAA 061800Z AUTO 34010KT 12SM 04/M16 A3050 RMK SLP321 T00371165 52033 IEM_DS3505
ZBAA,2004-01-06 19:00,ZBAA 061900Z AUTO 34010KT 6SM 00/M14 A3053 RMK T00001140 IEM_DS3505
ZBAA,2004-01-06 20:00,ZBAA 062000Z AUTO 36006KT 6SM M02/M15 A3056 RMK T10201150 IEM_DS3505
ZBAA,2004-01-06 21:00,ZBAA 062100Z AUTO 36012KT 19SM 01/M16 A3056 RMK SLP351 T00141164 52029 IEM_DS3505
ZBAA,2004-01-06 22:00,ZBAA 062200Z AUTO 04004KT 6SM M02/M17 A3059 RMK T10201170 IEM_DS3505
ZBAA,2004-01-06 23:00,ZBAA 062300Z AUTO 36002KT 6SM M06/M19 A3062 RMK T10601190 IEM_DS3505
ZBAA,2004-01-07 00:00,ZBAA 070000Z AUTO 02004KT 19SM M01/M18 A3065 RMK SLP385 T10091179 52034 IEM_DS3505
ZBAA,2004-01-07 01:00,ZBAA 070100Z AUTO 03006KT 6SM M01/M18 A3071 RMK T10101180 IEM_DS3505
ZBAA,2004-01-07 02:00,ZBAA 070200Z AUTO 03010KT 6SM 00/M19 A3071 RMK T00001190 IEM_DS3505
ZBAA,2004-01-07 03:00,ZBAA 070300Z AUTO 36008KT 19SM 01/M20 A3074 RMK SLP403 T00141202 52018 IEM_DS3505
ZBAA,2004-01-07 04:00,ZBAA 070400Z AUTO 02008KT 6SM 01/M20 A3071 RMK T00101200 IEM_DS3505
ZBAA,2004-01-07 05:00,ZBAA 070500Z AUTO 03008KT 6SM 02/M22 A3071 RMK T00201220 IEM_DS3505
ZBAA,2004-01-07 06:00,ZBAA 070600Z AUTO 04010KT 19SM 03/M26 A3068 RMK SLP390 T00281256 57013 IEM_DS3505
ZBAA,2004-01-07 07:00,ZBAA 070700Z AUTO 04006KT 6SM 03/M26 A3068 RMK T00301260 IEM_DS3505
ZBAA,2004-01-07 08:00,ZBAA 070800Z AUTO 03006KT 6SM 03/M25 A3068 RMK T00301250 IEM_DS3505
ZBAA,2004-01-07 09:00,ZBAA 070900Z AUTO 11004KT 19SM 01/M26 RMK SLP390 T00091261 54000 IEM_DS3505
ZBAA,2004-01-07 10:00,ZBAA 071000Z AUTO 14002KT 6SM M01/M24 A3068 RMK T10101240 IEM_DS3505
ZBAA,2004-01-07 11:00,ZBAA 071100Z AUTO 16002KT 6SM M02/M23 A3068 RMK T10201230 IEM_DS3505
ZBAA,2004-01-07 12:00,ZBAA 071200Z AUTO 20004KT 7SM M00/M21 A3068 RMK SLP392 T10051212 52002 IEM_DS3505
ZBAA,2004-01-07 13:00,ZBAA 071300Z AUTO 17002KT 4SM A3068 RMK IEM_DS3505
ZBAA,2004-01-07 14:00,ZBAA 071400Z AUTO 2 1/2SM A3068 RMK IEM_DS3505
ZBAA,2004-01-07 15:00,ZBAA 071500Z AUTO 22006KT 7SM M03/M16 A3068 RMK SLP393 T10311156 52001 IEM_DS3505
ZBAA,2004-01-07 17:00,ZBAA 071700Z AUTO 15004KT 2 1/2SM A3068 RMK IEM_DS3505
ZBAA,2004-01-07 18:00,ZBAA 071800Z AUTO 22006KT 9SM M04/M13 A3068 RMK SLP387 T10441130 57006 IEM_DS3505
ZBAA,2004-01-07 19:00,ZBAA 071900Z AUTO 11002KT 4SM A3068 RMK IEM_DS3505
ZBAA,2004-01-07 20:00,ZBAA 072000Z AUTO 08002KT 4SM A3065 RMK IEM_DS3505
ZBAA,2004-01-07 21:00,ZBAA 072100Z AUTO 22004KT 9SM M05/M12 A3062 RMK SLP371 T10521121 57016 IEM_DS3505
ZBAA,2004-01-07 22:00,ZBAA 072200Z AUTO 08004KT 4SM A3062 RMK IEM_DS3505
ZBAA,2004-01-07 23:00,ZBAA 072300Z AUTO 07002KT 4SM A3059 RMK IEM_DS3505
ZBAA,2004-01-08 00:00,ZBAA 080000Z AUTO 22004KT 6SM M06/M12 A3059 RMK SLP360 T10551118 57012 IEM_DS3505
ZBAA,2004-01-08 01:00,ZBAA 080100Z AUTO 09002KT 3SM A3059 RMK IEM_DS3505
ZBAA,2004-01-08 02:00,ZBAA 080200Z AUTO 12002KT 3SM A3059 RMK IEM_DS3505
ZBAA,2004-01-08 03:00,ZBAA 080300Z AUTO 25010KT 7SM M00/M15 A3056 RMK SLP345 T10041146 57014 IEM_DS3505
ZBAA,2004-01-08 04:00,ZBAA 080400Z AUTO 10002KT 4SM A3050 RMK IEM_DS3505
ZBAA,2004-01-08 05:00,ZBAA 080500Z AUTO 13002KT 4SM A3047 RMK IEM_DS3505
ZBAA,2004-01-08 05:30,ZBAA 080530Z AUTO 21002KT 4SM A3045 RMK IEM_DS3505
ZBAA,2004-01-08 06:00,ZBAA 080600Z AUTO 20008KT 16SM 02/M15 A3045 RMK SLP308 T00181147 57037 IEM_DS3505
ZBAA,2004-01-08 07:00,ZBAA 080700Z AUTO 00000KT 00/M12 A3045 RMK T00001120 IEM_DS3505
ZBAA,2004-01-08 08:00,ZBAA 080800Z AUTO 36004KT 4SM A3042 RMK IEM_DS3505
ZBAA,2004-01-08 09:00,ZBAA 080900Z AUTO 20006KT 7SM 00/M13 A3042 RMK SLP304 T00021134 57004 IEM_DS3505
ZBAA,2004-01-08 10:00,ZBAA 081000Z AUTO 36004KT 4SM A3042 RMK IEM_DS3505
ZBAA,2004-01-08 11:00,ZBAA 081100Z AUTO 35004KT 4SM A3042 RMK IEM_DS3505
ZBAA,2004-01-08 12:00,ZBAA 081200Z AUTO 20006KT 7SM A3042 RMK IEM_DS3505
ZBAA,2004-01-08 13:00,ZBAA 081300Z AUTO 35002KT 2 1/2SM A3042 RMK IEM_DS3505
ZBAA,2004-01-08 14:00,ZBAA 081400Z AUTO 36004KT 2 1/2SM A3042 RMK IEM_DS3505
ZBAA,2004-01-08 15:00,ZBAA 081500Z AUTO 22002KT 6SM M03/M10 A3039 RMK SLP293 T10271102 57006 IEM_DS3505
ZBAA,2004-01-08 16:00,ZBAA 081600Z AUTO 32004KT 2SM M07/M12 A3039 RMK T10701120 IEM_DS3505
ZBAA,2004-01-08 17:00,ZBAA 081700Z AUTO 00000KT 2SM M06/M11 A3039 RMK T10601110 IEM_DS3505
ZBAA,2004-01-08 18:00,ZBAA 081800Z AUTO 00000KT 5SM M04/M10 A3039 RMK SLP285 T10431104 57008 IEM_DS3505
ZBAA,2004-01-08 19:00,ZBAA 081900Z AUTO 34002KT 2SM M08/M11 A3036 RMK T10801110 IEM_DS3505
ZBAA,2004-01-08 20:00,ZBAA 082000Z AUTO 34004KT 2SM M08/M12 A3036 RMK T10801120 IEM_DS3505
ZBAA,2004-01-08 21:00,ZBAA 082100Z AUTO 14002KT 4SM M06/M12 A3033 RMK SLP273 T10571116 57012 IEM_DS3505
ZBAA,2004-01-08 22:00,ZBAA 082200Z AUTO 34006KT 2SM M09/M12 A3033 RMK T10901120 IEM_DS3505
ZBAA,2004-01-08 23:00,ZBAA 082300Z AUTO 00000KT 2SM M07/M11 A3036 RMK T10701110 IEM_DS3505
ZBAA,2004-01-09 00:00,ZBAA 090000Z AUTO 32002KT 4SM M06/M10 A3036 RMK SLP278 T10571103 52005 IEM_DS3505
ZBAA,2004-01-09 01:00,ZBAA 090100Z AUTO 34004KT 2 1/2SM M05/M09 A3039 RMK T10501090 IEM_DS3505
ZBAA,2004-01-09 02:00,ZBAA 090200Z AUTO 35006KT 3SM A3036 RMK IEM_DS3505
ZBAA,2004-01-09 03:00,ZBAA 090300Z AUTO 07004KT 6SM 00/M10 A3036 RMK SLP281 T00031102 52003 IEM_DS3505
ZBAA,2004-01-09 04:00,ZBAA 090400Z AUTO 33004KT 01/M10 A3033 RMK T00101100 IEM_DS3505
ZBAA,2004-01-09 05:00,ZBAA 090500Z AUTO 03002KT 02/M10 A3033 RMK T00201100 IEM_DS3505
ZBAA,2004-01-09 06:00,ZBAA 090600Z AUTO 22004KT 6SM 05/M10 A3030 RMK SLP264 T00471098 57017 IEM_DS3505
ZBAA,2004-01-09 07:00,ZBAA 090700Z AUTO 32006KT 07/M10 A3033 RMK T00701100 IEM_DS3505
ZBAA,2004-01-09 09:00,ZBAA 090900Z AUTO 36002KT 6SM 03/M10 A3036 RMK SLP283 T00281097 52019 IEM_DS3505
ZBAA,2004-01-09 10:00,ZBAA 091000Z AUTO 35006KT 00/M12 A3042 RMK T00001120 IEM_DS3505
ZBAA,2004-01-09 11:00,ZBAA 091100Z AUTO 35008KT 00/M12 A3045 RMK T00001120 IEM_DS3505
ZBAA,2004-01-09 12:00,ZBAA 091200Z AUTO 02004KT 6SM 03/M15 A3047 RMK SLP321 T00341152 52038 IEM_DS3505
ZBAA,2004-01-09 13:00,ZBAA 091300Z AUTO 02006KT 6SM 00/M14 A3050 RMK T00001140 IEM_DS3505
ZBAA,2004-01-09 14:00,ZBAA 091400Z AUTO 01010KT 6SM 00/M17 A3053 RMK T00001170 IEM_DS3505
ZBAA,2004-01-09 15:00,ZBAA 091500Z AUTO 02008KT 19SM 02/M23 A3059 RMK SLP352 T00151230 52031 IEM_DS3505
ZBAA,2004-01-09 16:00,ZBAA 091600Z AUTO 02008KT 6SM M02/M18 A3059 RMK T10201180 IEM_DS3505
ZBAA,2004-01-09 17:00,ZBAA 091700Z AUTO 36010KT 6SM M02/M20 A3062 RMK T10201200 IEM_DS3505
ZBAA,2004-01-09 18:00,ZBAA 091800Z AUTO 04012KT 16SM M02/M22 A3065 RMK SLP370 T10191218 52018 IEM_DS3505
ZBAA,2004-01-09 19:00,ZBAA 091900Z AUTO 02010KT 6SM M04/M20 A3065 RMK T10401200 IEM_DS3505
ZBAA,2004-01-09 20:00,ZBAA 092000Z AUTO 01012KT 6SM M04/M20 A3065 RMK T10401200 IEM_DS3505
ZBAA,2004-01-09 21:00,ZBAA 092100Z AUTO 07004KT 19SM M04/M22 A3065 RMK SLP381 T10411216 52011 IEM_DS3505
ZBAA,2004-01-09 22:00,ZBAA 092200Z AUTO 02006KT 6SM RMK IEM_DS3505
ZBAA,2004-01-09 23:00,ZBAA 092300Z AUTO 02006KT 6SM M06/M20 A3068 RMK T10601200 IEM_DS3505
ZBAA,2004-01-10 00:00,ZBAA 100000Z AUTO 07008KT 12SM M05/M22 A3068 RMK SLP392 T10491218 52011 IEM_DS3505
ZBAA,2004-01-10 01:00,ZBAA 100100Z AUTO 01008KT 6SM M05/M21 A3071 RMK T10501210 IEM_DS3505
ZBAA,2004-01-10 02:00,ZBAA 100200Z AUTO 03008KT 6SM M03/M22 A3071 RMK T10301220 IEM_DS3505
ZBAA,2004-01-10 03:00,ZBAA 100300Z AUTO 04004KT 16SM M02/M23 A3071 RMK SLP395 T10151226 52003 IEM_DS3505
ZBAA,2004-01-10 04:00,ZBAA 100400Z AUTO 02004KT 6SM M01/M24 A3068 RMK T10101240 IEM_DS3505
ZBAA,2004-01-10 05:00,ZBAA 100500Z AUTO 10004KT 6SM 00/M25 A3065 RMK T00001250 IEM_DS3505
ZBAA,2004-01-10 06:00,ZBAA 100600Z AUTO 09004KT 19SM 01/M25 A3062 RMK SLP373 T00081252 57022 IEM_DS3505
ZBAA,2004-01-10 08:00,ZBAA 100800Z AUTO 15006KT 6SM 00/M19 A3062 RMK T00001190 IEM_DS3505
ZBAA,2004-01-10 09:00,ZBAA 100900Z AUTO 22004KT 9SM M01/M20 A3062 RMK SLP376 T10061201 52003 IEM_DS3505
ZBAA,2004-01-10 10:00,ZBAA 101000Z AUTO 13002KT 6SM M02/M20 A3065 RMK T10201200 IEM_DS3505
ZBAA,2004-01-10 11:00,ZBAA 101100Z AUTO 11002KT 6SM M04/M19 A3062 RMK T10401190 IEM_DS3505
ZBAA,2004-01-10 12:00,ZBAA 101200Z AUTO 16004KT 9SM M02/M20 A3062 RMK SLP370 T10171200 57007 IEM_DS3505
ZBAA,2004-01-10 13:00,ZBAA 101300Z AUTO 15002KT 4SM A3062 RMK IEM_DS3505
ZBAA,2004-01-10 14:00,ZBAA 101400Z AUTO 13004KT 4SM A3062 RMK IEM_DS3505
ZBAA,2004-01-10 15:00,ZBAA 101500Z AUTO 20006KT 6SM M03/M12 A3059 RMK SLP363 T10261118 57006 IEM_DS3505
ZBAA,2004-01-10 16:00,ZBAA 101600Z AUTO 13004KT 4SM A3059 RMK IEM_DS3505
ZBAA,2004-01-10 17:00,ZBAA 101700Z AUTO 15006KT 5SM A3056 RMK IEM_DS3505
ZBAA,2004-01-10 18:00,ZBAA 101800Z AUTO 20006KT 9SM M03/M12 A3056 RMK SLP349 T10341120 57014 IEM_DS3505
ZBAA,2004-01-10 19:00,ZBAA 101900Z AUTO 14004KT 6SM M04/M10 A3056 RMK T10401100 IEM_DS3505
ZBAA,2004-01-10 20:00,ZBAA 102000Z AUTO 15004KT 6SM M04/M11 A3050 RMK T10401110 IEM_DS3505
ZBAA,2004-01-10 21:00,ZBAA 102100Z AUTO 20004KT 16SM M04/M12 A3050 RMK SLP324 T10381122 57025 IEM_DS3505
ZBAA,2004-01-10 22:00,ZBAA 102200Z AUTO 14006KT 6SM M04/M11 A3047 RMK T10401110 IEM_DS3505
ZBAA,2004-01-10 23:00,ZBAA 102300Z AUTO 12004KT 6SM M05/M10 A3047 RMK T10501100 IEM_DS3505
ZBAA,2004-01-11 00:00,ZBAA 110000Z AUTO 22006KT 7SM M04/M10 A3047 RMK 70000 SLP317 T10451095 57007 IEM_DS3505
ZBAA,2004-01-11 01:00,ZBAA 110100Z AUTO 03002KT 2 1/2SM M05/M08 A3047 RMK T10501080 IEM_DS3505
ZBAA,2004-01-11 02:00,ZBAA 110200Z AUTO 08002KT 2SM M05/M07 A3045 RMK T10501070 IEM_DS3505
ZBAA,2004-01-11 03:00,ZBAA 110300Z AUTO 20004KT 5SM M04/M06 A3045 RMK SLP306 T10391065 57011 IEM_DS3505
ZBAA,2004-01-11 04:00,ZBAA 110400Z AUTO 12002KT 2 1/2SM M04/M06 A3039 RMK T10401060 IEM_DS3505
ZBAA,2004-01-11 05:00,ZBAA 110500Z AUTO 08002KT 2 1/2SM M03/M05 A3036 RMK T10301050 IEM_DS3505
ZBAA,2004-01-11 06:00,ZBAA 110600Z AUTO 16002KT 6SM M02/M06 A3033 RMK 60002 SLP272 T10251065 57034 IEM_DS3505
ZBAA,2004-01-11 07:00,ZBAA 110700Z AUTO 16006KT 2 1/2SM M02/M06 A3030 RMK T10201060 IEM_DS3505
ZBAA,2004-01-11 08:00,ZBAA 110800Z AUTO 20004KT 2 1/2SM M02/M06 A3033 RMK T10201060 IEM_DS3505
ZBAA,2004-01-11 09:00,ZBAA 110900Z AUTO 11002KT 6SM M03/M07 A3030 RMK SLP262 T10311074 57010 IEM_DS3505
ZBAA,2004-01-11 10:00,ZBAA 111000Z AUTO 00000KT 1 1/2SM M05/M07 A3033 RMK T10501070 IEM_DS3505
ZBAA,2004-01-11 11:00,ZBAA 111100Z AUTO 36004KT 1 1/4SM M07/M08 A3033 RMK T10701080 IEM_DS3505
ZBAA,2004-01-11 12:00,ZBAA 111200Z AUTO 27002KT 5SM M05/M08 A3036 RMK SLP274 T10501079 52012 IEM_DS3505
ZBAA,2004-01-11 13:00,ZBAA 111300Z AUTO 31008KT 1 1/4SM M05/M06 A3036 RMK T10501060 IEM_DS3505
ZBAA,2004-01-11 14:00,ZBAA 111400Z AUTO 32012KT 4SM M04/M08 A3036 RMK T10401080 IEM_DS3505
ZBAA,2004-01-11 15:00,ZBAA 111500Z AUTO 34010KT 9SM M01/M18 A3039 RMK SLP290 T10111185 52016 IEM_DS3505
ZBAA,2004-01-11 16:00,ZBAA 111600Z AUTO 34014G23KT 6SM M03/M22 A3042 RMK T10301220 IEM_DS3505
ZBAA,2004-01-11 17:00,ZBAA 111700Z AUTO 32021KT 6SM M04/M22 A3042 RMK T10401220 IEM_DS3505
ZBAA,2004-01-11 18:00,ZBAA 111800Z AUTO 29014KT 19SM M04/M22 A3045 RMK SLP306 T10371217 52016 IEM_DS3505
ZBAA,2004-01-11 19:00,ZBAA 111900Z AUTO 29008KT 6SM M06/M20 A3045 RMK T10601200 IEM_DS3505
ZBAA,2004-01-11 20:00,ZBAA 112000Z AUTO 30014KT 6SM M06/M20 A3042 RMK T10601200 IEM_DS3505
ZBAA,2004-01-11 21:00,ZBAA 112100Z AUTO 34012KT 19SM M05/M23 A3042 RMK 70002 SLP296 T10541227 57010 IEM_DS3505
ZBAA,2004-01-11 22:00,ZBAA 112200Z AUTO 32012KT 6SM M07/M22 A3042 RMK T10701220 IEM_DS3505
ZBAA,2004-01-11 23:00,ZBAA 112300Z AUTO 32012G23KT 6SM M07/M22 A3045 RMK T10701220 IEM_DS3505
ZBAA,2004-01-12 00:00,ZBAA 120000Z AUTO 36010KT 19SM M05/M22 A3042 RMK 70002 SLP304 T10541222 52007 IEM_DS3505
ZBAA,2004-01-12 01:00,ZBAA 120100Z AUTO 33012KT 6SM M05/M21 A3045 RMK T10501210 IEM_DS3505
ZBAA,2004-01-12 02:00,ZBAA 120200Z AUTO 31019G29KT 6SM M03/M22 A3045 RMK T10301220 IEM_DS3505
ZBAA,2004-01-12 02:30,ZBAA 120230Z AUTO 31017G27KT 6SM M02/M21 A3045 RMK T10201210 IEM_DS3505
ZBAA,2004-01-12 03:00,ZBAA 120300Z AUTO 34012KT 12SM M02/M22 A3045 RMK SLP309 T10251217 52006 IEM_DS3505
ZBAA,2004-01-12 04:00,ZBAA 120400Z AUTO 30017G29KT 6SM M01/M20 A3039 RMK T10101200 IEM_DS3505
ZBAA,2004-01-12 05:00,ZBAA 120500Z AUTO 31021G33KT 6SM M01/M21 A3036 RMK T10101210 IEM_DS3505
ZBAA,2004-01-12 06:00,ZBAA 120600Z AUTO 32017G31KT 12SM M01/M22 A3036 RMK SLP284 T10071219 57025 IEM_DS3505
ZBAA,2004-01-12 07:00,ZBAA 120700Z AUTO 31017KT 6SM 01/M20 A3036 RMK T00101200 IEM_DS3505
ZBAA,2004-01-12 08:00,ZBAA 120800Z AUTO 32019G29KT 6SM 00/M22 A3036 RMK T00001220 IEM_DS3505
ZBAA,2004-01-12 09:00,ZBAA 120900Z AUTO 32014G25KT 12SM M00/M22 A3039 RMK SLP289 T10011221 52005 IEM_DS3505
ZBAA,2004-01-12 10:00,ZBAA 121000Z AUTO 32017KT 6SM M01/M21 A3039 RMK T10101210 IEM_DS3505
ZBAA,2004-01-12 12:00,ZBAA 121200Z AUTO 34002KT 12SM M02/M20 A3042 RMK SLP297 T10161199 IEM_DS3505
ZBAA,2004-01-12 13:00,ZBAA 121300Z AUTO 32010KT 6SM M03/M20 A3042 RMK T10301200 IEM_DS3505
ZBAA,2004-01-12 14:00,ZBAA 121400Z AUTO 33008KT 6SM M04/M20 A3042 RMK T10401200 IEM_DS3505
ZBAA,2004-01-12 15:00,ZBAA 121500Z AUTO 00000KT 9SM M05/M19 A3042 RMK SLP297 T10491186 54000 IEM_DS3505
ZBAA,2004-01-12 16:00,ZBAA 121600Z AUTO 00000KT 6SM M07/M19 A3039 RMK T10701190 IEM_DS3505
ZBAA,2004-01-12 17:00,ZBAA 121700Z AUTO 35006KT 6SM M10/M20 A3039 RMK T11001200 IEM_DS3505
ZBAA,2004-01-12 18:00,ZBAA 121800Z AUTO 22002KT 6SM M07/M18 A3039 RMK SLP289 T10711175 57008 IEM_DS3505
ZBAA,2004-01-12 19:00,ZBAA 121900Z AUTO 00000KT 6SM M09/M20 A3039 RMK T10901200 IEM_DS3505
ZBAA,2004-01-12 20:00,ZBAA 122000Z AUTO 34002KT 6SM M09/M19 A3039 RMK T10901190 IEM_DS3505
ZBAA,2004-01-12 21:00,ZBAA 122100Z AUTO 34004KT 6SM M08/M17 RMK SLP280 T10841174 57009 IEM_DS3505
ZBAA,2004-01-12 22:00,ZBAA 122200Z AUTO 34004KT 6SM M11/M20 A3036 RMK T11101200 IEM_DS3505
ZBAA,2004-01-12 23:00,ZBAA 122300Z AUTO 34004KT 6SM M10/M20 A3036 RMK T11001200 IEM_DS3505
ZBAA,2004-01-13 00:00,ZBAA 130000Z AUTO 20002KT 4SM M08/M17 A3036 RMK SLP282 T10851168 52001 IEM_DS3505
ZBAA,2004-01-13 01:00,ZBAA 130100Z AUTO 02002KT 6SM M07/M18 A3036 RMK T10701180 IEM_DS3505
ZBAA,2004-01-13 02:00,ZBAA 130200Z AUTO 04004KT 6SM M05/M17 A3036 RMK T10501170 IEM_DS3505
ZBAA,2004-01-13 03:00,ZBAA 130300Z AUTO 25004KT 6SM M01/M18 A3036 RMK SLP281 T10111176 54000 IEM_DS3505
ZBAA,2004-01-13 03:30,ZBAA 130330Z AUTO 6SM 00/M16 A3036 RMK T00001160 IEM_DS3505
ZBAA,2004-01-13 04:00,ZBAA 130400Z AUTO 29006KT 6SM 02/M17 A3033 RMK T00201170 IEM_DS3505
ZBAA,2004-01-13 05:00,ZBAA 130500Z AUTO 6SM 02/M18 A3030 RMK T00201180 IEM_DS3505
ZBAA,2004-01-13 06:00,ZBAA 130600Z AUTO 20004KT 9SM 01/M20 A3027 RMK SLP249 T00131203 57032 IEM_DS3505
ZBAA,2004-01-13 07:00,ZBAA 130700Z AUTO 20006KT 6SM 01/M17 A3024 RMK T00101170 IEM_DS3505
ZBAA,2004-01-13 08:00,ZBAA 130800Z AUTO 18006KT 6SM 01/M17 A3024 RMK T00101170 IEM_DS3505
ZBAA,2004-01-13 08:30,ZBAA 130830Z AUTO 19006KT 6SM 01/M18 A3024 RMK T00101180 IEM_DS3505
ZBAA,2004-01-13 09:00,ZBAA 130900Z AUTO 22004KT 9SM 00/M20 A3024 RMK SLP242 T00001202 57007 IEM_DS3505
ZBAA,2004-01-13 10:00,ZBAA 131000Z AUTO 13002KT 6SM M02/M17 A3024 RMK T10201170 IEM_DS3505
ZBAA,2004-01-13 11:00,ZBAA 131100Z AUTO 15004KT 6SM M02/M17 A3024 RMK T10201170 IEM_DS3505
ZBAA,2004-01-13 12:00,ZBAA 131200Z AUTO 16002KT 6SM M02/M20 A3024 RMK SLP243 T10191197 52001 IEM_DS3505
ZBAA,2004-01-13 13:00,ZBAA 131300Z AUTO 00000KT 4SM A3024 RMK IEM_DS3505
ZBAA,2004-01-13 14:00,ZBAA 131400Z AUTO 00000KT 3SM A3024 RMK IEM_DS3505
ZBAA,2004-01-13 15:00,ZBAA 131500Z AUTO 00000KT 7SM M04/M18 A3024 RMK SLP244 T10401175 52001 IEM_DS3505
ZBAA,2004-01-13 16:00,ZBAA 131600Z AUTO 13002KT 3SM A3024 RMK IEM_DS3505
ZBAA,2004-01-13 17:00,ZBAA 131700Z AUTO 06002KT 3SM A3021 RMK IEM_DS3505
ZBAA,2004-01-13 18:00,ZBAA 131800Z AUTO 02004KT 6SM M04/M16 A3024 RMK SLP234 T10451160 57010 IEM_DS3505
ZBAA,2004-01-13 19:00,ZBAA 131900Z AUTO 36004KT 3SM A3024 RMK IEM_DS3505
ZBAA,2004-01-13 20:00,ZBAA 132000Z AUTO 02002KT 3SM A3021 RMK IEM_DS3505
ZBAA,2004-01-13 21:00,ZBAA 132100Z AUTO 04002KT 6SM M05/M16 A3021 RMK SLP232 T10461155 57002 IEM_DS3505
ZBAA,2004-01-13 22:00,ZBAA 132200Z AUTO 33004KT 4SM A3021 RMK IEM_DS3505
ZBAA,2004-01-13 23:00,ZBAA 132300Z AUTO 35004KT 4SM A3024 RMK IEM_DS3505
ZBAA,2004-01-14 00:00,ZBAA 140000Z AUTO 07004KT 5SM M03/M16 A3024 RMK SLP239 T10311163 52007 IEM_DS3505
ZBAA,2004-01-14 01:00,ZBAA 140100Z AUTO 00000KT 2 1/2SM A3024 RMK IEM_DS3505
ZBAA,2004-01-14 02:00,ZBAA 140200Z AUTO 01004KT 2 1/2SM A3027 RMK IEM_DS3505
ZBAA,2004-01-14 03:00,ZBAA 140300Z AUTO 09004KT 5SM M01/M13 RMK SLP244 T10081126 52005 IEM_DS3505
ZBAA,2004-01-14 04:00,ZBAA 140400Z AUTO 03002KT 3SM A3024 RMK IEM_DS3505
ZBAA,2004-01-14 05:00,ZBAA 140500Z AUTO 01/M16 A3024 RMK T00101160 IEM_DS3505
ZBAA,2004-01-14 06:00,ZBAA 140600Z AUTO 02002KT 4SM 02/M14 A3021 RMK SLP229 T00171143 57015 IEM_DS3505
ZBAA,2004-01-14 08:00,ZBAA 140800Z AUTO 00000KT 5SM 02/M17 A3021 RMK T00201170 IEM_DS3505
ZBAA,2004-01-14 09:00,ZBAA 140900Z AUTO 14002KT 5SM 01/M17 A3024 RMK SLP240 T00101172 52011 IEM_DS3505
ZBAA,2004-01-14 10:00,ZBAA 141000Z AUTO 30002KT 00/M16 A3027 RMK T00001160 IEM_DS3505
ZBAA,2004-01-14 11:00,ZBAA 141100Z AUTO 00000KT 3SM A3027 RMK IEM_DS3505
ZBAA,2004-01-14 12:00,ZBAA 141200Z AUTO 09002KT 5SM M02/M16 A3030 RMK SLP263 T10191156 52023 IEM_DS3505
ZBAA,2004-01-14 13:00,ZBAA 141300Z AUTO 14002KT 2SM A3033 RMK IEM_DS3505
ZBAA,2004-01-14 14:00,ZBAA 141400Z AUTO 00000KT 1 1/4SM A3033 RMK IEM_DS3505
ZBAA,2004-01-14 15:00,ZBAA 141500Z AUTO 09002KT 4SM M03/M16 A3036 RMK SLP277 T10311156 52014 IEM_DS3505
ZBAA,2004-01-14 16:00,ZBAA 141600Z AUTO 35004KT 1 1/4SM A3036 RMK IEM_DS3505
ZBAA,2004-01-14 17:00,ZBAA 141700Z AUTO 32004KT 1 1/4SM A3039 RMK IEM_DS3505
ZBAA,2004-01-14 18:00,ZBAA 141800Z AUTO 04002KT 3SM M06/M13 A3039 RMK SLP294 T10561134 52017 IEM_DS3505
ZBAA,2004-01-14 19:00,ZBAA 141900Z AUTO 00000KT 1 1/4SM A3042 RMK IEM_DS3505
ZBAA,2004-01-14 20:00,ZBAA 142000Z AUTO 35006KT 2SM A3042 RMK IEM_DS3505
ZBAA,2004-01-14 21:00,ZBAA 142100Z AUTO 07002KT 4SM M06/M14 A3045 RMK SLP305 T10581145 52011 IEM_DS3505
ZBAA,2004-01-14 22:00,ZBAA 142200Z AUTO 31002KT 1 1/4SM A3045 RMK IEM_DS3505
ZBAA,2004-01-14 23:00,ZBAA 142300Z AUTO 1 1/2SM A3047 RMK IEM_DS3505
ZBAA,2004-01-15 00:00,ZBAA 150000Z AUTO 02002KT 2 1/2SM M07/M13 A3047 RMK SLP324 T10661130 52018 IEM_DS3505
ZBAA,2004-01-15 01:00,ZBAA 150100Z AUTO 35004KT 5SM A3050 RMK IEM_DS3505
ZBAA,2004-01-15 02:00,ZBAA 150200Z AUTO 03004KT 6SM 00/M14 A3050 RMK T00001140 IEM_DS3505
ZBAA,2004-01-15 03:00,ZBAA 150300Z AUTO 18004KT 5SM 01/M12 A3053 RMK SLP337 T00091117 52014 IEM_DS3505
ZBAA,2004-01-15 04:00,ZBAA 150400Z AUTO 03008KT 6SM 03/M16 A3050 RMK T00301160 IEM_DS3505
ZBAA,2004-01-15 05:00,ZBAA 150500Z AUTO 6SM 03/M17 A3047 RMK T00301170 IEM_DS3505
ZBAA,2004-01-15 06:00,ZBAA 150600Z AUTO 18006KT 7SM 02/M14 A3047 RMK SLP320 T00171139 57017 IEM_DS3505
ZBAA,2004-01-15 07:00,ZBAA 150700Z AUTO 6SM 03/M14 A3047 RMK T00301140 IEM_DS3505
ZBAA,2004-01-15 08:00,ZBAA 150800Z AUTO 17008KT 01/M13 A3047 RMK T00101130 IEM_DS3505
ZBAA,2004-01-15 09:00,ZBAA 150900Z AUTO 18006KT 7SM 01/M14 A3050 RMK SLP326 T00061141 52006 IEM_DS3505
ZBAA,2004-01-15 10:00,ZBAA 151000Z AUTO 14004KT 3SM A3050 RMK IEM_DS3505
ZBAA,2004-01-15 11:00,ZBAA 151100Z AUTO 15004KT 3SM A3053 RMK IEM_DS3505
ZBAA,2004-01-15 12:00,ZBAA 151200Z AUTO 18004KT 6SM M02/M15 A3056 RMK SLP349 T10211148 52022 IEM_DS3505
ZBAA,2004-01-15 13:00,ZBAA 151300Z AUTO 19004KT 4SM A3056 RMK IEM_DS3505
ZBAA,2004-01-15 14:00,ZBAA 151400Z AUTO 16004KT 4SM A3059 RMK IEM_DS3505
ZBAA,2004-01-15 15:00,ZBAA 151500Z AUTO 22004KT 6SM M04/M14 A3059 RMK SLP362 T10411142 52014 IEM_DS3505
ZBAA,2004-01-15 16:00,ZBAA 151600Z AUTO 11002KT 4SM A3059 RMK IEM_DS3505
ZBAA,2004-01-15 17:00,ZBAA 151700Z AUTO 10002KT 4SM A3059 RMK IEM_DS3505
ZBAA,2004-01-15 18:00,ZBAA 151800Z AUTO 29002KT 6SM M06/M14 A3059 RMK SLP356 T10561138 57006 IEM_DS3505
ZBAA,2004-01-15 19:00,ZBAA 151900Z AUTO 00000KT 4SM A3056 RMK IEM_DS3505
ZBAA,2004-01-15 20:00,ZBAA 152000Z AUTO 03002KT 4SM A3056 RMK IEM_DS3505
ZBAA,2004-01-15 21:00,ZBAA 152100Z AUTO 16002KT 6SM M07/M13 A3056 RMK SLP345 T10711131 57011 IEM_DS3505
ZBAA,2004-01-15 22:00,ZBAA 152200Z AUTO 36002KT 6SM M09/M13 A3053 RMK T10901130 IEM_DS3505
ZBAA,2004-01-15 23:00,ZBAA 152300Z AUTO 36002KT 6SM M07/M12 A3056 RMK T10701120 IEM_DS3505
ZBAA,2004-01-16 00:00,ZBAA 160000Z AUTO 20002KT 7SM M06/M15 A3056 RMK SLP354 T10551150 52008 IEM_DS3505
ZBAA,2004-01-16 01:00,ZBAA 160100Z AUTO 00000KT 2 1/2SM A3059 RMK IEM_DS3505
ZBAA,2004-01-16 01:30,ZBAA 160130Z AUTO 00000KT 2 1/2SM A3059 RMK IEM_DS3505
ZBAA,2004-01-16 02:00,ZBAA 160200Z AUTO 11002KT 3SM A3059 RMK IEM_DS3505
ZBAA,2004-01-16 02:30,ZBAA 160230Z AUTO 16002KT 3SM A3059 RMK IEM_DS3505
ZBAA,2004-01-16 03:00,ZBAA 160300Z AUTO 22004KT 7SM M03/M14 A3059 RMK SLP356 T10261140 52002 IEM_DS3505
ZBAA,2004-01-16 03:30,ZBAA 160330Z AUTO 4SM A3056 RMK IEM_DS3505
ZBAA,2004-01-16 04:00,ZBAA 160400Z AUTO 4SM A3056 RMK IEM_DS3505
ZBAA,2004-01-16 05:00,ZBAA 160500Z AUTO 00000KT 4SM A3050 RMK IEM_DS3505
ZBAA,2004-01-16 06:00,ZBAA 160600Z AUTO 22004KT 9SM M01/M12 A3047 RMK SLP317 T10061116 57038 IEM_DS3505
ZBAA,2004-01-16 07:00,ZBAA 160700Z AUTO 15002KT 4SM A3047 RMK IEM_DS3505
ZBAA,2004-01-16 08:00,ZBAA 160800Z AUTO 09002KT 4SM A3045 RMK IEM_DS3505
ZBAA,2004-01-16 09:00,ZBAA 160900Z AUTO 27002KT 7SM M02/M11 A3045 RMK SLP315 T10161111 57003 IEM_DS3505
ZBAA,2004-01-16 10:00,ZBAA 161000Z AUTO 00000KT 4SM A3047 RMK IEM_DS3505
ZBAA,2004-01-16 11:00,ZBAA 161100Z AUTO 00000KT 4SM A3047 RMK IEM_DS3505
ZBAA,2004-01-16 12:00,ZBAA 161200Z AUTO 18002KT 5SM M04/M10 A3047 RMK SLP324 T10391105 52009 IEM_DS3505
ZBAA,2004-01-16 13:00,ZBAA 161300Z AUTO 00000KT 2 1/2SM M06/M12 A3047 RMK T10601120 IEM_DS3505
ZBAA,2004-01-16 14:00,ZBAA 161400Z AUTO 00000KT 2 1/2SM M08/M12 A3047 RMK T10801120 IEM_DS3505
ZBAA,2004-01-16 15:00,ZBAA 161500Z AUTO 25004KT 6SM M04/M13 A3047 RMK SLP318 T10431131 57005 IEM_DS3505
ZBAA,2004-01-16 16:00,ZBAA 161600Z AUTO 00000KT 2SM M08/M12 A3047 RMK T10801120 IEM_DS3505
ZBAA,2004-01-16 17:00,ZBAA 161700Z AUTO 00000KT 1 1/2SM A3047 RMK IEM_DS3505
ZBAA,2004-01-16 18:00,ZBAA 161800Z AUTO 22004KT 7SM M05/M14 A3047 RMK SLP322 T10481138 52004 IEM_DS3505
ZBAA,2004-01-16 19:00,ZBAA 161900Z AUTO 36004KT 1 1/2SM A3047 RMK IEM_DS3505
ZBAA,2004-01-16 20:00,ZBAA 162000Z AUTO 35002KT 2SM A3045 RMK IEM_DS3505
ZBAA,2004-01-16 20:30,ZBAA 162030Z AUTO 35002KT 2 1/2SM A3045 RMK IEM_DS3505
ZBAA,2004-01-16 21:00,ZBAA 162100Z AUTO 07002KT 6SM M06/M12 A3045 RMK SLP313 T10621122 57009 IEM_DS3505
ZBAA,2004-01-16 21:30,ZBAA 162130Z AUTO 34004KT 3SM A3045 RMK IEM_DS3505
ZBAA,2004-01-16 22:00,ZBAA 162200Z AUTO 34004KT 3SM A3045 RMK IEM_DS3505
ZBAA,2004-01-16 23:00,ZBAA 162300Z AUTO 34004KT 4SM A3045 RMK IEM_DS3505
ZBAA,2004-01-17 00:00,ZBAA 170000Z AUTO 04006KT 4SM M06/M14 A3047 RMK SLP318 T10601137 52004 IEM_DS3505
ZBAA,2004-01-17 01:00,ZBAA 170100Z AUTO 00000KT 4SM A3047 RMK IEM_DS3505
ZBAA,2004-01-17 02:00,ZBAA 170200Z AUTO 01002KT 4SM A3047 RMK IEM_DS3505
ZBAA,2004-01-17 03:00,ZBAA 170300Z AUTO 04004KT 6SM M04/M14 A3047 RMK SLP318 T10451138 54000 IEM_DS3505
ZBAA,2004-01-17 04:00,ZBAA 170400Z AUTO 02002KT 4SM A3045 RMK IEM_DS3505
ZBAA,2004-01-17 05:00,ZBAA 170500Z AUTO 00000KT 4SM A3042 RMK IEM_DS3505
ZBAA,2004-01-17 06:00,ZBAA 170600Z AUTO 00000KT 4SM M03/M13 A3039 RMK SLP289 T10311130 57028 IEM_DS3505
ZBAA,2004-01-17 07:00,ZBAA 170700Z AUTO 3SM A3039 RMK IEM_DS3505
ZBAA,2004-01-17 08:00,ZBAA 170800Z AUTO 29006KT 3SM A3039 RMK IEM_DS3505
ZBAA,2004-01-17 09:00,ZBAA 170900Z AUTO 36002KT 6SM M03/M13 A3039 RMK SLP293 T10261134 52004 IEM_DS3505
ZBAA,2004-01-17 10:00,ZBAA 171000Z AUTO 28008KT 3SM A3042 RMK IEM_DS3505
ZBAA,2004-01-17 11:00,ZBAA 171100Z AUTO 30008KT 3SM A3042 RMK IEM_DS3505
ZBAA,2004-01-17 12:00,ZBAA 171200Z AUTO 34002KT 7SM M03/M10 A3045 RMK 60000 SLP305 T10321102 52011 IEM_DS3505
ZBAA,2004-01-17 13:00,ZBAA 171300Z AUTO 32004KT 2 1/2SM A3045 RMK IEM_DS3505
ZBAA,2004-01-17 14:00,ZBAA 171400Z AUTO 33002KT 2SM M05/M06 A3045 RMK T10501060 IEM_DS3505
ZBAA,2004-01-17 15:00,ZBAA 171500Z AUTO 16002KT 4SM M04/M07 A3045 RMK SLP309 T10441070 52004 IEM_DS3505
ZBAA,2004-01-17 16:00,ZBAA 171600Z AUTO 31006KT 1 1/4SM M05/M06 A3045 RMK T10501060 IEM_DS3505
ZBAA,2004-01-17 17:00,ZBAA 171700Z AUTO 30004KT 1 1/4SM M05/M06 A3045 RMK T10501060 IEM_DS3505
ZBAA,2004-01-17 18:00,ZBAA 171800Z AUTO 03002KT 1 1/4SM M06/M06 A3042 RMK T10601060 IEM_DS3505
ZBAA,2004-01-17 19:00,ZBAA 171900Z AUTO 32004KT 1SM M07/M07 A3042 RMK T10701070 IEM_DS3505
ZBAA,2004-01-17 20:00,ZBAA 172000Z AUTO 29004KT RMK IEM_DS3505
ZBAA,2004-01-17 21:00,ZBAA 172100Z AUTO 29004KT 6SM M06/M09 A3042 RMK 70001 SLP297 T10641088 57007 IEM_DS3505
ZBAA,2004-01-17 22:00,ZBAA 172200Z AUTO 35006KT 6SM M09/M09 A3042 RMK T10901090 IEM_DS3505
ZBAA,2004-01-17 23:00,ZBAA 172300Z AUTO 32010KT 6SM M07/M09 A3042 RMK T10701090 IEM_DS3505
ZBAA,2004-01-18 00:00,ZBAA 180000Z AUTO 29004KT 19SM M04/M16 A3042 RMK 60000 70001 SLP304 T10391160 52007 IEM_DS3505
ZBAA,2004-01-18 01:00,ZBAA 180100Z AUTO 30012G21KT 6SM M04/M14 A3045 RMK T10401140 IEM_DS3505
ZBAA,2004-01-18 02:00,ZBAA 180200Z AUTO 30014KT 6SM M03/M14 A3045 RMK T10301140 IEM_DS3505
ZBAA,2004-01-18 03:00,ZBAA 180300Z AUTO 34008KT 19SM M02/M18 A3042 RMK SLP305 T10171177 52001 IEM_DS3505
ZBAA,2004-01-18 04:00,ZBAA 180400Z AUTO 31017G29KT 6SM M01/M16 A3042 RMK T10101160 IEM_DS3505
ZBAA,2004-01-18 05:00,ZBAA 180500Z AUTO 31021KT 6SM 00/M17 A3036 RMK T00001170 IEM_DS3505
ZBAA,2004-01-18 06:00,ZBAA 180600Z AUTO 34010G29KT 19SM 01/M19 A3033 RMK SLP275 T00071190 57030 IEM_DS3505
ZBAA,2004-01-18 07:00,ZBAA 180700Z AUTO 30017G27KT 6SM 00/M17 A3033 RMK T00001170 IEM_DS3505
ZBAA,2004-01-18 08:00,ZBAA 180800Z AUTO 30016G27KT 6SM 00/M17 A3030 RMK T00001170 IEM_DS3505
ZBAA,2004-01-18 09:00,ZBAA 180900Z AUTO 34006KT 19SM M00/M20 A3033 RMK SLP269 T10011197 57006 IEM_DS3505
ZBAA,2004-01-18 10:00,ZBAA 181000Z AUTO 29014KT 6SM M02/M17 A3033 RMK T10201170 IEM_DS3505
ZBAA,2004-01-18 11:00,ZBAA 181100Z AUTO 29010KT 6SM M02/M17 A3033 RMK T10201170 IEM_DS3505
ZBAA,2004-01-18 12:00,ZBAA 181200Z AUTO 29004KT 16SM M02/M18 A3033 RMK SLP274 T10211181 52005 IEM_DS3505
ZBAA,2004-01-18 13:00,ZBAA 181300Z AUTO 31010KT 6SM M03/M17 A3033 RMK T10301170 IEM_DS3505
ZBAA,2004-01-18 14:00,ZBAA 181400Z AUTO 28004KT 6SM M03/M17 A3033 RMK T10301170 IEM_DS3505
ZBAA,2004-01-18 15:00,ZBAA 181500Z AUTO 34002KT 16SM M03/M18 A3033 RMK SLP274 T10291180 54000 IEM_DS3505
ZBAA,2004-01-18 16:00,ZBAA 181600Z AUTO 31014KT 6SM M03/M17 A3036 RMK T10301170 IEM_DS3505
ZBAA,2004-01-18 17:00,ZBAA 181700Z AUTO 31014KT 6SM M03/M18 A3036 RMK T10301180 IEM_DS3505
ZBAA,2004-01-18 18:00,ZBAA 181800Z AUTO 32002KT 16SM M03/M20 A3036 RMK SLP272 T10291201 57002 IEM_DS3505
ZBAA,2004-01-18 19:00,ZBAA 181900Z AUTO 29004KT 6SM M03/M18 A3033 RMK T10301180 IEM_DS3505
ZBAA,2004-01-18 20:00,ZBAA 182000Z AUTO 30008KT 6SM M04/M19 A3033 RMK T10401190 IEM_DS3505
ZBAA,2004-01-18 21:00,ZBAA 182100Z AUTO 36004KT 19SM M03/M21 A3033 RMK SLP269 T10301206 57003 IEM_DS3505
ZBAA,2004-01-18 22:00,ZBAA 182200Z AUTO 30010KT 6SM M04/M19 A3033 RMK T10401190 IEM_DS3505
ZBAA,2004-01-18 23:00,ZBAA 182300Z AUTO 30010KT 6SM M04/M19 A3033 RMK T10401190 IEM_DS3505
ZBAA,2004-01-19 00:00,ZBAA 190000Z AUTO 02004KT 12SM M04/M20 A3036 RMK SLP278 T10441197 52009 IEM_DS3505
ZBAA,2004-01-19 01:00,ZBAA 190100Z AUTO 32010KT 6SM M02/M18 A3036 RMK T10201180 IEM_DS3505
ZBAA,2004-01-19 02:00,ZBAA 190200Z AUTO 32010KT 6SM M01/M18 A3036 RMK T10101180 IEM_DS3505
ZBAA,2004-01-19 03:00,ZBAA 190300Z AUTO 36006KT 19SM 00/M20 A3036 RMK SLP281 T00051197 52003 IEM_DS3505
ZBAA,2004-01-19 04:00,ZBAA 190400Z AUTO 31012KT 6SM 01/M18 A3036 RMK T00101180 IEM_DS3505
ZBAA,2004-01-19 05:00,ZBAA 190500Z AUTO 31014KT 6SM 01/M19 A3033 RMK T00101190 IEM_DS3505
ZBAA,2004-01-19 06:00,ZBAA 190600Z AUTO 36014G25KT 19SM 02/M24 A3030 RMK SLP260 T00191235 57021 IEM_DS3505
ZBAA,2004-01-19 07:00,ZBAA 190700Z AUTO 28016KT 6SM 02/M20 A3030 RMK T00201200 IEM_DS3505
ZBAA,2004-01-19 08:00,ZBAA 190800Z AUTO 29014KT 6SM 01/M20 A3030 RMK T00101200 IEM_DS3505
ZBAA,2004-01-19 09:00,ZBAA 190900Z AUTO 27008KT 19SM 01/M21 A3030 RMK SLP261 T00141209 52001 IEM_DS3505
ZBAA,2004-01-19 10:00,ZBAA 191000Z AUTO 28008KT 6SM 00/M18 A3030 RMK T00001180 IEM_DS3505
ZBAA,2004-01-19 11:00,ZBAA 191100Z AUTO 28006KT 6SM M01/M17 A3030 RMK T10101170 IEM_DS3505
ZBAA,2004-01-19 12:00,ZBAA 191200Z AUTO 29004KT 16SM 00/M19 A3030 RMK SLP263 T00011190 52002 IEM_DS3505
ZBAA,2004-01-19 13:00,ZBAA 191300Z AUTO 00000KT 6SM M03/M17 A3030 RMK T10301170 IEM_DS3505
ZBAA,2004-01-19 14:00,ZBAA 191400Z AUTO 29006KT 6SM M02/M17 A3030 RMK T10201170 IEM_DS3505
ZBAA,2004-01-19 15:00,ZBAA 191500Z AUTO 32006KT 12SM 00/M19 A3030 RMK SLP257 T00011190 57006 IEM_DS3505
ZBAA,2004-01-19 16:00,ZBAA 191600Z AUTO 30006KT 6SM M01/M17 A3030 RMK T10101170 IEM_DS3505
ZBAA,2004-01-19 17:00,ZBAA 191700Z AUTO 29012KT 6SM M01/M17 A3030 RMK T10101170 IEM_DS3505
ZBAA,2004-01-19 18:00,ZBAA 191800Z AUTO 29012KT 6SM M01/M18 A3030 RMK T10101180 IEM_DS3505
ZBAA,2004-01-19 19:00,ZBAA 191900Z AUTO 29010KT 6SM M02/M18 A3030 RMK T10201180 IEM_DS3505
ZBAA,2004-01-19 20:00,ZBAA 192000Z AUTO 29014KT 6SM M03/M18 A3030 RMK T10301180 IEM_DS3505
ZBAA,2004-01-19 21:00,ZBAA 192100Z AUTO 36010KT 19SM M02/M20 A3030 RMK SLP262 T10231205 57002 IEM_DS3505
ZBAA,2004-01-19 22:00,ZBAA 192200Z AUTO 31010KT 6SM M04/M19 A3033 RMK T10401190 IEM_DS3505
ZBAA,2004-01-19 23:00,ZBAA 192300Z AUTO 30012KT 6SM M05/M20 A3033 RMK T10501200 IEM_DS3505
ZBAA,2004-01-20 00:00,ZBAA 200000Z AUTO 34008KT 19SM M04/M23 A3036 RMK SLP283 T10431232 52021 IEM_DS3505
ZBAA,2004-01-20 01:00,ZBAA 200100Z AUTO 30012KT 6SM M04/M20 A3039 RMK T10401200 IEM_DS3505
ZBAA,2004-01-20 03:00,ZBAA 200300Z AUTO 32019G27KT 12SM M05/M28 A3045 RMK SLP307 T10491281 52024 IEM_DS3505
ZBAA,2004-01-20 04:00,ZBAA 200400Z AUTO 35021G31KT 6SM M05/M29 A3045 RMK T10501290 IEM_DS3505
ZBAA,2004-01-20 05:00,ZBAA 200500Z AUTO 34023G35KT 6SM M05/M30 A3045 RMK T10501300 IEM_DS3505
ZBAA,2004-01-20 06:00,ZBAA 200600Z AUTO 32016G41KT 19SM M06/M30 A3045 RMK SLP308 T10561295 52001 IEM_DS3505
ZBAA,2004-01-20 07:00,ZBAA 200700Z AUTO 35023G35KT 6SM M07/M32 A3045 RMK T10701320 IEM_DS3505
ZBAA,2004-01-20 08:00,ZBAA 200800Z AUTO 34023G33KT 6SM M08/M33 A3047 RMK T10801330 IEM_DS3505
ZBAA,2004-01-20 09:00,ZBAA 200900Z AUTO 02012G29KT 19SM M08/M33 A3047 RMK SLP324 T10851326 52015 IEM_DS3505
ZBAA,2004-01-20 10:00,ZBAA 201000Z AUTO 35019KT 6SM M10/M32 A3050 RMK T11001320 IEM_DS3505
ZBAA,2004-01-20 11:00,ZBAA 201100Z AUTO 01014KT 6SM M11/M32 A3053 RMK T11101320 IEM_DS3505
ZBAA,2004-01-20 12:00,ZBAA 201200Z AUTO 04008KT 19SM M10/M32 A3053 RMK SLP336 T11031318 52012 IEM_DS3505
ZBAA,2004-01-20 13:00,ZBAA 201300Z AUTO 36012KT 6SM M11/M31 A3053 RMK T11101310 IEM_DS3505
ZBAA,2004-01-20 14:00,ZBAA 201400Z AUTO 36012KT 6SM M11/M30 A3050 RMK T11101300 IEM_DS3505
ZBAA,2004-01-20 15:00,ZBAA 201500Z AUTO 02006KT 19SM M10/M30 A3050 RMK SLP334 T11051295 57002 IEM_DS3505
ZBAA,2004-01-20 16:00,ZBAA 201600Z AUTO 33017G29KT 6SM M10/M33 A3050 RMK T11001330 IEM_DS3505
ZBAA,2004-01-20 17:00,ZBAA 201700Z AUTO 34019G31KT 6SM M11/M34 A3053 RMK T11101340 IEM_DS3505
ZBAA,2004-01-20 18:00,ZBAA 201800Z AUTO 34012G31KT 19SM M10/M35 A3053 RMK SLP340 T11031349 52006 IEM_DS3505
ZBAA,2004-01-20 19:00,ZBAA 201900Z AUTO 33012G25KT 6SM M12/M33 A3056 RMK T11201330 IEM_DS3505
ZBAA,2004-01-20 20:00,ZBAA 202000Z AUTO 34012KT 6SM M13/M34 A3056 RMK T11301340 IEM_DS3505
ZBAA,2004-01-20 21:00,ZBAA 202100Z AUTO 36010KT 19SM M12/M34 A3056 RMK SLP347 T11181345 52006 IEM_DS3505
ZBAA,2004-01-20 22:00,ZBAA 202200Z AUTO 31010KT 6SM M14/M32 A3056 RMK T11401320 IEM_DS3505
ZBAA,2004-01-20 23:00,ZBAA 202300Z AUTO 32016KT 6SM M14/M33 A3056 RMK T11401330 IEM_DS3505
ZBAA,2004-01-21 00:00,ZBAA 210000Z AUTO 02006KT 19SM M12/M34 A3059 RMK SLP353 T11221340 52006 IEM_DS3505
ZBAA,2004-01-21 01:00,ZBAA 210100Z AUTO 31012KT 6SM M12/M32 A3059 RMK T11201320 IEM_DS3505
ZBAA,2004-01-21 02:00,ZBAA 210200Z AUTO 31014KT 6SM M11/M32 A3059 RMK T11101320 IEM_DS3505
ZBAA,2004-01-21 03:00,ZBAA 210300Z AUTO 36012G27KT 19SM M08/M33 A3056 RMK SLP349 T10841334 57003 IEM_DS3505
ZBAA,2004-01-21 04:00,ZBAA 210400Z AUTO 30017KT 6SM M08/M32 A3053 RMK T10801320 IEM_DS3505
ZBAA,2004-01-21 05:00,ZBAA 210500Z AUTO 30014G27KT 6SM M07/M31 A3050 RMK T10701310 IEM_DS3505
ZBAA,2004-01-21 06:00,ZBAA 210600Z AUTO 34010G31KT 19SM M06/M32 A3045 RMK SLP312 T10551321 57037 IEM_DS3505
ZBAA,2004-01-21 07:00,ZBAA 210700Z AUTO 30017KT 6SM M06/M31 A3045 RMK T10601310 IEM_DS3505
ZBAA,2004-01-21 08:00,ZBAA 210800Z AUTO 31016KT 6SM M05/M30 A3042 RMK T10501300 IEM_DS3505
ZBAA,2004-01-21 09:00,ZBAA 210900Z AUTO 32010KT 19SM M05/M32 A3042 RMK SLP303 T10471315 57009 IEM_DS3505
ZBAA,2004-01-21 10:00,ZBAA 211000Z AUTO 33008KT 6SM M07/M29 A3045 RMK T10701290 IEM_DS3505
ZBAA,2004-01-21 11:00,ZBAA 211100Z AUTO 34010KT 6SM M07/M29 A3045 RMK T10701290 IEM_DS3505
ZBAA,2004-01-21 12:00,ZBAA 211200Z AUTO 36004KT 19SM M06/M31 A3047 RMK SLP317 T10601306 52014 IEM_DS3505
ZBAA,2004-01-21 13:00,ZBAA 211300Z AUTO 33012KT 6SM M07/M29 A3047 RMK T10701290 IEM_DS3505
ZBAA,2004-01-21 14:00,ZBAA 211400Z AUTO 32012KT 6SM RMK IEM_DS3505
ZBAA,2004-01-21 15:00,ZBAA 211500Z AUTO 36002KT 12SM M08/M28 A3047 RMK SLP317 T10841283 54000 IEM_DS3505
ZBAA,2004-01-21 16:00,ZBAA 211600Z AUTO 02006KT 6SM M09/M29 A3047 RMK T10901290 IEM_DS3505
ZBAA,2004-01-21 17:00,ZBAA 211700Z AUTO 03006KT 6SM M10/M27 A3045 RMK T11001270 IEM_DS3505
ZBAA,2004-01-21 18:00,ZBAA 211800Z AUTO 04002KT 9SM M10/M29 A3045 RMK SLP313 T10961293 57004 IEM_DS3505
ZBAA,2004-01-21 19:00,ZBAA 211900Z AUTO 34002KT 6SM M13/M29 A3045 RMK T11301290 IEM_DS3505
ZBAA,2004-01-21 21:00,ZBAA 212100Z AUTO 04004KT 9SM M11/M28 RMK SLP305 T11071277 57008 IEM_DS3505
ZBAA,2004-01-21 22:00,ZBAA 212200Z AUTO 34004KT 6SM M15/M28 A3042 RMK T11501280 IEM_DS3505
ZBAA,2004-01-21 23:00,ZBAA 212300Z AUTO 35006KT 6SM M15/M27 A3042 RMK T11501270 IEM_DS3505
ZBAA,2004-01-22 00:00,ZBAA 220000Z AUTO 02004KT 16SM M11/M28 A3042 RMK SLP303 T11081282 57002 IEM_DS3505
ZBAA,2004-01-22 01:00,ZBAA 220100Z AUTO 36006KT 6SM M10/M27 A3042 RMK T11001270 IEM_DS3505
ZBAA,2004-01-22 02:00,ZBAA 220200Z AUTO 01008KT 6SM M08/M28 A3042 RMK T10801280 IEM_DS3505
ZBAA,2004-01-22 03:00,ZBAA 220300Z AUTO 34004KT 19SM M06/M29 A3042 RMK SLP297 T10591289 57006 IEM_DS3505
ZBAA,2004-01-22 04:00,ZBAA 220400Z AUTO 01006KT 6SM M04/M29 A3036 RMK T10401290 IEM_DS3505
ZBAA,2004-01-22 05:00,ZBAA 220500Z AUTO 06004KT 6SM M04/M29 A3033 RMK T10401290 IEM_DS3505
ZBAA,2004-01-22 06:00,ZBAA 220600Z AUTO 09002KT 19SM M03/M27 A3030 RMK SLP263 T10291273 57034 IEM_DS3505
ZBAA,2004-01-22 07:00,ZBAA 220700Z AUTO 30002KT 6SM M03/M26 A3030 RMK T10301260 IEM_DS3505
ZBAA,2004-01-22 12:00,ZBAA 221200Z AUTO 29002KT 9SM M06/M24 A3030 RMK SLP264 T10571244 52008 IEM_DS3505
ZBAA,2004-01-22 21:00,ZBAA 222100Z AUTO 34006KT 19SM M06/M23 A3036 RMK SLP277 T10551227 52001 IEM_DS3505
ZBAA,2004-01-22 22:00,ZBAA 222200Z AUTO 01006KT 6SM M08/M22 A3036 RMK T10801220 IEM_DS3505
ZBAA,2004-01-22 23:00,ZBAA 222300Z AUTO 01006KT 6SM M08/M21 A3039 RMK T10801210 IEM_DS3505
ZBAA,2004-01-23 00:00,ZBAA 230000Z AUTO 34008KT 19SM M06/M23 A3042 RMK SLP292 T10601227 52014 IEM_DS3505
ZBAA,2004-01-23 01:00,ZBAA 230100Z AUTO 36006KT 6SM M08/M21 A3042 RMK T10801210 IEM_DS3505
ZBAA,2004-01-23 02:00,ZBAA 230200Z AUTO 33019G31KT 6SM M05/M22 A3042 RMK T10501220 IEM_DS3505
ZBAA,2004-01-23 02:30,ZBAA 230230Z AUTO 33019G31KT 6SM M04/M23 A3042 RMK T10401230 IEM_DS3505
ZBAA,2004-01-23 03:00,ZBAA 230300Z AUTO 34016G31KT 19SM M05/M25 A3042 RMK SLP306 T10531246 52014 IEM_DS3505
ZBAA,2004-01-23 03:30,ZBAA 230330Z AUTO 33019G35KT 6SM M03/M24 A3042 RMK T10301240 IEM_DS3505
ZBAA,2004-01-23 04:00,ZBAA 230400Z AUTO 32025G37KT 6SM M03/M24 A3042 RMK T10301240 IEM_DS3505
ZBAA,2004-01-23 05:00,ZBAA 230500Z AUTO 33025G35KT 6SM M03/M24 A3042 RMK T10301240 IEM_DS3505
ZBAA,2004-01-23 06:00,ZBAA 230600Z AUTO 34017G33KT 19SM M04/M25 A3042 RMK SLP299 T10391252 57006 IEM_DS3505
ZBAA,2004-01-23 07:00,ZBAA 230700Z AUTO 32023G33KT 6SM M03/M25 A3042 RMK T10301250 IEM_DS3505
ZBAA,2004-01-23 08:00,ZBAA 230800Z AUTO 32025G39KT 6SM M04/M26 A3042 RMK T10401260 IEM_DS3505
ZBAA,2004-01-23 09:00,ZBAA 230900Z AUTO 32019G33KT 19SM M05/M26 A3045 RMK SLP319 T10481260 52019 IEM_DS3505
ZBAA,2004-01-23 10:00,ZBAA 231000Z AUTO 33021KT 6SM M06/M26 A3047 RMK T10601260 IEM_DS3505
ZBAA,2004-01-23 11:00,ZBAA 231100Z AUTO 33021G31KT 6SM M06/M26 A3050 RMK T10601260 IEM_DS3505
ZBAA,2004-01-23 12:00,ZBAA 231200Z AUTO 34012KT 19SM M06/M26 A3050 RMK SLP333 T10631260 52014 IEM_DS3505
ZBAA,2004-01-23 13:00,ZBAA 231300Z AUTO 31017G27KT 6SM M07/M25 A3053 RMK T10701250 IEM_DS3505
ZBAA,2004-01-23 14:00,ZBAA 231400Z AUTO 32021G31KT 6SM M08/M25 A3053 RMK T10801250 IEM_DS3505
ZBAA,2004-01-23 15:00,ZBAA 231500Z AUTO 34008G25KT 16SM M07/M25 A3053 RMK SLP341 T10721252 52008 IEM_DS3505
ZBAA,2004-01-23 16:00,ZBAA 231600Z AUTO 33016KT 6SM M08/M24 A3053 RMK T10801240 IEM_DS3505
ZBAA,2004-01-23 17:00,ZBAA 231700Z AUTO 33012KT 6SM M08/M24 A3053 RMK T10801240 IEM_DS3505
ZBAA,2004-01-23 18:00,ZBAA 231800Z AUTO 36012KT 16SM M08/M25 A3053 RMK SLP333 T10751249 57008 IEM_DS3505
ZBAA,2004-01-23 19:00,ZBAA 231900Z AUTO 32012KT 6SM M09/M24 A3053 RMK T10901240 IEM_DS3505
ZBAA,2004-01-23 20:00,ZBAA 232000Z AUTO 31014KT 6SM M09/M24 A3053 RMK T10901240 IEM_DS3505
ZBAA,2004-01-23 21:00,ZBAA 232100Z AUTO 36010KT 19SM M08/M25 A3050 RMK SLP332 T10771246 57001 IEM_DS3505
ZBAA,2004-01-23 22:00,ZBAA 232200Z AUTO 31014KT 6SM M08/M24 A3053 RMK T10801240 IEM_DS3505
ZBAA,2004-01-23 23:00,ZBAA 232300Z AUTO 31016G25KT 6SM M08/M24 A3053 RMK T10801240 IEM_DS3505
ZBAA,2004-01-24 00:00,ZBAA 240000Z AUTO 36004KT 19SM M08/M25 A3053 RMK SLP341 T10791248 52009 IEM_DS3505
ZBAA,2004-01-24 01:00,ZBAA 240100Z AUTO 31017G27KT 6SM M08/M24 A3053 RMK T10801240 IEM_DS3505
ZBAA,2004-01-24 02:00,ZBAA 240200Z AUTO 31019KT 6SM M06/M24 A3053 RMK T10601240 IEM_DS3505
ZBAA,2004-01-24 03:00,ZBAA 240300Z AUTO 34012G31KT 19SM M05/M26 A3053 RMK SLP339 T10501255 57002 IEM_DS3505
ZBAA,2004-01-24 04:00,ZBAA 240400Z AUTO 30017G27KT 6SM M04/M24 A3050 RMK T10401240 IEM_DS3505
ZBAA,2004-01-24 05:00,ZBAA 240500Z AUTO 30017G27KT 6SM M03/M25 A3047 RMK T10301250 IEM_DS3505
ZBAA,2004-01-24 06:00,ZBAA 240600Z AUTO 36012KT 19SM M03/M27 A3045 RMK SLP311 T10271271 57028 IEM_DS3505
ZBAA,2004-01-24 07:00,ZBAA 240700Z AUTO 30014KT 6SM M02/M24 A3042 RMK T10201240 IEM_DS3505
ZBAA,2004-01-24 08:00,ZBAA 240800Z AUTO 30014KT 6SM M02/M25 A3042 RMK T10201250 IEM_DS3505
ZBAA,2004-01-24 09:00,ZBAA 240900Z AUTO 34008G23KT 19SM M03/M26 A3042 RMK SLP308 T10261255 57003 IEM_DS3505
ZBAA,2004-01-24 10:00,ZBAA 241000Z AUTO 33016G25KT 6SM M04/M24 A3042 RMK T10401240 IEM_DS3505
ZBAA,2004-01-24 11:00,ZBAA 241100Z AUTO 33010KT 6SM M05/M23 A3045 RMK T10501230 IEM_DS3505
ZBAA,2004-01-24 12:00,ZBAA 241200Z AUTO 07004KT 12SM M05/M24 A3045 RMK SLP310 T10521240 52002 IEM_DS3505
ZBAA,2004-01-24 13:00,ZBAA 241300Z AUTO 34016G25KT 6SM M05/M22 A3045 RMK T10501220 IEM_DS3505
ZBAA,2004-01-24 14:00,ZBAA 241400Z AUTO 34012KT 6SM M05/M22 A3045 RMK T10501220 IEM_DS3505
ZBAA,2004-01-24 15:00,ZBAA 241500Z AUTO 04002KT 12SM M07/M23 A3045 RMK SLP311 T10661228 52001 IEM_DS3505
ZBAA,2004-01-24 16:00,ZBAA 241600Z AUTO 01008KT 6SM M07/M21 A3045 RMK T10701210 IEM_DS3505
ZBAA,2004-01-24 17:00,ZBAA 241700Z AUTO 03002KT 6SM M09/M23 A3045 RMK T10901230 IEM_DS3505
ZBAA,2004-01-24 18:00,ZBAA 241800Z AUTO 02002KT 16SM M08/M22 A3045 RMK SLP311 T10831216 54000 IEM_DS3505
ZBAA,2004-01-24 19:00,ZBAA 241900Z AUTO 01008KT 6SM M10/M22 A3045 RMK T11001220 IEM_DS3505
ZBAA,2004-01-24 20:00,ZBAA 242000Z AUTO 35008KT 6SM M12/M23 A3045 RMK T11201230 IEM_DS3505
ZBAA,2004-01-24 21:00,ZBAA 242100Z AUTO 04002KT 12SM M10/M23 A3045 RMK SLP307 T11031227 57004 IEM_DS3505
ZBAA,2004-01-24 22:00,ZBAA 242200Z AUTO 02002KT 6SM M11/M23 A3045 RMK T11101230 IEM_DS3505
ZBAA,2004-01-24 23:00,ZBAA 242300Z AUTO 03004KT 6SM M10/M22 A3045 RMK T11001220 IEM_DS3505
ZBAA,2004-01-25 00:00,ZBAA 250000Z AUTO 36002KT 9SM M11/M22 A3045 RMK SLP316 T11061224 52009 IEM_DS3505
ZBAA,2004-01-25 01:00,ZBAA 250100Z AUTO 01008KT 6SM M08/M22 A3047 RMK T10801220 IEM_DS3505
ZBAA,2004-01-25 02:00,ZBAA 250200Z AUTO 01006KT 6SM M06/M22 A3047 RMK T10601220 IEM_DS3505
ZBAA,2004-01-25 03:00,ZBAA 250300Z AUTO 22004KT 12SM M03/M21 A3047 RMK SLP321 T10331214 52005 IEM_DS3505
ZBAA,2004-01-25 04:00,ZBAA 250400Z AUTO 6SM M02/M21 A3045 RMK T10201210 IEM_DS3505
ZBAA,2004-01-25 05:00,ZBAA 250500Z AUTO 26004KT 6SM M01/M20 A3042 RMK T10101200 IEM_DS3505
ZBAA,2004-01-25 06:00,ZBAA 250600Z AUTO 20004KT 19SM M00/M22 A3036 RMK SLP283 T10041217 57037 IEM_DS3505
ZBAA,2004-01-25 07:00,ZBAA 250700Z AUTO 19006KT 6SM 00/M20 A3036 RMK T00001200 IEM_DS3505
ZBAA,2004-01-25 08:00,ZBAA 250800Z AUTO 19008KT 6SM 00/M20 A3036 RMK T00001200 IEM_DS3505
ZBAA,2004-01-25 09:00,ZBAA 250900Z AUTO 20004KT 12SM M01/M21 A3036 RMK SLP278 T10061212 57006 IEM_DS3505
ZBAA,2004-01-25 11:00,ZBAA 251100Z AUTO 12002KT 6SM M04/M19 A3036 RMK T10401190 IEM_DS3505
ZBAA,2004-01-25 12:00,ZBAA 251200Z AUTO 25002KT 7SM M05/M20 A3036 RMK SLP281 T10461198 52003 IEM_DS3505
ZBAA,2004-01-25 13:00,ZBAA 251300Z AUTO 00000KT 6SM M07/M19 A3036 RMK T10701190 IEM_DS3505
ZBAA,2004-01-25 14:00,ZBAA 251400Z AUTO 02002KT 6SM M07/M19 A3036 RMK T10701190 IEM_DS3505
ZBAA,2004-01-25 15:00,ZBAA 251500Z AUTO 14002KT 6SM M07/M19 A3036 RMK SLP274 T10731194 57007 IEM_DS3505
ZBAA,2004-01-25 16:00,ZBAA 251600Z AUTO 01004KT 5SM M11/M20 A3036 RMK T11101200 IEM_DS3505
ZBAA,2004-01-25 17:00,ZBAA 251700Z AUTO 36004KT 5SM M11/M19 A3033 RMK T11101190 IEM_DS3505
ZBAA,2004-01-25 18:00,ZBAA 251800Z AUTO 11004KT 5SM M09/M19 A3033 RMK SLP268 T10871189 57005 IEM_DS3505
ZBAA,2004-01-25 19:00,ZBAA 251900Z AUTO 34004KT 5SM M12/M19 A3033 RMK T11201190 IEM_DS3505
ZBAA,2004-01-25 20:00,ZBAA 252000Z AUTO 34004KT 4SM A3033 RMK IEM_DS3505
ZBAA,2004-01-25 21:00,ZBAA 252100Z AUTO 04004KT 7SM M08/M20 A3030 RMK SLP262 T10841195 57006 IEM_DS3505
ZBAA,2004-01-25 22:00,ZBAA 252200Z AUTO 34004KT 4SM A3030 RMK IEM_DS3505
ZBAA,2004-01-25 23:00,ZBAA 252300Z AUTO 34006KT 4SM A3033 RMK IEM_DS3505
ZBAA,2004-01-26 00:00,ZBAA 260000Z AUTO 02004KT 9SM M07/M19 A3033 RMK SLP273 T10721190 52010 IEM_DS3505
ZBAA,2004-01-26 01:00,ZBAA 260100Z AUTO 35006KT 6SM M07/M18 A3036 RMK T10701180 IEM_DS3505
ZBAA,2004-01-26 02:00,ZBAA 260200Z AUTO 36004KT 6SM M03/M18 A3036 RMK T10301180 IEM_DS3505
ZBAA,2004-01-26 03:00,ZBAA 260300Z AUTO 36010KT 19SM 01/M18 A3036 RMK SLP278 T00081179 52006 IEM_DS3505
ZBAA,2004-01-26 04:00,ZBAA 260400Z AUTO 03006G16KT 6SM 01/M16 A3033 RMK T00101160 IEM_DS3505
ZBAA,2004-01-26 05:00,ZBAA 260500Z AUTO 32014KT 6SM 03/M18 A3033 RMK T00301180 IEM_DS3505
ZBAA,2004-01-26 06:00,ZBAA 260600Z AUTO 34010KT 19SM 03/M19 A3030 RMK SLP261 T00261186 57017 IEM_DS3505
ZBAA,2004-01-26 07:00,ZBAA 260700Z AUTO 32014KT 6SM 03/M18 A3030 RMK T00301180 IEM_DS3505
ZBAA,2004-01-26 08:00,ZBAA 260800Z AUTO 32016KT 6SM 03/M19 A3033 RMK T00301190 IEM_DS3505
ZBAA,2004-01-26 09:00,ZBAA 260900Z AUTO 34010KT 19SM 02/M20 RMK SLP272 T00201197 52011 IEM_DS3505
ZBAA,2004-01-26 10:00,ZBAA 261000Z AUTO 32017KT 6SM 00/M19 A3036 RMK T00001190 IEM_DS3505
ZBAA,2004-01-26 11:00,ZBAA 261100Z AUTO 32017KT 6SM M01/M19 A3039 RMK T10101190 IEM_DS3505
ZBAA,2004-01-26 12:00,ZBAA 261200Z AUTO 36006KT 19SM M00/M21 A3042 RMK SLP297 T10051206 52025 IEM_DS3505
ZBAA,2004-01-26 13:00,ZBAA 261300Z AUTO 31014KT 6SM M02/M20 A3042 RMK T10201200 IEM_DS3505
ZBAA,2004-01-26 14:00,ZBAA 261400Z AUTO 32014KT 6SM M03/M19 A3045 RMK T10301190 IEM_DS3505
ZBAA,2004-01-26 15:00,ZBAA 261500Z AUTO 36006KT 19SM M02/M21 RMK SLP306 T10201213 52009 IEM_DS3505
ZBAA,2004-01-26 16:00,ZBAA 261600Z AUTO 32010KT 6SM M04/M20 A3045 RMK T10401200 IEM_DS3505
ZBAA,2004-01-26 17:00,ZBAA 261700Z AUTO 32010KT 6SM M04/M19 A3042 RMK T10401190 IEM_DS3505
ZBAA,2004-01-26 18:00,ZBAA 261800Z AUTO 29004KT 19SM M04/M20 A3042 RMK SLP301 T10421199 57005 IEM_DS3505
ZBAA,2004-01-26 19:00,ZBAA 261900Z AUTO 35010KT 6SM M05/M19 A3042 RMK T10501190 IEM_DS3505
ZBAA,2004-01-26 20:00,ZBAA 262000Z AUTO 36006KT 6SM M07/M19 A3039 RMK T10701190 IEM_DS3505
ZBAA,2004-01-26 21:00,ZBAA 262100Z AUTO 09004KT 19SM M07/M20 A3039 RMK SLP289 T10681196 57012 IEM_DS3505
ZBAA,2004-01-26 22:00,ZBAA 262200Z AUTO 00000KT 6SM M09/M20 A3039 RMK T10901200 IEM_DS3505
ZBAA,2004-01-26 23:00,ZBAA 262300Z AUTO 01004KT 6SM M07/M19 A3039 RMK T10701190 IEM_DS3505
ZBAA,2004-01-27 00:00,ZBAA 270000Z AUTO 20002KT 19SM M06/M19 A3039 RMK SLP294 T10651187 52005 IEM_DS3505
ZBAA,2004-01-27 01:00,ZBAA 270100Z AUTO 36004KT 6SM M04/M17 A3039 RMK T10401170 IEM_DS3505
ZBAA,2004-01-27 02:00,ZBAA 270200Z AUTO 36006KT 6SM M01/M18 A3039 RMK T10101180 IEM_DS3505
ZBAA,2004-01-27 03:00,ZBAA 270300Z AUTO 18002KT 12SM 01/M18 A3036 RMK SLP285 T00081179 57009 IEM_DS3505
ZBAA,2004-01-27 04:00,ZBAA 270400Z AUTO 31012KT 6SM 04/M18 A3033 RMK T00401180 IEM_DS3505
ZBAA,2004-01-27 05:00,ZBAA 270500Z AUTO 30008KT 6SM 05/M19 A3030 RMK T00501190 IEM_DS3505
ZBAA,2004-01-27 06:00,ZBAA 270600Z AUTO 25006G17KT 16SM 04/M19 A3024 RMK SLP250 T00401194 57035 IEM_DS3505
ZBAA,2004-01-27 07:00,ZBAA 270700Z AUTO 26006KT 6SM 06/M19 A3024 RMK T00601190 IEM_DS3505
ZBAA,2004-01-27 08:00,ZBAA 270800Z AUTO 22008KT 6SM 05/M18 A3021 RMK T00501180 IEM_DS3505
ZBAA,2004-01-27 09:00,ZBAA 270900Z AUTO 22004KT 16SM 04/M20 A3021 RMK SLP232 T00361205 57018 IEM_DS3505
ZBAA,2004-01-27 10:00,ZBAA 271000Z AUTO 22006KT 6SM 03/M18 A3021 RMK T00301180 IEM_DS3505
ZBAA,2004-01-27 11:00,ZBAA 271100Z AUTO 22006KT 6SM 02/M19 A3018 RMK T00201190 IEM_DS3505
ZBAA,2004-01-27 12:00,ZBAA 271200Z AUTO 22002KT 9SM M02/M19 A3018 RMK SLP225 T10211189 57007 IEM_DS3505
ZBAA,2004-01-27 13:00,ZBAA 271300Z AUTO 00000KT 6SM M03/M17 A3018 RMK T10301170 IEM_DS3505
ZBAA,2004-01-27 14:00,ZBAA 271400Z AUTO 00000KT M04/M17 A3015 RMK T10401170 IEM_DS3505
ZBAA,2004-01-27 15:00,ZBAA 271500Z AUTO 20004KT 7SM M04/M16 A3015 RMK SLP207 T10421163 57018 IEM_DS3505
ZBAA,2004-01-27 16:00,ZBAA 271600Z AUTO 01002KT 2SM M07/M17 A3012 RMK T10701170 IEM_DS3505
ZBAA,2004-01-27 17:00,ZBAA 271700Z AUTO 35004KT 2SM M08/M18 A3012 RMK T10801180 IEM_DS3505
ZBAA,2004-01-27 18:00,ZBAA 271800Z AUTO 22002KT 6SM M05/M18 A3009 RMK SLP193 T10531179 57013 IEM_DS3505
ZBAA,2004-01-27 19:00,ZBAA 271900Z AUTO 36002KT 2SM M08/M17 A3009 RMK T10801170 IEM_DS3505
ZBAA,2004-01-27 20:00,ZBAA 272000Z AUTO 34002KT 3SM M09/M17 A3006 RMK T10901170 IEM_DS3505
ZBAA,2004-01-27 21:00,ZBAA 272100Z AUTO 07002KT 5SM M08/M17 A3006 RMK SLP181 T10781171 57013 IEM_DS3505
ZBAA,2004-01-27 22:00,ZBAA 272200Z AUTO 34004KT 5SM M10/M17 A3006 RMK T11001170 IEM_DS3505
ZBAA,2004-01-27 23:00,ZBAA 272300Z AUTO 34006KT 5SM M11/M18 A3006 RMK T11101180 IEM_DS3505
ZBAA,2004-01-28 00:00,ZBAA 280000Z AUTO 00000KT 5SM M08/M16 A3006 RMK SLP179 T10841156 57002 IEM_DS3505
ZBAA,2004-01-28 01:00,ZBAA 280100Z AUTO 34006KT 6SM M05/M17 A3006 RMK T10501170 IEM_DS3505
ZBAA,2004-01-28 02:00,ZBAA 280200Z AUTO 01004KT 6SM M02/M16 A3006 RMK T10201160 IEM_DS3505
ZBAA,2004-01-28 03:00,ZBAA 280300Z AUTO 04004KT 9SM 02/M18 A3003 RMK SLP178 T00151178 57001 IEM_DS3505
ZBAA,2004-01-28 04:00,ZBAA 280400Z AUTO 29002KT 6SM 04/M17 A3000 RMK T00401170 IEM_DS3505
ZBAA,2004-01-28 05:00,ZBAA 280500Z AUTO 6SM 07/M17 A2997 RMK T00701170 IEM_DS3505
ZBAA,2004-01-28 06:00,ZBAA 280600Z AUTO 22006KT 9SM 07/M19 A2994 RMK SLP142 T00701194 57035 IEM_DS3505
ZBAA,2004-01-28 07:00,ZBAA 280700Z AUTO 26008KT 6SM 09/M18 A2991 RMK T00901180 IEM_DS3505
ZBAA,2004-01-28 08:00,ZBAA 280800Z AUTO 24006KT 6SM 09/M17 A2991 RMK T00901170 IEM_DS3505
ZBAA,2004-01-28 09:00,ZBAA 280900Z AUTO 25006KT 9SM 05/M18 A2994 RMK SLP141 T00511185 57001 IEM_DS3505
ZBAA,2004-01-28 10:00,ZBAA 281000Z AUTO 22006KT 6SM 05/M16 A2994 RMK T00501160 IEM_DS3505
ZBAA,2004-01-28 11:00,ZBAA 281100Z AUTO 22006KT 5SM 03/M17 A2994 RMK T00301170 IEM_DS3505
ZBAA,2004-01-28 12:00,ZBAA 281200Z AUTO 20002KT 7SM M01/M18 A2997 RMK SLP153 T10061176 52011 IEM_DS3505
ZBAA,2004-01-28 13:00,ZBAA 281300Z AUTO 23004KT 02/M16 A2997 RMK T00201160 IEM_DS3505
ZBAA,2004-01-28 14:00,ZBAA 281400Z AUTO 00000KT M03/M18 A2997 RMK T10301180 IEM_DS3505
ZBAA,2004-01-28 15:00,ZBAA 281500Z AUTO 22002KT 7SM M03/M15 A3000 RMK SLP160 T10321151 52008 IEM_DS3505
ZBAA,2004-01-28 16:00,ZBAA 281600Z AUTO 35004KT 2 1/2SM M05/M17 A3000 RMK T10501170 IEM_DS3505
ZBAA,2004-01-28 17:00,ZBAA 281700Z AUTO 00000KT 2 1/2SM M04/M16 A3000 RMK T10401160 IEM_DS3505
ZBAA,2004-01-28 18:00,ZBAA 281800Z AUTO 27002KT 5SM M05/M14 A3000 RMK SLP164 T10481143 52004 IEM_DS3505
ZBAA,2004-01-28 19:00,ZBAA 281900Z AUTO 34004KT 5SM M06/M17 A3003 RMK T10601170 IEM_DS3505
ZBAA,2004-01-28 20:00,ZBAA 282000Z AUTO 33006KT 6SM M05/M17 A3003 RMK T10501170 IEM_DS3505
ZBAA,2004-01-28 21:00,ZBAA 282100Z AUTO 27002KT 5SM M05/M15 A3003 RMK SLP168 T10521149 52004 IEM_DS3505
ZBAA,2004-01-28 22:00,ZBAA 282200Z AUTO 34006KT 6SM M05/M16 A3003 RMK T10501160 IEM_DS3505
ZBAA,2004-01-28 23:00,ZBAA 282300Z AUTO 35004KT 6SM M05/M17 A3006 RMK T10501170 IEM_DS3505
ZBAA,2004-01-29 00:00,ZBAA 290000Z AUTO 09004KT 9SM M04/M17 A3009 RMK SLP187 T10351170 52018 IEM_DS3505
ZBAA,2004-01-29 01:00,ZBAA 290100Z AUTO 11004KT 6SM M03/M15 A3012 RMK T10301150 IEM_DS3505
ZBAA,2004-01-29 02:00,ZBAA 290200Z AUTO 14004KT 3SM M01/M14 A3012 RMK T10101140 IEM_DS3505
ZBAA,2004-01-29 03:00,ZBAA 290300Z AUTO 11006KT 6SM 02/M13 A3015 RMK SLP208 T00211128 52021 IEM_DS3505
ZBAA,2004-01-29 04:00,ZBAA 290400Z AUTO 20004KT 2 1/2SM 03/M12 A3012 RMK T00301120 IEM_DS3505
ZBAA,2004-01-29 05:00,ZBAA 290500Z AUTO 19004KT 3SM 04/M12 A3012 RMK T00401120 IEM_DS3505
ZBAA,2004-01-29 06:00,ZBAA 290600Z AUTO 14004KT 9SM 05/M15 A3009 RMK SLP192 T00461147 57015 IEM_DS3505
ZBAA,2004-01-29 07:00,ZBAA 290700Z AUTO 14006KT 05/M13 A3009 RMK T00501130 IEM_DS3505
ZBAA,2004-01-29 08:00,ZBAA 290800Z AUTO 18004KT 04/M12 A3009 RMK T00401120 IEM_DS3505
ZBAA,2004-01-29 09:00,ZBAA 290900Z AUTO 22004KT 9SM 04/M13 A3012 RMK SLP200 T00361127 52007 IEM_DS3505
ZBAA,2004-01-29 10:00,ZBAA 291000Z AUTO 14002KT 3SM 02/M13 A3012 RMK T00201130 IEM_DS3505
ZBAA,2004-01-29 11:00,ZBAA 291100Z AUTO 14002KT 3SM 01/M12 A3015 RMK T00101120 IEM_DS3505
ZBAA,2004-01-29 12:00,ZBAA 291200Z AUTO 16004KT 6SM 01/M10 A3018 RMK SLP224 T00081103 52024 IEM_DS3505
ZBAA,2004-01-29 13:00,ZBAA 291300Z AUTO 19006KT 01/M09 A3021 RMK T00101090 IEM_DS3505
ZBAA,2004-01-29 13:30,ZBAA 291330Z AUTO 18008KT 00/M09 A3021 RMK T00001090 IEM_DS3505
ZBAA,2004-01-29 14:00,ZBAA 291400Z AUTO 17006KT 4SM A3021 RMK IEM_DS3505
ZBAA,2004-01-29 15:00,ZBAA 291500Z AUTO 22002KT 6SM M01/M10 A3024 RMK SLP238 T10121102 52015 IEM_DS3505
ZBAA,2004-01-29 16:00,ZBAA 291600Z AUTO 17006KT 4SM A3024 RMK IEM_DS3505
ZBAA,2004-01-29 18:00,ZBAA 291800Z AUTO 22002KT 7SM M02/M12 A3024 RMK SLP244 T10201115 52006 IEM_DS3505
ZBAA,2004-01-29 19:00,ZBAA 291900Z AUTO 14002KT 6SM M03/M10 A3027 RMK T10301100 IEM_DS3505
ZBAA,2004-01-29 20:00,ZBAA 292000Z AUTO 18004KT 6SM M04/M10 A3024 RMK T10401100 IEM_DS3505
ZBAA,2004-01-29 21:00,ZBAA 292100Z AUTO 16004KT 9SM M03/M10 A3024 RMK SLP247 T10331095 52002 IEM_DS3505
ZBAA,2004-01-29 22:00,ZBAA 292200Z AUTO 21006KT 6SM M04/M10 A3024 RMK T10401100 IEM_DS3505
ZBAA,2004-01-29 23:00,ZBAA 292300Z AUTO 24004KT 6SM M04/M10 A3027 RMK T10401100 IEM_DS3505
ZBAA,2004-01-30 00:00,ZBAA 300000Z AUTO 00000KT 6SM M06/M11 A3027 RMK SLP253 T10571114 52006 IEM_DS3505
ZBAA,2004-01-30 01:00,ZBAA 300100Z AUTO 14002KT 5SM M04/M09 A3027 RMK T10401090 IEM_DS3505
ZBAA,2004-01-30 02:00,ZBAA 300200Z AUTO 12004KT M01/M09 A3030 RMK T10101090 IEM_DS3505
ZBAA,2004-01-30 03:00,ZBAA 300300Z AUTO 11004KT 6SM M02/M09 A3030 RMK SLP260 T10151091 52007 IEM_DS3505
ZBAA,2004-01-30 04:00,ZBAA 300400Z AUTO 17006KT 5SM 00/M08 A3030 RMK T00001080 IEM_DS3505
ZBAA,2004-01-30 05:00,ZBAA 300500Z AUTO 5SM 01/M07 A3027 RMK T00101070 IEM_DS3505
ZBAA,2004-01-30 06:00,ZBAA 300600Z AUTO 22002KT 7SM M01/M06 A3024 RMK SLP237 T10071060 57023 IEM_DS3505
ZBAA,2004-01-30 07:00,ZBAA 300700Z AUTO 19006KT 5SM 02/M06 A3021 RMK T00201060 IEM_DS3505
ZBAA,2004-01-30 08:00,ZBAA 300800Z AUTO 22006KT 5SM 01/M06 A3021 RMK T00101060 IEM_DS3505
ZBAA,2004-01-30 09:00,ZBAA 300900Z AUTO 22004KT 6SM M01/M07 A3021 RMK SLP234 T10071066 57003 IEM_DS3505
ZBAA,2004-01-30 10:00,ZBAA 301000Z AUTO 4SM M01/M05 A3024 RMK T10101050 IEM_DS3505
ZBAA,2004-01-30 11:00,ZBAA 301100Z AUTO 24002KT 4SM M01/M05 A3024 RMK T10101050 IEM_DS3505
ZBAA,2004-01-30 12:00,ZBAA 301200Z AUTO 00000KT 5SM M03/M07 A3024 RMK SLP244 T10321068 52010 IEM_DS3505
ZBAA,2004-01-30 13:00,ZBAA 301300Z AUTO 18002KT 3SM M04/M06 A3027 RMK T10401060 IEM_DS3505
ZBAA,2004-01-30 14:00,ZBAA 301400Z AUTO 16002KT 2 1/2SM M04/M06 A3027 RMK T10401060 IEM_DS3505
ZBAA,2004-01-30 15:00,ZBAA 301500Z AUTO 27002KT 4SM M04/M07 A3027 RMK SLP249 T10371070 52005 IEM_DS3505
ZBAA,2004-01-30 16:00,ZBAA 301600Z AUTO 00000KT 2SM A3024 RMK IEM_DS3505
ZBAA,2004-01-30 17:00,ZBAA 301700Z AUTO 06002KT 2SM A3024 RMK IEM_DS3505
ZBAA,2004-01-30 18:00,ZBAA 301800Z AUTO 25002KT 4SM M04/M07 A3024 RMK SLP246 T10371070 57003 IEM_DS3505
ZBAA,2004-01-30 19:00,ZBAA 301900Z AUTO 15002KT 1 1/2SM A3024 RMK IEM_DS3505
ZBAA,2004-01-30 20:00,ZBAA 302000Z AUTO 08002KT 1 1/2SM RMK IEM_DS3505
ZBAA,2004-01-30 21:00,ZBAA 302100Z AUTO 11002KT 2 1/2SM M05/M08 A3021 RMK SLP231 T10461075 57015 IEM_DS3505
ZBAA,2004-01-30 22:00,ZBAA 302200Z AUTO 34002KT RMK IEM_DS3505
ZBAA,2004-01-30 23:00,ZBAA 302300Z AUTO 00000KT 1 1/2SM A3021 RMK IEM_DS3505
ZBAA,2004-01-31 00:00,ZBAA 310000Z AUTO 00000KT 2 1/2SM M05/M07 A3021 RMK SLP236 T10481074 52005 IEM_DS3505
ZBAA,2004-01-31 01:00,ZBAA 310100Z AUTO 00000KT 1 1/4SM A3024 RMK IEM_DS3505
ZBAA,2004-01-31 02:00,ZBAA 310200Z AUTO 01002KT 2SM A3024 RMK IEM_DS3505
ZBAA,2004-01-31 03:00,ZBAA 310300Z AUTO 36002KT 3SM M00/M06 A3024 RMK SLP234 T10031055 57002 IEM_DS3505
ZBAA,2004-01-31 04:00,ZBAA 310400Z AUTO 31002KT 2 1/2SM 01/M06 A3021 RMK T00101060 IEM_DS3505
ZBAA,2004-01-31 05:00,ZBAA 310500Z AUTO 07002KT 2 1/2SM 01/M06 A3015 RMK T00101060 IEM_DS3505
ZBAA,2004-01-31 06:00,ZBAA 310600Z AUTO 09004KT 5SM 01/M06 A3012 RMK SLP206 T00141059 57028 IEM_DS3505
ZBAA,2004-01-31 07:00,ZBAA 310700Z AUTO 00000KT 3SM 02/M08 A3012 RMK T00201080 IEM_DS3505
ZBAA,2004-01-31 08:00,ZBAA 310800Z AUTO 14002KT 3SM 02/M07 A3012 RMK T00201070 IEM_DS3505
ZBAA,2004-01-31 09:00,ZBAA 310900Z AUTO 20002KT 5SM 01/M06 A3012 RMK SLP207 T00101063 52001 IEM_DS3505
ZBAA,2004-01-31 10:00,ZBAA 311000Z AUTO 14002KT 2 1/2SM A3015 RMK IEM_DS3505
ZBAA,2004-01-31 11:00,ZBAA 311100Z AUTO 00000KT 2SM A3015 RMK IEM_DS3505
ZBAA,2004-01-31 12:00,ZBAA 311200Z AUTO 25002KT 4SM M01/M06 RMK SLP218 T10071060 52011 IEM_DS3505
ZBAA,2004-01-31 13:00,ZBAA 311300Z AUTO 05002KT 1 1/2SM A3018 RMK IEM_DS3505
ZBAA,2004-01-31 14:00,ZBAA 311400Z AUTO 00000KT 1 1/2SM A3018 RMK IEM_DS3505
ZBAA,2004-01-31 15:00,ZBAA 311500Z AUTO 27002KT 3SM M02/M06 A3018 RMK SLP223 T10151060 52005 IEM_DS3505
ZBAA,2004-01-31 16:00,ZBAA 311600Z AUTO 29004KT 1 1/4SM A3021 RMK IEM_DS3505
ZBAA,2004-01-31 17:00,ZBAA 311700Z AUTO 30008KT 4SM A3021 RMK IEM_DS3505
ZBAA,2004-01-31 18:00,ZBAA 311800Z AUTO 36004KT 16SM 01/M20 A3021 RMK SLP231 T00141196 52009 IEM_DS3505
ZBAA,2004-01-31 19:00,ZBAA 311900Z AUTO 31014KT 6SM 00/M22 A3024 RMK T00001220 IEM_DS3505
ZBAA,2004-01-31 20:00,ZBAA 312000Z AUTO 32014KT 6SM M01/M23 A3021 RMK T10101230 IEM_DS3505
ZBAA,2004-01-31 21:00,ZBAA 312100Z AUTO 36010KT 19SM M00/M24 A3024 RMK SLP233 T10051238 52002 IEM_DS3505
ZBAA,2004-01-31 22:00,ZBAA 312200Z AUTO 36006KT 6SM M04/M22 A3024 RMK T10401220 IEM_DS3505
ZBAA,2004-01-31 23:00,ZBAA 312300Z AUTO 35008KT 6SM M06/M22 A3024 RMK T10601220 IEM_DS3505
ZBAA,2004-02-01 00:00,ZBAA 010000Z AUTO 36010KT 19SM M01/M24 A3027 RMK SLP248 T10091241 52014 IEM_DS3505
ZBAA,2004-02-01 01:00,ZBAA 010100Z AUTO 33010KT 6SM M02/M22 A3027 RMK T10201220 IEM_DS3505
ZBAA,2004-02-01 02:00,ZBAA 010200Z AUTO 31010KT 6SM 00/M22 A3027 RMK T00001220 IEM_DS3505
ZBAA,2004-02-01 03:00,ZBAA 010300Z AUTO 34010G29KT 16SM 00/M24 A3027 RMK SLP255 T00041238 52007 IEM_DS3505
ZBAA,2004-02-01 04:00,ZBAA 010400Z AUTO 30016KT 6SM 01/M22 A3027 RMK T00101220 IEM_DS3505
ZBAA,2004-02-01 05:00,ZBAA 010500Z AUTO 30017G29KT 6SM 01/M22 A3024 RMK T00101220 IEM_DS3505
ZBAA,2004-02-01 06:00,ZBAA 010600Z AUTO 32017KT 16SM 02/M24 A3021 RMK SLP232 T00151238 57022 IEM_DS3505
ZBAA,2004-02-01 07:00,ZBAA 010700Z AUTO 30017G29KT 6SM 01/M21 A3021 RMK T00101210 IEM_DS3505
ZBAA,2004-02-01 08:00,ZBAA 010800Z AUTO 29016KT 6SM 01/M22 A3021 RMK T00101220 IEM_DS3505
ZBAA,2004-02-01 09:00,ZBAA 010900Z AUTO 32008KT 16SM 01/M23 A3024 RMK SLP241 T00091234 52008 IEM_DS3505
ZBAA,2004-02-01 10:00,ZBAA 011000Z AUTO 30014KT 6SM M01/M22 A3024 RMK T10101220 IEM_DS3505
ZBAA,2004-02-01 11:00,ZBAA 011100Z AUTO 31016KT 6SM M01/M21 A3027 RMK T10101210 IEM_DS3505
ZBAA,2004-02-01 12:00,ZBAA 011200Z AUTO 32006KT 19SM M01/M23 A3027 RMK SLP256 T10101228 52015 IEM_DS3505
ZBAA,2004-02-01 13:00,ZBAA 011300Z AUTO 30012KT 6SM M02/M21 A3030 RMK T10201210 IEM_DS3505
ZBAA,2004-02-01 14:00,ZBAA 011400Z AUTO 31016G25KT 6SM M03/M21 A3033 RMK T10301210 IEM_DS3505
ZBAA,2004-02-01 15:00,ZBAA 011500Z AUTO 32014G21KT 19SM M02/M23 A3033 RMK SLP266 T10211231 52010 IEM_DS3505
ZBAA,2004-02-01 16:00,ZBAA 011600Z AUTO 30014KT 6SM M04/M21 A3033 RMK T10401210 IEM_DS3505
ZBAA,2004-02-01 17:00,ZBAA 011700Z AUTO 30010KT 6SM M04/M21 A3033 RMK T10401210 IEM_DS3505
ZBAA,2004-02-01 18:00,ZBAA 011800Z AUTO 34004KT 16SM M04/M23 A3033 RMK SLP271 T10351231 52005 IEM_DS3505
ZBAA,2004-02-01 19:00,ZBAA 011900Z AUTO 33006KT 6SM M07/M22 A3033 RMK T10701220 IEM_DS3505
ZBAA,2004-02-01 20:00,ZBAA 012000Z AUTO 34004KT 6SM M08/M23 A3033 RMK T10801230 IEM_DS3505
ZBAA,2004-02-01 21:00,ZBAA 012100Z AUTO 34006KT 19SM M04/M24 A3033 RMK SLP267 T10441238 57004 IEM_DS3505
ZBAA,2004-02-01 22:00,ZBAA 012200Z AUTO 33006KT 6SM M08/M23 A3033 RMK T10801230 IEM_DS3505
ZBAA,2004-02-01 23:00,ZBAA 012300Z AUTO 31008KT 6SM M06/M22 A3033 RMK T10601220 IEM_DS3505
ZBAA,2004-02-02 00:00,ZBAA 020000Z AUTO 34002KT 19SM M05/M23 A3033 RMK SLP274 T10471230 52007 IEM_DS3505
ZBAA,2004-02-02 01:00,ZBAA 020100Z AUTO 31016KT 6SM M04/M22 A3036 RMK T10401220 IEM_DS3505
ZBAA,2004-02-02 02:00,ZBAA 020200Z AUTO 31017G27KT 6SM M03/M22 A3036 RMK T10301220 IEM_DS3505
ZBAA,2004-02-02 03:00,ZBAA 020300Z AUTO 34014KT 19SM M02/M23 A3033 RMK SLP277 T10171234 52003 IEM_DS3505
ZBAA,2004-02-02 04:00,ZBAA 020400Z AUTO 31016G27KT 6SM M01/M22 A3033 RMK T10101220 IEM_DS3505
ZBAA,2004-02-02 05:00,ZBAA 020500Z AUTO 29016KT 6SM 00/M22 A3027 RMK T00001220 IEM_DS3505
ZBAA,2004-02-02 06:00,ZBAA 020600Z AUTO 34014G25KT 19SM 00/M25 A3024 RMK SLP239 T00011249 57038 IEM_DS3505
ZBAA,2004-02-02 07:00,ZBAA 020700Z AUTO 30016G25KT 6SM 00/M22 A3024 RMK T00001220 IEM_DS3505
ZBAA,2004-02-02 08:00,ZBAA 020800Z AUTO 30014G23KT 6SM 01/M22 A3021 RMK T00101220 IEM_DS3505
ZBAA,2004-02-02 09:00,ZBAA 020900Z AUTO 32016KT 16SM 00/M24 A3021 RMK SLP232 T00021240 57007 IEM_DS3505
ZBAA,2004-02-02 10:00,ZBAA 021000Z AUTO 31012KT 6SM M01/M22 A3021 RMK T10101220 IEM_DS3505
ZBAA,2004-02-02 11:00,ZBAA 021100Z AUTO 35006KT 6SM M05/M23 A3024 RMK T10501230 IEM_DS3505
ZBAA,2004-02-02 12:00,ZBAA 021200Z AUTO 32010KT 19SM M00/M23 A3024 RMK SLP240 T10051231 52008 IEM_DS3505
ZBAA,2004-02-02 13:00,ZBAA 021300Z AUTO 30006KT 6SM M03/M21 A3024 RMK T10301210 IEM_DS3505
ZBAA,2004-02-02 14:00,ZBAA 021400Z AUTO 30006KT 6SM M03/M21 A3024 RMK T10301210 IEM_DS3505
ZBAA,2004-02-02 15:00,ZBAA 021500Z AUTO 32010KT 19SM M02/M24 A3024 RMK SLP248 T10171241 52008 IEM_DS3505
ZBAA,2004-02-02 16:00,ZBAA 021600Z AUTO 29006KT 6SM M04/M21 A3024 RMK T10401210 IEM_DS3505
ZBAA,2004-02-02 17:00,ZBAA 021700Z AUTO 29006KT 6SM M05/M22 A3024 RMK T10501220 IEM_DS3505
ZBAA,2004-02-02 18:00,ZBAA 021800Z AUTO 32004KT 19SM M03/M23 A3021 RMK SLP237 T10321228 57011 IEM_DS3505
ZBAA,2004-02-02 19:00,ZBAA 021900Z AUTO 30004KT 6SM M06/M22 A3021 RMK T10601220 IEM_DS3505
ZBAA,2004-02-02 20:00,ZBAA 022000Z AUTO 27004KT 6SM M05/M22 A3018 RMK T10501220 IEM_DS3505
ZBAA,2004-02-02 21:00,ZBAA 022100Z AUTO 22004KT 12SM M06/M22 A3018 RMK SLP222 T10551223 57015 IEM_DS3505
ZBAA,2004-02-02 22:00,ZBAA 022200Z AUTO 25004KT 6SM M06/M21 A3015 RMK T10601210 IEM_DS3505
ZBAA,2004-02-02 23:00,ZBAA 022300Z AUTO 28004KT 6SM M06/M20 A3015 RMK T10601200 IEM_DS3505
ZBAA,2004-02-03 00:00,ZBAA 030000Z AUTO 22004KT 16SM M05/M21 A3018 RMK SLP221 T10541209 57001 IEM_DS3505
ZBAA,2004-02-03 01:00,ZBAA 030100Z AUTO 32006KT 6SM M02/M20 A3018 RMK T10201200 IEM_DS3505
ZBAA,2004-02-03 02:00,ZBAA 030200Z AUTO 29012KT 6SM M01/M21 A3018 RMK T10101210 IEM_DS3505
ZBAA,2004-02-03 03:00,ZBAA 030300Z AUTO 25004KT 19SM 00/M22 A3015 RMK SLP217 T00031224 57004 IEM_DS3505
ZBAA,2004-02-03 04:00,ZBAA 030400Z AUTO 29016G25KT 6SM 01/M22 A3015 RMK T00101220 IEM_DS3505
ZBAA,2004-02-03 05:00,ZBAA 030500Z AUTO 31019G33KT 6SM 02/M22 A3009 RMK T00201220 IEM_DS3505
ZBAA,2004-02-03 06:00,ZBAA 030600Z AUTO 25006G31KT 19SM 02/M23 A3006 RMK SLP183 T00211233 57033 IEM_DS3505
ZBAA,2004-02-03 07:00,ZBAA 030700Z AUTO 31016G25KT 6SM 03/M22 A3006 RMK T00301220 IEM_DS3505
ZBAA,2004-02-03 08:00,ZBAA 030800Z AUTO 29014G23KT 6SM 03/M21 A3003 RMK T00301210 IEM_DS3505
ZBAA,2004-02-03 09:00,ZBAA 030900Z AUTO 25004KT 12SM 02/M23 A3003 RMK SLP178 T00201234 57006 IEM_DS3505
ZBAA,2004-02-03 10:00,ZBAA 031000Z AUTO 31016KT 6SM 01/M21 A3006 RMK T00101210 IEM_DS3505
ZBAA,2004-02-03 11:00,ZBAA 031100Z AUTO 30010KT 6SM 00/M21 A3006 RMK T00001210 IEM_DS3505
ZBAA,2004-02-03 12:00,ZBAA 031200Z AUTO 22004KT 7SM M02/M21 A3009 RMK SLP188 T10201208 52010 IEM_DS3505
ZBAA,2004-02-03 13:00,ZBAA 031300Z AUTO 30008KT 6SM M01/M21 A3009 RMK T10101210 IEM_DS3505
ZBAA,2004-02-03 14:00,ZBAA 031400Z AUTO 32006KT 6SM M02/M20 A3009 RMK T10201200 IEM_DS3505
ZBAA,2004-02-03 15:00,ZBAA 031500Z AUTO 34004KT 6SM M03/M19 A3012 RMK SLP196 T10291188 52008 IEM_DS3505
ZBAA,2004-02-03 17:00,ZBAA 031700Z AUTO 30016G29KT 6SM M01/M20 A3012 RMK T10101200 IEM_DS3505
ZBAA,2004-02-03 18:00,ZBAA 031800Z AUTO 29016G29KT 16SM M00/M21 A3012 RMK SLP200 T10051212 52005 IEM_DS3505
ZBAA,2004-02-03 19:00,ZBAA 031900Z AUTO 28016KT 6SM M03/M23 A3015 RMK T10301230 IEM_DS3505
ZBAA,2004-02-03 20:00,ZBAA 032000Z AUTO 30012KT 6SM M04/M22 A3015 RMK T10401220 IEM_DS3505
ZBAA,2004-02-03 20:30,ZBAA 032030Z AUTO 30012KT 6SM M04/M22 A3015 RMK T10401220 IEM_DS3505
ZBAA,2004-02-03 21:00,ZBAA 032100Z AUTO 32016KT 19SM M04/M24 A3015 RMK SLP208 T10371244 52007 IEM_DS3505
ZBAA,2004-02-03 21:30,ZBAA 032130Z AUTO 31006KT 6SM M06/M22 A3015 RMK T10601220 IEM_DS3505
ZBAA,2004-02-03 22:00,ZBAA 032200Z AUTO 33008KT 6SM M07/M22 A3015 RMK T10701220 IEM_DS3505
ZBAA,2004-02-03 23:00,ZBAA 032300Z AUTO 33014KT 6SM M07/M23 A3018 RMK T10701230 IEM_DS3505
ZBAA,2004-02-04 00:00,ZBAA 040000Z AUTO 34006KT 19SM M05/M24 A3021 RMK SLP235 T10531235 52027 IEM_DS3505
ZBAA,2004-02-04 01:00,ZBAA 040100Z AUTO 34010KT 6SM M05/M24 A3024 RMK T10501240 IEM_DS3505
ZBAA,2004-02-04 02:00,ZBAA 040200Z AUTO 32019KT 6SM M04/M23 A3024 RMK T10401230 IEM_DS3505
ZBAA,2004-02-04 03:00,ZBAA 040300Z AUTO 34010KT 19SM M02/M25 A3024 RMK SLP243 T10231253 52008 IEM_DS3505
ZBAA,2004-02-04 04:00,ZBAA 040400Z AUTO 32010KT 6SM M01/M23 A3024 RMK T10101230 IEM_DS3505
ZBAA,2004-02-04 05:00,ZBAA 040500Z AUTO 36006KT 6SM M01/M23 A3021 RMK T10101230 IEM_DS3505
ZBAA,2004-02-04 06:00,ZBAA 040600Z AUTO 32014KT 19SM 00/M26 A3015 RMK SLP216 T00021257 57026 IEM_DS3505
ZBAA,2004-02-04 07:00,ZBAA 040700Z AUTO 31014KT 6SM 00/M24 A3015 RMK T00001240 IEM_DS3505
ZBAA,2004-02-04 08:00,ZBAA 040800Z AUTO 33012G21KT 6SM 01/M26 A3015 RMK T00101260 IEM_DS3505
ZBAA,2004-02-04 09:00,ZBAA 040900Z AUTO 32012KT 19SM M00/M24 A3018 RMK SLP224 T10051238 52007 IEM_DS3505
ZBAA,2004-02-04 10:00,ZBAA 041000Z AUTO 31012G21KT 6SM M02/M24 A3021 RMK T10201240 IEM_DS3505
ZBAA,2004-02-04 11:00,ZBAA 041100Z AUTO 31017G27KT 6SM M02/M26 A3024 RMK T10201260 IEM_DS3505
ZBAA,2004-02-04 12:00,ZBAA 041200Z AUTO 32017KT 12SM M02/M29 A3027 RMK SLP259 T10231286 52035 IEM_DS3505
ZBAA,2004-02-04 13:00,ZBAA 041300Z AUTO 33017G27KT 6SM M04/M25 A3030 RMK T10401250 IEM_DS3505
ZBAA,2004-02-04 14:00,ZBAA 041400Z AUTO 36010KT 6SM M06/M26 A3036 RMK T10601260 IEM_DS3505
ZBAA,2004-02-04 15:00,ZBAA 041500Z AUTO 32012KT 19SM M04/M28 A3036 RMK SLP278 T10381280 52019 IEM_DS3505
ZBAA,2004-02-04 16:00,ZBAA 041600Z AUTO 35006KT 6SM M08/M26 A3033 RMK T10801260 IEM_DS3505
ZBAA,2004-02-04 17:00,ZBAA 041700Z AUTO 31004KT 6SM M08/M27 A3033 RMK T10801270 IEM_DS3505
ZBAA,2004-02-04 18:00,ZBAA 041800Z AUTO 32004KT 19SM M04/M25 A3033 RMK SLP273 T10431249 40006//// 57005 IEM_DS3505
ZBAA,2004-02-04 19:00,ZBAA 041900Z AUTO 29008KT 6SM M06/M23 A3033 RMK T10601230 IEM_DS3505
ZBAA,2004-02-04 20:00,ZBAA 042000Z AUTO 28006KT 6SM M07/M22 A3033 RMK T10701220 IEM_DS3505
ZBAA,2004-02-04 21:00,ZBAA 042100Z AUTO 32008KT 19SM M05/M26 A3033 RMK SLP272 T10471259 57001 IEM_DS3505
ZBAA,2004-02-04 22:00,ZBAA 042200Z AUTO 30008G17KT 6SM M07/M23 A3033 RMK T10701230 IEM_DS3505
ZBAA,2004-02-04 23:00,ZBAA 042300Z AUTO 30006KT 6SM M07/M23 A3033 RMK T10701230 IEM_DS3505
ZBAA,2004-02-05 00:00,ZBAA 050000Z AUTO 32006KT 19SM M04/M26 A3036 RMK SLP281 T10431255 52009 IEM_DS3505
ZBAA,2004-02-05 01:00,ZBAA 050100Z AUTO 6SM M04/M23 A3036 RMK T10401230 IEM_DS3505
ZBAA,2004-02-05 02:00,ZBAA 050200Z AUTO 33006KT 6SM M03/M23 A3036 RMK T10301230 IEM_DS3505
ZBAA,2004-02-05 03:00,ZBAA 050300Z AUTO 29010G23KT 19SM M01/M25 A3036 RMK SLP280 T10111251 57001 IEM_DS3505
ZBAA,2004-02-05 04:00,ZBAA 050400Z AUTO 28014KT 6SM M01/M23 A3033 RMK T10101230 IEM_DS3505
ZBAA,2004-02-05 05:00,ZBAA 050500Z AUTO 28016KT 6SM 00/M23 A3033 RMK T00001230 IEM_DS3505
ZBAA,2004-02-05 06:00,ZBAA 050600Z AUTO 29014KT 19SM 01/M24 A3027 RMK SLP259 T00071244 57021 IEM_DS3505
ZBAA,2004-02-05 07:00,ZBAA 050700Z AUTO 30017G31KT 6SM 01/M22 A3027 RMK T00101220 IEM_DS3505
ZBAA,2004-02-05 08:00,ZBAA 050800Z AUTO 32012KT 6SM 01/M21 A3027 RMK T00101210 IEM_DS3505
ZBAA,2004-02-05 09:00,ZBAA 050900Z AUTO 29006KT 19SM 01/M25 A3027 RMK SLP250 T00121249 57009 IEM_DS3505
ZBAA,2004-02-05 10:00,ZBAA 051000Z AUTO 28010KT 6SM 00/M19 A3027 RMK T00001190 IEM_DS3505
ZBAA,2004-02-05 11:00,ZBAA 051100Z AUTO 26008KT 6SM M01/M17 A3027 RMK T10101170 IEM_DS3505
ZBAA,2004-02-05 12:00,ZBAA 051200Z AUTO 27004KT 16SM M01/M22 A3030 RMK SLP263 T10101222 52013 IEM_DS3505
ZBAA,2004-02-05 13:00,ZBAA 051300Z AUTO 29006KT 6SM M02/M18 A3033 RMK T10201180 IEM_DS3505
ZBAA,2004-02-05 14:00,ZBAA 051400Z AUTO 29006KT 6SM M03/M22 A3033 RMK T10301220 IEM_DS3505
ZBAA,2004-02-05 15:00,ZBAA 051500Z AUTO 20004KT 9SM M03/M23 A3030 RMK SLP262 T10291226 57001 IEM_DS3505
ZBAA,2004-02-05 16:00,ZBAA 051600Z AUTO 27004KT 6SM M03/M21 A3030 RMK T10301210 IEM_DS3505
ZBAA,2004-02-05 17:00,ZBAA 051700Z AUTO 27006KT 6SM M02/M19 A3027 RMK T10201190 IEM_DS3505
ZBAA,2004-02-05 18:00,ZBAA 051800Z AUTO 29006G23KT 19SM M01/M19 A3027 RMK SLP259 T10141188 57003 IEM_DS3505
ZBAA,2004-02-05 19:00,ZBAA 051900Z AUTO 28014KT 6SM M02/M18 A3027 RMK T10201180 IEM_DS3505
ZBAA,2004-02-05 20:00,ZBAA 052000Z AUTO 28019G31KT 6SM M02/M21 A3027 RMK T10201210 IEM_DS3505
ZBAA,2004-02-05 21:00,ZBAA 052100Z AUTO 32019KT 19SM M03/M25 A3030 RMK SLP265 T10261248 52006 IEM_DS3505
ZBAA,2004-02-05 22:00,ZBAA 052200Z AUTO 34014KT 6SM M04/M24 A3033 RMK T10401240 IEM_DS3505
ZBAA,2004-02-06 00:00,ZBAA 060000Z AUTO 34006KT 19SM M04/M23 A3036 RMK SLP278 T10371227 52013 IEM_DS3505
ZBAA,2004-02-06 01:00,ZBAA 060100Z AUTO 35008KT 6SM M04/M23 A3036 RMK T10401230 IEM_DS3505
ZBAA,2004-02-06 02:00,ZBAA 060200Z AUTO 32008KT 6SM M02/M22 A3039 RMK T10201220 IEM_DS3505
ZBAA,2004-02-06 03:00,ZBAA 060300Z AUTO 34014G23KT 12SM M02/M24 A3039 RMK SLP293 T10181235 52015 IEM_DS3505
ZBAA,2004-02-06 04:00,ZBAA 060400Z AUTO 32019G31KT 6SM M01/M22 A3039 RMK T10101220 IEM_DS3505
ZBAA,2004-02-06 05:00,ZBAA 060500Z AUTO 32019KT 6SM 00/M24 A3036 RMK T00001240 IEM_DS3505
ZBAA,2004-02-06 06:00,ZBAA 060600Z AUTO 32016G27KT 19SM 00/M24 A3036 RMK SLP281 T00001242 57012 IEM_DS3505
ZBAA,2004-02-06 07:00,ZBAA 060700Z AUTO 33016KT 6SM 01/M24 A3036 RMK T00101240 IEM_DS3505
ZBAA,2004-02-06 07:30,ZBAA 060730Z AUTO 35012KT 6SM 01/M24 A3036 RMK T00101240 IEM_DS3505
ZBAA,2004-02-06 08:00,ZBAA 060800Z AUTO 34012KT 6SM 01/M23 A3036 RMK T00101230 IEM_DS3505
ZBAA,2004-02-06 09:00,ZBAA 060900Z AUTO 32008KT 19SM 01/M23 A3036 RMK SLP279 T00091227 57002 IEM_DS3505
ZBAA,2004-02-06 10:00,ZBAA 061000Z AUTO 36008KT 6SM M03/M23 A3036 RMK T10301230 IEM_DS3505
ZBAA,2004-02-06 11:00,ZBAA 061100Z AUTO 01004KT 6SM M04/M21 A3039 RMK T10401210 IEM_DS3505
ZBAA,2004-02-06 12:00,ZBAA 061200Z AUTO 14002KT 16SM M03/M22 A3039 RMK SLP291 T10281225 52012 IEM_DS3505
ZBAA,2004-02-06 13:00,ZBAA 061300Z AUTO 33002KT 6SM M04/M20 A3039 RMK T10401200 IEM_DS3505
ZBAA,2004-02-06 14:00,ZBAA 061400Z AUTO 00000KT 6SM M04/M20 A3042 RMK T10401200 IEM_DS3505
ZBAA,2004-02-06 15:00,ZBAA 061500Z AUTO 02002KT 7SM M05/M21 A3042 RMK SLP300 T10481208 52009 IEM_DS3505
ZBAA,2004-02-06 16:00,ZBAA 061600Z AUTO 15002KT 6SM M07/M20 A3042 RMK T10701200 IEM_DS3505
ZBAA,2004-02-06 17:00,ZBAA 061700Z AUTO 16004KT 5SM M08/M19 A3042 RMK T10801190 IEM_DS3505
ZBAA,2004-02-06 18:00,ZBAA 061800Z AUTO 22002KT 6SM M07/M20 A3042 RMK SLP297 T10671205 57003 IEM_DS3505
ZBAA,2004-02-06 19:00,ZBAA 061900Z AUTO 01002KT M09/M19 A3039 RMK T10901190 IEM_DS3505
ZBAA,2004-02-06 20:00,ZBAA 062000Z AUTO 31002KT M10/M19 A3039 RMK T11001190 IEM_DS3505
ZBAA,2004-02-06 21:00,ZBAA 062100Z AUTO 22004KT 6SM M05/M19 A3039 RMK SLP287 T10471191 57010 IEM_DS3505
ZBAA,2004-02-06 22:00,ZBAA 062200Z AUTO 35002KT 4SM M11/M20 A3039 RMK T11101200 IEM_DS3505
ZBAA,2004-02-06 23:00,ZBAA 062300Z AUTO 06002KT M12/M20 A3036 RMK T11201200 IEM_DS3505
ZBAA,2004-02-07 00:00,ZBAA 070000Z AUTO 25004KT 6SM M06/M14 A3036 RMK SLP281 T10581143 57006 IEM_DS3505
ZBAA,2004-02-07 01:00,ZBAA 070100Z AUTO 03004KT M07/M18 A3036 RMK T10701180 IEM_DS3505
ZBAA,2004-02-07 02:00,ZBAA 070200Z AUTO M02/M15 A3036 RMK T10201150 IEM_DS3505
ZBAA,2004-02-07 03:00,ZBAA 070300Z AUTO 20004KT 7SM 04/M15 A3030 RMK SLP269 T00361150 57012 IEM_DS3505
ZBAA,2004-02-07 04:00,ZBAA 070400Z AUTO 28019G33KT 6SM 06/M19 A3027 RMK T00601190 IEM_DS3505
ZBAA,2004-02-07 05:00,ZBAA 070500Z AUTO 27017G29KT 6SM 07/M20 A3021 RMK T00701200 IEM_DS3505
ZBAA,2004-02-07 06:00,ZBAA 070600Z AUTO 27008G31KT 19SM 08/M20 A3018 RMK SLP225 T00821204 57043 IEM_DS3505
ZBAA,2004-02-07 07:00,ZBAA 070700Z AUTO 28017G27KT 6SM 08/M21 A3015 RMK T00801210 IEM_DS3505
ZBAA,2004-02-07 08:00,ZBAA 070800Z AUTO 28016KT 6SM 09/M20 A3015 RMK T00901200 IEM_DS3505
ZBAA,2004-02-07 09:00,ZBAA 070900Z AUTO 29008KT 19SM 08/M21 A3012 RMK SLP207 T00831214 57018 IEM_DS3505
ZBAA,2004-02-07 10:00,ZBAA 071000Z AUTO 29012KT 6SM 07/M18 A3015 RMK T00701180 IEM_DS3505
ZBAA,2004-02-07 11:00,ZBAA 071100Z AUTO 31012KT 6SM 06/M17 A3018 RMK T00601170 IEM_DS3505
ZBAA,2004-02-07 12:00,ZBAA 071200Z AUTO 32004KT 16SM 06/M18 A3018 RMK SLP223 T00641182 52016 IEM_DS3505
ZBAA,2004-02-07 13:00,ZBAA 071300Z AUTO 26004KT 6SM 03/M15 A3018 RMK T00301150 IEM_DS3505
ZBAA,2004-02-07 14:00,ZBAA 071400Z AUTO 25006KT 6SM 03/M15 A3018 RMK T00301150 IEM_DS3505
ZBAA,2004-02-07 15:00,ZBAA 071500Z AUTO 32004KT 12SM 04/M18 A3021 RMK SLP230 T00371183 52007 IEM_DS3505
ZBAA,2004-02-07 16:00,ZBAA 071600Z AUTO 30010KT 6SM 04/M17 A3021 RMK T00401170 IEM_DS3505
ZBAA,2004-02-07 17:00,ZBAA 071700Z AUTO 31008KT 6SM 03/M18 A3021 RMK T00301180 IEM_DS3505
ZBAA,2004-02-07 18:00,ZBAA 071800Z AUTO 32017KT 6SM 04/M16 A3024 RMK T00401160 IEM_DS3505
ZBAA,2004-02-07 19:00,ZBAA 071900Z AUTO 32014KT 6SM 03/M16 A3027 RMK T00301160 IEM_DS3505
ZBAA,2004-02-07 20:00,ZBAA 072000Z AUTO 32014KT 6SM 03/M15 A3024 RMK T00301150 IEM_DS3505
ZBAA,2004-02-07 21:00,ZBAA 072100Z AUTO 34004KT 12SM 01/M18 A3027 RMK SLP250 T00131180 52007 IEM_DS3505
ZBAA,2004-02-07 22:00,ZBAA 072200Z AUTO 36006KT 6SM M02/M16 A3030 RMK T10201160 IEM_DS3505
ZBAA,2004-02-07 23:00,ZBAA 072300Z AUTO 36006KT 6SM M04/M17 A3033 RMK T10401170 IEM_DS3505
ZBAA,2004-02-08 00:00,ZBAA 080000Z AUTO 04004KT 19SM 00/M16 A3036 RMK SLP279 T00041159 52029 IEM_DS3505
ZBAA,2004-02-08 01:00,ZBAA 080100Z AUTO 02006KT 6SM 01/M13 A3039 RMK T00101130 IEM_DS3505
ZBAA,2004-02-08 03:00,ZBAA 080300Z AUTO 02008KT 19SM 04/M16 A3039 RMK SLP289 T00391163 52010 IEM_DS3505
ZBAA,2004-02-08 04:00,ZBAA 080400Z AUTO 03004KT 6SM 04/M13 A3039 RMK T00401130 IEM_DS3505
ZBAA,2004-02-08 05:00,ZBAA 080500Z AUTO 6SM 06/M13 A3036 RMK T00601130 IEM_DS3505
ZBAA,2004-02-08 06:00,ZBAA 080600Z AUTO 02004KT 19SM 06/M16 A3036 RMK SLP272 T00611163 57017 IEM_DS3505
ZBAA,2004-02-08 07:00,ZBAA 080700Z AUTO 05004KT 6SM 06/M14 A3033 RMK T00601140 IEM_DS3505
ZBAA,2004-02-08 08:00,ZBAA 080800Z AUTO 09006KT 6SM 06/M14 A3033 RMK T00601140 IEM_DS3505
ZBAA,2004-02-08 09:00,ZBAA 080900Z AUTO 14006KT 19SM 06/M17 A3033 RMK SLP273 T00571167 52001 IEM_DS3505
ZBAA,2004-02-08 10:00,ZBAA 081000Z AUTO 17004KT 6SM 02/M15 A3036 RMK T00201150 IEM_DS3505
ZBAA,2004-02-08 11:00,ZBAA 081100Z AUTO 17004KT 6SM 02/M14 A3039 RMK T00201140 IEM_DS3505
ZBAA,2004-02-08 12:00,ZBAA 081200Z AUTO 18006KT 19SM 00/M09 A3039 RMK SLP296 T00011088 52022 IEM_DS3505
ZBAA,2004-02-08 13:00,ZBAA 081300Z AUTO 11008KT 6SM M02/M08 A3042 RMK T10201080 IEM_DS3505
ZBAA,2004-02-08 14:00,ZBAA 081400Z AUTO 12008KT 6SM M03/M07 A3045 RMK T10301070 IEM_DS3505
ZBAA,2004-02-08 15:00,ZBAA 081500Z AUTO 09006KT 12SM M04/M08 A3047 RMK SLP314 T10391084 52018 IEM_DS3505
ZBAA,2004-02-08 16:00,ZBAA 081600Z AUTO 10004KT 6SM M05/M09 A3047 RMK T10501090 IEM_DS3505
ZBAA,2004-02-08 17:00,ZBAA 081700Z AUTO 13006KT 6SM M06/M09 A3047 RMK T10601090 IEM_DS3505
ZBAA,2004-02-08 18:00,ZBAA 081800Z AUTO 07004KT 7SM M05/M10 A3047 RMK SLP321 T10511097 52007 IEM_DS3505
ZBAA,2004-02-08 19:00,ZBAA 081900Z AUTO 15002KT 6SM M06/M08 A3047 RMK T10601080 IEM_DS3505
ZBAA,2004-02-08 20:00,ZBAA 082000Z AUTO 27002KT 6SM M07/M10 A3047 RMK T10701100 IEM_DS3505
ZBAA,2004-02-08 21:00,ZBAA 082100Z AUTO 04004KT 6SM M06/M10 A3047 RMK SLP315 T10621102 57006 IEM_DS3505
ZBAA,2004-02-08 22:00,ZBAA 082200Z AUTO 00000KT 6SM M08/M11 A3047 RMK T10801110 IEM_DS3505
ZBAA,2004-02-08 23:00,ZBAA 082300Z AUTO 00000KT 4SM M07/M09 A3047 RMK T10701090 IEM_DS3505
ZBAA,2004-02-09 00:00,ZBAA 090000Z AUTO 09004KT 5SM M06/M10 A3047 RMK SLP322 T10621100 52007 IEM_DS3505
ZBAA,2004-02-09 01:00,ZBAA 090100Z AUTO 00000KT 4SM A3050 RMK IEM_DS3505
ZBAA,2004-02-09 02:00,ZBAA 090200Z AUTO 4SM M03/M07 A3047 RMK T10301070 IEM_DS3505
ZBAA,2004-02-09 03:00,ZBAA 090300Z AUTO 07004KT 6SM M00/M08 A3047 RMK SLP317 T10031077 57005 IEM_DS3505
ZBAA,2004-02-09 04:00,ZBAA 090400Z AUTO 6SM 00/M06 A3045 RMK T00001060 IEM_DS3505
ZBAA,2004-02-09 05:00,ZBAA 090500Z AUTO 13004KT 6SM 01/M07 A3042 RMK T00101070 IEM_DS3505
ZBAA,2004-02-09 06:00,ZBAA 090600Z AUTO 18004KT 9SM 04/M09 A3039 RMK SLP283 T00391091 57034 IEM_DS3505
ZBAA,2004-02-09 07:00,ZBAA 090700Z AUTO 12002KT 6SM 03/M07 A3036 RMK T00301070 IEM_DS3505
ZBAA,2004-02-09 08:00,ZBAA 090800Z AUTO 09002KT 6SM 03/M07 A3033 RMK T00301070 IEM_DS3505
ZBAA,2004-02-09 09:00,ZBAA 090900Z AUTO 22002KT 9SM 05/M12 A3033 RMK SLP264 T00491124 57019 IEM_DS3505
ZBAA,2004-02-09 10:00,ZBAA 091000Z AUTO 01004KT 4SM A3033 RMK IEM_DS3505
ZBAA,2004-02-09 11:00,ZBAA 091100Z AUTO 35004KT 2 1/2SM M04/M10 A3033 RMK T10401100 IEM_DS3505
ZBAA,2004-02-09 12:00,ZBAA 091200Z AUTO 02002KT 6SM 00/M13 RMK SLP269 T00021127 52005 IEM_DS3505
ZBAA,2004-02-09 13:00,ZBAA 091300Z AUTO 02002KT 2SM M02/M08 A3033 RMK T10201080 IEM_DS3505
ZBAA,2004-02-09 14:00,ZBAA 091400Z AUTO 03002KT 2SM M03/M09 A3033 RMK T10301090 IEM_DS3505
ZBAA,2004-02-09 15:00,ZBAA 091500Z AUTO 09002KT 6SM M02/M10 A3033 RMK SLP269 T10161096 54000 IEM_DS3505
ZBAA,2004-02-09 16:00,ZBAA 091600Z AUTO 11002KT 2SM M04/M09 A3033 RMK T10401090 IEM_DS3505
ZBAA,2004-02-09 17:00,ZBAA 091700Z AUTO 00000KT 2SM M05/M11 A3033 RMK T10501110 IEM_DS3505
ZBAA,2004-02-09 18:00,ZBAA 091800Z AUTO 07004KT 4SM M03/M10 A3030 RMK SLP258 T10341102 57011 IEM_DS3505
ZBAA,2004-02-09 19:00,ZBAA 091900Z AUTO 01002KT 2SM M05/M10 A3027 RMK T10501100 IEM_DS3505
ZBAA,2004-02-09 20:00,ZBAA 092000Z AUTO 34004KT 2SM M05/M09 A3027 RMK T10501090 IEM_DS3505
ZBAA,2004-02-09 20:30,ZBAA 092030Z AUTO 33004KT 2 1/2SM M07/M10 A3027 RMK T10701100 IEM_DS3505
ZBAA,2004-02-09 21:00,ZBAA 092100Z AUTO 02004KT 6SM M04/M10 A3024 RMK SLP239 T10371105 57018 IEM_DS3505
ZBAA,2004-02-09 21:30,ZBAA 092130Z AUTO 35006KT 2 1/2SM M06/M09 A3024 RMK T10601090 IEM_DS3505
ZBAA,2004-02-09 22:00,ZBAA 092200Z AUTO 35006KT 2 1/2SM M05/M09 A3024 RMK T10501090 IEM_DS3505
ZBAA,2004-02-09 23:00,ZBAA 092300Z AUTO 34004KT 2 1/2SM M07/M10 A3024 RMK T10701100 IEM_DS3505
ZBAA,2004-02-10 00:00,ZBAA 100000Z AUTO 09002KT 4SM M04/M10 A3024 RMK SLP243 T10441099 52003 IEM_DS3505
ZBAA,2004-02-10 01:00,ZBAA 100100Z AUTO 36004KT 2 1/2SM M03/M08 A3024 RMK T10301080 IEM_DS3505
ZBAA,2004-02-10 02:00,ZBAA 100200Z AUTO 36004KT 3SM 01/M08 A3024 RMK T00101080 IEM_DS3505
ZBAA,2004-02-10 03:00,ZBAA 100300Z AUTO 02004KT 5SM 04/M10 A3024 RMK SLP239 T00401104 57003 IEM_DS3505
ZBAA,2004-02-10 04:00,ZBAA 100400Z AUTO 06/M09 A3021 RMK T00601090 IEM_DS3505
ZBAA,2004-02-10 05:00,ZBAA 100500Z AUTO 31004KT 08/M11 A3018 RMK T00801110 IEM_DS3505
ZBAA,2004-02-10 06:00,ZBAA 100600Z AUTO 20002KT 6SM 11/M14 A3015 RMK SLP212 T01101138 57027 IEM_DS3505
ZBAA,2004-02-10 07:00,ZBAA 100700Z AUTO 30016G25KT 6SM 12/M18 A3015 RMK T01201180 IEM_DS3505
ZBAA,2004-02-10 08:00,ZBAA 100800Z AUTO 28014KT 6SM 12/M18 A3015 RMK T01201180 IEM_DS3505
ZBAA,2004-02-10 09:00,ZBAA 100900Z AUTO 22004KT 6SM 09/M12 A3015 RMK SLP213 T00881122 52001 IEM_DS3505
ZBAA,2004-02-10 10:00,ZBAA 101000Z AUTO 29008KT 6SM 10/M17 A3015 RMK T01001170 IEM_DS3505
ZBAA,2004-02-10 11:00,ZBAA 101100Z AUTO 30004KT 6SM 07/M18 A3018 RMK T00701180 IEM_DS3505
ZBAA,2004-02-10 12:00,ZBAA 101200Z AUTO 27004KT 5SM 05/M11 A3024 RMK SLP241 T00481112 52027 IEM_DS3505
ZBAA,2004-02-10 13:00,ZBAA 101300Z AUTO 32002KT 6SM 04/M15 A3027 RMK T00401150 IEM_DS3505
ZBAA,2004-02-10 14:00,ZBAA 101400Z AUTO 02004KT 6SM M02/M16 A3030 RMK T10201160 IEM_DS3505
ZBAA,2004-02-10 15:00,ZBAA 101500Z AUTO 32004KT 4SM 04/M10 A3030 RMK SLP263 T00391105 52023 IEM_DS3505
ZBAA,2004-02-10 16:00,ZBAA 101600Z AUTO 33002KT 6SM M01/M16 A3033 RMK T10101160 IEM_DS3505
ZBAA,2004-02-10 17:00,ZBAA 101700Z AUTO 35002KT 6SM M02/M15 A3033 RMK T10201150 IEM_DS3505
ZBAA,2004-02-10 18:00,ZBAA 101800Z AUTO 04002KT 5SM 01/M14 A3036 RMK SLP274 T00111137 52011 IEM_DS3505
ZBAA,2004-02-10 19:00,ZBAA 101900Z AUTO 04002KT 6SM M03/M16 A3036 RMK T10301160 IEM_DS3505
ZBAA,2004-02-10 20:00,ZBAA 102000Z AUTO 34006KT 6SM M05/M17 A3036 RMK T10501170 IEM_DS3505
ZBAA,2004-02-10 21:00,ZBAA 102100Z AUTO 34004KT 6SM 01/M15 A3039 RMK SLP284 T00061153 52010 IEM_DS3505
ZBAA,2004-02-10 22:00,ZBAA 102200Z AUTO 36004KT 6SM 00/M16 A3039 RMK T00001160 IEM_DS3505
ZBAA,2004-02-10 23:00,ZBAA 102300Z AUTO 00000KT 6SM 00/M15 A3042 RMK T00001150 IEM_DS3505
ZBAA,2004-02-11 00:00,ZBAA 110000Z AUTO 36006KT 12SM 04/M18 A3045 RMK SLP307 T00421179 52023 IEM_DS3505
ZBAA,2004-02-11 01:00,ZBAA 110100Z AUTO 35006KT 6SM 02/M14 A3047 RMK T00201140 IEM_DS3505
ZBAA,2004-02-11 02:00,ZBAA 110200Z AUTO 36006KT 6SM 03/M14 A3047 RMK T00301140 IEM_DS3505
ZBAA,2004-02-11 03:00,ZBAA 110300Z AUTO 02008KT 12SM 06/M17 A3047 RMK SLP311 T00601171 52004 IEM_DS3505
ZBAA,2004-02-11 04:00,ZBAA 110400Z AUTO 02008KT 6SM 06/M15 A3045 RMK T00601150 IEM_DS3505
ZBAA,2004-02-11 05:00,ZBAA 110500Z AUTO 02008KT 6SM 06/M15 A3042 RMK T00601150 IEM_DS3505
ZBAA,2004-02-11 06:00,ZBAA 110600Z AUTO 02004KT 16SM 08/M18 A3039 RMK SLP292 T00801178 57019 IEM_DS3505
ZBAA,2004-02-11 07:00,ZBAA 110700Z AUTO 28002KT 6SM 09/ RMK IEM_DS3505
ZBAA,2004-02-11 08:00,ZBAA 110800Z AUTO 6SM 08/M16 A3039 RMK T00801160 IEM_DS3505
ZBAA,2004-02-11 09:00,ZBAA 110900Z AUTO 16004KT 12SM 08/M16 A3039 RMK SLP287 T00761165 57005 IEM_DS3505
ZBAA,2004-02-11 10:00,ZBAA 111000Z AUTO 10002KT 6SM 05/M14 A3039 RMK T00501140 IEM_DS3505
ZBAA,2004-02-11 11:00,ZBAA 111100Z AUTO 15002KT 6SM 04/M14 A3039 RMK T00401140 IEM_DS3505
ZBAA,2004-02-11 12:00,ZBAA 111200Z AUTO 25004KT 7SM 03/M15 A3042 RMK SLP296 T00321148 52009 IEM_DS3505
ZBAA,2004-02-11 13:00,ZBAA 111300Z AUTO 07002KT M01/M14 A3042 RMK T10101140 IEM_DS3505
ZBAA,2004-02-11 14:00,ZBAA 111400Z AUTO 00000KT 01/M14 A3042 RMK T00101140 IEM_DS3505
ZBAA,2004-02-11 15:00,ZBAA 111500Z AUTO 25002KT 6SM M01/M14 A3042 RMK SLP301 T10071142 52005 IEM_DS3505
ZBAA,2004-02-11 16:00,ZBAA 111600Z AUTO 35004KT 3SM M01/M14 A3042 RMK T10101140 IEM_DS3505
ZBAA,2004-02-11 17:00,ZBAA 111700Z AUTO 35002KT 3SM M02/M13 A3045 RMK T10201130 IEM_DS3505
ZBAA,2004-02-11 18:00,ZBAA 111800Z AUTO 09002KT 6SM M02/M13 A3045 RMK SLP306 T10171129 52005 IEM_DS3505
ZBAA,2004-02-11 19:00,ZBAA 111900Z AUTO 33004KT 2 1/2SM M03/M14 A3045 RMK T10301140 IEM_DS3505
ZBAA,2004-02-11 20:00,ZBAA 112000Z AUTO 34004KT 2SM M05/M15 A3042 RMK T10501150 IEM_DS3505
ZBAA,2004-02-11 21:00,ZBAA 112100Z AUTO 07002KT 4SM M03/M13 A3042 RMK SLP295 T10321126 57011 IEM_DS3505
ZBAA,2004-02-11 22:00,ZBAA 112200Z AUTO 35004KT 3SM M05/M14 A3042 RMK T10501140 IEM_DS3505
ZBAA,2004-02-11 23:00,ZBAA 112300Z AUTO 35004KT 4SM M06/M14 A3042 RMK T10601140 IEM_DS3505
ZBAA,2004-02-12 00:00,ZBAA 120000Z AUTO 02004KT 4SM M02/M13 A3042 RMK SLP303 T10211126 52007 IEM_DS3505
ZBAA,2004-02-12 01:00,ZBAA 120100Z AUTO 35004KT 6SM M01/M13 A3045 RMK T10101130 IEM_DS3505
ZBAA,2004-02-12 02:00,ZBAA 120200Z AUTO 04002KT 6SM 02/M12 A3042 RMK T00201120 IEM_DS3505
ZBAA,2004-02-12 03:00,ZBAA 120300Z AUTO 04004KT 12SM 06/M14 RMK SLP290 T00631143 57012 IEM_DS3505
ZBAA,2004-02-12 04:00,ZBAA 120400Z AUTO 6SM 08/M13 A3036 RMK T00801130 IEM_DS3505
ZBAA,2004-02-12 05:00,ZBAA 120500Z AUTO 6SM 09/M11 A3030 RMK T00901110 IEM_DS3505
ZBAA,2004-02-12 06:00,ZBAA 120600Z AUTO 16006KT 9SM 11/M15 A3027 RMK SLP246 T01061149 57044 IEM_DS3505
ZBAA,2004-02-12 07:00,ZBAA 120700Z AUTO 14006KT 6SM 10/M12 A3024 RMK T01001120 IEM_DS3505
ZBAA,2004-02-12 08:00,ZBAA 120800Z AUTO 18006KT 6SM 10/M12 A3021 RMK T01001120 IEM_DS3505
ZBAA,2004-02-12 09:00,ZBAA 120900Z AUTO 20004KT 6SM 10/M13 A3018 RMK SLP218 T01001131 57028 IEM_DS3505
ZBAA,2004-02-12 10:00,ZBAA 121000Z AUTO 18002KT 08/M13 A3015 RMK T00801130 IEM_DS3505
ZBAA,2004-02-12 11:00,ZBAA 121100Z AUTO 09002KT 3SM 06/M11 A3015 RMK T00601110 IEM_DS3505
ZBAA,2004-02-12 12:00,ZBAA 121200Z AUTO 20004KT 6SM 06/M12 A3012 RMK SLP203 T00641116 57015 IEM_DS3505
ZBAA,2004-02-12 13:00,ZBAA 121300Z AUTO 09002KT 2 1/2SM 03/M12 A3012 RMK T00301120 IEM_DS3505
ZBAA,2004-02-12 14:00,ZBAA 121400Z AUTO 10004KT 2 1/2SM 02/M11 A3009 RMK T00201110 IEM_DS3505
ZBAA,2004-02-12 15:00,ZBAA 121500Z AUTO 34006KT 6SM 06/M04 A3009 RMK SLP185 T00621045 57017 IEM_DS3505
ZBAA,2004-02-12 16:00,ZBAA 121600Z AUTO 14006KT 2 1/2SM 03/M11 A3003 RMK T00301110 IEM_DS3505
ZBAA,2004-02-12 17:00,ZBAA 121700Z AUTO 34004KT 2 1/2SM A3003 RMK IEM_DS3505
ZBAA,2004-02-12 18:00,ZBAA 121800Z AUTO 07004KT 6SM 03/M03 A3000 RMK SLP154 T00291034 57031 IEM_DS3505
ZBAA,2004-02-12 19:00,ZBAA 121900Z AUTO 17002KT 2 1/2SM A2997 RMK IEM_DS3505
ZBAA,2004-02-12 20:00,ZBAA 122000Z AUTO 22002KT 2 1/2SM A2994 RMK IEM_DS3505
ZBAA,2004-02-12 21:00,ZBAA 122100Z AUTO 25002KT 5SM M00/M04 A2991 RMK SLP128 T10021036 57026 IEM_DS3505
ZBAA,2004-02-12 22:00,ZBAA 122200Z AUTO 2SM A2988 RMK IEM_DS3505
ZBAA,2004-02-12 23:00,ZBAA 122300Z AUTO 00000KT 1 1/4SM A2988 RMK IEM_DS3505
ZBAA,2004-02-13 00:00,ZBAA 130000Z AUTO 32002KT 4SM 01/M04 A2985 RMK SLP106 T00071036 57022 IEM_DS3505
ZBAA,2004-02-13 01:00,ZBAA 130100Z AUTO 11002KT 1SM A2983 RMK IEM_DS3505
ZBAA,2004-02-13 02:00,ZBAA 130200Z AUTO 09004KT 1SM 02/M05 A2980 RMK T00201050 IEM_DS3505
ZBAA,2004-02-13 03:00,ZBAA 130300Z AUTO 22002KT 6SM 05/M05 A2977 RMK SLP081 T00501051 57025 IEM_DS3505
ZBAA,2004-02-13 04:00,ZBAA 130400Z AUTO 13002KT 1 1/4SM 05/M03 A2974 RMK T00501030 IEM_DS3505
ZBAA,2004-02-13 05:00,ZBAA 130500Z AUTO 25008KT 1 1/4SM 09/M02 A2971 RMK T00901020 IEM_DS3505
ZBAA,2004-02-13 06:00,ZBAA 130600Z AUTO 29016G33KT 7SM 12/M12 A2968 RMK SLP058 T01171124 57023 IEM_DS3505
ZBAA,2004-02-13 07:00,ZBAA 130700Z AUTO 31023G35KT 5SM 11/M13 A2971 RMK T01101130 IEM_DS3505
ZBAA,2004-02-13 08:00,ZBAA 130800Z AUTO 31023G35KT 6SM 11/M15 A2974 RMK T01101150 IEM_DS3505
ZBAA,2004-02-13 09:00,ZBAA 130900Z AUTO 32014G41KT 9SM 10/M16 A2977 RMK SLP093 T00961157 52035 IEM_DS3505
ZBAA,2004-02-13 10:00,ZBAA 131000Z AUTO 31017G33KT 6SM 08/M16 A2983 RMK T00801160 IEM_DS3505
ZBAA,2004-02-13 11:00,ZBAA 131100Z AUTO 33017G27KT 6SM 08/M17 A2985 RMK T00801170 IEM_DS3505
ZBAA,2004-02-13 12:00,ZBAA 131200Z AUTO 32019G27KT 12SM 08/M20 A2988 RMK SLP123 T00821204 52030 IEM_DS3505
ZBAA,2004-02-13 13:00,ZBAA 131300Z AUTO 33025G39KT 6SM 06/M17 A2991 RMK T00601170 IEM_DS3505
ZBAA,2004-02-13 14:00,ZBAA 131400Z AUTO 32023G35KT 6SM 06/M16 A2994 RMK T00601160 IEM_DS3505
ZBAA,2004-02-13 15:00,ZBAA 131500Z AUTO 34014KT 19SM 06/M19 A2997 RMK SLP148 T00621192 52025 IEM_DS3505
ZBAA,2004-02-13 16:00,ZBAA 131600Z AUTO 32021G35KT 6SM 05/M15 A3000 RMK T00501150 IEM_DS3505
ZBAA,2004-02-13 17:00,ZBAA 131700Z AUTO 31016KT 6SM 04/M15 A3000 RMK T00401150 IEM_DS3505
ZBAA,2004-02-13 18:00,ZBAA 131800Z AUTO 34010KT 19SM 05/M18 A3000 RMK SLP162 T00481181 52014 IEM_DS3505
ZBAA,2004-02-13 19:00,ZBAA 131900Z AUTO 30010KT 6SM 02/M16 A3000 RMK T00201160 IEM_DS3505
ZBAA,2004-02-13 20:00,ZBAA 132000Z AUTO 32012KT 6SM 02/M16 A3000 RMK T00201160 IEM_DS3505
ZBAA,2004-02-13 21:00,ZBAA 132100Z AUTO 34006KT 19SM 04/M20 A3000 RMK SLP168 T00411201 52006 IEM_DS3505
ZBAA,2004-02-13 22:00,ZBAA 132200Z AUTO 30008KT 6SM 03/M16 A3003 RMK T00301160 IEM_DS3505
ZBAA,2004-02-13 23:00,ZBAA 132300Z AUTO 17006KT 6SM M01/M15 A3003 RMK T10101150 IEM_DS3505
ZBAA,2004-02-14 00:00,ZBAA 140000Z AUTO 34008KT 19SM 04/M18 A3009 RMK SLP192 T00431178 52024 IEM_DS3505
ZBAA,2004-02-14 01:00,ZBAA 140100Z AUTO 23008KT 6SM 05/M17 A3012 RMK T00501170 IEM_DS3505
ZBAA,2004-02-14 02:00,ZBAA 140200Z AUTO 34008KT 6SM 07/M16 A3012 RMK T00701160 IEM_DS3505
ZBAA,2004-02-14 03:00,ZBAA 140300Z AUTO 32008KT 19SM 09/M19 A3012 RMK SLP194 T00921186 52002 IEM_DS3505
ZBAA,2004-02-14 04:00,ZBAA 140400Z AUTO 30012KT 6SM 10/M18 A3009 RMK T01001180 IEM_DS3505
ZBAA,2004-02-14 05:00,ZBAA 140500Z AUTO 30014G23KT 6SM 10/M18 A3009 RMK T01001180 IEM_DS3505
ZBAA,2004-02-14 06:00,ZBAA 140600Z AUTO 25008G25KT 19SM 11/M18 A3006 RMK SLP178 T01091183 57016 IEM_DS3505
ZBAA,2004-02-14 07:00,ZBAA 140700Z AUTO 29016KT 6SM 12/M19 A3003 RMK T01201190 IEM_DS3505
ZBAA,2004-02-14 08:00,ZBAA 140800Z AUTO 31012KT 6SM 12/M19 A3003 RMK T01201190 IEM_DS3505
ZBAA,2004-02-14 09:00,ZBAA 140900Z AUTO 22008KT 19SM 11/M20 A3003 RMK SLP169 T01071195 57009 IEM_DS3505
ZBAA,2004-02-14 10:00,ZBAA 141000Z AUTO 20008KT 6SM 09/M18 A3003 RMK T00901180 IEM_DS3505
ZBAA,2004-02-14 11:00,ZBAA 141100Z AUTO 17006KT 6SM 06/M18 A3003 RMK T00601180 IEM_DS3505
ZBAA,2004-02-14 12:00,ZBAA 141200Z AUTO 20004KT 12SM 07/M20 A3003 RMK SLP171 T00671197 52002 IEM_DS3505
ZBAA,2004-02-14 13:00,ZBAA 141300Z AUTO 19008KT 6SM 06/M17 A3003 RMK T00601170 IEM_DS3505
ZBAA,2004-02-14 14:00,ZBAA 141400Z AUTO 20006KT 6SM 06/M17 A3003 RMK T00601170 IEM_DS3505
ZBAA,2004-02-14 15:00,ZBAA 141500Z AUTO 22004KT 12SM 04/M18 RMK SLP172 T00431178 52001 IEM_DS3505
ZBAA,2004-02-14 16:00,ZBAA 141600Z AUTO 16002KT 6SM 03/M15 A3003 RMK T00301150 IEM_DS3505
ZBAA,2004-02-14 17:00,ZBAA 141700Z AUTO 6SM M02/M15 A3003 RMK T10201150 IEM_DS3505
ZBAA,2004-02-14 18:00,ZBAA 141800Z AUTO 27002KT 9SM 01/M16 A3003 RMK SLP167 T00141159 57005 IEM_DS3505
ZBAA,2004-02-14 19:00,ZBAA 141900Z AUTO 01002KT 2 1/2SM M02/M15 A3003 RMK T10201150 IEM_DS3505
ZBAA,2004-02-14 20:00,ZBAA 142000Z AUTO 35002KT 2 1/2SM M03/M15 A3003 RMK T10301150 IEM_DS3505
ZBAA,2004-02-14 21:00,ZBAA 142100Z AUTO 36002KT 7SM M01/M15 A3003 RMK SLP171 T10141148 52003 IEM_DS3505
ZBAA,2004-02-14 22:00,ZBAA 142200Z AUTO 02002KT 3SM M04/M13 A3006 RMK T10401130 IEM_DS3505
ZBAA,2004-02-14 23:00,ZBAA 142300Z AUTO 00000KT 5SM M04/M14 A3009 RMK T10401140 IEM_DS3505
ZBAA,2004-02-15 00:00,ZBAA 150000Z AUTO 07004KT 5SM M01/M14 A3012 RMK SLP197 T10071145 52026 IEM_DS3505
ZBAA,2004-02-15 01:00,ZBAA 150100Z AUTO 34006KT 5SM 03/M13 A3015 RMK T00301130 IEM_DS3505
ZBAA,2004-02-15 02:00,ZBAA 150200Z AUTO 05004KT 5SM 07/M14 A3015 RMK T00701140 IEM_DS3505
ZBAA,2004-02-15 03:00,ZBAA 150300Z AUTO 09012G21KT 6SM 08/M14 A3018 RMK SLP222 T00751145 52025 IEM_DS3505
ZBAA,2004-02-15 04:00,ZBAA 150400Z AUTO 13010KT 6SM 11/M14 A3018 RMK T01101140 IEM_DS3505
ZBAA,2004-02-15 05:00,ZBAA 150500Z AUTO 13012KT 11/M14 A3018 RMK T01101140 IEM_DS3505
ZBAA,2004-02-15 06:00,ZBAA 150600Z AUTO 11014KT 6SM 11/M15 A3018 RMK SLP219 T01091154 57003 IEM_DS3505
ZBAA,2004-02-15 07:00,ZBAA 150700Z AUTO 15014KT 10/M13 A3018 RMK T01001130 IEM_DS3505
ZBAA,2004-02-15 08:00,ZBAA 150800Z AUTO 15012KT 09/M14 A3021 RMK T00901140 IEM_DS3505
ZBAA,2004-02-15 09:00,ZBAA 150900Z AUTO 16008KT 9SM 07/M12 A3024 RMK SLP239 T00691117 52020 IEM_DS3505
ZBAA,2004-02-15 10:00,ZBAA 151000Z AUTO 15010KT 5SM 05/M13 A3027 RMK T00501130 IEM_DS3505
ZBAA,2004-02-15 11:00,ZBAA 151100Z AUTO 17010KT 6SM 03/M10 A3033 RMK T00301100 IEM_DS3505
ZBAA,2004-02-15 12:00,ZBAA 151200Z AUTO 11008KT 9SM 02/M10 A3036 RMK SLP279 T00171098 52039 IEM_DS3505
ZBAA,2004-02-15 13:00,ZBAA 151300Z AUTO 15006KT 6SM M01/M10 A3039 RMK T10101100 IEM_DS3505
ZBAA,2004-02-15 14:00,ZBAA 151400Z AUTO 17006KT 6SM M02/M12 A3039 RMK T10201120 IEM_DS3505
ZBAA,2004-02-15 15:00,ZBAA 151500Z AUTO 04002KT 9SM M01/M13 A3039 RMK SLP295 T10091134 52017 IEM_DS3505
ZBAA,2004-02-15 16:00,ZBAA 151600Z AUTO 21004KT 6SM M01/M12 A3039 RMK T10101120 IEM_DS3505
ZBAA,2004-02-15 17:00,ZBAA 151700Z AUTO 23004KT 6SM M01/M12 A3039 RMK T10101120 IEM_DS3505
ZBAA,2004-02-15 18:00,ZBAA 151800Z AUTO 20002KT 9SM M01/M13 A3036 RMK SLP284 T10081133 57011 IEM_DS3505
ZBAA,2004-02-15 19:00,ZBAA 151900Z AUTO 00000KT 6SM M02/M12 A3033 RMK T10201120 IEM_DS3505
ZBAA,2004-02-15 20:00,ZBAA 152000Z AUTO 15004KT 6SM M03/M11 A3030 RMK T10301110 IEM_DS3505
ZBAA,2004-02-15 21:00,ZBAA 152100Z AUTO 29002KT 9SM M02/M14 A3030 RMK SLP256 T10161137 57028 IEM_DS3505
ZBAA,2004-02-15 22:00,ZBAA 152200Z AUTO 00000KT 6SM M04/M10 A3027 RMK T10401100 IEM_DS3505
ZBAA,2004-02-15 23:00,ZBAA 152300Z AUTO 00000KT 6SM M03/M11 A3027 RMK T10301110 IEM_DS3505
ZBAA,2004-02-16 00:00,ZBAA 160000Z AUTO 27004KT 7SM M01/M15 A3027 RMK SLP249 T10061148 57008 IEM_DS3505
ZBAA,2004-02-16 01:00,ZBAA 160100Z AUTO 00000KT 6SM M01/M10 A3027 RMK T10101100 IEM_DS3505
ZBAA,2004-02-16 02:00,ZBAA 160200Z AUTO 30002KT 6SM 02/M13 A3024 RMK T00201130 IEM_DS3505
ZBAA,2004-02-16 03:00,ZBAA 160300Z AUTO 25006KT 12SM 04/M16 A3021 RMK SLP231 T00351161 57017 IEM_DS3505
ZBAA,2004-02-16 04:00,ZBAA 160400Z AUTO 24006KT 6SM 05/M15 A3018 RMK T00501150 IEM_DS3505
ZBAA,2004-02-16 05:00,ZBAA 160500Z AUTO 6SM 07/M14 A3015 RMK T00701140 IEM_DS3505
ZBAA,2004-02-16 06:00,ZBAA 160600Z AUTO 22008G19KT 16SM 07/M14 A3009 RMK SLP195 T00661141 57036 IEM_DS3505
ZBAA,2004-02-16 07:00,ZBAA 160700Z AUTO 19010KT 6SM 10/M13 A3006 RMK T01001130 IEM_DS3505
ZBAA,2004-02-16 08:00,ZBAA 160800Z AUTO 19010KT 6SM 09/M11 A3003 RMK T00901110 IEM_DS3505
ZBAA,2004-02-16 09:00,ZBAA 160900Z AUTO 25010KT 12SM 07/M12 A3003 RMK SLP185 T00711120 57010 IEM_DS3505
ZBAA,2004-02-16 10:00,ZBAA 161000Z AUTO 21012KT 6SM 06/M10 A3006 RMK T00601100 IEM_DS3505
ZBAA,2004-02-16 11:00,ZBAA 161100Z AUTO 21006KT 6SM 06/M10 A3009 RMK T00601100 IEM_DS3505
ZBAA,2004-02-16 12:00,ZBAA 161200Z AUTO 25006KT 7SM 05/M11 A3012 RMK SLP203 T00471113 52018 IEM_DS3505
ZBAA,2004-02-16 13:00,ZBAA 161300Z AUTO 23008KT 6SM 04/M10 A3012 RMK T00401100 IEM_DS3505
ZBAA,2004-02-16 14:00,ZBAA 161400Z AUTO 21004KT 6SM 04/M10 A3015 RMK T00401100 IEM_DS3505
ZBAA,2004-02-16 15:00,ZBAA 161500Z AUTO 25002KT 6SM 02/M10 A3015 RMK SLP208 T00171101 52005 IEM_DS3505
ZBAA,2004-02-16 16:00,ZBAA 161600Z AUTO 16004KT 6SM M03/M09 A3015 RMK T10301090 IEM_DS3505
ZBAA,2004-02-16 17:00,ZBAA 161700Z AUTO 00000KT M03/M09 A3012 RMK T10301090 IEM_DS3505
ZBAA,2004-02-16 18:00,ZBAA 161800Z AUTO 25002KT 6SM M01/M08 A3012 RMK SLP200 T10071077 57008 IEM_DS3505
ZBAA,2004-02-16 19:00,ZBAA 161900Z AUTO 35002KT 2 1/2SM M04/M09 A3009 RMK T10401090 IEM_DS3505
ZBAA,2004-02-16 20:00,ZBAA 162000Z AUTO 20004KT 2 1/2SM M03/M08 A3009 RMK T10301080 IEM_DS3505
ZBAA,2004-02-16 21:00,ZBAA 162100Z AUTO 09002KT 6SM M03/M09 A3009 RMK SLP189 T10271093 57011 IEM_DS3505
ZBAA,2004-02-16 22:00,ZBAA 162200Z AUTO 31002KT 3SM M07/M10 A3009 RMK T10701100 IEM_DS3505
ZBAA,2004-02-16 23:00,ZBAA 162300Z AUTO 33002KT 3SM M06/M10 A3009 RMK T10601100 IEM_DS3505
ZBAA,2004-02-17 00:00,ZBAA 170000Z AUTO 09004KT 4SM M03/M08 A3012 RMK SLP194 T10271085 52005 IEM_DS3505
ZBAA,2004-02-17 01:00,ZBAA 170100Z AUTO 03002KT 2 1/2SM M01/M08 A3012 RMK T10101080 IEM_DS3505
ZBAA,2004-02-17 02:00,ZBAA 170200Z AUTO 08004KT 2 1/2SM 03/M08 A3009 RMK T00301080 IEM_DS3505
ZBAA,2004-02-17 03:00,ZBAA 170300Z AUTO 07004KT 5SM 05/M09 A3006 RMK SLP183 T00481089 57011 IEM_DS3505
ZBAA,2004-02-17 04:00,ZBAA 170400Z AUTO 3SM 08/M10 A3006 RMK T00801100 IEM_DS3505
ZBAA,2004-02-17 05:00,ZBAA 170500Z AUTO 13004KT 3SM 09/M09 A3000 RMK T00901090 IEM_DS3505
ZBAA,2004-02-17 06:00,ZBAA 170600Z AUTO 16006KT 5SM 10/M08 A2997 RMK SLP145 T01031078 57037 IEM_DS3505
ZBAA,2004-02-17 07:00,ZBAA 170700Z AUTO 15008KT 2 1/2SM 11/M06 A2994 RMK T01101060 IEM_DS3505
ZBAA,2004-02-17 08:00,ZBAA 170800Z AUTO 14006KT 2 1/2SM 11/M06 A2991 RMK T01101060 IEM_DS3505
ZBAA,2004-02-17 09:00,ZBAA 170900Z AUTO 34002KT 4SM 10/M07 A2991 RMK SLP127 T01041068 57019 IEM_DS3505
ZBAA,2004-02-17 10:00,ZBAA 171000Z AUTO 17002KT 2SM 08/M05 A2991 RMK T00801050 IEM_DS3505
ZBAA,2004-02-17 11:00,ZBAA 171100Z AUTO 02004KT 2SM 06/M07 A2991 RMK T00601070 IEM_DS3505
ZBAA,2004-02-17 12:00,ZBAA 171200Z AUTO 07006KT 2 1/2SM 05/M07 A2994 RMK SLP136 T00521066 52009 IEM_DS3505
ZBAA,2004-02-17 13:00,ZBAA 171300Z AUTO 00000KT 2SM 03/M03 A2994 RMK T00301030 IEM_DS3505
ZBAA,2004-02-17 14:00,ZBAA 171400Z AUTO 00000KT 2SM 03/M03 A2994 RMK T00301030 IEM_DS3505
ZBAA,2004-02-17 15:00,ZBAA 171500Z AUTO 02002KT 2SM 03/M04 A2994 RMK SLP138 T00311041 52002 IEM_DS3505
ZBAA,2004-02-17 16:00,ZBAA 171600Z AUTO 00000KT 1 1/2SM 03/M02 A2994 RMK T00301020 IEM_DS3505
ZBAA,2004-02-17 17:00,ZBAA 171700Z AUTO 22002KT 1 1/2SM 02/M03 A2994 RMK T00201030 IEM_DS3505
ZBAA,2004-02-17 18:00,ZBAA 171800Z AUTO 04004KT 2 1/2SM 02/M04 A2994 RMK SLP136 T00191040 57001 IEM_DS3505
ZBAA,2004-02-17 19:00,ZBAA 171900Z AUTO 31002KT 1 1/2SM 00/M04 A2991 RMK T00001040 IEM_DS3505
ZBAA,2004-02-17 20:00,ZBAA 172000Z AUTO 32004KT 1 1/2SM M02/M04 A2991 RMK T10201040 IEM_DS3505
ZBAA,2004-02-17 21:00,ZBAA 172100Z AUTO 00000KT 2SM M01/M05 A2991 RMK SLP126 T10061050 57010 IEM_DS3505
ZBAA,2004-02-17 22:00,ZBAA 172200Z AUTO 33004KT 2SM M03/M07 A2991 RMK T10301070 IEM_DS3505
ZBAA,2004-02-17 23:00,ZBAA 172300Z AUTO 34006KT 2SM M04/M08 A2991 RMK T10401080 IEM_DS3505
ZBAA,2004-02-18 00:00,ZBAA 180000Z AUTO 25002KT 2SM M00/M04 A2994 RMK SLP138 T10011040 52011 IEM_DS3505
ZBAA,2004-02-18 01:00,ZBAA 180100Z AUTO 34006KT 2SM 02/M06 A2994 RMK T00201060 IEM_DS3505
ZBAA,2004-02-18 02:00,ZBAA 180200Z AUTO 04002KT 2SM 04/M06 A2994 RMK T00401060 IEM_DS3505
ZBAA,2004-02-18 03:00,ZBAA 180300Z AUTO 07004KT 2 1/2SM 07/M07 A2994 RMK SLP141 T00731071 52004 IEM_DS3505
ZBAA,2004-02-18 04:00,ZBAA 180400Z AUTO 11002KT 2SM 08/M03 A2994 RMK T00801030 IEM_DS3505
ZBAA,2004-02-18 05:00,ZBAA 180500Z AUTO 09002KT 1 1/2SM 11/M03 A2988 RMK T01101030 IEM_DS3505
ZBAA,2004-02-18 06:00,ZBAA 180600Z AUTO 16004KT 2 1/2SM 13/M05 A2988 RMK SLP114 T01321053 57027 IEM_DS3505
ZBAA,2004-02-18 08:00,ZBAA 180800Z AUTO 16004KT 1 1/4SM 13/M03 A2985 RMK T01301030 IEM_DS3505
ZBAA,2004-02-18 09:00,ZBAA 180900Z AUTO 20004KT 2 1/2SM 13/M05 A2985 RMK SLP109 T01291051 57005 IEM_DS3505
ZBAA,2004-02-18 10:00,ZBAA 181000Z AUTO 16002KT 1 1/4SM 10/M03 A2985 RMK T01001030 IEM_DS3505
ZBAA,2004-02-18 11:00,ZBAA 181100Z AUTO 00000KT 1 1/4SM 05/M04 A2988 RMK T00501040 IEM_DS3505
ZBAA,2004-02-18 12:00,ZBAA 181200Z AUTO 07002KT 2SM 06/M04 A2991 RMK SLP128 T00571044 52018 IEM_DS3505
ZBAA,2004-02-18 13:00,ZBAA 181300Z AUTO 00000KT 1SM 05/M02 A2991 RMK T00501020 IEM_DS3505
ZBAA,2004-02-18 14:00,ZBAA 181400Z AUTO 01002KT 1SM 03/M02 A2994 RMK T00301020 IEM_DS3505
ZBAA,2004-02-18 15:00,ZBAA 181500Z AUTO 07002KT 2SM 04/M04 A2994 RMK SLP139 T00431044 52012 IEM_DS3505
ZBAA,2004-02-18 16:00,ZBAA 181600Z AUTO 00000KT 1SM 04/M02 A2994 RMK T00401020 IEM_DS3505
ZBAA,2004-02-18 17:00,ZBAA 181700Z AUTO 35002KT 1SM 02/M04 A2997 RMK T00201040 IEM_DS3505
ZBAA,2004-02-18 18:00,ZBAA 181800Z AUTO 36002KT 2SM 02/M04 A2997 RMK SLP152 T00181038 52013 IEM_DS3505
ZBAA,2004-02-18 19:00,ZBAA 181900Z AUTO 34004KT 1SM 00/M05 A3000 RMK T00001050 IEM_DS3505
ZBAA,2004-02-18 20:00,ZBAA 182000Z AUTO 33006KT 1SM 00/M04 A3000 RMK T00001040 IEM_DS3505
ZBAA,2004-02-18 21:00,ZBAA 182100Z AUTO 02004KT 2SM 04/M04 A3000 RMK SLP160 T00351037 52008 IEM_DS3505
ZBAA,2004-02-18 22:00,ZBAA 182200Z AUTO 34004KT 1SM 00/M05 A3003 RMK T00001050 IEM_DS3505
ZBAA,2004-02-19 00:00,ZBAA 190000Z AUTO 04004KT 1 1/2SM 04/M05 RMK SLP185 T00371052 52024 IEM_DS3505
ZBAA,2004-02-19 01:00,ZBAA 190100Z AUTO 34002KT 1SM 04/M03 A3009 RMK T00401030 IEM_DS3505
ZBAA,2004-02-19 02:00,ZBAA 190200Z AUTO 01004KT 1SM 05/M03 A3012 RMK T00501030 IEM_DS3505
ZBAA,2004-02-19 03:00,ZBAA 190300Z AUTO 07006KT 4SM 07/M01 A3012 RMK SLP197 T00741008 52012 IEM_DS3505
ZBAA,2004-02-19 04:00,ZBAA 190400Z AUTO 09004KT 1 1/4SM 10/00 A3012 RMK T01000000 IEM_DS3505
ZBAA,2004-02-19 05:00,ZBAA 190500Z AUTO 12008KT 1 1/4SM 12/03 A3009 RMK T01200030 IEM_DS3505
ZBAA,2004-02-19 06:00,ZBAA 190600Z AUTO 14008KT 4SM 12/02 A3009 RMK SLP188 T01250021 57008 IEM_DS3505
ZBAA,2004-02-19 07:00,ZBAA 190700Z AUTO 13010KT 2SM 13/03 A3009 RMK T01300030 IEM_DS3505
ZBAA,2004-02-19 08:00,ZBAA 190800Z AUTO 14010KT 3SM 12/01 A3009 RMK T01200010 IEM_DS3505
ZBAA,2004-02-19 09:00,ZBAA 190900Z AUTO 11008KT 4SM 10/M00 A3012 RMK SLP197 T01001005 52009 IEM_DS3505
ZBAA,2004-02-19 10:00,ZBAA 191000Z AUTO 14004KT 3SM RMK IEM_DS3505
ZBAA,2004-02-19 11:00,ZBAA 191100Z AUTO 15004KT 3SM 09/M01 A3015 RMK T00901010 IEM_DS3505
ZBAA,2004-02-19 12:00,ZBAA 191200Z AUTO 04002KT 6SM 07/M03 A3018 RMK SLP218 T00661030 52020 IEM_DS3505
ZBAA,2004-02-19 13:00,ZBAA 191300Z AUTO 20004KT 08/M04 A3018 RMK T00801040 IEM_DS3505
ZBAA,2004-02-19 14:00,ZBAA 191400Z AUTO 15002KT 07/M04 A3021 RMK T00701040 IEM_DS3505
ZBAA,2004-02-19 15:00,ZBAA 191500Z AUTO 07004KT 6SM 06/M07 A3021 RMK SLP226 T00621070 52009 IEM_DS3505
ZBAA,2004-02-19 16:00,ZBAA 191600Z AUTO 19006KT 06/M07 A3021 RMK T00601070 IEM_DS3505
ZBAA,2004-02-19 17:00,ZBAA 191700Z AUTO 20002KT 05/M06 A3021 RMK T00501060 IEM_DS3505
ZBAA,2004-02-19 18:00,ZBAA 191800Z AUTO 09006KT 6SM 05/M07 A3021 RMK SLP226 T00471074 54000 IEM_DS3505
ZBAA,2004-02-19 19:00,ZBAA 191900Z AUTO 00000KT 03/M06 A3018 RMK T00301060 IEM_DS3505
ZBAA,2004-02-19 20:00,ZBAA 192000Z AUTO 00000KT 02/M05 A3018 RMK T00201050 IEM_DS3505
ZBAA,2004-02-19 21:00,ZBAA 192100Z AUTO 04004KT 7SM 03/M07 A3018 RMK SLP218 T00271069 57009 IEM_DS3505
ZBAA,2004-02-19 22:00,ZBAA 192200Z AUTO 00000KT 4SM 02/M05 A3018 RMK T00201050 IEM_DS3505
ZBAA,2004-02-19 23:00,ZBAA 192300Z AUTO 19002KT 3SM 02/M04 A3018 RMK T00201040 IEM_DS3505
ZBAA,2004-02-20 00:00,ZBAA 200000Z AUTO 07006KT 4SM 04/M02 A3021 RMK SLP225 T00451015 52007 IEM_DS3505
ZBAA,2004-02-20 01:00,ZBAA 200100Z AUTO 14006KT 3SM 05/00 A3021 RMK T00500000 IEM_DS3505
ZBAA,2004-02-20 02:00,ZBAA 200200Z AUTO 18006KT 2 1/2SM 05/01 A3021 RMK T00500010 IEM_DS3505
ZBAA,2004-02-20 03:00,ZBAA 200300Z AUTO 09006KT 4SM 04/M01 A3021 RMK SLP228 T00451007 52003 IEM_DS3505
ZBAA,2004-02-20 04:00,ZBAA 200400Z AUTO 15006KT 1 1/2SM 06/03 A3018 RMK T00600030 IEM_DS3505
ZBAA,2004-02-20 05:00,ZBAA 200500Z AUTO 14006KT 1 1/2SM 06/04 A3015 RMK T00600040 IEM_DS3505
ZBAA,2004-02-20 06:00,ZBAA 200600Z AUTO 07008KT 4SM 06/03 A3015 RMK SLP206 T00610026 57022 IEM_DS3505
ZBAA,2004-02-20 07:00,ZBAA 200700Z AUTO 09002KT 1 1/2SM 07/04 A3012 RMK T00700040 IEM_DS3505
ZBAA,2004-02-20 08:00,ZBAA 200800Z AUTO 00000KT 1 1/2SM 07/04 A3012 RMK T00700040 IEM_DS3505
ZBAA,2004-02-20 09:00,ZBAA 200900Z AUTO 00000KT 1 1/4SM 06/04 A3012 RMK T00600040 IEM_DS3505
ZBAA,2004-02-20 10:00,ZBAA 201000Z AUTO 02002KT 1SM 05/04 A3012 RMK T00500040 IEM_DS3505
ZBAA,2004-02-20 11:00,ZBAA 201100Z AUTO 01002KT 1SM 05/04 A3012 RMK T00500040 IEM_DS3505
ZBAA,2004-02-20 12:00,ZBAA 201200Z AUTO 34002KT 2 1/2SM 06/03 A3012 RMK SLP201 T00620034 52002 IEM_DS3505
ZBAA,2004-02-20 13:00,ZBAA 201300Z AUTO 35004KT 1SM 04/04 A3015 RMK T00400040 IEM_DS3505
ZBAA,2004-02-20 14:00,ZBAA 201400Z AUTO 34002KT 1SM 04/04 A3015 RMK T00400040 IEM_DS3505
ZBAA,2004-02-20 15:00,ZBAA 201500Z AUTO 02004KT 2SM 06/04 A3015 RMK SLP197 T00600037 57004 IEM_DS3505
ZBAA,2004-02-20 16:00,ZBAA 201600Z AUTO 32004KT 1SM 05/05 A3012 RMK T00500050 IEM_DS3505
ZBAA,2004-02-20 17:00,ZBAA 201700Z AUTO 36006KT 1SM 04/04 A3009 RMK T00400040 IEM_DS3505
ZBAA,2004-02-20 18:00,ZBAA 201800Z AUTO 07002KT 1 1/4SM 06/04 A3009 RMK 60008 SLP187 T00580040 57009 IEM_DS3505
ZBAA,2004-02-20 19:00,ZBAA 201900Z AUTO 35006KT 1SM 04/04 A3009 RMK T00400040 IEM_DS3505
ZBAA,2004-02-20 20:00,ZBAA 202000Z AUTO 34004KT 1SM 04/04 A3006 RMK T00400040 IEM_DS3505
ZBAA,2004-02-20 21:00,ZBAA 202100Z AUTO 36004KT 2SM 06/05 A3006 RMK 70014 SLP176 T00640046 57011 IEM_DS3505
ZBAA,2004-02-20 22:00,ZBAA 202200Z AUTO 35006KT 1/2SM 04/04 A3006 RMK T00400040 IEM_DS3505
ZBAA,2004-02-20 23:00,ZBAA 202300Z AUTO 33008KT 1SM 05/05 A3006 RMK T00500050 IEM_DS3505
ZBAA,2004-02-21 00:00,ZBAA 210000Z AUTO 34010KT 9SM 06/03 A3006 RMK 60016 70023 SLP177 T00600026 52001 IEM_DS3505
ZBAA,2004-02-21 01:00,ZBAA 210100Z AUTO 35010KT 2SM 05/05 A3009 RMK T00500050 IEM_DS3505
ZBAA,2004-02-21 01:30,ZBAA 210130Z AUTO 36008KT 4SM 05/05 A3009 RMK T00500050 IEM_DS3505
ZBAA,2004-02-21 02:00,ZBAA 210200Z AUTO 02012KT 7SM 05/04 A3009 RMK T00500040 IEM_DS3505
ZBAA,2004-02-21 02:30,ZBAA 210230Z AUTO 02012G23KT 7SM 05/03 A3009 RMK T00500030 IEM_DS3505
ZBAA,2004-02-21 03:00,ZBAA 210300Z AUTO 02014KT 7SM 05/03 A3009 RMK T00500030 IEM_DS3505
ZBAA,2004-02-21 04:00,ZBAA 210400Z AUTO 01010KT 7SM 05/03 A3009 RMK T00500030 IEM_DS3505
ZBAA,2004-02-21 05:00,ZBAA 210500Z AUTO 35010KT 7SM 06/03 A3006 RMK T00600030 IEM_DS3505
ZBAA,2004-02-21 06:00,ZBAA 210600Z AUTO 34012KT 7SM 08/03 A3003 RMK T00800030 IEM_DS3505
ZBAA,2004-02-21 07:00,ZBAA 210700Z AUTO 36010KT 7SM 07/01 A3006 RMK T00700010 IEM_DS3505
ZBAA,2004-02-21 08:00,ZBAA 210800Z AUTO 02008KT 7SM 07/00 A3006 RMK T00700000 IEM_DS3505
ZBAA,2004-02-21 09:00,ZBAA 210900Z AUTO 34010KT 19SM 08/M06 A3009 RMK SLP183 T00771060 52017 IEM_DS3505
ZBAA,2004-02-21 10:00,ZBAA 211000Z AUTO 02006KT 7SM 05/00 A3009 RMK T00500000 IEM_DS3505
ZBAA,2004-02-21 11:00,ZBAA 211100Z AUTO 02006KT 6SM 04/M01 A3012 RMK T00401010 IEM_DS3505
ZBAA,2004-02-21 12:00,ZBAA 211200Z AUTO 34010KT 19SM 06/M08 A3015 RMK SLP208 T00601075 52024 IEM_DS3505
ZBAA,2004-02-21 13:00,ZBAA 211300Z AUTO 34006KT 6SM 03/M04 A3015 RMK T00301040 IEM_DS3505
ZBAA,2004-02-21 14:00,ZBAA 211400Z AUTO 31012KT 6SM 04/M05 A3018 RMK T00401050 IEM_DS3505
ZBAA,2004-02-21 15:00,ZBAA 211500Z AUTO 34008KT 19SM 05/M09 A3018 RMK SLP219 T00511087 52011 IEM_DS3505
ZBAA,2004-02-21 16:00,ZBAA 211600Z AUTO 31014KT 6SM 03/M07 A3018 RMK T00301070 IEM_DS3505
ZBAA,2004-02-21 17:00,ZBAA 211700Z AUTO 32014KT 6SM 03/M08 A3018 RMK T00301080 IEM_DS3505
ZBAA,2004-02-21 18:00,ZBAA 211800Z AUTO 34008KT 19SM 04/M11 A3021 RMK SLP226 T00381113 52007 IEM_DS3505
ZBAA,2004-02-21 19:00,ZBAA 211900Z AUTO 33014KT 6SM 02/M12 A3021 RMK T00201120 IEM_DS3505
ZBAA,2004-02-21 20:00,ZBAA 212000Z AUTO 34008KT 6SM 00/M12 A3021 RMK T00001120 IEM_DS3505
ZBAA,2004-02-21 20:30,ZBAA 212030Z AUTO 33010KT 6SM 00/M12 A3021 RMK T00001120 IEM_DS3505
ZBAA,2004-02-21 21:00,ZBAA 212100Z AUTO 36008KT 19SM 03/M16 A3021 RMK 70020 SLP232 T00261163 52006 IEM_DS3505
ZBAA,2004-02-21 21:30,ZBAA 212130Z AUTO 32008KT 6SM M01/M12 A3021 RMK T10101120 IEM_DS3505
ZBAA,2004-02-21 22:00,ZBAA 212200Z AUTO 6SM M02/M12 A3021 RMK T10201120 IEM_DS3505
ZBAA,2004-02-21 23:00,ZBAA 212300Z AUTO 32010KT 6SM M01/M12 A3021 RMK T10101120 IEM_DS3505
ZBAA,2004-02-22 00:00,ZBAA 220000Z AUTO 36004KT 19SM 02/M15 A3024 RMK 70012 SLP237 T00241146 52005 IEM_DS3505
ZBAA,2004-02-22 01:00,ZBAA 220100Z AUTO 36004KT 6SM 03/M12 A3024 RMK T00301120 IEM_DS3505
ZBAA,2004-02-22 02:00,ZBAA 220200Z AUTO 34006KT 6SM 05/M13 A3024 RMK T00501130 IEM_DS3505
ZBAA,2004-02-22 03:00,ZBAA 220300Z AUTO 32010KT 16SM 06/M14 A3024 RMK SLP236 T00591141 57001 IEM_DS3505
ZBAA,2004-02-22 04:00,ZBAA 220400Z AUTO 35008KT 6SM 07/M12 A3021 RMK T00701120 IEM_DS3505
ZBAA,2004-02-22 05:00,ZBAA 220500Z AUTO 33008G19KT 6SM 08/M11 A3018 RMK T00801110 IEM_DS3505
ZBAA,2004-02-22 06:00,ZBAA 220600Z AUTO 34008KT 19SM 09/M17 A3015 RMK SLP211 T00901170 57024 IEM_DS3505
ZBAA,2004-02-22 07:00,ZBAA 220700Z AUTO 28010KT 6SM 09/M13 A3015 RMK T00901130 IEM_DS3505
ZBAA,2004-02-22 08:00,ZBAA 220800Z AUTO 28012KT 6SM 09/M12 A3012 RMK T00901120 IEM_DS3505
ZBAA,2004-02-22 09:00,ZBAA 220900Z AUTO 32010KT 19SM 09/M13 A3015 RMK SLP210 T00941130 57002 IEM_DS3505
ZBAA,2004-02-22 10:00,ZBAA 221000Z AUTO 32008KT 6SM 07/M08 A3015 RMK T00701080 IEM_DS3505
ZBAA,2004-02-22 11:00,ZBAA 221100Z AUTO 31004KT 6SM 05/M09 A3018 RMK T00501090 IEM_DS3505
ZBAA,2004-02-22 12:00,ZBAA 221200Z AUTO 22004KT 19SM 05/M07 A3018 RMK SLP224 T00471068 52014 IEM_DS3505
ZBAA,2004-02-22 13:00,ZBAA 221300Z AUTO 19004KT 6SM 03/M07 A3021 RMK T00301070 IEM_DS3505
ZBAA,2004-02-22 13:30,ZBAA 221330Z AUTO 21008KT 6SM 06/M05 A3021 RMK T00601050 IEM_DS3505
ZBAA,2004-02-22 14:00,ZBAA 221400Z AUTO 20004KT 6SM 05/M05 A3021 RMK T00501050 IEM_DS3505
ZBAA,2004-02-22 15:00,ZBAA 221500Z AUTO 22004KT 12SM 03/M04 A3021 RMK SLP229 T00291043 52005 IEM_DS3505
ZBAA,2004-02-22 16:00,ZBAA 221600Z AUTO 21004KT 6SM 03/M03 A3021 RMK T00301030 IEM_DS3505
ZBAA,2004-02-22 17:00,ZBAA 221700Z AUTO 00000KT 6SM 00/M04 A3021 RMK T00001040 IEM_DS3505
ZBAA,2004-02-22 18:00,ZBAA 221800Z AUTO 20004KT 9SM 02/M04 A3018 RMK SLP223 T00151035 57006 IEM_DS3505
ZBAA,2004-02-22 19:00,ZBAA 221900Z AUTO 06002KT 4SM M01/M03 A3018 RMK T10101030 IEM_DS3505
ZBAA,2004-02-22 20:00,ZBAA 222000Z AUTO 00000KT 4SM M02/M04 A3015 RMK T10201040 IEM_DS3505
ZBAA,2004-02-22 21:00,ZBAA 222100Z AUTO 27002KT 7SM 00/M03 A3015 RMK SLP212 T00011033 57011 IEM_DS3505
ZBAA,2004-02-22 22:00,ZBAA 222200Z AUTO 00000KT 3SM M03/M04 A3015 RMK T10301040 IEM_DS3505
ZBAA,2004-02-22 23:00,ZBAA 222300Z AUTO 03002KT 3SM M02/M04 A3015 RMK T10201040 IEM_DS3505
ZBAA,2004-02-23 00:00,ZBAA 230000Z AUTO 25004KT 2SM 00/M03 A3015 RMK SLP212 T00001029 54000 IEM_DS3505
ZBAA,2004-02-23 01:00,ZBAA 230100Z AUTO 08002KT 3SM 00/M02 A3015 RMK T00001020 IEM_DS3505
ZBAA,2004-02-23 02:00,ZBAA 230200Z AUTO 00000KT 3SM 02/M01 A3015 RMK T00201010 IEM_DS3505
ZBAA,2004-02-23 03:00,ZBAA 230300Z AUTO 18002KT 2 1/2SM 05/M01 A3012 RMK SLP201 T00531014 57011 IEM_DS3505
ZBAA,2004-02-23 04:00,ZBAA 230400Z AUTO 12006KT 2SM 05/00 A3009 RMK T00500000 IEM_DS3505
ZBAA,2004-02-23 05:00,ZBAA 230500Z AUTO 13006KT 2SM 06/01 A3006 RMK T00600010 IEM_DS3505
ZBAA,2004-02-23 06:00,ZBAA 230600Z AUTO 22006KT 4SM 08/01 A3003 RMK SLP165 T00780006 57036 IEM_DS3505
ZBAA,2004-02-23 07:00,ZBAA 230700Z AUTO 14004KT 2 1/2SM 08/01 A3000 RMK T00800010 IEM_DS3505
ZBAA,2004-02-23 08:00,ZBAA 230800Z AUTO 14006KT 2 1/2SM 08/03 A2997 RMK T00800030 IEM_DS3505
ZBAA,2004-02-23 09:00,ZBAA 230900Z AUTO 25004KT 6SM 10/M00 A2997 RMK SLP142 T00981001 57022 IEM_DS3505
ZBAA,2004-02-23 10:00,ZBAA 231000Z AUTO 05002KT 1 1/4SM 05/02 A2994 RMK T00500020 IEM_DS3505
ZBAA,2004-02-23 11:00,ZBAA 231100Z AUTO 1SM 04/02 A2994 RMK T00400020 IEM_DS3505
ZBAA,2004-02-23 12:00,ZBAA 231200Z AUTO 16002KT 2 1/2SM 06/00 A2994 RMK SLP138 T00640005 57005 IEM_DS3505
ZBAA,2004-02-23 13:00,ZBAA 231300Z AUTO 00000KT 1SM 02/01 A2994 RMK T00200010 IEM_DS3505
ZBAA,2004-02-23 14:00,ZBAA 231400Z AUTO 34002KT 1SM 02/01 A2994 RMK T00200010 IEM_DS3505
ZBAA,2004-02-23 15:00,ZBAA 231500Z AUTO 02002KT 2SM 03/00 A2994 RMK SLP141 T00320003 52003 IEM_DS3505
ZBAA,2004-02-23 16:00,ZBAA 231600Z AUTO 27006KT 1SM 03/01 A2997 RMK T00300010 IEM_DS3505
ZBAA,2004-02-23 17:00,ZBAA 231700Z AUTO 1SM 03/00 A2994 RMK T00300000 IEM_DS3505
ZBAA,2004-02-23 18:00,ZBAA 231800Z AUTO 18002KT 2SM 03/M00 A2994 RMK SLP137 T00341001 57003 IEM_DS3505
ZBAA,2004-02-23 19:00,ZBAA 231900Z AUTO 29010KT 1 1/4SM 06/M01 A2994 RMK T00601010 IEM_DS3505
ZBAA,2004-02-23 20:00,ZBAA 232000Z AUTO 29014G23KT 6SM 08/M09 A2994 RMK T00801090 IEM_DS3505
ZBAA,2004-02-23 21:00,ZBAA 232100Z AUTO 32012KT 12SM 09/M15 A2997 RMK SLP150 T00921152 52013 IEM_DS3505
ZBAA,2004-02-23 22:00,ZBAA 232200Z AUTO 29008KT 6SM 06/M14 A3000 RMK T00601140 IEM_DS3505
ZBAA,2004-02-23 23:00,ZBAA 232300Z AUTO 29008KT 6SM 05/M13 A3000 RMK T00501130 IEM_DS3505
ZBAA,2004-02-24 00:00,ZBAA 240000Z AUTO 34004KT 19SM 07/M16 A3003 RMK SLP170 T00711162 52020 IEM_DS3505
ZBAA,2004-02-24 01:00,ZBAA 240100Z AUTO 6SM 09/M09 A3003 RMK T00901090 IEM_DS3505
ZBAA,2004-02-24 02:00,ZBAA 240200Z AUTO 6SM 10/M13 A3003 RMK T01001130 IEM_DS3505
ZBAA,2004-02-24 03:00,ZBAA 240300Z AUTO 32004KT 19SM 12/M17 A3000 RMK SLP159 T01151168 57011 IEM_DS3505
ZBAA,2004-02-24 04:00,ZBAA 240400Z AUTO 28004KT 6SM 12/M13 A2997 RMK T01201130 IEM_DS3505
ZBAA,2004-02-24 05:00,ZBAA 240500Z AUTO 17006KT 6SM 12/M12 A2994 RMK T01201120 IEM_DS3505
ZBAA,2004-02-24 06:00,ZBAA 240600Z AUTO 22010KT 9SM 13/M08 A2988 RMK SLP121 T01301081 57038 IEM_DS3505
ZBAA,2004-02-24 06:30,ZBAA 240630Z AUTO 20012KT 6SM 13/M11 A2988 RMK T01301110 IEM_DS3505
ZBAA,2004-02-24 07:00,ZBAA 240700Z AUTO 19010KT 6SM 14/M06 A2985 RMK T01401060 IEM_DS3505
ZBAA,2004-02-24 08:00,ZBAA 240800Z AUTO 21010KT 6SM 14/M11 A2983 RMK T01401110 IEM_DS3505
ZBAA,2004-02-24 09:00,ZBAA 240900Z AUTO 22010KT 9SM 12/M08 A2983 RMK SLP098 T01251080 57022 IEM_DS3505
ZBAA,2004-02-24 10:00,ZBAA 241000Z AUTO 19008KT 6SM 11/M06 A2983 RMK T01101060 IEM_DS3505
ZBAA,2004-02-24 11:00,ZBAA 241100Z AUTO 18006KT 08/M04 A2980 RMK T00801040 IEM_DS3505
ZBAA,2004-02-24 12:00,ZBAA 241200Z AUTO 22004KT 7SM 09/M05 A2980 RMK SLP091 T00931046 57008 IEM_DS3505
ZBAA,2004-02-24 13:00,ZBAA 241300Z AUTO 05006KT 08/M02 A2980 RMK T00801020 IEM_DS3505
ZBAA,2004-02-24 14:00,ZBAA 241400Z AUTO 04002KT 07/M01 A2980 RMK T00701010 IEM_DS3505
ZBAA,2004-02-24 15:00,ZBAA 241500Z AUTO 25002KT 6SM 09/M04 A2980 RMK SLP083 T00911044 57007 IEM_DS3505
ZBAA,2004-02-24 16:00,ZBAA 241600Z AUTO 31004KT 05/M01 A2980 RMK T00501010 IEM_DS3505
ZBAA,2004-02-24 17:00,ZBAA 241700Z AUTO 29012KT 09/M08 A2983 RMK T00901080 IEM_DS3505
ZBAA,2004-02-24 18:00,ZBAA 241800Z AUTO 32019KT 6SM 09/M13 A2985 RMK SLP108 T00941130 52025 IEM_DS3505
ZBAA,2004-02-24 19:00,ZBAA 241900Z AUTO 28012KT 6SM 07/M15 A2988 RMK T00701150 IEM_DS3505
ZBAA,2004-02-24 20:00,ZBAA 242000Z AUTO 31027KT 6SM 06/M18 A2988 RMK T00601180 IEM_DS3505
ZBAA,2004-02-24 21:00,ZBAA 242100Z AUTO 34008G37KT 12SM 05/M23 A2994 RMK SLP138 T00511228 52029 IEM_DS3505
ZBAA,2004-02-24 22:00,ZBAA 242200Z AUTO 30016G25KT 6SM 03/M23 A2997 RMK T00301230 IEM_DS3505
ZBAA,2004-02-24 23:00,ZBAA 242300Z AUTO 31027KT 6SM 02/M22 A2997 RMK T00201220 IEM_DS3505
ZBAA,2004-02-25 00:00,ZBAA 250000Z AUTO 34014KT 19SM 03/M23 A3003 RMK SLP167 T00271228 52029 IEM_DS3505
ZBAA,2004-02-25 01:00,ZBAA 250100Z AUTO 31019KT 6SM 03/M18 A3003 RMK T00301180 IEM_DS3505
ZBAA,2004-02-25 02:00,ZBAA 250200Z AUTO 31021G31KT 6SM 04/M16 A3003 RMK T00401160 IEM_DS3505
ZBAA,2004-02-25 03:00,ZBAA 250300Z AUTO 32014G41KT 19SM 04/M21 A3003 RMK SLP180 T00421208 52013 IEM_DS3505
ZBAA,2004-02-25 04:00,ZBAA 250400Z AUTO 33021G33KT 6SM 06/M20 A3003 RMK T00601200 IEM_DS3505
ZBAA,2004-02-25 05:00,ZBAA 250500Z AUTO 34016G25KT 6SM 07/M19 A3000 RMK T00701190 IEM_DS3505
ZBAA,2004-02-25 06:00,ZBAA 250600Z AUTO 32017KT 19SM 06/M21 A3000 RMK SLP163 T00601211 57017 IEM_DS3505
ZBAA,2004-02-25 07:00,ZBAA 250700Z AUTO 28017G29KT 6SM 07/M18 A3000 RMK T00701180 IEM_DS3505
ZBAA,2004-02-25 08:00,ZBAA 250800Z AUTO 28016KT 6SM 07/M18 A3000 RMK T00701180 IEM_DS3505
ZBAA,2004-02-25 09:00,ZBAA 250900Z AUTO 34008KT 19SM 07/M23 A3000 RMK SLP157 T00671226 57006 IEM_DS3505
ZBAA,2004-02-25 10:00,ZBAA 251000Z AUTO 34006KT 6SM 04/M19 A3000 RMK T00401190 IEM_DS3505
ZBAA,2004-02-25 11:00,ZBAA 251100Z AUTO 04002KT 6SM 02/M13 A3000 RMK T00201130 IEM_DS3505
ZBAA,2004-02-25 13:00,ZBAA 251300Z AUTO 09002KT 6SM 00/M13 A3000 RMK T00001130 IEM_DS3505
ZBAA,2004-02-25 14:00,ZBAA 251400Z AUTO 11004KT 6SM 01/M11 A3000 RMK T00101110 IEM_DS3505
ZBAA,2004-02-25 15:00,ZBAA 251500Z AUTO 29004KT 9SM 03/M16 A3003 RMK SLP179 T00301160 52017 IEM_DS3505
ZBAA,2004-02-25 16:00,ZBAA 251600Z AUTO 20008KT 6SM 02/M15 A3000 RMK T00201150 IEM_DS3505
ZBAA,2004-02-25 17:00,ZBAA 251700Z AUTO 19010KT 6SM 02/M13 A3000 RMK T00201130 IEM_DS3505
ZBAA,2004-02-25 18:00,ZBAA 251800Z AUTO 27004KT 12SM 03/M15 A3000 RMK SLP171 T00321153 57008 IEM_DS3505
ZBAA,2004-02-25 19:00,ZBAA 251900Z AUTO 31006KT 6SM 02/M15 A3000 RMK T00201150 IEM_DS3505
ZBAA,2004-02-25 20:00,ZBAA 252000Z AUTO 27002KT 6SM 01/M14 A3000 RMK T00101140 IEM_DS3505
ZBAA,2004-02-25 21:00,ZBAA 252100Z AUTO 29012KT 19SM 05/M20 A3003 RMK SLP172 T00481203 52002 IEM_DS3505
ZBAA,2004-02-25 22:00,ZBAA 252200Z AUTO 35012KT 6SM 01/M16 A3006 RMK T00101160 IEM_DS3505
ZBAA,2004-02-25 23:00,ZBAA 252300Z AUTO 36012KT 6SM 00/M17 A3006 RMK T00001170 IEM_DS3505
ZBAA,2004-02-26 00:00,ZBAA 260000Z AUTO 36002KT 12SM 03/M19 A3009 RMK SLP189 T00321187 52016 IEM_DS3505
ZBAA,2004-02-26 01:00,ZBAA 260100Z AUTO 6SM 05/M18 A3009 RMK T00501180 IEM_DS3505
ZBAA,2004-02-26 02:00,ZBAA 260200Z AUTO 33010KT 6SM 06/M20 A3009 RMK T00601200 IEM_DS3505
ZBAA,2004-02-26 03:00,ZBAA 260300Z AUTO 36014KT 19SM 08/M20 A3012 RMK SLP193 T00751199 52004 IEM_DS3505
ZBAA,2004-02-26 04:00,ZBAA 260400Z AUTO 33006KT 6SM 08/M18 A3012 RMK T00801180 IEM_DS3505
ZBAA,2004-02-26 05:00,ZBAA 260500Z AUTO 32008G17KT 6SM 09/M18 A3009 RMK T00901180 IEM_DS3505
ZBAA,2004-02-26 06:00,ZBAA 260600Z AUTO 32014G21KT 19SM 10/M20 A3006 RMK SLP181 T00951205 57011 IEM_DS3505
ZBAA,2004-02-26 07:00,ZBAA 260700Z AUTO 29012KT 6SM 10/M19 A3006 RMK T01001190 IEM_DS3505
ZBAA,2004-02-26 08:00,ZBAA 260800Z AUTO 27008KT 6SM 10/M18 A3006 RMK T01001180 IEM_DS3505
ZBAA,2004-02-26 09:00,ZBAA 260900Z AUTO 25006KT 19SM 10/M16 A3006 RMK SLP178 T00971164 57003 IEM_DS3505
ZBAA,2004-02-26 10:00,ZBAA 261000Z AUTO 05002KT 6SM 07/M13 A3006 RMK T00701130 IEM_DS3505
ZBAA,2004-02-26 11:00,ZBAA 261100Z AUTO 13002KT 6SM 03/M13 A3009 RMK T00301130 IEM_DS3505
ZBAA,2004-02-26 12:00,ZBAA 261200Z AUTO 20002KT 19SM 06/M12 A3009 RMK SLP191 T00581117 52012 IEM_DS3505
ZBAA,2004-02-26 13:00,ZBAA 261300Z AUTO 14002KT 6SM 02/M10 A3009 RMK T00201100 IEM_DS3505
ZBAA,2004-02-26 14:00,ZBAA 261400Z AUTO 13002KT 6SM 02/M08 A3009 RMK T00201080 IEM_DS3505
ZBAA,2004-02-26 15:00,ZBAA 261500Z AUTO 20002KT 16SM 03/M11 A3009 RMK SLP196 T00311108 52005 IEM_DS3505
ZBAA,2004-02-26 16:00,ZBAA 261600Z AUTO 08004KT 6SM 02/M09 A3009 RMK T00201090 IEM_DS3505
ZBAA,2004-02-26 17:00,ZBAA 261700Z AUTO 16004KT 6SM 00/M07 A3006 RMK T00001070 IEM_DS3505
ZBAA,2004-02-26 18:00,ZBAA 261800Z AUTO 22006KT 12SM 02/M09 A3006 RMK SLP179 T00251094 57016 IEM_DS3505
ZBAA,2004-02-26 19:00,ZBAA 261900Z AUTO 11004KT 6SM M02/M07 A3003 RMK T10201070 IEM_DS3505
ZBAA,2004-02-26 20:00,ZBAA 262000Z AUTO 00000KT 6SM M02/M07 A3003 RMK T10201070 IEM_DS3505
ZBAA,2004-02-26 21:00,ZBAA 262100Z AUTO 20002KT 12SM 01/M09 A3000 RMK SLP153 T00091086 57026 IEM_DS3505
ZBAA,2004-02-26 22:00,ZBAA 262200Z AUTO 09004KT 6SM M02/M06 A2997 RMK T10201060 IEM_DS3505
ZBAA,2004-02-26 23:00,ZBAA 262300Z AUTO 10002KT 5SM A2997 RMK IEM_DS3505
ZBAA,2004-02-27 00:00,ZBAA 270000Z AUTO 12002KT 5SM A2997 RMK IEM_DS3505
ZBAA,2004-02-27 01:00,ZBAA 270100Z AUTO 00000KT 01/M06 A2997 RMK T00101060 IEM_DS3505
ZBAA,2004-02-27 02:00,ZBAA 270200Z AUTO 13004KT 03/M06 A2994 RMK T00301060 IEM_DS3505
ZBAA,2004-02-27 03:00,ZBAA 270300Z AUTO 18004KT 9SM 05/M08 A2991 RMK SLP130 T00481083 57018 IEM_DS3505
ZBAA,2004-02-27 04:00,ZBAA 270400Z AUTO 05/M06 A2988 RMK T00501060 IEM_DS3505
ZBAA,2004-02-27 05:00,ZBAA 270500Z AUTO 06/M06 A2985 RMK T00601060 IEM_DS3505
ZBAA,2004-02-27 06:00,ZBAA 270600Z AUTO 18004KT 7SM 07/M09 A2980 RMK SLP088 T00711088 57041 IEM_DS3505
ZBAA,2004-02-27 07:00,ZBAA 270700Z AUTO 08002KT 08/M05 A2977 RMK T00801050 IEM_DS3505
ZBAA,2004-02-27 08:00,ZBAA 270800Z AUTO 08/M06 A2974 RMK T00801060 IEM_DS3505
ZBAA,2004-02-27 09:00,ZBAA 270900Z AUTO 29002KT 9SM 08/M07 A2974 RMK SLP067 T00801072 57021 IEM_DS3505
ZBAA,2004-02-27 10:00,ZBAA 271000Z AUTO 02002KT 3SM 05/M05 A2974 RMK T00501050 IEM_DS3505
ZBAA,2004-02-27 11:00,ZBAA 271100Z AUTO 36004KT 3SM 03/M05 A2974 RMK T00301050 IEM_DS3505
ZBAA,2004-02-27 12:00,ZBAA 271200Z AUTO 00000KT 7SM 05/M06 A2974 RMK SLP066 T00501062 57001 IEM_DS3505
ZBAA,2004-02-27 13:00,ZBAA 271300Z AUTO 34004KT 2 1/2SM 02/M05 A2974 RMK T00201050 IEM_DS3505
ZBAA,2004-02-27 14:00,ZBAA 271400Z AUTO 00000KT 2 1/2SM 02/M04 A2971 RMK T00201040 IEM_DS3505
ZBAA,2004-02-27 15:00,ZBAA 271500Z AUTO 02002KT 3SM 02/M05 A2971 RMK SLP059 T00241052 57007 IEM_DS3505
ZBAA,2004-02-27 16:00,ZBAA 271600Z AUTO 35004KT 2 1/2SM 00/M05 A2971 RMK T00001050 IEM_DS3505
ZBAA,2004-02-27 17:00,ZBAA 271700Z AUTO 33004KT 2SM 00/M05 A2971 RMK T00001050 IEM_DS3505
ZBAA,2004-02-27 18:00,ZBAA 271800Z AUTO 02002KT 5SM 03/M06 A2968 RMK SLP048 T00311065 57011 IEM_DS3505
ZBAA,2004-02-27 19:00,ZBAA 271900Z AUTO 31008KT 2 1/2SM 01/M05 A2968 RMK T00101050 IEM_DS3505
ZBAA,2004-02-27 20:00,ZBAA 272000Z AUTO 33010KT 3SM 01/M04 A2971 RMK T00101040 IEM_DS3505
ZBAA,2004-02-27 21:00,ZBAA 272100Z AUTO 36008KT 6SM 05/M08 A2971 RMK SLP056 T00531085 52008 IEM_DS3505
ZBAA,2004-02-27 22:00,ZBAA 272200Z AUTO 32012KT 6SM 07/M06 A2974 RMK T00701060 IEM_DS3505
ZBAA,2004-02-27 23:00,ZBAA 272300Z AUTO 31019KT 6SM 08/M07 A2977 RMK T00801070 IEM_DS3505
ZBAA,2004-02-28 00:00,ZBAA 280000Z AUTO 36021G29KT 9SM 08/M13 A2985 RMK SLP093 T00811134 52037 IEM_DS3505
ZBAA,2004-02-28 01:00,ZBAA 280100Z AUTO 33023G37KT 6SM 07/M14 A2988 RMK T00701140 IEM_DS3505
ZBAA,2004-02-28 02:00,ZBAA 280200Z AUTO 33023G37KT 6SM 08/M15 A2991 RMK T00801150 IEM_DS3505
ZBAA,2004-02-28 03:00,ZBAA 280300Z AUTO 34016G37KT 19SM 08/M15 A2994 RMK SLP141 T00751152 52048 IEM_DS3505
ZBAA,2004-02-28 04:00,ZBAA 280400Z AUTO 32029G45KT 6SM 09/M17 A2994 RMK T00901170 IEM_DS3505
ZBAA,2004-02-28 05:00,ZBAA 280500Z AUTO 32029G43KT 6SM 09/M17 A2994 RMK T00901170 IEM_DS3505
ZBAA,2004-02-28 06:00,ZBAA 280600Z AUTO 32017KT 19SM 08/M18 A2997 RMK SLP147 T00831184 4////0023 52006 IEM_DS3505
ZBAA,2004-02-28 07:00,ZBAA 280700Z AUTO 32023G35KT 6SM 09/M24 A3000 RMK T00901240 IEM_DS3505
ZBAA,2004-02-28 09:00,ZBAA 280900Z AUTO 36010G31KT 19SM 07/M22 A3006 RMK SLP179 T00741221 52032 IEM_DS3505
ZBAA,2004-02-28 10:00,ZBAA 281000Z AUTO 34010KT 6SM 05/M21 A3009 RMK T00501210 IEM_DS3505
ZBAA,2004-02-28 11:00,ZBAA 281100Z AUTO 36010KT 6SM 03/M19 A3012 RMK T00301190 IEM_DS3505
ZBAA,2004-02-28 12:00,ZBAA 281200Z AUTO 02008KT 19SM 05/M24 A3018 RMK SLP212 T00461243 52033 IEM_DS3505
ZBAA,2004-02-28 13:00,ZBAA 281300Z AUTO 36006KT 6SM 00/M17 A3021 RMK T00001170 IEM_DS3505
ZBAA,2004-02-28 14:00,ZBAA 281400Z AUTO 01010KT 6SM 01/M19 A3021 RMK T00101190 IEM_DS3505
ZBAA,2004-02-28 15:00,ZBAA 281500Z AUTO 04006KT 19SM 01/M20 A3024 RMK SLP236 T00141196 52023 IEM_DS3505
ZBAA,2004-02-28 16:00,ZBAA 281600Z AUTO 36006KT 6SM M02/M19 A3024 RMK T10201190 IEM_DS3505
ZBAA,2004-02-28 17:00,ZBAA 281700Z AUTO 35008KT 6SM M06/M16 A3024 RMK T10601160 IEM_DS3505
ZBAA,2004-02-28 18:00,ZBAA 281800Z AUTO 09002KT 12SM M01/M20 A3024 RMK SLP242 T10071197 52006 IEM_DS3505
ZBAA,2004-02-28 19:00,ZBAA 281900Z AUTO 00000KT 6SM M04/M14 A3024 RMK T10401140 IEM_DS3505
ZBAA,2004-02-28 20:00,ZBAA 282000Z AUTO 33002KT 6SM M04/M17 A3024 RMK T10401170 IEM_DS3505
ZBAA,2004-02-28 21:00,ZBAA 282100Z AUTO 25004KT 12SM M02/M17 A3024 RMK SLP249 T10211173 52007 IEM_DS3505
ZBAA,2004-02-28 22:00,ZBAA 282200Z AUTO 24004KT 6SM M03/M16 A3027 RMK T10301160 IEM_DS3505
ZBAA,2004-02-28 23:00,ZBAA 282300Z AUTO 00000KT 6SM M04/M12 A3024 RMK T10401120 IEM_DS3505
ZBAA,2004-02-29 00:00,ZBAA 290000Z AUTO 34002KT 7SM M01/M16 A3024 RMK SLP235 T10071160 57014 IEM_DS3505
ZBAA,2004-02-29 01:00,ZBAA 290100Z AUTO 01002KT 6SM M01/M14 A3024 RMK T10101140 IEM_DS3505
ZBAA,2004-02-29 02:00,ZBAA 290200Z AUTO 11002KT 6SM 00/M14 A3024 RMK T00001140 IEM_DS3505
ZBAA,2004-02-29 03:00,ZBAA 290300Z AUTO 20008KT 16SM 03/M22 A3024 RMK SLP238 T00321216 52003 IEM_DS3505
ZBAA,2004-02-29 04:00,ZBAA 290400Z AUTO 11004KT 6SM 03/M14 A3021 RMK T00301140 IEM_DS3505
ZBAA,2004-02-29 05:00,ZBAA 290500Z AUTO 20010KT 6SM 05/M20 A3018 RMK T00501200 IEM_DS3505
ZBAA,2004-02-29 06:00,ZBAA 290600Z AUTO 22008KT 16SM 05/M15 A3015 RMK SLP207 T00521147 57031 IEM_DS3505
ZBAA,2004-02-29 07:00,ZBAA 290700Z AUTO 20006KT 6SM 05/M16 A3012 RMK T00501160 IEM_DS3505
ZBAA,2004-02-29 08:00,ZBAA 290800Z AUTO 17008KT 6SM 05/M15 A3009 RMK T00501150 IEM_DS3505
ZBAA,2004-02-29 09:00,ZBAA 290900Z AUTO 22008KT 12SM 04/M09 A3009 RMK SLP192 T00421091 57015 IEM_DS3505
ZBAA,2004-02-29 10:00,ZBAA 291000Z AUTO 18006KT 6SM 02/M10 A3009 RMK T00201100 IEM_DS3505
ZBAA,2004-02-29 11:00,ZBAA 291100Z AUTO 16006KT 6SM 02/M07 A3012 RMK T00201070 IEM_DS3505
ZBAA,2004-02-29 12:00,ZBAA 291200Z AUTO 14002KT 12SM 02/M09 A3012 RMK SLP205 T00241086 52013 IEM_DS3505
ZBAA,2004-02-29 13:00,ZBAA 291300Z AUTO 12002KT 6SM M01/M06 A3015 RMK T10101060 IEM_DS3505
ZBAA,2004-02-29 14:00,ZBAA 291400Z AUTO 11004KT 6SM M01/M06 A3018 RMK T10101060 IEM_DS3505
ZBAA,2004-02-29 15:00,ZBAA 291500Z AUTO 07004KT 9SM 00/M08 A3021 RMK SLP227 T00021080 52022 IEM_DS3505
ZBAA,2004-02-29 16:00,ZBAA 291600Z AUTO 04002KT 4SM M02/M06 A3021 RMK T10201060 IEM_DS3505
ZBAA,2004-02-29 17:00,ZBAA 291700Z AUTO 01002KT 4SM M02/M06 A3021 RMK T10201060 IEM_DS3505
ZBAA,2004-02-29 18:00,ZBAA 291800Z AUTO 02004KT 7SM M01/M08 A3021 RMK SLP225 T10141079 57002 IEM_DS3505
ZBAA,2004-02-29 19:00,ZBAA 291900Z AUTO 33006KT 4SM M04/M07 A3021 RMK T10401070 IEM_DS3505
ZBAA,2004-02-29 20:00,ZBAA 292000Z AUTO 33006KT 4SM M03/M08 A3018 RMK T10301080 IEM_DS3505
ZBAA,2004-02-29 21:00,ZBAA 292100Z AUTO 02004KT 7SM M02/M09 A3021 RMK SLP224 T10161087 57001 IEM_DS3505
ZBAA,2004-02-29 22:00,ZBAA 292200Z AUTO 01008KT 6SM M02/M08 A3021 RMK T10201080 IEM_DS3505
ZBAA,2004-02-29 23:00,ZBAA 292300Z AUTO 36008KT 6SM M05/M09 A3024 RMK T10501090 IEM_DS3505
ZBAA,2004-03-01 00:00,ZBAA 010000Z AUTO 04006KT 9SM 00/M13 A3027 RMK SLP249 T00051128 52025 IEM_DS3505
ZBAA,2004-03-01 01:00,ZBAA 010100Z AUTO 03006KT 6SM 02/M14 A3030 RMK T00201140 IEM_DS3505
ZBAA,2004-03-01 02:00,ZBAA 010200Z AUTO 02004KT 6SM 03/M19 A3030 RMK T00301190 IEM_DS3505
ZBAA,2004-03-01 03:00,ZBAA 010300Z AUTO 04006KT 19SM 04/M20 A3027 RMK SLP253 T00361205 52004 IEM_DS3505
ZBAA,2004-03-01 04:00,ZBAA 010400Z AUTO 31008KT 6SM 05/M19 A3027 RMK T00501190 IEM_DS3505
ZBAA,2004-03-01 05:00,ZBAA 010500Z AUTO 30008KT 6SM 06/M20 A3021 RMK T00601200 IEM_DS3505
ZBAA,2004-03-01 06:00,ZBAA 010600Z AUTO 04010KT 19SM 06/M23 A3018 RMK SLP217 T00611231 57036 IEM_DS3505
ZBAA,2004-03-01 06:30,ZBAA 010630Z AUTO 30008G19KT 6SM 07/M22 A3015 RMK T00701220 IEM_DS3505
ZBAA,2004-03-01 07:00,ZBAA 010700Z AUTO 29008G19KT 6SM 07/M22 A3015 RMK T00701220 IEM_DS3505
ZBAA,2004-03-01 07:30,ZBAA 010730Z AUTO 31012KT 6SM 07/M23 A3015 RMK T00701230 IEM_DS3505
ZBAA,2004-03-01 08:00,ZBAA 010800Z AUTO 29010G19KT 6SM 07/M23 A3015 RMK T00701230 IEM_DS3505
ZBAA,2004-03-01 08:30,ZBAA 010830Z AUTO 29014KT 6SM 07/M23 A3015 RMK T00701230 IEM_DS3505
ZBAA,2004-03-01 09:00,ZBAA 010900Z AUTO 20002KT 19SM 07/M24 A3015 RMK SLP209 T00691236 57008 IEM_DS3505
ZBAA,2004-03-01 10:00,ZBAA 011000Z AUTO 31004KT 6SM 06/M23 A3015 RMK T00601230 IEM_DS3505
ZBAA,2004-03-01 11:00,ZBAA 011100Z AUTO 28006KT 6SM 04/M20 A3018 RMK T00401200 IEM_DS3505
ZBAA,2004-03-01 11:30,ZBAA 011130Z AUTO 20006KT 6SM 04/M16 A3021 RMK T00401160 IEM_DS3505
ZBAA,2004-03-01 12:00,ZBAA 011200Z AUTO 22006KT 12SM 02/M12 A3021 RMK SLP235 T00221116 52026 IEM_DS3505
ZBAA,2004-03-01 13:00,ZBAA 011300Z AUTO 19006KT 6SM 01/M10 A3024 RMK T00101100 IEM_DS3505
ZBAA,2004-03-01 14:00,ZBAA 011400Z AUTO 20008KT 6SM 02/M07 A3024 RMK T00201070 IEM_DS3505
ZBAA,2004-03-01 15:00,ZBAA 011500Z AUTO 22006KT 9SM M00/M06 A3027 RMK SLP246 T10011065 52011 IEM_DS3505
ZBAA,2004-03-01 16:12,ZBAA 011612Z AUTO 11010KT 6SM M02/M05 A3027 RMK T10201050 IEM_DS3505
ZBAA,2004-03-01 17:00,ZBAA 011700Z AUTO 12012KT 6SM M03/M05 A3027 RMK T10301050 IEM_DS3505
ZBAA,2004-03-01 18:00,ZBAA 011800Z AUTO 09008KT 6SM M03/M06 A3030 RMK SLP253 T10311062 52007 IEM_DS3505
ZBAA,2004-03-01 19:00,ZBAA 011900Z AUTO 13002KT 6SM M04/M07 A3030 RMK T10401070 IEM_DS3505
ZBAA,2004-03-01 20:00,ZBAA 012000Z AUTO 00000KT 6SM M04/M07 A3030 RMK T10401070 IEM_DS3505
ZBAA,2004-03-01 21:00,ZBAA 012100Z AUTO 04004KT 6SM M04/M07 A3030 RMK SLP257 T10351074 52004 IEM_DS3505
ZBAA,2004-03-01 22:00,ZBAA 012200Z AUTO 35002KT 7SM M04/M06 A3030 RMK T10401060 IEM_DS3505
ZBAA,2004-03-01 23:00,ZBAA 012300Z AUTO 00000KT 5SM A3030 RMK IEM_DS3505
ZBAA,2004-03-02 00:00,ZBAA 020000Z AUTO 07004KT 6SM M02/M07 A3030 RMK SLP262 T10251074 52004 IEM_DS3505
ZBAA,2004-03-02 01:00,ZBAA 020100Z AUTO 14002KT 6SM M02/M06 A3030 RMK T10201060 IEM_DS3505
ZBAA,2004-03-02 02:00,ZBAA 020200Z AUTO 12004KT 6SM 00/M05 A3030 RMK T00001050 IEM_DS3505
ZBAA,2004-03-02 03:00,ZBAA 020300Z AUTO 04004KT 7SM 01/M08 A3027 RMK SLP252 T00081084 57010 IEM_DS3505
ZBAA,2004-03-02 04:00,ZBAA 020400Z AUTO 6SM 02/M13 A3024 RMK T00201130 IEM_DS3505
ZBAA,2004-03-02 05:00,ZBAA 020500Z AUTO 6SM 03/M14 A3021 RMK T00301140 IEM_DS3505
ZBAA,2004-03-02 06:00,ZBAA 020600Z AUTO 11004KT 12SM 03/M14 A3018 RMK SLP219 T00261136 57033 IEM_DS3505
ZBAA,2004-03-02 07:00,ZBAA 020700Z AUTO 6SM 04/M17 A3015 RMK T00401170 IEM_DS3505
ZBAA,2004-03-02 08:00,ZBAA 020800Z AUTO 32012KT 6SM 03/M15 A3015 RMK T00301150 IEM_DS3505
ZBAA,2004-03-02 09:00,ZBAA 020900Z AUTO 32012KT 16SM 03/M16 A3015 RMK SLP220 T00301155 52001 IEM_DS3505
ZBAA,2004-03-02 10:00,ZBAA 021000Z AUTO 28012G21KT 6SM 02/M14 A3018 RMK T00201140 IEM_DS3505
ZBAA,2004-03-02 11:00,ZBAA 021100Z AUTO 27008KT 6SM 01/M14 A3021 RMK T00101140 IEM_DS3505
ZBAA,2004-03-02 12:00,ZBAA 021200Z AUTO 25004KT 12SM 01/M15 A3021 RMK SLP235 T00091150 52015 IEM_DS3505
ZBAA,2004-03-02 13:00,ZBAA 021300Z AUTO 26004KT 6SM 01/M14 A3021 RMK T00101140 IEM_DS3505
ZBAA,2004-03-02 14:00,ZBAA 021400Z AUTO 29016G27KT 6SM 01/M25 A3024 RMK T00101250 IEM_DS3505
ZBAA,2004-03-02 15:00,ZBAA 021500Z AUTO 32019G29KT 9SM 00/M29 A3027 RMK SLP261 T00011289 52026 IEM_DS3505
ZBAA,2004-03-02 16:00,ZBAA 021600Z AUTO 33021G31KT 6SM M01/M28 A3030 RMK T10101280 IEM_DS3505
ZBAA,2004-03-02 17:00,ZBAA 021700Z AUTO 34016G25KT 6SM M02/M27 A3030 RMK T10201270 IEM_DS3505
ZBAA,2004-03-02 18:00,ZBAA 021800Z AUTO 34004KT 19SM M02/M27 A3027 RMK SLP256 T10181273 57005 IEM_DS3505
ZBAA,2004-03-02 19:00,ZBAA 021900Z AUTO 35004KT 6SM M05/M24 A3024 RMK T10501240 IEM_DS3505
ZBAA,2004-03-02 20:00,ZBAA 022000Z AUTO 19002KT 6SM M06/M22 A3021 RMK T10601220 IEM_DS3505
ZBAA,2004-03-02 21:00,ZBAA 022100Z AUTO 36002KT 19SM M03/M26 A3018 RMK SLP221 T10321260 57034 IEM_DS3505
ZBAA,2004-03-02 22:00,ZBAA 022200Z AUTO 6SM M06/M18 A3018 RMK T10601180 IEM_DS3505
ZBAA,2004-03-02 23:00,ZBAA 022300Z AUTO 28002KT 6SM M06/M20 A3018 RMK T10601200 IEM_DS3505
ZBAA,2004-03-03 00:00,ZBAA 030000Z AUTO 22004KT 11SM M03/M21 A3018 RMK SLP225 T10301206 52003 IEM_DS3505
ZBAA,2004-03-03 01:00,ZBAA 030100Z AUTO 6SM 00/M16 A3018 RMK T00001160 IEM_DS3505
ZBAA,2004-03-03 02:00,ZBAA 030200Z AUTO 03004KT 6SM 01/M20 A3018 RMK T00101200 IEM_DS3505
ZBAA,2004-03-03 03:00,ZBAA 030300Z AUTO 32010KT 19SM 03/M22 A3012 RMK SLP201 T00331224 57023 IEM_DS3505
ZBAA,2004-03-03 04:00,ZBAA 030400Z AUTO 30006KT 6SM 04/M22 A3009 RMK T00401220 IEM_DS3505
ZBAA,2004-03-03 05:00,ZBAA 030500Z AUTO 31016KT 6SM 05/M21 A3006 RMK T00501210 IEM_DS3505
ZBAA,2004-03-03 06:00,ZBAA 030600Z AUTO 18006G23KT 19SM 05/M21 A3000 RMK SLP167 T00471212 57034 IEM_DS3505
ZBAA,2004-03-03 07:00,ZBAA 030700Z AUTO 21014KT 6SM 05/M20 A2997 RMK T00501200 IEM_DS3505
ZBAA,2004-03-03 08:00,ZBAA 030800Z AUTO 20012KT 6SM 05/M18 A2997 RMK T00501180 IEM_DS3505
ZBAA,2004-03-03 09:00,ZBAA 030900Z AUTO 22010KT 19SM 06/M18 A2997 RMK SLP154 T00551182 57013 IEM_DS3505
ZBAA,2004-03-03 10:00,ZBAA 031000Z AUTO 18008KT 6SM 04/M17 A2997 RMK T00401170 IEM_DS3505
ZBAA,2004-03-03 11:00,ZBAA 031100Z AUTO 21004KT 6SM 04/M15 A2997 RMK T00401150 IEM_DS3505
ZBAA,2004-03-03 12:00,ZBAA 031200Z AUTO 22002KT 9SM 03/M15 A3000 RMK SLP162 T00341147 52008 IEM_DS3505
ZBAA,2004-03-03 13:00,ZBAA 031300Z AUTO 29008KT 6SM 04/M09 A3000 RMK T00401090 IEM_DS3505
ZBAA,2004-03-03 14:00,ZBAA 031400Z AUTO 31008KT 6SM 03/M10 A3003 RMK T00301100 IEM_DS3505
ZBAA,2004-03-03 15:00,ZBAA 031500Z AUTO 00000KT 9SM 03/M14 A3003 RMK SLP165 T00311136 52003 IEM_DS3505
ZBAA,2004-03-03 16:00,ZBAA 031600Z AUTO 35002KT 4SM A3000 RMK IEM_DS3505
ZBAA,2004-03-03 17:00,ZBAA 031700Z AUTO 00000KT 4SM A3000 RMK IEM_DS3505
ZBAA,2004-03-03 18:00,ZBAA 031800Z AUTO 11004KT 9SM A3000 RMK IEM_DS3505
ZBAA,2004-03-03 19:00,ZBAA 031900Z AUTO 35002KT 4SM A2997 RMK IEM_DS3505
ZBAA,2004-03-03 20:00,ZBAA 032000Z AUTO 06002KT M03/M11 A2994 RMK T10301110 IEM_DS3505
ZBAA,2004-03-03 21:00,ZBAA 032100Z AUTO 09004KT 7SM M00/M08 A2994 RMK SLP133 T10041081 57021 IEM_DS3505
ZBAA,2004-03-03 22:00,ZBAA 032200Z AUTO 36002KT 6SM M04/M12 A2994 RMK T10401120 IEM_DS3505
ZBAA,2004-03-03 23:00,ZBAA 032300Z AUTO 32002KT 6SM M04/M11 A2994 RMK T10401110 IEM_DS3505
ZBAA,2004-03-04 00:00,ZBAA 040000Z AUTO 32002KT 6SM M01/M10 A2994 RMK SLP138 T10061099 52005 IEM_DS3505
ZBAA,2004-03-04 01:00,ZBAA 040100Z AUTO 00000KT 6SM 00/M09 A2994 RMK T00001090 IEM_DS3505
ZBAA,2004-03-04 02:00,ZBAA 040200Z AUTO 33002KT 6SM 02/M11 A2994 RMK T00201110 IEM_DS3505
ZBAA,2004-03-04 02:30,ZBAA 040230Z AUTO 02004KT 6SM 02/M11 A2994 RMK T00201110 IEM_DS3505
ZBAA,2004-03-04 03:00,ZBAA 040300Z AUTO 20006KT 7SM 05/M10 RMK SLP132 T00491103 57006 IEM_DS3505
ZBAA,2004-03-04 04:00,ZBAA 040400Z AUTO 16004KT 6SM 05/M10 A2991 RMK T00501100 IEM_DS3505
ZBAA,2004-03-04 05:00,ZBAA 040500Z AUTO 17006KT 6SM 07/M09 A2985 RMK T00701090 IEM_DS3505
ZBAA,2004-03-04 06:00,ZBAA 040600Z AUTO 18006KT 9SM 08/M09 A2985 RMK SLP105 T00771087 57026 IEM_DS3505
ZBAA,2004-03-04 07:00,ZBAA 040700Z AUTO 6SM 08/M08 A2983 RMK T00801080 IEM_DS3505
ZBAA,2004-03-04 08:00,ZBAA 040800Z AUTO 19006KT 6SM 08/M07 A2983 RMK T00801070 IEM_DS3505
ZBAA,2004-03-04 09:00,ZBAA 040900Z AUTO 22010KT 9SM 06/M04 A2985 RMK SLP110 T00611043 52004 IEM_DS3505
ZBAA,2004-03-04 10:00,ZBAA 041000Z AUTO 22010KT 6SM 06/M03 A2985 RMK T00601030 IEM_DS3505
ZBAA,2004-03-04 11:00,ZBAA 041100Z AUTO 6SM 05/M04 A2991 RMK T00501040 IEM_DS3505
ZBAA,2004-03-04 12:00,ZBAA 041200Z AUTO 25004KT 9SM 04/M05 A2994 RMK SLP141 T00431054 52031 IEM_DS3505
ZBAA,2004-03-04 13:00,ZBAA 041300Z AUTO 36004KT 6SM 01/M04 A2997 RMK T00101040 IEM_DS3505
ZBAA,2004-03-04 14:00,ZBAA 041400Z AUTO 12008KT 6SM 00/M05 A3003 RMK T00001050 IEM_DS3505
ZBAA,2004-03-04 15:00,ZBAA 041500Z AUTO 09008KT 6SM 00/M06 A3006 RMK SLP175 T00011059 52034 IEM_DS3505
ZBAA,2004-03-04 16:00,ZBAA 041600Z AUTO 15006KT 6SM M01/M07 A3006 RMK T10101070 IEM_DS3505
ZBAA,2004-03-04 17:00,ZBAA 041700Z AUTO 17002KT 6SM M02/M07 A3006 RMK T10201070 IEM_DS3505
ZBAA,2004-03-04 18:00,ZBAA 041800Z AUTO 09004KT 12SM M02/M07 A3009 RMK SLP188 T10171074 52013 IEM_DS3505
ZBAA,2004-03-04 19:00,ZBAA 041900Z AUTO 11002KT 6SM M02/M07 A3009 RMK T10201070 IEM_DS3505
ZBAA,2004-03-04 20:00,ZBAA 042000Z AUTO 05002KT 6SM M04/M07 A3009 RMK T10401070 IEM_DS3505
ZBAA,2004-03-04 20:30,ZBAA 042030Z AUTO 00000KT 6SM M03/M07 A3009 RMK T10301070 IEM_DS3505
ZBAA,2004-03-04 21:00,ZBAA 042100Z AUTO 07004KT 12SM M03/M08 A3009 RMK SLP190 T10261078 52002 IEM_DS3505
ZBAA,2004-03-04 21:30,ZBAA 042130Z AUTO 06002KT 6SM M03/M07 A3009 RMK T10301070 IEM_DS3505
ZBAA,2004-03-04 22:00,ZBAA 042200Z AUTO 04002KT 6SM M03/M06 A3012 RMK T10301060 IEM_DS3505
ZBAA,2004-03-04 23:00,ZBAA 042300Z AUTO 34004KT 6SM M03/M07 A3012 RMK T10301070 IEM_DS3505
ZBAA,2004-03-05 00:00,ZBAA 050000Z AUTO 36008KT 16SM 00/M17 A3015 RMK SLP213 T00021174 52023 IEM_DS3505
ZBAA,2004-03-05 01:00,ZBAA 050100Z AUTO 33016G25KT 6SM 01/M20 A3018 RMK T00101200 IEM_DS3505
ZBAA,2004-03-05 02:00,ZBAA 050200Z AUTO 33023G35KT 6SM 01/M23 A3018 RMK T00101230 IEM_DS3505
ZBAA,2004-03-05 03:00,ZBAA 050300Z AUTO 02010G25KT 12SM 02/M22 A3021 RMK SLP230 T00171220 52017 IEM_DS3505
ZBAA,2004-03-05 03:30,ZBAA 050330Z AUTO 33017KT 6SM 02/M20 A3021 RMK T00201200 IEM_DS3505
ZBAA,2004-03-05 04:00,ZBAA 050400Z AUTO 32019G29KT 6SM 02/M21 A3024 RMK T00201210 IEM_DS3505
ZBAA,2004-03-05 05:00,ZBAA 050500Z AUTO 31019G29KT 6SM 02/M22 A3024 RMK T00201220 IEM_DS3505
ZBAA,2004-03-05 06:00,ZBAA 050600Z AUTO 32014G31KT 19SM 02/M24 A3024 RMK SLP239 T00181235 52008 IEM_DS3505
ZBAA,2004-03-05 07:00,ZBAA 050700Z AUTO 32021G37KT 6SM 02/M24 A3024 RMK T00201240 IEM_DS3505
ZBAA,2004-03-05 09:00,ZBAA 050900Z AUTO 34010G35KT 19SM 02/M25 A3027 RMK SLP254 T00161246 52015 IEM_DS3505
ZBAA,2004-03-05 10:00,ZBAA 051000Z AUTO 32021G31KT 6SM 00/M23 A3030 RMK T00001230 IEM_DS3505
ZBAA,2004-03-05 12:00,ZBAA 051200Z AUTO 34010G33KT 12SM 00/M23 A3036 RMK SLP282 T00001227 52028 IEM_DS3505
ZBAA,2004-03-05 13:00,ZBAA 051300Z AUTO 32014KT 6SM M01/M22 A3039 RMK T10101220 IEM_DS3505
ZBAA,2004-03-05 14:00,ZBAA 051400Z AUTO 32021G33KT 6SM M01/M24 A3039 RMK T10101240 IEM_DS3505
ZBAA,2004-03-05 15:00,ZBAA 051500Z AUTO 36008G37KT 19SM M00/M24 A3039 RMK SLP295 T10051238 52013 IEM_DS3505
ZBAA,2004-03-05 15:30,ZBAA 051530Z AUTO 32023G35KT 6SM M01/M23 A3039 RMK T10101230 IEM_DS3505
ZBAA,2004-03-05 16:00,ZBAA 051600Z AUTO 32025G37KT 6SM M01/M23 A3039 RMK T10101230 IEM_DS3505
ZBAA,2004-03-05 17:00,ZBAA 051700Z AUTO 32023G39KT 6SM M01/M23 A3039 RMK T10101230 IEM_DS3505
ZBAA,2004-03-05 18:00,ZBAA 051800Z AUTO 32010G35KT 19SM M01/M24 A3042 RMK SLP302 T10101235 52007 IEM_DS3505
ZBAA,2004-03-05 19:00,ZBAA 051900Z AUTO 32021G33KT 6SM M02/M24 A3042 RMK T10201240 IEM_DS3505
ZBAA,2004-03-05 20:00,ZBAA 052000Z AUTO 32019G29KT 6SM M02/M25 A3042 RMK T10201250 IEM_DS3505
ZBAA,2004-03-05 21:00,ZBAA 052100Z AUTO 34004G33KT 19SM M02/M24 A3045 RMK SLP309 T10201237 52007 IEM_DS3505
ZBAA,2004-03-05 22:00,ZBAA 052200Z AUTO 33017G27KT 6SM M02/M24 A3045 RMK T10201240 IEM_DS3505
ZBAA,2004-03-05 23:00,ZBAA 052300Z AUTO 30010KT 6SM M03/M23 A3047 RMK T10301230 IEM_DS3505
ZBAA,2004-03-06 00:00,ZBAA 060000Z AUTO 02002KT 19SM M01/M23 A3047 RMK SLP328 T10121230 52019 IEM_DS3505
ZBAA,2004-03-06 01:00,ZBAA 060100Z AUTO 31017KT 6SM 00/M22 A3050 RMK T00001220 IEM_DS3505
ZBAA,2004-03-06 02:00,ZBAA 060200Z AUTO 31017G29KT 6SM 01/M23 A3050 RMK T00101230 IEM_DS3505
ZBAA,2004-03-06 03:00,ZBAA 060300Z AUTO 29008G25KT 19SM 03/M26 A3050 RMK SLP336 T00281256 52008 IEM_DS3505
ZBAA,2004-03-06 04:00,ZBAA 060400Z AUTO 29016G27KT 6SM 04/M24 A3050 RMK T00401240 IEM_DS3505
ZBAA,2004-03-06 05:00,ZBAA 060500Z AUTO 28016KT 6SM 05/M23 A3047 RMK T00501230 IEM_DS3505
ZBAA,2004-03-06 06:00,ZBAA 060600Z AUTO 29006KT 19SM 06/M24 A3045 RMK SLP311 T00601243 57024 IEM_DS3505
ZBAA,2004-03-06 07:00,ZBAA 060700Z AUTO 28017KT 6SM 06/M23 A3042 RMK T00601230 IEM_DS3505
ZBAA,2004-03-06 08:00,ZBAA 060800Z AUTO 28014KT 6SM 07/M24 A3042 RMK T00701240 IEM_DS3505
ZBAA,2004-03-06 09:00,ZBAA 060900Z AUTO 29012KT 19SM 07/M24 A3042 RMK SLP300 T00681237 57011 IEM_DS3505
ZBAA,2004-03-06 10:00,ZBAA 061000Z AUTO 27010G19KT 6SM 06/M22 A3042 RMK T00601220 IEM_DS3505
ZBAA,2004-03-06 11:00,ZBAA 061100Z AUTO 26008KT 6SM 05/M21 A3042 RMK T00501210 IEM_DS3505
ZBAA,2004-03-06 12:00,ZBAA 061200Z AUTO 22008KT 9SM 03/M19 A3042 RMK SLP307 T00321194 52006 IEM_DS3505
ZBAA,2004-03-06 13:00,ZBAA 061300Z AUTO 26006KT 6SM 03/M19 A3045 RMK T00301190 IEM_DS3505
ZBAA,2004-03-06 14:00,ZBAA 061400Z AUTO 28008KT 6SM 04/M19 A3045 RMK T00401190 IEM_DS3505
ZBAA,2004-03-06 15:00,ZBAA 061500Z AUTO 29006KT 9SM 04/M22 A3047 RMK SLP322 T00431216 52016 IEM_DS3505
ZBAA,2004-03-06 16:00,ZBAA 061600Z AUTO 31008KT 6SM 02/M20 A3047 RMK T00201200 IEM_DS3505
ZBAA,2004-03-06 17:00,ZBAA 061700Z AUTO 26002KT 6SM M01/M18 A3050 RMK T10101180 IEM_DS3505
ZBAA,2004-03-06 18:00,ZBAA 061800Z AUTO 34004KT 19SM 04/M23 A3050 RMK SLP331 T00351231 52009 IEM_DS3505
ZBAA,2004-03-06 19:00,ZBAA 061900Z AUTO 32006KT 6SM M01/M22 A3050 RMK T10101220 IEM_DS3505
ZBAA,2004-03-06 20:00,ZBAA 062000Z AUTO 36008KT 6SM 00/M21 A3050 RMK T00001210 IEM_DS3505
ZBAA,2004-03-06 21:00,ZBAA 062100Z AUTO 36004KT 12SM 00/M23 A3050 RMK SLP332 T00041231 52001 IEM_DS3505
ZBAA,2004-03-06 22:00,ZBAA 062200Z AUTO 29004KT 6SM M02/M20 A3050 RMK T10201200 IEM_DS3505
ZBAA,2004-03-06 23:00,ZBAA 062300Z AUTO 32008KT 6SM 00/M22 A3050 RMK T00001220 IEM_DS3505
ZBAA,2004-03-07 00:00,ZBAA 070000Z AUTO 20002KT 9SM 02/M18 A3053 RMK SLP342 T00221178 52009 IEM_DS3505
ZBAA,2004-03-07 01:00,ZBAA 070100Z AUTO 32006KT 6SM 05/M20 A3053 RMK T00501200 IEM_DS3505
ZBAA,2004-03-07 02:00,ZBAA 070200Z AUTO 31006KT 6SM 06/M20 A3053 RMK T00601200 IEM_DS3505
ZBAA,2004-03-07 03:00,ZBAA 070300Z AUTO 22012KT 12SM 07/M19 A3053 RMK SLP339 T00701194 57002 IEM_DS3505
ZBAA,2004-03-07 04:00,ZBAA 070400Z AUTO 23008KT 6SM 09/M20 A3050 RMK T00901200 IEM_DS3505
ZBAA,2004-03-07 05:00,ZBAA 070500Z AUTO 24008KT 6SM 10/M19 A3047 RMK T01001190 IEM_DS3505
ZBAA,2004-03-07 06:00,ZBAA 070600Z AUTO 22008KT 12SM 10/M20 A3045 RMK SLP304 T01011200 57035 IEM_DS3505
ZBAA,2004-03-07 07:00,ZBAA 070700Z AUTO 20006KT 6SM 11/M18 A3039 RMK T01101180 IEM_DS3505
ZBAA,2004-03-07 08:00,ZBAA 070800Z AUTO 20008KT 6SM 11/M18 A3039 RMK T01101180 IEM_DS3505
ZBAA,2004-03-07 09:00,ZBAA 070900Z AUTO 22008KT 16SM 11/M18 A3036 RMK SLP280 T01061185 57024 IEM_DS3505
ZBAA,2004-03-07 10:00,ZBAA 071000Z AUTO 19008KT 6SM 09/M17 A3036 RMK T00901170 IEM_DS3505
ZBAA,2004-03-07 11:00,ZBAA 071100Z AUTO 18008KT 6SM 06/M16 A3033 RMK T00601160 IEM_DS3505
ZBAA,2004-03-07 12:00,ZBAA 071200Z AUTO 20004KT 12SM 06/M16 A3033 RMK SLP274 T00641161 57006 IEM_DS3505
ZBAA,2004-03-07 13:00,ZBAA 071300Z AUTO 17008KT 6SM 04/M14 A3033 RMK T00401140 IEM_DS3505
ZBAA,2004-03-07 14:00,ZBAA 071400Z AUTO 11004KT 6SM 02/M14 A3033 RMK T00201140 IEM_DS3505
ZBAA,2004-03-07 15:00,ZBAA 071500Z AUTO 20006KT 12SM 05/M16 A3033 RMK SLP266 T00531157 57008 IEM_DS3505
ZBAA,2004-03-07 16:00,ZBAA 071600Z AUTO 07002KT 6SM 00/M11 A3030 RMK T00001110 IEM_DS3505
ZBAA,2004-03-07 17:00,ZBAA 071700Z AUTO 16002KT 6SM 00/M11 A3027 RMK T00001110 IEM_DS3505
ZBAA,2004-03-07 18:00,ZBAA 071800Z AUTO 20004KT 9SM 02/M14 A3024 RMK SLP240 T00171139 57026 IEM_DS3505
ZBAA,2004-03-07 19:00,ZBAA 071900Z AUTO 35002KT 6SM M03/M10 A3021 RMK T10301100 IEM_DS3505
ZBAA,2004-03-07 20:00,ZBAA 072000Z AUTO 01002KT 6SM M04/M11 A3018 RMK T10401110 IEM_DS3505
ZBAA,2004-03-07 21:00,ZBAA 072100Z AUTO 14002KT 7SM 00/M11 A3015 RMK SLP210 T00001113 57030 IEM_DS3505
ZBAA,2004-03-07 22:00,ZBAA 072200Z AUTO 00000KT 6SM M03/M09 A3012 RMK T10301090 IEM_DS3505
ZBAA,2004-03-07 23:00,ZBAA 072300Z AUTO 02002KT 4SM A3012 RMK IEM_DS3505
ZBAA,2004-03-08 00:00,ZBAA 080000Z AUTO 02002KT 4SM 01/M10 A3012 RMK SLP198 T00081103 57012 IEM_DS3505
ZBAA,2004-03-08 01:00,ZBAA 080100Z AUTO 04002KT 03/M10 A3009 RMK T00301100 IEM_DS3505
ZBAA,2004-03-08 02:00,ZBAA 080200Z AUTO 07004KT 05/M10 A3009 RMK T00501100 IEM_DS3505
ZBAA,2004-03-08 03:00,ZBAA 080300Z AUTO 09004KT 6SM 07/M11 A3006 RMK SLP178 T00731109 57019 IEM_DS3505
ZBAA,2004-03-08 04:00,ZBAA 080400Z AUTO 5SM 09/M10 A3003 RMK T00901100 IEM_DS3505
ZBAA,2004-03-08 05:00,ZBAA 080500Z AUTO 13004KT 5SM 11/M10 A3000 RMK T01101100 IEM_DS3505
ZBAA,2004-03-08 06:00,ZBAA 080600Z AUTO 18004KT 7SM 13/M12 A2994 RMK SLP140 T01321120 57038 IEM_DS3505
ZBAA,2004-03-08 07:00,ZBAA 080700Z AUTO 20006KT 5SM 14/M10 A2991 RMK T01401100 IEM_DS3505
ZBAA,2004-03-08 08:00,ZBAA 080800Z AUTO 17006KT 5SM 15/M11 A2991 RMK T01501110 IEM_DS3505
ZBAA,2004-03-08 09:00,ZBAA 080900Z AUTO 20006KT 9SM 15/M11 A2988 RMK SLP120 T01491114 57020 IEM_DS3505
ZBAA,2004-03-08 10:00,ZBAA 081000Z AUTO 17006KT 5SM 12/M08 A2988 RMK T01201080 IEM_DS3505
ZBAA,2004-03-08 11:00,ZBAA 081100Z AUTO 15004KT 5SM 10/M08 A2988 RMK T01001080 IEM_DS3505
ZBAA,2004-03-08 12:00,ZBAA 081200Z AUTO 29004KT 6SM 10/M08 A2988 RMK SLP118 T01041082 57002 IEM_DS3505
ZBAA,2004-03-08 13:00,ZBAA 081300Z AUTO 08004KT 2 1/2SM 07/M07 A2988 RMK T00701070 IEM_DS3505
ZBAA,2004-03-08 14:00,ZBAA 081400Z AUTO 10002KT 2 1/2SM 05/M06 A2991 RMK T00501060 IEM_DS3505
ZBAA,2004-03-08 15:00,ZBAA 081500Z AUTO 07002KT 6SM 08/M08 A2988 RMK SLP115 T00841077 57003 IEM_DS3505
ZBAA,2004-03-08 16:00,ZBAA 081600Z AUTO 13002KT 2 1/2SM 05/M06 A2985 RMK T00501060 IEM_DS3505
ZBAA,2004-03-08 17:00,ZBAA 081700Z AUTO 13004KT 2 1/2SM 04/M05 A2983 RMK T00401050 IEM_DS3505
ZBAA,2004-03-08 18:00,ZBAA 081800Z AUTO 09008KT 4SM 05/M04 A2983 RMK SLP088 T00461039 57027 IEM_DS3505
ZBAA,2004-03-08 19:00,ZBAA 081900Z AUTO 34004KT 2 1/2SM 00/M04 A2977 RMK T00001040 IEM_DS3505
ZBAA,2004-03-08 20:00,ZBAA 082000Z AUTO 35006KT 2 1/2SM 01/M04 A2974 RMK T00101040 IEM_DS3505
ZBAA,2004-03-08 21:00,ZBAA 082100Z AUTO 07002KT 4SM 04/M04 A2971 RMK SLP058 T00391038 57029 IEM_DS3505
ZBAA,2004-03-08 22:00,ZBAA 082200Z AUTO 29002KT 2 1/2SM 02/M04 A2971 RMK T00201040 IEM_DS3505
ZBAA,2004-03-08 23:00,ZBAA 082300Z AUTO 29002KT 1 1/2SM 01/M04 A2968 RMK T00101040 IEM_DS3505
ZBAA,2004-03-09 00:00,ZBAA 090000Z AUTO 07004KT 6SM 05/M04 A2968 RMK SLP052 T00521038 57007 IEM_DS3505
ZBAA,2004-03-09 01:00,ZBAA 090100Z AUTO 09002KT 2 1/2SM 07/M03 A2968 RMK T00701030 IEM_DS3505
ZBAA,2004-03-09 02:00,ZBAA 090200Z AUTO 12006KT 2 1/2SM 08/M01 A2965 RMK T00801010 IEM_DS3505
ZBAA,2004-03-09 03:00,ZBAA 090300Z AUTO 09004KT 5SM 11/M02 A2959 RMK SLP020 T01081025 57031 IEM_DS3505
ZBAA,2004-03-09 04:00,ZBAA 090400Z AUTO 13004KT 2 1/2SM 12/00 A2956 RMK T01200000 IEM_DS3505
ZBAA,2004-03-09 05:00,ZBAA 090500Z AUTO 14006KT 2 1/2SM 14/00 A2953 RMK T01400000 IEM_DS3505
ZBAA,2004-03-09 06:00,ZBAA 090600Z AUTO 09002KT 5SM 14/M02 A2950 RMK SLP983 T01441025 57037 IEM_DS3505
ZBAA,2004-03-09 07:00,ZBAA 090700Z AUTO 17006KT 2 1/2SM 15/00 A2947 RMK T01500000 IEM_DS3505
ZBAA,2004-03-09 08:00,ZBAA 090800Z AUTO 17006KT 2 1/2SM 15/M02 A2944 RMK T01501020 IEM_DS3505
ZBAA,2004-03-09 09:00,ZBAA 090900Z AUTO 25002KT 4SM 15/M04 A2941 RMK SLP960 T01511037 57023 IEM_DS3505
ZBAA,2004-03-09 10:00,ZBAA 091000Z AUTO 00000KT 2 1/2SM 13/M01 A2941 RMK T01301010 IEM_DS3505
ZBAA,2004-03-09 11:00,ZBAA 091100Z AUTO 02002KT 2SM 12/M01 A2944 RMK T01201010 IEM_DS3505
ZBAA,2004-03-09 12:00,ZBAA 091200Z AUTO 04002KT 4SM 13/M02 A2944 RMK SLP971 T01261024 52011 IEM_DS3505
ZBAA,2004-03-09 13:00,ZBAA 091300Z AUTO 33002KT 1 1/2SM 11/00 A2947 RMK T01100000 IEM_DS3505
ZBAA,2004-03-09 14:00,ZBAA 091400Z AUTO 26002KT 1 1/2SM 12/00 A2947 RMK T01200000 IEM_DS3505
ZBAA,2004-03-09 15:00,ZBAA 091500Z AUTO 07002KT 3SM 10/M01 A2947 RMK SLP975 T01041013 52004 IEM_DS3505
ZBAA,2004-03-09 16:00,ZBAA 091600Z AUTO 33004KT 2SM 08/00 A2947 RMK T00800000 IEM_DS3505
ZBAA,2004-03-09 17:00,ZBAA 091700Z AUTO 2SM 09/01 A2947 RMK T00900010 IEM_DS3505
ZBAA,2004-03-09 18:00,ZBAA 091800Z AUTO 34006KT 2 1/2SM 11/M00 A2953 RMK SLP995 T01141004 52020 IEM_DS3505
ZBAA,2004-03-09 19:00,ZBAA 091900Z AUTO 30012G21KT 2SM 15/M05 A2956 RMK T01501050 IEM_DS3505
ZBAA,2004-03-09 20:00,ZBAA 092000Z AUTO 30021G35KT 2SM 15/M15 A2962 RMK T01501150 IEM_DS3505
ZBAA,2004-03-09 21:00,ZBAA 092100Z AUTO 32017G31KT 2 1/2SM 14/M21 A2968 RMK SLP049 T01361214 52054 IEM_DS3505
ZBAA,2004-03-09 22:00,ZBAA 092200Z AUTO 32029G45KT 6SM 11/M22 A2974 RMK T01101220 IEM_DS3505
ZBAA,2004-03-09 23:00,ZBAA 092300Z AUTO 33021G33KT 6SM 09/M20 A2977 RMK T00901200 IEM_DS3505
ZBAA,2004-03-10 00:00,ZBAA 100000Z AUTO 34017G33KT 5SM 09/M20 A2983 RMK SLP100 T00921196 52051 IEM_DS3505
ZBAA,2004-03-10 01:00,ZBAA 100100Z AUTO 32035G47KT 6SM 09/M15 A2985 RMK T00901150 IEM_DS3505
ZBAA,2004-03-10 02:00,ZBAA 100200Z AUTO 32027G37KT 6SM 10/M15 A2988 RMK T01001150 IEM_DS3505
ZBAA,2004-03-10 03:00,ZBAA 100300Z AUTO 34019G35KT 9SM 10/M17 A2991 RMK SLP134 T01051166 52033 IEM_DS3505
ZBAA,2004-03-10 04:00,ZBAA 100400Z AUTO 33017G29KT 6SM 13/M15 A2991 RMK T01301150 IEM_DS3505
ZBAA,2004-03-10 05:00,ZBAA 100500Z AUTO 33019G35KT 6SM 14/M17 A2988 RMK T01401170 IEM_DS3505
ZBAA,2004-03-10 06:00,ZBAA 100600Z AUTO 34017KT 12SM 13/M19 A2988 RMK SLP127 T01261193 4////0086 57006 IEM_DS3505
ZBAA,2004-03-10 07:00,ZBAA 100700Z AUTO 34014KT 6SM 14/M18 A2991 RMK T01401180 IEM_DS3505
ZBAA,2004-03-10 08:00,ZBAA 100800Z AUTO 32021KT 6SM 14/M20 A2994 RMK T01401200 IEM_DS3505
ZBAA,2004-03-10 09:00,ZBAA 100900Z AUTO 32016G25KT 12SM 13/M20 A2997 RMK SLP147 T01291204 52020 IEM_DS3505
ZBAA,2004-03-10 10:00,ZBAA 101000Z AUTO 32014KT 6SM 11/M20 A2997 RMK T01101200 IEM_DS3505
ZBAA,2004-03-10 11:00,ZBAA 101100Z AUTO 36008KT 6SM 09/M20 A3000 RMK T00901200 IEM_DS3505
ZBAA,2004-03-10 12:00,ZBAA 101200Z AUTO 34004KT 19SM 11/M21 A3003 RMK SLP172 T01091206 52024 IEM_DS3505
ZBAA,2004-03-10 12:30,ZBAA 101230Z AUTO 01004KT 6SM 06/M18 A3006 RMK T00601180 IEM_DS3505
ZBAA,2004-03-10 13:00,ZBAA 101300Z AUTO 36004KT 6SM 05/M19 A3006 RMK T00501190 IEM_DS3505
ZBAA,2004-03-10 14:00,ZBAA 101400Z AUTO 00000KT 6SM 05/M18 A3009 RMK T00501180 IEM_DS3505
ZBAA,2004-03-10 14:30,ZBAA 101430Z AUTO 31002KT 6SM 06/M19 A3009 RMK T00601190 IEM_DS3505
ZBAA,2004-03-10 15:00,ZBAA 101500Z AUTO 32006KT 9SM 08/M19 A3009 RMK SLP195 T00831193 52023 IEM_DS3505
ZBAA,2004-03-10 15:30,ZBAA 101530Z AUTO 30004KT 6SM 05/M17 A3012 RMK T00501170 IEM_DS3505
ZBAA,2004-03-10 16:00,ZBAA 101600Z AUTO 31004KT 6SM 04/M17 A3012 RMK T00401170 IEM_DS3505
ZBAA,2004-03-10 17:00,ZBAA 101700Z AUTO 31006KT 6SM 06/M18 A3012 RMK T00601180 IEM_DS3505
ZBAA,2004-03-10 18:00,ZBAA 101800Z AUTO 29010KT 19SM 09/M21 A3015 RMK SLP208 T00921207 52013 IEM_DS3505
ZBAA,2004-03-10 19:00,ZBAA 101900Z AUTO 29006KT 6SM 05/M18 A3015 RMK T00501180 IEM_DS3505
ZBAA,2004-03-10 20:00,ZBAA 102000Z AUTO 28004KT 6SM 05/M17 A3015 RMK T00501170 IEM_DS3505
ZBAA,2004-03-10 21:00,ZBAA 102100Z AUTO 25006KT 19SM 07/M19 A3015 RMK SLP209 T00661189 52001 IEM_DS3505
ZBAA,2004-03-10 22:00,ZBAA 102200Z AUTO 25002KT 6SM 02/M18 A3015 RMK T00201180 IEM_DS3505
ZBAA,2004-03-10 23:00,ZBAA 102300Z AUTO 24004KT 6SM 04/M17 A3018 RMK T00401170 IEM_DS3505
ZBAA,2004-03-11 00:00,ZBAA 110000Z AUTO 22004KT 11SM 05/M14 A3018 RMK SLP221 T00541140 52012 IEM_DS3505
ZBAA,2004-03-11 01:00,ZBAA 110100Z AUTO 17004KT 6SM 06/M10 A3018 RMK T00601100 IEM_DS3505
ZBAA,2004-03-11 02:00,ZBAA 110200Z AUTO 18004KT 6SM 09/M13 A3018 RMK T00901130 IEM_DS3505
ZBAA,2004-03-11 03:00,ZBAA 110300Z AUTO 25014KT 12SM 12/M18 A3015 RMK SLP212 T01231183 57009 IEM_DS3505
ZBAA,2004-03-11 04:00,ZBAA 110400Z AUTO 22012KT 6SM 13/M18 A3012 RMK T01301180 IEM_DS3505
ZBAA,2004-03-11 05:00,ZBAA 110500Z AUTO 22014KT 6SM 14/M17 A3009 RMK T01401170 IEM_DS3505
ZBAA,2004-03-11 06:00,ZBAA 110600Z AUTO 22012G19KT 9SM 14/M17 A3006 RMK SLP180 T01411169 57032 IEM_DS3505
ZBAA,2004-03-11 07:00,ZBAA 110700Z AUTO 22012KT 6SM 15/M15 A3003 RMK T01501150 IEM_DS3505
ZBAA,2004-03-11 08:00,ZBAA 110800Z AUTO 20010KT 6SM 14/M16 A3003 RMK T01401160 IEM_DS3505
ZBAA,2004-03-11 09:00,ZBAA 110900Z AUTO 25006KT 9SM 14/M15 A3000 RMK SLP167 T01421147 57013 IEM_DS3505
ZBAA,2004-03-11 10:00,ZBAA 111000Z AUTO 22008KT 6SM 13/M14 A3003 RMK T01301140 IEM_DS3505
ZBAA,2004-03-11 11:00,ZBAA 111100Z AUTO 23004KT 6SM 11/M13 A3003 RMK T01101130 IEM_DS3505
ZBAA,2004-03-11 12:00,ZBAA 111200Z AUTO 20006KT 9SM 11/M13 A3003 RMK SLP178 T01121128 52011 IEM_DS3505
ZBAA,2004-03-11 13:00,ZBAA 111300Z AUTO 19008KT 6SM 11/M11 A3003 RMK T01101110 IEM_DS3505
ZBAA,2004-03-11 14:00,ZBAA 111400Z AUTO 19008KT 5SM 09/M09 A3006 RMK T00901090 IEM_DS3505
ZBAA,2004-03-11 15:00,ZBAA 111500Z AUTO 22004KT 7SM 08/M10 A3006 RMK SLP175 T00831095 57003 IEM_DS3505
ZBAA,2004-03-11 16:00,ZBAA 111600Z AUTO 18002KT 06/M08 A3006 RMK T00601080 IEM_DS3505
ZBAA,2004-03-11 17:00,ZBAA 111700Z AUTO 00000KT 04/M08 A3006 RMK T00401080 IEM_DS3505
ZBAA,2004-03-11 18:00,ZBAA 111800Z AUTO 32006KT 9SM 06/M08 A3006 RMK SLP182 T00641075 52007 IEM_DS3505
ZBAA,2004-03-11 19:00,ZBAA 111900Z AUTO 34004KT 03/M08 A3006 RMK T00301080 IEM_DS3505
ZBAA,2004-03-11 20:00,ZBAA 112000Z AUTO 32006KT 01/M08 A3006 RMK T00101080 IEM_DS3505
ZBAA,2004-03-11 21:00,ZBAA 112100Z AUTO 00000KT 7SM 03/M09 A3006 RMK SLP178 T00321090 57004 IEM_DS3505
ZBAA,2004-03-11 22:00,ZBAA 112200Z AUTO 33002KT 00/M08 A3006 RMK T00001080 IEM_DS3505
ZBAA,2004-03-11 23:00,ZBAA 112300Z AUTO 35004KT 02/M08 A3006 RMK T00201080 IEM_DS3505
ZBAA,2004-03-12 00:00,ZBAA 120000Z AUTO 22002KT 3SM 06/M08 A3006 RMK SLP186 T00551080 52008 IEM_DS3505
ZBAA,2004-03-12 01:00,ZBAA 120100Z AUTO 22004KT 08/M06 A3009 RMK T00801060 IEM_DS3505
ZBAA,2004-03-12 02:00,ZBAA 120200Z AUTO 26006KT 11/M08 A3009 RMK T01101080 IEM_DS3505
ZBAA,2004-03-12 03:00,ZBAA 120300Z AUTO 20004KT 7SM 14/M15 A3009 RMK SLP186 T01431146 54000 IEM_DS3505
ZBAA,2004-03-12 04:00,ZBAA 120400Z AUTO 29010G23KT 6SM 16/M17 A3006 RMK T01601170 IEM_DS3505
ZBAA,2004-03-12 05:00,ZBAA 120500Z AUTO 30014G25KT 6SM 17/M19 A3003 RMK T01701190 IEM_DS3505
ZBAA,2004-03-12 06:00,ZBAA 120600Z AUTO 27004G25KT 9SM 17/M17 A3000 RMK SLP159 T01701174 57027 IEM_DS3505
ZBAA,2004-03-12 07:00,ZBAA 120700Z AUTO 31012KT 6SM 18/M19 A2997 RMK T01801190 IEM_DS3505
ZBAA,2004-03-12 08:00,ZBAA 120800Z AUTO 31012G21KT 6SM 17/M17 A2997 RMK T01701170 IEM_DS3505
ZBAA,2004-03-12 09:00,ZBAA 120900Z AUTO 14004KT 7SM 16/M18 A2997 RMK SLP149 T01621180 57010 IEM_DS3505
ZBAA,2004-03-12 10:00,ZBAA 121000Z AUTO 19004KT 6SM 14/M17 A2997 RMK T01401170 IEM_DS3505
ZBAA,2004-03-12 11:00,ZBAA 121100Z AUTO 16004KT 6SM 12/M14 A3000 RMK T01201140 IEM_DS3505
ZBAA,2004-03-12 12:00,ZBAA 121200Z AUTO 11006KT 9SM 13/M16 RMK SLP159 T01341163 52010 IEM_DS3505
ZBAA,2004-03-12 13:00,ZBAA 121300Z AUTO 02004KT 6SM 11/M11 A3003 RMK T01101110 IEM_DS3505
ZBAA,2004-03-12 14:00,ZBAA 121400Z AUTO 03004KT 6SM 11/M11 A3006 RMK T01101110 IEM_DS3505
ZBAA,2004-03-12 15:00,ZBAA 121500Z AUTO 07004KT 9SM 12/M09 A3006 RMK SLP174 T01171087 52016 IEM_DS3505
ZBAA,2004-03-12 16:00,ZBAA 121600Z AUTO 03006KT 6SM 11/M12 A3009 RMK T01101120 IEM_DS3505
ZBAA,2004-03-12 17:00,ZBAA 121700Z AUTO 03004KT 6SM 10/M10 A3009 RMK T01001100 IEM_DS3505
ZBAA,2004-03-12 18:00,ZBAA 121800Z AUTO 02004KT 7SM 11/M12 A3012 RMK SLP186 T01061120 52012 IEM_DS3505
ZBAA,2004-03-12 19:00,ZBAA 121900Z AUTO 06004KT 6SM 09/M02 A3012 RMK T00901020 IEM_DS3505
ZBAA,2004-03-12 20:00,ZBAA 122000Z AUTO 02004KT 6SM 08/02 A3012 RMK T00800020 IEM_DS3505
ZBAA,2004-03-12 21:00,ZBAA 122100Z AUTO 09008KT 6SM 07/03 A3015 RMK SLP206 T00720027 52019 IEM_DS3505
ZBAA,2004-03-12 22:00,ZBAA 122200Z AUTO 12004KT 6SM 06/02 A3015 RMK T00600020 IEM_DS3505
ZBAA,2004-03-12 23:00,ZBAA 122300Z AUTO 14004KT 6SM 04/02 A3021 RMK T00400020 IEM_DS3505
ZBAA,2004-03-13 00:00,ZBAA 130000Z AUTO 04002KT 5SM 07/02 A3024 RMK SLP240 T00680025 52034 IEM_DS3505
ZBAA,2004-03-13 01:00,ZBAA 130100Z AUTO 13010KT 6SM 09/00 A3027 RMK T00900000 IEM_DS3505
ZBAA,2004-03-13 02:00,ZBAA 130200Z AUTO 13014KT 6SM 09/01 A3027 RMK T00900010 IEM_DS3505
ZBAA,2004-03-13 03:00,ZBAA 130300Z AUTO 11010KT 9SM 09/M01 A3027 RMK SLP249 T00931008 52009 IEM_DS3505
ZBAA,2004-03-13 04:00,ZBAA 130400Z AUTO 14012KT 6SM 11/M01 A3027 RMK T01101010 IEM_DS3505
ZBAA,2004-03-13 05:00,ZBAA 130500Z AUTO 16008KT 6SM 12/M02 A3024 RMK T01201020 IEM_DS3505
ZBAA,2004-03-13 06:00,ZBAA 130600Z AUTO 18006KT 12SM 11/M03 A3021 RMK SLP228 T01091032 57021 IEM_DS3505
ZBAA,2004-03-13 07:00,ZBAA 130700Z AUTO 13010KT 6SM 12/M01 A3018 RMK T01201010 IEM_DS3505
ZBAA,2004-03-13 08:00,ZBAA 130800Z AUTO 13008KT 6SM 12/M01 A3018 RMK T01201010 IEM_DS3505
ZBAA,2004-03-13 08:30,ZBAA 130830Z AUTO 17006KT 6SM 12/M01 A3018 RMK T01201010 IEM_DS3505
ZBAA,2004-03-13 09:00,ZBAA 130900Z AUTO 18006KT 9SM 11/M05 A3018 RMK SLP223 T01091051 57005 IEM_DS3505
ZBAA,2004-03-13 10:00,ZBAA 131000Z AUTO 17008KT 6SM 10/M02 A3018 RMK T01001020 IEM_DS3505
ZBAA,2004-03-13 11:00,ZBAA 131100Z AUTO 16010KT 6SM 08/M05 A3021 RMK T00801050 IEM_DS3505
ZBAA,2004-03-13 12:00,ZBAA 131200Z AUTO 18010KT 11SM 07/M05 A3024 RMK SLP239 T00681049 52015 IEM_DS3505
ZBAA,2004-03-13 13:00,ZBAA 131300Z AUTO 19010KT 6SM 06/M03 A3024 RMK T00601030 IEM_DS3505
ZBAA,2004-03-13 14:00,ZBAA 131400Z AUTO 18008KT 6SM 05/M03 A3027 RMK T00501030 IEM_DS3505
ZBAA,2004-03-13 15:00,ZBAA 131500Z AUTO 22006KT 9SM 04/M04 A3027 RMK SLP251 T00431044 52012 IEM_DS3505
ZBAA,2004-03-13 16:00,ZBAA 131600Z AUTO 19008KT 6SM 04/M03 A3027 RMK T00401030 IEM_DS3505
ZBAA,2004-03-13 17:00,ZBAA 131700Z AUTO 19006KT 6SM 04/M04 A3027 RMK T00401040 IEM_DS3505
ZBAA,2004-03-13 18:00,ZBAA 131800Z AUTO 22004KT 7SM 03/M05 A3024 RMK SLP244 T00291047 57007 IEM_DS3505
ZBAA,2004-03-13 19:00,ZBAA 131900Z AUTO 13002KT 6SM 02/M03 A3024 RMK T00201030 IEM_DS3505
ZBAA,2004-03-13 20:00,ZBAA 132000Z AUTO 08004KT 6SM 01/M03 A3024 RMK T00101030 IEM_DS3505
ZBAA,2004-03-13 21:00,ZBAA 132100Z AUTO 11002KT 9SM 02/M05 A3021 RMK SLP233 T00161051 57011 IEM_DS3505
ZBAA,2004-03-13 22:00,ZBAA 132200Z AUTO 09002KT 6SM M01/M04 A3021 RMK T10101040 IEM_DS3505
ZBAA,2004-03-13 23:00,ZBAA 132300Z AUTO 12002KT 4SM M01/M03 A3021 RMK T10101030 IEM_DS3505
ZBAA,2004-03-14 00:00,ZBAA 140000Z AUTO 36002KT 6SM 02/M04 A3021 RMK SLP230 T00241037 57003 IEM_DS3505
ZBAA,2004-03-14 01:00,ZBAA 140100Z AUTO 12004KT 04/M02 A3021 RMK T00401020 IEM_DS3505
ZBAA,2004-03-14 02:00,ZBAA 140200Z AUTO 14004KT 06/M01 A3018 RMK T00601010 IEM_DS3505
ZBAA,2004-03-14 03:00,ZBAA 140300Z AUTO 18004KT 6SM 05/M02 A3018 RMK SLP219 T00501025 57011 IEM_DS3505
ZBAA,2004-03-14 04:00,ZBAA 140400Z AUTO 11004KT 07/00 A3018 RMK T00700000 IEM_DS3505
ZBAA,2004-03-14 05:00,ZBAA 140500Z AUTO 08/00 A3012 RMK T00800000 IEM_DS3505
ZBAA,2004-03-14 06:00,ZBAA 140600Z AUTO 09002KT 6SM 10/M01 A3009 RMK SLP187 T00971007 57031 IEM_DS3505
ZBAA,2004-03-14 07:00,ZBAA 140700Z AUTO 19006G17KT 3SM 11/01 A3006 RMK T01100010 IEM_DS3505
ZBAA,2004-03-14 07:30,ZBAA 140730Z AUTO 19006KT 3SM 11/02 A3003 RMK T01100020 IEM_DS3505
ZBAA,2004-03-14 08:00,ZBAA 140800Z AUTO 15006KT 2 1/2SM 11/02 A3003 RMK T01100020 IEM_DS3505
ZBAA,2004-03-14 08:30,ZBAA 140830Z AUTO 17006KT 2 1/2SM 11/03 A3003 RMK T01100030 IEM_DS3505
ZBAA,2004-03-14 09:00,ZBAA 140900Z AUTO 25002KT 7SM 11/01 A3000 RMK SLP162 T01090006 57025 IEM_DS3505
ZBAA,2004-03-14 10:00,ZBAA 141000Z AUTO 2 1/2SM 10/03 A3000 RMK T01000030 IEM_DS3505
ZBAA,2004-03-14 11:00,ZBAA 141100Z AUTO 11002KT 2SM 09/03 A3000 RMK T00900030 IEM_DS3505
ZBAA,2004-03-14 12:00,ZBAA 141200Z AUTO 00000KT 4SM 08/01 A3000 RMK SLP161 T00790009 57001 IEM_DS3505
ZBAA,2004-03-14 13:00,ZBAA 141300Z AUTO 11002KT 2SM 05/01 A3000 RMK T00500010 IEM_DS3505
ZBAA,2004-03-14 13:30,ZBAA 141330Z AUTO 15002KT 2SM 06/02 A3000 RMK T00600020 IEM_DS3505
ZBAA,2004-03-14 14:00,ZBAA 141400Z AUTO 08002KT 2 1/2SM 06/02 A3003 RMK T00600020 IEM_DS3505
ZBAA,2004-03-14 15:00,ZBAA 141500Z AUTO 09006KT 4SM 06/01 A3000 RMK SLP152 T00600010 57009 IEM_DS3505
ZBAA,2004-03-14 16:00,ZBAA 141600Z AUTO 11004KT 2 1/2SM 04/01 A2997 RMK T00400010 IEM_DS3505
ZBAA,2004-03-14 17:00,ZBAA 141700Z AUTO 11002KT 2 1/2SM 04/01 A2994 RMK T00400010 IEM_DS3505
ZBAA,2004-03-14 18:00,ZBAA 141800Z AUTO 04002KT 3SM 04/01 A2994 RMK SLP130 T00430006 57022 IEM_DS3505
ZBAA,2004-03-14 19:00,ZBAA 141900Z AUTO 00000KT 2 1/2SM 04/02 A2991 RMK T00400020 IEM_DS3505
ZBAA,2004-03-14 20:00,ZBAA 142000Z AUTO 00000KT 2 1/2SM 05/02 A2988 RMK T00500020 IEM_DS3505
ZBAA,2004-03-14 21:00,ZBAA 142100Z AUTO 04004KT 3SM 05/00 A2985 RMK SLP104 T00500002 57026 IEM_DS3505
ZBAA,2004-03-14 22:00,ZBAA 142200Z AUTO 29004KT 2SM 05/02 A2983 RMK T00500020 IEM_DS3505
ZBAA,2004-03-14 23:00,ZBAA 142300Z AUTO 34004KT 2SM 05/02 A2983 RMK T00500020 IEM_DS3505
ZBAA,2004-03-15 00:00,ZBAA 150000Z AUTO 04004KT 4SM 06/00 A2983 RMK SLP099 T00610000 57005 IEM_DS3505
ZBAA,2004-03-15 01:00,ZBAA 150100Z AUTO 28006KT 2SM 07/03 A2983 RMK T00700030 IEM_DS3505
ZBAA,2004-03-15 02:00,ZBAA 150200Z AUTO 30004KT 2SM 07/03 A2980 RMK T00700030 IEM_DS3505
ZBAA,2004-03-15 03:00,ZBAA 150300Z AUTO 07006KT 4SM 08/01 A2980 RMK SLP087 T00810011 57012 IEM_DS3505
ZBAA,2004-03-15 04:00,ZBAA 150400Z AUTO 10002KT 2 1/2SM 09/03 A2980 RMK T00900030 IEM_DS3505
ZBAA,2004-03-15 05:00,ZBAA 150500Z AUTO 11004KT 2SM 10/04 A2974 RMK T01000040 IEM_DS3505
ZBAA,2004-03-15 06:00,ZBAA 150600Z AUTO 09006KT 4SM 12/02 A2974 RMK SLP060 T01150023 57027 IEM_DS3505
ZBAA,2004-03-15 07:00,ZBAA 150700Z AUTO 09004KT 2SM 12/04 A2968 RMK T01200040 IEM_DS3505
ZBAA,2004-03-15 08:00,ZBAA 150800Z AUTO 14008KT 2SM 11/06 A2968 RMK T01100060 IEM_DS3505
ZBAA,2004-03-15 09:00,ZBAA 150900Z AUTO 11004KT 4SM 10/04 A2971 RMK SLP053 T00990043 57007 IEM_DS3505
ZBAA,2004-03-15 10:00,ZBAA 151000Z AUTO 15004KT 1SM 09/07 A2971 RMK T00900070 IEM_DS3505
ZBAA,2004-03-15 11:00,ZBAA 151100Z AUTO 14006KT 1SM 08/07 A2974 RMK T00800070 IEM_DS3505
ZBAA,2004-03-15 12:00,ZBAA 151200Z AUTO 09004KT 2 1/2SM 08/04 A2974 RMK SLP071 T00830045 52018 IEM_DS3505
ZBAA,2004-03-15 13:00,ZBAA 151300Z AUTO 04002KT 1SM 07/06 A2977 RMK T00700060 IEM_DS3505
ZBAA,2004-03-15 14:00,ZBAA 151400Z AUTO 36004KT 1SM 07/06 A2980 RMK T00700060 IEM_DS3505
ZBAA,2004-03-15 15:00,ZBAA 151500Z AUTO 04002KT 2 1/2SM 08/04 A2980 RMK SLP089 T00770041 52018 IEM_DS3505
ZBAA,2004-03-15 16:00,ZBAA 151600Z AUTO 31004KT 1SM 07/06 A2980 RMK T00700060 IEM_DS3505
ZBAA,2004-03-15 17:00,ZBAA 151700Z AUTO 31006KT 1SM 07/06 A2980 RMK T00700060 IEM_DS3505
ZBAA,2004-03-15 18:00,ZBAA 151800Z AUTO 29004KT 2SM 08/04 A2980 RMK SLP094 T00750043 52005 IEM_DS3505
ZBAA,2004-03-15 19:00,ZBAA 151900Z AUTO 31002KT 1SM 07/06 A2977 RMK T00700060 IEM_DS3505
ZBAA,2004-03-15 20:00,ZBAA 152000Z AUTO 33004KT 1SM 05/04 A2980 RMK T00500040 IEM_DS3505
ZBAA,2004-03-15 21:00,ZBAA 152100Z AUTO 16004KT 2SM 06/04 A2980 RMK SLP088 T00610036 57006 IEM_DS3505
ZBAA,2004-03-15 22:00,ZBAA 152200Z AUTO 13004KT 1SM 04/04 A2980 RMK T00400040 IEM_DS3505
ZBAA,2004-03-15 23:00,ZBAA 152300Z AUTO 00000KT 3/8SM 04/04 A2983 RMK T00400040 IEM_DS3505
ZBAA,2004-03-16 00:00,ZBAA 160000Z AUTO 34002KT 1SM 07/03 A2985 RMK SLP113 T00720033 52025 IEM_DS3505
ZBAA,2004-03-16 01:00,ZBAA 160100Z AUTO 15004KT 1SM 07/05 A2985 RMK T00700050 IEM_DS3505
ZBAA,2004-03-16 02:00,ZBAA 160200Z AUTO 19008KT 2 1/2SM 09/02 A2985 RMK T00900020 IEM_DS3505
ZBAA,2004-03-16 03:00,ZBAA 160300Z AUTO 18006KT 7SM 09/M04 A2985 RMK SLP112 T00901035 57001 IEM_DS3505
ZBAA,2004-03-16 04:00,ZBAA 160400Z AUTO 20006KT 3SM 10/02 A2985 RMK T01000020 IEM_DS3505
ZBAA,2004-03-16 05:00,ZBAA 160500Z AUTO 22006KT 3SM 11/02 A2983 RMK T01100020 IEM_DS3505
ZBAA,2004-03-16 06:00,ZBAA 160600Z AUTO 11002KT 9SM 11/M05 A2983 RMK SLP098 T01101050 57014 IEM_DS3505
ZBAA,2004-03-16 07:00,ZBAA 160700Z AUTO 24004KT 12/00 A2983 RMK T01200000 IEM_DS3505
ZBAA,2004-03-16 08:00,ZBAA 160800Z AUTO 34017G27KT 6SM 13/03 A2985 RMK T01300030 IEM_DS3505
ZBAA,2004-03-16 09:00,ZBAA 160900Z AUTO 34010KT 5SM 12/M03 A2988 RMK SLP115 T01241026 52017 IEM_DS3505
ZBAA,2004-03-16 10:00,ZBAA 161000Z AUTO 28006KT 6SM 12/00 A2991 RMK T01200000 IEM_DS3505
ZBAA,2004-03-16 11:00,ZBAA 161100Z AUTO 31006KT 6SM 11/00 A2994 RMK T01100000 IEM_DS3505
ZBAA,2004-03-16 12:00,ZBAA 161200Z AUTO 32019G43KT 9SM 12/M18 A3003 RMK SLP173 T01161177 52058 IEM_DS3505
ZBAA,2004-03-16 13:00,ZBAA 161300Z AUTO 33021G33KT 6SM 08/M22 A3015 RMK T00801220 IEM_DS3505
ZBAA,2004-03-16 14:00,ZBAA 161400Z AUTO 32027G37KT 6SM 06/M22 A3021 RMK T00601220 IEM_DS3505
ZBAA,2004-03-16 15:00,ZBAA 161500Z AUTO 36014G29KT 9SM 05/M21 A3027 RMK SLP257 T00461213 52083 IEM_DS3505
ZBAA,2004-03-16 16:00,ZBAA 161600Z AUTO 34017G31KT 6SM 02/M20 A3033 RMK T00201200 IEM_DS3505
ZBAA,2004-03-16 17:00,ZBAA 161700Z AUTO 34014KT 6SM 01/M20 A3039 RMK T00101200 IEM_DS3505
ZBAA,2004-03-16 18:00,ZBAA 161800Z AUTO 36014KT 16SM 02/M21 A3045 RMK SLP307 T00181212 52050 IEM_DS3505
ZBAA,2004-03-16 19:00,ZBAA 161900Z AUTO 33012KT 6SM 00/M18 A3045 RMK T00001180 IEM_DS3505
ZBAA,2004-03-16 20:00,ZBAA 162000Z AUTO 32017KT 6SM 00/M18 A3047 RMK T00001180 IEM_DS3505
ZBAA,2004-03-16 21:00,ZBAA 162100Z AUTO 36008KT 16SM 00/M20 A3045 RMK SLP314 T00051197 52007 IEM_DS3505
ZBAA,2004-03-16 22:00,ZBAA 162200Z AUTO 34012KT 6SM M01/M18 A3047 RMK T10101180 IEM_DS3505
ZBAA,2004-03-16 22:30,ZBAA 162230Z AUTO 36014KT 6SM M01/M18 A3047 RMK T10101180 IEM_DS3505
ZBAA,2004-03-16 23:00,ZBAA 162300Z AUTO 35016KT 6SM 00/M18 A3047 RMK T00001180 IEM_DS3505
ZBAA,2004-03-16 23:30,ZBAA 162330Z AUTO 34016KT 6SM 00/M18 A3047 RMK T00001180 IEM_DS3505
ZBAA,2004-03-17 00:00,ZBAA 170000Z AUTO 34008KT 16SM 01/M18 A3047 RMK SLP322 T00071180 52008 IEM_DS3505
ZBAA,2004-03-17 01:00,ZBAA 170100Z AUTO 31012KT 6SM 02/M18 A3047 RMK T00201180 IEM_DS3505
ZBAA,2004-03-17 02:00,ZBAA 170200Z AUTO 32014KT 6SM 04/M18 A3047 RMK T00401180 IEM_DS3505
ZBAA,2004-03-17 03:00,ZBAA 170300Z AUTO 34012KT 19SM 04/M19 A3047 RMK SLP319 T00401194 57003 IEM_DS3505
ZBAA,2004-03-17 04:00,ZBAA 170400Z AUTO 29014KT 6SM 06/M17 A3047 RMK T00601170 IEM_DS3505
ZBAA,2004-03-17 05:00,ZBAA 170500Z AUTO 29016G25KT 6SM 07/M18 A3045 RMK T00701180 IEM_DS3505
ZBAA,2004-03-17 06:00,ZBAA 170600Z AUTO 02008KT 19SM 07/M21 A3042 RMK SLP298 T00671206 57021 IEM_DS3505
ZBAA,2004-03-17 07:00,ZBAA 170700Z AUTO 33008KT 6SM 08/M19 A3036 RMK T00801190 IEM_DS3505
ZBAA,2004-03-17 08:00,ZBAA 170800Z AUTO 28010KT 6SM 08/M20 A3036 RMK T00801200 IEM_DS3505
ZBAA,2004-03-17 09:00,ZBAA 170900Z AUTO 34006KT 19SM 08/M22 A3036 RMK SLP280 T00781218 57018 IEM_DS3505
ZBAA,2004-03-17 10:00,ZBAA 171000Z AUTO 32010KT 6SM 07/M21 A3036 RMK T00701210 IEM_DS3505
ZBAA,2004-03-17 11:00,ZBAA 171100Z AUTO 28006KT 6SM 06/M20 A3036 RMK T00601200 IEM_DS3505
ZBAA,2004-03-17 12:00,ZBAA 171200Z AUTO 27004KT 19SM 05/M17 A3039 RMK SLP292 T00501172 52012 IEM_DS3505
ZBAA,2004-03-17 13:00,ZBAA 171300Z AUTO 27004KT 6SM 04/M19 A3042 RMK T00401190 IEM_DS3505
ZBAA,2004-03-17 14:00,ZBAA 171400Z AUTO 29004KT 6SM 04/M18 A3042 RMK T00401180 IEM_DS3505
ZBAA,2004-03-17 15:00,ZBAA 171500Z AUTO 27004KT 12SM 04/M16 A3042 RMK SLP301 T00361160 52009 IEM_DS3505
ZBAA,2004-03-17 16:00,ZBAA 171600Z AUTO 25002KT 6SM 03/M18 A3042 RMK T00301180 IEM_DS3505
ZBAA,2004-03-17 17:00,ZBAA 171700Z AUTO 34004KT 6SM M02/M16 A3045 RMK T10201160 IEM_DS3505
ZBAA,2004-03-17 18:00,ZBAA 171800Z AUTO 27006KT 19SM 04/M17 A3045 RMK SLP306 T00351167 52005 IEM_DS3505
ZBAA,2004-03-17 19:00,ZBAA 171900Z AUTO 36002KT 6SM M03/M15 A3042 RMK T10301150 IEM_DS3505
ZBAA,2004-03-17 20:00,ZBAA 172000Z AUTO 34004KT 6SM M03/M16 A3042 RMK T10301160 IEM_DS3505
ZBAA,2004-03-17 21:00,ZBAA 172100Z AUTO 04004KT 12SM 01/M16 A3045 RMK SLP302 T00071161 57004 IEM_DS3505
ZBAA,2004-03-17 22:00,ZBAA 172200Z AUTO 35006KT 6SM M07/M14 A3045 RMK T10701140 IEM_DS3505
ZBAA,2004-03-17 23:00,ZBAA 172300Z AUTO 35006KT 6SM M06/M13 A3045 RMK T10601130 IEM_DS3505
ZBAA,2004-03-18 00:00,ZBAA 180000Z AUTO 02004KT 9SM 03/M18 A3045 RMK SLP313 T00271185 52011 IEM_DS3505
ZBAA,2004-03-18 01:00,ZBAA 180100Z AUTO 02004KT 6SM 04/M16 A3047 RMK T00401160 IEM_DS3505
ZBAA,2004-03-18 02:00,ZBAA 180200Z AUTO 6SM 06/M18 A3045 RMK T00601180 IEM_DS3505
ZBAA,2004-03-18 03:00,ZBAA 180300Z AUTO 04002KT 9SM 08/M20 A3042 RMK SLP305 T00761199 57008 IEM_DS3505
ZBAA,2004-03-18 04:00,ZBAA 180400Z AUTO 15006KT 6SM 08/M18 A3039 RMK T00801180 IEM_DS3505
ZBAA,2004-03-18 05:00,ZBAA 180500Z AUTO 19006KT 6SM 10/M18 A3036 RMK T01001180 IEM_DS3505
ZBAA,2004-03-18 06:00,ZBAA 180600Z AUTO 27010KT 12SM 10/M17 A3033 RMK SLP268 T01041167 57037 IEM_DS3505
ZBAA,2004-03-18 07:00,ZBAA 180700Z AUTO 19006KT 6SM 11/M16 A3027 RMK T01101160 IEM_DS3505
ZBAA,2004-03-18 08:00,ZBAA 180800Z AUTO 18008KT 6SM 12/M15 A3027 RMK T01201150 IEM_DS3505
ZBAA,2004-03-18 09:00,ZBAA 180900Z AUTO 22012KT 12SM 11/M17 A3024 RMK SLP242 T01111171 57026 IEM_DS3505
ZBAA,2004-03-18 10:00,ZBAA 181000Z AUTO 21008KT 6SM 10/M15 A3024 RMK T01001150 IEM_DS3505
ZBAA,2004-03-18 11:00,ZBAA 181100Z AUTO 20008KT 6SM 08/M13 A3024 RMK T00801130 IEM_DS3505
ZBAA,2004-03-18 12:00,ZBAA 181200Z AUTO 22006KT 9SM 08/M14 A3024 RMK SLP248 T00771137 52006 IEM_DS3505
ZBAA,2004-03-18 13:00,ZBAA 181300Z AUTO 17004KT 6SM 07/M11 A3027 RMK T00701110 IEM_DS3505
ZBAA,2004-03-18 14:00,ZBAA 181400Z AUTO 15004KT 6SM 05/M11 A3027 RMK T00501110 IEM_DS3505
ZBAA,2004-03-18 15:00,ZBAA 181500Z AUTO 22004KT 7SM 06/M12 A3024 RMK SLP245 T00651120 57003 IEM_DS3505
ZBAA,2004-03-18 16:00,ZBAA 181600Z AUTO 13006KT 6SM 03/M09 A3024 RMK T00301090 IEM_DS3505
ZBAA,2004-03-18 17:00,ZBAA 181700Z AUTO 15004KT 6SM 03/M08 A3024 RMK T00301080 IEM_DS3505
ZBAA,2004-03-18 18:00,ZBAA 181800Z AUTO 22006KT 12SM 05/M12 A3024 RMK SLP233 T00491116 57011 IEM_DS3505
ZBAA,2004-03-18 19:00,ZBAA 181900Z AUTO 10004KT 6SM 02/M07 A3021 RMK T00201070 IEM_DS3505
ZBAA,2004-03-18 20:00,ZBAA 182000Z AUTO 13004KT 6SM 03/M07 A3018 RMK T00301070 IEM_DS3505
ZBAA,2004-03-18 21:00,ZBAA 182100Z AUTO 22002KT 7SM 04/M10 A3018 RMK SLP216 T00431101 57017 IEM_DS3505
ZBAA,2004-03-18 22:00,ZBAA 182200Z AUTO 14002KT 6SM 01/M08 A3018 RMK T00101080 IEM_DS3505
ZBAA,2004-03-18 23:00,ZBAA 182300Z AUTO 01002KT 00/M07 A3021 RMK T00001070 IEM_DS3505
ZBAA,2004-03-19 00:00,ZBAA 190000Z AUTO 20002KT 5SM 05/M09 A3021 RMK SLP230 T00511094 52013 IEM_DS3505
ZBAA,2004-03-19 01:00,ZBAA 190100Z AUTO 09002KT 3SM 05/M06 A3021 RMK T00501060 IEM_DS3505
ZBAA,2004-03-19 02:00,ZBAA 190200Z AUTO 09002KT 3SM 07/M06 A3021 RMK T00701060 IEM_DS3505
ZBAA,2004-03-19 03:00,ZBAA 190300Z AUTO 18004KT 5SM 09/M07 A3018 RMK SLP221 T00921066 57008 IEM_DS3505
ZBAA,2004-03-19 04:00,ZBAA 190400Z AUTO 11/M08 A3015 RMK T01101080 IEM_DS3505
ZBAA,2004-03-19 05:00,ZBAA 190500Z AUTO 20004KT 5SM 13/M09 A3012 RMK T01301090 IEM_DS3505
ZBAA,2004-03-19 06:00,ZBAA 190600Z AUTO 20004KT 6SM 13/M05 A3009 RMK SLP189 T01311049 57032 IEM_DS3505
ZBAA,2004-03-19 07:00,ZBAA 190700Z AUTO 19010KT 5SM 14/M06 A3006 RMK T01401060 IEM_DS3505
ZBAA,2004-03-19 08:00,ZBAA 190800Z AUTO 18010KT 5SM 15/M05 A3003 RMK T01501050 IEM_DS3505
ZBAA,2004-03-19 09:00,ZBAA 190900Z AUTO 20012KT 6SM 13/M05 A3003 RMK SLP172 T01311054 57017 IEM_DS3505
ZBAA,2004-03-19 10:00,ZBAA 191000Z AUTO 18008KT 6SM 12/M03 A3006 RMK T01201030 IEM_DS3505
ZBAA,2004-03-19 11:00,ZBAA 191100Z AUTO 18006KT 5SM 10/M02 A3009 RMK T01001020 IEM_DS3505
ZBAA,2004-03-19 12:00,ZBAA 191200Z AUTO 22004KT 7SM 10/M04 A3012 RMK SLP202 T00981041 52030 IEM_DS3505
ZBAA,2004-03-19 13:00,ZBAA 191300Z AUTO 34002KT 06/M03 A3015 RMK T00601030 IEM_DS3505
ZBAA,2004-03-19 14:00,ZBAA 191400Z AUTO 32010KT 08/M02 A3018 RMK T00801020 IEM_DS3505
ZBAA,2004-03-19 15:00,ZBAA 191500Z AUTO 36006KT 12SM 10/M17 A3018 RMK SLP223 T01031168 52021 IEM_DS3505
ZBAA,2004-03-19 16:00,ZBAA 191600Z AUTO 34010KT 6SM 07/M18 A3021 RMK T00701180 IEM_DS3505
ZBAA,2004-03-19 18:00,ZBAA 191800Z AUTO 36004KT 19SM 08/M19 A3024 RMK SLP232 T00841192 52009 IEM_DS3505
ZBAA,2004-03-19 19:00,ZBAA 191900Z AUTO 02006KT 6SM 05/M12 A3024 RMK T00501120 IEM_DS3505
ZBAA,2004-03-19 20:00,ZBAA 192000Z AUTO 06002KT 6SM 03/M13 A3024 RMK T00301130 IEM_DS3505
ZBAA,2004-03-19 21:00,ZBAA 192100Z AUTO 04004KT 19SM 06/M18 A3027 RMK SLP253 T00631183 52021 IEM_DS3505
ZBAA,2004-03-19 22:00,ZBAA 192200Z AUTO 33006KT 6SM 02/M14 A3033 RMK T00201140 IEM_DS3505
ZBAA,2004-03-19 23:00,ZBAA 192300Z AUTO 33006KT 6SM 04/M14 A3033 RMK T00401140 IEM_DS3505
ZBAA,2004-03-20 00:00,ZBAA 200000Z AUTO 04008KT 16SM 08/M17 A3036 RMK SLP272 T00751173 52019 IEM_DS3505
ZBAA,2004-03-20 01:00,ZBAA 200100Z AUTO 01010KT 6SM 09/M15 A3036 RMK T00901150 IEM_DS3505
ZBAA,2004-03-20 02:00,ZBAA 200200Z AUTO 04006KT 6SM 11/M15 A3036 RMK T01101150 IEM_DS3505
ZBAA,2004-03-20 03:00,ZBAA 200300Z AUTO 36006KT 12SM 12/M19 A3036 RMK SLP271 T01191186 57001 IEM_DS3505
ZBAA,2004-03-20 04:00,ZBAA 200400Z AUTO 05006KT 6SM 14/M15 A3033 RMK T01401150 IEM_DS3505
ZBAA,2004-03-20 05:00,ZBAA 200500Z AUTO 6SM 14/M16 A3027 RMK T01401160 IEM_DS3505
ZBAA,2004-03-20 06:00,ZBAA 200600Z AUTO 36004KT 12SM 14/M18 A3024 RMK SLP236 T01381184 57035 IEM_DS3505
ZBAA,2004-03-20 07:00,ZBAA 200700Z AUTO 14004KT 6SM 14/M16 A3021 RMK T01401160 IEM_DS3505
ZBAA,2004-03-20 08:00,ZBAA 200800Z AUTO 6SM 14/M17 A3018 RMK T01401170 IEM_DS3505
ZBAA,2004-03-20 09:00,ZBAA 200900Z AUTO 22006KT 12SM 13/M19 RMK SLP224 T01341187 57012 IEM_DS3505
ZBAA,2004-03-20 10:00,ZBAA 201000Z AUTO 19008KT 6SM 12/M15 A3018 RMK T01201150 IEM_DS3505
ZBAA,2004-03-20 11:00,ZBAA 201100Z AUTO 19004KT 6SM 10/M14 A3021 RMK T01001140 IEM_DS3505
ZBAA,2004-03-20 12:00,ZBAA 201200Z AUTO 18008KT 7SM 10/M10 A3021 RMK SLP234 T00991102 52010 IEM_DS3505
ZBAA,2004-03-20 13:00,ZBAA 201300Z AUTO 16008KT 6SM 08/M07 A3024 RMK T00801070 IEM_DS3505
ZBAA,2004-03-20 14:00,ZBAA 201400Z AUTO 16008KT 6SM 07/M07 A3024 RMK T00701070 IEM_DS3505
ZBAA,2004-03-20 15:00,ZBAA 201500Z AUTO 20006KT 7SM 07/M08 A3024 RMK SLP242 T00701077 52008 IEM_DS3505
ZBAA,2004-03-20 16:00,ZBAA 201600Z AUTO 13006KT 6SM 04/M04 A3024 RMK T00401040 IEM_DS3505
ZBAA,2004-03-20 17:00,ZBAA 201700Z AUTO 10004KT 6SM 03/M04 A3024 RMK T00301040 IEM_DS3505
ZBAA,2004-03-20 18:00,ZBAA 201800Z AUTO 11004KT 9SM 05/M06 A3021 RMK SLP228 T00511055 57014 IEM_DS3505
ZBAA,2004-03-20 19:00,ZBAA 201900Z AUTO 02002KT 6SM 01/M05 A3021 RMK T00101050 IEM_DS3505
ZBAA,2004-03-20 20:00,ZBAA 202000Z AUTO 11004KT 6SM 01/M05 A3018 RMK T00101050 IEM_DS3505
ZBAA,2004-03-20 21:00,ZBAA 202100Z AUTO 09004KT 9SM 03/M04 A3021 RMK SLP224 T00271045 57004 IEM_DS3505
ZBAA,2004-03-20 22:00,ZBAA 202200Z AUTO 05002KT 6SM 02/M04 A3018 RMK T00201040 IEM_DS3505
ZBAA,2004-03-20 23:00,ZBAA 202300Z AUTO 00000KT 6SM 02/M03 A3018 RMK T00201030 IEM_DS3505
ZBAA,2004-03-21 00:00,ZBAA 210000Z AUTO 04002KT 6SM 03/M04 A3018 RMK SLP223 T00321042 57002 IEM_DS3505
ZBAA,2004-03-21 01:00,ZBAA 210100Z AUTO 16004KT 6SM 05/M03 A3021 RMK T00501030 IEM_DS3505
ZBAA,2004-03-21 02:00,ZBAA 210200Z AUTO 13004KT 6SM 06/M03 A3021 RMK T00601030 IEM_DS3505
ZBAA,2004-03-21 03:00,ZBAA 210300Z AUTO 09004KT 6SM 07/M04 A3021 RMK SLP224 T00691042 52002 IEM_DS3505
ZBAA,2004-03-21 04:00,ZBAA 210400Z AUTO 10002KT 5SM 08/M02 A3018 RMK T00801020 IEM_DS3505
ZBAA,2004-03-21 05:00,ZBAA 210500Z AUTO 12002KT 5SM 09/M03 A3015 RMK T00901030 IEM_DS3505
ZBAA,2004-03-21 06:00,ZBAA 210600Z AUTO 11004KT 9SM 11/M06 A3012 RMK SLP196 T01121061 57028 IEM_DS3505
ZBAA,2004-03-21 07:00,ZBAA 210700Z AUTO 20004KT 11/M05 A3009 RMK T01101050 IEM_DS3505
ZBAA,2004-03-21 08:00,ZBAA 210800Z AUTO 15002KT 12/M05 A3009 RMK T01201050 IEM_DS3505
ZBAA,2004-03-21 09:00,ZBAA 210900Z AUTO 20008KT 7SM 12/M09 A3006 RMK SLP180 T01241086 57016 IEM_DS3505
ZBAA,2004-03-21 10:00,ZBAA 211000Z AUTO 36002KT 10/M04 A3006 RMK T01001040 IEM_DS3505
ZBAA,2004-03-21 11:00,ZBAA 211100Z AUTO 36006KT 09/M04 A3009 RMK T00901040 IEM_DS3505
ZBAA,2004-03-21 12:00,ZBAA 211200Z AUTO 22002KT 6SM 11/M08 A3012 RMK SLP197 T01121085 52017 IEM_DS3505
ZBAA,2004-03-21 13:00,ZBAA 211300Z AUTO 36004KT 09/M04 A3012 RMK T00901040 IEM_DS3505
ZBAA,2004-03-21 14:00,ZBAA 211400Z AUTO 35004KT 07/M03 A3012 RMK T00701030 IEM_DS3505
ZBAA,2004-03-21 15:00,ZBAA 211500Z AUTO 14002KT 7SM 09/M07 A3012 RMK SLP203 T00861067 52006 IEM_DS3505
ZBAA,2004-03-21 16:00,ZBAA 211600Z AUTO 07002KT 2SM 07/M03 A3015 RMK T00701030 IEM_DS3505
ZBAA,2004-03-21 17:00,ZBAA 211700Z AUTO 15002KT 2SM 05/M02 A3015 RMK T00501020 IEM_DS3505
ZBAA,2004-03-21 18:00,ZBAA 211800Z AUTO 22002KT 9SM 06/M03 A3015 RMK SLP203 T00561032 54000 IEM_DS3505
ZBAA,2004-03-21 19:00,ZBAA 211900Z AUTO 04002KT 2 1/2SM 03/M01 A3012 RMK T00301010 IEM_DS3505
ZBAA,2004-03-21 20:00,ZBAA 212000Z AUTO 03002KT 2 1/2SM 02/M02 A3012 RMK T00201020 IEM_DS3505
ZBAA,2004-03-21 21:00,ZBAA 212100Z AUTO 09004KT 9SM 04/M03 A3012 RMK SLP194 T00401033 57009 IEM_DS3505
ZBAA,2004-03-21 22:00,ZBAA 212200Z AUTO 36002KT 3SM 01/M03 A3012 RMK T00101030 IEM_DS3505
ZBAA,2004-03-21 23:00,ZBAA 212300Z AUTO 00000KT 2 1/2SM 02/M02 A3012 RMK T00201020 IEM_DS3505
ZBAA,2004-03-22 00:00,ZBAA 220000Z AUTO 02002KT 6SM 04/M02 A3015 RMK SLP209 T00451023 52015 IEM_DS3505
ZBAA,2004-03-22 01:00,ZBAA 220100Z AUTO 00000KT 06/M02 A3015 RMK T00601020 IEM_DS3505
ZBAA,2004-03-22 01:30,ZBAA 220130Z AUTO 06002KT 07/M02 A3015 RMK T00701020 IEM_DS3505
ZBAA,2004-03-22 02:00,ZBAA 220200Z AUTO 10004KT 07/M02 A3015 RMK T00701020 IEM_DS3505
ZBAA,2004-03-22 03:00,ZBAA 220300Z AUTO 04006KT 6SM 10/M02 A3012 RMK SLP200 T00961020 57009 IEM_DS3505
ZBAA,2004-03-22 04:00,ZBAA 220400Z AUTO 04002KT 12/M01 A3009 RMK T01201010 IEM_DS3505
ZBAA,2004-03-22 05:00,ZBAA 220500Z AUTO 16006KT 13/00 A3009 RMK T01300000 IEM_DS3505
ZBAA,2004-03-22 06:00,ZBAA 220600Z AUTO 25008KT 6SM 15/M01 A3006 RMK SLP174 T01471009 57026 IEM_DS3505
ZBAA,2004-03-22 07:00,ZBAA 220700Z AUTO 21006KT 3SM 14/01 A3003 RMK T01400010 IEM_DS3505
ZBAA,2004-03-22 08:00,ZBAA 220800Z AUTO 20006KT 3SM 15/01 A3000 RMK T01500010 IEM_DS3505
ZBAA,2004-03-22 09:00,ZBAA 220900Z AUTO 25008KT 6SM 15/00 A2997 RMK SLP150 T01470002 57024 IEM_DS3505
ZBAA,2004-03-22 10:00,ZBAA 221000Z AUTO 36008KT 2 1/2SM 13/01 A3000 RMK T01300010 IEM_DS3505
ZBAA,2004-03-22 11:00,ZBAA 221100Z AUTO 2 1/2SM 11/04 A2997 RMK T01100040 IEM_DS3505
ZBAA,2004-03-22 12:00,ZBAA 221200Z AUTO 16004KT 4SM 12/03 A3000 RMK SLP153 T01180028 52003 IEM_DS3505
ZBAA,2004-03-22 13:00,ZBAA 221300Z AUTO 31006KT 1 1/2SM 09/04 A3003 RMK T00900040 IEM_DS3505
ZBAA,2004-03-22 14:00,ZBAA 221400Z AUTO 26006KT 2SM 09/04 A3003 RMK T00900040 IEM_DS3505
ZBAA,2004-03-22 15:00,ZBAA 221500Z AUTO 00000KT 4SM 08/04 A3000 RMK SLP161 T00850038 52008 IEM_DS3505
ZBAA,2004-03-22 16:00,ZBAA 221600Z AUTO 28002KT 2SM 07/04 A3000 RMK T00700040 IEM_DS3505
ZBAA,2004-03-22 17:00,ZBAA 221700Z AUTO 00000KT 2SM 06/03 A3000 RMK T00600030 IEM_DS3505
ZBAA,2004-03-22 18:00,ZBAA 221800Z AUTO 20002KT 2 1/2SM 07/04 A3000 RMK 60000 SLP158 T00730037 57003 IEM_DS3505
ZBAA,2004-03-22 19:00,ZBAA 221900Z AUTO 36004KT 2SM 06/03 A3000 RMK T00600030 IEM_DS3505
ZBAA,2004-03-22 20:00,ZBAA 222000Z AUTO 34006KT 2 1/2SM 05/03 A2997 RMK T00500030 IEM_DS3505
ZBAA,2004-03-22 21:00,ZBAA 222100Z AUTO 11002KT 2 1/2SM 06/02 A3000 RMK 70000 SLP154 T00580019 57004 IEM_DS3505
ZBAA,2004-03-22 22:00,ZBAA 222200Z AUTO 33004KT 2SM 04/02 A3000 RMK T00400020 IEM_DS3505
ZBAA,2004-03-22 23:00,ZBAA 222300Z AUTO 31010KT 4SM 07/02 A3003 RMK T00700020 IEM_DS3505
ZBAA,2004-03-23 00:00,ZBAA 230000Z AUTO 36006KT 12SM 11/M08 A3003 RMK 70000 SLP168 T01061075 52014 IEM_DS3505
ZBAA,2004-03-23 01:00,ZBAA 230100Z AUTO 33010KT 6SM 13/M07 A3003 RMK T01301070 IEM_DS3505
ZBAA,2004-03-23 02:00,ZBAA 230200Z AUTO 30019KT 6SM 13/M12 A3003 RMK T01301120 IEM_DS3505
ZBAA,2004-03-23 03:00,ZBAA 230300Z AUTO 34014G27KT 16SM 14/M15 A3003 RMK SLP172 T01371151 52004 IEM_DS3505
ZBAA,2004-03-23 04:00,ZBAA 230400Z AUTO 28016G25KT 6SM 14/M10 A3003 RMK T01401100 IEM_DS3505
ZBAA,2004-03-23 05:00,ZBAA 230500Z AUTO 33021G35KT 6SM 15/M12 A3006 RMK T01501120 IEM_DS3505
ZBAA,2004-03-23 06:00,ZBAA 230600Z AUTO 29016G27KT 19SM 15/M12 A3003 RMK SLP172 T01461116 54000 IEM_DS3505
ZBAA,2004-03-23 07:00,ZBAA 230700Z AUTO 34012G23KT 6SM 15/M12 A3003 RMK T01501120 IEM_DS3505
ZBAA,2004-03-23 08:00,ZBAA 230800Z AUTO 31017KT 6SM 15/M11 A3003 RMK T01501110 IEM_DS3505
ZBAA,2004-03-23 09:00,ZBAA 230900Z AUTO 02012KT 19SM 14/M14 A3003 RMK SLP172 T01441136 54000 IEM_DS3505
ZBAA,2004-03-23 10:00,ZBAA 231000Z AUTO 35014KT 6SM 12/M11 A3006 RMK T01201110 IEM_DS3505
ZBAA,2004-03-23 11:00,ZBAA 231100Z AUTO 34012G21KT 6SM 11/M11 A3012 RMK T01101110 IEM_DS3505
ZBAA,2004-03-23 12:00,ZBAA 231200Z AUTO 36008KT 19SM 11/M13 A3018 RMK SLP217 T01141127 52045 IEM_DS3505
ZBAA,2004-03-23 13:00,ZBAA 231300Z AUTO 32008KT 6SM 09/M10 A3021 RMK T00901100 IEM_DS3505
ZBAA,2004-03-23 15:00,ZBAA 231500Z AUTO 36008KT 19SM 10/M15 A3027 RMK SLP239 T01001153 52022 IEM_DS3505
ZBAA,2004-03-23 16:00,ZBAA 231600Z AUTO 36006KT 6SM 06/M12 A3027 RMK T00601120 IEM_DS3505
ZBAA,2004-03-23 17:00,ZBAA 231700Z AUTO 02002KT 6SM 06/M10 A3027 RMK T00601100 IEM_DS3505
ZBAA,2004-03-23 18:00,ZBAA 231800Z AUTO 04006KT 16SM 08/M13 A3027 RMK SLP246 T00761132 52007 IEM_DS3505
ZBAA,2004-03-23 19:00,ZBAA 231900Z AUTO 36008KT 6SM 05/M11 A3027 RMK T00501110 IEM_DS3505
ZBAA,2004-03-23 20:00,ZBAA 232000Z AUTO 35002KT 6SM 03/M10 A3027 RMK T00301100 IEM_DS3505
ZBAA,2004-03-23 21:00,ZBAA 232100Z AUTO 04004KT 16SM 06/M12 A3030 RMK SLP257 T00621118 52011 IEM_DS3505
ZBAA,2004-03-23 22:00,ZBAA 232200Z AUTO 35006KT 6SM 00/M09 A3030 RMK T00001090 IEM_DS3505
ZBAA,2004-03-23 23:00,ZBAA 232300Z AUTO 35006KT 6SM 03/M07 A3030 RMK T00301070 IEM_DS3505
ZBAA,2004-03-24 00:00,ZBAA 240000Z AUTO 04006KT 12SM 08/M11 A3030 RMK SLP260 T00791108 52003 IEM_DS3505
ZBAA,2004-03-24 01:00,ZBAA 240100Z AUTO 04004KT 6SM 08/M08 A3030 RMK T00801080 IEM_DS3505
ZBAA,2004-03-24 02:00,ZBAA 240200Z AUTO 6SM 09/M09 A3030 RMK T00901090 IEM_DS3505
ZBAA,2004-03-24 03:00,ZBAA 240300Z AUTO 11002KT 12SM 10/M15 A3030 RMK SLP254 T01041150 57006 IEM_DS3505
ZBAA,2004-03-24 04:00,ZBAA 240400Z AUTO 6SM 10/M10 A3027 RMK T01001100 IEM_DS3505
ZBAA,2004-03-24 05:00,ZBAA 240500Z AUTO 16008KT 6SM 11/M12 A3024 RMK T01101120 IEM_DS3505
ZBAA,2004-03-24 06:00,ZBAA 240600Z AUTO 22010KT 12SM 12/M15 A3021 RMK SLP229 T01151150 57025 IEM_DS3505
ZBAA,2004-03-24 07:00,ZBAA 240700Z AUTO 19010KT 6SM 12/M13 A3018 RMK T01201130 IEM_DS3505
ZBAA,2004-03-24 08:00,ZBAA 240800Z AUTO 20010KT 6SM 12/M13 A3015 RMK T01201130 IEM_DS3505
ZBAA,2004-03-24 09:00,ZBAA 240900Z AUTO 22010KT 12SM 11/M12 A3012 RMK SLP203 T01111122 57026 IEM_DS3505
ZBAA,2004-03-24 10:00,ZBAA 241000Z AUTO 19010KT 6SM 10/M10 A3012 RMK T01001100 IEM_DS3505
ZBAA,2004-03-24 11:00,ZBAA 241100Z AUTO 18006KT 6SM 08/M09 A3012 RMK T00801090 IEM_DS3505
ZBAA,2004-03-24 12:00,ZBAA 241200Z AUTO 22006KT 12SM 08/M08 A3015 RMK SLP208 T00831078 52005 IEM_DS3505
ZBAA,2004-03-24 13:00,ZBAA 241300Z AUTO 18006KT 6SM 07/M06 A3015 RMK T00701060 IEM_DS3505
ZBAA,2004-03-24 14:00,ZBAA 241400Z AUTO 17004KT 6SM 06/M06 A3015 RMK T00601060 IEM_DS3505
ZBAA,2004-03-24 15:00,ZBAA 241500Z AUTO 22004KT 9SM 06/M06 A3015 RMK SLP207 T00621060 57001 IEM_DS3505
ZBAA,2004-03-24 16:00,ZBAA 241600Z AUTO 13004KT 6SM 04/M05 A3012 RMK T00401050 IEM_DS3505
ZBAA,2004-03-24 17:00,ZBAA 241700Z AUTO 00000KT 6SM 03/M04 A3012 RMK T00301040 IEM_DS3505
ZBAA,2004-03-24 18:00,ZBAA 241800Z AUTO 20002KT 12SM 04/M05 A3012 RMK SLP200 T00391050 57007 IEM_DS3505
ZBAA,2004-03-24 19:00,ZBAA 241900Z AUTO 10002KT 6SM 01/M05 A3012 RMK T00101050 IEM_DS3505
ZBAA,2004-03-24 20:00,ZBAA 242000Z AUTO 00000KT 6SM 00/M04 A3012 RMK T00001040 IEM_DS3505
ZBAA,2004-03-24 21:00,ZBAA 242100Z AUTO 00000KT 7SM 02/M04 A3012 RMK SLP195 T00161044 57005 IEM_DS3505
ZBAA,2004-03-24 22:00,ZBAA 242200Z AUTO 36002KT 6SM M01/M04 A3012 RMK T10101040 IEM_DS3505
ZBAA,2004-03-24 23:00,ZBAA 242300Z AUTO 00000KT 5SM 00/M04 A3015 RMK T00001040 IEM_DS3505
ZBAA,2004-03-25 00:00,ZBAA 250000Z AUTO 04002KT 6SM 05/M03 A3015 RMK SLP208 T00501033 52013 IEM_DS3505
ZBAA,2004-03-25 01:00,ZBAA 250100Z AUTO 06/M03 A3015 RMK T00601030 IEM_DS3505
ZBAA,2004-03-25 02:00,ZBAA 250200Z AUTO 03004KT 5SM 09/M04 A3015 RMK T00901040 IEM_DS3505
ZBAA,2004-03-25 03:00,ZBAA 250300Z AUTO 04004KT 9SM 12/M06 A3015 RMK SLP206 T01191060 57002 IEM_DS3505
ZBAA,2004-03-25 04:00,ZBAA 250400Z AUTO 6SM 15/M04 A3012 RMK T01501040 IEM_DS3505
ZBAA,2004-03-25 05:00,ZBAA 250500Z AUTO 36002KT 6SM 17/M07 A3009 RMK T01701070 IEM_DS3505
ZBAA,2004-03-25 06:00,ZBAA 250600Z AUTO 07006KT 19SM 16/M13 A3006 RMK SLP176 T01631130 57030 IEM_DS3505
ZBAA,2004-03-25 07:00,ZBAA 250700Z AUTO 6SM 18/M11 A3003 RMK T01801110 IEM_DS3505
ZBAA,2004-03-25 08:00,ZBAA 250800Z AUTO 6SM 18/M11 A3000 RMK T01801110 IEM_DS3505
ZBAA,2004-03-25 09:00,ZBAA 250900Z AUTO 22006KT 19SM 17/M08 A3000 RMK SLP164 T01681083 57012 IEM_DS3505
ZBAA,2004-03-25 10:00,ZBAA 251000Z AUTO 21008KT 6SM 16/M05 A3003 RMK T01601050 IEM_DS3505
ZBAA,2004-03-25 11:00,ZBAA 251100Z AUTO 20008KT 6SM 14/M06 A3003 RMK T01401060 IEM_DS3505
ZBAA,2004-03-25 12:00,ZBAA 251200Z AUTO 22004KT 7SM 13/M05 A3006 RMK SLP182 T01271053 52018 IEM_DS3505
ZBAA,2004-03-25 13:00,ZBAA 251300Z AUTO 17002KT 5SM 11/M05 A3009 RMK T01101050 IEM_DS3505
ZBAA,2004-03-25 14:00,ZBAA 251400Z AUTO 13004KT 08/M03 A3009 RMK T00801030 IEM_DS3505
ZBAA,2004-03-25 15:00,ZBAA 251500Z AUTO 22004KT 6SM 10/M06 A3009 RMK SLP192 T01031060 52010 IEM_DS3505
ZBAA,2004-03-25 16:00,ZBAA 251600Z AUTO 13006KT 06/M02 A3009 RMK T00601020 IEM_DS3505
ZBAA,2004-03-25 17:00,ZBAA 251700Z AUTO 10002KT 05/M03 A3009 RMK T00501030 IEM_DS3505
ZBAA,2004-03-25 18:00,ZBAA 251800Z AUTO 18002KT 7SM 08/M04 A3009 RMK SLP189 T00801044 57003 IEM_DS3505
ZBAA,2004-03-25 19:00,ZBAA 251900Z AUTO 13002KT 04/M03 A3009 RMK T00401030 IEM_DS3505
ZBAA,2004-03-25 20:00,ZBAA 252000Z AUTO 10002KT 04/M02 A3009 RMK T00401020 IEM_DS3505
ZBAA,2004-03-25 21:00,ZBAA 252100Z AUTO 04002KT 6SM 06/M02 A3009 RMK SLP185 T00581025 57004 IEM_DS3505
ZBAA,2004-03-25 22:00,ZBAA 252200Z AUTO 00000KT 3SM 03/00 A3009 RMK T00300000 IEM_DS3505
ZBAA,2004-03-25 23:00,ZBAA 252300Z AUTO 00000KT 2 1/2SM 04/00 A3009 RMK T00400000 IEM_DS3505
ZBAA,2004-03-26 00:00,ZBAA 260000Z AUTO 11002KT 2 1/2SM 06/01 A3012 RMK T00600010 IEM_DS3505
ZBAA,2004-03-26 01:00,ZBAA 260100Z AUTO 13006KT 2 1/2SM 09/03 A3012 RMK T00900030 IEM_DS3505
ZBAA,2004-03-26 02:00,ZBAA 260200Z AUTO 12006KT 2 1/2SM 11/03 A3012 RMK T01100030 IEM_DS3505
ZBAA,2004-03-26 03:00,ZBAA 260300Z AUTO 14004KT 5SM 13/01 A3009 RMK SLP189 T01330010 57005 IEM_DS3505
ZBAA,2004-03-26 04:00,ZBAA 260400Z AUTO 14006KT 2 1/2SM 15/04 A3006 RMK T01500040 IEM_DS3505
ZBAA,2004-03-26 05:00,ZBAA 260500Z AUTO 20008KT 2 1/2SM 17/04 A3003 RMK T01700040 IEM_DS3505
ZBAA,2004-03-26 06:00,ZBAA 260600Z AUTO 20008KT 6SM 19/00 A3000 RMK SLP157 T01870004 57031 IEM_DS3505
ZBAA,2004-03-26 07:00,ZBAA 260700Z AUTO 17010KT 19/02 A2997 RMK T01900020 IEM_DS3505
ZBAA,2004-03-26 08:00,ZBAA 260800Z AUTO 19008KT 5SM 20/01 A2994 RMK T02000010 IEM_DS3505
ZBAA,2004-03-26 09:00,ZBAA 260900Z AUTO 20010KT 6SM 19/M00 A2994 RMK SLP143 T01941005 57014 IEM_DS3505
ZBAA,2004-03-26 10:00,ZBAA 261000Z AUTO 18006KT 3SM 18/01 A2997 RMK T01800010 IEM_DS3505
ZBAA,2004-03-26 11:00,ZBAA 261100Z AUTO 17006G16KT 3SM 16/02 A2997 RMK T01600020 IEM_DS3505
ZBAA,2004-03-26 12:00,ZBAA 261200Z AUTO 20006KT 6SM 16/02 A2997 RMK SLP154 T01600024 52010 IEM_DS3505
ZBAA,2004-03-26 13:00,ZBAA 261300Z AUTO 14004KT 3SM 13/03 A3000 RMK T01300030 IEM_DS3505
ZBAA,2004-03-26 14:00,ZBAA 261400Z AUTO 13004KT 3SM 12/03 A3000 RMK T01200030 IEM_DS3505
ZBAA,2004-03-26 15:00,ZBAA 261500Z AUTO 22012KT 7SM 14/04 RMK SLP165 T01420042 52012 IEM_DS3505
ZBAA,2004-03-26 16:00,ZBAA 261600Z AUTO 17008KT 3SM 13/06 A3003 RMK T01300060 IEM_DS3505
ZBAA,2004-03-26 17:00,ZBAA 261700Z AUTO 19008KT 3SM 12/07 A3003 RMK T01200070 IEM_DS3505
ZBAA,2004-03-26 18:00,ZBAA 261800Z AUTO 20010KT 6SM 12/05 A3003 RMK SLP164 T01210051 57001 IEM_DS3505
ZBAA,2004-03-26 20:00,ZBAA 262000Z AUTO 13004KT 3SM 09/06 A3000 RMK T00900060 IEM_DS3505
ZBAA,2004-03-26 21:00,ZBAA 262100Z AUTO 07002KT 5SM 10/04 A3000 RMK SLP162 T00950045 57002 IEM_DS3505
ZBAA,2004-03-26 22:00,ZBAA 262200Z AUTO 12002KT 2 1/2SM 06/05 A3000 RMK T00600050 IEM_DS3505
ZBAA,2004-03-26 23:00,ZBAA 262300Z AUTO 14002KT 2 1/2SM 06/05 A3003 RMK T00600050 IEM_DS3505
ZBAA,2004-03-27 00:00,ZBAA 270000Z AUTO 18004KT 5SM 09/04 A3003 RMK SLP168 T00930041 52006 IEM_DS3505
ZBAA,2004-03-27 01:00,ZBAA 270100Z AUTO 12006KT 2 1/2SM 10/07 A3003 RMK T01000070 IEM_DS3505
ZBAA,2004-03-27 02:00,ZBAA 270200Z AUTO 2 1/2SM 12/07 A3000 RMK T01200070 IEM_DS3505
ZBAA,2004-03-27 03:00,ZBAA 270300Z AUTO 18006KT 4SM 14/05 A3000 RMK SLP155 T01350052 57013 IEM_DS3505
ZBAA,2004-03-27 04:00,ZBAA 270400Z AUTO 17008KT 2 1/2SM 15/08 A2997 RMK T01500080 IEM_DS3505
ZBAA,2004-03-27 05:00,ZBAA 270500Z AUTO 17008KT 2 1/2SM 16/08 A2994 RMK T01600080 IEM_DS3505
ZBAA,2004-03-27 06:00,ZBAA 270600Z AUTO 20006KT 4SM 19/06 A2991 RMK SLP122 T01870059 57033 IEM_DS3505
ZBAA,2004-03-27 07:00,ZBAA 270700Z AUTO 19010KT 2 1/2SM 19/08 A2988 RMK T01900080 IEM_DS3505
ZBAA,2004-03-27 08:00,ZBAA 270800Z AUTO 19012KT 2 1/2SM 20/08 A2985 RMK T02000080 IEM_DS3505
ZBAA,2004-03-27 09:00,ZBAA 270900Z AUTO 22014KT 5SM 21/04 A2983 RMK SLP095 T02090041 57027 IEM_DS3505
ZBAA,2004-03-27 10:00,ZBAA 271000Z AUTO 21006KT 2 1/2SM 19/08 A2983 RMK T01900080 IEM_DS3505
ZBAA,2004-03-27 11:00,ZBAA 271100Z AUTO 20010KT 3SM 19/06 A2983 RMK T01900060 IEM_DS3505
ZBAA,2004-03-27 12:00,ZBAA 271200Z AUTO 20012KT 6SM 18/04 A2983 RMK SLP095 T01850036 54000 IEM_DS3505
ZBAA,2004-03-27 13:00,ZBAA 271300Z AUTO 19016KT 18/06 A2983 RMK T01800060 IEM_DS3505
ZBAA,2004-03-27 14:00,ZBAA 271400Z AUTO 19017G27KT 17/06 A2983 RMK T01700060 IEM_DS3505
ZBAA,2004-03-27 15:00,ZBAA 271500Z AUTO 22014KT 6SM 16/03 A2985 RMK SLP104 T01580030 52009 IEM_DS3505
ZBAA,2004-03-27 16:00,ZBAA 271600Z AUTO 20012KT 5SM 16/06 A2983 RMK T01600060 IEM_DS3505
ZBAA,2004-03-27 17:00,ZBAA 271700Z AUTO 24006KT 5SM 15/06 A2985 RMK T01500060 IEM_DS3505
ZBAA,2004-03-27 18:00,ZBAA 271800Z AUTO 27004KT 9SM 14/04 A2985 RMK SLP109 T01410036 52005 IEM_DS3505
ZBAA,2004-03-27 19:00,ZBAA 271900Z AUTO 00000KT 13/06 A2985 RMK T01300060 IEM_DS3505
ZBAA,2004-03-27 20:00,ZBAA 272000Z AUTO 01002KT 12/06 A2988 RMK T01200060 IEM_DS3505
ZBAA,2004-03-27 21:00,ZBAA 272100Z AUTO 36006KT 9SM 16/ A2988 RMK SLP116 52008 IEM_DS3505
ZBAA,2004-03-27 22:00,ZBAA 272200Z AUTO 00000KT 3SM 09/05 A2988 RMK T00900050 IEM_DS3505
ZBAA,2004-03-27 23:00,ZBAA 272300Z AUTO 00000KT 2 1/2SM 09/05 A2991 RMK T00900050 IEM_DS3505
ZBAA,2004-03-28 00:00,ZBAA 280000Z AUTO 22004G27KT 4SM 14/03 RMK SLP133 T01350033 52016 IEM_DS3505
ZBAA,2004-03-28 01:00,ZBAA 280100Z AUTO 29014KT 2 1/2SM 18/M14 A2994 RMK T01801140 IEM_DS3505
ZBAA,2004-03-28 01:30,ZBAA 280130Z AUTO 29017G29KT 2 1/2SM 18/M15 A2994 RMK T01801150 IEM_DS3505
ZBAA,2004-03-28 02:00,ZBAA 280200Z AUTO 30017G31KT 2 1/2SM 19/M16 A2994 RMK T01901160 IEM_DS3505
ZBAA,2004-03-28 02:30,ZBAA 280230Z AUTO 30019G31KT 3SM 19/M16 A2994 RMK T01901160 IEM_DS3505
ZBAA,2004-03-28 03:00,ZBAA 280300Z AUTO 25004G27KT 5SM 21/M15 A2994 RMK SLP143 T02061147 52010 IEM_DS3505
ZBAA,2004-03-28 04:00,ZBAA 280400Z AUTO 30016G31KT 4SM 22/M16 A2994 RMK T02201160 IEM_DS3505
ZBAA,2004-03-28 05:00,ZBAA 280500Z AUTO 30017G31KT 4SM 22/M16 A2991 RMK T02201160 IEM_DS3505
ZBAA,2004-03-28 06:00,ZBAA 280600Z AUTO 16006G29KT 5SM 22/M11 A2988 RMK SLP117 T02221108 57025 IEM_DS3505
ZBAA,2004-03-28 07:00,ZBAA 280700Z AUTO 31016KT 5SM 24/M16 A2985 RMK T02401160 IEM_DS3505
ZBAA,2004-03-28 08:00,ZBAA 280800Z AUTO 18012KT 4SM 23/M11 A2985 RMK T02301110 IEM_DS3505
ZBAA,2004-03-28 09:00,ZBAA 280900Z AUTO 16006KT 7SM 22/M10 A2985 RMK SLP109 T02181099 57008 IEM_DS3505
ZBAA,2004-03-28 10:00,ZBAA 281000Z AUTO 17010KT 4SM 20/M10 A2985 RMK T02001100 IEM_DS3505
ZBAA,2004-03-28 11:00,ZBAA 281100Z AUTO 17008KT 19/M05 A2985 RMK T01901050 IEM_DS3505
ZBAA,2004-03-28 12:00,ZBAA 281200Z AUTO 18006KT 4SM 18/M10 A2988 RMK SLP121 T01841095 52011 IEM_DS3505
ZBAA,2004-03-28 13:00,ZBAA 281300Z AUTO 18008KT 17/M06 A2988 RMK T01701060 IEM_DS3505
ZBAA,2004-03-28 14:00,ZBAA 281400Z AUTO 19006KT 16/M05 A2991 RMK T01601050 IEM_DS3505
ZBAA,2004-03-28 15:00,ZBAA 281500Z AUTO 25004KT 4SM 15/M05 A2991 RMK SLP123 T01491049 52002 IEM_DS3505
ZBAA,2004-03-28 16:00,ZBAA 281600Z AUTO 00000KT 5SM 13/M04 A2991 RMK T01301040 IEM_DS3505
ZBAA,2004-03-28 17:00,ZBAA 281700Z AUTO 32002KT 5SM 11/M03 A2991 RMK T01101030 IEM_DS3505
ZBAA,2004-03-28 18:00,ZBAA 281800Z AUTO 20002KT 6SM 14/M03 A2991 RMK SLP126 T01451028 52003 IEM_DS3505
ZBAA,2004-03-28 19:00,ZBAA 281900Z AUTO 34006KT 09/01 A2991 RMK T00900010 IEM_DS3505
ZBAA,2004-03-28 20:00,ZBAA 282000Z AUTO 35004KT 11/00 A2991 RMK T01100000 IEM_DS3505
ZBAA,2004-03-28 21:00,ZBAA 282100Z AUTO 34006KT 6SM 16/M14 A2991 RMK SLP126 T01601143 52001 IEM_DS3505
ZBAA,2004-03-28 22:00,ZBAA 282200Z AUTO 30014KT 6SM 15/M13 A2994 RMK T01501130 IEM_DS3505
ZBAA,2004-03-28 23:00,ZBAA 282300Z AUTO 28008KT 6SM 15/M14 A2994 RMK T01501140 IEM_DS3505
ZBAA,2004-03-29 00:00,ZBAA 290000Z AUTO 34008KT 9SM 16/M16 A2997 RMK SLP139 T01591156 52012 IEM_DS3505
ZBAA,2004-03-29 01:00,ZBAA 290100Z AUTO 29012KT 6SM 15/M14 A2997 RMK T01501140 IEM_DS3505
ZBAA,2004-03-29 02:00,ZBAA 290200Z AUTO 29012KT 6SM 17/M14 A2994 RMK T01701140 IEM_DS3505
ZBAA,2004-03-29 03:00,ZBAA 290300Z AUTO 36006G19KT 7SM 19/M16 A2991 RMK SLP123 T01871161 57016 IEM_DS3505
ZBAA,2004-03-29 04:00,ZBAA 290400Z AUTO 31012KT 6SM 20/M15 A2988 RMK T02001150 IEM_DS3505
ZBAA,2004-03-29 05:00,ZBAA 290500Z AUTO 27027G39KT 2SM 19/M16 A2983 RMK T01901160 IEM_DS3505
ZBAA,2004-03-29 06:00,ZBAA 290600Z AUTO 32016G39KT 4SM 19/M14 A2985 RMK SLP099 T01931142 57024 IEM_DS3505
ZBAA,2004-03-29 07:00,ZBAA 290700Z AUTO 31027G43KT 3SM 17/M10 A2985 RMK T01701100 IEM_DS3505
ZBAA,2004-03-29 08:00,ZBAA 290800Z AUTO 34023G35KT 5SM 15/M14 A2988 RMK T01501140 IEM_DS3505
ZBAA,2004-03-29 09:00,ZBAA 290900Z AUTO 32021G41KT 3SM 14/M18 A2991 RMK SLP127 T01451179 52028 IEM_DS3505
ZBAA,2004-03-29 10:00,ZBAA 291000Z AUTO 33021G33KT 6SM 14/M18 A2997 RMK T01401180 IEM_DS3505
ZBAA,2004-03-29 11:00,ZBAA 291100Z AUTO 33017G27KT 6SM 12/M19 A3000 RMK T01201190 IEM_DS3505
ZBAA,2004-03-29 12:00,ZBAA 291200Z AUTO 32014G31KT 12SM 12/M21 A3006 RMK SLP181 T01161214 52054 IEM_DS3505
ZBAA,2004-03-29 13:00,ZBAA 291300Z AUTO 33016G25KT 6SM 10/M22 A3012 RMK T01001220 IEM_DS3505
ZBAA,2004-03-29 14:00,ZBAA 291400Z AUTO 33016G25KT 6SM 08/M25 A3015 RMK T00801250 IEM_DS3505
ZBAA,2004-03-29 15:00,ZBAA 291500Z AUTO 36008KT 19SM 09/M25 A3015 RMK SLP211 T00861251 52030 IEM_DS3505
ZBAA,2004-03-29 16:00,ZBAA 291600Z AUTO 32010KT 6SM 07/M27 A3015 RMK T00701270 IEM_DS3505
ZBAA,2004-03-29 18:00,ZBAA 291800Z AUTO 16002KT 12SM 05/M24 RMK SLP204 T00461243 57008 IEM_DS3505
ZBAA,2004-03-29 19:00,ZBAA 291900Z AUTO 24004KT 6SM 04/M22 A3012 RMK T00401220 IEM_DS3505
ZBAA,2004-03-29 20:00,ZBAA 292000Z AUTO 29008KT 6SM 06/M22 A3012 RMK T00601220 IEM_DS3505
ZBAA,2004-03-29 21:00,ZBAA 292100Z AUTO 27004KT 9SM 03/M20 A3012 RMK SLP198 T00311195 57006 IEM_DS3505
ZBAA,2004-03-29 22:00,ZBAA 292200Z AUTO 28008KT 6SM 06/M18 A3012 RMK T00601180 IEM_DS3505
ZBAA,2004-03-29 23:00,ZBAA 292300Z AUTO 28012KT 6SM 07/M16 A3012 RMK T00701160 IEM_DS3505
ZBAA,2004-03-30 00:00,ZBAA 300000Z AUTO 34012KT 19SM 09/M22 A3012 RMK SLP201 T00891221 52003 IEM_DS3505
ZBAA,2004-03-30 01:00,ZBAA 300100Z AUTO 30016KT 6SM 09/M16 A3015 RMK T00901160 IEM_DS3505
ZBAA,2004-03-30 02:00,ZBAA 300200Z AUTO 30014G27KT 6SM 10/M17 A3012 RMK T01001170 IEM_DS3505
ZBAA,2004-03-30 03:00,ZBAA 300300Z AUTO 32012G31KT 19SM 12/M20 A3012 RMK SLP194 T01171200 57007 IEM_DS3505
ZBAA,2004-03-30 04:00,ZBAA 300400Z AUTO 29025G45KT 6SM 11/M21 A3009 RMK T01101210 IEM_DS3505
ZBAA,2004-03-30 05:00,ZBAA 300500Z AUTO 30021G41KT 6SM 13/M21 A3006 RMK T01301210 IEM_DS3505
ZBAA,2004-03-30 06:00,ZBAA 300600Z AUTO 36008G35KT 19SM 14/M19 A3003 RMK SLP168 T01441193 57026 IEM_DS3505
ZBAA,2004-03-30 07:00,ZBAA 300700Z AUTO 31023G35KT 6SM 14/M21 A3003 RMK T01401210 IEM_DS3505
ZBAA,2004-03-30 08:00,ZBAA 300800Z AUTO 31017G27KT 6SM 15/M22 A3000 RMK T01501220 IEM_DS3505
ZBAA,2004-03-30 09:00,ZBAA 300900Z AUTO 36006KT 19SM 14/M19 A2997 RMK SLP155 T01451192 57013 IEM_DS3505
ZBAA,2004-03-30 10:00,ZBAA 301000Z AUTO 29012KT 6SM 14/M20 A2997 RMK T01401200 IEM_DS3505
ZBAA,2004-03-30 11:00,ZBAA 301100Z AUTO 26004KT 6SM 12/M18 A3000 RMK T01201180 IEM_DS3505
ZBAA,2004-03-30 12:00,ZBAA 301200Z AUTO 02002KT 16SM 11/M17 A3003 RMK SLP168 T01111171 52013 IEM_DS3505
ZBAA,2004-03-30 13:00,ZBAA 301300Z AUTO 03002KT 6SM 09/M18 A3006 RMK T00901180 IEM_DS3505
ZBAA,2004-03-30 14:00,ZBAA 301400Z AUTO 03002KT 6SM 08/M18 A3006 RMK T00801180 IEM_DS3505
ZBAA,2004-03-30 15:00,ZBAA 301500Z AUTO 09004KT 16SM 09/M16 A3006 RMK SLP179 T00861165 52011 IEM_DS3505
ZBAA,2004-03-30 16:00,ZBAA 301600Z AUTO 03002KT 6SM 06/M15 A3006 RMK T00601150 IEM_DS3505
ZBAA,2004-03-30 17:00,ZBAA 301700Z AUTO 00000KT 6SM 05/M18 A3006 RMK T00501180 IEM_DS3505
ZBAA,2004-03-30 18:00,ZBAA 301800Z AUTO 04002KT 12SM 05/M12 RMK SLP181 T00491120 52002 IEM_DS3505
ZBAA,2004-03-30 19:00,ZBAA 301900Z AUTO 02004KT 6SM 03/M14 A3009 RMK T00301140 IEM_DS3505
ZBAA,2004-03-30 20:00,ZBAA 302000Z AUTO 33004KT 6SM 00/M14 A3009 RMK T00001140 IEM_DS3505
ZBAA,2004-03-30 21:00,ZBAA 302100Z AUTO 07008KT 12SM 05/M16 A3009 RMK SLP182 T00481156 52001 IEM_DS3505
ZBAA,2004-03-30 22:00,ZBAA 302200Z AUTO 36002KT 6SM 01/M16 A3009 RMK T00101160 IEM_DS3505
ZBAA,2004-03-30 23:00,ZBAA 302300Z AUTO 35004KT 6SM 01/M15 A3009 RMK T00101150 IEM_DS3505
ZBAA,2004-03-31 00:00,ZBAA 310000Z AUTO 07008KT 9SM 05/M14 A3012 RMK SLP197 T00481135 52015 IEM_DS3505
ZBAA,2004-03-31 01:00,ZBAA 310100Z AUTO 09006KT 6SM 08/M15 A3012 RMK T00801150 IEM_DS3505
ZBAA,2004-03-31 02:00,ZBAA 310200Z AUTO 12010KT 6SM 09/M17 A3012 RMK T00901170 IEM_DS3505
ZBAA,2004-03-31 03:00,ZBAA 310300Z AUTO 09012KT 7SM 10/M15 A3009 RMK SLP180 T00961149 57017 IEM_DS3505
ZBAA,2004-03-31 04:00,ZBAA 310400Z AUTO 10008KT 6SM 10/M15 A3006 RMK T01001150 IEM_DS3505
ZBAA,2004-03-31 05:00,ZBAA 310500Z AUTO 11008KT 6SM 11/M16 A3003 RMK T01101160 IEM_DS3505
ZBAA,2004-03-31 06:00,ZBAA 310600Z AUTO 14006KT 9SM 11/M13 A3000 RMK SLP159 T01141127 57021 IEM_DS3505
ZBAA,2004-03-31 07:00,ZBAA 310700Z AUTO 11008KT 6SM 11/M14 A3000 RMK T01101140 IEM_DS3505
ZBAA,2004-03-31 08:00,ZBAA 310800Z AUTO 09010KT 6SM 11/M13 A2997 RMK T01101130 IEM_DS3505
ZBAA,2004-03-31 09:00,ZBAA 310900Z AUTO 11010KT 7SM 11/M09 A2997 RMK SLP149 T01071090 57010 IEM_DS3505
ZBAA,2004-03-31 10:00,ZBAA 311000Z AUTO 11010KT 6SM 10/M12 A3000 RMK T01001120 IEM_DS3505
ZBAA,2004-03-31 11:00,ZBAA 311100Z AUTO 13008KT 6SM 09/M12 A3003 RMK T00901120 IEM_DS3505
ZBAA,2004-03-31 12:00,ZBAA 311200Z AUTO 09006KT 7SM 09/M11 A3003 RMK SLP173 T00861113 52024 IEM_DS3505
ZBAA,2004-03-31 13:00,ZBAA 311300Z AUTO 14006KT 7SM 08/M12 A3006 RMK T00801120 IEM_DS3505
ZBAA,2004-03-31 14:00,ZBAA 311400Z AUTO 23002KT 6SM 07/M08 A3006 RMK T00701080 IEM_DS3505
ZBAA,2004-03-31 15:00,ZBAA 311500Z AUTO 09008KT 12SM 07/M11 A3003 RMK SLP170 T00691107 57003 IEM_DS3505
ZBAA,2004-03-31 16:00,ZBAA 311600Z AUTO 19004KT 6SM 07/M10 A3003 RMK T00701100 IEM_DS3505
ZBAA,2004-03-31 17:00,ZBAA 311700Z AUTO 18006KT 6SM 06/M09 A3003 RMK T00601090 IEM_DS3505
ZBAA,2004-03-31 18:00,ZBAA 311800Z AUTO 11002KT 12SM 05/M07 RMK SLP159 T00511070 57011 IEM_DS3505
ZBAA,2004-03-31 19:00,ZBAA 311900Z AUTO 21004KT 6SM 05/M06 A3000 RMK T00501060 IEM_DS3505
ZBAA,2004-03-31 20:00,ZBAA 312000Z AUTO 23004KT 6SM 05/M05 A2997 RMK T00501050 IEM_DS3505
ZBAA,2004-03-31 21:00,ZBAA 312100Z AUTO 25004KT 12SM 04/M05 A2997 RMK 70000 SLP148 T00401052 57011 IEM_DS3505
ZBAA,2004-03-31 22:00,ZBAA 312200Z AUTO 18002KT 6SM 02/M06 A2994 RMK T00201060 IEM_DS3505
ZBAA,2004-03-31 23:00,ZBAA 312300Z AUTO 28006KT 6SM 05/M06 A2997 RMK T00501060 IEM_DS3505
ZBAA,2004-04-01 00:00,ZBAA 010000Z AUTO 32014KT 12SM 09/M13 A2997 RMK 70000 SLP152 T00911132 52004 IEM_DS3505
ZBAA,2004-04-01 01:00,ZBAA 010100Z AUTO 31019KT 6SM 11/M13 A2997 RMK T01101130 IEM_DS3505
ZBAA,2004-04-01 02:00,ZBAA 010200Z AUTO 31023G33KT 6SM 12/M13 A2997 RMK T01201130 IEM_DS3505
ZBAA,2004-04-01 03:00,ZBAA 010300Z AUTO 34014G33KT 19SM 12/M15 A2997 RMK SLP146 T01181147 57006 IEM_DS3505
ZBAA,2004-04-01 04:00,ZBAA 010400Z AUTO 32019G29KT 6SM 14/M12 A2994 RMK T01401120 IEM_DS3505
ZBAA,2004-04-01 05:00,ZBAA 010500Z AUTO 30016G27KT 6SM 15/M10 A2991 RMK T01501100 IEM_DS3505
ZBAA,2004-04-01 06:00,ZBAA 010600Z AUTO 32014G29KT 19SM 14/M14 A2988 RMK SLP120 T01421137 57026 IEM_DS3505
ZBAA,2004-04-01 07:00,ZBAA 010700Z AUTO 29017G29KT 6SM 15/M11 A2985 RMK T01501110 IEM_DS3505
ZBAA,2004-04-01 08:00,ZBAA 010800Z AUTO 35016G25KT 6SM 16/M12 A2985 RMK T01601120 IEM_DS3505
ZBAA,2004-04-01 09:00,ZBAA 010900Z AUTO 32010KT 19SM 15/M15 A2985 RMK SLP112 T01521150 57008 IEM_DS3505
ZBAA,2004-04-01 10:00,ZBAA 011000Z AUTO 33012KT 6SM 15/M15 A2985 RMK T01501150 IEM_DS3505
ZBAA,2004-04-01 11:00,ZBAA 011100Z AUTO 28006KT 6SM 13/M13 A2988 RMK T01301130 IEM_DS3505
ZBAA,2004-04-01 12:00,ZBAA 011200Z AUTO 04004KT 12SM 12/M14 A2988 RMK SLP116 T01151141 52004 IEM_DS3505
ZBAA,2004-04-01 13:00,ZBAA 011300Z AUTO 06002KT 6SM 09/M10 A2988 RMK T00901100 IEM_DS3505
ZBAA,2004-04-01 14:00,ZBAA 011400Z AUTO 01004KT 6SM 07/M11 A2991 RMK T00701110 IEM_DS3505
ZBAA,2004-04-01 15:00,ZBAA 011500Z AUTO 07012KT 9SM 10/M09 A2994 RMK SLP134 T00961094 52018 IEM_DS3505
ZBAA,2004-04-01 16:00,ZBAA 011600Z AUTO 13012KT 4SM 06/02 A2994 RMK T00600020 IEM_DS3505
ZBAA,2004-04-01 17:00,ZBAA 011700Z AUTO 14010KT 5SM 05/02 A2997 RMK T00500020 IEM_DS3505
ZBAA,2004-04-01 18:00,ZBAA 011800Z AUTO 02004KT 7SM 06/01 A3000 RMK SLP154 T00560014 52020 IEM_DS3505
ZBAA,2004-04-01 19:00,ZBAA 011900Z AUTO 4SM 05/03 A3000 RMK T00500030 IEM_DS3505
ZBAA,2004-04-01 20:00,ZBAA 012000Z AUTO 10006KT 4SM 04/02 A3000 RMK T00400020 IEM_DS3505
ZBAA,2004-04-01 21:00,ZBAA 012100Z AUTO 09002KT 6SM 04/00 A3000 RMK SLP158 T00350000 52004 IEM_DS3505
ZBAA,2004-04-01 22:00,ZBAA 012200Z AUTO 32016KT 6SM 05/M10 A3003 RMK T00501100 IEM_DS3505
ZBAA,2004-04-01 23:00,ZBAA 012300Z AUTO 35010KT 6SM 05/M11 A3006 RMK T00501110 IEM_DS3505
ZBAA,2004-04-02 00:00,ZBAA 020000Z AUTO 36008KT 16SM 07/M13 A3006 RMK SLP184 T00741128 52026 IEM_DS3505
ZBAA,2004-04-02 01:00,ZBAA 020100Z AUTO 33019G29KT 6SM 08/M12 A3009 RMK T00801120 IEM_DS3505
ZBAA,2004-04-02 02:00,ZBAA 020200Z AUTO 35017G27KT 6SM 09/M13 A3009 RMK T00901130 IEM_DS3505
ZBAA,2004-04-02 03:00,ZBAA 020300Z AUTO 32017KT 19SM 09/M15 A3009 RMK SLP189 T00931151 52005 IEM_DS3505
ZBAA,2004-04-02 04:00,ZBAA 020400Z AUTO 30014G25KT 7SM 10/M13 A3009 RMK T01001130 IEM_DS3505
ZBAA,2004-04-02 05:00,ZBAA 020500Z AUTO 33019G31KT 7SM 10/M13 A3009 RMK T01001130 IEM_DS3505
ZBAA,2004-04-02 06:00,ZBAA 020600Z AUTO 36012KT 19SM 10/M10 A3009 RMK SLP191 T00991102 52002 IEM_DS3505
ZBAA,2004-04-02 07:00,ZBAA 020700Z AUTO 36016G25KT 6SM 11/M15 A3009 RMK T01101150 IEM_DS3505
ZBAA,2004-04-02 08:00,ZBAA 020800Z AUTO 02010KT 6SM 11/M15 A3012 RMK T01101150 IEM_DS3505
ZBAA,2004-04-02 09:00,ZBAA 020900Z AUTO 04008KT 19SM 11/M17 A3012 RMK SLP200 T01081173 52009 IEM_DS3505
ZBAA,2004-04-02 10:00,ZBAA 021000Z AUTO 04006KT 6SM 11/M11 A3015 RMK T01101110 IEM_DS3505
ZBAA,2004-04-02 11:00,ZBAA 021100Z AUTO 05002KT 6SM 08/M10 A3018 RMK T00801100 IEM_DS3505
ZBAA,2004-04-02 12:00,ZBAA 021200Z AUTO 09004KT 9SM 08/M12 A3021 RMK SLP231 T00801123 52031 IEM_DS3505
ZBAA,2004-04-02 13:00,ZBAA 021300Z AUTO 24004KT 6SM 07/M10 A3024 RMK T00701100 IEM_DS3505
ZBAA,2004-04-02 14:00,ZBAA 021400Z AUTO 32002KT 6SM 06/M10 A3027 RMK T00601100 IEM_DS3505
ZBAA,2004-04-02 15:00,ZBAA 021500Z AUTO 07002KT 9SM 05/M10 A3027 RMK SLP251 T00511102 52019 IEM_DS3505
ZBAA,2004-04-02 16:00,ZBAA 021600Z AUTO 31006KT 6SM 04/M08 A3030 RMK T00401080 IEM_DS3505
ZBAA,2004-04-02 17:00,ZBAA 021700Z AUTO 6SM 04/M08 A3030 RMK T00401080 IEM_DS3505
ZBAA,2004-04-02 18:00,ZBAA 021800Z AUTO 34002KT 9SM 04/M10 A3030 RMK SLP264 T00451103 52013 IEM_DS3505
ZBAA,2004-04-02 19:00,ZBAA 021900Z AUTO 00000KT 6SM 02/M10 A3033 RMK T00201100 IEM_DS3505
ZBAA,2004-04-02 20:00,ZBAA 022000Z AUTO 34004KT 6SM 01/M09 A3033 RMK T00101090 IEM_DS3505
ZBAA,2004-04-02 21:00,ZBAA 022100Z AUTO 36004KT 9SM 06/M10 A3036 RMK SLP275 T00581104 52012 IEM_DS3505
ZBAA,2004-04-02 22:00,ZBAA 022200Z AUTO 33004KT 6SM 02/M09 A3036 RMK T00201090 IEM_DS3505
ZBAA,2004-04-02 23:00,ZBAA 022300Z AUTO 33006KT 6SM 05/M08 A3039 RMK T00501080 IEM_DS3505
ZBAA,2004-04-03 00:00,ZBAA 030000Z AUTO 36008KT 9SM 08/M11 A3042 RMK SLP300 T00841109 52024 IEM_DS3505
ZBAA,2004-04-03 01:00,ZBAA 030100Z AUTO 33008KT 6SM 10/M08 A3045 RMK T01001080 IEM_DS3505
ZBAA,2004-04-03 02:00,ZBAA 030200Z AUTO 34008KT 6SM 11/M10 A3042 RMK T01101100 IEM_DS3505
ZBAA,2004-04-03 03:00,ZBAA 030300Z AUTO 02008KT 19SM 11/M13 A3042 RMK SLP301 T01141127 52001 IEM_DS3505
ZBAA,2004-04-03 04:00,ZBAA 030400Z AUTO 27006KT 6SM 12/M11 A3039 RMK T01201110 IEM_DS3505
ZBAA,2004-04-03 05:00,ZBAA 030500Z AUTO 03006KT 6SM 14/M10 A3036 RMK T01401100 IEM_DS3505
ZBAA,2004-04-03 06:00,ZBAA 030600Z AUTO 29006KT 19SM 14/M14 A3033 RMK SLP267 T01441145 57033 IEM_DS3505
ZBAA,2004-04-03 07:00,ZBAA 030700Z AUTO 33006KT 6SM 16/M12 A3030 RMK T01601120 IEM_DS3505
ZBAA,2004-04-03 08:00,ZBAA 030800Z AUTO 30010G19KT 6SM 16/M14 A3027 RMK T01601140 IEM_DS3505
ZBAA,2004-04-03 09:00,ZBAA 030900Z AUTO 25008KT 19SM 15/M14 A3024 RMK SLP245 T01471143 57022 IEM_DS3505
ZBAA,2004-04-03 10:00,ZBAA 031000Z AUTO 28008KT 6SM 15/M14 A3024 RMK T01501140 IEM_DS3505
ZBAA,2004-04-03 11:00,ZBAA 031100Z AUTO 23006KT 6SM 13/M12 A3024 RMK T01301120 IEM_DS3505
ZBAA,2004-04-03 12:00,ZBAA 031200Z AUTO 25008KT 12SM 11/M12 A3027 RMK SLP251 T01141120 52006 IEM_DS3505
ZBAA,2004-04-03 13:00,ZBAA 031300Z AUTO 22012KT 6SM 12/M10 A3027 RMK T01201100 IEM_DS3505
ZBAA,2004-04-03 14:00,ZBAA 031400Z AUTO 22010KT 6SM 11/M10 A3027 RMK T01101100 IEM_DS3505
ZBAA,2004-04-03 15:00,ZBAA 031500Z AUTO 25008KT 16SM 09/M10 A3024 RMK SLP245 T00931096 57006 IEM_DS3505
ZBAA,2004-04-03 16:00,ZBAA 031600Z AUTO 22012KT 6SM 10/M08 A3024 RMK T01001080 IEM_DS3505
ZBAA,2004-04-03 17:00,ZBAA 031700Z AUTO 23008KT 6SM 10/M07 A3021 RMK T01001070 IEM_DS3505
ZBAA,2004-04-03 18:00,ZBAA 031800Z AUTO 25008KT 16SM 08/M07 A3021 RMK SLP226 T00761072 57019 IEM_DS3505
ZBAA,2004-04-03 19:00,ZBAA 031900Z AUTO 22006KT 6SM 08/M06 A3018 RMK T00801060 IEM_DS3505
ZBAA,2004-04-03 20:00,ZBAA 032000Z AUTO 22006KT 6SM 08/M06 A3015 RMK T00801060 IEM_DS3505
ZBAA,2004-04-03 21:00,ZBAA 032100Z AUTO 22006KT 12SM 06/M07 A3015 RMK SLP205 T00601068 57021 IEM_DS3505
ZBAA,2004-04-03 22:00,ZBAA 032200Z AUTO 34002KT 5SM 01/M05 A3015 RMK T00101050 IEM_DS3505
ZBAA,2004-04-03 23:00,ZBAA 032300Z AUTO 00000KT 5SM 04/M04 A3015 RMK T00401040 IEM_DS3505
ZBAA,2004-04-04 00:00,ZBAA 040000Z AUTO 22006KT 7SM 07/M05 A3015 RMK SLP207 T00711052 52002 IEM_DS3505
ZBAA,2004-04-04 01:00,ZBAA 040100Z AUTO 10/M03 A3012 RMK T01001030 IEM_DS3505
ZBAA,2004-04-04 02:00,ZBAA 040200Z AUTO 5SM 12/M06 A3012 RMK T01201060 IEM_DS3505
ZBAA,2004-04-04 03:00,ZBAA 040300Z AUTO 22006KT 9SM 14/M05 A3009 RMK SLP188 T01431049 57019 IEM_DS3505
ZBAA,2004-04-04 04:00,ZBAA 040400Z AUTO 19008KT 6SM 17/M06 A3006 RMK T01701060 IEM_DS3505
ZBAA,2004-04-04 05:00,ZBAA 040500Z AUTO 23010G19KT 6SM 18/M06 A3000 RMK T01801060 IEM_DS3505
ZBAA,2004-04-04 06:00,ZBAA 040600Z AUTO 25010KT 12SM 20/M07 A2997 RMK SLP143 T01961068 57044 IEM_DS3505
ZBAA,2004-04-04 07:00,ZBAA 040700Z AUTO 22010KT 6SM 21/M04 A2991 RMK T02101040 IEM_DS3505
ZBAA,2004-04-04 08:00,ZBAA 040800Z AUTO 20014KT 6SM 21/M05 A2988 RMK T02101050 IEM_DS3505
ZBAA,2004-04-04 09:00,ZBAA 040900Z AUTO 25012KT 12SM 20/M07 A2985 RMK SLP109 T01991066 57034 IEM_DS3505
ZBAA,2004-04-04 10:00,ZBAA 041000Z AUTO 20012KT 6SM 19/M04 A2985 RMK T01901040 IEM_DS3505
ZBAA,2004-04-04 11:00,ZBAA 041100Z AUTO 20008KT 6SM 18/M02 A2985 RMK T01801020 IEM_DS3505
ZBAA,2004-04-04 12:00,ZBAA 041200Z AUTO 20008KT 7SM 17/M02 A2985 RMK SLP108 T01671023 57001 IEM_DS3505
ZBAA,2004-04-04 13:00,ZBAA 041300Z AUTO 16006KT 5SM 14/M01 A2985 RMK T01401010 IEM_DS3505
ZBAA,2004-04-04 14:00,ZBAA 041400Z AUTO 18012KT 5SM 15/02 A2985 RMK T01500020 IEM_DS3505
ZBAA,2004-04-04 15:00,ZBAA 041500Z AUTO 22012G21KT 7SM 13/00 A2985 RMK SLP104 T01340001 57004 IEM_DS3505
ZBAA,2004-04-04 16:00,ZBAA 041600Z AUTO 19010KT 6SM 13/02 A2983 RMK T01300020 IEM_DS3505
ZBAA,2004-04-04 17:00,ZBAA 041700Z AUTO 18010G21KT 6SM 12/02 A2983 RMK T01200020 IEM_DS3505
ZBAA,2004-04-04 18:00,ZBAA 041800Z AUTO 20010KT 9SM 11/01 A2983 RMK SLP092 T01090006 57012 IEM_DS3505
ZBAA,2004-04-04 19:00,ZBAA 041900Z AUTO 13004KT 6SM 08/02 A2980 RMK T00800020 IEM_DS3505
ZBAA,2004-04-04 21:00,ZBAA 042100Z AUTO 16004KT 9SM 09/01 A2980 RMK SLP085 T00890006 57007 IEM_DS3505
ZBAA,2004-04-04 22:00,ZBAA 042200Z AUTO 10004KT 6SM 06/02 A2980 RMK T00600020 IEM_DS3505
ZBAA,2004-04-04 22:30,ZBAA 042230Z AUTO 10002KT 6SM 06/02 A2980 RMK T00600020 IEM_DS3505
ZBAA,2004-04-05 00:00,ZBAA 050000Z AUTO 16002KT 12SM 10/01 A2983 RMK SLP098 T00970009 52013 IEM_DS3505
ZBAA,2004-04-05 01:00,ZBAA 050100Z AUTO 08004KT 6SM 11/03 A2985 RMK T01100030 IEM_DS3505
ZBAA,2004-04-05 02:00,ZBAA 050200Z AUTO 09008KT 6SM 12/03 A2985 RMK T01200030 IEM_DS3505
ZBAA,2004-04-05 03:00,ZBAA 050300Z AUTO 07008KT 6SM 13/01 A2985 RMK SLP102 T01340014 52004 IEM_DS3505
ZBAA,2004-04-05 04:00,ZBAA 050400Z AUTO 10006KT 6SM 15/03 A2983 RMK T01500030 IEM_DS3505
ZBAA,2004-04-05 05:00,ZBAA 050500Z AUTO 11006KT 6SM 16/03 A2983 RMK T01600030 IEM_DS3505
ZBAA,2004-04-05 06:00,ZBAA 050600Z AUTO 09008KT 7SM 17/01 A2980 RMK SLP093 T01660007 57009 IEM_DS3505
ZBAA,2004-04-05 07:00,ZBAA 050700Z AUTO 13010KT 5SM 18/03 A2980 RMK T01800030 IEM_DS3505
ZBAA,2004-04-05 08:00,ZBAA 050800Z AUTO 14010KT 5SM 18/03 A2980 RMK T01800030 IEM_DS3505
ZBAA,2004-04-05 09:00,ZBAA 050900Z AUTO 11008KT 7SM 17/01 A2980 RMK SLP094 T01710007 52001 IEM_DS3505
ZBAA,2004-04-05 10:00,ZBAA 051000Z AUTO 14010KT 16/03 A2983 RMK T01600030 IEM_DS3505
ZBAA,2004-04-05 11:00,ZBAA 051100Z AUTO 16008KT 6SM 14/02 A2988 RMK T01400020 IEM_DS3505
ZBAA,2004-04-05 12:00,ZBAA 051200Z AUTO 09002KT 6SM 13/01 A2991 RMK SLP131 T01340008 52037 IEM_DS3505
ZBAA,2004-04-05 13:00,ZBAA 051300Z AUTO 00000KT 6SM 13/03 A2994 RMK T01300030 IEM_DS3505
ZBAA,2004-04-05 14:00,ZBAA 051400Z AUTO 02002KT 6SM 11/03 A2997 RMK T01100030 IEM_DS3505
ZBAA,2004-04-05 15:00,ZBAA 051500Z AUTO 04006KT 6SM 12/01 A2997 RMK SLP144 T01210012 52013 IEM_DS3505
ZBAA,2004-04-05 16:00,ZBAA 051600Z AUTO 35002KT 6SM 10/01 A2997 RMK T01000010 IEM_DS3505
ZBAA,2004-04-05 17:00,ZBAA 051700Z AUTO 6SM 11/01 A3000 RMK T01100010 IEM_DS3505
ZBAA,2004-04-05 18:00,ZBAA 051800Z AUTO 36004KT 6SM 12/M04 A3000 RMK SLP158 T01181035 52014 IEM_DS3505
ZBAA,2004-04-05 19:00,ZBAA 051900Z AUTO 04002KT 7SM 12/00 A3000 RMK T01200000 IEM_DS3505
ZBAA,2004-04-05 20:00,ZBAA 052000Z AUTO 02008G17KT 7SM 12/05 A3006 RMK T01200050 IEM_DS3505
ZBAA,2004-04-05 21:00,ZBAA 052100Z AUTO 02012KT 9SM 12/01 A3006 RMK SLP172 T01200011 52014 IEM_DS3505
ZBAA,2004-04-05 22:00,ZBAA 052200Z AUTO 36012KT 7SM 09/05 A3009 RMK T00900050 IEM_DS3505
ZBAA,2004-04-05 23:00,ZBAA 052300Z AUTO 32016KT 6SM 10/04 A3012 RMK T01000040 IEM_DS3505
ZBAA,2004-04-06 00:00,ZBAA 060000Z AUTO 34008KT 12SM 10/03 A3015 RMK 70000 SLP210 T00980027 52037 IEM_DS3505
ZBAA,2004-04-06 01:00,ZBAA 060100Z AUTO 35012KT 6SM 11/02 A3018 RMK T01100020 IEM_DS3505
ZBAA,2004-04-06 02:00,ZBAA 060200Z AUTO 34012G21KT 6SM 12/00 A3021 RMK T01200000 IEM_DS3505
ZBAA,2004-04-06 03:00,ZBAA 060300Z AUTO 32010G21KT 12SM 12/M00 A3021 RMK SLP230 T01201005 52020 IEM_DS3505
ZBAA,2004-04-06 04:00,ZBAA 060400Z AUTO 01008KT 6SM 13/M01 A3021 RMK T01301010 IEM_DS3505
ZBAA,2004-04-06 05:00,ZBAA 060500Z AUTO 35008KT 6SM 15/M03 A3018 RMK T01501030 IEM_DS3505
ZBAA,2004-04-06 06:00,ZBAA 060600Z AUTO 34008KT 12SM 14/M02 A3018 RMK 60000 SLP217 T01391021 57013 IEM_DS3505
ZBAA,2004-04-06 07:00,ZBAA 060700Z AUTO 27010G19KT 6SM 15/M01 A3015 RMK T01501010 IEM_DS3505
ZBAA,2004-04-06 08:00,ZBAA 060800Z AUTO 31008KT 6SM 16/M04 A3015 RMK T01601040 IEM_DS3505
ZBAA,2004-04-06 09:00,ZBAA 060900Z AUTO 34008KT 16SM 16/M07 A3012 RMK SLP207 T01551067 57009 IEM_DS3505
ZBAA,2004-04-06 10:00,ZBAA 061000Z AUTO 01004KT 6SM 15/M05 A3012 RMK T01501050 IEM_DS3505
ZBAA,2004-04-06 11:00,ZBAA 061100Z AUTO 35006KT 6SM 12/M08 A3015 RMK T01201080 IEM_DS3505
ZBAA,2004-04-06 12:00,ZBAA 061200Z AUTO 29002KT 16SM 13/M10 A3018 RMK SLP226 T01311099 52018 IEM_DS3505
ZBAA,2004-04-06 13:00,ZBAA 061300Z AUTO 28004KT 6SM 13/M07 A3021 RMK T01301070 IEM_DS3505
ZBAA,2004-04-06 14:00,ZBAA 061400Z AUTO 30006KT 6SM 11/M08 A3024 RMK T01101080 IEM_DS3505
ZBAA,2004-04-06 15:00,ZBAA 061500Z AUTO 29004KT 12SM 10/M01 A3024 RMK SLP240 T00951006 52014 IEM_DS3505
ZBAA,2004-04-06 16:00,ZBAA 061600Z AUTO 00000KT 6SM 04/M02 A3027 RMK T00401020 IEM_DS3505
ZBAA,2004-04-06 17:00,ZBAA 061700Z AUTO 21002KT 6SM 06/M01 A3027 RMK T00601010 IEM_DS3505
ZBAA,2004-04-06 18:00,ZBAA 061800Z AUTO 04002KT 12SM 06/M02 A3027 RMK SLP252 T00561020 52012 IEM_DS3505
ZBAA,2004-04-06 19:00,ZBAA 061900Z AUTO 28008KT 6SM 05/M02 A3027 RMK T00501020 IEM_DS3505
ZBAA,2004-04-06 20:00,ZBAA 062000Z AUTO 31014KT 6SM 10/M12 A3027 RMK T01001120 IEM_DS3505
ZBAA,2004-04-06 21:00,ZBAA 062100Z AUTO 32004KT 9SM 08/M11 A3027 RMK 70000 SLP254 T00751112 52002 IEM_DS3505
ZBAA,2004-04-06 22:00,ZBAA 062200Z AUTO 30008KT 6SM 09/M13 A3030 RMK T00901130 IEM_DS3505
ZBAA,2004-04-06 23:00,ZBAA 062300Z AUTO 30014KT 6SM 11/M13 A3030 RMK T01101130 IEM_DS3505
ZBAA,2004-04-07 00:00,ZBAA 070000Z AUTO 34002KT 16SM 12/M14 A3030 RMK SLP267 T01251142 52013 IEM_DS3505
ZBAA,2004-04-07 01:00,ZBAA 070100Z AUTO 29012KT 6SM 14/M12 A3030 RMK T01401120 IEM_DS3505
ZBAA,2004-04-07 02:00,ZBAA 070200Z AUTO 30012KT 6SM 16/M13 A3030 RMK T01601130 IEM_DS3505
ZBAA,2004-04-07 03:00,ZBAA 070300Z AUTO 29012KT 12SM 17/M14 A3027 RMK SLP246 T01701136 57021 IEM_DS3505
ZBAA,2004-04-07 04:00,ZBAA 070400Z AUTO 30012G23KT 6SM 18/M11 A3024 RMK T01801110 IEM_DS3505
ZBAA,2004-04-07 06:00,ZBAA 070600Z AUTO 29010KT 16SM 20/M12 A3012 RMK SLP206 T02031122 57040 IEM_DS3505
ZBAA,2004-04-07 07:00,ZBAA 070700Z AUTO 29016KT 6SM 21/M10 A3009 RMK T02101100 IEM_DS3505
ZBAA,2004-04-07 08:00,ZBAA 070800Z AUTO 28014G23KT 6SM 22/M10 A3006 RMK T02201100 IEM_DS3505
ZBAA,2004-04-07 09:00,ZBAA 070900Z AUTO 25016KT 16SM 20/M10 A3003 RMK SLP176 T02001102 57029 IEM_DS3505
ZBAA,2004-04-07 10:00,ZBAA 071000Z AUTO 21012KT 6SM 20/M08 A3003 RMK T02001080 IEM_DS3505
ZBAA,2004-04-07 11:00,ZBAA 071100Z AUTO 22010KT 6SM 18/M07 A3003 RMK T01801070 IEM_DS3505
ZBAA,2004-04-07 12:00,ZBAA 071200Z AUTO 22012KT 12SM 17/M06 A3003 RMK SLP177 T01671063 52001 IEM_DS3505
ZBAA,2004-04-07 13:00,ZBAA 071300Z AUTO 22012KT 6SM 17/M04 A3003 RMK T01701040 IEM_DS3505
ZBAA,2004-04-07 14:00,ZBAA 071400Z AUTO 22010KT 6SM 16/M04 A3003 RMK T01601040 IEM_DS3505
ZBAA,2004-04-07 15:00,ZBAA 071500Z AUTO 25008KT 9SM 14/M04 A3003 RMK SLP170 T01401042 57007 IEM_DS3505
ZBAA,2004-04-07 16:00,ZBAA 071600Z AUTO 00000KT 6SM 13/M03 A3003 RMK T01301030 IEM_DS3505
ZBAA,2004-04-07 17:00,ZBAA 071700Z AUTO 00000KT 6SM 10/M02 A3003 RMK T01001020 IEM_DS3505
ZBAA,2004-04-07 18:00,ZBAA 071800Z AUTO 25006KT 12SM 11/M02 A3000 RMK SLP160 T01121025 57010 IEM_DS3505
ZBAA,2004-04-07 19:00,ZBAA 071900Z AUTO 00000KT 5SM 08/M02 A3000 RMK T00801020 IEM_DS3505
ZBAA,2004-04-07 20:00,ZBAA 072000Z AUTO 00000KT 5SM 06/M01 A2997 RMK T00601010 IEM_DS3505
ZBAA,2004-04-07 21:00,ZBAA 072100Z AUTO 25002KT 9SM 09/M03 A2997 RMK SLP146 T00921027 57014 IEM_DS3505
ZBAA,2004-04-07 22:00,ZBAA 072200Z AUTO 00000KT 5SM 05/00 A2997 RMK T00500000 IEM_DS3505
ZBAA,2004-04-07 23:00,ZBAA 072300Z AUTO 16002KT 5SM 07/00 A2997 RMK T00700000 IEM_DS3505
ZBAA,2004-04-08 00:00,ZBAA 080000Z AUTO 22002KT 12SM 15/M04 A2994 RMK SLP142 T01511037 57004 IEM_DS3505
ZBAA,2004-04-08 01:00,ZBAA 080100Z AUTO 6SM 19/M05 A2994 RMK T01901050 IEM_DS3505
ZBAA,2004-04-08 02:00,ZBAA 080200Z AUTO 27006KT 6SM 22/M05 A2991 RMK T02201050 IEM_DS3505
ZBAA,2004-04-08 03:00,ZBAA 080300Z AUTO 32008G29KT 12SM 26/M10 A2991 RMK SLP124 T02621105 57017 IEM_DS3505
ZBAA,2004-04-08 04:00,ZBAA 080400Z AUTO 29014G23KT 6SM 26/M09 A2988 RMK T02601090 IEM_DS3505
ZBAA,2004-04-08 05:00,ZBAA 080500Z AUTO 29012KT 6SM 27/M10 A2985 RMK T02701100 IEM_DS3505
ZBAA,2004-04-08 06:00,ZBAA 080600Z AUTO 22010KT 16SM 28/M09 A2980 RMK SLP089 T02821091 57035 IEM_DS3505
ZBAA,2004-04-08 07:00,ZBAA 080700Z AUTO 27012G21KT 6SM 29/M10 A2977 RMK T02901100 IEM_DS3505
ZBAA,2004-04-08 08:00,ZBAA 080800Z AUTO 26012KT 6SM 30/M10 A2974 RMK T03001100 IEM_DS3505
ZBAA,2004-04-08 09:00,ZBAA 080900Z AUTO 22010G23KT 19SM 29/M07 A2971 RMK SLP067 T02861073 57022 IEM_DS3505
ZBAA,2004-04-08 10:00,ZBAA 081000Z AUTO 23008KT 6SM 28/M06 A2971 RMK T02801060 IEM_DS3505
ZBAA,2004-04-08 11:00,ZBAA 081100Z AUTO 23010KT 6SM 26/M03 A2974 RMK T02601030 IEM_DS3505
ZBAA,2004-04-08 12:00,ZBAA 081200Z AUTO 25006KT 9SM 23/M03 A2974 RMK SLP075 T02281027 52008 IEM_DS3505
ZBAA,2004-04-08 13:00,ZBAA 081300Z AUTO 22010KT 6SM 23/M01 A2977 RMK T02301010 IEM_DS3505
ZBAA,2004-04-08 14:00,ZBAA 081400Z AUTO 07002KT 6SM 20/00 A2977 RMK T02000000 IEM_DS3505
ZBAA,2004-04-08 15:00,ZBAA 081500Z AUTO 22006KT 7SM 18/03 A2980 RMK SLP084 T01790027 52009 IEM_DS3505
ZBAA,2004-04-08 16:00,ZBAA 081600Z AUTO 06002KT 6SM 16/02 A2980 RMK T01600020 IEM_DS3505
ZBAA,2004-04-08 17:00,ZBAA 081700Z AUTO 34006KT 6SM 13/01 A2980 RMK T01300010 IEM_DS3505
ZBAA,2004-04-08 18:00,ZBAA 081800Z AUTO 34004KT 7SM 14/03 A2983 RMK SLP089 T01380033 52005 IEM_DS3505
ZBAA,2004-04-08 19:00,ZBAA 081900Z AUTO 35004KT 6SM 10/01 A2980 RMK T01000010 IEM_DS3505
ZBAA,2004-04-08 20:00,ZBAA 082000Z AUTO 35008KT 6SM 12/M02 A2980 RMK T01201020 IEM_DS3505
ZBAA,2004-04-08 21:00,ZBAA 082100Z AUTO 36002KT 7SM 13/01 A2983 RMK SLP094 T01320013 52005 IEM_DS3505
ZBAA,2004-04-08 23:00,ZBAA 082300Z AUTO 01002KT 6SM 13/M02 A2985 RMK T01301020 IEM_DS3505
ZBAA,2004-04-09 00:00,ZBAA 090000Z AUTO 04004KT 9SM 17/M03 A2985 RMK SLP109 T01741033 52015 IEM_DS3505
ZBAA,2004-04-09 01:00,ZBAA 090100Z AUTO 10004KT 5SM 19/02 A2985 RMK T01900020 IEM_DS3505
ZBAA,2004-04-09 02:00,ZBAA 090200Z AUTO 11006KT 5SM 23/01 A2988 RMK T02300010 IEM_DS3505
ZBAA,2004-04-09 03:00,ZBAA 090300Z AUTO 11010KT 7SM 25/M01 A2985 RMK SLP107 T02531007 57002 IEM_DS3505
ZBAA,2004-04-09 04:00,ZBAA 090400Z AUTO 13012KT 6SM 26/M01 A2985 RMK T02601010 IEM_DS3505
ZBAA,2004-04-09 04:30,ZBAA 090430Z AUTO 14012KT 6SM 27/01 A2983 RMK T02700010 IEM_DS3505
ZBAA,2004-04-09 05:00,ZBAA 090500Z AUTO 13012KT 6SM 27/01 A2983 RMK T02700010 IEM_DS3505
ZBAA,2004-04-09 06:00,ZBAA 090600Z AUTO 16008KT 9SM 27/M00 A2980 RMK SLP086 T02691001 57021 IEM_DS3505
ZBAA,2004-04-09 07:00,ZBAA 090700Z AUTO 17012KT 6SM 28/02 A2977 RMK T02800020 IEM_DS3505
ZBAA,2004-04-09 08:00,ZBAA 090800Z AUTO 16008KT 6SM 28/03 RMK T02800030 IEM_DS3505
ZBAA,2004-04-09 09:00,ZBAA 090900Z AUTO 14008KT 9SM 26/04 A2974 RMK SLP067 T02580038 57019 IEM_DS3505
ZBAA,2004-04-09 10:00,ZBAA 091000Z AUTO 12008KT 24/06 A2974 RMK T02400060 IEM_DS3505
ZBAA,2004-04-09 11:00,ZBAA 091100Z AUTO 12006KT 21/07 A2974 RMK T02100070 IEM_DS3505
ZBAA,2004-04-09 12:00,ZBAA 091200Z AUTO 11004KT 7SM 20/06 A2977 RMK SLP074 T02030063 52007 IEM_DS3505
ZBAA,2004-04-09 13:00,ZBAA 091300Z AUTO 13008KT 3SM 18/07 A2977 RMK T01800070 IEM_DS3505
ZBAA,2004-04-09 14:00,ZBAA 091400Z AUTO 12002KT 3SM 16/08 A2977 RMK T01600080 IEM_DS3505
ZBAA,2004-04-09 15:00,ZBAA 091500Z AUTO 09002KT 6SM 17/08 A2977 RMK SLP076 T01700077 52002 IEM_DS3505
ZBAA,2004-04-09 16:00,ZBAA 091600Z AUTO 00000KT 2 1/2SM 15/08 A2977 RMK T01500080 IEM_DS3505
ZBAA,2004-04-09 17:00,ZBAA 091700Z AUTO 09004KT 2 1/2SM 15/08 A2977 RMK T01500080 IEM_DS3505
ZBAA,2004-04-09 18:00,ZBAA 091800Z AUTO 00000KT 6SM 16/07 A2977 RMK SLP073 T01580068 57003 IEM_DS3505
ZBAA,2004-04-09 19:00,ZBAA 091900Z AUTO 00000KT 14/08 A2974 RMK T01400080 IEM_DS3505
ZBAA,2004-04-09 20:00,ZBAA 092000Z AUTO 00000KT 2 1/2SM 13/08 A2974 RMK T01300080 IEM_DS3505
ZBAA,2004-04-09 21:00,ZBAA 092100Z AUTO 16002KT 6SM 16/06 A2974 RMK SLP067 T01630062 57006 IEM_DS3505
ZBAA,2004-04-09 22:00,ZBAA 092200Z AUTO 00000KT 2 1/2SM 12/08 A2974 RMK T01200080 IEM_DS3505
ZBAA,2004-04-09 23:00,ZBAA 092300Z AUTO 00000KT 2SM 13/09 A2977 RMK T01300090 IEM_DS3505
ZBAA,2004-04-10 00:00,ZBAA 100000Z AUTO 25002KT 6SM 17/07 A2977 RMK SLP074 T01690067 52007 IEM_DS3505
ZBAA,2004-04-10 01:00,ZBAA 100100Z AUTO 11004KT 2 1/2SM 18/10 A2977 RMK T01800100 IEM_DS3505
ZBAA,2004-04-10 02:00,ZBAA 100200Z AUTO 11004KT 3SM 20/10 A2977 RMK T02000100 IEM_DS3505
ZBAA,2004-04-10 03:00,ZBAA 100300Z AUTO 16006KT 7SM 20/06 A2977 RMK SLP078 T02030059 52004 IEM_DS3505
ZBAA,2004-04-10 03:30,ZBAA 100330Z AUTO 13008KT 22/10 A2977 RMK T02200100 IEM_DS3505
ZBAA,2004-04-10 04:00,ZBAA 100400Z AUTO 11010KT 23/09 A2977 RMK T02300090 IEM_DS3505
ZBAA,2004-04-10 04:30,ZBAA 100430Z AUTO 16008KT 5SM 23/08 A2974 RMK T02300080 IEM_DS3505
ZBAA,2004-04-10 05:00,ZBAA 100500Z AUTO 14010KT 5SM 23/08 A2974 RMK T02300080 IEM_DS3505
ZBAA,2004-04-10 06:00,ZBAA 100600Z AUTO 20008KT 7SM 24/05 A2971 RMK SLP060 T02430052 57018 IEM_DS3505
ZBAA,2004-04-10 07:00,ZBAA 100700Z AUTO 16010KT 6SM 25/07 A2971 RMK T02500070 IEM_DS3505
ZBAA,2004-04-10 08:00,ZBAA 100800Z AUTO 18008KT 5SM 25/08 A2971 RMK T02500080 IEM_DS3505
ZBAA,2004-04-10 09:00,ZBAA 100900Z AUTO 20012KT 7SM 24/06 A2968 RMK SLP050 T02350059 57010 IEM_DS3505
ZBAA,2004-04-10 10:00,ZBAA 101000Z AUTO 19008KT 23/09 A2971 RMK T02300090 IEM_DS3505
ZBAA,2004-04-10 11:00,ZBAA 101100Z AUTO 17008KT 20/08 A2971 RMK T02000080 IEM_DS3505
ZBAA,2004-04-10 12:00,ZBAA 101200Z AUTO 20004KT 6SM 20/07 A2974 RMK SLP070 T02040074 52020 IEM_DS3505
ZBAA,2004-04-10 12:30,ZBAA 101230Z AUTO 15004KT 3SM 18/09 A2977 RMK T01800090 IEM_DS3505
ZBAA,2004-04-10 13:00,ZBAA 101300Z AUTO 13006KT 3SM 16/09 A2977 RMK T01600090 IEM_DS3505
ZBAA,2004-04-10 14:00,ZBAA 101400Z AUTO 13006KT 3SM 15/09 A2977 RMK T01500090 IEM_DS3505
ZBAA,2004-04-10 15:00,ZBAA 101500Z AUTO 20010KT 6SM 18/05 A2977 RMK SLP077 T01810047 52007 IEM_DS3505
ZBAA,2004-04-10 16:00,ZBAA 101600Z AUTO 17006KT 16/07 A2977 RMK T01600070 IEM_DS3505
ZBAA,2004-04-10 17:00,ZBAA 101700Z AUTO 17006KT 6SM 15/07 A2977 RMK T01500070 IEM_DS3505
ZBAA,2004-04-10 18:00,ZBAA 101800Z AUTO 22004KT 9SM 16/06 A2977 RMK SLP078 T01560058 52001 IEM_DS3505
ZBAA,2004-04-10 19:00,ZBAA 101900Z AUTO 16002KT 6SM 13/07 A2977 RMK T01300070 IEM_DS3505
ZBAA,2004-04-10 20:00,ZBAA 102000Z AUTO 10002KT 6SM 12/08 A2977 RMK T01200080 IEM_DS3505
ZBAA,2004-04-10 21:00,ZBAA 102100Z AUTO 34002KT 6SM 13/07 A2980 RMK SLP082 T01300066 52004 IEM_DS3505
ZBAA,2004-04-10 22:00,ZBAA 102200Z AUTO 12002KT 6SM 11/08 A2980 RMK T01100080 IEM_DS3505
ZBAA,2004-04-10 23:00,ZBAA 102300Z AUTO 36002KT 4SM 11/08 A2983 RMK T01100080 IEM_DS3505
ZBAA,2004-04-11 00:00,ZBAA 110000Z AUTO 25002KT 4SM 16/08 A2983 RMK SLP098 T01610079 52016 IEM_DS3505
ZBAA,2004-04-11 01:00,ZBAA 110100Z AUTO 17/09 A2985 RMK T01700090 IEM_DS3505
ZBAA,2004-04-11 02:00,ZBAA 110200Z AUTO 12004KT 19/10 A2985 RMK T01900100 IEM_DS3505
ZBAA,2004-04-11 03:00,ZBAA 110300Z AUTO 16004KT 5SM 23/07 A2985 RMK SLP107 T02300068 52009 IEM_DS3505
ZBAA,2004-04-11 04:00,ZBAA 110400Z AUTO 25/08 A2983 RMK T02500080 IEM_DS3505
ZBAA,2004-04-11 05:00,ZBAA 110500Z AUTO 5SM 27/06 A2983 RMK T02700060 IEM_DS3505
ZBAA,2004-04-11 06:00,ZBAA 110600Z AUTO 11008KT 7SM 28/00 A2980 RMK SLP088 T02750003 57019 IEM_DS3505
ZBAA,2004-04-11 07:00,ZBAA 110700Z AUTO 6SM 28/02 A2980 RMK T02800020 IEM_DS3505
ZBAA,2004-04-11 08:00,ZBAA 110800Z AUTO 34002KT 6SM 28/01 A2977 RMK T02800010 IEM_DS3505
ZBAA,2004-04-11 09:00,ZBAA 110900Z AUTO 18004KT 7SM 27/M00 A2980 RMK SLP084 T02701001 57004 IEM_DS3505
ZBAA,2004-04-11 10:00,ZBAA 111000Z AUTO 00000KT 6SM 26/00 A2980 RMK T02600000 IEM_DS3505
ZBAA,2004-04-11 11:00,ZBAA 111100Z AUTO 25004KT 6SM 25/02 A2983 RMK T02500020 IEM_DS3505
ZBAA,2004-04-11 12:00,ZBAA 111200Z AUTO 27002KT 4SM 23/03 A2983 RMK SLP102 T02330033 52018 IEM_DS3505
ZBAA,2004-04-11 13:00,ZBAA 111300Z AUTO 29004KT 6SM 23/04 A2988 RMK T02300040 IEM_DS3505
ZBAA,2004-04-11 14:00,ZBAA 111400Z AUTO 01006KT 6SM 21/02 A2988 RMK T02100020 IEM_DS3505
ZBAA,2004-04-11 15:00,ZBAA 111500Z AUTO 09004KT 4SM 20/06 A2988 RMK SLP120 T02020062 52018 IEM_DS3505
ZBAA,2004-04-11 16:00,ZBAA 111600Z AUTO 36006KT 6SM 19/M02 A2988 RMK T01901020 IEM_DS3505
ZBAA,2004-04-11 17:00,ZBAA 111700Z AUTO 03004KT 6SM 20/M05 A2988 RMK T02001050 IEM_DS3505
ZBAA,2004-04-11 18:00,ZBAA 111800Z AUTO 04004KT 12SM 20/M06 A2988 RMK SLP111 T02001057 57009 IEM_DS3505
ZBAA,2004-04-11 19:00,ZBAA 111900Z AUTO 12006KT 6SM 19/M01 A2988 RMK T01901010 IEM_DS3505
ZBAA,2004-04-11 20:00,ZBAA 112000Z AUTO 10010KT 2 1/2SM 18/11 A2988 RMK T01800110 IEM_DS3505
ZBAA,2004-04-11 21:00,ZBAA 112100Z AUTO 09010KT 6SM 16/08 A2991 RMK SLP124 T01610076 52013 IEM_DS3505
ZBAA,2004-04-11 22:00,ZBAA 112200Z AUTO 12010KT 2 1/2SM 16/09 A2991 RMK T01600090 IEM_DS3505
ZBAA,2004-04-11 23:00,ZBAA 112300Z AUTO 13006KT 3SM 16/08 A2994 RMK T01600080 IEM_DS3505
ZBAA,2004-04-12 00:00,ZBAA 120000Z AUTO 11010KT 7SM 16/06 A2997 RMK SLP146 T01550057 52022 IEM_DS3505
ZBAA,2004-04-12 01:00,ZBAA 120100Z AUTO 28002KT 2 1/2SM 17/09 A3000 RMK T01700090 IEM_DS3505
ZBAA,2004-04-12 02:00,ZBAA 120200Z AUTO 13010KT 18/07 A3000 RMK T01800070 IEM_DS3505
ZBAA,2004-04-12 03:00,ZBAA 120300Z AUTO 09012KT 7SM 17/05 A2997 RMK SLP152 T01690049 52005 IEM_DS3505
ZBAA,2004-04-12 04:00,ZBAA 120400Z AUTO 11010KT 5SM 18/06 A3000 RMK T01800060 IEM_DS3505
ZBAA,2004-04-12 05:00,ZBAA 120500Z AUTO 11006KT 3SM 20/08 A2997 RMK T02000080 IEM_DS3505
ZBAA,2004-04-12 06:00,ZBAA 120600Z AUTO 07008KT 7SM 20/06 A2994 RMK SLP130 T01980062 57021 IEM_DS3505
ZBAA,2004-04-12 07:00,ZBAA 120700Z AUTO 11008KT 5SM 21/07 A2991 RMK T02100070 IEM_DS3505
ZBAA,2004-04-12 08:00,ZBAA 120800Z AUTO 10006KT 20/07 A2991 RMK T02000070 IEM_DS3505
ZBAA,2004-04-12 09:00,ZBAA 120900Z AUTO 22006KT 9SM 17/11 A2991 RMK SLP130 T01740108 57001 IEM_DS3505
ZBAA,2004-04-12 10:00,ZBAA 121000Z AUTO 18008KT 18/09 A2991 RMK T01800090 IEM_DS3505
ZBAA,2004-04-12 11:00,ZBAA 121100Z AUTO 18006KT 17/10 A2991 RMK T01700100 IEM_DS3505
ZBAA,2004-04-12 12:00,ZBAA 121200Z AUTO 02004KT 9SM 16/10 A2994 RMK 60008 SLP135 T01550099 52005 IEM_DS3505
ZBAA,2004-04-12 13:00,ZBAA 121300Z AUTO 30004KT 17/10 A2997 RMK T01700100 IEM_DS3505
ZBAA,2004-04-12 14:00,ZBAA 121400Z AUTO 36004KT 16/10 A3000 RMK T01600100 IEM_DS3505
ZBAA,2004-04-12 15:00,ZBAA 121500Z AUTO 09004KT 5SM 16/10 A3000 RMK SLP162 T01560102 52027 IEM_DS3505
ZBAA,2004-04-12 16:00,ZBAA 121600Z AUTO 28002KT 3SM 16/10 A3000 RMK T01600100 IEM_DS3505
ZBAA,2004-04-12 17:00,ZBAA 121700Z AUTO 24004KT 3SM 15/10 A3003 RMK T01500100 IEM_DS3505
ZBAA,2004-04-12 18:00,ZBAA 121800Z AUTO 07004KT 4SM 15/09 A3003 RMK SLP171 T01480092 52009 IEM_DS3505
ZBAA,2004-04-12 19:00,ZBAA 121900Z AUTO 00000KT 2 1/2SM 14/10 A3003 RMK T01400100 IEM_DS3505
ZBAA,2004-04-12 20:00,ZBAA 122000Z AUTO 35004KT 2 1/2SM 13/10 A3006 RMK T01300100 IEM_DS3505
ZBAA,2004-04-12 21:00,ZBAA 122100Z AUTO 04002KT 5SM 14/08 A3009 RMK 70009 SLP184 T01440075 52013 IEM_DS3505
ZBAA,2004-04-12 22:00,ZBAA 122200Z AUTO 36004KT 6SM 12/01 A3009 RMK T01200010 IEM_DS3505
ZBAA,2004-04-12 23:00,ZBAA 122300Z AUTO 35006KT 6SM 14/01 A3012 RMK T01400010 IEM_DS3505
ZBAA,2004-04-13 00:00,ZBAA 130000Z AUTO 36004KT 19SM 17/M04 A3015 RMK 70009 SLP205 T01741039 52021 IEM_DS3505
ZBAA,2004-04-13 01:00,ZBAA 130100Z AUTO 03004KT 6SM 19/M05 A3015 RMK T01901050 IEM_DS3505
ZBAA,2004-04-13 02:00,ZBAA 130200Z AUTO 6SM 19/M05 A3015 RMK T01901050 IEM_DS3505
ZBAA,2004-04-13 03:00,ZBAA 130300Z AUTO 07008KT 16SM 20/M08 A3012 RMK SLP198 T02001082 57007 IEM_DS3505
ZBAA,2004-04-13 04:00,ZBAA 130400Z AUTO 12004KT 6SM 21/M08 A3009 RMK T02101080 IEM_DS3505
ZBAA,2004-04-13 05:00,ZBAA 130500Z AUTO 17006KT 6SM 22/M09 A3006 RMK T02201090 IEM_DS3505
ZBAA,2004-04-13 06:00,ZBAA 130600Z AUTO 20012KT 19SM 22/M09 A3003 RMK SLP170 T02241094 57028 IEM_DS3505
ZBAA,2004-04-13 07:00,ZBAA 130700Z AUTO 16017KT 6SM 21/06 A3000 RMK T02100060 IEM_DS3505
ZBAA,2004-04-13 08:00,ZBAA 130800Z AUTO 16017KT 6SM 20/05 A3000 RMK T02000050 IEM_DS3505
ZBAA,2004-04-13 09:00,ZBAA 130900Z AUTO 18016G27KT 16SM 18/04 A3000 RMK SLP162 T01790041 57008 IEM_DS3505
ZBAA,2004-04-13 10:00,ZBAA 131000Z AUTO 17016KT 6SM 16/04 A3003 RMK T01600040 IEM_DS3505
ZBAA,2004-04-13 11:00,ZBAA 131100Z AUTO 15014KT 6SM 16/03 A3003 RMK T01600030 IEM_DS3505
ZBAA,2004-04-13 12:00,ZBAA 131200Z AUTO 14004KT 12SM 15/04 A3006 RMK SLP177 T01490037 52015 IEM_DS3505
ZBAA,2004-04-13 13:00,ZBAA 131300Z AUTO 12008KT 6SM 13/01 A3009 RMK T01300010 IEM_DS3505
ZBAA,2004-04-13 14:00,ZBAA 131400Z AUTO 6SM 12/02 A3009 RMK T01200020 IEM_DS3505
ZBAA,2004-04-13 15:00,ZBAA 131500Z AUTO 11006KT 12SM 12/01 A3006 RMK SLP179 T01210006 52002 IEM_DS3505
ZBAA,2004-04-13 16:00,ZBAA 131600Z AUTO 6SM 10/01 A3009 RMK T01000010 IEM_DS3505
ZBAA,2004-04-13 17:00,ZBAA 131700Z AUTO 10006KT 6SM 11/01 A3009 RMK T01100010 IEM_DS3505
ZBAA,2004-04-13 18:00,ZBAA 131800Z AUTO 07004KT 9SM 10/03 A3006 RMK SLP178 T01020028 57001 IEM_DS3505
ZBAA,2004-04-13 19:00,ZBAA 131900Z AUTO 18004KT 6SM 09/01 A3006 RMK T00900010 IEM_DS3505
ZBAA,2004-04-13 20:00,ZBAA 132000Z AUTO 30002KT 6SM 09/02 A3006 RMK T00900020 IEM_DS3505
ZBAA,2004-04-13 21:00,ZBAA 132100Z AUTO 04004KT 9SM 09/04 A3006 RMK SLP173 T00890039 57005 IEM_DS3505
ZBAA,2004-04-13 22:00,ZBAA 132200Z AUTO 00000KT 6SM 07/03 A3006 RMK T00700030 IEM_DS3505
ZBAA,2004-04-13 23:00,ZBAA 132300Z AUTO 00000KT 6SM 10/04 A3006 RMK T01000040 IEM_DS3505
ZBAA,2004-04-14 00:00,ZBAA 140000Z AUTO 36004KT 7SM 12/05 RMK SLP179 T01190049 52006 IEM_DS3505
ZBAA,2004-04-14 03:00,ZBAA 140300Z AUTO 18004KT 7SM 18/06 A3003 RMK SLP168 T01800062 57011 IEM_DS3505
ZBAA,2004-04-14 04:00,ZBAA 140400Z AUTO 17008KT 6SM 20/05 A3000 RMK T02000050 IEM_DS3505
ZBAA,2004-04-14 05:00,ZBAA 140500Z AUTO 15008KT 6SM 22/07 A2997 RMK T02200070 IEM_DS3505
ZBAA,2004-04-14 06:00,ZBAA 140600Z AUTO 18006KT 7SM 24/M02 A2991 RMK SLP129 T02431015 57039 IEM_DS3505
ZBAA,2004-04-14 07:00,ZBAA 140700Z AUTO 19012KT 6SM 25/03 A2988 RMK T02500030 IEM_DS3505
ZBAA,2004-04-14 08:00,ZBAA 140800Z AUTO 18014KT 6SM 26/M08 A2985 RMK T02601080 IEM_DS3505
ZBAA,2004-04-14 09:00,ZBAA 140900Z AUTO 20012KT 7SM 25/M10 A2983 RMK SLP101 T02521098 57028 IEM_DS3505
ZBAA,2004-04-14 10:00,ZBAA 141000Z AUTO 18014KT 6SM 24/M07 A2983 RMK T02401070 IEM_DS3505
ZBAA,2004-04-14 11:00,ZBAA 141100Z AUTO 19008KT 6SM 22/M05 A2983 RMK T02201050 IEM_DS3505
ZBAA,2004-04-14 12:00,ZBAA 141200Z AUTO 20008KT 6SM 22/M05 A2983 RMK SLP106 T02151053 52005 IEM_DS3505
ZBAA,2004-04-14 13:00,ZBAA 141300Z AUTO 18008KT 6SM 20/M03 A2983 RMK T02001030 IEM_DS3505
ZBAA,2004-04-14 14:00,ZBAA 141400Z AUTO 20012KT 6SM 20/M03 A2983 RMK T02001030 IEM_DS3505
ZBAA,2004-04-14 15:00,ZBAA 141500Z AUTO 22010KT 6SM 19/M03 A2983 RMK SLP095 T01931029 57010 IEM_DS3505
ZBAA,2004-04-14 16:00,ZBAA 141600Z AUTO 6SM 19/M02 A2980 RMK T01901020 IEM_DS3505
ZBAA,2004-04-14 17:00,ZBAA 141700Z AUTO 13004KT 6SM 16/00 A2980 RMK T01600000 IEM_DS3505
ZBAA,2004-04-14 18:00,ZBAA 141800Z AUTO 22008KT 7SM 17/00 A2977 RMK SLP073 T01720000 57022 IEM_DS3505
ZBAA,2004-04-14 19:00,ZBAA 141900Z AUTO 6SM 14/00 A2974 RMK T01400000 IEM_DS3505
ZBAA,2004-04-14 20:00,ZBAA 142000Z AUTO 36002KT 6SM 12/01 A2974 RMK T01200010 IEM_DS3505
ZBAA,2004-04-14 21:00,ZBAA 142100Z AUTO 22004KT 7SM 14/03 A2974 RMK SLP058 T01390028 57015 IEM_DS3505
ZBAA,2004-04-14 22:00,ZBAA 142200Z AUTO 35002KT 4SM 10/05 A2974 RMK T01000050 IEM_DS3505
ZBAA,2004-04-14 23:00,ZBAA 142300Z AUTO 3SM 12/06 A2971 RMK T01200060 IEM_DS3505
ZBAA,2004-04-15 00:00,ZBAA 150000Z AUTO 25002KT 7SM 16/03 A2971 RMK SLP063 T01630034 52005 IEM_DS3505
ZBAA,2004-04-15 01:00,ZBAA 150100Z AUTO 11002KT 3SM 17/07 A2971 RMK T01700070 IEM_DS3505
ZBAA,2004-04-15 02:00,ZBAA 150200Z AUTO 19002KT 20/04 A2971 RMK T02000040 IEM_DS3505
ZBAA,2004-04-15 03:00,ZBAA 150300Z AUTO 22006KT 9SM 25/M02 A2971 RMK SLP056 T02511024 57007 IEM_DS3505
ZBAA,2004-04-15 04:00,ZBAA 150400Z AUTO 23006KT 5SM 27/M01 A2968 RMK T02701010 IEM_DS3505
ZBAA,2004-04-15 05:00,ZBAA 150500Z AUTO 24008KT 5SM 29/M05 A2965 RMK T02901050 IEM_DS3505
ZBAA,2004-04-15 06:00,ZBAA 150600Z AUTO 25012G23KT 9SM 29/M07 A2962 RMK SLP028 T02871072 57028 IEM_DS3505
ZBAA,2004-04-15 07:00,ZBAA 150700Z AUTO 29016G35KT 6SM 30/M07 A2959 RMK T03001070 IEM_DS3505
ZBAA,2004-04-15 08:00,ZBAA 150800Z AUTO 30012G23KT 6SM 30/M08 A2959 RMK T03001080 IEM_DS3505
ZBAA,2004-04-15 09:00,ZBAA 150900Z AUTO 22008KT 7SM 28/M05 A2959 RMK SLP019 T02851047 57009 IEM_DS3505
ZBAA,2004-04-15 10:00,ZBAA 151000Z AUTO 21012KT 5SM 28/M03 A2959 RMK T02801030 IEM_DS3505
ZBAA,2004-04-15 11:00,ZBAA 151100Z AUTO 20008KT 5SM 26/M03 A2962 RMK T02601030 IEM_DS3505
ZBAA,2004-04-15 12:00,ZBAA 151200Z AUTO 22008KT 9SM 24/M03 A2962 RMK SLP032 T02401033 52013 IEM_DS3505
ZBAA,2004-04-15 13:00,ZBAA 151300Z AUTO 21006KT 5SM 23/00 A2965 RMK T02300000 IEM_DS3505
ZBAA,2004-04-15 14:00,ZBAA 151400Z AUTO 20006KT 5SM 21/02 A2965 RMK T02100020 IEM_DS3505
ZBAA,2004-04-15 15:00,ZBAA 151500Z AUTO 22008KT 9SM 20/01 A2965 RMK SLP037 T02020012 52005 IEM_DS3505
ZBAA,2004-04-15 16:00,ZBAA 151600Z AUTO 01002KT 5SM 19/03 A2965 RMK T01900030 IEM_DS3505
ZBAA,2004-04-15 17:00,ZBAA 151700Z AUTO 00000KT 5SM 16/03 A2965 RMK T01600030 IEM_DS3505
ZBAA,2004-04-15 18:00,ZBAA 151800Z AUTO 25004KT 9SM 18/02 A2965 RMK SLP037 T01760016 54000 IEM_DS3505
ZBAA,2004-04-15 19:00,ZBAA 151900Z AUTO 12/03 A2965 RMK T01200030 IEM_DS3505
ZBAA,2004-04-15 20:00,ZBAA 152000Z AUTO 24002KT 14/03 A2968 RMK T01400030 IEM_DS3505
ZBAA,2004-04-15 21:00,ZBAA 152100Z AUTO 02002KT 5SM 16/03 A2968 RMK SLP050 T01550027 52013 IEM_DS3505
ZBAA,2004-04-15 22:00,ZBAA 152200Z AUTO 29002KT 5SM 12/04 A2971 RMK T01200040 IEM_DS3505
ZBAA,2004-04-15 23:00,ZBAA 152300Z AUTO 30006KT 6SM 16/03 A2974 RMK T01600030 IEM_DS3505
ZBAA,2004-04-16 00:00,ZBAA 160000Z AUTO 07004KT 12SM 20/M01 A2977 RMK SLP071 T02041014 52021 IEM_DS3505
ZBAA,2004-04-16 01:00,ZBAA 160100Z AUTO 6SM 23/00 A2977 RMK T02300000 IEM_DS3505
ZBAA,2004-04-16 02:00,ZBAA 160200Z AUTO 6SM 26/01 A2974 RMK T02600010 IEM_DS3505
ZBAA,2004-04-16 03:00,ZBAA 160300Z AUTO 11006KT 12SM 26/00 A2974 RMK SLP069 T02550002 57002 IEM_DS3505
ZBAA,2004-04-16 04:00,ZBAA 160400Z AUTO 15006KT 6SM 28/M01 A2971 RMK T02801010 IEM_DS3505
ZBAA,2004-04-16 05:00,ZBAA 160500Z AUTO 14010KT 6SM 29/02 A2968 RMK T02900020 IEM_DS3505
ZBAA,2004-04-16 06:00,ZBAA 160600Z AUTO 16008KT 12SM 29/03 A2965 RMK SLP040 T02870029 57029 IEM_DS3505
ZBAA,2004-04-16 07:00,ZBAA 160700Z AUTO 17012KT 6SM 30/05 A2965 RMK T03000050 IEM_DS3505
ZBAA,2004-04-16 08:00,ZBAA 160800Z AUTO 17014KT 6SM 28/05 A2962 RMK T02800050 IEM_DS3505
ZBAA,2004-04-16 09:00,ZBAA 160900Z AUTO 16012KT 9SM 27/02 A2962 RMK SLP026 T02720016 57014 IEM_DS3505
ZBAA,2004-04-16 10:00,ZBAA 161000Z AUTO 14014KT 6SM 25/04 A2962 RMK T02500040 IEM_DS3505
ZBAA,2004-04-16 11:00,ZBAA 161100Z AUTO 12012KT 5SM 22/07 A2962 RMK T02200070 IEM_DS3505
ZBAA,2004-04-16 12:00,ZBAA 161200Z AUTO 11006KT 7SM 21/03 A2965 RMK SLP040 T02140027 52014 IEM_DS3505
ZBAA,2004-04-16 13:00,ZBAA 161300Z AUTO 14010KT 18/08 A2968 RMK T01800080 IEM_DS3505
ZBAA,2004-04-16 14:00,ZBAA 161400Z AUTO 11002KT 17/09 A2971 RMK T01700090 IEM_DS3505
ZBAA,2004-04-16 15:00,ZBAA 161500Z AUTO 09006KT 6SM 16/08 A2971 RMK SLP050 T01600083 52010 IEM_DS3505
ZBAA,2004-04-16 16:00,ZBAA 161600Z AUTO 14004KT 14/06 A2971 RMK T01400060 IEM_DS3505
ZBAA,2004-04-16 17:00,ZBAA 161700Z AUTO 14004KT 14/04 A2971 RMK T01400040 IEM_DS3505
ZBAA,2004-04-16 18:00,ZBAA 161800Z AUTO 09008KT 6SM 14/02 A2968 RMK SLP049 T01350018 57001 IEM_DS3505
ZBAA,2004-04-16 19:00,ZBAA 161900Z AUTO 11002KT 13/04 A2971 RMK T01300040 IEM_DS3505
ZBAA,2004-04-16 20:00,ZBAA 162000Z AUTO 15004KT 12/03 A2971 RMK T01200030 IEM_DS3505
ZBAA,2004-04-16 21:00,ZBAA 162100Z AUTO 04004KT 6SM 13/05 A2971 RMK SLP053 T01260053 52004 IEM_DS3505
ZBAA,2004-04-16 22:00,ZBAA 162200Z AUTO 27002KT 4SM 13/02 A2971 RMK T01300020 IEM_DS3505
ZBAA,2004-04-16 23:00,ZBAA 162300Z AUTO 00000KT 14/02 A2971 RMK T01400020 IEM_DS3505
ZBAA,2004-04-17 00:00,ZBAA 170000Z AUTO 04006KT 7SM 14/M02 A2974 RMK SLP061 T01451019 52008 IEM_DS3505
ZBAA,2004-04-17 01:00,ZBAA 170100Z AUTO 5SM 18/01 A2971 RMK T01800010 IEM_DS3505
ZBAA,2004-04-17 02:00,ZBAA 170200Z AUTO 5SM 19/02 A2974 RMK T01900020 IEM_DS3505
ZBAA,2004-04-17 03:00,ZBAA 170300Z AUTO 11008KT 7SM 19/03 A2971 RMK SLP057 T01940032 57004 IEM_DS3505
ZBAA,2004-04-17 04:00,ZBAA 170400Z AUTO 22/06 A2968 RMK T02200060 IEM_DS3505
ZBAA,2004-04-17 05:00,ZBAA 170500Z AUTO 12006KT 23/07 A2968 RMK T02300070 IEM_DS3505
ZBAA,2004-04-17 06:00,ZBAA 170600Z AUTO 18006KT 7SM 24/08 A2965 RMK SLP035 T02420078 57022 IEM_DS3505
ZBAA,2004-04-17 07:00,ZBAA 170700Z AUTO 26/09 A2962 RMK T02600090 IEM_DS3505
ZBAA,2004-04-17 08:00,ZBAA 170800Z AUTO 19008KT 5SM 26/11 A2959 RMK T02600110 IEM_DS3505
ZBAA,2004-04-17 09:00,ZBAA 170900Z AUTO 20006KT 9SM 26/08 A2959 RMK SLP021 T02630083 57014 IEM_DS3505
ZBAA,2004-04-17 10:00,ZBAA 171000Z AUTO 16006KT 25/11 A2962 RMK T02500110 IEM_DS3505
ZBAA,2004-04-17 11:00,ZBAA 171100Z AUTO 12002KT 3SM 23/12 A2962 RMK T02300120 IEM_DS3505
ZBAA,2004-04-17 12:00,ZBAA 171200Z AUTO 22004KT 6SM 23/10 A2965 RMK SLP031 T02300105 52010 IEM_DS3505
ZBAA,2004-04-17 13:00,ZBAA 171300Z AUTO 14002KT 3SM 20/13 A2965 RMK T02000130 IEM_DS3505
ZBAA,2004-04-17 14:00,ZBAA 171400Z AUTO 12004KT 2 1/2SM 19/14 A2965 RMK T01900140 IEM_DS3505
ZBAA,2004-04-17 15:00,ZBAA 171500Z AUTO 16002KT 7SM 21/12 A2965 RMK SLP040 T02120115 52009 IEM_DS3505
ZBAA,2004-04-17 16:00,ZBAA 171600Z AUTO 00000KT 2SM 17/13 A2968 RMK T01700130 IEM_DS3505
ZBAA,2004-04-17 17:00,ZBAA 171700Z AUTO 00000KT 2SM 17/14 A2968 RMK T01700140 IEM_DS3505
ZBAA,2004-04-17 18:00,ZBAA 171800Z AUTO 20002KT 5SM 17/12 A2968 RMK SLP047 T01740121 52007 IEM_DS3505
ZBAA,2004-04-17 19:00,ZBAA 171900Z AUTO 12002KT 1 1/2SM 15/13 A2968 RMK T01500130 IEM_DS3505
ZBAA,2004-04-17 20:00,ZBAA 172000Z AUTO 14004KT 1 1/2SM 14/13 A2968 RMK T01400130 IEM_DS3505
ZBAA,2004-04-17 21:00,ZBAA 172100Z AUTO 09004KT 5SM 15/11 A2968 RMK SLP044 T01510109 57003 IEM_DS3505
ZBAA,2004-04-17 22:00,ZBAA 172200Z AUTO 35002KT 1 1/2SM 14/12 A2968 RMK T01400120 IEM_DS3505
ZBAA,2004-04-17 23:00,ZBAA 172300Z AUTO 00000KT 2SM 15/13 A2971 RMK T01500130 IEM_DS3505
ZBAA,2004-04-18 00:00,ZBAA 180000Z AUTO 20004KT 6SM 18/10 A2971 RMK SLP057 T01810100 52013 IEM_DS3505
ZBAA,2004-04-18 01:00,ZBAA 180100Z AUTO 15004KT 3SM 19/13 A2971 RMK T01900130 IEM_DS3505
ZBAA,2004-04-18 02:00,ZBAA 180200Z AUTO 3SM 21/13 A2974 RMK T02100130 IEM_DS3505
ZBAA,2004-04-18 03:00,ZBAA 180300Z AUTO 18006KT 6SM 24/11 A2971 RMK SLP056 T02360110 57001 IEM_DS3505
ZBAA,2004-04-18 04:00,ZBAA 180400Z AUTO 16006KT 3SM 25/13 A2968 RMK T02500130 IEM_DS3505
ZBAA,2004-04-18 05:00,ZBAA 180500Z AUTO 15010KT 27/13 A2965 RMK T02700130 IEM_DS3505
ZBAA,2004-04-18 06:00,ZBAA 180600Z AUTO 20014KT 6SM 28/07 A2965 RMK SLP030 T02850066 57026 IEM_DS3505
ZBAA,2004-04-18 07:00,ZBAA 180700Z AUTO 18010KT 5SM 30/10 A2962 RMK T03000100 IEM_DS3505
ZBAA,2004-04-18 08:00,ZBAA 180800Z AUTO 17010KT 6SM 30/09 A2959 RMK T03000090 IEM_DS3505
ZBAA,2004-04-18 09:00,ZBAA 180900Z AUTO 20008KT 9SM 29/06 RMK SLP013 T02870056 57017 IEM_DS3505
ZBAA,2004-04-18 10:00,ZBAA 181000Z AUTO 20008KT 6SM 28/06 A2959 RMK T02800060 IEM_DS3505
ZBAA,2004-04-18 11:00,ZBAA 181100Z AUTO 19006KT 6SM 25/08 A2959 RMK T02500080 IEM_DS3505
ZBAA,2004-04-18 12:00,ZBAA 181200Z AUTO 18006KT 7SM 25/07 A2959 RMK SLP019 T02480070 52006 IEM_DS3505
ZBAA,2004-04-18 13:00,ZBAA 181300Z AUTO 13008KT 5SM 22/14 A2962 RMK T02200140 IEM_DS3505
ZBAA,2004-04-18 14:00,ZBAA 181400Z AUTO 12006KT 20/13 A2962 RMK T02000130 IEM_DS3505
ZBAA,2004-04-18 15:00,ZBAA 181500Z AUTO 16006KT 6SM 20/09 A2959 RMK SLP016 T02040094 57003 IEM_DS3505
ZBAA,2004-04-18 16:00,ZBAA 181600Z AUTO 12006KT 5SM 17/12 A2959 RMK T01700120 IEM_DS3505
ZBAA,2004-04-18 17:00,ZBAA 181700Z AUTO 13006KT 5SM 16/11 A2959 RMK T01600110 IEM_DS3505
ZBAA,2004-04-18 18:00,ZBAA 181800Z AUTO 07004KT 7SM 17/10 A2956 RMK SLP004 T01710095 57011 IEM_DS3505
ZBAA,2004-04-18 19:00,ZBAA 181900Z AUTO 13004KT 5SM 15/12 A2956 RMK T01500120 IEM_DS3505
ZBAA,2004-04-18 20:00,ZBAA 182000Z AUTO 09002KT 4SM 14/12 A2956 RMK T01400120 IEM_DS3505
ZBAA,2004-04-18 21:00,ZBAA 182100Z AUTO 02002KT 7SM 15/10 A2956 RMK SLP005 T01460096 54000 IEM_DS3505
ZBAA,2004-04-18 22:00,ZBAA 182200Z AUTO 00000KT 2 1/2SM 13/12 A2956 RMK T01300120 IEM_DS3505
ZBAA,2004-04-18 23:00,ZBAA 182300Z AUTO 00000KT 2 1/2SM 14/13 A2959 RMK T01400130 IEM_DS3505
ZBAA,2004-04-19 00:00,ZBAA 190000Z AUTO 07004KT 5SM 17/12 A2959 RMK SLP016 T01660115 52011 IEM_DS3505
ZBAA,2004-04-19 01:00,ZBAA 190100Z AUTO 10002KT 2 1/2SM 19/14 A2959 RMK T01900140 IEM_DS3505
ZBAA,2004-04-19 02:00,ZBAA 190200Z AUTO 2 1/2SM 21/14 A2959 RMK T02100140 IEM_DS3505
ZBAA,2004-04-19 03:00,ZBAA 190300Z AUTO 09004KT 6SM 23/11 A2959 RMK SLP018 T02340111 52002 IEM_DS3505
ZBAA,2004-04-19 04:00,ZBAA 190400Z AUTO 3SM 26/15 A2959 RMK T02600150 IEM_DS3505
ZBAA,2004-04-19 05:00,ZBAA 190500Z AUTO 14006KT 3SM 27/14 A2956 RMK T02700140 IEM_DS3505
ZBAA,2004-04-19 06:00,ZBAA 190600Z AUTO 18004KT 7SM 29/09 A2956 RMK SLP003 T02890086 57014 IEM_DS3505
ZBAA,2004-04-19 07:00,ZBAA 190700Z AUTO 14010KT 3SM 30/13 A2953 RMK T03000130 IEM_DS3505
ZBAA,2004-04-19 08:00,ZBAA 190800Z AUTO 13008KT 29/13 A2956 RMK T02900130 IEM_DS3505
ZBAA,2004-04-19 09:00,ZBAA 190900Z AUTO 11008KT 7SM 29/10 A2956 RMK SLP005 T02930100 52001 IEM_DS3505
ZBAA,2004-04-19 10:00,ZBAA 191000Z AUTO 11010KT 27/13 A2956 RMK T02700130 IEM_DS3505
ZBAA,2004-04-19 11:00,ZBAA 191100Z AUTO 11008KT 26/13 A2962 RMK T02600130 IEM_DS3505
ZBAA,2004-04-19 12:00,ZBAA 191200Z AUTO 11010KT 6SM 24/12 A2965 RMK SLP033 T02420122 52028 IEM_DS3505
ZBAA,2004-04-19 13:00,ZBAA 191300Z AUTO 13010KT 3SM 23/13 A2971 RMK T02300130 IEM_DS3505
ZBAA,2004-04-19 14:00,ZBAA 191400Z AUTO 12008KT 3SM 22/14 A2974 RMK T02200140 IEM_DS3505
ZBAA,2004-04-19 15:00,ZBAA 191500Z AUTO 11012KT 7SM 20/13 A2977 RMK SLP069 T01990127 52036 IEM_DS3505
ZBAA,2004-04-19 16:00,ZBAA 191600Z AUTO 10008KT 3SM 20/12 A2980 RMK T02000120 IEM_DS3505
ZBAA,2004-04-19 17:00,ZBAA 191700Z AUTO 10008KT 5SM 20/04 A2983 RMK T02000040 IEM_DS3505
ZBAA,2004-04-19 18:00,ZBAA 191800Z AUTO 07006KT 9SM 19/04 A2983 RMK SLP096 T01910041 52027 IEM_DS3505
ZBAA,2004-04-19 19:00,ZBAA 191900Z AUTO 11010KT 6SM 20/02 A2983 RMK T02000020 IEM_DS3505
ZBAA,2004-04-19 20:00,ZBAA 192000Z AUTO 13006KT 6SM 20/04 A2985 RMK T02000040 IEM_DS3505
ZBAA,2004-04-19 21:00,ZBAA 192100Z AUTO 07006KT 9SM 19/01 A2988 RMK SLP117 T01910007 52021 IEM_DS3505
ZBAA,2004-04-19 22:00,ZBAA 192200Z AUTO 13004KT 6SM 19/04 A2991 RMK T01900040 IEM_DS3505
ZBAA,2004-04-19 23:00,ZBAA 192300Z AUTO 18006KT 7SM 19/03 A2994 RMK T01900030 IEM_DS3505
ZBAA,2004-04-20 00:00,ZBAA 200000Z AUTO 11010KT 12SM 18/M01 A2994 RMK SLP145 T01801012 52028 IEM_DS3505
ZBAA,2004-04-20 01:00,ZBAA 200100Z AUTO 18008KT 6SM 19/01 A2997 RMK T01900010 IEM_DS3505
ZBAA,2004-04-20 02:00,ZBAA 200200Z AUTO 18012KT 6SM 19/00 A3000 RMK T01900000 IEM_DS3505
ZBAA,2004-04-20 03:00,ZBAA 200300Z AUTO 16008KT 12SM 19/M02 A3000 RMK SLP153 T01861017 52008 IEM_DS3505
ZBAA,2004-04-20 04:00,ZBAA 200400Z AUTO 16010KT 6SM 20/01 A2997 RMK T02000010 IEM_DS3505
ZBAA,2004-04-20 05:00,ZBAA 200500Z AUTO 16010KT 6SM 20/01 A2994 RMK T02000010 IEM_DS3505
ZBAA,2004-04-20 06:00,ZBAA 200600Z AUTO 14008KT 12SM 21/00 A2991 RMK T02100000 IEM_DS3505
ZBAA,2004-04-20 07:00,ZBAA 200700Z AUTO 18010KT 6SM 21/01 A2988 RMK T02100010 IEM_DS3505
ZBAA,2004-04-20 08:00,ZBAA 200800Z AUTO 16010KT 6SM 20/00 A2985 RMK T02000000 IEM_DS3505
ZBAA,2004-04-20 09:00,ZBAA 200900Z AUTO 18008KT 19SM 20/M02 A2985 RMK SLP101 T02031020 57026 IEM_DS3505
ZBAA,2004-04-20 10:00,ZBAA 201000Z AUTO 13008KT 6SM 19/00 A2983 RMK T01900000 IEM_DS3505
ZBAA,2004-04-20 11:00,ZBAA 201100Z AUTO 15008KT 6SM 18/00 A2983 RMK T01800000 IEM_DS3505
ZBAA,2004-04-20 12:00,ZBAA 201200Z AUTO 14004KT 12SM 18/M03 A2983 RMK SLP094 T01761031 57007 IEM_DS3505
ZBAA,2004-04-20 13:00,ZBAA 201300Z AUTO 17004KT 6SM 15/00 A2983 RMK T01500000 IEM_DS3505
ZBAA,2004-04-20 14:00,ZBAA 201400Z AUTO 12006KT 6SM 15/01 A2980 RMK T01500010 IEM_DS3505
ZBAA,2004-04-20 15:00,ZBAA 201500Z AUTO 20004KT 12SM 16/M03 A2977 RMK SLP076 T01641026 57018 IEM_DS3505
ZBAA,2004-04-20 16:00,ZBAA 201600Z AUTO 00000KT 6SM 14/01 A2974 RMK T01400010 IEM_DS3505
ZBAA,2004-04-20 17:00,ZBAA 201700Z AUTO 00000KT 6SM 13/03 A2971 RMK T01300030 IEM_DS3505
ZBAA,2004-04-20 18:00,ZBAA 201800Z AUTO 25004KT 6SM 14/M01 A2968 RMK SLP046 T01401012 57030 IEM_DS3505
ZBAA,2004-04-20 19:00,ZBAA 201900Z AUTO 00000KT 6SM 12/01 A2968 RMK T01200010 IEM_DS3505
ZBAA,2004-04-20 20:00,ZBAA 202000Z AUTO 00000KT 6SM 11/01 A2965 RMK T01100010 IEM_DS3505
ZBAA,2004-04-20 21:00,ZBAA 202100Z AUTO 22002KT 6SM 13/M00 A2962 RMK SLP030 T01311005 57016 IEM_DS3505
ZBAA,2004-04-20 22:00,ZBAA 202200Z AUTO 00000KT 6SM 12/03 A2962 RMK T01200030 IEM_DS3505
ZBAA,2004-04-20 23:00,ZBAA 202300Z AUTO 09002KT 5SM 13/03 A2959 RMK T01300030 IEM_DS3505
ZBAA,2004-04-21 00:00,ZBAA 210000Z AUTO 22004KT 7SM 16/M01 A2962 RMK SLP024 T01551011 57006 IEM_DS3505
ZBAA,2004-04-21 01:00,ZBAA 210100Z AUTO 00000KT 5SM 18/02 A2959 RMK T01800020 IEM_DS3505
ZBAA,2004-04-21 02:00,ZBAA 210200Z AUTO 6SM 19/02 A2959 RMK T01900020 IEM_DS3505
ZBAA,2004-04-21 03:00,ZBAA 210300Z AUTO 20004KT 9SM 20/01 A2956 RMK SLP007 T02010006 57017 IEM_DS3505
ZBAA,2004-04-21 04:00,ZBAA 210400Z AUTO 22002KT 6SM 22/03 A2953 RMK T02200030 IEM_DS3505
ZBAA,2004-04-21 05:00,ZBAA 210500Z AUTO 5SM 23/04 A2950 RMK T02300040 IEM_DS3505
ZBAA,2004-04-21 06:00,ZBAA 210600Z AUTO 20008KT 9SM 25/05 A2950 RMK SLP981 T02470050 57026 IEM_DS3505
ZBAA,2004-04-21 07:00,ZBAA 210700Z AUTO 5SM 25/06 A2947 RMK T02500060 IEM_DS3505
ZBAA,2004-04-21 08:00,ZBAA 210800Z AUTO 25/06 A2947 RMK T02500060 IEM_DS3505
ZBAA,2004-04-21 09:00,ZBAA 210900Z AUTO 04002KT 9SM 26/07 A2947 RMK SLP977 T02580069 57004 IEM_DS3505
ZBAA,2004-04-21 10:00,ZBAA 211000Z AUTO 00000KT 24/07 A2947 RMK T02400070 IEM_DS3505
ZBAA,2004-04-21 11:00,ZBAA 211100Z AUTO 32002KT 23/07 A2950 RMK T02300070 IEM_DS3505
ZBAA,2004-04-21 12:00,ZBAA 211200Z AUTO 07004KT 7SM 24/06 A2953 RMK SLP000 T02360064 52023 IEM_DS3505
ZBAA,2004-04-21 13:00,ZBAA 211300Z AUTO 01004KT 20/08 A2959 RMK T02000080 IEM_DS3505
ZBAA,2004-04-21 14:00,ZBAA 211400Z AUTO 02002KT 3SM 20/08 A2965 RMK T02000080 IEM_DS3505
ZBAA,2004-04-21 15:00,ZBAA 211500Z AUTO 02004KT 7SM 23/05 A2968 RMK SLP046 T02280048 52046 IEM_DS3505
ZBAA,2004-04-21 16:00,ZBAA 211600Z AUTO 36002KT 3SM 20/08 A2971 RMK T02000080 IEM_DS3505
ZBAA,2004-04-21 17:00,ZBAA 211700Z AUTO 22/06 A2971 RMK T02200060 IEM_DS3505
ZBAA,2004-04-21 18:00,ZBAA 211800Z AUTO 02004G23KT 7SM 22/03 A2974 RMK SLP066 T02210033 52020 IEM_DS3505
ZBAA,2004-04-21 19:00,ZBAA 211900Z AUTO 01012G21KT 6SM 22/M01 A2977 RMK T02201010 IEM_DS3505
ZBAA,2004-04-21 20:00,ZBAA 212000Z AUTO 04006G16KT 6SM 19/00 A2983 RMK T01900000 IEM_DS3505
ZBAA,2004-04-21 21:00,ZBAA 212100Z AUTO 04010G16KT 12SM 19/M01 A2985 RMK SLP109 T01861012 52043 IEM_DS3505
ZBAA,2004-04-21 22:00,ZBAA 212200Z AUTO 02010G19KT 6SM 16/M03 A2991 RMK T01601030 IEM_DS3505
ZBAA,2004-04-21 23:00,ZBAA 212300Z AUTO 03006KT 6SM 17/M03 A2994 RMK T01701030 IEM_DS3505
ZBAA,2004-04-22 00:00,ZBAA 220000Z AUTO 07010KT 16SM 18/M06 A2997 RMK SLP146 T01841056 52037 IEM_DS3505
ZBAA,2004-04-22 01:00,ZBAA 220100Z AUTO 03006G16KT 6SM 19/M02 A3000 RMK T01901020 IEM_DS3505
ZBAA,2004-04-22 02:00,ZBAA 220200Z AUTO 04006KT 6SM 21/M03 A2997 RMK T02101030 IEM_DS3505
ZBAA,2004-04-22 03:00,ZBAA 220300Z AUTO 02010KT 16SM 22/M05 A2997 RMK SLP143 T02201049 57003 IEM_DS3505
ZBAA,2004-04-22 04:00,ZBAA 220400Z AUTO 6SM 22/M02 A2997 RMK T02201020 IEM_DS3505
ZBAA,2004-04-22 05:00,ZBAA 220500Z AUTO 6SM 23/M01 A2991 RMK T02301010 IEM_DS3505
ZBAA,2004-04-22 06:00,ZBAA 220600Z AUTO 07006KT 16SM 23/M06 A2991 RMK SLP122 T02341055 57021 IEM_DS3505
ZBAA,2004-04-22 07:00,ZBAA 220700Z AUTO 33014G25KT 6SM 26/M04 A2988 RMK T02601040 IEM_DS3505
ZBAA,2004-04-22 08:00,ZBAA 220800Z AUTO 02006G16KT 6SM 25/M05 A2988 RMK T02501050 IEM_DS3505
ZBAA,2004-04-22 09:00,ZBAA 220900Z AUTO 16012KT 19SM 24/M05 A2988 RMK SLP119 T02391051 57003 IEM_DS3505
ZBAA,2004-04-22 10:00,ZBAA 221000Z AUTO 05016KT 6SM 23/M11 A2991 RMK T02301110 IEM_DS3505
ZBAA,2004-04-22 11:00,ZBAA 221100Z AUTO 03014KT 6SM 20/M14 A2994 RMK T02001140 IEM_DS3505
ZBAA,2004-04-22 12:00,ZBAA 221200Z AUTO 07008KT 19SM 20/M17 A3000 RMK SLP157 T02001167 52037 IEM_DS3505
ZBAA,2004-04-22 13:00,ZBAA 221300Z AUTO 03014KT 6SM 18/M14 A3003 RMK T01801140 IEM_DS3505
ZBAA,2004-04-22 14:00,ZBAA 221400Z AUTO 05012KT 6SM 17/M15 A3006 RMK T01701150 IEM_DS3505
ZBAA,2004-04-22 15:00,ZBAA 221500Z AUTO 07010KT 19SM 17/M16 A3009 RMK SLP182 T01681161 52025 IEM_DS3505
ZBAA,2004-04-22 16:00,ZBAA 221600Z AUTO 04014KT 6SM 15/M15 A3012 RMK T01501150 IEM_DS3505
ZBAA,2004-04-22 17:00,ZBAA 221700Z AUTO 04014KT 6SM 15/M16 A3012 RMK T01501160 IEM_DS3505
ZBAA,2004-04-22 18:00,ZBAA 221800Z AUTO 04012KT 19SM 15/M16 A3015 RMK SLP205 T01511162 52023 IEM_DS3505
ZBAA,2004-04-22 19:00,ZBAA 221900Z AUTO 05012KT 6SM 13/M17 A3018 RMK T01301170 IEM_DS3505
ZBAA,2004-04-22 20:00,ZBAA 222000Z AUTO 04012KT 6SM 13/M17 A3021 RMK T01301170 IEM_DS3505
ZBAA,2004-04-22 21:00,ZBAA 222100Z AUTO 07010KT 16SM 13/M18 A3021 RMK SLP226 T01341175 52021 IEM_DS3505
ZBAA,2004-04-22 22:00,ZBAA 222200Z AUTO 04008KT 6SM 11/M16 A3024 RMK T01101160 IEM_DS3505
ZBAA,2004-04-22 23:00,ZBAA 222300Z AUTO 05012KT 6SM 12/M14 A3024 RMK T01201140 IEM_DS3505
ZBAA,2004-04-23 00:00,ZBAA 230000Z AUTO 04010KT 19SM 13/M18 A3027 RMK SLP243 T01301178 52017 IEM_DS3505
ZBAA,2004-04-23 01:00,ZBAA 230100Z AUTO 04014KT 6SM 15/M14 A3027 RMK T01501140 IEM_DS3505
ZBAA,2004-04-23 02:00,ZBAA 230200Z AUTO 03010KT 6SM 15/M15 A3024 RMK T01501150 IEM_DS3505
ZBAA,2004-04-23 03:00,ZBAA 230300Z AUTO 07006KT 19SM 16/M16 A3024 RMK SLP234 T01561158 57009 IEM_DS3505
ZBAA,2004-04-23 04:00,ZBAA 230400Z AUTO 6SM 18/M13 A3021 RMK T01801130 IEM_DS3505
ZBAA,2004-04-23 05:00,ZBAA 230500Z AUTO 6SM 18/M16 A3018 RMK T01801160 IEM_DS3505
ZBAA,2004-04-23 06:00,ZBAA 230600Z AUTO 20006KT 19SM 18/M12 A3015 RMK SLP211 T01801117 57023 IEM_DS3505
ZBAA,2004-04-23 07:00,ZBAA 230700Z AUTO 19006G17KT 6SM 19/M11 A3012 RMK T01901110 IEM_DS3505
ZBAA,2004-04-23 08:00,ZBAA 230800Z AUTO 17008KT 6SM 19/M08 A3012 RMK T01901080 IEM_DS3505
ZBAA,2004-04-23 09:00,ZBAA 230900Z AUTO 20006KT 19SM 19/M08 A3009 RMK SLP193 T01861076 57018 IEM_DS3505
ZBAA,2004-04-23 10:00,ZBAA 231000Z AUTO 19008KT 6SM 18/M08 A3009 RMK T01801080 IEM_DS3505
ZBAA,2004-04-23 11:00,ZBAA 231100Z AUTO 20006KT 6SM 16/M05 A3012 RMK T01601050 IEM_DS3505
ZBAA,2004-04-23 12:00,ZBAA 231200Z AUTO 22004KT 19SM 16/M03 A3012 RMK SLP204 T01611028 52011 IEM_DS3505
ZBAA,2004-04-23 13:00,ZBAA 231300Z AUTO 16004KT 6SM 13/M02 A3015 RMK T01301020 IEM_DS3505
ZBAA,2004-04-23 14:00,ZBAA 231400Z AUTO 16008KT 6SM 14/M02 A3018 RMK T01401020 IEM_DS3505
ZBAA,2004-04-23 15:00,ZBAA 231500Z AUTO 20008KT 19SM 13/M04 A3018 RMK SLP218 T01341042 52014 IEM_DS3505
ZBAA,2004-04-23 16:00,ZBAA 231600Z AUTO 12006KT 6SM 11/00 A3018 RMK T01100000 IEM_DS3505
ZBAA,2004-04-23 17:00,ZBAA 231700Z AUTO 13008KT 6SM 10/00 A3021 RMK T01000000 IEM_DS3505
ZBAA,2004-04-23 18:00,ZBAA 231800Z AUTO 16006KT 12SM 11/M04 A3018 RMK SLP220 T01111045 52002 IEM_DS3505
ZBAA,2004-04-23 19:00,ZBAA 231900Z AUTO 11006KT 6SM 09/M01 A3018 RMK T00901010 IEM_DS3505
ZBAA,2004-04-23 20:00,ZBAA 232000Z AUTO 08002KT 6SM 08/00 A3021 RMK T00800000 IEM_DS3505
ZBAA,2004-04-23 21:00,ZBAA 232100Z AUTO 20004KT 12SM 09/M03 A3018 RMK SLP218 T00941031 57002 IEM_DS3505
ZBAA,2004-04-23 22:00,ZBAA 232200Z AUTO 08002KT 6SM 07/01 A3021 RMK T00700010 IEM_DS3505
ZBAA,2004-04-23 23:00,ZBAA 232300Z AUTO 10002KT 6SM 09/01 A3021 RMK T00900010 IEM_DS3505
ZBAA,2004-04-24 00:00,ZBAA 240000Z AUTO 09002KT 7SM 12/M03 A3021 RMK SLP227 T01191026 52009 IEM_DS3505
ZBAA,2004-04-24 01:00,ZBAA 240100Z AUTO 6SM 14/00 A3021 RMK T01400000 IEM_DS3505
ZBAA,2004-04-24 02:00,ZBAA 240200Z AUTO 6SM 16/00 A3018 RMK T01600000 IEM_DS3505
ZBAA,2004-04-24 03:00,ZBAA 240300Z AUTO 14002KT 7SM 16/M05 A3018 RMK SLP211 T01631054 57016 IEM_DS3505
ZBAA,2004-04-24 04:00,ZBAA 240400Z AUTO 17004KT 6SM 19/M03 A3012 RMK T01901030 IEM_DS3505
ZBAA,2004-04-24 05:00,ZBAA 240500Z AUTO 16010KT 6SM 19/M07 A3009 RMK T01901070 IEM_DS3505
ZBAA,2004-04-24 06:00,ZBAA 240600Z AUTO 18006KT 9SM 19/M08 A3006 RMK SLP175 T01881075 57036 IEM_DS3505
ZBAA,2004-04-24 07:00,ZBAA 240700Z AUTO 16008KT 6SM 20/M05 A3003 RMK T02001050 IEM_DS3505
ZBAA,2004-04-24 08:00,ZBAA 240800Z AUTO 16008KT 6SM 20/M01 A2997 RMK T02001010 IEM_DS3505
ZBAA,2004-04-24 09:00,ZBAA 240900Z AUTO 20006KT 9SM 19/M00 A2997 RMK SLP149 T01891004 57026 IEM_DS3505
ZBAA,2004-04-24 10:00,ZBAA 241000Z AUTO 19008KT 6SM 18/01 A2997 RMK T01800010 IEM_DS3505
ZBAA,2004-04-24 11:00,ZBAA 241100Z AUTO 18006KT 5SM 17/03 A2997 RMK T01700030 IEM_DS3505
ZBAA,2004-04-24 12:00,ZBAA 241200Z AUTO 22006KT 9SM 17/03 A2997 RMK SLP149 T01690033 54000 IEM_DS3505
ZBAA,2004-04-24 13:00,ZBAA 241300Z AUTO 16004KT 15/05 A3000 RMK T01500050 IEM_DS3505
ZBAA,2004-04-24 14:00,ZBAA 241400Z AUTO 15004KT 14/05 A3000 RMK T01400050 IEM_DS3505
ZBAA,2004-04-24 15:00,ZBAA 241500Z AUTO 18004KT 9SM 15/03 A3000 RMK SLP153 T01520034 52004 IEM_DS3505
ZBAA,2004-04-24 16:00,ZBAA 241600Z AUTO 10002KT 3SM 12/05 A3000 RMK T01200050 IEM_DS3505
ZBAA,2004-04-24 17:00,ZBAA 241700Z AUTO 11004KT 12/05 A2997 RMK T01200050 IEM_DS3505
ZBAA,2004-04-24 18:00,ZBAA 241800Z AUTO 20002KT 7SM 13/02 A2997 RMK SLP143 T01320025 57010 IEM_DS3505
ZBAA,2004-04-24 19:00,ZBAA 241900Z AUTO 12004KT 11/05 A2994 RMK T01100050 IEM_DS3505
ZBAA,2004-04-24 20:00,ZBAA 242000Z AUTO 11/05 A2997 RMK T01100050 IEM_DS3505
ZBAA,2004-04-24 21:00,ZBAA 242100Z AUTO 07004KT 7SM 12/03 A2997 RMK SLP140 T01230030 57003 IEM_DS3505
ZBAA,2004-04-24 22:00,ZBAA 242200Z AUTO 4SM 11/05 A2994 RMK T01100050 IEM_DS3505
ZBAA,2004-04-24 23:00,ZBAA 242300Z AUTO 00000KT 3SM 12/06 A2997 RMK T01200060 IEM_DS3505
ZBAA,2004-04-25 00:00,ZBAA 250000Z AUTO 11004KT 6SM 15/02 A2997 RMK SLP146 T01470023 52006 IEM_DS3505
ZBAA,2004-04-25 01:00,ZBAA 250100Z AUTO 10008KT 16/04 A2997 RMK T01600040 IEM_DS3505
ZBAA,2004-04-25 02:00,ZBAA 250200Z AUTO 12008KT 5SM 17/05 A2997 RMK T01700050 IEM_DS3505
ZBAA,2004-04-25 03:00,ZBAA 250300Z AUTO 18008KT 9SM 13/07 A2997 RMK SLP153 T01310071 52007 IEM_DS3505
ZBAA,2004-04-25 04:00,ZBAA 250400Z AUTO 16010KT 5SM 17/07 A2997 RMK T01700070 IEM_DS3505
ZBAA,2004-04-25 05:00,ZBAA 250500Z AUTO 18010KT 5SM 13/09 A2997 RMK T01300090 IEM_DS3505
ZBAA,2004-04-25 06:00,ZBAA 250600Z AUTO 11008KT 6SM 11/09 A2997 RMK 60016 SLP145 T01110089 57008 IEM_DS3505
ZBAA,2004-04-25 07:00,ZBAA 250700Z AUTO 13006KT 2 1/2SM 11/11 A2997 RMK T01100110 IEM_DS3505
ZBAA,2004-04-25 08:00,ZBAA 250800Z AUTO 12008KT 2SM 12/11 A2994 RMK T01200110 IEM_DS3505
ZBAA,2004-04-25 09:00,ZBAA 250900Z AUTO 14008KT 6SM 12/10 A2994 RMK SLP133 T01150096 57012 IEM_DS3505
ZBAA,2004-04-25 11:00,ZBAA 251100Z AUTO 11008KT 4SM 11/11 A2991 RMK T01100110 IEM_DS3505
ZBAA,2004-04-25 12:00,ZBAA 251200Z AUTO 11004KT 6SM 12/10 A2994 RMK 60028 SLP133 T01150096 54000 IEM_DS3505
ZBAA,2004-04-25 13:00,ZBAA 251300Z AUTO 13012KT 3SM 11/10 A2994 RMK T01100100 IEM_DS3505
ZBAA,2004-04-25 14:00,ZBAA 251400Z AUTO 14010KT 7SM 10/08 A2994 RMK T01000080 IEM_DS3505
ZBAA,2004-04-25 15:00,ZBAA 251500Z AUTO 14004KT 6SM 09/06 A2994 RMK SLP134 T00900056 54000 IEM_DS3505
ZBAA,2004-04-25 16:00,ZBAA 251600Z AUTO 15004KT 2 1/2SM 09/08 A2991 RMK T00900080 IEM_DS3505
ZBAA,2004-04-25 17:00,ZBAA 251700Z AUTO 13002KT 2SM 09/08 A2988 RMK T00900080 IEM_DS3505
ZBAA,2004-04-25 18:00,ZBAA 251800Z AUTO 02002KT 5SM 09/07 A2988 RMK 60016 SLP113 T00880069 57021 IEM_DS3505
ZBAA,2004-04-25 19:00,ZBAA 251900Z AUTO 20002KT 2SM 09/08 A2985 RMK T00900080 IEM_DS3505
ZBAA,2004-04-25 20:00,ZBAA 252000Z AUTO 00000KT 1 1/4SM 09/09 A2985 RMK T00900090 IEM_DS3505
ZBAA,2004-04-25 21:00,ZBAA 252100Z AUTO 07004KT 4SM 09/07 A2983 RMK 70067 SLP099 T00860067 57014 IEM_DS3505
ZBAA,2004-04-25 22:00,ZBAA 252200Z AUTO 16004KT 1SM 09/09 A2983 RMK T00900090 IEM_DS3505
ZBAA,2004-04-25 23:00,ZBAA 252300Z AUTO 1SM 09/09 A2983 RMK T00900090 IEM_DS3505
ZBAA,2004-04-26 00:00,ZBAA 260000Z AUTO 09008KT 4SM 09/07 A2985 RMK 60020 70078 SLP102 T00930074 52004 IEM_DS3505
ZBAA,2004-04-26 01:00,ZBAA 260100Z AUTO 1 1/2SM 09/09 A2988 RMK T00900090 IEM_DS3505
ZBAA,2004-04-26 02:00,ZBAA 260200Z AUTO 32008KT 2 1/2SM 10/10 A2988 RMK T01000100 IEM_DS3505
ZBAA,2004-04-26 03:00,ZBAA 260300Z AUTO 09006KT 4SM 10/08 A2988 RMK SLP123 T00970075 52020 IEM_DS3505
ZBAA,2004-04-26 04:00,ZBAA 260400Z AUTO 10002KT 7SM 11/10 A2991 RMK T01100100 IEM_DS3505
ZBAA,2004-04-26 05:00,ZBAA 260500Z AUTO 15004KT 7SM 10/10 A2991 RMK T01000100 IEM_DS3505
ZBAA,2004-04-26 06:00,ZBAA 260600Z AUTO 00000KT 5SM 10/07 A2991 RMK 60012 SLP132 T00960074 52009 IEM_DS3505
ZBAA,2004-04-26 07:00,ZBAA 260700Z AUTO 30004KT 7SM 12/11 A2991 RMK T01200110 IEM_DS3505
ZBAA,2004-04-26 07:30,ZBAA 260730Z AUTO 01008G17KT 7SM 14/09 A2991 RMK T01400090 IEM_DS3505
ZBAA,2004-04-26 08:00,ZBAA 260800Z AUTO 03006KT 7SM 14/08 A2991 RMK T01400080 IEM_DS3505
ZBAA,2004-04-26 09:00,ZBAA 260900Z AUTO 04004KT 7SM 13/08 A2991 RMK SLP134 T01330075 52002 IEM_DS3505
ZBAA,2004-04-26 10:00,ZBAA 261000Z AUTO 7SM 15/07 A2994 RMK T01500070 IEM_DS3505
ZBAA,2004-04-26 11:00,ZBAA 261100Z AUTO 6SM 13/07 A2997 RMK T01300070 IEM_DS3505
ZBAA,2004-04-26 12:00,ZBAA 261200Z AUTO 25006KT 9SM 11/08 A2997 RMK 60004 SLP155 T01140083 52021 IEM_DS3505
ZBAA,2004-04-26 13:00,ZBAA 261300Z AUTO 6SM 11/08 A3000 RMK T01100080 IEM_DS3505
ZBAA,2004-04-26 14:00,ZBAA 261400Z AUTO 25006KT 6SM 10/09 A3000 RMK T01000090 IEM_DS3505
ZBAA,2004-04-26 15:00,ZBAA 261500Z AUTO 27004KT 6SM 10/08 A3000 RMK SLP161 T00990075 52006 IEM_DS3505
ZBAA,2004-04-26 16:00,ZBAA 261600Z AUTO 28004KT 6SM 10/08 A3000 RMK T01000080 IEM_DS3505
ZBAA,2004-04-26 17:00,ZBAA 261700Z AUTO 27002KT 6SM 10/08 A3000 RMK T01000080 IEM_DS3505
ZBAA,2004-04-26 18:00,ZBAA 261800Z AUTO 27002KT 5SM 08/06 A2997 RMK SLP150 T00830064 57011 IEM_DS3505
ZBAA,2004-04-26 19:00,ZBAA 261900Z AUTO 00000KT 4SM 07/07 A2997 RMK T00700070 IEM_DS3505
ZBAA,2004-04-26 20:00,ZBAA 262000Z AUTO 35004KT 4SM 06/06 A2997 RMK T00600060 IEM_DS3505
ZBAA,2004-04-26 21:00,ZBAA 262100Z AUTO 00000KT 4SM 07/05 A2997 RMK 70029 SLP146 T00690054 57004 IEM_DS3505
ZBAA,2004-04-26 22:00,ZBAA 262200Z AUTO 35004KT 5SM 05/05 A2997 RMK T00500050 IEM_DS3505
ZBAA,2004-04-26 23:00,ZBAA 262300Z AUTO 35002KT 6SM 08/08 A3000 RMK T00800080 IEM_DS3505
ZBAA,2004-04-27 00:00,ZBAA 270000Z AUTO 36004KT 4SM 11/08 A3000 RMK 70018 SLP160 T01130080 52014 IEM_DS3505
ZBAA,2004-04-27 01:00,ZBAA 270100Z AUTO 02004KT 6SM 13/08 A2997 RMK T01300080 IEM_DS3505
ZBAA,2004-04-27 02:00,ZBAA 270200Z AUTO 06004KT 6SM 16/08 A2997 RMK T01600080 IEM_DS3505
ZBAA,2004-04-27 03:00,ZBAA 270300Z AUTO 20006KT 9SM 17/08 A2997 RMK SLP147 T01710083 57012 IEM_DS3505
ZBAA,2004-04-27 04:00,ZBAA 270400Z AUTO 17008KT 6SM 18/10 A2994 RMK T01800100 IEM_DS3505
ZBAA,2004-04-27 05:00,ZBAA 270500Z AUTO 18012KT 6SM 20/08 A2988 RMK T02000080 IEM_DS3505
ZBAA,2004-04-27 06:00,ZBAA 270600Z AUTO 22016KT 12SM 20/05 A2985 RMK SLP119 T02030048 57028 IEM_DS3505
ZBAA,2004-04-27 07:00,ZBAA 270700Z AUTO 19012KT 6SM 21/06 A2983 RMK T02100060 IEM_DS3505
ZBAA,2004-04-27 08:00,ZBAA 270800Z AUTO 20010KT 6SM 21/05 A2983 RMK T02100050 IEM_DS3505
ZBAA,2004-04-27 09:00,ZBAA 270900Z AUTO 22016KT 19SM 20/03 A2980 RMK SLP094 T01970026 57025 IEM_DS3505
ZBAA,2004-04-27 10:00,ZBAA 271000Z AUTO 19008KT 6SM 19/05 A2980 RMK T01900050 IEM_DS3505
ZBAA,2004-04-27 11:00,ZBAA 271100Z AUTO 19010KT 6SM 18/04 A2980 RMK T01800040 IEM_DS3505
ZBAA,2004-04-27 12:00,ZBAA 271200Z AUTO 20008KT 12SM 17/04 A2980 RMK SLP097 T01670038 52003 IEM_DS3505
ZBAA,2004-04-27 14:00,ZBAA 271400Z AUTO 16008KT 6SM 15/06 A2983 RMK T01500060 IEM_DS3505
ZBAA,2004-04-27 15:00,ZBAA 271500Z AUTO 18006KT 9SM 14/04 A2983 RMK SLP098 T01420042 52001 IEM_DS3505
ZBAA,2004-04-27 16:00,ZBAA 271600Z AUTO 17008KT 6SM 14/06 A2983 RMK T01400060 IEM_DS3505
ZBAA,2004-04-27 17:00,ZBAA 271700Z AUTO 17006KT 6SM 13/06 A2980 RMK T01300060 IEM_DS3505
ZBAA,2004-04-27 18:00,ZBAA 271800Z AUTO 18004KT 12SM 12/04 A2980 RMK SLP091 T01230045 57007 IEM_DS3505
ZBAA,2004-04-27 19:00,ZBAA 271900Z AUTO 16006KT 6SM 12/06 A2980 RMK T01200060 IEM_DS3505
ZBAA,2004-04-27 20:00,ZBAA 272000Z AUTO 15004KT 6SM 11/07 A2980 RMK T01100070 IEM_DS3505
ZBAA,2004-04-27 21:00,ZBAA 272100Z AUTO 16002KT 7SM 11/05 A2980 RMK SLP084 T01110054 57007 IEM_DS3505
ZBAA,2004-04-27 22:00,ZBAA 272200Z AUTO 12004KT 4SM 11/07 A2980 RMK T01100070 IEM_DS3505
ZBAA,2004-04-27 23:00,ZBAA 272300Z AUTO 12004KT 3SM 12/08 A2980 RMK T01200080 IEM_DS3505
ZBAA,2004-04-28 00:00,ZBAA 280000Z AUTO 18004KT 6SM 12/06 A2980 RMK SLP096 T01220065 52012 IEM_DS3505
ZBAA,2004-04-28 01:00,ZBAA 280100Z AUTO 14004KT 2 1/2SM 13/08 A2983 RMK T01300080 IEM_DS3505
ZBAA,2004-04-28 02:00,ZBAA 280200Z AUTO 12004KT 2 1/2SM 15/09 A2983 RMK T01500090 IEM_DS3505
ZBAA,2004-04-28 03:00,ZBAA 280300Z AUTO 04002KT 7SM 15/08 A2983 RMK SLP095 T01510084 57001 IEM_DS3505
ZBAA,2004-04-28 04:00,ZBAA 280400Z AUTO 11004KT 2 1/2SM 15/10 A2980 RMK T01500100 IEM_DS3505
ZBAA,2004-04-28 05:00,ZBAA 280500Z AUTO 14006KT 2 1/2SM 16/11 A2980 RMK T01600110 IEM_DS3505
ZBAA,2004-04-28 06:00,ZBAA 280600Z AUTO 20004KT 7SM 19/11 A2977 RMK SLP075 T01880106 57020 IEM_DS3505
ZBAA,2004-04-28 07:00,ZBAA 280700Z AUTO 2 1/2SM 17/12 A2974 RMK T01700120 IEM_DS3505
ZBAA,2004-04-28 08:00,ZBAA 280800Z AUTO 2SM 19/13 A2971 RMK T01900130 IEM_DS3505
ZBAA,2004-04-28 09:00,ZBAA 280900Z AUTO 20002KT 7SM 20/12 A2971 RMK SLP050 T02050117 57025 IEM_DS3505
ZBAA,2004-04-28 10:00,ZBAA 281000Z AUTO 01004KT 2SM 18/13 A2968 RMK T01800130 IEM_DS3505
ZBAA,2004-04-28 11:00,ZBAA 281100Z AUTO 01004KT 1 1/4SM 16/13 A2971 RMK T01600130 IEM_DS3505
ZBAA,2004-04-28 12:00,ZBAA 281200Z AUTO 02002KT 6SM 18/12 A2971 RMK SLP055 T01760119 52005 IEM_DS3505
ZBAA,2004-04-28 13:00,ZBAA 281300Z AUTO 35004KT 1 1/4SM 14/12 A2971 RMK T01400120 IEM_DS3505
ZBAA,2004-04-28 14:00,ZBAA 281400Z AUTO 35004KT 1 1/4SM 15/13 A2971 RMK T01500130 IEM_DS3505
ZBAA,2004-04-28 15:00,ZBAA 281500Z AUTO 09006KT 5SM 17/12 A2971 RMK SLP056 T01720117 52001 IEM_DS3505
ZBAA,2004-04-28 16:00,ZBAA 281600Z AUTO 33002KT 1 1/2SM 16/13 A2971 RMK T01600130 IEM_DS3505
ZBAA,2004-04-28 17:00,ZBAA 281700Z AUTO 31006KT 1 1/2SM 16/14 A2971 RMK T01600140 IEM_DS3505
ZBAA,2004-04-28 18:00,ZBAA 281800Z AUTO 36002KT 4SM 17/12 A2971 RMK SLP052 T01710116 57003 IEM_DS3505
ZBAA,2004-04-28 19:00,ZBAA 281900Z AUTO 31004KT 1 1/4SM 16/13 A2968 RMK T01600130 IEM_DS3505
ZBAA,2004-04-28 20:00,ZBAA 282000Z AUTO 31004KT 1 1/4SM 16/13 A2968 RMK T01600130 IEM_DS3505
ZBAA,2004-04-28 21:00,ZBAA 282100Z AUTO 04002KT 4SM 17/12 A2968 RMK SLP049 T01720115 57003 IEM_DS3505
ZBAA,2004-04-28 22:00,ZBAA 282200Z AUTO 33004KT 1SM 16/14 A2971 RMK T01600140 IEM_DS3505
ZBAA,2004-04-28 23:00,ZBAA 282300Z AUTO 35004KT 1SM 16/14 A2974 RMK T01600140 IEM_DS3505
ZBAA,2004-04-29 00:00,ZBAA 290000Z AUTO 04004KT 2 1/2SM 18/12 A2977 RMK SLP077 T01780120 52028 IEM_DS3505
ZBAA,2004-04-29 01:00,ZBAA 290100Z AUTO 01002KT 1 1/4SM 17/15 A2980 RMK T01700150 IEM_DS3505
ZBAA,2004-04-29 02:00,ZBAA 290200Z AUTO 36004KT 1 1/4SM 18/15 A2980 RMK T01800150 IEM_DS3505
ZBAA,2004-04-29 03:00,ZBAA 290300Z AUTO 04008KT 3SM 19/14 A2980 RMK SLP087 T01900136 52010 IEM_DS3505
ZBAA,2004-04-29 04:00,ZBAA 290400Z AUTO 15002KT 1 1/4SM 18/16 A2980 RMK T01800160 IEM_DS3505
ZBAA,2004-04-29 05:00,ZBAA 290500Z AUTO 12002KT 1SM 18/16 A2980 RMK T01800160 IEM_DS3505
ZBAA,2004-04-29 06:00,ZBAA 290600Z AUTO 02006KT 4SM 18/13 A2980 RMK SLP086 T01830134 57001 IEM_DS3505
ZBAA,2004-04-29 07:00,ZBAA 290700Z AUTO 04006G17KT 2 1/2SM 18/14 A2983 RMK T01800140 IEM_DS3505
ZBAA,2004-04-29 08:00,ZBAA 290800Z AUTO 01012G23KT 4SM 17/13 A2983 RMK T01700130 IEM_DS3505
ZBAA,2004-04-29 09:00,ZBAA 290900Z AUTO 04008G23KT 5SM 16/12 A2985 RMK SLP112 T01570117 52025 IEM_DS3505
ZBAA,2004-04-29 10:00,ZBAA 291000Z AUTO 02008G17KT 3SM 13/13 A2991 RMK T01300130 IEM_DS3505
ZBAA,2004-04-29 11:00,ZBAA 291100Z AUTO 03008G19KT 7SM 13/12 A2994 RMK T01300120 IEM_DS3505
ZBAA,2004-04-29 12:00,ZBAA 291200Z AUTO 04006G19KT 7SM 13/10 A2997 RMK 60039 SLP150 T01330105 52038 IEM_DS3505
ZBAA,2004-04-29 13:00,ZBAA 291300Z AUTO 03008KT 6SM 14/11 A3003 RMK T01400110 IEM_DS3505
ZBAA,2004-04-29 14:00,ZBAA 291400Z AUTO 02006KT 7SM 13/11 A3006 RMK T01300110 IEM_DS3505
ZBAA,2004-04-29 15:00,ZBAA 291500Z AUTO 04004KT 9SM 13/10 A3003 RMK SLP170 T01300096 52020 IEM_DS3505
ZBAA,2004-04-29 16:00,ZBAA 291600Z AUTO 35006KT 7SM 12/11 A3006 RMK T01200110 IEM_DS3505
ZBAA,2004-04-29 17:00,ZBAA 291700Z AUTO 36004KT 6SM 12/11 A3006 RMK T01200110 IEM_DS3505
ZBAA,2004-04-29 18:00,ZBAA 291800Z AUTO 02004KT 9SM 13/09 A3009 RMK 60003 SLP182 T01290088 52012 IEM_DS3505
ZBAA,2004-04-29 19:00,ZBAA 291900Z AUTO 01004KT 7SM 13/10 A3009 RMK T01300100 IEM_DS3505
ZBAA,2004-04-29 20:00,ZBAA 292000Z AUTO 36006KT 6SM 13/11 A3009 RMK T01300110 IEM_DS3505
ZBAA,2004-04-29 21:00,ZBAA 292100Z AUTO 04006KT 9SM 13/08 A3012 RMK 70043 SLP195 T01330078 52013 IEM_DS3505
ZBAA,2004-04-29 22:00,ZBAA 292200Z AUTO 6SM 13/09 A3012 RMK T01300090 IEM_DS3505
ZBAA,2004-04-29 23:00,ZBAA 292300Z AUTO 01006KT 6SM 13/08 A3018 RMK T01300080 IEM_DS3505
ZBAA,2004-04-30 00:00,ZBAA 300000Z AUTO 04004KT 12SM 15/05 A3018 RMK 60000 70043 SLP224 T01460052 52029 IEM_DS3505
ZBAA,2004-04-30 01:00,ZBAA 300100Z AUTO 03006KT 6SM 16/05 A3021 RMK T01600050 IEM_DS3505
ZBAA,2004-04-30 02:00,ZBAA 300200Z AUTO 03006KT 6SM 17/05 A3021 RMK T01700050 IEM_DS3505
ZBAA,2004-04-30 03:00,ZBAA 300300Z AUTO 11002KT 19SM 18/04 A3021 RMK SLP227 T01780044 52003 IEM_DS3505
ZBAA,2004-04-30 04:00,ZBAA 300400Z AUTO 6SM A3018 RMK IEM_DS3505
ZBAA,2004-04-30 05:00,ZBAA 300500Z AUTO 6SM 19/01 A3015 RMK T01900010 IEM_DS3505
ZBAA,2004-04-30 06:00,ZBAA 300600Z AUTO 25006KT 19SM 19/03 A3012 RMK SLP199 T01920026 57028 IEM_DS3505
ZBAA,2004-04-30 07:00,ZBAA 300700Z AUTO 17004KT 6SM 20/03 A3012 RMK T02000030 IEM_DS3505
ZBAA,2004-04-30 08:00,ZBAA 300800Z AUTO 18004KT 6SM 20/04 A3009 RMK T02000040 IEM_DS3505
ZBAA,2004-04-30 09:00,ZBAA 300900Z AUTO 18006KT 19SM 19/02 A3009 RMK SLP190 T01890023 57009 IEM_DS3505
ZBAA,2004-04-30 10:00,ZBAA 301000Z AUTO 17008KT 6SM 18/07 A3009 RMK T01800070 IEM_DS3505
ZBAA,2004-04-30 11:00,ZBAA 301100Z AUTO 18006KT 6SM 17/05 A3009 RMK T01700050 IEM_DS3505
ZBAA,2004-04-30 12:00,ZBAA 301200Z AUTO 20004KT 19SM 17/02 A3009 RMK SLP192 T01660019 52002 IEM_DS3505
ZBAA,2004-04-30 13:00,ZBAA 301300Z AUTO 21004KT 6SM 16/03 A3012 RMK T01600030 IEM_DS3505
ZBAA,2004-04-30 14:00,ZBAA 301400Z AUTO 16006KT 6SM 14/06 A3015 RMK T01400060 IEM_DS3505
ZBAA,2004-04-30 15:00,ZBAA 301500Z AUTO 18006KT 19SM 14/01 A3015 RMK SLP212 T01380012 52020 IEM_DS3505
ZBAA,2004-04-30 16:00,ZBAA 301600Z AUTO 16008KT 6SM 13/05 A3015 RMK T01300050 IEM_DS3505
ZBAA,2004-04-30 17:00,ZBAA 301700Z AUTO 15006KT 6SM 13/04 A3015 RMK T01300040 IEM_DS3505
ZBAA,2004-04-30 18:00,ZBAA 301800Z AUTO 22006KT 12SM 13/01 A3015 RMK SLP204 T01260013 57008 IEM_DS3505
ZBAA,2004-04-30 19:00,ZBAA 301900Z AUTO 08004KT 6SM 12/06 A3015 RMK T01200060 IEM_DS3505
ZBAA,2004-04-30 20:00,ZBAA 302000Z AUTO 09002KT 6SM 11/06 A3012 RMK T01100060 IEM_DS3505
ZBAA,2004-04-30 21:00,ZBAA 302100Z AUTO 11002KT 12SM 12/01 RMK SLP194 T01220013 57010 IEM_DS3505
ZBAA,2004-04-30 22:00,ZBAA 302200Z AUTO 11002KT 6SM 11/07 A3012 RMK T01100070 IEM_DS3505
ZBAA,2004-04-30 23:00,ZBAA 302300Z AUTO 11002KT 6SM 12/05 A3015 RMK T01200050 IEM_DS3505
ZBAA,2004-05-01 00:00,ZBAA 010000Z AUTO 07004KT 12SM 13/04 A3015 RMK SLP201 T01330040 52007 IEM_DS3505
ZBAA,2004-05-01 01:00,ZBAA 010100Z AUTO 12002KT 6SM 14/01 A3015 RMK T01400010 IEM_DS3505
ZBAA,2004-05-01 02:00,ZBAA 010200Z AUTO 12002KT 6SM 15/02 A3015 RMK T01500020 IEM_DS3505
ZBAA,2004-05-01 03:00,ZBAA 010300Z AUTO 16006KT 16SM 18/M01 A3012 RMK SLP192 T01801012 57009 IEM_DS3505
ZBAA,2004-05-01 04:00,ZBAA 010400Z AUTO 6SM 19/03 A3009 RMK T01900030 IEM_DS3505
ZBAA,2004-05-01 05:00,ZBAA 010500Z AUTO 16006KT 6SM 20/M01 A3006 RMK T02001010 IEM_DS3505
ZBAA,2004-05-01 06:00,ZBAA 010600Z AUTO 18006KT 19SM 19/M04 A3003 RMK SLP164 T01901037 57028 IEM_DS3505
ZBAA,2004-05-01 07:00,ZBAA 010700Z AUTO 18006KT 6SM 18/00 A3000 RMK T01800000 IEM_DS3505
ZBAA,2004-05-01 08:00,ZBAA 010800Z AUTO 16004KT 7SM 18/01 A2997 RMK T01800010 IEM_DS3505
ZBAA,2004-05-01 09:00,ZBAA 010900Z AUTO 29006G14KT 19SM 18/00 A2994 RMK SLP140 T01760003 57024 IEM_DS3505
ZBAA,2004-05-01 10:00,ZBAA 011000Z AUTO 36002KT 6SM 17/04 A2991 RMK T01700040 IEM_DS3505
ZBAA,2004-05-01 11:00,ZBAA 011100Z AUTO 36004KT 6SM 16/06 A2991 RMK T01600060 IEM_DS3505
ZBAA,2004-05-01 12:00,ZBAA 011200Z AUTO 25002KT 9SM 16/02 A2991 RMK SLP133 T01630020 57007 IEM_DS3505
ZBAA,2004-05-01 13:00,ZBAA 011300Z AUTO 00000KT 6SM 14/09 A2994 RMK T01400090 IEM_DS3505
ZBAA,2004-05-01 14:00,ZBAA 011400Z AUTO 09002KT 6SM 14/08 A2997 RMK T01400080 IEM_DS3505
ZBAA,2004-05-01 15:00,ZBAA 011500Z AUTO 16004KT 9SM 16/03 A2994 RMK SLP138 T01590034 52005 IEM_DS3505
ZBAA,2004-05-01 16:00,ZBAA 011600Z AUTO 13004KT 5SM 14/11 A2994 RMK T01400110 IEM_DS3505
ZBAA,2004-05-01 17:00,ZBAA 011700Z AUTO 12006KT 5SM 14/12 A2994 RMK T01400120 IEM_DS3505
ZBAA,2004-05-01 18:00,ZBAA 011800Z AUTO 16002KT 9SM 15/07 A2991 RMK SLP129 T01460072 57009 IEM_DS3505
ZBAA,2004-05-01 19:00,ZBAA 011900Z AUTO 14002KT 4SM 13/12 A2991 RMK T01300120 IEM_DS3505
ZBAA,2004-05-01 20:00,ZBAA 012000Z AUTO 12004KT 3SM 13/12 A2991 RMK T01300120 IEM_DS3505
ZBAA,2004-05-01 21:00,ZBAA 012100Z AUTO 07004KT 2 1/2SM 13/11 A2991 RMK 70000 SLP128 T01340106 57001 IEM_DS3505
ZBAA,2004-05-01 22:00,ZBAA 012200Z AUTO 00000KT 1 1/2SM 13/13 A2991 RMK T01300130 IEM_DS3505
ZBAA,2004-05-01 23:00,ZBAA 012300Z AUTO 01002KT 1 1/4SM 13/13 A2994 RMK T01300130 IEM_DS3505
ZBAA,2004-05-02 00:00,ZBAA 020000Z AUTO 04002KT 4SM 14/11 A2994 RMK 60002 70002 SLP131 T01380106 52003 IEM_DS3505
ZBAA,2004-05-02 01:00,ZBAA 020100Z AUTO 31006KT 2SM 13/12 A2994 RMK T01300120 IEM_DS3505
ZBAA,2004-05-02 02:00,ZBAA 020200Z AUTO 31004KT 2 1/2SM 14/11 A2994 RMK T01400110 IEM_DS3505
ZBAA,2004-05-02 03:00,ZBAA 020300Z AUTO 02004KT 7SM 15/07 A2994 RMK SLP135 T01520068 52004 IEM_DS3505
ZBAA,2004-05-02 04:00,ZBAA 020400Z AUTO 36004KT 2 1/2SM 14/12 A2994 RMK T01400120 IEM_DS3505
ZBAA,2004-05-02 05:00,ZBAA 020500Z AUTO 36004KT 3SM 15/10 A2991 RMK T01500100 IEM_DS3505
ZBAA,2004-05-02 06:00,ZBAA 020600Z AUTO 36006KT 6SM 16/08 A2988 RMK SLP124 T01650077 57011 IEM_DS3505
ZBAA,2004-05-02 07:00,ZBAA 020700Z AUTO 01002KT 2 1/2SM 15/12 A2991 RMK T01500120 IEM_DS3505
ZBAA,2004-05-02 08:00,ZBAA 020800Z AUTO 28004KT 3SM 16/12 A2988 RMK T01600120 IEM_DS3505
ZBAA,2004-05-02 09:00,ZBAA 020900Z AUTO 22006KT 5SM 15/11 A2985 RMK SLP111 T01520110 57013 IEM_DS3505
ZBAA,2004-05-02 10:00,ZBAA 021000Z AUTO 23002KT 3SM 16/12 A2985 RMK T01600120 IEM_DS3505
ZBAA,2004-05-02 11:00,ZBAA 021100Z AUTO 25004KT 3SM 15/12 A2985 RMK T01500120 IEM_DS3505
ZBAA,2004-05-02 12:00,ZBAA 021200Z AUTO 29004G33KT 5SM 14/11 A2988 RMK 60002 SLP127 T01420108 52016 IEM_DS3505
ZBAA,2004-05-02 13:00,ZBAA 021300Z AUTO 32019G29KT 6SM 17/00 A2994 RMK T01700000 IEM_DS3505
ZBAA,2004-05-02 14:00,ZBAA 021400Z AUTO 32021G31KT 6SM 15/M01 A3000 RMK T01501010 IEM_DS3505
ZBAA,2004-05-02 15:00,ZBAA 021500Z AUTO 34006G29KT 7SM 14/M03 A3000 RMK SLP158 T01401032 52031 IEM_DS3505
ZBAA,2004-05-02 16:00,ZBAA 021600Z AUTO 31014KT 6SM 14/M04 A3000 RMK T01401040 IEM_DS3505
ZBAA,2004-05-02 17:00,ZBAA 021700Z AUTO 33021G37KT 6SM 14/M11 A3000 RMK T01401110 IEM_DS3505
ZBAA,2004-05-02 18:00,ZBAA 021800Z AUTO 34012G31KT 9SM 14/M11 A2997 RMK SLP152 T01391107 57006 IEM_DS3505
ZBAA,2004-05-02 19:00,ZBAA 021900Z AUTO 34017G27KT 6SM 14/M10 A2997 RMK T01401100 IEM_DS3505
ZBAA,2004-05-02 20:00,ZBAA 022000Z AUTO 33017G29KT 6SM 13/M10 A2997 RMK T01301100 IEM_DS3505
ZBAA,2004-05-02 21:00,ZBAA 022100Z AUTO 34008G29KT 12SM 13/M10 A2997 RMK 70004 SLP153 T01331104 52001 IEM_DS3505
ZBAA,2004-05-02 22:00,ZBAA 022200Z AUTO 33014G23KT 6SM 13/M08 A3000 RMK T01301080 IEM_DS3505
ZBAA,2004-05-02 23:00,ZBAA 022300Z AUTO 30012KT 6SM 13/M05 A3000 RMK T01301050 IEM_DS3505
ZBAA,2004-05-03 00:00,ZBAA 030000Z AUTO 34012G33KT 19SM 14/M08 A3000 RMK 70002 SLP156 T01381081 52003 IEM_DS3505
ZBAA,2004-05-03 01:00,ZBAA 030100Z AUTO 31019KT 6SM 14/M04 A3000 RMK T01401040 IEM_DS3505
ZBAA,2004-05-03 03:00,ZBAA 030300Z AUTO 34016KT 19SM 17/M05 A2997 RMK SLP151 T01661051 57005 IEM_DS3505
ZBAA,2004-05-03 04:00,ZBAA 030400Z AUTO 31014KT 6SM 18/M01 A2994 RMK T01801010 IEM_DS3505
ZBAA,2004-05-03 05:00,ZBAA 030500Z AUTO 32010KT 6SM 20/M01 A2991 RMK T02001010 IEM_DS3505
ZBAA,2004-05-03 06:00,ZBAA 030600Z AUTO 34014KT 19SM 20/M05 A2988 RMK SLP126 T02041054 57025 IEM_DS3505
ZBAA,2004-05-03 07:00,ZBAA 030700Z AUTO 30016KT 6SM 22/M01 A2985 RMK T02201010 IEM_DS3505
ZBAA,2004-05-03 08:00,ZBAA 030800Z AUTO 31023G33KT 6SM 22/M05 A2985 RMK T02201050 IEM_DS3505
ZBAA,2004-05-03 09:00,ZBAA 030900Z AUTO 29012KT 19SM 22/M06 A2985 RMK SLP108 T02191058 57018 IEM_DS3505
ZBAA,2004-05-03 10:00,ZBAA 031000Z AUTO 34016KT 6SM 21/M05 A2985 RMK T02101050 IEM_DS3505
ZBAA,2004-05-03 11:00,ZBAA 031100Z AUTO 34014KT 6SM 19/M07 A2985 RMK T01901070 IEM_DS3505
ZBAA,2004-05-03 12:00,ZBAA 031200Z AUTO 29004KT 19SM 19/M09 A2988 RMK SLP121 T01921088 52013 IEM_DS3505
ZBAA,2004-05-03 13:00,ZBAA 031300Z AUTO 6SM 16/M04 A2991 RMK T01601040 IEM_DS3505
ZBAA,2004-05-03 14:00,ZBAA 031400Z AUTO 33004KT 6SM 16/M07 A2991 RMK T01601070 IEM_DS3505
ZBAA,2004-05-03 15:00,ZBAA 031500Z AUTO 00000KT 16SM 14/M04 A2991 RMK SLP128 T01371044 52007 IEM_DS3505
ZBAA,2004-05-03 16:00,ZBAA 031600Z AUTO 21004KT 6SM 14/M04 A2991 RMK T01401040 IEM_DS3505
ZBAA,2004-05-03 17:00,ZBAA 031700Z AUTO 20002KT 6SM 11/M02 A2991 RMK T01101020 IEM_DS3505
ZBAA,2004-05-03 18:00,ZBAA 031800Z AUTO 25004KT 16SM 12/M03 A2988 RMK SLP118 T01201026 57010 IEM_DS3505
ZBAA,2004-05-03 19:00,ZBAA 031900Z AUTO 02002KT 6SM 08/02 A2985 RMK T00800020 IEM_DS3505
ZBAA,2004-05-03 20:00,ZBAA 032000Z AUTO 03002KT 6SM 07/02 A2985 RMK T00700020 IEM_DS3505
ZBAA,2004-05-03 21:00,ZBAA 032100Z AUTO 25004KT 12SM 11/M02 RMK SLP103 T01061021 57015 IEM_DS3505
ZBAA,2004-05-03 22:00,ZBAA 032200Z AUTO 35004KT 6SM 07/01 A2985 RMK T00700010 IEM_DS3505
ZBAA,2004-05-03 23:00,ZBAA 032300Z AUTO 35004KT 6SM 10/03 A2983 RMK T01000030 IEM_DS3505
ZBAA,2004-05-04 00:00,ZBAA 040000Z AUTO 09002KT 9SM 16/01 A2983 RMK SLP097 T01580008 57006 IEM_DS3505
ZBAA,2004-05-04 01:00,ZBAA 040100Z AUTO 10002KT 6SM 17/03 A2983 RMK T01700030 IEM_DS3505
ZBAA,2004-05-04 01:30,ZBAA 040130Z AUTO 02002KT 6SM 19/03 A2980 RMK T01900030 IEM_DS3505
ZBAA,2004-05-04 02:00,ZBAA 040200Z AUTO 30004KT 6SM 21/02 A2980 RMK T02100020 IEM_DS3505
ZBAA,2004-05-04 03:00,ZBAA 040300Z AUTO 20006KT 12SM 22/M02 A2977 RMK SLP080 T02241016 57016 IEM_DS3505
ZBAA,2004-05-04 04:00,ZBAA 040400Z AUTO 25006KT 6SM 25/00 A2974 RMK T02500000 IEM_DS3505
ZBAA,2004-05-04 05:00,ZBAA 040500Z AUTO 25006KT 6SM 26/M03 A2968 RMK T02601030 IEM_DS3505
ZBAA,2004-05-04 06:00,ZBAA 040600Z AUTO 20014KT 16SM 26/M02 A2965 RMK SLP041 T02651022 57039 IEM_DS3505
ZBAA,2004-05-04 07:00,ZBAA 040700Z AUTO 20012KT 6SM 27/M01 A2962 RMK T02701010 IEM_DS3505
ZBAA,2004-05-04 08:00,ZBAA 040800Z AUTO 21008KT 6SM 26/00 A2959 RMK T02600000 IEM_DS3505
ZBAA,2004-05-04 09:00,ZBAA 040900Z AUTO 22010KT 19SM 27/M04 A2959 RMK SLP019 T02671039 57022 IEM_DS3505
ZBAA,2004-05-04 10:00,ZBAA 041000Z AUTO 21008KT 6SM 25/00 A2959 RMK T02500000 IEM_DS3505
ZBAA,2004-05-04 11:00,ZBAA 041100Z AUTO 21010KT 6SM 25/00 A2959 RMK T02500000 IEM_DS3505
ZBAA,2004-05-04 12:00,ZBAA 041200Z AUTO 22006KT 12SM 22/01 A2959 RMK SLP019 T02200006 54000 IEM_DS3505
ZBAA,2004-05-04 13:00,ZBAA 041300Z AUTO 24004KT 6SM 21/02 A2959 RMK T02100020 IEM_DS3505
ZBAA,2004-05-04 14:00,ZBAA 041400Z AUTO 24006KT 6SM 21/04 A2959 RMK T02100040 IEM_DS3505
ZBAA,2004-05-04 15:00,ZBAA 041500Z AUTO 27004KT 7SM 19/03 A2962 RMK SLP028 T01910033 52009 IEM_DS3505
ZBAA,2004-05-04 16:00,ZBAA 041600Z AUTO 6SM 18/03 A2959 RMK T01800030 IEM_DS3505
ZBAA,2004-05-04 17:00,ZBAA 041700Z AUTO 24004KT 6SM 16/03 A2959 RMK T01600030 IEM_DS3505
ZBAA,2004-05-04 18:00,ZBAA 041800Z AUTO 28006KT 6SM 18/01 A2956 RMK T01800010 IEM_DS3505
ZBAA,2004-05-04 20:00,ZBAA 042000Z AUTO 26004KT 6SM 17/00 A2959 RMK T01700000 IEM_DS3505
ZBAA,2004-05-04 21:00,ZBAA 042100Z AUTO 25004KT 7SM 14/06 A2959 RMK SLP015 T01350059 52002 IEM_DS3505
ZBAA,2004-05-04 22:00,ZBAA 042200Z AUTO 28006KT 6SM 17/02 A2959 RMK T01700020 IEM_DS3505
ZBAA,2004-05-04 23:00,ZBAA 042300Z AUTO 29008KT 6SM 20/02 A2962 RMK T02000020 IEM_DS3505
ZBAA,2004-05-05 00:00,ZBAA 050000Z AUTO 32004KT 6SM 23/M01 A2965 RMK SLP033 T02341008 52018 IEM_DS3505
ZBAA,2004-05-05 01:00,ZBAA 050100Z AUTO 31012KT 6SM 24/01 A2965 RMK T02400010 IEM_DS3505
ZBAA,2004-05-05 02:00,ZBAA 050200Z AUTO 31010G19KT 6SM 25/01 A2965 RMK T02500010 IEM_DS3505
ZBAA,2004-05-05 03:00,ZBAA 050300Z AUTO 32010KT 12SM 27/M04 A2965 RMK SLP037 T02671039 52004 IEM_DS3505
ZBAA,2004-05-05 04:00,ZBAA 050400Z AUTO 27012G21KT 6SM 27/02 A2962 RMK T02700020 IEM_DS3505
ZBAA,2004-05-05 05:00,ZBAA 050500Z AUTO 29016G25KT 6SM 28/01 A2962 RMK T02800010 IEM_DS3505
ZBAA,2004-05-05 06:00,ZBAA 050600Z AUTO 32014G25KT 12SM 28/M06 A2962 RMK SLP031 T02801064 57006 IEM_DS3505
ZBAA,2004-05-05 07:00,ZBAA 050700Z AUTO 30014G23KT 6SM 29/M01 A2962 RMK T02901010 IEM_DS3505
ZBAA,2004-05-05 08:00,ZBAA 050800Z AUTO 30014G31KT 6SM 27/M03 A2962 RMK T02701030 IEM_DS3505
ZBAA,2004-05-05 09:00,ZBAA 050900Z AUTO 32010G27KT 16SM 28/M05 A2962 RMK SLP031 T02791052 54000 IEM_DS3505
ZBAA,2004-05-05 10:00,ZBAA 051000Z AUTO 31014KT 6SM 27/M02 A2965 RMK T02701020 IEM_DS3505
ZBAA,2004-05-05 11:00,ZBAA 051100Z AUTO 31012KT 6SM 25/M02 A2968 RMK T02501020 IEM_DS3505
ZBAA,2004-05-05 12:00,ZBAA 051200Z AUTO 36004KT 19SM 25/M04 A2971 RMK SLP055 T02471045 52024 IEM_DS3505
ZBAA,2004-05-05 13:00,ZBAA 051300Z AUTO 36008KT 6SM 20/M01 A2974 RMK T02001010 IEM_DS3505
ZBAA,2004-05-05 14:00,ZBAA 051400Z AUTO 36006KT 6SM 21/M01 A2977 RMK T02101010 IEM_DS3505
ZBAA,2004-05-05 15:00,ZBAA 051500Z AUTO 6SM 17/01 A2980 RMK T01700010 IEM_DS3505
ZBAA,2004-05-05 16:00,ZBAA 051600Z AUTO 01004KT 6SM 17/00 A2980 RMK T01700000 IEM_DS3505
ZBAA,2004-05-05 17:00,ZBAA 051700Z AUTO 32004KT 6SM 14/M01 A2983 RMK T01401010 IEM_DS3505
ZBAA,2004-05-05 18:00,ZBAA 051800Z AUTO 18002KT 12SM 17/M01 A2983 RMK SLP095 T01721014 52012 IEM_DS3505
ZBAA,2004-05-05 19:00,ZBAA 051900Z AUTO 17004KT 6SM 13/03 A2983 RMK T01300030 IEM_DS3505
ZBAA,2004-05-05 20:00,ZBAA 052000Z AUTO 08002KT 6SM 11/03 A2985 RMK T01100030 IEM_DS3505
ZBAA,2004-05-05 21:00,ZBAA 052100Z AUTO 25004KT 16SM 15/M01 A2985 RMK SLP106 T01541007 52011 IEM_DS3505
ZBAA,2004-05-05 22:00,ZBAA 052200Z AUTO 6SM 11/05 A2988 RMK T01100050 IEM_DS3505
ZBAA,2004-05-05 23:00,ZBAA 052300Z AUTO 11008KT 6SM 14/05 A2994 RMK T01400050 IEM_DS3505
ZBAA,2004-05-06 00:00,ZBAA 060000Z AUTO 11004KT 16SM 18/00 A2997 RMK SLP142 T01810003 52036 IEM_DS3505
ZBAA,2004-05-06 01:00,ZBAA 060100Z AUTO 13006KT 18/05 A2997 RMK T01800050 IEM_DS3505
ZBAA,2004-05-06 02:00,ZBAA 060200Z AUTO 11006KT 20/06 A2997 RMK T02000060 IEM_DS3505
ZBAA,2004-05-06 03:00,ZBAA 060300Z AUTO 14004KT 9SM 22/03 A2997 RMK SLP145 T02210033 52003 IEM_DS3505
ZBAA,2004-05-06 04:00,ZBAA 060400Z AUTO 14008KT 5SM 24/06 A2994 RMK T02400060 IEM_DS3505
ZBAA,2004-05-06 05:00,ZBAA 060500Z AUTO 14008KT 6SM 26/06 A2991 RMK T02600060 IEM_DS3505
ZBAA,2004-05-06 06:00,ZBAA 060600Z AUTO 16006KT 12SM 27/02 A2991 RMK SLP121 T02710016 57024 IEM_DS3505
ZBAA,2004-05-06 07:00,ZBAA 060700Z AUTO 16008KT 6SM 27/05 A2988 RMK T02700050 IEM_DS3505
ZBAA,2004-05-06 08:00,ZBAA 060800Z AUTO 15010KT 6SM 27/06 A2985 RMK T02700060 IEM_DS3505
ZBAA,2004-05-06 09:00,ZBAA 060900Z AUTO 14010KT 12SM 26/04 A2985 RMK SLP107 T02580038 57014 IEM_DS3505
ZBAA,2004-05-06 10:00,ZBAA 061000Z AUTO 13014KT 6SM 25/08 A2985 RMK T02500080 IEM_DS3505
ZBAA,2004-05-06 11:00,ZBAA 061100Z AUTO 14016KT 20/08 A2991 RMK T02000080 IEM_DS3505
ZBAA,2004-05-06 12:00,ZBAA 061200Z AUTO 11010KT 11SM 18/04 A2994 RMK SLP139 T01750038 52031 IEM_DS3505
ZBAA,2004-05-06 13:00,ZBAA 061300Z AUTO 13010KT 5SM 17/04 A2997 RMK T01700040 IEM_DS3505
ZBAA,2004-05-06 14:00,ZBAA 061400Z AUTO 12008KT 6SM 16/01 A3000 RMK T01600010 IEM_DS3505
ZBAA,2004-05-06 15:00,ZBAA 061500Z AUTO 09004KT 11SM 15/01 A3000 RMK SLP154 T01510013 52015 IEM_DS3505
ZBAA,2004-05-06 16:00,ZBAA 061600Z AUTO 14006KT 6SM 14/00 A3000 RMK T01400000 IEM_DS3505
ZBAA,2004-05-06 17:00,ZBAA 061700Z AUTO 15006KT 6SM 14/M01 A3000 RMK T01401010 IEM_DS3505
ZBAA,2004-05-06 18:00,ZBAA 061800Z AUTO 09006KT 12SM 14/M04 A2997 RMK SLP144 T01371040 57009 IEM_DS3505
ZBAA,2004-05-06 19:00,ZBAA 061900Z AUTO 19002KT 6SM 13/M02 A2997 RMK T01301020 IEM_DS3505
ZBAA,2004-05-06 20:00,ZBAA 062000Z AUTO 34002KT 6SM 12/02 A2994 RMK T01200020 IEM_DS3505
ZBAA,2004-05-06 21:00,ZBAA 062100Z AUTO 02002KT 9SM 13/M04 A2994 RMK SLP130 T01311045 57014 IEM_DS3505
ZBAA,2004-05-06 22:00,ZBAA 062200Z AUTO 30004KT 4SM 13/00 A2991 RMK T01300000 IEM_DS3505
ZBAA,2004-05-06 23:00,ZBAA 062300Z AUTO 30004KT 15/00 A2991 RMK T01500000 IEM_DS3505
ZBAA,2004-05-07 00:00,ZBAA 070000Z AUTO 04004KT 12SM 17/M04 A2991 RMK SLP127 T01661040 57004 IEM_DS3505
ZBAA,2004-05-07 01:00,ZBAA 070100Z AUTO 29002KT 6SM 17/00 A2988 RMK T01700000 IEM_DS3505
ZBAA,2004-05-07 02:00,ZBAA 070200Z AUTO 6SM 18/01 A2988 RMK T01800010 IEM_DS3505
ZBAA,2004-05-07 03:00,ZBAA 070300Z AUTO 07002KT 9SM 19/M01 A2988 RMK SLP111 T01901009 57016 IEM_DS3505
ZBAA,2004-05-07 04:00,ZBAA 070400Z AUTO 19/02 A2985 RMK T01900020 IEM_DS3505
ZBAA,2004-05-07 05:00,ZBAA 070500Z AUTO 20004KT 20/03 A2983 RMK T02000030 IEM_DS3505
ZBAA,2004-05-07 06:00,ZBAA 070600Z AUTO 11004KT 9SM 22/04 A2980 RMK SLP089 T02150042 57021 IEM_DS3505
ZBAA,2004-05-07 07:00,ZBAA 070700Z AUTO 5SM 22/08 A2977 RMK T02200080 IEM_DS3505
ZBAA,2004-05-07 08:00,ZBAA 070800Z AUTO 18004KT 5SM 22/08 A2977 RMK T02200080 IEM_DS3505
ZBAA,2004-05-07 09:00,ZBAA 070900Z AUTO 22004KT 9SM 23/06 A2974 RMK SLP069 T02330062 57020 IEM_DS3505
ZBAA,2004-05-07 10:00,ZBAA 071000Z AUTO 17002KT 22/10 A2974 RMK T02200100 IEM_DS3505
ZBAA,2004-05-07 11:00,ZBAA 071100Z AUTO 09002KT 21/11 A2974 RMK T02100110 IEM_DS3505
ZBAA,2004-05-07 12:00,ZBAA 071200Z AUTO 04002KT 7SM 21/09 A2974 RMK SLP069 T02080088 54000 IEM_DS3505
ZBAA,2004-05-07 13:00,ZBAA 071300Z AUTO 02002KT 3SM 19/11 A2977 RMK T01900110 IEM_DS3505
ZBAA,2004-05-07 14:00,ZBAA 071400Z AUTO 00000KT 3SM 17/11 A2977 RMK T01700110 IEM_DS3505
ZBAA,2004-05-07 15:00,ZBAA 071500Z AUTO 00000KT 7SM 18/10 A2974 RMK SLP069 T01780100 54000 IEM_DS3505
ZBAA,2004-05-07 16:00,ZBAA 071600Z AUTO 29002KT 3SM 16/09 A2974 RMK T01600090 IEM_DS3505
ZBAA,2004-05-07 17:00,ZBAA 071700Z AUTO 31006KT 3SM 15/09 A2971 RMK T01500090 IEM_DS3505
ZBAA,2004-05-07 18:00,ZBAA 071800Z AUTO 09002KT 6SM 16/10 A2971 RMK SLP052 T01570096 57017 IEM_DS3505
ZBAA,2004-05-07 19:00,ZBAA 071900Z AUTO 29002KT 3SM 13/10 A2968 RMK T01300100 IEM_DS3505
ZBAA,2004-05-07 20:00,ZBAA 072000Z AUTO 00000KT 2 1/2SM 13/09 A2968 RMK T01300090 IEM_DS3505
ZBAA,2004-05-07 21:00,ZBAA 072100Z AUTO 07004KT 4SM 14/09 A2968 RMK SLP044 T01410093 57008 IEM_DS3505
ZBAA,2004-05-07 22:00,ZBAA 072200Z AUTO 29002KT 2 1/2SM 13/10 A2968 RMK T01300100 IEM_DS3505
ZBAA,2004-05-07 23:00,ZBAA 072300Z AUTO 36004KT 2 1/2SM 15/11 A2968 RMK T01500110 IEM_DS3505
ZBAA,2004-05-08 00:00,ZBAA 080000Z AUTO 07004KT 6SM 18/11 A2968 RMK SLP044 T01820108 54000 IEM_DS3505
ZBAA,2004-05-08 01:00,ZBAA 080100Z AUTO 09004KT 2 1/2SM 20/13 A2968 RMK T02000130 IEM_DS3505
ZBAA,2004-05-08 02:00,ZBAA 080200Z AUTO 12008KT 3SM 22/13 A2968 RMK T02200130 IEM_DS3505
ZBAA,2004-05-08 03:00,ZBAA 080300Z AUTO 14006KT 7SM 24/11 A2965 RMK SLP036 T02420112 57008 IEM_DS3505
ZBAA,2004-05-08 04:00,ZBAA 080400Z AUTO 13012KT 5SM 25/13 A2962 RMK T02500130 IEM_DS3505
ZBAA,2004-05-08 05:00,ZBAA 080500Z AUTO 13012KT 5SM 27/14 A2962 RMK T02700140 IEM_DS3505
ZBAA,2004-05-08 06:00,ZBAA 080600Z AUTO 16006KT 7SM 28/11 A2959 RMK SLP013 T02770109 57023 IEM_DS3505
ZBAA,2004-05-08 07:00,ZBAA 080700Z AUTO 13014KT 5SM 28/14 A2956 RMK T02800140 IEM_DS3505
ZBAA,2004-05-08 08:00,ZBAA 080800Z AUTO 13016KT 5SM 27/14 A2953 RMK T02700140 IEM_DS3505
ZBAA,2004-05-08 09:00,ZBAA 080900Z AUTO 11014KT 7SM 27/11 A2956 RMK SLP000 T02670112 57013 IEM_DS3505
ZBAA,2004-05-08 10:00,ZBAA 081000Z AUTO 13014KT 5SM 25/13 A2956 RMK T02500130 IEM_DS3505
ZBAA,2004-05-08 10:30,ZBAA 081030Z AUTO 12016KT 23/14 A2959 RMK T02300140 IEM_DS3505
ZBAA,2004-05-08 11:00,ZBAA 081100Z AUTO 12012KT 23/15 A2959 RMK T02300150 IEM_DS3505
ZBAA,2004-05-08 12:00,ZBAA 081200Z AUTO 11014G29KT 12SM 22/12 A2962 RMK SLP021 T02160125 52021 IEM_DS3505
ZBAA,2004-05-08 13:00,ZBAA 081300Z AUTO 11016KT 6SM 18/12 A2968 RMK T01800120 IEM_DS3505
ZBAA,2004-05-08 14:00,ZBAA 081400Z AUTO 11016KT 6SM 17/11 A2971 RMK T01700110 IEM_DS3505
ZBAA,2004-05-08 15:00,ZBAA 081500Z AUTO 09010KT 12SM 16/11 A2971 RMK SLP056 T01630108 52035 IEM_DS3505
ZBAA,2004-05-08 16:00,ZBAA 081600Z AUTO 12010KT 6SM 16/12 A2974 RMK T01600120 IEM_DS3505
ZBAA,2004-05-08 17:00,ZBAA 081700Z AUTO 13008KT 6SM 16/12 A2974 RMK T01600120 IEM_DS3505
ZBAA,2004-05-08 18:00,ZBAA 081800Z AUTO 09008KT 6SM 15/10 A2971 RMK SLP058 T01460102 52002 IEM_DS3505
ZBAA,2004-05-08 19:00,ZBAA 081900Z AUTO 12010KT 6SM 15/12 A2971 RMK T01500120 IEM_DS3505
ZBAA,2004-05-08 20:00,ZBAA 082000Z AUTO 12010KT 6SM 15/12 A2974 RMK T01500120 IEM_DS3505
ZBAA,2004-05-08 21:00,ZBAA 082100Z AUTO 09006KT 7SM 14/11 A2974 RMK SLP064 T01420106 52006 IEM_DS3505
ZBAA,2004-05-08 22:00,ZBAA 082200Z AUTO 11006KT 4SM 15/12 A2974 RMK T01500120 IEM_DS3505
ZBAA,2004-05-08 23:00,ZBAA 082300Z AUTO 4SM 15/12 A2977 RMK T01500120 IEM_DS3505
ZBAA,2004-05-09 00:00,ZBAA 090000Z AUTO 11006KT 4SM 14/12 A2977 RMK 70000 SLP079 T01380115 52015 IEM_DS3505
ZBAA,2004-05-09 01:00,ZBAA 090100Z AUTO 16006KT 2SM 14/13 A2977 RMK T01400130 IEM_DS3505
ZBAA,2004-05-09 01:30,ZBAA 090130Z AUTO 14006KT 2SM 14/13 A2977 RMK T01400130 IEM_DS3505
ZBAA,2004-05-09 02:00,ZBAA 090200Z AUTO 12006KT 2SM 15/13 A2977 RMK T01500130 IEM_DS3505
ZBAA,2004-05-09 03:00,ZBAA 090300Z AUTO 09004KT 7SM 16/11 A2974 RMK SLP068 T01570113 57012 IEM_DS3505
ZBAA,2004-05-09 04:00,ZBAA 090400Z AUTO 10004KT 4SM 16/13 A2974 RMK T01600130 IEM_DS3505
ZBAA,2004-05-09 05:00,ZBAA 090500Z AUTO 11002KT 4SM 17/13 A2971 RMK T01700130 IEM_DS3505
ZBAA,2004-05-09 06:00,ZBAA 090600Z AUTO 07002KT 9SM 17/12 A2971 RMK SLP055 T01730116 57013 IEM_DS3505
ZBAA,2004-05-09 07:00,ZBAA 090700Z AUTO 4SM 18/14 A2968 RMK T01800140 IEM_DS3505
ZBAA,2004-05-09 08:00,ZBAA 090800Z AUTO 29002KT 4SM 18/14 A2965 RMK T01800140 IEM_DS3505
ZBAA,2004-05-09 09:00,ZBAA 090900Z AUTO 02002KT 7SM 19/12 A2965 RMK SLP030 T01860119 57024 IEM_DS3505
ZBAA,2004-05-09 10:00,ZBAA 091000Z AUTO 36004KT 3SM 17/14 A2962 RMK T01700140 IEM_DS3505
ZBAA,2004-05-09 11:00,ZBAA 091100Z AUTO 35004KT 2 1/2SM 17/14 A2962 RMK T01700140 IEM_DS3505
ZBAA,2004-05-09 12:00,ZBAA 091200Z AUTO 36002KT 5SM 18/12 A2965 RMK SLP034 T01780118 52004 IEM_DS3505
ZBAA,2004-05-09 13:00,ZBAA 091300Z AUTO 36004KT 2 1/2SM 17/14 A2968 RMK T01700140 IEM_DS3505
ZBAA,2004-05-09 14:00,ZBAA 091400Z AUTO 00000KT 2 1/2SM 17/14 A2968 RMK T01700140 IEM_DS3505
ZBAA,2004-05-09 15:00,ZBAA 091500Z AUTO 02002KT 4SM 17/12 A2968 RMK SLP044 T01730120 52010 IEM_DS3505
ZBAA,2004-05-09 16:00,ZBAA 091600Z AUTO 30006KT 2SM 16/14 A2968 RMK T01600140 IEM_DS3505
ZBAA,2004-05-09 17:00,ZBAA 091700Z AUTO 30002KT 1 1/2SM 16/14 A2968 RMK T01600140 IEM_DS3505
ZBAA,2004-05-09 18:00,ZBAA 091800Z AUTO 34002KT 4SM 16/12 A2968 RMK SLP044 T01570117 54000 IEM_DS3505
ZBAA,2004-05-09 19:00,ZBAA 091900Z AUTO 31004KT 1 1/2SM 15/14 A2968 RMK T01500140 IEM_DS3505
ZBAA,2004-05-09 20:00,ZBAA 092000Z AUTO 35004KT 1 1/4SM 14/14 A2968 RMK T01400140 IEM_DS3505
ZBAA,2004-05-09 20:30,ZBAA 092030Z AUTO 28002KT 1 1/4SM 14/13 A2968 RMK T01400130 IEM_DS3505
ZBAA,2004-05-09 21:00,ZBAA 092100Z AUTO 09002KT 2 1/2SM 14/11 A2968 RMK 70000 SLP047 T01420112 52003 IEM_DS3505
ZBAA,2004-05-09 22:00,ZBAA 092200Z AUTO 34004KT 1 1/4SM 14/14 A2971 RMK T01400140 IEM_DS3505
ZBAA,2004-05-09 23:00,ZBAA 092300Z AUTO 34006KT 2 1/2SM 17/14 A2971 RMK T01700140 IEM_DS3505
ZBAA,2004-05-10 00:00,ZBAA 100000Z AUTO 04004KT 7SM 20/13 A2974 RMK 70000 SLP068 T01970127 52021 IEM_DS3505
ZBAA,2004-05-10 01:00,ZBAA 100100Z AUTO 01004KT 2 1/2SM 22/15 A2977 RMK T02200150 IEM_DS3505
ZBAA,2004-05-10 02:00,ZBAA 100200Z AUTO 01006KT 23/14 A2977 RMK T02300140 IEM_DS3505
ZBAA,2004-05-10 03:00,ZBAA 100300Z AUTO 04008KT 12SM 24/09 A2980 RMK SLP084 T02400088 52016 IEM_DS3505
ZBAA,2004-05-10 04:00,ZBAA 100400Z AUTO 6SM 24/10 A2980 RMK T02400100 IEM_DS3505
ZBAA,2004-05-10 05:00,ZBAA 100500Z AUTO 09006KT 6SM 24/09 A2980 RMK T02400090 IEM_DS3505
ZBAA,2004-05-10 06:00,ZBAA 100600Z AUTO 09010KT 12SM 24/06 A2980 RMK SLP082 T02430057 57002 IEM_DS3505
ZBAA,2004-05-10 07:00,ZBAA 100700Z AUTO 14006KT 6SM 26/08 A2977 RMK T02600080 IEM_DS3505
ZBAA,2004-05-10 08:00,ZBAA 100800Z AUTO 19006KT 6SM 25/09 A2977 RMK T02500090 IEM_DS3505
ZBAA,2004-05-10 09:00,ZBAA 100900Z AUTO 22004KT 12SM 24/06 A2980 RMK SLP082 T02380062 54000 IEM_DS3505
ZBAA,2004-05-10 10:00,ZBAA 101000Z AUTO 27004KT 6SM 24/09 A2980 RMK T02400090 IEM_DS3505
ZBAA,2004-05-10 11:00,ZBAA 101100Z AUTO 30004KT 6SM 23/10 A2980 RMK T02300100 IEM_DS3505
ZBAA,2004-05-10 12:00,ZBAA 101200Z AUTO 04002KT 9SM 21/08 A2983 RMK SLP095 T02070080 52013 IEM_DS3505
ZBAA,2004-05-10 13:00,ZBAA 101300Z AUTO 14002KT 5SM 19/11 A2985 RMK T01900110 IEM_DS3505
ZBAA,2004-05-10 14:00,ZBAA 101400Z AUTO 13006KT 18/12 A2988 RMK T01800120 IEM_DS3505
ZBAA,2004-05-10 15:00,ZBAA 101500Z AUTO 18004KT 7SM 19/11 A2988 RMK SLP118 T01920108 52023 IEM_DS3505
ZBAA,2004-05-10 16:00,ZBAA 101600Z AUTO 09004KT 4SM 17/14 A2991 RMK T01700140 IEM_DS3505
ZBAA,2004-05-10 17:00,ZBAA 101700Z AUTO 00000KT 4SM 16/13 A2988 RMK T01600130 IEM_DS3505
ZBAA,2004-05-10 18:00,ZBAA 101800Z AUTO 07004KT 7SM 18/11 A2988 RMK SLP115 T01770111 57003 IEM_DS3505
ZBAA,2004-05-10 19:00,ZBAA 101900Z AUTO 00000KT 5SM 16/11 A2988 RMK T01600110 IEM_DS3505
ZBAA,2004-05-10 20:00,ZBAA 102000Z AUTO 00000KT 5SM 16/11 A2988 RMK T01600110 IEM_DS3505
ZBAA,2004-05-10 21:00,ZBAA 102100Z AUTO 09002KT 7SM 17/11 A2991 RMK 70000 SLP121 T01690107 52006 IEM_DS3505
ZBAA,2004-05-10 22:00,ZBAA 102200Z AUTO 00000KT 4SM 16/12 A2991 RMK T01600120 IEM_DS3505
ZBAA,2004-05-10 23:00,ZBAA 102300Z AUTO 02002KT 4SM 17/13 A2994 RMK T01700130 IEM_DS3505
ZBAA,2004-05-11 00:00,ZBAA 110000Z AUTO 16004KT 9SM 20/07 A2994 RMK 70000 SLP140 T01990070 52019 IEM_DS3505
ZBAA,2004-05-11 01:00,ZBAA 110100Z AUTO 12006KT 5SM 20/11 A2994 RMK T02000110 IEM_DS3505
ZBAA,2004-05-11 02:00,ZBAA 110200Z AUTO 15006KT 6SM 22/11 A2997 RMK T02200110 IEM_DS3505
ZBAA,2004-05-11 03:00,ZBAA 110300Z AUTO 20006KT 9SM 23/04 A2994 RMK SLP140 T02260037 54000 IEM_DS3505
ZBAA,2004-05-11 04:00,ZBAA 110400Z AUTO 18008KT 6SM 23/08 A2991 RMK T02300080 IEM_DS3505
ZBAA,2004-05-11 05:00,ZBAA 110500Z AUTO 17008KT 6SM 24/08 A2991 RMK T02400080 IEM_DS3505
ZBAA,2004-05-11 06:00,ZBAA 110600Z AUTO 14008KT 12SM 23/05 A2988 RMK SLP116 T02290049 57024 IEM_DS3505
ZBAA,2004-05-11 07:00,ZBAA 110700Z AUTO 14012KT 6SM 22/10 A2985 RMK T02200100 IEM_DS3505
ZBAA,2004-05-11 08:00,ZBAA 110800Z AUTO 14012KT 6SM 21/10 A2985 RMK T02100100 IEM_DS3505
ZBAA,2004-05-11 09:00,ZBAA 110900Z AUTO 18008KT 12SM 21/07 A2985 RMK SLP103 T02090068 57013 IEM_DS3505
ZBAA,2004-05-11 10:00,ZBAA 111000Z AUTO 16010KT 6SM 20/10 A2985 RMK T02000100 IEM_DS3505
ZBAA,2004-05-11 11:00,ZBAA 111100Z AUTO 15010KT 6SM 19/11 A2983 RMK T01900110 IEM_DS3505
ZBAA,2004-05-11 12:00,ZBAA 111200Z AUTO 20006KT 9SM 18/11 A2983 RMK SLP101 T01820108 57002 IEM_DS3505
ZBAA,2004-05-11 13:00,ZBAA 111300Z AUTO 14006KT 6SM 17/13 A2985 RMK T01700130 IEM_DS3505
ZBAA,2004-05-11 14:00,ZBAA 111400Z AUTO 14004KT 5SM 16/13 A2985 RMK T01600130 IEM_DS3505
ZBAA,2004-05-11 15:00,ZBAA 111500Z AUTO 20004KT 7SM 16/12 A2985 RMK SLP104 T01590121 52003 IEM_DS3505
ZBAA,2004-05-11 16:00,ZBAA 111600Z AUTO 15006KT 4SM 16/13 A2983 RMK T01600130 IEM_DS3505
ZBAA,2004-05-11 17:00,ZBAA 111700Z AUTO 13006KT 3SM 14/13 A2980 RMK T01400130 IEM_DS3505
ZBAA,2004-05-11 18:00,ZBAA 111800Z AUTO 16006KT 5SM 15/12 A2977 RMK SLP079 T01480116 57025 IEM_DS3505
ZBAA,2004-05-11 19:00,ZBAA 111900Z AUTO 12006KT 2SM 14/14 A2977 RMK T01400140 IEM_DS3505
ZBAA,2004-05-11 20:00,ZBAA 112000Z AUTO 13004KT 2SM 15/14 A2974 RMK T01500140 IEM_DS3505
ZBAA,2004-05-11 21:00,ZBAA 112100Z AUTO 07002KT 6SM 14/10 A2974 RMK 70000 SLP068 T01400104 57011 IEM_DS3505
ZBAA,2004-05-11 22:00,ZBAA 112200Z AUTO 14006KT 1 1/2SM 15/13 A2971 RMK T01500130 IEM_DS3505
ZBAA,2004-05-11 23:00,ZBAA 112300Z AUTO 14004KT 2 1/2SM 15/13 A2971 RMK T01500130 IEM_DS3505
ZBAA,2004-05-12 00:00,ZBAA 120000Z AUTO 25004KT 6SM 15/11 A2974 RMK SLP065 T01500108 57004 IEM_DS3505
ZBAA,2004-05-12 01:00,ZBAA 120100Z AUTO 16004KT 3SM 16/13 A2971 RMK T01600130 IEM_DS3505
ZBAA,2004-05-12 02:00,ZBAA 120200Z AUTO 17008KT 3SM 18/14 A2971 RMK T01800140 IEM_DS3505
ZBAA,2004-05-12 03:00,ZBAA 120300Z AUTO 18006KT 6SM 18/12 A2968 RMK SLP054 T01800116 57010 IEM_DS3505
ZBAA,2004-05-12 04:00,ZBAA 120400Z AUTO 17006KT 3SM 20/14 A2968 RMK T02000140 IEM_DS3505
ZBAA,2004-05-12 05:00,ZBAA 120500Z AUTO 18010KT 3SM 23/15 A2962 RMK T02300150 IEM_DS3505
ZBAA,2004-05-12 06:00,ZBAA 120600Z AUTO 20008KT 6SM 24/11 A2959 RMK SLP015 T02350109 57039 IEM_DS3505
ZBAA,2004-05-12 07:00,ZBAA 120700Z AUTO 18010KT 5SM 25/14 A2956 RMK T02500140 IEM_DS3505
ZBAA,2004-05-12 08:00,ZBAA 120800Z AUTO 5SM 25/12 A2953 RMK T02500120 IEM_DS3505
ZBAA,2004-05-12 09:00,ZBAA 120900Z AUTO 32014G31KT 7SM 26/00 A2956 RMK SLP005 T02620001 57010 IEM_DS3505
ZBAA,2004-05-12 10:00,ZBAA 121000Z AUTO 34021G39KT 7SM 25/00 A2959 RMK T02500000 IEM_DS3505
ZBAA,2004-05-12 11:00,ZBAA 121100Z AUTO 32019KT 6SM 24/M01 A2962 RMK T02401010 IEM_DS3505
ZBAA,2004-05-12 12:00,ZBAA 121200Z AUTO 36006KT 12SM 24/M04 A2965 RMK SLP046 T02371035 52041 IEM_DS3505
ZBAA,2004-05-12 13:00,ZBAA 121300Z AUTO 33012KT 6SM 23/M02 A2971 RMK T02301020 IEM_DS3505
ZBAA,2004-05-12 14:00,ZBAA 121400Z AUTO 32008KT 6SM 22/M02 A2974 RMK T02201020 IEM_DS3505
ZBAA,2004-05-12 15:00,ZBAA 121500Z AUTO 34004KT 12SM 22/M04 A2977 RMK SLP081 T02171036 52035 IEM_DS3505
ZBAA,2004-05-12 16:00,ZBAA 121600Z AUTO 29002KT 6SM 18/01 A2980 RMK T01800010 IEM_DS3505
ZBAA,2004-05-12 17:00,ZBAA 121700Z AUTO 31004KT 6SM 17/01 A2983 RMK T01700010 IEM_DS3505
ZBAA,2004-05-12 18:00,ZBAA 121800Z AUTO 00000KT 12SM 16/00 A2983 RMK SLP098 T01590001 52017 IEM_DS3505
ZBAA,2004-05-12 19:00,ZBAA 121900Z AUTO 6SM 13/04 A2985 RMK T01300040 IEM_DS3505
ZBAA,2004-05-12 20:00,ZBAA 122000Z AUTO 35002KT 6SM 14/03 A2985 RMK T01400030 IEM_DS3505
ZBAA,2004-05-12 21:00,ZBAA 122100Z AUTO 02002KT 12SM 14/02 A2985 RMK 70000 SLP104 T01370020 52006 IEM_DS3505
ZBAA,2004-05-12 22:00,ZBAA 122200Z AUTO 35004KT 6SM 13/05 A2985 RMK T01300050 IEM_DS3505
ZBAA,2004-05-12 23:00,ZBAA 122300Z AUTO 01002KT 6SM 17/05 A2988 RMK T01700050 IEM_DS3505
ZBAA,2004-05-13 00:00,ZBAA 130000Z AUTO 02002KT 12SM 22/01 A2988 RMK SLP118 T02210012 52014 IEM_DS3505
ZBAA,2004-05-13 01:00,ZBAA 130100Z AUTO 6SM 23/04 A2988 RMK T02300040 IEM_DS3505
ZBAA,2004-05-13 02:00,ZBAA 130200Z AUTO 24006KT 6SM 25/03 A2991 RMK T02500030 IEM_DS3505
ZBAA,2004-05-13 03:00,ZBAA 130300Z AUTO 22010KT 19SM 27/M02 RMK SLP120 T02701018 52002 IEM_DS3505
ZBAA,2004-05-13 04:00,ZBAA 130400Z AUTO 23008KT 6SM 28/01 A2985 RMK T02800010 IEM_DS3505
ZBAA,2004-05-13 05:00,ZBAA 130500Z AUTO 28006KT 6SM 29/M01 A2983 RMK T02901010 IEM_DS3505
ZBAA,2004-05-13 06:00,ZBAA 130600Z AUTO 16004KT 19SM 29/M04 A2983 RMK SLP096 T02921042 57024 IEM_DS3505
ZBAA,2004-05-13 07:00,ZBAA 130700Z AUTO 20010KT 6SM 30/M02 A2980 RMK T03001020 IEM_DS3505
ZBAA,2004-05-13 08:00,ZBAA 130800Z AUTO 22010KT 6SM 30/01 A2980 RMK T03000010 IEM_DS3505
ZBAA,2004-05-13 09:00,ZBAA 130900Z AUTO 20012G21KT 19SM 29/M03 A2977 RMK SLP086 T02881034 57010 IEM_DS3505
ZBAA,2004-05-13 10:00,ZBAA 131000Z AUTO 21012KT 6SM 28/00 A2977 RMK T02800000 IEM_DS3505
ZBAA,2004-05-13 11:00,ZBAA 131100Z AUTO 22010KT 6SM 27/00 A2980 RMK T02700000 IEM_DS3505
ZBAA,2004-05-13 12:00,ZBAA 131200Z AUTO 25008KT 19SM 25/M01 A2980 RMK SLP091 T02481011 52005 IEM_DS3505
ZBAA,2004-05-13 13:00,ZBAA 131300Z AUTO 21008KT 6SM 24/01 A2983 RMK T02400010 IEM_DS3505
ZBAA,2004-05-13 14:00,ZBAA 131400Z AUTO 22008KT 6SM 24/01 A2983 RMK T02400010 IEM_DS3505
ZBAA,2004-05-13 15:00,ZBAA 131500Z AUTO 22010KT 16SM 22/02 A2985 RMK SLP108 T02180020 52017 IEM_DS3505
ZBAA,2004-05-13 16:00,ZBAA 131600Z AUTO 21010KT 6SM 23/03 A2985 RMK T02300030 IEM_DS3505
ZBAA,2004-05-13 17:00,ZBAA 131700Z AUTO 14006KT 6SM 19/04 A2985 RMK T01900040 IEM_DS3505
ZBAA,2004-05-13 18:00,ZBAA 131800Z AUTO 22006KT 12SM 20/03 A2985 RMK SLP108 T01950033 54000 IEM_DS3505
ZBAA,2004-05-13 19:00,ZBAA 131900Z AUTO 12004KT 6SM 16/06 A2985 RMK T01600060 IEM_DS3505
ZBAA,2004-05-13 20:00,ZBAA 132000Z AUTO 6SM 14/07 A2985 RMK T01400070 IEM_DS3505
ZBAA,2004-05-13 21:00,ZBAA 132100Z AUTO 09002KT 16SM 16/05 A2985 RMK SLP106 T01630047 57002 IEM_DS3505
ZBAA,2004-05-13 22:00,ZBAA 132200Z AUTO 10002KT 6SM 13/07 A2988 RMK T01300070 IEM_DS3505
ZBAA,2004-05-13 23:00,ZBAA 132300Z AUTO 13004KT 6SM 17/09 A2988 RMK T01700090 IEM_DS3505
ZBAA,2004-05-14 00:00,ZBAA 140000Z AUTO 22004KT 12SM 20/07 A2988 RMK SLP122 T02030067 52016 IEM_DS3505
ZBAA,2004-05-14 01:00,ZBAA 140100Z AUTO 14004KT 6SM 22/10 A2988 RMK T02200100 IEM_DS3505
ZBAA,2004-05-14 02:00,ZBAA 140200Z AUTO 18010G19KT 6SM 25/10 A2988 RMK T02500100 IEM_DS3505
ZBAA,2004-05-14 03:00,ZBAA 140300Z AUTO 25012KT 12SM 26/05 A2988 RMK SLP117 T02590050 57005 IEM_DS3505
ZBAA,2004-05-14 04:00,ZBAA 140400Z AUTO 20012KT 6SM 27/08 A2985 RMK T02700080 IEM_DS3505
ZBAA,2004-05-14 05:00,ZBAA 140500Z AUTO 19012KT 6SM 28/07 A2985 RMK T02800070 IEM_DS3505
ZBAA,2004-05-14 06:00,ZBAA 140600Z AUTO 20010KT 19SM 28/03 A2983 RMK SLP095 T02810031 57022 IEM_DS3505
ZBAA,2004-05-14 07:00,ZBAA 140700Z AUTO 19012KT 6SM 28/06 A2980 RMK T02800060 IEM_DS3505
ZBAA,2004-05-14 08:00,ZBAA 140800Z AUTO 20012KT 6SM 27/07 A2980 RMK T02700070 IEM_DS3505
ZBAA,2004-05-14 09:00,ZBAA 140900Z AUTO 22012KT 19SM 26/04 A2980 RMK SLP085 T02650043 57010 IEM_DS3505
ZBAA,2004-05-14 10:00,ZBAA 141000Z AUTO 19014KT 6SM 26/08 A2977 RMK T02600080 IEM_DS3505
ZBAA,2004-05-14 11:00,ZBAA 141100Z AUTO 20012G21KT 6SM 25/08 A2980 RMK T02500080 IEM_DS3505
ZBAA,2004-05-14 12:00,ZBAA 141200Z AUTO 20010KT 12SM 23/10 A2980 RMK SLP092 T02310099 52007 IEM_DS3505
ZBAA,2004-05-14 13:00,ZBAA 141300Z AUTO 19010KT 6SM 22/12 A2983 RMK T02200120 IEM_DS3505
ZBAA,2004-05-14 14:00,ZBAA 141400Z AUTO 18008KT 6SM 22/11 A2983 RMK T02200110 IEM_DS3505
ZBAA,2004-05-14 15:00,ZBAA 141500Z AUTO 20006KT 11SM 21/10 A2983 RMK SLP101 T02070096 52009 IEM_DS3505
ZBAA,2004-05-14 16:00,ZBAA 141600Z AUTO 17006KT 6SM 20/13 A2983 RMK T02000130 IEM_DS3505
ZBAA,2004-05-14 17:00,ZBAA 141700Z AUTO 18010KT 6SM 20/13 A2983 RMK T02000130 IEM_DS3505
ZBAA,2004-05-14 18:00,ZBAA 141800Z AUTO 18006KT 7SM 19/10 A2983 RMK SLP093 T01920105 57008 IEM_DS3505
ZBAA,2004-05-14 19:00,ZBAA 141900Z AUTO 18006KT 6SM 19/13 A2980 RMK T01900130 IEM_DS3505
ZBAA,2004-05-14 20:00,ZBAA 142000Z AUTO 12004KT 4SM 18/13 A2980 RMK T01800130 IEM_DS3505
ZBAA,2004-05-14 21:00,ZBAA 142100Z AUTO 18004KT 7SM 18/10 A2980 RMK SLP083 T01800096 57010 IEM_DS3505
ZBAA,2004-05-14 22:00,ZBAA 142200Z AUTO 15006KT 4SM 18/12 A2980 RMK T01800120 IEM_DS3505
ZBAA,2004-05-14 23:00,ZBAA 142300Z AUTO 15006KT 4SM 18/13 A2983 RMK T01800130 IEM_DS3505
ZBAA,2004-05-15 00:00,ZBAA 150000Z AUTO 09004KT 12SM 16/12 A2985 RMK 70001 SLP103 T01560118 52020 IEM_DS3505
ZBAA,2004-05-15 01:00,ZBAA 150100Z AUTO 4SM 14/14 A2988 RMK T01400140 IEM_DS3505
ZBAA,2004-05-15 02:00,ZBAA 150200Z AUTO 3SM 15/15 A2985 RMK T01500150 IEM_DS3505
ZBAA,2004-05-15 03:00,ZBAA 150300Z AUTO 04006KT 12SM 15/12 A2985 RMK SLP109 T01540124 52006 IEM_DS3505
ZBAA,2004-05-15 04:00,ZBAA 150400Z AUTO 35004KT 7SM 15/14 A2985 RMK T01500140 IEM_DS3505
ZBAA,2004-05-15 05:00,ZBAA 150500Z AUTO 34004KT 6SM 16/14 A2985 RMK T01600140 IEM_DS3505
ZBAA,2004-05-15 06:00,ZBAA 150600Z AUTO 02004KT 12SM 16/12 A2985 RMK 60004 SLP102 T01600122 57008 IEM_DS3505
ZBAA,2004-05-15 07:00,ZBAA 150700Z AUTO 7SM 18/15 A2983 RMK T01800150 IEM_DS3505
ZBAA,2004-05-15 08:00,ZBAA 150800Z AUTO 11004KT 7SM 18/13 A2983 RMK T01800130 IEM_DS3505
ZBAA,2004-05-15 09:00,ZBAA 150900Z AUTO 04004KT 12SM 18/12 A2983 RMK SLP091 T01800118 57010 IEM_DS3505
ZBAA,2004-05-15 10:00,ZBAA 151000Z AUTO 11004KT 6SM 18/13 A2983 RMK T01800130 IEM_DS3505
ZBAA,2004-05-15 11:00,ZBAA 151100Z AUTO 00000KT 6SM 18/14 A2983 RMK T01800140 IEM_DS3505
ZBAA,2004-05-15 12:00,ZBAA 151200Z AUTO 34004KT 9SM 18/11 A2988 RMK SLP117 T01780111 52025 IEM_DS3505
ZBAA,2004-05-15 13:00,ZBAA 151300Z AUTO 25004KT 3SM 16/15 A2988 RMK T01600150 IEM_DS3505
ZBAA,2004-05-15 14:00,ZBAA 151400Z AUTO 2SM 16/15 A2985 RMK T01600150 IEM_DS3505
ZBAA,2004-05-15 15:00,ZBAA 151500Z AUTO 34002KT 6SM 16/13 A2988 RMK SLP110 T01560131 57007 IEM_DS3505
ZBAA,2004-05-15 16:00,ZBAA 151600Z AUTO 35008KT 2 1/2SM 15/15 A2985 RMK T01500150 IEM_DS3505
ZBAA,2004-05-15 17:00,ZBAA 151700Z AUTO 35004KT 3SM 15/14 A2985 RMK T01500140 IEM_DS3505
ZBAA,2004-05-15 18:00,ZBAA 151800Z AUTO 04002KT 7SM 16/12 A2983 RMK 60012 SLP098 T01550124 57012 IEM_DS3505
ZBAA,2004-05-15 19:00,ZBAA 151900Z AUTO 01008KT 7SM 15/13 A2983 RMK T01500130 IEM_DS3505
ZBAA,2004-05-15 20:00,ZBAA 152000Z AUTO 02006G16KT 7SM 14/12 A2980 RMK T01400120 IEM_DS3505
ZBAA,2004-05-15 21:00,ZBAA 152100Z AUTO 02006KT 9SM 14/10 A2980 RMK 70015 SLP086 T01450101 57012 IEM_DS3505
ZBAA,2004-05-15 22:00,ZBAA 152200Z AUTO 36008KT 7SM 13/12 A2980 RMK T01300120 IEM_DS3505
ZBAA,2004-05-15 23:00,ZBAA 152300Z AUTO 33008KT 4SM 13/12 A2983 RMK T01300120 IEM_DS3505
ZBAA,2004-05-16 00:00,ZBAA 160000Z AUTO 02006KT 7SM 12/10 A2983 RMK 60059 70071 SLP091 T01250104 52005 IEM_DS3505
ZBAA,2004-05-16 01:00,ZBAA 160100Z AUTO 36006KT 3SM 12/12 A2983 RMK T01200120 IEM_DS3505
ZBAA,2004-05-16 02:00,ZBAA 160200Z AUTO 28004KT 4SM 12/12 A2985 RMK T01200120 IEM_DS3505
ZBAA,2004-05-16 03:00,ZBAA 160300Z AUTO 34008KT 9SM 13/09 A2983 RMK SLP091 T01300093 54000 IEM_DS3505
ZBAA,2004-05-16 03:30,ZBAA 160330Z AUTO 31014KT 7SM 13/11 A2980 RMK T01300110 IEM_DS3505
ZBAA,2004-05-16 04:00,ZBAA 160400Z AUTO 29010KT 7SM 13/11 A2977 RMK T01300110 IEM_DS3505
ZBAA,2004-05-16 05:00,ZBAA 160500Z AUTO 28006KT 6SM 13/10 A2977 RMK T01300100 IEM_DS3505
ZBAA,2004-05-16 06:00,ZBAA 160600Z AUTO 29004KT 12SM 14/08 A2974 RMK 60035 SLP066 T01400084 57025 IEM_DS3505
ZBAA,2004-05-16 07:00,ZBAA 160700Z AUTO 6SM 16/09 A2971 RMK T01600090 IEM_DS3505
ZBAA,2004-05-16 08:00,ZBAA 160800Z AUTO 6SM 16/11 A2968 RMK T01600110 IEM_DS3505
ZBAA,2004-05-16 09:00,ZBAA 160900Z AUTO 20006KT 12SM 16/08 A2965 RMK SLP046 T01640084 57020 IEM_DS3505
ZBAA,2004-05-16 10:00,ZBAA 161000Z AUTO 19006KT 6SM 17/12 A2965 RMK T01700120 IEM_DS3505
ZBAA,2004-05-16 11:00,ZBAA 161100Z AUTO 18002KT 6SM 15/11 A2965 RMK T01500110 IEM_DS3505
ZBAA,2004-05-16 12:00,ZBAA 161200Z AUTO 18002KT 19SM 16/10 A2968 RMK SLP043 T01600097 57003 IEM_DS3505
ZBAA,2004-05-16 13:00,ZBAA 161300Z AUTO 12004KT 5SM 13/12 A2968 RMK T01300120 IEM_DS3505
ZBAA,2004-05-16 14:00,ZBAA 161400Z AUTO 13006KT 5SM 12/12 A2968 RMK T01200120 IEM_DS3505
ZBAA,2004-05-16 15:00,ZBAA 161500Z AUTO 14004KT 19SM 13/09 A2968 RMK SLP041 T01260091 57002 IEM_DS3505
ZBAA,2004-05-16 16:00,ZBAA 161600Z AUTO 10002KT 4SM 11/11 A2965 RMK T01100110 IEM_DS3505
ZBAA,2004-05-16 17:00,ZBAA 161700Z AUTO 2 1/2SM 10/10 A2965 RMK T01000100 IEM_DS3505
ZBAA,2004-05-16 18:00,ZBAA 161800Z AUTO 07002KT 12SM 11/09 A2965 RMK SLP030 T01080087 57011 IEM_DS3505
ZBAA,2004-05-16 19:00,ZBAA 161900Z AUTO 35002KT 2SM 11/11 A2965 RMK T01100110 IEM_DS3505
ZBAA,2004-05-16 20:00,ZBAA 162000Z AUTO 35004KT 2SM 10/10 A2962 RMK T01000100 IEM_DS3505
ZBAA,2004-05-16 21:00,ZBAA 162100Z AUTO 04002KT 6SM 11/10 A2962 RMK 70093 SLP029 T01140095 57001 IEM_DS3505
ZBAA,2004-05-16 22:00,ZBAA 162200Z AUTO 31006KT 3SM 12/12 A2965 RMK T01200120 IEM_DS3505
ZBAA,2004-05-16 23:00,ZBAA 162300Z AUTO 34004KT 5SM 14/13 A2968 RMK T01400130 IEM_DS3505
ZBAA,2004-05-17 00:00,ZBAA 170000Z AUTO 07002KT 7SM 17/11 A2968 RMK 70036 SLP048 T01670108 52020 IEM_DS3505
ZBAA,2004-05-17 01:00,ZBAA 170100Z AUTO 6SM 20/15 A2971 RMK T02000150 IEM_DS3505
ZBAA,2004-05-17 02:00,ZBAA 170200Z AUTO 15002KT 6SM 21/14 A2971 RMK T02100140 IEM_DS3505
ZBAA,2004-05-17 03:00,ZBAA 170300Z AUTO 36006KT 12SM 25/08 A2971 RMK SLP051 T02480083 52003 IEM_DS3505
ZBAA,2004-05-17 04:00,ZBAA 170400Z AUTO 13004KT 6SM 24/14 A2968 RMK T02400140 IEM_DS3505
ZBAA,2004-05-17 05:00,ZBAA 170500Z AUTO 08004KT 7SM 24/14 A2968 RMK T02400140 IEM_DS3505
ZBAA,2004-05-17 06:00,ZBAA 170600Z AUTO 07006KT 16SM 24/10 A2968 RMK 60003 SLP040 T02430102 57011 IEM_DS3505
ZBAA,2004-05-17 07:00,ZBAA 170700Z AUTO 34004KT 7SM 27/11 A2965 RMK T02700110 IEM_DS3505
ZBAA,2004-05-17 08:00,ZBAA 170800Z AUTO 28012KT 7SM A2971 RMK IEM_DS3505
ZBAA,2004-05-17 09:00,ZBAA 170900Z AUTO 07004KT 16SM 20/13 A2968 RMK SLP056 T02010129 52015 IEM_DS3505
ZBAA,2004-05-17 10:00,ZBAA 171000Z AUTO 17006KT 6SM 20/16 A2968 RMK T02000160 IEM_DS3505
ZBAA,2004-05-17 11:00,ZBAA 171100Z AUTO 20008KT 6SM 18/16 A2968 RMK T01800160 IEM_DS3505
ZBAA,2004-05-17 12:00,ZBAA 171200Z AUTO 25004KT 16SM 18/14 A2971 RMK 60003 SLP061 T01820137 52006 IEM_DS3505
ZBAA,2004-05-17 13:00,ZBAA 171300Z AUTO 13002KT 6SM 18/16 A2971 RMK T01800160 IEM_DS3505
ZBAA,2004-05-17 14:00,ZBAA 171400Z AUTO 12008KT 5SM 17/16 A2977 RMK T01700160 IEM_DS3505
ZBAA,2004-05-17 15:00,ZBAA 171500Z AUTO 11002KT 9SM 17/13 A2977 RMK SLP074 T01670134 52013 IEM_DS3505
ZBAA,2004-05-17 16:00,ZBAA 171600Z AUTO 3SM 16/15 A2977 RMK T01600150 IEM_DS3505
ZBAA,2004-05-17 17:00,ZBAA 171700Z AUTO 10004KT 2SM 16/15 A2977 RMK T01600150 IEM_DS3505
ZBAA,2004-05-17 18:00,ZBAA 171800Z AUTO 09006KT 2 1/2SM 16/13 A2977 RMK SLP074 T01590134 54000 IEM_DS3505
ZBAA,2004-05-17 19:00,ZBAA 171900Z AUTO 00000KT 2SM 14/14 A2977 RMK T01400140 IEM_DS3505
ZBAA,2004-05-17 20:00,ZBAA 172000Z AUTO 22002KT 1 1/4SM 14/13 A2974 RMK T01400130 IEM_DS3505
ZBAA,2004-05-17 21:00,ZBAA 172100Z AUTO 36002KT 4SM 14/12 A2974 RMK 70006 SLP067 T01390118 57007 IEM_DS3505
ZBAA,2004-05-17 22:00,ZBAA 172200Z AUTO 31002KT 1SM 14/14 A2977 RMK T01400140 IEM_DS3505
ZBAA,2004-05-17 23:00,ZBAA 172300Z AUTO 00000KT 2SM 17/16 A2977 RMK T01700160 IEM_DS3505
ZBAA,2004-05-18 00:00,ZBAA 180000Z AUTO 04004KT 7SM 19/12 A2974 RMK 70006 SLP069 T01940122 52002 IEM_DS3505
ZBAA,2004-05-18 01:00,ZBAA 180100Z AUTO 31006KT 5SM 22/14 A2974 RMK T02200140 IEM_DS3505
ZBAA,2004-05-18 02:00,ZBAA 180200Z AUTO 30008KT 6SM 24/11 A2971 RMK T02400110 IEM_DS3505
ZBAA,2004-05-18 03:00,ZBAA 180300Z AUTO 32008KT 19SM 25/05 A2968 RMK SLP050 T02510054 57019 IEM_DS3505
ZBAA,2004-05-18 04:00,ZBAA 180400Z AUTO 30010KT 6SM 26/07 A2965 RMK T02600070 IEM_DS3505
ZBAA,2004-05-18 05:00,ZBAA 180500Z AUTO 28016G25KT 6SM 27/08 A2962 RMK T02700080 IEM_DS3505
ZBAA,2004-05-18 06:00,ZBAA 180600Z AUTO 22010G25KT 12SM 26/08 A2956 RMK SLP014 T02650085 57036 IEM_DS3505
ZBAA,2004-05-18 07:00,ZBAA 180700Z AUTO 25012KT 6SM 29/09 A2953 RMK T02900090 IEM_DS3505
ZBAA,2004-05-18 07:30,ZBAA 180730Z AUTO 22014KT 6SM 28/12 A2950 RMK T02800120 IEM_DS3505
ZBAA,2004-05-18 08:00,ZBAA 180800Z AUTO 21014KT 6SM 27/12 A2950 RMK T02700120 IEM_DS3505
ZBAA,2004-05-18 09:00,ZBAA 180900Z AUTO 22010G21KT 19SM 26/11 A2947 RMK SLP981 T02640110 57033 IEM_DS3505
ZBAA,2004-05-18 10:00,ZBAA 181000Z AUTO 20014KT 6SM 26/13 A2944 RMK T02600130 IEM_DS3505
ZBAA,2004-05-18 11:00,ZBAA 181100Z AUTO 21010KT 6SM 25/15 A2944 RMK T02500150 IEM_DS3505
ZBAA,2004-05-18 12:00,ZBAA 181200Z AUTO 22010KT 19SM 23/13 A2941 RMK SLP969 T02340133 57012 IEM_DS3505
ZBAA,2004-05-18 13:00,ZBAA 181300Z AUTO 20012KT 6SM 23/16 A2941 RMK T02300160 IEM_DS3505
ZBAA,2004-05-18 14:00,ZBAA 181400Z AUTO 22012KT 6SM 23/16 A2941 RMK T02300160 IEM_DS3505
ZBAA,2004-05-18 15:00,ZBAA 181500Z AUTO 22010KT 9SM 21/14 A2938 RMK SLP951 T02120136 57017 IEM_DS3505
ZBAA,2004-05-18 16:00,ZBAA 181600Z AUTO 23008KT 6SM 22/16 A2938 RMK T02200160 IEM_DS3505
ZBAA,2004-05-18 17:00,ZBAA 181700Z AUTO 28004KT 6SM 22/15 A2938 RMK T02200150 IEM_DS3505
ZBAA,2004-05-18 18:00,ZBAA 181800Z AUTO 25006KT 9SM 20/13 A2935 RMK SLP941 T02020127 57010 IEM_DS3505
ZBAA,2004-05-18 19:00,ZBAA 181900Z AUTO 25004KT 6SM 18/15 A2935 RMK T01800150 IEM_DS3505
ZBAA,2004-05-18 20:00,ZBAA 182000Z AUTO 00000KT 4SM 17/15 A2932 RMK T01700150 IEM_DS3505
ZBAA,2004-05-18 21:00,ZBAA 182100Z AUTO 27004KT 9SM 19/12 A2932 RMK SLP931 T01890120 57010 IEM_DS3505
ZBAA,2004-05-18 22:00,ZBAA 182200Z AUTO 19002KT 4SM 16/15 A2932 RMK T01600150 IEM_DS3505
ZBAA,2004-05-18 23:00,ZBAA 182300Z AUTO 3SM 18/17 A2935 RMK T01800170 IEM_DS3505
ZBAA,2004-05-19 00:00,ZBAA 190000Z AUTO 22004KT 7SM 22/13 A2932 RMK SLP925 T02190130 57006 IEM_DS3505
ZBAA,2004-05-19 01:00,ZBAA 190100Z AUTO 24004KT 6SM 27/16 A2929 RMK T02700160 IEM_DS3505
ZBAA,2004-05-19 02:00,ZBAA 190200Z AUTO 28012KT 6SM 30/10 A2929 RMK T03000100 IEM_DS3505
ZBAA,2004-05-19 03:00,ZBAA 190300Z AUTO 32012KT 12SM 31/01 RMK SLP911 T03100014 57014 IEM_DS3505
ZBAA,2004-05-19 04:00,ZBAA 190400Z AUTO 27012KT 6SM 31/09 A2926 RMK T03100090 IEM_DS3505
ZBAA,2004-05-19 05:00,ZBAA 190500Z AUTO 29014G23KT 6SM 32/09 A2926 RMK T03200090 IEM_DS3505
ZBAA,2004-05-19 06:00,ZBAA 190600Z AUTO 34008G31KT 16SM 32/00 A2923 RMK SLP893 T03210003 57018 IEM_DS3505
ZBAA,2004-05-19 07:00,ZBAA 190700Z AUTO 30017G29KT 6SM 31/04 A2923 RMK T03100040 IEM_DS3505
ZBAA,2004-05-19 08:00,ZBAA 190800Z AUTO 31017G27KT 6SM 31/06 A2926 RMK T03100060 IEM_DS3505
ZBAA,2004-05-19 09:00,ZBAA 190900Z AUTO 34016G27KT 19SM 30/M04 A2929 RMK SLP905 T03011035 52012 IEM_DS3505
ZBAA,2004-05-19 10:00,ZBAA 191000Z AUTO 35016KT 6SM 26/01 A2932 RMK T02600010 IEM_DS3505
ZBAA,2004-05-19 11:00,ZBAA 191100Z AUTO 35016KT 6SM 24/M04 A2938 RMK T02401040 IEM_DS3505
ZBAA,2004-05-19 12:00,ZBAA 191200Z AUTO 02012KT 16SM 24/M08 A2941 RMK SLP942 T02431079 52037 IEM_DS3505
ZBAA,2004-05-19 13:00,ZBAA 191300Z AUTO 34012KT 6SM 22/M06 A2944 RMK T02201060 IEM_DS3505
ZBAA,2004-05-19 14:00,ZBAA 191400Z AUTO 34014KT 6SM 22/M08 A2947 RMK T02201080 IEM_DS3505
ZBAA,2004-05-19 15:00,ZBAA 191500Z AUTO 36008KT 16SM 22/M12 A2950 RMK SLP980 T02241119 52038 IEM_DS3505
ZBAA,2004-05-19 16:00,ZBAA 191600Z AUTO 35010KT 6SM 18/M07 A2950 RMK T01801070 IEM_DS3505
ZBAA,2004-05-19 17:00,ZBAA 191700Z AUTO 35006KT 6SM 14/M05 A2953 RMK T01401050 IEM_DS3505
ZBAA,2004-05-19 18:00,ZBAA 191800Z AUTO 02004KT 19SM 19/M11 A2953 RMK SLP999 T01881111 52019 IEM_DS3505
ZBAA,2004-05-19 19:00,ZBAA 191900Z AUTO 34006KT 6SM 11/M02 A2953 RMK T01101020 IEM_DS3505
ZBAA,2004-05-19 20:00,ZBAA 192000Z AUTO 28008KT 6SM 15/M06 A2956 RMK T01501060 IEM_DS3505
ZBAA,2004-05-19 21:00,ZBAA 192100Z AUTO 32004KT 16SM 16/M08 A2956 RMK SLP011 T01571078 52012 IEM_DS3505
ZBAA,2004-05-19 22:00,ZBAA 192200Z AUTO 31006KT 6SM 14/M03 A2959 RMK T01401030 IEM_DS3505
ZBAA,2004-05-19 23:00,ZBAA 192300Z AUTO 30006KT 6SM 17/M01 A2959 RMK T01701010 IEM_DS3505
ZBAA,2004-05-20 00:00,ZBAA 200000Z AUTO 34010KT 19SM 20/M09 A2962 RMK SLP021 T02031089 52009 IEM_DS3505
ZBAA,2004-05-20 01:00,ZBAA 200100Z AUTO 31012KT 6SM 22/M01 A2959 RMK T02201010 IEM_DS3505
ZBAA,2004-05-20 02:00,ZBAA 200200Z AUTO 34006G17KT 6SM 23/M01 A2959 RMK T02301010 IEM_DS3505
ZBAA,2004-05-20 03:00,ZBAA 200300Z AUTO 36012KT 19SM 23/M08 A2959 RMK SLP016 T02321077 57005 IEM_DS3505
ZBAA,2004-05-20 04:00,ZBAA 200400Z AUTO 6SM 24/M01 A2956 RMK T02401010 IEM_DS3505
ZBAA,2004-05-20 05:00,ZBAA 200500Z AUTO 33008KT 6SM 25/02 A2956 RMK T02500020 IEM_DS3505
ZBAA,2004-05-20 06:00,ZBAA 200600Z AUTO 02012G31KT 19SM 26/M07 A2953 RMK SLP995 T02591067 57020 IEM_DS3505
ZBAA,2004-05-20 07:00,ZBAA 200700Z AUTO 33016G25KT 6SM 25/M04 A2953 RMK T02501040 IEM_DS3505
ZBAA,2004-05-20 08:00,ZBAA 200800Z AUTO 03006KT 6SM 25/M02 A2950 RMK T02501020 IEM_DS3505
ZBAA,2004-05-20 09:00,ZBAA 200900Z AUTO 34010KT 19SM 26/M08 A2950 RMK SLP993 T02551082 57003 IEM_DS3505
ZBAA,2004-05-20 10:00,ZBAA 201000Z AUTO 34012KT 6SM 25/M05 A2950 RMK T02501050 IEM_DS3505
ZBAA,2004-05-20 11:00,ZBAA 201100Z AUTO 01006KT 6SM 23/M03 A2953 RMK T02301030 IEM_DS3505
ZBAA,2004-05-20 12:00,ZBAA 201200Z AUTO 04004KT 19SM 23/M07 A2956 RMK SLP006 T02261071 52013 IEM_DS3505
ZBAA,2004-05-20 13:00,ZBAA 201300Z AUTO 6SM 19/M01 A2959 RMK T01901010 IEM_DS3505
ZBAA,2004-05-20 14:00,ZBAA 201400Z AUTO 28004KT 6SM 19/M02 A2959 RMK T01901020 IEM_DS3505
ZBAA,2004-05-20 15:00,ZBAA 201500Z AUTO 25004KT 12SM 19/M01 A2962 RMK SLP023 T01881010 52017 IEM_DS3505
ZBAA,2004-05-20 16:00,ZBAA 201600Z AUTO 29006KT 6SM 18/01 A2962 RMK T01800010 IEM_DS3505
ZBAA,2004-05-20 17:00,ZBAA 201700Z AUTO 35004KT 6SM 17/01 A2959 RMK T01700010 IEM_DS3505
ZBAA,2004-05-20 18:00,ZBAA 201800Z AUTO 27002KT 19SM 16/01 A2959 RMK SLP018 T01640013 57005 IEM_DS3505
ZBAA,2004-05-20 19:00,ZBAA 201900Z AUTO 36006KT 6SM 15/02 A2959 RMK T01500020 IEM_DS3505
ZBAA,2004-05-20 20:00,ZBAA 202000Z AUTO 6SM 14/01 A2959 RMK T01400010 IEM_DS3505
ZBAA,2004-05-20 21:00,ZBAA 202100Z AUTO 25002KT 19SM 16/02 A2962 RMK SLP022 T01560024 52004 IEM_DS3505
ZBAA,2004-05-20 22:00,ZBAA 202200Z AUTO 34004KT 6SM 12/04 A2962 RMK T01200040 IEM_DS3505
ZBAA,2004-05-20 23:00,ZBAA 202300Z AUTO 36004KT 6SM 16/04 A2965 RMK T01600040 IEM_DS3505
ZBAA,2004-05-21 00:00,ZBAA 210000Z AUTO 04004KT 16SM 20/M02 A2965 RMK SLP036 T02041020 52014 IEM_DS3505
ZBAA,2004-05-21 01:00,ZBAA 210100Z AUTO 36004KT 6SM 21/05 A2965 RMK T02100050 IEM_DS3505
ZBAA,2004-05-21 02:00,ZBAA 210200Z AUTO 36004KT 6SM 23/04 A2965 RMK T02300040 IEM_DS3505
ZBAA,2004-05-21 03:00,ZBAA 210300Z AUTO 07004KT 19SM 25/M05 A2962 RMK SLP030 T02461046 57006 IEM_DS3505
ZBAA,2004-05-21 04:00,ZBAA 210400Z AUTO 6SM 25/02 A2962 RMK T02500020 IEM_DS3505
ZBAA,2004-05-21 05:00,ZBAA 210500Z AUTO 31004KT 6SM 25/02 A2959 RMK T02500020 IEM_DS3505
ZBAA,2004-05-21 06:00,ZBAA 210600Z AUTO 32006KT 19SM 27/M07 A2956 RMK SLP010 T02711070 57020 IEM_DS3505
ZBAA,2004-05-21 07:00,ZBAA 210700Z AUTO 6SM 27/M03 A2956 RMK T02701030 IEM_DS3505
ZBAA,2004-05-21 08:00,ZBAA 210800Z AUTO 03004KT 6SM 27/M01 A2956 RMK T02701010 IEM_DS3505
ZBAA,2004-05-21 09:00,ZBAA 210900Z AUTO 04006KT 19SM 27/M06 A2956 RMK SLP003 T02711058 57007 IEM_DS3505
ZBAA,2004-05-21 10:00,ZBAA 211000Z AUTO 6SM 26/M01 A2956 RMK T02601010 IEM_DS3505
ZBAA,2004-05-21 11:00,ZBAA 211100Z AUTO 13004KT 6SM 24/03 A2959 RMK T02400030 IEM_DS3505
ZBAA,2004-05-21 12:00,ZBAA 211200Z AUTO 20004KT 16SM 23/M01 A2959 RMK SLP021 T02331009 52018 IEM_DS3505
ZBAA,2004-05-21 13:00,ZBAA 211300Z AUTO 19002KT 6SM 21/02 A2962 RMK T02100020 IEM_DS3505
ZBAA,2004-05-21 14:00,ZBAA 211400Z AUTO 22004KT 6SM 21/02 A2965 RMK T02100020 IEM_DS3505
ZBAA,2004-05-21 15:00,ZBAA 211500Z AUTO 22002KT 12SM 19/02 A2965 RMK SLP034 T01880022 52013 IEM_DS3505
ZBAA,2004-05-21 16:00,ZBAA 211600Z AUTO 25006KT 6SM 19/05 A2965 RMK T01900050 IEM_DS3505
ZBAA,2004-05-21 17:00,ZBAA 211700Z AUTO 28006KT 6SM 17/04 A2962 RMK T01700040 IEM_DS3505
ZBAA,2004-05-21 18:00,ZBAA 211800Z AUTO 27002KT 9SM 18/01 A2962 RMK SLP029 T01790014 57005 IEM_DS3505
ZBAA,2004-05-21 19:00,ZBAA 211900Z AUTO 01002KT 6SM 15/03 A2962 RMK T01500030 IEM_DS3505
ZBAA,2004-05-21 20:00,ZBAA 212000Z AUTO 34004KT 6SM 11/03 A2962 RMK T01100030 IEM_DS3505
ZBAA,2004-05-21 20:30,ZBAA 212030Z AUTO 32002KT 6SM 12/03 A2962 RMK T01200030 IEM_DS3505
ZBAA,2004-05-21 21:00,ZBAA 212100Z AUTO 22002KT 9SM 14/03 A2962 RMK SLP027 T01450027 57002 IEM_DS3505
ZBAA,2004-05-21 22:00,ZBAA 212200Z AUTO 34006KT 6SM 13/05 A2965 RMK T01300050 IEM_DS3505
ZBAA,2004-05-21 23:00,ZBAA 212300Z AUTO 34004KT 6SM 16/04 A2968 RMK T01600040 IEM_DS3505
ZBAA,2004-05-22 00:00,ZBAA 220000Z AUTO 02004KT 16SM 20/M02 A2968 RMK SLP050 T02001017 52023 IEM_DS3505
ZBAA,2004-05-22 01:00,ZBAA 220100Z AUTO 03006KT 6SM 23/02 A2971 RMK T02300020 IEM_DS3505
ZBAA,2004-05-22 02:00,ZBAA 220200Z AUTO 02010G19KT 6SM 25/M01 A2971 RMK T02501010 IEM_DS3505
ZBAA,2004-05-22 03:00,ZBAA 220300Z AUTO 36008G21KT 19SM 26/M05 A2974 RMK SLP063 T02561048 52013 IEM_DS3505
ZBAA,2004-05-22 04:00,ZBAA 220400Z AUTO 04006G16KT 6SM 27/03 A2974 RMK T02700030 IEM_DS3505
ZBAA,2004-05-22 05:00,ZBAA 220500Z AUTO 6SM 28/01 A2974 RMK T02800010 IEM_DS3505
ZBAA,2004-05-22 06:00,ZBAA 220600Z AUTO 07012KT 19SM 27/M04 A2971 RMK SLP058 T02721035 57005 IEM_DS3505
ZBAA,2004-05-22 07:00,ZBAA 220700Z AUTO 6SM 28/00 A2971 RMK T02800000 IEM_DS3505
ZBAA,2004-05-22 08:00,ZBAA 220800Z AUTO 6SM 28/00 A2971 RMK T02800000 IEM_DS3505
ZBAA,2004-05-22 09:00,ZBAA 220900Z AUTO 11010KT 19SM 27/M02 A2971 RMK SLP052 T02731025 57006 IEM_DS3505
ZBAA,2004-05-22 10:00,ZBAA 221000Z AUTO 11002KT 6SM 27/01 A2971 RMK T02700010 IEM_DS3505
ZBAA,2004-05-22 11:00,ZBAA 221100Z AUTO 15006KT 6SM 25/04 A2971 RMK T02500040 IEM_DS3505
ZBAA,2004-05-22 12:00,ZBAA 221200Z AUTO 20008KT 19SM 22/05 A2974 RMK SLP074 T02240054 52022 IEM_DS3505
ZBAA,2004-05-22 13:00,ZBAA 221300Z AUTO 20010KT 6SM 22/08 A2977 RMK T02200080 IEM_DS3505
ZBAA,2004-05-22 14:00,ZBAA 221400Z AUTO 22010KT 6SM 21/06 A2980 RMK T02100060 IEM_DS3505
ZBAA,2004-05-22 15:00,ZBAA 221500Z AUTO 25008KT 16SM 20/05 A2980 RMK SLP096 T01970054 52022 IEM_DS3505
ZBAA,2004-05-22 16:00,ZBAA 221600Z AUTO 20008KT 6SM 20/07 A2980 RMK T02000070 IEM_DS3505
ZBAA,2004-05-22 17:00,ZBAA 221700Z AUTO 17002KT 6SM 18/08 A2980 RMK T01800080 IEM_DS3505
ZBAA,2004-05-22 18:00,ZBAA 221800Z AUTO 22004KT 12SM 18/06 A2980 RMK SLP087 T01810060 57009 IEM_DS3505
ZBAA,2004-05-22 19:00,ZBAA 221900Z AUTO 01002KT 6SM 13/10 A2980 RMK T01300100 IEM_DS3505
ZBAA,2004-05-22 20:00,ZBAA 222000Z AUTO 6SM 12/10 A2983 RMK T01200100 IEM_DS3505
ZBAA,2004-05-22 21:00,ZBAA 222100Z AUTO 00000KT 9SM 16/07 A2983 RMK SLP090 T01610068 52003 IEM_DS3505
ZBAA,2004-05-22 22:00,ZBAA 222200Z AUTO 02002KT 4SM 13/10 A2983 RMK T01300100 IEM_DS3505
ZBAA,2004-05-22 23:00,ZBAA 222300Z AUTO 5SM 18/11 A2983 RMK T01800110 IEM_DS3505
ZBAA,2004-05-23 00:00,ZBAA 230000Z AUTO 02004KT 9SM 20/07 A2983 RMK SLP097 T02010072 52007 IEM_DS3505
ZBAA,2004-05-23 01:00,ZBAA 230100Z AUTO 5SM 21/10 A2983 RMK T02100100 IEM_DS3505
ZBAA,2004-05-23 02:00,ZBAA 230200Z AUTO 5SM 24/11 A2980 RMK T02400110 IEM_DS3505
ZBAA,2004-05-23 03:00,ZBAA 230300Z AUTO 18004KT 12SM 26/06 A2980 RMK SLP083 T02650065 57014 IEM_DS3505
ZBAA,2004-05-23 04:00,ZBAA 230400Z AUTO 19006KT 5SM 27/11 A2977 RMK T02700110 IEM_DS3505
ZBAA,2004-05-23 05:00,ZBAA 230500Z AUTO 16006KT 5SM 30/11 A2974 RMK T03000110 IEM_DS3505
ZBAA,2004-05-23 06:00,ZBAA 230600Z AUTO 20008KT 12SM 31/05 A2971 RMK SLP053 T03120049 57029 IEM_DS3505
ZBAA,2004-05-23 07:00,ZBAA 230700Z AUTO 17010G19KT 6SM 32/07 A2968 RMK T03200070 IEM_DS3505
ZBAA,2004-05-23 08:00,ZBAA 230800Z AUTO 17010KT 6SM 32/07 A2965 RMK T03200070 IEM_DS3505
ZBAA,2004-05-23 09:00,ZBAA 230900Z AUTO 20008KT 16SM 32/07 A2965 RMK SLP037 T03170067 57016 IEM_DS3505
ZBAA,2004-05-23 10:00,ZBAA 231000Z AUTO 18008KT 6SM 30/10 A2965 RMK T03000100 IEM_DS3505
ZBAA,2004-05-23 11:00,ZBAA 231100Z AUTO 16006KT 6SM 28/11 A2965 RMK T02800110 IEM_DS3505
ZBAA,2004-05-23 12:00,ZBAA 231200Z AUTO 20006KT 12SM 28/10 A2968 RMK SLP041 T02760095 52004 IEM_DS3505
ZBAA,2004-05-23 13:00,ZBAA 231300Z AUTO 15004KT 6SM 25/13 A2968 RMK T02500130 IEM_DS3505
ZBAA,2004-05-23 14:00,ZBAA 231400Z AUTO 13004KT 6SM 23/13 A2968 RMK T02300130 IEM_DS3505
ZBAA,2004-05-23 15:00,ZBAA 231500Z AUTO 16002KT 12SM 24/11 A2971 RMK SLP054 T02410108 52013 IEM_DS3505
ZBAA,2004-05-23 16:00,ZBAA 231600Z AUTO 12002KT 6SM 21/13 A2971 RMK T02100130 IEM_DS3505
ZBAA,2004-05-23 17:00,ZBAA 231700Z AUTO 07002KT 6SM 20/13 A2971 RMK T02000130 IEM_DS3505
ZBAA,2004-05-23 18:00,ZBAA 231800Z AUTO 18002KT 9SM 21/11 A2971 RMK SLP055 T02130108 52001 IEM_DS3505
ZBAA,2004-05-23 19:00,ZBAA 231900Z AUTO 00000KT 5SM 19/13 A2971 RMK T01900130 IEM_DS3505
ZBAA,2004-05-23 20:00,ZBAA 232000Z AUTO 00000KT 5SM 17/12 A2971 RMK T01700120 IEM_DS3505
ZBAA,2004-05-23 21:00,ZBAA 232100Z AUTO 27002KT 6SM 19/12 A2974 RMK SLP061 T01900116 52006 IEM_DS3505
ZBAA,2004-05-23 22:00,ZBAA 232200Z AUTO 03002KT 4SM 17/14 A2974 RMK T01700140 IEM_DS3505
ZBAA,2004-05-23 23:00,ZBAA 232300Z AUTO 00000KT 4SM 20/15 A2977 RMK T02000150 IEM_DS3505
ZBAA,2004-05-24 00:00,ZBAA 240000Z AUTO 07004KT 6SM 22/12 A2977 RMK SLP071 T02210121 52010 IEM_DS3505
ZBAA,2004-05-24 01:00,ZBAA 240100Z AUTO 09004KT 24/16 A2977 RMK T02400160 IEM_DS3505
ZBAA,2004-05-24 02:00,ZBAA 240200Z AUTO 11004KT 25/16 A2974 RMK T02500160 IEM_DS3505
ZBAA,2004-05-24 03:00,ZBAA 240300Z AUTO 11004KT 7SM 27/13 A2974 RMK SLP062 T02740134 57009 IEM_DS3505
ZBAA,2004-05-24 04:00,ZBAA 240400Z AUTO 14006KT 29/17 A2971 RMK T02900170 IEM_DS3505
ZBAA,2004-05-24 05:00,ZBAA 240500Z AUTO 16008KT 30/17 A2968 RMK T03000170 IEM_DS3505
ZBAA,2004-05-24 06:00,ZBAA 240600Z AUTO 20010KT 12SM 31/14 A2968 RMK SLP039 T03130136 57023 IEM_DS3505
ZBAA,2004-05-24 07:00,ZBAA 240700Z AUTO 16006KT 32/18 A2965 RMK T03200180 IEM_DS3505
ZBAA,2004-05-24 08:00,ZBAA 240800Z AUTO 17008KT 33/16 A2962 RMK T03300160 IEM_DS3505
ZBAA,2004-05-24 09:00,ZBAA 240900Z AUTO 22008KT 9SM 33/13 A2962 RMK SLP020 T03290130 57019 IEM_DS3505
ZBAA,2004-05-24 10:00,ZBAA 241000Z AUTO 18006KT 31/17 A2959 RMK T03100170 IEM_DS3505
ZBAA,2004-05-24 11:00,ZBAA 241100Z AUTO 18004KT 29/17 A2962 RMK T02900170 IEM_DS3505
ZBAA,2004-05-24 12:00,ZBAA 241200Z AUTO 20004KT 9SM 30/15 A2962 RMK SLP026 T02990149 52006 IEM_DS3505
ZBAA,2004-05-24 13:00,ZBAA 241300Z AUTO 16004KT 27/17 A2965 RMK T02700170 IEM_DS3505
ZBAA,2004-05-24 14:00,ZBAA 241400Z AUTO 16006KT 27/17 A2965 RMK T02700170 IEM_DS3505
ZBAA,2004-05-24 15:00,ZBAA 241500Z AUTO 22010KT 12SM 27/13 A2965 RMK SLP032 T02740126 52006 IEM_DS3505
ZBAA,2004-05-24 16:00,ZBAA 241600Z AUTO 17008KT 5SM 26/16 A2965 RMK T02600160 IEM_DS3505
ZBAA,2004-05-24 17:00,ZBAA 241700Z AUTO 15006KT 5SM 25/16 A2962 RMK T02500160 IEM_DS3505
ZBAA,2004-05-24 18:00,ZBAA 241800Z AUTO 14008KT 6SM 24/16 A2962 RMK T02400160 IEM_DS3505
ZBAA,2004-05-24 19:00,ZBAA 241900Z AUTO 13010KT 6SM 23/16 A2959 RMK T02300160 IEM_DS3505
ZBAA,2004-05-24 20:00,ZBAA 242000Z AUTO 14006KT 6SM 22/16 A2962 RMK T02200160 IEM_DS3505
ZBAA,2004-05-24 21:00,ZBAA 242100Z AUTO 20004KT 6SM 22/13 A2962 RMK SLP021 T02250127 57002 IEM_DS3505
ZBAA,2004-05-24 22:00,ZBAA 242200Z AUTO 12004KT 6SM 21/16 A2962 RMK T02100160 IEM_DS3505
ZBAA,2004-05-24 23:00,ZBAA 242300Z AUTO 15002KT 6SM 22/17 A2965 RMK T02200170 IEM_DS3505
ZBAA,2004-05-25 00:00,ZBAA 250000Z AUTO 25004KT 7SM 24/13 A2968 RMK SLP046 T02410127 52025 IEM_DS3505
ZBAA,2004-05-25 01:00,ZBAA 250100Z AUTO 31016G27KT 4SM 25/12 A2968 RMK T02500120 IEM_DS3505
ZBAA,2004-05-25 02:00,ZBAA 250200Z AUTO 31019G31KT 7SM 24/11 A2971 RMK T02400110 IEM_DS3505
ZBAA,2004-05-25 03:00,ZBAA 250300Z AUTO 36012KT 19SM 20/14 A2977 RMK SLP055 T01950139 52008 IEM_DS3505
ZBAA,2004-05-25 04:00,ZBAA 250400Z AUTO 34014KT 7SM 18/17 A2974 RMK T01800170 IEM_DS3505
ZBAA,2004-05-25 05:00,ZBAA 250500Z AUTO 36008KT 7SM 18/16 A2977 RMK T01800160 IEM_DS3505
ZBAA,2004-05-25 06:00,ZBAA 250600Z AUTO 36004KT 16SM 17/14 A2980 RMK 60024 SLP080 T01720145 52025 IEM_DS3505
ZBAA,2004-05-25 07:00,ZBAA 250700Z AUTO 01010KT 7SM 17/16 A2980 RMK T01700160 IEM_DS3505
ZBAA,2004-05-25 08:00,ZBAA 250800Z AUTO 01008KT 7SM 17/16 A2977 RMK T01700160 IEM_DS3505
ZBAA,2004-05-25 09:00,ZBAA 250900Z AUTO 02006KT 19SM 18/14 A2980 RMK SLP083 T01810136 52003 IEM_DS3505
ZBAA,2004-05-25 10:00,ZBAA 251000Z AUTO 01010KT 7SM 17/15 A2983 RMK T01700150 IEM_DS3505
ZBAA,2004-05-25 11:00,ZBAA 251100Z AUTO 36014G23KT 7SM 17/14 A2985 RMK T01700140 IEM_DS3505
ZBAA,2004-05-25 12:00,ZBAA 251200Z AUTO 04008KT 19SM 18/12 A2985 RMK 60012 SLP109 T01800116 52026 IEM_DS3505
ZBAA,2004-05-25 13:00,ZBAA 251300Z AUTO 01008KT 6SM 18/12 A2991 RMK T01800120 IEM_DS3505
ZBAA,2004-05-25 14:00,ZBAA 251400Z AUTO 36006KT 6SM 17/12 A2991 RMK T01700120 IEM_DS3505
ZBAA,2004-05-25 15:00,ZBAA 251500Z AUTO 04004KT 19SM 18/09 A2994 RMK SLP138 T01750086 52028 IEM_DS3505
ZBAA,2004-05-25 16:00,ZBAA 251600Z AUTO 34004KT 6SM 15/09 A2994 RMK T01500090 IEM_DS3505
ZBAA,2004-05-25 17:00,ZBAA 251700Z AUTO 6SM 14/11 A2994 RMK T01400110 IEM_DS3505
ZBAA,2004-05-25 18:00,ZBAA 251800Z AUTO 04006KT 19SM 16/07 A2991 RMK SLP130 T01590072 57008 IEM_DS3505
ZBAA,2004-05-25 19:00,ZBAA 251900Z AUTO 35002KT 6SM 13/09 A2994 RMK T01300090 IEM_DS3505
ZBAA,2004-05-25 20:00,ZBAA 252000Z AUTO 34006KT 6SM 14/10 A2997 RMK T01400100 IEM_DS3505
ZBAA,2004-05-25 21:00,ZBAA 252100Z AUTO 00000KT 19SM 16/07 A2997 RMK 70035 SLP153 T01630073 52023 IEM_DS3505
ZBAA,2004-05-25 22:00,ZBAA 252200Z AUTO 29006KT 6SM 15/10 A3000 RMK T01500100 IEM_DS3505
ZBAA,2004-05-25 23:00,ZBAA 252300Z AUTO 34008KT 6SM 16/10 A3000 RMK T01600100 IEM_DS3505
ZBAA,2004-05-26 00:00,ZBAA 260000Z AUTO 04006KT 19SM 18/06 A3000 RMK 70035 SLP161 T01830062 52008 IEM_DS3505
ZBAA,2004-05-26 01:00,ZBAA 260100Z AUTO 35008KT 6SM 20/10 A3000 RMK T02000100 IEM_DS3505
ZBAA,2004-05-26 02:00,ZBAA 260200Z AUTO 01006KT 6SM 21/09 A3000 RMK T02100090 IEM_DS3505
ZBAA,2004-05-26 03:00,ZBAA 260300Z AUTO 07010KT 12SM 23/05 A3000 RMK SLP152 T02260047 57008 IEM_DS3505
ZBAA,2004-05-26 04:00,ZBAA 260400Z AUTO 6SM 24/09 A2997 RMK T02400090 IEM_DS3505
ZBAA,2004-05-26 05:00,ZBAA 260500Z AUTO 12006KT 6SM 24/11 A2994 RMK T02400110 IEM_DS3505
ZBAA,2004-05-26 06:00,ZBAA 260600Z AUTO 11010KT 19SM 24/09 A2994 RMK SLP135 T02410089 57017 IEM_DS3505
ZBAA,2004-05-26 07:00,ZBAA 260700Z AUTO 18004KT 6SM 24/13 A2994 RMK T02400130 IEM_DS3505
ZBAA,2004-05-26 08:00,ZBAA 260800Z AUTO 18006KT 6SM 24/14 A2991 RMK T02400140 IEM_DS3505
ZBAA,2004-05-26 09:00,ZBAA 260900Z AUTO 16006KT 19SM 24/10 A2991 RMK SLP124 T02400100 57011 IEM_DS3505
ZBAA,2004-05-26 10:00,ZBAA 261000Z AUTO 16004KT 6SM 23/14 A2991 RMK T02300140 IEM_DS3505
ZBAA,2004-05-26 11:00,ZBAA 261100Z AUTO 14004KT 6SM 22/14 A2991 RMK T02200140 IEM_DS3505
ZBAA,2004-05-26 12:00,ZBAA 261200Z AUTO 20004KT 19SM 21/12 A2994 RMK SLP134 T02140117 52010 IEM_DS3505
ZBAA,2004-05-26 13:00,ZBAA 261300Z AUTO 15002KT 6SM 19/15 A2994 RMK T01900150 IEM_DS3505
ZBAA,2004-05-26 14:00,ZBAA 261400Z AUTO 17002KT 6SM 19/15 A2997 RMK T01900150 IEM_DS3505
ZBAA,2004-05-26 15:00,ZBAA 261500Z AUTO 18004KT 9SM 19/14 A2997 RMK SLP141 T01920136 52007 IEM_DS3505
ZBAA,2004-05-26 16:00,ZBAA 261600Z AUTO 12006KT 3SM 18/16 A2994 RMK T01800160 IEM_DS3505
ZBAA,2004-05-26 17:00,ZBAA 261700Z AUTO 15004KT 3SM 17/15 A2994 RMK T01700150 IEM_DS3505
ZBAA,2004-05-26 18:00,ZBAA 261800Z AUTO 11004KT 7SM 18/14 A2991 RMK SLP127 T01770138 57014 IEM_DS3505
ZBAA,2004-05-26 20:00,ZBAA 262000Z AUTO 18004KT 3SM 17/14 A2991 RMK T01700140 IEM_DS3505
ZBAA,2004-05-26 21:00,ZBAA 262100Z AUTO 25004KT 7SM 17/12 A2991 RMK SLP125 T01720123 57002 IEM_DS3505
ZBAA,2004-05-26 22:00,ZBAA 262200Z AUTO 00000KT 3SM 17/15 A2991 RMK T01700150 IEM_DS3505
ZBAA,2004-05-26 23:00,ZBAA 262300Z AUTO 05002KT 2 1/2SM 17/16 A2991 RMK T01700160 IEM_DS3505
ZBAA,2004-05-27 00:00,ZBAA 270000Z AUTO 11006KT 7SM 18/12 A2991 RMK SLP125 T01850118 54000 IEM_DS3505
ZBAA,2004-05-27 01:00,ZBAA 270100Z AUTO 16006KT 5SM 19/14 A2991 RMK T01900140 IEM_DS3505
ZBAA,2004-05-27 01:30,ZBAA 270130Z AUTO 16004KT 5SM 19/14 A2991 RMK T01900140 IEM_DS3505
ZBAA,2004-05-27 02:00,ZBAA 270200Z AUTO 14004KT 5SM 19/13 A2988 RMK T01900130 IEM_DS3505
ZBAA,2004-05-27 03:00,ZBAA 270300Z AUTO 22002KT 7SM 20/11 A2988 RMK SLP118 T02000110 57007 IEM_DS3505
ZBAA,2004-05-27 04:00,ZBAA 270400Z AUTO 16006KT 21/14 A2985 RMK T02100140 IEM_DS3505
ZBAA,2004-05-27 05:00,ZBAA 270500Z AUTO 17004KT 22/15 A2985 RMK T02200150 IEM_DS3505
ZBAA,2004-05-27 06:00,ZBAA 270600Z AUTO 25002KT 7SM 22/12 A2983 RMK SLP094 T02170120 57024 IEM_DS3505
ZBAA,2004-05-27 07:00,ZBAA 270700Z AUTO 17006KT 5SM 22/14 A2980 RMK T02200140 IEM_DS3505
ZBAA,2004-05-27 08:00,ZBAA 270800Z AUTO 15008KT 5SM 22/15 A2977 RMK T02200150 IEM_DS3505
ZBAA,2004-05-27 09:00,ZBAA 270900Z AUTO 20008KT 7SM 22/13 A2977 RMK SLP079 T02240129 57015 IEM_DS3505
ZBAA,2004-05-27 10:00,ZBAA 271000Z AUTO 17006KT 5SM 22/15 A2977 RMK T02200150 IEM_DS3505
ZBAA,2004-05-27 11:00,ZBAA 271100Z AUTO 15006KT 5SM 21/15 A2977 RMK T02100150 IEM_DS3505
ZBAA,2004-05-27 12:00,ZBAA 271200Z AUTO 18004KT 9SM 21/13 A2977 RMK SLP078 T02070132 57001 IEM_DS3505
ZBAA,2004-05-27 13:00,ZBAA 271300Z AUTO 13006KT 4SM 19/16 A2980 RMK T01900160 IEM_DS3505
ZBAA,2004-05-27 14:00,ZBAA 271400Z AUTO 14006KT 3SM 19/16 A2980 RMK T01900160 IEM_DS3505
ZBAA,2004-05-27 15:00,ZBAA 271500Z AUTO 14002KT 7SM 20/14 A2980 RMK SLP081 T02010142 52003 IEM_DS3505
ZBAA,2004-05-27 16:00,ZBAA 271600Z AUTO 12006KT 3SM 19/17 A2977 RMK T01900170 IEM_DS3505
ZBAA,2004-05-27 17:00,ZBAA 271700Z AUTO 12004KT 2 1/2SM 18/17 A2977 RMK T01800170 IEM_DS3505
ZBAA,2004-05-27 18:00,ZBAA 271800Z AUTO 11002KT 6SM 19/14 A2974 RMK SLP063 T01900143 57018 IEM_DS3505
ZBAA,2004-05-27 19:00,ZBAA 271900Z AUTO 00000KT 1 1/4SM 18/17 A2974 RMK T01800170 IEM_DS3505
ZBAA,2004-05-27 20:00,ZBAA 272000Z AUTO 00000KT 1 1/4SM 17/17 A2974 RMK T01700170 IEM_DS3505
ZBAA,2004-05-27 21:00,ZBAA 272100Z AUTO 04002KT 3SM 18/15 A2974 RMK SLP062 T01760147 57001 IEM_DS3505
ZBAA,2004-05-27 22:00,ZBAA 272200Z AUTO 32002KT 1SM 17/16 A2974 RMK T01700160 IEM_DS3505
ZBAA,2004-05-27 23:00,ZBAA 272300Z AUTO 33004KT 1 1/4SM 19/17 A2974 RMK T01900170 IEM_DS3505
ZBAA,2004-05-28 00:00,ZBAA 280000Z AUTO 27002KT 2 1/2SM 21/16 A2974 RMK SLP069 T02090157 52007 IEM_DS3505
ZBAA,2004-05-28 01:00,ZBAA 280100Z AUTO 2SM 22/17 A2974 RMK T02200170 IEM_DS3505
ZBAA,2004-05-28 02:00,ZBAA 280200Z AUTO 19004KT 2SM 24/18 A2971 RMK T02400180 IEM_DS3505
ZBAA,2004-05-28 03:00,ZBAA 280300Z AUTO 25004KT 6SM 26/15 A2971 RMK SLP058 T02640148 57011 IEM_DS3505
ZBAA,2004-05-28 04:00,ZBAA 280400Z AUTO 13002KT 2 1/2SM 28/18 A2968 RMK T02800180 IEM_DS3505
ZBAA,2004-05-28 05:00,ZBAA 280500Z AUTO 14006KT 2 1/2SM 30/18 A2965 RMK T03000180 IEM_DS3505
ZBAA,2004-05-28 06:00,ZBAA 280600Z AUTO 22008KT 7SM 30/14 A2965 RMK SLP033 T03050142 57024 IEM_DS3505
ZBAA,2004-05-28 07:00,ZBAA 280700Z AUTO 15008KT 6SM 33/14 A2962 RMK T03300140 IEM_DS3505
ZBAA,2004-05-28 08:00,ZBAA 280800Z AUTO 21010KT 6SM 32/16 A2962 RMK T03200160 IEM_DS3505
ZBAA,2004-05-28 09:00,ZBAA 280900Z AUTO 22014KT 12SM 31/12 A2959 RMK SLP022 T03090123 57011 IEM_DS3505
ZBAA,2004-05-28 10:00,ZBAA 281000Z AUTO 23010KT 7SM 30/15 A2965 RMK T03000150 IEM_DS3505
ZBAA,2004-05-28 11:00,ZBAA 281100Z AUTO 24012KT 7SM 28/16 A2968 RMK T02800160 IEM_DS3505
ZBAA,2004-05-28 12:00,ZBAA 281200Z AUTO 27006KT 7SM 24/17 A2971 RMK 60008 SLP058 T02390172 52035 IEM_DS3505
ZBAA,2004-05-28 13:00,ZBAA 281300Z AUTO 30008KT 6SM 26/10 A2974 RMK T02600100 IEM_DS3505
ZBAA,2004-05-28 13:30,ZBAA 281330Z AUTO 32010KT 6SM 26/10 A2977 RMK T02600100 IEM_DS3505
ZBAA,2004-05-28 14:00,ZBAA 281400Z AUTO 36006KT 6SM 24/12 A2977 RMK T02400120 IEM_DS3505
ZBAA,2004-05-28 15:00,ZBAA 281500Z AUTO 34004KT 12SM 25/07 A2977 RMK SLP075 T02470069 52018 IEM_DS3505
ZBAA,2004-05-28 16:00,ZBAA 281600Z AUTO 33012G21KT 7SM 25/10 A2980 RMK T02500100 IEM_DS3505
ZBAA,2004-05-28 17:00,ZBAA 281700Z AUTO 31012KT 6SM 25/09 A2980 RMK T02500090 IEM_DS3505
ZBAA,2004-05-28 18:00,ZBAA 281800Z AUTO 34006KT 12SM 24/07 A2980 RMK SLP093 T02370074 52018 IEM_DS3505
ZBAA,2004-05-28 19:00,ZBAA 281900Z AUTO 6SM 22/10 A2983 RMK T02200100 IEM_DS3505
ZBAA,2004-05-28 20:00,ZBAA 282000Z AUTO 35008KT 6SM 20/11 A2985 RMK T02000110 IEM_DS3505
ZBAA,2004-05-28 21:00,ZBAA 282100Z AUTO 02004KT 12SM 22/08 RMK 70007 SLP116 T02210075 52023 IEM_DS3505
ZBAA,2004-05-28 22:00,ZBAA 282200Z AUTO 36004KT 6SM 19/08 A2991 RMK T01900080 IEM_DS3505
ZBAA,2004-05-28 23:00,ZBAA 282300Z AUTO 02002KT 6SM 20/10 A2994 RMK T02000100 IEM_DS3505
ZBAA,2004-05-29 00:00,ZBAA 290000Z AUTO 02006KT 16SM 22/03 A2994 RMK 60000 70007 SLP131 T02220034 52014 IEM_DS3505
ZBAA,2004-05-29 01:00,ZBAA 290100Z AUTO 36006KT 6SM 23/07 A2994 RMK T02300070 IEM_DS3505
ZBAA,2004-05-29 02:00,ZBAA 290200Z AUTO 01004KT 6SM 24/06 A2994 RMK T02400060 IEM_DS3505
ZBAA,2004-05-29 03:00,ZBAA 290300Z AUTO 07002KT 19SM 26/04 A2994 RMK SLP137 T02550035 52006 IEM_DS3505
ZBAA,2004-05-29 04:00,ZBAA 290400Z AUTO 6SM 25/06 A2991 RMK T02500060 IEM_DS3505
ZBAA,2004-05-29 05:00,ZBAA 290500Z AUTO 6SM 27/05 A2988 RMK T02700050 IEM_DS3505
ZBAA,2004-05-29 06:00,ZBAA 290600Z AUTO 16004KT 19SM 27/01 A2985 RMK SLP109 T02690014 57028 IEM_DS3505
ZBAA,2004-05-29 07:00,ZBAA 290700Z AUTO 21008KT 6SM 27/06 A2983 RMK T02700060 IEM_DS3505
ZBAA,2004-05-29 08:00,ZBAA 290800Z AUTO 19012KT 6SM 26/06 A2983 RMK T02600060 IEM_DS3505
ZBAA,2004-05-29 09:00,ZBAA 290900Z AUTO 20012KT 16SM 23/10 A2983 RMK SLP098 T02330100 57011 IEM_DS3505
ZBAA,2004-05-29 10:00,ZBAA 291000Z AUTO 19012KT 6SM 23/09 A2980 RMK T02300090 IEM_DS3505
ZBAA,2004-05-29 11:00,ZBAA 291100Z AUTO 19012KT 6SM 23/12 A2983 RMK T02300120 IEM_DS3505
ZBAA,2004-05-29 12:00,ZBAA 291200Z AUTO 22010KT 12SM 21/11 A2983 RMK SLP102 T02110114 52004 IEM_DS3505
ZBAA,2004-05-29 13:00,ZBAA 291300Z AUTO 18006KT 6SM 21/12 A2985 RMK T02100120 IEM_DS3505
ZBAA,2004-05-29 14:00,ZBAA 291400Z AUTO 15008KT 6SM 20/13 A2985 RMK T02000130 IEM_DS3505
ZBAA,2004-05-29 15:00,ZBAA 291500Z AUTO 22006KT 12SM 20/12 A2983 RMK SLP098 T01980118 57004 IEM_DS3505
ZBAA,2004-05-29 16:00,ZBAA 291600Z AUTO 12004KT 6SM 18/14 A2983 RMK T01800140 IEM_DS3505
ZBAA,2004-05-29 18:00,ZBAA 291800Z AUTO 32004KT 12SM 19/11 A2985 RMK SLP101 T01890112 52003 IEM_DS3505
ZBAA,2004-05-29 19:00,ZBAA 291900Z AUTO 35004KT 5SM 14/12 A2985 RMK T01400120 IEM_DS3505
ZBAA,2004-05-29 20:00,ZBAA 292000Z AUTO 6SM 16/12 A2985 RMK T01600120 IEM_DS3505
ZBAA,2004-05-29 21:00,ZBAA 292100Z AUTO 36006KT 19SM 21/01 A2985 RMK SLP114 T02100013 52013 IEM_DS3505
ZBAA,2004-05-29 22:00,ZBAA 292200Z AUTO 31014KT 6SM 20/03 A2991 RMK T02000030 IEM_DS3505
ZBAA,2004-05-29 23:00,ZBAA 292300Z AUTO 31016KT 6SM 22/03 A2994 RMK T02200030 IEM_DS3505
ZBAA,2004-05-30 00:00,ZBAA 300000Z AUTO 34008KT 19SM 22/M03 A2994 RMK SLP145 T02201026 52031 IEM_DS3505
ZBAA,2004-05-30 01:00,ZBAA 300100Z AUTO 34016G25KT 6SM 24/00 A2997 RMK T02400000 IEM_DS3505
ZBAA,2004-05-30 02:00,ZBAA 300200Z AUTO 36010KT 6SM 24/02 A2997 RMK T02400020 IEM_DS3505
ZBAA,2004-05-30 03:00,ZBAA 300300Z AUTO 36012KT 19SM 24/M04 A2997 RMK SLP151 T02441038 52006 IEM_DS3505
ZBAA,2004-05-30 04:00,ZBAA 300400Z AUTO 33014G23KT 6SM 27/00 A2997 RMK T02700000 IEM_DS3505
ZBAA,2004-05-30 05:00,ZBAA 300500Z AUTO 35014KT 6SM 27/M01 A2994 RMK T02701010 IEM_DS3505
ZBAA,2004-05-30 06:00,ZBAA 300600Z AUTO 34014G29KT 19SM 27/M06 A2994 RMK SLP140 T02691060 4////0173 57011 IEM_DS3505
ZBAA,2004-05-30 06:30,ZBAA 300630Z AUTO 32016G27KT 6SM 28/M02 A2994 RMK T02801020 IEM_DS3505
ZBAA,2004-05-30 07:00,ZBAA 300700Z AUTO 34016G25KT 6SM 27/M03 A2994 RMK T02701030 IEM_DS3505
ZBAA,2004-05-30 08:00,ZBAA 300800Z AUTO 34017KT 6SM 27/M03 A2994 RMK T02701030 IEM_DS3505
ZBAA,2004-05-30 09:00,ZBAA 300900Z AUTO 36010KT 19SM 27/M06 A2994 RMK SLP134 T02721057 57006 IEM_DS3505
ZBAA,2004-05-30 10:00,ZBAA 301000Z AUTO 33014KT 6SM 27/M03 A2994 RMK T02701030 IEM_DS3505
ZBAA,2004-05-30 11:00,ZBAA 301100Z AUTO 32012KT 6SM 26/M04 A2994 RMK T02601040 IEM_DS3505
ZBAA,2004-05-30 12:00,ZBAA 301200Z AUTO 36002KT 19SM 24/M06 A2997 RMK SLP145 T02431058 52011 IEM_DS3505
ZBAA,2004-05-30 13:00,ZBAA 301300Z AUTO 35008KT 6SM 22/M03 A2997 RMK T02201030 IEM_DS3505
ZBAA,2004-05-30 14:00,ZBAA 301400Z AUTO 36008KT 6SM 21/M02 A3000 RMK T02101020 IEM_DS3505
ZBAA,2004-05-30 15:00,ZBAA 301500Z AUTO 27002KT 19SM 19/M01 A3000 RMK SLP163 T01931006 52018 IEM_DS3505
ZBAA,2004-05-30 16:00,ZBAA 301600Z AUTO 28006KT 6SM 19/00 A3000 RMK T01900000 IEM_DS3505
ZBAA,2004-05-30 17:00,ZBAA 301700Z AUTO 27006KT 6SM 17/01 A3000 RMK T01700010 IEM_DS3505
ZBAA,2004-05-30 18:00,ZBAA 301800Z AUTO 29002KT 9SM 18/02 A3000 RMK SLP162 T01760016 57001 IEM_DS3505
ZBAA,2004-05-30 19:00,ZBAA 301900Z AUTO 28004KT 6SM 16/03 A3003 RMK T01600030 IEM_DS3505
ZBAA,2004-05-30 20:00,ZBAA 302000Z AUTO 29006KT 6SM 14/04 A3000 RMK T01400040 IEM_DS3505
ZBAA,2004-05-30 21:00,ZBAA 302100Z AUTO 29002KT 12SM 17/02 A3000 RMK SLP162 T01670016 54000 IEM_DS3505
ZBAA,2004-05-30 22:00,ZBAA 302200Z AUTO 28002KT 6SM 17/03 A3003 RMK T01700030 IEM_DS3505
ZBAA,2004-05-31 00:00,ZBAA 310000Z AUTO 27006KT 19SM 24/M00 A3003 RMK SLP168 T02391004 52006 IEM_DS3505
ZBAA,2004-05-31 01:00,ZBAA 310100Z AUTO 30004KT 6SM 26/01 A3003 RMK T02600010 IEM_DS3505
ZBAA,2004-05-31 02:00,ZBAA 310200Z AUTO 29004KT 6SM 28/M01 A3003 RMK T02801010 IEM_DS3505
ZBAA,2004-05-31 03:00,ZBAA 310300Z AUTO 25002KT 19SM 28/M03 A3000 RMK SLP160 T02841026 57008 IEM_DS3505
ZBAA,2004-05-31 04:00,ZBAA 310400Z AUTO 26006G16KT 6SM 30/00 A2997 RMK T03000000 IEM_DS3505
ZBAA,2004-05-31 05:00,ZBAA 310500Z AUTO 21008KT 6SM 31/00 A2994 RMK T03100000 IEM_DS3505
ZBAA,2004-05-31 06:00,ZBAA 310600Z AUTO 22010KT 19SM 31/M01 A2991 RMK SLP131 T03091006 57029 IEM_DS3505
ZBAA,2004-05-31 07:00,ZBAA 310700Z AUTO 20010KT 6SM 32/02 A2988 RMK T03200020 IEM_DS3505
ZBAA,2004-05-31 08:00,ZBAA 310800Z AUTO 19012KT 6SM 32/04 A2988 RMK T03200040 IEM_DS3505
ZBAA,2004-05-31 09:00,ZBAA 310900Z AUTO 22012KT 19SM 31/M00 A2985 RMK SLP111 T03121004 57020 IEM_DS3505
ZBAA,2004-05-31 10:00,ZBAA 311000Z AUTO 20012KT 6SM 31/03 A2985 RMK T03100030 IEM_DS3505
ZBAA,2004-05-31 11:00,ZBAA 311100Z AUTO 20012G21KT 6SM 29/05 A2985 RMK T02900050 IEM_DS3505
ZBAA,2004-05-31 12:00,ZBAA 311200Z AUTO 22008KT 19SM 27/04 A2985 RMK SLP115 T02710042 52004 IEM_DS3505
ZBAA,2004-05-31 13:00,ZBAA 311300Z AUTO 19010KT 6SM 27/07 A2988 RMK T02700070 IEM_DS3505
ZBAA,2004-05-31 14:00,ZBAA 311400Z AUTO 20006KT 6SM 26/07 A2991 RMK T02600070 IEM_DS3505
ZBAA,2004-05-31 15:00,ZBAA 311500Z AUTO 22006KT 16SM 24/07 RMK SLP128 T02350072 52013 IEM_DS3505
ZBAA,2004-05-31 16:00,ZBAA 311600Z AUTO 13002KT 6SM 22/09 A2991 RMK T02200090 IEM_DS3505
ZBAA,2004-05-31 17:00,ZBAA 311700Z AUTO 09004KT 6SM 19/10 A2994 RMK T01900100 IEM_DS3505
ZBAA,2004-05-31 18:00,ZBAA 311800Z AUTO 22004KT 12SM 21/08 A2994 RMK SLP132 T02080078 52004 IEM_DS3505
ZBAA,2004-05-31 19:00,ZBAA 311900Z AUTO 01002KT 6SM 16/10 A2994 RMK T01600100 IEM_DS3505
ZBAA,2004-05-31 20:00,ZBAA 312000Z AUTO 07002KT 6SM 16/11 A2994 RMK T01600110 IEM_DS3505
ZBAA,2004-05-31 21:00,ZBAA 312100Z AUTO 27004KT 9SM 19/08 A2997 RMK SLP143 T01920080 52011 IEM_DS3505
ZBAA,2004-05-31 22:00,ZBAA 312200Z AUTO 00000KT 5SM 16/12 A2997 RMK T01600120 IEM_DS3505
ZBAA,2004-05-31 23:00,ZBAA 312300Z AUTO 5SM 20/13 A2997 RMK T02000130 IEM_DS3505
ZBAA,2004-06-01 00:00,ZBAA 010000Z AUTO 22004KT 9SM 23/08 A3000 RMK SLP152 T02330078 52009 IEM_DS3505
ZBAA,2004-06-01 01:00,ZBAA 010100Z AUTO 24/13 A3000 RMK T02400130 IEM_DS3505
ZBAA,2004-06-01 02:00,ZBAA 010200Z AUTO 27/12 A2997 RMK T02700120 IEM_DS3505
ZBAA,2004-06-01 03:00,ZBAA 010300Z AUTO 20006KT 12SM 29/09 A2997 RMK SLP149 T02900087 57003 IEM_DS3505
ZBAA,2004-06-01 04:00,ZBAA 010400Z AUTO 15006KT 31/12 A2997 RMK T03100120 IEM_DS3505
ZBAA,2004-06-01 05:00,ZBAA 010500Z AUTO 18012KT 6SM 33/11 A2994 RMK T03300110 IEM_DS3505
ZBAA,2004-06-01 06:00,ZBAA 010600Z AUTO 20010KT 16SM 33/05 A2991 RMK SLP129 T03270053 57019 IEM_DS3505
ZBAA,2004-06-01 07:00,ZBAA 010700Z AUTO 18012KT 6SM 34/09 A2991 RMK T03400090 IEM_DS3505
ZBAA,2004-06-01 08:00,ZBAA 010800Z AUTO 20012KT 6SM 34/05 A2988 RMK T03400050 IEM_DS3505
ZBAA,2004-06-01 09:00,ZBAA 010900Z AUTO 20012KT 16SM 33/04 A2988 RMK SLP120 T03270045 57010 IEM_DS3505
ZBAA,2004-06-01 10:00,ZBAA 011000Z AUTO 19012KT 6SM 32/09 A2988 RMK T03200090 IEM_DS3505
ZBAA,2004-06-01 11:00,ZBAA 011100Z AUTO 19012KT 6SM 31/06 A2991 RMK T03100060 IEM_DS3505
ZBAA,2004-06-01 12:00,ZBAA 011200Z AUTO 20008KT 12SM 29/05 A2991 RMK SLP135 T02860048 52015 IEM_DS3505
ZBAA,2004-06-01 13:00,ZBAA 011300Z AUTO 18008KT 6SM 26/08 A2994 RMK T02600080 IEM_DS3505
ZBAA,2004-06-01 14:00,ZBAA 011400Z AUTO 18008KT 6SM 25/09 A2997 RMK T02500090 IEM_DS3505
ZBAA,2004-06-01 15:00,ZBAA 011500Z AUTO 20010KT 12SM 24/06 A2997 RMK SLP151 T02420065 52016 IEM_DS3505
ZBAA,2004-06-01 16:00,ZBAA 011600Z AUTO 19010KT 6SM 24/09 A2997 RMK T02400090 IEM_DS3505
ZBAA,2004-06-01 17:00,ZBAA 011700Z AUTO 18008KT 6SM 22/09 A2997 RMK T02200090 IEM_DS3505
ZBAA,2004-06-01 18:00,ZBAA 011800Z AUTO 22006KT 12SM 21/08 A2997 RMK SLP148 T02090075 57003 IEM_DS3505
ZBAA,2004-06-01 19:00,ZBAA 011900Z AUTO 17006KT 6SM 20/10 A2997 RMK T02000100 IEM_DS3505
ZBAA,2004-06-01 20:00,ZBAA 012000Z AUTO 16004KT 6SM 19/10 A2997 RMK T01900100 IEM_DS3505
ZBAA,2004-06-01 21:00,ZBAA 012100Z AUTO 20004KT 12SM 18/09 A2997 RMK SLP149 T01780092 52001 IEM_DS3505
ZBAA,2004-06-01 22:00,ZBAA 012200Z AUTO 10006KT 6SM 17/12 A3000 RMK T01700120 IEM_DS3505
ZBAA,2004-06-01 23:00,ZBAA 012300Z AUTO 11006KT 5SM 20/12 A3000 RMK T02000120 IEM_DS3505
ZBAA,2004-06-02 00:00,ZBAA 020000Z AUTO 16004KT 12SM 22/10 A3003 RMK SLP162 T02150101 52013 IEM_DS3505
ZBAA,2004-06-02 01:00,ZBAA 020100Z AUTO 24/13 A3003 RMK T02400130 IEM_DS3505
ZBAA,2004-06-02 01:30,ZBAA 020130Z AUTO 12004KT 24/13 A3003 RMK T02400130 IEM_DS3505
ZBAA,2004-06-02 02:00,ZBAA 020200Z AUTO 14006KT 26/14 A3003 RMK T02600140 IEM_DS3505
ZBAA,2004-06-02 03:00,ZBAA 020300Z AUTO 22010KT 16SM 28/07 A3000 RMK SLP160 T02760070 57002 IEM_DS3505
ZBAA,2004-06-02 04:00,ZBAA 020400Z AUTO 18010KT 6SM 29/10 A3000 RMK T02900100 IEM_DS3505
ZBAA,2004-06-02 05:00,ZBAA 020500Z AUTO 19012KT 6SM 31/09 A2997 RMK T03100090 IEM_DS3505
ZBAA,2004-06-02 06:00,ZBAA 020600Z AUTO 18012KT 6SM 30/10 A2997 RMK T03000100 IEM_DS3505
ZBAA,2004-06-02 07:00,ZBAA 020700Z AUTO 16010KT 6SM 31/10 A2994 RMK T03100100 IEM_DS3505
ZBAA,2004-06-02 08:00,ZBAA 020800Z AUTO 17010KT 6SM 31/10 A2991 RMK T03100100 IEM_DS3505
ZBAA,2004-06-02 09:00,ZBAA 020900Z AUTO 22006KT 19SM 30/07 A2991 RMK SLP127 T03050071 57014 IEM_DS3505
ZBAA,2004-06-02 10:00,ZBAA 021000Z AUTO 18008KT 6SM 30/11 A2991 RMK T03000110 IEM_DS3505
ZBAA,2004-06-02 11:00,ZBAA 021100Z AUTO 18006KT 6SM 28/10 A2991 RMK T02800100 IEM_DS3505
ZBAA,2004-06-02 12:00,ZBAA 021200Z AUTO 18004KT 19SM 28/08 A2994 RMK SLP135 T02830076 52008 IEM_DS3505
ZBAA,2004-06-02 13:00,ZBAA 021300Z AUTO 13008KT 6SM 24/13 A2997 RMK T02400130 IEM_DS3505
ZBAA,2004-06-02 14:00,ZBAA 021400Z AUTO 13006KT 6SM 23/13 A2997 RMK T02300130 IEM_DS3505
ZBAA,2004-06-02 15:00,ZBAA 021500Z AUTO 18004KT 12SM 24/08 A3000 RMK SLP152 T02390080 52017 IEM_DS3505
ZBAA,2004-06-02 16:00,ZBAA 021600Z AUTO 14004KT 20/14 A3000 RMK T02000140 IEM_DS3505
ZBAA,2004-06-02 17:00,ZBAA 021700Z AUTO 13004KT 4SM 19/14 A3000 RMK T01900140 IEM_DS3505
ZBAA,2004-06-02 18:00,ZBAA 021800Z AUTO 18002KT 9SM 21/07 A2997 RMK SLP151 T02120067 57001 IEM_DS3505
ZBAA,2004-06-02 19:00,ZBAA 021900Z AUTO 14006KT 4SM 17/14 A2997 RMK T01700140 IEM_DS3505
ZBAA,2004-06-02 20:00,ZBAA 022000Z AUTO 04002KT 4SM 17/13 A2997 RMK T01700130 IEM_DS3505
ZBAA,2004-06-02 21:00,ZBAA 022100Z AUTO 20002KT 7SM 19/07 A3000 RMK SLP157 T01860074 52006 IEM_DS3505
ZBAA,2004-06-02 22:00,ZBAA 022200Z AUTO 10002KT 2 1/2SM 16/14 A3003 RMK T01600140 IEM_DS3505
ZBAA,2004-06-02 23:00,ZBAA 022300Z AUTO 12006KT 2 1/2SM 20/14 A3003 RMK T02000140 IEM_DS3505
ZBAA,2004-06-02 23:30,ZBAA 022330Z AUTO 12006KT 2 1/2SM 21/14 A3003 RMK T02100140 IEM_DS3505
ZBAA,2004-06-03 00:00,ZBAA 030000Z AUTO 20004KT 7SM 23/07 A3003 RMK SLP164 T02290071 52007 IEM_DS3505
ZBAA,2004-06-03 01:00,ZBAA 030100Z AUTO 15006KT 3SM 24/14 A3003 RMK T02400140 IEM_DS3505
ZBAA,2004-06-03 02:00,ZBAA 030200Z AUTO 16006KT 27/12 A3003 RMK T02700120 IEM_DS3505
ZBAA,2004-06-03 03:00,ZBAA 030300Z AUTO 22008KT 12SM 28/09 A3003 RMK SLP162 T02820090 57002 IEM_DS3505
ZBAA,2004-06-03 04:00,ZBAA 030400Z AUTO 18010KT 5SM 31/12 A3000 RMK T03100120 IEM_DS3505
ZBAA,2004-06-03 05:00,ZBAA 030500Z AUTO 16012KT 6SM 31/11 A3000 RMK T03100110 IEM_DS3505
ZBAA,2004-06-03 06:00,ZBAA 030600Z AUTO 20016KT 16SM 30/08 A2997 RMK SLP149 T03050077 57013 IEM_DS3505
ZBAA,2004-06-03 07:00,ZBAA 030700Z AUTO 18012KT 6SM 30/11 A2997 RMK T03000110 IEM_DS3505
ZBAA,2004-06-03 09:00,ZBAA 030900Z AUTO 20010KT 16SM 30/08 A2994 RMK SLP138 T03010085 57011 IEM_DS3505
ZBAA,2004-06-03 10:00,ZBAA 031000Z AUTO 18010KT 6SM 30/10 A2994 RMK T03000100 IEM_DS3505
ZBAA,2004-06-03 11:00,ZBAA 031100Z AUTO 18010KT 6SM 28/12 A2994 RMK T02800120 IEM_DS3505
ZBAA,2004-06-03 12:00,ZBAA 031200Z AUTO 20006KT 12SM 28/10 A2997 RMK SLP144 T02750103 52006 IEM_DS3505
ZBAA,2004-06-03 13:00,ZBAA 031300Z AUTO 19006KT 6SM 26/13 A2997 RMK T02600130 IEM_DS3505
ZBAA,2004-06-03 14:00,ZBAA 031400Z AUTO 18004KT 6SM 25/13 A3000 RMK T02500130 IEM_DS3505
ZBAA,2004-06-03 15:00,ZBAA 031500Z AUTO 22002KT 9SM 25/12 A3000 RMK SLP159 T02540116 52015 IEM_DS3505
ZBAA,2004-06-03 16:00,ZBAA 031600Z AUTO 13004KT 5SM 23/14 A3000 RMK T02300140 IEM_DS3505
ZBAA,2004-06-03 17:00,ZBAA 031700Z AUTO 13004KT 5SM 23/14 A3000 RMK T02300140 IEM_DS3505
ZBAA,2004-06-03 18:00,ZBAA 031800Z AUTO 16004KT 9SM 24/11 A3000 RMK SLP153 T02410114 57005 IEM_DS3505
ZBAA,2004-06-03 19:00,ZBAA 031900Z AUTO 10004KT 22/15 A3000 RMK T02200150 IEM_DS3505
ZBAA,2004-06-03 20:00,ZBAA 032000Z AUTO 10004KT 21/14 A3000 RMK T02100140 IEM_DS3505
ZBAA,2004-06-03 21:00,ZBAA 032100Z AUTO 25004KT 9SM 23/11 A3000 RMK SLP160 T02300114 52006 IEM_DS3505
ZBAA,2004-06-03 22:00,ZBAA 032200Z AUTO 06002KT 4SM 21/15 A3003 RMK T02100150 IEM_DS3505
ZBAA,2004-06-03 23:00,ZBAA 032300Z AUTO 00000KT 3SM 22/15 A3003 RMK T02200150 IEM_DS3505
ZBAA,2004-06-04 00:00,ZBAA 040000Z AUTO 25012KT 11SM 24/08 A3006 RMK 70000 SLP176 T02450076 52016 IEM_DS3505
ZBAA,2004-06-04 01:00,ZBAA 040100Z AUTO 23006KT 24/15 A3006 RMK T02400150 IEM_DS3505
ZBAA,2004-06-04 02:00,ZBAA 040200Z AUTO 21010KT 7SM 25/10 A3006 RMK T02500100 IEM_DS3505
ZBAA,2004-06-04 03:00,ZBAA 040300Z AUTO 02004KT 12SM 26/08 A3006 RMK SLP173 T02560082 57003 IEM_DS3505
ZBAA,2004-06-04 04:00,ZBAA 040400Z AUTO 7SM 26/09 A3006 RMK T02600090 IEM_DS3505
ZBAA,2004-06-04 05:00,ZBAA 040500Z AUTO 29004KT 7SM 26/09 A3006 RMK T02600090 IEM_DS3505
ZBAA,2004-06-04 06:00,ZBAA 040600Z AUTO 00000KT 12SM 25/06 A3006 RMK SLP177 T02540056 52004 IEM_DS3505
ZBAA,2004-06-04 07:00,ZBAA 040700Z AUTO 18006KT 7SM 25/10 A3006 RMK T02500100 IEM_DS3505
ZBAA,2004-06-04 08:00,ZBAA 040800Z AUTO 18006KT 6SM 25/10 A3006 RMK T02500100 IEM_DS3505
ZBAA,2004-06-04 09:00,ZBAA 040900Z AUTO 36002KT 16SM 25/07 A3003 RMK SLP171 T02510068 57006 IEM_DS3505
ZBAA,2004-06-04 10:00,ZBAA 041000Z AUTO 00000KT 6SM 25/10 A3003 RMK T02500100 IEM_DS3505
ZBAA,2004-06-04 11:00,ZBAA 041100Z AUTO 00000KT 6SM 24/10 A3003 RMK T02400100 IEM_DS3505
ZBAA,2004-06-04 12:00,ZBAA 041200Z AUTO 11002KT 12SM 24/07 A3003 RMK SLP171 T02350072 54000 IEM_DS3505
ZBAA,2004-06-04 13:00,ZBAA 041300Z AUTO 14002KT 6SM 21/13 A3006 RMK T02100130 IEM_DS3505
ZBAA,2004-06-04 14:00,ZBAA 041400Z AUTO 15002KT 6SM 21/13 A3006 RMK T02100130 IEM_DS3505
ZBAA,2004-06-04 15:00,ZBAA 041500Z AUTO 11002KT 9SM 23/10 A3006 RMK SLP176 T02270098 52005 IEM_DS3505
ZBAA,2004-06-04 16:00,ZBAA 041600Z AUTO 00000KT 6SM 20/13 A3006 RMK T02000130 IEM_DS3505
ZBAA,2004-06-04 17:00,ZBAA 041700Z AUTO 01002KT 6SM 20/14 A3006 RMK T02000140 IEM_DS3505
ZBAA,2004-06-04 18:00,ZBAA 041800Z AUTO 25002KT 9SM 21/11 A3006 RMK SLP177 T02120107 52001 IEM_DS3505
ZBAA,2004-06-04 19:00,ZBAA 041900Z AUTO 13002KT 6SM 18/14 A3006 RMK T01800140 IEM_DS3505
ZBAA,2004-06-04 20:00,ZBAA 042000Z AUTO 36002KT 6SM 19/14 A3006 RMK T01900140 IEM_DS3505
ZBAA,2004-06-04 21:00,ZBAA 042100Z AUTO 29002KT 12SM 21/10 A3006 RMK 70000 SLP172 T02090095 57005 IEM_DS3505
ZBAA,2004-06-04 22:00,ZBAA 042200Z AUTO 35004KT 4SM 18/14 A3006 RMK T01800140 IEM_DS3505
ZBAA,2004-06-04 23:00,ZBAA 042300Z AUTO 01004KT 6SM 20/13 A3006 RMK T02000130 IEM_DS3505
ZBAA,2004-06-05 00:00,ZBAA 050000Z AUTO 11004KT 9SM 23/10 A3006 RMK 70000 SLP177 T02270105 52005 IEM_DS3505
ZBAA,2004-06-05 01:00,ZBAA 050100Z AUTO 36002KT 6SM 22/13 A3006 RMK T02200130 IEM_DS3505
ZBAA,2004-06-05 03:00,ZBAA 050300Z AUTO 18004KT 7SM 26/09 A3006 RMK SLP171 T02580092 57006 IEM_DS3505
ZBAA,2004-06-05 04:00,ZBAA 050400Z AUTO 00000KT 6SM 26/13 A3003 RMK T02600130 IEM_DS3505
ZBAA,2004-06-05 05:00,ZBAA 050500Z AUTO 23004KT 6SM 26/11 A3003 RMK T02600110 IEM_DS3505
ZBAA,2004-06-05 06:00,ZBAA 050600Z AUTO 25008KT 12SM 25/08 A3000 RMK SLP163 T02510077 57008 IEM_DS3505
ZBAA,2004-06-05 07:00,ZBAA 050700Z AUTO 20010G19KT 6SM 24/11 A3000 RMK T02400110 IEM_DS3505
ZBAA,2004-06-05 08:00,ZBAA 050800Z AUTO 19014KT 6SM 24/13 A3000 RMK T02400130 IEM_DS3505
ZBAA,2004-06-05 09:00,ZBAA 050900Z AUTO 20010KT 12SM 22/09 A3000 RMK SLP164 T02200089 52001 IEM_DS3505
ZBAA,2004-06-05 10:00,ZBAA 051000Z AUTO 20010KT 6SM 22/11 A3000 RMK T02200110 IEM_DS3505
ZBAA,2004-06-05 11:00,ZBAA 051100Z AUTO 18002KT 7SM 21/12 A3000 RMK T02100120 IEM_DS3505
ZBAA,2004-06-05 12:00,ZBAA 051200Z AUTO 20004KT 12SM 21/09 A3000 RMK SLP159 T02110091 57005 IEM_DS3505
ZBAA,2004-06-05 13:00,ZBAA 051300Z AUTO 00000KT 6SM 19/14 A3000 RMK T01900140 IEM_DS3505
ZBAA,2004-06-05 14:00,ZBAA 051400Z AUTO 16004KT 6SM 19/13 A3000 RMK T01900130 IEM_DS3505
ZBAA,2004-06-05 15:00,ZBAA 051500Z AUTO 25008KT 12SM 20/10 A3000 RMK SLP159 T02020095 54000 IEM_DS3505
ZBAA,2004-06-05 16:00,ZBAA 051600Z AUTO 20004KT 7SM 20/13 A3000 RMK T02000130 IEM_DS3505
ZBAA,2004-06-05 17:00,ZBAA 051700Z AUTO 23002KT 7SM 19/14 A2997 RMK T01900140 IEM_DS3505
ZBAA,2004-06-05 18:00,ZBAA 051800Z AUTO 30002KT 6SM 18/13 A2997 RMK T01800130 IEM_DS3505
ZBAA,2004-06-05 19:00,ZBAA 051900Z AUTO 11002KT 7SM 18/15 A2994 RMK T01800150 IEM_DS3505
ZBAA,2004-06-05 20:00,ZBAA 052000Z AUTO 00000KT 6SM 18/15 A2994 RMK T01800150 IEM_DS3505
ZBAA,2004-06-05 21:00,ZBAA 052100Z AUTO 25002KT 9SM 19/11 A2994 RMK 70000 SLP136 T01860107 57008 IEM_DS3505
ZBAA,2004-06-05 22:00,ZBAA 052200Z AUTO 03002KT 6SM 18/15 A2994 RMK T01800150 IEM_DS3505
ZBAA,2004-06-05 23:00,ZBAA 052300Z AUTO 00000KT 5SM 18/15 A2994 RMK T01800150 IEM_DS3505
ZBAA,2004-06-06 00:00,ZBAA 060000Z AUTO 22002KT 12SM 21/10 A2994 RMK 60000 70000 SLP134 T02060098 57002 IEM_DS3505
ZBAA,2004-06-06 01:00,ZBAA 060100Z AUTO 6SM 22/13 A2994 RMK T02200130 IEM_DS3505
ZBAA,2004-06-06 02:00,ZBAA 060200Z AUTO 24006KT 6SM 22/12 A2991 RMK T02200120 IEM_DS3505
ZBAA,2004-06-06 03:00,ZBAA 060300Z AUTO 20010KT 19SM 23/09 A2988 RMK SLP123 T02310092 57011 IEM_DS3505
ZBAA,2004-06-06 04:00,ZBAA 060400Z AUTO 21008KT 6SM 25/12 A2988 RMK T02500120 IEM_DS3505
ZBAA,2004-06-06 05:00,ZBAA 060500Z AUTO 18012KT 6SM 25/13 A2985 RMK T02500130 IEM_DS3505
ZBAA,2004-06-06 06:00,ZBAA 060600Z AUTO 27008KT 19SM 24/11 A2983 RMK SLP099 T02360107 57024 IEM_DS3505
ZBAA,2004-06-06 07:00,ZBAA 060700Z AUTO 17008KT 6SM 25/13 A2980 RMK T02500130 IEM_DS3505
ZBAA,2004-06-06 08:00,ZBAA 060800Z AUTO 18008KT 6SM 25/14 A2980 RMK T02500140 IEM_DS3505
ZBAA,2004-06-06 09:00,ZBAA 060900Z AUTO 20006KT 19SM 25/10 A2977 RMK SLP082 T02530104 57017 IEM_DS3505
ZBAA,2004-06-06 10:00,ZBAA 061000Z AUTO 16008KT 6SM 25/14 A2977 RMK T02500140 IEM_DS3505
ZBAA,2004-06-06 11:00,ZBAA 061100Z AUTO 17008KT 6SM 24/13 A2980 RMK T02400130 IEM_DS3505
ZBAA,2004-06-06 12:00,ZBAA 061200Z AUTO 20008KT 16SM 23/11 A2980 RMK SLP087 T02300111 52005 IEM_DS3505
ZBAA,2004-06-06 13:00,ZBAA 061300Z AUTO 17004KT 6SM 21/14 A2980 RMK T02100140 IEM_DS3505
ZBAA,2004-06-06 14:00,ZBAA 061400Z AUTO 17006KT 6SM 20/14 A2983 RMK T02000140 IEM_DS3505
ZBAA,2004-06-06 15:00,ZBAA 061500Z AUTO 20004KT 12SM 21/12 A2983 RMK SLP091 T02100116 52004 IEM_DS3505
ZBAA,2004-06-06 16:00,ZBAA 061600Z AUTO 14002KT 6SM 19/14 A2983 RMK T01900140 IEM_DS3505
ZBAA,2004-06-06 17:00,ZBAA 061700Z AUTO 00000KT 6SM 18/14 A2983 RMK T01800140 IEM_DS3505
ZBAA,2004-06-06 18:00,ZBAA 061800Z AUTO 22002KT 9SM 19/12 A2980 RMK SLP089 T01930116 57002 IEM_DS3505
ZBAA,2004-06-06 19:00,ZBAA 061900Z AUTO 4SM 16/14 A2980 RMK T01600140 IEM_DS3505
ZBAA,2004-06-06 20:00,ZBAA 062000Z AUTO 03002KT 3SM 15/13 A2983 RMK T01500130 IEM_DS3505
ZBAA,2004-06-06 21:00,ZBAA 062100Z AUTO 09004KT 7SM 17/12 A2983 RMK SLP093 T01710120 52004 IEM_DS3505
ZBAA,2004-06-06 22:00,ZBAA 062200Z AUTO 01002KT 2 1/2SM 16/15 A2983 RMK T01600150 IEM_DS3505
ZBAA,2004-06-06 23:00,ZBAA 062300Z AUTO 01002KT 3SM 19/15 A2983 RMK T01900150 IEM_DS3505
ZBAA,2004-06-07 00:00,ZBAA 070000Z AUTO 07006KT 6SM 21/12 A2985 RMK SLP101 T02140120 52008 IEM_DS3505
ZBAA,2004-06-07 02:00,ZBAA 070200Z AUTO 26/15 A2985 RMK T02600150 IEM_DS3505
ZBAA,2004-06-07 03:00,ZBAA 070300Z AUTO 02004KT 6SM 26/12 A2985 RMK SLP104 T02600118 52003 IEM_DS3505
ZBAA,2004-06-07 04:00,ZBAA 070400Z AUTO 11008KT 5SM 28/15 A2985 RMK T02800150 IEM_DS3505
ZBAA,2004-06-07 05:00,ZBAA 070500Z AUTO 10004KT 6SM 28/15 A2983 RMK T02800150 IEM_DS3505
ZBAA,2004-06-07 06:00,ZBAA 070600Z AUTO 09006KT 12SM 28/10 RMK SLP096 T02840101 57008 IEM_DS3505
ZBAA,2004-06-07 07:00,ZBAA 070700Z AUTO 14010KT 6SM 30/14 A2980 RMK T03000140 IEM_DS3505
ZBAA,2004-06-07 08:00,ZBAA 070800Z AUTO 13010KT 6SM 30/14 A2980 RMK T03000140 IEM_DS3505
ZBAA,2004-06-07 09:00,ZBAA 070900Z AUTO 14010KT 12SM 27/12 A2983 RMK SLP092 T02730118 57004 IEM_DS3505
ZBAA,2004-06-07 10:00,ZBAA 071000Z AUTO 14014KT 6SM 26/15 A2983 RMK T02600150 IEM_DS3505
ZBAA,2004-06-07 11:00,ZBAA 071100Z AUTO 15010KT 5SM 24/16 A2985 RMK T02400160 IEM_DS3505
ZBAA,2004-06-07 12:00,ZBAA 071200Z AUTO 20004KT 12SM 24/12 A2988 RMK SLP116 T02380118 52024 IEM_DS3505
ZBAA,2004-06-07 13:00,ZBAA 071300Z AUTO 17004KT 6SM 21/15 A2991 RMK T02100150 IEM_DS3505
ZBAA,2004-06-07 14:00,ZBAA 071400Z AUTO 12004KT 6SM 22/15 A2991 RMK T02200150 IEM_DS3505
ZBAA,2004-06-07 15:00,ZBAA 071500Z AUTO 14004KT 9SM 22/12 A2991 RMK SLP127 T02200120 52011 IEM_DS3505
ZBAA,2004-06-07 16:00,ZBAA 071600Z AUTO 13004KT 6SM 19/15 A2991 RMK T01900150 IEM_DS3505
ZBAA,2004-06-07 17:00,ZBAA 071700Z AUTO 11004KT 4SM 19/15 A2991 RMK T01900150 IEM_DS3505
ZBAA,2004-06-07 18:00,ZBAA 071800Z AUTO 20002KT 7SM 20/13 A2991 RMK SLP124 T01970127 57003 IEM_DS3505
ZBAA,2004-06-07 19:00,ZBAA 071900Z AUTO 08002KT 3SM 17/15 A2991 RMK T01700150 IEM_DS3505
ZBAA,2004-06-07 20:00,ZBAA 072000Z AUTO 02002KT 3SM 17/15 A2991 RMK T01700150 IEM_DS3505
ZBAA,2004-06-07 21:00,ZBAA 072100Z AUTO 22002KT 6SM 18/13 A2991 RMK SLP124 T01830132 54000 IEM_DS3505
ZBAA,2004-06-07 22:00,ZBAA 072200Z AUTO 04002KT 2SM 18/16 A2991 RMK T01800160 IEM_DS3505
ZBAA,2004-06-07 23:00,ZBAA 072300Z AUTO 09002KT 2SM 19/16 A2991 RMK T01900160 IEM_DS3505
ZBAA,2004-06-08 00:00,ZBAA 080000Z AUTO 27002KT 6SM 23/13 A2991 RMK SLP122 T02260131 57002 IEM_DS3505
ZBAA,2004-06-08 01:00,ZBAA 080100Z AUTO 10002KT 2 1/2SM 24/16 A2988 RMK T02400160 IEM_DS3505
ZBAA,2004-06-08 02:00,ZBAA 080200Z AUTO 18004KT 2 1/2SM 25/17 A2988 RMK T02500170 IEM_DS3505
ZBAA,2004-06-08 03:00,ZBAA 080300Z AUTO 22008KT 9SM 27/12 A2985 RMK SLP109 T02720124 57013 IEM_DS3505
ZBAA,2004-06-08 04:00,ZBAA 080400Z AUTO 18006KT 29/15 A2983 RMK T02900150 IEM_DS3505
ZBAA,2004-06-08 05:00,ZBAA 080500Z AUTO 22006KT 5SM 31/15 A2980 RMK T03100150 IEM_DS3505
ZBAA,2004-06-08 06:00,ZBAA 080600Z AUTO 25010KT 9SM 31/11 A2977 RMK SLP082 T03090113 57026 IEM_DS3505
ZBAA,2004-06-08 07:00,ZBAA 080700Z AUTO 19008KT 6SM 32/15 A2974 RMK T03200150 IEM_DS3505
ZBAA,2004-06-08 08:00,ZBAA 080800Z AUTO 23010KT 6SM 33/15 A2974 RMK T03300150 IEM_DS3505
ZBAA,2004-06-08 09:00,ZBAA 080900Z AUTO 22010KT 12SM 32/12 A2971 RMK SLP059 T03160119 57023 IEM_DS3505
ZBAA,2004-06-08 10:00,ZBAA 081000Z AUTO 21010KT 6SM 31/15 A2968 RMK T03100150 IEM_DS3505
ZBAA,2004-06-08 11:00,ZBAA 081100Z AUTO 20010KT 5SM 30/15 A2971 RMK T03000150 IEM_DS3505
ZBAA,2004-06-08 12:00,ZBAA 081200Z AUTO 09023G29KT 12SM 29/12 A2977 RMK 60000 SLP089 T02890124 52030 IEM_DS3505
ZBAA,2004-06-08 13:00,ZBAA 081300Z AUTO 14012KT 7SM 26/13 A2980 RMK T02600130 IEM_DS3505
ZBAA,2004-06-08 14:00,ZBAA 081400Z AUTO 22008KT 7SM 26/13 A2980 RMK T02600130 IEM_DS3505
ZBAA,2004-06-08 15:00,ZBAA 081500Z AUTO 25008KT 12SM 26/12 A2977 RMK SLP085 T02550124 57004 IEM_DS3505
ZBAA,2004-06-08 16:00,ZBAA 081600Z AUTO 07008KT 7SM 24/14 A2983 RMK T02400140 IEM_DS3505
ZBAA,2004-06-08 17:00,ZBAA 081700Z AUTO 13006KT 7SM 23/15 A2983 RMK T02300150 IEM_DS3505
ZBAA,2004-06-08 18:00,ZBAA 081800Z AUTO 25004KT 12SM 23/12 A2980 RMK SLP090 T02290119 40319//// 52005 IEM_DS3505
ZBAA,2004-06-08 19:00,ZBAA 081900Z AUTO 32008KT 6SM 23/14 A2980 RMK T02300140 IEM_DS3505
ZBAA,2004-06-08 20:00,ZBAA 082000Z AUTO 36002KT 6SM 21/14 A2980 RMK T02100140 IEM_DS3505
ZBAA,2004-06-08 21:00,ZBAA 082100Z AUTO 09002KT 16SM 21/13 A2980 RMK 70000 SLP085 T02130127 57005 IEM_DS3505
ZBAA,2004-06-08 22:00,ZBAA 082200Z AUTO 34006KT 6SM 21/16 A2980 RMK T02100160 IEM_DS3505
ZBAA,2004-06-08 23:00,ZBAA 082300Z AUTO 36006KT 6SM 23/16 A2983 RMK T02300160 IEM_DS3505
ZBAA,2004-06-09 00:00,ZBAA 090000Z AUTO 07004KT 12SM 26/12 A2985 RMK 60000 70000 SLP104 T02650122 52019 IEM_DS3505
ZBAA,2004-06-09 01:00,ZBAA 090100Z AUTO 6SM 29/16 A2985 RMK T02900160 IEM_DS3505
ZBAA,2004-06-09 02:00,ZBAA 090200Z AUTO 6SM 30/16 A2985 RMK T03000160 IEM_DS3505
ZBAA,2004-06-09 03:00,ZBAA 090300Z AUTO 07006KT 16SM 30/12 A2985 RMK SLP105 T03020122 52001 IEM_DS3505
ZBAA,2004-06-09 04:00,ZBAA 090400Z AUTO 12008KT 6SM 33/15 A2985 RMK T03300150 IEM_DS3505
ZBAA,2004-06-09 05:00,ZBAA 090500Z AUTO 13010KT 6SM 34/13 A2985 RMK T03400130 IEM_DS3505
ZBAA,2004-06-09 06:00,ZBAA 090600Z AUTO 11006KT 12SM 34/12 A2983 RMK SLP098 T03380116 57007 IEM_DS3505
ZBAA,2004-06-09 06:30,ZBAA 090630Z AUTO 14010KT 6SM 35/14 A2983 RMK T03500140 IEM_DS3505
ZBAA,2004-06-09 07:00,ZBAA 090700Z AUTO 14008KT 6SM 35/14 A2983 RMK T03500140 IEM_DS3505
ZBAA,2004-06-09 08:00,ZBAA 090800Z AUTO 16006KT 6SM 35/13 A2983 RMK T03500130 IEM_DS3505
ZBAA,2004-06-09 09:00,ZBAA 090900Z AUTO 14006KT 12SM 34/09 A2983 RMK SLP090 T03410087 57008 IEM_DS3505
ZBAA,2004-06-09 10:00,ZBAA 091000Z AUTO 14006KT 6SM 33/14 A2983 RMK T03300140 IEM_DS3505
ZBAA,2004-06-09 11:00,ZBAA 091100Z AUTO 16004KT 6SM 32/14 A2985 RMK T03200140 IEM_DS3505
ZBAA,2004-06-09 12:00,ZBAA 091200Z AUTO 14002KT 12SM 31/09 A2985 RMK SLP107 T03100093 52017 IEM_DS3505
ZBAA,2004-06-09 13:00,ZBAA 091300Z AUTO 17004KT 6SM 28/15 A2988 RMK T02800150 IEM_DS3505
ZBAA,2004-06-09 14:00,ZBAA 091400Z AUTO 14004KT 6SM 25/17 A2991 RMK T02500170 IEM_DS3505
ZBAA,2004-06-09 15:00,ZBAA 091500Z AUTO 18004KT 12SM 28/13 A2991 RMK SLP126 T02760132 52019 IEM_DS3505
ZBAA,2004-06-09 16:00,ZBAA 091600Z AUTO 10002KT 25/17 A2991 RMK T02500170 IEM_DS3505
ZBAA,2004-06-09 17:00,ZBAA 091700Z AUTO 00000KT 23/17 A2994 RMK T02300170 IEM_DS3505
ZBAA,2004-06-09 18:00,ZBAA 091800Z AUTO 07004KT 12SM 25/14 A2994 RMK SLP133 T02470142 52007 IEM_DS3505
ZBAA,2004-06-09 19:00,ZBAA 091900Z AUTO 13002KT 3SM 21/16 A2994 RMK T02100160 IEM_DS3505
ZBAA,2004-06-09 20:00,ZBAA 092000Z AUTO 36002KT 3SM 22/17 A2994 RMK T02200170 IEM_DS3505
ZBAA,2004-06-09 21:00,ZBAA 092100Z AUTO 04004KT 6SM 22/15 A2997 RMK SLP142 T02200149 52009 IEM_DS3505
ZBAA,2004-06-09 22:00,ZBAA 092200Z AUTO 35004KT 5SM 22/16 A2997 RMK T02200160 IEM_DS3505
ZBAA,2004-06-09 23:00,ZBAA 092300Z AUTO 32004KT 5SM 25/16 A2997 RMK T02500160 IEM_DS3505
ZBAA,2004-06-10 00:00,ZBAA 100000Z AUTO 02002KT 12SM 27/14 A3000 RMK SLP151 T02730136 52009 IEM_DS3505
ZBAA,2004-06-10 01:00,ZBAA 100100Z AUTO 01004KT 6SM 29/17 A2997 RMK T02900170 IEM_DS3505
ZBAA,2004-06-10 02:00,ZBAA 100200Z AUTO 6SM 32/16 A2997 RMK T03200160 IEM_DS3505
ZBAA,2004-06-10 03:00,ZBAA 100300Z AUTO 18004KT 16SM 33/12 A2997 RMK SLP145 T03340124 57006 IEM_DS3505
ZBAA,2004-06-10 04:00,ZBAA 100400Z AUTO 18006KT 5SM 35/17 A2997 RMK T03500170 IEM_DS3505
ZBAA,2004-06-10 05:00,ZBAA 100500Z AUTO 18006KT 5SM 37/15 A2994 RMK T03700150 IEM_DS3505
ZBAA,2004-06-10 06:00,ZBAA 100600Z AUTO 22004KT 19SM 37/09 A2991 RMK SLP128 T03680086 57017 IEM_DS3505
ZBAA,2004-06-10 07:00,ZBAA 100700Z AUTO 18006G16KT 6SM 38/11 A2991 RMK T03800110 IEM_DS3505
ZBAA,2004-06-10 08:00,ZBAA 100800Z AUTO 19006KT 6SM 38/11 A2991 RMK T03800110 IEM_DS3505
ZBAA,2004-06-10 09:00,ZBAA 100900Z AUTO 22008KT 19SM 37/07 A2988 RMK SLP117 T03660067 57011 IEM_DS3505
ZBAA,2004-06-10 10:00,ZBAA 101000Z AUTO 19008KT 6SM 36/12 A2988 RMK T03600120 IEM_DS3505
ZBAA,2004-06-10 11:00,ZBAA 101100Z AUTO 18006KT 6SM 34/13 A2991 RMK T03400130 IEM_DS3505
ZBAA,2004-06-10 12:00,ZBAA 101200Z AUTO 22004KT 16SM 33/11 A2991 RMK SLP122 T03300110 52005 IEM_DS3505
ZBAA,2004-06-10 13:00,ZBAA 101300Z AUTO 12004KT 6SM 29/14 A2991 RMK T02900140 IEM_DS3505
ZBAA,2004-06-10 14:00,ZBAA 101400Z AUTO 11004KT 5SM 29/16 A2994 RMK T02900160 IEM_DS3505
ZBAA,2004-06-10 15:00,ZBAA 101500Z AUTO 20006KT 12SM 29/12 A2994 RMK SLP133 T02880118 52011 IEM_DS3505
ZBAA,2004-06-10 16:00,ZBAA 101600Z AUTO 17006KT 5SM 26/15 A2994 RMK T02600150 IEM_DS3505
ZBAA,2004-06-10 17:00,ZBAA 101700Z AUTO 18004KT 5SM 25/15 A2991 RMK T02500150 IEM_DS3505
ZBAA,2004-06-10 18:00,ZBAA 101800Z AUTO 27002KT 9SM 26/12 A2991 RMK SLP127 T02610122 57006 IEM_DS3505
ZBAA,2004-06-10 19:00,ZBAA 101900Z AUTO 00000KT 5SM 22/16 A2994 RMK T02200160 IEM_DS3505
ZBAA,2004-06-10 20:00,ZBAA 102000Z AUTO 34004KT 22/16 A2994 RMK T02200160 IEM_DS3505
ZBAA,2004-06-10 21:00,ZBAA 102100Z AUTO 29002KT 7SM 23/13 A2994 RMK SLP137 T02340133 52010 IEM_DS3505
ZBAA,2004-06-10 22:00,ZBAA 102200Z AUTO 35004KT 5SM 22/16 A2997 RMK T02200160 IEM_DS3505
ZBAA,2004-06-10 23:00,ZBAA 102300Z AUTO 34006KT 5SM 26/15 A2997 RMK T02600150 IEM_DS3505
ZBAA,2004-06-11 00:00,ZBAA 110000Z AUTO 02004KT 9SM 29/13 A2997 RMK SLP147 T02900133 52010 IEM_DS3505
ZBAA,2004-06-11 01:00,ZBAA 110100Z AUTO 36004KT 5SM 31/16 A2997 RMK T03100160 IEM_DS3505
ZBAA,2004-06-11 02:00,ZBAA 110200Z AUTO 36002KT 5SM 33/16 A2997 RMK T03300160 IEM_DS3505
ZBAA,2004-06-11 03:00,ZBAA 110300Z AUTO 11002KT 12SM 35/11 A2994 RMK SLP138 T03530110 57009 IEM_DS3505
ZBAA,2004-06-11 04:00,ZBAA 110400Z AUTO 6SM 37/14 A2994 RMK T03700140 IEM_DS3505
ZBAA,2004-06-11 05:00,ZBAA 110500Z AUTO 16006KT 6SM 38/13 A2994 RMK T03800130 IEM_DS3505
ZBAA,2004-06-11 06:00,ZBAA 110600Z AUTO 22010KT 19SM 38/07 A2991 RMK SLP123 T03810070 57015 IEM_DS3505
ZBAA,2004-06-11 07:00,ZBAA 110700Z AUTO 17008KT 6SM 39/09 A2988 RMK T03900090 IEM_DS3505
ZBAA,2004-06-11 08:00,ZBAA 110800Z AUTO 18008KT 6SM 39/09 A2988 RMK T03900090 IEM_DS3505
ZBAA,2004-06-11 09:00,ZBAA 110900Z AUTO 22010KT 19SM 38/06 A2985 RMK SLP107 T03820061 57016 IEM_DS3505
ZBAA,2004-06-11 10:00,ZBAA 111000Z AUTO 16006KT 6SM 37/11 A2988 RMK T03700110 IEM_DS3505
ZBAA,2004-06-11 11:00,ZBAA 111100Z AUTO 16006KT 6SM 34/12 A2991 RMK T03400120 IEM_DS3505
ZBAA,2004-06-11 12:00,ZBAA 111200Z AUTO 14002G19KT 12SM 35/11 A2997 RMK SLP134 T03500108 52027 IEM_DS3505
ZBAA,2004-06-11 13:00,ZBAA 111300Z AUTO 09016KT 6SM 33/12 A3003 RMK T03300120 IEM_DS3505
ZBAA,2004-06-11 14:00,ZBAA 111400Z AUTO 09004KT 6SM 30/13 A3003 RMK T03000130 IEM_DS3505
ZBAA,2004-06-11 15:00,ZBAA 111500Z AUTO 36004KT 12SM 28/11 A3003 RMK SLP166 T02850111 52032 IEM_DS3505
ZBAA,2004-06-11 16:00,ZBAA 111600Z AUTO 32004KT 6SM 27/13 A3003 RMK T02700130 IEM_DS3505
ZBAA,2004-06-11 17:00,ZBAA 111700Z AUTO 28006KT 6SM 27/13 A3003 RMK T02700130 IEM_DS3505
ZBAA,2004-06-11 18:00,ZBAA 111800Z AUTO 22002KT 12SM 27/12 A3003 RMK SLP169 T02670116 40389//// 52003 IEM_DS3505
ZBAA,2004-06-11 19:00,ZBAA 111900Z AUTO 04002KT 6SM 24/15 A3006 RMK T02400150 IEM_DS3505
ZBAA,2004-06-11 20:00,ZBAA 112000Z AUTO 14002KT 6SM 24/15 A3009 RMK T02400150 IEM_DS3505
ZBAA,2004-06-11 21:00,ZBAA 112100Z AUTO 16006KT 16SM 26/10 A3012 RMK SLP193 T02630101 52024 IEM_DS3505
ZBAA,2004-06-11 22:00,ZBAA 112200Z AUTO 16002KT 6SM 25/17 A3012 RMK T02500170 IEM_DS3505
ZBAA,2004-06-11 23:00,ZBAA 112300Z AUTO 18008KT 6SM 26/14 A3015 RMK T02600140 IEM_DS3505
ZBAA,2004-06-12 00:00,ZBAA 120000Z AUTO 20008KT 19SM 27/09 A3015 RMK SLP212 T02690088 52019 IEM_DS3505
ZBAA,2004-06-12 01:00,ZBAA 120100Z AUTO 17008KT 6SM 28/13 A3018 RMK T02800130 IEM_DS3505
ZBAA,2004-06-12 02:00,ZBAA 120200Z AUTO 17008KT 6SM 29/12 A3015 RMK T02900120 IEM_DS3505
ZBAA,2004-06-12 03:00,ZBAA 120300Z AUTO 18006KT 19SM 30/08 A3015 RMK SLP208 T02970082 57004 IEM_DS3505
ZBAA,2004-06-12 04:00,ZBAA 120400Z AUTO 14006KT 6SM 31/12 A3012 RMK T03100120 IEM_DS3505
ZBAA,2004-06-12 05:00,ZBAA 120500Z AUTO 15008KT 6SM 31/13 A3012 RMK T03100130 IEM_DS3505
ZBAA,2004-06-12 06:00,ZBAA 120600Z AUTO 20008KT 12SM 32/08 A3009 RMK SLP185 T03150085 57023 IEM_DS3505
ZBAA,2004-06-12 07:00,ZBAA 120700Z AUTO 15010KT 6SM 32/13 A3006 RMK T03200130 IEM_DS3505
ZBAA,2004-06-12 08:00,ZBAA 120800Z AUTO 16010KT 6SM 32/12 A3003 RMK T03200120 IEM_DS3505
ZBAA,2004-06-12 09:00,ZBAA 120900Z AUTO 22010KT 16SM 32/07 A3003 RMK SLP165 T03190069 57020 IEM_DS3505
ZBAA,2004-06-12 10:00,ZBAA 121000Z AUTO 19008KT 6SM 31/11 A3003 RMK T03100110 IEM_DS3505
ZBAA,2004-06-12 10:30,ZBAA 121030Z AUTO 19008KT 6SM 31/11 A3000 RMK T03100110 IEM_DS3505
ZBAA,2004-06-12 11:00,ZBAA 121100Z AUTO 18006KT 6SM 29/11 A3000 RMK T02900110 IEM_DS3505
ZBAA,2004-06-12 12:00,ZBAA 121200Z AUTO 22008KT 16SM 28/01 A3000 RMK SLP165 T02770013 57001 IEM_DS3505
ZBAA,2004-06-12 13:00,ZBAA 121300Z AUTO 18010KT 6SM 27/04 A3003 RMK T02700040 IEM_DS3505
ZBAA,2004-06-12 14:00,ZBAA 121400Z AUTO 18008KT 6SM 25/05 A3006 RMK T02500050 IEM_DS3505
ZBAA,2004-06-12 15:00,ZBAA 121500Z AUTO 22004KT 16SM 24/02 A3006 RMK SLP172 T02420018 52007 IEM_DS3505
ZBAA,2004-06-12 16:00,ZBAA 121600Z AUTO 05002KT 6SM 22/07 A3003 RMK T02200070 IEM_DS3505
ZBAA,2004-06-12 17:00,ZBAA 121700Z AUTO 00000KT 6SM 21/08 A3003 RMK T02100080 IEM_DS3505
ZBAA,2004-06-12 18:00,ZBAA 121800Z AUTO 07002KT 12SM 22/03 A3000 RMK SLP160 T02200032 57012 IEM_DS3505
ZBAA,2004-06-12 19:00,ZBAA 121900Z AUTO 14004KT 6SM 20/09 A3000 RMK T02000090 IEM_DS3505
ZBAA,2004-06-12 20:00,ZBAA 122000Z AUTO 11002KT 6SM 19/09 A3000 RMK T01900090 IEM_DS3505
ZBAA,2004-06-12 21:00,ZBAA 122100Z AUTO 20002KT 9SM 20/05 A3000 RMK SLP153 T02030052 57007 IEM_DS3505
ZBAA,2004-06-12 22:00,ZBAA 122200Z AUTO 00000KT 4SM 19/09 A3000 RMK T01900090 IEM_DS3505
ZBAA,2004-06-12 23:00,ZBAA 122300Z AUTO 21/11 A3000 RMK T02100110 IEM_DS3505
ZBAA,2004-06-13 00:00,ZBAA 130000Z AUTO 16002KT 7SM 24/04 A3000 RMK SLP151 T02450043 57002 IEM_DS3505
ZBAA,2004-06-13 01:00,ZBAA 130100Z AUTO 12004KT 25/09 A2997 RMK T02500090 IEM_DS3505
ZBAA,2004-06-13 02:00,ZBAA 130200Z AUTO 12004KT 27/09 A2997 RMK T02700090 IEM_DS3505
ZBAA,2004-06-13 03:00,ZBAA 130300Z AUTO 20004KT 6SM 28/07 A2994 RMK SLP138 T02780066 57013 IEM_DS3505
ZBAA,2004-06-13 04:00,ZBAA 130400Z AUTO 13006KT 5SM 29/09 A2991 RMK T02900090 IEM_DS3505
ZBAA,2004-06-13 05:00,ZBAA 130500Z AUTO 15006KT 5SM 29/09 A2991 RMK T02900090 IEM_DS3505
ZBAA,2004-06-13 06:00,ZBAA 130600Z AUTO 20006KT 6SM 30/06 A2988 RMK SLP111 T03040057 57026 IEM_DS3505
ZBAA,2004-06-13 07:00,ZBAA 130700Z AUTO 14004KT 6SM 31/09 A2985 RMK T03100090 IEM_DS3505
ZBAA,2004-06-13 08:00,ZBAA 130800Z AUTO 16006KT 6SM 31/09 A2983 RMK T03100090 IEM_DS3505
ZBAA,2004-06-13 09:00,ZBAA 130900Z AUTO 20006KT 6SM 30/06 A2983 RMK SLP095 T03040057 57016 IEM_DS3505
ZBAA,2004-06-13 10:00,ZBAA 131000Z AUTO 16004KT 6SM 29/11 A2983 RMK T02900110 IEM_DS3505
ZBAA,2004-06-13 11:00,ZBAA 131100Z AUTO 15002KT 6SM 29/11 A2983 RMK T02900110 IEM_DS3505
ZBAA,2004-06-13 12:00,ZBAA 131200Z AUTO 16002KT 9SM 28/06 A2985 RMK SLP102 T02810063 52007 IEM_DS3505
ZBAA,2004-06-13 13:00,ZBAA 131300Z AUTO 06002KT 6SM 27/11 A2985 RMK T02700110 IEM_DS3505
ZBAA,2004-06-13 14:00,ZBAA 131400Z AUTO 00000KT 5SM 24/13 A2985 RMK T02400130 IEM_DS3505
ZBAA,2004-06-13 15:00,ZBAA 131500Z AUTO 00000KT 9SM 26/08 A2985 RMK SLP104 T02600085 52002 IEM_DS3505
ZBAA,2004-06-13 16:00,ZBAA 131600Z AUTO 13002KT 24/12 A2985 RMK T02400120 IEM_DS3505
ZBAA,2004-06-13 17:00,ZBAA 131700Z AUTO 00000KT 22/13 A2985 RMK T02200130 IEM_DS3505
ZBAA,2004-06-13 18:00,ZBAA 131800Z AUTO 25006KT 6SM 24/10 A2985 RMK SLP105 T02440103 52001 IEM_DS3505
ZBAA,2004-06-13 19:00,ZBAA 131900Z AUTO 32006KT 23/12 A2985 RMK T02300120 IEM_DS3505
ZBAA,2004-06-13 20:00,ZBAA 132000Z AUTO 01002KT 5SM 22/12 A2983 RMK T02200120 IEM_DS3505
ZBAA,2004-06-13 21:00,ZBAA 132100Z AUTO 07006KT 6SM 24/08 A2983 RMK SLP095 T02450085 57010 IEM_DS3505
ZBAA,2004-06-13 22:00,ZBAA 132200Z AUTO 5SM 22/13 A2983 RMK T02200130 IEM_DS3505
ZBAA,2004-06-13 23:00,ZBAA 132300Z AUTO 16002KT 23/13 A2983 RMK T02300130 IEM_DS3505
ZBAA,2004-06-14 00:00,ZBAA 140000Z AUTO 27004KT 5SM 26/10 A2985 RMK SLP104 T02580104 52009 IEM_DS3505
ZBAA,2004-06-14 01:00,ZBAA 140100Z AUTO 28004KT 5SM 26/12 A2985 RMK T02600120 IEM_DS3505
ZBAA,2004-06-14 02:00,ZBAA 140200Z AUTO 5SM 29/12 A2985 RMK T02900120 IEM_DS3505
ZBAA,2004-06-14 02:30,ZBAA 140230Z AUTO 5SM 30/11 A2983 RMK T03000110 IEM_DS3505
ZBAA,2004-06-14 03:00,ZBAA 140300Z AUTO 14004KT 7SM 31/09 A2983 RMK SLP094 T03130090 57010 IEM_DS3505
ZBAA,2004-06-14 04:00,ZBAA 140400Z AUTO 5SM 32/13 A2983 RMK T03200130 IEM_DS3505
ZBAA,2004-06-14 05:00,ZBAA 140500Z AUTO 15004KT 33/13 A2980 RMK T03300130 IEM_DS3505
ZBAA,2004-06-14 06:00,ZBAA 140600Z AUTO 14004KT 9SM 33/10 A2977 RMK SLP076 T03320105 57018 IEM_DS3505
ZBAA,2004-06-14 07:00,ZBAA 140700Z AUTO 13004KT 5SM 33/14 A2977 RMK T03300140 IEM_DS3505
ZBAA,2004-06-14 08:00,ZBAA 140800Z AUTO 13006KT 5SM 34/15 A2974 RMK T03400150 IEM_DS3505
ZBAA,2004-06-14 09:00,ZBAA 140900Z AUTO 11006KT 7SM 34/13 A2971 RMK SLP057 T03370127 57019 IEM_DS3505
ZBAA,2004-06-14 10:00,ZBAA 141000Z AUTO 14008KT 5SM 33/15 A2974 RMK T03300150 IEM_DS3505
ZBAA,2004-06-14 11:00,ZBAA 141100Z AUTO 19012G21KT 5SM 29/12 A2977 RMK T02900120 IEM_DS3505
ZBAA,2004-06-14 12:00,ZBAA 141200Z AUTO 22008KT 16SM 29/10 A2974 RMK SLP073 T02880100 52016 IEM_DS3505
ZBAA,2004-06-14 13:00,ZBAA 141300Z AUTO 17010KT 6SM 29/12 A2980 RMK T02900120 IEM_DS3505
ZBAA,2004-06-14 14:00,ZBAA 141400Z AUTO 20006KT 6SM 27/13 A2983 RMK T02700130 IEM_DS3505
ZBAA,2004-06-14 15:00,ZBAA 141500Z AUTO 22006KT 7SM 25/11 A2983 RMK SLP094 T02520114 52021 IEM_DS3505
ZBAA,2004-06-14 16:00,ZBAA 141600Z AUTO 15004KT 6SM 25/14 A2983 RMK T02500140 IEM_DS3505
ZBAA,2004-06-14 17:00,ZBAA 141700Z AUTO 14004KT 6SM 23/15 A2983 RMK T02300150 IEM_DS3505
ZBAA,2004-06-14 18:00,ZBAA 141800Z AUTO 20004KT 16SM 23/12 A2983 RMK SLP091 T02310121 57003 IEM_DS3505
ZBAA,2004-06-14 19:00,ZBAA 141900Z AUTO 10004KT 6SM 22/15 A2983 RMK T02200150 IEM_DS3505
ZBAA,2004-06-14 20:00,ZBAA 142000Z AUTO 12004KT 6SM 21/15 A2983 RMK T02100150 IEM_DS3505
ZBAA,2004-06-14 21:00,ZBAA 142100Z AUTO 18004KT 12SM 21/13 A2983 RMK 70000 SLP096 T02130127 52005 IEM_DS3505
ZBAA,2004-06-14 22:00,ZBAA 142200Z AUTO 09004KT 6SM 20/15 A2983 RMK T02000150 IEM_DS3505
ZBAA,2004-06-14 23:00,ZBAA 142300Z AUTO 10004KT 5SM 21/16 A2985 RMK T02100160 IEM_DS3505
ZBAA,2004-06-15 00:00,ZBAA 150000Z AUTO 20004KT 9SM 23/14 A2985 RMK 70000 SLP107 T02330135 52011 IEM_DS3505
ZBAA,2004-06-15 01:00,ZBAA 150100Z AUTO 25/16 A2988 RMK T02500160 IEM_DS3505
ZBAA,2004-06-15 02:00,ZBAA 150200Z AUTO 26/17 A2988 RMK T02600170 IEM_DS3505
ZBAA,2004-06-15 03:00,ZBAA 150300Z AUTO 20006KT 9SM 28/14 A2985 RMK SLP107 T02760139 54000 IEM_DS3505
ZBAA,2004-06-15 04:00,ZBAA 150400Z AUTO 28/16 A2985 RMK T02800160 IEM_DS3505
ZBAA,2004-06-15 05:00,ZBAA 150500Z AUTO 30/16 A2983 RMK T03000160 IEM_DS3505
ZBAA,2004-06-15 06:00,ZBAA 150600Z AUTO 16006KT 12SM 31/12 A2980 RMK SLP091 T03070117 57016 IEM_DS3505
ZBAA,2004-06-15 07:00,ZBAA 150700Z AUTO 17010KT 6SM 32/14 A2980 RMK T03200140 IEM_DS3505
ZBAA,2004-06-15 08:00,ZBAA 150800Z AUTO 17008KT 6SM 32/16 A2980 RMK T03200160 IEM_DS3505
ZBAA,2004-06-15 09:00,ZBAA 150900Z AUTO 20008KT 12SM 30/12 A2977 RMK SLP080 T03000124 57011 IEM_DS3505
ZBAA,2004-06-15 10:00,ZBAA 151000Z AUTO 17008KT 6SM 30/15 A2977 RMK T03000150 IEM_DS3505
ZBAA,2004-06-15 11:00,ZBAA 151100Z AUTO 16008KT 6SM 29/16 A2980 RMK T02900160 IEM_DS3505
ZBAA,2004-06-15 12:00,ZBAA 151200Z AUTO 20006KT 12SM 26/15 A2980 RMK SLP089 T02620150 52008 IEM_DS3505
ZBAA,2004-06-15 13:00,ZBAA 151300Z AUTO 12012KT 6SM 26/16 A2983 RMK T02600160 IEM_DS3505
ZBAA,2004-06-15 14:00,ZBAA 151400Z AUTO 11014KT 6SM 25/19 A2985 RMK T02500190 IEM_DS3505
ZBAA,2004-06-15 14:30,ZBAA 151430Z AUTO 11012KT 4SM 24/20 A2985 RMK T02400200 IEM_DS3505
ZBAA,2004-06-15 15:00,ZBAA 151500Z AUTO 09008KT 9SM 24/17 A2985 RMK SLP100 T02370167 52012 IEM_DS3505
ZBAA,2004-06-15 16:00,ZBAA 151600Z AUTO 11012KT 24/18 A2983 RMK T02400180 IEM_DS3505
ZBAA,2004-06-15 17:00,ZBAA 151700Z AUTO 11012KT 23/17 A2983 RMK T02300170 IEM_DS3505
ZBAA,2004-06-15 18:00,ZBAA 151800Z AUTO 11008KT 9SM 22/13 A2983 RMK SLP092 T02240132 57008 IEM_DS3505
ZBAA,2004-06-15 19:00,ZBAA 151900Z AUTO 11010KT 6SM 23/15 A2980 RMK T02300150 IEM_DS3505
ZBAA,2004-06-15 20:00,ZBAA 152000Z AUTO 11008KT 6SM 22/15 A2980 RMK T02200150 IEM_DS3505
ZBAA,2004-06-15 21:00,ZBAA 152100Z AUTO 09006KT 9SM 21/13 A2980 RMK SLP084 T02140128 57008 IEM_DS3505
ZBAA,2004-06-15 22:00,ZBAA 152200Z AUTO 11008KT 6SM 22/14 A2980 RMK T02200140 IEM_DS3505
ZBAA,2004-06-15 23:00,ZBAA 152300Z AUTO 12008KT 6SM 22/13 A2980 RMK T02200130 IEM_DS3505
ZBAA,2004-06-16 00:00,ZBAA 160000Z AUTO 11012KT 12SM 21/12 A2983 RMK 70000 SLP090 T02100119 52005 IEM_DS3505
ZBAA,2004-06-16 01:00,ZBAA 160100Z AUTO 12006KT 22/13 A2983 RMK T02200130 IEM_DS3505
ZBAA,2004-06-16 02:00,ZBAA 160200Z AUTO 12008KT 7SM 22/14 A2983 RMK T02200140 IEM_DS3505
ZBAA,2004-06-16 03:00,ZBAA 160300Z AUTO 07010KT 12SM 20/14 A2985 RMK SLP097 T01960140 52007 IEM_DS3505
ZBAA,2004-06-16 04:00,ZBAA 160400Z AUTO 4SM 19/16 A2985 RMK T01900160 IEM_DS3505
ZBAA,2004-06-16 05:00,ZBAA 160500Z AUTO 01006KT 5SM 18/15 A2980 RMK T01800150 IEM_DS3505
ZBAA,2004-06-16 06:00,ZBAA 160600Z AUTO 02008KT 12SM 17/13 A2980 RMK 60016 SLP082 T01710132 57015 IEM_DS3505
ZBAA,2004-06-16 07:00,ZBAA 160700Z AUTO 36006KT 5SM 17/15 A2977 RMK T01700150 IEM_DS3505
ZBAA,2004-06-16 08:00,ZBAA 160800Z AUTO 36006KT 4SM 17/16 A2977 RMK T01700160 IEM_DS3505
ZBAA,2004-06-16 09:00,ZBAA 160900Z AUTO 02006KT 12SM 16/14 A2974 RMK SLP058 T01640135 57024 IEM_DS3505
ZBAA,2004-06-16 10:00,ZBAA 161000Z AUTO 36008KT 7SM 16/15 A2971 RMK T01600150 IEM_DS3505
ZBAA,2004-06-16 11:00,ZBAA 161100Z AUTO 36010KT 7SM 16/15 A2971 RMK T01600150 IEM_DS3505
ZBAA,2004-06-16 12:00,ZBAA 161200Z AUTO 02008KT 12SM 16/13 A2971 RMK 60035 SLP046 T01600133 57012 IEM_DS3505
ZBAA,2004-06-16 13:00,ZBAA 161300Z AUTO 34010KT 7SM 16/15 A2968 RMK T01600150 IEM_DS3505
ZBAA,2004-06-16 14:00,ZBAA 161400Z AUTO 34008KT 7SM 15/15 A2968 RMK T01500150 IEM_DS3505
ZBAA,2004-06-16 15:00,ZBAA 161500Z AUTO 36006KT 12SM 16/13 A2968 RMK SLP037 T01630132 57009 IEM_DS3505
ZBAA,2004-06-16 16:00,ZBAA 161600Z AUTO 30008KT 7SM 16/15 A2965 RMK T01600150 IEM_DS3505
ZBAA,2004-06-16 17:00,ZBAA 161700Z AUTO 31010KT 7SM 16/16 A2965 RMK T01600160 IEM_DS3505
ZBAA,2004-06-16 18:00,ZBAA 161800Z AUTO 32004KT 16SM 17/13 A2965 RMK 60004 SLP031 T01710132 57006 IEM_DS3505
ZBAA,2004-06-16 19:00,ZBAA 161900Z AUTO 31008KT 7SM 16/16 A2962 RMK T01600160 IEM_DS3505
ZBAA,2004-06-16 20:00,ZBAA 162000Z AUTO 31004KT 7SM 16/16 A2962 RMK T01600160 IEM_DS3505
ZBAA,2004-06-16 21:00,ZBAA 162100Z AUTO 29004KT 16SM 18/14 A2965 RMK 70056 SLP036 T01750136 52005 IEM_DS3505
ZBAA,2004-06-16 22:00,ZBAA 162200Z AUTO 00000KT 7SM 17/17 A2965 RMK T01700170 IEM_DS3505
ZBAA,2004-06-16 23:00,ZBAA 162300Z AUTO 00000KT 7SM 18/17 A2965 RMK T01800170 IEM_DS3505
ZBAA,2004-06-17 00:00,ZBAA 170000Z AUTO 25010KT 12SM 19/14 A2965 RMK 60000 70056 SLP045 T01880145 52009 IEM_DS3505
ZBAA,2004-06-17 01:00,ZBAA 170100Z AUTO 10004KT 6SM 21/18 A2968 RMK T02100180 IEM_DS3505
ZBAA,2004-06-17 02:00,ZBAA 170200Z AUTO 13004KT 6SM 20/17 A2968 RMK T02000170 IEM_DS3505
ZBAA,2004-06-17 03:00,ZBAA 170300Z AUTO 20006KT 12SM 21/15 A2968 RMK SLP047 T02130149 52002 IEM_DS3505
ZBAA,2004-06-17 04:00,ZBAA 170400Z AUTO 17004KT 7SM 23/17 A2968 RMK T02300170 IEM_DS3505
ZBAA,2004-06-17 05:00,ZBAA 170500Z AUTO 21006KT 7SM 24/16 A2965 RMK T02400160 IEM_DS3505
ZBAA,2004-06-17 06:00,ZBAA 170600Z AUTO 18006KT 16SM 24/15 A2965 RMK SLP033 T02430152 57014 IEM_DS3505
ZBAA,2004-06-17 07:00,ZBAA 170700Z AUTO 16006KT 6SM 25/17 A2962 RMK T02500170 IEM_DS3505
ZBAA,2004-06-17 08:00,ZBAA 170800Z AUTO 18008KT 6SM 26/18 A2962 RMK T02600180 IEM_DS3505
ZBAA,2004-06-17 09:00,ZBAA 170900Z AUTO 25008KT 16SM 26/15 A2962 RMK SLP020 T02590150 57013 IEM_DS3505
ZBAA,2004-06-17 09:30,ZBAA 170930Z AUTO 17006KT 6SM 25/18 A2962 RMK T02500180 IEM_DS3505
ZBAA,2004-06-17 10:00,ZBAA 171000Z AUTO 15006KT 6SM 25/19 A2962 RMK T02500190 IEM_DS3505
ZBAA,2004-06-17 11:00,ZBAA 171100Z AUTO 17006KT 6SM 24/19 A2962 RMK T02400190 IEM_DS3505
ZBAA,2004-06-17 12:00,ZBAA 171200Z AUTO 16002KT 12SM 24/16 A2965 RMK 60000 SLP030 T02380161 52010 IEM_DS3505
ZBAA,2004-06-17 13:00,ZBAA 171300Z AUTO 10004KT 7SM 19/17 A2965 RMK T01900170 IEM_DS3505
ZBAA,2004-06-17 14:00,ZBAA 171400Z AUTO 11002KT 7SM 20/17 A2968 RMK T02000170 IEM_DS3505
ZBAA,2004-06-17 15:00,ZBAA 171500Z AUTO 11004KT 12SM 22/17 A2965 RMK SLP035 T02180170 52005 IEM_DS3505
ZBAA,2004-06-17 16:00,ZBAA 171600Z AUTO 7SM 19/18 A2965 RMK T01900180 IEM_DS3505
ZBAA,2004-06-17 17:00,ZBAA 171700Z AUTO 36004KT 5SM 19/18 A2962 RMK T01900180 IEM_DS3505
ZBAA,2004-06-17 18:00,ZBAA 171800Z AUTO 04006KT 12SM 20/15 A2962 RMK 60000 SLP018 T01990153 57017 IEM_DS3505
ZBAA,2004-06-17 19:00,ZBAA 171900Z AUTO 09002KT 3SM 19/19 A2962 RMK T01900190 IEM_DS3505
ZBAA,2004-06-17 20:00,ZBAA 172000Z AUTO 00000KT 2 1/2SM 19/19 A2962 RMK T01900190 IEM_DS3505
ZBAA,2004-06-17 21:00,ZBAA 172100Z AUTO 07004KT 4SM 20/17 A2962 RMK SLP026 T02000174 52008 IEM_DS3505
ZBAA,2004-06-17 22:00,ZBAA 172200Z AUTO 2 1/2SM 19/18 A2962 RMK T01900180 IEM_DS3505
ZBAA,2004-06-17 23:00,ZBAA 172300Z AUTO 01002KT 2 1/2SM 19/19 A2962 RMK T01900190 IEM_DS3505
ZBAA,2004-06-18 00:00,ZBAA 180000Z AUTO 04004KT 3SM 20/17 A2962 RMK 60000 SLP031 T02030167 52005 IEM_DS3505
ZBAA,2004-06-18 01:00,ZBAA 180100Z AUTO 11002KT 2 1/2SM 21/20 A2962 RMK T02100200 IEM_DS3505
ZBAA,2004-06-18 02:00,ZBAA 180200Z AUTO 10004KT 2SM 21/20 A2962 RMK T02100200 IEM_DS3505
ZBAA,2004-06-18 03:00,ZBAA 180300Z AUTO 11004KT 5SM 23/18 A2962 RMK SLP033 T02260175 52002 IEM_DS3505
ZBAA,2004-06-18 04:00,ZBAA 180400Z AUTO 13008KT 1 1/2SM 24/20 A2965 RMK T02400200 IEM_DS3505
ZBAA,2004-06-18 05:00,ZBAA 180500Z AUTO 12008KT 1 1/2SM 25/21 A2959 RMK T02500210 IEM_DS3505
ZBAA,2004-06-18 06:00,ZBAA 180600Z AUTO 14008KT 7SM 27/18 A2959 RMK SLP009 T02660185 57023 IEM_DS3505
ZBAA,2004-06-18 07:00,ZBAA 180700Z AUTO 13008KT 2SM 26/21 A2956 RMK T02600210 IEM_DS3505
ZBAA,2004-06-18 08:00,ZBAA 180800Z AUTO 15006KT 2SM 26/21 A2956 RMK T02600210 IEM_DS3505
ZBAA,2004-06-18 09:00,ZBAA 180900Z AUTO 14006KT 7SM 26/18 A2956 RMK SLP006 T02650181 57003 IEM_DS3505
ZBAA,2004-06-18 10:00,ZBAA 181000Z AUTO 10004KT 1 1/2SM 25/22 A2959 RMK T02500220 IEM_DS3505
ZBAA,2004-06-18 11:00,ZBAA 181100Z AUTO 3SM 24/20 A2956 RMK T02400200 IEM_DS3505
ZBAA,2004-06-18 12:00,ZBAA 181200Z AUTO 09012KT 6SM 22/18 A2962 RMK 60043 SLP016 T02190175 52009 IEM_DS3505
ZBAA,2004-06-18 13:00,ZBAA 181300Z AUTO 14006KT 7SM 19/19 A2965 RMK T01900190 IEM_DS3505
ZBAA,2004-06-18 14:00,ZBAA 181400Z AUTO 20008KT 7SM 20/19 A2965 RMK T02000190 IEM_DS3505
ZBAA,2004-06-18 15:00,ZBAA 181500Z AUTO 02002KT 9SM 20/17 A2962 RMK SLP020 T02000172 52004 IEM_DS3505
ZBAA,2004-06-18 16:00,ZBAA 181600Z AUTO 01006KT 4SM 20/19 A2959 RMK T02000190 IEM_DS3505
ZBAA,2004-06-18 17:00,ZBAA 181700Z AUTO 12002KT 3SM 19/19 A2959 RMK T01900190 IEM_DS3505
ZBAA,2004-06-18 18:00,ZBAA 181800Z AUTO 14006KT 5SM 19/17 A2959 RMK 60051 SLP015 T01940174 57004 IEM_DS3505
ZBAA,2004-06-18 19:00,ZBAA 181900Z AUTO 16004KT 2SM 19/19 A2959 RMK T01900190 IEM_DS3505
ZBAA,2004-06-18 20:00,ZBAA 182000Z AUTO 29004KT 1 1/4SM 19/19 A2959 RMK T01900190 IEM_DS3505
ZBAA,2004-06-18 21:00,ZBAA 182100Z AUTO 34002KT 5SM 20/17 A2959 RMK 70092 SLP018 T01950173 52003 IEM_DS3505
ZBAA,2004-06-18 22:00,ZBAA 182200Z AUTO 02002KT 1 1/4SM 19/19 A2962 RMK T01900190 IEM_DS3505
ZBAA,2004-06-18 23:00,ZBAA 182300Z AUTO 00000KT 1 1/2SM 20/20 A2962 RMK T02000200 IEM_DS3505
ZBAA,2004-06-19 00:00,ZBAA 190000Z AUTO 02004KT 4SM 21/18 A2962 RMK 70092 SLP027 T02090179 52008 IEM_DS3505
ZBAA,2004-06-19 01:00,ZBAA 190100Z AUTO 4SM 22/20 A2962 RMK T02200200 IEM_DS3505
ZBAA,2004-06-19 02:00,ZBAA 190200Z AUTO 4SM 23/20 A2962 RMK T02300200 IEM_DS3505
ZBAA,2004-06-19 03:00,ZBAA 190300Z AUTO 09006KT 6SM 24/18 A2962 RMK SLP029 T02400175 52002 IEM_DS3505
ZBAA,2004-06-19 04:00,ZBAA 190400Z AUTO 10006KT 5SM 25/20 A2962 RMK T02500200 IEM_DS3505
ZBAA,2004-06-19 05:00,ZBAA 190500Z AUTO 13008KT 26/20 A2959 RMK T02600200 IEM_DS3505
ZBAA,2004-06-19 06:00,ZBAA 190600Z AUTO 11004KT 7SM 26/16 A2959 RMK SLP013 T02580164 57016 IEM_DS3505
ZBAA,2004-06-19 07:00,ZBAA 190700Z AUTO 14008KT 7SM 26/20 A2959 RMK T02600200 IEM_DS3505
ZBAA,2004-06-19 08:00,ZBAA 190800Z AUTO 15006KT 7SM 25/20 A2956 RMK T02500200 IEM_DS3505
ZBAA,2004-06-19 09:00,ZBAA 190900Z AUTO 27004KT 9SM 26/16 A2956 RMK SLP004 T02550158 57009 IEM_DS3505
ZBAA,2004-06-19 10:00,ZBAA 191000Z AUTO 17006KT 5SM 25/20 A2956 RMK T02500200 IEM_DS3505
ZBAA,2004-06-19 11:00,ZBAA 191100Z AUTO 16004KT 4SM 24/20 A2956 RMK T02400200 IEM_DS3505
ZBAA,2004-06-19 12:00,ZBAA 191200Z AUTO 16002KT 7SM 24/17 A2956 RMK SLP006 T02420172 52002 IEM_DS3505
ZBAA,2004-06-19 13:00,ZBAA 191300Z AUTO 12004KT 3SM 23/20 A2959 RMK T02300200 IEM_DS3505
ZBAA,2004-06-19 14:00,ZBAA 191400Z AUTO 13004KT 2 1/2SM 22/21 A2959 RMK T02200210 IEM_DS3505
ZBAA,2004-06-19 15:00,ZBAA 191500Z AUTO 14002KT 6SM 23/17 A2962 RMK SLP021 T02270172 52016 IEM_DS3505
ZBAA,2004-06-19 16:00,ZBAA 191600Z AUTO 15004KT 2SM 21/20 A2959 RMK T02100200 IEM_DS3505
ZBAA,2004-06-19 17:00,ZBAA 191700Z AUTO 13002KT 2SM 21/20 A2962 RMK T02100200 IEM_DS3505
ZBAA,2004-06-19 18:00,ZBAA 191800Z AUTO 07004KT 4SM 21/18 A2959 RMK SLP015 T02060182 57006 IEM_DS3505
ZBAA,2004-06-19 19:00,ZBAA 191900Z AUTO 10002KT 1 1/4SM 20/20 A2959 RMK T02000200 IEM_DS3505
ZBAA,2004-06-19 20:00,ZBAA 192000Z AUTO 13004KT 1SM 21/20 A2959 RMK T02100200 IEM_DS3505
ZBAA,2004-06-19 21:00,ZBAA 192100Z AUTO 18002KT 2 1/2SM 20/18 A2959 RMK SLP020 T02040183 52004 IEM_DS3505
ZBAA,2004-06-19 22:00,ZBAA 192200Z AUTO 16002KT 1SM 21/21 A2962 RMK T02100210 IEM_DS3505
ZBAA,2004-06-19 23:00,ZBAA 192300Z AUTO 00000KT 1SM 21/21 A2962 RMK T02100210 IEM_DS3505
ZBAA,2004-06-20 00:00,ZBAA 200000Z AUTO 02002KT 1SM 21/19 A2962 RMK SLP026 T02090187 52006 IEM_DS3505
ZBAA,2004-06-20 01:00,ZBAA 200100Z AUTO 1SM 23/22 A2962 RMK T02300220 IEM_DS3505
ZBAA,2004-06-20 02:00,ZBAA 200200Z AUTO 11006KT 1SM 23/21 A2962 RMK T02300210 IEM_DS3505
ZBAA,2004-06-20 03:00,ZBAA 200300Z AUTO 14004KT 5SM 25/20 A2962 RMK SLP021 T02510195 57004 IEM_DS3505
ZBAA,2004-06-20 04:00,ZBAA 200400Z AUTO 09004KT 1 1/4SM 26/21 A2959 RMK T02600210 IEM_DS3505
ZBAA,2004-06-20 05:00,ZBAA 200500Z AUTO 16006KT 1 1/2SM 27/21 A2956 RMK T02700210 IEM_DS3505
ZBAA,2004-06-20 06:00,ZBAA 200600Z AUTO 22006KT 7SM 28/18 A2953 RMK SLP998 T02790180 57023 IEM_DS3505
ZBAA,2004-06-20 07:00,ZBAA 200700Z AUTO 16006KT 2 1/2SM 28/22 A2950 RMK T02800220 IEM_DS3505
ZBAA,2004-06-20 08:00,ZBAA 200800Z AUTO 17008KT 2 1/2SM 28/21 A2950 RMK T02800210 IEM_DS3505
ZBAA,2004-06-20 09:00,ZBAA 200900Z AUTO 20008KT 7SM 28/19 A2950 RMK SLP985 T02770192 57013 IEM_DS3505
ZBAA,2004-06-20 10:00,ZBAA 201000Z AUTO 17006KT 2 1/2SM 27/22 A2950 RMK T02700220 IEM_DS3505
ZBAA,2004-06-20 11:00,ZBAA 201100Z AUTO 17004KT 2 1/2SM 26/22 A2950 RMK T02600220 IEM_DS3505
ZBAA,2004-06-20 12:00,ZBAA 201200Z AUTO 20004KT 6SM 27/19 A2953 RMK SLP989 T02670193 52004 IEM_DS3505
ZBAA,2004-06-20 13:00,ZBAA 201300Z AUTO 11004KT 2SM 25/22 A2953 RMK T02500220 IEM_DS3505
ZBAA,2004-06-20 14:00,ZBAA 201400Z AUTO 12006KT 1 1/4SM 24/23 A2953 RMK T02400230 IEM_DS3505
ZBAA,2004-06-20 15:00,ZBAA 201500Z AUTO 16004KT 5SM 25/20 A2956 RMK SLP999 T02510197 52010 IEM_DS3505
ZBAA,2004-06-20 15:30,ZBAA 201530Z AUTO 10006KT 1SM 23/22 A2953 RMK T02300220 IEM_DS3505
ZBAA,2004-06-20 16:00,ZBAA 201600Z AUTO 09002KT 1SM 23/22 A2953 RMK T02300220 IEM_DS3505
ZBAA,2004-06-20 17:00,ZBAA 201700Z AUTO 15006KT 1 1/4SM 22/22 A2950 RMK T02200220 IEM_DS3505
ZBAA,2004-06-20 18:00,ZBAA 201800Z AUTO 18006KT 6SM 22/19 A2950 RMK 60039 SLP981 T02250193 57018 IEM_DS3505
ZBAA,2004-06-20 19:00,ZBAA 201900Z AUTO 09004KT 1SM 22/21 A2950 RMK T02200210 IEM_DS3505
ZBAA,2004-06-20 20:00,ZBAA 202000Z AUTO 09002KT 1SM 21/21 A2953 RMK T02100210 IEM_DS3505
ZBAA,2004-06-20 21:00,ZBAA 202100Z AUTO 09006KT 2SM 22/20 A2953 RMK 70039 SLP996 T02160197 52015 IEM_DS3505
ZBAA,2004-06-20 22:00,ZBAA 202200Z AUTO 13006KT 1 1/4SM 21/20 A2956 RMK T02100200 IEM_DS3505
ZBAA,2004-06-20 23:00,ZBAA 202300Z AUTO 16004KT 2 1/2SM 21/20 A2953 RMK T02100200 IEM_DS3505
ZBAA,2004-06-21 00:00,ZBAA 210000Z AUTO 36002KT 3SM 23/19 A2956 RMK 70039 SLP999 T02280192 52003 IEM_DS3505
ZBAA,2004-06-21 01:00,ZBAA 210100Z AUTO 4SM 23/20 A2956 RMK T02300200 IEM_DS3505
ZBAA,2004-06-21 02:00,ZBAA 210200Z AUTO 4SM 24/21 A2953 RMK T02400210 IEM_DS3505
ZBAA,2004-06-21 03:00,ZBAA 210300Z AUTO 02004KT 4SM 26/20 A2953 RMK SLP993 T02620205 57006 IEM_DS3505
ZBAA,2004-06-21 04:00,ZBAA 210400Z AUTO 2 1/2SM 27/22 A2950 RMK T02700220 IEM_DS3505
ZBAA,2004-06-21 05:00,ZBAA 210500Z AUTO 12004KT 2SM 28/22 A2950 RMK T02800220 IEM_DS3505
ZBAA,2004-06-21 06:00,ZBAA 210600Z AUTO 18004KT 6SM 29/20 A2947 RMK SLP969 T02940200 57024 IEM_DS3505
ZBAA,2004-06-21 07:00,ZBAA 210700Z AUTO 17004KT 1 1/2SM 29/22 A2947 RMK T02900220 IEM_DS3505
ZBAA,2004-06-21 08:00,ZBAA 210800Z AUTO 2SM 29/22 A2944 RMK T02900220 IEM_DS3505
ZBAA,2004-06-21 09:00,ZBAA 210900Z AUTO 36004KT 6SM 29/19 A2947 RMK SLP962 T02940194 57007 IEM_DS3505
ZBAA,2004-06-21 10:00,ZBAA 211000Z AUTO 21004KT 6SM 24/19 A2941 RMK T02400190 IEM_DS3505
ZBAA,2004-06-21 11:00,ZBAA 211100Z AUTO 15004KT 6SM 24/19 A2944 RMK T02400190 IEM_DS3505
ZBAA,2004-06-21 12:00,ZBAA 211200Z AUTO 09002KT 6SM 25/18 A2944 RMK 60000 SLP967 T02490176 52005 IEM_DS3505
ZBAA,2004-06-21 13:00,ZBAA 211300Z AUTO 17002KT 6SM 22/19 A2950 RMK T02200190 IEM_DS3505
ZBAA,2004-06-21 14:00,ZBAA 211400Z AUTO 15004KT 4SM 22/20 A2950 RMK T02200200 IEM_DS3505
ZBAA,2004-06-21 15:00,ZBAA 211500Z AUTO 14002KT 7SM 22/16 A2950 RMK SLP988 T02240164 52021 IEM_DS3505
ZBAA,2004-06-21 16:00,ZBAA 211600Z AUTO 10002KT 3SM 22/20 A2950 RMK T02200200 IEM_DS3505
ZBAA,2004-06-21 17:00,ZBAA 211700Z AUTO 02002KT 4SM 21/19 A2950 RMK T02100190 IEM_DS3505
ZBAA,2004-06-21 18:00,ZBAA 211800Z AUTO 00000KT 7SM 22/16 A2947 RMK SLP975 T02220158 57013 IEM_DS3505
ZBAA,2004-06-21 19:00,ZBAA 211900Z AUTO 00000KT 4SM 21/19 A2947 RMK T02100190 IEM_DS3505
ZBAA,2004-06-21 20:00,ZBAA 212000Z AUTO 17002KT 4SM 20/19 A2950 RMK T02000190 IEM_DS3505
ZBAA,2004-06-21 21:00,ZBAA 212100Z AUTO 07002KT 4SM 21/17 A2947 RMK SLP979 T02060170 52004 IEM_DS3505
ZBAA,2004-06-21 22:00,ZBAA 212200Z AUTO 00000KT 4SM 20/20 A2950 RMK T02000200 IEM_DS3505
ZBAA,2004-06-21 23:00,ZBAA 212300Z AUTO 13004KT 4SM 21/20 A2950 RMK T02100200 IEM_DS3505
ZBAA,2004-06-22 00:00,ZBAA 220000Z AUTO 25002KT 7SM 23/17 A2950 RMK SLP986 T02320170 52007 IEM_DS3505
ZBAA,2004-06-22 01:00,ZBAA 220100Z AUTO 4SM 25/20 A2950 RMK T02500200 IEM_DS3505
ZBAA,2004-06-22 02:00,ZBAA 220200Z AUTO 26/20 A2950 RMK T02600200 IEM_DS3505
ZBAA,2004-06-22 03:00,ZBAA 220300Z AUTO 04002KT 7SM 26/18 A2950 RMK SLP982 T02620181 57004 IEM_DS3505
ZBAA,2004-06-22 04:00,ZBAA 220400Z AUTO 3SM 28/22 A2947 RMK T02800220 IEM_DS3505
ZBAA,2004-06-22 05:00,ZBAA 220500Z AUTO 12004KT 2 1/2SM 28/22 A2944 RMK T02800220 IEM_DS3505
ZBAA,2004-06-22 06:00,ZBAA 220600Z AUTO 16004KT 9SM 30/19 A2941 RMK SLP955 T03020186 57027 IEM_DS3505
ZBAA,2004-06-22 07:00,ZBAA 220700Z AUTO 13004KT 2SM 28/22 A2941 RMK T02800220 IEM_DS3505
ZBAA,2004-06-22 08:00,ZBAA 220800Z AUTO 12004KT 2 1/2SM 28/22 A2944 RMK T02800220 IEM_DS3505
ZBAA,2004-06-22 09:00,ZBAA 220900Z AUTO 27004KT 9SM 30/19 A2941 RMK SLP949 T03030187 57006 IEM_DS3505
ZBAA,2004-06-22 10:00,ZBAA 221000Z AUTO 01008G17KT 2 1/2SM 27/21 A2944 RMK T02700210 IEM_DS3505
ZBAA,2004-06-22 12:00,ZBAA 221200Z AUTO 02006KT 7SM 22/18 A2944 RMK 60012 SLP963 T02170185 52014 IEM_DS3505
ZBAA,2004-06-22 13:00,ZBAA 221300Z AUTO 12002KT 4SM 23/20 A2947 RMK T02300200 IEM_DS3505
ZBAA,2004-06-22 14:00,ZBAA 221400Z AUTO 18004KT 2 1/2SM 23/21 A2953 RMK T02300210 IEM_DS3505
ZBAA,2004-06-22 15:00,ZBAA 221500Z AUTO 18002KT 5SM 21/17 A2950 RMK SLP983 T02090169 52020 IEM_DS3505
ZBAA,2004-06-22 16:00,ZBAA 221600Z AUTO 27004KT 2 1/2SM 21/20 A2950 RMK T02100200 IEM_DS3505
ZBAA,2004-06-22 17:00,ZBAA 221700Z AUTO 00000KT 2SM 20/20 A2950 RMK T02000200 IEM_DS3505
ZBAA,2004-06-22 18:00,ZBAA 221800Z AUTO 07004KT 5SM 20/17 A2947 RMK SLP975 T02000174 57008 IEM_DS3505
ZBAA,2004-06-22 19:00,ZBAA 221900Z AUTO 00000KT 2SM 19/19 A2947 RMK T01900190 IEM_DS3505
ZBAA,2004-06-22 20:00,ZBAA 222000Z AUTO 31002KT 4SM 18/18 A2950 RMK T01800180 IEM_DS3505
ZBAA,2004-06-22 21:00,ZBAA 222100Z AUTO 00000KT 9SM 19/16 A2950 RMK 70011 SLP984 T01890161 52009 IEM_DS3505
ZBAA,2004-06-22 22:00,ZBAA 222200Z AUTO 35002KT 4SM 19/18 A2950 RMK T01900180 IEM_DS3505
ZBAA,2004-06-22 23:00,ZBAA 222300Z AUTO 6SM 22/18 A2953 RMK T02200180 IEM_DS3505
ZBAA,2004-06-23 00:00,ZBAA 230000Z AUTO 09002KT 12SM 22/16 A2953 RMK 70011 SLP994 T02230161 52009 IEM_DS3505
ZBAA,2004-06-23 01:00,ZBAA 230100Z AUTO 25/19 A2953 RMK T02500190 IEM_DS3505
ZBAA,2004-06-23 02:00,ZBAA 230200Z AUTO 14004KT 5SM 26/19 A2950 RMK T02600190 IEM_DS3505
ZBAA,2004-06-23 03:00,ZBAA 230300Z AUTO 34002KT 12SM 26/17 A2950 RMK SLP985 T02590170 57008 IEM_DS3505
ZBAA,2004-06-23 04:00,ZBAA 230400Z AUTO 15006KT 6SM 27/18 A2950 RMK T02700180 IEM_DS3505
ZBAA,2004-06-23 05:00,ZBAA 230500Z AUTO 6SM 29/19 A2947 RMK T02900190 IEM_DS3505
ZBAA,2004-06-23 06:00,ZBAA 230600Z AUTO 20008KT 12SM 29/19 A2947 RMK SLP972 T02860187 57013 IEM_DS3505
ZBAA,2004-06-23 07:00,ZBAA 230700Z AUTO 15006KT 6SM 30/20 A2944 RMK T03000200 IEM_DS3505
ZBAA,2004-06-23 08:00,ZBAA 230800Z AUTO 16006KT 6SM 29/21 A2944 RMK T02900210 IEM_DS3505
ZBAA,2004-06-23 09:00,ZBAA 230900Z AUTO 20008KT 12SM 28/19 A2944 RMK SLP973 T02810188 52001 IEM_DS3505
ZBAA,2004-06-23 10:00,ZBAA 231000Z AUTO 19012KT 7SM 28/22 A2947 RMK T02800220 IEM_DS3505
ZBAA,2004-06-23 11:00,ZBAA 231100Z AUTO 36012KT 6SM 24/18 A2947 RMK T02400180 IEM_DS3505
ZBAA,2004-06-23 12:00,ZBAA 231200Z AUTO 27002KT 12SM 26/14 A2953 RMK SLP994 T02600138 52021 IEM_DS3505
ZBAA,2004-06-23 12:17,ZBAA 231217Z AUTO 02006KT 7SM 22/15 A2953 RMK T02200150 IEM_DS3505
ZBAA,2004-06-23 13:00,ZBAA 231300Z AUTO 34004KT 7SM 21/16 A2953 RMK T02100160 IEM_DS3505
ZBAA,2004-06-23 14:00,ZBAA 231400Z AUTO 6SM 21/17 A2953 RMK T02100170 IEM_DS3505
ZBAA,2004-06-23 15:00,ZBAA 231500Z AUTO 02004KT 11SM 22/13 A2953 RMK SLP993 T02190130 57001 IEM_DS3505
ZBAA,2004-06-23 16:00,ZBAA 231600Z AUTO 35006KT 6SM 20/17 A2956 RMK T02000170 IEM_DS3505
ZBAA,2004-06-23 17:00,ZBAA 231700Z AUTO 01004KT 7SM 20/18 A2956 RMK T02000180 IEM_DS3505
ZBAA,2004-06-23 18:00,ZBAA 231800Z AUTO 04004KT 9SM 20/16 A2956 RMK 60016 SLP994 T01950165 52001 IEM_DS3505
ZBAA,2004-06-23 19:00,ZBAA 231900Z AUTO 36004KT 7SM 19/18 A2953 RMK T01900180 IEM_DS3505
ZBAA,2004-06-23 20:00,ZBAA 232000Z AUTO 36004KT 7SM 19/18 A2953 RMK T01900180 IEM_DS3505
ZBAA,2004-06-23 21:00,ZBAA 232100Z AUTO 04004KT 9SM 20/16 A2953 RMK 70015 SLP993 T01970164 57001 IEM_DS3505
ZBAA,2004-06-23 22:00,ZBAA 232200Z AUTO 36004KT 6SM 19/18 A2953 RMK T01900180 IEM_DS3505
ZBAA,2004-06-24 01:00,ZBAA 240100Z AUTO 36006KT 6SM 22/19 A2956 RMK T02200190 IEM_DS3505
ZBAA,2004-06-24 02:00,ZBAA 240200Z AUTO 01006KT 6SM 23/19 A2956 RMK T02300190 IEM_DS3505
ZBAA,2004-06-24 03:00,ZBAA 240300Z AUTO 04004KT 9SM 23/17 A2956 RMK SLP001 T02340167 57002 IEM_DS3505
ZBAA,2004-06-24 04:00,ZBAA 240400Z AUTO 36006KT 7SM 22/20 A2953 RMK T02200200 IEM_DS3505
ZBAA,2004-06-24 05:00,ZBAA 240500Z AUTO 36006KT 7SM 23/20 A2953 RMK T02300200 IEM_DS3505
ZBAA,2004-06-24 06:00,ZBAA 240600Z AUTO 14002KT 5SM 22/19 A2953 RMK 60008 SLP996 T02220192 57006 IEM_DS3505
ZBAA,2004-06-24 07:00,ZBAA 240700Z AUTO 4SM 24/21 A2950 RMK T02400210 IEM_DS3505
ZBAA,2004-06-24 08:00,ZBAA 240800Z AUTO 4SM 26/21 A2950 RMK T02600210 IEM_DS3505
ZBAA,2004-06-24 09:00,ZBAA 240900Z AUTO 18004KT 6SM 24/19 A2950 RMK SLP990 T02440190 57006 IEM_DS3505
ZBAA,2004-06-24 10:00,ZBAA 241000Z AUTO 15006KT 2 1/2SM 25/21 A2950 RMK T02500210 IEM_DS3505
ZBAA,2004-06-24 11:00,ZBAA 241100Z AUTO 36014KT 7SM 21/18 A2959 RMK T02100180 IEM_DS3505
ZBAA,2004-06-24 12:00,ZBAA 241200Z AUTO 07010KT 6SM 20/16 A2956 RMK 60016 SLP011 T01970162 52021 IEM_DS3505
ZBAA,2004-06-24 14:00,ZBAA 241400Z AUTO 01006KT 3SM 18/18 A2959 RMK T01800180 IEM_DS3505
ZBAA,2004-06-24 15:00,ZBAA 241500Z AUTO 07004KT 12SM 19/16 A2956 RMK SLP006 T01890163 57005 IEM_DS3505
ZBAA,2004-06-24 16:00,ZBAA 241600Z AUTO 36002KT 3SM 18/18 A2956 RMK T01800180 IEM_DS3505
ZBAA,2004-06-24 17:00,ZBAA 241700Z AUTO 00000KT 2 1/2SM 18/18 A2956 RMK T01800180 IEM_DS3505
ZBAA,2004-06-24 18:00,ZBAA 241800Z AUTO 32002KT 9SM 18/16 A2956 RMK 60004 SLP006 T01830163 54000 IEM_DS3505
ZBAA,2004-06-24 19:00,ZBAA 241900Z AUTO 29004KT 2SM 18/18 A2956 RMK T01800180 IEM_DS3505
ZBAA,2004-06-24 20:00,ZBAA 242000Z AUTO 30002KT 1 1/2SM 18/18 A2956 RMK T01800180 IEM_DS3505
ZBAA,2004-06-24 21:00,ZBAA 242100Z AUTO 09002KT 7SM 19/17 A2956 RMK 70026 SLP005 T01900168 57001 IEM_DS3505
ZBAA,2004-06-24 22:00,ZBAA 242200Z AUTO 01002KT 1 1/2SM 18/18 A2956 RMK T01800180 IEM_DS3505
ZBAA,2004-06-24 23:00,ZBAA 242300Z AUTO 34002KT 2SM 19/19 A2959 RMK T01900190 IEM_DS3505
ZBAA,2004-06-25 00:00,ZBAA 250000Z AUTO 04004KT 7SM 22/17 A2959 RMK 70026 SLP009 T02150173 52004 IEM_DS3505
ZBAA,2004-06-25 01:00,ZBAA 250100Z AUTO 36004KT 4SM 22/20 A2956 RMK T02200200 IEM_DS3505
ZBAA,2004-06-25 02:00,ZBAA 250200Z AUTO 2 1/2SM 24/20 A2956 RMK T02400200 IEM_DS3505
ZBAA,2004-06-25 03:00,ZBAA 250300Z AUTO 07004KT 6SM 26/18 A2956 RMK SLP011 T02550179 52002 IEM_DS3505
ZBAA,2004-06-25 04:00,ZBAA 250400Z AUTO 27/21 A2956 RMK T02700210 IEM_DS3505
ZBAA,2004-06-25 05:00,ZBAA 250500Z AUTO 27/20 A2956 RMK T02700200 IEM_DS3505
ZBAA,2004-06-25 06:00,ZBAA 250600Z AUTO 16006KT 6SM 28/18 A2953 RMK SLP996 T02810179 57014 IEM_DS3505
ZBAA,2004-06-25 07:00,ZBAA 250700Z AUTO 14006KT 6SM 29/20 A2953 RMK T02900200 IEM_DS3505
ZBAA,2004-06-25 08:00,ZBAA 250800Z AUTO 15004KT 7SM 28/20 A2950 RMK T02800200 IEM_DS3505
ZBAA,2004-06-25 09:00,ZBAA 250900Z AUTO 25006KT 6SM 29/18 A2950 RMK SLP989 T02870185 57007 IEM_DS3505
ZBAA,2004-06-25 13:00,ZBAA 251300Z AUTO 11004KT 3SM 25/22 A2959 RMK T02500220 IEM_DS3505
ZBAA,2004-06-25 14:00,ZBAA 251400Z AUTO 11006KT 3SM 24/21 A2959 RMK T02400210 IEM_DS3505
ZBAA,2004-06-25 15:00,ZBAA 251500Z AUTO 09006KT 7SM 24/18 A2959 RMK SLP019 T02370184 52013 IEM_DS3505
ZBAA,2004-06-25 16:00,ZBAA 251600Z AUTO 09004KT 2 1/2SM 22/20 A2962 RMK T02200200 IEM_DS3505
ZBAA,2004-06-25 18:00,ZBAA 251800Z AUTO 02002KT 4SM 22/19 A2962 RMK SLP022 T02190189 52003 IEM_DS3505
ZBAA,2004-06-25 19:00,ZBAA 251900Z AUTO 00000KT 2 1/2SM 21/20 A2962 RMK T02100200 IEM_DS3505
ZBAA,2004-06-25 20:00,ZBAA 252000Z AUTO 00000KT 2 1/2SM 21/21 A2962 RMK T02100210 IEM_DS3505
ZBAA,2004-06-25 21:00,ZBAA 252100Z AUTO 09004KT 4SM 22/19 A2962 RMK SLP029 T02150187 52007 IEM_DS3505
ZBAA,2004-06-25 22:00,ZBAA 252200Z AUTO 14002KT 1 1/2SM 22/21 A2965 RMK T02200210 IEM_DS3505
ZBAA,2004-06-25 23:00,ZBAA 252300Z AUTO 36004KT 1 1/2SM 22/21 A2965 RMK T02200210 IEM_DS3505
ZBAA,2004-06-26 00:00,ZBAA 260000Z AUTO 04004KT 5SM 24/20 A2965 RMK SLP038 T02380195 52009 IEM_DS3505
ZBAA,2004-06-26 01:00,ZBAA 260100Z AUTO 2SM 26/22 A2968 RMK T02600220 IEM_DS3505
ZBAA,2004-06-26 02:00,ZBAA 260200Z AUTO 2SM 28/23 A2968 RMK T02800230 IEM_DS3505
ZBAA,2004-06-26 03:00,ZBAA 260300Z AUTO 14002KT 6SM 29/20 A2968 RMK SLP041 T02880200 52003 IEM_DS3505
ZBAA,2004-06-26 04:00,ZBAA 260400Z AUTO 14004KT 2SM 30/24 A2965 RMK T03000240 IEM_DS3505
ZBAA,2004-06-26 05:00,ZBAA 260500Z AUTO 2 1/2SM 31/22 A2962 RMK T03100220 IEM_DS3505
ZBAA,2004-06-26 06:00,ZBAA 260600Z AUTO 11002KT 9SM 32/18 A2962 RMK SLP022 T03180184 57019 IEM_DS3505
ZBAA,2004-06-26 07:00,ZBAA 260700Z AUTO 12006KT 32/21 A2962 RMK T03200210 IEM_DS3505
ZBAA,2004-06-26 08:00,ZBAA 260800Z AUTO 15008KT 32/23 A2962 RMK T03200230 IEM_DS3505
ZBAA,2004-06-26 09:00,ZBAA 260900Z AUTO 22006KT 12SM 32/18 A2959 RMK SLP019 T03250183 57003 IEM_DS3505
ZBAA,2004-06-26 10:00,ZBAA 261000Z AUTO 18006KT 5SM 32/22 A2962 RMK T03200220 IEM_DS3505
ZBAA,2004-06-26 11:00,ZBAA 261100Z AUTO 12006KT 31/23 A2962 RMK T03100230 IEM_DS3505
ZBAA,2004-06-26 12:00,ZBAA 261200Z AUTO 20004KT 9SM 28/21 A2968 RMK SLP042 T02840214 52023 IEM_DS3505
ZBAA,2004-06-26 13:00,ZBAA 261300Z AUTO 15004KT 2 1/2SM 27/24 A2968 RMK T02700240 IEM_DS3505
ZBAA,2004-06-26 14:00,ZBAA 261400Z AUTO 11004KT 2SM 26/24 A2971 RMK T02600240 IEM_DS3505
ZBAA,2004-06-26 15:00,ZBAA 261500Z AUTO 16004KT 6SM 26/21 A2971 RMK SLP057 T02590209 52015 IEM_DS3505
ZBAA,2004-06-26 16:00,ZBAA 261600Z AUTO 11004KT 2 1/2SM 24/22 A2971 RMK T02400220 IEM_DS3505
ZBAA,2004-06-26 17:00,ZBAA 261700Z AUTO 11004KT 2 1/2SM 24/22 A2974 RMK T02400220 IEM_DS3505
ZBAA,2004-06-26 18:00,ZBAA 261800Z AUTO 09004KT 4SM 24/21 A2974 RMK SLP060 T02420207 52003 IEM_DS3505
ZBAA,2004-06-26 19:00,ZBAA 261900Z AUTO 13004KT 2SM 23/22 A2974 RMK T02300220 IEM_DS3505
ZBAA,2004-06-26 20:00,ZBAA 262000Z AUTO 00000KT 1 1/2SM 23/22 A2974 RMK T02300220 IEM_DS3505
ZBAA,2004-06-26 20:30,ZBAA 262030Z AUTO 36002KT 1 1/4SM 23/22 A2974 RMK T02300220 IEM_DS3505
ZBAA,2004-06-26 21:00,ZBAA 262100Z AUTO 07002KT 2 1/2SM 23/20 A2974 RMK SLP065 T02300203 52005 IEM_DS3505
ZBAA,2004-06-26 21:30,ZBAA 262130Z AUTO 00000KT 1 1/4SM 22/22 A2974 RMK T02200220 IEM_DS3505
ZBAA,2004-06-26 22:00,ZBAA 262200Z AUTO 11002KT 1 1/4SM 23/22 A2974 RMK T02300220 IEM_DS3505
ZBAA,2004-06-26 23:00,ZBAA 262300Z AUTO 12004KT 1 1/4SM 24/23 A2974 RMK T02400230 IEM_DS3505
ZBAA,2004-06-27 00:00,ZBAA 270000Z AUTO 36002KT 5SM 26/21 A2977 RMK SLP072 T02560206 52007 IEM_DS3505
ZBAA,2004-06-27 01:00,ZBAA 270100Z AUTO 1 1/4SM 27/23 A2977 RMK T02700230 IEM_DS3505
ZBAA,2004-06-27 02:00,ZBAA 270200Z AUTO 1 1/4SM 28/24 A2974 RMK T02800240 IEM_DS3505
ZBAA,2004-06-27 03:00,ZBAA 270300Z AUTO 14002KT 6SM 30/22 A2974 RMK SLP066 T02990216 57006 IEM_DS3505
ZBAA,2004-06-27 04:00,ZBAA 270400Z AUTO 14004KT 2SM 30/25 A2971 RMK T03000250 IEM_DS3505
ZBAA,2004-06-27 05:00,ZBAA 270500Z AUTO 16004KT 2SM 31/25 A2971 RMK T03100250 IEM_DS3505
ZBAA,2004-06-27 06:00,ZBAA 270600Z AUTO 20004KT 6SM 32/21 A2968 RMK SLP047 T03220214 57019 IEM_DS3505
ZBAA,2004-06-27 07:00,ZBAA 270700Z AUTO 17006KT 2SM 33/25 A2968 RMK T03300250 IEM_DS3505
ZBAA,2004-06-27 08:00,ZBAA 270800Z AUTO 15006KT 2SM 34/26 A2965 RMK T03400260 IEM_DS3505
ZBAA,2004-06-27 09:00,ZBAA 270900Z AUTO 20006KT 6SM 34/22 A2965 RMK SLP036 T03350216 57011 IEM_DS3505
ZBAA,2004-06-27 10:00,ZBAA 271000Z AUTO 15006KT 33/24 A2965 RMK T03300240 IEM_DS3505
ZBAA,2004-06-27 11:00,ZBAA 271100Z AUTO 16006KT 3SM 32/25 A2965 RMK T03200250 IEM_DS3505
ZBAA,2004-06-27 12:00,ZBAA 271200Z AUTO 18004KT 6SM 31/22 A2968 RMK SLP044 T03090220 52008 IEM_DS3505
ZBAA,2004-06-27 13:00,ZBAA 271300Z AUTO 13004KT 2 1/2SM 29/26 A2968 RMK T02900260 IEM_DS3505
ZBAA,2004-06-27 14:00,ZBAA 271400Z AUTO 13004KT 2 1/2SM 28/26 A2971 RMK T02800260 IEM_DS3505
ZBAA,2004-06-27 15:00,ZBAA 271500Z AUTO 18004KT 4SM 29/22 A2971 RMK SLP053 T02860224 52009 IEM_DS3505
ZBAA,2004-06-27 16:00,ZBAA 271600Z AUTO 11006KT 2SM 26/24 A2971 RMK T02600240 IEM_DS3505
ZBAA,2004-06-27 17:00,ZBAA 271700Z AUTO 12006KT 2SM 25/24 A2971 RMK T02500240 IEM_DS3505
ZBAA,2004-06-27 18:00,ZBAA 271800Z AUTO 11004KT 4SM 26/22 A2968 RMK SLP047 T02630219 57006 IEM_DS3505
ZBAA,2004-06-27 19:00,ZBAA 271900Z AUTO 1 1/4SM 24/24 A2968 RMK T02400240 IEM_DS3505
ZBAA,2004-06-27 20:00,ZBAA 272000Z AUTO 10004KT 1SM 24/23 A2968 RMK T02400230 IEM_DS3505
ZBAA,2004-06-27 21:00,ZBAA 272100Z AUTO 07004KT 2 1/2SM 24/22 A2968 RMK SLP045 T02450218 57002 IEM_DS3505
ZBAA,2004-06-27 22:00,ZBAA 272200Z AUTO 12006KT 1SM 24/23 A2968 RMK T02400230 IEM_DS3505
ZBAA,2004-06-27 23:00,ZBAA 272300Z AUTO 11006KT 1SM 24/23 A2968 RMK T02400230 IEM_DS3505
ZBAA,2004-06-28 00:00,ZBAA 280000Z AUTO 07004KT 2SM 25/22 A2968 RMK SLP045 T02510218 54000 IEM_DS3505
ZBAA,2004-06-28 01:00,ZBAA 280100Z AUTO 14002KT 1SM 25/24 A2968 RMK T02500240 IEM_DS3505
ZBAA,2004-06-28 02:00,ZBAA 280200Z AUTO 23002KT 1SM 27/24 A2968 RMK T02700240 IEM_DS3505
ZBAA,2004-06-28 03:00,ZBAA 280300Z AUTO 11004KT 2SM 29/22 A2968 RMK SLP039 T02900220 57006 IEM_DS3505
ZBAA,2004-06-28 04:00,ZBAA 280400Z AUTO 13002KT 1SM 29/25 A2965 RMK T02900250 IEM_DS3505
ZBAA,2004-06-28 05:00,ZBAA 280500Z AUTO 18004KT 1SM 30/25 A2962 RMK T03000250 IEM_DS3505
ZBAA,2004-06-28 06:00,ZBAA 280600Z AUTO 25002KT 2 1/2SM 32/22 A2962 RMK SLP016 T03160223 57023 IEM_DS3505
ZBAA,2004-06-28 07:00,ZBAA 280700Z AUTO 01004KT 1SM 29/25 A2959 RMK T02900250 IEM_DS3505
ZBAA,2004-06-28 08:00,ZBAA 280800Z AUTO 01002KT 1SM 29/26 A2959 RMK T02900260 IEM_DS3505
ZBAA,2004-06-28 09:00,ZBAA 280900Z AUTO 04002KT 2SM 30/23 A2956 RMK SLP006 T03040226 57010 IEM_DS3505
ZBAA,2004-06-28 10:00,ZBAA 281000Z AUTO 00000KT 1SM 30/25 A2956 RMK T03000250 IEM_DS3505
ZBAA,2004-06-28 11:00,ZBAA 281100Z AUTO 1SM 28/25 A2956 RMK T02800250 IEM_DS3505
ZBAA,2004-06-28 12:00,ZBAA 281200Z AUTO 09004KT 2SM 29/23 A2956 RMK SLP005 T02920229 57001 IEM_DS3505
ZBAA,2004-06-28 13:00,ZBAA 281300Z AUTO 36002KT 1SM 27/25 A2959 RMK T02700250 IEM_DS3505
ZBAA,2004-06-28 14:00,ZBAA 281400Z AUTO 20002KT 1SM 27/25 A2959 RMK T02700250 IEM_DS3505
ZBAA,2004-06-28 15:00,ZBAA 281500Z AUTO 02002KT 2SM 28/23 A2962 RMK SLP018 T02800232 52013 IEM_DS3505
ZBAA,2004-06-28 16:00,ZBAA 281600Z AUTO 26004KT 1SM 27/25 A2962 RMK T02700250 IEM_DS3505
ZBAA,2004-06-28 17:00,ZBAA 281700Z AUTO 36006KT 1SM 26/25 A2959 RMK T02600250 IEM_DS3505
ZBAA,2004-06-28 18:00,ZBAA 281800Z AUTO 02004KT 1 1/4SM 27/23 A2959 RMK SLP016 T02700226 57002 IEM_DS3505
ZBAA,2004-06-28 19:00,ZBAA 281900Z AUTO 00000KT 1SM 25/24 A2962 RMK T02500240 IEM_DS3505
ZBAA,2004-06-28 20:00,ZBAA 282000Z AUTO 00000KT 1SM 25/24 A2962 RMK T02500240 IEM_DS3505
ZBAA,2004-06-28 21:00,ZBAA 282100Z AUTO 04004KT 1 1/4SM 27/21 A2962 RMK 70000 SLP029 T02660214 52013 IEM_DS3505
ZBAA,2004-06-28 22:00,ZBAA 282200Z AUTO 16004KT 2 1/2SM 25/23 A2965 RMK T02500230 IEM_DS3505
ZBAA,2004-06-28 23:00,ZBAA 282300Z AUTO 15004KT 2 1/2SM 25/23 A2968 RMK T02500230 IEM_DS3505
ZBAA,2004-06-29 00:00,ZBAA 290000Z AUTO 14010KT 6SM 26/20 A2971 RMK 60000 70000 SLP051 T02570203 52022 IEM_DS3505
ZBAA,2004-06-29 01:00,ZBAA 290100Z AUTO 13006KT 7SM 26/22 A2971 RMK T02600220 IEM_DS3505
ZBAA,2004-06-29 02:00,ZBAA 290200Z AUTO 5SM 25/22 A2974 RMK T02500220 IEM_DS3505
ZBAA,2004-06-29 03:00,ZBAA 290300Z AUTO 07006KT 7SM 26/19 A2974 RMK SLP064 T02640188 52013 IEM_DS3505
ZBAA,2004-06-29 04:00,ZBAA 290400Z AUTO 5SM 24/21 A2977 RMK T02400210 IEM_DS3505
ZBAA,2004-06-29 05:00,ZBAA 290500Z AUTO 5SM 24/22 A2974 RMK T02400220 IEM_DS3505
ZBAA,2004-06-29 06:00,ZBAA 290600Z AUTO 04010KT 9SM 25/17 A2974 RMK 60000 SLP057 T02460171 57007 IEM_DS3505
ZBAA,2004-06-29 07:00,ZBAA 290700Z AUTO 01006KT 6SM 23/21 A2971 RMK T02300210 IEM_DS3505
ZBAA,2004-06-29 08:00,ZBAA 290800Z AUTO 35006KT 7SM 23/22 A2971 RMK T02300220 IEM_DS3505
ZBAA,2004-06-29 09:00,ZBAA 290900Z AUTO 02004KT 9SM 24/18 A2968 RMK SLP048 T02410176 57009 IEM_DS3505
ZBAA,2004-06-29 10:00,ZBAA 291000Z AUTO 35004KT 6SM 23/21 A2968 RMK T02300210 IEM_DS3505
ZBAA,2004-06-29 11:00,ZBAA 291100Z AUTO 31006KT 6SM 23/21 A2971 RMK T02300210 IEM_DS3505
ZBAA,2004-06-29 12:00,ZBAA 291200Z AUTO 04002KT 9SM 24/18 A2971 RMK SLP052 T02430178 52004 IEM_DS3505
ZBAA,2004-06-29 13:00,ZBAA 291300Z AUTO 31004KT 5SM 24/21 A2971 RMK T02400210 IEM_DS3505
ZBAA,2004-06-29 14:00,ZBAA 291400Z AUTO 29002KT 4SM 23/21 A2974 RMK T02300210 IEM_DS3505
ZBAA,2004-06-29 15:00,ZBAA 291500Z AUTO 18006KT 6SM 24/19 A2974 RMK SLP066 T02350188 52014 IEM_DS3505
ZBAA,2004-06-29 16:00,ZBAA 291600Z AUTO 14002KT 4SM 23/22 A2974 RMK T02300220 IEM_DS3505
ZBAA,2004-06-29 17:00,ZBAA 291700Z AUTO 17002KT 4SM 23/22 A2974 RMK T02300220 IEM_DS3505
ZBAA,2004-06-29 18:00,ZBAA 291800Z AUTO 27004KT 7SM 23/19 A2974 RMK 60000 SLP063 T02310189 57004 IEM_DS3505
ZBAA,2004-06-29 19:00,ZBAA 291900Z AUTO 00000KT 1 1/2SM 22/22 A2974 RMK T02200220 IEM_DS3505
ZBAA,2004-06-29 20:00,ZBAA 292000Z AUTO 29006KT 1 1/4SM 22/21 A2974 RMK T02200210 IEM_DS3505
ZBAA,2004-06-29 20:30,ZBAA 292030Z AUTO 28006KT 1 1/2SM A2974 RMK IEM_DS3505
ZBAA,2004-06-29 21:00,ZBAA 292100Z AUTO 29008KT 5SM 20/18 A2974 RMK 70020 SLP067 T02030181 52004 IEM_DS3505
ZBAA,2004-06-29 21:30,ZBAA 292130Z AUTO 23004KT 1 1/2SM 21/21 A2974 RMK T02100210 IEM_DS3505
ZBAA,2004-06-29 22:00,ZBAA 292200Z AUTO 27002KT 2SM 20/20 A2977 RMK T02000200 IEM_DS3505
ZBAA,2004-06-29 23:00,ZBAA 292300Z AUTO 35002KT 1 1/2SM 20/ RMK IEM_DS3505
ZBAA,2004-06-30 00:00,ZBAA 300000Z AUTO 2 1/2SM A2977 RMK IEM_DS3505
ZBAA,2004-06-30 00:30,ZBAA 300030Z AUTO 11004KT 3SM RMK IEM_DS3505
ZBAA,2004-06-30 01:00,ZBAA 300100Z AUTO 10004KT 2 1/2SM RMK IEM_DS3505
ZBAA,2004-06-30 02:00,ZBAA 300200Z AUTO 3SM 20/19 A2977 RMK T02000190 IEM_DS3505
ZBAA,2004-06-30 03:00,ZBAA 300300Z AUTO 04002KT 12SM 21/16 A2974 RMK SLP067 T02070155 57003 IEM_DS3505
ZBAA,2004-06-30 04:00,ZBAA 300400Z AUTO 36006KT 4SM 19/19 A2977 RMK T01900190 IEM_DS3505
ZBAA,2004-06-30 05:00,ZBAA 300500Z AUTO 36008KT 7SM 18/18 A2974 RMK T01800180 IEM_DS3505
ZBAA,2004-06-30 06:00,ZBAA 300600Z AUTO 04004KT 9SM 19/15 A2974 RMK 60002 SLP066 T01870154 57001 IEM_DS3505
ZBAA,2004-06-30 07:00,ZBAA 300700Z AUTO 35006KT 5SM 17/17 A2974 RMK T01700170 IEM_DS3505
ZBAA,2004-06-30 08:00,ZBAA 300800Z AUTO 01004KT 5SM 17/17 A2974 RMK T01700170 IEM_DS3505
ZBAA,2004-06-30 09:00,ZBAA 300900Z AUTO 02004KT 9SM 17/15 RMK SLP064 T01740152 57002 IEM_DS3505
ZBAA,2004-06-30 10:00,ZBAA 301000Z AUTO 09006KT 7SM 17/16 A2974 RMK T01700160 IEM_DS3505
ZBAA,2004-06-30 11:00,ZBAA 301100Z AUTO 00000KT 7SM 17/16 A2974 RMK T01700160 IEM_DS3505
ZBAA,2004-06-30 12:00,ZBAA 301200Z AUTO 07006KT 12SM 17/14 A2974 RMK 60004 SLP060 T01690142 57004 IEM_DS3505
ZBAA,2004-06-30 13:00,ZBAA 301300Z AUTO 00000KT 7SM 16/16 A2974 RMK T01600160 IEM_DS3505
ZBAA,2004-06-30 14:00,ZBAA 301400Z AUTO 00000KT 4SM 16/16 A2974 RMK T01600160 IEM_DS3505
ZBAA,2004-06-30 15:00,ZBAA 301500Z AUTO 11002KT 9SM 16/14 A2971 RMK SLP058 T01650143 57002 IEM_DS3505
ZBAA,2004-06-30 16:00,ZBAA 301600Z AUTO 25004KT 2 1/2SM 16/16 A2968 RMK T01600160 IEM_DS3505
ZBAA,2004-06-30 17:00,ZBAA 301700Z AUTO 19002KT 2SM 16/16 A2968 RMK T01600160 IEM_DS3505
ZBAA,2004-06-30 18:00,ZBAA 301800Z AUTO 20002KT 9SM 16/14 A2968 RMK 60012 SLP040 T01630143 57018 IEM_DS3505
ZBAA,2004-06-30 19:00,ZBAA 301900Z AUTO 00000KT 1 1/4SM 16/16 A2965 RMK T01600160 IEM_DS3505
ZBAA,2004-06-30 20:00,ZBAA 302000Z AUTO 00000KT 1 1/4SM 16/16 A2962 RMK T01600160 IEM_DS3505
ZBAA,2004-06-30 21:00,ZBAA 302100Z AUTO 29002KT 5SM 16/15 A2962 RMK 70026 SLP026 T01640146 57014 IEM_DS3505
ZBAA,2004-06-30 22:00,ZBAA 302200Z AUTO 00000KT 1SM 16/16 A2962 RMK T01600160 IEM_DS3505
ZBAA,2004-06-30 23:00,ZBAA 302300Z AUTO 11002KT 1SM 16/16 A2962 RMK T01600160 IEM_DS3505
ZBAA,2004-07-01 00:00,ZBAA 010000Z AUTO 22004KT 4SM 18/15 A2962 RMK 60000 70017 SLP025 T01830152 57001 IEM_DS3505
ZBAA,2004-07-01 01:00,ZBAA 010100Z AUTO 00000KT 2SM 18/18 A2962 RMK T01800180 IEM_DS3505
ZBAA,2004-07-01 02:00,ZBAA 010200Z AUTO 12002KT 2SM 19/18 A2959 RMK T01900180 IEM_DS3505
ZBAA,2004-07-01 03:00,ZBAA 010300Z AUTO 25004KT 7SM 20/15 A2959 RMK SLP017 T02000154 57008 IEM_DS3505
ZBAA,2004-07-01 04:00,ZBAA 010400Z AUTO 2SM 21/19 A2959 RMK T02100190 IEM_DS3505
ZBAA,2004-07-01 05:00,ZBAA 010500Z AUTO 17002KT 2SM 21/19 A2956 RMK T02100190 IEM_DS3505
ZBAA,2004-07-01 06:00,ZBAA 010600Z AUTO 20006KT 7SM 21/16 A2953 RMK SLP002 T02140164 57015 IEM_DS3505
ZBAA,2004-07-01 07:00,ZBAA 010700Z AUTO 21004KT 3SM 22/19 A2953 RMK T02200190 IEM_DS3505
ZBAA,2004-07-01 08:00,ZBAA 010800Z AUTO 4SM 22/19 A2953 RMK T02200190 IEM_DS3505
ZBAA,2004-07-01 09:00,ZBAA 010900Z AUTO 14012KT 7SM 21/17 A2950 RMK SLP990 T02080172 57012 IEM_DS3505
ZBAA,2004-07-01 10:00,ZBAA 011000Z AUTO 32008KT 2 1/2SM 22/20 A2950 RMK T02200200 IEM_DS3505
ZBAA,2004-07-01 11:00,ZBAA 011100Z AUTO 32006KT 2SM 21/19 A2953 RMK T02100190 IEM_DS3505
ZBAA,2004-07-01 12:00,ZBAA 011200Z AUTO 27004KT 5SM 20/18 A2953 RMK 60008 SLP995 T02050175 52005 IEM_DS3505
ZBAA,2004-07-01 13:00,ZBAA 011300Z AUTO 36006KT 1SM 20/19 A2953 RMK T02000190 IEM_DS3505
ZBAA,2004-07-01 14:00,ZBAA 011400Z AUTO 35002KT 1SM 19/19 A2953 RMK T01900190 IEM_DS3505
ZBAA,2004-07-01 15:00,ZBAA 011500Z AUTO 29002KT 4SM 19/17 A2953 RMK SLP999 T01940172 52004 IEM_DS3505
ZBAA,2004-07-01 16:00,ZBAA 011600Z AUTO 00000KT 1SM 19/18 A2953 RMK T01900180 IEM_DS3505
ZBAA,2004-07-01 17:00,ZBAA 011700Z AUTO 30002KT 1SM 18/18 A2953 RMK T01800180 IEM_DS3505
ZBAA,2004-07-01 18:00,ZBAA 011800Z AUTO 27002KT 3SM 19/17 A2953 RMK SLP994 T01860169 57005 IEM_DS3505
ZBAA,2004-07-01 19:00,ZBAA 011900Z AUTO 34004KT 1SM 17/17 A2953 RMK T01700170 IEM_DS3505
ZBAA,2004-07-01 20:00,ZBAA 012000Z AUTO 32004KT 1SM 17/17 A2953 RMK T01700170 IEM_DS3505
ZBAA,2004-07-01 21:00,ZBAA 012100Z AUTO 29002KT 2SM 18/16 A2953 RMK 70009 SLP999 T01800165 52005 IEM_DS3505
ZBAA,2004-07-01 22:00,ZBAA 012200Z AUTO 32008KT 1SM 18/18 A2956 RMK T01800180 IEM_DS3505
ZBAA,2004-07-01 23:00,ZBAA 012300Z AUTO 32006KT 1 1/2SM 20/20 A2953 RMK T02000200 IEM_DS3505
ZBAA,2004-07-02 00:00,ZBAA 020000Z AUTO 36004KT 5SM 23/18 A2956 RMK 70009 SLP003 T02320181 52004 IEM_DS3505
ZBAA,2004-07-02 01:00,ZBAA 020100Z AUTO 36004KT 3SM 25/21 A2956 RMK T02500210 IEM_DS3505
ZBAA,2004-07-02 02:00,ZBAA 020200Z AUTO 33006KT 6SM 29/22 A2956 RMK T02900220 IEM_DS3505
ZBAA,2004-07-02 03:00,ZBAA 020300Z AUTO 02004KT 12SM 32/15 A2956 RMK SLP003 T03160147 52001 IEM_DS3505
ZBAA,2004-07-02 16:00,ZBAA 021600Z AUTO 02002KT 6SM 23/19 A2962 RMK T02300190 IEM_DS3505
ZBAA,2004-07-02 17:00,ZBAA 021700Z AUTO 6SM 22/19 A2962 RMK T02200190 IEM_DS3505
ZBAA,2004-07-02 18:00,ZBAA 021800Z AUTO 07004KT 7SM 24/18 A2962 RMK SLP019 T02450182 52001 IEM_DS3505
ZBAA,2004-07-02 19:00,ZBAA 021900Z AUTO 36002KT 6SM 21/19 A2962 RMK T02100190 IEM_DS3505
ZBAA,2004-07-02 20:00,ZBAA 022000Z AUTO 6SM 21/19 A2962 RMK T02100190 IEM_DS3505
ZBAA,2004-07-02 21:00,ZBAA 022100Z AUTO 07004KT 5SM 22/18 A2962 RMK SLP020 T02210185 52001 IEM_DS3505
ZBAA,2004-07-02 21:30,ZBAA 022130Z AUTO 01002KT 6SM 21/19 A2962 RMK T02100190 IEM_DS3505
ZBAA,2004-07-02 23:00,ZBAA 022300Z AUTO 01002KT 6SM 22/20 A2962 RMK T02200200 IEM_DS3505
ZBAA,2004-07-03 00:00,ZBAA 030000Z AUTO 09006KT 5SM 24/19 A2965 RMK SLP028 T02400191 52008 IEM_DS3505
ZBAA,2004-07-03 01:00,ZBAA 030100Z AUTO 3SM 26/21 A2962 RMK T02600210 IEM_DS3505
ZBAA,2004-07-03 02:00,ZBAA 030200Z AUTO 13004KT 2 1/2SM 27/22 A2962 RMK T02700220 IEM_DS3505
ZBAA,2004-07-03 03:00,ZBAA 030300Z AUTO 22006KT 6SM 30/20 A2962 RMK SLP021 T02950195 57007 IEM_DS3505
ZBAA,2004-07-03 04:00,ZBAA 030400Z AUTO 14006KT 2SM 30/22 A2959 RMK T03000220 IEM_DS3505
ZBAA,2004-07-03 05:00,ZBAA 030500Z AUTO 17008KT 2 1/2SM 30/23 A2959 RMK T03000230 IEM_DS3505
ZBAA,2004-07-03 06:00,ZBAA 030600Z AUTO 20010KT 12SM 32/17 A2956 RMK SLP004 T03150170 57017 IEM_DS3505
ZBAA,2004-07-03 07:00,ZBAA 030700Z AUTO 15010KT 31/23 A2953 RMK T03100230 IEM_DS3505
ZBAA,2004-07-03 08:00,ZBAA 030800Z AUTO 15012KT 6SM 31/21 A2950 RMK T03100210 IEM_DS3505
ZBAA,2004-07-03 09:00,ZBAA 030900Z AUTO 16010KT 12SM 31/19 A2950 RMK SLP982 T03090186 57022 IEM_DS3505
ZBAA,2004-07-03 10:00,ZBAA 031000Z AUTO 14012KT 7SM 29/19 A2950 RMK T02900190 IEM_DS3505
ZBAA,2004-07-03 11:00,ZBAA 031100Z AUTO 14008KT 7SM 28/19 A2956 RMK T02800190 IEM_DS3505
ZBAA,2004-07-03 12:00,ZBAA 031200Z AUTO 14004G37KT 9SM 28/16 A2965 RMK SLP009 T02840157 52027 IEM_DS3505
ZBAA,2004-07-03 13:00,ZBAA 031300Z AUTO 14004KT 7SM A2968 RMK IEM_DS3505
ZBAA,2004-07-03 13:30,ZBAA 031330Z AUTO 7SM 19/19 A2965 RMK T01900190 IEM_DS3505
ZBAA,2004-07-03 14:00,ZBAA 031400Z AUTO 10006KT 7SM 20/20 A2962 RMK T02000200 IEM_DS3505
ZBAA,2004-07-03 15:00,ZBAA 031500Z AUTO 27004KT 9SM 21/18 A2962 RMK SLP027 T02130177 52018 IEM_DS3505
ZBAA,2004-07-03 16:00,ZBAA 031600Z AUTO 27006KT 6SM 20/19 A2962 RMK T02000190 IEM_DS3505
ZBAA,2004-07-03 17:00,ZBAA 031700Z AUTO 30006KT 6SM 20/19 A2959 RMK T02000190 IEM_DS3505
ZBAA,2004-07-03 18:00,ZBAA 031800Z AUTO 07004KT 7SM 21/18 A2956 RMK 60024 SLP999 T02090177 57028 IEM_DS3505
ZBAA,2004-07-03 19:00,ZBAA 031900Z AUTO 4SM 19/19 A2956 RMK T01900190 IEM_DS3505
ZBAA,2004-07-03 20:00,ZBAA 032000Z AUTO 34002KT 4SM 19/19 A2956 RMK T01900190 IEM_DS3505
ZBAA,2004-07-03 21:00,ZBAA 032100Z AUTO 14002KT 12SM 20/17 A2959 RMK 70023 SLP010 T02030173 52011 IEM_DS3505
ZBAA,2004-07-03 22:00,ZBAA 032200Z AUTO 00000KT 4SM 19/19 A2956 RMK T01900190 IEM_DS3505
ZBAA,2004-07-03 23:00,ZBAA 032300Z AUTO 09002KT 4SM 20/20 A2953 RMK T02000200 IEM_DS3505
ZBAA,2004-07-04 00:00,ZBAA 040000Z AUTO 34004KT 16SM 23/17 A2956 RMK 70023 SLP006 T02340174 57004 IEM_DS3505
ZBAA,2004-07-04 01:00,ZBAA 040100Z AUTO 4SM 23/20 A2956 RMK T02300200 IEM_DS3505
ZBAA,2004-07-04 02:00,ZBAA 040200Z AUTO 2 1/2SM 25/22 A2953 RMK T02500220 IEM_DS3505
ZBAA,2004-07-04 03:00,ZBAA 040300Z AUTO 07004KT 12SM 26/18 A2953 RMK SLP994 T02620181 57012 IEM_DS3505
ZBAA,2004-07-04 04:00,ZBAA 040400Z AUTO 2 1/2SM 27/22 A2953 RMK T02700220 IEM_DS3505
ZBAA,2004-07-04 05:00,ZBAA 040500Z AUTO 18004KT 2 1/2SM 28/23 A2950 RMK T02800230 IEM_DS3505
ZBAA,2004-07-04 06:00,ZBAA 040600Z AUTO 11004KT 16SM 28/19 A2950 RMK SLP977 T02840188 57017 IEM_DS3505
ZBAA,2004-07-04 07:00,ZBAA 040700Z AUTO 15004KT 2 1/2SM 28/22 A2947 RMK T02800220 IEM_DS3505
ZBAA,2004-07-04 08:00,ZBAA 040800Z AUTO 15006KT 2 1/2SM 29/23 A2944 RMK T02900230 IEM_DS3505
ZBAA,2004-07-04 09:00,ZBAA 040900Z AUTO 22004KT 16SM 29/20 A2944 RMK SLP964 T02920195 57013 IEM_DS3505
ZBAA,2004-07-04 10:00,ZBAA 041000Z AUTO 18006KT 2 1/2SM 28/23 A2944 RMK T02800230 IEM_DS3505
ZBAA,2004-07-04 11:00,ZBAA 041100Z AUTO 30014G25KT 3SM A2956 RMK IEM_DS3505
ZBAA,2004-07-04 12:00,ZBAA 041200Z AUTO 07004G25KT 19SM 21/16 A2950 RMK 60003 SLP970 T02120164 52006 IEM_DS3505
ZBAA,2004-07-04 13:00,ZBAA 041300Z AUTO 01008KT 7SM 19/19 A2947 RMK T01900190 IEM_DS3505
ZBAA,2004-07-04 14:00,ZBAA 041400Z AUTO 29004KT 6SM 19/19 A2947 RMK T01900190 IEM_DS3505
ZBAA,2004-07-04 15:00,ZBAA 041500Z AUTO 32002KT 19SM 20/16 A2944 RMK SLP972 T02050163 52002 IEM_DS3505
ZBAA,2004-07-04 16:00,ZBAA 041600Z AUTO 00000KT 6SM 19/18 A2944 RMK T01900180 IEM_DS3505
ZBAA,2004-07-04 17:00,ZBAA 041700Z AUTO 4SM 18/18 A2944 RMK T01800180 IEM_DS3505
ZBAA,2004-07-04 18:00,ZBAA 041800Z AUTO 00000KT 16SM 20/17 A2944 RMK SLP962 T02030167 57010 IEM_DS3505
ZBAA,2004-07-04 19:00,ZBAA 041900Z AUTO 34004KT 6SM 19/18 A2944 RMK T01900180 IEM_DS3505
ZBAA,2004-07-04 20:00,ZBAA 042000Z AUTO 26002KT 6SM 19/18 A2944 RMK T01900180 IEM_DS3505
ZBAA,2004-07-04 21:00,ZBAA 042100Z AUTO 34002KT 12SM 20/16 A2947 RMK 70004 SLP974 T01970164 52012 IEM_DS3505
ZBAA,2004-07-04 22:00,ZBAA 042200Z AUTO 33004KT 6SM 19/18 A2947 RMK T01900180 IEM_DS3505
ZBAA,2004-07-04 23:00,ZBAA 042300Z AUTO 32004KT 6SM 22/20 A2947 RMK T02200200 IEM_DS3505
ZBAA,2004-07-05 00:00,ZBAA 050000Z AUTO 29002KT 19SM 25/16 A2950 RMK 70004 SLP981 T02460161 52007 IEM_DS3505
ZBAA,2004-07-05 01:00,ZBAA 050100Z AUTO 36006KT 6SM 25/20 A2950 RMK T02500200 IEM_DS3505
ZBAA,2004-07-05 02:00,ZBAA 050200Z AUTO 35006KT 6SM 27/21 A2947 RMK T02700210 IEM_DS3505
ZBAA,2004-07-05 03:00,ZBAA 050300Z AUTO 02006KT 19SM 30/12 A2947 RMK SLP977 T02970122 57004 IEM_DS3505
ZBAA,2004-07-05 04:00,ZBAA 050400Z AUTO 6SM 30/20 A2947 RMK T03000200 IEM_DS3505
ZBAA,2004-07-05 05:00,ZBAA 050500Z AUTO 6SM 30/21 A2947 RMK T03000210 IEM_DS3505
ZBAA,2004-07-05 06:00,ZBAA 050600Z AUTO 32008KT 19SM 32/ A2947 RMK SLP972 57005 IEM_DS3505
ZBAA,2004-07-05 07:00,ZBAA 050700Z AUTO 6SM 32/19 A2944 RMK T03200190 IEM_DS3505
ZBAA,2004-07-05 07:30,ZBAA 050730Z AUTO 6SM 33/19 A2944 RMK T03300190 IEM_DS3505
ZBAA,2004-07-05 08:00,ZBAA 050800Z AUTO 32010KT 6SM 33/15 A2944 RMK T03300150 IEM_DS3505
ZBAA,2004-07-05 08:30,ZBAA 050830Z AUTO 31012KT 6SM 33/14 A2944 RMK T03300140 IEM_DS3505
ZBAA,2004-07-05 09:00,ZBAA 050900Z AUTO 32012KT 19SM 33/07 A2944 RMK SLP965 T03340074 57007 IEM_DS3505
ZBAA,2004-07-05 10:00,ZBAA 051000Z AUTO 31012KT 6SM 32/14 A2944 RMK T03200140 IEM_DS3505
ZBAA,2004-07-05 11:00,ZBAA 051100Z AUTO 31010KT 6SM 31/14 A2947 RMK T03100140 IEM_DS3505
ZBAA,2004-07-05 12:00,ZBAA 051200Z AUTO 29004KT 19SM 30/10 A2947 RMK SLP977 T03000101 52012 IEM_DS3505
ZBAA,2004-07-05 13:00,ZBAA 051300Z AUTO 35004KT 6SM 27/15 A2950 RMK T02700150 IEM_DS3505
ZBAA,2004-07-05 14:00,ZBAA 051400Z AUTO 34002KT 6SM 26/17 A2950 RMK T02600170 IEM_DS3505
ZBAA,2004-07-05 15:00,ZBAA 051500Z AUTO 32002KT 9SM 26/12 A2950 RMK SLP987 T02570118 52010 IEM_DS3505
ZBAA,2004-07-05 16:00,ZBAA 051600Z AUTO 32002KT 6SM 24/17 A2953 RMK T02400170 IEM_DS3505
ZBAA,2004-07-05 17:00,ZBAA 051700Z AUTO 34004KT 6SM 22/17 A2953 RMK T02200170 IEM_DS3505
ZBAA,2004-07-05 18:00,ZBAA 051800Z AUTO 00000KT 9SM 23/14 A2953 RMK SLP996 T02270143 52009 IEM_DS3505
ZBAA,2004-07-05 19:00,ZBAA 051900Z AUTO 34006KT 6SM 20/16 A2953 RMK T02000160 IEM_DS3505
ZBAA,2004-07-05 20:00,ZBAA 052000Z AUTO 33004KT 6SM 19/16 A2956 RMK T01900160 IEM_DS3505
ZBAA,2004-07-05 21:00,ZBAA 052100Z AUTO 00000KT 12SM 22/13 A2956 RMK SLP004 T02150134 52008 IEM_DS3505
ZBAA,2004-07-05 22:00,ZBAA 052200Z AUTO 34004KT 6SM 20/17 A2959 RMK T02000170 IEM_DS3505
ZBAA,2004-07-05 23:00,ZBAA 052300Z AUTO 34006KT 6SM 24/18 A2959 RMK T02400180 IEM_DS3505
ZBAA,2004-07-06 00:00,ZBAA 060000Z AUTO 02006KT 19SM 27/12 A2959 RMK SLP017 T02730125 52013 IEM_DS3505
ZBAA,2004-07-06 01:00,ZBAA 060100Z AUTO 35006KT 6SM 28/19 A2959 RMK T02800190 IEM_DS3505
ZBAA,2004-07-06 02:00,ZBAA 060200Z AUTO 6SM 29/19 A2959 RMK T02900190 IEM_DS3505
ZBAA,2004-07-06 03:00,ZBAA 060300Z AUTO 02008KT 19SM 32/ A2959 RMK SLP016 57001 IEM_DS3505
ZBAA,2004-07-06 04:00,ZBAA 060400Z AUTO 6SM 32/18 A2959 RMK T03200180 IEM_DS3505
ZBAA,2004-07-06 05:00,ZBAA 060500Z AUTO 6SM 32/17 A2956 RMK T03200170 IEM_DS3505
ZBAA,2004-07-06 06:00,ZBAA 060600Z AUTO 34006KT 19SM 34/ A2956 RMK SLP999 57017 IEM_DS3505
ZBAA,2004-07-06 07:00,ZBAA 060700Z AUTO 12008KT 6SM 32/18 A2956 RMK T03200180 IEM_DS3505
ZBAA,2004-07-06 08:00,ZBAA 060800Z AUTO 11006KT 6SM 32/17 A2953 RMK T03200170 IEM_DS3505
ZBAA,2004-07-06 08:30,ZBAA 060830Z AUTO 12006KT 6SM 32/18 A2956 RMK T03200180 IEM_DS3505
ZBAA,2004-07-06 09:00,ZBAA 060900Z AUTO 09006KT 19SM 33/13 A2956 RMK SLP998 T03270134 57001 IEM_DS3505
ZBAA,2004-07-06 10:00,ZBAA 061000Z AUTO 10006KT 6SM 31/19 A2956 RMK T03100190 IEM_DS3505
ZBAA,2004-07-06 11:00,ZBAA 061100Z AUTO 11004KT 6SM 30/19 A2956 RMK T03000190 IEM_DS3505
ZBAA,2004-07-06 12:00,ZBAA 061200Z AUTO 20004KT 19SM 30/15 A2959 RMK SLP012 T03020147 52014 IEM_DS3505
ZBAA,2004-07-06 13:00,ZBAA 061300Z AUTO 20006KT 6SM 29/18 A2959 RMK T02900180 IEM_DS3505
ZBAA,2004-07-06 14:00,ZBAA 061400Z AUTO 00000KT 6SM 26/19 A2962 RMK T02600190 IEM_DS3505
ZBAA,2004-07-06 15:00,ZBAA 061500Z AUTO 22002KT 12SM 27/14 A2962 RMK SLP025 T02740144 52013 IEM_DS3505
ZBAA,2004-07-06 16:00,ZBAA 061600Z AUTO 00000KT 6SM 25/20 A2965 RMK T02500200 IEM_DS3505
ZBAA,2004-07-06 17:00,ZBAA 061700Z AUTO 02002KT 6SM 23/20 A2965 RMK T02300200 IEM_DS3505
ZBAA,2004-07-06 18:00,ZBAA 061800Z AUTO 25002KT 12SM 24/16 A2965 RMK SLP029 T02450165 52004 IEM_DS3505
ZBAA,2004-07-06 19:00,ZBAA 061900Z AUTO 34002KT 6SM 22/20 A2965 RMK T02200200 IEM_DS3505
ZBAA,2004-07-06 20:00,ZBAA 062000Z AUTO 00000KT 6SM 22/19 A2965 RMK T02200190 IEM_DS3505
ZBAA,2004-07-06 21:00,ZBAA 062100Z AUTO 02004KT 9SM 23/18 A2965 RMK SLP035 T02290176 52006 IEM_DS3505
ZBAA,2004-07-06 22:00,ZBAA 062200Z AUTO 36002KT 6SM 21/19 A2968 RMK T02100190 IEM_DS3505
ZBAA,2004-07-06 23:00,ZBAA 062300Z AUTO 36002KT 6SM 25/21 A2968 RMK T02500210 IEM_DS3505
ZBAA,2004-07-07 00:00,ZBAA 070000Z AUTO 02006KT 7SM 26/19 RMK SLP051 T02620189 52016 IEM_DS3505
ZBAA,2004-07-07 01:00,ZBAA 070100Z AUTO 03002KT 6SM 27/20 A2971 RMK T02700200 IEM_DS3505
ZBAA,2004-07-07 02:00,ZBAA 070200Z AUTO 01004KT 6SM 28/20 A2971 RMK T02800200 IEM_DS3505
ZBAA,2004-07-07 03:00,ZBAA 070300Z AUTO 02006KT 19SM 29/15 A2971 RMK SLP054 T02920146 52003 IEM_DS3505
ZBAA,2004-07-07 04:00,ZBAA 070400Z AUTO 7SM 31/19 A2971 RMK T03100190 IEM_DS3505
ZBAA,2004-07-07 05:00,ZBAA 070500Z AUTO 01006G16KT 7SM 30/19 A2968 RMK T03000190 IEM_DS3505
ZBAA,2004-07-07 06:00,ZBAA 070600Z AUTO 04008KT 19SM 31/15 A2968 RMK SLP042 T03100146 57012 IEM_DS3505
ZBAA,2004-07-07 07:00,ZBAA 070700Z AUTO 30012KT 7SM 27/20 A2968 RMK T02700200 IEM_DS3505
ZBAA,2004-07-07 09:00,ZBAA 070900Z AUTO 04004KT 16SM 30/16 RMK SLP043 T02960161 52001 IEM_DS3505
ZBAA,2004-07-07 10:00,ZBAA 071000Z AUTO 09006KT 6SM 27/21 A2971 RMK T02700210 IEM_DS3505
ZBAA,2004-07-07 11:00,ZBAA 071100Z AUTO 14008KT 6SM 25/21 A2971 RMK T02500210 IEM_DS3505
ZBAA,2004-07-07 12:00,ZBAA 071200Z AUTO 04002KT 12SM 25/17 A2971 RMK SLP052 T02500170 52009 IEM_DS3505
ZBAA,2004-07-07 13:00,ZBAA 071300Z AUTO 6SM 23/20 A2974 RMK T02300200 IEM_DS3505
ZBAA,2004-07-07 14:00,ZBAA 071400Z AUTO 05002KT 6SM 23/20 A2974 RMK T02300200 IEM_DS3505
ZBAA,2004-07-07 15:00,ZBAA 071500Z AUTO 14004KT 12SM 24/17 A2974 RMK SLP061 T02350168 52009 IEM_DS3505
ZBAA,2004-07-07 16:00,ZBAA 071600Z AUTO 13002KT 5SM 23/21 A2974 RMK T02300210 IEM_DS3505
ZBAA,2004-07-07 17:00,ZBAA 071700Z AUTO 01002KT 4SM 22/21 A2974 RMK T02200210 IEM_DS3505
ZBAA,2004-07-07 18:00,ZBAA 071800Z AUTO 00000KT 9SM 23/17 A2974 RMK SLP062 T02300172 52001 IEM_DS3505
ZBAA,2004-07-07 19:00,ZBAA 071900Z AUTO 34004KT 5SM 21/20 A2974 RMK T02100200 IEM_DS3505
ZBAA,2004-07-07 20:00,ZBAA 072000Z AUTO 34004KT 6SM 20/20 A2974 RMK T02000200 IEM_DS3505
ZBAA,2004-07-07 21:00,ZBAA 072100Z AUTO 00000KT 9SM 23/18 A2974 RMK 70000 SLP063 T02280175 52001 IEM_DS3505
ZBAA,2004-07-07 22:00,ZBAA 072200Z AUTO 35006KT 6SM 21/20 A2974 RMK T02100200 IEM_DS3505
ZBAA,2004-07-07 23:00,ZBAA 072300Z AUTO 36004KT 6SM 24/20 A2974 RMK T02400200 IEM_DS3505
ZBAA,2004-07-08 00:00,ZBAA 080000Z AUTO 07004KT 12SM 26/17 A2974 RMK 70000 SLP065 T02600171 52002 IEM_DS3505
ZBAA,2004-07-08 01:00,ZBAA 080100Z AUTO 36004KT 6SM 27/20 A2974 RMK T02700200 IEM_DS3505
ZBAA,2004-07-08 02:00,ZBAA 080200Z AUTO 6SM 29/20 A2974 RMK T02900200 IEM_DS3505
ZBAA,2004-07-08 03:00,ZBAA 080300Z AUTO 04004KT 19SM 30/15 A2971 RMK SLP057 T03020147 57008 IEM_DS3505
ZBAA,2004-07-08 04:00,ZBAA 080400Z AUTO 6SM 31/20 A2971 RMK T03100200 IEM_DS3505
ZBAA,2004-07-08 05:00,ZBAA 080500Z AUTO 6SM 32/18 A2968 RMK T03200180 IEM_DS3505
ZBAA,2004-07-08 06:00,ZBAA 080600Z AUTO 25004KT 19SM 32/15 A2965 RMK SLP037 T03220152 57020 IEM_DS3505
ZBAA,2004-07-08 07:00,ZBAA 080700Z AUTO 15004KT 6SM 32/19 A2965 RMK T03200190 IEM_DS3505
ZBAA,2004-07-08 08:00,ZBAA 080800Z AUTO 13004KT 7SM 30/20 A2965 RMK T03000200 IEM_DS3505
ZBAA,2004-07-08 09:00,ZBAA 080900Z AUTO 09006KT 19SM 32/15 A2965 RMK SLP025 T03170152 57012 IEM_DS3505
ZBAA,2004-07-08 10:00,ZBAA 081000Z AUTO 09008KT 7SM 28/20 A2965 RMK T02800200 IEM_DS3505
ZBAA,2004-07-08 11:00,ZBAA 081100Z AUTO 09006KT 7SM 25/20 A2968 RMK T02500200 IEM_DS3505
ZBAA,2004-07-08 12:00,ZBAA 081200Z AUTO 16001KT 19SM 26/16 A2974 RMK SLP057 T02620165 52032 IEM_DS3505
ZBAA,2004-07-08 13:00,ZBAA 081300Z AUTO 7SM 24/20 A2977 RMK T02400200 IEM_DS3505
ZBAA,2004-07-08 14:00,ZBAA 081400Z AUTO 10006KT 7SM 24/21 A2974 RMK T02400210 IEM_DS3505
ZBAA,2004-07-08 15:00,ZBAA 081500Z AUTO 32006KT 16SM 23/18 A2974 RMK SLP067 T02260177 52010 IEM_DS3505
ZBAA,2004-07-08 16:00,ZBAA 081600Z AUTO 32004KT 6SM 23/20 A2974 RMK T02300200 IEM_DS3505
ZBAA,2004-07-08 17:00,ZBAA 081700Z AUTO 00000KT 6SM 22/20 A2974 RMK T02200200 IEM_DS3505
ZBAA,2004-07-08 19:00,ZBAA 081900Z AUTO 35002KT 6SM 21/20 A2971 RMK T02100200 IEM_DS3505
ZBAA,2004-07-08 20:00,ZBAA 082000Z AUTO 6SM 21/20 A2974 RMK T02100200 IEM_DS3505
ZBAA,2004-07-08 20:30,ZBAA 082030Z AUTO 19002KT 6SM 20/19 A2974 RMK T02000190 IEM_DS3505
ZBAA,2004-07-08 21:00,ZBAA 082100Z AUTO 27002KT 9SM 21/17 A2974 RMK 70003 SLP064 T02110171 52006 IEM_DS3505
ZBAA,2004-07-08 22:00,ZBAA 082200Z AUTO 36002KT 6SM 21/20 A2974 RMK T02100200 IEM_DS3505
ZBAA,2004-07-08 22:30,ZBAA 082230Z AUTO 00000KT 6SM 22/21 A2974 RMK T02200210 IEM_DS3505
ZBAA,2004-07-08 23:00,ZBAA 082300Z AUTO 33006KT 6SM 22/21 A2977 RMK T02200210 IEM_DS3505
ZBAA,2004-07-09 00:00,ZBAA 090000Z AUTO 07004KT 9SM 24/19 A2977 RMK 70003 SLP070 T02440186 52006 IEM_DS3505
ZBAA,2004-07-09 01:00,ZBAA 090100Z AUTO 6SM 26/21 A2977 RMK T02600210 IEM_DS3505
ZBAA,2004-07-09 02:00,ZBAA 090200Z AUTO 6SM 27/21 A2974 RMK T02700210 IEM_DS3505
ZBAA,2004-07-09 03:00,ZBAA 090300Z AUTO 09002KT 7SM 28/18 A2974 RMK SLP060 T02790183 57010 IEM_DS3505
ZBAA,2004-07-09 04:00,ZBAA 090400Z AUTO 12004KT 6SM 29/23 A2971 RMK T02900230 IEM_DS3505
ZBAA,2004-07-09 05:00,ZBAA 090500Z AUTO 13004KT 6SM 30/22 A2971 RMK T03000220 IEM_DS3505
ZBAA,2004-07-09 06:00,ZBAA 090600Z AUTO 18004KT 9SM 30/18 A2968 RMK SLP044 T03020180 57016 IEM_DS3505
ZBAA,2004-07-09 07:00,ZBAA 090700Z AUTO 15006KT 6SM 31/22 A2965 RMK T03100220 IEM_DS3505
ZBAA,2004-07-09 08:00,ZBAA 090800Z AUTO 17006KT 6SM 31/21 A2965 RMK T03100210 IEM_DS3505
ZBAA,2004-07-09 09:00,ZBAA 090900Z AUTO 22006KT 9SM 31/18 A2965 RMK SLP032 T03080178 57012 IEM_DS3505
ZBAA,2004-07-09 10:00,ZBAA 091000Z AUTO 15008KT 6SM 30/22 A2962 RMK T03000220 IEM_DS3505
ZBAA,2004-07-09 11:00,ZBAA 091100Z AUTO 18008KT 6SM 29/20 A2965 RMK T02900200 IEM_DS3505
ZBAA,2004-07-09 12:00,ZBAA 091200Z AUTO 20004KT 9SM 28/18 A2965 RMK SLP034 T02850177 52002 IEM_DS3505
ZBAA,2004-07-09 13:00,ZBAA 091300Z AUTO 18006KT 6SM 26/21 A2968 RMK T02600210 IEM_DS3505
ZBAA,2004-07-09 14:00,ZBAA 091400Z AUTO 15002KT 6SM 26/21 A2968 RMK T02600210 IEM_DS3505
ZBAA,2004-07-09 15:00,ZBAA 091500Z AUTO 18004KT 9SM 27/20 A2968 RMK SLP039 T02660195 52005 IEM_DS3505
ZBAA,2004-07-09 16:00,ZBAA 091600Z AUTO 11004KT 4SM 24/22 A2965 RMK T02400220 IEM_DS3505
ZBAA,2004-07-09 17:00,ZBAA 091700Z AUTO 13006KT 1 1/2SM 24/23 A2965 RMK T02400230 IEM_DS3505
ZBAA,2004-07-09 18:00,ZBAA 091800Z AUTO 14004KT 7SM 25/20 A2965 RMK SLP032 T02510201 57007 IEM_DS3505
ZBAA,2004-07-09 19:00,ZBAA 091900Z AUTO 12006KT 1 1/4SM 24/23 A2965 RMK T02400230 IEM_DS3505
ZBAA,2004-07-09 20:00,ZBAA 092000Z AUTO 13004KT 2SM 24/23 A2968 RMK T02400230 IEM_DS3505
ZBAA,2004-07-09 21:00,ZBAA 092100Z AUTO 09004KT 6SM 24/21 A2968 RMK SLP044 T02400207 52012 IEM_DS3505
ZBAA,2004-07-09 22:00,ZBAA 092200Z AUTO 12004KT 2SM 23/22 A2968 RMK T02300220 IEM_DS3505
ZBAA,2004-07-09 23:00,ZBAA 092300Z AUTO 12004KT 2SM 24/22 A2968 RMK T02400220 IEM_DS3505
ZBAA,2004-07-10 00:00,ZBAA 100000Z AUTO 11004KT 4SM 25/21 A2968 RMK SLP045 T02490208 52001 IEM_DS3505
ZBAA,2004-07-10 01:00,ZBAA 100100Z AUTO 10008KT 2SM 25/23 A2968 RMK T02500230 IEM_DS3505
ZBAA,2004-07-10 02:00,ZBAA 100200Z AUTO 10006KT 2SM 26/24 A2968 RMK T02600240 IEM_DS3505
ZBAA,2004-07-10 03:00,ZBAA 100300Z AUTO 11008KT 5SM 27/21 A2968 RMK SLP037 T02730209 57008 IEM_DS3505
ZBAA,2004-07-10 04:00,ZBAA 100400Z AUTO 12010KT 2SM 27/24 A2968 RMK T02700240 IEM_DS3505
ZBAA,2004-07-10 05:00,ZBAA 100500Z AUTO 11010KT 2SM 27/24 A2968 RMK T02700240 IEM_DS3505
ZBAA,2004-07-10 06:00,ZBAA 100600Z AUTO 09006KT 6SM 29/22 A2965 RMK SLP028 T02870215 57009 IEM_DS3505
ZBAA,2004-07-10 07:00,ZBAA 100700Z AUTO 13006KT 2SM 28/24 A2962 RMK T02800240 IEM_DS3505
ZBAA,2004-07-10 08:00,ZBAA 100800Z AUTO 11010KT 2SM 28/24 A2962 RMK T02800240 IEM_DS3505
ZBAA,2004-07-10 09:00,ZBAA 100900Z AUTO 20004KT 5SM 24/18 A2959 RMK SLP024 T02370181 57004 IEM_DS3505
ZBAA,2004-07-10 10:00,ZBAA 101000Z AUTO 28010KT 4SM 22/22 A2962 RMK T02200220 IEM_DS3505
ZBAA,2004-07-10 11:00,ZBAA 101100Z AUTO 29004KT 2 1/2SM 22/21 A2965 RMK T02200210 IEM_DS3505
ZBAA,2004-07-10 12:00,ZBAA 101200Z AUTO 29008KT 4SM 22/19 A2968 RMK 60067 SLP037 T02180194 52012 IEM_DS3505
ZBAA,2004-07-10 13:00,ZBAA 101300Z AUTO 34006KT 2SM 22/22 A2968 RMK T02200220 IEM_DS3505
ZBAA,2004-07-10 14:00,ZBAA 101400Z AUTO 00000KT 2SM 21/21 A2965 RMK T02100210 IEM_DS3505
ZBAA,2004-07-10 15:00,ZBAA 101500Z AUTO 09004KT 4SM 22/20 A2965 RMK SLP029 T02200199 57007 IEM_DS3505
ZBAA,2004-07-10 16:00,ZBAA 101600Z AUTO 00000KT 2SM 21/21 A2965 RMK T02100210 IEM_DS3505
ZBAA,2004-07-10 17:00,ZBAA 101700Z AUTO 35004KT 2SM 21/21 A2962 RMK T02100210 IEM_DS3505
ZBAA,2004-07-10 18:00,ZBAA 101800Z AUTO 02002KT 5SM 22/20 A2962 RMK 60028 SLP024 T02220199 57005 IEM_DS3505
ZBAA,2004-07-10 19:00,ZBAA 101900Z AUTO 35006KT 1 1/4SM 21/21 A2962 RMK T02100210 IEM_DS3505
ZBAA,2004-07-10 20:00,ZBAA 102000Z AUTO 30006KT 1 1/2SM 22/22 A2962 RMK T02200220 IEM_DS3505
ZBAA,2004-07-10 21:00,ZBAA 102100Z AUTO 02006KT 4SM 22/20 A2962 RMK 70097 SLP020 T02220197 57005 IEM_DS3505
ZBAA,2004-07-10 22:00,ZBAA 102200Z AUTO 36002KT 1 1/4SM 22/22 A2962 RMK T02200220 IEM_DS3505
ZBAA,2004-07-10 23:00,ZBAA 102300Z AUTO 36004KT 1 1/4SM 22/22 A2962 RMK T02200220 IEM_DS3505
ZBAA,2004-07-11 00:00,ZBAA 110000Z AUTO 04004KT 4SM 23/20 A2965 RMK 60004 70099 SLP027 T02270200 52007 IEM_DS3505
ZBAA,2004-07-11 01:00,ZBAA 110100Z AUTO 36002KT 1 1/4SM 23/23 A2965 RMK T02300230 IEM_DS3505
ZBAA,2004-07-11 02:00,ZBAA 110200Z AUTO 1 1/4SM 23/23 A2965 RMK T02300230 IEM_DS3505
ZBAA,2004-07-11 03:00,ZBAA 110300Z AUTO 07006KT 4SM 22/20 A2965 RMK SLP031 T02220196 52004 IEM_DS3505
ZBAA,2004-07-11 04:00,ZBAA 110400Z AUTO 36008KT 1 1/4SM 22/22 A2965 RMK T02200220 IEM_DS3505
ZBAA,2004-07-11 05:00,ZBAA 110500Z AUTO 01006KT 2SM 21/21 A2965 RMK T02100210 IEM_DS3505
ZBAA,2004-07-11 06:00,ZBAA 110600Z AUTO 02002KT 4SM 22/20 A2962 RMK 60016 SLP023 T02240196 57008 IEM_DS3505
ZBAA,2004-07-11 07:00,ZBAA 110700Z AUTO 35008KT 2 1/2SM 23/22 A2962 RMK T02300220 IEM_DS3505
ZBAA,2004-07-11 08:00,ZBAA 110800Z AUTO 36004KT 2 1/2SM 23/22 A2962 RMK T02300220 IEM_DS3505
ZBAA,2004-07-11 09:00,ZBAA 110900Z AUTO 04008KT 6SM 24/19 A2962 RMK SLP022 T02390190 57001 IEM_DS3505
ZBAA,2004-07-11 10:00,ZBAA 111000Z AUTO 36004KT 4SM 24/22 A2962 RMK T02400220 IEM_DS3505
ZBAA,2004-07-11 11:00,ZBAA 111100Z AUTO 4SM 24/23 A2962 RMK T02400230 IEM_DS3505
ZBAA,2004-07-11 12:00,ZBAA 111200Z AUTO 02004KT 7SM 24/19 A2965 RMK SLP029 T02360193 52007 IEM_DS3505
ZBAA,2004-07-11 13:00,ZBAA 111300Z AUTO 36004KT 3SM 23/22 A2965 RMK T02300220 IEM_DS3505
ZBAA,2004-07-11 14:00,ZBAA 111400Z AUTO 36004KT 3SM 23/22 A2965 RMK T02300220 IEM_DS3505
ZBAA,2004-07-11 15:00,ZBAA 111500Z AUTO 02004KT 9SM 24/19 A2965 RMK SLP033 T02360191 52004 IEM_DS3505
ZBAA,2004-07-11 16:00,ZBAA 111600Z AUTO 34006KT 3SM 23/22 A2965 RMK T02300220 IEM_DS3505
ZBAA,2004-07-11 17:00,ZBAA 111700Z AUTO 35004KT 2 1/2SM 22/22 A2965 RMK T02200220 IEM_DS3505
ZBAA,2004-07-11 18:00,ZBAA 111800Z AUTO 04002KT 9SM 23/20 A2965 RMK SLP029 T02300196 57004 IEM_DS3505
ZBAA,2004-07-11 19:00,ZBAA 111900Z AUTO 36006KT 2 1/2SM 22/21 A2965 RMK T02200210 IEM_DS3505
ZBAA,2004-07-11 20:00,ZBAA 112000Z AUTO 35004KT 2 1/2SM 22/21 A2965 RMK T02200210 IEM_DS3505
ZBAA,2004-07-11 21:00,ZBAA 112100Z AUTO 02002KT 7SM 23/19 A2965 RMK 70016 SLP037 T02270189 52008 IEM_DS3505
ZBAA,2004-07-11 22:00,ZBAA 112200Z AUTO 35006KT 4SM 22/21 A2965 RMK T02200210 IEM_DS3505
ZBAA,2004-07-11 23:00,ZBAA 112300Z AUTO 35006KT 4SM 22/22 A2968 RMK T02200220 IEM_DS3505
ZBAA,2004-07-12 00:00,ZBAA 120000Z AUTO 36004KT 12SM 24/18 A2971 RMK 60000 70016 SLP053 T02390185 52016 IEM_DS3505
ZBAA,2004-07-12 01:00,ZBAA 120100Z AUTO 36008KT 5SM 22/21 A2971 RMK T02200210 IEM_DS3505
ZBAA,2004-07-12 02:00,ZBAA 120200Z AUTO 36008KT 6SM 25/21 A2971 RMK T02500210 IEM_DS3505
ZBAA,2004-07-12 03:00,ZBAA 120300Z AUTO 04004KT 12SM 25/18 A2971 RMK SLP058 T02510178 52006 IEM_DS3505
ZBAA,2004-07-12 04:00,ZBAA 120400Z AUTO 36006KT 6SM 26/22 A2971 RMK T02600220 IEM_DS3505
ZBAA,2004-07-12 05:00,ZBAA 120500Z AUTO 36004KT 6SM 27/21 A2971 RMK T02700210 IEM_DS3505
ZBAA,2004-07-12 06:00,ZBAA 120600Z AUTO 02004KT 19SM 28/16 A2968 RMK SLP048 T02840157 57010 IEM_DS3505
ZBAA,2004-07-12 07:00,ZBAA 120700Z AUTO 33006KT 6SM 29/21 A2968 RMK T02900210 IEM_DS3505
ZBAA,2004-07-12 08:00,ZBAA 120800Z AUTO 6SM 31/20 A2965 RMK T03100200 IEM_DS3505
ZBAA,2004-07-12 09:00,ZBAA 120900Z AUTO 34002KT 19SM 30/16 A2965 RMK SLP038 T03000161 57010 IEM_DS3505
ZBAA,2004-07-12 10:00,ZBAA 121000Z AUTO 29004KT 6SM 30/20 A2965 RMK T03000200 IEM_DS3505
ZBAA,2004-07-12 11:00,ZBAA 121100Z AUTO 30004KT 6SM 28/20 A2968 RMK T02800200 IEM_DS3505
ZBAA,2004-07-12 12:00,ZBAA 121200Z AUTO 25006KT 19SM 26/18 A2968 RMK SLP047 T02640177 52009 IEM_DS3505
ZBAA,2004-07-12 13:00,ZBAA 121300Z AUTO 6SM 27/21 A2971 RMK T02700210 IEM_DS3505
ZBAA,2004-07-12 14:00,ZBAA 121400Z AUTO 22004KT 6SM 26/20 A2971 RMK T02600200 IEM_DS3505
ZBAA,2004-07-12 15:00,ZBAA 121500Z AUTO 27006KT 9SM 25/18 A2974 RMK SLP059 T02460178 52012 IEM_DS3505
ZBAA,2004-07-12 16:00,ZBAA 121600Z AUTO 33004KT 6SM 22/20 A2971 RMK T02200200 IEM_DS3505
ZBAA,2004-07-12 17:00,ZBAA 121700Z AUTO 36004KT 6SM 21/21 A2974 RMK T02100210 IEM_DS3505
ZBAA,2004-07-12 18:00,ZBAA 121800Z AUTO 00000KT 7SM 22/18 A2971 RMK SLP056 T02250185 57003 IEM_DS3505
ZBAA,2004-07-12 19:00,ZBAA 121900Z AUTO 34004KT 6SM 20/19 A2971 RMK T02000190 IEM_DS3505
ZBAA,2004-07-12 20:00,ZBAA 122000Z AUTO 34006KT 6SM 20/19 A2971 RMK T02000190 IEM_DS3505
ZBAA,2004-07-12 21:00,ZBAA 122100Z AUTO 04002KT 12SM 22/16 A2974 RMK 70000 SLP062 T02200158 52006 IEM_DS3505
ZBAA,2004-07-12 22:00,ZBAA 122200Z AUTO 35006KT 6SM 20/19 A2974 RMK T02000190 IEM_DS3505
ZBAA,2004-07-12 23:00,ZBAA 122300Z AUTO 36006KT 6SM 23/19 A2977 RMK T02300190 IEM_DS3505
ZBAA,2004-07-13 00:00,ZBAA 130000Z AUTO 02004KT 19SM 26/16 A2977 RMK 70000 SLP075 T02600157 52013 IEM_DS3505
ZBAA,2004-07-13 01:00,ZBAA 130100Z AUTO 36008KT 6SM 27/19 A2977 RMK T02700190 IEM_DS3505
ZBAA,2004-07-13 02:00,ZBAA 130200Z AUTO 01004KT 6SM 28/19 A2977 RMK T02800190 IEM_DS3505
ZBAA,2004-07-13 03:00,ZBAA 130300Z AUTO 09006KT 19SM 30/13 A2977 RMK SLP072 T03000129 57003 IEM_DS3505
ZBAA,2004-07-13 04:00,ZBAA 130400Z AUTO 6SM 30/18 A2974 RMK T03000180 IEM_DS3505
ZBAA,2004-07-13 05:00,ZBAA 130500Z AUTO 6SM 31/15 A2974 RMK T03100150 IEM_DS3505
ZBAA,2004-07-13 06:00,ZBAA 130600Z AUTO 20006KT 19SM 31/13 A2971 RMK SLP056 T03120130 57016 IEM_DS3505
ZBAA,2004-07-13 07:00,ZBAA 130700Z AUTO 6SM 32/16 A2971 RMK T03200160 IEM_DS3505
ZBAA,2004-07-13 08:00,ZBAA 130800Z AUTO 6SM 32/18 A2968 RMK T03200180 IEM_DS3505
ZBAA,2004-07-13 09:00,ZBAA 130900Z AUTO 20006KT 19SM 31/13 A2968 RMK SLP042 T03100133 57014 IEM_DS3505
ZBAA,2004-07-13 10:00,ZBAA 131000Z AUTO 13006KT 7SM 30/18 A2968 RMK T03000180 IEM_DS3505
ZBAA,2004-07-13 11:00,ZBAA 131100Z AUTO 17006KT 7SM 28/19 A2971 RMK T02800190 IEM_DS3505
ZBAA,2004-07-13 12:00,ZBAA 131200Z AUTO 18004G19KT 19SM 28/14 A2971 RMK SLP054 T02850144 52012 IEM_DS3505
ZBAA,2004-07-13 13:00,ZBAA 131300Z AUTO 6SM 24/17 A2974 RMK T02400170 IEM_DS3505
ZBAA,2004-07-13 14:00,ZBAA 131400Z AUTO 00000KT 6SM 22/18 A2974 RMK T02200180 IEM_DS3505
ZBAA,2004-07-13 15:00,ZBAA 131500Z AUTO 00000KT 12SM 25/17 A2977 RMK SLP066 T02510173 52012 IEM_DS3505
ZBAA,2004-07-13 16:00,ZBAA 131600Z AUTO 01004KT 6SM 21/19 A2977 RMK T02100190 IEM_DS3505
ZBAA,2004-07-13 17:00,ZBAA 131700Z AUTO 36002KT 6SM 21/20 A2974 RMK T02100200 IEM_DS3505
ZBAA,2004-07-13 18:00,ZBAA 131800Z AUTO 04002KT 12SM 24/16 A2974 RMK SLP064 T02380161 57002 IEM_DS3505
ZBAA,2004-07-13 19:00,ZBAA 131900Z AUTO 36004KT 6SM 20/20 A2974 RMK T02000200 IEM_DS3505
ZBAA,2004-07-13 20:00,ZBAA 132000Z AUTO 35004KT 6SM 19/19 A2974 RMK T01900190 IEM_DS3505
ZBAA,2004-07-13 21:00,ZBAA 132100Z AUTO 04004KT 12SM 22/17 A2974 RMK SLP066 T02180170 52002 IEM_DS3505
ZBAA,2004-07-13 22:00,ZBAA 132200Z AUTO 6SM 20/19 A2977 RMK T02000190 IEM_DS3505
ZBAA,2004-07-13 23:00,ZBAA 132300Z AUTO 35004KT 6SM 21/20 A2977 RMK T02100200 IEM_DS3505
ZBAA,2004-07-14 00:00,ZBAA 140000Z AUTO 02002KT 12SM 25/18 A2977 RMK SLP074 T02500175 52008 IEM_DS3505
ZBAA,2004-07-14 01:00,ZBAA 140100Z AUTO 00000KT 6SM 26/22 A2977 RMK T02600220 IEM_DS3505
ZBAA,2004-07-14 02:00,ZBAA 140200Z AUTO 6SM 27/22 A2977 RMK T02700220 IEM_DS3505
ZBAA,2004-07-14 03:00,ZBAA 140300Z AUTO 20008KT 12SM 29/18 A2977 RMK SLP071 T02920183 57003 IEM_DS3505
ZBAA,2004-07-14 06:00,ZBAA 140600Z AUTO 22006G17KT 16SM 30/16 A2971 RMK SLP055 T03050161 57016 IEM_DS3505
ZBAA,2004-07-14 07:00,ZBAA 140700Z AUTO 16010KT 6SM 31/23 A2971 RMK T03100230 IEM_DS3505
ZBAA,2004-07-14 08:00,ZBAA 140800Z AUTO 17006KT 7SM 30/21 A2971 RMK T03000210 IEM_DS3505
ZBAA,2004-07-14 09:00,ZBAA 140900Z AUTO 22008KT 12SM 30/17 A2971 RMK SLP051 T02990174 57004 IEM_DS3505
ZBAA,2004-07-14 10:00,ZBAA 141000Z AUTO 13014G23KT 7SM 24/19 A2971 RMK T02400190 IEM_DS3505
ZBAA,2004-07-14 11:00,ZBAA 141100Z AUTO 7SM 23/21 A2974 RMK T02300210 IEM_DS3505
ZBAA,2004-07-14 12:00,ZBAA 141200Z AUTO 18002KT 12SM 26/18 A2974 RMK SLP068 T02570176 52017 IEM_DS3505
ZBAA,2004-07-14 13:00,ZBAA 141300Z AUTO 08002KT 6SM 22/21 A2977 RMK T02200210 IEM_DS3505
ZBAA,2004-07-14 14:00,ZBAA 141400Z AUTO 4SM 22/21 A2980 RMK T02200210 IEM_DS3505
ZBAA,2004-07-14 15:00,ZBAA 141500Z AUTO 16004KT 9SM 24/18 A2977 RMK SLP076 T02420177 52008 IEM_DS3505
ZBAA,2004-07-14 16:00,ZBAA 141600Z AUTO 3SM 21/21 A2977 RMK T02100210 IEM_DS3505
ZBAA,2004-07-14 17:00,ZBAA 141700Z AUTO 3SM 21/21 A2980 RMK T02100210 IEM_DS3505
ZBAA,2004-07-14 18:00,ZBAA 141800Z AUTO 11002KT 9SM 22/18 A2980 RMK SLP078 T02220180 52002 IEM_DS3505
ZBAA,2004-07-14 19:00,ZBAA 141900Z AUTO 00000KT 2 1/2SM 20/20 A2977 RMK T02000200 IEM_DS3505
ZBAA,2004-07-14 20:00,ZBAA 142000Z AUTO 2SM 20/20 A2977 RMK T02000200 IEM_DS3505
ZBAA,2004-07-14 20:30,ZBAA 142030Z AUTO 00000KT 2SM 20/20 A2977 RMK T02000200 IEM_DS3505
ZBAA,2004-07-14 21:00,ZBAA 142100Z AUTO 11004KT 5SM 21/18 A2980 RMK 70000 SLP080 T02130181 52002 IEM_DS3505
ZBAA,2004-07-14 22:00,ZBAA 142200Z AUTO 11002KT 2SM 20/20 A2980 RMK T02000200 IEM_DS3505
ZBAA,2004-07-14 23:00,ZBAA 142300Z AUTO 09002KT 1 1/2SM 21/21 A2980 RMK T02100210 IEM_DS3505
ZBAA,2004-07-15 00:00,ZBAA 150000Z AUTO 00000KT 5SM 24/19 A2983 RMK 70000 SLP091 T02350186 52010 IEM_DS3505
ZBAA,2004-07-15 01:00,ZBAA 150100Z AUTO 14002KT 1SM 23/22 A2983 RMK T02300220 IEM_DS3505
ZBAA,2004-07-15 02:00,ZBAA 150200Z AUTO 13004KT 1SM 25/22 A2980 RMK T02500220 IEM_DS3505
ZBAA,2004-07-15 03:00,ZBAA 150300Z AUTO 25004KT 4SM 27/18 A2980 RMK SLP081 T02740184 57009 IEM_DS3505
ZBAA,2004-07-15 04:00,ZBAA 150400Z AUTO 14004KT 1 1/2SM 28/23 A2980 RMK T02800230 IEM_DS3505
ZBAA,2004-07-15 05:00,ZBAA 150500Z AUTO 16006KT 2SM 29/22 A2977 RMK T02900220 IEM_DS3505
ZBAA,2004-07-15 06:00,ZBAA 150600Z AUTO 20006KT 6SM 29/19 A2974 RMK SLP067 T02930187 57014 IEM_DS3505
ZBAA,2004-07-15 07:00,ZBAA 150700Z AUTO 17006KT 2 1/2SM 29/21 A2974 RMK T02900210 IEM_DS3505
ZBAA,2004-07-15 08:00,ZBAA 150800Z AUTO 16006KT 2 1/2SM 30/22 A2971 RMK T03000220 IEM_DS3505
ZBAA,2004-07-15 09:00,ZBAA 150900Z AUTO 20008KT 6SM 30/18 A2971 RMK SLP052 T02970182 57015 IEM_DS3505
ZBAA,2004-07-15 10:00,ZBAA 151000Z AUTO 17006KT 3SM 29/22 A2971 RMK T02900220 IEM_DS3505
ZBAA,2004-07-15 11:00,ZBAA 151100Z AUTO 18006KT 3SM 27/22 A2971 RMK T02700220 IEM_DS3505
ZBAA,2004-07-15 12:00,ZBAA 151200Z AUTO 16004KT 7SM 28/19 A2974 RMK SLP065 T02750188 52013 IEM_DS3505
ZBAA,2004-07-15 13:00,ZBAA 151300Z AUTO 17006KT 3SM 24/22 A2974 RMK T02400220 IEM_DS3505
ZBAA,2004-07-15 14:00,ZBAA 151400Z AUTO 12004KT 2 1/2SM 24/22 A2977 RMK T02400220 IEM_DS3505
ZBAA,2004-07-15 15:00,ZBAA 151500Z AUTO 14002KT 6SM 26/19 A2974 RMK SLP066 T02580192 52001 IEM_DS3505
ZBAA,2004-07-15 16:00,ZBAA 151600Z AUTO 13004KT 2SM 23/22 A2974 RMK T02300220 IEM_DS3505
ZBAA,2004-07-15 17:00,ZBAA 151700Z AUTO 16002KT 1 1/4SM 22/22 A2974 RMK T02200220 IEM_DS3505
ZBAA,2004-07-15 18:00,ZBAA 151800Z AUTO 18004KT 4SM 24/20 A2971 RMK SLP053 T02440203 57013 IEM_DS3505
ZBAA,2004-07-15 19:00,ZBAA 151900Z AUTO 10004KT 1 1/4SM 22/22 A2971 RMK T02200220 IEM_DS3505
ZBAA,2004-07-15 20:00,ZBAA 152000Z AUTO 08002KT 1SM 22/22 A2971 RMK T02200220 IEM_DS3505
ZBAA,2004-07-15 21:00,ZBAA 152100Z AUTO 12004KT 1SM 22/22 A2968 RMK T02200220 IEM_DS3505
ZBAA,2004-07-15 22:00,ZBAA 152200Z AUTO 09002KT 1/2SM 22/22 A2968 RMK T02200220 IEM_DS3505
ZBAA,2004-07-15 23:00,ZBAA 152300Z AUTO 1/2SM 23/23 A2971 RMK T02300230 IEM_DS3505
ZBAA,2004-07-16 00:00,ZBAA 160000Z AUTO 09004KT 4SM 25/21 A2971 RMK SLP049 T02490214 52003 IEM_DS3505
ZBAA,2004-07-16 01:00,ZBAA 160100Z AUTO 09002KT 1SM 23/23 A2968 RMK T02300230 IEM_DS3505
ZBAA,2004-07-16 02:00,ZBAA 160200Z AUTO 13004KT 1SM 25/24 A2968 RMK T02500240 IEM_DS3505
ZBAA,2004-07-16 03:00,ZBAA 160300Z AUTO 11006KT 4SM 28/22 A2968 RMK SLP039 T02810219 57010 IEM_DS3505
ZBAA,2004-07-16 04:00,ZBAA 160400Z AUTO 13004KT 1SM 28/25 A2965 RMK T02800250 IEM_DS3505
ZBAA,2004-07-16 05:00,ZBAA 160500Z AUTO 14004KT 1SM 29/25 A2965 RMK T02900250 IEM_DS3505
ZBAA,2004-07-16 06:00,ZBAA 160600Z AUTO 18006KT 6SM 31/20 A2962 RMK SLP024 T03080201 57015 IEM_DS3505
ZBAA,2004-07-16 07:00,ZBAA 160700Z AUTO 15004KT 1SM 31/25 A2962 RMK T03100250 IEM_DS3505
ZBAA,2004-07-16 08:00,ZBAA 160800Z AUTO 11004KT 1SM 30/25 A2959 RMK T03000250 IEM_DS3505
ZBAA,2004-07-16 09:00,ZBAA 160900Z AUTO 20006KT 7SM 31/20 A2959 RMK SLP013 T03090202 57011 IEM_DS3505
ZBAA,2004-07-16 10:00,ZBAA 161000Z AUTO 17006KT 2SM 30/24 A2959 RMK T03000240 IEM_DS3505
ZBAA,2004-07-16 11:00,ZBAA 161100Z AUTO 16004KT 2SM 29/24 A2959 RMK T02900240 IEM_DS3505
ZBAA,2004-07-16 12:00,ZBAA 161200Z AUTO 22006KT 9SM 28/20 A2959 RMK SLP021 T02840199 52008 IEM_DS3505
ZBAA,2004-07-16 13:00,ZBAA 161300Z AUTO 17006KT 2SM 27/24 A2962 RMK T02700240 IEM_DS3505
ZBAA,2004-07-16 14:00,ZBAA 161400Z AUTO 15004KT 2SM 26/23 A2962 RMK T02600230 IEM_DS3505
ZBAA,2004-07-16 15:00,ZBAA 161500Z AUTO 20004KT 6SM 26/21 A2962 RMK SLP023 T02620210 52002 IEM_DS3505
ZBAA,2004-07-16 16:00,ZBAA 161600Z AUTO 16004KT 2SM 24/23 A2962 RMK T02400230 IEM_DS3505
ZBAA,2004-07-16 17:00,ZBAA 161700Z AUTO 11002KT 1 1/2SM 24/23 A2962 RMK T02400230 IEM_DS3505
ZBAA,2004-07-16 18:00,ZBAA 161800Z AUTO 22004KT 5SM 25/22 A2962 RMK SLP020 T02480215 57003 IEM_DS3505
ZBAA,2004-07-16 19:00,ZBAA 161900Z AUTO 08002KT 1 1/4SM 23/23 A2962 RMK T02300230 IEM_DS3505
ZBAA,2004-07-16 20:00,ZBAA 162000Z AUTO 00000KT 1SM 22/22 A2962 RMK T02200220 IEM_DS3505
ZBAA,2004-07-16 21:00,ZBAA 162100Z AUTO 25002KT 5SM 24/21 A2962 RMK SLP018 T02410214 57002 IEM_DS3505
ZBAA,2004-07-16 22:00,ZBAA 162200Z AUTO 00000KT 1SM 23/23 A2959 RMK T02300230 IEM_DS3505
ZBAA,2004-07-16 23:00,ZBAA 162300Z AUTO 01002KT 1SM 24/24 A2959 RMK T02400240 IEM_DS3505
ZBAA,2004-07-17 00:00,ZBAA 170000Z AUTO 11002KT 4SM 26/22 A2962 RMK SLP019 T02580219 52001 IEM_DS3505
ZBAA,2004-07-17 01:00,ZBAA 170100Z AUTO 1SM 26/25 A2962 RMK T02600250 IEM_DS3505
ZBAA,2004-07-17 02:00,ZBAA 170200Z AUTO 1SM 27/25 A2959 RMK T02700250 IEM_DS3505
ZBAA,2004-07-17 03:00,ZBAA 170300Z AUTO 16002KT 3SM 28/23 A2959 RMK SLP014 T02810226 57005 IEM_DS3505
ZBAA,2004-07-17 04:00,ZBAA 170400Z AUTO 17004KT 1 1/4SM 29/26 A2959 RMK T02900260 IEM_DS3505
ZBAA,2004-07-17 05:00,ZBAA 170500Z AUTO 15004KT 1 1/4SM 29/25 A2956 RMK T02900250 IEM_DS3505
ZBAA,2004-07-17 06:00,ZBAA 170600Z AUTO 09004KT 5SM 30/21 A2956 RMK SLP002 T02970208 57012 IEM_DS3505
ZBAA,2004-07-17 07:00,ZBAA 170700Z AUTO 12004KT 1 1/2SM 29/25 A2956 RMK T02900250 IEM_DS3505
ZBAA,2004-07-17 08:00,ZBAA 170800Z AUTO 13004KT 1 1/2SM 29/24 A2953 RMK T02900240 IEM_DS3505
ZBAA,2004-07-17 09:00,ZBAA 170900Z AUTO 09006KT 6SM 30/20 A2953 RMK SLP991 T02950195 57011 IEM_DS3505
ZBAA,2004-07-17 10:00,ZBAA 171000Z AUTO 12004KT 2 1/2SM 28/24 A2953 RMK T02800240 IEM_DS3505
ZBAA,2004-07-17 11:00,ZBAA 171100Z AUTO 12004KT 2 1/2SM 28/24 A2953 RMK T02800240 IEM_DS3505
ZBAA,2004-07-17 12:00,ZBAA 171200Z AUTO 14004KT 4SM 28/21 A2953 RMK SLP994 T02780209 52003 IEM_DS3505
ZBAA,2004-07-17 13:00,ZBAA 171300Z AUTO 13006KT 2SM 26/24 A2953 RMK T02600240 IEM_DS3505
ZBAA,2004-07-17 14:00,ZBAA 171400Z AUTO 10002KT 1 1/4SM 25/25 A2953 RMK T02500250 IEM_DS3505
ZBAA,2004-07-17 15:00,ZBAA 171500Z AUTO 09004KT 3SM 26/21 A2953 RMK SLP992 T02600206 57002 IEM_DS3505
ZBAA,2004-07-17 16:00,ZBAA 171600Z AUTO 11004KT 1SM 25/24 A2953 RMK T02500240 IEM_DS3505
ZBAA,2004-07-17 17:00,ZBAA 171700Z AUTO 36002KT 1 1/2SM 24/23 A2950 RMK T02400230 IEM_DS3505
ZBAA,2004-07-17 18:00,ZBAA 171800Z AUTO 02004KT 5SM 25/21 A2947 RMK SLP976 T02500207 57016 IEM_DS3505
ZBAA,2004-07-17 19:00,ZBAA 171900Z AUTO 01002KT 2SM 24/23 A2947 RMK T02400230 IEM_DS3505
ZBAA,2004-07-17 20:00,ZBAA 172000Z AUTO 28002KT 2SM 24/23 A2947 RMK T02400230 IEM_DS3505
ZBAA,2004-07-17 21:00,ZBAA 172100Z AUTO 04004KT 3SM 24/21 A2947 RMK 70014 SLP971 T02400211 57005 IEM_DS3505
ZBAA,2004-07-17 22:00,ZBAA 172200Z AUTO 35004KT 1SM 24/24 A2947 RMK T02400240 IEM_DS3505
ZBAA,2004-07-17 23:00,ZBAA 172300Z AUTO 32008KT 1SM 24/24 A2947 RMK T02400240 IEM_DS3505
ZBAA,2004-07-18 00:00,ZBAA 180000Z AUTO 02006KT 2 1/2SM 24/22 A2947 RMK 60039 70040 SLP971 T02400215 54000 IEM_DS3505
ZBAA,2004-07-18 01:00,ZBAA 180100Z AUTO 34004KT 1SM 24/24 A2947 RMK T02400240 IEM_DS3505
ZBAA,2004-07-18 02:00,ZBAA 180200Z AUTO 27006KT 1SM 25/25 A2947 RMK T02500250 IEM_DS3505
ZBAA,2004-07-18 03:00,ZBAA 180300Z AUTO 14002KT 4SM 25/22 A2944 RMK SLP965 T02500219 57006 IEM_DS3505
ZBAA,2004-07-18 04:00,ZBAA 180400Z AUTO 2SM 28/25 A2944 RMK T02800250 IEM_DS3505
ZBAA,2004-07-18 05:00,ZBAA 180500Z AUTO 2 1/2SM 29/24 A2941 RMK T02900240 IEM_DS3505
ZBAA,2004-07-18 06:00,ZBAA 180600Z AUTO 07004KT 9SM 30/20 A2941 RMK 60008 SLP950 T02990202 57015 IEM_DS3505
ZBAA,2004-07-18 07:00,ZBAA 180700Z AUTO 6SM 32/23 A2938 RMK T03200230 IEM_DS3505
ZBAA,2004-07-18 08:00,ZBAA 180800Z AUTO 14010KT 6SM 29/24 A2938 RMK T02900240 IEM_DS3505
ZBAA,2004-07-18 09:00,ZBAA 180900Z AUTO 09008KT 12SM 28/21 A2938 RMK SLP944 T02810207 57006 IEM_DS3505
ZBAA,2004-07-18 10:00,ZBAA 181000Z AUTO 13006KT 6SM 27/24 A2938 RMK T02700240 IEM_DS3505
ZBAA,2004-07-18 11:00,ZBAA 181100Z AUTO 14004KT 6SM 26/24 A2941 RMK T02600240 IEM_DS3505
ZBAA,2004-07-18 12:00,ZBAA 181200Z AUTO 18004KT 6SM 26/22 A2941 RMK SLP958 T02620216 52014 IEM_DS3505
ZBAA,2004-07-18 13:00,ZBAA 181300Z AUTO 15004KT 6SM 25/24 A2944 RMK T02500240 IEM_DS3505
ZBAA,2004-07-18 14:00,ZBAA 181400Z AUTO 17004KT 4SM 25/24 A2947 RMK T02500240 IEM_DS3505
ZBAA,2004-07-18 15:00,ZBAA 181500Z AUTO 22002KT 4SM 25/22 A2947 RMK SLP969 T02520219 52011 IEM_DS3505
ZBAA,2004-07-18 16:00,ZBAA 181600Z AUTO 12004KT 2 1/2SM 25/24 A2944 RMK T02500240 IEM_DS3505
ZBAA,2004-07-18 17:00,ZBAA 181700Z AUTO 13002KT 1 1/2SM 24/24 A2944 RMK T02400240 IEM_DS3505
ZBAA,2004-07-18 18:00,ZBAA 181800Z AUTO 27002KT 5SM 24/21 A2944 RMK SLP966 T02420213 57003 IEM_DS3505
ZBAA,2004-07-18 19:00,ZBAA 181900Z AUTO 12004KT 1 1/4SM 24/24 A2944 RMK T02400240 IEM_DS3505
ZBAA,2004-07-18 20:00,ZBAA 182000Z AUTO 08002KT 1 1/4SM 23/23 A2944 RMK T02300230 IEM_DS3505
ZBAA,2004-07-18 21:00,ZBAA 182100Z AUTO 22002KT 4SM 24/21 A2947 RMK 70035 SLP973 T02360211 52007 IEM_DS3505
ZBAA,2004-07-18 22:00,ZBAA 182200Z AUTO 10002KT 1SM 23/23 A2947 RMK T02300230 IEM_DS3505
ZBAA,2004-07-18 23:00,ZBAA 182300Z AUTO 1SM 24/24 A2950 RMK T02400240 IEM_DS3505
ZBAA,2004-07-19 00:00,ZBAA 190000Z AUTO 14002KT 3SM 26/22 A2950 RMK 70009 SLP984 T02570220 52011 IEM_DS3505
ZBAA,2004-07-19 01:00,ZBAA 190100Z AUTO 1SM 25/25 A2953 RMK T02500250 IEM_DS3505
ZBAA,2004-07-19 02:00,ZBAA 190200Z AUTO 1SM 27/25 A2953 RMK T02700250 IEM_DS3505
ZBAA,2004-07-19 03:00,ZBAA 190300Z AUTO 16004KT 3SM 29/22 A2953 RMK SLP992 T02920222 52008 IEM_DS3505
ZBAA,2004-07-19 04:00,ZBAA 190400Z AUTO 14004KT 1 1/4SM 29/26 A2950 RMK T02900260 IEM_DS3505
ZBAA,2004-07-19 05:00,ZBAA 190500Z AUTO 1 1/4SM 30/26 A2950 RMK T03000260 IEM_DS3505
ZBAA,2004-07-19 06:00,ZBAA 190600Z AUTO 20008KT 3SM 30/23 A2950 RMK SLP980 T03010233 57012 IEM_DS3505
ZBAA,2004-07-19 08:00,ZBAA 190800Z AUTO 16008KT 1 1/4SM 30/26 A2950 RMK T03000260 IEM_DS3505
ZBAA,2004-07-19 09:00,ZBAA 190900Z AUTO 18008KT 2 1/2SM 30/24 A2950 RMK SLP983 T03030235 52003 IEM_DS3505
ZBAA,2004-07-19 10:00,ZBAA 191000Z AUTO 17008KT 1SM 30/27 A2950 RMK T03000270 IEM_DS3505
ZBAA,2004-07-19 11:00,ZBAA 191100Z AUTO 17006KT 1SM 29/26 A2953 RMK T02900260 IEM_DS3505
ZBAA,2004-07-19 12:00,ZBAA 191200Z AUTO 20002KT 2 1/2SM 28/23 A2953 RMK SLP000 T02850232 52017 IEM_DS3505
ZBAA,2004-07-19 13:00,ZBAA 191300Z AUTO 15006KT 1SM 27/26 A2956 RMK T02700260 IEM_DS3505
ZBAA,2004-07-19 14:00,ZBAA 191400Z AUTO 13002KT 1SM 26/26 A2959 RMK T02600260 IEM_DS3505
ZBAA,2004-07-19 15:00,ZBAA 191500Z AUTO 16004KT 4SM 28/24 A2959 RMK SLP016 T02760238 52016 IEM_DS3505
ZBAA,2004-07-19 16:00,ZBAA 191600Z AUTO 14004KT 1SM 25/25 A2959 RMK T02500250 IEM_DS3505
ZBAA,2004-07-19 17:00,ZBAA 191700Z AUTO 09002KT 1SM 26/26 A2959 RMK T02600260 IEM_DS3505
ZBAA,2004-07-19 18:00,ZBAA 191800Z AUTO 18004KT 3SM 27/24 A2962 RMK SLP020 T02670236 52004 IEM_DS3505
ZBAA,2004-07-19 19:00,ZBAA 191900Z AUTO 12002KT 1SM 25/25 A2962 RMK T02500250 IEM_DS3505
ZBAA,2004-07-19 20:00,ZBAA 192000Z AUTO 13002KT 1SM 25/25 A2962 RMK T02500250 IEM_DS3505
ZBAA,2004-07-19 21:00,ZBAA 192100Z AUTO 20002KT 2SM 26/23 A2965 RMK SLP032 T02570234 52012 IEM_DS3505
ZBAA,2004-07-19 22:00,ZBAA 192200Z AUTO 13004KT 1/2SM 25/25 A2965 RMK T02500250 IEM_DS3505
ZBAA,2004-07-19 23:00,ZBAA 192300Z AUTO 10004KT 1/2SM 26/26 A2968 RMK T02600260 IEM_DS3505
ZBAA,2004-07-20 00:00,ZBAA 200000Z AUTO 25002KT 1 1/4SM 26/24 A2968 RMK SLP048 T02650236 52016 IEM_DS3505
ZBAA,2004-07-20 01:00,ZBAA 200100Z AUTO 11004KT 1SM 27/27 A2971 RMK T02700270 IEM_DS3505
ZBAA,2004-07-20 02:00,ZBAA 200200Z AUTO 11004KT 1SM 28/27 A2971 RMK T02800270 IEM_DS3505
ZBAA,2004-07-20 03:00,ZBAA 200300Z AUTO 16006KT 5SM 30/24 A2971 RMK SLP056 T02970236 52008 IEM_DS3505
ZBAA,2004-07-20 04:00,ZBAA 200400Z AUTO 12006KT 1SM 30/27 A2971 RMK T03000270 IEM_DS3505
ZBAA,2004-07-20 05:00,ZBAA 200500Z AUTO 13006KT 1 1/4SM 31/28 A2971 RMK T03100280 IEM_DS3505
ZBAA,2004-07-20 06:00,ZBAA 200600Z AUTO 09004KT 9SM 31/23 A2971 RMK 60087 SLP050 T03110232 57006 IEM_DS3505
ZBAA,2004-07-20 07:00,ZBAA 200700Z AUTO 03002KT 4SM 28/26 A2971 RMK T02800260 IEM_DS3505
ZBAA,2004-07-20 08:00,ZBAA 200800Z AUTO 4SM 29/26 A2971 RMK T02900260 IEM_DS3505
ZBAA,2004-07-20 09:00,ZBAA 200900Z AUTO 20008KT 9SM 28/22 A2977 RMK SLP065 T02780225 52015 IEM_DS3505
ZBAA,2004-07-20 10:00,ZBAA 201000Z AUTO 14008KT 1 1/2SM 24/24 A2977 RMK T02400240 IEM_DS3505
ZBAA,2004-07-20 11:00,ZBAA 201100Z AUTO 4SM 24/24 A2977 RMK T02400240 IEM_DS3505
ZBAA,2004-07-20 12:00,ZBAA 201200Z AUTO 22004KT 5SM 26/24 A2977 RMK 60020 SLP078 T02620237 52013 IEM_DS3505
ZBAA,2004-07-20 13:00,ZBAA 201300Z AUTO 10002KT 2SM 24/24 A2980 RMK T02400240 IEM_DS3505
ZBAA,2004-07-20 14:00,ZBAA 201400Z AUTO 10002KT 1 1/2SM 24/24 A2980 RMK T02400240 IEM_DS3505
ZBAA,2004-07-20 15:00,ZBAA 201500Z AUTO 09004KT 4SM 25/23 A2980 RMK SLP085 T02510230 52007 IEM_DS3505
ZBAA,2004-07-20 16:00,ZBAA 201600Z AUTO 00000KT 1 1/2SM 24/24 A2980 RMK T02400240 IEM_DS3505
ZBAA,2004-07-20 17:00,ZBAA 201700Z AUTO 03002KT 1 1/4SM 24/24 A2980 RMK T02400240 IEM_DS3505
ZBAA,2004-07-20 18:00,ZBAA 201800Z AUTO 07006KT 2 1/2SM 25/23 A2980 RMK SLP084 T02520233 57001 IEM_DS3505
ZBAA,2004-07-20 19:00,ZBAA 201900Z AUTO 10006KT 1SM 24/24 A2980 RMK T02400240 IEM_DS3505
ZBAA,2004-07-20 20:00,ZBAA 202000Z AUTO 10006KT 1SM 25/25 A2980 RMK T02500250 IEM_DS3505
ZBAA,2004-07-20 21:00,ZBAA 202100Z AUTO 25004KT 2SM 26/24 A2980 RMK 70116 SLP083 T02560237 57001 IEM_DS3505
ZBAA,2004-07-20 22:00,ZBAA 202200Z AUTO 17004KT 1SM 25/25 A2980 RMK T02500250 IEM_DS3505
ZBAA,2004-07-20 23:00,ZBAA 202300Z AUTO 13006KT 1SM 25/25 A2983 RMK T02500250 IEM_DS3505
ZBAA,2004-07-21 00:00,ZBAA 210000Z AUTO 14006KT 4SM 27/24 A2983 RMK 60012 70116 SLP093 T02690236 52010 IEM_DS3505
ZBAA,2004-07-21 01:00,ZBAA 210100Z AUTO 14008KT 1 1/4SM 27/27 A2983 RMK T02700270 IEM_DS3505
ZBAA,2004-07-21 02:00,ZBAA 210200Z AUTO 15008KT 2SM 29/28 A2983 RMK T02900280 IEM_DS3505
ZBAA,2004-07-21 03:00,ZBAA 210300Z AUTO 16008KT 2 1/2SM 29/27 A2983 RMK T02900270 IEM_DS3505
ZBAA,2004-07-21 04:00,ZBAA 210400Z AUTO 15008KT 3SM 30/27 A2983 RMK T03000270 IEM_DS3505
ZBAA,2004-07-21 05:00,ZBAA 210500Z AUTO 23008G17KT 4SM 31/27 A2980 RMK T03100270 IEM_DS3505
ZBAA,2004-07-21 06:00,ZBAA 210600Z AUTO 22006KT 7SM 32/24 A2980 RMK 60000 SLP084 T03160237 57012 IEM_DS3505
ZBAA,2004-07-21 07:00,ZBAA 210700Z AUTO 22010KT 32/26 A2980 RMK T03200260 IEM_DS3505
ZBAA,2004-07-21 08:00,ZBAA 210800Z AUTO 20006KT 4SM 32/27 A2977 RMK T03200270 IEM_DS3505
ZBAA,2004-07-21 09:00,ZBAA 210900Z AUTO 07002KT 9SM 26/23 A2977 RMK SLP075 T02650230 57009 IEM_DS3505
ZBAA,2004-07-21 10:00,ZBAA 211000Z AUTO 22004KT 1 1/2SM 27/26 A2980 RMK T02700260 IEM_DS3505
ZBAA,2004-07-21 11:00,ZBAA 211100Z AUTO 31002KT 7SM 26/26 A2977 RMK T02600260 IEM_DS3505
ZBAA,2004-07-21 12:00,ZBAA 211200Z AUTO 11002KT 6SM 27/24 A2980 RMK 60047 SLP082 T02700237 52007 IEM_DS3505
ZBAA,2004-07-21 13:00,ZBAA 211300Z AUTO 12004KT 3SM 26/26 A2980 RMK T02600260 IEM_DS3505
ZBAA,2004-07-21 14:00,ZBAA 211400Z AUTO 15004KT 3SM 26/26 A2980 RMK T02600260 IEM_DS3505
ZBAA,2004-07-21 15:00,ZBAA 211500Z AUTO 18002KT 4SM 27/24 A2980 RMK SLP085 T02680241 52003 IEM_DS3505
ZBAA,2004-07-21 16:00,ZBAA 211600Z AUTO 17004KT 2 1/2SM 26/26 A2980 RMK T02600260 IEM_DS3505
ZBAA,2004-07-21 17:00,ZBAA 211700Z AUTO 11004KT 2 1/2SM 25/25 A2977 RMK T02500250 IEM_DS3505
ZBAA,2004-07-21 18:00,ZBAA 211800Z AUTO 00000KT 3SM 26/24 A2977 RMK SLP075 T02630240 57010 IEM_DS3505
ZBAA,2004-07-21 19:00,ZBAA 211900Z AUTO 10004KT 2SM 25/25 A2977 RMK T02500250 IEM_DS3505
ZBAA,2004-07-21 20:00,ZBAA 212000Z AUTO 10002KT 1 1/4SM 25/25 A2977 RMK T02500250 IEM_DS3505
ZBAA,2004-07-21 21:00,ZBAA 212100Z AUTO 18004KT 4SM 27/24 A2977 RMK 70048 SLP072 T02660241 57003 IEM_DS3505
ZBAA,2004-07-21 22:00,ZBAA 212200Z AUTO 1SM 25/25 A2977 RMK T02500250 IEM_DS3505
ZBAA,2004-07-21 23:00,ZBAA 212300Z AUTO 1 1/4SM 26/26 A2977 RMK T02600260 IEM_DS3505
ZBAA,2004-07-22 00:00,ZBAA 220000Z AUTO 18008KT 5SM 28/24 A2977 RMK 70048 SLP074 T02790245 52002 IEM_DS3505
ZBAA,2004-07-22 01:00,ZBAA 220100Z AUTO 18004KT 1 1/2SM 27/27 A2977 RMK T02700270 IEM_DS3505
ZBAA,2004-07-22 02:00,ZBAA 220200Z AUTO 16006KT 2SM 28/27 A2977 RMK T02800270 IEM_DS3505
ZBAA,2004-07-22 03:00,ZBAA 220300Z AUTO 22008KT 5SM 30/24 A2977 RMK SLP070 T02990243 57004 IEM_DS3505
ZBAA,2004-07-22 04:00,ZBAA 220400Z AUTO 17008KT 2SM 31/28 A2974 RMK T03100280 IEM_DS3505
ZBAA,2004-07-22 05:00,ZBAA 220500Z AUTO 16008KT 1 1/2SM 31/27 A2974 RMK T03100270 IEM_DS3505
ZBAA,2004-07-22 06:00,ZBAA 220600Z AUTO 22008KT 6SM 32/25 A2971 RMK SLP053 T03170251 57017 IEM_DS3505
ZBAA,2004-07-22 07:00,ZBAA 220700Z AUTO 17008KT 2SM 32/28 A2968 RMK T03200280 IEM_DS3505
ZBAA,2004-07-22 08:00,ZBAA 220800Z AUTO 16006KT 2SM 32/28 A2968 RMK T03200280 IEM_DS3505
ZBAA,2004-07-22 09:00,ZBAA 220900Z AUTO 20008KT 7SM 32/24 A2965 RMK SLP038 T03210242 57015 IEM_DS3505
ZBAA,2004-07-22 10:00,ZBAA 221000Z AUTO 16004KT 2 1/2SM 31/28 A2965 RMK T03100280 IEM_DS3505
ZBAA,2004-07-22 11:00,ZBAA 221100Z AUTO 16006KT 2 1/2SM 30/28 A2965 RMK T03000280 IEM_DS3505
ZBAA,2004-07-22 12:00,ZBAA 221200Z AUTO 20004KT 6SM 31/24 A2965 RMK SLP037 T03070244 57001 IEM_DS3505
ZBAA,2004-07-22 13:00,ZBAA 221300Z AUTO 18004KT 2 1/2SM 29/27 A2965 RMK T02900270 IEM_DS3505
ZBAA,2004-07-22 14:00,ZBAA 221400Z AUTO 15004KT 3SM 28/27 A2965 RMK T02800270 IEM_DS3505
ZBAA,2004-07-22 15:00,ZBAA 221500Z AUTO 22006KT 6SM 29/24 A2965 RMK SLP035 T02890245 57002 IEM_DS3505
ZBAA,2004-07-22 16:00,ZBAA 221600Z AUTO 13006KT 2 1/2SM 27/27 A2965 RMK T02700270 IEM_DS3505
ZBAA,2004-07-22 17:00,ZBAA 221700Z AUTO 15004KT 2 1/2SM 27/27 A2962 RMK T02700270 IEM_DS3505
ZBAA,2004-07-22 18:00,ZBAA 221800Z AUTO 20004KT 7SM 28/24 A2962 RMK 60000 SLP021 T02770245 57014 IEM_DS3505
ZBAA,2004-07-22 19:00,ZBAA 221900Z AUTO 10002KT 1 1/4SM 26/26 A2962 RMK T02600260 IEM_DS3505
ZBAA,2004-07-22 20:00,ZBAA 222000Z AUTO 1 1/4SM 26/26 A2962 RMK T02600260 IEM_DS3505
ZBAA,2004-07-22 21:00,ZBAA 222100Z AUTO 20002KT 5SM 27/24 A2962 RMK 70000 SLP020 T02690242 57001 IEM_DS3505
ZBAA,2004-07-22 22:00,ZBAA 222200Z AUTO 14002KT 1 1/4SM 25/25 A2962 RMK T02500250 IEM_DS3505
ZBAA,2004-07-22 23:00,ZBAA 222300Z AUTO 16004KT 1 1/4SM 27/27 A2962 RMK T02700270 IEM_DS3505
ZBAA,2004-07-23 00:00,ZBAA 230000Z AUTO 22004KT 5SM 28/25 A2962 RMK 70000 SLP022 T02810247 52002 IEM_DS3505
ZBAA,2004-07-23 01:00,ZBAA 230100Z AUTO 1 1/2SM 29/27 A2959 RMK T02900270 IEM_DS3505
ZBAA,2004-07-23 02:00,ZBAA 230200Z AUTO 01002KT 1 1/4SM 29/28 A2959 RMK T02900280 IEM_DS3505
ZBAA,2004-07-23 03:00,ZBAA 230300Z AUTO 16004KT 5SM 31/25 A2959 RMK SLP010 T03140248 57012 IEM_DS3505
ZBAA,2004-07-23 04:00,ZBAA 230400Z AUTO 13006KT 1 1/4SM 31/28 RMK T03100280 IEM_DS3505
ZBAA,2004-07-23 05:00,ZBAA 230500Z AUTO 13006KT 1 1/2SM 31/29 A2953 RMK T03100290 IEM_DS3505
ZBAA,2004-07-23 06:00,ZBAA 230600Z AUTO 20006KT 5SM 32/25 A2953 RMK SLP993 T03170251 57017 IEM_DS3505
ZBAA,2004-07-23 07:00,ZBAA 230700Z AUTO 10006KT 1 1/4SM 31/29 A2953 RMK T03100290 IEM_DS3505
ZBAA,2004-07-23 08:00,ZBAA 230800Z AUTO 34016G25KT 4SM 25/25 A2956 RMK T02500250 IEM_DS3505
ZBAA,2004-07-23 09:00,ZBAA 230900Z AUTO 34006KT 9SM 28/22 A2956 RMK SLP002 T02760216 52009 IEM_DS3505
ZBAA,2004-07-23 10:00,ZBAA 231000Z AUTO 6SM 24/24 A2956 RMK T02400240 IEM_DS3505
ZBAA,2004-07-23 11:00,ZBAA 231100Z AUTO 33004KT 6SM 25/24 A2956 RMK T02500240 IEM_DS3505
ZBAA,2004-07-23 12:00,ZBAA 231200Z AUTO 25002KT 12SM 27/21 A2956 RMK SLP001 T02660209 57001 IEM_DS3505
ZBAA,2004-07-23 13:00,ZBAA 231300Z AUTO 35004KT 5SM 24/24 A2959 RMK T02400240 IEM_DS3505
ZBAA,2004-07-23 14:00,ZBAA 231400Z AUTO 08002KT 4SM 24/24 A2959 RMK T02400240 IEM_DS3505
ZBAA,2004-07-23 15:00,ZBAA 231500Z AUTO 29002KT 9SM 25/21 A2959 RMK SLP010 T02520213 52009 IEM_DS3505
ZBAA,2004-07-23 17:00,ZBAA 231700Z AUTO 34004KT 3SM 24/24 A2959 RMK T02400240 IEM_DS3505
ZBAA,2004-07-23 18:00,ZBAA 231800Z AUTO 27002KT 7SM 25/22 A2959 RMK SLP016 T02520219 52006 IEM_DS3505
ZBAA,2004-07-23 19:00,ZBAA 231900Z AUTO 36004KT 3SM 24/23 A2959 RMK T02400230 IEM_DS3505
ZBAA,2004-07-23 20:00,ZBAA 232000Z AUTO 36006KT 4SM 24/23 A2962 RMK T02400230 IEM_DS3505
ZBAA,2004-07-23 21:00,ZBAA 232100Z AUTO 04006KT 16SM 26/20 A2965 RMK 70001 SLP030 T02550201 52014 IEM_DS3505
ZBAA,2004-07-23 22:00,ZBAA 232200Z AUTO 36004KT 6SM 23/22 A2968 RMK T02300220 IEM_DS3505
ZBAA,2004-07-23 23:00,ZBAA 232300Z AUTO 35006KT 6SM 25/22 A2968 RMK T02500220 IEM_DS3505
ZBAA,2004-07-24 00:00,ZBAA 240000Z AUTO 02004KT 16SM 28/18 A2971 RMK 70001 SLP052 T02830181 52022 IEM_DS3505
ZBAA,2004-07-24 01:00,ZBAA 240100Z AUTO 35006KT 7SM 28/23 A2971 RMK T02800230 IEM_DS3505
ZBAA,2004-07-24 02:00,ZBAA 240200Z AUTO 35006KT 7SM 29/23 A2971 RMK T02900230 IEM_DS3505
ZBAA,2004-07-24 03:00,ZBAA 240300Z AUTO 07008KT 19SM 30/16 A2974 RMK SLP059 T03010165 52007 IEM_DS3505
ZBAA,2004-07-24 04:00,ZBAA 240400Z AUTO 6SM 30/21 A2971 RMK T03000210 IEM_DS3505
ZBAA,2004-07-24 05:00,ZBAA 240500Z AUTO 6SM 30/22 A2971 RMK T03000220 IEM_DS3505
ZBAA,2004-07-24 06:00,ZBAA 240600Z AUTO 11006KT 19SM 31/16 A2971 RMK SLP050 T03070163 57009 IEM_DS3505
ZBAA,2004-07-24 07:00,ZBAA 240700Z AUTO 6SM 31/23 A2968 RMK T03100230 IEM_DS3505
ZBAA,2004-07-24 08:00,ZBAA 240800Z AUTO 00000KT 6SM 31/20 A2968 RMK T03100200 IEM_DS3505
ZBAA,2004-07-24 09:00,ZBAA 240900Z AUTO 11006KT 19SM 30/17 A2968 RMK SLP043 T03040168 57007 IEM_DS3505
ZBAA,2004-07-24 10:00,ZBAA 241000Z AUTO 19004KT 6SM 30/20 A2968 RMK T03000200 IEM_DS3505
ZBAA,2004-07-24 11:00,ZBAA 241100Z AUTO 19002KT 6SM 29/21 A2968 RMK T02900210 IEM_DS3505
ZBAA,2004-07-24 12:00,ZBAA 241200Z AUTO 22002KT 16SM 28/18 A2971 RMK SLP053 T02810185 52010 IEM_DS3505
ZBAA,2004-07-24 13:00,ZBAA 241300Z AUTO 17004KT 6SM 26/21 A2971 RMK T02600210 IEM_DS3505
ZBAA,2004-07-24 14:00,ZBAA 241400Z AUTO 19006KT 6SM 26/21 A2974 RMK T02600210 IEM_DS3505
ZBAA,2004-07-24 15:00,ZBAA 241500Z AUTO 22004KT 9SM 26/19 A2974 RMK SLP065 T02570191 52012 IEM_DS3505
ZBAA,2004-07-24 16:00,ZBAA 241600Z AUTO 12002KT 6SM 24/22 A2977 RMK T02400220 IEM_DS3505
ZBAA,2004-07-24 17:00,ZBAA 241700Z AUTO 32002KT 6SM 23/22 A2974 RMK T02300220 IEM_DS3505
ZBAA,2004-07-24 18:00,ZBAA 241800Z AUTO 29002KT 12SM 25/20 A2974 RMK SLP065 T02490197 54000 IEM_DS3505
ZBAA,2004-07-24 19:00,ZBAA 241900Z AUTO 34004KT 6SM 22/21 A2974 RMK T02200210 IEM_DS3505
ZBAA,2004-07-24 20:00,ZBAA 242000Z AUTO 00000KT 6SM 21/21 A2974 RMK T02100210 IEM_DS3505
ZBAA,2004-07-24 21:00,ZBAA 242100Z AUTO 00000KT 6SM 22/20 A2974 RMK SLP066 T02240196 52001 IEM_DS3505
ZBAA,2004-07-24 22:00,ZBAA 242200Z AUTO 36004KT 6SM 21/21 A2974 RMK T02100210 IEM_DS3505
ZBAA,2004-07-24 23:00,ZBAA 242300Z AUTO 36002KT 6SM 23/22 A2977 RMK T02300220 IEM_DS3505
ZBAA,2004-07-25 00:00,ZBAA 250000Z AUTO 07002KT 6SM 26/20 A2977 RMK SLP074 T02640200 52008 IEM_DS3505
ZBAA,2004-07-25 01:00,ZBAA 250100Z AUTO 5SM 27/24 A2977 RMK T02700240 IEM_DS3505
ZBAA,2004-07-25 02:00,ZBAA 250200Z AUTO 4SM 29/24 A2977 RMK T02900240 IEM_DS3505
ZBAA,2004-07-25 03:00,ZBAA 250300Z AUTO 22006KT 7SM 30/19 A2974 RMK SLP064 T03040188 57010 IEM_DS3505
ZBAA,2004-07-25 04:00,ZBAA 250400Z AUTO 30/23 A2974 RMK T03000230 IEM_DS3505
ZBAA,2004-07-25 05:00,ZBAA 250500Z AUTO 17006KT 31/24 A2971 RMK T03100240 IEM_DS3505
ZBAA,2004-07-25 06:00,ZBAA 250600Z AUTO 22006KT 12SM 31/18 A2971 RMK SLP054 T03120179 57010 IEM_DS3505
ZBAA,2004-07-25 07:00,ZBAA 250700Z AUTO 16008KT 6SM 31/25 A2968 RMK T03100250 IEM_DS3505
ZBAA,2004-07-25 08:00,ZBAA 250800Z AUTO 15008KT 6SM 30/23 A2968 RMK T03000230 IEM_DS3505
ZBAA,2004-07-25 09:00,ZBAA 250900Z AUTO 22008KT 19SM 31/17 A2968 RMK SLP047 T03110174 57007 IEM_DS3505
ZBAA,2004-07-25 10:00,ZBAA 251000Z AUTO 17008KT 6SM 29/22 A2968 RMK T02900220 IEM_DS3505
ZBAA,2004-07-25 11:00,ZBAA 251100Z AUTO 16006KT 6SM 28/22 A2971 RMK T02800220 IEM_DS3505
ZBAA,2004-07-25 12:00,ZBAA 251200Z AUTO 20004KT 12SM 29/19 A2971 RMK SLP053 T02890190 52006 IEM_DS3505
ZBAA,2004-07-25 13:00,ZBAA 251300Z AUTO 13004KT 6SM 26/23 A2971 RMK T02600230 IEM_DS3505
ZBAA,2004-07-25 14:00,ZBAA 251400Z AUTO 13002KT 6SM 25/23 A2971 RMK T02500230 IEM_DS3505
ZBAA,2004-07-25 15:00,ZBAA 251500Z AUTO 22004KT 6SM 27/19 A2971 RMK SLP055 T02680192 52002 IEM_DS3505
ZBAA,2004-07-25 16:00,ZBAA 251600Z AUTO 14002KT 3SM 24/23 A2971 RMK T02400230 IEM_DS3505
ZBAA,2004-07-25 17:00,ZBAA 251700Z AUTO 14004KT 3SM 24/23 A2971 RMK T02400230 IEM_DS3505
ZBAA,2004-07-25 18:00,ZBAA 251800Z AUTO 18006KT 6SM 25/19 A2971 RMK SLP051 T02520193 57004 IEM_DS3505
ZBAA,2004-07-25 19:00,ZBAA 251900Z AUTO 16004KT 3SM 24/22 A2968 RMK T02400220 IEM_DS3505
ZBAA,2004-07-25 20:00,ZBAA 252000Z AUTO 11004KT 3SM 23/22 A2968 RMK T02300220 IEM_DS3505
ZBAA,2004-07-25 21:00,ZBAA 252100Z AUTO 22004KT 7SM 24/16 A2971 RMK SLP053 T02420165 52002 IEM_DS3505
ZBAA,2004-07-25 22:00,ZBAA 252200Z AUTO 09006KT 2 1/2SM 23/21 A2971 RMK T02300210 IEM_DS3505
ZBAA,2004-07-25 23:00,ZBAA 252300Z AUTO 12006KT 2 1/2SM 23/21 A2971 RMK T02300210 IEM_DS3505
ZBAA,2004-07-26 00:00,ZBAA 260000Z AUTO 14002KT 7SM 24/16 A2971 RMK 70000 SLP059 T02430163 52006 IEM_DS3505
ZBAA,2004-07-26 01:00,ZBAA 260100Z AUTO 13004KT 2 1/2SM 22/21 A2974 RMK T02200210 IEM_DS3505
ZBAA,2004-07-26 02:00,ZBAA 260200Z AUTO 00000KT 4SM 21/19 A2971 RMK T02100190 IEM_DS3505
ZBAA,2004-07-26 03:00,ZBAA 260300Z AUTO 00000KT 6SM 23/15 A2971 RMK SLP051 T02310154 57008 IEM_DS3505
ZBAA,2004-07-26 04:00,ZBAA 260400Z AUTO 02002KT 4SM 22/20 A2968 RMK T02200200 IEM_DS3505
ZBAA,2004-07-26 05:00,ZBAA 260500Z AUTO 00000KT 5SM 21/19 A2971 RMK T02100190 IEM_DS3505
ZBAA,2004-07-26 06:00,ZBAA 260600Z AUTO 36004KT 7SM 21/16 A2968 RMK 60008 SLP041 T02140162 57011 IEM_DS3505
ZBAA,2004-07-26 07:00,ZBAA 260700Z AUTO 30006KT 3SM 19/18 A2968 RMK T01900180 IEM_DS3505
ZBAA,2004-07-26 08:00,ZBAA 260800Z AUTO 32010KT 2 1/2SM 19/18 A2968 RMK T01900180 IEM_DS3505
ZBAA,2004-07-26 09:00,ZBAA 260900Z AUTO 36004KT 6SM 19/16 A2968 RMK SLP039 T01860164 57002 IEM_DS3505
ZBAA,2004-07-26 09:30,ZBAA 260930Z AUTO 36008KT 2SM 18/18 A2968 RMK T01800180 IEM_DS3505
ZBAA,2004-07-26 10:00,ZBAA 261000Z AUTO 36004KT 2SM 18/18 A2968 RMK T01800180 IEM_DS3505
ZBAA,2004-07-26 11:00,ZBAA 261100Z AUTO 2SM 18/18 A2968 RMK T01800180 IEM_DS3505
ZBAA,2004-07-26 12:00,ZBAA 261200Z AUTO 04004KT 6SM 19/16 A2968 RMK 60035 SLP039 T01870161 54000 IEM_DS3505
ZBAA,2004-07-26 13:00,ZBAA 261300Z AUTO 2SM 19/19 A2965 RMK T01900190 IEM_DS3505
ZBAA,2004-07-26 14:00,ZBAA 261400Z AUTO 35004KT 2SM 19/19 A2965 RMK T01900190 IEM_DS3505
ZBAA,2004-07-26 15:00,ZBAA 261500Z AUTO 04002KT 6SM 19/16 A2965 RMK SLP029 T01900164 57010 IEM_DS3505
ZBAA,2004-07-26 15:30,ZBAA 261530Z AUTO 29006KT 2SM 19/18 A2962 RMK T01900180 IEM_DS3505
ZBAA,2004-07-26 16:00,ZBAA 261600Z AUTO 30006KT 2SM 18/18 A2962 RMK T01800180 IEM_DS3505
ZBAA,2004-07-26 17:00,ZBAA 261700Z AUTO 29004KT 2SM 18/18 A2962 RMK T01800180 IEM_DS3505
ZBAA,2004-07-26 18:00,ZBAA 261800Z AUTO 00000KT 7SM 18/16 A2962 RMK SLP021 T01850159 57008 IEM_DS3505
ZBAA,2004-07-26 19:00,ZBAA 261900Z AUTO 22002KT 1 1/4SM 17/17 A2962 RMK T01700170 IEM_DS3505
ZBAA,2004-07-26 20:00,ZBAA 262000Z AUTO 27002KT 1 1/4SM 18/18 A2962 RMK T01800180 IEM_DS3505
ZBAA,2004-07-26 21:00,ZBAA 262100Z AUTO 29004KT 6SM 18/16 A2962 RMK 70043 SLP030 T01830157 52009 IEM_DS3505
ZBAA,2004-07-26 22:00,ZBAA 262200Z AUTO 25002KT 1 1/2SM 18/18 A2965 RMK T01800180 IEM_DS3505
ZBAA,2004-07-26 23:00,ZBAA 262300Z AUTO 28002KT 3SM 20/19 A2965 RMK T02000190 IEM_DS3505
ZBAA,2004-07-27 00:00,ZBAA 270000Z AUTO 27006KT 12SM 22/16 A2965 RMK 70043 SLP036 T02160161 52006 IEM_DS3505
ZBAA,2004-07-27 01:00,ZBAA 270100Z AUTO 30004KT 5SM 23/19 A2965 RMK T02300190 IEM_DS3505
ZBAA,2004-07-27 02:00,ZBAA 270200Z AUTO 27004KT 5SM 24/20 A2965 RMK T02400200 IEM_DS3505
ZBAA,2004-07-27 03:00,ZBAA 270300Z AUTO 20006KT 9SM 25/17 A2965 RMK SLP034 T02490174 57002 IEM_DS3505
ZBAA,2004-07-27 04:00,ZBAA 270400Z AUTO 27/20 A2965 RMK T02700200 IEM_DS3505
ZBAA,2004-07-27 05:00,ZBAA 270500Z AUTO 4SM 27/22 A2962 RMK T02700220 IEM_DS3505
ZBAA,2004-07-27 06:00,ZBAA 270600Z AUTO 20004KT 9SM 28/19 A2962 RMK SLP025 T02810193 57008 IEM_DS3505
ZBAA,2004-07-27 07:00,ZBAA 270700Z AUTO 16004KT 29/22 A2962 RMK T02900220 IEM_DS3505
ZBAA,2004-07-27 08:00,ZBAA 270800Z AUTO 16004KT 29/22 A2962 RMK T02900220 IEM_DS3505
ZBAA,2004-07-27 09:00,ZBAA 270900Z AUTO 22008KT 9SM 28/20 A2965 RMK SLP036 T02800203 52010 IEM_DS3505
ZBAA,2004-07-27 10:00,ZBAA 271000Z AUTO 19006KT 3SM 28/23 A2968 RMK T02800230 IEM_DS3505
ZBAA,2004-07-27 11:00,ZBAA 271100Z AUTO 28002KT 2 1/2SM 27/23 A2968 RMK T02700230 IEM_DS3505
ZBAA,2004-07-27 12:00,ZBAA 271200Z AUTO 16004KT 7SM 26/21 A2968 RMK 60000 SLP043 T02650206 52008 IEM_DS3505
ZBAA,2004-07-27 13:00,ZBAA 271300Z AUTO 18008KT 2 1/2SM 26/23 A2971 RMK T02600230 IEM_DS3505
ZBAA,2004-07-27 14:00,ZBAA 271400Z AUTO 20004KT 2 1/2SM 25/23 A2971 RMK T02500230 IEM_DS3505
ZBAA,2004-07-27 15:00,ZBAA 271500Z AUTO 25004KT 9SM 25/21 A2971 RMK SLP057 T02510210 52014 IEM_DS3505
ZBAA,2004-07-27 16:00,ZBAA 271600Z AUTO 14002KT 2 1/2SM 25/24 A2971 RMK T02500240 IEM_DS3505
ZBAA,2004-07-27 17:00,ZBAA 271700Z AUTO 36002KT 2SM 24/23 A2971 RMK T02400230 IEM_DS3505
ZBAA,2004-07-27 18:00,ZBAA 271800Z AUTO 34002KT 7SM 24/21 A2971 RMK SLP049 T02390206 57008 IEM_DS3505
ZBAA,2004-07-27 19:00,ZBAA 271900Z AUTO 35002KT 1SM 23/23 A2971 RMK T02300230 IEM_DS3505
ZBAA,2004-07-27 20:00,ZBAA 272000Z AUTO 36002KT 1SM 23/23 A2974 RMK T02300230 IEM_DS3505
ZBAA,2004-07-27 21:00,ZBAA 272100Z AUTO 25002KT 3SM 24/21 A2977 RMK SLP075 T02370210 52026 IEM_DS3505
ZBAA,2004-07-27 22:00,ZBAA 272200Z AUTO 26002KT 1/2SM 23/23 A2977 RMK T02300230 IEM_DS3505
ZBAA,2004-07-27 23:00,ZBAA 272300Z AUTO 00000KT 1SM 24/24 A2980 RMK T02400240 IEM_DS3505
ZBAA,2004-07-28 00:00,ZBAA 280000Z AUTO 02002KT 2SM 26/21 A2980 RMK SLP086 T02610213 52011 IEM_DS3505
ZBAA,2004-07-28 01:00,ZBAA 280100Z AUTO 1 1/4SM 27/25 A2980 RMK T02700250 IEM_DS3505
ZBAA,2004-07-28 02:00,ZBAA 280200Z AUTO 1 1/4SM 29/25 A2980 RMK T02900250 IEM_DS3505
ZBAA,2004-07-28 03:00,ZBAA 280300Z AUTO 04006KT 6SM 31/19 A2980 RMK SLP079 T03080189 57007 IEM_DS3505
ZBAA,2004-07-28 04:00,ZBAA 280400Z AUTO 01004KT 6SM 32/24 A2977 RMK T03200240 IEM_DS3505
ZBAA,2004-07-28 05:00,ZBAA 280500Z AUTO 6SM 33/22 A2977 RMK T03300220 IEM_DS3505
ZBAA,2004-07-28 06:00,ZBAA 280600Z AUTO 07006KT 12SM 33/19 RMK SLP068 T03320186 57011 IEM_DS3505
ZBAA,2004-07-28 07:00,ZBAA 280700Z AUTO 6SM 34/24 A2974 RMK T03400240 IEM_DS3505
ZBAA,2004-07-28 08:00,ZBAA 280800Z AUTO 14006KT 6SM 33/26 A2974 RMK T03300260 IEM_DS3505
ZBAA,2004-07-28 09:00,ZBAA 280900Z AUTO 11006KT 12SM 32/21 A2974 RMK SLP067 T03240213 57001 IEM_DS3505
ZBAA,2004-07-28 10:00,ZBAA 281000Z AUTO 16006KT 2 1/2SM 31/26 A2977 RMK T03100260 IEM_DS3505
ZBAA,2004-07-28 11:00,ZBAA 281100Z AUTO 13004KT 2 1/2SM 30/26 A2977 RMK T03000260 IEM_DS3505
ZBAA,2004-07-28 12:00,ZBAA 281200Z AUTO 14004KT 6SM 30/23 A2980 RMK SLP082 T02980228 52015 IEM_DS3505
ZBAA,2004-07-28 13:00,ZBAA 281300Z AUTO 12006KT 3SM 26/24 A2983 RMK T02600240 IEM_DS3505
ZBAA,2004-07-28 14:00,ZBAA 281400Z AUTO 10008KT 4SM 25/23 A2983 RMK T02500230 IEM_DS3505
ZBAA,2004-07-28 15:00,ZBAA 281500Z AUTO 11010KT 5SM 27/23 A2983 RMK SLP091 T02700233 52009 IEM_DS3505
ZBAA,2004-07-28 16:00,ZBAA 281600Z AUTO 5SM 25/23 A2983 RMK T02500230 IEM_DS3505
ZBAA,2004-07-28 17:00,ZBAA 281700Z AUTO 10006KT 3SM 25/23 A2980 RMK T02500230 IEM_DS3505
ZBAA,2004-07-28 18:00,ZBAA 281800Z AUTO 11008KT 4SM 25/22 A2980 RMK 60002 SLP075 T02520223 57016 IEM_DS3505
ZBAA,2004-07-28 19:00,ZBAA 281900Z AUTO 2 1/2SM 24/23 A2980 RMK T02400230 IEM_DS3505
ZBAA,2004-07-28 20:00,ZBAA 282000Z AUTO 02002KT 1 1/4SM 24/24 A2977 RMK T02400240 IEM_DS3505
ZBAA,2004-07-28 21:00,ZBAA 282100Z AUTO 04008KT 2 1/2SM 23/21 A2977 RMK 70238 SLP072 T02310214 57003 IEM_DS3505
ZBAA,2004-07-28 22:00,ZBAA 282200Z AUTO 34004KT 1SM 23/23 A2977 RMK T02300230 IEM_DS3505
ZBAA,2004-07-28 23:00,ZBAA 282300Z AUTO 00000KT 1SM 23/23 A2977 RMK T02300230 IEM_DS3505
ZBAA,2004-07-29 00:00,ZBAA 290000Z AUTO 07006KT 2 1/2SM 24/22 A2977 RMK 60276 70277 SLP071 T02400217 57001 IEM_DS3505
ZBAA,2004-07-29 00:30,ZBAA 290030Z AUTO 1SM 23/23 A2977 RMK T02300230 IEM_DS3505
ZBAA,2004-07-29 01:00,ZBAA 290100Z AUTO 36004KT 1SM 23/23 A2977 RMK T02300230 IEM_DS3505
ZBAA,2004-07-29 02:00,ZBAA 290200Z AUTO 36004KT 1SM 24/24 A2974 RMK T02400240 IEM_DS3505
ZBAA,2004-07-29 03:00,ZBAA 290300Z AUTO 07004KT 4SM 24/22 A2974 RMK SLP061 T02430222 57010 IEM_DS3505
ZBAA,2004-07-29 04:00,ZBAA 290400Z AUTO 36002KT 1 1/2SM 24/24 A2974 RMK T02400240 IEM_DS3505
ZBAA,2004-07-29 05:00,ZBAA 290500Z AUTO 35002KT 2SM 24/24 A2971 RMK T02400240 IEM_DS3505
ZBAA,2004-07-29 05:30,ZBAA 290530Z AUTO 30014KT 1 1/4SM 23/23 A2974 RMK T02300230 IEM_DS3505
ZBAA,2004-07-29 06:00,ZBAA 290600Z AUTO 04002KT 4SM 24/22 A2974 RMK 60016 SLP058 T02450222 57003 IEM_DS3505
ZBAA,2004-07-29 07:00,ZBAA 290700Z AUTO 30010KT 7SM 25/22 A2974 RMK T02500220 IEM_DS3505
ZBAA,2004-07-29 08:00,ZBAA 290800Z AUTO 01004KT 6SM 26/23 A2974 RMK T02600230 IEM_DS3505
ZBAA,2004-07-29 09:00,ZBAA 290900Z AUTO 36008KT 19SM 28/17 A2974 RMK SLP060 T02800172 52002 IEM_DS3505
ZBAA,2004-07-29 10:00,ZBAA 291000Z AUTO 01008KT 6SM 26/22 A2974 RMK T02600220 IEM_DS3505
ZBAA,2004-07-29 11:00,ZBAA 291100Z AUTO 02004KT 6SM 25/21 A2977 RMK T02500210 IEM_DS3505
ZBAA,2004-07-29 12:00,ZBAA 291200Z AUTO 04006KT 19SM 25/16 A2983 RMK SLP089 T02500164 52028 IEM_DS3505
ZBAA,2004-07-29 13:00,ZBAA 291300Z AUTO 02006KT 6SM 23/18 A2983 RMK T02300180 IEM_DS3505
ZBAA,2004-07-29 14:00,ZBAA 291400Z AUTO 6SM 21/18 A2985 RMK T02100180 IEM_DS3505
ZBAA,2004-07-29 15:00,ZBAA 291500Z AUTO 04008KT 19SM 23/14 A2985 RMK SLP103 T02290137 52014 IEM_DS3505
ZBAA,2004-07-29 16:00,ZBAA 291600Z AUTO 36006KT 6SM 20/17 A2985 RMK T02000170 IEM_DS3505
ZBAA,2004-07-29 17:00,ZBAA 291700Z AUTO 01004KT 6SM 20/16 A2985 RMK T02000160 IEM_DS3505
ZBAA,2004-07-29 18:00,ZBAA 291800Z AUTO 02004KT 19SM 21/14 A2985 RMK SLP108 T02140136 52005 IEM_DS3505
ZBAA,2004-07-29 19:00,ZBAA 291900Z AUTO 02002KT 6SM 19/17 A2985 RMK T01900170 IEM_DS3505
ZBAA,2004-07-29 20:00,ZBAA 292000Z AUTO 08002KT 6SM 18/17 A2988 RMK T01800170 IEM_DS3505
ZBAA,2004-07-29 21:00,ZBAA 292100Z AUTO 07004KT 19SM 20/14 A2988 RMK 70053 SLP118 T01950141 52010 IEM_DS3505
ZBAA,2004-07-29 22:00,ZBAA 292200Z AUTO 35004KT 6SM 19/17 A2991 RMK T01900170 IEM_DS3505
ZBAA,2004-07-29 23:00,ZBAA 292300Z AUTO 35004KT 6SM 20/18 A2991 RMK T02000180 IEM_DS3505
ZBAA,2004-07-30 00:00,ZBAA 300000Z AUTO 32002KT 19SM 22/15 A2991 RMK 70015 SLP125 T02230147 52007 IEM_DS3505
ZBAA,2004-07-30 01:00,ZBAA 300100Z AUTO 6SM 23/18 A2991 RMK T02300180 IEM_DS3505
ZBAA,2004-07-30 02:00,ZBAA 300200Z AUTO 00000KT 6SM 23/18 A2991 RMK T02300180 IEM_DS3505
ZBAA,2004-07-30 03:00,ZBAA 300300Z AUTO 22004KT 12SM 23/16 A2994 RMK SLP132 T02340155 52007 IEM_DS3505
ZBAA,2004-07-30 04:00,ZBAA 300400Z AUTO 14002KT 6SM 24/19 A2991 RMK T02400190 IEM_DS3505
ZBAA,2004-07-30 05:00,ZBAA 300500Z AUTO 14002KT 6SM 24/19 A2991 RMK T02400190 IEM_DS3505
ZBAA,2004-07-30 06:00,ZBAA 300600Z AUTO 22002KT 12SM 24/16 A2991 RMK SLP124 T02400165 57008 IEM_DS3505
ZBAA,2004-07-30 07:00,ZBAA 300700Z AUTO 16008KT 6SM 24/19 A2988 RMK T02400190 IEM_DS3505
ZBAA,2004-07-30 08:00,ZBAA 300800Z AUTO 18006KT 6SM 23/18 A2988 RMK T02300180 IEM_DS3505
ZBAA,2004-07-30 09:00,ZBAA 300900Z AUTO 22004KT 12SM 23/16 A2988 RMK SLP115 T02310159 57009 IEM_DS3505
ZBAA,2004-07-30 10:00,ZBAA 301000Z AUTO 16002KT 6SM 23/19 A2988 RMK T02300190 IEM_DS3505
ZBAA,2004-07-30 11:00,ZBAA 301100Z AUTO 16004KT 6SM 22/19 A2988 RMK T02200190 IEM_DS3505
ZBAA,2004-07-30 12:00,ZBAA 301200Z AUTO 22002KT 12SM 22/16 A2988 RMK SLP117 T02190160 52002 IEM_DS3505
ZBAA,2004-07-30 13:00,ZBAA 301300Z AUTO 18004KT 4SM 20/20 A2991 RMK T02000200 IEM_DS3505
ZBAA,2004-07-30 14:00,ZBAA 301400Z AUTO 00000KT 4SM 20/19 A2991 RMK T02000190 IEM_DS3505
ZBAA,2004-07-30 15:00,ZBAA 301500Z AUTO 29004KT 12SM 21/17 A2991 RMK SLP122 T02080168 52005 IEM_DS3505
ZBAA,2004-07-30 16:00,ZBAA 301600Z AUTO 2 1/2SM 19/19 A2988 RMK T01900190 IEM_DS3505
ZBAA,2004-07-30 17:00,ZBAA 301700Z AUTO 00000KT 2SM 19/19 A2988 RMK T01900190 IEM_DS3505
ZBAA,2004-07-30 18:00,ZBAA 301800Z AUTO 00000KT 6SM 20/17 A2988 RMK SLP111 T01960170 57011 IEM_DS3505
ZBAA,2004-07-30 19:00,ZBAA 301900Z AUTO 34004KT 2SM 18/18 A2985 RMK T01800180 IEM_DS3505
ZBAA,2004-07-30 20:00,ZBAA 302000Z AUTO 34004KT 2SM 18/18 A2985 RMK T01800180 IEM_DS3505
ZBAA,2004-07-30 21:00,ZBAA 302100Z AUTO 04002KT 6SM 19/17 A2985 RMK SLP106 T01900168 57005 IEM_DS3505
ZBAA,2004-07-30 22:00,ZBAA 302200Z AUTO 34006KT 4SM 18/18 A2985 RMK T01800180 IEM_DS3505
ZBAA,2004-07-30 23:00,ZBAA 302300Z AUTO 34006KT 4SM 20/19 A2985 RMK T02000190 IEM_DS3505
ZBAA,2004-07-31 00:00,ZBAA 310000Z AUTO 04004KT 9SM 23/17 A2985 RMK SLP107 T02340169 52001 IEM_DS3505
ZBAA,2004-07-31 01:00,ZBAA 310100Z AUTO 34004KT 6SM 25/21 A2985 RMK T02500210 IEM_DS3505
ZBAA,2004-07-31 02:00,ZBAA 310200Z AUTO 03002KT 6SM 26/22 A2985 RMK T02600220 IEM_DS3505
ZBAA,2004-07-31 03:00,ZBAA 310300Z AUTO 29002KT 16SM 28/16 A2985 RMK SLP101 T02810157 57006 IEM_DS3505
ZBAA,2004-07-31 04:00,ZBAA 310400Z AUTO 16002KT 6SM 29/22 A2983 RMK T02900220 IEM_DS3505
ZBAA,2004-07-31 05:00,ZBAA 310500Z AUTO 15004KT 6SM 29/20 A2983 RMK T02900200 IEM_DS3505
ZBAA,2004-07-31 06:00,ZBAA 310600Z AUTO 16004KT 16SM 29/15 A2980 RMK SLP084 T02940148 57017 IEM_DS3505
ZBAA,2004-07-31 07:00,ZBAA 310700Z AUTO 11004KT 6SM 29/20 A2977 RMK T02900200 IEM_DS3505
ZBAA,2004-07-31 08:00,ZBAA 310800Z AUTO 14004KT 6SM 30/22 A2977 RMK T03000220 IEM_DS3505
ZBAA,2004-07-31 09:00,ZBAA 310900Z AUTO 18006KT 16SM 30/17 A2974 RMK SLP069 T02950173 57015 IEM_DS3505
ZBAA,2004-07-31 10:00,ZBAA 311000Z AUTO 16006KT 6SM 28/21 A2974 RMK T02800210 IEM_DS3505
ZBAA,2004-07-31 11:00,ZBAA 311100Z AUTO 15004KT 6SM 26/22 A2977 RMK T02600220 IEM_DS3505
ZBAA,2004-07-31 12:00,ZBAA 311200Z AUTO 22004KT 12SM 26/18 A2977 RMK SLP076 T02630184 52008 IEM_DS3505
ZBAA,2004-07-31 13:00,ZBAA 311300Z AUTO 18004KT 6SM 24/21 A2980 RMK T02400210 IEM_DS3505
ZBAA,2004-07-31 14:00,ZBAA 311400Z AUTO 18006KT 6SM 23/21 A2980 RMK T02300210 IEM_DS3505
ZBAA,2004-07-31 15:00,ZBAA 311500Z AUTO 20002KT 9SM 24/19 A2980 RMK SLP086 T02410190 52010 IEM_DS3505
ZBAA,2004-07-31 16:00,ZBAA 311600Z AUTO 16002KT 2 1/2SM 23/21 A2980 RMK T02300210 IEM_DS3505
ZBAA,2004-07-31 17:00,ZBAA 311700Z AUTO 01002KT 2SM 22/21 A2980 RMK T02200210 IEM_DS3505
ZBAA,2004-07-31 18:00,ZBAA 311800Z AUTO 11002KT 7SM 22/19 A2977 RMK SLP077 T02240190 57009 IEM_DS3505
ZBAA,2004-07-31 19:00,ZBAA 311900Z AUTO 00000KT 1 1/2SM 21/21 A2977 RMK T02100210 IEM_DS3505
ZBAA,2004-07-31 20:00,ZBAA 312000Z AUTO 02002KT 1 1/2SM 20/20 A2977 RMK T02000200 IEM_DS3505
ZBAA,2004-07-31 21:00,ZBAA 312100Z AUTO 34002KT 5SM 21/19 A2977 RMK SLP072 T02120188 57005 IEM_DS3505
ZBAA,2004-07-31 22:00,ZBAA 312200Z AUTO 35004KT 2SM 20/20 A2977 RMK T02000200 IEM_DS3505
ZBAA,2004-07-31 23:00,ZBAA 312300Z AUTO 34004KT 2 1/2SM 21/21 A2977 RMK T02100210 IEM_DS3505
ZBAA,2004-08-01 00:00,ZBAA 010000Z AUTO 09002KT 4SM 24/20 A2977 RMK SLP078 T02450200 52006 IEM_DS3505
ZBAA,2004-08-01 01:00,ZBAA 010100Z AUTO 2 1/2SM 25/22 A2977 RMK T02500220 IEM_DS3505
ZBAA,2004-08-01 02:00,ZBAA 010200Z AUTO 2 1/2SM 27/22 A2977 RMK T02700220 IEM_DS3505
ZBAA,2004-08-01 03:00,ZBAA 010300Z AUTO 18006KT 6SM 28/19 A2977 RMK SLP074 T02800187 57004 IEM_DS3505
ZBAA,2004-08-01 04:00,ZBAA 010400Z AUTO 18006KT 3SM 29/23 A2977 RMK T02900230 IEM_DS3505
ZBAA,2004-08-01 05:00,ZBAA 010500Z AUTO 16006KT 3SM 29/23 A2974 RMK T02900230 IEM_DS3505
ZBAA,2004-08-01 06:00,ZBAA 010600Z AUTO 18004KT 9SM 30/17 A2971 RMK SLP057 T02990170 57017 IEM_DS3505
ZBAA,2004-08-01 07:00,ZBAA 010700Z AUTO 14006KT 2 1/2SM 29/23 A2971 RMK T02900230 IEM_DS3505
ZBAA,2004-08-01 08:00,ZBAA 010800Z AUTO 17006KT 3SM 30/22 A2968 RMK T03000220 IEM_DS3505
ZBAA,2004-08-01 09:00,ZBAA 010900Z AUTO 22006KT 9SM 30/18 A2968 RMK SLP045 T02970185 57012 IEM_DS3505
ZBAA,2004-08-01 10:00,ZBAA 011000Z AUTO 16006KT 4SM 28/23 A2968 RMK T02800230 IEM_DS3505
ZBAA,2004-08-01 11:00,ZBAA 011100Z AUTO 15006KT 4SM 26/22 A2968 RMK T02600220 IEM_DS3505
ZBAA,2004-08-01 12:00,ZBAA 011200Z AUTO 20004KT 6SM 27/20 A2968 RMK SLP050 T02710195 52005 IEM_DS3505
ZBAA,2004-08-01 13:00,ZBAA 011300Z AUTO 18004KT 2 1/2SM 24/22 A2971 RMK T02400220 IEM_DS3505
ZBAA,2004-08-01 14:00,ZBAA 011400Z AUTO 15002KT 2SM 24/23 A2971 RMK T02400230 IEM_DS3505
ZBAA,2004-08-01 15:00,ZBAA 011500Z AUTO 18002KT 5SM 26/19 A2971 RMK SLP058 T02570194 52008 IEM_DS3505
ZBAA,2004-08-01 16:00,ZBAA 011600Z AUTO 14002KT 2SM 23/22 A2971 RMK T02300220 IEM_DS3505
ZBAA,2004-08-01 17:00,ZBAA 011700Z AUTO 12002KT 1 1/2SM 22/22 A2971 RMK T02200220 IEM_DS3505
ZBAA,2004-08-01 18:00,ZBAA 011800Z AUTO 18002KT 5SM 24/20 A2971 RMK SLP054 T02440195 57004 IEM_DS3505
ZBAA,2004-08-01 19:00,ZBAA 011900Z AUTO 00000KT 1 1/4SM 22/22 A2971 RMK T02200220 IEM_DS3505
ZBAA,2004-08-01 20:00,ZBAA 012000Z AUTO 00000KT 1 1/4SM 21/21 A2971 RMK T02100210 IEM_DS3505
ZBAA,2004-08-01 21:00,ZBAA 012100Z AUTO 22002KT 4SM 23/20 A2971 RMK SLP055 T02320198 52001 IEM_DS3505
ZBAA,2004-08-01 22:00,ZBAA 012200Z AUTO 00000KT 1SM 21/21 A2971 RMK T02100210 IEM_DS3505
ZBAA,2004-08-01 23:00,ZBAA 012300Z AUTO 00000KT 1SM 22/22 A2971 RMK T02200220 IEM_DS3505
ZBAA,2004-08-02 00:00,ZBAA 020000Z AUTO 22002KT 2SM 25/20 A2974 RMK SLP060 T02500205 52005 IEM_DS3505
ZBAA,2004-08-02 01:00,ZBAA 020100Z AUTO 07002KT 1SM 24/23 A2974 RMK T02400230 IEM_DS3505
ZBAA,2004-08-02 02:00,ZBAA 020200Z AUTO 1 1/4SM 27/24 A2974 RMK T02700240 IEM_DS3505
ZBAA,2004-08-02 03:00,ZBAA 020300Z AUTO 22004KT 5SM 28/20 RMK SLP058 T02800203 57002 IEM_DS3505
ZBAA,2004-08-02 04:00,ZBAA 020400Z AUTO 1 1/4SM 29/24 A2971 RMK T02900240 IEM_DS3505
ZBAA,2004-08-02 05:00,ZBAA 020500Z AUTO 1 1/4SM 28/24 A2968 RMK T02800240 IEM_DS3505
ZBAA,2004-08-02 06:00,ZBAA 020600Z AUTO 20008KT 6SM 28/20 A2965 RMK SLP040 T02830201 57018 IEM_DS3505
ZBAA,2004-08-02 07:00,ZBAA 020700Z AUTO 20006KT 2SM 27/23 A2965 RMK T02700230 IEM_DS3505
ZBAA,2004-08-02 08:00,ZBAA 020800Z AUTO 18006KT 2SM 28/24 A2965 RMK T02800240 IEM_DS3505
ZBAA,2004-08-02 09:00,ZBAA 020900Z AUTO 20006KT 6SM 28/20 A2962 RMK SLP030 T02760202 57010 IEM_DS3505
ZBAA,2004-08-02 10:00,ZBAA 021000Z AUTO 18006KT 2SM 26/24 A2962 RMK T02600240 IEM_DS3505
ZBAA,2004-08-02 11:00,ZBAA 021100Z AUTO 13004KT 2SM 25/24 A2962 RMK T02500240 IEM_DS3505
ZBAA,2004-08-02 12:00,ZBAA 021200Z AUTO 27006KT 5SM 27/21 A2965 RMK SLP034 T02680206 52004 IEM_DS3505
ZBAA,2004-08-02 13:00,ZBAA 021300Z AUTO 29002KT 1 1/2SM 24/23 A2965 RMK T02400230 IEM_DS3505
ZBAA,2004-08-02 14:00,ZBAA 021400Z AUTO 21004KT 1 1/4SM 23/23 A2965 RMK T02300230 IEM_DS3505
ZBAA,2004-08-02 15:00,ZBAA 021500Z AUTO 25004KT 4SM 24/20 A2965 RMK SLP030 T02380201 57004 IEM_DS3505
ZBAA,2004-08-02 16:00,ZBAA 021600Z AUTO 17002KT 1 1/4SM 23/23 A2962 RMK T02300230 IEM_DS3505
ZBAA,2004-08-02 17:00,ZBAA 021700Z AUTO 00000KT 1 1/4SM 22/22 A2962 RMK T02200220 IEM_DS3505
ZBAA,2004-08-02 18:00,ZBAA 021800Z AUTO 09004KT 2SM 24/21 A2959 RMK 60012 SLP014 T02350206 57016 IEM_DS3505
ZBAA,2004-08-02 19:00,ZBAA 021900Z AUTO 12004KT 1SM 23/23 A2959 RMK T02300230 IEM_DS3505
ZBAA,2004-08-02 20:00,ZBAA 022000Z AUTO 00000KT 1SM 23/23 A2959 RMK T02300230 IEM_DS3505
ZBAA,2004-08-02 21:00,ZBAA 022100Z AUTO 07002KT 3SM 23/21 A2956 RMK 70020 SLP005 T02300207 57009 IEM_DS3505
ZBAA,2004-08-02 22:00,ZBAA 022200Z AUTO 13004KT 1SM 22/22 A2959 RMK T02200220 IEM_DS3505
ZBAA,2004-08-02 23:00,ZBAA 022300Z AUTO 13004KT 1SM 22/22 A2959 RMK T02200220 IEM_DS3505
ZBAA,2004-08-03 00:00,ZBAA 030000Z AUTO 09002KT 2 1/2SM 24/21 A2959 RMK 60008 70020 SLP010 T02450212 52005 IEM_DS3505
ZBAA,2004-08-03 01:00,ZBAA 030100Z AUTO 12004KT 1SM 24/23 A2959 RMK T02400230 IEM_DS3505
ZBAA,2004-08-03 02:00,ZBAA 030200Z AUTO 12004KT 1SM 25/24 A2959 RMK T02500240 IEM_DS3505
ZBAA,2004-08-03 03:00,ZBAA 030300Z AUTO 11006KT 2 1/2SM 27/22 A2959 RMK SLP012 T02680216 52002 IEM_DS3505
ZBAA,2004-08-03 04:00,ZBAA 030400Z AUTO 1 1/2SM 27/24 A2956 RMK T02700240 IEM_DS3505
ZBAA,2004-08-03 05:00,ZBAA 030500Z AUTO 2SM 28/25 A2953 RMK T02800250 IEM_DS3505
ZBAA,2004-08-03 06:00,ZBAA 030600Z AUTO 18006KT 6SM 30/22 A2953 RMK SLP996 T03010215 57016 IEM_DS3505
ZBAA,2004-08-03 07:00,ZBAA 030700Z AUTO 17006KT 2 1/2SM 30/26 A2953 RMK T03000260 IEM_DS3505
ZBAA,2004-08-03 08:00,ZBAA 030800Z AUTO 16004KT 2 1/2SM 30/26 A2950 RMK T03000260 IEM_DS3505
ZBAA,2004-08-03 09:00,ZBAA 030900Z AUTO 22006KT 6SM 31/22 A2950 RMK SLP985 T03080224 57011 IEM_DS3505
ZBAA,2004-08-03 10:00,ZBAA 031000Z AUTO 11004KT 1 1/2SM 29/26 A2950 RMK T02900260 IEM_DS3505
ZBAA,2004-08-03 11:00,ZBAA 031100Z AUTO 10004KT 1 1/4SM 28/26 A2953 RMK T02800260 IEM_DS3505
ZBAA,2004-08-03 12:00,ZBAA 031200Z AUTO 14004KT 6SM 29/22 A2956 RMK SLP006 T02920222 52021 IEM_DS3505
ZBAA,2004-08-03 13:00,ZBAA 031300Z AUTO 1SM 26/25 A2962 RMK T02600250 IEM_DS3505
ZBAA,2004-08-03 14:00,ZBAA 031400Z AUTO 00000KT 1SM 26/25 A2965 RMK T02600250 IEM_DS3505
ZBAA,2004-08-03 15:00,ZBAA 031500Z AUTO 02002KT 6SM 27/24 A2968 RMK SLP039 T02700235 52033 IEM_DS3505
ZBAA,2004-08-03 16:00,ZBAA 031600Z AUTO 35006KT 1 1/4SM 24/24 A2968 RMK T02400240 IEM_DS3505
ZBAA,2004-08-03 17:00,ZBAA 031700Z AUTO 36002KT 2SM 24/23 A2968 RMK T02400230 IEM_DS3505
ZBAA,2004-08-03 18:00,ZBAA 031800Z AUTO 34004KT 9SM 26/17 A2968 RMK SLP049 T02620173 52010 IEM_DS3505
ZBAA,2004-08-03 19:00,ZBAA 031900Z AUTO 31008KT 6SM 22/20 A2971 RMK T02200200 IEM_DS3505
ZBAA,2004-08-03 20:00,ZBAA 032000Z AUTO 33006KT 6SM 21/18 A2971 RMK T02100180 IEM_DS3505
ZBAA,2004-08-03 21:00,ZBAA 032100Z AUTO 02002KT 19SM 23/14 A2974 RMK SLP059 T02340136 52010 IEM_DS3505
ZBAA,2004-08-03 22:00,ZBAA 032200Z AUTO 34006KT 6SM 20/17 A2974 RMK T02000170 IEM_DS3505
ZBAA,2004-08-03 23:00,ZBAA 032300Z AUTO 34006KT 6SM 23/18 A2977 RMK T02300180 IEM_DS3505
ZBAA,2004-08-04 00:00,ZBAA 040000Z AUTO 02006KT 19SM 27/13 A2977 RMK SLP075 T02710131 52016 IEM_DS3505
ZBAA,2004-08-04 01:00,ZBAA 040100Z AUTO 36006KT 6SM 27/18 A2980 RMK T02700180 IEM_DS3505
ZBAA,2004-08-04 02:00,ZBAA 040200Z AUTO 02006KT 6SM 29/16 A2983 RMK T02900160 IEM_DS3505
ZBAA,2004-08-04 03:00,ZBAA 040300Z AUTO 04008KT 19SM 30/10 A2983 RMK SLP091 T03020097 52016 IEM_DS3505
ZBAA,2004-08-04 04:00,ZBAA 040400Z AUTO 36008KT 6SM 31/17 A2983 RMK T03100170 IEM_DS3505
ZBAA,2004-08-04 05:00,ZBAA 040500Z AUTO 6SM 32/16 A2980 RMK T03200160 IEM_DS3505
ZBAA,2004-08-04 06:00,ZBAA 040600Z AUTO 07006KT 19SM 31/10 A2980 RMK SLP085 T03140096 57006 IEM_DS3505
ZBAA,2004-08-04 07:00,ZBAA 040700Z AUTO 6SM 32/14 A2980 RMK T03200140 IEM_DS3505
ZBAA,2004-08-04 08:00,ZBAA 040800Z AUTO 12002KT 6SM 32/15 A2977 RMK T03200150 IEM_DS3505
ZBAA,2004-08-04 09:00,ZBAA 040900Z AUTO 16004KT 19SM 31/12 A2977 RMK SLP075 T03110115 57010 IEM_DS3505
ZBAA,2004-08-04 10:00,ZBAA 041000Z AUTO 14004KT 6SM 29/18 A2977 RMK T02900180 IEM_DS3505
ZBAA,2004-08-04 11:00,ZBAA 041100Z AUTO 17002KT 6SM 28/16 A2977 RMK T02800160 IEM_DS3505
ZBAA,2004-08-04 12:00,ZBAA 041200Z AUTO 22004KT 19SM 27/16 A2980 RMK SLP087 T02720165 52012 IEM_DS3505
ZBAA,2004-08-04 13:00,ZBAA 041300Z AUTO 17004KT 6SM 24/20 A2983 RMK T02400200 IEM_DS3505
ZBAA,2004-08-04 14:00,ZBAA 041400Z AUTO 15004KT 6SM 23/20 A2983 RMK T02300200 IEM_DS3505
ZBAA,2004-08-04 15:00,ZBAA 041500Z AUTO 27006KT 16SM 25/16 A2983 RMK SLP096 T02510163 52009 IEM_DS3505
ZBAA,2004-08-04 16:00,ZBAA 041600Z AUTO 6SM 23/19 A2983 RMK T02300190 IEM_DS3505
ZBAA,2004-08-04 17:00,ZBAA 041700Z AUTO 10002KT 6SM 21/19 A2983 RMK T02100190 IEM_DS3505
ZBAA,2004-08-04 18:00,ZBAA 041800Z AUTO 22002KT 6SM 22/17 A2983 RMK SLP091 T02230172 57005 IEM_DS3505
ZBAA,2004-08-04 19:00,ZBAA 041900Z AUTO 02002KT 6SM 19/19 A2983 RMK T01900190 IEM_DS3505
ZBAA,2004-08-04 20:00,ZBAA 042000Z AUTO 03002KT 6SM 19/19 A2985 RMK T01900190 IEM_DS3505
ZBAA,2004-08-04 21:00,ZBAA 042100Z AUTO 09004KT 6SM 21/18 A2985 RMK SLP102 T02100176 52011 IEM_DS3505
ZBAA,2004-08-04 22:00,ZBAA 042200Z AUTO 00000KT 6SM 18/18 A2985 RMK T01800180 IEM_DS3505
ZBAA,2004-08-04 23:00,ZBAA 042300Z AUTO 00000KT 5SM 21/20 A2985 RMK T02100200 IEM_DS3505
ZBAA,2004-08-05 00:00,ZBAA 050000Z AUTO 32002KT 5SM 24/18 A2985 RMK SLP100 T02390185 57002 IEM_DS3505
ZBAA,2004-08-05 01:00,ZBAA 050100Z AUTO 5SM 24/21 A2983 RMK T02400210 IEM_DS3505
ZBAA,2004-08-05 02:00,ZBAA 050200Z AUTO 6SM 26/21 A2983 RMK T02600210 IEM_DS3505
ZBAA,2004-08-05 03:00,ZBAA 050300Z AUTO 20004KT 6SM 28/18 A2983 RMK SLP090 T02810176 57010 IEM_DS3505
ZBAA,2004-08-05 04:00,ZBAA 050400Z AUTO 17004KT 6SM 29/23 A2980 RMK T02900230 IEM_DS3505
ZBAA,2004-08-05 05:00,ZBAA 050500Z AUTO 6SM 30/21 A2977 RMK T03000210 IEM_DS3505
ZBAA,2004-08-05 06:00,ZBAA 050600Z AUTO 20006KT 9SM 30/16 A2977 RMK SLP072 T03040164 57018 IEM_DS3505
ZBAA,2004-08-05 07:00,ZBAA 050700Z AUTO 13006KT 6SM 30/18 A2974 RMK T03000180 IEM_DS3505
ZBAA,2004-08-05 08:00,ZBAA 050800Z AUTO 13006KT 6SM 30/19 A2974 RMK T03000190 IEM_DS3505
ZBAA,2004-08-05 09:00,ZBAA 050900Z AUTO 16008KT 12SM 30/14 A2974 RMK SLP067 T03040145 57005 IEM_DS3505
ZBAA,2004-08-05 10:00,ZBAA 051000Z AUTO 16006KT 6SM 28/20 A2974 RMK T02800200 IEM_DS3505
ZBAA,2004-08-05 11:00,ZBAA 051100Z AUTO 16004KT 6SM 26/20 A2974 RMK T02600200 IEM_DS3505
ZBAA,2004-08-05 12:00,ZBAA 051200Z AUTO 18006KT 16SM 27/16 A2977 RMK SLP072 T02720165 52005 IEM_DS3505
ZBAA,2004-08-05 13:00,ZBAA 051300Z AUTO 18006KT 6SM 23/20 A2977 RMK T02300200 IEM_DS3505
ZBAA,2004-08-05 14:00,ZBAA 051400Z AUTO 18006KT 6SM 23/20 A2977 RMK T02300200 IEM_DS3505
ZBAA,2004-08-05 15:00,ZBAA 051500Z AUTO 20004KT 12SM 24/18 RMK SLP078 T02410178 52006 IEM_DS3505
ZBAA,2004-08-05 17:00,ZBAA 051700Z AUTO 19006KT 6SM 22/20 A2977 RMK T02200200 IEM_DS3505
ZBAA,2004-08-05 18:00,ZBAA 051800Z AUTO 20004KT 7SM 22/18 A2977 RMK SLP071 T02240178 57007 IEM_DS3505
ZBAA,2004-08-05 19:00,ZBAA 051900Z AUTO 09004KT 5SM 21/20 A2977 RMK T02100200 IEM_DS3505
ZBAA,2004-08-05 20:00,ZBAA 052000Z AUTO 10004KT 2 1/2SM 20/20 A2977 RMK T02000200 IEM_DS3505
ZBAA,2004-08-05 21:00,ZBAA 052100Z AUTO 25002KT 5SM 21/18 A2977 RMK SLP075 T02130181 52004 IEM_DS3505
ZBAA,2004-08-05 22:00,ZBAA 052200Z AUTO 10004KT 1 1/4SM 20/20 A2977 RMK T02000200 IEM_DS3505
ZBAA,2004-08-05 23:00,ZBAA 052300Z AUTO 09002KT 1 1/4SM 21/21 A2977 RMK T02100210 IEM_DS3505
ZBAA,2004-08-06 00:00,ZBAA 060000Z AUTO 27002KT 5SM 24/19 A2977 RMK SLP073 T02380189 57002 IEM_DS3505
ZBAA,2004-08-06 01:00,ZBAA 060100Z AUTO 12002KT 1 1/2SM 25/22 A2977 RMK T02500220 IEM_DS3505
ZBAA,2004-08-06 02:00,ZBAA 060200Z AUTO 13004KT 2SM 26/23 A2977 RMK T02600230 IEM_DS3505
ZBAA,2004-08-06 03:00,ZBAA 060300Z AUTO 22012KT 7SM 28/16 A2977 RMK SLP073 T02830163 54000 IEM_DS3505
ZBAA,2004-08-06 04:00,ZBAA 060400Z AUTO 19010KT 6SM 30/22 A2974 RMK T03000220 IEM_DS3505
ZBAA,2004-08-06 05:00,ZBAA 060500Z AUTO 20008KT 6SM 30/21 A2971 RMK T03000210 IEM_DS3505
ZBAA,2004-08-06 06:00,ZBAA 060600Z AUTO 22012KT 9SM 30/16 A2971 RMK SLP056 T02970165 57017 IEM_DS3505
ZBAA,2004-08-06 07:00,ZBAA 060700Z AUTO 16008KT 6SM 30/22 A2971 RMK T03000220 IEM_DS3505
ZBAA,2004-08-06 08:00,ZBAA 060800Z AUTO 18008KT 6SM 30/21 A2968 RMK T03000210 IEM_DS3505
ZBAA,2004-08-06 09:00,ZBAA 060900Z AUTO 20008KT 19SM 29/18 A2968 RMK SLP048 T02930178 57008 IEM_DS3505
ZBAA,2004-08-06 10:00,ZBAA 061000Z AUTO 15006KT 6SM 28/22 A2968 RMK T02800220 IEM_DS3505
ZBAA,2004-08-06 11:00,ZBAA 061100Z AUTO 15006KT 6SM 27/22 A2971 RMK T02700220 IEM_DS3505
ZBAA,2004-08-06 12:00,ZBAA 061200Z AUTO 18004KT 9SM 27/18 A2971 RMK SLP053 T02730183 52005 IEM_DS3505
ZBAA,2004-08-06 13:00,ZBAA 061300Z AUTO 13004KT 4SM 25/22 A2974 RMK T02500220 IEM_DS3505
ZBAA,2004-08-06 14:00,ZBAA 061400Z AUTO 14002KT 3SM 24/22 A2974 RMK T02400220 IEM_DS3505
ZBAA,2004-08-06 15:00,ZBAA 061500Z AUTO 20002KT 9SM 26/19 A2974 RMK SLP062 T02590188 52009 IEM_DS3505
ZBAA,2004-08-06 16:00,ZBAA 061600Z AUTO 13004KT 3SM 24/22 A2974 RMK T02400220 IEM_DS3505
ZBAA,2004-08-06 17:00,ZBAA 061700Z AUTO 13004KT 2 1/2SM 23/22 A2971 RMK T02300220 IEM_DS3505
ZBAA,2004-08-06 18:00,ZBAA 061800Z AUTO 16004KT 6SM 25/18 A2971 RMK SLP053 T02470184 57009 IEM_DS3505
ZBAA,2004-08-06 19:00,ZBAA 061900Z AUTO 07002KT 2SM 23/22 A2971 RMK T02300220 IEM_DS3505
ZBAA,2004-08-06 20:00,ZBAA 062000Z AUTO 09004KT 2 1/2SM A2971 RMK IEM_DS3505
ZBAA,2004-08-06 21:00,ZBAA 062100Z AUTO 32002KT 2 1/2SM 24/19 A2971 RMK SLP052 T02370188 57001 IEM_DS3505
ZBAA,2004-08-06 22:00,ZBAA 062200Z AUTO 1 1/4SM 23/22 A2971 RMK T02300220 IEM_DS3505
ZBAA,2004-08-06 23:00,ZBAA 062300Z AUTO 12002KT 1 1/2SM 24/23 A2971 RMK T02400230 IEM_DS3505
ZBAA,2004-08-07 00:00,ZBAA 070000Z AUTO 09002KT 2 1/2SM 26/20 A2974 RMK SLP057 T02550196 52005 IEM_DS3505
ZBAA,2004-08-07 01:00,ZBAA 070100Z AUTO 11002KT 1 1/2SM 26/23 A2971 RMK T02600230 IEM_DS3505
ZBAA,2004-08-07 02:00,ZBAA 070200Z AUTO 1 1/2SM 28/24 A2971 RMK T02800240 IEM_DS3505
ZBAA,2004-08-07 03:00,ZBAA 070300Z AUTO 04004KT 6SM 29/21 A2971 RMK SLP053 T02880208 57004 IEM_DS3505
ZBAA,2004-08-07 04:00,ZBAA 070400Z AUTO 11004KT 2SM 28/24 A2968 RMK T02800240 IEM_DS3505
ZBAA,2004-08-07 05:00,ZBAA 070500Z AUTO 10004KT 2 1/2SM 30/25 A2968 RMK T03000250 IEM_DS3505
ZBAA,2004-08-07 06:00,ZBAA 070600Z AUTO 20004KT 7SM 31/22 A2965 RMK SLP030 T03080221 57023 IEM_DS3505
ZBAA,2004-08-07 07:00,ZBAA 070700Z AUTO 2SM 30/25 A2965 RMK T03000250 IEM_DS3505
ZBAA,2004-08-07 08:00,ZBAA 070800Z AUTO 2SM 30/26 A2962 RMK T03000260 IEM_DS3505
ZBAA,2004-08-07 09:00,ZBAA 070900Z AUTO 22004KT 7SM 31/22 A2962 RMK SLP021 T03120220 57009 IEM_DS3505
ZBAA,2004-08-07 10:00,ZBAA 071000Z AUTO 2SM 29/26 A2962 RMK T02900260 IEM_DS3505
ZBAA,2004-08-07 11:00,ZBAA 071100Z AUTO 08002KT 2SM 29/26 A2962 RMK T02900260 IEM_DS3505
ZBAA,2004-08-07 12:00,ZBAA 071200Z AUTO 04002KT 4SM 29/23 A2962 RMK SLP028 T02930233 52007 IEM_DS3505
ZBAA,2004-08-07 13:00,ZBAA 071300Z AUTO 00000KT 1 1/2SM 27/26 A2965 RMK T02700260 IEM_DS3505
ZBAA,2004-08-07 14:00,ZBAA 071400Z AUTO 35002KT 1 1/4SM 26/25 A2965 RMK T02600250 IEM_DS3505
ZBAA,2004-08-07 15:00,ZBAA 071500Z AUTO 09002KT 2 1/2SM 28/24 A2965 RMK SLP030 T02830241 52002 IEM_DS3505
ZBAA,2004-08-07 16:00,ZBAA 071600Z AUTO 01002KT 1SM 26/25 A2965 RMK T02600250 IEM_DS3505
ZBAA,2004-08-07 17:00,ZBAA 071700Z AUTO 00000KT 1SM 26/25 A2962 RMK T02600250 IEM_DS3505
ZBAA,2004-08-07 18:00,ZBAA 071800Z AUTO 02004KT 2 1/2SM 27/23 A2962 RMK SLP026 T02710234 57004 IEM_DS3505
ZBAA,2004-08-07 19:00,ZBAA 071900Z AUTO 35004KT 1SM 25/24 A2962 RMK T02500240 IEM_DS3505
ZBAA,2004-08-07 20:00,ZBAA 072000Z AUTO 35004KT 1SM 24/24 A2962 RMK T02400240 IEM_DS3505
ZBAA,2004-08-07 21:00,ZBAA 072100Z AUTO 04002KT 1 1/4SM 26/23 A2965 RMK SLP029 T02640229 52003 IEM_DS3505
ZBAA,2004-08-07 22:00,ZBAA 072200Z AUTO 34004KT 1SM 25/24 A2965 RMK T02500240 IEM_DS3505
ZBAA,2004-08-07 23:00,ZBAA 072300Z AUTO 34004KT 1SM 25/25 A2965 RMK T02500250 IEM_DS3505
ZBAA,2004-08-08 00:00,ZBAA 080000Z AUTO 04004KT 1 1/4SM 28/23 A2965 RMK SLP036 T02750227 52007 IEM_DS3505
ZBAA,2004-08-08 01:00,ZBAA 080100Z AUTO 36004KT 1 1/2SM 28/26 A2965 RMK T02800260 IEM_DS3505
ZBAA,2004-08-08 02:00,ZBAA 080200Z AUTO 1 1/2SM 29/25 A2968 RMK T02900250 IEM_DS3505
ZBAA,2004-08-08 03:00,ZBAA 080300Z AUTO 02004KT 6SM 30/24 A2968 RMK SLP038 T03040236 52002 IEM_DS3505
ZBAA,2004-08-08 04:00,ZBAA 080400Z AUTO 2SM 31/26 A2965 RMK T03100260 IEM_DS3505
ZBAA,2004-08-08 05:00,ZBAA 080500Z AUTO 2SM 32/25 A2965 RMK T03200250 IEM_DS3505
ZBAA,2004-08-08 06:00,ZBAA 080600Z AUTO 2SM 33/27 A2962 RMK T03300270 IEM_DS3505
ZBAA,2004-08-08 07:00,ZBAA 080700Z AUTO 14004KT 2SM 33/26 A2959 RMK T03300260 IEM_DS3505
ZBAA,2004-08-08 08:00,ZBAA 080800Z AUTO 18004KT 2SM 33/26 A2959 RMK T03300260 IEM_DS3505
ZBAA,2004-08-08 09:00,ZBAA 080900Z AUTO 20002KT 7SM 33/23 A2959 RMK SLP016 T03310231 57008 IEM_DS3505
ZBAA,2004-08-08 10:00,ZBAA 081000Z AUTO 13004KT 1 1/4SM 31/27 A2959 RMK T03100270 IEM_DS3505
ZBAA,2004-08-08 11:00,ZBAA 081100Z AUTO 10004KT 1 1/4SM 30/27 A2962 RMK T03000270 IEM_DS3505
ZBAA,2004-08-08 12:00,ZBAA 081200Z AUTO 00000KT 4SM 30/24 A2962 RMK SLP027 T03050239 52011 IEM_DS3505
ZBAA,2004-08-08 13:00,ZBAA 081300Z AUTO 12002KT 1SM 28/27 A2965 RMK T02800270 IEM_DS3505
ZBAA,2004-08-08 14:00,ZBAA 081400Z AUTO 10004KT 1SM 28/27 A2965 RMK T02800270 IEM_DS3505
ZBAA,2004-08-08 15:00,ZBAA 081500Z AUTO 07002KT 2 1/2SM 29/25 A2968 RMK SLP041 T02940249 52014 IEM_DS3505
ZBAA,2004-08-08 16:00,ZBAA 081600Z AUTO 12004KT 1SM 27/27 A2968 RMK T02700270 IEM_DS3505
ZBAA,2004-08-08 17:00,ZBAA 081700Z AUTO 10004KT 1SM 27/27 A2968 RMK T02700270 IEM_DS3505
ZBAA,2004-08-08 18:00,ZBAA 081800Z AUTO 09002KT 2SM 27/25 A2968 RMK SLP039 T02730248 57002 IEM_DS3505
ZBAA,2004-08-08 19:00,ZBAA 081900Z AUTO 09002KT 1SM 27/27 A2968 RMK T02700270 IEM_DS3505
ZBAA,2004-08-08 20:00,ZBAA 082000Z AUTO 08004KT 1SM 27/27 A2968 RMK T02700270 IEM_DS3505
ZBAA,2004-08-08 21:00,ZBAA 082100Z AUTO 07002KT 2SM 27/25 A2968 RMK SLP046 T02680250 52007 IEM_DS3505
ZBAA,2004-08-08 22:00,ZBAA 082200Z AUTO 1/2SM 26/26 A2971 RMK T02600260 IEM_DS3505
ZBAA,2004-08-08 23:00,ZBAA 082300Z AUTO 1SM 26/26 A2971 RMK T02600260 IEM_DS3505
ZBAA,2004-08-09 00:00,ZBAA 090000Z AUTO 09006KT 4SM 28/24 A2974 RMK SLP058 T02770245 52012 IEM_DS3505
ZBAA,2004-08-09 01:00,ZBAA 090100Z AUTO 09002KT 1SM 28/27 A2974 RMK T02800270 IEM_DS3505
ZBAA,2004-08-09 02:00,ZBAA 090200Z AUTO 10004KT 1SM 30/27 A2974 RMK T03000270 IEM_DS3505
ZBAA,2004-08-09 03:00,ZBAA 090300Z AUTO 11006KT 3SM 30/25 A2974 RMK SLP066 T03050246 52008 IEM_DS3505
ZBAA,2004-08-09 04:00,ZBAA 090400Z AUTO 13008KT 1 1/2SM 31/28 A2974 RMK T03100280 IEM_DS3505
ZBAA,2004-08-09 05:00,ZBAA 090500Z AUTO 13010KT 1 1/2SM 31/28 A2971 RMK T03100280 IEM_DS3505
ZBAA,2004-08-09 06:00,ZBAA 090600Z AUTO 16004KT 5SM 29/24 A2971 RMK SLP058 T02940241 57008 IEM_DS3505
ZBAA,2004-08-09 07:00,ZBAA 090700Z AUTO 22004KT 5SM 29/26 A2971 RMK T02900260 IEM_DS3505
ZBAA,2004-08-09 08:00,ZBAA 090800Z AUTO 29008KT 5SM 29/26 A2971 RMK T02900260 IEM_DS3505
ZBAA,2004-08-09 09:00,ZBAA 090900Z AUTO 14006KT 7SM 30/24 A2971 RMK SLP048 T03030240 57010 IEM_DS3505
ZBAA,2004-08-09 10:00,ZBAA 091000Z AUTO 2SM 28/27 A2971 RMK T02800270 IEM_DS3505
ZBAA,2004-08-09 11:00,ZBAA 091100Z AUTO 14002KT 2SM 28/27 A2971 RMK T02800270 IEM_DS3505
ZBAA,2004-08-09 12:00,ZBAA 091200Z AUTO 14004KT 6SM 29/24 A2974 RMK SLP059 T02860237 52011 IEM_DS3505
ZBAA,2004-08-09 13:00,ZBAA 091300Z AUTO 11004KT 2SM 27/27 A2974 RMK T02700270 IEM_DS3505
ZBAA,2004-08-09 14:00,ZBAA 091400Z AUTO 12004KT 2SM 27/26 A2974 RMK T02700260 IEM_DS3505
ZBAA,2004-08-09 15:00,ZBAA 091500Z AUTO 11002KT 5SM 27/24 A2974 RMK SLP067 T02700235 52008 IEM_DS3505
ZBAA,2004-08-09 16:00,ZBAA 091600Z AUTO 14002KT 2SM 26/26 A2974 RMK T02600260 IEM_DS3505
ZBAA,2004-08-09 17:00,ZBAA 091700Z AUTO 13006KT 1 1/2SM 26/26 A2974 RMK T02600260 IEM_DS3505
ZBAA,2004-08-09 18:00,ZBAA 091800Z AUTO 09008KT 5SM 26/23 A2974 RMK SLP060 T02640231 57007 IEM_DS3505
ZBAA,2004-08-09 19:00,ZBAA 091900Z AUTO 09004KT 1 1/2SM 26/25 A2974 RMK T02600250 IEM_DS3505
ZBAA,2004-08-09 20:00,ZBAA 092000Z AUTO 11006KT 1 1/2SM 26/25 A2974 RMK T02600250 IEM_DS3505
ZBAA,2004-08-09 21:00,ZBAA 092100Z AUTO 07006KT 4SM 26/23 A2974 RMK 70000 SLP063 T02590232 52003 IEM_DS3505
ZBAA,2004-08-09 22:00,ZBAA 092200Z AUTO 16002KT 1SM 26/25 A2974 RMK T02600250 IEM_DS3505
ZBAA,2004-08-09 23:00,ZBAA 092300Z AUTO 11002KT 1SM 26/26 A2977 RMK T02600260 IEM_DS3505
ZBAA,2004-08-10 00:00,ZBAA 100000Z AUTO 09006KT 4SM 26/23 A2977 RMK 70000 SLP074 T02640233 52011 IEM_DS3505
ZBAA,2004-08-10 01:00,ZBAA 100100Z AUTO 11004KT 1 1/4SM 27/26 A2977 RMK T02700260 IEM_DS3505
ZBAA,2004-08-10 02:00,ZBAA 100200Z AUTO 11006KT 1 1/2SM 28/26 A2980 RMK T02800260 IEM_DS3505
ZBAA,2004-08-10 03:00,ZBAA 100300Z AUTO 07008KT 4SM 29/23 A2980 RMK SLP079 T02910233 52005 IEM_DS3505
ZBAA,2004-08-10 04:00,ZBAA 100400Z AUTO 12006KT 1 1/2SM 28/26 A2980 RMK T02800260 IEM_DS3505
ZBAA,2004-08-10 05:00,ZBAA 100500Z AUTO 10002KT 1 1/2SM 29/27 A2977 RMK T02900270 IEM_DS3505
ZBAA,2004-08-10 06:00,ZBAA 100600Z AUTO 07006KT 6SM 30/24 A2977 RMK 60000 SLP069 T03040238 57010 IEM_DS3505
ZBAA,2004-08-10 07:00,ZBAA 100700Z AUTO 10004KT 1 1/2SM 30/27 A2974 RMK T03000270 IEM_DS3505
ZBAA,2004-08-10 08:00,ZBAA 100800Z AUTO 10004KT 2 1/2SM 30/27 A2974 RMK T03000270 IEM_DS3505
ZBAA,2004-08-10 09:00,ZBAA 100900Z AUTO 07006KT 6SM 31/23 A2974 RMK SLP062 T03070234 57007 IEM_DS3505
ZBAA,2004-08-10 10:00,ZBAA 101000Z AUTO 2 1/2SM 30/27 A2974 RMK T03000270 IEM_DS3505
ZBAA,2004-08-10 10:30,ZBAA 101030Z AUTO 12004KT 2SM 29/27 A2977 RMK T02900270 IEM_DS3505
ZBAA,2004-08-10 11:00,ZBAA 101100Z AUTO 09004KT 2SM 28/27 A2977 RMK T02800270 IEM_DS3505
ZBAA,2004-08-10 12:00,ZBAA 101200Z AUTO 09004KT 4SM 28/24 A2980 RMK SLP081 T02810241 52019 IEM_DS3505
ZBAA,2004-08-10 13:00,ZBAA 101300Z AUTO 00000KT 1 1/2SM 27/27 A2980 RMK T02700270 IEM_DS3505
ZBAA,2004-08-10 14:00,ZBAA 101400Z AUTO 00000KT 1 1/2SM 27/27 A2983 RMK T02700270 IEM_DS3505
ZBAA,2004-08-10 15:00,ZBAA 101500Z AUTO 12002KT 2SM 27/27 A2983 RMK T02700270 IEM_DS3505
ZBAA,2004-08-10 16:00,ZBAA 101600Z AUTO 11002KT 1 1/4SM 27/27 A2983 RMK T02700270 IEM_DS3505
ZBAA,2004-08-10 17:00,ZBAA 101700Z AUTO 16002KT 1 1/4SM 27/26 A2983 RMK T02700260 IEM_DS3505
ZBAA,2004-08-10 18:00,ZBAA 101800Z AUTO 09004KT 3SM 27/24 A2983 RMK 60000 SLP091 T02680235 57002 IEM_DS3505
ZBAA,2004-08-10 19:00,ZBAA 101900Z AUTO 09004KT 1 1/4SM 26/26 A2983 RMK T02600260 IEM_DS3505
ZBAA,2004-08-10 20:00,ZBAA 102000Z AUTO 09004KT 1SM 26/26 A2983 RMK T02600260 IEM_DS3505
ZBAA,2004-08-10 21:00,ZBAA 102100Z AUTO 15004KT 1SM 25/25 A2983 RMK T02500250 IEM_DS3505
ZBAA,2004-08-10 22:00,ZBAA 102200Z AUTO 12006KT 1SM 25/25 A2985 RMK T02500250 IEM_DS3505
ZBAA,2004-08-10 23:00,ZBAA 102300Z AUTO 12006KT 1 1/4SM 26/25 A2985 RMK T02600250 IEM_DS3505
ZBAA,2004-08-11 00:00,ZBAA 110000Z AUTO 11008KT 5SM 26/23 A2985 RMK 70000 SLP108 T02630226 52014 IEM_DS3505
ZBAA,2004-08-11 01:00,ZBAA 110100Z AUTO 11008KT 5SM 27/23 A2988 RMK T02700230 IEM_DS3505
ZBAA,2004-08-11 02:00,ZBAA 110200Z AUTO 11010KT 7SM 27/24 A2988 RMK T02700240 IEM_DS3505
ZBAA,2004-08-11 03:00,ZBAA 110300Z AUTO 11014KT 6SM 28/22 A2988 RMK SLP109 T02790219 52001 IEM_DS3505
ZBAA,2004-08-11 04:00,ZBAA 110400Z AUTO 10010KT 7SM 27/23 A2985 RMK T02700230 IEM_DS3505
ZBAA,2004-08-11 05:00,ZBAA 110500Z AUTO 11010KT 7SM 27/23 A2985 RMK T02700230 IEM_DS3505
ZBAA,2004-08-11 06:00,ZBAA 110600Z AUTO 11006KT 9SM 27/22 A2985 RMK 60004 SLP098 T02720222 57011 IEM_DS3505
ZBAA,2004-08-11 07:00,ZBAA 110700Z AUTO 11008KT 7SM 27/24 A2983 RMK T02700240 IEM_DS3505
ZBAA,2004-08-11 08:00,ZBAA 110800Z AUTO 10008KT 7SM 28/24 A2983 RMK T02800240 IEM_DS3505
ZBAA,2004-08-11 09:00,ZBAA 110900Z AUTO 14006KT 12SM 28/21 A2983 RMK SLP087 T02840214 57011 IEM_DS3505
ZBAA,2004-08-11 10:00,ZBAA 111000Z AUTO 13004KT 7SM 27/24 A2983 RMK T02700240 IEM_DS3505
ZBAA,2004-08-11 11:00,ZBAA 111100Z AUTO 12006KT 7SM 26/23 A2983 RMK T02600230 IEM_DS3505
ZBAA,2004-08-11 12:00,ZBAA 111200Z AUTO 14006KT 9SM 27/21 A2983 RMK SLP095 T02660214 52008 IEM_DS3505
ZBAA,2004-08-11 13:00,ZBAA 111300Z AUTO 13006KT 7SM 26/23 A2985 RMK T02600230 IEM_DS3505
ZBAA,2004-08-11 14:00,ZBAA 111400Z AUTO 11006KT 7SM 25/23 A2985 RMK T02500230 IEM_DS3505
ZBAA,2004-08-11 15:00,ZBAA 111500Z AUTO 14010KT 12SM 25/19 A2985 RMK SLP099 T02510192 52004 IEM_DS3505
ZBAA,2004-08-11 16:00,ZBAA 111600Z AUTO 14008KT 7SM 24/22 A2983 RMK T02400220 IEM_DS3505
ZBAA,2004-08-11 17:00,ZBAA 111700Z AUTO 13004KT 7SM 24/22 A2983 RMK T02400220 IEM_DS3505
ZBAA,2004-08-11 18:00,ZBAA 111800Z AUTO 11006KT 12SM 24/19 A2983 RMK SLP088 T02350188 57011 IEM_DS3505
ZBAA,2004-08-11 19:00,ZBAA 111900Z AUTO 31006KT 4SM 23/22 A2983 RMK T02300220 IEM_DS3505
ZBAA,2004-08-11 20:00,ZBAA 112000Z AUTO 14004KT 4SM 21/21 A2983 RMK T02100210 IEM_DS3505
ZBAA,2004-08-11 21:00,ZBAA 112100Z AUTO 09004KT 12SM 21/19 RMK 70030 SLP084 T02130190 57005 IEM_DS3505
ZBAA,2004-08-11 23:00,ZBAA 112300Z AUTO 00000KT 1SM 21/21 A2980 RMK T02100210 IEM_DS3505
ZBAA,2004-08-12 00:00,ZBAA 120000Z AUTO 04004KT 3SM 20/18 A2983 RMK 60035 70041 SLP091 T02030184 52007 IEM_DS3505
ZBAA,2004-08-12 01:00,ZBAA 120100Z AUTO 1 1/4SM 20/20 A2983 RMK T02000200 IEM_DS3505
ZBAA,2004-08-12 02:00,ZBAA 120200Z AUTO 32002KT 1 1/4SM 21/21 A2983 RMK T02100210 IEM_DS3505
ZBAA,2004-08-12 03:00,ZBAA 120300Z AUTO 02004KT 4SM 21/19 A2985 RMK SLP099 T02080191 52008 IEM_DS3505
ZBAA,2004-08-12 04:00,ZBAA 120400Z AUTO 34004KT 2SM 21/21 A2985 RMK T02100210 IEM_DS3505
ZBAA,2004-08-12 05:00,ZBAA 120500Z AUTO 36004KT 2SM 21/21 A2985 RMK T02100210 IEM_DS3505
ZBAA,2004-08-12 06:00,ZBAA 120600Z AUTO 36008KT 6SM 21/18 A2985 RMK 60028 SLP104 T02060178 52005 IEM_DS3505
ZBAA,2004-08-12 07:00,ZBAA 120700Z AUTO 32008KT 4SM 20/20 A2985 RMK T02000200 IEM_DS3505
ZBAA,2004-08-12 08:00,ZBAA 120800Z AUTO 35004KT 7SM 21/21 A2985 RMK T02100210 IEM_DS3505
ZBAA,2004-08-12 09:00,ZBAA 120900Z AUTO 07004KT 9SM 21/19 A2985 RMK SLP107 T02080189 52003 IEM_DS3505
ZBAA,2004-08-12 10:00,ZBAA 121000Z AUTO 35006KT 7SM 20/19 A2988 RMK T02000190 IEM_DS3505
ZBAA,2004-08-12 11:00,ZBAA 121100Z AUTO 13004KT 7SM 20/19 A2991 RMK T02000190 IEM_DS3505
ZBAA,2004-08-12 12:00,ZBAA 121200Z AUTO 09006KT 6SM 19/17 A2994 RMK 60051 SLP132 T01870170 52025 IEM_DS3505
ZBAA,2004-08-12 13:00,ZBAA 121300Z AUTO 12006KT 7SM 17/17 A2997 RMK T01700170 IEM_DS3505
ZBAA,2004-08-12 14:00,ZBAA 121400Z AUTO 15006KT 7SM 17/17 A2997 RMK T01700170 IEM_DS3505
ZBAA,2004-08-12 15:00,ZBAA 121500Z AUTO 07002KT 7SM 17/14 A2997 RMK SLP148 T01690142 52015 IEM_DS3505
ZBAA,2004-08-12 16:00,ZBAA 121600Z AUTO 19004KT 6SM 16/16 A2997 RMK T01600160 IEM_DS3505
ZBAA,2004-08-12 17:00,ZBAA 121700Z AUTO 6SM 16/16 A2997 RMK T01600160 IEM_DS3505
ZBAA,2004-08-12 18:00,ZBAA 121800Z AUTO 27002KT 9SM 17/14 A2997 RMK SLP149 T01690138 52001 IEM_DS3505
ZBAA,2004-08-12 19:00,ZBAA 121900Z AUTO 27002KT 6SM 16/16 A2997 RMK T01600160 IEM_DS3505
ZBAA,2004-08-12 20:00,ZBAA 122000Z AUTO 00000KT 6SM 15/15 A2997 RMK T01500150 IEM_DS3505
ZBAA,2004-08-12 21:00,ZBAA 122100Z AUTO 29004KT 9SM 16/14 A2997 RMK 70092 SLP151 T01630136 52002 IEM_DS3505
ZBAA,2004-08-12 22:00,ZBAA 122200Z AUTO 31002KT 4SM 16/16 A3000 RMK T01600160 IEM_DS3505
ZBAA,2004-08-12 23:00,ZBAA 122300Z AUTO 31006KT 1SM 18/18 A3000 RMK T01800180 IEM_DS3505
ZBAA,2004-08-13 00:00,ZBAA 130000Z AUTO 27004KT 9SM 18/15 A3000 RMK 70080 SLP158 T01850152 52007 IEM_DS3505
ZBAA,2004-08-13 01:00,ZBAA 130100Z AUTO 35004KT 6SM 20/18 A3000 RMK T02000180 IEM_DS3505
ZBAA,2004-08-13 02:00,ZBAA 130200Z AUTO 36004KT 6SM 23/19 A3003 RMK T02300190 IEM_DS3505
ZBAA,2004-08-13 03:00,ZBAA 130300Z AUTO 14002KT 9SM 24/14 A3000 RMK SLP159 T02430138 52002 IEM_DS3505
ZBAA,2004-08-13 04:00,ZBAA 130400Z AUTO 6SM 26/16 A3000 RMK T02600160 IEM_DS3505
ZBAA,2004-08-13 05:00,ZBAA 130500Z AUTO 12004KT 6SM 27/15 A2997 RMK T02700150 IEM_DS3505
ZBAA,2004-08-13 06:00,ZBAA 130600Z AUTO 27004KT 12SM 27/11 A2994 RMK SLP141 T02700111 57018 IEM_DS3505
ZBAA,2004-08-13 07:00,ZBAA 130700Z AUTO 20004KT 6SM 28/15 A2994 RMK T02800150 IEM_DS3505
ZBAA,2004-08-13 08:00,ZBAA 130800Z AUTO 21004KT 6SM 28/14 A2991 RMK T02800140 IEM_DS3505
ZBAA,2004-08-13 09:00,ZBAA 130900Z AUTO 22004KT 12SM 27/16 A2991 RMK SLP128 T02660156 57013 IEM_DS3505
ZBAA,2004-08-13 10:00,ZBAA 131000Z AUTO 22004KT 6SM 28/14 A2991 RMK T02800140 IEM_DS3505
ZBAA,2004-08-13 11:00,ZBAA 131100Z AUTO 18006KT 6SM 24/17 A2991 RMK T02400170 IEM_DS3505
ZBAA,2004-08-13 12:00,ZBAA 131200Z AUTO 22004KT 12SM 23/18 A2994 RMK SLP134 T02280175 52006 IEM_DS3505
ZBAA,2004-08-13 13:00,ZBAA 131300Z AUTO 21006KT 4SM 24/19 A2994 RMK T02400190 IEM_DS3505
ZBAA,2004-08-13 14:00,ZBAA 131400Z AUTO 22004KT 5SM 23/19 A2994 RMK T02300190 IEM_DS3505
ZBAA,2004-08-13 15:00,ZBAA 131500Z AUTO 27004KT 9SM 21/17 A2994 RMK SLP142 T02140168 52008 IEM_DS3505
ZBAA,2004-08-13 16:00,ZBAA 131600Z AUTO 00000KT 4SM 22/20 A2997 RMK T02200200 IEM_DS3505
ZBAA,2004-08-13 17:00,ZBAA 131700Z AUTO 00000KT 4SM 21/21 A2997 RMK T02100210 IEM_DS3505
ZBAA,2004-08-13 18:00,ZBAA 131800Z AUTO 25002KT 7SM 21/16 A2994 RMK SLP138 T02070163 57004 IEM_DS3505
ZBAA,2004-08-13 19:00,ZBAA 131900Z AUTO 00000KT 2 1/2SM 21/20 A2997 RMK T02100200 IEM_DS3505
ZBAA,2004-08-13 20:00,ZBAA 132000Z AUTO 01002KT 2 1/2SM 20/20 A2997 RMK T02000200 IEM_DS3505
ZBAA,2004-08-13 21:00,ZBAA 132100Z AUTO 22006KT 6SM 20/17 A2997 RMK SLP148 T02050173 52010 IEM_DS3505
ZBAA,2004-08-13 22:00,ZBAA 132200Z AUTO 20006KT 3SM 21/21 A2997 RMK T02100210 IEM_DS3505
ZBAA,2004-08-13 23:00,ZBAA 132300Z AUTO 28002KT 3SM 21/21 A3000 RMK T02100210 IEM_DS3505
ZBAA,2004-08-14 00:00,ZBAA 140000Z AUTO 25004KT 7SM 21/17 A3003 RMK 70000 SLP161 T02130169 52013 IEM_DS3505
ZBAA,2004-08-14 01:00,ZBAA 140100Z AUTO 4SM 23/21 A3003 RMK T02300210 IEM_DS3505
ZBAA,2004-08-14 02:00,ZBAA 140200Z AUTO 12004KT 5SM 23/21 A3000 RMK T02300210 IEM_DS3505
ZBAA,2004-08-14 03:00,ZBAA 140300Z AUTO 27006KT 9SM 22/16 A3000 RMK SLP162 T02160161 52001 IEM_DS3505
ZBAA,2004-08-14 04:00,ZBAA 140400Z AUTO 27004KT 6SM 26/20 A3000 RMK T02600200 IEM_DS3505
ZBAA,2004-08-14 05:00,ZBAA 140500Z AUTO 6SM 28/20 A3000 RMK T02800200 IEM_DS3505
ZBAA,2004-08-14 06:00,ZBAA 140600Z AUTO 32004KT 12SM 28/14 A2997 RMK SLP145 T02800139 57017 IEM_DS3505
ZBAA,2004-08-14 07:00,ZBAA 140700Z AUTO 01002KT 6SM 30/21 A2994 RMK T03000210 IEM_DS3505
ZBAA,2004-08-14 08:00,ZBAA 140800Z AUTO 6SM 30/21 A2994 RMK T03000210 IEM_DS3505
ZBAA,2004-08-14 09:00,ZBAA 140900Z AUTO 20004KT 12SM 28/15 A2994 RMK SLP131 T02840150 57014 IEM_DS3505
ZBAA,2004-08-14 10:00,ZBAA 141000Z AUTO 19004KT 6SM 27/19 A2994 RMK T02700190 IEM_DS3505
ZBAA,2004-08-14 11:00,ZBAA 141100Z AUTO 19008KT 6SM 26/20 A2994 RMK T02600200 IEM_DS3505
ZBAA,2004-08-14 12:00,ZBAA 141200Z AUTO 25004KT 12SM 24/16 A2994 RMK SLP138 T02410164 52007 IEM_DS3505
ZBAA,2004-08-14 13:00,ZBAA 141300Z AUTO 23004KT 6SM 25/20 A2997 RMK T02500200 IEM_DS3505
ZBAA,2004-08-14 14:00,ZBAA 141400Z AUTO 00000KT 6SM 23/20 A2997 RMK T02300200 IEM_DS3505
ZBAA,2004-08-14 15:00,ZBAA 141500Z AUTO 00000KT 5SM 22/18 A2997 RMK SLP142 T02170175 52004 IEM_DS3505
ZBAA,2004-08-14 16:00,ZBAA 141600Z AUTO 00000KT 6SM 22/20 A2997 RMK T02200200 IEM_DS3505
ZBAA,2004-08-14 17:00,ZBAA 141700Z AUTO 35002KT 4SM 21/20 A2994 RMK T02100200 IEM_DS3505
ZBAA,2004-08-14 18:00,ZBAA 141800Z AUTO 22002KT 5SM 21/19 A2994 RMK SLP137 T02120186 57005 IEM_DS3505
ZBAA,2004-08-14 19:00,ZBAA 141900Z AUTO 35004KT 6SM 20/20 A2994 RMK T02000200 IEM_DS3505
ZBAA,2004-08-14 20:00,ZBAA 142000Z AUTO 35006KT 6SM 20/20 A2994 RMK T02000200 IEM_DS3505
ZBAA,2004-08-14 20:30,ZBAA 142030Z AUTO 35006KT 6SM 20/20 A2994 RMK T02000200 IEM_DS3505
ZBAA,2004-08-14 21:00,ZBAA 142100Z AUTO 32002KT 5SM 21/18 A2994 RMK 70001 SLP132 T02100182 57005 IEM_DS3505
ZBAA,2004-08-14 22:00,ZBAA 142200Z AUTO 33004KT 6SM 20/20 A2994 RMK T02000200 IEM_DS3505
ZBAA,2004-08-14 23:00,ZBAA 142300Z AUTO 35004KT 6SM 20/20 A2994 RMK T02000200 IEM_DS3505
ZBAA,2004-08-15 00:00,ZBAA 150000Z AUTO 29002KT 4SM 22/19 A2994 RMK 60000 70001 SLP132 T02230187 54000 IEM_DS3505
ZBAA,2004-08-15 01:00,ZBAA 150100Z AUTO 31006KT 7SM 21/20 A2991 RMK T02100200 IEM_DS3505
ZBAA,2004-08-15 02:00,ZBAA 150200Z AUTO 22004KT 6SM 22/21 A2994 RMK T02200210 IEM_DS3505
ZBAA,2004-08-15 03:00,ZBAA 150300Z AUTO 27006KT 9SM 22/14 A2997 RMK SLP144 T02170141 52012 IEM_DS3505
ZBAA,2004-08-15 04:00,ZBAA 150400Z AUTO 27006KT 6SM 23/19 A2994 RMK T02300190 IEM_DS3505
ZBAA,2004-08-15 05:00,ZBAA 150500Z AUTO 26006KT 7SM 23/20 A2994 RMK T02300200 IEM_DS3505
ZBAA,2004-08-15 06:00,ZBAA 150600Z AUTO 29006KT 9SM 22/13 A2994 RMK SLP131 T02250133 57013 IEM_DS3505
ZBAA,2004-08-15 07:00,ZBAA 150700Z AUTO 32012KT 7SM 22/18 A2991 RMK T02200180 IEM_DS3505
ZBAA,2004-08-15 08:00,ZBAA 150800Z AUTO 34010KT 7SM 22/17 A2991 RMK T02200170 IEM_DS3505
ZBAA,2004-08-15 09:00,ZBAA 150900Z AUTO 07004KT 12SM 22/14 A2988 RMK SLP118 T02190141 57013 IEM_DS3505
ZBAA,2004-08-15 10:00,ZBAA 151000Z AUTO 36004KT 6SM 21/17 A2988 RMK T02100170 IEM_DS3505
ZBAA,2004-08-15 11:00,ZBAA 151100Z AUTO 30006KT 6SM 21/17 A2988 RMK T02100170 IEM_DS3505
ZBAA,2004-08-15 12:00,ZBAA 151200Z AUTO 36002KT 12SM 21/14 A2988 RMK SLP117 T02130140 57001 IEM_DS3505
ZBAA,2004-08-15 13:00,ZBAA 151300Z AUTO 36006KT 7SM 20/19 A2991 RMK T02000190 IEM_DS3505
ZBAA,2004-08-15 14:00,ZBAA 151400Z AUTO 34006KT 6SM 21/18 A2991 RMK T02100180 IEM_DS3505
ZBAA,2004-08-15 15:00,ZBAA 151500Z AUTO 04004KT 12SM 22/14 A2988 RMK SLP115 T02150139 57002 IEM_DS3505
ZBAA,2004-08-15 16:00,ZBAA 151600Z AUTO 33004KT 6SM 20/16 A2988 RMK T02000160 IEM_DS3505
ZBAA,2004-08-15 17:00,ZBAA 151700Z AUTO 36004KT 6SM 19/17 A2985 RMK T01900170 IEM_DS3505
ZBAA,2004-08-15 18:00,ZBAA 151800Z AUTO 32002KT 12SM 21/12 A2985 RMK SLP104 T02090123 57011 IEM_DS3505
ZBAA,2004-08-15 19:00,ZBAA 151900Z AUTO 34006KT 6SM 20/17 A2985 RMK T02000170 IEM_DS3505
ZBAA,2004-08-15 20:00,ZBAA 152000Z AUTO 35004KT 6SM 19/17 A2983 RMK T01900170 IEM_DS3505
ZBAA,2004-08-15 21:00,ZBAA 152100Z AUTO 04002KT 12SM 20/13 A2983 RMK 70000 SLP095 T02010133 57009 IEM_DS3505
ZBAA,2004-08-15 22:00,ZBAA 152200Z AUTO 35004KT 6SM 19/17 A2985 RMK T01900170 IEM_DS3505
ZBAA,2004-08-15 23:00,ZBAA 152300Z AUTO 35006KT 6SM 19/17 A2985 RMK T01900170 IEM_DS3505
ZBAA,2004-08-16 00:00,ZBAA 160000Z AUTO 04004KT 12SM 21/14 A2985 RMK 70000 SLP103 T02090136 52008 IEM_DS3505
ZBAA,2004-08-16 01:00,ZBAA 160100Z AUTO 36004KT 6SM 22/18 A2985 RMK T02200180 IEM_DS3505
ZBAA,2004-08-16 02:00,ZBAA 160200Z AUTO 35006KT 6SM 23/19 A2985 RMK T02300190 IEM_DS3505
ZBAA,2004-08-16 03:00,ZBAA 160300Z AUTO 04004KT 19SM 24/14 A2985 RMK SLP108 T02430138 52005 IEM_DS3505
ZBAA,2004-08-16 04:00,ZBAA 160400Z AUTO 6SM 26/18 A2985 RMK T02600180 IEM_DS3505
ZBAA,2004-08-16 05:00,ZBAA 160500Z AUTO 6SM 26/17 A2985 RMK T02600170 IEM_DS3505
ZBAA,2004-08-16 06:00,ZBAA 160600Z AUTO 27002KT 19SM 26/12 A2985 RMK SLP100 T02640121 57008 IEM_DS3505
ZBAA,2004-08-16 07:00,ZBAA 160700Z AUTO 35004KT 6SM 26/17 A2983 RMK T02600170 IEM_DS3505
ZBAA,2004-08-16 08:00,ZBAA 160800Z AUTO 34004KT 6SM 25/17 A2983 RMK T02500170 IEM_DS3505
ZBAA,2004-08-16 09:00,ZBAA 160900Z AUTO 04002KT 19SM 26/13 A2985 RMK SLP100 T02560131 54000 IEM_DS3505
ZBAA,2004-08-16 10:00,ZBAA 161000Z AUTO 33004KT 6SM 24/16 A2985 RMK T02400160 IEM_DS3505
ZBAA,2004-08-16 11:00,ZBAA 161100Z AUTO 01004KT 6SM 23/18 A2985 RMK T02300180 IEM_DS3505
ZBAA,2004-08-16 12:00,ZBAA 161200Z AUTO 22002KT 9SM 24/17 A2985 RMK SLP104 T02400168 52004 IEM_DS3505
ZBAA,2004-08-16 13:00,ZBAA 161300Z AUTO 36004KT 6SM 22/19 A2985 RMK T02200190 IEM_DS3505
ZBAA,2004-08-16 14:00,ZBAA 161400Z AUTO 36002KT 6SM 21/19 A2985 RMK T02100190 IEM_DS3505
ZBAA,2004-08-16 15:00,ZBAA 161500Z AUTO 00000KT 6SM 21/17 A2988 RMK SLP110 T02130167 52006 IEM_DS3505
ZBAA,2004-08-16 16:00,ZBAA 161600Z AUTO 33004KT 6SM 19/18 A2988 RMK T01900180 IEM_DS3505
ZBAA,2004-08-16 17:00,ZBAA 161700Z AUTO 35006KT 6SM 19/18 A2985 RMK T01900180 IEM_DS3505
ZBAA,2004-08-16 18:00,ZBAA 161800Z AUTO 00000KT 5SM 20/16 A2985 RMK SLP106 T01970162 57004 IEM_DS3505
ZBAA,2004-08-16 19:00,ZBAA 161900Z AUTO 34004KT 6SM 17/16 A2985 RMK T01700160 IEM_DS3505
ZBAA,2004-08-16 20:00,ZBAA 162000Z AUTO 34004KT 6SM 17/16 A2985 RMK T01700160 IEM_DS3505
ZBAA,2004-08-16 21:00,ZBAA 162100Z AUTO 04002KT 4SM 18/16 A2985 RMK SLP102 T01840158 57004 IEM_DS3505
ZBAA,2004-08-16 22:00,ZBAA 162200Z AUTO 35006KT 6SM 17/16 A2985 RMK T01700160 IEM_DS3505
ZBAA,2004-08-16 23:00,ZBAA 162300Z AUTO 35004KT 6SM 19/18 A2985 RMK T01900180 IEM_DS3505
ZBAA,2004-08-17 00:00,ZBAA 170000Z AUTO 07002KT 12SM 22/15 A2985 RMK SLP106 T02250151 52004 IEM_DS3505
ZBAA,2004-08-17 01:00,ZBAA 170100Z AUTO 34004KT 6SM 24/19 A2985 RMK T02400190 IEM_DS3505
ZBAA,2004-08-17 02:00,ZBAA 170200Z AUTO 35004KT 6SM 26/19 A2985 RMK T02600190 IEM_DS3505
ZBAA,2004-08-17 03:00,ZBAA 170300Z AUTO 02004KT 16SM 27/14 A2985 RMK SLP106 T02680139 54000 IEM_DS3505
ZBAA,2004-08-17 04:00,ZBAA 170400Z AUTO 6SM 28/18 A2985 RMK T02800180 IEM_DS3505
ZBAA,2004-08-17 05:00,ZBAA 170500Z AUTO 6SM 29/19 A2983 RMK T02900190 IEM_DS3505
ZBAA,2004-08-17 06:00,ZBAA 170600Z AUTO 22004KT 16SM 29/15 A2983 RMK SLP091 T02870153 57015 IEM_DS3505
ZBAA,2004-08-17 07:00,ZBAA 170700Z AUTO 6SM 30/19 A2980 RMK T03000190 IEM_DS3505
ZBAA,2004-08-17 08:00,ZBAA 170800Z AUTO 13004KT 6SM 29/19 A2980 RMK T02900190 IEM_DS3505
ZBAA,2004-08-17 09:00,ZBAA 170900Z AUTO 20006KT 16SM 28/16 A2977 RMK SLP081 T02830156 57010 IEM_DS3505
ZBAA,2004-08-17 10:00,ZBAA 171000Z AUTO 13004KT 6SM 27/18 A2977 RMK T02700180 IEM_DS3505
ZBAA,2004-08-17 11:00,ZBAA 171100Z AUTO 17004KT 6SM 25/19 A2980 RMK T02500190 IEM_DS3505
ZBAA,2004-08-17 12:00,ZBAA 171200Z AUTO 22002KT 11SM 26/17 A2980 RMK SLP087 T02600166 52006 IEM_DS3505
ZBAA,2004-08-17 13:00,ZBAA 171300Z AUTO 13002KT 6SM 23/20 A2983 RMK T02300200 IEM_DS3505
ZBAA,2004-08-17 14:00,ZBAA 171400Z AUTO 09002KT 6SM 23/20 A2983 RMK T02300200 IEM_DS3505
ZBAA,2004-08-17 15:00,ZBAA 171500Z AUTO 14002KT 9SM 24/18 A2983 RMK SLP098 T02400175 52012 IEM_DS3505
ZBAA,2004-08-17 16:00,ZBAA 171600Z AUTO 00000KT 6SM 21/20 A2983 RMK T02100200 IEM_DS3505
ZBAA,2004-08-17 17:00,ZBAA 171700Z AUTO 00000KT 6SM 20/20 A2983 RMK T02000200 IEM_DS3505
ZBAA,2004-08-17 18:00,ZBAA 171800Z AUTO 29002KT 9SM 22/18 A2983 RMK SLP095 T02200176 57003 IEM_DS3505
ZBAA,2004-08-17 19:00,ZBAA 171900Z AUTO 36004KT 6SM 20/19 A2983 RMK T02000190 IEM_DS3505
ZBAA,2004-08-17 20:00,ZBAA 172000Z AUTO 35004KT 6SM 19/19 A2983 RMK T01900190 IEM_DS3505
ZBAA,2004-08-17 21:00,ZBAA 172100Z AUTO 04004KT 7SM 21/17 A2983 RMK SLP098 T02090173 52002 IEM_DS3505
ZBAA,2004-08-17 22:00,ZBAA 172200Z AUTO 34004KT 6SM 18/18 A2985 RMK T01800180 IEM_DS3505
ZBAA,2004-08-17 23:00,ZBAA 172300Z AUTO 35006KT 6SM 20/19 A2985 RMK T02000190 IEM_DS3505
ZBAA,2004-08-18 00:00,ZBAA 180000Z AUTO 02004KT 16SM 24/16 A2985 RMK SLP104 T02390164 52006 IEM_DS3505
ZBAA,2004-08-18 01:00,ZBAA 180100Z AUTO 34006KT 6SM 25/20 A2985 RMK T02500200 IEM_DS3505
ZBAA,2004-08-18 02:00,ZBAA 180200Z AUTO 34004KT 6SM 27/21 A2985 RMK T02700210 IEM_DS3505
ZBAA,2004-08-18 03:00,ZBAA 180300Z AUTO 02004KT 16SM 28/16 A2985 RMK SLP099 T02850164 57004 IEM_DS3505
ZBAA,2004-08-18 04:00,ZBAA 180400Z AUTO 33006KT 6SM 30/21 A2983 RMK T03000210 IEM_DS3505
ZBAA,2004-08-18 05:00,ZBAA 180500Z AUTO 6SM 31/20 A2980 RMK T03100200 IEM_DS3505
ZBAA,2004-08-18 06:00,ZBAA 180600Z AUTO 04004KT 16SM 31/12 A2980 RMK SLP082 T03080122 57017 IEM_DS3505
ZBAA,2004-08-18 07:00,ZBAA 180700Z AUTO 15004KT 6SM 31/19 A2977 RMK T03100190 IEM_DS3505
ZBAA,2004-08-18 08:00,ZBAA 180800Z AUTO 14004KT 6SM 31/19 A2977 RMK T03100190 IEM_DS3505
ZBAA,2004-08-18 09:00,ZBAA 180900Z AUTO 14004KT 16SM 31/ A2977 RMK SLP075 57007 IEM_DS3505
ZBAA,2004-08-18 10:00,ZBAA 181000Z AUTO 17006KT 6SM 29/20 A2977 RMK T02900200 IEM_DS3505
ZBAA,2004-08-18 11:00,ZBAA 181100Z AUTO 17004KT 6SM 27/19 A2977 RMK T02700190 IEM_DS3505
ZBAA,2004-08-18 12:00,ZBAA 181200Z AUTO 18002KT 16SM 27/12 A2980 RMK SLP084 T02710120 52009 IEM_DS3505
ZBAA,2004-08-18 13:00,ZBAA 181300Z AUTO 6SM 25/18 A2980 RMK T02500180 IEM_DS3505
ZBAA,2004-08-18 14:00,ZBAA 181400Z AUTO 28004KT 6SM 26/18 A2983 RMK T02600180 IEM_DS3505
ZBAA,2004-08-18 15:00,ZBAA 181500Z AUTO 25002KT 12SM 24/17 A2983 RMK SLP089 T02400173 52005 IEM_DS3505
ZBAA,2004-08-18 16:00,ZBAA 181600Z AUTO 35004KT 6SM 21/20 A2983 RMK T02100200 IEM_DS3505
ZBAA,2004-08-18 17:00,ZBAA 181700Z AUTO 34004KT 6SM 21/20 A2983 RMK T02100200 IEM_DS3505
ZBAA,2004-08-18 18:00,ZBAA 181800Z AUTO 04002KT 7SM 22/18 A2983 RMK SLP089 T02210181 54000 IEM_DS3505
ZBAA,2004-08-18 19:00,ZBAA 181900Z AUTO 34008KT 6SM 20/20 A2983 RMK T02000200 IEM_DS3505
ZBAA,2004-08-18 20:00,ZBAA 182000Z AUTO 34008KT 6SM 20/19 A2983 RMK T02000190 IEM_DS3505
ZBAA,2004-08-18 21:00,ZBAA 182100Z AUTO 09002KT 9SM 22/17 A2983 RMK SLP093 T02160166 52004 IEM_DS3505
ZBAA,2004-08-18 22:00,ZBAA 182200Z AUTO 35006KT 6SM 19/18 A2985 RMK T01900180 IEM_DS3505
ZBAA,2004-08-18 23:00,ZBAA 182300Z AUTO 35006KT 6SM 22/20 A2985 RMK T02200200 IEM_DS3505
ZBAA,2004-08-19 00:00,ZBAA 190000Z AUTO 02006KT 19SM 26/15 A2985 RMK SLP105 T02570154 52012 IEM_DS3505
ZBAA,2004-08-19 01:00,ZBAA 190100Z AUTO 36008KT 6SM 27/20 A2985 RMK T02700200 IEM_DS3505
ZBAA,2004-08-19 02:00,ZBAA 190200Z AUTO 01008KT 6SM 29/20 A2988 RMK T02900200 IEM_DS3505
ZBAA,2004-08-19 03:00,ZBAA 190300Z AUTO 02006KT 19SM 30/15 A2985 RMK SLP107 T02950153 52002 IEM_DS3505
ZBAA,2004-08-19 04:00,ZBAA 190400Z AUTO 03006KT 6SM 31/18 A2985 RMK T03100180 IEM_DS3505
ZBAA,2004-08-19 06:00,ZBAA 190600Z AUTO 6SM 33/18 A2983 RMK T03300180 IEM_DS3505
ZBAA,2004-08-19 07:00,ZBAA 190700Z AUTO 6SM 32/17 A2980 RMK T03200170 IEM_DS3505
ZBAA,2004-08-19 08:00,ZBAA 190800Z AUTO 6SM 32/15 A2980 RMK T03200150 IEM_DS3505
ZBAA,2004-08-19 09:00,ZBAA 190900Z AUTO 22006KT 19SM 30/17 A2980 RMK SLP083 T02990167 57006 IEM_DS3505
ZBAA,2004-08-19 10:00,ZBAA 191000Z AUTO 15002KT 6SM 29/17 A2980 RMK T02900170 IEM_DS3505
ZBAA,2004-08-19 11:00,ZBAA 191100Z AUTO 20004KT 6SM 27/15 A2983 RMK T02700150 IEM_DS3505
ZBAA,2004-08-19 12:00,ZBAA 191200Z AUTO 22004KT 12SM 26/18 A2983 RMK SLP097 T02640175 52014 IEM_DS3505
ZBAA,2004-08-19 13:00,ZBAA 191300Z AUTO 21006KT 6SM 26/20 A2983 RMK T02600200 IEM_DS3505
ZBAA,2004-08-19 14:00,ZBAA 191400Z AUTO 14002KT 6SM 23/20 A2985 RMK T02300200 IEM_DS3505
ZBAA,2004-08-19 15:00,ZBAA 191500Z AUTO 22004KT 12SM 24/17 A2985 RMK SLP101 T02390167 52004 IEM_DS3505
ZBAA,2004-08-19 16:00,ZBAA 191600Z AUTO 13002KT 6SM 22/20 A2985 RMK T02200200 IEM_DS3505
ZBAA,2004-08-19 17:00,ZBAA 191700Z AUTO 09002KT 6SM 22/20 A2988 RMK T02200200 IEM_DS3505
ZBAA,2004-08-19 18:00,ZBAA 191800Z AUTO 20004KT 12SM 23/17 A2988 RMK SLP109 T02280166 52008 IEM_DS3505
ZBAA,2004-08-19 19:00,ZBAA 191900Z AUTO 36004KT 6SM 20/19 A2988 RMK T02000190 IEM_DS3505
ZBAA,2004-08-19 20:00,ZBAA 192000Z AUTO 01002KT 6SM 18/18 A2988 RMK T01800180 IEM_DS3505
ZBAA,2004-08-19 20:30,ZBAA 192030Z AUTO 34004KT 6SM 18/17 A2988 RMK T01800170 IEM_DS3505
ZBAA,2004-08-19 21:00,ZBAA 192100Z AUTO 00000KT 9SM 21/17 A2988 RMK SLP113 T02130167 52003 IEM_DS3505
ZBAA,2004-08-19 22:00,ZBAA 192200Z AUTO 36004KT 6SM 17/17 A2988 RMK T01700170 IEM_DS3505
ZBAA,2004-08-19 23:00,ZBAA 192300Z AUTO 34004KT 6SM 19/19 A2991 RMK T01900190 IEM_DS3505
ZBAA,2004-08-20 00:00,ZBAA 200000Z AUTO 02004KT 9SM 24/17 A2991 RMK SLP124 T02380168 52011 IEM_DS3505
ZBAA,2004-08-20 01:00,ZBAA 200100Z AUTO 02004KT 6SM 25/19 A2991 RMK T02500190 IEM_DS3505
ZBAA,2004-08-20 02:00,ZBAA 200200Z AUTO 6SM 28/19 A2991 RMK T02800190 IEM_DS3505
ZBAA,2004-08-20 03:00,ZBAA 200300Z AUTO 11006KT 16SM 28/13 A2991 RMK SLP118 T02810129 57005 IEM_DS3505
ZBAA,2004-08-20 04:00,ZBAA 200400Z AUTO 6SM 29/17 A2988 RMK T02900170 IEM_DS3505
ZBAA,2004-08-20 05:00,ZBAA 200500Z AUTO 16004KT 6SM 30/15 A2985 RMK T03000150 IEM_DS3505
ZBAA,2004-08-20 06:00,ZBAA 200600Z AUTO 14006KT 6SM 29/16 A2985 RMK T02900160 IEM_DS3505
ZBAA,2004-08-20 07:00,ZBAA 200700Z AUTO 14008KT 6SM 28/15 A2985 RMK T02800150 IEM_DS3505
ZBAA,2004-08-20 08:00,ZBAA 200800Z AUTO 14006KT 6SM 28/15 A2983 RMK T02800150 IEM_DS3505
ZBAA,2004-08-20 09:00,ZBAA 200900Z AUTO 14004KT 19SM 28/12 A2983 RMK SLP097 T02790115 57008 IEM_DS3505
ZBAA,2004-08-20 10:00,ZBAA 201000Z AUTO 16004KT 6SM 26/17 A2983 RMK T02600170 IEM_DS3505
ZBAA,2004-08-20 11:00,ZBAA 201100Z AUTO 16002KT 6SM 25/18 A2985 RMK T02500180 IEM_DS3505
ZBAA,2004-08-20 12:00,ZBAA 201200Z AUTO 22006KT 7SM 26/16 A2985 RMK SLP105 T02570160 52008 IEM_DS3505
ZBAA,2004-08-20 13:00,ZBAA 201300Z AUTO 14002KT 6SM 24/18 A2985 RMK T02400180 IEM_DS3505
ZBAA,2004-08-20 14:00,ZBAA 201400Z AUTO 10004KT 5SM 23/19 A2985 RMK T02300190 IEM_DS3505
ZBAA,2004-08-20 15:00,ZBAA 201500Z AUTO 07002KT 7SM 23/18 A2985 RMK SLP100 T02340183 57004 IEM_DS3505
ZBAA,2004-08-20 16:00,ZBAA 201600Z AUTO 10004KT 3SM 21/19 A2985 RMK T02100190 IEM_DS3505
ZBAA,2004-08-20 17:00,ZBAA 201700Z AUTO 13006KT 3SM 21/19 A2985 RMK T02100190 IEM_DS3505
ZBAA,2004-08-20 18:00,ZBAA 201800Z AUTO 11004KT 5SM 22/18 A2985 RMK SLP106 T02190175 52005 IEM_DS3505
ZBAA,2004-08-20 19:00,ZBAA 201900Z AUTO 4SM 21/19 A2985 RMK T02100190 IEM_DS3505
ZBAA,2004-08-20 20:00,ZBAA 202000Z AUTO 00000KT 4SM 20/19 A2985 RMK T02000190 IEM_DS3505
ZBAA,2004-08-20 21:00,ZBAA 202100Z AUTO 02002KT 5SM 21/18 A2985 RMK SLP106 T02110179 54000 IEM_DS3505
ZBAA,2004-08-20 22:00,ZBAA 202200Z AUTO 35002KT 4SM 20/19 A2988 RMK T02000190 IEM_DS3505
ZBAA,2004-08-20 23:00,ZBAA 202300Z AUTO 00000KT 6SM 22/19 A2988 RMK T02200190 IEM_DS3505
ZBAA,2004-08-21 00:00,ZBAA 210000Z AUTO 09002KT 6SM 22/17 A2988 RMK SLP115 T02250174 52009 IEM_DS3505
ZBAA,2004-08-21 01:00,ZBAA 210100Z AUTO 6SM 25/20 A2988 RMK T02500200 IEM_DS3505
ZBAA,2004-08-21 02:00,ZBAA 210200Z AUTO 12006KT 6SM 25/20 A2988 RMK T02500200 IEM_DS3505
ZBAA,2004-08-21 03:00,ZBAA 210300Z AUTO 11002KT 6SM 25/18 A2988 RMK SLP116 T02540183 52001 IEM_DS3505
ZBAA,2004-08-21 04:00,ZBAA 210400Z AUTO 5SM 27/20 A2985 RMK T02700200 IEM_DS3505
ZBAA,2004-08-21 05:00,ZBAA 210500Z AUTO 13006KT 27/20 A2985 RMK T02700200 IEM_DS3505
ZBAA,2004-08-21 06:00,ZBAA 210600Z AUTO 34002KT 7SM 25/15 A2985 RMK SLP105 T02530148 57011 IEM_DS3505
ZBAA,2004-08-21 07:00,ZBAA 210700Z AUTO 19006KT 3SM 26/20 A2985 RMK T02600200 IEM_DS3505
ZBAA,2004-08-21 08:00,ZBAA 210800Z AUTO 20008KT 24/18 A2985 RMK T02400180 IEM_DS3505
ZBAA,2004-08-21 09:00,ZBAA 210900Z AUTO 14002KT 9SM 23/15 A2988 RMK SLP112 T02260152 52007 IEM_DS3505
ZBAA,2004-08-21 10:00,ZBAA 211000Z AUTO 13006KT 4SM 22/19 A2988 RMK T02200190 IEM_DS3505
ZBAA,2004-08-21 11:00,ZBAA 211100Z AUTO 12004KT 4SM 21/19 A2988 RMK T02100190 IEM_DS3505
ZBAA,2004-08-21 12:00,ZBAA 211200Z AUTO 11002KT 7SM 21/17 A2991 RMK 60024 SLP125 T02130169 52013 IEM_DS3505
ZBAA,2004-08-21 13:00,ZBAA 211300Z AUTO 12006KT 4SM 21/20 A2994 RMK T02100200 IEM_DS3505
ZBAA,2004-08-21 14:00,ZBAA 211400Z AUTO 13006KT 4SM 21/20 A2994 RMK T02100200 IEM_DS3505
ZBAA,2004-08-21 15:00,ZBAA 211500Z AUTO 09002KT 6SM 21/17 A2994 RMK SLP132 T02060172 52007 IEM_DS3505
ZBAA,2004-08-21 16:00,ZBAA 211600Z AUTO 09004KT 4SM 20/18 A2994 RMK T02000180 IEM_DS3505
ZBAA,2004-08-21 17:00,ZBAA 211700Z AUTO 11002KT 4SM 20/18 A2994 RMK T02000180 IEM_DS3505
ZBAA,2004-08-21 18:00,ZBAA 211800Z AUTO 07004KT 7SM 20/16 A2994 RMK 60000 SLP133 T02030159 52001 IEM_DS3505
ZBAA,2004-08-21 19:00,ZBAA 211900Z AUTO 14002KT 4SM 20/18 A2994 RMK T02000180 IEM_DS3505
ZBAA,2004-08-21 20:00,ZBAA 212000Z AUTO 15002KT 4SM 19/18 A2994 RMK T01900180 IEM_DS3505
ZBAA,2004-08-21 21:00,ZBAA 212100Z AUTO 07002KT 7SM 20/16 A2994 RMK 70022 SLP138 T02000156 52005 IEM_DS3505
ZBAA,2004-08-21 22:00,ZBAA 212200Z AUTO 00000KT 3SM 20/19 A2997 RMK T02000190 IEM_DS3505
ZBAA,2004-08-21 23:00,ZBAA 212300Z AUTO 30004KT 2 1/2SM 20/19 A2997 RMK T02000190 IEM_DS3505
ZBAA,2004-08-22 00:00,ZBAA 220000Z AUTO 04002KT 6SM 20/15 A2997 RMK 70022 SLP143 T02020154 52005 IEM_DS3505
ZBAA,2004-08-22 01:00,ZBAA 220100Z AUTO 28004KT 2 1/2SM 22/18 A2997 RMK T02200180 IEM_DS3505
ZBAA,2004-08-22 02:00,ZBAA 220200Z AUTO 3SM 23/19 A2997 RMK T02300190 IEM_DS3505
ZBAA,2004-08-22 03:00,ZBAA 220300Z AUTO 25002KT 7SM 22/16 A2997 RMK SLP144 T02210162 52001 IEM_DS3505
ZBAA,2004-08-22 04:00,ZBAA 220400Z AUTO 7SM 23/19 A2994 RMK T02300190 IEM_DS3505
ZBAA,2004-08-22 04:30,ZBAA 220430Z AUTO 6SM 25/19 A2994 RMK T02500190 IEM_DS3505
ZBAA,2004-08-22 05:00,ZBAA 220500Z AUTO 6SM 26/19 A2994 RMK T02600190 IEM_DS3505
ZBAA,2004-08-22 06:00,ZBAA 220600Z AUTO 14004KT 12SM 26/15 A2994 RMK SLP132 T02550149 57012 IEM_DS3505
ZBAA,2004-08-22 07:00,ZBAA 220700Z AUTO 12004KT 7SM 26/18 A2991 RMK T02600180 IEM_DS3505
ZBAA,2004-08-22 08:00,ZBAA 220800Z AUTO 13002KT 7SM 25/19 A2991 RMK T02500190 IEM_DS3505
ZBAA,2004-08-22 09:00,ZBAA 220900Z AUTO 11006KT 9SM 25/15 A2991 RMK SLP126 T02510149 57006 IEM_DS3505
ZBAA,2004-08-22 10:00,ZBAA 221000Z AUTO 7SM 22/20 A2994 RMK T02200200 IEM_DS3505
ZBAA,2004-08-22 11:00,ZBAA 221100Z AUTO 12006KT 6SM 20/20 A2994 RMK T02000200 IEM_DS3505
ZBAA,2004-08-22 12:00,ZBAA 221200Z AUTO 09006KT 16SM 22/17 A2994 RMK SLP137 T02160166 52011 IEM_DS3505
ZBAA,2004-08-22 13:00,ZBAA 221300Z AUTO 14004KT 6SM 20/19 A2997 RMK T02000190 IEM_DS3505
ZBAA,2004-08-22 14:00,ZBAA 221400Z AUTO 16002KT 6SM 19/19 A2997 RMK T01900190 IEM_DS3505
ZBAA,2004-08-22 15:00,ZBAA 221500Z AUTO 07004KT 16SM 20/16 A2997 RMK SLP143 T02040162 52006 IEM_DS3505
ZBAA,2004-08-22 16:00,ZBAA 221600Z AUTO 27004KT 6SM 19/19 A2997 RMK T01900190 IEM_DS3505
ZBAA,2004-08-22 17:00,ZBAA 221700Z AUTO 00000KT 6SM 20/19 A2994 RMK T02000190 IEM_DS3505
ZBAA,2004-08-22 18:00,ZBAA 221800Z AUTO 02002KT 12SM 20/16 A2994 RMK SLP135 T02030163 57008 IEM_DS3505
ZBAA,2004-08-22 19:00,ZBAA 221900Z AUTO 00000KT 5SM 19/19 A2994 RMK T01900190 IEM_DS3505
ZBAA,2004-08-22 20:00,ZBAA 222000Z AUTO 00000KT 4SM 18/18 A2994 RMK T01800180 IEM_DS3505
ZBAA,2004-08-22 21:00,ZBAA 222100Z AUTO 22002KT 12SM 20/16 A2994 RMK 70000 SLP135 T01990165 54000 IEM_DS3505
ZBAA,2004-08-22 22:00,ZBAA 222200Z AUTO 33004KT 4SM 17/17 A2994 RMK T01700170 IEM_DS3505
ZBAA,2004-08-22 23:00,ZBAA 222300Z AUTO 35004KT 4SM 19/19 A2997 RMK T01900190 IEM_DS3505
ZBAA,2004-08-23 00:00,ZBAA 230000Z AUTO 27004KT 7SM 22/17 A2994 RMK 70000 SLP139 T02230168 52004 IEM_DS3505
ZBAA,2004-08-23 00:30,ZBAA 230030Z AUTO 32002KT 4SM 23/20 A2994 RMK T02300200 IEM_DS3505
ZBAA,2004-08-23 01:00,ZBAA 230100Z AUTO 5SM 24/20 A2994 RMK T02400200 IEM_DS3505
ZBAA,2004-08-23 02:00,ZBAA 230200Z AUTO 6SM 25/20 A2994 RMK T02500200 IEM_DS3505
ZBAA,2004-08-23 03:00,ZBAA 230300Z AUTO 20004KT 7SM 25/17 A2994 RMK SLP134 T02490174 57005 IEM_DS3505
ZBAA,2004-08-23 04:00,ZBAA 230400Z AUTO 11002KT 7SM 27/18 A2994 RMK T02700180 IEM_DS3505
ZBAA,2004-08-23 05:00,ZBAA 230500Z AUTO 7SM 28/20 A2991 RMK T02800200 IEM_DS3505
ZBAA,2004-08-23 06:00,ZBAA 230600Z AUTO 11004KT 7SM 27/16 A2988 RMK SLP119 T02700163 57015 IEM_DS3505
ZBAA,2004-08-23 07:00,ZBAA 230700Z AUTO 16004KT 7SM 29/18 A2988 RMK T02900180 IEM_DS3505
ZBAA,2004-08-23 08:00,ZBAA 230800Z AUTO 17006KT 7SM 28/19 A2988 RMK T02800190 IEM_DS3505
ZBAA,2004-08-23 09:00,ZBAA 230900Z AUTO 20006KT 9SM 27/16 A2988 RMK SLP113 T02730160 57006 IEM_DS3505
ZBAA,2004-08-23 10:00,ZBAA 231000Z AUTO 18006KT 6SM 26/19 A2988 RMK T02600190 IEM_DS3505
ZBAA,2004-08-23 11:00,ZBAA 231100Z AUTO 15004KT 5SM 24/20 A2988 RMK T02400200 IEM_DS3505
ZBAA,2004-08-23 12:00,ZBAA 231200Z AUTO 22002KT 9SM 24/18 A2988 RMK SLP115 T02440176 52002 IEM_DS3505
ZBAA,2004-08-23 13:00,ZBAA 231300Z AUTO 18004KT 4SM 23/20 A2988 RMK T02300200 IEM_DS3505
ZBAA,2004-08-23 14:00,ZBAA 231400Z AUTO 15002KT 3SM 22/20 A2988 RMK T02200200 IEM_DS3505
ZBAA,2004-08-23 15:00,ZBAA 231500Z AUTO 25004KT 7SM 23/18 A2988 RMK SLP121 T02290180 52006 IEM_DS3505
ZBAA,2004-08-23 16:00,ZBAA 231600Z AUTO 16002KT 2 1/2SM 22/20 A2988 RMK T02200200 IEM_DS3505
ZBAA,2004-08-23 17:00,ZBAA 231700Z AUTO 00000KT 2 1/2SM 21/21 A2988 RMK T02100210 IEM_DS3505
ZBAA,2004-08-23 18:00,ZBAA 231800Z AUTO 22002KT 5SM 21/18 RMK SLP119 T02100180 57002 IEM_DS3505
ZBAA,2004-08-23 19:00,ZBAA 231900Z AUTO 00000KT 2 1/2SM 20/19 A2991 RMK T02000190 IEM_DS3505
ZBAA,2004-08-23 20:00,ZBAA 232000Z AUTO 02002KT 1 1/4SM 18/18 A2991 RMK T01800180 IEM_DS3505
ZBAA,2004-08-23 21:00,ZBAA 232100Z AUTO 25002KT 5SM 20/18 A2988 RMK SLP118 T02010179 57001 IEM_DS3505
ZBAA,2004-08-23 22:00,ZBAA 232200Z AUTO 00000KT 1 1/2SM 18/18 A2991 RMK T01800180 IEM_DS3505
ZBAA,2004-08-23 23:00,ZBAA 232300Z AUTO 00000KT 1 1/2SM 20/20 A2991 RMK T02000200 IEM_DS3505
ZBAA,2004-08-24 00:00,ZBAA 240000Z AUTO 07002KT 4SM 23/19 A2991 RMK SLP123 T02260188 52005 IEM_DS3505
ZBAA,2004-08-24 01:00,ZBAA 240100Z AUTO 11002KT 2 1/2SM 24/21 A2991 RMK T02400210 IEM_DS3505
ZBAA,2004-08-24 02:00,ZBAA 240200Z AUTO 3SM 26/21 A2991 RMK T02600210 IEM_DS3505
ZBAA,2004-08-24 03:00,ZBAA 240300Z AUTO 20002KT 12SM 27/21 A2988 RMK T02700210 IEM_DS3505
ZBAA,2004-08-24 04:00,ZBAA 240400Z AUTO 28/21 A2988 RMK T02800210 IEM_DS3505
ZBAA,2004-08-24 05:00,ZBAA 240500Z AUTO 21004KT 2 1/2SM 28/21 A2985 RMK T02800210 IEM_DS3505
ZBAA,2004-08-24 06:00,ZBAA 240600Z AUTO 22006KT 16SM 27/17 A2985 RMK SLP103 T02710173 57012 IEM_DS3505
ZBAA,2004-08-24 07:00,ZBAA 240700Z AUTO 17004KT 29/20 A2983 RMK T02900200 IEM_DS3505
ZBAA,2004-08-24 08:00,ZBAA 240800Z AUTO 19006KT 28/20 A2983 RMK T02800200 IEM_DS3505
ZBAA,2004-08-24 09:00,ZBAA 240900Z AUTO 20004KT 16SM 27/18 A2980 RMK SLP091 T02720179 57012 IEM_DS3505
ZBAA,2004-08-24 10:00,ZBAA 241000Z AUTO 18004KT 4SM 26/21 A2980 RMK T02600210 IEM_DS3505
ZBAA,2004-08-24 11:00,ZBAA 241100Z AUTO 15004KT 3SM 24/21 A2983 RMK T02400210 IEM_DS3505
ZBAA,2004-08-24 12:00,ZBAA 241200Z AUTO 22002KT 4SM 24/18 A2983 RMK SLP099 T02450184 52008 IEM_DS3505
ZBAA,2004-08-24 13:00,ZBAA 241300Z AUTO 18004KT 2 1/2SM 22/21 A2985 RMK T02200210 IEM_DS3505
ZBAA,2004-08-24 14:00,ZBAA 241400Z AUTO 13002KT 2 1/2SM 23/21 A2985 RMK T02300210 IEM_DS3505
ZBAA,2004-08-24 15:00,ZBAA 241500Z AUTO 22004KT 4SM 23/19 A2983 RMK SLP098 T02340187 57001 IEM_DS3505
ZBAA,2004-08-24 16:00,ZBAA 241600Z AUTO 18004KT 2 1/2SM 23/21 A2983 RMK T02300210 IEM_DS3505
ZBAA,2004-08-24 17:00,ZBAA 241700Z AUTO 11002KT 2SM 23/22 A2983 RMK T02300220 IEM_DS3505
ZBAA,2004-08-24 18:00,ZBAA 241800Z AUTO 16002KT 4SM 23/18 A2980 RMK SLP087 T02310184 57010 IEM_DS3505
ZBAA,2004-08-24 19:00,ZBAA 241900Z AUTO 13002KT 1 1/2SM 23/22 A2980 RMK T02300220 IEM_DS3505
ZBAA,2004-08-24 20:00,ZBAA 242000Z AUTO 12004KT 1 1/4SM 22/22 A2977 RMK T02200220 IEM_DS3505
ZBAA,2004-08-24 21:00,ZBAA 242100Z AUTO 18004KT 2SM 23/19 A2977 RMK 70000 SLP078 T02260186 57009 IEM_DS3505
ZBAA,2004-08-24 22:00,ZBAA 242200Z AUTO 09002KT 1SM 22/21 A2980 RMK T02200210 IEM_DS3505
ZBAA,2004-08-24 23:00,ZBAA 242300Z AUTO 12004KT 1/2SM 21/21 A2980 RMK T02100210 IEM_DS3505
ZBAA,2004-08-25 00:00,ZBAA 250000Z AUTO 20004KT 1 1/4SM 21/19 A2980 RMK 60031 70033 SLP085 T02100189 52006 IEM_DS3505
ZBAA,2004-08-25 01:00,ZBAA 250100Z AUTO 17004KT 1/2SM 21/21 A2980 RMK T02100210 IEM_DS3505
ZBAA,2004-08-25 02:00,ZBAA 250200Z AUTO 14006KT 1SM 21/21 A2980 RMK T02100210 IEM_DS3505
ZBAA,2004-08-25 03:00,ZBAA 250300Z AUTO 22002KT 2SM 21/19 A2980 RMK SLP082 T02130194 57003 IEM_DS3505
ZBAA,2004-08-25 04:00,ZBAA 250400Z AUTO 15004KT 1SM 22/22 A2977 RMK T02200220 IEM_DS3505
ZBAA,2004-08-25 05:00,ZBAA 250500Z AUTO 15004KT 1SM 22/22 A2977 RMK T02200220 IEM_DS3505
ZBAA,2004-08-25 06:00,ZBAA 250600Z AUTO 16004KT 2SM 24/20 A2974 RMK 60004 SLP066 T02360195 57016 IEM_DS3505
ZBAA,2004-08-25 07:00,ZBAA 250700Z AUTO 1SM 22/22 A2974 RMK T02200220 IEM_DS3505
ZBAA,2004-08-25 08:00,ZBAA 250800Z AUTO 1SM 22/22 A2974 RMK T02200220 IEM_DS3505
ZBAA,2004-08-25 09:00,ZBAA 250900Z AUTO 09006KT 3SM 25/20 A2974 RMK T02460201 IEM_DS3505
ZBAA,2004-08-25 10:00,ZBAA 251000Z AUTO 09006KT 1 1/4SM 22/21 A2974 RMK T02200210 IEM_DS3505
ZBAA,2004-08-25 11:00,ZBAA 251100Z AUTO 08004KT 1SM 21/21 A2974 RMK T02100210 IEM_DS3505
ZBAA,2004-08-25 12:00,ZBAA 251200Z AUTO 07006KT 3SM 22/20 A2977 RMK SLP073 T02220199 52014 IEM_DS3505
ZBAA,2004-08-25 13:00,ZBAA 251300Z AUTO 11002KT 1 1/4SM 21/21 A2977 RMK T02100210 IEM_DS3505
ZBAA,2004-08-25 14:00,ZBAA 251400Z AUTO 15002KT 1 1/4SM 21/21 A2977 RMK T02100210 IEM_DS3505
ZBAA,2004-08-25 15:00,ZBAA 251500Z AUTO 09004KT 3SM 21/19 A2977 RMK SLP075 T02110190 52002 IEM_DS3505
ZBAA,2004-08-25 16:00,ZBAA 251600Z AUTO 00000KT 1 1/4SM 21/20 A2977 RMK T02100200 IEM_DS3505
ZBAA,2004-08-25 17:00,ZBAA 251700Z AUTO 00000KT 1 1/4SM 21/21 A2977 RMK T02100210 IEM_DS3505
ZBAA,2004-08-25 18:00,ZBAA 251800Z AUTO 07002KT 4SM 20/18 A2977 RMK SLP071 T02050183 57004 IEM_DS3505
ZBAA,2004-08-25 19:00,ZBAA 251900Z AUTO 00000KT 1SM 20/20 A2974 RMK T02000200 IEM_DS3505
ZBAA,2004-08-25 20:00,ZBAA 252000Z AUTO 00000KT 1SM 21/21 A2974 RMK T02100210 IEM_DS3505
ZBAA,2004-08-25 20:30,ZBAA 252030Z AUTO 00000KT 1SM 20/20 A2974 RMK T02000200 IEM_DS3505
ZBAA,2004-08-25 21:00,ZBAA 252100Z AUTO 36002KT 2SM 21/18 A2974 RMK 70037 SLP064 T02080182 57007 IEM_DS3505
ZBAA,2004-08-25 21:30,ZBAA 252130Z AUTO 31002KT 1SM 21/21 A2974 RMK T02100210 IEM_DS3505
ZBAA,2004-08-25 22:00,ZBAA 252200Z AUTO 00000KT 1SM 21/21 A2974 RMK T02100210 IEM_DS3505
ZBAA,2004-08-25 23:00,ZBAA 252300Z AUTO 18002KT 1SM 21/21 A2974 RMK T02100210 IEM_DS3505
ZBAA,2004-08-26 00:00,ZBAA 260000Z AUTO 02002KT 2SM 22/19 A2974 RMK 70004 SLP067 T02200186 52003 IEM_DS3505
ZBAA,2004-08-26 01:00,ZBAA 260100Z AUTO 29002KT 1 1/2SM 23/22 A2974 RMK T02300220 IEM_DS3505
ZBAA,2004-08-26 02:00,ZBAA 260200Z AUTO 1 1/2SM 25/22 A2974 RMK T02500220 IEM_DS3505
ZBAA,2004-08-26 03:00,ZBAA 260300Z AUTO 22002KT 4SM 26/19 A2974 RMK SLP060 T02560193 57007 IEM_DS3505
ZBAA,2004-08-26 04:00,ZBAA 260400Z AUTO 2SM 26/22 A2971 RMK T02600220 IEM_DS3505
ZBAA,2004-08-26 05:00,ZBAA 260500Z AUTO 2SM 26/23 A2971 RMK T02600230 IEM_DS3505
ZBAA,2004-08-26 06:00,ZBAA 260600Z AUTO 22004KT 5SM 28/21 A2968 RMK SLP043 T02800208 57016 IEM_DS3505
ZBAA,2004-08-26 07:00,ZBAA 260700Z AUTO 2SM 28/23 A2968 RMK T02800230 IEM_DS3505
ZBAA,2004-08-26 08:00,ZBAA 260800Z AUTO 13002KT 2SM 27/23 A2968 RMK T02700230 IEM_DS3505
ZBAA,2004-08-26 09:00,ZBAA 260900Z AUTO 20006KT 4SM 27/21 A2968 RMK SLP044 T02680213 52001 IEM_DS3505
ZBAA,2004-08-26 10:00,ZBAA 261000Z AUTO 17006KT 1 1/4SM 26/24 A2968 RMK T02600240 IEM_DS3505
ZBAA,2004-08-26 11:00,ZBAA 261100Z AUTO 17006KT 1SM 25/24 A2968 RMK T02500240 IEM_DS3505
ZBAA,2004-08-26 12:00,ZBAA 261200Z AUTO 32004KT 2 1/2SM 25/21 A2971 RMK SLP058 T02520213 52013 IEM_DS3505
ZBAA,2004-08-26 13:00,ZBAA 261300Z AUTO 13004KT 1SM 24/24 A2968 RMK T02400240 IEM_DS3505
ZBAA,2004-08-26 14:00,ZBAA 261400Z AUTO 1SM 24/24 A2971 RMK T02400240 IEM_DS3505
ZBAA,2004-08-26 15:00,ZBAA 261500Z AUTO 25004KT 2 1/2SM 24/22 A2974 RMK SLP059 T02430216 52002 IEM_DS3505
ZBAA,2004-08-26 16:00,ZBAA 261600Z AUTO 25004KT 1 1/4SM 24/24 A2974 RMK T02400240 IEM_DS3505
ZBAA,2004-08-26 17:00,ZBAA 261700Z AUTO 36002KT 2SM 22/21 A2974 RMK T02200210 IEM_DS3505
ZBAA,2004-08-26 18:00,ZBAA 261800Z AUTO 00000KT 2SM 24/21 A2974 RMK SLP060 T02370214 52001 IEM_DS3505
ZBAA,2004-08-26 19:00,ZBAA 261900Z AUTO 23002KT 2SM 21/21 A2971 RMK T02100210 IEM_DS3505
ZBAA,2004-08-26 20:00,ZBAA 262000Z AUTO 29004KT 2 1/2SM 22/21 A2974 RMK T02200210 IEM_DS3505
ZBAA,2004-08-26 21:00,ZBAA 262100Z AUTO 09002KT 2 1/2SM 24/19 A2971 RMK SLP057 T02360189 57003 IEM_DS3505
ZBAA,2004-08-26 22:00,ZBAA 262200Z AUTO 36002KT 2SM 21/21 A2974 RMK T02100210 IEM_DS3505
ZBAA,2004-08-26 23:00,ZBAA 262300Z AUTO 36002KT 1 1/2SM 22/22 A2977 RMK T02200220 IEM_DS3505
ZBAA,2004-08-27 00:00,ZBAA 270000Z AUTO 04002KT 6SM 24/18 A2977 RMK SLP071 T02350182 52013 IEM_DS3505
ZBAA,2004-08-27 01:00,ZBAA 270100Z AUTO 28004KT 1 1/2SM 24/23 A2977 RMK T02400230 IEM_DS3505
ZBAA,2004-08-27 02:00,ZBAA 270200Z AUTO 1SM 25/24 A2977 RMK T02500240 IEM_DS3505
ZBAA,2004-08-27 03:00,ZBAA 270300Z AUTO 16002KT 3SM 26/21 A2974 RMK SLP070 T02610211 54000 IEM_DS3505
ZBAA,2004-08-27 04:00,ZBAA 270400Z AUTO 15002KT 1SM 26/24 A2974 RMK T02600240 IEM_DS3505
ZBAA,2004-08-27 06:00,ZBAA 270600Z AUTO 14004KT 2 1/2SM 27/22 A2971 RMK SLP058 T02660216 57012 IEM_DS3505
ZBAA,2004-08-27 07:00,ZBAA 270700Z AUTO 16006KT 1SM 26/25 A2971 RMK T02600250 IEM_DS3505
ZBAA,2004-08-27 08:00,ZBAA 270800Z AUTO 15006KT 1SM 25/24 A2971 RMK T02500240 IEM_DS3505
ZBAA,2004-08-27 09:00,ZBAA 270900Z AUTO 14004KT 4SM 25/20 A2971 RMK SLP054 T02520202 57004 IEM_DS3505
ZBAA,2004-08-27 10:00,ZBAA 271000Z AUTO 29004KT 1 1/4SM 23/22 A2971 RMK T02300220 IEM_DS3505
ZBAA,2004-08-27 11:00,ZBAA 271100Z AUTO 08002KT 1 1/4SM 23/22 A2974 RMK T02300220 IEM_DS3505
ZBAA,2004-08-27 12:00,ZBAA 271200Z AUTO 22002KT 5SM 23/21 A2974 RMK 60002 SLP067 T02320207 52012 IEM_DS3505
ZBAA,2004-08-27 13:00,ZBAA 271300Z AUTO 32004KT 1SM 22/22 A2977 RMK T02200220 IEM_DS3505
ZBAA,2004-08-27 14:00,ZBAA 271400Z AUTO 1SM 22/22 A2974 RMK T02200220 IEM_DS3505
ZBAA,2004-08-27 15:00,ZBAA 271500Z AUTO 09002KT 4SM 22/20 A2974 RMK SLP056 T02230200 57010 IEM_DS3505
ZBAA,2004-08-27 16:00,ZBAA 271600Z AUTO 36002KT 1 1/4SM 21/21 A2974 RMK T02100210 IEM_DS3505
ZBAA,2004-08-27 17:00,ZBAA 271700Z AUTO 36002KT 1SM 21/21 A2971 RMK T02100210 IEM_DS3505
ZBAA,2004-08-27 18:00,ZBAA 271800Z AUTO 02004KT 5SM 22/20 A2971 RMK 60002 SLP052 T02150196 57004 IEM_DS3505
ZBAA,2004-08-27 19:00,ZBAA 271900Z AUTO 35002KT 1 1/4SM 20/20 A2968 RMK T02000200 IEM_DS3505
ZBAA,2004-08-27 21:00,ZBAA 272100Z AUTO 02002KT 4SM 20/18 A2968 RMK 70003 SLP044 T02020183 57009 IEM_DS3505
ZBAA,2004-08-27 22:00,ZBAA 272200Z AUTO 33008KT 6SM 19/18 A2968 RMK T01900180 IEM_DS3505
ZBAA,2004-08-27 23:00,ZBAA 272300Z AUTO 31017KT 6SM 21/16 A2968 RMK T02100160 IEM_DS3505
ZBAA,2004-08-28 00:00,ZBAA 280000Z AUTO 02006KT 19SM 23/13 A2971 RMK 70003 SLP059 T02310127 52015 IEM_DS3505
ZBAA,2004-08-28 01:00,ZBAA 280100Z AUTO 31021G33KT 6SM 24/15 A2971 RMK T02400150 IEM_DS3505
ZBAA,2004-08-28 02:00,ZBAA 280200Z AUTO 31017KT 6SM 25/16 A2974 RMK T02500160 IEM_DS3505
ZBAA,2004-08-28 03:00,ZBAA 280300Z AUTO 34012KT 19SM 26/09 A2974 RMK SLP061 T02560090 52002 IEM_DS3505
ZBAA,2004-08-28 04:00,ZBAA 280400Z AUTO 31019KT 6SM 27/14 A2971 RMK T02700140 IEM_DS3505
ZBAA,2004-08-28 05:00,ZBAA 280500Z AUTO 32021G33KT 6SM 28/12 A2971 RMK T02800120 IEM_DS3505
ZBAA,2004-08-28 06:00,ZBAA 280600Z AUTO 32012KT 19SM 27/08 A2968 RMK SLP052 T02710085 57008 IEM_DS3505
ZBAA,2004-08-28 07:00,ZBAA 280700Z AUTO 33014KT 6SM 29/13 A2968 RMK T02900130 IEM_DS3505
ZBAA,2004-08-28 08:00,ZBAA 280800Z AUTO 29012KT 6SM 29/14 A2971 RMK T02900140 IEM_DS3505
ZBAA,2004-08-28 09:00,ZBAA 280900Z AUTO 34006KT 19SM 28/08 A2971 RMK SLP052 T02820075 54000 IEM_DS3505
ZBAA,2004-08-28 10:00,ZBAA 281000Z AUTO 30008KT 6SM 26/13 A2971 RMK T02600130 IEM_DS3505
ZBAA,2004-08-28 11:00,ZBAA 281100Z AUTO 29008KT 6SM 24/14 A2971 RMK T02400140 IEM_DS3505
ZBAA,2004-08-28 12:00,ZBAA 281200Z AUTO 32002KT 19SM 25/10 A2974 RMK SLP066 T02470095 52013 IEM_DS3505
ZBAA,2004-08-28 13:00,ZBAA 281300Z AUTO 6SM 21/15 A2977 RMK T02100150 IEM_DS3505
ZBAA,2004-08-28 14:00,ZBAA 281400Z AUTO 27004KT 6SM 21/15 A2977 RMK T02100150 IEM_DS3505
ZBAA,2004-08-28 15:00,ZBAA 281500Z AUTO 09002KT 19SM 21/12 A2977 RMK SLP080 T02090115 52014 IEM_DS3505
ZBAA,2004-08-28 16:00,ZBAA 281600Z AUTO 36002KT 6SM 18/15 A2980 RMK T01800150 IEM_DS3505
ZBAA,2004-08-28 17:00,ZBAA 281700Z AUTO 31002KT 6SM 16/15 A2980 RMK T01600150 IEM_DS3505
ZBAA,2004-08-28 18:00,ZBAA 281800Z AUTO 00000KT 16SM 18/13 A2980 RMK SLP083 T01840126 52003 IEM_DS3505
ZBAA,2004-08-28 19:00,ZBAA 281900Z AUTO 32006KT 6SM 16/14 A2980 RMK T01600140 IEM_DS3505
ZBAA,2004-08-28 20:00,ZBAA 282000Z AUTO 31004KT 6SM 16/13 A2980 RMK T01600130 IEM_DS3505
ZBAA,2004-08-28 21:00,ZBAA 282100Z AUTO 09002KT 12SM 17/12 A2983 RMK SLP092 T01710124 52009 IEM_DS3505
ZBAA,2004-08-28 22:00,ZBAA 282200Z AUTO 34004KT 6SM 14/13 A2983 RMK T01400130 IEM_DS3505
ZBAA,2004-08-28 23:00,ZBAA 282300Z AUTO 36004KT 6SM 17/15 A2983 RMK T01700150 IEM_DS3505
ZBAA,2004-08-29 00:00,ZBAA 290000Z AUTO 04004KT 16SM 22/13 A2983 RMK SLP096 T02230126 52004 IEM_DS3505
ZBAA,2004-08-29 01:00,ZBAA 290100Z AUTO 01004KT 6SM 23/16 A2985 RMK T02300160 IEM_DS3505
ZBAA,2004-08-29 02:00,ZBAA 290200Z AUTO 6SM 25/16 A2983 RMK T02500160 IEM_DS3505
ZBAA,2004-08-29 03:00,ZBAA 290300Z AUTO 04006KT 19SM 27/09 A2983 RMK SLP091 T02670087 57005 IEM_DS3505
ZBAA,2004-08-29 04:00,ZBAA 290400Z AUTO 31016G25KT 6SM 29/10 A2980 RMK T02900100 IEM_DS3505
ZBAA,2004-08-29 05:00,ZBAA 290500Z AUTO 32016KT 6SM 30/11 A2977 RMK T03000110 IEM_DS3505
ZBAA,2004-08-29 06:00,ZBAA 290600Z AUTO 18006KT 19SM 29/07 RMK SLP070 T02940074 57021 IEM_DS3505
ZBAA,2004-08-29 07:00,ZBAA 290700Z AUTO 30006KT 6SM 30/12 A2974 RMK T03000120 IEM_DS3505
ZBAA,2004-08-29 08:00,ZBAA 290800Z AUTO 30006KT 6SM 30/12 A2974 RMK T03000120 IEM_DS3505
ZBAA,2004-08-29 09:00,ZBAA 290900Z AUTO 18004KT 19SM 28/10 A2974 RMK SLP063 T02830096 57007 IEM_DS3505
ZBAA,2004-08-29 10:00,ZBAA 291000Z AUTO 18004KT 6SM 26/14 A2974 RMK T02600140 IEM_DS3505
ZBAA,2004-08-29 11:00,ZBAA 291100Z AUTO 16006KT 6SM 23/15 A2974 RMK T02300150 IEM_DS3505
ZBAA,2004-08-29 12:00,ZBAA 291200Z AUTO 16002KT 16SM 25/11 A2974 RMK SLP070 T02530111 52007 IEM_DS3505
ZBAA,2004-08-29 13:00,ZBAA 291300Z AUTO 14004KT 6SM 22/16 A2977 RMK T02200160 IEM_DS3505
ZBAA,2004-08-29 14:00,ZBAA 291400Z AUTO 19006KT 6SM 22/15 A2977 RMK T02200150 IEM_DS3505
ZBAA,2004-08-29 15:00,ZBAA 291500Z AUTO 18004KT 12SM 23/13 A2977 RMK SLP073 T02270126 52004 IEM_DS3505
ZBAA,2004-08-29 16:00,ZBAA 291600Z AUTO 14002KT 6SM 19/17 A2977 RMK T01900170 IEM_DS3505
ZBAA,2004-08-29 17:00,ZBAA 291700Z AUTO 6SM 18/17 A2974 RMK T01800170 IEM_DS3505
ZBAA,2004-08-29 18:00,ZBAA 291800Z AUTO 09002KT 11SM 20/14 A2974 RMK SLP060 T02010138 57013 IEM_DS3505
ZBAA,2004-08-29 19:00,ZBAA 291900Z AUTO 34002KT 6SM 17/16 A2971 RMK T01700160 IEM_DS3505
ZBAA,2004-08-29 20:00,ZBAA 292000Z AUTO 33004KT 6SM 16/15 A2971 RMK T01600150 IEM_DS3505
ZBAA,2004-08-29 21:00,ZBAA 292100Z AUTO 02004KT 11SM 18/13 A2971 RMK SLP055 T01830134 57006 IEM_DS3505
ZBAA,2004-08-29 22:00,ZBAA 292200Z AUTO 35004KT 6SM 16/15 A2971 RMK T01600150 IEM_DS3505
ZBAA,2004-08-29 23:00,ZBAA 292300Z AUTO 36002KT 6SM 18/17 A2971 RMK T01800170 IEM_DS3505
ZBAA,2004-08-30 00:00,ZBAA 300000Z AUTO 04004KT 11SM 22/14 A2971 RMK SLP056 T02240135 52001 IEM_DS3505
ZBAA,2004-08-30 01:00,ZBAA 300100Z AUTO 02004KT 6SM 23/17 A2971 RMK T02300170 IEM_DS3505
ZBAA,2004-08-30 02:00,ZBAA 300200Z AUTO 6SM 26/18 A2971 RMK T02600180 IEM_DS3505
ZBAA,2004-08-30 03:00,ZBAA 300300Z AUTO 18006KT 16SM 28/13 A2968 RMK SLP042 T02770129 57013 IEM_DS3505
ZBAA,2004-08-30 04:00,ZBAA 300400Z AUTO 6SM 30/17 A2965 RMK T03000170 IEM_DS3505
ZBAA,2004-08-30 05:00,ZBAA 300500Z AUTO 17006KT 6SM 31/17 A2962 RMK T03100170 IEM_DS3505
ZBAA,2004-08-30 06:00,ZBAA 300600Z AUTO 25010KT 16SM 31/11 A2959 RMK SLP014 T03080107 57028 IEM_DS3505
ZBAA,2004-08-30 07:00,ZBAA 300700Z AUTO 21008KT 6SM 32/14 A2956 RMK T03200140 IEM_DS3505
ZBAA,2004-08-30 08:00,ZBAA 300800Z AUTO 22008KT 6SM 32/13 A2956 RMK T03200130 IEM_DS3505
ZBAA,2004-08-30 09:00,ZBAA 300900Z AUTO 22010KT 16SM 31/11 A2956 RMK SLP002 T03060106 57012 IEM_DS3505
ZBAA,2004-08-30 10:00,ZBAA 301000Z AUTO 22008KT 6SM 29/15 A2953 RMK T02900150 IEM_DS3505
ZBAA,2004-08-30 11:00,ZBAA 301100Z AUTO 22006KT 6SM 27/15 A2956 RMK T02700150 IEM_DS3505
ZBAA,2004-08-30 12:00,ZBAA 301200Z AUTO 22006KT 16SM 26/15 A2956 RMK SLP006 T02550149 52004 IEM_DS3505
ZBAA,2004-08-30 13:00,ZBAA 301300Z AUTO 30004KT 6SM 24/17 A2959 RMK T02400170 IEM_DS3505
ZBAA,2004-08-30 14:00,ZBAA 301400Z AUTO 35006KT 6SM 21/17 A2959 RMK T02100170 IEM_DS3505
ZBAA,2004-08-30 15:00,ZBAA 301500Z AUTO 27002KT 16SM 23/15 A2959 RMK SLP019 T02300151 52013 IEM_DS3505
ZBAA,2004-08-30 16:00,ZBAA 301600Z AUTO 34004KT 6SM 20/17 A2962 RMK T02000170 IEM_DS3505
ZBAA,2004-08-30 17:00,ZBAA 301700Z AUTO 35004KT 6SM 18/16 A2962 RMK T01800160 IEM_DS3505
ZBAA,2004-08-30 18:00,ZBAA 301800Z AUTO 32002KT 12SM 20/15 A2962 RMK SLP024 T02030147 52005 IEM_DS3505
ZBAA,2004-08-30 19:00,ZBAA 301900Z AUTO 35006KT 6SM 17/14 A2962 RMK T01700140 IEM_DS3505
ZBAA,2004-08-30 20:00,ZBAA 302000Z AUTO 34006KT 6SM 16/13 A2965 RMK T01600130 IEM_DS3505
ZBAA,2004-08-30 21:00,ZBAA 302100Z AUTO 09004KT 12SM 20/11 A2965 RMK SLP036 T01960109 52012 IEM_DS3505
ZBAA,2004-08-30 22:00,ZBAA 302200Z AUTO 35008KT 6SM 16/13 A2968 RMK T01600130 IEM_DS3505
ZBAA,2004-08-30 23:00,ZBAA 302300Z AUTO 35004KT 6SM 19/15 A2968 RMK T01900150 IEM_DS3505
ZBAA,2004-08-31 00:00,ZBAA 310000Z AUTO 34006KT 19SM 25/07 A2968 RMK SLP047 T02540071 52011 IEM_DS3505
ZBAA,2004-08-31 01:00,ZBAA 310100Z AUTO 02004KT 6SM 25/16 A2971 RMK T02500160 IEM_DS3505
ZBAA,2004-08-31 02:00,ZBAA 310200Z AUTO 02004KT 6SM 26/14 A2971 RMK T02600140 IEM_DS3505
ZBAA,2004-08-31 03:00,ZBAA 310300Z AUTO 02006KT 19SM 29/07 A2968 RMK SLP046 T02920066 57001 IEM_DS3505
ZBAA,2004-08-31 04:00,ZBAA 310400Z AUTO 6SM 29/13 RMK T02900130 IEM_DS3505
ZBAA,2004-08-31 05:00,ZBAA 310500Z AUTO 6SM 31/12 A2965 RMK T03100120 IEM_DS3505
ZBAA,2004-08-31 06:00,ZBAA 310600Z AUTO 07002KT 19SM 31/06 A2965 RMK SLP031 T03130064 57015 IEM_DS3505
ZBAA,2004-08-31 07:00,ZBAA 310700Z AUTO 6SM 32/13 A2962 RMK T03200130 IEM_DS3505
ZBAA,2004-08-31 08:00,ZBAA 310800Z AUTO 6SM 32/14 A2962 RMK T03200140 IEM_DS3505
ZBAA,2004-08-31 09:00,ZBAA 310900Z AUTO 09004KT 19SM 31/11 A2962 RMK SLP025 T03130112 57006 IEM_DS3505
ZBAA,2004-08-31 10:00,ZBAA 311000Z AUTO 29004KT 6SM 29/13 A2962 RMK T02900130 IEM_DS3505
ZBAA,2004-08-31 11:00,ZBAA 311100Z AUTO 18006KT 6SM 26/16 A2962 RMK T02600160 IEM_DS3505
ZBAA,2004-08-31 12:00,ZBAA 311200Z AUTO 25004KT 19SM 26/13 A2965 RMK SLP037 T02650133 52012 IEM_DS3505
ZBAA,2004-08-31 13:00,ZBAA 311300Z AUTO 6SM 24/17 A2968 RMK T02400170 IEM_DS3505
ZBAA,2004-08-31 14:00,ZBAA 311400Z AUTO 01002KT 6SM 22/18 A2968 RMK T02200180 IEM_DS3505
ZBAA,2004-08-31 15:00,ZBAA 311500Z AUTO 00000KT 16SM 23/16 A2968 RMK SLP047 T02290157 52010 IEM_DS3505
ZBAA,2004-08-31 16:00,ZBAA 311600Z AUTO 35004KT 6SM 17/17 A2971 RMK T01700170 IEM_DS3505
ZBAA,2004-08-31 17:00,ZBAA 311700Z AUTO 35004KT 6SM 18/17 A2971 RMK T01800170 IEM_DS3505
ZBAA,2004-08-31 18:00,ZBAA 311800Z AUTO 02002KT 19SM 22/14 A2971 RMK SLP054 T02170139 52007 IEM_DS3505
ZBAA,2004-08-31 19:00,ZBAA 311900Z AUTO 33006KT 6SM 20/16 A2974 RMK T02000160 IEM_DS3505
ZBAA,2004-08-31 20:00,ZBAA 312000Z AUTO 34006KT 6SM 19/17 A2974 RMK T01900170 IEM_DS3505
ZBAA,2004-08-31 21:00,ZBAA 312100Z AUTO 04004KT 16SM 22/12 A2974 RMK SLP059 T02190119 52005 IEM_DS3505
ZBAA,2004-08-31 22:00,ZBAA 312200Z AUTO 33006KT 6SM 19/15 A2977 RMK T01900150 IEM_DS3505
ZBAA,2004-08-31 23:00,ZBAA 312300Z AUTO 01004KT 6SM 21/15 A2977 RMK T02100150 IEM_DS3505
ZBAA,2004-09-01 00:00,ZBAA 010000Z AUTO 04004KT 19SM 22/12 A2977 RMK SLP073 T02220119 52013 IEM_DS3505
ZBAA,2004-09-01 01:00,ZBAA 010100Z AUTO 35008KT 6SM 25/15 A2977 RMK T02500150 IEM_DS3505
ZBAA,2004-09-01 02:00,ZBAA 010200Z AUTO 01004KT 6SM 27/15 A2980 RMK T02700150 IEM_DS3505
ZBAA,2004-09-01 03:00,ZBAA 010300Z AUTO 04006G16KT 19SM 28/09 A2980 RMK SLP079 T02840087 52007 IEM_DS3505
ZBAA,2004-09-01 04:00,ZBAA 010400Z AUTO 6SM 30/14 A2977 RMK T03000140 IEM_DS3505
ZBAA,2004-09-01 05:00,ZBAA 010500Z AUTO 6SM 31/14 A2977 RMK T03100140 IEM_DS3505
ZBAA,2004-09-01 06:00,ZBAA 010600Z AUTO 09004KT 19SM 31/09 A2974 RMK SLP068 T03090086 57011 IEM_DS3505
ZBAA,2004-09-01 07:00,ZBAA 010700Z AUTO 14006KT 6SM 31/13 A2974 RMK T03100130 IEM_DS3505
ZBAA,2004-09-01 08:00,ZBAA 010800Z AUTO 13006KT 6SM 31/14 A2971 RMK T03100140 IEM_DS3505
ZBAA,2004-09-01 09:00,ZBAA 010900Z AUTO 22008KT 19SM 31/09 A2974 RMK SLP064 T03060089 57004 IEM_DS3505
ZBAA,2004-09-01 10:00,ZBAA 011000Z AUTO 18010KT 6SM 29/13 A2974 RMK T02900130 IEM_DS3505
ZBAA,2004-09-01 11:00,ZBAA 011100Z AUTO 19008KT 6SM 25/13 A2974 RMK T02500130 IEM_DS3505
ZBAA,2004-09-01 12:00,ZBAA 011200Z AUTO 22004KT 16SM 26/12 A2977 RMK SLP080 T02580119 52015 IEM_DS3505
ZBAA,2004-09-01 13:00,ZBAA 011300Z AUTO 21006KT 6SM 25/14 A2980 RMK T02500140 IEM_DS3505
ZBAA,2004-09-01 14:00,ZBAA 011400Z AUTO 22004KT 6SM 24/14 A2980 RMK T02400140 IEM_DS3505
ZBAA,2004-09-01 15:00,ZBAA 011500Z AUTO 25006KT 12SM 24/14 A2983 RMK SLP089 T02400141 52010 IEM_DS3505
ZBAA,2004-09-01 16:00,ZBAA 011600Z AUTO 35002KT 6SM 19/16 A2983 RMK T01900160 IEM_DS3505
ZBAA,2004-09-01 17:00,ZBAA 011700Z AUTO 36004KT 6SM 17/16 A2983 RMK T01700160 IEM_DS3505
ZBAA,2004-09-01 18:00,ZBAA 011800Z AUTO 32002KT 5SM 20/15 A2985 RMK SLP100 T02050146 52011 IEM_DS3505
ZBAA,2004-09-01 19:00,ZBAA 011900Z AUTO 6SM 17/16 A2985 RMK T01700160 IEM_DS3505
ZBAA,2004-09-01 20:00,ZBAA 012000Z AUTO 34004KT 6SM 17/16 A2985 RMK T01700160 IEM_DS3505
ZBAA,2004-09-01 21:00,ZBAA 012100Z AUTO 04004KT 7SM 16/15 A2988 RMK T01600150 IEM_DS3505
ZBAA,2004-09-01 22:00,ZBAA 012200Z AUTO 35008KT 6SM 16/15 A2988 RMK T01600150 IEM_DS3505
ZBAA,2004-09-01 23:00,ZBAA 012300Z AUTO 35006KT 6SM 19/16 A2988 RMK T01900160 IEM_DS3505
ZBAA,2004-09-02 00:00,ZBAA 020000Z AUTO 02002KT 19SM 24/13 A2991 RMK SLP121 T02360129 52009 IEM_DS3505
ZBAA,2004-09-02 01:00,ZBAA 020100Z AUTO 36006KT 6SM 26/16 A2991 RMK T02600160 IEM_DS3505
ZBAA,2004-09-02 02:00,ZBAA 020200Z AUTO 01004KT 6SM 28/16 A2991 RMK T02800160 IEM_DS3505
ZBAA,2004-09-02 03:00,ZBAA 020300Z AUTO 04006KT 19SM 29/10 A2991 RMK SLP122 T02890101 52002 IEM_DS3505
ZBAA,2004-09-02 04:00,ZBAA 020400Z AUTO 01002KT 6SM 30/15 A2988 RMK T03000150 IEM_DS3505
ZBAA,2004-09-02 05:00,ZBAA 020500Z AUTO 6SM 30/14 A2988 RMK T03000140 IEM_DS3505
ZBAA,2004-09-02 06:00,ZBAA 020600Z AUTO 11004KT 19SM 31/08 A2985 RMK SLP104 T03100081 57018 IEM_DS3505
ZBAA,2004-09-02 07:00,ZBAA 020700Z AUTO 6SM 31/12 A2985 RMK T03100120 IEM_DS3505
ZBAA,2004-09-02 08:00,ZBAA 020800Z AUTO 12004KT 6SM 30/14 A2983 RMK T03000140 IEM_DS3505
ZBAA,2004-09-02 09:00,ZBAA 020900Z AUTO 18006KT 19SM 29/14 A2983 RMK SLP100 T02930135 57005 IEM_DS3505
ZBAA,2004-09-02 10:00,ZBAA 021000Z AUTO 17006KT 6SM 27/17 A2983 RMK T02700170 IEM_DS3505
ZBAA,2004-09-02 11:00,ZBAA 021100Z AUTO 20006KT 6SM 27/17 A2985 RMK T02700170 IEM_DS3505
ZBAA,2004-09-02 12:00,ZBAA 021200Z AUTO 22004KT 16SM 27/14 A2985 RMK SLP106 T02660137 52006 IEM_DS3505
ZBAA,2004-09-02 13:00,ZBAA 021300Z AUTO 17002KT 6SM 24/18 A2985 RMK T02400180 IEM_DS3505
ZBAA,2004-09-02 14:00,ZBAA 021400Z AUTO 09002KT 6SM 24/19 A2985 RMK T02400190 IEM_DS3505
ZBAA,2004-09-02 15:00,ZBAA 021500Z AUTO 00000KT 12SM 25/15 A2988 RMK SLP113 T02480149 52008 IEM_DS3505
ZBAA,2004-09-02 16:00,ZBAA 021600Z AUTO 11002KT 5SM 23/19 A2988 RMK T02300190 IEM_DS3505
ZBAA,2004-09-02 17:00,ZBAA 021700Z AUTO 12004KT 4SM 22/19 A2985 RMK T02200190 IEM_DS3505
ZBAA,2004-09-02 18:00,ZBAA 021800Z AUTO 25004KT 9SM 24/17 A2988 RMK 60000 SLP116 T02360174 52003 IEM_DS3505
ZBAA,2004-09-02 19:00,ZBAA 021900Z AUTO 27002KT 5SM 20/19 A2991 RMK T02000190 IEM_DS3505
ZBAA,2004-09-02 20:00,ZBAA 022000Z AUTO 17004KT 5SM 20/20 A2991 RMK T02000200 IEM_DS3505
ZBAA,2004-09-02 21:00,ZBAA 022100Z AUTO 02004KT 5SM 21/18 A2991 RMK 70004 SLP123 T02120182 52006 IEM_DS3505
ZBAA,2004-09-02 22:00,ZBAA 022200Z AUTO 01004KT 3SM 19/19 A2991 RMK T01900190 IEM_DS3505
ZBAA,2004-09-02 23:00,ZBAA 022300Z AUTO 33006KT 4SM 19/19 A2994 RMK T01900190 IEM_DS3505
ZBAA,2004-09-03 00:00,ZBAA 030000Z AUTO 07004KT 6SM 21/17 A2994 RMK 60012 70013 SLP132 T02070169 52009 IEM_DS3505
ZBAA,2004-09-03 01:00,ZBAA 030100Z AUTO 34006KT 4SM 20/20 A2994 RMK T02000200 IEM_DS3505
ZBAA,2004-09-03 02:00,ZBAA 030200Z AUTO 35004KT 4SM 21/20 A2994 RMK T02100200 IEM_DS3505
ZBAA,2004-09-03 03:00,ZBAA 030300Z AUTO 09006KT 9SM 22/16 A2994 RMK SLP136 T02150165 52004 IEM_DS3505
ZBAA,2004-09-03 04:00,ZBAA 030400Z AUTO 10004KT 4SM 21/19 A2994 RMK T02100190 IEM_DS3505
ZBAA,2004-09-03 05:00,ZBAA 030500Z AUTO 00000KT 2 1/2SM 20/20 A2994 RMK T02000200 IEM_DS3505
ZBAA,2004-09-03 06:00,ZBAA 030600Z AUTO 04004KT 6SM 21/18 A2994 RMK 60002 SLP132 T02070175 57004 IEM_DS3505
ZBAA,2004-09-03 07:00,ZBAA 030700Z AUTO 2SM 19/19 A2994 RMK T01900190 IEM_DS3505
ZBAA,2004-09-03 08:00,ZBAA 030800Z AUTO 2 1/2SM 19/19 A2991 RMK T01900190 IEM_DS3505
ZBAA,2004-09-03 09:00,ZBAA 030900Z AUTO 07006KT 6SM 20/17 A2991 RMK SLP125 T02010167 57007 IEM_DS3505
ZBAA,2004-09-03 10:00,ZBAA 031000Z AUTO 36002KT 2SM 19/19 A2991 RMK T01900190 IEM_DS3505
ZBAA,2004-09-03 11:00,ZBAA 031100Z AUTO 36002KT 1 1/4SM 19/19 A2991 RMK T01900190 IEM_DS3505
ZBAA,2004-09-03 12:00,ZBAA 031200Z AUTO 02002KT 5SM 20/17 A2994 RMK 60000 SLP130 T01990167 52005 IEM_DS3505
ZBAA,2004-09-03 13:00,ZBAA 031300Z AUTO 35004KT 1 1/4SM 19/19 A2994 RMK T01900190 IEM_DS3505
ZBAA,2004-09-03 14:00,ZBAA 031400Z AUTO 36002KT 1 1/4SM 19/19 A2994 RMK T01900190 IEM_DS3505
ZBAA,2004-09-03 15:00,ZBAA 031500Z AUTO 02004KT 4SM 20/17 A2991 RMK SLP127 T01990167 57003 IEM_DS3505
ZBAA,2004-09-03 16:00,ZBAA 031600Z AUTO 29004KT 1 1/4SM 19/19 A2991 RMK T01900190 IEM_DS3505
ZBAA,2004-09-03 17:00,ZBAA 031700Z AUTO 33002KT 1 1/4SM 18/18 A2991 RMK T01800180 IEM_DS3505
ZBAA,2004-09-03 18:00,ZBAA 031800Z AUTO 04002KT 5SM 19/17 A2991 RMK SLP123 T01930169 57004 IEM_DS3505
ZBAA,2004-09-03 19:00,ZBAA 031900Z AUTO 35002KT 1 1/4SM 17/17 A2991 RMK T01700170 IEM_DS3505
ZBAA,2004-09-03 20:00,ZBAA 032000Z AUTO 31002KT 1 1/4SM 17/17 A2991 RMK T01700170 IEM_DS3505
ZBAA,2004-09-03 21:00,ZBAA 032100Z AUTO 09002KT 5SM 18/16 A2988 RMK 70012 SLP121 T01810163 57002 IEM_DS3505
ZBAA,2004-09-03 22:00,ZBAA 032200Z AUTO 33004KT 1 1/4SM 16/16 A2991 RMK T01600160 IEM_DS3505
ZBAA,2004-09-03 23:00,ZBAA 032300Z AUTO 34004KT 2 1/2SM 18/18 A2991 RMK T01800180 IEM_DS3505
ZBAA,2004-09-04 00:00,ZBAA 040000Z AUTO 36002KT 5SM 21/17 A2991 RMK 70002 SLP126 T02070171 52005 IEM_DS3505
ZBAA,2004-09-04 01:00,ZBAA 040100Z AUTO 35004KT 5SM 21/20 A2991 RMK T02100200 IEM_DS3505
ZBAA,2004-09-04 02:00,ZBAA 040200Z AUTO 34004KT 6SM 24/20 A2991 RMK T02400200 IEM_DS3505
ZBAA,2004-09-04 03:00,ZBAA 040300Z AUTO 16002KT 6SM 25/16 A2991 RMK SLP122 T02490155 57004 IEM_DS3505
ZBAA,2004-09-04 04:00,ZBAA 040400Z AUTO 6SM 26/20 A2988 RMK T02600200 IEM_DS3505
ZBAA,2004-09-04 05:00,ZBAA 040500Z AUTO 6SM 28/20 A2988 RMK T02800200 IEM_DS3505
ZBAA,2004-09-04 06:00,ZBAA 040600Z AUTO 27006KT 7SM 28/17 A2985 RMK SLP102 T02780167 57020 IEM_DS3505
ZBAA,2004-09-04 07:00,ZBAA 040700Z AUTO 29/21 A2983 RMK T02900210 IEM_DS3505
ZBAA,2004-09-04 08:00,ZBAA 040800Z AUTO 18004KT 29/21 A2983 RMK T02900210 IEM_DS3505
ZBAA,2004-09-04 09:00,ZBAA 040900Z AUTO 20006KT 9SM 27/18 A2983 RMK SLP094 T02720177 57008 IEM_DS3505
ZBAA,2004-09-04 10:00,ZBAA 041000Z AUTO 16006KT 4SM 26/21 A2983 RMK T02600210 IEM_DS3505
ZBAA,2004-09-04 11:00,ZBAA 041100Z AUTO 16006KT 4SM 24/21 A2983 RMK T02400210 IEM_DS3505
ZBAA,2004-09-04 12:00,ZBAA 041200Z AUTO 18004KT 6SM 25/18 A2985 RMK SLP102 T02510183 52008 IEM_DS3505
ZBAA,2004-09-04 13:00,ZBAA 041300Z AUTO 18006KT 2 1/2SM 24/21 A2985 RMK T02400210 IEM_DS3505
ZBAA,2004-09-04 14:00,ZBAA 041400Z AUTO 16004KT 2 1/2SM 24/21 A2985 RMK T02400210 IEM_DS3505
ZBAA,2004-09-04 15:00,ZBAA 041500Z AUTO 00000KT 5SM 24/18 A2985 RMK SLP108 T02380185 52006 IEM_DS3505
ZBAA,2004-09-04 16:00,ZBAA 041600Z AUTO 08002KT 1 1/2SM 23/22 A2985 RMK T02300220 IEM_DS3505
ZBAA,2004-09-04 17:00,ZBAA 041700Z AUTO 1 1/2SM 22/22 A2985 RMK T02200220 IEM_DS3505
ZBAA,2004-09-04 18:00,ZBAA 041800Z AUTO 00000KT 5SM 22/19 A2988 RMK SLP112 T02240186 52004 IEM_DS3505
ZBAA,2004-09-04 21:00,ZBAA 042100Z AUTO 02004KT 3SM 22/20 A2988 RMK 70002 SLP113 T02230198 52001 IEM_DS3505
ZBAA,2004-09-04 22:00,ZBAA 042200Z AUTO 36012KT 1 1/4SM 21/21 A2988 RMK T02100210 IEM_DS3505
ZBAA,2004-09-04 23:00,ZBAA 042300Z AUTO 34004KT 2 1/2SM 22/21 A2985 RMK T02200210 IEM_DS3505
ZBAA,2004-09-05 00:00,ZBAA 050000Z AUTO 22002KT 4SM 25/19 A2988 RMK 60002 70002 SLP113 T02530187 54000 IEM_DS3505
ZBAA,2004-09-05 01:00,ZBAA 050100Z AUTO 32008KT 3SM 25/22 A2988 RMK T02500220 IEM_DS3505
ZBAA,2004-09-05 02:00,ZBAA 050200Z AUTO 01008KT 4SM 26/22 A2991 RMK T02600220 IEM_DS3505
ZBAA,2004-09-05 03:00,ZBAA 050300Z AUTO 29004KT 6SM 27/18 A2991 RMK SLP120 T02720179 52007 IEM_DS3505
ZBAA,2004-09-05 04:00,ZBAA 050400Z AUTO 31004KT 5SM 28/21 A2988 RMK T02800210 IEM_DS3505
ZBAA,2004-09-05 05:00,ZBAA 050500Z AUTO 34004KT 6SM 29/21 A2988 RMK T02900210 IEM_DS3505
ZBAA,2004-09-05 06:00,ZBAA 050600Z AUTO 04004KT 7SM 29/17 A2988 RMK SLP110 T02860172 57010 IEM_DS3505
ZBAA,2004-09-05 07:00,ZBAA 050700Z AUTO 01006KT 6SM 29/16 A2985 RMK T02900160 IEM_DS3505
ZBAA,2004-09-05 08:00,ZBAA 050800Z AUTO 36004KT 6SM 30/17 A2985 RMK T03000170 IEM_DS3505
ZBAA,2004-09-05 09:00,ZBAA 050900Z AUTO 04004KT 19SM 29/12 A2985 RMK SLP104 T02910125 57005 IEM_DS3505
ZBAA,2004-09-05 10:00,ZBAA 051000Z AUTO 13004KT 6SM 27/19 A2985 RMK T02700190 IEM_DS3505
ZBAA,2004-09-05 11:00,ZBAA 051100Z AUTO 00000KT 6SM 25/19 A2985 RMK T02500190 IEM_DS3505
ZBAA,2004-09-05 12:00,ZBAA 051200Z AUTO 00000KT 9SM 23/16 A2988 RMK SLP109 T02310157 52004 IEM_DS3505
ZBAA,2004-09-05 13:00,ZBAA 051300Z AUTO 00000KT 6SM 22/20 A2988 RMK T02200200 IEM_DS3505
ZBAA,2004-09-05 14:00,ZBAA 051400Z AUTO 36002KT 6SM 21/20 A2988 RMK T02100200 IEM_DS3505
ZBAA,2004-09-05 15:00,ZBAA 051500Z AUTO 00000KT 7SM 22/17 A2988 RMK SLP113 T02150167 52004 IEM_DS3505
ZBAA,2004-09-05 16:00,ZBAA 051600Z AUTO 00000KT 4SM 21/21 A2988 RMK T02100210 IEM_DS3505
ZBAA,2004-09-05 17:00,ZBAA 051700Z AUTO 01002KT 3SM 20/19 A2985 RMK T02000190 IEM_DS3505
ZBAA,2004-09-05 18:00,ZBAA 051800Z AUTO 07002KT 5SM 22/19 A2985 RMK SLP107 T02170189 57006 IEM_DS3505
ZBAA,2004-09-05 19:00,ZBAA 051900Z AUTO 36002KT 3SM 20/19 A2985 RMK T02000190 IEM_DS3505
ZBAA,2004-09-05 20:00,ZBAA 052000Z AUTO 00000KT 3SM 20/19 A2985 RMK T02000190 IEM_DS3505
ZBAA,2004-09-05 21:00,ZBAA 052100Z AUTO 07004KT 3SM 21/19 A2985 RMK 70000 SLP100 T02110189 57007 IEM_DS3505
ZBAA,2004-09-05 22:00,ZBAA 052200Z AUTO 00000KT 2 1/2SM 20/20 A2983 RMK T02000200 IEM_DS3505
ZBAA,2004-09-05 23:00,ZBAA 052300Z AUTO 25002KT 2 1/2SM 21/20 A2983 RMK T02100200 IEM_DS3505
ZBAA,2004-09-06 00:00,ZBAA 060000Z AUTO 34002KT 1SM 21/20 A2985 RMK 60000 SLP099 T02130196 57001 IEM_DS3505
ZBAA,2004-09-06 01:00,ZBAA 060100Z AUTO 35010KT 1 1/4SM 20/20 A2983 RMK T02000200 IEM_DS3505
ZBAA,2004-09-06 02:00,ZBAA 060200Z AUTO 1 1/2SM 22/20 A2983 RMK T02200200 IEM_DS3505
ZBAA,2004-09-06 03:00,ZBAA 060300Z AUTO 07008KT 6SM 24/18 A2980 RMK SLP086 T02440176 57013 IEM_DS3505
ZBAA,2004-09-06 04:00,ZBAA 060400Z AUTO 01006KT 4SM 26/22 A2980 RMK T02600220 IEM_DS3505
ZBAA,2004-09-06 05:00,ZBAA 060500Z AUTO 6SM 27/20 A2977 RMK T02700200 IEM_DS3505
ZBAA,2004-09-06 06:00,ZBAA 060600Z AUTO 07008KT 12SM 27/15 A2977 RMK SLP068 T02660150 57018 IEM_DS3505
ZBAA,2004-09-06 07:00,ZBAA 060700Z AUTO 04006KT 6SM 26/17 A2977 RMK T02600170 IEM_DS3505
ZBAA,2004-09-06 08:00,ZBAA 060800Z AUTO 7SM 26/17 A2974 RMK T02600170 IEM_DS3505
ZBAA,2004-09-06 09:00,ZBAA 060900Z AUTO 34014G33KT 12SM 19/14 A2980 RMK SLP093 T01890135 52025 IEM_DS3505
ZBAA,2004-09-06 10:00,ZBAA 061000Z AUTO 11002KT 7SM 18/18 A2980 RMK T01800180 IEM_DS3505
ZBAA,2004-09-06 11:00,ZBAA 061100Z AUTO 31010KT 6SM 18/17 A2983 RMK T01800170 IEM_DS3505
ZBAA,2004-09-06 12:00,ZBAA 061200Z AUTO 36004KT 9SM 20/13 A2985 RMK 60008 SLP096 T02000132 52003 IEM_DS3505
ZBAA,2004-09-06 13:00,ZBAA 061300Z AUTO 34008KT 6SM 18/17 A2985 RMK T01800170 IEM_DS3505
ZBAA,2004-09-06 14:00,ZBAA 061400Z AUTO 01008KT 6SM 18/16 A2985 RMK T01800160 IEM_DS3505
ZBAA,2004-09-06 15:00,ZBAA 061500Z AUTO 02008G16KT 12SM 19/12 A2988 RMK SLP110 T01920120 52014 IEM_DS3505
ZBAA,2004-09-06 16:00,ZBAA 061600Z AUTO 36006KT 6SM 16/14 A2988 RMK T01600140 IEM_DS3505
ZBAA,2004-09-06 17:00,ZBAA 061700Z AUTO 36006KT 6SM 16/13 A2988 RMK T01600130 IEM_DS3505
ZBAA,2004-09-06 18:00,ZBAA 061800Z AUTO 02004KT 12SM 19/07 A2991 RMK SLP119 T01880070 52009 IEM_DS3505
ZBAA,2004-09-06 19:00,ZBAA 061900Z AUTO 32006KT 6SM 14/10 A2991 RMK T01400100 IEM_DS3505
ZBAA,2004-09-06 20:00,ZBAA 062000Z AUTO 33004KT 6SM 14/10 A2991 RMK T01400100 IEM_DS3505
ZBAA,2004-09-06 21:00,ZBAA 062100Z AUTO 34006KT 12SM 19/05 A2991 RMK 70009 SLP121 T01910052 52002 IEM_DS3505
ZBAA,2004-09-06 22:00,ZBAA 062200Z AUTO 34004KT 6SM 14/10 A2991 RMK T01400100 IEM_DS3505
ZBAA,2004-09-06 23:00,ZBAA 062300Z AUTO 36004KT 6SM 16/12 A2991 RMK T01600120 IEM_DS3505
ZBAA,2004-09-07 00:00,ZBAA 070000Z AUTO 34008KT 19SM 22/06 A2991 RMK 70009 SLP125 T02170056 52004 IEM_DS3505
ZBAA,2004-09-07 01:00,ZBAA 070100Z AUTO 31014KT 6SM 23/11 A2991 RMK T02300110 IEM_DS3505
ZBAA,2004-09-07 02:00,ZBAA 070200Z AUTO 31014KT 6SM 25/11 A2991 RMK T02500110 IEM_DS3505
ZBAA,2004-09-07 03:00,ZBAA 070300Z AUTO 02010KT 19SM 26/05 A2988 RMK SLP116 T02550046 57009 IEM_DS3505
ZBAA,2004-09-07 04:00,ZBAA 070400Z AUTO 33008KT 6SM 28/12 A2985 RMK T02800120 IEM_DS3505
ZBAA,2004-09-07 05:00,ZBAA 070500Z AUTO 35010KT 6SM 29/12 A2985 RMK T02900120 IEM_DS3505
ZBAA,2004-09-07 06:00,ZBAA 070600Z AUTO 34010KT 19SM 28/05 RMK SLP096 T02820051 57020 IEM_DS3505
ZBAA,2004-09-07 07:00,ZBAA 070700Z AUTO 29008KT 6SM 30/12 A2980 RMK T03000120 IEM_DS3505
ZBAA,2004-09-07 08:00,ZBAA 070800Z AUTO 28010KT 6SM 30/11 A2980 RMK T03000110 IEM_DS3505
ZBAA,2004-09-07 09:00,ZBAA 070900Z AUTO 29010KT 19SM 29/06 A2977 RMK SLP079 T02910065 57017 IEM_DS3505
ZBAA,2004-09-07 10:00,ZBAA 071000Z AUTO 27006KT 6SM 28/12 A2977 RMK T02800120 IEM_DS3505
ZBAA,2004-09-07 11:00,ZBAA 071100Z AUTO 27004KT 6SM 25/11 A2980 RMK T02500110 IEM_DS3505
ZBAA,2004-09-07 12:00,ZBAA 071200Z AUTO 25004KT 16SM 23/11 A2980 RMK SLP092 T02330107 52013 IEM_DS3505
ZBAA,2004-09-07 13:00,ZBAA 071300Z AUTO 26008KT 6SM 23/12 A2983 RMK T02300120 IEM_DS3505
ZBAA,2004-09-07 14:00,ZBAA 071400Z AUTO 31006KT 6SM 20/11 A2983 RMK T02000110 IEM_DS3505
ZBAA,2004-09-07 15:00,ZBAA 071500Z AUTO 29004KT 16SM 20/12 A2985 RMK SLP105 T02050122 52013 IEM_DS3505
ZBAA,2004-09-07 16:00,ZBAA 071600Z AUTO 30004KT 6SM 18/11 A2985 RMK T01800110 IEM_DS3505
ZBAA,2004-09-07 17:00,ZBAA 071700Z AUTO 32004KT 6SM 17/11 A2985 RMK T01700110 IEM_DS3505
ZBAA,2004-09-07 18:00,ZBAA 071800Z AUTO 00000KT 16SM 18/11 A2985 RMK SLP104 T01750106 57001 IEM_DS3505
ZBAA,2004-09-07 19:00,ZBAA 071900Z AUTO 32004KT 6SM 15/11 A2985 RMK T01500110 IEM_DS3505
ZBAA,2004-09-07 20:00,ZBAA 072000Z AUTO 34006KT 6SM 14/11 A2985 RMK T01400110 IEM_DS3505
ZBAA,2004-09-07 21:00,ZBAA 072100Z AUTO 00000KT 16SM 17/09 A2985 RMK SLP103 T01690086 57001 IEM_DS3505
ZBAA,2004-09-07 22:00,ZBAA 072200Z AUTO 33004KT 6SM 12/11 A2985 RMK T01200110 IEM_DS3505
ZBAA,2004-09-07 23:00,ZBAA 072300Z AUTO 35006KT 6SM 15/13 A2985 RMK T01500130 IEM_DS3505
ZBAA,2004-09-08 00:00,ZBAA 080000Z AUTO 07002KT 12SM A2985 RMK SLP109 52006 IEM_DS3505
ZBAA,2004-09-08 01:00,ZBAA 080100Z AUTO 36006KT 6SM 22/14 A2988 RMK T02200140 IEM_DS3505
ZBAA,2004-09-08 02:00,ZBAA 080200Z AUTO 36004KT 6SM 25/14 A2985 RMK T02500140 IEM_DS3505
ZBAA,2004-09-08 03:00,ZBAA 080300Z AUTO 27006KT 16SM 29/06 A2985 RMK SLP105 T02870062 57004 IEM_DS3505
ZBAA,2004-09-08 04:00,ZBAA 080400Z AUTO 23006KT 6SM 29/12 A2983 RMK T02900120 IEM_DS3505
ZBAA,2004-09-08 05:00,ZBAA 080500Z AUTO 20004KT 6SM 31/13 A2980 RMK T03100130 IEM_DS3505
ZBAA,2004-09-08 06:00,ZBAA 080600Z AUTO 20004KT 19SM 31/04 A2980 RMK SLP080 T03090039 57025 IEM_DS3505
ZBAA,2004-09-08 07:00,ZBAA 080700Z AUTO 19004KT 6SM 32/09 A2977 RMK T03200090 IEM_DS3505
ZBAA,2004-09-08 08:00,ZBAA 080800Z AUTO 18006KT 6SM 31/10 A2974 RMK T03100100 IEM_DS3505
ZBAA,2004-09-08 09:00,ZBAA 080900Z AUTO 20010KT 19SM 29/07 A2974 RMK SLP071 T02930073 57009 IEM_DS3505
ZBAA,2004-09-08 10:00,ZBAA 081000Z AUTO 19006KT 6SM 27/13 A2974 RMK T02700130 IEM_DS3505
ZBAA,2004-09-08 11:00,ZBAA 081100Z AUTO 17006KT 6SM 25/11 A2977 RMK T02500110 IEM_DS3505
ZBAA,2004-09-08 12:00,ZBAA 081200Z AUTO 22006KT 16SM 25/11 A2980 RMK SLP087 T02460112 52016 IEM_DS3505
ZBAA,2004-09-08 13:00,ZBAA 081300Z AUTO 18006KT 6SM 22/14 A2980 RMK T02200140 IEM_DS3505
ZBAA,2004-09-08 14:00,ZBAA 081400Z AUTO 18004KT 6SM 21/15 A2980 RMK T02100150 IEM_DS3505
ZBAA,2004-09-08 15:00,ZBAA 081500Z AUTO 22006KT 16SM 22/13 A2980 RMK SLP089 T02170131 52003 IEM_DS3505
ZBAA,2004-09-08 16:00,ZBAA 081600Z AUTO 05002KT 6SM 19/16 A2980 RMK T01900160 IEM_DS3505
ZBAA,2004-09-08 17:00,ZBAA 081700Z AUTO 06002KT 6SM 18/16 A2980 RMK T01800160 IEM_DS3505
ZBAA,2004-09-08 18:00,ZBAA 081800Z AUTO 00000KT 9SM 19/13 A2983 RMK SLP088 T01860126 57002 IEM_DS3505
ZBAA,2004-09-08 19:00,ZBAA 081900Z AUTO 00000KT 4SM 16/15 A2983 RMK T01600150 IEM_DS3505
ZBAA,2004-09-08 20:00,ZBAA 082000Z AUTO 6SM 15/15 A2983 RMK T01500150 IEM_DS3505
ZBAA,2004-09-08 21:00,ZBAA 082100Z AUTO 04002KT 9SM 18/14 A2985 RMK SLP103 T01750136 52015 IEM_DS3505
ZBAA,2004-09-08 22:00,ZBAA 082200Z AUTO 35006KT 6SM 15/14 A2988 RMK T01500140 IEM_DS3505
ZBAA,2004-09-08 23:00,ZBAA 082300Z AUTO 36004KT 6SM 17/15 A2991 RMK T01700150 IEM_DS3505
ZBAA,2004-09-09 00:00,ZBAA 090000Z AUTO 02006KT 12SM 22/11 A2991 RMK SLP126 T02250106 52023 IEM_DS3505
ZBAA,2004-09-09 01:00,ZBAA 090100Z AUTO 36010KT 6SM 24/14 A2994 RMK T02400140 IEM_DS3505
ZBAA,2004-09-09 02:00,ZBAA 090200Z AUTO 02010KT 6SM 26/15 A2997 RMK T02600150 IEM_DS3505
ZBAA,2004-09-09 03:00,ZBAA 090300Z AUTO 02008KT 19SM 27/10 A2997 RMK SLP142 T02660095 52016 IEM_DS3505
ZBAA,2004-09-09 04:00,ZBAA 090400Z AUTO 6SM 28/14 A2997 RMK T02800140 IEM_DS3505
ZBAA,2004-09-09 05:00,ZBAA 090500Z AUTO 6SM 29/13 A2994 RMK T02900130 IEM_DS3505
ZBAA,2004-09-09 06:00,ZBAA 090600Z AUTO 11006KT 19SM 29/10 A2994 RMK SLP138 T02880105 57004 IEM_DS3505
ZBAA,2004-09-09 07:00,ZBAA 090700Z AUTO 6SM 30/14 A2994 RMK T03000140 IEM_DS3505
ZBAA,2004-09-09 08:00,ZBAA 090800Z AUTO 13008KT 6SM 29/16 A2994 RMK T02900160 IEM_DS3505
ZBAA,2004-09-09 09:00,ZBAA 090900Z AUTO 09008KT 19SM 28/13 A2997 RMK SLP142 T02750127 52004 IEM_DS3505
ZBAA,2004-09-09 10:00,ZBAA 091000Z AUTO 12006KT 6SM 26/18 A2997 RMK T02600180 IEM_DS3505
ZBAA,2004-09-09 11:00,ZBAA 091100Z AUTO 11008KT 6SM 24/19 A3000 RMK T02400190 IEM_DS3505
ZBAA,2004-09-09 12:00,ZBAA 091200Z AUTO 11003KT 9SM 23/17 A3003 RMK SLP171 T02320167 52029 IEM_DS3505
ZBAA,2004-09-09 13:00,ZBAA 091300Z AUTO 16004KT 6SM 21/19 A3006 RMK T02100190 IEM_DS3505
ZBAA,2004-09-09 14:00,ZBAA 091400Z AUTO 17004KT 6SM 21/19 A3009 RMK T02100190 IEM_DS3505
ZBAA,2004-09-09 15:00,ZBAA 091500Z AUTO 07002KT 7SM 21/17 A3012 RMK SLP190 T02100172 52019 IEM_DS3505
ZBAA,2004-09-09 16:00,ZBAA 091600Z AUTO 00000KT 6SM 20/19 A3012 RMK T02000190 IEM_DS3505
ZBAA,2004-09-09 17:00,ZBAA 091700Z AUTO 09002KT 5SM 19/18 A3012 RMK T01900180 IEM_DS3505
ZBAA,2004-09-09 18:00,ZBAA 091800Z AUTO 07006KT 9SM 20/15 A3012 RMK SLP197 T02000154 52007 IEM_DS3505
ZBAA,2004-09-09 19:00,ZBAA 091900Z AUTO 00000KT 4SM 18/17 A3015 RMK T01800170 IEM_DS3505
ZBAA,2004-09-09 20:00,ZBAA 092000Z AUTO 27004KT 4SM 17/16 A3015 RMK T01700160 IEM_DS3505
ZBAA,2004-09-09 21:00,ZBAA 092100Z AUTO 04002KT 9SM 19/15 A3015 RMK SLP206 T01900151 52009 IEM_DS3505
ZBAA,2004-09-09 22:00,ZBAA 092200Z AUTO 00000KT 2 1/2SM 17/17 A3018 RMK T01700170 IEM_DS3505
ZBAA,2004-09-09 23:00,ZBAA 092300Z AUTO 00000KT 2 1/2SM 18/18 A3018 RMK T01800180 IEM_DS3505
ZBAA,2004-09-10 00:00,ZBAA 100000Z AUTO 07004KT 7SM 22/15 A3018 RMK SLP218 T02160150 52012 IEM_DS3505
ZBAA,2004-09-10 01:00,ZBAA 100100Z AUTO 3SM 23/18 A3021 RMK T02300180 IEM_DS3505
ZBAA,2004-09-10 02:00,ZBAA 100200Z AUTO 11004KT 6SM 25/18 A3021 RMK T02500180 IEM_DS3505
ZBAA,2004-09-10 03:00,ZBAA 100300Z AUTO 11006KT 19SM 25/15 A3021 RMK SLP221 T02480152 52003 IEM_DS3505
ZBAA,2004-09-10 04:00,ZBAA 100400Z AUTO 6SM 27/17 A3018 RMK T02700170 IEM_DS3505
ZBAA,2004-09-10 05:00,ZBAA 100500Z AUTO 14006KT 6SM 27/17 A3015 RMK T02700170 IEM_DS3505
ZBAA,2004-09-10 06:00,ZBAA 100600Z AUTO 09008KT 19SM 28/14 A3015 RMK SLP201 T02750135 57020 IEM_DS3505
ZBAA,2004-09-10 07:00,ZBAA 100700Z AUTO 15008KT 6SM 28/16 A3012 RMK T02800160 IEM_DS3505
ZBAA,2004-09-10 08:00,ZBAA 100800Z AUTO 13006KT 6SM 28/16 A3012 RMK T02800160 IEM_DS3505
ZBAA,2004-09-10 09:00,ZBAA 100900Z AUTO 11006KT 19SM 27/13 A3012 RMK SLP192 T02720132 57009 IEM_DS3505
ZBAA,2004-09-10 10:00,ZBAA 101000Z AUTO 13006KT 6SM 25/17 A3012 RMK T02500170 IEM_DS3505
ZBAA,2004-09-10 11:00,ZBAA 101100Z AUTO 14004KT 6SM 23/17 A3012 RMK T02300170 IEM_DS3505
ZBAA,2004-09-10 12:00,ZBAA 101200Z AUTO 11006KT 12SM 24/14 A3015 RMK SLP201 T02390143 52009 IEM_DS3505
ZBAA,2004-09-10 13:00,ZBAA 101300Z AUTO 13004KT 6SM 21/18 A3015 RMK T02100180 IEM_DS3505
ZBAA,2004-09-10 14:00,ZBAA 101400Z AUTO 13004KT 4SM 20/18 A3015 RMK T02000180 IEM_DS3505
ZBAA,2004-09-10 15:00,ZBAA 101500Z AUTO 09002KT 5SM 21/18 A3018 RMK SLP209 T02090175 52008 IEM_DS3505
ZBAA,2004-09-10 16:00,ZBAA 101600Z AUTO 00000KT 2 1/2SM 19/18 A3018 RMK T01900180 IEM_DS3505
ZBAA,2004-09-10 17:00,ZBAA 101700Z AUTO 00000KT 2 1/2SM 18/17 A3018 RMK T01800170 IEM_DS3505
ZBAA,2004-09-10 18:00,ZBAA 101800Z AUTO 09006KT 4SM 19/16 A3018 RMK SLP213 T01940164 52004 IEM_DS3505
ZBAA,2004-09-10 19:00,ZBAA 101900Z AUTO 12002KT 3SM 17/16 A3018 RMK T01700160 IEM_DS3505
ZBAA,2004-09-10 20:00,ZBAA 102000Z AUTO 00000KT 2 1/2SM 17/17 A3015 RMK T01700170 IEM_DS3505
ZBAA,2004-09-10 21:00,ZBAA 102100Z AUTO 09006KT 4SM 18/13 A3015 RMK SLP207 T01820131 57006 IEM_DS3505
ZBAA,2004-09-10 22:00,ZBAA 102200Z AUTO 36002KT 2SM 17/17 A3018 RMK T01700170 IEM_DS3505
ZBAA,2004-09-10 23:00,ZBAA 102300Z AUTO 36004KT 1 1/2SM 18/18 A3018 RMK T01800180 IEM_DS3505
ZBAA,2004-09-11 00:00,ZBAA 110000Z AUTO 09006KT 5SM 20/14 A3021 RMK SLP219 T02050139 52012 IEM_DS3505
ZBAA,2004-09-11 01:00,ZBAA 110100Z AUTO 11006KT 5SM 22/16 A3021 RMK T02200160 IEM_DS3505
ZBAA,2004-09-11 02:00,ZBAA 110200Z AUTO 12004KT 5SM 23/18 A3021 RMK T02300180 IEM_DS3505
ZBAA,2004-09-11 03:00,ZBAA 110300Z AUTO 04004KT 6SM 25/16 A3018 RMK SLP216 T02470159 57003 IEM_DS3505
ZBAA,2004-09-11 04:00,ZBAA 110400Z AUTO 5SM 26/19 A3018 RMK T02600190 IEM_DS3505
ZBAA,2004-09-11 05:00,ZBAA 110500Z AUTO 5SM 27/19 A3015 RMK T02700190 IEM_DS3505
ZBAA,2004-09-11 06:00,ZBAA 110600Z AUTO 20002KT 7SM 27/14 A3012 RMK SLP192 T02690143 57024 IEM_DS3505
ZBAA,2004-09-11 07:00,ZBAA 110700Z AUTO 15004KT 7SM 28/17 A3009 RMK T02800170 IEM_DS3505
ZBAA,2004-09-11 08:00,ZBAA 110800Z AUTO 14006KT 7SM 27/17 A3006 RMK T02700170 IEM_DS3505
ZBAA,2004-09-11 09:00,ZBAA 110900Z AUTO 16004KT 9SM 27/14 A3006 RMK SLP177 T02680135 57015 IEM_DS3505
ZBAA,2004-09-11 10:00,ZBAA 111000Z AUTO 12006KT 6SM 25/17 A3006 RMK T02500170 IEM_DS3505
ZBAA,2004-09-11 11:00,ZBAA 111100Z AUTO 13004KT 4SM 23/18 A3006 RMK T02300180 IEM_DS3505
ZBAA,2004-09-11 12:00,ZBAA 111200Z AUTO 16004KT 7SM 24/14 A3006 RMK SLP180 T02380137 52003 IEM_DS3505
ZBAA,2004-09-11 13:00,ZBAA 111300Z AUTO 15002KT 5SM 21/18 A3009 RMK T02100180 IEM_DS3505
ZBAA,2004-09-11 14:00,ZBAA 111400Z AUTO 17004KT 4SM 20/17 A3009 RMK T02000170 IEM_DS3505
ZBAA,2004-09-11 15:00,ZBAA 111500Z AUTO 25002KT 7SM 20/13 A3009 RMK SLP187 T02040134 52007 IEM_DS3505
ZBAA,2004-09-11 16:00,ZBAA 111600Z AUTO 00000KT 2 1/2SM 19/17 A3009 RMK T01900170 IEM_DS3505
ZBAA,2004-09-11 17:00,ZBAA 111700Z AUTO 05002KT 2 1/2SM 18/17 A3009 RMK T01800170 IEM_DS3505
ZBAA,2004-09-11 18:00,ZBAA 111800Z AUTO 25004KT 7SM 19/14 A3006 RMK SLP176 T01910137 57011 IEM_DS3505
ZBAA,2004-09-11 19:00,ZBAA 111900Z AUTO 00000KT 2 1/2SM 17/16 A3006 RMK T01700160 IEM_DS3505
ZBAA,2004-09-11 20:00,ZBAA 112000Z AUTO 10002KT 2SM 17/16 A3006 RMK T01700160 IEM_DS3505
ZBAA,2004-09-11 21:00,ZBAA 112100Z AUTO 00000KT 7SM 17/14 A3006 RMK SLP175 T01710140 57001 IEM_DS3505
ZBAA,2004-09-11 22:00,ZBAA 112200Z AUTO 01002KT 1 1/2SM 15/15 A3006 RMK T01500150 IEM_DS3505
ZBAA,2004-09-11 23:00,ZBAA 112300Z AUTO 35006KT 2 1/2SM 16/16 A3006 RMK T01600160 IEM_DS3505
ZBAA,2004-09-12 00:00,ZBAA 120000Z AUTO 02002KT 5SM 20/15 A3006 RMK SLP175 T02000148 54000 IEM_DS3505
ZBAA,2004-09-12 01:00,ZBAA 120100Z AUTO 01006KT 3SM 21/17 A3006 RMK T02100170 IEM_DS3505
ZBAA,2004-09-12 02:00,ZBAA 120200Z AUTO 4SM 23/18 A3006 RMK T02300180 IEM_DS3505
ZBAA,2004-09-12 03:00,ZBAA 120300Z AUTO 36004KT 6SM 25/15 A3003 RMK SLP166 T02520152 57009 IEM_DS3505
ZBAA,2004-09-12 04:00,ZBAA 120400Z AUTO 5SM 27/18 A3000 RMK T02700180 IEM_DS3505
ZBAA,2004-09-12 05:00,ZBAA 120500Z AUTO 24004KT 5SM 28/16 A3000 RMK T02800160 IEM_DS3505
ZBAA,2004-09-12 06:00,ZBAA 120600Z AUTO 29004KT 7SM 28/12 A2997 RMK SLP146 T02820117 57020 IEM_DS3505
ZBAA,2004-09-12 07:00,ZBAA 120700Z AUTO 6SM 29/15 A2997 RMK T02900150 IEM_DS3505
ZBAA,2004-09-12 08:00,ZBAA 120800Z AUTO 18004KT 6SM 29/14 A2997 RMK T02900140 IEM_DS3505
ZBAA,2004-09-12 09:00,ZBAA 120900Z AUTO 22006KT 9SM 28/13 A2997 RMK SLP142 T02820133 57004 IEM_DS3505
ZBAA,2004-09-12 10:00,ZBAA 121000Z AUTO 18002KT 6SM 26/11 A2997 RMK T02600110 IEM_DS3505
ZBAA,2004-09-12 11:00,ZBAA 121100Z AUTO 14004KT 6SM 23/13 A2997 RMK T02300130 IEM_DS3505
ZBAA,2004-09-12 12:00,ZBAA 121200Z AUTO 25004KT 7SM 24/15 A3000 RMK SLP157 T02350148 52015 IEM_DS3505
ZBAA,2004-09-12 13:00,ZBAA 121300Z AUTO 01002KT 4SM 21/16 A3003 RMK T02100160 IEM_DS3505
ZBAA,2004-09-12 14:00,ZBAA 121400Z AUTO 00000KT 4SM 20/16 A3003 RMK T02000160 IEM_DS3505
ZBAA,2004-09-12 15:00,ZBAA 121500Z AUTO 25002KT 5SM 20/15 A3003 RMK SLP168 T01970149 52011 IEM_DS3505
ZBAA,2004-09-12 16:00,ZBAA 121600Z AUTO 34002KT 4SM 19/16 A3003 RMK T01900160 IEM_DS3505
ZBAA,2004-09-12 17:00,ZBAA 121700Z AUTO 35004KT 4SM 17/15 A3003 RMK T01700150 IEM_DS3505
ZBAA,2004-09-12 18:00,ZBAA 121800Z AUTO 00000KT 4SM 17/15 A3006 RMK SLP169 T01730146 52001 IEM_DS3505
ZBAA,2004-09-12 19:00,ZBAA 121900Z AUTO 34002KT 4SM 15/14 A3006 RMK T01500140 IEM_DS3505
ZBAA,2004-09-12 20:00,ZBAA 122000Z AUTO 34004KT 4SM 14/13 A3006 RMK T01400130 IEM_DS3505
ZBAA,2004-09-12 21:00,ZBAA 122100Z AUTO 04004KT 5SM 16/13 A3006 RMK SLP172 T01640133 52003 IEM_DS3505
ZBAA,2004-09-12 22:00,ZBAA 122200Z AUTO 34006KT 3SM 14/14 A3006 RMK T01400140 IEM_DS3505
ZBAA,2004-09-12 23:00,ZBAA 122300Z AUTO 35006KT 4SM 15/14 A3009 RMK T01500140 IEM_DS3505
ZBAA,2004-09-13 00:00,ZBAA 130000Z AUTO 07002KT 12SM A3009 RMK SLP109 52006 IEM_DS3505
ZBAA,2004-09-13 01:00,ZBAA 130100Z AUTO 01006KT 6SM 21/15 A3009 RMK T02100150 IEM_DS3505
ZBAA,2004-09-13 02:00,ZBAA 130200Z AUTO 6SM 23/15 A3009 RMK T02300150 IEM_DS3505
ZBAA,2004-09-13 03:00,ZBAA 130300Z AUTO 27006KT 16SM 29/ A3009 RMK SLP105 57004 IEM_DS3505
ZBAA,2004-09-13 04:00,ZBAA 130400Z AUTO 27/17 A3009 RMK T02700170 IEM_DS3505
ZBAA,2004-09-13 05:00,ZBAA 130500Z AUTO 17004KT 6SM 29/17 A3006 RMK T02900170 IEM_DS3505
ZBAA,2004-09-13 06:00,ZBAA 130600Z AUTO 20004KT 19SM 31/ A3006 RMK SLP080 57025 IEM_DS3505
ZBAA,2004-09-13 07:00,ZBAA 130700Z AUTO 10004KT 6SM 29/16 A3003 RMK T02900160 IEM_DS3505
ZBAA,2004-09-13 08:00,ZBAA 130800Z AUTO 16004KT 6SM 29/14 A3003 RMK T02900140 IEM_DS3505
ZBAA,2004-09-13 09:00,ZBAA 130900Z AUTO 20010KT 19SM 29/07 A3003 RMK SLP071 T02930073 57009 IEM_DS3505
ZBAA,2004-09-13 10:00,ZBAA 131000Z AUTO 19006KT 6SM 26/16 A3003 RMK T02600160 IEM_DS3505
ZBAA,2004-09-13 11:00,ZBAA 131100Z AUTO 18006KT 6SM 25/17 A3003 RMK T02500170 IEM_DS3505
ZBAA,2004-09-13 12:00,ZBAA 131200Z AUTO 22002KT 7SM 24/14 A3006 RMK SLP172 T02430144 52007 IEM_DS3505
ZBAA,2004-09-13 13:00,ZBAA 131300Z AUTO 18006KT 5SM 24/16 A3006 RMK T02400160 IEM_DS3505
ZBAA,2004-09-13 14:00,ZBAA 131400Z AUTO 19004KT 6SM 22/16 A3006 RMK T02200160 IEM_DS3505
ZBAA,2004-09-13 15:00,ZBAA 131500Z AUTO 00000KT 6SM 22/15 A3006 RMK SLP173 T02180154 52001 IEM_DS3505
ZBAA,2004-09-13 16:00,ZBAA 131600Z AUTO 00000KT 2SM 20/18 A3006 RMK T02000180 IEM_DS3505
ZBAA,2004-09-13 17:00,ZBAA 131700Z AUTO 36002KT 2SM 19/17 A3006 RMK T01900170 IEM_DS3505
ZBAA,2004-09-13 18:00,ZBAA 131800Z AUTO 00000KT 6SM 21/16 A3006 RMK SLP167 T02140157 57006 IEM_DS3505
ZBAA,2004-09-13 19:00,ZBAA 131900Z AUTO 00000KT 2 1/2SM 19/17 A3003 RMK T01900170 IEM_DS3505
ZBAA,2004-09-13 20:00,ZBAA 132000Z AUTO 00000KT 2SM 19/18 A3003 RMK T01900180 IEM_DS3505
ZBAA,2004-09-13 21:00,ZBAA 132100Z AUTO 07006KT 4SM 20/17 A3000 RMK SLP154 T01990169 57013 IEM_DS3505
ZBAA,2004-09-13 22:00,ZBAA 132200Z AUTO 01002KT 2SM 18/17 A3000 RMK T01800170 IEM_DS3505
ZBAA,2004-09-13 23:00,ZBAA 132300Z AUTO 36002KT 2 1/2SM 19/17 A3000 RMK T01900170 IEM_DS3505
ZBAA,2004-09-14 00:00,ZBAA 140000Z AUTO 07004KT 2 1/2SM 20/17 A3000 RMK SLP159 T02030173 52005 IEM_DS3505
ZBAA,2004-09-14 01:00,ZBAA 140100Z AUTO 00000KT 3SM 21/18 A3003 RMK T02100180 IEM_DS3505
ZBAA,2004-09-14 02:00,ZBAA 140200Z AUTO 15004KT 3SM 21/19 A3003 RMK T02100190 IEM_DS3505
ZBAA,2004-09-14 03:00,ZBAA 140300Z AUTO 07004KT 4SM 21/17 A3000 RMK SLP157 T02130173 57002 IEM_DS3505
ZBAA,2004-09-14 04:00,ZBAA 140400Z AUTO 12006KT 2 1/2SM 23/19 A3000 RMK T02300190 IEM_DS3505
ZBAA,2004-09-14 05:00,ZBAA 140500Z AUTO 10008KT 2 1/2SM 22/19 A3000 RMK T02200190 IEM_DS3505
ZBAA,2004-09-14 06:00,ZBAA 140600Z AUTO 09006KT 2 1/2SM 21/18 A3000 RMK 60008 SLP148 T02080182 57009 IEM_DS3505
ZBAA,2004-09-14 07:00,ZBAA 140700Z AUTO 08004KT 4SM 20/18 A3000 RMK T02000180 IEM_DS3505
ZBAA,2004-09-14 08:00,ZBAA 140800Z AUTO 25004KT 2SM 18/17 A3000 RMK T01800170 IEM_DS3505
ZBAA,2004-09-14 09:00,ZBAA 140900Z AUTO 29004KT 6SM 17/14 A2997 RMK SLP147 T01710138 57002 IEM_DS3505
ZBAA,2004-09-14 10:00,ZBAA 141000Z AUTO 32012KT 3SM 16/16 A2997 RMK T01600160 IEM_DS3505
ZBAA,2004-09-14 11:00,ZBAA 141100Z AUTO 32010KT 3SM 16/16 A2994 RMK T01600160 IEM_DS3505
ZBAA,2004-09-14 12:00,ZBAA 141200Z AUTO 02008KT 7SM 16/14 A2991 RMK 60079 SLP120 T01640135 57026 IEM_DS3505
ZBAA,2004-09-14 13:00,ZBAA 141300Z AUTO 01008KT 4SM 16/16 A2991 RMK T01600160 IEM_DS3505
ZBAA,2004-09-14 14:00,ZBAA 141400Z AUTO 01010KT 5SM 16/16 A2985 RMK T01600160 IEM_DS3505
ZBAA,2004-09-14 15:00,ZBAA 141500Z AUTO 36006KT 9SM 16/13 A2983 RMK SLP094 T01640133 57026 IEM_DS3505
ZBAA,2004-09-14 16:00,ZBAA 141600Z AUTO 30008G17KT 4SM 16/16 A2980 RMK T01600160 IEM_DS3505
ZBAA,2004-09-14 17:00,ZBAA 141700Z AUTO 30012KT 4SM 16/15 A2977 RMK T01600150 IEM_DS3505
ZBAA,2004-09-14 18:00,ZBAA 141800Z AUTO 32012KT 9SM 16/13 A2971 RMK 60028 SLP053 T01570134 57041 IEM_DS3505
ZBAA,2004-09-14 19:00,ZBAA 141900Z AUTO 30016KT 3SM 15/15 A2965 RMK T01500150 IEM_DS3505
ZBAA,2004-09-14 20:00,ZBAA 142000Z AUTO 30014KT 3SM 15/15 A2962 RMK T01500150 IEM_DS3505
ZBAA,2004-09-14 20:15,ZBAA 142015Z AUTO 30014KT 3SM 15/15 A2962 RMK T01500150 IEM_DS3505
ZBAA,2004-09-14 21:00,ZBAA 142100Z AUTO 34008KT 12SM 16/13 RMK 70180 SLP025 T01550132 57028 IEM_DS3505
ZBAA,2004-09-14 22:00,ZBAA 142200Z AUTO 30012KT 7SM 15/15 A2959 RMK T01500150 IEM_DS3505
ZBAA,2004-09-14 23:00,ZBAA 142300Z AUTO 30010KT 7SM 16/15 A2962 RMK T01600150 IEM_DS3505
ZBAA,2004-09-15 00:00,ZBAA 150000Z AUTO 22010KT 19SM 16/13 A2965 RMK 60067 70180 SLP043 T01620129 52018 IEM_DS3505
ZBAA,2004-09-15 01:00,ZBAA 150100Z AUTO 23006KT 7SM 17/16 A2968 RMK T01700160 IEM_DS3505
ZBAA,2004-09-15 02:00,ZBAA 150200Z AUTO 21006KT 7SM 18/16 A2971 RMK T01800160 IEM_DS3505
ZBAA,2004-09-15 03:00,ZBAA 150300Z AUTO 22008G19KT 16SM 18/14 A2971 RMK SLP057 T01760139 52014 IEM_DS3505
ZBAA,2004-09-15 04:00,ZBAA 150400Z AUTO 18010KT 6SM 19/16 A2971 RMK T01900160 IEM_DS3505
ZBAA,2004-09-15 05:00,ZBAA 150500Z AUTO 18008KT 6SM 19/17 A2974 RMK T01900170 IEM_DS3505
ZBAA,2004-09-15 06:00,ZBAA 150600Z AUTO 20002KT 9SM 19/14 A2974 RMK SLP061 T01890144 52004 IEM_DS3505
ZBAA,2004-09-15 07:00,ZBAA 150700Z AUTO 15006KT 2 1/2SM 18/17 A2974 RMK T01800170 IEM_DS3505
ZBAA,2004-09-15 08:00,ZBAA 150800Z AUTO 12004KT 2 1/2SM 19/17 A2974 RMK T01900170 IEM_DS3505
ZBAA,2004-09-15 09:00,ZBAA 150900Z AUTO 04004KT 6SM 19/15 A2977 RMK SLP067 T01930150 52006 IEM_DS3505
ZBAA,2004-09-15 10:00,ZBAA 151000Z AUTO 2 1/2SM 18/17 A2977 RMK T01800170 IEM_DS3505
ZBAA,2004-09-15 11:00,ZBAA 151100Z AUTO 2SM 17/17 A2977 RMK T01700170 IEM_DS3505
ZBAA,2004-09-15 12:00,ZBAA 151200Z AUTO 02002KT 4SM 17/15 A2977 RMK 60024 SLP082 T01740154 52014 IEM_DS3505
ZBAA,2004-09-15 13:00,ZBAA 151300Z AUTO 01002KT 1 1/2SM 17/17 A2980 RMK T01700170 IEM_DS3505
ZBAA,2004-09-15 14:00,ZBAA 151400Z AUTO 1 1/2SM 16/16 A2980 RMK T01600160 IEM_DS3505
ZBAA,2004-09-15 15:00,ZBAA 151500Z AUTO 00000KT 2 1/2SM 17/15 A2983 RMK SLP094 T01690151 52012 IEM_DS3505
ZBAA,2004-09-15 16:00,ZBAA 151600Z AUTO 00000KT 1 1/4SM 17/17 A2983 RMK T01700170 IEM_DS3505
ZBAA,2004-09-15 17:00,ZBAA 151700Z AUTO 00000KT 1 1/4SM 17/17 A2983 RMK T01700170 IEM_DS3505
ZBAA,2004-09-15 18:00,ZBAA 151800Z AUTO 09002KT 2 1/2SM 17/15 RMK SLP093 T01700154 54000 IEM_DS3505
ZBAA,2004-09-15 19:00,ZBAA 151900Z AUTO 00000KT 1SM 17/17 A2983 RMK T01700170 IEM_DS3505
ZBAA,2004-09-15 20:00,ZBAA 152000Z AUTO 00000KT 1SM 17/17 A2983 RMK T01700170 IEM_DS3505
ZBAA,2004-09-15 21:00,ZBAA 152100Z AUTO 04002KT 2 1/2SM 17/15 A2983 RMK 70022 SLP099 T01710153 52006 IEM_DS3505
ZBAA,2004-09-15 22:00,ZBAA 152200Z AUTO 11002KT 1SM 16/16 A2985 RMK T01600160 IEM_DS3505
ZBAA,2004-09-15 23:00,ZBAA 152300Z AUTO 29002KT 1SM 17/17 A2988 RMK T01700170 IEM_DS3505
ZBAA,2004-09-16 00:00,ZBAA 160000Z AUTO 36002KT 2 1/2SM 18/16 A2988 RMK 70022 SLP113 T01770160 52013 IEM_DS3505
ZBAA,2004-09-16 01:00,ZBAA 160100Z AUTO 36004KT 1SM 18/18 A2988 RMK T01800180 IEM_DS3505
ZBAA,2004-09-16 02:00,ZBAA 160200Z AUTO 36002KT 1 1/4SM 19/19 A2991 RMK T01900190 IEM_DS3505
ZBAA,2004-09-16 03:00,ZBAA 160300Z AUTO 07006KT 4SM 21/16 A2991 RMK SLP123 T02070157 52011 IEM_DS3505
ZBAA,2004-09-16 04:00,ZBAA 160400Z AUTO 1 1/2SM 22/19 A2988 RMK T02200190 IEM_DS3505
ZBAA,2004-09-16 05:00,ZBAA 160500Z AUTO 1 1/2SM 23/19 A2988 RMK T02300190 IEM_DS3505
ZBAA,2004-09-16 06:00,ZBAA 160600Z AUTO 04004KT 5SM 24/17 A2985 RMK SLP104 T02360166 57019 IEM_DS3505
ZBAA,2004-09-16 07:00,ZBAA 160700Z AUTO 13004KT 2SM 24/20 A2985 RMK T02400200 IEM_DS3505
ZBAA,2004-09-16 08:00,ZBAA 160800Z AUTO 17008KT 1 1/2SM 24/20 A2985 RMK T02400200 IEM_DS3505
ZBAA,2004-09-16 09:00,ZBAA 160900Z AUTO 09002KT 5SM 24/17 A2988 RMK SLP109 T02380173 52005 IEM_DS3505
ZBAA,2004-09-16 10:00,ZBAA 161000Z AUTO 11002KT 1 1/2SM 22/20 A2988 RMK T02200200 IEM_DS3505
ZBAA,2004-09-16 11:00,ZBAA 161100Z AUTO 12002KT 1 1/4SM 21/20 A2988 RMK T02100200 IEM_DS3505
ZBAA,2004-09-16 12:00,ZBAA 161200Z AUTO 02002KT 4SM 21/18 A2991 RMK SLP123 T02140180 52014 IEM_DS3505
ZBAA,2004-09-16 13:00,ZBAA 161300Z AUTO 1 1/4SM 21/20 A2991 RMK T02100200 IEM_DS3505
ZBAA,2004-09-16 14:00,ZBAA 161400Z AUTO 08002KT 1SM 20/20 A2994 RMK T02000200 IEM_DS3505
ZBAA,2004-09-16 15:00,ZBAA 161500Z AUTO 02002KT 4SM 21/18 A2994 RMK SLP141 T02110181 52018 IEM_DS3505
ZBAA,2004-09-16 16:00,ZBAA 161600Z AUTO 33008KT 1 1/4SM 20/20 A2997 RMK T02000200 IEM_DS3505
ZBAA,2004-09-16 17:00,ZBAA 161700Z AUTO 34006KT 1 1/4SM 20/20 A2994 RMK T02000200 IEM_DS3505
ZBAA,2004-09-16 18:00,ZBAA 161800Z AUTO 04002KT 3SM 20/18 A2994 RMK SLP140 T02030175 57001 IEM_DS3505
ZBAA,2004-09-16 19:00,ZBAA 161900Z AUTO 03002KT 1 1/4SM 19/19 A2994 RMK T01900190 IEM_DS3505
ZBAA,2004-09-16 20:00,ZBAA 162000Z AUTO 32006KT 1 1/4SM 19/19 A2994 RMK T01900190 IEM_DS3505
ZBAA,2004-09-16 21:00,ZBAA 162100Z AUTO 36006KT 6SM 20/13 A2994 RMK 70001 SLP137 T01970132 57003 IEM_DS3505
ZBAA,2004-09-16 22:00,ZBAA 162200Z AUTO 34006KT 2SM 18/18 A2997 RMK T01800180 IEM_DS3505
ZBAA,2004-09-16 23:00,ZBAA 162300Z AUTO 35006KT 4SM 19/16 A3000 RMK T01900160 IEM_DS3505
ZBAA,2004-09-17 00:00,ZBAA 170000Z AUTO 02002KT 12SM 19/ A3006 RMK 60001 70001 SLP172 52035 IEM_DS3505
ZBAA,2004-09-17 01:00,ZBAA 170100Z AUTO 36004KT 6SM 19/14 A3003 RMK T01900140 IEM_DS3505
ZBAA,2004-09-17 02:00,ZBAA 170200Z AUTO 35008KT 6SM 19/12 A3006 RMK T01900120 IEM_DS3505
ZBAA,2004-09-17 03:00,ZBAA 170300Z AUTO 02004KT 12SM 21/03 A3006 RMK SLP172 T02100028 54000 IEM_DS3505
ZBAA,2004-09-17 04:00,ZBAA 170400Z AUTO 30006KT 6SM 21/09 A3006 RMK T02100090 IEM_DS3505
ZBAA,2004-09-17 05:00,ZBAA 170500Z AUTO 36006KT 6SM 21/10 A3003 RMK T02100100 IEM_DS3505
ZBAA,2004-09-17 06:00,ZBAA 170600Z AUTO 36004KT 16SM 22/ A3000 RMK SLP156 57016 IEM_DS3505
ZBAA,2004-09-17 07:00,ZBAA 170700Z AUTO 36002KT 6SM 21/10 A3000 RMK T02100100 IEM_DS3505
ZBAA,2004-09-17 08:00,ZBAA 170800Z AUTO 00000KT 6SM 20/10 A3000 RMK T02000100 IEM_DS3505
ZBAA,2004-09-17 09:00,ZBAA 170900Z AUTO 04002KT 12SM 20/08 A3000 RMK SLP155 T01980079 57001 IEM_DS3505
ZBAA,2004-09-17 10:00,ZBAA 171000Z AUTO 00000KT 6SM 19/11 A3000 RMK T01900110 IEM_DS3505
ZBAA,2004-09-17 11:00,ZBAA 171100Z AUTO 00000KT 6SM 18/11 A3000 RMK T01800110 IEM_DS3505
ZBAA,2004-09-17 12:00,ZBAA 171200Z AUTO 22002KT 12SM 18/10 A3000 RMK SLP166 T01810105 52010 IEM_DS3505
ZBAA,2004-09-17 13:00,ZBAA 171300Z AUTO 26004KT 6SM 18/12 A3003 RMK T01800120 IEM_DS3505
ZBAA,2004-09-17 14:00,ZBAA 171400Z AUTO 6SM 18/11 A3003 RMK T01800110 IEM_DS3505
ZBAA,2004-09-17 15:00,ZBAA 171500Z AUTO 25004KT 12SM 17/10 A3003 RMK SLP167 T01690101 52001 IEM_DS3505
ZBAA,2004-09-17 16:00,ZBAA 171600Z AUTO 00000KT 6SM 15/14 A3003 RMK T01500140 IEM_DS3505
ZBAA,2004-09-17 17:00,ZBAA 171700Z AUTO 6SM 13/12 A3003 RMK T01300120 IEM_DS3505
ZBAA,2004-09-17 18:00,ZBAA 171800Z AUTO 00000KT 9SM 14/10 A3003 RMK SLP161 T01360100 57006 IEM_DS3505
ZBAA,2004-09-17 19:00,ZBAA 171900Z AUTO 34004KT 6SM 12/11 A3000 RMK T01200110 IEM_DS3505
ZBAA,2004-09-17 20:00,ZBAA 172000Z AUTO 35004KT 6SM 12/11 A3000 RMK T01200110 IEM_DS3505
ZBAA,2004-09-17 21:00,ZBAA 172100Z AUTO 07002KT 9SM 12/10 A3003 RMK 70000 SLP161 T01200101 54000 IEM_DS3505
ZBAA,2004-09-17 22:00,ZBAA 172200Z AUTO 34004KT 6SM 10/10 A3003 RMK T01000100 IEM_DS3505
ZBAA,2004-09-17 23:00,ZBAA 172300Z AUTO 34006KT 6SM 12/11 A3006 RMK T01200110 IEM_DS3505
ZBAA,2004-09-18 00:00,ZBAA 180000Z AUTO 36004KT 6SM 15/12 A3006 RMK T01500120 IEM_DS3505
ZBAA,2004-09-18 01:00,ZBAA 180100Z AUTO 03002KT 6SM 18/13 A3006 RMK T01800130 IEM_DS3505
ZBAA,2004-09-18 02:00,ZBAA 180200Z AUTO 31006KT 6SM 23/11 A3003 RMK T02300110 IEM_DS3505
ZBAA,2004-09-18 03:00,ZBAA 180300Z AUTO 34004KT 19SM 25/04 A3003 RMK SLP163 T02490036 57008 IEM_DS3505
ZBAA,2004-09-18 04:00,ZBAA 180400Z AUTO 30012KT 6SM 26/05 A3000 RMK T02600050 IEM_DS3505
ZBAA,2004-09-18 05:00,ZBAA 180500Z AUTO 31014KT 6SM 27/04 A2997 RMK T02700040 IEM_DS3505
ZBAA,2004-09-18 06:00,ZBAA 180600Z AUTO 28010KT 6SM 28/05 A2997 RMK T02800050 IEM_DS3505
ZBAA,2004-09-18 07:00,ZBAA 180700Z AUTO 26010KT 6SM 28/05 A2994 RMK T02800050 IEM_DS3505
ZBAA,2004-09-18 08:00,ZBAA 180800Z AUTO 28010KT 6SM 28/04 A2994 RMK T02800040 IEM_DS3505
ZBAA,2004-09-18 09:00,ZBAA 180900Z AUTO 25008KT 19SM 26/06 A2994 RMK SLP138 T02580065 57004 IEM_DS3505
ZBAA,2004-09-18 10:00,ZBAA 181000Z AUTO 27006KT 6SM 25/06 A2994 RMK T02500060 IEM_DS3505
ZBAA,2004-09-18 11:00,ZBAA 181100Z AUTO 24006KT 6SM 22/09 A2997 RMK T02200090 IEM_DS3505
ZBAA,2004-09-18 12:00,ZBAA 181200Z AUTO 23006KT 6SM 21/09 A2997 RMK T02100090 IEM_DS3505
ZBAA,2004-09-18 13:00,ZBAA 181300Z AUTO 6SM 18/12 A3000 RMK T01800120 IEM_DS3505
ZBAA,2004-09-18 15:00,ZBAA 181500Z AUTO 29002KT 12SM 17/11 A3003 RMK SLP163 T01690107 52011 IEM_DS3505
ZBAA,2004-09-18 16:00,ZBAA 181600Z AUTO 35008KT 6SM 15/11 A3003 RMK T01500110 IEM_DS3505
ZBAA,2004-09-18 17:00,ZBAA 181700Z AUTO 35006KT 6SM 15/11 A3006 RMK T01500110 IEM_DS3505
ZBAA,2004-09-18 18:00,ZBAA 181800Z AUTO 04002KT 12SM 15/08 A3006 RMK SLP169 T01520075 52006 IEM_DS3505
ZBAA,2004-09-18 19:00,ZBAA 181900Z AUTO 34006KT 6SM 11/09 A3006 RMK T01100090 IEM_DS3505
ZBAA,2004-09-18 20:00,ZBAA 182000Z AUTO 34006KT 6SM 11/09 A3006 RMK T01100090 IEM_DS3505
ZBAA,2004-09-18 21:00,ZBAA 182100Z AUTO 07002KT 12SM 14/08 A3006 RMK SLP174 T01390077 52005 IEM_DS3505
ZBAA,2004-09-18 22:00,ZBAA 182200Z AUTO 35006KT 6SM 11/09 A3006 RMK T01100090 IEM_DS3505
ZBAA,2004-09-18 23:00,ZBAA 182300Z AUTO 36004KT 6SM 12/10 A3006 RMK T01200100 IEM_DS3505
ZBAA,2004-09-19 00:00,ZBAA 190000Z AUTO 02004KT 12SM 18/06 A3009 RMK SLP182 T01750064 52007 IEM_DS3505
ZBAA,2004-09-19 01:00,ZBAA 190100Z AUTO 01004KT 6SM 18/10 A3006 RMK T01800100 IEM_DS3505
ZBAA,2004-09-19 01:30,ZBAA 190130Z AUTO 36004KT 6SM 19/11 A3006 RMK T01900110 IEM_DS3505
ZBAA,2004-09-19 02:00,ZBAA 190200Z AUTO 6SM 21/10 A3006 RMK T02100100 IEM_DS3505
ZBAA,2004-09-19 02:30,ZBAA 190230Z AUTO 6SM 22/11 A3006 RMK T02200110 IEM_DS3505
ZBAA,2004-09-19 03:00,ZBAA 190300Z AUTO 11004KT 19SM 24/05 A3006 RMK SLP168 T02360051 57013 IEM_DS3505
ZBAA,2004-09-19 04:00,ZBAA 190400Z AUTO 6SM 24/08 A3003 RMK T02400080 IEM_DS3505
ZBAA,2004-09-19 05:00,ZBAA 190500Z AUTO 16004KT 6SM 25/09 A2997 RMK T02500090 IEM_DS3505
ZBAA,2004-09-19 06:00,ZBAA 190600Z AUTO 20008KT 12SM 26/08 A2997 RMK SLP139 T02580083 57029 IEM_DS3505
ZBAA,2004-09-19 07:00,ZBAA 190700Z AUTO 16010KT 6SM 26/10 A2994 RMK T02600100 IEM_DS3505
ZBAA,2004-09-19 08:00,ZBAA 190800Z AUTO 14008KT 6SM 25/14 A2991 RMK T02500140 IEM_DS3505
ZBAA,2004-09-19 09:00,ZBAA 190900Z AUTO 22008KT 9SM 24/13 A2991 RMK SLP127 T02360129 57012 IEM_DS3505
ZBAA,2004-09-19 10:00,ZBAA 191000Z AUTO 17008KT 6SM 22/16 A2991 RMK T02200160 IEM_DS3505
ZBAA,2004-09-19 11:00,ZBAA 191100Z AUTO 17004KT 3SM 20/16 A2991 RMK T02000160 IEM_DS3505
ZBAA,2004-09-19 12:00,ZBAA 191200Z AUTO 20008KT 6SM 20/15 A2994 RMK SLP133 T01990149 52006 IEM_DS3505
ZBAA,2004-09-19 13:00,ZBAA 191300Z AUTO 12004KT 2SM 18/17 A2994 RMK T01800170 IEM_DS3505
ZBAA,2004-09-19 14:00,ZBAA 191400Z AUTO 15006KT 2SM 18/17 A2991 RMK T01800170 IEM_DS3505
ZBAA,2004-09-19 15:00,ZBAA 191500Z AUTO 16002KT 6SM 18/15 A2994 RMK SLP132 T01810146 57001 IEM_DS3505
ZBAA,2004-09-19 16:00,ZBAA 191600Z AUTO 00000KT 1 1/2SM 17/16 A2991 RMK T01700160 IEM_DS3505
ZBAA,2004-09-19 17:00,ZBAA 191700Z AUTO 00000KT 1 1/2SM 17/16 A2991 RMK T01700160 IEM_DS3505
ZBAA,2004-09-19 18:00,ZBAA 191800Z AUTO 34002KT 6SM 17/13 A2994 RMK SLP135 T01700127 52003 IEM_DS3505
ZBAA,2004-09-19 19:00,ZBAA 191900Z AUTO 35006KT 2 1/2SM 15/14 A2994 RMK T01500140 IEM_DS3505
ZBAA,2004-09-19 20:00,ZBAA 192000Z AUTO 33014KT 6SM 16/06 A2994 RMK T01600060 IEM_DS3505
ZBAA,2004-09-19 21:00,ZBAA 192100Z AUTO 32012KT 19SM 20/M03 A2997 RMK SLP142 T01951033 52007 IEM_DS3505
ZBAA,2004-09-19 22:00,ZBAA 192200Z AUTO 31017KT 6SM 17/04 A3000 RMK T01700040 IEM_DS3505
ZBAA,2004-09-19 23:00,ZBAA 192300Z AUTO 31014KT 6SM 17/04 A3000 RMK T01700040 IEM_DS3505
ZBAA,2004-09-20 00:00,ZBAA 200000Z AUTO 34012KT 19SM 19/01 A3000 RMK SLP162 T01870013 52019 IEM_DS3505
ZBAA,2004-09-20 01:00,ZBAA 200100Z AUTO 32017G31KT 6SM 21/06 A3003 RMK T02100060 IEM_DS3505
ZBAA,2004-09-20 02:00,ZBAA 200200Z AUTO 32017KT 6SM 22/06 A3003 RMK T02200060 IEM_DS3505
ZBAA,2004-09-20 03:00,ZBAA 200300Z AUTO 36014G25KT 19SM 22/01 A3003 RMK SLP168 T02190010 52007 IEM_DS3505
ZBAA,2004-09-20 04:00,ZBAA 200400Z AUTO 33016G29KT 6SM 24/07 A3003 RMK T02400070 IEM_DS3505
ZBAA,2004-09-20 05:00,ZBAA 200500Z AUTO 32017KT 6SM 24/06 A3003 RMK T02400060 IEM_DS3505
ZBAA,2004-09-20 06:00,ZBAA 200600Z AUTO 36012KT 19SM 24/M00 A3003 RMK SLP166 T02371005 57002 IEM_DS3505
ZBAA,2004-09-20 07:00,ZBAA 200700Z AUTO 33014G25KT 6SM 25/05 A3003 RMK T02500050 IEM_DS3505
ZBAA,2004-09-20 08:00,ZBAA 200800Z AUTO 33012G21KT 6SM 25/03 A3003 RMK T02500030 IEM_DS3505
ZBAA,2004-09-20 09:00,ZBAA 200900Z AUTO 36010G21KT 19SM 24/M03 A3003 RMK SLP169 T02401033 52003 IEM_DS3505
ZBAA,2004-09-20 10:00,ZBAA 201000Z AUTO 32010KT 6SM 22/02 A3006 RMK T02200020 IEM_DS3505
ZBAA,2004-09-20 11:00,ZBAA 201100Z AUTO 36006KT 6SM 19/04 A3009 RMK T01900040 IEM_DS3505
ZBAA,2004-09-20 12:00,ZBAA 201200Z AUTO 34008KT 19SM 22/M03 A3012 RMK SLP195 T02151030 52025 IEM_DS3505
ZBAA,2004-09-20 13:00,ZBAA 201300Z AUTO 30006KT 6SM 18/03 A3015 RMK T01800030 IEM_DS3505
ZBAA,2004-09-20 14:00,ZBAA 201400Z AUTO 31010KT 6SM 18/02 A3015 RMK T01800020 IEM_DS3505
ZBAA,2004-09-20 15:00,ZBAA 201500Z AUTO 34004KT 19SM 20/M02 A3018 RMK SLP212 T01991024 52018 IEM_DS3505
ZBAA,2004-09-20 16:00,ZBAA 201600Z AUTO 01004KT 6SM 14/06 A3018 RMK T01400060 IEM_DS3505
ZBAA,2004-09-20 17:00,ZBAA 201700Z AUTO 6SM 13/05 A3018 RMK T01300050 IEM_DS3505
ZBAA,2004-09-20 18:00,ZBAA 201800Z AUTO 32004KT 12SM 18/M01 A3018 RMK SLP220 T01761011 52007 IEM_DS3505
ZBAA,2004-09-20 19:00,ZBAA 201900Z AUTO 32006KT 6SM 12/05 A3018 RMK T01200050 IEM_DS3505
ZBAA,2004-09-20 20:00,ZBAA 202000Z AUTO 00000KT 6SM 11/06 A3021 RMK T01100060 IEM_DS3505
ZBAA,2004-09-20 21:00,ZBAA 202100Z AUTO 32004KT 12SM 15/02 A3018 RMK SLP221 T01500016 52001 IEM_DS3505
ZBAA,2004-09-20 22:00,ZBAA 202200Z AUTO 33002KT 6SM 11/05 A3021 RMK T01100050 IEM_DS3505
ZBAA,2004-09-20 23:00,ZBAA 202300Z AUTO 36004KT 6SM 13/06 A3021 RMK T01300060 IEM_DS3505
ZBAA,2004-09-21 00:00,ZBAA 210000Z AUTO 02004KT 19SM 18/01 A3024 RMK SLP231 T01830009 52010 IEM_DS3505
ZBAA,2004-09-21 01:00,ZBAA 210100Z AUTO 02006KT 6SM 18/08 A3021 RMK T01800080 IEM_DS3505
ZBAA,2004-09-21 02:00,ZBAA 210200Z AUTO 02004KT 6SM 21/05 A3021 RMK T02100050 IEM_DS3505
ZBAA,2004-09-21 03:00,ZBAA 210300Z AUTO 04008KT 19SM 23/M00 A3021 RMK SLP221 T02261001 57009 IEM_DS3505
ZBAA,2004-09-21 04:00,ZBAA 210400Z AUTO 6SM 24/04 A3018 RMK T02400040 IEM_DS3505
ZBAA,2004-09-21 05:00,ZBAA 210500Z AUTO 32006KT 6SM 25/04 A3015 RMK T02500040 IEM_DS3505
ZBAA,2004-09-21 06:00,ZBAA 210600Z AUTO 11004KT 19SM 25/01 A3012 RMK SLP192 T02510006 57029 IEM_DS3505
ZBAA,2004-09-21 07:00,ZBAA 210700Z AUTO 6SM 26/03 A3009 RMK T02600030 IEM_DS3505
ZBAA,2004-09-21 07:30,ZBAA 210730Z AUTO 6SM 25/05 A3009 RMK T02500050 IEM_DS3505
ZBAA,2004-09-21 08:00,ZBAA 210800Z AUTO 18004KT 6SM 25/04 A3009 RMK T02500040 IEM_DS3505
ZBAA,2004-09-21 09:00,ZBAA 210900Z AUTO 22008KT 19SM 24/01 A3006 RMK SLP183 T02410011 57010 IEM_DS3505
ZBAA,2004-09-21 10:00,ZBAA 211000Z AUTO 16004KT 6SM 21/07 A3009 RMK T02100070 IEM_DS3505
ZBAA,2004-09-21 11:00,ZBAA 211100Z AUTO 15004KT 6SM 18/08 A3009 RMK T01800080 IEM_DS3505
ZBAA,2004-09-21 12:00,ZBAA 211200Z AUTO 22004KT 16SM 19/04 A3009 RMK SLP186 T01900036 52003 IEM_DS3505
ZBAA,2004-09-21 13:00,ZBAA 211300Z AUTO 12004KT 6SM 16/10 A3009 RMK T01600100 IEM_DS3505
ZBAA,2004-09-21 14:00,ZBAA 211400Z AUTO 11002KT 6SM 15/10 A3009 RMK T01500100 IEM_DS3505
ZBAA,2004-09-21 15:00,ZBAA 211500Z AUTO 22002KT 12SM 16/06 A3009 RMK SLP187 T01620064 52001 IEM_DS3505
ZBAA,2004-09-21 18:00,ZBAA 211800Z AUTO 18002KT 16SM 14/06 A3009 RMK SLP179 T01410060 57008 IEM_DS3505
ZBAA,2004-09-21 19:00,ZBAA 211900Z AUTO 01002KT 5SM 11/10 A3006 RMK T01100100 IEM_DS3505
ZBAA,2004-09-21 20:00,ZBAA 212000Z AUTO 02002KT 5SM 10/10 A3006 RMK T01000100 IEM_DS3505
ZBAA,2004-09-21 21:00,ZBAA 212100Z AUTO 04002KT 12SM 12/07 A3006 RMK SLP178 T01150072 57001 IEM_DS3505
ZBAA,2004-09-21 22:00,ZBAA 212200Z AUTO 36004KT 5SM 09/09 A3009 RMK T00900090 IEM_DS3505
ZBAA,2004-09-21 23:00,ZBAA 212300Z AUTO 36004KT 6SM 11/10 A3009 RMK T01100100 IEM_DS3505
ZBAA,2004-09-22 00:00,ZBAA 220000Z AUTO 02002KT 12SM 15/09 A3009 RMK SLP185 T01510088 52007 IEM_DS3505
ZBAA,2004-09-22 01:00,ZBAA 220100Z AUTO 36002KT 6SM 16/12 A3009 RMK T01600120 IEM_DS3505
ZBAA,2004-09-22 02:00,ZBAA 220200Z AUTO 6SM 18/12 A3009 RMK T01800120 IEM_DS3505
ZBAA,2004-09-22 03:00,ZBAA 220300Z AUTO 18004KT 9SM 22/07 A3006 RMK SLP179 T02160067 57006 IEM_DS3505
ZBAA,2004-09-22 04:00,ZBAA 220400Z AUTO 22/11 A3006 RMK T02200110 IEM_DS3505
ZBAA,2004-09-22 05:00,ZBAA 220500Z AUTO 21006KT 24/10 A3003 RMK T02400100 IEM_DS3505
ZBAA,2004-09-22 06:00,ZBAA 220600Z AUTO 25010KT 9SM 25/06 A3000 RMK SLP150 T02500058 57028 IEM_DS3505
ZBAA,2004-09-22 07:00,ZBAA 220700Z AUTO 19006G16KT 6SM 26/09 A2997 RMK T02600090 IEM_DS3505
ZBAA,2004-09-22 08:00,ZBAA 220800Z AUTO 21004KT 6SM 26/09 A2997 RMK T02600090 IEM_DS3505
ZBAA,2004-09-22 09:00,ZBAA 220900Z AUTO 22006KT 9SM 24/06 A2997 RMK SLP143 T02430061 57008 IEM_DS3505
ZBAA,2004-09-22 10:00,ZBAA 221000Z AUTO 18006KT 6SM 20/11 A2997 RMK T02000110 IEM_DS3505
ZBAA,2004-09-22 11:00,ZBAA 221100Z AUTO 13002KT 6SM 20/11 A2997 RMK T02000110 IEM_DS3505
ZBAA,2004-09-22 12:00,ZBAA 221200Z AUTO 22004KT 9SM 20/09 A2997 RMK SLP150 T02030086 52007 IEM_DS3505
ZBAA,2004-09-22 13:00,ZBAA 221300Z AUTO 12004KT 6SM 16/13 A3000 RMK T01600130 IEM_DS3505
ZBAA,2004-09-22 14:00,ZBAA 221400Z AUTO 13002KT 5SM 15/12 A3000 RMK T01500120 IEM_DS3505
ZBAA,2004-09-22 15:00,ZBAA 221500Z AUTO 22002KT 6SM 17/09 A3000 RMK SLP153 T01680088 52004 IEM_DS3505
ZBAA,2004-09-22 16:00,ZBAA 221600Z AUTO 10002KT 4SM 14/12 A3000 RMK T01400120 IEM_DS3505
ZBAA,2004-09-22 17:00,ZBAA 221700Z AUTO 00000KT 4SM 13/12 A2997 RMK T01300120 IEM_DS3505
ZBAA,2004-09-22 18:00,ZBAA 221800Z AUTO 22002KT 6SM 15/09 A2997 RMK SLP145 T01470093 57008 IEM_DS3505
ZBAA,2004-09-22 19:00,ZBAA 221900Z AUTO 02002KT 2 1/2SM 12/11 A2997 RMK T01200110 IEM_DS3505
ZBAA,2004-09-22 20:00,ZBAA 222000Z AUTO 04002KT 2 1/2SM 12/11 A2997 RMK T01200110 IEM_DS3505
ZBAA,2004-09-22 21:00,ZBAA 222100Z AUTO 09002KT 5SM 13/10 A2997 RMK SLP148 T01330099 52002 IEM_DS3505
ZBAA,2004-09-22 22:00,ZBAA 222200Z AUTO 00000KT 2SM 11/11 A3000 RMK T01100110 IEM_DS3505
ZBAA,2004-09-22 23:00,ZBAA 222300Z AUTO 36004KT 2SM 12/12 A3000 RMK T01200120 IEM_DS3505
ZBAA,2004-09-23 00:00,ZBAA 230000Z AUTO 07002KT 3SM 15/11 A3000 RMK SLP159 T01530107 52011 IEM_DS3505
ZBAA,2004-09-23 02:00,ZBAA 230200Z AUTO 2 1/2SM 19/13 A3003 RMK T01900130 IEM_DS3505
ZBAA,2004-09-23 03:00,ZBAA 230300Z AUTO 04002KT 6SM 22/10 A3000 RMK SLP157 T02180103 57001 IEM_DS3505
ZBAA,2004-09-23 04:00,ZBAA 230400Z AUTO 2 1/2SM 23/15 A2997 RMK T02300150 IEM_DS3505
ZBAA,2004-09-23 05:00,ZBAA 230500Z AUTO 2 1/2SM 25/15 A2997 RMK T02500150 IEM_DS3505
ZBAA,2004-09-23 06:00,ZBAA 230600Z AUTO 20008KT 5SM 26/12 A2994 RMK SLP130 T02610118 57027 IEM_DS3505
ZBAA,2004-09-23 07:00,ZBAA 230700Z AUTO 17008KT 2 1/2SM 26/15 A2994 RMK T02600150 IEM_DS3505
ZBAA,2004-09-23 08:00,ZBAA 230800Z AUTO 15006KT 2 1/2SM 25/16 A2994 RMK T02500160 IEM_DS3505
ZBAA,2004-09-23 09:00,ZBAA 230900Z AUTO 25004KT 6SM 26/13 A2994 RMK SLP140 T02560128 52010 IEM_DS3505
ZBAA,2004-09-23 10:00,ZBAA 231000Z AUTO 15004KT 2 1/2SM 23/16 A2994 RMK T02300160 IEM_DS3505
ZBAA,2004-09-23 11:00,ZBAA 231100Z AUTO 12002KT 2 1/2SM 22/17 A2994 RMK T02200170 IEM_DS3505
ZBAA,2004-09-23 12:00,ZBAA 231200Z AUTO 18002KT 6SM 22/13 A2997 RMK SLP147 T02230131 52006 IEM_DS3505
ZBAA,2004-09-23 13:00,ZBAA 231300Z AUTO 13004KT 2SM 20/17 A3000 RMK T02000170 IEM_DS3505
ZBAA,2004-09-23 14:00,ZBAA 231400Z AUTO 12004KT 2SM 19/17 A3000 RMK T01900170 IEM_DS3505
ZBAA,2004-09-23 15:00,ZBAA 231500Z AUTO 20004KT 6SM 20/14 A3000 RMK SLP150 T02020143 52004 IEM_DS3505
ZBAA,2004-09-23 16:00,ZBAA 231600Z AUTO 10004KT 1 1/2SM 18/17 A2997 RMK T01800170 IEM_DS3505
ZBAA,2004-09-23 17:00,ZBAA 231700Z AUTO 06002KT 1 1/4SM 17/17 A3000 RMK T01700170 IEM_DS3505
ZBAA,2004-09-23 18:00,ZBAA 231800Z AUTO 22002KT 6SM 18/14 A3000 RMK SLP154 T01850140 52004 IEM_DS3505
ZBAA,2004-09-23 19:00,ZBAA 231900Z AUTO 13002KT 1 1/4SM 16/16 A3000 RMK T01600160 IEM_DS3505
ZBAA,2004-09-23 20:00,ZBAA 232000Z AUTO 04002KT 1SM 16/15 A3000 RMK T01600150 IEM_DS3505
ZBAA,2004-09-23 21:00,ZBAA 232100Z AUTO 00000KT 1SM 15/15 A3003 RMK T01500150 IEM_DS3505
ZBAA,2004-09-23 22:00,ZBAA 232200Z AUTO 00000KT 1SM 15/15 A3003 RMK T01500150 IEM_DS3505
ZBAA,2004-09-23 23:00,ZBAA 232300Z AUTO 00000KT 1SM 15/14 A3006 RMK T01500140 IEM_DS3505
ZBAA,2004-09-24 00:00,ZBAA 240000Z AUTO 18002KT 4SM 17/13 A3006 RMK SLP176 T01720127 52013 IEM_DS3505
ZBAA,2004-09-24 01:00,ZBAA 240100Z AUTO 12004KT 1SM 16/16 A3009 RMK T01600160 IEM_DS3505
ZBAA,2004-09-24 02:00,ZBAA 240200Z AUTO 13004KT 1SM 18/16 A3009 RMK T01800160 IEM_DS3505
ZBAA,2004-09-24 03:00,ZBAA 240300Z AUTO 18002KT 5SM 20/13 A3009 RMK SLP179 T01990134 52004 IEM_DS3505
ZBAA,2004-09-24 04:00,ZBAA 240400Z AUTO 12004KT 1 1/4SM 20/16 A3006 RMK T02000160 IEM_DS3505
ZBAA,2004-09-24 05:00,ZBAA 240500Z AUTO 14004KT 1 1/4SM 21/16 A3006 RMK T02100160 IEM_DS3505
ZBAA,2004-09-24 06:00,ZBAA 240600Z AUTO 18004KT 6SM 23/13 A3006 RMK SLP175 T02300129 57004 IEM_DS3505
ZBAA,2004-09-24 07:00,ZBAA 240700Z AUTO 15006KT 2SM 23/16 A3006 RMK T02300160 IEM_DS3505
ZBAA,2004-09-24 08:00,ZBAA 240800Z AUTO 16006KT 2 1/2SM 23/16 A3006 RMK T02300160 IEM_DS3505
ZBAA,2004-09-24 09:00,ZBAA 240900Z AUTO 20004KT 9SM 24/13 A3006 RMK SLP177 T02380128 52002 IEM_DS3505
ZBAA,2004-09-24 10:00,ZBAA 241000Z AUTO 10002KT 2 1/2SM 21/17 A3006 RMK T02100170 IEM_DS3505
ZBAA,2004-09-24 11:00,ZBAA 241100Z AUTO 11002KT 2SM 20/17 A3009 RMK T02000170 IEM_DS3505
ZBAA,2004-09-24 12:00,ZBAA 241200Z AUTO 18004KT 5SM 22/13 RMK SLP187 T02190133 52009 IEM_DS3505
ZBAA,2004-09-24 13:00,ZBAA 241300Z AUTO 12002KT 1 1/4SM 18/17 A3009 RMK T01800170 IEM_DS3505
ZBAA,2004-09-24 14:00,ZBAA 241400Z AUTO 13004KT 1 1/4SM 18/17 A3012 RMK T01800170 IEM_DS3505
ZBAA,2004-09-24 15:00,ZBAA 241500Z AUTO 22002KT 4SM 19/14 A3012 RMK SLP192 T01900136 52005 IEM_DS3505
ZBAA,2004-09-24 16:00,ZBAA 241600Z AUTO 09002KT 1 1/4SM 17/16 A3012 RMK T01700160 IEM_DS3505
ZBAA,2004-09-24 17:00,ZBAA 241700Z AUTO 11002KT 1 1/4SM 17/16 A3012 RMK T01700160 IEM_DS3505
ZBAA,2004-09-24 18:00,ZBAA 241800Z AUTO 18004KT 4SM 18/13 A3012 RMK SLP193 T01800127 52002 IEM_DS3505
ZBAA,2004-09-24 19:00,ZBAA 241900Z AUTO 09002KT 1 1/4SM 16/15 A3012 RMK T01600150 IEM_DS3505
ZBAA,2004-09-24 20:00,ZBAA 242000Z AUTO 10002KT 1 1/4SM 15/15 A3012 RMK T01500150 IEM_DS3505
ZBAA,2004-09-24 21:00,ZBAA 242100Z AUTO 20002KT 4SM 17/13 A3012 RMK SLP195 T01670127 52001 IEM_DS3505
ZBAA,2004-09-24 22:00,ZBAA 242200Z AUTO 09002KT 1SM 15/15 RMK T01500150 IEM_DS3505
ZBAA,2004-09-24 23:00,ZBAA 242300Z AUTO 1SM 16/15 A3015 RMK T01600150 IEM_DS3505
ZBAA,2004-09-25 00:00,ZBAA 250000Z AUTO 18004KT 2 1/2SM 18/12 A3015 RMK SLP207 T01820124 52012 IEM_DS3505
ZBAA,2004-09-25 01:00,ZBAA 250100Z AUTO 13004KT 1SM 19/16 A3015 RMK T01900160 IEM_DS3505
ZBAA,2004-09-25 02:00,ZBAA 250200Z AUTO 1 1/4SM 20/16 A3015 RMK T02000160 IEM_DS3505
ZBAA,2004-09-25 03:00,ZBAA 250300Z AUTO 25004KT 5SM 22/14 A3015 RMK SLP205 T02210135 57002 IEM_DS3505
ZBAA,2004-09-25 04:00,ZBAA 250400Z AUTO 19006KT 1 1/2SM 23/17 A3015 RMK T02300170 IEM_DS3505
ZBAA,2004-09-25 05:00,ZBAA 250500Z AUTO 16008KT 1 1/2SM 25/17 A3012 RMK T02500170 IEM_DS3505
ZBAA,2004-09-25 06:00,ZBAA 250600Z AUTO 25010KT 7SM 26/10 A3009 RMK SLP187 T02640102 57017 IEM_DS3505
ZBAA,2004-09-25 07:00,ZBAA 250700Z AUTO 21010KT 6SM 27/12 A3009 RMK T02700120 IEM_DS3505
ZBAA,2004-09-25 08:00,ZBAA 250800Z AUTO 20012KT 6SM 27/10 A3009 RMK T02700100 IEM_DS3505
ZBAA,2004-09-25 09:00,ZBAA 250900Z AUTO 20010KT 12SM 26/07 A3009 RMK SLP187 T02570073 54000 IEM_DS3505
ZBAA,2004-09-25 10:00,ZBAA 251000Z AUTO 17006KT 6SM 22/11 A3009 RMK T02200110 IEM_DS3505
ZBAA,2004-09-25 11:00,ZBAA 251100Z AUTO 16006KT 6SM 21/14 A3012 RMK T02100140 IEM_DS3505
ZBAA,2004-09-25 12:00,ZBAA 251200Z AUTO 18006KT 9SM 21/11 A3012 RMK SLP201 T02110112 52013 IEM_DS3505
ZBAA,2004-09-25 13:00,ZBAA 251300Z AUTO 16006KT 4SM 18/14 A3015 RMK T01800140 IEM_DS3505
ZBAA,2004-09-25 14:00,ZBAA 251400Z AUTO 15004KT 4SM 18/15 A3015 RMK T01800150 IEM_DS3505
ZBAA,2004-09-25 15:00,ZBAA 251500Z AUTO 22004KT 7SM 18/12 A3015 RMK SLP201 T01830119 54000 IEM_DS3505
ZBAA,2004-09-25 16:00,ZBAA 251600Z AUTO 08002KT 2SM 15/14 A3012 RMK T01500140 IEM_DS3505
ZBAA,2004-09-25 17:00,ZBAA 251700Z AUTO 09004KT 1 1/4SM 15/15 A3012 RMK T01500150 IEM_DS3505
ZBAA,2004-09-25 18:00,ZBAA 251800Z AUTO 00000KT 7SM 16/12 A3012 RMK SLP194 T01600116 57006 IEM_DS3505
ZBAA,2004-09-25 19:00,ZBAA 251900Z AUTO 34002KT 1SM 14/14 A3012 RMK T01400140 IEM_DS3505
ZBAA,2004-09-25 20:00,ZBAA 252000Z AUTO 00000KT 1SM 14/14 A3012 RMK T01400140 IEM_DS3505
ZBAA,2004-09-25 20:30,ZBAA 252030Z AUTO 36002KT 1SM 14/14 A3012 RMK T01400140 IEM_DS3505
ZBAA,2004-09-25 21:00,ZBAA 252100Z AUTO 04002KT 6SM 15/12 A3012 RMK SLP192 T01470120 57003 IEM_DS3505
ZBAA,2004-09-25 21:30,ZBAA 252130Z AUTO 01002KT 1SM 14/14 A3012 RMK T01400140 IEM_DS3505
ZBAA,2004-09-25 22:00,ZBAA 252200Z AUTO 35004KT 1SM 13/13 A3012 RMK T01300130 IEM_DS3505
ZBAA,2004-09-25 23:00,ZBAA 252300Z AUTO 00000KT 1SM 13/13 A3012 RMK T01300130 IEM_DS3505
ZBAA,2004-09-26 00:00,ZBAA 260000Z AUTO 07002KT 2 1/2SM 16/14 A3012 RMK SLP196 T01620135 52004 IEM_DS3505
ZBAA,2004-09-26 01:00,ZBAA 260100Z AUTO 1 1/2SM 18/16 A3012 RMK T01800160 IEM_DS3505
ZBAA,2004-09-26 02:00,ZBAA 260200Z AUTO 1 1/2SM 21/17 A3012 RMK T02100170 IEM_DS3505
ZBAA,2004-09-26 03:00,ZBAA 260300Z AUTO 07002KT 5SM 23/14 A3009 RMK SLP187 T02310136 57008 IEM_DS3505
ZBAA,2004-09-26 04:00,ZBAA 260400Z AUTO 2SM 24/16 A3009 RMK T02400160 IEM_DS3505
ZBAA,2004-09-26 05:00,ZBAA 260500Z AUTO 2SM 25/16 A3006 RMK T02500160 IEM_DS3505
ZBAA,2004-09-26 06:00,ZBAA 260600Z AUTO 25008KT 7SM 26/10 A3003 RMK SLP162 T02630101 57025 IEM_DS3505
ZBAA,2004-09-26 07:00,ZBAA 260700Z AUTO 19006KT 27/14 A3000 RMK T02700140 IEM_DS3505
ZBAA,2004-09-26 08:00,ZBAA 260800Z AUTO 19006KT 5SM 26/14 A3000 RMK T02600140 IEM_DS3505
ZBAA,2004-09-26 09:00,ZBAA 260900Z AUTO 22006KT 9SM 25/11 A3000 RMK SLP153 T02530108 57009 IEM_DS3505
ZBAA,2004-09-26 10:00,ZBAA 261000Z AUTO 15002KT 5SM 23/15 A3000 RMK T02300150 IEM_DS3505
ZBAA,2004-09-26 11:00,ZBAA 261100Z AUTO 10002KT 6SM 21/15 A3003 RMK T02100150 IEM_DS3505
ZBAA,2004-09-26 12:00,ZBAA 261200Z AUTO 14002KT 7SM 21/12 A3003 RMK SLP165 T02140123 52011 IEM_DS3505
ZBAA,2004-09-26 13:00,ZBAA 261300Z AUTO 13002KT 6SM 19/15 A3003 RMK T01900150 IEM_DS3505
ZBAA,2004-09-26 14:00,ZBAA 261400Z AUTO 11002KT 5SM 18/15 A3003 RMK T01800150 IEM_DS3505
ZBAA,2004-09-26 15:00,ZBAA 261500Z AUTO 18002KT 6SM 19/13 A3003 RMK SLP164 T01890129 54000 IEM_DS3505
ZBAA,2004-09-26 16:00,ZBAA 261600Z AUTO 00000KT 2 1/2SM 16/15 A3003 RMK T01600150 IEM_DS3505
ZBAA,2004-09-26 17:00,ZBAA 261700Z AUTO 00000KT 1 1/4SM 15/14 A3003 RMK T01500140 IEM_DS3505
ZBAA,2004-09-26 18:00,ZBAA 261800Z AUTO 00000KT 6SM 16/13 A3003 RMK SLP160 T01650130 57004 IEM_DS3505
ZBAA,2004-09-26 19:00,ZBAA 261900Z AUTO 1SM 14/14 A3003 RMK T01400140 IEM_DS3505
ZBAA,2004-09-26 20:00,ZBAA 262000Z AUTO 00000KT 1SM 14/14 A3000 RMK T01400140 IEM_DS3505
ZBAA,2004-09-26 21:00,ZBAA 262100Z AUTO 35004KT 1SM 14/14 A3003 RMK T01400140 IEM_DS3505
ZBAA,2004-09-26 22:00,ZBAA 262200Z AUTO 00000KT 1SM 14/14 A3000 RMK T01400140 IEM_DS3505
ZBAA,2004-09-26 23:00,ZBAA 262300Z AUTO 34006KT 1 1/4SM 14/14 A3003 RMK T01400140 IEM_DS3505
ZBAA,2004-09-27 00:00,ZBAA 270000Z AUTO 02004KT 4SM 18/14 A3006 RMK SLP171 T01750138 52011 IEM_DS3505
ZBAA,2004-09-27 01:00,ZBAA 270100Z AUTO 35004KT 2 1/2SM 19/16 A3006 RMK T01900160 IEM_DS3505
ZBAA,2004-09-27 02:00,ZBAA 270200Z AUTO 01004KT 2 1/2SM 21/16 A3006 RMK T02100160 IEM_DS3505
ZBAA,2004-09-27 03:00,ZBAA 270300Z AUTO 02006KT 6SM 23/13 A3006 RMK SLP170 T02270132 54000 IEM_DS3505
ZBAA,2004-09-27 04:00,ZBAA 270400Z AUTO 01006KT 6SM 25/14 A3003 RMK T02500140 IEM_DS3505
ZBAA,2004-09-27 05:00,ZBAA 270500Z AUTO 02006KT 6SM 26/11 A3000 RMK T02600110 IEM_DS3505
ZBAA,2004-09-27 06:00,ZBAA 270600Z AUTO 07008KT 12SM 26/09 A2997 RMK SLP142 T02610090 57028 IEM_DS3505
ZBAA,2004-09-27 07:00,ZBAA 270700Z AUTO 6SM 28/11 A2994 RMK T02800110 IEM_DS3505
ZBAA,2004-09-27 08:00,ZBAA 270800Z AUTO 6SM 27/10 A2994 RMK T02700100 IEM_DS3505
ZBAA,2004-09-27 09:00,ZBAA 270900Z AUTO 09004KT 12SM 26/08 A2994 RMK SLP140 T02600076 57002 IEM_DS3505
ZBAA,2004-09-27 10:00,ZBAA 271000Z AUTO 00000KT 6SM 23/11 A2997 RMK T02300110 IEM_DS3505
ZBAA,2004-09-27 11:00,ZBAA 271100Z AUTO 00000KT 6SM 20/13 A2997 RMK T02000130 IEM_DS3505
ZBAA,2004-09-27 12:00,ZBAA 271200Z AUTO 32002KT 12SM 20/12 A3000 RMK SLP154 T01980118 52013 IEM_DS3505
ZBAA,2004-09-27 13:00,ZBAA 271300Z AUTO 00000KT 4SM 19/14 A3000 RMK T01900140 IEM_DS3505
ZBAA,2004-09-27 14:00,ZBAA 271400Z AUTO 00000KT 2 1/2SM 18/15 A3003 RMK T01800150 IEM_DS3505
ZBAA,2004-09-27 15:00,ZBAA 271500Z AUTO 00000KT 9SM 18/12 A3000 RMK SLP156 T01820122 52003 IEM_DS3505
ZBAA,2004-09-27 16:00,ZBAA 271600Z AUTO 6SM 16/13 A3003 RMK T01600130 IEM_DS3505
ZBAA,2004-09-27 17:00,ZBAA 271700Z AUTO 6SM 16/13 A3003 RMK T01600130 IEM_DS3505
ZBAA,2004-09-27 18:00,ZBAA 271800Z AUTO 11008KT 12SM 18/14 A3003 RMK SLP161 T01840137 52005 IEM_DS3505
ZBAA,2004-09-27 19:00,ZBAA 271900Z AUTO 12008KT 5SM 18/13 A3003 RMK T01800130 IEM_DS3505
ZBAA,2004-09-27 20:00,ZBAA 272000Z AUTO 13008KT 6SM 17/12 A3003 RMK T01700120 IEM_DS3505
ZBAA,2004-09-27 21:00,ZBAA 272100Z AUTO 07004KT 16SM 17/10 A3003 RMK SLP161 T01680104 54000 IEM_DS3505
ZBAA,2004-09-27 22:00,ZBAA 272200Z AUTO 7SM 17/12 A3003 RMK T01700120 IEM_DS3505
ZBAA,2004-09-27 23:00,ZBAA 272300Z AUTO 00000KT 7SM 18/13 A3003 RMK T01800130 IEM_DS3505
ZBAA,2004-09-28 00:00,ZBAA 280000Z AUTO 04002KT 16SM 18/10 A3003 RMK SLP167 T01750102 52005 IEM_DS3505
ZBAA,2004-09-28 01:00,ZBAA 280100Z AUTO 00000KT 7SM 19/13 A3003 RMK T01900130 IEM_DS3505
ZBAA,2004-09-28 02:00,ZBAA 280200Z AUTO 00000KT 7SM 19/13 A3003 RMK T01900130 IEM_DS3505
ZBAA,2004-09-28 03:00,ZBAA 280300Z AUTO 09004KT 12SM 19/12 A3003 RMK SLP160 T01940119 57007 IEM_DS3505
ZBAA,2004-09-28 04:00,ZBAA 280400Z AUTO 06002KT 7SM 21/14 A3000 RMK T02100140 IEM_DS3505
ZBAA,2004-09-28 05:00,ZBAA 280500Z AUTO 5SM 21/15 A2997 RMK T02100150 IEM_DS3505
ZBAA,2004-09-28 06:00,ZBAA 280600Z AUTO 04004KT 7SM 22/15 A2997 RMK SLP136 T02230152 57023 IEM_DS3505
ZBAA,2004-09-28 07:00,ZBAA 280700Z AUTO 35006KT 5SM 20/15 A2994 RMK T02000150 IEM_DS3505
ZBAA,2004-09-28 08:00,ZBAA 280800Z AUTO 4SM 20/16 A2991 RMK T02000160 IEM_DS3505
ZBAA,2004-09-28 09:00,ZBAA 280900Z AUTO 07004KT 7SM 21/13 A2991 RMK SLP124 T02120131 57012 IEM_DS3505
ZBAA,2004-09-28 10:00,ZBAA 281000Z AUTO 36004KT 2 1/2SM 18/16 A2991 RMK T01800160 IEM_DS3505
ZBAA,2004-09-28 11:00,ZBAA 281100Z AUTO 36004KT 2 1/2SM 18/17 A2994 RMK T01800170 IEM_DS3505
ZBAA,2004-09-28 12:00,ZBAA 281200Z AUTO 02004KT 6SM 19/14 A2994 RMK SLP138 T01930137 52013 IEM_DS3505
ZBAA,2004-09-28 13:00,ZBAA 281300Z AUTO 36004KT 2SM 18/17 A2997 RMK T01800170 IEM_DS3505
ZBAA,2004-09-28 14:00,ZBAA 281400Z AUTO 33004KT 2 1/2SM 18/17 A2997 RMK T01800170 IEM_DS3505
ZBAA,2004-09-28 15:00,ZBAA 281500Z AUTO 04002KT 6SM 18/15 A2997 RMK SLP144 T01850146 52007 IEM_DS3505
ZBAA,2004-09-28 16:00,ZBAA 281600Z AUTO 34004KT 2SM 17/16 A2997 RMK T01700160 IEM_DS3505
ZBAA,2004-09-28 17:00,ZBAA 281700Z AUTO 35002KT 2SM 18/17 A2997 RMK T01800170 IEM_DS3505
ZBAA,2004-09-28 18:00,ZBAA 281800Z AUTO 02002KT 5SM 19/15 A2997 RMK SLP146 T01900147 52002 IEM_DS3505
ZBAA,2004-09-28 19:00,ZBAA 281900Z AUTO 35004KT 2SM 18/18 A2997 RMK T01800180 IEM_DS3505
ZBAA,2004-09-28 20:00,ZBAA 282000Z AUTO 00000KT 1 1/2SM 18/17 A2997 RMK T01800170 IEM_DS3505
ZBAA,2004-09-28 21:00,ZBAA 282100Z AUTO 04004KT 4SM 19/16 A3000 RMK SLP149 T01930162 52003 IEM_DS3505
ZBAA,2004-09-28 22:00,ZBAA 282200Z AUTO 02002KT 1 1/4SM 19/18 A2997 RMK T01900180 IEM_DS3505
ZBAA,2004-09-28 23:00,ZBAA 282300Z AUTO 34004KT 1 1/4SM 19/18 A3000 RMK T01900180 IEM_DS3505
ZBAA,2004-09-29 00:00,ZBAA 290000Z AUTO 04004KT 2SM 20/16 A3000 RMK SLP158 T01970162 52009 IEM_DS3505
ZBAA,2004-09-29 01:00,ZBAA 290100Z AUTO 36004KT 1 1/2SM 21/19 A3003 RMK T02100190 IEM_DS3505
ZBAA,2004-09-29 02:00,ZBAA 290200Z AUTO 36004KT 1 1/2SM 22/19 A3003 RMK T02200190 IEM_DS3505
ZBAA,2004-09-29 03:00,ZBAA 290300Z AUTO 07006KT 5SM 23/17 A3003 RMK SLP160 T02300172 52002 IEM_DS3505
ZBAA,2004-09-29 04:00,ZBAA 290400Z AUTO 1 1/2SM 25/20 A3000 RMK T02500200 IEM_DS3505
ZBAA,2004-09-29 05:00,ZBAA 290500Z AUTO 15004KT 1 1/2SM 26/20 A3000 RMK T02600200 IEM_DS3505
ZBAA,2004-09-29 06:00,ZBAA 290600Z AUTO 07004KT 6SM 26/17 A2997 RMK SLP142 T02550169 57018 IEM_DS3505
ZBAA,2004-09-29 07:00,ZBAA 290700Z AUTO 12008KT 2 1/2SM 26/19 A2997 RMK T02600190 IEM_DS3505
ZBAA,2004-09-29 08:00,ZBAA 290800Z AUTO 14006KT 2SM 26/20 A2997 RMK T02600200 IEM_DS3505
ZBAA,2004-09-29 09:00,ZBAA 290900Z AUTO 14002KT 6SM 25/17 A2997 RMK SLP141 T02520172 57001 IEM_DS3505
ZBAA,2004-09-29 10:00,ZBAA 291000Z AUTO 12002KT 1 1/2SM 24/20 A2997 RMK T02400200 IEM_DS3505
ZBAA,2004-09-29 11:00,ZBAA 291100Z AUTO 09002KT 1 1/2SM 23/20 A3000 RMK T02300200 IEM_DS3505
ZBAA,2004-09-29 12:00,ZBAA 291200Z AUTO 11002KT 5SM 23/18 A3000 RMK SLP156 T02260175 52015 IEM_DS3505
ZBAA,2004-09-29 13:00,ZBAA 291300Z AUTO 12006KT 1 1/4SM 22/21 A3003 RMK T02200210 IEM_DS3505
ZBAA,2004-09-29 14:00,ZBAA 291400Z AUTO 13008KT 1SM 21/21 A3003 RMK T02100210 IEM_DS3505
ZBAA,2004-09-29 15:00,ZBAA 291500Z AUTO 14010KT 2 1/2SM 21/19 A3003 RMK SLP161 T02130187 52005 IEM_DS3505
ZBAA,2004-09-29 16:00,ZBAA 291600Z AUTO 12012KT 2SM 21/20 A3003 RMK T02100200 IEM_DS3505
ZBAA,2004-09-29 17:00,ZBAA 291700Z AUTO 12012KT 2SM 20/20 A3003 RMK T02000200 IEM_DS3505
ZBAA,2004-09-29 18:00,ZBAA 291800Z AUTO 14008KT 2SM 21/19 A3003 RMK SLP159 T02120188 57002 IEM_DS3505
ZBAA,2004-09-29 19:00,ZBAA 291900Z AUTO 11016G25KT 2 1/2SM 20/18 A3000 RMK T02000180 IEM_DS3505
ZBAA,2004-09-29 20:00,ZBAA 292000Z AUTO 12012KT 3SM 19/18 A3000 RMK T01900180 IEM_DS3505
ZBAA,2004-09-29 21:00,ZBAA 292100Z AUTO 09004KT 2SM 20/18 A3006 RMK SLP167 T02050181 52008 IEM_DS3505
ZBAA,2004-09-29 22:00,ZBAA 292200Z AUTO 12004KT 3SM 18/17 A3006 RMK T01800170 IEM_DS3505
ZBAA,2004-09-29 23:00,ZBAA 292300Z AUTO 13006KT 3SM 18/17 A3006 RMK T01800170 IEM_DS3505
ZBAA,2004-09-30 00:00,ZBAA 300000Z AUTO 18008KT 1 1/4SM 20/16 A3006 RMK 70000 SLP180 T01970165 52013 IEM_DS3505
ZBAA,2004-09-30 01:00,ZBAA 300100Z AUTO 13008KT 2SM 18/17 A3006 RMK T01800170 IEM_DS3505
ZBAA,2004-09-30 02:00,ZBAA 300200Z AUTO 12008KT 2SM 18/17 A3006 RMK T01800170 IEM_DS3505
ZBAA,2004-09-30 03:00,ZBAA 300300Z AUTO 27008G17KT 2SM 17/15 A3006 RMK SLP180 T01720150 57001 IEM_DS3505
ZBAA,2004-09-30 04:00,ZBAA 300400Z AUTO 24006KT 1 1/4SM 17/17 A3006 RMK T01700170 IEM_DS3505
ZBAA,2004-09-30 05:00,ZBAA 300500Z AUTO 31016G27KT 4SM 14/14 A3012 RMK T01400140 IEM_DS3505
ZBAA,2004-09-30 06:00,ZBAA 300600Z AUTO 36004KT 9SM 14/12 A3012 RMK 60067 SLP196 T01430116 52016 IEM_DS3505
ZBAA,2004-09-30 07:00,ZBAA 300700Z AUTO 31012KT 7SM 14/13 A3015 RMK T01400130 IEM_DS3505
ZBAA,2004-09-30 08:00,ZBAA 300800Z AUTO 33012KT 7SM 14/11 A3018 RMK T01400110 IEM_DS3505
ZBAA,2004-09-30 09:00,ZBAA 300900Z AUTO 02004KT 19SM 14/08 A3018 RMK SLP216 T01370081 52020 IEM_DS3505
ZBAA,2004-09-30 10:00,ZBAA 301000Z AUTO 01008KT 6SM 13/11 A3018 RMK T01300110 IEM_DS3505
ZBAA,2004-09-30 11:00,ZBAA 301100Z AUTO 01006KT 6SM 13/12 A3021 RMK T01300120 IEM_DS3505
ZBAA,2004-09-30 12:00,ZBAA 301200Z AUTO 36002KT 19SM 14/07 A3024 RMK 60003 SLP236 T01380071 52020 IEM_DS3505
ZBAA,2004-09-30 13:00,ZBAA 301300Z AUTO 33008KT 6SM 13/02 A3027 RMK T01300020 IEM_DS3505
ZBAA,2004-09-30 14:00,ZBAA 301400Z AUTO 32010KT 6SM 14/02 A3027 RMK T01400020 IEM_DS3505
ZBAA,2004-09-30 15:00,ZBAA 301500Z AUTO 32010KT 19SM 14/M07 A3030 RMK SLP254 T01451069 52018 IEM_DS3505
ZBAA,2004-09-30 16:00,ZBAA 301600Z AUTO 32017KT 6SM 13/M03 A3030 RMK T01301030 IEM_DS3505
ZBAA,2004-09-30 17:00,ZBAA 301700Z AUTO 33016KT 6SM 12/M03 A3030 RMK T01201030 IEM_DS3505
ZBAA,2004-09-30 18:00,ZBAA 301800Z AUTO 32012KT 16SM 13/M07 A3033 RMK SLP264 T01321074 52009 IEM_DS3505
ZBAA,2004-09-30 19:00,ZBAA 301900Z AUTO 30008KT 6SM 11/M03 A3030 RMK T01101030 IEM_DS3505
ZBAA,2004-09-30 20:00,ZBAA 302000Z AUTO 30017KT 6SM 11/M02 A3030 RMK T01101020 IEM_DS3505
ZBAA,2004-09-30 21:00,ZBAA 302100Z AUTO 32004KT 19SM 12/M07 A3030 RMK 70070 SLP264 T01201068 54000 IEM_DS3505
ZBAA,2004-09-30 22:00,ZBAA 302200Z AUTO 31010KT 6SM 09/M02 A3033 RMK T00901020 IEM_DS3505
ZBAA,2004-09-30 23:00,ZBAA 302300Z AUTO 31012KT 6SM 11/M02 A3033 RMK T01101020 IEM_DS3505
ZBAA,2004-10-01 00:00,ZBAA 010000Z AUTO 32014G27KT 19SM 12/M07 A3033 RMK 70070 SLP275 T01251069 52011 IEM_DS3505
ZBAA,2004-10-01 01:00,ZBAA 010100Z AUTO 33019G29KT 6SM 14/M03 A3033 RMK T01401030 IEM_DS3505
ZBAA,2004-10-01 02:00,ZBAA 010200Z AUTO 34019G29KT 6SM 15/M02 A3033 RMK T01501020 IEM_DS3505
ZBAA,2004-10-01 03:00,ZBAA 010300Z AUTO 32012G27KT 19SM 14/M06 A3033 RMK SLP274 T01391063 57001 IEM_DS3505
ZBAA,2004-10-01 04:00,ZBAA 010400Z AUTO 33021G37KT 6SM 16/M04 A3033 RMK T01601040 IEM_DS3505
ZBAA,2004-10-01 05:00,ZBAA 010500Z AUTO 34017KT 6SM 16/M01 A3033 RMK T01601010 IEM_DS3505
ZBAA,2004-10-01 06:00,ZBAA 010600Z AUTO 32010KT 19SM 15/M06 A3033 RMK SLP267 T01521063 57007 IEM_DS3505
ZBAA,2004-10-01 07:00,ZBAA 010700Z AUTO 32012KT 6SM 16/M02 A3033 RMK T01601020 IEM_DS3505
ZBAA,2004-10-01 08:00,ZBAA 010800Z AUTO 34016KT 6SM 16/M03 A3033 RMK T01601030 IEM_DS3505
ZBAA,2004-10-01 09:00,ZBAA 010900Z AUTO 34010G25KT 19SM 14/M08 A3036 RMK SLP272 T01441076 52005 IEM_DS3505
ZBAA,2004-10-01 10:00,ZBAA 011000Z AUTO 35012KT 6SM 12/M03 A3036 RMK T01201030 IEM_DS3505
ZBAA,2004-10-01 11:00,ZBAA 011100Z AUTO 35006KT 6SM 11/M02 A3036 RMK T01101020 IEM_DS3505
ZBAA,2004-10-01 12:00,ZBAA 011200Z AUTO 04002KT 19SM 10/M04 A3039 RMK SLP281 T01051035 52009 IEM_DS3505
ZBAA,2004-10-01 13:00,ZBAA 011300Z AUTO 34008KT 6SM 10/M03 A3036 RMK T01001030 IEM_DS3505
ZBAA,2004-10-01 14:00,ZBAA 011400Z AUTO 34006KT 6SM 09/M03 A3039 RMK T00901030 IEM_DS3505
ZBAA,2004-10-01 15:00,ZBAA 011500Z AUTO 22002KT 19SM 08/M02 A3036 RMK SLP282 T00831015 52001 IEM_DS3505
ZBAA,2004-10-01 16:00,ZBAA 011600Z AUTO 24004KT 6SM 08/00 A3036 RMK T00800000 IEM_DS3505
ZBAA,2004-10-01 17:00,ZBAA 011700Z AUTO 21002KT 6SM 07/00 A3036 RMK T00700000 IEM_DS3505
ZBAA,2004-10-01 18:00,ZBAA 011800Z AUTO 08002KT 6SM 06/02 A3036 RMK T00600020 IEM_DS3505
ZBAA,2004-10-01 19:00,ZBAA 011900Z AUTO 34002KT 6SM 05/02 A3033 RMK T00500020 IEM_DS3505
ZBAA,2004-10-01 20:00,ZBAA 012000Z AUTO 32002KT 6SM 03/01 A3033 RMK T00300010 IEM_DS3505
ZBAA,2004-10-01 21:00,ZBAA 012100Z AUTO 22002KT 16SM 05/M00 RMK SLP265 T00501004 57008 IEM_DS3505
ZBAA,2004-10-01 22:00,ZBAA 012200Z AUTO 00000KT 6SM 03/02 A3033 RMK T00300020 IEM_DS3505
ZBAA,2004-10-01 23:00,ZBAA 012300Z AUTO 00000KT 6SM 04/03 A3033 RMK T00400030 IEM_DS3505
ZBAA,2004-10-02 00:00,ZBAA 020000Z AUTO 25006KT 16SM 10/M00 A3033 RMK SLP265 T01011004 54000 IEM_DS3505
ZBAA,2004-10-02 01:00,ZBAA 020100Z AUTO 6SM 10/06 A3033 RMK T01000060 IEM_DS3505
ZBAA,2004-10-02 02:00,ZBAA 020200Z AUTO 02002KT 6SM 12/04 A3030 RMK T01200040 IEM_DS3505
ZBAA,2004-10-02 03:00,ZBAA 020300Z AUTO 22004KT 16SM 13/01 A3030 RMK SLP254 T01340008 57011 IEM_DS3505
ZBAA,2004-10-02 04:00,ZBAA 020400Z AUTO 09002KT 6SM 15/02 A3027 RMK T01500020 IEM_DS3505
ZBAA,2004-10-02 05:00,ZBAA 020500Z AUTO 6SM 16/03 A3024 RMK T01600030 IEM_DS3505
ZBAA,2004-10-02 06:00,ZBAA 020600Z AUTO 20008KT 19SM 18/M02 A3021 RMK T01811022 IEM_DS3505
ZBAA,2004-10-02 07:00,ZBAA 020700Z AUTO 16004KT 6SM 19/00 A3018 RMK T01900000 IEM_DS3505
ZBAA,2004-10-02 08:00,ZBAA 020800Z AUTO 17006KT 6SM 19/M02 A3018 RMK T01901020 IEM_DS3505
ZBAA,2004-10-02 09:00,ZBAA 020900Z AUTO 16004KT 19SM 19/M01 A3015 RMK SLP213 T01861012 57012 IEM_DS3505
ZBAA,2004-10-02 10:00,ZBAA 021000Z AUTO 16004KT 6SM 15/04 A3018 RMK T01500040 IEM_DS3505
ZBAA,2004-10-02 11:00,ZBAA 021100Z AUTO 13004KT 6SM 13/04 A3018 RMK T01300040 IEM_DS3505
ZBAA,2004-10-02 12:00,ZBAA 021200Z AUTO 20004KT 19SM 15/01 A3018 RMK SLP220 T01490008 52007 IEM_DS3505
ZBAA,2004-10-02 13:00,ZBAA 021300Z AUTO 00000KT 5SM 10/06 A3021 RMK T01000060 IEM_DS3505
ZBAA,2004-10-02 14:00,ZBAA 021400Z AUTO 03002KT 4SM 10/05 A3021 RMK T01000050 IEM_DS3505
ZBAA,2004-10-02 15:00,ZBAA 021500Z AUTO 09002KT 16SM 10/03 A3021 RMK SLP223 T00980031 52003 IEM_DS3505
ZBAA,2004-10-02 16:00,ZBAA 021600Z AUTO 08002KT 4SM 08/05 A3018 RMK T00800050 IEM_DS3505
ZBAA,2004-10-02 17:00,ZBAA 021700Z AUTO 03002KT 5SM 07/05 A3018 RMK T00700050 IEM_DS3505
ZBAA,2004-10-02 18:00,ZBAA 021800Z AUTO 25002KT 16SM 08/02 A3018 RMK SLP218 T00840024 57005 IEM_DS3505
ZBAA,2004-10-02 19:00,ZBAA 021900Z AUTO 36004KT 6SM 05/04 A3018 RMK T00500040 IEM_DS3505
ZBAA,2004-10-02 20:00,ZBAA 022000Z AUTO 35002KT 6SM 06/05 A3018 RMK T00600050 IEM_DS3505
ZBAA,2004-10-02 21:00,ZBAA 022100Z AUTO 07004KT 12SM 08/03 A3018 RMK SLP219 T00770032 52001 IEM_DS3505
ZBAA,2004-10-02 22:00,ZBAA 022200Z AUTO 34004KT 6SM 05/04 A3018 RMK T00500040 IEM_DS3505
ZBAA,2004-10-03 00:00,ZBAA 030000Z AUTO 04002KT 7SM 10/04 A3021 RMK SLP227 T01050038 52008 IEM_DS3505
ZBAA,2004-10-03 01:00,ZBAA 030100Z AUTO 6SM 12/08 A3021 RMK T01200080 IEM_DS3505
ZBAA,2004-10-03 03:00,ZBAA 030300Z AUTO 09002KT 9SM 17/03 A3018 RMK SLP221 T01690033 57006 IEM_DS3505
ZBAA,2004-10-03 04:00,ZBAA 030400Z AUTO 16004KT 6SM 19/07 A3018 RMK T01900070 IEM_DS3505
ZBAA,2004-10-03 05:00,ZBAA 030500Z AUTO 19004KT 6SM 21/05 A3015 RMK T02100050 IEM_DS3505
ZBAA,2004-10-03 06:00,ZBAA 030600Z AUTO 16004KT 12SM 21/03 A3012 RMK SLP196 T02130026 57024 IEM_DS3505
ZBAA,2004-10-03 07:00,ZBAA 030700Z AUTO 19008KT 6SM 22/05 A3009 RMK T02200050 IEM_DS3505
ZBAA,2004-10-03 08:00,ZBAA 030800Z AUTO 17006KT 6SM 22/06 A3009 RMK T02200060 IEM_DS3505
ZBAA,2004-10-03 09:00,ZBAA 030900Z AUTO 20004KT 12SM 21/02 A3009 RMK SLP191 T02090023 57005 IEM_DS3505
ZBAA,2004-10-03 10:00,ZBAA 031000Z AUTO 17002KT 18/07 A3012 RMK T01800070 IEM_DS3505
ZBAA,2004-10-03 11:00,ZBAA 031100Z AUTO 11002KT 15/09 A3012 RMK T01500090 IEM_DS3505
ZBAA,2004-10-03 12:00,ZBAA 031200Z AUTO 18002KT 7SM 16/05 A3012 RMK SLP202 T01610048 52011 IEM_DS3505
ZBAA,2004-10-03 13:00,ZBAA 031300Z AUTO 06002KT 4SM 13/10 A3015 RMK T01300100 IEM_DS3505
ZBAA,2004-10-03 14:00,ZBAA 031400Z AUTO 00000KT 4SM 12/10 A3015 RMK T01200100 IEM_DS3505
ZBAA,2004-10-03 15:00,ZBAA 031500Z AUTO 00000KT 6SM 12/07 A3015 RMK SLP206 T01230070 52004 IEM_DS3505
ZBAA,2004-10-03 16:00,ZBAA 031600Z AUTO 00000KT 2SM 10/08 A3015 RMK T01000080 IEM_DS3505
ZBAA,2004-10-03 17:00,ZBAA 031700Z AUTO 36002KT 2SM 11/09 A3015 RMK T01100090 IEM_DS3505
ZBAA,2004-10-03 18:00,ZBAA 031800Z AUTO 04002KT 6SM 11/07 A3015 RMK SLP206 T01090067 54000 IEM_DS3505
ZBAA,2004-10-03 19:00,ZBAA 031900Z AUTO 35006KT 2 1/2SM 09/08 A3015 RMK T00900080 IEM_DS3505
ZBAA,2004-10-03 20:00,ZBAA 032000Z AUTO 34004KT 2 1/2SM 09/08 A3015 RMK T00900080 IEM_DS3505
ZBAA,2004-10-03 21:00,ZBAA 032100Z AUTO 02002KT 6SM 10/07 A3015 RMK SLP207 T00970068 52001 IEM_DS3505
ZBAA,2004-10-03 22:00,ZBAA 032200Z AUTO 35004KT 2 1/2SM 08/08 A3015 RMK T00800080 IEM_DS3505
ZBAA,2004-10-03 23:00,ZBAA 032300Z AUTO 36004KT 2 1/2SM 09/08 A3015 RMK T00900080 IEM_DS3505
ZBAA,2004-10-04 00:00,ZBAA 040000Z AUTO 00000KT 7SM 12/07 A3018 RMK SLP215 T01230074 52008 IEM_DS3505
ZBAA,2004-10-04 01:00,ZBAA 040100Z AUTO 02002KT 3SM 14/10 A3018 RMK T01400100 IEM_DS3505
ZBAA,2004-10-04 02:00,ZBAA 040200Z AUTO 14002KT 3SM 16/11 A3018 RMK T01600110 IEM_DS3505
ZBAA,2004-10-04 03:00,ZBAA 040300Z AUTO 20004KT 6SM 19/07 A3018 RMK SLP218 T01910066 52003 IEM_DS3505
ZBAA,2004-10-04 04:00,ZBAA 040400Z AUTO 2 1/2SM 21/10 A3015 RMK T02100100 IEM_DS3505
ZBAA,2004-10-04 05:00,ZBAA 040500Z AUTO 16004KT 2 1/2SM 22/09 A3015 RMK T02200090 IEM_DS3505
ZBAA,2004-10-04 06:00,ZBAA 040600Z AUTO 22006KT 7SM 23/05 A3012 RMK SLP193 T02340054 57025 IEM_DS3505
ZBAA,2004-10-04 07:00,ZBAA 040700Z AUTO 18004KT 2 1/2SM 24/10 A3009 RMK T02400100 IEM_DS3505
ZBAA,2004-10-04 08:00,ZBAA 040800Z AUTO 19004KT 3SM 24/09 A3009 RMK T02400090 IEM_DS3505
ZBAA,2004-10-04 09:00,ZBAA 040900Z AUTO 22006KT 7SM 22/07 A3009 RMK SLP190 T02250071 57003 IEM_DS3505
ZBAA,2004-10-04 10:00,ZBAA 041000Z AUTO 19002KT 2 1/2SM 19/11 A3009 RMK T01900110 IEM_DS3505
ZBAA,2004-10-04 11:00,ZBAA 041100Z AUTO 11002KT 2 1/2SM 17/12 A3012 RMK T01700120 IEM_DS3505
ZBAA,2004-10-04 12:00,ZBAA 041200Z AUTO 22004KT 6SM 18/09 A3012 RMK SLP195 T01780087 52005 IEM_DS3505
ZBAA,2004-10-04 13:00,ZBAA 041300Z AUTO 09002KT 2SM 15/12 A3012 RMK T01500120 IEM_DS3505
ZBAA,2004-10-04 14:00,ZBAA 041400Z AUTO 13002KT 2SM 14/12 A3012 RMK T01400120 IEM_DS3505
ZBAA,2004-10-04 15:00,ZBAA 041500Z AUTO 22002KT 5SM 14/09 A3015 RMK SLP202 T01400086 52007 IEM_DS3505
ZBAA,2004-10-04 16:00,ZBAA 041600Z AUTO 01002KT 1 1/4SM 12/11 A3015 RMK T01200110 IEM_DS3505
ZBAA,2004-10-04 17:00,ZBAA 041700Z AUTO 00000KT 1 1/4SM 11/11 A3015 RMK T01100110 IEM_DS3505
ZBAA,2004-10-04 18:00,ZBAA 041800Z AUTO 22002KT 4SM 12/08 A3015 RMK SLP203 T01230082 52001 IEM_DS3505
ZBAA,2004-10-04 19:00,ZBAA 041900Z AUTO 35004KT 2SM 12/11 A3015 RMK T01200110 IEM_DS3505
ZBAA,2004-10-04 20:00,ZBAA 042000Z AUTO 35006KT 2SM 11/10 A3015 RMK T01100100 IEM_DS3505
ZBAA,2004-10-04 21:00,ZBAA 042100Z AUTO 00000KT 2 1/2SM 11/08 A3015 RMK SLP204 T01060084 52001 IEM_DS3505
ZBAA,2004-10-04 22:00,ZBAA 042200Z AUTO 34002KT 1 1/2SM 10/10 A3015 RMK T01000100 IEM_DS3505
ZBAA,2004-10-04 23:00,ZBAA 042300Z AUTO 34006KT 1 1/4SM 10/09 A3015 RMK T01000090 IEM_DS3505
ZBAA,2004-10-05 00:00,ZBAA 050000Z AUTO 00000KT 2SM 13/11 A3015 RMK SLP211 T01320107 52007 IEM_DS3505
ZBAA,2004-10-05 01:00,ZBAA 050100Z AUTO 36006KT 2SM 15/11 A3018 RMK T01500110 IEM_DS3505
ZBAA,2004-10-05 02:00,ZBAA 050200Z AUTO 02002KT 3SM 19/12 A3015 RMK T01900120 IEM_DS3505
ZBAA,2004-10-05 03:00,ZBAA 050300Z AUTO 02002KT 6SM 21/08 A3015 RMK SLP205 T02130082 57006 IEM_DS3505
ZBAA,2004-10-05 04:00,ZBAA 050400Z AUTO 3SM 23/11 A3012 RMK T02300110 IEM_DS3505
ZBAA,2004-10-05 05:00,ZBAA 050500Z AUTO 25/11 A3009 RMK T02500110 IEM_DS3505
ZBAA,2004-10-05 06:00,ZBAA 050600Z AUTO 22008KT 6SM 25/08 A3009 RMK SLP182 T02510077 57023 IEM_DS3505
ZBAA,2004-10-05 07:00,ZBAA 050700Z AUTO 17004KT 2 1/2SM 26/12 A3006 RMK T02600120 IEM_DS3505
ZBAA,2004-10-05 08:00,ZBAA 050800Z AUTO 21004KT 3SM 26/10 A3006 RMK T02600100 IEM_DS3505
ZBAA,2004-10-05 09:00,ZBAA 050900Z AUTO 22004KT 6SM 23/08 A3003 RMK SLP172 T02330082 57010 IEM_DS3505
ZBAA,2004-10-05 10:00,ZBAA 051000Z AUTO 22004KT 3SM 20/10 A3003 RMK T02000100 IEM_DS3505
ZBAA,2004-10-05 11:00,ZBAA 051100Z AUTO 13002KT 3SM 18/12 A3006 RMK T01800120 IEM_DS3505
ZBAA,2004-10-05 12:00,ZBAA 051200Z AUTO 25004KT 6SM 19/09 A3006 RMK SLP179 T01890086 52007 IEM_DS3505
ZBAA,2004-10-05 13:00,ZBAA 051300Z AUTO 11002KT 2 1/2SM 16/12 A3009 RMK T01600120 IEM_DS3505
ZBAA,2004-10-05 14:00,ZBAA 051400Z AUTO 14002KT 2 1/2SM 14/11 A3009 RMK T01400110 IEM_DS3505
ZBAA,2004-10-05 15:00,ZBAA 051500Z AUTO 27004KT 6SM 17/09 A3006 RMK SLP180 T01680088 52001 IEM_DS3505
ZBAA,2004-10-05 16:00,ZBAA 051600Z AUTO 01002KT 2SM 14/12 A3006 RMK T01400120 IEM_DS3505
ZBAA,2004-10-05 17:00,ZBAA 051700Z AUTO 01002KT 1 1/4SM 12/11 A3006 RMK T01200110 IEM_DS3505
ZBAA,2004-10-05 18:00,ZBAA 051800Z AUTO 22002KT 4SM 13/09 A3006 RMK SLP176 T01300093 57004 IEM_DS3505
ZBAA,2004-10-05 19:00,ZBAA 051900Z AUTO 33002KT 1 1/4SM 12/11 A3006 RMK T01200110 IEM_DS3505
ZBAA,2004-10-05 20:00,ZBAA 052000Z AUTO 33002KT 1 1/4SM 11/10 A3006 RMK T01100100 IEM_DS3505
ZBAA,2004-10-05 21:00,ZBAA 052100Z AUTO 00000KT 3SM 12/10 A3006 RMK SLP176 T01210095 54000 IEM_DS3505
ZBAA,2004-10-05 22:00,ZBAA 052200Z AUTO 35004KT 1 1/4SM 11/10 A3006 RMK T01100100 IEM_DS3505
ZBAA,2004-10-05 23:00,ZBAA 052300Z AUTO 35006KT 1 1/4SM 12/11 A3006 RMK T01200110 IEM_DS3505
ZBAA,2004-10-06 00:00,ZBAA 060000Z AUTO 14002KT 2SM 14/10 A3009 RMK SLP185 T01450101 52009 IEM_DS3505
ZBAA,2004-10-06 01:00,ZBAA 060100Z AUTO 1 1/2SM 16/13 A3009 RMK T01600130 IEM_DS3505
ZBAA,2004-10-06 02:00,ZBAA 060200Z AUTO 2SM 18/13 A3009 RMK T01800130 IEM_DS3505
ZBAA,2004-10-06 03:00,ZBAA 060300Z AUTO 04004KT 4SM 20/09 A3009 RMK SLP181 T02040090 57004 IEM_DS3505
ZBAA,2004-10-06 04:00,ZBAA 060400Z AUTO 2 1/2SM 22/14 A3006 RMK T02200140 IEM_DS3505
ZBAA,2004-10-06 05:00,ZBAA 060500Z AUTO 13002KT 1 1/2SM 23/13 A3003 RMK T02300130 IEM_DS3505
ZBAA,2004-10-06 06:00,ZBAA 060600Z AUTO 18004KT 5SM 24/10 A3000 RMK SLP153 T02390102 57028 IEM_DS3505
ZBAA,2004-10-06 07:00,ZBAA 060700Z AUTO 18004KT 1 1/2SM 25/14 A2997 RMK T02500140 IEM_DS3505
ZBAA,2004-10-06 08:00,ZBAA 060800Z AUTO 15004KT 1 1/2SM 23/15 A2997 RMK T02300150 IEM_DS3505
ZBAA,2004-10-06 09:00,ZBAA 060900Z AUTO 18004KT 4SM 23/12 A2997 RMK SLP144 T02320116 57009 IEM_DS3505
ZBAA,2004-10-06 10:00,ZBAA 061000Z AUTO 09002KT 1 1/4SM 19/15 A2997 RMK T01900150 IEM_DS3505
ZBAA,2004-10-06 11:00,ZBAA 061100Z AUTO 12002KT 1 1/4SM 18/15 A2997 RMK T01800150 IEM_DS3505
ZBAA,2004-10-06 12:00,ZBAA 061200Z AUTO 18002KT 2 1/2SM 18/12 A3000 RMK SLP154 T01770122 52010 IEM_DS3505
ZBAA,2004-10-06 12:30,ZBAA 061230Z AUTO 00000KT 1 1/4SM 16/15 A3000 RMK T01600150 IEM_DS3505
ZBAA,2004-10-06 13:00,ZBAA 061300Z AUTO 00000KT 1 1/4SM 16/15 A3000 RMK T01600150 IEM_DS3505
ZBAA,2004-10-06 14:00,ZBAA 061400Z AUTO 09002KT 1SM 15/14 A3000 RMK T01500140 IEM_DS3505
ZBAA,2004-10-06 15:00,ZBAA 061500Z AUTO 00000KT 2SM 15/12 A3000 RMK SLP154 T01510119 54000 IEM_DS3505
ZBAA,2004-10-06 16:00,ZBAA 061600Z AUTO 00000KT 1SM 13/13 A3000 RMK T01300130 IEM_DS3505
ZBAA,2004-10-06 17:00,ZBAA 061700Z AUTO 01002KT 1SM 14/13 A3000 RMK T01400130 IEM_DS3505
ZBAA,2004-10-06 18:00,ZBAA 061800Z AUTO 00000KT 2SM 14/11 A3000 RMK SLP153 T01390111 57001 IEM_DS3505
ZBAA,2004-10-06 19:00,ZBAA 061900Z AUTO 08002KT 1SM 13/13 A3000 RMK T01300130 IEM_DS3505
ZBAA,2004-10-06 20:00,ZBAA 062000Z AUTO 00000KT 1SM 12/12 A3000 RMK T01200120 IEM_DS3505
ZBAA,2004-10-06 21:00,ZBAA 062100Z AUTO 00000KT 1 1/4SM 13/11 A3000 RMK SLP155 T01320109 52002 IEM_DS3505
ZBAA,2004-10-06 22:00,ZBAA 062200Z AUTO 02002KT 1SM 12/12 A3000 RMK T01200120 IEM_DS3505
ZBAA,2004-10-06 23:00,ZBAA 062300Z AUTO 36004KT 1SM 12/12 A3000 RMK T01200120 IEM_DS3505
ZBAA,2004-10-07 00:00,ZBAA 070000Z AUTO 00000KT 1SM 14/11 A3003 RMK SLP168 T01350114 52013 IEM_DS3505
ZBAA,2004-10-07 01:00,ZBAA 070100Z AUTO 00000KT 1/2SM 15/14 A3006 RMK T01500140 IEM_DS3505
ZBAA,2004-10-07 02:00,ZBAA 070200Z AUTO 1SM 16/14 A3003 RMK T01600140 IEM_DS3505
ZBAA,2004-10-07 03:00,ZBAA 070300Z AUTO 11002KT 2 1/2SM 19/12 A3003 RMK SLP166 T01930119 57002 IEM_DS3505
ZBAA,2004-10-07 04:00,ZBAA 070400Z AUTO 12004KT 1SM 19/14 A3000 RMK T01900140 IEM_DS3505
ZBAA,2004-10-07 05:00,ZBAA 070500Z AUTO 14004KT 1SM 20/15 A3000 RMK T02000150 IEM_DS3505
ZBAA,2004-10-07 06:00,ZBAA 070600Z AUTO 14004KT 4SM 23/12 A2997 RMK SLP145 T02300123 57021 IEM_DS3505
ZBAA,2004-10-07 07:00,ZBAA 070700Z AUTO 1/2SM 22/17 A2997 RMK T02200170 IEM_DS3505
ZBAA,2004-10-07 08:00,ZBAA 070800Z AUTO 00000KT 1/2SM 22/17 A2994 RMK T02200170 IEM_DS3505
ZBAA,2004-10-07 09:00,ZBAA 070900Z AUTO 20004KT 6SM 22/12 A2997 RMK SLP142 T02240115 57003 IEM_DS3505
ZBAA,2004-10-07 10:00,ZBAA 071000Z AUTO 01002KT 1SM 18/16 A2997 RMK T01800160 IEM_DS3505
ZBAA,2004-10-07 11:00,ZBAA 071100Z AUTO 01002KT 1SM 18/16 A3000 RMK T01800160 IEM_DS3505
ZBAA,2004-10-07 12:00,ZBAA 071200Z AUTO 00000KT 5SM 17/13 A3000 RMK SLP158 T01680126 52016 IEM_DS3505
ZBAA,2004-10-07 13:00,ZBAA 071300Z AUTO 00000KT 1SM 16/16 A3000 RMK T01600160 IEM_DS3505
ZBAA,2004-10-07 14:00,ZBAA 071400Z AUTO 00000KT 1SM 16/15 A3003 RMK T01600150 IEM_DS3505
ZBAA,2004-10-07 15:00,ZBAA 071500Z AUTO 00000KT 3SM 15/12 A3003 RMK SLP162 T01480118 52004 IEM_DS3505
ZBAA,2004-10-07 16:00,ZBAA 071600Z AUTO 00000KT 1SM 14/13 A3003 RMK T01400130 IEM_DS3505
ZBAA,2004-10-07 17:00,ZBAA 071700Z AUTO 00000KT 1SM 13/13 A3003 RMK T01300130 IEM_DS3505
ZBAA,2004-10-07 18:00,ZBAA 071800Z AUTO 00000KT 2SM 13/11 RMK SLP165 T01320111 52003 IEM_DS3505
ZBAA,2004-10-07 19:00,ZBAA 071900Z AUTO 36002KT 1/2SM 12/12 A3003 RMK T01200120 IEM_DS3505
ZBAA,2004-10-07 20:00,ZBAA 072000Z AUTO 34004KT 1/2SM 12/12 A3003 RMK T01200120 IEM_DS3505
ZBAA,2004-10-07 21:00,ZBAA 072100Z AUTO 07002KT 1/2SM 13/11 A3003 RMK SLP162 T01310113 57003 IEM_DS3505
ZBAA,2004-10-07 22:00,ZBAA 072200Z AUTO 35004KT 1SM 11/11 A3003 RMK T01100110 IEM_DS3505
ZBAA,2004-10-07 23:00,ZBAA 072300Z AUTO 33004KT 1SM 12/12 A3003 RMK T01200120 IEM_DS3505
ZBAA,2004-10-08 00:00,ZBAA 080000Z AUTO 35006KT 1SM 13/13 A3006 RMK T01300130 IEM_DS3505
ZBAA,2004-10-08 01:00,ZBAA 080100Z AUTO 35006KT 1SM 15/14 A3006 RMK T01500140 IEM_DS3505
ZBAA,2004-10-08 02:00,ZBAA 080200Z AUTO 35006KT 1SM 18/14 A3006 RMK T01800140 IEM_DS3505
ZBAA,2004-10-08 03:00,ZBAA 080300Z AUTO 04002KT 2 1/2SM 20/12 A3006 RMK SLP173 T02030125 57002 IEM_DS3505
ZBAA,2004-10-08 04:00,ZBAA 080400Z AUTO 1SM 22/15 A3003 RMK T02200150 IEM_DS3505
ZBAA,2004-10-08 05:00,ZBAA 080500Z AUTO 1SM 24/15 A3000 RMK T02400150 IEM_DS3505
ZBAA,2004-10-08 06:00,ZBAA 080600Z AUTO 20004KT 2 1/2SM 25/12 A3000 RMK SLP153 T02500123 57020 IEM_DS3505
ZBAA,2004-10-08 07:00,ZBAA 080700Z AUTO 1 1/2SM 26/14 A2997 RMK T02600140 IEM_DS3505
ZBAA,2004-10-08 08:00,ZBAA 080800Z AUTO 20004KT 2 1/2SM 26/10 A2997 RMK T02600100 IEM_DS3505
ZBAA,2004-10-08 09:00,ZBAA 080900Z AUTO 20002KT 2SM 23/14 A2997 RMK SLP147 T02280136 57006 IEM_DS3505
ZBAA,2004-10-08 10:00,ZBAA 081000Z AUTO 19006KT 1 1/4SM 21/15 A2997 RMK T02100150 IEM_DS3505
ZBAA,2004-10-08 11:00,ZBAA 081100Z AUTO 1SM 21/16 A3000 RMK T02100160 IEM_DS3505
ZBAA,2004-10-08 12:00,ZBAA 081200Z AUTO 00000KT 1 1/4SM 17/14 A3000 RMK SLP160 T01740141 52013 IEM_DS3505
ZBAA,2004-10-08 13:00,ZBAA 081300Z AUTO 00000KT 1SM 16/15 A3003 RMK T01600150 IEM_DS3505
ZBAA,2004-10-08 14:00,ZBAA 081400Z AUTO 09002KT 1SM 16/15 A3003 RMK T01600150 IEM_DS3505
ZBAA,2004-10-08 15:00,ZBAA 081500Z AUTO 22002KT 1/2SM 15/13 A3006 RMK SLP172 T01540134 52012 IEM_DS3505
ZBAA,2004-10-08 16:00,ZBAA 081600Z AUTO 35004KT 1SM 14/14 A3006 RMK T01400140 IEM_DS3505
ZBAA,2004-10-08 17:00,ZBAA 081700Z AUTO 35004KT 1SM 13/13 A3006 RMK T01300130 IEM_DS3505
ZBAA,2004-10-08 18:00,ZBAA 081800Z AUTO 04004KT 1/4SM 14/13 A3006 RMK SLP170 T01440128 57001 IEM_DS3505
ZBAA,2004-10-08 19:00,ZBAA 081900Z AUTO 34004KT 1SM 12/12 A3006 RMK T01200120 IEM_DS3505
ZBAA,2004-10-08 20:00,ZBAA 082000Z AUTO 34004KT 1SM 13/12 A3006 RMK T01300120 IEM_DS3505
ZBAA,2004-10-08 21:00,ZBAA 082100Z AUTO 04004KT 1 1/4SM 14/11 A3006 RMK SLP174 T01370111 52003 IEM_DS3505
ZBAA,2004-10-08 22:00,ZBAA 082200Z AUTO 33004KT 1SM 11/10 A3006 RMK T01100100 IEM_DS3505
ZBAA,2004-10-08 23:00,ZBAA 082300Z AUTO 35004KT 1 1/2SM 12/11 A3009 RMK T01200110 IEM_DS3505
ZBAA,2004-10-09 00:00,ZBAA 090000Z AUTO 07004KT 1 1/4SM 15/09 A3009 RMK SLP190 T01540093 52016 IEM_DS3505
ZBAA,2004-10-09 01:00,ZBAA 090100Z AUTO 35004KT 2 1/2SM 16/13 A3012 RMK T01600130 IEM_DS3505
ZBAA,2004-10-09 02:00,ZBAA 090200Z AUTO 2SM 18/14 A3012 RMK T01800140 IEM_DS3505
ZBAA,2004-10-09 03:00,ZBAA 090300Z AUTO 04004KT 3SM 20/10 A3012 RMK SLP192 T02030101 52002 IEM_DS3505
ZBAA,2004-10-09 04:00,ZBAA 090400Z AUTO 1SM 22/16 A3009 RMK T02200160 IEM_DS3505
ZBAA,2004-10-09 05:00,ZBAA 090500Z AUTO 1SM 23/17 A3006 RMK T02300170 IEM_DS3505
ZBAA,2004-10-09 06:00,ZBAA 090600Z AUTO 07004KT 2SM 24/13 A3006 RMK SLP171 T02380134 57021 IEM_DS3505
ZBAA,2004-10-09 07:00,ZBAA 090700Z AUTO 13004KT 1SM 24/18 A3003 RMK T02400180 IEM_DS3505
ZBAA,2004-10-09 08:00,ZBAA 090800Z AUTO 15004KT 1SM 23/18 A3003 RMK T02300180 IEM_DS3505
ZBAA,2004-10-09 09:00,ZBAA 090900Z AUTO 14002KT 2SM 23/15 A3003 RMK SLP166 T02260147 57005 IEM_DS3505
ZBAA,2004-10-09 10:00,ZBAA 091000Z AUTO 15002KT 1SM 19/16 A3003 RMK T01900160 IEM_DS3505
ZBAA,2004-10-09 11:00,ZBAA 091100Z AUTO 00000KT 1SM 19/16 A3006 RMK T01900160 IEM_DS3505
ZBAA,2004-10-09 12:00,ZBAA 091200Z AUTO 09002KT 1 1/4SM 18/15 A3006 RMK SLP180 T01750148 52014 IEM_DS3505
ZBAA,2004-10-09 13:00,ZBAA 091300Z AUTO 00000KT 1/2SM 16/15 A3009 RMK T01600150 IEM_DS3505
ZBAA,2004-10-09 14:00,ZBAA 091400Z AUTO 09002KT 1/2SM 16/16 A3009 RMK T01600160 IEM_DS3505
ZBAA,2004-10-09 15:00,ZBAA 091500Z AUTO 09002KT 1SM 16/14 A3009 RMK SLP181 T01650145 52001 IEM_DS3505
ZBAA,2004-10-09 16:00,ZBAA 091600Z AUTO 34004KT 1SM 14/13 A3009 RMK T01400130 IEM_DS3505
ZBAA,2004-10-09 17:00,ZBAA 091700Z AUTO 00000KT 1SM 15/14 A3006 RMK T01500140 IEM_DS3505
ZBAA,2004-10-09 18:00,ZBAA 091800Z AUTO 00000KT 1/4SM 15/13 A3006 RMK SLP176 T01500134 57005 IEM_DS3505
ZBAA,2004-10-09 19:00,ZBAA 091900Z AUTO 34002KT 1SM 13/13 A3006 RMK T01300130 IEM_DS3505
ZBAA,2004-10-09 20:00,ZBAA 092000Z AUTO 1SM 13/13 A3006 RMK T01300130 IEM_DS3505
ZBAA,2004-10-09 21:00,ZBAA 092100Z AUTO 07002KT 1/2SM 13/12 A3006 RMK SLP174 T01340115 57002 IEM_DS3505
ZBAA,2004-10-09 22:00,ZBAA 092200Z AUTO 1SM 13/12 A3006 RMK T01300120 IEM_DS3505
ZBAA,2004-10-09 23:00,ZBAA 092300Z AUTO 34002KT 1SM 12/12 A3006 RMK T01200120 IEM_DS3505
ZBAA,2004-10-10 00:00,ZBAA 100000Z AUTO 04004KT 1 1/4SM 14/12 A3006 RMK SLP181 T01450117 52007 IEM_DS3505
ZBAA,2004-10-10 01:00,ZBAA 100100Z AUTO 01004KT 1SM 15/14 A3009 RMK T01500140 IEM_DS3505
ZBAA,2004-10-10 02:00,ZBAA 100200Z AUTO 00000KT 1SM 16/14 A3009 RMK T01600140 IEM_DS3505
ZBAA,2004-10-10 03:00,ZBAA 100300Z AUTO 07002KT 1 1/4SM 18/11 A3006 RMK SLP179 T01760112 57002 IEM_DS3505
ZBAA,2004-10-10 04:00,ZBAA 100400Z AUTO 02002KT 1SM 19/14 A3006 RMK T01900140 IEM_DS3505
ZBAA,2004-10-10 05:00,ZBAA 100500Z AUTO 1SM 20/14 A3003 RMK T02000140 IEM_DS3505
ZBAA,2004-10-10 06:00,ZBAA 100600Z AUTO 09002KT 2SM 20/12 A3000 RMK SLP157 T02030123 57022 IEM_DS3505
ZBAA,2004-10-10 07:00,ZBAA 100700Z AUTO 12002KT 1SM 21/15 A3000 RMK T02100150 IEM_DS3505
ZBAA,2004-10-10 08:00,ZBAA 100800Z AUTO 13002KT 1SM 20/15 A3000 RMK T02000150 IEM_DS3505
ZBAA,2004-10-10 09:00,ZBAA 100900Z AUTO 25002KT 1 1/4SM 20/13 A3000 RMK SLP158 T01960131 52001 IEM_DS3505
ZBAA,2004-10-10 10:00,ZBAA 101000Z AUTO 00000KT 1SM 18/15 A3000 RMK T01800150 IEM_DS3505
ZBAA,2004-10-10 11:00,ZBAA 101100Z AUTO 00000KT 1SM 18/16 A3003 RMK T01800160 IEM_DS3505
ZBAA,2004-10-10 12:00,ZBAA 101200Z AUTO 27002KT 1 1/4SM 17/13 A3003 RMK SLP168 T01730134 52010 IEM_DS3505
ZBAA,2004-10-10 13:00,ZBAA 101300Z AUTO 36002KT 1SM 17/16 A3003 RMK T01700160 IEM_DS3505
ZBAA,2004-10-10 14:00,ZBAA 101400Z AUTO 00000KT 1SM 16/15 A3003 RMK T01600150 IEM_DS3505
ZBAA,2004-10-10 15:00,ZBAA 101500Z AUTO 29004KT 1 1/4SM 17/14 A3003 RMK SLP169 T01720139 52001 IEM_DS3505
ZBAA,2004-10-10 16:00,ZBAA 101600Z AUTO 33004KT 1SM 16/15 A3003 RMK T01600150 IEM_DS3505
ZBAA,2004-10-10 17:00,ZBAA 101700Z AUTO 33004KT 2 1/2SM 16/14 A3006 RMK T01600140 IEM_DS3505
ZBAA,2004-10-10 18:00,ZBAA 101800Z AUTO 36006KT 6SM 14/10 A3006 RMK T01400100 IEM_DS3505
ZBAA,2004-10-10 19:00,ZBAA 101900Z AUTO 36004KT 6SM 13/04 A3009 RMK T01300040 IEM_DS3505
ZBAA,2004-10-10 20:00,ZBAA 102000Z AUTO 36008KT 6SM 15/01 A3009 RMK T01500010 IEM_DS3505
ZBAA,2004-10-10 21:00,ZBAA 102100Z AUTO 36006KT 19SM 17/M05 A3009 RMK SLP189 T01711047 52015 IEM_DS3505
ZBAA,2004-10-10 22:00,ZBAA 102200Z AUTO 34006KT 6SM 13/00 A3012 RMK T01300000 IEM_DS3505
ZBAA,2004-10-10 23:00,ZBAA 102300Z AUTO 34006KT 6SM 15/00 A3015 RMK T01500000 IEM_DS3505
ZBAA,2004-10-11 00:00,ZBAA 110000Z AUTO 36006KT 19SM 17/M05 A3018 RMK SLP212 T01711053 52023 IEM_DS3505
ZBAA,2004-10-11 01:00,ZBAA 110100Z AUTO 32008KT 6SM 17/00 A3018 RMK T01700000 IEM_DS3505
ZBAA,2004-10-11 02:00,ZBAA 110200Z AUTO 35010KT 6SM 18/00 A3018 RMK T01800000 IEM_DS3505
ZBAA,2004-10-11 03:00,ZBAA 110300Z AUTO 36006KT 19SM 19/M03 RMK SLP208 T01941034 57004 IEM_DS3505
ZBAA,2004-10-11 04:00,ZBAA 110400Z AUTO 02006KT 6SM 20/M01 A3015 RMK T02001010 IEM_DS3505
ZBAA,2004-10-11 05:00,ZBAA 110500Z AUTO 33006KT 6SM 22/M01 A3009 RMK T02201010 IEM_DS3505
ZBAA,2004-10-11 06:00,ZBAA 110600Z AUTO 32010KT 19SM 21/M06 A3009 RMK SLP186 T02111065 57021 IEM_DS3505
ZBAA,2004-10-11 07:00,ZBAA 110700Z AUTO 29008KT 6SM 22/M03 A3009 RMK T02201030 IEM_DS3505
ZBAA,2004-10-11 08:00,ZBAA 110800Z AUTO 29012KT 6SM 22/M06 A3009 RMK T02201060 IEM_DS3505
ZBAA,2004-10-11 09:00,ZBAA 110900Z AUTO 32012G21KT 19SM 20/M11 A3009 RMK SLP187 T02011112 54000 IEM_DS3505
ZBAA,2004-10-11 10:00,ZBAA 111000Z AUTO 30010KT 6SM 18/M06 A3012 RMK T01801060 IEM_DS3505
ZBAA,2004-10-11 11:00,ZBAA 111100Z AUTO 30008KT 6SM 17/M06 A3015 RMK T01701060 IEM_DS3505
ZBAA,2004-10-11 12:00,ZBAA 111200Z AUTO 29004KT 19SM 17/M10 A3015 RMK SLP209 T01701097 52022 IEM_DS3505
ZBAA,2004-10-11 13:00,ZBAA 111300Z AUTO 34006KT 6SM 15/M06 A3018 RMK T01501060 IEM_DS3505
ZBAA,2004-10-11 14:00,ZBAA 111400Z AUTO 32004KT 6SM 12/M04 A3018 RMK T01201040 IEM_DS3505
ZBAA,2004-10-11 15:00,ZBAA 111500Z AUTO 32002KT 19SM 13/M03 A3018 RMK SLP213 T01291033 52004 IEM_DS3505
ZBAA,2004-10-11 16:00,ZBAA 111600Z AUTO 33004KT 6SM 10/00 A3015 RMK T01000000 IEM_DS3505
ZBAA,2004-10-11 17:00,ZBAA 111700Z AUTO 26002KT 6SM 10/00 A3015 RMK T01000000 IEM_DS3505
ZBAA,2004-10-11 18:00,ZBAA 111800Z AUTO 36004KT 12SM 10/M02 A3015 RMK SLP208 T01011016 57005 IEM_DS3505
ZBAA,2004-10-11 19:00,ZBAA 111900Z AUTO 32006KT 6SM 07/00 A3015 RMK T00700000 IEM_DS3505
ZBAA,2004-10-11 20:00,ZBAA 112000Z AUTO 35006KT 6SM 07/00 A3015 RMK T00700000 IEM_DS3505
ZBAA,2004-10-11 21:00,ZBAA 112100Z AUTO 00000KT 19SM 11/M03 A3015 RMK SLP204 T01061027 57004 IEM_DS3505
ZBAA,2004-10-11 22:00,ZBAA 112200Z AUTO 32004KT 6SM 09/01 A3015 RMK T00900010 IEM_DS3505
ZBAA,2004-10-11 23:00,ZBAA 112300Z AUTO 32006KT 6SM 08/01 A3018 RMK T00800010 IEM_DS3505
ZBAA,2004-10-12 00:00,ZBAA 120000Z AUTO 02002KT 12SM 13/M03 A3018 RMK SLP224 T01281030 52020 IEM_DS3505
ZBAA,2004-10-12 01:00,ZBAA 120100Z AUTO 01006KT 6SM 14/01 A3021 RMK T01400010 IEM_DS3505
ZBAA,2004-10-12 02:00,ZBAA 120200Z AUTO 36004KT 6SM 16/M02 A3021 RMK T01601020 IEM_DS3505
ZBAA,2004-10-12 03:00,ZBAA 120300Z AUTO 14004KT 19SM 18/M08 A3021 RMK SLP222 T01751077 57002 IEM_DS3505
ZBAA,2004-10-12 04:00,ZBAA 120400Z AUTO 6SM 19/M03 A3018 RMK T01901030 IEM_DS3505
ZBAA,2004-10-12 05:00,ZBAA 120500Z AUTO 27004KT 6SM 20/M06 A3015 RMK T02001060 IEM_DS3505
ZBAA,2004-10-12 06:00,ZBAA 120600Z AUTO 18006KT 19SM 20/M09 A3012 RMK SLP196 T01981093 57026 IEM_DS3505
ZBAA,2004-10-12 07:00,ZBAA 120700Z AUTO 6SM 20/M06 A3009 RMK T02001060 IEM_DS3505
ZBAA,2004-10-12 09:00,ZBAA 120900Z AUTO 20004KT 19SM 19/M07 A3009 RMK SLP187 T01901073 57009 IEM_DS3505
ZBAA,2004-10-12 10:00,ZBAA 121000Z AUTO 19006KT 6SM 13/M01 A3009 RMK T01301010 IEM_DS3505
ZBAA,2004-10-12 11:00,ZBAA 121100Z AUTO 19006KT 6SM 14/M01 A3009 RMK T01401010 IEM_DS3505
ZBAA,2004-10-12 12:00,ZBAA 121200Z AUTO 25004KT 16SM 15/M03 RMK SLP195 T01471026 52008 IEM_DS3505
ZBAA,2004-10-12 13:00,ZBAA 121300Z AUTO 00000KT 6SM 12/02 A3012 RMK T01200020 IEM_DS3505
ZBAA,2004-10-12 14:00,ZBAA 121400Z AUTO 11002KT 6SM 11/03 A3012 RMK T01100030 IEM_DS3505
ZBAA,2004-10-12 15:00,ZBAA 121500Z AUTO 25006KT 12SM 14/M02 A3012 RMK SLP202 T01421022 52007 IEM_DS3505
ZBAA,2004-10-12 16:00,ZBAA 121600Z AUTO 12002KT 6SM 09/05 A3012 RMK T00900050 IEM_DS3505
ZBAA,2004-10-12 17:00,ZBAA 121700Z AUTO 35006KT 5SM 08/06 A3015 RMK T00800060 IEM_DS3505
ZBAA,2004-10-12 18:00,ZBAA 121800Z AUTO 27008KT 9SM 14/00 A3015 RMK SLP208 T01400000 52006 IEM_DS3505
ZBAA,2004-10-12 19:00,ZBAA 121900Z AUTO 34006KT 6SM 08/03 A3018 RMK T00800030 IEM_DS3505
ZBAA,2004-10-12 20:00,ZBAA 122000Z AUTO 34006KT 6SM 07/03 A3021 RMK T00700030 IEM_DS3505
ZBAA,2004-10-12 21:00,ZBAA 122100Z AUTO 34008KT 12SM 14/M06 A3021 RMK SLP224 T01451058 52016 IEM_DS3505
ZBAA,2004-10-12 22:00,ZBAA 122200Z AUTO 32006KT 6SM A3024 RMK IEM_DS3505
ZBAA,2004-10-12 23:00,ZBAA 122300Z AUTO 6SM 09/02 A3027 RMK T00900020 IEM_DS3505
ZBAA,2004-10-13 00:00,ZBAA 130000Z AUTO 36012KT 19SM 15/M07 A3030 RMK SLP248 T01521069 52024 IEM_DS3505
ZBAA,2004-10-13 01:00,ZBAA 130100Z AUTO 02006KT 6SM 15/01 A3033 RMK T01500010 IEM_DS3505
ZBAA,2004-10-13 02:00,ZBAA 130200Z AUTO 02010KT 6SM 16/M02 A3033 RMK T01601020 IEM_DS3505
ZBAA,2004-10-13 03:00,ZBAA 130300Z AUTO 07008G16KT 19SM 16/M04 A3033 RMK SLP264 T01611039 52016 IEM_DS3505
ZBAA,2004-10-13 04:00,ZBAA 130400Z AUTO 02008KT 6SM 17/M03 A3033 RMK T01701030 IEM_DS3505
ZBAA,2004-10-13 05:00,ZBAA 130500Z AUTO 01008KT 6SM 19/M04 A3030 RMK T01901040 IEM_DS3505
ZBAA,2004-10-13 06:00,ZBAA 130600Z AUTO 07004KT 19SM 18/M07 A3030 RMK SLP254 T01751070 57010 IEM_DS3505
ZBAA,2004-10-13 07:00,ZBAA 130700Z AUTO 6SM 18/M04 A3030 RMK T01801040 IEM_DS3505
ZBAA,2004-10-13 08:00,ZBAA 130800Z AUTO 6SM 18/M04 A3030 RMK T01801040 IEM_DS3505
ZBAA,2004-10-13 09:00,ZBAA 130900Z AUTO 11004KT 19SM 17/M06 A3030 RMK SLP253 T01701060 57001 IEM_DS3505
ZBAA,2004-10-13 10:00,ZBAA 131000Z AUTO 14002KT 6SM 13/00 A3030 RMK T01300000 IEM_DS3505
ZBAA,2004-10-13 11:00,ZBAA 131100Z AUTO 15002KT 6SM 12/00 A3030 RMK T01200000 IEM_DS3505
ZBAA,2004-10-13 12:00,ZBAA 131200Z AUTO 25004KT 12SM 12/M02 A3033 RMK SLP268 T01241022 52014 IEM_DS3505
ZBAA,2004-10-13 13:00,ZBAA 131300Z AUTO 24004KT 6SM 13/M01 A3036 RMK T01301010 IEM_DS3505
ZBAA,2004-10-13 14:00,ZBAA 131400Z AUTO 24004KT 6SM 11/01 A3036 RMK T01100010 IEM_DS3505
ZBAA,2004-10-13 15:00,ZBAA 131500Z AUTO 25004KT 12SM 11/M03 A3039 RMK SLP283 T01141027 52015 IEM_DS3505
ZBAA,2004-10-13 16:00,ZBAA 131600Z AUTO 28002KT 6SM 09/03 A3039 RMK T00900030 IEM_DS3505
ZBAA,2004-10-13 17:00,ZBAA 131700Z AUTO 34006KT 6SM 05/02 A3042 RMK T00500020 IEM_DS3505
ZBAA,2004-10-13 18:00,ZBAA 131800Z AUTO 27004KT 12SM 09/M02 A3042 RMK SLP290 T00891023 52007 IEM_DS3505
ZBAA,2004-10-13 19:00,ZBAA 131900Z AUTO 35006KT 6SM 07/02 A3039 RMK T00700020 IEM_DS3505
ZBAA,2004-10-13 20:00,ZBAA 132000Z AUTO 34006KT 6SM 06/01 A3039 RMK T00600010 IEM_DS3505
ZBAA,2004-10-13 21:00,ZBAA 132100Z AUTO 25002KT 11SM 06/M00 A3039 RMK SLP284 T00591004 57006 IEM_DS3505
ZBAA,2004-10-13 22:00,ZBAA 132200Z AUTO 30002KT 6SM 05/00 A3039 RMK T00500000 IEM_DS3505
ZBAA,2004-10-13 23:00,ZBAA 132300Z AUTO 27004KT 6SM 06/01 A3039 RMK T00600010 IEM_DS3505
ZBAA,2004-10-14 00:00,ZBAA 140000Z AUTO 29002KT 7SM 12/M02 A3039 RMK SLP287 T01171017 52003 IEM_DS3505
ZBAA,2004-10-14 01:00,ZBAA 140100Z AUTO 36004KT 6SM 11/02 A3039 RMK T01100020 IEM_DS3505
ZBAA,2004-10-14 02:00,ZBAA 140200Z AUTO 35004KT 6SM 15/01 A3039 RMK T01500010 IEM_DS3505
ZBAA,2004-10-14 03:00,ZBAA 140300Z AUTO 25006KT 12SM 18/M06 A3036 RMK SLP276 T01821057 57011 IEM_DS3505
ZBAA,2004-10-14 04:00,ZBAA 140400Z AUTO 6SM 20/00 A3033 RMK T02000000 IEM_DS3505
ZBAA,2004-10-14 05:00,ZBAA 140500Z AUTO 6SM 22/M02 A3030 RMK T02201020 IEM_DS3505
ZBAA,2004-10-14 06:00,ZBAA 140600Z AUTO 25008KT 16SM 21/M05 A3027 RMK SLP243 T02141046 57032 IEM_DS3505
ZBAA,2004-10-14 07:00,ZBAA 140700Z AUTO 22008KT 6SM 22/M03 A3024 RMK T02201030 IEM_DS3505
ZBAA,2004-10-14 08:00,ZBAA 140800Z AUTO 20008KT 6SM 21/M03 A3021 RMK T02101030 IEM_DS3505
ZBAA,2004-10-14 09:00,ZBAA 140900Z AUTO 25004KT 16SM 19/M03 A3021 RMK SLP232 T01941028 57012 IEM_DS3505
ZBAA,2004-10-14 10:00,ZBAA 141000Z AUTO 19004KT 6SM 16/00 A3021 RMK T01600000 IEM_DS3505
ZBAA,2004-10-14 11:00,ZBAA 141100Z AUTO 19004KT 6SM 15/01 A3024 RMK T01500010 IEM_DS3505
ZBAA,2004-10-14 12:00,ZBAA 141200Z AUTO 22004KT 9SM 16/M01 A3024 RMK SLP235 T01551011 52003 IEM_DS3505
ZBAA,2004-10-14 13:00,ZBAA 141300Z AUTO 00000KT 6SM 10/05 A3024 RMK T01000050 IEM_DS3505
ZBAA,2004-10-14 14:00,ZBAA 141400Z AUTO 07002KT 6SM 09/04 A3024 RMK T00900040 IEM_DS3505
ZBAA,2004-10-14 15:00,ZBAA 141500Z AUTO 22004KT 9SM 12/01 A3021 RMK SLP231 T01190010 57003 IEM_DS3505
ZBAA,2004-10-14 16:00,ZBAA 141600Z AUTO 02002KT 6SM 09/05 A3021 RMK T00900050 IEM_DS3505
ZBAA,2004-10-14 17:00,ZBAA 141700Z AUTO 34002KT 6SM 08/05 A3021 RMK T00800050 IEM_DS3505
ZBAA,2004-10-14 19:00,ZBAA 141900Z AUTO 34004KT 6SM 07/04 A3021 RMK T00700040 IEM_DS3505
ZBAA,2004-10-14 20:00,ZBAA 142000Z AUTO 34004KT 6SM 06/03 A3021 RMK T00600030 IEM_DS3505
ZBAA,2004-10-14 21:00,ZBAA 142100Z AUTO 04002KT 9SM 07/03 A3021 RMK SLP224 T00730026 57004 IEM_DS3505
ZBAA,2004-10-14 22:00,ZBAA 142200Z AUTO 34004KT 6SM 06/03 A3021 RMK T00600030 IEM_DS3505
ZBAA,2004-10-14 23:00,ZBAA 142300Z AUTO 34004KT 6SM 05/03 A3021 RMK T00500030 IEM_DS3505
ZBAA,2004-10-15 00:00,ZBAA 150000Z AUTO 04002KT 7SM 11/02 A3024 RMK SLP233 T01120023 52009 IEM_DS3505
ZBAA,2004-10-15 01:00,ZBAA 150100Z AUTO 35006KT 6SM 13/04 A3024 RMK T01300040 IEM_DS3505
ZBAA,2004-10-15 02:00,ZBAA 150200Z AUTO 34004KT 6SM 16/05 A3024 RMK T01600050 IEM_DS3505
ZBAA,2004-10-15 03:00,ZBAA 150300Z AUTO 20002KT 12SM 20/M01 A3021 RMK SLP223 T01991006 57009 IEM_DS3505
ZBAA,2004-10-15 04:00,ZBAA 150400Z AUTO 6SM 20/04 A3018 RMK T02000040 IEM_DS3505
ZBAA,2004-10-15 05:00,ZBAA 150500Z AUTO 6SM 23/05 A3015 RMK T02300050 IEM_DS3505
ZBAA,2004-10-15 06:00,ZBAA 150600Z AUTO 25004KT 12SM 23/M00 A3012 RMK SLP200 T02341001 57023 IEM_DS3505
ZBAA,2004-10-15 07:00,ZBAA 150700Z AUTO 00000KT 6SM 24/04 A3012 RMK T02400040 IEM_DS3505
ZBAA,2004-10-15 08:00,ZBAA 150800Z AUTO 20004KT 6SM 24/05 A3012 RMK T02400050 IEM_DS3505
ZBAA,2004-10-15 09:00,ZBAA 150900Z AUTO 22004KT 9SM 22/02 A3012 RMK SLP198 T02200022 57002 IEM_DS3505
ZBAA,2004-10-15 10:00,ZBAA 151000Z AUTO 22004KT 5SM 21/04 A3012 RMK T02100040 IEM_DS3505
ZBAA,2004-10-15 11:00,ZBAA 151100Z AUTO 18/08 A3015 RMK T01800080 IEM_DS3505
ZBAA,2004-10-15 12:00,ZBAA 151200Z AUTO 00000KT 14/08 A3015 RMK T01400080 IEM_DS3505
ZBAA,2004-10-15 13:00,ZBAA 151300Z AUTO 10002KT 3SM 13/09 A3018 RMK T01300090 IEM_DS3505
ZBAA,2004-10-15 14:00,ZBAA 151400Z AUTO 00000KT 3SM 12/09 A3018 RMK T01200090 IEM_DS3505
ZBAA,2004-10-15 15:00,ZBAA 151500Z AUTO 07002KT 6SM 12/07 A3021 RMK SLP220 T01230068 52010 IEM_DS3505
ZBAA,2004-10-15 16:00,ZBAA 151600Z AUTO 35002KT 3SM 11/08 A3021 RMK T01100080 IEM_DS3505
ZBAA,2004-10-15 17:00,ZBAA 151700Z AUTO 35004KT 4SM 10/07 A3021 RMK T01000070 IEM_DS3505
ZBAA,2004-10-15 18:00,ZBAA 151800Z AUTO 04002KT 4SM 11/06 A3021 RMK SLP223 T01070059 52003 IEM_DS3505
ZBAA,2004-10-15 19:00,ZBAA 151900Z AUTO 34004KT 6SM 08/05 A3021 RMK T00800050 IEM_DS3505
ZBAA,2004-10-15 20:00,ZBAA 152000Z AUTO 34006KT 6SM 07/04 A3024 RMK T00700040 IEM_DS3505
ZBAA,2004-10-15 21:00,ZBAA 152100Z AUTO 09002KT 6SM 10/04 A3024 RMK SLP240 T01000037 52017 IEM_DS3505
ZBAA,2004-10-15 22:00,ZBAA 152200Z AUTO 01002KT 6SM 09/05 A3027 RMK T00900050 IEM_DS3505
ZBAA,2004-10-15 23:00,ZBAA 152300Z AUTO 34006KT 6SM 07/04 A3030 RMK T00700040 IEM_DS3505
ZBAA,2004-10-16 00:00,ZBAA 160000Z AUTO 02004KT 9SM 13/04 A3033 RMK SLP264 T01330037 52023 IEM_DS3505
ZBAA,2004-10-16 01:00,ZBAA 160100Z AUTO 01002KT 6SM 16/07 A3033 RMK T01600070 IEM_DS3505
ZBAA,2004-10-16 02:00,ZBAA 160200Z AUTO 01004KT 6SM 19/05 A3036 RMK T01900050 IEM_DS3505
ZBAA,2004-10-16 03:00,ZBAA 160300Z AUTO 04006KT 19SM 20/01 A3036 RMK SLP273 T02040008 52010 IEM_DS3505
ZBAA,2004-10-16 04:00,ZBAA 160400Z AUTO 6SM 23/04 A3033 RMK T02300040 IEM_DS3505
ZBAA,2004-10-16 05:00,ZBAA 160500Z AUTO 15006KT 6SM 25/04 A3030 RMK T02500040 IEM_DS3505
ZBAA,2004-10-16 06:00,ZBAA 160600Z AUTO 14004KT 19SM 24/02 A3027 RMK SLP250 T02380015 57023 IEM_DS3505
ZBAA,2004-10-16 07:00,ZBAA 160700Z AUTO 18006KT 6SM 25/03 A3027 RMK T02500030 IEM_DS3505
ZBAA,2004-10-16 08:00,ZBAA 160800Z AUTO 20006G16KT 6SM 24/04 A3030 RMK T02400040 IEM_DS3505
ZBAA,2004-10-16 09:00,ZBAA 160900Z AUTO 09002KT 16SM 21/03 A3030 RMK SLP250 T02080026 54000 IEM_DS3505
ZBAA,2004-10-16 10:00,ZBAA 161000Z AUTO 23004KT 5SM 18/07 A3030 RMK T01800070 IEM_DS3505
ZBAA,2004-10-16 12:00,ZBAA 161200Z AUTO 22004KT 12SM 17/04 RMK SLP267 T01710045 52017 IEM_DS3505
ZBAA,2004-10-16 13:00,ZBAA 161300Z AUTO 14002KT 15/09 A3036 RMK T01500090 IEM_DS3505
ZBAA,2004-10-16 14:00,ZBAA 161400Z AUTO 16002KT 14/08 A3036 RMK T01400080 IEM_DS3505
ZBAA,2004-10-16 15:00,ZBAA 161500Z AUTO 32002KT 7SM 14/07 A3036 RMK SLP275 T01430071 52008 IEM_DS3505
ZBAA,2004-10-16 16:00,ZBAA 161600Z AUTO 03002KT 4SM 13/09 A3036 RMK T01300090 IEM_DS3505
ZBAA,2004-10-16 17:00,ZBAA 161700Z AUTO 34002KT 4SM 13/09 A3036 RMK T01300090 IEM_DS3505
ZBAA,2004-10-16 18:00,ZBAA 161800Z AUTO 00000KT 6SM 14/07 A3036 RMK SLP268 T01360072 57007 IEM_DS3505
ZBAA,2004-10-16 19:00,ZBAA 161900Z AUTO 33004KT 5SM 12/09 A3033 RMK T01200090 IEM_DS3505
ZBAA,2004-10-16 21:00,ZBAA 162100Z AUTO 02002KT 6SM 14/07 A3033 RMK SLP259 T01350068 57009 IEM_DS3505
ZBAA,2004-10-16 22:00,ZBAA 162200Z AUTO 02002KT 5SM 12/09 A3033 RMK T01200090 IEM_DS3505
ZBAA,2004-10-16 23:00,ZBAA 162300Z AUTO 35002KT 5SM 12/09 A3033 RMK T01200090 IEM_DS3505
ZBAA,2004-10-17 00:00,ZBAA 170000Z AUTO 04004KT 7SM 14/07 A3036 RMK SLP270 T01400069 52011 IEM_DS3505
ZBAA,2004-10-17 01:00,ZBAA 170100Z AUTO 36002KT 4SM 14/10 A3036 RMK T01400100 IEM_DS3505
ZBAA,2004-10-17 02:00,ZBAA 170200Z AUTO 36002KT 4SM 15/10 A3033 RMK T01500100 IEM_DS3505
ZBAA,2004-10-17 03:00,ZBAA 170300Z AUTO 02002KT 7SM 18/06 A3033 RMK SLP262 T01760056 57008 IEM_DS3505
ZBAA,2004-10-17 04:00,ZBAA 170400Z AUTO 00000KT 18/09 A3030 RMK T01800090 IEM_DS3505
ZBAA,2004-10-17 05:00,ZBAA 170500Z AUTO 6SM 21/04 A3027 RMK T02100040 IEM_DS3505
ZBAA,2004-10-17 06:00,ZBAA 170600Z AUTO 11004KT 9SM 19/01 A3024 RMK SLP240 T01930009 57022 IEM_DS3505
ZBAA,2004-10-17 07:00,ZBAA 170700Z AUTO 16004KT 6SM 20/03 A3024 RMK T02000030 IEM_DS3505
ZBAA,2004-10-17 08:00,ZBAA 170800Z AUTO 16004KT 6SM 19/03 A3024 RMK T01900030 IEM_DS3505
ZBAA,2004-10-17 09:00,ZBAA 170900Z AUTO 11002KT 9SM 18/00 A3021 RMK SLP226 T01830000 57014 IEM_DS3505
ZBAA,2004-10-17 10:00,ZBAA 171000Z AUTO 15002KT 2 1/2SM 16/06 A3021 RMK T01600060 IEM_DS3505
ZBAA,2004-10-17 11:00,ZBAA 171100Z AUTO 00000KT 16/05 A3021 RMK T01600050 IEM_DS3505
ZBAA,2004-10-17 12:00,ZBAA 171200Z AUTO 34002KT 7SM 14/05 A3021 RMK SLP230 T01450051 52004 IEM_DS3505
ZBAA,2004-10-17 13:00,ZBAA 171300Z AUTO 5SM 14/09 A3024 RMK T01400090 IEM_DS3505
ZBAA,2004-10-17 14:00,ZBAA 171400Z AUTO 15002KT 14/07 A3024 RMK T01400070 IEM_DS3505
ZBAA,2004-10-17 15:00,ZBAA 171500Z AUTO 09002KT 6SM 13/06 A3021 RMK SLP229 T01340065 57001 IEM_DS3505
ZBAA,2004-10-17 16:00,ZBAA 171600Z AUTO 00000KT 4SM 11/08 A3021 RMK T01100080 IEM_DS3505
ZBAA,2004-10-17 17:00,ZBAA 171700Z AUTO 34002KT 2 1/2SM 11/07 A3021 RMK T01100070 IEM_DS3505
ZBAA,2004-10-17 18:00,ZBAA 171800Z AUTO 09002KT 5SM 12/07 A3021 RMK SLP221 T01190066 57008 IEM_DS3505
ZBAA,2004-10-17 19:00,ZBAA 171900Z AUTO 35002KT 2SM 09/08 A3018 RMK T00900080 IEM_DS3505
ZBAA,2004-10-17 20:00,ZBAA 172000Z AUTO 35002KT 2SM 09/07 A3018 RMK T00900070 IEM_DS3505
ZBAA,2004-10-17 21:00,ZBAA 172100Z AUTO 07002KT 6SM 10/06 A3018 RMK SLP215 T00990061 57006 IEM_DS3505
ZBAA,2004-10-17 22:00,ZBAA 172200Z AUTO 34002KT 3SM 09/06 A3018 RMK T00900060 IEM_DS3505
ZBAA,2004-10-17 23:00,ZBAA 172300Z AUTO 34002KT 3SM 10/07 A3018 RMK T01000070 IEM_DS3505
ZBAA,2004-10-18 00:00,ZBAA 180000Z AUTO 04002KT 3SM 12/06 A3021 RMK SLP225 T01250057 52009 IEM_DS3505
ZBAA,2004-10-18 01:00,ZBAA 180100Z AUTO 36004KT 4SM 12/07 A3021 RMK T01200070 IEM_DS3505
ZBAA,2004-10-18 02:00,ZBAA 180200Z AUTO 02002KT 15/08 A3021 RMK T01500080 IEM_DS3505
ZBAA,2004-10-18 03:00,ZBAA 180300Z AUTO 04002KT 5SM 18/04 A3018 RMK SLP219 T01770043 57005 IEM_DS3505
ZBAA,2004-10-18 04:00,ZBAA 180400Z AUTO 19/08 A3015 RMK T01900080 IEM_DS3505
ZBAA,2004-10-18 05:00,ZBAA 180500Z AUTO 19004KT 20/09 A3012 RMK T02000090 IEM_DS3505
ZBAA,2004-10-18 06:00,ZBAA 180600Z AUTO 20004KT 4SM 21/09 A3012 RMK SLP193 T02130086 57026 IEM_DS3505
ZBAA,2004-10-18 07:00,ZBAA 180700Z AUTO 17006KT 2 1/2SM 21/10 A3009 RMK T02100100 IEM_DS3505
ZBAA,2004-10-18 08:00,ZBAA 180800Z AUTO 18006KT 3SM 21/11 A3009 RMK T02100110 IEM_DS3505
ZBAA,2004-10-18 09:00,ZBAA 180900Z AUTO 22004KT 7SM 20/08 A3009 RMK SLP188 T01980082 57005 IEM_DS3505
ZBAA,2004-10-18 10:00,ZBAA 181000Z AUTO 19004KT 3SM 18/10 A3009 RMK T01800100 IEM_DS3505
ZBAA,2004-10-18 11:00,ZBAA 181100Z AUTO 00000KT 3SM 16/11 A3012 RMK T01600110 IEM_DS3505
ZBAA,2004-10-18 12:00,ZBAA 181200Z AUTO 22004KT 4SM 16/10 A3012 RMK SLP196 T01630095 52008 IEM_DS3505
ZBAA,2004-10-18 13:00,ZBAA 181300Z AUTO 13002KT 2 1/2SM 14/11 A3012 RMK T01400110 IEM_DS3505
ZBAA,2004-10-18 14:00,ZBAA 181400Z AUTO 00000KT 2SM 13/11 A3015 RMK T01300110 IEM_DS3505
ZBAA,2004-10-18 15:00,ZBAA 181500Z AUTO 00000KT 4SM 13/10 A3012 RMK SLP201 T01320096 52005 IEM_DS3505
ZBAA,2004-10-18 16:00,ZBAA 181600Z AUTO 07002KT 1 1/2SM 12/11 A3012 RMK T01200110 IEM_DS3505
ZBAA,2004-10-18 17:00,ZBAA 181700Z AUTO 02002KT 1 1/4SM 11/11 A3012 RMK T01100110 IEM_DS3505
ZBAA,2004-10-18 18:00,ZBAA 181800Z AUTO 00000KT 2SM 11/09 A3012 RMK SLP198 T01140090 57003 IEM_DS3505
ZBAA,2004-10-18 19:00,ZBAA 181900Z AUTO 34002KT 1 1/2SM 10/10 A3012 RMK T01000100 IEM_DS3505
ZBAA,2004-10-18 20:00,ZBAA 182000Z AUTO 34004KT 1 1/2SM 09/09 A3012 RMK T00900090 IEM_DS3505
ZBAA,2004-10-18 21:00,ZBAA 182100Z AUTO 04002KT 2SM 11/09 A3012 RMK SLP198 T01090088 54000 IEM_DS3505
ZBAA,2004-10-18 22:00,ZBAA 182200Z AUTO 35004KT 1 1/2SM 10/09 A3015 RMK T01000090 IEM_DS3505
ZBAA,2004-10-18 23:00,ZBAA 182300Z AUTO 36008KT 2 1/2SM 11/09 A3015 RMK T01100090 IEM_DS3505
ZBAA,2004-10-19 00:00,ZBAA 190000Z AUTO 00000KT 1 1/4SM 13/08 A3018 RMK SLP213 T01260085 52015 IEM_DS3505
ZBAA,2004-10-19 01:00,ZBAA 190100Z AUTO 36004KT 2 1/2SM 15/11 A3018 RMK T01500110 IEM_DS3505
ZBAA,2004-10-19 02:00,ZBAA 190200Z AUTO 35006KT 18/10 A3018 RMK T01800100 IEM_DS3505
ZBAA,2004-10-19 03:00,ZBAA 190300Z AUTO 02006KT 4SM 20/06 A3015 RMK SLP210 T01990056 57003 IEM_DS3505
ZBAA,2004-10-19 04:00,ZBAA 190400Z AUTO 6SM 23/04 A3015 RMK T02300040 IEM_DS3505
ZBAA,2004-10-19 05:00,ZBAA 190500Z AUTO 6SM 25/03 A3012 RMK T02500030 IEM_DS3505
ZBAA,2004-10-19 06:00,ZBAA 190600Z AUTO 09006KT 7SM 24/04 A3009 RMK SLP184 T02380037 57026 IEM_DS3505
ZBAA,2004-10-19 07:00,ZBAA 190700Z AUTO 6SM 25/02 A3009 RMK T02500020 IEM_DS3505
ZBAA,2004-10-19 08:00,ZBAA 190800Z AUTO 13004KT 6SM 24/03 A3006 RMK T02400030 IEM_DS3505
ZBAA,2004-10-19 09:00,ZBAA 190900Z AUTO 14004KT 7SM 22/06 A3006 RMK SLP182 T02210060 57002 IEM_DS3505
ZBAA,2004-10-19 10:00,ZBAA 191000Z AUTO 18002KT 2 1/2SM 19/10 A3009 RMK T01900100 IEM_DS3505
ZBAA,2004-10-19 11:00,ZBAA 191100Z AUTO 17002KT 2 1/2SM 18/10 A3012 RMK T01800100 IEM_DS3505
ZBAA,2004-10-19 12:00,ZBAA 191200Z AUTO 14004KT 6SM 18/10 A3012 RMK SLP198 T01780100 52016 IEM_DS3505
ZBAA,2004-10-19 13:00,ZBAA 191300Z AUTO 12006KT 2 1/2SM 15/12 A3015 RMK T01500120 IEM_DS3505
ZBAA,2004-10-19 14:00,ZBAA 191400Z AUTO 10004KT 2 1/2SM 14/11 A3018 RMK T01400110 IEM_DS3505
ZBAA,2004-10-19 15:00,ZBAA 191500Z AUTO 09004KT 9SM 14/10 A3018 RMK SLP211 T01390103 52013 IEM_DS3505
ZBAA,2004-10-19 16:00,ZBAA 191600Z AUTO 00000KT 3SM 12/10 A3018 RMK T01200100 IEM_DS3505
ZBAA,2004-10-19 17:00,ZBAA 191700Z AUTO 35002KT 4SM 12/11 A3018 RMK T01200110 IEM_DS3505
ZBAA,2004-10-19 18:00,ZBAA 191800Z AUTO 04002KT 9SM 12/09 A3018 RMK SLP212 T01240091 52001 IEM_DS3505
ZBAA,2004-10-19 19:00,ZBAA 191900Z AUTO 00000KT 4SM 12/11 A3015 RMK T01200110 IEM_DS3505
ZBAA,2004-10-19 20:00,ZBAA 192000Z AUTO 00000KT 4SM 13/11 A3015 RMK T01300110 IEM_DS3505
ZBAA,2004-10-19 21:00,ZBAA 192100Z AUTO 04002KT 9SM 12/08 A3015 RMK SLP208 T01150084 57004 IEM_DS3505
ZBAA,2004-10-19 22:00,ZBAA 192200Z AUTO 00000KT 3SM 12/11 A3015 RMK T01200110 IEM_DS3505
ZBAA,2004-10-19 23:00,ZBAA 192300Z AUTO 00000KT 3SM 13/12 A3015 RMK T01300120 IEM_DS3505
ZBAA,2004-10-20 00:00,ZBAA 200000Z AUTO 14002KT 5SM 14/08 A3015 RMK SLP212 T01420082 52004 IEM_DS3505
ZBAA,2004-10-20 01:00,ZBAA 200100Z AUTO 16004KT 4SM 15/12 A3015 RMK T01500120 IEM_DS3505
ZBAA,2004-10-20 02:00,ZBAA 200200Z AUTO 15006KT 16/09 A3015 RMK T01600090 IEM_DS3505
ZBAA,2004-10-20 03:00,ZBAA 200300Z AUTO 16006KT 7SM 17/08 A3015 RMK SLP199 T01710083 57013 IEM_DS3505
ZBAA,2004-10-20 04:00,ZBAA 200400Z AUTO 16004KT 5SM 18/10 A3012 RMK T01800100 IEM_DS3505
ZBAA,2004-10-20 05:00,ZBAA 200500Z AUTO 20004KT 5SM 18/11 A3006 RMK T01800110 IEM_DS3505
ZBAA,2004-10-20 06:00,ZBAA 200600Z AUTO 22006KT 7SM 19/10 A3003 RMK SLP163 T01880104 57036 IEM_DS3505
ZBAA,2004-10-20 07:00,ZBAA 200700Z AUTO 17004KT 4SM 18/13 A3000 RMK T01800130 IEM_DS3505
ZBAA,2004-10-20 08:00,ZBAA 200800Z AUTO 00000KT 4SM 18/13 A3000 RMK T01800130 IEM_DS3505
ZBAA,2004-10-20 09:00,ZBAA 200900Z AUTO 27004KT 7SM 18/10 A3003 RMK SLP161 T01840100 57002 IEM_DS3505
ZBAA,2004-10-20 10:00,ZBAA 201000Z AUTO 34006KT 4SM 16/11 A3003 RMK T01600110 IEM_DS3505
ZBAA,2004-10-20 11:00,ZBAA 201100Z AUTO 31019KT 5SM 17/07 A3009 RMK T01700070 IEM_DS3505
ZBAA,2004-10-20 12:00,ZBAA 201200Z AUTO 34014G27KT 5SM 15/05 A3015 RMK SLP201 T01490054 52040 IEM_DS3505
ZBAA,2004-10-20 13:00,ZBAA 201300Z AUTO 29010G19KT 7SM 12/09 A3015 RMK T01200090 IEM_DS3505
ZBAA,2004-10-20 14:00,ZBAA 201400Z AUTO 30016KT 6SM 12/07 A3015 RMK T01200070 IEM_DS3505
ZBAA,2004-10-20 15:00,ZBAA 201500Z AUTO 02006KT 19SM 14/01 A3015 RMK SLP208 T01360013 52007 IEM_DS3505
ZBAA,2004-10-20 16:00,ZBAA 201600Z AUTO 30012KT 6SM 12/04 A3015 RMK T01200040 IEM_DS3505
ZBAA,2004-10-20 17:00,ZBAA 201700Z AUTO 30006KT 6SM 12/03 A3018 RMK T01200030 IEM_DS3505
ZBAA,2004-10-20 18:00,ZBAA 201800Z AUTO 34014KT 19SM 14/M05 A3018 RMK 60001 SLP209 T01401051 52001 IEM_DS3505
ZBAA,2004-10-20 19:00,ZBAA 201900Z AUTO 32012KT 6SM 12/M01 A3018 RMK T01201010 IEM_DS3505
ZBAA,2004-10-20 20:00,ZBAA 202000Z AUTO 31010KT 6SM 11/M02 A3018 RMK T01101020 IEM_DS3505
ZBAA,2004-10-20 21:00,ZBAA 202100Z AUTO 34006KT 19SM 12/M05 A3021 RMK 70001 SLP225 T01201054 52016 IEM_DS3505
ZBAA,2004-10-20 22:00,ZBAA 202200Z AUTO 31014KT 6SM 10/M02 A3024 RMK T01001020 IEM_DS3505
ZBAA,2004-10-20 23:00,ZBAA 202300Z AUTO 30012KT 6SM 10/M03 A3024 RMK T01001030 IEM_DS3505
ZBAA,2004-10-21 00:00,ZBAA 210000Z AUTO 02010G23KT 19SM 12/M06 A3027 RMK 70001 SLP251 T01181065 52025 IEM_DS3505
ZBAA,2004-10-21 01:00,ZBAA 210100Z AUTO 31017G27KT 6SM 12/M03 A3030 RMK T01201030 IEM_DS3505
ZBAA,2004-10-21 02:00,ZBAA 210200Z AUTO 32017G33KT 6SM 14/M07 A3030 RMK T01401070 IEM_DS3505
ZBAA,2004-10-21 03:00,ZBAA 210300Z AUTO 34012G31KT 19SM 14/M08 A3030 RMK SLP260 T01391080 52009 IEM_DS3505
ZBAA,2004-10-21 04:00,ZBAA 210400Z AUTO 31021G31KT 6SM 16/M09 A3027 RMK T01601090 IEM_DS3505
ZBAA,2004-10-21 05:00,ZBAA 210500Z AUTO 29012KT 6SM 17/M06 A3024 RMK T01701060 IEM_DS3505
ZBAA,2004-10-21 06:00,ZBAA 210600Z AUTO 36010KT 19SM 17/M11 A3024 RMK SLP237 T01661109 57022 IEM_DS3505
ZBAA,2004-10-21 07:00,ZBAA 210700Z AUTO 29014G23KT 6SM 17/M06 A3021 RMK T01701060 IEM_DS3505
ZBAA,2004-10-21 08:00,ZBAA 210800Z AUTO 29010KT 6SM 17/M05 A3021 RMK T01701050 IEM_DS3505
ZBAA,2004-10-21 09:00,ZBAA 210900Z AUTO 32008KT 19SM 17/M08 A3021 RMK SLP232 T01671076 57005 IEM_DS3505
ZBAA,2004-10-21 10:00,ZBAA 211000Z AUTO 28006KT 6SM 15/M04 A3024 RMK T01501040 IEM_DS3505
ZBAA,2004-10-21 11:00,ZBAA 211100Z AUTO 25004KT 6SM 14/M04 A3024 RMK T01401040 IEM_DS3505
ZBAA,2004-10-21 12:00,ZBAA 211200Z AUTO 25008KT 19SM 13/M06 A3024 RMK SLP241 T01321058 52008 IEM_DS3505
ZBAA,2004-10-21 13:00,ZBAA 211300Z AUTO 24006KT 6SM 13/M03 A3027 RMK T01301030 IEM_DS3505
ZBAA,2004-10-21 14:00,ZBAA 211400Z AUTO 24006G16KT 6SM 12/M03 A3027 RMK T01201030 IEM_DS3505
ZBAA,2004-10-21 15:00,ZBAA 211500Z AUTO 27004KT 16SM 10/M04 A3027 RMK SLP255 T01041040 52014 IEM_DS3505
ZBAA,2004-10-21 16:00,ZBAA 211600Z AUTO 25004KT 6SM 10/M02 A3027 RMK T01001020 IEM_DS3505
ZBAA,2004-10-21 17:00,ZBAA 211700Z AUTO 27006KT 6SM 09/M01 A3027 RMK T00901010 IEM_DS3505
ZBAA,2004-10-21 18:00,ZBAA 211800Z AUTO 32002KT 16SM 08/M01 A3030 RMK SLP257 T00801010 52002 IEM_DS3505
ZBAA,2004-10-21 19:00,ZBAA 211900Z AUTO 36004KT 6SM 07/M01 A3030 RMK T00701010 IEM_DS3505
ZBAA,2004-10-21 20:00,ZBAA 212000Z AUTO 31002KT 6SM 05/M01 A3033 RMK T00501010 IEM_DS3505
ZBAA,2004-10-21 21:00,ZBAA 212100Z AUTO 36004KT 16SM 11/M06 A3033 RMK SLP268 T01091064 52011 IEM_DS3505
ZBAA,2004-10-21 22:00,ZBAA 212200Z AUTO 02004KT 6SM 05/00 A3036 RMK T00500000 IEM_DS3505
ZBAA,2004-10-21 23:00,ZBAA 212300Z AUTO 33002KT 6SM 04/00 A3039 RMK T00400000 IEM_DS3505
ZBAA,2004-10-22 00:00,ZBAA 220000Z AUTO 34004KT 19SM A3039 RMK SLP289 52021 IEM_DS3505
ZBAA,2004-10-22 01:00,ZBAA 220100Z AUTO 29008KT 6SM 13/M05 A3042 RMK T01301050 IEM_DS3505
ZBAA,2004-10-22 02:00,ZBAA 220200Z AUTO 30010KT 6SM 16/M06 A3042 RMK T01601060 IEM_DS3505
ZBAA,2004-10-22 03:00,ZBAA 220300Z AUTO 36006KT 19SM 17/M10 A3039 RMK SLP288 T01711105 57001 IEM_DS3505
ZBAA,2004-10-22 04:00,ZBAA 220400Z AUTO 29008KT 6SM 20/M09 A3039 RMK T02001090 IEM_DS3505
ZBAA,2004-10-22 05:00,ZBAA 220500Z AUTO 31006KT 6SM 19/M10 A3036 RMK T01901100 IEM_DS3505
ZBAA,2004-10-22 06:00,ZBAA 220600Z AUTO 29002KT 19SM 20/M12 A3033 RMK SLP260 T01961116 57028 IEM_DS3505
ZBAA,2004-10-22 07:00,ZBAA 220700Z AUTO 32008KT 6SM 20/M09 A3030 RMK T02001090 IEM_DS3505
ZBAA,2004-10-22 08:00,ZBAA 220800Z AUTO 32008KT 6SM 19/M11 A3030 RMK T01901110 IEM_DS3505
ZBAA,2004-10-22 09:00,ZBAA 220900Z AUTO 25004KT 19SM 17/M07 A3030 RMK SLP258 T01711066 57002 IEM_DS3505
ZBAA,2004-10-22 10:00,ZBAA 221000Z AUTO 20006KT 6SM 16/M05 A3030 RMK T01601050 IEM_DS3505
ZBAA,2004-10-22 11:00,ZBAA 221100Z AUTO 18006KT 6SM 14/M04 A3033 RMK T01401040 IEM_DS3505
ZBAA,2004-10-22 12:00,ZBAA 221200Z AUTO 20004KT 12SM 14/M05 A3033 RMK SLP266 T01391047 52008 IEM_DS3505
ZBAA,2004-10-22 13:00,ZBAA 221300Z AUTO 15006KT 12/M02 A3033 RMK T01201020 IEM_DS3505
ZBAA,2004-10-22 14:00,ZBAA 221400Z AUTO 16006KT 5SM 11/M02 A3036 RMK T01101020 IEM_DS3505
ZBAA,2004-10-22 15:00,ZBAA 221500Z AUTO 20004KT 12SM 11/M04 A3036 RMK SLP274 T01111041 52008 IEM_DS3505
ZBAA,2004-10-22 16:00,ZBAA 221600Z AUTO 10004KT 09/00 A3036 RMK T00900000 IEM_DS3505
ZBAA,2004-10-22 17:00,ZBAA 221700Z AUTO 11002KT 07/00 A3036 RMK T00700000 IEM_DS3505
ZBAA,2004-10-22 18:00,ZBAA 221800Z AUTO 22002KT 12SM 09/M03 A3036 RMK SLP271 T00911028 57003 IEM_DS3505
ZBAA,2004-10-22 19:00,ZBAA 221900Z AUTO 07002KT 06/M01 A3036 RMK T00601010 IEM_DS3505
ZBAA,2004-10-22 20:00,ZBAA 222000Z AUTO 11004KT 06/00 A3033 RMK T00600000 IEM_DS3505
ZBAA,2004-10-22 21:00,ZBAA 222100Z AUTO 07004KT 9SM 06/M01 A3033 RMK SLP268 T00621007 57003 IEM_DS3505
ZBAA,2004-10-22 22:00,ZBAA 222200Z AUTO 00000KT 4SM 04/00 A3033 RMK T00400000 IEM_DS3505
ZBAA,2004-10-22 23:00,ZBAA 222300Z AUTO 35002KT 4SM 04/00 A3036 RMK T00400000 IEM_DS3505
ZBAA,2004-10-23 00:00,ZBAA 230000Z AUTO 02002KT 6SM 07/00 A3036 RMK SLP276 T00720004 52008 IEM_DS3505
ZBAA,2004-10-23 01:00,ZBAA 230100Z AUTO 09002KT 09/02 A3036 RMK T00900020 IEM_DS3505
ZBAA,2004-10-23 02:00,ZBAA 230200Z AUTO 11/03 A3036 RMK T01100030 IEM_DS3505
ZBAA,2004-10-23 03:00,ZBAA 230300Z AUTO 07004KT 7SM 13/00 A3033 RMK SLP266 T01260004 57010 IEM_DS3505
ZBAA,2004-10-23 04:00,ZBAA 230400Z AUTO 14004KT 15/04 A3030 RMK T01500040 IEM_DS3505
ZBAA,2004-10-23 05:00,ZBAA 230500Z AUTO 15006KT 17/02 A3027 RMK T01700020 IEM_DS3505
ZBAA,2004-10-23 06:00,ZBAA 230600Z AUTO 20008KT 9SM 18/M01 A3024 RMK SLP236 T01781009 57030 IEM_DS3505
ZBAA,2004-10-23 07:00,ZBAA 230700Z AUTO 15006KT 16/03 A3021 RMK T01600030 IEM_DS3505
ZBAA,2004-10-23 08:00,ZBAA 230800Z AUTO 19006KT 17/02 A3021 RMK T01700020 IEM_DS3505
ZBAA,2004-10-23 09:00,ZBAA 230900Z AUTO 22006KT 6SM 16/02 A3021 RMK SLP227 T01610018 57009 IEM_DS3505
ZBAA,2004-10-23 10:00,ZBAA 231000Z AUTO 16006KT 3SM 14/05 A3018 RMK T01400050 IEM_DS3505
ZBAA,2004-10-23 11:00,ZBAA 231100Z AUTO 19004KT 3SM 14/05 A3024 RMK T01400050 IEM_DS3505
ZBAA,2004-10-23 12:00,ZBAA 231200Z AUTO 22008KT 12SM 14/03 A3024 RMK SLP240 T01410033 52013 IEM_DS3505
ZBAA,2004-10-23 13:00,ZBAA 231300Z AUTO 20006KT 2 1/2SM 14/05 A3024 RMK T01400050 IEM_DS3505
ZBAA,2004-10-23 14:00,ZBAA 231400Z AUTO 20006KT 3SM 13/06 A3024 RMK T01300060 IEM_DS3505
ZBAA,2004-10-23 15:00,ZBAA 231500Z AUTO 20008KT 12SM 12/06 A3024 RMK SLP239 T01230057 57001 IEM_DS3505
ZBAA,2004-10-23 16:00,ZBAA 231600Z AUTO 15006KT 2 1/2SM 11/07 A3024 RMK T01100070 IEM_DS3505
ZBAA,2004-10-23 17:00,ZBAA 231700Z AUTO 14004KT 2 1/2SM 10/07 A3024 RMK T01000070 IEM_DS3505
ZBAA,2004-10-23 18:00,ZBAA 231800Z AUTO 18004KT 12SM 09/06 A3024 RMK SLP239 T00930059 54000 IEM_DS3505
ZBAA,2004-10-23 19:00,ZBAA 231900Z AUTO 12004KT 2 1/2SM 08/07 A3024 RMK T00800070 IEM_DS3505
ZBAA,2004-10-23 20:00,ZBAA 232000Z AUTO 11004KT 2 1/2SM 08/06 A3024 RMK T00800060 IEM_DS3505
ZBAA,2004-10-23 21:00,ZBAA 232100Z AUTO 22002KT 12SM 07/05 A3024 RMK SLP238 T00720049 57001 IEM_DS3505
ZBAA,2004-10-23 22:00,ZBAA 232200Z AUTO 13002KT 2 1/2SM 06/06 A3024 RMK T00600060 IEM_DS3505
ZBAA,2004-10-23 23:00,ZBAA 232300Z AUTO 00000KT 2SM 06/05 A3024 RMK T00600050 IEM_DS3505
ZBAA,2004-10-24 00:00,ZBAA 240000Z AUTO 00000KT 5SM 08/06 A3027 RMK SLP249 T00780056 52011 IEM_DS3505
ZBAA,2004-10-24 01:00,ZBAA 240100Z AUTO 10002KT 1 1/4SM 09/07 A3030 RMK T00900070 IEM_DS3505
ZBAA,2004-10-24 02:00,ZBAA 240200Z AUTO 1 1/2SM 11/08 A3030 RMK T01100080 IEM_DS3505
ZBAA,2004-10-24 03:00,ZBAA 240300Z AUTO 11004KT 4SM 13/07 A3027 RMK SLP250 T01330069 52001 IEM_DS3505
ZBAA,2004-10-24 04:00,ZBAA 240400Z AUTO 1 1/2SM 14/09 A3027 RMK T01400090 IEM_DS3505
ZBAA,2004-10-24 05:00,ZBAA 240500Z AUTO 2SM 16/08 A3024 RMK T01600080 IEM_DS3505
ZBAA,2004-10-24 06:00,ZBAA 240600Z AUTO 18006KT 5SM 18/06 A3021 RMK SLP229 T01750061 57021 IEM_DS3505
ZBAA,2004-10-24 07:00,ZBAA 240700Z AUTO 17004KT 2 1/2SM 17/08 A3021 RMK T01700080 IEM_DS3505
ZBAA,2004-10-24 08:00,ZBAA 240800Z AUTO 16002KT 2 1/2SM 17/08 A3021 RMK T01700080 IEM_DS3505
ZBAA,2004-10-24 09:00,ZBAA 240900Z AUTO 18004KT 6SM 16/06 A3024 RMK SLP235 T01650058 52006 IEM_DS3505
ZBAA,2004-10-24 10:00,ZBAA 241000Z AUTO 11002KT 2SM 13/09 A3024 RMK T01300090 IEM_DS3505
ZBAA,2004-10-24 11:00,ZBAA 241100Z AUTO 00000KT 2 1/2SM 12/08 A3027 RMK T01200080 IEM_DS3505
ZBAA,2004-10-24 12:00,ZBAA 241200Z AUTO 00000KT 6SM 11/07 A3030 RMK SLP251 T01120069 52016 IEM_DS3505
ZBAA,2004-10-24 12:30,ZBAA 241230Z AUTO 10002KT 2 1/2SM 10/08 A3030 RMK T01000080 IEM_DS3505
ZBAA,2004-10-24 13:00,ZBAA 241300Z AUTO 00000KT 2SM 08/06 A3030 RMK T00800060 IEM_DS3505
ZBAA,2004-10-24 14:00,ZBAA 241400Z AUTO 00000KT 1 1/2SM 09/07 A3030 RMK T00900070 IEM_DS3505
ZBAA,2004-10-24 15:00,ZBAA 241500Z AUTO 00000KT 4SM 09/07 A3033 RMK SLP261 T00940070 52010 IEM_DS3505
ZBAA,2004-10-24 16:00,ZBAA 241600Z AUTO 01002KT 1 1/4SM 07/07 A3033 RMK T00700070 IEM_DS3505
ZBAA,2004-10-24 17:00,ZBAA 241700Z AUTO 01002KT 1 1/4SM 08/08 A3036 RMK T00800080 IEM_DS3505
ZBAA,2004-10-24 18:00,ZBAA 241800Z AUTO 07004KT 4SM 10/07 A3036 RMK SLP274 T00970071 52013 IEM_DS3505
ZBAA,2004-10-24 19:00,ZBAA 241900Z AUTO 35002KT 1 1/2SM 10/08 A3036 RMK T01000080 IEM_DS3505
ZBAA,2004-10-24 20:00,ZBAA 242000Z AUTO 35004KT 1 1/2SM 10/08 A3039 RMK T01000080 IEM_DS3505
ZBAA,2004-10-24 21:00,ZBAA 242100Z AUTO 09008KT 7SM 12/05 A3042 RMK SLP292 T01190049 52018 IEM_DS3505
ZBAA,2004-10-24 22:00,ZBAA 242200Z AUTO 6SM 11/04 A3042 RMK T01100040 IEM_DS3505
ZBAA,2004-10-24 23:00,ZBAA 242300Z AUTO 03006KT 6SM 11/05 A3045 RMK T01100050 IEM_DS3505
ZBAA,2004-10-25 00:00,ZBAA 250000Z AUTO 07004G17KT 7SM 11/M02 A3050 RMK SLP324 T01141020 52032 IEM_DS3505
ZBAA,2004-10-25 01:00,ZBAA 250100Z AUTO 04008G17KT 7SM 09/04 A3053 RMK T00900040 IEM_DS3505
ZBAA,2004-10-25 02:00,ZBAA 250200Z AUTO 02008G17KT 7SM 08/06 A3056 RMK T00800060 IEM_DS3505
ZBAA,2004-10-25 03:00,ZBAA 250300Z AUTO 04008KT 9SM 09/04 A3059 RMK SLP351 T00870040 52026 IEM_DS3505
ZBAA,2004-10-25 04:00,ZBAA 250400Z AUTO 02008KT 6SM 07/05 A3059 RMK T00700050 IEM_DS3505
ZBAA,2004-10-25 05:00,ZBAA 250500Z AUTO 04006KT 6SM 08/05 A3056 RMK T00800050 IEM_DS3505
ZBAA,2004-10-25 06:00,ZBAA 250600Z AUTO 04004KT 9SM 07/04 A3056 RMK 60004 SLP352 T00710044 52001 IEM_DS3505
ZBAA,2004-10-25 07:00,ZBAA 250700Z AUTO 36004KT 6SM 10/05 A3056 RMK T01000050 IEM_DS3505
ZBAA,2004-10-25 08:00,ZBAA 250800Z AUTO 35004KT 6SM 10/05 A3056 RMK T01000050 IEM_DS3505
ZBAA,2004-10-25 09:00,ZBAA 250900Z AUTO 11002KT 12SM 09/04 A3056 RMK SLP347 T00860041 57004 IEM_DS3505
ZBAA,2004-10-25 10:00,ZBAA 251000Z AUTO 29004KT 6SM 08/05 A3056 RMK T00800050 IEM_DS3505
ZBAA,2004-10-25 11:00,ZBAA 251100Z AUTO 27004KT 6SM 07/05 A3059 RMK T00700050 IEM_DS3505
ZBAA,2004-10-25 12:00,ZBAA 251200Z AUTO 27004KT 12SM 07/04 A3062 RMK SLP365 T00670044 52017 IEM_DS3505
ZBAA,2004-10-25 13:00,ZBAA 251300Z AUTO 29004KT 6SM 06/05 A3062 RMK T00600050 IEM_DS3505
ZBAA,2004-10-25 14:00,ZBAA 251400Z AUTO 28006KT 6SM 06/06 A3062 RMK T00600060 IEM_DS3505
ZBAA,2004-10-25 15:00,ZBAA 251500Z AUTO 27004KT 12SM 05/04 A3062 RMK SLP371 T00530036 52006 IEM_DS3505
ZBAA,2004-10-25 16:00,ZBAA 251600Z AUTO 35004KT 4SM 05/05 A3062 RMK T00500050 IEM_DS3505
ZBAA,2004-10-25 17:00,ZBAA 251700Z AUTO 01002KT 6SM 04/04 A3062 RMK T00400040 IEM_DS3505
ZBAA,2004-10-25 18:00,ZBAA 251800Z AUTO 00000KT 19SM 06/M06 A3062 RMK SLP366 T00651057 57005 IEM_DS3505
ZBAA,2004-10-25 19:00,ZBAA 251900Z AUTO 29008KT 6SM 06/M05 A3059 RMK T00601050 IEM_DS3505
ZBAA,2004-10-25 20:00,ZBAA 252000Z AUTO 29008KT 6SM 06/M05 A3059 RMK T00601050 IEM_DS3505
ZBAA,2004-10-25 21:00,ZBAA 252100Z AUTO 27002KT 12SM 02/M01 A3059 RMK 70005 SLP355 T00221007 57011 IEM_DS3505
ZBAA,2004-10-25 22:00,ZBAA 252200Z AUTO 29010KT 6SM 06/M05 A3056 RMK T00601050 IEM_DS3505
ZBAA,2004-10-25 23:00,ZBAA 252300Z AUTO 29008KT 6SM 05/M05 A3056 RMK T00501050 IEM_DS3505
ZBAA,2004-10-26 00:00,ZBAA 260000Z AUTO 32004KT 19SM 08/M03 A3059 RMK 70005 SLP357 T00751033 52002 IEM_DS3505
ZBAA,2004-10-26 01:00,ZBAA 260100Z AUTO 30010KT 6SM 11/M05 A3059 RMK T01101050 IEM_DS3505
ZBAA,2004-10-26 02:00,ZBAA 260200Z AUTO 29012KT 6SM 12/M06 A3059 RMK T01201060 IEM_DS3505
ZBAA,2004-10-26 03:00,ZBAA 260300Z AUTO 34006G21KT 19SM 12/M09 A3056 RMK SLP347 T01251091 57010 IEM_DS3505
ZBAA,2004-10-26 04:00,ZBAA 260400Z AUTO 30010KT 6SM 14/M07 A3053 RMK T01401070 IEM_DS3505
ZBAA,2004-10-26 05:00,ZBAA 260500Z AUTO 28010KT 6SM 15/M07 A3050 RMK T01501070 IEM_DS3505
ZBAA,2004-10-26 06:00,ZBAA 260600Z AUTO 27008KT 19SM 15/M08 A3047 RMK SLP314 T01511076 57032 IEM_DS3505
ZBAA,2004-10-26 07:00,ZBAA 260700Z AUTO 29010KT 6SM 16/M07 A3045 RMK T01601070 IEM_DS3505
ZBAA,2004-10-26 08:00,ZBAA 260800Z AUTO 29008KT 6SM 16/M08 A3042 RMK T01601080 IEM_DS3505
ZBAA,2004-10-26 09:00,ZBAA 260900Z AUTO 22006KT 19SM 14/M06 A3042 RMK SLP303 T01361065 57012 IEM_DS3505
ZBAA,2004-10-26 10:00,ZBAA 261000Z AUTO 20006KT 6SM 13/M05 A3042 RMK T01301050 IEM_DS3505
ZBAA,2004-10-26 11:00,ZBAA 261100Z AUTO 22004KT 6SM 12/M04 A3045 RMK T01201040 IEM_DS3505
ZBAA,2004-10-26 12:00,ZBAA 261200Z AUTO 22004KT 12SM 10/M03 A3042 RMK SLP302 T00951034 57001 IEM_DS3505
ZBAA,2004-10-26 13:00,ZBAA 261300Z AUTO 31002KT 6SM 10/M02 A3042 RMK T01001020 IEM_DS3505
ZBAA,2004-10-26 14:00,ZBAA 261400Z AUTO 00000KT 6SM 06/00 A3042 RMK T00600000 IEM_DS3505
ZBAA,2004-10-26 15:00,ZBAA 261500Z AUTO 25002KT 12SM 07/M03 A3042 RMK SLP294 T00701029 57007 IEM_DS3505
ZBAA,2004-10-26 16:00,ZBAA 261600Z AUTO 03002KT 6SM 04/01 A3039 RMK T00400010 IEM_DS3505
ZBAA,2004-10-26 17:00,ZBAA 261700Z AUTO 36004KT 6SM 03/01 A3039 RMK T00300010 IEM_DS3505
ZBAA,2004-10-26 18:00,ZBAA 261800Z AUTO 00000KT 11SM 04/M02 A3039 RMK SLP281 T00371018 57013 IEM_DS3505
ZBAA,2004-10-26 19:00,ZBAA 261900Z AUTO 02002KT 6SM 02/00 A3036 RMK T00200000 IEM_DS3505
ZBAA,2004-10-26 20:00,ZBAA 262000Z AUTO 35002KT 6SM 02/00 A3036 RMK T00200000 IEM_DS3505
ZBAA,2004-10-26 21:00,ZBAA 262100Z AUTO 00000KT 9SM 02/M02 A3036 RMK SLP275 T00201016 57007 IEM_DS3505
ZBAA,2004-10-26 22:00,ZBAA 262200Z AUTO 34006KT 6SM 01/M02 A3036 RMK T00101020 IEM_DS3505
ZBAA,2004-10-26 23:00,ZBAA 262300Z AUTO 34006KT 6SM 00/M01 A3036 RMK T00001010 IEM_DS3505
ZBAA,2004-10-27 00:00,ZBAA 270000Z AUTO 07002KT 7SM 05/M01 A3036 RMK SLP276 T00461008 52001 IEM_DS3505
ZBAA,2004-10-27 01:00,ZBAA 270100Z AUTO 01002KT 6SM 06/01 A3036 RMK T00600010 IEM_DS3505
ZBAA,2004-10-27 02:00,ZBAA 270200Z AUTO 6SM 09/02 A3036 RMK T00900020 IEM_DS3505
ZBAA,2004-10-27 03:00,ZBAA 270300Z AUTO 20004KT 7SM 12/M03 A3033 RMK SLP264 T01241026 57011 IEM_DS3505
ZBAA,2004-10-27 04:00,ZBAA 270400Z AUTO 14002KT 5SM 13/M01 A3030 RMK T01301010 IEM_DS3505
ZBAA,2004-10-27 05:00,ZBAA 270500Z AUTO 15006KT 5SM 15/00 A3024 RMK T01500000 IEM_DS3505
ZBAA,2004-10-27 06:00,ZBAA 270600Z AUTO 22010KT 7SM 16/M01 A3021 RMK SLP230 T01561010 57034 IEM_DS3505
ZBAA,2004-10-27 07:00,ZBAA 270700Z AUTO 19008KT 16/00 A3021 RMK T01600000 IEM_DS3505
ZBAA,2004-10-27 08:00,ZBAA 270800Z AUTO 19006KT 15/00 A3018 RMK T01500000 IEM_DS3505
ZBAA,2004-10-27 09:00,ZBAA 270900Z AUTO 22004KT 6SM 14/M02 A3018 RMK SLP221 T01361023 57009 IEM_DS3505
ZBAA,2004-10-27 10:00,ZBAA 271000Z AUTO 19004KT 3SM 11/00 A3021 RMK T01100000 IEM_DS3505
ZBAA,2004-10-27 11:00,ZBAA 271100Z AUTO 14002KT 3SM 09/01 A3021 RMK T00900010 IEM_DS3505
ZBAA,2004-10-27 12:00,ZBAA 271200Z AUTO 20002KT 6SM 11/M01 A3021 RMK SLP227 T01091011 52006 IEM_DS3505
ZBAA,2004-10-27 13:00,ZBAA 271300Z AUTO 12004KT 3SM 07/02 A3021 RMK T00700020 IEM_DS3505
ZBAA,2004-10-27 14:00,ZBAA 271400Z AUTO 14004KT 3SM 06/02 A3021 RMK T00600020 IEM_DS3505
ZBAA,2004-10-27 15:00,ZBAA 271500Z AUTO 18004KT 6SM 08/M01 A3021 RMK SLP230 T00841011 52003 IEM_DS3505
ZBAA,2004-10-27 16:00,ZBAA 271600Z AUTO 14002KT 3SM 05/01 A3021 RMK T00500010 IEM_DS3505
ZBAA,2004-10-27 17:00,ZBAA 271700Z AUTO 03002KT 2 1/2SM 05/02 A3021 RMK T00500020 IEM_DS3505
ZBAA,2004-10-27 18:00,ZBAA 271800Z AUTO 20004KT 4SM 05/00 A3021 RMK SLP231 T00500000 52001 IEM_DS3505
ZBAA,2004-10-27 19:00,ZBAA 271900Z AUTO 00000KT 2SM 03/01 A3021 RMK T00300010 IEM_DS3505
ZBAA,2004-10-27 21:00,ZBAA 272100Z AUTO 07002KT 4SM 03/00 RMK SLP226 T00330000 57005 IEM_DS3505
ZBAA,2004-10-28 00:00,ZBAA 280000Z AUTO 07002KT 4SM 04/01 RMK SLP241 T00450012 52015 IEM_DS3505
ZBAA,2004-10-28 02:00,ZBAA 280200Z AUTO 2SM 08/03 A3027 RMK T00800030 IEM_DS3505
ZBAA,2004-10-28 03:00,ZBAA 280300Z AUTO 02004KT 5SM 10/02 A3027 RMK SLP242 T01030017 52001 IEM_DS3505
ZBAA,2004-10-28 04:00,ZBAA 280400Z AUTO 11002KT 2SM 12/03 A3024 RMK T01200030 IEM_DS3505
ZBAA,2004-10-28 06:00,ZBAA 280600Z AUTO 16006KT 5SM 15/01 A3021 RMK SLP221 T01520007 57021 IEM_DS3505
ZBAA,2004-10-28 07:00,ZBAA 280700Z AUTO 15006KT 2SM 15/03 A3018 RMK T01500030 IEM_DS3505
ZBAA,2004-10-28 08:00,ZBAA 280800Z AUTO 14006KT 2SM 15/03 A3018 RMK T01500030 IEM_DS3505
ZBAA,2004-10-28 09:00,ZBAA 280900Z AUTO 09002KT 6SM 14/02 A3018 RMK SLP218 T01380015 57003 IEM_DS3505
ZBAA,2004-10-28 10:00,ZBAA 281000Z AUTO 10002KT 2SM 10/04 A3021 RMK T01000040 IEM_DS3505
ZBAA,2004-10-28 11:00,ZBAA 281100Z AUTO 09002KT 2SM 09/04 A3021 RMK T00900040 IEM_DS3505
ZBAA,2004-10-28 12:00,ZBAA 281200Z AUTO 00000KT 4SM 09/03 A3024 RMK SLP236 T00870029 52017 IEM_DS3505
ZBAA,2004-10-28 13:00,ZBAA 281300Z AUTO 00000KT 2SM 08/05 A3024 RMK T00800050 IEM_DS3505
ZBAA,2004-10-28 14:00,ZBAA 281400Z AUTO 00000KT 1 1/2SM 06/04 A3027 RMK T00600040 IEM_DS3505
ZBAA,2004-10-28 15:00,ZBAA 281500Z AUTO 04002KT 4SM 07/03 A3024 RMK SLP239 T00700033 52004 IEM_DS3505
ZBAA,2004-10-28 16:00,ZBAA 281600Z AUTO 36002KT 1 1/2SM 05/03 A3024 RMK T00500030 IEM_DS3505
ZBAA,2004-10-28 17:00,ZBAA 281700Z AUTO 00000KT 1 1/2SM 06/04 A3024 RMK T00600040 IEM_DS3505
ZBAA,2004-10-28 18:00,ZBAA 281800Z AUTO 02002KT 4SM 06/03 A3024 RMK SLP236 T00560031 57003 IEM_DS3505
ZBAA,2004-10-28 19:00,ZBAA 281900Z AUTO 35002KT 1 1/2SM 05/03 A3024 RMK T00500030 IEM_DS3505
ZBAA,2004-10-28 20:00,ZBAA 282000Z AUTO 33004KT 1 1/2SM 05/03 A3024 RMK T00500030 IEM_DS3505
ZBAA,2004-10-28 21:00,ZBAA 282100Z AUTO 04002KT 4SM 06/03 A3024 RMK SLP235 T00620032 57001 IEM_DS3505
ZBAA,2004-10-28 22:00,ZBAA 282200Z AUTO 34004KT 1 1/2SM 04/03 A3024 RMK T00400030 IEM_DS3505
ZBAA,2004-10-28 23:00,ZBAA 282300Z AUTO 32002KT 1 1/4SM 05/03 A3024 RMK T00500030 IEM_DS3505
ZBAA,2004-10-29 00:00,ZBAA 290000Z AUTO 02002KT 2 1/2SM 07/03 A3027 RMK SLP247 T00660031 52012 IEM_DS3505
ZBAA,2004-10-29 01:00,ZBAA 290100Z AUTO 36004KT 1 1/4SM 08/05 A3027 RMK T00800050 IEM_DS3505
ZBAA,2004-10-29 02:00,ZBAA 290200Z AUTO 01004KT 1 1/2SM 10/06 A3027 RMK T01000060 IEM_DS3505
ZBAA,2004-10-29 03:00,ZBAA 290300Z AUTO 04004KT 4SM 12/04 A3027 RMK SLP248 T01210044 52001 IEM_DS3505
ZBAA,2004-10-29 04:00,ZBAA 290400Z AUTO 2 1/2SM 14/06 A3024 RMK T01400060 IEM_DS3505
ZBAA,2004-10-29 05:00,ZBAA 290500Z AUTO 2 1/2SM 15/06 A3024 RMK T01500060 IEM_DS3505
ZBAA,2004-10-29 06:00,ZBAA 290600Z AUTO 07004KT 4SM 16/05 A3021 RMK SLP226 T01560050 57022 IEM_DS3505
ZBAA,2004-10-29 07:00,ZBAA 290700Z AUTO 11004KT 3SM 16/06 A3021 RMK T01600060 IEM_DS3505
ZBAA,2004-10-29 08:00,ZBAA 290800Z AUTO 16002KT 2 1/2SM 15/07 A3021 RMK T01500070 IEM_DS3505
ZBAA,2004-10-29 09:00,ZBAA 290900Z AUTO 11002KT 5SM 15/06 A3021 RMK SLP223 T01470058 57003 IEM_DS3505
ZBAA,2004-10-29 10:00,ZBAA 291000Z AUTO 02002KT 1 1/2SM 12/07 A3021 RMK T01200070 IEM_DS3505
ZBAA,2004-10-29 11:00,ZBAA 291100Z AUTO 01002KT 1 1/4SM 10/08 A3024 RMK T01000080 IEM_DS3505
ZBAA,2004-10-29 12:00,ZBAA 291200Z AUTO 00000KT 2 1/2SM 09/06 A3024 RMK SLP235 T00930062 52012 IEM_DS3505
ZBAA,2004-10-29 13:00,ZBAA 291300Z AUTO 35002KT 1 1/4SM 10/07 A3024 RMK T01000070 IEM_DS3505
ZBAA,2004-10-29 14:00,ZBAA 291400Z AUTO 33002KT 1 1/4SM 08/06 A3024 RMK T00800060 IEM_DS3505
ZBAA,2004-10-29 15:00,ZBAA 291500Z AUTO 07002KT 2 1/2SM 09/06 A3024 RMK SLP238 T00870063 52003 IEM_DS3505
ZBAA,2004-10-29 16:00,ZBAA 291600Z AUTO 33002KT 1SM 08/06 A3024 RMK T00800060 IEM_DS3505
ZBAA,2004-10-29 17:00,ZBAA 291700Z AUTO 34002KT 1SM 07/05 A3024 RMK T00700050 IEM_DS3505
ZBAA,2004-10-29 18:00,ZBAA 291800Z AUTO 07002KT 2SM 08/05 A3024 RMK SLP232 T00790054 57006 IEM_DS3505
ZBAA,2004-10-29 19:00,ZBAA 291900Z AUTO 34002KT 1SM 06/05 A3021 RMK T00600050 IEM_DS3505
ZBAA,2004-10-29 20:00,ZBAA 292000Z AUTO 34004KT 1SM 07/06 A3021 RMK T00700060 IEM_DS3505
ZBAA,2004-10-29 21:00,ZBAA 292100Z AUTO 04004KT 2SM 07/05 A3021 RMK SLP225 T00740049 57007 IEM_DS3505
ZBAA,2004-10-29 22:00,ZBAA 292200Z AUTO 34004KT 1SM 06/05 A3021 RMK T00600050 IEM_DS3505
ZBAA,2004-10-29 23:00,ZBAA 292300Z AUTO 34004KT 1SM 06/05 A3021 RMK T00600050 IEM_DS3505
ZBAA,2004-10-30 00:00,ZBAA 300000Z AUTO 04002KT 1SM 09/06 A3024 RMK SLP234 T00880057 52009 IEM_DS3505
ZBAA,2004-10-30 01:00,ZBAA 300100Z AUTO 34002KT 1SM 09/07 A3024 RMK T00900070 IEM_DS3505
ZBAA,2004-10-30 02:00,ZBAA 300200Z AUTO 36002KT 1SM 10/08 A3024 RMK T01000080 IEM_DS3505
ZBAA,2004-10-30 03:00,ZBAA 300300Z AUTO 02002KT 1 1/4SM 12/06 A3024 RMK SLP234 T01210064 54000 IEM_DS3505
ZBAA,2004-10-30 04:00,ZBAA 300400Z AUTO 36002KT 1 1/4SM 13/08 A3021 RMK T01300080 IEM_DS3505
ZBAA,2004-10-30 05:00,ZBAA 300500Z AUTO 34002KT 1 1/4SM 14/08 A3018 RMK T01400080 IEM_DS3505
ZBAA,2004-10-30 06:00,ZBAA 300600Z AUTO 04004KT 2SM 14/07 A3018 RMK SLP211 T01390072 57023 IEM_DS3505
ZBAA,2004-10-30 07:00,ZBAA 300700Z AUTO 36002KT 1 1/4SM 14/08 A3015 RMK T01400080 IEM_DS3505
ZBAA,2004-10-30 08:00,ZBAA 300800Z AUTO 33002KT 1 1/4SM 14/08 A3015 RMK T01400080 IEM_DS3505
ZBAA,2004-10-30 09:00,ZBAA 300900Z AUTO 02002KT 2SM 13/08 A3012 RMK SLP201 T01310076 57010 IEM_DS3505
ZBAA,2004-10-30 10:00,ZBAA 301000Z AUTO 31006KT 1SM 12/08 A3015 RMK T01200080 IEM_DS3505
ZBAA,2004-10-30 11:00,ZBAA 301100Z AUTO 1SM 12/09 A3015 RMK T01200090 IEM_DS3505
ZBAA,2004-10-30 12:00,ZBAA 301200Z AUTO 04002KT 1 1/4SM 12/08 A3015 RMK SLP206 T01240077 52005 IEM_DS3505
ZBAA,2004-10-30 13:00,ZBAA 301300Z AUTO 34004KT 1SM 12/10 A3015 RMK T01200100 IEM_DS3505
ZBAA,2004-10-30 15:00,ZBAA 301500Z AUTO 04002KT 1 1/4SM 12/08 RMK SLP199 T01250076 57007 IEM_DS3505
ZBAA,2004-10-30 17:00,ZBAA 301700Z AUTO 35002KT 1SM 11/10 A3009 RMK T01100100 IEM_DS3505
ZBAA,2004-10-30 18:00,ZBAA 301800Z AUTO 04002KT 1 1/4SM 12/09 A3009 RMK 60000 SLP182 T01190089 57016 IEM_DS3505
ZBAA,2004-10-30 19:00,ZBAA 301900Z AUTO 31006KT 1SM 11/11 A3006 RMK T01100110 IEM_DS3505
ZBAA,2004-10-30 20:00,ZBAA 302000Z AUTO 31004KT 1SM 11/11 A3006 RMK T01100110 IEM_DS3505
ZBAA,2004-10-30 21:00,ZBAA 302100Z AUTO 34002KT 1/2SM 11/10 A3003 RMK 70012 SLP170 T01110102 57013 IEM_DS3505
ZBAA,2004-10-30 22:00,ZBAA 302200Z AUTO 30006KT 3/8SM 11/11 A3003 RMK T01100110 IEM_DS3505
ZBAA,2004-10-30 23:00,ZBAA 302300Z AUTO 29008KT 1SM 11/11 A3003 RMK T01100110 IEM_DS3505
ZBAA,2004-10-31 00:00,ZBAA 310000Z AUTO 32002KT 1SM 11/10 A3003 RMK 60035 70035 SLP174 T01130101 52004 IEM_DS3505
ZBAA,2004-10-31 01:00,ZBAA 310100Z AUTO 29006KT 1 1/2SM 11/11 A3003 RMK T01100110 IEM_DS3505
ZBAA,2004-10-31 02:00,ZBAA 310200Z AUTO 31010KT 6SM 12/10 A3003 RMK T01200100 IEM_DS3505
ZBAA,2004-10-31 03:00,ZBAA 310300Z AUTO 29004KT 2SM 13/10 A3000 RMK SLP162 T01300104 57011 IEM_DS3505
ZBAA,2004-10-31 04:00,ZBAA 310400Z AUTO 32006KT 6SM 16/10 A3000 RMK T01600100 IEM_DS3505
ZBAA,2004-10-31 05:00,ZBAA 310500Z AUTO 35006KT 6SM 17/10 A2997 RMK T01700100 IEM_DS3505
ZBAA,2004-10-31 06:00,ZBAA 310600Z AUTO 29004KT 19SM 18/05 A2994 RMK SLP134 T01820048 57028 IEM_DS3505
ZBAA,2004-10-31 07:00,ZBAA 310700Z AUTO 6SM 17/09 A2991 RMK T01700090 IEM_DS3505
ZBAA,2004-10-31 08:00,ZBAA 310800Z AUTO 6SM 17/11 A2994 RMK T01700110 IEM_DS3505
ZBAA,2004-10-31 09:00,ZBAA 310900Z AUTO 25004KT 7SM 16/10 A2994 RMK SLP134 T01560097 54000 IEM_DS3505
ZBAA,2004-10-31 10:00,ZBAA 311000Z AUTO 36004KT 6SM 12/09 A2997 RMK T01200090 IEM_DS3505
ZBAA,2004-10-31 11:00,ZBAA 311100Z AUTO 36004KT 6SM 11/08 A2997 RMK T01100080 IEM_DS3505
ZBAA,2004-10-31 12:00,ZBAA 311200Z AUTO 07004KT 9SM 12/07 A2997 RMK SLP150 T01250074 52016 IEM_DS3505
ZBAA,2004-10-31 13:00,ZBAA 311300Z AUTO 33006KT 6SM 12/07 A3000 RMK T01200070 IEM_DS3505
ZBAA,2004-10-31 14:00,ZBAA 311400Z AUTO 32004KT 6SM 10/06 A3000 RMK T01000060 IEM_DS3505
ZBAA,2004-10-31 15:00,ZBAA 311500Z AUTO 07002KT 9SM 10/06 A3000 RMK SLP153 T00970064 52002 IEM_DS3505
ZBAA,2004-10-31 16:00,ZBAA 311600Z AUTO 35006KT 6SM 10/06 A3000 RMK T01000060 IEM_DS3505
ZBAA,2004-10-31 17:00,ZBAA 311700Z AUTO 36006KT 6SM 09/06 A3000 RMK T00900060 IEM_DS3505
ZBAA,2004-10-31 18:00,ZBAA 311800Z AUTO 04004KT 19SM 10/04 A3000 RMK SLP153 T01050044 52001 IEM_DS3505
ZBAA,2004-10-31 19:00,ZBAA 311900Z AUTO 02006G16KT 6SM 10/05 A3000 RMK T01000050 IEM_DS3505
ZBAA,2004-10-31 20:00,ZBAA 312000Z AUTO 02006KT 6SM 10/05 A3000 RMK T01000050 IEM_DS3505
ZBAA,2004-10-31 21:00,ZBAA 312100Z AUTO 04008KT 19SM 10/02 A3000 RMK 70023 SLP157 T01030022 52004 IEM_DS3505
ZBAA,2004-10-31 22:00,ZBAA 312200Z AUTO 03006KT 6SM 09/04 A3003 RMK T00900040 IEM_DS3505
ZBAA,2004-10-31 23:00,ZBAA 312300Z AUTO 03004KT 6SM 09/04 A3003 RMK T00900040 IEM_DS3505
ZBAA,2004-11-01 00:00,ZBAA 010000Z AUTO 02006KT 19SM 10/02 A3006 RMK 70000 SLP174 T01010025 52016 IEM_DS3505
ZBAA,2004-11-01 01:00,ZBAA 010100Z AUTO 36008KT 6SM 12/05 A3006 RMK T01200050 IEM_DS3505
ZBAA,2004-11-01 02:00,ZBAA 010200Z AUTO 6SM 13/05 A3006 RMK T01300050 IEM_DS3505
ZBAA,2004-11-01 03:00,ZBAA 010300Z AUTO 07008KT 19SM 14/03 A3006 RMK SLP173 T01440030 57001 IEM_DS3505
ZBAA,2004-11-01 04:00,ZBAA 010400Z AUTO 36004KT 6SM 15/04 A3003 RMK T01500040 IEM_DS3505
ZBAA,2004-11-01 05:00,ZBAA 010500Z AUTO 36006G16KT 6SM 16/03 A3000 RMK T01600030 IEM_DS3505
ZBAA,2004-11-01 06:00,ZBAA 010600Z AUTO 34012KT 19SM 16/M00 A3000 RMK SLP158 T01601002 57014 IEM_DS3505
ZBAA,2004-11-01 07:00,ZBAA 010700Z AUTO 32014KT 6SM 17/01 A3000 RMK T01700010 IEM_DS3505
ZBAA,2004-11-01 08:00,ZBAA 010800Z AUTO 32016G25KT 6SM 15/01 A3000 RMK T01500010 IEM_DS3505
ZBAA,2004-11-01 09:00,ZBAA 010900Z AUTO 36004KT 19SM 14/M02 A3003 RMK SLP167 T01411019 52009 IEM_DS3505
ZBAA,2004-11-01 10:00,ZBAA 011000Z AUTO 33014KT 6SM 12/00 A3006 RMK T01200000 IEM_DS3505
ZBAA,2004-11-01 11:00,ZBAA 011100Z AUTO 32014KT 6SM 12/00 A3006 RMK T01200000 IEM_DS3505
ZBAA,2004-11-01 12:00,ZBAA 011200Z AUTO 36004KT 19SM 12/M02 A3009 RMK SLP186 T01191016 52018 IEM_DS3505
ZBAA,2004-11-01 13:00,ZBAA 011300Z AUTO 29008KT 6SM 10/00 A3009 RMK T01000000 IEM_DS3505
ZBAA,2004-11-01 14:00,ZBAA 011400Z AUTO 29008KT 6SM 10/00 A3009 RMK T01000000 IEM_DS3505
ZBAA,2004-11-01 15:00,ZBAA 011500Z AUTO 11002KT 16SM 08/M01 A3009 RMK SLP192 T00851008 52006 IEM_DS3505
ZBAA,2004-11-01 16:00,ZBAA 011600Z AUTO 33004KT 6SM 08/00 A3012 RMK T00800000 IEM_DS3505
ZBAA,2004-11-01 17:00,ZBAA 011700Z AUTO 36006KT 6SM 08/00 A3009 RMK T00800000 IEM_DS3505
ZBAA,2004-11-01 18:00,ZBAA 011800Z AUTO 09002KT 16SM 07/00 A3009 RMK SLP190 T00670000 57002 IEM_DS3505
ZBAA,2004-11-01 19:00,ZBAA 011900Z AUTO 35008KT 6SM 07/01 A3009 RMK T00700010 IEM_DS3505
ZBAA,2004-11-01 20:00,ZBAA 012000Z AUTO 02004KT 6SM 06/01 A3009 RMK T00600010 IEM_DS3505
ZBAA,2004-11-01 21:00,ZBAA 012100Z AUTO 36002KT 16SM 05/M00 A3009 RMK SLP188 T00471001 57002 IEM_DS3505
ZBAA,2004-11-01 22:00,ZBAA 012200Z AUTO 36006KT 6SM 04/00 A3009 RMK T00400000 IEM_DS3505
ZBAA,2004-11-01 23:00,ZBAA 012300Z AUTO 01004KT 6SM 04/00 A3012 RMK T00400000 IEM_DS3505
ZBAA,2004-11-02 00:00,ZBAA 020000Z AUTO 25002KT 12SM 07/01 A3012 RMK SLP200 T00740011 52012 IEM_DS3505
ZBAA,2004-11-02 01:00,ZBAA 020100Z AUTO 00000KT 6SM 11/00 A3015 RMK T01100000 IEM_DS3505
ZBAA,2004-11-02 02:00,ZBAA 020200Z AUTO 6SM 12/00 A3015 RMK T01200000 IEM_DS3505
ZBAA,2004-11-02 03:00,ZBAA 020300Z AUTO 29006KT 19SM 14/M01 A3012 RMK SLP202 T01421014 52002 IEM_DS3505
ZBAA,2004-11-02 04:00,ZBAA 020400Z AUTO 01004KT 6SM 15/00 A3012 RMK T01500000 IEM_DS3505
ZBAA,2004-11-02 05:00,ZBAA 020500Z AUTO 6SM 17/00 A3009 RMK T01700000 IEM_DS3505
ZBAA,2004-11-02 06:00,ZBAA 020600Z AUTO 25006KT 12SM 17/00 A3006 RMK SLP181 T01670000 57021 IEM_DS3505
ZBAA,2004-11-02 07:00,ZBAA 020700Z AUTO 30006KT 6SM 19/M02 A3006 RMK T01901020 IEM_DS3505
ZBAA,2004-11-02 08:00,ZBAA 020800Z AUTO 23004KT 6SM 18/M02 A3006 RMK T01801020 IEM_DS3505
ZBAA,2004-11-02 09:00,ZBAA 020900Z AUTO 22004KT 16SM 14/01 A3006 RMK SLP185 T01450011 52004 IEM_DS3505
ZBAA,2004-11-02 10:00,ZBAA 021000Z AUTO 14002KT 6SM 13/04 A3009 RMK T01300040 IEM_DS3505
ZBAA,2004-11-02 11:00,ZBAA 021100Z AUTO 11002KT 6SM 11/04 A3012 RMK T01100040 IEM_DS3505
ZBAA,2004-11-02 12:00,ZBAA 021200Z AUTO 16002KT 9SM 10/02 A3012 RMK SLP197 T01030019 52012 IEM_DS3505
ZBAA,2004-11-02 13:00,ZBAA 021300Z AUTO 12002KT 6SM 08/05 A3012 RMK T00800050 IEM_DS3505
ZBAA,2004-11-02 14:00,ZBAA 021400Z AUTO 00000KT 6SM 07/04 A3015 RMK T00700040 IEM_DS3505
ZBAA,2004-11-02 15:00,ZBAA 021500Z AUTO 20002KT 9SM 07/02 A3015 RMK SLP205 T00710022 52008 IEM_DS3505
ZBAA,2004-11-02 16:00,ZBAA 021600Z AUTO 00000KT 5SM 06/04 A3015 RMK T00600040 IEM_DS3505
ZBAA,2004-11-02 18:00,ZBAA 021800Z AUTO 00000KT 7SM 05/03 A3015 RMK SLP209 T00500027 52004 IEM_DS3505
ZBAA,2004-11-02 19:00,ZBAA 021900Z AUTO 09002KT 5SM 05/02 A3015 RMK T00500020 IEM_DS3505
ZBAA,2004-11-02 20:00,ZBAA 022000Z AUTO 10004KT 4SM 05/03 A3015 RMK T00500030 IEM_DS3505
ZBAA,2004-11-02 21:00,ZBAA 022100Z AUTO 07004KT 9SM 04/02 A3015 RMK SLP208 T00450015 57001 IEM_DS3505
ZBAA,2004-11-02 22:00,ZBAA 022200Z AUTO 00000KT 3SM 03/02 A3018 RMK T00300020 IEM_DS3505
ZBAA,2004-11-02 23:00,ZBAA 022300Z AUTO 36004KT 2 1/2SM 03/02 A3018 RMK T00300020 IEM_DS3505
ZBAA,2004-11-03 00:00,ZBAA 030000Z AUTO 07002KT 4SM 04/02 A3018 RMK SLP221 T00430022 52013 IEM_DS3505
ZBAA,2004-11-03 01:00,ZBAA 030100Z AUTO 36002KT 3SM 07/04 A3021 RMK T00700040 IEM_DS3505
ZBAA,2004-11-03 02:00,ZBAA 030200Z AUTO 13004KT 3SM 09/05 A3018 RMK T00900050 IEM_DS3505
ZBAA,2004-11-03 03:00,ZBAA 030300Z AUTO 07002KT 4SM 10/04 A3018 RMK SLP216 T00970039 57005 IEM_DS3505
ZBAA,2004-11-03 04:00,ZBAA 030400Z AUTO 13004KT 2 1/2SM 12/05 A3015 RMK T01200050 IEM_DS3505
ZBAA,2004-11-03 05:00,ZBAA 030500Z AUTO 12004KT 2 1/2SM 13/05 A3012 RMK T01300050 IEM_DS3505
ZBAA,2004-11-03 06:00,ZBAA 030600Z AUTO 20006KT 5SM 15/04 A3009 RMK SLP183 T01470038 57033 IEM_DS3505
ZBAA,2004-11-03 07:00,ZBAA 030700Z AUTO 17006KT 2 1/2SM 15/05 A3006 RMK T01500050 IEM_DS3505
ZBAA,2004-11-03 08:00,ZBAA 030800Z AUTO 12004KT 2SM 14/06 A3006 RMK T01400060 IEM_DS3505
ZBAA,2004-11-03 09:00,ZBAA 030900Z AUTO 09002KT 5SM 14/04 A3006 RMK SLP179 T01390045 57004 IEM_DS3505
ZBAA,2004-11-03 10:00,ZBAA 031000Z AUTO 00000KT 2SM 11/06 A3009 RMK T01100060 IEM_DS3505
ZBAA,2004-11-03 11:00,ZBAA 031100Z AUTO 36004KT 2SM 09/06 A3009 RMK T00900060 IEM_DS3505
ZBAA,2004-11-03 12:00,ZBAA 031200Z AUTO 04002KT 3SM 09/05 A3009 RMK SLP187 T00900052 52008 IEM_DS3505
ZBAA,2004-11-03 13:00,ZBAA 031300Z AUTO 01004KT 2SM 09/06 A3009 RMK T00900060 IEM_DS3505
ZBAA,2004-11-03 13:30,ZBAA 031330Z AUTO 01002KT 2SM 08/06 A3009 RMK T00800060 IEM_DS3505
ZBAA,2004-11-03 14:00,ZBAA 031400Z AUTO 02002KT 2SM 06/05 A3009 RMK T00600050 IEM_DS3505
ZBAA,2004-11-03 15:00,ZBAA 031500Z AUTO 04004KT 2 1/2SM 08/05 A3009 RMK SLP187 T00820046 54000 IEM_DS3505
ZBAA,2004-11-03 16:00,ZBAA 031600Z AUTO 35004KT 1 1/2SM 06/05 A3009 RMK T00600050 IEM_DS3505
ZBAA,2004-11-03 17:00,ZBAA 031700Z AUTO 34004KT 1 1/4SM 05/04 A3009 RMK T00500040 IEM_DS3505
ZBAA,2004-11-03 18:00,ZBAA 031800Z AUTO 02002KT 2 1/2SM 07/04 A3009 RMK SLP182 T00700043 57005 IEM_DS3505
ZBAA,2004-11-03 19:00,ZBAA 031900Z AUTO 34004KT 1 1/4SM 05/04 A3006 RMK T00500040 IEM_DS3505
ZBAA,2004-11-03 20:00,ZBAA 032000Z AUTO 33004KT 1 1/4SM 05/04 A3006 RMK T00500040 IEM_DS3505
ZBAA,2004-11-03 21:00,ZBAA 032100Z AUTO 04004KT 2SM 07/04 A3006 RMK SLP175 T00710039 57007 IEM_DS3505
ZBAA,2004-11-03 22:00,ZBAA 032200Z AUTO 35004KT 1 1/4SM 04/04 A3006 RMK T00400040 IEM_DS3505
ZBAA,2004-11-03 23:00,ZBAA 032300Z AUTO 33004KT 1SM 04/04 A3006 RMK T00400040 IEM_DS3505
ZBAA,2004-11-04 00:00,ZBAA 040000Z AUTO 36002KT 2SM 07/04 A3006 RMK SLP179 T00680040 52004 IEM_DS3505
ZBAA,2004-11-04 01:00,ZBAA 040100Z AUTO 36002KT 1 1/2SM 09/06 A3006 RMK T00900060 IEM_DS3505
ZBAA,2004-11-04 02:00,ZBAA 040200Z AUTO 36004KT 2SM 11/06 A3006 RMK T01100060 IEM_DS3505
ZBAA,2004-11-04 03:00,ZBAA 040300Z AUTO 04006KT 4SM 12/06 A3003 RMK SLP168 T01230057 57011 IEM_DS3505
ZBAA,2004-11-04 04:00,ZBAA 040400Z AUTO 02004KT 2SM 13/06 A3000 RMK T01300060 IEM_DS3505
ZBAA,2004-11-04 05:00,ZBAA 040500Z AUTO 2SM 14/06 A2997 RMK T01400060 IEM_DS3505
ZBAA,2004-11-04 06:00,ZBAA 040600Z AUTO 09006KT 5SM 14/06 A2997 RMK SLP147 T01440058 57021 IEM_DS3505
ZBAA,2004-11-04 07:00,ZBAA 040700Z AUTO 36006KT 2 1/2SM 14/08 A2997 RMK T01400080 IEM_DS3505
ZBAA,2004-11-04 08:00,ZBAA 040800Z AUTO 33006KT 2SM 14/07 A3000 RMK T01400070 IEM_DS3505
ZBAA,2004-11-04 09:00,ZBAA 040900Z AUTO 02004KT 4SM 13/05 A3000 RMK SLP159 T01330050 52012 IEM_DS3505
ZBAA,2004-11-04 10:00,ZBAA 041000Z AUTO 34008KT 2SM 13/07 A3003 RMK T01300070 IEM_DS3505
ZBAA,2004-11-04 11:00,ZBAA 041100Z AUTO 33008KT 13/03 A3009 RMK T01300030 IEM_DS3505
ZBAA,2004-11-04 12:00,ZBAA 041200Z AUTO 36012KT 12SM 13/M02 A3012 RMK SLP194 T01311024 52035 IEM_DS3505
ZBAA,2004-11-04 13:00,ZBAA 041300Z AUTO 35010KT 6SM 11/01 A3015 RMK T01100010 IEM_DS3505
ZBAA,2004-11-04 14:00,ZBAA 041400Z AUTO 35006KT 6SM 09/01 A3018 RMK T00900010 IEM_DS3505
ZBAA,2004-11-04 15:00,ZBAA 041500Z AUTO 36010KT 19SM 10/M06 A3021 RMK SLP221 T01001063 52027 IEM_DS3505
ZBAA,2004-11-04 16:00,ZBAA 041600Z AUTO 32012KT 6SM 07/M06 A3021 RMK T00701060 IEM_DS3505
ZBAA,2004-11-04 17:00,ZBAA 041700Z AUTO 33008KT 6SM 06/M06 A3024 RMK T00601060 IEM_DS3505
ZBAA,2004-11-04 18:00,ZBAA 041800Z AUTO 36008KT 19SM 07/M09 A3024 RMK SLP235 T00691094 52014 IEM_DS3505
ZBAA,2004-11-04 19:00,ZBAA 041900Z AUTO 01002KT 6SM 03/M06 A3024 RMK T00301060 IEM_DS3505
ZBAA,2004-11-04 20:00,ZBAA 042000Z AUTO 33006KT 6SM 03/M09 A3024 RMK T00301090 IEM_DS3505
ZBAA,2004-11-04 21:00,ZBAA 042100Z AUTO 04008KT 19SM 05/M11 A3027 RMK SLP246 T00531108 52011 IEM_DS3505
ZBAA,2004-11-04 22:00,ZBAA 042200Z AUTO 35006KT 6SM 02/M07 A3030 RMK T00201070 IEM_DS3505
ZBAA,2004-11-04 23:00,ZBAA 042300Z AUTO 36004KT 6SM 02/M07 A3030 RMK T00201070 IEM_DS3505
ZBAA,2004-11-05 00:00,ZBAA 050000Z AUTO 04008KT 19SM 05/M11 A3033 RMK SLP262 T00511110 52016 IEM_DS3505
ZBAA,2004-11-05 01:00,ZBAA 050100Z AUTO 6SM 07/M07 A3033 RMK T00701070 IEM_DS3505
ZBAA,2004-11-05 02:00,ZBAA 050200Z AUTO 02004KT 6SM 07/M08 A3030 RMK T00701080 IEM_DS3505
ZBAA,2004-11-05 03:00,ZBAA 050300Z AUTO 07006KT 19SM 08/M11 A3027 RMK SLP246 T00821106 57016 IEM_DS3505
ZBAA,2004-11-05 04:00,ZBAA 050400Z AUTO 6SM 09/M10 A3024 RMK T00901100 IEM_DS3505
ZBAA,2004-11-05 05:00,ZBAA 050500Z AUTO 6SM 10/M10 A3018 RMK T01001100 IEM_DS3505
ZBAA,2004-11-05 06:00,ZBAA 050600Z AUTO 22008KT 19SM 11/M11 A3015 RMK SLP212 T01101110 57034 IEM_DS3505
ZBAA,2004-11-05 07:00,ZBAA 050700Z AUTO 17008KT 6SM 12/M08 A3012 RMK T01201080 IEM_DS3505
ZBAA,2004-11-05 08:00,ZBAA 050800Z AUTO 19008KT 6SM 11/M10 A3012 RMK T01101100 IEM_DS3505
ZBAA,2004-11-05 09:00,ZBAA 050900Z AUTO 20006KT 19SM 10/M08 A3012 RMK SLP203 T00981082 57009 IEM_DS3505
ZBAA,2004-11-05 10:00,ZBAA 051000Z AUTO 19006KT 6SM 08/M06 A3015 RMK T00801060 IEM_DS3505
ZBAA,2004-11-05 11:00,ZBAA 051100Z AUTO 15002KT 6SM 07/M04 A3015 RMK T00701040 IEM_DS3505
ZBAA,2004-11-05 12:00,ZBAA 051200Z AUTO 22004KT 19SM 07/M06 A3015 RMK SLP210 T00681058 52006 IEM_DS3505
ZBAA,2004-11-05 13:00,ZBAA 051300Z AUTO 12002KT 5SM 05/M02 A3015 RMK T00501020 IEM_DS3505
ZBAA,2004-11-05 14:00,ZBAA 051400Z AUTO 10004KT 04/M03 A3015 RMK T00401030 IEM_DS3505
ZBAA,2004-11-05 15:00,ZBAA 051500Z AUTO 20004KT 16SM 05/M07 A3015 RMK SLP208 T00521066 57001 IEM_DS3505
ZBAA,2004-11-05 16:00,ZBAA 051600Z AUTO 11006KT 04/M03 A3015 RMK T00401030 IEM_DS3505
ZBAA,2004-11-05 17:00,ZBAA 051700Z AUTO 12002KT 02/M04 A3015 RMK T00201040 IEM_DS3505
ZBAA,2004-11-05 18:00,ZBAA 051800Z AUTO 25002KT 12SM 03/M06 A3015 RMK SLP203 T00341057 57005 IEM_DS3505
ZBAA,2004-11-05 19:00,ZBAA 051900Z AUTO 10002KT 4SM 01/M04 A3012 RMK T00101040 IEM_DS3505
ZBAA,2004-11-05 20:00,ZBAA 052000Z AUTO 13004KT 4SM 02/M03 A3012 RMK T00201030 IEM_DS3505
ZBAA,2004-11-05 21:00,ZBAA 052100Z AUTO 22002KT 12SM 02/M05 A3009 RMK SLP189 T00171050 57014 IEM_DS3505
ZBAA,2004-11-05 22:00,ZBAA 052200Z AUTO 09002KT 4SM 01/M03 A3009 RMK T00101030 IEM_DS3505
ZBAA,2004-11-05 23:00,ZBAA 052300Z AUTO 00000KT 3SM 01/M02 A3009 RMK T00101020 IEM_DS3505
ZBAA,2004-11-06 00:00,ZBAA 060000Z AUTO 07004KT 7SM 03/M03 A3009 RMK SLP191 T00291026 52001 IEM_DS3505
ZBAA,2004-11-06 01:00,ZBAA 060100Z AUTO 11004KT 4SM 04/M01 A3012 RMK T00401010 IEM_DS3505
ZBAA,2004-11-06 02:00,ZBAA 060200Z AUTO 11004KT 06/M01 A3009 RMK T00601010 IEM_DS3505
ZBAA,2004-11-06 03:00,ZBAA 060300Z AUTO 09004KT 7SM 08/M02 A3006 RMK SLP179 T00751025 57011 IEM_DS3505
ZBAA,2004-11-06 04:00,ZBAA 060400Z AUTO 5SM 09/M01 A3003 RMK T00901010 IEM_DS3505
ZBAA,2004-11-06 05:00,ZBAA 060500Z AUTO 5SM 10/M01 A3000 RMK T01001010 IEM_DS3505
ZBAA,2004-11-06 06:00,ZBAA 060600Z AUTO 07002KT 7SM 11/M02 A2997 RMK SLP148 T01061017 57031 IEM_DS3505
ZBAA,2004-11-06 07:00,ZBAA 060700Z AUTO 12/01 A2997 RMK T01200010 IEM_DS3505
ZBAA,2004-11-06 08:00,ZBAA 060800Z AUTO 00000KT 3SM 11/01 A2997 RMK T01100010 IEM_DS3505
ZBAA,2004-11-06 09:00,ZBAA 060900Z AUTO 36002KT 7SM 10/M00 A2997 RMK SLP146 T00991003 57002 IEM_DS3505
ZBAA,2004-11-06 10:00,ZBAA 061000Z AUTO 33004KT 3SM 07/01 A3000 RMK T00700010 IEM_DS3505
ZBAA,2004-11-06 11:00,ZBAA 061100Z AUTO 34004KT 3SM 08/01 A3000 RMK T00800010 IEM_DS3505
ZBAA,2004-11-06 12:00,ZBAA 061200Z AUTO 02002KT 9SM 07/M00 A3000 RMK SLP160 T00701004 52014 IEM_DS3505
ZBAA,2004-11-06 13:00,ZBAA 061300Z AUTO 35004KT 2 1/2SM 07/01 A3003 RMK T00700010 IEM_DS3505
ZBAA,2004-11-06 14:00,ZBAA 061400Z AUTO 31004KT 2 1/2SM 05/01 A3003 RMK T00500010 IEM_DS3505
ZBAA,2004-11-06 15:00,ZBAA 061500Z AUTO 04002KT 7SM 06/M00 A3003 RMK SLP163 T00551001 52003 IEM_DS3505
ZBAA,2004-11-06 16:00,ZBAA 061600Z AUTO 32006KT 2 1/2SM 06/01 A3000 RMK T00600010 IEM_DS3505
ZBAA,2004-11-06 17:00,ZBAA 061700Z AUTO 33004KT 2 1/2SM 06/02 A3000 RMK T00600020 IEM_DS3505
ZBAA,2004-11-06 18:00,ZBAA 061800Z AUTO 04002KT 5SM 06/00 A3000 RMK SLP158 T00590001 57005 IEM_DS3505
ZBAA,2004-11-06 19:00,ZBAA 061900Z AUTO 35006KT 2 1/2SM 06/02 A3000 RMK T00600020 IEM_DS3505
ZBAA,2004-11-06 20:00,ZBAA 062000Z AUTO 34004KT 2 1/2SM 06/03 A2997 RMK T00600030 IEM_DS3505
ZBAA,2004-11-06 21:00,ZBAA 062100Z AUTO 04004KT 7SM 08/01 A3000 RMK SLP152 T00780006 57006 IEM_DS3505
ZBAA,2004-11-06 22:00,ZBAA 062200Z AUTO 34004KT 2 1/2SM 05/02 A3000 RMK T00500020 IEM_DS3505
ZBAA,2004-11-06 23:00,ZBAA 062300Z AUTO 35004KT 2 1/2SM 05/02 A3000 RMK T00500020 IEM_DS3505
ZBAA,2004-11-07 00:00,ZBAA 070000Z AUTO 02004KT 5SM 07/02 A3000 RMK SLP160 T00740023 52008 IEM_DS3505
ZBAA,2004-11-07 01:00,ZBAA 070100Z AUTO 35006KT 2SM 07/03 A3003 RMK T00700030 IEM_DS3505
ZBAA,2004-11-07 02:00,ZBAA 070200Z AUTO 36002KT 2 1/2SM 09/04 A3003 RMK T00900040 IEM_DS3505
ZBAA,2004-11-07 03:00,ZBAA 070300Z AUTO 04006KT 4SM 11/05 A3000 RMK SLP158 T01130048 57002 IEM_DS3505
ZBAA,2004-11-07 04:00,ZBAA 070400Z AUTO 36004KT 2 1/2SM 12/05 A2997 RMK T01200050 IEM_DS3505
ZBAA,2004-11-07 05:00,ZBAA 070500Z AUTO 01002KT 2 1/2SM 14/06 A2994 RMK T01400060 IEM_DS3505
ZBAA,2004-11-07 06:00,ZBAA 070600Z AUTO 04004KT 4SM 14/05 RMK SLP134 T01350049 57024 IEM_DS3505
ZBAA,2004-11-07 07:00,ZBAA 070700Z AUTO 00000KT 2 1/2SM 14/07 A2991 RMK T01400070 IEM_DS3505
ZBAA,2004-11-07 08:00,ZBAA 070800Z AUTO 00000KT 2 1/2SM 14/07 A2994 RMK T01400070 IEM_DS3505
ZBAA,2004-11-07 09:00,ZBAA 070900Z AUTO 07002KT 4SM 12/06 RMK SLP140 T01160059 52006 IEM_DS3505
ZBAA,2004-11-07 10:00,ZBAA 071000Z AUTO 00000KT 2SM 11/06 A2997 RMK T01100060 IEM_DS3505
ZBAA,2004-11-07 11:00,ZBAA 071100Z AUTO 00000KT 1 1/4SM 09/07 A3000 RMK T00900070 IEM_DS3505
ZBAA,2004-11-07 12:00,ZBAA 071200Z AUTO 27002KT 3SM 08/06 A3000 RMK SLP162 T00780056 52022 IEM_DS3505
ZBAA,2004-11-07 13:00,ZBAA 071300Z AUTO 33004KT 1SM 10/07 A3003 RMK T01000070 IEM_DS3505
ZBAA,2004-11-07 14:00,ZBAA 071400Z AUTO 34004KT 1SM 07/06 A3006 RMK T00700060 IEM_DS3505
ZBAA,2004-11-07 15:00,ZBAA 071500Z AUTO 34002KT 2 1/2SM 07/05 A3006 RMK SLP176 T00670047 52014 IEM_DS3505
ZBAA,2004-11-07 16:00,ZBAA 071600Z AUTO 34004KT 1SM 07/06 A3006 RMK T00700060 IEM_DS3505
ZBAA,2004-11-07 17:00,ZBAA 071700Z AUTO 33006KT 1SM 07/05 A3006 RMK T00700050 IEM_DS3505
ZBAA,2004-11-07 18:00,ZBAA 071800Z AUTO 34004KT 2 1/2SM 06/04 A3009 RMK SLP186 T00570045 52010 IEM_DS3505
ZBAA,2004-11-07 19:00,ZBAA 071900Z AUTO 34006KT 1SM 05/04 A3009 RMK T00500040 IEM_DS3505
ZBAA,2004-11-07 20:00,ZBAA 072000Z AUTO 34006KT 1 1/4SM 05/04 A3012 RMK T00500040 IEM_DS3505
ZBAA,2004-11-07 21:00,ZBAA 072100Z AUTO 00000KT 2SM 04/03 A3012 RMK SLP199 T00430033 52013 IEM_DS3505
ZBAA,2004-11-07 22:00,ZBAA 072200Z AUTO 34006KT 1 1/2SM 03/03 A3012 RMK T00300030 IEM_DS3505
ZBAA,2004-11-07 23:00,ZBAA 072300Z AUTO 34002KT 2SM 04/03 A3015 RMK T00400030 IEM_DS3505
ZBAA,2004-11-08 00:00,ZBAA 080000Z AUTO 36002KT 2SM 06/04 A3018 RMK SLP211 T00580036 52012 IEM_DS3505
ZBAA,2004-11-08 01:00,ZBAA 080100Z AUTO 35006KT 2 1/2SM 09/05 A3018 RMK T00900050 IEM_DS3505
ZBAA,2004-11-08 02:00,ZBAA 080200Z AUTO 36006KT 13/03 A3018 RMK T01300030 IEM_DS3505
ZBAA,2004-11-08 03:00,ZBAA 080300Z AUTO 02004KT 7SM 15/01 A3018 RMK SLP215 T01480007 52004 IEM_DS3505
ZBAA,2004-11-08 04:00,ZBAA 080400Z AUTO 5SM 17/01 A3015 RMK T01700010 IEM_DS3505
ZBAA,2004-11-08 05:00,ZBAA 080500Z AUTO 13004KT 5SM 18/00 A3012 RMK T01800000 IEM_DS3505
ZBAA,2004-11-08 06:00,ZBAA 080600Z AUTO 14004KT 9SM 18/02 A3012 RMK SLP196 T01760020 57019 IEM_DS3505
ZBAA,2004-11-08 07:00,ZBAA 080700Z AUTO 15006KT 17/04 A3012 RMK T01700040 IEM_DS3505
ZBAA,2004-11-08 08:00,ZBAA 080800Z AUTO 15004KT 3SM 16/05 A3012 RMK T01600050 IEM_DS3505
ZBAA,2004-11-08 09:00,ZBAA 080900Z AUTO 11006KT 7SM 15/06 A3012 RMK SLP196 T01470063 54000 IEM_DS3505
ZBAA,2004-11-08 10:00,ZBAA 081000Z AUTO 15004KT 2 1/2SM 11/07 A3012 RMK T01100070 IEM_DS3505
ZBAA,2004-11-08 11:00,ZBAA 081100Z AUTO 15006KT 4SM 12/07 A3015 RMK T01200070 IEM_DS3505
ZBAA,2004-11-08 12:00,ZBAA 081200Z AUTO 14002KT 6SM 12/03 A3015 RMK SLP211 T01190034 52015 IEM_DS3505
ZBAA,2004-11-08 13:00,ZBAA 081300Z AUTO 16004KT 4SM 10/06 A3018 RMK T01000060 IEM_DS3505
ZBAA,2004-11-08 14:00,ZBAA 081400Z AUTO 12002KT 4SM 09/06 A3018 RMK T00900060 IEM_DS3505
ZBAA,2004-11-08 15:00,ZBAA 081500Z AUTO 09004KT 5SM 10/05 A3018 RMK SLP220 T01000048 52009 IEM_DS3505
ZBAA,2004-11-08 16:00,ZBAA 081600Z AUTO 3SM 08/06 A3021 RMK T00800060 IEM_DS3505
ZBAA,2004-11-08 17:00,ZBAA 081700Z AUTO 35004KT 3SM 08/06 A3018 RMK T00800060 IEM_DS3505
ZBAA,2004-11-08 18:00,ZBAA 081800Z AUTO 02002KT 4SM 08/05 A3018 RMK SLP213 T00820050 57007 IEM_DS3505
ZBAA,2004-11-08 19:00,ZBAA 081900Z AUTO 09002KT 3SM 07/06 A3015 RMK T00700060 IEM_DS3505
ZBAA,2004-11-08 20:00,ZBAA 082000Z AUTO 03002KT 2 1/2SM 07/07 A3012 RMK T00700070 IEM_DS3505
ZBAA,2004-11-08 21:00,ZBAA 082100Z AUTO 04004KT 5SM 10/05 A3012 RMK SLP191 T00970047 57022 IEM_DS3505
ZBAA,2004-11-08 22:00,ZBAA 082200Z AUTO 35004KT 2 1/2SM 07/06 A3009 RMK T00700060 IEM_DS3505
ZBAA,2004-11-08 23:00,ZBAA 082300Z AUTO 35004KT 2SM 08/07 A3012 RMK T00800070 IEM_DS3505
ZBAA,2004-11-09 00:00,ZBAA 090000Z AUTO 29002KT 6SM 10/06 A3012 RMK 70000 SLP203 T00970055 52012 IEM_DS3505
ZBAA,2004-11-09 01:00,ZBAA 090100Z AUTO 27006KT 1 1/4SM 08/08 A3018 RMK T00800080 IEM_DS3505
ZBAA,2004-11-09 02:00,ZBAA 090200Z AUTO 33008KT 2 1/2SM 08/07 A3012 RMK T00800070 IEM_DS3505
ZBAA,2004-11-09 03:00,ZBAA 090300Z AUTO 04004KT 6SM 09/07 A3012 RMK SLP196 T00880068 57007 IEM_DS3505
ZBAA,2004-11-09 04:00,ZBAA 090400Z AUTO 01006KT 2 1/2SM 08/08 A3009 RMK T00800080 IEM_DS3505
ZBAA,2004-11-09 05:00,ZBAA 090500Z AUTO 34006KT 2 1/2SM 09/09 A3006 RMK T00900090 IEM_DS3505
ZBAA,2004-11-09 06:00,ZBAA 090600Z AUTO 02002KT 6SM 10/08 A3006 RMK 60031 SLP174 T00990075 57022 IEM_DS3505
ZBAA,2004-11-09 07:00,ZBAA 090700Z AUTO 35006KT 2 1/2SM 09/09 A3003 RMK T00900090 IEM_DS3505
ZBAA,2004-11-09 07:30,ZBAA 090730Z AUTO 35006KT 2 1/2SM 09/09 A3003 RMK T00900090 IEM_DS3505
ZBAA,2004-11-09 08:00,ZBAA 090800Z AUTO 34006KT 2SM 10/09 A3003 RMK T01000090 IEM_DS3505
ZBAA,2004-11-09 09:00,ZBAA 090900Z AUTO 02004KT 7SM 11/08 A3003 RMK SLP168 T01060080 57006 IEM_DS3505
ZBAA,2004-11-09 10:00,ZBAA 091000Z AUTO 33004KT 2 1/2SM 10/09 A3003 RMK T01000090 IEM_DS3505
ZBAA,2004-11-09 11:00,ZBAA 091100Z AUTO 32008KT 2 1/2SM 10/09 A3006 RMK T01000090 IEM_DS3505
ZBAA,2004-11-09 12:00,ZBAA 091200Z AUTO 36002KT 5SM 10/10 A3006 RMK 60001 SLP180 T01050096 52012 IEM_DS3505
ZBAA,2004-11-09 13:00,ZBAA 091300Z AUTO 35004KT 2 1/2SM 10/09 A3006 RMK T01000090 IEM_DS3505
ZBAA,2004-11-09 14:00,ZBAA 091400Z AUTO 33010KT 2 1/2SM 11/09 A3009 RMK T01100090 IEM_DS3505
ZBAA,2004-11-09 15:00,ZBAA 091500Z AUTO 04002KT 6SM 10/10 A3009 RMK T01000100 IEM_DS3505
ZBAA,2004-11-09 16:00,ZBAA 091600Z AUTO 32017KT 6SM 12/08 A3009 RMK T01200080 IEM_DS3505
ZBAA,2004-11-09 17:00,ZBAA 091700Z AUTO 31016KT 6SM 12/07 A3009 RMK T01200070 IEM_DS3505
ZBAA,2004-11-09 18:00,ZBAA 091800Z AUTO 36008KT 12SM 12/03 A3009 RMK SLP186 T01250032 52006 IEM_DS3505
ZBAA,2004-11-09 19:00,ZBAA 091900Z AUTO 31019KT 6SM 11/05 A3009 RMK T01100050 IEM_DS3505
ZBAA,2004-11-09 20:00,ZBAA 092000Z AUTO 31021G31KT 6SM 11/02 A3012 RMK T01100020 IEM_DS3505
ZBAA,2004-11-09 21:00,ZBAA 092100Z AUTO 36012G31KT 19SM 10/M06 A3015 RMK 70031 SLP198 T01051063 52012 IEM_DS3505
ZBAA,2004-11-09 22:00,ZBAA 092200Z AUTO 31019KT 6SM 09/M08 A3015 RMK T00901080 IEM_DS3505
ZBAA,2004-11-09 23:00,ZBAA 092300Z AUTO 32021G39KT 6SM 08/M14 A3018 RMK T00801140 IEM_DS3505
ZBAA,2004-11-10 00:00,ZBAA 100000Z AUTO 02010G27KT 19SM 08/M12 A3021 RMK 70031 SLP227 T00801118 52029 IEM_DS3505
ZBAA,2004-11-10 01:00,ZBAA 100100Z AUTO 32017G27KT 6SM 09/M13 A3024 RMK T00901130 IEM_DS3505
ZBAA,2004-11-10 02:00,ZBAA 100200Z AUTO 31017G31KT 6SM 10/M14 A3024 RMK T01001140 IEM_DS3505
ZBAA,2004-11-10 03:00,ZBAA 100300Z AUTO 36016G29KT 19SM 08/M14 A3024 RMK SLP235 T00851137 52008 IEM_DS3505
ZBAA,2004-11-10 04:00,ZBAA 100400Z AUTO 31023KT 6SM 11/M14 A3021 RMK T01101140 IEM_DS3505
ZBAA,2004-11-10 05:00,ZBAA 100500Z AUTO 32017KT 6SM 11/M14 A3021 RMK T01101140 IEM_DS3505
ZBAA,2004-11-10 06:00,ZBAA 100600Z AUTO 34012KT 16SM 10/M12 A3018 RMK SLP221 T00991125 57014 IEM_DS3505
ZBAA,2004-11-10 07:00,ZBAA 100700Z AUTO 31021KT 6SM 11/M14 A3021 RMK T01101140 IEM_DS3505
ZBAA,2004-11-10 08:00,ZBAA 100800Z AUTO 31016KT 6SM 10/M11 A3021 RMK T01001110 IEM_DS3505
ZBAA,2004-11-10 09:00,ZBAA 100900Z AUTO 34012KT 16SM 09/M14 A3021 RMK SLP226 T00941143 52005 IEM_DS3505
ZBAA,2004-11-10 10:00,ZBAA 101000Z AUTO 33012KT 6SM 08/M12 A3024 RMK T00801120 IEM_DS3505
ZBAA,2004-11-10 11:00,ZBAA 101100Z AUTO 32010KT 6SM 07/M12 A3027 RMK T00701120 IEM_DS3505
ZBAA,2004-11-10 12:00,ZBAA 101200Z AUTO 36006KT 19SM 07/M15 A3030 RMK SLP248 T00731153 52022 IEM_DS3505
ZBAA,2004-11-10 13:00,ZBAA 101300Z AUTO 32008KT 6SM 05/M11 A3030 RMK T00501110 IEM_DS3505
ZBAA,2004-11-10 14:00,ZBAA 101400Z AUTO 33008KT 6SM 04/M11 A3033 RMK T00401110 IEM_DS3505
ZBAA,2004-11-10 15:00,ZBAA 101500Z AUTO 36006KT 19SM 06/M14 A3033 RMK SLP267 T00561143 52018 IEM_DS3505
ZBAA,2004-11-10 16:00,ZBAA 101600Z AUTO 34006KT 6SM 02/M10 A3033 RMK T00201100 IEM_DS3505
ZBAA,2004-11-10 17:00,ZBAA 101700Z AUTO 36006KT 6SM 00/M10 A3033 RMK T00001100 IEM_DS3505
ZBAA,2004-11-10 18:00,ZBAA 101800Z AUTO 02004KT 19SM 04/M14 A3030 RMK SLP253 T00361140 57014 IEM_DS3505
ZBAA,2004-11-10 19:00,ZBAA 101900Z AUTO 35008KT 6SM M01/M09 A3033 RMK T10101090 IEM_DS3505
ZBAA,2004-11-10 20:00,ZBAA 102000Z AUTO 35008KT 6SM 02/M10 A3030 RMK T00201100 IEM_DS3505
ZBAA,2004-11-10 21:00,ZBAA 102100Z AUTO 02010KT 19SM 04/M14 A3030 RMK SLP251 T00351141 57002 IEM_DS3505
ZBAA,2004-11-10 22:00,ZBAA 102200Z AUTO 01008KT 6SM 03/M10 A3027 RMK T00301100 IEM_DS3505
ZBAA,2004-11-10 23:00,ZBAA 102300Z AUTO 01008KT 6SM 02/M11 A3030 RMK T00201110 IEM_DS3505
ZBAA,2004-11-11 00:00,ZBAA 110000Z AUTO 02008KT 19SM 04/M14 A3033 RMK SLP268 T00391142 52017 IEM_DS3505
ZBAA,2004-11-11 01:00,ZBAA 110100Z AUTO 36008KT 6SM 04/M11 A3036 RMK T00401110 IEM_DS3505
ZBAA,2004-11-11 02:00,ZBAA 110200Z AUTO 35008KT 6SM 04/M10 A3036 RMK T00401100 IEM_DS3505
ZBAA,2004-11-11 03:00,ZBAA 110300Z AUTO 04008KT 19SM 06/M14 A3036 RMK SLP275 T00551144 52007 IEM_DS3505
ZBAA,2004-11-11 04:00,ZBAA 110400Z AUTO 04004KT 6SM 08/M10 A3030 RMK T00801100 IEM_DS3505
ZBAA,2004-11-11 05:00,ZBAA 110500Z AUTO 6SM 08/M10 A3030 RMK T00801100 IEM_DS3505
ZBAA,2004-11-11 06:00,ZBAA 110600Z AUTO 18002KT 19SM 07/M11 A3027 RMK SLP253 T00741109 57022 IEM_DS3505
ZBAA,2004-11-11 07:00,ZBAA 110700Z AUTO 34008G21KT 6SM 08/M11 A3030 RMK T00801110 IEM_DS3505
ZBAA,2004-11-11 08:00,ZBAA 110800Z AUTO 31012KT 6SM 06/M05 A3033 RMK T00601050 IEM_DS3505
ZBAA,2004-11-11 09:00,ZBAA 110900Z AUTO 32010KT 19SM 06/M09 A3036 RMK SLP275 T00641091 52022 IEM_DS3505
ZBAA,2004-11-11 10:00,ZBAA 111000Z AUTO 30012KT 6SM 04/M08 A3042 RMK T00401080 IEM_DS3505
ZBAA,2004-11-11 11:00,ZBAA 111100Z AUTO 32012KT 6SM 04/M12 A3045 RMK T00401120 IEM_DS3505
ZBAA,2004-11-11 12:00,ZBAA 111200Z AUTO 36006KT 19SM 04/M14 A3047 RMK SLP323 T00361140 52044 IEM_DS3505
ZBAA,2004-11-11 13:00,ZBAA 111300Z AUTO 31016KT 6SM 02/M14 A3053 RMK T00201140 IEM_DS3505
ZBAA,2004-11-11 14:00,ZBAA 111400Z AUTO 31014KT 6SM 01/M14 A3053 RMK T00101140 IEM_DS3505
ZBAA,2004-11-11 15:00,ZBAA 111500Z AUTO 34006KT 12SM 02/M15 A3053 RMK SLP341 T00161149 52018 IEM_DS3505
ZBAA,2004-11-11 16:00,ZBAA 111600Z AUTO 29006KT 6SM 00/M13 A3053 RMK T00001130 IEM_DS3505
ZBAA,2004-11-11 17:00,ZBAA 111700Z AUTO 29008KT 6SM 00/M13 A3053 RMK T00001130 IEM_DS3505
ZBAA,2004-11-11 18:00,ZBAA 111800Z AUTO 00000KT 19SM 00/M14 A3056 RMK SLP345 T00021141 52004 IEM_DS3505
ZBAA,2004-11-11 19:00,ZBAA 111900Z AUTO 32010KT 6SM M01/M13 A3056 RMK T10101130 IEM_DS3505
ZBAA,2004-11-11 20:00,ZBAA 112000Z AUTO 29006KT 6SM M01/M13 A3056 RMK T10101130 IEM_DS3505
ZBAA,2004-11-11 21:00,ZBAA 112100Z AUTO 02004KT 19SM 00/M14 A3056 RMK SLP344 T00031144 57002 IEM_DS3505
ZBAA,2004-11-11 22:00,ZBAA 112200Z AUTO 33008KT 6SM M03/M12 A3056 RMK T10301120 IEM_DS3505
ZBAA,2004-11-11 23:00,ZBAA 112300Z AUTO 03004KT 6SM M02/M11 A3056 RMK T10201110 IEM_DS3505
ZBAA,2004-11-12 00:00,ZBAA 120000Z AUTO 36002KT 16SM 00/M12 A3056 RMK SLP353 T00041125 52009 IEM_DS3505
ZBAA,2004-11-12 01:00,ZBAA 120100Z AUTO 03002KT 6SM 02/M12 A3056 RMK T00201120 IEM_DS3505
ZBAA,2004-11-12 02:00,ZBAA 120200Z AUTO 03004KT 6SM 03/M13 A3056 RMK T00301130 IEM_DS3505
ZBAA,2004-11-12 03:00,ZBAA 120300Z AUTO 25006KT 19SM 04/M15 A3056 RMK SLP347 T00431154 57006 IEM_DS3505
ZBAA,2004-11-12 04:00,ZBAA 120400Z AUTO 20006KT 6SM 05/M14 A3050 RMK T00501140 IEM_DS3505
ZBAA,2004-11-12 05:00,ZBAA 120500Z AUTO 18006KT 6SM 06/M13 A3047 RMK T00601130 IEM_DS3505
ZBAA,2004-11-12 06:00,ZBAA 120600Z AUTO 22008KT 19SM 06/M12 A3045 RMK SLP308 T00571118 57038 IEM_DS3505
ZBAA,2004-11-12 07:00,ZBAA 120700Z AUTO 17008KT 6SM 06/M13 A3042 RMK T00601130 IEM_DS3505
ZBAA,2004-11-12 08:00,ZBAA 120800Z AUTO 18008KT 6SM 05/M11 A3042 RMK T00501110 IEM_DS3505
ZBAA,2004-11-12 09:00,ZBAA 120900Z AUTO 22006KT 19SM 04/M10 A3042 RMK SLP295 T00451099 57013 IEM_DS3505
ZBAA,2004-11-12 10:00,ZBAA 121000Z AUTO 18006KT 6SM 03/M09 A3042 RMK T00301090 IEM_DS3505
ZBAA,2004-11-12 11:00,ZBAA 121100Z AUTO 19006KT 6SM 04/M08 A3042 RMK T00401080 IEM_DS3505
ZBAA,2004-11-12 12:00,ZBAA 121200Z AUTO 20006KT 16SM 03/M08 A3042 RMK SLP302 T00331083 52006 IEM_DS3505
ZBAA,2004-11-12 13:00,ZBAA 121300Z AUTO 17006G16KT 6SM 03/M08 A3042 RMK T00301080 IEM_DS3505
ZBAA,2004-11-12 14:00,ZBAA 121400Z AUTO 17004KT 6SM 02/M06 A3042 RMK T00201060 IEM_DS3505
ZBAA,2004-11-12 15:00,ZBAA 121500Z AUTO 20004KT 12SM 02/M08 A3042 RMK SLP297 T00251076 57004 IEM_DS3505
ZBAA,2004-11-12 16:00,ZBAA 121600Z AUTO 14004KT 6SM 01/M05 A3039 RMK T00101050 IEM_DS3505
ZBAA,2004-11-12 17:00,ZBAA 121700Z AUTO 15004KT 01/M05 A3039 RMK T00101050 IEM_DS3505
ZBAA,2004-11-12 18:00,ZBAA 121800Z AUTO 18002KT 9SM 01/M07 A3036 RMK SLP278 T00131074 57019 IEM_DS3505
ZBAA,2004-11-12 19:00,ZBAA 121900Z AUTO 11002KT 4SM 00/M05 A3036 RMK T00001050 IEM_DS3505
ZBAA,2004-11-12 20:00,ZBAA 122000Z AUTO 14002KT 4SM A3033 RMK IEM_DS3505
ZBAA,2004-11-12 21:00,ZBAA 122100Z AUTO 20002KT 7SM M01/M07 A3030 RMK SLP263 T10101069 57015 IEM_DS3505
ZBAA,2004-11-12 22:00,ZBAA 122200Z AUTO 05002KT 4SM A3030 RMK IEM_DS3505
ZBAA,2004-11-12 23:00,ZBAA 122300Z AUTO 00000KT 2 1/2SM A3030 RMK IEM_DS3505
ZBAA,2004-11-13 00:00,ZBAA 130000Z AUTO 00000KT 6SM M00/M05 A3033 RMK SLP265 T10041052 52002 IEM_DS3505
ZBAA,2004-11-13 01:00,ZBAA 130100Z AUTO 10002KT 2 1/2SM 01/M03 A3033 RMK T00101030 IEM_DS3505
ZBAA,2004-11-13 02:00,ZBAA 130200Z AUTO 2 1/2SM 03/M03 A3030 RMK T00301030 IEM_DS3505
ZBAA,2004-11-13 03:00,ZBAA 130300Z AUTO 16004KT 6SM 06/M07 A3030 RMK SLP257 T00581074 57008 IEM_DS3505
ZBAA,2004-11-13 04:00,ZBAA 130400Z AUTO 3SM 06/M05 A3027 RMK T00601050 IEM_DS3505
ZBAA,2004-11-13 05:00,ZBAA 130500Z AUTO 3SM 08/M05 A3024 RMK T00801050 IEM_DS3505
ZBAA,2004-11-13 06:00,ZBAA 130600Z AUTO 20006KT 6SM 08/M07 A3021 RMK SLP226 T00811071 57031 IEM_DS3505
ZBAA,2004-11-13 07:00,ZBAA 130700Z AUTO 3SM 08/M04 A3018 RMK T00801040 IEM_DS3505
ZBAA,2004-11-13 08:00,ZBAA 130800Z AUTO 13004KT 2 1/2SM 07/M04 A3018 RMK T00701040 IEM_DS3505
ZBAA,2004-11-13 09:00,ZBAA 130900Z AUTO 20004KT 9SM 06/M04 A3021 RMK SLP228 T00651045 52002 IEM_DS3505
ZBAA,2004-11-13 10:00,ZBAA 131000Z AUTO 14004KT 2 1/2SM 04/M02 A3021 RMK T00401020 IEM_DS3505
ZBAA,2004-11-13 11:00,ZBAA 131100Z AUTO 12004KT 2SM 04/M01 A3024 RMK T00401010 IEM_DS3505
ZBAA,2004-11-13 12:00,ZBAA 131200Z AUTO 22002KT 4SM 03/00 A3024 RMK SLP236 T00310000 52008 IEM_DS3505
ZBAA,2004-11-13 13:00,ZBAA 131300Z AUTO 12002KT 1 1/2SM 02/M01 A3024 RMK T00201010 IEM_DS3505
ZBAA,2004-11-13 14:00,ZBAA 131400Z AUTO 00000KT 1 1/4SM 01/M01 A3024 RMK T00101010 IEM_DS3505
ZBAA,2004-11-13 15:00,ZBAA 131500Z AUTO 22004KT 2 1/2SM 02/00 A3021 RMK SLP233 T00190003 57003 IEM_DS3505
ZBAA,2004-11-13 16:00,ZBAA 131600Z AUTO 15002KT 1SM 00/M02 A3024 RMK T00001020 IEM_DS3505
ZBAA,2004-11-13 17:00,ZBAA 131700Z AUTO 00000KT 1SM A3024 RMK IEM_DS3505
ZBAA,2004-11-13 18:00,ZBAA 131800Z AUTO 00000KT 2SM 00/M00 A3024 RMK SLP233 T00051005 54000 IEM_DS3505
ZBAA,2004-11-13 19:00,ZBAA 131900Z AUTO 1SM A3021 RMK IEM_DS3505
ZBAA,2004-11-13 20:00,ZBAA 132000Z AUTO 03002KT 1SM A3018 RMK IEM_DS3505
ZBAA,2004-11-13 21:00,ZBAA 132100Z AUTO 20004KT 1 1/4SM M00/M01 A3018 RMK SLP218 T10041012 57015 IEM_DS3505
ZBAA,2004-11-13 22:00,ZBAA 132200Z AUTO 27004KT 1SM A3018 RMK IEM_DS3505
ZBAA,2004-11-13 23:00,ZBAA 132300Z AUTO 35002KT 1SM A3018 RMK IEM_DS3505
ZBAA,2004-11-14 00:00,ZBAA 140000Z AUTO 25002KT 1/2SM M01/M01 A3021 RMK SLP226 T10071010 52008 IEM_DS3505
ZBAA,2004-11-14 01:00,ZBAA 140100Z AUTO 30004KT 1SM 02/M01 A3021 RMK T00201010 IEM_DS3505
ZBAA,2004-11-14 01:30,ZBAA 140130Z AUTO 1 1/4SM 04/01 A3021 RMK T00400010 IEM_DS3505
ZBAA,2004-11-14 02:00,ZBAA 140200Z AUTO 28008KT 2 1/2SM 08/M04 A3021 RMK T00801040 IEM_DS3505
ZBAA,2004-11-14 03:00,ZBAA 140300Z AUTO 32012KT 12SM 12/M14 A3021 RMK SLP224 T01181139 57001 IEM_DS3505
ZBAA,2004-11-14 04:00,ZBAA 140400Z AUTO 29016G25KT 6SM 12/M11 A3018 RMK T01201110 IEM_DS3505
ZBAA,2004-11-14 05:00,ZBAA 140500Z AUTO 28016KT 6SM 12/M11 A3018 RMK T01201110 IEM_DS3505
ZBAA,2004-11-14 06:00,ZBAA 140600Z AUTO 32017G27KT 19SM 11/M15 A3018 RMK SLP225 T01121152 54000 IEM_DS3505
ZBAA,2004-11-14 07:00,ZBAA 140700Z AUTO 32014KT 6SM 12/M14 A3018 RMK T01201140 IEM_DS3505
ZBAA,2004-11-14 08:00,ZBAA 140800Z AUTO 31014G23KT 6SM 11/M13 A3021 RMK T01101130 IEM_DS3505
ZBAA,2004-11-14 09:00,ZBAA 140900Z AUTO 32012KT 19SM 09/M18 A3024 RMK SLP239 T00941175 52014 IEM_DS3505
ZBAA,2004-11-14 10:00,ZBAA 141000Z AUTO 30010KT 6SM 08/M11 A3027 RMK T00801110 IEM_DS3505
ZBAA,2004-11-14 11:00,ZBAA 141100Z AUTO 30008KT 6SM 07/M12 A3030 RMK T00701120 IEM_DS3505
ZBAA,2004-11-14 12:00,ZBAA 141200Z AUTO 32014KT 19SM 08/M16 A3033 RMK SLP263 T00801162 52024 IEM_DS3505
ZBAA,2004-11-14 13:00,ZBAA 141300Z AUTO 33006KT 6SM 05/M12 A3033 RMK T00501120 IEM_DS3505
ZBAA,2004-11-14 14:00,ZBAA 141400Z AUTO 00000KT 6SM 03/M10 A3033 RMK T00301100 IEM_DS3505
ZBAA,2004-11-14 15:00,ZBAA 141500Z AUTO 34008KT 19SM 07/M17 A3033 RMK SLP273 T00731167 52011 IEM_DS3505
ZBAA,2004-11-14 16:00,ZBAA 141600Z AUTO 26004KT 6SM 03/M11 A3036 RMK T00301110 IEM_DS3505
ZBAA,2004-11-14 17:00,ZBAA 141700Z AUTO 28008KT 6SM 03/M12 A3033 RMK T00301120 IEM_DS3505
ZBAA,2004-11-14 18:00,ZBAA 141800Z AUTO 27002KT 19SM 05/M14 A3033 RMK SLP272 T00491144 57001 IEM_DS3505
ZBAA,2004-11-14 19:00,ZBAA 141900Z AUTO 30008KT 6SM 04/M12 A3033 RMK T00401120 IEM_DS3505
ZBAA,2004-11-14 20:00,ZBAA 142000Z AUTO 19006KT 6SM 02/M12 A3033 RMK T00201120 IEM_DS3505
ZBAA,2004-11-14 21:00,ZBAA 142100Z AUTO 22002KT 12SM 02/M11 A3033 RMK SLP264 T00161114 57009 IEM_DS3505
ZBAA,2004-11-14 22:00,ZBAA 142200Z AUTO 25004KT 6SM 04/M13 A3030 RMK T00401130 IEM_DS3505
ZBAA,2004-11-14 23:00,ZBAA 142300Z AUTO 22006KT 6SM 05/M13 A3030 RMK T00501130 IEM_DS3505
ZBAA,2004-11-15 00:00,ZBAA 150000Z AUTO 25006KT 9SM 03/M11 A3030 RMK SLP268 T00301109 52004 IEM_DS3505
ZBAA,2004-11-15 01:00,ZBAA 150100Z AUTO 21006KT 6SM 06/M11 A3033 RMK T00601110 IEM_DS3505
ZBAA,2004-11-15 02:00,ZBAA 150200Z AUTO 23006KT 6SM 06/M09 A3030 RMK T00601090 IEM_DS3505
ZBAA,2004-11-15 03:00,ZBAA 150300Z AUTO 22006KT 12SM 07/M08 A3027 RMK SLP251 T00661081 57017 IEM_DS3505
ZBAA,2004-11-15 04:00,ZBAA 150400Z AUTO 27008G17KT 6SM 12/M11 A3024 RMK T01201110 IEM_DS3505
ZBAA,2004-11-15 05:00,ZBAA 150500Z AUTO 27008KT 6SM 13/M12 A3018 RMK T01301120 IEM_DS3505
ZBAA,2004-11-15 06:00,ZBAA 150600Z AUTO 25012KT 9SM 12/M12 A3015 RMK SLP217 T01241119 57033 IEM_DS3505
ZBAA,2004-11-15 07:00,ZBAA 150700Z AUTO 27016KT 6SM 13/M12 A3015 RMK T01301120 IEM_DS3505
ZBAA,2004-11-15 08:00,ZBAA 150800Z AUTO 21008KT 6SM 12/M09 A3015 RMK T01201090 IEM_DS3505
ZBAA,2004-11-15 09:00,ZBAA 150900Z AUTO 25004KT 9SM 10/M10 A3015 RMK SLP213 T01041103 57005 IEM_DS3505
ZBAA,2004-11-15 10:00,ZBAA 151000Z AUTO 24006KT 6SM 08/M08 A3018 RMK T00801080 IEM_DS3505
ZBAA,2004-11-15 11:00,ZBAA 151100Z AUTO 25004KT 6SM 08/M08 A3018 RMK T00801080 IEM_DS3505
ZBAA,2004-11-15 12:00,ZBAA 151200Z AUTO 25004KT 7SM 07/M07 A3018 RMK SLP224 T00661073 52011 IEM_DS3505
ZBAA,2004-11-15 13:00,ZBAA 151300Z AUTO 6SM 08/M06 A3018 RMK T00801060 IEM_DS3505
ZBAA,2004-11-15 14:00,ZBAA 151400Z AUTO 36002KT 6SM 05/M05 A3018 RMK T00501050 IEM_DS3505
ZBAA,2004-11-15 15:00,ZBAA 151500Z AUTO 27004KT 6SM 06/M07 A3021 RMK SLP228 T00551067 52004 IEM_DS3505
ZBAA,2004-11-15 16:00,ZBAA 151600Z AUTO 31002KT 6SM 05/M07 A3021 RMK T00501070 IEM_DS3505
ZBAA,2004-11-15 17:00,ZBAA 151700Z AUTO 27006KT 6SM 04/M07 A3021 RMK T00401070 IEM_DS3505
ZBAA,2004-11-15 18:00,ZBAA 151800Z AUTO 32002KT 6SM 02/M05 A3021 RMK SLP230 T00241050 52003 IEM_DS3505
ZBAA,2004-11-15 19:00,ZBAA 151900Z AUTO 30008KT 6SM 07/M09 A3021 RMK T00701090 IEM_DS3505
ZBAA,2004-11-15 21:00,ZBAA 152100Z AUTO 14002KT 9SM 01/M05 A3021 RMK SLP228 T00141048 57003 IEM_DS3505
ZBAA,2004-11-15 22:00,ZBAA 152200Z AUTO 29006KT 6SM 05/M09 A3021 RMK T00501090 IEM_DS3505
ZBAA,2004-11-15 23:00,ZBAA 152300Z AUTO 30008KT 6SM 06/M09 A3021 RMK T00601090 IEM_DS3505
ZBAA,2004-11-16 00:00,ZBAA 160000Z AUTO 02004KT 6SM 05/M07 A3021 RMK SLP234 T00511073 52006 IEM_DS3505
ZBAA,2004-11-16 01:00,ZBAA 160100Z AUTO 32008KT 6SM 10/M08 A3024 RMK T01001080 IEM_DS3505
ZBAA,2004-11-16 02:00,ZBAA 160200Z AUTO 32010KT 6SM 12/M09 A3024 RMK T01201090 IEM_DS3505
ZBAA,2004-11-16 03:00,ZBAA 160300Z AUTO 36004KT 19SM 13/M10 A3021 RMK SLP230 T01291101 57003 IEM_DS3505
ZBAA,2004-11-16 04:00,ZBAA 160400Z AUTO 32012KT 6SM 14/M09 A3018 RMK T01401090 IEM_DS3505
ZBAA,2004-11-16 05:00,ZBAA 160500Z AUTO 32014KT 6SM 15/M09 A3015 RMK T01501090 IEM_DS3505
ZBAA,2004-11-16 06:00,ZBAA 160600Z AUTO 29004KT 19SM 15/M09 A3015 RMK SLP206 T01491091 57024 IEM_DS3505
ZBAA,2004-11-16 07:00,ZBAA 160700Z AUTO 30014KT 6SM 15/M09 A3015 RMK T01501090 IEM_DS3505
ZBAA,2004-11-16 08:00,ZBAA 160800Z AUTO 30010KT 6SM 14/M09 A3015 RMK T01401090 IEM_DS3505
ZBAA,2004-11-16 09:00,ZBAA 160900Z AUTO 25006KT 19SM 12/M07 A3015 RMK SLP210 T01191074 52004 IEM_DS3505
ZBAA,2004-11-16 10:00,ZBAA 161000Z AUTO 28006KT 6SM 11/M07 A3015 RMK T01101070 IEM_DS3505
ZBAA,2004-11-16 11:00,ZBAA 161100Z AUTO 28006KT 6SM 10/M07 A3018 RMK T01001070 IEM_DS3505
ZBAA,2004-11-16 12:00,ZBAA 161200Z AUTO 29002KT 12SM 07/M06 A3018 RMK SLP225 T00671062 52014 IEM_DS3505
ZBAA,2004-11-16 12:30,ZBAA 161230Z AUTO 32010KT 6SM 10/M07 A3018 RMK T01001070 IEM_DS3505
ZBAA,2004-11-16 13:00,ZBAA 161300Z AUTO 32012KT 6SM 10/M07 A3018 RMK T01001070 IEM_DS3505
ZBAA,2004-11-16 14:00,ZBAA 161400Z AUTO 01004KT 6SM 07/M06 A3021 RMK T00701060 IEM_DS3505
ZBAA,2004-11-16 15:00,ZBAA 161500Z AUTO 29004KT 9SM 08/M06 A3021 RMK SLP229 T00811064 52005 IEM_DS3505
ZBAA,2004-11-16 16:00,ZBAA 161600Z AUTO 34004KT 6SM 02/M05 A3021 RMK T00201050 IEM_DS3505
ZBAA,2004-11-16 17:00,ZBAA 161700Z AUTO 35006KT 6SM 03/M05 A3021 RMK T00301050 IEM_DS3505
ZBAA,2004-11-16 18:00,ZBAA 161800Z AUTO 27002KT 9SM 04/M04 A3021 RMK SLP227 T00401042 57002 IEM_DS3505
ZBAA,2004-11-16 19:00,ZBAA 161900Z AUTO 02004KT 6SM 03/M03 A3021 RMK T00301030 IEM_DS3505
ZBAA,2004-11-16 20:00,ZBAA 162000Z AUTO 36006KT 6SM M01/M04 A3021 RMK T10101040 IEM_DS3505
ZBAA,2004-11-16 21:00,ZBAA 162100Z AUTO 00000KT 9SM 02/M05 A3021 RMK SLP224 T00251047 57003 IEM_DS3505
ZBAA,2004-11-16 22:00,ZBAA 162200Z AUTO 02004KT 6SM 02/M04 A3021 RMK T00201040 IEM_DS3505
ZBAA,2004-11-16 23:00,ZBAA 162300Z AUTO 02006KT 6SM 03/M04 A3021 RMK T00301040 IEM_DS3505
ZBAA,2004-11-17 00:00,ZBAA 170000Z AUTO 02002KT 9SM 06/M06 A3024 RMK SLP235 T00561059 52010 IEM_DS3505
ZBAA,2004-11-17 01:00,ZBAA 170100Z AUTO 02006KT 6SM 07/M03 A3024 RMK T00701030 IEM_DS3505
ZBAA,2004-11-17 02:00,ZBAA 170200Z AUTO 01006KT 6SM 10/M04 A3024 RMK T01001040 IEM_DS3505
ZBAA,2004-11-17 03:00,ZBAA 170300Z AUTO 02006KT 19SM 12/M07 A3024 RMK SLP236 T01251069 52002 IEM_DS3505
ZBAA,2004-11-17 04:00,ZBAA 170400Z AUTO 01004KT 6SM 14/M06 A3021 RMK T01401060 IEM_DS3505
ZBAA,2004-11-17 05:00,ZBAA 170500Z AUTO 01004KT 6SM 15/M05 A3018 RMK T01501050 IEM_DS3505
ZBAA,2004-11-17 06:00,ZBAA 170600Z AUTO 27004KT 19SM 15/M08 A3018 RMK SLP215 T01511076 57021 IEM_DS3505
ZBAA,2004-11-17 07:00,ZBAA 170700Z AUTO 6SM 16/M06 A3015 RMK T01601060 IEM_DS3505
ZBAA,2004-11-17 08:00,ZBAA 170800Z AUTO 00000KT 6SM 15/M06 A3015 RMK T01501060 IEM_DS3505
ZBAA,2004-11-17 09:00,ZBAA 170900Z AUTO 22004KT 12SM 12/M06 A3018 RMK SLP216 T01231061 52001 IEM_DS3505
ZBAA,2004-11-17 10:00,ZBAA 171000Z AUTO 21006KT 6SM 12/M05 A3018 RMK T01201050 IEM_DS3505
ZBAA,2004-11-17 11:00,ZBAA 171100Z AUTO 23006KT 6SM 12/M04 A3018 RMK T01201040 IEM_DS3505
ZBAA,2004-11-17 12:00,ZBAA 171200Z AUTO 25004KT 9SM 08/M04 A3018 RMK SLP223 T00831035 52007 IEM_DS3505
ZBAA,2004-11-17 13:00,ZBAA 171300Z AUTO 00000KT 6SM 06/M01 A3018 RMK T00601010 IEM_DS3505
ZBAA,2004-11-17 14:00,ZBAA 171400Z AUTO 00000KT 6SM 06/M01 A3018 RMK T00601010 IEM_DS3505
ZBAA,2004-11-17 15:00,ZBAA 171500Z AUTO 27002KT 7SM 05/M02 A3018 RMK SLP222 T00491022 57001 IEM_DS3505
ZBAA,2004-11-17 16:00,ZBAA 171600Z AUTO 04002KT 6SM 03/M01 A3018 RMK T00301010 IEM_DS3505
ZBAA,2004-11-17 17:00,ZBAA 171700Z AUTO 00000KT 4SM 02/M01 A3018 RMK T00201010 IEM_DS3505
ZBAA,2004-11-17 18:00,ZBAA 171800Z AUTO 00000KT 6SM 03/M03 A3018 RMK SLP218 T00271026 57004 IEM_DS3505
ZBAA,2004-11-17 19:00,ZBAA 171900Z AUTO 34004KT 6SM 00/M03 A3018 RMK T00001030 IEM_DS3505
ZBAA,2004-11-17 20:00,ZBAA 172000Z AUTO 34004KT 6SM M01/M03 A3018 RMK T10101030 IEM_DS3505
ZBAA,2004-11-17 21:00,ZBAA 172100Z AUTO 07002KT 6SM 02/M02 A3018 RMK SLP216 T00191024 57002 IEM_DS3505
ZBAA,2004-11-17 22:00,ZBAA 172200Z AUTO 34004KT 6SM M01/M03 A3018 RMK T10101030 IEM_DS3505
ZBAA,2004-11-17 23:00,ZBAA 172300Z AUTO 35006KT 6SM M01/M03 A3018 RMK T10101030 IEM_DS3505
ZBAA,2004-11-18 00:00,ZBAA 180000Z AUTO 04004KT 6SM 02/M03 A3021 RMK SLP226 T00221029 52009 IEM_DS3505
ZBAA,2004-11-18 01:00,ZBAA 180100Z AUTO 35006KT 6SM 04/M01 A3021 RMK T00401010 IEM_DS3505
ZBAA,2004-11-18 02:00,ZBAA 180200Z AUTO 36004KT 6SM 07/M02 A3021 RMK T00701020 IEM_DS3505
ZBAA,2004-11-18 03:00,ZBAA 180300Z AUTO 04004KT 7SM 10/M05 A3021 RMK SLP223 T00991048 57002 IEM_DS3505
ZBAA,2004-11-18 04:00,ZBAA 180400Z AUTO 6SM 12/M03 A3018 RMK T01201030 IEM_DS3505
ZBAA,2004-11-18 05:00,ZBAA 180500Z AUTO 03002KT 6SM 14/M04 A3015 RMK T01401040 IEM_DS3505
ZBAA,2004-11-18 06:00,ZBAA 180600Z AUTO 22002KT 7SM 15/M06 A3012 RMK SLP205 T01491065 57018 IEM_DS3505
ZBAA,2004-11-18 07:00,ZBAA 180700Z AUTO 27004KT 6SM 16/M05 A3012 RMK T01601050 IEM_DS3505
ZBAA,2004-11-18 08:00,ZBAA 180800Z AUTO 21004KT 6SM 14/M05 A3015 RMK T01401050 IEM_DS3505
ZBAA,2004-11-18 09:00,ZBAA 180900Z AUTO 16002KT 7SM 11/M05 A3015 RMK SLP211 T01121048 52006 IEM_DS3505
ZBAA,2004-11-18 10:00,ZBAA 181000Z AUTO 21004KT 09/M04 A3018 RMK T00901040 IEM_DS3505
ZBAA,2004-11-18 11:00,ZBAA 181100Z AUTO 19004KT 3SM 08/M02 A3018 RMK T00801020 IEM_DS3505
ZBAA,2004-11-18 12:00,ZBAA 181200Z AUTO 27002KT 6SM 07/M01 A3018 RMK SLP222 T00661010 52010 IEM_DS3505
ZBAA,2004-11-18 13:00,ZBAA 181300Z AUTO 00000KT 3SM 06/M02 A3021 RMK T00601020 IEM_DS3505
ZBAA,2004-11-18 14:00,ZBAA 181400Z AUTO 36004KT 2 1/2SM 05/M01 A3021 RMK T00501010 IEM_DS3505
ZBAA,2004-11-18 15:00,ZBAA 181500Z AUTO 00000KT 5SM 05/M02 A3021 RMK SLP229 T00511020 52008 IEM_DS3505
ZBAA,2004-11-18 16:00,ZBAA 181600Z AUTO 33004KT 3SM 03/M02 A3021 RMK T00301020 IEM_DS3505
ZBAA,2004-11-18 17:00,ZBAA 181700Z AUTO 34004KT 3SM 03/M03 A3024 RMK T00301030 IEM_DS3505
ZBAA,2004-11-18 18:00,ZBAA 181800Z AUTO 07002KT 5SM 05/M03 A3024 RMK SLP233 T00471031 52004 IEM_DS3505
ZBAA,2004-11-18 19:00,ZBAA 181900Z AUTO 34004KT 5SM 01/M04 A3024 RMK T00101040 IEM_DS3505
ZBAA,2004-11-18 20:00,ZBAA 182000Z AUTO 33004KT 6SM 00/M04 A3024 RMK T00001040 IEM_DS3505
ZBAA,2004-11-18 21:00,ZBAA 182100Z AUTO 02004KT 12SM 07/M09 A3024 RMK SLP232 T00721087 57001 IEM_DS3505
ZBAA,2004-11-18 22:00,ZBAA 182200Z AUTO 35006KT 6SM 00/M05 A3024 RMK T00001050 IEM_DS3505
ZBAA,2004-11-18 23:00,ZBAA 182300Z AUTO 34008KT 6SM 02/M04 A3024 RMK T00201040 IEM_DS3505
ZBAA,2004-11-19 00:00,ZBAA 190000Z AUTO 34008KT 16SM 09/M10 A3027 RMK SLP244 T00891095 52012 IEM_DS3505
ZBAA,2004-11-19 01:00,ZBAA 190100Z AUTO 36006KT 6SM 07/M04 A3027 RMK T00701040 IEM_DS3505
ZBAA,2004-11-19 02:00,ZBAA 190200Z AUTO 02004KT 6SM 09/M04 A3027 RMK T00901040 IEM_DS3505
ZBAA,2004-11-19 03:00,ZBAA 190300Z AUTO 36010KT 19SM 12/M08 A3027 RMK SLP246 T01201084 52002 IEM_DS3505
ZBAA,2004-11-19 04:00,ZBAA 190400Z AUTO 34008KT 6SM 13/M05 A3024 RMK T01301050 IEM_DS3505
ZBAA,2004-11-19 05:00,ZBAA 190500Z AUTO 31014KT 6SM 13/M07 A3021 RMK T01301070 IEM_DS3505
ZBAA,2004-11-19 06:00,ZBAA 190600Z AUTO 36010KT 19SM 13/M09 A3021 RMK SLP223 T01341090 57023 IEM_DS3505
ZBAA,2004-11-19 07:00,ZBAA 190700Z AUTO 29014KT 6SM 13/M07 A3021 RMK T01301070 IEM_DS3505
ZBAA,2004-11-19 08:00,ZBAA 190800Z AUTO 30012KT 6SM 13/M07 A3021 RMK T01301070 IEM_DS3505
ZBAA,2004-11-19 09:00,ZBAA 190900Z AUTO 32006KT 19SM 12/M10 A3021 RMK SLP230 T01201102 52007 IEM_DS3505
ZBAA,2004-11-19 10:00,ZBAA 191000Z AUTO 31014KT 6SM 11/M07 A3024 RMK T01101070 IEM_DS3505
ZBAA,2004-11-19 11:00,ZBAA 191100Z AUTO 32016KT 6SM 10/M07 A3024 RMK T01001070 IEM_DS3505
ZBAA,2004-11-19 12:00,ZBAA 191200Z AUTO 34004KT 19SM 10/M08 A3027 RMK SLP249 T00991081 52019 IEM_DS3505
ZBAA,2004-11-19 13:00,ZBAA 191300Z AUTO 31010KT 6SM 09/M07 A3027 RMK T00901070 IEM_DS3505
ZBAA,2004-11-19 14:00,ZBAA 191400Z AUTO 32006KT 6SM 07/M07 A3030 RMK T00701070 IEM_DS3505
ZBAA,2004-11-19 15:00,ZBAA 191500Z AUTO 29002KT 16SM 05/M07 A3030 RMK SLP253 T00541067 52004 IEM_DS3505
ZBAA,2004-11-19 16:00,ZBAA 191600Z AUTO 31014KT 6SM 09/M08 A3027 RMK T00901080 IEM_DS3505
ZBAA,2004-11-19 17:00,ZBAA 191700Z AUTO 32016KT 6SM 09/M08 A3030 RMK T00901080 IEM_DS3505
ZBAA,2004-11-19 18:00,ZBAA 191800Z AUTO 36004KT 12SM 08/M08 A3030 RMK SLP256 T00751085 52003 IEM_DS3505
ZBAA,2004-11-19 19:00,ZBAA 191900Z AUTO 32008KT 6SM 05/M07 A3030 RMK T00501070 IEM_DS3505
ZBAA,2004-11-19 20:00,ZBAA 192000Z AUTO 31008KT 6SM 06/M07 A3030 RMK T00601070 IEM_DS3505
ZBAA,2004-11-19 21:00,ZBAA 192100Z AUTO 36006KT 12SM 07/M09 A3030 RMK SLP255 T00711088 57001 IEM_DS3505
ZBAA,2004-11-19 22:00,ZBAA 192200Z AUTO 30008KT 6SM 06/M07 A3030 RMK T00601070 IEM_DS3505
ZBAA,2004-11-19 23:00,ZBAA 192300Z AUTO 31006KT 6SM 04/M08 A3033 RMK T00401080 IEM_DS3505
ZBAA,2004-11-20 00:00,ZBAA 200000Z AUTO 36004KT 19SM 07/M08 A3033 RMK SLP270 T00731082 52015 IEM_DS3505
ZBAA,2004-11-20 01:00,ZBAA 200100Z AUTO 03002KT 6SM 07/M05 A3036 RMK T00701050 IEM_DS3505
ZBAA,2004-11-20 02:00,ZBAA 200200Z AUTO 02004KT 6SM 09/M05 A3036 RMK T00901050 IEM_DS3505
ZBAA,2004-11-20 03:00,ZBAA 200300Z AUTO 36006KT 19SM 12/M08 A3036 RMK SLP275 T01181080 52005 IEM_DS3505
ZBAA,2004-11-20 04:00,ZBAA 200400Z AUTO 32012KT 6SM 13/M06 A3033 RMK T01301060 IEM_DS3505
ZBAA,2004-11-20 05:00,ZBAA 200500Z AUTO 33008KT 6SM 14/M06 A3033 RMK T01401060 IEM_DS3505
ZBAA,2004-11-20 06:00,ZBAA 200600Z AUTO 36008KT 19SM 14/M08 A3030 RMK SLP257 T01371081 57018 IEM_DS3505
ZBAA,2004-11-20 07:00,ZBAA 200700Z AUTO 30008KT 6SM 14/M06 A3030 RMK T01401060 IEM_DS3505
ZBAA,2004-11-20 08:00,ZBAA 200800Z AUTO 36004KT 6SM 13/M05 A3030 RMK T01301050 IEM_DS3505
ZBAA,2004-11-20 09:00,ZBAA 200900Z AUTO 02002KT 19SM 12/M07 A3033 RMK SLP265 T01191074 52008 IEM_DS3505
ZBAA,2004-11-20 10:00,ZBAA 201000Z AUTO 09002KT 6SM 09/M04 A3036 RMK T00901040 IEM_DS3505
ZBAA,2004-11-20 11:00,ZBAA 201100Z AUTO 31002KT 6SM 08/M05 A3036 RMK T00801050 IEM_DS3505
ZBAA,2004-11-20 12:00,ZBAA 201200Z AUTO 20002KT 12SM 08/M06 A3039 RMK SLP285 T00821059 52019 IEM_DS3505
ZBAA,2004-11-20 13:00,ZBAA 201300Z AUTO 23004KT 6SM 09/M05 A3039 RMK T00901050 IEM_DS3505
ZBAA,2004-11-20 14:00,ZBAA 201400Z AUTO 06002KT 04/M02 A3039 RMK T00401020 IEM_DS3505
ZBAA,2004-11-20 15:00,ZBAA 201500Z AUTO 25002KT 12SM 05/M05 A3039 RMK SLP292 T00521051 52007 IEM_DS3505
ZBAA,2004-11-20 16:00,ZBAA 201600Z AUTO 03002KT 2 1/2SM 02/M02 A3039 RMK T00201020 IEM_DS3505
ZBAA,2004-11-20 17:00,ZBAA 201700Z AUTO 01002KT 2 1/2SM 00/M03 A3039 RMK T00001030 IEM_DS3505
ZBAA,2004-11-20 18:00,ZBAA 201800Z AUTO 00000KT 9SM 03/M04 A3042 RMK SLP292 T00341038 52001 IEM_DS3505
ZBAA,2004-11-20 19:00,ZBAA 201900Z AUTO 35004KT 5SM 02/M02 A3042 RMK T00201020 IEM_DS3505
ZBAA,2004-11-20 20:00,ZBAA 202000Z AUTO 01002KT 5SM 00/M03 A3042 RMK T00001030 IEM_DS3505
ZBAA,2004-11-20 21:00,ZBAA 202100Z AUTO 07004KT 9SM 02/M04 A3042 RMK SLP293 T00241035 54000 IEM_DS3505
ZBAA,2004-11-20 22:00,ZBAA 202200Z AUTO 35006KT 6SM 01/M03 A3042 RMK T00101030 IEM_DS3505
ZBAA,2004-11-20 23:00,ZBAA 202300Z AUTO 35002KT 6SM 00/M03 A3042 RMK T00001030 IEM_DS3505
ZBAA,2004-11-21 00:00,ZBAA 210000Z AUTO 09004KT 9SM 02/M03 A3045 RMK SLP305 T00241033 52012 IEM_DS3505
ZBAA,2004-11-21 01:00,ZBAA 210100Z AUTO 04002KT 6SM 04/M01 A3045 RMK T00401010 IEM_DS3505
ZBAA,2004-11-21 02:00,ZBAA 210200Z AUTO 09002KT 2 1/2SM 06/M01 A3045 RMK T00601010 IEM_DS3505
ZBAA,2004-11-21 03:00,ZBAA 210300Z AUTO 04004KT 9SM 10/M05 A3045 RMK SLP301 T00971046 57004 IEM_DS3505
ZBAA,2004-11-21 04:00,ZBAA 210400Z AUTO 2 1/2SM 10/M01 A3042 RMK T01001010 IEM_DS3505
ZBAA,2004-11-21 06:00,ZBAA 210600Z AUTO 16004KT 9SM 13/M04 A3036 RMK SLP271 T01261045 57029 IEM_DS3505
ZBAA,2004-11-21 07:00,ZBAA 210700Z AUTO 13004KT 3SM 12/M02 A3033 RMK T01201020 IEM_DS3505
ZBAA,2004-11-21 08:00,ZBAA 210800Z AUTO 13002KT 2 1/2SM 11/M01 A3033 RMK T01101010 IEM_DS3505
ZBAA,2004-11-21 09:00,ZBAA 210900Z AUTO 22002KT 9SM 11/M04 A3033 RMK SLP271 T01061042 57001 IEM_DS3505
ZBAA,2004-11-21 10:00,ZBAA 211000Z AUTO 10002KT 2SM 07/M01 A3033 RMK T00701010 IEM_DS3505
ZBAA,2004-11-21 11:00,ZBAA 211100Z AUTO 10002KT 2SM 06/M01 A3033 RMK T00601010 IEM_DS3505
ZBAA,2004-11-21 12:00,ZBAA 211200Z AUTO 22004KT 6SM 07/M03 A3036 RMK SLP275 T00741034 52004 IEM_DS3505
ZBAA,2004-11-21 13:00,ZBAA 211300Z AUTO 11002KT 1SM 04/00 A3036 RMK T00400000 IEM_DS3505
ZBAA,2004-11-21 14:00,ZBAA 211400Z AUTO 08002KT 1SM 03/00 A3036 RMK T00300000 IEM_DS3505
ZBAA,2004-11-21 15:00,ZBAA 211500Z AUTO 22002KT 6SM 05/M03 A3033 RMK SLP271 T00521028 57004 IEM_DS3505
ZBAA,2004-11-21 16:00,ZBAA 211600Z AUTO 06002KT 1SM 01/M02 A3033 RMK T00101020 IEM_DS3505
ZBAA,2004-11-21 17:00,ZBAA 211700Z AUTO 00000KT 1SM 01/M01 A3033 RMK T00101010 IEM_DS3505
ZBAA,2004-11-21 18:00,ZBAA 211800Z AUTO 00000KT 6SM 02/M03 A3033 RMK SLP264 T00221029 57007 IEM_DS3505
ZBAA,2004-11-21 19:00,ZBAA 211900Z AUTO 03002KT 1SM 01/M01 A3033 RMK T00101010 IEM_DS3505
ZBAA,2004-11-21 20:00,ZBAA 212000Z AUTO 06002KT 1SM 01/M02 A3030 RMK T00101020 IEM_DS3505
ZBAA,2004-11-21 21:00,ZBAA 212100Z AUTO 18002KT 6SM 02/M03 A3033 RMK SLP260 T00231028 57004 IEM_DS3505
ZBAA,2004-11-21 22:00,ZBAA 212200Z AUTO 33002KT 1 1/4SM 00/M02 A3033 RMK T00001020 IEM_DS3505
ZBAA,2004-11-21 23:00,ZBAA 212300Z AUTO 06002KT 1SM 01/M01 A3033 RMK T00101010 IEM_DS3505
ZBAA,2004-11-22 00:00,ZBAA 220000Z AUTO 34002KT 4SM 04/M02 A3033 RMK SLP269 T00371018 52009 IEM_DS3505
ZBAA,2004-11-22 01:00,ZBAA 220100Z AUTO 08002KT 1 1/4SM 02/M01 A3033 RMK T00201010 IEM_DS3505
ZBAA,2004-11-22 02:00,ZBAA 220200Z AUTO 04002KT 1 1/4SM 04/M01 A3033 RMK T00401010 IEM_DS3505
ZBAA,2004-11-22 03:00,ZBAA 220300Z AUTO 09004KT 4SM 07/M00 A3033 RMK SLP260 T00721002 57009 IEM_DS3505
ZBAA,2004-11-22 04:00,ZBAA 220400Z AUTO 11002KT 1 1/4SM 07/00 A3027 RMK T00700000 IEM_DS3505
ZBAA,2004-11-22 05:00,ZBAA 220500Z AUTO 11002KT 1 1/4SM 09/01 A3024 RMK T00900010 IEM_DS3505
ZBAA,2004-11-22 06:00,ZBAA 220600Z AUTO 14006KT 5SM 11/M01 A3021 RMK SLP229 T01081006 57031 IEM_DS3505
ZBAA,2004-11-22 07:00,ZBAA 220700Z AUTO 14004KT 1SM 10/02 A3021 RMK T01000020 IEM_DS3505
ZBAA,2004-11-22 08:00,ZBAA 220800Z AUTO 16004KT 1SM 09/02 A3021 RMK T00900020 IEM_DS3505
ZBAA,2004-11-22 09:00,ZBAA 220900Z AUTO 20004KT 5SM 09/M00 A3021 RMK SLP235 T00921004 52007 IEM_DS3505
ZBAA,2004-11-22 10:00,ZBAA 221000Z AUTO 09004KT 1SM 07/02 A3024 RMK T00700020 IEM_DS3505
ZBAA,2004-11-22 11:00,ZBAA 221100Z AUTO 10002KT 1SM 06/02 A3024 RMK T00600020 IEM_DS3505
ZBAA,2004-11-22 12:00,ZBAA 221200Z AUTO 22006KT 4SM 07/00 A3024 RMK SLP243 T00680003 52007 IEM_DS3505
ZBAA,2004-11-22 13:00,ZBAA 221300Z AUTO 12002KT 1SM 05/02 A3027 RMK T00500020 IEM_DS3505
ZBAA,2004-11-22 14:00,ZBAA 221400Z AUTO 04002KT 1SM 04/01 A3027 RMK T00400010 IEM_DS3505
ZBAA,2004-11-22 15:00,ZBAA 221500Z AUTO 00000KT 2 1/2SM 04/00 A3027 RMK SLP249 T00420002 52006 IEM_DS3505
ZBAA,2004-11-22 16:00,ZBAA 221600Z AUTO 35004KT 1SM 02/00 A3027 RMK T00200000 IEM_DS3505
ZBAA,2004-11-22 17:00,ZBAA 221700Z AUTO 1SM 02/01 A3027 RMK T00200010 IEM_DS3505
ZBAA,2004-11-22 18:00,ZBAA 221800Z AUTO 04002KT 2SM 02/M00 A3027 RMK SLP253 T00251001 52004 IEM_DS3505
ZBAA,2004-11-22 19:00,ZBAA 221900Z AUTO 05002KT 1SM 02/00 A3030 RMK T00200000 IEM_DS3505
ZBAA,2004-11-22 20:00,ZBAA 222000Z AUTO 10004KT 1SM 01/M01 A3030 RMK T00101010 IEM_DS3505
ZBAA,2004-11-22 21:00,ZBAA 222100Z AUTO 04004KT 12SM 05/M05 A3030 RMK SLP252 T00461051 57001 IEM_DS3505
ZBAA,2004-11-22 22:00,ZBAA 222200Z AUTO 04002KT 3SM 01/M02 A3030 RMK T00101020 IEM_DS3505
ZBAA,2004-11-22 23:00,ZBAA 222300Z AUTO 01006KT 6SM 02/M05 A3033 RMK T00201050 IEM_DS3505
ZBAA,2004-11-23 00:00,ZBAA 230000Z AUTO 09004KT 9SM 04/M07 A3033 RMK SLP268 T00431071 52016 IEM_DS3505
ZBAA,2004-11-23 01:00,ZBAA 230100Z AUTO 36006KT 6SM 06/M02 A3036 RMK T00601020 IEM_DS3505
ZBAA,2004-11-23 02:00,ZBAA 230200Z AUTO 01006KT 6SM 09/M04 A3036 RMK T00901040 IEM_DS3505
ZBAA,2004-11-23 03:00,ZBAA 230300Z AUTO 07006KT 9SM 10/M07 A3036 RMK SLP276 T01041073 52008 IEM_DS3505
ZBAA,2004-11-23 04:00,ZBAA 230400Z AUTO 6SM 12/M06 A3033 RMK T01201060 IEM_DS3505
ZBAA,2004-11-23 05:00,ZBAA 230500Z AUTO 06002KT 6SM 13/M08 A3030 RMK T01301080 IEM_DS3505
ZBAA,2004-11-23 06:00,ZBAA 230600Z AUTO 16004KT 9SM 13/M09 A3030 RMK SLP257 T01271090 57018 IEM_DS3505
ZBAA,2004-11-23 07:00,ZBAA 230700Z AUTO 14004KT 6SM 13/M07 A3030 RMK T01301070 IEM_DS3505
ZBAA,2004-11-23 08:00,ZBAA 230800Z AUTO 15002KT 6SM 12/M06 A3030 RMK T01201060 IEM_DS3505
ZBAA,2004-11-23 09:00,ZBAA 230900Z AUTO 11002KT 7SM 10/M07 A3033 RMK SLP268 T00971070 52010 IEM_DS3505
ZBAA,2004-11-23 10:00,ZBAA 231000Z AUTO 19004KT 6SM 07/M05 A3033 RMK T00701050 IEM_DS3505
ZBAA,2004-11-23 11:00,ZBAA 231100Z AUTO 09002KT 07/M03 A3036 RMK T00701030 IEM_DS3505
ZBAA,2004-11-23 12:00,ZBAA 231200Z AUTO 00000KT 6SM 06/M04 A3039 RMK SLP287 T00561045 52019 IEM_DS3505
ZBAA,2004-11-23 13:00,ZBAA 231300Z AUTO 01002KT 3SM 04/M02 A3039 RMK T00401020 IEM_DS3505
ZBAA,2004-11-23 14:00,ZBAA 231400Z AUTO 04002KT 2 1/2SM 04/M01 A3042 RMK T00401010 IEM_DS3505
ZBAA,2004-11-23 15:00,ZBAA 231500Z AUTO 07002KT 6SM 05/M03 A3045 RMK SLP304 T00521028 52017 IEM_DS3505
ZBAA,2004-11-23 16:00,ZBAA 231600Z AUTO 01002KT 2 1/2SM 03/M02 A3047 RMK T00301020 IEM_DS3505
ZBAA,2004-11-23 17:00,ZBAA 231700Z AUTO 33006KT 2 1/2SM 02/M02 A3047 RMK T00201020 IEM_DS3505
ZBAA,2004-11-23 18:00,ZBAA 231800Z AUTO 04004KT 6SM 05/M03 A3050 RMK SLP327 T00531032 52023 IEM_DS3505
ZBAA,2004-11-23 19:00,ZBAA 231900Z AUTO 34008KT 03/M03 A3053 RMK T00301030 IEM_DS3505
ZBAA,2004-11-23 20:00,ZBAA 232000Z AUTO 36006KT 6SM 03/M03 A3056 RMK T00301030 IEM_DS3505
ZBAA,2004-11-23 21:00,ZBAA 232100Z AUTO 02008KT 12SM 06/M07 A3059 RMK SLP352 T00561069 52025 IEM_DS3505
ZBAA,2004-11-23 22:00,ZBAA 232200Z AUTO 01008KT 6SM 04/M08 A3062 RMK T00401080 IEM_DS3505
ZBAA,2004-11-23 23:00,ZBAA 232300Z AUTO 01008KT 6SM 04/M10 A3065 RMK T00401100 IEM_DS3505
ZBAA,2004-11-24 00:00,ZBAA 240000Z AUTO 36008KT 12SM 05/M11 A3071 RMK SLP395 T00471113 52043 IEM_DS3505
ZBAA,2004-11-24 01:00,ZBAA 240100Z AUTO 01010KT 6SM 04/M12 A3074 RMK T00401120 IEM_DS3505
ZBAA,2004-11-24 02:00,ZBAA 240200Z AUTO 01010KT 6SM 05/M13 A3080 RMK T00501130 IEM_DS3505
ZBAA,2004-11-24 03:00,ZBAA 240300Z AUTO 36008G23KT 16SM 05/M15 A3080 RMK SLP425 T00531152 52029 IEM_DS3505
ZBAA,2004-11-24 04:00,ZBAA 240400Z AUTO 01012KT 6SM 05/M16 A3080 RMK T00501160 IEM_DS3505
ZBAA,2004-11-24 05:00,ZBAA 240500Z AUTO 01010KT 6SM 06/M16 A3077 RMK T00601160 IEM_DS3505
ZBAA,2004-11-24 06:00,ZBAA 240600Z AUTO 36010KT 19SM 06/M17 A3077 RMK SLP416 T00631168 57008 IEM_DS3505
ZBAA,2004-11-24 07:00,ZBAA 240700Z AUTO 02010KT 6SM 06/M18 A3077 RMK T00601180 IEM_DS3505
ZBAA,2004-11-24 08:00,ZBAA 240800Z AUTO 02008KT 6SM 05/M18 A3080 RMK T00501180 IEM_DS3505
ZBAA,2004-11-24 09:00,ZBAA 240900Z AUTO 36006KT 19SM 05/M18 A3083 RMK SLP432 T00531184 52015 IEM_DS3505
ZBAA,2004-11-24 10:00,ZBAA 241000Z AUTO 36010KT 6SM 04/M20 A3083 RMK T00401200 IEM_DS3505
ZBAA,2004-11-24 11:00,ZBAA 241100Z AUTO 35010KT 6SM 03/M19 A3086 RMK T00301190 IEM_DS3505
ZBAA,2004-11-24 12:00,ZBAA 241200Z AUTO 36008KT 16SM 04/M20 A3086 RMK SLP447 T00391203 52015 IEM_DS3505
ZBAA,2004-11-24 13:00,ZBAA 241300Z AUTO 34008KT 6SM 02/M17 A3089 RMK T00201170 IEM_DS3505
ZBAA,2004-11-24 14:00,ZBAA 241400Z AUTO 35010KT 6SM 01/M17 A3089 RMK T00101170 IEM_DS3505
ZBAA,2004-11-24 15:00,ZBAA 241500Z AUTO 36010KT 16SM 02/M22 A3089 RMK SLP457 T00251222 52010 IEM_DS3505
ZBAA,2004-11-24 16:00,ZBAA 241600Z AUTO 35008KT 6SM 01/M17 A3089 RMK T00101170 IEM_DS3505
ZBAA,2004-11-24 17:00,ZBAA 241700Z AUTO 36010KT 6SM 00/M18 A3089 RMK T00001180 IEM_DS3505
ZBAA,2004-11-24 18:00,ZBAA 241800Z AUTO 02008KT 16SM 01/M22 A3089 RMK SLP450 T00111218 57007 IEM_DS3505
ZBAA,2004-11-24 19:00,ZBAA 241900Z AUTO 01010KT 6SM M01/M18 A3086 RMK T10101180 IEM_DS3505
ZBAA,2004-11-24 20:00,ZBAA 242000Z AUTO 01008KT 6SM M01/M18 A3086 RMK T10101180 IEM_DS3505
ZBAA,2004-11-24 21:00,ZBAA 242100Z AUTO 04008KT 19SM M00/M19 A3086 RMK SLP442 T10041189 57008 IEM_DS3505
ZBAA,2004-11-24 22:00,ZBAA 242200Z AUTO 02008KT 6SM M01/M18 A3083 RMK T10101180 IEM_DS3505
ZBAA,2004-11-24 23:00,ZBAA 242300Z AUTO 01008KT 6SM M01/M18 A3086 RMK T10101180 IEM_DS3505
ZBAA,2004-11-25 00:00,ZBAA 250000Z AUTO 36006KT 19SM M00/M20 A3086 RMK SLP440 T10011197 57002 IEM_DS3505
ZBAA,2004-11-25 01:00,ZBAA 250100Z AUTO 01006KT 6SM M01/M17 A3086 RMK T10101170 IEM_DS3505
ZBAA,2004-11-25 02:00,ZBAA 250200Z AUTO 36004KT 6SM 00/M17 A3083 RMK T00001170 IEM_DS3505
ZBAA,2004-11-25 03:00,ZBAA 250300Z AUTO 36008KT 16SM 01/M20 A3083 RMK SLP432 T00071202 57008 IEM_DS3505
ZBAA,2004-11-25 04:00,ZBAA 250400Z AUTO 01006KT 6SM 01/M16 A3077 RMK T00101160 IEM_DS3505
ZBAA,2004-11-25 05:00,ZBAA 250500Z AUTO 01006KT 6SM 02/M17 A3074 RMK T00201170 IEM_DS3505
ZBAA,2004-11-25 06:00,ZBAA 250600Z AUTO 02010KT 19SM 03/M21 A3068 RMK SLP385 T00301210 57047 IEM_DS3505
ZBAA,2004-11-25 07:00,ZBAA 250700Z AUTO 30010KT 6SM 03/M17 A3065 RMK T00301170 IEM_DS3505
ZBAA,2004-11-25 08:00,ZBAA 250800Z AUTO 30008G17KT 6SM 03/M18 A3062 RMK T00301180 IEM_DS3505
ZBAA,2004-11-25 09:00,ZBAA 250900Z AUTO 29010KT 19SM 02/M20 A3062 RMK SLP371 T00231195 57014 IEM_DS3505
ZBAA,2004-11-25 10:00,ZBAA 251000Z AUTO 28012KT 6SM 02/M16 A3062 RMK T00201160 IEM_DS3505
ZBAA,2004-11-25 11:00,ZBAA 251100Z AUTO 32008KT 6SM 00/M15 A3062 RMK T00001150 IEM_DS3505
ZBAA,2004-11-25 12:00,ZBAA 251200Z AUTO 27004KT 16SM 01/M17 A3059 RMK SLP365 T00061166 57006 IEM_DS3505
ZBAA,2004-11-25 13:00,ZBAA 251300Z AUTO 28006KT 6SM 00/M15 A3059 RMK T00001150 IEM_DS3505
ZBAA,2004-11-25 14:00,ZBAA 251400Z AUTO 27006KT 6SM M01/M15 A3056 RMK T10101150 IEM_DS3505
ZBAA,2004-11-25 15:00,ZBAA 251500Z AUTO 27006KT 16SM M01/M12 A3053 RMK SLP346 T10091121 57019 IEM_DS3505
ZBAA,2004-11-25 16:00,ZBAA 251600Z AUTO 29006KT 6SM M01/M16 A3053 RMK T10101160 IEM_DS3505
ZBAA,2004-11-25 17:00,ZBAA 251700Z AUTO 29006KT 6SM M01/M17 A3047 RMK T10101170 IEM_DS3505
ZBAA,2004-11-25 18:00,ZBAA 251800Z AUTO 29004KT 12SM M01/M15 A3047 RMK SLP317 T10131154 57029 IEM_DS3505
ZBAA,2004-11-25 19:00,ZBAA 251900Z AUTO 28004KT 6SM M01/M17 A3042 RMK T10101170 IEM_DS3505
ZBAA,2004-11-25 21:00,ZBAA 252100Z AUTO 27006KT 12SM M03/M14 A3039 RMK SLP288 T10261140 57029 IEM_DS3505
ZBAA,2004-11-25 22:00,ZBAA 252200Z AUTO 27004KT 6SM 00/M18 A3036 RMK T00001180 IEM_DS3505
ZBAA,2004-11-25 23:00,ZBAA 252300Z AUTO 29008KT 6SM 00/M17 A3036 RMK T00001170 IEM_DS3505
ZBAA,2004-11-26 00:00,ZBAA 260000Z AUTO 27006KT 16SM M03/M13 A3036 RMK SLP280 T10261131 57008 IEM_DS3505
ZBAA,2004-11-26 01:00,ZBAA 260100Z AUTO 6SM 03/M16 A3036 RMK T00301160 IEM_DS3505
ZBAA,2004-11-26 02:00,ZBAA 260200Z AUTO 27010G19KT 6SM 05/M18 A3036 RMK T00501180 IEM_DS3505
ZBAA,2004-11-26 03:00,ZBAA 260300Z AUTO 25010KT 16SM 04/M15 A3033 RMK SLP276 T00441154 57003 IEM_DS3505
ZBAA,2004-11-26 04:00,ZBAA 260400Z AUTO 26010KT 6SM 08/M19 A3030 RMK T00801190 IEM_DS3505
ZBAA,2004-11-26 05:00,ZBAA 260500Z AUTO 21008KT 6SM 09/M14 A3027 RMK T00901140 IEM_DS3505
ZBAA,2004-11-26 06:00,ZBAA 260600Z AUTO 22010KT 16SM 08/M14 A3024 RMK SLP243 T00831145 57033 IEM_DS3505
ZBAA,2004-11-26 07:00,ZBAA 260700Z AUTO 22008G21KT 6SM 09/M14 A3024 RMK T00901140 IEM_DS3505
ZBAA,2004-11-26 08:00,ZBAA 260800Z AUTO 21006KT 6SM 08/M13 A3024 RMK T00801130 IEM_DS3505
ZBAA,2004-11-26 09:00,ZBAA 260900Z AUTO 25008KT 12SM 06/M13 A3024 RMK SLP240 T00641131 57003 IEM_DS3505
ZBAA,2004-11-26 10:00,ZBAA 261000Z AUTO 21006KT 6SM 05/M11 A3024 RMK T00501110 IEM_DS3505
ZBAA,2004-11-26 11:00,ZBAA 261100Z AUTO 22006KT 6SM 05/M12 A3024 RMK T00501120 IEM_DS3505
ZBAA,2004-11-26 12:00,ZBAA 261200Z AUTO 18002KT 9SM 04/M12 A3027 RMK SLP251 T00371122 52010 IEM_DS3505
ZBAA,2004-11-26 13:00,ZBAA 261300Z AUTO 26008KT 5SM 06/M12 A3027 RMK T00601120 IEM_DS3505
ZBAA,2004-11-26 13:30,ZBAA 261330Z AUTO 26006KT 5SM 04/M11 A3027 RMK T00401110 IEM_DS3505
ZBAA,2004-11-26 14:00,ZBAA 261400Z AUTO 30012KT 6SM 07/M15 A3027 RMK T00701150 IEM_DS3505
ZBAA,2004-11-26 15:00,ZBAA 261500Z AUTO 25002KT 9SM 02/M10 A3027 RMK SLP252 T00151100 52002 IEM_DS3505
ZBAA,2004-11-26 16:00,ZBAA 261600Z AUTO 02004KT 6SM 02/M11 A3027 RMK T00201110 IEM_DS3505
ZBAA,2004-11-26 17:00,ZBAA 261700Z AUTO 35006KT 5SM M02/M10 A3027 RMK T10201100 IEM_DS3505
ZBAA,2004-11-26 18:00,ZBAA 261800Z AUTO 22002KT 9SM M01/M08 A3030 RMK SLP256 T10091083 52004 IEM_DS3505
ZBAA,2004-11-26 19:00,ZBAA 261900Z AUTO 32010KT 6SM 00/M13 A3030 RMK T00001130 IEM_DS3505
ZBAA,2004-11-26 20:00,ZBAA 262000Z AUTO 32008KT 6SM 04/M16 A3030 RMK T00401160 IEM_DS3505
ZBAA,2004-11-26 21:00,ZBAA 262100Z AUTO 02006KT 12SM 06/M19 A3027 RMK SLP248 T00581187 57008 IEM_DS3505
ZBAA,2004-11-26 22:00,ZBAA 262200Z AUTO 35008KT 6SM 02/M16 A3027 RMK T00201160 IEM_DS3505
ZBAA,2004-11-26 23:00,ZBAA 262300Z AUTO 36006KT 6SM 02/M15 A3030 RMK T00201150 IEM_DS3505
ZBAA,2004-11-27 00:00,ZBAA 270000Z AUTO 25002KT 16SM 03/M16 A3030 RMK SLP253 T00291156 52005 IEM_DS3505
ZBAA,2004-11-27 01:00,ZBAA 270100Z AUTO 04006KT 6SM 04/M12 A3030 RMK T00401120 IEM_DS3505
ZBAA,2004-11-27 02:00,ZBAA 270200Z AUTO 36008KT 6SM 07/M13 A3030 RMK T00701130 IEM_DS3505
ZBAA,2004-11-27 03:00,ZBAA 270300Z AUTO 32004G19KT 19SM 11/M18 A3027 RMK SLP251 T01091183 57002 IEM_DS3505
ZBAA,2004-11-27 04:00,ZBAA 270400Z AUTO 33010KT 6SM 13/M18 A3024 RMK T01301180 IEM_DS3505
ZBAA,2004-11-27 05:00,ZBAA 270500Z AUTO 33008KT 6SM 14/M18 A3021 RMK T01401180 IEM_DS3505
ZBAA,2004-11-27 06:00,ZBAA 270600Z AUTO 25008KT 19SM 12/M16 RMK SLP221 T01221162 57030 IEM_DS3505
ZBAA,2004-11-27 07:00,ZBAA 270700Z AUTO 30006KT 6SM 15/M19 A3015 RMK T01501190 IEM_DS3505
ZBAA,2004-11-27 08:00,ZBAA 270800Z AUTO 23006KT 6SM 12/M15 A3015 RMK T01201150 IEM_DS3505
ZBAA,2004-11-27 09:00,ZBAA 270900Z AUTO 22002KT 16SM 09/M14 A3015 RMK SLP215 T00861136 57005 IEM_DS3505
ZBAA,2004-11-27 10:00,ZBAA 271000Z AUTO 23004KT 5SM 07/M12 A3018 RMK T00701120 IEM_DS3505
ZBAA,2004-11-27 12:00,ZBAA 271200Z AUTO 27002KT 9SM 04/M10 A3018 RMK SLP223 T00401100 52007 IEM_DS3505
ZBAA,2004-11-27 13:00,ZBAA 271300Z AUTO 36002KT 2 1/2SM 03/M09 A3018 RMK T00301090 IEM_DS3505
ZBAA,2004-11-27 14:00,ZBAA 271400Z AUTO 09002KT 2 1/2SM 01/M08 A3021 RMK T00101080 IEM_DS3505
ZBAA,2004-11-27 15:00,ZBAA 271500Z AUTO 14002KT 6SM 01/M08 A3021 RMK SLP226 T00121080 52003 IEM_DS3505
ZBAA,2004-11-27 16:00,ZBAA 271600Z AUTO 35004KT 2 1/2SM M01/M10 A3021 RMK T10101100 IEM_DS3505
ZBAA,2004-11-27 17:00,ZBAA 271700Z AUTO 00000KT M02/M11 A3021 RMK T10201110 IEM_DS3505
ZBAA,2004-11-27 18:00,ZBAA 271800Z AUTO 09002KT 6SM M00/M07 A3021 RMK SLP230 T10051071 52004 IEM_DS3505
ZBAA,2004-11-27 19:00,ZBAA 271900Z AUTO 01002KT 6SM 00/M11 A3021 RMK T00001110 IEM_DS3505
ZBAA,2004-11-27 21:00,ZBAA 272100Z AUTO 18002KT 6SM M01/M08 A3021 RMK SLP231 T10091079 52001 IEM_DS3505
ZBAA,2004-11-27 22:00,ZBAA 272200Z AUTO 34006KT 6SM M04/M11 A3024 RMK T10401110 IEM_DS3505
ZBAA,2004-11-27 23:00,ZBAA 272300Z AUTO 35004KT 6SM M03/M11 A3027 RMK T10301110 IEM_DS3505
ZBAA,2004-11-28 00:00,ZBAA 280000Z AUTO 09004KT 7SM M01/M11 A3027 RMK SLP250 T10071111 52019 IEM_DS3505
ZBAA,2004-11-28 01:00,ZBAA 280100Z AUTO 36006KT 6SM 02/M10 A3030 RMK T00201100 IEM_DS3505
ZBAA,2004-11-28 02:00,ZBAA 280200Z AUTO 05002KT 6SM 05/M09 A3030 RMK T00501090 IEM_DS3505
ZBAA,2004-11-28 03:00,ZBAA 280300Z AUTO 07008KT 9SM 09/M13 A3030 RMK SLP257 T00881128 52007 IEM_DS3505
ZBAA,2004-11-28 04:00,ZBAA 280400Z AUTO 10006KT 6SM 09/M11 A3030 RMK T00901110 IEM_DS3505
ZBAA,2004-11-28 05:00,ZBAA 280500Z AUTO 12008KT 6SM 10/M13 A3027 RMK T01001130 IEM_DS3505
ZBAA,2004-11-28 06:00,ZBAA 280600Z AUTO 16006KT 11SM 10/M08 A3024 RMK SLP243 T00991077 57014 IEM_DS3505
ZBAA,2004-11-28 07:00,ZBAA 280700Z AUTO 13010KT 5SM 09/M06 A3024 RMK T00901060 IEM_DS3505
ZBAA,2004-11-28 08:00,ZBAA 280800Z AUTO 14006KT 08/M05 A3024 RMK T00801050 IEM_DS3505
ZBAA,2004-11-28 09:00,ZBAA 280900Z AUTO 14004KT 10SM 08/M02 A3027 RMK SLP245 T00751017 52002 IEM_DS3505
ZBAA,2004-11-28 10:00,ZBAA 281000Z AUTO 08002KT 05/M03 A3027 RMK T00501030 IEM_DS3505
ZBAA,2004-11-28 11:00,ZBAA 281100Z AUTO 13002KT 3SM 03/M04 A3030 RMK T00301040 IEM_DS3505
ZBAA,2004-11-28 12:00,ZBAA 281200Z AUTO 16006KT 7SM 05/M02 A3030 RMK SLP256 T00481025 52011 IEM_DS3505
ZBAA,2004-11-28 13:00,ZBAA 281300Z AUTO 13002KT 2 1/2SM 02/M01 A3030 RMK T00201010 IEM_DS3505
ZBAA,2004-11-28 14:00,ZBAA 281400Z AUTO 09002KT 2 1/2SM 03/M02 A3030 RMK T00301020 IEM_DS3505
ZBAA,2004-11-28 15:00,ZBAA 281500Z AUTO 14006KT 12SM 04/M03 A3033 RMK SLP260 T00421028 52004 IEM_DS3505
ZBAA,2004-11-28 16:00,ZBAA 281600Z AUTO 00000KT 5SM 02/M04 A3030 RMK T00201040 IEM_DS3505
ZBAA,2004-11-28 17:00,ZBAA 281700Z AUTO 00000KT 7SM 03/M04 A3030 RMK T00301040 IEM_DS3505
ZBAA,2004-11-28 18:00,ZBAA 281800Z AUTO 07004KT 12SM 03/M04 A3033 RMK SLP261 T00261037 52001 IEM_DS3505
ZBAA,2004-11-28 19:00,ZBAA 281900Z AUTO 19002KT 7SM 02/M05 A3033 RMK T00201050 IEM_DS3505
ZBAA,2004-11-28 20:00,ZBAA 282000Z AUTO 14004KT 7SM 02/M06 A3033 RMK T00201060 IEM_DS3505
ZBAA,2004-11-28 21:00,ZBAA 282100Z AUTO 04004KT 12SM 02/M05 A3030 RMK SLP259 T00201051 57002 IEM_DS3505
ZBAA,2004-11-28 22:00,ZBAA 282200Z AUTO 14006KT 7SM 02/M08 A3030 RMK T00201080 IEM_DS3505
ZBAA,2004-11-28 23:00,ZBAA 282300Z AUTO 13006KT 7SM 02/M07 A3030 RMK T00201070 IEM_DS3505
ZBAA,2004-11-29 00:00,ZBAA 290000Z AUTO 07004KT 12SM 02/M06 A3033 RMK SLP267 T00161062 52008 IEM_DS3505
ZBAA,2004-11-29 01:00,ZBAA 290100Z AUTO 14006KT 7SM 02/M06 A3036 RMK T00201060 IEM_DS3505
ZBAA,2004-11-29 02:00,ZBAA 290200Z AUTO 13006KT 7SM 01/M05 A3036 RMK T00101050 IEM_DS3505
ZBAA,2004-11-29 03:00,ZBAA 290300Z AUTO 09008KT 12SM 02/M05 A3036 RMK SLP272 T00251051 52005 IEM_DS3505
ZBAA,2004-11-29 04:00,ZBAA 290400Z AUTO 10004KT 6SM 03/M04 A3033 RMK T00301040 IEM_DS3505
ZBAA,2004-11-29 05:00,ZBAA 290500Z AUTO 13004KT 6SM 05/M05 A3030 RMK T00501050 IEM_DS3505
ZBAA,2004-11-29 06:00,ZBAA 290600Z AUTO 14004KT 12SM 05/M04 A3030 RMK SLP256 T00531045 57016 IEM_DS3505
ZBAA,2004-11-29 07:00,ZBAA 290700Z AUTO 18004KT 06/M04 A3030 RMK T00601040 IEM_DS3505
ZBAA,2004-11-29 08:00,ZBAA 290800Z AUTO 18004KT 3SM 05/M05 A3030 RMK T00501050 IEM_DS3505
ZBAA,2004-11-29 09:00,ZBAA 290900Z AUTO 20002KT 12SM 04/M04 A3030 RMK SLP261 T00431041 52005 IEM_DS3505
ZBAA,2004-11-29 10:00,ZBAA 291000Z AUTO 09004KT 3SM 02/M04 A3033 RMK T00201040 IEM_DS3505
ZBAA,2004-11-29 11:00,ZBAA 291100Z AUTO 11004KT 3SM 01/M04 A3033 RMK T00101040 IEM_DS3505
ZBAA,2004-11-29 12:00,ZBAA 291200Z AUTO 11002KT 7SM 01/M03 A3033 RMK SLP271 T00121031 52010 IEM_DS3505
ZBAA,2004-11-29 12:30,ZBAA 291230Z AUTO 13004KT 3SM 00/M04 A3036 RMK T00001040 IEM_DS3505
ZBAA,2004-11-29 13:00,ZBAA 291300Z AUTO 15002KT 2 1/2SM M01/M04 A3036 RMK T10101040 IEM_DS3505
ZBAA,2004-11-29 13:30,ZBAA 291330Z AUTO 15004KT 2 1/2SM M01/M04 A3036 RMK T10101040 IEM_DS3505
ZBAA,2004-11-29 14:00,ZBAA 291400Z AUTO 14002KT 2 1/2SM M01/M04 A3036 RMK T10101040 IEM_DS3505
ZBAA,2004-11-29 15:00,ZBAA 291500Z AUTO 11002KT 7SM 01/M04 A3039 RMK SLP284 T00081040 52013 IEM_DS3505
ZBAA,2004-11-29 16:00,ZBAA 291600Z AUTO 09002KT 2 1/2SM M02/M04 A3039 RMK T10201040 IEM_DS3505
ZBAA,2004-11-29 17:00,ZBAA 291700Z AUTO 10004KT 2 1/2SM M02/M04 A3039 RMK T10201040 IEM_DS3505
ZBAA,2004-11-29 18:00,ZBAA 291800Z AUTO 07004KT 7SM M01/M04 A3039 RMK SLP282 T10091041 57002 IEM_DS3505
ZBAA,2004-11-29 19:00,ZBAA 291900Z AUTO 07004KT 2 1/2SM M02/M04 A3036 RMK T10201040 IEM_DS3505
ZBAA,2004-11-29 20:00,ZBAA 292000Z AUTO 00000KT 2 1/2SM M02/M04 A3036 RMK T10201040 IEM_DS3505
ZBAA,2004-11-29 21:00,ZBAA 292100Z AUTO 07002KT 7SM M00/M04 A3036 RMK SLP278 T10031035 57004 IEM_DS3505
ZBAA,2004-11-29 22:00,ZBAA 292200Z AUTO 01002KT 2SM 00/M03 A3036 RMK T00001030 IEM_DS3505
ZBAA,2004-11-29 23:00,ZBAA 292300Z AUTO 35004KT 2SM A3039 RMK IEM_DS3505
ZBAA,2004-11-30 00:00,ZBAA 300000Z AUTO 07004KT 5SM M01/M04 A3039 RMK SLP287 T10061036 52008 IEM_DS3505
ZBAA,2004-11-30 01:00,ZBAA 300100Z AUTO 02002KT 2 1/2SM 00/M03 A3039 RMK T00001030 IEM_DS3505
ZBAA,2004-11-30 02:00,ZBAA 300200Z AUTO 02002KT 2 1/2SM 01/M03 A3039 RMK T00101030 IEM_DS3505
ZBAA,2004-11-30 03:00,ZBAA 300300Z AUTO 04004KT 2 1/2SM 02/M03 A3039 RMK SLP290 T00211030 52003 IEM_DS3505
ZBAA,2004-11-30 04:00,ZBAA 300400Z AUTO 2 1/2SM 04/M02 A3039 RMK T00401020 IEM_DS3505
ZBAA,2004-11-30 05:00,ZBAA 300500Z AUTO 14002KT 2SM 05/M01 A3036 RMK T00501010 IEM_DS3505
ZBAA,2004-11-30 06:00,ZBAA 300600Z AUTO 16004KT 3SM 06/M01 A3033 RMK SLP269 T00591012 57020 IEM_DS3505
ZBAA,2004-11-30 07:00,ZBAA 300700Z AUTO 13002KT 2SM 05/M01 A3033 RMK T00501010 IEM_DS3505
ZBAA,2004-11-30 08:00,ZBAA 300800Z AUTO 14004KT 1 1/2SM 05/M01 A3033 RMK T00501010 IEM_DS3505
ZBAA,2004-11-30 09:00,ZBAA 300900Z AUTO 22004KT 2 1/2SM 04/M00 A3036 RMK SLP274 T00431005 52005 IEM_DS3505
ZBAA,2004-11-30 10:00,ZBAA 301000Z AUTO 14002KT 1 1/4SM 02/M01 A3036 RMK T00201010 IEM_DS3505
ZBAA,2004-11-30 11:00,ZBAA 301100Z AUTO 02002KT 1 1/4SM 01/M01 A3039 RMK T00101010 IEM_DS3505
ZBAA,2004-11-30 12:00,ZBAA 301200Z AUTO 27002KT 2 1/2SM 02/M00 A3039 RMK SLP290 T00151004 52015 IEM_DS3505
ZBAA,2004-11-30 13:00,ZBAA 301300Z AUTO 36004KT 1 1/4SM 00/M01 A3039 RMK T00001010 IEM_DS3505
ZBAA,2004-11-30 14:00,ZBAA 301400Z AUTO 00000KT 1 1/4SM 00/M01 A3042 RMK T00001010 IEM_DS3505
ZBAA,2004-11-30 15:00,ZBAA 301500Z AUTO 22004KT 1/4SM M01/M01 A3042 RMK SLP303 T10081011 52013 IEM_DS3505
ZBAA,2004-11-30 16:00,ZBAA 301600Z AUTO 26002KT 1SM M01/M02 A3042 RMK T10101020 IEM_DS3505
ZBAA,2004-11-30 17:00,ZBAA 301700Z AUTO 00000KT 1SM M01/M02 A3042 RMK T10101020 IEM_DS3505
ZBAA,2004-11-30 18:00,ZBAA 301800Z AUTO 04004KT 1/8SM M00/M01 A3042 RMK SLP295 T10051008 57007 IEM_DS3505
ZBAA,2004-11-30 19:00,ZBAA 301900Z AUTO 34004KT 1 1/4SM M03/M04 A3042 RMK T10301040 IEM_DS3505
ZBAA,2004-11-30 20:00,ZBAA 302000Z AUTO 18006KT 1 1/4SM M04/M05 A3045 RMK T10401050 IEM_DS3505
ZBAA,2004-11-30 21:00,ZBAA 302100Z AUTO 22004KT 1/8SM M01/M01 A3045 RMK SLP309 T10091010 52013 IEM_DS3505
ZBAA,2004-11-30 23:00,ZBAA 302300Z AUTO 10002KT 1/8SM M05/M05 A3050 RMK T10501050 IEM_DS3505
ZBAA,2004-12-01 00:00,ZBAA 010000Z AUTO 00000KT 1/8SM M02/M02 A3053 RMK SLP333 T10181019 52024 IEM_DS3505
ZBAA,2004-12-01 01:00,ZBAA 010100Z AUTO 11002KT 1/8SM M03/M03 A3053 RMK T10301030 IEM_DS3505
ZBAA,2004-12-01 02:00,ZBAA 010200Z AUTO 1/8SM M03/M03 A3056 RMK T10301030 IEM_DS3505
ZBAA,2004-12-01 03:00,ZBAA 010300Z AUTO 02002KT 1/2SM M00/M00 A3056 RMK SLP341 T10021005 52008 IEM_DS3505
ZBAA,2004-12-01 04:00,ZBAA 010400Z AUTO 14002KT 1SM 00/00 A3053 RMK T00000000 IEM_DS3505
ZBAA,2004-12-01 05:00,ZBAA 010500Z AUTO 11002KT 1/2SM 00/00 A3050 RMK T00000000 IEM_DS3505
ZBAA,2004-12-01 06:00,ZBAA 010600Z AUTO 18006KT 2SM 03/M00 A3050 RMK SLP326 T00341002 57015 IEM_DS3505
ZBAA,2004-12-01 07:00,ZBAA 010700Z AUTO 15004KT 1/2SM 01/00 A3050 RMK T00100000 IEM_DS3505
ZBAA,2004-12-01 08:00,ZBAA 010800Z AUTO 09004KT 3/8SM 01/00 A3050 RMK T00100000 IEM_DS3505
ZBAA,2004-12-01 09:00,ZBAA 010900Z AUTO 11006KT 1SM 01/M01 A3053 RMK SLP339 T00081008 52013 IEM_DS3505
ZBAA,2004-12-01 10:00,ZBAA 011000Z AUTO 12004KT 1/4SM A3056 RMK IEM_DS3505
ZBAA,2004-12-01 11:00,ZBAA 011100Z AUTO 12002KT 3/8SM M01/M01 A3059 RMK T10101010 IEM_DS3505
ZBAA,2004-12-01 12:00,ZBAA 011200Z AUTO 11006KT 1SM 00/M01 A3059 RMK SLP358 T00021006 52019 IEM_DS3505
ZBAA,2004-12-01 13:00,ZBAA 011300Z AUTO 09002KT 3/8SM M01/M01 A3062 RMK T10101010 IEM_DS3505
ZBAA,2004-12-01 14:00,ZBAA 011400Z AUTO 12004KT 3/8SM M01/M01 A3062 RMK T10101010 IEM_DS3505
ZBAA,2004-12-01 15:00,ZBAA 011500Z AUTO 07002KT 1SM 00/M01 A3062 RMK SLP368 T00021008 52010 IEM_DS3505
ZBAA,2004-12-01 16:00,ZBAA 011600Z AUTO 00000KT 1/2SM 00/00 A3062 RMK T00000000 IEM_DS3505
ZBAA,2004-12-01 17:00,ZBAA 011700Z AUTO 01002KT 1/2SM 00/00 A3062 RMK T00000000 IEM_DS3505
ZBAA,2004-12-01 18:00,ZBAA 011800Z AUTO 07002KT 1SM 01/M00 A3062 RMK SLP369 T00061004 52001 IEM_DS3505
ZBAA,2004-12-01 19:00,ZBAA 011900Z AUTO 01002KT 1/2SM 00/00 A3062 RMK T00000000 IEM_DS3505
ZBAA,2004-12-01 20:00,ZBAA 012000Z AUTO 36002KT 1/2SM 00/00 A3062 RMK T00000000 IEM_DS3505
ZBAA,2004-12-01 21:00,ZBAA 012100Z AUTO 07004KT 1SM 01/01 A3062 RMK SLP371 T00140007 52002 IEM_DS3505
ZBAA,2004-12-01 23:00,ZBAA 012300Z AUTO 09002KT 1/2SM 01/01 A3062 RMK T00100010 IEM_DS3505
ZBAA,2004-12-02 00:00,ZBAA 020000Z AUTO 04004KT 1/4SM 02/01 A3065 RMK SLP373 T00200014 52002 IEM_DS3505
ZBAA,2004-12-02 01:00,ZBAA 020100Z AUTO 36002KT 3/8SM 02/02 A3065 RMK T00200020 IEM_DS3505
ZBAA,2004-12-02 02:00,ZBAA 020200Z AUTO 36004KT 3/8SM 02/02 A3065 RMK T00200020 IEM_DS3505
ZBAA,2004-12-02 03:00,ZBAA 020300Z AUTO 04004KT 1/2SM 03/02 A3062 RMK SLP370 T00310024 57003 IEM_DS3505
ZBAA,2004-12-02 04:00,ZBAA 020400Z AUTO 01002KT 1/2SM 04/02 A3059 RMK T00400020 IEM_DS3505
ZBAA,2004-12-02 05:00,ZBAA 020500Z AUTO 36004KT 1/2SM 04/02 A3056 RMK T00400020 IEM_DS3505
ZBAA,2004-12-02 06:00,ZBAA 020600Z AUTO 11002KT 1SM 04/02 A3053 RMK SLP341 T00450017 57029 IEM_DS3505
ZBAA,2004-12-02 07:00,ZBAA 020700Z AUTO 09002KT 1SM 05/03 A3053 RMK T00500030 IEM_DS3505
ZBAA,2004-12-02 08:00,ZBAA 020800Z AUTO 09002KT 1SM 04/02 A3053 RMK T00400020 IEM_DS3505
ZBAA,2004-12-02 09:00,ZBAA 020900Z AUTO 07004KT 1SM 04/02 A3053 RMK SLP337 T00440016 57004 IEM_DS3505
ZBAA,2004-12-02 10:00,ZBAA 021000Z AUTO 03002KT 1SM 04/03 A3053 RMK T00400030 IEM_DS3505
ZBAA,2004-12-02 11:00,ZBAA 021100Z AUTO 01002KT 1SM 04/02 A3053 RMK T00400020 IEM_DS3505
ZBAA,2004-12-02 12:00,ZBAA 021200Z AUTO 02002KT 1SM 05/03 A3050 RMK SLP328 T00500032 57008 IEM_DS3505
ZBAA,2004-12-02 13:00,ZBAA 021300Z AUTO 04002KT 1 1/4SM 04/03 A3050 RMK T00400030 IEM_DS3505
ZBAA,2004-12-02 14:00,ZBAA 021400Z AUTO 36004KT 1 1/4SM 04/03 A3047 RMK T00400030 IEM_DS3505
ZBAA,2004-12-02 15:00,ZBAA 021500Z AUTO 22002KT 1SM 05/03 A3047 RMK SLP316 T00510030 57012 IEM_DS3505
ZBAA,2004-12-02 16:00,ZBAA 021600Z AUTO 29002KT 1 1/4SM 05/03 A3045 RMK T00500030 IEM_DS3505
ZBAA,2004-12-02 17:00,ZBAA 021700Z AUTO 00000KT 1 1/4SM 04/03 A3042 RMK T00400030 IEM_DS3505
ZBAA,2004-12-02 18:00,ZBAA 021800Z AUTO 11002KT 1SM 05/03 A3039 RMK SLP289 T00480027 57027 IEM_DS3505
ZBAA,2004-12-02 19:00,ZBAA 021900Z AUTO 19004KT 1 1/4SM 04/03 A3039 RMK T00400030 IEM_DS3505
ZBAA,2004-12-02 20:00,ZBAA 022000Z AUTO 03002KT 1SM 04/03 A3036 RMK T00400030 IEM_DS3505
ZBAA,2004-12-02 21:00,ZBAA 022100Z AUTO 22004KT 3/8SM 04/04 A3033 RMK 70000 SLP269 T00440035 57020 IEM_DS3505
ZBAA,2004-12-02 22:00,ZBAA 022200Z AUTO 04002KT 1SM 04/03 A3033 RMK T00400030 IEM_DS3505
ZBAA,2004-12-02 23:00,ZBAA 022300Z AUTO 00000KT 1SM 04/03 A3033 RMK T00400030 IEM_DS3505
ZBAA,2004-12-03 00:00,ZBAA 030000Z AUTO 16002KT 1/2SM 05/04 A3033 RMK 70001 SLP264 T00480038 57005 IEM_DS3505
ZBAA,2004-12-03 01:00,ZBAA 030100Z AUTO 07002KT 3/8SM 04/04 A3030 RMK T00400040 IEM_DS3505
ZBAA,2004-12-03 02:00,ZBAA 030200Z AUTO 17002KT 3/8SM 05/04 A3030 RMK T00500040 IEM_DS3505
ZBAA,2004-12-03 03:00,ZBAA 030300Z AUTO 20002KT 1/2SM 05/04 A3027 RMK SLP248 T00530043 57016 IEM_DS3505
ZBAA,2004-12-03 04:00,ZBAA 030400Z AUTO 23002KT 1/2SM 05/05 A3024 RMK T00500050 IEM_DS3505
ZBAA,2004-12-03 05:00,ZBAA 030500Z AUTO 00000KT 1/2SM 06/05 A3021 RMK T00600050 IEM_DS3505
ZBAA,2004-12-03 06:00,ZBAA 030600Z AUTO 20004KT 1SM 06/04 A3018 RMK 60002 SLP218 T00630041 57030 IEM_DS3505
ZBAA,2004-12-03 07:00,ZBAA 030700Z AUTO 12002KT 1/2SM 06/05 A3018 RMK T00600050 IEM_DS3505
ZBAA,2004-12-03 08:00,ZBAA 030800Z AUTO 13002KT 1/2SM 06/05 A3018 RMK T00600050 IEM_DS3505
ZBAA,2004-12-03 09:00,ZBAA 030900Z AUTO 22002KT 1SM 05/04 A3018 RMK SLP216 T00530035 57002 IEM_DS3505
ZBAA,2004-12-03 10:00,ZBAA 031000Z AUTO 00000KT 1/2SM 06/05 A3018 RMK T00600050 IEM_DS3505
ZBAA,2004-12-03 11:00,ZBAA 031100Z AUTO 01004KT 1SM 05/04 A3018 RMK T00500040 IEM_DS3505
ZBAA,2004-12-03 12:00,ZBAA 031200Z AUTO 25004KT 1 1/4SM 05/03 A3018 RMK SLP217 T00460033 52001 IEM_DS3505
ZBAA,2004-12-03 13:00,ZBAA 031300Z AUTO 00000KT 1SM 04/04 A3018 RMK T00400040 IEM_DS3505
ZBAA,2004-12-03 14:00,ZBAA 031400Z AUTO 33002KT 1SM 04/03 A3015 RMK T00400030 IEM_DS3505
ZBAA,2004-12-03 15:00,ZBAA 031500Z AUTO 29002KT 1SM 03/02 A3015 RMK SLP206 T00340025 57011 IEM_DS3505
ZBAA,2004-12-03 16:00,ZBAA 031600Z AUTO 03002KT 1/2SM 03/03 A3012 RMK T00300030 IEM_DS3505
ZBAA,2004-12-03 17:00,ZBAA 031700Z AUTO 35004KT 1/2SM 02/02 A3012 RMK T00200020 IEM_DS3505
ZBAA,2004-12-03 18:00,ZBAA 031800Z AUTO 32006KT 16SM 09/M05 A3012 RMK SLP200 T00871051 57005 IEM_DS3505
ZBAA,2004-12-03 19:00,ZBAA 031900Z AUTO 31014KT 6SM 06/M01 A3015 RMK T00601010 IEM_DS3505
ZBAA,2004-12-03 20:00,ZBAA 032000Z AUTO 33010KT 6SM 06/M03 A3015 RMK T00601030 IEM_DS3505
ZBAA,2004-12-03 21:00,ZBAA 032100Z AUTO 34004KT 19SM 07/M07 A3015 RMK 70002 SLP205 T00701066 52005 IEM_DS3505
ZBAA,2004-12-03 22:00,ZBAA 032200Z AUTO 31017KT 6SM 06/M06 A3015 RMK T00601060 IEM_DS3505
ZBAA,2004-12-03 23:00,ZBAA 032300Z AUTO 31016KT 6SM 06/M06 A3015 RMK T00601060 IEM_DS3505
ZBAA,2004-12-04 00:00,ZBAA 040000Z AUTO 32008G29KT 19SM 06/M08 A3018 RMK 70002 SLP223 T00641075 52017 IEM_DS3505
ZBAA,2004-12-04 01:00,ZBAA 040100Z AUTO 32017G29KT 6SM 08/M08 A3018 RMK T00801080 IEM_DS3505
ZBAA,2004-12-04 02:00,ZBAA 040200Z AUTO 32017G27KT 6SM 09/M08 A3018 RMK T00901080 IEM_DS3505
ZBAA,2004-12-04 03:00,ZBAA 040300Z AUTO 32012G27KT 19SM 09/M09 A3018 RMK SLP219 T00901089 57004 IEM_DS3505
ZBAA,2004-12-04 04:00,ZBAA 040400Z AUTO 31017G27KT 6SM 11/M08 A3015 RMK T01101080 IEM_DS3505
ZBAA,2004-12-04 05:00,ZBAA 040500Z AUTO 32017G27KT 6SM 12/M08 A3012 RMK T01201080 IEM_DS3505
ZBAA,2004-12-04 06:00,ZBAA 040600Z AUTO 32012KT 19SM 10/M10 A3012 RMK SLP204 T00991102 57014 IEM_DS3505
ZBAA,2004-12-04 07:00,ZBAA 040700Z AUTO 32016G25KT 6SM 11/M09 A3015 RMK T01101090 IEM_DS3505
ZBAA,2004-12-04 08:00,ZBAA 040800Z AUTO 32016KT 6SM 09/M09 A3018 RMK T00901090 IEM_DS3505
ZBAA,2004-12-04 09:00,ZBAA 040900Z AUTO 34010G33KT 19SM 08/M11 A3018 RMK SLP221 T00851108 52017 IEM_DS3505
ZBAA,2004-12-04 10:00,ZBAA 041000Z AUTO 31016KT 6SM 07/M09 A3021 RMK T00701090 IEM_DS3505
ZBAA,2004-12-04 11:00,ZBAA 041100Z AUTO 31016KT 6SM 06/M09 A3024 RMK T00601090 IEM_DS3505
ZBAA,2004-12-04 12:00,ZBAA 041200Z AUTO 36010KT 19SM 06/M10 A3027 RMK SLP245 T00611105 52023 IEM_DS3505
ZBAA,2004-12-04 13:00,ZBAA 041300Z AUTO 31014KT 6SM 05/M09 A3027 RMK T00501090 IEM_DS3505
ZBAA,2004-12-04 14:00,ZBAA 041400Z AUTO 31012KT 6SM 04/M09 A3030 RMK T00401090 IEM_DS3505
ZBAA,2004-12-04 15:00,ZBAA 041500Z AUTO 36008KT 19SM 05/M11 A3030 RMK SLP256 T00501106 52011 IEM_DS3505
ZBAA,2004-12-04 16:00,ZBAA 041600Z AUTO 33008KT 6SM 03/M09 A3030 RMK T00301090 IEM_DS3505
ZBAA,2004-12-04 17:00,ZBAA 041700Z AUTO 33006KT 6SM 00/M09 A3030 RMK T00001090 IEM_DS3505
ZBAA,2004-12-04 18:00,ZBAA 041800Z AUTO 09006KT 19SM 03/M10 A3030 RMK SLP252 T00291096 57004 IEM_DS3505
ZBAA,2004-12-04 19:00,ZBAA 041900Z AUTO 01008KT 6SM 02/M09 A3030 RMK T00201090 IEM_DS3505
ZBAA,2004-12-04 20:00,ZBAA 042000Z AUTO 01006KT 6SM 02/M09 A3030 RMK T00201090 IEM_DS3505
ZBAA,2004-12-04 21:00,ZBAA 042100Z AUTO 09002KT 19SM 01/M09 A3030 RMK SLP258 T00061094 52006 IEM_DS3505
ZBAA,2004-12-04 22:00,ZBAA 042200Z AUTO 02004KT 6SM M01/M08 A3030 RMK T10101080 IEM_DS3505
ZBAA,2004-12-04 23:00,ZBAA 042300Z AUTO 03004KT 6SM 00/M08 A3033 RMK T00001080 IEM_DS3505
ZBAA,2004-12-05 00:00,ZBAA 050000Z AUTO 27002KT 16SM M01/M08 A3033 RMK SLP271 T10061082 52013 IEM_DS3505
ZBAA,2004-12-05 01:00,ZBAA 050100Z AUTO 36004KT 6SM 02/M07 A3036 RMK T00201070 IEM_DS3505
ZBAA,2004-12-05 02:00,ZBAA 050200Z AUTO 03004KT 6SM 04/M09 A3036 RMK T00401090 IEM_DS3505
ZBAA,2004-12-05 03:00,ZBAA 050300Z AUTO 20004KT 12SM 06/M10 A3036 RMK SLP277 T00561105 52006 IEM_DS3505
ZBAA,2004-12-05 04:00,ZBAA 050400Z AUTO 6SM 07/M09 A3033 RMK T00701090 IEM_DS3505
ZBAA,2004-12-05 05:00,ZBAA 050500Z AUTO 6SM 07/M09 A3030 RMK T00701090 IEM_DS3505
ZBAA,2004-12-05 06:00,ZBAA 050600Z AUTO 20006KT 12SM 07/M09 A3027 RMK SLP251 T00731091 57026 IEM_DS3505
ZBAA,2004-12-05 07:00,ZBAA 050700Z AUTO 21008KT 6SM 07/M09 A3027 RMK T00701090 IEM_DS3505
ZBAA,2004-12-05 08:00,ZBAA 050800Z AUTO 18006KT 6SM 06/M08 A3027 RMK T00601080 IEM_DS3505
ZBAA,2004-12-05 09:00,ZBAA 050900Z AUTO 18004KT 12SM 06/M08 A3027 RMK SLP249 T00571081 57002 IEM_DS3505
ZBAA,2004-12-05 10:00,ZBAA 051000Z AUTO 16004KT 6SM 03/M07 A3027 RMK T00301070 IEM_DS3505
ZBAA,2004-12-05 11:00,ZBAA 051100Z AUTO 16004KT 6SM 02/M07 A3027 RMK T00201070 IEM_DS3505
ZBAA,2004-12-05 12:00,ZBAA 051200Z AUTO 18006KT 16SM 04/M08 A3024 RMK SLP240 T00351076 57009 IEM_DS3505
ZBAA,2004-12-05 13:00,ZBAA 051300Z AUTO 15006KT 6SM 03/M06 A3024 RMK T00301060 IEM_DS3505
ZBAA,2004-12-05 14:00,ZBAA 051400Z AUTO 14004KT 6SM 01/M06 A3024 RMK T00101060 IEM_DS3505
ZBAA,2004-12-05 15:00,ZBAA 051500Z AUTO 22002KT 9SM 02/M06 A3024 RMK SLP237 T00181065 57003 IEM_DS3505
ZBAA,2004-12-05 16:00,ZBAA 051600Z AUTO 12002KT 6SM M01/M05 A3024 RMK T10101050 IEM_DS3505
ZBAA,2004-12-05 17:00,ZBAA 051700Z AUTO 07002KT 4SM M01/M05 A3021 RMK T10101050 IEM_DS3505
ZBAA,2004-12-05 18:00,ZBAA 051800Z AUTO 02002KT 9SM 01/M06 A3018 RMK SLP219 T00091059 57018 IEM_DS3505
ZBAA,2004-12-05 19:00,ZBAA 051900Z AUTO 03002KT 4SM A3018 RMK IEM_DS3505
ZBAA,2004-12-05 20:00,ZBAA 052000Z AUTO 02002KT 3SM A3015 RMK IEM_DS3505
ZBAA,2004-12-05 21:00,ZBAA 052100Z AUTO 07002KT 9SM 01/M05 A3015 RMK SLP211 T00091051 57008 IEM_DS3505
ZBAA,2004-12-05 22:00,ZBAA 052200Z AUTO 36004KT 4SM 00/M05 A3018 RMK T00001050 IEM_DS3505
ZBAA,2004-12-05 23:00,ZBAA 052300Z AUTO 01/M05 A3018 RMK T00101050 IEM_DS3505
ZBAA,2004-12-06 00:00,ZBAA 060000Z AUTO 29006KT 12SM 06/M06 A3021 RMK SLP229 T00561059 52018 IEM_DS3505
ZBAA,2004-12-06 01:00,ZBAA 060100Z AUTO 29014KT 3SM 07/M10 A3024 RMK T00701100 IEM_DS3505
ZBAA,2004-12-06 03:00,ZBAA 060300Z AUTO 32016G33KT 12SM 08/M11 A3027 RMK SLP255 T00781114 52026 IEM_DS3505
ZBAA,2004-12-06 04:00,ZBAA 060400Z AUTO 32029G43KT 6SM 08/M14 A3027 RMK T00801140 IEM_DS3505
ZBAA,2004-12-06 05:00,ZBAA 060500Z AUTO 33019G31KT 6SM 09/M14 A3030 RMK T00901140 IEM_DS3505
ZBAA,2004-12-06 06:00,ZBAA 060600Z AUTO 34014KT 19SM 08/M15 A3030 RMK SLP258 T00791149 52003 IEM_DS3505
ZBAA,2004-12-06 07:00,ZBAA 060700Z AUTO 29016G25KT 6SM 08/M12 A3030 RMK T00801120 IEM_DS3505
ZBAA,2004-12-06 08:00,ZBAA 060800Z AUTO 30014G25KT 6SM 08/M12 A3033 RMK T00801120 IEM_DS3505
ZBAA,2004-12-06 09:00,ZBAA 060900Z AUTO 34012KT 19SM 07/M16 A3036 RMK SLP278 T00681158 52020 IEM_DS3505
ZBAA,2004-12-06 10:00,ZBAA 061000Z AUTO 01006KT 6SM 05/M14 A3036 RMK T00501140 IEM_DS3505
ZBAA,2004-12-06 11:00,ZBAA 061100Z AUTO 33002KT 6SM 03/M14 A3036 RMK T00301140 IEM_DS3505
ZBAA,2004-12-06 12:00,ZBAA 061200Z AUTO 14006KT 19SM 04/M14 A3039 RMK SLP283 T00421135 52005 IEM_DS3505
ZBAA,2004-12-06 13:00,ZBAA 061300Z AUTO 06002KT 6SM 01/M11 A3039 RMK T00101110 IEM_DS3505
ZBAA,2004-12-06 14:00,ZBAA 061400Z AUTO 20004KT 6SM 01/M12 A3039 RMK T00101120 IEM_DS3505
ZBAA,2004-12-06 15:00,ZBAA 061500Z AUTO 22002KT 12SM 01/M12 A3036 RMK SLP283 T00091117 54000 IEM_DS3505
ZBAA,2004-12-06 16:00,ZBAA 061600Z AUTO 20006KT 6SM 00/M12 A3036 RMK T00001120 IEM_DS3505
ZBAA,2004-12-06 17:00,ZBAA 061700Z AUTO 13004KT 6SM 00/M09 A3033 RMK T00001090 IEM_DS3505
ZBAA,2004-12-06 18:00,ZBAA 061800Z AUTO 25002KT 19SM M00/M11 A3033 RMK SLP267 T10011108 57016 IEM_DS3505
ZBAA,2004-12-06 19:00,ZBAA 061900Z AUTO 05002KT 6SM M03/M10 A3033 RMK T10301100 IEM_DS3505
ZBAA,2004-12-06 20:00,ZBAA 062000Z AUTO 06004KT 6SM M04/M09 A3030 RMK T10401090 IEM_DS3505
ZBAA,2004-12-06 21:00,ZBAA 062100Z AUTO 20002KT 16SM M01/M11 A3027 RMK SLP252 T10131106 57015 IEM_DS3505
ZBAA,2004-12-06 22:00,ZBAA 062200Z AUTO 36002KT 6SM M04/M09 A3027 RMK T10401090 IEM_DS3505
ZBAA,2004-12-06 23:00,ZBAA 062300Z AUTO 4SM M05/M10 A3027 RMK T10501100 IEM_DS3505
ZBAA,2004-12-07 00:00,ZBAA 070000Z AUTO 29002KT 6SM M02/M09 A3027 RMK SLP252 T10201089 54000 IEM_DS3505
ZBAA,2004-12-07 01:00,ZBAA 070100Z AUTO 03002KT 3SM M02/M08 A3030 RMK T10201080 IEM_DS3505
ZBAA,2004-12-07 02:00,ZBAA 070200Z AUTO 06002KT 3SM 01/M08 A3030 RMK T00101080 IEM_DS3505
ZBAA,2004-12-07 03:00,ZBAA 070300Z AUTO 11004KT 6SM 06/M10 A3027 RMK SLP244 T00561097 57008 IEM_DS3505
ZBAA,2004-12-07 04:00,ZBAA 070400Z AUTO 15004KT 06/M09 A3024 RMK T00601090 IEM_DS3505
ZBAA,2004-12-07 05:00,ZBAA 070500Z AUTO 23004KT 08/M09 A3021 RMK T00801090 IEM_DS3505
ZBAA,2004-12-07 06:00,ZBAA 070600Z AUTO 14004KT 6SM 09/M10 A3018 RMK SLP218 T00941101 57026 IEM_DS3505
ZBAA,2004-12-07 07:00,ZBAA 070700Z AUTO 17006KT 3SM 09/M08 A3015 RMK T00901080 IEM_DS3505
ZBAA,2004-12-07 08:00,ZBAA 070800Z AUTO 13004KT 3SM 08/M07 A3015 RMK T00801070 IEM_DS3505
ZBAA,2004-12-07 09:00,ZBAA 070900Z AUTO 16002KT 9SM 07/M11 A3018 RMK SLP218 T00731109 54000 IEM_DS3505
ZBAA,2004-12-07 10:00,ZBAA 071000Z AUTO 18008KT 3SM 03/M07 A3018 RMK T00301070 IEM_DS3505
ZBAA,2004-12-07 11:00,ZBAA 071100Z AUTO 17006KT 2 1/2SM 04/M07 A3018 RMK T00401070 IEM_DS3505
ZBAA,2004-12-07 12:00,ZBAA 071200Z AUTO 18002KT 6SM 04/M10 A3018 RMK SLP220 T00441097 52002 IEM_DS3505
ZBAA,2004-12-07 13:00,ZBAA 071300Z AUTO 05002KT 2 1/2SM 01/M06 A3021 RMK T00101060 IEM_DS3505
ZBAA,2004-12-07 14:00,ZBAA 071400Z AUTO 2 1/2SM M01/M06 A3021 RMK T10101060 IEM_DS3505
ZBAA,2004-12-07 15:00,ZBAA 071500Z AUTO 04002KT 6SM 02/M07 A3021 RMK SLP224 T00161071 52004 IEM_DS3505
ZBAA,2004-12-07 16:00,ZBAA 071600Z AUTO 36002KT 2SM M02/M06 A3021 RMK T10201060 IEM_DS3505
ZBAA,2004-12-07 17:00,ZBAA 071700Z AUTO 34004KT 2SM M03/M07 A3021 RMK T10301070 IEM_DS3505
ZBAA,2004-12-07 18:00,ZBAA 071800Z AUTO 04004KT 6SM 00/M06 A3021 RMK SLP223 T00021062 57001 IEM_DS3505
ZBAA,2004-12-07 19:00,ZBAA 071900Z AUTO 33004KT 2SM M03/M08 A3021 RMK T10301080 IEM_DS3505
ZBAA,2004-12-07 20:00,ZBAA 072000Z AUTO 35006KT 2SM M02/M06 A3018 RMK T10201060 IEM_DS3505
ZBAA,2004-12-07 21:00,ZBAA 072100Z AUTO 11002KT 7SM M00/M07 A3018 RMK SLP223 T10051073 54000 IEM_DS3505
ZBAA,2004-12-07 22:00,ZBAA 072200Z AUTO 26002KT 2 1/2SM M03/M07 A3021 RMK T10301070 IEM_DS3505
ZBAA,2004-12-07 23:00,ZBAA 072300Z AUTO 35004KT 3SM M02/M07 A3021 RMK T10201070 IEM_DS3505
ZBAA,2004-12-08 00:00,ZBAA 080000Z AUTO 07002KT 6SM M00/M07 A3024 RMK SLP233 T10021072 52010 IEM_DS3505
ZBAA,2004-12-08 01:00,ZBAA 080100Z AUTO 02002KT 3SM M01/M06 A3024 RMK T10101060 IEM_DS3505
ZBAA,2004-12-08 02:00,ZBAA 080200Z AUTO 31004KT 3SM 03/M05 A3024 RMK T00301050 IEM_DS3505
ZBAA,2004-12-08 03:00,ZBAA 080300Z AUTO 09004KT 4SM 05/M06 A3024 RMK SLP240 T00491063 52007 IEM_DS3505
ZBAA,2004-12-08 04:00,ZBAA 080400Z AUTO 2 1/2SM 06/M07 A3021 RMK T00601070 IEM_DS3505
ZBAA,2004-12-08 05:00,ZBAA 080500Z AUTO 07002KT 2SM 06/M06 A3018 RMK T00601060 IEM_DS3505
ZBAA,2004-12-08 06:00,ZBAA 080600Z AUTO 07004KT 4SM 07/M04 A3015 RMK SLP207 T00661041 57033 IEM_DS3505
ZBAA,2004-12-08 07:00,ZBAA 080700Z AUTO 11004KT 2SM 07/M04 A3012 RMK T00701040 IEM_DS3505
ZBAA,2004-12-08 08:00,ZBAA 080800Z AUTO 10002KT 2SM 06/M03 A3015 RMK T00601030 IEM_DS3505
ZBAA,2004-12-08 09:00,ZBAA 080900Z AUTO 04004KT 4SM 05/M03 A3015 RMK SLP204 T00521031 57003 IEM_DS3505
ZBAA,2004-12-08 10:00,ZBAA 081000Z AUTO 03002KT 2SM 03/M03 A3015 RMK T00301030 IEM_DS3505
ZBAA,2004-12-08 11:00,ZBAA 081100Z AUTO 36002KT 2SM 03/M02 A3015 RMK T00301020 IEM_DS3505
ZBAA,2004-12-08 12:00,ZBAA 081200Z AUTO 07004KT 3SM 03/M02 A3015 RMK SLP209 T00291020 52005 IEM_DS3505
ZBAA,2004-12-08 13:00,ZBAA 081300Z AUTO 03002KT 2SM 02/M05 A3015 RMK T00201050 IEM_DS3505
ZBAA,2004-12-08 14:00,ZBAA 081400Z AUTO 01002KT 2SM 01/M04 A3015 RMK T00101040 IEM_DS3505
ZBAA,2004-12-08 15:00,ZBAA 081500Z AUTO 04004KT 3SM 01/M00 A3015 RMK SLP205 T00141005 57004 IEM_DS3505
ZBAA,2004-12-08 16:00,ZBAA 081600Z AUTO 01002KT 1 1/4SM 00/M01 A3012 RMK T00001010 IEM_DS3505
ZBAA,2004-12-08 17:00,ZBAA 081700Z AUTO 28002KT 1SM A3012 RMK IEM_DS3505
ZBAA,2004-12-08 18:00,ZBAA 081800Z AUTO 04004KT 1SM 01/01 A3012 RMK SLP192 T00140007 57013 IEM_DS3505
ZBAA,2004-12-08 19:00,ZBAA 081900Z AUTO 33002KT 1SM A3009 RMK IEM_DS3505
ZBAA,2004-12-08 20:00,ZBAA 082000Z AUTO 00000KT 1SM 00/M01 A3009 RMK T00001010 IEM_DS3505
ZBAA,2004-12-08 21:00,ZBAA 082100Z AUTO 04004KT 1 1/4SM 02/01 A3006 RMK SLP176 T00220009 57016 IEM_DS3505
ZBAA,2004-12-08 22:00,ZBAA 082200Z AUTO 27004KT 1SM 00/M01 A3006 RMK T00001010 IEM_DS3505
ZBAA,2004-12-08 23:00,ZBAA 082300Z AUTO 05002KT 1SM 01/M01 A3006 RMK T00101010 IEM_DS3505
ZBAA,2004-12-09 00:00,ZBAA 090000Z AUTO 07004KT 1 1/4SM 02/00 A3009 RMK SLP188 T00240005 52012 IEM_DS3505
ZBAA,2004-12-09 01:00,ZBAA 090100Z AUTO 36004KT 1SM 00/M01 A3009 RMK T00001010 IEM_DS3505
ZBAA,2004-12-09 02:00,ZBAA 090200Z AUTO 1SM 03/00 A3012 RMK T00300000 IEM_DS3505
ZBAA,2004-12-09 03:00,ZBAA 090300Z AUTO 22002KT 3SM 06/01 A3009 RMK SLP191 T00550011 52003 IEM_DS3505
ZBAA,2004-12-09 04:00,ZBAA 090400Z AUTO 31004KT 1 1/4SM 06/00 A3009 RMK T00600000 IEM_DS3505
ZBAA,2004-12-09 05:00,ZBAA 090500Z AUTO 36004KT 2 1/2SM 09/M01 A3006 RMK T00901010 IEM_DS3505
ZBAA,2004-12-09 06:00,ZBAA 090600Z AUTO 32010G27KT 6SM 12/M10 A3006 RMK SLP184 T01181097 57006 IEM_DS3505
ZBAA,2004-12-09 07:00,ZBAA 090700Z AUTO 30016G25KT 6SM 12/M08 A3009 RMK T01201080 IEM_DS3505
ZBAA,2004-12-09 08:00,ZBAA 090800Z AUTO 31019KT 6SM 11/M08 A3012 RMK T01101080 IEM_DS3505
ZBAA,2004-12-09 09:00,ZBAA 090900Z AUTO 32008KT 7SM 11/M10 A3015 RMK SLP211 T01081100 52027 IEM_DS3505
ZBAA,2004-12-09 10:00,ZBAA 091000Z AUTO 29010KT 6SM 09/M09 A3018 RMK T00901090 IEM_DS3505
ZBAA,2004-12-09 11:00,ZBAA 091100Z AUTO 29006KT 6SM 08/M09 A3021 RMK T00801090 IEM_DS3505
ZBAA,2004-12-09 12:00,ZBAA 091200Z AUTO 32006KT 12SM 09/M10 A3024 RMK SLP243 T00891105 52031 IEM_DS3505
ZBAA,2004-12-09 13:00,ZBAA 091300Z AUTO 30008KT 6SM 08/M08 A3027 RMK T00801080 IEM_DS3505
ZBAA,2004-12-09 14:00,ZBAA 091400Z AUTO 29010KT 6SM 08/M09 A3027 RMK T00801090 IEM_DS3505
ZBAA,2004-12-09 15:00,ZBAA 091500Z AUTO 34004KT 12SM 07/M09 A3030 RMK SLP258 T00721087 52015 IEM_DS3505
ZBAA,2004-12-09 16:00,ZBAA 091600Z AUTO 28006KT 6SM 05/M09 A3030 RMK T00501090 IEM_DS3505
ZBAA,2004-12-09 17:00,ZBAA 091700Z AUTO 30006KT 6SM 06/M08 A3033 RMK T00601080 IEM_DS3505
ZBAA,2004-12-09 18:00,ZBAA 091800Z AUTO 27004KT 19SM 04/M08 A3033 RMK SLP267 T00451079 52010 IEM_DS3505
ZBAA,2004-12-09 21:00,ZBAA 092100Z AUTO 27002KT 19SM 01/M05 A3033 RMK SLP271 T00061050 52003 IEM_DS3505
ZBAA,2004-12-09 22:00,ZBAA 092200Z AUTO 29006KT 6SM 05/M11 A3036 RMK T00501110 IEM_DS3505
ZBAA,2004-12-09 23:00,ZBAA 092300Z AUTO 28006KT 6SM 04/M11 A3036 RMK T00401110 IEM_DS3505
ZBAA,2004-12-10 00:00,ZBAA 100000Z AUTO 27002KT 7SM M00/M06 A3039 RMK SLP290 T10011055 52019 IEM_DS3505
ZBAA,2004-12-10 01:00,ZBAA 100100Z AUTO 32006KT 5SM 06/M09 A3042 RMK T00601090 IEM_DS3505
ZBAA,2004-12-10 02:00,ZBAA 100200Z AUTO 02004KT 5SM 06/M09 A3042 RMK T00601090 IEM_DS3505
ZBAA,2004-12-10 03:00,ZBAA 100300Z AUTO 09008KT 6SM 09/M10 A3042 RMK SLP294 T00911098 52004 IEM_DS3505
ZBAA,2004-12-10 04:00,ZBAA 100400Z AUTO 14004KT 6SM 10/M11 A3039 RMK T01001110 IEM_DS3505
ZBAA,2004-12-10 05:00,ZBAA 100500Z AUTO 15006KT 6SM 11/M11 A3036 RMK T01101110 IEM_DS3505
ZBAA,2004-12-10 06:00,ZBAA 100600Z AUTO 14004KT 9SM 11/M13 A3033 RMK SLP272 T01061126 57022 IEM_DS3505
ZBAA,2004-12-10 07:00,ZBAA 100700Z AUTO 15008KT 6SM 10/M10 A3033 RMK T01001100 IEM_DS3505
ZBAA,2004-12-10 08:00,ZBAA 100800Z AUTO 16008KT 6SM 09/M06 A3033 RMK T00901060 IEM_DS3505
ZBAA,2004-12-10 11:00,ZBAA 101100Z AUTO 15002KT 2 1/2SM 05/M05 A3036 RMK T00501050 IEM_DS3505
ZBAA,2004-12-10 12:00,ZBAA 101200Z AUTO 11002KT 6SM 03/M06 A3039 RMK SLP285 T00301064 52011 IEM_DS3505
ZBAA,2004-12-10 13:00,ZBAA 101300Z AUTO 09004KT 2 1/2SM 02/M05 A3039 RMK T00201050 IEM_DS3505
ZBAA,2004-12-10 14:00,ZBAA 101400Z AUTO 10004KT 2SM 01/M05 A3039 RMK T00101050 IEM_DS3505
ZBAA,2004-12-10 15:00,ZBAA 101500Z AUTO 34002KT 6SM 01/M06 A3039 RMK SLP284 T00091057 54000 IEM_DS3505
ZBAA,2004-12-10 16:00,ZBAA 101600Z AUTO 10004KT 2SM 00/M05 A3039 RMK T00001050 IEM_DS3505
ZBAA,2004-12-10 17:00,ZBAA 101700Z AUTO 08002KT 2SM M01/M05 A3036 RMK T10101050 IEM_DS3505
ZBAA,2004-12-10 18:00,ZBAA 101800Z AUTO 07004KT 5SM M00/M06 A3036 RMK SLP278 T10041056 57006 IEM_DS3505
ZBAA,2004-12-10 19:00,ZBAA 101900Z AUTO 06002KT 1 1/2SM M01/M05 A3036 RMK T10101050 IEM_DS3505
ZBAA,2004-12-10 20:00,ZBAA 102000Z AUTO 34002KT 2SM M03/M05 A3033 RMK T10301050 IEM_DS3505
ZBAA,2004-12-10 21:00,ZBAA 102100Z AUTO 04004KT 4SM M01/M05 A3033 RMK SLP265 T10081048 57013 IEM_DS3505
ZBAA,2004-12-10 22:00,ZBAA 102200Z AUTO 01002KT 1 1/2SM M03/M06 A3033 RMK T10301060 IEM_DS3505
ZBAA,2004-12-10 23:00,ZBAA 102300Z AUTO 04002KT 1 1/2SM M03/M06 A3033 RMK T10301060 IEM_DS3505
ZBAA,2004-12-11 00:00,ZBAA 110000Z AUTO 04004KT 4SM M01/M04 A3033 RMK SLP266 T10071042 52001 IEM_DS3505
ZBAA,2004-12-11 01:00,ZBAA 110100Z AUTO 36002KT 1 1/2SM M01/M04 A3033 RMK T10101040 IEM_DS3505
ZBAA,2004-12-11 02:00,ZBAA 110200Z AUTO 36004KT 1 1/2SM 01/M03 A3036 RMK T00101030 IEM_DS3505
ZBAA,2004-12-11 03:00,ZBAA 110300Z AUTO 04006KT 5SM 02/M02 A3033 RMK SLP264 T00221017 57002 IEM_DS3505
ZBAA,2004-12-11 04:00,ZBAA 110400Z AUTO 01002KT 2SM 04/M02 A3030 RMK T00401020 IEM_DS3505
ZBAA,2004-12-11 05:00,ZBAA 110500Z AUTO 07002KT 2SM 06/M02 A3027 RMK T00601020 IEM_DS3505
ZBAA,2004-12-11 06:00,ZBAA 110600Z AUTO 09004KT 7SM 05/M02 A3024 RMK SLP241 T00541015 57023 IEM_DS3505
ZBAA,2004-12-11 07:00,ZBAA 110700Z AUTO 00000KT 2SM 06/M02 A3024 RMK T00601020 IEM_DS3505
ZBAA,2004-12-11 08:00,ZBAA 110800Z AUTO 14002KT 2SM 05/M01 A3027 RMK T00501010 IEM_DS3505
ZBAA,2004-12-11 09:00,ZBAA 110900Z AUTO 25002KT 4SM 03/M01 A3027 RMK SLP253 T00341011 52012 IEM_DS3505
ZBAA,2004-12-11 10:00,ZBAA 111000Z AUTO 00000KT 1 1/2SM 02/M02 A3030 RMK T00201020 IEM_DS3505
ZBAA,2004-12-11 11:00,ZBAA 111100Z AUTO 01002KT 1 1/4SM 00/M02 A3033 RMK T00001020 IEM_DS3505
ZBAA,2004-12-11 12:00,ZBAA 111200Z AUTO 00000KT 4SM 01/M02 A3036 RMK SLP274 T00091016 52020 IEM_DS3505
ZBAA,2004-12-11 13:00,ZBAA 111300Z AUTO 36004KT 1SM 01/M02 A3036 RMK T00101020 IEM_DS3505
ZBAA,2004-12-11 14:00,ZBAA 111400Z AUTO 32002KT 1SM 00/M03 A3039 RMK T00001030 IEM_DS3505
ZBAA,2004-12-11 15:00,ZBAA 111500Z AUTO 00000KT 2 1/2SM 00/M01 A3039 RMK SLP286 T00001014 52012 IEM_DS3505
ZBAA,2004-12-11 16:00,ZBAA 111600Z AUTO 35006KT 1 1/2SM M01/M05 A3039 RMK T10101050 IEM_DS3505
ZBAA,2004-12-11 17:00,ZBAA 111700Z AUTO 32004KT 1 1/2SM M02/M05 A3039 RMK T10201050 IEM_DS3505
ZBAA,2004-12-11 18:00,ZBAA 111800Z AUTO 36004KT 12SM 03/M08 A3042 RMK SLP297 T00311079 52012 IEM_DS3505
ZBAA,2004-12-11 19:00,ZBAA 111900Z AUTO 35006KT 4SM 00/M05 A3045 RMK T00001050 IEM_DS3505
ZBAA,2004-12-11 20:00,ZBAA 112000Z AUTO 34004KT 4SM M04/M07 A3045 RMK T10401070 IEM_DS3505
ZBAA,2004-12-11 21:00,ZBAA 112100Z AUTO 11002KT 12SM 01/M11 A3045 RMK SLP307 T00071113 52009 IEM_DS3505
ZBAA,2004-12-11 22:00,ZBAA 112200Z AUTO 02006KT 6SM M01/M08 A3045 RMK T10101080 IEM_DS3505
ZBAA,2004-12-11 23:00,ZBAA 112300Z AUTO 01006KT 6SM M01/M09 A3047 RMK T10101090 IEM_DS3505
ZBAA,2004-12-12 00:00,ZBAA 120000Z AUTO 34006KT 19SM 02/M13 A3050 RMK SLP328 T00241133 52021 IEM_DS3505
ZBAA,2004-12-12 01:00,ZBAA 120100Z AUTO 36004KT 6SM 01/M07 A3053 RMK T00101070 IEM_DS3505
ZBAA,2004-12-12 02:00,ZBAA 120200Z AUTO 02004KT 6SM 04/M10 A3053 RMK T00401100 IEM_DS3505
ZBAA,2004-12-12 03:00,ZBAA 120300Z AUTO 04008KT 19SM 05/M15 A3053 RMK SLP328 T00531152 54000 IEM_DS3505
ZBAA,2004-12-12 04:00,ZBAA 120400Z AUTO 02006KT 6SM 06/M13 A3047 RMK T00601130 IEM_DS3505
ZBAA,2004-12-12 05:00,ZBAA 120500Z AUTO 04004KT 6SM 06/M16 A3045 RMK T00601160 IEM_DS3505
ZBAA,2004-12-12 06:00,ZBAA 120600Z AUTO 09004KT 19SM 07/M16 A3042 RMK SLP301 T00671158 57026 IEM_DS3505
ZBAA,2004-12-12 07:00,ZBAA 120700Z AUTO 10004KT 6SM 07/M15 A3042 RMK T00701150 IEM_DS3505
ZBAA,2004-12-12 08:00,ZBAA 120800Z AUTO 16004KT 6SM 05/M15 A3042 RMK T00501150 IEM_DS3505
ZBAA,2004-12-12 09:00,ZBAA 120900Z AUTO 20004KT 19SM 05/M14 A3042 RMK SLP299 T00521141 57002 IEM_DS3505
ZBAA,2004-12-12 10:00,ZBAA 121000Z AUTO 17006KT 6SM 02/M13 A3042 RMK T00201130 IEM_DS3505
ZBAA,2004-12-12 11:00,ZBAA 121100Z AUTO 15002KT 6SM 01/M12 A3042 RMK T00101120 IEM_DS3505
ZBAA,2004-12-12 12:00,ZBAA 121200Z AUTO 16004KT 12SM 03/M14 A3042 RMK SLP298 T00301136 57001 IEM_DS3505
ZBAA,2004-12-12 12:30,ZBAA 121230Z AUTO 14004KT 6SM M01/M12 A3042 RMK T10101120 IEM_DS3505
ZBAA,2004-12-12 13:00,ZBAA 121300Z AUTO 14002KT 6SM M01/M12 A3042 RMK T10101120 IEM_DS3505
ZBAA,2004-12-12 14:00,ZBAA 121400Z AUTO 13002KT 6SM M01/M11 A3042 RMK T10101110 IEM_DS3505
ZBAA,2004-12-12 15:00,ZBAA 121500Z AUTO 22002KT 12SM 01/M10 A3042 RMK SLP293 T00061096 57005 IEM_DS3505
ZBAA,2004-12-12 16:00,ZBAA 121600Z AUTO 08002KT 6SM M02/M11 A3039 RMK T10201110 IEM_DS3505
ZBAA,2004-12-12 17:00,ZBAA 121700Z AUTO 06002KT M02/M11 A3039 RMK T10201110 IEM_DS3505
ZBAA,2004-12-12 18:00,ZBAA 121800Z AUTO 11002KT 12SM M02/M08 A3039 RMK SLP284 T10151082 57009 IEM_DS3505
ZBAA,2004-12-12 19:00,ZBAA 121900Z AUTO 10004KT M02/M10 A3039 RMK T10201100 IEM_DS3505
ZBAA,2004-12-12 20:00,ZBAA 122000Z AUTO 05002KT M03/M09 A3036 RMK T10301090 IEM_DS3505
ZBAA,2004-12-12 21:00,ZBAA 122100Z AUTO 02002KT 4SM A3033 RMK IEM_DS3505
ZBAA,2004-12-12 22:00,ZBAA 122200Z AUTO 35004KT 3SM M05/M10 A3033 RMK T10501100 IEM_DS3505
ZBAA,2004-12-12 23:00,ZBAA 122300Z AUTO 34004KT M04/M10 A3033 RMK T10401100 IEM_DS3505
ZBAA,2004-12-13 00:00,ZBAA 130000Z AUTO 34004KT 3SM A3033 RMK IEM_DS3505
ZBAA,2004-12-13 01:00,ZBAA 130100Z AUTO 35004KT M01/M08 A3033 RMK T10101080 IEM_DS3505
ZBAA,2004-12-13 02:00,ZBAA 130200Z AUTO 35006KT 00/M08 A3033 RMK T00001080 IEM_DS3505
ZBAA,2004-12-13 03:00,ZBAA 130300Z AUTO 02004KT 7SM 02/M10 A3030 RMK SLP257 T00251100 57010 IEM_DS3505
ZBAA,2004-12-13 04:00,ZBAA 130400Z AUTO 01004KT 03/M07 A3027 RMK T00301070 IEM_DS3505
ZBAA,2004-12-13 05:00,ZBAA 130500Z AUTO 01002KT 04/M07 A3021 RMK T00401070 IEM_DS3505
ZBAA,2004-12-13 06:00,ZBAA 130600Z AUTO 09004KT 7SM 05/M08 A3018 RMK SLP220 T00461075 57037 IEM_DS3505
ZBAA,2004-12-13 07:00,ZBAA 130700Z AUTO 19002KT 05/M05 A3018 RMK T00501050 IEM_DS3505
ZBAA,2004-12-13 08:00,ZBAA 130800Z AUTO 17004KT 04/M05 A3015 RMK T00401050 IEM_DS3505
ZBAA,2004-12-13 09:00,ZBAA 130900Z AUTO 22002KT 7SM 03/M05 A3015 RMK SLP213 T00281046 57007 IEM_DS3505
ZBAA,2004-12-13 10:00,ZBAA 131000Z AUTO 18002KT 2 1/2SM 01/M05 A3018 RMK T00101050 IEM_DS3505
ZBAA,2004-12-13 11:00,ZBAA 131100Z AUTO 17002KT 2 1/2SM 01/M04 A3018 RMK T00101040 IEM_DS3505
ZBAA,2004-12-13 12:00,ZBAA 131200Z AUTO 22004KT 6SM 01/M04 A3018 RMK SLP219 T00061038 52005 IEM_DS3505
ZBAA,2004-12-13 13:00,ZBAA 131300Z AUTO 14002KT 2SM 00/M04 A3018 RMK T00001040 IEM_DS3505
ZBAA,2004-12-13 14:00,ZBAA 131400Z AUTO 11002KT 1 1/4SM M01/M04 A3018 RMK T10101040 IEM_DS3505
ZBAA,2004-12-13 15:00,ZBAA 131500Z AUTO 16002KT 5SM M01/M03 A3018 RMK SLP214 T10061033 57004 IEM_DS3505
ZBAA,2004-12-13 16:00,ZBAA 131600Z AUTO 09002KT 1SM M02/M03 A3018 RMK T10201030 IEM_DS3505
ZBAA,2004-12-13 17:00,ZBAA 131700Z AUTO 10002KT 1SM M02/M03 A3018 RMK T10201030 IEM_DS3505
ZBAA,2004-12-13 18:00,ZBAA 131800Z AUTO 18002KT 4SM M02/M03 A3018 RMK SLP214 T10171034 54000 IEM_DS3505
ZBAA,2004-12-13 19:00,ZBAA 131900Z AUTO 08002KT 1/2SM M02/M03 A3018 RMK T10201030 IEM_DS3505
ZBAA,2004-12-13 20:00,ZBAA 132000Z AUTO 04002KT 1/2SM M02/M03 A3015 RMK T10201030 IEM_DS3505
ZBAA,2004-12-13 21:00,ZBAA 132100Z AUTO 20002KT 2SM M02/M03 A3015 RMK SLP211 T10221030 57003 IEM_DS3505
ZBAA,2004-12-13 22:00,ZBAA 132200Z AUTO 07002KT 1/2SM M02/M02 A3015 RMK T10201020 IEM_DS3505
ZBAA,2004-12-13 23:00,ZBAA 132300Z AUTO 16002KT 1/2SM A3018 RMK IEM_DS3505
ZBAA,2004-12-14 00:00,ZBAA 140000Z AUTO 16002KT 3/8SM M02/M03 A3018 RMK SLP218 T10151026 52006 IEM_DS3505
ZBAA,2004-12-14 01:00,ZBAA 140100Z AUTO 28004KT 3/8SM 00/M01 A3018 RMK T00001010 IEM_DS3505
ZBAA,2004-12-14 02:00,ZBAA 140200Z AUTO 35004KT 3/8SM 00/M01 A3018 RMK T00001010 IEM_DS3505
ZBAA,2004-12-14 03:00,ZBAA 140300Z AUTO 07004KT 1SM 00/M02 A3018 RMK SLP220 T00041020 52003 IEM_DS3505
ZBAA,2004-12-14 04:00,ZBAA 140400Z AUTO 1SM 02/M01 A3015 RMK T00201010 IEM_DS3505
ZBAA,2004-12-14 05:00,ZBAA 140500Z AUTO 17002KT 1SM 03/00 A3012 RMK T00300000 IEM_DS3505
ZBAA,2004-12-14 06:00,ZBAA 140600Z AUTO 11002KT 1SM 03/M02 A3012 RMK SLP194 T00331018 57026 IEM_DS3505
ZBAA,2004-12-14 07:00,ZBAA 140700Z AUTO 35002KT 1SM 03/M01 A3012 RMK T00301010 IEM_DS3505
ZBAA,2004-12-14 08:00,ZBAA 140800Z AUTO 03002KT 1 1/4SM 03/M01 A3012 RMK T00301010 IEM_DS3505
ZBAA,2004-12-14 09:00,ZBAA 140900Z AUTO 11002KT 1SM 02/M02 A3012 RMK SLP200 T00221016 52006 IEM_DS3505
ZBAA,2004-12-14 10:00,ZBAA 141000Z AUTO 35004KT 1 1/2SM 01/M03 A3015 RMK T00101030 IEM_DS3505
ZBAA,2004-12-14 11:00,ZBAA 141100Z AUTO 00000KT 1 1/2SM M01/M04 A3018 RMK T10101040 IEM_DS3505
ZBAA,2004-12-14 12:00,ZBAA 141200Z AUTO 16002KT 1SM 00/M02 A3018 RMK SLP223 T00001016 52022 IEM_DS3505
ZBAA,2004-12-14 13:00,ZBAA 141300Z AUTO 07002KT 1 1/4SM M02/M03 A3018 RMK T10201030 IEM_DS3505
ZBAA,2004-12-14 14:00,ZBAA 141400Z AUTO 02002KT 1SM M03/M04 A3021 RMK T10301040 IEM_DS3505
ZBAA,2004-12-14 15:00,ZBAA 141500Z AUTO 32002KT 1SM M01/M02 A3021 RMK SLP228 T10141025 52005 IEM_DS3505
ZBAA,2004-12-14 16:00,ZBAA 141600Z AUTO 34004KT 1SM M03/M04 A3021 RMK T10301040 IEM_DS3505
ZBAA,2004-12-14 17:00,ZBAA 141700Z AUTO 02002KT 1SM M01/M03 A3021 RMK T10101030 IEM_DS3505
ZBAA,2004-12-14 18:00,ZBAA 141800Z AUTO 07002KT 1SM M01/M03 A3021 RMK SLP227 T10101027 54000 IEM_DS3505
ZBAA,2004-12-14 19:00,ZBAA 141900Z AUTO 31002KT 1SM M01/M02 A3021 RMK T10101020 IEM_DS3505
ZBAA,2004-12-14 20:00,ZBAA 142000Z AUTO 36002KT 1SM M01/M03 A3021 RMK T10101030 IEM_DS3505
ZBAA,2004-12-14 21:00,ZBAA 142100Z AUTO 02004KT 1SM 00/M01 A3021 RMK SLP230 T00051008 52003 IEM_DS3505
ZBAA,2004-12-14 22:00,ZBAA 142200Z AUTO 34004KT 1 1/4SM A3024 RMK IEM_DS3505
ZBAA,2004-12-14 23:00,ZBAA 142300Z AUTO 34004KT 1 1/2SM A3024 RMK IEM_DS3505
ZBAA,2004-12-15 00:00,ZBAA 150000Z AUTO 04002KT 1SM 00/M01 A3027 RMK SLP248 T00001013 52017 IEM_DS3505
ZBAA,2004-12-15 01:00,ZBAA 150100Z AUTO 01004KT 2SM M02/M04 A3030 RMK T10201040 IEM_DS3505
ZBAA,2004-12-15 02:00,ZBAA 150200Z AUTO 35006KT 2 1/2SM 02/M03 A3030 RMK T00201030 IEM_DS3505
ZBAA,2004-12-15 03:00,ZBAA 150300Z AUTO 04006KT 6SM 06/M07 A3030 RMK SLP259 T00551067 52012 IEM_DS3505
ZBAA,2004-12-15 04:00,ZBAA 150400Z AUTO 02006KT 6SM 06/M08 A3030 RMK T00601080 IEM_DS3505
ZBAA,2004-12-15 05:00,ZBAA 150500Z AUTO 01008KT 6SM 07/M10 A3027 RMK T00701100 IEM_DS3505
ZBAA,2004-12-15 06:00,ZBAA 150600Z AUTO 02010KT 19SM 08/M14 A3027 RMK SLP249 T00781137 57010 IEM_DS3505
ZBAA,2004-12-15 07:00,ZBAA 150700Z AUTO 03006KT 6SM 08/M13 A3027 RMK T00801130 IEM_DS3505
ZBAA,2004-12-15 08:00,ZBAA 150800Z AUTO 04004KT 6SM 07/M13 A3030 RMK T00701130 IEM_DS3505
ZBAA,2004-12-15 09:00,ZBAA 150900Z AUTO 07004KT 19SM 06/M14 A3033 RMK SLP266 T00551139 52017 IEM_DS3505
ZBAA,2004-12-15 10:00,ZBAA 151000Z AUTO 00000KT 6SM 03/M14 A3036 RMK T00301140 IEM_DS3505
ZBAA,2004-12-15 11:00,ZBAA 151100Z AUTO 04002KT 6SM 02/M13 A3039 RMK T00201130 IEM_DS3505
ZBAA,2004-12-15 12:00,ZBAA 151200Z AUTO 07002KT 16SM 02/M15 A3042 RMK SLP294 T00241146 52027 IEM_DS3505
ZBAA,2004-12-15 13:00,ZBAA 151300Z AUTO 03004KT 6SM 01/M13 A3042 RMK T00101130 IEM_DS3505
ZBAA,2004-12-15 14:00,ZBAA 151400Z AUTO 08002KT 6SM M01/M14 A3045 RMK T10101140 IEM_DS3505
ZBAA,2004-12-15 15:00,ZBAA 151500Z AUTO 09004KT 6SM M01/M04 A3047 RMK SLP314 T10081040 52021 IEM_DS3505
ZBAA,2004-12-15 16:00,ZBAA 151600Z AUTO 07002KT 1SM M02/M04 A3047 RMK T10201040 IEM_DS3505
ZBAA,2004-12-15 17:00,ZBAA 151700Z AUTO 09002KT 1SM M02/M02 A3050 RMK T10201020 IEM_DS3505
ZBAA,2004-12-15 18:00,ZBAA 151800Z AUTO 09002KT 5SM M02/M03 A3050 RMK SLP325 T10151031 52011 IEM_DS3505
ZBAA,2004-12-15 19:00,ZBAA 151900Z AUTO 11004KT 1SM 00/M01 A3050 RMK T00001010 IEM_DS3505
ZBAA,2004-12-15 20:00,ZBAA 152000Z AUTO 15004KT 1 1/2SM 00/M02 A3050 RMK T00001020 IEM_DS3505
ZBAA,2004-12-15 21:00,ZBAA 152100Z AUTO 16002KT 12SM 00/M06 A3050 RMK SLP325 T00021056 54000 IEM_DS3505
ZBAA,2004-12-15 22:00,ZBAA 152200Z AUTO 13004KT 4SM 00/M04 A3050 RMK T00001040 IEM_DS3505
ZBAA,2004-12-15 23:00,ZBAA 152300Z AUTO 13004KT 4SM M01/M05 A3053 RMK T10101050 IEM_DS3505
ZBAA,2004-12-16 00:00,ZBAA 160000Z AUTO 16006KT 12SM 00/M06 A3053 RMK SLP335 T00011059 52009 IEM_DS3505
ZBAA,2004-12-16 01:00,ZBAA 160100Z AUTO 11006KT 4SM M01/M05 A3053 RMK T10101050 IEM_DS3505
ZBAA,2004-12-16 02:00,ZBAA 160200Z AUTO 11006KT 3SM M01/M05 A3053 RMK T10101050 IEM_DS3505
ZBAA,2004-12-16 03:00,ZBAA 160300Z AUTO 20006KT 12SM 01/M04 A3053 RMK SLP330 T00111035 57005 IEM_DS3505
ZBAA,2004-12-16 04:00,ZBAA 160400Z AUTO 13008KT 4SM 00/M03 A3047 RMK T00001030 IEM_DS3505
ZBAA,2004-12-16 05:00,ZBAA 160500Z AUTO 16006KT 2 1/2SM 00/M03 A3045 RMK T00001030 IEM_DS3505
ZBAA,2004-12-16 06:00,ZBAA 160600Z AUTO 22008KT 12SM 02/M03 A3042 RMK SLP296 T00241029 57034 IEM_DS3505
ZBAA,2004-12-16 07:00,ZBAA 160700Z AUTO 14006KT 5SM 01/M05 A3039 RMK T00101050 IEM_DS3505
ZBAA,2004-12-16 08:00,ZBAA 160800Z AUTO 12006KT 5SM 01/M05 A3039 RMK T00101050 IEM_DS3505
ZBAA,2004-12-16 09:00,ZBAA 160900Z AUTO 22004KT 9SM 02/M02 A3039 RMK SLP286 T00151024 57010 IEM_DS3505
ZBAA,2004-12-16 10:00,ZBAA 161000Z AUTO 12008KT 5SM 00/M06 A3039 RMK T00001060 IEM_DS3505
ZBAA,2004-12-16 11:00,ZBAA 161100Z AUTO 12006KT 00/M06 A3036 RMK T00001060 IEM_DS3505
ZBAA,2004-12-16 12:00,ZBAA 161200Z AUTO 18004KT 5SM 01/M02 A3036 RMK SLP278 T00141025 57008 IEM_DS3505
ZBAA,2004-12-16 13:00,ZBAA 161300Z AUTO 12004KT 4SM 00/M05 A3036 RMK T00001050 IEM_DS3505
ZBAA,2004-12-16 14:00,ZBAA 161400Z AUTO 06002KT 4SM M01/M05 A3033 RMK T10101050 IEM_DS3505
ZBAA,2004-12-16 15:00,ZBAA 161500Z AUTO 18002KT 4SM 00/M04 A3033 RMK SLP264 T00051036 57014 IEM_DS3505
ZBAA,2004-12-16 16:00,ZBAA 161600Z AUTO 11004KT 3SM A3030 RMK IEM_DS3505
ZBAA,2004-12-16 17:00,ZBAA 161700Z AUTO 07002KT 2 1/2SM A3030 RMK IEM_DS3505
ZBAA,2004-12-16 18:00,ZBAA 161800Z AUTO 07002KT 4SM M00/M04 A3027 RMK SLP252 T10031040 57011 IEM_DS3505
ZBAA,2004-12-16 20:00,ZBAA 162000Z AUTO 29002KT 2 1/2SM A3027 RMK IEM_DS3505
ZBAA,2004-12-16 21:00,ZBAA 162100Z AUTO 07002KT 4SM M02/M04 A3024 RMK 70000 SLP245 T10181044 57008 IEM_DS3505
ZBAA,2004-12-16 22:00,ZBAA 162200Z AUTO 00000KT 2 1/2SM A3024 RMK IEM_DS3505
ZBAA,2004-12-16 23:00,ZBAA 162300Z AUTO 02002KT 2SM A3024 RMK IEM_DS3505
ZBAA,2004-12-17 00:00,ZBAA 170000Z AUTO 25002KT 4SM M02/M05 A3027 RMK 70000 SLP246 T10211049 52001 IEM_DS3505
ZBAA,2004-12-17 01:00,ZBAA 170100Z AUTO 35004KT 1 1/2SM A3027 RMK IEM_DS3505
ZBAA,2004-12-17 02:00,ZBAA 170200Z AUTO 00000KT 1 1/2SM A3027 RMK IEM_DS3505
ZBAA,2004-12-17 03:00,ZBAA 170300Z AUTO 25002KT 5SM 03/M04 A3027 RMK SLP245 T00331037 54000 IEM_DS3505
ZBAA,2004-12-17 04:00,ZBAA 170400Z AUTO 03004KT 2 1/2SM 03/M03 A3024 RMK T00301030 IEM_DS3505
ZBAA,2004-12-17 05:00,ZBAA 170500Z AUTO 2 1/2SM 04/M03 A3021 RMK T00401030 IEM_DS3505
ZBAA,2004-12-17 06:00,ZBAA 170600Z AUTO 22004KT 6SM 05/M04 A3021 RMK SLP225 T00511037 57020 IEM_DS3505
ZBAA,2004-12-17 07:00,ZBAA 170700Z AUTO 14004KT 2 1/2SM 05/M03 A3018 RMK T00501030 IEM_DS3505
ZBAA,2004-12-17 08:00,ZBAA 170800Z AUTO 11004KT 2SM 04/M03 A3021 RMK T00401030 IEM_DS3505
ZBAA,2004-12-17 09:00,ZBAA 170900Z AUTO 22004KT 5SM 03/M03 A3021 RMK SLP235 T00321029 52010 IEM_DS3505
ZBAA,2004-12-17 10:00,ZBAA 171000Z AUTO 10002KT 2SM 02/M02 A3024 RMK T00201020 IEM_DS3505
ZBAA,2004-12-17 11:00,ZBAA 171100Z AUTO 16004KT 1 1/2SM 01/M03 A3027 RMK T00101030 IEM_DS3505
ZBAA,2004-12-17 12:00,ZBAA 171200Z AUTO 25002KT 5SM 02/M04 A3027 RMK SLP249 T00151035 52013 IEM_DS3505
ZBAA,2004-12-17 13:00,ZBAA 171300Z AUTO 01004KT 1 1/4SM 01/M02 A3027 RMK T00101020 IEM_DS3505
ZBAA,2004-12-17 14:00,ZBAA 171400Z AUTO 07002KT 1 1/4SM A3030 RMK IEM_DS3505
ZBAA,2004-12-17 15:00,ZBAA 171500Z AUTO 20004KT 4SM 01/M04 A3030 RMK SLP256 T00081035 52008 IEM_DS3505
ZBAA,2004-12-17 16:00,ZBAA 171600Z AUTO 02002KT 1SM A3030 RMK IEM_DS3505
ZBAA,2004-12-17 17:00,ZBAA 171700Z AUTO 00000KT 1SM A3033 RMK IEM_DS3505
ZBAA,2004-12-17 18:00,ZBAA 171800Z AUTO 25002KT 4SM M00/M03 A3033 RMK SLP268 T10051033 52012 IEM_DS3505
ZBAA,2004-12-17 19:00,ZBAA 171900Z AUTO 12006KT 1SM 01/M02 A3033 RMK T00101020 IEM_DS3505
ZBAA,2004-12-17 20:00,ZBAA 172000Z AUTO 08004KT 1SM 00/M02 A3033 RMK T00001020 IEM_DS3505
ZBAA,2004-12-17 21:00,ZBAA 172100Z AUTO 07004KT 5SM M02/M04 A3033 RMK SLP270 T10161038 52001 IEM_DS3505
ZBAA,2004-12-17 22:00,ZBAA 172200Z AUTO 09004KT 1 1/4SM A3036 RMK IEM_DS3505
ZBAA,2004-12-17 23:00,ZBAA 172300Z AUTO 11002KT 1 1/4SM A3036 RMK IEM_DS3505
ZBAA,2004-12-18 00:00,ZBAA 180000Z AUTO 04004KT 3SM M02/M04 A3039 RMK SLP286 T10181041 52016 IEM_DS3505
ZBAA,2004-12-18 01:00,ZBAA 180100Z AUTO 17002KT 2 1/2SM A3039 RMK IEM_DS3505
ZBAA,2004-12-18 02:00,ZBAA 180200Z AUTO 15002KT 2 1/2SM 00/M03 A3039 RMK T00001030 IEM_DS3505
ZBAA,2004-12-18 03:00,ZBAA 180300Z AUTO 14004KT 7SM M00/M05 A3039 RMK SLP285 T10031047 57001 IEM_DS3505
ZBAA,2004-12-18 04:00,ZBAA 180400Z AUTO 15004KT 3SM 00/M04 A3036 RMK T00001040 IEM_DS3505
ZBAA,2004-12-18 05:00,ZBAA 180500Z AUTO 16006KT 3SM 00/M04 A3030 RMK T00001040 IEM_DS3505
ZBAA,2004-12-18 06:00,ZBAA 180600Z AUTO 09004KT 7SM M00/M04 A3027 RMK 60000 SLP250 T10011040 57035 IEM_DS3505
ZBAA,2004-12-18 07:00,ZBAA 180700Z AUTO 14008KT 2 1/2SM 00/M03 A3024 RMK T00001030 IEM_DS3505
ZBAA,2004-12-18 08:00,ZBAA 180800Z AUTO 15004KT 1 1/4SM M01/M02 A3024 RMK T10101020 IEM_DS3505
ZBAA,2004-12-18 09:00,ZBAA 180900Z AUTO 14002KT 6SM M00/M02 A3024 RMK SLP240 T10031020 57010 IEM_DS3505
ZBAA,2004-12-18 10:00,ZBAA 181000Z AUTO 13006KT 1SM M01/M01 A3024 RMK T10101010 IEM_DS3505
ZBAA,2004-12-18 11:00,ZBAA 181100Z AUTO 12006KT 1SM M01/M01 A3021 RMK T10101010 IEM_DS3505
ZBAA,2004-12-18 12:00,ZBAA 181200Z AUTO 16004KT 7SM 00/M01 A3021 RMK SLP227 T00021012 57013 IEM_DS3505
ZBAA,2004-12-18 13:00,ZBAA 181300Z AUTO 14006KT 1SM M01/M01 A3018 RMK T10101010 IEM_DS3505
ZBAA,2004-12-18 14:00,ZBAA 181400Z AUTO 14008KT 1SM M01/M01 A3018 RMK T10101010 IEM_DS3505
ZBAA,2004-12-18 15:00,ZBAA 181500Z AUTO 18004KT 7SM M00/M01 A3015 RMK SLP209 T10031014 57017 IEM_DS3505
ZBAA,2004-12-18 16:00,ZBAA 181600Z AUTO 12006KT 1/2SM M01/M01 A3012 RMK T10101010 IEM_DS3505
ZBAA,2004-12-18 17:00,ZBAA 181700Z AUTO 11006KT 1/2SM M01/M01 A3009 RMK T10101010 IEM_DS3505
ZBAA,2004-12-18 18:00,ZBAA 181800Z AUTO 18002KT 4SM M00/M01 A3006 RMK SLP181 T10041011 57028 IEM_DS3505
ZBAA,2004-12-18 19:00,ZBAA 181900Z AUTO 11004KT 1SM M01/M01 A3006 RMK T10101010 IEM_DS3505
ZBAA,2004-12-18 20:00,ZBAA 182000Z AUTO 10002KT 1SM M01/M01 A3003 RMK T10101010 IEM_DS3505
ZBAA,2004-12-18 21:00,ZBAA 182100Z AUTO 00000KT 4SM M00/M01 A3006 RMK 70000 SLP173 T10041012 57008 IEM_DS3505
ZBAA,2004-12-18 22:00,ZBAA 182200Z AUTO 26002KT 1SM M01/M01 A3006 RMK T10101010 IEM_DS3505
ZBAA,2004-12-18 23:00,ZBAA 182300Z AUTO 32010KT 1SM M01/M01 A3009 RMK T10101010 IEM_DS3505
ZBAA,2004-12-19 00:00,ZBAA 190000Z AUTO 36008KT 7SM 01/M06 A3012 RMK 70000 SLP201 T00091055 52028 IEM_DS3505
ZBAA,2004-12-19 01:00,ZBAA 190100Z AUTO 32019KT 6SM 00/M10 A3018 RMK T00001100 IEM_DS3505
ZBAA,2004-12-19 02:00,ZBAA 190200Z AUTO 32017KT 6SM 01/M12 A3024 RMK T00101120 IEM_DS3505
ZBAA,2004-12-19 03:00,ZBAA 190300Z AUTO 34006KT 19SM 02/M16 A3027 RMK SLP243 T00191155 52042 IEM_DS3505
ZBAA,2004-12-19 04:00,ZBAA 190400Z AUTO 31019G31KT 6SM 01/M14 A3027 RMK T00101140 IEM_DS3505
ZBAA,2004-12-19 05:00,ZBAA 190500Z AUTO 32016G25KT 6SM 02/M16 A3024 RMK T00201160 IEM_DS3505
ZBAA,2004-12-19 06:00,ZBAA 190600Z AUTO 02014KT 19SM 01/M21 A3024 RMK SLP247 T00101212 52003 IEM_DS3505
ZBAA,2004-12-19 07:00,ZBAA 190700Z AUTO 32016KT 6SM 01/M18 A3030 RMK T00101180 IEM_DS3505
ZBAA,2004-12-19 08:00,ZBAA 190800Z AUTO 34016KT 6SM 00/M18 A3033 RMK T00001180 IEM_DS3505
ZBAA,2004-12-19 09:00,ZBAA 190900Z AUTO 36012KT 19SM M01/M20 A3033 RMK SLP272 T10061196 52025 IEM_DS3505
ZBAA,2004-12-19 10:00,ZBAA 191000Z AUTO 35016KT 6SM M02/M20 A3039 RMK T10201200 IEM_DS3505
ZBAA,2004-12-19 11:00,ZBAA 191100Z AUTO 34014KT 6SM M02/M21 A3042 RMK T10201210 IEM_DS3505
ZBAA,2004-12-19 12:00,ZBAA 191200Z AUTO 02014KT 12SM M02/M22 A3045 RMK SLP311 T10221220 52039 IEM_DS3505
ZBAA,2004-12-19 13:00,ZBAA 191300Z AUTO 32014KT 6SM M04/M21 A3050 RMK T10401210 IEM_DS3505
ZBAA,2004-12-19 14:00,ZBAA 191400Z AUTO 01006KT 6SM M05/M17 A3053 RMK T10501170 IEM_DS3505
ZBAA,2004-12-19 15:00,ZBAA 191500Z AUTO 02008KT 19SM M03/M27 A3053 RMK SLP332 T10341269 52021 IEM_DS3505
ZBAA,2004-12-19 16:00,ZBAA 191600Z AUTO 36008KT 6SM M07/M19 A3053 RMK T10701190 IEM_DS3505
ZBAA,2004-12-19 17:00,ZBAA 191700Z AUTO 03004KT 6SM M07/M19 A3053 RMK T10701190 IEM_DS3505
ZBAA,2004-12-19 18:00,ZBAA 191800Z AUTO 04010KT 19SM M06/M21 A3053 RMK SLP341 T10621212 52009 IEM_DS3505
ZBAA,2004-12-19 19:00,ZBAA 191900Z AUTO 03006KT 6SM M07/M19 A3053 RMK T10701190 IEM_DS3505
ZBAA,2004-12-19 20:00,ZBAA 192000Z AUTO 04010KT 6SM M07/M20 A3053 RMK T10701200 IEM_DS3505
ZBAA,2004-12-19 21:00,ZBAA 192100Z AUTO 07006KT 19SM M08/M22 A3053 RMK SLP334 T10761217 57008 IEM_DS3505
ZBAA,2004-12-19 22:00,ZBAA 192200Z AUTO 03006KT 6SM M08/M21 A3053 RMK T10801210 IEM_DS3505
ZBAA,2004-12-19 23:00,ZBAA 192300Z AUTO 03006KT 6SM M08/M22 A3056 RMK T10801220 IEM_DS3505
ZBAA,2004-12-20 00:00,ZBAA 200000Z AUTO 27002KT 19SM M08/M21 A3056 RMK SLP356 T10811214 52022 IEM_DS3505
ZBAA,2004-12-20 01:00,ZBAA 200100Z AUTO 01006KT 6SM M06/M21 A3059 RMK T10601210 IEM_DS3505
ZBAA,2004-12-20 02:00,ZBAA 200200Z AUTO 01006KT 6SM M05/M20 A3059 RMK T10501200 IEM_DS3505
ZBAA,2004-12-20 03:00,ZBAA 200300Z AUTO 04004KT 19SM M04/M24 A3059 RMK SLP355 T10371238 57001 IEM_DS3505
ZBAA,2004-12-20 04:00,ZBAA 200400Z AUTO 01006KT 6SM M03/M22 A3053 RMK T10301220 IEM_DS3505
ZBAA,2004-12-20 05:00,ZBAA 200500Z AUTO 6SM M02/M22 A3050 RMK T10201220 IEM_DS3505
ZBAA,2004-12-20 06:00,ZBAA 200600Z AUTO 25006KT 19SM M02/M23 A3047 RMK SLP319 T10171228 57035 IEM_DS3505
ZBAA,2004-12-20 07:00,ZBAA 200700Z AUTO 22004KT 6SM M02/M23 A3045 RMK T10201230 IEM_DS3505
ZBAA,2004-12-20 08:00,ZBAA 200800Z AUTO 21002KT 6SM M03/M22 A3045 RMK T10301220 IEM_DS3505
ZBAA,2004-12-20 09:00,ZBAA 200900Z AUTO 20004KT 19SM M03/M21 A3045 RMK SLP314 T10321209 57006 IEM_DS3505
ZBAA,2004-12-20 10:00,ZBAA 201000Z AUTO 17004KT 6SM M06/M19 RMK T10601190 IEM_DS3505
ZBAA,2004-12-20 11:00,ZBAA 201100Z AUTO 17004KT 6SM M05/M18 A3047 RMK T10501180 IEM_DS3505
ZBAA,2004-12-20 12:00,ZBAA 201200Z AUTO 22002KT 12SM M05/M19 A3047 RMK SLP319 T10491187 52005 IEM_DS3505
ZBAA,2004-12-20 13:00,ZBAA 201300Z AUTO 22002KT 6SM M05/M18 A3047 RMK T10501180 IEM_DS3505
ZBAA,2004-12-20 14:00,ZBAA 201400Z AUTO 13002KT 6SM M06/M14 A3047 RMK T10601140 IEM_DS3505
ZBAA,2004-12-20 15:00,ZBAA 201500Z AUTO 14002KT 12SM M06/M18 A3050 RMK SLP325 T10551182 52006 IEM_DS3505
ZBAA,2004-12-20 16:00,ZBAA 201600Z AUTO 00000KT 3SM A3050 RMK IEM_DS3505
ZBAA,2004-12-20 17:00,ZBAA 201700Z AUTO 07002KT 3SM A3050 RMK IEM_DS3505
ZBAA,2004-12-20 18:00,ZBAA 201800Z AUTO 09002KT 9SM M06/M16 A3047 RMK SLP320 T10551161 57004 IEM_DS3505
ZBAA,2004-12-20 19:00,ZBAA 201900Z AUTO 04002KT 3SM A3047 RMK IEM_DS3505
ZBAA,2004-12-20 20:00,ZBAA 202000Z AUTO 00000KT 3SM A3047 RMK IEM_DS3505
ZBAA,2004-12-20 21:00,ZBAA 202100Z AUTO 09002KT 7SM M05/M13 A3047 RMK SLP311 T10541126 57010 IEM_DS3505
ZBAA,2004-12-20 22:00,ZBAA 202200Z AUTO 35004KT 3SM A3047 RMK IEM_DS3505
ZBAA,2004-12-20 23:00,ZBAA 202300Z AUTO 01004KT 2 1/2SM A3050 RMK IEM_DS3505
ZBAA,2004-12-21 00:00,ZBAA 210000Z AUTO 04004KT 6SM M06/M13 A3050 RMK SLP326 T10581127 52015 IEM_DS3505
ZBAA,2004-12-21 01:00,ZBAA 210100Z AUTO 35002KT 4SM A3050 RMK IEM_DS3505
ZBAA,2004-12-21 02:00,ZBAA 210200Z AUTO 02002KT 4SM A3050 RMK IEM_DS3505
ZBAA,2004-12-21 03:00,ZBAA 210300Z AUTO 07002KT 7SM M04/M15 A3050 RMK SLP328 T10371147 52002 IEM_DS3505
ZBAA,2004-12-21 04:00,ZBAA 210400Z AUTO 03002KT 5SM A3047 RMK IEM_DS3505
ZBAA,2004-12-21 05:00,ZBAA 210500Z AUTO 06002KT 5SM A3045 RMK IEM_DS3505
ZBAA,2004-12-21 06:00,ZBAA 210600Z AUTO 11002KT 7SM M02/M14 A3045 RMK SLP306 T10181142 57021 IEM_DS3505
ZBAA,2004-12-21 07:00,ZBAA 210700Z AUTO 5SM A3045 RMK IEM_DS3505
ZBAA,2004-12-21 08:00,ZBAA 210800Z AUTO 18004KT 5SM A3045 RMK IEM_DS3505
ZBAA,2004-12-21 09:00,ZBAA 210900Z AUTO 16002KT 7SM M02/M14 A3047 RMK SLP318 T10241142 52012 IEM_DS3505
ZBAA,2004-12-21 10:00,ZBAA 211000Z AUTO 17002KT 5SM A3047 RMK IEM_DS3505
ZBAA,2004-12-21 11:00,ZBAA 211100Z AUTO 00000KT 4SM A3050 RMK IEM_DS3505
ZBAA,2004-12-21 12:00,ZBAA 211200Z AUTO 07002KT 7SM M03/M13 A3050 RMK SLP333 T10271130 52014 IEM_DS3505
ZBAA,2004-12-21 13:00,ZBAA 211300Z AUTO 03002KT 2 1/2SM A3053 RMK IEM_DS3505
ZBAA,2004-12-21 14:00,ZBAA 211400Z AUTO 00000KT 2 1/2SM A3053 RMK IEM_DS3505
ZBAA,2004-12-21 15:00,ZBAA 211500Z AUTO 13002KT 2 1/2SM A3053 RMK IEM_DS3505
ZBAA,2004-12-21 16:00,ZBAA 211600Z AUTO 15002KT 2 1/2SM A3053 RMK IEM_DS3505
ZBAA,2004-12-21 18:00,ZBAA 211800Z AUTO 20004KT 9SM M03/M11 A3053 RMK SLP342 T10341114 54000 IEM_DS3505
ZBAA,2004-12-21 19:00,ZBAA 211900Z AUTO 09002KT 2SM A3053 RMK IEM_DS3505
ZBAA,2004-12-21 20:00,ZBAA 212000Z AUTO 00000KT 2SM A3053 RMK IEM_DS3505
ZBAA,2004-12-21 21:00,ZBAA 212100Z AUTO 02002KT 6SM M05/M06 A3056 RMK 70002 SLP346 T10491063 52003 IEM_DS3505
ZBAA,2004-12-21 22:00,ZBAA 212200Z AUTO 25002KT 1 1/4SM M05/M07 A3056 RMK T10501070 IEM_DS3505
ZBAA,2004-12-21 23:00,ZBAA 212300Z AUTO 22002KT 1SM M05/M06 A3056 RMK T10501060 IEM_DS3505
ZBAA,2004-12-22 00:00,ZBAA 220000Z AUTO 16006KT 5SM M06/M07 A3059 RMK 60008 70007 SLP357 T10571074 52011 IEM_DS3505
ZBAA,2004-12-22 01:00,ZBAA 220100Z AUTO 15004KT 1SM M05/M06 A3059 RMK T10501060 IEM_DS3505
ZBAA,2004-12-22 02:00,ZBAA 220200Z AUTO 18004KT 1SM M05/M06 A3062 RMK T10501060 IEM_DS3505
ZBAA,2004-12-22 03:00,ZBAA 220300Z AUTO 18004KT 6SM M05/M08 A3062 RMK SLP367 T10521076 52010 IEM_DS3505
ZBAA,2004-12-22 04:00,ZBAA 220400Z AUTO 16004KT 1SM M05/M06 A3059 RMK T10501060 IEM_DS3505
ZBAA,2004-12-22 05:00,ZBAA 220500Z AUTO 16004KT 1SM M05/M05 A3056 RMK T10501050 IEM_DS3505
ZBAA,2004-12-22 06:00,ZBAA 220600Z AUTO 16004KT 5SM M05/M08 A3056 RMK 60002 SLP350 T10471081 57017 IEM_DS3505
ZBAA,2004-12-22 07:00,ZBAA 220700Z AUTO 15006KT 2SM A3056 RMK IEM_DS3505
ZBAA,2004-12-22 08:00,ZBAA 220800Z AUTO 14006KT 1 1/2SM M05/M06 A3059 RMK T10501060 IEM_DS3505
ZBAA,2004-12-22 09:00,ZBAA 220900Z AUTO 20004KT 5SM M05/M08 A3059 RMK SLP361 T10541083 52011 IEM_DS3505
ZBAA,2004-12-22 10:00,ZBAA 221000Z AUTO 15004KT 1 1/2SM M05/M07 A3059 RMK T10501070 IEM_DS3505
ZBAA,2004-12-22 11:00,ZBAA 221100Z AUTO 16004KT 2SM M06/M07 A3062 RMK T10601070 IEM_DS3505
ZBAA,2004-12-22 12:00,ZBAA 221200Z AUTO 22004KT 6SM M06/M08 A3062 RMK SLP370 T10601081 52009 IEM_DS3505
ZBAA,2004-12-22 13:00,ZBAA 221300Z AUTO 17004KT 2 1/2SM M06/M07 A3062 RMK T10601070 IEM_DS3505
ZBAA,2004-12-22 14:00,ZBAA 221400Z AUTO 19002KT 2SM M06/M07 A3062 RMK T10601070 IEM_DS3505
ZBAA,2004-12-22 15:00,ZBAA 221500Z AUTO 22004KT 6SM M06/M08 A3065 RMK SLP377 T10561082 52007 IEM_DS3505
ZBAA,2004-12-22 16:00,ZBAA 221600Z AUTO 15002KT 2SM M06/M07 A3065 RMK T10601070 IEM_DS3505
ZBAA,2004-12-22 18:00,ZBAA 221800Z AUTO 20002KT 7SM M06/M08 A3062 RMK SLP373 T10571083 57004 IEM_DS3505
ZBAA,2004-12-22 19:00,ZBAA 221900Z AUTO 09002KT 1 1/4SM M07/M07 A3062 RMK T10701070 IEM_DS3505
ZBAA,2004-12-22 20:00,ZBAA 222000Z AUTO 10002KT 1SM M07/M08 A3062 RMK T10701080 IEM_DS3505
ZBAA,2004-12-22 21:00,ZBAA 222100Z AUTO 25004KT 6SM M06/M08 A3062 RMK 70008 SLP368 T10581085 57005 IEM_DS3505
ZBAA,2004-12-22 22:00,ZBAA 222200Z AUTO 09002KT 1SM M07/M07 A3062 RMK T10701070 IEM_DS3505
ZBAA,2004-12-22 23:00,ZBAA 222300Z AUTO 08002KT 1SM M07/M08 A3062 RMK T10701080 IEM_DS3505
ZBAA,2004-12-23 00:00,ZBAA 230000Z AUTO 20002KT 5SM M06/M09 A3062 RMK 70003 SLP371 T10581089 52003 IEM_DS3505
ZBAA,2004-12-23 01:00,ZBAA 230100Z AUTO 00000KT 1SM A3062 RMK IEM_DS3505
ZBAA,2004-12-23 02:00,ZBAA 230200Z AUTO 10002KT 1SM M07/M08 A3065 RMK T10701080 IEM_DS3505
ZBAA,2004-12-23 03:00,ZBAA 230300Z AUTO 20004KT 7SM M05/M10 A3062 RMK SLP373 T10481098 52002 IEM_DS3505
ZBAA,2004-12-23 04:00,ZBAA 230400Z AUTO 09004KT 1SM M05/M06 A3059 RMK T10501060 IEM_DS3505
ZBAA,2004-12-23 05:00,ZBAA 230500Z AUTO 12004KT 1SM M05/M06 A3056 RMK T10501060 IEM_DS3505
ZBAA,2004-12-23 06:00,ZBAA 230600Z AUTO 25008KT 11SM M05/M09 A3056 RMK SLP347 T10491093 57026 IEM_DS3505
ZBAA,2004-12-23 07:00,ZBAA 230700Z AUTO 18004KT 2 1/2SM M05/M07 A3053 RMK T10501070 IEM_DS3505
ZBAA,2004-12-23 08:00,ZBAA 230800Z AUTO 17004KT 2 1/2SM M05/M07 A3056 RMK T10501070 IEM_DS3505
ZBAA,2004-12-23 09:00,ZBAA 230900Z AUTO 25004KT 11SM M05/M09 A3056 RMK SLP348 T10501087 52001 IEM_DS3505
ZBAA,2004-12-23 10:00,ZBAA 231000Z AUTO 15004KT 2 1/2SM M07/M09 A3056 RMK T10701090 IEM_DS3505
ZBAA,2004-12-23 11:00,ZBAA 231100Z AUTO 15002KT 2 1/2SM M06/M08 A3056 RMK T10601080 IEM_DS3505
ZBAA,2004-12-23 12:00,ZBAA 231200Z AUTO 22004KT 11SM M05/M10 A3056 RMK 60000 SLP354 T10521100 52006 IEM_DS3505
ZBAA,2004-12-23 13:00,ZBAA 231300Z AUTO 11002KT 2SM M05/M07 A3056 RMK T10501070 IEM_DS3505
ZBAA,2004-12-23 14:00,ZBAA 231400Z AUTO 36002KT 2SM M05/M07 A3056 RMK T10501070 IEM_DS3505
ZBAA,2004-12-23 15:00,ZBAA 231500Z AUTO 22004KT 11SM M06/M10 A3056 RMK SLP353 T10641098 57001 IEM_DS3505
ZBAA,2004-12-23 16:00,ZBAA 231600Z AUTO 36004KT 1SM M07/M08 A3056 RMK T10701080 IEM_DS3505
ZBAA,2004-12-23 17:00,ZBAA 231700Z AUTO 36002KT 1SM M08/M09 A3053 RMK T10801090 IEM_DS3505
ZBAA,2004-12-23 18:00,ZBAA 231800Z AUTO 25002KT 9SM M08/M10 A3053 RMK 60000 SLP342 T10801102 57011 IEM_DS3505
ZBAA,2004-12-23 19:00,ZBAA 231900Z AUTO 36002KT 1SM M09/M09 A3053 RMK T10901090 IEM_DS3505
ZBAA,2004-12-23 20:00,ZBAA 232000Z AUTO 36002KT 1SM M09/M09 A3053 RMK T10901090 IEM_DS3505
ZBAA,2004-12-23 21:00,ZBAA 232100Z AUTO 27004KT 9SM M06/M09 A3050 RMK 70000 SLP333 T10631090 57009 IEM_DS3505
ZBAA,2004-12-23 22:00,ZBAA 232200Z AUTO 24002KT 1SM M10/M10 A3050 RMK T11001100 IEM_DS3505
ZBAA,2004-12-23 23:00,ZBAA 232300Z AUTO 29002KT 1SM M09/M10 A3050 RMK T10901100 IEM_DS3505
ZBAA,2004-12-24 00:00,ZBAA 240000Z AUTO 22004KT 5SM M08/M10 A3053 RMK 70000 SLP337 T10851100 52004 IEM_DS3505
ZBAA,2004-12-24 01:00,ZBAA 240100Z AUTO 01002KT 1SM M10/M10 A3053 RMK T11001100 IEM_DS3505
ZBAA,2004-12-24 02:00,ZBAA 240200Z AUTO 04002KT 1SM M08/M09 A3053 RMK T10801090 IEM_DS3505
ZBAA,2004-12-24 03:00,ZBAA 240300Z AUTO 27004KT 5SM M05/M09 A3053 RMK SLP340 T10511088 52003 IEM_DS3505
ZBAA,2004-12-24 04:00,ZBAA 240400Z AUTO 04002KT 1SM M05/M08 A3050 RMK T10501080 IEM_DS3505
ZBAA,2004-12-24 05:00,ZBAA 240500Z AUTO 1 1/2SM M04/M08 A3047 RMK T10401080 IEM_DS3505
ZBAA,2004-12-24 06:00,ZBAA 240600Z AUTO 20004KT 5SM M04/M08 A3045 RMK SLP304 T10421085 57036 IEM_DS3505
ZBAA,2004-12-24 07:00,ZBAA 240700Z AUTO 08002KT 1 1/2SM M04/M08 A3045 RMK T10401080 IEM_DS3505
ZBAA,2004-12-24 08:00,ZBAA 240800Z AUTO 13002KT 1 1/2SM M05/M08 A3045 RMK T10501080 IEM_DS3505
ZBAA,2004-12-24 09:00,ZBAA 240900Z AUTO 22004KT 4SM M06/M10 A3045 RMK SLP312 T10591096 52008 IEM_DS3505
ZBAA,2004-12-24 10:00,ZBAA 241000Z AUTO 13002KT 1SM M07/M08 A3045 RMK T10701080 IEM_DS3505
ZBAA,2004-12-24 11:00,ZBAA 241100Z AUTO 16002KT 1SM M07/M09 A3047 RMK T10701090 IEM_DS3505
ZBAA,2004-12-24 12:00,ZBAA 241200Z AUTO 22004KT 4SM M07/M10 A3047 RMK SLP321 T10741098 52009 IEM_DS3505
ZBAA,2004-12-24 13:00,ZBAA 241300Z AUTO 14002KT 1SM M08/M09 A3047 RMK T10801090 IEM_DS3505
ZBAA,2004-12-24 14:00,ZBAA 241400Z AUTO 00000KT 1SM M08/M09 A3050 RMK T10801090 IEM_DS3505
ZBAA,2004-12-24 15:00,ZBAA 241500Z AUTO 22002KT 3SM M07/M10 A3050 RMK SLP325 T10741095 52004 IEM_DS3505
ZBAA,2004-12-24 16:00,ZBAA 241600Z AUTO 33002KT 1SM M10/M10 A3050 RMK T11001100 IEM_DS3505
ZBAA,2004-12-24 17:00,ZBAA 241700Z AUTO 00000KT 1/2SM M10/M11 A3047 RMK T11001110 IEM_DS3505
ZBAA,2004-12-24 18:00,ZBAA 241800Z AUTO 22002KT 2 1/2SM M09/M10 A3045 RMK SLP312 T10871102 57013 IEM_DS3505
ZBAA,2004-12-24 19:00,ZBAA 241900Z AUTO 00000KT 1/2SM M10/M10 A3047 RMK T11001100 IEM_DS3505
ZBAA,2004-12-24 20:00,ZBAA 242000Z AUTO 00000KT 1/2SM M10/M11 A3045 RMK T11001110 IEM_DS3505
ZBAA,2004-12-24 21:00,ZBAA 242100Z AUTO 22002KT 1 1/4SM M10/M11 A3045 RMK SLP306 T10961108 57006 IEM_DS3505
ZBAA,2004-12-24 22:00,ZBAA 242200Z AUTO 00000KT 1/2SM M10/M10 A3045 RMK T11001100 IEM_DS3505
ZBAA,2004-12-24 23:00,ZBAA 242300Z AUTO 01002KT 1/2SM M10/M11 A3045 RMK T11001110 IEM_DS3505
ZBAA,2004-12-25 00:00,ZBAA 250000Z AUTO 07002KT 1SM M08/M09 A3045 RMK SLP307 T10801092 52001 IEM_DS3505
ZBAA,2004-12-25 01:00,ZBAA 250100Z AUTO 04002KT 3/8SM M09/M09 A3045 RMK T10901090 IEM_DS3505
ZBAA,2004-12-25 02:00,ZBAA 250200Z AUTO 08002KT 3/8SM M08/M08 A3045 RMK T10801080 IEM_DS3505
ZBAA,2004-12-25 03:00,ZBAA 250300Z AUTO 09002KT 1 1/4SM M06/M08 A3045 RMK SLP307 T10631083 54000 IEM_DS3505
ZBAA,2004-12-25 04:00,ZBAA 250400Z AUTO 10002KT 1/2SM A3042 RMK IEM_DS3505
ZBAA,2004-12-25 05:00,ZBAA 250500Z AUTO 11002KT 1SM M05/M07 A3039 RMK T10501070 IEM_DS3505
ZBAA,2004-12-25 06:00,ZBAA 250600Z AUTO 25004KT 1 1/4SM M04/M08 A3036 RMK SLP278 T10421075 57029 IEM_DS3505
ZBAA,2004-12-25 07:00,ZBAA 250700Z AUTO 07002KT 1SM M05/M07 A3036 RMK T10501070 IEM_DS3505
ZBAA,2004-12-25 08:00,ZBAA 250800Z AUTO 17002KT 1SM M06/M08 A3036 RMK T10601080 IEM_DS3505
ZBAA,2004-12-25 09:00,ZBAA 250900Z AUTO 18002KT 2SM M05/M08 A3039 RMK SLP287 T10501084 52009 IEM_DS3505
ZBAA,2004-12-25 10:00,ZBAA 251000Z AUTO 28004KT 1SM M05/M07 A3039 RMK T10501070 IEM_DS3505
ZBAA,2004-12-25 11:00,ZBAA 251100Z AUTO 29004KT 1SM A3039 RMK IEM_DS3505
ZBAA,2004-12-25 12:00,ZBAA 251200Z AUTO 00000KT 1 1/4SM M05/M08 A3042 RMK SLP298 T10501077 52011 IEM_DS3505
ZBAA,2004-12-25 13:00,ZBAA 251300Z AUTO 35004KT 1SM A3042 RMK IEM_DS3505
ZBAA,2004-12-25 14:00,ZBAA 251400Z AUTO 33006KT 1 1/2SM A3045 RMK IEM_DS3505
ZBAA,2004-12-25 15:00,ZBAA 251500Z AUTO 27002KT 1 1/4SM M07/M09 A3045 RMK SLP311 T10731088 52013 IEM_DS3505
ZBAA,2004-12-25 16:00,ZBAA 251600Z AUTO 01004KT 5SM M06/M12 A3045 RMK T10601120 IEM_DS3505
ZBAA,2004-12-25 17:00,ZBAA 251700Z AUTO 36004KT 6SM M08/M14 A3045 RMK T10801140 IEM_DS3505
ZBAA,2004-12-25 18:00,ZBAA 251800Z AUTO 04006KT 12SM M05/M15 A3045 RMK SLP310 T10501151 57001 IEM_DS3505
ZBAA,2004-12-25 19:00,ZBAA 251900Z AUTO 36006KT 6SM M08/M14 A3045 RMK T10801140 IEM_DS3505
ZBAA,2004-12-25 20:00,ZBAA 252000Z AUTO 01008KT 6SM M07/M14 A3045 RMK T10701140 IEM_DS3505
ZBAA,2004-12-25 21:00,ZBAA 252100Z AUTO 04004KT 12SM M06/M17 A3045 RMK SLP303 T10631166 57007 IEM_DS3505
ZBAA,2004-12-25 22:00,ZBAA 252200Z AUTO 02006KT 6SM M08/M14 A3045 RMK T10801140 IEM_DS3505
ZBAA,2004-12-25 23:00,ZBAA 252300Z AUTO 03004KT 6SM M09/M15 A3045 RMK T10901150 IEM_DS3505
ZBAA,2004-12-26 00:00,ZBAA 260000Z AUTO 02008KT 6SM M08/M15 A3047 RMK T10801150 IEM_DS3505
ZBAA,2004-12-26 01:00,ZBAA 260100Z AUTO 36010KT 6SM M07/M14 A3050 RMK T10701140 IEM_DS3505
ZBAA,2004-12-26 02:00,ZBAA 260200Z AUTO 03006KT 6SM M05/M14 A3050 RMK T10501140 IEM_DS3505
ZBAA,2004-12-26 03:00,ZBAA 260300Z AUTO 02006KT 19SM M03/M15 A3050 RMK SLP329 T10281151 52008 IEM_DS3505
ZBAA,2004-12-26 04:00,ZBAA 260400Z AUTO 01006KT 6SM M03/M12 A3050 RMK T10301120 IEM_DS3505
ZBAA,2004-12-26 05:00,ZBAA 260500Z AUTO 01006KT 6SM M03/M13 A3047 RMK T10301130 IEM_DS3505
ZBAA,2004-12-26 06:00,ZBAA 260600Z AUTO 02010KT 19SM 00/M14 A3045 RMK SLP306 T00001140 57022 IEM_DS3505
ZBAA,2004-12-26 07:00,ZBAA 260700Z AUTO 34008KT 6SM M01/M12 A3042 RMK T10101120 IEM_DS3505
ZBAA,2004-12-26 08:00,ZBAA 260800Z AUTO 35006KT 6SM M01/M11 A3045 RMK T10101110 IEM_DS3505
ZBAA,2004-12-26 09:00,ZBAA 260900Z AUTO 34010KT 16SM M00/M15 A3045 RMK SLP310 T10041151 52004 IEM_DS3505
ZBAA,2004-12-26 10:00,ZBAA 261000Z AUTO 29008KT 6SM M02/M13 A3047 RMK T10201130 IEM_DS3505
ZBAA,2004-12-26 11:00,ZBAA 261100Z AUTO 29010KT 6SM M03/M13 A3047 RMK T10301130 IEM_DS3505
ZBAA,2004-12-26 12:00,ZBAA 261200Z AUTO 34006KT 19SM M02/M16 A3050 RMK SLP333 T10171162 52022 IEM_DS3505
ZBAA,2004-12-26 13:00,ZBAA 261300Z AUTO 30017KT 6SM M04/M15 A3053 RMK T10401150 IEM_DS3505
ZBAA,2004-12-26 14:00,ZBAA 261400Z AUTO 30017KT 6SM M04/M15 A3056 RMK T10401150 IEM_DS3505
ZBAA,2004-12-26 15:00,ZBAA 261500Z AUTO 36010KT 19SM M04/M18 A3059 RMK SLP359 T10351175 52026 IEM_DS3505
ZBAA,2004-12-26 16:00,ZBAA 261600Z AUTO 31016KT 6SM M05/M16 A3059 RMK T10501160 IEM_DS3505
ZBAA,2004-12-26 17:00,ZBAA 261700Z AUTO 30016KT 6SM M05/M16 A3059 RMK T10501160 IEM_DS3505
ZBAA,2004-12-26 18:00,ZBAA 261800Z AUTO 34014KT 19SM M05/M18 A3062 RMK SLP358 T10471182 54000 IEM_DS3505
ZBAA,2004-12-26 19:00,ZBAA 261900Z AUTO 31014KT 6SM M06/M17 A3062 RMK T10601170 IEM_DS3505
ZBAA,2004-12-26 20:00,ZBAA 262000Z AUTO 31017KT 6SM M07/M16 A3062 RMK T10701160 IEM_DS3505
ZBAA,2004-12-26 21:00,ZBAA 262100Z AUTO 34008KT 19SM M05/M19 A3062 RMK SLP359 T10521190 52001 IEM_DS3505
ZBAA,2004-12-26 22:00,ZBAA 262200Z AUTO 34010KT 6SM M08/M16 A3062 RMK T10801160 IEM_DS3505
ZBAA,2004-12-26 23:00,ZBAA 262300Z AUTO 36006KT 6SM M10/M17 A3062 RMK T11001170 IEM_DS3505
ZBAA,2004-12-27 00:00,ZBAA 270000Z AUTO 02006KT 19SM M06/M20 A3065 RMK SLP371 T10591196 52011 IEM_DS3505
ZBAA,2004-12-27 01:00,ZBAA 270100Z AUTO 36008KT 6SM M06/M16 A3065 RMK T10601160 IEM_DS3505
ZBAA,2004-12-27 02:00,ZBAA 270200Z AUTO 36008KT 6SM M05/M15 A3065 RMK T10501150 IEM_DS3505
ZBAA,2004-12-27 03:00,ZBAA 270300Z AUTO 34006G21KT 19SM M02/M19 A3065 RMK SLP372 T10241189 52001 IEM_DS3505
ZBAA,2004-12-27 04:00,ZBAA 270400Z AUTO 31017KT 6SM M03/M16 A3062 RMK T10301160 IEM_DS3505
ZBAA,2004-12-27 05:00,ZBAA 270500Z AUTO 31016KT 6SM M02/M16 A3059 RMK T10201160 IEM_DS3505
ZBAA,2004-12-27 06:00,ZBAA 270600Z AUTO 36004KT 19SM M00/M20 A3056 RMK SLP348 T10051202 57023 IEM_DS3505
ZBAA,2004-12-27 07:00,ZBAA 270700Z AUTO 28012KT 6SM M01/M17 A3056 RMK T10101170 IEM_DS3505
ZBAA,2004-12-27 08:00,ZBAA 270800Z AUTO 28012KT 6SM M02/M18 A3053 RMK T10201180 IEM_DS3505
ZBAA,2004-12-27 09:00,ZBAA 270900Z AUTO 27006KT 19SM M03/M14 A3053 RMK SLP346 T10331138 57003 IEM_DS3505
ZBAA,2004-12-27 10:00,ZBAA 271000Z AUTO 28008KT 6SM M04/M18 A3056 RMK T10401180 IEM_DS3505
ZBAA,2004-12-27 11:00,ZBAA 271100Z AUTO 29012KT 6SM M04/M18 A3056 RMK T10401180 IEM_DS3505
ZBAA,2004-12-27 12:00,ZBAA 271200Z AUTO 22002KT 12SM M05/M15 A3056 RMK SLP357 T10531146 52011 IEM_DS3505
ZBAA,2004-12-27 13:00,ZBAA 271300Z AUTO 31012KT 6SM M04/M18 A3059 RMK T10401180 IEM_DS3505
ZBAA,2004-12-27 14:00,ZBAA 271400Z AUTO 32012KT 6SM M04/M19 A3059 RMK T10401190 IEM_DS3505
ZBAA,2004-12-27 15:00,ZBAA 271500Z AUTO 36006KT 12SM M04/M20 A3056 RMK SLP349 T10361199 57007 IEM_DS3505
ZBAA,2004-12-27 16:00,ZBAA 271600Z AUTO 33008KT 6SM M05/M19 A3056 RMK T10501190 IEM_DS3505
ZBAA,2004-12-27 17:00,ZBAA 271700Z AUTO 33008KT 6SM M06/M20 A3056 RMK T10601200 IEM_DS3505
ZBAA,2004-12-27 18:00,ZBAA 271800Z AUTO 36004KT 16SM M05/M21 A3056 RMK SLP345 T10501207 57004 IEM_DS3505
ZBAA,2004-12-27 19:00,ZBAA 271900Z AUTO 31014KT 6SM M06/M21 A3056 RMK T10601210 IEM_DS3505
ZBAA,2004-12-27 20:00,ZBAA 272000Z AUTO 31016KT 6SM M07/M21 A3056 RMK T10701210 IEM_DS3505
ZBAA,2004-12-27 21:00,ZBAA 272100Z AUTO 02008KT 16SM M06/M23 A3056 RMK SLP342 T10631231 57004 IEM_DS3505
ZBAA,2004-12-27 22:00,ZBAA 272200Z AUTO 31017KT 6SM M07/M21 A3056 RMK T10701210 IEM_DS3505
ZBAA,2004-12-27 23:00,ZBAA 272300Z AUTO 31016KT 6SM M08/M20 A3056 RMK T10801200 IEM_DS3505
ZBAA,2004-12-28 00:00,ZBAA 280000Z AUTO 02008KT 19SM M07/M22 A3059 RMK SLP354 T10701217 52012 IEM_DS3505
ZBAA,2004-12-28 01:00,ZBAA 280100Z AUTO 31016G25KT 6SM M07/M20 A3059 RMK T10701200 IEM_DS3505
ZBAA,2004-12-28 02:00,ZBAA 280200Z AUTO 31017KT 6SM M06/M20 A3062 RMK T10601200 IEM_DS3505
ZBAA,2004-12-28 03:00,ZBAA 280300Z AUTO 36012KT 19SM M05/M22 A3059 RMK SLP360 T10501220 52006 IEM_DS3505
ZBAA,2004-12-28 04:00,ZBAA 280400Z AUTO 02004KT 6SM M05/M18 A3056 RMK T10501180 IEM_DS3505
ZBAA,2004-12-28 05:00,ZBAA 280500Z AUTO 04004KT 6SM M05/M18 A3053 RMK T10501180 IEM_DS3505
ZBAA,2004-12-28 05:30,ZBAA 280530Z AUTO 05004KT 6SM M04/M19 A3053 RMK T10401190 IEM_DS3505
ZBAA,2004-12-28 06:00,ZBAA 280600Z AUTO 36014KT 19SM M03/M22 A3053 RMK SLP334 T10321224 57026 IEM_DS3505
ZBAA,2004-12-28 07:00,ZBAA 280700Z AUTO 02004KT 6SM M04/M20 A3050 RMK T10401200 IEM_DS3505
ZBAA,2004-12-28 08:00,ZBAA 280800Z AUTO 34002KT 6SM M04/M20 A3053 RMK T10401200 IEM_DS3505
ZBAA,2004-12-28 09:00,ZBAA 280900Z AUTO 36006KT 19SM M04/M22 A3053 RMK SLP341 T10401221 52007 IEM_DS3505
ZBAA,2004-12-28 10:00,ZBAA 281000Z AUTO 30010KT 6SM M06/M19 A3053 RMK T10601190 IEM_DS3505
ZBAA,2004-12-28 10:30,ZBAA 281030Z AUTO 30012KT 6SM M06/M18 A3056 RMK T10601180 IEM_DS3505
ZBAA,2004-12-28 11:00,ZBAA 281100Z AUTO 31010KT 6SM M06/M18 A3056 RMK T10601180 IEM_DS3505
ZBAA,2004-12-28 12:00,ZBAA 281200Z AUTO 34008KT 19SM M05/M21 A3056 RMK SLP353 T10521209 52012 IEM_DS3505
ZBAA,2004-12-28 13:00,ZBAA 281300Z AUTO 36006KT 6SM M08/M19 A3059 RMK T10801190 IEM_DS3505
ZBAA,2004-12-28 14:00,ZBAA 281400Z AUTO 35008KT 6SM M10/M19 A3059 RMK T11001190 IEM_DS3505
ZBAA,2004-12-28 15:00,ZBAA 281500Z AUTO 36004KT 16SM M06/M21 A3062 RMK SLP361 T10641208 52008 IEM_DS3505
ZBAA,2004-12-28 16:00,ZBAA 281600Z AUTO 34006KT 6SM M11/M19 A3059 RMK T11101190 IEM_DS3505
ZBAA,2004-12-28 17:00,ZBAA 281700Z AUTO 01006KT 6SM M10/M19 A3059 RMK T11001190 IEM_DS3505
ZBAA,2004-12-28 18:00,ZBAA 281800Z AUTO 34004KT 16SM M08/M21 A3059 RMK SLP359 T10761211 57002 IEM_DS3505
ZBAA,2004-12-28 19:00,ZBAA 281900Z AUTO 01004KT 6SM M11/M19 A3059 RMK T11101190 IEM_DS3505
ZBAA,2004-12-28 20:00,ZBAA 282000Z AUTO 36006KT 6SM M13/M20 A3059 RMK T11301200 IEM_DS3505
ZBAA,2004-12-28 21:00,ZBAA 282100Z AUTO 04004KT 16SM M10/M21 A3059 RMK SLP354 T10951206 57005 IEM_DS3505
ZBAA,2004-12-28 22:00,ZBAA 282200Z AUTO 36006KT 6SM M12/M19 A3059 RMK T11201190 IEM_DS3505
ZBAA,2004-12-28 23:00,ZBAA 282300Z AUTO 35006KT 6SM M13/M20 A3059 RMK T11301200 IEM_DS3505
ZBAA,2004-12-29 00:00,ZBAA 290000Z AUTO 02004KT 16SM M10/M20 A3059 RMK SLP359 T11011203 52005 IEM_DS3505
ZBAA,2004-12-29 01:00,ZBAA 290100Z AUTO 36006KT 6SM M10/M19 A3062 RMK T11001190 IEM_DS3505
ZBAA,2004-12-29 02:00,ZBAA 290200Z AUTO 36008KT 6SM M08/M19 A3059 RMK T10801190 IEM_DS3505
ZBAA,2004-12-29 03:00,ZBAA 290300Z AUTO 04006KT 19SM M07/M22 A3059 RMK SLP359 T10661217 54000 IEM_DS3505
ZBAA,2004-12-29 04:00,ZBAA 290400Z AUTO 01006KT 6SM M06/M19 A3056 RMK T10601190 IEM_DS3505
ZBAA,2004-12-29 05:00,ZBAA 290500Z AUTO 36004KT 6SM M05/M20 A3053 RMK T10501200 IEM_DS3505
ZBAA,2004-12-29 06:00,ZBAA 290600Z AUTO 02006KT 19SM M03/M21 A3050 RMK SLP329 T10341211 57030 IEM_DS3505
ZBAA,2004-12-29 07:00,ZBAA 290700Z AUTO 01004KT 6SM M04/M19 A3050 RMK T10401190 IEM_DS3505
ZBAA,2004-12-29 08:00,ZBAA 290800Z AUTO 02004KT 6SM M04/M19 A3050 RMK T10401190 IEM_DS3505
ZBAA,2004-12-29 09:00,ZBAA 290900Z AUTO 25006KT 19SM M05/M18 A3050 RMK SLP335 T10471182 52006 IEM_DS3505
ZBAA,2004-12-29 12:00,ZBAA 291200Z AUTO 27004KT 12SM M07/M16 A3053 RMK SLP340 T10711163 52005 IEM_DS3505
ZBAA,2004-12-29 13:00,ZBAA 291300Z AUTO 32002KT 6SM M08/M17 A3053 RMK T10801170 IEM_DS3505
ZBAA,2004-12-29 14:00,ZBAA 291400Z AUTO 36004KT 6SM M11/M16 A3053 RMK T11101160 IEM_DS3505
ZBAA,2004-12-29 15:00,ZBAA 291500Z AUTO 27004KT 12SM M08/M16 A3053 RMK SLP343 T10841163 52003 IEM_DS3505
ZBAA,2004-12-29 16:00,ZBAA 291600Z AUTO 35006KT 6SM M12/M17 A3053 RMK T11201170 IEM_DS3505
ZBAA,2004-12-29 17:00,ZBAA 291700Z AUTO 34002KT 6SM M11/M16 A3053 RMK T11101160 IEM_DS3505
ZBAA,2004-12-29 18:00,ZBAA 291800Z AUTO 36004KT 12SM M06/M19 A3053 RMK SLP339 T10651188 57004 IEM_DS3505
ZBAA,2004-12-29 19:00,ZBAA 291900Z AUTO 33004KT 6SM M09/M15 A3053 RMK T10901150 IEM_DS3505
ZBAA,2004-12-29 20:00,ZBAA 292000Z AUTO 36006KT 6SM M08/M16 A3053 RMK T10801160 IEM_DS3505
ZBAA,2004-12-29 21:00,ZBAA 292100Z AUTO 36006KT 9SM M06/M21 A3053 RMK SLP333 T10591207 57006 IEM_DS3505
ZBAA,2004-12-29 22:00,ZBAA 292200Z AUTO 35006KT 6SM M09/M16 A3053 RMK T10901160 IEM_DS3505
ZBAA,2004-12-29 23:00,ZBAA 292300Z AUTO 34006KT 6SM M09/M17 A3056 RMK T10901170 IEM_DS3505
ZBAA,2004-12-30 00:00,ZBAA 300000Z AUTO 36010KT 19SM M07/M22 A3056 RMK SLP347 T10671218 52014 IEM_DS3505
ZBAA,2004-12-30 01:00,ZBAA 300100Z AUTO 32014KT 6SM M07/M19 A3059 RMK T10701190 IEM_DS3505
ZBAA,2004-12-30 02:00,ZBAA 300200Z AUTO 32014KT 6SM M06/M19 A3062 RMK T10601190 IEM_DS3505
ZBAA,2004-12-30 03:00,ZBAA 300300Z AUTO 34010G25KT 19SM M05/M21 A3059 RMK SLP361 T10531210 52014 IEM_DS3505
ZBAA,2004-12-30 04:00,ZBAA 300400Z AUTO 34016G29KT 6SM M05/M19 A3056 RMK T10501190 IEM_DS3505
ZBAA,2004-12-30 05:00,ZBAA 300500Z AUTO 31017KT 6SM M04/M19 A3053 RMK T10401190 IEM_DS3505
ZBAA,2004-12-30 06:00,ZBAA 300600Z AUTO 34014G25KT 19SM M04/M23 A3042 RMK SLP337 T10371229 57024 IEM_DS3505
ZBAA,2004-12-30 07:00,ZBAA 300700Z AUTO 31016KT 6SM M04/M19 A3053 RMK T10401190 IEM_DS3505
ZBAA,2004-12-30 08:00,ZBAA 300800Z AUTO 30016KT 6SM M04/M19 A3053 RMK T10401190 IEM_DS3505
ZBAA,2004-12-30 09:00,ZBAA 300900Z AUTO 32012G25KT 19SM M04/M22 A3056 RMK SLP348 T10441215 52011 IEM_DS3505
ZBAA,2004-12-30 10:00,ZBAA 301000Z AUTO 30016KT 6SM M06/M19 A3059 RMK T10601190 IEM_DS3505
ZBAA,2004-12-30 11:00,ZBAA 301100Z AUTO 30016KT 6SM M07/M19 A3062 RMK T10701190 IEM_DS3505
ZBAA,2004-12-30 12:00,ZBAA 301200Z AUTO 34012KT 19SM M06/M22 A3065 RMK SLP371 T10621222 52023 IEM_DS3505
ZBAA,2004-12-30 13:00,ZBAA 301300Z AUTO 32021KT 6SM M07/M21 A3062 RMK T10701210 IEM_DS3505
ZBAA,2004-12-30 14:00,ZBAA 301400Z AUTO 32016KT 6SM M08/M22 A3065 RMK T10801220 IEM_DS3505
ZBAA,2004-12-30 15:00,ZBAA 301500Z AUTO 34012KT 19SM M07/M23 A3065 RMK SLP379 T10721226 52008 IEM_DS3505
ZBAA,2004-12-30 16:00,ZBAA 301600Z AUTO 31014KT 6SM M08/M21 A3065 RMK T10801210 IEM_DS3505
ZBAA,2004-12-30 17:00,ZBAA 301700Z AUTO 31014KT 6SM M09/M21 A3065 RMK T10901210 IEM_DS3505
ZBAA,2004-12-30 18:00,ZBAA 301800Z AUTO 36012KT 19SM M08/M23 A3065 RMK SLP376 T10771227 57003 IEM_DS3505
ZBAA,2004-12-30 19:00,ZBAA 301900Z AUTO 32010KT 6SM M09/M21 A3065 RMK T10901210 IEM_DS3505
ZBAA,2004-12-30 20:00,ZBAA 302000Z AUTO 32010KT 6SM M09/M21 A3065 RMK T10901210 IEM_DS3505
ZBAA,2004-12-30 21:00,ZBAA 302100Z AUTO 34008KT 19SM M08/M22 A3065 RMK SLP372 T10791225 57004 IEM_DS3505
ZBAA,2004-12-30 22:00,ZBAA 302200Z AUTO 32012KT 6SM M09/M21 A3065 RMK T10901210 IEM_DS3505
ZBAA,2004-12-30 23:00,ZBAA 302300Z AUTO 32012KT 6SM M09/M21 A3068 RMK T10901210 IEM_DS3505
