station,valid,metar
ZBAA,1992-01-01 00:00,ZBAA 010000Z AUTO 04006KT 2SM M04/M13 A3021 RMK SLP285 T10401128 52009 IEM_DS3505
ZBAA,1992-01-01 01:00,ZBAA 010100Z AUTO 36004KT 7SM M05/M12 A3024 RMK T10501120 IEM_DS3505
ZBAA,1992-01-01 02:00,ZBAA 010200Z AUTO 05002KT 7SM M03/M12 A3027 RMK T10301120 IEM_DS3505
ZBAA,1992-01-01 03:00,ZBAA 010300Z AUTO 04004KT 7SM M00/M16 A3024 RMK SLP292 T10031155 52008 IEM_DS3505
ZBAA,1992-01-01 04:00,ZBAA 010400Z AUTO 29004KT 7SM 01/M13 A3024 RMK T00101130 IEM_DS3505
ZBAA,1992-01-01 05:00,ZBAA 010500Z AUTO 28002KT 7SM 02/M14 A3018 RMK T00201140 IEM_DS3505
ZBAA,1992-01-01 06:00,ZBAA 010600Z AUTO 36010KT 9SM 03/M13 A3018 RMK SLP271 T00271133 4////1063 57021 IEM_DS3505
ZBAA,1992-01-01 08:00,ZBAA 010800Z AUTO 27012KT 7SM 02/M15 A3018 RMK T00201150 IEM_DS3505
ZBAA,1992-01-01 09:00,ZBAA 010900Z AUTO 27004KT 4SM 00/M12 A3018 RMK SLP276 T00041118 52004 IEM_DS3505
ZBAA,1992-01-01 10:00,ZBAA 011000Z AUTO 25008KT 6SM M01/M16 A3018 RMK T10101160 IEM_DS3505
ZBAA,1992-01-01 11:00,ZBAA 011100Z AUTO 28008KT 6SM M01/M16 A3021 RMK T10101160 IEM_DS3505
ZBAA,1992-01-01 12:00,ZBAA 011200Z AUTO 27004KT 4SM M02/M16 A3024 RMK SLP291 T10171165 52015 IEM_DS3505
ZBAA,1992-01-01 13:00,ZBAA 011300Z AUTO 28008KT 7SM M02/M15 A3024 RMK T10201150 IEM_DS3505
ZBAA,1992-01-01 14:00,ZBAA 011400Z AUTO 29002KT 7SM M04/M16 A3024 RMK T10401160 IEM_DS3505
ZBAA,1992-01-01 15:00,ZBAA 011500Z AUTO 04006KT 4SM M03/M13 A3024 RMK SLP292 T10281127 52001 IEM_DS3505
ZBAA,1992-01-01 18:00,ZBAA 011800Z AUTO 36002KT 5SM M05/M12 RMK SLP291 T10491125 40033//// 54000 IEM_DS3505
ZBAA,1992-01-01 20:00,ZBAA 012000Z AUTO 31006KT 7SM M04/M16 A3024 RMK T10401160 IEM_DS3505
ZBAA,1992-01-01 21:00,ZBAA 012100Z AUTO 36006KT 6SM M03/M15 A3024 RMK SLP295 T10341150 52003 IEM_DS3505
ZBAA,1992-01-01 22:00,ZBAA 012200Z AUTO 35008KT 7SM M06/M15 A3027 RMK T10601150 IEM_DS3505
ZBAA,1992-01-01 23:00,ZBAA 012300Z AUTO 01010KT 7SM M06/M15 A3027 RMK T10601150 IEM_DS3505
ZBAA,1992-01-02 00:00,ZBAA 020000Z AUTO 09004KT 6SM M04/M16 A3030 RMK SLP312 T10441156 52017 IEM_DS3505
ZBAA,1992-01-02 01:00,ZBAA 020100Z AUTO 36008KT 7SM M05/M15 A3030 RMK T10501150 IEM_DS3505
ZBAA,1992-01-02 02:00,ZBAA 020200Z AUTO 36010KT 7SM M03/M16 A3033 RMK T10301160 IEM_DS3505
ZBAA,1992-01-02 03:00,ZBAA 020300Z AUTO 04006KT 9SM M02/M17 A3033 RMK SLP317 T10161172 52005 IEM_DS3505
ZBAA,1992-01-02 04:00,ZBAA 020400Z AUTO 01008KT 7SM M01/M16 A3030 RMK T10101160 IEM_DS3505
ZBAA,1992-01-02 05:00,ZBAA 020500Z AUTO 02012KT 7SM 00/M16 A3024 RMK T00001160 IEM_DS3505
ZBAA,1992-01-02 06:00,ZBAA 020600Z AUTO 14006KT 7SM 02/M15 A3021 RMK SLP287 T00201150 4////1060 57030 IEM_DS3505
ZBAA,1992-01-02 07:00,ZBAA 020700Z AUTO 02008KT 7SM 01/M16 A3021 RMK T00101160 IEM_DS3505
ZBAA,1992-01-02 08:00,ZBAA 020800Z AUTO 36006KT 7SM 00/M16 A3024 RMK T00001160 IEM_DS3505
ZBAA,1992-01-02 09:00,ZBAA 020900Z AUTO 22004KT 6SM 01/M13 A3027 RMK SLP296 T00101131 52009 IEM_DS3505
ZBAA,1992-01-02 10:00,ZBAA 021000Z AUTO 33002KT 7SM M02/M16 A3027 RMK T10201160 IEM_DS3505
ZBAA,1992-01-02 11:00,ZBAA 021100Z AUTO 33002KT 7SM M03/M16 A3030 RMK T10301160 IEM_DS3505
ZBAA,1992-01-02 12:00,ZBAA 021200Z AUTO 00000KT 5SM M02/M11 A3030 RMK SLP314 T10241112 52018 IEM_DS3505
ZBAA,1992-01-02 13:00,ZBAA 021300Z AUTO 33004KT 7SM M04/M15 A3033 RMK T10401150 IEM_DS3505
ZBAA,1992-01-02 14:00,ZBAA 021400Z AUTO 35004KT 7SM M03/M15 A3033 RMK T10301150 IEM_DS3505
ZBAA,1992-01-02 15:00,ZBAA 021500Z AUTO 00000KT 3SM M05/M11 A3033 RMK SLP324 T10491114 52010 IEM_DS3505
ZBAA,1992-01-02 18:00,ZBAA 021800Z AUTO 32002KT 3SM M06/M12 RMK SLP329 T10641120 40035//// 52005 IEM_DS3505
ZBAA,1992-01-02 20:00,ZBAA 022000Z AUTO 00000KT 7SM M08/M15 A3036 RMK T10801150 IEM_DS3505
ZBAA,1992-01-02 21:00,ZBAA 022100Z AUTO 00000KT 2 1/2SM M08/M12 A3036 RMK SLP331 T10821117 52002 IEM_DS3505
ZBAA,1992-01-02 22:00,ZBAA 022200Z AUTO 00000KT 7SM M08/M15 A3036 RMK T10801150 IEM_DS3505
ZBAA,1992-01-02 23:00,ZBAA 022300Z AUTO 33004KT 7SM M08/M15 A3039 RMK T10801150 IEM_DS3505
ZBAA,1992-01-03 00:00,ZBAA 030000Z AUTO 07002KT 6SM M06/M15 A3039 RMK SLP344 T10571152 52012 IEM_DS3505
ZBAA,1992-01-03 01:00,ZBAA 030100Z AUTO 32004KT 7SM M07/M14 A3042 RMK T10701140 IEM_DS3505
ZBAA,1992-01-03 02:00,ZBAA 030200Z AUTO 35006KT 7SM M05/M14 A3042 RMK T10501140 IEM_DS3505
ZBAA,1992-01-03 03:00,ZBAA 030300Z AUTO 04004KT 4SM M01/M13 A3042 RMK SLP351 T10141127 52008 IEM_DS3505
ZBAA,1992-01-03 04:00,ZBAA 030400Z AUTO 05002KT 7SM M01/M14 A3039 RMK T10101140 IEM_DS3505
ZBAA,1992-01-03 05:00,ZBAA 030500Z AUTO 12004KT 7SM 00/M14 A3036 RMK T00001140 IEM_DS3505
ZBAA,1992-01-03 06:00,ZBAA 030600Z AUTO 16004KT 3SM 01/M13 A3036 RMK SLP329 T00101131 4////1086 57022 IEM_DS3505
ZBAA,1992-01-03 07:00,ZBAA 030700Z AUTO 10002KT 7SM 00/M14 A3033 RMK T00001140 IEM_DS3505
ZBAA,1992-01-03 08:00,ZBAA 030800Z AUTO 11004KT 7SM 00/M14 A3033 RMK T00001140 IEM_DS3505
ZBAA,1992-01-03 09:00,ZBAA 030900Z AUTO 20004KT 3SM M00/M13 A3033 RMK SLP324 T10021131 57005 IEM_DS3505
ZBAA,1992-01-03 10:00,ZBAA 031000Z AUTO 00000KT 4SM M03/M13 A3033 RMK T10301130 IEM_DS3505
ZBAA,1992-01-03 11:00,ZBAA 031100Z AUTO 00000KT 4SM M04/M13 A3036 RMK T10401130 IEM_DS3505
ZBAA,1992-01-03 12:00,ZBAA 031200Z AUTO 27002KT 3SM M04/M12 RMK SLP329 T10351120 52004 IEM_DS3505
ZBAA,1992-01-03 15:00,ZBAA 031500Z AUTO 04006KT 2 1/2SM M04/M11 RMK SLP326 T10361110 57002 IEM_DS3505
ZBAA,1992-01-03 18:00,ZBAA 031800Z AUTO 04004KT 4SM M06/M13 RMK SLP316 T10571132 40014//// 57010 IEM_DS3505
ZBAA,1992-01-03 21:00,ZBAA 032100Z AUTO 09002KT 6SM M07/M12 A3027 RMK SLP305 T10681125 57011 IEM_DS3505
ZBAA,1992-01-03 22:00,ZBAA 032200Z AUTO 31004KT 3SM M09/M14 A3027 RMK T10901140 IEM_DS3505
ZBAA,1992-01-03 23:00,ZBAA 032300Z AUTO 35004KT 3SM M08/M13 A3027 RMK T10801130 IEM_DS3505
ZBAA,1992-01-04 00:00,ZBAA 040000Z AUTO 00000KT 1 1/4SM M08/M12 A3039 RMK SLP311 T10811121 52005 IEM_DS3505
ZBAA,1992-01-04 01:00,ZBAA 040100Z AUTO 32002KT 4SM M07/M12 A3030 RMK T10701120 IEM_DS3505
ZBAA,1992-01-04 02:00,ZBAA 040200Z AUTO 34006KT 4SM M06/M12 A3030 RMK T10601120 IEM_DS3505
ZBAA,1992-01-04 03:00,ZBAA 040300Z AUTO 09004KT 3SM M02/M13 A3030 RMK SLP309 T10221126 57001 IEM_DS3505
ZBAA,1992-01-04 04:00,ZBAA 040400Z AUTO 36006KT 4SM M02/M12 A3024 RMK T10201120 IEM_DS3505
ZBAA,1992-01-04 05:00,ZBAA 040500Z AUTO 00000KT 5SM M01/M12 A3024 RMK T10101120 IEM_DS3505
ZBAA,1992-01-04 06:00,ZBAA 040600Z AUTO 27002KT 2SM 02/M12 A3024 RMK SLP292 T00151120 4////1084 57017 IEM_DS3505
ZBAA,1992-01-04 07:00,ZBAA 040700Z AUTO 30002KT 4SM 00/M12 A3021 RMK T00001120 IEM_DS3505
ZBAA,1992-01-04 08:00,ZBAA 040800Z AUTO 00000KT 4SM 00/M13 A3021 RMK T00001130 IEM_DS3505
ZBAA,1992-01-04 09:00,ZBAA 040900Z AUTO 36004KT 2SM 01/M10 A3024 RMK SLP287 T00061097 57005 IEM_DS3505
ZBAA,1992-01-04 10:00,ZBAA 041000Z AUTO 27004KT 3SM M02/M12 A3024 RMK T10201120 IEM_DS3505
ZBAA,1992-01-04 12:00,ZBAA 041200Z AUTO 09004KT 2SM M00/M11 A3024 RMK SLP290 T10021111 52003 IEM_DS3505
ZBAA,1992-01-04 13:00,ZBAA 041300Z AUTO 00000KT 2SM M03/M12 A3024 RMK T10301120 IEM_DS3505
ZBAA,1992-01-04 14:00,ZBAA 041400Z AUTO 00000KT 2SM M03/M12 A3024 RMK T10301120 IEM_DS3505
ZBAA,1992-01-04 15:00,ZBAA 041500Z AUTO 22004KT 1 1/2SM M02/M10 A3027 RMK SLP297 T10201098 52007 IEM_DS3505
ZBAA,1992-01-04 18:00,ZBAA 041800Z AUTO 02004KT 3SM M02/M09 RMK SLP292 T10251093 40018//// 57004 IEM_DS3505
ZBAA,1992-01-04 20:00,ZBAA 042000Z AUTO 34002KT 1 1/2SM M05/M10 A3024 RMK T10501100 IEM_DS3505
ZBAA,1992-01-04 21:00,ZBAA 042100Z AUTO 04006KT 2SM M03/M11 A3024 RMK SLP290 T10291109 57002 IEM_DS3505
ZBAA,1992-01-04 22:00,ZBAA 042200Z AUTO 00000KT 1 1/2SM M05/M10 A3024 RMK T10501100 IEM_DS3505
ZBAA,1992-01-04 23:00,ZBAA 042300Z AUTO 27006KT 2SM M05/M10 A3024 RMK T10501100 IEM_DS3505
ZBAA,1992-01-05 00:00,ZBAA 050000Z AUTO 34004KT 2SM M03/M09 A3027 RMK SLP297 T10281087 52006 IEM_DS3505
ZBAA,1992-01-05 01:00,ZBAA 050100Z AUTO 28006KT 2SM M03/M10 A3027 RMK T10301100 IEM_DS3505
ZBAA,1992-01-05 02:00,ZBAA 050200Z AUTO 00000KT 2SM M02/M10 A3027 RMK T10201100 IEM_DS3505
ZBAA,1992-01-05 03:00,ZBAA 050300Z AUTO 11002KT 2SM M01/M10 A3027 RMK SLP305 T10061102 52008 IEM_DS3505
ZBAA,1992-01-05 04:00,ZBAA 050400Z AUTO 31006KT 2 1/2SM M01/M10 A3024 RMK T10101100 IEM_DS3505
ZBAA,1992-01-05 05:00,ZBAA 050500Z AUTO 00000KT 3SM M01/M11 A3021 RMK T10101110 IEM_DS3505
ZBAA,1992-01-05 06:00,ZBAA 050600Z AUTO 04004KT 4SM M01/M10 A3021 RMK SLP285 T10081095 4////1035 57020 IEM_DS3505
ZBAA,1992-01-05 07:00,ZBAA 050700Z AUTO 09004KT 3SM M01/M09 A3021 RMK T10101090 IEM_DS3505
ZBAA,1992-01-05 08:00,ZBAA 050800Z AUTO 12008KT 3SM M01/M09 A3024 RMK T10101090 IEM_DS3505
ZBAA,1992-01-05 09:00,ZBAA 050900Z AUTO 02002KT 2 1/2SM M01/M07 A3024 RMK SLP290 T10141067 52005 IEM_DS3505
ZBAA,1992-01-05 10:00,ZBAA 051000Z AUTO 00000KT 3SM M03/M05 A3024 RMK T10301050 IEM_DS3505
ZBAA,1992-01-05 11:00,ZBAA 051100Z AUTO 00000KT 2 1/2SM M03/M05 A3024 RMK T10301050 IEM_DS3505
ZBAA,1992-01-05 12:00,ZBAA 051200Z AUTO 09004KT 2SM M02/M06 A3024 RMK SLP291 T10181064 52001 IEM_DS3505
ZBAA,1992-01-05 13:00,ZBAA 051300Z AUTO 11002KT 2 1/2SM M03/M06 A3024 RMK T10301060 IEM_DS3505
ZBAA,1992-01-05 14:00,ZBAA 051400Z AUTO 15004KT 2 1/2SM M03/M06 A3024 RMK T10301060 IEM_DS3505
ZBAA,1992-01-05 15:00,ZBAA 051500Z AUTO 16004KT 2SM M02/M06 A3024 RMK SLP292 T10201063 52001 IEM_DS3505
ZBAA,1992-01-05 18:00,ZBAA 051800Z AUTO 20006KT 2 1/2SM M02/M07 RMK SLP292 T10251074 40000//// 54000 IEM_DS3505
ZBAA,1992-01-05 20:00,ZBAA 052000Z AUTO 00000KT 2 1/2SM M03/M06 A3021 RMK T10301060 IEM_DS3505
ZBAA,1992-01-05 21:00,ZBAA 052100Z AUTO 00000KT 3SM M03/M08 A3021 RMK SLP282 T10261078 57010 IEM_DS3505
ZBAA,1992-01-05 22:00,ZBAA 052200Z AUTO 00000KT 2 1/2SM M03/M06 A3021 RMK T10301060 IEM_DS3505
ZBAA,1992-01-05 23:00,ZBAA 052300Z AUTO 26002KT 2 1/2SM M03/M06 A3018 RMK T10301060 IEM_DS3505
ZBAA,1992-01-06 00:00,ZBAA 060000Z AUTO 00000KT 1 1/4SM M03/M06 A3021 RMK 60001 70001 SLP284 T10331058 52002 IEM_DS3505
ZBAA,1992-01-06 01:00,ZBAA 060100Z AUTO 24004KT 1SM M03/M05 A3024 RMK T10301050 IEM_DS3505
ZBAA,1992-01-06 02:00,ZBAA 060200Z AUTO 23006KT 1SM M03/M04 A3024 RMK T10301040 IEM_DS3505
ZBAA,1992-01-06 03:00,ZBAA 060300Z AUTO 20006KT 2 1/2SM M03/M05 A3024 RMK SLP288 T10301048 52004 IEM_DS3505
ZBAA,1992-01-06 04:00,ZBAA 060400Z AUTO 19002KT 1 1/4SM M02/M04 A3021 RMK T10201040 IEM_DS3505
ZBAA,1992-01-06 05:00,ZBAA 060500Z AUTO 19002KT 1 1/4SM M02/M04 A3021 RMK T10201040 IEM_DS3505
ZBAA,1992-01-06 06:00,ZBAA 060600Z AUTO 20004KT 2 1/2SM M02/M04 A3015 RMK 60002 SLP269 T10161042 4////1036 57019 IEM_DS3505
ZBAA,1992-01-06 07:00,ZBAA 060700Z AUTO 26014KT 7SM 00/M10 A3015 RMK T00001100 IEM_DS3505
ZBAA,1992-01-06 08:00,ZBAA 060800Z AUTO 26014KT 6SM 00/M12 A3015 RMK T00001120 IEM_DS3505
ZBAA,1992-01-06 09:00,ZBAA 060900Z AUTO 29006KT 9SM M01/M14 A3021 RMK SLP278 T10121139 52009 IEM_DS3505
ZBAA,1992-01-06 10:00,ZBAA 061000Z AUTO 27014KT 6SM M02/M14 A3021 RMK T10201140 IEM_DS3505
ZBAA,1992-01-06 11:00,ZBAA 061100Z AUTO 27010KT 7SM M03/M14 A3021 RMK T10301140 IEM_DS3505
ZBAA,1992-01-06 13:00,ZBAA 061300Z AUTO 30014KT 7SM M03/M15 A3024 RMK T10301150 IEM_DS3505
ZBAA,1992-01-06 14:00,ZBAA 061400Z AUTO 30012KT 7SM M03/M16 A3024 RMK T10301160 IEM_DS3505
ZBAA,1992-01-06 15:00,ZBAA 061500Z AUTO 04004KT 12SM M03/M16 A3024 RMK SLP293 T10341157 52004 IEM_DS3505
ZBAA,1992-01-06 16:00,ZBAA 061600Z AUTO 31010KT 7SM M04/M15 A3027 RMK T10401150 IEM_DS3505
ZBAA,1992-01-06 18:00,ZBAA 061800Z AUTO 20002KT 5SM M06/M12 RMK SLP305 T10581116 40003//// 52012 IEM_DS3505
ZBAA,1992-01-06 20:00,ZBAA 062000Z AUTO 02004KT 7SM M06/M15 A3027 RMK T10601150 IEM_DS3505
ZBAA,1992-01-06 21:00,ZBAA 062100Z AUTO 00000KT 4SM M08/M12 A3027 RMK SLP302 T10801119 57003 IEM_DS3505
ZBAA,1992-01-06 22:00,ZBAA 062200Z AUTO 36008KT 7SM M07/M14 A3027 RMK T10701140 IEM_DS3505
ZBAA,1992-01-06 23:00,ZBAA 062300Z AUTO 36008KT 7SM M08/M15 A3027 RMK T10801150 IEM_DS3505
ZBAA,1992-01-07 00:00,ZBAA 070000Z AUTO 22004KT 3SM M06/M12 A3030 RMK 70002 SLP311 T10601125 52009 IEM_DS3505
ZBAA,1992-01-07 01:00,ZBAA 070100Z AUTO 36006KT 7SM M06/M14 A3030 RMK T10601140 IEM_DS3505
ZBAA,1992-01-07 02:00,ZBAA 070200Z AUTO 36006KT 7SM M03/M12 A3033 RMK T10301120 IEM_DS3505
ZBAA,1992-01-07 03:00,ZBAA 070300Z AUTO 04002KT 1 1/2SM 00/M12 A3030 RMK SLP317 T00031120 52006 IEM_DS3505
ZBAA,1992-01-07 04:00,ZBAA 070400Z AUTO 35006KT 7SM 00/M12 A3030 RMK T00001120 IEM_DS3505
ZBAA,1992-01-07 05:00,ZBAA 070500Z AUTO 35006KT 7SM 00/M12 A3030 RMK T00001120 IEM_DS3505
ZBAA,1992-01-07 06:00,ZBAA 070600Z AUTO 20006KT 6SM 03/M13 A3024 RMK SLP297 T00301134 4////1087 57020 IEM_DS3505
ZBAA,1992-01-07 07:00,ZBAA 070700Z AUTO 20008KT 7SM 03/M13 A3024 RMK T00301130 IEM_DS3505
ZBAA,1992-01-07 08:00,ZBAA 070800Z AUTO 21008KT 7SM 03/M12 A3024 RMK T00301120 IEM_DS3505
ZBAA,1992-01-07 09:00,ZBAA 070900Z AUTO 22004KT 3SM 01/M13 A3027 RMK SLP300 T00141127 52003 IEM_DS3505
ZBAA,1992-01-07 10:00,ZBAA 071000Z AUTO 36002KT 7SM M01/M11 A3027 RMK T10101110 IEM_DS3505
ZBAA,1992-01-07 11:00,ZBAA 071100Z AUTO 00000KT 7SM M03/M11 A3030 RMK T10301110 IEM_DS3505
ZBAA,1992-01-07 12:00,ZBAA 071200Z AUTO 20004KT 3SM M01/M10 A3030 RMK SLP312 T10131099 52012 IEM_DS3505
ZBAA,1992-01-07 13:00,ZBAA 071300Z AUTO 00000KT 7SM M04/M11 A3030 RMK T10401110 IEM_DS3505
ZBAA,1992-01-07 14:00,ZBAA 071400Z AUTO 32002KT 7SM M04/M12 A3030 RMK T10401120 IEM_DS3505
ZBAA,1992-01-07 15:00,ZBAA 071500Z AUTO 36002KT 2 1/2SM M05/M07 A3030 RMK SLP312 T10481074 54000 IEM_DS3505
ZBAA,1992-01-07 18:00,ZBAA 071800Z AUTO 00000KT 3SM M05/M09 RMK SLP313 T10531089 40032//// 52001 IEM_DS3505
ZBAA,1992-01-07 21:00,ZBAA 072100Z AUTO 09004KT 4SM M06/M09 RMK SLP302 T10601094 57011 IEM_DS3505
ZBAA,1992-01-07 22:00,ZBAA 072200Z AUTO 30004KT 7SM M08/M12 A3027 RMK T10801120 IEM_DS3505
ZBAA,1992-01-07 23:00,ZBAA 072300Z AUTO 34006KT 7SM M06/M12 A3027 RMK T10601120 IEM_DS3505
ZBAA,1992-01-08 00:00,ZBAA 080000Z AUTO 00000KT 3SM M07/M10 A3027 RMK SLP304 T10701101 52002 IEM_DS3505
ZBAA,1992-01-08 01:00,ZBAA 080100Z AUTO 35006KT 7SM M05/M12 A3030 RMK T10501120 IEM_DS3505
ZBAA,1992-01-08 02:00,ZBAA 080200Z AUTO 36008KT 7SM M03/M12 A3027 RMK T10301120 IEM_DS3505
ZBAA,1992-01-08 03:00,ZBAA 080300Z AUTO 04004KT 4SM 00/M12 A3027 RMK SLP305 T00011117 52001 IEM_DS3505
ZBAA,1992-01-08 04:00,ZBAA 080400Z AUTO 36006KT 7SM 01/M12 A3024 RMK T00101120 IEM_DS3505
ZBAA,1992-01-08 05:00,ZBAA 080500Z AUTO 35004KT 7SM 03/M11 A3021 RMK T00301110 IEM_DS3505
ZBAA,1992-01-08 06:00,ZBAA 080600Z AUTO 22004KT 3SM 04/M11 A3018 RMK SLP279 T00421113 4////1073 57025 IEM_DS3505
ZBAA,1992-01-08 07:00,ZBAA 080700Z AUTO 00000KT 7SM 04/M11 A3018 RMK T00401110 IEM_DS3505
ZBAA,1992-01-08 08:00,ZBAA 080800Z AUTO 00000KT 7SM 04/M12 A3018 RMK T00401120 IEM_DS3505
ZBAA,1992-01-08 09:00,ZBAA 080900Z AUTO 20004KT 2 1/2SM 02/M10 A3018 RMK SLP278 T00221096 57002 IEM_DS3505
ZBAA,1992-01-08 10:00,ZBAA 081000Z AUTO 00000KT 7SM M01/M11 A3021 RMK T10101110 IEM_DS3505
ZBAA,1992-01-08 11:00,ZBAA 081100Z AUTO 28004KT 7SM M02/M12 A3021 RMK T10201120 IEM_DS3505
ZBAA,1992-01-08 12:00,ZBAA 081200Z AUTO 27004KT 4SM M01/M09 RMK SLP290 T10121086 52012 IEM_DS3505
ZBAA,1992-01-08 13:00,ZBAA 081300Z AUTO 00000KT 7SM M02/M11 A3024 RMK T10201110 IEM_DS3505
ZBAA,1992-01-08 14:00,ZBAA 081400Z AUTO 33006KT 7SM M03/M12 A3024 RMK T10301120 IEM_DS3505
ZBAA,1992-01-08 15:00,ZBAA 081500Z AUTO 04008KT 6SM 01/M11 A3027 RMK SLP301 T00121109 52012 IEM_DS3505
ZBAA,1992-01-08 16:00,ZBAA 081600Z AUTO 31004KT 7SM M01/M12 A3027 RMK T10101120 IEM_DS3505
ZBAA,1992-01-08 17:00,ZBAA 081700Z AUTO 34006KT 7SM M01/M12 A3030 RMK T10101120 IEM_DS3505
ZBAA,1992-01-08 18:00,ZBAA 081800Z AUTO 36006KT 9SM 01/M13 A3030 RMK SLP307 T00061126 40044//// 52006 IEM_DS3505
ZBAA,1992-01-08 19:00,ZBAA 081900Z AUTO 32010KT 7SM M01/M12 A3033 RMK T10101120 IEM_DS3505
ZBAA,1992-01-08 20:00,ZBAA 082000Z AUTO 33002KT 7SM M01/M12 A3033 RMK T10101120 IEM_DS3505
ZBAA,1992-01-08 21:00,ZBAA 082100Z AUTO 36008KT 9SM M01/M14 A3036 RMK SLP323 T10081144 52016 IEM_DS3505
ZBAA,1992-01-08 22:00,ZBAA 082200Z AUTO 31006KT 7SM M02/M14 A3036 RMK T10201140 IEM_DS3505
ZBAA,1992-01-08 23:00,ZBAA 082300Z AUTO 36010KT 7SM M02/M14 A3039 RMK T10201140 IEM_DS3505
ZBAA,1992-01-09 00:00,ZBAA 090000Z AUTO 36008KT 16SM M00/M17 A3042 RMK SLP343 T10041166 52019 IEM_DS3505
ZBAA,1992-01-09 01:00,ZBAA 090100Z AUTO 35012KT 7SM M01/M15 A3045 RMK T10101150 IEM_DS3505
ZBAA,1992-01-09 02:00,ZBAA 090200Z AUTO 34014KT 7SM 00/M14 A3045 RMK T00001140 IEM_DS3505
ZBAA,1992-01-09 03:00,ZBAA 090300Z AUTO 04012KT 12SM 03/M18 A3045 RMK SLP361 T00311179 52019 IEM_DS3505
ZBAA,1992-01-09 04:00,ZBAA 090400Z AUTO 32012KT 7SM 03/M15 A3042 RMK T00301150 IEM_DS3505
ZBAA,1992-01-09 05:00,ZBAA 090500Z AUTO 36006KT 7SM 05/M15 A3042 RMK T00501150 IEM_DS3505
ZBAA,1992-01-09 06:00,ZBAA 090600Z AUTO 04006KT 16SM 06/M17 A3039 RMK SLP348 T00631172 4////1029 57013 IEM_DS3505
ZBAA,1992-01-09 07:00,ZBAA 090700Z AUTO 33004KT 7SM 06/M15 A3042 RMK T00601150 IEM_DS3505
ZBAA,1992-01-09 08:00,ZBAA 090800Z AUTO 01004KT 7SM 05/M15 A3042 RMK T00501150 IEM_DS3505
ZBAA,1992-01-09 09:00,ZBAA 090900Z AUTO 36004KT 16SM 05/M13 A3042 RMK SLP349 T00471129 52001 IEM_DS3505
ZBAA,1992-01-09 10:00,ZBAA 091000Z AUTO 35006KT 7SM 01/M15 A3042 RMK T00101150 IEM_DS3505
ZBAA,1992-01-09 11:00,ZBAA 091100Z AUTO 00000KT 7SM M02/M15 A3045 RMK T10201150 IEM_DS3505
ZBAA,1992-01-09 12:00,ZBAA 091200Z AUTO 02004KT 12SM M01/M11 A3045 RMK SLP358 T10101109 52008 IEM_DS3505
ZBAA,1992-01-09 13:00,ZBAA 091300Z AUTO 17006KT 7SM M04/M14 A3045 RMK T10401140 IEM_DS3505
ZBAA,1992-01-09 14:00,ZBAA 091400Z AUTO 00000KT 7SM M04/M14 A3045 RMK T10401140 IEM_DS3505
ZBAA,1992-01-09 15:00,ZBAA 091500Z AUTO 00000KT 9SM M04/M10 A3045 RMK SLP359 T10371097 52001 IEM_DS3505
ZBAA,1992-01-09 16:00,ZBAA 091600Z AUTO 00000KT 7SM M05/M13 A3042 RMK T10501130 IEM_DS3505
ZBAA,1992-01-09 18:00,ZBAA 091800Z AUTO 07004KT 6SM M05/M11 RMK SLP353 T10481107 40069//// 57005 IEM_DS3505
ZBAA,1992-01-09 20:00,ZBAA 092000Z AUTO 34002KT 7SM M07/M13 A3042 RMK T10701130 IEM_DS3505
ZBAA,1992-01-09 21:00,ZBAA 092100Z AUTO 07002KT 6SM M06/M11 A3039 RMK SLP344 T10611110 57010 IEM_DS3505
ZBAA,1992-01-09 23:00,ZBAA 092300Z AUTO 31004KT 7SM M08/M13 A3039 RMK T10801130 IEM_DS3505
ZBAA,1992-01-10 00:00,ZBAA 100000Z AUTO 29002KT 1 1/4SM M07/M12 A3039 RMK SLP341 T10721120 57004 IEM_DS3505
ZBAA,1992-01-10 01:00,ZBAA 100100Z AUTO 32006KT 7SM M06/M13 A3039 RMK T10601130 IEM_DS3505
ZBAA,1992-01-10 02:00,ZBAA 100200Z AUTO 34004KT 7SM M03/M12 A3039 RMK T10301120 IEM_DS3505
ZBAA,1992-01-10 03:00,ZBAA 100300Z AUTO 34004KT 3SM M00/M14 A3039 RMK SLP338 T10021143 57002 IEM_DS3505
ZBAA,1992-01-10 04:00,ZBAA 100400Z AUTO 36002KT 7SM 01/M12 A3033 RMK T00101120 IEM_DS3505
ZBAA,1992-01-10 05:00,ZBAA 100500Z AUTO 04002KT 7SM 02/M13 A3030 RMK T00201130 IEM_DS3505
ZBAA,1992-01-10 06:00,ZBAA 100600Z AUTO 11004KT 2 1/2SM 04/M11 A3027 RMK SLP303 T00401112 4////1078 57034 IEM_DS3505
ZBAA,1992-01-10 07:00,ZBAA 100700Z AUTO 13004KT 7SM 03/M13 A3027 RMK T00301130 IEM_DS3505
ZBAA,1992-01-10 08:00,ZBAA 100800Z AUTO 00000KT 7SM 02/M13 A3027 RMK T00201130 IEM_DS3505
ZBAA,1992-01-10 09:00,ZBAA 100900Z AUTO 20002KT 3SM 03/M10 A3027 RMK SLP299 T00311101 57005 IEM_DS3505
ZBAA,1992-01-10 10:00,ZBAA 101000Z AUTO 05002KT 7SM 01/M13 A3027 RMK T00101130 IEM_DS3505
ZBAA,1992-01-10 11:00,ZBAA 101100Z AUTO 05002KT 7SM M01/M11 A3027 RMK T10101110 IEM_DS3505
ZBAA,1992-01-10 12:00,ZBAA 101200Z AUTO 04002KT 2SM M02/M08 A3027 RMK SLP301 T10241084 52002 IEM_DS3505
ZBAA,1992-01-10 13:00,ZBAA 101300Z AUTO 10004KT 7SM M03/M09 A3027 RMK T10301090 IEM_DS3505
ZBAA,1992-01-10 14:00,ZBAA 101400Z AUTO 09004KT 7SM M05/M09 A3027 RMK T10501090 IEM_DS3505
ZBAA,1992-01-10 15:00,ZBAA 101500Z AUTO 22002KT 1 1/2SM M03/M07 RMK SLP297 T10301073 57004 IEM_DS3505
ZBAA,1992-01-10 18:00,ZBAA 101800Z AUTO 04004KT 1 1/4SM M03/M08 RMK SLP286 T10321084 40047//// 57010 IEM_DS3505
ZBAA,1992-01-10 20:00,ZBAA 102000Z AUTO 00000KT 7SM M06/M08 A3021 RMK T10601080 IEM_DS3505
ZBAA,1992-01-10 21:00,ZBAA 102100Z AUTO 02004KT 1 1/4SM M03/M08 A3021 RMK SLP278 T10321077 57008 IEM_DS3505
ZBAA,1992-01-10 22:00,ZBAA 102200Z AUTO 03002KT 7SM M06/M08 A3018 RMK T10601080 IEM_DS3505
ZBAA,1992-01-10 23:00,ZBAA 102300Z AUTO 01002KT 3SM M06/M08 A3018 RMK T10601080 IEM_DS3505
ZBAA,1992-01-11 00:00,ZBAA 110000Z AUTO 04004KT 1 1/4SM M03/M08 A3018 RMK SLP274 T10341075 57005 IEM_DS3505
ZBAA,1992-01-11 01:00,ZBAA 110100Z AUTO 05004KT 1SM M05/M07 A3021 RMK T10501070 IEM_DS3505
ZBAA,1992-01-11 02:00,ZBAA 110200Z AUTO 05002KT 1SM M04/M07 A3021 RMK T10401070 IEM_DS3505
ZBAA,1992-01-11 03:00,ZBAA 110300Z AUTO 09004KT 2SM M02/M06 A3018 RMK SLP275 T10161057 52001 IEM_DS3505
ZBAA,1992-01-11 04:00,ZBAA 110400Z AUTO 08002KT 1SM M02/M07 A3015 RMK T10201070 IEM_DS3505
ZBAA,1992-01-11 05:00,ZBAA 110500Z AUTO 07002KT 1 1/2SM 00/M07 A3012 RMK T00001070 IEM_DS3505
ZBAA,1992-01-11 06:00,ZBAA 110600Z AUTO 07002KT 1 1/2SM 01/M05 A3012 RMK SLP252 T00061052 4////1039 57022 IEM_DS3505
ZBAA,1992-01-11 07:00,ZBAA 110700Z AUTO 00000KT 1 1/2SM 00/M07 A3012 RMK T00001070 IEM_DS3505
ZBAA,1992-01-11 08:00,ZBAA 110800Z AUTO 00000KT 1 1/2SM 00/M07 A3012 RMK T00001070 IEM_DS3505
ZBAA,1992-01-11 09:00,ZBAA 110900Z AUTO 16004KT 1SM 00/M05 A3012 RMK SLP256 T00031052 52004 IEM_DS3505
ZBAA,1992-01-11 10:00,ZBAA 111000Z AUTO 16002KT 1 1/4SM M02/M08 A3012 RMK T10201080 IEM_DS3505
ZBAA,1992-01-11 11:00,ZBAA 111100Z AUTO 00000KT 1 1/4SM M04/M08 A3015 RMK T10401080 IEM_DS3505
ZBAA,1992-01-11 12:00,ZBAA 111200Z AUTO 20004KT 1 1/4SM M01/M06 A3015 RMK SLP266 T10121056 52009 IEM_DS3505
ZBAA,1992-01-11 14:00,ZBAA 111400Z AUTO 06002KT 1 1/4SM M06/M08 A3018 RMK T10601080 IEM_DS3505
ZBAA,1992-01-11 15:00,ZBAA 111500Z AUTO 00000KT 1SM M04/M06 A3018 RMK SLP273 T10381059 52007 IEM_DS3505
ZBAA,1992-01-11 18:00,ZBAA 111800Z AUTO 09002KT 1 1/4SM M04/M06 RMK SLP272 T10401060 40013//// 54000 IEM_DS3505
ZBAA,1992-01-11 20:00,ZBAA 112000Z AUTO 36006KT 2SM M04/M09 A3018 RMK T10401090 IEM_DS3505
ZBAA,1992-01-11 21:00,ZBAA 112100Z AUTO 04004KT 1 1/4SM M01/M09 A3018 RMK SLP273 T10061092 52001 IEM_DS3505
ZBAA,1992-01-11 22:00,ZBAA 112200Z AUTO 35008KT 4SM M03/M10 A3018 RMK T10301100 IEM_DS3505
ZBAA,1992-01-11 23:00,ZBAA 112300Z AUTO 36010KT 6SM M03/M10 A3021 RMK T10301100 IEM_DS3505
ZBAA,1992-01-12 00:00,ZBAA 120000Z AUTO 09004KT 3SM M04/M08 A3021 RMK SLP280 T10441083 52006 IEM_DS3505
ZBAA,1992-01-12 01:00,ZBAA 120100Z AUTO 03010KT 6SM M02/M11 A3021 RMK T10201110 IEM_DS3505
ZBAA,1992-01-12 02:00,ZBAA 120200Z AUTO 04012KT 6SM 00/M12 A3024 RMK T00001120 IEM_DS3505
ZBAA,1992-01-12 03:00,ZBAA 120300Z AUTO 04006KT 5SM 02/M11 RMK SLP287 T00211109 52008 IEM_DS3505
ZBAA,1992-01-12 04:00,ZBAA 120400Z AUTO 03010KT 6SM 03/M12 A3024 RMK T00301120 IEM_DS3505
ZBAA,1992-01-12 05:00,ZBAA 120500Z AUTO 36008KT 6SM 04/M12 A3030 RMK T00401120 IEM_DS3505
ZBAA,1992-01-12 06:00,ZBAA 120600Z AUTO 27002KT 4SM 05/M10 A3015 RMK SLP265 T00541105 4////1047 57022 IEM_DS3505
ZBAA,1992-01-12 07:00,ZBAA 120700Z AUTO 01006KT 6SM 04/M12 A3015 RMK T00401120 IEM_DS3505
ZBAA,1992-01-12 08:00,ZBAA 120800Z AUTO 35006KT 6SM 04/M13 A3018 RMK T00401130 IEM_DS3505
ZBAA,1992-01-12 09:00,ZBAA 120900Z AUTO 36004KT 6SM 04/M09 A3021 RMK SLP276 T00451090 52011 IEM_DS3505
ZBAA,1992-01-12 10:00,ZBAA 121000Z AUTO 34006KT 6SM 03/M11 A3021 RMK T00301110 IEM_DS3505
ZBAA,1992-01-12 11:00,ZBAA 121100Z AUTO 34008KT 6SM 01/M10 A3024 RMK T00101100 IEM_DS3505
ZBAA,1992-01-12 12:00,ZBAA 121200Z AUTO 36006KT 12SM 03/M10 A3024 RMK SLP298 T00281096 52022 IEM_DS3505
ZBAA,1992-01-12 13:00,ZBAA 121300Z AUTO 29010KT 6SM 01/M13 RMK T00101130 IEM_DS3505
ZBAA,1992-01-12 14:00,ZBAA 121400Z AUTO 29012KT 6SM 00/M14 A3030 RMK T00001140 IEM_DS3505
ZBAA,1992-01-12 15:00,ZBAA 121500Z AUTO 36010KT 12SM M00/M14 RMK SLP318 T10011136 52020 IEM_DS3505
ZBAA,1992-01-12 18:00,ZBAA 121800Z AUTO 02008KT 11SM M02/M16 RMK SLP338 T10221162 40060//// 52020 IEM_DS3505
ZBAA,1992-01-12 20:00,ZBAA 122000Z AUTO 31016KT 7SM M03/M17 A3039 RMK T10301170 IEM_DS3505
ZBAA,1992-01-12 21:00,ZBAA 122100Z AUTO 36012KT 11SM M03/M18 A3039 RMK SLP345 T10291179 52007 IEM_DS3505
ZBAA,1992-01-12 22:00,ZBAA 122200Z AUTO 29012KT 7SM M04/M17 A3042 RMK T10401170 IEM_DS3505
ZBAA,1992-01-12 23:00,ZBAA 122300Z AUTO 30014KT 7SM M04/M17 A3045 RMK T10401170 IEM_DS3505
ZBAA,1992-01-13 00:00,ZBAA 130000Z AUTO 36008KT 12SM M03/M18 A3047 RMK SLP368 T10341184 52022 IEM_DS3505
ZBAA,1992-01-13 01:00,ZBAA 130100Z AUTO 31012KT 7SM M03/M17 A3047 RMK T10301170 IEM_DS3505
ZBAA,1992-01-13 02:00,ZBAA 130200Z AUTO 34010KT 7SM M02/M17 A3050 RMK T10201170 IEM_DS3505
ZBAA,1992-01-13 03:00,ZBAA 130300Z AUTO 04014KT 12SM M00/M19 A3050 RMK SLP379 T10031192 52011 IEM_DS3505
ZBAA,1992-01-13 04:00,ZBAA 130400Z AUTO 36010KT 7SM 01/M18 A3047 RMK T00101180 IEM_DS3505
ZBAA,1992-01-13 05:00,ZBAA 130500Z AUTO 32008KT 7SM 01/M18 A3045 RMK T00101180 IEM_DS3505
ZBAA,1992-01-13 06:00,ZBAA 130600Z AUTO 36016KT 12SM 01/M19 A3045 RMK SLP361 T00121194 4////1042 57018 IEM_DS3505
ZBAA,1992-01-13 07:00,ZBAA 130700Z AUTO 29014KT 7SM 01/M18 A3045 RMK T00101180 IEM_DS3505
ZBAA,1992-01-13 08:00,ZBAA 130800Z AUTO 30012KT 7SM 01/M17 A3045 RMK T00101170 IEM_DS3505
ZBAA,1992-01-13 09:00,ZBAA 130900Z AUTO 34006KT 12SM 00/M17 A3045 RMK SLP366 T00041171 52005 IEM_DS3505
ZBAA,1992-01-13 10:00,ZBAA 131000Z AUTO 29006KT 7SM M02/M18 A3047 RMK T10201180 IEM_DS3505
ZBAA,1992-01-13 11:00,ZBAA 131100Z AUTO 31010KT 7SM M01/M17 A3047 RMK T10101170 IEM_DS3505
ZBAA,1992-01-13 12:00,ZBAA 131200Z AUTO 02006KT 12SM M01/M17 A3047 RMK SLP374 T10141168 52008 IEM_DS3505
ZBAA,1992-01-13 13:00,ZBAA 131300Z AUTO 28008KT 7SM M02/M17 A3047 RMK T10201170 IEM_DS3505
ZBAA,1992-01-13 14:00,ZBAA 131400Z AUTO 32008KT 7SM M02/M17 A3047 RMK T10201170 IEM_DS3505
ZBAA,1992-01-13 15:00,ZBAA 131500Z AUTO 04002KT 12SM M02/M16 A3047 RMK SLP373 T10211160 57001 IEM_DS3505
ZBAA,1992-01-13 18:00,ZBAA 131800Z AUTO 07002KT 12SM M04/M15 RMK SLP369 T10411151 40017//// 57004 IEM_DS3505
ZBAA,1992-01-13 20:00,ZBAA 132000Z AUTO 35002KT 7SM M06/M16 A3045 RMK T10601160 IEM_DS3505
ZBAA,1992-01-13 21:00,ZBAA 132100Z AUTO 00000KT 12SM M07/M14 A3045 RMK SLP369 T10701141 57001 IEM_DS3505
ZBAA,1992-01-13 22:00,ZBAA 132200Z AUTO 34002KT 7SM M08/M16 A3045 RMK T10801160 IEM_DS3505
ZBAA,1992-01-13 23:00,ZBAA 132300Z AUTO 34004KT 7SM M06/M15 A3047 RMK T10601150 IEM_DS3505
ZBAA,1992-01-14 00:00,ZBAA 140000Z AUTO 00000KT 2SM M08/M14 A3045 RMK SLP368 T10751136 57001 IEM_DS3505
ZBAA,1992-01-14 01:00,ZBAA 140100Z AUTO 33006KT 7SM M05/M15 A3047 RMK T10501150 IEM_DS3505
ZBAA,1992-01-14 02:00,ZBAA 140200Z AUTO 36006KT 7SM M03/M15 A3045 RMK T10301150 IEM_DS3505
ZBAA,1992-01-14 03:00,ZBAA 140300Z AUTO 00000KT 4SM M01/M14 A3045 RMK SLP360 T10121143 57007 IEM_DS3505
ZBAA,1992-01-14 04:00,ZBAA 140400Z AUTO 02004KT 7SM 01/M15 A3039 RMK T00101150 IEM_DS3505
ZBAA,1992-01-14 05:00,ZBAA 140500Z AUTO 00000KT 7SM 02/M15 A3033 RMK T00201150 IEM_DS3505
ZBAA,1992-01-14 06:00,ZBAA 140600Z AUTO 16002KT 5SM 02/M15 A3030 RMK SLP316 T00251154 4////1079 57044 IEM_DS3505
ZBAA,1992-01-14 07:00,ZBAA 140700Z AUTO 24002KT 7SM 03/M15 A3030 RMK T00301150 IEM_DS3505
ZBAA,1992-01-14 08:00,ZBAA 140800Z AUTO 17006KT 7SM 02/M14 A3030 RMK T00201140 IEM_DS3505
ZBAA,1992-01-14 09:00,ZBAA 140900Z AUTO 18004KT 6SM 02/M15 A3027 RMK SLP307 T00181148 57009 IEM_DS3505
ZBAA,1992-01-14 10:00,ZBAA 141000Z AUTO 00000KT 7SM M02/M14 A3030 RMK T10201140 IEM_DS3505
ZBAA,1992-01-14 11:00,ZBAA 141100Z AUTO 00000KT 7SM M02/M14 A3030 RMK T10201140 IEM_DS3505
ZBAA,1992-01-14 12:00,ZBAA 141200Z AUTO 18004KT 4SM 00/M14 A3027 RMK SLP307 T00001138 54000 IEM_DS3505
ZBAA,1992-01-14 13:00,ZBAA 141300Z AUTO 01002KT 7SM M04/M14 A3027 RMK T10401140 IEM_DS3505
ZBAA,1992-01-14 14:00,ZBAA 141400Z AUTO 01002KT 7SM M04/M14 A3027 RMK T10401140 IEM_DS3505
ZBAA,1992-01-14 15:00,ZBAA 141500Z AUTO 00000KT 2 1/2SM M04/M10 A3024 RMK SLP296 T10381097 57011 IEM_DS3505
ZBAA,1992-01-14 18:00,ZBAA 141800Z AUTO 00000KT 2 1/2SM M05/M12 RMK SLP280 T10481118 40032//// 57015 IEM_DS3505
ZBAA,1992-01-14 20:00,ZBAA 142000Z AUTO 35002KT 7SM M08/M14 A3015 RMK T10801140 IEM_DS3505
ZBAA,1992-01-14 21:00,ZBAA 142100Z AUTO 02002KT 2 1/2SM M07/M12 A3015 RMK SLP263 T10671118 57018 IEM_DS3505
ZBAA,1992-01-14 22:00,ZBAA 142200Z AUTO 33004KT 7SM M07/M13 A3015 RMK T10701130 IEM_DS3505
ZBAA,1992-01-14 23:00,ZBAA 142300Z AUTO 31004KT 7SM M08/M14 A3015 RMK T10801140 IEM_DS3505
ZBAA,1992-01-15 00:00,ZBAA 150000Z AUTO 00000KT 1 1/4SM M06/M12 RMK SLP263 T10611121 54000 IEM_DS3505
ZBAA,1992-01-15 01:00,ZBAA 150100Z AUTO 31004KT 6SM M06/M13 A3015 RMK T10601130 IEM_DS3505
ZBAA,1992-01-15 02:00,ZBAA 150200Z AUTO 34006KT 6SM M04/M12 A3024 RMK T10401120 IEM_DS3505
ZBAA,1992-01-15 03:00,ZBAA 150300Z AUTO 25002KT 2 1/2SM 00/M12 A3012 RMK SLP254 T00041117 57008 IEM_DS3505
ZBAA,1992-01-15 04:00,ZBAA 150400Z AUTO 28004KT 6SM 02/M12 A3009 RMK T00201120 IEM_DS3505
ZBAA,1992-01-15 05:00,ZBAA 150500Z AUTO 30010KT 6SM 04/M13 A3003 RMK T00401130 IEM_DS3505
ZBAA,1992-01-15 06:00,ZBAA 150600Z AUTO 18006KT 2 1/2SM 05/M13 A3000 RMK SLP223 T00491129 4////1073 57031 IEM_DS3505
ZBAA,1992-01-15 07:00,ZBAA 150700Z AUTO 26021KT 7SM 05/M14 A3000 RMK T00501140 IEM_DS3505
ZBAA,1992-01-15 08:00,ZBAA 150800Z AUTO 27019KT 7SM 05/M14 A3000 RMK T00501140 IEM_DS3505
ZBAA,1992-01-15 09:00,ZBAA 150900Z AUTO 32006KT 9SM 04/M13 RMK SLP230 T00401130 52007 IEM_DS3505
ZBAA,1992-01-15 10:00,ZBAA 151000Z AUTO 30016KT 7SM 02/M14 A3006 RMK T00201140 IEM_DS3505
ZBAA,1992-01-15 11:00,ZBAA 151100Z AUTO 29014KT 7SM 01/M15 A3009 RMK T00101150 IEM_DS3505
ZBAA,1992-01-15 12:00,ZBAA 151200Z AUTO 36004KT 12SM 02/M13 A3012 RMK SLP262 T00151134 52031 IEM_DS3505
ZBAA,1992-01-15 13:00,ZBAA 151300Z AUTO 28014KT 7SM 00/M15 A3015 RMK T00001150 IEM_DS3505
ZBAA,1992-01-15 15:00,ZBAA 151500Z AUTO 04004KT 12SM M00/M14 RMK SLP269 T10021135 52008 IEM_DS3505
ZBAA,1992-01-15 18:00,ZBAA 151800Z AUTO 04008KT 19SM M01/M15 RMK SLP271 T10081148 40058//// 52002 IEM_DS3505
ZBAA,1992-01-15 20:00,ZBAA 152000Z AUTO 32004KT 7SM M04/M15 A3018 RMK T10401150 IEM_DS3505
ZBAA,1992-01-15 21:00,ZBAA 152100Z AUTO 34002KT 19SM M03/M14 A3018 RMK SLP273 T10291141 52002 IEM_DS3505
ZBAA,1992-01-15 22:00,ZBAA 152200Z AUTO 00000KT 7SM M05/M15 A3018 RMK T10501150 IEM_DS3505
ZBAA,1992-01-15 23:00,ZBAA 152300Z AUTO 00000KT 7SM M05/M15 A3018 RMK T10501150 IEM_DS3505
ZBAA,1992-01-16 00:00,ZBAA 160000Z AUTO 09002KT 16SM M04/M12 A3018 RMK SLP276 T10421120 52003 IEM_DS3505
ZBAA,1992-01-16 01:00,ZBAA 160100Z AUTO 30008KT 7SM M02/M14 A3021 RMK T10201140 IEM_DS3505
ZBAA,1992-01-16 02:00,ZBAA 160200Z AUTO 30014KT 7SM 01/M14 A3021 RMK T00101140 IEM_DS3505
ZBAA,1992-01-16 03:00,ZBAA 160300Z AUTO 36010KT 12SM 04/M16 A3021 RMK SLP280 T00361160 52004 IEM_DS3505
ZBAA,1992-01-16 04:00,ZBAA 160400Z AUTO 27016KT 7SM 03/M15 A3018 RMK T00301150 IEM_DS3505
ZBAA,1992-01-16 05:00,ZBAA 160500Z AUTO 27019KT 7SM 04/M15 A3012 RMK T00401150 IEM_DS3505
ZBAA,1992-01-16 06:00,ZBAA 160600Z AUTO 32014KT 16SM 05/M19 A3012 RMK SLP257 T00531194 4////1048 57022 IEM_DS3505
ZBAA,1992-01-16 07:00,ZBAA 160700Z AUTO 28021KT 7SM 05/M15 A3012 RMK T00501150 IEM_DS3505
ZBAA,1992-01-16 08:00,ZBAA 160800Z AUTO 27017KT 7SM 04/M15 A3012 RMK T00401150 IEM_DS3505
ZBAA,1992-01-16 09:00,ZBAA 160900Z AUTO 32008KT 16SM 05/M19 A3012 RMK SLP262 T00461188 52004 IEM_DS3505
ZBAA,1992-01-16 10:00,ZBAA 161000Z AUTO 26010KT 7SM 03/M15 A3012 RMK T00301150 IEM_DS3505
ZBAA,1992-01-16 11:00,ZBAA 161100Z AUTO 32006KT 7SM 02/M16 A3018 RMK T00201160 IEM_DS3505
ZBAA,1992-01-16 12:00,ZBAA 161200Z AUTO 36010KT 16SM 03/M15 A3021 RMK SLP274 T00281153 52012 IEM_DS3505
ZBAA,1992-01-16 13:00,ZBAA 161300Z AUTO 31010KT 7SM 01/M16 A3021 RMK T00101160 IEM_DS3505
ZBAA,1992-01-16 14:00,ZBAA 161400Z AUTO 32017KT 7SM 01/M17 A3024 RMK T00101170 IEM_DS3505
ZBAA,1992-01-16 15:00,ZBAA 161500Z AUTO 36006KT 12SM 00/M15 RMK SLP289 T00001152 52015 IEM_DS3505
ZBAA,1992-01-16 18:00,ZBAA 161800Z AUTO 36014KT 12SM M01/M18 RMK SLP317 T10111185 40056//// 52028 IEM_DS3505
ZBAA,1992-01-16 20:00,ZBAA 162000Z AUTO 31010KT 7SM M04/M18 A3036 RMK T10401180 IEM_DS3505
ZBAA,1992-01-16 21:00,ZBAA 162100Z AUTO 36010KT 16SM M02/M21 A3036 RMK SLP328 T10221209 52011 IEM_DS3505
ZBAA,1992-01-16 22:00,ZBAA 162200Z AUTO 32012KT 7SM M04/M19 A3039 RMK T10401190 IEM_DS3505
ZBAA,1992-01-16 23:00,ZBAA 162300Z AUTO 34008KT 7SM M05/M19 A3042 RMK T10501190 IEM_DS3505
ZBAA,1992-01-17 00:00,ZBAA 170000Z AUTO 36008KT 19SM M03/M21 A3045 RMK SLP354 T10331211 52025 IEM_DS3505
ZBAA,1992-01-17 01:00,ZBAA 170100Z AUTO 34008KT 7SM M04/M18 A3047 RMK T10401180 IEM_DS3505
ZBAA,1992-01-17 02:00,ZBAA 170200Z AUTO 34006KT 7SM M02/M18 A3050 RMK T10201180 IEM_DS3505
ZBAA,1992-01-17 03:00,ZBAA 170300Z AUTO 36016KT 16SM M01/M20 A3050 RMK SLP372 T10071195 52018 IEM_DS3505
ZBAA,1992-01-17 04:00,ZBAA 170400Z AUTO 32012KT 7SM 00/M20 A3047 RMK T00001200 IEM_DS3505
ZBAA,1992-01-17 05:00,ZBAA 170500Z AUTO 28014KT 7SM 01/M20 A3045 RMK T00101200 IEM_DS3505
ZBAA,1992-01-17 06:00,ZBAA 170600Z AUTO 36008KT 19SM 01/M17 A3042 RMK SLP353 T00141168 4////1037 57019 IEM_DS3505
ZBAA,1992-01-17 07:00,ZBAA 170700Z AUTO 28012KT 7SM 02/M20 A3042 RMK T00201200 IEM_DS3505
ZBAA,1992-01-17 08:00,ZBAA 170800Z AUTO 27016KT 7SM 01/M20 A3042 RMK T00101200 IEM_DS3505
ZBAA,1992-01-17 09:00,ZBAA 170900Z AUTO 36008KT 19SM 00/M22 A3042 RMK SLP356 T00051220 52003 IEM_DS3505
ZBAA,1992-01-17 10:00,ZBAA 171000Z AUTO 30012KT 7SM M01/M21 A3045 RMK T10101210 IEM_DS3505
ZBAA,1992-01-17 11:00,ZBAA 171100Z AUTO 30016KT 7SM M01/M21 A3047 RMK T10101210 IEM_DS3505
ZBAA,1992-01-17 12:00,ZBAA 171200Z AUTO 36008KT 16SM M02/M23 A3047 RMK SLP370 T10171230 52014 IEM_DS3505
ZBAA,1992-01-17 13:00,ZBAA 171300Z AUTO 31006KT 7SM M03/M21 A3050 RMK T10301210 IEM_DS3505
ZBAA,1992-01-17 14:00,ZBAA 171400Z AUTO 34006KT 7SM M03/M21 A3047 RMK T10301210 IEM_DS3505
ZBAA,1992-01-17 15:00,ZBAA 171500Z AUTO 04004KT 12SM M03/M20 A3047 RMK SLP374 T10321198 52004 IEM_DS3505
ZBAA,1992-01-17 18:00,ZBAA 171800Z AUTO 07004KT 16SM M04/M20 RMK SLP374 T10401200 40022//// 54000 IEM_DS3505
ZBAA,1992-01-17 20:00,ZBAA 172000Z AUTO 36006KT 7SM M06/M19 A3045 RMK T10601190 IEM_DS3505
ZBAA,1992-01-17 21:00,ZBAA 172100Z AUTO 07004KT 16SM M04/M20 A3045 RMK SLP374 T10401200 54000 IEM_DS3505
ZBAA,1992-01-17 22:00,ZBAA 172200Z AUTO 36008KT 7SM M07/M19 A3045 RMK T10701190 IEM_DS3505
ZBAA,1992-01-17 23:00,ZBAA 172300Z AUTO 01008KT 7SM M07/M20 A3045 RMK T10701200 IEM_DS3505
ZBAA,1992-01-18 00:00,ZBAA 180000Z AUTO 07002KT 12SM M06/M19 RMK SLP363 T10631189 57003 IEM_DS3505
ZBAA,1992-01-18 01:00,ZBAA 180100Z AUTO 36006KT 7SM M05/M20 A3045 RMK T10501200 IEM_DS3505
ZBAA,1992-01-18 02:00,ZBAA 180200Z AUTO 35008KT 7SM M03/M19 A3045 RMK T10301190 IEM_DS3505
ZBAA,1992-01-18 03:00,ZBAA 180300Z AUTO 11002KT 11SM M01/M21 A3045 RMK SLP356 T10141206 57006 IEM_DS3505
ZBAA,1992-01-18 04:00,ZBAA 180400Z AUTO 28002KT 7SM 00/M18 A3042 RMK T00001180 IEM_DS3505
ZBAA,1992-01-18 05:00,ZBAA 180500Z AUTO 15002KT 7SM 01/M19 A3036 RMK T00101190 IEM_DS3505
ZBAA,1992-01-18 06:00,ZBAA 180600Z AUTO 16004KT 5SM 02/M19 A3036 RMK SLP330 T00241193 4////1087 57026 IEM_DS3505
ZBAA,1992-01-18 08:00,ZBAA 180800Z AUTO 31002KT 7SM 02/M20 A3033 RMK T00201200 IEM_DS3505
ZBAA,1992-01-18 09:00,ZBAA 180900Z AUTO 20004KT 5SM 01/M19 A3033 RMK SLP328 T00141186 57002 IEM_DS3505
ZBAA,1992-01-18 10:00,ZBAA 181000Z AUTO 25002KT 6SM M01/M19 A3036 RMK T10101190 IEM_DS3505
ZBAA,1992-01-18 11:00,ZBAA 181100Z AUTO 00000KT 6SM M02/M19 A3036 RMK T10201190 IEM_DS3505
ZBAA,1992-01-18 12:00,ZBAA 181200Z AUTO 00000KT 3SM M02/M14 A3036 RMK SLP336 T10221140 52007 IEM_DS3505
ZBAA,1992-01-18 13:00,ZBAA 181300Z AUTO 00000KT 6SM M03/M18 A3039 RMK T10301180 IEM_DS3505
ZBAA,1992-01-18 14:00,ZBAA 181400Z AUTO 00000KT 6SM M04/M17 A3039 RMK T10401170 IEM_DS3505
ZBAA,1992-01-18 15:00,ZBAA 181500Z AUTO 00000KT 2SM M03/M12 RMK SLP338 T10311125 52003 IEM_DS3505
ZBAA,1992-01-18 18:00,ZBAA 181800Z AUTO 32002KT 1 1/4SM M03/M13 RMK SLP342 T10301129 40031//// 52004 IEM_DS3505
ZBAA,1992-01-18 20:00,ZBAA 182000Z AUTO 24004KT 6SM M06/M16 A3039 RMK T10601160 IEM_DS3505
ZBAA,1992-01-18 21:00,ZBAA 182100Z AUTO 36002KT 1 1/4SM M04/M16 A3039 RMK SLP342 T10441156 54000 IEM_DS3505
ZBAA,1992-01-18 22:00,ZBAA 182200Z AUTO 35004KT 6SM M07/M16 A3039 RMK T10701160 IEM_DS3505
ZBAA,1992-01-18 23:00,ZBAA 182300Z AUTO 31002KT 6SM M09/M17 A3039 RMK T10901170 IEM_DS3505
ZBAA,1992-01-19 00:00,ZBAA 190000Z AUTO 00000KT 1SM M06/M14 A3042 RMK SLP347 T10621141 52004 IEM_DS3505
ZBAA,1992-01-19 01:00,ZBAA 190100Z AUTO 32004KT 7SM M07/M16 A3042 RMK T10701160 IEM_DS3505
ZBAA,1992-01-19 03:00,ZBAA 190300Z AUTO 04004KT 5SM M01/M19 A3042 RMK SLP353 T10111186 52007 IEM_DS3505
ZBAA,1992-01-19 04:00,ZBAA 190400Z AUTO 01002KT 7SM M02/M15 A3042 RMK T10201150 IEM_DS3505
ZBAA,1992-01-19 05:00,ZBAA 190500Z AUTO 12002KT 7SM 01/M16 A3036 RMK T00101160 IEM_DS3505
ZBAA,1992-01-19 06:00,ZBAA 190600Z AUTO 22002KT 6SM 02/M13 A3036 RMK SLP328 T00251133 4////1069 57024 IEM_DS3505
ZBAA,1992-01-19 07:00,ZBAA 190700Z AUTO 15004KT 7SM 02/M15 A3033 RMK T00201150 IEM_DS3505
ZBAA,1992-01-19 08:00,ZBAA 190800Z AUTO 14006KT 7SM 02/M15 A3033 RMK T00201150 IEM_DS3505
ZBAA,1992-01-19 09:00,ZBAA 190900Z AUTO 18004KT 6SM 02/M15 A3033 RMK SLP325 T00161146 57004 IEM_DS3505
ZBAA,1992-01-19 10:00,ZBAA 191000Z AUTO 34002KT 2 1/2SM M03/M12 A3033 RMK SLP327 T10301117 52002 IEM_DS3505
ZBAA,1992-01-19 11:00,ZBAA 191100Z AUTO 00000KT 7SM M03/M13 A3036 RMK T10301130 IEM_DS3505
ZBAA,1992-01-19 12:00,ZBAA 191200Z AUTO 34002KT 2 1/2SM M03/M12 A3036 RMK SLP328 T10301117 52002 IEM_DS3505
ZBAA,1992-01-19 13:00,ZBAA 191300Z AUTO 14002KT 7SM M04/M12 A3036 RMK T10401120 IEM_DS3505
ZBAA,1992-01-19 14:00,ZBAA 191400Z AUTO 00000KT 7SM M04/M12 A3036 RMK T10401120 IEM_DS3505
ZBAA,1992-01-19 15:00,ZBAA 191500Z AUTO 04004KT 2 1/2SM M02/M14 RMK SLP328 T10241144 52001 IEM_DS3505
ZBAA,1992-01-19 18:00,ZBAA 191800Z AUTO 02002KT 1 1/4SM M05/M13 RMK SLP325 T10461126 40028//// 57003 IEM_DS3505
ZBAA,1992-01-19 20:00,ZBAA 192000Z AUTO 35002KT 7SM M06/M13 A3030 RMK T10601130 IEM_DS3505
ZBAA,1992-01-19 21:00,ZBAA 192100Z AUTO 04004KT 1 1/4SM M04/M14 A3030 RMK SLP316 T10421138 57009 IEM_DS3505
ZBAA,1992-01-19 22:00,ZBAA 192200Z AUTO 33004KT 7SM M07/M14 A3030 RMK T10701140 IEM_DS3505
ZBAA,1992-01-19 23:00,ZBAA 192300Z AUTO 33004KT 7SM M07/M14 A3030 RMK T10701140 IEM_DS3505
ZBAA,1992-01-20 00:00,ZBAA 200000Z AUTO 29002KT 1 1/4SM M06/M13 A3030 RMK SLP317 T10651127 54000 IEM_DS3505
ZBAA,1992-01-20 01:00,ZBAA 200100Z AUTO 35002KT 7SM M07/M14 A3033 RMK T10701140 IEM_DS3505
ZBAA,1992-01-20 02:00,ZBAA 200200Z AUTO 36004KT 7SM M04/M13 A3033 RMK T10401130 IEM_DS3505
ZBAA,1992-01-20 03:00,ZBAA 200300Z AUTO 00000KT 2SM M01/M14 A3030 RMK SLP318 T10121139 52002 IEM_DS3505
ZBAA,1992-01-20 04:00,ZBAA 200400Z AUTO 34006KT 7SM M01/M14 A3039 RMK T10101140 IEM_DS3505
ZBAA,1992-01-20 05:00,ZBAA 200500Z AUTO 36004KT 7SM 01/M14 A3024 RMK T00101140 IEM_DS3505
ZBAA,1992-01-20 06:00,ZBAA 200600Z AUTO 04002KT 3SM 02/M12 A3021 RMK SLP286 T00231123 4////1067 57031 IEM_DS3505
ZBAA,1992-01-20 07:00,ZBAA 200700Z AUTO 00000KT 7SM 02/M14 A3021 RMK T00201140 IEM_DS3505
ZBAA,1992-01-20 08:00,ZBAA 200800Z AUTO 00000KT 7SM 02/M14 A3021 RMK T00201140 IEM_DS3505
ZBAA,1992-01-20 09:00,ZBAA 200900Z AUTO 20002KT 2 1/2SM 02/M11 A3021 RMK SLP283 T00251113 57003 IEM_DS3505
ZBAA,1992-01-20 10:00,ZBAA 201000Z AUTO 00000KT 4SM M01/M14 A3021 RMK T10101140 IEM_DS3505
ZBAA,1992-01-20 11:00,ZBAA 201100Z AUTO 00000KT 3SM M02/M14 A3024 RMK T10201140 IEM_DS3505
ZBAA,1992-01-20 12:00,ZBAA 201200Z AUTO 00000KT 2SM M01/M10 A3024 RMK SLP291 T10141095 52007 IEM_DS3505
ZBAA,1992-01-20 13:00,ZBAA 201300Z AUTO 00000KT 3SM M04/M14 A3024 RMK T10401140 IEM_DS3505
ZBAA,1992-01-20 14:00,ZBAA 201400Z AUTO 30004KT 3SM M05/M14 A3024 RMK T10501140 IEM_DS3505
ZBAA,1992-01-20 15:00,ZBAA 201500Z AUTO 00000KT 2SM M01/M10 RMK SLP291 T10141095 52007 IEM_DS3505
ZBAA,1992-01-20 18:00,ZBAA 201800Z AUTO 32004KT 5SM M03/M12 RMK SLP289 T10291115 40038//// 57002 IEM_DS3505
ZBAA,1992-01-20 21:00,ZBAA 202100Z AUTO 36004KT 5SM M03/M12 RMK SLP285 T10321120 57004 IEM_DS3505
ZBAA,1992-01-20 22:00,ZBAA 202200Z AUTO 36010KT 7SM M04/M14 A3021 RMK T10401140 IEM_DS3505
ZBAA,1992-01-20 23:00,ZBAA 202300Z AUTO 01006KT 7SM M05/M13 A3021 RMK T10501130 IEM_DS3505
ZBAA,1992-01-21 00:00,ZBAA 210000Z AUTO 02004KT 6SM M01/M13 A3021 RMK SLP284 T10141129 57001 IEM_DS3505
ZBAA,1992-01-21 01:00,ZBAA 210100Z AUTO 36008KT 6SM M03/M13 A3021 RMK T10301130 IEM_DS3505
ZBAA,1992-01-21 02:00,ZBAA 210200Z AUTO 34010KT 6SM 00/M12 A3021 RMK T00001120 IEM_DS3505
ZBAA,1992-01-21 03:00,ZBAA 210300Z AUTO 04006KT 6SM 02/M12 A3024 RMK SLP283 T00231123 57001 IEM_DS3505
ZBAA,1992-01-21 04:00,ZBAA 210400Z AUTO 36008KT 6SM 02/M12 A3021 RMK T00201120 IEM_DS3505
ZBAA,1992-01-21 05:00,ZBAA 210500Z AUTO 36008KT 6SM 02/M12 A3018 RMK T00201120 IEM_DS3505
ZBAA,1992-01-21 06:00,ZBAA 210600Z AUTO 36004KT 7SM 05/M12 A3015 RMK SLP268 T00521116 4////1044 57015 IEM_DS3505
ZBAA,1992-01-21 07:00,ZBAA 210700Z AUTO 01008KT 6SM 04/M11 A3015 RMK T00401110 IEM_DS3505
ZBAA,1992-01-21 08:00,ZBAA 210800Z AUTO 01010KT 6SM 03/M12 A3015 RMK T00301120 IEM_DS3505
ZBAA,1992-01-21 09:00,ZBAA 210900Z AUTO 00000KT 5SM 04/M08 A3015 RMK SLP268 T00351083 54000 IEM_DS3505
ZBAA,1992-01-21 10:00,ZBAA 211000Z AUTO 31004KT 6SM 01/M12 A3018 RMK T00101120 IEM_DS3505
ZBAA,1992-01-21 11:00,ZBAA 211100Z AUTO 33004KT 6SM M01/M12 A3018 RMK T10101120 IEM_DS3505
ZBAA,1992-01-21 12:00,ZBAA 211200Z AUTO 00000KT 5SM 01/M11 A3018 RMK SLP276 T00061114 52008 IEM_DS3505
ZBAA,1992-01-21 13:00,ZBAA 211300Z AUTO 06002KT 6SM M01/M12 A3021 RMK T10101120 IEM_DS3505
ZBAA,1992-01-21 14:00,ZBAA 211400Z AUTO 02008KT 6SM M01/M12 A3021 RMK T10101120 IEM_DS3505
ZBAA,1992-01-21 15:00,ZBAA 211500Z AUTO 00000KT 6SM M04/M09 A3024 RMK SLP288 T10361086 52012 IEM_DS3505
ZBAA,1992-01-21 18:00,ZBAA 211800Z AUTO 04004KT 7SM M01/M13 RMK SLP298 T10101128 40064//// 52010 IEM_DS3505
ZBAA,1992-01-21 20:00,ZBAA 212000Z AUTO 35008KT 6SM M03/M13 A3024 RMK T10301130 IEM_DS3505
ZBAA,1992-01-21 21:00,ZBAA 212100Z AUTO 00000KT 6SM M04/M11 A3024 RMK SLP297 T10351114 57001 IEM_DS3505
ZBAA,1992-01-21 22:00,ZBAA 212200Z AUTO 35008KT 6SM M05/M13 A3024 RMK T10501130 IEM_DS3505
ZBAA,1992-01-21 23:00,ZBAA 212300Z AUTO 34008KT 6SM M05/M13 A3027 RMK T10501130 IEM_DS3505
ZBAA,1992-01-22 00:00,ZBAA 220000Z AUTO 00000KT 7SM M04/M11 RMK SLP303 T10421114 52005 IEM_DS3505
ZBAA,1992-01-22 01:00,ZBAA 220100Z AUTO 35006KT 7SM M03/M12 A3027 RMK T10301120 IEM_DS3505
ZBAA,1992-01-22 02:00,ZBAA 220200Z AUTO 01006KT 7SM M01/M12 A3027 RMK T10101120 IEM_DS3505
ZBAA,1992-01-22 03:00,ZBAA 220300Z AUTO 36002KT 5SM 01/M14 RMK SLP302 T00111142 57001 IEM_DS3505
ZBAA,1992-01-22 04:00,ZBAA 220400Z AUTO 03006KT 7SM 02/M12 A3024 RMK T00201120 IEM_DS3505
ZBAA,1992-01-22 05:00,ZBAA 220500Z AUTO 33002KT 7SM 04/M12 A3018 RMK T00401120 IEM_DS3505
ZBAA,1992-01-22 06:00,ZBAA 220600Z AUTO 18004KT 6SM 04/M13 A3015 RMK SLP266 T00401130 4////1050 57035 IEM_DS3505
ZBAA,1992-01-22 07:00,ZBAA 220700Z AUTO 12002KT 7SM 05/M13 A3015 RMK T00501130 IEM_DS3505
ZBAA,1992-01-22 08:00,ZBAA 220800Z AUTO 15010KT 7SM 04/M12 A3012 RMK T00401120 IEM_DS3505
ZBAA,1992-01-22 09:00,ZBAA 220900Z AUTO 20006KT 5SM 03/M11 A3012 RMK SLP263 T00331108 57003 IEM_DS3505
ZBAA,1992-01-22 10:00,ZBAA 221000Z AUTO 36002KT 5SM 01/M12 A3015 RMK T00101120 IEM_DS3505
ZBAA,1992-01-22 11:00,ZBAA 221100Z AUTO 20004KT 5SM 00/M12 A3015 RMK T00001120 IEM_DS3505
ZBAA,1992-01-22 12:00,ZBAA 221200Z AUTO 20006KT 7SM 01/M10 A3015 RMK SLP265 T00071095 52002 IEM_DS3505
ZBAA,1992-01-22 13:00,ZBAA 221300Z AUTO 29004KT 4SM M01/M11 A3015 RMK T10101110 IEM_DS3505
ZBAA,1992-01-22 15:00,ZBAA 221500Z AUTO 00000KT 7SM M03/M09 A3015 RMK SLP266 T10291094 52001 IEM_DS3505
ZBAA,1992-01-22 16:00,ZBAA 221600Z AUTO 35006KT 4SM M03/M13 A3015 RMK T10301130 IEM_DS3505
ZBAA,1992-01-22 18:00,ZBAA 221800Z AUTO 36002KT 2 1/2SM M04/M08 RMK SLP267 T10441082 40043//// 52001 IEM_DS3505
ZBAA,1992-01-22 21:00,ZBAA 222100Z AUTO 00000KT 2SM M05/M09 A3015 RMK SLP268 T10531094 52001 IEM_DS3505
ZBAA,1992-01-22 22:00,ZBAA 222200Z AUTO 02006KT 7SM M05/M13 A3015 RMK T10501130 IEM_DS3505
ZBAA,1992-01-22 23:00,ZBAA 222300Z AUTO 36008KT 7SM M05/M13 A3018 RMK T10501130 IEM_DS3505
ZBAA,1992-01-23 00:00,ZBAA 230000Z AUTO 27002KT 1 1/4SM M06/M11 RMK SLP276 T10641109 52007 IEM_DS3505
ZBAA,1992-01-23 01:00,ZBAA 230100Z AUTO 02008KT 7SM M02/M13 A3018 RMK T10201130 IEM_DS3505
ZBAA,1992-01-23 02:00,ZBAA 230200Z AUTO 02008KT 7SM 01/M12 RMK T00101120 IEM_DS3505
ZBAA,1992-01-23 03:00,ZBAA 230300Z AUTO 07002KT 2SM 03/M13 A3018 RMK SLP273 T00261133 57002 IEM_DS3505
ZBAA,1992-01-23 04:00,ZBAA 230400Z AUTO 06002KT 7SM 04/M12 A3015 RMK T00401120 IEM_DS3505
ZBAA,1992-01-23 05:00,ZBAA 230500Z AUTO 22004KT 7SM 05/M12 A3012 RMK T00501120 IEM_DS3505
ZBAA,1992-01-23 06:00,ZBAA 230600Z AUTO 20008KT 2 1/2SM 05/M13 A3006 RMK SLP245 T00531133 4////1067 57028 IEM_DS3505
ZBAA,1992-01-23 07:00,ZBAA 230700Z AUTO 15012KT 7SM 05/M12 A3006 RMK T00501120 IEM_DS3505
ZBAA,1992-01-23 08:00,ZBAA 230800Z AUTO 16010KT 7SM 05/M12 A3003 RMK T00501120 IEM_DS3505
ZBAA,1992-01-23 09:00,ZBAA 230900Z AUTO 20010KT 6SM 04/M13 RMK SLP230 T00451132 57015 IEM_DS3505
ZBAA,1992-01-23 10:00,ZBAA 231000Z AUTO 13004KT 6SM 03/M12 A3003 RMK T00301120 IEM_DS3505
ZBAA,1992-01-23 11:00,ZBAA 231100Z AUTO 13006KT 6SM 02/M12 A3003 RMK T00201120 IEM_DS3505
ZBAA,1992-01-23 12:00,ZBAA 231200Z AUTO 20006KT 4SM 02/M10 A3000 RMK SLP223 T00181104 57007 IEM_DS3505
ZBAA,1992-01-23 13:00,ZBAA 231300Z AUTO 10006KT 6SM M02/M12 A3000 RMK T10201120 IEM_DS3505
ZBAA,1992-01-23 14:00,ZBAA 231400Z AUTO 09004KT 6SM M03/M12 A2997 RMK T10301120 IEM_DS3505
ZBAA,1992-01-23 15:00,ZBAA 231500Z AUTO 00000KT 4SM M02/M08 RMK SLP212 T10221081 57011 IEM_DS3505
ZBAA,1992-01-23 18:00,ZBAA 231800Z AUTO 00000KT 2 1/2SM M04/M10 RMK SLP203 T10381102 40056//// 57008 IEM_DS3505
ZBAA,1992-01-23 20:00,ZBAA 232000Z AUTO 04004KT 7SM M06/M12 A2994 RMK T10601120 IEM_DS3505
ZBAA,1992-01-23 21:00,ZBAA 232100Z AUTO 02002KT 3SM M03/M10 A2997 RMK SLP206 T10341097 52003 IEM_DS3505
ZBAA,1992-01-23 22:00,ZBAA 232200Z AUTO 34010KT 7SM M05/M11 A2997 RMK T10501110 IEM_DS3505
ZBAA,1992-01-23 23:00,ZBAA 232300Z AUTO 34010KT 7SM M04/M11 A3000 RMK T10401110 IEM_DS3505
ZBAA,1992-01-24 00:00,ZBAA 240000Z AUTO 02010KT 7SM M00/M13 RMK SLP224 T10041126 52017 IEM_DS3505
ZBAA,1992-01-24 01:00,ZBAA 240100Z AUTO 01006KT 7SM M01/M12 A3006 RMK T10101120 IEM_DS3505
ZBAA,1992-01-24 02:00,ZBAA 240200Z AUTO 36014KT 6SM 01/M12 A3006 RMK T00101120 IEM_DS3505
ZBAA,1992-01-24 03:00,ZBAA 240300Z AUTO 02012KT 6SM 03/M14 A3006 RMK SLP232 T00331143 52008 IEM_DS3505
ZBAA,1992-01-24 04:00,ZBAA 240400Z AUTO 34008KT 6SM 04/M11 A3003 RMK T00401110 IEM_DS3505
ZBAA,1992-01-24 06:00,ZBAA 240600Z AUTO 36010KT 12SM 06/M13 A3012 RMK SLP217 T00641132 4////1052 57014 IEM_DS3505
ZBAA,1992-01-24 07:00,ZBAA 240700Z AUTO 30012KT 7SM 07/M12 A3000 RMK T00701120 IEM_DS3505
ZBAA,1992-01-24 08:00,ZBAA 240800Z AUTO 29014KT 7SM 06/M12 A3000 RMK T00601120 IEM_DS3505
ZBAA,1992-01-24 09:00,ZBAA 240900Z AUTO 36006KT 16SM 06/M12 A3000 RMK SLP221 T00561125 52004 IEM_DS3505
ZBAA,1992-01-24 10:00,ZBAA 241000Z AUTO 27010KT 7SM 04/M12 A3003 RMK T00401120 IEM_DS3505
ZBAA,1992-01-24 12:00,ZBAA 241200Z AUTO 36004KT 12SM 02/M10 A3006 RMK SLP239 T00161095 52017 IEM_DS3505
ZBAA,1992-01-24 13:00,ZBAA 241300Z AUTO 31004KT 7SM 02/M12 A3006 RMK T00201120 IEM_DS3505
ZBAA,1992-01-24 14:00,ZBAA 241400Z AUTO 01004KT 7SM 01/M13 A3009 RMK T00101130 IEM_DS3505
ZBAA,1992-01-24 15:00,ZBAA 241500Z AUTO 02002KT 11SM M01/M08 A3009 RMK SLP244 T10141084 52005 IEM_DS3505
ZBAA,1992-01-24 16:00,ZBAA 241600Z AUTO 35004KT 7SM 00/M14 A3009 RMK T00001140 IEM_DS3505
ZBAA,1992-01-24 17:00,ZBAA 241700Z AUTO 36004KT 7SM M01/M14 A3009 RMK T10101140 IEM_DS3505
ZBAA,1992-01-24 18:00,ZBAA 241800Z AUTO 29002KT 9SM M03/M10 RMK SLP248 T10321095 40072//// 52005 IEM_DS3505
ZBAA,1992-01-24 20:00,ZBAA 242000Z AUTO 28004KT 7SM M05/M13 A3009 RMK T10501130 IEM_DS3505
ZBAA,1992-01-24 21:00,ZBAA 242100Z AUTO 00000KT 6SM M05/M10 A3009 RMK SLP249 T10471095 54000 IEM_DS3505
ZBAA,1992-01-24 22:00,ZBAA 242200Z AUTO 33006KT 7SM M04/M14 A3012 RMK T10401140 IEM_DS3505
ZBAA,1992-01-24 23:00,ZBAA 242300Z AUTO 35002KT 7SM M06/M14 A3012 RMK T10601140 IEM_DS3505
ZBAA,1992-01-25 00:00,ZBAA 250000Z AUTO 09002KT 6SM M02/M10 A3012 RMK SLP255 T10201100 52006 IEM_DS3505
ZBAA,1992-01-25 01:00,ZBAA 250100Z AUTO 36004KT 7SM M04/M13 A3015 RMK T10401130 IEM_DS3505
ZBAA,1992-01-25 02:00,ZBAA 250200Z AUTO 01006KT 7SM 00/M12 A3012 RMK T00001120 IEM_DS3505
ZBAA,1992-01-25 03:00,ZBAA 250300Z AUTO 09002KT 2 1/2SM 03/M12 A3015 RMK SLP258 T00321116 52003 IEM_DS3505
ZBAA,1992-01-25 04:00,ZBAA 250400Z AUTO 00000KT 7SM 04/M11 A3012 RMK T00401110 IEM_DS3505
ZBAA,1992-01-25 05:00,ZBAA 250500Z AUTO 00000KT 7SM 05/M11 A3009 RMK T00501110 IEM_DS3505
ZBAA,1992-01-25 06:00,ZBAA 250600Z AUTO 18006KT 3SM 07/M12 A3006 RMK SLP238 T00701124 4////1053 57019 IEM_DS3505
ZBAA,1992-01-25 07:00,ZBAA 250700Z AUTO 14006KT 7SM 07/M11 A3003 RMK T00701110 IEM_DS3505
ZBAA,1992-01-25 08:00,ZBAA 250800Z AUTO 14006KT 7SM 07/M12 A3003 RMK T00701120 IEM_DS3505
ZBAA,1992-01-25 09:00,ZBAA 250900Z AUTO 22004KT 4SM 06/M13 A3003 RMK SLP230 T00641126 57009 IEM_DS3505
ZBAA,1992-01-25 10:00,ZBAA 251000Z AUTO 12004KT 7SM 04/M11 A3003 RMK T00401110 IEM_DS3505
ZBAA,1992-01-25 11:00,ZBAA 251100Z AUTO 14006KT 7SM 03/M11 A3003 RMK T00301110 IEM_DS3505
ZBAA,1992-01-25 12:00,ZBAA 251200Z AUTO 20002KT 4SM 02/M09 A3003 RMK SLP231 T00201093 52001 IEM_DS3505
ZBAA,1992-01-25 13:00,ZBAA 251300Z AUTO 00000KT 4SM M01/M11 A3003 RMK T10101110 IEM_DS3505
ZBAA,1992-01-25 14:00,ZBAA 251400Z AUTO 00000KT 4SM M02/M11 A3003 RMK T10201110 IEM_DS3505
ZBAA,1992-01-25 15:00,ZBAA 251500Z AUTO 34002KT 4SM M02/M08 RMK SLP225 T10171083 57006 IEM_DS3505
ZBAA,1992-01-25 18:00,ZBAA 251800Z AUTO 00000KT 3SM M03/M09 RMK SLP216 T10301090 40077//// 57008 IEM_DS3505
ZBAA,1992-01-25 20:00,ZBAA 252000Z AUTO 29004KT 2 1/2SM M06/M11 A2997 RMK T10601110 IEM_DS3505
ZBAA,1992-01-25 21:00,ZBAA 252100Z AUTO 20002KT 4SM M04/M09 A2994 RMK SLP206 T10361090 57010 IEM_DS3505
ZBAA,1992-01-25 22:00,ZBAA 252200Z AUTO 33004KT 2 1/2SM M04/M11 A2994 RMK T10401110 IEM_DS3505
ZBAA,1992-01-25 23:00,ZBAA 252300Z AUTO 32006KT 4SM M04/M11 A2994 RMK T10401110 IEM_DS3505
ZBAA,1992-01-26 00:00,ZBAA 260000Z AUTO 22002KT 1 1/4SM M04/M07 A2994 RMK SLP206 T10401073 57001 IEM_DS3505
ZBAA,1992-01-26 01:00,ZBAA 260100Z AUTO 30002KT 3SM A2997 RMK SLP205 IEM_DS3505
ZBAA,1992-01-26 02:00,ZBAA 260200Z AUTO 33008KT 5SM 03/M09 A2997 RMK T00301090 IEM_DS3505
ZBAA,1992-01-26 03:00,ZBAA 260300Z AUTO 09004KT 2SM 07/M07 A2997 RMK SLP211 T00691069 52006 IEM_DS3505
ZBAA,1992-01-26 04:00,ZBAA 260400Z AUTO 34006KT 7SM 09/M10 A2994 RMK T00901100 IEM_DS3505
ZBAA,1992-01-26 05:00,ZBAA 260500Z AUTO 33008KT 7SM 11/M11 A2994 RMK T01101110 IEM_DS3505
ZBAA,1992-01-26 06:00,ZBAA 260600Z AUTO 16004KT 2SM 10/M11 A2991 RMK SLP192 T00961109 4////1050 57019 IEM_DS3505
ZBAA,1992-01-26 07:00,ZBAA 260700Z AUTO 03006KT 7SM 11/M11 A2991 RMK T01101110 IEM_DS3505
ZBAA,1992-01-26 08:00,ZBAA 260800Z AUTO 05004KT 7SM 10/M11 A2994 RMK T01001110 IEM_DS3505
ZBAA,1992-01-26 09:00,ZBAA 260900Z AUTO 20002KT 2 1/2SM 09/M07 A2997 RMK SLP205 T00921068 52013 IEM_DS3505
ZBAA,1992-01-26 10:00,ZBAA 261000Z AUTO 00000KT 7SM 05/M12 A3000 RMK T00501120 IEM_DS3505
ZBAA,1992-01-26 11:00,ZBAA 261100Z AUTO 24002KT 7SM 03/M12 A3000 RMK T00301120 IEM_DS3505
ZBAA,1992-01-26 12:00,ZBAA 261200Z AUTO 32002KT 2SM 02/M06 A3003 RMK SLP227 T00201057 52021 IEM_DS3505
ZBAA,1992-01-26 13:00,ZBAA 261300Z AUTO 00000KT 7SM 01/M12 A3003 RMK T00101120 IEM_DS3505
ZBAA,1992-01-26 14:00,ZBAA 261400Z AUTO 34004KT 7SM 00/M13 A3006 RMK T00001130 IEM_DS3505
ZBAA,1992-01-26 15:00,ZBAA 261500Z AUTO 20006KT 2SM 00/M06 A3006 RMK SLP236 T00041063 52010 IEM_DS3505
ZBAA,1992-01-26 18:00,ZBAA 261800Z AUTO 36002KT 6SM M01/M08 RMK SLP237 T10061077 40106//// 52001 IEM_DS3505
ZBAA,1992-01-26 20:00,ZBAA 262000Z AUTO 01004KT 7SM M01/M12 A3006 RMK T10101120 IEM_DS3505
ZBAA,1992-01-26 21:00,ZBAA 262100Z AUTO 04002KT 6SM M01/M10 A3006 RMK SLP233 T10071097 57004 IEM_DS3505
ZBAA,1992-01-26 22:00,ZBAA 262200Z AUTO 00000KT 7SM M03/M12 A3006 RMK T10301120 IEM_DS3505
ZBAA,1992-01-26 23:00,ZBAA 262300Z AUTO 03002KT 7SM M04/M11 A3006 RMK T10401110 IEM_DS3505
ZBAA,1992-01-27 00:00,ZBAA 270000Z AUTO 36002KT 4SM M04/M09 RMK SLP237 T10351093 52003 IEM_DS3505
ZBAA,1992-01-27 01:00,ZBAA 270100Z AUTO 00000KT 7SM M02/M09 A3006 RMK T10201090 IEM_DS3505
ZBAA,1992-01-27 02:00,ZBAA 270200Z AUTO 00000KT 7SM 00/M09 A3009 RMK T00001090 IEM_DS3505
ZBAA,1992-01-27 03:00,ZBAA 270300Z AUTO 04006KT 1 1/4SM 01/M08 A3006 RMK SLP236 T00121085 57001 IEM_DS3505
ZBAA,1992-01-27 04:00,ZBAA 270400Z AUTO 11008KT 7SM 04/M06 A3000 RMK T00401060 IEM_DS3505
ZBAA,1992-01-27 05:00,ZBAA 270500Z AUTO 10004KT 7SM 05/M05 A2997 RMK T00501050 IEM_DS3505
ZBAA,1992-01-27 06:00,ZBAA 270600Z AUTO 04004KT 1 1/4SM 04/M08 A2994 RMK SLP197 T00451075 4////1038 57038 IEM_DS3505
ZBAA,1992-01-27 07:00,ZBAA 270700Z AUTO 13006KT 7SM 07/M01 RMK T00701010 IEM_DS3505
ZBAA,1992-01-27 08:00,ZBAA 270800Z AUTO 12006KT 7SM 06/M05 A3000 RMK T00601050 IEM_DS3505
ZBAA,1992-01-27 09:00,ZBAA 270900Z AUTO 32002KT 1 1/2SM 04/M06 A2988 RMK SLP178 T00381059 57019 IEM_DS3505
ZBAA,1992-01-27 10:00,ZBAA 271000Z AUTO 00000KT 6SM 03/M05 A2988 RMK T00301050 IEM_DS3505
ZBAA,1992-01-27 11:00,ZBAA 271100Z AUTO 15002KT 6SM 02/M06 A2988 RMK T00201060 IEM_DS3505
ZBAA,1992-01-27 12:00,ZBAA 271200Z AUTO 36002KT 1 1/4SM 02/M05 A2988 RMK SLP181 T00171049 52002 IEM_DS3505
ZBAA,1992-01-27 13:00,ZBAA 271300Z AUTO 00000KT 7SM 01/M07 A2988 RMK T00101070 IEM_DS3505
ZBAA,1992-01-27 14:00,ZBAA 271400Z AUTO 08002KT 7SM M01/M07 A2988 RMK T10101070 IEM_DS3505
ZBAA,1992-01-27 15:00,ZBAA 271500Z AUTO 04002KT 1 1/2SM 02/M06 A2988 RMK SLP174 T00221062 57006 IEM_DS3505
ZBAA,1992-01-27 17:00,ZBAA 271700Z AUTO 07004KT 1SM M00/M06 RMK SLP166 T10041057 57008 IEM_DS3505
ZBAA,1992-01-27 18:00,ZBAA 271800Z AUTO 07004KT 1SM M00/M06 RMK SLP166 T10041057 40054//// 57008 IEM_DS3505
ZBAA,1992-01-27 20:00,ZBAA 272000Z AUTO 36002KT 1 1/4SM M04/M06 A2985 RMK T10401060 IEM_DS3505
ZBAA,1992-01-27 21:00,ZBAA 272100Z AUTO 07002KT 1SM M01/M04 A2985 RMK SLP160 T10111043 57006 IEM_DS3505
ZBAA,1992-01-27 22:00,ZBAA 272200Z AUTO 34006KT 2SM M04/M06 A2985 RMK T10401060 IEM_DS3505
ZBAA,1992-01-27 23:00,ZBAA 272300Z AUTO 00000KT 2 1/2SM M05/M08 A2985 RMK T10501080 IEM_DS3505
ZBAA,1992-01-28 00:00,ZBAA 280000Z AUTO 00000KT 1SM M04/M05 A2988 RMK SLP178 T10381052 52017 IEM_DS3505
ZBAA,1992-01-28 01:00,ZBAA 280100Z AUTO 00000KT 2SM M03/M06 A2988 RMK T10301060 IEM_DS3505
ZBAA,1992-01-28 02:00,ZBAA 280200Z AUTO 27004KT 3SM M01/M06 A2991 RMK T10101060 IEM_DS3505
ZBAA,1992-01-28 03:00,ZBAA 280300Z AUTO 20002KT 1 1/4SM 04/M04 A2994 RMK SLP190 T00371037 52013 IEM_DS3505
ZBAA,1992-01-28 04:00,ZBAA 280400Z AUTO 00000KT 2 1/2SM 04/M05 A2991 RMK T00401050 IEM_DS3505
ZBAA,1992-01-28 05:00,ZBAA 280500Z AUTO 00000KT 2 1/2SM 07/M05 A2988 RMK T00701050 IEM_DS3505
ZBAA,1992-01-28 06:00,ZBAA 280600Z AUTO 18004KT 2SM 10/M06 A2988 RMK SLP181 T01001057 4////1042 57008 IEM_DS3505
ZBAA,1992-01-28 07:00,ZBAA 280700Z AUTO 25006KT 5SM 11/M08 A2988 RMK T01101080 IEM_DS3505
ZBAA,1992-01-28 08:00,ZBAA 280800Z AUTO 19010KT 1 1/4SM 09/M04 A2991 RMK T00901040 IEM_DS3505
ZBAA,1992-01-28 09:00,ZBAA 280900Z AUTO 18002KT 2 1/2SM 08/M06 A2991 RMK SLP196 T00801058 52014 IEM_DS3505
ZBAA,1992-01-28 10:00,ZBAA 281000Z AUTO 22006KT 2SM 07/M06 A2997 RMK T00701060 IEM_DS3505
ZBAA,1992-01-28 11:00,ZBAA 281100Z AUTO 34006KT 2SM 05/M07 A2997 RMK T00501070 IEM_DS3505
ZBAA,1992-01-28 12:00,ZBAA 281200Z AUTO 34006KT 2SM 09/M10 A3000 RMK SLP218 T00921101 52022 IEM_DS3505
ZBAA,1992-01-28 13:00,ZBAA 281300Z AUTO 00000KT 2SM 05/M06 A3003 RMK T00501060 IEM_DS3505
ZBAA,1992-01-28 14:00,ZBAA 281400Z AUTO 00000KT 2SM 03/M07 A3003 RMK T00301070 IEM_DS3505
ZBAA,1992-01-28 15:00,ZBAA 281500Z AUTO 09004KT 2SM 09/M10 RMK SLP227 T00921095 52010 IEM_DS3505
ZBAA,1992-01-28 17:00,ZBAA 281700Z AUTO 2 1/2SM 05/M10 RMK SLP248 T00541099 40110//// 52021 IEM_DS3505
ZBAA,1992-01-28 18:00,ZBAA 281800Z AUTO 09006KT 2 1/2SM 05/M10 RMK SLP248 T00541099 40110//// 52021 IEM_DS3505
ZBAA,1992-01-28 20:00,ZBAA 282000Z AUTO 00000KT 2SM M01/M03 A3018 RMK T10101030 IEM_DS3505
ZBAA,1992-01-28 21:00,ZBAA 282100Z AUTO 07004KT 1 1/4SM 00/M02 RMK SLP267 T00031018 52018 IEM_DS3505
ZBAA,1992-01-28 22:00,ZBAA 282200Z AUTO 00000KT 2SM M02/M04 A3018 RMK T10201040 IEM_DS3505
ZBAA,1992-01-28 23:00,ZBAA 282300Z AUTO 00000KT 3SM M02/M05 A3021 RMK T10201050 IEM_DS3505
ZBAA,1992-01-29 00:00,ZBAA 290000Z AUTO 04004KT 2SM 00/M04 A3024 RMK SLP290 T00001038 52023 IEM_DS3505
ZBAA,1992-01-29 01:00,ZBAA 290100Z AUTO 17008KT 4SM M01/M05 A3027 RMK T10101050 IEM_DS3505
ZBAA,1992-01-29 02:00,ZBAA 290200Z AUTO 14006KT 4SM 00/M04 A3027 RMK T00001040 IEM_DS3505
ZBAA,1992-01-29 03:00,ZBAA 290300Z AUTO 16004KT 1 1/2SM 00/M04 A3027 RMK SLP299 T00041044 52009 IEM_DS3505
ZBAA,1992-01-29 04:00,ZBAA 290400Z AUTO 15002KT 6SM 00/M05 A3027 RMK T00001050 IEM_DS3505
ZBAA,1992-01-29 05:00,ZBAA 290500Z AUTO 12002KT 6SM 02/M05 A3021 RMK T00201050 IEM_DS3505
ZBAA,1992-01-29 06:00,ZBAA 290600Z AUTO 16004KT 1 1/2SM 01/M07 A3018 RMK SLP276 T00141066 4////1004 57023 IEM_DS3505
ZBAA,1992-01-29 07:00,ZBAA 290700Z AUTO 15008KT 7SM 02/M06 A3021 RMK T00201060 IEM_DS3505
ZBAA,1992-01-29 08:00,ZBAA 290800Z AUTO 15006KT 7SM 01/M07 A3021 RMK T00101070 IEM_DS3505
ZBAA,1992-01-29 09:00,ZBAA 290900Z AUTO 18008KT 2SM 01/M08 A3021 RMK SLP278 T00141075 52001 IEM_DS3505
ZBAA,1992-01-29 10:00,ZBAA 291000Z AUTO 13002KT 6SM M02/M08 A3024 RMK T10201080 IEM_DS3505
ZBAA,1992-01-29 11:00,ZBAA 291100Z AUTO 08002KT 6SM M02/M08 A3024 RMK T10201080 IEM_DS3505
ZBAA,1992-01-29 12:00,ZBAA 291200Z AUTO 18008KT 2SM M00/M07 A3027 RMK SLP298 T10011074 52020 IEM_DS3505
ZBAA,1992-01-29 13:00,ZBAA 291300Z AUTO 14006KT 6SM M02/M07 A3027 RMK T10201070 IEM_DS3505
ZBAA,1992-01-29 14:00,ZBAA 291400Z AUTO 14006KT 6SM M02/M07 A3027 RMK T10201070 IEM_DS3505
ZBAA,1992-01-29 15:00,ZBAA 291500Z AUTO 18008KT 2 1/2SM M01/M07 A3027 RMK SLP303 T10141071 52005 IEM_DS3505
ZBAA,1992-01-29 16:00,ZBAA 291600Z AUTO 13004KT 6SM M02/M06 A3027 RMK T10201060 IEM_DS3505
ZBAA,1992-01-29 18:00,ZBAA 291800Z AUTO 25002KT 2SM M02/M07 RMK SLP307 T10201067 40054//// 52004 IEM_DS3505
ZBAA,1992-01-29 20:00,ZBAA 292000Z AUTO 05002KT 7SM M04/M06 A3030 RMK T10401060 IEM_DS3505
ZBAA,1992-01-29 21:00,ZBAA 292100Z AUTO 00000KT 2SM M03/M06 A3027 RMK SLP303 T10301060 57004 IEM_DS3505
ZBAA,1992-01-29 23:00,ZBAA 292300Z AUTO 35006KT 4SM M05/M07 A3027 RMK T10501070 IEM_DS3505
ZBAA,1992-01-30 00:00,ZBAA 300000Z AUTO 02004KT 6SM M03/M11 A3030 RMK SLP314 T10301106 52010 IEM_DS3505
ZBAA,1992-01-30 01:00,ZBAA 300100Z AUTO 32006KT 3SM M03/M05 A3033 RMK T10301050 IEM_DS3505
ZBAA,1992-01-30 02:00,ZBAA 300200Z AUTO 36010KT 7SM M02/M10 A3047 RMK T10201100 IEM_DS3505
ZBAA,1992-01-30 03:00,ZBAA 300300Z AUTO 36016KT 12SM M00/M18 A3047 RMK SLP329 T10051178 52015 IEM_DS3505
ZBAA,1992-01-30 04:00,ZBAA 300400Z AUTO 30019KT 7SM 01/M18 A3033 RMK T00101180 IEM_DS3505
ZBAA,1992-01-30 05:00,ZBAA 300500Z AUTO 30019KT 7SM 01/M18 A3042 RMK T00101180 IEM_DS3505
ZBAA,1992-01-30 06:00,ZBAA 300600Z AUTO 36012KT 12SM 01/M20 A3030 RMK SLP314 T00071199 4////1038 57014 IEM_DS3505
ZBAA,1992-01-30 07:00,ZBAA 300700Z AUTO 30017KT 7SM 01/M19 A3030 RMK T00101190 IEM_DS3505
ZBAA,1992-01-30 08:00,ZBAA 300800Z AUTO 29017KT 7SM M01/M20 A3030 RMK T10101200 IEM_DS3505
ZBAA,1992-01-30 09:00,ZBAA 300900Z AUTO 36012KT 19SM M01/M23 A3030 RMK SLP318 T10131226 52003 IEM_DS3505
ZBAA,1992-01-30 10:00,ZBAA 301000Z AUTO 29019KT 7SM M02/M20 A3030 RMK T10201200 IEM_DS3505
ZBAA,1992-01-30 11:00,ZBAA 301100Z AUTO 29017KT 7SM M04/M21 A3036 RMK T10401210 IEM_DS3505
ZBAA,1992-01-30 12:00,ZBAA 301200Z AUTO 36010KT 19SM M04/M24 A3036 RMK SLP331 T10421241 52013 IEM_DS3505
ZBAA,1992-01-30 13:00,ZBAA 301300Z AUTO 29016KT 7SM M06/M21 A3036 RMK T10601210 IEM_DS3505
ZBAA,1992-01-30 14:00,ZBAA 301400Z AUTO 32006KT 7SM M06/M21 A3039 RMK T10601210 IEM_DS3505
ZBAA,1992-01-30 15:00,ZBAA 301500Z AUTO 02008KT 19SM M06/M24 RMK SLP341 T10601235 52010 IEM_DS3505
ZBAA,1992-01-30 18:00,ZBAA 301800Z AUTO 36012KT 19SM M06/M23 RMK SLP339 T10631231 40009//// 57002 IEM_DS3505
ZBAA,1992-01-30 20:00,ZBAA 302000Z AUTO 30014KT 7SM M07/M21 A3036 RMK T10701210 IEM_DS3505
ZBAA,1992-01-30 21:00,ZBAA 302100Z AUTO 36006KT 19SM M07/M25 A3036 RMK SLP332 T10691250 57008 IEM_DS3505
ZBAA,1992-01-30 23:00,ZBAA 302300Z AUTO 30004KT 7SM M08/M21 A3039 RMK T10801210 IEM_DS3505
ZBAA,1992-01-31 00:00,ZBAA 310000Z AUTO 02008KT 19SM M07/M24 A3039 RMK SLP342 T10701240 52010 IEM_DS3505
ZBAA,1992-01-31 01:00,ZBAA 310100Z AUTO 32008KT 7SM M06/M19 A3042 RMK T10601190 IEM_DS3505
ZBAA,1992-01-31 02:00,ZBAA 310200Z AUTO 01006KT 7SM M05/M19 A3039 RMK T10501190 IEM_DS3505
ZBAA,1992-01-31 03:00,ZBAA 310300Z AUTO 36012KT 19SM M04/M23 A3039 RMK SLP338 T10351229 57004 IEM_DS3505
ZBAA,1992-01-31 04:00,ZBAA 310400Z AUTO 34008KT 7SM M02/M20 A3036 RMK T10201200 IEM_DS3505
ZBAA,1992-01-31 05:00,ZBAA 310500Z AUTO 35008KT 7SM M01/M19 A3030 RMK T10101190 IEM_DS3505
ZBAA,1992-01-31 06:00,ZBAA 310600Z AUTO 02010KT 19SM 00/M23 A3027 RMK SLP308 T00021231 4////1076 57029 IEM_DS3505
ZBAA,1992-01-31 07:00,ZBAA 310700Z AUTO 29016KT 7SM 00/M19 A3027 RMK T00001190 IEM_DS3505
ZBAA,1992-01-31 08:00,ZBAA 310800Z AUTO 29016KT 7SM 00/M19 A3027 RMK T00001190 IEM_DS3505
ZBAA,1992-01-31 09:00,ZBAA 310900Z AUTO 34010KT 19SM M00/M22 A3027 RMK SLP304 T10011217 57004 IEM_DS3505
ZBAA,1992-01-31 10:00,ZBAA 311000Z AUTO 29012KT 7SM M02/M20 A3027 RMK T10201200 IEM_DS3505
ZBAA,1992-01-31 11:00,ZBAA 311100Z AUTO 29012KT 7SM M03/M20 A3030 RMK T10301200 IEM_DS3505
ZBAA,1992-01-31 12:00,ZBAA 311200Z AUTO 34006KT 19SM M03/M20 A3030 RMK SLP317 T10271203 52012 IEM_DS3505
ZBAA,1992-01-31 13:00,ZBAA 311300Z AUTO 29012KT 7SM M04/M20 A3033 RMK T10401200 IEM_DS3505
ZBAA,1992-01-31 14:00,ZBAA 311400Z AUTO 31010KT 7SM M04/M20 A3033 RMK T10401200 IEM_DS3505
ZBAA,1992-01-31 15:00,ZBAA 311500Z AUTO 34004KT 19SM M05/M20 A3033 RMK SLP322 T10471197 52006 IEM_DS3505
ZBAA,1992-01-31 18:00,ZBAA 311800Z AUTO 36006KT 19SM M06/M20 RMK SLP323 T10591198 40008//// 52001 IEM_DS3505
ZBAA,1992-01-31 20:00,ZBAA 312000Z AUTO 34008KT 7SM M07/M19 A3033 RMK T10701190 IEM_DS3505
ZBAA,1992-01-31 21:00,ZBAA 312100Z AUTO 04004KT 19SM M06/M20 A3033 RMK SLP319 T10611203 57004 IEM_DS3505
ZBAA,1992-01-31 22:00,ZBAA 312200Z AUTO 34008KT 7SM M08/M18 A3033 RMK T10801180 IEM_DS3505
ZBAA,1992-01-31 23:00,ZBAA 312300Z AUTO 35004KT 7SM M09/M18 A3033 RMK T10901180 IEM_DS3505
ZBAA,1992-02-01 00:00,ZBAA 010000Z AUTO 04006KT 9SM M07/M21 A3033 RMK SLP323 T10671207 52003 IEM_DS3505
ZBAA,1992-02-01 01:00,ZBAA 010100Z AUTO 35008KT 6SM M07/M18 A3033 RMK SLP330 T10701180 IEM_DS3505
ZBAA,1992-02-01 02:00,ZBAA 010200Z AUTO 35006KT 6SM M05/M18 A3030 RMK SLP319 T10501180 IEM_DS3505
ZBAA,1992-02-01 03:00,ZBAA 010300Z AUTO 11002KT 7SM M03/M20 A3030 RMK SLP314 T10291198 57008 IEM_DS3505
ZBAA,1992-02-01 04:00,ZBAA 010400Z AUTO 14002KT 6SM M01/M18 A3027 RMK SLP308 T10101180 IEM_DS3505
ZBAA,1992-02-01 05:00,ZBAA 010500Z AUTO 18002KT 6SM M01/M18 A3021 RMK SLP287 T10101180 IEM_DS3505
ZBAA,1992-02-01 06:00,ZBAA 010600Z AUTO 20010KT 7SM 00/M19 A3018 RMK SLP278 T00051194 4////1074 57036 IEM_DS3505
ZBAA,1992-02-01 07:00,ZBAA 010700Z AUTO 16008KT 6SM 01/M18 A3018 RMK SLP277 T00101180 IEM_DS3505
ZBAA,1992-02-01 08:00,ZBAA 010800Z AUTO 18010KT 6SM 01/M18 A3018 RMK SLP277 T00101180 IEM_DS3505
ZBAA,1992-02-01 09:00,ZBAA 010900Z AUTO 20008KT 9SM 01/M21 A3015 RMK SLP266 T00061213 57012 IEM_DS3505
ZBAA,1992-02-01 10:00,ZBAA 011000Z AUTO 13004KT 6SM 00/M17 A3015 RMK SLP267 T00001170 IEM_DS3505
ZBAA,1992-02-01 11:00,ZBAA 011100Z AUTO 11006KT 6SM M01/M17 A3015 RMK SLP267 T10101170 IEM_DS3505
ZBAA,1992-02-01 12:00,ZBAA 011200Z AUTO 20004KT 7SM M00/M18 A3015 RMK SLP265 T10021177 57001 IEM_DS3505
ZBAA,1992-02-01 13:00,ZBAA 011300Z AUTO 11004KT 6SM M01/M16 A3015 RMK SLP267 T10101160 IEM_DS3505
ZBAA,1992-02-01 14:00,ZBAA 011400Z AUTO 10004KT 6SM M01/M16 A3012 RMK SLP257 T10101160 IEM_DS3505
ZBAA,1992-02-01 15:00,ZBAA 011500Z AUTO 20004KT 7SM M01/M16 A3010 RMK SLP251 T10081162 57013 IEM_DS3505
ZBAA,1992-02-01 18:00,ZBAA 011800Z AUTO 16006KT 5SM M01/M15 A3009 RMK SLP246 T10081151 40013//// 57005 IEM_DS3505
ZBAA,1992-02-01 20:00,ZBAA 012000Z AUTO 07002KT 7SM M03/M14 A3006 RMK SLP237 T10301140 IEM_DS3505
ZBAA,1992-02-01 21:00,ZBAA 012100Z AUTO 22004KT 2SM M01/M14 A3006 RMK SLP236 T10141142 57010 IEM_DS3505
ZBAA,1992-02-01 23:00,ZBAA 012300Z AUTO 03002KT 7SM M03/M11 A3003 RMK SLP227 T10301110 IEM_DS3505
ZBAA,1992-02-02 00:00,ZBAA 020000Z AUTO 34002KT 2 1/2SM M03/M13 A3006 RMK SLP236 T10261127 54000 IEM_DS3505
ZBAA,1992-02-02 01:00,ZBAA 020100Z AUTO 35006KT 7SM M03/M09 A3006 RMK SLP237 T10301090 IEM_DS3505
ZBAA,1992-02-02 02:00,ZBAA 020200Z AUTO 35006KT 6SM M02/M08 A3006 RMK SLP236 T10201080 IEM_DS3505
ZBAA,1992-02-02 03:00,ZBAA 020300Z AUTO 04004KT 3SM M01/M11 A3006 RMK SLP238 T10071113 52002 IEM_DS3505
ZBAA,1992-02-02 04:00,ZBAA 020400Z AUTO 00000KT 6SM 01/M11 A3003 RMK SLP226 T00101110 IEM_DS3505
ZBAA,1992-02-02 05:00,ZBAA 020500Z AUTO 23002KT 7SM 02/M11 A3003 RMK SLP225 T00201110 IEM_DS3505
ZBAA,1992-02-02 06:00,ZBAA 020600Z AUTO 00000KT 3SM 03/M14 A2997 RMK SLP211 T00281137 4////1028 57026 IEM_DS3505
ZBAA,1992-02-02 07:00,ZBAA 020700Z AUTO 21004KT 7SM 03/M11 A2997 RMK SLP205 T00301110 IEM_DS3505
ZBAA,1992-02-02 08:00,ZBAA 020800Z AUTO 20004KT 7SM 03/M11 A2994 RMK SLP195 T00301110 IEM_DS3505
ZBAA,1992-02-02 09:00,ZBAA 020900Z AUTO 20006KT 4SM 03/M12 A2994 RMK SLP205 T00261115 57006 IEM_DS3505
ZBAA,1992-02-02 10:00,ZBAA 021000Z AUTO 00000KT 4SM 00/M11 A2997 RMK SLP206 T00001110 IEM_DS3505
ZBAA,1992-02-02 11:00,ZBAA 021100Z AUTO 00000KT 4SM M01/M11 A3000 RMK SLP216 T10101110 IEM_DS3505
ZBAA,1992-02-02 12:00,ZBAA 021200Z AUTO 18002KT 3SM 01/M10 A3000 RMK SLP214 T00061102 52008 IEM_DS3505
ZBAA,1992-02-02 13:00,ZBAA 021300Z AUTO 35002KT 4SM M02/M11 A3000 RMK SLP216 T10201110 IEM_DS3505
ZBAA,1992-02-02 14:00,ZBAA 021400Z AUTO 34004KT 4SM M02/M11 A3003 RMK SLP226 T10201110 IEM_DS3505
ZBAA,1992-02-02 15:00,ZBAA 021500Z AUTO 00000KT 2 1/2SM M01/M10 A3003 RMK SLP225 T10121100 52011 IEM_DS3505
ZBAA,1992-02-02 18:00,ZBAA 021800Z AUTO 09002KT 3SM M01/M12 A3006 RMK SLP236 T10101119 40037//// 52011 IEM_DS3505
ZBAA,1992-02-02 20:00,ZBAA 022000Z AUTO 35008KT 7SM M03/M14 A3006 RMK SLP237 T10301140 IEM_DS3505
ZBAA,1992-02-02 21:00,ZBAA 022100Z AUTO 04004KT 12SM M02/M17 A3006 RMK SLP235 T10181167 57001 IEM_DS3505
ZBAA,1992-02-02 22:00,ZBAA 022200Z AUTO 34010KT 7SM M04/M15 A3009 RMK SLP247 T10401150 IEM_DS3505
ZBAA,1992-02-02 23:00,ZBAA 022300Z AUTO 34008KT 7SM M05/M15 A3012 RMK SLP258 T10501150 IEM_DS3505
ZBAA,1992-02-03 00:00,ZBAA 030000Z AUTO 02016KT 19SM M03/M17 A3015 RMK SLP257 T10271173 52022 IEM_DS3505
ZBAA,1992-02-03 01:00,ZBAA 030100Z AUTO 01004KT 7SM M04/M14 A3018 RMK SLP278 T10401140 IEM_DS3505
ZBAA,1992-02-03 02:00,ZBAA 030200Z AUTO 36010KT 7SM M02/M15 A3018 RMK SLP278 T10201150 IEM_DS3505
ZBAA,1992-02-03 03:00,ZBAA 030300Z AUTO 36010KT 19SM M00/M19 A3018 RMK SLP274 T10021186 52017 IEM_DS3505
ZBAA,1992-02-03 04:00,ZBAA 030400Z AUTO 35010KT 7SM 00/M15 RMK T00001150 IEM_DS3505
ZBAA,1992-02-03 05:00,ZBAA 030500Z AUTO 34008KT 7SM 02/M15 A3015 RMK SLP267 T00201150 IEM_DS3505
ZBAA,1992-02-03 06:00,ZBAA 030600Z AUTO 34008KT 19SM 03/M20 A3012 RMK SLP255 T00301202 4////1035 57019 IEM_DS3505
ZBAA,1992-02-03 07:00,ZBAA 030700Z AUTO 01008KT 7SM 03/M16 A3009 RMK SLP245 T00301160 IEM_DS3505
ZBAA,1992-02-03 08:00,ZBAA 030800Z AUTO 03006KT 7SM 03/M16 A3009 RMK SLP245 T00301160 IEM_DS3505
ZBAA,1992-02-03 09:00,ZBAA 030900Z AUTO 32006KT 19SM 03/M20 A3012 RMK SLP257 T00261195 52002 IEM_DS3505
ZBAA,1992-02-03 10:00,ZBAA 031000Z AUTO 29008KT 7SM 01/M16 A3012 RMK SLP257 T00101160 IEM_DS3505
ZBAA,1992-02-03 11:00,ZBAA 031100Z AUTO 27008KT 7SM M01/M16 A3015 RMK SLP267 T10101160 IEM_DS3505
ZBAA,1992-02-03 12:00,ZBAA 031200Z AUTO 34002KT 6SM M01/M14 A3015 RMK SLP267 T10101145 52010 IEM_DS3505
ZBAA,1992-02-03 13:00,ZBAA 031300Z AUTO 30006KT 7SM M01/M19 A3015 RMK SLP267 T10101190 IEM_DS3505
ZBAA,1992-02-03 14:00,ZBAA 031400Z AUTO 31006KT 7SM M02/M19 A3018 RMK SLP278 T10201190 IEM_DS3505
ZBAA,1992-02-03 15:00,ZBAA 031500Z AUTO 02004KT 12SM M02/M17 A3018 RMK SLP274 T10191170 52007 IEM_DS3505
ZBAA,1992-02-03 18:00,ZBAA 031800Z AUTO 02004KT 12SM M02/M16 A3017 RMK SLP274 T10241159 40040//// 54000 IEM_DS3505
ZBAA,1992-02-03 21:00,ZBAA 032100Z AUTO 07002KT 9SM M06/M14 A3015 RMK SLP268 T10551141 57006 IEM_DS3505
ZBAA,1992-02-03 22:00,ZBAA 032200Z AUTO 36006KT 7SM M06/M16 A3015 RMK SLP269 T10601160 IEM_DS3505
ZBAA,1992-02-04 00:00,ZBAA 040000Z AUTO 29002KT 7SM M06/M16 A3018 RMK SLP272 T10571159 52003 IEM_DS3505
ZBAA,1992-02-04 01:00,ZBAA 040100Z AUTO 35008KT 7SM M04/M16 RMK T10401160 IEM_DS3505
ZBAA,1992-02-04 02:00,ZBAA 040200Z AUTO 36008KT 7SM M02/M15 A3018 RMK SLP278 T10201150 IEM_DS3505
ZBAA,1992-02-04 03:00,ZBAA 040300Z AUTO 29002KT 7SM M06/M16 A3015 RMK SLP272 T10571159 52003 IEM_DS3505
ZBAA,1992-02-04 04:00,ZBAA 040400Z AUTO 34004KT 7SM 02/M15 A3012 RMK SLP256 T00201150 IEM_DS3505
ZBAA,1992-02-04 05:00,ZBAA 040500Z AUTO 34004KT 7SM 02/M15 A3012 RMK SLP256 T00201150 IEM_DS3505
ZBAA,1992-02-04 06:00,ZBAA 040600Z AUTO 14002KT 6SM 04/M17 A3012 RMK SLP243 T00431169 4////1065 57026 IEM_DS3505
ZBAA,1992-02-04 07:00,ZBAA 040700Z AUTO 18006KT 7SM 04/M14 A3006 RMK SLP235 T00401140 IEM_DS3505
ZBAA,1992-02-04 08:00,ZBAA 040800Z AUTO 16006KT 7SM 04/M14 RMK T00401140 IEM_DS3505
ZBAA,1992-02-04 09:00,ZBAA 040900Z AUTO 18002KT 6SM 04/M15 A3003 RMK SLP232 T00401152 57011 IEM_DS3505
ZBAA,1992-02-04 10:00,ZBAA 041000Z AUTO 15008KT 6SM 02/M15 A3003 RMK SLP225 T00201150 IEM_DS3505
ZBAA,1992-02-04 11:00,ZBAA 041100Z AUTO 15008KT 6SM 02/M15 A3003 RMK SLP225 T00201150 IEM_DS3505
ZBAA,1992-02-04 12:00,ZBAA 041200Z AUTO 22002KT 5SM 01/M12 A3003 RMK SLP240 T00071117 52008 IEM_DS3505
ZBAA,1992-02-04 13:00,ZBAA 041300Z AUTO 00000KT 6SM M02/M15 A3006 RMK SLP236 T10201150 IEM_DS3505
ZBAA,1992-02-04 14:00,ZBAA 041400Z AUTO 00000KT 6SM M02/M15 A3006 RMK SLP236 T10201150 IEM_DS3505
ZBAA,1992-02-04 18:00,ZBAA 041800Z AUTO 02002KT 6SM M03/M11 A3007 RMK SLP239 T10311114 40051//// 54000 IEM_DS3505
ZBAA,1992-02-04 20:00,ZBAA 042000Z AUTO 18002KT 7SM M07/M14 A3006 RMK SLP238 T10701140 IEM_DS3505
ZBAA,1992-02-04 21:00,ZBAA 042100Z AUTO 04004KT 6SM M03/M13 A3006 RMK SLP235 T10311130 57004 IEM_DS3505
ZBAA,1992-02-04 22:00,ZBAA 042200Z AUTO 27004KT 7SM M08/M14 A3006 RMK SLP238 T10801140 IEM_DS3505
ZBAA,1992-02-04 23:00,ZBAA 042300Z AUTO 29006KT 7SM M09/M14 A3006 RMK SLP238 T10901140 IEM_DS3505
ZBAA,1992-02-05 00:00,ZBAA 050000Z AUTO 02008KT 6SM M02/M16 A3009 RMK SLP238 T10181159 52003 IEM_DS3505
ZBAA,1992-02-05 01:00,ZBAA 050100Z AUTO 36002KT 6SM M04/M12 A3009 RMK SLP247 T10401120 IEM_DS3505
ZBAA,1992-02-05 02:00,ZBAA 050200Z AUTO 36004KT 6SM 00/M12 A3009 RMK SLP246 T00001120 IEM_DS3505
ZBAA,1992-02-05 03:00,ZBAA 050300Z AUTO 36010KT 12SM 04/M17 A3006 RMK SLP239 T00361172 52001 IEM_DS3505
ZBAA,1992-02-05 04:00,ZBAA 050400Z AUTO 28017KT 6SM 05/M16 A3006 RMK SLP235 T00501160 IEM_DS3505
ZBAA,1992-02-05 05:00,ZBAA 050500Z AUTO 29012KT 6SM 05/M16 A3003 RMK SLP225 T00501160 IEM_DS3505
ZBAA,1992-02-05 06:00,ZBAA 050600Z AUTO 34012KT 16SM 06/M19 A3003 RMK SLP226 T00561193 4////1050 57012 IEM_DS3505
ZBAA,1992-02-05 07:00,ZBAA 050700Z AUTO 26016KT 6SM 05/M17 A3003 RMK SLP225 T00501170 IEM_DS3505
ZBAA,1992-02-05 08:00,ZBAA 050800Z AUTO 31016KT 6SM 04/M17 A3006 RMK SLP235 T00401170 IEM_DS3505
ZBAA,1992-02-05 09:00,ZBAA 050900Z AUTO 32008KT 19SM 03/M21 A3009 RMK SLP249 T00291206 52022 IEM_DS3505
ZBAA,1992-02-05 10:00,ZBAA 051000Z AUTO 30019KT 6SM 02/M18 A3012 RMK SLP256 T00201180 IEM_DS3505
ZBAA,1992-02-05 11:00,ZBAA 051100Z AUTO 30019KT 6SM 01/M19 A3018 RMK SLP277 T00101190 IEM_DS3505
ZBAA,1992-02-05 12:00,ZBAA 051200Z AUTO 34014KT 19SM 01/M22 A3021 RMK SLP281 T00071217 52032 IEM_DS3505
ZBAA,1992-02-05 13:00,ZBAA 051300Z AUTO 29023KT 6SM M01/M20 A3024 RMK SLP298 T10101200 IEM_DS3505
ZBAA,1992-02-05 14:00,ZBAA 051400Z AUTO 34014KT 6SM M02/M20 A3024 RMK SLP298 T10201200 IEM_DS3505
ZBAA,1992-02-05 15:00,ZBAA 051500Z AUTO 34008KT 19SM M02/M20 A3022 RMK SLP292 T10201204 52011 IEM_DS3505
ZBAA,1992-02-05 18:00,ZBAA 051800Z AUTO 32004KT 19SM M04/M18 A3022 RMK SLP290 T10371181 40062//// 57002 IEM_DS3505
ZBAA,1992-02-05 20:00,ZBAA 052000Z AUTO 27006KT 6SM M07/M19 A3021 RMK SLP289 T10701190 IEM_DS3505
ZBAA,1992-02-05 21:00,ZBAA 052100Z AUTO 34004KT 19SM M03/M20 A3021 RMK SLP285 T10321196 57005 IEM_DS3505
ZBAA,1992-02-05 22:00,ZBAA 052200Z AUTO 31008KT 6SM M05/M19 A3024 RMK SLP299 T10501190 IEM_DS3505
ZBAA,1992-02-05 23:00,ZBAA 052300Z AUTO 29004KT 7SM M05/M19 A3027 RMK SLP309 T10501190 IEM_DS3505
ZBAA,1992-02-06 00:00,ZBAA 060000Z AUTO 36008KT 19SM M04/M21 A3027 RMK SLP305 T10361208 52019 IEM_DS3505
ZBAA,1992-02-06 01:00,ZBAA 060100Z AUTO 28019KT 7SM M03/M18 A3027 RMK SLP308 T10301180 IEM_DS3505
ZBAA,1992-02-06 02:00,ZBAA 060200Z AUTO 28016KT 7SM M01/M18 A3030 RMK SLP318 T10101180 IEM_DS3505
ZBAA,1992-02-06 03:00,ZBAA 060300Z AUTO 34008KT 19SM 01/M25 A3030 RMK SLP306 T00071246 52002 IEM_DS3505
ZBAA,1992-02-06 04:00,ZBAA 060400Z AUTO 28016KT 7SM M01/M18 A3030 RMK SLP318 T10101180 IEM_DS3505
ZBAA,1992-02-06 05:00,ZBAA 060500Z AUTO 29016KT 7SM 00/M19 A3027 RMK SLP307 T00001190 IEM_DS3505
ZBAA,1992-02-06 06:00,ZBAA 060600Z AUTO 29010KT 19SM 04/M20 A3021 RMK SLP283 T00391199 4////1047 57023 IEM_DS3505
ZBAA,1992-02-06 07:00,ZBAA 060700Z AUTO 25014KT 7SM 03/M19 A3021 RMK SLP286 T00301190 IEM_DS3505
ZBAA,1992-02-06 08:00,ZBAA 060800Z AUTO 26016KT 7SM 03/M19 A3018 RMK SLP276 T00301190 IEM_DS3505
ZBAA,1992-02-06 09:00,ZBAA 060900Z AUTO 32006KT 19SM 03/M20 A3018 RMK SLP278 T00291196 57005 IEM_DS3505
ZBAA,1992-02-06 10:00,ZBAA 061000Z AUTO 25008KT 7SM 01/M18 A3018 RMK SLP277 T00101180 IEM_DS3505
ZBAA,1992-02-06 11:00,ZBAA 061100Z AUTO 29008KT 7SM 00/M18 A3021 RMK SLP287 T00001180 IEM_DS3505
ZBAA,1992-02-06 12:00,ZBAA 061200Z AUTO 34002KT 19SM M01/M16 A3021 RMK SLP286 T10121156 52007 IEM_DS3505
ZBAA,1992-02-06 13:00,ZBAA 061300Z AUTO 32006KT 7SM M01/M19 A3024 RMK SLP298 T10101190 IEM_DS3505
ZBAA,1992-02-06 14:00,ZBAA 061400Z AUTO 35004KT 7SM M02/M18 A3024 RMK SLP298 T10201180 IEM_DS3505
ZBAA,1992-02-06 15:00,ZBAA 061500Z AUTO 02004KT 19SM M02/M16 A3024 RMK SLP287 T10191157 52002 IEM_DS3505
ZBAA,1992-02-06 16:00,ZBAA 061600Z AUTO 35006KT 7SM M03/M18 A3024 RMK SLP298 T10301180 IEM_DS3505
ZBAA,1992-02-06 18:00,ZBAA 061800Z AUTO 36006KT 19SM M03/M18 A3021 RMK SLP288 T10271182 40041//// 52001 IEM_DS3505
ZBAA,1992-02-06 20:00,ZBAA 062000Z AUTO 03004KT 7SM M06/M18 A3024 RMK SLP299 T10601180 IEM_DS3505
ZBAA,1992-02-06 21:00,ZBAA 062100Z AUTO 02006KT 19SM M04/M18 A3024 RMK SLP289 T10381183 52001 IEM_DS3505
ZBAA,1992-02-06 22:00,ZBAA 062200Z AUTO 35010KT 7SM M06/M17 A3024 RMK SLP299 T10601170 IEM_DS3505
ZBAA,1992-02-06 23:00,ZBAA 062300Z AUTO 32008KT 6SM M06/M17 A3027 RMK SLP309 T10601170 IEM_DS3505
ZBAA,1992-02-07 00:00,ZBAA 070000Z AUTO 02006KT 16SM M04/M19 A3027 RMK SLP306 T10411191 52016 IEM_DS3505
ZBAA,1992-02-07 01:00,ZBAA 070100Z AUTO 35006KT 6SM M05/M17 A3030 RMK SLP319 T10501170 IEM_DS3505
ZBAA,1992-02-07 02:00,ZBAA 070200Z AUTO 36008KT 6SM M02/M17 A3030 RMK SLP318 T10201170 IEM_DS3505
ZBAA,1992-02-07 03:00,ZBAA 070300Z AUTO 04004KT 19SM M01/M20 A3030 RMK SLP312 T10071197 52006 IEM_DS3505
ZBAA,1992-02-07 05:00,ZBAA 070500Z AUTO 04008KT 7SM 02/M17 A3024 RMK SLP297 T00201170 IEM_DS3505
ZBAA,1992-02-07 06:00,ZBAA 070600Z AUTO 36010KT 19SM 03/M22 A3024 RMK SLP290 T00271215 4////1050 57021 IEM_DS3505
ZBAA,1992-02-07 07:00,ZBAA 070700Z AUTO 02008KT 7SM 02/M17 A3021 RMK SLP287 T00201170 IEM_DS3505
ZBAA,1992-02-07 08:00,ZBAA 070800Z AUTO 01004KT 7SM 01/M18 A3021 RMK SLP287 T00101180 IEM_DS3505
ZBAA,1992-02-07 09:00,ZBAA 070900Z AUTO 34006KT 19SM 02/M20 A3024 RMK SLP291 T00181202 52001 IEM_DS3505
ZBAA,1992-02-07 10:00,ZBAA 071000Z AUTO 31006KT 7SM 00/M19 A3024 RMK SLP297 T00001190 IEM_DS3505
ZBAA,1992-02-07 11:00,ZBAA 071100Z AUTO 28008KT 7SM M01/M19 A3027 RMK SLP308 T10101190 IEM_DS3505
ZBAA,1992-02-07 12:00,ZBAA 071200Z AUTO 34002KT 16SM M01/M17 A3030 RMK SLP315 T10121173 52023 IEM_DS3505
ZBAA,1992-02-07 13:00,ZBAA 071300Z AUTO 31008KT 7SM M02/M19 A3030 RMK SLP318 T10201190 IEM_DS3505
ZBAA,1992-02-07 14:00,ZBAA 071400Z AUTO 30008KT 7SM M02/M18 A3033 RMK SLP329 T10201180 IEM_DS3505
ZBAA,1992-02-07 15:00,ZBAA 071500Z AUTO 36004KT 16SM M03/M19 A3033 RMK SLP321 T10271193 52006 IEM_DS3505
ZBAA,1992-02-07 18:00,ZBAA 071800Z AUTO 36006KT 16SM M04/M18 A3033 RMK SLP329 T10371181 40030//// 52008 IEM_DS3505
ZBAA,1992-02-07 20:00,ZBAA 072000Z AUTO 32008KT 7SM M05/M18 A3036 RMK SLP340 T10501180 IEM_DS3505
ZBAA,1992-02-07 21:00,ZBAA 072100Z AUTO 04004KT 12SM M05/M18 A3036 RMK SLP327 T10461176 57002 IEM_DS3505
ZBAA,1992-02-07 22:00,ZBAA 072200Z AUTO 35008KT 7SM M07/M18 A3033 RMK SLP330 T10701180 IEM_DS3505
ZBAA,1992-02-07 23:00,ZBAA 072300Z AUTO 01010KT 7SM M08/M18 A3036 RMK SLP341 T10801180 IEM_DS3505
ZBAA,1992-02-08 00:00,ZBAA 080000Z AUTO 02004KT 16SM M04/M19 A3036 RMK SLP328 T10401189 52001 IEM_DS3505
ZBAA,1992-02-08 01:00,ZBAA 080100Z AUTO 34008KT 7SM M04/M16 A3036 RMK SLP340 T10401160 IEM_DS3505
ZBAA,1992-02-08 02:00,ZBAA 080200Z AUTO 34008KT 7SM M02/M17 A3036 RMK SLP339 T10201170 IEM_DS3505
ZBAA,1992-02-08 03:00,ZBAA 080300Z AUTO 22002KT 16SM 01/M14 A3036 RMK SLP332 T00121141 52004 IEM_DS3505
ZBAA,1992-02-08 04:00,ZBAA 080400Z AUTO 26017KT 7SM 02/M18 A3033 RMK SLP328 T00201180 IEM_DS3505
ZBAA,1992-02-08 05:00,ZBAA 080500Z AUTO 28012KT 7SM 03/M19 A3030 RMK SLP317 T00301190 IEM_DS3505
ZBAA,1992-02-08 06:00,ZBAA 080600Z AUTO 32004KT 19SM 05/M15 A3024 RMK SLP297 T00481147 4////1048 57034 IEM_DS3505
ZBAA,1992-02-08 07:00,ZBAA 080700Z AUTO 27010KT 7SM 04/M19 A3024 RMK SLP296 T00401190 IEM_DS3505
ZBAA,1992-02-08 08:00,ZBAA 080800Z AUTO 27010KT 7SM 04/M19 A3024 RMK SLP296 T00401190 IEM_DS3505
ZBAA,1992-02-08 09:00,ZBAA 080900Z AUTO 29004KT 19SM 04/M14 A3021 RMK SLP284 T00411143 57013 IEM_DS3505
ZBAA,1992-02-08 10:00,ZBAA 081000Z AUTO 25010KT 7SM 02/M19 A3021 RMK SLP287 T00201190 IEM_DS3505
ZBAA,1992-02-08 11:00,ZBAA 081100Z AUTO 24008KT 7SM 00/M19 A3021 RMK SLP287 T00001190 IEM_DS3505
ZBAA,1992-02-08 12:00,ZBAA 081200Z AUTO 25002KT 11SM M01/M20 A3021 RMK SLP284 T10111195 57001 IEM_DS3505
ZBAA,1992-02-08 13:00,ZBAA 081300Z AUTO 30004KT 7SM M02/M18 A3021 RMK SLP288 T10201180 IEM_DS3505
ZBAA,1992-02-08 14:00,ZBAA 081400Z AUTO 29008KT 7SM M01/M18 A3021 RMK SLP287 T10101180 IEM_DS3505
ZBAA,1992-02-08 15:00,ZBAA 081500Z AUTO 00000KT 12SM M04/M14 A3021 RMK SLP284 T10401141 52001 IEM_DS3505
ZBAA,1992-02-08 18:00,ZBAA 081800Z AUTO 07002KT 12SM M05/M14 A3017 RMK SLP274 T10481136 40054//// 57010 IEM_DS3505
ZBAA,1992-02-08 20:00,ZBAA 082000Z AUTO 34004KT 7SM M05/M17 A3012 RMK SLP258 T10501170 IEM_DS3505
ZBAA,1992-02-08 21:00,ZBAA 082100Z AUTO 27002KT 12SM M06/M14 A3012 RMK SLP260 T10651139 57014 IEM_DS3505
ZBAA,1992-02-08 22:00,ZBAA 082200Z AUTO 35006KT 7SM M07/M17 A3012 RMK SLP259 T10701170 IEM_DS3505
ZBAA,1992-02-08 23:00,ZBAA 082300Z AUTO 35006KT 7SM M06/M17 A3012 RMK SLP259 T10601170 IEM_DS3505
ZBAA,1992-02-09 00:00,ZBAA 090000Z AUTO 00000KT 4SM M06/M12 A3012 RMK SLP261 T10631123 54000 IEM_DS3505
ZBAA,1992-02-09 01:00,ZBAA 090100Z AUTO 36002KT 7SM M04/M15 A3012 RMK SLP258 T10401150 IEM_DS3505
ZBAA,1992-02-09 02:00,ZBAA 090200Z AUTO 26004KT 7SM 01/M16 RMK T00101160 IEM_DS3505
ZBAA,1992-02-09 03:00,ZBAA 090300Z AUTO 09002KT 6SM 04/M18 A3012 RMK SLP254 T00431178 57006 IEM_DS3505
ZBAA,1992-02-09 04:00,ZBAA 090400Z AUTO 28016KT 7SM 05/M19 A3006 RMK SLP235 T00501190 IEM_DS3505
ZBAA,1992-02-09 05:00,ZBAA 090500Z AUTO 31014KT 7SM 06/M20 A3003 RMK SLP224 T00601200 IEM_DS3505
ZBAA,1992-02-09 06:00,ZBAA 090600Z AUTO 34006KT 16SM 08/ A3003 RMK SLP223 4////1074 57030 IEM_DS3505
ZBAA,1992-02-09 07:00,ZBAA 090700Z AUTO 29014KT 7SM 07/M20 A3000 RMK SLP214 T00701200 IEM_DS3505
ZBAA,1992-02-09 08:00,ZBAA 090800Z AUTO 28012KT 7SM 06/M21 A2997 RMK SLP204 T00601210 IEM_DS3505
ZBAA,1992-02-09 09:00,ZBAA 090900Z AUTO 34004KT 19SM 07/M20 A2997 RMK SLP219 T00661197 57005 IEM_DS3505
ZBAA,1992-02-09 10:00,ZBAA 091000Z AUTO 25010KT 7SM 04/M21 A3000 RMK SLP215 T00401210 IEM_DS3505
ZBAA,1992-02-09 11:00,ZBAA 091100Z AUTO 25008KT 7SM 03/M21 A3003 RMK SLP225 T00301210 IEM_DS3505
ZBAA,1992-02-09 12:00,ZBAA 091200Z AUTO 27002KT 19SM 01/M14 A3003 RMK SLP233 T00061145 52013 IEM_DS3505
ZBAA,1992-02-09 12:21,ZBAA 091221Z AUTO 25006KT 6SM RMK IEM_DS3505
ZBAA,1992-02-09 13:00,ZBAA 091300Z AUTO 35006KT 7SM 02/M20 A3006 RMK SLP235 T00201200 IEM_DS3505
ZBAA,1992-02-09 15:00,ZBAA 091500Z AUTO 02004KT 16SM M01/M21 A3009 RMK SLP248 T10101206 52017 IEM_DS3505
ZBAA,1992-02-09 18:00,ZBAA 091800Z AUTO 04008KT 12SM 00/M23 A3018 RMK SLP268 T00021230 40084//// 52020 IEM_DS3505
ZBAA,1992-02-09 20:00,ZBAA 092000Z AUTO 01010KT 7SM M03/M17 A3018 RMK SLP278 T10301170 IEM_DS3505
ZBAA,1992-02-09 21:00,ZBAA 092100Z AUTO 02006KT 12SM M02/M21 A3021 RMK SLP276 T10151207 52008 IEM_DS3505
ZBAA,1992-02-09 22:00,ZBAA 092200Z AUTO 01006KT 7SM M05/M18 A3021 RMK SLP289 T10501180 IEM_DS3505
ZBAA,1992-02-09 23:00,ZBAA 092300Z AUTO 02008KT 7SM M05/M18 A3024 RMK SLP299 T10501180 IEM_DS3505
ZBAA,1992-02-10 00:00,ZBAA 100000Z AUTO 07004KT 19SM M03/M21 A3024 RMK SLP295 T10341213 52017 IEM_DS3505
ZBAA,1992-02-10 01:00,ZBAA 100100Z AUTO 03012KT 7SM M03/M18 A3027 RMK SLP308 T10301180 IEM_DS3505
ZBAA,1992-02-10 02:00,ZBAA 100200Z AUTO 05014KT 7SM M01/M18 A3027 RMK SLP308 T10101180 IEM_DS3505
ZBAA,1992-02-10 03:00,ZBAA 100300Z AUTO 09006KT 19SM 01/M20 A3027 RMK SLP302 T00081195 52008 IEM_DS3505
ZBAA,1992-02-10 04:00,ZBAA 100400Z AUTO 08006KT 7SM 03/M19 A3024 RMK SLP297 T00301190 IEM_DS3505
ZBAA,1992-02-10 05:00,ZBAA 100500Z AUTO 09004KT 7SM 04/M20 A3021 RMK SLP286 T00401200 IEM_DS3505
ZBAA,1992-02-10 06:00,ZBAA 100600Z AUTO 18006KT 12SM 04/M25 A3018 RMK SLP278 T00431249 4////1039 57024 IEM_DS3505
ZBAA,1992-02-10 07:00,ZBAA 100700Z AUTO 19004KT 7SM 04/M20 A3018 RMK SLP276 T00401200 IEM_DS3505
ZBAA,1992-02-10 08:00,ZBAA 100800Z AUTO 15004KT 7SM 04/M20 A3015 RMK SLP266 T00401200 IEM_DS3505
ZBAA,1992-02-10 09:00,ZBAA 100900Z AUTO 20008KT 12SM 03/M20 A3015 RMK SLP269 T00281197 57009 IEM_DS3505
ZBAA,1992-02-10 10:00,ZBAA 101000Z AUTO 15006KT 6SM 01/M19 A3015 RMK SLP267 T00101190 IEM_DS3505
ZBAA,1992-02-10 11:00,ZBAA 101100Z AUTO 16006KT 7SM 01/M18 A3015 RMK SLP267 T00101180 IEM_DS3505
ZBAA,1992-02-10 12:00,ZBAA 101200Z AUTO 18006KT 12SM 00/M12 A3018 RMK SLP270 T00011123 52001 IEM_DS3505
ZBAA,1992-02-10 13:00,ZBAA 101300Z AUTO 17012KT 6SM M02/M12 A3018 RMK SLP278 T10201120 IEM_DS3505
ZBAA,1992-02-10 14:00,ZBAA 101400Z AUTO 19006KT 6SM M03/M12 A3018 RMK SLP278 T10301120 IEM_DS3505
ZBAA,1992-02-10 15:00,ZBAA 101500Z AUTO 18006KT 12SM M02/M11 A3016 RMK SLP272 T10251110 52002 IEM_DS3505
ZBAA,1992-02-10 18:00,ZBAA 101800Z AUTO 22004KT 12SM M03/M11 A3012 RMK SLP255 T10321110 40045//// 57017 IEM_DS3505
ZBAA,1992-02-10 20:00,ZBAA 102000Z AUTO 12004KT 7SM M07/M11 A3009 RMK SLP248 T10701110 IEM_DS3505
ZBAA,1992-02-10 21:00,ZBAA 102100Z AUTO 20002KT 9SM M05/M10 A3006 RMK SLP238 T10481102 57017 IEM_DS3505
ZBAA,1992-02-10 22:00,ZBAA 102200Z AUTO 00000KT 7SM M08/M11 A3006 RMK SLP238 T10801110 IEM_DS3505
ZBAA,1992-02-10 23:00,ZBAA 102300Z AUTO 00000KT 6SM M08/M11 A3003 RMK SLP228 T10801110 IEM_DS3505
ZBAA,1992-02-11 00:00,ZBAA 110000Z AUTO 04002KT 5SM M05/M11 A3003 RMK SLP232 T10531114 57006 IEM_DS3505
ZBAA,1992-02-11 01:00,ZBAA 110100Z AUTO 00000KT 6SM M06/M10 A3003 RMK SLP227 T10601100 IEM_DS3505
ZBAA,1992-02-11 02:00,ZBAA 110200Z AUTO 00000KT 6SM M05/M10 A3003 RMK SLP227 T10501100 IEM_DS3505
ZBAA,1992-02-11 03:00,ZBAA 110300Z AUTO 09002KT 4SM M02/M11 A3000 RMK SLP220 T10171110 57012 IEM_DS3505
ZBAA,1992-02-11 04:00,ZBAA 110400Z AUTO 04002KT 7SM M01/M09 A2997 RMK SLP206 T10101090 IEM_DS3505
ZBAA,1992-02-11 05:00,ZBAA 110500Z AUTO 11002KT 7SM 00/M09 A2994 RMK SLP196 T00001090 IEM_DS3505
ZBAA,1992-02-11 06:00,ZBAA 110600Z AUTO 04002KT 4SM 02/M08 A2991 RMK SLP185 T00151083 4////1064 57035 IEM_DS3505
ZBAA,1992-02-11 07:00,ZBAA 110700Z AUTO 00000KT 7SM 02/M11 A2988 RMK SLP174 T00201110 IEM_DS3505
ZBAA,1992-02-11 08:00,ZBAA 110800Z AUTO 00000KT 7SM 02/M11 A2988 RMK SLP174 T00201110 IEM_DS3505
ZBAA,1992-02-11 09:00,ZBAA 110900Z AUTO 20006KT 3SM 03/M09 A2988 RMK SLP177 T00271092 57008 IEM_DS3505
ZBAA,1992-02-11 10:00,ZBAA 111000Z AUTO 02004KT 7SM 00/M11 A2991 RMK SLP184 T00001110 IEM_DS3505
ZBAA,1992-02-11 11:00,ZBAA 111100Z AUTO 36004KT 7SM M01/M11 A2991 RMK SLP185 T10101110 IEM_DS3505
ZBAA,1992-02-11 12:00,ZBAA 111200Z AUTO 36002KT 3SM 00/M10 A2997 RMK SLP204 T00021103 52027 IEM_DS3505
ZBAA,1992-02-11 13:00,ZBAA 111300Z AUTO 31004KT 7SM M01/M11 A2997 RMK SLP206 T10101110 IEM_DS3505
ZBAA,1992-02-11 15:00,ZBAA 111500Z AUTO 36010KT 4SM 00/M17 A3001 RMK SLP220 T00021173 52016 IEM_DS3505
ZBAA,1992-02-11 18:00,ZBAA 111800Z AUTO 36006KT 9SM M02/M20 A3005 RMK SLP234 T10221196 40035//// 52014 IEM_DS3505
ZBAA,1992-02-11 19:00,ZBAA 111900Z AUTO 35006KT 7SM M05/M17 A3006 RMK SLP237 T10501170 IEM_DS3505
ZBAA,1992-02-11 20:00,ZBAA 112000Z AUTO 35008KT 7SM M05/M17 A3006 RMK SLP237 T10501170 IEM_DS3505
ZBAA,1992-02-11 21:00,ZBAA 112100Z AUTO 36006KT 12SM M03/M20 A3006 RMK SLP234 T10331198 54000 IEM_DS3505
ZBAA,1992-02-11 22:00,ZBAA 112200Z AUTO 34010KT 7SM M05/M17 A3006 RMK SLP237 T10501170 IEM_DS3505
ZBAA,1992-02-11 23:00,ZBAA 112300Z AUTO 01006KT 7SM M07/M17 A3009 RMK SLP248 T10701170 IEM_DS3505
ZBAA,1992-02-12 00:00,ZBAA 120000Z AUTO 04008KT 16SM M04/M19 A3012 RMK SLP250 T10411190 52016 IEM_DS3505
ZBAA,1992-02-12 01:00,ZBAA 120100Z AUTO 02008KT 7SM M04/M16 RMK T10401160 IEM_DS3505
ZBAA,1992-02-12 02:00,ZBAA 120200Z AUTO 02008KT 7SM M03/M17 A3015 RMK SLP268 T10301170 IEM_DS3505
ZBAA,1992-02-12 03:00,ZBAA 120300Z AUTO 36012KT 12SM M00/M21 A3015 RMK SLP257 T10041208 52007 IEM_DS3505
ZBAA,1992-02-12 04:00,ZBAA 120400Z AUTO 34010KT 7SM 01/M18 A3012 RMK SLP257 T00101180 IEM_DS3505
ZBAA,1992-02-12 05:00,ZBAA 120500Z AUTO 30008KT 7SM 02/M18 A3006 RMK SLP235 T00201180 IEM_DS3505
ZBAA,1992-02-12 06:00,ZBAA 120600Z AUTO 36008KT 12SM 02/M21 A3003 RMK SLP233 T00221208 4////1047 57024 IEM_DS3505
ZBAA,1992-02-12 07:00,ZBAA 120700Z AUTO 31010KT 7SM 03/M18 A3003 RMK SLP225 T00301180 IEM_DS3505
ZBAA,1992-02-12 08:00,ZBAA 120800Z AUTO 27014KT 7SM 03/M18 A3000 RMK SLP215 T00301180 IEM_DS3505
ZBAA,1992-02-12 09:00,ZBAA 120900Z AUTO 34008KT 12SM 02/M22 A3000 RMK SLP220 T00251220 57013 IEM_DS3505
ZBAA,1992-02-12 10:00,ZBAA 121000Z AUTO 28008KT 7SM 01/M18 A3003 RMK SLP226 T00101180 IEM_DS3505
ZBAA,1992-02-12 11:00,ZBAA 121100Z AUTO 29010KT 7SM 00/M18 A3003 RMK SLP226 T00001180 IEM_DS3505
ZBAA,1992-02-12 12:00,ZBAA 121200Z AUTO 36002KT 12SM M02/M18 A3006 RMK SLP238 T10201185 52017 IEM_DS3505
ZBAA,1992-02-12 13:00,ZBAA 121300Z AUTO 34008KT 7SM M01/M17 A3006 RMK SLP236 T10101170 IEM_DS3505
ZBAA,1992-02-12 14:00,ZBAA 121400Z AUTO 34006KT 7SM M02/M17 A3006 RMK SLP236 T10201170 IEM_DS3505
ZBAA,1992-02-12 15:00,ZBAA 121500Z AUTO 20002KT 9SM M03/M15 A3006 RMK SLP238 T10261147 52001 IEM_DS3505
ZBAA,1992-02-12 18:00,ZBAA 121800Z AUTO 22002KT 7SM M05/M12 A3005 RMK SLP233 T10501121 40035//// 57005 IEM_DS3505
ZBAA,1992-02-12 20:00,ZBAA 122000Z AUTO 00000KT 7SM M07/M17 A3000 RMK SLP218 T10701170 IEM_DS3505
ZBAA,1992-02-12 21:00,ZBAA 122100Z AUTO 34002KT 7SM M07/M14 A3000 RMK SLP220 T10671135 57013 IEM_DS3505
ZBAA,1992-02-12 22:00,ZBAA 122200Z AUTO 00000KT 7SM M07/M17 A3000 RMK SLP218 T10701170 IEM_DS3505
ZBAA,1992-02-12 23:00,ZBAA 122300Z AUTO 00000KT 7SM M07/M16 A3000 RMK SLP218 T10701160 IEM_DS3505
ZBAA,1992-02-13 00:00,ZBAA 130000Z AUTO 25002KT 6SM M06/M14 A3003 RMK SLP224 T10621140 52003 IEM_DS3505
ZBAA,1992-02-13 01:00,ZBAA 130100Z AUTO 35004KT 7SM M04/M15 A3003 RMK SLP227 T10401150 IEM_DS3505
ZBAA,1992-02-13 02:00,ZBAA 130200Z AUTO 01002KT 7SM M01/M14 A3000 RMK SLP216 T10101140 IEM_DS3505
ZBAA,1992-02-13 03:00,ZBAA 130300Z AUTO 25002KT 2 1/2SM 03/M15 A3000 RMK SLP219 T00341148 57004 IEM_DS3505
ZBAA,1992-02-13 04:00,ZBAA 130400Z AUTO 24006KT 7SM 05/M16 A3009 RMK SLP245 T00501160 IEM_DS3505
ZBAA,1992-02-13 05:00,ZBAA 130500Z AUTO 23010KT 7SM 06/M17 A2994 RMK SLP194 T00601170 IEM_DS3505
ZBAA,1992-02-13 06:00,ZBAA 130600Z AUTO 20006KT 7SM 06/M20 A2992 RMK SLP188 T00641204 4////1073 57030 IEM_DS3505
ZBAA,1992-02-13 07:00,ZBAA 130700Z AUTO 23008KT 7SM 06/M17 A2988 RMK SLP173 T00601170 IEM_DS3505
ZBAA,1992-02-13 08:00,ZBAA 130800Z AUTO 24006KT 7SM 06/M17 A2988 RMK SLP173 T00601170 IEM_DS3505
ZBAA,1992-02-13 09:00,ZBAA 130900Z AUTO 20006KT 7SM 05/M20 A2985 RMK SLP174 T00541198 57015 IEM_DS3505
ZBAA,1992-02-13 10:00,ZBAA 131000Z AUTO 20006KT 7SM 03/M18 RMK T00301180 IEM_DS3505
ZBAA,1992-02-13 11:00,ZBAA 131100Z AUTO 21008KT 7SM 02/M18 A2988 RMK SLP174 T00201180 IEM_DS3505
ZBAA,1992-02-13 12:00,ZBAA 131200Z AUTO 22004KT 9SM 02/M17 A2988 RMK SLP178 T00231173 52004 IEM_DS3505
ZBAA,1992-02-13 13:00,ZBAA 131300Z AUTO 20006KT 7SM 00/M17 A2988 RMK SLP174 T00001170 IEM_DS3505
ZBAA,1992-02-13 15:00,ZBAA 131500Z AUTO 22004KT 9SM 01/M16 A2988 RMK SLP173 T00141163 57004 IEM_DS3505
ZBAA,1992-02-13 18:00,ZBAA 131800Z AUTO 27002KT 6SM M02/M14 A2986 RMK SLP169 T10241144 40069//// 57004 IEM_DS3505
ZBAA,1992-02-13 20:00,ZBAA 132000Z AUTO 34004KT 7SM M06/M16 A2983 RMK SLP159 T10601160 IEM_DS3505
ZBAA,1992-02-13 21:00,ZBAA 132100Z AUTO 09002KT 6SM M04/M13 A2983 RMK SLP158 T10441134 57011 IEM_DS3505
ZBAA,1992-02-13 23:00,ZBAA 132300Z AUTO 28010KT 7SM M03/M17 A2983 RMK SLP158 T10301170 IEM_DS3505
ZBAA,1992-02-14 00:00,ZBAA 140000Z AUTO 00000KT 2SM M05/M14 A2985 RMK SLP165 T10511140 52006 IEM_DS3505
ZBAA,1992-02-14 01:00,ZBAA 140100Z AUTO 32006KT 7SM 01/M17 A2985 RMK SLP164 T00101170 IEM_DS3505
ZBAA,1992-02-14 02:00,ZBAA 140200Z AUTO 32006KT 7SM 05/M17 RMK T00501170 IEM_DS3505
ZBAA,1992-02-14 03:00,ZBAA 140300Z AUTO 34006KT 19SM 08/M21 A2983 RMK SLP161 T00771206 57002 IEM_DS3505
ZBAA,1992-02-14 04:00,ZBAA 140400Z AUTO 30017KT 7SM 07/M17 A2983 RMK SLP156 T00701170 IEM_DS3505
ZBAA,1992-02-14 06:00,ZBAA 140600Z AUTO 29008KT 19SM 09/M23 A2977 RMK SLP142 T00901234 4////1057 57019 IEM_DS3505
ZBAA,1992-02-14 07:00,ZBAA 140700Z AUTO 29019KT 7SM 08/M16 A2977 RMK SLP135 T00801160 IEM_DS3505
ZBAA,1992-02-14 08:00,ZBAA 140800Z AUTO 29019KT 7SM 09/M15 A2974 RMK SLP125 T00901150 IEM_DS3505
ZBAA,1992-02-14 09:00,ZBAA 140900Z AUTO 29012KT 16SM 09/M19 A2974 RMK SLP138 T00891187 57005 IEM_DS3505
ZBAA,1992-02-14 10:00,ZBAA 141000Z AUTO 27008KT 7SM 06/M16 A2985 RMK SLP163 T00601160 IEM_DS3505
ZBAA,1992-02-14 11:00,ZBAA 141100Z AUTO 28004KT 7SM 05/M15 A2974 RMK SLP126 T00501150 IEM_DS3505
ZBAA,1992-02-14 12:00,ZBAA 141200Z AUTO 20004KT 9SM 06/M14 A2974 RMK SLP138 T00641138 54000 IEM_DS3505
ZBAA,1992-02-14 13:00,ZBAA 141300Z AUTO 29008KT 7SM 07/M13 A2974 RMK SLP125 T00701130 IEM_DS3505
ZBAA,1992-02-14 14:00,ZBAA 141400Z AUTO 29010KT 7SM 07/M14 A2977 RMK SLP135 T00701140 IEM_DS3505
ZBAA,1992-02-14 15:00,ZBAA 141500Z AUTO 32014KT 9SM 08/M20 A2977 RMK SLP143 T00771205 52007 IEM_DS3505
ZBAA,1992-02-14 18:00,ZBAA 141800Z AUTO 34008KT 12SM 06/M14 A2983 RMK SLP154 T00561145 40097//// 52011 IEM_DS3505
ZBAA,1992-02-14 20:00,ZBAA 142000Z AUTO 29006KT 7SM 02/M13 A2983 RMK SLP157 T00201130 IEM_DS3505
ZBAA,1992-02-14 21:00,ZBAA 142100Z AUTO 34006KT 12SM 04/M15 A2983 RMK SLP161 T00421152 52006 IEM_DS3505
ZBAA,1992-02-14 22:00,ZBAA 142200Z AUTO 35012KT 7SM 02/M13 A2985 RMK SLP164 T00201130 IEM_DS3505
ZBAA,1992-02-14 23:00,ZBAA 142300Z AUTO 33019KT 7SM 02/M16 A3003 RMK T00201160 IEM_DS3505
ZBAA,1992-02-15 00:00,ZBAA 150000Z AUTO 36006KT 19SM 02/M15 A2994 RMK SLP196 T00181153 52035 IEM_DS3505
ZBAA,1992-02-15 01:00,ZBAA 150100Z AUTO 33023KT 7SM 02/M18 A2997 RMK SLP205 T00201180 IEM_DS3505
ZBAA,1992-02-15 02:00,ZBAA 150200Z AUTO 33019KT 7SM 02/M17 A3000 RMK SLP215 T00201170 IEM_DS3505
ZBAA,1992-02-15 03:00,ZBAA 150300Z AUTO 36014KT 19SM 04/M22 A3003 RMK SLP220 T00351217 52024 IEM_DS3505
ZBAA,1992-02-15 04:00,ZBAA 150400Z AUTO 30017KT 7SM 03/M18 A3003 RMK SLP225 T00301180 IEM_DS3505
ZBAA,1992-02-15 05:00,ZBAA 150500Z AUTO 32017KT 7SM 04/M18 A3000 RMK SLP215 T00401180 IEM_DS3505
ZBAA,1992-02-15 06:00,ZBAA 150600Z AUTO 34012KT 19SM 05/M14 A2997 RMK SLP213 T00491135 4////0015 57007 IEM_DS3505
ZBAA,1992-02-15 07:00,ZBAA 150700Z AUTO 34017KT 7SM 05/M19 A2997 RMK SLP204 T00501190 IEM_DS3505
ZBAA,1992-02-15 08:00,ZBAA 150800Z AUTO 35021KT 7SM 04/M20 A3000 RMK SLP215 T00401200 IEM_DS3505
ZBAA,1992-02-15 09:00,ZBAA 150900Z AUTO 36006KT 19SM 04/ A3000 RMK SLP218 52004 IEM_DS3505
ZBAA,1992-02-15 10:00,ZBAA 151000Z AUTO 34017KT 7SM 02/M20 A3003 RMK SLP225 T00201200 IEM_DS3505
ZBAA,1992-02-15 11:00,ZBAA 151100Z AUTO 01008KT 7SM 01/M19 A3006 RMK SLP236 T00101190 IEM_DS3505
ZBAA,1992-02-15 12:00,ZBAA 151200Z AUTO 36008KT 19SM 00/M19 A3009 RMK SLP248 T00021193 52029 IEM_DS3505
ZBAA,1992-02-15 13:00,ZBAA 151300Z AUTO 36012KT 7SM M01/M19 A3012 RMK SLP257 T10101190 IEM_DS3505
ZBAA,1992-02-15 14:00,ZBAA 151400Z AUTO 36010KT 7SM M02/M19 A3015 RMK SLP268 T10201190 IEM_DS3505
ZBAA,1992-02-15 15:00,ZBAA 151500Z AUTO 25002KT 16SM M03/M20 A3015 RMK SLP265 T10281196 52017 IEM_DS3505
ZBAA,1992-02-15 18:00,ZBAA 151800Z AUTO 00000KT 16SM M04/M17 A3015 RMK SLP268 T10441171 40057//// 52003 IEM_DS3505
ZBAA,1992-02-15 20:00,ZBAA 152000Z AUTO 22004KT 12SM M05/M19 A3015 RMK SLP268 T10481188 57002 IEM_DS3505
ZBAA,1992-02-15 21:00,ZBAA 152100Z AUTO 22004KT 12SM M05/M18 A3015 RMK SLP266 T10481180 57002 IEM_DS3505
ZBAA,1992-02-15 22:00,ZBAA 152200Z AUTO 02006KT 7SM M07/M19 A3015 RMK SLP269 T10701190 IEM_DS3505
ZBAA,1992-02-15 23:00,ZBAA 152300Z AUTO 23004KT 7SM M08/M18 A3018 RMK SLP279 T10801180 IEM_DS3505
ZBAA,1992-02-16 00:00,ZBAA 160000Z AUTO 18002KT 10SM M05/M16 A3018 RMK SLP274 T10531159 52007 IEM_DS3505
ZBAA,1992-02-16 01:00,ZBAA 160100Z AUTO 35002KT 7SM M04/M18 A3021 RMK SLP288 T10401180 IEM_DS3505
ZBAA,1992-02-16 02:00,ZBAA 160200Z AUTO 02002KT 7SM M02/M18 A3018 RMK SLP278 T10201180 IEM_DS3505
ZBAA,1992-02-16 03:00,ZBAA 160300Z AUTO 18004KT 12SM 00/M15 A3015 RMK SLP268 T00011154 57005 IEM_DS3505
ZBAA,1992-02-16 04:00,ZBAA 160400Z AUTO 20004KT 6SM 02/M17 A3012 RMK SLP256 T00201170 IEM_DS3505
ZBAA,1992-02-16 05:00,ZBAA 160500Z AUTO 23008KT 6SM 03/M17 A3006 RMK SLP235 T00301170 IEM_DS3505
ZBAA,1992-02-16 06:00,ZBAA 160600Z AUTO 20010KT 16SM 04/M20 A3003 RMK SLP229 T00391202 4////1070 57039 IEM_DS3505
ZBAA,1992-02-16 07:00,ZBAA 160700Z AUTO 22008KT 6SM 04/M17 A3000 RMK SLP215 T00401170 IEM_DS3505
ZBAA,1992-02-16 08:00,ZBAA 160800Z AUTO 20010KT 6SM 04/M17 A3000 RMK SLP215 T00401170 IEM_DS3505
ZBAA,1992-02-16 09:00,ZBAA 160900Z AUTO 20006KT 12SM 03/M20 A2997 RMK SLP211 T00331201 57018 IEM_DS3505
ZBAA,1992-02-16 10:00,ZBAA 161000Z AUTO 16006KT 6SM 02/M17 A2997 RMK SLP205 T00201170 IEM_DS3505
ZBAA,1992-02-16 11:00,ZBAA 161100Z AUTO 15006KT 6SM 01/M17 A2997 RMK SLP205 T00101170 IEM_DS3505
ZBAA,1992-02-16 12:00,ZBAA 161200Z AUTO 20008KT 9SM 01/M26 A2997 RMK SLP209 T00121255 57002 IEM_DS3505
ZBAA,1992-02-16 14:00,ZBAA 161400Z AUTO 11006KT 6SM M02/M16 A2997 RMK SLP206 T10201160 IEM_DS3505
ZBAA,1992-02-16 15:00,ZBAA 161500Z AUTO 20004KT 7SM 00/M16 A2996 RMK SLP202 T00021164 57007 IEM_DS3505
ZBAA,1992-02-16 18:00,ZBAA 161800Z AUTO 00000KT 7SM M01/M13 A2994 RMK SLP194 T10131126 40041//// 57007 IEM_DS3505
ZBAA,1992-02-16 20:00,ZBAA 162000Z AUTO 04002KT 6SM M04/M15 A2985 RMK SLP165 T10401150 IEM_DS3505
ZBAA,1992-02-16 21:00,ZBAA 162100Z AUTO 04004KT 7SM M02/M15 A2985 RMK SLP168 T10251151 57026 IEM_DS3505
ZBAA,1992-02-16 23:00,ZBAA 162300Z AUTO 05002KT 6SM M04/M14 A2985 RMK SLP165 T10401140 IEM_DS3505
ZBAA,1992-02-17 00:00,ZBAA 170000Z AUTO 02004KT 4SM M02/M15 A2985 RMK SLP165 T10221152 57003 IEM_DS3505
ZBAA,1992-02-17 01:00,ZBAA 170100Z AUTO 04002KT 6SM M02/M13 A2985 RMK SLP165 T10201130 IEM_DS3505
ZBAA,1992-02-17 02:00,ZBAA 170200Z AUTO 05002KT 6SM M01/M13 A2985 RMK SLP165 T10101130 IEM_DS3505
ZBAA,1992-02-17 03:00,ZBAA 170300Z AUTO 04004KT 5SM 02/M15 A2985 RMK SLP167 T00161150 52002 IEM_DS3505
ZBAA,1992-02-17 04:00,ZBAA 170400Z AUTO 06004KT 6SM 03/M14 A2997 RMK T00301140 IEM_DS3505
ZBAA,1992-02-17 06:00,ZBAA 170600Z AUTO 36006KT 5SM 07/M14 A2982 RMK SLP155 T00701144 4////1033 57012 IEM_DS3505
ZBAA,1992-02-17 07:00,ZBAA 170700Z AUTO 31008KT 6SM 08/M13 A2980 RMK SLP145 T00801130 IEM_DS3505
ZBAA,1992-02-17 08:00,ZBAA 170800Z AUTO 03008KT 6SM 08/M13 A2980 RMK SLP145 T00801130 IEM_DS3505
ZBAA,1992-02-17 09:00,ZBAA 170900Z AUTO 34008KT 11SM 08/M14 A2983 RMK SLP160 T00841141 52005 IEM_DS3505
ZBAA,1992-02-17 10:00,ZBAA 171000Z AUTO 30010KT 6SM 06/M13 A2985 RMK SLP163 T00601130 IEM_DS3505
ZBAA,1992-02-17 11:00,ZBAA 171100Z AUTO 33016KT 6SM 04/M14 A2991 RMK SLP183 T00401140 IEM_DS3505
ZBAA,1992-02-17 12:00,ZBAA 171200Z AUTO 36008KT 16SM 04/M15 A2994 RMK SLP206 T00421146 52046 IEM_DS3505
ZBAA,1992-02-17 13:00,ZBAA 171300Z AUTO 33010KT 6SM 03/M16 A2997 RMK SLP205 T00301160 IEM_DS3505
ZBAA,1992-02-17 14:00,ZBAA 171400Z AUTO 34014KT 6SM 02/M15 A3003 RMK SLP225 T00201150 IEM_DS3505
ZBAA,1992-02-17 15:00,ZBAA 171500Z AUTO 36012KT 19SM 02/M17 A3006 RMK SLP237 T00181171 52031 IEM_DS3505
ZBAA,1992-02-17 16:00,ZBAA 171600Z AUTO 36010KT 6SM 00/M15 A3009 RMK SLP246 T00001150 IEM_DS3505
ZBAA,1992-02-17 18:00,ZBAA 171800Z AUTO 36010KT 19SM M01/M19 A3013 RMK SLP260 T10071186 40099//// 52023 IEM_DS3505
ZBAA,1992-02-17 20:00,ZBAA 172000Z AUTO 36016KT 6SM M04/M16 A3018 RMK SLP278 T10401160 IEM_DS3505
ZBAA,1992-02-17 21:00,ZBAA 172100Z AUTO 02010KT 19SM M02/M18 A3017 RMK SLP273 T10231181 52013 IEM_DS3505
ZBAA,1992-02-17 22:00,ZBAA 172200Z AUTO 36010KT 6SM M05/M17 A3021 RMK SLP289 T10501170 IEM_DS3505
ZBAA,1992-02-18 00:00,ZBAA 180000Z AUTO 02006KT 19SM M03/M19 A3027 RMK SLP300 T10331189 52026 IEM_DS3505
ZBAA,1992-02-18 01:00,ZBAA 180100Z AUTO 02008KT 6SM M03/M17 A3030 RMK SLP318 T10301170 IEM_DS3505
ZBAA,1992-02-18 03:00,ZBAA 180300Z AUTO 04008KT 16SM 00/M19 A3030 RMK SLP307 T00031191 52007 IEM_DS3505
ZBAA,1992-02-18 04:00,ZBAA 180400Z AUTO 22006KT 19SM 01/M18 A3030 RMK SLP317 T00101180 57012 IEM_DS3505
ZBAA,1992-02-18 05:00,ZBAA 180500Z AUTO 35008KT 6SM 01/M18 A3027 RMK SLP307 T00101180 IEM_DS3505
ZBAA,1992-02-18 06:00,ZBAA 180600Z AUTO 02006KT 16SM 03/M24 A3024 RMK SLP288 T00341236 4////1043 57019 IEM_DS3505
ZBAA,1992-02-18 07:00,ZBAA 180700Z AUTO 02008KT 7SM 03/M19 A3021 RMK SLP286 T00301190 IEM_DS3505
ZBAA,1992-02-18 08:00,ZBAA 180800Z AUTO 06006KT 7SM 03/M19 A3021 RMK SLP286 T00301190 IEM_DS3505
ZBAA,1992-02-18 09:00,ZBAA 180900Z AUTO 22006KT 19SM 05/M24 A3021 RMK SLP276 T00461239 57012 IEM_DS3505
ZBAA,1992-02-18 10:00,ZBAA 181000Z AUTO 07004KT 7SM 01/M20 A3021 RMK SLP287 T00101200 IEM_DS3505
ZBAA,1992-02-18 11:00,ZBAA 181100Z AUTO 00000KT 7SM 00/M20 A3024 RMK SLP297 T00001200 IEM_DS3505
ZBAA,1992-02-18 12:00,ZBAA 181200Z AUTO 34002KT 12SM 01/M15 A3027 RMK SLP296 T00071151 52019 IEM_DS3505
ZBAA,1992-02-18 13:00,ZBAA 181300Z AUTO 02004KT 7SM M02/M19 A3027 RMK SLP308 T10201190 IEM_DS3505
ZBAA,1992-02-18 14:00,ZBAA 181400Z AUTO 04006KT 7SM M02/M20 A3030 RMK SLP318 T10201200 IEM_DS3505
ZBAA,1992-02-18 15:00,ZBAA 181500Z AUTO 07004KT 11SM M00/M21 A3030 RMK SLP311 T10031206 52016 IEM_DS3505
ZBAA,1992-02-18 18:00,ZBAA 181800Z AUTO 34002KT 12SM M02/M18 A3028 RMK SLP310 T10201184 40048//// 57001 IEM_DS3505
ZBAA,1992-02-18 20:00,ZBAA 182000Z AUTO 33006KT 7SM M04/M19 A3027 RMK SLP308 T10401190 IEM_DS3505
ZBAA,1992-02-18 21:00,ZBAA 182100Z AUTO 07002KT 11SM M03/M18 A3027 RMK SLP304 T10341182 57006 IEM_DS3505
ZBAA,1992-02-18 22:00,ZBAA 182200Z AUTO 34006KT 7SM M08/M19 A3027 RMK SLP309 T10801190 IEM_DS3505
ZBAA,1992-02-18 23:00,ZBAA 182300Z AUTO 34004KT 7SM M07/M19 A3027 RMK SLP309 T10701190 IEM_DS3505
ZBAA,1992-02-19 00:00,ZBAA 190000Z AUTO 04002KT 9SM M03/M19 A3027 RMK SLP304 T10321187 57001 IEM_DS3505
ZBAA,1992-02-19 01:00,ZBAA 190100Z AUTO 36004KT 7SM M03/M17 A3027 RMK SLP308 T10301170 IEM_DS3505
ZBAA,1992-02-19 02:00,ZBAA 190200Z AUTO 36006KT 7SM 00/M17 A3027 RMK SLP307 T00001170 IEM_DS3505
ZBAA,1992-02-19 03:00,ZBAA 190300Z AUTO 00000KT 6SM 02/M18 A3027 RMK SLP292 T00161178 57011 IEM_DS3505
ZBAA,1992-02-19 04:00,ZBAA 190400Z AUTO 31006KT 7SM 03/M18 A3024 RMK SLP297 T00301180 IEM_DS3505
ZBAA,1992-02-19 05:00,ZBAA 190500Z AUTO 28006KT 7SM 05/M17 A3018 RMK SLP276 T00501170 IEM_DS3505
ZBAA,1992-02-19 06:00,ZBAA 190600Z AUTO 04002KT 11SM 05/M17 A3015 RMK SLP267 T00521168 4////1048 57025 IEM_DS3505
ZBAA,1992-02-19 07:00,ZBAA 190700Z AUTO 29012KT 7SM 06/M18 A3012 RMK SLP255 T00601180 IEM_DS3505
ZBAA,1992-02-19 08:00,ZBAA 190800Z AUTO 28012KT 7SM 06/M18 A3012 RMK SLP255 T00601180 IEM_DS3505
ZBAA,1992-02-19 09:00,ZBAA 190900Z AUTO 29010KT 17SM 06/M23 A3012 RMK SLP260 T00561232 57007 IEM_DS3505
ZBAA,1992-02-19 10:00,ZBAA 191000Z AUTO 27012KT 7SM 04/M19 A3012 RMK SLP256 T00401190 IEM_DS3505
ZBAA,1992-02-19 11:00,ZBAA 191100Z AUTO 29006KT 7SM 02/M19 A3015 RMK SLP267 T00201190 IEM_DS3505
ZBAA,1992-02-19 12:00,ZBAA 191200Z AUTO 34002KT 11SM 01/M17 A3015 RMK SLP268 T00081173 52008 IEM_DS3505
ZBAA,1992-02-19 13:00,ZBAA 191300Z AUTO 32002KT 7SM 01/M19 A3018 RMK SLP277 T00101190 IEM_DS3505
ZBAA,1992-02-19 15:00,ZBAA 191500Z AUTO 25002KT 9SM M03/M12 A3018 RMK SLP272 T10261117 52004 IEM_DS3505
ZBAA,1992-02-19 18:00,ZBAA 191800Z AUTO 25002KT 9SM M03/M12 A3015 RMK SLP265 T10341123 40069//// 57007 IEM_DS3505
ZBAA,1992-02-19 20:00,ZBAA 192000Z AUTO 30002KT 7SM M05/M18 A3015 RMK SLP268 T10501180 IEM_DS3505
ZBAA,1992-02-19 21:00,ZBAA 192100Z AUTO 36004KT 9SM M01/M11 A3015 RMK SLP263 T10111106 57001 IEM_DS3505
ZBAA,1992-02-19 22:00,ZBAA 192200Z AUTO 32008KT 7SM M02/M16 A3015 RMK SLP268 T10201160 IEM_DS3505
ZBAA,1992-02-19 23:00,ZBAA 192300Z AUTO 33008KT 7SM M04/M17 A3015 RMK SLP268 T10401170 IEM_DS3505
ZBAA,1992-02-20 00:00,ZBAA 200000Z AUTO 02006KT 11SM M01/M16 A3021 RMK SLP279 T10121156 52015 IEM_DS3505
ZBAA,1992-02-20 01:00,ZBAA 200100Z AUTO 02006KT 7SM M01/M15 A3021 RMK SLP287 T10101150 IEM_DS3505
ZBAA,1992-02-20 02:00,ZBAA 200200Z AUTO 02006KT 7SM 01/M15 A3024 RMK SLP297 T00101150 IEM_DS3505
ZBAA,1992-02-20 03:00,ZBAA 200300Z AUTO 36008KT 16SM 04/M17 A3021 RMK SLP283 T00391168 52004 IEM_DS3505
ZBAA,1992-02-20 04:00,ZBAA 200400Z AUTO 04006KT 7SM 04/M15 A3021 RMK SLP286 T00401150 IEM_DS3505
ZBAA,1992-02-20 05:00,ZBAA 200500Z AUTO 32002KT 7SM 04/M15 A3018 RMK SLP276 T00401150 IEM_DS3505
ZBAA,1992-02-20 06:00,ZBAA 200600Z AUTO 36008KT 19SM 06/M21 A3015 RMK SLP266 T00641208 4////1043 57017 IEM_DS3505
ZBAA,1992-02-20 07:00,ZBAA 200700Z AUTO 36004KT 7SM 06/M16 A3012 RMK SLP255 T00601160 IEM_DS3505
ZBAA,1992-02-20 08:00,ZBAA 200800Z AUTO 26008KT 7SM 06/M16 A3012 RMK SLP255 T00601160 IEM_DS3505
ZBAA,1992-02-20 09:00,ZBAA 200900Z AUTO 32008KT 19SM 06/M20 A3012 RMK SLP261 T00601201 57004 IEM_DS3505
ZBAA,1992-02-20 10:00,ZBAA 201000Z AUTO 28004KT 7SM 04/M16 A3015 RMK SLP266 T00401160 IEM_DS3505
ZBAA,1992-02-20 11:00,ZBAA 201100Z AUTO 31006KT 7SM 03/M16 A3018 RMK SLP276 T00301160 IEM_DS3505
ZBAA,1992-02-20 12:00,ZBAA 201200Z AUTO 02004KT 19SM 04/M16 A3018 RMK SLP274 T00361156 52012 IEM_DS3505
ZBAA,1992-02-20 13:00,ZBAA 201300Z AUTO 30002KT 7SM 01/M16 A3021 RMK SLP287 T00101160 IEM_DS3505
ZBAA,1992-02-20 14:00,ZBAA 201400Z AUTO 00000KT 7SM 00/M16 A3021 RMK SLP287 T00001160 IEM_DS3505
ZBAA,1992-02-20 15:00,ZBAA 201500Z AUTO 00000KT 19SM M01/M11 A3021 RMK SLP284 T10141109 52010 IEM_DS3505
ZBAA,1992-02-20 18:00,ZBAA 201800Z AUTO 00000KT 6SM M03/M12 A3021 RMK SLP287 T10291115 40071//// 52003 IEM_DS3505
ZBAA,1992-02-20 20:00,ZBAA 202000Z AUTO 00000KT 7SM M05/M15 A3021 RMK SLP289 T10501150 IEM_DS3505
ZBAA,1992-02-20 21:00,ZBAA 202100Z AUTO 02002KT 6SM M05/M11 A3021 RMK SLP284 T10471111 57003 IEM_DS3505
ZBAA,1992-02-20 22:00,ZBAA 202200Z AUTO 34002KT 7SM M05/M14 A3021 RMK SLP289 T10501140 IEM_DS3505
ZBAA,1992-02-20 23:00,ZBAA 202300Z AUTO 32004KT 7SM M05/M14 A3024 RMK SLP299 T10501140 IEM_DS3505
ZBAA,1992-02-21 00:00,ZBAA 210000Z AUTO 00000KT 4SM M04/M11 A3024 RMK SLP291 T10401113 52007 IEM_DS3505
ZBAA,1992-02-21 01:00,ZBAA 210100Z AUTO 35006KT 7SM M02/M13 A3024 RMK SLP298 T10201130 IEM_DS3505
ZBAA,1992-02-21 02:00,ZBAA 210200Z AUTO 01006KT 7SM 01/M13 A3024 RMK SLP297 T00101130 IEM_DS3505
ZBAA,1992-02-21 03:00,ZBAA 210300Z AUTO 07004KT 5SM 04/M16 A3024 RMK SLP289 T00421164 57002 IEM_DS3505
ZBAA,1992-02-21 04:00,ZBAA 210400Z AUTO 20002KT 7SM 06/M14 A3030 RMK SLP316 T00601140 IEM_DS3505
ZBAA,1992-02-21 05:00,ZBAA 210500Z AUTO 19004KT 7SM 07/M14 A3015 RMK SLP265 T00701140 IEM_DS3505
ZBAA,1992-02-21 06:00,ZBAA 210600Z AUTO 18004KT 9SM 07/M18 A3012 RMK SLP256 T00741178 4////1050 57032 IEM_DS3505
ZBAA,1992-02-21 07:00,ZBAA 210700Z AUTO 16006KT 6SM 08/M15 A3009 RMK SLP244 T00801150 IEM_DS3505
ZBAA,1992-02-21 08:00,ZBAA 210800Z AUTO 17006KT 6SM 08/M15 A3006 RMK SLP234 T00801150 IEM_DS3505
ZBAA,1992-02-21 09:00,ZBAA 210900Z AUTO 20004KT 9SM 08/M17 A3006 RMK SLP238 T00761170 57018 IEM_DS3505
ZBAA,1992-02-21 10:00,ZBAA 211000Z AUTO 14004KT 6SM 06/M15 RMK T00601150 IEM_DS3505
ZBAA,1992-02-21 11:00,ZBAA 211100Z AUTO 16002KT 7SM 05/M15 A3006 RMK SLP235 T00501150 IEM_DS3505
ZBAA,1992-02-21 12:00,ZBAA 211200Z AUTO 20004KT 7SM 03/M14 A3006 RMK SLP236 T00341143 57003 IEM_DS3505
ZBAA,1992-02-21 14:00,ZBAA 211400Z AUTO 03002KT 7SM 00/M14 A3006 RMK SLP236 T00001140 IEM_DS3505
ZBAA,1992-02-21 15:00,ZBAA 211500Z AUTO 00000KT 6SM 02/M12 A3006 RMK SLP235 T00241120 54000 IEM_DS3505
ZBAA,1992-02-21 18:00,ZBAA 211800Z AUTO 04006KT 6SM 01/M15 A3004 RMK SLP228 T00071150 40084//// 57007 IEM_DS3505
ZBAA,1992-02-21 20:00,ZBAA 212000Z AUTO 33004KT 7SM M04/M11 A3003 RMK SLP227 T10401110 IEM_DS3505
ZBAA,1992-02-21 21:00,ZBAA 212100Z AUTO 34006KT 7SM 03/M16 A3003 RMK SLP226 T00311160 57001 IEM_DS3505
ZBAA,1992-02-21 22:00,ZBAA 212200Z AUTO 20004KT 7SM M04/M11 A3003 RMK SLP227 T10401110 IEM_DS3505
ZBAA,1992-02-21 23:00,ZBAA 212300Z AUTO 25004KT 7SM M03/M12 A3006 RMK SLP237 T10301120 IEM_DS3505
ZBAA,1992-02-22 00:00,ZBAA 220000Z AUTO 36006KT 12SM 02/M14 A3007 RMK SLP240 T00231142 52013 IEM_DS3505
ZBAA,1992-02-22 01:00,ZBAA 220100Z AUTO 31014KT 7SM 04/M13 A3009 RMK SLP245 T00401130 IEM_DS3505
ZBAA,1992-02-22 02:00,ZBAA 220200Z AUTO 31019KT 6SM 05/M13 A3009 RMK SLP245 T00501130 IEM_DS3505
ZBAA,1992-02-22 03:00,ZBAA 220300Z AUTO 36008KT 11SM 06/M17 A3009 RMK SLP246 T00581166 52006 IEM_DS3505
ZBAA,1992-02-22 04:00,ZBAA 220400Z AUTO 33014KT 6SM 07/M16 A3006 RMK SLP234 T00701160 IEM_DS3505
ZBAA,1992-02-22 05:00,ZBAA 220500Z AUTO 33010KT 6SM 08/M14 A3003 RMK SLP224 T00801140 IEM_DS3505
ZBAA,1992-02-22 06:00,ZBAA 220600Z AUTO 36010KT 11SM 09/M18 A3003 RMK SLP222 T00931185 4////1025 57023 IEM_DS3505
ZBAA,1992-02-22 07:00,ZBAA 220700Z AUTO 31016KT 6SM 09/M14 A3000 RMK SLP213 T00901140 IEM_DS3505
ZBAA,1992-02-22 08:00,ZBAA 220800Z AUTO 30017KT 6SM 08/M14 A3000 RMK SLP214 T00801140 IEM_DS3505
ZBAA,1992-02-22 09:00,ZBAA 220900Z AUTO 32010KT 10SM 08/M16 A3000 RMK SLP228 T00761159 52006 IEM_DS3505
ZBAA,1992-02-22 10:00,ZBAA 221000Z AUTO 33019KT 6SM 06/M18 A3006 RMK SLP234 T00601180 IEM_DS3505
ZBAA,1992-02-22 11:00,ZBAA 221100Z AUTO 33019KT 6SM 04/M16 A3009 RMK SLP245 T00401160 IEM_DS3505
ZBAA,1992-02-22 12:00,ZBAA 221200Z AUTO 34010KT 9SM 04/M23 A3013 RMK SLP259 T00391228 52030 IEM_DS3505
ZBAA,1992-02-22 15:00,ZBAA 221500Z AUTO 02010KT 9SM 00/M18 A3018 RMK SLP278 T00051181 52019 IEM_DS3505
ZBAA,1992-02-22 18:00,ZBAA 221800Z AUTO 36008KT 9SM M01/M19 A3022 RMK SLP288 T10141194 40095//// 52010 IEM_DS3505
ZBAA,1992-02-22 20:00,ZBAA 222000Z AUTO 31012KT 7SM M03/M17 A3024 RMK SLP298 T10301170 IEM_DS3505
ZBAA,1992-02-22 21:00,ZBAA 222100Z AUTO 34010KT 12SM M02/M20 A3027 RMK SLP298 T10191199 52010 IEM_DS3505
ZBAA,1992-02-22 22:00,ZBAA 222200Z AUTO 31012KT 7SM M03/M18 A3027 RMK SLP308 T10301180 IEM_DS3505
ZBAA,1992-02-22 23:00,ZBAA 222300Z AUTO 31006KT 7SM M04/M17 A3027 RMK SLP308 T10401170 IEM_DS3505
ZBAA,1992-02-23 00:00,ZBAA 230000Z AUTO 36008KT 12SM M02/M19 A3027 RMK SLP315 T10221188 52016 IEM_DS3505
ZBAA,1992-02-23 01:00,ZBAA 230100Z AUTO 35012KT 7SM M02/M17 A3033 RMK SLP329 T10201170 IEM_DS3505
ZBAA,1992-02-23 02:00,ZBAA 230200Z AUTO 34017KT 7SM 00/M17 A3033 RMK SLP328 T00001170 IEM_DS3505
ZBAA,1992-02-23 03:00,ZBAA 230300Z AUTO 34012KT 19SM 02/M19 A3033 RMK SLP323 T00191189 52008 IEM_DS3505
ZBAA,1992-02-23 04:00,ZBAA 230400Z AUTO 35017KT 7SM 03/M17 A3033 RMK SLP328 T00301170 IEM_DS3505
ZBAA,1992-02-23 05:00,ZBAA 230500Z AUTO 29012KT 7SM 04/M16 A3027 RMK SLP306 T00401160 IEM_DS3505
ZBAA,1992-02-23 06:00,ZBAA 230600Z AUTO 34010KT 19SM 05/M19 A3024 RMK SLP301 T00521189 4////1036 57022 IEM_DS3505
ZBAA,1992-02-23 07:00,ZBAA 230700Z AUTO 29017KT 7SM 06/M15 A3024 RMK SLP296 T00601150 IEM_DS3505
ZBAA,1992-02-23 08:00,ZBAA 230800Z AUTO 29017KT 7SM 06/M15 A3024 RMK SLP296 T00601150 IEM_DS3505
ZBAA,1992-02-23 09:00,ZBAA 230900Z AUTO 29004KT 12SM 06/M19 A3033 RMK SLP288 T00641186 57013 IEM_DS3505
ZBAA,1992-02-23 10:00,ZBAA 231000Z AUTO 28008KT 7SM 05/M15 A3021 RMK SLP286 T00501150 IEM_DS3505
ZBAA,1992-02-23 11:00,ZBAA 231100Z AUTO 28008KT 7SM 03/M15 A3021 RMK SLP286 T00301150 IEM_DS3505
ZBAA,1992-02-23 12:00,ZBAA 231200Z AUTO 22006KT 11SM 04/M17 A3021 RMK SLP282 T00361173 57006 IEM_DS3505
ZBAA,1992-02-23 13:00,ZBAA 231300Z AUTO 22006KT 7SM 01/M15 A3018 RMK SLP277 T00101150 IEM_DS3505
ZBAA,1992-02-23 14:00,ZBAA 231400Z AUTO 19004KT 7SM 01/M16 A3018 RMK SLP277 T00101160 IEM_DS3505
ZBAA,1992-02-23 15:00,ZBAA 231500Z AUTO 20006KT 7SM 01/M16 A3015 RMK SLP267 T00111165 57015 IEM_DS3505
ZBAA,1992-02-23 18:00,ZBAA 231800Z AUTO 20004KT 7SM M00/M18 A3010 RMK SLP250 T10051176 40072//// 57016 IEM_DS3505
ZBAA,1992-02-23 20:00,ZBAA 232000Z AUTO 03002KT 7SM M04/M14 A3006 RMK SLP237 T10401140 IEM_DS3505
ZBAA,1992-02-23 21:00,ZBAA 232100Z AUTO 34002KT 6SM M03/M14 A3006 RMK SLP237 T10281142 57013 IEM_DS3505
ZBAA,1992-02-23 22:00,ZBAA 232200Z AUTO 00000KT 7SM M06/M14 A3006 RMK SLP237 T10601140 IEM_DS3505
ZBAA,1992-02-23 23:00,ZBAA 232300Z AUTO 02004KT 7SM M04/M14 A3003 RMK SLP227 T10401140 IEM_DS3505
ZBAA,1992-02-24 00:00,ZBAA 240000Z AUTO 00000KT 4SM M03/M12 A3006 RMK SLP237 T10311118 57001 IEM_DS3505
ZBAA,1992-02-24 01:00,ZBAA 240100Z AUTO 04006KT 7SM M01/M13 A3006 RMK SLP236 T10101130 IEM_DS3505
ZBAA,1992-02-24 02:00,ZBAA 240200Z AUTO 02004KT 7SM 03/M12 A3006 RMK SLP235 T00301120 IEM_DS3505
ZBAA,1992-02-24 03:00,ZBAA 240300Z AUTO 04002KT 4SM 08/M13 A3003 RMK SLP233 T00811130 57003 IEM_DS3505
ZBAA,1992-02-24 04:00,ZBAA 240400Z AUTO ////02KT 7SM 10/M11 RMK T01001110 IEM_DS3505
ZBAA,1992-02-24 05:00,ZBAA 240500Z AUTO ////04KT 7SM 12/M11 A3000 RMK SLP213 T01201110 IEM_DS3505
ZBAA,1992-02-24 06:00,ZBAA 240600Z AUTO 20002KT 5SM 14/M12 A2997 RMK SLP211 T01391115 4////1043 57021 IEM_DS3505
ZBAA,1992-02-24 07:00,ZBAA 240700Z AUTO 30012KT 7SM 15/M12 A2994 RMK SLP192 T01501120 IEM_DS3505
ZBAA,1992-02-24 08:00,ZBAA 240800Z AUTO 29014KT 7SM 16/M12 A2994 RMK SLP192 T01601120 IEM_DS3505
ZBAA,1992-02-24 09:00,ZBAA 240900Z AUTO 20004KT 6SM 14/M14 A2994 RMK SLP204 T01451141 57007 IEM_DS3505
ZBAA,1992-02-24 10:00,ZBAA 241000Z AUTO 27006KT 7SM 13/M12 A2994 RMK SLP192 T01301120 IEM_DS3505
ZBAA,1992-02-24 11:00,ZBAA 241100Z AUTO 21006KT 7SM 10/M13 A2997 RMK SLP203 T01001130 IEM_DS3505
ZBAA,1992-02-24 12:00,ZBAA 241200Z AUTO 20002KT 6SM 10/M08 A2997 RMK SLP209 T00961080 52004 IEM_DS3505
ZBAA,1992-02-24 13:00,ZBAA 241300Z AUTO 35002KT 7SM 07/M12 A2997 RMK SLP204 T00701120 IEM_DS3505
ZBAA,1992-02-24 14:00,ZBAA 241400Z AUTO 03004KT 7SM 05/M12 A3000 RMK SLP214 T00501120 IEM_DS3505
ZBAA,1992-02-24 15:00,ZBAA 241500Z AUTO 00000KT 5SM 05/M16 A3000 RMK SLP213 T00481161 52005 IEM_DS3505
ZBAA,1992-02-24 18:00,ZBAA 241800Z AUTO 02004KT 4SM 04/M09 A2999 RMK SLP210 T00431088 40149//// 57002 IEM_DS3505
ZBAA,1992-02-24 20:00,ZBAA 242000Z AUTO 01006KT 7SM 01/M11 A2997 RMK SLP205 T00101110 IEM_DS3505
ZBAA,1992-02-24 21:00,ZBAA 242100Z AUTO 07004KT 4SM 03/M10 A2997 RMK SLP210 T00261104 57001 IEM_DS3505
ZBAA,1992-02-24 22:00,ZBAA 242200Z AUTO 01004KT 7SM 00/M11 A2997 RMK SLP206 T00001110 IEM_DS3505
ZBAA,1992-02-24 23:00,ZBAA 242300Z AUTO 02006KT 7SM 01/M11 A2997 RMK SLP205 T00101110 IEM_DS3505
ZBAA,1992-02-25 00:00,ZBAA 250000Z AUTO 07004KT 5SM 04/M11 A3000 RMK SLP221 T00361113 52011 IEM_DS3505
ZBAA,1992-02-25 01:00,ZBAA 250100Z AUTO 15002KT 7SM 04/M09 A3003 RMK SLP225 T00401090 IEM_DS3505
ZBAA,1992-02-25 02:00,ZBAA 250200Z AUTO 06004KT 7SM 07/M09 A3000 RMK SLP214 T00701090 IEM_DS3505
ZBAA,1992-02-25 03:00,ZBAA 250300Z AUTO 09004KT 4SM 10/M11 A3000 RMK SLP212 T01041114 57009 IEM_DS3505
ZBAA,1992-02-25 04:00,ZBAA 250400Z AUTO 17008KT 7SM 11/M07 A2997 RMK SLP203 T01101070 IEM_DS3505
ZBAA,1992-02-25 05:00,ZBAA 250500Z AUTO 13008KT 7SM 13/M08 A2994 RMK SLP192 T01301080 IEM_DS3505
ZBAA,1992-02-25 06:00,ZBAA 250600Z AUTO 16004KT 3SM 15/M12 A2991 RMK SLP183 T01471125 4////1004 57028 IEM_DS3505
ZBAA,1992-02-25 07:00,ZBAA 250700Z AUTO 12008KT 7SM 15/M09 A2988 RMK SLP171 T01501090 IEM_DS3505
ZBAA,1992-02-25 08:00,ZBAA 250800Z AUTO 12006KT 7SM 15/M10 A2985 RMK SLP161 T01501100 IEM_DS3505
ZBAA,1992-02-25 09:00,ZBAA 250900Z AUTO 20004KT 4SM 15/M14 A2985 RMK SLP162 T01471140 57021 IEM_DS3505
ZBAA,1992-02-25 10:00,ZBAA 251000Z AUTO 10002KT 7SM 12/M11 A2985 RMK SLP161 T01201110 IEM_DS3505
ZBAA,1992-02-25 11:00,ZBAA 251100Z AUTO 13004KT 7SM 10/M11 A2985 RMK SLP162 T01001110 IEM_DS3505
ZBAA,1992-02-25 12:00,ZBAA 251200Z AUTO 18004KT 6SM 12/M12 A2985 RMK SLP162 T01201115 54000 IEM_DS3505
ZBAA,1992-02-25 13:00,ZBAA 251300Z AUTO 00000KT 7SM 07/M10 A2985 RMK SLP163 T00701100 IEM_DS3505
ZBAA,1992-02-25 14:00,ZBAA 251400Z AUTO 05002KT 7SM 05/M10 A2985 RMK SLP163 T00501100 IEM_DS3505
ZBAA,1992-02-25 15:00,ZBAA 251500Z AUTO 07004KT 6SM 06/M08 A2985 RMK SLP162 T00651076 54000 IEM_DS3505
ZBAA,1992-02-25 18:00,ZBAA 251800Z AUTO 02004KT 6SM 06/M08 A2983 RMK SLP155 T00611079 40158//// 57007 IEM_DS3505
ZBAA,1992-02-25 19:00,ZBAA 251900Z AUTO 08002KT 7SM 01/M08 A2980 RMK SLP147 T00101080 IEM_DS3505
ZBAA,1992-02-25 20:00,ZBAA 252000Z AUTO 31002KT 7SM 01/M08 A2980 RMK SLP147 T00101080 IEM_DS3505
ZBAA,1992-02-25 21:00,ZBAA 252100Z AUTO 02004KT 6SM 03/M08 A2977 RMK SLP142 T00331076 57013 IEM_DS3505
ZBAA,1992-02-25 23:00,ZBAA 252300Z AUTO 30006KT 7SM M01/M09 A2977 RMK SLP137 T10101090 IEM_DS3505
ZBAA,1992-02-26 00:00,ZBAA 260000Z AUTO 25004KT 3SM 02/M07 A2980 RMK SLP144 T00161066 52002 IEM_DS3505
ZBAA,1992-02-26 01:00,ZBAA 260100Z AUTO ////02KT 5SM 04/M08 A2980 RMK SLP146 T00401080 IEM_DS3505
ZBAA,1992-02-26 03:00,ZBAA 260300Z AUTO 00000KT 1 1/4SM 13/M08 A2977 RMK SLP140 T01281081 57004 IEM_DS3505
ZBAA,1992-02-26 04:00,ZBAA 260400Z AUTO 28004KT 5SM 15/M11 A2974 RMK SLP123 T01501110 IEM_DS3505
ZBAA,1992-02-26 05:00,ZBAA 260500Z AUTO 23006KT 4SM 17/M11 A2971 RMK SLP113 T01701110 IEM_DS3505
ZBAA,1992-02-26 06:00,ZBAA 260600Z AUTO 18004KT 1 1/4SM 18/M13 A2968 RMK SLP104 T01761127 4////0001 57035 IEM_DS3505
ZBAA,1992-02-26 07:00,ZBAA 260700Z AUTO 19010KT 4SM 18/M11 A2965 RMK SLP093 T01801110 IEM_DS3505
ZBAA,1992-02-26 08:00,ZBAA 260800Z AUTO 18012KT 4SM 17/M12 A2965 RMK SLP093 T01701120 IEM_DS3505
ZBAA,1992-02-26 09:00,ZBAA 260900Z AUTO 20006KT 2 1/2SM 17/M17 A2965 RMK SLP095 T01701171 57009 IEM_DS3505
ZBAA,1992-02-26 10:00,ZBAA 261000Z AUTO ////06KT 4SM 15/M13 A2965 RMK SLP093 T01501130 IEM_DS3505
ZBAA,1992-02-26 11:00,ZBAA 261100Z AUTO 14004KT 4SM 13/M13 A2965 RMK SLP094 T01301130 IEM_DS3505
ZBAA,1992-02-26 12:00,ZBAA 261200Z AUTO 18004KT 2 1/2SM 14/M14 A2968 RMK SLP103 T01451145 52007 IEM_DS3505
ZBAA,1992-02-26 14:00,ZBAA 261400Z AUTO 07006KT 4SM 07/M13 A2968 RMK SLP105 T00701130 IEM_DS3505
ZBAA,1992-02-26 15:00,ZBAA 261500Z AUTO 00000KT 3SM 07/M10 A2968 RMK SLP104 T00681100 52001 IEM_DS3505
ZBAA,1992-02-26 18:00,ZBAA 261800Z AUTO 04004KT 2 1/2SM 07/M12 A2967 RMK SLP101 T00711119 40179//// 57002 IEM_DS3505
ZBAA,1992-02-26 20:00,ZBAA 262000Z AUTO 02002KT 4SM 04/M12 A2965 RMK SLP096 T00401120 IEM_DS3505
ZBAA,1992-02-26 21:00,ZBAA 262100Z AUTO 04002KT 2 1/2SM 06/M10 A2965 RMK SLP093 T00571102 57008 IEM_DS3505
ZBAA,1992-02-26 22:00,ZBAA 262200Z AUTO 05002KT 4SM 02/M11 A2965 RMK SLP096 T00201110 IEM_DS3505
ZBAA,1992-02-26 23:00,ZBAA 262300Z AUTO 34002KT 4SM 01/M11 A2965 RMK SLP097 T00101110 IEM_DS3505
ZBAA,1992-02-27 00:00,ZBAA 270000Z AUTO 07002KT 4SM 05/M09 A2965 RMK SLP096 T00501094 52003 IEM_DS3505
ZBAA,1992-02-27 01:00,ZBAA 270100Z AUTO 31002KT 2 1/2SM 06/M10 A2968 RMK SLP105 T00601100 IEM_DS3505
ZBAA,1992-02-27 02:00,ZBAA 270200Z AUTO 29004KT 2 1/2SM 08/M09 A2968 RMK SLP105 T00801090 IEM_DS3505
ZBAA,1992-02-27 03:00,ZBAA 270300Z AUTO 04004KT 3SM 11/M09 A2968 RMK SLP100 T01131088 52003 IEM_DS3505
ZBAA,1992-02-27 04:00,ZBAA 270400Z AUTO 13004KT 4SM 13/M09 A2977 RMK SLP134 T01301090 IEM_DS3505
ZBAA,1992-02-27 05:00,ZBAA 270500Z AUTO 11004KT 4SM 15/M09 A2962 RMK SLP082 T01501090 IEM_DS3505
ZBAA,1992-02-27 06:00,ZBAA 270600Z AUTO 00000KT 3SM 16/M08 A2959 RMK SLP078 T01611085 4////0041 57021 IEM_DS3505
ZBAA,1992-02-27 07:00,ZBAA 270700Z AUTO 14006KT 5SM 17/M06 A2956 RMK SLP062 T01701060 IEM_DS3505
ZBAA,1992-02-27 08:00,ZBAA 270800Z AUTO 14006KT 5SM 17/M06 A2956 RMK SLP062 T01701060 IEM_DS3505
ZBAA,1992-02-27 09:00,ZBAA 270900Z AUTO 16002KT 4SM 16/M06 A2953 RMK SLP064 T01651063 57014 IEM_DS3505
ZBAA,1992-02-27 10:00,ZBAA 271000Z AUTO 12004KT 3SM 12/M06 A2956 RMK SLP063 T01201060 IEM_DS3505
ZBAA,1992-02-27 11:00,ZBAA 271100Z AUTO 12002KT 3SM 10/M06 A2959 RMK SLP073 T01001060 IEM_DS3505
ZBAA,1992-02-27 12:00,ZBAA 271200Z AUTO 04002KT 1 1/2SM 09/M02 A2959 RMK SLP081 T00931016 52016 IEM_DS3505
ZBAA,1992-02-27 13:00,ZBAA 271300Z AUTO 07002KT 2 1/2SM 08/M06 A2962 RMK SLP084 T00801060 IEM_DS3505
ZBAA,1992-02-27 14:00,ZBAA 271400Z AUTO 00000KT 2 1/2SM 06/M06 A2962 RMK SLP084 T00601060 IEM_DS3505
ZBAA,1992-02-27 15:00,ZBAA 271500Z AUTO 04002KT 4SM 09/M05 A2965 RMK SLP089 T00861051 52009 IEM_DS3505
ZBAA,1992-02-27 18:00,ZBAA 271800Z AUTO 07002KT 4SM 08/M08 A2965 RMK SLP095 T00781075 40172//// 52006 IEM_DS3505
ZBAA,1992-02-27 20:00,ZBAA 272000Z AUTO 02004KT 2 1/2SM 03/M06 A2965 RMK SLP096 T00301060 IEM_DS3505
ZBAA,1992-02-27 21:00,ZBAA 272100Z AUTO 07004KT 2 1/2SM 07/M06 A2965 RMK SLP101 T00691059 52006 IEM_DS3505
ZBAA,1992-02-27 22:00,ZBAA 272200Z AUTO 35006KT 3SM 04/M07 A2968 RMK SLP106 T00401070 IEM_DS3505
ZBAA,1992-02-27 23:00,ZBAA 272300Z AUTO 35006KT 3SM 04/M07 A2968 RMK SLP106 T00401070 IEM_DS3505
ZBAA,1992-02-28 00:00,ZBAA 280000Z AUTO 04004KT 1 1/2SM 05/M05 A2974 RMK SLP128 T00501052 52026 IEM_DS3505
ZBAA,1992-02-28 01:00,ZBAA 280100Z AUTO 32004KT 3SM 07/M07 A2974 RMK SLP125 T00701070 IEM_DS3505
ZBAA,1992-02-28 02:00,ZBAA 280200Z AUTO 01008KT 4SM 10/M06 A2974 RMK SLP125 T01001060 IEM_DS3505
ZBAA,1992-02-28 03:00,ZBAA 280300Z AUTO 07006KT 2 1/2SM 12/M06 A2974 RMK SLP132 T01221063 52004 IEM_DS3505
ZBAA,1992-02-28 04:00,ZBAA 280400Z AUTO 07002KT 4SM 15/M06 A2974 RMK SLP123 T01501060 IEM_DS3505
ZBAA,1992-02-28 05:00,ZBAA 280500Z AUTO 12008KT 4SM 16/M06 A2974 RMK SLP123 T01601060 IEM_DS3505
ZBAA,1992-02-28 06:00,ZBAA 280600Z AUTO 09008KT 3SM 16/M02 A2974 RMK SLP128 T01601017 4////0036 57003 IEM_DS3505
ZBAA,1992-02-28 07:00,ZBAA 280700Z AUTO 15014KT 3SM 15/01 A2974 RMK SLP123 T01500010 IEM_DS3505
ZBAA,1992-02-28 08:00,ZBAA 280800Z AUTO 16008KT 3SM 14/00 A2974 RMK SLP124 T01400000 IEM_DS3505
ZBAA,1992-02-28 09:00,ZBAA 280900Z AUTO 20008KT 3SM 14/00 A2977 RMK SLP134 T01380003 52005 IEM_DS3505
ZBAA,1992-02-28 10:00,ZBAA 281000Z AUTO 18008KT 2 1/2SM 12/M03 A2977 RMK SLP134 T01201030 IEM_DS3505
ZBAA,1992-02-28 11:00,ZBAA 281100Z AUTO 20008KT 2 1/2SM 10/M03 A2980 RMK SLP145 T01001030 IEM_DS3505
ZBAA,1992-02-28 12:00,ZBAA 281200Z AUTO 20006KT 6SM 10/M04 A2983 RMK SLP152 T01001039 52018 IEM_DS3505
ZBAA,1992-02-28 13:00,ZBAA 281300Z AUTO 20004KT 4SM 08/M04 A2983 RMK SLP155 T00801040 IEM_DS3505
ZBAA,1992-02-28 14:00,ZBAA 281400Z AUTO 21002KT 4SM 07/M04 A2985 RMK SLP163 T00701040 IEM_DS3505
ZBAA,1992-02-28 15:00,ZBAA 281500Z AUTO 20004KT 6SM 08/M05 A2985 RMK SLP158 T00781048 52006 IEM_DS3505
ZBAA,1992-02-28 18:00,ZBAA 281800Z AUTO 20004KT 6SM 06/M04 A2984 RMK SLP160 T00601041 40162//// 52002 IEM_DS3505
ZBAA,1992-02-28 20:00,ZBAA 282000Z AUTO 14002KT 4SM 02/M06 A2985 RMK SLP164 T00201060 IEM_DS3505
ZBAA,1992-02-28 21:00,ZBAA 282100Z AUTO 18002KT 6SM 04/M06 A2985 RMK SLP159 T00451061 57001 IEM_DS3505
ZBAA,1992-02-28 22:00,ZBAA 282200Z AUTO 00000KT 4SM 01/M05 A2985 RMK SLP164 T00101050 IEM_DS3505
ZBAA,1992-02-28 23:00,ZBAA 282300Z AUTO 14002KT 3SM 01/M06 A2988 RMK SLP174 T00101060 IEM_DS3505
ZBAA,1992-02-29 01:00,ZBAA 290100Z AUTO 09002KT 3SM 03/M04 A2994 RMK SLP195 T00301040 IEM_DS3505
ZBAA,1992-02-29 02:00,ZBAA 290200Z AUTO 11002KT 4SM 06/M05 A2994 RMK SLP194 T00601050 IEM_DS3505
ZBAA,1992-02-29 03:00,ZBAA 290300Z AUTO 20006KT 4SM 08/M08 A2994 RMK SLP196 T00791085 52014 IEM_DS3505
ZBAA,1992-02-29 06:00,ZBAA 290600Z AUTO 25008KT 4SM 11/M07 A2993 RMK SLP190 T01141072 4////0020 57005 IEM_DS3505
ZBAA,1992-02-29 09:00,ZBAA 290900Z AUTO 25002KT 6SM 11/M04 A2994 RMK SLP191 T01101043 54000 IEM_DS3505
ZBAA,1992-02-29 10:00,ZBAA 291000Z AUTO 13002KT 5SM 09/M06 A2994 RMK SLP193 T00901060 IEM_DS3505
ZBAA,1992-02-29 11:00,ZBAA 291100Z AUTO 12002KT 5SM 08/M06 A3000 RMK SLP214 T00801060 IEM_DS3505
ZBAA,1992-02-29 12:00,ZBAA 291200Z AUTO 16002KT 3SM 09/M04 A3003 RMK SLP225 T00931044 52034 IEM_DS3505
ZBAA,1992-02-29 15:00,ZBAA 291500Z AUTO 09004KT 4SM 08/M12 A3012 RMK SLP253 T00761116 52028 IEM_DS3505
ZBAA,1992-02-29 18:00,ZBAA 291800Z AUTO 20006KT 6SM 03/M08 A3020 RMK SLP280 T00291084 40119//// 52027 IEM_DS3505
ZBAA,1992-02-29 21:00,ZBAA 292100Z AUTO 25002KT 5SM 01/M06 A3024 RMK SLP287 T00111058 52006 IEM_DS3505
ZBAA,1992-02-29 22:00,ZBAA 292200Z AUTO 00000KT 7SM 00/M07 A3024 RMK SLP297 T00001070 IEM_DS3505
ZBAA,1992-02-29 23:00,ZBAA 292300Z AUTO 02002KT 5SM 00/M07 A3024 RMK SLP297 T00001070 IEM_DS3505
ZBAA,1992-03-01 00:00,ZBAA 010000Z AUTO 00000KT 5SM 02/M05 A3027 RMK SLP298 T00171054 52011 IEM_DS3505
ZBAA,1992-03-01 01:00,ZBAA 010100Z AUTO 36004KT 6SM 04/ A3027 RMK IEM_DS3505
ZBAA,1992-03-01 02:00,ZBAA 010200Z AUTO 08006KT 6SM 04/M08 A3030 RMK T00401080 IEM_DS3505
ZBAA,1992-03-01 03:00,ZBAA 010300Z AUTO 11004KT 4SM 05/M12 A3027 RMK SLP302 T00501115 52004 IEM_DS3505
ZBAA,1992-03-01 04:00,ZBAA 010400Z AUTO 10004KT 6SM 05/M12 A3027 RMK T00501120 IEM_DS3505
ZBAA,1992-03-01 05:00,ZBAA 010500Z AUTO 11004KT 6SM 06/M12 A3027 RMK T00601120 IEM_DS3505
ZBAA,1992-03-01 06:00,ZBAA 010600Z AUTO 20006KT 4SM 05/M14 A3024 RMK SLP291 T00521137 4////0004 57011 IEM_DS3505
ZBAA,1992-03-01 07:00,ZBAA 010700Z AUTO 17006KT 6SM 06/M11 A3021 RMK T00601110 IEM_DS3505
ZBAA,1992-03-01 08:00,ZBAA 010800Z AUTO 17006KT 6SM 06/M11 A3024 RMK T00601110 IEM_DS3505
ZBAA,1992-03-01 09:00,ZBAA 010900Z AUTO 18006KT 5SM 05/M13 A3024 RMK SLP289 T00501134 57002 IEM_DS3505
ZBAA,1992-03-01 10:00,ZBAA 011000Z AUTO 17002KT 6SM 05/M12 A3024 RMK T00501120 IEM_DS3505
ZBAA,1992-03-01 11:00,ZBAA 011100Z AUTO 00000KT 6SM 05/M12 A3027 RMK T00501120 IEM_DS3505
ZBAA,1992-03-01 12:00,ZBAA 011200Z AUTO 27002KT 4SM 04/M12 A3027 RMK SLP298 T00441115 52009 IEM_DS3505
ZBAA,1992-03-01 13:00,ZBAA 011300Z AUTO 00000KT 6SM 04/M11 A3027 RMK T00401110 IEM_DS3505
ZBAA,1992-03-01 14:00,ZBAA 011400Z AUTO 00000KT 6SM 04/M11 A3030 RMK T00401110 IEM_DS3505
ZBAA,1992-03-01 15:00,ZBAA 011500Z AUTO 00000KT 4SM 04/M10 RMK SLP308 T00441104 52010 IEM_DS3505
ZBAA,1992-03-01 18:00,ZBAA 011800Z AUTO 00000KT 4SM 04/M07 RMK SLP304 T00351074 40056//// 57004 IEM_DS3505
ZBAA,1992-03-01 20:00,ZBAA 012000Z AUTO 12004KT 6SM 02/M10 A3027 RMK T00201100 IEM_DS3505
ZBAA,1992-03-01 21:00,ZBAA 012100Z AUTO 11004KT 4SM 04/M10 A3027 RMK SLP299 T00381104 57005 IEM_DS3505
ZBAA,1992-03-01 22:00,ZBAA 012200Z AUTO 12002KT 6SM 01/M07 A3027 RMK T00101070 IEM_DS3505
ZBAA,1992-03-01 23:00,ZBAA 012300Z AUTO 08002KT 6SM 01/M06 A3030 RMK T00101060 IEM_DS3505
ZBAA,1992-03-02 00:00,ZBAA 020000Z AUTO 18006KT 5SM 02/M09 A3033 RMK SLP318 T00161091 52018 IEM_DS3505
ZBAA,1992-03-02 01:00,ZBAA 020100Z AUTO 23004KT 6SM 02/M07 A3036 RMK T00201070 IEM_DS3505
ZBAA,1992-03-02 02:00,ZBAA 020200Z AUTO 19008KT 6SM 03/M13 A3036 RMK T00301130 IEM_DS3505
ZBAA,1992-03-02 03:00,ZBAA 020300Z AUTO 20004KT 6SM 03/M14 A3036 RMK SLP326 T00311139 52009 IEM_DS3505
ZBAA,1992-03-02 04:00,ZBAA 020400Z AUTO 18004KT 6SM 05/M14 A3036 RMK T00501140 IEM_DS3505
ZBAA,1992-03-02 05:00,ZBAA 020500Z AUTO 15006KT 6SM 04/M15 A3033 RMK T00401150 IEM_DS3505
ZBAA,1992-03-02 06:00,ZBAA 020600Z AUTO 16006KT 6SM 05/M16 A3030 RMK SLP312 T00541163 4////0013 57014 IEM_DS3505
ZBAA,1992-03-02 07:00,ZBAA 020700Z AUTO 13004KT 6SM 06/M15 A3030 RMK T00601150 IEM_DS3505
ZBAA,1992-03-02 08:00,ZBAA 020800Z AUTO 14002KT 6SM 05/M15 A3027 RMK T00501150 IEM_DS3505
ZBAA,1992-03-02 09:00,ZBAA 020900Z AUTO 18006KT 6SM 05/M16 A3027 RMK SLP304 T00541163 57008 IEM_DS3505
ZBAA,1992-03-02 11:00,ZBAA 021100Z AUTO 18006KT 6SM 04/M13 A3033 RMK T00401130 IEM_DS3505
ZBAA,1992-03-02 12:00,ZBAA 021200Z AUTO 20006KT 7SM 04/M12 A3033 RMK SLP322 T00361121 52017 IEM_DS3505
ZBAA,1992-03-02 13:00,ZBAA 021300Z AUTO 17006KT 6SM 03/M11 A3036 RMK T00301110 IEM_DS3505
ZBAA,1992-03-02 15:00,ZBAA 021500Z AUTO 20004KT 4SM 03/M10 RMK SLP330 T00281102 52008 IEM_DS3505
ZBAA,1992-03-02 18:00,ZBAA 021800Z AUTO 00000KT 3SM 02/M07 RMK SLP328 T00151069 40063//// 57002 IEM_DS3505
ZBAA,1992-03-02 20:00,ZBAA 022000Z AUTO 09004KT 6SM M02/M11 A3033 RMK T10201110 IEM_DS3505
ZBAA,1992-03-02 21:00,ZBAA 022100Z AUTO 29002KT 4SM 01/M06 A3036 RMK SLP326 T00101059 57002 IEM_DS3505
ZBAA,1992-03-02 22:00,ZBAA 022200Z AUTO 10004KT 6SM M02/M10 A3036 RMK T10201100 IEM_DS3505
ZBAA,1992-03-02 23:00,ZBAA 022300Z AUTO 08002KT 6SM M02/M10 A3039 RMK T10201100 IEM_DS3505
ZBAA,1992-03-03 00:00,ZBAA 030000Z AUTO 20004KT 5SM 01/M10 RMK SLP343 T00061098 52017 IEM_DS3505
ZBAA,1992-03-03 01:00,ZBAA 030100Z AUTO 10004KT 3SM M01/M08 A3042 RMK T10101080 IEM_DS3505
ZBAA,1992-03-03 02:00,ZBAA 030200Z AUTO 13004KT 3SM 00/M07 A3042 RMK T00001070 IEM_DS3505
ZBAA,1992-03-03 03:00,ZBAA 030300Z AUTO 18002KT 6SM 02/M07 A3039 RMK SLP342 T00201071 57001 IEM_DS3505
ZBAA,1992-03-03 04:00,ZBAA 030400Z AUTO 14004KT 6SM 03/M11 A3039 RMK T00301110 IEM_DS3505
ZBAA,1992-03-03 05:00,ZBAA 030500Z AUTO 11004KT 6SM 04/M16 A3033 RMK T00401160 IEM_DS3505
ZBAA,1992-03-03 06:00,ZBAA 030600Z AUTO 16004KT 6SM 03/M13 RMK SLP322 T00321133 4////0003 57020 IEM_DS3505
ZBAA,1992-03-03 07:00,ZBAA 030700Z AUTO 10002KT 6SM 03/M17 A3042 RMK T00301170 IEM_DS3505
ZBAA,1992-03-03 08:00,ZBAA 030800Z AUTO 18006KT 6SM 03/M16 A3030 RMK T00301160 IEM_DS3505
ZBAA,1992-03-03 09:00,ZBAA 030900Z AUTO 16002KT 6SM 02/M10 A3030 RMK SLP312 T00241100 57010 IEM_DS3505
ZBAA,1992-03-03 10:00,ZBAA 031000Z AUTO 10002KT 6SM 01/M12 A3030 RMK T00101120 IEM_DS3505
ZBAA,1992-03-03 11:00,ZBAA 031100Z AUTO 07004KT 6SM 01/M11 A3030 RMK T00101110 IEM_DS3505
ZBAA,1992-03-03 12:00,ZBAA 031200Z AUTO 20004KT 9SM 02/M06 A3030 RMK SLP312 T00161065 54000 IEM_DS3505
ZBAA,1992-03-03 15:00,ZBAA 031500Z AUTO 02004KT 6SM M01/M05 RMK SLP312 T10121052 54000 IEM_DS3505
ZBAA,1992-03-03 18:00,ZBAA 031800Z AUTO 02002KT 6SM M01/M04 RMK SLP302 T10091045 40041//// 57010 IEM_DS3505
ZBAA,1992-03-03 20:00,ZBAA 032000Z AUTO 36004KT 6SM M02/M04 A3021 RMK T10201040 IEM_DS3505
ZBAA,1992-03-03 21:00,ZBAA 032100Z AUTO 34004KT 6SM M01/M04 A3021 RMK SLP287 T10131042 57015 IEM_DS3505
ZBAA,1992-03-03 22:00,ZBAA 032200Z AUTO 34004KT 6SM M02/M05 A3024 RMK T10201050 IEM_DS3505
ZBAA,1992-03-03 23:00,ZBAA 032300Z AUTO 34004KT 4SM M02/M05 A3024 RMK T10201050 IEM_DS3505
ZBAA,1992-03-04 00:00,ZBAA 040000Z AUTO 32002KT 5SM M01/M05 A3027 RMK SLP297 T10111047 52010 IEM_DS3505
ZBAA,1992-03-04 01:00,ZBAA 040100Z AUTO ////02KT 4SM 00/M05 A3039 RMK T00001050 IEM_DS3505
ZBAA,1992-03-04 03:00,ZBAA 040300Z AUTO 27002KT 3SM 02/M05 RMK SLP296 T00201053 57001 IEM_DS3505
ZBAA,1992-03-04 04:00,ZBAA 040400Z AUTO ////02KT 4SM 03/M05 A3024 RMK T00301050 IEM_DS3505
ZBAA,1992-03-04 05:00,ZBAA 040500Z AUTO ////02KT 4SM 04/M05 A3021 RMK T00401050 IEM_DS3505
ZBAA,1992-03-04 06:00,ZBAA 040600Z AUTO 09002KT 2SM 05/M05 A3015 RMK SLP267 T00501050 4////1020 57028 IEM_DS3505
ZBAA,1992-03-04 07:00,ZBAA 040700Z AUTO 30006KT 5SM 06/M06 A3015 RMK T00601060 IEM_DS3505
ZBAA,1992-03-04 08:00,ZBAA 040800Z AUTO 29006KT 6SM 07/M07 A3015 RMK T00701070 IEM_DS3505
ZBAA,1992-03-04 09:00,ZBAA 040900Z AUTO 20006KT 4SM 05/M05 A3015 RMK SLP263 T00511052 57004 IEM_DS3505
ZBAA,1992-03-04 10:00,ZBAA 041000Z AUTO 28008KT 6SM 05/M06 A3015 RMK T00501060 IEM_DS3505
ZBAA,1992-03-04 11:00,ZBAA 041100Z AUTO 20006KT 5SM 04/M06 A3015 RMK T00401060 IEM_DS3505
ZBAA,1992-03-04 12:00,ZBAA 041200Z AUTO 20006KT 7SM 03/M07 A3018 RMK SLP276 T00321074 52012 IEM_DS3505
ZBAA,1992-03-04 13:00,ZBAA 041300Z AUTO 24002KT 3SM 01/M05 A3018 RMK T00101050 IEM_DS3505
ZBAA,1992-03-04 14:00,ZBAA 041400Z AUTO 28006KT 3SM 01/M05 A3021 RMK T00101050 IEM_DS3505
ZBAA,1992-03-04 15:00,ZBAA 041500Z AUTO 32002KT 6SM 00/M06 RMK SLP281 T00001060 52005 IEM_DS3505
ZBAA,1992-03-04 18:00,ZBAA 041800Z AUTO 34006KT 7SM 02/M10 RMK SLP287 T00221096 40062//// 52007 IEM_DS3505
ZBAA,1992-03-04 20:00,ZBAA 042000Z AUTO 34004KT 6SM 02/M08 A3024 RMK T00201080 IEM_DS3505
ZBAA,1992-03-04 21:00,ZBAA 042100Z AUTO 02006KT 9SM 02/M10 RMK SLP292 T00161101 52005 IEM_DS3505
ZBAA,1992-03-04 22:00,ZBAA 042200Z AUTO 35006KT 6SM 01/M04 A3024 RMK T00101040 IEM_DS3505
ZBAA,1992-03-04 23:00,ZBAA 042300Z AUTO 32006KT 6SM 01/M05 A3024 RMK T00101050 IEM_DS3505
ZBAA,1992-03-05 00:00,ZBAA 050000Z AUTO 36008KT 9SM 01/M11 A3027 RMK SLP302 T00101112 52009 IEM_DS3505
ZBAA,1992-03-05 01:00,ZBAA 050100Z AUTO 34010KT 6SM 03/M08 A3027 RMK T00301080 IEM_DS3505
ZBAA,1992-03-05 02:00,ZBAA 050200Z AUTO 36010KT 6SM 04/M08 A3027 RMK T00401080 IEM_DS3505
ZBAA,1992-03-05 03:00,ZBAA 050300Z AUTO 36012KT 6SM 04/M11 A3027 RMK SLP307 T00441110 52005 IEM_DS3505
ZBAA,1992-03-05 04:00,ZBAA 050400Z AUTO 03008KT 6SM 06/M12 A3027 RMK T00601120 IEM_DS3505
ZBAA,1992-03-05 05:00,ZBAA 050500Z AUTO 36004KT 6SM 07/M12 A3024 RMK T00701120 IEM_DS3505
ZBAA,1992-03-05 06:00,ZBAA 050600Z AUTO 34012KT 7SM 07/M11 A3021 RMK SLP284 T00681110 4////1004 57022 IEM_DS3505
ZBAA,1992-03-05 07:00,ZBAA 050700Z AUTO 30010KT 7SM 07/M11 A3018 RMK T00701110 IEM_DS3505
ZBAA,1992-03-05 08:00,ZBAA 050800Z AUTO 32004KT 7SM 08/M11 A3018 RMK T00801110 IEM_DS3505
ZBAA,1992-03-05 09:00,ZBAA 050900Z AUTO 36008KT 7SM 07/M13 A3018 RMK SLP272 T00731131 57012 IEM_DS3505
ZBAA,1992-03-05 10:00,ZBAA 051000Z AUTO 30004KT 7SM 07/M10 A3018 RMK T00701100 IEM_DS3505
ZBAA,1992-03-05 11:00,ZBAA 051100Z AUTO 30008KT 7SM 05/M10 A3018 RMK T00501100 IEM_DS3505
ZBAA,1992-03-05 12:00,ZBAA 051200Z AUTO 34002KT 9SM 04/M07 A3021 RMK SLP283 T00371070 52010 IEM_DS3505
ZBAA,1992-03-05 13:00,ZBAA 051300Z AUTO 29006KT 7SM 03/M09 A3021 RMK T00301090 IEM_DS3505
ZBAA,1992-03-05 14:00,ZBAA 051400Z AUTO 31008KT 7SM 03/M10 A3024 RMK T00301100 IEM_DS3505
ZBAA,1992-03-05 15:00,ZBAA 051500Z AUTO 34006KT 12SM 03/M10 RMK SLP298 T00301103 52016 IEM_DS3505
ZBAA,1992-03-05 18:00,ZBAA 051800Z AUTO 36008KT 12SM 02/M10 RMK SLP297 T00171105 40079//// 57001 IEM_DS3505
ZBAA,1992-03-05 20:00,ZBAA 052000Z AUTO 33006KT 7SM M01/M11 A3024 RMK T10101110 IEM_DS3505
ZBAA,1992-03-05 21:00,ZBAA 052100Z AUTO 36006KT 12SM 00/M10 A3021 RMK SLP287 T00021099 57010 IEM_DS3505
ZBAA,1992-03-05 22:00,ZBAA 052200Z AUTO 32006KT 7SM M02/M11 A3024 RMK T10201110 IEM_DS3505
ZBAA,1992-03-05 23:00,ZBAA 052300Z AUTO 31004KT 7SM M02/M11 A3024 RMK T10201110 IEM_DS3505
ZBAA,1992-03-06 00:00,ZBAA 060000Z AUTO 36006KT 16SM 01/M10 RMK SLP301 T00091103 52013 IEM_DS3505
ZBAA,1992-03-06 01:00,ZBAA 060100Z AUTO 02006KT 6SM 02/M10 A3027 RMK T00201100 IEM_DS3505
ZBAA,1992-03-06 02:00,ZBAA 060200Z AUTO 01004KT 6SM 05/M10 A3027 RMK T00501100 IEM_DS3505
ZBAA,1992-03-06 03:00,ZBAA 060300Z AUTO 20004KT 7SM 06/M12 RMK SLP296 T00621119 57004 IEM_DS3505
ZBAA,1992-03-06 04:00,ZBAA 060400Z AUTO 26006KT 6SM 07/M10 A3024 RMK T00701100 IEM_DS3505
ZBAA,1992-03-06 05:00,ZBAA 060500Z AUTO 18006KT 6SM 08/M10 A3018 RMK T00801100 IEM_DS3505
ZBAA,1992-03-06 06:00,ZBAA 060600Z AUTO 20012KT 9SM 08/M12 A3012 RMK SLP261 T00821121 4////1011 57035 IEM_DS3505
ZBAA,1992-03-06 07:00,ZBAA 060700Z AUTO 20008KT 6SM 09/M10 A3009 RMK T00901100 IEM_DS3505
ZBAA,1992-03-06 08:00,ZBAA 060800Z AUTO 19010KT 6SM 09/M11 A3009 RMK T00901110 IEM_DS3505
ZBAA,1992-03-06 09:00,ZBAA 060900Z AUTO 20008KT 9SM 08/M10 A3006 RMK SLP241 T00821101 57020 IEM_DS3505
ZBAA,1992-03-06 10:00,ZBAA 061000Z AUTO 19006KT 6SM 07/M10 A3006 RMK T00701100 IEM_DS3505
ZBAA,1992-03-06 11:00,ZBAA 061100Z AUTO 18006KT 6SM 07/M10 A3009 RMK T00701100 IEM_DS3505
ZBAA,1992-03-06 12:00,ZBAA 061200Z AUTO 20006KT 7SM 07/M07 A3006 RMK SLP236 T00681072 57005 IEM_DS3505
ZBAA,1992-03-06 13:00,ZBAA 061300Z AUTO 17004KT 6SM 05/M09 A3006 RMK T00501090 IEM_DS3505
ZBAA,1992-03-06 14:00,ZBAA 061400Z AUTO 14004KT 7SM 04/M08 A3006 RMK T00401080 IEM_DS3505
ZBAA,1992-03-06 15:00,ZBAA 061500Z AUTO 20004KT 6SM 04/M07 A3003 RMK SLP229 T00441072 57006 IEM_DS3505
ZBAA,1992-03-06 18:00,ZBAA 061800Z AUTO 16002KT 5SM 02/M06 RMK SLP220 T00171057 40090//// 57009 IEM_DS3505
ZBAA,1992-03-06 20:00,ZBAA 062000Z AUTO 35002KT 7SM M01/M07 A3000 RMK T10101070 IEM_DS3505
ZBAA,1992-03-06 21:00,ZBAA 062100Z AUTO 00000KT 4SM M00/M06 A3000 RMK SLP215 T10041065 57006 IEM_DS3505
ZBAA,1992-03-06 22:00,ZBAA 062200Z AUTO 34004KT 7SM M02/M07 A3000 RMK T10201070 IEM_DS3505
ZBAA,1992-03-06 23:00,ZBAA 062300Z AUTO 34004KT 7SM M02/M07 A3012 RMK T10201070 IEM_DS3505
ZBAA,1992-03-07 00:00,ZBAA 070000Z AUTO 14002KT 3SM 01/M07 A3003 RMK SLP222 T00111066 52007 IEM_DS3505
ZBAA,1992-03-07 01:00,ZBAA 070100Z AUTO 04004KT 4SM 02/M06 A3003 RMK T00201060 IEM_DS3505
ZBAA,1992-03-07 02:00,ZBAA 070200Z AUTO 04004KT 4SM 05/M06 A3003 RMK T00501060 IEM_DS3505
ZBAA,1992-03-07 03:00,ZBAA 070300Z AUTO 36006KT 4SM 10/M06 A3003 RMK SLP221 T00971063 54000 IEM_DS3505
ZBAA,1992-03-07 04:00,ZBAA 070400Z AUTO ////04KT 6SM 10/M05 A3000 RMK T01001050 IEM_DS3505
ZBAA,1992-03-07 05:00,ZBAA 070500Z AUTO 33006KT 6SM 12/M05 A2997 RMK T01201050 IEM_DS3505
ZBAA,1992-03-07 06:00,ZBAA 070600Z AUTO 36008KT 12SM 13/M09 RMK SLP198 T01331087 4////1017 57023 IEM_DS3505
ZBAA,1992-03-07 07:00,ZBAA 070700Z AUTO 30006KT 6SM 13/M07 A2994 RMK T01301070 IEM_DS3505
ZBAA,1992-03-07 08:00,ZBAA 070800Z AUTO 30006KT 6SM 13/M07 A2994 RMK T01301070 IEM_DS3505
ZBAA,1992-03-07 09:00,ZBAA 070900Z AUTO 34008KT 16SM 13/M12 A2991 RMK SLP194 T01301121 57004 IEM_DS3505
ZBAA,1992-03-07 10:00,ZBAA 071000Z AUTO 30008KT 6SM 13/M09 A3003 RMK T01301090 IEM_DS3505
ZBAA,1992-03-07 11:00,ZBAA 071100Z AUTO ////06KT 7SM 09/M09 A2997 RMK T00901090 IEM_DS3505
ZBAA,1992-03-07 12:00,ZBAA 071200Z AUTO 02006KT 19SM 10/M12 A3000 RMK SLP213 T00961123 52019 IEM_DS3505
ZBAA,1992-03-07 13:00,ZBAA 071300Z AUTO ////04KT 7SM 08/M09 A3000 RMK T00801090 IEM_DS3505
ZBAA,1992-03-07 14:00,ZBAA 071400Z AUTO 03008KT 7SM 05/M10 A3003 RMK T00501100 IEM_DS3505
ZBAA,1992-03-07 15:00,ZBAA 071500Z AUTO 07004KT 19SM 06/M07 A3006 RMK SLP228 T00651068 52015 IEM_DS3505
ZBAA,1992-03-07 18:00,ZBAA 071800Z AUTO 07004KT 12SM 06/M09 RMK SLP227 T00551086 40136//// 54000 IEM_DS3505
ZBAA,1992-03-07 20:00,ZBAA 072000Z AUTO 33006KT 7SM 03/M10 A3000 RMK T00301100 IEM_DS3505
ZBAA,1992-03-07 21:00,ZBAA 072100Z AUTO 02002KT 12SM 04/M08 A3000 RMK SLP218 T00361081 57010 IEM_DS3505
ZBAA,1992-03-07 23:00,ZBAA 072300Z AUTO 02006KT 6SM 03/M10 A3000 RMK T00301100 IEM_DS3505
ZBAA,1992-03-08 00:00,ZBAA 080000Z AUTO 07004KT 12SM 04/M08 A3000 RMK SLP218 T00401084 54000 IEM_DS3505
ZBAA,1992-03-08 01:00,ZBAA 080100Z AUTO 03002KT 6SM 05/M09 A3000 RMK T00501090 IEM_DS3505
ZBAA,1992-03-08 02:00,ZBAA 080200Z AUTO ////04KT 6SM 06/M03 A3000 RMK T00601030 IEM_DS3505
ZBAA,1992-03-08 03:00,ZBAA 080300Z AUTO 07004KT 5SM 08/M05 A3000 RMK SLP206 T00801046 57012 IEM_DS3505
ZBAA,1992-03-08 04:00,ZBAA 080400Z AUTO 08006KT 3SM 10/M03 A2994 RMK T01001030 IEM_DS3505
ZBAA,1992-03-08 05:00,ZBAA 080500Z AUTO 16008KT 3SM 12/M04 A2991 RMK T01201040 IEM_DS3505
ZBAA,1992-03-08 06:00,ZBAA 080600Z AUTO 16006KT 4SM 13/M04 A2985 RMK SLP165 T01261037 4////0030 57040 IEM_DS3505
ZBAA,1992-03-08 08:00,ZBAA 080800Z AUTO 19008KT 3SM 13/M03 A2983 RMK T01301030 IEM_DS3505
ZBAA,1992-03-08 09:00,ZBAA 080900Z AUTO 20002KT 4SM 13/M01 A2983 RMK SLP153 T01271008 57012 IEM_DS3505
ZBAA,1992-03-08 10:00,ZBAA 081000Z AUTO 23002KT 3SM 11/M02 A2983 RMK T01101020 IEM_DS3505
ZBAA,1992-03-08 11:00,ZBAA 081100Z AUTO 01008KT 3SM 10/M02 A2983 RMK T01001020 IEM_DS3505
ZBAA,1992-03-08 12:00,ZBAA 081200Z AUTO 02002KT 3SM 10/M02 A2985 RMK SLP169 T01001020 52015 IEM_DS3505
ZBAA,1992-03-08 13:00,ZBAA 081300Z AUTO 02006KT 2SM 08/M03 A2988 RMK T00801030 IEM_DS3505
ZBAA,1992-03-08 14:00,ZBAA 081400Z AUTO 34004KT 2SM 07/M04 A2991 RMK T00701040 IEM_DS3505
ZBAA,1992-03-08 15:00,ZBAA 081500Z AUTO 34004KT 6SM 09/M07 RMK SLP190 T00921073 52022 IEM_DS3505
ZBAA,1992-03-08 18:00,ZBAA 081800Z AUTO 34006KT 6SM 09/M12 RMK SLP199 T00911122 40135//// 52009 IEM_DS3505
ZBAA,1992-03-08 20:00,ZBAA 082000Z AUTO 33010KT 7SM 06/M11 A2997 RMK T00601110 IEM_DS3505
ZBAA,1992-03-08 21:00,ZBAA 082100Z AUTO 36014KT 6SM 06/M11 A3000 RMK SLP214 T00561112 52015 IEM_DS3505
ZBAA,1992-03-08 22:00,ZBAA 082200Z AUTO 34008KT 7SM 04/M10 A3003 RMK T00401100 IEM_DS3505
ZBAA,1992-03-08 23:00,ZBAA 082300Z AUTO 02010KT 7SM 04/M09 A3006 RMK T00401090 IEM_DS3505
ZBAA,1992-03-09 00:00,ZBAA 090000Z AUTO 02008KT 16SM 05/M10 RMK SLP245 T00471102 52030 IEM_DS3505
ZBAA,1992-03-09 01:00,ZBAA 090100Z AUTO 01014KT 7SM 06/M10 A3012 RMK T00601100 IEM_DS3505
ZBAA,1992-03-09 02:00,ZBAA 090200Z AUTO 03012KT 7SM 07/M11 A3012 RMK T00701110 IEM_DS3505
ZBAA,1992-03-09 03:00,ZBAA 090300Z AUTO 34008KT 9SM 07/M14 A3012 RMK SLP256 T00731138 52011 IEM_DS3505
ZBAA,1992-03-09 04:00,ZBAA 090400Z AUTO 02012KT 7SM 09/M12 A3012 RMK T00901120 IEM_DS3505
ZBAA,1992-03-09 05:00,ZBAA 090500Z AUTO 01008KT 7SM 09/M13 A3009 RMK T00901130 IEM_DS3505
ZBAA,1992-03-09 06:00,ZBAA 090600Z AUTO 04006KT 9SM 10/M14 A3006 RMK SLP232 T01011138 4////0041 57023 IEM_DS3505
ZBAA,1992-03-09 07:00,ZBAA 090700Z AUTO 03006KT 6SM 10/M12 A3003 RMK T01001120 IEM_DS3505
ZBAA,1992-03-09 08:00,ZBAA 090800Z AUTO 03004KT 6SM 10/M13 A3003 RMK T01001130 IEM_DS3505
ZBAA,1992-03-09 09:00,ZBAA 090900Z AUTO 16002KT 10SM 10/M10 A3003 RMK SLP224 T00981104 57009 IEM_DS3505
ZBAA,1992-03-09 10:00,ZBAA 091000Z AUTO 08004KT 7SM 08/M15 A3003 RMK T00801150 IEM_DS3505
ZBAA,1992-03-09 12:00,ZBAA 091200Z AUTO 18004KT 9SM 08/M10 A3006 RMK SLP237 T00751105 52013 IEM_DS3505
ZBAA,1992-03-09 13:00,ZBAA 091300Z AUTO 00000KT 7SM 04/M12 A3009 RMK T00401120 IEM_DS3505
ZBAA,1992-03-09 14:00,ZBAA 091400Z AUTO 18010KT 7SM 04/M06 A3012 RMK T00401060 IEM_DS3505
ZBAA,1992-03-09 15:00,ZBAA 091500Z AUTO 20006KT 9SM 03/M06 A3012 RMK SLP254 T00341057 52016 IEM_DS3505
ZBAA,1992-03-09 18:00,ZBAA 091800Z AUTO 20002KT 11SM 02/M06 RMK SLP248 T00241064 40106//// 57005 IEM_DS3505
ZBAA,1992-03-09 21:00,ZBAA 092100Z AUTO 09002KT 7SM 00/M04 A3009 RMK SLP237 T00021039 57012 IEM_DS3505
ZBAA,1992-03-09 22:00,ZBAA 092200Z AUTO 00000KT 7SM M02/M07 A3006 RMK T10201070 IEM_DS3505
ZBAA,1992-03-09 23:00,ZBAA 092300Z AUTO 01002KT 7SM M02/M06 A3006 RMK T10201060 IEM_DS3505
ZBAA,1992-03-10 00:00,ZBAA 100000Z AUTO 07002KT 4SM 01/M04 A3006 RMK SLP236 T00081042 57001 IEM_DS3505
ZBAA,1992-03-10 01:00,ZBAA 100100Z AUTO 12002KT 7SM 02/M05 A3006 RMK T00201050 IEM_DS3505
ZBAA,1992-03-10 02:00,ZBAA 100200Z AUTO 13004KT 6SM 04/M05 A3006 RMK T00401050 IEM_DS3505
ZBAA,1992-03-10 03:00,ZBAA 100300Z AUTO 00000KT 5SM 05/M05 A3003 RMK SLP233 T00521054 57003 IEM_DS3505
ZBAA,1992-03-10 05:00,ZBAA 100500Z AUTO 18006KT 6SM 09/M04 A2997 RMK T00901040 IEM_DS3505
ZBAA,1992-03-10 06:00,ZBAA 100600Z AUTO 22004KT 5SM 08/M06 A2991 RMK SLP197 T00851063 4////1006 57035 IEM_DS3505
ZBAA,1992-03-10 07:00,ZBAA 100700Z AUTO 18002KT 6SM 09/M05 A2991 RMK T00901050 IEM_DS3505
ZBAA,1992-03-10 08:00,ZBAA 100800Z AUTO 07002KT 6SM 10/M05 A2988 RMK T01001050 IEM_DS3505
ZBAA,1992-03-10 09:00,ZBAA 100900Z AUTO 36008KT 5SM 09/M04 A2988 RMK SLP177 T00861043 57020 IEM_DS3505
ZBAA,1992-03-10 10:00,ZBAA 101000Z AUTO 36006KT 6SM 08/M04 A2988 RMK T00801040 IEM_DS3505
ZBAA,1992-03-10 11:00,ZBAA 101100Z AUTO 02004KT 6SM 06/M04 A2991 RMK T00601040 IEM_DS3505
ZBAA,1992-03-10 12:00,ZBAA 101200Z AUTO 36002KT 4SM 07/M03 A2991 RMK SLP183 T00661032 52005 IEM_DS3505
ZBAA,1992-03-10 13:00,ZBAA 101300Z AUTO 35004KT 6SM 06/M04 A2991 RMK T00601040 IEM_DS3505
ZBAA,1992-03-10 14:00,ZBAA 101400Z AUTO 34004KT 6SM 05/M05 A2991 RMK T00501050 IEM_DS3505
ZBAA,1992-03-10 15:00,ZBAA 101500Z AUTO 02002KT 3SM 06/M04 RMK SLP183 T00621038 52001 IEM_DS3505
ZBAA,1992-03-10 18:00,ZBAA 101800Z AUTO 29002KT 4SM 04/M04 RMK SLP194 T00381039 40111//// 52011 IEM_DS3505
ZBAA,1992-03-10 20:00,ZBAA 102000Z AUTO 31002KT 6SM 03/M05 A2994 RMK T00301050 IEM_DS3505
ZBAA,1992-03-10 21:00,ZBAA 102100Z AUTO 07004KT 6SM 04/M04 A2994 RMK SLP195 T00351044 52001 IEM_DS3505
ZBAA,1992-03-10 22:00,ZBAA 102200Z AUTO 03012KT 6SM 03/M04 A2997 RMK T00301040 IEM_DS3505
ZBAA,1992-03-10 23:00,ZBAA 102300Z AUTO 03012KT 6SM 03/M01 A3000 RMK T00301010 IEM_DS3505
ZBAA,1992-03-11 00:00,ZBAA 110000Z AUTO 04008KT 6SM 04/M01 A3015 RMK SLP224 T00401013 52029 IEM_DS3505
ZBAA,1992-03-11 01:00,ZBAA 110100Z AUTO 04006KT 6SM 05/M03 A3006 RMK T00501030 IEM_DS3505
ZBAA,1992-03-11 02:00,ZBAA 110200Z AUTO 02010KT 6SM 09/M08 A3006 RMK T00901080 IEM_DS3505
ZBAA,1992-03-11 03:00,ZBAA 110300Z AUTO 04004KT 6SM 09/M03 A3006 RMK SLP231 T00921026 52007 IEM_DS3505
ZBAA,1992-03-11 04:00,ZBAA 110400Z AUTO 07004KT 6SM 11/M10 A3006 RMK T01101100 IEM_DS3505
ZBAA,1992-03-11 05:00,ZBAA 110500Z AUTO 12004KT 6SM 11/M09 A3003 RMK T01101090 IEM_DS3505
ZBAA,1992-03-11 06:00,ZBAA 110600Z AUTO 16004KT 5SM 12/M09 A3000 RMK SLP217 T01181090 4////0016 57014 IEM_DS3505
ZBAA,1992-03-11 07:00,ZBAA 110700Z AUTO 12004KT 6SM 13/M09 A2997 RMK T01301090 IEM_DS3505
ZBAA,1992-03-11 08:00,ZBAA 110800Z AUTO 17004KT 7SM 13/M07 A2997 RMK T01301070 IEM_DS3505
ZBAA,1992-03-11 09:00,ZBAA 110900Z AUTO 18004KT 6SM 12/M06 A2997 RMK SLP214 T01161058 57003 IEM_DS3505
ZBAA,1992-03-11 10:00,ZBAA 111000Z AUTO 19008KT 6SM 11/M05 A3000 RMK T01101050 IEM_DS3505
ZBAA,1992-03-11 11:00,ZBAA 111100Z AUTO 18006KT 6SM 10/M05 A3003 RMK T01001050 IEM_DS3505
ZBAA,1992-03-11 12:00,ZBAA 111200Z AUTO 18008KT 6SM 09/M06 A3006 RMK SLP232 T00911061 52018 IEM_DS3505
ZBAA,1992-03-11 13:00,ZBAA 111300Z AUTO 18010KT 6SM 07/M06 A3009 RMK T00701060 IEM_DS3505
ZBAA,1992-03-11 14:00,ZBAA 111400Z AUTO 19010KT 6SM 05/M06 A3009 RMK T00501060 IEM_DS3505
ZBAA,1992-03-11 15:00,ZBAA 111500Z AUTO 20008KT 6SM 05/M07 A3012 RMK SLP248 T00541073 52016 IEM_DS3505
ZBAA,1992-03-11 18:00,ZBAA 111800Z AUTO 16002KT 6SM 03/M07 RMK SLP257 T00341066 40129//// 52009 IEM_DS3505
ZBAA,1992-03-11 20:00,ZBAA 112000Z AUTO 00000KT 7SM 00/M06 A3012 RMK T00001060 IEM_DS3505
ZBAA,1992-03-11 21:00,ZBAA 112100Z AUTO 04002KT 6SM 02/M04 A3012 RMK SLP254 T00151044 57003 IEM_DS3505
ZBAA,1992-03-11 22:00,ZBAA 112200Z AUTO 00000KT 7SM M01/M06 A3012 RMK T10101060 IEM_DS3505
ZBAA,1992-03-11 23:00,ZBAA 112300Z AUTO 00000KT 7SM 00/M05 A3012 RMK T00001050 IEM_DS3505
ZBAA,1992-03-12 00:00,ZBAA 120000Z AUTO 32002KT 3SM 01/M04 RMK SLP256 T00111039 52001 IEM_DS3505
ZBAA,1992-03-12 01:00,ZBAA 120100Z AUTO 04002KT 5SM 03/M05 A3015 RMK T00301050 IEM_DS3505
ZBAA,1992-03-12 02:00,ZBAA 120200Z AUTO 12004KT 5SM 05/M04 A3012 RMK T00501040 IEM_DS3505
ZBAA,1992-03-12 03:00,ZBAA 120300Z AUTO 20002KT 3SM 06/M04 A3012 RMK SLP249 T00641036 57006 IEM_DS3505
ZBAA,1992-03-12 04:00,ZBAA 120400Z AUTO 18008KT 6SM 08/M02 A3006 RMK T00801020 IEM_DS3505
ZBAA,1992-03-12 05:00,ZBAA 120500Z AUTO 18012KT 6SM 10/M04 A3003 RMK T01001040 IEM_DS3505
ZBAA,1992-03-12 06:00,ZBAA 120600Z AUTO 18010KT 6SM 10/M06 A2997 RMK SLP206 T01051061 4////0004 57043 IEM_DS3505
ZBAA,1992-03-12 07:00,ZBAA 120700Z AUTO 20016KT 6SM 12/M05 A2997 RMK T01201050 IEM_DS3505
ZBAA,1992-03-12 08:00,ZBAA 120800Z AUTO 17012KT 6SM 12/M05 A2994 RMK T01201050 IEM_DS3505
ZBAA,1992-03-12 09:00,ZBAA 120900Z AUTO 18010KT 6SM 12/M06 A2994 RMK SLP195 T01181058 57011 IEM_DS3505
ZBAA,1992-03-12 10:00,ZBAA 121000Z AUTO 16006KT 6SM 11/M05 A2994 RMK T01101050 IEM_DS3505
ZBAA,1992-03-12 11:00,ZBAA 121100Z AUTO 09006KT 6SM 08/M03 A2994 RMK T00801030 IEM_DS3505
ZBAA,1992-03-12 12:00,ZBAA 121200Z AUTO 11004KT 5SM 10/M04 A2997 RMK SLP200 T01001036 52005 IEM_DS3505
ZBAA,1992-03-12 13:00,ZBAA 121300Z AUTO 10006KT 6SM 06/M03 A2997 RMK T00601030 IEM_DS3505
ZBAA,1992-03-12 14:00,ZBAA 121400Z AUTO 10004KT 6SM 05/M02 A2997 RMK T00501020 IEM_DS3505
ZBAA,1992-03-12 15:00,ZBAA 121500Z AUTO 11002KT 4SM 07/01 A2997 RMK SLP203 T00720006 52003 IEM_DS3505
ZBAA,1992-03-12 16:00,ZBAA 121600Z AUTO 36002KT 6SM 04/M02 A2997 RMK T00401020 IEM_DS3505
ZBAA,1992-03-12 17:00,ZBAA 121700Z AUTO 00000KT 6SM 04/M01 A2997 RMK T00401010 IEM_DS3505
ZBAA,1992-03-12 18:00,ZBAA 121800Z AUTO 04004KT 3SM 05/00 RMK SLP202 T00480000 40121//// 57001 IEM_DS3505
ZBAA,1992-03-12 19:00,ZBAA 121900Z AUTO 35002KT 6SM 04/M02 A2994 RMK T00401020 IEM_DS3505
ZBAA,1992-03-12 20:00,ZBAA 122000Z AUTO 00000KT 6SM 03/M02 A2994 RMK T00301020 IEM_DS3505
ZBAA,1992-03-12 21:00,ZBAA 122100Z AUTO 09002KT 3SM 04/M00 A2994 RMK SLP201 T00361002 57001 IEM_DS3505
ZBAA,1992-03-12 22:00,ZBAA 122200Z AUTO 00000KT 7SM M01/M06 RMK T10101060 IEM_DS3505
ZBAA,1992-03-12 23:00,ZBAA 122300Z AUTO 34004KT 6SM 02/M03 A3000 RMK T00201030 IEM_DS3505
ZBAA,1992-03-13 00:00,ZBAA 130000Z AUTO 04002KT 2 1/2SM 06/M01 RMK SLP219 T00561012 52018 IEM_DS3505
ZBAA,1992-03-13 01:00,ZBAA 130100Z AUTO 02004KT 5SM 06/M02 A3003 RMK T00601020 IEM_DS3505
ZBAA,1992-03-13 02:00,ZBAA 130200Z AUTO 33002KT 5SM 08/M02 A3003 RMK T00801020 IEM_DS3505
ZBAA,1992-03-13 03:00,ZBAA 130300Z AUTO 04002KT 3SM 11/M02 A3003 RMK SLP221 T01091025 52003 IEM_DS3505
ZBAA,1992-03-13 04:00,ZBAA 130400Z AUTO ////02KT 5SM 12/M02 A3000 RMK T01201020 IEM_DS3505
ZBAA,1992-03-13 05:00,ZBAA 130500Z AUTO ////02KT 6SM 13/M02 A2997 RMK T01301020 IEM_DS3505
ZBAA,1992-03-13 06:00,ZBAA 130600Z AUTO 36004KT 4SM 14/M02 A2994 RMK SLP202 T01431022 4////0023 57019 IEM_DS3505
ZBAA,1992-03-13 07:00,ZBAA 130700Z AUTO ////06KT 6SM 15/M02 A2991 RMK T01501020 IEM_DS3505
ZBAA,1992-03-13 09:00,ZBAA 130900Z AUTO 04002KT 3SM 14/00 A2991 RMK SLP193 T01410004 57009 IEM_DS3505
ZBAA,1992-03-13 10:00,ZBAA 131000Z AUTO 12008KT 4SM 13/03 A2994 RMK T01300030 IEM_DS3505
ZBAA,1992-03-13 11:00,ZBAA 131100Z AUTO 11012KT 4SM 11/04 A3000 RMK T01100040 IEM_DS3505
ZBAA,1992-03-13 12:00,ZBAA 131200Z AUTO 11008KT 2SM 11/05 A3000 RMK SLP213 T01140048 52019 IEM_DS3505
ZBAA,1992-03-13 13:00,ZBAA 131300Z AUTO 13006KT 5SM 08/02 A3003 RMK T00800020 IEM_DS3505
ZBAA,1992-03-13 14:00,ZBAA 131400Z AUTO 14006KT 5SM 07/02 A3003 RMK T00700020 IEM_DS3505
ZBAA,1992-03-13 15:00,ZBAA 131500Z AUTO 04002KT 2SM 08/03 A3003 RMK SLP224 T00790026 52012 IEM_DS3505
ZBAA,1992-03-13 16:00,ZBAA 131600Z AUTO 28004KT 6SM 06/06 A3003 RMK T00600060 IEM_DS3505
ZBAA,1992-03-13 17:00,ZBAA 131700Z AUTO 26002KT 6SM 06/06 A3003 RMK T00600060 IEM_DS3505
ZBAA,1992-03-13 18:00,ZBAA 131800Z AUTO 11004KT 6SM 08/M02 A3000 RMK 60002 SLP217 T00751019 40149//// 57007 IEM_DS3505
ZBAA,1992-03-13 19:00,ZBAA 131900Z AUTO 00000KT 6SM 06/04 A2997 RMK T00600040 IEM_DS3505
ZBAA,1992-03-13 21:00,ZBAA 132100Z AUTO 36002KT 6SM 06/02 RMK SLP193 T00650015 57024 IEM_DS3505
ZBAA,1992-03-13 22:00,ZBAA 132200Z AUTO 33006KT 5SM 06/02 A2991 RMK T00600020 IEM_DS3505
ZBAA,1992-03-13 23:00,ZBAA 132300Z AUTO 33004KT 5SM 05/04 A2991 RMK T00500040 IEM_DS3505
ZBAA,1992-03-14 00:00,ZBAA 140000Z AUTO 34004KT 2SM 05/03 A2991 RMK 60008 70008 SLP193 T00470027 57001 IEM_DS3505
ZBAA,1992-03-14 01:00,ZBAA 140100Z AUTO 32004KT 4SM 05/04 A2991 RMK T00500040 IEM_DS3505
ZBAA,1992-03-14 02:00,ZBAA 140200Z AUTO 35006KT 5SM 05/05 A2991 RMK T00500050 IEM_DS3505
ZBAA,1992-03-14 03:00,ZBAA 140300Z AUTO 02006KT 4SM 06/03 A2988 RMK SLP185 T00640033 57008 IEM_DS3505
ZBAA,1992-03-14 04:00,ZBAA 140400Z AUTO 34006KT 7SM 07/06 A2988 RMK T00700060 IEM_DS3505
ZBAA,1992-03-14 05:00,ZBAA 140500Z AUTO 27004KT 6SM 09/06 A2988 RMK T00900060 IEM_DS3505
ZBAA,1992-03-14 06:00,ZBAA 140600Z AUTO 34006KT 5SM 10/03 A2985 RMK 60000 SLP163 T00960028 4////0044 57021 IEM_DS3505
ZBAA,1992-03-14 07:00,ZBAA 140700Z AUTO 32002KT 6SM 11/04 A2983 RMK T01100040 IEM_DS3505
ZBAA,1992-03-14 08:00,ZBAA 140800Z AUTO 06008KT 6SM 12/05 A2985 RMK T01200050 IEM_DS3505
ZBAA,1992-03-14 09:00,ZBAA 140900Z AUTO 36010KT 7SM 13/M00 A2985 RMK SLP161 T01321004 57002 IEM_DS3505
ZBAA,1992-03-14 10:00,ZBAA 141000Z AUTO 15002KT 6SM 10/05 A2988 RMK T01000050 IEM_DS3505
ZBAA,1992-03-14 11:00,ZBAA 141100Z AUTO 00000KT 6SM 09/04 A2994 RMK T00900040 IEM_DS3505
ZBAA,1992-03-14 12:00,ZBAA 141200Z AUTO 34010KT 12SM 10/M04 A2997 RMK SLP208 T01031039 52046 IEM_DS3505
ZBAA,1992-03-14 13:00,ZBAA 141300Z AUTO 01008KT 6SM 09/M01 A3000 RMK T00901010 IEM_DS3505
ZBAA,1992-03-14 14:00,ZBAA 141400Z AUTO 01008KT 6SM 08/M04 A3003 RMK T00801040 IEM_DS3505
ZBAA,1992-03-14 15:00,ZBAA 141500Z AUTO 02006KT 12SM 08/M04 A3006 RMK SLP228 T00831037 52020 IEM_DS3505
ZBAA,1992-03-14 16:00,ZBAA 141600Z AUTO 01004KT 6SM 07/M03 A3006 RMK T00701030 IEM_DS3505
ZBAA,1992-03-14 17:00,ZBAA 141700Z AUTO 35008KT 6SM 07/M03 A3009 RMK T00701030 IEM_DS3505
ZBAA,1992-03-14 18:00,ZBAA 141800Z AUTO 36008KT 6SM 07/M04 A3012 RMK T00701040 IEM_DS3505
ZBAA,1992-03-14 19:00,ZBAA 141900Z AUTO 35008KT 6SM 06/M04 A3012 RMK T00601040 IEM_DS3505
ZBAA,1992-03-14 20:00,ZBAA 142000Z AUTO 02008KT 6SM 06/M04 A3012 RMK T00601040 IEM_DS3505
ZBAA,1992-03-14 21:00,ZBAA 142100Z AUTO 04006KT 9SM 07/M05 RMK SLP250 T00711053 52002 IEM_DS3505
ZBAA,1992-03-14 23:00,ZBAA 142300Z AUTO 05004KT 6SM 05/M03 A3015 RMK T00501030 IEM_DS3505
ZBAA,1992-03-15 00:00,ZBAA 150000Z AUTO 09004KT 16SM 07/M04 A3018 RMK 70000 SLP274 T00661045 52023 IEM_DS3505
ZBAA,1992-03-15 01:00,ZBAA 150100Z AUTO 06004KT 6SM 06/M03 A3021 RMK T00601030 IEM_DS3505
ZBAA,1992-03-15 02:00,ZBAA 150200Z AUTO 08006KT 6SM 07/M03 A3021 RMK T00701030 IEM_DS3505
ZBAA,1992-03-15 03:00,ZBAA 150300Z AUTO 16006KT 12SM 07/M02 RMK SLP280 T00721024 52006 IEM_DS3505
ZBAA,1992-03-15 04:00,ZBAA 150400Z AUTO 04006KT 6SM 08/M04 A3021 RMK T00801040 IEM_DS3505
ZBAA,1992-03-15 05:00,ZBAA 150500Z AUTO 07004KT 6SM 08/M04 A3018 RMK T00801040 IEM_DS3505
ZBAA,1992-03-15 06:00,ZBAA 150600Z AUTO 20004KT 16SM 09/M02 A3015 RMK SLP265 T00881022 4////0059 57015 IEM_DS3505
ZBAA,1992-03-15 07:00,ZBAA 150700Z AUTO 09004KT 6SM 10/M05 A3012 RMK T01001050 IEM_DS3505
ZBAA,1992-03-15 08:00,ZBAA 150800Z AUTO 19002KT 6SM 10/M05 A3024 RMK T01001050 IEM_DS3505
ZBAA,1992-03-15 09:00,ZBAA 150900Z AUTO 25004KT 12SM 09/M03 RMK SLP257 T00921030 57008 IEM_DS3505
ZBAA,1992-03-15 10:00,ZBAA 151000Z AUTO 14002KT 6SM 08/M05 A3012 RMK T00801050 IEM_DS3505
ZBAA,1992-03-15 11:00,ZBAA 151100Z AUTO 18004KT 6SM 07/M03 A3015 RMK T00701030 IEM_DS3505
ZBAA,1992-03-15 12:00,ZBAA 151200Z AUTO 20004KT 9SM 08/M02 A3018 RMK SLP272 T00791021 52015 IEM_DS3505
ZBAA,1992-03-15 13:00,ZBAA 151300Z AUTO 33006KT 6SM 06/M03 A3021 RMK T00601030 IEM_DS3505
ZBAA,1992-03-15 14:00,ZBAA 151400Z AUTO 34006KT 6SM 05/M10 A3027 RMK T00501100 IEM_DS3505
ZBAA,1992-03-15 15:00,ZBAA 151500Z AUTO 34010KT 12SM 04/M16 A3033 RMK SLP309 T00421156 52036 IEM_DS3505
ZBAA,1992-03-15 16:00,ZBAA 151600Z AUTO 01012KT 6SM 03/M12 A3033 RMK T00301120 IEM_DS3505
ZBAA,1992-03-15 17:00,ZBAA 151700Z AUTO 03012KT 6SM 02/M12 A3033 RMK T00201120 IEM_DS3505
ZBAA,1992-03-15 18:00,ZBAA 151800Z AUTO 36017KT 16SM 02/M15 A3036 RMK SLP334 T00221154 40099//// 52025 IEM_DS3505
ZBAA,1992-03-15 19:00,ZBAA 151900Z AUTO 03014KT 6SM 01/M12 A3039 RMK T00101120 IEM_DS3505
ZBAA,1992-03-15 20:00,ZBAA 152000Z AUTO 03010KT 6SM 00/M13 A3039 RMK T00001130 IEM_DS3505
ZBAA,1992-03-15 21:00,ZBAA 152100Z AUTO 02010KT 16SM 00/M16 A3042 RMK SLP346 T00041159 52012 IEM_DS3505
ZBAA,1992-03-15 23:00,ZBAA 152300Z AUTO 34010KT 6SM M01/M13 A3045 RMK T10101130 IEM_DS3505
ZBAA,1992-03-16 00:00,ZBAA 160000Z AUTO 36010KT 16SM M00/M16 A3045 RMK SLP354 T10031164 52007 IEM_DS3505
ZBAA,1992-03-16 01:00,ZBAA 160100Z AUTO 03008KT 6SM 01/M13 A3045 RMK T00101130 IEM_DS3505
ZBAA,1992-03-16 02:00,ZBAA 160200Z AUTO 02010KT 6SM 02/M15 A3056 RMK T00201150 IEM_DS3505
ZBAA,1992-03-16 03:00,ZBAA 160300Z AUTO 34004KT 19SM 03/M21 A3042 RMK SLP353 T00291210 57001 IEM_DS3505
ZBAA,1992-03-16 04:00,ZBAA 160400Z AUTO 35008KT 6SM 04/M15 A3042 RMK T00401150 IEM_DS3505
ZBAA,1992-03-16 05:00,ZBAA 160500Z AUTO 33006KT 6SM 05/M15 A3036 RMK T00501150 IEM_DS3505
ZBAA,1992-03-16 06:00,ZBAA 160600Z AUTO 04004KT 19SM 06/M22 A3033 RMK SLP317 T00561221 4////1009 57035 IEM_DS3505
ZBAA,1992-03-16 07:00,ZBAA 160700Z AUTO 32004KT 6SM 06/M15 A3033 RMK T00601150 IEM_DS3505
ZBAA,1992-03-16 08:00,ZBAA 160800Z AUTO 32004KT 6SM 06/M16 A3027 RMK T00601160 IEM_DS3505
ZBAA,1992-03-16 09:00,ZBAA 160900Z AUTO 22004KT 19SM 06/M20 A3024 RMK SLP296 T00651205 57021 IEM_DS3505
ZBAA,1992-03-16 11:00,ZBAA 161100Z AUTO 18006KT 6SM 04/M14 A3027 RMK T00401140 IEM_DS3505
ZBAA,1992-03-16 12:00,ZBAA 161200Z AUTO 20008KT 12SM 04/M16 A3027 RMK SLP304 T00451156 52007 IEM_DS3505
ZBAA,1992-03-16 14:00,ZBAA 161400Z AUTO 16006KT 6SM 03/M14 A3039 RMK T00301140 IEM_DS3505
ZBAA,1992-03-16 15:00,ZBAA 161500Z AUTO 20008KT 12SM 03/M17 A3027 RMK SLP301 T00271173 57003 IEM_DS3505
ZBAA,1992-03-16 16:00,ZBAA 161600Z AUTO 17006KT 6SM 01/M13 A3027 RMK T00101130 IEM_DS3505
ZBAA,1992-03-16 17:00,ZBAA 161700Z AUTO 18006KT 6SM 01/M13 A3024 RMK T00101130 IEM_DS3505
ZBAA,1992-03-16 18:00,ZBAA 161800Z AUTO 20002KT 12SM 01/M12 RMK SLP285 T00061120 40077//// 57015 IEM_DS3505
ZBAA,1992-03-16 19:00,ZBAA 161900Z AUTO 06004KT 6SM M02/M11 A3018 RMK T10201110 IEM_DS3505
ZBAA,1992-03-16 20:00,ZBAA 162000Z AUTO 10002KT 6SM M02/M11 A3015 RMK T10201110 IEM_DS3505
ZBAA,1992-03-16 21:00,ZBAA 162100Z AUTO 20002KT 12SM 01/M12 RMK SLP286 T00061120 57015 IEM_DS3505
ZBAA,1992-03-16 23:00,ZBAA 162300Z AUTO 05002KT 6SM M04/M09 A3018 RMK T10401090 IEM_DS3505
ZBAA,1992-03-17 00:00,ZBAA 170000Z AUTO 00000KT 4SM M01/M10 A3018 RMK SLP275 T10061097 52010 IEM_DS3505
ZBAA,1992-03-17 01:00,ZBAA 170100Z AUTO 10004KT 6SM M01/M08 RMK T10101080 IEM_DS3505
ZBAA,1992-03-17 02:00,ZBAA 170200Z AUTO 04004KT 7SM 02/M08 A3018 RMK T00201080 IEM_DS3505
ZBAA,1992-03-17 03:00,ZBAA 170300Z AUTO 02004KT 2 1/2SM 05/M11 A3015 RMK SLP260 T00501114 57014 IEM_DS3505
ZBAA,1992-03-17 04:00,ZBAA 170400Z AUTO 13002KT 7SM 05/M10 A3009 RMK T00501100 IEM_DS3505
ZBAA,1992-03-17 05:00,ZBAA 170500Z AUTO 00000KT 7SM 08/M08 A3006 RMK T00801080 IEM_DS3505
ZBAA,1992-03-17 06:00,ZBAA 170600Z AUTO 16006KT 4SM 09/M12 A3003 RMK SLP226 T00901119 4////1026 57034 IEM_DS3505
ZBAA,1992-03-17 07:00,ZBAA 170700Z AUTO 16010KT 7SM 10/M09 A3000 RMK T01001090 IEM_DS3505
ZBAA,1992-03-17 08:00,ZBAA 170800Z AUTO 19012KT 7SM 10/M09 A3000 RMK T01001090 IEM_DS3505
ZBAA,1992-03-17 09:00,ZBAA 170900Z AUTO 20012KT 4SM 09/M11 RMK SLP210 T00901106 57016 IEM_DS3505
ZBAA,1992-03-17 10:00,ZBAA 171000Z AUTO 19010KT 7SM 08/M08 A2997 RMK T00801080 IEM_DS3505
ZBAA,1992-03-17 12:00,ZBAA 171200Z AUTO 18006KT 6SM 07/M10 A3000 RMK SLP214 T00691095 52004 IEM_DS3505
ZBAA,1992-03-17 13:00,ZBAA 171300Z AUTO 17010KT 7SM 05/M08 A3003 RMK T00501080 IEM_DS3505
ZBAA,1992-03-17 14:00,ZBAA 171400Z AUTO 16006KT 7SM 05/M07 A3003 RMK T00501070 IEM_DS3505
ZBAA,1992-03-17 15:00,ZBAA 171500Z AUTO 20006KT 7SM 05/M07 RMK SLP221 T00461068 52008 IEM_DS3505
ZBAA,1992-03-17 18:00,ZBAA 171800Z AUTO 20002KT 7SM 03/M05 RMK SLP214 T00261052 40101//// 57007 IEM_DS3505
ZBAA,1992-03-17 20:00,ZBAA 172000Z AUTO 07004KT 7SM M01/M06 A2997 RMK T10101060 IEM_DS3505
ZBAA,1992-03-17 21:00,ZBAA 172100Z AUTO 04004KT 7SM 01/M06 A2997 RMK SLP208 T00081057 57006 IEM_DS3505
ZBAA,1992-03-17 22:00,ZBAA 172200Z AUTO 05004KT 7SM M02/M06 A2997 RMK T10201060 IEM_DS3505
ZBAA,1992-03-17 23:00,ZBAA 172300Z AUTO 07004KT 7SM M02/M06 A2997 RMK T10201060 IEM_DS3505
ZBAA,1992-03-18 00:00,ZBAA 180000Z AUTO 34002KT 2 1/2SM 00/M05 RMK SLP212 T00051050 52003 IEM_DS3505
ZBAA,1992-03-18 01:00,ZBAA 180100Z AUTO 10002KT 6SM 01/M05 A3000 RMK T00101050 IEM_DS3505
ZBAA,1992-03-18 03:00,ZBAA 180300Z AUTO 02004KT 2 1/2SM 06/M05 A2997 RMK SLP210 T00621046 57001 IEM_DS3505
ZBAA,1992-03-18 05:00,ZBAA 180500Z AUTO 15004KT 5SM 09/M02 A2991 RMK T00901020 IEM_DS3505
ZBAA,1992-03-18 06:00,ZBAA 180600Z AUTO 16004KT 2 1/2SM 11/M03 A2988 RMK SLP183 T01121031 4////1009 57027 IEM_DS3505
ZBAA,1992-03-18 07:00,ZBAA 180700Z AUTO 19008KT 5SM 12/M01 A2988 RMK T01201010 IEM_DS3505
ZBAA,1992-03-18 08:00,ZBAA 180800Z AUTO 19008KT 5SM 12/M01 A2988 RMK T01201010 IEM_DS3505
ZBAA,1992-03-18 09:00,ZBAA 180900Z AUTO 27004KT 2 1/2SM 13/M01 A2988 RMK SLP178 T01261014 57005 IEM_DS3505
ZBAA,1992-03-18 10:00,ZBAA 181000Z AUTO 36002KT 4SM 11/M02 A2991 RMK T01101020 IEM_DS3505
ZBAA,1992-03-18 11:00,ZBAA 181100Z AUTO 00000KT 4SM 09/M01 A2991 RMK T00901010 IEM_DS3505
ZBAA,1992-03-18 12:00,ZBAA 181200Z AUTO 36006KT 1 1/4SM 09/M02 A2997 RMK SLP210 T00931017 52032 IEM_DS3505
ZBAA,1992-03-18 13:00,ZBAA 181300Z AUTO 36006KT 4SM 07/M01 A3000 RMK T00701010 IEM_DS3505
ZBAA,1992-03-18 14:00,ZBAA 181400Z AUTO 01010KT 5SM 07/M02 A3006 RMK T00701020 IEM_DS3505
ZBAA,1992-03-18 15:00,ZBAA 181500Z AUTO 02008KT 7SM 08/M09 A3009 RMK SLP243 T00821090 52033 IEM_DS3505
ZBAA,1992-03-18 16:00,ZBAA 181600Z AUTO 36010KT 7SM 06/M09 A3009 RMK T00601090 IEM_DS3505
ZBAA,1992-03-18 18:00,ZBAA 181800Z AUTO 02010KT 12SM 06/M14 RMK SLP258 T00581142 40126//// 52015 IEM_DS3505
ZBAA,1992-03-18 20:00,ZBAA 182000Z AUTO 02016KT 7SM 02/M14 A3018 RMK T00201140 IEM_DS3505
ZBAA,1992-03-18 21:00,ZBAA 182100Z AUTO 02010KT 12SM 02/M16 A3021 RMK SLP278 T00241164 52020 IEM_DS3505
ZBAA,1992-03-18 22:00,ZBAA 182200Z AUTO 03016KT 7SM 00/M16 A3024 RMK T00001160 IEM_DS3505
ZBAA,1992-03-18 23:00,ZBAA 182300Z AUTO 04016KT 7SM 00/M17 A3030 RMK T00001170 IEM_DS3505
ZBAA,1992-03-19 00:00,ZBAA 190000Z AUTO 04012KT 9SM 01/M20 A3033 RMK SLP317 T00091203 52038 IEM_DS3505
ZBAA,1992-03-19 01:00,ZBAA 190100Z AUTO 05019KT 6SM 02/M17 A3036 RMK T00201170 IEM_DS3505
ZBAA,1992-03-19 02:00,ZBAA 190200Z AUTO 05017KT 6SM 03/M18 A3039 RMK T00301180 IEM_DS3505
ZBAA,1992-03-19 03:00,ZBAA 190300Z AUTO 09006KT 12SM 03/M20 A3039 RMK SLP344 T00301197 52027 IEM_DS3505
ZBAA,1992-03-19 04:00,ZBAA 190400Z AUTO 05014KT 6SM 06/M18 A3036 RMK T00601180 IEM_DS3505
ZBAA,1992-03-19 05:00,ZBAA 190500Z AUTO 04006KT 6SM 06/M19 A3036 RMK T00601190 IEM_DS3505
ZBAA,1992-03-19 06:00,ZBAA 190600Z AUTO 14004KT 11SM 07/M21 A3033 RMK SLP322 T00661214 4////0006 57022 IEM_DS3505
ZBAA,1992-03-19 07:00,ZBAA 190700Z AUTO 17004KT 6SM 07/M18 A3030 RMK T00701180 IEM_DS3505
ZBAA,1992-03-19 08:00,ZBAA 190800Z AUTO 21004KT 6SM 07/M17 A3027 RMK T00701170 IEM_DS3505
ZBAA,1992-03-19 09:00,ZBAA 190900Z AUTO 18006KT 12SM 07/M18 A3027 RMK SLP298 T00721177 57024 IEM_DS3505
ZBAA,1992-03-19 10:00,ZBAA 191000Z AUTO 15004KT 6SM 06/M15 A3027 RMK T00601150 IEM_DS3505
ZBAA,1992-03-19 11:00,ZBAA 191100Z AUTO 17012KT 6SM 04/M07 A3027 RMK T00401070 IEM_DS3505
ZBAA,1992-03-19 12:00,ZBAA 191200Z AUTO 18010KT 7SM 04/M09 A3030 RMK SLP312 T00361092 52013 IEM_DS3505
ZBAA,1992-03-19 13:00,ZBAA 191300Z AUTO 18012KT 6SM 02/M08 A3033 RMK T00201080 IEM_DS3505
ZBAA,1992-03-19 14:00,ZBAA 191400Z AUTO 16010KT 6SM 01/M07 A3033 RMK T00101070 IEM_DS3505
ZBAA,1992-03-19 15:00,ZBAA 191500Z AUTO 20010KT 9SM 01/M10 A3036 RMK SLP322 T00131102 52010 IEM_DS3505
ZBAA,1992-03-19 18:00,ZBAA 191800Z AUTO 16004KT 9SM 01/M12 RMK SLP316 T00111117 40076//// 57005 IEM_DS3505
ZBAA,1992-03-19 19:00,ZBAA 191900Z AUTO 08004KT 6SM M01/M08 A3033 RMK T10101080 IEM_DS3505
ZBAA,1992-03-19 20:00,ZBAA 192000Z AUTO 08004KT 6SM M01/M07 A3030 RMK T10101070 IEM_DS3505
ZBAA,1992-03-19 21:00,ZBAA 192100Z AUTO 04006KT 9SM 00/M07 A3030 RMK SLP313 T00001073 57003 IEM_DS3505
ZBAA,1992-03-19 22:00,ZBAA 192200Z AUTO 06002KT 6SM M01/M08 A3030 RMK T10101080 IEM_DS3505
ZBAA,1992-03-19 23:00,ZBAA 192300Z AUTO 02002KT 6SM 00/M08 A3033 RMK T00001080 IEM_DS3505
ZBAA,1992-03-20 00:00,ZBAA 200000Z AUTO 04004KT 7SM 00/M06 RMK SLP321 T00041059 52007 IEM_DS3505
ZBAA,1992-03-20 01:00,ZBAA 200100Z AUTO 36004KT 6SM 01/M09 A3033 RMK T00101090 IEM_DS3505
ZBAA,1992-03-20 02:00,ZBAA 200200Z AUTO 35006KT 6SM 02/M09 A3036 RMK T00201090 IEM_DS3505
ZBAA,1992-03-20 03:00,ZBAA 200300Z AUTO 34006KT 5SM 01/M04 A3036 RMK SLP326 T00061043 52005 IEM_DS3505
ZBAA,1992-03-20 04:00,ZBAA 200400Z AUTO 27004KT 7SM 01/M05 A3033 RMK T00101050 IEM_DS3505
ZBAA,1992-03-20 05:00,ZBAA 200500Z AUTO 29004KT 6SM 01/M04 A3030 RMK T00101040 IEM_DS3505
ZBAA,1992-03-20 06:00,ZBAA 200600Z AUTO 02004KT 4SM 01/M02 A3030 RMK SLP311 T00121024 4////1002 57015 IEM_DS3505
ZBAA,1992-03-20 07:00,ZBAA 200700Z AUTO 30004KT 2 1/2SM 01/M02 A3030 RMK T00101020 IEM_DS3505
ZBAA,1992-03-20 08:00,ZBAA 200800Z AUTO 29002KT 2SM 00/M01 A3030 RMK T00001010 IEM_DS3505
ZBAA,1992-03-20 09:00,ZBAA 200900Z AUTO 34002KT 2SM 00/M01 A3030 RMK SLP310 T00041008 57001 IEM_DS3505
ZBAA,1992-03-20 10:00,ZBAA 201000Z AUTO 18002KT 2 1/2SM 00/00 A3030 RMK T00000000 IEM_DS3505
ZBAA,1992-03-20 11:00,ZBAA 201100Z AUTO 20002KT 2 1/2SM 00/M01 A3033 RMK T00001010 IEM_DS3505
ZBAA,1992-03-20 12:00,ZBAA 201200Z AUTO 27004KT 2SM 01/M01 A3033 RMK 60001 SLP323 T00061011 52013 IEM_DS3505
ZBAA,1992-03-20 13:00,ZBAA 201300Z AUTO 31002KT 1 1/2SM 00/M01 A3036 RMK T00001010 IEM_DS3505
ZBAA,1992-03-20 14:00,ZBAA 201400Z AUTO 00000KT 1 1/2SM 00/M01 A3036 RMK T00001010 IEM_DS3505
ZBAA,1992-03-20 15:00,ZBAA 201500Z AUTO 00000KT 2SM M00/M02 A3036 RMK SLP328 T10011023 52005 IEM_DS3505
ZBAA,1992-03-20 16:00,ZBAA 201600Z AUTO 00000KT 1SM M01/M03 A3036 RMK T10101030 IEM_DS3505
ZBAA,1992-03-20 18:00,ZBAA 201800Z AUTO 00000KT 1 1/4SM M01/M02 RMK SLP331 T10131022 40019//// 52003 IEM_DS3505
ZBAA,1992-03-20 20:00,ZBAA 202000Z AUTO 33002KT 1SM A3047 RMK IEM_DS3505
ZBAA,1992-03-20 21:00,ZBAA 202100Z AUTO 02004KT 1SM M02/M03 A3039 RMK SLP336 T10251028 52004 IEM_DS3505
ZBAA,1992-03-20 22:00,ZBAA 202200Z AUTO 32004KT 1 1/4SM M03/M03 A3039 RMK T10301030 IEM_DS3505
ZBAA,1992-03-20 23:00,ZBAA 202300Z AUTO 34004KT 1SM M03/M03 A3042 RMK T10301030 IEM_DS3505
ZBAA,1992-03-21 00:00,ZBAA 210000Z AUTO 04004KT 1 1/2SM M00/M02 A3042 RMK 70001 SLP351 T10051017 52015 IEM_DS3505
ZBAA,1992-03-21 01:00,ZBAA 210100Z AUTO 02006KT 7SM 02/M03 A3045 RMK T00201030 IEM_DS3505
ZBAA,1992-03-21 02:00,ZBAA 210200Z AUTO 02008KT 7SM 05/M11 A3045 RMK T00501110 IEM_DS3505
ZBAA,1992-03-21 03:00,ZBAA 210300Z AUTO 04008KT 4SM 05/M08 A3042 RMK SLP348 T00491084 57002 IEM_DS3505
ZBAA,1992-03-21 04:00,ZBAA 210400Z AUTO 05006KT 7SM 07/M13 A3039 RMK T00701130 IEM_DS3505
ZBAA,1992-03-21 05:00,ZBAA 210500Z AUTO 33004KT 7SM 08/M13 A3036 RMK T00801130 IEM_DS3505
ZBAA,1992-03-21 06:00,ZBAA 210600Z AUTO 11004KT 7SM 08/M14 A3033 RMK SLP323 T00821144 4////1027 57025 IEM_DS3505
ZBAA,1992-03-21 07:00,ZBAA 210700Z AUTO 16006KT 6SM 08/M14 A3030 RMK T00801140 IEM_DS3505
ZBAA,1992-03-21 08:00,ZBAA 210800Z AUTO 16006KT 6SM 09/M15 A3030 RMK T00901150 IEM_DS3505
ZBAA,1992-03-21 09:00,ZBAA 210900Z AUTO 20008KT 6SM 08/M06 A3030 RMK SLP315 T00841062 57008 IEM_DS3505
ZBAA,1992-03-21 10:00,ZBAA 211000Z AUTO 17006KT 7SM 08/M14 A3030 RMK T00801140 IEM_DS3505
ZBAA,1992-03-21 11:00,ZBAA 211100Z AUTO 19006KT 7SM 07/00 A3042 RMK T00700000 IEM_DS3505
ZBAA,1992-03-21 12:00,ZBAA 211200Z AUTO 20006KT 6SM 06/M06 A3033 RMK SLP320 T00621060 52005 IEM_DS3505
ZBAA,1992-03-21 13:00,ZBAA 211300Z AUTO 19004KT 7SM 05/M06 A3033 RMK T00501060 IEM_DS3505
ZBAA,1992-03-21 14:00,ZBAA 211400Z AUTO 11002KT 7SM 03/M06 A3033 RMK T00301060 IEM_DS3505
ZBAA,1992-03-21 15:00,ZBAA 211500Z AUTO 20004KT 6SM 04/M08 RMK SLP328 T00451076 52009 IEM_DS3505
ZBAA,1992-03-21 18:00,ZBAA 211800Z AUTO 00000KT 6SM 01/M04 RMK SLP322 T00141042 40095//// 57006 IEM_DS3505
ZBAA,1992-03-21 20:00,ZBAA 212000Z AUTO 11004KT 5SM 00/M07 A3030 RMK T00001070 IEM_DS3505
ZBAA,1992-03-21 21:00,ZBAA 212100Z AUTO 02002KT 4SM 02/M04 A3033 RMK SLP314 T00221039 57008 IEM_DS3505
ZBAA,1992-03-21 22:00,ZBAA 212200Z AUTO 05002KT 4SM 00/M06 A3033 RMK T00001060 IEM_DS3505
ZBAA,1992-03-21 23:00,ZBAA 212300Z AUTO 00000KT 3SM 00/M05 A3033 RMK T00001050 IEM_DS3505
ZBAA,1992-03-22 00:00,ZBAA 220000Z AUTO 34004KT 3SM 02/M06 A3033 RMK SLP318 T00181056 52004 IEM_DS3505
ZBAA,1992-03-22 01:00,ZBAA 220100Z AUTO 09002KT 2 1/2SM 02/M04 A3033 RMK T00201040 IEM_DS3505
ZBAA,1992-03-22 02:00,ZBAA 220200Z AUTO 11002KT 2 1/2SM 03/M03 A3033 RMK T00301030 IEM_DS3505
ZBAA,1992-03-22 03:00,ZBAA 220300Z AUTO 34002KT 3SM 04/M06 A3030 RMK SLP314 T00431061 57004 IEM_DS3505
ZBAA,1992-03-22 04:00,ZBAA 220400Z AUTO 12002KT 2 1/2SM 05/M02 A3030 RMK T00501020 IEM_DS3505
ZBAA,1992-03-22 05:00,ZBAA 220500Z AUTO 13002KT 2 1/2SM 06/M02 A3027 RMK T00601020 IEM_DS3505
ZBAA,1992-03-22 06:00,ZBAA 220600Z AUTO 20004KT 4SM 06/M04 A3024 RMK SLP289 T00641044 4////0011 57025 IEM_DS3505
ZBAA,1992-03-22 07:00,ZBAA 220700Z AUTO 18006KT 2 1/2SM 07/M03 A3021 RMK T00701030 IEM_DS3505
ZBAA,1992-03-22 08:00,ZBAA 220800Z AUTO 23006KT 2 1/2SM 07/M04 A3021 RMK T00701040 IEM_DS3505
ZBAA,1992-03-22 09:00,ZBAA 220900Z AUTO 18004KT 3SM 07/M04 A3018 RMK SLP271 T00731038 57018 IEM_DS3505
ZBAA,1992-03-22 10:00,ZBAA 221000Z AUTO 13004KT 2 1/2SM 06/M02 A3018 RMK T00601020 IEM_DS3505
ZBAA,1992-03-22 11:00,ZBAA 221100Z AUTO 13006KT 4SM 05/M02 A3018 RMK T00501020 IEM_DS3505
ZBAA,1992-03-22 12:00,ZBAA 221200Z AUTO 20008KT 3SM 04/M01 A3018 RMK SLP274 T00431009 52003 IEM_DS3505
ZBAA,1992-03-22 14:00,ZBAA 221400Z AUTO 19006KT 4SM 04/00 A3021 RMK T00400000 IEM_DS3505
ZBAA,1992-03-22 15:00,ZBAA 221500Z AUTO 20008KT 1 1/4SM 03/00 RMK SLP276 T00270005 52002 IEM_DS3505
ZBAA,1992-03-22 18:00,ZBAA 221800Z AUTO 25006KT 2 1/2SM 02/M01 RMK SLP260 T00221006 40074//// 57016 IEM_DS3505
ZBAA,1992-03-22 21:00,ZBAA 222100Z AUTO 20008KT 2 1/2SM 02/M01 A3009 RMK SLP242 T00191012 57018 IEM_DS3505
ZBAA,1992-03-22 22:00,ZBAA 222200Z AUTO 16006KT 4SM 02/M01 A3009 RMK T00201010 IEM_DS3505
ZBAA,1992-03-22 23:00,ZBAA 222300Z AUTO 17004KT 4SM 01/M01 A3009 RMK T00101010 IEM_DS3505
ZBAA,1992-03-23 00:00,ZBAA 230000Z AUTO 18004KT 1 1/4SM 02/M00 A3009 RMK SLP246 T00171005 52004 IEM_DS3505
ZBAA,1992-03-23 01:00,ZBAA 230100Z AUTO 19008KT 1 1/4SM 02/00 A3009 RMK T00200000 IEM_DS3505
ZBAA,1992-03-23 02:00,ZBAA 230200Z AUTO 19010KT 1 1/4SM 03/00 A3009 RMK T00300000 IEM_DS3505
ZBAA,1992-03-23 03:00,ZBAA 230300Z AUTO 20006KT 2SM 04/00 A3006 RMK SLP242 T00350000 57004 IEM_DS3505
ZBAA,1992-03-23 04:00,ZBAA 230400Z AUTO 25002KT 2SM 04/00 A3006 RMK T00400000 IEM_DS3505
ZBAA,1992-03-23 05:00,ZBAA 230500Z AUTO 17004KT 2SM 04/00 A3003 RMK T00400000 IEM_DS3505
ZBAA,1992-03-23 06:00,ZBAA 230600Z AUTO 22006KT 3SM 06/M01 A3000 RMK SLP220 T00571010 4////0012 57022 IEM_DS3505
ZBAA,1992-03-23 07:00,ZBAA 230700Z AUTO 24002KT 2SM 05/M01 A3000 RMK T00501010 IEM_DS3505
ZBAA,1992-03-23 09:00,ZBAA 230900Z AUTO 18006KT 4SM 06/M01 A2994 RMK SLP202 T00561008 57018 IEM_DS3505
ZBAA,1992-03-23 10:00,ZBAA 231000Z AUTO 19008KT 2 1/2SM 05/M01 A2994 RMK T00501010 IEM_DS3505
ZBAA,1992-03-23 12:00,ZBAA 231200Z AUTO 20008KT 6SM 05/M01 A2994 RMK SLP203 T00471010 52001 IEM_DS3505
ZBAA,1992-03-23 15:00,ZBAA 231500Z AUTO 20004KT 4SM 04/M01 RMK SLP197 T00431009 57006 IEM_DS3505
ZBAA,1992-03-23 18:00,ZBAA 231800Z AUTO 20004KT 4SM 04/M00 RMK SLP190 T00421004 40061//// 57006 IEM_DS3505
ZBAA,1992-03-23 21:00,ZBAA 232100Z AUTO 25002KT 1 1/4SM 03/M00 RMK SLP172 T00281002 57018 IEM_DS3505
ZBAA,1992-03-23 22:00,ZBAA 232200Z AUTO 00000KT 3SM 01/M02 A3000 RMK T00101020 IEM_DS3505
ZBAA,1992-03-23 23:00,ZBAA 232300Z AUTO 00000KT 1 1/4SM 01/M01 A2988 RMK T00101010 IEM_DS3505
ZBAA,1992-03-24 00:00,ZBAA 240000Z AUTO 22004KT 2SM 04/M00 A2988 RMK SLP182 T00371004 52010 IEM_DS3505
ZBAA,1992-03-24 02:00,ZBAA 240200Z AUTO 21004KT 2SM 08/01 A3000 RMK T00800010 IEM_DS3505
ZBAA,1992-03-24 03:00,ZBAA 240300Z AUTO 20002KT 4SM 10/M00 A2985 RMK SLP173 T01051002 57009 IEM_DS3505
ZBAA,1992-03-24 04:00,ZBAA 240400Z AUTO 29021G31KT 7SM 12/M07 A2985 RMK T01201070 IEM_DS3505
ZBAA,1992-03-24 05:00,ZBAA 240500Z AUTO 29019KT 7SM 13/M08 A2983 RMK T01301080 IEM_DS3505
ZBAA,1992-03-24 06:00,ZBAA 240600Z AUTO 32010KT 6SM 14/M11 A2985 RMK SLP164 T01391113 4////0006 57008 IEM_DS3505
ZBAA,1992-03-24 07:00,ZBAA 240700Z AUTO 31012KT 6SM 14/M10 A2983 RMK T01401100 IEM_DS3505
ZBAA,1992-03-24 08:00,ZBAA 240800Z AUTO 33016KT 6SM 14/M11 A2983 RMK T01401110 IEM_DS3505
ZBAA,1992-03-24 09:00,ZBAA 240900Z AUTO 32008KT 12SM 14/M12 A2985 RMK SLP166 T01361116 52002 IEM_DS3505
ZBAA,1992-03-24 10:00,ZBAA 241000Z AUTO 30008KT 7SM 12/M11 A2985 RMK T01201110 IEM_DS3505
ZBAA,1992-03-24 11:00,ZBAA 241100Z AUTO 30008KT 7SM 11/M11 A2988 RMK T01101110 IEM_DS3505
ZBAA,1992-03-24 12:00,ZBAA 241200Z AUTO 29008KT 12SM 11/M09 A2991 RMK SLP194 T01071088 52027 IEM_DS3505
ZBAA,1992-03-24 13:00,ZBAA 241300Z AUTO 28008KT 7SM 08/M06 A2994 RMK T00801060 IEM_DS3505
ZBAA,1992-03-24 15:00,ZBAA 241500Z AUTO 29006KT 9SM 08/M06 A2997 RMK SLP212 T00841056 52019 IEM_DS3505
ZBAA,1992-03-24 16:00,ZBAA 241600Z AUTO 29010KT 7SM 06/M05 A2997 RMK T00601050 IEM_DS3505
ZBAA,1992-03-24 18:00,ZBAA 241800Z AUTO 20006KT 9SM 08/M09 RMK SLP210 T00761091 40139//// 57002 IEM_DS3505
ZBAA,1992-03-24 20:00,ZBAA 242000Z AUTO 30008KT 7SM 06/M07 A2997 RMK T00601070 IEM_DS3505
ZBAA,1992-03-24 21:00,ZBAA 242100Z AUTO 29006KT 9SM 06/M12 A3000 RMK SLP210 T00611119 54000 IEM_DS3505
ZBAA,1992-03-24 22:00,ZBAA 242200Z AUTO 29008KT 7SM 05/M09 A3000 RMK T00501090 IEM_DS3505
ZBAA,1992-03-24 23:00,ZBAA 242300Z AUTO 33002KT 7SM 05/M10 A3003 RMK T00501100 IEM_DS3505
ZBAA,1992-03-25 00:00,ZBAA 250000Z AUTO 36002KT 6SM 08/M12 A3006 RMK SLP232 T00841122 52022 IEM_DS3505
ZBAA,1992-03-25 01:00,ZBAA 250100Z AUTO 01006KT 7SM 09/M07 A3006 RMK T00901070 IEM_DS3505
ZBAA,1992-03-25 02:00,ZBAA 250200Z AUTO 35008KT 7SM 12/M06 A3006 RMK T01201060 IEM_DS3505
ZBAA,1992-03-25 03:00,ZBAA 250300Z AUTO 36008KT 12SM 13/M12 A3006 RMK SLP235 T01271117 52003 IEM_DS3505
ZBAA,1992-03-25 04:00,ZBAA 250400Z AUTO 36004KT 7SM 14/M07 A3003 RMK T01401070 IEM_DS3505
ZBAA,1992-03-25 05:00,ZBAA 250500Z AUTO 34004KT 7SM 15/M07 A3000 RMK T01501070 IEM_DS3505
ZBAA,1992-03-25 06:00,ZBAA 250600Z AUTO 18002KT 12SM 16/M11 A3009 RMK SLP206 T01561110 4////0042 57029 IEM_DS3505
ZBAA,1992-03-25 07:00,ZBAA 250700Z AUTO 33004KT 7SM 16/M09 A3009 RMK T01601090 IEM_DS3505
ZBAA,1992-03-25 08:00,ZBAA 250800Z AUTO 05004KT 7SM 15/M10 A2994 RMK T01501100 IEM_DS3505
ZBAA,1992-03-25 09:00,ZBAA 250900Z AUTO 14006KT 19SM 15/M15 A2994 RMK SLP200 T01481146 57006 IEM_DS3505
ZBAA,1992-03-25 10:00,ZBAA 251000Z AUTO 13004KT 7SM 14/M10 A3006 RMK T01401100 IEM_DS3505
ZBAA,1992-03-25 11:00,ZBAA 251100Z AUTO 11004KT 7SM 12/M09 A3009 RMK T01201090 IEM_DS3505
ZBAA,1992-03-25 12:00,ZBAA 251200Z AUTO 20004KT 7SM 12/M09 A3000 RMK SLP211 T01241093 52011 IEM_DS3505
ZBAA,1992-03-25 13:00,ZBAA 251300Z AUTO 19006KT 7SM 10/M09 A3000 RMK T01001090 IEM_DS3505
ZBAA,1992-03-25 14:00,ZBAA 251400Z AUTO 20006KT 7SM 10/M09 A3003 RMK T01001090 IEM_DS3505
ZBAA,1992-03-25 15:00,ZBAA 251500Z AUTO 22004KT 9SM 09/M10 A3003 RMK SLP226 T00921095 52015 IEM_DS3505
ZBAA,1992-03-25 16:00,ZBAA 251600Z AUTO 17006KT 7SM 09/M09 A3003 RMK T00901090 IEM_DS3505
ZBAA,1992-03-25 18:00,ZBAA 251800Z AUTO 29002KT 9SM 06/M06 RMK SLP227 T00591064 40164//// 52001 IEM_DS3505
ZBAA,1992-03-25 20:00,ZBAA 252000Z AUTO 00000KT 7SM 02/M07 A3003 RMK T00201070 IEM_DS3505
ZBAA,1992-03-25 21:00,ZBAA 252100Z AUTO 02002KT 9SM 05/M06 A3003 RMK SLP223 T00461060 57004 IEM_DS3505
ZBAA,1992-03-25 23:00,ZBAA 252300Z AUTO 03002KT 7SM 03/M06 A3006 RMK T00301060 IEM_DS3505
ZBAA,1992-03-26 00:00,ZBAA 260000Z AUTO 02004KT 5SM 06/M06 RMK SLP235 T00581057 52011 IEM_DS3505
ZBAA,1992-03-26 02:00,ZBAA 260200Z AUTO 11002KT 7SM 10/M05 A3009 RMK T01001050 IEM_DS3505
ZBAA,1992-03-26 03:00,ZBAA 260300Z AUTO 16002KT 3SM 13/M08 A3006 RMK SLP238 T01261082 52004 IEM_DS3505
ZBAA,1992-03-26 04:00,ZBAA 260400Z AUTO 19010KT 7SM 14/M06 A3003 RMK T01401060 IEM_DS3505
ZBAA,1992-03-26 05:00,ZBAA 260500Z AUTO 16008KT 7SM 16/M05 A3000 RMK T01601050 IEM_DS3505
ZBAA,1992-03-26 06:00,ZBAA 260600Z AUTO 20008KT 4SM 16/M07 A2997 RMK SLP209 T01591066 4////0034 57029 IEM_DS3505
ZBAA,1992-03-26 07:00,ZBAA 260700Z AUTO 18010KT 7SM 17/M04 A2997 RMK T01701040 IEM_DS3505
ZBAA,1992-03-26 08:00,ZBAA 260800Z AUTO 19008KT 7SM 16/M05 A3006 RMK T01601050 IEM_DS3505
ZBAA,1992-03-26 09:00,ZBAA 260900Z AUTO 20010KT 2 1/2SM 16/M07 A2994 RMK SLP196 T01561067 57013 IEM_DS3505
ZBAA,1992-03-26 10:00,ZBAA 261000Z AUTO 19010KT 7SM 15/M05 A2994 RMK T01501050 IEM_DS3505
ZBAA,1992-03-26 11:00,ZBAA 261100Z AUTO 19004KT 7SM 13/M04 A2997 RMK T01301040 IEM_DS3505
ZBAA,1992-03-26 12:00,ZBAA 261200Z AUTO 16006KT 4SM 14/M05 A2997 RMK SLP203 T01351051 52007 IEM_DS3505
ZBAA,1992-03-26 13:00,ZBAA 261300Z AUTO 14002KT 6SM 11/M04 A3000 RMK T01101040 IEM_DS3505
ZBAA,1992-03-26 14:00,ZBAA 261400Z AUTO 17006KT 6SM 11/M05 A3000 RMK T01101050 IEM_DS3505
ZBAA,1992-03-26 15:00,ZBAA 261500Z AUTO 16004KT 6SM 11/M05 RMK SLP225 T01071053 52022 IEM_DS3505
ZBAA,1992-03-26 18:00,ZBAA 261800Z AUTO 20002KT 6SM 10/M04 RMK SLP224 T00951045 40167//// 57001 IEM_DS3505
ZBAA,1992-03-26 20:00,ZBAA 262000Z AUTO 06002KT 6SM 07/M03 A3003 RMK T00701030 IEM_DS3505
ZBAA,1992-03-26 21:00,ZBAA 262100Z AUTO 04004KT 6SM 08/M03 A3003 RMK SLP225 T00811028 52001 IEM_DS3505
ZBAA,1992-03-26 22:00,ZBAA 262200Z AUTO 03002KT 6SM 07/M03 A3003 RMK T00701030 IEM_DS3505
ZBAA,1992-03-26 23:17,ZBAA 262317Z AUTO 6SM RMK IEM_DS3505
ZBAA,1992-03-27 00:00,ZBAA 270000Z AUTO 02004KT 6SM 08/M02 A3006 RMK SLP233 T00841024 52008 IEM_DS3505
ZBAA,1992-03-27 01:00,ZBAA 270100Z AUTO 18006KT 6SM 16/M06 A3009 RMK SLP207 T01631060 52020 IEM_DS3505
ZBAA,1992-03-27 02:00,ZBAA 270200Z AUTO 11006KT 6SM 11/M02 A3009 RMK T01101020 IEM_DS3505
ZBAA,1992-03-27 03:00,ZBAA 270300Z AUTO 34002KT 2 1/2SM 13/M00 A3006 RMK SLP238 T01301001 52005 IEM_DS3505
ZBAA,1992-03-27 04:00,ZBAA 270400Z AUTO 17006KT 6SM 15/00 A3006 RMK T01500000 IEM_DS3505
ZBAA,1992-03-27 05:00,ZBAA 270500Z AUTO 16008KT 7SM 17/00 A3000 RMK T01700000 IEM_DS3505
ZBAA,1992-03-27 06:00,ZBAA 270600Z AUTO 18006KT 4SM 16/M06 A2997 RMK SLP207 T01631056 4////0072 57030 IEM_DS3505
ZBAA,1992-03-27 07:00,ZBAA 270700Z AUTO 17008KT 7SM 17/M03 A2997 RMK T01701030 IEM_DS3505
ZBAA,1992-03-27 08:00,ZBAA 270800Z AUTO 14008KT 6SM 17/M05 A2994 RMK T01701050 IEM_DS3505
ZBAA,1992-03-27 09:00,ZBAA 270900Z AUTO 18006KT 7SM 16/M06 A2994 RMK SLP195 T01641058 57013 IEM_DS3505
ZBAA,1992-03-27 10:00,ZBAA 271000Z AUTO 14006KT 6SM 15/M05 A2994 RMK T01501050 IEM_DS3505
ZBAA,1992-03-27 11:00,ZBAA 271100Z AUTO 14006KT 6SM 14/M05 A2994 RMK T01401050 IEM_DS3505
ZBAA,1992-03-27 12:00,ZBAA 271200Z AUTO 16004KT 4SM 14/M03 A2997 RMK SLP206 T01421028 52011 IEM_DS3505
ZBAA,1992-03-27 13:00,ZBAA 271300Z AUTO 13006KT 6SM 11/M03 A2997 RMK T01101030 IEM_DS3505
ZBAA,1992-03-27 14:00,ZBAA 271400Z AUTO 16006KT 6SM 11/M05 A3000 RMK T01101050 IEM_DS3505
ZBAA,1992-03-27 15:00,ZBAA 271500Z AUTO 20004KT 7SM 11/M07 A3000 RMK SLP215 T01101071 52009 IEM_DS3505
ZBAA,1992-03-27 18:00,ZBAA 271800Z AUTO 11002KT 5SM 10/M07 RMK SLP203 T00981066 40172//// 57011 IEM_DS3505
ZBAA,1992-03-27 20:00,ZBAA 272000Z AUTO 12004KT 6SM 07/M05 A2994 RMK T00701050 IEM_DS3505
ZBAA,1992-03-27 21:00,ZBAA 272100Z AUTO 36006KT 6SM 08/M02 A2994 RMK SLP199 T00761021 57005 IEM_DS3505
ZBAA,1992-03-27 22:00,ZBAA 272200Z AUTO 14004KT 6SM 07/M02 A2994 RMK T00701020 IEM_DS3505
ZBAA,1992-03-27 23:00,ZBAA 272300Z AUTO 00000KT 6SM 07/M02 A2997 RMK T00701020 IEM_DS3505
ZBAA,1992-03-28 00:00,ZBAA 280000Z AUTO 36008KT 5SM 08/M03 RMK SLP207 T00751030 52008 IEM_DS3505
ZBAA,1992-03-28 01:00,ZBAA 280100Z AUTO 00000KT 6SM 08/M02 A3000 RMK T00801020 IEM_DS3505
ZBAA,1992-03-28 02:00,ZBAA 280200Z AUTO 11004KT 6SM 09/M02 A3000 RMK T00901020 IEM_DS3505
ZBAA,1992-03-28 03:00,ZBAA 280300Z AUTO 07004KT 4SM 11/M01 A2997 RMK SLP209 T01111014 52002 IEM_DS3505
ZBAA,1992-03-28 05:00,ZBAA 280500Z AUTO 20002KT 5SM 14/00 A2994 RMK T01400000 IEM_DS3505
ZBAA,1992-03-28 06:00,ZBAA 280600Z AUTO 29006KT 4SM 16/M02 A3000 RMK SLP185 T01651016 4////0068 57023 IEM_DS3505
ZBAA,1992-03-28 07:00,ZBAA 280700Z AUTO 28016KT 6SM 18/M02 A2985 RMK T01801020 IEM_DS3505
ZBAA,1992-03-28 08:00,ZBAA 280800Z AUTO 30014KT 6SM 18/M03 A2985 RMK T01801030 IEM_DS3505
ZBAA,1992-03-28 09:00,ZBAA 280900Z AUTO 27010KT 9SM 18/M04 A2985 RMK SLP164 T01821044 57021 IEM_DS3505
ZBAA,1992-03-28 10:00,ZBAA 281000Z AUTO 27006KT 6SM 17/M03 A2985 RMK T01701030 IEM_DS3505
ZBAA,1992-03-28 11:00,ZBAA 281100Z AUTO 23010KT 6SM 15/M02 A2988 RMK T01501020 IEM_DS3505
ZBAA,1992-03-28 12:00,ZBAA 281200Z AUTO 22008KT 7SM 14/02 A2991 RMK SLP189 T01410020 52024 IEM_DS3505
ZBAA,1992-03-28 13:00,ZBAA 281300Z AUTO 26006KT 6SM 12/00 A2991 RMK T01200000 IEM_DS3505
ZBAA,1992-03-28 14:00,ZBAA 281400Z AUTO 13002KT 6SM 11/00 A2994 RMK T01100000 IEM_DS3505
ZBAA,1992-03-28 15:00,ZBAA 281500Z AUTO 18004KT 6SM 12/02 A2994 RMK SLP198 T01230018 52009 IEM_DS3505
ZBAA,1992-03-28 16:00,ZBAA 281600Z AUTO 23006KT 7SM 10/02 A2991 RMK T01000020 IEM_DS3505
ZBAA,1992-03-28 18:00,ZBAA 281800Z AUTO 18004KT 6SM 09/M04 A2988 RMK SLP183 T00931036 40185//// 57014 IEM_DS3505
ZBAA,1992-03-28 21:00,ZBAA 282100Z AUTO 18004KT 6SM 09/M04 A2988 RMK SLP183 T00931036 57014 IEM_DS3505
ZBAA,1992-03-28 23:00,ZBAA 282300Z AUTO 28002KT 7SM 05/M02 A2991 RMK T00501020 IEM_DS3505
ZBAA,1992-03-29 00:00,ZBAA 290000Z AUTO 00000KT 2SM 09/M03 A2991 RMK SLP186 T00911027 52009 IEM_DS3505
ZBAA,1992-03-29 01:00,ZBAA 290100Z AUTO 05002KT 7SM 12/M01 A2991 RMK T01201010 IEM_DS3505
ZBAA,1992-03-29 02:00,ZBAA 290200Z AUTO 06002KT 7SM 16/M04 A2991 RMK T01601040 IEM_DS3505
ZBAA,1992-03-29 03:00,ZBAA 290300Z AUTO 20006KT 4SM 18/M09 A2988 RMK SLP180 T01851092 57005 IEM_DS3505
ZBAA,1992-03-29 04:00,ZBAA 290400Z AUTO 20004KT 6SM 19/M06 A2985 RMK T01901060 IEM_DS3505
ZBAA,1992-03-29 05:00,ZBAA 290500Z AUTO 22004KT 6SM 20/M08 A2985 RMK T02001080 IEM_DS3505
ZBAA,1992-03-29 06:00,ZBAA 290600Z AUTO 18008KT 9SM 20/M13 A2983 RMK SLP154 T02001134 4////0043 57026 IEM_DS3505
ZBAA,1992-03-29 07:00,ZBAA 290700Z AUTO 23010KT 6SM 20/M08 A2980 RMK T02001080 IEM_DS3505
ZBAA,1992-03-29 08:00,ZBAA 290800Z AUTO 22006KT 6SM 20/M08 A2977 RMK T02001080 IEM_DS3505
ZBAA,1992-03-29 09:00,ZBAA 290900Z AUTO 22004KT 11SM 20/M09 A2977 RMK SLP144 T01951091 57010 IEM_DS3505
ZBAA,1992-03-29 10:00,ZBAA 291000Z AUTO 21004KT 6SM 17/M05 A2977 RMK T01701050 IEM_DS3505
ZBAA,1992-03-29 11:00,ZBAA 291100Z AUTO 21006KT 6SM 16/M06 A2980 RMK T01601060 IEM_DS3505
ZBAA,1992-03-29 12:00,ZBAA 291200Z AUTO 20006KT 7SM 17/M06 A2980 RMK SLP151 T01661057 52007 IEM_DS3505
ZBAA,1992-03-29 13:00,ZBAA 291300Z AUTO 19006KT 6SM 15/M06 A2983 RMK T01501060 IEM_DS3505
ZBAA,1992-03-29 14:00,ZBAA 291400Z AUTO 19002KT 6SM 15/M06 A2983 RMK T01501060 IEM_DS3505
ZBAA,1992-03-29 15:00,ZBAA 291500Z AUTO 18002KT 6SM 14/M04 RMK SLP155 T01401044 52005 IEM_DS3505
ZBAA,1992-03-29 18:00,ZBAA 291800Z AUTO 00000KT 5SM 10/M01 RMK SLP156 T00981006 40205//// 54000 IEM_DS3505
ZBAA,1992-03-29 20:00,ZBAA 292000Z AUTO 12004KT 6SM 06/M03 A2983 RMK T00601030 IEM_DS3505
ZBAA,1992-03-29 21:00,ZBAA 292100Z AUTO 32002KT 5SM 06/M02 A2983 RMK SLP157 T00611018 52001 IEM_DS3505
ZBAA,1992-03-29 22:00,ZBAA 292200Z AUTO 03004KT 7SM 05/M03 A2985 RMK T00501030 IEM_DS3505
ZBAA,1992-03-29 23:00,ZBAA 292300Z AUTO 35002KT 7SM 05/M02 A2985 RMK T00501020 IEM_DS3505
ZBAA,1992-03-30 00:00,ZBAA 300000Z AUTO 02002KT 6SM 11/M04 A2985 RMK SLP167 T01061041 52010 IEM_DS3505
ZBAA,1992-03-30 01:00,ZBAA 300100Z AUTO 12002KT 7SM 11/M02 A2988 RMK T01101020 IEM_DS3505
ZBAA,1992-03-30 02:00,ZBAA 300200Z AUTO 12004KT 7SM 14/M02 A2988 RMK T01401020 IEM_DS3505
ZBAA,1992-03-30 03:00,ZBAA 300300Z AUTO 02002KT 4SM 16/M04 A2985 RMK SLP162 T01651036 57005 IEM_DS3505
ZBAA,1992-03-30 05:00,ZBAA 300500Z AUTO 19014KT 7SM 21/03 A2980 RMK T02100030 IEM_DS3505
ZBAA,1992-03-30 06:00,ZBAA 300600Z AUTO 20012KT 6SM 21/M01 A2977 RMK SLP138 T02111013 4////0053 57023 IEM_DS3505
ZBAA,1992-03-30 07:00,ZBAA 300700Z AUTO 19014KT 6SM 22/03 A2974 RMK T02200030 IEM_DS3505
ZBAA,1992-03-30 08:00,ZBAA 300800Z AUTO 18014KT 6SM 21/03 A2974 RMK T02100030 IEM_DS3505
ZBAA,1992-03-30 09:00,ZBAA 300900Z AUTO 20010KT 6SM 21/05 A2971 RMK SLP124 T02070052 57015 IEM_DS3505
ZBAA,1992-03-30 10:00,ZBAA 301000Z AUTO 18012KT 6SM 20/05 A2971 RMK T02000050 IEM_DS3505
ZBAA,1992-03-30 11:00,ZBAA 301100Z AUTO 19010KT 6SM 18/05 A2974 RMK T01800050 IEM_DS3505
ZBAA,1992-03-30 12:00,ZBAA 301200Z AUTO 20004KT 4SM 18/08 A2974 RMK SLP128 T01800076 52004 IEM_DS3505
ZBAA,1992-03-30 13:00,ZBAA 301300Z AUTO 14004KT 6SM 16/06 A2977 RMK T01600060 IEM_DS3505
ZBAA,1992-03-30 14:00,ZBAA 301400Z AUTO 11004KT 6SM 15/06 A2977 RMK T01500060 IEM_DS3505
ZBAA,1992-03-30 15:00,ZBAA 301500Z AUTO 18008KT 4SM 16/06 A2977 RMK SLP130 T01600064 52003 IEM_DS3505
ZBAA,1992-03-30 18:00,ZBAA 301800Z AUTO 20010KT 5SM 14/06 RMK SLP124 T01430057 40218//// 57006 IEM_DS3505
ZBAA,1992-03-30 20:00,ZBAA 302000Z AUTO 14006KT 6SM 12/06 A2971 RMK T01200060 IEM_DS3505
ZBAA,1992-03-30 21:00,ZBAA 302100Z AUTO 20006KT 6SM 13/06 A2971 RMK SLP117 T01310064 57007 IEM_DS3505
ZBAA,1992-03-30 22:00,ZBAA 302200Z AUTO 14006KT 6SM 12/07 A2971 RMK T01200070 IEM_DS3505
ZBAA,1992-03-30 23:00,ZBAA 302300Z AUTO 14004KT 3SM 11/06 A2974 RMK T01100060 IEM_DS3505
ZBAA,1992-03-31 00:00,ZBAA 310000Z AUTO 20004KT 2 1/2SM 13/07 A2974 RMK SLP122 T01280073 52005 IEM_DS3505
ZBAA,1992-03-31 01:00,ZBAA 310100Z AUTO 16008KT 4SM 13/06 A2974 RMK T01300060 IEM_DS3505
ZBAA,1992-03-31 02:00,ZBAA 310200Z AUTO 17008KT 4SM 16/06 A2985 RMK T01600060 IEM_DS3505
ZBAA,1992-03-31 03:00,ZBAA 310300Z AUTO 20004KT 4SM 15/06 A2974 RMK SLP121 T01530060 57001 IEM_DS3505
ZBAA,1992-03-31 04:00,ZBAA 310400Z AUTO 15008KT 4SM 15/06 A2971 RMK T01500060 IEM_DS3505
ZBAA,1992-03-31 05:00,ZBAA 310500Z AUTO 18006G16KT 4SM 14/07 A2971 RMK T01400070 IEM_DS3505
ZBAA,1992-03-31 06:00,ZBAA 310600Z AUTO 29002KT 4SM 14/06 A2971 RMK SLP118 T01400058 4////0122 57004 IEM_DS3505
ZBAA,1992-03-31 07:00,ZBAA 310700Z AUTO 31006KT 4SM 12/09 A2971 RMK T01200090 IEM_DS3505
ZBAA,1992-03-31 08:00,ZBAA 310800Z AUTO 32008KT 2 1/2SM 12/10 A2971 RMK T01200100 IEM_DS3505
ZBAA,1992-03-31 09:00,ZBAA 310900Z AUTO 34002KT 6SM 14/09 A2971 RMK SLP118 T01360089 54000 IEM_DS3505
ZBAA,1992-03-31 10:00,ZBAA 311000Z AUTO 02004KT 4SM 13/10 A2971 RMK T01300100 IEM_DS3505
ZBAA,1992-03-31 11:00,ZBAA 311100Z AUTO 02004KT 2 1/2SM 11/09 A2971 RMK T01100090 IEM_DS3505
ZBAA,1992-03-31 12:00,ZBAA 311200Z AUTO 07004KT 9SM 12/08 A2971 RMK 60004 SLP121 T01200077 52003 IEM_DS3505
ZBAA,1992-03-31 13:00,ZBAA 311300Z AUTO 28004KT 2 1/2SM 09/08 A2977 RMK T00900080 IEM_DS3505
ZBAA,1992-03-31 14:00,ZBAA 311400Z AUTO 27006KT 2 1/2SM 09/07 A2980 RMK T00900070 IEM_DS3505
ZBAA,1992-03-31 15:00,ZBAA 311500Z AUTO 34002KT 7SM 08/07 A2980 RMK SLP143 T00840071 52022 IEM_DS3505
ZBAA,1992-03-31 16:00,ZBAA 311600Z AUTO 28006KT 2SM 08/07 A2980 RMK T00800070 IEM_DS3505
ZBAA,1992-03-31 18:00,ZBAA 311800Z AUTO 18002KT 2SM 07/06 RMK SLP137 T00680059 40158//// 57007 IEM_DS3505
ZBAA,1992-03-31 20:00,ZBAA 312000Z AUTO 30006KT 1 1/4SM 05/05 A2977 RMK T00500050 IEM_DS3505
ZBAA,1992-03-31 21:00,ZBAA 312100Z AUTO 02004KT 3SM 05/04 A2977 RMK 70004 SLP142 T00520040 52005 IEM_DS3505
ZBAA,1992-03-31 22:00,ZBAA 312200Z AUTO 10002KT 3SM 04/03 A2980 RMK T00400030 IEM_DS3505
ZBAA,1992-03-31 23:00,ZBAA 312300Z AUTO 00000KT 6SM 05/05 A2980 RMK T00500050 IEM_DS3505
ZBAA,1992-04-01 00:00,ZBAA 010000Z AUTO 00000KT 16SM 12/01 A2983 RMK 70004 SLP156 T01170010 52015 IEM_DS3505
ZBAA,1992-04-01 01:00,ZBAA 010100Z AUTO 06002KT 7SM 13/04 A2985 RMK T01300040 IEM_DS3505
ZBAA,1992-04-01 02:00,ZBAA 010200Z AUTO 04004KT 7SM 15/02 A2983 RMK T01500020 IEM_DS3505
ZBAA,1992-04-01 03:00,ZBAA 010300Z AUTO 36010KT 19SM 19/M04 A2983 RMK SLP151 T01901035 57005 IEM_DS3505
ZBAA,1992-04-01 04:00,ZBAA 010400Z AUTO 03004KT 7SM 19/M02 A2980 RMK T01901020 IEM_DS3505
ZBAA,1992-04-01 05:00,ZBAA 010500Z AUTO 05006KT 7SM 20/M03 A2977 RMK T02001030 IEM_DS3505
ZBAA,1992-04-01 06:00,ZBAA 010600Z AUTO 32008KT 19SM 22/M07 A2974 RMK SLP130 T02151066 4////0049 57021 IEM_DS3505
ZBAA,1992-04-01 08:00,ZBAA 010800Z AUTO 32002KT 7SM 21/M04 A2971 RMK T02101040 IEM_DS3505
ZBAA,1992-04-01 09:00,ZBAA 010900Z AUTO 29008KT 12SM 22/M04 A2971 RMK SLP124 T02231044 57006 IEM_DS3505
ZBAA,1992-04-01 10:00,ZBAA 011000Z AUTO 15006KT 7SM 20/M03 A2974 RMK T02001030 IEM_DS3505
ZBAA,1992-04-01 11:00,ZBAA 011100Z AUTO 16006KT 7SM 18/M03 A2974 RMK T01801030 IEM_DS3505
ZBAA,1992-04-01 12:00,ZBAA 011200Z AUTO 16004KT 9SM 18/M02 A2977 RMK SLP130 T01841017 52007 IEM_DS3505
ZBAA,1992-04-01 14:00,ZBAA 011400Z AUTO 19008KT 7SM 15/M02 A2977 RMK T01501020 IEM_DS3505
ZBAA,1992-04-01 15:00,ZBAA 011500Z AUTO 20006KT 9SM 15/M01 A2980 RMK SLP141 T01501009 52011 IEM_DS3505
ZBAA,1992-04-01 16:00,ZBAA 011600Z AUTO 04004KT 7SM 11/M01 A2980 RMK T01101010 IEM_DS3505
ZBAA,1992-04-01 17:00,ZBAA 011700Z AUTO 09002KT 7SM 11/M01 A2980 RMK T01101010 IEM_DS3505
ZBAA,1992-04-01 18:00,ZBAA 011800Z AUTO 07002KT 9SM 12/01 A2980 RMK SLP142 T01150007 40230//// 52001 IEM_DS3505
ZBAA,1992-04-01 19:00,ZBAA 011900Z AUTO 35004KT 7SM 08/M01 A2980 RMK T00801010 IEM_DS3505
ZBAA,1992-04-01 20:00,ZBAA 012000Z AUTO 36004KT 7SM 08/00 A2980 RMK T00800000 IEM_DS3505
ZBAA,1992-04-01 21:00,ZBAA 012100Z AUTO 04002KT 9SM 11/M02 A2980 RMK SLP141 T01071016 57001 IEM_DS3505
ZBAA,1992-04-01 22:00,ZBAA 012200Z AUTO 01004KT 7SM 07/M01 A2980 RMK T00701010 IEM_DS3505
ZBAA,1992-04-01 23:00,ZBAA 012300Z AUTO 01002KT 7SM 08/00 A2983 RMK T00800000 IEM_DS3505
ZBAA,1992-04-02 00:00,ZBAA 020000Z AUTO 07002KT 7SM 12/M01 A2983 RMK SLP156 T01241010 52014 IEM_DS3505
ZBAA,1992-04-02 01:00,ZBAA 020100Z AUTO 05002KT 6SM 14/00 A2985 RMK T01400000 IEM_DS3505
ZBAA,1992-04-02 02:00,ZBAA 020200Z AUTO 11002KT 6SM 16/01 A2985 RMK T01600010 IEM_DS3505
ZBAA,1992-04-02 03:00,ZBAA 020300Z AUTO 16002KT 5SM 19/00 A2983 RMK SLP153 T01880002 57002 IEM_DS3505
ZBAA,1992-04-02 04:00,ZBAA 020400Z AUTO 14002KT 6SM 20/02 A2980 RMK T02000020 IEM_DS3505
ZBAA,1992-04-02 05:00,ZBAA 020500Z AUTO 16004KT 6SM 21/02 A2977 RMK T02100020 IEM_DS3505
ZBAA,1992-04-02 06:00,ZBAA 020600Z AUTO 20008KT 6SM 23/01 A2974 RMK SLP126 T02340012 4////0092 57027 IEM_DS3505
ZBAA,1992-04-02 07:00,ZBAA 020700Z AUTO 18010KT 6SM 25/02 A2971 RMK T02500020 IEM_DS3505
ZBAA,1992-04-02 08:00,ZBAA 020800Z AUTO 19010KT 6SM 25/02 A2968 RMK T02500020 IEM_DS3505
ZBAA,1992-04-02 09:00,ZBAA 020900Z AUTO 20006KT 7SM 25/M03 A2965 RMK SLP105 T02501031 57021 IEM_DS3505
ZBAA,1992-04-02 10:00,ZBAA 021000Z AUTO 19006KT 6SM 23/01 A2965 RMK T02300010 IEM_DS3505
ZBAA,1992-04-02 11:00,ZBAA 021100Z AUTO 20006KT 6SM 21/01 A2965 RMK T02100010 IEM_DS3505
ZBAA,1992-04-02 12:00,ZBAA 021200Z AUTO 20004KT 5SM 22/M00 A2968 RMK SLP106 T02151004 52001 IEM_DS3505
ZBAA,1992-04-02 13:00,ZBAA 021300Z AUTO 19008KT 7SM 19/M01 A2968 RMK T01901010 IEM_DS3505
ZBAA,1992-04-02 14:00,ZBAA 021400Z AUTO 20006KT 7SM 18/M01 A2968 RMK T01801010 IEM_DS3505
ZBAA,1992-04-02 15:00,ZBAA 021500Z AUTO 18006KT 6SM 19/01 A2968 RMK SLP108 T01860006 52002 IEM_DS3505
ZBAA,1992-04-02 16:00,ZBAA 021600Z AUTO 03004KT 7SM 13/03 A2968 RMK T01300030 IEM_DS3505
ZBAA,1992-04-02 17:00,ZBAA 021700Z AUTO 08002KT 7SM 12/02 A2968 RMK T01200020 IEM_DS3505
ZBAA,1992-04-02 18:00,ZBAA 021800Z AUTO 18002KT 6SM 15/01 A2965 RMK SLP101 T01520013 40253//// 57006 IEM_DS3505
ZBAA,1992-04-02 19:00,ZBAA 021900Z AUTO 11002KT 7SM 12/01 A2965 RMK T01200010 IEM_DS3505
ZBAA,1992-04-02 20:00,ZBAA 022000Z AUTO 00000KT 7SM 11/02 A2965 RMK T01100020 IEM_DS3505
ZBAA,1992-04-02 21:00,ZBAA 022100Z AUTO 09002KT 6SM 13/02 A2965 RMK SLP097 T01320017 57004 IEM_DS3505
ZBAA,1992-04-02 22:00,ZBAA 022200Z AUTO 35002KT 6SM 09/03 A2965 RMK T00900030 IEM_DS3505
ZBAA,1992-04-02 23:00,ZBAA 022300Z AUTO 03002KT 7SM 10/04 A2968 RMK T01000040 IEM_DS3505
ZBAA,1992-04-03 00:00,ZBAA 030000Z AUTO 02004KT 3SM 13/03 A2968 RMK SLP106 T01310030 52008 IEM_DS3505
ZBAA,1992-04-03 01:00,ZBAA 030100Z AUTO 11004KT 4SM 15/09 A2971 RMK T01500090 IEM_DS3505
ZBAA,1992-04-03 02:00,ZBAA 030200Z AUTO 13006KT 4SM 17/09 A2971 RMK T01700090 IEM_DS3505
ZBAA,1992-04-03 03:00,ZBAA 030300Z AUTO 02002KT 2 1/2SM 18/04 A2968 RMK SLP104 T01840036 57002 IEM_DS3505
ZBAA,1992-04-03 04:00,ZBAA 030400Z AUTO 15006KT 5SM 21/10 A2968 RMK T02100100 IEM_DS3505
ZBAA,1992-04-03 05:00,ZBAA 030500Z AUTO 14008KT 5SM 22/10 A2965 RMK T02200100 IEM_DS3505
ZBAA,1992-04-03 06:00,ZBAA 030600Z AUTO 16006KT 3SM 23/08 A2962 RMK SLP084 T02270085 4////0104 57019 IEM_DS3505
ZBAA,1992-04-03 07:00,ZBAA 030700Z AUTO 18010KT 5SM 23/08 A2959 RMK T02300080 IEM_DS3505
ZBAA,1992-04-03 08:00,ZBAA 030800Z AUTO 19010KT 5SM 23/08 A2959 RMK T02300080 IEM_DS3505
ZBAA,1992-04-03 09:00,ZBAA 030900Z AUTO 20006KT 3SM 22/08 A2959 RMK SLP076 T02170083 57009 IEM_DS3505
ZBAA,1992-04-03 10:00,ZBAA 031000Z AUTO 18006KT 5SM 21/09 A2959 RMK T02100090 IEM_DS3505
ZBAA,1992-04-03 11:00,ZBAA 031100Z AUTO 21006KT 4SM 21/09 A2959 RMK T02100090 IEM_DS3505
ZBAA,1992-04-03 12:00,ZBAA 031200Z AUTO 25008KT 5SM 20/04 A2962 RMK SLP081 T02040044 52005 IEM_DS3505
ZBAA,1992-04-03 13:00,ZBAA 031300Z AUTO 17004KT 4SM 19/06 A2962 RMK T01900060 IEM_DS3505
ZBAA,1992-04-03 14:00,ZBAA 031400Z AUTO 17006KT 4SM 18/06 A2962 RMK T01800060 IEM_DS3505
ZBAA,1992-04-03 15:00,ZBAA 031500Z AUTO 16004KT 5SM 18/06 A2965 RMK SLP082 T01830055 52002 IEM_DS3505
ZBAA,1992-04-03 16:00,ZBAA 031600Z AUTO 15006KT 5SM 17/05 A2962 RMK T01700050 IEM_DS3505
ZBAA,1992-04-03 17:00,ZBAA 031700Z AUTO 15006KT 6SM 15/04 A2962 RMK T01500040 IEM_DS3505
ZBAA,1992-04-03 18:00,ZBAA 031800Z AUTO 16002KT 5SM 16/06 A2959 RMK SLP081 T01630063 40232//// 57001 IEM_DS3505
ZBAA,1992-04-03 19:00,ZBAA 031900Z AUTO 02004KT 6SM 13/04 A2959 RMK T01300040 IEM_DS3505
ZBAA,1992-04-03 20:00,ZBAA 032000Z AUTO 00000KT 6SM 11/04 A2959 RMK T01100040 IEM_DS3505
ZBAA,1992-04-03 21:00,ZBAA 032100Z AUTO 09002KT 4SM 11/07 A2959 RMK SLP078 T01130069 57004 IEM_DS3505
ZBAA,1992-04-03 22:00,ZBAA 032200Z AUTO 09002KT 6SM 10/05 A2962 RMK T01000050 IEM_DS3505
ZBAA,1992-04-03 23:00,ZBAA 032300Z AUTO 13004KT 6SM 11/05 A2962 RMK T01100050 IEM_DS3505
ZBAA,1992-04-04 00:00,ZBAA 040000Z AUTO 11002KT 4SM 14/05 A2962 RMK SLP085 T01380053 52007 IEM_DS3505
ZBAA,1992-04-04 01:00,ZBAA 040100Z AUTO 16004KT 7SM 16/07 A2965 RMK T01600070 IEM_DS3505
ZBAA,1992-04-04 02:00,ZBAA 040200Z AUTO 15004KT 7SM 18/07 A2965 RMK T01800070 IEM_DS3505
ZBAA,1992-04-04 03:00,ZBAA 040300Z AUTO 29002KT 3SM 19/06 A2962 RMK SLP083 T01920057 57001 IEM_DS3505
ZBAA,1992-04-04 04:00,ZBAA 040400Z AUTO 14006KT 7SM 21/08 A2959 RMK T02100080 IEM_DS3505
ZBAA,1992-04-04 05:00,ZBAA 040500Z AUTO 14008KT 7SM 22/08 A2959 RMK T02200080 IEM_DS3505
ZBAA,1992-04-04 06:00,ZBAA 040600Z AUTO 16004KT 2 1/2SM 23/06 A2956 RMK SLP065 T02300060 4////0104 57018 IEM_DS3505
ZBAA,1992-04-04 08:00,ZBAA 040800Z AUTO 14006KT 7SM 23/09 A2953 RMK T02300090 IEM_DS3505
ZBAA,1992-04-04 09:00,ZBAA 040900Z AUTO 18004KT 4SM 24/08 A2953 RMK SLP054 T02400079 57011 IEM_DS3505
ZBAA,1992-04-04 10:00,ZBAA 041000Z AUTO 09004KT 7SM 22/09 A2956 RMK T02200090 IEM_DS3505
ZBAA,1992-04-04 11:00,ZBAA 041100Z AUTO 09004KT 7SM 20/09 A2956 RMK T02000090 IEM_DS3505
ZBAA,1992-04-04 12:00,ZBAA 041200Z AUTO 00000KT 3SM 21/10 A2959 RMK SLP076 T02080097 52021 IEM_DS3505
ZBAA,1992-04-04 13:00,ZBAA 041300Z AUTO 00000KT 7SM 19/09 A2959 RMK T01900090 IEM_DS3505
ZBAA,1992-04-04 14:00,ZBAA 041400Z AUTO 00000KT 7SM 17/09 A2962 RMK T01700090 IEM_DS3505
ZBAA,1992-04-04 15:00,ZBAA 041500Z AUTO 07002KT 2 1/2SM 16/10 A2962 RMK SLP083 T01580101 52007 IEM_DS3505
ZBAA,1992-04-04 16:00,ZBAA 041600Z AUTO 12004KT 7SM 16/10 A2962 RMK T01600100 IEM_DS3505
ZBAA,1992-04-04 17:00,ZBAA 041700Z AUTO 11004KT 7SM 15/10 A2962 RMK T01500100 IEM_DS3505
ZBAA,1992-04-04 18:00,ZBAA 041800Z AUTO 07002KT 2SM 16/10 A2962 RMK SLP081 T01560097 40243//// 57001 IEM_DS3505
ZBAA,1992-04-04 19:00,ZBAA 041900Z AUTO 06002KT 6SM 14/10 A2962 RMK T01400100 IEM_DS3505
ZBAA,1992-04-04 20:00,ZBAA 042000Z AUTO 08006KT 6SM 14/10 A2962 RMK T01400100 IEM_DS3505
ZBAA,1992-04-04 21:00,ZBAA 042100Z AUTO 04004KT 2 1/2SM 15/09 A2965 RMK SLP087 T01460094 52006 IEM_DS3505
ZBAA,1992-04-04 22:00,ZBAA 042200Z AUTO 13002KT 5SM 13/07 A2965 RMK T01300070 IEM_DS3505
ZBAA,1992-04-04 23:00,ZBAA 042300Z AUTO 13004KT 5SM 14/06 A2980 RMK T01400060 IEM_DS3505
ZBAA,1992-04-05 00:00,ZBAA 050000Z AUTO 02006KT 2SM 14/07 A2971 RMK SLP112 T01430070 52024 IEM_DS3505
ZBAA,1992-04-05 01:00,ZBAA 050100Z AUTO 12008KT 6SM 15/07 A2988 RMK T01500070 IEM_DS3505
ZBAA,1992-04-05 02:00,ZBAA 050200Z AUTO 12010KT 6SM 16/07 A2980 RMK T01600070 IEM_DS3505
ZBAA,1992-04-05 03:00,ZBAA 050300Z AUTO 11006KT 2 1/2SM 15/08 A2983 RMK SLP150 T01490075 52037 IEM_DS3505
ZBAA,1992-04-05 04:00,ZBAA 050400Z AUTO 14010KT 6SM 13/08 A2994 RMK T01300080 IEM_DS3505
ZBAA,1992-04-05 05:00,ZBAA 050500Z AUTO 11010KT 6SM 14/07 A2980 RMK T01400070 IEM_DS3505
ZBAA,1992-04-05 06:00,ZBAA 050600Z AUTO 09002KT 2SM 13/06 A2985 RMK SLP158 T01300063 4////0128 52008 IEM_DS3505
ZBAA,1992-04-05 07:00,ZBAA 050700Z AUTO 20004KT 5SM 13/08 A2983 RMK T01300080 IEM_DS3505
ZBAA,1992-04-05 08:00,ZBAA 050800Z AUTO 11002KT 5SM 12/09 A2985 RMK T01200090 IEM_DS3505
ZBAA,1992-04-05 09:00,ZBAA 050900Z AUTO 00000KT 2SM 12/08 A2985 RMK SLP164 T01220077 52006 IEM_DS3505
ZBAA,1992-04-05 10:00,ZBAA 051000Z AUTO 17006KT 7SM 12/09 A2988 RMK T01200090 IEM_DS3505
ZBAA,1992-04-05 11:00,ZBAA 051100Z AUTO 13006KT 7SM 10/09 A2991 RMK T01000090 IEM_DS3505
ZBAA,1992-04-05 12:00,ZBAA 051200Z AUTO 16004KT 1 1/2SM 10/08 A2997 RMK 60008 SLP202 T01020075 52037 IEM_DS3505
ZBAA,1992-04-05 13:00,ZBAA 051300Z AUTO 11006KT 7SM 07/07 A3000 RMK T00700070 IEM_DS3505
ZBAA,1992-04-05 14:00,ZBAA 051400Z AUTO 14006KT 7SM 07/07 A3003 RMK T00700070 IEM_DS3505
ZBAA,1992-04-05 15:00,ZBAA 051500Z AUTO 11002KT 2SM 08/04 A3003 RMK SLP221 T00770045 52019 IEM_DS3505
ZBAA,1992-04-05 16:00,ZBAA 051600Z AUTO 16004KT 7SM 06/05 A3003 RMK T00600050 IEM_DS3505
ZBAA,1992-04-05 17:00,ZBAA 051700Z AUTO 17002KT 7SM 06/05 A3003 RMK T00600050 IEM_DS3505
ZBAA,1992-04-05 18:00,ZBAA 051800Z AUTO 20004KT 2 1/2SM 06/05 A3006 RMK 60000 SLP232 T00630049 40158//// 52011 IEM_DS3505
ZBAA,1992-04-05 19:00,ZBAA 051900Z AUTO 13002KT 7SM 06/00 A3003 RMK T00600000 IEM_DS3505
ZBAA,1992-04-05 20:00,ZBAA 052000Z AUTO 16004KT 7SM 06/00 A3003 RMK T00600000 IEM_DS3505
ZBAA,1992-04-05 21:00,ZBAA 052100Z AUTO 04004KT 6SM 06/M01 A3006 RMK 70012 SLP232 T00651006 54000 IEM_DS3505
ZBAA,1992-04-05 22:00,ZBAA 052200Z AUTO 14004KT 4SM 05/04 A3006 RMK T00500040 IEM_DS3505
ZBAA,1992-04-05 23:00,ZBAA 052300Z AUTO 16006KT 5SM 05/03 A3009 RMK T00500030 IEM_DS3505
ZBAA,1992-04-06 00:00,ZBAA 060000Z AUTO 20004KT 5SM 05/01 A3012 RMK 70012 SLP251 T00500014 52018 IEM_DS3505
ZBAA,1992-04-06 01:00,ZBAA 060100Z AUTO 19006KT 5SM 05/01 A3012 RMK T00500010 IEM_DS3505
ZBAA,1992-04-06 02:00,ZBAA 060200Z AUTO 21006KT 4SM 05/01 A3015 RMK T00500010 IEM_DS3505
ZBAA,1992-04-06 03:00,ZBAA 060300Z AUTO 20002KT 4SM 05/01 A3015 RMK SLP258 T00470008 52007 IEM_DS3505
ZBAA,1992-04-06 05:00,ZBAA 060500Z AUTO 24002KT 6SM 06/01 A3012 RMK T00600010 IEM_DS3505
ZBAA,1992-04-06 06:00,ZBAA 060600Z AUTO 20002KT 6SM 06/00 A3009 RMK SLP248 T00630004 4////0042 57010 IEM_DS3505
ZBAA,1992-04-06 07:00,ZBAA 060700Z AUTO 16002KT 7SM 07/00 A3009 RMK T00700000 IEM_DS3505
ZBAA,1992-04-06 08:00,ZBAA 060800Z AUTO 00000KT 7SM 07/00 A3006 RMK T00700000 IEM_DS3505
ZBAA,1992-04-06 09:00,ZBAA 060900Z AUTO 25002KT 6SM 07/01 A3006 RMK SLP236 T00700006 57012 IEM_DS3505
ZBAA,1992-04-06 10:00,ZBAA 061000Z AUTO 00000KT 5SM 07/01 A3006 RMK T00700010 IEM_DS3505
ZBAA,1992-04-06 11:00,ZBAA 061100Z AUTO 00000KT 4SM 07/01 A3006 RMK T00700010 IEM_DS3505
ZBAA,1992-04-06 12:00,ZBAA 061200Z AUTO 20004KT 5SM 07/M01 A3006 RMK SLP243 T00681009 52007 IEM_DS3505
ZBAA,1992-04-06 13:00,ZBAA 061300Z AUTO 18002KT 4SM 07/01 A3009 RMK T00700010 IEM_DS3505
ZBAA,1992-04-06 14:00,ZBAA 061400Z AUTO 18002KT 4SM 07/01 A3009 RMK T00700010 IEM_DS3505
ZBAA,1992-04-06 15:00,ZBAA 061500Z AUTO 22004KT 4SM 07/M00 A3009 RMK SLP245 T00671004 52002 IEM_DS3505
ZBAA,1992-04-06 16:00,ZBAA 061600Z AUTO 16002KT 7SM 07/00 A3009 RMK T00700000 IEM_DS3505
ZBAA,1992-04-06 17:00,ZBAA 061700Z AUTO 00000KT 7SM 07/01 A3003 RMK T00700010 IEM_DS3505
ZBAA,1992-04-06 18:00,ZBAA 061800Z AUTO 18004KT 4SM 07/M00 A3003 RMK SLP227 T00661005 40072//// 57018 IEM_DS3505
ZBAA,1992-04-06 19:00,ZBAA 061900Z AUTO 14002KT 7SM 07/02 A3003 RMK T00700020 IEM_DS3505
ZBAA,1992-04-06 20:00,ZBAA 062000Z AUTO 15004KT 7SM 06/02 A3000 RMK T00600020 IEM_DS3505
ZBAA,1992-04-06 21:00,ZBAA 062100Z AUTO 18008KT 4SM 06/01 A3000 RMK SLP216 T00650006 57011 IEM_DS3505
ZBAA,1992-04-06 22:00,ZBAA 062200Z AUTO 12004KT 5SM 06/02 A3000 RMK T00600020 IEM_DS3505
ZBAA,1992-04-06 23:00,ZBAA 062300Z AUTO 14006KT 5SM 06/03 A3000 RMK T00600030 IEM_DS3505
ZBAA,1992-04-07 00:00,ZBAA 070000Z AUTO 18010KT 5SM 07/00 A3000 RMK SLP217 T00720000 52001 IEM_DS3505
ZBAA,1992-04-07 01:00,ZBAA 070100Z AUTO 21008KT 6SM 09/01 A3000 RMK T00900010 IEM_DS3505
ZBAA,1992-04-07 02:00,ZBAA 070200Z AUTO 19008KT 6SM 11/00 A2997 RMK T01100000 IEM_DS3505
ZBAA,1992-04-07 03:00,ZBAA 070300Z AUTO 20010KT 6SM 10/M03 A2997 RMK SLP207 T01051027 57009 IEM_DS3505
ZBAA,1992-04-07 04:00,ZBAA 070400Z AUTO 16010KT 6SM 12/M01 A2994 RMK T01201010 IEM_DS3505
ZBAA,1992-04-07 05:00,ZBAA 070500Z AUTO 18010KT 6SM 12/M01 A2991 RMK T01201010 IEM_DS3505
ZBAA,1992-04-07 06:00,ZBAA 070600Z AUTO 20010KT 6SM 12/M03 A2991 RMK SLP191 T01151029 4////0059 57016 IEM_DS3505
ZBAA,1992-04-07 07:00,ZBAA 070700Z AUTO 16006KT 6SM 13/00 A2991 RMK T01300000 IEM_DS3505
ZBAA,1992-04-07 08:00,ZBAA 070800Z AUTO 22006KT 7SM 11/00 A2994 RMK T01100000 IEM_DS3505
ZBAA,1992-04-07 09:00,ZBAA 070900Z AUTO 27002KT 6SM 10/02 A2994 RMK SLP199 T00970021 52007 IEM_DS3505
ZBAA,1992-04-07 10:00,ZBAA 071000Z AUTO 29004KT 7SM 08/05 A2997 RMK T00800050 IEM_DS3505
ZBAA,1992-04-07 11:00,ZBAA 071100Z AUTO 33004KT 4SM 08/07 A2997 RMK T00800070 IEM_DS3505
ZBAA,1992-04-07 12:00,ZBAA 071200Z AUTO 36002KT 4SM 08/05 A3000 RMK 60004 SLP208 T00780046 52009 IEM_DS3505
ZBAA,1992-04-07 13:00,ZBAA 071300Z AUTO 00000KT 3SM 07/07 A3003 RMK T00700070 IEM_DS3505
ZBAA,1992-04-07 14:00,ZBAA 071400Z AUTO 00000KT 3SM 07/07 A3003 RMK T00700070 IEM_DS3505
ZBAA,1992-04-07 15:00,ZBAA 071500Z AUTO 02002KT 5SM 08/05 A3003 RMK SLP222 T00790050 52015 IEM_DS3505
ZBAA,1992-04-07 16:00,ZBAA 071600Z AUTO 35002KT 3SM 07/06 A3003 RMK T00700060 IEM_DS3505
ZBAA,1992-04-07 17:00,ZBAA 071700Z AUTO 33002KT 3SM 07/06 A3006 RMK T00700060 IEM_DS3505
ZBAA,1992-04-07 18:00,ZBAA 071800Z AUTO 22002KT 5SM 08/04 A3006 RMK 60002 SLP230 T00770045 40126//// 52008 IEM_DS3505
ZBAA,1992-04-07 19:00,ZBAA 071900Z AUTO 33006KT 2 1/2SM 07/05 A3006 RMK T00700050 IEM_DS3505
ZBAA,1992-04-07 20:00,ZBAA 072000Z AUTO 32006KT 2 1/2SM 07/05 A3006 RMK T00700050 IEM_DS3505
ZBAA,1992-04-07 21:00,ZBAA 072100Z AUTO 07004KT 6SM 07/04 A3006 RMK 70004 SLP238 T00710041 52007 IEM_DS3505
ZBAA,1992-04-07 22:00,ZBAA 072200Z AUTO 35008KT 2 1/2SM 07/M01 A3009 RMK T00701010 IEM_DS3505
ZBAA,1992-04-07 23:00,ZBAA 072300Z AUTO 35004KT 2 1/2SM 09/M02 A3012 RMK T00901020 IEM_DS3505
ZBAA,1992-04-08 00:00,ZBAA 080000Z AUTO 02006KT 2 1/2SM 11/M06 A3012 RMK 70004 SLP254 T01131065 52016 IEM_DS3505
ZBAA,1992-04-08 01:00,ZBAA 080100Z AUTO 33008KT 5SM 14/M06 A3012 RMK T01401060 IEM_DS3505
ZBAA,1992-04-08 02:00,ZBAA 080200Z AUTO 32008KT 6SM 15/M08 A3012 RMK T01501080 IEM_DS3505
ZBAA,1992-04-08 03:00,ZBAA 080300Z AUTO 31008KT 6SM 17/M08 A3009 RMK T01701080 IEM_DS3505
ZBAA,1992-04-08 04:00,ZBAA 080400Z AUTO 33006KT 6SM 18/M08 A3009 RMK T01801080 IEM_DS3505
ZBAA,1992-04-08 05:00,ZBAA 080500Z AUTO 30004KT 6SM 19/M06 A3006 RMK T01901060 IEM_DS3505
ZBAA,1992-04-08 06:00,ZBAA 080600Z AUTO 20008KT 6SM 19/M07 A3003 RMK SLP230 T01861072 4////0065 57019 IEM_DS3505
ZBAA,1992-04-08 07:00,ZBAA 080700Z AUTO 20008KT 6SM 19/M07 A3000 RMK SLP230 T01861072 4////0065 57019 IEM_DS3505
ZBAA,1992-04-08 08:00,ZBAA 080800Z AUTO 12008KT 6SM 20/M07 A2997 RMK T02001070 IEM_DS3505
ZBAA,1992-04-08 09:00,ZBAA 080900Z AUTO 22006KT 6SM 18/M08 A2997 RMK SLP209 T01821083 57021 IEM_DS3505
ZBAA,1992-04-08 10:00,ZBAA 081000Z AUTO 18008KT 6SM 17/M05 A2997 RMK T01701050 IEM_DS3505
ZBAA,1992-04-08 11:00,ZBAA 081100Z AUTO 20008KT 6SM 15/M03 A2997 RMK T01501030 IEM_DS3505
ZBAA,1992-04-08 12:00,ZBAA 081200Z AUTO 20006KT 6SM 15/M03 A2997 RMK SLP209 T01541030 52001 IEM_DS3505
ZBAA,1992-04-08 13:00,ZBAA 081300Z AUTO 19006KT 6SM 14/M03 A3000 RMK T01401030 IEM_DS3505
ZBAA,1992-04-08 14:00,ZBAA 081400Z AUTO 16004KT 6SM 12/M02 A3000 RMK T01201020 IEM_DS3505
ZBAA,1992-04-08 15:00,ZBAA 081500Z AUTO 20002KT 6SM 12/01 A3000 RMK SLP209 T01180007 54000 IEM_DS3505
ZBAA,1992-04-08 17:00,ZBAA 081700Z AUTO 12002KT 6SM 09/M01 A2997 RMK T00901010 IEM_DS3505
ZBAA,1992-04-08 18:00,ZBAA 081800Z AUTO 04004KT 6SM 10/M00 A2997 RMK SLP203 T01001003 40193//// 57006 IEM_DS3505
ZBAA,1992-04-08 19:00,ZBAA 081900Z AUTO 36002KT 6SM 08/00 A2994 RMK T00800000 IEM_DS3505
ZBAA,1992-04-08 20:00,ZBAA 082000Z AUTO 02004KT 6SM 09/M01 A2994 RMK T00901010 IEM_DS3505
ZBAA,1992-04-08 21:00,ZBAA 082100Z AUTO 02002KT 6SM 09/M00 A2994 RMK SLP198 T00941005 57005 IEM_DS3505
ZBAA,1992-04-08 22:00,ZBAA 082200Z AUTO 33004KT 6SM 08/M01 A2994 RMK T00801010 IEM_DS3505
ZBAA,1992-04-08 23:00,ZBAA 082300Z AUTO 00000KT 6SM 09/M01 A2994 RMK T00901010 IEM_DS3505
ZBAA,1992-04-09 00:00,ZBAA 090000Z AUTO 04004KT 4SM 11/01 A2994 RMK SLP200 T01100008 52002 IEM_DS3505
ZBAA,1992-04-09 01:00,ZBAA 090100Z AUTO 07002KT 4SM 11/01 A2994 RMK T01100010 IEM_DS3505
ZBAA,1992-04-09 02:00,ZBAA 090200Z AUTO 09002KT 4SM 12/01 A2991 RMK T01200010 IEM_DS3505
ZBAA,1992-04-09 03:00,ZBAA 090300Z AUTO 04002KT 5SM 14/M00 A2991 RMK SLP188 T01451003 57012 IEM_DS3505
ZBAA,1992-04-09 04:00,ZBAA 090400Z AUTO 14002KT 4SM 15/M01 A2988 RMK T01501010 IEM_DS3505
ZBAA,1992-04-09 05:00,ZBAA 090500Z AUTO 15004KT 4SM 16/M02 A2988 RMK T01601020 IEM_DS3505
ZBAA,1992-04-09 06:00,ZBAA 090600Z AUTO 09002KT 4SM 16/M01 A2985 RMK SLP161 T01651012 4////0078 57027 IEM_DS3505
ZBAA,1992-04-09 07:00,ZBAA 090700Z AUTO 15006KT 4SM 16/01 A2983 RMK T01600010 IEM_DS3505
ZBAA,1992-04-09 08:00,ZBAA 090800Z AUTO 19008KT 4SM 16/03 A2980 RMK T01600030 IEM_DS3505
ZBAA,1992-04-09 09:00,ZBAA 090900Z AUTO 22004KT 6SM 16/00 A2980 RMK SLP146 T01650000 57015 IEM_DS3505
ZBAA,1992-04-09 10:00,ZBAA 091000Z AUTO 09004KT 3SM 15/04 A2980 RMK T01500040 IEM_DS3505
ZBAA,1992-04-09 11:00,ZBAA 091100Z AUTO 16004KT 3SM 14/03 A2977 RMK T01400030 IEM_DS3505
ZBAA,1992-04-09 12:00,ZBAA 091200Z AUTO 16002KT 4SM 15/00 A2977 RMK SLP143 T01520005 57003 IEM_DS3505
ZBAA,1992-04-09 13:00,ZBAA 091300Z AUTO 19004KT 3SM 13/03 A2977 RMK T01300030 IEM_DS3505
ZBAA,1992-04-09 14:00,ZBAA 091400Z AUTO 36006KT 3SM 12/03 A2977 RMK T01200030 IEM_DS3505
ZBAA,1992-04-09 15:00,ZBAA 091500Z AUTO 22002KT 3SM 13/02 A2977 RMK SLP132 T01320019 57011 IEM_DS3505
ZBAA,1992-04-09 16:00,ZBAA 091600Z AUTO 00000KT 3SM 11/04 A2974 RMK T01100040 IEM_DS3505
ZBAA,1992-04-09 17:00,ZBAA 091700Z AUTO 24004KT 3SM 11/04 A2971 RMK T01100040 IEM_DS3505
ZBAA,1992-04-09 18:00,ZBAA 091800Z AUTO 20002KT 3SM 11/04 A2968 RMK SLP115 T01100043 40167//// 57017 IEM_DS3505
ZBAA,1992-04-09 19:00,ZBAA 091900Z AUTO 15002KT 2 1/2SM 11/04 A2968 RMK T01100040 IEM_DS3505
ZBAA,1992-04-09 21:00,ZBAA 092100Z AUTO 16002KT 3SM 10/04 A2965 RMK SLP095 T00990043 57020 IEM_DS3505
ZBAA,1992-04-09 22:00,ZBAA 092200Z AUTO 14002KT 4SM 09/05 A2965 RMK T00900050 IEM_DS3505
ZBAA,1992-04-09 23:00,ZBAA 092300Z AUTO 14002KT 4SM 09/05 A2965 RMK T00900050 IEM_DS3505
ZBAA,1992-04-10 00:00,ZBAA 100000Z AUTO 20004KT 2 1/2SM 11/02 A2965 RMK SLP094 T01140024 57001 IEM_DS3505
ZBAA,1992-04-10 01:00,ZBAA 100100Z AUTO 28002KT 2 1/2SM 13/04 A2965 RMK T01300040 IEM_DS3505
ZBAA,1992-04-10 02:00,ZBAA 100200Z AUTO 00000KT 2 1/2SM 14/04 A2962 RMK T01400040 IEM_DS3505
ZBAA,1992-04-10 03:00,ZBAA 100300Z AUTO 07002KT 4SM 16/M00 A2962 RMK SLP087 T01651003 57006 IEM_DS3505
ZBAA,1992-04-10 04:00,ZBAA 100400Z AUTO 22006KT 6SM 17/02 A2959 RMK T01700020 IEM_DS3505
ZBAA,1992-04-10 05:00,ZBAA 100500Z AUTO 34006KT 7SM 19/03 A2956 RMK T01900030 IEM_DS3505
ZBAA,1992-04-10 06:00,ZBAA 100600Z AUTO 18006KT 6SM 19/01 A2953 RMK SLP062 T01910012 4////0088 57025 IEM_DS3505
ZBAA,1992-04-10 07:00,ZBAA 100700Z AUTO 18012KT 7SM 20/03 A2950 RMK T02000030 IEM_DS3505
ZBAA,1992-04-10 08:00,ZBAA 100800Z AUTO 21006KT 7SM 19/03 A2953 RMK T01900030 IEM_DS3505
ZBAA,1992-04-10 09:00,ZBAA 100900Z AUTO 27010KT 6SM 18/04 A2953 RMK SLP066 T01830040 52004 IEM_DS3505
ZBAA,1992-04-10 10:00,ZBAA 101000Z AUTO 25012KT 2SM 17/02 A2956 RMK T01700020 IEM_DS3505
ZBAA,1992-04-10 11:00,ZBAA 101100Z AUTO 27014KT 2SM 16/M02 A2959 RMK T01601020 IEM_DS3505
ZBAA,1992-04-10 12:00,ZBAA 101200Z AUTO 34010KT 7SM 14/M05 A2965 RMK 60001 SLP098 T01361047 52031 IEM_DS3505
ZBAA,1992-04-10 13:00,ZBAA 101300Z AUTO 33019KT 2 1/2SM 14/M07 A2968 RMK T01401070 IEM_DS3505
ZBAA,1992-04-10 14:00,ZBAA 101400Z AUTO 33019KT 3SM 14/M10 A2971 RMK T01401100 IEM_DS3505
ZBAA,1992-04-10 15:00,ZBAA 101500Z AUTO 34012KT 4SM 12/M22 A2974 RMK SLP130 T01201221 52032 IEM_DS3505
ZBAA,1992-04-10 16:00,ZBAA 101600Z AUTO 34025KT 2 1/2SM 11/M17 A2977 RMK T01101170 IEM_DS3505
ZBAA,1992-04-10 17:00,ZBAA 101700Z AUTO 34027KT 2 1/2SM 09/M18 A2980 RMK T00901180 IEM_DS3505
ZBAA,1992-04-10 18:00,ZBAA 101800Z AUTO 36016KT 4SM 08/ A2980 RMK SLP151 40201//// 52021 IEM_DS3505
ZBAA,1992-04-10 19:00,ZBAA 101900Z AUTO 35016KT 6SM 07/M19 A2983 RMK T00701190 IEM_DS3505
ZBAA,1992-04-10 20:00,ZBAA 102000Z AUTO 33017G27KT 6SM 06/M19 A2983 RMK T00601190 IEM_DS3505
ZBAA,1992-04-10 21:00,ZBAA 102100Z AUTO 34008G31KT 6SM 06/M20 A2983 RMK 70001 SLP154 T00571197 52003 IEM_DS3505
ZBAA,1992-04-10 22:00,ZBAA 102200Z AUTO 29008KT 7SM 05/M18 A2983 RMK T00501180 IEM_DS3505
ZBAA,1992-04-10 23:00,ZBAA 102300Z AUTO 30012KT 7SM 05/M16 A2983 RMK T00501160 IEM_DS3505
ZBAA,1992-04-11 00:00,ZBAA 110000Z AUTO 32006KT 7SM 07/M21 A2983 RMK 70001 SLP156 T00741207 52001 IEM_DS3505
ZBAA,1992-04-11 01:00,ZBAA 110100Z AUTO 29016KT 7SM 09/M17 A2980 RMK T00901170 IEM_DS3505
ZBAA,1992-04-11 02:00,ZBAA 110200Z AUTO 29017KT 7SM 10/M16 A2980 RMK T01001160 IEM_DS3505
ZBAA,1992-04-11 03:00,ZBAA 110300Z AUTO 34014G33KT 7SM 11/ A2977 RMK SLP142 57013 IEM_DS3505
ZBAA,1992-04-11 04:00,ZBAA 110400Z AUTO 29019G31KT 6SM 13/M15 A2971 RMK T01301150 IEM_DS3505
ZBAA,1992-04-11 05:00,ZBAA 110500Z AUTO 30019G31KT 6SM 14/M14 A2968 RMK T01401140 IEM_DS3505
ZBAA,1992-04-11 06:00,ZBAA 110600Z AUTO 34012G33KT 9SM 14/M20 A2962 RMK SLP092 T01451197 4////0054 57050 IEM_DS3505
ZBAA,1992-04-11 07:00,ZBAA 110700Z AUTO 32019KT 6SM 15/M13 A2962 RMK T01501130 IEM_DS3505
ZBAA,1992-04-11 08:00,ZBAA 110800Z AUTO 32016KT 6SM 16/M14 A2959 RMK T01601140 IEM_DS3505
ZBAA,1992-04-11 09:00,ZBAA 110900Z AUTO 34010G25KT 9SM 16/M18 A2962 RMK SLP081 T01591182 57011 IEM_DS3505
ZBAA,1992-04-11 10:00,ZBAA 111000Z AUTO 36014KT 7SM 14/M15 A2965 RMK T01401150 IEM_DS3505
ZBAA,1992-04-11 11:00,ZBAA 111100Z AUTO 36014KT 7SM 12/M14 A2968 RMK T01201140 IEM_DS3505
ZBAA,1992-04-11 12:00,ZBAA 111200Z AUTO 09006KT 9SM 12/M14 A2971 RMK SLP115 T01221137 52033 IEM_DS3505
ZBAA,1992-04-11 13:00,ZBAA 111300Z AUTO 04004KT 7SM 09/M13 A2974 RMK T00901130 IEM_DS3505
ZBAA,1992-04-11 14:00,ZBAA 111400Z AUTO 06006KT 7SM 08/M12 A2977 RMK T00801120 IEM_DS3505
ZBAA,1992-04-11 15:00,ZBAA 111500Z AUTO 09002KT 9SM 10/M11 A2977 RMK SLP137 T00981109 52022 IEM_DS3505
ZBAA,1992-04-11 16:00,ZBAA 111600Z AUTO 35016KT 7SM 10/M16 A2980 RMK T01001160 IEM_DS3505
ZBAA,1992-04-11 17:00,ZBAA 111700Z AUTO 36014KT 7SM 10/M16 A2980 RMK T01001160 IEM_DS3505
ZBAA,1992-04-11 18:00,ZBAA 111800Z AUTO 00000KT 9SM 05/ A2980 RMK SLP144 40167//// 52007 IEM_DS3505
ZBAA,1992-04-11 19:00,ZBAA 111900Z AUTO 33016KT 7SM 09/M16 A2980 RMK T00901160 IEM_DS3505
ZBAA,1992-04-11 20:00,ZBAA 112000Z AUTO 06006KT 7SM 06/M14 A2983 RMK T00601140 IEM_DS3505
ZBAA,1992-04-11 21:00,ZBAA 112100Z AUTO 32002KT 9SM 03/M06 A2983 RMK SLP148 T00311057 52004 IEM_DS3505
ZBAA,1992-04-11 22:00,ZBAA 112200Z AUTO 01004KT 7SM 04/M12 A2983 RMK T00401120 IEM_DS3505
ZBAA,1992-04-11 23:00,ZBAA 112300Z AUTO 07002KT 7SM 06/M11 A2985 RMK T00601110 IEM_DS3505
ZBAA,1992-04-12 00:00,ZBAA 120000Z AUTO 02004KT 9SM 10/M11 A2988 RMK SLP166 T00981109 52018 IEM_DS3505
ZBAA,1992-04-12 01:00,ZBAA 120100Z AUTO 03008KT 7SM 11/M11 A2988 RMK T01101110 IEM_DS3505
ZBAA,1992-04-12 02:00,ZBAA 120200Z AUTO 05006KT 7SM 12/M12 A2988 RMK T01201120 IEM_DS3505
ZBAA,1992-04-12 03:00,ZBAA 120300Z AUTO 18002KT 7SM 14/M12 A2988 RMK SLP170 T01381124 52005 IEM_DS3505
ZBAA,1992-04-12 04:00,ZBAA 120400Z AUTO 09004KT 7SM 14/M11 A2985 RMK T01401110 IEM_DS3505
ZBAA,1992-04-12 05:00,ZBAA 120500Z AUTO 13002KT 7SM 15/M10 A2983 RMK T01501100 IEM_DS3505
ZBAA,1992-04-12 06:00,ZBAA 120600Z AUTO 16006KT 6SM 17/M07 A2980 RMK SLP148 T01701074 4////0023 57023 IEM_DS3505
ZBAA,1992-04-12 07:00,ZBAA 120700Z AUTO 14002KT 7SM 17/M09 A2977 RMK T01701090 IEM_DS3505
ZBAA,1992-04-12 08:00,ZBAA 120800Z AUTO 12004KT 7SM 17/M08 A2977 RMK T01701080 IEM_DS3505
ZBAA,1992-04-12 09:00,ZBAA 120900Z AUTO 20008KT 7SM 18/M09 A2977 RMK SLP134 T01781086 57014 IEM_DS3505
ZBAA,1992-04-12 10:00,ZBAA 121000Z AUTO 13006KT 7SM 16/M07 A2977 RMK T01601070 IEM_DS3505
ZBAA,1992-04-12 11:00,ZBAA 121100Z AUTO 13004KT 7SM 14/M07 A2977 RMK T01401070 IEM_DS3505
ZBAA,1992-04-12 12:00,ZBAA 121200Z AUTO 16004KT 9SM 15/M05 A2980 RMK SLP143 T01531048 52010 IEM_DS3505
ZBAA,1992-04-12 13:00,ZBAA 121300Z AUTO 14004KT 6SM 13/M06 A2983 RMK T01301060 IEM_DS3505
ZBAA,1992-04-12 14:00,ZBAA 121400Z AUTO 16008KT 6SM 13/M06 RMK T01301060 IEM_DS3505
ZBAA,1992-04-12 15:00,ZBAA 121500Z AUTO 20006KT 9SM 12/M04 RMK SLP150 T01201040 52007 IEM_DS3505
ZBAA,1992-04-12 16:00,ZBAA 121600Z AUTO 11002KT 6SM 10/M02 A2983 RMK T01001020 IEM_DS3505
ZBAA,1992-04-12 17:00,ZBAA 121700Z AUTO 09006KT 6SM 07/M02 A2983 RMK T00701020 IEM_DS3505
ZBAA,1992-04-12 18:00,ZBAA 121800Z AUTO 16004KT 12SM 10/M05 A2983 RMK SLP147 T00981051 40182//// 57003 IEM_DS3505
ZBAA,1992-04-12 19:00,ZBAA 121900Z AUTO 06004KT 6SM 05/M02 A2983 RMK T00501020 IEM_DS3505
ZBAA,1992-04-12 20:00,ZBAA 122000Z AUTO 05002KT 6SM 06/M03 A2983 RMK T00601030 IEM_DS3505
ZBAA,1992-04-12 21:00,ZBAA 122100Z AUTO 02004KT 12SM 06/M00 A2983 RMK SLP155 T00631005 52008 IEM_DS3505
ZBAA,1992-04-12 22:00,ZBAA 122200Z AUTO 33002KT 6SM 04/M03 A2985 RMK T00401030 IEM_DS3505
ZBAA,1992-04-12 23:00,ZBAA 122300Z AUTO 33002KT 6SM 06/M02 A2985 RMK T00601020 IEM_DS3505
ZBAA,1992-04-13 00:00,ZBAA 130000Z AUTO 04004KT 7SM 10/M01 A2988 RMK SLP168 T00951014 52013 IEM_DS3505
ZBAA,1992-04-13 01:00,ZBAA 130100Z AUTO 08002KT 7SM 12/M03 A2988 RMK T01201030 IEM_DS3505
ZBAA,1992-04-13 02:00,ZBAA 130200Z AUTO 06002KT 7SM 13/M02 A2988 RMK T01301020 IEM_DS3505
ZBAA,1992-04-13 03:00,ZBAA 130300Z AUTO 34008KT 7SM 17/M06 A2985 RMK SLP165 T01681058 57003 IEM_DS3505
ZBAA,1992-04-13 04:00,ZBAA 130400Z AUTO 33010KT 7SM 19/M06 A2983 RMK T01901060 IEM_DS3505
ZBAA,1992-04-13 05:00,ZBAA 130500Z AUTO 35023KT 7SM 19/M11 A2983 RMK T01901110 IEM_DS3505
ZBAA,1992-04-13 06:00,ZBAA 130600Z AUTO 34008KT 19SM 19/M16 A2983 RMK SLP156 T01881160 4////0056 57009 IEM_DS3505
ZBAA,1992-04-13 07:00,ZBAA 130700Z AUTO 35017KT 7SM 19/M10 A2980 RMK T01901100 IEM_DS3505
ZBAA,1992-04-13 08:00,ZBAA 130800Z AUTO 35016KT 7SM 19/M11 A2980 RMK T01901110 IEM_DS3505
ZBAA,1992-04-13 09:00,ZBAA 130900Z AUTO 32010KT 19SM 18/M14 A2980 RMK SLP149 T01841140 57007 IEM_DS3505
ZBAA,1992-04-13 10:00,ZBAA 131000Z AUTO 36016KT 7SM 16/M11 A2983 RMK T01601110 IEM_DS3505
ZBAA,1992-04-13 11:00,ZBAA 131100Z AUTO 36010KT 7SM 15/M12 A2985 RMK T01501120 IEM_DS3505
ZBAA,1992-04-13 12:00,ZBAA 131200Z AUTO 02002KT 19SM 15/M08 A2988 RMK SLP171 T01511085 52022 IEM_DS3505
ZBAA,1992-04-13 13:00,ZBAA 131300Z AUTO 01012KT 7SM 13/M14 A2991 RMK T01301140 IEM_DS3505
ZBAA,1992-04-13 14:00,ZBAA 131400Z AUTO 03006KT 7SM 11/M14 A2991 RMK T01101140 IEM_DS3505
ZBAA,1992-04-13 15:00,ZBAA 131500Z AUTO 02008KT 16SM 13/M15 A2991 RMK SLP189 T01261151 52018 IEM_DS3505
ZBAA,1992-04-13 16:00,ZBAA 131600Z AUTO 00000KT 6SM 09/M10 A2991 RMK T00901100 IEM_DS3505
ZBAA,1992-04-13 17:00,ZBAA 131700Z AUTO 02004KT 6SM 08/M09 A2988 RMK T00801090 IEM_DS3505
ZBAA,1992-04-13 18:00,ZBAA 131800Z AUTO 04004KT 12SM 09/M09 A2985 RMK SLP176 T00941090 40195//// 57013 IEM_DS3505
ZBAA,1992-04-13 19:00,ZBAA 131900Z AUTO 22002KT 6SM 07/M10 A2988 RMK T00701100 IEM_DS3505
ZBAA,1992-04-13 20:00,ZBAA 132000Z AUTO 00000KT 6SM 06/M09 A2985 RMK T00601090 IEM_DS3505
ZBAA,1992-04-13 21:00,ZBAA 132100Z AUTO 20004KT 12SM 08/M08 A2988 RMK SLP173 T00781076 57003 IEM_DS3505
ZBAA,1992-04-13 22:00,ZBAA 132200Z AUTO 06004KT 7SM 04/M07 A2988 RMK T00401070 IEM_DS3505
ZBAA,1992-04-13 23:00,ZBAA 132300Z AUTO 00000KT 7SM 06/M05 A2988 RMK T00601050 IEM_DS3505
ZBAA,1992-04-14 00:00,ZBAA 140000Z AUTO 18004KT 6SM 10/M02 A2991 RMK SLP179 T00981020 52006 IEM_DS3505
ZBAA,1992-04-14 01:00,ZBAA 140100Z AUTO 07006KT 6SM 11/00 A2991 RMK T01100000 IEM_DS3505
ZBAA,1992-04-14 02:00,ZBAA 140200Z AUTO 04008KT 6SM 11/00 A2991 RMK T01100000 IEM_DS3505
ZBAA,1992-04-14 03:00,ZBAA 140300Z AUTO 11002KT 7SM 12/M02 A2991 RMK SLP184 T01231019 52005 IEM_DS3505
ZBAA,1992-04-14 04:00,ZBAA 140400Z AUTO 02008KT 6SM 14/M10 A2991 RMK T01401100 IEM_DS3505
ZBAA,1992-04-14 05:00,ZBAA 140500Z AUTO 03008KT 6SM 15/M10 A2988 RMK T01501100 IEM_DS3505
ZBAA,1992-04-14 06:00,ZBAA 140600Z AUTO 34010KT 12SM 14/ A2988 RMK SLP183 4////0055 57002 IEM_DS3505
ZBAA,1992-04-14 07:00,ZBAA 140700Z AUTO 33016KT 7SM 16/M11 A2988 RMK T01601110 IEM_DS3505
ZBAA,1992-04-14 08:00,ZBAA 140800Z AUTO 03014G23KT 7SM 15/M09 A2991 RMK T01501090 IEM_DS3505
ZBAA,1992-04-14 09:00,ZBAA 140900Z AUTO 36010KT 19SM 15/M13 A2991 RMK SLP186 T01491133 52003 IEM_DS3505
ZBAA,1992-04-14 10:00,ZBAA 141000Z AUTO 02008KT 7SM 14/M08 A2994 RMK T01401080 IEM_DS3505
ZBAA,1992-04-14 11:00,ZBAA 141100Z AUTO 04004KT 7SM 13/M08 A2994 RMK T01301080 IEM_DS3505
ZBAA,1992-04-14 12:00,ZBAA 141200Z AUTO 36006KT 12SM 13/M07 A2997 RMK SLP210 T01261071 52024 IEM_DS3505
ZBAA,1992-04-14 13:00,ZBAA 141300Z AUTO 35008KT 7SM 12/M08 A3000 RMK T01201080 IEM_DS3505
ZBAA,1992-04-14 14:00,ZBAA 141400Z AUTO 01008KT 7SM 11/M08 A3003 RMK T01101080 IEM_DS3505
ZBAA,1992-04-14 15:00,ZBAA 141500Z AUTO 36008KT 12SM 12/M10 A3006 RMK SLP228 T01201097 52018 IEM_DS3505
ZBAA,1992-04-14 16:00,ZBAA 141600Z AUTO 01008KT 7SM 09/M07 A3006 RMK T00901070 IEM_DS3505
ZBAA,1992-04-14 17:00,ZBAA 141700Z AUTO 26006KT 7SM 06/M06 A3006 RMK T00601060 IEM_DS3505
ZBAA,1992-04-14 18:00,ZBAA 141800Z AUTO 36002KT 12SM 08/M04 A3003 RMK SLP231 T00841039 40154//// 52003 IEM_DS3505
ZBAA,1992-04-14 19:00,ZBAA 141900Z AUTO 29004KT 7SM 07/M06 A3003 RMK T00701060 IEM_DS3505
ZBAA,1992-04-14 20:00,ZBAA 142000Z AUTO 29006KT 7SM 06/M05 A3003 RMK T00601050 IEM_DS3505
ZBAA,1992-04-14 21:00,ZBAA 142100Z AUTO 32002KT 12SM 05/M03 A3003 RMK SLP229 T00511032 57002 IEM_DS3505
ZBAA,1992-04-14 22:00,ZBAA 142200Z AUTO 27006KT 7SM 08/M07 A3003 RMK T00801070 IEM_DS3505
ZBAA,1992-04-14 23:00,ZBAA 142300Z AUTO 30008KT 7SM 09/M06 A3006 RMK T00901060 IEM_DS3505
ZBAA,1992-04-15 00:00,ZBAA 150000Z AUTO 36004KT 10SM 11/M06 A3003 RMK SLP230 T01081065 52001 IEM_DS3505
ZBAA,1992-04-15 01:00,ZBAA 150100Z AUTO 32012KT 7SM 13/M07 A3003 RMK T01301070 IEM_DS3505
ZBAA,1992-04-15 02:00,ZBAA 150200Z AUTO 30012KT 7SM 14/M07 A3003 RMK T01401070 IEM_DS3505
ZBAA,1992-04-15 03:00,ZBAA 150300Z AUTO 36006KT 16SM 16/M09 A3000 RMK SLP217 T01551094 57012 IEM_DS3505
ZBAA,1992-04-15 04:00,ZBAA 150400Z AUTO 29010KT 7SM 17/M07 A2997 RMK T01701070 IEM_DS3505
ZBAA,1992-04-15 05:00,ZBAA 150500Z AUTO 28006KT 7SM 17/M08 A2991 RMK T01701080 IEM_DS3505
ZBAA,1992-04-15 06:00,ZBAA 150600Z AUTO 25006KT 16SM 18/M10 A2988 RMK SLP180 T01831098 4////0038 57037 IEM_DS3505
ZBAA,1992-04-15 07:00,ZBAA 150700Z AUTO 25010KT 7SM 19/M09 A2985 RMK T01901090 IEM_DS3505
ZBAA,1992-04-15 08:00,ZBAA 150800Z AUTO 20008KT 7SM 19/M09 A2983 RMK T01901090 IEM_DS3505
ZBAA,1992-04-15 09:00,ZBAA 150900Z AUTO 20010KT 12SM 18/M10 A2980 RMK SLP149 T01791103 57031 IEM_DS3505
ZBAA,1992-04-15 10:00,ZBAA 151000Z AUTO 18010KT 6SM 17/M07 A2980 RMK T01701070 IEM_DS3505
ZBAA,1992-04-15 11:00,ZBAA 151100Z AUTO 18008KT 6SM 16/M07 A2980 RMK T01601070 IEM_DS3505
ZBAA,1992-04-15 12:00,ZBAA 151200Z AUTO 20010KT 19SM 15/M07 A2980 RMK SLP149 T01511073 54000 IEM_DS3505
ZBAA,1992-04-15 13:00,ZBAA 151300Z AUTO 16006KT 6SM 13/M05 A2980 RMK T01301050 IEM_DS3505
ZBAA,1992-04-15 14:00,ZBAA 151400Z AUTO 18008KT 6SM 13/M05 A2980 RMK T01301050 IEM_DS3505
ZBAA,1992-04-15 15:00,ZBAA 151500Z AUTO 18008KT 19SM 12/M05 A2980 RMK SLP140 T01231052 57009 IEM_DS3505
ZBAA,1992-04-15 16:00,ZBAA 151600Z AUTO 13006KT 6SM 11/M04 A2977 RMK T01101040 IEM_DS3505
ZBAA,1992-04-15 17:00,ZBAA 151700Z AUTO 14006KT 6SM 09/M03 A2977 RMK T00901030 IEM_DS3505
ZBAA,1992-04-15 18:00,ZBAA 151800Z AUTO 20004KT 19SM 09/M03 A2974 RMK SLP126 T00941029 40190//// 57014 IEM_DS3505
ZBAA,1992-04-15 19:00,ZBAA 151900Z AUTO 14004KT 6SM 08/M04 A2971 RMK T00801040 IEM_DS3505
ZBAA,1992-04-15 20:00,ZBAA 152000Z AUTO 07002KT 6SM 06/M03 A2971 RMK T00601030 IEM_DS3505
ZBAA,1992-04-15 21:00,ZBAA 152100Z AUTO 00000KT 16SM 07/M02 A2968 RMK SLP107 T00671020 57019 IEM_DS3505
ZBAA,1992-04-15 22:00,ZBAA 152200Z AUTO 11006KT 6SM 05/M02 A2968 RMK T00501020 IEM_DS3505
ZBAA,1992-04-15 23:00,ZBAA 152300Z AUTO 13006KT 6SM 07/M02 A2968 RMK T00701020 IEM_DS3505
ZBAA,1992-04-16 00:00,ZBAA 160000Z AUTO 36004KT 6SM 09/M02 A2965 RMK SLP098 T00891022 57009 IEM_DS3505
ZBAA,1992-04-16 01:00,ZBAA 160100Z AUTO 15006KT 7SM 11/00 A2965 RMK T01100000 IEM_DS3505
ZBAA,1992-04-16 02:00,ZBAA 160200Z AUTO 15004KT 7SM 12/00 A2962 RMK T01200000 IEM_DS3505
ZBAA,1992-04-16 03:00,ZBAA 160300Z AUTO 00000KT 2 1/2SM 14/M01 A2959 RMK SLP074 T01351009 57024 IEM_DS3505
ZBAA,1992-04-16 04:00,ZBAA 160400Z AUTO 16006KT 6SM 15/02 A2956 RMK T01500020 IEM_DS3505
ZBAA,1992-04-16 05:00,ZBAA 160500Z AUTO 14006KT 6SM 16/02 A2950 RMK T01600020 IEM_DS3505
ZBAA,1992-04-16 06:00,ZBAA 160600Z AUTO 20004KT 5SM 18/M00 A2944 RMK SLP027 T01751002 4////0063 57046 IEM_DS3505
ZBAA,1992-04-16 07:00,ZBAA 160700Z AUTO 16006KT 6SM 19/02 A2941 RMK T01900020 IEM_DS3505
ZBAA,1992-04-16 08:00,ZBAA 160800Z AUTO 16006KT 6SM 19/02 A2950 RMK T01900020 IEM_DS3505
ZBAA,1992-04-16 09:00,ZBAA 160900Z AUTO 18006KT 5SM 20/03 A2944 RMK SLP991 T01960026 57036 IEM_DS3505
ZBAA,1992-04-16 10:00,ZBAA 161000Z AUTO 18004KT 6SM 19/03 A2944 RMK T01900030 IEM_DS3505
ZBAA,1992-04-16 11:00,ZBAA 161100Z AUTO 00000KT 6SM 17/04 A2944 RMK T01700040 IEM_DS3505
ZBAA,1992-04-16 12:00,ZBAA 161200Z AUTO 14002KT 5SM 18/05 A2944 RMK SLP989 T01780048 57002 IEM_DS3505
ZBAA,1992-04-16 13:00,ZBAA 161300Z AUTO 02004KT 6SM 15/04 A2947 RMK T01500040 IEM_DS3505
ZBAA,1992-04-16 14:00,ZBAA 161400Z AUTO 04004KT 6SM 14/04 A2947 RMK T01400040 IEM_DS3505
ZBAA,1992-04-16 15:00,ZBAA 161500Z AUTO 36002KT 4SM 15/04 A2947 RMK SLP994 T01490045 52005 IEM_DS3505
ZBAA,1992-04-16 16:00,ZBAA 161600Z AUTO 34004KT 6SM 13/04 A2947 RMK T01300040 IEM_DS3505
ZBAA,1992-04-16 17:00,ZBAA 161700Z AUTO 33004KT 6SM 13/04 A2944 RMK T01300040 IEM_DS3505
ZBAA,1992-04-16 18:00,ZBAA 161800Z AUTO 07002KT 4SM 13/04 A2941 RMK SLP981 T01310039 40198//// 57012 IEM_DS3505
ZBAA,1992-04-16 19:00,ZBAA 161900Z AUTO 35006KT 6SM 11/05 A2941 RMK T01100050 IEM_DS3505
ZBAA,1992-04-16 20:00,ZBAA 162000Z AUTO 36006KT 6SM 11/05 A2941 RMK T01100050 IEM_DS3505
ZBAA,1992-04-16 21:00,ZBAA 162100Z AUTO 04006KT 4SM 13/04 A2944 RMK SLP984 T01270037 52003 IEM_DS3505
ZBAA,1992-04-16 22:00,ZBAA 162200Z AUTO 01006KT 4SM 11/04 A2947 RMK T01100040 IEM_DS3505
ZBAA,1992-04-16 23:00,ZBAA 162300Z AUTO 01008KT 4SM 12/04 A2947 RMK T01200040 IEM_DS3505
ZBAA,1992-04-17 00:00,ZBAA 170000Z AUTO 02006KT 3SM 14/03 A2950 RMK SLP005 T01450030 52021 IEM_DS3505
ZBAA,1992-04-17 01:00,ZBAA 170100Z AUTO 03012KT 6SM 18/00 A2953 RMK T01800000 IEM_DS3505
ZBAA,1992-04-17 02:00,ZBAA 170200Z AUTO 03012KT 6SM 20/M01 A2953 RMK T02001010 IEM_DS3505
ZBAA,1992-04-17 03:00,ZBAA 170300Z AUTO 07012KT 6SM 19/M03 A2953 RMK SLP016 T01941027 52011 IEM_DS3505
ZBAA,1992-04-17 04:00,ZBAA 170400Z AUTO 05014KT 6SM 20/01 A2953 RMK T02000010 IEM_DS3505
ZBAA,1992-04-17 05:00,ZBAA 170500Z AUTO 05012KT 6SM 21/01 A2953 RMK T02100010 IEM_DS3505
ZBAA,1992-04-17 06:00,ZBAA 170600Z AUTO 11008KT 19SM 22/01 A2953 RMK SLP013 T02170009 4////0119 57003 IEM_DS3505
ZBAA,1992-04-17 07:00,ZBAA 170700Z AUTO 08004KT 6SM 23/01 A2950 RMK T02300010 IEM_DS3505
ZBAA,1992-04-17 08:00,ZBAA 170800Z AUTO 13004KT 6SM 23/01 RMK T02300010 IEM_DS3505
ZBAA,1992-04-17 09:00,ZBAA 170900Z AUTO 20006KT 12SM 22/01 A2947 RMK SLP999 T02210010 57014 IEM_DS3505
ZBAA,1992-04-17 10:00,ZBAA 171000Z AUTO 18006KT 6SM 21/02 A2950 RMK T02100020 IEM_DS3505
ZBAA,1992-04-17 11:00,ZBAA 171100Z AUTO 28019G31KT 1SM 20/M07 A2944 RMK T02001070 IEM_DS3505
ZBAA,1992-04-17 12:00,ZBAA 171200Z AUTO 32016G31KT 2SM 17/M11 A2953 RMK SLP068 T01711113 52068 IEM_DS3505
ZBAA,1992-04-17 13:00,ZBAA 171300Z AUTO 34031G43KT 2 1/2SM 14/M06 A2962 RMK T01401060 IEM_DS3505
ZBAA,1992-04-17 14:00,ZBAA 171400Z AUTO 32021G31KT 6SM 12/M07 A2968 RMK T01201070 IEM_DS3505
ZBAA,1992-04-17 15:00,ZBAA 171500Z AUTO 04006KT 12SM 12/M08 A2971 RMK SLP119 T01241079 52051 IEM_DS3505
ZBAA,1992-04-17 16:00,ZBAA 171600Z AUTO 32014KT 6SM 11/M06 A2971 RMK T01101060 IEM_DS3505
ZBAA,1992-04-17 17:00,ZBAA 171700Z AUTO 32014KT 7SM 11/M07 A2965 RMK T01101070 IEM_DS3505
ZBAA,1992-04-17 18:00,ZBAA 171800Z AUTO 34006KT 16SM 12/M12 A2968 RMK SLP112 T01221115 40228//// 57007 IEM_DS3505
ZBAA,1992-04-17 20:00,ZBAA 172000Z AUTO 26006KT 7SM 07/M07 A2968 RMK T00701070 IEM_DS3505
ZBAA,1992-04-17 21:00,ZBAA 172100Z AUTO 34006KT 12SM 12/M11 A2968 RMK SLP105 T01201107 57007 IEM_DS3505
ZBAA,1992-04-17 22:00,ZBAA 172200Z AUTO 27006KT 7SM 10/M09 A2968 RMK T01001090 IEM_DS3505
ZBAA,1992-04-17 23:00,ZBAA 172300Z AUTO 27006KT 7SM 11/M06 A2971 RMK T01101060 IEM_DS3505
ZBAA,1992-04-18 00:00,ZBAA 180000Z AUTO 00000KT 16SM 14/M08 A2968 RMK SLP108 T01451077 52003 IEM_DS3505
ZBAA,1992-04-18 01:00,ZBAA 180100Z AUTO 23006KT 7SM 16/M07 A2968 RMK T01601070 IEM_DS3505
ZBAA,1992-04-18 02:00,ZBAA 180200Z AUTO 28014KT 7SM 18/M09 A2968 RMK T01801090 IEM_DS3505
ZBAA,1992-04-18 03:00,ZBAA 180300Z AUTO 07004G23KT 19SM 18/M07 A2965 RMK SLP098 T01841074 57010 IEM_DS3505
ZBAA,1992-04-18 04:00,ZBAA 180400Z AUTO 27016KT 7SM 21/M08 A2959 RMK T02101080 IEM_DS3505
ZBAA,1992-04-18 05:00,ZBAA 180500Z AUTO 28017G27KT 7SM 22/M08 A2956 RMK T02201080 IEM_DS3505
ZBAA,1992-04-18 06:00,ZBAA 180600Z AUTO 27010G27KT 16SM 22/M15 A2953 RMK SLP065 T02251154 4////0106 57033 IEM_DS3505
ZBAA,1992-04-18 07:00,ZBAA 180700Z AUTO 27012KT 6SM 22/M08 A2962 RMK T02201080 IEM_DS3505
ZBAA,1992-04-18 08:00,ZBAA 180800Z AUTO 25010KT 6SM 22/M08 A2944 RMK T02201080 IEM_DS3505
ZBAA,1992-04-18 09:00,ZBAA 180900Z AUTO 20010KT 6SM 22/M09 RMK SLP026 T02201090 57038 IEM_DS3505
ZBAA,1992-04-18 10:00,ZBAA 181000Z AUTO 22012G21KT 4SM 20/M05 A2953 RMK T02001050 IEM_DS3505
ZBAA,1992-04-18 11:00,ZBAA 181100Z AUTO 21012KT 4SM 19/M04 A2956 RMK T01901040 IEM_DS3505
ZBAA,1992-04-18 12:00,ZBAA 181200Z AUTO 20006KT 6SM 20/M02 A2959 RMK SLP035 T01951025 52009 IEM_DS3505
ZBAA,1992-04-18 13:00,ZBAA 181300Z AUTO 17004KT 7SM 18/M03 A2962 RMK T01801030 IEM_DS3505
ZBAA,1992-04-18 14:00,ZBAA 181400Z AUTO 22004KT 7SM 17/M02 A2962 RMK T01701020 IEM_DS3505
ZBAA,1992-04-18 15:00,ZBAA 181500Z AUTO 20006KT 7SM 16/00 A2962 RMK SLP048 T01640003 52013 IEM_DS3505
ZBAA,1992-04-18 16:00,ZBAA 181600Z AUTO 23002KT 7SM 13/00 A2953 RMK T01300000 IEM_DS3505
ZBAA,1992-04-18 18:00,ZBAA 181800Z AUTO 18002KT 11SM 13/01 A2953 RMK SLP049 T01310009 40239//// 52001 IEM_DS3505
ZBAA,1992-04-18 19:00,ZBAA 181900Z AUTO 29002KT 7SM 09/00 A2953 RMK T00900000 IEM_DS3505
ZBAA,1992-04-18 20:00,ZBAA 182000Z AUTO 01002KT 7SM 08/00 A2953 RMK T00800000 IEM_DS3505
ZBAA,1992-04-18 21:00,ZBAA 182100Z AUTO 00000KT 9SM 11/02 A2953 RMK SLP056 T01100019 52006 IEM_DS3505
ZBAA,1992-04-18 22:00,ZBAA 182200Z AUTO 01004KT 6SM 08/M02 A2953 RMK T00801020 IEM_DS3505
ZBAA,1992-04-18 23:00,ZBAA 182300Z AUTO 00000KT 7SM 09/M02 A2956 RMK T00901020 IEM_DS3505
ZBAA,1992-04-19 00:00,ZBAA 190000Z AUTO 00000KT 3SM 14/M01 RMK SLP068 T01381011 52012 IEM_DS3505
ZBAA,1992-04-19 01:00,ZBAA 190100Z AUTO 07002KT 7SM 15/M01 A2959 RMK T01501010 IEM_DS3505
ZBAA,1992-04-19 02:00,ZBAA 190200Z AUTO 11004KT 7SM 19/03 A2959 RMK T01900030 IEM_DS3505
ZBAA,1992-04-19 03:00,ZBAA 190300Z AUTO 09006KT 4SM 22/M04 A2956 RMK SLP068 T02181040 52001 IEM_DS3505
ZBAA,1992-04-19 04:00,ZBAA 190400Z AUTO 15006KT 6SM 22/M02 A2953 RMK T02201020 IEM_DS3505
ZBAA,1992-04-19 05:00,ZBAA 190500Z AUTO 17010KT 6SM 25/M02 A2950 RMK T02501020 IEM_DS3505
ZBAA,1992-04-19 06:00,ZBAA 190600Z AUTO 14006KT 6SM 23/M00 A2947 RMK SLP042 T02281003 4////0087 57026 IEM_DS3505
ZBAA,1992-04-19 07:00,ZBAA 190700Z AUTO 16008KT 6SM 24/M02 A2944 RMK T02401020 IEM_DS3505
ZBAA,1992-04-19 08:00,ZBAA 190800Z AUTO 15006KT 6SM 24/00 A2941 RMK T02400000 IEM_DS3505
ZBAA,1992-04-19 09:00,ZBAA 190900Z AUTO 18010KT 7SM 26/M07 A2941 RMK SLP021 T02641068 57021 IEM_DS3505
ZBAA,1992-04-19 10:00,ZBAA 191000Z AUTO 10004KT 6SM 22/04 A2941 RMK T02200040 IEM_DS3505
ZBAA,1992-04-19 11:00,ZBAA 191100Z AUTO 10004KT 6SM 20/04 A2944 RMK T02000040 IEM_DS3505
ZBAA,1992-04-19 12:00,ZBAA 191200Z AUTO 18008KT 12SM 23/M02 A2944 RMK SLP028 T02281024 52007 IEM_DS3505
ZBAA,1992-04-19 13:00,ZBAA 191300Z AUTO 12004KT 6SM 18/02 A2947 RMK T01800020 IEM_DS3505
ZBAA,1992-04-19 14:00,ZBAA 191400Z AUTO 13004KT 6SM 17/03 A2947 RMK T01700030 IEM_DS3505
ZBAA,1992-04-19 15:00,ZBAA 191500Z AUTO 18010KT 9SM 20/00 A2947 RMK SLP030 T01950003 52002 IEM_DS3505
ZBAA,1992-04-19 16:00,ZBAA 191600Z AUTO 14004KT 6SM 16/03 A2947 RMK T01600030 IEM_DS3505
ZBAA,1992-04-19 17:00,ZBAA 191700Z AUTO 12006KT 6SM 15/05 A2947 RMK T01500050 IEM_DS3505
ZBAA,1992-04-19 18:00,ZBAA 191800Z AUTO 14002KT 6SM 16/06 A2947 RMK SLP032 T01600057 40265//// 52002 IEM_DS3505
ZBAA,1992-04-19 19:00,ZBAA 191900Z AUTO 11008KT 6SM 14/06 A2947 RMK T01400060 IEM_DS3505
ZBAA,1992-04-19 20:00,ZBAA 192000Z AUTO 13006KT 6SM 13/06 A2950 RMK T01300060 IEM_DS3505
ZBAA,1992-04-19 21:00,ZBAA 192100Z AUTO 07002KT 6SM 13/06 A2950 RMK SLP038 T01340064 52006 IEM_DS3505
ZBAA,1992-04-19 22:00,ZBAA 192200Z AUTO 15002KT 6SM 12/04 A2950 RMK T01200040 IEM_DS3505
ZBAA,1992-04-19 23:00,ZBAA 192300Z AUTO 12002KT 6SM 13/04 A2953 RMK T01300040 IEM_DS3505
ZBAA,1992-04-20 00:00,ZBAA 200000Z AUTO 09002KT 5SM 14/05 A2953 RMK SLP055 T01360048 52017 IEM_DS3505
ZBAA,1992-04-20 01:00,ZBAA 200100Z AUTO 10006KT 6SM 16/04 A2953 RMK T01600040 IEM_DS3505
ZBAA,1992-04-20 02:00,ZBAA 200200Z AUTO 11006KT 6SM 16/05 A2953 RMK T01600050 IEM_DS3505
ZBAA,1992-04-20 03:00,ZBAA 200300Z AUTO 07006KT 6SM 16/04 A2953 RMK SLP055 T01600043 54000 IEM_DS3505
ZBAA,1992-04-20 04:00,ZBAA 200400Z AUTO 11006KT 6SM 18/06 A2953 RMK T01800060 IEM_DS3505
ZBAA,1992-04-20 05:00,ZBAA 200500Z AUTO 14008KT 6SM 18/06 A2950 RMK T01800060 IEM_DS3505
ZBAA,1992-04-20 06:00,ZBAA 200600Z AUTO 04004KT 6SM 18/06 A2947 RMK SLP044 T01770065 4////0125 57012 IEM_DS3505
ZBAA,1992-04-20 07:00,ZBAA 200700Z AUTO 10006KT 6SM 19/06 A2944 RMK T01900060 IEM_DS3505
ZBAA,1992-04-20 08:00,ZBAA 200800Z AUTO 17006KT 6SM 18/07 A2944 RMK T01800070 IEM_DS3505
ZBAA,1992-04-20 09:00,ZBAA 200900Z AUTO 25002KT 6SM 19/08 A2944 RMK SLP032 T01860077 57012 IEM_DS3505
ZBAA,1992-04-20 10:00,ZBAA 201000Z AUTO 28002KT 6SM 18/08 A2944 RMK T01800080 IEM_DS3505
ZBAA,1992-04-20 11:00,ZBAA 201100Z AUTO 34002KT 3SM 17/09 A2944 RMK SLP079 T01700090 52040 IEM_DS3505
ZBAA,1992-04-20 12:00,ZBAA 201200Z AUTO 02002KT 4SM 17/09 A2950 RMK SLP039 T01700090 52007 IEM_DS3505
ZBAA,1992-04-20 13:00,ZBAA 201300Z AUTO 31004KT 6SM 16/08 A2953 RMK T01600080 IEM_DS3505
ZBAA,1992-04-20 14:00,ZBAA 201400Z AUTO 25006KT 6SM 15/09 A2953 RMK T01500090 IEM_DS3505
ZBAA,1992-04-20 15:00,ZBAA 201500Z AUTO 32016G31KT 3SM 19/M21 A2956 RMK SLP079 T01891211 52040 IEM_DS3505
ZBAA,1992-04-20 16:00,ZBAA 201600Z AUTO 32016KT 1 1/4SM 19/M21 A2962 RMK SLP079 T01891211 52040 IEM_DS3505
ZBAA,1992-04-20 17:00,ZBAA 201700Z AUTO 33016KT 2SM 17/ A2965 RMK IEM_DS3505
ZBAA,1992-04-20 18:00,ZBAA 201800Z AUTO 36016KT 4SM 16/M22 A2965 RMK SLP093 T01601216 40207//// 52014 IEM_DS3505
ZBAA,1992-04-20 19:00,ZBAA 201900Z AUTO 33025KT 6SM 15/M08 A2965 RMK T01501080 IEM_DS3505
ZBAA,1992-04-20 20:00,ZBAA 202000Z AUTO 32029G41KT 6SM 14/M08 A2965 RMK T01401080 IEM_DS3505
ZBAA,1992-04-20 21:00,ZBAA 202100Z AUTO 36012G39KT 9SM 14/M15 A2965 RMK SLP106 T01361154 52013 IEM_DS3505
ZBAA,1992-04-20 22:00,ZBAA 202200Z AUTO 32025G37KT 7SM 14/M10 A2968 RMK T01401100 IEM_DS3505
ZBAA,1992-04-20 23:00,ZBAA 202300Z AUTO 32021G31KT 7SM 14/M10 A2971 RMK T01401100 IEM_DS3505
ZBAA,1992-04-21 00:00,ZBAA 210000Z AUTO 36012G27KT 12SM 15/M14 A2971 RMK SLP115 T01501135 52009 IEM_DS3505
ZBAA,1992-04-21 01:00,ZBAA 210100Z AUTO 32019G29KT 7SM 17/M09 A2971 RMK T01701090 IEM_DS3505
ZBAA,1992-04-21 02:00,ZBAA 210200Z AUTO 32023G33KT 7SM 18/M10 A2971 RMK T01801100 IEM_DS3505
ZBAA,1992-04-21 03:00,ZBAA 210300Z AUTO 32010KT 19SM 19/M14 A2968 RMK SLP114 T01911144 54000 IEM_DS3505
ZBAA,1992-04-21 04:00,ZBAA 210400Z AUTO 28014KT 7SM 21/M07 A2968 RMK T02101070 IEM_DS3505
ZBAA,1992-04-21 05:00,ZBAA 210500Z AUTO 33023G33KT 7SM 23/M08 A2962 RMK T02301080 IEM_DS3505
ZBAA,1992-04-21 06:00,ZBAA 210600Z AUTO 02008G35KT 19SM 22/M11 A2959 RMK SLP084 T02231110 4////0129 57030 IEM_DS3505
ZBAA,1992-04-21 08:00,ZBAA 210800Z AUTO 30006KT 7SM 24/M07 A2956 RMK T02401070 IEM_DS3505
ZBAA,1992-04-21 09:00,ZBAA 210900Z AUTO 27008KT 19SM 24/M10 A2953 RMK SLP062 T02411099 57022 IEM_DS3505
ZBAA,1992-04-21 10:00,ZBAA 211000Z AUTO 15004KT 7SM 22/M07 A2953 RMK T02201070 IEM_DS3505
ZBAA,1992-04-21 11:00,ZBAA 211100Z AUTO 19008KT 6SM 20/M06 A2953 RMK T02001060 IEM_DS3505
ZBAA,1992-04-21 12:00,ZBAA 211200Z AUTO 22006KT 19SM 20/M04 A2956 RMK SLP063 T02021042 52001 IEM_DS3505
ZBAA,1992-04-21 13:00,ZBAA 211300Z AUTO 09004KT 6SM 16/M03 A2959 RMK T01601030 IEM_DS3505
ZBAA,1992-04-21 14:00,ZBAA 211400Z AUTO 13004KT 7SM 17/M04 A2959 RMK T01701040 IEM_DS3505
ZBAA,1992-04-21 15:00,ZBAA 211500Z AUTO 32002KT 12SM 17/M01 A2959 RMK SLP073 T01731007 52010 IEM_DS3505
ZBAA,1992-04-21 16:00,ZBAA 211600Z AUTO 05004KT 7SM 14/M03 A2959 RMK T01401030 IEM_DS3505
ZBAA,1992-04-21 17:00,ZBAA 211700Z AUTO 23004KT 7SM 12/M04 A2959 RMK T01201040 IEM_DS3505
ZBAA,1992-04-21 18:00,ZBAA 211800Z AUTO 32002KT 12SM 12/01 A2959 RMK SLP076 T01150007 40246//// 52002 IEM_DS3505
ZBAA,1992-04-21 19:00,ZBAA 211900Z AUTO 28002KT 7SM 10/M03 A2959 RMK T01001030 IEM_DS3505
ZBAA,1992-04-21 20:00,ZBAA 212000Z AUTO 31002KT 7SM 09/M02 A2959 RMK T00901020 IEM_DS3505
ZBAA,1992-04-21 21:00,ZBAA 212100Z AUTO 18002KT 12SM 10/M00 A2959 RMK SLP073 T01031004 57003 IEM_DS3505
ZBAA,1992-04-21 22:00,ZBAA 212200Z AUTO 05002KT 7SM 08/M03 A2959 RMK T00801030 IEM_DS3505
ZBAA,1992-04-21 23:00,ZBAA 212300Z AUTO 00000KT 7SM 10/M02 A2959 RMK T01001020 IEM_DS3505
ZBAA,1992-04-22 00:00,ZBAA 220000Z AUTO 04002KT 4SM 16/00 RMK SLP073 T01580003 52001 IEM_DS3505
ZBAA,1992-04-22 01:00,ZBAA 220100Z AUTO 11004KT 7SM 16/00 A2956 RMK T01600000 IEM_DS3505
ZBAA,1992-04-22 02:00,ZBAA 220200Z AUTO 12004KT 7SM 19/02 A2956 RMK T01900020 IEM_DS3505
ZBAA,1992-04-22 03:00,ZBAA 220300Z AUTO 18008KT 4SM 22/M03 A2953 RMK SLP057 T02241030 57016 IEM_DS3505
ZBAA,1992-04-22 04:00,ZBAA 220400Z AUTO 15008KT 7SM 24/03 A2959 RMK T02400030 IEM_DS3505
ZBAA,1992-04-22 05:00,ZBAA 220500Z AUTO 19010KT 7SM 27/M01 A2956 RMK T02701010 IEM_DS3505
ZBAA,1992-04-22 06:00,ZBAA 220600Z AUTO 20016KT 4SM 27/M07 A2950 RMK SLP013 T02741071 4////0089 57044 IEM_DS3505
ZBAA,1992-04-22 08:00,ZBAA 220800Z AUTO 19016G25KT 4SM 27/M05 A2941 RMK T02701050 IEM_DS3505
ZBAA,1992-04-22 09:00,ZBAA 220900Z AUTO 20012G27KT 4SM 27/M04 RMK SLP985 T02691045 57028 IEM_DS3505
ZBAA,1992-04-22 10:00,ZBAA 221000Z AUTO 21017G29KT 2 1/2SM 26/M04 A2941 RMK T02601040 IEM_DS3505
ZBAA,1992-04-22 11:00,ZBAA 221100Z AUTO 21017KT 2 1/2SM 25/M02 A2941 RMK T02501020 IEM_DS3505
ZBAA,1992-04-22 12:00,ZBAA 221200Z AUTO 22012G29KT 4SM 24/M05 A2944 RMK SLP989 T02351048 52004 IEM_DS3505
ZBAA,1992-04-22 13:00,ZBAA 221300Z AUTO 21017KT 3SM 23/M04 A2944 RMK T02301040 IEM_DS3505
ZBAA,1992-04-22 14:00,ZBAA 221400Z AUTO 21017G29KT 3SM 23/M04 A2944 RMK T02301040 IEM_DS3505
ZBAA,1992-04-22 15:00,ZBAA 221500Z AUTO 20010G23KT 6SM 22/M04 A2944 RMK SLP991 T02171041 52003 IEM_DS3505
ZBAA,1992-04-22 16:00,ZBAA 221600Z AUTO 22010KT 4SM 21/M01 A2944 RMK T02101010 IEM_DS3505
ZBAA,1992-04-22 17:00,ZBAA 221700Z AUTO 28008KT 6SM 20/00 A2947 RMK T02000000 IEM_DS3505
ZBAA,1992-04-22 18:00,ZBAA 221800Z AUTO 36010KT 6SM 21/M06 A2953 RMK SLP018 T02091058 40277//// 52027 IEM_DS3505
ZBAA,1992-04-22 19:00,ZBAA 221900Z AUTO 31016KT 6SM 20/M06 A2956 RMK T02001060 IEM_DS3505
ZBAA,1992-04-22 20:00,ZBAA 222000Z AUTO 33010KT 6SM 18/M06 A2959 RMK T01801060 IEM_DS3505
ZBAA,1992-04-22 21:00,ZBAA 222100Z AUTO 36006KT 12SM 19/M09 A2962 RMK SLP039 T01901091 52021 IEM_DS3505
ZBAA,1992-04-22 22:00,ZBAA 222200Z AUTO 32012KT 7SM 17/M07 A2953 RMK T01701070 IEM_DS3505
ZBAA,1992-04-22 23:00,ZBAA 222300Z AUTO 31019KT 7SM 16/M05 A2956 RMK T01601050 IEM_DS3505
ZBAA,1992-04-23 00:00,ZBAA 230000Z AUTO 29010KT 19SM 18/ A2959 RMK SLP076 52036 IEM_DS3505
ZBAA,1992-04-23 01:00,ZBAA 230100Z AUTO 29014KT 6SM 19/M08 A2962 RMK T01901080 IEM_DS3505
ZBAA,1992-04-23 02:00,ZBAA 230200Z AUTO 32021KT 7SM 19/M10 A2962 RMK T01901100 IEM_DS3505
ZBAA,1992-04-23 03:00,ZBAA 230300Z AUTO 36016G35KT 12SM 19/M17 A2965 RMK SLP094 T01861167 52018 IEM_DS3505
ZBAA,1992-04-23 04:00,ZBAA 230400Z AUTO 33019G29KT 7SM 19/M11 A2965 RMK T01901110 IEM_DS3505
ZBAA,1992-04-23 05:00,ZBAA 230500Z AUTO 33019KT 7SM 20/M10 A2962 RMK T02001100 IEM_DS3505
ZBAA,1992-04-23 06:00,ZBAA 230600Z AUTO 27014KT 16SM 20/M10 A2962 RMK SLP093 T02001100 4////0171 57001 IEM_DS3505
ZBAA,1992-04-23 07:00,ZBAA 230700Z AUTO 33016KT 7SM 20/M09 A2962 RMK T02001090 IEM_DS3505
ZBAA,1992-04-23 08:00,ZBAA 230800Z AUTO 30016G27KT 7SM 20/M10 A2962 RMK T02001100 IEM_DS3505
ZBAA,1992-04-23 09:00,ZBAA 230900Z AUTO 34012KT 16SM 20/M11 A2965 RMK SLP092 T02001110 57001 IEM_DS3505
ZBAA,1992-04-23 10:00,ZBAA 231000Z AUTO 31012KT 7SM 19/M12 A2965 RMK T01901120 IEM_DS3505
ZBAA,1992-04-23 11:00,ZBAA 231100Z AUTO 35010KT 7SM 17/M12 A2965 RMK T01701120 IEM_DS3505
ZBAA,1992-04-23 12:00,ZBAA 231200Z AUTO 36002KT 19SM 17/M11 A2968 RMK SLP104 T01701111 52011 IEM_DS3505
ZBAA,1992-04-23 13:00,ZBAA 231300Z AUTO 35008KT 7SM 15/M11 A2974 RMK T01501110 IEM_DS3505
ZBAA,1992-04-23 14:00,ZBAA 231400Z AUTO 33014KT 7SM 15/M10 A2974 RMK T01501100 IEM_DS3505
ZBAA,1992-04-23 15:00,ZBAA 231500Z AUTO 32012KT 16SM 16/M17 A2980 RMK SLP141 T01591174 52037 IEM_DS3505
ZBAA,1992-04-23 16:00,ZBAA 231600Z AUTO 31021KT 7SM 14/M15 A2983 RMK T01401150 IEM_DS3505
ZBAA,1992-04-23 17:00,ZBAA 231700Z AUTO 31016KT 7SM 14/M16 A2983 RMK T01401160 IEM_DS3505
ZBAA,1992-04-23 18:00,ZBAA 231800Z AUTO 34010KT 19SM 14/M23 RMK SLP148 T01361227 40210//// 52007 IEM_DS3505
ZBAA,1992-04-23 19:00,ZBAA 231900Z AUTO 32010KT 7SM 11/M15 A2983 RMK T01101150 IEM_DS3505
ZBAA,1992-04-23 20:00,ZBAA 232000Z AUTO 16004KT 7SM 11/M15 A2983 RMK T01101150 IEM_DS3505
ZBAA,1992-04-23 21:00,ZBAA 232100Z AUTO 36006KT 12SM 13/M15 A2988 RMK SLP164 T01281151 52016 IEM_DS3505
ZBAA,1992-04-23 22:00,ZBAA 232200Z AUTO 21006KT 7SM 10/M11 A2988 RMK T01001110 IEM_DS3505
ZBAA,1992-04-23 23:00,ZBAA 232300Z AUTO 16006KT 7SM 13/M10 A2991 RMK T01301100 IEM_DS3505
ZBAA,1992-04-24 00:00,ZBAA 240000Z AUTO 36004KT 19SM 15/M12 A2994 RMK SLP189 T01501122 52024 IEM_DS3505
ZBAA,1992-04-24 01:00,ZBAA 240100Z AUTO 32010KT 7SM 16/M11 A2994 RMK T01601110 IEM_DS3505
ZBAA,1992-04-24 02:00,ZBAA 240200Z AUTO 29010G19KT 7SM 18/M11 A2994 RMK T01801110 IEM_DS3505
ZBAA,1992-04-24 03:00,ZBAA 240300Z AUTO 34010KT 19SM 18/M18 A2994 RMK SLP194 T01831178 52006 IEM_DS3505
ZBAA,1992-04-24 04:00,ZBAA 240400Z AUTO 29008KT 7SM 20/M09 A2991 RMK T02001090 IEM_DS3505
ZBAA,1992-04-24 05:00,ZBAA 240500Z AUTO 27010KT 7SM 22/M08 A2991 RMK T02201080 IEM_DS3505
ZBAA,1992-04-24 06:00,ZBAA 240600Z AUTO 36012KT 19SM 22/ A2988 RMK SLP173 4////0125 57021 IEM_DS3505
ZBAA,1992-04-24 07:00,ZBAA 240700Z AUTO 26010KT 7SM 23/M06 RMK T02301060 IEM_DS3505
ZBAA,1992-04-24 08:00,ZBAA 240800Z AUTO 27010KT 6SM 23/M07 A2985 RMK T02301070 IEM_DS3505
ZBAA,1992-04-24 09:00,ZBAA 240900Z AUTO 20012KT 19SM 22/M10 A2985 RMK SLP166 T02161096 57007 IEM_DS3505
ZBAA,1992-04-24 10:00,ZBAA 241000Z AUTO 19010KT 6SM 20/M05 A2985 RMK T02001050 IEM_DS3505
ZBAA,1992-04-24 11:00,ZBAA 241100Z AUTO 18010KT 6SM 19/M05 A2985 RMK T01901050 IEM_DS3505
ZBAA,1992-04-24 12:00,ZBAA 241200Z AUTO 20006KT 12SM 19/M04 A2988 RMK SLP179 T01901045 52013 IEM_DS3505
ZBAA,1992-04-24 13:00,ZBAA 241300Z AUTO 17006KT 6SM 17/M03 A2991 RMK T01701030 IEM_DS3505
ZBAA,1992-04-24 14:00,ZBAA 241400Z AUTO 17006KT 6SM 16/M02 A2991 RMK T01601020 IEM_DS3505
ZBAA,1992-04-24 15:00,ZBAA 241500Z AUTO 20006KT 9SM 16/M01 A2991 RMK SLP188 T01651008 52009 IEM_DS3505
ZBAA,1992-04-24 16:00,ZBAA 241600Z AUTO 00000KT 6SM 11/M01 A2991 RMK T01101010 IEM_DS3505
ZBAA,1992-04-24 17:00,ZBAA 241700Z AUTO 00000KT 6SM 11/M01 A2991 RMK T01101010 IEM_DS3505
ZBAA,1992-04-24 18:00,ZBAA 241800Z AUTO 20008KT 6SM 14/M00 A2988 RMK SLP176 T01401005 40235//// 57012 IEM_DS3505
ZBAA,1992-04-24 20:00,ZBAA 242000Z AUTO 11004KT 6SM 09/01 A2988 RMK T00900010 IEM_DS3505
ZBAA,1992-04-24 21:00,ZBAA 242100Z AUTO 04002KT 6SM 10/01 A2988 RMK SLP171 T01020013 57006 IEM_DS3505
ZBAA,1992-04-24 22:00,ZBAA 242200Z AUTO 13002KT 6SM 09/00 A2988 RMK T00900000 IEM_DS3505
ZBAA,1992-04-24 23:00,ZBAA 242300Z AUTO 13002KT 7SM 10/01 A2988 RMK T01000010 IEM_DS3505
ZBAA,1992-04-25 00:00,ZBAA 250000Z AUTO 36002KT 5SM 14/00 A2988 RMK SLP169 T01430000 57001 IEM_DS3505
ZBAA,1992-04-25 01:00,ZBAA 250100Z AUTO 10004KT 7SM 16/02 A2985 RMK T01600020 IEM_DS3505
ZBAA,1992-04-25 02:00,ZBAA 250200Z AUTO 12002KT 7SM 18/03 A2985 RMK T01800030 IEM_DS3505
ZBAA,1992-04-25 03:00,ZBAA 250300Z AUTO 14004KT 3SM 20/01 A2983 RMK SLP151 T01950012 57018 IEM_DS3505
ZBAA,1992-04-25 04:00,ZBAA 250400Z AUTO 15006KT 6SM 22/04 A2988 RMK T02200040 IEM_DS3505
ZBAA,1992-04-25 05:00,ZBAA 250500Z AUTO 13004KT 6SM 23/05 A2974 RMK T02300050 IEM_DS3505
ZBAA,1992-04-25 06:00,ZBAA 250600Z AUTO 18004KT 4SM 24/M01 A2971 RMK SLP116 T02451012 4////0093 57034 IEM_DS3505
ZBAA,1992-04-25 07:00,ZBAA 250700Z AUTO 17008KT 6SM 25/04 A2968 RMK T02500040 IEM_DS3505
ZBAA,1992-04-25 08:00,ZBAA 250800Z AUTO 18010KT 6SM 26/05 A2965 RMK T02600050 IEM_DS3505
ZBAA,1992-04-25 09:00,ZBAA 250900Z AUTO 18008KT 4SM 25/05 A2962 RMK SLP092 T02490048 57025 IEM_DS3505
ZBAA,1992-04-25 10:00,ZBAA 251000Z AUTO 17004KT 6SM 24/06 A2962 RMK T02400060 IEM_DS3505
ZBAA,1992-04-25 11:00,ZBAA 251100Z AUTO 15004KT 6SM 23/06 A2965 RMK T02300060 IEM_DS3505
ZBAA,1992-04-25 12:00,ZBAA 251200Z AUTO 20008KT 6SM 23/06 A2965 RMK SLP090 T02260065 57001 IEM_DS3505
ZBAA,1992-04-25 13:00,ZBAA 251300Z AUTO 11006KT 6SM 19/07 A2968 RMK T01900070 IEM_DS3505
ZBAA,1992-04-25 14:00,ZBAA 251400Z AUTO 12006KT 6SM 19/07 A2968 RMK T01900070 IEM_DS3505
ZBAA,1992-04-25 15:00,ZBAA 251500Z AUTO 18002KT 6SM 18/10 A2968 RMK SLP096 T01850101 52006 IEM_DS3505
ZBAA,1992-04-25 16:00,ZBAA 251600Z AUTO 13006KT 6SM 17/09 A2968 RMK T01700090 IEM_DS3505
ZBAA,1992-04-25 17:00,ZBAA 251700Z AUTO 09004KT 6SM 16/08 A2965 RMK T01600080 IEM_DS3505
ZBAA,1992-04-25 18:00,ZBAA 251800Z AUTO 04004KT 6SM 16/08 A2965 RMK SLP092 T01580079 40253//// 57004 IEM_DS3505
ZBAA,1992-04-25 19:00,ZBAA 251900Z AUTO 03002KT 6SM 13/09 A2965 RMK T01300090 IEM_DS3505
ZBAA,1992-04-25 20:00,ZBAA 252000Z AUTO 05002KT 6SM 13/08 A2965 RMK T01300080 IEM_DS3505
ZBAA,1992-04-25 21:00,ZBAA 252100Z AUTO 36002KT 6SM 13/08 A2965 RMK SLP089 T01320084 57003 IEM_DS3505
ZBAA,1992-04-25 22:00,ZBAA 252200Z AUTO 00000KT 6SM 12/08 A2965 RMK T01200080 IEM_DS3505
ZBAA,1992-04-25 23:00,ZBAA 252300Z AUTO 07002KT 6SM 14/09 A2965 RMK T01400090 IEM_DS3505
ZBAA,1992-04-26 00:00,ZBAA 260000Z AUTO 02004KT 5SM 16/08 A2968 RMK SLP095 T01610083 52006 IEM_DS3505
ZBAA,1992-04-26 01:00,ZBAA 260100Z AUTO 04002KT 7SM 18/09 A2965 RMK T01800090 IEM_DS3505
ZBAA,1992-04-26 02:00,ZBAA 260200Z AUTO 13004KT 7SM 20/10 A2965 RMK T02000100 IEM_DS3505
ZBAA,1992-04-26 03:00,ZBAA 260300Z AUTO 00000KT 4SM 22/09 A2962 RMK SLP082 T02180087 57013 IEM_DS3505
ZBAA,1992-04-26 04:00,ZBAA 260400Z AUTO 13004KT 7SM 24/10 A2965 RMK T02400100 IEM_DS3505
ZBAA,1992-04-26 05:00,ZBAA 260500Z AUTO 14006KT 7SM 25/12 A2953 RMK T02500120 IEM_DS3505
ZBAA,1992-04-26 06:00,ZBAA 260600Z AUTO 11006KT 4SM 25/11 A2962 RMK SLP047 T02540110 4////0127 57035 IEM_DS3505
ZBAA,1992-04-26 07:00,ZBAA 260700Z AUTO 15008KT 4SM 27/12 A2959 RMK T02700120 IEM_DS3505
ZBAA,1992-04-26 08:00,ZBAA 260800Z AUTO 18010KT 4SM 27/12 A2956 RMK T02700120 IEM_DS3505
ZBAA,1992-04-26 09:00,ZBAA 260900Z AUTO 18010KT 5SM 27/10 A2956 RMK SLP022 T02700105 57025 IEM_DS3505
ZBAA,1992-04-26 10:00,ZBAA 261000Z AUTO 16006KT 4SM 26/12 A2953 RMK T02600120 IEM_DS3505
ZBAA,1992-04-26 11:00,ZBAA 261100Z AUTO 11004KT 4SM 24/12 RMK T02400120 IEM_DS3505
ZBAA,1992-04-26 12:00,ZBAA 261200Z AUTO 20008KT 6SM 25/12 A2953 RMK SLP020 T02480118 57002 IEM_DS3505
ZBAA,1992-04-26 13:00,ZBAA 261300Z AUTO 12004KT 4SM 22/13 A2956 RMK T02200130 IEM_DS3505
ZBAA,1992-04-26 14:00,ZBAA 261400Z AUTO 14006KT 4SM 21/12 A2953 RMK T02100120 IEM_DS3505
ZBAA,1992-04-26 15:00,ZBAA 261500Z AUTO 20010KT 6SM 23/09 A2953 RMK SLP013 T02290094 57006 IEM_DS3505
ZBAA,1992-04-26 17:00,ZBAA 261700Z AUTO 14006KT 7SM 19/10 A2950 RMK T01900100 IEM_DS3505
ZBAA,1992-04-26 18:00,ZBAA 261800Z AUTO 20006KT 6SM 20/10 RMK SLP000 T02010100 40278//// 57013 IEM_DS3505
ZBAA,1992-04-26 20:00,ZBAA 262000Z AUTO 10002KT 7SM 16/10 A2935 RMK T01600100 IEM_DS3505
ZBAA,1992-04-26 21:00,ZBAA 262100Z AUTO 00000KT 6SM 17/10 A2947 RMK SLP995 T01710100 57005 IEM_DS3505
ZBAA,1992-04-26 22:00,ZBAA 262200Z AUTO 11004KT 6SM 15/10 A2947 RMK T01500100 IEM_DS3505
ZBAA,1992-04-26 23:00,ZBAA 262300Z AUTO 6SM 16/10 A2947 RMK T01600100 IEM_DS3505
ZBAA,1992-04-27 00:00,ZBAA 270000Z AUTO 04004KT 4SM 17/11 RMK SLP995 T01720108 54000 IEM_DS3505
ZBAA,1992-04-27 01:00,ZBAA 270100Z AUTO 17002KT 6SM 18/11 A2947 RMK T01800110 IEM_DS3505
ZBAA,1992-04-27 02:00,ZBAA 270200Z AUTO 09004KT 6SM 20/11 A2947 RMK T02000110 IEM_DS3505
ZBAA,1992-04-27 03:00,ZBAA 270300Z AUTO 07004KT 4SM 21/11 A2944 RMK SLP986 T02110109 57009 IEM_DS3505
ZBAA,1992-04-27 04:00,ZBAA 270400Z AUTO 10006KT 7SM 23/12 A2941 RMK T02300120 IEM_DS3505
ZBAA,1992-04-27 05:00,ZBAA 270500Z AUTO 15004KT 7SM 24/13 A2938 RMK T02400130 IEM_DS3505
ZBAA,1992-04-27 06:00,ZBAA 270600Z AUTO 04002KT 4SM 26/12 A2938 RMK SLP965 T02550119 4////0164 57021 IEM_DS3505
ZBAA,1992-04-27 07:00,ZBAA 270700Z AUTO 15004KT 6SM 26/14 A2935 RMK T02600140 IEM_DS3505
ZBAA,1992-04-27 08:00,ZBAA 270800Z AUTO 14004KT 6SM 26/13 A2935 RMK T02600130 IEM_DS3505
ZBAA,1992-04-27 09:00,ZBAA 270900Z AUTO 36002KT 4SM 27/14 RMK SLP966 T02720135 52001 IEM_DS3505
ZBAA,1992-04-27 10:00,ZBAA 271000Z AUTO 36006KT 6SM 25/14 A2941 RMK T02500140 IEM_DS3505
ZBAA,1992-04-27 11:00,ZBAA 271100Z AUTO 34010KT 6SM 25/12 A2947 RMK T02500120 IEM_DS3505
ZBAA,1992-04-27 12:00,ZBAA 271200Z AUTO 36006KT 4SM 25/M03 A2953 RMK SLP017 T02511026 52051 IEM_DS3505
ZBAA,1992-04-27 13:00,ZBAA 271300Z AUTO 01010KT 6SM 23/M03 A2959 RMK T02301030 IEM_DS3505
ZBAA,1992-04-27 14:00,ZBAA 271400Z AUTO 01010KT 6SM 22/M02 A2953 RMK T02201020 IEM_DS3505
ZBAA,1992-04-27 15:00,ZBAA 271500Z AUTO 34006KT 4SM 20/M00 A2956 RMK SLP070 T01971002 52052 IEM_DS3505
ZBAA,1992-04-27 16:00,ZBAA 271600Z AUTO 03006KT 6SM 18/01 A2962 RMK T01800010 IEM_DS3505
ZBAA,1992-04-27 17:00,ZBAA 271700Z AUTO 02010KT 6SM 16/00 A2965 RMK T01600000 IEM_DS3505
ZBAA,1992-04-27 18:00,ZBAA 271800Z AUTO 32006KT 9SM 16/M02 A2968 RMK SLP099 T01641025 40279//// 52029 IEM_DS3505
ZBAA,1992-04-27 20:00,ZBAA 272000Z AUTO 02006KT 6SM 12/00 A2974 RMK T01200000 IEM_DS3505
ZBAA,1992-04-27 21:00,ZBAA 272100Z AUTO 04008KT 19SM 14/M01 A2974 RMK SLP128 T01381008 52029 IEM_DS3505
ZBAA,1992-04-27 22:00,ZBAA 272200Z AUTO 02006KT 7SM 11/00 A2980 RMK T01100000 IEM_DS3505
ZBAA,1992-04-28 00:00,ZBAA 280000Z AUTO 04006KT 19SM 15/M02 A2983 RMK SLP148 T01541017 52020 IEM_DS3505
ZBAA,1992-04-28 01:00,ZBAA 280100Z AUTO 04010KT 7SM 16/M02 A2983 RMK T01601020 IEM_DS3505
ZBAA,1992-04-28 02:00,ZBAA 280200Z AUTO 03008KT 7SM 17/M02 A2983 RMK T01701020 IEM_DS3505
ZBAA,1992-04-28 03:00,ZBAA 280300Z AUTO 36002KT 12SM 18/M03 A2983 RMK SLP148 T01781030 57001 IEM_DS3505
ZBAA,1992-04-28 04:00,ZBAA 280400Z AUTO 02006KT 6SM 19/M03 A2980 RMK T01901030 IEM_DS3505
ZBAA,1992-04-28 05:00,ZBAA 280500Z AUTO 03008KT 6SM 21/M04 A2977 RMK T02101040 IEM_DS3505
ZBAA,1992-04-28 06:00,ZBAA 280600Z AUTO 00000KT 12SM 21/M01 A2977 RMK SLP134 T02131013 4////0129 57014 IEM_DS3505
ZBAA,1992-04-28 07:00,ZBAA 280700Z AUTO 06004KT 6SM 21/M03 A2974 RMK T02101030 IEM_DS3505
ZBAA,1992-04-28 08:00,ZBAA 280800Z AUTO 18008KT 6SM 20/M03 A2974 RMK T02001030 IEM_DS3505
ZBAA,1992-04-28 09:00,ZBAA 280900Z AUTO 22006KT 7SM 19/03 A2974 RMK SLP128 T01920027 57006 IEM_DS3505
ZBAA,1992-04-28 10:00,ZBAA 281000Z AUTO 18006KT 6SM 19/M01 A2974 RMK T01901010 IEM_DS3505
ZBAA,1992-04-28 11:00,ZBAA 281100Z AUTO 18006KT 6SM 18/01 A2974 RMK T01800010 IEM_DS3505
ZBAA,1992-04-28 12:00,ZBAA 281200Z AUTO 20002KT 9SM 18/02 A2977 RMK SLP136 T01780022 52008 IEM_DS3505
ZBAA,1992-04-28 13:00,ZBAA 281300Z AUTO 14006KT 6SM 16/03 A2980 RMK T01600030 IEM_DS3505
ZBAA,1992-04-28 14:00,ZBAA 281400Z AUTO 10006KT 6SM 16/03 A2980 RMK T01600030 IEM_DS3505
ZBAA,1992-04-28 15:00,ZBAA 281500Z AUTO 18006KT 7SM 17/02 A2980 RMK SLP142 T01740022 52006 IEM_DS3505
ZBAA,1992-04-28 16:00,ZBAA 281600Z AUTO 13006KT 6SM 16/05 A2980 RMK T01600050 IEM_DS3505
ZBAA,1992-04-28 17:00,ZBAA 281700Z AUTO 15004KT 7SM 14/07 A2983 RMK T01400070 IEM_DS3505
ZBAA,1992-04-28 18:00,ZBAA 281800Z AUTO 02010KT 9SM 15/06 A2980 RMK SLP137 T01540059 40214//// 57005 IEM_DS3505
ZBAA,1992-04-28 19:00,ZBAA 281900Z AUTO 15006KT 6SM 13/07 A2977 RMK T01300070 IEM_DS3505
ZBAA,1992-04-28 20:00,ZBAA 282000Z AUTO 12002KT 6SM 12/07 A2974 RMK T01200070 IEM_DS3505
ZBAA,1992-04-28 21:00,ZBAA 282100Z AUTO 02002KT 6SM 14/08 A2974 RMK SLP123 T01360084 57014 IEM_DS3505
ZBAA,1992-04-28 22:00,ZBAA 282200Z AUTO 01008KT 6SM 12/07 A2971 RMK T01200070 IEM_DS3505
ZBAA,1992-04-28 23:00,ZBAA 282300Z AUTO 01006KT 6SM 13/07 A2971 RMK T01300070 IEM_DS3505
ZBAA,1992-04-29 00:00,ZBAA 290000Z AUTO 20002KT 4SM 14/07 A2974 RMK SLP119 T01420068 57004 IEM_DS3505
ZBAA,1992-04-29 01:00,ZBAA 290100Z AUTO 20002KT 4SM 14/07 A2971 RMK SLP119 T01420068 57004 IEM_DS3505
ZBAA,1992-04-29 02:00,ZBAA 290200Z AUTO 13006KT 6SM 16/06 A2971 RMK T01600060 IEM_DS3505
ZBAA,1992-04-29 03:00,ZBAA 290300Z AUTO 20004KT 5SM 17/05 A2968 RMK SLP099 T01660046 57020 IEM_DS3505
ZBAA,1992-04-29 04:00,ZBAA 290400Z AUTO 12006KT 6SM 17/04 A2965 RMK T01700040 IEM_DS3505
ZBAA,1992-04-29 05:00,ZBAA 290500Z AUTO 14004KT 6SM 17/03 A2962 RMK T01700030 IEM_DS3505
ZBAA,1992-04-29 06:00,ZBAA 290600Z AUTO 18006KT 7SM 18/02 A2959 RMK SLP071 T01760016 4////0133 57028 IEM_DS3505
ZBAA,1992-04-29 07:00,ZBAA 290700Z AUTO 11004KT 6SM 18/03 A2956 RMK T01800030 IEM_DS3505
ZBAA,1992-04-29 08:00,ZBAA 290800Z AUTO 11006KT 6SM 18/03 A2953 RMK T01800030 IEM_DS3505
ZBAA,1992-04-29 09:00,ZBAA 290900Z AUTO 14002KT 7SM 18/02 A2956 RMK SLP058 T01790022 57013 IEM_DS3505
ZBAA,1992-04-29 10:00,ZBAA 291000Z AUTO 20008KT 7SM 13/10 A2959 RMK T01300100 IEM_DS3505
ZBAA,1992-04-29 11:00,ZBAA 291100Z AUTO 26006KT 7SM 12/11 A2959 RMK T01200110 IEM_DS3505
ZBAA,1992-04-29 12:00,ZBAA 291200Z AUTO 00000KT 6SM 12/10 A2959 RMK 60028 SLP073 T01220095 52014 IEM_DS3505
ZBAA,1992-04-29 13:00,ZBAA 291300Z AUTO 35004KT 7SM 12/11 A2968 RMK T01200110 IEM_DS3505
ZBAA,1992-04-29 14:00,ZBAA 291400Z AUTO 06002KT 7SM 11/10 A2959 RMK T01100100 IEM_DS3505
ZBAA,1992-04-29 15:00,ZBAA 291500Z AUTO 27002KT 5SM 12/10 A2959 RMK SLP074 T01170101 52002 IEM_DS3505
ZBAA,1992-04-29 16:00,ZBAA 291600Z AUTO 34006KT 6SM 11/09 A2962 RMK T01100090 IEM_DS3505
ZBAA,1992-04-29 17:00,ZBAA 291700Z AUTO 31002KT 6SM 10/09 A2959 RMK T01000090 IEM_DS3505
ZBAA,1992-04-29 18:00,ZBAA 291800Z AUTO 36002KT 4SM 11/09 A2959 RMK SLP075 T01130087 40183//// 52001 IEM_DS3505
ZBAA,1992-04-29 19:00,ZBAA 291900Z AUTO 33004KT 6SM 10/09 A2959 RMK T01000090 IEM_DS3505
ZBAA,1992-04-29 20:00,ZBAA 292000Z AUTO 31004KT 4SM 09/09 A2959 RMK T00900090 IEM_DS3505
ZBAA,1992-04-29 21:00,ZBAA 292100Z AUTO 32014KT 6SM 15/M04 A2959 RMK 70028 SLP072 T01531043 57003 IEM_DS3505
ZBAA,1992-04-29 22:00,ZBAA 292200Z AUTO 30014KT 7SM 13/00 A2959 RMK T01300000 IEM_DS3505
ZBAA,1992-04-29 23:00,ZBAA 292300Z AUTO 32010KT 7SM 14/M02 A2962 RMK T01401020 IEM_DS3505
ZBAA,1992-04-30 00:00,ZBAA 300000Z AUTO 32010KT 12SM 17/M10 A2965 RMK 70028 SLP092 T01741097 52020 IEM_DS3505
ZBAA,1992-04-30 01:00,ZBAA 300100Z AUTO 32012KT 7SM 18/M04 A2965 RMK T01801040 IEM_DS3505
ZBAA,1992-04-30 02:00,ZBAA 300200Z AUTO 32014G23KT 7SM 19/M04 A2977 RMK T01901040 IEM_DS3505
ZBAA,1992-04-30 02:55,ZBAA 300255Z AUTO 32014G23KT 7SM 19/M04 A2977 RMK T01901040 IEM_DS3505
ZBAA,1992-04-30 03:00,ZBAA 300300Z AUTO 36006G31KT 19SM 20/M08 A2965 RMK SLP104 T01961081 52012 IEM_DS3505
ZBAA,1992-04-30 05:00,ZBAA 300500Z AUTO 29012KT 7SM 22/M04 A2977 RMK T02201040 IEM_DS3505
ZBAA,1992-04-30 06:00,ZBAA 300600Z AUTO 36010KT 19SM 23/M09 A2962 RMK SLP095 T02281092 4////0095 57009 IEM_DS3505
ZBAA,1992-04-30 07:00,ZBAA 300700Z AUTO 28014KT 6SM 24/M04 A2962 RMK T02401040 IEM_DS3505
ZBAA,1992-04-30 08:00,ZBAA 300800Z AUTO 28012KT 6SM 23/M04 A2962 RMK T02301040 IEM_DS3505
ZBAA,1992-04-30 09:00,ZBAA 300900Z AUTO 32006KT 19SM 24/M07 A2962 RMK SLP088 T02421070 57006 IEM_DS3505
ZBAA,1992-04-30 10:00,ZBAA 301000Z AUTO 33016KT 6SM 23/M09 A2965 RMK T02301090 IEM_DS3505
ZBAA,1992-04-30 11:00,ZBAA 301100Z AUTO 35012KT 6SM 21/M10 A2968 RMK T02101100 IEM_DS3505
ZBAA,1992-04-30 12:00,ZBAA 301200Z AUTO 04004KT 19SM 20/M04 A2971 RMK SLP119 T02051045 52030 IEM_DS3505
ZBAA,1992-04-30 13:00,ZBAA 301300Z AUTO 02006KT 6SM 18/M08 A2977 RMK T01801080 IEM_DS3505
ZBAA,1992-04-30 14:00,ZBAA 301400Z AUTO 02004KT 6SM 16/M06 A2980 RMK T01601060 IEM_DS3505
ZBAA,1992-04-30 15:00,ZBAA 301500Z AUTO 36002KT 19SM 17/M01 A2980 RMK SLP140 T01681009 52021 IEM_DS3505
ZBAA,1992-04-30 16:00,ZBAA 301600Z AUTO 01004KT 6SM 15/M06 A2980 RMK T01501060 IEM_DS3505
ZBAA,1992-04-30 17:00,ZBAA 301700Z AUTO 02004KT 6SM 15/M05 A2980 RMK T01501050 IEM_DS3505
ZBAA,1992-04-30 18:00,ZBAA 301800Z AUTO 07006KT 19SM 16/M07 A2980 RMK SLP139 T01601072 40245//// 57001 IEM_DS3505
ZBAA,1992-04-30 19:00,ZBAA 301900Z AUTO 36004KT 6SM 14/M05 A2980 RMK T01401050 IEM_DS3505
ZBAA,1992-04-30 20:00,ZBAA 302000Z AUTO 25004KT 6SM 14/M05 A2983 RMK T01401050 IEM_DS3505
ZBAA,1992-04-30 21:00,ZBAA 302100Z AUTO 25002KT 19SM 14/M02 A2983 RMK SLP149 T01441024 52010 IEM_DS3505
ZBAA,1992-04-30 22:00,ZBAA 302200Z AUTO 02004KT 6SM 14/M04 A2983 RMK T01401040 IEM_DS3505
ZBAA,1992-04-30 23:00,ZBAA 302300Z AUTO 00000KT 6SM 14/M01 A2985 RMK T01401010 IEM_DS3505
ZBAA,1992-05-01 00:00,ZBAA 010000Z AUTO 25002KT 12SM 16/M03 A2985 RMK SLP159 T01631032 52010 IEM_DS3505
ZBAA,1992-05-01 01:00,ZBAA 010100Z AUTO 22004KT 6SM 17/M01 A2988 RMK T01701010 IEM_DS3505
ZBAA,1992-05-01 02:00,ZBAA 010200Z AUTO 28014KT 6SM 24/M04 A2962 RMK T02401040 IEM_DS3505
ZBAA,1992-05-01 03:00,ZBAA 010300Z AUTO 18004KT 12SM 20/M07 A2962 RMK SLP169 T01951068 52010 IEM_DS3505
ZBAA,1992-05-01 04:00,ZBAA 010400Z AUTO 12004KT 6SM 23/M04 A2983 RMK T02301040 IEM_DS3505
ZBAA,1992-05-01 05:00,ZBAA 010500Z AUTO 15006KT 6SM 23/M03 A2980 RMK T02301030 IEM_DS3505
ZBAA,1992-05-01 06:00,ZBAA 010600Z AUTO 22010KT 16SM 21/M05 A2988 RMK SLP141 T02141053 4////0124 57028 IEM_DS3505
ZBAA,1992-05-01 07:00,ZBAA 010700Z AUTO 17010KT 6SM 23/M01 A2985 RMK T02301010 IEM_DS3505
ZBAA,1992-05-01 08:00,ZBAA 010800Z AUTO 18008KT 7SM 23/00 A2974 RMK T02300000 IEM_DS3505
ZBAA,1992-05-01 09:00,ZBAA 010900Z AUTO 15008KT 7SM 22/00 A2974 RMK T02200000 IEM_DS3505
ZBAA,1992-05-01 10:00,ZBAA 011000Z AUTO 19008KT 7SM 22/00 A2971 RMK T02200000 IEM_DS3505
ZBAA,1992-05-01 11:00,ZBAA 011100Z AUTO 19006KT 7SM 20/01 A2971 RMK T02000010 IEM_DS3505
ZBAA,1992-05-01 12:00,ZBAA 011200Z AUTO 20004KT 16SM 20/01 A2974 RMK SLP129 T01960010 52004 IEM_DS3505
ZBAA,1992-05-01 13:00,ZBAA 011300Z AUTO 08002KT 7SM 18/01 A2977 RMK T01800010 IEM_DS3505
ZBAA,1992-05-01 14:00,ZBAA 011400Z AUTO 00000KT 7SM 15/02 A2980 RMK T01500020 IEM_DS3505
ZBAA,1992-05-01 15:00,ZBAA 011500Z AUTO 18002KT 12SM 17/03 A2980 RMK SLP141 T01690027 52012 IEM_DS3505
ZBAA,1992-05-01 16:00,ZBAA 011600Z AUTO 00000KT 7SM 13/03 A2980 RMK T01300030 IEM_DS3505
ZBAA,1992-05-01 17:00,ZBAA 011700Z AUTO 01002KT 7SM 12/05 A2983 RMK T01200050 IEM_DS3505
ZBAA,1992-05-01 18:00,ZBAA 011800Z AUTO 00000KT 9SM 13/04 A2980 RMK SLP148 T01280045 40227//// 52007 IEM_DS3505
ZBAA,1992-05-01 19:00,ZBAA 011900Z AUTO 00000KT 6SM 11/05 A2980 RMK T01100050 IEM_DS3505
ZBAA,1992-05-01 20:00,ZBAA 012000Z AUTO 00000KT 6SM 10/05 A2983 RMK T01000050 IEM_DS3505
ZBAA,1992-05-01 21:00,ZBAA 012100Z AUTO 00000KT 12SM 11/05 RMK SLP147 T01140048 57001 IEM_DS3505
ZBAA,1992-05-01 22:00,ZBAA 012200Z AUTO 30002KT 6SM 10/04 A2983 RMK T01000040 IEM_DS3505
ZBAA,1992-05-01 23:00,ZBAA 012300Z AUTO 03002KT 6SM 12/04 A2985 RMK T01200040 IEM_DS3505
ZBAA,1992-05-02 00:00,ZBAA 020000Z AUTO 02004KT 6SM 15/03 A2985 RMK SLP157 T01480028 52010 IEM_DS3505
ZBAA,1992-05-02 01:00,ZBAA 020100Z AUTO 10002KT 7SM 16/05 A2985 RMK T01600050 IEM_DS3505
ZBAA,1992-05-02 02:00,ZBAA 020200Z AUTO 05002KT 7SM 19/07 A2983 RMK T01900070 IEM_DS3505
ZBAA,1992-05-02 03:00,ZBAA 020300Z AUTO 07002KT 6SM 21/05 A2983 RMK SLP153 T02060047 57004 IEM_DS3505
ZBAA,1992-05-02 04:00,ZBAA 020400Z AUTO 18006KT 6SM 24/06 A2980 RMK T02400060 IEM_DS3505
ZBAA,1992-05-02 05:00,ZBAA 020500Z AUTO 16010KT 6SM 25/07 A2974 RMK T02500070 IEM_DS3505
ZBAA,1992-05-02 06:00,ZBAA 020600Z AUTO 18008KT 6SM 25/06 A2971 RMK SLP121 T02500055 4////0105 57032 IEM_DS3505
ZBAA,1992-05-02 07:00,ZBAA 020700Z AUTO 16006KT 6SM 26/10 A2968 RMK T02600100 IEM_DS3505
ZBAA,1992-05-02 08:00,ZBAA 020800Z AUTO 12004KT 6SM 27/12 A2965 RMK T02700120 IEM_DS3505
ZBAA,1992-05-02 09:00,ZBAA 020900Z AUTO 22014KT 6SM 26/09 A2974 RMK SLP092 T02640087 57028 IEM_DS3505
ZBAA,1992-05-02 11:00,ZBAA 021100Z AUTO 19008KT 7SM 25/11 A2974 RMK T02500110 IEM_DS3505
ZBAA,1992-05-02 12:00,ZBAA 021200Z AUTO 20008KT 6SM 24/10 A2974 RMK SLP084 T02440100 57008 IEM_DS3505
ZBAA,1992-05-02 13:00,ZBAA 021300Z AUTO 16006KT 7SM 23/11 A2965 RMK T02300110 IEM_DS3505
ZBAA,1992-05-02 14:00,ZBAA 021400Z AUTO 21008KT 7SM 23/09 A2965 RMK T02300090 IEM_DS3505
ZBAA,1992-05-02 15:00,ZBAA 021500Z AUTO 18012KT 6SM 22/08 A2965 RMK SLP089 T02200080 52005 IEM_DS3505
ZBAA,1992-05-02 16:00,ZBAA 021600Z AUTO 20006KT 7SM 21/09 A2965 RMK T02100090 IEM_DS3505
ZBAA,1992-05-02 17:00,ZBAA 021700Z AUTO 19002KT 7SM 20/10 A2965 RMK T02000100 IEM_DS3505
ZBAA,1992-05-02 18:00,ZBAA 021800Z AUTO 20006KT 6SM 20/09 A2965 RMK SLP089 T01990092 40268//// 54000 IEM_DS3505
ZBAA,1992-05-02 19:00,ZBAA 021900Z AUTO 10002KT 7SM 16/10 A2965 RMK T01600100 IEM_DS3505
ZBAA,1992-05-02 20:00,ZBAA 022000Z AUTO 10006KT 7SM 16/10 A2965 RMK T01600100 IEM_DS3505
ZBAA,1992-05-02 21:00,ZBAA 022100Z AUTO 00000KT 7SM 16/11 A2965 RMK SLP094 T01580106 52005 IEM_DS3505
ZBAA,1992-05-02 23:00,ZBAA 022300Z AUTO 15004KT 6SM 16/10 A2971 RMK T01600100 IEM_DS3505
ZBAA,1992-05-03 00:00,ZBAA 030000Z AUTO 36006KT 5SM 16/11 A2974 RMK SLP119 T01640110 52025 IEM_DS3505
ZBAA,1992-05-03 01:00,ZBAA 030100Z AUTO 12002KT 6SM 19/11 A2974 RMK T01900110 IEM_DS3505
ZBAA,1992-05-03 02:00,ZBAA 030200Z AUTO 09004KT 6SM 20/11 A2974 RMK T02000110 IEM_DS3505
ZBAA,1992-05-03 03:00,ZBAA 030300Z AUTO 07004KT 4SM 22/10 A2977 RMK SLP128 T02170104 52009 IEM_DS3505
ZBAA,1992-05-03 04:00,ZBAA 030400Z AUTO 12008KT 6SM 25/12 A2974 RMK T02500120 IEM_DS3505
ZBAA,1992-05-03 05:00,ZBAA 030500Z AUTO 13008KT 6SM 26/13 A2974 RMK T02600130 IEM_DS3505
ZBAA,1992-05-03 06:00,ZBAA 030600Z AUTO 18004KT 5SM 26/11 A2971 RMK SLP114 T02600109 4////0149 57014 IEM_DS3505
ZBAA,1992-05-03 07:00,ZBAA 030700Z AUTO 12008KT 6SM 28/12 A2968 RMK T02800120 IEM_DS3505
ZBAA,1992-05-03 08:00,ZBAA 030800Z AUTO 11010KT 6SM 28/13 A2968 RMK T02800130 IEM_DS3505
ZBAA,1992-05-03 09:00,ZBAA 030900Z AUTO 16008KT 6SM 28/10 A2968 RMK SLP101 T02760096 57013 IEM_DS3505
ZBAA,1992-05-03 10:00,ZBAA 031000Z AUTO 12010KT 6SM 25/11 A2968 RMK T02500110 IEM_DS3505
ZBAA,1992-05-03 11:00,ZBAA 031100Z AUTO 12010KT 6SM 23/09 A2971 RMK T02300090 IEM_DS3505
ZBAA,1992-05-03 12:00,ZBAA 031200Z AUTO 11008KT 10SM 22/06 A2977 RMK SLP125 T02250060 52024 IEM_DS3505
ZBAA,1992-05-03 13:00,ZBAA 031300Z AUTO 11010KT 6SM 20/07 A2980 RMK T02000070 IEM_DS3505
ZBAA,1992-05-03 14:00,ZBAA 031400Z AUTO 10008KT 6SM 19/09 A2980 RMK T01900090 IEM_DS3505
ZBAA,1992-05-03 15:00,ZBAA 031500Z AUTO 11004KT 10SM 20/07 A2980 RMK SLP144 T02010072 52019 IEM_DS3505
ZBAA,1992-05-03 16:00,ZBAA 031600Z AUTO 05002KT 6SM 19/05 A2983 RMK T01900050 IEM_DS3505
ZBAA,1992-05-03 17:00,ZBAA 031700Z AUTO 13006KT 6SM 19/04 A2983 RMK T01900040 IEM_DS3505
ZBAA,1992-05-03 18:00,ZBAA 031800Z AUTO 36002KT 9SM 19/05 A2980 RMK SLP143 T01920051 40277//// 57001 IEM_DS3505
ZBAA,1992-05-03 19:00,ZBAA 031900Z AUTO 09006KT 6SM 19/03 A2980 RMK T01900030 IEM_DS3505
ZBAA,1992-05-03 20:00,ZBAA 032000Z AUTO 03004KT 6SM 18/05 A2980 RMK T01800050 IEM_DS3505
ZBAA,1992-05-03 21:00,ZBAA 032100Z AUTO 09002KT 9SM 19/04 A2980 RMK SLP141 T01860035 57002 IEM_DS3505
ZBAA,1992-05-03 22:00,ZBAA 032200Z AUTO 29004KT 6SM 17/07 A2980 RMK T01700070 IEM_DS3505
ZBAA,1992-05-03 23:00,ZBAA 032300Z AUTO 27002KT 6SM 18/08 A2980 RMK T01800080 IEM_DS3505
ZBAA,1992-05-04 00:00,ZBAA 040000Z AUTO 07004KT 7SM 19/04 A2980 RMK SLP144 T01920045 52003 IEM_DS3505
ZBAA,1992-05-04 01:00,ZBAA 040100Z AUTO 19004KT 6SM 19/08 A2983 RMK T01900080 IEM_DS3505
ZBAA,1992-05-04 02:00,ZBAA 040200Z AUTO 13002KT 7SM 19/08 A2983 RMK T01900080 IEM_DS3505
ZBAA,1992-05-04 03:00,ZBAA 040300Z AUTO 07004KT 6SM 19/04 RMK SLP146 T01940042 52001 IEM_DS3505
ZBAA,1992-05-04 04:00,ZBAA 040400Z AUTO 11004KT 7SM 19/08 A2983 RMK T01900080 IEM_DS3505
ZBAA,1992-05-04 05:00,ZBAA 040500Z AUTO 07006KT 7SM 18/09 A2980 RMK T01800090 IEM_DS3505
ZBAA,1992-05-04 06:00,ZBAA 040600Z AUTO 04004KT 4SM 18/07 A2980 RMK SLP141 T01800068 4////0178 57005 IEM_DS3505
ZBAA,1992-05-04 07:00,ZBAA 040700Z AUTO 25004KT 7SM 18/09 A2977 RMK T01800090 IEM_DS3505
ZBAA,1992-05-04 08:00,ZBAA 040800Z AUTO 31006KT 7SM 18/09 A2977 RMK T01800090 IEM_DS3505
ZBAA,1992-05-04 09:00,ZBAA 040900Z AUTO 36004KT 6SM 17/11 A2977 RMK SLP136 T01700107 57005 IEM_DS3505
ZBAA,1992-05-04 10:00,ZBAA 041000Z AUTO 32006KT 7SM 16/14 A2977 RMK T01600140 IEM_DS3505
ZBAA,1992-05-04 11:00,ZBAA 041100Z AUTO 35006KT 7SM 16/13 A2980 RMK T01600130 IEM_DS3505
ZBAA,1992-05-04 12:00,ZBAA 041200Z AUTO 36006KT 4SM 17/10 A2980 RMK 60002 SLP141 T01740096 52005 IEM_DS3505
ZBAA,1992-05-04 13:00,ZBAA 041300Z AUTO 35006KT 7SM 16/13 A2983 RMK T01600130 IEM_DS3505
ZBAA,1992-05-04 14:00,ZBAA 041400Z AUTO 01008KT 7SM 16/13 A2980 RMK T01600130 IEM_DS3505
ZBAA,1992-05-04 15:00,ZBAA 041500Z AUTO 02006KT 4SM 16/12 A2980 RMK SLP141 T01640116 54000 IEM_DS3505
ZBAA,1992-05-04 16:00,ZBAA 041600Z AUTO 36006KT 7SM 16/13 A2980 RMK T01600130 IEM_DS3505
ZBAA,1992-05-04 17:00,ZBAA 041700Z AUTO 01006KT 7SM 15/13 A2977 RMK T01500130 IEM_DS3505
ZBAA,1992-05-04 18:00,ZBAA 041800Z AUTO 02004KT 4SM 14/13 A2977 RMK 60001 SLP137 T01400127 40198//// 57004 IEM_DS3505
ZBAA,1992-05-04 19:00,ZBAA 041900Z AUTO 35006KT 4SM A2977 RMK IEM_DS3505
ZBAA,1992-05-04 20:00,ZBAA 042000Z AUTO 01008KT 3SM 13/13 A2977 RMK T01300130 IEM_DS3505
ZBAA,1992-05-04 21:00,ZBAA 042100Z AUTO 04002KT 5SM 14/13 A2977 RMK 70008 SLP132 T01370132 57005 IEM_DS3505
ZBAA,1992-05-04 22:00,ZBAA 042200Z AUTO 03006KT 2 1/2SM 13/13 A2977 RMK T01300130 IEM_DS3505
ZBAA,1992-05-04 23:00,ZBAA 042300Z AUTO 03004KT 2 1/2SM 13/13 A2977 RMK T01300130 IEM_DS3505
ZBAA,1992-05-05 00:00,ZBAA 050000Z AUTO 04006KT 2SM 14/13 A2977 RMK 60020 70020 SLP135 T01350130 52003 IEM_DS3505
ZBAA,1992-05-05 01:00,ZBAA 050100Z AUTO 01004KT 1 1/2SM 14/14 A2977 RMK T01400140 IEM_DS3505
ZBAA,1992-05-05 02:00,ZBAA 050200Z AUTO 36004KT 1 1/4SM 14/14 A2977 RMK T01400140 IEM_DS3505
ZBAA,1992-05-05 03:00,ZBAA 050300Z AUTO 04006KT 1 1/4SM 14/14 A2977 RMK SLP134 T01400135 57001 IEM_DS3505
ZBAA,1992-05-05 04:00,ZBAA 050400Z AUTO 03004KT 1 1/4SM 14/14 A2977 RMK T01400140 IEM_DS3505
ZBAA,1992-05-05 05:00,ZBAA 050500Z AUTO 03004KT 1 1/4SM 14/14 A2974 RMK T01400140 IEM_DS3505
ZBAA,1992-05-05 06:00,ZBAA 050600Z AUTO 04002KT 1 1/4SM 15/14 A2974 RMK 60020 SLP127 T01460139 4////0133 57008 IEM_DS3505
ZBAA,1992-05-05 07:00,ZBAA 050700Z AUTO 04004KT 1 1/2SM 15/15 A2971 RMK T01500150 IEM_DS3505
ZBAA,1992-05-05 08:00,ZBAA 050800Z AUTO 06002KT 1 1/2SM 15/15 A2971 RMK T01500150 IEM_DS3505
ZBAA,1992-05-05 09:00,ZBAA 050900Z AUTO 09006KT 1 1/4SM 14/14 A2971 RMK SLP119 T01420137 57008 IEM_DS3505
ZBAA,1992-05-05 10:00,ZBAA 051000Z AUTO 13004KT 1 1/4SM 14/14 A2971 RMK T01400140 IEM_DS3505
ZBAA,1992-05-05 11:00,ZBAA 051100Z AUTO 16006KT 1 1/4SM 13/13 A2971 RMK T01300130 IEM_DS3505
ZBAA,1992-05-05 12:00,ZBAA 051200Z AUTO 16002KT 1SM 14/13 A2974 RMK 60012 SLP120 T01350130 52001 IEM_DS3505
ZBAA,1992-05-05 13:00,ZBAA 051300Z AUTO 13002KT 2SM 12/12 A2974 RMK T01200120 IEM_DS3505
ZBAA,1992-05-05 14:00,ZBAA 051400Z AUTO 12002KT 2 1/2SM 13/13 A2974 RMK T01300130 IEM_DS3505
ZBAA,1992-05-05 15:00,ZBAA 051500Z AUTO 00000KT 1SM 13/12 A2971 RMK SLP119 T01300124 57001 IEM_DS3505
ZBAA,1992-05-05 16:00,ZBAA 051600Z AUTO 00000KT 2SM 12/12 A2968 RMK T01200120 IEM_DS3505
ZBAA,1992-05-05 17:00,ZBAA 051700Z AUTO 00000KT 1 1/2SM 12/12 A2968 RMK T01200120 IEM_DS3505
ZBAA,1992-05-05 18:00,ZBAA 051800Z AUTO 00000KT 1 1/4SM 13/12 A2965 RMK 60035 SLP101 T01310124 40147//// 57018 IEM_DS3505
ZBAA,1992-05-05 19:00,ZBAA 051900Z AUTO 00000KT 1 1/4SM 13/13 A2965 RMK T01300130 IEM_DS3505
ZBAA,1992-05-05 20:00,ZBAA 052000Z AUTO 29004KT 1 1/4SM 13/13 A2965 RMK T01300130 IEM_DS3505
ZBAA,1992-05-05 21:00,ZBAA 052100Z AUTO 22002KT 1SM 13/13 A2962 RMK 70083 SLP090 T01330128 57011 IEM_DS3505
ZBAA,1992-05-05 22:00,ZBAA 052200Z AUTO 00000KT 1SM 13/13 A2962 RMK T01300130 IEM_DS3505
ZBAA,1992-05-05 23:00,ZBAA 052300Z AUTO 28002KT 1 1/4SM 13/13 A2962 RMK T01300130 IEM_DS3505
ZBAA,1992-05-06 00:00,ZBAA 060000Z AUTO 27004KT 1SM 14/13 A2962 RMK 60001 70071 SLP087 T01380127 57003 IEM_DS3505
ZBAA,1992-05-06 01:00,ZBAA 060100Z AUTO 28004KT 1 1/4SM 14/14 A2962 RMK T01400140 IEM_DS3505
ZBAA,1992-05-06 02:00,ZBAA 060200Z AUTO 00000KT 1 1/2SM 14/14 A2962 RMK T01400140 IEM_DS3505
ZBAA,1992-05-06 03:00,ZBAA 060300Z AUTO 04004KT 2SM 16/14 A2959 RMK SLP079 T01570136 57007 IEM_DS3505
ZBAA,1992-05-06 04:00,ZBAA 060400Z AUTO 13006KT 1 1/2SM 16/16 A2959 RMK T01600160 IEM_DS3505
ZBAA,1992-05-06 05:00,ZBAA 060500Z AUTO 14006KT 2SM 16/16 A2956 RMK T01600160 IEM_DS3505
ZBAA,1992-05-06 06:00,ZBAA 060600Z AUTO 16004KT 3SM 16/13 A2953 RMK SLP063 T01650133 4////0126 57016 IEM_DS3505
ZBAA,1992-05-06 07:00,ZBAA 060700Z AUTO 14002KT 4SM 17/14 A2953 RMK T01700140 IEM_DS3505
ZBAA,1992-05-06 08:00,ZBAA 060800Z AUTO 16004KT 4SM 17/14 A2953 RMK T01700140 IEM_DS3505
ZBAA,1992-05-06 09:00,ZBAA 060900Z AUTO 22002KT 4SM 16/14 A2953 RMK SLP058 T01650137 57005 IEM_DS3505
ZBAA,1992-05-06 10:00,ZBAA 061000Z AUTO 15002KT 5SM 16/14 A2953 RMK T01600140 IEM_DS3505
ZBAA,1992-05-06 11:00,ZBAA 061100Z AUTO 00000KT 5SM 16/14 A2953 RMK T01600140 IEM_DS3505
ZBAA,1992-05-06 12:00,ZBAA 061200Z AUTO 00000KT 3SM 16/14 A2953 RMK 60002 SLP060 T01550145 52002 IEM_DS3505
ZBAA,1992-05-06 13:00,ZBAA 061300Z AUTO 15002KT 5SM 15/14 A2956 RMK T01500140 IEM_DS3505
ZBAA,1992-05-06 14:00,ZBAA 061400Z AUTO 19004KT 4SM 15/14 A2953 RMK T01500140 IEM_DS3505
ZBAA,1992-05-06 15:00,ZBAA 061500Z AUTO 20004KT 2SM 15/14 A2953 RMK SLP060 T01520142 54000 IEM_DS3505
ZBAA,1992-05-06 16:00,ZBAA 061600Z AUTO 12002KT 3SM 15/14 A2953 RMK T01500140 IEM_DS3505
ZBAA,1992-05-06 17:00,ZBAA 061700Z AUTO 13002KT 3SM 15/14 A2953 RMK T01500140 IEM_DS3505
ZBAA,1992-05-06 18:00,ZBAA 061800Z AUTO 00000KT 3SM 14/14 A2953 RMK 60004 SLP050 T01450138 40172//// 57010 IEM_DS3505
ZBAA,1992-05-06 19:00,ZBAA 061900Z AUTO 09002KT 3SM 13/13 A2953 RMK T01300130 IEM_DS3505
ZBAA,1992-05-06 20:00,ZBAA 062000Z AUTO 00000KT 1 1/4SM 13/12 A2962 RMK T01300120 IEM_DS3505
ZBAA,1992-05-06 21:00,ZBAA 062100Z AUTO 36002KT 3/8SM 13/13 A2953 RMK 70004 SLP049 T01340132 57001 IEM_DS3505
ZBAA,1992-05-06 22:00,ZBAA 062200Z AUTO 34004KT 1/4SM 13/12 A2953 RMK T01300120 IEM_DS3505
ZBAA,1992-05-06 23:00,ZBAA 062300Z AUTO 34006KT 1 1/4SM 15/15 A2956 RMK T01500150 IEM_DS3505
ZBAA,1992-05-07 00:00,ZBAA 070000Z AUTO 36008KT 19SM 19/11 A2956 RMK 70004 SLP064 T01910107 52015 IEM_DS3505
ZBAA,1992-05-07 01:00,ZBAA 070100Z AUTO 03006KT 6SM 21/12 A2956 RMK T02100120 IEM_DS3505
ZBAA,1992-05-07 03:00,ZBAA 070300Z AUTO 02010KT 19SM 23/08 A2956 RMK SLP068 T02280082 52005 IEM_DS3505
ZBAA,1992-05-07 04:00,ZBAA 070400Z AUTO 35006KT 6SM 24/09 A2956 RMK T02400090 IEM_DS3505
ZBAA,1992-05-07 05:00,ZBAA 070500Z AUTO 02006KT 6SM 24/08 A2953 RMK T02400080 IEM_DS3505
ZBAA,1992-05-07 06:00,ZBAA 070600Z AUTO 36008KT 19SM 25/07 A2950 RMK SLP055 T02460067 4////0127 57013 IEM_DS3505
ZBAA,1992-05-07 07:00,ZBAA 070700Z AUTO 03006KT 6SM 26/09 A2950 RMK T02600090 IEM_DS3505
ZBAA,1992-05-07 08:00,ZBAA 070800Z AUTO 30014KT 6SM 26/05 A2950 RMK T02600050 IEM_DS3505
ZBAA,1992-05-07 09:00,ZBAA 070900Z AUTO 02006KT 19SM 25/07 A2947 RMK SLP046 T02460067 57009 IEM_DS3505
ZBAA,1992-05-07 10:00,ZBAA 071000Z AUTO 31014KT 6SM 24/05 A2950 RMK T02400050 IEM_DS3505
ZBAA,1992-05-07 11:00,ZBAA 071100Z AUTO 31014KT 6SM 22/03 A2953 RMK T02200030 IEM_DS3505
ZBAA,1992-05-07 12:00,ZBAA 071200Z AUTO 02004KT 19SM 21/06 A2956 RMK SLP064 T02100065 52018 IEM_DS3505
ZBAA,1992-05-07 13:00,ZBAA 071300Z AUTO 35006KT 6SM 20/04 A2959 RMK T02000040 IEM_DS3505
ZBAA,1992-05-07 14:00,ZBAA 071400Z AUTO 36002KT 6SM 18/04 A2959 RMK T01800040 IEM_DS3505
ZBAA,1992-05-07 15:00,ZBAA 071500Z AUTO 00000KT 19SM 15/09 A2962 RMK SLP075 T01510089 52011 IEM_DS3505
ZBAA,1992-05-07 16:00,ZBAA 071600Z AUTO 25002KT 6SM 14/06 A2962 RMK T01400060 IEM_DS3505
ZBAA,1992-05-07 17:00,ZBAA 071700Z AUTO 00000KT 6SM 14/06 A2962 RMK T01400060 IEM_DS3505
ZBAA,1992-05-07 18:00,ZBAA 071800Z AUTO 00000KT 19SM 12/09 RMK SLP081 T01240090 40251//// 52006 IEM_DS3505
ZBAA,1992-05-07 21:00,ZBAA 072100Z AUTO 22004KT 19SM 13/08 RMK SLP085 T01310081 52004 IEM_DS3505
ZBAA,1992-05-07 22:00,ZBAA 072200Z AUTO 33004KT 7SM 13/07 A2965 RMK T01300070 IEM_DS3505
ZBAA,1992-05-07 23:00,ZBAA 072300Z AUTO 29008KT 7SM 15/07 A2968 RMK T01500070 IEM_DS3505
ZBAA,1992-05-08 00:00,ZBAA 080000Z AUTO 32010KT 19SM 20/M03 A2971 RMK SLP109 T01951031 52024 IEM_DS3505
ZBAA,1992-05-08 01:00,ZBAA 080100Z AUTO 33019KT 7SM 20/M02 A2971 RMK T02001020 IEM_DS3505
ZBAA,1992-05-08 03:00,ZBAA 080300Z AUTO 36008KT 19SM 21/M03 A2971 RMK SLP126 T02061029 52016 IEM_DS3505
ZBAA,1992-05-08 04:00,ZBAA 080400Z AUTO 32023G35KT 7SM 22/M06 A2971 RMK T02201060 IEM_DS3505
ZBAA,1992-05-08 05:00,ZBAA 080500Z AUTO 31023G33KT 7SM 22/M04 A2971 RMK T02201040 IEM_DS3505
ZBAA,1992-05-08 06:00,ZBAA 080600Z AUTO 34008KT 19SM 22/M03 A2974 RMK SLP123 T02201027 4////0122 57003 IEM_DS3505
ZBAA,1992-05-08 07:00,ZBAA 080700Z AUTO 34021KT 7SM 22/M04 A2971 RMK T02201040 IEM_DS3505
ZBAA,1992-05-08 08:00,ZBAA 080800Z AUTO 32019KT 7SM 22/M04 A2974 RMK T02201040 IEM_DS3505
ZBAA,1992-05-08 09:00,ZBAA 080900Z AUTO 34012KT 19SM 21/M03 A2977 RMK SLP134 T02101029 52011 IEM_DS3505
ZBAA,1992-05-08 10:00,ZBAA 081000Z AUTO 34014KT 6SM 20/M03 A2980 RMK T02001030 IEM_DS3505
ZBAA,1992-05-08 11:00,ZBAA 081100Z AUTO 35012KT 6SM 18/M04 A2983 RMK T01801040 IEM_DS3505
ZBAA,1992-05-08 12:00,ZBAA 081200Z AUTO 36010KT 19SM 18/M06 A2985 RMK SLP164 T01771056 52030 IEM_DS3505
ZBAA,1992-05-08 13:00,ZBAA 081300Z AUTO 35014KT 6SM 17/M06 A2991 RMK T01701060 IEM_DS3505
ZBAA,1992-05-08 14:00,ZBAA 081400Z AUTO 35010KT 6SM 16/M06 A2997 RMK T01601060 IEM_DS3505
ZBAA,1992-05-08 15:00,ZBAA 081500Z AUTO 02006KT 19SM 16/M04 A2997 RMK SLP199 T01581043 52035 IEM_DS3505
ZBAA,1992-05-08 16:00,ZBAA 081600Z AUTO 01008KT 6SM 14/M05 A3000 RMK T01401050 IEM_DS3505
ZBAA,1992-05-08 17:00,ZBAA 081700Z AUTO 36010KT 6SM 13/M04 A3003 RMK T01301040 IEM_DS3505
ZBAA,1992-05-08 18:00,ZBAA 081800Z AUTO 36008KT 12SM 13/M02 A3006 RMK SLP232 T01341020 40225//// 52032 IEM_DS3505
ZBAA,1992-05-08 19:00,ZBAA 081900Z AUTO 35006KT 6SM 12/M04 A3006 RMK T01201040 IEM_DS3505
ZBAA,1992-05-08 20:00,ZBAA 082000Z AUTO 32006KT 6SM 10/M03 A3009 RMK T01001030 IEM_DS3505
ZBAA,1992-05-08 21:00,ZBAA 082100Z AUTO 36010KT 12SM 13/M07 A3012 RMK SLP247 T01261067 52015 IEM_DS3505
ZBAA,1992-05-08 22:00,ZBAA 082200Z AUTO 35004KT 6SM 11/M02 A3015 RMK T01101020 IEM_DS3505
ZBAA,1992-05-08 23:00,ZBAA 082300Z AUTO 01006KT 6SM 12/M02 A3015 RMK T01201020 IEM_DS3505
ZBAA,1992-05-09 00:00,ZBAA 090000Z AUTO 36004KT 19SM 14/M08 A3018 RMK SLP266 T01371078 52019 IEM_DS3505
ZBAA,1992-05-09 01:00,ZBAA 090100Z AUTO 01008KT 6SM 16/M02 A3018 RMK T01601020 IEM_DS3505
ZBAA,1992-05-09 02:00,ZBAA 090200Z AUTO 35006KT 6SM 17/M02 A3018 RMK T01701020 IEM_DS3505
ZBAA,1992-05-09 03:00,ZBAA 090300Z AUTO 09006KT 19SM 17/M04 RMK SLP262 T01681036 57004 IEM_DS3505
ZBAA,1992-05-09 04:00,ZBAA 090400Z AUTO 06004KT 6SM 18/M06 A3012 RMK T01801060 IEM_DS3505
ZBAA,1992-05-09 05:00,ZBAA 090500Z AUTO 35004KT 6SM 19/M06 A3012 RMK T01901060 IEM_DS3505
ZBAA,1992-05-09 06:00,ZBAA 090600Z AUTO 14004KT 19SM 19/M09 A3009 RMK SLP240 T01861091 4////0120 57022 IEM_DS3505
ZBAA,1992-05-09 07:00,ZBAA 090700Z AUTO 18008KT 6SM 20/M07 A3006 RMK T02001070 IEM_DS3505
ZBAA,1992-05-09 08:00,ZBAA 090800Z AUTO 15008KT 6SM 20/M06 A3003 RMK T02001060 IEM_DS3505
ZBAA,1992-05-09 09:00,ZBAA 090900Z AUTO 20010KT 12SM 19/M05 A3003 RMK SLP223 T01881046 57017 IEM_DS3505
ZBAA,1992-05-09 10:00,ZBAA 091000Z AUTO 16006KT 6SM 18/M04 A3003 RMK T01801040 IEM_DS3505
ZBAA,1992-05-09 11:00,ZBAA 091100Z AUTO 18006KT 6SM 17/M04 A3003 RMK T01701040 IEM_DS3505
ZBAA,1992-05-09 12:00,ZBAA 091200Z AUTO 20006KT 16SM 17/M02 A3003 RMK SLP227 T01681019 52004 IEM_DS3505
ZBAA,1992-05-09 13:00,ZBAA 091300Z AUTO 17004KT 6SM 15/M02 A3006 RMK T01501020 IEM_DS3505
ZBAA,1992-05-09 14:00,ZBAA 091400Z AUTO 14002KT 6SM 13/00 A3006 RMK T01300000 IEM_DS3505
ZBAA,1992-05-09 15:00,ZBAA 091500Z AUTO 20004KT 12SM 15/02 A3006 RMK SLP233 T01460024 52006 IEM_DS3505
ZBAA,1992-05-09 17:00,ZBAA 091700Z AUTO 13004KT 6SM 12/02 A3006 RMK T01200020 IEM_DS3505
ZBAA,1992-05-09 18:00,ZBAA 091800Z AUTO 00000KT 9SM 14/03 A3006 RMK SLP231 T01360027 40195//// 57002 IEM_DS3505
ZBAA,1992-05-09 19:00,ZBAA 091900Z AUTO 11002KT 6SM 10/03 A3006 RMK T01000030 IEM_DS3505
ZBAA,1992-05-09 20:00,ZBAA 092000Z AUTO 02002KT 6SM 10/04 A3006 RMK T01000040 IEM_DS3505
ZBAA,1992-05-09 21:00,ZBAA 092100Z AUTO 02004KT 7SM 12/05 A3006 RMK SLP233 T01150049 52002 IEM_DS3505
ZBAA,1992-05-09 22:00,ZBAA 092200Z AUTO 12002KT 6SM 10/04 A3009 RMK T01000040 IEM_DS3505
ZBAA,1992-05-09 23:00,ZBAA 092300Z AUTO 11002KT 6SM 12/05 A3009 RMK T01200050 IEM_DS3505
ZBAA,1992-05-10 00:00,ZBAA 100000Z AUTO 36004KT 5SM 13/04 A3009 RMK SLP243 T01320039 52010 IEM_DS3505
ZBAA,1992-05-10 01:00,ZBAA 100100Z AUTO 15004KT 6SM 15/06 A3009 RMK T01500060 IEM_DS3505
ZBAA,1992-05-10 02:00,ZBAA 100200Z AUTO 09002KT 6SM 15/05 A3009 RMK T01500050 IEM_DS3505
ZBAA,1992-05-10 03:00,ZBAA 100300Z AUTO 34002KT 4SM 15/06 A3009 RMK SLP244 T01540061 52001 IEM_DS3505
ZBAA,1992-05-10 04:00,ZBAA 100400Z AUTO 11002KT 6SM 16/06 A3009 RMK T01600060 IEM_DS3505
ZBAA,1992-05-10 05:00,ZBAA 100500Z AUTO 13002KT 6SM 16/06 A3009 RMK T01600060 IEM_DS3505
ZBAA,1992-05-10 06:00,ZBAA 100600Z AUTO 18004KT 5SM 16/06 A3006 RMK SLP237 T01630063 4////0112 57007 IEM_DS3505
ZBAA,1992-05-10 07:00,ZBAA 100700Z AUTO 16008KT 7SM 17/06 A3006 RMK T01700060 IEM_DS3505
ZBAA,1992-05-10 08:00,ZBAA 100800Z AUTO 11004KT 7SM 16/06 A3003 RMK T01600060 IEM_DS3505
ZBAA,1992-05-10 09:00,ZBAA 100900Z AUTO 20008KT 6SM 17/04 A3003 RMK SLP218 T01730044 57019 IEM_DS3505
ZBAA,1992-05-10 10:00,ZBAA 101000Z AUTO 12004KT 6SM 16/06 A3000 RMK T01600060 IEM_DS3505
ZBAA,1992-05-10 11:00,ZBAA 101100Z AUTO 13002KT 6SM 16/06 A3000 RMK T01600060 IEM_DS3505
ZBAA,1992-05-10 12:00,ZBAA 101200Z AUTO 20006KT 6SM 16/04 A3000 RMK SLP218 T01600039 54000 IEM_DS3505
ZBAA,1992-05-10 13:00,ZBAA 101300Z AUTO 00000KT 6SM 14/07 A3003 RMK T01400070 IEM_DS3505
ZBAA,1992-05-10 14:00,ZBAA 101400Z AUTO 14002KT 6SM 14/07 A3003 RMK T01400070 IEM_DS3505
ZBAA,1992-05-10 15:00,ZBAA 101500Z AUTO 16002KT 6SM 14/06 A3003 RMK SLP220 T01440055 52002 IEM_DS3505
ZBAA,1992-05-10 16:00,ZBAA 101600Z AUTO 00000KT 6SM 13/07 A3003 RMK T01300070 IEM_DS3505
ZBAA,1992-05-10 17:00,ZBAA 101700Z AUTO 11002KT 6SM 11/07 A3000 RMK T01100070 IEM_DS3505
ZBAA,1992-05-10 18:00,ZBAA 101800Z AUTO 11002KT 6SM 11/06 A3000 RMK SLP211 T01090064 40174//// 57009 IEM_DS3505
ZBAA,1992-05-10 19:00,ZBAA 101900Z AUTO 34004KT 6SM 11/07 A3000 RMK T01100070 IEM_DS3505
ZBAA,1992-05-10 21:00,ZBAA 102100Z AUTO 04004KT 4SM 12/07 A3000 RMK SLP211 T01200072 54000 IEM_DS3505
ZBAA,1992-05-10 22:00,ZBAA 102200Z AUTO 00000KT 6SM 11/07 A3000 RMK T01100070 IEM_DS3505
ZBAA,1992-05-10 23:00,ZBAA 102300Z AUTO 23002KT 6SM 13/07 A3000 RMK T01300070 IEM_DS3505
ZBAA,1992-05-11 00:00,ZBAA 110000Z AUTO 09002KT 4SM 14/07 A3003 RMK SLP216 T01450067 52005 IEM_DS3505
ZBAA,1992-05-11 01:00,ZBAA 110100Z AUTO 12004KT 6SM 16/08 A3000 RMK T01600080 IEM_DS3505
ZBAA,1992-05-11 03:00,ZBAA 110300Z AUTO 18002KT 3SM 19/07 A3000 RMK SLP211 T01860066 57005 IEM_DS3505
ZBAA,1992-05-11 04:00,ZBAA 110400Z AUTO 14004KT 6SM 20/08 A2997 RMK T02000080 IEM_DS3505
ZBAA,1992-05-11 05:00,ZBAA 110500Z AUTO 15008KT 6SM 22/09 A2994 RMK T02200090 IEM_DS3505
ZBAA,1992-05-11 06:00,ZBAA 110600Z AUTO 18006KT 3SM 22/10 A2991 RMK SLP185 T02190100 4////0107 57026 IEM_DS3505
ZBAA,1992-05-11 07:00,ZBAA 110700Z AUTO 16008KT 6SM 23/10 A2988 RMK T02300100 IEM_DS3505
ZBAA,1992-05-11 08:00,ZBAA 110800Z AUTO 18012KT 6SM 22/10 A2988 RMK T02200100 IEM_DS3505
ZBAA,1992-05-11 09:00,ZBAA 110900Z AUTO 20010KT 3SM 21/10 A2988 RMK SLP173 T02140100 57011 IEM_DS3505
ZBAA,1992-05-11 11:00,ZBAA 111100Z AUTO 17006KT 6SM 20/09 A2988 RMK T02000090 IEM_DS3505
ZBAA,1992-05-11 12:00,ZBAA 111200Z AUTO 20006KT 2 1/2SM 20/09 A2991 RMK SLP174 T01990087 52001 IEM_DS3505
ZBAA,1992-05-11 13:00,ZBAA 111300Z AUTO 14002KT 6SM 19/09 A2991 RMK T01900090 IEM_DS3505
ZBAA,1992-05-11 14:00,ZBAA 111400Z AUTO 00000KT 6SM 18/09 A2991 RMK T01800090 IEM_DS3505
ZBAA,1992-05-11 15:00,ZBAA 111500Z AUTO 16004KT 4SM 19/10 A2991 RMK SLP178 T01860096 52004 IEM_DS3505
ZBAA,1992-05-11 16:00,ZBAA 111600Z AUTO 10004KT 6SM 17/10 A2991 RMK T01700100 IEM_DS3505
ZBAA,1992-05-11 17:00,ZBAA 111700Z AUTO 12004KT 6SM 16/10 A2991 RMK T01600100 IEM_DS3505
ZBAA,1992-05-11 18:00,ZBAA 111800Z AUTO 16004KT 5SM 18/09 A2988 RMK SLP177 T01780092 40224//// 57001 IEM_DS3505
ZBAA,1992-05-11 19:00,ZBAA 111900Z AUTO 11004KT 6SM 15/10 A2988 RMK T01500100 IEM_DS3505
ZBAA,1992-05-11 20:00,ZBAA 112000Z AUTO 13004KT 6SM 15/10 A2991 RMK T01500100 IEM_DS3505
ZBAA,1992-05-11 21:00,ZBAA 112100Z AUTO 22002KT 4SM 17/07 RMK SLP177 T01700070 54000 IEM_DS3505
ZBAA,1992-05-11 22:00,ZBAA 112200Z AUTO 06006KT 6SM 15/09 A2991 RMK T01500090 IEM_DS3505
ZBAA,1992-05-11 23:00,ZBAA 112300Z AUTO 10004KT 5SM 16/09 A2991 RMK T01600090 IEM_DS3505
ZBAA,1992-05-12 00:00,ZBAA 120000Z AUTO 22004KT 12SM 17/05 A2991 RMK SLP183 T01720049 52006 IEM_DS3505
ZBAA,1992-05-12 01:00,ZBAA 120100Z AUTO 23006KT 7SM 17/06 A2991 RMK T01700060 IEM_DS3505
ZBAA,1992-05-12 02:00,ZBAA 120200Z AUTO 28004KT 7SM 18/06 A2991 RMK T01800060 IEM_DS3505
ZBAA,1992-05-12 03:00,ZBAA 120300Z AUTO 29002KT 7SM 15/08 A2994 RMK SLP189 T01540083 52006 IEM_DS3505
ZBAA,1992-05-12 04:00,ZBAA 120400Z AUTO 29006KT 7SM 15/10 A2991 RMK T01500100 IEM_DS3505
ZBAA,1992-05-12 05:00,ZBAA 120500Z AUTO 32004KT 7SM 14/12 A2991 RMK T01400120 IEM_DS3505
ZBAA,1992-05-12 06:00,ZBAA 120600Z AUTO 36004KT 7SM 15/10 A2991 RMK 60004 SLP186 T01520103 4////0147 57004 IEM_DS3505
ZBAA,1992-05-12 07:00,ZBAA 120700Z AUTO 01006KT 7SM 15/12 A2988 RMK T01500120 IEM_DS3505
ZBAA,1992-05-12 08:00,ZBAA 120800Z AUTO 03006KT 7SM 15/11 A2988 RMK T01500110 IEM_DS3505
ZBAA,1992-05-12 09:00,ZBAA 120900Z AUTO 02004KT 6SM 15/10 A2988 RMK SLP173 T01520098 57013 IEM_DS3505
ZBAA,1992-05-12 10:00,ZBAA 121000Z AUTO 06004KT 7SM 14/11 A2985 RMK T01400110 IEM_DS3505
ZBAA,1992-05-12 11:00,ZBAA 121100Z AUTO 04004KT 7SM 14/10 A2988 RMK T01400100 IEM_DS3505
ZBAA,1992-05-12 12:00,ZBAA 121200Z AUTO 07002KT 6SM 14/10 A2988 RMK SLP178 T01440100 52005 IEM_DS3505
ZBAA,1992-05-12 13:00,ZBAA 121300Z AUTO 34004KT 7SM 13/10 A2991 RMK T01300100 IEM_DS3505
ZBAA,1992-05-12 14:00,ZBAA 121400Z AUTO 34004KT 7SM 13/11 A2991 RMK T01300110 IEM_DS3505
ZBAA,1992-05-12 15:00,ZBAA 121500Z AUTO 02002KT 5SM 14/11 A2991 RMK SLP183 T01350106 52005 IEM_DS3505
ZBAA,1992-05-12 16:00,ZBAA 121600Z AUTO 33004KT 3SM 13/11 A2991 RMK T01300110 IEM_DS3505
ZBAA,1992-05-12 17:00,ZBAA 121700Z AUTO 00000KT 3SM 12/10 A2988 RMK T01200100 IEM_DS3505
ZBAA,1992-05-12 18:00,ZBAA 121800Z AUTO 00000KT 1 1/4SM 12/10 RMK SLP175 T01160104 40179//// 57008 IEM_DS3505
ZBAA,1992-05-12 19:00,ZBAA 121900Z AUTO 00000KT 1SM 11/10 A2988 RMK T01100100 IEM_DS3505
ZBAA,1992-05-12 20:00,ZBAA 122000Z AUTO 00000KT 3/8SM 10/09 A2988 RMK T01000090 IEM_DS3505
ZBAA,1992-05-12 21:00,ZBAA 122100Z AUTO 00000KT 1 1/4SM 10/09 A2988 RMK 70004 SLP175 T01010091 54000 IEM_DS3505
ZBAA,1992-05-12 22:00,ZBAA 122200Z AUTO 34002KT 1/8SM 09/09 A2988 RMK T00900090 IEM_DS3505
ZBAA,1992-05-12 23:00,ZBAA 122300Z AUTO 30002KT 1/4SM 10/10 A2991 RMK T01000100 IEM_DS3505
ZBAA,1992-05-13 00:00,ZBAA 130000Z AUTO 00000KT 2SM 15/11 A2991 RMK 70004 SLP183 T01480106 52008 IEM_DS3505
ZBAA,1992-05-13 01:00,ZBAA 130100Z AUTO 02002KT 2 1/2SM 16/11 A2991 RMK T01600110 IEM_DS3505
ZBAA,1992-05-13 02:00,ZBAA 130200Z AUTO 05002KT 4SM 18/12 A2991 RMK T01800120 IEM_DS3505
ZBAA,1992-05-13 03:00,ZBAA 130300Z AUTO 22006KT 2 1/2SM 20/11 A2991 RMK SLP182 T01960113 54000 IEM_DS3505
ZBAA,1992-05-13 04:00,ZBAA 130400Z AUTO 12002KT 4SM 22/12 A2985 RMK T02200120 IEM_DS3505
ZBAA,1992-05-13 05:00,ZBAA 130500Z AUTO 13004KT 5SM 23/11 A2985 RMK T02300110 IEM_DS3505
ZBAA,1992-05-13 06:00,ZBAA 130600Z AUTO 22008KT 5SM 23/12 A2985 RMK SLP169 T02300121 4////0097 57013 IEM_DS3505
ZBAA,1992-05-13 07:00,ZBAA 130700Z AUTO 19010KT 4SM 24/13 A2983 RMK T02400130 IEM_DS3505
ZBAA,1992-05-13 08:00,ZBAA 130800Z AUTO 18010KT 6SM 23/12 A2983 RMK T02300120 IEM_DS3505
ZBAA,1992-05-13 09:00,ZBAA 130900Z AUTO 18008KT 6SM 22/13 A2985 RMK SLP164 T02200128 57005 IEM_DS3505
ZBAA,1992-05-13 10:00,ZBAA 131000Z AUTO 19006KT 6SM 22/12 A2985 RMK T02200120 IEM_DS3505
ZBAA,1992-05-13 11:00,ZBAA 131100Z AUTO 16002KT 6SM 21/13 A2988 RMK T02100130 IEM_DS3505
ZBAA,1992-05-13 12:00,ZBAA 131200Z AUTO 18004KT 6SM 20/13 A2988 RMK SLP176 T02020132 52012 IEM_DS3505
ZBAA,1992-05-13 13:00,ZBAA 131300Z AUTO 10004KT 6SM 19/13 A2991 RMK T01900130 IEM_DS3505
ZBAA,1992-05-13 14:00,ZBAA 131400Z AUTO 12002KT 6SM 18/13 A2991 RMK T01800130 IEM_DS3505
ZBAA,1992-05-13 15:00,ZBAA 131500Z AUTO 16002KT 5SM 19/14 A2994 RMK SLP188 T01880139 52012 IEM_DS3505
ZBAA,1992-05-13 16:00,ZBAA 131600Z AUTO 12002KT 6SM 18/13 A2994 RMK T01800130 IEM_DS3505
ZBAA,1992-05-13 17:00,ZBAA 131700Z AUTO 09002KT 6SM 17/13 A2994 RMK T01700130 IEM_DS3505
ZBAA,1992-05-13 18:00,ZBAA 131800Z AUTO 00000KT 4SM 17/14 A2991 RMK SLP187 T01700140 40233//// 57001 IEM_DS3505
ZBAA,1992-05-13 19:00,ZBAA 131900Z AUTO 12004KT 3SM 17/13 A2994 RMK T01700130 IEM_DS3505
ZBAA,1992-05-13 20:00,ZBAA 132000Z AUTO 10004KT 2 1/2SM 16/13 A2994 RMK T01600130 IEM_DS3505
ZBAA,1992-05-13 21:00,ZBAA 132100Z AUTO 11002KT 2 1/2SM 17/13 A2994 RMK SLP186 T01680134 57001 IEM_DS3505
ZBAA,1992-05-13 22:00,ZBAA 132200Z AUTO 10006KT 2 1/2SM 15/12 A2994 RMK T01500120 IEM_DS3505
ZBAA,1992-05-13 23:00,ZBAA 132300Z AUTO 11006KT 3SM 15/12 A2997 RMK T01500120 IEM_DS3505
ZBAA,1992-05-14 00:00,ZBAA 140000Z AUTO 09006KT 2 1/2SM 16/14 A2997 RMK 60002 70002 SLP200 T01570139 52014 IEM_DS3505
ZBAA,1992-05-14 01:00,ZBAA 140100Z AUTO 10006KT 1 1/2SM 14/14 A2997 RMK T01400140 IEM_DS3505
ZBAA,1992-05-14 02:00,ZBAA 140200Z AUTO 11006KT 1 1/2SM 14/14 A2997 RMK T01400140 IEM_DS3505
ZBAA,1992-05-14 03:00,ZBAA 140300Z AUTO 36004KT 1 1/4SM 15/13 A2994 RMK SLP197 T01530133 57003 IEM_DS3505
ZBAA,1992-05-14 04:00,ZBAA 140400Z AUTO 03004KT 2SM 15/15 A2994 RMK T01500150 IEM_DS3505
ZBAA,1992-05-14 05:00,ZBAA 140500Z AUTO 36004KT 2SM 15/15 A2994 RMK T01500150 IEM_DS3505
ZBAA,1992-05-14 06:00,ZBAA 140600Z AUTO 09004KT 1SM 15/14 A2991 RMK 60016 SLP190 T01490137 4////0147 57008 IEM_DS3505
ZBAA,1992-05-14 07:00,ZBAA 140700Z AUTO 08002KT 1 1/4SM 14/14 A2991 RMK T01400140 IEM_DS3505
ZBAA,1992-05-14 08:00,ZBAA 140800Z AUTO 07002KT 1 1/4SM 15/15 A2988 RMK T01500150 IEM_DS3505
ZBAA,1992-05-14 09:00,ZBAA 140900Z AUTO 16002KT 1SM 14/14 A2988 RMK SLP173 T01440135 57017 IEM_DS3505
ZBAA,1992-05-14 10:00,ZBAA 141000Z AUTO 04006KT 1 1/4SM 14/14 A2985 RMK T01400140 IEM_DS3505
ZBAA,1992-05-14 11:00,ZBAA 141100Z AUTO 03006KT 1 1/4SM 14/14 A2985 RMK T01400140 IEM_DS3505
ZBAA,1992-05-14 12:00,ZBAA 141200Z AUTO 09002KT 1 1/4SM 14/13 A2985 RMK 60087 SLP169 T01430134 57004 IEM_DS3505
ZBAA,1992-05-14 13:00,ZBAA 141300Z AUTO 01004KT 1 1/4SM 13/13 A2988 RMK T01300130 IEM_DS3505
ZBAA,1992-05-14 14:00,ZBAA 141400Z AUTO 01004KT 1 1/2SM 13/13 A2985 RMK T01300130 IEM_DS3505
ZBAA,1992-05-14 15:00,ZBAA 141500Z AUTO 04002KT 1SM 14/13 A2985 RMK SLP170 T01370128 52001 IEM_DS3505
ZBAA,1992-05-14 16:00,ZBAA 141600Z AUTO 34004KT 1 1/2SM 13/13 A2983 RMK T01300130 IEM_DS3505
ZBAA,1992-05-14 17:00,ZBAA 141700Z AUTO 00000KT 1 1/2SM 13/13 A2983 RMK T01300130 IEM_DS3505
ZBAA,1992-05-14 18:00,ZBAA 141800Z AUTO 00000KT 1SM 13/13 A2980 RMK SLP140 T01320127 40173//// 57030 IEM_DS3505
ZBAA,1992-05-14 19:00,ZBAA 141900Z AUTO 33006KT 1 1/2SM 13/12 A2977 RMK T01300120 IEM_DS3505
ZBAA,1992-05-14 20:00,ZBAA 142000Z AUTO 00000KT 1 1/4SM 12/11 A2977 RMK T01200110 IEM_DS3505
ZBAA,1992-05-14 21:00,ZBAA 142100Z AUTO 09002KT 1 1/4SM 13/12 A2977 RMK 70106 SLP133 T01270121 57007 IEM_DS3505
ZBAA,1992-05-14 22:00,ZBAA 142200Z AUTO 00000KT 1/2SM 12/12 A2988 RMK T01200120 IEM_DS3505
ZBAA,1992-05-14 23:00,ZBAA 142300Z AUTO 00000KT 1SM 13/13 A2974 RMK T01300130 IEM_DS3505
ZBAA,1992-05-15 00:00,ZBAA 150000Z AUTO 00000KT 1SM 14/12 A2974 RMK 60004 70106 SLP132 T01380125 57001 IEM_DS3505
ZBAA,1992-05-15 01:00,ZBAA 150100Z AUTO 27004KT 1SM 14/13 A2974 RMK T01400130 IEM_DS3505
ZBAA,1992-05-15 02:00,ZBAA 150200Z AUTO 26006KT 2 1/2SM 15/13 A2974 RMK T01500130 IEM_DS3505
ZBAA,1992-05-15 03:00,ZBAA 150300Z AUTO 18004KT 1 1/4SM 15/12 A2974 RMK SLP129 T01480121 57003 IEM_DS3505
ZBAA,1992-05-15 04:00,ZBAA 150400Z AUTO 23006KT 2 1/2SM 15/12 A2974 RMK T01500120 IEM_DS3505
ZBAA,1992-05-15 05:00,ZBAA 150500Z AUTO 22006KT 3SM 17/11 A2971 RMK T01700110 IEM_DS3505
ZBAA,1992-05-15 06:00,ZBAA 150600Z AUTO 22004KT 2SM 16/12 A2968 RMK 60001 SLP110 T01640124 4////0122 57018 IEM_DS3505
ZBAA,1992-05-15 07:00,ZBAA 150700Z AUTO 28006KT 4SM 18/11 A2965 RMK T01800110 IEM_DS3505
ZBAA,1992-05-15 08:00,ZBAA 150800Z AUTO 30006KT 6SM 18/11 A2965 RMK T01800110 IEM_DS3505
ZBAA,1992-05-15 09:00,ZBAA 150900Z AUTO 32004KT 7SM 18/11 A2965 RMK SLP097 T01760114 57013 IEM_DS3505
ZBAA,1992-05-15 10:00,ZBAA 151000Z AUTO 29006KT 6SM 17/09 A2965 RMK T01700090 IEM_DS3505
ZBAA,1992-05-15 11:00,ZBAA 151100Z AUTO 27004KT 6SM 16/09 A2965 RMK T01600090 IEM_DS3505
ZBAA,1992-05-15 12:00,ZBAA 151200Z AUTO 00000KT 6SM 15/12 A2968 RMK SLP106 T01510118 52009 IEM_DS3505
ZBAA,1992-05-15 13:00,ZBAA 151300Z AUTO 35004KT 6SM 16/09 A2971 RMK T01600090 IEM_DS3505
ZBAA,1992-05-15 14:00,ZBAA 151400Z AUTO 35004KT 6SM 15/09 A2971 RMK T01500090 IEM_DS3505
ZBAA,1992-05-15 15:00,ZBAA 151500Z AUTO 27004KT 6SM 14/11 A2968 RMK SLP110 T01360112 52003 IEM_DS3505
ZBAA,1992-05-15 16:00,ZBAA 151600Z AUTO 29006KT 6SM 14/09 A2968 RMK T01400090 IEM_DS3505
ZBAA,1992-05-15 17:00,ZBAA 151700Z AUTO 29002KT 6SM 12/09 A2968 RMK T01200090 IEM_DS3505
ZBAA,1992-05-15 18:00,ZBAA 151800Z AUTO 00000KT 6SM 12/10 A2968 RMK SLP106 T01190102 40178//// 57004 IEM_DS3505
ZBAA,1992-05-15 19:00,ZBAA 151900Z AUTO 02002KT 6SM 12/09 A2968 RMK T01200090 IEM_DS3505
ZBAA,1992-05-15 21:00,ZBAA 152100Z AUTO 09002KT 9SM 11/09 A2971 RMK 70004 SLP111 T01090093 52005 IEM_DS3505
ZBAA,1992-05-15 22:00,ZBAA 152200Z AUTO 32004KT 6SM 12/10 A2971 RMK T01200100 IEM_DS3505
ZBAA,1992-05-15 23:00,ZBAA 152300Z AUTO 34006KT 6SM 16/08 A2974 RMK T01600080 IEM_DS3505
ZBAA,1992-05-16 00:00,ZBAA 160000Z AUTO 36004KT 19SM 18/09 A2983 RMK 70001 SLP118 T01810089 52008 IEM_DS3505
ZBAA,1992-05-16 01:00,ZBAA 160100Z AUTO 33012KT 6SM 21/07 A2974 RMK T02100070 IEM_DS3505
ZBAA,1992-05-16 02:00,ZBAA 160200Z AUTO 32010KT 6SM 23/09 A2974 RMK T02300090 IEM_DS3505
ZBAA,1992-05-16 03:00,ZBAA 160300Z AUTO 02004KT 19SM 23/06 A2974 RMK SLP125 T02260056 52007 IEM_DS3505
ZBAA,1992-05-16 04:00,ZBAA 160400Z AUTO 06006KT 6SM 24/07 A2974 RMK T02400070 IEM_DS3505
ZBAA,1992-05-16 05:00,ZBAA 160500Z AUTO 13006KT 6SM 25/08 A2971 RMK T02500080 IEM_DS3505
ZBAA,1992-05-16 06:00,ZBAA 160600Z AUTO 36010KT 19SM 24/05 A2971 RMK SLP113 T02440051 4////0104 57012 IEM_DS3505
ZBAA,1992-05-16 07:00,ZBAA 160700Z AUTO 28012KT 6SM 25/06 A2968 RMK T02500060 IEM_DS3505
ZBAA,1992-05-16 08:00,ZBAA 160800Z AUTO 26014KT 6SM 26/05 A2965 RMK T02600050 IEM_DS3505
ZBAA,1992-05-16 09:00,ZBAA 160900Z AUTO 29008KT 19SM 25/03 A2965 RMK SLP103 T02500033 57010 IEM_DS3505
ZBAA,1992-05-16 10:00,ZBAA 161000Z AUTO 29008KT 6SM 24/05 A2965 RMK T02400050 IEM_DS3505
ZBAA,1992-05-16 11:00,ZBAA 161100Z AUTO 07008KT 6SM 22/08 A2968 RMK T02200080 IEM_DS3505
ZBAA,1992-05-16 12:00,ZBAA 161200Z AUTO 04006KT 16SM 22/06 A2971 RMK SLP108 T02180055 52006 IEM_DS3505
ZBAA,1992-05-16 13:00,ZBAA 161300Z AUTO 15002KT 6SM 19/10 A2974 RMK T01900100 IEM_DS3505
ZBAA,1992-05-16 14:00,ZBAA 161400Z AUTO 03002KT 6SM 18/09 A2974 RMK T01800090 IEM_DS3505
ZBAA,1992-05-16 15:00,ZBAA 161500Z AUTO 34002KT 12SM 17/12 A2974 RMK SLP124 T01730123 52016 IEM_DS3505
ZBAA,1992-05-16 18:00,ZBAA 161800Z AUTO 00000KT 12SM 14/12 A2971 RMK SLP120 T01440116 40255//// 57004 IEM_DS3505
ZBAA,1992-05-16 19:00,ZBAA 161900Z AUTO 34002KT 6SM 15/11 A2971 RMK T01500110 IEM_DS3505
ZBAA,1992-05-16 20:00,ZBAA 162000Z AUTO 36002KT 6SM 15/10 A2971 RMK T01500100 IEM_DS3505
ZBAA,1992-05-16 21:00,ZBAA 162100Z AUTO 29002KT 19SM 14/11 A2971 RMK SLP113 T01450113 57007 IEM_DS3505
ZBAA,1992-05-16 22:00,ZBAA 162200Z AUTO 34006KT 6SM 16/09 A2971 RMK T01600090 IEM_DS3505
ZBAA,1992-05-16 23:00,ZBAA 162300Z AUTO 36006KT 6SM 17/10 A2971 RMK T01700100 IEM_DS3505
ZBAA,1992-05-17 00:00,ZBAA 170000Z AUTO 34002KT 19SM 20/09 A2974 RMK SLP120 T01960093 52007 IEM_DS3505
ZBAA,1992-05-17 01:00,ZBAA 170100Z AUTO 04006KT 6SM 21/10 A2974 RMK T02100100 IEM_DS3505
ZBAA,1992-05-17 02:00,ZBAA 170200Z AUTO 01004KT 7SM 23/10 A2974 RMK T02300100 IEM_DS3505
ZBAA,1992-05-17 03:00,ZBAA 170300Z AUTO 36006KT 19SM 24/06 A2971 RMK SLP117 T02450062 57003 IEM_DS3505
ZBAA,1992-05-17 04:00,ZBAA 170400Z AUTO 05004KT 6SM 25/09 A2971 RMK T02500090 IEM_DS3505
ZBAA,1992-05-17 05:00,ZBAA 170500Z AUTO 03006KT 6SM 26/07 A2968 RMK T02600070 IEM_DS3505
ZBAA,1992-05-17 06:00,ZBAA 170600Z AUTO 07006KT 19SM 26/04 A2965 RMK SLP095 T02640044 4////0132 57022 IEM_DS3505
ZBAA,1992-05-17 08:00,ZBAA 170800Z AUTO 01002KT 6SM 27/04 A2962 RMK T02700040 IEM_DS3505
ZBAA,1992-05-17 09:00,ZBAA 170900Z AUTO 02004KT 19SM 27/04 A2962 RMK SLP084 T02700042 57011 IEM_DS3505
ZBAA,1992-05-17 10:00,ZBAA 171000Z AUTO 16002KT 6SM 26/06 A2962 RMK T02600060 IEM_DS3505
ZBAA,1992-05-17 11:00,ZBAA 171100Z AUTO 23002KT 6SM 24/09 A2962 RMK T02400090 IEM_DS3505
ZBAA,1992-05-17 12:00,ZBAA 171200Z AUTO 22004KT 16SM 23/10 A2965 RMK SLP096 T02320102 52012 IEM_DS3505
ZBAA,1992-05-17 13:00,ZBAA 171300Z AUTO 24004KT 7SM 21/09 A2968 RMK T02100090 IEM_DS3505
ZBAA,1992-05-17 14:00,ZBAA 171400Z AUTO 24006KT 7SM 21/10 A2968 RMK T02100100 IEM_DS3505
ZBAA,1992-05-17 15:00,ZBAA 171500Z AUTO 27002KT 12SM 20/11 RMK SLP109 T01960113 52013 IEM_DS3505
ZBAA,1992-05-17 17:00,ZBAA 171700Z AUTO 30002KT 7SM 17/10 A2968 RMK T01700100 IEM_DS3505
ZBAA,1992-05-17 18:00,ZBAA 171800Z AUTO 00000KT 7SM 15/12 A2968 RMK SLP110 T01540119 40274//// 52001 IEM_DS3505
ZBAA,1992-05-17 19:00,ZBAA 171900Z AUTO 34004KT 7SM 15/10 A2968 RMK T01500100 IEM_DS3505
ZBAA,1992-05-17 20:00,ZBAA 172000Z AUTO 01004KT 7SM 14/09 A2968 RMK T01400090 IEM_DS3505
ZBAA,1992-05-17 21:00,ZBAA 172100Z AUTO 00000KT 12SM 14/11 RMK SLP112 T01360112 52002 IEM_DS3505
ZBAA,1992-05-17 22:00,ZBAA 172200Z AUTO 35004KT 7SM 15/08 A2971 RMK T01500080 IEM_DS3505
ZBAA,1992-05-17 23:00,ZBAA 172300Z AUTO 34006KT 7SM 17/10 A2971 RMK T01700100 IEM_DS3505
ZBAA,1992-05-18 00:00,ZBAA 180000Z AUTO 00000KT 9SM 21/12 A2971 RMK SLP115 T02060117 52003 IEM_DS3505
ZBAA,1992-05-18 01:00,ZBAA 180100Z AUTO 02004KT 7SM 24/10 A2971 RMK T02400100 IEM_DS3505
ZBAA,1992-05-18 02:00,ZBAA 180200Z AUTO 32006KT 7SM 26/12 A2971 RMK T02600120 IEM_DS3505
ZBAA,1992-05-18 03:00,ZBAA 180300Z AUTO 34008KT 19SM 29/07 A2968 RMK SLP108 T02880069 57006 IEM_DS3505
ZBAA,1992-05-18 04:00,ZBAA 180400Z AUTO 33010KT 6SM 30/04 A2965 RMK T03000040 IEM_DS3505
ZBAA,1992-05-18 05:00,ZBAA 180500Z AUTO 32010KT 6SM 31/03 A2962 RMK T03100030 IEM_DS3505
ZBAA,1992-05-18 06:00,ZBAA 180600Z AUTO 20004KT 19SM 30/02 A2959 RMK SLP081 T03050015 4////0132 57027 IEM_DS3505
ZBAA,1992-05-18 07:00,ZBAA 180700Z AUTO 27012KT 6SM 31/03 A2956 RMK T03100030 IEM_DS3505
ZBAA,1992-05-18 08:00,ZBAA 180800Z AUTO 27006KT 6SM 29/04 A2956 RMK T02900040 IEM_DS3505
ZBAA,1992-05-18 09:00,ZBAA 180900Z AUTO 36008KT 19SM 28/04 A2956 RMK SLP070 T02810037 57012 IEM_DS3505
ZBAA,1992-05-18 10:00,ZBAA 181000Z AUTO 26006KT 6SM 28/02 A2953 RMK T02800020 IEM_DS3505
ZBAA,1992-05-18 11:00,ZBAA 181100Z AUTO 27006KT 6SM 26/04 A2956 RMK T02600040 IEM_DS3505
ZBAA,1992-05-18 12:00,ZBAA 181200Z AUTO 18006KT 19SM 26/07 A2956 RMK SLP069 T02630067 54000 IEM_DS3505
ZBAA,1992-05-18 13:00,ZBAA 181300Z AUTO 21012KT 6SM 24/06 A2959 RMK T02400060 IEM_DS3505
ZBAA,1992-05-18 14:00,ZBAA 181400Z AUTO 23008KT 6SM 22/07 A2956 RMK T02200070 IEM_DS3505
ZBAA,1992-05-18 15:00,ZBAA 181500Z AUTO 20004KT 19SM 22/10 A2956 RMK SLP071 T02150097 52002 IEM_DS3505
ZBAA,1992-05-18 16:00,ZBAA 181600Z AUTO 29004KT 6SM 19/08 A2956 RMK T01900080 IEM_DS3505
ZBAA,1992-05-18 17:00,ZBAA 181700Z AUTO 00000KT 6SM 17/09 A2956 RMK T01700090 IEM_DS3505
ZBAA,1992-05-18 18:00,ZBAA 181800Z AUTO 00000KT 12SM 19/07 A2956 RMK SLP067 T01890071 40313//// 57004 IEM_DS3505
ZBAA,1992-05-18 19:00,ZBAA 181900Z AUTO 00000KT 6SM 16/09 A2956 RMK T01600090 IEM_DS3505
ZBAA,1992-05-18 20:00,ZBAA 182000Z AUTO 01004KT 6SM 15/10 A2956 RMK T01500100 IEM_DS3505
ZBAA,1992-05-18 21:00,ZBAA 182100Z AUTO 29002KT 12SM 15/10 A2956 RMK SLP068 T01490095 54000 IEM_DS3505
ZBAA,1992-05-18 22:00,ZBAA 182200Z AUTO 36004KT 6SM 15/09 A2959 RMK T01500090 IEM_DS3505
ZBAA,1992-05-18 23:00,ZBAA 182300Z AUTO 03002KT 6SM 17/10 A2956 RMK T01700100 IEM_DS3505
ZBAA,1992-05-19 00:00,ZBAA 190000Z AUTO 11002KT 6SM 25/09 A2956 RMK SLP069 T02490088 52002 IEM_DS3505
ZBAA,1992-05-19 01:00,ZBAA 190100Z AUTO 13002KT 7SM 26/11 A2956 RMK T02600110 IEM_DS3505
ZBAA,1992-05-19 02:00,ZBAA 190200Z AUTO 14004KT 6SM 28/08 A2956 RMK T02800080 IEM_DS3505
ZBAA,1992-05-19 03:00,ZBAA 190300Z AUTO 22002KT 7SM 30/06 A2956 RMK SLP064 T03020059 57005 IEM_DS3505
ZBAA,1992-05-19 04:00,ZBAA 190400Z AUTO 27008KT 6SM 31/04 A2953 RMK T03100040 IEM_DS3505
ZBAA,1992-05-19 05:00,ZBAA 190500Z AUTO 27008KT 6SM 32/04 A2950 RMK T03200040 IEM_DS3505
ZBAA,1992-05-19 06:00,ZBAA 190600Z AUTO 20008KT 12SM 29/05 A2947 RMK SLP043 T02860048 4////0144 57021 IEM_DS3505
ZBAA,1992-05-19 07:00,ZBAA 190700Z AUTO 23012KT 6SM 32/05 A2944 RMK T03200050 IEM_DS3505
ZBAA,1992-05-19 08:00,ZBAA 190800Z AUTO 26006G17KT 6SM 29/02 A2947 RMK T02900020 IEM_DS3505
ZBAA,1992-05-19 09:00,ZBAA 190900Z AUTO 27006KT 19SM 28/00 A2947 RMK SLP040 T02850005 57003 IEM_DS3505
ZBAA,1992-05-19 10:00,ZBAA 191000Z AUTO 14002KT 6SM 26/07 A2947 RMK T02600070 IEM_DS3505
ZBAA,1992-05-19 11:00,ZBAA 191100Z AUTO 26008KT 6SM 26/04 A2947 RMK T02600040 IEM_DS3505
ZBAA,1992-05-19 12:00,ZBAA 191200Z AUTO 22002KT 12SM 24/09 A2950 RMK SLP040 T02420093 54000 IEM_DS3505
ZBAA,1992-05-19 13:00,ZBAA 191300Z AUTO 00000KT 6SM 22/07 A2950 RMK T02200070 IEM_DS3505
ZBAA,1992-05-19 14:00,ZBAA 191400Z AUTO 31002KT 6SM 21/07 A2950 RMK T02100070 IEM_DS3505
ZBAA,1992-05-19 15:00,ZBAA 191500Z AUTO 00000KT 11SM 19/08 A2950 RMK SLP044 T01900083 52004 IEM_DS3505
ZBAA,1992-05-19 16:00,ZBAA 191600Z AUTO 31002KT 7SM 18/08 A2950 RMK T01800080 IEM_DS3505
ZBAA,1992-05-19 17:00,ZBAA 191700Z AUTO 03002KT 7SM 19/07 A2950 RMK T01900070 IEM_DS3505
ZBAA,1992-05-19 18:00,ZBAA 191800Z AUTO 04004KT 9SM 16/09 A2950 RMK SLP044 T01650090 40312//// 54000 IEM_DS3505
ZBAA,1992-05-19 19:00,ZBAA 191900Z AUTO 35006KT 7SM 17/07 A2950 RMK T01700070 IEM_DS3505
ZBAA,1992-05-19 20:00,ZBAA 192000Z AUTO 35006KT 7SM 17/07 A2950 RMK T01700070 IEM_DS3505
ZBAA,1992-05-19 21:00,ZBAA 192100Z AUTO 09002KT 19SM 17/08 A2950 RMK SLP047 T01670081 52003 IEM_DS3505
ZBAA,1992-05-19 22:00,ZBAA 192200Z AUTO 01004KT 7SM 18/07 A2953 RMK T01800070 IEM_DS3505
ZBAA,1992-05-19 23:00,ZBAA 192300Z AUTO 36006KT 7SM 19/09 A2953 RMK T01900090 IEM_DS3505
ZBAA,1992-05-20 00:00,ZBAA 200000Z AUTO 02004KT 19SM 24/09 A2956 RMK SLP057 T02360089 52010 IEM_DS3505
ZBAA,1992-05-20 01:00,ZBAA 200100Z AUTO 04006KT 7SM 25/10 A2956 RMK T02500100 IEM_DS3505
ZBAA,1992-05-20 02:00,ZBAA 200200Z AUTO 04006KT 7SM 27/08 A2956 RMK T02700080 IEM_DS3505
ZBAA,1992-05-20 03:00,ZBAA 200300Z AUTO 07006KT 16SM 29/06 A2956 RMK SLP064 T02940063 52007 IEM_DS3505
ZBAA,1992-05-20 04:00,ZBAA 200400Z AUTO 03004KT 7SM 30/07 A2956 RMK T03000070 IEM_DS3505
ZBAA,1992-05-20 05:00,ZBAA 200500Z AUTO 05004KT 7SM 30/05 A2953 RMK T03000050 IEM_DS3505
ZBAA,1992-05-20 06:00,ZBAA 200600Z AUTO 09006KT 19SM 32/02 A2962 RMK SLP048 T03150024 4////0161 57016 IEM_DS3505
ZBAA,1992-05-20 07:00,ZBAA 200700Z AUTO 16004KT 6SM 32/03 A2959 RMK T03200030 IEM_DS3505
ZBAA,1992-05-20 08:00,ZBAA 200800Z AUTO 19004KT 6SM 32/03 A2959 RMK T03200030 IEM_DS3505
ZBAA,1992-05-20 09:00,ZBAA 200900Z AUTO 18008KT 16SM 31/01 A2959 RMK SLP039 T03090010 57009 IEM_DS3505
ZBAA,1992-05-20 10:00,ZBAA 201000Z AUTO 22006KT 6SM 29/07 A2959 RMK T02900070 IEM_DS3505
ZBAA,1992-05-20 11:00,ZBAA 201100Z AUTO 07004KT 6SM 28/06 A2962 RMK T02800060 IEM_DS3505
ZBAA,1992-05-20 12:00,ZBAA 201200Z AUTO 22004KT 12SM 27/09 A2962 RMK SLP044 T02660091 52005 IEM_DS3505
ZBAA,1992-05-20 13:00,ZBAA 201300Z AUTO 10008KT 6SM 22/11 A2953 RMK T02200110 IEM_DS3505
ZBAA,1992-05-20 14:00,ZBAA 201400Z AUTO 11008KT 6SM 21/08 A2953 RMK T02100080 IEM_DS3505
ZBAA,1992-05-20 15:00,ZBAA 201500Z AUTO 07004KT 12SM 22/11 A2956 RMK SLP060 T02220109 52016 IEM_DS3505
ZBAA,1992-05-20 16:00,ZBAA 201600Z AUTO 09004KT 6SM 18/09 A2956 RMK T01800090 IEM_DS3505
ZBAA,1992-05-20 17:00,ZBAA 201700Z AUTO 00000KT 7SM 18/09 A2956 RMK T01800090 IEM_DS3505
ZBAA,1992-05-20 18:00,ZBAA 201800Z AUTO 36002KT 11SM 19/10 A2956 RMK SLP064 T01860103 40320//// 52004 IEM_DS3505
ZBAA,1992-05-20 20:00,ZBAA 202000Z AUTO 31002KT 7SM 15/10 A2956 RMK T01500100 IEM_DS3505
ZBAA,1992-05-20 21:00,ZBAA 202100Z AUTO 00000KT 9SM 16/11 A2953 RMK SLP061 T01560107 57003 IEM_DS3505
ZBAA,1992-05-20 22:00,ZBAA 202200Z AUTO 03004KT 6SM 16/10 A2956 RMK T01600100 IEM_DS3505
ZBAA,1992-05-20 23:00,ZBAA 202300Z AUTO 35004KT 6SM 16/10 A2956 RMK T01600100 IEM_DS3505
ZBAA,1992-05-21 00:00,ZBAA 210000Z AUTO 02002KT 6SM 22/10 A2956 RMK SLP063 T02170103 52002 IEM_DS3505
ZBAA,1992-05-21 01:00,ZBAA 210100Z AUTO 02004KT 7SM 23/10 A2956 RMK T02300100 IEM_DS3505
ZBAA,1992-05-21 02:00,ZBAA 210200Z AUTO 05002KT 7SM 25/09 A2953 RMK T02500090 IEM_DS3505
ZBAA,1992-05-21 03:00,ZBAA 210300Z AUTO 07002KT 6SM 28/12 A2953 RMK SLP059 T02760116 57004 IEM_DS3505
ZBAA,1992-05-21 04:00,ZBAA 210400Z AUTO 11004KT 7SM 29/11 A2953 RMK T02900110 IEM_DS3505
ZBAA,1992-05-21 05:00,ZBAA 210500Z AUTO 17006KT 7SM 31/12 A2950 RMK T03100120 IEM_DS3505
ZBAA,1992-05-21 06:00,ZBAA 210600Z AUTO 18006KT 6SM 30/11 A2947 RMK SLP039 T03010108 4////0151 57020 IEM_DS3505
ZBAA,1992-05-21 07:00,ZBAA 210700Z AUTO 17006KT 6SM 31/09 A2947 RMK T03100090 IEM_DS3505
ZBAA,1992-05-21 09:00,ZBAA 210900Z AUTO 09004KT 6SM 31/11 RMK SLP036 T03060113 57003 IEM_DS3505
ZBAA,1992-05-21 12:00,ZBAA 211200Z AUTO 16004KT 7SM 28/09 RMK SLP042 T02840091 52006 IEM_DS3505
ZBAA,1992-05-21 13:00,ZBAA 211300Z AUTO 07006KT 6SM 23/08 A2953 RMK T02300080 IEM_DS3505
ZBAA,1992-05-21 14:00,ZBAA 211400Z AUTO 14008KT 7SM 23/08 A2953 RMK T02300080 IEM_DS3505
ZBAA,1992-05-21 15:00,ZBAA 211500Z AUTO 20004KT 9SM 24/10 A2953 RMK SLP057 T02360103 52015 IEM_DS3505
ZBAA,1992-05-21 16:00,ZBAA 211600Z AUTO 06004KT 6SM 20/09 A2959 RMK T02000090 IEM_DS3505
ZBAA,1992-05-21 17:00,ZBAA 211700Z AUTO 04004KT 6SM 19/09 A2956 RMK T01900090 IEM_DS3505
ZBAA,1992-05-21 18:00,ZBAA 211800Z AUTO 07004KT 12SM 21/10 RMK SLP059 T02120098 40316//// 52002 IEM_DS3505
ZBAA,1992-05-21 20:00,ZBAA 212000Z AUTO 12002KT 6SM 19/09 A2953 RMK T01900090 IEM_DS3505
ZBAA,1992-05-21 21:00,ZBAA 212100Z AUTO 32002KT 12SM 18/12 A2953 RMK SLP056 T01810116 57003 IEM_DS3505
ZBAA,1992-05-21 22:00,ZBAA 212200Z AUTO 35006KT 6SM 18/10 A2956 RMK T01800100 IEM_DS3505
ZBAA,1992-05-21 23:00,ZBAA 212300Z AUTO 35006KT 6SM 19/10 A2959 RMK T01900100 IEM_DS3505
ZBAA,1992-05-22 00:00,ZBAA 220000Z AUTO 02006KT 9SM 22/10 A2959 RMK SLP069 T02190096 52013 IEM_DS3505
ZBAA,1992-05-22 01:00,ZBAA 220100Z AUTO 02008KT 6SM 24/13 A2959 RMK T02400130 IEM_DS3505
ZBAA,1992-05-22 02:00,ZBAA 220200Z AUTO 05006KT 6SM 25/08 A2962 RMK T02500080 IEM_DS3505
ZBAA,1992-05-22 03:00,ZBAA 220300Z AUTO 04010KT 9SM 26/05 A2965 RMK SLP086 T02640053 52017 IEM_DS3505
ZBAA,1992-05-22 04:00,ZBAA 220400Z AUTO 04016G27KT 6SM 25/09 A2965 RMK T02500090 IEM_DS3505
ZBAA,1992-05-22 05:00,ZBAA 220500Z AUTO 05019G29KT 6SM 25/09 A2968 RMK T02500090 IEM_DS3505
ZBAA,1992-05-22 06:00,ZBAA 220600Z AUTO 07006KT 12SM 24/09 A2965 RMK SLP095 T02430094 4////0174 52008 IEM_DS3505
ZBAA,1992-05-22 07:00,ZBAA 220700Z AUTO 05006KT 6SM 23/10 A2965 RMK T02300100 IEM_DS3505
ZBAA,1992-05-22 08:00,ZBAA 220800Z AUTO 05006KT 6SM 25/10 A2965 RMK T02500100 IEM_DS3505
ZBAA,1992-05-22 09:00,ZBAA 220900Z AUTO 07006KT 12SM 25/10 A2965 RMK SLP098 T02500096 52003 IEM_DS3505
ZBAA,1992-05-22 10:00,ZBAA 221000Z AUTO 31004KT 6SM 23/10 A2965 RMK T02300100 IEM_DS3505
ZBAA,1992-05-22 11:00,ZBAA 221100Z AUTO 07002KT 6SM 22/10 A2965 RMK T02200100 IEM_DS3505
ZBAA,1992-05-22 12:00,ZBAA 221200Z AUTO 00000KT 12SM 23/12 A2968 RMK SLP104 T02260125 52006 IEM_DS3505
ZBAA,1992-05-22 13:00,ZBAA 221300Z AUTO 09004KT 7SM 20/12 A2971 RMK T02000120 IEM_DS3505
ZBAA,1992-05-22 14:00,ZBAA 221400Z AUTO 14006KT 7SM 18/12 A2974 RMK T01800120 IEM_DS3505
ZBAA,1992-05-22 15:00,ZBAA 221500Z AUTO 16006KT 11SM 20/12 RMK SLP128 T02040118 52024 IEM_DS3505
ZBAA,1992-05-22 16:00,ZBAA 221600Z AUTO 15002KT 7SM 17/13 A2977 RMK T01700130 IEM_DS3505
ZBAA,1992-05-22 17:00,ZBAA 221700Z AUTO 00000KT 7SM 15/12 A2974 RMK T01500120 IEM_DS3505
ZBAA,1992-05-22 18:00,ZBAA 221800Z AUTO 20002KT 11SM 17/12 A2974 RMK SLP125 T01730119 40278//// 57003 IEM_DS3505
ZBAA,1992-05-22 19:00,ZBAA 221900Z AUTO 00000KT 7SM 15/12 A2974 RMK T01500120 IEM_DS3505
ZBAA,1992-05-22 20:00,ZBAA 222000Z AUTO 00000KT 7SM 14/12 A2971 RMK T01400120 IEM_DS3505
ZBAA,1992-05-22 21:00,ZBAA 222100Z AUTO 00000KT 9SM 15/12 A2971 RMK SLP124 T01490120 57001 IEM_DS3505
ZBAA,1992-05-22 22:00,ZBAA 222200Z AUTO 36004KT 4SM 14/12 A2974 RMK T01400120 IEM_DS3505
ZBAA,1992-05-22 23:00,ZBAA 222300Z AUTO 01004KT 5SM 16/13 A2971 RMK T01600130 IEM_DS3505
ZBAA,1992-05-23 00:00,ZBAA 230000Z AUTO 04002KT 6SM 20/12 A2971 RMK SLP123 T02030115 57001 IEM_DS3505
ZBAA,1992-05-23 01:00,ZBAA 230100Z AUTO 36006KT 7SM 22/13 A2971 RMK T02200130 IEM_DS3505
ZBAA,1992-05-23 02:00,ZBAA 230200Z AUTO 29004KT 7SM 25/13 A2968 RMK T02500130 IEM_DS3505
ZBAA,1992-05-23 03:00,ZBAA 230300Z AUTO 36006KT 12SM 29/05 A2965 RMK SLP099 T02900054 57023 IEM_DS3505
ZBAA,1992-05-23 04:00,ZBAA 230400Z AUTO 28008KT 7SM 32/08 A2962 RMK T03200080 IEM_DS3505
ZBAA,1992-05-23 05:00,ZBAA 230500Z AUTO 28010KT 7SM 32/04 A2959 RMK T03200040 IEM_DS3505
ZBAA,1992-05-23 06:00,ZBAA 230600Z AUTO 27006KT 19SM 32/05 A2953 RMK SLP063 T03200049 4////0147 57036 IEM_DS3505
ZBAA,1992-05-23 07:00,ZBAA 230700Z AUTO 24010KT 6SM 33/06 A2950 RMK T03300060 IEM_DS3505
ZBAA,1992-05-23 08:00,ZBAA 230800Z AUTO 27010KT 6SM 33/06 A2947 RMK T03300060 IEM_DS3505
ZBAA,1992-05-23 09:00,ZBAA 230900Z AUTO 20012KT 16SM 31/08 A2947 RMK SLP038 T03140076 57025 IEM_DS3505
ZBAA,1992-05-23 10:00,ZBAA 231000Z AUTO 20008KT 6SM 30/09 A2947 RMK T03000090 IEM_DS3505
ZBAA,1992-05-23 11:00,ZBAA 231100Z AUTO 14012KT 7SM 23/09 A2953 RMK T02300090 IEM_DS3505
ZBAA,1992-05-23 12:00,ZBAA 231200Z AUTO 11014KT 7SM 22/09 A2959 RMK SLP067 T02230087 52028 IEM_DS3505
ZBAA,1992-05-23 13:00,ZBAA 231300Z AUTO 17012KT 6SM 20/09 A2959 RMK T02000090 IEM_DS3505
ZBAA,1992-05-23 14:00,ZBAA 231400Z AUTO 09004KT 6SM 19/09 A2965 RMK T01900090 IEM_DS3505
ZBAA,1992-05-23 15:00,ZBAA 231500Z AUTO 07006KT 12SM 20/09 A2968 RMK SLP098 T01990094 52032 IEM_DS3505
ZBAA,1992-05-23 16:00,ZBAA 231600Z AUTO 01008KT 6SM 18/09 A2971 RMK T01800090 IEM_DS3505
ZBAA,1992-05-23 17:00,ZBAA 231700Z AUTO 02004KT 6SM 17/09 A2971 RMK T01700090 IEM_DS3505
ZBAA,1992-05-23 18:00,ZBAA 231800Z AUTO 36002KT 12SM 18/10 A2971 RMK SLP115 T01780097 40337//// 52017 IEM_DS3505
ZBAA,1992-05-23 19:00,ZBAA 231900Z AUTO 31002KT 6SM 15/09 A2971 RMK T01500090 IEM_DS3505
ZBAA,1992-05-23 20:00,ZBAA 232000Z AUTO 28006KT 6SM 15/09 A2971 RMK T01500090 IEM_DS3505
ZBAA,1992-05-23 21:00,ZBAA 232100Z AUTO 00000KT 12SM 16/10 A2971 RMK SLP115 T01560105 57001 IEM_DS3505
ZBAA,1992-05-23 22:00,ZBAA 232200Z AUTO 15004KT 6SM 16/10 A2974 RMK T01600100 IEM_DS3505
ZBAA,1992-05-23 23:00,ZBAA 232300Z AUTO 15002KT 6SM 18/11 A2974 RMK T01800110 IEM_DS3505
ZBAA,1992-05-24 00:00,ZBAA 240000Z AUTO 16004KT 19SM 20/08 A2977 RMK SLP125 T01990085 52010 IEM_DS3505
ZBAA,1992-05-24 01:00,ZBAA 240100Z AUTO 19006KT 6SM 21/09 A2974 RMK T02100090 IEM_DS3505
ZBAA,1992-05-24 02:00,ZBAA 240200Z AUTO 20008KT 6SM 23/10 A2977 RMK T02300100 IEM_DS3505
ZBAA,1992-05-24 03:00,ZBAA 240300Z AUTO 20008KT 19SM 22/09 A2974 RMK SLP127 T02250092 52002 IEM_DS3505
ZBAA,1992-05-24 04:00,ZBAA 240400Z AUTO 20008KT 6SM 25/10 A2974 RMK T02500100 IEM_DS3505
ZBAA,1992-05-24 05:00,ZBAA 240500Z AUTO 15006KT 6SM 24/10 A2971 RMK T02400100 IEM_DS3505
ZBAA,1992-05-24 06:00,ZBAA 240600Z AUTO 25006KT 19SM 24/10 A2971 RMK SLP110 T02430098 4////0149 57017 IEM_DS3505
ZBAA,1992-05-24 07:00,ZBAA 240700Z AUTO 16006KT 6SM 26/11 A2968 RMK T02600110 IEM_DS3505
ZBAA,1992-05-24 08:00,ZBAA 240800Z AUTO 11004KT 6SM 24/11 A2968 RMK T02400110 IEM_DS3505
ZBAA,1992-05-24 09:00,ZBAA 240900Z AUTO 22004KT 19SM 23/12 A2971 RMK SLP106 T02260119 57004 IEM_DS3505
ZBAA,1992-05-24 10:00,ZBAA 241000Z AUTO 12004KT 6SM 21/14 A2968 RMK T02100140 IEM_DS3505
ZBAA,1992-05-24 11:00,ZBAA 241100Z AUTO 00000KT 6SM 21/13 A2971 RMK T02100130 IEM_DS3505
ZBAA,1992-05-24 12:00,ZBAA 241200Z AUTO 00000KT 4SM 21/15 A2971 RMK 60001 SLP117 T02070148 52011 IEM_DS3505
ZBAA,1992-05-24 13:00,ZBAA 241300Z AUTO 31002KT 6SM 19/13 A2974 RMK T01900130 IEM_DS3505
ZBAA,1992-05-24 14:00,ZBAA 241400Z AUTO 36004KT 6SM 18/13 A2974 RMK T01800130 IEM_DS3505
ZBAA,1992-05-24 15:00,ZBAA 241500Z AUTO 00000KT 5SM 18/15 A2974 RMK SLP122 T01820146 52005 IEM_DS3505
ZBAA,1992-05-24 16:00,ZBAA 241600Z AUTO 36004KT 6SM 16/13 A2974 RMK T01600130 IEM_DS3505
ZBAA,1992-05-24 17:00,ZBAA 241700Z AUTO 01004KT 6SM 16/13 A2971 RMK T01600130 IEM_DS3505
ZBAA,1992-05-24 18:00,ZBAA 241800Z AUTO 29002KT 5SM 16/14 A2971 RMK SLP119 T01590142 40254//// 57003 IEM_DS3505
ZBAA,1992-05-24 19:00,ZBAA 241900Z AUTO 31006KT 6SM 15/13 A2968 RMK T01500130 IEM_DS3505
ZBAA,1992-05-24 20:00,ZBAA 242000Z AUTO 01004KT 7SM 14/12 A2968 RMK T01400120 IEM_DS3505
ZBAA,1992-05-24 21:00,ZBAA 242100Z AUTO 09002KT 7SM 15/13 A2971 RMK 70001 SLP118 T01520127 57002 IEM_DS3505
ZBAA,1992-05-24 22:00,ZBAA 242200Z AUTO 02006KT 7SM 15/12 A2974 RMK T01500120 IEM_DS3505
ZBAA,1992-05-24 23:00,ZBAA 242300Z AUTO 12004KT 7SM 17/13 A2977 RMK T01700130 IEM_DS3505
ZBAA,1992-05-25 00:00,ZBAA 250000Z AUTO 07006KT 5SM 20/12 A2977 RMK 70001 SLP133 T02020124 52016 IEM_DS3505
ZBAA,1992-05-25 01:00,ZBAA 250100Z AUTO 12006KT 7SM 23/11 A2977 RMK T02300110 IEM_DS3505
ZBAA,1992-05-25 02:00,ZBAA 250200Z AUTO 12002KT 6SM 24/11 A2980 RMK T02400110 IEM_DS3505
ZBAA,1992-05-25 03:00,ZBAA 250300Z AUTO 16002KT 6SM 24/10 A2977 RMK SLP136 T02370099 52003 IEM_DS3505
ZBAA,1992-05-25 04:00,ZBAA 250400Z AUTO 14004KT 6SM 26/10 A2974 RMK T02600100 IEM_DS3505
ZBAA,1992-05-25 05:00,ZBAA 250500Z AUTO 14006KT 6SM 27/09 A2971 RMK T02700090 IEM_DS3505
ZBAA,1992-05-25 06:00,ZBAA 250600Z AUTO 18006KT 7SM 26/10 A2971 RMK SLP113 T02610098 4////0140 57023 IEM_DS3505
ZBAA,1992-05-25 07:00,ZBAA 250700Z AUTO 15006KT 6SM 26/09 A2968 RMK T02600090 IEM_DS3505
ZBAA,1992-05-25 08:00,ZBAA 250800Z AUTO 18010KT 6SM 27/09 A2965 RMK T02700090 IEM_DS3505
ZBAA,1992-05-25 09:00,ZBAA 250900Z AUTO 16008KT 12SM 27/07 A2965 RMK SLP097 T02670073 57016 IEM_DS3505
ZBAA,1992-05-25 10:00,ZBAA 251000Z AUTO 16010KT 7SM 24/10 A2965 RMK T02400100 IEM_DS3505
ZBAA,1992-05-25 11:00,ZBAA 251100Z AUTO 16008KT 6SM 23/10 A2968 RMK T02300100 IEM_DS3505
ZBAA,1992-05-25 12:00,ZBAA 251200Z AUTO 18006KT 12SM 23/09 A2968 RMK SLP101 T02320092 52004 IEM_DS3505
ZBAA,1992-05-25 13:00,ZBAA 251300Z AUTO 14004KT 6SM 20/09 A2971 RMK T02000090 IEM_DS3505
ZBAA,1992-05-25 14:00,ZBAA 251400Z AUTO 11004KT 6SM 19/10 A2971 RMK T01900100 IEM_DS3505
ZBAA,1992-05-25 15:00,ZBAA 251500Z AUTO 18006KT 12SM 21/08 A2971 RMK SLP108 T02070076 52007 IEM_DS3505
ZBAA,1992-05-25 16:00,ZBAA 251600Z AUTO 06004KT 6SM 17/09 A2971 RMK T01700090 IEM_DS3505
ZBAA,1992-05-25 17:00,ZBAA 251700Z AUTO 13002KT 6SM 16/09 A2971 RMK T01600090 IEM_DS3505
ZBAA,1992-05-25 18:00,ZBAA 251800Z AUTO 22002KT 6SM 18/10 A2971 RMK SLP108 T01780097 40270//// 54000 IEM_DS3505
ZBAA,1992-05-25 19:00,ZBAA 251900Z AUTO 00000KT 6SM 14/08 A2971 RMK T01400080 IEM_DS3505
ZBAA,1992-05-25 20:00,ZBAA 252000Z AUTO 36002KT 7SM 14/08 A2971 RMK T01400080 IEM_DS3505
ZBAA,1992-05-25 21:00,ZBAA 252100Z AUTO 04004KT 12SM 16/09 A2971 RMK SLP108 T01580093 54000 IEM_DS3505
ZBAA,1992-05-25 22:00,ZBAA 252200Z AUTO 35002KT 7SM 15/10 A2971 RMK T01500100 IEM_DS3505
ZBAA,1992-05-26 00:00,ZBAA 260000Z AUTO 09002KT 9SM 20/09 A2971 RMK SLP113 T01990092 52005 IEM_DS3505
ZBAA,1992-05-26 01:00,ZBAA 260100Z AUTO 02004KT 7SM 21/10 A2971 RMK T02100100 IEM_DS3505
ZBAA,1992-05-26 02:00,ZBAA 260200Z AUTO 04006KT 7SM 24/12 A2971 RMK T02400120 IEM_DS3505
ZBAA,1992-05-26 03:00,ZBAA 260300Z AUTO 02004KT 5SM 25/12 A2968 RMK SLP106 T02520116 57007 IEM_DS3505
ZBAA,1992-05-26 04:00,ZBAA 260400Z AUTO 08002KT 7SM 28/11 A2965 RMK T02800110 IEM_DS3505
ZBAA,1992-05-26 05:00,ZBAA 260500Z AUTO 14004KT 7SM 30/12 A2962 RMK T03000120 IEM_DS3505
ZBAA,1992-05-26 06:00,ZBAA 260600Z AUTO 20002KT 11SM 30/09 A2962 RMK SLP083 T02980092 4////0149 57022 IEM_DS3505
ZBAA,1992-05-26 07:00,ZBAA 260700Z AUTO 15008KT 7SM 31/11 A2959 RMK T03100110 IEM_DS3505
ZBAA,1992-05-26 08:00,ZBAA 260800Z AUTO 14006KT 7SM 30/11 A2959 RMK T03000110 IEM_DS3505
ZBAA,1992-05-26 09:00,ZBAA 260900Z AUTO 16006KT 11SM 29/11 A2959 RMK SLP076 T02920108 57007 IEM_DS3505
ZBAA,1992-05-26 10:00,ZBAA 261000Z AUTO 15006KT 7SM 28/10 A2959 RMK T02800100 IEM_DS3505
ZBAA,1992-05-26 11:00,ZBAA 261100Z AUTO 16004KT 7SM 27/11 A2962 RMK T02700110 IEM_DS3505
ZBAA,1992-05-26 12:00,ZBAA 261200Z AUTO 18004KT 9SM 27/11 A2962 RMK SLP080 T02680113 52004 IEM_DS3505
ZBAA,1992-05-26 13:00,ZBAA 261300Z AUTO 14002KT 7SM 24/10 A2965 RMK T02400100 IEM_DS3505
ZBAA,1992-05-26 14:00,ZBAA 261400Z AUTO 13002KT 7SM 23/10 A2965 RMK T02300100 IEM_DS3505
ZBAA,1992-05-26 15:00,ZBAA 261500Z AUTO 18006KT 6SM 24/11 A2968 RMK SLP093 T02440107 52013 IEM_DS3505
ZBAA,1992-05-26 16:00,ZBAA 261600Z AUTO 15004KT 7SM 22/11 A2968 RMK T02200110 IEM_DS3505
ZBAA,1992-05-26 18:00,ZBAA 261800Z AUTO 20002KT 6SM 20/13 RMK SLP101 T01970129 40301//// 52008 IEM_DS3505
ZBAA,1992-05-26 21:00,ZBAA 262100Z AUTO 00000KT 6SM 18/14 A2971 RMK SLP107 T01780138 52006 IEM_DS3505
ZBAA,1992-05-26 22:00,ZBAA 262200Z AUTO 35006KT 7SM 18/12 A2971 RMK T01800120 IEM_DS3505
ZBAA,1992-05-26 23:00,ZBAA 262300Z AUTO 02006KT 7SM 19/12 A2971 RMK T01900120 IEM_DS3505
ZBAA,1992-05-27 00:00,ZBAA 270000Z AUTO 02006KT 6SM 23/12 A2974 RMK SLP116 T02280125 52009 IEM_DS3505
ZBAA,1992-05-27 01:00,ZBAA 270100Z AUTO 02004KT 7SM 25/14 A2971 RMK T02500140 IEM_DS3505
ZBAA,1992-05-27 02:00,ZBAA 270200Z AUTO 03002KT 7SM 27/14 A2971 RMK T02700140 IEM_DS3505
ZBAA,1992-05-27 03:00,ZBAA 270300Z AUTO 00000KT 5SM 29/14 A2971 RMK SLP115 T02870136 57001 IEM_DS3505
ZBAA,1992-05-27 04:00,ZBAA 270400Z AUTO 13004KT 7SM 32/14 A2971 RMK T03200140 IEM_DS3505
ZBAA,1992-05-27 05:00,ZBAA 270500Z AUTO 22006KT 7SM 33/10 A2968 RMK T03300100 IEM_DS3505
ZBAA,1992-05-27 06:00,ZBAA 270600Z AUTO 20006KT 6SM 33/10 A2965 RMK SLP101 T03270096 4////0171 57014 IEM_DS3505
ZBAA,1992-05-27 07:00,ZBAA 270700Z AUTO 19010KT 7SM 34/09 A2965 RMK T03400090 IEM_DS3505
ZBAA,1992-05-27 08:00,ZBAA 270800Z AUTO 16006KT 7SM 33/08 A2974 RMK T03300080 IEM_DS3505
ZBAA,1992-05-27 09:00,ZBAA 270900Z AUTO 20006KT 9SM 32/06 A2974 RMK SLP086 T03240064 57015 IEM_DS3505
ZBAA,1992-05-27 11:00,ZBAA 271100Z AUTO 20004KT 7SM 29/09 A2974 RMK T02900090 IEM_DS3505
ZBAA,1992-05-27 12:00,ZBAA 271200Z AUTO 20004KT 6SM 29/12 RMK SLP089 T02880119 52003 IEM_DS3505
ZBAA,1992-05-27 13:00,ZBAA 271300Z AUTO 16004KT 7SM 26/10 A2977 RMK T02600100 IEM_DS3505
ZBAA,1992-05-27 14:00,ZBAA 271400Z AUTO 16004KT 7SM 25/11 A2968 RMK T02500110 IEM_DS3505
ZBAA,1992-05-27 15:00,ZBAA 271500Z AUTO 20004KT 6SM 26/13 A2965 RMK SLP093 T02570127 52004 IEM_DS3505
ZBAA,1992-05-27 16:00,ZBAA 271600Z AUTO 13002KT 7SM 22/13 A2965 RMK T02200130 IEM_DS3505
ZBAA,1992-05-27 17:00,ZBAA 271700Z AUTO 07004KT 7SM 20/13 A2965 RMK T02000130 IEM_DS3505
ZBAA,1992-05-27 18:00,ZBAA 271800Z AUTO 00000KT 4SM 21/14 A2962 RMK SLP090 T02140139 40331//// 57003 IEM_DS3505
ZBAA,1992-05-27 19:00,ZBAA 271900Z AUTO 00000KT 7SM 19/12 A2962 RMK T01900120 IEM_DS3505
ZBAA,1992-05-27 20:00,ZBAA 272000Z AUTO 00000KT 7SM 18/12 A2962 RMK T01800120 IEM_DS3505
ZBAA,1992-05-27 21:00,ZBAA 272100Z AUTO 00000KT 4SM 19/14 A2962 RMK SLP085 T01900138 57005 IEM_DS3505
ZBAA,1992-05-27 22:00,ZBAA 272200Z AUTO 36004KT 7SM 19/12 A2962 RMK T01900120 IEM_DS3505
ZBAA,1992-05-27 23:00,ZBAA 272300Z AUTO 00000KT 7SM 21/12 A2962 RMK T02100120 IEM_DS3505
ZBAA,1992-05-28 00:00,ZBAA 280000Z AUTO 00000KT 3SM 25/14 A2962 RMK SLP085 T02480137 54000 IEM_DS3505
ZBAA,1992-05-28 01:00,ZBAA 280100Z AUTO 04002KT 7SM 27/11 A2962 RMK T02700110 IEM_DS3505
ZBAA,1992-05-28 02:00,ZBAA 280200Z AUTO 07002KT 7SM 29/14 A2959 RMK T02900140 IEM_DS3505
ZBAA,1992-05-28 03:00,ZBAA 280300Z AUTO 25004KT 4SM 32/13 A2956 RMK SLP071 T03150134 57013 IEM_DS3505
ZBAA,1992-05-28 04:00,ZBAA 280400Z AUTO 19004KT 7SM 33/15 A2953 RMK T03300150 IEM_DS3505
ZBAA,1992-05-28 05:00,ZBAA 280500Z AUTO 19006KT 4SM 35/15 A2950 RMK T03500150 IEM_DS3505
ZBAA,1992-05-28 06:00,ZBAA 280600Z AUTO 20008KT 6SM 35/13 A2947 RMK SLP042 T03490133 4////0188 57029 IEM_DS3505
ZBAA,1992-05-28 07:00,ZBAA 280700Z AUTO 20008KT 6SM 36/13 A2947 RMK T03600130 IEM_DS3505
ZBAA,1992-05-28 08:00,ZBAA 280800Z AUTO 23008KT 6SM 34/14 A2941 RMK T03400140 IEM_DS3505
ZBAA,1992-05-28 09:00,ZBAA 280900Z AUTO 22008KT 6SM 34/17 A2941 RMK SLP023 T03350173 57019 IEM_DS3505
ZBAA,1992-05-28 10:00,ZBAA 281000Z AUTO 19006KT 6SM 33/15 A2941 RMK T03300150 IEM_DS3505
ZBAA,1992-05-28 12:00,ZBAA 281200Z AUTO 22006KT 6SM 31/19 A2944 RMK SLP024 T03090194 52001 IEM_DS3505
ZBAA,1992-05-28 13:00,ZBAA 281300Z AUTO 20008KT 7SM 29/18 A2944 RMK T02900180 IEM_DS3505
ZBAA,1992-05-28 14:00,ZBAA 281400Z AUTO 00000KT 7SM 27/18 A2944 RMK T02700180 IEM_DS3505
ZBAA,1992-05-28 15:00,ZBAA 281500Z AUTO 18004KT 6SM 27/19 A2944 RMK SLP026 T02680191 52002 IEM_DS3505
ZBAA,1992-05-28 16:00,ZBAA 281600Z AUTO 00000KT 7SM 24/18 A2944 RMK T02400180 IEM_DS3505
ZBAA,1992-05-28 18:00,ZBAA 281800Z AUTO 00000KT 6SM 23/19 RMK SLP026 T02300190 40358//// 54000 IEM_DS3505
ZBAA,1992-05-28 20:00,ZBAA 282000Z AUTO 05004KT 7SM 21/16 A2947 RMK T02100160 IEM_DS3505
ZBAA,1992-05-28 21:00,ZBAA 282100Z AUTO 04006KT 6SM 24/16 A2953 RMK SLP044 T02390159 52018 IEM_DS3505
ZBAA,1992-05-28 22:00,ZBAA 282200Z AUTO 04006KT 6SM 24/16 A2956 RMK SLP044 T02390159 52018 IEM_DS3505
ZBAA,1992-05-28 23:00,ZBAA 282300Z AUTO 09006KT 7SM 24/15 A2959 RMK T02400150 IEM_DS3505
ZBAA,1992-05-29 00:00,ZBAA 290000Z AUTO 11004KT 6SM 26/15 A2962 RMK SLP082 T02550146 52038 IEM_DS3505
ZBAA,1992-05-29 01:00,ZBAA 290100Z AUTO 12006KT 7SM 27/15 A2962 RMK T02700150 IEM_DS3505
ZBAA,1992-05-29 02:00,ZBAA 290200Z AUTO 14006KT 7SM 29/15 A2965 RMK T02900150 IEM_DS3505
ZBAA,1992-05-29 03:00,ZBAA 290300Z AUTO 18006KT 6SM 28/15 A2962 RMK SLP088 T02840151 52006 IEM_DS3505
ZBAA,1992-05-29 04:00,ZBAA 290400Z AUTO 16006KT 7SM 31/16 A2962 RMK T03100160 IEM_DS3505
ZBAA,1992-05-29 05:00,ZBAA 290500Z AUTO 18006KT 6SM 32/15 A2959 RMK T03200150 IEM_DS3505
ZBAA,1992-05-29 06:00,ZBAA 290600Z AUTO 14002KT 9SM 30/14 A2956 RMK SLP072 T03000141 4////0226 57017 IEM_DS3505
ZBAA,1992-05-29 07:00,ZBAA 290700Z AUTO 19008KT 6SM 32/15 A2956 RMK T03200150 IEM_DS3505
ZBAA,1992-05-29 08:00,ZBAA 290800Z AUTO 16006KT 6SM 31/13 A2953 RMK T03100130 IEM_DS3505
ZBAA,1992-05-29 09:00,ZBAA 290900Z AUTO 18006KT 12SM 30/11 A2953 RMK SLP054 T02990112 57017 IEM_DS3505
ZBAA,1992-05-29 10:00,ZBAA 291000Z AUTO 16006KT 6SM 28/11 A2953 RMK T02800110 IEM_DS3505
ZBAA,1992-05-29 11:00,ZBAA 291100Z AUTO 16006KT 6SM 27/11 A2953 RMK T02700110 IEM_DS3505
ZBAA,1992-05-29 12:00,ZBAA 291200Z AUTO 18004KT 12SM 27/10 A2956 RMK SLP061 T02670095 52006 IEM_DS3505
ZBAA,1992-05-29 13:00,ZBAA 291300Z AUTO 15002KT 6SM 24/10 A2956 RMK T02400100 IEM_DS3505
ZBAA,1992-05-29 14:00,ZBAA 291400Z AUTO 16004KT 6SM 23/10 A2956 RMK T02300100 IEM_DS3505
ZBAA,1992-05-29 15:00,ZBAA 291500Z AUTO 20002KT 12SM 24/12 A2959 RMK SLP067 T02430119 52006 IEM_DS3505
ZBAA,1992-05-29 17:00,ZBAA 291700Z AUTO 00000KT 6SM 20/12 A2956 RMK T02000120 IEM_DS3505
ZBAA,1992-05-29 18:00,ZBAA 291800Z AUTO 00000KT 12SM 21/11 A2956 RMK SLP062 T02080109 40311//// 57005 IEM_DS3505
ZBAA,1992-05-29 19:00,ZBAA 291900Z AUTO 11002KT 6SM 19/10 A2956 RMK T01900100 IEM_DS3505
ZBAA,1992-05-29 20:00,ZBAA 292000Z AUTO 00000KT 6SM 18/10 A2956 RMK T01800100 IEM_DS3505
ZBAA,1992-05-29 21:00,ZBAA 292100Z AUTO 00000KT 7SM 20/13 A2956 RMK SLP061 T01970127 57001 IEM_DS3505
ZBAA,1992-05-29 22:00,ZBAA 292200Z AUTO 00000KT 6SM 18/12 A2956 RMK T01800120 IEM_DS3505
ZBAA,1992-05-29 23:00,ZBAA 292300Z AUTO 01004KT 6SM 20/12 A2956 RMK T02000120 IEM_DS3505
ZBAA,1992-05-30 00:00,ZBAA 300000Z AUTO 04002KT 6SM 24/11 A2956 RMK SLP063 T02350111 52002 IEM_DS3505
ZBAA,1992-05-30 01:00,ZBAA 300100Z AUTO 03002KT 6SM 25/13 RMK T02500130 IEM_DS3505
ZBAA,1992-05-30 02:00,ZBAA 300200Z AUTO 13004KT 7SM 27/13 A2956 RMK T02700130 IEM_DS3505
ZBAA,1992-05-30 03:00,ZBAA 300300Z AUTO 00000KT 2SM 29/12 A2956 RMK SLP060 T02860116 57003 IEM_DS3505
ZBAA,1992-05-30 04:00,ZBAA 300400Z AUTO 18006KT 7SM 32/16 A2953 RMK SLP018 T03190155 57018 IEM_DS3505
ZBAA,1992-05-30 05:00,ZBAA 300500Z AUTO 16006KT 6SM 32/12 A2962 RMK T03200120 IEM_DS3505
ZBAA,1992-05-30 06:00,ZBAA 300600Z AUTO 18008KT 6SM 31/14 A2959 RMK SLP037 T03100136 4////0190 57023 IEM_DS3505
ZBAA,1992-05-30 07:00,ZBAA 300700Z AUTO 16006KT 6SM 33/14 A2956 RMK T03300140 IEM_DS3505
ZBAA,1992-05-30 08:00,ZBAA 300800Z AUTO 15006KT 6SM 32/15 A2953 RMK T03200150 IEM_DS3505
ZBAA,1992-05-30 09:00,ZBAA 300900Z AUTO 18006KT 7SM 32/16 A2953 RMK SLP018 T03190155 57018 IEM_DS3505
ZBAA,1992-05-30 10:00,ZBAA 301000Z AUTO 13002KT 6SM 31/16 A2953 RMK T03100160 IEM_DS3505
ZBAA,1992-05-30 11:00,ZBAA 301100Z AUTO 07002KT 6SM 29/16 RMK T02900160 IEM_DS3505
ZBAA,1992-05-30 12:00,ZBAA 301200Z AUTO 00000KT 6SM 29/18 A2959 RMK SLP028 T02930180 52010 IEM_DS3505
ZBAA,1992-05-30 13:00,ZBAA 301300Z AUTO 10002KT 6SM 26/16 A2959 RMK T02600160 IEM_DS3505
ZBAA,1992-05-30 14:00,ZBAA 301400Z AUTO 10004KT 6SM 25/15 A2962 RMK T02500150 IEM_DS3505
ZBAA,1992-05-30 15:00,ZBAA 301500Z AUTO 00000KT 5SM 26/16 A2962 RMK SLP040 T02650164 52012 IEM_DS3505
ZBAA,1992-05-30 16:00,ZBAA 301600Z AUTO 00000KT 6SM 23/14 A2959 RMK T02300140 IEM_DS3505
ZBAA,1992-05-30 17:00,ZBAA 301700Z AUTO 24002KT 6SM 22/15 A2962 RMK T02200150 IEM_DS3505
ZBAA,1992-05-30 18:00,ZBAA 301800Z AUTO 00000KT 4SM 23/17 A2962 RMK SLP039 T02300169 40326//// 57001 IEM_DS3505
ZBAA,1992-05-30 19:00,ZBAA 301900Z AUTO 09002KT 7SM 22/14 A2959 RMK T02200140 IEM_DS3505
ZBAA,1992-05-30 20:00,ZBAA 302000Z AUTO 00000KT 7SM 21/14 A2962 RMK T02100140 IEM_DS3505
ZBAA,1992-05-30 21:00,ZBAA 302100Z AUTO 04002KT 6SM 22/15 A2962 RMK SLP037 T02250148 57002 IEM_DS3505
ZBAA,1992-05-30 22:00,ZBAA 302200Z AUTO 00000KT 7SM 21/15 A2962 RMK T02100150 IEM_DS3505
ZBAA,1992-05-30 23:00,ZBAA 302300Z AUTO 15004KT 7SM 23/16 A2953 RMK T02300160 IEM_DS3505
ZBAA,1992-05-31 00:00,ZBAA 310000Z AUTO 04004KT 6SM 25/16 A2953 RMK SLP046 T02490160 52009 IEM_DS3505
ZBAA,1992-05-31 01:00,ZBAA 310100Z AUTO 13004KT 7SM 26/16 A2953 RMK T02600160 IEM_DS3505
ZBAA,1992-05-31 02:00,ZBAA 310200Z AUTO 12006KT 7SM 29/18 A2953 RMK T02900180 IEM_DS3505
ZBAA,1992-05-31 03:00,ZBAA 310300Z AUTO 02002KT 6SM 29/17 A2953 RMK SLP045 T02890171 57001 IEM_DS3505
ZBAA,1992-05-31 04:00,ZBAA 310400Z AUTO 11006KT 7SM 32/18 A2962 RMK T03200180 IEM_DS3505
ZBAA,1992-05-31 05:00,ZBAA 310500Z AUTO 14004KT 7SM 33/18 A2959 RMK T03300180 IEM_DS3505
ZBAA,1992-05-31 06:00,ZBAA 310600Z AUTO 16006KT 4SM 33/19 A2959 RMK SLP031 T03300190 4////0218 57014 IEM_DS3505
ZBAA,1992-05-31 07:00,ZBAA 310700Z AUTO 16006KT 7SM 34/18 A2956 RMK T03400180 IEM_DS3505
ZBAA,1992-05-31 08:00,ZBAA 310800Z AUTO 17008KT 7SM 35/18 A2953 RMK T03500180 IEM_DS3505
ZBAA,1992-05-31 09:00,ZBAA 310900Z AUTO 20008KT 6SM 35/13 A2953 RMK SLP018 T03480134 57013 IEM_DS3505
ZBAA,1992-05-31 10:00,ZBAA 311000Z AUTO 17006KT 7SM 34/15 A2953 RMK T03400150 IEM_DS3505
ZBAA,1992-05-31 11:00,ZBAA 311100Z AUTO 14004KT 7SM 32/16 A2956 RMK T03200160 IEM_DS3505
ZBAA,1992-05-31 12:00,ZBAA 311200Z AUTO 20006KT 7SM 31/16 A2956 RMK SLP025 T03140165 52007 IEM_DS3505
ZBAA,1992-05-31 13:00,ZBAA 311300Z AUTO 10006KT 7SM 27/18 A2959 RMK T02700180 IEM_DS3505
ZBAA,1992-05-31 14:00,ZBAA 311400Z AUTO 12006KT 7SM 26/18 A2962 RMK T02600180 IEM_DS3505
ZBAA,1992-05-31 15:00,ZBAA 311500Z AUTO 11002KT 6SM 27/17 A2962 RMK SLP040 T02730170 52015 IEM_DS3505
ZBAA,1992-05-31 16:00,ZBAA 311600Z AUTO 13004KT 7SM 25/17 A2962 RMK T02500170 IEM_DS3505
ZBAA,1992-05-31 17:00,ZBAA 311700Z AUTO 13004KT 7SM 24/17 A2953 RMK T02400170 IEM_DS3505
ZBAA,1992-05-31 18:00,ZBAA 311800Z AUTO 02006KT 6SM 25/19 A2953 RMK SLP050 T02460189 40352//// 52010 IEM_DS3505
ZBAA,1992-05-31 19:00,ZBAA 311900Z AUTO 13002KT 7SM 23/16 A2953 RMK T02300160 IEM_DS3505
ZBAA,1992-05-31 20:00,ZBAA 312000Z AUTO 12004KT 7SM 23/16 A2956 RMK T02300160 IEM_DS3505
ZBAA,1992-05-31 21:00,ZBAA 312100Z AUTO 04004KT 9SM 23/18 A2956 RMK SLP059 T02340179 52009 IEM_DS3505
ZBAA,1992-05-31 22:00,ZBAA 312200Z AUTO 14006KT 6SM 21/15 A2956 RMK T02100150 IEM_DS3505
ZBAA,1992-05-31 23:00,ZBAA 312300Z AUTO 12004KT 6SM 22/16 A2959 RMK T02200160 IEM_DS3505
ZBAA,1992-06-01 00:00,ZBAA 010000Z AUTO 04004KT 5SM 25/17 A2962 RMK SLP075 T02500167 52016 IEM_DS3505
ZBAA,1992-06-01 01:00,ZBAA 010100Z AUTO 11004KT 6SM 26/18 A2962 RMK SLP080 T02600180 IEM_DS3505
ZBAA,1992-06-01 02:00,ZBAA 010200Z AUTO 12006KT 6SM 27/18 A2959 RMK SLP070 T02700180 IEM_DS3505
ZBAA,1992-06-01 03:00,ZBAA 010300Z AUTO 00000KT 5SM 28/18 A2959 RMK SLP074 T02830177 57001 IEM_DS3505
ZBAA,1992-06-01 04:00,ZBAA 010400Z AUTO 13006KT 7SM 31/19 A2959 RMK SLP069 T03100190 IEM_DS3505
ZBAA,1992-06-01 05:00,ZBAA 010500Z AUTO 14006KT 7SM 32/19 A2956 RMK SLP058 T03200190 IEM_DS3505
ZBAA,1992-06-01 06:00,ZBAA 010600Z AUTO 16006KT 5SM 32/20 A2956 RMK SLP058 T03210198 4////0229 57016 IEM_DS3505
ZBAA,1992-06-01 07:00,ZBAA 010700Z AUTO 15006KT 7SM 34/20 A2953 RMK SLP048 T03400200 IEM_DS3505
ZBAA,1992-06-01 08:00,ZBAA 010800Z AUTO 15008KT 7SM 34/20 A2950 RMK SLP038 T03400200 IEM_DS3505
ZBAA,1992-06-01 09:00,ZBAA 010900Z AUTO 20004KT 5SM 34/19 A2950 RMK SLP043 T03410187 57015 IEM_DS3505
ZBAA,1992-06-01 10:00,ZBAA 011000Z AUTO 14006KT 7SM 31/21 A2950 RMK SLP039 T03100210 IEM_DS3505
ZBAA,1992-06-01 11:00,ZBAA 011100Z AUTO 13006KT 7SM 29/20 A2953 RMK SLP049 T02900200 IEM_DS3505
ZBAA,1992-06-01 12:00,ZBAA 011200Z AUTO 14002KT 4SM 29/20 A2953 RMK SLP052 T02930203 52009 IEM_DS3505
ZBAA,1992-06-01 13:00,ZBAA 011300Z AUTO 12006KT 6SM 26/19 A2956 RMK SLP060 T02600190 IEM_DS3505
ZBAA,1992-06-01 14:00,ZBAA 011400Z AUTO 12004KT 6SM 26/18 A2959 RMK SLP070 T02600180 IEM_DS3505
ZBAA,1992-06-01 15:00,ZBAA 011500Z AUTO 07004KT 4SM 26/20 A2959 RMK SLP066 T02650196 52014 IEM_DS3505
ZBAA,1992-06-01 16:00,ZBAA 011600Z AUTO 11006KT 6SM 24/18 A2959 RMK SLP070 T02400180 IEM_DS3505
ZBAA,1992-06-01 18:00,ZBAA 011800Z AUTO 00000KT 2 1/2SM 25/19 A2958 RMK SLP065 T02500193 40345//// 57001 IEM_DS3505
ZBAA,1992-06-01 19:00,ZBAA 011900Z AUTO 14004KT 5SM 22/16 A2959 RMK SLP071 T02200160 IEM_DS3505
ZBAA,1992-06-01 20:00,ZBAA 012000Z AUTO 17002KT 6SM 22/16 A2959 RMK SLP071 T02200160 IEM_DS3505
ZBAA,1992-06-01 21:00,ZBAA 012100Z AUTO 09004KT 2SM 23/18 A2959 RMK SLP067 T02270179 52002 IEM_DS3505
ZBAA,1992-06-01 22:00,ZBAA 012200Z AUTO 11004KT 6SM 21/16 A2959 RMK SLP071 T02100160 IEM_DS3505
ZBAA,1992-06-01 23:00,ZBAA 012300Z AUTO 11002KT 6SM 22/16 A2959 RMK SLP071 T02200160 IEM_DS3505
ZBAA,1992-06-02 00:00,ZBAA 020000Z AUTO 09002KT 2SM 23/17 A2959 RMK SLP070 T02280170 52002 IEM_DS3505
ZBAA,1992-06-02 01:00,ZBAA 020100Z AUTO 13004KT 4SM 24/17 A2959 RMK SLP070 T02400170 IEM_DS3505
ZBAA,1992-06-02 02:00,ZBAA 020200Z AUTO 15006KT 4SM 26/17 A2956 RMK SLP060 T02600170 IEM_DS3505
ZBAA,1992-06-02 03:00,ZBAA 020300Z AUTO 00000KT 2SM 26/18 A2956 RMK SLP063 T02600178 57007 IEM_DS3505
ZBAA,1992-06-02 04:00,ZBAA 020400Z AUTO 17008KT 6SM 28/16 A2953 RMK SLP049 T02800160 IEM_DS3505
ZBAA,1992-06-02 05:00,ZBAA 020500Z AUTO 20008KT 6SM 29/16 A2962 RMK SLP079 T02900160 IEM_DS3505
ZBAA,1992-06-02 06:00,ZBAA 020600Z AUTO 20006KT 2 1/2SM 28/17 A2962 RMK SLP042 T02810169 4////0214 57020 IEM_DS3505
ZBAA,1992-06-02 07:00,ZBAA 020700Z AUTO 18006KT 6SM 30/17 A2959 RMK SLP069 T03000170 IEM_DS3505
ZBAA,1992-06-02 08:00,ZBAA 020800Z AUTO 17006KT 6SM 29/17 A2956 RMK SLP059 T02900170 IEM_DS3505
ZBAA,1992-06-02 09:00,ZBAA 020900Z AUTO 20002KT 2 1/2SM 26/20 A2948 RMK SLP033 T02580195 57010 IEM_DS3505
ZBAA,1992-06-02 10:00,ZBAA 021000Z AUTO 28004KT 7SM 24/20 A2959 RMK SLP070 T02400200 IEM_DS3505
ZBAA,1992-06-02 11:00,ZBAA 021100Z AUTO 07004KT 4SM 22/22 A2959 RMK SLP071 T02200220 IEM_DS3505
ZBAA,1992-06-02 12:00,ZBAA 021200Z AUTO 36006KT 2 1/2SM 24/19 A2959 RMK 60004 SLP036 T02380192 52003 IEM_DS3505
ZBAA,1992-06-02 13:00,ZBAA 021300Z AUTO 33010KT 2 1/2SM 22/21 A2959 RMK SLP071 T02200210 IEM_DS3505
ZBAA,1992-06-02 14:00,ZBAA 021400Z AUTO 32006KT 4SM 21/20 A2959 RMK SLP071 T02100200 IEM_DS3505
ZBAA,1992-06-02 15:00,ZBAA 021500Z AUTO 00000KT 5SM 21/19 A2959 RMK SLP040 T02140191 52004 IEM_DS3505
ZBAA,1992-06-02 16:00,ZBAA 021600Z AUTO 17002KT 4SM 20/20 A2959 RMK SLP071 T02000200 IEM_DS3505
ZBAA,1992-06-02 17:00,ZBAA 021700Z AUTO 00000KT 2SM 20/20 A2959 RMK SLP071 T02000200 IEM_DS3505
ZBAA,1992-06-02 18:00,ZBAA 021800Z AUTO 00000KT 4SM 20/19 A2956 RMK 60016 SLP033 T01980189 40291//// 57007 IEM_DS3505
ZBAA,1992-06-02 19:00,ZBAA 021900Z AUTO 34004KT 1 1/4SM 19/19 A2959 RMK SLP071 T01900190 IEM_DS3505
ZBAA,1992-06-02 20:00,ZBAA 022000Z AUTO 36004KT 1 1/4SM 18/18 A2959 RMK SLP071 T01800180 IEM_DS3505
ZBAA,1992-06-02 21:00,ZBAA 022100Z AUTO 00000KT 6SM 19/18 A2959 RMK 70020 SLP035 T01900177 52002 IEM_DS3505
ZBAA,1992-06-02 22:00,ZBAA 022200Z AUTO 35006KT 3SM 20/19 A2959 RMK SLP071 T02000190 IEM_DS3505
ZBAA,1992-06-02 23:00,ZBAA 022300Z AUTO 02006KT 4SM 21/20 A2959 RMK SLP071 T02100200 IEM_DS3505
ZBAA,1992-06-03 00:00,ZBAA 030000Z AUTO 02002KT 6SM 23/18 A2959 RMK 70020 SLP037 T02320180 52002 IEM_DS3505
ZBAA,1992-06-03 01:00,ZBAA 030100Z AUTO 03006KT 7SM 26/17 A2959 RMK SLP070 T02600170 IEM_DS3505
ZBAA,1992-06-03 02:00,ZBAA 030200Z AUTO 02002KT 7SM 27/15 A2959 RMK SLP070 T02700150 IEM_DS3505
ZBAA,1992-06-03 03:00,ZBAA 030300Z AUTO 16004KT 12SM 29/16 A2956 RMK SLP031 T02870161 57006 IEM_DS3505
ZBAA,1992-06-03 04:00,ZBAA 030400Z AUTO 23006KT 7SM 31/18 A2956 RMK SLP059 T03100180 IEM_DS3505
ZBAA,1992-06-03 05:00,ZBAA 030500Z AUTO 24006KT 7SM 32/16 A2953 RMK SLP048 T03200160 IEM_DS3505
ZBAA,1992-06-03 06:00,ZBAA 030600Z AUTO 20004KT 12SM 32/16 A2950 RMK SLP008 T03240156 4////0185 57022 IEM_DS3505
ZBAA,1992-06-03 07:00,ZBAA 030700Z AUTO 23006KT 6SM 34/14 A2947 RMK SLP028 T03400140 IEM_DS3505
ZBAA,1992-06-03 08:00,ZBAA 030800Z AUTO 24004KT 6SM 34/12 A2935 RMK T03400120 IEM_DS3505
ZBAA,1992-06-03 09:00,ZBAA 030900Z AUTO 25008KT 12SM 33/10 A2932 RMK SLP001 T03260100 57007 IEM_DS3505
ZBAA,1992-06-03 10:00,ZBAA 031000Z AUTO 17004KT 6SM 30/12 A2938 RMK SLP997 T03000120 IEM_DS3505
ZBAA,1992-06-03 11:00,ZBAA 031100Z AUTO 22014G23KT 6SM 28/09 A2953 RMK T02800090 IEM_DS3505
ZBAA,1992-06-03 12:00,ZBAA 031200Z AUTO 20014KT 16SM 25/12 A2956 RMK SLP033 T02480115 52031 IEM_DS3505
ZBAA,1992-06-03 13:00,ZBAA 031300Z AUTO 24012KT 6SM 24/12 A2959 RMK SLP070 T02400120 IEM_DS3505
ZBAA,1992-06-03 14:00,ZBAA 031400Z AUTO 26006KT 6SM 22/12 A2956 RMK SLP061 T02200120 IEM_DS3505
ZBAA,1992-06-03 15:00,ZBAA 031500Z AUTO 34002KT 16SM 24/12 A2959 RMK SLP034 T02360121 52002 IEM_DS3505
ZBAA,1992-06-03 16:00,ZBAA 031600Z AUTO 36002KT 6SM 21/12 A2962 RMK SLP081 T02100120 IEM_DS3505
ZBAA,1992-06-03 17:00,ZBAA 031700Z AUTO 32002KT 6SM 21/12 A2962 RMK SLP081 T02100120 IEM_DS3505
ZBAA,1992-06-03 18:00,ZBAA 031800Z AUTO 36004KT 16SM 22/12 RMK SLP037 T02240119 40339//// 52003 IEM_DS3505
ZBAA,1992-06-03 19:00,ZBAA 031900Z AUTO 01006KT 7SM 22/10 A2959 RMK SLP071 T02200100 IEM_DS3505
ZBAA,1992-06-03 20:00,ZBAA 032000Z AUTO 30002KT 7SM 19/11 RMK T01900110 IEM_DS3505
ZBAA,1992-06-03 21:00,ZBAA 032100Z AUTO 00000KT 19SM 18/13 A2962 RMK SLP040 T01820131 52002 IEM_DS3505
ZBAA,1992-06-03 22:00,ZBAA 032200Z AUTO 01004KT 7SM 21/11 A2962 RMK SLP081 T02100110 IEM_DS3505
ZBAA,1992-06-03 23:00,ZBAA 032300Z AUTO 34004KT 7SM 23/13 A2962 RMK SLP080 T02300130 IEM_DS3505
ZBAA,1992-06-04 00:00,ZBAA 040000Z AUTO 09002KT 19SM 26/13 A2962 RMK SLP044 T02650128 52004 IEM_DS3505
ZBAA,1992-06-04 01:00,ZBAA 040100Z AUTO 11004KT 7SM 28/13 A2962 RMK SLP079 T02800130 IEM_DS3505
ZBAA,1992-06-04 02:00,ZBAA 040200Z AUTO 13002KT 7SM 29/14 A2962 RMK SLP079 T02900140 IEM_DS3505
ZBAA,1992-06-04 03:00,ZBAA 040300Z AUTO 16006KT 6SM 30/11 A2949 RMK SLP037 T02980113 57006 IEM_DS3505
ZBAA,1992-06-04 04:00,ZBAA 040400Z AUTO 17006KT 7SM 32/12 A2959 RMK SLP069 T03200120 IEM_DS3505
ZBAA,1992-06-04 05:00,ZBAA 040500Z AUTO 17008KT 7SM 33/12 A2956 RMK SLP058 T03300120 IEM_DS3505
ZBAA,1992-06-04 06:00,ZBAA 040600Z AUTO 18008KT 11SM 32/13 A2946 RMK SLP026 T03180127 4////0180 57011 IEM_DS3505
ZBAA,1992-06-04 07:00,ZBAA 040700Z AUTO 19012KT 7SM 34/13 A2953 RMK SLP048 T03400130 IEM_DS3505
ZBAA,1992-06-04 08:00,ZBAA 040800Z AUTO 19012KT 7SM 33/14 A2953 RMK SLP048 T03300140 IEM_DS3505
ZBAA,1992-06-04 09:00,ZBAA 040900Z AUTO 20008KT 12SM 32/14 A2942 RMK SLP012 T03210143 57015 IEM_DS3505
ZBAA,1992-06-04 10:00,ZBAA 041000Z AUTO 14002KT 7SM 31/14 A2953 RMK SLP049 T03100140 IEM_DS3505
ZBAA,1992-06-04 11:00,ZBAA 041100Z AUTO 05004KT 7SM 30/16 A2956 RMK SLP059 T03000160 IEM_DS3505
ZBAA,1992-06-04 12:00,ZBAA 041200Z AUTO 02008KT 19SM 29/09 A2962 RMK SLP042 T02900090 52031 IEM_DS3505
ZBAA,1992-06-04 13:00,ZBAA 041300Z AUTO 04008KT 6SM 27/08 A2956 RMK SLP059 T02700080 IEM_DS3505
ZBAA,1992-06-04 14:00,ZBAA 041400Z AUTO 05008KT 6SM 26/06 A2959 RMK SLP070 T02600060 IEM_DS3505
ZBAA,1992-06-04 15:00,ZBAA 041500Z AUTO 07008KT 19SM 26/06 A2965 RMK SLP081 T02570059 52039 IEM_DS3505
ZBAA,1992-06-04 16:00,ZBAA 041600Z AUTO 05006KT 7SM 22/04 A2965 RMK SLP092 T02200040 IEM_DS3505
ZBAA,1992-06-04 17:00,ZBAA 041700Z AUTO 05008KT 6SM 21/01 A2971 RMK SLP112 T02100010 IEM_DS3505
ZBAA,1992-06-04 18:00,ZBAA 041800Z AUTO 07010KT 19SM 22/01 A2971 RMK SLP104 T02150007 40324//// 52022 IEM_DS3505
ZBAA,1992-06-04 19:00,ZBAA 041900Z AUTO 06006KT 7SM 19/00 A2971 RMK SLP113 T01900000 IEM_DS3505
ZBAA,1992-06-04 20:00,ZBAA 042000Z AUTO 04012KT 6SM 18/M03 A2974 RMK SLP123 T01801030 IEM_DS3505
ZBAA,1992-06-04 21:00,ZBAA 042100Z AUTO 04002KT 19SM 16/04 A2974 RMK 70004 SLP125 T01630044 52021 IEM_DS3505
ZBAA,1992-06-04 22:00,ZBAA 042200Z AUTO 04004KT 7SM 15/03 A2977 RMK SLP134 T01500030 IEM_DS3505
ZBAA,1992-06-04 23:00,ZBAA 042300Z AUTO 00000KT 6SM 16/04 A2977 RMK SLP133 T01600040 IEM_DS3505
ZBAA,1992-06-05 00:00,ZBAA 050000Z AUTO 07002KT 19SM 16/01 A2978 RMK 60004 70004 SLP136 T01640009 52010 IEM_DS3505
ZBAA,1992-06-05 01:00,ZBAA 050100Z AUTO 00000KT 7SM 13/11 A2980 RMK SLP144 T01300110 IEM_DS3505
ZBAA,1992-06-05 02:00,ZBAA 050200Z AUTO 00000KT 6SM 15/12 A2977 RMK SLP134 T01500120 IEM_DS3505
ZBAA,1992-06-05 03:00,ZBAA 050300Z AUTO 00000KT 9SM 16/04 A2977 RMK SLP129 T01640040 57007 IEM_DS3505
ZBAA,1992-06-05 04:00,ZBAA 050400Z AUTO 30004KT 6SM 15/09 A2974 RMK SLP123 T01500090 IEM_DS3505
ZBAA,1992-06-05 05:00,ZBAA 050500Z AUTO 00000KT 6SM 16/07 A2971 RMK SLP113 T01600070 IEM_DS3505
ZBAA,1992-06-05 06:00,ZBAA 050600Z AUTO 34002KT 3SM 14/10 A2971 RMK 60008 SLP114 T01400102 4////0139 57016 IEM_DS3505
ZBAA,1992-06-05 07:00,ZBAA 050700Z AUTO 29004KT 7SM 12/10 A2971 RMK SLP114 T01200100 IEM_DS3505
ZBAA,1992-06-05 08:00,ZBAA 050800Z AUTO 03004KT 7SM 11/11 A2971 RMK SLP114 T01100110 IEM_DS3505
ZBAA,1992-06-05 09:00,ZBAA 050900Z AUTO 00000KT 4SM 12/10 A2968 RMK SLP108 T01200103 57007 IEM_DS3505
ZBAA,1992-06-05 10:00,ZBAA 051000Z AUTO 12002KT 7SM 11/11 A2965 RMK SLP094 T01100110 IEM_DS3505
ZBAA,1992-06-05 11:00,ZBAA 051100Z AUTO 05004KT 7SM 11/11 A2962 RMK SLP083 T01100110 IEM_DS3505
ZBAA,1992-06-05 12:00,ZBAA 051200Z AUTO 00000KT 4SM 12/10 A2965 RMK 60020 SLP092 T01200099 57015 IEM_DS3505
ZBAA,1992-06-05 13:00,ZBAA 051300Z AUTO 06002KT 7SM 11/11 A2962 RMK SLP083 T01100110 IEM_DS3505
ZBAA,1992-06-05 14:00,ZBAA 051400Z AUTO 24002KT 7SM 11/11 A2962 RMK SLP083 T01100110 IEM_DS3505
ZBAA,1992-06-05 15:00,ZBAA 051500Z AUTO 00000KT 3SM 13/11 A2962 RMK SLP090 T01260109 57002 IEM_DS3505
ZBAA,1992-06-05 18:00,ZBAA 051800Z AUTO 27002KT 2 1/2SM 13/11 A2956 RMK 60002 SLP063 T01280113 40214//// 57027 IEM_DS3505
ZBAA,1992-06-05 20:00,ZBAA 052000Z AUTO 00000KT 6SM 12/11 A2956 RMK SLP063 T01200110 IEM_DS3505
ZBAA,1992-06-05 21:00,ZBAA 052100Z AUTO 00000KT 1SM 13/12 A2953 RMK 70028 SLP061 T01300119 57003 IEM_DS3505
ZBAA,1992-06-05 22:00,ZBAA 052200Z AUTO 29002KT 5SM 12/11 A2953 RMK SLP053 T01200110 IEM_DS3505
ZBAA,1992-06-05 23:00,ZBAA 052300Z AUTO 33004KT 4SM 13/12 A2953 RMK SLP052 T01300120 IEM_DS3505
ZBAA,1992-06-06 00:00,ZBAA 060000Z AUTO 00000KT 1 1/2SM 15/12 A2953 RMK 70028 SLP060 T01540125 54000 IEM_DS3505
ZBAA,1992-06-06 01:00,ZBAA 060100Z AUTO 31002KT 2 1/2SM 16/13 A2953 RMK SLP052 T01600130 IEM_DS3505
ZBAA,1992-06-06 02:00,ZBAA 060200Z AUTO 21002KT 2 1/2SM 17/13 A2956 RMK SLP062 T01700130 IEM_DS3505
ZBAA,1992-06-06 03:00,ZBAA 060300Z AUTO 18004KT 7SM 19/11 A2953 RMK SLP060 T01940108 54000 IEM_DS3505
ZBAA,1992-06-06 04:00,ZBAA 060400Z AUTO 11004KT 6SM 21/11 A2953 RMK SLP051 T02100110 IEM_DS3505
ZBAA,1992-06-06 05:00,ZBAA 060500Z AUTO 16008KT 6SM 23/13 A2950 RMK SLP040 T02300130 IEM_DS3505
ZBAA,1992-06-06 06:00,ZBAA 060600Z AUTO 16004KT 12SM 23/11 A2950 RMK SLP042 T02280106 4////0114 57017 IEM_DS3505
ZBAA,1992-06-06 07:00,ZBAA 060700Z AUTO 16006KT 6SM 23/11 A2947 RMK SLP030 T02300110 IEM_DS3505
ZBAA,1992-06-06 08:00,ZBAA 060800Z AUTO 16006KT 6SM 22/12 A2947 RMK SLP030 T02200120 IEM_DS3505
ZBAA,1992-06-06 09:00,ZBAA 060900Z AUTO 20006KT 12SM 22/12 A2947 RMK SLP039 T02200120 57003 IEM_DS3505
ZBAA,1992-06-06 10:00,ZBAA 061000Z AUTO 16006KT 6SM 22/13 A2947 RMK SLP030 T02200130 IEM_DS3505
ZBAA,1992-06-06 11:00,ZBAA 061100Z AUTO 13004KT 7SM 21/13 A2950 RMK SLP066 T02100130 40235//// 52003 IEM_DS3505
ZBAA,1992-06-06 12:00,ZBAA 061200Z AUTO 16002KT 12SM 21/12 A2953 RMK SLP052 T02060125 52013 IEM_DS3505
ZBAA,1992-06-06 13:00,ZBAA 061300Z AUTO 14006KT 6SM 18/14 A2956 RMK SLP061 T01800140 IEM_DS3505
ZBAA,1992-06-06 14:00,ZBAA 061400Z AUTO 10004KT 6SM 16/14 A2956 RMK SLP062 T01600140 IEM_DS3505
ZBAA,1992-06-06 15:00,ZBAA 061500Z AUTO 09002KT 9SM 17/14 A2956 RMK SLP063 T01740143 52011 IEM_DS3505
ZBAA,1992-06-06 16:00,ZBAA 061600Z AUTO 10004KT 6SM 15/13 A2956 RMK SLP062 T01500130 IEM_DS3505
ZBAA,1992-06-06 17:00,ZBAA 061700Z AUTO 07004KT 6SM 15/13 A2956 RMK SLP062 T01500130 IEM_DS3505
ZBAA,1992-06-06 18:00,ZBAA 061800Z AUTO 36006KT 7SM 17/14 A2957 RMK SLP066 T01680138 40235//// 52003 IEM_DS3505
ZBAA,1992-06-06 19:00,ZBAA 061900Z AUTO 01010KT 6SM 15/11 A2959 RMK SLP072 T01500110 IEM_DS3505
ZBAA,1992-06-06 20:00,ZBAA 062000Z AUTO 36016KT 6SM 15/03 A2962 RMK SLP082 T01500030 IEM_DS3505
ZBAA,1992-06-06 21:00,ZBAA 062100Z AUTO 02006KT 19SM 15/02 A2962 RMK 70008 SLP087 T01480016 52021 IEM_DS3505
ZBAA,1992-06-06 22:00,ZBAA 062200Z AUTO 34010KT 6SM 14/00 A2965 RMK SLP094 T01400000 IEM_DS3505
ZBAA,1992-06-06 23:00,ZBAA 062300Z AUTO 31010KT 7SM 15/03 A2965 RMK SLP093 T01500030 IEM_DS3505
ZBAA,1992-06-07 00:00,ZBAA 070000Z AUTO 34010KT 19SM 17/M02 A2965 RMK 60008 70008 SLP095 T01721021 52008 IEM_DS3505
ZBAA,1992-06-07 01:00,ZBAA 070100Z AUTO 32014KT 6SM 19/00 A2965 RMK SLP092 T01900000 IEM_DS3505
ZBAA,1992-06-07 02:00,ZBAA 070200Z AUTO 31014KT 6SM 21/00 A2962 RMK SLP081 T02100000 IEM_DS3505
ZBAA,1992-06-07 03:00,ZBAA 070300Z AUTO 36010KT 19SM 21/M02 A2959 RMK SLP083 T02081019 57012 IEM_DS3505
ZBAA,1992-06-07 04:00,ZBAA 070400Z AUTO 33010KT 6SM 23/00 A2959 RMK SLP070 T02300000 IEM_DS3505
ZBAA,1992-06-07 05:00,ZBAA 070500Z AUTO 28010KT 6SM 24/00 A2953 RMK SLP050 T02400000 IEM_DS3505
ZBAA,1992-06-07 06:00,ZBAA 070600Z AUTO 25004KT 19SM 24/M02 A2962 RMK SLP055 T02401018 4////0143 57028 IEM_DS3505
ZBAA,1992-06-07 07:00,ZBAA 070700Z AUTO 26016KT 6SM 25/01 A2959 RMK SLP070 T02500010 IEM_DS3505
ZBAA,1992-06-07 08:00,ZBAA 070800Z AUTO 28014KT 6SM 25/00 A2956 RMK SLP060 T02500000 IEM_DS3505
ZBAA,1992-06-07 09:00,ZBAA 070900Z AUTO 22008KT 19SM 24/01 A2953 RMK SLP024 T02410009 57031 IEM_DS3505
ZBAA,1992-06-07 10:00,ZBAA 071000Z AUTO 24008KT 6SM 25/M02 A2950 RMK SLP040 T02501020 IEM_DS3505
ZBAA,1992-06-07 11:00,ZBAA 071100Z AUTO 23012KT 6SM 23/06 A2950 RMK SLP040 T02300060 IEM_DS3505
ZBAA,1992-06-07 12:00,ZBAA 071200Z AUTO 18008KT 16SM 22/06 A2950 RMK SLP014 T02150065 57010 IEM_DS3505
ZBAA,1992-06-07 13:00,ZBAA 071300Z AUTO 20008KT 6SM 21/05 A2950 RMK SLP041 T02100050 IEM_DS3505
ZBAA,1992-06-07 14:00,ZBAA 071400Z AUTO 22016KT 6SM 21/05 A2950 RMK SLP041 T02100050 IEM_DS3505
ZBAA,1992-06-07 15:00,ZBAA 071500Z AUTO 20006KT 12SM 20/05 A2944 RMK SLP001 T01990052 57012 IEM_DS3505
ZBAA,1992-06-07 16:00,ZBAA 071600Z AUTO 22014KT 6SM 21/04 A2944 RMK SLP020 T02100040 IEM_DS3505
ZBAA,1992-06-07 17:00,ZBAA 071700Z AUTO 29004KT 6SM 20/06 A2944 RMK SLP020 T02000060 IEM_DS3505
ZBAA,1992-06-07 18:00,ZBAA 071800Z AUTO 22002KT 12SM 18/07 A2947 RMK SLP986 T01800072 40262//// 57015 IEM_DS3505
ZBAA,1992-06-07 19:00,ZBAA 071900Z AUTO 10002KT 7SM 16/07 A2944 RMK SLP021 T01600070 IEM_DS3505
ZBAA,1992-06-07 20:00,ZBAA 072000Z AUTO 03004KT 7SM 15/08 A2944 RMK SLP021 T01500080 IEM_DS3505
ZBAA,1992-06-07 21:00,ZBAA 072100Z AUTO 02004KT 12SM 16/07 A2947 RMK SLP992 T01650072 52006 IEM_DS3505
ZBAA,1992-06-07 22:00,ZBAA 072200Z AUTO 03006KT 7SM 17/07 A2947 RMK SLP031 T01700070 IEM_DS3505
ZBAA,1992-06-07 23:00,ZBAA 072300Z AUTO 04008KT 7SM 18/08 A2950 RMK SLP041 T01800080 IEM_DS3505
ZBAA,1992-06-08 00:00,ZBAA 080000Z AUTO 04006KT 19SM 20/07 A2953 RMK SLP008 T02030066 52016 IEM_DS3505
ZBAA,1992-06-08 01:00,ZBAA 080100Z AUTO 02012KT 7SM 22/05 A2953 RMK T02200050 IEM_DS3505
ZBAA,1992-06-08 02:00,ZBAA 080200Z AUTO 03010KT 7SM 24/05 A2950 RMK SLP040 T02400050 IEM_DS3505
ZBAA,1992-06-08 03:00,ZBAA 080300Z AUTO 04014KT 16SM 24/04 A2950 RMK SLP004 T02410038 57004 IEM_DS3505
ZBAA,1992-06-08 04:00,ZBAA 080400Z AUTO 03008KT 7SM 25/05 A2947 RMK SLP030 T02500050 IEM_DS3505
ZBAA,1992-06-08 05:00,ZBAA 080500Z AUTO 07006KT 6SM 26/04 A2944 RMK SLP018 T02600040 IEM_DS3505
ZBAA,1992-06-08 06:00,ZBAA 080600Z AUTO 02008KT 16SM 28/05 A2941 RMK SLP981 T02820051 4////0155 57023 IEM_DS3505
ZBAA,1992-06-08 07:00,ZBAA 080700Z AUTO 13004KT 6SM 27/05 A2941 RMK SLP008 T02700050 IEM_DS3505
ZBAA,1992-06-08 08:00,ZBAA 080800Z AUTO 12004KT 6SM 28/05 A2941 RMK SLP008 T02800050 IEM_DS3505
ZBAA,1992-06-08 09:00,ZBAA 080900Z AUTO 16008KT 9SM 27/07 A2941 RMK SLP977 T02660073 57004 IEM_DS3505
ZBAA,1992-06-08 10:00,ZBAA 081000Z AUTO 19010KT 6SM 25/07 A2941 RMK SLP009 T02500070 IEM_DS3505
ZBAA,1992-06-08 11:00,ZBAA 081100Z AUTO 20008KT 6SM 24/08 A2938 RMK SLP999 T02400080 IEM_DS3505
ZBAA,1992-06-08 12:00,ZBAA 081200Z AUTO 16006KT 12SM 24/08 A2941 RMK SLP975 T02430079 57002 IEM_DS3505
ZBAA,1992-06-08 13:00,ZBAA 081300Z AUTO 21008KT 6SM 22/09 A2941 RMK SLP009 T02200090 IEM_DS3505
ZBAA,1992-06-08 14:00,ZBAA 081400Z AUTO 21006KT 7SM 20/13 A2944 RMK SLP020 T02000130 IEM_DS3505
ZBAA,1992-06-08 15:00,ZBAA 081500Z AUTO 16004KT 9SM 20/14 A2941 RMK SLP973 T02020139 57002 IEM_DS3505
ZBAA,1992-06-08 16:00,ZBAA 081600Z AUTO 09006KT 6SM 18/14 A2941 RMK SLP010 T01800140 IEM_DS3505
ZBAA,1992-06-08 17:00,ZBAA 081700Z AUTO 19002KT 7SM 16/15 A2947 RMK SLP032 T01600150 IEM_DS3505
ZBAA,1992-06-08 18:00,ZBAA 081800Z AUTO 09004KT 4SM 17/14 A2947 RMK 60020 SLP993 T01660138 40291//// 52020 IEM_DS3505
ZBAA,1992-06-08 19:00,ZBAA 081900Z AUTO 10004KT 7SM 16/15 A2947 RMK SLP032 T01600150 IEM_DS3505
ZBAA,1992-06-08 20:00,ZBAA 082000Z AUTO 06002KT 6SM 15/15 A2950 RMK SLP042 T01500150 IEM_DS3505
ZBAA,1992-06-08 21:00,ZBAA 082100Z AUTO 00000KT 4SM 16/14 A2953 RMK 70020 SLP014 T01620143 52021 IEM_DS3505
ZBAA,1992-06-08 22:00,ZBAA 082200Z AUTO 00000KT 6SM 16/16 A2956 RMK SLP062 T01600160 IEM_DS3505
ZBAA,1992-06-08 23:00,ZBAA 082300Z AUTO 00000KT 6SM 17/16 A2959 RMK SLP072 T01700160 IEM_DS3505
ZBAA,1992-06-09 00:00,ZBAA 090000Z AUTO 00000KT 4SM 20/15 A2959 RMK 60002 70020 SLP034 T01980149 52020 IEM_DS3505
ZBAA,1992-06-09 01:00,ZBAA 090100Z AUTO 23004KT 6SM 20/15 A2959 RMK SLP071 T02000150 IEM_DS3505
ZBAA,1992-06-09 02:00,ZBAA 090200Z AUTO 35006KT 6SM 23/15 A2959 RMK SLP070 T02300150 IEM_DS3505
ZBAA,1992-06-09 03:00,ZBAA 090300Z AUTO 36012KT 9SM 24/08 A2956 RMK SLP031 T02420077 57003 IEM_DS3505
ZBAA,1992-06-09 04:00,ZBAA 090400Z AUTO 31016KT 6SM 25/07 A2956 RMK SLP060 T02500070 IEM_DS3505
ZBAA,1992-06-09 05:00,ZBAA 090500Z AUTO 32014G23KT 6SM 26/08 A2944 RMK T02600080 IEM_DS3505
ZBAA,1992-06-09 06:00,ZBAA 090600Z AUTO 34006KT 19SM 26/07 A2953 RMK SLP024 T02650073 4////0158 57007 IEM_DS3505
ZBAA,1992-06-09 07:00,ZBAA 090700Z AUTO 32016KT 6SM 28/08 A2953 RMK SLP049 T02800080 IEM_DS3505
ZBAA,1992-06-09 08:00,ZBAA 090800Z AUTO 30012KT 6SM 28/09 A2953 RMK SLP049 T02800090 IEM_DS3505
ZBAA,1992-06-09 09:00,ZBAA 090900Z AUTO 34008KT 19SM 28/08 A2953 RMK SLP023 T02750079 57001 IEM_DS3505
ZBAA,1992-06-09 10:00,ZBAA 091000Z AUTO 36010KT 6SM 27/09 A2959 RMK SLP070 T02700090 IEM_DS3505
ZBAA,1992-06-09 11:00,ZBAA 091100Z AUTO 36010G19KT 6SM 25/10 A2962 RMK SLP080 T02500100 IEM_DS3505
ZBAA,1992-06-09 12:00,ZBAA 091200Z AUTO 04010KT 16SM 23/11 A2956 RMK SLP058 T02270111 52034 IEM_DS3505
ZBAA,1992-06-09 13:00,ZBAA 091300Z AUTO 04008KT 6SM 20/10 A2959 RMK SLP071 T02000100 IEM_DS3505
ZBAA,1992-06-09 14:00,ZBAA 091400Z AUTO 12004KT 6SM 19/11 A2977 RMK T01900110 IEM_DS3505
ZBAA,1992-06-09 15:00,ZBAA 091500Z AUTO 11006KT 9SM 20/12 A2980 RMK SLP098 T01960117 52040 IEM_DS3505
ZBAA,1992-06-09 16:00,ZBAA 091600Z AUTO 20004KT 6SM 17/11 A2980 RMK SLP143 T01700110 IEM_DS3505
ZBAA,1992-06-09 17:00,ZBAA 091700Z AUTO 21004KT 6SM 16/11 A2980 RMK SLP143 T01600110 IEM_DS3505
ZBAA,1992-06-09 18:00,ZBAA 091800Z AUTO 22002KT 12SM 17/11 A2980 RMK SLP112 T01680107 40281//// 52014 IEM_DS3505
ZBAA,1992-06-09 19:00,ZBAA 091900Z AUTO 22004KT 6SM 15/11 A2983 RMK T01500110 IEM_DS3505
ZBAA,1992-06-09 20:00,ZBAA 092000Z AUTO 22004KT 6SM 15/11 RMK T01500110 IEM_DS3505
ZBAA,1992-06-09 21:00,ZBAA 092100Z AUTO 20002KT 12SM 15/11 A2983 RMK SLP115 T01540109 52003 IEM_DS3505
ZBAA,1992-06-09 22:00,ZBAA 092200Z AUTO 03002KT 7SM 15/12 A2985 RMK SLP161 T01500120 IEM_DS3505
ZBAA,1992-06-09 23:00,ZBAA 092300Z AUTO 05004KT 7SM 16/12 A2977 RMK SLP133 T01600120 IEM_DS3505
ZBAA,1992-06-10 00:00,ZBAA 100000Z AUTO 00000KT 5SM 20/12 A2977 RMK SLP133 T01980119 52018 IEM_DS3505
ZBAA,1992-06-10 01:00,ZBAA 100100Z AUTO 03004KT 7SM 21/13 A2985 RMK SLP159 T02100130 IEM_DS3505
ZBAA,1992-06-10 02:00,ZBAA 100200Z AUTO 36004KT 7SM 24/10 A2974 RMK SLP122 T02400100 IEM_DS3505
ZBAA,1992-06-10 03:00,ZBAA 100300Z AUTO 34004KT 12SM 26/06 A2974 RMK SLP121 T02570062 57012 IEM_DS3505
ZBAA,1992-06-10 04:00,ZBAA 100400Z AUTO 07004KT 6SM 26/08 A2971 RMK SLP111 T02600080 IEM_DS3505
ZBAA,1992-06-10 05:00,ZBAA 100500Z AUTO 10004KT 6SM 28/09 A2968 RMK SLP101 T02800090 IEM_DS3505
ZBAA,1992-06-10 06:00,ZBAA 100600Z AUTO 14004KT 11SM 28/06 A2968 RMK SLP104 T02800061 4////0152 57017 IEM_DS3505
ZBAA,1992-06-10 07:00,ZBAA 100700Z AUTO 14004KT 6SM 30/09 A2965 RMK SLP090 T03000090 IEM_DS3505
ZBAA,1992-06-10 08:00,ZBAA 100800Z AUTO 10004KT 6SM 29/08 A2965 RMK SLP090 T02900080 IEM_DS3505
ZBAA,1992-06-10 09:00,ZBAA 100900Z AUTO 16006KT 19SM 28/08 A2962 RMK SLP091 T02780078 57013 IEM_DS3505
ZBAA,1992-06-10 10:00,ZBAA 101000Z AUTO 19008KT 6SM 27/09 A2965 RMK SLP091 T02700090 IEM_DS3505
ZBAA,1992-06-10 11:00,ZBAA 101100Z AUTO 17004KT 6SM 26/10 A2965 RMK SLP091 T02600100 IEM_DS3505
ZBAA,1992-06-10 12:00,ZBAA 101200Z AUTO 20004KT 16SM 25/08 A2965 RMK SLP096 T02540085 52005 IEM_DS3505
ZBAA,1992-06-10 13:00,ZBAA 101300Z AUTO 15004KT 6SM 22/10 A2968 RMK SLP102 T02200100 IEM_DS3505
ZBAA,1992-06-10 14:00,ZBAA 101400Z AUTO 15004KT 6SM 21/11 A2971 RMK SLP112 T02100110 IEM_DS3505
ZBAA,1992-06-10 15:00,ZBAA 101500Z AUTO 18006KT 16SM 22/10 A2971 RMK SLP110 T02250099 52015 IEM_DS3505
ZBAA,1992-06-10 16:00,ZBAA 101600Z AUTO 15006KT 6SM 20/11 A2971 RMK SLP112 T02000110 IEM_DS3505
ZBAA,1992-06-10 17:00,ZBAA 101700Z AUTO 16004KT 6SM 20/12 A2971 RMK SLP112 T02000120 IEM_DS3505
ZBAA,1992-06-10 18:00,ZBAA 101800Z AUTO 20006KT 12SM 20/11 A2971 RMK SLP110 T02040108 40284//// 54000 IEM_DS3505
ZBAA,1992-06-10 19:00,ZBAA 101900Z AUTO 11004KT 6SM 17/12 A2971 RMK SLP113 T01700120 IEM_DS3505
ZBAA,1992-06-10 20:00,ZBAA 102000Z AUTO 11004KT 6SM 17/12 A2971 RMK SLP113 T01700120 IEM_DS3505
ZBAA,1992-06-10 21:00,ZBAA 102100Z AUTO 00000KT 12SM 19/11 A2971 RMK SLP111 T01920114 52001 IEM_DS3505
ZBAA,1992-06-10 22:00,ZBAA 102200Z AUTO 12004KT 6SM 17/12 A2974 RMK SLP123 T01700120 IEM_DS3505
ZBAA,1992-06-10 23:00,ZBAA 102300Z AUTO 10004KT 6SM 18/12 A2974 RMK SLP123 T01800120 IEM_DS3505
ZBAA,1992-06-11 00:00,ZBAA 110000Z AUTO 00000KT 7SM 19/13 A2974 RMK SLP120 T01910133 52008 IEM_DS3505
ZBAA,1992-06-11 01:00,ZBAA 110100Z AUTO 11002KT 6SM 19/13 A2974 RMK SLP123 T01900130 IEM_DS3505
ZBAA,1992-06-11 02:00,ZBAA 110200Z AUTO 16004KT 6SM 22/14 A2985 RMK SLP159 T02200140 IEM_DS3505
ZBAA,1992-06-11 03:00,ZBAA 110300Z AUTO 34002KT 4SM 22/12 A2971 RMK SLP117 T02250124 57003 IEM_DS3505
ZBAA,1992-06-11 04:00,ZBAA 110400Z AUTO 12004KT 6SM 24/12 A2971 RMK SLP111 T02400120 IEM_DS3505
ZBAA,1992-06-11 05:00,ZBAA 110500Z AUTO 10002KT 6SM 25/13 A2968 RMK SLP101 T02500130 IEM_DS3505
ZBAA,1992-06-11 06:00,ZBAA 110600Z AUTO 00000KT 3SM 24/13 A2965 RMK SLP097 T02410132 4////0184 57020 IEM_DS3505
ZBAA,1992-06-11 07:00,ZBAA 110700Z AUTO 22004KT 6SM 26/13 A2962 RMK SLP080 T02600130 IEM_DS3505
ZBAA,1992-06-11 08:00,ZBAA 110800Z AUTO 19004KT 6SM 25/12 A2962 RMK SLP080 T02500120 IEM_DS3505
ZBAA,1992-06-11 09:00,ZBAA 110900Z AUTO 18006KT 3SM 26/10 A2959 RMK SLP075 T02550104 57022 IEM_DS3505
ZBAA,1992-06-11 10:00,ZBAA 111000Z AUTO 12002KT 6SM 25/13 A2959 RMK SLP070 T02500130 IEM_DS3505
ZBAA,1992-06-11 11:00,ZBAA 111100Z AUTO 09002KT 6SM 24/14 A2959 RMK SLP070 T02400140 IEM_DS3505
ZBAA,1992-06-11 12:00,ZBAA 111200Z AUTO 00000KT 3SM 25/14 A2959 RMK SLP076 T02460138 52001 IEM_DS3505
ZBAA,1992-06-11 13:00,ZBAA 111300Z AUTO 00000KT 6SM 23/14 A2959 RMK SLP070 T02300140 IEM_DS3505
ZBAA,1992-06-11 14:00,ZBAA 111400Z AUTO 00000KT 6SM 22/14 A2962 RMK SLP081 T02200140 IEM_DS3505
ZBAA,1992-06-11 15:00,ZBAA 111500Z AUTO 00000KT 4SM 22/16 A2959 RMK SLP075 T02180159 57001 IEM_DS3505
ZBAA,1992-06-11 18:00,ZBAA 111800Z AUTO 04004KT 3SM 21/15 A2957 RMK SLP063 T02080153 40256//// 57011 IEM_DS3505
ZBAA,1992-06-11 21:00,ZBAA 112100Z AUTO 00000KT 2 1/2SM 19/16 A2956 RMK SLP063 T01860159 57001 IEM_DS3505
ZBAA,1992-06-11 22:00,ZBAA 112200Z AUTO 02002KT 6SM 18/15 A2959 RMK SLP071 T01800150 IEM_DS3505
ZBAA,1992-06-11 23:00,ZBAA 112300Z AUTO 04002KT 6SM 20/15 A2959 RMK SLP071 T02000150 IEM_DS3505
ZBAA,1992-06-12 00:00,ZBAA 120000Z AUTO 04004KT 4SM 22/16 A2959 RMK SLP075 T02250156 52013 IEM_DS3505
ZBAA,1992-06-12 01:00,ZBAA 120100Z AUTO 35004KT 6SM 26/15 A2962 RMK SLP080 T02600150 IEM_DS3505
ZBAA,1992-06-12 02:00,ZBAA 120200Z AUTO 04006KT 6SM 28/14 A2959 RMK SLP069 T02800140 IEM_DS3505
ZBAA,1992-06-12 03:00,ZBAA 120300Z AUTO 36006KT 4SM 28/14 A2959 RMK SLP073 T02840145 57002 IEM_DS3505
ZBAA,1992-06-12 04:00,ZBAA 120400Z AUTO 05006KT 6SM 30/14 A2959 RMK SLP069 T03000140 IEM_DS3505
ZBAA,1992-06-12 05:00,ZBAA 120500Z AUTO 02004KT 6SM 31/13 A2956 RMK SLP059 T03100130 IEM_DS3505
ZBAA,1992-06-12 06:00,ZBAA 120600Z AUTO 02006KT 12SM 31/09 A2953 RMK SLP057 T03130094 4////0181 57016 IEM_DS3505
ZBAA,1992-06-12 07:00,ZBAA 120700Z AUTO 10006KT 6SM 33/12 A2950 RMK SLP038 T03300120 IEM_DS3505
ZBAA,1992-06-12 08:00,ZBAA 120800Z AUTO 10006KT 6SM 33/10 A2950 RMK SLP038 T03300100 IEM_DS3505
ZBAA,1992-06-12 09:00,ZBAA 120900Z AUTO 16008KT 12SM 32/11 A2947 RMK SLP042 T03210112 57015 IEM_DS3505
ZBAA,1992-06-12 10:00,ZBAA 121000Z AUTO 14002KT 6SM 31/08 A2947 RMK SLP028 T03100080 IEM_DS3505
ZBAA,1992-06-12 11:00,ZBAA 121100Z AUTO 19002KT 6SM 30/09 A2950 RMK SLP039 T03000090 IEM_DS3505
ZBAA,1992-06-12 12:00,ZBAA 121200Z AUTO 18004KT 9SM 29/11 A2953 RMK SLP051 T02890107 52009 IEM_DS3505
ZBAA,1992-06-12 13:00,ZBAA 121300Z AUTO 20002KT 6SM 25/12 A2953 RMK SLP050 T02500120 IEM_DS3505
ZBAA,1992-06-12 14:00,ZBAA 121400Z AUTO 36002KT 6SM 24/13 A2953 RMK SLP050 T02400130 IEM_DS3505
ZBAA,1992-06-12 15:00,ZBAA 121500Z AUTO 14002KT 8SM 24/14 A2956 RMK SLP062 T02350139 52011 IEM_DS3505
ZBAA,1992-06-12 16:00,ZBAA 121600Z AUTO 09006KT 6SM 22/17 A2956 RMK SLP061 T02200170 IEM_DS3505
ZBAA,1992-06-12 17:00,ZBAA 121700Z AUTO 11006KT 6SM 21/16 A2956 RMK SLP061 T02100160 IEM_DS3505
ZBAA,1992-06-12 18:00,ZBAA 121800Z AUTO 04004KT 5SM 22/17 A2959 RMK SLP068 T02160167 40333//// 52006 IEM_DS3505
ZBAA,1992-06-12 19:00,ZBAA 121900Z AUTO 32002KT 6SM 20/16 A2959 RMK SLP071 T02000160 IEM_DS3505
ZBAA,1992-06-12 20:00,ZBAA 122000Z AUTO 02002KT 6SM 20/15 A2959 RMK SLP071 T02000150 IEM_DS3505
ZBAA,1992-06-12 21:00,ZBAA 122100Z AUTO 02002KT 5SM 20/16 A2962 RMK SLP081 T01980160 52013 IEM_DS3505
ZBAA,1992-06-12 22:00,ZBAA 122200Z AUTO 00000KT 6SM 19/16 A2962 RMK SLP081 T01900160 IEM_DS3505
ZBAA,1992-06-13 00:00,ZBAA 130000Z AUTO 00000KT 4SM 24/16 A2962 RMK SLP082 T02440161 52001 IEM_DS3505
ZBAA,1992-06-13 01:00,ZBAA 130100Z AUTO 11002KT 7SM 27/15 A2962 RMK SLP080 T02700150 IEM_DS3505
ZBAA,1992-06-13 02:00,ZBAA 130200Z AUTO 29002KT 6SM 28/13 A2962 RMK SLP079 T02800130 IEM_DS3505
ZBAA,1992-06-13 03:00,ZBAA 130300Z AUTO 11002KT 6SM 29/09 A2959 RMK SLP078 T02930089 57004 IEM_DS3505
ZBAA,1992-06-13 04:00,ZBAA 130400Z AUTO 21006KT 6SM 32/10 A2959 RMK SLP069 T03200100 IEM_DS3505
ZBAA,1992-06-13 05:00,ZBAA 130500Z AUTO 19006KT 6SM 33/06 A2956 RMK SLP058 T03300060 IEM_DS3505
ZBAA,1992-06-13 06:00,ZBAA 130600Z AUTO 18004KT 6SM 32/06 A2953 RMK SLP058 T03200062 4////0195 57019 IEM_DS3505
ZBAA,1992-06-13 08:00,ZBAA 130800Z AUTO 21012KT 6SM 33/08 A2962 RMK SLP078 T03300080 IEM_DS3505
ZBAA,1992-06-13 09:00,ZBAA 130900Z AUTO 22010KT 6SM 32/07 A2962 RMK SLP048 T03160067 57011 IEM_DS3505
ZBAA,1992-06-13 10:00,ZBAA 131000Z AUTO 20010KT 6SM 32/09 A2962 RMK SLP079 T03200090 IEM_DS3505
ZBAA,1992-06-13 11:00,ZBAA 131100Z AUTO 21006KT 6SM 30/09 A2953 RMK SLP049 T03000090 IEM_DS3505
ZBAA,1992-06-13 12:00,ZBAA 131200Z AUTO 20004KT 9SM 29/11 A2953 RMK SLP058 T02930113 52011 IEM_DS3505
ZBAA,1992-06-13 13:00,ZBAA 131300Z AUTO 10002KT 6SM 25/11 A2956 RMK SLP060 T02500110 IEM_DS3505
ZBAA,1992-06-13 14:00,ZBAA 131400Z AUTO 00000KT 6SM 25/12 A2959 RMK SLP070 T02500120 IEM_DS3505
ZBAA,1992-06-13 15:00,ZBAA 131500Z AUTO 00000KT 4SM 25/15 A2959 RMK SLP073 T02510147 52015 IEM_DS3505
ZBAA,1992-06-13 16:00,ZBAA 131600Z AUTO 03004KT 7SM 23/12 A2962 RMK SLP080 T02300120 IEM_DS3505
ZBAA,1992-06-13 17:00,ZBAA 131700Z AUTO 36002KT 7SM 22/11 A2959 RMK SLP071 T02200110 IEM_DS3505
ZBAA,1992-06-13 18:00,ZBAA 131800Z AUTO 02002KT 4SM 22/13 A2962 RMK SLP079 T02200128 40324//// 52005 IEM_DS3505
ZBAA,1992-06-13 19:00,ZBAA 131900Z AUTO 36004KT 7SM 21/10 A2962 RMK SLP081 T02100100 IEM_DS3505
ZBAA,1992-06-13 20:00,ZBAA 132000Z AUTO 7SM 21/08 A2965 RMK SLP092 T02100080 IEM_DS3505
ZBAA,1992-06-13 21:00,ZBAA 132100Z AUTO 02002KT 4SM 23/07 A2968 RMK SLP097 T02300074 52018 IEM_DS3505
ZBAA,1992-06-13 22:00,ZBAA 132200Z AUTO 00000KT 7SM 20/11 A2968 RMK SLP102 T02000110 IEM_DS3505
ZBAA,1992-06-13 23:00,ZBAA 132300Z AUTO 11002KT 7SM 22/13 A2971 RMK SLP112 T02200130 IEM_DS3505
ZBAA,1992-06-14 00:00,ZBAA 140000Z AUTO 00000KT 3SM 24/13 A2971 RMK SLP117 T02440127 52020 IEM_DS3505
ZBAA,1992-06-14 01:00,ZBAA 140100Z AUTO 00000KT 6SM 25/14 A2971 RMK SLP111 T02500140 IEM_DS3505
ZBAA,1992-06-14 02:00,ZBAA 140200Z AUTO 04002KT 6SM 28/13 A2971 RMK SLP111 T02800130 IEM_DS3505
ZBAA,1992-06-14 03:00,ZBAA 140300Z AUTO 04004KT 4SM 28/10 A2971 RMK SLP115 T02770095 57002 IEM_DS3505
ZBAA,1992-06-14 04:00,ZBAA 140400Z AUTO 15006KT 6SM 32/11 A2968 RMK SLP100 T03200110 IEM_DS3505
ZBAA,1992-06-14 05:00,ZBAA 140500Z AUTO 22004KT 6SM 31/10 A2965 RMK SLP090 T03100100 IEM_DS3505
ZBAA,1992-06-14 06:00,ZBAA 140600Z AUTO 14004KT 6SM 31/08 A2965 RMK SLP095 T03080085 4////0215 57020 IEM_DS3505
ZBAA,1992-06-14 09:00,ZBAA 140900Z AUTO 16008KT 6SM 31/10 A2963 RMK SLP084 T03090097 57011 IEM_DS3505
ZBAA,1992-06-14 12:00,ZBAA 141200Z AUTO 18002KT 11SM 29/12 A2962 RMK SLP085 T02920118 52001 IEM_DS3505
ZBAA,1992-06-14 13:00,ZBAA 141300Z AUTO 15008KT 7SM 25/18 A2965 RMK SLP091 T02500180 IEM_DS3505
ZBAA,1992-06-14 14:00,ZBAA 141400Z AUTO 13004KT 7SM 23/18 A2968 RMK SLP102 T02300180 IEM_DS3505
ZBAA,1992-06-14 15:00,ZBAA 141500Z AUTO 20004KT 5SM 24/18 A2968 RMK SLP103 T02420181 52018 IEM_DS3505
ZBAA,1992-06-14 16:00,ZBAA 141600Z AUTO 00000KT 7SM 21/17 A2971 RMK SLP112 T02100170 IEM_DS3505
ZBAA,1992-06-14 17:00,ZBAA 141700Z AUTO 00000KT 7SM 21/17 A2971 RMK SLP112 T02100170 IEM_DS3505
ZBAA,1992-06-14 18:00,ZBAA 141800Z AUTO 07002KT 4SM 22/18 A2971 RMK SLP112 T02230182 40314//// 52009 IEM_DS3505
ZBAA,1992-06-14 19:00,ZBAA 141900Z AUTO 12002KT 7SM 21/17 A2971 RMK SLP112 T02100170 IEM_DS3505
ZBAA,1992-06-14 20:00,ZBAA 142000Z AUTO 15002KT 7SM 20/17 A2971 RMK SLP112 T02000170 IEM_DS3505
ZBAA,1992-06-14 21:00,ZBAA 142100Z AUTO 00000KT 2 1/2SM 21/18 A2971 RMK SLP114 T02100178 52002 IEM_DS3505
ZBAA,1992-06-14 22:00,ZBAA 142200Z AUTO 00000KT 7SM 20/17 A2971 RMK SLP112 T02000170 IEM_DS3505
ZBAA,1992-06-14 23:00,ZBAA 142300Z AUTO 00000KT 7SM 21/17 A2971 RMK SLP112 T02100170 IEM_DS3505
ZBAA,1992-06-15 00:00,ZBAA 150000Z AUTO 04002KT 2 1/2SM 23/18 A2971 RMK SLP110 T02260178 57004 IEM_DS3505
ZBAA,1992-06-15 01:00,ZBAA 150100Z AUTO 01004KT 6SM 25/17 A2968 RMK SLP101 T02500170 IEM_DS3505
ZBAA,1992-06-15 02:00,ZBAA 150200Z AUTO 02004KT 6SM 26/17 A2968 RMK SLP101 T02600170 IEM_DS3505
ZBAA,1992-06-15 03:00,ZBAA 150300Z AUTO 07002KT 2SM 27/17 A2965 RMK SLP096 T02700170 57014 IEM_DS3505
ZBAA,1992-06-15 04:00,ZBAA 150400Z AUTO 11004KT 6SM 31/17 A2962 RMK SLP079 T03100170 IEM_DS3505
ZBAA,1992-06-15 05:00,ZBAA 150500Z AUTO 10006KT 6SM 32/17 A2959 RMK SLP069 T03200170 IEM_DS3505
ZBAA,1992-06-15 06:00,ZBAA 150600Z AUTO 00000KT 2 1/2SM 30/16 A2959 RMK SLP070 T03000158 4////0209 57026 IEM_DS3505
ZBAA,1992-06-15 07:00,ZBAA 150700Z AUTO 31010KT 7SM 29/16 A2965 RMK SLP090 T02900160 IEM_DS3505
ZBAA,1992-06-15 08:00,ZBAA 150800Z AUTO 36021G31KT 7SM A2965 RMK SLP092 IEM_DS3505
ZBAA,1992-06-15 09:00,ZBAA 150900Z AUTO 20017KT 4SM 22/18 A2959 RMK SLP088 T02180176 52017 IEM_DS3505
ZBAA,1992-06-15 10:00,ZBAA 151000Z AUTO 31006KT 7SM 22/17 A2959 RMK SLP071 T02200170 IEM_DS3505
ZBAA,1992-06-15 11:00,ZBAA 151100Z AUTO 05004KT 6SM 22/18 A2956 RMK SLP061 T02200180 IEM_DS3505
ZBAA,1992-06-15 12:00,ZBAA 151200Z AUTO 00000KT 7SM 23/17 A2956 RMK 60008 SLP065 T02280174 57022 IEM_DS3505
ZBAA,1992-06-15 13:00,ZBAA 151300Z AUTO 12004KT 7SM 21/18 A2956 RMK SLP061 T02100180 IEM_DS3505
ZBAA,1992-06-15 14:00,ZBAA 151400Z AUTO 23002KT 7SM 21/17 A2956 RMK SLP061 T02100170 IEM_DS3505
ZBAA,1992-06-15 15:00,ZBAA 151500Z AUTO 07004KT 5SM 21/18 A2956 RMK SLP067 T02130181 52002 IEM_DS3505
ZBAA,1992-06-15 16:00,ZBAA 151600Z AUTO 35006KT 7SM 21/16 A2959 RMK SLP071 T02100160 IEM_DS3505
ZBAA,1992-06-15 17:00,ZBAA 151700Z AUTO 28004KT 7SM 20/17 A2956 RMK SLP061 T02000170 IEM_DS3505
ZBAA,1992-06-15 18:00,ZBAA 151800Z AUTO 00000KT 5SM 20/18 A2956 RMK 60004 SLP062 T02000176 40312//// 57005 IEM_DS3505
ZBAA,1992-06-15 19:00,ZBAA 151900Z AUTO 01004KT 6SM 19/17 A2956 RMK SLP061 T01900170 IEM_DS3505
ZBAA,1992-06-15 20:00,ZBAA 152000Z AUTO 00000KT 6SM 19/16 A2956 RMK SLP061 T01900160 IEM_DS3505
ZBAA,1992-06-15 21:00,ZBAA 152100Z AUTO 02002KT 5SM 20/17 A2956 RMK 70012 SLP065 T01980169 52002 IEM_DS3505
ZBAA,1992-06-15 22:00,ZBAA 152200Z AUTO 36002KT 6SM 19/17 A2959 RMK SLP071 T01900170 IEM_DS3505
ZBAA,1992-06-15 23:00,ZBAA 152300Z AUTO 02004KT 6SM 21/17 A2959 RMK SLP071 T02100170 IEM_DS3505
ZBAA,1992-06-16 00:00,ZBAA 160000Z AUTO 02004KT 6SM 23/18 A2959 RMK 70012 SLP080 T02260175 52016 IEM_DS3505
ZBAA,1992-06-16 01:00,ZBAA 160100Z AUTO 04010KT 7SM 25/17 A2962 RMK SLP080 T02500170 IEM_DS3505
ZBAA,1992-06-16 02:00,ZBAA 160200Z AUTO 03010KT 7SM 27/17 A2962 RMK SLP080 T02700170 IEM_DS3505
ZBAA,1992-06-16 03:00,ZBAA 160300Z AUTO 07006KT 6SM 27/16 A2962 RMK SLP080 T02730162 54000 IEM_DS3505
ZBAA,1992-06-16 04:00,ZBAA 160400Z AUTO 05012KT 6SM 30/15 A2959 RMK SLP069 T03000150 IEM_DS3505
ZBAA,1992-06-16 05:00,ZBAA 160500Z AUTO 03014G23KT 6SM 32/14 A2959 RMK SLP069 T03200140 IEM_DS3505
ZBAA,1992-06-16 06:00,ZBAA 160600Z AUTO 07010G29KT 9SM 30/12 A2959 RMK SLP072 T03000116 4////0196 57008 IEM_DS3505
ZBAA,1992-06-16 07:00,ZBAA 160700Z AUTO 04017KT 6SM 31/11 A2959 RMK SLP069 T03100110 IEM_DS3505
ZBAA,1992-06-16 08:00,ZBAA 160800Z AUTO 05014KT 6SM 31/11 A2956 RMK SLP059 T03100110 IEM_DS3505
ZBAA,1992-06-16 09:00,ZBAA 160900Z AUTO 11010KT 16SM 30/10 A2956 RMK SLP068 T03020104 57004 IEM_DS3505
ZBAA,1992-06-16 10:00,ZBAA 161000Z AUTO 07008KT 6SM 30/10 A2956 RMK SLP059 T03000100 IEM_DS3505
ZBAA,1992-06-16 11:00,ZBAA 161100Z AUTO 14004KT 6SM 29/12 A2959 RMK SLP069 T02900120 IEM_DS3505
ZBAA,1992-06-16 12:00,ZBAA 161200Z AUTO 11004KT 10SM 27/16 A2965 RMK SLP089 T02710156 52021 IEM_DS3505
ZBAA,1992-06-16 13:00,ZBAA 161300Z AUTO 07006KT 6SM 26/11 A2968 RMK SLP101 T02600110 IEM_DS3505
ZBAA,1992-06-16 14:00,ZBAA 161400Z AUTO 04004KT 6SM 24/11 A2971 RMK SLP111 T02400110 IEM_DS3505
ZBAA,1992-06-16 15:00,ZBAA 161500Z AUTO 09002KT 12SM 25/11 A2974 RMK SLP122 T02500108 52033 IEM_DS3505
ZBAA,1992-06-16 16:00,ZBAA 161600Z AUTO 01004KT 7SM 22/12 A2974 RMK SLP122 T02200120 IEM_DS3505
ZBAA,1992-06-16 17:00,ZBAA 161700Z AUTO 04004KT 7SM 21/12 A2974 RMK SLP122 T02100120 IEM_DS3505
ZBAA,1992-06-16 18:00,ZBAA 161800Z AUTO 04006KT 12SM 22/12 A2974 RMK SLP124 T02200122 40307//// 52002 IEM_DS3505
ZBAA,1992-06-16 19:00,ZBAA 161900Z AUTO 01002KT 7SM 19/12 A2974 RMK SLP123 T01900120 IEM_DS3505
ZBAA,1992-06-16 20:00,ZBAA 162000Z AUTO 35006KT 7SM 18/12 A2977 RMK SLP133 T01800120 IEM_DS3505
ZBAA,1992-06-16 21:00,ZBAA 162100Z AUTO 00000KT 12SM 19/13 A2977 RMK SLP133 T01940133 52009 IEM_DS3505
ZBAA,1992-06-16 22:00,ZBAA 162200Z AUTO 01004KT 7SM 20/13 A2980 RMK SLP143 T02000130 IEM_DS3505
ZBAA,1992-06-16 23:00,ZBAA 162300Z AUTO 36004KT 7SM 22/13 A2980 RMK SLP142 T02200130 IEM_DS3505
ZBAA,1992-06-17 00:00,ZBAA 170000Z AUTO 02004KT 19SM 25/11 A2983 RMK SLP144 T02460114 52011 IEM_DS3505
ZBAA,1992-06-17 01:00,ZBAA 170100Z AUTO 04008KT 7SM 26/12 A2983 RMK SLP151 T02600120 IEM_DS3505
ZBAA,1992-06-17 02:00,ZBAA 170200Z AUTO 33004KT 7SM 28/12 A2980 RMK SLP141 T02800120 IEM_DS3505
ZBAA,1992-06-17 03:00,ZBAA 170300Z AUTO 07004KT 16SM 27/12 A2980 RMK SLP142 T02740115 57002 IEM_DS3505
ZBAA,1992-06-17 04:00,ZBAA 170400Z AUTO 32006KT 6SM 30/12 A2977 RMK SLP130 T03000120 IEM_DS3505
ZBAA,1992-06-17 05:00,ZBAA 170500Z AUTO 06004KT 6SM 31/12 A2977 RMK SLP130 T03100120 IEM_DS3505
ZBAA,1992-06-17 06:00,ZBAA 170600Z AUTO 29004KT 19SM 30/11 A2974 RMK SLP128 T03000106 4////0187 57014 IEM_DS3505
ZBAA,1992-06-17 07:00,ZBAA 170700Z AUTO 34006G16KT 6SM 31/10 A2971 RMK SLP110 T03100100 IEM_DS3505
ZBAA,1992-06-17 08:00,ZBAA 170800Z AUTO 20006KT 7SM 32/11 A2971 RMK SLP110 T03200110 IEM_DS3505
ZBAA,1992-06-17 09:00,ZBAA 170900Z AUTO 00000KT 19SM 31/07 A2971 RMK SLP115 T03130070 57013 IEM_DS3505
ZBAA,1992-06-17 10:00,ZBAA 171000Z AUTO 19006KT 7SM 30/09 A2971 RMK SLP110 T03000090 IEM_DS3505
ZBAA,1992-06-17 11:00,ZBAA 171100Z AUTO 19006KT 7SM 29/11 A2971 RMK SLP110 T02900110 IEM_DS3505
ZBAA,1992-06-17 12:00,ZBAA 171200Z AUTO 18006KT 11SM 28/11 A2971 RMK SLP117 T02830111 52002 IEM_DS3505
ZBAA,1992-06-17 13:00,ZBAA 171300Z AUTO 20006KT 7SM 26/12 A2974 RMK SLP121 T02600120 IEM_DS3505
ZBAA,1992-06-17 14:00,ZBAA 171400Z AUTO 22006KT 7SM 25/12 A2974 RMK SLP121 T02500120 IEM_DS3505
ZBAA,1992-06-17 15:00,ZBAA 171500Z AUTO 18002KT 7SM 25/12 A2977 RMK SLP127 T02480124 52010 IEM_DS3505
ZBAA,1992-06-17 16:00,ZBAA 171600Z AUTO 18002KT 7SM 25/12 A2977 RMK SLP127 T02480124 52010 IEM_DS3505
ZBAA,1992-06-17 17:00,ZBAA 171700Z AUTO 10004KT 7SM 21/13 A2977 RMK SLP132 T02100130 IEM_DS3505
ZBAA,1992-06-17 18:00,ZBAA 171800Z AUTO 20004KT 12SM 24/12 A2977 RMK SLP131 T02370122 40315//// 52004 IEM_DS3505
ZBAA,1992-06-17 21:00,ZBAA 172100Z AUTO 02002KT 6SM 20/14 A2978 RMK SLP135 T02020138 52004 IEM_DS3505
ZBAA,1992-06-17 22:00,ZBAA 172200Z AUTO 05002KT 7SM 19/14 A2980 RMK SLP143 T01900140 IEM_DS3505
ZBAA,1992-06-17 23:00,ZBAA 172300Z AUTO 04004KT 7SM 21/15 A2983 RMK SLP152 T02100150 IEM_DS3505
ZBAA,1992-06-18 00:00,ZBAA 180000Z AUTO 02006KT 6SM 23/14 A2983 RMK SLP141 T02330144 52006 IEM_DS3505
ZBAA,1992-06-18 01:00,ZBAA 180100Z AUTO 09004KT 7SM 26/15 A2980 RMK SLP141 T02600150 IEM_DS3505
ZBAA,1992-06-18 02:00,ZBAA 180200Z AUTO 11004KT 7SM 30/15 A2980 RMK SLP140 T03000150 IEM_DS3505
ZBAA,1992-06-18 03:00,ZBAA 180300Z AUTO 18008KT 5SM 29/13 A2980 RMK SLP137 T02890132 57004 IEM_DS3505
ZBAA,1992-06-18 04:00,ZBAA 180400Z AUTO 20010KT 6SM 32/12 A2977 RMK SLP130 T03200120 IEM_DS3505
ZBAA,1992-06-18 05:00,ZBAA 180500Z AUTO 19012G21KT 6SM 33/08 A2974 RMK SLP120 T03300080 IEM_DS3505
ZBAA,1992-06-18 06:00,ZBAA 180600Z AUTO 16008KT 12SM 32/06 A2974 RMK SLP123 T03200055 4////0198 57014 IEM_DS3505
ZBAA,1992-06-18 07:00,ZBAA 180700Z AUTO 21010KT 6SM 34/07 A2971 RMK SLP109 T03400070 IEM_DS3505
ZBAA,1992-06-18 08:00,ZBAA 180800Z AUTO 18012KT 6SM 33/07 A2971 RMK SLP110 T03300070 IEM_DS3505
ZBAA,1992-06-18 09:00,ZBAA 180900Z AUTO 20010KT 12SM 32/06 A2968 RMK SLP114 T03190056 57009 IEM_DS3505
ZBAA,1992-06-18 10:00,ZBAA 181000Z AUTO 19008KT 7SM 31/07 A2971 RMK SLP110 T03100070 IEM_DS3505
ZBAA,1992-06-18 11:00,ZBAA 181100Z AUTO 18006KT 7SM 30/07 A2971 RMK SLP110 T03000070 IEM_DS3505
ZBAA,1992-06-18 12:00,ZBAA 181200Z AUTO 20002KT 12SM 30/06 A2974 RMK SLP118 T02980057 52004 IEM_DS3505
ZBAA,1992-06-18 13:00,ZBAA 181300Z AUTO 14006KT 7SM 28/06 A2977 RMK SLP131 T02800060 IEM_DS3505
ZBAA,1992-06-18 14:00,ZBAA 181400Z AUTO 18004KT 7SM 26/12 A2977 RMK SLP131 T02600120 IEM_DS3505
ZBAA,1992-06-18 15:00,ZBAA 181500Z AUTO 18004KT 11SM 26/11 A2977 RMK SLP134 T02590112 52016 IEM_DS3505
ZBAA,1992-06-18 16:00,ZBAA 181600Z AUTO 12004KT 7SM 23/12 A2980 RMK SLP142 T02300120 IEM_DS3505
ZBAA,1992-06-18 17:00,ZBAA 181700Z AUTO 11004KT 7SM 21/14 A2994 RMK T02100140 IEM_DS3505
ZBAA,1992-06-18 18:00,ZBAA 181800Z AUTO 11004KT 9SM 24/11 A2983 RMK SLP140 T02370111 40325//// 52006 IEM_DS3505
ZBAA,1992-06-18 19:00,ZBAA 181900Z AUTO 00000KT 7SM 20/14 A2983 RMK SLP153 T02000140 IEM_DS3505
ZBAA,1992-06-18 20:00,ZBAA 182000Z AUTO 13002KT 7SM 20/13 A2983 RMK SLP153 T02000130 IEM_DS3505
ZBAA,1992-06-18 21:00,ZBAA 182100Z AUTO 00000KT 6SM 21/12 A2983 RMK SLP150 T02060125 52010 IEM_DS3505
ZBAA,1992-06-18 22:00,ZBAA 182200Z AUTO 15002KT 7SM 20/12 A2985 RMK SLP160 T02000120 IEM_DS3505
ZBAA,1992-06-18 23:00,ZBAA 182300Z AUTO 02002KT 7SM 21/12 A2985 RMK SLP159 T02100120 IEM_DS3505
ZBAA,1992-06-19 00:00,ZBAA 190000Z AUTO 36002KT 5SM 23/13 A2985 RMK SLP160 T02280127 52010 IEM_DS3505
ZBAA,1992-06-19 01:00,ZBAA 190100Z AUTO 20002KT 7SM 25/14 A2985 RMK SLP159 T02500140 IEM_DS3505
ZBAA,1992-06-19 02:00,ZBAA 190200Z AUTO 10002KT 7SM 28/14 A2985 RMK SLP158 T02800140 IEM_DS3505
ZBAA,1992-06-19 03:00,ZBAA 190300Z AUTO 00000KT 4SM 28/13 A2983 RMK SLP157 T02780132 57003 IEM_DS3505
ZBAA,1992-06-19 04:00,ZBAA 190400Z AUTO 16006KT 7SM 32/14 A2980 RMK SLP140 T03200140 IEM_DS3505
ZBAA,1992-06-19 06:00,ZBAA 190600Z AUTO 22008KT 6SM 32/11 A2977 RMK SLP135 T03180114 4////0203 57022 IEM_DS3505
ZBAA,1992-06-19 07:00,ZBAA 190700Z AUTO 18012KT 7SM 34/11 A2977 RMK SLP129 T03400110 IEM_DS3505
ZBAA,1992-06-19 08:00,ZBAA 190800Z AUTO 18010KT 7SM 34/12 A2974 RMK SLP119 T03400120 IEM_DS3505
ZBAA,1992-06-19 09:00,ZBAA 190900Z AUTO 16006KT 6SM 33/11 A2974 RMK SLP120 T03260107 57015 IEM_DS3505
ZBAA,1992-06-19 10:00,ZBAA 191000Z AUTO 19010KT 7SM 32/11 A2971 RMK SLP110 T03200110 IEM_DS3505
ZBAA,1992-06-19 11:00,ZBAA 191100Z AUTO 16006KT 6SM 31/12 A2974 RMK SLP120 T03100120 IEM_DS3505
ZBAA,1992-06-19 12:00,ZBAA 191200Z AUTO 18006KT 11SM 30/11 A2974 RMK SLP123 T03010107 52003 IEM_DS3505
ZBAA,1992-06-19 13:00,ZBAA 191300Z AUTO 16006KT 6SM 28/11 A2977 RMK SLP131 T02800110 IEM_DS3505
ZBAA,1992-06-19 14:00,ZBAA 191400Z AUTO 14004KT 6SM 26/11 A2977 RMK SLP131 T02600110 IEM_DS3505
ZBAA,1992-06-19 15:00,ZBAA 191500Z AUTO 18002KT 6SM 26/11 A2980 RMK SLP133 T02640107 52010 IEM_DS3505
ZBAA,1992-06-19 16:00,ZBAA 191600Z AUTO 06004KT 6SM 24/13 A2980 RMK SLP142 T02400130 IEM_DS3505
ZBAA,1992-06-19 17:00,ZBAA 191700Z AUTO 10004KT 6SM 22/13 A2980 RMK SLP142 T02200130 IEM_DS3505
ZBAA,1992-06-19 18:00,ZBAA 191800Z AUTO 11002KT 5SM 24/13 A2980 RMK SLP133 T02450130 40331//// 54000 IEM_DS3505
ZBAA,1992-06-19 19:00,ZBAA 191900Z AUTO 11002KT 6SM 21/14 A2977 RMK SLP132 T02100140 IEM_DS3505
ZBAA,1992-06-19 20:00,ZBAA 192000Z AUTO 11002KT 6SM 21/13 A2977 RMK SLP132 T02100130 IEM_DS3505
ZBAA,1992-06-19 21:00,ZBAA 192100Z AUTO 04004KT 5SM 22/14 A2980 RMK SLP136 T02160145 52003 IEM_DS3505
ZBAA,1992-06-19 22:00,ZBAA 192200Z AUTO 00000KT 6SM 20/13 A2980 RMK SLP143 T02000130 IEM_DS3505
ZBAA,1992-06-19 23:00,ZBAA 192300Z AUTO 28002KT 6SM 22/14 A2980 RMK SLP142 T02200140 IEM_DS3505
ZBAA,1992-06-20 00:00,ZBAA 200000Z AUTO 36004KT 6SM 23/14 A2980 RMK SLP138 T02300142 52002 IEM_DS3505
ZBAA,1992-06-20 01:00,ZBAA 200100Z AUTO 11004KT 6SM 26/12 A2977 RMK SLP131 T02600120 IEM_DS3505
ZBAA,1992-06-20 02:00,ZBAA 200200Z AUTO 08004KT 6SM 27/13 A2977 RMK SLP131 T02700130 IEM_DS3505
ZBAA,1992-06-20 03:00,ZBAA 200300Z AUTO 36002KT 6SM 25/14 A2974 RMK SLP128 T02520144 57010 IEM_DS3505
ZBAA,1992-06-20 04:00,ZBAA 200400Z AUTO 27002KT 6SM 29/14 A2971 RMK SLP110 T02900140 IEM_DS3505
ZBAA,1992-06-20 05:00,ZBAA 200500Z AUTO 16006KT 6SM 31/13 A2968 RMK SLP100 T03100130 IEM_DS3505
ZBAA,1992-06-20 06:00,ZBAA 200600Z AUTO 20004KT 6SM 30/12 A2968 RMK SLP103 T02990117 4////0210 57025 IEM_DS3505
ZBAA,1992-06-20 07:00,ZBAA 200700Z AUTO 20010KT 6SM 31/12 A2965 RMK SLP090 T03100120 IEM_DS3505
ZBAA,1992-06-20 08:00,ZBAA 200800Z AUTO 23008KT 6SM 30/12 A2962 RMK SLP079 T03000120 IEM_DS3505
ZBAA,1992-06-20 09:00,ZBAA 200900Z AUTO 18012KT 5SM 28/13 A2962 RMK SLP092 T02850126 57011 IEM_DS3505
ZBAA,1992-06-20 10:00,ZBAA 201000Z AUTO 19008KT 4SM 28/12 A2962 RMK SLP079 T02800120 IEM_DS3505
ZBAA,1992-06-20 11:00,ZBAA 201100Z AUTO 20006KT 4SM 28/12 A2962 RMK SLP079 T02800120 IEM_DS3505
ZBAA,1992-06-20 12:00,ZBAA 201200Z AUTO 22004KT 3SM 27/11 A2962 RMK SLP085 T02690108 57007 IEM_DS3505
ZBAA,1992-06-20 13:00,ZBAA 201300Z AUTO 23006KT 7SM 26/10 A2962 RMK SLP080 T02600100 IEM_DS3505
ZBAA,1992-06-20 14:00,ZBAA 201400Z AUTO 28008KT 7SM 26/10 A2965 RMK SLP091 T02600100 IEM_DS3505
ZBAA,1992-06-20 15:00,ZBAA 201500Z AUTO 22010KT 4SM 24/12 A2965 RMK SLP096 T02380119 52011 IEM_DS3505
ZBAA,1992-06-20 16:00,ZBAA 201600Z AUTO 28004KT 7SM 20/17 A2965 RMK SLP092 T02000170 IEM_DS3505
ZBAA,1992-06-20 18:00,ZBAA 201800Z AUTO 00000KT 4SM 19/16 A2962 RMK 60008 SLP083 T01880165 40304//// 57013 IEM_DS3505
ZBAA,1992-06-20 19:00,ZBAA 201900Z AUTO 12004KT 7SM 18/18 A2962 RMK SLP082 T01800180 IEM_DS3505
ZBAA,1992-06-20 20:00,ZBAA 202000Z AUTO 12004KT 7SM 18/18 A2959 RMK SLP071 T01800180 IEM_DS3505
ZBAA,1992-06-20 21:00,ZBAA 202100Z AUTO 14002KT 6SM 18/16 A2959 RMK 70012 SLP076 T01850156 57007 IEM_DS3505
ZBAA,1992-06-20 22:00,ZBAA 202200Z AUTO 15004KT 7SM 18/18 A2959 RMK SLP071 T01800180 IEM_DS3505
ZBAA,1992-06-20 23:00,ZBAA 202300Z AUTO 17006KT 7SM 18/18 A2959 RMK SLP071 T01800180 IEM_DS3505
ZBAA,1992-06-21 00:00,ZBAA 210000Z AUTO 20004KT 9SM 18/16 A2959 RMK 60004 70012 SLP072 T01830160 57004 IEM_DS3505
ZBAA,1992-06-21 01:00,ZBAA 210100Z AUTO 19006KT 7SM 20/18 A2959 RMK SLP071 T02000180 IEM_DS3505
ZBAA,1992-06-21 02:00,ZBAA 210200Z AUTO 21010KT 7SM 21/15 A2956 RMK SLP061 T02100150 IEM_DS3505
ZBAA,1992-06-21 03:00,ZBAA 210300Z AUTO 20008KT 6SM 22/14 A2956 RMK SLP068 T02220145 57004 IEM_DS3505
ZBAA,1992-06-21 04:00,ZBAA 210400Z AUTO 23006KT 7SM 23/15 A2953 RMK SLP050 T02300150 IEM_DS3505
ZBAA,1992-06-21 05:00,ZBAA 210500Z AUTO 16006KT 7SM 24/15 A2962 RMK SLP080 T02400150 IEM_DS3505
ZBAA,1992-06-21 06:00,ZBAA 210600Z AUTO 16008KT 6SM 26/15 A2962 RMK SLP044 T02560153 4////0176 57024 IEM_DS3505
ZBAA,1992-06-21 07:00,ZBAA 210700Z AUTO 18008KT 7SM 25/15 A2959 RMK SLP070 T02500150 IEM_DS3505
ZBAA,1992-06-21 08:00,ZBAA 210800Z AUTO 18010KT 7SM 26/15 A2956 RMK SLP060 T02600150 IEM_DS3505
ZBAA,1992-06-21 09:00,ZBAA 210900Z AUTO 11002KT 7SM 26/14 A2950 RMK SLP031 T02600144 57013 IEM_DS3505
ZBAA,1992-06-21 10:00,ZBAA 211000Z AUTO 20004KT 4SM A2953 RMK SLP052 IEM_DS3505
ZBAA,1992-06-21 11:00,ZBAA 211100Z AUTO 21008KT 7SM 16/16 A2959 RMK SLP072 T01600160 IEM_DS3505
ZBAA,1992-06-21 12:00,ZBAA 211200Z AUTO 22004KT 19SM 17/15 A2950 RMK 60067 SLP040 T01710152 52008 IEM_DS3505
ZBAA,1992-06-21 13:00,ZBAA 211300Z AUTO 27004KT 6SM 16/16 A2953 RMK SLP052 T01600160 IEM_DS3505
ZBAA,1992-06-21 14:00,ZBAA 211400Z AUTO 00000KT 6SM 16/16 A2953 RMK SLP052 T01600160 IEM_DS3505
ZBAA,1992-06-21 15:00,ZBAA 211500Z AUTO 16002KT 12SM 17/14 A2953 RMK SLP049 T01740145 52009 IEM_DS3505
ZBAA,1992-06-21 16:00,ZBAA 211600Z AUTO 11004KT 6SM 16/16 A2953 RMK SLP052 T01600160 IEM_DS3505
ZBAA,1992-06-21 17:00,ZBAA 211700Z AUTO 09002KT 6SM 16/15 A2962 RMK SLP082 T01600150 IEM_DS3505
ZBAA,1992-06-21 18:00,ZBAA 211800Z AUTO 00000KT 5SM 16/15 A2962 RMK SLP045 T01610151 40266//// 57004 IEM_DS3505
ZBAA,1992-06-21 19:00,ZBAA 211900Z AUTO 00000KT 6SM 15/15 A2962 RMK SLP082 T01500150 IEM_DS3505
ZBAA,1992-06-21 20:00,ZBAA 212000Z AUTO 32002KT 6SM 15/15 A2962 RMK SLP082 T01500150 IEM_DS3505
ZBAA,1992-06-21 21:00,ZBAA 212100Z AUTO 00000KT 4SM 17/15 A2962 RMK 70067 SLP044 T01680153 57001 IEM_DS3505
ZBAA,1992-06-21 22:00,ZBAA 212200Z AUTO 00000KT 4SM 16/16 RMK T01600160 IEM_DS3505
ZBAA,1992-06-21 23:00,ZBAA 212300Z AUTO 06002KT 4SM 17/16 A2962 RMK SLP082 T01700160 IEM_DS3505
ZBAA,1992-06-22 00:00,ZBAA 220000Z AUTO 36004KT 4SM 17/15 A2953 RMK 70067 SLP048 T01710152 52004 IEM_DS3505
ZBAA,1992-06-22 01:00,ZBAA 220100Z AUTO 36004KT 4SM 17/15 A2950 RMK 70067 SLP048 T01710152 52004 IEM_DS3505
ZBAA,1992-06-22 02:00,ZBAA 220200Z AUTO 06002KT 4SM 19/16 A2950 RMK SLP041 T01900160 IEM_DS3505
ZBAA,1992-06-22 03:00,ZBAA 220300Z AUTO 36002KT 2SM 19/16 A2950 RMK SLP047 T01890156 57001 IEM_DS3505
ZBAA,1992-06-22 04:00,ZBAA 220400Z AUTO 11002KT 4SM 21/17 A2950 RMK SLP041 T02100170 IEM_DS3505
ZBAA,1992-06-22 05:00,ZBAA 220500Z AUTO 11004KT 5SM 22/17 A2950 RMK SLP040 T02200170 IEM_DS3505
ZBAA,1992-06-22 06:00,ZBAA 220600Z AUTO 09002KT 2 1/2SM 23/17 A2947 RMK SLP036 T02280167 4////0140 57011 IEM_DS3505
ZBAA,1992-06-22 07:00,ZBAA 220700Z AUTO 13004KT 4SM 24/18 A2944 RMK SLP019 T02400180 IEM_DS3505
ZBAA,1992-06-22 08:00,ZBAA 220800Z AUTO 21004KT 4SM 25/19 A2941 RMK SLP009 T02500190 IEM_DS3505
ZBAA,1992-06-22 09:00,ZBAA 220900Z AUTO 29002KT 3SM 25/19 A2941 RMK SLP013 T02480189 57022 IEM_DS3505
ZBAA,1992-06-22 10:00,ZBAA 221000Z AUTO 01008KT 4SM 23/18 A2944 RMK SLP019 T02300180 IEM_DS3505
ZBAA,1992-06-22 11:00,ZBAA 221100Z AUTO 02008KT 2 1/2SM 22/18 A2947 RMK SLP030 T02200180 IEM_DS3505
ZBAA,1992-06-22 12:00,ZBAA 221200Z AUTO 02006KT 1SM 21/18 A2950 RMK 60002 SLP041 T02120185 52027 IEM_DS3505
ZBAA,1992-06-22 13:00,ZBAA 221300Z AUTO 12006KT 7SM 18/17 A2950 RMK SLP041 T01800170 IEM_DS3505
ZBAA,1992-06-22 14:00,ZBAA 221400Z AUTO 02008KT 7SM 18/17 A2950 RMK SLP041 T01800170 IEM_DS3505
ZBAA,1992-06-22 15:00,ZBAA 221500Z AUTO 20004KT 2SM 19/18 A2954 RMK SLP053 T01920182 52012 IEM_DS3505
ZBAA,1992-06-22 16:00,ZBAA 221600Z AUTO 15006KT 7SM 19/18 A2950 RMK SLP041 T01900180 IEM_DS3505
ZBAA,1992-06-22 17:00,ZBAA 221700Z AUTO 05004KT 7SM 18/17 A2953 RMK SLP051 T01800170 IEM_DS3505
ZBAA,1992-06-22 18:00,ZBAA 221800Z AUTO 02004KT 2 1/2SM 18/17 A2962 RMK 60043 SLP041 T01800170 40250//// 57012 IEM_DS3505
ZBAA,1992-06-22 19:00,ZBAA 221900Z AUTO 03002KT 6SM 17/16 A2950 RMK SLP042 T01700160 IEM_DS3505
ZBAA,1992-06-22 20:00,ZBAA 222000Z AUTO 04004KT 6SM 17/16 A2950 RMK SLP042 T01700160 IEM_DS3505
ZBAA,1992-06-22 21:00,ZBAA 222100Z AUTO 04002KT 4SM 17/16 A2950 RMK 70043 SLP050 T01720159 52009 IEM_DS3505
ZBAA,1992-06-22 22:00,ZBAA 222200Z AUTO 29004KT 6SM 17/16 A2953 RMK SLP052 T01700160 IEM_DS3505
ZBAA,1992-06-22 23:00,ZBAA 222300Z AUTO 32002KT 6SM 18/17 A2953 RMK SLP051 T01800170 IEM_DS3505
ZBAA,1992-06-23 00:00,ZBAA 230000Z AUTO 00000KT 4SM 19/16 A2953 RMK 70043 SLP059 T01940163 52009 IEM_DS3505
ZBAA,1992-06-23 01:00,ZBAA 230100Z AUTO 12002KT 6SM 20/17 A2953 RMK SLP051 T02000170 IEM_DS3505
ZBAA,1992-06-23 02:00,ZBAA 230200Z AUTO 03002KT 7SM 20/16 A2953 RMK SLP051 T02000160 IEM_DS3505
ZBAA,1992-06-23 03:00,ZBAA 230300Z AUTO 34002KT 3SM 20/16 A2953 RMK SLP058 T02010165 57001 IEM_DS3505
ZBAA,1992-06-23 04:00,ZBAA 230400Z AUTO 16002KT 7SM RMK IEM_DS3505
ZBAA,1992-06-23 05:00,ZBAA 230500Z AUTO 13004KT 7SM RMK IEM_DS3505
ZBAA,1992-06-23 06:00,ZBAA 230600Z AUTO 11002KT 1 1/4SM 19/18 A2962 RMK 60020 SLP051 T01860180 4////0170 57007 IEM_DS3505
ZBAA,1992-06-23 07:00,ZBAA 230700Z AUTO 17004KT 2 1/2SM 19/19 A2953 RMK SLP051 T01900190 IEM_DS3505
ZBAA,1992-06-23 08:00,ZBAA 230800Z AUTO 15008KT 2 1/2SM 19/19 A2962 RMK SLP081 T01900190 IEM_DS3505
ZBAA,1992-06-23 09:00,ZBAA 230900Z AUTO 07002KT 2SM 20/18 A2962 RMK SLP043 T02030184 57008 IEM_DS3505
ZBAA,1992-06-23 10:00,ZBAA 231000Z AUTO 00000KT 5SM 20/20 A2953 RMK SLP051 T02000200 IEM_DS3505
ZBAA,1992-06-23 11:00,ZBAA 231100Z AUTO 07004KT 4SM 19/19 A2953 RMK SLP051 T01900190 IEM_DS3505
ZBAA,1992-06-23 12:00,ZBAA 231200Z AUTO 00000KT 1SM 19/18 A2953 RMK 60008 SLP053 T01930183 52010 IEM_DS3505
ZBAA,1992-06-23 13:00,ZBAA 231300Z AUTO 13002KT 2 1/2SM 19/19 A2953 RMK SLP051 T01900190 IEM_DS3505
ZBAA,1992-06-23 14:00,ZBAA 231400Z AUTO 15006KT 2 1/2SM 19/19 A2968 RMK T01900190 IEM_DS3505
ZBAA,1992-06-23 15:00,ZBAA 231500Z AUTO 18004KT 1 1/4SM 19/17 A2968 RMK SLP064 T01880173 52011 IEM_DS3505
ZBAA,1992-06-23 16:00,ZBAA 231600Z AUTO 14004KT 2 1/2SM 18/18 A2965 RMK SLP093 T01800180 IEM_DS3505
ZBAA,1992-06-23 17:00,ZBAA 231700Z AUTO 14002KT 2 1/2SM 18/18 A2968 RMK SLP103 T01800180 IEM_DS3505
ZBAA,1992-06-23 18:00,ZBAA 231800Z AUTO 18004KT 1 1/4SM 18/18 A2965 RMK 60000 SLP061 T01830177 40207//// 57003 IEM_DS3505
ZBAA,1992-06-23 19:00,ZBAA 231900Z AUTO 19002KT 2 1/2SM 18/18 A2965 RMK SLP093 T01800180 IEM_DS3505
ZBAA,1992-06-23 20:00,ZBAA 232000Z AUTO 03002KT 2SM 18/17 A2965 RMK SLP093 T01800170 IEM_DS3505
ZBAA,1992-06-23 21:00,ZBAA 232100Z AUTO 00000KT 1SM 18/17 A2968 RMK 70031 SLP060 T01760171 57001 IEM_DS3505
ZBAA,1992-06-23 22:00,ZBAA 232200Z AUTO 06002KT 2SM 18/18 A2968 RMK SLP103 T01800180 IEM_DS3505
ZBAA,1992-06-23 23:00,ZBAA 232300Z AUTO 11002KT 2SM 19/18 A2971 RMK SLP113 T01900180 IEM_DS3505
ZBAA,1992-06-24 00:00,ZBAA 240000Z AUTO 04002KT 1 1/4SM 20/17 A2971 RMK 70031 SLP067 T02000174 52007 IEM_DS3505
ZBAA,1992-06-24 01:00,ZBAA 240100Z AUTO 14004KT 2SM 21/18 A2971 RMK T02100180 IEM_DS3505
ZBAA,1992-06-24 02:00,ZBAA 240200Z AUTO 09004KT 2 1/2SM 22/18 A2971 RMK SLP112 T02200180 IEM_DS3505
ZBAA,1992-06-24 03:00,ZBAA 240300Z AUTO 18004KT 2 1/2SM 23/18 A2971 RMK SLP069 T02280175 52002 IEM_DS3505
ZBAA,1992-06-24 04:00,ZBAA 240400Z AUTO 16006KT 4SM 25/18 A2968 RMK SLP101 T02500180 IEM_DS3505
ZBAA,1992-06-24 05:00,ZBAA 240500Z AUTO 16004KT 7SM 26/18 A2968 RMK SLP101 T02600180 IEM_DS3505
ZBAA,1992-06-24 06:00,ZBAA 240600Z AUTO 20006KT 4SM 25/18 A2965 RMK SLP060 T02500179 4////0173 57009 IEM_DS3505
ZBAA,1992-06-24 07:00,ZBAA 240700Z AUTO 18004KT 7SM 28/18 A2965 RMK SLP090 T02800180 IEM_DS3505
ZBAA,1992-06-24 08:00,ZBAA 240800Z AUTO 17006KT 7SM 26/17 A2965 RMK SLP091 T02600170 IEM_DS3505
ZBAA,1992-06-24 09:00,ZBAA 240900Z AUTO 14004KT 6SM 26/18 A2962 RMK T02630180 57008 IEM_DS3505
ZBAA,1992-06-24 10:00,ZBAA 241000Z AUTO 19004KT 6SM 26/18 A2965 RMK SLP091 T02600180 IEM_DS3505
ZBAA,1992-06-24 11:00,ZBAA 241100Z AUTO 13002KT 7SM 25/18 A2968 RMK SLP101 T02500180 IEM_DS3505
ZBAA,1992-06-24 12:00,ZBAA 241200Z AUTO 11004KT 4SM 25/18 A2971 RMK SLP065 T02540175 52014 IEM_DS3505
ZBAA,1992-06-24 13:00,ZBAA 241300Z AUTO 04004KT 4SM 20/16 A2971 RMK T02000160 IEM_DS3505
ZBAA,1992-06-24 14:00,ZBAA 241400Z AUTO 00000KT 4SM 20/16 A2962 RMK SLP081 T02000160 IEM_DS3505
ZBAA,1992-06-24 15:00,ZBAA 241500Z AUTO 09004KT 3SM 21/16 A2962 RMK SLP086 T02140165 52020 IEM_DS3505
ZBAA,1992-06-24 16:00,ZBAA 241600Z AUTO 00000KT 4SM 19/17 A2965 RMK SLP092 T01900170 IEM_DS3505
ZBAA,1992-06-24 17:00,ZBAA 241700Z AUTO 18002KT 3SM 19/18 A2965 RMK SLP092 T01900180 IEM_DS3505
ZBAA,1992-06-24 18:00,ZBAA 241800Z AUTO 11004KT 2 1/2SM 21/16 A2965 RMK SLP092 T02120159 40266//// 52007 IEM_DS3505
ZBAA,1992-06-24 19:00,ZBAA 241900Z AUTO 14004KT 2 1/2SM 19/18 A2965 RMK SLP092 T01900180 IEM_DS3505
ZBAA,1992-06-24 20:00,ZBAA 242000Z AUTO 14004KT 2 1/2SM 18/17 A2968 RMK SLP103 T01800170 IEM_DS3505
ZBAA,1992-06-24 21:00,ZBAA 242100Z AUTO 11002KT 1SM 20/18 A2968 RMK SLP109 T01960177 52016 IEM_DS3505
ZBAA,1992-06-24 22:00,ZBAA 242200Z AUTO 16004KT 2 1/2SM 18/17 A2971 RMK SLP113 T01800170 IEM_DS3505
ZBAA,1992-06-24 23:00,ZBAA 242300Z AUTO 20002KT 3SM 19/17 A2971 RMK SLP113 T01900170 IEM_DS3505
ZBAA,1992-06-25 00:00,ZBAA 250000Z AUTO 00000KT 3SM 20/17 A2974 RMK SLP124 T02040166 52015 IEM_DS3505
ZBAA,1992-06-25 01:00,ZBAA 250100Z AUTO 16002KT 3SM 20/17 A2974 RMK SLP122 T02000170 IEM_DS3505
ZBAA,1992-06-25 03:00,ZBAA 250300Z AUTO 11004KT 2SM 24/17 A2974 RMK SLP122 T02380171 57002 IEM_DS3505
ZBAA,1992-06-25 04:00,ZBAA 250400Z AUTO 11004KT 4SM 26/19 A2971 RMK SLP111 T02600190 IEM_DS3505
ZBAA,1992-06-25 05:00,ZBAA 250500Z AUTO 20006KT 4SM 27/18 A2971 RMK SLP111 T02700180 IEM_DS3505
ZBAA,1992-06-25 06:00,ZBAA 250600Z AUTO 18006KT 4SM 26/17 A2968 RMK SLP109 T02620173 4////0191 57012 IEM_DS3505
ZBAA,1992-06-25 08:00,ZBAA 250800Z AUTO 18006KT 4SM 27/18 A2965 RMK SLP091 T02700180 IEM_DS3505
ZBAA,1992-06-25 09:00,ZBAA 250900Z AUTO 18004KT 5SM 27/17 A2965 RMK SLP096 T02680166 57013 IEM_DS3505
ZBAA,1992-06-25 10:00,ZBAA 251000Z AUTO 18006KT 4SM 26/17 A2965 RMK SLP091 T02600170 IEM_DS3505
ZBAA,1992-06-25 11:00,ZBAA 251100Z AUTO 16006KT 4SM 26/17 A2968 RMK SLP101 T02600170 IEM_DS3505
ZBAA,1992-06-25 12:00,ZBAA 251200Z AUTO 18004KT 5SM 25/17 A2968 RMK SLP102 T02510168 52005 IEM_DS3505
ZBAA,1992-06-25 13:00,ZBAA 251300Z AUTO 14002KT 4SM 23/17 A2971 RMK SLP112 T02300170 IEM_DS3505
ZBAA,1992-06-25 14:00,ZBAA 251400Z AUTO 14004KT 3SM 23/18 A2983 RMK T02300180 IEM_DS3505
ZBAA,1992-06-25 15:00,ZBAA 251500Z AUTO 20004KT 6SM 22/17 A2983 RMK SLP113 T02250174 52011 IEM_DS3505
ZBAA,1992-06-25 16:00,ZBAA 251600Z AUTO 00000KT 2SM 21/18 A2983 RMK SLP152 T02100180 IEM_DS3505
ZBAA,1992-06-25 17:00,ZBAA 251700Z AUTO 09002KT 2SM 20/18 A2983 RMK SLP153 T02000180 IEM_DS3505
ZBAA,1992-06-25 18:00,ZBAA 251800Z AUTO 20004KT 6SM 21/17 RMK SLP108 T02130167 40274//// 57004 IEM_DS3505
ZBAA,1992-06-25 19:00,ZBAA 251900Z AUTO 11004KT 1 1/2SM 19/18 A2983 RMK T01900180 IEM_DS3505
ZBAA,1992-06-25 20:00,ZBAA 252000Z AUTO 12002KT 1 1/2SM 19/18 A2980 RMK SLP143 T01900180 IEM_DS3505
ZBAA,1992-06-25 21:00,ZBAA 252100Z AUTO 00000KT 4SM 19/17 A2970 RMK SLP109 T01910170 54000 IEM_DS3505
ZBAA,1992-06-25 22:00,ZBAA 252200Z AUTO 00000KT 1 1/4SM 19/18 A2983 RMK T01900180 IEM_DS3505
ZBAA,1992-06-25 23:00,ZBAA 252300Z AUTO 00000KT 2SM 20/19 A2983 RMK SLP153 T02000190 IEM_DS3505
ZBAA,1992-06-26 00:00,ZBAA 260000Z AUTO 18002KT 4SM 23/16 RMK SLP110 T02260162 52002 IEM_DS3505
ZBAA,1992-06-26 01:00,ZBAA 260100Z AUTO 18002KT 4SM 24/17 A2983 RMK T02400170 IEM_DS3505
ZBAA,1992-06-26 02:00,ZBAA 260200Z AUTO 25004KT 4SM 25/18 A2983 RMK SLP151 T02500180 IEM_DS3505
ZBAA,1992-06-26 03:00,ZBAA 260300Z AUTO 22006KT 4SM 25/16 A2980 RMK SLP108 T02460165 57002 IEM_DS3505
ZBAA,1992-06-26 04:00,ZBAA 260400Z AUTO 18004KT 6SM 26/18 A2980 RMK SLP141 T02600180 IEM_DS3505
ZBAA,1992-06-26 05:00,ZBAA 260500Z AUTO 21006KT 4SM 26/17 A2980 RMK SLP141 T02600170 IEM_DS3505
ZBAA,1992-06-26 06:00,ZBAA 260600Z AUTO 20006KT 4SM 26/17 A2977 RMK SLP131 T02600170 IEM_DS3505
ZBAA,1992-06-26 07:00,ZBAA 260700Z AUTO 18008KT 4SM 26/18 A2977 RMK SLP131 T02600180 IEM_DS3505
ZBAA,1992-06-26 08:00,ZBAA 260800Z AUTO 19006KT 4SM 27/18 A2974 RMK SLP121 T02700180 IEM_DS3505
ZBAA,1992-06-26 09:00,ZBAA 260900Z AUTO 18006KT 6SM 26/15 A2965 RMK SLP090 T02620154 57014 IEM_DS3505
ZBAA,1992-06-26 10:00,ZBAA 261000Z AUTO 18006KT 6SM 26/17 A2974 RMK SLP121 T02600170 IEM_DS3505
ZBAA,1992-06-26 11:00,ZBAA 261100Z AUTO 19004KT 6SM 25/16 A2974 RMK SLP121 T02500160 IEM_DS3505
ZBAA,1992-06-26 12:00,ZBAA 261200Z AUTO 14002KT 5SM 25/17 A2977 RMK SLP093 T02530174 52004 IEM_DS3505
ZBAA,1992-06-26 13:00,ZBAA 261300Z AUTO 15004KT 5SM 24/18 A2977 RMK SLP132 T02400180 IEM_DS3505
ZBAA,1992-06-26 14:00,ZBAA 261400Z AUTO 15006KT 5SM 23/18 A2980 RMK SLP142 T02300180 IEM_DS3505
ZBAA,1992-06-26 15:00,ZBAA 261500Z AUTO 16004KT 3SM 23/17 A2980 RMK T02330169 52008 IEM_DS3505
ZBAA,1992-06-26 16:00,ZBAA 261600Z AUTO 12002KT 5SM 21/18 A2980 RMK SLP142 T02100180 IEM_DS3505
ZBAA,1992-06-26 18:00,ZBAA 261800Z AUTO 16002KT 4SM 21/17 A2980 RMK SLP101 T02110174 40269//// 57001 IEM_DS3505
ZBAA,1992-06-26 19:00,ZBAA 261900Z AUTO 11002KT 4SM 20/18 A2977 RMK SLP132 T02000180 IEM_DS3505
ZBAA,1992-06-26 21:00,ZBAA 262100Z AUTO 00000KT 2 1/2SM 20/18 A2980 RMK SLP104 T02040185 52004 IEM_DS3505
ZBAA,1992-06-26 23:00,ZBAA 262300Z AUTO 22004KT 2 1/2SM 21/19 A2980 RMK SLP142 T02100190 IEM_DS3505
ZBAA,1992-06-27 00:00,ZBAA 270000Z AUTO 18006KT 2 1/2SM 22/18 A2980 RMK SLP102 T02220184 57002 IEM_DS3505
ZBAA,1992-06-27 01:00,ZBAA 270100Z AUTO 17004KT 4SM 24/18 A2983 RMK T02400180 IEM_DS3505
ZBAA,1992-06-27 02:00,ZBAA 270200Z AUTO 10004KT 6SM 25/17 A2980 RMK SLP141 T02500170 IEM_DS3505
ZBAA,1992-06-27 03:00,ZBAA 270300Z AUTO 18004KT 1 1/4SM 26/18 A2980 RMK SLP105 T02550180 52003 IEM_DS3505
ZBAA,1992-06-27 04:00,ZBAA 270400Z AUTO 13006KT 6SM 28/16 A2980 RMK SLP141 T02800160 IEM_DS3505
ZBAA,1992-06-27 05:00,ZBAA 270500Z AUTO 18006KT 6SM 28/17 A2977 RMK SLP131 T02800170 IEM_DS3505
ZBAA,1992-06-27 06:00,ZBAA 270600Z AUTO 14004KT 1 1/4SM 27/17 A2977 RMK SLP092 T02740168 4////0201 57013 IEM_DS3505
ZBAA,1992-06-27 07:00,ZBAA 270700Z AUTO 19006KT 6SM 29/18 A2974 RMK SLP120 T02900180 IEM_DS3505
ZBAA,1992-06-27 08:00,ZBAA 270800Z AUTO 18008KT 6SM 29/18 A2971 RMK SLP110 T02900180 IEM_DS3505
ZBAA,1992-06-27 09:00,ZBAA 270900Z AUTO 18008KT 5SM 28/17 A2961 RMK SLP075 T02800173 57017 IEM_DS3505
ZBAA,1992-06-27 10:00,ZBAA 271000Z AUTO 17006KT 6SM 28/18 A2971 RMK SLP111 T02800180 IEM_DS3505
ZBAA,1992-06-27 11:00,ZBAA 271100Z AUTO 16006KT 6SM 27/18 A2971 RMK SLP111 T02700180 IEM_DS3505
ZBAA,1992-06-27 12:00,ZBAA 271200Z AUTO 16002KT 4SM 27/18 A2974 RMK SLP080 T02670176 52005 IEM_DS3505
ZBAA,1992-06-27 13:00,ZBAA 271300Z AUTO 15004KT 6SM 26/18 A2977 RMK T02600180 IEM_DS3505
ZBAA,1992-06-27 14:00,ZBAA 271400Z AUTO 16006KT 6SM 24/18 A2977 RMK SLP132 T02400180 IEM_DS3505
ZBAA,1992-06-27 15:00,ZBAA 271500Z AUTO 18004KT 3SM 24/18 A2977 RMK T02410179 52011 IEM_DS3505
ZBAA,1992-06-27 16:00,ZBAA 271600Z AUTO 11002KT 6SM 22/18 A2977 RMK SLP132 T02200180 IEM_DS3505
ZBAA,1992-06-27 18:00,ZBAA 271800Z AUTO 18002KT 3SM 23/18 A2977 RMK SLP095 T02320176 40286//// 52004 IEM_DS3505
ZBAA,1992-06-27 19:00,ZBAA 271900Z AUTO 11004KT 4SM 21/19 A2977 RMK SLP132 T02100190 IEM_DS3505
ZBAA,1992-06-27 20:00,ZBAA 272000Z AUTO 18002KT 3SM A2966 RMK SLP095 52004 IEM_DS3505
ZBAA,1992-06-27 21:00,ZBAA 272100Z AUTO 00000KT 4SM 21/18 A2977 RMK SLP094 T02080183 57001 IEM_DS3505
ZBAA,1992-06-27 22:00,ZBAA 272200Z AUTO 14004KT 1 1/4SM 21/20 A2977 RMK SLP132 T02100200 IEM_DS3505
ZBAA,1992-06-27 23:00,ZBAA 272300Z AUTO 15004KT 1 1/4SM 22/20 A2980 RMK SLP142 T02200200 IEM_DS3505
ZBAA,1992-06-28 00:00,ZBAA 280000Z AUTO 18002KT 4SM 23/18 A2980 RMK SLP100 T02280180 52006 IEM_DS3505
ZBAA,1992-06-28 01:00,ZBAA 280100Z AUTO 18002KT 2SM 24/19 A2980 RMK T02400190 IEM_DS3505
ZBAA,1992-06-28 02:00,ZBAA 280200Z AUTO 16004KT 2SM 26/20 A2977 RMK SLP131 T02600200 IEM_DS3505
ZBAA,1992-06-28 03:00,ZBAA 280300Z AUTO 11004KT 4SM 26/18 A2977 RMK SLP094 T02650181 57006 IEM_DS3505
ZBAA,1992-06-28 04:00,ZBAA 280400Z AUTO 15004KT 4SM 29/18 A2974 RMK SLP120 T02900180 IEM_DS3505
ZBAA,1992-06-28 05:00,ZBAA 280500Z AUTO 20008KT 6SM 29/17 A2971 RMK SLP110 T02900170 IEM_DS3505
ZBAA,1992-06-28 06:00,ZBAA 280600Z AUTO 18002KT 6SM 29/17 A2968 RMK SLP067 T02890167 4////0205 57027 IEM_DS3505
ZBAA,1992-06-28 07:00,ZBAA 280700Z AUTO 18008KT 6SM 30/18 A2965 RMK SLP090 T03000180 IEM_DS3505
ZBAA,1992-06-28 08:00,ZBAA 280800Z AUTO 18008KT 6SM 30/18 A2965 RMK SLP090 T03000180 IEM_DS3505
ZBAA,1992-06-28 09:00,ZBAA 280900Z AUTO 18002KT 6SM 29/17 A2958 RMK SLP067 T02890167 57027 IEM_DS3505
ZBAA,1992-06-28 10:00,ZBAA 281000Z AUTO 13004KT 6SM 29/18 A2965 RMK SLP090 T02900180 IEM_DS3505
ZBAA,1992-06-28 11:00,ZBAA 281100Z AUTO 10004KT 7SM 28/19 A2965 RMK SLP090 T02800190 IEM_DS3505
ZBAA,1992-06-28 12:00,ZBAA 281200Z AUTO 02014KT 1SM 20/18 A2971 RMK 60000 SLP074 T02050181 52016 IEM_DS3505
ZBAA,1992-06-28 13:00,ZBAA 281300Z AUTO 06006KT 3SM 19/19 A2971 RMK SLP113 T01900190 IEM_DS3505
ZBAA,1992-06-28 14:00,ZBAA 281400Z AUTO 24002KT 4SM 19/19 A2971 RMK SLP113 T01900190 IEM_DS3505
ZBAA,1992-06-28 15:00,ZBAA 281500Z AUTO 00000KT 4SM 20/18 A2958 RMK SLP067 T02040178 57006 IEM_DS3505
ZBAA,1992-06-28 16:00,ZBAA 281600Z AUTO 22004KT 4SM 19/19 A2968 RMK SLP102 T01900190 IEM_DS3505
ZBAA,1992-06-28 17:00,ZBAA 281700Z AUTO 36002KT 4SM 19/19 A2968 RMK SLP102 T01900190 IEM_DS3505
ZBAA,1992-06-28 18:00,ZBAA 281800Z AUTO 18002KT 4SM 21/18 A2957 RMK 60012 SLP062 T02060184 40297//// 57005 IEM_DS3505
ZBAA,1992-06-28 20:00,ZBAA 282000Z AUTO 04002KT 6SM 19/19 A2965 RMK SLP092 T01900190 IEM_DS3505
ZBAA,1992-06-28 21:00,ZBAA 282100Z AUTO 36002KT 4SM 20/19 A2965 RMK 70012 SLP060 T02000186 57002 IEM_DS3505
ZBAA,1992-06-28 22:00,ZBAA 282200Z AUTO 36004KT 6SM 19/19 A2965 RMK SLP092 T01900190 IEM_DS3505
ZBAA,1992-06-28 23:00,ZBAA 282300Z AUTO 01002KT 6SM 20/20 A2968 RMK SLP102 T02000200 IEM_DS3505
ZBAA,1992-06-29 00:00,ZBAA 290000Z AUTO 04002KT 5SM 23/18 A2968 RMK 70012 SLP062 T02260180 52001 IEM_DS3505
ZBAA,1992-06-29 01:00,ZBAA 290100Z AUTO 05002KT 7SM 23/19 A2965 RMK SLP092 T02300190 IEM_DS3505
ZBAA,1992-06-29 02:00,ZBAA 290200Z AUTO 13002KT 6SM 26/19 A2965 RMK SLP091 T02600190 IEM_DS3505
ZBAA,1992-06-29 03:00,ZBAA 290300Z AUTO 14002KT 4SM 26/18 A2962 RMK SLP053 T02650179 57008 IEM_DS3505
ZBAA,1992-06-29 04:00,ZBAA 290400Z AUTO 16006KT 6SM 28/21 A2962 RMK SLP079 T02800210 IEM_DS3505
ZBAA,1992-06-29 05:00,ZBAA 290500Z AUTO 16006KT 6SM 29/21 A2959 RMK SLP069 T02900210 IEM_DS3505
ZBAA,1992-06-29 06:00,ZBAA 290600Z AUTO 14006KT 6SM 29/20 A2959 RMK SLP034 T02880201 4////0193 57019 IEM_DS3505
ZBAA,1992-06-29 07:00,ZBAA 290700Z AUTO 17008KT 6SM 30/21 A2953 RMK SLP049 T03000210 IEM_DS3505
ZBAA,1992-06-29 08:00,ZBAA 290800Z AUTO 20008KT 6SM 29/21 A2953 RMK SLP049 T02900210 IEM_DS3505
ZBAA,1992-06-29 09:00,ZBAA 290900Z AUTO 22006KT 6SM 30/19 A2941 RMK SLP010 T03020193 57024 IEM_DS3505
ZBAA,1992-06-29 10:00,ZBAA 291000Z AUTO 15004KT 4SM 29/21 A2950 RMK SLP039 T02900210 IEM_DS3505
ZBAA,1992-06-29 11:00,ZBAA 291100Z AUTO 06004KT 2 1/2SM 27/22 A2950 RMK SLP039 T02700220 IEM_DS3505
ZBAA,1992-06-29 12:00,ZBAA 291200Z AUTO 09006G21KT 19SM 19/18 A2956 RMK 60016 SLP029 T01920179 52018 IEM_DS3505
ZBAA,1992-06-29 13:00,ZBAA 291300Z AUTO 06004KT 7SM 20/19 A2956 RMK SLP061 T02000190 IEM_DS3505
ZBAA,1992-06-29 14:00,ZBAA 291400Z AUTO 28004KT 6SM 20/20 A2959 RMK SLP071 T02000200 IEM_DS3505
ZBAA,1992-06-29 15:00,ZBAA 291500Z AUTO 09002KT 19SM 20/18 A2946 RMK SLP028 T01990180 54000 IEM_DS3505
ZBAA,1992-06-29 16:00,ZBAA 291600Z AUTO 32004KT 6SM 19/19 A2956 RMK SLP061 T01900190 IEM_DS3505
ZBAA,1992-06-29 17:00,ZBAA 291700Z AUTO 00000KT 4SM 19/18 A2953 RMK SLP051 T01900180 IEM_DS3505
ZBAA,1992-06-29 18:00,ZBAA 291800Z AUTO 00000KT 12SM 19/18 A2950 RMK SLP013 T01900180 40302//// 57015 IEM_DS3505
ZBAA,1992-06-29 19:00,ZBAA 291900Z AUTO 26002KT 3SM 18/18 A2950 RMK SLP041 T01800180 IEM_DS3505
ZBAA,1992-06-29 20:00,ZBAA 292000Z AUTO 34002KT 3SM 18/18 A2947 RMK SLP031 T01800180 IEM_DS3505
ZBAA,1992-06-29 21:00,ZBAA 292100Z AUTO 00000KT 5SM 18/18 A2947 RMK 70016 SLP001 T01810176 57012 IEM_DS3505
ZBAA,1992-06-29 22:00,ZBAA 292200Z AUTO 00000KT 4SM 19/18 A2950 RMK SLP041 T01900180 IEM_DS3505
ZBAA,1992-06-29 23:00,ZBAA 292300Z AUTO 18002KT 4SM 20/19 A2950 RMK SLP041 T02000190 IEM_DS3505
ZBAA,1992-06-30 00:00,ZBAA 300000Z AUTO 22002KT 4SM 22/18 A2939 RMK 70016 SLP003 T02230180 52002 IEM_DS3505
ZBAA,1992-06-30 01:00,ZBAA 300100Z AUTO 00000KT 7SM 23/19 A2950 RMK SLP040 T02300190 IEM_DS3505
ZBAA,1992-06-30 02:00,ZBAA 300200Z AUTO 02002KT 7SM 26/20 A2950 RMK SLP040 T02600200 IEM_DS3505
ZBAA,1992-06-30 03:00,ZBAA 300300Z AUTO 00000KT 6SM 27/17 A2939 RMK SLP002 T02740174 57001 IEM_DS3505
ZBAA,1992-06-30 04:00,ZBAA 300400Z AUTO 30010KT 6SM 30/16 A2947 RMK SLP029 T03000160 IEM_DS3505
ZBAA,1992-06-30 05:00,ZBAA 300500Z AUTO 30014KT 6SM 31/15 A2947 RMK SLP028 T03100150 IEM_DS3505
ZBAA,1992-06-30 06:00,ZBAA 300600Z AUTO 32008KT 19SM 31/08 A2944 RMK SLP991 T03120084 4////0178 57010 IEM_DS3505
ZBAA,1992-06-30 07:00,ZBAA 300700Z AUTO 33012KT 6SM 31/11 A2944 RMK SLP017 T03100110 IEM_DS3505
ZBAA,1992-06-30 08:00,ZBAA 300800Z AUTO 34010KT 6SM 31/11 A2941 RMK SLP007 T03100110 IEM_DS3505
ZBAA,1992-06-30 09:00,ZBAA 300900Z AUTO 32008KT 19SM 32/07 A2941 RMK SLP982 T03220074 57009 IEM_DS3505
ZBAA,1992-06-30 10:00,ZBAA 301000Z AUTO 35010KT 6SM 31/10 A2941 RMK SLP007 T03100100 IEM_DS3505
ZBAA,1992-06-30 11:00,ZBAA 301100Z AUTO 33004KT 6SM 29/10 A2941 RMK SLP008 T02900100 IEM_DS3505
ZBAA,1992-06-30 12:00,ZBAA 301200Z AUTO 07002KT 16SM 27/14 A2941 RMK SLP982 T02660144 54000 IEM_DS3505
ZBAA,1992-06-30 13:00,ZBAA 301300Z AUTO 24006KT 7SM 24/17 A2944 RMK SLP019 T02400170 IEM_DS3505
ZBAA,1992-06-30 14:00,ZBAA 301400Z AUTO 23006KT 7SM 25/14 A2944 RMK SLP019 T02500140 IEM_DS3505
ZBAA,1992-06-30 15:00,ZBAA 301500Z AUTO 22002KT 12SM 22/16 A2941 RMK SLP983 T02180155 52001 IEM_DS3505
ZBAA,1992-06-30 16:00,ZBAA 301600Z AUTO 29006KT 7SM 23/15 A2941 RMK SLP009 T02300150 IEM_DS3505
ZBAA,1992-06-30 17:00,ZBAA 301700Z AUTO 01006KT 7SM 21/13 A2944 RMK SLP020 T02100130 IEM_DS3505
ZBAA,1992-06-30 18:00,ZBAA 301800Z AUTO 09002KT 19SM 22/12 A2944 RMK SLP984 T02210124 40323//// 52001 IEM_DS3505
ZBAA,1992-06-30 18:18,ZBAA 301818Z AUTO 32006KT 6SM RMK IEM_DS3505
ZBAA,1992-06-30 19:00,ZBAA 301900Z AUTO 35004KT 7SM 20/13 A2944 RMK SLP020 T02000130 IEM_DS3505
ZBAA,1992-06-30 20:00,ZBAA 302000Z AUTO 32002KT 7SM 20/13 A2944 RMK SLP020 T02000130 IEM_DS3505
ZBAA,1992-06-30 21:00,ZBAA 302100Z AUTO 07004KT 19SM 19/14 A2934 RMK SLP988 T01880142 52004 IEM_DS3505
ZBAA,1992-06-30 22:00,ZBAA 302200Z AUTO 32004KT 7SM 20/14 A2944 RMK SLP020 T02000140 IEM_DS3505
ZBAA,1992-06-30 23:00,ZBAA 302300Z AUTO 31002KT 7SM 22/14 A2944 RMK SLP019 T02200140 IEM_DS3505
ZBAA,1992-07-01 00:00,ZBAA 010000Z AUTO 02006KT 12SM 26/14 A2947 RMK SLP992 T02650139 52004 IEM_DS3505
ZBAA,1992-07-01 01:00,ZBAA 010100Z AUTO 30008KT 7SM 28/15 A2944 RMK SLP983 T02800150 IEM_DS3505
ZBAA,1992-07-01 02:00,ZBAA 010200Z AUTO 30008KT 7SM 30/13 A2944 RMK SLP982 T03000130 IEM_DS3505
ZBAA,1992-07-01 03:00,ZBAA 010300Z AUTO 27006KT 19SM 33/11 A2944 RMK SLP986 T03260109 57006 IEM_DS3505
ZBAA,1992-07-01 04:00,ZBAA 010400Z AUTO 07010KT 7SM 32/15 A2944 RMK SLP982 T03200150 IEM_DS3505
ZBAA,1992-07-01 05:00,ZBAA 010500Z AUTO 34017KT 7SM 34/08 A2941 RMK SLP972 T03400080 IEM_DS3505
ZBAA,1992-07-01 06:00,ZBAA 010600Z AUTO 36008KT 19SM 34/10 A2941 RMK SLP977 T03390102 4////0186 57009 IEM_DS3505
ZBAA,1992-07-01 07:00,ZBAA 010700Z AUTO 35016KT 7SM 34/06 A2938 RMK SLP961 T03400060 IEM_DS3505
ZBAA,1992-07-01 08:00,ZBAA 010800Z AUTO 00000KT 7SM 35/07 A2938 RMK SLP961 T03500070 IEM_DS3505
ZBAA,1992-07-01 09:00,ZBAA 010900Z AUTO 36006KT 16SM 35/10 A2935 RMK SLP966 T03460101 57011 IEM_DS3505
ZBAA,1992-07-01 10:00,ZBAA 011000Z AUTO 36010KT 7SM 34/08 A2935 RMK SLP951 T03400080 IEM_DS3505
ZBAA,1992-07-01 11:00,ZBAA 011100Z AUTO 08002KT 7SM 31/11 A2935 RMK SLP952 T03100110 IEM_DS3505
ZBAA,1992-07-01 12:00,ZBAA 011200Z AUTO 16002KT 12SM 30/13 A2935 RMK SLP957 T03020134 57009 IEM_DS3505
ZBAA,1992-07-01 13:00,ZBAA 011300Z AUTO 18004KT 6SM 26/15 A2938 RMK SLP963 T02600150 IEM_DS3505
ZBAA,1992-07-01 14:00,ZBAA 011400Z AUTO 33012G27KT 7SM 26/15 A2941 RMK SLP973 T02600150 IEM_DS3505
ZBAA,1992-07-01 15:00,ZBAA 011500Z AUTO 07002KT 11SM 25/18 A2944 RMK SLP988 T02490185 52031 IEM_DS3505
ZBAA,1992-07-01 16:00,ZBAA 011600Z AUTO 02002KT 7SM 23/18 A2947 RMK SLP994 T02300180 IEM_DS3505
ZBAA,1992-07-01 17:00,ZBAA 011700Z AUTO 04008KT 7SM 23/14 A2947 RMK SLP994 T02300140 IEM_DS3505
ZBAA,1992-07-01 18:00,ZBAA 011800Z AUTO 02004KT 12SM 24/13 A2947 RMK 60000 SLP001 T02430129 40350//// 52013 IEM_DS3505
ZBAA,1992-07-01 19:00,ZBAA 011900Z AUTO 01006KT 7SM 21/15 A2950 RMK SLP004 T02100150 IEM_DS3505
ZBAA,1992-07-01 20:00,ZBAA 012000Z AUTO 36002KT 6SM 20/15 A2950 RMK SLP005 T02000150 IEM_DS3505
ZBAA,1992-07-01 21:00,ZBAA 012100Z AUTO 04002KT 19SM 22/14 A2950 RMK 70001 SLP006 T02160140 52005 IEM_DS3505
ZBAA,1992-07-01 22:00,ZBAA 012200Z AUTO 01004KT 6SM 20/16 A2953 RMK SLP015 T02000160 IEM_DS3505
ZBAA,1992-07-01 23:00,ZBAA 012300Z AUTO 35006KT 7SM 21/16 A2953 RMK SLP014 T02100160 IEM_DS3505
ZBAA,1992-07-02 00:00,ZBAA 020000Z AUTO 04002KT 19SM 25/14 A2954 RMK 70001 SLP016 T02540141 52010 IEM_DS3505
ZBAA,1992-07-02 01:00,ZBAA 020100Z AUTO 02006KT 7SM 26/15 A2956 RMK SLP023 T02600150 IEM_DS3505
ZBAA,1992-07-02 02:00,ZBAA 020200Z AUTO 03008KT 7SM 28/14 A2956 RMK SLP023 T02800140 IEM_DS3505
ZBAA,1992-07-02 03:00,ZBAA 020300Z AUTO 04004KT 19SM 28/13 A2953 RMK SLP014 T02820134 57002 IEM_DS3505
ZBAA,1992-07-02 04:00,ZBAA 020400Z AUTO 03010KT 7SM 30/13 A2953 RMK SLP013 T03000130 IEM_DS3505
ZBAA,1992-07-02 05:00,ZBAA 020500Z AUTO 05008KT 7SM 31/14 A2953 RMK SLP012 T03100140 IEM_DS3505
ZBAA,1992-07-02 06:00,ZBAA 020600Z AUTO 09006KT 19SM 32/12 A2950 RMK SLP009 T03160115 4////0209 57005 IEM_DS3505
ZBAA,1992-07-02 07:00,ZBAA 020700Z AUTO 06012KT 7SM 32/15 A2950 RMK SLP002 T03200150 IEM_DS3505
ZBAA,1992-07-02 08:00,ZBAA 020800Z AUTO 06010KT 7SM 32/13 A2950 RMK SLP002 T03200130 IEM_DS3505
ZBAA,1992-07-02 09:00,ZBAA 020900Z AUTO 09006KT 19SM 32/11 A2950 RMK SLP006 T03190112 57003 IEM_DS3505
ZBAA,1992-07-02 10:00,ZBAA 021000Z AUTO 07008KT 7SM 31/13 A2950 RMK SLP002 T03100130 IEM_DS3505
ZBAA,1992-07-02 11:00,ZBAA 021100Z AUTO 08004KT 7SM 30/13 A2950 RMK SLP003 T03000130 IEM_DS3505
ZBAA,1992-07-02 12:00,ZBAA 021200Z AUTO 00000KT 19SM 30/14 A2953 RMK SLP014 T02970137 52008 IEM_DS3505
ZBAA,1992-07-02 13:00,ZBAA 021300Z AUTO 13002KT 7SM 28/14 A2956 RMK SLP023 T02800140 IEM_DS3505
ZBAA,1992-07-02 14:00,ZBAA 021400Z AUTO 16002KT 6SM 26/15 A2956 RMK SLP023 T02600150 IEM_DS3505
ZBAA,1992-07-02 15:00,ZBAA 021500Z AUTO 18006KT 19SM 26/15 A2959 RMK SLP032 T02630148 52018 IEM_DS3505
ZBAA,1992-07-02 16:00,ZBAA 021600Z AUTO 11004KT 7SM 24/16 A2962 RMK SLP045 T02400160 IEM_DS3505
ZBAA,1992-07-02 17:00,ZBAA 021700Z AUTO 11004KT 7SM 22/17 A2962 RMK SLP045 T02200170 IEM_DS3505
ZBAA,1992-07-02 18:00,ZBAA 021800Z AUTO 02002KT 9SM 24/15 A2960 RMK SLP038 T02370153 40324//// 52006 IEM_DS3505
ZBAA,1992-07-02 19:00,ZBAA 021900Z AUTO 13004KT 7SM 21/16 A2962 RMK SLP046 T02100160 IEM_DS3505
ZBAA,1992-07-02 20:00,ZBAA 022000Z AUTO 10002KT 7SM 20/16 A2962 RMK SLP046 T02000160 IEM_DS3505
ZBAA,1992-07-02 21:00,ZBAA 022100Z AUTO 34002KT 11SM 21/18 A2962 RMK SLP043 T02090177 52005 IEM_DS3505
ZBAA,1992-07-02 22:00,ZBAA 022200Z AUTO 00000KT 7SM 20/17 A2962 RMK SLP046 T02000170 IEM_DS3505
ZBAA,1992-07-02 23:00,ZBAA 022300Z AUTO 06004KT 7SM 22/17 A2962 RMK SLP045 T02200170 IEM_DS3505
ZBAA,1992-07-03 00:00,ZBAA 030000Z AUTO 34004KT 6SM 24/17 A2963 RMK SLP047 T02390168 52004 IEM_DS3505
ZBAA,1992-07-03 01:00,ZBAA 030100Z AUTO 02004KT 6SM 26/17 A2962 RMK SLP045 T02600170 IEM_DS3505
ZBAA,1992-07-03 02:00,ZBAA 030200Z AUTO 01002KT 6SM 27/17 A2962 RMK SLP044 T02700170 IEM_DS3505
ZBAA,1992-07-03 03:00,ZBAA 030300Z AUTO 09004KT 6SM 29/17 A2959 RMK SLP040 T02880168 57007 IEM_DS3505
ZBAA,1992-07-03 04:00,ZBAA 030400Z AUTO 11002KT 6SM 30/18 A2959 RMK SLP034 T03000180 IEM_DS3505
ZBAA,1992-07-03 05:00,ZBAA 030500Z AUTO 22006KT 6SM 31/18 A2956 RMK SLP022 T03100180 IEM_DS3505
ZBAA,1992-07-03 06:00,ZBAA 030600Z AUTO 20002KT 7SM 32/16 A2956 RMK SLP021 T03240164 4////0205 57019 IEM_DS3505
ZBAA,1992-07-03 07:00,ZBAA 030700Z AUTO 20006KT 6SM 32/19 A2953 RMK SLP012 T03200190 IEM_DS3505
ZBAA,1992-07-03 08:00,ZBAA 030800Z AUTO 20004KT 6SM 33/17 A2950 RMK SLP002 T03300170 IEM_DS3505
ZBAA,1992-07-03 09:00,ZBAA 030900Z AUTO 18006KT 9SM 33/14 A2950 RMK SLP006 T03320137 57015 IEM_DS3505
ZBAA,1992-07-03 10:00,ZBAA 031000Z AUTO 18006KT 6SM 32/15 A2950 RMK SLP002 T03200150 IEM_DS3505
ZBAA,1992-07-03 11:00,ZBAA 031100Z AUTO 18006KT 6SM 31/15 A2950 RMK SLP002 T03100150 IEM_DS3505
ZBAA,1992-07-03 12:00,ZBAA 031200Z AUTO 20004KT 12SM 31/15 A2951 RMK SLP008 T03090146 52002 IEM_DS3505
ZBAA,1992-07-03 13:00,ZBAA 031300Z AUTO 19004KT 6SM 29/17 A2953 RMK SLP013 T02900170 IEM_DS3505
ZBAA,1992-07-03 14:00,ZBAA 031400Z AUTO 19006KT 6SM 28/16 A2953 RMK SLP013 T02800160 IEM_DS3505
ZBAA,1992-07-03 15:00,ZBAA 031500Z AUTO 16004KT 12SM 28/16 A2956 RMK SLP017 T02760157 52009 IEM_DS3505
ZBAA,1992-07-03 16:00,ZBAA 031600Z AUTO 19006KT 6SM 26/17 A2956 RMK SLP023 T02600170 IEM_DS3505
ZBAA,1992-07-03 17:00,ZBAA 031700Z AUTO 21004KT 6SM 25/16 A2956 RMK SLP024 T02500160 IEM_DS3505
ZBAA,1992-07-03 18:00,ZBAA 031800Z AUTO 22004KT 9SM 26/16 A2959 RMK SLP024 T02580161 40337//// 52007 IEM_DS3505
ZBAA,1992-07-03 19:00,ZBAA 031900Z AUTO 13002KT 6SM 24/16 A2959 RMK SLP035 T02400160 IEM_DS3505
ZBAA,1992-07-03 20:00,ZBAA 032000Z AUTO 13002KT 6SM 22/17 A2959 RMK SLP035 T02200170 IEM_DS3505
ZBAA,1992-07-03 21:00,ZBAA 032100Z AUTO 04002KT 6SM 23/17 A2959 RMK SLP033 T02260171 52009 IEM_DS3505
ZBAA,1992-07-03 22:00,ZBAA 032200Z AUTO 00000KT 6SM 22/17 A2959 RMK SLP035 T02200170 IEM_DS3505
ZBAA,1992-07-03 23:00,ZBAA 032300Z AUTO 04002KT 7SM 23/18 A2962 RMK SLP045 T02300180 IEM_DS3505
ZBAA,1992-07-04 00:00,ZBAA 040000Z AUTO 36004KT 5SM 26/18 A2962 RMK SLP041 T02590175 52008 IEM_DS3505
ZBAA,1992-07-04 01:00,ZBAA 040100Z AUTO 36002KT 7SM 27/18 A2962 RMK SLP044 T02700180 IEM_DS3505
ZBAA,1992-07-04 02:00,ZBAA 040200Z AUTO 00000KT 7SM 29/19 A2962 RMK SLP044 T02900190 IEM_DS3505
ZBAA,1992-07-04 03:00,ZBAA 040300Z AUTO 00000KT 5SM 31/17 A2959 RMK SLP037 T03100167 57004 IEM_DS3505
ZBAA,1992-07-04 05:00,ZBAA 040500Z AUTO 21004KT 7SM 33/18 A2956 RMK SLP022 T03300180 IEM_DS3505
ZBAA,1992-07-04 06:00,ZBAA 040600Z AUTO 18002KT 5SM 35/16 A2956 RMK SLP025 T03460158 4////0222 57012 IEM_DS3505
ZBAA,1992-07-04 07:00,ZBAA 040700Z AUTO 19008KT 7SM 35/18 A2953 RMK SLP012 T03500180 IEM_DS3505
ZBAA,1992-07-04 08:00,ZBAA 040800Z AUTO 20008KT 7SM 35/17 A2950 RMK SLP002 T03500170 IEM_DS3505
ZBAA,1992-07-04 09:00,ZBAA 040900Z AUTO 22008KT 11SM 36/15 A2952 RMK SLP009 T03570150 57016 IEM_DS3505
ZBAA,1992-07-04 10:00,ZBAA 041000Z AUTO 20008KT 7SM 34/17 A2950 RMK SLP002 T03400170 IEM_DS3505
ZBAA,1992-07-04 11:00,ZBAA 041100Z AUTO 18006KT 7SM 33/17 A2950 RMK SLP002 T03300170 IEM_DS3505
ZBAA,1992-07-04 12:00,ZBAA 041200Z AUTO 20004KT 11SM 33/16 A2953 RMK SLP013 T03260155 52004 IEM_DS3505
ZBAA,1992-07-04 13:00,ZBAA 041300Z AUTO 17006KT 7SM 31/16 A2956 RMK SLP022 T03100160 IEM_DS3505
ZBAA,1992-07-04 14:00,ZBAA 041400Z AUTO 13004KT 7SM 29/17 A2956 RMK SLP023 T02900170 IEM_DS3505
ZBAA,1992-07-04 15:00,ZBAA 041500Z AUTO 18002KT 7SM 29/18 A2959 RMK SLP027 T02860181 52014 IEM_DS3505
ZBAA,1992-07-04 16:00,ZBAA 041600Z AUTO 12006KT 7SM 26/20 A2959 RMK SLP035 T02600200 IEM_DS3505
ZBAA,1992-07-04 17:00,ZBAA 041700Z AUTO 12006KT 7SM 26/19 A2962 RMK SLP045 T02600190 IEM_DS3505
ZBAA,1992-07-04 18:00,ZBAA 041800Z AUTO 09002KT 7SM 27/19 A2962 RMK SLP041 T02680191 40358//// 52014 IEM_DS3505
ZBAA,1992-07-04 19:00,ZBAA 041900Z AUTO 33004KT 7SM 24/19 A2962 RMK SLP045 T02400190 IEM_DS3505
ZBAA,1992-07-04 20:00,ZBAA 042000Z AUTO 03002KT 7SM 24/19 A2965 RMK SLP055 T02400190 IEM_DS3505
ZBAA,1992-07-04 21:00,ZBAA 042100Z AUTO 02004KT 6SM 25/19 A2965 RMK SLP048 T02500191 52007 IEM_DS3505
ZBAA,1992-07-04 22:00,ZBAA 042200Z AUTO 07002KT 6SM 24/19 A2968 RMK SLP065 T02400190 IEM_DS3505
ZBAA,1992-07-04 23:00,ZBAA 042300Z AUTO 36004KT 6SM 25/20 A2968 RMK SLP065 T02500200 IEM_DS3505
ZBAA,1992-07-05 00:00,ZBAA 050000Z AUTO 04002KT 6SM 27/19 A2968 RMK SLP059 T02690191 52011 IEM_DS3505
ZBAA,1992-07-05 01:00,ZBAA 050100Z AUTO 06004KT 6SM 28/20 A2968 RMK SLP064 T02800200 IEM_DS3505
ZBAA,1992-07-05 02:00,ZBAA 050200Z AUTO 01002KT 6SM 29/20 A2968 RMK SLP064 T02900200 IEM_DS3505
ZBAA,1992-07-05 03:00,ZBAA 050300Z AUTO 04006KT 6SM 30/20 A2968 RMK SLP057 T03020195 57002 IEM_DS3505
ZBAA,1992-07-05 04:00,ZBAA 050400Z AUTO 09006KT 6SM 32/20 A2965 RMK SLP053 T03200200 IEM_DS3505
ZBAA,1992-07-05 05:00,ZBAA 050500Z AUTO 12006KT 6SM 33/21 A2965 RMK SLP053 T03300210 IEM_DS3505
ZBAA,1992-07-05 06:00,ZBAA 050600Z AUTO 09002KT 6SM 34/20 A2962 RMK SLP047 T03380196 4////0243 57010 IEM_DS3505
ZBAA,1992-07-05 07:00,ZBAA 050700Z AUTO 11006KT 6SM 34/21 A2959 RMK SLP033 T03400210 IEM_DS3505
ZBAA,1992-07-05 08:00,ZBAA 050800Z AUTO 12006KT 6SM 34/21 A2959 RMK SLP033 T03400210 IEM_DS3505
ZBAA,1992-07-05 09:00,ZBAA 050900Z AUTO 14004KT 6SM 34/20 A2959 RMK SLP038 T03390199 57009 IEM_DS3505
ZBAA,1992-07-05 10:00,ZBAA 051000Z AUTO 14004KT 9SM 31/19 A2959 RMK SLP043 T03140192 52005 IEM_DS3505
ZBAA,1992-07-05 11:00,ZBAA 051100Z AUTO 18006KT 6SM 32/19 A2959 RMK SLP033 T03200190 IEM_DS3505
ZBAA,1992-07-05 12:00,ZBAA 051200Z AUTO 14004KT 9SM 31/19 A2962 RMK SLP043 T03140192 52005 IEM_DS3505
ZBAA,1992-07-05 13:00,ZBAA 051300Z AUTO 15006KT 6SM 29/18 A2965 RMK SLP054 T02900180 IEM_DS3505
ZBAA,1992-07-05 14:00,ZBAA 051400Z AUTO 17002KT 6SM 28/18 A2965 RMK SLP054 T02800180 IEM_DS3505
ZBAA,1992-07-05 15:00,ZBAA 051500Z AUTO 20002KT 6SM 28/19 A2968 RMK SLP056 T02810193 52013 IEM_DS3505
ZBAA,1992-07-05 16:00,ZBAA 051600Z AUTO 10002KT 6SM 25/18 A2968 RMK SLP065 T02500180 IEM_DS3505
ZBAA,1992-07-05 17:00,ZBAA 051700Z AUTO 08004KT 7SM 24/18 A2968 RMK SLP065 T02400180 IEM_DS3505
ZBAA,1992-07-05 18:00,ZBAA 051800Z AUTO 36002KT 6SM 25/20 A2965 RMK SLP055 T02540196 40344//// 57001 IEM_DS3505
ZBAA,1992-07-05 20:00,ZBAA 052000Z AUTO 35004KT 7SM 23/19 A2965 RMK SLP055 T02300190 IEM_DS3505
ZBAA,1992-07-05 21:00,ZBAA 052100Z AUTO 00000KT 5SM 24/19 A2968 RMK SLP059 T02380192 52004 IEM_DS3505
ZBAA,1992-07-05 22:00,ZBAA 052200Z AUTO 30002KT 4SM 23/19 A2968 RMK SLP065 T02300190 IEM_DS3505
ZBAA,1992-07-05 23:00,ZBAA 052300Z AUTO 36006KT 4SM 25/20 A2968 RMK SLP065 T02500200 IEM_DS3505
ZBAA,1992-07-06 00:00,ZBAA 060000Z AUTO 16002KT 3SM 28/18 A2968 RMK SLP061 T02790185 52002 IEM_DS3505
ZBAA,1992-07-06 01:00,ZBAA 060100Z AUTO 31006KT 7SM 29/20 A2968 RMK SLP064 T02900200 IEM_DS3505
ZBAA,1992-07-06 02:00,ZBAA 060200Z AUTO 01004KT 7SM 31/20 A2968 RMK SLP064 T03100200 IEM_DS3505
ZBAA,1992-07-06 03:00,ZBAA 060300Z AUTO 00000KT 1 1/2SM 32/20 A2966 RMK SLP056 T03220196 57005 IEM_DS3505
ZBAA,1992-07-06 04:00,ZBAA 060400Z AUTO 19004KT 7SM 34/21 A2962 RMK SLP043 T03400210 IEM_DS3505
ZBAA,1992-07-06 05:00,ZBAA 060500Z AUTO 22006KT 7SM 35/21 A2962 RMK SLP043 T03500210 IEM_DS3505
ZBAA,1992-07-06 06:00,ZBAA 060600Z AUTO 18004KT 3SM 36/19 A2959 RMK SLP036 T03590188 4////0233 57020 IEM_DS3505
ZBAA,1992-07-06 08:00,ZBAA 060800Z AUTO 19008KT 7SM 37/19 A2956 RMK SLP021 T03700190 IEM_DS3505
ZBAA,1992-07-06 09:00,ZBAA 060900Z AUTO 16006KT 6SM 37/15 A2953 RMK SLP021 T03730152 57014 IEM_DS3505
ZBAA,1992-07-06 10:00,ZBAA 061000Z AUTO 18008KT 7SM 36/16 A2956 RMK SLP021 T03600160 IEM_DS3505
ZBAA,1992-07-06 11:00,ZBAA 061100Z AUTO 18004KT 6SM 34/18 A2956 RMK SLP022 T03400180 IEM_DS3505
ZBAA,1992-07-06 12:00,ZBAA 061200Z AUTO 18004KT 6SM 35/17 A2956 RMK SLP025 T03470168 52004 IEM_DS3505
ZBAA,1992-07-06 13:00,ZBAA 061300Z AUTO 16004KT 6SM 32/18 A2959 RMK SLP033 T03200180 IEM_DS3505
ZBAA,1992-07-06 14:00,ZBAA 061400Z AUTO 13004KT 6SM 30/19 A2959 RMK SLP034 T03000190 IEM_DS3505
ZBAA,1992-07-06 15:00,ZBAA 061500Z AUTO 18002KT 6SM 31/18 A2959 RMK SLP032 T03060180 52007 IEM_DS3505
ZBAA,1992-07-06 16:00,ZBAA 061600Z AUTO 12004KT 7SM 28/19 A2962 RMK SLP044 T02800190 IEM_DS3505
ZBAA,1992-07-06 17:00,ZBAA 061700Z AUTO 13004KT 7SM 27/19 A2962 RMK SLP044 T02700190 IEM_DS3505
ZBAA,1992-07-06 18:00,ZBAA 061800Z AUTO 36002KT 6SM 26/19 A2962 RMK SLP039 T02640192 40375//// 52007 IEM_DS3505
ZBAA,1992-07-06 19:00,ZBAA 061900Z AUTO 07002KT 6SM 26/18 A2965 RMK SLP055 T02600180 IEM_DS3505
ZBAA,1992-07-06 20:00,ZBAA 062000Z AUTO 10002KT 6SM 25/19 A2965 RMK SLP055 T02500190 IEM_DS3505
ZBAA,1992-07-06 21:00,ZBAA 062100Z AUTO 36004KT 6SM 26/18 A2965 RMK SLP052 T02580185 52013 IEM_DS3505
ZBAA,1992-07-06 22:00,ZBAA 062200Z AUTO 36006KT 6SM 25/19 A2968 RMK SLP065 T02500190 IEM_DS3505
ZBAA,1992-07-06 23:00,ZBAA 062300Z AUTO 02002KT 6SM 26/20 A2968 RMK SLP065 T02600200 IEM_DS3505
ZBAA,1992-07-07 00:00,ZBAA 070000Z AUTO 04004KT 6SM 29/18 A2971 RMK SLP070 T02880179 52017 IEM_DS3505
ZBAA,1992-07-07 01:00,ZBAA 070100Z AUTO 07006KT 6SM 30/17 A2971 RMK SLP074 T03000170 IEM_DS3505
ZBAA,1992-07-07 02:00,ZBAA 070200Z AUTO 10006KT 6SM 31/17 A2974 RMK SLP084 T03100170 IEM_DS3505
ZBAA,1992-07-07 03:00,ZBAA 070300Z AUTO 09006KT 6SM 31/19 A2970 RMK SLP070 T03090192 54000 IEM_DS3505
ZBAA,1992-07-07 04:00,ZBAA 070400Z AUTO 18012KT 6SM 33/15 A2971 RMK SLP073 T03300150 IEM_DS3505
ZBAA,1992-07-07 05:00,ZBAA 070500Z AUTO 20012KT 6SM 33/15 A2968 RMK SLP063 T03300150 IEM_DS3505
ZBAA,1992-07-07 06:00,ZBAA 070600Z AUTO 14006KT 6SM 33/12 A2968 RMK SLP060 T03270119 4////0254 57010 IEM_DS3505
ZBAA,1992-07-07 08:00,ZBAA 070800Z AUTO 23008KT 6SM 33/14 A2962 RMK SLP043 T03300140 IEM_DS3505
ZBAA,1992-07-07 09:00,ZBAA 070900Z AUTO 14006KT 6SM 32/12 A2962 RMK SLP050 T03230118 57010 IEM_DS3505
ZBAA,1992-07-07 11:00,ZBAA 071100Z AUTO 17006KT 6SM 30/12 A2965 RMK SLP054 T03000120 IEM_DS3505
ZBAA,1992-07-07 12:00,ZBAA 071200Z AUTO 16004KT 7SM 30/12 A2968 RMK SLP062 T02960115 52012 IEM_DS3505
ZBAA,1992-07-07 13:00,ZBAA 071300Z AUTO 19008KT 7SM 28/11 A2968 RMK SLP064 T02800110 IEM_DS3505
ZBAA,1992-07-07 14:00,ZBAA 071400Z AUTO 12004KT 7SM 28/12 A2968 RMK SLP064 T02800120 IEM_DS3505
ZBAA,1992-07-07 15:00,ZBAA 071500Z AUTO 16006KT 7SM 28/11 A2965 RMK SLP056 T02750114 57006 IEM_DS3505
ZBAA,1992-07-07 16:00,ZBAA 071600Z AUTO 25004KT 6SM 26/13 A2968 RMK SLP065 T02600130 IEM_DS3505
ZBAA,1992-07-07 17:00,ZBAA 071700Z AUTO 09004KT 6SM 24/14 A2968 RMK SLP065 T02400140 IEM_DS3505
ZBAA,1992-07-07 18:00,ZBAA 071800Z AUTO 14002KT 7SM 26/12 A2968 RMK SLP057 T02600116 40335//// 52001 IEM_DS3505
ZBAA,1992-07-07 19:00,ZBAA 071900Z AUTO 13002KT 6SM 24/12 A2968 RMK SLP065 T02400120 IEM_DS3505
ZBAA,1992-07-07 20:00,ZBAA 072000Z AUTO 10004KT 6SM 23/17 A2968 RMK SLP065 T02300170 IEM_DS3505
ZBAA,1992-07-07 21:00,ZBAA 072100Z AUTO 09004KT 6SM 25/14 A2971 RMK SLP068 T02480141 52011 IEM_DS3505
ZBAA,1992-07-07 22:00,ZBAA 072200Z AUTO 00000KT 6SM 23/15 A2971 RMK SLP075 T02300150 IEM_DS3505
ZBAA,1992-07-07 23:00,ZBAA 072300Z AUTO 05002KT 6SM 24/15 A2974 RMK SLP085 T02400150 IEM_DS3505
ZBAA,1992-07-08 00:00,ZBAA 080000Z AUTO 36004KT 6SM 25/16 A2974 RMK 60001 70012 SLP082 T02480157 52013 IEM_DS3505
ZBAA,1992-07-08 01:00,ZBAA 080100Z AUTO 07002KT 6SM 25/16 A2977 RMK SLP095 T02500160 IEM_DS3505
ZBAA,1992-07-08 02:00,ZBAA 080200Z AUTO 05002KT 6SM 25/15 A2977 RMK SLP095 T02500150 IEM_DS3505
ZBAA,1992-07-08 03:00,ZBAA 080300Z AUTO 36004KT 6SM 26/16 A2977 RMK SLP084 T02580165 52002 IEM_DS3505
ZBAA,1992-07-08 04:00,ZBAA 080400Z AUTO 03006KT 6SM 26/17 A2977 RMK SLP095 T02600170 IEM_DS3505
ZBAA,1992-07-08 05:00,ZBAA 080500Z AUTO 03006KT 6SM 27/16 A2977 RMK SLP095 T02700160 IEM_DS3505
ZBAA,1992-07-08 06:00,ZBAA 080600Z AUTO 36002KT 9SM 27/14 A2974 RMK SLP083 T02740137 4////0225 57001 IEM_DS3505
ZBAA,1992-07-08 07:00,ZBAA 080700Z AUTO 08006KT 6SM 28/13 A2974 RMK SLP084 T02800130 IEM_DS3505
ZBAA,1992-07-08 08:00,ZBAA 080800Z AUTO 06006KT 6SM 28/13 A2971 RMK SLP074 T02800130 IEM_DS3505
ZBAA,1992-07-08 09:00,ZBAA 080900Z AUTO 07002KT 9SM 28/13 A2971 RMK SLP078 T02840129 57005 IEM_DS3505
ZBAA,1992-07-08 10:00,ZBAA 081000Z AUTO 36004KT 9SM 28/13 A2971 RMK SLP086 T02800130 IEM_DS3505
ZBAA,1992-07-08 11:00,ZBAA 081100Z AUTO 00000KT 6SM 27/13 A2974 RMK SLP085 T02700130 IEM_DS3505
ZBAA,1992-07-08 12:00,ZBAA 081200Z AUTO 36004KT 9SM 26/15 A2977 RMK SLP086 T02650150 52008 IEM_DS3505
ZBAA,1992-07-08 13:00,ZBAA 081300Z AUTO 00000KT 6SM 26/12 A2977 RMK SLP095 T02600120 IEM_DS3505
ZBAA,1992-07-08 14:00,ZBAA 081400Z AUTO 35002KT 6SM 25/13 A2977 RMK SLP095 T02500130 IEM_DS3505
ZBAA,1992-07-08 15:00,ZBAA 081500Z AUTO 29002KT 9SM 24/16 A2977 RMK SLP091 T02390161 52005 IEM_DS3505
ZBAA,1992-07-08 18:00,ZBAA 081800Z AUTO 36002KT 6SM 23/15 A2977 RMK SLP094 T02320154 40290//// 52003 IEM_DS3505
ZBAA,1992-07-08 21:00,ZBAA 082100Z AUTO 36008KT 9SM 24/12 A2976 RMK 70001 SLP093 T02420116 57001 IEM_DS3505
ZBAA,1992-07-08 23:00,ZBAA 082300Z AUTO 36006KT 7SM 22/18 A2980 RMK SLP106 T02200180 IEM_DS3505
ZBAA,1992-07-09 00:00,ZBAA 090000Z AUTO 36006KT 9SM 24/17 A2980 RMK 60000 70008 SLP100 T02360168 52007 IEM_DS3505
ZBAA,1992-07-09 01:00,ZBAA 090100Z AUTO 01008KT 6SM 24/19 A2980 RMK SLP105 T02400190 IEM_DS3505
ZBAA,1992-07-09 02:00,ZBAA 090200Z AUTO 05006KT 6SM 26/18 A2977 RMK SLP095 T02600180 IEM_DS3505
ZBAA,1992-07-09 03:00,ZBAA 090300Z AUTO 09008KT 7SM 28/13 A2980 RMK SLP096 T02780134 57004 IEM_DS3505
ZBAA,1992-07-09 05:00,ZBAA 090500Z AUTO 13010KT 6SM 27/15 A2977 RMK SLP095 T02700150 IEM_DS3505
ZBAA,1992-07-09 06:00,ZBAA 090600Z AUTO 11008KT 7SM 26/14 A2976 RMK SLP093 T02600140 4////0223 57003 IEM_DS3505
ZBAA,1992-07-09 07:00,ZBAA 090700Z AUTO 12008KT 6SM 26/15 A2974 RMK SLP085 T02600150 IEM_DS3505
ZBAA,1992-07-09 08:00,ZBAA 090800Z AUTO 13008KT 6SM 25/15 A2974 RMK SLP085 T02500150 IEM_DS3505
ZBAA,1992-07-09 09:00,ZBAA 090900Z AUTO 07006KT 6SM 24/16 A2974 RMK SLP087 T02440159 57006 IEM_DS3505
ZBAA,1992-07-09 11:00,ZBAA 091100Z AUTO 13006KT 6SM 24/15 A2977 RMK SLP095 T02400150 IEM_DS3505
ZBAA,1992-07-09 12:00,ZBAA 091200Z AUTO 09004KT 7SM 24/15 A2980 RMK SLP102 T02360146 52015 IEM_DS3505
ZBAA,1992-07-09 13:00,ZBAA 091300Z AUTO 14004KT 6SM 22/15 A2983 RMK SLP117 T02200150 IEM_DS3505
ZBAA,1992-07-09 14:00,ZBAA 091400Z AUTO 15004KT 6SM 22/15 A2983 RMK SLP117 T02200150 IEM_DS3505
ZBAA,1992-07-09 15:00,ZBAA 091500Z AUTO 14002KT 7SM 22/16 A2980 RMK SLP103 T02240158 52001 IEM_DS3505
ZBAA,1992-07-09 16:00,ZBAA 091600Z AUTO 03002KT 6SM 21/15 A2980 RMK SLP106 T02100150 IEM_DS3505
ZBAA,1992-07-09 17:00,ZBAA 091700Z AUTO 00000KT 6SM 21/15 A2977 RMK SLP096 T02100150 IEM_DS3505
ZBAA,1992-07-09 18:00,ZBAA 091800Z AUTO 04002KT 6SM 21/16 A2977 RMK SLP098 T02140158 40278//// 57005 IEM_DS3505
ZBAA,1992-07-09 19:00,ZBAA 091900Z AUTO 00000KT 6SM 20/15 A2977 RMK SLP096 T02000150 IEM_DS3505
ZBAA,1992-07-09 20:00,ZBAA 092000Z AUTO 00000KT 6SM 20/16 A2977 RMK SLP096 T02000160 IEM_DS3505
ZBAA,1992-07-09 21:00,ZBAA 092100Z AUTO 00000KT 6SM 20/16 A2977 RMK 70001 SLP100 T01990163 52001 IEM_DS3505
ZBAA,1992-07-09 22:00,ZBAA 092200Z AUTO 02002KT 6SM 20/16 A2980 RMK SLP106 T02000160 IEM_DS3505
ZBAA,1992-07-09 23:00,ZBAA 092300Z AUTO 00000KT 6SM 21/17 A2980 RMK SLP106 T02100170 IEM_DS3505
ZBAA,1992-07-10 00:00,ZBAA 100000Z AUTO 36002KT 5SM 22/17 A2980 RMK SLP107 T02150166 52007 IEM_DS3505
ZBAA,1992-07-10 01:00,ZBAA 100100Z AUTO 00000KT 6SM 23/17 A2983 RMK SLP117 T02300170 IEM_DS3505
ZBAA,1992-07-10 02:00,ZBAA 100200Z AUTO 21002KT 7SM 24/17 A2983 RMK SLP116 T02400170 IEM_DS3505
ZBAA,1992-07-10 03:00,ZBAA 100300Z AUTO 00000KT 4SM 23/17 A2983 RMK SLP113 T02310173 52006 IEM_DS3505
ZBAA,1992-07-10 04:00,ZBAA 100400Z AUTO 23002KT 7SM 24/17 A2983 RMK SLP116 T02400170 IEM_DS3505
ZBAA,1992-07-10 05:00,ZBAA 100500Z AUTO 13002KT 7SM 25/18 A2980 RMK SLP105 T02500180 IEM_DS3505
ZBAA,1992-07-10 06:00,ZBAA 100600Z AUTO 00000KT 4SM 25/18 A2980 RMK SLP099 T02530175 4////0198 57013 IEM_DS3505
ZBAA,1992-07-10 07:00,ZBAA 100700Z AUTO 00000KT 7SM 26/18 A2977 RMK SLP095 T02600180 IEM_DS3505
ZBAA,1992-07-10 08:00,ZBAA 100800Z AUTO 14006KT 7SM 26/17 A2977 RMK SLP095 T02600170 IEM_DS3505
ZBAA,1992-07-10 09:00,ZBAA 100900Z AUTO 14004KT 5SM 25/17 A2977 RMK SLP098 T02540168 57002 IEM_DS3505
ZBAA,1992-07-10 10:00,ZBAA 101000Z AUTO 19004KT 7SM 26/17 A2980 RMK SLP105 T02600170 IEM_DS3505
ZBAA,1992-07-10 11:00,ZBAA 101100Z AUTO 11004KT 7SM 25/17 A2980 RMK SLP105 T02500170 IEM_DS3505
ZBAA,1992-07-10 12:00,ZBAA 101200Z AUTO 00000KT 3SM 25/18 A2983 RMK SLP110 T02530179 52012 IEM_DS3505
ZBAA,1992-07-10 13:00,ZBAA 101300Z AUTO 13002KT 7SM 24/18 A2985 RMK SLP123 T02400180 IEM_DS3505
ZBAA,1992-07-10 14:00,ZBAA 101400Z AUTO 12002KT 7SM 24/17 A2985 RMK SLP123 T02400170 IEM_DS3505
ZBAA,1992-07-10 15:00,ZBAA 101500Z AUTO 00000KT 4SM 24/18 A2985 RMK SLP123 T02400183 52013 IEM_DS3505
ZBAA,1992-07-10 16:00,ZBAA 101600Z AUTO 10002KT 7SM 22/18 A2988 RMK SLP133 T02200180 IEM_DS3505
ZBAA,1992-07-10 17:00,ZBAA 101700Z AUTO 13002KT 7SM 21/18 A2985 RMK SLP123 T02100180 IEM_DS3505
ZBAA,1992-07-10 18:00,ZBAA 101800Z AUTO 00000KT 3SM 22/19 A2985 RMK SLP126 T02210188 40259//// 52003 IEM_DS3505
ZBAA,1992-07-10 19:00,ZBAA 101900Z AUTO 06004KT 7SM 21/18 A2985 RMK SLP123 T02100180 IEM_DS3505
ZBAA,1992-07-10 20:00,ZBAA 102000Z AUTO 00000KT 5SM 21/18 A2988 RMK SLP133 T02100180 IEM_DS3505
ZBAA,1992-07-10 21:00,ZBAA 102100Z AUTO 00000KT 3SM 21/19 A2988 RMK SLP127 T02140186 52001 IEM_DS3505
ZBAA,1992-07-10 22:00,ZBAA 102200Z AUTO 00000KT 7SM 21/18 A2988 RMK SLP133 T02100180 IEM_DS3505
ZBAA,1992-07-10 23:00,ZBAA 102300Z AUTO 06002KT 7SM 22/18 A2991 RMK SLP144 T02200180 IEM_DS3505
ZBAA,1992-07-11 00:00,ZBAA 110000Z AUTO 00000KT 3SM 23/18 A2990 RMK SLP140 T02310185 52013 IEM_DS3505
ZBAA,1992-07-11 01:00,ZBAA 110100Z AUTO 12002KT 6SM 24/18 A2991 RMK SLP144 T02400180 IEM_DS3505
ZBAA,1992-07-11 02:00,ZBAA 110200Z AUTO 14002KT 6SM 26/19 A2991 RMK SLP143 T02600190 IEM_DS3505
ZBAA,1992-07-11 03:00,ZBAA 110300Z AUTO 18002KT 3SM 27/18 A2991 RMK SLP139 T02680179 54000 IEM_DS3505
ZBAA,1992-07-11 04:00,ZBAA 110400Z AUTO 10004KT 6SM 29/19 A2988 RMK SLP132 T02900190 IEM_DS3505
ZBAA,1992-07-11 05:00,ZBAA 110500Z AUTO 11004KT 6SM 30/17 A2988 RMK SLP131 T03000170 IEM_DS3505
ZBAA,1992-07-11 06:00,ZBAA 110600Z AUTO 18006KT 7SM 29/17 A2985 RMK SLP126 T02930174 4////0207 57013 IEM_DS3505
ZBAA,1992-07-11 07:00,ZBAA 110700Z AUTO 23008KT 6SM 30/17 A2985 RMK SLP121 T03000170 IEM_DS3505
ZBAA,1992-07-11 08:00,ZBAA 110800Z AUTO 21008KT 6SM 30/17 A2985 RMK SLP121 T03000170 IEM_DS3505
ZBAA,1992-07-11 09:00,ZBAA 110900Z AUTO 18006KT 9SM 30/16 A2985 RMK SLP119 T03000164 57007 IEM_DS3505
ZBAA,1992-07-11 10:00,ZBAA 111000Z AUTO 19006KT 6SM 29/17 A2983 RMK SLP115 T02900170 IEM_DS3505
ZBAA,1992-07-11 11:00,ZBAA 111100Z AUTO 18006KT 6SM 29/17 A2985 RMK SLP121 T02900170 IEM_DS3505
ZBAA,1992-07-11 12:00,ZBAA 111200Z AUTO 16002KT 6SM 28/17 A2987 RMK SLP129 T02810167 52010 IEM_DS3505
ZBAA,1992-07-11 13:00,ZBAA 111300Z AUTO 10004KT 6SM 25/18 A2991 RMK SLP143 T02500180 IEM_DS3505
ZBAA,1992-07-11 14:00,ZBAA 111400Z AUTO 12004KT 6SM 24/19 A2991 RMK SLP144 T02400190 IEM_DS3505
ZBAA,1992-07-11 15:00,ZBAA 111500Z AUTO 11006KT 6SM 26/19 A2991 RMK SLP143 T02580193 52014 IEM_DS3505
ZBAA,1992-07-11 16:00,ZBAA 111600Z AUTO 11004KT 6SM 24/20 A2991 RMK SLP144 T02400200 IEM_DS3505
ZBAA,1992-07-11 17:00,ZBAA 111700Z AUTO 12004KT 6SM 23/20 A2991 RMK SLP144 T02300200 IEM_DS3505
ZBAA,1992-07-11 18:00,ZBAA 111800Z AUTO 11004KT 6SM 24/18 A2994 RMK SLP151 T02410181 40306//// 52008 IEM_DS3505
ZBAA,1992-07-11 19:00,ZBAA 111900Z AUTO 15002KT 6SM 23/19 A2994 RMK SLP154 T02300190 IEM_DS3505
ZBAA,1992-07-11 21:00,ZBAA 112100Z AUTO 00000KT 5SM 23/19 A2997 RMK SLP157 T02280191 52006 IEM_DS3505
ZBAA,1992-07-11 22:00,ZBAA 112200Z AUTO 13004KT 6SM 22/19 A2997 RMK SLP164 T02200190 IEM_DS3505
ZBAA,1992-07-11 23:00,ZBAA 112300Z AUTO 12004KT 6SM 22/20 A2997 RMK SLP164 T02200200 IEM_DS3505
ZBAA,1992-07-12 00:00,ZBAA 120000Z AUTO 00000KT 4SM 24/19 A3000 RMK SLP167 T02350188 52010 IEM_DS3505
ZBAA,1992-07-12 01:00,ZBAA 120100Z AUTO 00000KT 5SM 23/20 A2997 RMK SLP164 T02300200 IEM_DS3505
ZBAA,1992-07-12 02:00,ZBAA 120200Z AUTO 10002KT 5SM 24/20 A2997 RMK SLP164 T02400200 IEM_DS3505
ZBAA,1992-07-12 03:00,ZBAA 120300Z AUTO 14004KT 2SM 27/18 A2997 RMK SLP164 T02730184 57003 IEM_DS3505
ZBAA,1992-07-12 04:00,ZBAA 120400Z AUTO 17002KT 6SM 27/20 A2994 RMK SLP153 T02700200 IEM_DS3505
ZBAA,1992-07-12 05:00,ZBAA 120500Z AUTO 20004KT 6SM 29/20 A2991 RMK SLP143 T02900200 IEM_DS3505
ZBAA,1992-07-12 06:00,ZBAA 120600Z AUTO 16004KT 4SM 28/19 A2991 RMK SLP139 T02820186 4////0224 57025 IEM_DS3505
ZBAA,1992-07-12 07:00,ZBAA 120700Z AUTO 19004KT 6SM 30/20 A2988 RMK SLP131 T03000200 IEM_DS3505
ZBAA,1992-07-12 08:00,ZBAA 120800Z AUTO 18004KT 6SM 29/18 A2988 RMK SLP132 T02900180 IEM_DS3505
ZBAA,1992-07-12 09:00,ZBAA 120900Z AUTO 14002KT 6SM 30/17 A2985 RMK SLP126 T03000173 57013 IEM_DS3505
ZBAA,1992-07-12 10:00,ZBAA 121000Z AUTO 19004KT 6SM 28/19 A2985 RMK SLP122 T02800190 IEM_DS3505
ZBAA,1992-07-12 11:00,ZBAA 121100Z AUTO 18004KT 6SM 28/18 A2988 RMK SLP132 T02800180 IEM_DS3505
ZBAA,1992-07-12 12:00,ZBAA 121200Z AUTO 20004KT 6SM 28/19 A2988 RMK SLP130 T02810189 52004 IEM_DS3505
ZBAA,1992-07-12 13:00,ZBAA 121300Z AUTO 00000KT 6SM 26/19 A2991 RMK SLP143 T02600190 IEM_DS3505
ZBAA,1992-07-12 14:00,ZBAA 121400Z AUTO 03002KT 6SM 24/19 A2991 RMK SLP144 T02400190 IEM_DS3505
ZBAA,1992-07-12 15:00,ZBAA 121500Z AUTO 25006KT 6SM 26/16 A2991 RMK SLP143 T02570162 52013 IEM_DS3505
ZBAA,1992-07-12 16:00,ZBAA 121600Z AUTO 06006KT 6SM 24/20 A2991 RMK SLP144 T02400200 IEM_DS3505
ZBAA,1992-07-12 17:00,ZBAA 121700Z AUTO 11004KT 5SM 23/21 A2991 RMK SLP144 T02300210 IEM_DS3505
ZBAA,1992-07-12 18:00,ZBAA 121800Z AUTO 27002KT 9SM 22/20 A2991 RMK 60002 SLP140 T02190197 40302//// 57003 IEM_DS3505
ZBAA,1992-07-12 19:00,ZBAA 121900Z AUTO 04002KT 5SM 22/20 A2988 RMK SLP133 T02200200 IEM_DS3505
ZBAA,1992-07-12 20:00,ZBAA 122000Z AUTO 04002KT 5SM 22/20 A2991 RMK SLP144 T02200200 IEM_DS3505
ZBAA,1992-07-12 21:00,ZBAA 122100Z AUTO 34002KT 6SM 21/19 A2991 RMK 70002 SLP142 T02130193 52002 IEM_DS3505
ZBAA,1992-07-12 22:00,ZBAA 122200Z AUTO 11002KT 4SM 22/21 A2991 RMK SLP144 T02200210 IEM_DS3505
ZBAA,1992-07-12 23:00,ZBAA 122300Z AUTO 00000KT 4SM 23/21 A2991 RMK SLP144 T02300210 IEM_DS3505
ZBAA,1992-07-13 00:00,ZBAA 130000Z AUTO 00000KT 5SM 24/20 A2991 RMK 70024 SLP144 T02450199 52002 IEM_DS3505
ZBAA,1992-07-13 01:00,ZBAA 130100Z AUTO 08002KT 3SM 25/21 A2991 RMK SLP143 T02500210 IEM_DS3505
ZBAA,1992-07-13 02:00,ZBAA 130200Z AUTO 07002KT 3SM 27/22 A2991 RMK SLP143 T02700220 IEM_DS3505
ZBAA,1992-07-13 03:00,ZBAA 130300Z AUTO 36002KT 2SM 27/20 A2991 RMK SLP140 T02740205 57004 IEM_DS3505
ZBAA,1992-07-13 04:00,ZBAA 130400Z AUTO 08004KT 3SM 29/21 A2988 RMK SLP132 T02900210 IEM_DS3505
ZBAA,1992-07-13 05:00,ZBAA 130500Z AUTO 11004KT 4SM 31/21 A2985 RMK SLP121 T03100210 IEM_DS3505
ZBAA,1992-07-13 06:00,ZBAA 130600Z AUTO 18006KT 1 1/2SM 30/20 A2983 RMK SLP117 T03000199 4////0211 57023 IEM_DS3505
ZBAA,1992-07-13 07:00,ZBAA 130700Z AUTO 16004KT 5SM 32/20 A2983 RMK SLP115 T03200200 IEM_DS3505
ZBAA,1992-07-13 08:00,ZBAA 130800Z AUTO 20008KT 3SM 31/21 A2980 RMK SLP104 T03100210 IEM_DS3505
ZBAA,1992-07-13 09:00,ZBAA 130900Z AUTO 18006KT 2 1/2SM 30/19 A2980 RMK SLP100 T03040193 57017 IEM_DS3505
ZBAA,1992-07-13 11:00,ZBAA 131100Z AUTO 12004KT 5SM 29/20 A2980 RMK SLP104 T02900200 IEM_DS3505
ZBAA,1992-07-13 12:00,ZBAA 131200Z AUTO 16004KT 3SM 29/20 A2983 RMK SLP106 T02890195 52006 IEM_DS3505
ZBAA,1992-07-13 13:00,ZBAA 131300Z AUTO 14006KT 2 1/2SM 27/21 A2983 RMK SLP116 T02700210 IEM_DS3505
ZBAA,1992-07-13 14:00,ZBAA 131400Z AUTO 10004KT 3SM 26/21 A2988 RMK SLP132 T02600210 IEM_DS3505
ZBAA,1992-07-13 15:00,ZBAA 131500Z AUTO 09006KT 3SM 27/21 A2985 RMK SLP122 T02660207 52016 IEM_DS3505
ZBAA,1992-07-13 16:00,ZBAA 131600Z AUTO 01006KT 7SM 22/17 A2985 RMK SLP123 T02200170 IEM_DS3505
ZBAA,1992-07-13 18:00,ZBAA 131800Z AUTO 22004KT 6SM 22/20 A2985 RMK 60020 SLP123 T02200205 40316//// 52001 IEM_DS3505
ZBAA,1992-07-13 21:00,ZBAA 132100Z AUTO 00000KT 4SM 22/20 A2985 RMK 70020 SLP122 T02180203 57001 IEM_DS3505
ZBAA,1992-07-13 22:00,ZBAA 132200Z AUTO 00000KT 7SM 22/20 A2983 RMK SLP117 T02200200 IEM_DS3505
ZBAA,1992-07-13 23:00,ZBAA 132300Z AUTO 12002KT 7SM 23/20 A2983 RMK SLP117 T02300200 IEM_DS3505
ZBAA,1992-07-14 00:00,ZBAA 140000Z AUTO 36004KT 2 1/2SM 24/20 A2985 RMK 70177 SLP123 T02370205 52001 IEM_DS3505
ZBAA,1992-07-14 01:00,ZBAA 140100Z AUTO 10006KT 4SM 24/21 A2985 RMK SLP123 T02400210 IEM_DS3505
ZBAA,1992-07-14 02:00,ZBAA 140200Z AUTO 10006KT 4SM 25/21 A2985 RMK SLP122 T02500210 IEM_DS3505
ZBAA,1992-07-14 03:00,ZBAA 140300Z AUTO 04004KT 4SM 25/20 A2986 RMK SLP124 T02470200 52001 IEM_DS3505
ZBAA,1992-07-14 04:00,ZBAA 140400Z AUTO 06006KT 7SM 24/19 A2985 RMK SLP123 T02400190 IEM_DS3505
ZBAA,1992-07-14 05:00,ZBAA 140500Z AUTO 08006KT 7SM 25/20 A2983 RMK SLP116 T02500200 IEM_DS3505
ZBAA,1992-07-14 06:00,ZBAA 140600Z AUTO 00000KT 4SM 25/20 A2980 RMK SLP111 T02500198 4////0213 57013 IEM_DS3505
ZBAA,1992-07-14 07:00,ZBAA 140700Z AUTO 09004KT 7SM 26/20 A2980 RMK SLP105 T02600200 IEM_DS3505
ZBAA,1992-07-14 08:00,ZBAA 140800Z AUTO 11002KT 7SM 26/19 A2980 RMK SLP105 T02600190 IEM_DS3505
ZBAA,1992-07-14 09:00,ZBAA 140900Z AUTO 36002KT 4SM 25/20 A2977 RMK SLP100 T02510202 57011 IEM_DS3505
ZBAA,1992-07-14 10:00,ZBAA 141000Z AUTO 04006KT 7SM 25/19 A2977 RMK SLP095 T02500190 IEM_DS3505
ZBAA,1992-07-14 11:00,ZBAA 141100Z AUTO 36004KT 7SM 25/19 A2977 RMK SLP095 T02500190 IEM_DS3505
ZBAA,1992-07-14 12:00,ZBAA 141200Z AUTO 34002KT 3SM 24/20 A2977 RMK SLP100 T02360204 54000 IEM_DS3505
ZBAA,1992-07-14 13:00,ZBAA 141300Z AUTO 36002KT 7SM RMK IEM_DS3505
ZBAA,1992-07-14 14:00,ZBAA 141400Z AUTO 04002KT 7SM 24/19 A2980 RMK SLP105 T02400190 IEM_DS3505
ZBAA,1992-07-14 15:00,ZBAA 141500Z AUTO 00000KT 2SM 23/20 A2980 RMK SLP105 T02340202 52005 IEM_DS3505
ZBAA,1992-07-14 16:00,ZBAA 141600Z AUTO 7SM 23/20 A2977 RMK SLP096 T02300200 IEM_DS3505
ZBAA,1992-07-14 17:00,ZBAA 141700Z AUTO 00000KT 7SM 24/20 A2977 RMK SLP095 T02400200 IEM_DS3505
ZBAA,1992-07-14 18:00,ZBAA 141800Z AUTO 04002KT 3SM 24/20 A2977 RMK SLP098 T02360201 40261//// 57007 IEM_DS3505
ZBAA,1992-07-14 20:00,ZBAA 142000Z AUTO 13002KT 4SM 23/22 A2974 RMK SLP085 T02300220 IEM_DS3505
ZBAA,1992-07-14 21:00,ZBAA 142100Z AUTO 00000KT 2SM 23/21 A2977 RMK SLP092 T02260208 57006 IEM_DS3505
ZBAA,1992-07-14 22:00,ZBAA 142200Z AUTO 11002KT 2 1/2SM 22/21 A2977 RMK SLP096 T02200210 IEM_DS3505
ZBAA,1992-07-14 23:00,ZBAA 142300Z AUTO 11004KT 2 1/2SM 23/21 A2977 RMK SLP096 T02300210 IEM_DS3505
ZBAA,1992-07-15 00:00,ZBAA 150000Z AUTO 04002KT 2SM 24/21 A2977 RMK SLP095 T02420209 52003 IEM_DS3505
ZBAA,1992-07-15 01:00,ZBAA 150100Z AUTO 09004KT 3SM 26/21 A2977 RMK SLP083 T02610210 57010 IEM_DS3505
ZBAA,1992-07-15 02:00,ZBAA 150200Z AUTO 10006KT 3SM 25/21 A2977 RMK SLP095 T02500210 IEM_DS3505
ZBAA,1992-07-15 03:00,ZBAA 150300Z AUTO 09004KT 3SM 26/21 A2977 RMK SLP093 T02590206 57002 IEM_DS3505
ZBAA,1992-07-15 04:00,ZBAA 150400Z AUTO 13004KT 3SM 25/21 A2977 RMK SLP095 T02500210 IEM_DS3505
ZBAA,1992-07-15 05:00,ZBAA 150500Z AUTO 12004KT 5SM 25/21 A2974 RMK SLP085 T02500210 IEM_DS3505
ZBAA,1992-07-15 06:00,ZBAA 150600Z AUTO 09004KT 3SM 26/21 A2974 RMK SLP083 T02610210 4////0221 57010 IEM_DS3505
ZBAA,1992-07-15 07:00,ZBAA 150700Z AUTO 11004KT 5SM 27/22 A2971 RMK SLP075 T02700220 IEM_DS3505
ZBAA,1992-07-15 08:00,ZBAA 150800Z AUTO 11004KT 4SM 26/22 A2971 RMK SLP075 T02600220 IEM_DS3505
ZBAA,1992-07-15 09:00,ZBAA 150900Z AUTO 09004KT 2SM 27/22 A2968 RMK SLP064 T02680215 57019 IEM_DS3505
ZBAA,1992-07-15 10:00,ZBAA 151000Z AUTO 10002KT 3SM 26/22 A2968 RMK SLP065 T02600220 IEM_DS3505
ZBAA,1992-07-15 11:00,ZBAA 151100Z AUTO 06002KT 2 1/2SM 26/22 A2968 RMK SLP065 T02600220 IEM_DS3505
ZBAA,1992-07-15 12:00,ZBAA 151200Z AUTO 32002KT 2 1/2SM 26/22 A2968 RMK SLP065 T02560217 52001 IEM_DS3505
ZBAA,1992-07-15 13:00,ZBAA 151300Z AUTO 10004KT 2 1/2SM 25/22 A2968 RMK SLP065 T02500220 IEM_DS3505
ZBAA,1992-07-15 15:00,ZBAA 151500Z AUTO 00000KT 2 1/2SM 24/21 A2968 RMK SLP067 T02440208 52002 IEM_DS3505
ZBAA,1992-07-15 16:00,ZBAA 151600Z AUTO 15006KT 2 1/2SM 24/21 A2968 RMK SLP065 T02400210 IEM_DS3505
ZBAA,1992-07-15 17:00,ZBAA 151700Z AUTO 00000KT 2 1/2SM 24/21 A2968 RMK SLP065 T02400210 IEM_DS3505
ZBAA,1992-07-15 18:00,ZBAA 151800Z AUTO 00000KT 2 1/2SM 24/22 A2965 RMK SLP059 T02380216 40272//// 57008 IEM_DS3505
ZBAA,1992-07-15 19:00,ZBAA 151900Z AUTO 00000KT 2 1/2SM 23/21 A2965 RMK SLP055 T02300210 IEM_DS3505
ZBAA,1992-07-15 20:00,ZBAA 152000Z AUTO 10004KT 2 1/2SM 23/21 A2965 RMK SLP055 T02300210 IEM_DS3505
ZBAA,1992-07-15 21:00,ZBAA 152100Z AUTO 04002KT 2 1/2SM 23/21 A2962 RMK SLP052 T02330213 57007 IEM_DS3505
ZBAA,1992-07-15 23:00,ZBAA 152300Z AUTO 10002KT 2 1/2SM 23/21 A2962 RMK SLP045 T02300210 IEM_DS3505
ZBAA,1992-07-16 00:00,ZBAA 160000Z AUTO 00000KT 2SM 24/22 A2962 RMK SLP050 T02360215 57002 IEM_DS3505
ZBAA,1992-07-16 01:00,ZBAA 160100Z AUTO 13002KT 2SM 24/22 A2962 RMK SLP045 T02400220 IEM_DS3505
ZBAA,1992-07-16 02:00,ZBAA 160200Z AUTO 11004KT 2SM 24/22 A2962 RMK SLP045 T02400220 IEM_DS3505
ZBAA,1992-07-16 03:00,ZBAA 160300Z AUTO 00000KT 1 1/4SM 25/22 A2962 RMK SLP049 T02490221 57001 IEM_DS3505
ZBAA,1992-07-16 04:00,ZBAA 160400Z AUTO 11002KT 2SM 25/22 A2962 RMK SLP045 T02500220 IEM_DS3505
ZBAA,1992-07-16 05:00,ZBAA 160500Z AUTO 08004KT 2SM 27/23 A2959 RMK SLP034 T02700230 IEM_DS3505
ZBAA,1992-07-16 06:00,ZBAA 160600Z AUTO 20004KT 2 1/2SM 29/21 A2956 RMK SLP026 T02860209 4////0231 57022 IEM_DS3505
ZBAA,1992-07-16 07:00,ZBAA 160700Z AUTO 17006KT 2SM 28/22 A2953 RMK SLP013 T02800220 IEM_DS3505
ZBAA,1992-07-16 08:00,ZBAA 160800Z AUTO 18010KT 3SM 28/22 A2950 RMK SLP003 T02800220 IEM_DS3505
ZBAA,1992-07-16 09:00,ZBAA 160900Z AUTO 18004KT 6SM 29/20 A2947 RMK SLP004 T02880204 57022 IEM_DS3505
ZBAA,1992-07-16 10:00,ZBAA 161000Z AUTO 16006KT 5SM 28/22 A2947 RMK SLP993 T02800220 IEM_DS3505
ZBAA,1992-07-16 11:00,ZBAA 161100Z AUTO 18006KT 5SM 28/21 A2950 RMK SLP003 T02800210 IEM_DS3505
ZBAA,1992-07-16 12:00,ZBAA 161200Z AUTO 36002KT 2SM 26/23 A2948 RMK SLP998 T02570226 57007 IEM_DS3505
ZBAA,1992-07-16 13:00,ZBAA 161300Z AUTO 01008KT 2 1/2SM 19/19 A2956 RMK SLP025 T01900190 IEM_DS3505
ZBAA,1992-07-16 14:00,ZBAA 161400Z AUTO 05006KT 4SM 19/19 A2956 RMK SLP025 T01900190 IEM_DS3505
ZBAA,1992-07-16 15:00,ZBAA 161500Z AUTO 09006KT 9SM 20/19 A2956 RMK SLP015 T02040190 52017 IEM_DS3505
ZBAA,1992-07-16 16:00,ZBAA 161600Z AUTO 10002KT 7SM 20/20 A2953 RMK SLP015 T02000200 IEM_DS3505
ZBAA,1992-07-16 17:00,ZBAA 161700Z AUTO 17002KT 7SM 20/20 A2953 RMK SLP015 T02000200 IEM_DS3505
ZBAA,1992-07-16 18:00,ZBAA 161800Z AUTO 36002KT 4SM 20/19 A2953 RMK 60039 SLP012 T02040188 40291//// 57003 IEM_DS3505
ZBAA,1992-07-16 19:00,ZBAA 161900Z AUTO 03002KT 7SM 19/19 A2950 RMK SLP005 T01900190 IEM_DS3505
ZBAA,1992-07-16 20:00,ZBAA 162000Z AUTO 00000KT 7SM 19/19 A2950 RMK SLP005 T01900190 IEM_DS3505
ZBAA,1992-07-16 21:00,ZBAA 162100Z AUTO 04004KT 3SM 19/18 A2950 RMK 70039 SLP005 T01940184 57007 IEM_DS3505
ZBAA,1992-07-16 22:00,ZBAA 162200Z AUTO 31002KT 5SM 19/19 A2950 RMK SLP005 T01900190 IEM_DS3505
ZBAA,1992-07-16 23:00,ZBAA 162300Z AUTO 00000KT 7SM 20/20 A2950 RMK SLP005 T02000200 IEM_DS3505
ZBAA,1992-07-17 00:00,ZBAA 170000Z AUTO 36002KT 4SM 22/18 A2950 RMK 70382 SLP004 T02220184 IEM_DS3505
ZBAA,1992-07-17 01:00,ZBAA 170100Z AUTO 04002KT 3SM 24/21 A2950 RMK SLP004 T02400210 IEM_DS3505
ZBAA,1992-07-17 02:00,ZBAA 170200Z AUTO 09002KT 4SM 24/20 A2950 RMK SLP004 T02400200 IEM_DS3505
ZBAA,1992-07-17 03:00,ZBAA 170300Z AUTO 00000KT 2SM 27/20 A2947 RMK SLP998 T02740195 57006 IEM_DS3505
ZBAA,1992-07-17 04:00,ZBAA 170400Z AUTO 00000KT 7SM 27/21 A2947 RMK SLP993 T02700210 IEM_DS3505
ZBAA,1992-07-17 05:00,ZBAA 170500Z AUTO 18002KT 7SM 29/21 A2941 RMK SLP973 T02900210 IEM_DS3505
ZBAA,1992-07-17 06:00,ZBAA 170600Z AUTO 16004KT 4SM 32/20 A2938 RMK SLP969 T03200198 4////0191 57028 IEM_DS3505
ZBAA,1992-07-17 07:00,ZBAA 170700Z AUTO 14002KT 6SM 31/21 A2938 RMK SLP962 T03100210 IEM_DS3505
ZBAA,1992-07-17 08:00,ZBAA 170800Z AUTO 23002KT 6SM 32/20 A2935 RMK SLP952 T03200200 IEM_DS3505
ZBAA,1992-07-17 09:00,ZBAA 170900Z AUTO 16004KT 7SM 34/18 A2935 RMK SLP955 T03350176 57014 IEM_DS3505
ZBAA,1992-07-17 10:00,ZBAA 171000Z AUTO 16006KT 6SM 31/20 A2935 RMK SLP952 T03100200 IEM_DS3505
ZBAA,1992-07-17 11:00,ZBAA 171100Z AUTO 14004KT 7SM 30/21 A2935 RMK SLP952 T03000210 IEM_DS3505
ZBAA,1992-07-17 12:00,ZBAA 171200Z AUTO 18006KT 12SM 31/17 A2935 RMK SLP957 T03100170 52002 IEM_DS3505
ZBAA,1992-07-17 13:00,ZBAA 171300Z AUTO 06002KT 7SM 27/21 A2938 RMK SLP963 T02700210 IEM_DS3505
ZBAA,1992-07-17 14:00,ZBAA 171400Z AUTO 10002KT 7SM 26/22 A2938 RMK SLP963 T02600220 IEM_DS3505
ZBAA,1992-07-17 15:00,ZBAA 171500Z AUTO 14002KT 12SM 28/18 A2938 RMK SLP965 T02820176 52008 IEM_DS3505
ZBAA,1992-07-17 16:00,ZBAA 171600Z AUTO 00000KT 6SM 25/21 A2938 RMK SLP963 T02500210 IEM_DS3505
ZBAA,1992-07-17 17:00,ZBAA 171700Z AUTO 10004KT 6SM 24/20 A2938 RMK SLP964 T02400200 IEM_DS3505
ZBAA,1992-07-17 18:00,ZBAA 171800Z AUTO 04004KT 9SM 25/21 A2935 RMK SLP960 T02460213 40343//// 57005 IEM_DS3505
ZBAA,1992-07-17 19:00,ZBAA 171900Z AUTO 11002KT 6SM 23/19 A2935 RMK SLP954 T02300190 IEM_DS3505
ZBAA,1992-07-17 21:00,ZBAA 172100Z AUTO 04002KT 9SM 24/20 A2938 RMK SLP964 T02420196 52005 IEM_DS3505
ZBAA,1992-07-17 23:00,ZBAA 172300Z AUTO 00000KT 7SM 24/20 A2941 RMK SLP974 T02400200 IEM_DS3505
ZBAA,1992-07-18 00:00,ZBAA 180000Z AUTO 14004KT 6SM 28/19 A2941 RMK SLP978 T02800190 52014 IEM_DS3505
ZBAA,1992-07-18 01:00,ZBAA 180100Z AUTO 36004KT 7SM 31/20 A2941 RMK SLP972 T03100200 IEM_DS3505
ZBAA,1992-07-18 02:00,ZBAA 180200Z AUTO 35014KT 6SM 33/14 A2941 RMK SLP972 T03300140 IEM_DS3505
ZBAA,1992-07-18 03:00,ZBAA 180300Z AUTO 36006KT 12SM 33/14 A2941 RMK SLP976 T03340145 57002 IEM_DS3505
ZBAA,1992-07-18 04:00,ZBAA 180400Z AUTO 28008KT 6SM 34/16 A2941 RMK SLP972 T03400160 IEM_DS3505
ZBAA,1992-07-18 05:00,ZBAA 180500Z AUTO 32006KT 6SM 35/17 A2941 RMK SLP971 T03500170 IEM_DS3505
ZBAA,1992-07-18 06:00,ZBAA 180600Z AUTO 02006KT 19SM 36/14 A2941 RMK SLP972 T03630144 4////0236 57004 IEM_DS3505
ZBAA,1992-07-18 07:00,ZBAA 180700Z AUTO 06006KT 6SM 35/19 A2938 RMK SLP961 T03500190 IEM_DS3505
ZBAA,1992-07-18 08:00,ZBAA 180800Z AUTO 06006KT 7SM 34/17 A2938 RMK SLP961 T03400170 IEM_DS3505
ZBAA,1992-07-18 09:00,ZBAA 180900Z AUTO 04006KT 19SM 36/16 A2938 RMK SLP966 T03600157 57006 IEM_DS3505
ZBAA,1992-07-18 10:00,ZBAA 181000Z AUTO 14002KT 7SM 34/17 A2938 RMK SLP961 T03400170 IEM_DS3505
ZBAA,1992-07-18 11:00,ZBAA 181100Z AUTO 09002KT 7SM 32/18 A2938 RMK SLP962 T03200180 IEM_DS3505
ZBAA,1992-07-18 12:00,ZBAA 181200Z AUTO 09002KT 16SM 32/18 A2941 RMK SLP974 T03170175 52008 IEM_DS3505
ZBAA,1992-07-18 13:00,ZBAA 181300Z AUTO 07002KT 7SM 29/19 A2944 RMK SLP983 T02900190 IEM_DS3505
ZBAA,1992-07-18 14:00,ZBAA 181400Z AUTO 04002KT 7SM 28/19 A2944 RMK SLP983 T02800190 IEM_DS3505
ZBAA,1992-07-18 15:00,ZBAA 181500Z AUTO 00000KT 12SM 27/20 A2947 RMK SLP993 T02720201 52019 IEM_DS3505
ZBAA,1992-07-18 16:00,ZBAA 181600Z AUTO 00000KT 7SM 26/20 A2947 RMK SLP993 T02600200 IEM_DS3505
ZBAA,1992-07-18 17:00,ZBAA 181700Z AUTO 00000KT 7SM 25/22 A2947 RMK SLP993 T02500220 IEM_DS3505
ZBAA,1992-07-18 18:00,ZBAA 181800Z AUTO 04002KT 19SM 25/20 A2948 RMK SLP994 T02530200 40374//// 52001 IEM_DS3505
ZBAA,1992-07-18 19:00,ZBAA 181900Z AUTO 00000KT 7SM 24/20 A2947 RMK SLP994 T02400200 IEM_DS3505
ZBAA,1992-07-18 21:00,ZBAA 182100Z AUTO 36002KT 12SM 24/20 A2947 RMK SLP996 T02410203 52002 IEM_DS3505
ZBAA,1992-07-18 22:00,ZBAA 182200Z AUTO 02002KT 7SM 23/20 A2947 RMK SLP994 T02300200 IEM_DS3505
ZBAA,1992-07-18 23:00,ZBAA 182300Z AUTO 12002KT 7SM 25/22 A2950 RMK SLP004 T02500220 IEM_DS3505
ZBAA,1992-07-19 00:00,ZBAA 190000Z AUTO 34002KT 5SM 27/22 A2950 RMK SLP004 T02660217 52007 IEM_DS3505
ZBAA,1992-07-19 01:00,ZBAA 190100Z AUTO 10004KT 7SM 28/23 A2950 RMK SLP003 T02800230 IEM_DS3505
ZBAA,1992-07-19 02:00,ZBAA 190200Z AUTO 11004KT 7SM 30/24 A2950 RMK SLP003 T03000240 IEM_DS3505
ZBAA,1992-07-19 03:00,ZBAA 190300Z AUTO 36004KT 2 1/2SM 32/22 A2947 RMK SLP999 T03160217 57005 IEM_DS3505
ZBAA,1992-07-19 04:00,ZBAA 190400Z AUTO 10004KT 7SM 32/25 A2947 RMK SLP992 T03200250 IEM_DS3505
ZBAA,1992-07-19 05:00,ZBAA 190500Z AUTO 12008KT 7SM 34/26 A2947 RMK SLP992 T03400260 IEM_DS3505
ZBAA,1992-07-19 06:00,ZBAA 190600Z AUTO 18010KT 7SM 35/21 A2944 RMK SLP985 T03540212 4////0239 57013 IEM_DS3505
ZBAA,1992-07-19 07:00,ZBAA 190700Z AUTO 17008KT 7SM 35/25 A2944 RMK SLP981 T03500250 IEM_DS3505
ZBAA,1992-07-19 08:00,ZBAA 190800Z AUTO 11006KT 6SM 34/26 A2941 RMK SLP972 T03400260 IEM_DS3505
ZBAA,1992-07-19 09:00,ZBAA 190900Z AUTO 18008KT 9SM 36/21 A2941 RMK SLP971 T03600207 57014 IEM_DS3505
ZBAA,1992-07-19 10:00,ZBAA 191000Z AUTO 08008KT 6SM 33/26 A2941 RMK SLP972 T03300260 IEM_DS3505
ZBAA,1992-07-19 12:00,ZBAA 191200Z AUTO 18010KT 7SM 33/22 A2942 RMK SLP976 T03260225 52005 IEM_DS3505
ZBAA,1992-07-19 13:00,ZBAA 191300Z AUTO 11008KT 7SM 30/23 A2947 RMK SLP992 T03000230 IEM_DS3505
ZBAA,1992-07-19 14:00,ZBAA 191400Z AUTO 14023G41KT 7SM 27/20 A2950 RMK SLP003 T02700200 IEM_DS3505
ZBAA,1992-07-19 15:00,ZBAA 191500Z AUTO 09010KT 9SM 30/22 A2953 RMK SLP004 T03000216 52028 IEM_DS3505
ZBAA,1992-07-19 16:00,ZBAA 191600Z AUTO 35006KT 7SM A2956 RMK SLP024 IEM_DS3505
ZBAA,1992-07-19 17:00,ZBAA 191700Z AUTO 02008KT 7SM 22/21 A2956 RMK SLP024 T02200210 IEM_DS3505
ZBAA,1992-07-19 18:00,ZBAA 191800Z AUTO 36004KT 12SM 23/21 A2953 RMK 60020 SLP020 T02270207 40363//// 52015 IEM_DS3505
ZBAA,1992-07-19 19:00,ZBAA 191900Z AUTO 35006KT 7SM 22/21 A2953 RMK SLP014 T02200210 IEM_DS3505
ZBAA,1992-07-19 20:00,ZBAA 192000Z AUTO 34006KT 7SM 22/21 A2950 RMK SLP004 T02200210 IEM_DS3505
ZBAA,1992-07-19 21:00,ZBAA 192100Z AUTO 07002KT 12SM 23/21 A2953 RMK 70020 SLP008 T02300207 57012 IEM_DS3505
ZBAA,1992-07-19 22:00,ZBAA 192200Z AUTO 36002KT 7SM 23/21 A2953 RMK SLP014 T02300210 IEM_DS3505
ZBAA,1992-07-19 23:00,ZBAA 192300Z AUTO 34004KT 7SM 23/21 A2956 RMK SLP024 T02300210 IEM_DS3505
ZBAA,1992-07-20 00:00,ZBAA 200000Z AUTO 04004KT 6SM 24/20 A2956 RMK 70185 SLP018 T02430204 52010 IEM_DS3505
ZBAA,1992-07-20 01:00,ZBAA 200100Z AUTO 01004KT 7SM 24/21 A2953 RMK SLP014 T02400210 IEM_DS3505
ZBAA,1992-07-20 03:00,ZBAA 200300Z AUTO 04002KT 6SM 25/20 A2955 RMK SLP021 T02540204 52003 IEM_DS3505
ZBAA,1992-07-20 04:00,ZBAA 200400Z AUTO 00000KT 7SM 28/23 A2953 RMK SLP013 T02800230 IEM_DS3505
ZBAA,1992-07-20 06:00,ZBAA 200600Z AUTO 09002KT 1 1/4SM 28/22 A2950 RMK SLP004 T02780222 4////0221 57017 IEM_DS3505
ZBAA,1992-07-20 09:00,ZBAA 200900Z AUTO 00000KT 2SM 28/23 A2947 RMK SLP992 T02850232 57012 IEM_DS3505
ZBAA,1992-07-20 12:00,ZBAA 201200Z AUTO 00000KT 3SM 27/24 A2950 RMK SLP004 T02740238 52012 IEM_DS3505
ZBAA,1992-07-20 13:00,ZBAA 201300Z AUTO 14004KT 7SM 27/23 A2950 RMK SLP003 T02700230 IEM_DS3505
ZBAA,1992-07-20 14:00,ZBAA 201400Z AUTO 13004KT 7SM 26/24 A2953 RMK SLP013 T02600240 IEM_DS3505
ZBAA,1992-07-20 15:00,ZBAA 201500Z AUTO 18002KT 4SM 27/23 A2953 RMK SLP010 T02680230 52006 IEM_DS3505
ZBAA,1992-07-20 18:00,ZBAA 201800Z AUTO 36006KT 7SM 23/21 A2951 RMK SLP007 T02320212 40289//// 57003 IEM_DS3505
ZBAA,1992-07-20 19:00,ZBAA 201900Z AUTO 31006KT 7SM 22/22 A2950 RMK SLP004 T02200220 IEM_DS3505
ZBAA,1992-07-20 21:00,ZBAA 202100Z AUTO 00000KT 12SM 21/21 A2950 RMK 70031 SLP008 T02140206 54000 IEM_DS3505
ZBAA,1992-07-20 22:00,ZBAA 202200Z AUTO 35006KT 5SM 22/22 A2950 RMK SLP004 T02200220 IEM_DS3505
ZBAA,1992-07-20 23:00,ZBAA 202300Z AUTO 06002KT 5SM 22/22 A2953 RMK SLP014 T02200220 IEM_DS3505
ZBAA,1992-07-21 00:00,ZBAA 210000Z AUTO 00000KT 6SM 23/22 A2952 RMK 60031 70020 SLP012 T02260217 52004 IEM_DS3505
ZBAA,1992-07-21 01:00,ZBAA 210100Z AUTO 35004KT 7SM 23/22 A2953 RMK SLP014 T02300220 IEM_DS3505
ZBAA,1992-07-21 02:00,ZBAA 210200Z AUTO 31004KT 7SM 23/22 A2953 RMK SLP014 T02300220 IEM_DS3505
ZBAA,1992-07-21 03:00,ZBAA 210300Z AUTO 00000KT 4SM 25/21 A2953 RMK SLP014 T02530213 52003 IEM_DS3505
ZBAA,1992-07-21 04:00,ZBAA 210400Z AUTO 08002KT 6SM 26/23 A2953 RMK SLP013 T02600230 IEM_DS3505
ZBAA,1992-07-21 05:00,ZBAA 210500Z AUTO 00000KT 6SM 29/24 A2953 RMK SLP013 T02900240 IEM_DS3505
ZBAA,1992-07-21 06:00,ZBAA 210600Z AUTO 16004KT 6SM 30/21 A2950 RMK SLP008 T03020209 4////0211 57006 IEM_DS3505
ZBAA,1992-07-21 07:00,ZBAA 210700Z AUTO 18004KT 6SM 31/22 A2950 RMK SLP002 T03100220 IEM_DS3505
ZBAA,1992-07-21 08:00,ZBAA 210800Z AUTO 16004KT 6SM 31/22 A2950 RMK SLP002 T03100220 IEM_DS3505
ZBAA,1992-07-21 09:00,ZBAA 210900Z AUTO 22008KT 5SM 30/21 A2950 RMK SLP007 T03050214 57001 IEM_DS3505
ZBAA,1992-07-21 10:00,ZBAA 211000Z AUTO 18006KT 6SM 29/23 A2950 RMK SLP003 T02900230 IEM_DS3505
ZBAA,1992-07-21 11:00,ZBAA 211100Z AUTO 20006KT 6SM 28/22 A2950 RMK SLP003 T02800220 IEM_DS3505
ZBAA,1992-07-21 12:00,ZBAA 211200Z AUTO 22006KT 7SM 29/22 A2953 RMK SLP019 T02860215 52012 IEM_DS3505
ZBAA,1992-07-21 13:00,ZBAA 211300Z AUTO 6SM 26/23 A2956 RMK SLP023 T02600230 IEM_DS3505
ZBAA,1992-07-21 14:00,ZBAA 211400Z AUTO 00000KT 7SM 25/23 A2959 RMK SLP035 T02500230 IEM_DS3505
ZBAA,1992-07-21 15:00,ZBAA 211500Z AUTO 29002KT 7SM 25/22 A2959 RMK SLP036 T02500220 52016 IEM_DS3505
ZBAA,1992-07-21 16:00,ZBAA 211600Z AUTO 00000KT 7SM 24/23 A2959 RMK SLP035 T02400230 IEM_DS3505
ZBAA,1992-07-21 17:00,ZBAA 211700Z AUTO 35004KT 6SM 24/23 A2962 RMK SLP045 T02400230 IEM_DS3505
ZBAA,1992-07-21 18:00,ZBAA 211800Z AUTO 36004KT 7SM 26/22 A2962 RMK SLP042 T02550224 40311//// 52007 IEM_DS3505
ZBAA,1992-07-21 19:00,ZBAA 211900Z AUTO 34004KT 6SM 24/22 A2962 RMK SLP045 T02400220 IEM_DS3505
ZBAA,1992-07-21 20:00,ZBAA 212000Z AUTO 6SM 24/21 A2962 RMK SLP045 T02400210 IEM_DS3505
ZBAA,1992-07-21 21:00,ZBAA 212100Z AUTO 22006KT 5SM 24/20 A2965 RMK 70004 SLP054 T02420196 52012 IEM_DS3505
ZBAA,1992-07-21 22:00,ZBAA 212200Z AUTO 32004KT 6SM 23/19 A2968 RMK SLP065 T02300190 IEM_DS3505
ZBAA,1992-07-21 23:00,ZBAA 212300Z AUTO 36006KT 6SM 24/19 A2968 RMK SLP065 T02400190 IEM_DS3505
ZBAA,1992-07-22 00:00,ZBAA 220000Z AUTO 36002KT 3SM 27/21 A2971 RMK SLP066 T02700212 52012 IEM_DS3505
ZBAA,1992-07-22 01:00,ZBAA 220100Z AUTO 03006KT 6SM 28/19 A2968 RMK SLP064 T02800190 IEM_DS3505
ZBAA,1992-07-22 02:00,ZBAA 220200Z AUTO 03008KT 6SM 29/19 A2968 RMK SLP064 T02900190 IEM_DS3505
ZBAA,1992-07-22 03:00,ZBAA 220300Z AUTO 04004KT 12SM 30/17 A2968 RMK SLP064 T03000168 57002 IEM_DS3505
ZBAA,1992-07-22 04:00,ZBAA 220400Z AUTO 06004KT 6SM 31/18 A2968 RMK SLP064 T03100180 IEM_DS3505
ZBAA,1992-07-22 05:00,ZBAA 220500Z AUTO 11002KT 6SM 31/19 A2968 RMK SLP064 T03100190 IEM_DS3505
ZBAA,1992-07-22 06:00,ZBAA 220600Z AUTO 27004KT 11SM 32/17 A2965 RMK SLP053 T03220173 4////0230 57011 IEM_DS3505
ZBAA,1992-07-22 07:00,ZBAA 220700Z AUTO 18002KT 6SM 30/19 A2965 RMK SLP054 T03000190 IEM_DS3505
ZBAA,1992-07-22 08:00,ZBAA 220800Z AUTO 21006KT 6SM 32/19 A2965 RMK SLP053 T03200190 IEM_DS3505
ZBAA,1992-07-22 09:00,ZBAA 220900Z AUTO 20006KT 12SM 31/18 A2965 RMK SLP054 T03060178 52001 IEM_DS3505
ZBAA,1992-07-22 10:00,ZBAA 221000Z AUTO 24006KT 7SM 28/21 A2968 RMK SLP064 T02800210 IEM_DS3505
ZBAA,1992-07-22 11:00,ZBAA 221100Z AUTO 15002KT 7SM 28/21 A2965 RMK SLP054 T02800210 IEM_DS3505
ZBAA,1992-07-22 12:00,ZBAA 221200Z AUTO 36002KT 9SM 28/18 A2968 RMK 60000 SLP060 T02760183 52006 IEM_DS3505
ZBAA,1992-07-22 13:00,ZBAA 221300Z AUTO 02006KT 7SM 28/21 A2977 RMK SLP095 T02800210 IEM_DS3505
ZBAA,1992-07-22 14:00,ZBAA 221400Z AUTO 16008KT 7SM 25/21 A2971 RMK SLP075 T02500210 IEM_DS3505
ZBAA,1992-07-22 15:00,ZBAA 221500Z AUTO 00000KT 6SM 24/22 A2973 RMK SLP081 T02370221 52020 IEM_DS3505
ZBAA,1992-07-22 16:00,ZBAA 221600Z AUTO 03002KT 6SM 24/20 A2974 RMK SLP085 T02400200 IEM_DS3505
ZBAA,1992-07-22 17:00,ZBAA 221700Z AUTO 01002KT 6SM 24/20 A2974 RMK SLP085 T02400200 IEM_DS3505
ZBAA,1992-07-22 18:00,ZBAA 221800Z AUTO 36002KT 6SM 24/22 A2974 RMK 60012 SLP081 T02410217 40327//// 52001 IEM_DS3505
ZBAA,1992-07-22 19:00,ZBAA 221900Z AUTO 02002KT 6SM 24/21 A2971 RMK SLP075 T02400210 IEM_DS3505
ZBAA,1992-07-22 20:00,ZBAA 222000Z AUTO 00000KT 6SM 24/21 A2971 RMK SLP075 T02400210 IEM_DS3505
ZBAA,1992-07-22 21:00,ZBAA 222100Z AUTO 36002KT 4SM 24/21 A2971 RMK 70012 SLP079 T02390210 57003 IEM_DS3505
ZBAA,1992-07-22 22:00,ZBAA 222200Z AUTO 00000KT 7SM 24/20 A2974 RMK SLP085 T02400200 IEM_DS3505
ZBAA,1992-07-22 23:00,ZBAA 222300Z AUTO 04004KT 7SM 24/22 A2971 RMK SLP075 T02400220 IEM_DS3505
ZBAA,1992-07-23 00:00,ZBAA 230000Z AUTO 36002KT 4SM 25/21 A2974 RMK 70110 SLP079 T02470206 54000 IEM_DS3505
ZBAA,1992-07-23 01:00,ZBAA 230100Z AUTO 05002KT 4SM 26/23 A2971 RMK SLP075 T02600230 IEM_DS3505
ZBAA,1992-07-23 02:00,ZBAA 230200Z AUTO 07002KT 4SM 27/24 A2971 RMK SLP075 T02700240 IEM_DS3505
ZBAA,1992-07-23 03:00,ZBAA 230300Z AUTO 04004KT 5SM 27/22 A2968 RMK SLP064 T02700223 57015 IEM_DS3505
ZBAA,1992-07-23 04:00,ZBAA 230400Z AUTO 13006KT 3SM 28/25 A2965 RMK SLP054 T02800250 IEM_DS3505
ZBAA,1992-07-23 05:00,ZBAA 230500Z AUTO 25008KT 7SM 23/23 A2965 RMK SLP055 T02300230 IEM_DS3505
ZBAA,1992-07-23 06:00,ZBAA 230600Z AUTO 04002KT 6SM 24/22 A2967 RMK 60035 SLP060 T02440220 4////0230 57004 IEM_DS3505
ZBAA,1992-07-23 07:00,ZBAA 230700Z AUTO 09006KT 7SM 24/24 A2968 RMK SLP065 T02400240 IEM_DS3505
ZBAA,1992-07-23 08:00,ZBAA 230800Z AUTO 07004KT 7SM 24/24 A2968 RMK SLP065 T02400240 IEM_DS3505
ZBAA,1992-07-23 09:00,ZBAA 230900Z AUTO 11002KT 3SM 24/23 A2968 RMK SLP057 T02370227 57003 IEM_DS3505
ZBAA,1992-07-23 10:00,ZBAA 231000Z AUTO 10008KT 7SM 23/23 A2962 RMK SLP045 T02300230 IEM_DS3505
ZBAA,1992-07-23 11:00,ZBAA 231100Z AUTO 10006KT 7SM 22/22 A2962 RMK SLP045 T02200220 IEM_DS3505
ZBAA,1992-07-23 12:00,ZBAA 231200Z AUTO 11002KT 2SM 23/22 A2959 RMK 60055 SLP036 T02270215 57021 IEM_DS3505
ZBAA,1992-07-23 13:00,ZBAA 231300Z AUTO 10006KT 7SM 22/22 A2962 RMK SLP045 T02200220 IEM_DS3505
ZBAA,1992-07-23 14:00,ZBAA 231400Z AUTO 11006KT 7SM 22/22 A2959 RMK SLP035 T02200220 IEM_DS3505
ZBAA,1992-07-23 15:00,ZBAA 231500Z AUTO 04002KT 1 1/4SM 22/22 A2959 RMK SLP035 T02250216 57001 IEM_DS3505
ZBAA,1992-07-23 16:00,ZBAA 231600Z AUTO 32006KT 4SM 22/22 A2956 RMK SLP024 T02200220 IEM_DS3505
ZBAA,1992-07-23 17:00,ZBAA 231700Z AUTO 32006KT 2SM 22/22 A2956 RMK SLP024 T02200220 IEM_DS3505
ZBAA,1992-07-23 18:00,ZBAA 231800Z AUTO 00000KT 1SM 22/22 A2954 RMK 60004 SLP019 T02200217 40277//// 57016 IEM_DS3505
ZBAA,1992-07-23 19:00,ZBAA 231900Z AUTO 34006KT 1 1/2SM 22/22 A2953 RMK SLP014 T02200220 IEM_DS3505
ZBAA,1992-07-23 20:00,ZBAA 232000Z AUTO 36006KT 1 1/2SM 22/22 A2953 RMK SLP014 T02200220 IEM_DS3505
ZBAA,1992-07-23 21:00,ZBAA 232100Z AUTO 14002KT 1SM 22/21 A2956 RMK 70091 SLP029 T02200212 52010 IEM_DS3505
ZBAA,1992-07-23 22:00,ZBAA 232200Z AUTO 00000KT 2SM 22/22 A2959 RMK SLP035 T02200220 IEM_DS3505
ZBAA,1992-07-23 23:00,ZBAA 232300Z AUTO 00000KT 2SM 22/22 A2959 RMK SLP035 T02200220 IEM_DS3505
ZBAA,1992-07-24 00:00,ZBAA 240000Z AUTO 36004KT 1SM 23/22 A2959 RMK 70913 SLP035 T02320220 52006 IEM_DS3505
ZBAA,1992-07-24 01:00,ZBAA 240100Z AUTO 00000KT 4SM 24/22 A2959 RMK SLP035 T02400220 IEM_DS3505
ZBAA,1992-07-24 02:00,ZBAA 240200Z AUTO 15004KT 4SM 24/22 A2959 RMK SLP035 T02400220 IEM_DS3505
ZBAA,1992-07-24 03:00,ZBAA 240300Z AUTO 18004KT 3SM 26/22 A2959 RMK SLP036 T02580221 52001 IEM_DS3505
ZBAA,1992-07-24 04:00,ZBAA 240400Z AUTO 16002KT 2SM 27/23 A2959 RMK SLP034 T02700230 IEM_DS3505
ZBAA,1992-07-24 05:00,ZBAA 240500Z AUTO 25004KT 2SM 28/24 A2956 RMK SLP023 T02800240 IEM_DS3505
ZBAA,1992-07-24 06:00,ZBAA 240600Z AUTO 22004KT 2 1/2SM 29/23 A2953 RMK SLP023 T02880229 4////0218 57013 IEM_DS3505
ZBAA,1992-07-24 07:00,ZBAA 240700Z AUTO 17004KT 1 1/2SM 28/24 A2953 RMK SLP013 T02800240 IEM_DS3505
ZBAA,1992-07-24 08:00,ZBAA 240800Z AUTO 19006KT 2 1/2SM 29/24 A2953 RMK SLP013 T02900240 IEM_DS3505
ZBAA,1992-07-24 09:00,ZBAA 240900Z AUTO 22004KT 5SM 29/24 A2953 RMK SLP020 T02870238 57003 IEM_DS3505
ZBAA,1992-07-24 10:00,ZBAA 241000Z AUTO 17006KT 6SM 28/24 A2956 RMK SLP023 T02800240 IEM_DS3505
ZBAA,1992-07-24 11:00,ZBAA 241100Z AUTO 18004KT 6SM 27/24 A2956 RMK SLP023 T02700240 IEM_DS3505
ZBAA,1992-07-24 12:00,ZBAA 241200Z AUTO 18002KT 3SM 27/24 A2956 RMK SLP026 T02720241 52006 IEM_DS3505
ZBAA,1992-07-24 13:00,ZBAA 241300Z AUTO 00000KT 4SM 26/24 A2956 RMK SLP023 T02600240 IEM_DS3505
ZBAA,1992-07-24 14:00,ZBAA 241400Z AUTO 00000KT 4SM 25/24 A2956 RMK SLP024 T02500240 IEM_DS3505
ZBAA,1992-07-24 15:00,ZBAA 241500Z AUTO 16002KT 4SM 26/24 A2959 RMK SLP031 T02640244 52006 IEM_DS3505
ZBAA,1992-07-24 16:00,ZBAA 241600Z AUTO 00000KT 3SM 25/24 A2959 RMK SLP035 T02500240 IEM_DS3505
ZBAA,1992-07-24 17:00,ZBAA 241700Z AUTO 00000KT 2 1/2SM 24/24 A2959 RMK SLP035 T02400240 IEM_DS3505
ZBAA,1992-07-24 18:00,ZBAA 241800Z AUTO 00000KT 2 1/2SM 25/24 A2956 RMK SLP030 T02540245 40296//// 57001 IEM_DS3505
ZBAA,1992-07-24 19:00,ZBAA 241900Z AUTO 14002KT 1 1/2SM 24/24 A2959 RMK SLP035 T02400240 IEM_DS3505
ZBAA,1992-07-24 20:00,ZBAA 242000Z AUTO 00000KT 1 1/4SM 24/24 A2959 RMK SLP035 T02400240 IEM_DS3505
ZBAA,1992-07-24 21:00,ZBAA 242100Z AUTO 00000KT 1SM 26/25 A2959 RMK SLP033 T02560247 52003 IEM_DS3505
ZBAA,1992-07-24 22:00,ZBAA 242200Z AUTO 04004KT 1SM RMK IEM_DS3505
ZBAA,1992-07-24 23:00,ZBAA 242300Z AUTO 04002KT 1 1/4SM 25/24 A2956 RMK SLP024 T02500240 IEM_DS3505
ZBAA,1992-07-25 00:00,ZBAA 250000Z AUTO 04002KT 1 1/4SM 26/24 A2959 RMK SLP034 T02580242 52001 IEM_DS3505
ZBAA,1992-07-25 01:00,ZBAA 250100Z AUTO 05004KT 1 1/2SM 26/25 A2956 RMK SLP023 T02600250 IEM_DS3505
ZBAA,1992-07-25 02:00,ZBAA 250200Z AUTO 05004KT 2 1/2SM 27/25 A2956 RMK SLP023 T02700250 IEM_DS3505
ZBAA,1992-07-25 03:00,ZBAA 250300Z AUTO 04004KT 2SM 27/24 A2953 RMK SLP022 T02670244 57012 IEM_DS3505
ZBAA,1992-07-25 04:00,ZBAA 250400Z AUTO 03002KT 2SM 27/25 A2953 RMK SLP013 T02700250 IEM_DS3505
ZBAA,1992-07-25 05:00,ZBAA 250500Z AUTO 00000KT 2SM 27/26 A2950 RMK SLP003 T02700260 IEM_DS3505
ZBAA,1992-07-25 06:00,ZBAA 250600Z AUTO 29002KT 1SM 26/25 A2950 RMK SLP007 T02640250 4////0252 57015 IEM_DS3505
ZBAA,1992-07-25 07:00,ZBAA 250700Z AUTO 30004KT 2SM 27/25 A2947 RMK SLP993 T02700250 IEM_DS3505
ZBAA,1992-07-25 08:00,ZBAA 250800Z AUTO 32004KT 1 1/2SM 28/26 A2944 RMK SLP983 T02800260 IEM_DS3505
ZBAA,1992-07-25 09:00,ZBAA 250900Z AUTO 00000KT 1SM 27/25 A2944 RMK SLP992 T02710254 57015 IEM_DS3505
ZBAA,1992-07-25 10:00,ZBAA 251000Z AUTO 00000KT 1 1/4SM 28/26 A2941 RMK SLP973 T02800260 IEM_DS3505
ZBAA,1992-07-25 11:00,ZBAA 251100Z AUTO 29002KT 1SM 28/27 A2941 RMK SLP973 T02800270 IEM_DS3505
ZBAA,1992-07-25 12:00,ZBAA 251200Z AUTO 00000KT 1 1/4SM 27/26 A2941 RMK 60000 SLP976 T02720258 57016 IEM_DS3505
ZBAA,1992-07-25 13:00,ZBAA 251300Z AUTO 30004KT 1SM 27/26 A2938 RMK SLP963 T02700260 IEM_DS3505
ZBAA,1992-07-25 14:00,ZBAA 251400Z AUTO 24008KT 1SM 26/26 A2941 RMK SLP973 T02600260 IEM_DS3505
ZBAA,1992-07-25 15:00,ZBAA 251500Z AUTO 00000KT 3SM 25/25 A2944 RMK SLP982 T02520248 52006 IEM_DS3505
ZBAA,1992-07-25 16:00,ZBAA 251600Z AUTO 25002KT 3SM RMK IEM_DS3505
ZBAA,1992-07-25 17:00,ZBAA 251700Z AUTO 21004KT 3SM 25/25 A2941 RMK SLP973 T02500250 IEM_DS3505
ZBAA,1992-07-25 18:00,ZBAA 251800Z AUTO 18002KT 9SM 26/21 A2944 RMK 60224 SLP985 T02550213 40275//// 52003 IEM_DS3505
ZBAA,1992-07-25 19:00,ZBAA 251900Z AUTO 28010KT 6SM 25/23 A2947 RMK SLP993 T02500230 IEM_DS3505
ZBAA,1992-07-25 20:00,ZBAA 252000Z AUTO 30010KT 6SM 25/20 A2950 RMK SLP004 T02500200 IEM_DS3505
ZBAA,1992-07-25 21:00,ZBAA 252100Z AUTO 36006KT 19SM 26/17 A2950 RMK 70224 SLP005 T02590170 52020 IEM_DS3505
ZBAA,1992-07-25 22:00,ZBAA 252200Z AUTO 29014KT 6SM 25/18 A2953 RMK SLP014 T02500180 IEM_DS3505
ZBAA,1992-07-25 23:00,ZBAA 252300Z AUTO 29012KT 6SM 26/18 A2953 RMK SLP013 T02600180 IEM_DS3505
ZBAA,1992-07-26 00:00,ZBAA 260000Z AUTO 32004KT 19SM 26/19 A2956 RMK 72244 SLP025 T02640188 52020 IEM_DS3505
ZBAA,1992-07-26 01:00,ZBAA 260100Z AUTO 30008KT 6SM 29/19 A2956 RMK SLP023 T02900190 IEM_DS3505
ZBAA,1992-07-26 02:00,ZBAA 260200Z AUTO 30008KT 6SM 30/19 A2959 RMK SLP034 T03000190 IEM_DS3505
ZBAA,1992-07-26 03:00,ZBAA 260300Z AUTO 32002KT 19SM 31/18 A2959 RMK SLP034 T03060178 52009 IEM_DS3505
ZBAA,1992-07-26 04:00,ZBAA 260400Z AUTO 35006KT 6SM 32/19 A2956 RMK SLP022 T03200190 IEM_DS3505
ZBAA,1992-07-26 05:00,ZBAA 260500Z AUTO 29008KT 6SM 32/20 A2956 RMK SLP022 T03200200 IEM_DS3505
ZBAA,1992-07-26 06:00,ZBAA 260600Z AUTO 20006KT 16SM 33/21 A2956 RMK SLP025 T03300206 57009 IEM_DS3505
ZBAA,1992-07-26 07:00,ZBAA 260700Z AUTO 22006KT 6SM 33/22 A2953 RMK SLP012 T03300220 IEM_DS3505
ZBAA,1992-07-26 08:00,ZBAA 260800Z AUTO 16008KT 6SM 33/22 A2956 RMK SLP022 T03300220 IEM_DS3505
ZBAA,1992-07-26 09:00,ZBAA 260900Z AUTO 20006KT 17SM 33/19 A2953 RMK SLP023 T03320187 57002 IEM_DS3505
ZBAA,1992-07-26 10:00,ZBAA 261000Z AUTO 19006KT 6SM 31/24 A2956 RMK SLP022 T03100240 IEM_DS3505
ZBAA,1992-07-26 11:00,ZBAA 261100Z AUTO 17004KT 6SM 30/24 A2956 RMK SLP023 T03000240 IEM_DS3505
ZBAA,1992-07-26 12:00,ZBAA 261200Z AUTO 18006KT 12SM 30/22 A2959 RMK SLP031 T02980224 52008 IEM_DS3505
ZBAA,1992-07-26 13:00,ZBAA 261300Z AUTO 12002KT 6SM 28/22 A2959 RMK SLP034 T02800220 IEM_DS3505
ZBAA,1992-07-26 14:00,ZBAA 261400Z AUTO 00000KT 6SM 27/24 A2959 RMK SLP034 T02700240 IEM_DS3505
ZBAA,1992-07-26 15:00,ZBAA 261500Z AUTO 27002KT 12SM 28/24 A2962 RMK SLP039 T02800237 52008 IEM_DS3505
ZBAA,1992-07-26 16:00,ZBAA 261600Z AUTO 36002KT 6SM 26/24 A2962 RMK SLP045 T02600240 IEM_DS3505
ZBAA,1992-07-26 17:00,ZBAA 261700Z AUTO 12002KT 6SM 26/24 A2959 RMK SLP035 T02600240 IEM_DS3505
ZBAA,1992-07-26 18:00,ZBAA 261800Z AUTO 00000KT 12SM 27/24 A2962 RMK SLP039 T02680241 40335//// 54000 IEM_DS3505
ZBAA,1992-07-26 19:00,ZBAA 261900Z AUTO 00000KT 6SM 26/25 A2962 RMK SLP045 T02600250 IEM_DS3505
ZBAA,1992-07-26 20:00,ZBAA 262000Z AUTO 35004KT 6SM 25/24 A2962 RMK SLP045 T02500240 IEM_DS3505
ZBAA,1992-07-26 21:00,ZBAA 262100Z AUTO 02002KT 9SM 26/23 A2962 RMK SLP046 T02600234 52007 IEM_DS3505
ZBAA,1992-07-26 22:00,ZBAA 262200Z AUTO 35004KT 6SM 25/23 A2965 RMK SLP055 T02500230 IEM_DS3505
ZBAA,1992-07-26 23:00,ZBAA 262300Z AUTO 34002KT 6SM 26/23 A2965 RMK SLP055 T02600230 IEM_DS3505
ZBAA,1992-07-27 00:00,ZBAA 270000Z AUTO 00000KT 5SM 28/23 A2966 RMK SLP057 T02800231 52011 IEM_DS3505
ZBAA,1992-07-27 01:00,ZBAA 270100Z AUTO 22002KT 7SM 27/24 A2968 RMK SLP065 T02700240 IEM_DS3505
ZBAA,1992-07-27 02:00,ZBAA 270200Z AUTO 21004KT 6SM 28/25 A2971 RMK SLP074 T02800250 IEM_DS3505
ZBAA,1992-07-27 03:00,ZBAA 270300Z AUTO 00000KT 6SM 28/22 A2968 RMK SLP065 T02820217 52008 IEM_DS3505
ZBAA,1992-07-27 04:00,ZBAA 270400Z AUTO 27004KT 4SM 30/25 A2968 RMK SLP064 T03000250 IEM_DS3505
ZBAA,1992-07-27 05:00,ZBAA 270500Z AUTO 19004KT 4SM 29/25 A2968 RMK SLP064 T02900250 IEM_DS3505
ZBAA,1992-07-27 06:00,ZBAA 270600Z AUTO 22006KT 7SM 29/17 A2968 RMK SLP061 T02880174 4////0254 57004 IEM_DS3505
ZBAA,1992-07-27 07:00,ZBAA 270700Z AUTO 21006KT 4SM 28/21 A2968 RMK SLP064 T02800210 IEM_DS3505
ZBAA,1992-07-27 08:00,ZBAA 270800Z AUTO 22004KT 6SM 28/22 A2968 RMK SLP064 T02800220 IEM_DS3505
ZBAA,1992-07-27 09:00,ZBAA 270900Z AUTO 22004KT 9SM 29/19 A2968 RMK SLP059 T02870191 57002 IEM_DS3505
ZBAA,1992-07-27 10:00,ZBAA 271000Z AUTO 17004KT 6SM 27/20 A2965 RMK SLP054 T02700200 IEM_DS3505
ZBAA,1992-07-27 11:00,ZBAA 271100Z AUTO 32002KT 6SM 27/20 A2968 RMK SLP065 T02700200 IEM_DS3505
ZBAA,1992-07-27 12:00,ZBAA 271200Z AUTO 20002KT 7SM 27/20 A2968 RMK SLP060 T02710196 52001 IEM_DS3505
ZBAA,1992-07-27 13:00,ZBAA 271300Z AUTO 15002KT 6SM 26/20 A2968 RMK SLP065 T02600200 IEM_DS3505
ZBAA,1992-07-27 14:00,ZBAA 271400Z AUTO 06002KT 6SM 25/21 A2968 RMK SLP065 T02500210 IEM_DS3505
ZBAA,1992-07-27 15:00,ZBAA 271500Z AUTO 34002KT 6SM 24/20 A2968 RMK SLP061 T02390198 54000 IEM_DS3505
ZBAA,1992-07-27 18:00,ZBAA 271800Z AUTO 02002KT 6SM 25/20 A2966 RMK SLP057 T02500196 40295//// 57003 IEM_DS3505
ZBAA,1992-07-27 20:00,ZBAA 272000Z AUTO 20004KT 6SM 24/22 A2965 RMK SLP055 T02400220 IEM_DS3505
ZBAA,1992-07-27 21:00,ZBAA 272100Z AUTO 29002KT 4SM 24/22 A2965 RMK SLP059 T02400215 52001 IEM_DS3505
ZBAA,1992-07-27 22:00,ZBAA 272200Z AUTO 28006KT 4SM 23/22 A2971 RMK SLP075 T02300220 IEM_DS3505
ZBAA,1992-07-27 23:00,ZBAA 272300Z AUTO 35010KT 7SM 21/21 A2974 RMK SLP086 T02100210 IEM_DS3505
ZBAA,1992-07-28 00:00,ZBAA 280000Z AUTO 36008KT 9SM 21/19 A2971 RMK 60004 70039 SLP076 T02100194 52017 IEM_DS3505
ZBAA,1992-07-28 01:00,ZBAA 280100Z AUTO 36006KT 7SM 21/21 A2974 RMK SLP086 T02100210 IEM_DS3505
ZBAA,1992-07-28 02:00,ZBAA 280200Z AUTO 35010KT 7SM 22/21 A2971 RMK SLP076 T02200210 IEM_DS3505
ZBAA,1992-07-28 03:00,ZBAA 280300Z AUTO 04004KT 6SM 24/19 A2970 RMK SLP073 T02420193 57003 IEM_DS3505
ZBAA,1992-07-28 04:00,ZBAA 280400Z AUTO 36008KT 7SM 23/20 A2971 RMK SLP075 T02300200 IEM_DS3505
ZBAA,1992-07-28 05:00,ZBAA 280500Z AUTO 36008KT 7SM 24/20 A2968 RMK SLP065 T02400200 IEM_DS3505
ZBAA,1992-07-28 06:00,ZBAA 280600Z AUTO 07004KT 9SM 25/21 A2965 RMK SLP058 T02540206 4////0209 57015 IEM_DS3505
ZBAA,1992-07-28 07:00,ZBAA 280700Z AUTO 01004KT 7SM 24/20 A2965 RMK SLP055 T02400200 IEM_DS3505
ZBAA,1992-07-28 08:00,ZBAA 280800Z AUTO 06002KT 7SM 25/21 A2962 RMK SLP045 T02500210 IEM_DS3505
ZBAA,1992-07-28 09:00,ZBAA 280900Z AUTO 09002KT 9SM 25/20 A2959 RMK SLP046 T02520199 57012 IEM_DS3505
ZBAA,1992-07-28 10:00,ZBAA 281000Z AUTO 28002KT 7SM 24/21 A2962 RMK SLP045 T02400210 IEM_DS3505
ZBAA,1992-07-28 11:00,ZBAA 281100Z AUTO 35004KT 7SM 24/21 A2962 RMK SLP045 T02400210 IEM_DS3505
ZBAA,1992-07-28 12:00,ZBAA 281200Z AUTO 36002KT 4SM 25/21 A2962 RMK SLP043 T02460208 57003 IEM_DS3505
ZBAA,1992-07-28 13:00,ZBAA 281300Z AUTO 31002KT 7SM 24/21 A2959 RMK SLP035 T02400210 IEM_DS3505
ZBAA,1992-07-28 14:00,ZBAA 281400Z AUTO 34004KT 7SM 23/22 A2959 RMK SLP035 T02300220 IEM_DS3505
ZBAA,1992-07-28 15:00,ZBAA 281500Z AUTO 36002KT 4SM 24/21 A2959 RMK SLP032 T02420206 57011 IEM_DS3505
ZBAA,1992-07-28 16:00,ZBAA 281600Z AUTO 32006KT 7SM 23/22 A2956 RMK SLP024 T02300220 IEM_DS3505
ZBAA,1992-07-28 17:00,ZBAA 281700Z AUTO 35004KT 7SM 23/22 A2953 RMK SLP014 T02300220 IEM_DS3505
ZBAA,1992-07-28 18:00,ZBAA 281800Z AUTO 00000KT 2 1/2SM 22/22 A2947 RMK 60004 SLP004 T02220216 40261//// 57028 IEM_DS3505
ZBAA,1992-07-28 19:00,ZBAA 281900Z AUTO 31004KT 7SM RMK IEM_DS3505
ZBAA,1992-07-28 20:00,ZBAA 282000Z AUTO 29008KT 2SM 22/22 A2944 RMK SLP984 T02200220 IEM_DS3505
ZBAA,1992-07-28 21:00,ZBAA 282100Z AUTO 00000KT 2SM 22/21 A2944 RMK 70118 SLP985 T02190214 57019 IEM_DS3505
ZBAA,1992-07-28 22:00,ZBAA 282200Z AUTO 00000KT 2 1/2SM 22/22 A2944 RMK SLP984 T02200220 IEM_DS3505
ZBAA,1992-07-28 23:00,ZBAA 282300Z AUTO 28002KT 2 1/2SM 22/22 A2941 RMK SLP974 T02200220 IEM_DS3505
ZBAA,1992-07-29 00:00,ZBAA 290000Z AUTO 18004KT 1 1/2SM 23/22 A2944 RMK 60114 71173 SLP983 T02310221 57002 IEM_DS3505
ZBAA,1992-07-29 01:00,ZBAA 290100Z AUTO 23004KT 2 1/2SM 23/23 A2944 RMK SLP984 T02300230 IEM_DS3505
ZBAA,1992-07-29 02:00,ZBAA 290200Z AUTO 28002KT 4SM 25/25 A2941 RMK SLP973 T02500250 IEM_DS3505
ZBAA,1992-07-29 03:00,ZBAA 290300Z AUTO 00000KT 2SM 28/24 A2941 RMK SLP980 T02780236 57002 IEM_DS3505
ZBAA,1992-07-29 04:00,ZBAA 290400Z AUTO 15004KT 6SM 30/24 A2941 RMK SLP972 T03000240 IEM_DS3505
ZBAA,1992-07-29 05:00,ZBAA 290500Z AUTO 21006KT 6SM 30/20 A2941 RMK SLP972 T03000200 IEM_DS3505
ZBAA,1992-07-29 06:00,ZBAA 290600Z AUTO 27006KT 9SM 32/19 A2943 RMK SLP978 T03180190 4////0215 57002 IEM_DS3505
ZBAA,1992-07-29 07:00,ZBAA 290700Z AUTO 30004KT 6SM 31/19 A2938 RMK SLP962 T03100190 IEM_DS3505
ZBAA,1992-07-29 09:00,ZBAA 290900Z AUTO 32008KT 19SM 31/18 A2941 RMK SLP980 T03090176 52002 IEM_DS3505
ZBAA,1992-07-29 10:00,ZBAA 291000Z AUTO 33004KT 6SM 29/17 A2944 RMK SLP983 T02900170 IEM_DS3505
ZBAA,1992-07-29 11:00,ZBAA 291100Z AUTO 27004KT 6SM 28/17 A2944 RMK SLP983 T02800170 IEM_DS3505
ZBAA,1992-07-29 12:00,ZBAA 291200Z AUTO 00000KT 6SM 27/17 A2947 RMK SLP993 T02700170 IEM_DS3505
ZBAA,1992-07-29 13:00,ZBAA 291300Z AUTO 36006KT 6SM 26/17 A2953 RMK SLP013 T02600170 IEM_DS3505
ZBAA,1992-07-29 14:00,ZBAA 291400Z AUTO 36006KT 7SM 26/15 A2953 RMK SLP013 T02600150 IEM_DS3505
ZBAA,1992-07-29 15:00,ZBAA 291500Z AUTO 36002KT 19SM 25/16 A2956 RMK SLP016 T02510157 52014 IEM_DS3505
ZBAA,1992-07-29 16:00,ZBAA 291600Z AUTO 01004KT 7SM 23/16 A2956 RMK SLP024 T02300160 IEM_DS3505
ZBAA,1992-07-29 17:00,ZBAA 291700Z AUTO 01004KT 7SM 22/16 A2959 RMK SLP035 T02200160 IEM_DS3505
ZBAA,1992-07-29 18:00,ZBAA 291800Z AUTO 36004KT 19SM 22/17 A2959 RMK SLP032 T02250167 40319//// 52016 IEM_DS3505
ZBAA,1992-07-29 19:00,ZBAA 291900Z AUTO 10002KT 7SM 21/16 A2959 RMK SLP036 T02100160 IEM_DS3505
ZBAA,1992-07-29 20:00,ZBAA 292000Z AUTO 13002KT 7SM 20/17 A2959 RMK SLP036 T02000170 IEM_DS3505
ZBAA,1992-07-29 21:00,ZBAA 292100Z AUTO 04002KT 19SM 20/17 A2959 RMK 70001 SLP034 T02010170 52001 IEM_DS3505
ZBAA,1992-07-29 22:00,ZBAA 292200Z AUTO 00000KT 7SM 21/17 A2959 RMK SLP036 T02100170 IEM_DS3505
ZBAA,1992-07-29 23:00,ZBAA 292300Z AUTO 00000KT 7SM 22/17 A2962 RMK SLP045 T02200170 IEM_DS3505
ZBAA,1992-07-30 00:00,ZBAA 300000Z AUTO 07002KT 19SM 26/17 A2962 RMK SLP044 T02630169 52011 IEM_DS3505
ZBAA,1992-07-30 01:00,ZBAA 300100Z AUTO 00000KT 7SM 26/18 A2962 RMK SLP045 T02600180 IEM_DS3505
ZBAA,1992-07-30 02:00,ZBAA 300200Z AUTO 00000KT 7SM 27/18 A2962 RMK SLP044 T02700180 IEM_DS3505
ZBAA,1992-07-30 03:00,ZBAA 300300Z AUTO 18006KT 7SM 30/17 A2962 RMK SLP047 T02960171 52003 IEM_DS3505
ZBAA,1992-07-30 05:00,ZBAA 300500Z AUTO 18004KT 7SM 30/21 A2962 RMK SLP044 T03000210 IEM_DS3505
ZBAA,1992-07-30 06:00,ZBAA 300600Z AUTO 18006KT 16SM 31/19 A2961 RMK SLP040 T03140186 4////0195 57007 IEM_DS3505
ZBAA,1992-07-30 07:00,ZBAA 300700Z AUTO 21004KT 7SM 32/21 A2959 RMK SLP033 T03200210 IEM_DS3505
ZBAA,1992-07-30 08:00,ZBAA 300800Z AUTO 19002KT 7SM 31/20 A2959 RMK SLP034 T03100200 IEM_DS3505
ZBAA,1992-07-30 09:00,ZBAA 300900Z AUTO 20008KT 12SM 31/19 A2956 RMK SLP032 T03140190 57009 IEM_DS3505
ZBAA,1992-07-30 10:00,ZBAA 301000Z AUTO 00000KT 7SM 30/21 A2959 RMK SLP034 T03000210 IEM_DS3505
ZBAA,1992-07-30 11:00,ZBAA 301100Z AUTO 20002KT 12SM 29/21 A2962 RMK SLP044 T02870206 52013 IEM_DS3505
ZBAA,1992-07-30 12:00,ZBAA 301200Z AUTO 20002KT 12SM 29/21 A2962 RMK SLP044 T02870206 52013 IEM_DS3505
ZBAA,1992-07-30 13:00,ZBAA 301300Z AUTO 26002KT 7SM 27/22 A2965 RMK SLP054 T02700220 IEM_DS3505
ZBAA,1992-07-30 14:00,ZBAA 301400Z AUTO 18006KT 7SM 27/21 A2959 RMK SLP034 T02700210 IEM_DS3505
ZBAA,1992-07-30 15:00,ZBAA 301500Z AUTO 36002KT 16SM 25/18 A2962 RMK SLP036 T02540177 57008 IEM_DS3505
ZBAA,1992-07-30 16:00,ZBAA 301600Z AUTO 26002KT 7SM 25/20 A2962 RMK SLP045 T02500200 IEM_DS3505
ZBAA,1992-07-30 17:00,ZBAA 301700Z AUTO 00000KT 6SM 24/20 A2962 RMK SLP045 T02400200 IEM_DS3505
ZBAA,1992-07-30 18:00,ZBAA 301800Z AUTO 00000KT 7SM 24/18 A2962 RMK 60000 SLP043 T02400184 40321//// 52007 IEM_DS3505
ZBAA,1992-07-30 19:00,ZBAA 301900Z AUTO 00000KT 6SM 22/20 A2962 RMK SLP045 T02200200 IEM_DS3505
ZBAA,1992-07-30 20:00,ZBAA 302000Z AUTO 00000KT 6SM 22/20 A2962 RMK SLP045 T02200200 IEM_DS3505
ZBAA,1992-07-30 21:00,ZBAA 302100Z AUTO 00000KT 9SM 22/19 A2965 RMK 70000 SLP050 T02160193 52007 IEM_DS3505
ZBAA,1992-07-30 22:00,ZBAA 302200Z AUTO 00000KT 6SM 22/21 A2965 RMK SLP056 T02200210 IEM_DS3505
ZBAA,1992-07-30 23:00,ZBAA 302300Z AUTO 12004KT 6SM 23/21 A2968 RMK SLP065 T02300210 IEM_DS3505
ZBAA,1992-07-31 00:00,ZBAA 310000Z AUTO 00000KT 5SM 25/20 A2968 RMK 70004 SLP066 T02470203 52015 IEM_DS3505
ZBAA,1992-07-31 03:00,ZBAA 310300Z AUTO 22002KT 4SM 28/21 A2968 RMK SLP065 T02850207 54000 IEM_DS3505
ZBAA,1992-07-31 04:00,ZBAA 310400Z AUTO 10004KT 6SM 30/23 A2968 RMK SLP064 T03000230 IEM_DS3505
ZBAA,1992-07-31 05:00,ZBAA 310500Z AUTO 17004KT 6SM 30/23 A2968 RMK SLP064 T03000230 IEM_DS3505
ZBAA,1992-07-31 06:00,ZBAA 310600Z AUTO 18008KT 9SM 31/21 A2968 RMK SLP058 T03130213 4////0215 57007 IEM_DS3505
ZBAA,1992-07-31 07:00,ZBAA 310700Z AUTO 20002KT 6SM 29/23 RMK T02900230 IEM_DS3505
ZBAA,1992-07-31 08:00,ZBAA 310800Z AUTO 02004KT 6SM 28/23 A2968 RMK SLP064 T02800230 IEM_DS3505
ZBAA,1992-07-31 09:00,ZBAA 310900Z AUTO 32010KT 11SM 25/18 A2971 RMK SLP073 T02460182 52014 IEM_DS3505
ZBAA,1992-07-31 10:00,ZBAA 311000Z AUTO 34008KT 4SM 21/21 A2971 RMK SLP076 T02100210 IEM_DS3505
ZBAA,1992-07-31 11:00,ZBAA 311100Z AUTO 07004KT 4SM 21/21 A2971 RMK SLP076 T02100210 IEM_DS3505
ZBAA,1992-07-31 12:00,ZBAA 311200Z AUTO 04004KT 6SM 22/21 A2974 RMK 60047 SLP073 T02200206 54000 IEM_DS3505
ZBAA,1992-07-31 13:00,ZBAA 311300Z AUTO 03004KT 7SM 21/21 A2971 RMK SLP076 T02100210 IEM_DS3505
ZBAA,1992-07-31 14:00,ZBAA 311400Z AUTO 25004KT 7SM 21/21 A2974 RMK SLP086 T02100210 IEM_DS3505
ZBAA,1992-07-31 15:00,ZBAA 311500Z AUTO 00000KT 4SM 22/21 A2974 RMK SLP080 T02180209 52007 IEM_DS3505
ZBAA,1992-07-31 16:00,ZBAA 311600Z AUTO 31002KT 6SM 21/21 A2974 RMK SLP086 T02100210 IEM_DS3505
ZBAA,1992-07-31 17:00,ZBAA 311700Z AUTO 35004KT 6SM 21/21 A2977 RMK SLP096 T02100210 IEM_DS3505
ZBAA,1992-07-31 18:00,ZBAA 311800Z AUTO 34002KT 4SM 22/21 A2977 RMK SLP088 T02160208 40314//// 52008 IEM_DS3505
ZBAA,1992-07-31 19:00,ZBAA 311900Z AUTO 35002KT 2 1/2SM 21/21 A2977 RMK SLP096 T02100210 IEM_DS3505
ZBAA,1992-07-31 20:00,ZBAA 312000Z AUTO 00000KT 2 1/2SM 21/21 A2977 RMK SLP096 T02100210 IEM_DS3505
ZBAA,1992-07-31 21:00,ZBAA 312100Z AUTO 36002KT 5SM 22/20 A2977 RMK 70043 SLP092 T02180204 52004 IEM_DS3505
ZBAA,1992-07-31 22:00,ZBAA 312200Z AUTO 34002KT 2 1/2SM 21/21 A2977 RMK SLP096 T02100210 IEM_DS3505
ZBAA,1992-07-31 23:00,ZBAA 312300Z AUTO 32004KT 2 1/2SM 22/22 A2977 RMK SLP096 T02200220 IEM_DS3505
ZBAA,1992-08-01 00:00,ZBAA 010000Z AUTO 36002KT 5SM 23/20 A2979 RMK 70453 SLP101 T02340203 52008 IEM_DS3505
ZBAA,1992-08-01 01:00,ZBAA 010100Z AUTO 00000KT 5SM 25/22 A2980 RMK SLP104 T02500220 IEM_DS3505
ZBAA,1992-08-01 02:00,ZBAA 010200Z AUTO 07002KT 6SM 25/22 A2980 RMK SLP104 T02500220 IEM_DS3505
ZBAA,1992-08-01 03:00,ZBAA 010300Z AUTO 36004KT 6SM 26/20 A2980 RMK SLP103 T02560205 52003 IEM_DS3505
ZBAA,1992-08-01 04:00,ZBAA 010400Z AUTO 12004KT 6SM 28/23 A2977 RMK SLP093 T02800230 IEM_DS3505
ZBAA,1992-08-01 05:00,ZBAA 010500Z AUTO 10004KT 6SM 28/23 A2974 RMK SLP083 T02800230 IEM_DS3505
ZBAA,1992-08-01 06:00,ZBAA 010600Z AUTO 00000KT 6SM 28/23 A2971 RMK SLP073 T02800230 IEM_DS3505
ZBAA,1992-08-01 07:00,ZBAA 010700Z AUTO 01004KT 6SM 28/24 A2971 RMK SLP073 T02800240 IEM_DS3505
ZBAA,1992-08-01 08:00,ZBAA 010800Z AUTO 36002KT 6SM 28/24 A2971 RMK SLP073 T02800240 IEM_DS3505
ZBAA,1992-08-01 09:00,ZBAA 010900Z AUTO 36004KT 4SM 28/23 A2968 RMK SLP071 T02840234 57011 IEM_DS3505
ZBAA,1992-08-01 10:00,ZBAA 011000Z AUTO 34006KT 6SM 28/24 A2968 RMK SLP063 T02800240 IEM_DS3505
ZBAA,1992-08-01 11:00,ZBAA 011100Z AUTO 34004KT 6SM 27/24 A2968 RMK SLP064 T02700240 IEM_DS3505
ZBAA,1992-08-01 12:00,ZBAA 011200Z AUTO 36002KT 4SM 26/23 A2971 RMK SLP071 T02650229 54000 IEM_DS3505
ZBAA,1992-08-01 13:00,ZBAA 011300Z AUTO 29004KT 3SM 26/24 A2974 RMK SLP084 T02600240 IEM_DS3505
ZBAA,1992-08-01 15:00,ZBAA 011500Z AUTO 00000KT 4SM 26/23 A2974 RMK SLP084 T02600229 52013 IEM_DS3505
ZBAA,1992-08-01 16:00,ZBAA 011600Z AUTO 12004KT 4SM RMK IEM_DS3505
ZBAA,1992-08-01 17:00,ZBAA 011700Z AUTO 11006KT 5SM 24/23 A2974 RMK SLP084 T02400230 IEM_DS3505
ZBAA,1992-08-01 18:00,ZBAA 011800Z AUTO 09006KT 2 1/2SM 25/23 A2974 RMK SLP084 T02520232 40289//// 54000 IEM_DS3505
ZBAA,1992-08-01 19:00,ZBAA 011900Z AUTO 05002KT 4SM 24/22 A2974 RMK SLP084 T02400220 IEM_DS3505
ZBAA,1992-08-01 20:00,ZBAA 012000Z AUTO 00000KT 4SM 23/22 A2971 RMK SLP074 T02300220 IEM_DS3505
ZBAA,1992-08-01 21:00,ZBAA 012100Z AUTO 09002KT 3SM 24/22 A2974 RMK SLP085 T02440220 52001 IEM_DS3505
ZBAA,1992-08-01 22:00,ZBAA 012200Z AUTO 3SM 24/23 A2974 RMK SLP084 T02400230 IEM_DS3505
ZBAA,1992-08-01 23:00,ZBAA 012300Z AUTO 3SM 24/23 A2974 RMK SLP084 T02400230 IEM_DS3505
ZBAA,1992-08-02 00:00,ZBAA 020000Z AUTO 09002KT 3SM 25/22 A2974 RMK SLP085 T02480215 54000 IEM_DS3505
ZBAA,1992-08-02 01:00,ZBAA 020100Z AUTO 08006KT 4SM 26/22 A2974 RMK SLP084 T02600220 IEM_DS3505
ZBAA,1992-08-02 02:00,ZBAA 020200Z AUTO 11004KT 4SM 26/23 A2974 RMK SLP084 T02600230 IEM_DS3505
ZBAA,1992-08-02 03:00,ZBAA 020300Z AUTO 36006KT 3SM 27/22 A2974 RMK SLP085 T02660223 54000 IEM_DS3505
ZBAA,1992-08-02 04:00,ZBAA 020400Z AUTO 05004KT 5SM 28/24 A2974 RMK SLP083 T02800240 IEM_DS3505
ZBAA,1992-08-02 05:00,ZBAA 020500Z AUTO 05004KT 5SM 28/25 A2971 RMK SLP073 T02800250 IEM_DS3505
ZBAA,1992-08-02 06:00,ZBAA 020600Z AUTO 36004KT 1SM 24/23 A2971 RMK 60035 SLP073 T02410231 4////0239 57012 IEM_DS3505
ZBAA,1992-08-02 07:00,ZBAA 020700Z AUTO 31006KT 2 1/2SM 25/25 A2971 RMK SLP074 T02500250 IEM_DS3505
ZBAA,1992-08-02 08:00,ZBAA 020800Z AUTO 31004KT 2 1/2SM 25/25 A2971 RMK SLP074 T02500250 IEM_DS3505
ZBAA,1992-08-02 09:00,ZBAA 020900Z AUTO 34002KT 1SM 24/23 A2970 RMK SLP070 T02400233 57003 IEM_DS3505
ZBAA,1992-08-02 10:00,ZBAA 021000Z AUTO 07008KT 1 1/2SM 24/24 A2968 RMK SLP064 T02400240 IEM_DS3505
ZBAA,1992-08-02 11:00,ZBAA 021100Z AUTO 10006KT 5SM 24/24 A2971 RMK SLP074 T02400240 IEM_DS3505
ZBAA,1992-08-02 12:00,ZBAA 021200Z AUTO 04002KT 1SM 25/24 A2971 RMK 60094 SLP074 T02470241 52004 IEM_DS3505
ZBAA,1992-08-02 13:00,ZBAA 021300Z AUTO 10004KT 3SM 24/24 A2974 RMK SLP084 T02400240 IEM_DS3505
ZBAA,1992-08-02 14:00,ZBAA 021400Z AUTO 11004KT 2SM 23/23 A2974 RMK SLP084 T02300230 IEM_DS3505
ZBAA,1992-08-02 15:00,ZBAA 021500Z AUTO 00000KT 1SM 24/24 A2974 RMK SLP073 T02440240 57001 IEM_DS3505
ZBAA,1992-08-02 16:00,ZBAA 021600Z AUTO 08006KT 2 1/2SM 23/23 A2971 RMK SLP074 T02300230 IEM_DS3505
ZBAA,1992-08-02 17:00,ZBAA 021700Z AUTO 07006KT 2 1/2SM 23/23 A2971 RMK SLP074 T02300230 IEM_DS3505
ZBAA,1992-08-02 18:00,ZBAA 021800Z AUTO 09004KT 1SM 24/24 A2971 RMK 60055 SLP070 T02390236 40267//// 57003 IEM_DS3505
ZBAA,1992-08-02 19:00,ZBAA 021900Z AUTO 13004KT 2SM 22/22 A2971 RMK SLP075 T02200220 IEM_DS3505
ZBAA,1992-08-02 20:00,ZBAA 022000Z AUTO 06006KT 1 1/2SM 22/22 A2968 RMK SLP065 T02200220 IEM_DS3505
ZBAA,1992-08-02 21:00,ZBAA 022100Z AUTO 36006KT 1SM 23/22 A2968 RMK 70232 SLP068 T02270224 57002 IEM_DS3505
ZBAA,1992-08-02 22:00,ZBAA 022200Z AUTO 07004KT 1 1/4SM 23/23 A2971 RMK SLP074 T02300230 IEM_DS3505
ZBAA,1992-08-02 23:00,ZBAA 022300Z AUTO 03006KT 1 1/4SM 23/23 A2971 RMK SLP074 T02300230 IEM_DS3505
ZBAA,1992-08-03 00:00,ZBAA 030000Z AUTO 36004KT 1SM 23/22 A2968 RMK 60059 72461 SLP069 T02300224 52001 IEM_DS3505
ZBAA,1992-08-03 01:00,ZBAA 030100Z AUTO 08004KT 2 1/2SM 24/24 A2971 RMK SLP074 T02400240 IEM_DS3505
ZBAA,1992-08-03 02:00,ZBAA 030200Z AUTO 11006KT 2 1/2SM 24/24 A2974 RMK SLP084 T02400240 IEM_DS3505
ZBAA,1992-08-03 03:00,ZBAA 030300Z AUTO 07004KT 1SM 24/23 A2974 RMK SLP083 T02380232 52014 IEM_DS3505
ZBAA,1992-08-03 04:00,ZBAA 030400Z AUTO 09004KT 2 1/2SM 25/25 A2974 RMK SLP084 T02500250 IEM_DS3505
ZBAA,1992-08-03 05:00,ZBAA 030500Z AUTO 08006KT 4SM 26/25 A2971 RMK SLP074 T02600250 IEM_DS3505
ZBAA,1992-08-03 06:00,ZBAA 030600Z AUTO 34002KT 1SM 25/24 A2971 RMK SLP070 T02470237 4////0224 57013 IEM_DS3505
ZBAA,1992-08-03 07:00,ZBAA 030700Z AUTO 07004KT 1 1/4SM 24/24 A2968 RMK SLP064 T02400240 IEM_DS3505
ZBAA,1992-08-03 08:00,ZBAA 030800Z AUTO 02004KT 1 1/4SM 24/24 A2968 RMK SLP064 T02400240 IEM_DS3505
ZBAA,1992-08-03 09:00,ZBAA 030900Z AUTO 18008KT 1SM 24/24 A2968 RMK SLP067 T02440235 57003 IEM_DS3505
ZBAA,1992-08-03 10:00,ZBAA 031000Z AUTO 03006KT 2SM 24/24 A2965 RMK SLP054 T02400240 IEM_DS3505
ZBAA,1992-08-03 11:00,ZBAA 031100Z AUTO 06006KT 2SM 24/24 A2968 RMK SLP064 T02400240 IEM_DS3505
ZBAA,1992-08-03 12:00,ZBAA 031200Z AUTO 14002KT 1 1/4SM 24/23 A2971 RMK 60047 SLP071 T02380232 52004 IEM_DS3505
ZBAA,1992-08-03 13:00,ZBAA 031300Z AUTO 10002KT 5SM 24/24 A2971 RMK SLP074 T02400240 IEM_DS3505
ZBAA,1992-08-03 14:00,ZBAA 031400Z AUTO 35004KT 3SM 24/24 A2971 RMK SLP074 T02400240 IEM_DS3505
ZBAA,1992-08-03 15:00,ZBAA 031500Z AUTO 07002KT 1SM 24/23 A2974 RMK SLP076 T02380234 52005 IEM_DS3505
ZBAA,1992-08-03 16:00,ZBAA 031600Z AUTO 12004KT 4SM 24/24 A2974 RMK SLP084 T02400240 IEM_DS3505
ZBAA,1992-08-03 17:00,ZBAA 031700Z AUTO 00000KT 4SM 24/24 A2974 RMK SLP084 T02400240 IEM_DS3505
ZBAA,1992-08-03 18:00,ZBAA 031800Z AUTO 02002KT 3/8SM 24/24 A2974 RMK 60012 SLP076 T02360235 40250//// 54000 IEM_DS3505
ZBAA,1992-08-03 19:00,ZBAA 031900Z AUTO 00000KT 2 1/2SM 24/24 A2974 RMK SLP084 T02400240 IEM_DS3505
ZBAA,1992-08-03 20:00,ZBAA 032000Z AUTO 07002KT 2 1/2SM 24/24 A2974 RMK SLP084 T02400240 IEM_DS3505
ZBAA,1992-08-03 21:00,ZBAA 032100Z AUTO 36002KT 1SM 24/23 A2974 RMK 70075 SLP080 T02360233 52004 IEM_DS3505
ZBAA,1992-08-03 22:00,ZBAA 032200Z AUTO 13002KT 1 1/4SM 23/23 A2977 RMK SLP095 T02300230 IEM_DS3505
ZBAA,1992-08-03 23:00,ZBAA 032300Z AUTO 08002KT 1 1/4SM 24/24 A2974 RMK SLP084 T02400240 IEM_DS3505
ZBAA,1992-08-04 00:00,ZBAA 040000Z AUTO 00000KT 1 1/2SM 25/24 A2977 RMK 60000 70606 SLP091 T02460237 52011 IEM_DS3505
ZBAA,1992-08-04 01:00,ZBAA 040100Z AUTO 09002KT 3SM 26/26 A2977 RMK SLP094 T02600260 IEM_DS3505
ZBAA,1992-08-04 02:00,ZBAA 040200Z AUTO 11004KT 7SM 26/25 A2977 RMK SLP094 T02600250 IEM_DS3505
ZBAA,1992-08-04 03:00,ZBAA 040300Z AUTO 07002KT 2SM 27/24 A2976 RMK SLP091 T02690239 54000 IEM_DS3505
ZBAA,1992-08-04 04:00,ZBAA 040400Z AUTO 10004KT 7SM 29/27 A2977 RMK SLP093 T02900270 IEM_DS3505
ZBAA,1992-08-04 05:00,ZBAA 040500Z AUTO 09004KT 7SM 29/26 A2977 RMK SLP093 T02900260 IEM_DS3505
ZBAA,1992-08-04 06:00,ZBAA 040600Z AUTO 18002KT 2 1/2SM 30/24 A2974 RMK SLP086 T02980241 4////0235 57005 IEM_DS3505
ZBAA,1992-08-04 07:00,ZBAA 040700Z AUTO 14004KT 7SM 30/25 A2974 RMK SLP083 T03000250 IEM_DS3505
ZBAA,1992-08-04 08:00,ZBAA 040800Z AUTO 18002KT 2 1/2SM 30/24 A2971 RMK SLP086 T02980241 57005 IEM_DS3505
ZBAA,1992-08-04 09:00,ZBAA 040900Z AUTO 18004KT 4SM 30/24 A2971 RMK SLP076 T02960237 57010 IEM_DS3505
ZBAA,1992-08-04 10:00,ZBAA 041000Z AUTO 13004KT 7SM 29/25 A2971 RMK SLP073 T02900250 IEM_DS3505
ZBAA,1992-08-04 11:00,ZBAA 041100Z AUTO 13002KT 7SM 28/25 A2974 RMK SLP083 T02800250 IEM_DS3505
ZBAA,1992-08-04 12:00,ZBAA 041200Z AUTO 00000KT 3SM 27/25 A2974 RMK SLP082 T02740248 52006 IEM_DS3505
ZBAA,1992-08-04 13:00,ZBAA 041300Z AUTO 00000KT 7SM 26/25 A2974 RMK SLP084 T02600250 IEM_DS3505
ZBAA,1992-08-04 14:00,ZBAA 041400Z AUTO 11002KT 5SM 26/25 A2974 RMK SLP084 T02600250 IEM_DS3505
ZBAA,1992-08-04 15:00,ZBAA 041500Z AUTO 00000KT 1 1/2SM 26/25 A2976 RMK SLP091 T02580247 52009 IEM_DS3505
ZBAA,1992-08-04 16:00,ZBAA 041600Z AUTO 00000KT 5SM 26/25 A2974 RMK SLP084 T02600250 IEM_DS3505
ZBAA,1992-08-04 17:00,ZBAA 041700Z AUTO 00000KT 4SM 25/25 A2974 RMK SLP084 T02500250 IEM_DS3505
ZBAA,1992-08-04 18:00,ZBAA 041800Z AUTO 00000KT 1 1/4SM 26/25 A2974 RMK SLP084 T02550248 40303//// 57006 IEM_DS3505
ZBAA,1992-08-04 19:00,ZBAA 041900Z AUTO 08004KT 2SM 25/25 A2971 RMK SLP074 T02500250 IEM_DS3505
ZBAA,1992-08-04 20:00,ZBAA 042000Z AUTO 00000KT 2SM 25/25 A2974 RMK SLP084 T02500250 IEM_DS3505
ZBAA,1992-08-04 21:00,ZBAA 042100Z AUTO 04002KT 1SM 25/24 A2974 RMK SLP083 T02510244 57002 IEM_DS3505
ZBAA,1992-08-04 22:00,ZBAA 042200Z AUTO 00000KT 1 1/4SM 25/25 A2974 RMK SLP084 T02500250 IEM_DS3505
ZBAA,1992-08-04 23:00,ZBAA 042300Z AUTO 35002KT 2SM 25/25 A2974 RMK SLP084 T02500250 IEM_DS3505
ZBAA,1992-08-05 00:00,ZBAA 050000Z AUTO 04002KT 1SM 26/25 A2974 RMK SLP085 T02560250 52002 IEM_DS3505
ZBAA,1992-08-05 01:00,ZBAA 050100Z AUTO 12002KT 2SM 27/26 A2974 RMK SLP084 T02700260 IEM_DS3505
ZBAA,1992-08-05 02:00,ZBAA 050200Z AUTO 15002KT 2SM 28/26 A2974 RMK SLP083 T02800260 IEM_DS3505
ZBAA,1992-08-05 03:00,ZBAA 050300Z AUTO 00000KT 1 1/4SM 30/24 A2974 RMK SLP081 T02970243 57003 IEM_DS3505
ZBAA,1992-08-05 04:00,ZBAA 050400Z AUTO 09002KT 2 1/2SM 30/25 A2971 RMK SLP073 T03000250 IEM_DS3505
ZBAA,1992-08-05 05:00,ZBAA 050500Z AUTO 12004KT 4SM 30/26 A2971 RMK SLP073 T03000260 IEM_DS3505
ZBAA,1992-08-05 06:00,ZBAA 050600Z AUTO 18002KT 1 1/4SM 32/25 A2968 RMK SLP070 T03170247 4////0248 57011 IEM_DS3505
ZBAA,1992-08-05 07:00,ZBAA 050700Z AUTO 11002KT 6SM 32/26 A2968 RMK SLP062 T03200260 IEM_DS3505
ZBAA,1992-08-05 08:00,ZBAA 050800Z AUTO 11002KT 6SM 31/24 A2968 RMK SLP063 T03100240 IEM_DS3505
ZBAA,1992-08-05 09:00,ZBAA 050900Z AUTO 04004KT 3SM 32/23 A2967 RMK SLP059 T03240228 57011 IEM_DS3505
ZBAA,1992-08-05 10:00,ZBAA 051000Z AUTO 31004KT 6SM 27/21 A2965 RMK SLP053 T02700210 IEM_DS3505
ZBAA,1992-08-05 11:00,ZBAA 051100Z AUTO 11006KT 6SM 26/22 A2968 RMK SLP064 T02600220 IEM_DS3505
ZBAA,1992-08-05 12:00,ZBAA 051200Z AUTO 00000KT 5SM 27/20 A2968 RMK SLP066 T02730195 52006 IEM_DS3505
ZBAA,1992-08-05 13:00,ZBAA 051300Z AUTO 00000KT 6SM 26/21 A2971 RMK SLP074 T02600210 IEM_DS3505
ZBAA,1992-08-05 14:00,ZBAA 051400Z AUTO 07004KT 6SM 26/20 A2971 RMK SLP074 T02600200 IEM_DS3505
ZBAA,1992-08-05 15:00,ZBAA 051500Z AUTO 36002KT 4SM 27/21 A2971 RMK SLP071 T02660212 52006 IEM_DS3505
ZBAA,1992-08-05 16:00,ZBAA 051600Z AUTO 03004KT 6SM 25/22 A2971 RMK SLP074 T02500220 IEM_DS3505
ZBAA,1992-08-05 17:00,ZBAA 051700Z AUTO 36004KT 6SM 25/21 A2971 RMK SLP074 T02500210 IEM_DS3505
ZBAA,1992-08-05 18:00,ZBAA 051800Z AUTO 34002KT 5SM 25/22 A2974 RMK SLP076 T02490215 40327//// 52005 IEM_DS3505
ZBAA,1992-08-05 19:00,ZBAA 051900Z AUTO 36004KT 7SM 23/22 A2971 RMK SLP074 T02300220 IEM_DS3505
ZBAA,1992-08-05 20:00,ZBAA 052000Z AUTO 02004KT 7SM 22/21 A2971 RMK SLP075 T02200210 IEM_DS3505
ZBAA,1992-08-05 21:00,ZBAA 052100Z AUTO 02004KT 5SM 24/21 A2971 RMK SLP071 T02350214 57005 IEM_DS3505
ZBAA,1992-08-05 22:00,ZBAA 052200Z AUTO 34006KT 6SM 24/21 A2971 RMK SLP074 T02400210 IEM_DS3505
ZBAA,1992-08-05 23:00,ZBAA 052300Z AUTO 33006KT 6SM 23/21 A2968 RMK SLP064 T02300210 IEM_DS3505
ZBAA,1992-08-06 00:00,ZBAA 060000Z AUTO 02006KT 16SM 26/18 A2971 RMK SLP072 T02640185 54000 IEM_DS3505
ZBAA,1992-08-06 01:00,ZBAA 060100Z AUTO 34004KT 6SM 27/22 A2971 RMK SLP074 T02700220 IEM_DS3505
ZBAA,1992-08-06 02:00,ZBAA 060200Z AUTO 03004KT 6SM 27/22 A2971 RMK SLP074 T02700220 IEM_DS3505
ZBAA,1992-08-06 03:00,ZBAA 060300Z AUTO 04004KT 16SM 29/19 A2971 RMK SLP070 T02940190 57001 IEM_DS3505
ZBAA,1992-08-06 04:00,ZBAA 060400Z AUTO 08004KT 6SM 28/23 A2971 RMK SLP073 T02800230 IEM_DS3505
ZBAA,1992-08-06 05:00,ZBAA 060500Z AUTO 09002KT 6SM 29/23 A2971 RMK SLP073 T02900230 IEM_DS3505
ZBAA,1992-08-06 06:00,ZBAA 060600Z AUTO 16006KT 16SM 30/20 A2968 RMK SLP069 T03020205 4////0231 57001 IEM_DS3505
ZBAA,1992-08-06 07:00,ZBAA 060700Z AUTO 11004KT 6SM 29/23 A2968 RMK SLP063 T02900230 IEM_DS3505
ZBAA,1992-08-06 08:00,ZBAA 060800Z AUTO 09010KT 7SM 26/21 A2968 RMK SLP064 T02600210 IEM_DS3505
ZBAA,1992-08-06 09:00,ZBAA 060900Z AUTO 09010KT 12SM 27/22 A2971 RMK SLP069 T02720219 57001 IEM_DS3505
ZBAA,1992-08-06 10:00,ZBAA 061000Z AUTO 11002KT 7SM 25/22 A2971 RMK SLP074 T02500220 IEM_DS3505
ZBAA,1992-08-06 11:00,ZBAA 061100Z AUTO 06004KT 7SM 25/22 A2974 RMK SLP084 T02500220 IEM_DS3505
ZBAA,1992-08-06 12:00,ZBAA 061200Z AUTO 00000KT 9SM 22/21 A2977 RMK 60028 SLP084 T02240210 52015 IEM_DS3505
ZBAA,1992-08-06 13:00,ZBAA 061300Z AUTO 00000KT 7SM 24/22 A2977 RMK SLP094 T02400220 IEM_DS3505
ZBAA,1992-08-06 14:00,ZBAA 061400Z AUTO 00000KT 7SM 24/22 A2977 RMK SLP094 T02400220 IEM_DS3505
ZBAA,1992-08-06 15:00,ZBAA 061500Z AUTO 00000KT 9SM 23/22 A2977 RMK SLP092 T02260219 52008 IEM_DS3505
ZBAA,1992-08-06 16:00,ZBAA 061600Z AUTO 00000KT 5SM 23/23 A2977 RMK SLP095 T02300230 IEM_DS3505
ZBAA,1992-08-06 17:00,ZBAA 061700Z AUTO 33006KT 4SM 23/23 A2980 RMK SLP105 T02300230 IEM_DS3505
ZBAA,1992-08-06 18:00,ZBAA 061800Z AUTO 04008KT 6SM 20/18 A2980 RMK 60020 SLP106 T01990185 40311//// 52014 IEM_DS3505
ZBAA,1992-08-06 19:00,ZBAA 061900Z AUTO 22002KT 7SM A2980 RMK IEM_DS3505
ZBAA,1992-08-06 20:00,ZBAA 062000Z AUTO 25004KT 6SM 19/19 A2977 RMK SLP095 T01900190 IEM_DS3505
ZBAA,1992-08-06 21:00,ZBAA 062100Z AUTO 00000KT 16SM 19/18 A2978 RMK 70047 SLP099 T01940184 57007 IEM_DS3505
ZBAA,1992-08-06 22:00,ZBAA 062200Z AUTO 28004KT 6SM 19/19 A2977 RMK SLP095 T01900190 IEM_DS3505
ZBAA,1992-08-06 23:00,ZBAA 062300Z AUTO 35004KT 7SM 20/20 A2980 RMK SLP105 T02000200 IEM_DS3505
ZBAA,1992-08-07 00:00,ZBAA 070000Z AUTO 02006KT 9SM 23/18 A2980 RMK 60001 70457 SLP105 T02260185 52005 IEM_DS3505
ZBAA,1992-08-07 01:00,ZBAA 070100Z AUTO 02004KT 7SM 25/21 A2983 RMK SLP114 T02500210 IEM_DS3505
ZBAA,1992-08-07 02:00,ZBAA 070200Z AUTO 03004KT 7SM 26/20 A2983 RMK SLP114 T02600200 IEM_DS3505
ZBAA,1992-08-07 03:00,ZBAA 070300Z AUTO 11002KT 12SM 27/16 A2983 RMK SLP107 T02680164 52003 IEM_DS3505
ZBAA,1992-08-07 04:00,ZBAA 070400Z AUTO 08002KT 7SM 28/21 A2980 RMK SLP104 T02800210 IEM_DS3505
ZBAA,1992-08-07 05:00,ZBAA 070500Z AUTO 16004KT 6SM 28/20 A2980 RMK SLP104 T02800200 IEM_DS3505
ZBAA,1992-08-07 06:00,ZBAA 070600Z AUTO 18008KT 9SM 29/18 A2977 RMK SLP101 T02860175 4////0189 57006 IEM_DS3505
ZBAA,1992-08-07 07:00,ZBAA 070700Z AUTO 18004KT 6SM 29/20 A2977 RMK SLP093 T02900200 IEM_DS3505
ZBAA,1992-08-07 08:00,ZBAA 070800Z AUTO 09006KT 6SM 28/20 A2977 RMK SLP093 T02800200 IEM_DS3505
ZBAA,1992-08-07 09:00,ZBAA 070900Z AUTO 18006KT 16SM 29/18 A2977 RMK SLP096 T02880179 57005 IEM_DS3505
ZBAA,1992-08-07 10:00,ZBAA 071000Z AUTO 16004KT 6SM 27/20 A2974 RMK SLP084 T02700200 IEM_DS3505
ZBAA,1992-08-07 11:00,ZBAA 071100Z AUTO 00000KT 6SM 26/20 A2977 RMK SLP094 T02600200 IEM_DS3505
ZBAA,1992-08-07 12:00,ZBAA 071200Z AUTO 18004KT 9SM 26/20 A2977 RMK SLP094 T02640197 57002 IEM_DS3505
ZBAA,1992-08-07 13:00,ZBAA 071300Z AUTO 11002KT 6SM 25/20 A2980 RMK SLP104 T02500200 IEM_DS3505
ZBAA,1992-08-07 14:00,ZBAA 071400Z AUTO 10002KT 6SM 25/20 A2983 RMK SLP114 T02500200 IEM_DS3505
ZBAA,1992-08-07 15:00,ZBAA 071500Z AUTO 16002KT 5SM 25/21 A2983 RMK SLP108 T02520207 52014 IEM_DS3505
ZBAA,1992-08-07 17:00,ZBAA 071700Z AUTO 13002KT 6SM 23/21 A2980 RMK SLP105 T02300210 IEM_DS3505
ZBAA,1992-08-07 18:00,ZBAA 071800Z AUTO 18006KT 4SM 23/21 A2983 RMK SLP108 T02320211 40294//// 54000 IEM_DS3505
ZBAA,1992-08-07 19:00,ZBAA 071900Z AUTO 06002KT 6SM 22/21 A2980 RMK SLP105 T02200210 IEM_DS3505
ZBAA,1992-08-07 20:00,ZBAA 072000Z AUTO 12004KT 6SM 22/20 A2980 RMK SLP105 T02200200 IEM_DS3505
ZBAA,1992-08-07 21:00,ZBAA 072100Z AUTO 14002KT 6SM 23/21 A2983 RMK SLP105 T02280210 57003 IEM_DS3505
ZBAA,1992-08-07 22:00,ZBAA 072200Z AUTO 11002KT 7SM 21/20 A2983 RMK SLP115 T02100200 IEM_DS3505
ZBAA,1992-08-07 23:00,ZBAA 072300Z AUTO 11002KT 7SM 21/20 A2983 RMK SLP115 T02100200 IEM_DS3505
ZBAA,1992-08-08 00:00,ZBAA 080000Z AUTO 11004KT 4SM 23/21 A2981 RMK SLP109 T02320208 52004 IEM_DS3505
ZBAA,1992-08-08 01:00,ZBAA 080100Z AUTO 12006KT 7SM 23/21 A2983 RMK SLP115 T02300210 IEM_DS3505
ZBAA,1992-08-08 02:00,ZBAA 080200Z AUTO 14006KT 7SM RMK IEM_DS3505
ZBAA,1992-08-08 03:00,ZBAA 080300Z AUTO 18006KT 3SM 23/21 A2980 RMK SLP105 T02330206 57004 IEM_DS3505
ZBAA,1992-08-08 04:00,ZBAA 080400Z AUTO 15004KT 7SM 23/23 A2977 RMK SLP095 T02300230 IEM_DS3505
ZBAA,1992-08-08 05:00,ZBAA 080500Z AUTO 00000KT 7SM 23/23 A2977 RMK SLP095 T02300230 IEM_DS3505
ZBAA,1992-08-08 06:00,ZBAA 080600Z AUTO 18004KT 5SM 24/21 A2977 RMK SLP093 T02420206 4////0226 57012 IEM_DS3505
ZBAA,1992-08-08 07:00,ZBAA 080700Z AUTO 36006KT 4SM 24/24 A2974 RMK SLP084 T02400240 IEM_DS3505
ZBAA,1992-08-08 08:00,ZBAA 080800Z AUTO 02006KT 4SM 24/22 A2974 RMK SLP084 T02400220 IEM_DS3505
ZBAA,1992-08-08 09:00,ZBAA 080900Z AUTO 25002KT 7SM 26/20 A2974 RMK SLP085 T02600199 57008 IEM_DS3505
ZBAA,1992-08-08 10:00,ZBAA 081000Z AUTO 03004KT 4SM 23/22 A2974 RMK SLP084 T02300220 IEM_DS3505
ZBAA,1992-08-08 11:00,ZBAA 081100Z AUTO 07002KT 7SM 23/22 A2974 RMK SLP084 T02300220 IEM_DS3505
ZBAA,1992-08-08 12:00,ZBAA 081200Z AUTO 11002KT 4SM 25/22 A2977 RMK SLP085 T02470217 54000 IEM_DS3505
ZBAA,1992-08-08 13:00,ZBAA 081300Z AUTO 08002KT 7SM 23/22 A2977 RMK SLP095 T02300220 IEM_DS3505
ZBAA,1992-08-08 14:00,ZBAA 081400Z AUTO 09004KT 7SM 22/21 A2980 RMK SLP105 T02200210 IEM_DS3505
ZBAA,1992-08-08 15:00,ZBAA 081500Z AUTO 11004KT 6SM 24/19 A2980 RMK SLP099 T02420189 52014 IEM_DS3505
ZBAA,1992-08-08 16:00,ZBAA 081600Z AUTO 11002KT 7SM 22/20 A2980 RMK SLP105 T02200200 IEM_DS3505
ZBAA,1992-08-08 17:00,ZBAA 081700Z AUTO 12002KT 7SM 22/19 A2980 RMK SLP105 T02200190 IEM_DS3505
ZBAA,1992-08-08 18:00,ZBAA 081800Z AUTO 09004KT 6SM 23/19 A2979 RMK SLP102 T02310189 40261//// 52003 IEM_DS3505
ZBAA,1992-08-08 21:00,ZBAA 082100Z AUTO 04002KT 4SM 22/19 A2978 RMK SLP099 T02210191 57003 IEM_DS3505
ZBAA,1992-08-08 22:00,ZBAA 082200Z AUTO 05002KT 6SM 21/18 A2980 RMK SLP105 T02100180 IEM_DS3505
ZBAA,1992-08-08 23:00,ZBAA 082300Z AUTO 09002KT 6SM 22/19 A2980 RMK SLP105 T02200190 IEM_DS3505
ZBAA,1992-08-09 00:00,ZBAA 090000Z AUTO 04002KT 5SM 23/19 A2980 RMK SLP104 T02310190 52005 IEM_DS3505
ZBAA,1992-08-09 01:00,ZBAA 090100Z AUTO 09004KT 7SM 24/21 A2980 RMK SLP104 T02400210 IEM_DS3505
ZBAA,1992-08-09 02:00,ZBAA 090200Z AUTO 09004KT 6SM 25/21 A2980 RMK SLP104 T02500210 IEM_DS3505
ZBAA,1992-08-09 03:00,ZBAA 090300Z AUTO 04004KT 6SM 26/20 A2980 RMK SLP101 T02560198 57003 IEM_DS3505
ZBAA,1992-08-09 04:00,ZBAA 090400Z AUTO 08002KT 7SM 25/21 A2977 RMK SLP094 T02500210 IEM_DS3505
ZBAA,1992-08-09 05:00,ZBAA 090500Z AUTO 10004KT 7SM 27/23 A2977 RMK SLP094 T02700230 IEM_DS3505
ZBAA,1992-08-09 06:00,ZBAA 090600Z AUTO 18006KT 4SM 28/20 A2974 RMK SLP089 T02830203 4////0218 57012 IEM_DS3505
ZBAA,1992-08-09 08:00,ZBAA 090800Z AUTO 09004KT 7SM 27/22 A2974 RMK SLP084 T02700220 IEM_DS3505
ZBAA,1992-08-09 09:00,ZBAA 090900Z AUTO 18004KT 5SM 28/22 A2971 RMK SLP081 T02780221 57008 IEM_DS3505
ZBAA,1992-08-09 10:00,ZBAA 091000Z AUTO 16006KT 7SM 27/23 A2971 RMK SLP074 T02700230 IEM_DS3505
ZBAA,1992-08-09 11:00,ZBAA 091100Z AUTO 13002KT 7SM 26/23 A2971 RMK SLP074 T02600230 IEM_DS3505
ZBAA,1992-08-09 12:00,ZBAA 091200Z AUTO 14004KT 4SM 27/23 A2974 RMK SLP085 T02680227 52004 IEM_DS3505
ZBAA,1992-08-09 13:00,ZBAA 091300Z AUTO 08002KT 5SM 25/24 A2977 RMK SLP094 T02500240 IEM_DS3505
ZBAA,1992-08-09 14:00,ZBAA 091400Z AUTO 09002KT 5SM 25/23 A2977 RMK SLP094 T02500230 IEM_DS3505
ZBAA,1992-08-09 15:00,ZBAA 091500Z AUTO 18004KT 3SM 26/23 A2976 RMK SLP092 T02600234 52007 IEM_DS3505
ZBAA,1992-08-09 16:00,ZBAA 091600Z AUTO 15004KT 4SM 24/23 A2977 RMK SLP094 T02400230 IEM_DS3505
ZBAA,1992-08-09 18:00,ZBAA 091800Z AUTO 18002KT 3SM 25/23 A2975 RMK SLP086 T02460231 40286//// 57006 IEM_DS3505
ZBAA,1992-08-09 19:00,ZBAA 091900Z AUTO 06002KT 2 1/2SM 23/23 A2974 RMK SLP084 T02300230 IEM_DS3505
ZBAA,1992-08-09 20:00,ZBAA 092000Z AUTO 09002KT 1 1/2SM 23/23 A2971 RMK SLP074 T02300230 IEM_DS3505
ZBAA,1992-08-09 21:00,ZBAA 092100Z AUTO 00000KT 1 1/4SM 25/23 A2974 RMK SLP083 T02460234 57003 IEM_DS3505
ZBAA,1992-08-09 22:00,ZBAA 092200Z AUTO 12002KT 1 1/2SM 23/23 A2974 RMK SLP084 T02300230 IEM_DS3505
ZBAA,1992-08-09 23:00,ZBAA 092300Z AUTO 11002KT 1 1/4SM 23/23 A2977 RMK SLP095 T02300230 IEM_DS3505
ZBAA,1992-08-10 00:00,ZBAA 100000Z AUTO 18002KT 1SM 25/24 A2977 RMK SLP095 T02460237 52012 IEM_DS3505
ZBAA,1992-08-10 01:00,ZBAA 100100Z AUTO 09004KT 1 1/2SM 25/24 A2977 RMK SLP094 T02500240 IEM_DS3505
ZBAA,1992-08-10 02:00,ZBAA 100200Z AUTO 00000KT 1 1/2SM 25/24 A2980 RMK SLP104 T02500240 IEM_DS3505
ZBAA,1992-08-10 03:00,ZBAA 100300Z AUTO 20004KT 1 1/2SM 27/24 A2977 RMK SLP093 T02660237 57002 IEM_DS3505
ZBAA,1992-08-10 04:00,ZBAA 100400Z AUTO 16004KT 1 1/4SM 27/25 A2977 RMK SLP094 T02700250 IEM_DS3505
ZBAA,1992-08-10 05:00,ZBAA 100500Z AUTO 15004KT 1 1/4SM 29/25 A2974 RMK SLP083 T02900250 IEM_DS3505
ZBAA,1992-08-10 06:00,ZBAA 100600Z AUTO 18006KT 4SM 30/23 A2974 RMK SLP084 T02950233 4////0243 57009 IEM_DS3505
ZBAA,1992-08-10 07:00,ZBAA 100700Z AUTO 13002KT 4SM 29/25 A2974 RMK SLP083 T02900250 IEM_DS3505
ZBAA,1992-08-10 08:00,ZBAA 100800Z AUTO 15006KT 7SM 29/25 A2974 RMK SLP083 T02900250 IEM_DS3505
ZBAA,1992-08-10 09:00,ZBAA 100900Z AUTO 16006KT 6SM 29/23 A2973 RMK SLP079 T02880233 57005 IEM_DS3505
ZBAA,1992-08-10 10:00,ZBAA 101000Z AUTO 14002KT 6SM 28/24 A2974 RMK SLP083 T02800240 IEM_DS3505
ZBAA,1992-08-10 11:00,ZBAA 101100Z AUTO 14004KT 6SM 27/24 A2974 RMK SLP084 T02700240 IEM_DS3505
ZBAA,1992-08-10 12:00,ZBAA 101200Z AUTO 18006KT 3SM 26/24 A2974 RMK SLP085 T02620236 52006 IEM_DS3505
ZBAA,1992-08-10 13:00,ZBAA 101300Z AUTO 16006KT 3SM 25/24 A2974 RMK SLP084 T02500240 IEM_DS3505
ZBAA,1992-08-10 14:00,ZBAA 101400Z AUTO 15004KT 3SM 24/23 A2974 RMK SLP084 T02400230 IEM_DS3505
ZBAA,1992-08-10 15:00,ZBAA 101500Z AUTO 18006KT 3SM 24/22 A2974 RMK SLP086 T02390224 52001 IEM_DS3505
ZBAA,1992-08-10 16:00,ZBAA 101600Z AUTO 13004KT 2 1/2SM 24/23 A2977 RMK SLP094 T02400230 IEM_DS3505
ZBAA,1992-08-10 17:00,ZBAA 101700Z AUTO 11004KT 2 1/2SM 23/23 A2977 RMK SLP095 T02300230 IEM_DS3505
ZBAA,1992-08-10 18:00,ZBAA 101800Z AUTO 18004KT 3SM 24/22 A2975 RMK SLP086 T02360223 40299//// 54000 IEM_DS3505
ZBAA,1992-08-10 19:00,ZBAA 101900Z AUTO 13002KT 2SM 23/22 A2977 RMK SLP095 T02300220 IEM_DS3505
ZBAA,1992-08-10 20:00,ZBAA 102000Z AUTO 05002KT 3SM 22/22 A2974 RMK SLP085 T02200220 IEM_DS3505
ZBAA,1992-08-10 21:00,ZBAA 102100Z AUTO 04002KT 2SM 24/22 A2973 RMK SLP082 T02360221 57004 IEM_DS3505
ZBAA,1992-08-10 22:00,ZBAA 102200Z AUTO 01002KT 3SM 22/22 A2974 RMK SLP085 T02200220 IEM_DS3505
ZBAA,1992-08-10 23:00,ZBAA 102300Z AUTO 00000KT 3SM 23/22 A2974 RMK SLP084 T02300220 IEM_DS3505
ZBAA,1992-08-11 00:00,ZBAA 110000Z AUTO 36004KT 2SM 24/22 A2974 RMK SLP084 T02450215 52002 IEM_DS3505
ZBAA,1992-08-11 01:00,ZBAA 110100Z AUTO 09002KT 4SM 25/22 A2974 RMK SLP084 T02500220 IEM_DS3505
ZBAA,1992-08-11 02:00,ZBAA 110200Z AUTO 08002KT 4SM 27/23 A2974 RMK SLP084 T02700230 IEM_DS3505
ZBAA,1992-08-11 03:00,ZBAA 110300Z AUTO 04002KT 4SM 28/21 A2975 RMK SLP086 T02760212 52002 IEM_DS3505
ZBAA,1992-08-11 04:00,ZBAA 110400Z AUTO 14004KT 7SM 28/23 A2974 RMK SLP083 T02800230 IEM_DS3505
ZBAA,1992-08-11 05:00,ZBAA 110500Z AUTO 10002KT 7SM 29/24 A2971 RMK SLP073 T02900240 IEM_DS3505
ZBAA,1992-08-11 06:00,ZBAA 110600Z AUTO 11002KT 3SM 29/21 A2970 RMK SLP071 T02900213 4////0232 57015 IEM_DS3505
ZBAA,1992-08-11 07:00,ZBAA 110700Z AUTO 12002KT 7SM 29/23 A2968 RMK SLP063 T02900230 IEM_DS3505
ZBAA,1992-08-11 08:00,ZBAA 110800Z AUTO 12004KT 7SM 29/23 A2968 RMK SLP063 T02900230 IEM_DS3505
ZBAA,1992-08-11 09:00,ZBAA 110900Z AUTO 07004KT 3SM 29/21 A2968 RMK SLP064 T02940214 57007 IEM_DS3505
ZBAA,1992-08-11 10:00,ZBAA 111000Z AUTO 09002KT 6SM 28/23 A2968 RMK SLP063 T02800230 IEM_DS3505
ZBAA,1992-08-11 11:00,ZBAA 111100Z AUTO 12004KT 6SM 27/24 A2971 RMK SLP074 T02700240 IEM_DS3505
ZBAA,1992-08-11 12:00,ZBAA 111200Z AUTO 14006KT 4SM 27/23 A2973 RMK SLP080 T02700226 52016 IEM_DS3505
ZBAA,1992-08-11 13:00,ZBAA 111300Z AUTO 15004KT 6SM 26/23 A2977 RMK SLP094 T02600230 IEM_DS3505
ZBAA,1992-08-11 14:00,ZBAA 111400Z AUTO 14002KT 6SM 25/23 A2974 RMK SLP084 T02500230 IEM_DS3505
ZBAA,1992-08-11 15:00,ZBAA 111500Z AUTO 20002KT 4SM 26/22 A2976 RMK SLP090 T02550221 52010 IEM_DS3505
ZBAA,1992-08-11 17:00,ZBAA 111700Z AUTO 35004KT 6SM 24/23 A2977 RMK SLP094 T02400230 IEM_DS3505
ZBAA,1992-08-11 18:00,ZBAA 111800Z AUTO 34004KT 4SM 24/24 A2977 RMK SLP091 T02400240 40302//// 52001 IEM_DS3505
ZBAA,1992-08-11 19:00,ZBAA 111900Z AUTO 34002KT 4SM 24/24 A2977 RMK SLP094 T02400240 IEM_DS3505
ZBAA,1992-08-11 20:00,ZBAA 112000Z AUTO 28002KT 3SM 24/23 A2977 RMK SLP094 T02400230 IEM_DS3505
ZBAA,1992-08-11 21:00,ZBAA 112100Z AUTO 36002KT 2 1/2SM 24/22 A2977 RMK SLP093 T02440223 52002 IEM_DS3505
ZBAA,1992-08-11 22:00,ZBAA 112200Z AUTO 34004KT 2 1/2SM 23/23 A2980 RMK SLP105 T02300230 IEM_DS3505
ZBAA,1992-08-11 23:00,ZBAA 112300Z AUTO 31004KT 4SM 24/23 A2980 RMK SLP104 T02400230 IEM_DS3505
ZBAA,1992-08-12 00:00,ZBAA 120000Z AUTO 36006KT 5SM 25/22 A2980 RMK SLP100 T02520221 52007 IEM_DS3505
ZBAA,1992-08-12 01:00,ZBAA 120100Z AUTO 01006KT 6SM 27/23 A2980 RMK SLP104 T02700230 IEM_DS3505
ZBAA,1992-08-12 02:00,ZBAA 120200Z AUTO 02006KT 6SM 28/21 A2980 RMK SLP104 T02800210 IEM_DS3505
ZBAA,1992-08-12 03:00,ZBAA 120300Z AUTO 04004KT 7SM 29/20 A2979 RMK SLP099 T02860195 57001 IEM_DS3505
ZBAA,1992-08-12 04:00,ZBAA 120400Z AUTO 03004KT 6SM 29/20 A2977 RMK SLP093 T02900200 IEM_DS3505
ZBAA,1992-08-12 05:00,ZBAA 120500Z AUTO 35002KT 6SM 28/20 A2977 RMK SLP093 T02800200 IEM_DS3505
ZBAA,1992-08-12 06:00,ZBAA 120600Z AUTO 34002KT 10SM 29/17 A2978 RMK SLP096 T02860169 4////0241 57003 IEM_DS3505
ZBAA,1992-08-12 07:00,ZBAA 120700Z AUTO 17006KT 6SM 30/22 A2974 RMK SLP083 T03000220 IEM_DS3505
ZBAA,1992-08-12 08:00,ZBAA 120800Z AUTO 18006KT 6SM 29/20 A2974 RMK SLP083 T02900200 IEM_DS3505
ZBAA,1992-08-12 09:00,ZBAA 120900Z AUTO 22008KT 9SM 30/20 A2974 RMK SLP087 T02960196 57009 IEM_DS3505
ZBAA,1992-08-12 10:00,ZBAA 121000Z AUTO 14006KT 6SM 28/20 A2971 RMK SLP073 T02800200 IEM_DS3505
ZBAA,1992-08-12 11:00,ZBAA 121100Z AUTO 20006KT 6SM 26/21 A2974 RMK SLP084 T02600210 IEM_DS3505
ZBAA,1992-08-12 12:00,ZBAA 121200Z AUTO 18004KT 7SM 27/19 A2974 RMK SLP087 T02660191 54000 IEM_DS3505
ZBAA,1992-08-12 13:00,ZBAA 121300Z AUTO 18004KT 6SM 25/20 A2974 RMK SLP084 T02500200 IEM_DS3505
ZBAA,1992-08-12 14:00,ZBAA 121400Z AUTO 19004KT 6SM 24/20 A2974 RMK SLP084 T02400200 IEM_DS3505
ZBAA,1992-08-12 15:00,ZBAA 121500Z AUTO 00000KT 4SM 24/21 A2974 RMK SLP087 T02390206 54000 IEM_DS3505
ZBAA,1992-08-12 16:00,ZBAA 121600Z AUTO 27004KT 6SM 23/20 A2974 RMK SLP084 T02300200 IEM_DS3505
ZBAA,1992-08-12 17:00,ZBAA 121700Z AUTO 01002KT 6SM 23/21 A2971 RMK SLP074 T02300210 IEM_DS3505
ZBAA,1992-08-12 18:00,ZBAA 121800Z AUTO 00000KT 4SM 23/20 A2971 RMK SLP077 T02290200 40310//// 57010 IEM_DS3505
ZBAA,1992-08-12 19:00,ZBAA 121900Z AUTO 00000KT 6SM 22/21 A2971 RMK SLP075 T02200210 IEM_DS3505
ZBAA,1992-08-12 20:00,ZBAA 122000Z AUTO 34002KT 6SM 22/21 A2968 RMK SLP065 T02200210 IEM_DS3505
ZBAA,1992-08-12 21:00,ZBAA 122100Z AUTO 29002KT 2 1/2SM 22/19 A2965 RMK SLP059 T02230189 57018 IEM_DS3505
ZBAA,1992-08-12 22:00,ZBAA 122200Z AUTO 00000KT 5SM 22/21 A2968 RMK SLP065 T02200210 IEM_DS3505
ZBAA,1992-08-12 23:00,ZBAA 122300Z AUTO 26006KT 6SM 22/21 A2968 RMK SLP065 T02200210 IEM_DS3505
ZBAA,1992-08-13 00:00,ZBAA 130000Z AUTO 27006KT 6SM 23/15 A2970 RMK SLP070 T02260149 52011 IEM_DS3505
ZBAA,1992-08-13 01:00,ZBAA 130100Z AUTO 25008KT 7SM 23/17 A2968 RMK SLP064 T02300170 IEM_DS3505
ZBAA,1992-08-13 02:00,ZBAA 130200Z AUTO 27006KT 6SM 22/18 A2971 RMK SLP075 T02200180 IEM_DS3505
ZBAA,1992-08-13 03:00,ZBAA 130300Z AUTO 22012KT 6SM 21/15 A2971 RMK SLP078 T02130153 52008 IEM_DS3505
ZBAA,1992-08-13 04:00,ZBAA 130400Z AUTO 25008KT 7SM 20/17 A2971 RMK SLP075 T02000170 IEM_DS3505
ZBAA,1992-08-13 05:00,ZBAA 130500Z AUTO 24006KT 6SM 20/20 A2971 RMK SLP075 T02000200 IEM_DS3505
ZBAA,1992-08-13 06:00,ZBAA 130600Z AUTO 22006KT 12SM 21/15 A2970 RMK 60004 SLP072 T02070146 4////0194 57007 IEM_DS3505
ZBAA,1992-08-13 07:00,ZBAA 130700Z AUTO 28006KT 6SM 22/16 A2968 RMK SLP065 T02200160 IEM_DS3505
ZBAA,1992-08-13 08:00,ZBAA 130800Z AUTO 26002KT 6SM 21/17 A2968 RMK SLP065 T02100170 IEM_DS3505
ZBAA,1992-08-13 09:00,ZBAA 130900Z AUTO 18004KT 12SM 20/16 A2969 RMK SLP067 T02030164 57005 IEM_DS3505
ZBAA,1992-08-13 10:00,ZBAA 131000Z AUTO 20004KT 7SM 21/17 A2968 RMK SLP065 T02100170 IEM_DS3505
ZBAA,1992-08-13 11:00,ZBAA 131100Z AUTO 26004KT 7SM 20/18 A2968 RMK SLP065 T02000180 IEM_DS3505
ZBAA,1992-08-13 12:00,ZBAA 131200Z AUTO 18006KT 12SM 19/17 A2969 RMK SLP069 T01910166 52002 IEM_DS3505
ZBAA,1992-08-13 13:00,ZBAA 131300Z AUTO 20004KT 7SM 19/17 A2968 RMK SLP065 T01900170 IEM_DS3505
ZBAA,1992-08-13 14:00,ZBAA 131400Z AUTO 23002KT 7SM 19/17 A2968 RMK SLP065 T01900170 IEM_DS3505
ZBAA,1992-08-13 15:00,ZBAA 131500Z AUTO 00000KT 12SM 19/17 A2965 RMK SLP061 T01880173 57008 IEM_DS3505
ZBAA,1992-08-13 16:00,ZBAA 131600Z AUTO 00000KT 7SM 19/18 A2965 RMK SLP055 T01900180 IEM_DS3505
ZBAA,1992-08-13 17:00,ZBAA 131700Z AUTO 00000KT 7SM 19/18 A2965 RMK SLP055 T01900180 IEM_DS3505
ZBAA,1992-08-13 18:00,ZBAA 131800Z AUTO 00000KT 12SM 19/18 A2965 RMK SLP055 T01860176 40230//// 57006 IEM_DS3505
ZBAA,1992-08-13 19:00,ZBAA 131900Z AUTO 00000KT 7SM 19/18 A2962 RMK SLP045 T01900180 IEM_DS3505
ZBAA,1992-08-13 20:00,ZBAA 132000Z AUTO 33004KT 7SM 19/18 A2962 RMK SLP045 T01900180 IEM_DS3505
ZBAA,1992-08-13 21:00,ZBAA 132100Z AUTO 02002KT 12SM 19/16 A2962 RMK 70008 SLP042 T01940164 57013 IEM_DS3505
ZBAA,1992-08-13 22:00,ZBAA 132200Z AUTO 34004KT 6SM 19/18 A2962 RMK SLP045 T01900180 IEM_DS3505
ZBAA,1992-08-13 23:00,ZBAA 132300Z AUTO 35006KT 6SM 20/18 A2962 RMK SLP045 T02000180 IEM_DS3505
ZBAA,1992-08-14 00:00,ZBAA 140000Z AUTO 36006KT 10SM 21/17 A2964 RMK 70055 SLP050 T02080169 52008 IEM_DS3505
ZBAA,1992-08-14 01:00,ZBAA 140100Z AUTO 34006KT 6SM 23/20 A2962 RMK SLP044 T02300200 IEM_DS3505
ZBAA,1992-08-14 02:00,ZBAA 140200Z AUTO 31006KT 6SM 25/19 A2962 RMK SLP044 T02500190 IEM_DS3505
ZBAA,1992-08-14 03:00,ZBAA 140300Z AUTO 02008KT 16SM 26/16 A2963 RMK SLP048 T02640161 57001 IEM_DS3505
ZBAA,1992-08-14 04:00,ZBAA 140400Z AUTO 34006KT 6SM 27/19 A2962 RMK SLP043 T02700190 IEM_DS3505
ZBAA,1992-08-14 05:00,ZBAA 140500Z AUTO 35006KT 6SM 26/18 A2962 RMK SLP044 T02600180 IEM_DS3505
ZBAA,1992-08-14 06:00,ZBAA 140600Z AUTO 27002KT 19SM 28/15 A2962 RMK SLP045 T02770150 4////0184 57003 IEM_DS3505
ZBAA,1992-08-14 07:00,ZBAA 140700Z AUTO 15004KT 6SM 27/18 A2959 RMK SLP032 T02700180 IEM_DS3505
ZBAA,1992-08-14 08:00,ZBAA 140800Z AUTO 17004KT 6SM 27/16 A2959 RMK SLP032 T02700160 IEM_DS3505
ZBAA,1992-08-14 09:00,ZBAA 140900Z AUTO 18010KT 19SM 26/18 A2962 RMK SLP043 T02650184 57002 IEM_DS3505
ZBAA,1992-08-14 10:00,ZBAA 141000Z AUTO 17008KT 6SM 25/19 A2959 RMK SLP033 T02500190 IEM_DS3505
ZBAA,1992-08-14 11:00,ZBAA 141100Z AUTO 16006KT 6SM 24/18 A2962 RMK SLP044 T02400180 IEM_DS3505
ZBAA,1992-08-14 12:00,ZBAA 141200Z AUTO 18004KT 19SM 23/18 A2968 RMK SLP060 T02320176 52017 IEM_DS3505
ZBAA,1992-08-14 13:00,ZBAA 141300Z AUTO 20002KT 7SM 18/18 A2968 RMK SLP065 T01800180 IEM_DS3505
ZBAA,1992-08-14 14:00,ZBAA 141400Z AUTO 32006KT 7SM 18/18 A2971 RMK SLP076 T01800180 IEM_DS3505
ZBAA,1992-08-14 15:00,ZBAA 141500Z AUTO 02006KT 16SM 20/17 A2971 RMK SLP074 T01970166 52014 IEM_DS3505
ZBAA,1992-08-14 16:00,ZBAA 141600Z AUTO 00000KT 6SM 18/18 A2971 RMK SLP076 T01800180 IEM_DS3505
ZBAA,1992-08-14 17:00,ZBAA 141700Z AUTO 32004KT 6SM 18/18 A2971 RMK SLP076 T01800180 IEM_DS3505
ZBAA,1992-08-14 18:00,ZBAA 141800Z AUTO 00000KT 16SM 19/17 A2970 RMK 60004 SLP072 T01880167 40283//// 57002 IEM_DS3505
ZBAA,1992-08-14 19:00,ZBAA 141900Z AUTO 26004KT 6SM 17/17 A2971 RMK SLP076 T01700170 IEM_DS3505
ZBAA,1992-08-14 20:00,ZBAA 142000Z AUTO 36004KT 6SM 18/18 A2971 RMK SLP076 T01800180 IEM_DS3505
ZBAA,1992-08-14 21:00,ZBAA 142100Z AUTO 00000KT 16SM 18/17 A2971 RMK 70004 SLP078 T01760168 52005 IEM_DS3505
ZBAA,1992-08-14 22:00,ZBAA 142200Z AUTO 34006KT 6SM 18/18 A2974 RMK SLP086 T01800180 IEM_DS3505
ZBAA,1992-08-14 23:00,ZBAA 142300Z AUTO 29006KT 6SM 19/19 A2974 RMK SLP085 T01900190 IEM_DS3505
ZBAA,1992-08-15 00:00,ZBAA 150000Z AUTO 00000KT 6SM 21/17 A2977 RMK 70031 SLP094 T02080172 52016 IEM_DS3505
ZBAA,1992-08-15 01:00,ZBAA 150100Z AUTO 36004KT 7SM 21/19 A2980 RMK SLP105 T02100190 IEM_DS3505
ZBAA,1992-08-15 02:00,ZBAA 150200Z AUTO 00000KT 6SM 24/24 A2980 RMK SLP104 T02400240 IEM_DS3505
ZBAA,1992-08-15 03:00,ZBAA 150300Z AUTO 00000KT 6SM 21/17 A2977 RMK SLP094 T02080172 52016 IEM_DS3505
ZBAA,1992-08-15 04:00,ZBAA 150400Z AUTO 09004KT 6SM 26/21 A2977 RMK SLP094 T02600210 IEM_DS3505
ZBAA,1992-08-15 05:00,ZBAA 150500Z AUTO 13006KT 6SM 26/19 A2977 RMK SLP094 T02600190 IEM_DS3505
ZBAA,1992-08-15 06:00,ZBAA 150600Z AUTO 14004KT 6SM 27/17 A2974 RMK SLP085 T02730170 4////0173 57011 IEM_DS3505
ZBAA,1992-08-15 07:00,ZBAA 150700Z AUTO 10002KT 6SM 27/20 A2974 RMK SLP084 T02700200 IEM_DS3505
ZBAA,1992-08-15 08:00,ZBAA 150800Z AUTO 10004KT 6SM 26/19 A2974 RMK SLP084 T02600190 IEM_DS3505
ZBAA,1992-08-15 09:00,ZBAA 150900Z AUTO 18004KT 6SM 26/18 A2974 RMK SLP084 T02620179 57002 IEM_DS3505
ZBAA,1992-08-15 10:00,ZBAA 151000Z AUTO 13002KT 7SM 24/20 A2974 RMK SLP084 T02400200 IEM_DS3505
ZBAA,1992-08-15 11:00,ZBAA 151100Z AUTO 14004KT 7SM 23/19 A2977 RMK SLP095 T02300190 IEM_DS3505
ZBAA,1992-08-15 12:00,ZBAA 151200Z AUTO 27002KT 4SM 21/18 A2980 RMK 60028 SLP104 T02080183 52020 IEM_DS3505
ZBAA,1992-08-15 13:00,ZBAA 151300Z AUTO 33004KT 7SM 20/18 A2983 RMK SLP115 T02000180 IEM_DS3505
ZBAA,1992-08-15 14:00,ZBAA 151400Z AUTO 34006KT 7SM 20/19 A2983 RMK SLP115 T02000190 IEM_DS3505
ZBAA,1992-08-15 15:00,ZBAA 151500Z AUTO 00000KT 4SM 20/18 A2982 RMK SLP111 T01960185 52007 IEM_DS3505
ZBAA,1992-08-15 16:00,ZBAA 151600Z AUTO 07002KT 7SM 19/19 A2983 RMK SLP116 T01900190 IEM_DS3505
ZBAA,1992-08-15 17:00,ZBAA 151700Z AUTO 00000KT 6SM 19/19 A2983 RMK SLP116 T01900190 IEM_DS3505
ZBAA,1992-08-15 18:00,ZBAA 151800Z AUTO 32002KT 2SM 19/18 A2983 RMK 60008 SLP117 T01910183 40280//// 52006 IEM_DS3505
ZBAA,1992-08-15 19:00,ZBAA 151900Z AUTO 33002KT 6SM 19/19 A2983 RMK SLP116 T01900190 IEM_DS3505
ZBAA,1992-08-15 21:00,ZBAA 152100Z AUTO 00000KT 2SM 19/18 A2985 RMK 70035 SLP122 T01900184 52005 IEM_DS3505
ZBAA,1992-08-15 22:00,ZBAA 152200Z AUTO 00000KT 4SM 18/18 A2985 RMK SLP123 T01800180 IEM_DS3505
ZBAA,1992-08-15 23:00,ZBAA 152300Z AUTO 28002KT 4SM 19/19 A2988 RMK SLP133 T01900190 IEM_DS3505
ZBAA,1992-08-16 00:00,ZBAA 160000Z AUTO 00000KT 3SM 21/18 A2988 RMK 70366 SLP131 T02110184 52009 IEM_DS3505
ZBAA,1992-08-16 01:00,ZBAA 160100Z AUTO 34002KT 6SM 22/20 A2988 RMK SLP132 T02200200 IEM_DS3505
ZBAA,1992-08-16 02:00,ZBAA 160200Z AUTO 00000KT 6SM 23/20 A2988 RMK SLP132 T02300200 IEM_DS3505
ZBAA,1992-08-16 03:00,ZBAA 160300Z AUTO 11002KT 5SM 24/19 A2988 RMK SLP133 T02380191 52002 IEM_DS3505
ZBAA,1992-08-16 04:00,ZBAA 160400Z AUTO 17002KT 6SM 26/22 A2988 RMK SLP131 T02600220 IEM_DS3505
ZBAA,1992-08-16 05:00,ZBAA 160500Z AUTO 12002KT 6SM 25/20 A2985 RMK SLP121 T02500200 IEM_DS3505
ZBAA,1992-08-16 06:00,ZBAA 160600Z AUTO 18006KT 5SM 26/18 A2984 RMK SLP118 T02640183 4////0189 57015 IEM_DS3505
ZBAA,1992-08-16 07:00,ZBAA 160700Z AUTO 13006KT 6SM 27/21 A2983 RMK SLP114 T02700210 IEM_DS3505
ZBAA,1992-08-16 08:00,ZBAA 160800Z AUTO 17006KT 6SM 26/20 A2980 RMK SLP104 T02600200 IEM_DS3505
ZBAA,1992-08-16 09:00,ZBAA 160900Z AUTO 20006KT 5SM 27/18 A2981 RMK SLP108 T02670183 57010 IEM_DS3505
ZBAA,1992-08-16 10:00,ZBAA 161000Z AUTO 16004KT 6SM 25/19 A2980 RMK SLP104 T02500190 IEM_DS3505
ZBAA,1992-08-16 11:00,ZBAA 161100Z AUTO 15004KT 6SM 25/19 A2980 RMK SLP104 T02500190 IEM_DS3505
ZBAA,1992-08-16 12:00,ZBAA 161200Z AUTO 20004KT 6SM 24/19 A2982 RMK SLP111 T02370190 52003 IEM_DS3505
ZBAA,1992-08-16 13:00,ZBAA 161300Z AUTO 13002KT 6SM 23/19 A2985 RMK SLP122 T02300190 IEM_DS3505
ZBAA,1992-08-16 14:00,ZBAA 161400Z AUTO 17008KT 6SM 22/20 A2985 RMK SLP122 T02200200 IEM_DS3505
ZBAA,1992-08-16 15:00,ZBAA 161500Z AUTO 18004KT 5SM 22/20 A2986 RMK SLP127 T02210198 52016 IEM_DS3505
ZBAA,1992-08-16 16:00,ZBAA 161600Z AUTO 14002KT 6SM 21/20 A2988 RMK SLP132 T02100200 IEM_DS3505
ZBAA,1992-08-16 17:00,ZBAA 161700Z AUTO 09002KT 6SM 20/20 A2988 RMK SLP132 T02000200 IEM_DS3505
ZBAA,1992-08-16 18:00,ZBAA 161800Z AUTO 18004KT 5SM 20/19 A2988 RMK SLP129 T02040188 40271//// 52002 IEM_DS3505
ZBAA,1992-08-16 19:00,ZBAA 161900Z AUTO 09004KT 3SM 20/19 A2988 RMK SLP132 T02000190 IEM_DS3505
ZBAA,1992-08-16 20:00,ZBAA 162000Z AUTO 11002KT 2SM 20/20 A2988 RMK SLP132 T02000200 IEM_DS3505
ZBAA,1992-08-16 21:00,ZBAA 162100Z AUTO 00000KT 5SM 20/19 A2987 RMK SLP130 T01950189 52001 IEM_DS3505
ZBAA,1992-08-16 22:00,ZBAA 162200Z AUTO 13002KT 2SM 19/19 A2991 RMK SLP143 T01900190 IEM_DS3505
ZBAA,1992-08-16 23:00,ZBAA 162300Z AUTO 12004KT 2 1/2SM 20/20 A2991 RMK SLP143 T02000200 IEM_DS3505
ZBAA,1992-08-17 00:00,ZBAA 170000Z AUTO 36002KT 1SM 21/19 A2991 RMK SLP138 T02080192 52008 IEM_DS3505
ZBAA,1992-08-17 01:00,ZBAA 170100Z AUTO 12004KT 4SM 21/20 A2991 RMK SLP142 T02100200 IEM_DS3505
ZBAA,1992-08-17 03:00,ZBAA 170300Z AUTO 00000KT 1 1/2SM 24/20 A2991 RMK SLP140 T02400202 52002 IEM_DS3505
ZBAA,1992-08-17 04:00,ZBAA 170400Z AUTO 16004KT 7SM 26/21 A2988 RMK SLP131 T02600210 IEM_DS3505
ZBAA,1992-08-17 05:00,ZBAA 170500Z AUTO 27008KT 3SM 20/20 A2988 RMK SLP132 T02000200 IEM_DS3505
ZBAA,1992-08-17 06:00,ZBAA 170600Z AUTO 16008KT 4SM 27/19 A2988 RMK SLP130 T02660190 4////0191 57010 IEM_DS3505
ZBAA,1992-08-17 07:00,ZBAA 170700Z AUTO 17004KT 6SM 26/24 A2985 RMK SLP121 T02600240 IEM_DS3505
ZBAA,1992-08-17 08:00,ZBAA 170800Z AUTO 17004KT 6SM 26/21 A2983 RMK SLP114 T02600210 IEM_DS3505
ZBAA,1992-08-17 09:00,ZBAA 170900Z AUTO 18008KT 6SM 26/19 A2983 RMK SLP116 T02650189 57014 IEM_DS3505
ZBAA,1992-08-17 10:00,ZBAA 171000Z AUTO 17004KT 6SM 25/21 A2983 RMK SLP114 T02500210 IEM_DS3505
ZBAA,1992-08-17 11:00,ZBAA 171100Z AUTO 15002KT 6SM 24/20 A2983 RMK SLP114 T02400200 IEM_DS3505
ZBAA,1992-08-17 12:00,ZBAA 171200Z AUTO 00000KT 6SM 25/20 A2985 RMK SLP119 T02460200 52003 IEM_DS3505
ZBAA,1992-08-17 13:00,ZBAA 171300Z AUTO 13002KT 7SM 23/19 A2985 RMK SLP122 T02300190 IEM_DS3505
ZBAA,1992-08-17 14:00,ZBAA 171400Z AUTO 10002KT 7SM 22/20 A2985 RMK SLP122 T02200200 IEM_DS3505
ZBAA,1992-08-17 15:00,ZBAA 171500Z AUTO 18004KT 4SM 23/20 A2985 RMK SLP124 T02320198 52005 IEM_DS3505
ZBAA,1992-08-17 16:00,ZBAA 171600Z AUTO 14004KT 7SM 22/20 A2985 RMK SLP122 T02200200 IEM_DS3505
ZBAA,1992-08-17 17:00,ZBAA 171700Z AUTO 13004KT 7SM 21/19 A2985 RMK SLP122 T02100190 IEM_DS3505
ZBAA,1992-08-17 18:00,ZBAA 171800Z AUTO 16004KT 5SM 22/19 A2985 RMK SLP118 T02190186 40272//// 57005 IEM_DS3505
ZBAA,1992-08-17 19:00,ZBAA 171900Z AUTO 00000KT 7SM 19/19 A2983 RMK SLP116 T01900190 IEM_DS3505
ZBAA,1992-08-17 20:00,ZBAA 172000Z AUTO 00000KT 7SM 19/19 A2983 RMK SLP116 T01900190 IEM_DS3505
ZBAA,1992-08-17 21:00,ZBAA 172100Z AUTO 00000KT 4SM 20/18 A2984 RMK SLP118 T01960185 57001 IEM_DS3505
ZBAA,1992-08-17 22:00,ZBAA 172200Z AUTO 07002KT 2SM 19/19 A2985 RMK SLP123 T01900190 IEM_DS3505
ZBAA,1992-08-17 23:00,ZBAA 172300Z AUTO 00000KT 2SM 20/20 A2985 RMK SLP122 T02000200 IEM_DS3505
ZBAA,1992-08-18 00:00,ZBAA 180000Z AUTO 02002KT 1 1/4SM 21/20 A2987 RMK SLP128 T02140195 52010 IEM_DS3505
ZBAA,1992-08-18 01:00,ZBAA 180100Z AUTO 11004KT 3SM 24/21 A2985 RMK SLP122 T02400210 IEM_DS3505
ZBAA,1992-08-18 02:00,ZBAA 180200Z AUTO 17002KT 6SM 25/21 A2988 RMK SLP131 T02500210 IEM_DS3505
ZBAA,1992-08-18 03:00,ZBAA 180300Z AUTO 25004KT 3SM 26/19 A2985 RMK SLP126 T02580193 57001 IEM_DS3505
ZBAA,1992-08-18 04:00,ZBAA 180400Z AUTO 16004KT 6SM 26/21 A2985 RMK SLP121 T02600210 IEM_DS3505
ZBAA,1992-08-18 05:00,ZBAA 180500Z AUTO 15004KT 6SM 27/21 A2983 RMK SLP114 T02700210 IEM_DS3505
ZBAA,1992-08-18 06:00,ZBAA 180600Z AUTO 14008KT 6SM 28/18 A2980 RMK SLP108 T02750180 4////0192 57018 IEM_DS3505
ZBAA,1992-08-18 07:00,ZBAA 180700Z AUTO 16006KT 6SM 27/21 A2980 RMK SLP104 T02700210 IEM_DS3505
ZBAA,1992-08-18 08:00,ZBAA 180800Z AUTO 13006KT 6SM 27/21 A2977 RMK SLP094 T02700210 IEM_DS3505
ZBAA,1992-08-18 09:00,ZBAA 180900Z AUTO 18008KT 9SM 28/17 A2977 RMK SLP097 T02780174 57011 IEM_DS3505
ZBAA,1992-08-18 10:00,ZBAA 181000Z AUTO 14004KT 6SM 26/19 A2977 RMK SLP094 T02600190 IEM_DS3505
ZBAA,1992-08-18 11:00,ZBAA 181100Z AUTO 10002KT 6SM 25/19 A2977 RMK SLP094 T02500190 IEM_DS3505
ZBAA,1992-08-18 12:00,ZBAA 181200Z AUTO 20004KT 6SM 25/18 A2977 RMK SLP094 T02490182 57003 IEM_DS3505
ZBAA,1992-08-18 13:00,ZBAA 181300Z AUTO 11002KT 6SM 22/19 A2977 RMK SLP095 T02200190 IEM_DS3505
ZBAA,1992-08-18 14:00,ZBAA 181400Z AUTO 00000KT 6SM 22/19 A2977 RMK SLP095 T02200190 IEM_DS3505
ZBAA,1992-08-18 15:00,ZBAA 181500Z AUTO 20004KT 7SM 23/18 A2978 RMK SLP098 T02290185 52004 IEM_DS3505
ZBAA,1992-08-18 16:00,ZBAA 181600Z AUTO 02004KT 6SM 21/20 A2977 RMK SLP095 T02100200 IEM_DS3505
ZBAA,1992-08-18 17:00,ZBAA 181700Z AUTO A2977 RMK IEM_DS3505
ZBAA,1992-08-18 18:00,ZBAA 181800Z AUTO 04004KT 6SM 21/19 A2977 RMK SLP098 T02090189 40281//// 54000 IEM_DS3505
ZBAA,1992-08-18 19:00,ZBAA 181900Z AUTO 00000KT 2SM 19/19 A2977 RMK SLP095 T01900190 IEM_DS3505
ZBAA,1992-08-18 20:00,ZBAA 182000Z AUTO 31002KT 2SM 19/19 A2977 RMK SLP095 T01900190 IEM_DS3505
ZBAA,1992-08-18 21:00,ZBAA 182100Z AUTO 04002KT 4SM 20/19 A2977 RMK SLP097 T02000186 57001 IEM_DS3505
ZBAA,1992-08-18 22:00,ZBAA 182200Z AUTO 29004KT 1 1/2SM 19/19 A2977 RMK SLP095 T01900190 IEM_DS3505
ZBAA,1992-08-18 23:00,ZBAA 182300Z AUTO 32006KT 2 1/2SM 20/20 A2977 RMK SLP095 T02000200 IEM_DS3505
ZBAA,1992-08-19 00:00,ZBAA 190000Z AUTO 02006KT 4SM 23/20 A2977 RMK SLP099 T02270204 52002 IEM_DS3505
ZBAA,1992-08-19 01:00,ZBAA 190100Z AUTO 34002KT 5SM 24/21 A2977 RMK SLP094 T02400210 IEM_DS3505
ZBAA,1992-08-19 02:00,ZBAA 190200Z AUTO 11002KT 7SM 25/20 A2977 RMK SLP094 T02500200 IEM_DS3505
ZBAA,1992-08-19 03:00,ZBAA 190300Z AUTO 27002KT 4SM 26/19 A2977 RMK SLP093 T02630189 57006 IEM_DS3505
ZBAA,1992-08-19 04:00,ZBAA 190400Z AUTO 13004KT 6SM 27/22 A2974 RMK SLP084 T02700220 IEM_DS3505
ZBAA,1992-08-19 05:00,ZBAA 190500Z AUTO 12002KT 7SM 27/21 A2971 RMK SLP074 T02700210 IEM_DS3505
ZBAA,1992-08-19 06:00,ZBAA 190600Z AUTO 27004KT 4SM 29/17 A2971 RMK SLP073 T02890173 4////0193 57020 IEM_DS3505
ZBAA,1992-08-19 07:00,ZBAA 190700Z AUTO 15006KT 6SM 28/22 A2968 RMK SLP063 T02800220 IEM_DS3505
ZBAA,1992-08-19 08:00,ZBAA 190800Z AUTO 13006KT 6SM 29/20 A2968 RMK SLP063 T02900200 IEM_DS3505
ZBAA,1992-08-19 09:00,ZBAA 190900Z AUTO 20006KT 6SM 28/18 A2968 RMK SLP061 T02840182 57012 IEM_DS3505
ZBAA,1992-08-19 10:00,ZBAA 191000Z AUTO 12002KT 6SM 27/20 A2968 RMK SLP064 T02700200 IEM_DS3505
ZBAA,1992-08-19 11:00,ZBAA 191100Z AUTO 13002KT 6SM 26/19 A2968 RMK SLP064 T02600190 IEM_DS3505
ZBAA,1992-08-19 12:00,ZBAA 191200Z AUTO 18006KT 6SM 26/19 A2968 RMK SLP070 T02600192 52009 IEM_DS3505
ZBAA,1992-08-19 13:00,ZBAA 191300Z AUTO 14002KT 6SM 24/19 A2971 RMK SLP074 T02400190 IEM_DS3505
ZBAA,1992-08-19 14:00,ZBAA 191400Z AUTO 12002KT 4SM 23/19 A2971 RMK SLP074 T02300190 IEM_DS3505
ZBAA,1992-08-19 15:00,ZBAA 191500Z AUTO 18004KT 5SM 24/19 A2968 RMK SLP070 T02440186 54000 IEM_DS3505
ZBAA,1992-08-19 16:00,ZBAA 191600Z AUTO 00000KT 4SM 22/20 A2971 RMK SLP075 T02200200 IEM_DS3505
ZBAA,1992-08-19 18:00,ZBAA 191800Z AUTO 00000KT 3SM 22/19 A2968 RMK SLP065 T02200192 40294//// 57005 IEM_DS3505
ZBAA,1992-08-19 19:00,ZBAA 191900Z AUTO 07002KT 3SM 20/19 A2968 RMK SLP065 T02000190 IEM_DS3505
ZBAA,1992-08-19 20:00,ZBAA 192000Z AUTO 00000KT 2 1/2SM 20/19 A2968 RMK SLP065 T02000190 IEM_DS3505
ZBAA,1992-08-19 21:00,ZBAA 192100Z AUTO 07004KT 4SM 21/20 A2968 RMK SLP064 T02080196 57001 IEM_DS3505
ZBAA,1992-08-19 22:00,ZBAA 192200Z AUTO 10002KT 3SM 19/19 A2968 RMK SLP065 T01900190 IEM_DS3505
ZBAA,1992-08-19 23:00,ZBAA 192300Z AUTO 11004KT 2 1/2SM 20/20 A2968 RMK SLP065 T02000200 IEM_DS3505
ZBAA,1992-08-20 00:00,ZBAA 200000Z AUTO 00000KT 1 1/4SM 22/20 A2968 RMK SLP064 T02240203 54000 IEM_DS3505
ZBAA,1992-08-20 01:00,ZBAA 200100Z AUTO 09002KT 3SM 23/21 A2968 RMK SLP064 T02300210 IEM_DS3505
ZBAA,1992-08-20 02:00,ZBAA 200200Z AUTO 15004KT 3SM 25/21 A2968 RMK SLP064 T02500210 IEM_DS3505
ZBAA,1992-08-20 03:00,ZBAA 200300Z AUTO 18010KT 5SM 26/19 A2967 RMK SLP061 T02650186 57003 IEM_DS3505
ZBAA,1992-08-20 04:00,ZBAA 200400Z AUTO 16008KT 5SM 27/22 A2965 RMK SLP053 T02700220 IEM_DS3505
ZBAA,1992-08-20 05:00,ZBAA 200500Z AUTO 13006KT 5SM 27/21 A2965 RMK SLP053 T02700210 IEM_DS3505
ZBAA,1992-08-20 06:00,ZBAA 200600Z AUTO 22008KT 6SM 26/19 A2966 RMK SLP057 T02610188 4////0203 57004 IEM_DS3505
ZBAA,1992-08-20 07:00,ZBAA 200700Z AUTO 20004KT 5SM 25/22 A2965 RMK SLP054 T02500220 IEM_DS3505
ZBAA,1992-08-20 08:00,ZBAA 200800Z AUTO 24004KT 4SM 25/22 A2965 RMK SLP054 T02500220 IEM_DS3505
ZBAA,1992-08-20 09:00,ZBAA 200900Z AUTO 27004KT 4SM 24/20 A2965 RMK SLP057 T02360201 54000 IEM_DS3505
ZBAA,1992-08-20 10:00,ZBAA 201000Z AUTO 28004KT 3SM 22/22 A2965 RMK SLP055 T02200220 IEM_DS3505
ZBAA,1992-08-20 11:00,ZBAA 201100Z AUTO 30004KT 3SM 22/22 A2965 RMK SLP055 T02200220 IEM_DS3505
ZBAA,1992-08-20 12:00,ZBAA 201200Z AUTO 22004KT 4SM 22/19 A2968 RMK 60008 SLP060 T02180191 52003 IEM_DS3505
ZBAA,1992-08-20 13:00,ZBAA 201300Z AUTO 00000KT 3SM 21/21 A2968 RMK SLP065 T02100210 IEM_DS3505
ZBAA,1992-08-20 14:00,ZBAA 201400Z AUTO 00000KT 1 1/2SM 21/21 A2965 RMK SLP055 T02100210 IEM_DS3505
ZBAA,1992-08-20 15:00,ZBAA 201500Z AUTO 04004KT 4SM 21/20 A2965 RMK SLP059 T02090198 57001 IEM_DS3505
ZBAA,1992-08-20 16:00,ZBAA 201600Z AUTO 00000KT 1 1/2SM 20/20 A2965 RMK SLP055 T02000200 IEM_DS3505
ZBAA,1992-08-20 17:00,ZBAA 201700Z AUTO 00000KT 1 1/2SM 20/20 A2965 RMK SLP055 T02000200 IEM_DS3505
ZBAA,1992-08-20 18:00,ZBAA 201800Z AUTO 00000KT 4SM 21/20 A2966 RMK 60004 SLP056 T02060195 40272//// 57003 IEM_DS3505
ZBAA,1992-08-20 19:00,ZBAA 201900Z AUTO 00000KT 1 1/4SM 20/20 A2965 RMK SLP055 T02000200 IEM_DS3505
ZBAA,1992-08-20 20:00,ZBAA 202000Z AUTO 00000KT 4SM 21/20 A2966 RMK 60004 SLP056 T02060195 57003 IEM_DS3505
ZBAA,1992-08-20 21:00,ZBAA 202100Z AUTO 34002KT 1SM 19/19 A2966 RMK 70012 SLP058 T01940191 52001 IEM_DS3505
ZBAA,1992-08-20 22:00,ZBAA 202200Z AUTO 25SM RMK IEM_DS3505
ZBAA,1992-08-20 23:00,ZBAA 202300Z AUTO 00000KT 3/8SM 04/ RMK IEM_DS3505
ZBAA,1992-08-21 00:00,ZBAA 210000Z AUTO 02006KT 2SM A2968 RMK 70118 SLP064 52006 IEM_DS3505
ZBAA,1992-08-21 01:00,ZBAA 210100Z AUTO 00000KT 1 1/4SM 21/21 A2968 RMK SLP065 T02100210 IEM_DS3505
ZBAA,1992-08-21 02:00,ZBAA 210200Z AUTO 11004KT 2SM RMK IEM_DS3505
ZBAA,1992-08-21 03:00,ZBAA 210300Z AUTO 16004KT 1 1/4SM 25/20 A2965 RMK SLP057 T02500200 57006 IEM_DS3505
ZBAA,1992-08-21 04:00,ZBAA 210400Z AUTO 13004KT 2SM 26/22 A2965 RMK SLP054 T02600220 IEM_DS3505
ZBAA,1992-08-21 05:00,ZBAA 210500Z AUTO 15004KT 2SM 26/22 A2962 RMK SLP044 T02600220 IEM_DS3505
ZBAA,1992-08-21 06:00,ZBAA 210600Z AUTO 18006KT 4SM 27/21 A2962 RMK SLP047 T02710210 4////0191 57010 IEM_DS3505
ZBAA,1992-08-21 07:00,ZBAA 210700Z AUTO 15008KT 4SM 28/22 A2959 RMK SLP032 T02800220 IEM_DS3505
ZBAA,1992-08-21 08:00,ZBAA 210800Z AUTO 15008KT 5SM 28/21 A2959 RMK SLP032 T02800210 IEM_DS3505
ZBAA,1992-08-21 09:00,ZBAA 210900Z AUTO 22010KT 7SM 28/19 A2959 RMK SLP035 T02760192 57012 IEM_DS3505
ZBAA,1992-08-21 10:00,ZBAA 211000Z AUTO 16006KT 7SM 26/22 A2959 RMK SLP033 T02600220 IEM_DS3505
ZBAA,1992-08-21 11:00,ZBAA 211100Z AUTO 24004KT 7SM 24/19 A2962 RMK SLP044 T02400190 IEM_DS3505
ZBAA,1992-08-21 12:00,ZBAA 211200Z AUTO 20004KT 3SM 23/20 A2965 RMK 60024 SLP047 T02340200 52012 IEM_DS3505
ZBAA,1992-08-21 13:00,ZBAA 211300Z AUTO 00000KT 7SM 23/21 A2965 RMK SLP054 T02300210 IEM_DS3505
ZBAA,1992-08-21 14:00,ZBAA 211400Z AUTO 34002KT 7SM 21/20 A2968 RMK SLP065 T02100200 IEM_DS3505
ZBAA,1992-08-21 15:00,ZBAA 211500Z AUTO 00000KT 2 1/2SM 22/21 A2968 RMK SLP062 T02180206 52015 IEM_DS3505
ZBAA,1992-08-21 16:00,ZBAA 211600Z AUTO 33004KT 7SM 19/19 A2968 RMK SLP065 T01900190 IEM_DS3505
ZBAA,1992-08-21 17:00,ZBAA 211700Z AUTO 33004KT 7SM 19/19 A2968 RMK SLP065 T01900190 IEM_DS3505
ZBAA,1992-08-21 18:00,ZBAA 211800Z AUTO 00000KT 5SM 20/18 A2965 RMK SLP059 T02040185 40284//// 57003 IEM_DS3505
ZBAA,1992-08-21 19:00,ZBAA 211900Z AUTO 33002KT 7SM 19/18 A2965 RMK SLP055 T01900180 IEM_DS3505
ZBAA,1992-08-21 20:00,ZBAA 212000Z AUTO 32004KT 6SM 19/18 A2968 RMK SLP065 T01900180 IEM_DS3505
ZBAA,1992-08-21 21:00,ZBAA 212100Z AUTO 04002KT 5SM 19/18 A2968 RMK 70024 SLP063 T01930183 52004 IEM_DS3505
ZBAA,1992-08-21 22:00,ZBAA 212200Z AUTO 32002KT 6SM 19/18 A2968 RMK SLP065 T01900180 IEM_DS3505
ZBAA,1992-08-21 23:00,ZBAA 212300Z AUTO 33006KT 6SM 20/19 A2971 RMK SLP075 T02000190 IEM_DS3505
ZBAA,1992-08-22 00:00,ZBAA 220000Z AUTO 36004KT 10SM 22/17 A2970 RMK 70244 SLP071 T02220174 52008 IEM_DS3505
ZBAA,1992-08-22 01:00,ZBAA 220100Z AUTO 33004KT 6SM 24/20 A2971 RMK SLP074 T02400200 IEM_DS3505
ZBAA,1992-08-22 02:00,ZBAA 220200Z AUTO 33004KT 6SM 26/20 A2971 RMK SLP074 T02600200 IEM_DS3505
ZBAA,1992-08-22 03:00,ZBAA 220300Z AUTO 36006KT 19SM 28/18 A2971 RMK SLP072 T02810176 52001 IEM_DS3505
ZBAA,1992-08-22 04:00,ZBAA 220400Z AUTO 28006KT 6SM 30/18 A2968 RMK SLP063 T03000180 IEM_DS3505
ZBAA,1992-08-22 05:00,ZBAA 220500Z AUTO 26004KT 6SM 30/17 A2968 RMK SLP063 T03000170 IEM_DS3505
ZBAA,1992-08-22 06:00,ZBAA 220600Z AUTO 20006KT 12SM 31/16 A2965 RMK SLP063 T03130159 4////0187 57009 IEM_DS3505
ZBAA,1992-08-22 07:00,ZBAA 220700Z AUTO 22004KT 6SM 32/18 A2965 RMK SLP052 T03200180 IEM_DS3505
ZBAA,1992-08-22 08:00,ZBAA 220800Z AUTO 25004KT 6SM 29/18 A2965 RMK SLP053 T02900180 IEM_DS3505
ZBAA,1992-08-22 09:00,ZBAA 220900Z AUTO 20008KT 10SM 30/17 A2965 RMK SLP055 T03010169 57008 IEM_DS3505
ZBAA,1992-08-22 10:00,ZBAA 221000Z AUTO 16006KT 6SM 29/20 A2962 RMK SLP043 T02900200 IEM_DS3505
ZBAA,1992-08-22 11:00,ZBAA 221100Z AUTO 17006KT 6SM 27/20 A2965 RMK SLP053 T02700200 IEM_DS3505
ZBAA,1992-08-22 12:00,ZBAA 221200Z AUTO 20006KT 9SM 26/18 A2965 RMK SLP059 T02650175 52004 IEM_DS3505
ZBAA,1992-08-22 13:00,ZBAA 221300Z AUTO 02004KT 6SM 24/21 A2968 RMK SLP064 T02400210 IEM_DS3505
ZBAA,1992-08-22 14:00,ZBAA 221400Z AUTO 00000KT 6SM 23/21 A2971 RMK SLP074 T02300210 IEM_DS3505
ZBAA,1992-08-22 15:00,ZBAA 221500Z AUTO 00000KT 7SM 23/19 A2969 RMK SLP068 T02280194 52009 IEM_DS3505
ZBAA,1992-08-22 16:00,ZBAA 221600Z AUTO 18002KT 6SM 22/20 A2971 RMK SLP075 T02200200 IEM_DS3505
ZBAA,1992-08-22 17:00,ZBAA 221700Z AUTO 36002KT 6SM 21/20 A2968 RMK SLP065 T02100200 IEM_DS3505
ZBAA,1992-08-22 18:00,ZBAA 221800Z AUTO 32002KT 7SM 21/18 A2968 RMK SLP067 T02100185 40317//// 57001 IEM_DS3505
ZBAA,1992-08-22 19:00,ZBAA 221900Z AUTO 33002KT 6SM 20/20 A2968 RMK SLP065 T02000200 IEM_DS3505
ZBAA,1992-08-22 20:00,ZBAA 222000Z AUTO 30002KT 6SM 20/19 A2968 RMK SLP065 T02000190 IEM_DS3505
ZBAA,1992-08-22 21:00,ZBAA 222100Z AUTO 36002KT 9SM 20/17 A2971 RMK SLP072 T01960173 52005 IEM_DS3505
ZBAA,1992-08-22 22:00,ZBAA 222200Z AUTO 32004KT 6SM 19/19 A2971 RMK SLP075 T01900190 IEM_DS3505
ZBAA,1992-08-22 23:00,ZBAA 222300Z AUTO 32006KT 6SM 21/20 A2971 RMK SLP075 T02100200 IEM_DS3505
ZBAA,1992-08-23 00:00,ZBAA 230000Z AUTO 04004KT 7SM 23/17 A2971 RMK SLP078 T02300171 52006 IEM_DS3505
ZBAA,1992-08-23 01:00,ZBAA 230100Z AUTO 04004KT 7SM 25/20 A2971 RMK SLP078 T02500200 IEM_DS3505
ZBAA,1992-08-23 02:00,ZBAA 230200Z AUTO 35004KT 6SM 27/20 A2971 RMK SLP074 T02700200 IEM_DS3505
ZBAA,1992-08-23 03:00,ZBAA 230300Z AUTO 34002KT 12SM 29/15 A2971 RMK SLP078 T02890147 54000 IEM_DS3505
ZBAA,1992-08-23 04:00,ZBAA 230400Z AUTO 08002KT 7SM 30/19 A2971 RMK SLP073 T03000190 IEM_DS3505
ZBAA,1992-08-23 05:00,ZBAA 230500Z AUTO 27006KT 7SM 32/19 A2968 RMK SLP062 T03200190 IEM_DS3505
ZBAA,1992-08-23 06:00,ZBAA 230600Z AUTO 18008KT 6SM 33/17 A2969 RMK SLP066 T03260167 4////0187 57012 IEM_DS3505
ZBAA,1992-08-23 07:00,ZBAA 230700Z AUTO 17004KT 6SM 32/17 A2965 RMK SLP052 T03200170 IEM_DS3505
ZBAA,1992-08-23 08:00,ZBAA 230800Z AUTO 17008KT 6SM 32/19 A2965 RMK SLP052 T03200190 IEM_DS3505
ZBAA,1992-08-23 09:00,ZBAA 230900Z AUTO 20008KT 6SM 31/20 A2965 RMK SLP061 T03140200 57005 IEM_DS3505
ZBAA,1992-08-23 10:00,ZBAA 231000Z AUTO 15004KT 6SM 29/20 A2965 RMK SLP053 T02900200 IEM_DS3505
ZBAA,1992-08-23 11:00,ZBAA 231100Z AUTO 17006KT 6SM 28/21 A2968 RMK SLP063 T02800210 IEM_DS3505
ZBAA,1992-08-23 12:00,ZBAA 231200Z AUTO 18006KT 6SM 28/20 A2969 RMK SLP067 T02800203 52006 IEM_DS3505
ZBAA,1992-08-23 13:00,ZBAA 231300Z AUTO 24002KT 6SM 26/21 A2971 RMK SLP074 T02600210 IEM_DS3505
ZBAA,1992-08-23 14:00,ZBAA 231400Z AUTO 24002KT 7SM 25/21 A2971 RMK SLP074 T02500210 IEM_DS3505
ZBAA,1992-08-23 15:00,ZBAA 231500Z AUTO 25006KT 6SM 25/18 A2974 RMK SLP080 T02500176 52013 IEM_DS3505
ZBAA,1992-08-23 16:00,ZBAA 231600Z AUTO 28004KT 5SM 23/20 A2974 RMK SLP084 T02300200 IEM_DS3505
ZBAA,1992-08-23 17:00,ZBAA 231700Z AUTO 15002KT 4SM 23/19 A2974 RMK SLP084 T02300190 IEM_DS3505
ZBAA,1992-08-23 18:00,ZBAA 231800Z AUTO 16004KT 9SM 24/14 A2974 RMK SLP081 T02400145 40331//// 52002 IEM_DS3505
ZBAA,1992-08-23 19:00,ZBAA 231900Z AUTO 18002KT 4SM 21/20 A2974 RMK SLP085 T02100200 IEM_DS3505
ZBAA,1992-08-23 20:00,ZBAA 232000Z AUTO 00000KT 5SM 20/20 A2974 RMK SLP085 T02000200 IEM_DS3505
ZBAA,1992-08-23 21:00,ZBAA 232100Z AUTO 02002KT 9SM 20/16 A2974 RMK SLP088 T02040158 52006 IEM_DS3505
ZBAA,1992-08-23 22:00,ZBAA 232200Z AUTO 00000KT 7SM 19/19 A2977 RMK SLP095 T01900190 IEM_DS3505
ZBAA,1992-08-23 23:00,ZBAA 232300Z AUTO 32002KT 7SM 22/19 A2977 RMK SLP095 T02200190 IEM_DS3505
ZBAA,1992-08-24 00:00,ZBAA 240000Z AUTO 36004KT 9SM 25/14 A2980 RMK SLP096 T02510143 52008 IEM_DS3505
ZBAA,1992-08-24 01:00,ZBAA 240100Z AUTO 35004KT 7SM 26/18 A2980 RMK SLP104 T02600180 IEM_DS3505
ZBAA,1992-08-24 02:00,ZBAA 240200Z AUTO 35004KT 7SM 28/19 A2980 RMK SLP104 T02800190 IEM_DS3505
ZBAA,1992-08-24 03:00,ZBAA 240300Z AUTO 04004KT 9SM 30/16 A2980 RMK SLP104 T02960158 52008 IEM_DS3505
ZBAA,1992-08-24 04:00,ZBAA 240400Z AUTO 03002KT 7SM 31/17 A2977 RMK SLP093 T03100170 IEM_DS3505
ZBAA,1992-08-24 05:00,ZBAA 240500Z AUTO 14002KT 7SM 31/17 A2977 RMK SLP093 T03100170 IEM_DS3505
ZBAA,1992-08-24 06:00,ZBAA 240600Z AUTO 22002KT 12SM 33/13 A2976 RMK SLP089 T03310133 4////0196 57014 IEM_DS3505
ZBAA,1992-08-24 07:00,ZBAA 240700Z AUTO 16006KT 7SM 31/15 A2974 RMK SLP083 T03100150 IEM_DS3505
ZBAA,1992-08-24 08:00,ZBAA 240800Z AUTO 13006KT 7SM 32/17 A2971 RMK SLP073 T03200170 IEM_DS3505
ZBAA,1992-08-24 09:00,ZBAA 240900Z AUTO 16004KT 8SM 31/17 A2974 RMK SLP081 T03120174 57009 IEM_DS3505
ZBAA,1992-08-24 10:00,ZBAA 241000Z AUTO 15002KT 6SM 29/19 A2974 RMK SLP083 T02900190 IEM_DS3505
ZBAA,1992-08-24 11:00,ZBAA 241100Z AUTO 12002KT 6SM 28/20 A2974 RMK SLP083 T02800200 IEM_DS3505
ZBAA,1992-08-24 12:00,ZBAA 241200Z AUTO 34002KT 6SM 28/19 A2977 RMK SLP092 T02760192 52011 IEM_DS3505
ZBAA,1992-08-24 13:00,ZBAA 241300Z AUTO 27012KT 7SM 26/15 A2983 RMK SLP114 T02600150 IEM_DS3505
ZBAA,1992-08-24 14:00,ZBAA 241400Z AUTO 32014KT 7SM 24/13 A2985 RMK SLP122 T02400130 IEM_DS3505
ZBAA,1992-08-24 15:00,ZBAA 241500Z AUTO 04006KT 6SM 24/13 A2983 RMK SLP105 T02440131 52013 IEM_DS3505
ZBAA,1992-08-24 16:00,ZBAA 241600Z AUTO 26006KT 6SM 21/15 A2980 RMK SLP105 T02100150 IEM_DS3505
ZBAA,1992-08-24 17:00,ZBAA 241700Z AUTO 26006KT 6SM 20/16 A2980 RMK SLP105 T02000160 IEM_DS3505
ZBAA,1992-08-24 18:00,ZBAA 241800Z AUTO 25004KT 6SM 21/15 A2980 RMK SLP103 T02060154 40332//// 57002 IEM_DS3505
ZBAA,1992-08-24 19:00,ZBAA 241900Z AUTO 26002KT 6SM 19/15 A2980 RMK SLP105 T01900150 IEM_DS3505
ZBAA,1992-08-24 20:00,ZBAA 242000Z AUTO 30006KT 6SM 18/16 A2980 RMK SLP106 T01800160 IEM_DS3505
ZBAA,1992-08-24 21:00,ZBAA 242100Z AUTO 20002KT 9SM 19/15 A2980 RMK SLP105 T01900153 52002 IEM_DS3505
ZBAA,1992-08-24 22:00,ZBAA 242200Z AUTO 32004KT 6SM 18/16 A2983 RMK SLP116 T01800160 IEM_DS3505
ZBAA,1992-08-24 23:00,ZBAA 242300Z AUTO 29004KT 6SM 20/16 A2983 RMK SLP115 T02000160 IEM_DS3505
ZBAA,1992-08-25 00:00,ZBAA 250000Z AUTO 04004KT 9SM 24/16 A2985 RMK SLP121 T02360157 52016 IEM_DS3505
ZBAA,1992-08-25 01:00,ZBAA 250100Z AUTO 35006KT 7SM 25/18 A2985 RMK SLP121 T02500180 IEM_DS3505
ZBAA,1992-08-25 02:00,ZBAA 250200Z AUTO 34004KT 7SM 26/17 A2985 RMK SLP121 T02600170 IEM_DS3505
ZBAA,1992-08-25 03:00,ZBAA 250300Z AUTO 00000KT 9SM 28/16 A2985 RMK SLP123 T02840155 52002 IEM_DS3505
ZBAA,1992-08-25 04:00,ZBAA 250400Z AUTO 11002KT 7SM 29/18 A2983 RMK SLP113 T02900180 IEM_DS3505
ZBAA,1992-08-25 05:00,ZBAA 250500Z AUTO 07002KT 7SM 30/18 A2983 RMK SLP113 T03000180 IEM_DS3505
ZBAA,1992-08-25 06:00,ZBAA 250600Z AUTO 22004KT 7SM 31/14 A2980 RMK SLP109 T03120138 4////0181 57014 IEM_DS3505
ZBAA,1992-08-25 07:00,ZBAA 250700Z AUTO 09004KT 6SM 31/18 A2977 RMK SLP093 T03100180 IEM_DS3505
ZBAA,1992-08-25 08:00,ZBAA 250800Z AUTO 11004KT 6SM 30/19 A2977 RMK SLP093 T03000190 IEM_DS3505
ZBAA,1992-08-25 09:00,ZBAA 250900Z AUTO 18008KT 7SM 31/17 A2977 RMK SLP094 T03100173 57015 IEM_DS3505
ZBAA,1992-08-25 10:00,ZBAA 251000Z AUTO 14004KT 6SM 29/20 A2977 RMK SLP093 T02900200 IEM_DS3505
ZBAA,1992-08-25 11:00,ZBAA 251100Z AUTO 11002KT 6SM 28/19 A2977 RMK SLP093 T02800190 IEM_DS3505
ZBAA,1992-08-25 12:00,ZBAA 251200Z AUTO 18004KT 9SM 28/19 A2980 RMK SLP099 T02770186 52005 IEM_DS3505
ZBAA,1992-08-25 13:00,ZBAA 251300Z AUTO 00000KT 6SM 26/21 A2980 RMK SLP104 T02600210 IEM_DS3505
ZBAA,1992-08-25 14:00,ZBAA 251400Z AUTO 12002KT 6SM 25/21 A2980 RMK SLP104 T02500210 IEM_DS3505
ZBAA,1992-08-25 15:00,ZBAA 251500Z AUTO 00000KT 5SM 25/20 A2980 RMK SLP107 T02490202 52008 IEM_DS3505
ZBAA,1992-08-25 16:00,ZBAA 251600Z AUTO 09002KT 6SM 24/21 A2980 RMK SLP104 T02400210 IEM_DS3505
ZBAA,1992-08-25 17:00,ZBAA 251700Z AUTO 33004KT 6SM 23/21 A2980 RMK SLP105 T02300210 IEM_DS3505
ZBAA,1992-08-25 18:00,ZBAA 251800Z AUTO 07002KT 4SM 23/20 A2980 RMK SLP104 T02310197 40317//// 57003 IEM_DS3505
ZBAA,1992-08-25 19:00,ZBAA 251900Z AUTO 04002KT 5SM 22/20 A2977 RMK SLP095 T02200200 IEM_DS3505
ZBAA,1992-08-25 20:00,ZBAA 252000Z AUTO 34002KT 5SM 21/20 A2977 RMK SLP095 T02100200 IEM_DS3505
ZBAA,1992-08-25 21:00,ZBAA 252100Z AUTO 04004KT 4SM 22/20 A2977 RMK SLP101 T02230195 57003 IEM_DS3505
ZBAA,1992-08-25 22:00,ZBAA 252200Z AUTO 01002KT 3SM 20/20 A2977 RMK SLP095 T02000200 IEM_DS3505
ZBAA,1992-08-25 23:00,ZBAA 252300Z AUTO 06002KT 3SM 21/20 A2980 RMK SLP105 T02100200 IEM_DS3505
ZBAA,1992-08-26 00:00,ZBAA 260000Z AUTO 36004KT 3SM 23/19 A2980 RMK SLP104 T02290193 52003 IEM_DS3505
ZBAA,1992-08-26 01:00,ZBAA 260100Z AUTO 13004KT 4SM 24/20 A2980 RMK SLP104 T02400200 IEM_DS3505
ZBAA,1992-08-26 02:00,ZBAA 260200Z AUTO 13004KT 4SM 25/21 A2980 RMK SLP104 T02500210 IEM_DS3505
ZBAA,1992-08-26 03:00,ZBAA 260300Z AUTO 02004KT 1 1/4SM 27/21 A2980 RMK SLP106 T02720209 52002 IEM_DS3505
ZBAA,1992-08-26 04:00,ZBAA 260400Z AUTO 15006KT 6SM 28/22 A2977 RMK SLP093 T02800220 IEM_DS3505
ZBAA,1992-08-26 05:00,ZBAA 260500Z AUTO 15008KT 5SM 31/23 A2977 RMK SLP093 T03100230 IEM_DS3505
ZBAA,1992-08-26 06:00,ZBAA 260600Z AUTO 20008KT 6SM 31/17 A2974 RMK SLP090 T03070171 4////0216 57016 IEM_DS3505
ZBAA,1992-08-26 07:00,ZBAA 260700Z AUTO 15008KT 6SM 31/18 A2974 RMK SLP083 T03100180 IEM_DS3505
ZBAA,1992-08-26 08:00,ZBAA 260800Z AUTO 17010KT 6SM 31/19 A2974 RMK SLP083 T03100190 IEM_DS3505
ZBAA,1992-08-26 09:00,ZBAA 260900Z AUTO 18006KT 6SM 30/17 A2974 RMK SLP088 T03020168 57002 IEM_DS3505
ZBAA,1992-08-26 10:00,ZBAA 261000Z AUTO 28004KT 6SM 28/20 A2974 RMK SLP083 T02800200 IEM_DS3505
ZBAA,1992-08-26 11:00,ZBAA 261100Z AUTO 03002KT 6SM 26/17 A2977 RMK SLP094 T02600170 IEM_DS3505
ZBAA,1992-08-26 12:00,ZBAA 261200Z AUTO 11002KT 7SM 26/17 A2977 RMK SLP095 T02640174 52007 IEM_DS3505
ZBAA,1992-08-26 13:00,ZBAA 261300Z AUTO 15002KT 6SM 26/19 A2977 RMK SLP094 T02600190 IEM_DS3505
ZBAA,1992-08-26 14:00,ZBAA 261400Z AUTO 20002KT 6SM 24/20 A2977 RMK SLP094 T02400200 IEM_DS3505
ZBAA,1992-08-26 15:00,ZBAA 261500Z AUTO 00000KT 6SM 24/18 A2977 RMK SLP099 T02350183 52004 IEM_DS3505
ZBAA,1992-08-26 16:00,ZBAA 261600Z AUTO 09002KT 6SM 22/19 A2977 RMK SLP095 T02200190 IEM_DS3505
ZBAA,1992-08-26 17:00,ZBAA 261700Z AUTO 32002KT 6SM 21/20 A2977 RMK SLP095 T02100200 IEM_DS3505
ZBAA,1992-08-26 18:00,ZBAA 261800Z AUTO 36002KT 4SM 22/16 A2977 RMK SLP096 T02240165 40313//// 57003 IEM_DS3505
ZBAA,1992-08-26 19:00,ZBAA 261900Z AUTO 10004KT 6SM 20/19 A2977 RMK SLP095 T02000190 IEM_DS3505
ZBAA,1992-08-26 20:00,ZBAA 262000Z AUTO 33006KT 4SM 20/19 A2977 RMK SLP095 T02000190 IEM_DS3505
ZBAA,1992-08-26 21:00,ZBAA 262100Z AUTO 02004KT 5SM 21/17 A2977 RMK SLP098 T02120172 52002 IEM_DS3505
ZBAA,1992-08-26 22:00,ZBAA 262200Z AUTO 34004KT 4SM 19/18 A2977 RMK SLP095 T01900180 IEM_DS3505
ZBAA,1992-08-26 23:00,ZBAA 262300Z AUTO 34004KT 4SM 20/19 A2980 RMK SLP105 T02000190 IEM_DS3505
ZBAA,1992-08-27 00:00,ZBAA 270000Z AUTO 04006KT 3SM 23/18 A2980 RMK SLP105 T02280177 52007 IEM_DS3505
ZBAA,1992-08-27 01:00,ZBAA 270100Z AUTO 35002KT 5SM 24/21 A2980 RMK SLP104 T02400210 IEM_DS3505
ZBAA,1992-08-27 02:00,ZBAA 270200Z AUTO 11002KT 5SM 26/22 A2980 RMK SLP104 T02600220 IEM_DS3505
ZBAA,1992-08-27 03:00,ZBAA 270300Z AUTO 34002KT 3SM 28/20 A2980 RMK SLP106 T02760202 52001 IEM_DS3505
ZBAA,1992-08-27 04:00,ZBAA 270400Z AUTO 08002KT 6SM 29/22 A2980 RMK SLP103 T02900220 IEM_DS3505
ZBAA,1992-08-27 05:00,ZBAA 270500Z AUTO 13006KT 6SM 31/22 A2977 RMK SLP093 T03100220 IEM_DS3505
ZBAA,1992-08-27 06:00,ZBAA 270600Z AUTO 16008KT 6SM 31/19 A2977 RMK SLP094 T03100190 4////0207 57012 IEM_DS3505
ZBAA,1992-08-27 07:00,ZBAA 270700Z AUTO 15008KT 6SM 31/20 A2974 RMK SLP083 T03100200 IEM_DS3505
ZBAA,1992-08-27 08:00,ZBAA 270800Z AUTO 15006KT 6SM 31/19 A2974 RMK SLP083 T03100190 IEM_DS3505
ZBAA,1992-08-27 09:00,ZBAA 270900Z AUTO 20008KT 6SM 30/18 A2974 RMK SLP088 T03040181 57006 IEM_DS3505
ZBAA,1992-08-27 10:00,ZBAA 271000Z AUTO 13004KT 6SM 29/20 A2974 RMK SLP083 T02900200 IEM_DS3505
ZBAA,1992-08-27 11:00,ZBAA 271100Z AUTO 13002KT 6SM 28/20 A2974 RMK SLP083 T02800200 IEM_DS3505
ZBAA,1992-08-27 12:00,ZBAA 271200Z AUTO 18004KT 4SM 28/20 A2977 RMK SLP098 T02800195 52010 IEM_DS3505
ZBAA,1992-08-27 13:00,ZBAA 271300Z AUTO 10002KT 6SM 25/21 A2980 RMK SLP104 T02500210 IEM_DS3505
ZBAA,1992-08-27 14:00,ZBAA 271400Z AUTO 10004KT 4SM 25/22 A2980 RMK SLP104 T02500220 IEM_DS3505
ZBAA,1992-08-27 15:00,ZBAA 271500Z AUTO 18004KT 7SM 26/20 A2980 RMK SLP106 T02570202 52008 IEM_DS3505
ZBAA,1992-08-27 16:00,ZBAA 271600Z AUTO 36004KT 3SM 23/22 A2980 RMK SLP105 T02300220 IEM_DS3505
ZBAA,1992-08-27 17:00,ZBAA 271700Z AUTO 06002KT 2 1/2SM 22/22 A2983 RMK SLP115 T02200220 IEM_DS3505
ZBAA,1992-08-27 18:00,ZBAA 271800Z AUTO 02002KT 7SM 23/21 A2983 RMK SLP111 T02280208 40316//// 52005 IEM_DS3505
ZBAA,1992-08-27 19:00,ZBAA 271900Z AUTO 12002KT 2 1/2SM 22/21 A2983 RMK SLP115 T02200210 IEM_DS3505
ZBAA,1992-08-27 20:00,ZBAA 272000Z AUTO 13002KT 2SM 22/21 A2983 RMK SLP115 T02200210 IEM_DS3505
ZBAA,1992-08-27 21:00,ZBAA 272100Z AUTO 00000KT 6SM 22/20 A2983 RMK SLP115 T02190199 52004 IEM_DS3505
ZBAA,1992-08-27 22:00,ZBAA 272200Z AUTO 35002KT 1SM 21/21 A2983 RMK SLP115 T02100210 IEM_DS3505
ZBAA,1992-08-27 23:00,ZBAA 272300Z AUTO 06002KT 1 1/4SM 22/22 A2985 RMK SLP122 T02200220 IEM_DS3505
ZBAA,1992-08-28 00:00,ZBAA 280000Z AUTO 04004KT 3SM 23/20 A2986 RMK SLP124 T02270204 52009 IEM_DS3505
ZBAA,1992-08-28 01:00,ZBAA 280100Z AUTO 07004KT 2SM 25/23 A2985 RMK SLP121 T02500230 IEM_DS3505
ZBAA,1992-08-28 02:00,ZBAA 280200Z AUTO 09004KT 2 1/2SM 27/24 A2985 RMK SLP121 T02700240 IEM_DS3505
ZBAA,1992-08-28 03:00,ZBAA 280300Z AUTO 34004KT 2SM 27/22 A2985 RMK SLP126 T02660219 52002 IEM_DS3505
ZBAA,1992-08-28 04:00,ZBAA 280400Z AUTO 11006KT 4SM 30/23 A2985 RMK SLP120 T03000230 IEM_DS3505
ZBAA,1992-08-28 06:00,ZBAA 280600Z AUTO 14002KT 4SM 28/21 A2983 RMK 60002 SLP116 T02750209 4////0215 57010 IEM_DS3505
ZBAA,1992-08-28 07:00,ZBAA 280700Z AUTO 25006KT 2 1/2SM 25/25 A2985 RMK SLP121 T02500250 IEM_DS3505
ZBAA,1992-08-28 08:00,ZBAA 280800Z AUTO 28006KT 2 1/2SM 23/23 A2983 RMK SLP115 T02300230 IEM_DS3505
ZBAA,1992-08-28 09:00,ZBAA 280900Z AUTO 36006KT 6SM 23/20 A2983 RMK SLP123 T02280200 52006 IEM_DS3505
ZBAA,1992-08-28 10:00,ZBAA 281000Z AUTO 13002KT 4SM 23/22 A2983 RMK SLP115 T02300220 IEM_DS3505
ZBAA,1992-08-28 11:00,ZBAA 281100Z AUTO 34006KT 3SM 23/22 A2983 RMK SLP115 T02300220 IEM_DS3505
ZBAA,1992-08-28 12:00,ZBAA 281200Z AUTO 04004KT 3SM 23/20 A2985 RMK 60091 SLP123 T02260203 54000 IEM_DS3505
ZBAA,1992-08-28 13:00,ZBAA 281300Z AUTO 35002KT 2 1/2SM 22/22 A2985 RMK SLP122 T02200220 IEM_DS3505
ZBAA,1992-08-28 14:00,ZBAA 281400Z AUTO 33004KT 2 1/2SM 22/22 A2988 RMK SLP132 T02200220 IEM_DS3505
ZBAA,1992-08-28 15:00,ZBAA 281500Z AUTO 00000KT 5SM 23/20 A2988 RMK SLP131 T02260198 52009 IEM_DS3505
ZBAA,1992-08-28 16:00,ZBAA 281600Z AUTO 32002KT 2 1/2SM 22/21 A2988 RMK SLP132 T02200210 IEM_DS3505
ZBAA,1992-08-28 17:00,ZBAA 281700Z AUTO 34002KT 2 1/2SM 21/21 A2988 RMK SLP132 T02100210 IEM_DS3505
ZBAA,1992-08-28 18:00,ZBAA 281800Z AUTO 00000KT 4SM 22/21 A2988 RMK SLP131 T02170206 40286//// 54000 IEM_DS3505
ZBAA,1992-08-28 19:00,ZBAA 281900Z AUTO 36002KT 2 1/2SM 21/21 A2988 RMK SLP132 T02100210 IEM_DS3505
ZBAA,1992-08-28 20:00,ZBAA 282000Z AUTO 32002KT 2 1/2SM 22/22 A2988 RMK SLP132 T02200220 IEM_DS3505
ZBAA,1992-08-28 21:00,ZBAA 282100Z AUTO 00000KT 4SM 22/20 A2988 RMK 70094 SLP131 T02240198 57001 IEM_DS3505
ZBAA,1992-08-28 22:00,ZBAA 282200Z AUTO 00000KT 2 1/2SM 22/22 A2988 RMK SLP132 T02200220 IEM_DS3505
ZBAA,1992-08-28 23:00,ZBAA 282300Z AUTO 12002KT 2SM 23/23 A2991 RMK SLP142 T02300230 IEM_DS3505
ZBAA,1992-08-29 00:00,ZBAA 290000Z AUTO 07004KT 2SM 23/22 A2991 RMK 70941 SLP144 T02330215 52013 IEM_DS3505
ZBAA,1992-08-29 03:00,ZBAA 290300Z AUTO 36002KT 2SM 25/22 A2993 RMK SLP147 T02530223 52003 IEM_DS3505
ZBAA,1992-08-29 06:00,ZBAA 290600Z AUTO 00000KT 2SM 27/23 A2989 RMK SLP136 T02680232 4////0200 57010 IEM_DS3505
ZBAA,1992-08-29 07:00,ZBAA 290700Z AUTO 06004KT 4SM 26/24 A2985 RMK SLP121 T02600240 IEM_DS3505
ZBAA,1992-08-29 08:00,ZBAA 290800Z AUTO 04002KT 4SM 26/24 A2988 RMK SLP131 T02600240 IEM_DS3505
ZBAA,1992-08-29 09:00,ZBAA 290900Z AUTO 36004KT 2SM 26/23 A2985 RMK SLP131 T02640229 57005 IEM_DS3505
ZBAA,1992-08-29 10:00,ZBAA 291000Z AUTO 35002KT 3SM 26/24 A2985 RMK SLP121 T02600240 IEM_DS3505
ZBAA,1992-08-29 11:00,ZBAA 291100Z AUTO 29002KT 2 1/2SM 25/24 A2988 RMK SLP131 T02500240 IEM_DS3505
ZBAA,1992-08-29 12:00,ZBAA 291200Z AUTO 04008KT 6SM 22/18 A2994 RMK SLP157 T02160176 52025 IEM_DS3505
ZBAA,1992-08-29 13:00,ZBAA 291300Z AUTO 32006KT 3SM 19/19 A2994 RMK SLP153 T01900190 IEM_DS3505
ZBAA,1992-08-29 14:00,ZBAA 291400Z AUTO 06002KT 7SM 19/19 A2994 RMK SLP153 T01900190 IEM_DS3505
ZBAA,1992-08-29 15:00,ZBAA 291500Z AUTO 09004KT 7SM 21/19 A2994 RMK SLP153 T02060190 57004 IEM_DS3505
ZBAA,1992-08-29 16:00,ZBAA 291600Z AUTO 36004KT 7SM 20/20 A2991 RMK SLP143 T02000200 IEM_DS3505
ZBAA,1992-08-29 17:00,ZBAA 291700Z AUTO 36004KT 7SM 20/20 A2991 RMK SLP143 T02000200 IEM_DS3505
ZBAA,1992-08-29 18:00,ZBAA 291800Z AUTO 27004KT 5SM 20/19 A2994 RMK 60028 SLP154 T02050192 40272//// 52001 IEM_DS3505
ZBAA,1992-08-29 19:00,ZBAA 291900Z AUTO 25004KT 7SM 20/20 A2994 RMK SLP153 T02000200 IEM_DS3505
ZBAA,1992-08-29 21:00,ZBAA 292100Z AUTO 34006KT 5SM 20/19 A2994 RMK 70028 SLP150 T02050188 57004 IEM_DS3505
ZBAA,1992-08-29 22:00,ZBAA 292200Z AUTO 33004KT 5SM 20/20 A2994 RMK SLP153 T02000200 IEM_DS3505
ZBAA,1992-08-29 23:00,ZBAA 292300Z AUTO 35004KT 5SM 20/20 A2994 RMK SLP153 T02000200 IEM_DS3505
ZBAA,1992-08-30 00:00,ZBAA 300000Z AUTO 36002KT 6SM 21/18 A2994 RMK 70287 SLP154 T02090185 52004 IEM_DS3505
ZBAA,1992-08-30 01:00,ZBAA 300100Z AUTO 07002KT 6SM 21/21 A2994 RMK SLP152 T02100210 IEM_DS3505
ZBAA,1992-08-30 02:00,ZBAA 300200Z AUTO 00000KT 6SM 22/21 A2997 RMK SLP163 T02200210 IEM_DS3505
ZBAA,1992-08-30 03:00,ZBAA 300300Z AUTO 09004KT 6SM 24/19 A2998 RMK SLP165 T02400190 52011 IEM_DS3505
ZBAA,1992-08-30 04:00,ZBAA 300400Z AUTO 08004KT 6SM 26/21 A2994 RMK SLP151 T02600210 IEM_DS3505
ZBAA,1992-08-30 05:00,ZBAA 300500Z AUTO 13004KT 6SM 27/21 A2991 RMK SLP141 T02700210 IEM_DS3505
ZBAA,1992-08-30 06:00,ZBAA 300600Z AUTO 00000KT 7SM 27/19 A2991 RMK SLP138 T02700190 4////0198 57027 IEM_DS3505
ZBAA,1992-08-30 07:00,ZBAA 300700Z AUTO 17002KT 6SM 27/21 A2988 RMK SLP131 T02700210 IEM_DS3505
ZBAA,1992-08-30 08:00,ZBAA 300800Z AUTO 11004KT 6SM 27/21 A2985 RMK SLP121 T02700210 IEM_DS3505
ZBAA,1992-08-30 09:00,ZBAA 300900Z AUTO 09006KT 5SM 27/20 A2987 RMK SLP128 T02700200 57010 IEM_DS3505
ZBAA,1992-08-30 10:00,ZBAA 301000Z AUTO 00000KT 7SM 26/20 A2985 RMK SLP121 T02600200 IEM_DS3505
ZBAA,1992-08-30 11:00,ZBAA 301100Z AUTO 03002KT 7SM 24/21 A2988 RMK SLP132 T02400210 IEM_DS3505
ZBAA,1992-08-30 12:00,ZBAA 301200Z AUTO 14002KT 3SM 24/20 A2988 RMK SLP134 T02410201 52006 IEM_DS3505
ZBAA,1992-08-30 13:00,ZBAA 301300Z AUTO 00000KT 6SM 23/21 A2991 RMK SLP142 T02300210 IEM_DS3505
ZBAA,1992-08-30 14:00,ZBAA 301400Z AUTO 00000KT 6SM 22/21 A2991 RMK SLP142 T02200210 IEM_DS3505
ZBAA,1992-08-30 15:00,ZBAA 301500Z AUTO 00000KT 1 1/4SM 22/21 A2991 RMK SLP142 T02240210 52008 IEM_DS3505
ZBAA,1992-08-30 16:00,ZBAA 301600Z AUTO 00000KT 6SM 21/21 A2991 RMK SLP142 T02100210 IEM_DS3505
ZBAA,1992-08-30 17:00,ZBAA 301700Z AUTO 01002KT 6SM 21/21 A2994 RMK SLP152 T02100210 IEM_DS3505
ZBAA,1992-08-30 18:00,ZBAA 301800Z AUTO 04002KT 1 1/4SM 22/21 A2991 RMK SLP143 T02160210 40281//// 52001 IEM_DS3505
ZBAA,1992-08-30 19:00,ZBAA 301900Z AUTO 00000KT 6SM 20/20 A2991 RMK SLP143 T02000200 IEM_DS3505
ZBAA,1992-08-30 20:00,ZBAA 302000Z AUTO 03004KT 6SM 20/20 A2988 RMK SLP132 T02000200 IEM_DS3505
ZBAA,1992-08-30 21:00,ZBAA 302100Z AUTO 02004KT 1SM 21/20 A2988 RMK SLP137 T02100198 57006 IEM_DS3505
ZBAA,1992-08-30 22:00,ZBAA 302200Z AUTO 00000KT 3SM 19/19 A2991 RMK SLP143 T01900190 IEM_DS3505
ZBAA,1992-08-30 23:00,ZBAA 302300Z AUTO 33004KT 3SM 21/21 A2991 RMK SLP142 T02100210 IEM_DS3505
ZBAA,1992-08-31 00:00,ZBAA 310000Z AUTO 36004KT 3SM 23/20 A2991 RMK SLP146 T02260201 52009 IEM_DS3505
ZBAA,1992-08-31 01:00,ZBAA 310100Z AUTO 33004KT 4SM 24/22 A2991 RMK SLP142 T02400220 IEM_DS3505
ZBAA,1992-08-31 02:00,ZBAA 310200Z AUTO 36002KT 4SM 26/23 A2991 RMK SLP141 T02600230 IEM_DS3505
ZBAA,1992-08-31 03:00,ZBAA 310300Z AUTO 09002KT 3SM 27/21 A2991 RMK SLP140 T02670207 57005 IEM_DS3505
ZBAA,1992-08-31 04:00,ZBAA 310400Z AUTO 04002KT 5SM 27/20 A2988 RMK SLP131 T02700200 IEM_DS3505
ZBAA,1992-08-31 05:00,ZBAA 310500Z AUTO 01004KT 6SM 28/20 A2985 RMK SLP121 T02800200 IEM_DS3505
ZBAA,1992-08-31 06:00,ZBAA 310600Z AUTO 04004KT 3SM 28/19 A2985 RMK SLP124 T02780192 4////0202 57016 IEM_DS3505
ZBAA,1992-08-31 07:00,ZBAA 310700Z AUTO 01002KT 6SM 29/20 A2983 RMK SLP113 T02900200 IEM_DS3505
ZBAA,1992-08-31 08:00,ZBAA 310800Z AUTO 12002KT 6SM 28/21 A2983 RMK SLP114 T02800210 IEM_DS3505
ZBAA,1992-08-31 09:00,ZBAA 310900Z AUTO 04004KT 3SM 28/20 A2983 RMK SLP120 T02830195 57004 IEM_DS3505
ZBAA,1992-08-31 10:00,ZBAA 311000Z AUTO 00000KT 6SM 26/21 A2983 RMK SLP114 T02600210 IEM_DS3505
ZBAA,1992-08-31 11:00,ZBAA 311100Z AUTO 00000KT 5SM 26/22 A2983 RMK SLP114 T02600220 IEM_DS3505
ZBAA,1992-08-31 12:00,ZBAA 311200Z AUTO 34002KT 4SM 26/22 A2985 RMK SLP123 T02580215 52003 IEM_DS3505
ZBAA,1992-08-31 13:00,ZBAA 311300Z AUTO 00000KT 4SM 25/22 A2985 RMK SLP121 T02500220 IEM_DS3505
ZBAA,1992-08-31 14:00,ZBAA 311400Z AUTO 33004KT 4SM 25/22 A2985 RMK SLP121 T02500220 IEM_DS3505
ZBAA,1992-08-31 15:00,ZBAA 311500Z AUTO 00000KT 3SM 24/21 A2985 RMK SLP123 T02370213 54000 IEM_DS3505
ZBAA,1992-08-31 16:00,ZBAA 311600Z AUTO 08002KT 4SM 23/22 A2983 RMK SLP115 T02300220 IEM_DS3505
ZBAA,1992-08-31 17:00,ZBAA 311700Z AUTO 00000KT 4SM 23/22 A2983 RMK SLP115 T02300220 IEM_DS3505
ZBAA,1992-08-31 18:00,ZBAA 311800Z AUTO 04004KT 4SM 24/20 A2981 RMK SLP108 T02360204 40289//// 57015 IEM_DS3505
ZBAA,1992-08-31 19:00,ZBAA 311900Z AUTO 00000KT 2SM 22/22 A2980 RMK SLP105 T02200220 IEM_DS3505
ZBAA,1992-08-31 20:00,ZBAA 312000Z AUTO 36002KT 2SM 21/21 A2980 RMK SLP105 T02100210 IEM_DS3505
ZBAA,1992-08-31 21:00,ZBAA 312100Z AUTO 36004KT 5SM 22/20 A2977 RMK SLP102 T02240203 57006 IEM_DS3505
ZBAA,1992-08-31 22:00,ZBAA 312200Z AUTO 34004KT 2SM 22/21 A2977 RMK SLP095 T02200210 IEM_DS3505
ZBAA,1992-08-31 23:00,ZBAA 312300Z AUTO 33006KT 3SM 22/21 A2977 RMK SLP095 T02200210 IEM_DS3505
ZBAA,1992-09-01 00:00,ZBAA 010000Z AUTO 36006KT 3SM 23/19 A2977 RMK SLP094 T02320192 57008 IEM_DS3505
ZBAA,1992-09-01 01:00,ZBAA 010100Z AUTO 35006KT 5SM 23/21 A2977 RMK SLP095 T02300210 IEM_DS3505
ZBAA,1992-09-01 02:00,ZBAA 010200Z AUTO 34008KT 5SM 25/22 A2974 RMK SLP084 T02500220 IEM_DS3505
ZBAA,1992-09-01 03:00,ZBAA 010300Z AUTO 36010KT 6SM 27/20 A2974 RMK SLP085 T02660197 57009 IEM_DS3505
ZBAA,1992-09-01 04:00,ZBAA 010400Z AUTO 35004KT 6SM 27/23 A2971 RMK SLP074 T02700230 IEM_DS3505
ZBAA,1992-09-01 05:00,ZBAA 010500Z AUTO 02008KT 6SM 28/21 A2971 RMK SLP073 T02800210 IEM_DS3505
ZBAA,1992-09-01 06:00,ZBAA 010600Z AUTO 02008KT 7SM 28/19 A2968 RMK SLP066 T02850192 4////0219 57019 IEM_DS3505
ZBAA,1992-09-01 07:00,ZBAA 010700Z AUTO 03002KT 6SM 27/22 A2965 RMK SLP053 T02700220 IEM_DS3505
ZBAA,1992-09-01 08:00,ZBAA 010800Z AUTO 36004KT 6SM 28/22 A2962 RMK SLP043 T02800220 IEM_DS3505
ZBAA,1992-09-01 09:00,ZBAA 010900Z AUTO 36004KT 7SM 29/21 A2962 RMK SLP051 T02870213 57015 IEM_DS3505
ZBAA,1992-09-01 10:00,ZBAA 011000Z AUTO 00000KT 6SM 27/22 A2962 RMK SLP043 T02700220 IEM_DS3505
ZBAA,1992-09-01 11:00,ZBAA 011100Z AUTO 27002KT 6SM 26/21 A2962 RMK SLP044 T02600210 IEM_DS3505
ZBAA,1992-09-01 12:00,ZBAA 011200Z AUTO 00000KT 7SM 26/22 A2964 RMK SLP051 T02550224 54000 IEM_DS3505
ZBAA,1992-09-01 13:00,ZBAA 011300Z AUTO 32002KT 7SM 24/23 A2962 RMK SLP044 T02400230 IEM_DS3505
ZBAA,1992-09-01 14:00,ZBAA 011400Z AUTO 32002KT 6SM 23/22 A2965 RMK SLP054 T02300220 IEM_DS3505
ZBAA,1992-09-01 15:00,ZBAA 011500Z AUTO 25002KT 6SM 24/22 A2965 RMK SLP053 T02350220 52002 IEM_DS3505
ZBAA,1992-09-01 16:00,ZBAA 011600Z AUTO 27004KT 3SM 23/22 A2965 RMK SLP054 T02300220 IEM_DS3505
ZBAA,1992-09-01 17:00,ZBAA 011700Z AUTO 34004KT 4SM 22/21 A2965 RMK SLP055 T02200210 IEM_DS3505
ZBAA,1992-09-01 18:00,ZBAA 011800Z AUTO 09002KT 5SM 22/20 A2965 RMK SLP054 T02160205 40292//// 52001 IEM_DS3505
ZBAA,1992-09-01 19:00,ZBAA 011900Z AUTO 34004KT 4SM 21/20 A2965 RMK SLP055 T02100200 IEM_DS3505
ZBAA,1992-09-01 20:00,ZBAA 012000Z AUTO 35004KT 4SM 21/20 A2965 RMK SLP055 T02100200 IEM_DS3505
ZBAA,1992-09-01 21:00,ZBAA 012100Z AUTO 00000KT 6SM 20/19 A2965 RMK SLP057 T02050194 52003 IEM_DS3505
ZBAA,1992-09-01 22:00,ZBAA 012200Z AUTO 34002KT 6SM 21/20 A2968 RMK SLP065 T02100200 IEM_DS3505
ZBAA,1992-09-01 23:00,ZBAA 012300Z AUTO 33004KT 6SM 21/21 A2968 RMK SLP065 T02100210 IEM_DS3505
ZBAA,1992-09-02 00:00,ZBAA 020000Z AUTO 07002KT 6SM 25/20 A2971 RMK SLP071 T02470201 52014 IEM_DS3505
ZBAA,1992-09-02 01:00,ZBAA 020100Z AUTO 36006KT 6SM 27/21 A2971 RMK SLP074 T02700210 IEM_DS3505
ZBAA,1992-09-02 02:00,ZBAA 020200Z AUTO 36006KT 6SM 29/21 A2971 RMK SLP073 T02900210 IEM_DS3505
ZBAA,1992-09-02 03:00,ZBAA 020300Z AUTO 04004KT 6SM 30/19 A2972 RMK SLP076 T03050191 52005 IEM_DS3505
ZBAA,1992-09-02 04:00,ZBAA 020400Z AUTO 03004KT 6SM 32/19 A2971 RMK SLP073 T03200190 IEM_DS3505
ZBAA,1992-09-02 05:00,ZBAA 020500Z AUTO 05002KT 6SM 32/19 A2968 RMK SLP062 T03200190 IEM_DS3505
ZBAA,1992-09-02 06:00,ZBAA 020600Z AUTO 09002KT 12SM 33/13 A2968 RMK SLP063 T03320130 4////0199 57012 IEM_DS3505
ZBAA,1992-09-02 07:00,ZBAA 020700Z AUTO 17006KT 6SM 32/19 A2965 RMK SLP052 T03200190 IEM_DS3505
ZBAA,1992-09-02 08:00,ZBAA 020800Z AUTO 15004KT 6SM 32/16 A2962 RMK SLP042 T03200160 IEM_DS3505
ZBAA,1992-09-02 09:00,ZBAA 020900Z AUTO 18006KT 16SM 32/15 A2965 RMK SLP050 T03230154 57014 IEM_DS3505
ZBAA,1992-09-02 12:00,ZBAA 021200Z AUTO 18006KT 9SM 28/19 A2964 RMK SLP050 T02830191 52001 IEM_DS3505
ZBAA,1992-09-02 15:00,ZBAA 021500Z AUTO 20006KT 7SM 26/20 A2962 RMK SLP042 T02570196 57008 IEM_DS3505
ZBAA,1992-09-02 18:00,ZBAA 021800Z AUTO 18002KT 3SM 23/20 A2959 RMK SLP031 T02340195 40339//// 57011 IEM_DS3505
ZBAA,1992-09-02 20:00,ZBAA 022000Z AUTO 00000KT 7SM 21/20 A2956 RMK SLP024 T02100200 IEM_DS3505
ZBAA,1992-09-02 21:00,ZBAA 022100Z AUTO 34004KT 4SM 22/19 A2956 RMK SLP029 T02200190 57002 IEM_DS3505
ZBAA,1992-09-02 22:00,ZBAA 022200Z AUTO 35004KT 6SM 20/19 A2956 RMK SLP024 T02000190 IEM_DS3505
ZBAA,1992-09-02 23:00,ZBAA 022300Z AUTO 33006KT 7SM 21/20 A2959 RMK SLP034 T02100200 IEM_DS3505
ZBAA,1992-09-03 00:00,ZBAA 030000Z AUTO 09002KT 4SM 24/19 A2959 RMK SLP035 T02400190 52006 IEM_DS3505
ZBAA,1992-09-03 01:00,ZBAA 030100Z AUTO 01004KT 6SM 25/21 A2959 RMK SLP033 T02500210 IEM_DS3505
ZBAA,1992-09-03 02:00,ZBAA 030200Z AUTO 32002KT 6SM 27/21 A2959 RMK SLP032 T02700210 IEM_DS3505
ZBAA,1992-09-03 03:00,ZBAA 030300Z AUTO 36006KT 4SM 30/11 A2956 RMK SLP031 T03030106 57004 IEM_DS3505
ZBAA,1992-09-03 04:00,ZBAA 030400Z AUTO 30012KT 6SM 31/14 A2956 RMK SLP021 T03100140 IEM_DS3505
ZBAA,1992-09-03 05:00,ZBAA 030500Z AUTO 28008KT 4SM 32/13 A2953 RMK SLP011 T03200130 IEM_DS3505
ZBAA,1992-09-03 06:00,ZBAA 030600Z AUTO 32006KT 9SM 33/09 A2953 RMK SLP014 T03280090 4////0208 57017 IEM_DS3505
ZBAA,1992-09-03 07:00,ZBAA 030700Z AUTO 29008KT 5SM 32/12 A2950 RMK SLP001 T03200120 IEM_DS3505
ZBAA,1992-09-03 08:00,ZBAA 030800Z AUTO 28010KT 6SM 32/11 A2950 RMK SLP001 T03200110 IEM_DS3505
ZBAA,1992-09-03 09:00,ZBAA 030900Z AUTO 22008KT 6SM 32/16 A2950 RMK SLP008 T03150156 57006 IEM_DS3505
ZBAA,1992-09-03 10:00,ZBAA 031000Z AUTO 20006KT 7SM 28/17 A2950 RMK SLP002 T02800170 IEM_DS3505
ZBAA,1992-09-03 11:00,ZBAA 031100Z AUTO 20008KT 7SM 27/18 A2950 RMK SLP002 T02700180 IEM_DS3505
ZBAA,1992-09-03 12:00,ZBAA 031200Z AUTO 20006KT 6SM 27/19 A2953 RMK SLP019 T02740188 52011 IEM_DS3505
ZBAA,1992-09-03 13:00,ZBAA 031300Z AUTO 21008KT 6SM 26/18 A2956 RMK SLP022 T02600180 IEM_DS3505
ZBAA,1992-09-03 14:00,ZBAA 031400Z AUTO 20006KT 6SM 27/19 A2955 RMK SLP019 T02740188 52011 IEM_DS3505
ZBAA,1992-09-03 15:00,ZBAA 031500Z AUTO 20004KT 4SM 25/19 A2956 RMK SLP024 T02500191 52005 IEM_DS3505
ZBAA,1992-09-03 16:00,ZBAA 031600Z AUTO 09002KT 6SM 23/19 A2956 RMK SLP023 T02300190 IEM_DS3505
ZBAA,1992-09-03 17:00,ZBAA 031700Z AUTO 00000KT 6SM 21/19 A2956 RMK SLP024 T02100190 IEM_DS3505
ZBAA,1992-09-03 18:00,ZBAA 031800Z AUTO 07002KT 4SM 22/18 A2959 RMK SLP032 T02170177 40331//// 52008 IEM_DS3505
ZBAA,1992-09-03 19:00,ZBAA 031900Z AUTO 33004KT 6SM 20/17 A2959 RMK SLP034 T02000170 IEM_DS3505
ZBAA,1992-09-03 20:00,ZBAA 032000Z AUTO 35004KT 6SM 19/16 A2959 RMK SLP034 T01900160 IEM_DS3505
ZBAA,1992-09-03 21:00,ZBAA 032100Z AUTO 36002KT 4SM 19/16 A2962 RMK SLP038 T01910158 52005 IEM_DS3505
ZBAA,1992-09-03 22:00,ZBAA 032200Z AUTO 33004KT 6SM 19/16 A2962 RMK SLP045 T01900160 IEM_DS3505
ZBAA,1992-09-03 23:00,ZBAA 032300Z AUTO 31006KT 6SM 20/17 A2965 RMK SLP055 T02000170 IEM_DS3505
ZBAA,1992-09-04 00:00,ZBAA 040000Z AUTO 29002KT 4SM 23/16 A2965 RMK SLP054 T02310155 52016 IEM_DS3505
ZBAA,1992-09-04 01:00,ZBAA 040100Z AUTO 35006KT 6SM 23/18 A2965 RMK SLP054 T02300180 IEM_DS3505
ZBAA,1992-09-04 02:00,ZBAA 040200Z AUTO 36006KT 6SM 25/19 A2965 RMK SLP054 T02500190 IEM_DS3505
ZBAA,1992-09-04 03:00,ZBAA 040300Z AUTO 32004KT 2 1/2SM 28/14 A2965 RMK SLP054 T02780145 54000 IEM_DS3505
ZBAA,1992-09-04 04:00,ZBAA 040400Z AUTO 35004KT 6SM 29/17 A2965 RMK SLP053 T02900170 IEM_DS3505
ZBAA,1992-09-04 05:00,ZBAA 040500Z AUTO 02004KT 6SM 29/17 A2965 RMK SLP053 T02900170 IEM_DS3505
ZBAA,1992-09-04 06:00,ZBAA 040600Z AUTO 07004KT 3SM 31/13 A2965 RMK SLP053 T03060134 4////0180 57001 IEM_DS3505
ZBAA,1992-09-04 07:00,ZBAA 040700Z AUTO 00000KT 6SM 27/20 A2965 RMK SLP053 T02700200 IEM_DS3505
ZBAA,1992-09-04 08:00,ZBAA 040800Z AUTO 00000KT 6SM 28/20 A2965 RMK SLP053 T02800200 IEM_DS3505
ZBAA,1992-09-04 09:00,ZBAA 040900Z AUTO 09002KT 3SM 29/16 A2965 RMK SLP054 T02880156 52001 IEM_DS3505
ZBAA,1992-09-04 10:00,ZBAA 041000Z AUTO 00000KT 6SM 26/20 A2962 RMK SLP044 T02600200 IEM_DS3505
ZBAA,1992-09-04 11:00,ZBAA 041100Z AUTO 00000KT 6SM 25/21 A2965 RMK SLP054 T02500210 IEM_DS3505
ZBAA,1992-09-04 12:00,ZBAA 041200Z AUTO 00000KT 3SM 25/20 A2967 RMK SLP062 T02530196 52008 IEM_DS3505
ZBAA,1992-09-04 13:00,ZBAA 041300Z AUTO 35004KT 6SM 25/20 A2968 RMK SLP064 T02500200 IEM_DS3505
ZBAA,1992-09-04 14:00,ZBAA 041400Z AUTO 01002KT 4SM 24/21 A2968 RMK SLP064 T02400210 IEM_DS3505
ZBAA,1992-09-04 15:00,ZBAA 041500Z AUTO 04006KT 2 1/2SM 24/20 A2968 RMK SLP064 T02380201 52002 IEM_DS3505
ZBAA,1992-09-04 16:00,ZBAA 041600Z AUTO 12002KT 5SM 23/21 A2968 RMK SLP064 T02300210 IEM_DS3505
ZBAA,1992-09-04 18:00,ZBAA 041800Z AUTO 00000KT 6SM 23/21 A2965 RMK 60016 SLP054 T02270212 40310//// 57009 IEM_DS3505
ZBAA,1992-09-04 19:00,ZBAA 041900Z AUTO 33002KT 3SM 22/22 A2965 RMK SLP055 T02200220 IEM_DS3505
ZBAA,1992-09-04 21:00,ZBAA 042100Z AUTO 36006KT 5SM 22/21 A2965 RMK 70016 SLP055 T02240210 54000 IEM_DS3505
ZBAA,1992-09-04 22:00,ZBAA 042200Z AUTO 31004KT 2 1/2SM 22/22 A2968 RMK SLP065 T02200220 IEM_DS3505
ZBAA,1992-09-04 23:00,ZBAA 042300Z AUTO 28008KT 5SM 22/21 A2971 RMK SLP075 T02200210 IEM_DS3505
ZBAA,1992-09-05 00:00,ZBAA 050000Z AUTO 36006KT 3SM 20/19 A2971 RMK 60043 70571 SLP077 T01980189 52022 IEM_DS3505
ZBAA,1992-09-05 01:00,ZBAA 050100Z AUTO 31008KT 3SM 19/19 A2974 RMK SLP085 T01900190 IEM_DS3505
ZBAA,1992-09-05 02:00,ZBAA 050200Z AUTO 32010KT 6SM 21/21 A2977 RMK SLP095 T02100210 IEM_DS3505
ZBAA,1992-09-05 03:00,ZBAA 050300Z AUTO 36006KT 6SM 22/18 A2974 RMK SLP087 T02220176 52010 IEM_DS3505
ZBAA,1992-09-05 04:00,ZBAA 050400Z AUTO 32012KT 6SM 23/20 A2974 RMK SLP084 T02300200 IEM_DS3505
ZBAA,1992-09-05 05:00,ZBAA 050500Z AUTO 32010KT 6SM 25/19 A2974 RMK SLP084 T02500190 IEM_DS3505
ZBAA,1992-09-05 06:00,ZBAA 050600Z AUTO 36006KT 9SM 25/18 A2974 RMK 60004 SLP090 T02480179 4////0195 52003 IEM_DS3505
ZBAA,1992-09-05 07:00,ZBAA 050700Z AUTO 29010KT 6SM 24/17 A2974 RMK SLP084 T02400170 IEM_DS3505
ZBAA,1992-09-05 08:00,ZBAA 050800Z AUTO 29010KT 6SM 24/16 A2977 RMK SLP094 T02400160 IEM_DS3505
ZBAA,1992-09-05 09:00,ZBAA 050900Z AUTO 32004KT 9SM 23/14 A2978 RMK SLP098 T02340143 52007 IEM_DS3505
ZBAA,1992-09-05 10:00,ZBAA 051000Z AUTO 33006KT 6SM 23/16 A2977 RMK SLP095 T02300160 IEM_DS3505
ZBAA,1992-09-05 11:00,ZBAA 051100Z AUTO 35006KT 6SM 22/17 A2980 RMK SLP105 T02200170 IEM_DS3505
ZBAA,1992-09-05 12:00,ZBAA 051200Z AUTO 36004KT 7SM 21/ A2983 RMK SLP112 52014 IEM_DS3505
ZBAA,1992-09-05 13:00,ZBAA 051300Z AUTO 33004KT 6SM 22/18 A2983 RMK SLP115 T02200180 IEM_DS3505
ZBAA,1992-09-05 14:00,ZBAA 051400Z AUTO 32006KT 6SM 21/14 A2985 RMK SLP122 T02100140 IEM_DS3505
ZBAA,1992-09-05 15:00,ZBAA 051500Z AUTO 36006KT 7SM 21/13 A2985 RMK SLP124 T02090131 52012 IEM_DS3505
ZBAA,1992-09-05 16:00,ZBAA 051600Z AUTO 33006KT 6SM 21/10 A2985 RMK SLP122 T02100100 IEM_DS3505
ZBAA,1992-09-05 17:00,ZBAA 051700Z AUTO 31008KT 6SM 20/07 A2985 RMK SLP122 T02000070 IEM_DS3505
ZBAA,1992-09-05 18:00,ZBAA 051800Z AUTO 36006KT 9SM 19/10 A2988 RMK SLP132 T01940101 40250//// 52008 IEM_DS3505
ZBAA,1992-09-05 19:00,ZBAA 051900Z AUTO 34004KT 6SM 19/07 A2988 RMK SLP133 T01900070 IEM_DS3505
ZBAA,1992-09-05 20:00,ZBAA 052000Z AUTO 35004KT 6SM 19/04 A2991 RMK SLP143 T01900040 IEM_DS3505
ZBAA,1992-09-05 21:00,ZBAA 052100Z AUTO 36008KT 11SM 19/04 A2991 RMK 70047 SLP146 T01920036 52014 IEM_DS3505
ZBAA,1992-09-05 22:00,ZBAA 052200Z AUTO 30004KT 6SM 15/08 A2994 RMK SLP154 T01500080 IEM_DS3505
ZBAA,1992-09-05 23:00,ZBAA 052300Z AUTO 35004KT 6SM 17/06 A2997 RMK SLP164 T01700060 IEM_DS3505
ZBAA,1992-09-06 00:00,ZBAA 060000Z AUTO 36008KT 19SM 19/03 A2997 RMK 70055 SLP162 T01940033 52015 IEM_DS3505
ZBAA,1992-09-06 02:00,ZBAA 060200Z AUTO 35006KT 6SM 23/10 A2997 RMK SLP163 T02300100 IEM_DS3505
ZBAA,1992-09-06 03:00,ZBAA 060300Z AUTO 04006KT 19SM 24/04 A2994 RMK SLP157 T02380043 57004 IEM_DS3505
ZBAA,1992-09-06 04:00,ZBAA 060400Z AUTO 07004KT 7SM 25/09 A2991 RMK SLP141 T02500090 IEM_DS3505
ZBAA,1992-09-06 05:00,ZBAA 060500Z AUTO 09004KT 7SM 26/08 A2988 RMK SLP131 T02600080 IEM_DS3505
ZBAA,1992-09-06 06:00,ZBAA 060600Z AUTO 16006KT 19SM 26/06 A2985 RMK SLP128 T02560063 4////0180 57029 IEM_DS3505
ZBAA,1992-09-06 07:00,ZBAA 060700Z AUTO 19008KT 7SM 26/09 A2983 RMK SLP114 T02600090 IEM_DS3505
ZBAA,1992-09-06 08:00,ZBAA 060800Z AUTO 17010KT 7SM 25/11 A2983 RMK SLP114 T02500110 IEM_DS3505
ZBAA,1992-09-06 09:00,ZBAA 060900Z AUTO 16008KT 19SM 25/06 A2983 RMK SLP116 T02510063 57012 IEM_DS3505
ZBAA,1992-09-06 10:00,ZBAA 061000Z AUTO 14002KT 7SM 23/11 A2983 RMK SLP115 T02300110 IEM_DS3505
ZBAA,1992-09-06 11:00,ZBAA 061100Z AUTO 00000KT 7SM 21/12 A2983 RMK SLP115 T02100120 IEM_DS3505
ZBAA,1992-09-06 12:00,ZBAA 061200Z AUTO 18008KT 19SM 23/08 A2983 RMK SLP120 T02270082 52004 IEM_DS3505
ZBAA,1992-09-06 13:00,ZBAA 061300Z AUTO 14004KT 7SM 21/11 A2983 RMK SLP115 T02100110 IEM_DS3505
ZBAA,1992-09-06 14:00,ZBAA 061400Z AUTO 15004KT 7SM 20/11 A2983 RMK SLP115 T02000110 IEM_DS3505
ZBAA,1992-09-06 15:00,ZBAA 061500Z AUTO 20008KT 19SM 20/10 A2983 RMK SLP114 T02000100 57006 IEM_DS3505
ZBAA,1992-09-06 16:00,ZBAA 061600Z AUTO 14002KT 7SM 16/13 A2983 RMK SLP116 T01600130 IEM_DS3505
ZBAA,1992-09-06 17:00,ZBAA 061700Z AUTO 00000KT 7SM 15/13 A2983 RMK SLP116 T01500130 IEM_DS3505
ZBAA,1992-09-06 18:00,ZBAA 061800Z AUTO 00000KT 6SM 16/12 A2980 RMK SLP108 T01630121 40261//// 57006 IEM_DS3505
ZBAA,1992-09-06 19:00,ZBAA 061900Z AUTO 35002KT 7SM 14/14 A2980 RMK SLP107 T01400140 IEM_DS3505
ZBAA,1992-09-06 20:00,ZBAA 062000Z AUTO 35002KT 7SM 14/14 A2980 RMK SLP107 T01400140 IEM_DS3505
ZBAA,1992-09-06 21:00,ZBAA 062100Z AUTO 00000KT 6SM 15/11 A2980 RMK SLP108 T01470114 54000 IEM_DS3505
ZBAA,1992-09-06 22:00,ZBAA 062200Z AUTO 00000KT 2 1/2SM 13/13 A2980 RMK SLP107 T01300130 IEM_DS3505
ZBAA,1992-09-07 00:00,ZBAA 070000Z AUTO 00000KT 4SM 17/13 A2980 RMK SLP107 T01710128 57001 IEM_DS3505
ZBAA,1992-09-07 01:00,ZBAA 070100Z AUTO 11002KT 4SM 20/17 A2980 RMK SLP105 T02000170 IEM_DS3505
ZBAA,1992-09-07 02:00,ZBAA 070200Z AUTO 01002KT 7SM 23/16 A2977 RMK SLP095 T02300160 IEM_DS3505
ZBAA,1992-09-07 03:00,ZBAA 070300Z AUTO 32002KT 5SM 25/10 A2977 RMK SLP094 T02460096 57013 IEM_DS3505
ZBAA,1992-09-07 04:00,ZBAA 070400Z AUTO 20004KT 7SM 27/14 A2974 RMK SLP084 T02700140 IEM_DS3505
ZBAA,1992-09-07 05:00,ZBAA 070500Z AUTO 26010KT 7SM 28/07 A2971 RMK SLP073 T02800070 IEM_DS3505
ZBAA,1992-09-07 06:00,ZBAA 070600Z AUTO 27010KT 11SM 30/04 A2971 RMK SLP080 T02980044 4////0137 57013 IEM_DS3505
ZBAA,1992-09-07 07:00,ZBAA 070700Z AUTO 28014KT 7SM 29/07 A2971 RMK SLP073 T02900070 IEM_DS3505
ZBAA,1992-09-07 08:00,ZBAA 070800Z AUTO 27014KT 7SM 29/06 A2968 RMK SLP063 T02900060 IEM_DS3505
ZBAA,1992-09-07 09:00,ZBAA 070900Z AUTO 20006KT 16SM 29/08 A2971 RMK SLP075 T02920079 57006 IEM_DS3505
ZBAA,1992-09-07 10:00,ZBAA 071000Z AUTO 26006KT 6SM 26/10 A2971 RMK SLP074 T02600100 IEM_DS3505
ZBAA,1992-09-07 11:00,ZBAA 071100Z AUTO 25006KT 6SM 24/10 A2974 RMK SLP084 T02400100 IEM_DS3505
ZBAA,1992-09-07 12:00,ZBAA 071200Z AUTO 20002KT 9SM 23/11 A2977 RMK SLP091 T02310114 52016 IEM_DS3505
ZBAA,1992-09-07 13:00,ZBAA 071300Z AUTO 28002KT 6SM 21/11 A2980 RMK SLP105 T02100110 IEM_DS3505
ZBAA,1992-09-07 14:00,ZBAA 071400Z AUTO 36002KT 6SM 20/11 A2980 RMK SLP105 T02000110 IEM_DS3505
ZBAA,1992-09-07 15:00,ZBAA 071500Z AUTO 36006KT 9SM 22/08 A2983 RMK SLP117 T02240078 52026 IEM_DS3505
ZBAA,1992-09-07 16:00,ZBAA 071600Z AUTO 32006KT 6SM 19/11 A2985 RMK SLP123 T01900110 IEM_DS3505
ZBAA,1992-09-07 17:00,ZBAA 071700Z AUTO 30002KT 6SM 19/11 A2985 RMK SLP123 T01900110 IEM_DS3505
ZBAA,1992-09-07 18:00,ZBAA 071800Z AUTO 36006KT 12SM 21/06 A2988 RMK SLP130 T02100062 40308//// 52014 IEM_DS3505
ZBAA,1992-09-07 19:00,ZBAA 071900Z AUTO 34006KT 6SM 18/10 A2988 RMK SLP133 T01800100 IEM_DS3505
ZBAA,1992-09-07 20:00,ZBAA 072000Z AUTO 35010KT 6SM 16/10 A2988 RMK SLP133 T01600100 IEM_DS3505
ZBAA,1992-09-07 21:00,ZBAA 072100Z AUTO 36006KT 12SM 18/08 A2991 RMK SLP140 T01780076 52009 IEM_DS3505
ZBAA,1992-09-07 22:00,ZBAA 072200Z AUTO 31004KT 7SM 15/09 A2994 RMK SLP154 T01500090 IEM_DS3505
ZBAA,1992-09-07 23:00,ZBAA 072300Z AUTO 33004KT 7SM 17/11 A2994 RMK SLP153 T01700110 IEM_DS3505
ZBAA,1992-09-08 00:00,ZBAA 080000Z AUTO 04004KT 16SM 20/07 A2997 RMK SLP163 T02030073 52023 IEM_DS3505
ZBAA,1992-09-08 01:00,ZBAA 080100Z AUTO 01006KT 7SM 21/11 A2997 RMK SLP163 T02100110 IEM_DS3505
ZBAA,1992-09-08 02:00,ZBAA 080200Z AUTO 04006KT 7SM 23/09 A2997 RMK SLP163 T02300090 IEM_DS3505
ZBAA,1992-09-08 03:00,ZBAA 080300Z AUTO 09004KT 19SM 24/05 A2997 RMK SLP164 T02380046 52001 IEM_DS3505
ZBAA,1992-09-08 04:00,ZBAA 080400Z AUTO 10004KT 7SM 24/09 A2994 RMK SLP152 T02400090 IEM_DS3505
ZBAA,1992-09-08 05:00,ZBAA 080500Z AUTO 11004KT 7SM 25/09 A2991 RMK SLP141 T02500090 IEM_DS3505
ZBAA,1992-09-08 06:00,ZBAA 080600Z AUTO 18004KT 16SM 26/08 A2991 RMK SLP143 T02570076 4////0161 57021 IEM_DS3505
ZBAA,1992-09-08 07:00,ZBAA 080700Z AUTO 14006KT 7SM 26/11 A2988 RMK SLP131 T02600110 IEM_DS3505
ZBAA,1992-09-08 08:00,ZBAA 080800Z AUTO 12004KT 7SM 25/10 A2988 RMK SLP131 T02500100 IEM_DS3505
ZBAA,1992-09-08 09:00,ZBAA 080900Z AUTO 20006KT 12SM 25/09 A2988 RMK SLP133 T02530093 57010 IEM_DS3505
ZBAA,1992-09-08 10:00,ZBAA 081000Z AUTO 10002KT 7SM 24/12 A2988 RMK SLP132 T02400120 IEM_DS3505
ZBAA,1992-09-08 11:00,ZBAA 081100Z AUTO 12002KT 7SM 22/12 A2988 RMK SLP132 T02200120 IEM_DS3505
ZBAA,1992-09-08 12:00,ZBAA 081200Z AUTO 18006KT 12SM 23/09 A2991 RMK SLP139 T02290093 52006 IEM_DS3505
ZBAA,1992-09-08 13:00,ZBAA 081300Z AUTO 11002KT 7SM 21/11 A2991 RMK SLP142 T02100110 IEM_DS3505
ZBAA,1992-09-08 14:00,ZBAA 081400Z AUTO 00000KT 7SM 21/12 A2991 RMK SLP142 T02100120 IEM_DS3505
ZBAA,1992-09-08 15:00,ZBAA 081500Z AUTO 18008KT 9SM 21/11 A2994 RMK SLP145 T02060114 52006 IEM_DS3505
ZBAA,1992-09-08 17:00,ZBAA 081700Z AUTO 08004KT 7SM 16/14 A2991 RMK SLP143 T01600140 IEM_DS3505
ZBAA,1992-09-08 18:00,ZBAA 081800Z AUTO 27002KT 7SM 19/13 A2991 RMK SLP145 T01860130 40262//// 54000 IEM_DS3505
ZBAA,1992-09-08 19:00,ZBAA 081900Z AUTO 09002KT 6SM 16/14 A2991 RMK SLP143 T01600140 IEM_DS3505
ZBAA,1992-09-08 20:00,ZBAA 082000Z AUTO 12002KT 6SM 16/15 A2991 RMK SLP143 T01600150 IEM_DS3505
ZBAA,1992-09-08 21:00,ZBAA 082100Z AUTO 00000KT 5SM 16/13 A2991 RMK SLP145 T01640128 54000 IEM_DS3505
ZBAA,1992-09-08 22:00,ZBAA 082200Z AUTO 00000KT 6SM 15/15 A2994 RMK SLP154 T01500150 IEM_DS3505
ZBAA,1992-09-08 23:00,ZBAA 082300Z AUTO 05002KT 6SM 15/15 A2994 RMK SLP154 T01500150 IEM_DS3505
ZBAA,1992-09-09 00:00,ZBAA 090000Z AUTO 36004KT 5SM 18/13 A2994 RMK SLP149 T01760126 52004 IEM_DS3505
ZBAA,1992-09-09 01:00,ZBAA 090100Z AUTO 06002KT 4SM 19/17 A2994 RMK SLP153 T01900170 IEM_DS3505
ZBAA,1992-09-09 02:00,ZBAA 090200Z AUTO 07002KT 4SM 21/17 A2994 RMK SLP152 T02100170 IEM_DS3505
ZBAA,1992-09-09 03:00,ZBAA 090300Z AUTO 14002KT 4SM 22/14 A2991 RMK SLP148 T02240139 57001 IEM_DS3505
ZBAA,1992-09-09 04:00,ZBAA 090400Z AUTO 17004KT 7SM 24/18 A2991 RMK SLP142 T02400180 IEM_DS3505
ZBAA,1992-09-09 05:00,ZBAA 090500Z AUTO 19002KT 4SM 25/19 A2988 RMK SLP131 T02500190 IEM_DS3505
ZBAA,1992-09-09 06:00,ZBAA 090600Z AUTO 18010KT 6SM 26/16 A2985 RMK SLP125 T02620164 4////0159 57023 IEM_DS3505
ZBAA,1992-09-09 07:00,ZBAA 090700Z AUTO 16006KT 6SM 26/19 A2983 RMK SLP114 T02600190 IEM_DS3505
ZBAA,1992-09-09 08:00,ZBAA 090800Z AUTO 16008KT 6SM 27/19 A2980 RMK SLP104 T02700190 IEM_DS3505
ZBAA,1992-09-09 09:00,ZBAA 090900Z AUTO 20008KT 12SM 27/16 A2980 RMK SLP111 T02670161 57014 IEM_DS3505
ZBAA,1992-09-09 10:00,ZBAA 091000Z AUTO 00000KT 6SM 25/18 A2983 RMK SLP114 T02500180 IEM_DS3505
ZBAA,1992-09-09 11:00,ZBAA 091100Z AUTO 25006KT 7SM 23/18 A2983 RMK SLP115 T02300180 IEM_DS3505
ZBAA,1992-09-09 12:00,ZBAA 091200Z AUTO 27008KT 7SM 21/15 A2988 RMK 60002 SLP131 T02100151 52019 IEM_DS3505
ZBAA,1992-09-09 13:00,ZBAA 091300Z AUTO 11002KT 6SM 21/15 A2988 RMK SLP132 T02100150 IEM_DS3505
ZBAA,1992-09-09 14:00,ZBAA 091400Z AUTO 34002KT 6SM 20/16 A2988 RMK SLP132 T02000160 IEM_DS3505
ZBAA,1992-09-09 15:00,ZBAA 091500Z AUTO 02006KT 7SM 19/15 A2985 RMK SLP130 T01930151 54000 IEM_DS3505
ZBAA,1992-09-09 16:00,ZBAA 091600Z AUTO 00000KT 6SM 18/17 A2985 RMK SLP123 T01800170 IEM_DS3505
ZBAA,1992-09-09 17:00,ZBAA 091700Z AUTO 00000KT 6SM 17/16 A2985 RMK SLP123 T01700160 IEM_DS3505
ZBAA,1992-09-09 18:00,ZBAA 091800Z AUTO 02002KT 9SM 17/15 A2985 RMK SLP124 T01740152 40272//// 57006 IEM_DS3505
ZBAA,1992-09-09 19:00,ZBAA 091900Z AUTO 00000KT 6SM 16/15 A2985 RMK SLP123 T01600150 IEM_DS3505
ZBAA,1992-09-09 20:00,ZBAA 092000Z AUTO 33004KT 6SM 16/16 A2985 RMK SLP123 T01600160 IEM_DS3505
ZBAA,1992-09-09 21:00,ZBAA 092100Z AUTO 02004KT 9SM 18/14 A2985 RMK 70002 SLP126 T01760141 52002 IEM_DS3505
ZBAA,1992-09-09 22:00,ZBAA 092200Z AUTO 34006KT 4SM 16/16 A2988 RMK SLP133 T01600160 IEM_DS3505
ZBAA,1992-09-09 23:00,ZBAA 092300Z AUTO 34004KT 5SM 17/17 A2988 RMK SLP133 T01700170 IEM_DS3505
ZBAA,1992-09-10 00:00,ZBAA 100000Z AUTO 04004KT 6SM 19/14 A2989 RMK 70024 SLP135 T01920144 52009 IEM_DS3505
ZBAA,1992-09-10 01:00,ZBAA 100100Z AUTO 02004KT 7SM 22/19 A2988 RMK SLP132 T02200190 IEM_DS3505
ZBAA,1992-09-10 02:00,ZBAA 100200Z AUTO 33002KT 7SM 23/18 A2988 RMK SLP132 T02300180 IEM_DS3505
ZBAA,1992-09-10 03:00,ZBAA 100300Z AUTO 09004KT 5SM 24/15 A2985 RMK SLP130 T02380152 57005 IEM_DS3505
ZBAA,1992-09-10 04:00,ZBAA 100400Z AUTO 09002KT 7SM 26/19 A2985 RMK SLP121 T02600190 IEM_DS3505
ZBAA,1992-09-10 05:00,ZBAA 100500Z AUTO 15004KT 7SM 27/18 A2980 RMK SLP104 T02700180 IEM_DS3505
ZBAA,1992-09-10 06:00,ZBAA 100600Z AUTO 00000KT 5SM 27/16 A2980 RMK SLP105 T02670157 4////0165 57025 IEM_DS3505
ZBAA,1992-09-10 07:00,ZBAA 100700Z AUTO 23002KT 7SM 27/19 A2977 RMK SLP094 T02700190 IEM_DS3505
ZBAA,1992-09-10 08:00,ZBAA 100800Z AUTO 00000KT 6SM 26/19 A2977 RMK SLP094 T02600190 IEM_DS3505
ZBAA,1992-09-10 09:00,ZBAA 100900Z AUTO 18006KT 6SM 26/16 A2974 RMK SLP095 T02650160 57010 IEM_DS3505
ZBAA,1992-09-10 10:00,ZBAA 101000Z AUTO 00000KT 6SM 24/19 A2974 RMK SLP084 T02400190 IEM_DS3505
ZBAA,1992-09-10 11:00,ZBAA 101100Z AUTO 12002KT 6SM 23/19 A2974 RMK SLP084 T02300190 IEM_DS3505
ZBAA,1992-09-10 12:00,ZBAA 101200Z AUTO 18004KT 6SM 24/18 A2977 RMK SLP099 T02370180 52004 IEM_DS3505
ZBAA,1992-09-10 13:00,ZBAA 101300Z AUTO 21006KT 5SM 22/20 A2980 RMK SLP105 T02200200 IEM_DS3505
ZBAA,1992-09-10 14:00,ZBAA 101400Z AUTO 18004KT 4SM 21/20 A2980 RMK SLP105 T02100200 IEM_DS3505
ZBAA,1992-09-10 15:00,ZBAA 101500Z AUTO 18006KT 6SM 21/18 A2980 RMK SLP102 T02110176 52003 IEM_DS3505
ZBAA,1992-09-10 16:00,ZBAA 101600Z AUTO 15002KT 4SM 20/19 A2980 RMK SLP105 T02000190 IEM_DS3505
ZBAA,1992-09-10 18:00,ZBAA 101800Z AUTO 00000KT 2 1/2SM 20/17 A2977 RMK SLP099 T01980174 40272//// 57002 IEM_DS3505
ZBAA,1992-09-10 19:00,ZBAA 101900Z AUTO 10004KT 1 1/4SM 18/18 A2977 RMK SLP096 T01800180 IEM_DS3505
ZBAA,1992-09-10 20:00,ZBAA 102000Z AUTO 12002KT 1 1/4SM 18/18 A2977 RMK SLP096 T01800180 IEM_DS3505
ZBAA,1992-09-10 21:00,ZBAA 102100Z AUTO 00000KT 1 1/4SM 19/17 A2977 RMK SLP098 T01860173 57002 IEM_DS3505
ZBAA,1992-09-10 22:00,ZBAA 102200Z AUTO 13002KT 1SM 17/17 A2977 RMK SLP096 T01700170 IEM_DS3505
ZBAA,1992-09-10 23:00,ZBAA 102300Z AUTO 00000KT 1 1/4SM 17/17 A2980 RMK SLP106 T01700170 IEM_DS3505
ZBAA,1992-09-11 00:00,ZBAA 110000Z AUTO 36004KT 1SM 19/18 A2980 RMK SLP103 T01920176 52005 IEM_DS3505
ZBAA,1992-09-11 01:00,ZBAA 110100Z AUTO 13004KT 1 1/4SM 19/19 A2980 RMK SLP105 T01900190 IEM_DS3505
ZBAA,1992-09-11 02:00,ZBAA 110200Z AUTO 13004KT 1 1/4SM 20/19 A2980 RMK SLP105 T02000190 IEM_DS3505
ZBAA,1992-09-11 03:00,ZBAA 110300Z AUTO 18006KT 2SM 22/16 A2980 RMK SLP103 T02150161 54000 IEM_DS3505
ZBAA,1992-09-11 04:00,ZBAA 110400Z AUTO 18008KT 2SM 21/18 A2977 RMK SLP095 T02100180 IEM_DS3505
ZBAA,1992-09-11 06:00,ZBAA 110600Z AUTO 20010KT 6SM 21/14 A2977 RMK SLP097 T02120144 4////0183 57006 IEM_DS3505
ZBAA,1992-09-11 07:00,ZBAA 110700Z AUTO 23002KT 7SM 20/20 A2977 RMK SLP095 T02000200 IEM_DS3505
ZBAA,1992-09-11 08:00,ZBAA 110800Z AUTO 17004KT 7SM 20/20 A2977 RMK SLP095 T02000200 IEM_DS3505
ZBAA,1992-09-11 09:00,ZBAA 110900Z AUTO 20006KT 3SM 19/15 A2977 RMK SLP094 T01930151 57003 IEM_DS3505
ZBAA,1992-09-11 10:00,ZBAA 111000Z AUTO 15002KT 7SM 19/19 A2977 RMK SLP095 T01900190 IEM_DS3505
ZBAA,1992-09-11 11:00,ZBAA 111100Z AUTO 11002KT 7SM 19/19 A2977 RMK SLP095 T01900190 IEM_DS3505
ZBAA,1992-09-11 12:00,ZBAA 111200Z AUTO 20008KT 5SM 19/15 A2977 RMK 60002 SLP094 T01880153 54000 IEM_DS3505
ZBAA,1992-09-11 13:00,ZBAA 111300Z AUTO 18004KT 4SM 18/18 A2980 RMK SLP106 T01800180 IEM_DS3505
ZBAA,1992-09-11 14:00,ZBAA 111400Z AUTO 19004KT 4SM 17/17 A2980 RMK SLP106 T01700170 IEM_DS3505
ZBAA,1992-09-11 15:00,ZBAA 111500Z AUTO 20008KT 3SM 16/14 A2980 RMK SLP097 T01580144 52003 IEM_DS3505
ZBAA,1992-09-11 16:00,ZBAA 111600Z AUTO 19006KT 7SM 16/16 A2977 RMK SLP096 T01600160 IEM_DS3505
ZBAA,1992-09-11 17:00,ZBAA 111700Z AUTO 12004KT 7SM 16/16 A2977 RMK SLP096 T01600160 IEM_DS3505
ZBAA,1992-09-11 18:00,ZBAA 111800Z AUTO 16006KT 3SM 16/14 A2974 RMK 60024 SLP082 T01570145 40217//// 57015 IEM_DS3505
ZBAA,1992-09-11 19:00,ZBAA 111900Z AUTO 16006KT 3SM 16/14 A2971 RMK 60024 SLP082 T01570145 57015 IEM_DS3505
ZBAA,1992-09-11 20:00,ZBAA 112000Z AUTO 14006KT 7SM 16/16 A2971 RMK SLP076 T01600160 IEM_DS3505
ZBAA,1992-09-11 21:00,ZBAA 112100Z AUTO 18006KT 4SM 15/14 A2971 RMK 70031 SLP076 T01540145 57007 IEM_DS3505
ZBAA,1992-09-11 22:00,ZBAA 112200Z AUTO 14004KT 5SM 15/15 A2971 RMK SLP076 T01500150 IEM_DS3505
ZBAA,1992-09-11 23:00,ZBAA 112300Z AUTO 15004KT 4SM 16/16 A2971 RMK SLP076 T01600160 IEM_DS3505
ZBAA,1992-09-12 00:00,ZBAA 120000Z AUTO 18006KT 4SM 16/15 A2968 RMK 60008 70311 SLP069 T01580146 57007 IEM_DS3505
ZBAA,1992-09-12 01:00,ZBAA 120100Z AUTO 14006KT 3SM 16/16 A2968 RMK SLP066 T01600160 IEM_DS3505
ZBAA,1992-09-12 02:00,ZBAA 120200Z AUTO 14006KT 7SM 17/17 A2968 RMK SLP066 T01700170 IEM_DS3505
ZBAA,1992-09-12 03:00,ZBAA 120300Z AUTO 20008KT 6SM 20/16 A2968 RMK SLP064 T01990156 57004 IEM_DS3505
ZBAA,1992-09-12 04:00,ZBAA 120400Z AUTO 12006KT 7SM 18/18 A2965 RMK SLP055 T01800180 IEM_DS3505
ZBAA,1992-09-12 05:00,ZBAA 120500Z AUTO 12004KT 7SM 19/18 A2965 RMK SLP055 T01900180 IEM_DS3505
ZBAA,1992-09-12 06:00,ZBAA 120600Z AUTO 22004KT 7SM 22/15 A2962 RMK SLP044 T02200150 4////0152 57020 IEM_DS3505
ZBAA,1992-09-12 07:00,ZBAA 120700Z AUTO 12004KT 7SM 21/19 A2959 RMK SLP034 T02100190 IEM_DS3505
ZBAA,1992-09-12 08:00,ZBAA 120800Z AUTO 16008KT 7SM 21/18 A2959 RMK SLP034 T02100180 IEM_DS3505
ZBAA,1992-09-12 09:00,ZBAA 120900Z AUTO 22008KT 9SM 22/16 A2959 RMK SLP040 T02240157 57004 IEM_DS3505
ZBAA,1992-09-12 10:00,ZBAA 121000Z AUTO 12004KT 7SM 20/18 A2962 RMK SLP045 T02000180 IEM_DS3505
ZBAA,1992-09-12 11:00,ZBAA 121100Z AUTO 08002KT 7SM 19/19 A2962 RMK SLP045 T01900190 IEM_DS3505
ZBAA,1992-09-12 12:00,ZBAA 121200Z AUTO 20002KT 4SM 20/16 A2965 RMK SLP053 T02040165 52013 IEM_DS3505
ZBAA,1992-09-12 13:00,ZBAA 121300Z AUTO 00000KT 3SM 18/18 A2965 RMK SLP055 T01800180 IEM_DS3505
ZBAA,1992-09-12 14:00,ZBAA 121400Z AUTO 00000KT 3SM 18/18 A2968 RMK SLP065 T01800180 IEM_DS3505
ZBAA,1992-09-12 15:00,ZBAA 121500Z AUTO 00000KT 3SM 18/17 A2968 RMK SLP062 T01800170 52009 IEM_DS3505
ZBAA,1992-09-12 17:00,ZBAA 121700Z AUTO 00000KT 2 1/2SM 17/17 A2968 RMK SLP066 T01700170 IEM_DS3505
ZBAA,1992-09-12 18:00,ZBAA 121800Z AUTO 00000KT 3SM 17/16 A2968 RMK SLP066 T01660159 40230//// 52004 IEM_DS3505
ZBAA,1992-09-12 19:00,ZBAA 121900Z AUTO 34002KT 1 1/2SM 16/16 A2968 RMK SLP066 T01600160 IEM_DS3505
ZBAA,1992-09-12 20:00,ZBAA 122000Z AUTO 34002KT 1SM RMK IEM_DS3505
ZBAA,1992-09-12 21:00,ZBAA 122100Z AUTO 00000KT 1 1/4SM 16/16 A2968 RMK 70000 SLP065 T01580155 57001 IEM_DS3505
ZBAA,1992-09-12 22:00,ZBAA 122200Z AUTO 00000KT 1/8SM 14/14 A2968 RMK SLP066 T01400140 IEM_DS3505
ZBAA,1992-09-12 23:00,ZBAA 122300Z AUTO 32002KT 1/8SM 14/14 A2971 RMK SLP076 T01400140 IEM_DS3505
ZBAA,1992-09-13 00:00,ZBAA 130000Z AUTO 00000KT 1 1/2SM 18/16 A2970 RMK SLP072 T01810163 52007 IEM_DS3505
ZBAA,1992-09-13 01:00,ZBAA 130100Z AUTO 14002KT 2SM 18/18 A2971 RMK SLP076 T01800180 IEM_DS3505
ZBAA,1992-09-13 02:00,ZBAA 130200Z AUTO 30004KT 3SM 23/20 A2971 RMK SLP074 T02300200 IEM_DS3505
ZBAA,1992-09-13 03:00,ZBAA 130300Z AUTO 09002KT 2 1/2SM 25/16 A2971 RMK SLP076 T02530155 52004 IEM_DS3505
ZBAA,1992-09-13 04:00,ZBAA 130400Z AUTO 29008KT 7SM 25/13 A2968 RMK SLP064 T02500130 IEM_DS3505
ZBAA,1992-09-13 06:00,ZBAA 130600Z AUTO 20004KT 5SM 28/12 A2965 RMK SLP060 T02810118 4////0142 57015 IEM_DS3505
ZBAA,1992-09-13 07:00,ZBAA 130700Z AUTO 27008KT 6SM 28/11 A2965 RMK SLP053 T02800110 IEM_DS3505
ZBAA,1992-09-13 08:00,ZBAA 130800Z AUTO 22006KT 6SM 27/13 A2965 RMK SLP053 T02700130 IEM_DS3505
ZBAA,1992-09-13 09:00,ZBAA 130900Z AUTO 20006KT 6SM 28/10 A2965 RMK SLP057 T02760104 57004 IEM_DS3505
ZBAA,1992-09-13 10:00,ZBAA 131000Z AUTO 21006KT 6SM 24/15 A2965 RMK SLP054 T02400150 IEM_DS3505
ZBAA,1992-09-13 11:00,ZBAA 131100Z AUTO 21006KT 6SM 22/14 A2965 RMK SLP055 T02200140 IEM_DS3505
ZBAA,1992-09-13 12:00,ZBAA 131200Z AUTO 20006KT 9SM 23/14 A2968 RMK SLP065 T02300143 52008 IEM_DS3505
ZBAA,1992-09-13 13:00,ZBAA 131300Z AUTO 24006KT 6SM 22/15 A2968 RMK SLP065 T02200150 IEM_DS3505
ZBAA,1992-09-13 14:00,ZBAA 131400Z AUTO 36002KT 6SM 20/16 A2968 RMK SLP065 T02000160 IEM_DS3505
ZBAA,1992-09-13 15:00,ZBAA 131500Z AUTO 00000KT 7SM 19/16 A2971 RMK SLP071 T01920159 52006 IEM_DS3505
ZBAA,1992-09-13 16:00,ZBAA 131600Z AUTO 36006KT 6SM 18/17 A2971 RMK SLP076 T01800170 IEM_DS3505
ZBAA,1992-09-13 17:00,ZBAA 131700Z AUTO 01002KT 6SM 17/16 A2971 RMK SLP076 T01700160 IEM_DS3505
ZBAA,1992-09-13 18:00,ZBAA 131800Z AUTO 27002KT 6SM 17/15 A2974 RMK SLP080 T01730153 40284//// 52010 IEM_DS3505
ZBAA,1992-09-13 19:00,ZBAA 131900Z AUTO 35006KT 6SM 17/16 A2974 RMK SLP086 T01700160 IEM_DS3505
ZBAA,1992-09-13 20:00,ZBAA 132000Z AUTO 35006KT 6SM 16/15 A2974 RMK SLP086 T01600150 IEM_DS3505
ZBAA,1992-09-13 21:00,ZBAA 132100Z AUTO 36004KT 12SM 16/13 A2977 RMK SLP091 T01620126 52010 IEM_DS3505
ZBAA,1992-09-13 22:00,ZBAA 132200Z AUTO 35006KT 6SM 15/15 A2977 RMK SLP096 T01500150 IEM_DS3505
ZBAA,1992-09-13 23:00,ZBAA 132300Z AUTO 34006KT 6SM 17/15 A2980 RMK SLP106 T01700150 IEM_DS3505
ZBAA,1992-09-14 00:00,ZBAA 140000Z AUTO 36008KT 9SM 21/10 A2980 RMK SLP107 T02100095 52016 IEM_DS3505
ZBAA,1992-09-14 01:00,ZBAA 140100Z AUTO 02006KT 7SM 22/16 A2983 RMK SLP115 T02200160 IEM_DS3505
ZBAA,1992-09-14 02:00,ZBAA 140200Z AUTO 36006KT 7SM 25/15 A2983 RMK SLP114 T02500150 IEM_DS3505
ZBAA,1992-09-14 03:00,ZBAA 140300Z AUTO 04004KT 9SM 27/10 A2980 RMK SLP109 T02660105 52002 IEM_DS3505
ZBAA,1992-09-14 04:00,ZBAA 140400Z AUTO 34004KT 6SM 28/15 A2980 RMK SLP104 T02800150 IEM_DS3505
ZBAA,1992-09-14 05:00,ZBAA 140500Z AUTO 10004KT 6SM 29/14 A2977 RMK SLP093 T02900140 IEM_DS3505
ZBAA,1992-09-14 06:00,ZBAA 140600Z AUTO 18008KT 16SM 30/06 A2977 RMK SLP095 T03040062 4////0158 57013 IEM_DS3505
ZBAA,1992-09-14 07:00,ZBAA 140700Z AUTO 17004KT 7SM 30/13 RMK T03000130 IEM_DS3505
ZBAA,1992-09-14 08:00,ZBAA 140800Z AUTO 19008KT 7SM 28/11 A2974 RMK SLP083 T02800110 IEM_DS3505
ZBAA,1992-09-14 09:00,ZBAA 140900Z AUTO 20008KT 17SM 29/10 A2974 RMK SLP089 T02920101 57007 IEM_DS3505
ZBAA,1992-09-14 10:00,ZBAA 141000Z AUTO 36006KT 6SM 26/13 A2974 RMK SLP092 T02600130 40306//// 52004 IEM_DS3505
ZBAA,1992-09-14 11:00,ZBAA 141100Z AUTO 17004KT 6SM 25/14 A2974 RMK SLP084 T02500140 IEM_DS3505
ZBAA,1992-09-14 12:00,ZBAA 141200Z AUTO 20006KT 9SM 25/12 A2974 RMK SLP091 T02470123 52002 IEM_DS3505
ZBAA,1992-09-14 14:00,ZBAA 141400Z AUTO 16002KT 6SM 23/14 A2974 RMK SLP084 T02300140 IEM_DS3505
ZBAA,1992-09-14 15:00,ZBAA 141500Z AUTO 18006KT 7SM 23/12 A2974 RMK SLP088 T02280121 57002 IEM_DS3505
ZBAA,1992-09-14 16:00,ZBAA 141600Z AUTO 00000KT 6SM 20/16 A2974 RMK SLP085 T02000160 IEM_DS3505
ZBAA,1992-09-14 17:00,ZBAA 141700Z AUTO 16004KT 6SM 19/16 A2974 RMK SLP085 T01900160 IEM_DS3505
ZBAA,1992-09-14 18:00,ZBAA 141800Z AUTO 36006KT 6SM 21/13 A2977 RMK SLP092 T02070130 40306//// 52004 IEM_DS3505
ZBAA,1992-09-14 19:00,ZBAA 141900Z AUTO 34004KT 6SM 18/16 A2977 RMK SLP096 T01800160 IEM_DS3505
ZBAA,1992-09-14 20:00,ZBAA 142000Z AUTO 31006KT 6SM 21/09 A2980 RMK SLP105 T02100090 IEM_DS3505
ZBAA,1992-09-14 21:00,ZBAA 142100Z AUTO 32006KT 16SM 22/M00 A2983 RMK SLP110 T02221001 52018 IEM_DS3505
ZBAA,1992-09-14 22:00,ZBAA 142200Z AUTO 36004KT 6SM 21/03 A2983 RMK SLP115 T02100030 IEM_DS3505
ZBAA,1992-09-14 23:00,ZBAA 142300Z AUTO 30010KT 6SM 21/05 A2985 RMK SLP122 T02100050 IEM_DS3505
ZBAA,1992-09-15 00:00,ZBAA 150000Z AUTO 29012KT 17SM 22/03 A2988 RMK SLP134 T02230032 52023 IEM_DS3505
ZBAA,1992-09-15 01:00,ZBAA 150100Z AUTO 33017KT 6SM 23/07 A2991 RMK SLP142 T02300070 IEM_DS3505
ZBAA,1992-09-15 02:00,ZBAA 150200Z AUTO 33016KT 6SM 24/08 RMK T02400080 IEM_DS3505
ZBAA,1992-09-15 03:00,ZBAA 150300Z AUTO 34010KT 19SM 22/05 A2991 RMK SLP149 T02240047 52015 IEM_DS3505
ZBAA,1992-09-15 05:00,ZBAA 150500Z AUTO 34014KT 6SM 24/08 A2988 RMK SLP132 T02400080 IEM_DS3505
ZBAA,1992-09-15 06:00,ZBAA 150600Z AUTO 34012KT 19SM 24/03 A2991 RMK SLP143 T02400034 4////0203 57006 IEM_DS3505
ZBAA,1992-09-15 07:00,ZBAA 150700Z AUTO 35016KT 6SM 24/07 A2988 RMK SLP132 T02400070 IEM_DS3505
ZBAA,1992-09-15 08:00,ZBAA 150800Z AUTO 33014KT 6SM 24/07 A2991 RMK SLP142 T02400070 IEM_DS3505
ZBAA,1992-09-15 09:00,ZBAA 150900Z AUTO 32008KT 19SM 24/04 A2991 RMK SLP148 T02380037 52005 IEM_DS3505
ZBAA,1992-09-15 10:00,ZBAA 151000Z AUTO 33014KT 6SM 22/06 A2994 RMK SLP152 T02200060 IEM_DS3505
ZBAA,1992-09-15 11:00,ZBAA 151100Z AUTO 32014KT 6SM 21/05 A2997 RMK SLP163 T02100050 IEM_DS3505
ZBAA,1992-09-15 12:00,ZBAA 151200Z AUTO 36008KT 19SM 20/05 A2997 RMK SLP170 T02010047 52022 IEM_DS3505
ZBAA,1992-09-15 13:00,ZBAA 151300Z AUTO 01006KT 6SM 19/06 A3000 RMK SLP174 T01900060 IEM_DS3505
ZBAA,1992-09-15 14:00,ZBAA 151400Z AUTO 33008KT 6SM 18/07 A3000 RMK SLP174 T01800070 IEM_DS3505
ZBAA,1992-09-15 15:00,ZBAA 151500Z AUTO 36004KT 19SM 18/05 A3003 RMK SLP184 T01850051 52013 IEM_DS3505
ZBAA,1992-09-15 18:00,ZBAA 151800Z AUTO 02004KT 16SM 16/07 A3005 RMK SLP189 T01550070 40245//// 52005 IEM_DS3505
ZBAA,1992-09-15 20:00,ZBAA 152000Z AUTO 30008KT 6SM 15/06 A3006 RMK SLP195 T01500060 IEM_DS3505
ZBAA,1992-09-15 21:00,ZBAA 152100Z AUTO 32002KT 12SM 13/08 A3006 RMK SLP198 T01320079 52009 IEM_DS3505
ZBAA,1992-09-15 22:00,ZBAA 152200Z AUTO 30006KT 6SM 14/06 A3009 RMK SLP205 T01400060 IEM_DS3505
ZBAA,1992-09-15 23:00,ZBAA 152300Z AUTO 33006KT 6SM 15/07 A3009 RMK SLP205 T01500070 IEM_DS3505
ZBAA,1992-09-16 00:00,ZBAA 160000Z AUTO 34006KT 16SM 17/04 A3009 RMK SLP209 T01740043 52011 IEM_DS3505
ZBAA,1992-09-16 01:00,ZBAA 160100Z AUTO 33012KT 6SM 20/06 A3009 RMK SLP204 T02000060 IEM_DS3505
ZBAA,1992-09-16 02:00,ZBAA 160200Z AUTO 32010KT 6SM 21/04 A3012 RMK SLP214 T02100040 IEM_DS3505
ZBAA,1992-09-16 03:00,ZBAA 160300Z AUTO 02004KT 19SM 21/M02 A3009 RMK SLP205 T02111015 57004 IEM_DS3505
ZBAA,1992-09-16 04:00,ZBAA 160400Z AUTO 32010KT 6SM 22/05 A3006 RMK SLP193 T02200050 IEM_DS3505
ZBAA,1992-09-16 05:00,ZBAA 160500Z AUTO 31014KT 6SM 23/05 A3003 RMK SLP183 T02300050 IEM_DS3505
ZBAA,1992-09-16 06:00,ZBAA 160600Z AUTO 36004KT 19SM 24/01 A3000 RMK SLP182 T02350013 4////0125 57023 IEM_DS3505
ZBAA,1992-09-16 07:00,ZBAA 160700Z AUTO 29004KT 6SM 23/05 A3000 RMK SLP173 T02300050 IEM_DS3505
ZBAA,1992-09-16 08:00,ZBAA 160800Z AUTO 24004KT 7SM 23/05 A2997 RMK SLP163 T02300050 IEM_DS3505
ZBAA,1992-09-16 09:00,ZBAA 160900Z AUTO 18008KT 19SM 23/02 A2997 RMK SLP171 T02310020 57011 IEM_DS3505
ZBAA,1992-09-16 10:00,ZBAA 161000Z AUTO 16004KT 7SM 21/08 A2997 RMK SLP163 T02100080 IEM_DS3505
ZBAA,1992-09-16 11:00,ZBAA 161100Z AUTO 18006KT 7SM 20/06 A2997 RMK SLP164 T02000060 IEM_DS3505
ZBAA,1992-09-16 12:00,ZBAA 161200Z AUTO 18008KT 12SM 20/07 A2997 RMK SLP171 T02010072 54000 IEM_DS3505
ZBAA,1992-09-16 13:00,ZBAA 161300Z AUTO 17004KT 7SM 18/08 A3000 RMK SLP174 T01800080 IEM_DS3505
ZBAA,1992-09-16 14:00,ZBAA 161400Z AUTO 16004KT 7SM 17/09 A2997 RMK SLP164 T01700090 IEM_DS3505
ZBAA,1992-09-16 15:00,ZBAA 161500Z AUTO 18004KT 9SM 17/09 A2997 RMK SLP169 T01680091 57002 IEM_DS3505
ZBAA,1992-09-16 16:00,ZBAA 161600Z AUTO 14004KT 7SM 15/11 A2997 RMK SLP165 T01500110 IEM_DS3505
ZBAA,1992-09-16 17:00,ZBAA 161700Z AUTO 17002KT 7SM 13/12 A2997 RMK SLP165 T01300120 IEM_DS3505
ZBAA,1992-09-16 18:00,ZBAA 161800Z AUTO 22004KT 7SM 15/09 A2999 RMK SLP169 T01490086 40243//// 54000 IEM_DS3505
ZBAA,1992-09-16 19:00,ZBAA 161900Z AUTO 00000KT 7SM 12/12 A2997 RMK SLP165 T01200120 IEM_DS3505
ZBAA,1992-09-16 20:00,ZBAA 162000Z AUTO 10004KT 7SM 11/11 A2997 RMK SLP166 T01100110 IEM_DS3505
ZBAA,1992-09-16 21:00,ZBAA 162100Z AUTO 00000KT 6SM 12/10 A2997 RMK SLP170 T01230096 52001 IEM_DS3505
ZBAA,1992-09-16 22:00,ZBAA 162200Z AUTO 00000KT 7SM 11/11 A2997 RMK SLP166 T01100110 IEM_DS3505
ZBAA,1992-09-16 23:00,ZBAA 162300Z AUTO 03002KT 7SM 11/11 A3000 RMK SLP176 T01100110 IEM_DS3505
ZBAA,1992-09-17 00:00,ZBAA 170000Z AUTO 36004KT 6SM 14/09 A2999 RMK SLP172 T01410092 52002 IEM_DS3505
ZBAA,1992-09-17 01:00,ZBAA 170100Z AUTO 00000KT 7SM 15/14 A3000 RMK SLP175 T01500140 IEM_DS3505
ZBAA,1992-09-17 02:00,ZBAA 170200Z AUTO 12002KT 7SM 17/14 A2997 RMK SLP164 T01700140 IEM_DS3505
ZBAA,1992-09-17 03:00,ZBAA 170300Z AUTO 04004KT 6SM 19/09 A2997 RMK SLP168 T01920094 57004 IEM_DS3505
ZBAA,1992-09-17 04:00,ZBAA 170400Z AUTO 15006KT 6SM 22/15 A2994 RMK SLP152 T02200150 IEM_DS3505
ZBAA,1992-09-17 05:00,ZBAA 170500Z AUTO 17006KT 6SM 23/15 A2991 RMK SLP142 T02300150 IEM_DS3505
ZBAA,1992-09-17 06:00,ZBAA 170600Z AUTO 18010KT 7SM 24/09 A2988 RMK SLP138 T02450089 4////0121 57029 IEM_DS3505
ZBAA,1992-09-17 07:00,ZBAA 170700Z AUTO 17008KT 6SM 25/15 A2988 RMK SLP131 T02500150 IEM_DS3505
ZBAA,1992-09-17 08:00,ZBAA 170800Z AUTO 19008KT 6SM 24/15 A2985 RMK SLP122 T02400150 IEM_DS3505
ZBAA,1992-09-17 09:00,ZBAA 170900Z AUTO 20010KT 6SM 25/11 A2985 RMK SLP125 T02520106 57014 IEM_DS3505
ZBAA,1992-09-17 10:00,ZBAA 171000Z AUTO 16004KT 7SM 22/16 A2985 RMK SLP122 T02200160 IEM_DS3505
ZBAA,1992-09-17 11:00,ZBAA 171100Z AUTO 09002KT 6SM 21/16 A2988 RMK SLP132 T02100160 IEM_DS3505
ZBAA,1992-09-17 12:00,ZBAA 171200Z AUTO 09004KT 4SM 21/13 A2991 RMK SLP141 T02120132 52016 IEM_DS3505
ZBAA,1992-09-17 13:00,ZBAA 171300Z AUTO 06006KT 5SM 20/15 A2991 RMK SLP143 T02000150 IEM_DS3505
ZBAA,1992-09-17 14:00,ZBAA 171400Z AUTO 01002KT 5SM 20/16 A2994 RMK SLP153 T02000160 IEM_DS3505
ZBAA,1992-09-17 15:00,ZBAA 171500Z AUTO 18006KT 3SM 19/13 A2988 RMK SLP137 T01930128 57004 IEM_DS3505
ZBAA,1992-09-17 16:00,ZBAA 171600Z AUTO 00000KT 7SM 18/15 A2991 RMK SLP143 T01800150 IEM_DS3505
ZBAA,1992-09-17 17:00,ZBAA 171700Z AUTO 09004KT 7SM 16/16 A2991 RMK SLP143 T01600160 IEM_DS3505
ZBAA,1992-09-17 18:00,ZBAA 171800Z AUTO 00000KT 3SM 16/14 A2991 RMK SLP139 T01620137 40253//// 52003 IEM_DS3505
ZBAA,1992-09-17 19:00,ZBAA 171900Z AUTO 12004KT 6SM 15/15 A2991 RMK SLP144 T01500150 IEM_DS3505
ZBAA,1992-09-17 20:00,ZBAA 172000Z AUTO 00000KT 6SM 14/14 A2991 RMK SLP144 T01400140 IEM_DS3505
ZBAA,1992-09-17 21:00,ZBAA 172100Z AUTO 04004KT 4SM 15/13 A2994 RMK SLP142 T01520130 52003 IEM_DS3505
ZBAA,1992-09-17 22:00,ZBAA 172200Z AUTO 00000KT 6SM 13/13 A2994 RMK SLP154 T01300130 IEM_DS3505
ZBAA,1992-09-17 23:00,ZBAA 172300Z AUTO 00000KT 6SM 14/14 A2994 RMK SLP154 T01400140 IEM_DS3505
ZBAA,1992-09-18 00:00,ZBAA 180000Z AUTO 02004KT 2 1/2SM 16/13 A2997 RMK SLP159 T01640128 52016 IEM_DS3505
ZBAA,1992-09-18 01:00,ZBAA 180100Z AUTO 05002KT 6SM 17/17 A2997 RMK SLP164 T01700170 IEM_DS3505
ZBAA,1992-09-18 02:00,ZBAA 180200Z AUTO 06004KT 6SM 19/17 A2997 RMK SLP164 T01900170 IEM_DS3505
ZBAA,1992-09-18 03:00,ZBAA 180300Z AUTO 34004KT 4SM 21/13 A2997 RMK SLP161 T02140131 52003 IEM_DS3505
ZBAA,1992-09-18 04:00,ZBAA 180400Z AUTO 14002KT 6SM 23/18 A2994 RMK SLP152 T02300180 IEM_DS3505
ZBAA,1992-09-18 05:00,ZBAA 180500Z AUTO 11002KT 6SM 24/18 A2994 RMK SLP152 T02400180 IEM_DS3505
ZBAA,1992-09-18 06:00,ZBAA 180600Z AUTO 34004KT 4SM 24/14 A2994 RMK SLP156 T02440137 4////0142 57005 IEM_DS3505
ZBAA,1992-09-18 07:00,ZBAA 180700Z AUTO 20004KT 6SM 23/18 A2991 RMK SLP142 T02300180 IEM_DS3505
ZBAA,1992-09-18 08:00,ZBAA 180800Z AUTO 05006KT 6SM 24/19 A2988 RMK SLP132 T02400190 IEM_DS3505
ZBAA,1992-09-18 09:00,ZBAA 180900Z AUTO 29004KT 3SM 24/15 A2994 RMK SLP161 T02430152 52004 IEM_DS3505
ZBAA,1992-09-18 10:00,ZBAA 181000Z AUTO 18010KT 3SM 20/20 A2994 RMK SLP153 T02000200 IEM_DS3505
ZBAA,1992-09-18 11:00,ZBAA 181100Z AUTO 03006KT 2 1/2SM 20/20 A2994 RMK SLP153 T02000200 IEM_DS3505
ZBAA,1992-09-18 12:00,ZBAA 181200Z AUTO 00000KT 4SM 20/17 A2997 RMK 60008 SLP170 T01960166 52009 IEM_DS3505
ZBAA,1992-09-18 13:00,ZBAA 181300Z AUTO 22002KT 2SM 18/18 A3000 RMK SLP174 T01800180 IEM_DS3505
ZBAA,1992-09-18 14:00,ZBAA 181400Z AUTO 19002KT 1 1/2SM 18/18 A3000 RMK SLP174 T01800180 IEM_DS3505
ZBAA,1992-09-18 15:00,ZBAA 181500Z AUTO 00000KT 4SM 18/16 A3000 RMK SLP175 T01820162 52005 IEM_DS3505
ZBAA,1992-09-18 16:00,ZBAA 181600Z AUTO 00000KT 1 1/2SM 17/17 A3003 RMK SLP184 T01700170 IEM_DS3505
ZBAA,1992-09-18 17:00,ZBAA 181700Z AUTO 00000KT 1 1/2SM 17/17 A3003 RMK SLP184 T01700170 IEM_DS3505
ZBAA,1992-09-18 18:00,ZBAA 181800Z AUTO 02004KT 3SM 18/14 A3006 RMK SLP191 T01840144 40254//// 52017 IEM_DS3505
ZBAA,1992-09-18 19:00,ZBAA 181900Z AUTO 03002KT 1 1/4SM 17/17 A3009 RMK SLP205 T01700170 IEM_DS3505
ZBAA,1992-09-18 20:00,ZBAA 182000Z AUTO 01002KT 1 1/2SM 17/17 A3009 RMK SLP205 T01700170 IEM_DS3505
ZBAA,1992-09-18 21:00,ZBAA 182100Z AUTO 36006KT 2 1/2SM 17/15 A3012 RMK 70008 SLP209 T01740146 52017 IEM_DS3505
ZBAA,1992-09-18 22:00,ZBAA 182200Z AUTO 03002KT 2SM 17/17 A3012 RMK SLP215 T01700170 IEM_DS3505
ZBAA,1992-09-18 23:00,ZBAA 182300Z AUTO 09004KT 2SM 18/18 A3015 RMK SLP224 T01800180 IEM_DS3505
ZBAA,1992-09-19 00:00,ZBAA 190000Z AUTO 04002KT 2 1/2SM 18/16 A3017 RMK 70083 SLP230 T01840159 52021 IEM_DS3505
ZBAA,1992-09-19 01:00,ZBAA 190100Z AUTO 13006KT 7SM 20/17 A3021 RMK SLP245 T02000170 IEM_DS3505
ZBAA,1992-09-19 02:00,ZBAA 190200Z AUTO 12006KT 7SM 20/17 A3021 RMK SLP245 T02000170 IEM_DS3505
ZBAA,1992-09-19 03:00,ZBAA 190300Z AUTO 09006KT 4SM 19/14 A3024 RMK SLP247 T01920142 52017 IEM_DS3505
ZBAA,1992-09-19 04:00,ZBAA 190400Z AUTO 13004KT 7SM 21/17 A3021 RMK SLP245 T02100170 IEM_DS3505
ZBAA,1992-09-19 05:00,ZBAA 190500Z AUTO 12004KT 7SM 21/17 A3021 RMK SLP245 T02100170 IEM_DS3505
ZBAA,1992-09-19 06:00,ZBAA 190600Z AUTO 36002KT 4SM 21/16 A3018 RMK SLP239 T02080158 4////0171 57008 IEM_DS3505
ZBAA,1992-09-19 07:00,ZBAA 190700Z AUTO 08004KT 7SM 22/18 A3018 RMK SLP234 T02200180 IEM_DS3505
ZBAA,1992-09-19 08:00,ZBAA 190800Z AUTO 11004KT 7SM 22/18 A3018 RMK SLP234 T02200180 IEM_DS3505
ZBAA,1992-09-19 09:00,ZBAA 190900Z AUTO 34002KT 4SM 21/16 A3018 RMK SLP236 T02130160 57003 IEM_DS3505
ZBAA,1992-09-19 10:00,ZBAA 191000Z AUTO 08002KT 7SM 21/18 A3018 RMK SLP234 T02100180 IEM_DS3505
ZBAA,1992-09-19 11:00,ZBAA 191100Z AUTO 12002KT 7SM 20/18 A3021 RMK SLP245 T02000180 IEM_DS3505
ZBAA,1992-09-19 12:00,ZBAA 191200Z AUTO 18004KT 5SM 21/14 A3024 RMK SLP243 T02080137 52007 IEM_DS3505
ZBAA,1992-09-19 13:00,ZBAA 191300Z AUTO 15004KT 5SM 20/18 A3024 RMK SLP255 T02000180 IEM_DS3505
ZBAA,1992-09-19 14:00,ZBAA 191400Z AUTO 15002KT 5SM 19/16 A3027 RMK SLP266 T01900160 IEM_DS3505
ZBAA,1992-09-19 15:00,ZBAA 191500Z AUTO 14002KT 4SM 19/12 A3027 RMK SLP256 T01930123 52013 IEM_DS3505
ZBAA,1992-09-19 16:00,ZBAA 191600Z AUTO 02004KT 5SM 17/16 A3027 RMK SLP266 T01700160 IEM_DS3505
ZBAA,1992-09-19 17:00,ZBAA 191700Z AUTO 05002KT 7SM 17/16 A3027 RMK SLP266 T01700160 IEM_DS3505
ZBAA,1992-09-19 18:00,ZBAA 191800Z AUTO 09004KT 4SM 16/14 A3027 RMK 60000 SLP259 T01620139 40216//// 52002 IEM_DS3505
ZBAA,1992-09-19 19:00,ZBAA 191900Z AUTO 04002KT 7SM 16/16 A3024 RMK SLP256 T01600160 IEM_DS3505
ZBAA,1992-09-19 20:00,ZBAA 192000Z AUTO 33006KT 4SM 15/15 A3027 RMK SLP266 T01500150 IEM_DS3505
ZBAA,1992-09-19 21:00,ZBAA 192100Z AUTO 02004KT 2 1/2SM 15/14 A3027 RMK 70055 SLP260 T01510135 52001 IEM_DS3505
ZBAA,1992-09-19 22:00,ZBAA 192200Z AUTO 37SM 14/14 A3027 RMK SLP267 T01400140 IEM_DS3505
ZBAA,1992-09-19 23:00,ZBAA 192300Z AUTO 35004KT 4SM 14/14 A3030 RMK SLP277 T01400140 IEM_DS3505
ZBAA,1992-09-20 00:00,ZBAA 200000Z AUTO 36004KT 5SM 15/14 A3027 RMK 60059 70606 SLP265 T01520136 52005 IEM_DS3505
ZBAA,1992-09-20 01:00,ZBAA 200100Z AUTO 02002KT 7SM 16/16 A3030 RMK SLP276 T01600160 IEM_DS3505
ZBAA,1992-09-20 02:00,ZBAA 200200Z AUTO 02004KT 7SM 18/18 A3027 RMK SLP266 T01800180 IEM_DS3505
ZBAA,1992-09-20 03:00,ZBAA 200300Z AUTO 04004KT 6SM 18/14 A3027 RMK SLP264 T01770138 57001 IEM_DS3505
ZBAA,1992-09-20 04:00,ZBAA 200400Z AUTO 06004KT 7SM 20/19 A3024 RMK SLP255 T02000190 IEM_DS3505
ZBAA,1992-09-20 05:00,ZBAA 200500Z AUTO 21002KT 7SM 21/20 A3024 RMK SLP255 T02100200 IEM_DS3505
ZBAA,1992-09-20 06:00,ZBAA 200600Z AUTO 20002KT 4SM 19/14 A3021 RMK SLP246 T01930145 4////0144 57018 IEM_DS3505
ZBAA,1992-09-20 07:00,ZBAA 200700Z AUTO 00000KT 7SM 21/20 A3021 RMK SLP245 T02100200 IEM_DS3505
ZBAA,1992-09-20 08:00,ZBAA 200800Z AUTO 21002KT 7SM 21/17 A3018 RMK SLP234 T02100170 IEM_DS3505
ZBAA,1992-09-20 09:00,ZBAA 200900Z AUTO 16006KT 7SM 21/15 A3018 RMK SLP238 T02060148 57008 IEM_DS3505
ZBAA,1992-09-20 10:00,ZBAA 201000Z AUTO 20004KT 4SM 20/17 A3018 RMK SLP234 T02000170 IEM_DS3505
ZBAA,1992-09-20 11:00,ZBAA 201100Z AUTO 19004KT 2SM 19/16 A3018 RMK SLP234 T01900160 IEM_DS3505
ZBAA,1992-09-20 12:00,ZBAA 201200Z AUTO 18004KT 4SM 18/16 A3021 RMK SLP242 T01850156 52004 IEM_DS3505
ZBAA,1992-09-20 13:00,ZBAA 201300Z AUTO 11002KT 3SM 17/16 A3021 RMK SLP246 T01700160 IEM_DS3505
ZBAA,1992-09-20 15:00,ZBAA 201500Z AUTO 18004KT 3SM 18/15 A3019 RMK SLP239 T01750151 57003 IEM_DS3505
ZBAA,1992-09-20 16:00,ZBAA 201600Z AUTO 00000KT 3SM 16/16 A3021 RMK SLP246 T01600160 IEM_DS3505
ZBAA,1992-09-20 17:00,ZBAA 201700Z AUTO 00000KT 1 1/4SM 15/15 A3018 RMK SLP235 T01500150 IEM_DS3505
ZBAA,1992-09-20 18:00,ZBAA 201800Z AUTO 00000KT 2SM 15/15 A3018 RMK SLP235 T01510146 40210//// 57004 IEM_DS3505
ZBAA,1992-09-20 20:00,ZBAA 202000Z AUTO 00000KT 1/8SM 14/14 A3018 RMK SLP235 T01400140 IEM_DS3505
ZBAA,1992-09-20 21:00,ZBAA 202100Z AUTO 02004KT 1SM 15/15 A3018 RMK 70004 SLP233 T01520149 57001 IEM_DS3505
ZBAA,1992-09-20 22:00,ZBAA 202200Z AUTO 00000KT 1/8SM 14/14 A3018 RMK SLP235 T01400140 IEM_DS3505
ZBAA,1992-09-20 23:00,ZBAA 202300Z AUTO 26002KT 1/8SM 14/14 A3018 RMK SLP235 T01400140 IEM_DS3505
ZBAA,1992-09-21 00:00,ZBAA 210000Z AUTO 34002KT 1SM 16/15 A3018 RMK SLP237 T01610151 52003 IEM_DS3505
ZBAA,1992-09-21 01:00,ZBAA 210100Z AUTO 00000KT 1/4SM 15/15 A3018 RMK SLP235 T01500150 IEM_DS3505
ZBAA,1992-09-21 02:00,ZBAA 210200Z AUTO 10002KT 3/8SM 16/16 A3021 RMK SLP246 T01600160 IEM_DS3505
ZBAA,1992-09-21 03:00,ZBAA 210300Z AUTO 18004KT 1 1/2SM 21/14 A3018 RMK SLP231 T02080143 57005 IEM_DS3505
ZBAA,1992-09-21 05:00,ZBAA 210500Z AUTO 20008KT 3SM 23/15 A3012 RMK SLP213 T02300150 IEM_DS3505
ZBAA,1992-09-21 06:00,ZBAA 210600Z AUTO 20014KT 7SM 22/12 A3009 RMK SLP209 T02180123 4////0144 57022 IEM_DS3505
ZBAA,1992-09-21 07:00,ZBAA 210700Z AUTO 19012KT 7SM 23/13 A3009 RMK SLP203 T02300130 IEM_DS3505
ZBAA,1992-09-21 08:00,ZBAA 210800Z AUTO 19008KT 6SM 22/13 A3006 RMK SLP193 T02200130 IEM_DS3505
ZBAA,1992-09-21 09:00,ZBAA 210900Z AUTO 18010KT 9SM 22/14 A3006 RMK SLP193 T02200138 57016 IEM_DS3505
ZBAA,1992-09-21 10:00,ZBAA 211000Z AUTO 18004KT 6SM 21/14 A3006 RMK SLP194 T02100140 IEM_DS3505
ZBAA,1992-09-21 11:00,ZBAA 211100Z AUTO 18002KT 6SM 21/14 A3006 RMK SLP194 T02100140 IEM_DS3505
ZBAA,1992-09-21 12:00,ZBAA 211200Z AUTO 18006KT 6SM 20/14 A3006 RMK SLP197 T02000144 52004 IEM_DS3505
ZBAA,1992-09-21 13:00,ZBAA 211300Z AUTO 11002KT 6SM 18/15 A3009 RMK SLP204 T01800150 IEM_DS3505
ZBAA,1992-09-21 15:00,ZBAA 211500Z AUTO 18004KT 4SM 19/14 A3009 RMK SLP198 T01940142 52001 IEM_DS3505
ZBAA,1992-09-21 17:00,ZBAA 211700Z AUTO 00000KT 6SM 18/15 A3006 RMK SLP194 T01800150 IEM_DS3505
ZBAA,1992-09-21 18:00,ZBAA 211800Z AUTO 18006KT 4SM 18/14 A3006 RMK SLP194 T01850140 40226//// 57004 IEM_DS3505
ZBAA,1992-09-21 19:00,ZBAA 211900Z AUTO 13002KT 6SM 17/15 A3006 RMK SLP195 T01700150 IEM_DS3505
ZBAA,1992-09-21 20:00,ZBAA 212000Z AUTO 13004KT 6SM 17/15 A3006 RMK SLP195 T01700150 IEM_DS3505
ZBAA,1992-09-21 21:00,ZBAA 212100Z AUTO 00000KT 2 1/2SM 17/15 A3006 RMK SLP193 T01670148 57001 IEM_DS3505
ZBAA,1992-09-21 22:00,ZBAA 212200Z AUTO 00000KT 3SM 17/15 A3006 RMK SLP195 T01700150 IEM_DS3505
ZBAA,1992-09-21 23:00,ZBAA 212300Z AUTO 13002KT 2SM 17/16 A3006 RMK SLP195 T01700160 IEM_DS3505
ZBAA,1992-09-22 00:00,ZBAA 220000Z AUTO 36002KT 2SM 18/15 A3006 RMK SLP196 T01810152 52003 IEM_DS3505
ZBAA,1992-09-22 01:00,ZBAA 220100Z AUTO 18006KT 4SM 22/15 A3006 RMK SLP174 T02200150 57017 IEM_DS3505
ZBAA,1992-09-22 02:00,ZBAA 220200Z AUTO 10002KT 2SM 19/16 A3006 RMK SLP194 T01900160 IEM_DS3505
ZBAA,1992-09-22 03:00,ZBAA 220300Z AUTO 07002KT 2 1/2SM 21/16 A3006 RMK SLP191 T02130160 57005 IEM_DS3505
ZBAA,1992-09-22 04:00,ZBAA 220400Z AUTO 10004KT 3SM 21/16 A3003 RMK SLP184 T02100160 IEM_DS3505
ZBAA,1992-09-22 05:00,ZBAA 220500Z AUTO 11004KT 4SM 21/16 A3000 RMK SLP173 T02100160 IEM_DS3505
ZBAA,1992-09-22 06:00,ZBAA 220600Z AUTO 18006KT 4SM 22/15 A3000 RMK SLP174 T02200150 4////0164 57017 IEM_DS3505
ZBAA,1992-09-22 07:00,ZBAA 220700Z AUTO 14004KT 7SM 22/16 A2997 RMK SLP163 T02200160 IEM_DS3505
ZBAA,1992-09-22 08:00,ZBAA 220800Z AUTO 11002KT 7SM 22/16 A2997 RMK SLP163 T02200160 IEM_DS3505
ZBAA,1992-09-22 09:00,ZBAA 220900Z AUTO 18006KT 5SM 22/15 A2997 RMK SLP169 T02190150 57005 IEM_DS3505
ZBAA,1992-09-22 10:00,ZBAA 221000Z AUTO 15002KT 7SM 21/16 A2997 RMK SLP163 T02100160 IEM_DS3505
ZBAA,1992-09-22 11:00,ZBAA 221100Z AUTO 00000KT 7SM 20/16 A2997 RMK SLP164 T02000160 IEM_DS3505
ZBAA,1992-09-22 12:00,ZBAA 221200Z AUTO 18006KT 4SM 21/16 A2997 RMK SLP171 T02120155 52002 IEM_DS3505
ZBAA,1992-09-22 13:00,ZBAA 221300Z AUTO 00000KT 4SM 20/16 A3000 RMK SLP174 T02000160 IEM_DS3505
ZBAA,1992-09-22 14:00,ZBAA 221400Z AUTO 12002KT 4SM 19/17 A3000 RMK SLP174 T01900170 IEM_DS3505
ZBAA,1992-09-22 15:00,ZBAA 221500Z AUTO 16002KT 3SM 20/16 A2997 RMK SLP170 T02030158 54000 IEM_DS3505
ZBAA,1992-09-22 16:00,ZBAA 221600Z AUTO 00000KT 2 1/2SM 19/16 A2997 RMK SLP164 T01900160 IEM_DS3505
ZBAA,1992-09-22 17:00,ZBAA 221700Z AUTO 00000KT 2 1/2SM 18/18 A3000 RMK SLP174 T01800180 IEM_DS3505
ZBAA,1992-09-22 18:00,ZBAA 221800Z AUTO 18006KT 2 1/2SM 18/17 A2999 RMK 60008 SLP172 T01820170 40230//// 52001 IEM_DS3505
ZBAA,1992-09-22 19:00,ZBAA 221900Z AUTO 00000KT 1 1/4SM 17/17 A2997 RMK SLP164 T01700170 IEM_DS3505
ZBAA,1992-09-22 20:00,ZBAA 222000Z AUTO 07004KT 1SM 17/17 A2997 RMK SLP164 T01700170 IEM_DS3505
ZBAA,1992-09-22 21:00,ZBAA 222100Z AUTO 16004KT 2SM 18/17 A2997 RMK 70024 SLP165 T01780170 57007 IEM_DS3505
ZBAA,1992-09-22 22:00,ZBAA 222200Z AUTO 08002KT 1/2SM 17/17 A2997 RMK SLP164 T01700170 IEM_DS3505
ZBAA,1992-09-22 23:00,ZBAA 222300Z AUTO 11002KT 1SM 17/17 A2997 RMK SLP164 T01700170 IEM_DS3505
ZBAA,1992-09-23 00:00,ZBAA 230000Z AUTO 14004KT 1SM 18/17 A2997 RMK 60035 70441 SLP165 T01790171 54000 IEM_DS3505
ZBAA,1992-09-23 01:00,ZBAA 230100Z AUTO 10002KT 2SM 17/17 A2997 RMK SLP164 T01700170 IEM_DS3505
ZBAA,1992-09-23 02:00,ZBAA 230200Z AUTO 00000KT 2 1/2SM 18/18 A2997 RMK SLP164 T01800180 IEM_DS3505
ZBAA,1992-09-23 03:00,ZBAA 230300Z AUTO 07002KT 1 1/4SM 19/17 A2997 RMK SLP163 T01920172 57002 IEM_DS3505
ZBAA,1992-09-23 04:00,ZBAA 230400Z AUTO 00000KT 3SM 20/19 A2991 RMK SLP143 T02000190 IEM_DS3505
ZBAA,1992-09-23 05:00,ZBAA 230500Z AUTO 12002KT 3SM 21/18 A2991 RMK SLP142 T02100180 IEM_DS3505
ZBAA,1992-09-23 06:00,ZBAA 230600Z AUTO 36008KT 2SM 22/18 A2989 RMK SLP135 T02220181 4////0174 57027 IEM_DS3505
ZBAA,1992-09-23 07:00,ZBAA 230700Z AUTO 03002KT 4SM 22/18 A2988 RMK SLP132 T02200180 IEM_DS3505
ZBAA,1992-09-23 08:00,ZBAA 230800Z AUTO 35010KT 3SM 20/17 A2988 RMK SLP132 T02000170 IEM_DS3505
ZBAA,1992-09-23 09:00,ZBAA 230900Z AUTO 36006KT 2 1/2SM 19/17 A2988 RMK SLP136 T01930173 54000 IEM_DS3505
ZBAA,1992-09-23 10:00,ZBAA 231000Z AUTO 34008KT 2 1/2SM 19/17 A2991 RMK SLP143 T01900170 IEM_DS3505
ZBAA,1992-09-23 11:00,ZBAA 231100Z AUTO 35008KT 1 1/4SM 18/18 A2991 RMK SLP143 T01800180 IEM_DS3505
ZBAA,1992-09-23 12:00,ZBAA 231200Z AUTO 04004KT 1SM 18/18 A2991 RMK 60004 SLP140 T01830177 52004 IEM_DS3505
ZBAA,1992-09-23 13:00,ZBAA 231300Z AUTO 35002KT 1SM 18/18 A2991 RMK SLP143 T01800180 IEM_DS3505
ZBAA,1992-09-23 14:00,ZBAA 231400Z AUTO 36004KT 1SM 18/18 A2991 RMK SLP143 T01800180 IEM_DS3505
ZBAA,1992-09-23 15:00,ZBAA 231500Z AUTO 09004KT 1SM 18/17 A2989 RMK SLP137 T01820172 57003 IEM_DS3505
ZBAA,1992-09-23 16:00,ZBAA 231600Z AUTO 36006KT 1SM 18/18 A2988 RMK SLP133 T01800180 IEM_DS3505
ZBAA,1992-09-23 17:00,ZBAA 231700Z AUTO 36002KT 1SM 18/18 A2988 RMK SLP133 T01800180 IEM_DS3505
ZBAA,1992-09-23 18:00,ZBAA 231800Z AUTO 02002KT 1SM 18/17 A2988 RMK 60000 SLP136 T01800172 40226//// 54000 IEM_DS3505
ZBAA,1992-09-23 19:00,ZBAA 231900Z AUTO 33006KT 1SM 17/17 A2988 RMK SLP133 T01700170 IEM_DS3505
ZBAA,1992-09-23 20:00,ZBAA 232000Z AUTO 34006KT 1 1/2SM 18/17 A2988 RMK SLP133 T01800170 IEM_DS3505
ZBAA,1992-09-23 21:00,ZBAA 232100Z AUTO 32004KT 1SM 19/16 A2988 RMK 70028 SLP136 T01860163 57001 IEM_DS3505
ZBAA,1992-09-23 22:00,ZBAA 232200Z AUTO 35008KT 3SM 18/16 A2991 RMK SLP143 T01800160 IEM_DS3505
ZBAA,1992-09-23 23:00,ZBAA 232300Z AUTO 01006KT 6SM 18/16 A2994 RMK SLP153 T01800160 IEM_DS3505
ZBAA,1992-09-24 00:00,ZBAA 240000Z AUTO 36010KT 19SM 21/09 A2995 RMK 70055 SLP158 T02060087 52022 IEM_DS3505
ZBAA,1992-09-24 01:00,ZBAA 240100Z AUTO 31010KT 19SM 25/04 A2997 RMK SLP112 T02470040 57005 IEM_DS3505
ZBAA,1992-09-24 03:00,ZBAA 240300Z AUTO 36012KT 19SM 23/01 A2999 RMK SLP168 T02280010 52010 IEM_DS3505
ZBAA,1992-09-24 04:00,ZBAA 240400Z AUTO 01012KT 6SM 24/06 A2997 RMK SLP163 T02400060 IEM_DS3505
ZBAA,1992-09-24 05:00,ZBAA 240500Z AUTO 02012KT 6SM 24/06 A2994 RMK SLP152 T02400060 IEM_DS3505
ZBAA,1992-09-24 06:00,ZBAA 240600Z AUTO 36010KT 19SM 25/04 A2994 RMK SLP162 T02470040 4////0174 57005 IEM_DS3505
ZBAA,1992-09-24 07:00,ZBAA 240700Z AUTO 03010KT 6SM 24/06 A2994 RMK SLP152 T02400060 IEM_DS3505
ZBAA,1992-09-24 08:00,ZBAA 240800Z AUTO 02012KT 6SM 24/04 A2994 RMK SLP152 T02400040 IEM_DS3505
ZBAA,1992-09-24 09:00,ZBAA 240900Z AUTO 36008KT 19SM 23/04 A2994 RMK SLP161 T02340036 57001 IEM_DS3505
ZBAA,1992-09-24 10:00,ZBAA 241000Z AUTO 36006KT 6SM 20/06 A2997 RMK SLP164 T02000060 IEM_DS3505
ZBAA,1992-09-24 11:00,ZBAA 241100Z AUTO 34006KT 6SM 19/06 A3000 RMK SLP174 T01900060 IEM_DS3505
ZBAA,1992-09-24 12:00,ZBAA 241200Z AUTO 36008KT 19SM 19/04 A3003 RMK SLP183 T01910043 52021 IEM_DS3505
ZBAA,1992-09-24 13:00,ZBAA 241300Z AUTO 02014KT 7SM 17/05 A3006 RMK SLP195 T01700050 IEM_DS3505
ZBAA,1992-09-24 14:00,ZBAA 241400Z AUTO 03006KT 7SM 16/04 A3006 RMK SLP195 T01600040 IEM_DS3505
ZBAA,1992-09-24 15:00,ZBAA 241500Z AUTO 36008KT 19SM 18/03 A3009 RMK SLP203 T01760028 52020 IEM_DS3505
ZBAA,1992-09-24 16:00,ZBAA 241600Z AUTO 00000KT 7SM 14/06 A3009 RMK SLP205 T01400060 IEM_DS3505
ZBAA,1992-09-24 17:00,ZBAA 241700Z AUTO 36002KT 7SM 14/06 A3009 RMK SLP205 T01400060 IEM_DS3505
ZBAA,1992-09-24 18:00,ZBAA 241800Z AUTO 36006KT 19SM 16/03 A3012 RMK SLP209 T01640034 40250//// 52006 IEM_DS3505
ZBAA,1992-09-24 19:00,ZBAA 241900Z AUTO 35006KT 7SM 14/05 A3012 RMK SLP215 T01400050 IEM_DS3505
ZBAA,1992-09-24 20:00,ZBAA 242000Z AUTO 34004KT 7SM 14/04 A3012 RMK SLP215 T01400040 IEM_DS3505
ZBAA,1992-09-24 21:00,ZBAA 242100Z AUTO 34004KT 19SM 14/04 A3015 RMK SLP219 T01380042 52010 IEM_DS3505
ZBAA,1992-09-24 22:00,ZBAA 242200Z AUTO 36006KT 7SM 12/04 A3015 RMK SLP226 T01200040 IEM_DS3505
ZBAA,1992-09-24 23:00,ZBAA 242300Z AUTO 36004KT 7SM 13/04 A3018 RMK SLP236 T01300040 IEM_DS3505
ZBAA,1992-09-25 00:00,ZBAA 250000Z AUTO 32004KT 19SM 16/03 A3021 RMK SLP239 T01590032 52019 IEM_DS3505
ZBAA,1992-09-25 01:00,ZBAA 250100Z AUTO 32010KT 7SM 18/05 A3021 RMK SLP246 T01800050 IEM_DS3505
ZBAA,1992-09-25 02:00,ZBAA 250200Z AUTO 35012KT 7SM 20/03 A3021 RMK SLP245 T02000030 IEM_DS3505
ZBAA,1992-09-25 03:00,ZBAA 250300Z AUTO 02008KT 19SM 20/02 A3020 RMK SLP240 T02030022 52002 IEM_DS3505
ZBAA,1992-09-25 04:00,ZBAA 250400Z AUTO 02006KT 6SM 21/04 A3018 RMK SLP234 T02100040 IEM_DS3505
ZBAA,1992-09-25 05:00,ZBAA 250500Z AUTO 33010KT 6SM 22/01 A3015 RMK SLP224 T02200010 IEM_DS3505
ZBAA,1992-09-25 06:00,ZBAA 250600Z AUTO 02006KT 19SM 22/04 A3015 RMK SLP223 T02250035 4////0121 57017 IEM_DS3505
ZBAA,1992-09-25 07:00,ZBAA 250700Z AUTO 31010KT 6SM 23/03 A3012 RMK SLP213 T02300030 IEM_DS3505
ZBAA,1992-09-25 08:00,ZBAA 250800Z AUTO 31006KT 6SM 22/03 A3012 RMK SLP214 T02200030 IEM_DS3505
ZBAA,1992-09-25 09:00,ZBAA 250900Z AUTO 20010KT 19SM 22/02 A3012 RMK SLP217 T02200022 57006 IEM_DS3505
ZBAA,1992-09-25 10:00,ZBAA 251000Z AUTO 09004KT 6SM 18/08 A3012 RMK SLP214 T01800080 IEM_DS3505
ZBAA,1992-09-25 11:00,ZBAA 251100Z AUTO 12002KT 6SM 17/08 A3012 RMK SLP215 T01700080 IEM_DS3505
ZBAA,1992-09-25 12:00,ZBAA 251200Z AUTO 18004KT 19SM 18/07 A3015 RMK SLP221 T01800070 52003 IEM_DS3505
ZBAA,1992-09-25 13:00,ZBAA 251300Z AUTO 14002KT 6SM 16/07 A3015 RMK SLP225 T01600070 IEM_DS3505
ZBAA,1992-09-25 14:00,ZBAA 251400Z AUTO 13004KT 6SM 15/08 A3015 RMK SLP225 T01500080 IEM_DS3505
ZBAA,1992-09-25 15:00,ZBAA 251500Z AUTO 18004KT 19SM 16/07 A3018 RMK SLP226 T01570067 52006 IEM_DS3505
ZBAA,1992-09-25 16:00,ZBAA 251600Z AUTO 09002KT 6SM 12/08 A3015 RMK SLP226 T01200080 IEM_DS3505
ZBAA,1992-09-25 17:00,ZBAA 251700Z AUTO 20002KT 6SM 11/08 A3015 RMK SLP226 T01100080 IEM_DS3505
ZBAA,1992-09-25 18:00,ZBAA 251800Z AUTO 00000KT 9SM 12/08 A3015 RMK SLP225 T01230080 40233//// 57002 IEM_DS3505
ZBAA,1992-09-25 19:00,ZBAA 251900Z AUTO 02002KT 6SM 10/08 A3015 RMK SLP226 T01000080 IEM_DS3505
ZBAA,1992-09-25 20:00,ZBAA 252000Z AUTO 00000KT 6SM 10/09 A3015 RMK SLP226 T01000090 IEM_DS3505
ZBAA,1992-09-25 21:00,ZBAA 252100Z AUTO 04004KT 6SM 12/07 A3015 RMK SLP222 T01180068 57003 IEM_DS3505
ZBAA,1992-09-25 22:00,ZBAA 252200Z AUTO 01002KT 6SM 10/09 A3015 RMK SLP226 T01000090 IEM_DS3505
ZBAA,1992-09-25 23:00,ZBAA 252300Z AUTO 01004KT 6SM 11/09 A3015 RMK SLP226 T01100090 IEM_DS3505
ZBAA,1992-09-26 00:00,ZBAA 260000Z AUTO 36008KT 7SM 14/06 A3015 RMK SLP228 T01390062 52006 IEM_DS3505
ZBAA,1992-09-26 01:00,ZBAA 260100Z AUTO 04004KT 6SM 15/09 A3018 RMK SLP235 T01500090 IEM_DS3505
ZBAA,1992-09-26 02:00,ZBAA 260200Z AUTO 08004KT 6SM 17/08 A3018 RMK SLP235 T01700080 IEM_DS3505
ZBAA,1992-09-26 03:00,ZBAA 260300Z AUTO 09006KT 7SM 18/07 A3018 RMK SLP234 T01840073 52006 IEM_DS3505
ZBAA,1992-09-26 04:00,ZBAA 260400Z AUTO 14002KT 7SM 21/09 A3015 RMK SLP224 T02100090 IEM_DS3505
ZBAA,1992-09-26 05:00,ZBAA 260500Z AUTO 11002KT 7SM 21/10 A3012 RMK SLP214 T02100100 IEM_DS3505
ZBAA,1992-09-26 06:00,ZBAA 260600Z AUTO 18004KT 6SM 22/06 A3009 RMK SLP208 T02220063 4////0111 57025 IEM_DS3505
ZBAA,1992-09-26 07:00,ZBAA 260700Z AUTO 14004KT 7SM 23/09 A3009 RMK SLP203 T02300090 IEM_DS3505
ZBAA,1992-09-26 08:00,ZBAA 260800Z AUTO 16006KT 7SM 22/10 A3006 RMK SLP193 T02200100 IEM_DS3505
ZBAA,1992-09-26 09:00,ZBAA 260900Z AUTO 14004KT 6SM 22/08 A3006 RMK SLP198 T02250079 57010 IEM_DS3505
ZBAA,1992-09-26 10:00,ZBAA 261000Z AUTO 00000KT 7SM 20/11 A3006 RMK SLP194 T02000110 IEM_DS3505
ZBAA,1992-09-26 11:00,ZBAA 261100Z AUTO 08002KT 7SM 17/12 A3006 RMK SLP195 T01700120 IEM_DS3505
ZBAA,1992-09-26 12:00,ZBAA 261200Z AUTO 00000KT 5SM 17/12 A3009 RMK SLP212 T01720125 52013 IEM_DS3505
ZBAA,1992-09-26 13:00,ZBAA 261300Z AUTO 12008KT 7SM 17/11 A3012 RMK SLP215 T01700110 IEM_DS3505
ZBAA,1992-09-26 14:00,ZBAA 261400Z AUTO 13008KT 7SM 16/11 A3012 RMK SLP215 T01600110 IEM_DS3505
ZBAA,1992-09-26 15:00,ZBAA 261500Z AUTO 16004KT 4SM 17/10 A3012 RMK SLP206 T01720105 57005 IEM_DS3505
ZBAA,1992-09-26 16:00,ZBAA 261600Z AUTO 14006KT 7SM 15/11 A3012 RMK SLP215 T01500110 IEM_DS3505
ZBAA,1992-09-26 17:00,ZBAA 261700Z AUTO 13006KT 6SM 15/10 A3012 RMK SLP215 T01500100 IEM_DS3505
ZBAA,1992-09-26 18:00,ZBAA 261800Z AUTO 07002KT 4SM 14/11 A3012 RMK SLP210 T01400106 40232//// 52004 IEM_DS3505
ZBAA,1992-09-26 20:00,ZBAA 262000Z AUTO 00000KT 6SM 13/09 A3012 RMK SLP216 T01300090 IEM_DS3505
ZBAA,1992-09-26 21:00,ZBAA 262100Z AUTO 02004KT 4SM 12/10 A3009 RMK SLP207 T01200100 57003 IEM_DS3505
ZBAA,1992-09-26 22:00,ZBAA 262200Z AUTO 14002KT 4SM 12/09 A3009 RMK SLP206 T01200090 IEM_DS3505
ZBAA,1992-09-26 23:00,ZBAA 262300Z AUTO 13002KT 4SM 12/09 A3012 RMK SLP216 T01200090 IEM_DS3505
ZBAA,1992-09-27 00:00,ZBAA 270000Z AUTO 00000KT 3SM 13/11 A3012 RMK SLP209 T01340111 52001 IEM_DS3505
ZBAA,1992-09-27 01:00,ZBAA 270100Z AUTO 17002KT 5SM 15/10 A3012 RMK SLP215 T01500100 IEM_DS3505
ZBAA,1992-09-27 02:00,ZBAA 270200Z AUTO 15002KT 5SM 15/10 A3012 RMK SLP215 T01500100 IEM_DS3505
ZBAA,1992-09-27 03:00,ZBAA 270300Z AUTO 32004KT 3SM 17/10 A3009 RMK SLP208 T01730104 54000 IEM_DS3505
ZBAA,1992-09-27 04:00,ZBAA 270400Z AUTO 19008KT 7SM 20/11 A3009 RMK SLP204 T02000110 IEM_DS3505
ZBAA,1992-09-27 05:00,ZBAA 270500Z AUTO 21006KT 6SM 22/11 A3006 RMK SLP193 T02200110 IEM_DS3505
ZBAA,1992-09-27 06:00,ZBAA 270600Z AUTO 20012KT 4SM 23/08 A3003 RMK SLP184 T02260075 4////0114 57024 IEM_DS3505
ZBAA,1992-09-27 07:00,ZBAA 270700Z AUTO 21008KT 6SM 23/09 A3000 RMK SLP173 T02300090 IEM_DS3505
ZBAA,1992-09-27 08:00,ZBAA 270800Z AUTO 23006KT 6SM 23/10 A2997 RMK SLP163 T02300100 IEM_DS3505
ZBAA,1992-09-27 09:00,ZBAA 270900Z AUTO 20008KT 3SM 23/08 A2994 RMK SLP165 T02280078 57019 IEM_DS3505
ZBAA,1992-09-27 10:00,ZBAA 271000Z AUTO 16004KT 6SM 21/09 A2994 RMK SLP152 T02100090 IEM_DS3505
ZBAA,1992-09-27 11:00,ZBAA 271100Z AUTO 17006KT 6SM 20/09 A2997 RMK SLP164 T02000090 IEM_DS3505
ZBAA,1992-09-27 12:00,ZBAA 271200Z AUTO 20008KT 7SM 20/08 A2997 RMK SLP165 T02000083 54000 IEM_DS3505
ZBAA,1992-09-27 13:00,ZBAA 271300Z AUTO 16004KT 6SM 17/09 A2997 RMK SLP164 T01700090 IEM_DS3505
ZBAA,1992-09-27 14:00,ZBAA 271400Z AUTO 18010KT 6SM 18/08 A2997 RMK SLP164 T01800080 IEM_DS3505
ZBAA,1992-09-27 15:00,ZBAA 271500Z AUTO 18012KT 12SM 18/07 A2994 RMK SLP162 T01840074 57003 IEM_DS3505
ZBAA,1992-09-27 16:00,ZBAA 271600Z AUTO 17008KT 6SM 17/08 A2994 RMK SLP153 T01700080 IEM_DS3505
ZBAA,1992-09-27 17:00,ZBAA 271700Z AUTO 17006KT 6SM 17/09 A2991 RMK SLP143 T01700090 IEM_DS3505
ZBAA,1992-09-27 18:00,ZBAA 271800Z AUTO 20010KT 12SM 17/09 A2991 RMK SLP145 T01660091 40233//// 57017 IEM_DS3505
ZBAA,1992-09-27 19:00,ZBAA 271900Z AUTO 19010KT 6SM 16/10 A2991 RMK SLP143 T01600100 IEM_DS3505
ZBAA,1992-09-27 20:00,ZBAA 272000Z AUTO 17004KT 6SM 15/11 A2991 RMK SLP144 T01500110 IEM_DS3505
ZBAA,1992-09-27 21:00,ZBAA 272100Z AUTO 20006KT 12SM 15/09 A2991 RMK SLP139 T01480089 57006 IEM_DS3505
ZBAA,1992-09-27 22:00,ZBAA 272200Z AUTO 12002KT 6SM 14/10 A2991 RMK SLP144 T01400100 IEM_DS3505
ZBAA,1992-09-27 23:00,ZBAA 272300Z AUTO 12004KT 6SM 14/10 A2991 RMK SLP144 T01400100 IEM_DS3505
ZBAA,1992-09-28 00:00,ZBAA 280000Z AUTO 18004KT 6SM 15/09 A2991 RMK SLP142 T01460092 52003 IEM_DS3505
ZBAA,1992-09-28 01:00,ZBAA 280100Z AUTO 17006KT 7SM 16/11 A2980 RMK SLP106 T01600110 IEM_DS3505
ZBAA,1992-09-28 02:00,ZBAA 280200Z AUTO 16004KT 7SM 17/11 A2988 RMK SLP133 T01700110 IEM_DS3505
ZBAA,1992-09-28 03:00,ZBAA 280300Z AUTO 04004KT 5SM 18/12 A2987 RMK SLP129 T01780116 57013 IEM_DS3505
ZBAA,1992-09-28 04:00,ZBAA 280400Z AUTO 14002KT 5SM 19/13 A2983 RMK SLP116 T01900130 IEM_DS3505
ZBAA,1992-09-28 05:00,ZBAA 280500Z AUTO 14006KT 4SM 20/13 A2980 RMK SLP105 T02000130 IEM_DS3505
ZBAA,1992-09-28 06:00,ZBAA 280600Z AUTO 20006KT 6SM 21/10 A2977 RMK SLP100 T02080102 4////0139 57028 IEM_DS3505
ZBAA,1992-09-28 07:00,ZBAA 280700Z AUTO 19006KT 5SM 21/13 A2974 RMK SLP085 T02100130 IEM_DS3505
ZBAA,1992-09-28 08:00,ZBAA 280800Z AUTO 18004KT 5SM 20/13 A2974 RMK SLP085 T02000130 IEM_DS3505
ZBAA,1992-09-28 09:00,ZBAA 280900Z AUTO 09002KT 3SM 21/12 A2974 RMK SLP093 T02080115 57008 IEM_DS3505
ZBAA,1992-09-28 10:00,ZBAA 281000Z AUTO 35016KT 7SM 19/04 A2980 RMK SLP105 T01900040 IEM_DS3505
ZBAA,1992-09-28 11:00,ZBAA 281100Z AUTO 29004KT 7SM 17/04 A2980 RMK SLP106 T01700040 IEM_DS3505
ZBAA,1992-09-28 12:00,ZBAA 281200Z AUTO 32006KT 5SM 17/04 A2981 RMK SLP109 T01660043 52016 IEM_DS3505
ZBAA,1992-09-28 13:00,ZBAA 281300Z AUTO 05002KT 7SM 15/04 A2983 RMK SLP116 T01500040 IEM_DS3505
ZBAA,1992-09-28 14:00,ZBAA 281400Z AUTO 07002KT 7SM 13/05 A2983 RMK SLP117 T01300050 IEM_DS3505
ZBAA,1992-09-28 15:00,ZBAA 281500Z AUTO 36004KT 6SM 15/05 A2983 RMK SLP112 T01520048 52003 IEM_DS3505
ZBAA,1992-09-28 16:00,ZBAA 281600Z AUTO 35004KT 7SM 12/06 A2983 RMK SLP117 T01200060 IEM_DS3505
ZBAA,1992-09-28 17:00,ZBAA 281700Z AUTO 30004KT 7SM 12/05 A2983 RMK SLP117 T01200050 IEM_DS3505
ZBAA,1992-09-28 18:00,ZBAA 281800Z AUTO 36008KT 19SM 16/02 A2983 RMK SLP118 T01630017 40215//// 52006 IEM_DS3505
ZBAA,1992-09-28 19:00,ZBAA 281900Z AUTO 30008KT 7SM 13/04 A2985 RMK SLP124 T01300040 IEM_DS3505
ZBAA,1992-09-28 20:00,ZBAA 282000Z AUTO 29006KT 7SM 13/04 A2985 RMK SLP124 T01300040 IEM_DS3505
ZBAA,1992-09-28 21:00,ZBAA 282100Z AUTO 00000KT 19SM 12/04 A2985 RMK SLP125 T01220035 52007 IEM_DS3505
ZBAA,1992-09-28 22:00,ZBAA 282200Z AUTO 27006KT 7SM 11/04 A2985 RMK SLP124 T01100040 IEM_DS3505
ZBAA,1992-09-28 23:00,ZBAA 282300Z AUTO 35004KT 7SM 12/05 A2988 RMK SLP134 T01200050 IEM_DS3505
ZBAA,1992-09-29 00:00,ZBAA 290000Z AUTO 02008KT 19SM 15/03 A2988 RMK SLP135 T01480031 52010 IEM_DS3505
ZBAA,1992-09-29 01:00,ZBAA 290100Z AUTO 33008KT 7SM 17/05 A2991 RMK SLP143 T01700050 IEM_DS3505
ZBAA,1992-09-29 02:00,ZBAA 290200Z AUTO 32008KT 7SM 19/05 A2988 RMK SLP133 T01900050 IEM_DS3505
ZBAA,1992-09-29 03:00,ZBAA 290300Z AUTO 20004KT 12SM 20/03 A2988 RMK SLP134 T01980034 57001 IEM_DS3505
ZBAA,1992-09-29 04:00,ZBAA 290400Z AUTO 24004KT 7SM 20/04 A2985 RMK SLP122 T02000040 IEM_DS3505
ZBAA,1992-09-29 05:00,ZBAA 290500Z AUTO 24006KT 7SM 21/05 A2985 RMK SLP122 T02100050 IEM_DS3505
ZBAA,1992-09-29 06:00,ZBAA 290600Z AUTO 20008KT 16SM 22/02 A2983 RMK SLP112 T02220024 4////0099 57021 IEM_DS3505
ZBAA,1992-09-29 07:00,ZBAA 290700Z AUTO 20008KT 7SM 22/05 A2980 RMK SLP105 T02200050 IEM_DS3505
ZBAA,1992-09-29 08:00,ZBAA 290800Z AUTO 20008KT 6SM 21/05 A2980 RMK SLP105 T02100050 IEM_DS3505
ZBAA,1992-09-29 09:00,ZBAA 290900Z AUTO 18008KT 12SM 22/04 A2980 RMK SLP107 T02220044 57006 IEM_DS3505
ZBAA,1992-09-29 11:00,ZBAA 291100Z AUTO 11002KT 6SM 18/07 A2980 RMK SLP106 T01800070 IEM_DS3505
ZBAA,1992-09-29 12:00,ZBAA 291200Z AUTO 14002KT 11SM 17/08 A2983 RMK SLP113 T01740083 52006 IEM_DS3505
ZBAA,1992-09-29 13:00,ZBAA 291300Z AUTO 12002KT 6SM 16/08 A2983 RMK SLP116 T01600080 IEM_DS3505
ZBAA,1992-09-29 14:00,ZBAA 291400Z AUTO 14004KT 6SM 15/08 A2983 RMK SLP116 T01500080 IEM_DS3505
ZBAA,1992-09-29 15:00,ZBAA 291500Z AUTO 16004KT 6SM 16/07 A2985 RMK SLP116 T01600069 52003 IEM_DS3505
ZBAA,1992-09-29 16:00,ZBAA 291600Z AUTO 00000KT 6SM 13/09 A2985 RMK SLP124 T01300090 IEM_DS3505
ZBAA,1992-09-29 17:00,ZBAA 291700Z AUTO 08004KT 6SM 13/10 A2983 RMK SLP117 T01300100 IEM_DS3505
ZBAA,1992-09-29 18:00,ZBAA 291800Z AUTO 36002KT 6SM 14/10 A2983 RMK SLP114 T01420098 40230//// 57002 IEM_DS3505
ZBAA,1992-09-29 19:00,ZBAA 291900Z AUTO 06002KT 6SM 13/10 A2983 RMK SLP117 T01300100 IEM_DS3505
ZBAA,1992-09-29 20:00,ZBAA 292000Z AUTO 09002KT 6SM 13/11 A2983 RMK SLP117 T01300110 IEM_DS3505
ZBAA,1992-09-29 21:00,ZBAA 292100Z AUTO 02004KT 6SM 13/10 A2980 RMK SLP110 T01340095 57004 IEM_DS3505
ZBAA,1992-09-29 22:00,ZBAA 292200Z AUTO 33006KT 6SM 13/11 A2983 RMK SLP117 T01300110 IEM_DS3505
ZBAA,1992-09-29 23:00,ZBAA 292300Z AUTO 00000KT 6SM 14/11 A2983 RMK SLP117 T01400110 IEM_DS3505
ZBAA,1992-09-30 00:00,ZBAA 300000Z AUTO 02008KT 6SM 14/09 A2985 RMK SLP114 T01450090 52004 IEM_DS3505
ZBAA,1992-09-30 01:00,ZBAA 300100Z AUTO 02008KT 6SM 16/11 A2983 RMK SLP114 T01600110 52004 IEM_DS3505
ZBAA,1992-09-30 02:00,ZBAA 300200Z AUTO 13002KT 6SM 17/12 A2983 RMK SLP116 T01700120 IEM_DS3505
ZBAA,1992-09-30 03:00,ZBAA 300300Z AUTO 36002KT 5SM 18/10 A2982 RMK SLP113 T01810099 57001 IEM_DS3505
ZBAA,1992-09-30 04:00,ZBAA 300400Z AUTO 06004KT 7SM 21/13 A2980 RMK SLP105 T02100130 IEM_DS3505
ZBAA,1992-09-30 05:00,ZBAA 300500Z AUTO 13002KT 7SM 22/13 A2977 RMK SLP095 T02200130 IEM_DS3505
ZBAA,1992-09-30 06:00,ZBAA 300600Z AUTO 04004KT 4SM 21/12 A2974 RMK SLP096 T02130117 4////0130 57017 IEM_DS3505
ZBAA,1992-09-30 07:00,ZBAA 300700Z AUTO 14004KT 7SM 23/14 A2974 RMK SLP084 T02300140 IEM_DS3505
ZBAA,1992-09-30 08:00,ZBAA 300800Z AUTO 14002KT 7SM 23/14 A2974 RMK SLP084 T02300140 IEM_DS3505
ZBAA,1992-09-30 09:00,ZBAA 300900Z AUTO 27002KT 5SM 22/14 A2974 RMK SLP093 T02220137 57003 IEM_DS3505
ZBAA,1992-09-30 10:00,ZBAA 301000Z AUTO 26002KT 7SM 20/15 A2977 RMK SLP095 T02000150 IEM_DS3505
ZBAA,1992-09-30 11:00,ZBAA 301100Z AUTO 00000KT 7SM 19/15 A2977 RMK SLP095 T01900150 IEM_DS3505
ZBAA,1992-09-30 12:00,ZBAA 301200Z AUTO 29002KT 4SM 18/14 A2980 RMK SLP103 T01800138 52010 IEM_DS3505
ZBAA,1992-09-30 13:00,ZBAA 301300Z AUTO 02002KT 2SM 18/14 A2980 RMK SLP106 T01800140 IEM_DS3505
ZBAA,1992-09-30 14:00,ZBAA 301400Z AUTO 35002KT 2SM 17/15 A2983 RMK SLP116 T01700150 IEM_DS3505
ZBAA,1992-09-30 15:00,ZBAA 301500Z AUTO 02002KT 2 1/2SM 16/14 A2983 RMK SLP115 T01580137 52012 IEM_DS3505
ZBAA,1992-09-30 16:00,ZBAA 301600Z AUTO 02002KT 2SM 16/14 A2983 RMK SLP116 T01600140 IEM_DS3505
ZBAA,1992-09-30 17:00,ZBAA 301700Z AUTO 00000KT 2SM 15/14 A2980 RMK SLP106 T01500140 IEM_DS3505
ZBAA,1992-09-30 18:00,ZBAA 301800Z AUTO 00000KT 1SM 14/13 A2980 RMK SLP110 T01450132 40229//// 57005 IEM_DS3505
ZBAA,1992-09-30 19:00,ZBAA 301900Z AUTO 00000KT 2SM 14/14 A2980 RMK SLP107 T01400140 IEM_DS3505
ZBAA,1992-09-30 20:00,ZBAA 302000Z AUTO 36002KT 2SM 14/14 A2980 RMK SLP107 T01400140 IEM_DS3505
ZBAA,1992-09-30 21:00,ZBAA 302100Z AUTO 02004KT 1 1/4SM 15/13 A2983 RMK SLP112 T01500128 52002 IEM_DS3505
ZBAA,1992-09-30 22:00,ZBAA 302200Z AUTO 00000KT 2SM 14/14 A2983 RMK SLP117 T01400140 IEM_DS3505
ZBAA,1992-09-30 23:00,ZBAA 302300Z AUTO 32002KT 1 1/2SM 15/14 A2983 RMK SLP116 T01500140 IEM_DS3505
ZBAA,1992-10-01 00:00,ZBAA 010000Z AUTO 04004KT 1 1/2SM 16/14 A2984 RMK SLP117 T01640143 IEM_DS3505
ZBAA,1992-10-01 01:00,ZBAA 010100Z AUTO 06002KT 1 1/2SM 17/16 A2985 RMK SLP121 T01700160 IEM_DS3505
ZBAA,1992-10-01 02:00,ZBAA 010200Z AUTO 10002KT 1 1/2SM 18/16 A2988 RMK SLP131 T01800160 IEM_DS3505
ZBAA,1992-10-01 03:00,ZBAA 010300Z AUTO 32006KT 2SM 20/15 A2987 RMK SLP129 T01960150 52012 IEM_DS3505
ZBAA,1992-10-01 04:00,ZBAA 010400Z AUTO 15006KT 2 1/2SM 22/17 A2985 RMK SLP120 T02200170 IEM_DS3505
ZBAA,1992-10-01 05:00,ZBAA 010500Z AUTO 16006KT 3SM 22/16 A2985 RMK SLP120 T02200160 IEM_DS3505
ZBAA,1992-10-01 06:00,ZBAA 010600Z AUTO 36002KT 2SM 22/16 A2986 RMK SLP123 T02200161 4////0139 57006 IEM_DS3505
ZBAA,1992-10-01 06:06,ZBAA 010606Z AUTO 19006KT 3SM RMK IEM_DS3505
ZBAA,1992-10-01 08:00,ZBAA 010800Z AUTO 15002KT 5SM 22/16 A2983 RMK SLP113 T02200160 IEM_DS3505
ZBAA,1992-10-01 09:00,ZBAA 010900Z AUTO 34002KT 2 1/2SM 22/17 A2983 RMK SLP119 T02220169 57004 IEM_DS3505
ZBAA,1992-10-01 10:00,ZBAA 011000Z AUTO 02002KT 3SM 20/16 A2983 RMK SLP113 T02000160 IEM_DS3505
ZBAA,1992-10-01 11:00,ZBAA 011100Z AUTO 01004KT 2 1/2SM 20/16 A2985 RMK SLP120 T02000160 IEM_DS3505
ZBAA,1992-10-01 12:00,ZBAA 011200Z AUTO 34006KT 2 1/2SM 20/16 A2988 RMK SLP137 T02030165 52018 IEM_DS3505
ZBAA,1992-10-01 13:00,ZBAA 011300Z AUTO 01002KT 2 1/2SM 20/16 A2991 RMK SLP140 T02000160 IEM_DS3505
ZBAA,1992-10-01 14:00,ZBAA 011400Z AUTO 36006KT 1 1/2SM 20/16 A2994 RMK SLP151 T02000160 IEM_DS3505
ZBAA,1992-10-01 15:00,ZBAA 011500Z AUTO 36010KT 3SM 20/15 A2994 RMK SLP147 T02000153 52010 IEM_DS3505
ZBAA,1992-10-01 16:00,ZBAA 011600Z AUTO 02006KT 7SM 19/15 A2991 RMK SLP141 T01900150 IEM_DS3505
ZBAA,1992-10-01 17:00,ZBAA 011700Z AUTO 02008KT 7SM 19/15 A2994 RMK SLP151 T01900150 IEM_DS3505
ZBAA,1992-10-01 18:00,ZBAA 011800Z AUTO 02008KT 9SM 19/13 A2994 RMK SLP146 T01920127 40230//// 54000 IEM_DS3505
ZBAA,1992-10-01 19:00,ZBAA 011900Z AUTO 01010G19KT 7SM 18/13 A2994 RMK SLP151 T01800130 IEM_DS3505
ZBAA,1992-10-01 20:00,ZBAA 012000Z AUTO 01012KT 7SM 18/13 A2991 RMK SLP141 T01800130 IEM_DS3505
ZBAA,1992-10-01 21:00,ZBAA 012100Z AUTO 36010KT 9SM 18/12 A2994 RMK SLP152 T01830118 52006 IEM_DS3505
ZBAA,1992-10-01 22:00,ZBAA 012200Z AUTO 02012KT 7SM 15/13 A2994 RMK SLP152 T01500130 IEM_DS3505
ZBAA,1992-10-01 23:00,ZBAA 012300Z AUTO 35019KT 7SM 14/14 A3003 RMK SLP182 T01400140 IEM_DS3505
ZBAA,1992-10-02 00:00,ZBAA 020000Z AUTO 36010KT 6SM 14/12 A3006 RMK 60024 70232 SLP197 T01430121 52044 IEM_DS3505
ZBAA,1992-10-02 01:00,ZBAA 020100Z AUTO 01008KT 7SM 13/13 A3012 RMK SLP214 T01300130 IEM_DS3505
ZBAA,1992-10-02 02:00,ZBAA 020200Z AUTO 02014G23KT 7SM 13/12 A3009 RMK SLP203 T01300120 IEM_DS3505
ZBAA,1992-10-02 03:00,ZBAA 020300Z AUTO 02010G31KT 19SM 14/10 A3009 RMK SLP201 T01420098 52004 IEM_DS3505
ZBAA,1992-10-02 04:00,ZBAA 020400Z AUTO 02014G23KT 7SM 12/10 A3012 RMK SLP214 T01200100 IEM_DS3505
ZBAA,1992-10-02 05:00,ZBAA 020500Z AUTO 01012KT 7SM 11/11 A3015 RMK SLP224 T01100110 IEM_DS3505
ZBAA,1992-10-02 06:00,ZBAA 020600Z AUTO 04008KT 19SM 13/09 A3015 RMK 60020 SLP217 T01270091 4////0121 52015 IEM_DS3505
ZBAA,1992-10-02 07:00,ZBAA 020700Z AUTO 02008KT 7SM 12/12 A3012 RMK SLP214 T01200120 IEM_DS3505
ZBAA,1992-10-02 08:00,ZBAA 020800Z AUTO 01008KT 6SM 13/11 A3015 RMK SLP224 T01300110 IEM_DS3505
ZBAA,1992-10-02 09:00,ZBAA 020900Z AUTO 07008KT 19SM 14/07 A3015 RMK SLP223 T01370069 52006 IEM_DS3505
ZBAA,1992-10-02 10:00,ZBAA 021000Z AUTO 04004KT 6SM 12/08 A3018 RMK SLP234 T01200080 IEM_DS3505
ZBAA,1992-10-02 12:00,ZBAA 021200Z AUTO 04008KT 19SM 12/06 A3024 RMK SLP247 T01240058 52023 IEM_DS3505
ZBAA,1992-10-02 13:00,ZBAA 021300Z AUTO 00000KT 6SM 10/07 A3027 RMK SLP265 T01000070 IEM_DS3505
ZBAA,1992-10-02 14:00,ZBAA 021400Z AUTO 34006KT 6SM 11/06 A3027 RMK SLP264 T01100060 IEM_DS3505
ZBAA,1992-10-02 15:00,ZBAA 021500Z AUTO 36004KT 11SM 11/06 A3027 RMK SLP259 T01070064 52012 IEM_DS3505
ZBAA,1992-10-02 16:00,ZBAA 021600Z AUTO 01004KT 6SM 11/06 A3027 RMK SLP264 T01100060 IEM_DS3505
ZBAA,1992-10-02 17:00,ZBAA 021700Z AUTO 34004KT 6SM 10/07 A3027 RMK SLP265 T01000070 IEM_DS3505
ZBAA,1992-10-02 18:00,ZBAA 021800Z AUTO 00000KT 9SM 11/08 A3027 RMK SLP260 T01080079 40192//// 52001 IEM_DS3505
ZBAA,1992-10-02 19:00,ZBAA 021900Z AUTO 32004KT 6SM 10/07 A3030 RMK SLP275 T01000070 IEM_DS3505
ZBAA,1992-10-02 20:00,ZBAA 022000Z AUTO 02002KT 6SM 10/06 A3030 RMK SLP275 T01000060 IEM_DS3505
ZBAA,1992-10-02 21:00,ZBAA 022100Z AUTO 02004KT 9SM 10/08 A3030 RMK 70043 SLP271 T01020075 52011 IEM_DS3505
ZBAA,1992-10-02 22:00,ZBAA 022200Z AUTO 02004KT 6SM 08/05 A3030 RMK SLP275 T00800050 IEM_DS3505
ZBAA,1992-10-02 23:00,ZBAA 022300Z AUTO 01008KT 6SM 09/05 A3033 RMK SLP286 T00900050 IEM_DS3505
ZBAA,1992-10-03 00:00,ZBAA 030000Z AUTO 36004KT 16SM 11/06 A3033 RMK 70201 SLP280 T01080065 52009 IEM_DS3505
ZBAA,1992-10-03 01:00,ZBAA 030100Z AUTO 04006KT 6SM 13/05 A3033 RMK SLP285 T01300050 IEM_DS3505
ZBAA,1992-10-03 02:00,ZBAA 030200Z AUTO 04010KT 6SM 15/04 A3033 RMK SLP285 T01500040 IEM_DS3505
ZBAA,1992-10-03 03:00,ZBAA 030300Z AUTO 09006KT 19SM 16/M00 A3032 RMK SLP280 T01581003 54000 IEM_DS3505
ZBAA,1992-10-03 04:00,ZBAA 030400Z AUTO 02002KT 6SM 16/01 A3030 RMK SLP273 T01600010 IEM_DS3505
ZBAA,1992-10-03 05:00,ZBAA 030500Z AUTO 11002KT 6SM 16/02 A3027 RMK SLP263 T01600020 IEM_DS3505
ZBAA,1992-10-03 06:00,ZBAA 030600Z AUTO 18004KT 19SM 18/01 A3027 RMK SLP258 T01790006 4////0090 57021 IEM_DS3505
ZBAA,1992-10-03 07:00,ZBAA 030700Z AUTO 22002KT 6SM 17/03 A3024 RMK SLP253 T01700030 IEM_DS3505
ZBAA,1992-10-03 08:00,ZBAA 030800Z AUTO 19004KT 6SM 16/02 A3024 RMK SLP253 T01600020 IEM_DS3505
ZBAA,1992-10-03 09:00,ZBAA 030900Z AUTO 20008KT 19SM 16/00 A3024 RMK SLP256 T01610002 57003 IEM_DS3505
ZBAA,1992-10-03 10:00,ZBAA 031000Z AUTO 19006KT 6SM 14/03 A3027 RMK SLP264 T01400030 IEM_DS3505
ZBAA,1992-10-03 11:00,ZBAA 031100Z AUTO 17004KT 6SM 13/04 A3027 RMK SLP264 T01300040 IEM_DS3505
ZBAA,1992-10-03 12:00,ZBAA 031200Z AUTO 22004KT 19SM 13/04 A3030 RMK SLP263 T01280036 52007 IEM_DS3505
ZBAA,1992-10-03 13:00,ZBAA 031300Z AUTO 13002KT 6SM 11/05 A3030 RMK SLP274 T01100050 IEM_DS3505
ZBAA,1992-10-03 14:00,ZBAA 031400Z AUTO 00000KT 6SM 10/06 A3033 RMK SLP286 T01000060 IEM_DS3505
ZBAA,1992-10-03 15:00,ZBAA 031500Z AUTO 04006KT 19SM 11/05 A3033 RMK SLP283 T01130049 52020 IEM_DS3505
ZBAA,1992-10-03 16:00,ZBAA 031600Z AUTO 01006KT 6SM 10/07 A3036 RMK SLP296 T01000070 IEM_DS3505
ZBAA,1992-10-03 17:00,ZBAA 031700Z AUTO 04006KT 6SM 10/06 A3039 RMK SLP306 T01000060 IEM_DS3505
ZBAA,1992-10-03 18:00,ZBAA 031800Z AUTO 34002KT 12SM 11/06 A3039 RMK SLP300 T01060056 40180//// 52017 IEM_DS3505
ZBAA,1992-10-03 19:00,ZBAA 031900Z AUTO 01006KT 6SM 11/05 A3039 RMK SLP306 T01100050 IEM_DS3505
ZBAA,1992-10-03 20:00,ZBAA 032000Z AUTO 06004KT 6SM 11/04 A3039 RMK SLP306 T01100040 IEM_DS3505
ZBAA,1992-10-03 21:00,ZBAA 032100Z AUTO 36010KT 12SM 11/00 A3042 RMK SLP310 T01120004 52010 IEM_DS3505
ZBAA,1992-10-03 22:00,ZBAA 032200Z AUTO 36006KT 6SM 10/02 A3042 RMK SLP316 T01000020 IEM_DS3505
ZBAA,1992-10-03 23:00,ZBAA 032300Z AUTO 35006KT 6SM 09/03 A3045 RMK SLP326 T00900030 IEM_DS3505
ZBAA,1992-10-04 00:00,ZBAA 040000Z AUTO 02008KT 7SM 11/00 A3047 RMK SLP328 T01120001 52018 IEM_DS3505
ZBAA,1992-10-04 01:00,ZBAA 040100Z AUTO 35012KT 6SM 13/00 A3047 RMK SLP332 T01300000 IEM_DS3505
ZBAA,1992-10-04 02:00,ZBAA 040200Z AUTO 33012KT 6SM 14/M03 A3047 RMK SLP332 T01401030 IEM_DS3505
ZBAA,1992-10-04 03:00,ZBAA 040300Z AUTO 34010KT 19SM 14/M04 A3045 RMK SLP324 T01401038 57004 IEM_DS3505
ZBAA,1992-10-04 04:00,ZBAA 040400Z AUTO 01006KT 6SM 15/M03 A3042 RMK SLP315 T01501030 IEM_DS3505
ZBAA,1992-10-04 05:00,ZBAA 040500Z AUTO 34006KT 6SM 16/M03 A3039 RMK SLP304 T01601030 IEM_DS3505
ZBAA,1992-10-04 06:00,ZBAA 040600Z AUTO 36008KT 16SM 17/M06 A3038 RMK SLP300 T01671064 4////0097 57024 IEM_DS3505
ZBAA,1992-10-04 07:00,ZBAA 040700Z AUTO 33008KT 6SM 17/M03 A3036 RMK SLP294 T01701030 IEM_DS3505
ZBAA,1992-10-04 08:00,ZBAA 040800Z AUTO 33010KT 6SM 17/M02 A3033 RMK SLP284 T01701020 IEM_DS3505
ZBAA,1992-10-04 09:00,ZBAA 040900Z AUTO 29006KT 19SM 17/M01 A3034 RMK SLP287 T01681011 57013 IEM_DS3505
ZBAA,1992-10-04 10:00,ZBAA 041000Z AUTO 17004KT 6SM 14/01 A3033 RMK SLP285 T01400010 IEM_DS3505
ZBAA,1992-10-04 11:00,ZBAA 041100Z AUTO 28002KT 6SM 12/02 A3036 RMK SLP295 T01200020 IEM_DS3505
ZBAA,1992-10-04 12:00,ZBAA 041200Z AUTO 29004KT 12SM 12/02 A3036 RMK SLP295 T01190015 52008 IEM_DS3505
ZBAA,1992-10-04 13:00,ZBAA 041300Z AUTO 03002KT 6SM 12/M01 A3039 RMK SLP305 T01201010 IEM_DS3505
ZBAA,1992-10-04 14:00,ZBAA 041400Z AUTO 01006KT 6SM 11/M01 A3039 RMK SLP306 T01101010 IEM_DS3505
ZBAA,1992-10-04 15:00,ZBAA 041500Z AUTO 36002KT 12SM 12/M04 A3039 RMK SLP299 T01161037 52004 IEM_DS3505
ZBAA,1992-10-04 16:00,ZBAA 041600Z AUTO 30008KT 6SM 10/M02 A3039 RMK SLP306 T01001020 IEM_DS3505
ZBAA,1992-10-04 17:00,ZBAA 041700Z AUTO 30008KT 6SM 10/M03 A3039 RMK SLP306 T01001030 IEM_DS3505
ZBAA,1992-10-04 18:00,ZBAA 041800Z AUTO 32004KT 16SM 07/01 A3039 RMK SLP302 T00730010 40175//// 52003 IEM_DS3505
ZBAA,1992-10-04 19:00,ZBAA 041900Z AUTO 28006KT 7SM 07/M02 A3039 RMK SLP307 T00701020 IEM_DS3505
ZBAA,1992-10-04 20:00,ZBAA 042000Z AUTO 03002KT 7SM 06/M01 A3039 RMK SLP307 T00601010 IEM_DS3505
ZBAA,1992-10-04 21:00,ZBAA 042100Z AUTO 34004KT 12SM 07/M00 A3039 RMK SLP301 T00661002 57001 IEM_DS3505
ZBAA,1992-10-04 22:00,ZBAA 042200Z AUTO 33006KT 7SM 05/01 A3039 RMK SLP307 T00500010 IEM_DS3505
ZBAA,1992-10-04 23:00,ZBAA 042300Z AUTO 36006KT 7SM 08/00 A3042 RMK SLP316 T00800000 IEM_DS3505
ZBAA,1992-10-05 00:00,ZBAA 050000Z AUTO 02004KT 12SM 11/M00 A3042 RMK SLP314 T01131004 52013 IEM_DS3505
ZBAA,1992-10-05 01:00,ZBAA 050100Z AUTO 34006KT 7SM 13/02 A3045 RMK SLP325 T01300020 IEM_DS3505
ZBAA,1992-10-05 02:00,ZBAA 050200Z AUTO 36006KT 7SM 15/01 A3045 RMK SLP325 T01500010 IEM_DS3505
ZBAA,1992-10-05 03:00,ZBAA 050300Z AUTO 36006KT 16SM 17/M03 A3042 RMK SLP312 T01671026 57002 IEM_DS3505
ZBAA,1992-10-05 04:00,ZBAA 050400Z AUTO 36006KT 7SM 18/00 A3039 RMK SLP304 T01800000 IEM_DS3505
ZBAA,1992-10-05 05:00,ZBAA 050500Z AUTO 36004KT 7SM 18/M01 A3036 RMK SLP294 T01801010 IEM_DS3505
ZBAA,1992-10-05 06:00,ZBAA 050600Z AUTO 32002KT 19SM 19/M04 A3034 RMK SLP288 T01861042 4////0049 57024 IEM_DS3505
ZBAA,1992-10-05 07:00,ZBAA 050700Z AUTO 21004KT 6SM 18/M01 A3033 RMK SLP284 T01801010 IEM_DS3505
ZBAA,1992-10-05 08:00,ZBAA 050800Z AUTO 21004KT 6SM 18/M01 A3030 RMK SLP273 T01801010 IEM_DS3505
ZBAA,1992-10-05 09:00,ZBAA 050900Z AUTO 20006KT 11SM 18/M02 A3030 RMK SLP275 T01801024 57013 IEM_DS3505
ZBAA,1992-10-05 10:00,ZBAA 051000Z AUTO 17002KT 6SM 15/01 A3030 RMK SLP273 T01500010 IEM_DS3505
ZBAA,1992-10-05 11:00,ZBAA 051100Z AUTO 20006KT 6SM 14/02 A3030 RMK SLP274 T01400020 IEM_DS3505
ZBAA,1992-10-05 12:00,ZBAA 051200Z AUTO 20006KT 12SM 14/02 A3030 RMK SLP278 T01350016 52003 IEM_DS3505
ZBAA,1992-10-05 13:00,ZBAA 051300Z AUTO 19006KT 6SM 12/02 A3030 RMK SLP274 T01200020 IEM_DS3505
ZBAA,1992-10-05 14:00,ZBAA 051400Z AUTO 19002KT 6SM 10/04 A3030 RMK SLP275 T01000040 IEM_DS3505
ZBAA,1992-10-05 15:00,ZBAA 051500Z AUTO 18006KT 6SM 11/03 A3030 RMK SLP274 T01120032 57004 IEM_DS3505
ZBAA,1992-10-05 16:00,ZBAA 051600Z AUTO 00000KT 6SM 08/06 A3030 RMK SLP275 T00800060 IEM_DS3505
ZBAA,1992-10-05 17:00,ZBAA 051700Z AUTO 00000KT 6SM 09/06 A3030 RMK SLP275 T00900060 IEM_DS3505
ZBAA,1992-10-05 18:00,ZBAA 051800Z AUTO 00000KT 6SM 09/05 A3027 RMK SLP267 T00930053 40190//// 57007 IEM_DS3505
ZBAA,1992-10-05 19:00,ZBAA 051900Z AUTO 36002KT 6SM 08/06 A3027 RMK SLP265 T00800060 IEM_DS3505
ZBAA,1992-10-05 20:00,ZBAA 052000Z AUTO 36002KT 6SM 08/07 A3027 RMK SLP265 T00800070 IEM_DS3505
ZBAA,1992-10-05 21:00,ZBAA 052100Z AUTO 00000KT 6SM 08/05 A3027 RMK SLP259 T00850049 57008 IEM_DS3505
ZBAA,1992-10-05 22:00,ZBAA 052200Z AUTO 03002KT 6SM 08/06 A3024 RMK SLP255 T00800060 IEM_DS3505
ZBAA,1992-10-05 23:00,ZBAA 052300Z AUTO 03002KT 6SM 08/06 A3024 RMK SLP255 T00800060 IEM_DS3505
ZBAA,1992-10-06 00:00,ZBAA 060000Z AUTO 04004KT 5SM 10/04 A3025 RMK SLP256 T01000036 57003 IEM_DS3505
ZBAA,1992-10-06 01:00,ZBAA 060100Z AUTO 12002KT 6SM 10/06 A3024 RMK SLP255 T01000060 IEM_DS3505
ZBAA,1992-10-06 02:00,ZBAA 060200Z AUTO 11002KT 6SM 13/08 A3024 RMK SLP254 T01300080 IEM_DS3505
ZBAA,1992-10-06 03:00,ZBAA 060300Z AUTO 02004KT 4SM 14/04 A3022 RMK SLP247 T01430035 57009 IEM_DS3505
ZBAA,1992-10-06 04:00,ZBAA 060400Z AUTO 22006KT 6SM 16/05 A3018 RMK SLP233 T01600050 IEM_DS3505
ZBAA,1992-10-06 05:00,ZBAA 060500Z AUTO 20008KT 6SM 16/03 A3015 RMK SLP223 T01600030 IEM_DS3505
ZBAA,1992-10-06 06:00,ZBAA 060600Z AUTO 18008KT 4SM 17/M02 A3013 RMK SLP216 T01721023 4////0081 57030 IEM_DS3505
ZBAA,1992-10-06 07:00,ZBAA 060700Z AUTO 20008KT 6SM 17/00 A3012 RMK SLP213 T01700000 IEM_DS3505
ZBAA,1992-10-06 08:00,ZBAA 060800Z AUTO 17006KT 6SM 17/01 A3012 RMK SLP213 T01700010 IEM_DS3505
ZBAA,1992-10-06 09:00,ZBAA 060900Z AUTO 18008KT 3SM 16/01 A3012 RMK SLP211 T01600008 57006 IEM_DS3505
ZBAA,1992-10-06 10:00,ZBAA 061000Z AUTO 11002KT 6SM 14/05 A3012 RMK SLP213 T01400050 IEM_DS3505
ZBAA,1992-10-06 11:00,ZBAA 061100Z AUTO 00000KT 6SM 14/05 A3012 RMK SLP213 T01400050 IEM_DS3505
ZBAA,1992-10-06 12:00,ZBAA 061200Z AUTO 20006KT 3SM 14/02 A3012 RMK SLP213 T01400021 52002 IEM_DS3505
ZBAA,1992-10-06 13:00,ZBAA 061300Z AUTO 12004KT 6SM 13/06 A3012 RMK SLP214 T01300060 IEM_DS3505
ZBAA,1992-10-06 14:00,ZBAA 061400Z AUTO 12004KT 6SM 11/07 A3012 RMK SLP214 T01100070 IEM_DS3505
ZBAA,1992-10-06 15:00,ZBAA 061500Z AUTO 00000KT 3SM 10/06 A3012 RMK SLP215 T00950055 52002 IEM_DS3505
ZBAA,1992-10-06 16:00,ZBAA 061600Z AUTO 00000KT 4SM 09/07 A3012 RMK SLP214 T00900070 IEM_DS3505
ZBAA,1992-10-06 17:00,ZBAA 061700Z AUTO 00000KT 4SM 08/07 A3012 RMK SLP215 T00800070 IEM_DS3505
ZBAA,1992-10-06 18:00,ZBAA 061800Z AUTO 29002KT 1 1/4SM 08/06 A3011 RMK SLP212 T00760058 40178//// 57003 IEM_DS3505
ZBAA,1992-10-06 19:00,ZBAA 061900Z AUTO 04002KT 2SM 07/07 A3009 RMK SLP205 T00700070 IEM_DS3505
ZBAA,1992-10-06 20:00,ZBAA 062000Z AUTO 00000KT 2SM 07/07 A3009 RMK SLP205 T00700070 IEM_DS3505
ZBAA,1992-10-06 21:00,ZBAA 062100Z AUTO 00000KT 1 1/4SM 07/06 A3009 RMK SLP211 T00670056 57001 IEM_DS3505
ZBAA,1992-10-06 22:00,ZBAA 062200Z AUTO 36002KT 2SM 06/06 A3012 RMK SLP215 T00600060 IEM_DS3505
ZBAA,1992-10-06 23:00,ZBAA 062300Z AUTO 34004KT 2SM 07/07 A3012 RMK SLP215 T00700070 IEM_DS3505
ZBAA,1992-10-07 00:00,ZBAA 070000Z AUTO 36002KT 2 1/2SM 09/06 A3012 RMK SLP219 T00890056 52008 IEM_DS3505
ZBAA,1992-10-07 01:00,ZBAA 070100Z AUTO 34004KT 3SM 12/09 A3015 RMK SLP224 T01200090 IEM_DS3505
ZBAA,1992-10-07 02:00,ZBAA 070200Z AUTO 02002KT 4SM 15/09 A3012 RMK SLP213 T01500090 IEM_DS3505
ZBAA,1992-10-07 03:00,ZBAA 070300Z AUTO 18002KT 2 1/2SM 17/05 A3012 RMK SLP212 T01700048 57006 IEM_DS3505
ZBAA,1992-10-07 04:00,ZBAA 070400Z AUTO 24004KT 7SM 18/08 A3009 RMK SLP202 T01800080 IEM_DS3505
ZBAA,1992-10-07 05:00,ZBAA 070500Z AUTO 19004KT 7SM 20/08 A3006 RMK SLP192 T02000080 IEM_DS3505
ZBAA,1992-10-07 06:00,ZBAA 070600Z AUTO 20008KT 3SM 21/06 A3003 RMK SLP191 T02060061 4////0058 57021 IEM_DS3505
ZBAA,1992-10-07 07:00,ZBAA 070700Z AUTO 19006KT 7SM 21/08 A3003 RMK SLP181 T02100080 IEM_DS3505
ZBAA,1992-10-07 08:00,ZBAA 070800Z AUTO 19006KT 7SM 20/07 A3003 RMK SLP181 T02000070 IEM_DS3505
ZBAA,1992-10-07 09:00,ZBAA 070900Z AUTO 18006KT 5SM 20/06 A3003 RMK SLP188 T02000065 57003 IEM_DS3505
ZBAA,1992-10-07 10:00,ZBAA 071000Z AUTO 00000KT 5SM 16/09 A3003 RMK SLP182 T01600090 IEM_DS3505
ZBAA,1992-10-07 11:00,ZBAA 071100Z AUTO 10002KT 4SM 14/09 A3006 RMK SLP193 T01400090 IEM_DS3505
ZBAA,1992-10-07 12:00,ZBAA 071200Z AUTO 22004KT 2 1/2SM 15/08 A3006 RMK SLP198 T01510084 52009 IEM_DS3505
ZBAA,1992-10-07 13:00,ZBAA 071300Z AUTO 00000KT 4SM 14/09 A3009 RMK SLP203 T01400090 IEM_DS3505
ZBAA,1992-10-07 14:00,ZBAA 071400Z AUTO 00000KT 4SM 12/09 A3009 RMK SLP204 T01200090 IEM_DS3505
ZBAA,1992-10-07 15:00,ZBAA 071500Z AUTO 04006KT 4SM 14/07 A3012 RMK SLP211 T01390074 52014 IEM_DS3505
ZBAA,1992-10-07 16:00,ZBAA 071600Z AUTO 35004KT 2 1/2SM 11/09 A3012 RMK SLP214 T01100090 IEM_DS3505
ZBAA,1992-10-07 17:00,ZBAA 071700Z AUTO 34004KT 2SM 10/09 A3012 RMK SLP214 T01000090 IEM_DS3505
ZBAA,1992-10-07 18:00,ZBAA 071800Z AUTO 09002KT 4SM 10/07 A3012 RMK SLP211 T01030074 40212//// 54000 IEM_DS3505
ZBAA,1992-10-07 21:00,ZBAA 072100Z AUTO 07002KT 6SM 09/07 A3012 RMK SLP216 T00860067 52005 IEM_DS3505
ZBAA,1992-10-07 22:00,ZBAA 072200Z AUTO 36006KT 2 1/2SM 10/08 A3012 RMK SLP214 T01000080 IEM_DS3505
ZBAA,1992-10-07 23:00,ZBAA 072300Z AUTO 35006KT 2 1/2SM 11/08 A3015 RMK SLP224 T01100080 IEM_DS3505
ZBAA,1992-10-08 00:00,ZBAA 080000Z AUTO 04002KT 3SM 12/07 A3018 RMK SLP231 T01210069 52015 IEM_DS3505
ZBAA,1992-10-08 01:00,ZBAA 080100Z AUTO 02006KT 3SM 16/10 A3018 RMK SLP233 T01600100 IEM_DS3505
ZBAA,1992-10-08 02:00,ZBAA 080200Z AUTO 02006KT 7SM 18/08 A3021 RMK SLP243 T01800080 IEM_DS3505
ZBAA,1992-10-08 03:00,ZBAA 080300Z AUTO 07004KT 6SM 20/07 A3018 RMK SLP233 T02010066 52002 IEM_DS3505
ZBAA,1992-10-08 04:00,ZBAA 080400Z AUTO 03004KT 7SM 22/06 A3015 RMK SLP222 T02200060 IEM_DS3505
ZBAA,1992-10-08 05:00,ZBAA 080500Z AUTO 10002KT 7SM 24/06 A3015 RMK SLP221 T02400060 IEM_DS3505
ZBAA,1992-10-08 06:00,ZBAA 080600Z AUTO 16004KT 6SM 25/06 A3012 RMK SLP217 T02490064 4////0073 57015 IEM_DS3505
ZBAA,1992-10-08 07:00,ZBAA 080700Z AUTO 15004KT 7SM 25/01 A3012 RMK SLP211 T02500010 IEM_DS3505
ZBAA,1992-10-08 08:00,ZBAA 080800Z AUTO 21006KT 7SM 24/03 A3012 RMK SLP211 T02400030 IEM_DS3505
ZBAA,1992-10-08 09:00,ZBAA 080900Z AUTO 18004KT 6SM 23/08 A3012 RMK SLP215 T02300076 57003 IEM_DS3505
ZBAA,1992-10-08 10:00,ZBAA 081000Z AUTO 00000KT 7SM 20/05 A3012 RMK SLP212 T02000050 IEM_DS3505
ZBAA,1992-10-08 11:00,ZBAA 081100Z AUTO 00000KT 7SM 19/06 A3012 RMK SLP212 T01900060 IEM_DS3505
ZBAA,1992-10-08 12:00,ZBAA 081200Z AUTO 22004KT 4SM 16/10 A3015 RMK SLP223 T01580099 52008 IEM_DS3505
ZBAA,1992-10-08 13:00,ZBAA 081300Z AUTO 11004KT 7SM 15/09 A3018 RMK SLP233 T01500090 IEM_DS3505
ZBAA,1992-10-08 14:00,ZBAA 081400Z AUTO 11004KT 7SM 13/09 A3021 RMK SLP244 T01300090 IEM_DS3505
ZBAA,1992-10-08 15:00,ZBAA 081500Z AUTO 11004KT 3SM 15/08 A3021 RMK SLP241 T01490084 52018 IEM_DS3505
ZBAA,1992-10-08 16:00,ZBAA 081600Z AUTO 35004KT 7SM 12/09 A3021 RMK SLP244 T01200090 IEM_DS3505
ZBAA,1992-10-08 17:00,ZBAA 081700Z AUTO 35004KT 7SM 13/09 A3021 RMK SLP244 T01300090 IEM_DS3505
ZBAA,1992-10-08 18:00,ZBAA 081800Z AUTO 02006KT 2 1/2SM 13/09 A3021 RMK SLP238 T01260090 40251//// 57002 IEM_DS3505
ZBAA,1992-10-08 19:00,ZBAA 081900Z AUTO 35002KT 7SM 11/08 A3018 RMK SLP234 T01100080 IEM_DS3505
ZBAA,1992-10-08 20:00,ZBAA 082000Z AUTO 33002KT 7SM 10/08 A3018 RMK SLP234 T01000080 IEM_DS3505
ZBAA,1992-10-08 21:00,ZBAA 082100Z AUTO 00000KT 2 1/2SM 11/09 A3019 RMK SLP238 T01110087 57001 IEM_DS3505
ZBAA,1992-10-08 22:00,ZBAA 082200Z AUTO 34002KT 5SM 10/08 A3021 RMK SLP244 T01000080 IEM_DS3505
ZBAA,1992-10-08 23:00,ZBAA 082300Z AUTO 31002KT 6SM 10/09 A3021 RMK SLP244 T01000090 IEM_DS3505
ZBAA,1992-10-09 00:00,ZBAA 090000Z AUTO 00000KT 2 1/2SM 12/09 A3020 RMK SLP242 T01160094 52003 IEM_DS3505
ZBAA,1992-10-09 01:00,ZBAA 090100Z AUTO 34004KT 7SM 14/10 A3021 RMK SLP244 T01400100 IEM_DS3505
ZBAA,1992-10-09 02:00,ZBAA 090200Z AUTO 00000KT 7SM 16/11 A3021 RMK SLP243 T01600110 IEM_DS3505
ZBAA,1992-10-09 03:00,ZBAA 090300Z AUTO 04004KT 2 1/2SM 18/11 A3018 RMK SLP236 T01780108 57005 IEM_DS3505
ZBAA,1992-10-09 04:00,ZBAA 090400Z AUTO 09004KT 6SM 18/12 A3015 RMK SLP222 T01800120 IEM_DS3505
ZBAA,1992-10-09 05:00,ZBAA 090500Z AUTO 14006KT 6SM 21/13 A3012 RMK SLP212 T02100130 IEM_DS3505
ZBAA,1992-10-09 06:00,ZBAA 090600Z AUTO 18006KT 2SM 20/10 A3011 RMK SLP209 T01980104 4////0100 57027 IEM_DS3505
ZBAA,1992-10-09 07:00,ZBAA 090700Z AUTO 18006KT 5SM 20/13 A3009 RMK SLP202 T02000130 IEM_DS3505
ZBAA,1992-10-09 08:00,ZBAA 090800Z AUTO 17008KT 5SM 20/12 A3006 RMK SLP192 T02000120 IEM_DS3505
ZBAA,1992-10-09 09:00,ZBAA 090900Z AUTO 18006KT 3SM 20/10 A3008 RMK SLP198 T02000095 57011 IEM_DS3505
ZBAA,1992-10-09 10:00,ZBAA 091000Z AUTO 16002KT 2 1/2SM 18/12 A3006 RMK SLP192 T01800120 IEM_DS3505
ZBAA,1992-10-09 11:00,ZBAA 091100Z AUTO 11002KT 2SM 17/12 A3009 RMK SLP203 T01700120 IEM_DS3505
ZBAA,1992-10-09 12:00,ZBAA 091200Z AUTO 00000KT 2 1/2SM 16/11 A3009 RMK SLP200 T01590109 52002 IEM_DS3505
ZBAA,1992-10-09 13:00,ZBAA 091300Z AUTO 00000KT 2SM 15/11 A3009 RMK SLP203 T01500110 IEM_DS3505
ZBAA,1992-10-09 14:00,ZBAA 091400Z AUTO 12004KT 2SM 14/11 A3009 RMK SLP203 T01400110 IEM_DS3505
ZBAA,1992-10-09 15:00,ZBAA 091500Z AUTO 09002KT 2 1/2SM 13/11 A3009 RMK SLP201 T01280111 52001 IEM_DS3505
ZBAA,1992-10-09 16:00,ZBAA 091600Z AUTO 00000KT 2SM 12/11 A3009 RMK SLP204 T01200110 IEM_DS3505
ZBAA,1992-10-09 17:00,ZBAA 091700Z AUTO 00000KT 2SM 11/11 A3009 RMK SLP204 T01100110 IEM_DS3505
ZBAA,1992-10-09 18:00,ZBAA 091800Z AUTO 02004KT 1 1/4SM 13/11 A3009 RMK SLP201 T01270108 40220//// 54000 IEM_DS3505
ZBAA,1992-10-09 19:00,ZBAA 091900Z AUTO 00000KT 2SM 11/10 A3006 RMK SLP194 T01100100 IEM_DS3505
ZBAA,1992-10-09 20:00,ZBAA 092000Z AUTO 00000KT 2SM 10/10 A3006 RMK SLP194 T01000100 IEM_DS3505
ZBAA,1992-10-09 21:00,ZBAA 092100Z AUTO 00000KT 1 1/4SM 12/10 A3009 RMK SLP201 T01150103 54000 IEM_DS3505
ZBAA,1992-10-09 22:00,ZBAA 092200Z AUTO 00000KT 1 1/4SM 12/10 A3009 RMK SLP201 T01150103 54000 IEM_DS3505
ZBAA,1992-10-09 23:00,ZBAA 092300Z AUTO 03002KT 2SM 11/10 A3012 RMK SLP214 T01100100 IEM_DS3505
ZBAA,1992-10-10 00:00,ZBAA 100000Z AUTO 04004KT 3SM 14/09 A3015 RMK SLP216 T01370092 52015 IEM_DS3505
ZBAA,1992-10-10 01:00,ZBAA 100100Z AUTO 13002KT 2SM 14/12 A3015 RMK SLP223 T01400120 IEM_DS3505
ZBAA,1992-10-10 02:00,ZBAA 100200Z AUTO 12002KT 2SM 15/11 A3018 RMK SLP233 T01500110 IEM_DS3505
ZBAA,1992-10-10 03:00,ZBAA 100300Z AUTO 07006KT 3SM 17/10 A3015 RMK SLP223 T01660100 52007 IEM_DS3505
ZBAA,1992-10-10 04:00,ZBAA 100400Z AUTO 02002KT 2 1/2SM 17/11 A3015 RMK SLP223 T01700110 IEM_DS3505
ZBAA,1992-10-10 05:00,ZBAA 100500Z AUTO 06004KT 3SM 18/11 A3015 RMK SLP222 T01800110 IEM_DS3505
ZBAA,1992-10-10 06:00,ZBAA 100600Z AUTO 07006KT 5SM 19/07 A3014 RMK SLP219 T01940067 4////0110 57004 IEM_DS3505
ZBAA,1992-10-10 07:00,ZBAA 100700Z AUTO 06004KT 4SM 19/11 A3015 RMK SLP222 T01900110 IEM_DS3505
ZBAA,1992-10-10 08:00,ZBAA 100800Z AUTO 11004KT 4SM 18/11 A3015 RMK SLP222 T01800110 IEM_DS3505
ZBAA,1992-10-10 09:00,ZBAA 100900Z AUTO 07004KT 6SM 19/09 A3015 RMK SLP223 T01860086 52004 IEM_DS3505
ZBAA,1992-10-10 10:00,ZBAA 101000Z AUTO 02002KT 4SM 16/11 A3018 RMK SLP233 T01600110 IEM_DS3505
ZBAA,1992-10-10 11:00,ZBAA 101100Z AUTO 35006KT 4SM 16/11 A3021 RMK SLP243 T01600110 IEM_DS3505
ZBAA,1992-10-10 12:00,ZBAA 101200Z AUTO 36006KT 5SM 14/09 A3024 RMK 60002 SLP249 T01400089 52025 IEM_DS3505
ZBAA,1992-10-10 13:00,ZBAA 101300Z AUTO 02006KT 4SM 12/12 A3027 RMK SLP264 T01200120 IEM_DS3505
ZBAA,1992-10-10 14:00,ZBAA 101400Z AUTO 36006KT 4SM 12/12 A3030 RMK SLP274 T01200120 IEM_DS3505
ZBAA,1992-10-10 15:00,ZBAA 101500Z AUTO 00000KT 4SM 12/11 A3030 RMK SLP268 T01220107 52019 IEM_DS3505
ZBAA,1992-10-10 16:00,ZBAA 101600Z AUTO 00000KT 2 1/2SM 12/12 A3030 RMK SLP274 T01200120 IEM_DS3505
ZBAA,1992-10-10 17:00,ZBAA 101700Z AUTO 00000KT 2 1/2SM 12/12 A3030 RMK SLP274 T01200120 IEM_DS3505
ZBAA,1992-10-10 18:00,ZBAA 101800Z AUTO 36004KT 5SM 12/11 A3030 RMK 60031 SLP267 T01190109 40196//// 54000 IEM_DS3505
ZBAA,1992-10-10 19:00,ZBAA 101900Z AUTO 07004KT 4SM 16/11 A3030 RMK SLP268 T01550107 52019 IEM_DS3505
ZBAA,1992-10-10 20:00,ZBAA 102000Z AUTO 07006KT 5SM 10/10 A3033 RMK SLP286 T01000100 IEM_DS3505
ZBAA,1992-10-10 21:00,ZBAA 102100Z AUTO 07006KT 5SM 10/07 A3033 RMK 70051 SLP276 T01000073 52008 IEM_DS3505
ZBAA,1992-10-10 22:00,ZBAA 102200Z AUTO 00000KT 7SM 09/09 A3033 RMK SLP286 T00900090 IEM_DS3505
ZBAA,1992-10-10 23:00,ZBAA 102300Z AUTO 30004KT 7SM 10/10 A3036 RMK SLP296 T01000100 IEM_DS3505
ZBAA,1992-10-11 00:00,ZBAA 110000Z AUTO 32002KT 6SM 10/08 A3036 RMK 60024 70055 SLP292 T00970080 52016 IEM_DS3505
ZBAA,1992-10-11 01:00,ZBAA 110100Z AUTO 30004KT 7SM 12/12 A3036 RMK SLP295 T01200120 IEM_DS3505
ZBAA,1992-10-11 02:00,ZBAA 110200Z AUTO 35002KT 6SM 14/14 A3036 RMK SLP295 T01400140 IEM_DS3505
ZBAA,1992-10-11 03:00,ZBAA 110300Z AUTO 02002KT 9SM 15/07 A3036 RMK SLP289 T01480068 57003 IEM_DS3505
ZBAA,1992-10-11 04:00,ZBAA 110400Z AUTO 36002KT 6SM 16/13 A3033 RMK SLP284 T01600130 IEM_DS3505
ZBAA,1992-10-11 05:00,ZBAA 110500Z AUTO 20004KT 6SM 17/12 A3030 RMK SLP273 T01700120 IEM_DS3505
ZBAA,1992-10-11 06:00,ZBAA 110600Z AUTO 00000KT 12SM 17/ A3027 RMK SLP271 4////0091 57018 IEM_DS3505
ZBAA,1992-10-11 07:00,ZBAA 110700Z AUTO 23006KT 6SM 16/09 A3027 RMK SLP263 T01600090 IEM_DS3505
ZBAA,1992-10-11 08:00,ZBAA 110800Z AUTO 18004KT 7SM 16/08 A3027 RMK SLP263 T01600080 IEM_DS3505
ZBAA,1992-10-11 09:00,ZBAA 110900Z AUTO 18006KT 12SM 16/02 A3027 RMK SLP263 T01560021 57008 IEM_DS3505
ZBAA,1992-10-11 10:00,ZBAA 111000Z AUTO 22006KT 7SM 13/11 A3027 RMK SLP264 T01300110 IEM_DS3505
ZBAA,1992-10-11 11:00,ZBAA 111100Z AUTO 22004KT 7SM 12/12 A3030 RMK SLP274 T01200120 IEM_DS3505
ZBAA,1992-10-11 12:00,ZBAA 111200Z AUTO 22004KT 12SM 12/08 A3030 RMK SLP272 T01220077 52009 IEM_DS3505
ZBAA,1992-10-11 13:00,ZBAA 111300Z AUTO 26002KT 7SM 11/11 A3030 RMK SLP274 T01100110 IEM_DS3505
ZBAA,1992-10-11 14:00,ZBAA 111400Z AUTO 00000KT 7SM 09/08 A3033 RMK SLP286 T00900080 IEM_DS3505
ZBAA,1992-10-11 15:00,ZBAA 111500Z AUTO 00000KT 12SM 09/08 A3033 RMK SLP276 T00930076 52004 IEM_DS3505
ZBAA,1992-10-11 16:00,ZBAA 111600Z AUTO 00000KT 7SM 09/09 A3033 RMK SLP286 T00900090 IEM_DS3505
ZBAA,1992-10-11 17:00,ZBAA 111700Z AUTO 36002KT 7SM 08/08 A3033 RMK SLP286 T00800080 IEM_DS3505
ZBAA,1992-10-11 18:00,ZBAA 111800Z AUTO 02002KT 4SM 08/07 A3033 RMK SLP276 T00760069 40174//// 54000 IEM_DS3505
ZBAA,1992-10-11 20:00,ZBAA 112000Z AUTO 24002KT 4SM 06/06 A3033 RMK SLP287 T00600060 IEM_DS3505
ZBAA,1992-10-11 21:00,ZBAA 112100Z AUTO 02004KT 4SM 07/06 A3033 RMK 70008 SLP279 T00670058 52003 IEM_DS3505
ZBAA,1992-10-11 22:00,ZBAA 112200Z AUTO 35006KT 5SM 07/07 A3033 RMK SLP286 T00700070 IEM_DS3505
ZBAA,1992-10-11 23:00,ZBAA 112300Z AUTO 33004KT 5SM 06/06 A3036 RMK SLP297 T00600060 IEM_DS3505
ZBAA,1992-10-12 00:00,ZBAA 120000Z AUTO 36004KT 7SM 09/06 A3036 RMK SLP291 T00930055 52011 IEM_DS3505
ZBAA,1992-10-12 01:00,ZBAA 120100Z AUTO 36002KT 7SM 11/11 A3039 RMK SLP306 T01100110 IEM_DS3505
ZBAA,1992-10-12 02:00,ZBAA 120200Z AUTO 00000KT 7SM 13/13 A3039 RMK SLP305 T01300130 IEM_DS3505
ZBAA,1992-10-12 03:00,ZBAA 120300Z AUTO 36002KT 6SM 14/06 A3036 RMK SLP295 T01430064 52005 IEM_DS3505
ZBAA,1992-10-12 04:00,ZBAA 120400Z AUTO 18004KT 6SM 16/ A3036 RMK SLP294 IEM_DS3505
ZBAA,1992-10-12 05:00,ZBAA 120500Z AUTO 21004KT 6SM 18/08 A3033 RMK SLP284 T01800080 IEM_DS3505
ZBAA,1992-10-12 06:00,ZBAA 120600Z AUTO 18006KT 6SM 14/08 A3030 RMK SLP279 T01450076 4////0060 57016 IEM_DS3505
ZBAA,1992-10-12 07:00,ZBAA 120700Z AUTO 23008KT 6SM 16/09 A3030 RMK SLP273 T01600090 IEM_DS3505
ZBAA,1992-10-12 08:00,ZBAA 120800Z AUTO 22008KT 6SM 15/08 A3030 RMK SLP273 T01500080 IEM_DS3505
ZBAA,1992-10-12 09:00,ZBAA 120900Z AUTO 18006KT 6SM 14/08 A3030 RMK SLP275 T01350076 57005 IEM_DS3505
ZBAA,1992-10-12 10:00,ZBAA 121000Z AUTO 21006KT 6SM 12/05 A3030 RMK SLP274 T01200050 IEM_DS3505
ZBAA,1992-10-12 11:00,ZBAA 121100Z AUTO 19004KT 6SM 12/06 A3033 RMK SLP285 T01200060 IEM_DS3505
ZBAA,1992-10-12 12:00,ZBAA 121200Z AUTO 18006KT 7SM 12/08 A3033 RMK SLP281 T01250080 52007 IEM_DS3505
ZBAA,1992-10-12 13:00,ZBAA 121300Z AUTO 09002KT 6SM 10/08 A3036 RMK SLP296 T01000080 IEM_DS3505
ZBAA,1992-10-12 14:00,ZBAA 121400Z AUTO 00000KT 5SM 11/08 A3036 RMK SLP296 T01100080 IEM_DS3505
ZBAA,1992-10-12 15:00,ZBAA 121500Z AUTO 22004KT 6SM 12/08 A3036 RMK SLP286 T01210085 52005 IEM_DS3505
ZBAA,1992-10-12 16:00,ZBAA 121600Z AUTO 00000KT 4SM 10/08 A3036 RMK SLP296 T01000080 IEM_DS3505
ZBAA,1992-10-12 17:00,ZBAA 121700Z AUTO 00000KT 4SM 10/08 A3036 RMK SLP296 T01000080 IEM_DS3505
ZBAA,1992-10-12 18:00,ZBAA 121800Z AUTO 00000KT 6SM 12/04 A3033 RMK SLP285 T01200045 40167//// 57001 IEM_DS3505
ZBAA,1992-10-12 19:00,ZBAA 121900Z AUTO 31002KT 4SM 10/08 A3033 RMK SLP286 T01000080 IEM_DS3505
ZBAA,1992-10-12 20:00,ZBAA 122000Z AUTO 01002KT 4SM 10/07 A3033 RMK SLP286 T01000070 IEM_DS3505
ZBAA,1992-10-12 21:00,ZBAA 122100Z AUTO 00000KT 3SM 11/09 A3033 RMK SLP283 T01120088 57002 IEM_DS3505
ZBAA,1992-10-12 22:00,ZBAA 122200Z AUTO 00000KT 4SM 10/07 A3033 RMK SLP286 T01000070 IEM_DS3505
ZBAA,1992-10-12 23:00,ZBAA 122300Z AUTO 00000KT 4SM 10/08 A3036 RMK SLP296 T01000080 IEM_DS3505
ZBAA,1992-10-13 00:00,ZBAA 130000Z AUTO 00000KT 2SM 11/09 A3036 RMK SLP296 T01060088 52013 IEM_DS3505
ZBAA,1992-10-13 01:00,ZBAA 130100Z AUTO 29002KT 5SM 12/09 A3039 RMK SLP305 T01200090 IEM_DS3505
ZBAA,1992-10-13 02:00,ZBAA 130200Z AUTO 28006KT 4SM 12/07 A3039 RMK SLP305 T01200070 IEM_DS3505
ZBAA,1992-10-13 03:00,ZBAA 130300Z AUTO 00000KT 4SM 12/08 A3039 RMK SLP297 T01170078 52001 IEM_DS3505
ZBAA,1992-10-13 04:00,ZBAA 130400Z AUTO 29004KT 7SM 12/07 A3036 RMK SLP295 T01200070 IEM_DS3505
ZBAA,1992-10-13 05:00,ZBAA 130500Z AUTO 00000KT 7SM 12/07 A3036 RMK SLP295 T01200070 IEM_DS3505
ZBAA,1992-10-13 06:00,ZBAA 130600Z AUTO 16002KT 4SM 12/06 A3033 RMK 60002 SLP285 T01160060 4////0104 57012 IEM_DS3505
ZBAA,1992-10-13 07:00,ZBAA 130700Z AUTO 18002KT 4SM 12/08 A3033 RMK SLP285 T01200080 IEM_DS3505
ZBAA,1992-10-13 08:00,ZBAA 130800Z AUTO 00000KT 4SM 12/08 A3030 RMK SLP274 T01200080 IEM_DS3505
ZBAA,1992-10-13 09:00,ZBAA 130900Z AUTO 22002KT 5SM 13/06 A3030 RMK SLP273 T01280063 57012 IEM_DS3505
ZBAA,1992-10-13 12:00,ZBAA 131200Z AUTO 00000KT 4SM 11/09 A3030 RMK SLP275 T01100090 52002 IEM_DS3505
ZBAA,1992-10-13 13:00,ZBAA 131300Z AUTO 31002KT 2SM 09/07 A3030 RMK SLP275 T00900070 IEM_DS3505
ZBAA,1992-10-13 14:00,ZBAA 131400Z AUTO 00000KT 1 1/4SM 09/07 A3030 RMK SLP275 T00900070 IEM_DS3505
ZBAA,1992-10-13 15:00,ZBAA 131500Z AUTO 00000KT 2SM 10/09 A3030 RMK SLP271 T01010091 57004 IEM_DS3505
ZBAA,1992-10-13 16:00,ZBAA 131600Z AUTO 00000KT 1SM 08/07 A3027 RMK SLP265 T00800070 IEM_DS3505
ZBAA,1992-10-13 18:00,ZBAA 131800Z AUTO 00000KT 1 1/4SM 10/09 A3027 RMK SLP263 T00960090 40130//// 57008 IEM_DS3505
ZBAA,1992-10-13 19:00,ZBAA 131900Z AUTO 36004KT 1 1/2SM 07/06 A3024 RMK SLP255 T00700060 IEM_DS3505
ZBAA,1992-10-13 20:00,ZBAA 132000Z AUTO 29002KT 1 1/2SM 07/07 A3024 RMK SLP255 T00700070 IEM_DS3505
ZBAA,1992-10-13 21:00,ZBAA 132100Z AUTO 02002KT 2 1/2SM 10/08 A3024 RMK 70002 SLP251 T00970076 57012 IEM_DS3505
ZBAA,1992-10-13 22:00,ZBAA 132200Z AUTO 36004KT 2SM 08/07 A3021 RMK SLP245 T00800070 IEM_DS3505
ZBAA,1992-10-13 23:00,ZBAA 132300Z AUTO 34002KT 2 1/2SM 08/07 A3021 RMK SLP245 T00800070 IEM_DS3505
ZBAA,1992-10-14 00:00,ZBAA 140000Z AUTO 00000KT 2SM 10/08 A3024 RMK 70002 SLP250 T01030080 57001 IEM_DS3505
ZBAA,1992-10-14 01:00,ZBAA 140100Z AUTO 30002KT 2 1/2SM 09/08 A3024 RMK SLP255 T00900080 IEM_DS3505
ZBAA,1992-10-14 02:00,ZBAA 140200Z AUTO 31002KT 4SM 11/09 A3024 RMK SLP254 T01100090 IEM_DS3505
ZBAA,1992-10-14 03:00,ZBAA 140300Z AUTO 18004KT 2SM 14/08 A3021 RMK SLP247 T01450079 57003 IEM_DS3505
ZBAA,1992-10-14 04:00,ZBAA 140400Z AUTO 00000KT 6SM 16/08 A3018 RMK SLP233 T01600080 IEM_DS3505
ZBAA,1992-10-14 05:00,ZBAA 140500Z AUTO 27004KT 6SM 17/08 A3015 RMK SLP223 T01700080 IEM_DS3505
ZBAA,1992-10-14 06:00,ZBAA 140600Z AUTO 00000KT 4SM 17/07 A3014 RMK SLP221 T01660067 4////0085 57026 IEM_DS3505
ZBAA,1992-10-14 07:00,ZBAA 140700Z AUTO 21004KT 6SM 17/06 A3012 RMK SLP213 T01700060 IEM_DS3505
ZBAA,1992-10-14 08:00,ZBAA 140800Z AUTO 18006KT 4SM 16/08 A3012 RMK SLP213 T01600080 IEM_DS3505
ZBAA,1992-10-14 09:00,ZBAA 140900Z AUTO 20006KT 4SM 15/07 A3012 RMK SLP213 T01460073 57008 IEM_DS3505
ZBAA,1992-10-14 10:00,ZBAA 141000Z AUTO 19006KT 4SM 14/07 A3012 RMK SLP213 T01400070 IEM_DS3505
ZBAA,1992-10-14 11:00,ZBAA 141100Z AUTO 20002KT 3SM 12/08 A3012 RMK SLP214 T01200080 IEM_DS3505
ZBAA,1992-10-14 12:00,ZBAA 141200Z AUTO 18002KT 2 1/2SM 12/09 A3012 RMK SLP216 T01220090 52003 IEM_DS3505
ZBAA,1992-10-14 13:00,ZBAA 141300Z AUTO 16002KT 2SM 12/08 A3015 RMK SLP224 T01200080 IEM_DS3505
ZBAA,1992-10-14 14:00,ZBAA 141400Z AUTO 00000KT 2SM 10/08 A3015 RMK SLP224 T01000080 IEM_DS3505
ZBAA,1992-10-14 15:00,ZBAA 141500Z AUTO 34002KT 3SM 10/09 A3012 RMK SLP215 T01000088 57001 IEM_DS3505
ZBAA,1992-10-14 16:00,ZBAA 141600Z AUTO 00000KT 1 1/4SM 09/08 A3012 RMK SLP214 T00900080 IEM_DS3505
ZBAA,1992-10-14 17:00,ZBAA 141700Z AUTO 00000KT 1 1/4SM 09/08 A3012 RMK SLP214 T00900080 IEM_DS3505
ZBAA,1992-10-14 18:00,ZBAA 141800Z AUTO 07002KT 2 1/2SM 11/08 A3012 RMK SLP210 T01100083 40169//// 57004 IEM_DS3505
ZBAA,1992-10-14 20:00,ZBAA 142000Z AUTO 00000KT 1 1/4SM 09/08 A3009 RMK SLP204 T00900080 IEM_DS3505
ZBAA,1992-10-14 21:00,ZBAA 142100Z AUTO 00000KT 2SM 10/09 A3009 RMK SLP211 T01020090 54000 IEM_DS3505
ZBAA,1992-10-14 22:00,ZBAA 142200Z AUTO 32004KT 1 1/4SM 08/08 A3009 RMK SLP205 T00800080 IEM_DS3505
ZBAA,1992-10-14 23:00,ZBAA 142300Z AUTO 32002KT 1SM 09/08 A3012 RMK SLP214 T00900080 IEM_DS3505
ZBAA,1992-10-15 00:00,ZBAA 150000Z AUTO 36004KT 2 1/2SM 11/09 A3012 RMK SLP215 T01090089 52004 IEM_DS3505
ZBAA,1992-10-15 01:00,ZBAA 150100Z AUTO 35004KT 2SM 11/09 A3012 RMK SLP214 T01100090 IEM_DS3505
ZBAA,1992-10-15 02:00,ZBAA 150200Z AUTO 01004KT 5SM 14/10 A3012 RMK SLP213 T01400100 IEM_DS3505
ZBAA,1992-10-15 03:00,ZBAA 150300Z AUTO 20004KT 2 1/2SM 13/08 A3009 RMK SLP212 T01320082 57003 IEM_DS3505
ZBAA,1992-10-15 04:00,ZBAA 150400Z AUTO 08002KT 6SM 16/08 A3006 RMK SLP193 T01600080 IEM_DS3505
ZBAA,1992-10-15 05:00,ZBAA 150500Z AUTO 15004KT 6SM 16/09 A3006 RMK SLP193 T01600090 IEM_DS3505
ZBAA,1992-10-15 06:00,ZBAA 150600Z AUTO 18006KT 1 1/4SM 14/09 A3003 RMK SLP195 T01360093 4////0095 57017 IEM_DS3505
ZBAA,1992-10-15 07:00,ZBAA 150700Z AUTO 24008KT 2SM 15/11 A3003 RMK SLP182 T01500110 IEM_DS3505
ZBAA,1992-10-15 08:00,ZBAA 150800Z AUTO 21004KT 2SM 15/10 A3003 RMK SLP182 T01500100 IEM_DS3505
ZBAA,1992-10-15 09:00,ZBAA 150900Z AUTO 18006KT 3SM 13/09 A3003 RMK SLP187 T01320088 57008 IEM_DS3505
ZBAA,1992-10-15 10:00,ZBAA 151000Z AUTO 23004KT 2SM 12/09 A3003 RMK SLP183 T01200090 IEM_DS3505
ZBAA,1992-10-15 11:00,ZBAA 151100Z AUTO 22002KT 2SM 11/09 A3003 RMK SLP183 T01100090 IEM_DS3505
ZBAA,1992-10-15 12:00,ZBAA 151200Z AUTO 18004KT 2SM 11/09 A3003 RMK SLP188 T01060094 52001 IEM_DS3505
ZBAA,1992-10-15 13:00,ZBAA 151300Z AUTO 00000KT 1 1/4SM 10/08 A3003 RMK SLP183 T01000080 IEM_DS3505
ZBAA,1992-10-15 14:00,ZBAA 151400Z AUTO 00000KT 50SM RMK IEM_DS3505
ZBAA,1992-10-15 15:00,ZBAA 151500Z AUTO 00000KT 1SM 09/08 A3003 RMK SLP187 T00880084 57001 IEM_DS3505
ZBAA,1992-10-15 16:00,ZBAA 151600Z AUTO 00000KT 0SM 07/07 A3003 RMK SLP184 T00700070 IEM_DS3505
ZBAA,1992-10-15 17:00,ZBAA 151700Z AUTO 36002KT 0SM 07/07 A3003 RMK SLP184 T00700070 IEM_DS3505
ZBAA,1992-10-15 18:00,ZBAA 151800Z AUTO 00000KT 2SM 07/06 A3005 RMK SLP190 T00690065 40151//// 52003 IEM_DS3505
ZBAA,1992-10-15 19:00,ZBAA 151900Z AUTO 31004KT 0SM 06/06 A3003 RMK SLP184 T00600060 IEM_DS3505
ZBAA,1992-10-15 21:00,ZBAA 152100Z AUTO 07004KT 2 1/2SM 06/06 A3003 RMK SLP187 T00610059 57003 IEM_DS3505
ZBAA,1992-10-15 22:00,ZBAA 152200Z AUTO 36006KT 2 1/2SM 06/06 A3003 RMK SLP184 T00600060 IEM_DS3505
ZBAA,1992-10-15 23:00,ZBAA 152300Z AUTO 35006KT 5SM 07/06 A3003 RMK SLP184 T00700060 IEM_DS3505
ZBAA,1992-10-16 00:00,ZBAA 160000Z AUTO 07006KT 4SM 09/06 A3005 RMK SLP191 T00910056 52004 IEM_DS3505
ZBAA,1992-10-16 01:00,ZBAA 160100Z AUTO 36008KT 7SM 13/05 A3006 RMK SLP193 T01300050 IEM_DS3505
ZBAA,1992-10-16 02:00,ZBAA 160200Z AUTO 36008KT 7SM 15/04 A3006 RMK SLP193 T01500040 IEM_DS3505
ZBAA,1992-10-16 03:00,ZBAA 160300Z AUTO 36008KT 7SM 18/03 A3003 RMK SLP191 T01770030 52001 IEM_DS3505
ZBAA,1992-10-16 04:00,ZBAA 160400Z AUTO 36006KT 7SM 19/02 A3003 RMK SLP181 T01900020 IEM_DS3505
ZBAA,1992-10-16 05:00,ZBAA 160500Z AUTO 02006KT 7SM 20/M02 A3000 RMK SLP171 T02001020 IEM_DS3505
ZBAA,1992-10-16 06:00,ZBAA 160600Z AUTO 02006KT 16SM 21/M00 A3000 RMK SLP179 T02121004 4////0047 57012 IEM_DS3505
ZBAA,1992-10-16 07:00,ZBAA 160700Z AUTO 06012KT 7SM 21/M03 A3000 RMK SLP170 T02101030 IEM_DS3505
ZBAA,1992-10-16 08:00,ZBAA 160800Z AUTO 05008KT 7SM 20/M04 A3000 RMK SLP171 T02001040 IEM_DS3505
ZBAA,1992-10-16 09:00,ZBAA 160900Z AUTO 07002KT 19SM 19/01 A3002 RMK SLP178 T01940009 57001 IEM_DS3505
ZBAA,1992-10-16 10:00,ZBAA 161000Z AUTO 17002KT 7SM 15/01 A3000 RMK SLP172 T01500010 IEM_DS3505
ZBAA,1992-10-16 11:00,ZBAA 161100Z AUTO 21004KT 7SM 14/02 A3003 RMK SLP182 T01400020 IEM_DS3505
ZBAA,1992-10-16 12:00,ZBAA 161200Z AUTO 18006KT 4SM 12/05 A3003 RMK SLP187 T01150052 52008 IEM_DS3505
ZBAA,1992-10-16 13:00,ZBAA 161300Z AUTO 01002KT 7SM 11/04 A3006 RMK SLP194 T01100040 IEM_DS3505
ZBAA,1992-10-16 14:00,ZBAA 161400Z AUTO 35002KT 7SM 11/04 A3009 RMK SLP204 T01100040 IEM_DS3505
ZBAA,1992-10-16 15:00,ZBAA 161500Z AUTO 02006KT 4SM 12/02 A3009 RMK SLP200 T01160023 52014 IEM_DS3505
ZBAA,1992-10-16 16:00,ZBAA 161600Z AUTO 34002KT 7SM 09/03 A3009 RMK SLP204 T00900030 IEM_DS3505
ZBAA,1992-10-16 17:00,ZBAA 161700Z AUTO 32006KT 7SM 09/03 A3009 RMK SLP204 T00900030 IEM_DS3505
ZBAA,1992-10-16 18:00,ZBAA 161800Z AUTO 32004KT 7SM 07/03 A3009 RMK SLP205 T00700030 IEM_DS3505
ZBAA,1992-10-16 19:00,ZBAA 161900Z AUTO 35004KT 7SM 08/02 A3009 RMK SLP205 T00800020 IEM_DS3505
ZBAA,1992-10-16 20:00,ZBAA 162000Z AUTO 35006KT 7SM 06/03 A3009 RMK SLP205 T00600030 IEM_DS3505
ZBAA,1992-10-16 21:00,ZBAA 162100Z AUTO 00000KT 5SM 06/04 A3009 RMK SLP202 T00630044 52003 IEM_DS3505
ZBAA,1992-10-16 22:00,ZBAA 162200Z AUTO 34006KT 7SM 08/01 A3009 RMK SLP205 T00800010 IEM_DS3505
ZBAA,1992-10-16 23:00,ZBAA 162300Z AUTO 35008KT 7SM 09/01 A3012 RMK SLP214 T00900010 IEM_DS3505
ZBAA,1992-10-17 00:00,ZBAA 170000Z AUTO 36008KT 9SM 12/00 A3015 RMK SLP216 T01230005 52013 IEM_DS3505
ZBAA,1992-10-17 01:00,ZBAA 170100Z AUTO 01008KT 7SM 15/02 A3015 RMK SLP223 T01500020 IEM_DS3505
ZBAA,1992-10-17 02:00,ZBAA 170200Z AUTO 03006KT 7SM 17/02 A3015 RMK SLP223 T01700020 IEM_DS3505
ZBAA,1992-10-17 03:00,ZBAA 170300Z AUTO 36004KT 11SM 18/02 A3012 RMK SLP216 T01780018 52001 IEM_DS3505
ZBAA,1992-10-17 04:00,ZBAA 170400Z AUTO 02012KT 7SM 19/00 A3012 RMK SLP212 T01900000 IEM_DS3505
ZBAA,1992-10-17 05:00,ZBAA 170500Z AUTO 04008KT 7SM 20/00 A3009 RMK SLP202 T02000000 IEM_DS3505
ZBAA,1992-10-17 06:00,ZBAA 170600Z AUTO 36002KT 16SM 20/M00 A3006 RMK SLP206 T02001002 4////0051 57010 IEM_DS3505
ZBAA,1992-10-17 07:00,ZBAA 170700Z AUTO 06006KT 6SM 20/M01 A3006 RMK SLP192 T02001010 IEM_DS3505
ZBAA,1992-10-17 08:00,ZBAA 170800Z AUTO 08008KT 6SM 20/00 A3006 RMK SLP192 T02000000 IEM_DS3505
ZBAA,1992-10-17 09:00,ZBAA 170900Z AUTO 09004KT 19SM 19/01 A3006 RMK SLP199 T01890014 57007 IEM_DS3505
ZBAA,1992-10-17 10:00,ZBAA 171000Z AUTO 22002KT 7SM 15/02 A3009 RMK SLP203 T01500020 IEM_DS3505
ZBAA,1992-10-17 11:00,ZBAA 171100Z AUTO 23004KT 7SM 13/03 A3009 RMK SLP203 T01300030 IEM_DS3505
ZBAA,1992-10-17 12:00,ZBAA 171200Z AUTO 20004KT 12SM 12/06 A3012 RMK SLP210 T01210059 52010 IEM_DS3505
ZBAA,1992-10-17 13:00,ZBAA 171300Z AUTO 33002KT 7SM 11/02 A3012 RMK SLP214 T01100020 IEM_DS3505
ZBAA,1992-10-17 14:00,ZBAA 171400Z AUTO 00000KT 7SM 10/03 A3012 RMK SLP214 T01000030 IEM_DS3505
ZBAA,1992-10-17 15:00,ZBAA 171500Z AUTO 00000KT 12SM 10/05 A3015 RMK SLP219 T00960054 52010 IEM_DS3505
ZBAA,1992-10-17 16:00,ZBAA 171600Z AUTO 00000KT 7SM 09/05 A3015 RMK SLP225 T00900050 IEM_DS3505
ZBAA,1992-10-17 17:00,ZBAA 171700Z AUTO 35004KT 7SM 09/04 A3015 RMK SLP225 T00900040 IEM_DS3505
ZBAA,1992-10-17 18:00,ZBAA 171800Z AUTO 00000KT 9SM 08/05 A3016 RMK SLP226 T00810049 40203//// 52007 IEM_DS3505
ZBAA,1992-10-17 19:00,ZBAA 171900Z AUTO 34004KT 7SM 09/04 A3018 RMK SLP235 T00900040 IEM_DS3505
ZBAA,1992-10-17 20:00,ZBAA 172000Z AUTO 32006KT 7SM 08/03 A3018 RMK SLP235 T00800030 IEM_DS3505
ZBAA,1992-10-17 21:00,ZBAA 172100Z AUTO 00000KT 9SM 06/05 A3018 RMK SLP232 T00650049 52005 IEM_DS3505
ZBAA,1992-10-17 22:00,ZBAA 172200Z AUTO 35006KT 7SM 09/03 A3018 RMK SLP235 T00900030 IEM_DS3505
ZBAA,1992-10-17 23:00,ZBAA 172300Z AUTO 36006KT 7SM 09/03 A3018 RMK SLP235 T00900030 IEM_DS3505
ZBAA,1992-10-18 00:00,ZBAA 180000Z AUTO 04004KT 6SM 10/03 A3021 RMK SLP242 T01000033 52010 IEM_DS3505
ZBAA,1992-10-18 01:00,ZBAA 180100Z AUTO 02008KT 7SM 14/04 A3021 RMK SLP244 T01400040 IEM_DS3505
ZBAA,1992-10-18 02:00,ZBAA 180200Z AUTO 02006KT 7SM 17/05 A3021 RMK SLP243 T01700050 IEM_DS3505
ZBAA,1992-10-18 03:00,ZBAA 180300Z AUTO 04004KT 12SM 18/03 A3021 RMK SLP241 T01810033 54000 IEM_DS3505
ZBAA,1992-10-18 04:00,ZBAA 180400Z AUTO 30004KT 6SM 20/03 A3018 RMK SLP232 T02000030 IEM_DS3505
ZBAA,1992-10-18 05:00,ZBAA 180500Z AUTO 30002KT 6SM 20/01 A3018 RMK SLP232 T02000010 IEM_DS3505
ZBAA,1992-10-18 06:00,ZBAA 180600Z AUTO 09004KT 16SM 21/02 A3015 RMK SLP232 T02080017 4////0056 57009 IEM_DS3505
ZBAA,1992-10-18 07:00,ZBAA 180700Z AUTO 36004KT 6SM 21/01 A3015 RMK SLP222 T02100010 IEM_DS3505
ZBAA,1992-10-18 08:00,ZBAA 180800Z AUTO 18006KT 6SM 21/03 A3015 RMK SLP222 T02100030 IEM_DS3505
ZBAA,1992-10-18 09:00,ZBAA 180900Z AUTO 18006KT 6SM 19/02 A3015 RMK SLP232 T01890024 57001 IEM_DS3505
ZBAA,1992-10-18 10:00,ZBAA 181000Z AUTO 16002KT 7SM 16/04 A3018 RMK SLP233 T01600040 IEM_DS3505
ZBAA,1992-10-18 11:00,ZBAA 181100Z AUTO 17002KT 7SM 14/04 A3018 RMK SLP233 T01400040 IEM_DS3505
ZBAA,1992-10-18 12:00,ZBAA 181200Z AUTO 22004KT 6SM 13/06 A3021 RMK SLP242 T01280065 52010 IEM_DS3505
ZBAA,1992-10-18 13:00,ZBAA 181300Z AUTO 00000KT 7SM 11/06 A3021 RMK SLP244 T01100060 IEM_DS3505
ZBAA,1992-10-18 14:00,ZBAA 181400Z AUTO 00000KT 7SM 11/06 A3024 RMK SLP254 T01100060 IEM_DS3505
ZBAA,1992-10-18 15:00,ZBAA 181500Z AUTO 00000KT 6SM 10/06 A3024 RMK SLP250 T01000063 52009 IEM_DS3505
ZBAA,1992-10-18 16:00,ZBAA 181600Z AUTO 34002KT 7SM 10/06 A3024 RMK SLP255 T01000060 IEM_DS3505
ZBAA,1992-10-18 17:00,ZBAA 181700Z AUTO 36004KT 7SM 10/06 A3024 RMK SLP255 T01000060 IEM_DS3505
ZBAA,1992-10-18 18:00,ZBAA 181800Z AUTO 04002KT 7SM 10/05 A3027 RMK SLP254 T00980054 40210//// 52004 IEM_DS3505
ZBAA,1992-10-18 19:00,ZBAA 181900Z AUTO 32006KT 7SM 08/05 A3024 RMK SLP255 T00800050 IEM_DS3505
ZBAA,1992-10-18 20:00,ZBAA 182000Z AUTO 34006KT 7SM 09/05 A3024 RMK SLP255 T00900050 IEM_DS3505
ZBAA,1992-10-18 21:00,ZBAA 182100Z AUTO 00000KT 6SM 07/06 A3024 RMK SLP254 T00710055 57001 IEM_DS3505
ZBAA,1992-10-18 22:00,ZBAA 182200Z AUTO 35006KT 7SM 11/04 A3027 RMK SLP264 T01100040 IEM_DS3505
ZBAA,1992-10-18 23:00,ZBAA 182300Z AUTO 05/ A3027 RMK SLP266 IEM_DS3505
ZBAA,1992-10-19 00:00,ZBAA 190000Z AUTO 04002KT 9SM 10/06 A3030 RMK SLP266 T00960059 52012 IEM_DS3505
ZBAA,1992-10-19 01:00,ZBAA 190100Z AUTO 34006KT 7SM 15/06 A3030 RMK SLP273 T01500060 IEM_DS3505
ZBAA,1992-10-19 02:00,ZBAA 190200Z AUTO 34006KT 7SM 17/06 A3030 RMK SLP273 T01700060 IEM_DS3505
ZBAA,1992-10-19 03:00,ZBAA 190300Z AUTO 00000KT 5SM 19/04 A3030 RMK SLP268 T01930042 52003 IEM_DS3505
ZBAA,1992-10-19 04:00,ZBAA 190400Z AUTO 31002KT 7SM 21/04 A3027 RMK SLP262 T02100040 IEM_DS3505
ZBAA,1992-10-19 05:00,ZBAA 190500Z AUTO 07002KT 7SM 22/04 A3024 RMK SLP252 T02200040 IEM_DS3505
ZBAA,1992-10-19 06:00,ZBAA 190600Z AUTO 22004KT 4SM 24/03 A3024 RMK SLP255 T02430031 4////0063 57013 IEM_DS3505
ZBAA,1992-10-19 07:00,ZBAA 190700Z AUTO 05004KT 7SM 23/02 A3024 RMK SLP252 T02300020 IEM_DS3505
ZBAA,1992-10-19 08:00,ZBAA 190800Z AUTO 00000KT 7SM 22/02 A3021 RMK SLP242 T02200020 IEM_DS3505
ZBAA,1992-10-19 09:00,ZBAA 190900Z AUTO 20006KT 3SM 22/06 A3021 RMK SLP250 T02160056 57005 IEM_DS3505
ZBAA,1992-10-19 10:00,ZBAA 191000Z AUTO 18004KT 7SM 17/06 A3024 RMK SLP253 T01700060 IEM_DS3505
ZBAA,1992-10-19 11:00,ZBAA 191100Z AUTO 20002KT 6SM 16/05 A3024 RMK SLP253 T01600050 IEM_DS3505
ZBAA,1992-10-19 12:00,ZBAA 191200Z AUTO 20004KT 4SM 14/08 A3025 RMK SLP257 T01410085 52006 IEM_DS3505
ZBAA,1992-10-19 13:00,ZBAA 191300Z AUTO 00000KT 6SM 13/07 A3027 RMK SLP264 T01300070 IEM_DS3505
ZBAA,1992-10-19 14:00,ZBAA 191400Z AUTO 00000KT 6SM 12/07 A3027 RMK SLP264 T01200070 IEM_DS3505
ZBAA,1992-10-19 15:00,ZBAA 191500Z AUTO 00000KT 3SM 11/08 A3027 RMK SLP263 T01140083 52007 IEM_DS3505
ZBAA,1992-10-19 16:00,ZBAA 191600Z AUTO 36004KT 5SM 10/07 A3030 RMK SLP275 T01000070 IEM_DS3505
ZBAA,1992-10-19 17:00,ZBAA 191700Z AUTO 35004KT 4SM 11/07 A3030 RMK SLP274 T01100070 IEM_DS3505
ZBAA,1992-10-19 18:00,ZBAA 191800Z AUTO 00000KT 3SM 10/07 A3030 RMK SLP267 T00980073 40243//// 52004 IEM_DS3505
ZBAA,1992-10-19 19:00,ZBAA 191900Z AUTO 34006KT 6SM 10/06 A3030 RMK SLP275 T01000060 IEM_DS3505
ZBAA,1992-10-19 20:00,ZBAA 192000Z AUTO 35006KT 6SM 11/05 A3027 RMK SLP264 T01100050 IEM_DS3505
ZBAA,1992-10-19 21:00,ZBAA 192100Z AUTO 00000KT 2 1/2SM 08/07 A3030 RMK SLP263 T00800067 57004 IEM_DS3505
ZBAA,1992-10-19 22:00,ZBAA 192200Z AUTO 34008KT 6SM 11/05 A3030 RMK SLP274 T01100050 IEM_DS3505
ZBAA,1992-10-19 23:00,ZBAA 192300Z AUTO 33006KT 7SM 11/05 A3030 RMK SLP274 T01100050 IEM_DS3505
ZBAA,1992-10-20 00:00,ZBAA 200000Z AUTO 00000KT 6SM 10/07 A3033 RMK SLP274 T01020072 52010 IEM_DS3505
ZBAA,1992-10-20 01:00,ZBAA 200100Z AUTO 36006KT 7SM 16/06 A3033 RMK SLP284 T01600060 IEM_DS3505
ZBAA,1992-10-20 02:00,ZBAA 200200Z AUTO 01006KT 7SM 18/06 A3033 RMK SLP284 T01800060 IEM_DS3505
ZBAA,1992-10-20 03:00,ZBAA 200300Z AUTO 36004KT 5SM 20/06 A3030 RMK SLP272 T01980056 57001 IEM_DS3505
ZBAA,1992-10-20 04:00,ZBAA 200400Z AUTO 00000KT 7SM 21/06 A3027 RMK SLP262 T02100060 IEM_DS3505
ZBAA,1992-10-20 05:00,ZBAA 200500Z AUTO 13002KT 7SM 22/06 A3024 RMK SLP252 T02200060 IEM_DS3505
ZBAA,1992-10-20 06:00,ZBAA 200600Z AUTO 20004KT 5SM 23/04 A3021 RMK SLP251 T02330039 57021 IEM_DS3505
ZBAA,1992-10-20 07:00,ZBAA 200700Z AUTO 16004KT 7SM 23/05 A3021 RMK SLP241 T02300050 IEM_DS3505
ZBAA,1992-10-20 08:00,ZBAA 200800Z AUTO 18004KT 7SM 23/03 A3021 RMK SLP241 T02300030 IEM_DS3505
ZBAA,1992-10-20 09:00,ZBAA 200900Z AUTO 36002KT 5SM 20/06 A3030 RMK SLP272 T01980056 57001 IEM_DS3505
ZBAA,1992-10-20 10:00,ZBAA 201000Z AUTO 18002KT 6SM 18/05 A3018 RMK T01800050 IEM_DS3505
ZBAA,1992-10-20 11:00,ZBAA 201100Z AUTO 17002KT 6SM 17/06 A3018 RMK SLP233 T01700060 IEM_DS3505
ZBAA,1992-10-20 12:00,ZBAA 201200Z AUTO 20002KT 6SM 15/09 A3021 RMK SLP243 T01460087 52001 IEM_DS3505
ZBAA,1992-10-20 13:00,ZBAA 201300Z AUTO 17002KT 5SM 14/06 A3021 RMK SLP244 T01400060 IEM_DS3505
ZBAA,1992-10-20 14:00,ZBAA 201400Z AUTO 00000KT 5SM 13/07 A3021 RMK SLP244 T01300070 IEM_DS3505
ZBAA,1992-10-20 15:00,ZBAA 201500Z AUTO 00000KT 4SM 12/08 A3021 RMK SLP241 T01240079 57001 IEM_DS3505
ZBAA,1992-10-20 16:00,ZBAA 201600Z AUTO 09002KT 5SM 11/07 A3021 RMK SLP244 T01100070 IEM_DS3505
ZBAA,1992-10-20 17:00,ZBAA 201700Z AUTO 12004KT 4SM 11/08 A3021 RMK SLP244 T01100080 IEM_DS3505
ZBAA,1992-10-20 18:00,ZBAA 201800Z AUTO 00000KT 2SM 10/08 A3020 RMK SLP239 T01000079 40237//// 57002 IEM_DS3505
ZBAA,1992-10-20 19:00,ZBAA 201900Z AUTO 13002KT 4SM 11/08 A3018 RMK SLP234 T01100080 IEM_DS3505
ZBAA,1992-10-20 20:00,ZBAA 202000Z AUTO 10002KT 4SM 11/09 A3018 RMK SLP234 T01100090 IEM_DS3505
ZBAA,1992-10-20 21:00,ZBAA 202100Z AUTO 04006KT 1 1/4SM 11/08 A3018 RMK SLP235 T01060075 57004 IEM_DS3505
ZBAA,1992-10-20 22:00,ZBAA 202200Z AUTO 12002KT 1 1/4SM 10/10 A3018 RMK SLP234 T01000100 IEM_DS3505
ZBAA,1992-10-20 23:00,ZBAA 202300Z AUTO 00000KT 0SM 11/10 A3018 RMK SLP234 T01100100 IEM_DS3505
ZBAA,1992-10-21 00:00,ZBAA 210000Z AUTO 02004KT 1 1/4SM 11/09 A3018 RMK SLP236 T01130087 54000 IEM_DS3505
ZBAA,1992-10-21 01:00,ZBAA 210100Z AUTO 14002KT 3/8SM 04/ RMK IEM_DS3505
ZBAA,1992-10-21 02:00,ZBAA 210200Z AUTO 14004KT 1/2SM 12/11 A3018 RMK SLP234 T01200110 IEM_DS3505
ZBAA,1992-10-21 03:00,ZBAA 210300Z AUTO 04004KT 2SM 13/10 A3015 RMK SLP229 T01310100 57007 IEM_DS3505
ZBAA,1992-10-21 04:00,ZBAA 210400Z AUTO 00000KT 1 1/4SM 14/11 A3012 RMK SLP213 T01400110 IEM_DS3505
ZBAA,1992-10-21 05:00,ZBAA 210500Z AUTO 00000KT 1 1/2SM 15/12 A3009 RMK SLP203 T01500120 IEM_DS3505
ZBAA,1992-10-21 06:00,ZBAA 210600Z AUTO 04006KT 2SM 14/10 A3006 RMK SLP206 T01420102 4////0092 57023 IEM_DS3505
ZBAA,1992-10-21 07:00,ZBAA 210700Z AUTO 21002KT 2SM 16/10 A3006 RMK SLP193 T01600100 IEM_DS3505
ZBAA,1992-10-21 08:00,ZBAA 210800Z AUTO 24002KT 2SM 15/11 A3003 RMK SLP182 T01500110 IEM_DS3505
ZBAA,1992-10-21 09:00,ZBAA 210900Z AUTO 36006KT 2SM 14/10 A3003 RMK SLP200 T01370100 57006 IEM_DS3505
ZBAA,1992-10-21 10:00,ZBAA 211000Z AUTO 30014KT 7SM 14/05 A3006 RMK SLP193 T01400050 IEM_DS3505
ZBAA,1992-10-21 11:00,ZBAA 211100Z AUTO 30012KT 7SM 12/05 A3006 RMK SLP194 T01200050 IEM_DS3505
ZBAA,1992-10-21 12:00,ZBAA 211200Z AUTO 34004KT 2SM 12/05 A3006 RMK SLP199 T01210052 57001 IEM_DS3505
ZBAA,1992-10-21 13:00,ZBAA 211300Z AUTO 31010KT 7SM 10/07 A3009 RMK SLP204 T01000070 IEM_DS3505
ZBAA,1992-10-21 14:00,ZBAA 211400Z AUTO 28008KT 5SM 08/08 A3009 RMK SLP205 T00800080 IEM_DS3505
ZBAA,1992-10-21 15:00,ZBAA 211500Z AUTO 32006KT 2 1/2SM 08/06 A3009 RMK SLP211 T00810059 52012 IEM_DS3505
ZBAA,1992-10-21 16:00,ZBAA 211600Z AUTO 30012KT 5SM 07/07 A3009 RMK SLP205 T00700070 IEM_DS3505
ZBAA,1992-10-21 17:00,ZBAA 211700Z AUTO 31010KT 5SM 07/06 A3009 RMK SLP205 T00700060 IEM_DS3505
ZBAA,1992-10-21 18:00,ZBAA 211800Z AUTO 36006KT 2 1/2SM 07/05 A3006 RMK 60024 SLP205 T00730053 40145//// 57006 IEM_DS3505
ZBAA,1992-10-21 19:00,ZBAA 211900Z AUTO 2 1/2SM 07/07 A3006 RMK SLP205 T00700070 57006 IEM_DS3505
ZBAA,1992-10-21 20:00,ZBAA 212000Z AUTO 02006KT 7SM 06/06 A3006 RMK SLP195 T00600060 IEM_DS3505
ZBAA,1992-10-21 21:00,ZBAA 212100Z AUTO 29004KT 6SM 07/04 A3006 RMK SLP195 T00730038 57010 IEM_DS3505
ZBAA,1992-10-21 22:00,ZBAA 212200Z AUTO 35004KT 6SM 06/05 A3003 RMK SLP184 T00600050 IEM_DS3505
ZBAA,1992-10-21 23:00,ZBAA 212300Z AUTO 34004KT 7SM 06/05 A3006 RMK SLP195 T00600050 IEM_DS3505
ZBAA,1992-10-22 00:00,ZBAA 220000Z AUTO 20004KT 5SM 08/06 A3006 RMK 60000 70028 SLP199 T00770055 52004 IEM_DS3505
ZBAA,1992-10-22 01:00,ZBAA 220100Z AUTO 24008KT 7SM 09/08 A3006 RMK SLP194 T00900080 IEM_DS3505
ZBAA,1992-10-22 02:00,ZBAA 220200Z AUTO 22008KT 7SM 11/07 A3006 RMK SLP194 T01100070 IEM_DS3505
ZBAA,1992-10-22 03:00,ZBAA 220300Z AUTO 18008KT 4SM 12/06 A3003 RMK SLP195 T01160063 57004 IEM_DS3505
ZBAA,1992-10-22 04:00,ZBAA 220400Z AUTO 20004KT 6SM 13/05 A3003 RMK SLP182 T01300050 IEM_DS3505
ZBAA,1992-10-22 05:00,ZBAA 220500Z AUTO 23004KT 7SM 13/03 A3003 RMK SLP182 T01300030 IEM_DS3505
ZBAA,1992-10-22 06:00,ZBAA 220600Z AUTO 22006KT 8SM 14/02 A3000 RMK SLP183 T01350023 4////0051 57012 IEM_DS3505
ZBAA,1992-10-22 07:00,ZBAA 220700Z AUTO 29014KT 7SM 11/00 A3003 RMK SLP183 T01100000 IEM_DS3505
ZBAA,1992-10-22 08:00,ZBAA 220800Z AUTO 30014KT 7SM 11/M01 A3003 RMK SLP183 T01101010 IEM_DS3505
ZBAA,1992-10-22 09:00,ZBAA 220900Z AUTO 36006G21KT 12SM 10/01 A3006 RMK SLP191 T01040006 52008 IEM_DS3505
ZBAA,1992-10-22 10:00,ZBAA 221000Z AUTO 30014KT 7SM 08/M02 A3009 RMK SLP205 T00801020 IEM_DS3505
ZBAA,1992-10-22 12:00,ZBAA 221200Z AUTO 27006KT 19SM 08/M06 A3009 RMK SLP206 T00841060 52014 IEM_DS3505
ZBAA,1992-10-22 13:00,ZBAA 221300Z AUTO 30006KT 6SM 07/M04 A3009 RMK SLP205 T00701040 IEM_DS3505
ZBAA,1992-10-22 14:00,ZBAA 221400Z AUTO 30004KT 6SM 05/M04 A3009 RMK SLP205 T00501040 IEM_DS3505
ZBAA,1992-10-22 15:00,ZBAA 221500Z AUTO 18004KT 19SM 05/M01 A3009 RMK SLP208 T00471010 52002 IEM_DS3505
ZBAA,1992-10-22 16:00,ZBAA 221600Z AUTO 28006KT 6SM 06/M04 A3009 RMK SLP205 T00601040 IEM_DS3505
ZBAA,1992-10-22 17:00,ZBAA 221700Z AUTO 29006KT 6SM 06/M05 A3009 RMK SLP205 T00601050 IEM_DS3505
ZBAA,1992-10-22 18:00,ZBAA 221800Z AUTO 22004KT 19SM 06/M04 A3009 RMK SLP205 T00581041 40137//// 57002 IEM_DS3505
ZBAA,1992-10-22 19:00,ZBAA 221900Z AUTO 28004KT 6SM 05/M04 A3009 RMK SLP205 T00501040 IEM_DS3505
ZBAA,1992-10-22 20:00,ZBAA 222000Z AUTO 30002KT 7SM 05/M05 A3006 RMK SLP195 T00501050 IEM_DS3505
ZBAA,1992-10-22 21:00,ZBAA 222100Z AUTO 22004KT 17SM 05/M02 A3006 RMK SLP204 T00461015 57002 IEM_DS3505
ZBAA,1992-10-22 22:00,ZBAA 222200Z AUTO 28008KT 7SM 05/M05 A3006 RMK SLP195 T00501050 IEM_DS3505
ZBAA,1992-10-22 23:00,ZBAA 222300Z AUTO 29010KT 7SM 06/M04 A3009 RMK SLP205 T00601040 IEM_DS3505
ZBAA,1992-10-23 00:00,ZBAA 230000Z AUTO 29010KT 19SM 07/M04 A3011 RMK SLP210 T00671035 52006 IEM_DS3505
ZBAA,1992-10-23 01:00,ZBAA 230100Z AUTO 30010KT 6SM 09/M03 A3012 RMK SLP214 T00901030 IEM_DS3505
ZBAA,1992-10-23 02:00,ZBAA 230200Z AUTO 30016KT 6SM 10/M05 A3009 RMK SLP204 T01001050 IEM_DS3505
ZBAA,1992-10-23 03:00,ZBAA 230300Z AUTO 29012KT 19SM 09/M07 A3009 RMK SLP213 T00941074 52003 IEM_DS3505
ZBAA,1992-10-23 04:00,ZBAA 230400Z AUTO 28019G29KT 6SM 11/M06 A3006 RMK SLP194 T01101060 IEM_DS3505
ZBAA,1992-10-23 05:00,ZBAA 230500Z AUTO 29019KT 6SM 10/M07 A3006 RMK SLP194 T01001070 IEM_DS3505
ZBAA,1992-10-23 06:00,ZBAA 230600Z AUTO 36010KT 19SM 11/M07 A3006 RMK SLP205 T01071072 4////0032 57008 IEM_DS3505
ZBAA,1992-10-23 07:00,ZBAA 230700Z AUTO 30019G31KT 6SM 09/M07 A3006 RMK SLP194 T00901070 IEM_DS3505
ZBAA,1992-10-23 08:00,ZBAA 230800Z AUTO 29019KT 6SM 09/M05 A3006 RMK SLP194 T00901050 IEM_DS3505
ZBAA,1992-10-23 09:00,ZBAA 230900Z AUTO 32014G25KT 16SM 09/M07 A3011 RMK SLP210 T00881067 52005 IEM_DS3505
ZBAA,1992-10-23 10:00,ZBAA 231000Z AUTO 31014KT 6SM 08/M05 A3009 RMK SLP205 T00801050 IEM_DS3505
ZBAA,1992-10-23 11:00,ZBAA 231100Z AUTO 29010KT 6SM 07/M05 A3012 RMK SLP215 T00701050 IEM_DS3505
ZBAA,1992-10-23 12:00,ZBAA 231200Z AUTO 29008KT 12SM 07/M07 A3012 RMK SLP218 T00711066 52008 IEM_DS3505
ZBAA,1992-10-23 13:00,ZBAA 231300Z AUTO 31012KT 7SM 07/M06 A3012 RMK SLP215 T00701060 IEM_DS3505
ZBAA,1992-10-23 14:00,ZBAA 231400Z AUTO 30014KT 7SM 07/M06 A3015 RMK SLP225 T00701060 IEM_DS3505
ZBAA,1992-10-23 15:00,ZBAA 231500Z AUTO 32004KT 9SM 07/M06 A3012 RMK SLP222 T00671055 52004 IEM_DS3505
ZBAA,1992-10-23 16:00,ZBAA 231600Z AUTO 31012KT 7SM 06/M06 A3015 RMK SLP225 T00601060 IEM_DS3505
ZBAA,1992-10-23 17:00,ZBAA 231700Z AUTO 29006KT 7SM 06/M06 A3015 RMK SLP225 T00601060 IEM_DS3505
ZBAA,1992-10-23 18:00,ZBAA 231800Z AUTO 34006KT 19SM 07/M06 A3015 RMK SLP221 T00671055 40109//// 57001 IEM_DS3505
ZBAA,1992-10-23 19:00,ZBAA 231900Z AUTO 34006KT 19SM 07/M06 A3014 RMK SLP221 T00671055 57001 IEM_DS3505
ZBAA,1992-10-23 21:00,ZBAA 232100Z AUTO 34006KT 19SM 06/M06 A3015 RMK SLP224 T00611057 52003 IEM_DS3505
ZBAA,1992-10-23 23:00,ZBAA 232300Z AUTO 31012KT 7SM 06/M06 A3018 RMK SLP235 T00601060 IEM_DS3505
ZBAA,1992-10-24 00:00,ZBAA 240000Z AUTO 34012KT 19SM 07/M06 A3021 RMK SLP245 T00731063 52021 IEM_DS3505
ZBAA,1992-10-24 01:00,ZBAA 240100Z AUTO 32010KT 7SM 09/M05 A3024 RMK SLP255 T00901050 IEM_DS3505
ZBAA,1992-10-24 02:00,ZBAA 240200Z AUTO 32014KT 7SM 10/M05 A3021 RMK SLP244 T01001050 IEM_DS3505
ZBAA,1992-10-24 03:00,ZBAA 240300Z AUTO 02008KT 19SM 11/M07 A3021 RMK SLP249 T01081071 52004 IEM_DS3505
ZBAA,1992-10-24 04:00,ZBAA 240400Z AUTO 30016KT 7SM 12/M05 A3021 RMK SLP244 T01201050 IEM_DS3505
ZBAA,1992-10-24 05:00,ZBAA 240500Z AUTO 30017KT 7SM 12/M06 A3018 RMK SLP234 T01201060 IEM_DS3505
ZBAA,1992-10-24 06:00,ZBAA 240600Z AUTO 34006KT 19SM 13/M06 A3015 RMK SLP231 T01321058 4////0052 57017 IEM_DS3505
ZBAA,1992-10-24 07:00,ZBAA 240700Z AUTO 30016KT 7SM 13/M05 A3015 RMK SLP224 T01301050 IEM_DS3505
ZBAA,1992-10-24 08:00,ZBAA 240800Z AUTO 29016KT 7SM 12/M05 A3015 RMK SLP224 T01201050 IEM_DS3505
ZBAA,1992-10-24 09:00,ZBAA 240900Z AUTO 34006KT 19SM 12/M04 A3018 RMK SLP235 T01181041 52003 IEM_DS3505
ZBAA,1992-10-24 10:00,ZBAA 241000Z AUTO 33012KT 7SM 11/M05 A3018 RMK SLP234 T01101050 IEM_DS3505
ZBAA,1992-10-24 11:00,ZBAA 241100Z AUTO 32010KT 7SM 10/M04 A3021 RMK SLP244 T01001040 IEM_DS3505
ZBAA,1992-10-24 12:00,ZBAA 241200Z AUTO 04004KT 16SM 09/M02 A3021 RMK SLP245 T00881025 52010 IEM_DS3505
ZBAA,1992-10-24 13:00,ZBAA 241300Z AUTO 33012KT 7SM 10/M05 A3021 RMK SLP244 T01001050 IEM_DS3505
ZBAA,1992-10-24 14:00,ZBAA 241400Z AUTO 07006KT 7SM 08/M04 A3024 RMK SLP255 T00801040 IEM_DS3505
ZBAA,1992-10-24 15:00,ZBAA 241500Z AUTO 02008KT 16SM 09/M04 A3024 RMK SLP253 T00861036 52008 IEM_DS3505
ZBAA,1992-10-24 16:00,ZBAA 241600Z AUTO 03008KT 7SM 06/M04 A3027 RMK SLP266 T00601040 IEM_DS3505
ZBAA,1992-10-24 17:00,ZBAA 241700Z AUTO 03008KT 7SM 05/M04 A3027 RMK SLP266 T00501040 IEM_DS3505
ZBAA,1992-10-24 18:00,ZBAA 241800Z AUTO 09004KT 12SM 06/M02 A3030 RMK SLP267 T00581023 40136//// 52014 IEM_DS3505
ZBAA,1992-10-24 19:00,ZBAA 241900Z AUTO 36006KT 7SM 05/M05 A3027 RMK SLP266 T00501050 IEM_DS3505
ZBAA,1992-10-24 20:00,ZBAA 242000Z AUTO 34006KT 7SM 04/M04 A3027 RMK SLP266 T00401040 IEM_DS3505
ZBAA,1992-10-24 21:00,ZBAA 242100Z AUTO 36004KT 12SM 06/M03 A3030 RMK SLP266 T00651034 57001 IEM_DS3505
ZBAA,1992-10-24 22:00,ZBAA 242200Z AUTO 36006KT 7SM 04/M04 A3030 RMK SLP276 T00401040 IEM_DS3505
ZBAA,1992-10-24 23:00,ZBAA 242300Z AUTO 36006KT 7SM 04/M03 A3030 RMK SLP276 T00401030 IEM_DS3505
ZBAA,1992-10-25 00:00,ZBAA 250000Z AUTO 36004KT 11SM 07/M03 A3033 RMK SLP281 T00711033 52015 IEM_DS3505
ZBAA,1992-10-25 01:00,ZBAA 250100Z AUTO 36006KT 7SM 09/M02 A3033 RMK SLP286 T00901020 IEM_DS3505
ZBAA,1992-10-25 02:00,ZBAA 250200Z AUTO 34012KT 7SM 12/M03 A3033 RMK SLP285 T01201030 IEM_DS3505
ZBAA,1992-10-25 03:00,ZBAA 250300Z AUTO 32006KT 19SM 13/M04 A3033 RMK SLP281 T01301040 52001 IEM_DS3505
ZBAA,1992-10-25 04:00,ZBAA 250400Z AUTO 34008KT 7SM 14/M03 A3030 RMK SLP274 T01401030 IEM_DS3505
ZBAA,1992-10-25 05:00,ZBAA 250500Z AUTO 35006KT 7SM 15/M03 A3030 RMK SLP273 T01501030 IEM_DS3505
ZBAA,1992-10-25 06:00,ZBAA 250600Z AUTO 04008KT 19SM 15/M04 A3027 RMK SLP266 T01541044 4////0054 57015 IEM_DS3505
ZBAA,1992-10-25 07:00,ZBAA 250700Z AUTO 35002KT 7SM 15/M04 A3027 RMK SLP263 T01501040 IEM_DS3505
ZBAA,1992-10-25 08:00,ZBAA 250800Z AUTO 09002KT 7SM 15/M04 A3027 RMK SLP263 T01501040 IEM_DS3505
ZBAA,1992-10-25 09:00,ZBAA 250900Z AUTO 22006KT 6SM 14/M01 A3027 RMK SLP265 T01381013 57001 IEM_DS3505
ZBAA,1992-10-25 10:00,ZBAA 251000Z AUTO 00000KT 7SM 12/M02 A3027 RMK SLP264 T01201020 IEM_DS3505
ZBAA,1992-10-25 11:00,ZBAA 251100Z AUTO 24006KT 7SM 10/M01 A3030 RMK SLP275 T01001010 IEM_DS3505
ZBAA,1992-10-25 12:00,ZBAA 251200Z AUTO 20004KT 5SM 10/01 A3030 RMK SLP276 T00960013 52010 IEM_DS3505
ZBAA,1992-10-25 14:00,ZBAA 251400Z AUTO 35004KT 7SM 08/00 A3033 RMK SLP286 T00800000 IEM_DS3505
ZBAA,1992-10-25 15:00,ZBAA 251500Z AUTO 27002KT 4SM 06/03 A3036 RMK SLP289 T00580029 52013 IEM_DS3505
ZBAA,1992-10-25 16:00,ZBAA 251600Z AUTO 01006KT 7SM 08/00 A3036 RMK SLP296 T00800000 IEM_DS3505
ZBAA,1992-10-25 17:00,ZBAA 251700Z AUTO 35006KT 7SM 09/M01 A3039 RMK SLP306 T00901010 IEM_DS3505
ZBAA,1992-10-25 18:00,ZBAA 251800Z AUTO 00000KT 6SM 05/02 A3039 RMK SLP299 T00500017 40163//// 52010 IEM_DS3505
ZBAA,1992-10-25 19:00,ZBAA 251900Z AUTO 35006KT 7SM 08/M01 A3039 RMK SLP306 T00801010 IEM_DS3505
ZBAA,1992-10-25 20:00,ZBAA 252000Z AUTO 35004KT 7SM 04/M01 A3039 RMK SLP307 T00401010 IEM_DS3505
ZBAA,1992-10-25 21:00,ZBAA 252100Z AUTO 02004KT 6SM 05/M00 A3039 RMK SLP302 T00541002 52003 IEM_DS3505
ZBAA,1992-10-25 22:00,ZBAA 252200Z AUTO 34006KT 7SM 04/M01 A3039 RMK SLP307 T00401010 IEM_DS3505
ZBAA,1992-10-25 23:00,ZBAA 252300Z AUTO 35006KT 7SM 05/M01 A3042 RMK SLP317 T00501010 IEM_DS3505
ZBAA,1992-10-26 00:00,ZBAA 260000Z AUTO 04004KT 5SM 08/M01 A3045 RMK SLP316 T00811008 52014 IEM_DS3505
ZBAA,1992-10-26 01:00,ZBAA 260100Z AUTO 03006KT 7SM 10/00 A3045 RMK SLP326 T01000000 IEM_DS3505
ZBAA,1992-10-26 02:00,ZBAA 260200Z AUTO 02008KT 7SM 12/M01 A3045 RMK SLP326 T01201010 IEM_DS3505
ZBAA,1992-10-26 03:00,ZBAA 260300Z AUTO 04006KT 12SM 12/M02 A3045 RMK SLP316 T01251017 54000 IEM_DS3505
ZBAA,1992-10-26 04:00,ZBAA 260400Z AUTO 01006KT 7SM 14/M02 A3042 RMK SLP315 T01401020 IEM_DS3505
ZBAA,1992-10-26 05:00,ZBAA 260500Z AUTO 04004KT 6SM 14/M03 A3039 RMK SLP305 T01401030 IEM_DS3505
ZBAA,1992-10-26 06:00,ZBAA 260600Z AUTO 27004KT 12SM 15/M03 A3036 RMK SLP299 T01541027 4////0037 57017 IEM_DS3505
ZBAA,1992-10-26 07:00,ZBAA 260700Z AUTO 03002KT 6SM 15/M04 A3036 RMK SLP295 T01501040 IEM_DS3505
ZBAA,1992-10-26 08:00,ZBAA 260800Z AUTO 23002KT 6SM 15/M04 A3036 RMK SLP295 T01501040 IEM_DS3505
ZBAA,1992-10-26 09:00,ZBAA 260900Z AUTO 18004KT 9SM 14/01 A3036 RMK SLP299 T01390010 54000 IEM_DS3505
ZBAA,1992-10-26 10:00,ZBAA 261000Z AUTO 00000KT 6SM 11/M03 A3039 RMK SLP306 T01101030 IEM_DS3505
ZBAA,1992-10-26 11:00,ZBAA 261100Z AUTO 00000KT 6SM 10/00 A3039 RMK SLP306 T01000000 IEM_DS3505
ZBAA,1992-10-26 12:00,ZBAA 261200Z AUTO 20002KT 5SM 08/03 A3039 RMK SLP305 T00820032 52006 IEM_DS3505
ZBAA,1992-10-26 13:00,ZBAA 261300Z AUTO 00000KT 6SM 08/00 A3042 RMK SLP316 T00800000 IEM_DS3505
ZBAA,1992-10-26 14:00,ZBAA 261400Z AUTO 36002KT 6SM 07/00 A3042 RMK SLP317 T00700000 IEM_DS3505
ZBAA,1992-10-26 15:00,ZBAA 261500Z AUTO 00000KT 5SM 06/04 A3042 RMK SLP311 T00580036 52006 IEM_DS3505
ZBAA,1992-10-26 16:00,ZBAA 261600Z AUTO 00000KT 6SM 06/00 A3042 RMK SLP317 T00600000 IEM_DS3505
ZBAA,1992-10-26 17:00,ZBAA 261700Z AUTO 00000KT 6SM 05/00 A3042 RMK SLP317 T00500000 IEM_DS3505
ZBAA,1992-10-26 18:00,ZBAA 261800Z AUTO 02004KT 6SM 04/02 A3041 RMK SLP314 T00430025 40162//// 52003 IEM_DS3505
ZBAA,1992-10-26 19:00,ZBAA 261900Z AUTO 00000KT 6SM 04/00 A3042 RMK SLP317 T00400000 IEM_DS3505
ZBAA,1992-10-26 20:00,ZBAA 262000Z AUTO 00000KT 6SM 03/00 A3042 RMK SLP318 T00300000 IEM_DS3505
ZBAA,1992-10-26 21:00,ZBAA 262100Z AUTO 00000KT 6SM 03/02 A3045 RMK SLP314 T00280018 54000 IEM_DS3505
ZBAA,1992-10-26 22:00,ZBAA 262200Z AUTO 00000KT 6SM 04/01 A3045 RMK SLP327 T00400010 IEM_DS3505
ZBAA,1992-10-26 23:00,ZBAA 262300Z AUTO 01002KT 6SM 04/01 A3045 RMK SLP327 T00400010 IEM_DS3505
ZBAA,1992-10-27 00:00,ZBAA 270000Z AUTO 04004KT 6SM 06/01 A3045 RMK SLP322 T00610010 52007 IEM_DS3505
ZBAA,1992-10-27 01:00,ZBAA 270100Z AUTO 36002KT 7SM 07/03 A3045 RMK SLP327 T00700030 IEM_DS3505
ZBAA,1992-10-27 02:00,ZBAA 270200Z AUTO 00000KT 7SM 10/04 A3045 RMK SLP326 T01000040 IEM_DS3505
ZBAA,1992-10-27 03:00,ZBAA 270300Z AUTO 07004KT 2SM 11/01 A3042 RMK SLP314 T01070010 57007 IEM_DS3505
ZBAA,1992-10-27 04:00,ZBAA 270400Z AUTO 11002KT 7SM 13/03 A3039 RMK SLP305 T01300030 IEM_DS3505
ZBAA,1992-10-27 05:00,ZBAA 270500Z AUTO 12004KT 6SM 14/02 A3036 RMK SLP295 T01400020 IEM_DS3505
ZBAA,1992-10-27 06:00,ZBAA 270600Z AUTO 18004KT 2SM 14/03 A3033 RMK SLP282 T01410031 4////0024 57032 IEM_DS3505
ZBAA,1992-10-27 07:00,ZBAA 270700Z AUTO 20006KT 6SM 15/01 A3030 RMK SLP273 T01500010 IEM_DS3505
ZBAA,1992-10-27 08:00,ZBAA 270800Z AUTO 16004KT 6SM 14/01 A3030 RMK SLP274 T01400010 IEM_DS3505
ZBAA,1992-10-27 09:00,ZBAA 270900Z AUTO 20004KT 4SM 14/02 A3030 RMK SLP273 T01350017 57009 IEM_DS3505
ZBAA,1992-10-27 10:00,ZBAA 271000Z AUTO 00000KT 6SM 11/02 A3030 RMK SLP274 T01100020 IEM_DS3505
ZBAA,1992-10-27 11:00,ZBAA 271100Z AUTO 00000KT 5SM 11/02 A3030 RMK SLP274 T01100020 IEM_DS3505
ZBAA,1992-10-27 12:00,ZBAA 271200Z AUTO 18004KT 3SM 12/02 A3027 RMK SLP268 T01200025 57005 IEM_DS3505
ZBAA,1992-10-27 13:00,ZBAA 271300Z AUTO 00000KT 5SM 10/02 A3027 RMK SLP265 T01000020 IEM_DS3505
ZBAA,1992-10-27 14:00,ZBAA 271400Z AUTO 00000KT 5SM 10/02 A3027 RMK SLP265 T01000020 IEM_DS3505
ZBAA,1992-10-27 15:00,ZBAA 271500Z AUTO 00000KT 2 1/2SM 11/04 A3024 RMK SLP255 T01090036 57012 IEM_DS3505
ZBAA,1992-10-27 16:00,ZBAA 271600Z AUTO 11002KT 5SM 09/04 A3024 RMK SLP255 T00900040 IEM_DS3505
ZBAA,1992-10-27 17:00,ZBAA 271700Z AUTO 10004KT 5SM 08/04 A3021 RMK SLP245 T00800040 IEM_DS3505
ZBAA,1992-10-27 18:00,ZBAA 271800Z AUTO 04004KT 3SM 08/04 A3020 RMK SLP242 T00840043 40149//// 57013 IEM_DS3505
ZBAA,1992-10-27 19:00,ZBAA 271900Z AUTO 36006KT 5SM 07/03 A3018 RMK SLP235 T00700030 IEM_DS3505
ZBAA,1992-10-27 20:00,ZBAA 272000Z AUTO 04004KT 3SM 08/04 A3020 RMK SLP242 T00840043 57013 IEM_DS3505
ZBAA,1992-10-27 21:00,ZBAA 272100Z AUTO 04002KT 4SM 08/03 A3015 RMK SLP229 T00760033 57013 IEM_DS3505
ZBAA,1992-10-27 22:00,ZBAA 272200Z AUTO 34004KT 4SM 05/02 A3015 RMK SLP226 T00500020 IEM_DS3505
ZBAA,1992-10-27 23:00,ZBAA 272300Z AUTO 36004KT 2SM 05/03 A3012 RMK SLP215 T00500030 IEM_DS3505
ZBAA,1992-10-28 00:00,ZBAA 280000Z AUTO 02002KT 2 1/2SM 08/03 A3012 RMK SLP219 T00750032 57010 IEM_DS3505
ZBAA,1992-10-28 01:00,ZBAA 280100Z AUTO 00000KT 2SM 08/04 A3012 RMK SLP215 T00800040 IEM_DS3505
ZBAA,1992-10-28 02:00,ZBAA 280200Z AUTO 00000KT 2 1/2SM 10/04 A3012 RMK SLP214 T01000040 IEM_DS3505
ZBAA,1992-10-28 03:00,ZBAA 280300Z AUTO 07004KT 1 1/4SM 13/04 A3010 RMK SLP206 T01270038 57013 IEM_DS3505
ZBAA,1992-10-28 04:00,ZBAA 280400Z AUTO 21002KT 3SM 14/05 A3006 RMK SLP193 T01400050 IEM_DS3505
ZBAA,1992-10-28 05:00,ZBAA 280500Z AUTO 16004KT 3SM 15/05 A3000 RMK SLP172 T01500050 IEM_DS3505
ZBAA,1992-10-28 06:00,ZBAA 280600Z AUTO 18004KT 1 1/4SM 16/04 A2997 RMK SLP171 T01570035 4////0056 57034 IEM_DS3505
ZBAA,1992-10-28 07:00,ZBAA 280700Z AUTO 19006KT 3SM 15/04 A2997 RMK SLP162 T01500040 IEM_DS3505
ZBAA,1992-10-28 08:00,ZBAA 280800Z AUTO 18006KT 3SM 15/05 A2994 RMK SLP152 T01500050 IEM_DS3505
ZBAA,1992-10-28 09:00,ZBAA 280900Z AUTO 18004KT 1 1/4SM 14/04 A2994 RMK SLP152 T01440045 57020 IEM_DS3505
ZBAA,1992-10-28 10:00,ZBAA 281000Z AUTO 00000KT 2 1/2SM 12/05 A2991 RMK SLP142 T01200050 IEM_DS3505
ZBAA,1992-10-28 11:00,ZBAA 281100Z AUTO 00000KT 2 1/2SM 11/05 A2994 RMK SLP153 T01100050 IEM_DS3505
ZBAA,1992-10-28 12:00,ZBAA 281200Z AUTO 00000KT 3SM 11/06 A2991 RMK SLP146 T01100063 57006 IEM_DS3505
ZBAA,1992-10-28 13:00,ZBAA 281300Z AUTO 09002KT 2SM 10/05 A2991 RMK SLP143 T01000050 IEM_DS3505
ZBAA,1992-10-28 14:00,ZBAA 281400Z AUTO 35006KT 1 1/2SM 10/05 A2991 RMK SLP143 T01000050 IEM_DS3505
ZBAA,1992-10-28 15:00,ZBAA 281500Z AUTO 09002KT 4SM 10/08 A2988 RMK SLP143 T01020075 57002 IEM_DS3505
ZBAA,1992-10-28 16:00,ZBAA 281600Z AUTO 22002KT 1 1/4SM 09/08 A2988 RMK SLP133 T00900080 IEM_DS3505
ZBAA,1992-10-28 17:00,ZBAA 281700Z AUTO 03002KT 1SM 09/09 A2985 RMK SLP123 T00900090 IEM_DS3505
ZBAA,1992-10-28 18:00,ZBAA 281800Z AUTO 34004KT 1SM 09/09 A2987 RMK 60020 SLP128 T00940086 40163//// 57015 IEM_DS3505
ZBAA,1992-10-28 19:00,ZBAA 281900Z AUTO 27006KT 1SM 08/08 A2985 RMK SLP123 T00800080 IEM_DS3505
ZBAA,1992-10-28 20:00,ZBAA 282000Z AUTO 28010KT 1SM 09/08 A2985 RMK SLP123 T00900080 IEM_DS3505
ZBAA,1992-10-28 21:00,ZBAA 282100Z AUTO 29008KT 11SM 12/M01 A2985 RMK SLP133 T01241006 52005 IEM_DS3505
ZBAA,1992-10-28 22:00,ZBAA 282200Z AUTO 30012KT 7SM 10/04 A2988 RMK SLP133 T01000040 IEM_DS3505
ZBAA,1992-10-28 23:00,ZBAA 282300Z AUTO 31012KT 6SM 10/01 A2991 RMK SLP143 T01000010 IEM_DS3505
ZBAA,1992-10-29 00:00,ZBAA 290000Z AUTO 34012KT 19SM 12/M05 A2994 RMK 70020 SLP150 T01221054 52017 IEM_DS3505
ZBAA,1992-10-29 01:00,ZBAA 290100Z AUTO 30008KT 7SM 12/00 A2994 RMK SLP152 T01200000 IEM_DS3505
ZBAA,1992-10-29 02:00,ZBAA 290200Z AUTO 32016KT 7SM 14/M02 A2994 RMK SLP152 T01401020 IEM_DS3505
ZBAA,1992-10-29 03:00,ZBAA 290300Z AUTO 32012G25KT 16SM 14/M04 A2994 RMK SLP165 T01451043 52015 IEM_DS3505
ZBAA,1992-10-29 04:00,ZBAA 290400Z AUTO 32021KT 6SM 15/M03 A2994 RMK SLP152 T01501030 IEM_DS3505
ZBAA,1992-10-29 05:00,ZBAA 290500Z AUTO 32019KT 6SM 15/M04 A2994 RMK SLP152 T01501040 IEM_DS3505
ZBAA,1992-10-29 06:00,ZBAA 290600Z AUTO 34012G31KT 12SM 15/M06 A2994 RMK SLP162 T01521056 4////0089 57003 IEM_DS3505
ZBAA,1992-10-29 07:00,ZBAA 290700Z AUTO 34017G27KT 6SM 15/M04 A2994 RMK SLP152 T01501040 IEM_DS3505
ZBAA,1992-10-29 08:00,ZBAA 290800Z AUTO 33031G41KT 6SM 14/M06 A3000 RMK SLP172 T01401060 IEM_DS3505
ZBAA,1992-10-29 09:00,ZBAA 290900Z AUTO 34012G37KT 19SM 13/M06 A3003 RMK SLP184 T01291064 52022 IEM_DS3505
ZBAA,1992-10-29 10:00,ZBAA 291000Z AUTO 34016KT 7SM 12/M05 A3003 RMK SLP183 T01201050 IEM_DS3505
ZBAA,1992-10-29 11:00,ZBAA 291100Z AUTO 34017KT 7SM 12/M06 A3006 RMK SLP194 T01201060 IEM_DS3505
ZBAA,1992-10-29 12:00,ZBAA 291200Z AUTO 34010KT 11SM 12/M05 A3006 RMK SLP202 T01171051 52017 IEM_DS3505
ZBAA,1992-10-29 13:00,ZBAA 291300Z AUTO 34016KT 7SM 11/M05 A3009 RMK SLP204 T01101050 IEM_DS3505
ZBAA,1992-10-29 14:00,ZBAA 291400Z AUTO 34019KT 7SM 12/M07 A3009 RMK SLP204 T01201070 IEM_DS3505
ZBAA,1992-10-29 15:00,ZBAA 291500Z AUTO 34004KT 12SM 11/M05 A3012 RMK SLP217 T01091054 52015 IEM_DS3505
ZBAA,1992-10-29 16:00,ZBAA 291600Z AUTO 34012KT 7SM 10/M07 A3012 RMK SLP214 T01001070 IEM_DS3505
ZBAA,1992-10-29 17:00,ZBAA 291700Z AUTO 32008KT 7SM 09/M07 A3012 RMK SLP214 T00901070 IEM_DS3505
ZBAA,1992-10-29 18:00,ZBAA 291800Z AUTO 36006KT 16SM 09/M05 A3012 RMK SLP220 T00941051 40153//// 52003 IEM_DS3505
ZBAA,1992-10-29 19:00,ZBAA 291900Z AUTO 33010KT 7SM 09/M07 A3012 RMK SLP214 T00901070 IEM_DS3505
ZBAA,1992-10-29 20:00,ZBAA 292000Z AUTO 29006KT 7SM 06/M05 A3012 RMK SLP215 T00601050 IEM_DS3505
ZBAA,1992-10-29 21:00,ZBAA 292100Z AUTO 09002KT 16SM 06/M02 A3012 RMK SLP215 T00611025 57005 IEM_DS3505
ZBAA,1992-10-29 22:00,ZBAA 292200Z AUTO 26006KT 7SM 04/M03 A3012 RMK SLP216 T00401030 IEM_DS3505
ZBAA,1992-10-29 23:00,ZBAA 292300Z AUTO 27004KT 7SM 04/M03 A3012 RMK SLP216 T00401030 IEM_DS3505
ZBAA,1992-10-30 00:00,ZBAA 300000Z AUTO 00000KT 5SM 07/M01 A3013 RMK SLP218 T00681012 52003 IEM_DS3505
ZBAA,1992-10-30 01:00,ZBAA 300100Z AUTO 29004KT 6SM 09/M03 A3015 RMK SLP225 T00901030 IEM_DS3505
ZBAA,1992-10-30 02:00,ZBAA 300200Z AUTO 36006KT 6SM 12/M03 A3012 RMK SLP214 T01201030 IEM_DS3505
ZBAA,1992-10-30 03:00,ZBAA 300300Z AUTO 20010KT 6SM 13/M05 A3011 RMK SLP212 T01281047 57006 IEM_DS3505
ZBAA,1992-10-30 04:00,ZBAA 300400Z AUTO 23002KT 6SM 14/M04 A3006 RMK SLP193 T01401040 IEM_DS3505
ZBAA,1992-10-30 05:00,ZBAA 300500Z AUTO 22008KT 6SM 14/M04 A3003 RMK SLP182 T01401040 IEM_DS3505
ZBAA,1992-10-30 06:00,ZBAA 300600Z AUTO 18010KT 9SM 15/M04 A3000 RMK SLP173 T01481041 4////0039 57038 IEM_DS3505
ZBAA,1992-10-30 07:00,ZBAA 300700Z AUTO 20006KT 6SM 15/M04 A2997 RMK SLP162 T01501040 IEM_DS3505
ZBAA,1992-10-30 08:00,ZBAA 300800Z AUTO 22008KT 6SM 14/M04 A2994 RMK SLP152 T01401040 IEM_DS3505
ZBAA,1992-10-30 09:00,ZBAA 300900Z AUTO 18006KT 6SM 14/M00 A2994 RMK SLP157 T01371003 57017 IEM_DS3505
ZBAA,1992-10-30 10:00,ZBAA 301000Z AUTO 00000KT 6SM 10/M01 A2994 RMK SLP153 T01001010 IEM_DS3505
ZBAA,1992-10-30 11:00,ZBAA 301100Z AUTO 12002KT 5SM 09/00 A2994 RMK SLP153 T00900000 IEM_DS3505
ZBAA,1992-10-30 12:00,ZBAA 301200Z AUTO 00000KT 5SM 09/03 A2994 RMK SLP160 T00920026 52003 IEM_DS3505
ZBAA,1992-10-30 13:00,ZBAA 301300Z AUTO 00000KT 5SM 09/M01 A2994 RMK SLP153 T00901010 IEM_DS3505
ZBAA,1992-10-30 14:00,ZBAA 301400Z AUTO 00000KT 5SM 08/M01 A2994 RMK SLP153 T00801010 IEM_DS3505
ZBAA,1992-10-30 15:00,ZBAA 301500Z AUTO 02008KT 6SM 08/01 A2994 RMK SLP161 T00750010 52001 IEM_DS3505
ZBAA,1992-10-30 16:00,ZBAA 301600Z AUTO 02002KT 5SM 06/00 A2994 RMK SLP154 T00600000 IEM_DS3505
ZBAA,1992-10-30 17:00,ZBAA 301700Z AUTO 06002KT 5SM 05/00 A2994 RMK SLP154 T00500000 IEM_DS3505
ZBAA,1992-10-30 18:00,ZBAA 301800Z AUTO 09002KT 6SM 06/00 A2995 RMK SLP156 T00650003 40154//// 57005 IEM_DS3505
ZBAA,1992-10-30 19:00,ZBAA 301900Z AUTO 00000KT 5SM 04/00 A2991 RMK SLP144 T00400000 IEM_DS3505
ZBAA,1992-10-30 20:00,ZBAA 302000Z AUTO 27006KT 5SM 04/M01 A2994 RMK SLP154 T00401010 IEM_DS3505
ZBAA,1992-10-30 21:00,ZBAA 302100Z AUTO 27008KT 12SM 11/M05 A2997 RMK SLP165 T01141052 52010 IEM_DS3505
ZBAA,1992-10-30 22:00,ZBAA 302200Z AUTO 29006KT 7SM 09/M04 A3000 RMK SLP173 T00901040 IEM_DS3505
ZBAA,1992-10-30 23:00,ZBAA 302300Z AUTO 32006KT 6SM 08/M04 A3003 RMK SLP184 T00801040 IEM_DS3505
ZBAA,1992-10-31 00:00,ZBAA 310000Z AUTO 02004G35KT 19SM 11/M04 A3009 RMK SLP209 T01091036 52043 IEM_DS3505
ZBAA,1992-10-31 01:00,ZBAA 310100Z AUTO 32019KT 7SM 11/M05 A3012 RMK SLP214 T01101050 IEM_DS3505
ZBAA,1992-10-31 02:00,ZBAA 310200Z AUTO 32019KT 7SM 13/M04 A3015 RMK SLP224 T01301040 IEM_DS3505
ZBAA,1992-10-31 03:00,ZBAA 310300Z AUTO 34012KT 19SM 12/M05 A3018 RMK SLP236 T01241047 52027 IEM_DS3505
ZBAA,1992-10-31 04:00,ZBAA 310400Z AUTO 32019KT 6SM 14/M05 A3021 RMK SLP244 T01401050 IEM_DS3505
ZBAA,1992-10-31 05:00,ZBAA 310500Z AUTO 31017KT 6SM 14/M05 A3021 RMK SLP244 T01401050 IEM_DS3505
ZBAA,1992-10-31 06:00,ZBAA 310600Z AUTO 32012KT 19SM 14/M05 A3024 RMK SLP252 T01371052 4////0050 52016 IEM_DS3505
ZBAA,1992-10-31 07:00,ZBAA 310700Z AUTO 31014KT 6SM 13/M07 A3027 RMK SLP264 T01301070 IEM_DS3505
ZBAA,1992-10-31 08:00,ZBAA 310800Z AUTO 31016KT 6SM 13/M08 A3027 RMK SLP264 T01301080 IEM_DS3505
ZBAA,1992-10-31 09:00,ZBAA 310900Z AUTO 32010KT 16SM 12/M06 A3030 RMK SLP269 T01181060 52017 IEM_DS3505
ZBAA,1992-10-31 10:00,ZBAA 311000Z AUTO 34006KT 7SM 10/M09 A3033 RMK SLP286 T01001090 IEM_DS3505
ZBAA,1992-10-31 11:00,ZBAA 311100Z AUTO 34008KT 7SM 10/M10 A3036 RMK SLP296 T01001100 IEM_DS3505
ZBAA,1992-10-31 12:00,ZBAA 311200Z AUTO 34008KT 19SM 08/M06 A3039 RMK SLP300 T00851055 52030 IEM_DS3505
ZBAA,1992-10-31 13:00,ZBAA 311300Z AUTO 01008KT 7SM 08/M10 A3042 RMK SLP316 T00801100 IEM_DS3505
ZBAA,1992-10-31 14:00,ZBAA 311400Z AUTO 02006KT 7SM 07/M11 A3045 RMK SLP327 T00701110 IEM_DS3505
ZBAA,1992-10-31 15:00,ZBAA 311500Z AUTO 09004KT 19SM 08/M09 A3047 RMK SLP323 T00751090 52023 IEM_DS3505
ZBAA,1992-10-31 16:00,ZBAA 311600Z AUTO 01006KT 7SM 04/M10 A3047 RMK SLP335 T00401100 IEM_DS3505
ZBAA,1992-10-31 17:00,ZBAA 311700Z AUTO 7SM 04/M10 A3050 RMK SLP345 T00401100 IEM_DS3505
ZBAA,1992-10-31 18:00,ZBAA 311800Z AUTO 07008KT 19SM 05/M09 A3050 RMK SLP336 T00501087 40137//// 52013 IEM_DS3505
ZBAA,1992-10-31 19:00,ZBAA 311900Z AUTO 13002KT 7SM 01/M09 A3050 RMK SLP345 T00101090 IEM_DS3505
ZBAA,1992-10-31 20:00,ZBAA 312000Z AUTO 26002KT 7SM 01/M08 A3050 RMK SLP345 T00101080 IEM_DS3505
ZBAA,1992-10-31 21:00,ZBAA 312100Z AUTO 18002KT 19SM 00/M04 A3053 RMK SLP345 T00051043 52008 IEM_DS3505
ZBAA,1992-10-31 22:00,ZBAA 312200Z AUTO 28002KT 7SM 00/M08 A3053 RMK SLP356 T00001080 IEM_DS3505
ZBAA,1992-10-31 23:00,ZBAA 312300Z AUTO 00000KT 7SM 00/M08 A3053 RMK SLP356 T00001080 IEM_DS3505
ZBAA,1992-11-01 00:00,ZBAA 010000Z AUTO 00000KT 6SM 04/M05 A3056 RMK SLP353 T00411048 52008 IEM_DS3505
ZBAA,1992-11-01 01:00,ZBAA 010100Z AUTO 18008KT 12SM 10/M07 A3056 RMK SLP307 T01011070 4////0003 57046 IEM_DS3505
ZBAA,1992-11-01 02:00,ZBAA 010200Z AUTO 14002KT 7SM 07/M07 A3053 RMK T00701070 IEM_DS3505
ZBAA,1992-11-01 03:00,ZBAA 010300Z AUTO 18006KT 9SM 08/M08 A3053 RMK SLP344 T00761083 57009 IEM_DS3505
ZBAA,1992-11-01 04:00,ZBAA 010400Z AUTO 19006KT 7SM 09/M08 A3047 RMK T00901080 IEM_DS3505
ZBAA,1992-11-01 05:00,ZBAA 010500Z AUTO 18008KT 7SM 10/M07 A3045 RMK T01001070 IEM_DS3505
ZBAA,1992-11-01 06:00,ZBAA 010600Z AUTO 18008KT 12SM 10/M06 A3042 RMK SLP307 T01011057 4////0003 57036 IEM_DS3505
ZBAA,1992-11-01 07:00,ZBAA 010700Z AUTO 19008KT 7SM 11/M05 A3039 RMK T01101050 IEM_DS3505
ZBAA,1992-11-01 08:00,ZBAA 010800Z AUTO 18006KT 6SM 10/M04 A3036 RMK T01001040 IEM_DS3505
ZBAA,1992-11-01 09:00,ZBAA 010900Z AUTO 20006KT 9SM 10/M03 A3033 RMK SLP287 T00981032 57021 IEM_DS3505
ZBAA,1992-11-01 10:00,ZBAA 011000Z AUTO 19002KT 7SM 08/M04 A3033 RMK T00801040 IEM_DS3505
ZBAA,1992-11-01 11:00,ZBAA 011100Z AUTO 00000KT 5SM 06/M03 A3033 RMK T00601030 IEM_DS3505
ZBAA,1992-11-01 12:00,ZBAA 011200Z AUTO 18004KT 7SM 08/M00 A3033 RMK SLP286 T00761005 57001 IEM_DS3505
ZBAA,1992-11-01 13:00,ZBAA 011300Z AUTO 10002KT 5SM 04/M03 A3033 RMK T00401030 IEM_DS3505
ZBAA,1992-11-01 14:00,ZBAA 011400Z AUTO 10002KT 6SM 04/M03 A3033 RMK T00401030 IEM_DS3505
ZBAA,1992-11-01 15:00,ZBAA 011500Z AUTO 07002KT 5SM 04/00 A3033 RMK SLP282 T00390004 57004 IEM_DS3505
ZBAA,1992-11-01 16:00,ZBAA 011600Z AUTO 06002KT 6SM 03/M03 A3030 RMK T00301030 IEM_DS3505
ZBAA,1992-11-01 17:00,ZBAA 011700Z AUTO 09002KT 6SM 03/M03 A3027 RMK T00301030 IEM_DS3505
ZBAA,1992-11-01 18:00,ZBAA 011800Z AUTO 04004KT 6SM 04/M02 A3027 RMK SLP265 T00391021 40111//// 57016 IEM_DS3505
ZBAA,1992-11-01 19:00,ZBAA 011900Z AUTO 00000KT 6SM 02/M02 A3024 RMK T00201020 IEM_DS3505
ZBAA,1992-11-01 20:00,ZBAA 012000Z AUTO 00000KT 6SM 02/M02 A3021 RMK T00201020 IEM_DS3505
ZBAA,1992-11-01 21:00,ZBAA 012100Z AUTO 04002KT 6SM 04/M01 A3018 RMK SLP240 T00371013 57025 IEM_DS3505
ZBAA,1992-11-01 22:00,ZBAA 012200Z AUTO 07002KT 6SM 02/M01 A3018 RMK T00201010 IEM_DS3505
ZBAA,1992-11-01 23:00,ZBAA 012300Z AUTO 00000KT 5SM 03/00 A3018 RMK T00300000 IEM_DS3505
ZBAA,1992-11-02 00:00,ZBAA 020000Z AUTO 04004KT 4SM 04/M00 RMK SLP237 T00391004 57003 IEM_DS3505
ZBAA,1992-11-02 01:00,ZBAA 020100Z AUTO 33006KT 3SM 04/00 A3018 RMK T00400000 IEM_DS3505
ZBAA,1992-11-02 02:00,ZBAA 020200Z AUTO 08004KT 2 1/2SM 04/01 A3015 RMK T00400010 IEM_DS3505
ZBAA,1992-11-02 03:00,ZBAA 020300Z AUTO 34006KT 2SM 03/02 RMK SLP230 T00280023 57008 IEM_DS3505
ZBAA,1992-11-02 04:00,ZBAA 020400Z AUTO 36006KT 2 1/2SM 03/03 A3012 RMK T00300030 IEM_DS3505
ZBAA,1992-11-02 05:00,ZBAA 020500Z AUTO 06002KT 2 1/2SM 04/04 A3009 RMK T00400040 IEM_DS3505
ZBAA,1992-11-02 06:00,ZBAA 020600Z AUTO 02006KT 2SM 05/03 A3006 RMK 60008 SLP200 T00490027 4////0028 57029 IEM_DS3505
ZBAA,1992-11-02 07:00,ZBAA 020700Z AUTO 10002KT 2 1/2SM 05/04 A3003 RMK T00500040 IEM_DS3505
ZBAA,1992-11-02 08:00,ZBAA 020800Z AUTO 00000KT 3SM 05/03 A3003 RMK T00500030 IEM_DS3505
ZBAA,1992-11-02 09:00,ZBAA 020900Z AUTO 29002KT 1 1/2SM 05/03 RMK SLP190 T00540030 57010 IEM_DS3505
ZBAA,1992-11-02 10:00,ZBAA 021000Z AUTO 28002KT 3SM 05/02 A3006 RMK T00500020 IEM_DS3505
ZBAA,1992-11-02 11:00,ZBAA 021100Z AUTO 11004KT 1 1/4SM 04/02 A3006 RMK SLP196 T00440020 57002 IEM_DS3505
ZBAA,1992-11-02 12:00,ZBAA 021200Z AUTO 32002KT 1 1/4SM 05/03 A3006 RMK SLP197 T00460031 52007 IEM_DS3505
ZBAA,1992-11-02 13:00,ZBAA 021300Z AUTO 07002KT 2SM 03/02 A3006 RMK T00300020 IEM_DS3505
ZBAA,1992-11-02 14:00,ZBAA 021400Z AUTO 00000KT 2SM 04/02 A3006 RMK T00400020 IEM_DS3505
ZBAA,1992-11-02 15:00,ZBAA 021500Z AUTO 11004KT 1 1/4SM 04/02 A3006 RMK SLP196 T00440024 57002 IEM_DS3505
ZBAA,1992-11-02 16:00,ZBAA 021600Z AUTO 05004KT 2SM 02/01 A3006 RMK T00200010 IEM_DS3505
ZBAA,1992-11-02 17:00,ZBAA 021700Z AUTO 01002KT 1 1/2SM 02/01 A3003 RMK T00200010 IEM_DS3505
ZBAA,1992-11-02 18:00,ZBAA 021800Z AUTO 22004KT 2SM 04/02 A3006 RMK SLP191 T00410018 40054//// 57004 IEM_DS3505
ZBAA,1992-11-02 19:00,ZBAA 021900Z AUTO 00000KT 1 1/4SM 01/00 A3003 RMK T00100000 IEM_DS3505
ZBAA,1992-11-02 20:00,ZBAA 022000Z AUTO 09002KT 1SM 01/M01 A3003 RMK T00101010 IEM_DS3505
ZBAA,1992-11-02 21:00,ZBAA 022100Z AUTO 34006KT 1SM 03/01 RMK SLP194 T00280012 52003 IEM_DS3505
ZBAA,1992-11-02 22:00,ZBAA 022200Z AUTO 05002KT 1SM M01/M02 A3006 RMK T10101020 IEM_DS3505
ZBAA,1992-11-02 23:00,ZBAA 022300Z AUTO 00000KT 1SM M01/M02 A3006 RMK T10101020 IEM_DS3505
ZBAA,1992-11-03 00:00,ZBAA 030000Z AUTO 29004KT 9SM 06/00 A3009 RMK 70008 SLP211 T00650000 52017 IEM_DS3505
ZBAA,1992-11-03 01:00,ZBAA 030100Z AUTO 34002KT 4SM 06/06 A3012 RMK T00600060 IEM_DS3505
ZBAA,1992-11-03 02:00,ZBAA 030200Z AUTO 08004KT 5SM 11/03 A3012 RMK T01100030 IEM_DS3505
ZBAA,1992-11-03 03:00,ZBAA 030300Z AUTO 32004KT 19SM 15/M02 A3015 RMK SLP218 T01501021 52008 IEM_DS3505
ZBAA,1992-11-03 04:00,ZBAA 030400Z AUTO 02006KT 7SM 15/01 A3015 RMK T01500010 IEM_DS3505
ZBAA,1992-11-03 05:00,ZBAA 030500Z AUTO 03006KT 7SM 15/M02 A3012 RMK T01501020 IEM_DS3505
ZBAA,1992-11-03 06:00,ZBAA 030600Z AUTO 34010KT 19SM 17/M07 A3012 RMK SLP212 T01691073 4////0021 57006 IEM_DS3505
ZBAA,1992-11-03 07:00,ZBAA 030700Z AUTO 04006KT 7SM 15/M01 A3012 RMK T01501010 IEM_DS3505
ZBAA,1992-11-03 08:00,ZBAA 030800Z AUTO 05006KT 7SM 14/M02 A3012 RMK T01401020 IEM_DS3505
ZBAA,1992-11-03 09:00,ZBAA 030900Z AUTO 36008KT 19SM 15/M03 A3012 RMK SLP214 T01491027 52002 IEM_DS3505
ZBAA,1992-11-03 10:00,ZBAA 031000Z AUTO 01006KT 7SM 10/M01 A3015 RMK T01001010 IEM_DS3505
ZBAA,1992-11-03 11:00,ZBAA 031100Z AUTO 17002KT 7SM 09/M02 A3015 RMK T00901020 IEM_DS3505
ZBAA,1992-11-03 12:00,ZBAA 031200Z AUTO 22004KT 7SM 08/02 RMK SLP233 T00780025 52018 IEM_DS3505
ZBAA,1992-11-03 13:00,ZBAA 031300Z AUTO 29002KT 7SM 07/00 A3018 RMK T00700000 IEM_DS3505
ZBAA,1992-11-03 14:00,ZBAA 031400Z AUTO 33004KT 7SM 06/M01 A3018 RMK T00601010 IEM_DS3505
ZBAA,1992-11-03 15:00,ZBAA 031500Z AUTO 00000KT 6SM 05/02 A3018 RMK SLP233 T00540024 52001 IEM_DS3505
ZBAA,1992-11-03 16:00,ZBAA 031600Z AUTO 00000KT 7SM 05/00 A3018 RMK T00500000 IEM_DS3505
ZBAA,1992-11-03 17:00,ZBAA 031700Z AUTO 00000KT 7SM 04/M01 A3018 RMK T00401010 IEM_DS3505
ZBAA,1992-11-03 18:00,ZBAA 031800Z AUTO 02004KT 4SM 04/02 A3018 RMK SLP231 T00370022 40173//// 57002 IEM_DS3505
ZBAA,1992-11-03 19:00,ZBAA 031900Z AUTO 33002KT 7SM 03/00 A3015 RMK T00300000 IEM_DS3505
ZBAA,1992-11-03 20:00,ZBAA 032000Z AUTO 36002KT 7SM 03/M01 A3015 RMK T00301010 IEM_DS3505
ZBAA,1992-11-03 21:00,ZBAA 032100Z AUTO 02002KT 4SM 03/01 A3015 RMK SLP227 T00270011 57005 IEM_DS3505
ZBAA,1992-11-03 22:00,ZBAA 032200Z AUTO 00000KT 7SM 02/M01 A3015 RMK T00201010 IEM_DS3505
ZBAA,1992-11-03 23:00,ZBAA 032300Z AUTO 01002KT 7SM 02/M01 A3015 RMK T00201010 IEM_DS3505
ZBAA,1992-11-04 00:00,ZBAA 040000Z AUTO 04002KT 5SM 04/01 A3018 RMK SLP230 T00410007 52003 IEM_DS3505
ZBAA,1992-11-04 01:00,ZBAA 040100Z AUTO 04002KT 4SM 05/01 A3018 RMK T00500010 IEM_DS3505
ZBAA,1992-11-04 02:00,ZBAA 040200Z AUTO 13002KT 4SM 08/01 A3015 RMK T00800010 IEM_DS3505
ZBAA,1992-11-04 03:00,ZBAA 040300Z AUTO 02004KT 4SM 10/M00 A3015 RMK SLP224 T01041004 57006 IEM_DS3505
ZBAA,1992-11-04 04:00,ZBAA 040400Z AUTO 14004KT 4SM 12/01 A3012 RMK T01200010 IEM_DS3505
ZBAA,1992-11-04 05:00,ZBAA 040500Z AUTO 16002KT 4SM 14/02 A3009 RMK T01400020 IEM_DS3505
ZBAA,1992-11-04 06:00,ZBAA 040600Z AUTO 09002KT 2 1/2SM 15/02 A3006 RMK SLP197 T01460024 4////0024 57026 IEM_DS3505
ZBAA,1992-11-04 07:00,ZBAA 040700Z AUTO 18004KT 5SM 15/00 A3003 RMK T01500000 IEM_DS3505
ZBAA,1992-11-04 08:00,ZBAA 040800Z AUTO 21004KT 4SM 14/01 A3003 RMK T01400010 IEM_DS3505
ZBAA,1992-11-04 09:00,ZBAA 040900Z AUTO 34004KT 3SM 12/04 RMK SLP188 T01230044 57010 IEM_DS3505
ZBAA,1992-11-04 10:00,ZBAA 041000Z AUTO 35002KT 3SM 10/01 A3003 RMK T01000010 IEM_DS3505
ZBAA,1992-11-04 11:00,ZBAA 041100Z AUTO 03002KT 3SM 10/01 A3003 RMK T01000010 IEM_DS3505
ZBAA,1992-11-04 12:00,ZBAA 041200Z AUTO 00000KT 2 1/2SM 08/04 A3006 RMK SLP193 T00770037 52005 IEM_DS3505
ZBAA,1992-11-04 13:00,ZBAA 041300Z AUTO 01002KT 3SM 08/02 A3006 RMK T00800020 IEM_DS3505
ZBAA,1992-11-04 14:00,ZBAA 041400Z AUTO 35002KT 2 1/2SM 07/02 A3006 RMK T00700020 IEM_DS3505
ZBAA,1992-11-04 15:00,ZBAA 041500Z AUTO 00000KT 2SM 05/03 RMK SLP200 T00490034 52007 IEM_DS3505
ZBAA,1992-11-04 16:00,ZBAA 041600Z AUTO 35004KT 2 1/2SM 05/02 A3006 RMK T00500020 IEM_DS3505
ZBAA,1992-11-04 18:00,ZBAA 041800Z AUTO 04004KT 6SM 07/01 RMK SLP199 T00670012 40149//// 54000 IEM_DS3505
ZBAA,1992-11-04 19:00,ZBAA 041900Z AUTO 35002KT 2SM 03/01 A3006 RMK T00300010 IEM_DS3505
ZBAA,1992-11-04 20:00,ZBAA 042000Z AUTO 33002KT 2SM 04/01 A3006 RMK T00400010 IEM_DS3505
ZBAA,1992-11-04 21:00,ZBAA 042100Z AUTO 07004KT 4SM 04/02 A3006 RMK SLP199 T00390019 57001 IEM_DS3505
ZBAA,1992-11-04 22:00,ZBAA 042200Z AUTO 34002KT 1 1/2SM 02/00 A3009 RMK T00200000 IEM_DS3505
ZBAA,1992-11-04 23:00,ZBAA 042300Z AUTO 34002KT 1 1/4SM 02/00 A3009 RMK T00200000 IEM_DS3505
ZBAA,1992-11-05 00:00,ZBAA 050000Z AUTO 32002KT 2SM 04/02 RMK SLP214 T00360018 52015 IEM_DS3505
ZBAA,1992-11-05 01:00,ZBAA 050100Z AUTO 00000KT 2 1/2SM A3012 RMK 52001 IEM_DS3505
ZBAA,1992-11-05 02:00,ZBAA 050200Z AUTO 02006KT 3SM 10/03 A3012 RMK T01000030 IEM_DS3505
ZBAA,1992-11-05 03:00,ZBAA 050300Z AUTO 02006KT 2 1/2SM 12/03 A3012 RMK SLP215 T01170027 52001 IEM_DS3505
ZBAA,1992-11-05 04:00,ZBAA 050400Z AUTO 04002KT 3SM 13/03 A3009 RMK T01300030 IEM_DS3505
ZBAA,1992-11-05 05:00,ZBAA 050500Z AUTO 08002KT 3SM 14/04 A3009 RMK T01400040 IEM_DS3505
ZBAA,1992-11-05 06:00,ZBAA 050600Z AUTO 09004KT 3SM 15/04 RMK SLP198 T01540042 4////0024 57016 IEM_DS3505
ZBAA,1992-11-05 07:00,ZBAA 050700Z AUTO 15004KT 3SM 15/03 A3006 RMK T01500030 IEM_DS3505
ZBAA,1992-11-05 08:00,ZBAA 050800Z AUTO 00000KT 3SM 14/03 A3003 RMK T01400030 IEM_DS3505
ZBAA,1992-11-05 09:00,ZBAA 050900Z AUTO 00000KT 2SM 13/05 A3003 RMK SLP194 T01270054 57004 IEM_DS3505
ZBAA,1992-11-05 10:00,ZBAA 051000Z AUTO 00000KT 3SM 10/04 A3006 RMK T01000040 IEM_DS3505
ZBAA,1992-11-05 11:00,ZBAA 051100Z AUTO 36004KT 3SM 10/04 A3009 RMK T01000040 IEM_DS3505
ZBAA,1992-11-05 12:00,ZBAA 051200Z AUTO 00000KT 2 1/2SM 08/05 A3009 RMK SLP205 T00780053 52010 IEM_DS3505
ZBAA,1992-11-05 13:00,ZBAA 051300Z AUTO 01004KT 3SM 08/03 A3012 RMK T00800030 IEM_DS3505
ZBAA,1992-11-05 14:00,ZBAA 051400Z AUTO 01002KT 3SM 07/03 A3012 RMK T00700030 IEM_DS3505
ZBAA,1992-11-05 15:00,ZBAA 051500Z AUTO 00000KT 2 1/2SM 08/04 RMK SLP216 T00750038 52012 IEM_DS3505
ZBAA,1992-11-05 16:00,ZBAA 051600Z AUTO 34004KT 3SM 06/03 A3012 RMK T00600030 IEM_DS3505
ZBAA,1992-11-05 17:00,ZBAA 051700Z AUTO 34004KT 3SM 05/03 A3015 RMK T00500030 IEM_DS3505
ZBAA,1992-11-05 18:00,ZBAA 051800Z AUTO 00000KT 2 1/2SM 04/03 A3015 RMK SLP221 T00450033 40155//// 52005 IEM_DS3505
ZBAA,1992-11-05 19:00,ZBAA 051900Z AUTO 34004KT 2 1/2SM 04/03 A3015 RMK T00400030 IEM_DS3505
ZBAA,1992-11-05 20:00,ZBAA 052000Z AUTO 35004KT 2 1/2SM 04/03 A3015 RMK T00400030 IEM_DS3505
ZBAA,1992-11-05 21:00,ZBAA 052100Z AUTO 00000KT 1SM 04/03 A3015 RMK SLP227 T00440029 52005 IEM_DS3505
ZBAA,1992-11-05 22:00,ZBAA 052200Z AUTO 34006KT 2 1/2SM 05/02 A3018 RMK T00500020 IEM_DS3505
ZBAA,1992-11-05 23:00,ZBAA 052300Z AUTO 34004KT 2 1/2SM 06/03 A3018 RMK T00600030 IEM_DS3505
ZBAA,1992-11-06 00:00,ZBAA 060000Z AUTO 00000KT 1SM 05/04 RMK SLP243 T00500035 52016 IEM_DS3505
ZBAA,1992-11-06 01:00,ZBAA 060100Z AUTO 02006KT 1 1/2SM 09/04 A3021 RMK SLP260 T00900040 4////0038 57012 IEM_DS3505
ZBAA,1992-11-06 02:00,ZBAA 060200Z AUTO 36004KT 3SM 11/04 A3024 RMK T01100040 IEM_DS3505
ZBAA,1992-11-06 03:00,ZBAA 060300Z AUTO 07006KT 1 1/4SM 13/04 A3024 RMK SLP248 T01270035 52006 IEM_DS3505
ZBAA,1992-11-06 04:00,ZBAA 060400Z AUTO 04004KT 3SM 13/04 A3021 RMK T01300040 IEM_DS3505
ZBAA,1992-11-06 05:00,ZBAA 060500Z AUTO 03004KT 3SM 15/03 A3018 RMK T01500030 IEM_DS3505
ZBAA,1992-11-06 06:00,ZBAA 060600Z AUTO 02006KT 1 1/2SM 15/04 RMK SLP236 T01490035 4////0038 57012 IEM_DS3505
ZBAA,1992-11-06 07:00,ZBAA 060700Z AUTO 10004KT 3SM 16/03 A3018 RMK T01600030 IEM_DS3505
ZBAA,1992-11-06 08:00,ZBAA 060800Z AUTO 00000KT 3SM 15/04 A3018 RMK T01500040 IEM_DS3505
ZBAA,1992-11-06 09:00,ZBAA 060900Z AUTO 34002KT 1 1/2SM 13/06 A3021 RMK SLP243 T01270061 52006 IEM_DS3505
ZBAA,1992-11-06 10:00,ZBAA 061000Z AUTO 11008KT 2 1/2SM 13/05 A3021 RMK T01300050 IEM_DS3505
ZBAA,1992-11-06 11:00,ZBAA 061100Z AUTO 11010KT 3SM 12/06 A3027 RMK SLP275 T01200060 51030 IEM_DS3505
ZBAA,1992-11-06 12:00,ZBAA 061200Z AUTO 11010KT 4SM 12/06 A3030 RMK SLP275 T01160065 52032 IEM_DS3505
ZBAA,1992-11-06 13:00,ZBAA 061300Z AUTO 13008KT 3SM 09/04 A3033 RMK T00900040 IEM_DS3505
ZBAA,1992-11-06 14:00,ZBAA 061400Z AUTO 18008KT 3SM 09/04 A3039 RMK T00900040 IEM_DS3505
ZBAA,1992-11-06 15:00,ZBAA 061500Z AUTO 18004KT 3SM 09/03 RMK SLP298 T00920034 52023 IEM_DS3505
ZBAA,1992-11-06 16:00,ZBAA 061600Z AUTO 19004KT 4SM 08/03 A3039 RMK T00800030 IEM_DS3505
ZBAA,1992-11-06 17:00,ZBAA 061700Z AUTO 11006KT 6SM 07/M02 A3039 RMK T00701020 IEM_DS3505
ZBAA,1992-11-06 18:00,ZBAA 061800Z AUTO 11004KT 4SM 08/M00 A3042 RMK SLP305 T00781005 40149//// 52008 IEM_DS3505
ZBAA,1992-11-06 19:00,ZBAA 061900Z AUTO 29004KT 7SM 06/00 A3042 RMK T00600000 IEM_DS3505
ZBAA,1992-11-06 20:00,ZBAA 062000Z AUTO 19006KT 7SM 05/M02 A3042 RMK T00501020 IEM_DS3505
ZBAA,1992-11-06 21:00,ZBAA 062100Z AUTO 32004KT 4SM 04/01 A3042 RMK SLP312 T00350011 52006 IEM_DS3505
ZBAA,1992-11-06 22:00,ZBAA 062200Z AUTO 08002KT 7SM 04/M02 A3045 RMK T00401020 IEM_DS3505
ZBAA,1992-11-06 23:00,ZBAA 062300Z AUTO 01004KT 7SM 02/00 A3045 RMK T00200000 IEM_DS3505
ZBAA,1992-11-07 00:00,ZBAA 070000Z AUTO 29004KT 2SM 02/00 RMK 60016 70016 SLP326 T00160005 52013 IEM_DS3505
ZBAA,1992-11-07 01:00,ZBAA 070100Z AUTO 01004KT 1SM 01/00 A3047 RMK T00100000 IEM_DS3505
ZBAA,1992-11-07 02:00,ZBAA 070200Z AUTO 03006KT 1 1/4SM 01/00 A3047 RMK T00100000 IEM_DS3505
ZBAA,1992-11-07 03:00,ZBAA 070300Z AUTO 09008KT 1 1/4SM 01/00 A3047 RMK SLP327 T00090003 52001 IEM_DS3505
ZBAA,1992-11-07 04:00,ZBAA 070400Z AUTO 03006KT 1SM 00/00 A3045 RMK T00000000 IEM_DS3505
ZBAA,1992-11-07 05:00,ZBAA 070500Z AUTO 03008KT 1SM RMK IEM_DS3505
ZBAA,1992-11-07 06:00,ZBAA 070600Z AUTO 09008KT 1 1/4SM 00/M00 RMK 60020 SLP310 T00041002 4////0004 57017 IEM_DS3505
ZBAA,1992-11-07 07:00,ZBAA 070700Z AUTO 04008KT 1 1/4SM 00/M01 A3042 RMK T00001010 IEM_DS3505
ZBAA,1992-11-07 08:00,ZBAA 070800Z AUTO 04006KT 1 1/4SM 00/M01 A3042 RMK T00001010 IEM_DS3505
ZBAA,1992-11-07 09:00,ZBAA 070900Z AUTO 04010KT 2SM 00/M01 A3042 RMK SLP315 T00021007 52004 IEM_DS3505
ZBAA,1992-11-07 10:00,ZBAA 071000Z AUTO 05004KT 1 1/4SM M01/M01 A3045 RMK T10101010 IEM_DS3505
ZBAA,1992-11-07 11:00,ZBAA 071100Z AUTO 05006KT 2SM M01/M01 A3047 RMK T10101010 IEM_DS3505
ZBAA,1992-11-07 12:00,ZBAA 071200Z AUTO 02006KT 6SM M00/M02 A3047 RMK 60004 SLP336 T10021015 52021 IEM_DS3505
ZBAA,1992-11-07 13:00,ZBAA 071300Z AUTO 05002KT 5SM 00/M02 A3050 RMK T00001020 IEM_DS3505
ZBAA,1992-11-07 14:00,ZBAA 071400Z AUTO 00000KT 7SM 00/M02 A3050 RMK T00001020 IEM_DS3505
ZBAA,1992-11-07 15:00,ZBAA 071500Z AUTO 04004KT 7SM 00/M03 A3050 RMK SLP346 T00001032 52010 IEM_DS3505
ZBAA,1992-11-07 16:00,ZBAA 071600Z AUTO 02004KT 7SM M01/M04 A3050 RMK T10101040 IEM_DS3505
ZBAA,1992-11-07 17:00,ZBAA 071700Z AUTO 01006KT 7SM M01/M05 A3050 RMK T10101050 IEM_DS3505
ZBAA,1992-11-07 18:00,ZBAA 071800Z AUTO 27004KT 9SM M01/M03 RMK SLP346 T10061033 40077//// 57001 IEM_DS3505
ZBAA,1992-11-07 19:00,ZBAA 071900Z AUTO 34006KT 7SM M02/M05 A3053 RMK T10201050 IEM_DS3505
ZBAA,1992-11-07 20:00,ZBAA 072000Z AUTO 31010KT 7SM M01/M06 A3050 RMK T10101060 IEM_DS3505
ZBAA,1992-11-07 21:00,ZBAA 072100Z AUTO 34006KT 12SM M01/M11 A3053 RMK SLP348 T10061114 52002 IEM_DS3505
ZBAA,1992-11-07 22:00,ZBAA 072200Z AUTO 31010KT 6SM M01/M11 A3053 RMK T10101110 IEM_DS3505
ZBAA,1992-11-07 23:00,ZBAA 072300Z AUTO 32014KT 6SM M02/M11 A3059 RMK T10201110 IEM_DS3505
ZBAA,1992-11-08 00:00,ZBAA 080000Z AUTO 36004KT 16SM M01/M13 A3059 RMK 70024 SLP371 T10081131 52023 IEM_DS3505
ZBAA,1992-11-08 01:00,ZBAA 080100Z AUTO 34010KT 19SM M01/M14 A3059 RMK SLP352 T10101140 4////1011 IEM_DS3505
ZBAA,1992-11-08 02:00,ZBAA 080200Z AUTO 34016KT 6SM 00/M13 A3059 RMK T00001130 IEM_DS3505
ZBAA,1992-11-08 03:00,ZBAA 080300Z AUTO 34010KT 19SM 00/M12 RMK SLP364 T00021124 57007 IEM_DS3505
ZBAA,1992-11-08 04:00,ZBAA 080400Z AUTO 32016KT 6SM 02/M11 A3056 RMK T00201110 IEM_DS3505
ZBAA,1992-11-08 05:00,ZBAA 080500Z AUTO 32017KT 7SM 02/M11 A3053 RMK T00201110 IEM_DS3505
ZBAA,1992-11-08 06:00,ZBAA 080600Z AUTO 34010KT 19SM 02/M09 A3050 RMK SLP352 T00251093 4////1008 57011 IEM_DS3505
ZBAA,1992-11-08 07:00,ZBAA 080700Z AUTO 32019KT 7SM 02/M13 A3053 RMK T00201130 IEM_DS3505
ZBAA,1992-11-08 08:00,ZBAA 080800Z AUTO 32019KT 7SM 01/M13 A3053 RMK T00101130 IEM_DS3505
ZBAA,1992-11-08 09:00,ZBAA 080900Z AUTO 34008G25KT 17SM 00/M14 A3053 RMK SLP357 T00041137 52004 IEM_DS3505
ZBAA,1992-11-08 10:00,ZBAA 081000Z AUTO 33017KT 6SM 00/M14 A3053 RMK T00001140 IEM_DS3505
ZBAA,1992-11-08 11:00,ZBAA 081100Z AUTO 36010KT 6SM M03/ A3056 RMK SLP363 40030//// 51010 IEM_DS3505
ZBAA,1992-11-08 12:00,ZBAA 081200Z AUTO 34010KT 19SM M01/M20 A3056 RMK SLP365 T10081198 52008 IEM_DS3505
ZBAA,1992-11-08 13:00,ZBAA 081300Z AUTO 32019KT 6SM M02/M18 A3059 RMK T10201180 IEM_DS3505
ZBAA,1992-11-08 14:00,ZBAA 081400Z AUTO 33016KT 6SM M02/M18 A3062 RMK T10201180 IEM_DS3505
ZBAA,1992-11-08 15:00,ZBAA 081500Z AUTO 32006KT 19SM M02/M16 A3062 RMK SLP377 T10191164 52012 IEM_DS3505
ZBAA,1992-11-08 16:00,ZBAA 081600Z AUTO 34012KT 6SM M03/M16 A3059 RMK T10301160 IEM_DS3505
ZBAA,1992-11-08 17:00,ZBAA 081700Z AUTO 33006KT 7SM M03/M15 A3059 RMK T10301150 IEM_DS3505
ZBAA,1992-11-08 18:00,ZBAA 081800Z AUTO 36010KT 19SM M03/M13 RMK SLP363 T10261130 40030//// 57014 IEM_DS3505
ZBAA,1992-11-08 19:00,ZBAA 081900Z AUTO 33012KT 7SM M03/M15 A3053 RMK T10301150 IEM_DS3505
ZBAA,1992-11-08 20:00,ZBAA 082000Z AUTO 33010KT 7SM M03/M14 A3050 RMK T10301140 IEM_DS3505
ZBAA,1992-11-08 21:00,ZBAA 082100Z AUTO 36010KT 19SM M02/M14 A3050 RMK SLP343 T10221140 57020 IEM_DS3505
ZBAA,1992-11-08 22:00,ZBAA 082200Z AUTO 33010KT 7SM M03/M14 A3050 RMK T10301140 IEM_DS3505
ZBAA,1992-11-08 23:00,ZBAA 082300Z AUTO 05002KT 7SM M04/M14 A3050 RMK T10401140 IEM_DS3505
ZBAA,1992-11-09 00:00,ZBAA 090000Z AUTO 34006KT 11SM M01/M13 RMK SLP345 T10141133 52002 IEM_DS3505
ZBAA,1992-11-09 01:00,ZBAA 090100Z AUTO 04004KT 7SM M01/M12 A3050 RMK T10101120 IEM_DS3505
ZBAA,1992-11-09 02:00,ZBAA 090200Z AUTO 01006KT 6SM 02/M12 A3050 RMK T00201120 IEM_DS3505
ZBAA,1992-11-09 03:00,ZBAA 090300Z AUTO 36006KT 19SM 04/M11 A3047 RMK SLP332 T00371108 57012 IEM_DS3505
ZBAA,1992-11-09 04:00,ZBAA 090400Z AUTO 32012KT 6SM 05/M11 A3045 RMK T00501110 IEM_DS3505
ZBAA,1992-11-09 05:00,ZBAA 090500Z AUTO 32014KT 6SM 06/M10 A3039 RMK T00601100 IEM_DS3505
ZBAA,1992-11-09 06:00,ZBAA 090600Z AUTO 04016KT 19SM 05/M10 A3039 RMK SLP308 T00501100 4////1028 57024 IEM_DS3505
ZBAA,1992-11-09 07:00,ZBAA 090700Z AUTO 30012KT 6SM 06/M09 A3039 RMK T00601090 IEM_DS3505
ZBAA,1992-11-09 08:00,ZBAA 090800Z AUTO 29012KT 6SM 06/M09 A3039 RMK T00601090 IEM_DS3505
ZBAA,1992-11-09 09:00,ZBAA 090900Z AUTO 36004KT 19SM 05/M06 RMK SLP304 T00521064 57004 IEM_DS3505
ZBAA,1992-11-09 10:00,ZBAA 091000Z AUTO 29002KT 7SM 04/M08 A3039 RMK T00401080 IEM_DS3505
ZBAA,1992-11-09 11:00,ZBAA 091100Z AUTO 36008KT 7SM 04/M09 A3039 RMK SLP309 T00401090 IEM_DS3505
ZBAA,1992-11-09 12:00,ZBAA 091200Z AUTO 36008KT 17SM 04/M08 A3042 RMK SLP309 T00391077 52005 IEM_DS3505
ZBAA,1992-11-09 13:00,ZBAA 091300Z AUTO 34014KT 7SM 04/M10 A3042 RMK T00401100 IEM_DS3505
ZBAA,1992-11-09 14:00,ZBAA 091400Z AUTO 34012KT 7SM 04/M10 A3042 RMK T00401100 IEM_DS3505
ZBAA,1992-11-09 15:00,ZBAA 091500Z AUTO 34004KT 17SM 03/M06 A3042 RMK SLP307 T00291065 57001 IEM_DS3505
ZBAA,1992-11-09 16:00,ZBAA 091600Z AUTO 31004KT 7SM 01/M09 A3039 RMK T00101090 IEM_DS3505
ZBAA,1992-11-09 17:00,ZBAA 091700Z AUTO 35008KT 7SM 02/M09 A3039 RMK T00201090 IEM_DS3505
ZBAA,1992-11-09 18:00,ZBAA 091800Z AUTO 36004KT 19SM 03/M08 A3039 RMK SLP303 T00261075 40068//// 57004 IEM_DS3505
ZBAA,1992-11-09 19:00,ZBAA 091900Z AUTO 36006KT 7SM 00/M09 A3039 RMK T00001090 IEM_DS3505
ZBAA,1992-11-09 20:00,ZBAA 092000Z AUTO 02006KT 7SM 01/M09 A3036 RMK T00101090 IEM_DS3505
ZBAA,1992-11-09 21:00,ZBAA 092100Z AUTO 27004KT 16SM M02/M05 A3036 RMK SLP296 T10171051 57008 IEM_DS3505
ZBAA,1992-11-09 22:00,ZBAA 092200Z AUTO 33002KT 7SM M01/M09 A3036 RMK T10101090 IEM_DS3505
ZBAA,1992-11-09 23:00,ZBAA 092300Z AUTO 02004KT 7SM 00/M08 A3036 RMK T00001080 IEM_DS3505
ZBAA,1992-11-10 00:00,ZBAA 100000Z AUTO 18004KT 6SM M01/M04 A3039 RMK SLP307 T10071039 52011 IEM_DS3505
ZBAA,1992-11-10 01:00,ZBAA 100100Z AUTO 26006KT 7SM 02/M06 A3039 RMK T00201060 IEM_DS3505
ZBAA,1992-11-10 02:00,ZBAA 100200Z AUTO 01004KT 7SM 06/M07 A3039 RMK T00601070 IEM_DS3505
ZBAA,1992-11-10 03:00,ZBAA 100300Z AUTO 18004KT 4SM 07/M06 A3039 RMK SLP303 T00701064 57003 IEM_DS3505
ZBAA,1992-11-10 04:00,ZBAA 100400Z AUTO 29008KT 7SM 10/M06 A3033 RMK T01001060 IEM_DS3505
ZBAA,1992-11-10 05:00,ZBAA 100500Z AUTO 30006KT 7SM 11/M07 A3030 RMK T01101070 IEM_DS3505
ZBAA,1992-11-10 06:00,ZBAA 100600Z AUTO 18004KT 6SM 10/M06 RMK SLP274 T01021059 4////1022 57028 IEM_DS3505
ZBAA,1992-11-10 07:00,ZBAA 100700Z AUTO 27006KT 7SM 12/M06 A3027 RMK T01201060 IEM_DS3505
ZBAA,1992-11-10 08:00,ZBAA 100800Z AUTO 23006KT 7SM 11/M07 A3027 RMK T01101070 IEM_DS3505
ZBAA,1992-11-10 09:00,ZBAA 100900Z AUTO 18004KT 5SM 09/M04 RMK SLP266 T00861036 57009 IEM_DS3505
ZBAA,1992-11-10 10:00,ZBAA 101000Z AUTO 23004KT 7SM 07/M05 A3027 RMK T00701050 IEM_DS3505
ZBAA,1992-11-10 11:00,ZBAA 101100Z AUTO 24006KT 7SM 06/M04 A3027 RMK T00601040 IEM_DS3505
ZBAA,1992-11-10 12:00,ZBAA 101200Z AUTO 11002KT 5SM 06/M02 A3027 RMK SLP266 T00571021 54000 IEM_DS3505
ZBAA,1992-11-10 13:00,ZBAA 101300Z AUTO 23002KT 7SM 04/M04 A3027 RMK T00401040 IEM_DS3505
ZBAA,1992-11-10 14:00,ZBAA 101400Z AUTO 00000KT 7SM 03/M03 A3027 RMK T00301030 IEM_DS3505
ZBAA,1992-11-10 15:00,ZBAA 101500Z AUTO 00000KT 6SM 03/M02 A3024 RMK SLP262 T00271016 57004 IEM_DS3505
ZBAA,1992-11-10 16:00,ZBAA 101600Z AUTO 00000KT 7SM 02/M03 A3024 RMK T00201030 IEM_DS3505
ZBAA,1992-11-10 17:00,ZBAA 101700Z AUTO 00000KT 7SM 01/M04 A3024 RMK T00101040 IEM_DS3505
ZBAA,1992-11-10 18:00,ZBAA 101800Z AUTO 00000KT 4SM 00/M02 A3024 RMK SLP257 T00031021 40104//// 57005 IEM_DS3505
ZBAA,1992-11-10 19:00,ZBAA 101900Z AUTO 00000KT 7SM 00/M04 A3021 RMK T00001040 IEM_DS3505
ZBAA,1992-11-10 20:00,ZBAA 102000Z AUTO 00000KT 7SM 00/M04 A3021 RMK T00001040 IEM_DS3505
ZBAA,1992-11-10 21:00,ZBAA 102100Z AUTO 22002KT 3SM M01/M02 RMK SLP244 T10081023 57013 IEM_DS3505
ZBAA,1992-11-10 22:00,ZBAA 102200Z AUTO 34004KT 7SM M01/M04 A3018 RMK T10101040 IEM_DS3505
ZBAA,1992-11-10 23:00,ZBAA 102300Z AUTO 34004KT 7SM 00/M04 A3018 RMK T00001040 IEM_DS3505
ZBAA,1992-11-11 00:00,ZBAA 110000Z AUTO 00000KT 1 1/4SM 00/M02 RMK SLP246 T00031015 52002 IEM_DS3505
ZBAA,1992-11-11 01:00,ZBAA 110100Z AUTO 35004KT 7SM 03/M02 A3021 RMK T00301020 IEM_DS3505
ZBAA,1992-11-11 02:00,ZBAA 110200Z AUTO 33004KT 7SM 07/M02 A3018 RMK T00701020 IEM_DS3505
ZBAA,1992-11-11 03:00,ZBAA 110300Z AUTO 20008KT 1 1/4SM 11/M00 A3018 RMK SLP241 T01081003 57004 IEM_DS3505
ZBAA,1992-11-11 04:00,ZBAA 110400Z AUTO 20006KT 4SM 11/M01 A3015 RMK T01101010 IEM_DS3505
ZBAA,1992-11-11 05:00,ZBAA 110500Z AUTO 22006KT 4SM 14/M04 A3012 RMK T01401040 IEM_DS3505
ZBAA,1992-11-11 06:00,ZBAA 110600Z AUTO 16006KT 6SM 14/M04 A3012 RMK SLP214 T01431044 4////1011 57027 IEM_DS3505
ZBAA,1992-11-11 07:00,ZBAA 110700Z AUTO 17006KT 7SM 14/M04 A3009 RMK T01401040 IEM_DS3505
ZBAA,1992-11-11 09:00,ZBAA 110900Z AUTO 18004KT 3SM 12/M03 RMK SLP209 T01181028 57005 IEM_DS3505
ZBAA,1992-11-11 10:00,ZBAA 111000Z AUTO 22006KT 4SM 09/M03 A3009 RMK T00901030 IEM_DS3505
ZBAA,1992-11-11 11:00,ZBAA 111100Z AUTO 00000KT 2 1/2SM 06/M00 A3012 RMK SLP213 T00601002 57010 IEM_DS3505
ZBAA,1992-11-11 12:00,ZBAA 111200Z AUTO 20004KT 2 1/2SM 08/M00 A3012 RMK SLP215 T00781005 52005 IEM_DS3505
ZBAA,1992-11-11 13:00,ZBAA 111300Z AUTO 03002KT 4SM 06/M02 A3012 RMK T00601020 IEM_DS3505
ZBAA,1992-11-11 14:00,ZBAA 111400Z AUTO 00000KT 4SM 04/M02 A3012 RMK T00401020 IEM_DS3505
ZBAA,1992-11-11 15:00,ZBAA 111500Z AUTO 00000KT 2 1/2SM 04/M00 A3012 RMK SLP213 T00361002 57001 IEM_DS3505
ZBAA,1992-11-11 16:00,ZBAA 111600Z AUTO 36006KT 4SM 04/M02 A3012 RMK T00401020 IEM_DS3505
ZBAA,1992-11-11 17:00,ZBAA 111700Z AUTO 35004KT 4SM 04/M03 A3012 RMK T00401030 IEM_DS3505
ZBAA,1992-11-11 18:00,ZBAA 111800Z AUTO 00000KT 2 1/2SM 03/M01 A3012 RMK SLP211 T00261010 40144//// 57002 IEM_DS3505
ZBAA,1992-11-11 19:00,ZBAA 111900Z AUTO 35006KT 4SM 03/M02 A3009 RMK T00301020 IEM_DS3505
ZBAA,1992-11-11 21:00,ZBAA 112100Z AUTO 02004KT 6SM 04/M04 A3009 RMK SLP210 T00431040 57001 IEM_DS3505
ZBAA,1992-11-11 22:00,ZBAA 112200Z AUTO 02002KT 4SM 03/M03 A3012 RMK T00301030 IEM_DS3505
ZBAA,1992-11-11 23:00,ZBAA 112300Z AUTO 36006KT 4SM 03/M03 A3012 RMK T00301030 IEM_DS3505
ZBAA,1992-11-12 00:00,ZBAA 120000Z AUTO 36008KT 6SM 05/M05 A3015 RMK SLP224 T00521050 52014 IEM_DS3505
ZBAA,1992-11-12 01:00,ZBAA 120100Z AUTO 16008KT 6SM 05/M05 A3015 RMK SLP224 T00521050 52014 IEM_DS3505
ZBAA,1992-11-12 02:00,ZBAA 120200Z AUTO 01008KT 5SM 07/M03 A3018 RMK T00701030 IEM_DS3505
ZBAA,1992-11-12 03:00,ZBAA 120300Z AUTO 34010KT 6SM 10/M05 RMK SLP230 T01001049 52006 IEM_DS3505
ZBAA,1992-11-12 04:00,ZBAA 120400Z AUTO 03008KT 6SM 11/M03 A3018 RMK T01101030 IEM_DS3505
ZBAA,1992-11-12 05:00,ZBAA 120500Z AUTO 02008KT 6SM 11/M05 A3015 RMK T01101050 IEM_DS3505
ZBAA,1992-11-12 06:00,ZBAA 120600Z AUTO 36008KT 12SM 11/M07 RMK SLP227 T01121072 4////0018 57003 IEM_DS3505
ZBAA,1992-11-12 07:00,ZBAA 120700Z AUTO 32012KT 6SM 11/M07 A3018 RMK T01101070 IEM_DS3505
ZBAA,1992-11-12 08:00,ZBAA 120800Z AUTO 32014KT 6SM 10/M07 A3018 RMK T01001070 IEM_DS3505
ZBAA,1992-11-12 09:00,ZBAA 120900Z AUTO 34008KT 12SM 08/M06 A3021 RMK SLP246 T00781063 52019 IEM_DS3505
ZBAA,1992-11-12 10:00,ZBAA 121000Z AUTO 33010KT 6SM 07/M06 A3024 RMK T00701060 IEM_DS3505
ZBAA,1992-11-12 11:00,ZBAA 121100Z AUTO 03023KT 16SM 03/M05 A3027 RMK T00311054 52005 IEM_DS3505
ZBAA,1992-11-12 12:00,ZBAA 121200Z AUTO 36008KT 12SM 05/M06 RMK SLP267 T00521059 52020 IEM_DS3505
ZBAA,1992-11-12 13:00,ZBAA 121300Z AUTO 31014KT 6SM 05/M07 A3027 RMK T00501070 IEM_DS3505
ZBAA,1992-11-12 15:00,ZBAA 121500Z AUTO 32004KT 16SM 03/M05 RMK SLP271 T00311054 52005 IEM_DS3505
ZBAA,1992-11-12 16:00,ZBAA 121600Z AUTO 31010KT 7SM 03/M07 A3030 RMK T00301070 IEM_DS3505
ZBAA,1992-11-12 17:00,ZBAA 121700Z AUTO 34006KT 7SM 02/M07 A3030 RMK T00201070 IEM_DS3505
ZBAA,1992-11-12 18:00,ZBAA 121800Z AUTO 34006KT 12SM 03/M06 RMK SLP276 T00291065 40114//// 52005 IEM_DS3505
ZBAA,1992-11-12 19:00,ZBAA 121900Z AUTO 35006KT 7SM 02/M07 A3030 RMK T00201070 IEM_DS3505
ZBAA,1992-11-12 20:00,ZBAA 122000Z AUTO 04004KT 7SM 01/M08 A3030 RMK T00101080 IEM_DS3505
ZBAA,1992-11-12 21:00,ZBAA 122100Z AUTO 36002KT 12SM 02/M06 A3027 RMK SLP273 T00181060 57004 IEM_DS3505
ZBAA,1992-11-12 22:00,ZBAA 122200Z AUTO 36004KT 7SM 01/M08 A3027 RMK T00101080 IEM_DS3505
ZBAA,1992-11-12 23:00,ZBAA 122300Z AUTO 03004KT 7SM 00/M07 A3027 RMK T00001070 IEM_DS3505
ZBAA,1992-11-13 00:00,ZBAA 130000Z AUTO 29002KT 5SM 00/M05 A3030 RMK SLP273 T00021050 54000 IEM_DS3505
ZBAA,1992-11-13 01:00,ZBAA 130100Z AUTO 03006KT 7SM 03/M05 A3030 RMK T00301050 IEM_DS3505
ZBAA,1992-11-13 02:00,ZBAA 130200Z AUTO 03002KT 7SM 05/M05 A3027 RMK T00501050 IEM_DS3505
ZBAA,1992-11-13 03:00,ZBAA 130300Z AUTO 18002KT 4SM 06/M06 RMK SLP266 T00631058 57007 IEM_DS3505
ZBAA,1992-11-13 04:00,ZBAA 130400Z AUTO 15004KT 7SM 07/M06 A3024 RMK T00701060 IEM_DS3505
ZBAA,1992-11-13 05:00,ZBAA 130500Z AUTO 15006KT 6SM 08/M06 A3018 RMK T00801060 IEM_DS3505
ZBAA,1992-11-13 06:00,ZBAA 130600Z AUTO 20010KT 9SM 09/M07 A3015 RMK SLP232 T00881067 4////1013 57033 IEM_DS3505
ZBAA,1992-11-13 07:00,ZBAA 130700Z AUTO 19008KT 6SM 09/M05 A3015 RMK T00901050 IEM_DS3505
ZBAA,1992-11-13 08:00,ZBAA 130800Z AUTO 22006KT 6SM 09/M06 A3012 RMK T00901060 IEM_DS3505
ZBAA,1992-11-13 09:00,ZBAA 130900Z AUTO 20006KT 7SM 07/M04 A3012 RMK SLP222 T00741036 57011 IEM_DS3505
ZBAA,1992-11-13 10:00,ZBAA 131000Z AUTO 23002KT 6SM 06/M05 A3012 RMK T00601050 IEM_DS3505
ZBAA,1992-11-13 11:00,ZBAA 131100Z AUTO 00000KT 6SM 04/M04 A3012 RMK T00401040 IEM_DS3505
ZBAA,1992-11-13 12:00,ZBAA 131200Z AUTO 18004KT 6SM 05/M02 A3015 RMK SLP223 T00531019 52001 IEM_DS3505
ZBAA,1992-11-13 13:00,ZBAA 131300Z AUTO 00000KT 6SM 03/M04 A3015 RMK T00301040 IEM_DS3505
ZBAA,1992-11-13 14:00,ZBAA 131400Z AUTO 00000KT 6SM 03/M04 A3015 RMK T00301040 IEM_DS3505
ZBAA,1992-11-13 15:00,ZBAA 131500Z AUTO 04004KT 6SM 02/M02 A3015 RMK SLP224 T00251015 52001 IEM_DS3505
ZBAA,1992-11-13 16:00,ZBAA 131600Z AUTO 03002KT 6SM 02/M04 A3015 RMK T00201040 IEM_DS3505
ZBAA,1992-11-13 17:00,ZBAA 131700Z AUTO 00000KT 6SM 01/M04 A3012 RMK T00101040 IEM_DS3505
ZBAA,1992-11-13 18:00,ZBAA 131800Z AUTO 02004KT 6SM 03/M03 RMK SLP222 T00301029 40091//// 57001 IEM_DS3505
ZBAA,1992-11-13 21:00,ZBAA 132100Z AUTO 04004KT 6SM 03/M03 RMK SLP222 T00291030 54000 IEM_DS3505
ZBAA,1992-11-13 22:00,ZBAA 132200Z AUTO 36002KT 4SM 00/M04 A3012 RMK T00001040 IEM_DS3505
ZBAA,1992-11-13 23:00,ZBAA 132300Z AUTO 32002KT 3SM 01/M04 A3015 RMK T00101040 IEM_DS3505
ZBAA,1992-11-14 00:00,ZBAA 140000Z AUTO 02006KT 2 1/2SM 04/M04 RMK SLP236 T00381036 52013 IEM_DS3505
ZBAA,1992-11-14 01:00,ZBAA 140100Z AUTO 02004KT 3SM 06/01 A3018 RMK SLP233 T00640008 4////0019 57003 IEM_DS3505
ZBAA,1992-11-14 02:00,ZBAA 140200Z AUTO 02006KT 4SM 04/M01 A3018 RMK T00401010 IEM_DS3505
ZBAA,1992-11-14 03:00,ZBAA 140300Z AUTO 36008KT 3SM 06/M03 A3018 RMK SLP236 T00631030 54000 IEM_DS3505
ZBAA,1992-11-14 04:00,ZBAA 140400Z AUTO 35008KT 2 1/2SM 05/02 A3018 RMK T00500020 IEM_DS3505
ZBAA,1992-11-14 05:00,ZBAA 140500Z AUTO 34004KT 2 1/2SM 05/04 A3015 RMK T00500040 IEM_DS3505
ZBAA,1992-11-14 06:00,ZBAA 140600Z AUTO 36006KT 3SM 06/01 A3015 RMK 60000 SLP233 T00640008 4////0019 57003 IEM_DS3505
ZBAA,1992-11-14 07:00,ZBAA 140700Z AUTO 35010KT 3SM 07/02 A3018 RMK T00700020 IEM_DS3505
ZBAA,1992-11-14 08:00,ZBAA 140800Z AUTO 34008KT 5SM 07/01 A3021 RMK T00700010 IEM_DS3505
ZBAA,1992-11-14 09:00,ZBAA 140900Z AUTO 36012KT 6SM 07/M03 A3024 RMK SLP257 T00701027 52024 IEM_DS3505
ZBAA,1992-11-14 10:00,ZBAA 141000Z AUTO 31017KT 6SM 07/M07 A3030 RMK T00701070 IEM_DS3505
ZBAA,1992-11-14 11:00,ZBAA 141100Z AUTO 34010KT 11SM 04/M10 RMK SLP299 T00401105 52042 IEM_DS3505
ZBAA,1992-11-14 12:00,ZBAA 141200Z AUTO 34010KT 11SM 05/M10 RMK SLP299 T00491105 52042 IEM_DS3505
ZBAA,1992-11-14 13:00,ZBAA 141300Z AUTO 32021KT 6SM 03/M16 A3042 RMK T00301160 IEM_DS3505
ZBAA,1992-11-14 14:00,ZBAA 141400Z AUTO 32016KT 6SM 02/M15 A3045 RMK T00201150 IEM_DS3505
ZBAA,1992-11-14 15:00,ZBAA 141500Z AUTO 34010KT 17SM 01/M12 A3047 RMK SLP333 T00121120 52033 IEM_DS3505
ZBAA,1992-11-14 16:00,ZBAA 141600Z AUTO 32016KT 6SM 00/M16 A3047 RMK T00001160 IEM_DS3505
ZBAA,1992-11-14 17:00,ZBAA 141700Z AUTO 31014KT 6SM 00/M17 A3050 RMK T00001170 IEM_DS3505
ZBAA,1992-11-14 18:00,ZBAA 141800Z AUTO 36004KT 16SM M01/M14 RMK SLP343 T10071142 40084//// 52010 IEM_DS3505
ZBAA,1992-11-14 19:00,ZBAA 141900Z AUTO 31008KT 7SM M01/M15 A3050 RMK T10101150 IEM_DS3505
ZBAA,1992-11-14 20:00,ZBAA 142000Z AUTO 31008KT 7SM M01/M16 A3050 RMK T10101160 IEM_DS3505
ZBAA,1992-11-14 21:00,ZBAA 142100Z AUTO 00000KT 12SM M01/M15 A3047 RMK SLP339 T10121147 57004 IEM_DS3505
ZBAA,1992-11-14 22:00,ZBAA 142200Z AUTO 28004KT 7SM M03/M14 A3050 RMK T10301140 IEM_DS3505
ZBAA,1992-11-14 23:00,ZBAA 142300Z AUTO 27006KT 7SM M03/M13 A3050 RMK T10301130 IEM_DS3505
ZBAA,1992-11-15 00:00,ZBAA 150000Z AUTO 34006KT 19SM 00/M16 RMK 70001 SLP345 T00001161 52006 IEM_DS3505
ZBAA,1992-11-15 01:00,ZBAA 150100Z AUTO 34006KT 19SM 00/M11 A3053 RMK 70001 SLP345 T00001110 52010 IEM_DS3505
ZBAA,1992-11-15 02:00,ZBAA 150200Z AUTO 30010KT 7SM 03/M15 A3050 RMK T00301150 IEM_DS3505
ZBAA,1992-11-15 03:00,ZBAA 150300Z AUTO 34008KT 16SM 04/M20 A3050 RMK SLP344 T00401203 57001 IEM_DS3505
ZBAA,1992-11-15 04:00,ZBAA 150400Z AUTO 30016KT 7SM 04/M16 A3047 RMK T00401160 IEM_DS3505
ZBAA,1992-11-15 05:00,ZBAA 150500Z AUTO 30017KT 7SM 05/M16 A3045 RMK T00501160 IEM_DS3505
ZBAA,1992-11-15 06:00,ZBAA 150600Z AUTO 34008KT 16SM 06/M16 A3042 RMK SLP311 T00601162 4////1020 57033 IEM_DS3505
ZBAA,1992-11-15 07:00,ZBAA 150700Z AUTO 30016KT 7SM 05/M15 A3039 RMK T00501150 IEM_DS3505
ZBAA,1992-11-15 08:00,ZBAA 150800Z AUTO 31014KT 7SM 05/M15 A3039 RMK T00501150 IEM_DS3505
ZBAA,1992-11-15 09:00,ZBAA 150900Z AUTO 22004KT 11SM 04/M12 A3039 RMK SLP306 T00441125 57005 IEM_DS3505
ZBAA,1992-11-15 10:00,ZBAA 151000Z AUTO 26004KT 7SM 03/M14 A3039 RMK T00301140 IEM_DS3505
ZBAA,1992-11-15 11:00,ZBAA 151100Z AUTO 23002KT 7SM 02/M14 A3039 RMK T00201140 IEM_DS3505
ZBAA,1992-11-15 12:00,ZBAA 151200Z AUTO 22004KT 19SM 02/M13 A3039 RMK SLP307 T00251132 52001 IEM_DS3505
ZBAA,1992-11-15 13:00,ZBAA 151300Z AUTO 13004KT 7SM 01/M12 A3039 RMK T00101120 IEM_DS3505
ZBAA,1992-11-15 14:00,ZBAA 151400Z AUTO 15004KT 7SM 01/M13 A3039 RMK T00101130 IEM_DS3505
ZBAA,1992-11-15 15:00,ZBAA 151500Z AUTO 20006KT 6SM 01/M10 A3036 RMK SLP297 T00111099 57010 IEM_DS3505
ZBAA,1992-11-15 17:00,ZBAA 151700Z AUTO 00000KT 7SM M01/M12 A3033 RMK T10101120 IEM_DS3505
ZBAA,1992-11-15 18:00,ZBAA 151800Z AUTO 18004KT 7SM M01/M11 A3033 RMK SLP288 T10061107 40063//// 57008 IEM_DS3505
ZBAA,1992-11-15 19:00,ZBAA 151900Z AUTO 00000KT 7SM M03/M10 A3033 RMK T10301100 IEM_DS3505
ZBAA,1992-11-15 20:00,ZBAA 152000Z AUTO 00000KT 7SM M04/M10 A3030 RMK T10401100 IEM_DS3505
ZBAA,1992-11-15 21:00,ZBAA 152100Z AUTO 00000KT 6SM M04/M08 A3030 RMK SLP277 T10351079 57012 IEM_DS3505
ZBAA,1992-11-15 22:00,ZBAA 152200Z AUTO 01004KT 5SM M04/M09 A3030 RMK T10401090 IEM_DS3505
ZBAA,1992-11-15 23:00,ZBAA 152300Z AUTO 00000KT 5SM M04/M10 A3030 RMK T10401100 IEM_DS3505
ZBAA,1992-11-16 00:00,ZBAA 160000Z AUTO 25002KT 1 1/2SM M03/M08 A3033 RMK SLP280 T10311075 52003 IEM_DS3505
ZBAA,1992-11-16 01:00,ZBAA 160100Z AUTO 00000KT 2 1/2SM M02/M07 A3033 RMK SLP269 T10201070 57010 IEM_DS3505
ZBAA,1992-11-16 02:00,ZBAA 160200Z AUTO 00000KT 1 1/4SM 01/M07 A3030 RMK T00101070 IEM_DS3505
ZBAA,1992-11-16 03:00,ZBAA 160300Z AUTO 00000KT 2 1/2SM 04/M09 A3027 RMK SLP269 T00421091 57010 IEM_DS3505
ZBAA,1992-11-16 04:00,ZBAA 160400Z AUTO 14002KT 3SM 06/M09 A3024 RMK T00601090 IEM_DS3505
ZBAA,1992-11-16 05:00,ZBAA 160500Z AUTO 20004KT 3SM 07/M09 A3021 RMK SLP244 T00741091 4////1039 57025 IEM_DS3505
ZBAA,1992-11-16 06:00,ZBAA 160600Z AUTO 20004KT 3SM 07/M09 RMK SLP244 T00741091 4////1039 57025 IEM_DS3505
ZBAA,1992-11-16 07:00,ZBAA 160700Z AUTO 13004KT 7SM 07/M10 A3018 RMK T00701100 IEM_DS3505
ZBAA,1992-11-16 08:00,ZBAA 160800Z AUTO 13004KT 7SM 07/M09 A3018 RMK T00701090 IEM_DS3505
ZBAA,1992-11-16 09:00,ZBAA 160900Z AUTO 18004KT 4SM 06/M08 A3018 RMK SLP238 T00631081 57006 IEM_DS3505
ZBAA,1992-11-16 10:00,ZBAA 161000Z AUTO 10002KT 6SM 04/M09 A3018 RMK T00401090 IEM_DS3505
ZBAA,1992-11-16 11:00,ZBAA 161100Z AUTO 00000KT 6SM 00/M05 A3021 RMK SLP248 T00001046 52009 IEM_DS3505
ZBAA,1992-11-16 12:00,ZBAA 161200Z AUTO 00000KT 2SM 01/M05 A3021 RMK SLP248 T00081046 52009 IEM_DS3505
ZBAA,1992-11-16 13:00,ZBAA 161300Z AUTO 00000KT 6SM 01/M08 A3021 RMK T00101080 IEM_DS3505
ZBAA,1992-11-16 14:00,ZBAA 161400Z AUTO 00000KT 6SM M01/M07 A3021 RMK T10101070 IEM_DS3505
ZBAA,1992-11-16 15:00,ZBAA 161500Z AUTO 04002KT 6SM 02/M08 A3021 RMK SLP248 T00181078 52001 IEM_DS3505
ZBAA,1992-11-16 16:00,ZBAA 161600Z AUTO 36004KT 6SM 00/M07 A3021 RMK T00001070 IEM_DS3505
ZBAA,1992-11-16 17:00,ZBAA 161700Z AUTO 36004KT 6SM M01/M07 A3021 RMK T10101070 IEM_DS3505
ZBAA,1992-11-16 18:00,ZBAA 161800Z AUTO 00000KT 3SM 00/M06 RMK SLP243 T00011063 40075//// 57005 IEM_DS3505
ZBAA,1992-11-16 19:00,ZBAA 161900Z AUTO 34002KT 6SM M02/M07 A3018 RMK T10201070 IEM_DS3505
ZBAA,1992-11-16 20:00,ZBAA 162000Z AUTO 33004KT 6SM M01/M08 A3015 RMK T10101080 IEM_DS3505
ZBAA,1992-11-16 21:00,ZBAA 162100Z AUTO 00000KT 2SM M02/M05 A3015 RMK SLP228 T10231054 57015 IEM_DS3505
ZBAA,1992-11-16 22:00,ZBAA 162200Z AUTO 34004KT 6SM M02/M08 A3015 RMK T10201080 IEM_DS3505
ZBAA,1992-11-16 23:00,ZBAA 162300Z AUTO 34006KT 5SM M02/M07 A3015 RMK T10201070 IEM_DS3505
ZBAA,1992-11-17 00:00,ZBAA 170000Z AUTO 07004KT 1 1/2SM 00/M07 RMK SLP232 T00041071 52003 IEM_DS3505
ZBAA,1992-11-17 01:00,ZBAA 170100Z AUTO 07004KT 1 1/2SM 00/M07 A3018 RMK SLP232 T00041071 52007 IEM_DS3505
ZBAA,1992-11-17 02:00,ZBAA 170200Z AUTO 01006KT 3SM 03/M04 A3018 RMK T00301040 IEM_DS3505
ZBAA,1992-11-17 03:00,ZBAA 170300Z AUTO 04002KT 2SM 05/M07 A3015 RMK SLP230 T00461069 57001 IEM_DS3505
ZBAA,1992-11-17 04:00,ZBAA 170400Z AUTO 00000KT 4SM 06/M04 A3012 RMK T00601040 IEM_DS3505
ZBAA,1992-11-17 05:00,ZBAA 170500Z AUTO 04004KT 4SM 07/M05 A3009 RMK T00701050 IEM_DS3505
ZBAA,1992-11-17 06:00,ZBAA 170600Z AUTO 04006KT 2SM 07/M06 A3009 RMK SLP210 T00671059 4////1030 57020 IEM_DS3505
ZBAA,1992-11-17 07:00,ZBAA 170700Z AUTO 09002KT 5SM 08/M05 A3009 RMK T00801050 IEM_DS3505
ZBAA,1992-11-17 08:00,ZBAA 170800Z AUTO 07004KT 4SM 07/M04 A3009 RMK T00701040 IEM_DS3505
ZBAA,1992-11-17 09:00,ZBAA 170900Z AUTO 04004KT 2SM 06/M04 A3009 RMK SLP210 T00651038 54000 IEM_DS3505
ZBAA,1992-11-17 10:00,ZBAA 171000Z AUTO 3SM 05/M05 A3012 RMK T00501050 IEM_DS3505
ZBAA,1992-11-17 11:00,ZBAA 171100Z AUTO 36004KT 3SM 04/M05 A3012 RMK T00401050 IEM_DS3505
ZBAA,1992-11-17 12:00,ZBAA 171200Z AUTO 36004KT 3SM 04/M03 A3015 RMK SLP224 T00361031 52014 IEM_DS3505
ZBAA,1992-11-17 13:00,ZBAA 171300Z AUTO 33004KT 3SM 02/M05 A3015 RMK T00201050 IEM_DS3505
ZBAA,1992-11-17 14:00,ZBAA 171400Z AUTO 34002KT 3SM 02/M05 A3018 RMK T00201050 IEM_DS3505
ZBAA,1992-11-17 15:00,ZBAA 171500Z AUTO 36004KT 4SM 03/M03 A3018 RMK SLP233 T00261034 52009 IEM_DS3505
ZBAA,1992-11-17 16:00,ZBAA 171600Z AUTO 31006KT 3SM 01/M04 A3018 RMK T00101040 IEM_DS3505
ZBAA,1992-11-17 17:00,ZBAA 171700Z AUTO 34006KT 3SM 01/M04 A3018 RMK T00101040 IEM_DS3505
ZBAA,1992-11-17 18:00,ZBAA 171800Z AUTO 02002KT 2SM 00/M03 RMK SLP239 T00041030 40072//// 52006 IEM_DS3505
ZBAA,1992-11-17 21:00,ZBAA 172100Z AUTO 00000KT 3SM 03/M02 RMK SLP237 T00291016 57002 IEM_DS3505
ZBAA,1992-11-17 22:00,ZBAA 172200Z AUTO 29004KT 4SM 03/M02 A3018 RMK T00301020 IEM_DS3505
ZBAA,1992-11-17 23:00,ZBAA 172300Z AUTO 29002KT 4SM 04/M02 A3018 RMK T00401020 IEM_DS3505
ZBAA,1992-11-18 00:00,ZBAA 180000Z AUTO 27004KT 2 1/2SM 05/02 A3021 RMK SLP248 T00500020 52011 IEM_DS3505
ZBAA,1992-11-18 01:00,ZBAA 180100Z AUTO 35002KT 2SM 04/M02 A3021 RMK T00401020 IEM_DS3505
ZBAA,1992-11-18 02:00,ZBAA 180200Z AUTO 00000KT 1 1/4SM 05/M01 A3021 RMK T00501010 IEM_DS3505
ZBAA,1992-11-18 03:00,ZBAA 180300Z AUTO 20004KT 1SM 06/02 A3021 RMK SLP245 T00580018 57003 IEM_DS3505
ZBAA,1992-11-18 04:00,ZBAA 180400Z AUTO 29002KT 2SM 05/M01 A3018 RMK T00501010 IEM_DS3505
ZBAA,1992-11-18 05:00,ZBAA 180500Z AUTO 02004KT 2SM 05/M01 A3015 RMK T00501010 IEM_DS3505
ZBAA,1992-11-18 06:00,ZBAA 180600Z AUTO 20004KT 1 1/4SM 06/02 RMK SLP223 T00620017 4////0003 57022 IEM_DS3505
ZBAA,1992-11-18 07:00,ZBAA 180700Z AUTO 35004KT 1 1/2SM 05/M01 A3015 RMK T00501010 IEM_DS3505
ZBAA,1992-11-18 08:00,ZBAA 180800Z AUTO 36002KT 1 1/4SM 03/02 A3012 RMK T00300020 IEM_DS3505
ZBAA,1992-11-18 09:00,ZBAA 180900Z AUTO 02004KT 1 1/4SM 05/03 A3015 RMK SLP223 T00500028 54000 IEM_DS3505
ZBAA,1992-11-18 10:00,ZBAA 181000Z AUTO 34004KT 1 1/2SM 04/04 A3015 RMK T00400040 IEM_DS3505
ZBAA,1992-11-18 11:00,ZBAA 181100Z AUTO 35004KT 1SM 06/03 A3018 RMK SLP232 T00560029 52003 IEM_DS3505
ZBAA,1992-11-18 12:00,ZBAA 181200Z AUTO 34002KT 1SM 05/04 A3018 RMK 60008 SLP230 T00470035 52007 IEM_DS3505
ZBAA,1992-11-18 13:00,ZBAA 181300Z AUTO 34008KT 1 1/4SM 03/03 A3018 RMK T00300030 IEM_DS3505
ZBAA,1992-11-18 14:00,ZBAA 181400Z AUTO 36006KT 1 1/4SM 03/03 A3018 RMK T00300030 IEM_DS3505
ZBAA,1992-11-18 15:00,ZBAA 181500Z AUTO 36010KT 1SM 06/03 RMK SLP232 T00560029 52003 IEM_DS3505
ZBAA,1992-11-18 16:00,ZBAA 181600Z AUTO 35006KT 1 1/4SM 04/04 A3018 RMK T00400040 IEM_DS3505
ZBAA,1992-11-18 17:00,ZBAA 181700Z AUTO 34008KT 2SM 04/04 A3018 RMK T00400040 IEM_DS3505
ZBAA,1992-11-18 18:00,ZBAA 181800Z AUTO 34010KT 6SM 05/M04 RMK 60004 SLP244 T00531045 40062//// 52012 IEM_DS3505
ZBAA,1992-11-18 19:00,ZBAA 181900Z AUTO 33016KT 6SM 05/M04 A3021 RMK T00501040 IEM_DS3505
ZBAA,1992-11-18 20:00,ZBAA 182000Z AUTO 33016KT 6SM 05/M06 A3021 RMK T00501060 IEM_DS3505
ZBAA,1992-11-18 21:00,ZBAA 182100Z AUTO 36012KT 7SM 04/M07 A3021 RMK SLP251 T00381073 52006 IEM_DS3505
ZBAA,1992-11-18 22:00,ZBAA 182200Z AUTO 32016KT 6SM 04/M08 A3024 RMK T00401080 IEM_DS3505
ZBAA,1992-11-18 23:00,ZBAA 182300Z AUTO 32014KT 6SM 04/M09 A3027 RMK T00401090 IEM_DS3505
ZBAA,1992-11-19 00:00,ZBAA 190000Z AUTO 34008KT 19SM 03/M08 A3033 RMK 70012 SLP283 T00291079 52032 IEM_DS3505
ZBAA,1992-11-19 01:00,ZBAA 190100Z AUTO 35012KT 6SM 03/M08 A3036 RMK T00301080 IEM_DS3505
ZBAA,1992-11-19 02:00,ZBAA 190200Z AUTO 34012KT 6SM 02/M03 A3039 RMK T00201030 IEM_DS3505
ZBAA,1992-11-19 03:00,ZBAA 190300Z AUTO 34016KT 16SM 04/M08 RMK SLP306 T00351083 52023 IEM_DS3505
ZBAA,1992-11-19 04:00,ZBAA 190400Z AUTO 32016KT 6SM 03/M07 A3039 RMK T00301070 IEM_DS3505
ZBAA,1992-11-19 05:00,ZBAA 190500Z AUTO 32019KT 6SM 04/M10 A3036 RMK T00401100 IEM_DS3505
ZBAA,1992-11-19 06:00,ZBAA 190600Z AUTO 34016KT 19SM 05/M11 RMK SLP300 T00461111 4////0027 57006 IEM_DS3505
ZBAA,1992-11-19 07:00,ZBAA 190700Z AUTO 33023G35KT 6SM 04/M13 A3039 RMK T00401130 IEM_DS3505
ZBAA,1992-11-19 08:00,ZBAA 190800Z AUTO 33021KT 6SM 03/M15 A3039 RMK T00301150 IEM_DS3505
ZBAA,1992-11-19 09:00,ZBAA 190900Z AUTO 32012KT 12SM 02/M17 A3045 RMK SLP320 T00251171 52019 IEM_DS3505
ZBAA,1992-11-19 10:00,ZBAA 191000Z AUTO 32021KT 6SM 01/M16 A3047 RMK T00101160 IEM_DS3505
ZBAA,1992-11-19 11:00,ZBAA 191100Z AUTO 34010KT 7SM 00/M16 A3047 RMK SLP340 T00001160 40054//// IEM_DS3505
ZBAA,1992-11-19 12:00,ZBAA 191200Z AUTO 36008KT 16SM 00/M16 A3050 RMK SLP340 T00011159 52020 IEM_DS3505
ZBAA,1992-11-19 13:00,ZBAA 191300Z AUTO 31017KT 7SM M01/M17 A3050 RMK T10101170 IEM_DS3505
ZBAA,1992-11-19 14:00,ZBAA 191400Z AUTO 32017KT 7SM M01/M17 A3053 RMK T10101170 IEM_DS3505
ZBAA,1992-11-19 15:00,ZBAA 191500Z AUTO 36010KT 12SM M01/M15 A3053 RMK SLP350 T10101153 52010 IEM_DS3505
ZBAA,1992-11-19 16:00,ZBAA 191600Z AUTO 33016G27KT 7SM M02/M18 A3050 RMK T10201180 IEM_DS3505
ZBAA,1992-11-19 17:00,ZBAA 191700Z AUTO 34017KT 7SM M02/M18 A3050 RMK T10201180 IEM_DS3505
ZBAA,1992-11-19 18:00,ZBAA 191800Z AUTO 34010KT 19SM M02/M17 RMK SLP340 T10211168 40054//// 57010 IEM_DS3505
ZBAA,1992-11-19 19:00,ZBAA 191900Z AUTO 34017KT 7SM M03/M18 A3050 RMK T10301180 IEM_DS3505
ZBAA,1992-11-19 21:00,ZBAA 192100Z AUTO 02008KT 19SM M03/M15 A3047 RMK SLP332 T10321146 57009 IEM_DS3505
ZBAA,1992-11-19 22:00,ZBAA 192200Z AUTO 33012KT 7SM M04/M16 A3047 RMK T10401160 IEM_DS3505
ZBAA,1992-11-19 23:00,ZBAA 192300Z AUTO 01006KT 7SM M04/M16 A3045 RMK T10401160 IEM_DS3505
ZBAA,1992-11-20 00:00,ZBAA 200000Z AUTO 02010KT 11SM M03/M16 RMK SLP327 T10291162 57005 IEM_DS3505
ZBAA,1992-11-20 01:00,ZBAA 200100Z AUTO 03006KT 7SM M03/M14 A3045 RMK T10301140 IEM_DS3505
ZBAA,1992-11-20 02:00,ZBAA 200200Z AUTO 01008KT 7SM M01/M15 A3042 RMK T10101150 IEM_DS3505
ZBAA,1992-11-20 03:00,ZBAA 200300Z AUTO 34004KT 12SM 01/M16 A3039 RMK SLP303 T00121163 57023 IEM_DS3505
ZBAA,1992-11-20 04:00,ZBAA 200400Z AUTO 32014KT 7SM 02/M15 A3033 RMK T00201150 IEM_DS3505
ZBAA,1992-11-20 05:00,ZBAA 200500Z AUTO 31012KT 7SM 03/M15 A3027 RMK T00301150 IEM_DS3505
ZBAA,1992-11-20 06:00,ZBAA 200600Z AUTO 18004KT 9SM 03/M14 A3024 RMK SLP261 T00341138 4////1040 57042 IEM_DS3505
ZBAA,1992-11-20 07:00,ZBAA 200700Z AUTO 32010KT 7SM 04/M14 A3021 RMK T00401140 IEM_DS3505
ZBAA,1992-11-20 09:00,ZBAA 200900Z AUTO 20004KT 9SM 03/M13 A3018 RMK SLP240 T00261128 57021 IEM_DS3505
ZBAA,1992-11-20 10:00,ZBAA 201000Z AUTO 16004KT 7SM 01/M12 A3015 RMK T00101120 IEM_DS3505
ZBAA,1992-11-20 11:00,ZBAA 201100Z AUTO 20006KT 7SM M01/M11 A3015 RMK SLP206 T10061110 57022 IEM_DS3505
ZBAA,1992-11-20 12:00,ZBAA 201200Z AUTO 20008KT 12SM 00/M11 RMK SLP228 T00011111 57012 IEM_DS3505
ZBAA,1992-11-20 13:00,ZBAA 201300Z AUTO 17006KT 7SM M01/M11 A3012 RMK T10101110 IEM_DS3505
ZBAA,1992-11-20 14:00,ZBAA 201400Z AUTO 20006KT 7SM M01/M10 A3009 RMK T10101100 IEM_DS3505
ZBAA,1992-11-20 15:00,ZBAA 201500Z AUTO 20006KT 9SM M01/M13 A3006 RMK SLP206 T10061131 57022 IEM_DS3505
ZBAA,1992-11-20 16:00,ZBAA 201600Z AUTO 00000KT 7SM M03/M10 A3003 RMK T10301100 IEM_DS3505
ZBAA,1992-11-20 17:00,ZBAA 201700Z AUTO 00000KT 7SM M04/M09 A3003 RMK T10401090 IEM_DS3505
ZBAA,1992-11-20 18:00,ZBAA 201800Z AUTO 18006KT 7SM M02/M10 RMK SLP183 T10221097 40041//// 57022 IEM_DS3505
ZBAA,1992-11-20 21:00,ZBAA 202100Z AUTO 00000KT 6SM M04/M08 RMK SLP160 T10441077 57023 IEM_DS3505
ZBAA,1992-11-20 23:00,ZBAA 202300Z AUTO 02002KT 7SM M05/M08 A2994 RMK T10501080 IEM_DS3505
ZBAA,1992-11-21 00:00,ZBAA 210000Z AUTO 02004KT 5SM M04/M08 A2994 RMK SLP160 T10381083 57001 IEM_DS3505
ZBAA,1992-11-21 01:00,ZBAA 210100Z AUTO 00000KT 2 1/2SM M03/M07 A2994 RMK T10301070 IEM_DS3505
ZBAA,1992-11-21 02:00,ZBAA 210200Z AUTO 00000KT 4SM M01/M06 A2991 RMK T10101060 IEM_DS3505
ZBAA,1992-11-21 03:00,ZBAA 210300Z AUTO 00000KT 2 1/2SM 02/M06 RMK SLP147 T00241063 57012 IEM_DS3505
ZBAA,1992-11-21 04:00,ZBAA 210400Z AUTO 00000KT 4SM 03/M07 A2985 RMK T00301070 IEM_DS3505
ZBAA,1992-11-21 05:00,ZBAA 210500Z AUTO 15004KT 4SM 05/M07 A2983 RMK T00501070 IEM_DS3505
ZBAA,1992-11-21 06:00,ZBAA 210600Z AUTO 16006KT 4SM 07/M08 A2980 RMK SLP115 T00711079 4////1048 57031 IEM_DS3505
ZBAA,1992-11-21 08:00,ZBAA 210800Z AUTO 17006KT 3SM 06/M08 A2980 RMK T00601080 IEM_DS3505
ZBAA,1992-11-21 09:00,ZBAA 210900Z AUTO 18006KT 5SM 05/M07 RMK SLP115 T00521066 57001 IEM_DS3505
ZBAA,1992-11-21 10:00,ZBAA 211000Z AUTO 16004KT 3SM 03/M07 A2983 RMK T00301070 IEM_DS3505
ZBAA,1992-11-21 11:00,ZBAA 211100Z AUTO 29004KT 6SM 06/M08 A2985 RMK SLP153 T00581080 40074//// 52014 IEM_DS3505
ZBAA,1992-11-21 12:00,ZBAA 211200Z AUTO 20008KT 3SM 03/M05 A2985 RMK SLP129 T00341052 52014 IEM_DS3505
ZBAA,1992-11-21 13:00,ZBAA 211300Z AUTO 00000KT 2 1/2SM 01/M05 A2988 RMK T00101050 IEM_DS3505
ZBAA,1992-11-21 14:00,ZBAA 211400Z AUTO 21002KT 2 1/2SM 01/M05 A2988 RMK T00101050 IEM_DS3505
ZBAA,1992-11-21 15:00,ZBAA 211500Z AUTO 36004KT 2 1/2SM 01/M04 A2991 RMK SLP140 T00141042 52011 IEM_DS3505
ZBAA,1992-11-21 16:00,ZBAA 211600Z AUTO 36006KT 2 1/2SM 00/M05 A2991 RMK T00001050 IEM_DS3505
ZBAA,1992-11-21 17:00,ZBAA 211700Z AUTO 33006KT 2 1/2SM 00/M06 A2991 RMK T00001060 IEM_DS3505
ZBAA,1992-11-21 18:00,ZBAA 211800Z AUTO 29004KT 6SM 06/M08 A2994 RMK SLP153 T00581080 40074//// 52014 IEM_DS3505
ZBAA,1992-11-21 19:00,ZBAA 211900Z AUTO 32006KT 6SM 03/M08 A2994 RMK T00301080 IEM_DS3505
ZBAA,1992-11-21 20:00,ZBAA 212000Z AUTO 32012KT 6SM 03/M08 A2994 RMK T00301080 IEM_DS3505
ZBAA,1992-11-21 21:00,ZBAA 212100Z AUTO 34006KT 6SM 06/M10 A2994 RMK SLP156 T00601097 52003 IEM_DS3505
ZBAA,1992-11-21 22:00,ZBAA 212200Z AUTO 33006KT 7SM 03/M08 A2997 RMK T00301080 IEM_DS3505
ZBAA,1992-11-21 23:00,ZBAA 212300Z AUTO 36002KT 7SM 03/M09 A2997 RMK T00301090 IEM_DS3505
ZBAA,1992-11-22 00:00,ZBAA 220000Z AUTO 32004KT 9SM 05/M08 A3000 RMK SLP169 T00471085 52013 IEM_DS3505
ZBAA,1992-11-22 01:00,ZBAA 220100Z AUTO 01027KT 3SM 08/M08 A3000 RMK T00841079 52005 IEM_DS3505
ZBAA,1992-11-22 02:00,ZBAA 220200Z AUTO 33002KT 7SM 08/M08 A3000 RMK T00801080 IEM_DS3505
ZBAA,1992-11-22 03:00,ZBAA 220300Z AUTO 16008KT 3SM 08/M08 A3000 RMK SLP174 T00841079 52005 IEM_DS3505
ZBAA,1992-11-22 04:00,ZBAA 220400Z AUTO 23006KT 7SM 10/M08 A2997 RMK T01001080 IEM_DS3505
ZBAA,1992-11-22 05:00,ZBAA 220500Z AUTO 26010KT 7SM 11/M07 A2994 RMK T01101070 IEM_DS3505
ZBAA,1992-11-22 06:00,ZBAA 220600Z AUTO 18010KT 4SM 10/M07 RMK SLP169 T01011074 4////0010 57004 IEM_DS3505
ZBAA,1992-11-22 07:00,ZBAA 220700Z AUTO 29016KT 7SM 11/M09 A2997 RMK T01101090 IEM_DS3505
ZBAA,1992-11-22 08:00,ZBAA 220800Z AUTO 29014KT 7SM 11/M09 A2997 RMK T01101090 IEM_DS3505
ZBAA,1992-11-22 09:00,ZBAA 220900Z AUTO 29002KT 2SM 08/M03 A3000 RMK SLP177 T00791031 52007 IEM_DS3505
ZBAA,1992-11-22 10:00,ZBAA 221000Z AUTO 30010KT 6SM 09/M09 A3003 RMK T00901090 IEM_DS3505
ZBAA,1992-11-22 11:00,ZBAA 221100Z AUTO 32012KT 6SM 09/M09 A3003 RMK T00901090 IEM_DS3505
ZBAA,1992-11-22 12:00,ZBAA 221200Z AUTO 29004KT 7SM 08/M07 RMK SLP203 T00851068 52026 IEM_DS3505
ZBAA,1992-11-22 13:00,ZBAA 221300Z AUTO 29004KT 6SM 05/M10 A3012 RMK T00501100 IEM_DS3505
ZBAA,1992-11-22 14:00,ZBAA 221400Z AUTO 35010KT 6SM 06/M09 A3012 RMK T00601090 IEM_DS3505
ZBAA,1992-11-22 15:00,ZBAA 221500Z AUTO 36010KT 9SM 06/M08 A3015 RMK SLP222 T00631081 52019 IEM_DS3505
ZBAA,1992-11-22 16:00,ZBAA 221600Z AUTO 02006KT 6SM 04/M11 A3015 RMK T00401110 IEM_DS3505
ZBAA,1992-11-22 17:00,ZBAA 221700Z AUTO 04002KT 6SM 03/M11 A3018 RMK T00301110 IEM_DS3505
ZBAA,1992-11-22 18:00,ZBAA 221800Z AUTO 11006KT 19SM 05/M09 A3018 RMK SLP229 T00521092 40106//// 52007 IEM_DS3505
ZBAA,1992-11-22 19:00,ZBAA 221900Z AUTO 07002KT 7SM 01/M10 A3018 RMK T00101100 IEM_DS3505
ZBAA,1992-11-22 20:00,ZBAA 222000Z AUTO 00000KT 7SM 01/M11 A3018 RMK T00101110 IEM_DS3505
ZBAA,1992-11-22 21:00,ZBAA 222100Z AUTO 29002KT 19SM 01/M07 RMK SLP231 T00121073 52001 IEM_DS3505
ZBAA,1992-11-22 23:00,ZBAA 222300Z AUTO 28002KT 6SM M01/M09 A3018 RMK T10101090 IEM_DS3505
ZBAA,1992-11-23 00:00,ZBAA 230000Z AUTO 18004KT 6SM 01/M05 A3021 RMK SLP240 T00101048 52009 IEM_DS3505
ZBAA,1992-11-23 01:00,ZBAA 230100Z AUTO 15002KT 7SM 03/M08 A3024 RMK T00301080 IEM_DS3505
ZBAA,1992-11-23 02:00,ZBAA 230200Z AUTO 16008KT 7SM 05/M10 A3024 RMK T00501100 IEM_DS3505
ZBAA,1992-11-23 03:00,ZBAA 230300Z AUTO 16006KT 6SM 06/M10 RMK SLP242 T00621105 52003 IEM_DS3505
ZBAA,1992-11-23 04:00,ZBAA 230400Z AUTO 15006KT 7SM 07/M11 A3015 RMK T00701110 IEM_DS3505
ZBAA,1992-11-23 05:00,ZBAA 230500Z AUTO 11006KT 7SM 07/M09 A3012 RMK T00701090 IEM_DS3505
ZBAA,1992-11-23 06:00,ZBAA 230600Z AUTO 16004KT 7SM 09/M09 A3009 RMK SLP199 T00911086 4////1009 57043 IEM_DS3505
ZBAA,1992-11-23 07:00,ZBAA 230700Z AUTO 14006KT 7SM 08/M07 A3006 RMK T00801070 IEM_DS3505
ZBAA,1992-11-23 08:00,ZBAA 230800Z AUTO 14004KT 7SM 07/M06 A3006 RMK T00701060 IEM_DS3505
ZBAA,1992-11-23 09:00,ZBAA 230900Z AUTO 20006KT 6SM 08/M07 A3006 RMK SLP195 T00771069 57004 IEM_DS3505
ZBAA,1992-11-23 10:00,ZBAA 231000Z AUTO 15004KT 7SM 05/M04 A3006 RMK T00501040 IEM_DS3505
ZBAA,1992-11-23 11:00,ZBAA 231100Z AUTO 00000KT 7SM 03/M04 A3006 RMK T00301040 IEM_DS3505
ZBAA,1992-11-23 12:00,ZBAA 231200Z AUTO 04004KT 6SM 03/M04 RMK SLP200 T00341041 52004 IEM_DS3505
ZBAA,1992-11-23 13:00,ZBAA 231300Z AUTO 00000KT 5SM 02/M06 A3009 RMK T00201060 IEM_DS3505
ZBAA,1992-11-23 14:00,ZBAA 231400Z AUTO 30002KT 5SM 00/M05 A3009 RMK T00001050 IEM_DS3505
ZBAA,1992-11-23 15:00,ZBAA 231500Z AUTO 34002KT 6SM 01/M04 A3009 RMK SLP203 T00111038 52003 IEM_DS3505
ZBAA,1992-11-23 16:00,ZBAA 231600Z AUTO 34002KT 5SM 00/M07 A3009 RMK T00001070 IEM_DS3505
ZBAA,1992-11-23 17:00,ZBAA 231700Z AUTO 29002KT 5SM M01/M06 A3009 RMK T10101060 IEM_DS3505
ZBAA,1992-11-23 18:00,ZBAA 231800Z AUTO 00000KT 5SM M00/M05 RMK SLP201 T10021047 40094//// 57001 IEM_DS3505
ZBAA,1992-11-23 19:00,ZBAA 231900Z AUTO 35006KT 5SM 00/M06 A3009 RMK T00001060 IEM_DS3505
ZBAA,1992-11-23 20:00,ZBAA 232000Z AUTO 20006KT 5SM M02/M06 A3009 RMK T10201060 IEM_DS3505
ZBAA,1992-11-23 21:00,ZBAA 232100Z AUTO 09004KT 7SM A3012 RMK SLP215 52014 IEM_DS3505
ZBAA,1992-11-23 22:00,ZBAA 232200Z AUTO 01002KT 5SM M01/M05 A3015 RMK T10101050 IEM_DS3505
ZBAA,1992-11-23 23:00,ZBAA 232300Z AUTO 33004KT 5SM 00/M05 A3018 RMK T00001050 IEM_DS3505
ZBAA,1992-11-24 00:00,ZBAA 240000Z AUTO 04004KT 6SM 04/M04 A3021 RMK SLP241 T00391038 52025 IEM_DS3505
ZBAA,1992-11-24 01:00,ZBAA 240100Z AUTO 04004KT 7SM 07/M04 A3024 RMK SLP241 T00701040 IEM_DS3505
ZBAA,1992-11-24 02:00,ZBAA 240200Z AUTO 32006KT 7SM 09/M04 A3024 RMK T00901040 IEM_DS3505
ZBAA,1992-11-24 03:00,ZBAA 240300Z AUTO 36010KT 16SM 11/M08 A3024 RMK SLP255 T01081081 52015 IEM_DS3505
ZBAA,1992-11-24 04:00,ZBAA 240400Z AUTO 02006KT 7SM 09/M08 A3024 RMK T00901080 IEM_DS3505
ZBAA,1992-11-24 05:00,ZBAA 240500Z AUTO 05008KT 7SM 10/M09 A3021 RMK T01001090 IEM_DS3505
ZBAA,1992-11-24 06:00,ZBAA 240600Z AUTO 04010KT 16SM 10/M10 A3021 RMK SLP242 T01041096 4////1003 57014 IEM_DS3505
ZBAA,1992-11-24 07:00,ZBAA 240700Z AUTO 03012KT 6SM 08/M11 A3018 RMK T00801110 IEM_DS3505
ZBAA,1992-11-24 08:00,ZBAA 240800Z AUTO 07004KT 6SM 07/M12 A3021 RMK T00701120 IEM_DS3505
ZBAA,1992-11-24 09:00,ZBAA 240900Z AUTO 04006KT 9SM 07/M13 RMK SLP250 T00731130 52009 IEM_DS3505
ZBAA,1992-11-24 10:00,ZBAA 241000Z AUTO 04002KT 6SM 06/M11 A3024 RMK T00601110 IEM_DS3505
ZBAA,1992-11-24 11:00,ZBAA 241100Z AUTO 06004KT 6SM 06/M11 A3027 RMK T00601110 IEM_DS3505
ZBAA,1992-11-24 12:00,ZBAA 241200Z AUTO 00000KT 7SM 06/M09 A3027 RMK SLP262 T00601093 52011 IEM_DS3505
ZBAA,1992-11-24 13:00,ZBAA 241300Z AUTO 11004KT 6SM 05/01 A3027 RMK T00500010 IEM_DS3505
ZBAA,1992-11-24 15:00,ZBAA 241500Z AUTO 20008KT 6SM 05/02 A3024 RMK SLP256 T00540019 57005 IEM_DS3505
ZBAA,1992-11-24 16:00,ZBAA 241600Z AUTO 09004KT 5SM 02/02 A3024 RMK T00200020 IEM_DS3505
ZBAA,1992-11-24 17:00,ZBAA 241700Z AUTO 04004KT 3SM 01/01 A3024 RMK T00100010 IEM_DS3505
ZBAA,1992-11-24 18:00,ZBAA 241800Z AUTO 20008KT 6SM 05/02 A3024 RMK 60002 SLP252 T00460015 40116//// 57004 IEM_DS3505
ZBAA,1992-11-24 19:00,ZBAA 241900Z AUTO 06004KT 1 1/2SM 01/01 A3024 RMK T00100010 IEM_DS3505
ZBAA,1992-11-24 20:00,ZBAA 242000Z AUTO 08004KT 3SM 01/01 A3024 RMK T00100010 IEM_DS3505
ZBAA,1992-11-24 21:00,ZBAA 242100Z AUTO 02006KT 6SM 03/01 A3027 RMK SLP259 T00300009 52006 IEM_DS3505
ZBAA,1992-11-24 22:00,ZBAA 242200Z AUTO 05004KT 1 1/4SM 00/00 A3030 RMK T00000000 IEM_DS3505
ZBAA,1992-11-24 23:00,ZBAA 242300Z AUTO 00000KT 7SM 00/M01 A3033 RMK T00001010 IEM_DS3505
ZBAA,1992-11-25 00:00,ZBAA 250000Z AUTO 09004KT 7SM 01/M01 A3036 RMK 60004 70008 SLP288 T00061014 52029 IEM_DS3505
ZBAA,1992-11-25 01:00,ZBAA 250100Z AUTO 36017KT 7SM 01/M01 A3039 RMK 60004 70008 SLP288 T00061014 52029 IEM_DS3505
ZBAA,1992-11-25 02:00,ZBAA 250200Z AUTO 35023KT 7SM 02/M12 A3042 RMK T00201120 IEM_DS3505
ZBAA,1992-11-25 03:00,ZBAA 250300Z AUTO 34014G31KT 19SM 03/M16 A3042 RMK SLP308 T00331157 52020 IEM_DS3505
ZBAA,1992-11-25 04:00,ZBAA 250400Z AUTO 36021G31KT 7SM 02/M16 A3042 RMK T00201160 IEM_DS3505
ZBAA,1992-11-25 05:00,ZBAA 250500Z AUTO 34025KT 7SM 02/M16 A3045 RMK T00201160 IEM_DS3505
ZBAA,1992-11-25 06:00,ZBAA 250600Z AUTO 36010KT 19SM 02/M19 RMK SLP316 T00231186 4////0001 52008 IEM_DS3505
ZBAA,1992-11-25 07:00,ZBAA 250700Z AUTO 36017KT 7SM 01/M17 A3045 RMK T00101170 IEM_DS3505
ZBAA,1992-11-25 08:00,ZBAA 250800Z AUTO 36019KT 7SM 00/M17 A3047 RMK T00001170 IEM_DS3505
ZBAA,1992-11-25 09:00,ZBAA 250900Z AUTO 02010KT 19SM M00/M19 A3050 RMK SLP335 T10041189 52018 IEM_DS3505
ZBAA,1992-11-25 10:00,ZBAA 251000Z AUTO 03010KT 6SM M03/M15 A3050 RMK T10301150 IEM_DS3505
ZBAA,1992-11-25 11:00,ZBAA 251100Z AUTO 04008KT 6SM M04/M16 A3053 RMK SLP367 T10401160 52010 IEM_DS3505
ZBAA,1992-11-25 12:00,ZBAA 251200Z AUTO 36010KT 19SM M03/M22 A3056 RMK SLP357 T10261224 52021 IEM_DS3505
ZBAA,1992-11-25 13:00,ZBAA 251300Z AUTO 04010KT 6SM M06/M17 A3059 RMK T10601170 IEM_DS3505
ZBAA,1992-11-25 14:00,ZBAA 251400Z AUTO 36010KT 19SM RMK SLP357 52021 IEM_DS3505
ZBAA,1992-11-25 15:00,ZBAA 251500Z AUTO 04008KT 16SM M05/M21 A3059 RMK SLP367 T10471209 52010 IEM_DS3505
ZBAA,1992-11-25 16:00,ZBAA 251600Z AUTO 06010KT 6SM M06/M18 A3062 RMK T10601180 IEM_DS3505
ZBAA,1992-11-25 17:00,ZBAA 251700Z AUTO 05008KT 6SM M06/M18 A3059 RMK T10601180 IEM_DS3505
ZBAA,1992-11-25 18:00,ZBAA 251800Z AUTO 04006KT 19SM M05/M23 A3062 RMK SLP378 T10531227 40046//// 52011 IEM_DS3505
ZBAA,1992-11-25 19:00,ZBAA 251900Z AUTO 05008KT 6SM M07/M18 A3062 RMK T10701180 IEM_DS3505
ZBAA,1992-11-25 20:00,ZBAA 252000Z AUTO 05008KT 6SM M08/M17 A3059 RMK T10801170 IEM_DS3505
ZBAA,1992-11-25 21:00,ZBAA 252100Z AUTO 04006KT 19SM M07/M19 A3059 RMK SLP379 T10671189 54000 IEM_DS3505
ZBAA,1992-11-25 22:00,ZBAA 252200Z AUTO 04006KT 7SM M08/M18 A3062 RMK T10801180 IEM_DS3505
ZBAA,1992-11-25 23:00,ZBAA 252300Z AUTO 02006KT 7SM M08/M19 A3062 RMK T10801190 IEM_DS3505
ZBAA,1992-11-26 00:00,ZBAA 260000Z AUTO 04008KT 16SM M07/M21 A3065 RMK SLP389 T10721210 52010 IEM_DS3505
ZBAA,1992-11-26 01:00,ZBAA 260100Z AUTO 04008KT 6SM M06/M19 A3065 RMK T10601190 IEM_DS3505
ZBAA,1992-11-26 03:00,ZBAA 260300Z AUTO 02004KT 10SM M04/M20 A3065 RMK SLP389 T10441201 54000 IEM_DS3505
ZBAA,1992-11-26 04:00,ZBAA 260400Z AUTO 03006KT 6SM M03/M18 A3062 RMK T10301180 IEM_DS3505
ZBAA,1992-11-26 05:00,ZBAA 260500Z AUTO 04004KT 7SM M03/M19 A3059 RMK T10301190 IEM_DS3505
ZBAA,1992-11-26 06:00,ZBAA 260600Z AUTO 20006KT 7SM M02/M18 A3056 RMK SLP363 T10201183 4////1076 57026 IEM_DS3505
ZBAA,1992-11-26 07:00,ZBAA 260700Z AUTO 22002KT 7SM M02/M19 A3056 RMK T10201190 IEM_DS3505
ZBAA,1992-11-26 08:00,ZBAA 260800Z AUTO 14002KT 7SM M03/M19 A3053 RMK T10301190 IEM_DS3505
ZBAA,1992-11-26 09:00,ZBAA 260900Z AUTO 18006KT 11SM M02/M17 A3053 RMK SLP355 T10211168 57008 IEM_DS3505
ZBAA,1992-11-26 11:00,ZBAA 261100Z AUTO 16002KT 9SM M05/M13 A3053 RMK SLP354 T10501130 57001 IEM_DS3505
ZBAA,1992-11-26 12:00,ZBAA 261200Z AUTO 16002KT 9SM M03/M15 A3053 RMK SLP354 T10261148 57001 IEM_DS3505
ZBAA,1992-11-26 13:00,ZBAA 261300Z AUTO 12004KT 6SM M05/M14 A3053 RMK T10501140 IEM_DS3505
ZBAA,1992-11-26 14:00,ZBAA 261400Z AUTO 10004KT 6SM M06/M15 A3053 RMK T10601150 IEM_DS3505
ZBAA,1992-11-26 15:00,ZBAA 261500Z AUTO 02006KT 6SM M05/M10 A3053 RMK SLP349 T10461104 57005 IEM_DS3505
ZBAA,1992-11-26 16:00,ZBAA 261600Z AUTO 10004KT 6SM M06/M14 A3050 RMK T10601140 IEM_DS3505
ZBAA,1992-11-26 17:00,ZBAA 261700Z AUTO 10004KT 6SM M06/M13 A3050 RMK T10601130 IEM_DS3505
ZBAA,1992-11-26 18:00,ZBAA 261800Z AUTO 36008KT 6SM M06/M15 A3050 RMK SLP338 T10561150 41015//// 57010 IEM_DS3505
ZBAA,1992-11-26 19:00,ZBAA 261900Z AUTO 01002KT 7SM M07/M12 A3047 RMK T10701120 IEM_DS3505
ZBAA,1992-11-26 20:00,ZBAA 262000Z AUTO 00000KT 7SM M07/M12 A3047 RMK T10701120 IEM_DS3505
ZBAA,1992-11-26 21:00,ZBAA 262100Z AUTO 02004KT 6SM M06/M14 A3047 RMK SLP330 T10571139 57008 IEM_DS3505
ZBAA,1992-11-26 22:00,ZBAA 262200Z AUTO 00000KT 7SM M07/M13 A3047 RMK T10701130 IEM_DS3505
ZBAA,1992-11-26 23:00,ZBAA 262300Z AUTO 00000KT 7SM M07/M12 A3047 RMK T10701120 IEM_DS3505
ZBAA,1992-11-27 00:00,ZBAA 270000Z AUTO 02004KT 2 1/2SM M05/M14 RMK SLP331 T10521137 52001 IEM_DS3505
ZBAA,1992-11-27 01:00,ZBAA 270100Z AUTO 00000KT 7SM M05/M11 A3047 RMK T10501110 IEM_DS3505
ZBAA,1992-11-27 02:00,ZBAA 270200Z AUTO 05002KT 4SM M04/M11 A3047 RMK T10401110 IEM_DS3505
ZBAA,1992-11-27 03:00,ZBAA 270300Z AUTO 04004KT 3SM M02/M12 RMK SLP327 T10211115 57004 IEM_DS3505
ZBAA,1992-11-27 04:00,ZBAA 270400Z AUTO 08004KT 4SM M01/M10 A3042 RMK T10101100 IEM_DS3505
ZBAA,1992-11-27 05:00,ZBAA 270500Z AUTO 07002KT 4SM M01/M10 A3039 RMK T10101100 IEM_DS3505
ZBAA,1992-11-27 06:00,ZBAA 270600Z AUTO 04002KT 2SM 00/M12 A3039 RMK SLP302 T00041118 4////1060 57025 IEM_DS3505
ZBAA,1992-11-27 07:00,ZBAA 270700Z AUTO 10002KT 4SM 00/M11 A3036 RMK T00001110 IEM_DS3505
ZBAA,1992-11-27 08:00,ZBAA 270800Z AUTO 06002KT 5SM M01/M11 A3036 RMK T10101110 IEM_DS3505
ZBAA,1992-11-27 09:00,ZBAA 270900Z AUTO 02004KT 2SM M00/M10 A3036 RMK SLP297 T10041103 57005 IEM_DS3505
ZBAA,1992-11-27 10:00,ZBAA 271000Z AUTO 05002KT 3SM M02/M09 A3036 RMK T10201090 IEM_DS3505
ZBAA,1992-11-27 11:00,ZBAA 271100Z AUTO 36004KT 6SM M03/M11 A3036 RMK SLP283 T10301106 57006 IEM_DS3505
ZBAA,1992-11-27 12:00,ZBAA 271200Z AUTO 02004KT 1 1/2SM M02/M09 RMK SLP298 T10181094 52001 IEM_DS3505
ZBAA,1992-11-27 13:00,ZBAA 271300Z AUTO 02002KT 3SM M03/M10 A3036 RMK T10301100 IEM_DS3505
ZBAA,1992-11-27 14:00,ZBAA 271400Z AUTO 02002KT 3SM M03/M10 A3036 RMK T10301100 IEM_DS3505
ZBAA,1992-11-27 15:00,ZBAA 271500Z AUTO 34002KT 1 1/2SM M04/M09 A3033 RMK SLP289 T10381088 57009 IEM_DS3505
ZBAA,1992-11-27 16:00,ZBAA 271600Z AUTO 33004KT 3SM M04/M09 A3033 RMK T10401090 IEM_DS3505
ZBAA,1992-11-27 17:00,ZBAA 271700Z AUTO 33004KT 3SM M04/M10 A3033 RMK T10401100 IEM_DS3505
ZBAA,1992-11-27 18:00,ZBAA 271800Z AUTO 36004KT 6SM M03/M11 A3030 RMK SLP282 T10301106 40005//// 57006 IEM_DS3505
ZBAA,1992-11-27 19:00,ZBAA 271900Z AUTO 33004KT 2 1/2SM M05/M10 A3030 RMK T10501100 IEM_DS3505
ZBAA,1992-11-27 20:00,ZBAA 272000Z AUTO 31004KT 2 1/2SM M05/M10 A3027 RMK T10501100 IEM_DS3505
ZBAA,1992-11-27 21:00,ZBAA 272100Z AUTO 00000KT 6SM M05/M08 A3027 RMK SLP269 T10491080 57014 IEM_DS3505
ZBAA,1992-11-27 22:00,ZBAA 272200Z AUTO 32004KT 2 1/2SM M05/M10 A3027 RMK T10501100 IEM_DS3505
ZBAA,1992-11-27 23:00,ZBAA 272300Z AUTO 33002KT 2SM M05/M10 A3027 RMK T10501100 IEM_DS3505
ZBAA,1992-11-28 00:00,ZBAA 280000Z AUTO 29002KT 2SM M05/M08 A3027 RMK SLP270 T10491084 52001 IEM_DS3505
ZBAA,1992-11-28 01:00,ZBAA 280100Z AUTO 09004KT 1 1/2SM 01/M09 A3027 RMK T00131089 54000 IEM_DS3505
ZBAA,1992-11-28 02:00,ZBAA 280200Z AUTO 35006KT 2 1/2SM M01/M06 A3030 RMK T10101060 IEM_DS3505
ZBAA,1992-11-28 03:00,ZBAA 280300Z AUTO 09004KT 1 1/2SM 01/M09 A3030 RMK SLP269 T00131089 54000 IEM_DS3505
ZBAA,1992-11-28 04:00,ZBAA 280400Z AUTO 01004KT 3SM 02/M06 A3027 RMK T00201060 IEM_DS3505
ZBAA,1992-11-28 05:00,ZBAA 280500Z AUTO 03004KT 4SM 03/M05 A3024 RMK T00301050 IEM_DS3505
ZBAA,1992-11-28 06:00,ZBAA 280600Z AUTO 04002KT 2SM 05/M07 RMK SLP257 T00461069 4////1055 57012 IEM_DS3505
ZBAA,1992-11-28 07:00,ZBAA 280700Z AUTO 01002KT 4SM 04/M06 A3024 RMK T00401060 IEM_DS3505
ZBAA,1992-11-28 08:00,ZBAA 280800Z AUTO 30004KT 4SM 03/M06 A3027 RMK T00301060 IEM_DS3505
ZBAA,1992-11-28 09:00,ZBAA 280900Z AUTO 29002KT 1 1/4SM 03/M06 A3027 RMK SLP266 T00301064 52009 IEM_DS3505
ZBAA,1992-11-28 10:00,ZBAA 281000Z AUTO 00000KT 3SM 01/M06 A3027 RMK T00101060 IEM_DS3505
ZBAA,1992-11-28 11:00,ZBAA 281100Z AUTO 00000KT 1 1/2SM 00/M06 A3030 RMK T00001060 IEM_DS3505
ZBAA,1992-11-28 12:00,ZBAA 281200Z AUTO 00000KT 1 1/2SM M00/M04 RMK SLP275 T10021044 52008 IEM_DS3505
ZBAA,1992-11-28 13:00,ZBAA 281300Z AUTO 31002KT 1 1/2SM M01/M06 A3033 RMK T10101060 IEM_DS3505
ZBAA,1992-11-28 14:00,ZBAA 281400Z AUTO 00000KT 1 1/2SM 00/M06 A3033 RMK T00001060 IEM_DS3505
ZBAA,1992-11-28 15:00,ZBAA 281500Z AUTO 27004KT 1 1/4SM M01/M05 A3033 RMK SLP277 T10121052 52003 IEM_DS3505
ZBAA,1992-11-28 18:00,ZBAA 281800Z AUTO 00000KT 1 1/4SM M02/M05 RMK SLP278 T10241054 40051//// 52001 IEM_DS3505
ZBAA,1992-11-28 20:00,ZBAA 282000Z AUTO 28002KT 1SM RMK IEM_DS3505
ZBAA,1992-11-28 21:00,ZBAA 282100Z AUTO 00000KT 1SM M03/M05 A3027 RMK SLP271 T10321054 57007 IEM_DS3505
ZBAA,1992-11-28 22:00,ZBAA 282200Z AUTO 30004KT 1SM M04/M06 A3030 RMK T10401060 IEM_DS3505
ZBAA,1992-11-28 23:00,ZBAA 282300Z AUTO 33004KT 1SM M03/M06 A3030 RMK T10301060 IEM_DS3505
ZBAA,1992-11-29 00:00,ZBAA 290000Z AUTO 00000KT 1SM M03/M06 A3033 RMK SLP285 T10321058 52013 IEM_DS3505
ZBAA,1992-11-29 01:00,ZBAA 290100Z AUTO 00000KT 1SM 04/ RMK IEM_DS3505
ZBAA,1992-11-29 02:00,ZBAA 290200Z AUTO 36004KT 1SM 00/M04 A3033 RMK T00001040 IEM_DS3505
ZBAA,1992-11-29 03:00,ZBAA 290300Z AUTO 34002KT 1SM 03/M03 A3033 RMK SLP282 T00281031 57002 IEM_DS3505
ZBAA,1992-11-29 04:00,ZBAA 290400Z AUTO 03002KT 1 1/4SM 04/M03 A3030 RMK T00401030 IEM_DS3505
ZBAA,1992-11-29 05:00,ZBAA 290500Z AUTO 03004KT 2 1/2SM 06/M03 A3027 RMK T00601030 IEM_DS3505
ZBAA,1992-11-29 06:00,ZBAA 290600Z AUTO 09002KT 1SM 07/M02 RMK SLP255 T00741017 4////1036 57026 IEM_DS3505
ZBAA,1992-11-29 07:00,ZBAA 290700Z AUTO 13002KT 4SM 07/M03 A3024 RMK T00701030 IEM_DS3505
ZBAA,1992-11-29 08:00,ZBAA 290800Z AUTO 11002KT 3SM 05/M03 A3024 RMK T00501030 IEM_DS3505
ZBAA,1992-11-29 09:00,ZBAA 290900Z AUTO 00000KT 1SM 03/M01 A3027 RMK SLP261 T00341010 52005 IEM_DS3505
ZBAA,1992-11-29 10:00,ZBAA 291000Z AUTO 11002KT 1SM 04/ RMK IEM_DS3505
ZBAA,1992-11-29 11:00,ZBAA 291100Z AUTO 13002KT 1SM 04/ RMK IEM_DS3505
ZBAA,1992-11-29 12:00,ZBAA 291200Z AUTO 00000KT 1SM 00/M02 RMK SLP272 T00031024 52011 IEM_DS3505
ZBAA,1992-11-29 13:00,ZBAA 291300Z AUTO 00000KT 1SM RMK IEM_DS3505
ZBAA,1992-11-29 14:00,ZBAA 291400Z AUTO 00000KT 1SM 04/ RMK IEM_DS3505
ZBAA,1992-11-29 15:00,ZBAA 291500Z AUTO 02002KT 1SM M01/M03 RMK SLP273 T10121031 52001 IEM_DS3505
ZBAA,1992-11-29 18:00,ZBAA 291800Z AUTO 07004KT 1/2SM 00/M02 RMK SLP270 T00001024 40074//// 57002 IEM_DS3505
ZBAA,1992-11-29 21:00,ZBAA 292100Z AUTO 04002KT 1SM M02/M03 RMK SLP270 T10151031 57001 IEM_DS3505
ZBAA,1992-11-29 22:00,ZBAA 292200Z AUTO 33006KT 2SM M02/M05 A3027 RMK T10201050 IEM_DS3505
ZBAA,1992-11-29 23:00,ZBAA 292300Z AUTO 33006KT 2SM M02/M05 A3030 RMK T10201050 IEM_DS3505
ZBAA,1992-11-30 00:00,ZBAA 300000Z AUTO 00000KT 1SM M03/M04 RMK SLP275 T10261039 52005 IEM_DS3505
ZBAA,1992-11-30 01:00,ZBAA 300100Z AUTO 33006KT 1 1/2SM M01/M03 A3033 RMK T10101030 IEM_DS3505
ZBAA,1992-11-30 02:00,ZBAA 300200Z AUTO 02006KT 2SM 01/M02 A3033 RMK T00101020 IEM_DS3505
ZBAA,1992-11-30 03:00,ZBAA 300300Z AUTO 32002KT 1SM 03/M01 A3030 RMK SLP278 T00341014 52003 IEM_DS3505
ZBAA,1992-11-30 04:00,ZBAA 300400Z AUTO 01006KT 4SM 06/M01 A3027 RMK T00601010 IEM_DS3505
ZBAA,1992-11-30 05:00,ZBAA 300500Z AUTO 03006KT 4SM 08/M01 A3027 RMK T00801010 IEM_DS3505
ZBAA,1992-11-30 06:00,ZBAA 300600Z AUTO 36004KT 1 1/2SM 10/M02 A3027 RMK SLP264 T01011016 4////1030 57013 IEM_DS3505
ZBAA,1992-11-30 07:00,ZBAA 300700Z AUTO 04006KT 5SM 10/M02 A3027 RMK T01001020 IEM_DS3505
ZBAA,1992-11-30 08:00,ZBAA 300800Z AUTO 03004KT 5SM 09/M02 A3030 RMK T00901020 IEM_DS3505
ZBAA,1992-11-30 09:00,ZBAA 300900Z AUTO 34006KT 6SM 11/M06 A3033 RMK SLP285 T01101062 52021 IEM_DS3505
ZBAA,1992-11-30 10:00,ZBAA 301000Z AUTO 35008KT 7SM 10/M08 A3036 RMK T01001080 IEM_DS3505
ZBAA,1992-11-30 11:00,ZBAA 301100Z AUTO 02016KT 19SM 04/M09 A3039 RMK SLP346 T00411088 40125//// 52007 IEM_DS3505
ZBAA,1992-11-30 12:00,ZBAA 301200Z AUTO 36006KT 6SM 08/M05 RMK SLP315 T00761054 52029 IEM_DS3505
ZBAA,1992-11-30 13:00,ZBAA 301300Z AUTO 33016KT 7SM 08/M09 A3042 RMK T00801090 IEM_DS3505
ZBAA,1992-11-30 14:00,ZBAA 301400Z AUTO 03006KT 7SM 06/M08 A3047 RMK T00601080 IEM_DS3505
ZBAA,1992-11-30 15:00,ZBAA 301500Z AUTO 36010KT 6SM 06/M07 A3050 RMK SLP339 T00611071 52025 IEM_DS3505
ZBAA,1992-11-30 17:00,ZBAA 301700Z AUTO 01006KT 7SM 02/M07 A3053 RMK T00201070 IEM_DS3505
ZBAA,1992-11-30 18:00,ZBAA 301800Z AUTO 02016KT 19SM 04/M09 A3053 RMK SLP346 T00411088 40125//// 52007 IEM_DS3505
ZBAA,1992-11-30 19:00,ZBAA 301900Z AUTO 01006KT 7SM 00/M08 A3056 RMK T00001080 IEM_DS3505
ZBAA,1992-11-30 20:00,ZBAA 302000Z AUTO 02008KT 7SM 01/M08 A3056 RMK T00101080 IEM_DS3505
ZBAA,1992-11-30 21:00,ZBAA 302100Z AUTO 02008KT 19SM 03/M08 A3056 RMK SLP356 T00341081 52010 IEM_DS3505
ZBAA,1992-11-30 22:00,ZBAA 302200Z AUTO 03006KT 7SM M01/M09 A3059 RMK T10101090 IEM_DS3505
ZBAA,1992-11-30 23:00,ZBAA 302300Z AUTO 03006KT 7SM M01/M09 A3059 RMK T10101090 IEM_DS3505
ZBAA,1992-12-01 00:00,ZBAA 010000Z AUTO 04006KT 19SM 02/M11 A3062 RMK SLP379 T00161114 52022 IEM_DS3505
ZBAA,1992-12-01 01:00,ZBAA 010100Z AUTO 04008KT 7SM M02/M09 A3062 RMK T10201090 IEM_DS3505
ZBAA,1992-12-01 02:00,ZBAA 010200Z AUTO 03010KT 7SM 03/M10 A3062 RMK T00301100 IEM_DS3505
ZBAA,1992-12-01 03:00,ZBAA 010300Z AUTO 02010KT 16SM 05/M11 RMK SLP375 T00461112 57003 IEM_DS3505
ZBAA,1992-12-01 04:00,ZBAA 010400Z AUTO 03010KT 7SM 05/M10 A3059 RMK T00501100 IEM_DS3505
ZBAA,1992-12-01 06:00,ZBAA 010600Z AUTO 09002KT 12SM 07/M09 A3053 RMK SLP356 T00721091 4////0013 57019 IEM_DS3505
ZBAA,1992-12-01 07:00,ZBAA 010700Z AUTO 08004KT 7SM 06/M10 A3053 RMK T00601100 IEM_DS3505
ZBAA,1992-12-01 08:00,ZBAA 010800Z AUTO 00000KT 6SM 05/M10 A3053 RMK T00501100 IEM_DS3505
ZBAA,1992-12-01 09:00,ZBAA 010900Z AUTO 20004KT 5SM 06/M08 A3053 RMK SLP350 T00571084 57006 IEM_DS3505
ZBAA,1992-12-01 10:00,ZBAA 011000Z AUTO 00000KT 6SM 03/M10 A3053 RMK T00301100 IEM_DS3505
ZBAA,1992-12-01 11:00,ZBAA 011100Z AUTO 12002KT 6SM 02/M10 A3053 RMK T00201100 IEM_DS3505
ZBAA,1992-12-01 12:00,ZBAA 011200Z AUTO 16004KT 7SM 03/M07 RMK SLP352 T00341071 52001 IEM_DS3505
ZBAA,1992-12-01 13:00,ZBAA 011300Z AUTO 10002KT 6SM M01/M10 A3053 RMK T10101100 IEM_DS3505
ZBAA,1992-12-01 14:00,ZBAA 011400Z AUTO 11004KT 6SM M01/M08 A3056 RMK T10101080 IEM_DS3505
ZBAA,1992-12-01 15:00,ZBAA 011500Z AUTO 00000KT 6SM M00/M06 A3053 RMK SLP352 T10021055 54000 IEM_DS3505
ZBAA,1992-12-01 16:00,ZBAA 011600Z AUTO 11004KT 6SM M02/M07 A3053 RMK T10201070 IEM_DS3505
ZBAA,1992-12-01 17:00,ZBAA 011700Z AUTO 11002KT 6SM M03/M08 A3053 RMK T10301080 IEM_DS3505
ZBAA,1992-12-01 18:00,ZBAA 011800Z AUTO 00000KT 7SM M03/M06 RMK SLP350 T10261061 40081//// 57002 IEM_DS3505
ZBAA,1992-12-01 20:00,ZBAA 012000Z AUTO 07002KT 7SM M04/M07 A3050 RMK T10401070 IEM_DS3505
ZBAA,1992-12-01 21:00,ZBAA 012100Z AUTO 02006KT 6SM M02/M06 A3050 RMK SLP343 T10161065 57007 IEM_DS3505
ZBAA,1992-12-01 22:00,ZBAA 012200Z AUTO 00000KT 7SM M04/M07 A3050 RMK T10401070 IEM_DS3505
ZBAA,1992-12-01 23:00,ZBAA 012300Z AUTO 00000KT 4SM M04/M07 A3050 RMK T10401070 IEM_DS3505
ZBAA,1992-12-02 00:00,ZBAA 020000Z AUTO 04004KT 2 1/2SM M02/M06 RMK SLP342 T10231062 57001 IEM_DS3505
ZBAA,1992-12-02 01:00,ZBAA 020100Z AUTO 18004KT 3SM 04/M06 A3050 RMK SLP314 T00381060 57010 IEM_DS3505
ZBAA,1992-12-02 02:00,ZBAA 020200Z AUTO 11004KT 1 1/2SM M02/M04 A3050 RMK T10201040 IEM_DS3505
ZBAA,1992-12-02 03:00,ZBAA 020300Z AUTO 02004KT 4SM 01/M06 A3050 RMK SLP342 T00081062 54000 IEM_DS3505
ZBAA,1992-12-02 05:00,ZBAA 020500Z AUTO 17004KT 1 1/2SM 02/M03 A3045 RMK T00201030 IEM_DS3505
ZBAA,1992-12-02 06:00,ZBAA 020600Z AUTO 18004KT 3SM 04/M04 A3045 RMK SLP314 T00381036 4////1028 57028 IEM_DS3505
ZBAA,1992-12-02 07:00,ZBAA 020700Z AUTO 12006KT 2SM 03/M03 A3045 RMK T00301030 IEM_DS3505
ZBAA,1992-12-02 08:00,ZBAA 020800Z AUTO 08004KT 2 1/2SM 03/M03 A3042 RMK T00301030 IEM_DS3505
ZBAA,1992-12-02 09:00,ZBAA 020900Z AUTO 34006KT 2 1/2SM 02/M04 A3042 RMK SLP312 T00161036 57002 IEM_DS3505
ZBAA,1992-12-02 10:00,ZBAA 021000Z AUTO 09002KT 2 1/2SM 00/M04 A3042 RMK T00001040 IEM_DS3505
ZBAA,1992-12-02 11:00,ZBAA 021100Z AUTO 09004KT 2 1/2SM M01/M04 A3042 RMK T10101040 IEM_DS3505
ZBAA,1992-12-02 12:00,ZBAA 021200Z AUTO 36004KT 2SM 00/M03 A3042 RMK SLP318 T00021029 52005 IEM_DS3505
ZBAA,1992-12-02 13:00,ZBAA 021300Z AUTO 00000KT 2SM M01/M03 A3042 RMK T10101030 IEM_DS3505
ZBAA,1992-12-02 15:00,ZBAA 021500Z AUTO 04004KT 1 1/4SM M00/M03 A3045 RMK SLP320 T10041029 52003 IEM_DS3505
ZBAA,1992-12-02 18:00,ZBAA 021800Z AUTO 02004KT 1 1/2SM M03/M05 RMK SLP321 T10261046 40045//// 52001 IEM_DS3505
ZBAA,1992-12-02 20:00,ZBAA 022000Z AUTO 33006KT 2SM M04/M05 A3045 RMK T10401050 IEM_DS3505
ZBAA,1992-12-02 21:00,ZBAA 022100Z AUTO 00000KT 1 1/4SM M04/M05 RMK SLP327 T10371053 52005 IEM_DS3505
ZBAA,1992-12-02 22:00,ZBAA 022200Z AUTO 33008KT 1 1/2SM M04/M06 A3047 RMK T10401060 IEM_DS3505
ZBAA,1992-12-02 23:00,ZBAA 022300Z AUTO 33006KT 1 1/2SM M03/M05 A3047 RMK T10301050 IEM_DS3505
ZBAA,1992-12-03 00:00,ZBAA 030000Z AUTO 00000KT 1SM M03/M05 A3050 RMK SLP344 T10341048 52017 IEM_DS3505
ZBAA,1992-12-03 01:00,ZBAA 030100Z AUTO 00000KT 1SM M03/M05 A3053 RMK SLP344 T10341048 52017 IEM_DS3505
ZBAA,1992-12-03 02:00,ZBAA 030200Z AUTO 02008KT 4SM 03/M04 A3053 RMK T00301040 IEM_DS3505
ZBAA,1992-12-03 03:00,ZBAA 030300Z AUTO 34006KT 3SM 04/M06 A3053 RMK SLP356 T00391063 52013 IEM_DS3505
ZBAA,1992-12-03 04:00,ZBAA 030400Z AUTO 12004KT 7SM 06/M05 A3053 RMK T00601050 IEM_DS3505
ZBAA,1992-12-03 05:00,ZBAA 030500Z AUTO 11004KT 7SM 07/M05 A3050 RMK T00701050 IEM_DS3505
ZBAA,1992-12-03 06:00,ZBAA 030600Z AUTO 09004KT 4SM 08/M08 RMK SLP344 T00751085 4////1041 57012 IEM_DS3505
ZBAA,1992-12-03 07:00,ZBAA 030700Z AUTO 18006KT 5SM 07/M05 A3050 RMK T00701050 IEM_DS3505
ZBAA,1992-12-03 08:00,ZBAA 030800Z AUTO 17004KT 5SM 06/M05 A3053 RMK T00601050 IEM_DS3505
ZBAA,1992-12-03 09:00,ZBAA 030900Z AUTO 16004KT 2SM 05/M05 A3053 RMK SLP349 T00541048 52005 IEM_DS3505
ZBAA,1992-12-03 10:00,ZBAA 031000Z AUTO 11004KT 4SM 03/M06 A3053 RMK T00301060 IEM_DS3505
ZBAA,1992-12-03 11:00,ZBAA 031100Z AUTO 00000KT 3SM 01/ A3056 RMK SLP361 IEM_DS3505
ZBAA,1992-12-03 12:00,ZBAA 031200Z AUTO 00000KT 3SM 01/M04 A3056 RMK SLP361 T00061038 52011 IEM_DS3505
ZBAA,1992-12-03 13:00,ZBAA 031300Z AUTO 00000KT 2 1/2SM 01/M05 A3056 RMK T00101050 IEM_DS3505
ZBAA,1992-12-03 14:00,ZBAA 031400Z AUTO 00000KT 2 1/2SM 00/M05 A3056 RMK T00001050 IEM_DS3505
ZBAA,1992-12-03 15:00,ZBAA 031500Z AUTO 29002KT 2 1/2SM M01/M04 RMK SLP368 T10061042 52008 IEM_DS3505
ZBAA,1992-12-03 16:00,ZBAA 031600Z AUTO 01002KT 1 1/2SM 01/M04 A3059 RMK T00101040 IEM_DS3505
ZBAA,1992-12-03 18:00,ZBAA 031800Z AUTO 02004KT 2SM 00/M03 A3056 RMK SLP367 T00041033 40082//// 57001 IEM_DS3505
ZBAA,1992-12-03 21:00,ZBAA 032100Z AUTO 36004KT 1 1/2SM 00/M03 RMK SLP361 T00021029 57006 IEM_DS3505
ZBAA,1992-12-03 22:00,ZBAA 032200Z AUTO 00000KT 2SM 00/M04 A3056 RMK T00001040 IEM_DS3505
ZBAA,1992-12-03 23:00,ZBAA 032300Z AUTO 36002KT 1 1/2SM M01/M04 A3056 RMK T10101040 IEM_DS3505
ZBAA,1992-12-04 00:00,ZBAA 040000Z AUTO 02004KT 1 1/2SM M00/M03 A3056 RMK SLP363 T10051027 52001 IEM_DS3505
ZBAA,1992-12-04 01:00,ZBAA 040100Z AUTO 00000KT 1SM 00/M03 A3056 RMK T00001030 IEM_DS3505
ZBAA,1992-12-04 02:00,ZBAA 040200Z AUTO 36002KT 1SM M02/M02 A3056 RMK T10201020 IEM_DS3505
ZBAA,1992-12-04 03:00,ZBAA 040300Z AUTO 02004KT 1 1/4SM 02/M02 A3059 RMK SLP365 T00241020 52003 IEM_DS3505
ZBAA,1992-12-04 04:00,ZBAA 040400Z AUTO 10004KT 2 1/2SM 03/M02 A3053 RMK T00301020 IEM_DS3505
ZBAA,1992-12-04 05:00,ZBAA 040500Z AUTO 10004KT 2SM 03/M01 A3050 RMK T00301010 IEM_DS3505
ZBAA,1992-12-04 06:00,ZBAA 040600Z AUTO 04006KT 1 1/2SM 03/M02 RMK SLP342 T00321020 4////1014 57023 IEM_DS3505
ZBAA,1992-12-04 07:00,ZBAA 040700Z AUTO 08004KT 1 1/2SM 03/M01 A3050 RMK T00301010 IEM_DS3505
ZBAA,1992-12-04 08:00,ZBAA 040800Z AUTO 10004KT 1 1/2SM 03/M01 A3050 RMK T00301010 IEM_DS3505
ZBAA,1992-12-04 09:00,ZBAA 040900Z AUTO 34004KT 1 1/4SM 02/M02 RMK SLP339 T00241016 57003 IEM_DS3505
ZBAA,1992-12-04 10:00,ZBAA 041000Z AUTO 00000KT 1 1/2SM 02/M01 A3050 RMK T00201010 IEM_DS3505
ZBAA,1992-12-04 11:00,ZBAA 041100Z AUTO 36002KT 2SM 01/ A3050 RMK SLP337 57002 IEM_DS3505
ZBAA,1992-12-04 12:00,ZBAA 041200Z AUTO 36004KT 2 1/2SM 02/M01 A3050 RMK SLP339 T00221012 54000 IEM_DS3505
ZBAA,1992-12-04 13:00,ZBAA 041300Z AUTO 00000KT 2SM 02/M02 A3050 RMK T00201020 IEM_DS3505
ZBAA,1992-12-04 14:00,ZBAA 041400Z AUTO 00000KT 2 1/2SM 02/M02 A3050 RMK T00201020 IEM_DS3505
ZBAA,1992-12-04 15:00,ZBAA 041500Z AUTO 36002KT 2SM 01/M01 RMK SLP337 T00141012 57002 IEM_DS3505
ZBAA,1992-12-04 16:00,ZBAA 041600Z AUTO 00000KT 2 1/2SM 02/M01 A3047 RMK T00201010 IEM_DS3505
ZBAA,1992-12-04 18:00,ZBAA 041800Z AUTO 34002KT 2SM 02/M01 RMK SLP329 T00151011 40036//// 57008 IEM_DS3505
ZBAA,1992-12-04 20:00,ZBAA 042000Z AUTO 00000KT 2SM 01/M01 A3045 RMK T00101010 IEM_DS3505
ZBAA,1992-12-04 21:00,ZBAA 042100Z AUTO 02002KT 1 1/4SM 02/M01 RMK SLP321 T00191009 57008 IEM_DS3505
ZBAA,1992-12-04 22:00,ZBAA 042200Z AUTO 00000KT 1 1/2SM 02/M01 A3042 RMK T00201010 IEM_DS3505
ZBAA,1992-12-04 23:00,ZBAA 042300Z AUTO 00000KT 1 1/2SM 02/M01 A3045 RMK T00201010 IEM_DS3505
ZBAA,1992-12-05 00:00,ZBAA 050000Z AUTO 34002KT 1SM 02/M01 A3045 RMK SLP321 T00191006 54000 IEM_DS3505
ZBAA,1992-12-05 01:00,ZBAA 050100Z AUTO 33004KT 1 1/4SM 02/M02 A3045 RMK T00201020 IEM_DS3505
ZBAA,1992-12-05 02:00,ZBAA 050200Z AUTO 01002KT 1 1/4SM 02/M01 A3045 RMK T00201010 IEM_DS3505
ZBAA,1992-12-05 03:00,ZBAA 050300Z AUTO 00000KT 1SM 03/M01 RMK SLP317 T00261008 57004 IEM_DS3505
ZBAA,1992-12-05 04:00,ZBAA 050400Z AUTO 01002KT 1 1/4SM 03/M01 A3039 RMK T00301010 IEM_DS3505
ZBAA,1992-12-05 05:00,ZBAA 050500Z AUTO 00000KT 1 1/4SM 03/M01 A3036 RMK T00301010 IEM_DS3505
ZBAA,1992-12-05 06:00,ZBAA 050600Z AUTO 32002KT 1SM 03/00 A3036 RMK SLP295 T00300003 4////0009 57022 IEM_DS3505
ZBAA,1992-12-05 07:00,ZBAA 050700Z AUTO 00000KT 1 1/4SM 03/M01 A3033 RMK T00301010 IEM_DS3505
ZBAA,1992-12-05 08:00,ZBAA 050800Z AUTO 00000KT 1 1/4SM 03/M01 A3033 RMK T00301010 IEM_DS3505
ZBAA,1992-12-05 09:00,ZBAA 050900Z AUTO 00000KT 1SM 03/00 A3033 RMK SLP291 T00300003 57004 IEM_DS3505
ZBAA,1992-12-05 10:00,ZBAA 051000Z AUTO 00000KT 1 1/4SM 02/00 A3033 RMK T00200000 IEM_DS3505
ZBAA,1992-12-05 11:00,ZBAA 051100Z AUTO 00000KT 1 1/4SM 02/00 A3033 RMK T00200000 IEM_DS3505
ZBAA,1992-12-05 12:00,ZBAA 051200Z AUTO 00000KT 1 1/4SM 03/00 A3033 RMK SLP290 T00280001 57001 IEM_DS3505
ZBAA,1992-12-05 13:00,ZBAA 051300Z AUTO 02002KT 1 1/4SM 02/00 A3033 RMK T00200000 IEM_DS3505
ZBAA,1992-12-05 14:00,ZBAA 051400Z AUTO 00000KT 1 1/4SM 02/00 A3033 RMK T00200000 IEM_DS3505
ZBAA,1992-12-05 15:00,ZBAA 051500Z AUTO 32004KT 1 1/4SM 02/00 A3030 RMK SLP283 T00230004 57006 IEM_DS3505
ZBAA,1992-12-05 18:00,ZBAA 051800Z AUTO 02004KT 1 1/4SM 01/00 RMK SLP271 T00140000 40032//// 57012 IEM_DS3505
ZBAA,1992-12-05 20:00,ZBAA 052000Z AUTO 00000KT 1SM 00/M01 A3024 RMK T00001010 IEM_DS3505
ZBAA,1992-12-05 21:00,ZBAA 052100Z AUTO 00000KT 1SM 01/M00 A3024 RMK SLP259 T00141003 57012 IEM_DS3505
ZBAA,1992-12-05 22:00,ZBAA 052200Z AUTO 31002KT 1SM 00/M01 A3021 RMK T00001010 IEM_DS3505
ZBAA,1992-12-05 23:00,ZBAA 052300Z AUTO 21004KT 1SM M01/M02 A3024 RMK T10101020 IEM_DS3505
ZBAA,1992-12-06 00:00,ZBAA 060000Z AUTO 00000KT 1SM 00/M01 RMK SLP258 T00031006 57002 IEM_DS3505
ZBAA,1992-12-06 01:00,ZBAA 060100Z AUTO 28006KT 1SM 00/00 A3024 RMK T00000000 IEM_DS3505
ZBAA,1992-12-06 02:00,ZBAA 060200Z AUTO 27004KT 1SM 01/M01 A3024 RMK T00101010 IEM_DS3505
ZBAA,1992-12-06 03:00,ZBAA 060300Z AUTO 22002KT 1SM 04/00 RMK SLP256 T00380000 57001 IEM_DS3505
ZBAA,1992-12-06 04:00,ZBAA 060400Z AUTO 32006KT 1SM 04/M01 A3021 RMK T00401010 IEM_DS3505
ZBAA,1992-12-06 05:00,ZBAA 060500Z AUTO 35006KT 1SM 04/00 A3015 RMK T00400000 IEM_DS3505
ZBAA,1992-12-06 06:00,ZBAA 060600Z AUTO 32004KT 1SM 05/M00 A3012 RMK SLP225 T00541005 4////0002 57031 IEM_DS3505
ZBAA,1992-12-06 07:00,ZBAA 060700Z AUTO 32002KT 2SM 05/M01 A3012 RMK T00501010 IEM_DS3505
ZBAA,1992-12-06 08:00,ZBAA 060800Z AUTO 27004KT 1 1/4SM 05/M01 A3012 RMK T00501010 IEM_DS3505
ZBAA,1992-12-06 09:00,ZBAA 060900Z AUTO 20004KT 1SM 04/M01 A3012 RMK SLP226 T00421010 52001 IEM_DS3505
ZBAA,1992-12-06 10:00,ZBAA 061000Z AUTO 25004KT 1SM 02/M02 A3015 RMK T00201020 IEM_DS3505
ZBAA,1992-12-06 11:00,ZBAA 061100Z AUTO 29004KT 1SM 02/M01 A3015 RMK T00201010 IEM_DS3505
ZBAA,1992-12-06 12:00,ZBAA 061200Z AUTO 00000KT 1 1/4SM 02/00 RMK SLP229 T00200001 52003 IEM_DS3505
ZBAA,1992-12-06 13:00,ZBAA 061300Z AUTO 34002KT 1 1/4SM 02/M01 A3015 RMK T00201010 IEM_DS3505
ZBAA,1992-12-06 14:00,ZBAA 061400Z AUTO 32004KT 1 1/4SM 01/M02 A3015 RMK T00101020 IEM_DS3505
ZBAA,1992-12-06 15:00,ZBAA 061500Z AUTO 02002KT 1 1/4SM 02/M00 A3015 RMK SLP224 T00191003 57005 IEM_DS3505
ZBAA,1992-12-06 16:00,ZBAA 061600Z AUTO 31006KT 2SM 01/M02 A3015 RMK T00101020 IEM_DS3505
ZBAA,1992-12-06 17:00,ZBAA 061700Z AUTO 31004KT 2SM 01/M02 A3012 RMK T00101020 IEM_DS3505
ZBAA,1992-12-06 18:00,ZBAA 061800Z AUTO 27002KT 1SM 00/M01 RMK SLP219 T00041007 40056//// 57005 IEM_DS3505
ZBAA,1992-12-06 21:00,ZBAA 062100Z AUTO 04002KT 1/2SM M01/M01 A3009 RMK SLP210 T10061012 57009 IEM_DS3505
ZBAA,1992-12-06 22:00,ZBAA 062200Z AUTO 34008KT 3SM 01/M02 A3009 RMK T00101020 IEM_DS3505
ZBAA,1992-12-06 23:00,ZBAA 062300Z AUTO 36006KT 3SM 01/M03 A3009 RMK T00101030 IEM_DS3505
ZBAA,1992-12-07 00:00,ZBAA 070000Z AUTO 27002KT 1/4SM M01/M02 A3012 RMK SLP219 T10101019 52008 IEM_DS3505
ZBAA,1992-12-07 01:00,ZBAA 070100Z AUTO 00000KT 1 1/4SM A3012 RMK SLP187 4////1013 57026 IEM_DS3505
ZBAA,1992-12-07 02:00,ZBAA 070200Z AUTO 00000KT 2 1/2SM 02/M02 A3012 RMK T00201020 IEM_DS3505
ZBAA,1992-12-07 03:00,ZBAA 070300Z AUTO 25004KT 1SM 04/M01 A3009 RMK SLP214 T00371007 57004 IEM_DS3505
ZBAA,1992-12-07 04:00,ZBAA 070400Z AUTO 13002KT 1 1/4SM 05/01 A3006 RMK T00500010 IEM_DS3505
ZBAA,1992-12-07 05:00,ZBAA 070500Z AUTO 12002KT 1 1/4SM 06/01 A3006 RMK T00600010 IEM_DS3505
ZBAA,1992-12-07 06:00,ZBAA 070600Z AUTO 00000KT 1 1/4SM 08/M01 RMK SLP187 T00751009 4////1013 57026 IEM_DS3505
ZBAA,1992-12-07 07:00,ZBAA 070700Z AUTO 14004KT 1/2SM RMK IEM_DS3505
ZBAA,1992-12-07 08:00,ZBAA 070800Z AUTO 17004KT 1/2SM RMK IEM_DS3505
ZBAA,1992-12-07 09:00,ZBAA 070900Z AUTO 22002KT 1SM 05/00 RMK SLP195 T00510004 52007 IEM_DS3505
ZBAA,1992-12-07 10:00,ZBAA 071000Z AUTO 06002KT 1SM 02/M01 A3006 RMK T00201010 IEM_DS3505
ZBAA,1992-12-07 11:00,ZBAA 071100Z AUTO 12002KT 1SM 02/M01 A3009 RMK T00201010 IEM_DS3505
ZBAA,1992-12-07 12:00,ZBAA 071200Z AUTO 00000KT 1SM 02/00 RMK SLP210 T00200001 52015 IEM_DS3505
ZBAA,1992-12-07 13:00,ZBAA 071300Z AUTO 15002KT 1/8SM RMK IEM_DS3505
ZBAA,1992-12-07 14:00,ZBAA 071400Z AUTO 00000KT 0SM M03/M03 A3012 RMK T10301030 IEM_DS3505
ZBAA,1992-12-07 15:00,ZBAA 071500Z AUTO 18006KT 3/8SM M01/M01 A3012 RMK SLP220 T10061012 52010 IEM_DS3505
ZBAA,1992-12-07 18:00,ZBAA 071800Z AUTO 20004KT 1/8SM M03/M03 RMK SLP225 T10261029 40079//// 52005 IEM_DS3505
ZBAA,1992-12-07 20:00,ZBAA 072000Z AUTO 00000KT 0SM M03/M03 A3012 RMK T10301030 IEM_DS3505
ZBAA,1992-12-07 21:00,ZBAA 072100Z AUTO 18002KT 2SM M01/M03 RMK SLP229 T10121031 52004 IEM_DS3505
ZBAA,1992-12-07 22:00,ZBAA 072200Z AUTO 00000KT 1/4SM M05/M05 A3018 RMK T10501050 IEM_DS3505
ZBAA,1992-12-07 23:00,ZBAA 072300Z AUTO 07004KT 1 1/2SM M04/M04 A3018 RMK T10401040 IEM_DS3505
ZBAA,1992-12-08 00:00,ZBAA 080000Z AUTO 25004KT 5SM 00/M08 A3021 RMK SLP245 T00041076 52015 IEM_DS3505
ZBAA,1992-12-08 01:00,ZBAA 080100Z AUTO 35004KT 7SM M02/M02 A3021 RMK T10201020 IEM_DS3505
ZBAA,1992-12-08 02:00,ZBAA 080200Z AUTO 01006KT 4SM M01/M02 A3024 RMK T10101020 IEM_DS3505
ZBAA,1992-12-08 03:00,ZBAA 080300Z AUTO 20008KT 1 1/4SM 01/M02 A3021 RMK SLP248 T00141025 52003 IEM_DS3505
ZBAA,1992-12-08 04:00,ZBAA 080400Z AUTO 05004KT 6SM 05/M07 A3018 RMK T00501070 IEM_DS3505
ZBAA,1992-12-08 05:00,ZBAA 080500Z AUTO 15002KT 6SM 05/M08 A3015 RMK T00501080 IEM_DS3505
ZBAA,1992-12-08 06:00,ZBAA 080600Z AUTO 20006KT 2 1/2SM 03/M02 RMK SLP236 T00261017 4////1037 57012 IEM_DS3505
ZBAA,1992-12-08 07:00,ZBAA 080700Z AUTO 21008KT 1SM RMK IEM_DS3505
ZBAA,1992-12-08 08:00,ZBAA 080800Z AUTO 18004KT 1SM 03/M03 A3015 RMK T00301030 IEM_DS3505
ZBAA,1992-12-08 09:00,ZBAA 080900Z AUTO 20004KT 1 1/4SM 02/M02 A3012 RMK SLP231 T00191015 57005 IEM_DS3505
ZBAA,1992-12-08 10:00,ZBAA 081000Z AUTO 12002KT 1 1/4SM 01/M03 A3015 RMK T00101030 IEM_DS3505
ZBAA,1992-12-08 11:00,ZBAA 081100Z AUTO 18002KT 1 1/4SM 00/M04 A3015 RMK T00001040 IEM_DS3505
ZBAA,1992-12-08 12:00,ZBAA 081200Z AUTO 25004KT 2SM 01/M06 RMK SLP230 T00101059 57001 IEM_DS3505
ZBAA,1992-12-08 13:00,ZBAA 081300Z AUTO 12002KT 1 1/4SM M01/M04 A3015 RMK T10101040 IEM_DS3505
ZBAA,1992-12-08 14:00,ZBAA 081400Z AUTO 04004KT 1 1/4SM M01/M04 A3012 RMK T10101040 IEM_DS3505
ZBAA,1992-12-08 15:00,ZBAA 081500Z AUTO 00000KT 1 1/4SM 00/M06 RMK SLP216 T00041055 57013 IEM_DS3505
ZBAA,1992-12-08 16:00,ZBAA 081600Z AUTO 10004KT 1 1/4SM M02/M02 A3012 RMK T10201020 IEM_DS3505
ZBAA,1992-12-08 17:00,ZBAA 081700Z AUTO 10002KT 1 1/4SM M02/M03 A3009 RMK T10201030 IEM_DS3505
ZBAA,1992-12-08 18:00,ZBAA 081800Z AUTO 04002KT 1SM M02/M05 RMK SLP204 T10241047 40028//// 57013 IEM_DS3505
ZBAA,1992-12-08 19:00,ZBAA 081900Z AUTO 14004KT 1/4SM M03/M04 A3006 RMK T10301040 IEM_DS3505
ZBAA,1992-12-08 20:00,ZBAA 082000Z AUTO 00000KT 1SM M02/M05 RMK SLP240 T10241047 57013 IEM_DS3505
ZBAA,1992-12-08 21:00,ZBAA 082100Z AUTO 07002KT 1SM M02/M04 A3003 RMK SLP189 T10181037 57014 IEM_DS3505
ZBAA,1992-12-08 22:00,ZBAA 082200Z AUTO 01002KT 0SM M04/M04 A3003 RMK T10401040 IEM_DS3505
ZBAA,1992-12-08 23:00,ZBAA 082300Z AUTO 08004KT 0SM M03/M03 A3000 RMK T10301030 IEM_DS3505
ZBAA,1992-12-09 00:00,ZBAA 090000Z AUTO 00000KT 1SM M03/M03 A3003 RMK SLP189 T10271033 57001 IEM_DS3505
ZBAA,1992-12-09 01:00,ZBAA 090100Z AUTO 00000KT 1/4SM RMK SLP164 4////1033 50240 IEM_DS3505
ZBAA,1992-12-09 02:00,ZBAA 090200Z AUTO 00000KT 1/2SM RMK IEM_DS3505
ZBAA,1992-12-09 03:00,ZBAA 090300Z AUTO 00000KT 1/2SM M02/M03 RMK SLP188 T10161028 57001 IEM_DS3505
ZBAA,1992-12-09 04:00,ZBAA 090400Z AUTO 00000KT 1SM 04/ RMK IEM_DS3505
ZBAA,1992-12-09 05:00,ZBAA 090500Z AUTO 08004KT 1SM M01/M01 A2997 RMK T10101010 IEM_DS3505
ZBAA,1992-12-09 06:00,ZBAA 090600Z AUTO 36004KT 1SM 00/M02 A2994 RMK SLP164 T00001024 4////1033 57024 IEM_DS3505
ZBAA,1992-12-09 07:00,ZBAA 090700Z AUTO 00000KT 1SM 00/M02 A2994 RMK T00001020 IEM_DS3505
ZBAA,1992-12-09 08:00,ZBAA 090800Z AUTO 33004KT 1SM 04/ RMK IEM_DS3505
ZBAA,1992-12-09 09:00,ZBAA 090900Z AUTO 04008KT 1SM M00/M02 A3000 RMK SLP173 T10011022 52009 IEM_DS3505
ZBAA,1992-12-09 10:00,ZBAA 091000Z AUTO 36004KT 1SM 04/ RMK IEM_DS3505
ZBAA,1992-12-09 11:00,ZBAA 091100Z AUTO 32010KT 7SM 01/M07 A3009 RMK T00101070 IEM_DS3505
ZBAA,1992-12-09 12:00,ZBAA 091200Z AUTO 36014KT 11SM M00/M20 A3012 RMK SLP224 T10051195 52051 IEM_DS3505
ZBAA,1992-12-09 13:00,ZBAA 091300Z AUTO 32021G31KT 6SM M03/M20 A3018 RMK T10301200 IEM_DS3505
ZBAA,1992-12-09 14:00,ZBAA 091400Z AUTO 32023KT 6SM M04/M22 A3024 RMK T10401220 IEM_DS3505
ZBAA,1992-12-09 15:00,ZBAA 091500Z AUTO 36012G35KT 19SM M04/M22 A3024 RMK SLP260 T10441220 52035 IEM_DS3505
ZBAA,1992-12-09 16:00,ZBAA 091600Z AUTO 33025G41KT 7SM M04/M22 RMK T10401220 IEM_DS3505
ZBAA,1992-12-09 17:00,ZBAA 091700Z AUTO 31016KT 7SM M05/M21 A3027 RMK T10501210 IEM_DS3505
ZBAA,1992-12-09 18:00,ZBAA 091800Z AUTO 04004KT 16SM M05/M18 A3030 RMK SLP275 T10531183 40010//// 52015 IEM_DS3505
ZBAA,1992-12-09 19:00,ZBAA 091900Z AUTO 31017KT 7SM M05/M20 A3033 RMK T10501200 IEM_DS3505
ZBAA,1992-12-09 20:00,ZBAA 092000Z AUTO 32010KT 7SM M05/M20 A3030 RMK T10501200 IEM_DS3505
ZBAA,1992-12-09 21:00,ZBAA 092100Z AUTO 02006KT 19SM M05/M21 A3030 RMK SLP277 T10491212 52002 IEM_DS3505
ZBAA,1992-12-09 22:00,ZBAA 092200Z AUTO 29008KT 7SM M06/M20 A3030 RMK T10601200 IEM_DS3505
ZBAA,1992-12-09 23:00,ZBAA 092300Z AUTO 29006KT 7SM M05/M19 A3030 RMK T10501190 IEM_DS3505
ZBAA,1992-12-10 00:00,ZBAA 100000Z AUTO 29010KT 19SM M04/M22 A3033 RMK SLP277 T10401220 54000 IEM_DS3505
ZBAA,1992-12-10 01:00,ZBAA 100100Z AUTO 33008KT 19SM M04/M22 A3033 RMK SLP277 T10401220 54000 IEM_DS3505
ZBAA,1992-12-10 02:00,ZBAA 100200Z AUTO 35008KT 7SM M02/M19 A3036 RMK T10201190 IEM_DS3505
ZBAA,1992-12-10 03:00,ZBAA 100300Z AUTO 32012KT 19SM 00/M20 A3036 RMK SLP285 T00031202 52008 IEM_DS3505
ZBAA,1992-12-10 04:00,ZBAA 100400Z AUTO 33004KT 7SM M01/M19 A3033 RMK T10101190 IEM_DS3505
ZBAA,1992-12-10 05:00,ZBAA 100500Z AUTO 32010KT 7SM 01/M23 A3027 RMK T00101230 IEM_DS3505
ZBAA,1992-12-10 06:00,ZBAA 100600Z AUTO 32012KT 16SM 02/M18 RMK SLP261 T00251178 4////1057 57023 IEM_DS3505
ZBAA,1992-12-10 07:00,ZBAA 100700Z AUTO 27016KT 7SM 02/M19 A3024 RMK T00201190 IEM_DS3505
ZBAA,1992-12-10 08:00,ZBAA 100800Z AUTO 28014KT 7SM 02/M11 A3024 RMK T00201110 IEM_DS3505
ZBAA,1992-12-10 09:00,ZBAA 100900Z AUTO 27010KT 12SM 02/M18 RMK SLP255 T00151180 57006 IEM_DS3505
ZBAA,1992-12-10 10:00,ZBAA 101000Z AUTO 28006KT 7SM 00/M06 A3024 RMK T00001060 IEM_DS3505
ZBAA,1992-12-10 12:00,ZBAA 101200Z AUTO 00000KT 16SM M01/M13 A3024 RMK SLP256 T10101130 52001 IEM_DS3505
ZBAA,1992-12-10 13:00,ZBAA 101300Z AUTO 00000KT 7SM M02/M11 A3024 RMK T10201110 IEM_DS3505
ZBAA,1992-12-10 14:00,ZBAA 101400Z AUTO 00000KT 7SM M02/M12 A3024 RMK T10201120 IEM_DS3505
ZBAA,1992-12-10 15:00,ZBAA 101500Z AUTO 20004KT 12SM M02/M11 RMK SLP255 T10251110 57001 IEM_DS3505
ZBAA,1992-12-10 18:00,ZBAA 101800Z AUTO 18004KT 11SM M03/M11 RMK SLP240 T10321114 40026//// 57015 IEM_DS3505
ZBAA,1992-12-10 20:00,ZBAA 102000Z AUTO 00000KT 7SM M05/M11 A3018 RMK T10501110 IEM_DS3505
ZBAA,1992-12-10 21:00,ZBAA 102100Z AUTO 18006KT 9SM M04/M13 A3018 RMK SLP231 T10381130 57009 IEM_DS3505
ZBAA,1992-12-10 22:00,ZBAA 102200Z AUTO 00000KT 7SM M07/M11 A3018 RMK T10701110 IEM_DS3505
ZBAA,1992-12-10 23:00,ZBAA 102300Z AUTO 00000KT 7SM M07/M11 A3018 RMK T10701110 IEM_DS3505
ZBAA,1992-12-11 00:00,ZBAA 110000Z AUTO 18002KT 2SM M04/M11 A3021 RMK SLP236 T10441106 52005 IEM_DS3505
ZBAA,1992-12-11 01:00,ZBAA 110100Z AUTO 00000KT 5SM M05/M11 A3021 RMK T10501110 IEM_DS3505
ZBAA,1992-12-11 02:00,ZBAA 110200Z AUTO 00000KT 4SM M03/M11 A3021 RMK T10301110 IEM_DS3505
ZBAA,1992-12-11 03:00,ZBAA 110300Z AUTO 07004KT 3SM 01/M11 A3021 RMK SLP239 T00121108 52003 IEM_DS3505
ZBAA,1992-12-11 04:00,ZBAA 110400Z AUTO 00000KT 7SM 02/M07 A3018 RMK T00201070 IEM_DS3505
ZBAA,1992-12-11 05:00,ZBAA 110500Z AUTO 00000KT 7SM 03/M08 A3012 RMK T00301080 IEM_DS3505
ZBAA,1992-12-11 06:00,ZBAA 110600Z AUTO 14004KT 4SM 06/M11 A3009 RMK SLP206 T00581107 4////1048 57032 IEM_DS3505
ZBAA,1992-12-11 07:00,ZBAA 110700Z AUTO 00000KT 7SM 05/M05 A3009 RMK T00501050 IEM_DS3505
ZBAA,1992-12-11 08:00,ZBAA 110800Z AUTO 00000KT 7SM 04/M07 A3006 RMK T00401070 IEM_DS3505
ZBAA,1992-12-11 09:00,ZBAA 110900Z AUTO 20008KT 5SM 03/M12 A3006 RMK SLP192 T00341117 57015 IEM_DS3505
ZBAA,1992-12-11 10:00,ZBAA 111000Z AUTO 15002KT 7SM 02/M10 A3003 RMK T00201100 IEM_DS3505
ZBAA,1992-12-11 11:00,ZBAA 111100Z AUTO 00000KT 6SM 01/M10 A3003 RMK T00101100 IEM_DS3505
ZBAA,1992-12-11 12:00,ZBAA 111200Z AUTO 16004KT 7SM 01/M09 A3003 RMK SLP184 T00121090 57008 IEM_DS3505
ZBAA,1992-12-11 14:00,ZBAA 111400Z AUTO 00000KT 6SM M01/M10 A3000 RMK T10101100 IEM_DS3505
ZBAA,1992-12-11 15:00,ZBAA 111500Z AUTO 32002KT 6SM M02/M08 A2997 RMK SLP164 T10181081 57019 IEM_DS3505
ZBAA,1992-12-11 16:00,ZBAA 111600Z AUTO 00000KT 6SM M02/M07 A2997 RMK T10201070 IEM_DS3505
ZBAA,1992-12-11 18:00,ZBAA 111800Z AUTO 04006KT 6SM M02/M09 RMK SLP149 T10171089 40059//// 57015 IEM_DS3505
ZBAA,1992-12-11 21:00,ZBAA 112100Z AUTO 04004KT 6SM M02/M08 RMK SLP134 T10221076 57015 IEM_DS3505
ZBAA,1992-12-11 22:00,ZBAA 112200Z AUTO 00000KT 5SM M05/M09 A2988 RMK T10501090 IEM_DS3505
ZBAA,1992-12-11 23:00,ZBAA 112300Z AUTO 00000KT 7SM M05/M10 A2988 RMK T10501100 IEM_DS3505
ZBAA,1992-12-12 00:00,ZBAA 120000Z AUTO 32004KT 2SM M04/M09 A2988 RMK SLP136 T10391091 52002 IEM_DS3505
ZBAA,1992-12-12 01:00,ZBAA 120100Z AUTO 03006KT 4SM M04/M09 A2991 RMK T10401090 IEM_DS3505
ZBAA,1992-12-12 02:00,ZBAA 120200Z AUTO 35002KT 4SM M01/M03 A2991 RMK T10101030 IEM_DS3505
ZBAA,1992-12-12 03:00,ZBAA 120300Z AUTO 14002KT 2 1/2SM 05/M11 RMK SLP143 T00491108 52007 IEM_DS3505
ZBAA,1992-12-12 04:00,ZBAA 120400Z AUTO 00000KT 5SM 04/ A2988 RMK IEM_DS3505
ZBAA,1992-12-12 05:00,ZBAA 120500Z AUTO 35006KT 6SM 07/M08 A2988 RMK T00701080 IEM_DS3505
ZBAA,1992-12-12 06:00,ZBAA 120600Z AUTO 32014KT 12SM 09/M15 A2988 RMK SLP127 T00871147 4////1043 57015 IEM_DS3505
ZBAA,1992-12-12 07:00,ZBAA 120700Z AUTO 03004KT 6SM 06/M06 A2988 RMK T00601060 IEM_DS3505
ZBAA,1992-12-12 08:00,ZBAA 120800Z AUTO 04002KT 6SM 05/M06 A2991 RMK T00501060 IEM_DS3505
ZBAA,1992-12-12 09:00,ZBAA 120900Z AUTO 36006KT 12SM 06/M12 RMK SLP149 T00631120 52021 IEM_DS3505
ZBAA,1992-12-12 10:00,ZBAA 121000Z AUTO 03002KT 7SM 03/M07 A2997 RMK T00301070 IEM_DS3505
ZBAA,1992-12-12 11:00,ZBAA 121100Z AUTO 00000KT 19SM 01/M13 A3000 RMK T00071129 IEM_DS3505
ZBAA,1992-12-12 12:00,ZBAA 121200Z AUTO 34008KT 12SM 04/M12 RMK SLP191 T00451118 52042 IEM_DS3505
ZBAA,1992-12-12 15:00,ZBAA 121500Z AUTO 36008KT 19SM 01/M13 A3021 RMK SLP234 T00071129 52043 IEM_DS3505
ZBAA,1992-12-12 16:00,ZBAA 121600Z AUTO 33008KT 7SM M01/M15 A3024 RMK T10101150 IEM_DS3505
ZBAA,1992-12-12 17:00,ZBAA 121700Z AUTO 33012KT 7SM M01/M13 A3015 RMK T10101130 IEM_DS3505
ZBAA,1992-12-12 18:00,ZBAA 121800Z AUTO 36012KT 19SM M01/M14 RMK SLP261 T10101139 40087//// 52027 IEM_DS3505
ZBAA,1992-12-12 20:00,ZBAA 122000Z AUTO 34008KT 7SM M01/M17 A3033 RMK T10101170 IEM_DS3505
ZBAA,1992-12-12 21:00,ZBAA 122100Z AUTO 32002KT 16SM M02/M13 RMK SLP287 T10241126 52025 IEM_DS3505
ZBAA,1992-12-12 23:00,ZBAA 122300Z AUTO 34010G19KT 7SM M02/M22 A3042 RMK T10201220 IEM_DS3505
ZBAA,1992-12-13 00:00,ZBAA 130000Z AUTO 36008KT 19SM M03/M15 A3045 RMK SLP318 T10261149 52031 IEM_DS3505
ZBAA,1992-12-13 01:00,ZBAA 130100Z AUTO 31010KT 7SM M02/M22 A3047 RMK T10201220 IEM_DS3505
ZBAA,1992-12-13 02:00,ZBAA 130200Z AUTO 30008KT 7SM M01/M23 A3050 RMK T10101230 IEM_DS3505
ZBAA,1992-12-13 03:00,ZBAA 130300Z AUTO 36008KT 19SM 00/M20 A3050 RMK SLP333 T00031203 52015 IEM_DS3505
ZBAA,1992-12-13 04:00,ZBAA 130400Z AUTO 32012KT 7SM 01/M20 A3050 RMK T00101200 IEM_DS3505
ZBAA,1992-12-13 05:00,ZBAA 130500Z AUTO 32014KT 7SM 01/M19 A3045 RMK T00101190 IEM_DS3505
ZBAA,1992-12-13 06:00,ZBAA 130600Z AUTO 34008KT 19SM 02/M23 A3045 RMK SLP325 T00241230 4////1030 57008 IEM_DS3505
ZBAA,1992-12-13 07:00,ZBAA 130700Z AUTO 30012KT 7SM 02/M15 A3045 RMK T00201150 IEM_DS3505
ZBAA,1992-12-13 08:00,ZBAA 130800Z AUTO 30012KT 7SM 02/M13 A3047 RMK T00201130 IEM_DS3505
ZBAA,1992-12-13 09:00,ZBAA 130900Z AUTO 36008KT 19SM 01/M20 A3047 RMK SLP329 T00131198 52003 IEM_DS3505
ZBAA,1992-12-13 10:00,ZBAA 131000Z AUTO 31008KT 7SM 00/M12 A3047 RMK T00001120 IEM_DS3505
ZBAA,1992-12-13 11:00,ZBAA 131100Z AUTO 00000KT 7SM 00/M13 A3050 RMK T00001130 IEM_DS3505
ZBAA,1992-12-13 12:00,ZBAA 131200Z AUTO 36004KT 19SM M02/M15 A3050 RMK SLP339 T10201150 52010 IEM_DS3505
ZBAA,1992-12-13 13:00,ZBAA 131300Z AUTO 00000KT 7SM M02/M19 A3053 RMK T10201190 IEM_DS3505
ZBAA,1992-12-13 14:00,ZBAA 131400Z AUTO 00000KT 7SM M02/M20 A3053 RMK T10201200 IEM_DS3505
ZBAA,1992-12-13 15:00,ZBAA 131500Z AUTO 04002KT 16SM M03/M15 A3053 RMK SLP345 T10321154 52006 IEM_DS3505
ZBAA,1992-12-13 16:00,ZBAA 131600Z AUTO 00000KT 7SM M05/M15 A3053 RMK T10501150 IEM_DS3505
ZBAA,1992-12-13 17:00,ZBAA 131700Z AUTO 00000KT 7SM M05/M17 A3053 RMK T10501170 IEM_DS3505
ZBAA,1992-12-13 18:00,ZBAA 131800Z AUTO 32006KT 19SM M02/M17 RMK SLP346 T10211168 40028//// 52001 IEM_DS3505
ZBAA,1992-12-13 19:00,ZBAA 131900Z AUTO 00000KT 7SM M04/M17 A3053 RMK T10401170 IEM_DS3505
ZBAA,1992-12-13 20:00,ZBAA 132000Z AUTO 32002KT 7SM M04/M17 A3053 RMK T10401170 IEM_DS3505
ZBAA,1992-12-13 21:00,ZBAA 132100Z AUTO 36008KT 19SM M03/M15 A3053 RMK SLP347 T10291149 52001 IEM_DS3505
ZBAA,1992-12-13 22:00,ZBAA 132200Z AUTO 30002KT 7SM M03/M12 A3053 RMK T10301120 IEM_DS3505
ZBAA,1992-12-14 00:00,ZBAA 140000Z AUTO 36008KT 12SM M02/M15 A3056 RMK SLP350 T10241153 52003 IEM_DS3505
ZBAA,1992-12-14 01:00,ZBAA 140100Z AUTO 35006KT 7SM M01/M18 A3056 RMK T10101180 IEM_DS3505
ZBAA,1992-12-14 02:00,ZBAA 140200Z AUTO 34012KT 7SM 00/M19 A3056 RMK T00001190 IEM_DS3505
ZBAA,1992-12-14 03:00,ZBAA 140300Z AUTO 04004KT 7SM 02/M16 A3053 RMK SLP350 T00181157 54000 IEM_DS3505
ZBAA,1992-12-14 04:00,ZBAA 140400Z AUTO 31016KT 7SM 02/M19 A3053 RMK T00201190 IEM_DS3505
ZBAA,1992-12-14 05:00,ZBAA 140500Z AUTO 29014KT 7SM 03/M11 A3050 RMK T00301110 IEM_DS3505
ZBAA,1992-12-14 06:00,ZBAA 140600Z AUTO 36008KT 12SM 05/M17 RMK SLP328 T00471168 4////1041 57021 IEM_DS3505
ZBAA,1992-12-14 07:00,ZBAA 140700Z AUTO 29010KT 7SM 04/M11 A3047 RMK T00401110 IEM_DS3505
ZBAA,1992-12-14 08:00,ZBAA 140800Z AUTO 29010KT 7SM 03/M19 A3047 RMK T00301190 IEM_DS3505
ZBAA,1992-12-14 09:00,ZBAA 140900Z AUTO 29002KT 12SM 03/M14 RMK SLP329 T00261144 52001 IEM_DS3505
ZBAA,1992-12-14 10:00,ZBAA 141000Z AUTO 29004KT 7SM 01/M05 A3047 RMK T00101050 IEM_DS3505
ZBAA,1992-12-14 11:00,ZBAA 141100Z AUTO 25002KT 11SM M01/M10 A3050 RMK SLP331 T10141104 52002 IEM_DS3505
ZBAA,1992-12-14 12:00,ZBAA 141200Z AUTO 25002KT 11SM M01/M10 A3047 RMK SLP332 T10141104 52002 IEM_DS3505
ZBAA,1992-12-14 13:00,ZBAA 141300Z AUTO 00000KT 7SM 00/M05 A3047 RMK T00001050 IEM_DS3505
ZBAA,1992-12-14 14:00,ZBAA 141400Z AUTO 36004KT 7SM M01/M17 A3047 RMK T10101170 IEM_DS3505
ZBAA,1992-12-14 15:00,ZBAA 141500Z AUTO 07004KT 12SM M01/M14 A3047 RMK SLP330 T10101139 57001 IEM_DS3505
ZBAA,1992-12-14 16:00,ZBAA 141600Z AUTO 00000KT 7SM M01/M16 A3047 RMK T10101160 IEM_DS3505
ZBAA,1992-12-14 18:00,ZBAA 141800Z AUTO 00000KT 12SM M04/M11 RMK SLP323 T10371107 40051//// 57007 IEM_DS3505
ZBAA,1992-12-14 20:00,ZBAA 142000Z AUTO 00000KT 7SM M02/M21 A3045 RMK T10201210 IEM_DS3505
ZBAA,1992-12-14 21:00,ZBAA 142100Z AUTO 04004KT 11SM M03/M13 A3045 RMK SLP312 T10261134 57011 IEM_DS3505
ZBAA,1992-12-14 22:00,ZBAA 142200Z AUTO 00000KT 7SM M03/M21 A3042 RMK T10301210 IEM_DS3505
ZBAA,1992-12-14 23:00,ZBAA 142300Z AUTO 00000KT 7SM M03/M17 A3042 RMK T10301170 IEM_DS3505
ZBAA,1992-12-15 00:00,ZBAA 150000Z AUTO 36006KT 16SM M01/M18 A3042 RMK SLP311 T10081180 IEM_DS3505
ZBAA,1992-12-15 01:00,ZBAA 150100Z AUTO 04006KT 7SM M03/M16 A3042 RMK T10301160 IEM_DS3505
ZBAA,1992-12-15 02:00,ZBAA 150200Z AUTO 03006KT 7SM 00/M16 A3042 RMK T00001160 IEM_DS3505
ZBAA,1992-12-15 03:00,ZBAA 150300Z AUTO 36006KT 12SM 03/M17 RMK SLP306 T00321166 57004 IEM_DS3505
ZBAA,1992-12-15 04:00,ZBAA 150400Z AUTO 03004KT 7SM 03/M10 A3039 RMK T00301100 IEM_DS3505
ZBAA,1992-12-15 05:00,ZBAA 150500Z AUTO 00000KT 7SM 04/M09 A3036 RMK T00401090 IEM_DS3505
ZBAA,1992-12-15 06:00,ZBAA 150600Z AUTO 32004KT 9SM 06/M17 A3033 RMK SLP278 T00641166 4////1050 57028 IEM_DS3505
ZBAA,1992-12-15 07:00,ZBAA 150700Z AUTO 30002KT 7SM 06/M11 A3030 RMK T00601110 IEM_DS3505
ZBAA,1992-12-15 08:00,ZBAA 150800Z AUTO 00000KT 7SM 04/M08 A3030 RMK T00401080 IEM_DS3505
ZBAA,1992-12-15 09:00,ZBAA 150900Z AUTO 20004KT 7SM 03/M04 RMK SLP277 T00321044 57001 IEM_DS3505
ZBAA,1992-12-15 10:00,ZBAA 151000Z AUTO 00000KT 7SM 00/M07 A3033 RMK T00001070 IEM_DS3505
ZBAA,1992-12-15 11:00,ZBAA 151100Z AUTO 22002KT 6SM M02/M07 A3033 RMK SLP276 T10201070 57010 IEM_DS3505
ZBAA,1992-12-15 12:00,ZBAA 151200Z AUTO 22002KT 6SM M01/M09 A3030 RMK SLP276 T10141093 57001 IEM_DS3505
ZBAA,1992-12-15 13:00,ZBAA 151300Z AUTO 00000KT 7SM M03/M13 A3030 RMK T10301130 IEM_DS3505
ZBAA,1992-12-15 14:00,ZBAA 151400Z AUTO 00000KT 7SM M03/M15 A3030 RMK T10301150 IEM_DS3505
ZBAA,1992-12-15 15:00,ZBAA 151500Z AUTO 27002KT 6SM M04/M12 A3030 RMK SLP272 T10361116 57004 IEM_DS3505
ZBAA,1992-12-15 16:00,ZBAA 151600Z AUTO 00000KT 7SM M05/M14 A3030 RMK T10501140 IEM_DS3505
ZBAA,1992-12-15 18:00,ZBAA 151800Z AUTO 00000KT 6SM M04/M10 RMK SLP266 T10451105 40067//// 57006 IEM_DS3505
ZBAA,1992-12-15 20:00,ZBAA 152000Z AUTO 00000KT 7SM M05/M15 A3027 RMK T10501150 IEM_DS3505
ZBAA,1992-12-15 21:00,ZBAA 152100Z AUTO 27004KT 6SM M06/M10 RMK SLP261 T10611105 57005 IEM_DS3505
ZBAA,1992-12-15 22:00,ZBAA 152200Z AUTO 00000KT 7SM M07/M13 A3027 RMK T10701130 IEM_DS3505
ZBAA,1992-12-15 23:00,ZBAA 152300Z AUTO 00000KT 7SM M05/M12 A3027 RMK T10501120 IEM_DS3505
ZBAA,1992-12-16 00:00,ZBAA 160000Z AUTO 32004KT 2SM M06/M11 A3030 RMK SLP267 T10601114 52005 IEM_DS3505
ZBAA,1992-12-16 01:00,ZBAA 160100Z AUTO 01004KT 4SM A3030 RMK 52005 IEM_DS3505
ZBAA,1992-12-16 02:00,ZBAA 160200Z AUTO 04006KT 7SM 00/M15 A3030 RMK T00001150 IEM_DS3505
ZBAA,1992-12-16 03:00,ZBAA 160300Z AUTO 04004KT 4SM 02/M15 A3030 RMK SLP271 T00201150 52005 IEM_DS3505
ZBAA,1992-12-16 04:00,ZBAA 160400Z AUTO 04002KT 7SM 04/M06 A3027 RMK T00401060 IEM_DS3505
ZBAA,1992-12-16 05:00,ZBAA 160500Z AUTO 00000KT 7SM 04/M08 A3024 RMK T00401080 IEM_DS3505
ZBAA,1992-12-16 06:00,ZBAA 160600Z AUTO 00000KT 4SM 06/M14 A3024 RMK SLP252 T00551142 4////1066 57019 IEM_DS3505
ZBAA,1992-12-16 07:00,ZBAA 160700Z AUTO 00000KT 7SM 05/M05 A3024 RMK T00501050 IEM_DS3505
ZBAA,1992-12-16 08:00,ZBAA 160800Z AUTO 00000KT 7SM 05/M04 A3024 RMK T00501040 IEM_DS3505
ZBAA,1992-12-16 09:00,ZBAA 160900Z AUTO 22004KT 4SM 04/M10 RMK SLP256 T00381104 52004 IEM_DS3505
ZBAA,1992-12-16 10:00,ZBAA 161000Z AUTO 00000KT 7SM 01/M03 A3036 RMK T00101030 IEM_DS3505
ZBAA,1992-12-16 11:00,ZBAA 161100Z AUTO 00000KT 4SM M04/M09 A3030 RMK SLP281 T10381089 52002 IEM_DS3505
ZBAA,1992-12-16 12:00,ZBAA 161200Z AUTO 22004KT 5SM 00/M08 RMK SLP266 T00011081 52009 IEM_DS3505
ZBAA,1992-12-16 15:00,ZBAA 161500Z AUTO 04004KT 4SM M00/M10 A3033 RMK SLP279 T10021100 52014 IEM_DS3505
ZBAA,1992-12-16 16:00,ZBAA 161600Z AUTO 03002KT 6SM M02/M13 A3033 RMK T10201130 IEM_DS3505
ZBAA,1992-12-16 17:00,ZBAA 161700Z AUTO 04002KT 6SM M03/M12 A3033 RMK T10301120 IEM_DS3505
ZBAA,1992-12-16 18:00,ZBAA 161800Z AUTO 04004KT 4SM M04/M09 A3033 RMK SLP281 T10381089 40063//// 52002 IEM_DS3505
ZBAA,1992-12-16 20:00,ZBAA 162000Z AUTO 00000KT 7SM M05/M12 A3036 RMK T10501120 IEM_DS3505
ZBAA,1992-12-16 21:00,ZBAA 162100Z AUTO 04004KT 4SM M04/M11 A3036 RMK SLP284 T10441107 52003 IEM_DS3505
ZBAA,1992-12-16 22:00,ZBAA 162200Z AUTO 00000KT 7SM M07/M12 A3036 RMK T10701120 IEM_DS3505
ZBAA,1992-12-16 23:00,ZBAA 162300Z AUTO 00000KT 7SM M06/M11 A3039 RMK T10601110 IEM_DS3505
ZBAA,1992-12-17 00:00,ZBAA 170000Z AUTO 07002KT 4SM M04/M09 A3039 RMK SLP304 T10381088 52019 IEM_DS3505
ZBAA,1992-12-17 01:00,ZBAA 170100Z AUTO 22004KT 3SM 02/M07 A3042 RMK SLP301 T00251072 52009 IEM_DS3505
ZBAA,1992-12-17 02:00,ZBAA 170200Z AUTO 00000KT 7SM M01/M12 A3045 RMK T10101120 IEM_DS3505
ZBAA,1992-12-17 03:00,ZBAA 170300Z AUTO 04004KT 4SM 02/M12 A3042 RMK SLP312 T00171122 52009 IEM_DS3505
ZBAA,1992-12-17 04:00,ZBAA 170400Z AUTO 03002KT 7SM 03/M08 A3042 RMK T00301080 IEM_DS3505
ZBAA,1992-12-17 05:00,ZBAA 170500Z AUTO 06004KT 7SM 04/M07 A3039 RMK T00401070 IEM_DS3505
ZBAA,1992-12-17 06:00,ZBAA 170600Z AUTO 07004KT 6SM 04/M10 A3036 RMK SLP292 T00431100 4////1055 57020 IEM_DS3505
ZBAA,1992-12-17 07:00,ZBAA 170700Z AUTO 00000KT 7SM 05/M05 A3036 RMK T00501050 IEM_DS3505
ZBAA,1992-12-17 08:00,ZBAA 170800Z AUTO 00000KT 7SM 04/M04 A3039 RMK T00401040 IEM_DS3505
ZBAA,1992-12-17 09:00,ZBAA 170900Z AUTO 22004KT 3SM 02/M07 RMK SLP301 T00251072 52009 IEM_DS3505
ZBAA,1992-12-17 10:00,ZBAA 171000Z AUTO 00000KT 6SM 00/M05 A3042 RMK T00001050 IEM_DS3505
ZBAA,1992-12-17 11:00,ZBAA 171100Z AUTO 00000KT 6SM M01/M06 A3042 RMK T10101060 IEM_DS3505
ZBAA,1992-12-17 12:00,ZBAA 171200Z AUTO 00000KT 4SM M00/M07 A3045 RMK SLP314 T10041066 52012 IEM_DS3505
ZBAA,1992-12-17 13:00,ZBAA 171300Z AUTO 00000KT 4SM M01/M06 A3045 RMK T10101060 IEM_DS3505
ZBAA,1992-12-17 15:00,ZBAA 171500Z AUTO 00000KT 4SM M02/M07 A3047 RMK SLP321 T10221073 52008 IEM_DS3505
ZBAA,1992-12-17 16:00,ZBAA 171600Z AUTO 12004KT 4SM M02/M08 A3047 RMK T10201080 IEM_DS3505
ZBAA,1992-12-17 17:00,ZBAA 171700Z AUTO 11006KT 3SM M03/M07 A3047 RMK T10301070 IEM_DS3505
ZBAA,1992-12-17 18:00,ZBAA 171800Z AUTO 00000KT 4SM M04/M08 RMK SLP324 T10351076 40053//// 52003 IEM_DS3505
ZBAA,1992-12-17 20:00,ZBAA 172000Z AUTO 00000KT 5SM M04/M04 A3047 RMK T10401040 IEM_DS3505
ZBAA,1992-12-17 21:00,ZBAA 172100Z AUTO 34004KT 2 1/2SM M02/M06 A3045 RMK SLP322 T10251060 57002 IEM_DS3505
ZBAA,1992-12-17 22:00,ZBAA 172200Z AUTO 00000KT 5SM M04/M04 A3047 RMK T10401040 IEM_DS3505
ZBAA,1992-12-17 23:00,ZBAA 172300Z AUTO 00000KT 6SM M03/M06 A3047 RMK T10301060 IEM_DS3505
ZBAA,1992-12-18 00:00,ZBAA 180000Z AUTO 34002KT 2SM M02/M05 RMK SLP323 T10221049 54000 IEM_DS3505
ZBAA,1992-12-18 01:00,ZBAA 180100Z AUTO 36004KT 2SM 00/M03 A3045 RMK SLP284 T00001030 4////1040 57026 IEM_DS3505
ZBAA,1992-12-18 02:00,ZBAA 180200Z AUTO 00000KT 2SM M01/M04 A3045 RMK T10101040 IEM_DS3505
ZBAA,1992-12-18 03:00,ZBAA 180300Z AUTO 09004KT 2SM M00/M04 RMK SLP311 T10011039 57012 IEM_DS3505
ZBAA,1992-12-18 04:00,ZBAA 180400Z AUTO 00000KT 2 1/2SM 00/M03 A3039 RMK T00001030 IEM_DS3505
ZBAA,1992-12-18 05:00,ZBAA 180500Z AUTO 09002KT 2 1/2SM 00/M02 A3036 RMK T00001020 IEM_DS3505
ZBAA,1992-12-18 06:00,ZBAA 180600Z AUTO 36004KT 2SM 00/M03 A3033 RMK SLP285 T00041030 4////1040 57026 IEM_DS3505
ZBAA,1992-12-18 07:00,ZBAA 180700Z AUTO 00000KT 2 1/2SM 00/M02 A3030 RMK T00001020 IEM_DS3505
ZBAA,1992-12-18 08:00,ZBAA 180800Z AUTO 12004KT 2 1/2SM 00/M03 A3030 RMK T00001030 IEM_DS3505
ZBAA,1992-12-18 09:00,ZBAA 180900Z AUTO 34004KT 1 1/4SM M00/M04 A3030 RMK SLP270 T10031038 57014 IEM_DS3505
ZBAA,1992-12-18 10:00,ZBAA 181000Z AUTO 00000KT 1SM M01/M01 A3030 RMK T10101010 IEM_DS3505
ZBAA,1992-12-18 11:00,ZBAA 181100Z AUTO 00000KT 1SM M02/M02 A3027 RMK T10201020 IEM_DS3505
ZBAA,1992-12-18 12:00,ZBAA 181200Z AUTO 36004KT 1 1/4SM M02/M04 A3027 RMK SLP265 T10161042 57005 IEM_DS3505
ZBAA,1992-12-18 13:00,ZBAA 181300Z AUTO 00000KT 1 1/4SM M02/M04 A3027 RMK T10201040 IEM_DS3505
ZBAA,1992-12-18 14:00,ZBAA 181400Z AUTO 00000KT 1 1/4SM M02/M04 A3027 RMK T10201040 IEM_DS3505
ZBAA,1992-12-18 15:00,ZBAA 181500Z AUTO 36006KT 1SM M02/M04 A3024 RMK SLP254 T10161042 57011 IEM_DS3505
ZBAA,1992-12-18 16:00,ZBAA 181600Z AUTO 00000KT 1 1/4SM M02/M04 A3021 RMK T10201040 IEM_DS3505
ZBAA,1992-12-18 17:00,ZBAA 181700Z AUTO 00000KT 1 1/4SM M02/M05 A3021 RMK T10201050 IEM_DS3505
ZBAA,1992-12-18 18:00,ZBAA 181800Z AUTO 00000KT 1 1/4SM M04/M06 RMK SLP238 T10371055 40006//// 57016 IEM_DS3505
ZBAA,1992-12-18 20:00,ZBAA 182000Z AUTO 00000KT 1 1/4SM M04/M06 A3018 RMK T10401060 IEM_DS3505
ZBAA,1992-12-18 21:00,ZBAA 182100Z AUTO 36002KT 1 1/4SM M04/M05 A3015 RMK SLP224 T10431052 57014 IEM_DS3505
ZBAA,1992-12-18 22:00,ZBAA 182200Z AUTO 00000KT 1 1/2SM M04/M06 A3015 RMK T10401060 IEM_DS3505
ZBAA,1992-12-18 23:00,ZBAA 182300Z AUTO 00000KT 1 1/2SM M05/M07 A3015 RMK T10501070 IEM_DS3505
ZBAA,1992-12-19 00:00,ZBAA 190000Z AUTO 27002KT 1 1/4SM M04/M06 RMK SLP224 T10401060 54000 IEM_DS3505
ZBAA,1992-12-19 01:00,ZBAA 190100Z AUTO 00000KT 3SM M04/M08 A3018 RMK T10401080 IEM_DS3505
ZBAA,1992-12-19 02:00,ZBAA 190200Z AUTO 00000KT 3SM M03/M09 A3018 RMK T10301090 IEM_DS3505
ZBAA,1992-12-19 03:00,ZBAA 190300Z AUTO 04006KT 2 1/2SM M00/M06 A3015 RMK SLP222 T10041061 57002 IEM_DS3505
ZBAA,1992-12-19 04:00,ZBAA 190400Z AUTO 03004KT 3SM 00/M04 A3012 RMK T00001040 IEM_DS3505
ZBAA,1992-12-19 05:00,ZBAA 190500Z AUTO 00000KT 3SM 01/M02 A3009 RMK T00101020 IEM_DS3505
ZBAA,1992-12-19 06:00,ZBAA 190600Z AUTO 09004KT 2 1/2SM 02/M05 A3006 RMK SLP198 T00151052 4////1052 57024 IEM_DS3505
ZBAA,1992-12-19 07:00,ZBAA 190700Z AUTO 00000KT 3SM 02/M02 A3006 RMK T00201020 IEM_DS3505
ZBAA,1992-12-19 08:00,ZBAA 190800Z AUTO 00000KT 3SM 01/M02 A3006 RMK T00101020 IEM_DS3505
ZBAA,1992-12-19 09:00,ZBAA 190900Z AUTO 34002KT 2SM 00/M04 A3009 RMK SLP197 T00021042 57001 IEM_DS3505
ZBAA,1992-12-19 10:00,ZBAA 191000Z AUTO 00000KT 1 1/4SM M01/M03 A3009 RMK T10101030 IEM_DS3505
ZBAA,1992-12-19 11:00,ZBAA 191100Z AUTO 22004KT 2SM M02/M04 A3009 RMK SLP203 T10201040 52006 IEM_DS3505
ZBAA,1992-12-19 12:00,ZBAA 191200Z AUTO 22004KT 2SM M01/M04 RMK SLP203 T10131042 52006 IEM_DS3505
ZBAA,1992-12-19 13:00,ZBAA 191300Z AUTO 00000KT 1SM M03/M05 A3012 RMK T10301050 IEM_DS3505
ZBAA,1992-12-19 14:00,ZBAA 191400Z AUTO 00000KT 1SM M04/M05 A3012 RMK T10401050 IEM_DS3505
ZBAA,1992-12-19 15:00,ZBAA 191500Z AUTO 00000KT 1 1/4SM M02/M03 A3012 RMK SLP207 T10241034 52004 IEM_DS3505
ZBAA,1992-12-19 16:00,ZBAA 191600Z AUTO 00000KT 1SM M04/M06 A3012 RMK T10401060 IEM_DS3505
ZBAA,1992-12-19 17:00,ZBAA 191700Z AUTO 00000KT 1SM M04/M05 A3012 RMK T10401050 IEM_DS3505
ZBAA,1992-12-19 18:00,ZBAA 191800Z AUTO 36004KT 1 1/4SM M03/M05 RMK SLP206 T10261046 40020//// 57001 IEM_DS3505
ZBAA,1992-12-19 21:00,ZBAA 192100Z AUTO 02004KT 1 1/4SM M02/M04 A3009 RMK SLP204 T10191045 57002 IEM_DS3505
ZBAA,1992-12-19 22:00,ZBAA 192200Z AUTO 00000KT 1SM M02/M03 A3009 RMK T10201030 IEM_DS3505
ZBAA,1992-12-19 23:00,ZBAA 192300Z AUTO 00000KT 1 1/4SM M02/M04 A3009 RMK T10201040 IEM_DS3505
ZBAA,1992-12-20 00:00,ZBAA 200000Z AUTO 04006KT 1 1/4SM M02/M05 A3012 RMK SLP209 T10161053 52005 IEM_DS3505
ZBAA,1992-12-20 01:00,ZBAA 200100Z AUTO 04008KT 1 1/4SM M02/M06 A3015 RMK SLP215 T10201060 4////1035 IEM_DS3505
ZBAA,1992-12-20 02:00,ZBAA 200200Z AUTO 04004KT 1SM M02/ RMK IEM_DS3505
ZBAA,1992-12-20 03:00,ZBAA 200300Z AUTO 04004KT 2SM 00/M05 A3015 RMK SLP223 T00031052 52014 IEM_DS3505
ZBAA,1992-12-20 04:00,ZBAA 200400Z AUTO 02006KT 1 1/4SM 01/M03 A3012 RMK T00101030 IEM_DS3505
ZBAA,1992-12-20 05:00,ZBAA 200500Z AUTO 01004KT 1 1/4SM 03/M06 A3012 RMK T00301060 IEM_DS3505
ZBAA,1992-12-20 06:00,ZBAA 200600Z AUTO 04008KT 1 1/4SM 02/M05 A3012 RMK SLP215 T00241047 4////1035 57008 IEM_DS3505
ZBAA,1992-12-20 07:00,ZBAA 200700Z AUTO 33017KT 1 1/4SM 03/M07 A3015 RMK T00301070 IEM_DS3505
ZBAA,1992-12-20 08:00,ZBAA 200800Z AUTO 32014KT 1 1/2SM 03/M09 A3018 RMK T00301090 IEM_DS3505
ZBAA,1992-12-20 09:00,ZBAA 200900Z AUTO 34012KT 3SM 03/ A3021 RMK SLP236 52021 IEM_DS3505
ZBAA,1992-12-20 10:00,ZBAA 201000Z AUTO 35016KT 2SM 03/M07 A3024 RMK T00301070 IEM_DS3505
ZBAA,1992-12-20 11:00,ZBAA 201100Z AUTO 34012KT 9SM 00/M25 A3027 RMK SLP270 T00001246 52041 IEM_DS3505
ZBAA,1992-12-20 12:00,ZBAA 201200Z AUTO 34012KT 9SM 00/M25 A3033 RMK SLP277 T00051246 52041 IEM_DS3505
ZBAA,1992-12-20 13:00,ZBAA 201300Z AUTO 34017KT 3SM M01/M27 A3033 RMK T10101270 IEM_DS3505
ZBAA,1992-12-20 14:00,ZBAA 201400Z AUTO 32017KT 6SM M02/M23 A3039 RMK T10201230 IEM_DS3505
ZBAA,1992-12-20 15:00,ZBAA 201500Z AUTO 32010KT 12SM M02/M22 A3039 RMK SLP301 T10241215 52023 IEM_DS3505
ZBAA,1992-12-20 16:00,ZBAA 201600Z AUTO 33006KT 6SM M03/M25 A3036 RMK T10301250 IEM_DS3505
ZBAA,1992-12-20 18:00,ZBAA 201800Z AUTO 18004KT 19SM M04/M19 RMK SLP290 T10381193 40036//// 57010 IEM_DS3505
ZBAA,1992-12-20 19:00,ZBAA 201900Z AUTO 32010KT 6SM M04/M26 A3036 RMK T10401260 IEM_DS3505
ZBAA,1992-12-20 20:00,ZBAA 202000Z AUTO 00000KT 6SM M05/M21 A3033 RMK T10501210 IEM_DS3505
ZBAA,1992-12-20 21:00,ZBAA 202100Z AUTO 04004KT 19SM M04/M18 RMK SLP279 T10441180 57011 IEM_DS3505
ZBAA,1992-12-20 23:00,ZBAA 202300Z AUTO 00000KT 7SM M06/M09 A3033 RMK T10601090 IEM_DS3505
ZBAA,1992-12-21 00:00,ZBAA 210000Z AUTO 27002KT 9SM M07/M14 A3033 RMK SLP287 T10741140 52007 IEM_DS3505
ZBAA,1992-12-21 01:00,ZBAA 210100Z AUTO 02021KT 9SM M07/M14 A3033 RMK SLP287 T10741140 52007 IEM_DS3505
ZBAA,1992-12-21 02:00,ZBAA 210200Z AUTO 00000KT 7SM M03/M21 A3036 RMK T10301210 IEM_DS3505
ZBAA,1992-12-21 03:00,ZBAA 210300Z AUTO 20010KT 7SM M02/M20 A3033 RMK SLP286 T10171203 57001 IEM_DS3505
ZBAA,1992-12-21 04:00,ZBAA 210400Z AUTO 19006KT 7SM 00/M19 A3030 RMK T00001190 IEM_DS3505
ZBAA,1992-12-21 05:00,ZBAA 210500Z AUTO 19008KT 7SM 01/M19 A3027 RMK T00101190 IEM_DS3505
ZBAA,1992-12-21 06:00,ZBAA 210600Z AUTO 18010KT 9SM 01/M17 A3024 RMK SLP249 T00121171 4////1079 57036 IEM_DS3505
ZBAA,1992-12-21 07:00,ZBAA 210700Z AUTO 22006KT 7SM 02/M22 A3021 RMK T00201220 IEM_DS3505
ZBAA,1992-12-21 08:00,ZBAA 210800Z AUTO 21006KT 7SM 01/M25 A3021 RMK T00101250 IEM_DS3505
ZBAA,1992-12-21 09:00,ZBAA 210900Z AUTO 18006KT 6SM 00/M18 A3024 RMK SLP251 T00041177 52002 IEM_DS3505
ZBAA,1992-12-21 10:00,ZBAA 211000Z AUTO 00000KT 7SM M01/M11 A3024 RMK T10101110 IEM_DS3505
ZBAA,1992-12-21 11:00,ZBAA 211100Z AUTO 03002KT 10SM M02/M17 A3027 RMK SLP286 T10211167 40018//// 52010 IEM_DS3505
ZBAA,1992-12-21 12:00,ZBAA 211200Z AUTO 27002KT 6SM M02/M11 A3027 RMK SLP262 T10201113 52010 IEM_DS3505
ZBAA,1992-12-21 13:00,ZBAA 211300Z AUTO 00000KT 6SM M04/M15 A3030 RMK T10401150 IEM_DS3505
ZBAA,1992-12-21 14:00,ZBAA 211400Z AUTO 03002KT 6SM M04/M17 A3033 RMK T10401170 IEM_DS3505
ZBAA,1992-12-21 15:00,ZBAA 211500Z AUTO 09006KT 6SM M02/M14 A3033 RMK SLP277 T10251140 52015 IEM_DS3505
ZBAA,1992-12-21 16:00,ZBAA 211600Z AUTO 00000KT 6SM M04/M16 A3033 RMK T10401160 IEM_DS3505
ZBAA,1992-12-21 17:00,ZBAA 211700Z AUTO 03004KT 6SM M03/M17 A3036 RMK T10301170 IEM_DS3505
ZBAA,1992-12-21 18:00,ZBAA 211800Z AUTO 04006KT 10SM M02/M17 RMK SLP286 T10211167 40018//// 52010 IEM_DS3505
ZBAA,1992-12-21 19:00,ZBAA 211900Z AUTO 36008KT 6SM M03/M17 A3039 RMK T10301170 IEM_DS3505
ZBAA,1992-12-21 20:00,ZBAA 212000Z AUTO 33010KT 6SM M02/M20 A3042 RMK T10201200 IEM_DS3505
ZBAA,1992-12-21 21:00,ZBAA 212100Z AUTO 02014KT 12SM M03/M22 A3042 RMK SLP307 T10311215 52020 IEM_DS3505
ZBAA,1992-12-21 22:00,ZBAA 212200Z AUTO 33012KT 6SM M04/M26 A3045 RMK T10401260 IEM_DS3505
ZBAA,1992-12-21 23:00,ZBAA 212300Z AUTO 34008KT 6SM M05/M25 A3050 RMK T10501250 IEM_DS3505
ZBAA,1992-12-22 00:00,ZBAA 220000Z AUTO 34010KT 16SM M05/M27 A3053 RMK SLP342 T10491270 52035 IEM_DS3505
ZBAA,1992-12-22 01:00,ZBAA 220100Z AUTO 34010KT 7SM M04/M27 A3056 RMK SLP341 T10401270 52035 IEM_DS3505
ZBAA,1992-12-22 02:00,ZBAA 220200Z AUTO 33019KT 7SM M04/M35 A3062 RMK T10401350 IEM_DS3505
ZBAA,1992-12-22 03:00,ZBAA 220300Z AUTO 32016KT 9SM M04/M28 A3062 RMK SLP374 T10391279 52031 IEM_DS3505
ZBAA,1992-12-22 04:00,ZBAA 220400Z AUTO 32016KT 7SM M04/M33 A3062 RMK T10401330 IEM_DS3505
ZBAA,1992-12-22 05:00,ZBAA 220500Z AUTO 33014KT 7SM M03/M30 A3059 RMK T10301300 IEM_DS3505
ZBAA,1992-12-22 06:00,ZBAA 220600Z AUTO 32016KT 9SM M04/M28 RMK SLP366 T10361283 4////1052 57007 IEM_DS3505
ZBAA,1992-12-22 07:00,ZBAA 220700Z AUTO 35019KT 7SM M03/M27 A3056 RMK T10301270 IEM_DS3505
ZBAA,1992-12-22 08:00,ZBAA 220800Z AUTO 35012KT 7SM M03/M29 A3056 RMK T10301290 IEM_DS3505
ZBAA,1992-12-22 09:00,ZBAA 220900Z AUTO 32010KT 9SM M04/M28 RMK SLP364 T10351278 57003 IEM_DS3505
ZBAA,1992-12-22 10:00,ZBAA 221000Z AUTO 33006KT 7SM M04/M29 A3059 RMK T10401290 IEM_DS3505
ZBAA,1992-12-22 11:00,ZBAA 221100Z AUTO 32012KT 11SM M04/M24 A3062 RMK SLP367 T10401240 57009 IEM_DS3505
ZBAA,1992-12-22 12:00,ZBAA 221200Z AUTO 34010KT 9SM M04/M23 A3062 RMK SLP376 T10421229 52012 IEM_DS3505
ZBAA,1992-12-22 13:00,ZBAA 221300Z AUTO 31008KT 7SM M06/M27 A3062 RMK T10601270 IEM_DS3505
ZBAA,1992-12-22 14:00,ZBAA 221400Z AUTO 32017KT 7SM M05/M28 A3059 RMK T10501280 IEM_DS3505
ZBAA,1992-12-22 15:00,ZBAA 221500Z AUTO 32012KT 11SM M04/M25 RMK SLP367 T10401249 57009 IEM_DS3505
ZBAA,1992-12-22 16:00,ZBAA 221600Z AUTO 31008KT 7SM M05/M27 A3053 RMK T10501270 IEM_DS3505
ZBAA,1992-12-22 17:00,ZBAA 221700Z AUTO 31004KT 7SM M06/M25 A3053 RMK T10601250 IEM_DS3505
ZBAA,1992-12-22 18:00,ZBAA 221800Z AUTO 29012KT 12SM M04/M23 RMK SLP335 T10361233 41015//// 57031 IEM_DS3505
ZBAA,1992-12-22 20:00,ZBAA 222000Z AUTO 32008KT 7SM M05/M26 A3045 RMK T10501260 IEM_DS3505
ZBAA,1992-12-22 21:00,ZBAA 222100Z AUTO 32014KT 12SM M03/M29 A3042 RMK SLP315 T10301288 57020 IEM_DS3505
ZBAA,1992-12-22 22:00,ZBAA 222200Z AUTO 30006KT 7SM M04/M28 A3039 RMK T10401280 IEM_DS3505
ZBAA,1992-12-22 23:00,ZBAA 222300Z AUTO 30008KT 7SM M04/M26 A3039 RMK T10401260 IEM_DS3505
ZBAA,1992-12-23 00:00,ZBAA 230000Z AUTO 27006KT 7SM M03/M24 RMK SLP302 T10331235 57013 IEM_DS3505
ZBAA,1992-12-23 01:00,ZBAA 230100Z AUTO 27006KT 7SM M03/M26 A3039 RMK SLP302 T10301260 54000 IEM_DS3505
ZBAA,1992-12-23 02:00,ZBAA 230200Z AUTO 30012KT 7SM M01/M28 A3036 RMK T10101280 IEM_DS3505
ZBAA,1992-12-23 03:00,ZBAA 230300Z AUTO 20008KT 6SM M00/M25 A3033 RMK SLP286 T10021249 57016 IEM_DS3505
ZBAA,1992-12-23 04:00,ZBAA 230400Z AUTO 32014KT 7SM 02/M16 A3030 RMK T00201160 IEM_DS3505
ZBAA,1992-12-23 05:00,ZBAA 230500Z AUTO 31014KT 7SM 04/M15 A3024 RMK T00401150 IEM_DS3505
ZBAA,1992-12-23 06:00,ZBAA 230600Z AUTO 20012KT 7SM 02/M19 A3024 RMK SLP253 T00201194 4////1048 57032 IEM_DS3505
ZBAA,1992-12-23 07:00,ZBAA 230700Z AUTO 21012KT 7SM 03/M10 A3021 RMK T00301100 IEM_DS3505
ZBAA,1992-12-23 08:00,ZBAA 230800Z AUTO 20010KT 7SM 02/M09 A3021 RMK T00201090 IEM_DS3505
ZBAA,1992-12-23 09:00,ZBAA 230900Z AUTO 18008KT 7SM 02/ A3024 RMK SLP248 57005 IEM_DS3505
ZBAA,1992-12-23 11:00,ZBAA 231100Z AUTO 00000KT 7SM M01/M10 A3027 RMK T10101100 IEM_DS3505
ZBAA,1992-12-23 12:00,ZBAA 231200Z AUTO 07004KT 9SM M00/M15 RMK SLP255 T10011147 52007 IEM_DS3505
ZBAA,1992-12-23 13:00,ZBAA 231300Z AUTO 00000KT 7SM M03/M13 A3030 RMK T10301130 IEM_DS3505
ZBAA,1992-12-23 14:00,ZBAA 231400Z AUTO 00000KT 7SM M03/M14 A3030 RMK T10301140 IEM_DS3505
ZBAA,1992-12-23 15:00,ZBAA 231500Z AUTO 02002KT 9SM M03/M14 RMK SLP270 T10341136 52015 IEM_DS3505
ZBAA,1992-12-23 18:00,ZBAA 231800Z AUTO 34004KT 7SM M04/M14 RMK SLP276 T10441135 40024//// 52006 IEM_DS3505
ZBAA,1992-12-23 20:00,ZBAA 232000Z AUTO 00000KT 7SM M04/M15 A3033 RMK T10401150 IEM_DS3505
ZBAA,1992-12-23 21:00,ZBAA 232100Z AUTO 00000KT 9SM M05/M13 RMK SLP285 T10541127 52008 IEM_DS3505
ZBAA,1992-12-23 22:00,ZBAA 232200Z AUTO 03006KT 7SM M05/M15 A3036 RMK T10501150 IEM_DS3505
ZBAA,1992-12-23 23:00,ZBAA 232300Z AUTO 00000KT 7SM M06/M14 A3036 RMK T10601140 IEM_DS3505
ZBAA,1992-12-24 00:00,ZBAA 240000Z AUTO 14002KT 4SM M06/M12 A3039 RMK SLP300 T10571115 52015 IEM_DS3505
ZBAA,1992-12-24 01:00,ZBAA 240100Z AUTO 00000KT 7SM M04/M11 A3042 RMK T10401110 IEM_DS3505
ZBAA,1992-12-24 02:00,ZBAA 240200Z AUTO 00000KT 7SM M02/M15 A3045 RMK T10201150 IEM_DS3505
ZBAA,1992-12-24 03:00,ZBAA 240300Z AUTO 04004KT 6SM 01/M13 A3045 RMK SLP315 T00091133 52015 IEM_DS3505
ZBAA,1992-12-24 04:00,ZBAA 240400Z AUTO 14004KT 7SM 02/M10 A3042 RMK T00201100 IEM_DS3505
ZBAA,1992-12-24 05:00,ZBAA 240500Z AUTO 15008KT 7SM 03/M14 A3039 RMK T00301140 IEM_DS3505
ZBAA,1992-12-24 06:00,ZBAA 240600Z AUTO 16006KT 9SM 03/M12 A3039 RMK SLP301 T00301115 4////1064 57013 IEM_DS3505
ZBAA,1992-12-24 07:00,ZBAA 240700Z AUTO 16010KT 7SM 03/M16 A3039 RMK T00301160 IEM_DS3505
ZBAA,1992-12-24 08:00,ZBAA 240800Z AUTO 00000KT 7SM 03/M14 A3039 RMK T00301140 IEM_DS3505
ZBAA,1992-12-24 09:00,ZBAA 240900Z AUTO 09004KT 6SM 02/M12 A3039 RMK SLP302 T00241121 54000 IEM_DS3505
ZBAA,1992-12-24 10:00,ZBAA 241000Z AUTO 13006KT 7SM 00/M10 A3042 RMK T00001100 IEM_DS3505
ZBAA,1992-12-24 11:00,ZBAA 241100Z AUTO 13010KT 6SM 00/M06 A3042 RMK T00001060 IEM_DS3505
ZBAA,1992-12-24 12:00,ZBAA 241200Z AUTO 11004KT 6SM 00/M04 RMK SLP314 T00021043 52012 IEM_DS3505
ZBAA,1992-12-24 13:00,ZBAA 241300Z AUTO 12008KT 6SM M02/M07 A3045 RMK T10201070 IEM_DS3505
ZBAA,1992-12-24 14:00,ZBAA 241400Z AUTO 13010KT 6SM M02/M08 A3045 RMK T10201080 IEM_DS3505
ZBAA,1992-12-24 15:00,ZBAA 241500Z AUTO 09002KT 6SM M01/M06 A3045 RMK SLP320 T10111059 52007 IEM_DS3505
ZBAA,1992-12-24 16:00,ZBAA 241600Z AUTO 12006KT 6SM M02/M07 A3047 RMK T10201070 IEM_DS3505
ZBAA,1992-12-24 17:00,ZBAA 241700Z AUTO 12002KT 6SM M02/M07 A3045 RMK T10201070 IEM_DS3505
ZBAA,1992-12-24 18:00,ZBAA 241800Z AUTO 14004KT 5SM M02/M06 RMK SLP316 T10171055 40032//// 57004 IEM_DS3505
ZBAA,1992-12-24 20:00,ZBAA 242000Z AUTO 00000KT 7SM M03/M07 A3042 RMK T10301070 IEM_DS3505
ZBAA,1992-12-24 21:00,ZBAA 242100Z AUTO 00000KT 6SM M02/M05 RMK SLP302 T10231050 57014 IEM_DS3505
ZBAA,1992-12-24 23:00,ZBAA 242300Z AUTO 00000KT 7SM M03/M08 A3039 RMK T10301080 IEM_DS3505
ZBAA,1992-12-25 00:00,ZBAA 250000Z AUTO 32004KT 2 1/2SM M03/M05 A3039 RMK 60000 SLP303 T10261051 54000 IEM_DS3505
ZBAA,1992-12-25 01:00,ZBAA 250100Z AUTO 00000KT 4SM M02/M06 A3042 RMK T10201060 IEM_DS3505
ZBAA,1992-12-25 02:00,ZBAA 250200Z AUTO 00000KT 4SM M01/M06 A3042 RMK T10101060 IEM_DS3505
ZBAA,1992-12-25 03:00,ZBAA 250300Z AUTO 27004KT 4SM M01/M05 A3039 RMK SLP299 T10071053 57003 IEM_DS3505
ZBAA,1992-12-25 04:00,ZBAA 250400Z AUTO 00000KT 7SM 01/M06 A3036 RMK T00101060 IEM_DS3505
ZBAA,1992-12-25 05:00,ZBAA 250500Z AUTO 00000KT 7SM 01/M04 A3033 RMK T00101040 IEM_DS3505
ZBAA,1992-12-25 06:00,ZBAA 250600Z AUTO 34006KT 2 1/2SM 01/M05 RMK SLP275 T00081050 4////1030 57024 IEM_DS3505
ZBAA,1992-12-25 07:00,ZBAA 250700Z AUTO 00000KT 7SM 02/M04 A3030 RMK T00201040 IEM_DS3505
ZBAA,1992-12-25 08:00,ZBAA 250800Z AUTO 00000KT 7SM 01/M04 A3030 RMK T00101040 IEM_DS3505
ZBAA,1992-12-25 09:00,ZBAA 250900Z AUTO 29002KT 2 1/2SM M00/M05 A3030 RMK SLP273 T10041050 57002 IEM_DS3505
ZBAA,1992-12-25 10:00,ZBAA 251000Z AUTO 00000KT 4SM M01/M05 A3030 RMK T10101050 IEM_DS3505
ZBAA,1992-12-25 11:00,ZBAA 251100Z AUTO 00000KT 4SM M02/M06 A3030 RMK T10201060 IEM_DS3505
ZBAA,1992-12-25 12:00,ZBAA 251200Z AUTO 32002KT 2SM M02/M05 A3030 RMK SLP276 T10201050 52002 IEM_DS3505
ZBAA,1992-12-25 14:00,ZBAA 251400Z AUTO 00000KT 3SM M04/M07 A3033 RMK T10401070 IEM_DS3505
ZBAA,1992-12-25 15:00,ZBAA 251500Z AUTO 00000KT 1 1/4SM M04/M06 RMK SLP282 T10351058 52006 IEM_DS3505
ZBAA,1992-12-25 18:00,ZBAA 251800Z AUTO 34004KT 1 1/4SM M04/M06 RMK SLP277 T10421056 40016//// 57005 IEM_DS3505
ZBAA,1992-12-25 20:00,ZBAA 252000Z AUTO 00000KT 3SM M05/M07 A3030 RMK T10501070 IEM_DS3505
ZBAA,1992-12-25 21:00,ZBAA 252100Z AUTO 32002KT 3SM M05/M07 A3030 RMK SLP270 T10491071 57007 IEM_DS3505
ZBAA,1992-12-25 22:00,ZBAA 252200Z AUTO 00000KT 5SM M07/M10 A3027 RMK T10701100 IEM_DS3505
ZBAA,1992-12-25 23:00,ZBAA 252300Z AUTO 00000KT 5SM M07/M10 A3030 RMK T10701100 IEM_DS3505
ZBAA,1992-12-26 00:00,ZBAA 260000Z AUTO 00000KT 1 1/4SM M06/M07 A3033 RMK SLP278 T10561071 52008 IEM_DS3505
ZBAA,1992-12-26 01:00,ZBAA 260100Z AUTO 00000KT 1 1/4SM M06/M07 A3033 RMK SLP279 T10601071 52008 IEM_DS3505
ZBAA,1992-12-26 02:00,ZBAA 260200Z AUTO 02002KT 4SM M03/M07 A3033 RMK T10301070 IEM_DS3505
ZBAA,1992-12-26 03:00,ZBAA 260300Z AUTO 04006KT 2 1/2SM 01/M05 A3033 RMK SLP280 T00061046 52003 IEM_DS3505
ZBAA,1992-12-26 04:00,ZBAA 260400Z AUTO 00000KT 4SM 01/M03 A3030 RMK T00101030 IEM_DS3505
ZBAA,1992-12-26 05:00,ZBAA 260500Z AUTO 33002KT 6SM 03/M06 A3024 RMK T00301060 IEM_DS3505
ZBAA,1992-12-26 06:00,ZBAA 260600Z AUTO 22002KT 4SM 03/M06 A3024 RMK SLP252 T00301063 4////1060 57028 IEM_DS3505
ZBAA,1992-12-26 07:00,ZBAA 260700Z AUTO 00000KT 6SM 04/M03 A3024 RMK T00401030 IEM_DS3505
ZBAA,1992-12-26 08:00,ZBAA 260800Z AUTO 00000KT 6SM 02/M03 A3024 RMK T00201030 IEM_DS3505
ZBAA,1992-12-26 09:00,ZBAA 260900Z AUTO 00000KT 2SM 02/M04 RMK SLP247 T00221035 57005 IEM_DS3505
ZBAA,1992-12-26 10:00,ZBAA 261000Z AUTO 00000KT 3SM 00/M02 A3024 RMK T00001020 IEM_DS3505
ZBAA,1992-12-26 11:00,ZBAA 261100Z AUTO 00000KT 3SM 00/M02 A3024 RMK T00001020 IEM_DS3505
ZBAA,1992-12-26 12:00,ZBAA 261200Z AUTO 04002KT 1 1/2SM 01/M04 A3024 RMK SLP247 T00101036 54000 IEM_DS3505
ZBAA,1992-12-26 13:00,ZBAA 261300Z AUTO 00000KT 1 1/2SM M02/M04 A3021 RMK T10201040 IEM_DS3505
ZBAA,1992-12-26 14:00,ZBAA 261400Z AUTO 00000KT 1 1/4SM 02/M05 A3021 RMK T00201050 IEM_DS3505
ZBAA,1992-12-26 15:00,ZBAA 261500Z AUTO 09004KT 1 1/4SM M01/M04 A3021 RMK SLP245 T10121045 57002 IEM_DS3505
ZBAA,1992-12-26 16:00,ZBAA 261600Z AUTO 00000KT 1 1/4SM M03/M05 A3021 RMK T10301050 IEM_DS3505
ZBAA,1992-12-26 18:00,ZBAA 261800Z AUTO 04004KT 6SM M00/M05 RMK SLP244 T10031052 40042//// 57001 IEM_DS3505
ZBAA,1992-12-26 20:00,ZBAA 262000Z AUTO 00000KT 1 1/4SM M04/M08 A3018 RMK T10401080 IEM_DS3505
ZBAA,1992-12-26 21:00,ZBAA 262100Z AUTO 00000KT 7SM M03/M06 A3018 RMK SLP234 T10301062 57010 IEM_DS3505
ZBAA,1992-12-26 22:00,ZBAA 262200Z AUTO 00000KT 2 1/2SM M04/M08 A3018 RMK T10401080 IEM_DS3505
ZBAA,1992-12-26 23:00,ZBAA 262300Z AUTO 00000KT 6SM M05/M09 A3018 RMK T10501090 IEM_DS3505
ZBAA,1992-12-27 00:00,ZBAA 270000Z AUTO 04006KT 2SM M02/M07 A3018 RMK SLP237 T10221070 52003 IEM_DS3505
ZBAA,1992-12-27 01:00,ZBAA 270100Z AUTO 04006KT 6SM M02/M09 A3021 RMK SLP237 T10201090 IEM_DS3505
ZBAA,1992-12-27 02:00,ZBAA 270200Z AUTO 36002KT 6SM 01/M10 A3021 RMK T00101100 IEM_DS3505
ZBAA,1992-12-27 03:00,ZBAA 270300Z AUTO 34002KT 4SM 03/M08 A3021 RMK SLP238 T00261083 52001 IEM_DS3505
ZBAA,1992-12-27 04:00,ZBAA 270400Z AUTO 03004KT 6SM 03/M09 A3018 RMK T00301090 IEM_DS3505
ZBAA,1992-12-27 05:00,ZBAA 270500Z AUTO 04006KT 6SM 04/M10 A3015 RMK T00401100 IEM_DS3505
ZBAA,1992-12-27 06:00,ZBAA 270600Z AUTO 09006KT 6SM 04/M11 A3012 RMK SLP215 T00421112 4////1033 57022 IEM_DS3505
ZBAA,1992-12-27 07:00,ZBAA 270700Z AUTO 30004KT 6SM 04/M12 A3012 RMK T00401120 IEM_DS3505
ZBAA,1992-12-27 08:00,ZBAA 270800Z AUTO 03002KT 6SM 03/M13 A3015 RMK T00301130 IEM_DS3505
ZBAA,1992-12-27 09:00,ZBAA 270900Z AUTO 04004KT 6SM 03/M08 A3015 RMK SLP222 T00261083 52006 IEM_DS3505
ZBAA,1992-12-27 10:00,ZBAA 271000Z AUTO 03004KT 6SM 03/M12 A3018 RMK T00301120 IEM_DS3505
ZBAA,1992-12-27 11:00,ZBAA 271100Z AUTO 03002KT 6SM 03/M09 A3018 RMK T00301090 IEM_DS3505
ZBAA,1992-12-27 12:00,ZBAA 271200Z AUTO 36006KT 4SM 03/M09 RMK SLP236 T00261093 52014 IEM_DS3505
ZBAA,1992-12-27 13:00,ZBAA 271300Z AUTO 03004KT 6SM 01/M06 A3021 RMK T00101060 IEM_DS3505
ZBAA,1992-12-27 14:00,ZBAA 271400Z AUTO 03002KT 6SM 01/M06 A3021 RMK T00101060 IEM_DS3505
ZBAA,1992-12-27 15:00,ZBAA 271500Z AUTO 36004KT 6SM M00/M04 RMK SLP240 T10041039 52004 IEM_DS3505
ZBAA,1992-12-27 16:00,ZBAA 271600Z AUTO 00000KT 6SM M01/M05 A3021 RMK T10101050 IEM_DS3505
ZBAA,1992-12-27 18:00,ZBAA 271800Z AUTO 00000KT 6SM M02/M05 RMK SLP242 T10231050 40044//// 52002 IEM_DS3505
ZBAA,1992-12-27 20:00,ZBAA 272000Z AUTO 00000KT 7SM M03/M06 A3021 RMK T10301060 IEM_DS3505
ZBAA,1992-12-27 21:00,ZBAA 272100Z AUTO 00000KT 5SM M04/M06 A3021 RMK SLP242 T10371055 54000 IEM_DS3505
ZBAA,1992-12-27 22:00,ZBAA 272200Z AUTO 00000KT 7SM M05/M08 A3021 RMK T10501080 IEM_DS3505
ZBAA,1992-12-27 23:11,ZBAA 272311Z AUTO 06006KT 6SM RMK IEM_DS3505
ZBAA,1992-12-28 00:00,ZBAA 280000Z AUTO 00000KT 3SM M04/M06 RMK SLP249 T10421059 52007 IEM_DS3505
ZBAA,1992-12-28 01:00,ZBAA 280100Z AUTO 00000KT 7SM M04/M07 A3027 RMK T10401070 IEM_DS3505
ZBAA,1992-12-28 02:00,ZBAA 280200Z AUTO 00000KT 7SM M02/M07 A3027 RMK T10201070 IEM_DS3505
ZBAA,1992-12-28 03:00,ZBAA 280300Z AUTO 34002KT 2SM M00/M05 A3027 RMK SLP255 T10011046 52006 IEM_DS3505
ZBAA,1992-12-28 04:00,ZBAA 280400Z AUTO 00000KT 7SM 02/M05 A3024 RMK T00201050 IEM_DS3505
ZBAA,1992-12-28 05:00,ZBAA 280500Z AUTO 00000KT 6SM 03/M04 A3021 RMK T00301040 IEM_DS3505
ZBAA,1992-12-28 06:00,ZBAA 280600Z AUTO 20006KT 4SM 03/M08 A3018 RMK SLP236 T00331076 4////1045 57019 IEM_DS3505
ZBAA,1992-12-28 07:00,ZBAA 280700Z AUTO 14002KT 6SM 03/M05 A3018 RMK T00301050 IEM_DS3505
ZBAA,1992-12-28 08:00,ZBAA 280800Z AUTO 00000KT 6SM 02/M02 A3018 RMK T00201020 IEM_DS3505
ZBAA,1992-12-28 09:00,ZBAA 280900Z AUTO 20004KT 3SM 02/M07 A3021 RMK SLP239 T00251071 52003 IEM_DS3505
ZBAA,1992-12-28 10:00,ZBAA 281000Z AUTO 00000KT 5SM 00/M03 A3021 RMK T00001030 IEM_DS3505
ZBAA,1992-12-28 11:00,ZBAA 281100Z AUTO 00000KT 5SM M01/M05 A3024 RMK T10101050 IEM_DS3505
ZBAA,1992-12-28 12:00,ZBAA 281200Z AUTO 00000KT 4SM M01/M05 A3024 RMK SLP251 T10131049 52011 IEM_DS3505
ZBAA,1992-12-28 14:00,ZBAA 281400Z AUTO 00000KT 5SM M04/M06 A3027 RMK T10401060 IEM_DS3505
ZBAA,1992-12-28 15:00,ZBAA 281500Z AUTO 04002KT 4SM M03/M06 A3027 RMK SLP256 T10271055 52006 IEM_DS3505
ZBAA,1992-12-28 16:00,ZBAA 281600Z AUTO 00000KT 5SM M03/M08 A3027 RMK T10301080 IEM_DS3505
ZBAA,1992-12-28 17:00,ZBAA 281700Z AUTO 00000KT 5SM M03/M08 A3027 RMK T10301080 IEM_DS3505
ZBAA,1992-12-28 18:00,ZBAA 281800Z AUTO 00000KT 4SM M03/M07 RMK SLP257 T10301066 40035//// 52001 IEM_DS3505
ZBAA,1992-12-28 19:00,ZBAA 281900Z AUTO 00000KT 4SM M05/M09 RMK T10501090 IEM_DS3505
ZBAA,1992-12-28 20:00,ZBAA 282000Z AUTO 00000KT 3SM M05/M08 A3024 RMK T10501080 IEM_DS3505
ZBAA,1992-12-28 21:00,ZBAA 282100Z AUTO 32002KT 5SM M05/M07 A3024 RMK SLP253 T10461067 57004 IEM_DS3505
ZBAA,1992-12-28 22:00,ZBAA 282200Z AUTO 00000KT 3SM M07/M09 A3024 RMK T10701090 IEM_DS3505
ZBAA,1992-12-29 00:00,ZBAA 290000Z AUTO 04004KT 2SM M05/M08 A3024 RMK SLP255 T10531076 52001 IEM_DS3505
ZBAA,1992-12-29 01:00,ZBAA 290100Z AUTO 09004KT 2 1/2SM M05/M08 A3027 RMK SLP259 T10501080 52005 IEM_DS3505
ZBAA,1992-12-29 02:00,ZBAA 290200Z AUTO 00000KT 3SM M04/M08 A3027 RMK T10401080 IEM_DS3505
ZBAA,1992-12-29 03:00,ZBAA 290300Z AUTO 09004KT 1 1/2SM 00/M06 A3027 RMK SLP259 T00011063 52005 IEM_DS3505
ZBAA,1992-12-29 04:00,ZBAA 290400Z AUTO 00000KT 2 1/2SM 01/M03 A3024 RMK T00101030 IEM_DS3505
ZBAA,1992-12-29 05:00,ZBAA 290500Z AUTO 00000KT 2 1/2SM 02/M01 A3021 RMK T00201010 IEM_DS3505
ZBAA,1992-12-29 06:00,ZBAA 290600Z AUTO 20004KT 1 1/4SM 05/M06 A3018 RMK SLP234 T00461060 4////1058 57025 IEM_DS3505
ZBAA,1992-12-29 07:00,ZBAA 290700Z AUTO 00000KT 2SM 04/M01 A3018 RMK T00401010 IEM_DS3505
ZBAA,1992-12-29 08:00,ZBAA 290800Z AUTO 00000KT 2SM 03/M03 A3021 RMK T00301030 IEM_DS3505
ZBAA,1992-12-29 09:00,ZBAA 290900Z AUTO 20006KT 1 1/4SM 03/M05 RMK SLP244 T00341053 52010 IEM_DS3505
ZBAA,1992-12-29 10:00,ZBAA 291000Z AUTO 00000KT 2SM 00/M05 A3024 RMK T00001050 IEM_DS3505
ZBAA,1992-12-29 11:00,ZBAA 291100Z AUTO 00000KT 2SM M01/M04 A3024 RMK T10101040 IEM_DS3505
ZBAA,1992-12-29 12:00,ZBAA 291200Z AUTO 20004KT 2SM M01/M04 A3027 RMK SLP259 T10061045 52014 IEM_DS3505
ZBAA,1992-12-29 13:00,ZBAA 291300Z AUTO 00000KT 1 1/2SM M03/M05 A3027 RMK T10301050 IEM_DS3505
ZBAA,1992-12-29 14:00,ZBAA 291400Z AUTO 00000KT 1 1/2SM M03/M05 A3030 RMK T10301050 IEM_DS3505
ZBAA,1992-12-29 15:00,ZBAA 291500Z AUTO 32006KT 6SM M00/M07 A3033 RMK SLP272 T10011070 52014 IEM_DS3505
ZBAA,1992-12-29 16:00,ZBAA 291600Z AUTO 00000KT 1 1/2SM M04/M06 A3033 RMK T10401060 IEM_DS3505
ZBAA,1992-12-29 17:00,ZBAA 291700Z AUTO 33010KT 7SM M02/M11 A3036 RMK T10201110 IEM_DS3505
ZBAA,1992-12-29 18:00,ZBAA 291800Z AUTO 02006KT 12SM 01/M13 RMK SLP288 T00091133 40047//// 52017 IEM_DS3505
ZBAA,1992-12-29 19:00,ZBAA 291900Z AUTO 33006KT 7SM M01/M13 A3036 RMK T10101130 IEM_DS3505
ZBAA,1992-12-29 20:00,ZBAA 292000Z AUTO 33008KT 7SM M01/M16 A3039 RMK T10101160 IEM_DS3505
ZBAA,1992-12-29 21:00,ZBAA 292100Z AUTO 36010KT 9SM M02/M13 A3039 RMK SLP296 T10151128 52007 IEM_DS3505
ZBAA,1992-12-29 22:00,ZBAA 292200Z AUTO 00000KT 7SM M03/M14 A3042 RMK T10301140 IEM_DS3505
ZBAA,1992-12-29 23:00,ZBAA 292300Z AUTO 01008KT 6SM M02/ A3042 RMK IEM_DS3505
ZBAA,1992-12-30 00:00,ZBAA 300000Z AUTO 36010KT 16SM M01/M16 A3045 RMK SLP315 T10081164 52018 IEM_DS3505
ZBAA,1992-12-30 01:00,ZBAA 300100Z AUTO 36004KT 6SM M02/M16 A3047 RMK SLP311 T10201160 4////1026 IEM_DS3505
ZBAA,1992-12-30 02:00,ZBAA 300200Z AUTO 03010KT 6SM 00/M15 A3050 RMK T00001150 IEM_DS3505
ZBAA,1992-12-30 03:00,ZBAA 300300Z AUTO 36010KT 19SM 02/M17 A3050 RMK SLP329 T00251171 52015 IEM_DS3505
ZBAA,1992-12-30 04:00,ZBAA 300400Z AUTO 03008KT 7SM 02/M14 A3047 RMK T00201140 IEM_DS3505
ZBAA,1992-12-30 05:00,ZBAA 300500Z AUTO 03008KT 7SM 03/M07 A3045 RMK T00301070 IEM_DS3505
ZBAA,1992-12-30 06:00,ZBAA 300600Z AUTO 36004KT 19SM 06/M16 A3042 RMK SLP311 T00571163 4////1026 57017 IEM_DS3505
ZBAA,1992-12-30 07:00,ZBAA 300700Z AUTO 04006KT 7SM 04/M11 A3042 RMK T00401110 IEM_DS3505
ZBAA,1992-12-30 08:00,ZBAA 300800Z AUTO 00000KT 7SM 03/M08 A3042 RMK T00301080 IEM_DS3505
ZBAA,1992-12-30 09:00,ZBAA 300900Z AUTO 18004KT 5SM 04/M09 RMK SLP311 T00351094 57001 IEM_DS3505
ZBAA,1992-12-30 10:00,ZBAA 301000Z AUTO 00000KT 7SM 00/M09 A3045 RMK T00001090 IEM_DS3505
ZBAA,1992-12-30 11:00,ZBAA 301100Z AUTO 00000KT 7SM M02/M08 A3047 RMK T10201080 IEM_DS3505
ZBAA,1992-12-30 12:00,ZBAA 301200Z AUTO 20006KT 6SM 01/M09 A3050 RMK SLP332 T00091088 52021 IEM_DS3505
ZBAA,1992-12-30 13:00,ZBAA 301300Z AUTO 00000KT 7SM M03/M07 A3050 RMK T10301070 IEM_DS3505
ZBAA,1992-12-30 14:00,ZBAA 301400Z AUTO 00000KT 7SM M03/M07 A3050 RMK T10301070 IEM_DS3505
ZBAA,1992-12-30 15:00,ZBAA 301500Z AUTO 00000KT 6SM M02/M08 A3050 RMK SLP340 T10241075 52008 IEM_DS3505
ZBAA,1992-12-30 16:00,ZBAA 301600Z AUTO 00000KT 7SM M05/M13 A3050 RMK T10501130 IEM_DS3505
ZBAA,1992-12-30 18:00,ZBAA 301800Z AUTO 04004KT 6SM M04/M10 RMK SLP331 T10361105 40065//// 57009 IEM_DS3505
ZBAA,1992-12-30 20:00,ZBAA 302000Z AUTO 00000KT 7SM M07/M14 A3047 RMK T10701140 IEM_DS3505
ZBAA,1992-12-30 21:00,ZBAA 302100Z AUTO 00000KT 4SM M06/M10 A3045 RMK SLP321 T10551097 57011 IEM_DS3505
ZBAA,1992-12-30 22:00,ZBAA 302200Z AUTO 00000KT 7SM M06/M13 A3045 RMK T10601130 IEM_DS3505
ZBAA,1992-12-30 23:00,ZBAA 302300Z AUTO 00000KT 6SM M06/M13 A3045 RMK T10601130 IEM_DS3505
