station,valid,metar
ZBAA,1998-01-01 00:00,ZBAA 010000Z AUTO 25006KT 1 1/4SM M06/M10 A3012 RMK SLP211 T10651100 52011 IEM_DS3505
ZBAA,1998-01-01 01:00,ZBAA 010100Z AUTO 32004KT 4SM M03/M08 A3015 RMK SLP219 T10301080 IEM_DS3505
ZBAA,1998-01-01 02:00,ZBAA 010200Z AUTO 03004KT 3SM M01/M07 A3015 RMK SLP219 T10101070 IEM_DS3505
ZBAA,1998-01-01 03:00,ZBAA 010300Z AUTO 20006KT 2SM 02/M09 A3015 RMK SLP217 T00171089 52006 IEM_DS3505
ZBAA,1998-01-01 05:00,ZBAA 010500Z AUTO 00000KT 7SM 06/M12 A3006 RMK SLP186 T00601120 IEM_DS3505
ZBAA,1998-01-01 06:00,ZBAA 010600Z AUTO 18008KT 6SM 07/M13 A3003 RMK SLP185 T00661127 57031 IEM_DS3505
ZBAA,1998-01-01 07:00,ZBAA 010700Z AUTO 18008KT 4SM 05/M12 A3003 RMK SLP176 T00501120 IEM_DS3505
ZBAA,1998-01-01 08:00,ZBAA 010800Z AUTO 16006KT 4SM 04/M11 A3003 RMK SLP176 T00401110 IEM_DS3505
ZBAA,1998-01-01 09:00,ZBAA 010900Z AUTO 18004KT 6SM 03/M07 A3000 RMK SLP179 T00331072 57006 IEM_DS3505
ZBAA,1998-01-01 10:00,ZBAA 011000Z AUTO 15002KT 7SM 01/M09 A3003 RMK SLP177 T00101090 IEM_DS3505
ZBAA,1998-01-01 11:00,ZBAA 011100Z AUTO 10002KT 7SM M01/M08 A3003 RMK SLP177 T10101080 IEM_DS3505
ZBAA,1998-01-01 12:00,ZBAA 011200Z AUTO 16002KT 7SM M00/M08 A3003 RMK SLP175 T10041083 57005 IEM_DS3505
ZBAA,1998-01-01 13:00,ZBAA 011300Z AUTO 12002KT 7SM M01/M08 A3003 RMK SLP177 T10101080 IEM_DS3505
ZBAA,1998-01-01 14:00,ZBAA 011400Z AUTO 14004KT 7SM M02/M08 A3000 RMK SLP168 T10201080 IEM_DS3505
ZBAA,1998-01-01 15:00,ZBAA 011500Z AUTO 29006KT 6SM M02/M07 A3003 RMK SLP174 T10191073 54000 IEM_DS3505
ZBAA,1998-01-01 16:00,ZBAA 011600Z AUTO 00000KT 7SM M03/M07 A3000 RMK SLP168 T10301070 IEM_DS3505
ZBAA,1998-01-01 17:00,ZBAA 011700Z AUTO 07002KT 7SM M03/M07 A3000 RMK SLP168 T10301070 IEM_DS3505
ZBAA,1998-01-01 18:00,ZBAA 011800Z AUTO 00000KT 6SM M04/M07 A3000 RMK SLP167 T10371074 57007 IEM_DS3505
ZBAA,1998-01-01 19:00,ZBAA 011900Z AUTO 33002KT 7SM M04/M07 A3000 RMK SLP168 T10401070 IEM_DS3505
ZBAA,1998-01-01 20:00,ZBAA 012000Z AUTO 00000KT 3SM M04/M06 A3000 RMK SLP168 T10401060 IEM_DS3505
ZBAA,1998-01-01 21:00,ZBAA 012100Z AUTO 16004KT 6SM M05/M07 A3000 RMK SLP170 T10481066 52003 IEM_DS3505
ZBAA,1998-01-01 22:00,ZBAA 012200Z AUTO 15002KT 1 1/2SM M06/M07 A3003 RMK SLP179 T10601070 IEM_DS3505
ZBAA,1998-01-01 23:00,ZBAA 012300Z AUTO 00000KT 1 1/4SM M05/M07 A3003 RMK SLP178 T10501070 IEM_DS3505
ZBAA,1998-01-02 00:00,ZBAA 020000Z AUTO 18004KT 3SM M06/M07 A3006 RMK SLP189 T10561071 52018 IEM_DS3505
ZBAA,1998-01-02 01:00,ZBAA 020100Z AUTO ////02KT 1SM M02/M06 A3009 RMK SLP198 T10201060 IEM_DS3505
ZBAA,1998-01-02 02:00,ZBAA 020200Z AUTO 13002KT 1 1/4SM M01/M05 A3012 RMK SLP209 T10101050 IEM_DS3505
ZBAA,1998-01-02 03:00,ZBAA 020300Z AUTO 27004KT 2 1/2SM 03/M07 A3012 RMK SLP205 T00301068 52017 IEM_DS3505
ZBAA,1998-01-02 04:00,ZBAA 020400Z AUTO 29014KT 7SM 06/M11 A3009 RMK SLP196 T00601110 IEM_DS3505
ZBAA,1998-01-02 06:00,ZBAA 020600Z AUTO 04002KT 6SM 08/M10 A3003 RMK SLP188 T00831098 57017 IEM_DS3505
ZBAA,1998-01-02 07:00,ZBAA 020700Z AUTO 31014G23KT 7SM 07/M14 A3006 RMK SLP186 T00701140 IEM_DS3505
ZBAA,1998-01-02 08:00,ZBAA 020800Z AUTO 29006KT 6SM 07/M12 A3006 RMK SLP186 T00701120 IEM_DS3505
ZBAA,1998-01-02 09:00,ZBAA 020900Z AUTO 18004KT 5SM 05/M06 A3009 RMK SLP202 T00461060 52014 IEM_DS3505
ZBAA,1998-01-02 10:00,ZBAA 021000Z AUTO 29006KT 6SM 05/M12 A3012 RMK SLP207 T00501120 IEM_DS3505
ZBAA,1998-01-02 11:00,ZBAA 021100Z AUTO 23006KT 6SM 04/M09 A3015 RMK SLP217 T00401090 IEM_DS3505
ZBAA,1998-01-02 12:00,ZBAA 021200Z AUTO 20002KT 6SM 02/M07 A3015 RMK SLP219 T00221071 52016 IEM_DS3505
ZBAA,1998-01-02 13:00,ZBAA 021300Z AUTO 22006KT 6SM 04/M08 A3015 RMK SLP217 T00401080 IEM_DS3505
ZBAA,1998-01-02 14:00,ZBAA 021400Z AUTO 05002KT 6SM 01/M07 A3018 RMK SLP228 T00101070 IEM_DS3505
ZBAA,1998-01-02 15:00,ZBAA 021500Z AUTO 20002KT 6SM 02/M06 A3018 RMK SLP226 T00151056 52008 IEM_DS3505
ZBAA,1998-01-02 16:00,ZBAA 021600Z AUTO 07002KT 4SM M01/M07 A3018 RMK SLP229 T10101070 IEM_DS3505
ZBAA,1998-01-02 17:00,ZBAA 021700Z AUTO 00000KT 2 1/2SM M02/M08 A3018 RMK SLP229 T10201080 IEM_DS3505
ZBAA,1998-01-02 18:00,ZBAA 021800Z AUTO 22004KT 6SM 00/M07 A3018 RMK SLP230 T00041067 52004 IEM_DS3505
ZBAA,1998-01-02 19:00,ZBAA 021900Z AUTO 36006KT 2 1/2SM M04/M08 A3021 RMK SLP240 T10401080 IEM_DS3505
ZBAA,1998-01-02 20:00,ZBAA 022000Z AUTO 34006KT 4SM M02/M09 A3018 RMK SLP229 T10201090 IEM_DS3505
ZBAA,1998-01-02 21:00,ZBAA 022100Z AUTO 36004KT 6SM 00/M08 A3021 RMK SLP236 T00011085 52006 IEM_DS3505
ZBAA,1998-01-02 22:00,ZBAA 022200Z AUTO 33012KT 6SM 01/M12 A3027 RMK SLP258 T00101120 IEM_DS3505
ZBAA,1998-01-02 23:00,ZBAA 022300Z AUTO 33012KT 7SM 00/M14 A3033 RMK SLP279 T00001140 IEM_DS3505
ZBAA,1998-01-03 00:00,ZBAA 030000Z AUTO 34014G39KT 6SM M01/M16 A3036 RMK SLP280 T10081159 52043 IEM_DS3505
ZBAA,1998-01-03 01:00,ZBAA 030100Z AUTO 29014G23KT 7SM M02/M23 A3042 RMK SLP311 T10201230 IEM_DS3505
ZBAA,1998-01-03 02:00,ZBAA 030200Z AUTO 28017G29KT 7SM M03/M27 A3045 RMK SLP321 T10301270 IEM_DS3505
ZBAA,1998-01-03 03:00,ZBAA 030300Z AUTO 34014KT 5SM M02/M31 A3045 RMK SLP319 T10191313 52039 IEM_DS3505
ZBAA,1998-01-03 04:00,ZBAA 030400Z AUTO 29019G39KT 4SM M03/ A3042 RMK SLP311 IEM_DS3505
ZBAA,1998-01-03 05:00,ZBAA 030500Z AUTO 30019G29KT 4SM M03/M25 A3042 RMK SLP311 T10301250 IEM_DS3505
ZBAA,1998-01-03 06:00,ZBAA 030600Z AUTO 32019G27KT 4SM M03/M28 A3045 RMK SLP315 T10291284 4////1030 57004 IEM_DS3505
ZBAA,1998-01-03 08:00,ZBAA 030800Z AUTO 33021G37KT 7SM M04/M25 A3050 RMK SLP338 T10401250 IEM_DS3505
ZBAA,1998-01-03 09:00,ZBAA 030900Z AUTO 29021KT 6SM M04/M30 A3053 RMK SLP335 T10391300 52020 IEM_DS3505
ZBAA,1998-01-03 10:00,ZBAA 031000Z AUTO 33025G37KT 7SM M05/M25 A3056 RMK SLP359 T10501250 IEM_DS3505
ZBAA,1998-01-03 11:00,ZBAA 031100Z AUTO 32027G37KT 7SM M06/M26 A3059 RMK SLP369 T10601260 IEM_DS3505
ZBAA,1998-01-03 12:00,ZBAA 031200Z AUTO 32010KT 12SM M05/M30 A3062 RMK SLP369 T10541296 52033 IEM_DS3505
ZBAA,1998-01-03 13:00,ZBAA 031300Z AUTO 34010KT 7SM M07/M26 A3062 RMK SLP379 T10701260 IEM_DS3505
ZBAA,1998-01-03 14:00,ZBAA 031400Z AUTO 33010KT 7SM M07/M26 A3062 RMK SLP379 T10701260 IEM_DS3505
ZBAA,1998-01-03 15:00,ZBAA 031500Z AUTO 34012KT 16SM M07/M33 A3065 RMK SLP376 T10691334 52007 IEM_DS3505
ZBAA,1998-01-03 17:00,ZBAA 031700Z AUTO 34004KT 7SM M09/M28 A3062 RMK SLP380 T10901280 IEM_DS3505
ZBAA,1998-01-03 19:00,ZBAA 031900Z AUTO 33008KT 7SM M09/M29 A3056 RMK SLP360 T10901290 IEM_DS3505
ZBAA,1998-01-03 20:00,ZBAA 032000Z AUTO 29004KT 7SM M09/M29 A3053 RMK SLP350 T10901290 IEM_DS3505
ZBAA,1998-01-03 21:00,ZBAA 032100Z AUTO 20006KT 12SM M10/M31 A3050 RMK SLP338 T10991312 57022 IEM_DS3505
ZBAA,1998-01-03 22:00,ZBAA 032200Z AUTO 31004KT 7SM M08/M29 A3050 RMK SLP339 T10801290 IEM_DS3505
ZBAA,1998-01-03 23:00,ZBAA 032300Z AUTO 23006KT 7SM M09/M28 A3047 RMK SLP330 T10901280 IEM_DS3505
ZBAA,1998-01-04 00:00,ZBAA 040000Z AUTO 20004KT 7SM M11/M26 A3047 RMK SLP325 T11071257 57013 IEM_DS3505
ZBAA,1998-01-04 01:00,ZBAA 040100Z AUTO 22012KT 7SM M07/M27 A3045 RMK SLP322 T10701270 IEM_DS3505
ZBAA,1998-01-04 04:00,ZBAA 040400Z AUTO 13004KT 7SM M03/M25 A3036 RMK SLP290 T10301250 IEM_DS3505
ZBAA,1998-01-04 05:00,ZBAA 040500Z AUTO 20006G16KT 7SM M02/M27 A3030 RMK SLP269 T10201270 IEM_DS3505
ZBAA,1998-01-04 08:00,ZBAA 040800Z AUTO 21010KT 7SM M01/M25 A3021 RMK SLP239 T10101250 IEM_DS3505
ZBAA,1998-01-04 09:00,ZBAA 040900Z AUTO 20006KT 11SM M01/M26 A3021 RMK SLP241 T10121265 57019 IEM_DS3505
ZBAA,1998-01-04 10:00,ZBAA 041000Z AUTO 21006KT 7SM M02/M23 A3021 RMK SLP239 T10201230 IEM_DS3505
ZBAA,1998-01-04 11:00,ZBAA 041100Z AUTO 20008KT 7SM M02/M24 A3018 RMK SLP229 T10201240 IEM_DS3505
ZBAA,1998-01-04 12:00,ZBAA 041200Z AUTO 18004KT 12SM M03/M21 A3027 RMK SLP234 T10331209 57008 IEM_DS3505
ZBAA,1998-01-04 13:00,ZBAA 041300Z AUTO 18008KT 7SM M05/M22 A3018 RMK SLP230 T10501220 IEM_DS3505
ZBAA,1998-01-04 14:00,ZBAA 041400Z AUTO 07004KT 4SM M06/M21 A3015 RMK SLP220 T10601210 IEM_DS3505
ZBAA,1998-01-04 15:00,ZBAA 041500Z AUTO 29004KT 12SM M05/M24 A3018 RMK SLP226 T10491236 57007 IEM_DS3505
ZBAA,1998-01-04 16:00,ZBAA 041600Z AUTO 27010KT 4SM 00/M25 A3015 RMK SLP218 T00001250 IEM_DS3505
ZBAA,1998-01-04 17:00,ZBAA 041700Z AUTO 29008KT 4SM 00/M26 A3015 RMK SLP218 T00001260 IEM_DS3505
ZBAA,1998-01-04 18:00,ZBAA 041800Z AUTO 00000KT 6SM M06/M21 A3012 RMK SLP216 T10611212 57010 IEM_DS3505
ZBAA,1998-01-04 19:00,ZBAA 041900Z AUTO 28006KT 4SM 00/M26 A3012 RMK SLP208 T00001260 IEM_DS3505
ZBAA,1998-01-04 20:00,ZBAA 042000Z AUTO 28006KT 5SM M01/M25 A3009 RMK SLP198 T10101250 IEM_DS3505
ZBAA,1998-01-04 22:00,ZBAA 042200Z AUTO 31012KT 7SM 00/M26 A3009 RMK SLP197 T00001260 IEM_DS3505
ZBAA,1998-01-04 23:00,ZBAA 042300Z AUTO 28010KT 7SM M01/M27 A3012 RMK SLP209 T10101270 IEM_DS3505
ZBAA,1998-01-05 00:00,ZBAA 050000Z AUTO 20002KT 4SM M08/M17 A3012 RMK SLP217 T10821174 52012 IEM_DS3505
ZBAA,1998-01-05 02:00,ZBAA 050200Z AUTO 30016G27KT 7SM 01/M22 A3018 RMK SLP228 T00101220 IEM_DS3505
ZBAA,1998-01-05 03:00,ZBAA 050300Z AUTO 32012KT 12SM 02/M21 A3018 RMK SLP231 T00211214 52014 IEM_DS3505
ZBAA,1998-01-05 04:00,ZBAA 050400Z AUTO 28017KT 7SM 02/M22 A3018 RMK SLP228 T00201220 IEM_DS3505
ZBAA,1998-01-05 05:00,ZBAA 050500Z AUTO 28014G23KT 7SM 02/M23 A3015 RMK SLP218 T00201230 IEM_DS3505
ZBAA,1998-01-05 06:00,ZBAA 050600Z AUTO 34012KT 12SM 03/M28 A3015 RMK SLP223 T00301277 57008 IEM_DS3505
ZBAA,1998-01-05 07:00,ZBAA 050700Z AUTO 28014G23KT 7SM 03/M23 A3015 RMK SLP218 T00301230 IEM_DS3505
ZBAA,1998-01-05 08:00,ZBAA 050800Z AUTO 30014KT 7SM 03/M23 A3018 RMK SLP228 T00301230 IEM_DS3505
ZBAA,1998-01-05 09:00,ZBAA 050900Z AUTO 32006KT 12SM 02/M25 A3018 RMK SLP230 T00251251 52007 IEM_DS3505
ZBAA,1998-01-05 10:00,ZBAA 051000Z AUTO 29012KT 7SM 02/M21 A3021 RMK SLP238 T00201210 IEM_DS3505
ZBAA,1998-01-05 11:00,ZBAA 051100Z AUTO 29010KT 7SM 01/M22 A3024 RMK SLP248 T00101220 IEM_DS3505
ZBAA,1998-01-05 12:00,ZBAA 051200Z AUTO 32010KT 12SM 02/M26 A3027 RMK SLP255 T00211260 52025 IEM_DS3505
ZBAA,1998-01-05 13:00,ZBAA 051300Z AUTO 27006KT 7SM 00/M23 A3030 RMK SLP269 T00001230 IEM_DS3505
ZBAA,1998-01-05 14:00,ZBAA 051400Z AUTO 26006KT 7SM M01/M22 A3033 RMK SLP279 T10101220 IEM_DS3505
ZBAA,1998-01-05 15:00,ZBAA 051500Z AUTO 32006KT 12SM M00/M23 A3033 RMK SLP275 T10011230 52020 IEM_DS3505
ZBAA,1998-01-05 16:00,ZBAA 051600Z AUTO 28010KT 7SM 00/M22 A3033 RMK SLP279 T00001220 IEM_DS3505
ZBAA,1998-01-05 17:00,ZBAA 051700Z AUTO 28008KT 7SM M01/M21 A3033 RMK SLP279 T10101210 IEM_DS3505
ZBAA,1998-01-05 19:00,ZBAA 051900Z AUTO 30006KT 7SM M01/M21 A3033 RMK SLP279 T10101210 IEM_DS3505
ZBAA,1998-01-05 21:00,ZBAA 052100Z AUTO 22004KT 12SM M04/M21 A3030 RMK SLP274 T10401209 57001 IEM_DS3505
ZBAA,1998-01-05 22:00,ZBAA 052200Z AUTO 25006KT 7SM M03/M21 A3033 RMK SLP280 T10301210 IEM_DS3505
ZBAA,1998-01-05 23:00,ZBAA 052300Z AUTO 17004KT 7SM M04/M19 A3036 RMK SLP290 T10401190 IEM_DS3505
ZBAA,1998-01-06 00:00,ZBAA 060000Z AUTO 20004KT 12SM M06/M18 A3036 RMK SLP287 T10601181 52013 IEM_DS3505
ZBAA,1998-01-06 01:00,ZBAA 060100Z AUTO 22004KT 7SM M02/M17 A3039 RMK SLP301 T10201170 IEM_DS3505
ZBAA,1998-01-06 02:00,ZBAA 060200Z AUTO ////02KT 7SM 01/M19 A3039 RMK SLP300 T00101190 IEM_DS3505
ZBAA,1998-01-06 04:00,ZBAA 060400Z AUTO ////04KT 7SM 04/M20 A3036 RMK SLP288 T00401200 IEM_DS3505
ZBAA,1998-01-06 05:00,ZBAA 060500Z AUTO 29006G16KT 7SM 05/M20 A3033 RMK SLP278 T00501200 IEM_DS3505
ZBAA,1998-01-06 06:00,ZBAA 060600Z AUTO 20010KT 12SM 05/M14 A3033 RMK SLP275 T00471142 57017 IEM_DS3505
ZBAA,1998-01-06 07:00,ZBAA 060700Z AUTO 20008KT 5SM 05/M19 A3030 RMK SLP268 T00501190 IEM_DS3505
ZBAA,1998-01-06 08:00,ZBAA 060800Z AUTO 21008KT 6SM 05/M19 A3030 RMK SLP268 T00501190 IEM_DS3505
ZBAA,1998-01-06 09:00,ZBAA 060900Z AUTO 20004KT 16SM 03/M18 A3030 RMK SLP266 T00311180 57010 IEM_DS3505
ZBAA,1998-01-06 10:00,ZBAA 061000Z AUTO 21010KT 6SM 03/M19 A3030 RMK SLP268 T00301190 IEM_DS3505
ZBAA,1998-01-06 11:00,ZBAA 061100Z AUTO 21006KT 6SM 03/M19 A3033 RMK SLP278 T00301190 IEM_DS3505
ZBAA,1998-01-06 12:00,ZBAA 061200Z AUTO 22006KT 16SM 00/M18 A3033 RMK SLP276 T00051182 52010 IEM_DS3505
ZBAA,1998-01-06 13:00,ZBAA 061300Z AUTO 15002KT 6SM M01/M16 A3030 RMK SLP269 T10101160 IEM_DS3505
ZBAA,1998-01-06 14:00,ZBAA 061400Z AUTO 00000KT 6SM M01/M14 A3033 RMK SLP279 T10101140 IEM_DS3505
ZBAA,1998-01-06 16:00,ZBAA 061600Z AUTO 09002KT 6SM M02/M15 A3033 RMK SLP279 T10201150 IEM_DS3505
ZBAA,1998-01-06 17:00,ZBAA 061700Z AUTO 06002KT 6SM M02/M14 A3030 RMK SLP269 T10201140 IEM_DS3505
ZBAA,1998-01-06 18:00,ZBAA 061800Z AUTO 07004KT 16SM M03/M16 A3027 RMK SLP255 T10321161 57018 IEM_DS3505
ZBAA,1998-01-06 20:00,ZBAA 062000Z AUTO 00000KT 4SM M03/M15 A3027 RMK SLP260 T10301150 IEM_DS3505
ZBAA,1998-01-06 21:00,ZBAA 062100Z AUTO 04004KT 16SM M04/M15 A3024 RMK SLP250 T10451150 57006 IEM_DS3505
ZBAA,1998-01-06 22:00,ZBAA 062200Z AUTO 01002KT 2 1/2SM M05/M14 A3024 RMK SLP250 T10501140 IEM_DS3505
ZBAA,1998-01-06 23:00,ZBAA 062300Z AUTO 36004KT 2 1/2SM M06/M14 A3024 RMK SLP250 T10601140 IEM_DS3505
ZBAA,1998-01-07 00:00,ZBAA 070000Z AUTO 02004KT 2 1/2SM M04/M14 A3024 RMK SLP248 T10361140 57002 IEM_DS3505
ZBAA,1998-01-07 01:00,ZBAA 070100Z AUTO 00000KT 1 1/2SM M04/M12 A3027 RMK SLP260 T10401120 IEM_DS3505
ZBAA,1998-01-07 02:00,ZBAA 070200Z AUTO 36004KT 2SM M02/M12 A3027 RMK SLP259 T10201120 IEM_DS3505
ZBAA,1998-01-07 03:00,ZBAA 070300Z AUTO 04004KT 2 1/2SM M00/M14 A3024 RMK SLP245 T10031144 57003 IEM_DS3505
ZBAA,1998-01-07 04:00,ZBAA 070400Z AUTO 00000KT 3SM 02/M13 A3021 RMK SLP238 T00201130 IEM_DS3505
ZBAA,1998-01-07 05:00,ZBAA 070500Z AUTO ////02KT 3SM 02/M15 A3018 RMK SLP228 T00201150 IEM_DS3505
ZBAA,1998-01-07 06:00,ZBAA 070600Z AUTO 02002KT 2 1/2SM 02/M13 A3015 RMK SLP221 T00251131 57024 IEM_DS3505
ZBAA,1998-01-07 07:00,ZBAA 070700Z AUTO 14004KT 3SM 03/M14 A3015 RMK SLP218 T00301140 IEM_DS3505
ZBAA,1998-01-07 08:00,ZBAA 070800Z AUTO 08002KT 3SM 03/M14 A3015 RMK SLP218 T00301140 IEM_DS3505
ZBAA,1998-01-07 09:00,ZBAA 070900Z AUTO 11004KT 2 1/2SM 01/M13 A3015 RMK SLP219 T00071130 57002 IEM_DS3505
ZBAA,1998-01-07 10:00,ZBAA 071000Z AUTO 07002KT 2SM 01/M13 A3015 RMK SLP218 T00101130 IEM_DS3505
ZBAA,1998-01-07 11:00,ZBAA 071100Z AUTO 00000KT 2SM 00/M13 A3015 RMK SLP218 T00001130 IEM_DS3505
ZBAA,1998-01-07 12:00,ZBAA 071200Z AUTO 00000KT 4SM 00/M10 A3015 RMK SLP220 T00001097 52001 IEM_DS3505
ZBAA,1998-01-07 13:00,ZBAA 071300Z AUTO 00000KT 2SM 00/M13 A3015 RMK SLP218 T00001130 IEM_DS3505
ZBAA,1998-01-07 14:00,ZBAA 071400Z AUTO 00000KT 2SM M02/M13 A3015 RMK SLP219 T10201130 IEM_DS3505
ZBAA,1998-01-07 15:00,ZBAA 071500Z AUTO 02004KT 6SM M03/M11 A3015 RMK SLP216 T10311108 57004 IEM_DS3505
ZBAA,1998-01-07 16:00,ZBAA 071600Z AUTO 00000KT 1 1/2SM M03/M12 A3015 RMK SLP219 T10301120 IEM_DS3505
ZBAA,1998-01-07 17:00,ZBAA 071700Z AUTO 00000KT 1 1/2SM M05/M12 A3015 RMK SLP220 T10501120 IEM_DS3505
ZBAA,1998-01-07 18:00,ZBAA 071800Z AUTO 04006KT 6SM M04/M11 A3015 RMK SLP212 T10391114 57004 IEM_DS3505
ZBAA,1998-01-07 21:00,ZBAA 072100Z AUTO 07006KT 2SM M03/M05 A3012 RMK SLP209 T10341049 57003 IEM_DS3505
ZBAA,1998-01-07 22:00,ZBAA 072200Z AUTO 14002KT 1SM M05/M09 A3015 RMK SLP220 T10501090 IEM_DS3505
ZBAA,1998-01-08 00:00,ZBAA 080000Z AUTO 09006KT 1SM M04/M06 A3015 RMK SLP223 T10381059 52014 IEM_DS3505
ZBAA,1998-01-08 01:00,ZBAA 080100Z AUTO 35002KT 1SM M04/M08 A3018 RMK SLP230 T10401080 IEM_DS3505
ZBAA,1998-01-08 02:00,ZBAA 080200Z AUTO 02002KT 1 1/4SM M03/M05 A3018 RMK SLP229 T10301050 IEM_DS3505
ZBAA,1998-01-08 03:00,ZBAA 080300Z AUTO 00000KT 1 1/4SM M02/M05 A3018 RMK SLP225 T10181052 52002 IEM_DS3505
ZBAA,1998-01-08 04:00,ZBAA 080400Z AUTO 11004KT 2SM M01/M05 A3015 RMK SLP219 T10101050 IEM_DS3505
ZBAA,1998-01-08 05:00,ZBAA 080500Z AUTO ////02KT 2SM 00/M05 A3012 RMK SLP208 T00001050 IEM_DS3505
ZBAA,1998-01-08 06:00,ZBAA 080600Z AUTO 00000KT 1 1/2SM 02/M04 A3012 RMK SLP206 T00181044 57019 IEM_DS3505
ZBAA,1998-01-08 08:00,ZBAA 080800Z AUTO 15002KT 2SM 01/M05 A3009 RMK SLP197 T00101050 IEM_DS3505
ZBAA,1998-01-08 09:00,ZBAA 080900Z AUTO 00000KT 1 1/4SM 00/M05 A3012 RMK SLP207 T00031049 52001 IEM_DS3505
ZBAA,1998-01-08 11:00,ZBAA 081100Z AUTO 09002KT 1 1/4SM M03/M05 A3018 RMK SLP229 T10301050 IEM_DS3505
ZBAA,1998-01-08 13:00,ZBAA 081300Z AUTO 00000KT 1SM M04/M06 A3018 RMK SLP230 T10401060 IEM_DS3505
ZBAA,1998-01-08 14:00,ZBAA 081400Z AUTO 36002KT 1SM M04/M05 A3021 RMK SLP240 T10401050 IEM_DS3505
ZBAA,1998-01-08 15:00,ZBAA 081500Z AUTO 00000KT 1 1/4SM M04/M06 A3021 RMK SLP235 T10371058 52007 IEM_DS3505
ZBAA,1998-01-08 16:00,ZBAA 081600Z AUTO 02002KT 1SM M03/M05 A3021 RMK SLP239 T10301050 IEM_DS3505
ZBAA,1998-01-08 17:00,ZBAA 081700Z AUTO 35002KT 1SM M04/M06 A3021 RMK SLP240 T10401060 IEM_DS3505
ZBAA,1998-01-08 18:00,ZBAA 081800Z AUTO 02004KT 1SM M04/M06 A3021 RMK SLP237 T10431060 52002 IEM_DS3505
ZBAA,1998-01-08 19:00,ZBAA 081900Z AUTO ////02KT 1SM M04/M06 A3021 RMK SLP240 T10401060 IEM_DS3505
ZBAA,1998-01-08 20:00,ZBAA 082000Z AUTO 22002KT 1SM M03/M06 A3021 RMK SLP239 T10301060 IEM_DS3505
ZBAA,1998-01-08 21:00,ZBAA 082100Z AUTO 02002KT 1/2SM M04/M06 A3021 RMK SLP238 T10361055 52001 IEM_DS3505
ZBAA,1998-01-08 22:00,ZBAA 082200Z AUTO 35002KT 1SM M04/M06 A3021 RMK SLP240 T10401060 IEM_DS3505
ZBAA,1998-01-09 00:00,ZBAA 090000Z AUTO 02004KT 3/8SM M02/M05 A3024 RMK SLP243 T10251050 52005 IEM_DS3505
ZBAA,1998-01-09 01:00,ZBAA 090100Z AUTO 33002KT 1SM M03/M06 A3024 RMK SLP249 T10301060 IEM_DS3505
ZBAA,1998-01-09 02:00,ZBAA 090200Z AUTO 28002KT 1SM M02/M05 A3024 RMK SLP249 T10201050 IEM_DS3505
ZBAA,1998-01-09 03:00,ZBAA 090300Z AUTO 07004KT 1SM M00/M04 A3024 RMK SLP246 T10041043 52003 IEM_DS3505
ZBAA,1998-01-09 04:00,ZBAA 090400Z AUTO 01002KT 1SM 00/M05 A3021 RMK SLP239 T00001050 IEM_DS3505
ZBAA,1998-01-09 05:00,ZBAA 090500Z AUTO 01002KT 1 1/4SM 01/M05 A3018 RMK SLP228 T00101050 IEM_DS3505
ZBAA,1998-01-09 06:00,ZBAA 090600Z AUTO 14004KT 1 1/2SM 02/M05 A3025 RMK SLP224 T00241048 57022 IEM_DS3505
ZBAA,1998-01-09 07:00,ZBAA 090700Z AUTO 00000KT 1 1/4SM 02/M04 A3015 RMK SLP218 T00201040 IEM_DS3505
ZBAA,1998-01-09 08:00,ZBAA 090800Z AUTO 00000KT 1 1/4SM 02/M05 A3018 RMK SLP228 T00201050 IEM_DS3505
ZBAA,1998-01-09 09:00,ZBAA 090900Z AUTO 16002KT 1 1/4SM 01/M04 A3018 RMK SLP230 T00101040 52006 IEM_DS3505
ZBAA,1998-01-09 11:00,ZBAA 091100Z AUTO 00000KT 1SM 00/M04 A3024 RMK SLP249 T00001040 IEM_DS3505
ZBAA,1998-01-09 12:00,ZBAA 091200Z AUTO 16004KT 2SM M01/M05 A3027 RMK SLP251 T10141047 52021 IEM_DS3505
ZBAA,1998-01-09 13:00,ZBAA 091300Z AUTO 00000KT 1SM 00/M04 A3027 RMK SLP259 T00001040 IEM_DS3505
ZBAA,1998-01-09 14:00,ZBAA 091400Z AUTO 00000KT 1SM M01/M04 A3030 RMK SLP269 T10101040 IEM_DS3505
ZBAA,1998-01-09 15:00,ZBAA 091500Z AUTO 00000KT 5SM M02/M04 A3030 RMK SLP265 T10181044 52014 IEM_DS3505
ZBAA,1998-01-09 16:00,ZBAA 091600Z AUTO 35004KT 1SM M02/M05 A3033 RMK SLP279 T10201050 IEM_DS3505
ZBAA,1998-01-09 17:00,ZBAA 091700Z AUTO 35006KT 1SM M02/M05 A3033 RMK SLP279 T10201050 IEM_DS3505
ZBAA,1998-01-09 18:00,ZBAA 091800Z AUTO 07004KT 6SM M02/M06 A3038 RMK SLP270 T10211059 52005 IEM_DS3505
ZBAA,1998-01-09 20:00,ZBAA 092000Z AUTO 02006KT 1 1/2SM 00/M08 A3033 RMK SLP279 T00001080 IEM_DS3505
ZBAA,1998-01-09 21:00,ZBAA 092100Z AUTO 11004KT 2 1/2SM M03/M06 A3036 RMK SLP281 T10261057 52011 IEM_DS3505
ZBAA,1998-01-09 22:00,ZBAA 092200Z AUTO 22002KT 1SM M03/M05 A3036 RMK SLP290 T10301050 IEM_DS3505
ZBAA,1998-01-09 23:00,ZBAA 092300Z AUTO 26002KT 1SM M02/M05 A3039 RMK SLP301 T10201050 IEM_DS3505
ZBAA,1998-01-10 00:00,ZBAA 100000Z AUTO 04002KT 2SM M02/M08 A3042 RMK SLP309 T10191084 52028 IEM_DS3505
ZBAA,1998-01-10 01:00,ZBAA 100100Z AUTO 20004KT 1SM M01/M07 A3045 RMK SLP320 T10101070 IEM_DS3505
ZBAA,1998-01-10 02:00,ZBAA 100200Z AUTO 21004KT 1 1/4SM 00/M08 A3045 RMK SLP320 T00001080 IEM_DS3505
ZBAA,1998-01-10 03:00,ZBAA 100300Z AUTO 00000KT 5SM 00/M10 A3045 RMK SLP317 T00041096 52008 IEM_DS3505
ZBAA,1998-01-10 05:00,ZBAA 100500Z AUTO 19004KT 2 1/2SM 01/M10 A3042 RMK SLP310 T00101100 IEM_DS3505
ZBAA,1998-01-10 06:00,ZBAA 100600Z AUTO 18006G16KT 5SM 02/M12 A3039 RMK SLP298 T00211115 57019 IEM_DS3505
ZBAA,1998-01-10 07:00,ZBAA 100700Z AUTO 17006KT 3SM 02/M10 A3039 RMK SLP300 T00201100 IEM_DS3505
ZBAA,1998-01-10 08:00,ZBAA 100800Z AUTO 18006KT 4SM 01/M11 A3039 RMK SLP300 T00101110 IEM_DS3505
ZBAA,1998-01-10 09:00,ZBAA 100900Z AUTO 20004KT 5SM 00/M10 A3039 RMK SLP294 T00051099 57004 IEM_DS3505
ZBAA,1998-01-10 10:00,ZBAA 101000Z AUTO 16004KT 4SM M02/M10 A3039 RMK SLP301 T10201100 IEM_DS3505
ZBAA,1998-01-10 11:00,ZBAA 101100Z AUTO 16002KT 3SM M02/M10 A3042 RMK SLP311 T10201100 IEM_DS3505
ZBAA,1998-01-10 12:00,ZBAA 101200Z AUTO 18004KT 5SM M03/M09 A3042 RMK SLP306 T10311094 52012 IEM_DS3505
ZBAA,1998-01-10 14:00,ZBAA 101400Z AUTO 12002KT 2SM M06/M10 A3042 RMK SLP312 T10601100 IEM_DS3505
ZBAA,1998-01-10 15:00,ZBAA 101500Z AUTO 20004KT 5SM M04/M10 A3045 RMK SLP307 T10391100 52001 IEM_DS3505
ZBAA,1998-01-10 16:00,ZBAA 101600Z AUTO 19006KT 3SM M05/M09 A3045 RMK SLP321 T10501090 IEM_DS3505
ZBAA,1998-01-10 17:00,ZBAA 101700Z AUTO 16002KT 3SM M05/M09 A3045 RMK SLP321 T10501090 IEM_DS3505
ZBAA,1998-01-10 18:00,ZBAA 101800Z AUTO 00000KT 5SM M07/M11 A3045 RMK SLP307 T10671108 54000 IEM_DS3505
ZBAA,1998-01-10 20:00,ZBAA 102000Z AUTO 04002KT 2 1/2SM M08/M10 A3039 RMK SLP302 T10801100 IEM_DS3505
ZBAA,1998-01-10 21:00,ZBAA 102100Z AUTO 20004KT 5SM M07/M10 A3036 RMK SLP291 T10671103 57016 IEM_DS3505
ZBAA,1998-01-10 23:00,ZBAA 102300Z AUTO 36002KT 2 1/2SM M06/M09 A3039 RMK SLP302 T10601090 IEM_DS3505
ZBAA,1998-01-11 00:00,ZBAA 110000Z AUTO 20004KT 5SM M05/M10 A3039 RMK SLP294 T10541100 52003 IEM_DS3505
ZBAA,1998-01-11 01:00,ZBAA 110100Z AUTO 00000KT 1SM M06/M08 A3039 RMK SLP302 T10601080 IEM_DS3505
ZBAA,1998-01-11 02:00,ZBAA 110200Z AUTO 06002KT 1SM M05/M08 A3039 RMK SLP301 T10501080 IEM_DS3505
ZBAA,1998-01-11 03:00,ZBAA 110300Z AUTO 20004KT 6SM M02/M09 A3039 RMK SLP291 T10251086 57003 IEM_DS3505
ZBAA,1998-01-11 04:00,ZBAA 110400Z AUTO 00000KT 1SM M03/M08 A3036 RMK SLP290 T10301080 IEM_DS3505
ZBAA,1998-01-11 05:00,ZBAA 110500Z AUTO 00000KT 1SM M02/M08 A3033 RMK SLP279 T10201080 IEM_DS3505
ZBAA,1998-01-11 06:00,ZBAA 110600Z AUTO 16004KT 6SM M00/M08 A3030 RMK SLP266 T10011075 57025 IEM_DS3505
ZBAA,1998-01-11 07:00,ZBAA 110700Z AUTO 10002KT 1 1/2SM M01/M08 A3027 RMK SLP259 T10101080 IEM_DS3505
ZBAA,1998-01-11 08:00,ZBAA 110800Z AUTO 09002KT 1 1/2SM M01/M09 A3030 RMK SLP269 T10101090 IEM_DS3505
ZBAA,1998-01-11 09:00,ZBAA 110900Z AUTO 16006KT 5SM M02/M07 A3030 RMK SLP263 T10191073 57003 IEM_DS3505
ZBAA,1998-01-11 10:00,ZBAA 111000Z AUTO 12002KT 1 1/4SM M04/M09 A3030 RMK SLP270 T10401090 IEM_DS3505
ZBAA,1998-01-11 12:00,ZBAA 111200Z AUTO 14008KT 2SM M02/M07 A3033 RMK SLP275 T10191074 52012 IEM_DS3505
ZBAA,1998-01-11 13:00,ZBAA 111300Z AUTO 14002KT 2SM M04/M08 A3036 RMK SLP290 T10401080 IEM_DS3505
ZBAA,1998-01-11 15:00,ZBAA 111500Z AUTO 16006KT 4SM M02/M11 A3036 RMK SLP284 T10251108 52009 IEM_DS3505
ZBAA,1998-01-11 16:00,ZBAA 111600Z AUTO 10002KT 2SM M03/M08 A3036 RMK SLP290 T10301080 IEM_DS3505
ZBAA,1998-01-11 17:00,ZBAA 111700Z AUTO 18004KT 1 1/4SM M04/M06 A3036 RMK SLP290 T10401060 IEM_DS3505
ZBAA,1998-01-11 18:00,ZBAA 111800Z AUTO 14004KT 4SM M04/M10 A3036 RMK SLP282 T10371101 57002 IEM_DS3505
ZBAA,1998-01-11 19:00,ZBAA 111900Z AUTO 08004KT 1 1/4SM M05/M05 A3036 RMK SLP290 T10501050 IEM_DS3505
ZBAA,1998-01-11 20:00,ZBAA 112000Z AUTO 08002KT 1 1/4SM M05/M06 A3033 RMK SLP280 T10501060 IEM_DS3505
ZBAA,1998-01-11 21:00,ZBAA 112100Z AUTO 14004KT 4SM M04/M07 A3033 RMK SLP275 T10371073 57007 IEM_DS3505
ZBAA,1998-01-11 22:00,ZBAA 112200Z AUTO 11002KT 1 1/4SM M05/M06 A3033 RMK SLP280 T10501060 IEM_DS3505
ZBAA,1998-01-11 23:00,ZBAA 112300Z AUTO 12004KT 1 1/2SM M05/M08 A3036 RMK SLP290 T10501080 IEM_DS3505
ZBAA,1998-01-12 00:00,ZBAA 120000Z AUTO 14006KT 3SM M04/M09 A3036 RMK SLP288 T10391089 52013 IEM_DS3505
ZBAA,1998-01-12 01:00,ZBAA 120100Z AUTO 14006KT 4SM M04/M10 A3039 RMK SLP301 T10401100 IEM_DS3505
ZBAA,1998-01-12 02:00,ZBAA 120200Z AUTO 14006KT 6SM M04/M11 A3039 RMK SLP301 T10401110 IEM_DS3505
ZBAA,1998-01-12 03:00,ZBAA 120300Z AUTO 14008KT 6SM M02/M14 A3042 RMK SLP297 T10241137 52009 IEM_DS3505
ZBAA,1998-01-12 05:00,ZBAA 120500Z AUTO 15006KT 6SM M02/M10 A3036 RMK SLP289 T10201100 IEM_DS3505
ZBAA,1998-01-12 06:00,ZBAA 120600Z AUTO 20008KT 6SM M01/M09 A3036 RMK SLP277 T10071088 57020 IEM_DS3505
ZBAA,1998-01-12 08:00,ZBAA 120800Z AUTO 14006KT 7SM M02/M08 A3033 RMK SLP279 T10201080 IEM_DS3505
ZBAA,1998-01-12 09:00,ZBAA 120900Z AUTO 11006KT 6SM M01/M08 A3033 RMK SLP275 T10101084 57002 IEM_DS3505
ZBAA,1998-01-12 10:00,ZBAA 121000Z AUTO 09002KT 4SM M02/M06 A3036 RMK SLP289 T10201060 IEM_DS3505
ZBAA,1998-01-12 12:00,ZBAA 121200Z AUTO 11006KT 6SM M01/M08 A3042 RMK SLP284 T10141075 52009 IEM_DS3505
ZBAA,1998-01-12 13:00,ZBAA 121300Z AUTO 08004KT 7SM M03/M09 A3039 RMK SLP301 T10301090 IEM_DS3505
ZBAA,1998-01-12 14:00,ZBAA 121400Z AUTO 08004KT 7SM M03/M09 A3039 RMK SLP301 T10301090 IEM_DS3505
ZBAA,1998-01-12 15:00,ZBAA 121500Z AUTO 11004KT 7SM M02/M08 A3039 RMK SLP288 T10241075 52004 IEM_DS3505
ZBAA,1998-01-12 16:00,ZBAA 121600Z AUTO 11002KT 7SM M03/M08 A3039 RMK SLP301 T10301080 IEM_DS3505
ZBAA,1998-01-12 17:00,ZBAA 121700Z AUTO 12004KT 7SM M03/M08 A3039 RMK SLP301 T10301080 IEM_DS3505
ZBAA,1998-01-12 18:00,ZBAA 121800Z AUTO 00000KT 6SM M03/M06 A3039 RMK SLP296 T10291065 52008 IEM_DS3505
ZBAA,1998-01-12 19:00,ZBAA 121900Z AUTO 11004KT 7SM M03/M08 A3042 RMK SLP311 T10301080 IEM_DS3505
ZBAA,1998-01-12 21:00,ZBAA 122100Z AUTO 11004KT 6SM M03/M07 A3039 RMK SLP291 T10311071 57005 IEM_DS3505
ZBAA,1998-01-12 22:00,ZBAA 122200Z AUTO 12002KT 4SM M04/M08 A3039 RMK SLP301 T10401080 IEM_DS3505
ZBAA,1998-01-13 00:00,ZBAA 130000Z AUTO 09008KT 5SM M04/M10 A3042 RMK SLP301 T10381097 52010 IEM_DS3505
ZBAA,1998-01-13 01:00,ZBAA 130100Z AUTO 13006KT 2SM M05/M07 A3045 RMK SLP321 T10501070 IEM_DS3505
ZBAA,1998-01-13 02:00,ZBAA 130200Z AUTO 12006KT 1 1/4SM M05/M06 A3045 RMK SLP321 T10501060 IEM_DS3505
ZBAA,1998-01-13 03:00,ZBAA 130300Z AUTO 12006KT 2SM M05/M06 A3047 RMK SLP328 T10501060 IEM_DS3505
ZBAA,1998-01-13 04:00,ZBAA 130400Z AUTO 12006KT 1SM M05/M05 A3045 RMK SLP321 T10501050 IEM_DS3505
ZBAA,1998-01-13 05:00,ZBAA 130500Z AUTO 11006KT 1 1/2SM M04/M05 A3045 RMK SLP321 T10401050 IEM_DS3505
ZBAA,1998-01-13 08:00,ZBAA 130800Z AUTO 14004KT 2 1/2SM M03/M05 A3045 RMK SLP321 T10301050 IEM_DS3505
ZBAA,1998-01-13 09:00,ZBAA 130900Z AUTO 07006KT 4SM M03/M05 A3047 RMK SLP318 T10281053 52011 IEM_DS3505
ZBAA,1998-01-13 10:00,ZBAA 131000Z AUTO 09002KT 1SM M04/M04 A3050 RMK SLP338 T10401040 IEM_DS3505
ZBAA,1998-01-13 11:00,ZBAA 131100Z AUTO 04002KT 1 1/4SM M04/M04 A3050 RMK SLP338 T10401040 IEM_DS3505
ZBAA,1998-01-13 12:00,ZBAA 131200Z AUTO 07006KT 3SM M03/M05 A3050 RMK SLP332 T10291051 52014 IEM_DS3505
ZBAA,1998-01-13 13:00,ZBAA 131300Z AUTO 00000KT 1 1/4SM M04/M04 A3053 RMK SLP348 T10401040 IEM_DS3505
ZBAA,1998-01-13 14:00,ZBAA 131400Z AUTO 14004KT 1 1/4SM M04/M05 A3056 RMK SLP358 T10401050 IEM_DS3505
ZBAA,1998-01-13 15:00,ZBAA 131500Z AUTO 11008KT 9SM M04/M12 A3059 RMK SLP356 T10451119 52023 IEM_DS3505
ZBAA,1998-01-13 16:00,ZBAA 131600Z AUTO 15006KT 7SM M05/M11 A3059 RMK SLP369 T10501110 IEM_DS3505
ZBAA,1998-01-13 17:00,ZBAA 131700Z AUTO 14006KT 4SM M06/M09 A3062 RMK SLP379 T10601090 IEM_DS3505
ZBAA,1998-01-13 19:00,ZBAA 131900Z AUTO 00000KT 2 1/2SM M06/M08 A3062 RMK SLP379 T10601080 IEM_DS3505
ZBAA,1998-01-13 21:00,ZBAA 132100Z AUTO 11006KT 11SM M06/M13 A3059 RMK 70001 SLP364 T10581134 57005 IEM_DS3505
ZBAA,1998-01-13 22:00,ZBAA 132200Z AUTO 00000KT 2SM M07/M08 A3062 RMK SLP379 T10701080 IEM_DS3505
ZBAA,1998-01-13 23:00,ZBAA 132300Z AUTO 00000KT 4SM M06/M09 A3065 RMK SLP389 T10601090 IEM_DS3505
ZBAA,1998-01-14 00:00,ZBAA 140000Z AUTO 11004KT 6SM M07/M12 A3065 RMK 70001 SLP376 T10661123 52012 IEM_DS3505
ZBAA,1998-01-14 01:00,ZBAA 140100Z AUTO 10004KT 2 1/2SM M07/M10 A3065 RMK SLP389 T10701100 IEM_DS3505
ZBAA,1998-01-14 02:00,ZBAA 140200Z AUTO 00000KT 4SM M07/M10 A3062 RMK SLP379 T10701100 IEM_DS3505
ZBAA,1998-01-14 03:00,ZBAA 140300Z AUTO 18004KT 7SM M06/M12 A3060 RMK SLP371 T10651116 57005 IEM_DS3505
ZBAA,1998-01-14 04:00,ZBAA 140400Z AUTO 19006KT 2 1/2SM M06/M10 A3059 RMK SLP369 T10601100 IEM_DS3505
ZBAA,1998-01-14 05:00,ZBAA 140500Z AUTO 19006KT 3SM M06/M10 A3056 RMK SLP359 T10601100 IEM_DS3505
ZBAA,1998-01-14 07:00,ZBAA 140700Z AUTO 18006KT 2SM M07/M09 A3053 RMK SLP349 T10701090 IEM_DS3505
ZBAA,1998-01-14 08:00,ZBAA 140800Z AUTO 19006KT 1 1/2SM M07/M08 A3053 RMK SLP349 T10701080 IEM_DS3505
ZBAA,1998-01-14 09:00,ZBAA 140900Z AUTO 20004KT 5SM M07/M10 A3050 RMK SLP336 T10731100 57014 IEM_DS3505
ZBAA,1998-01-14 10:00,ZBAA 141000Z AUTO 13002KT 1 1/2SM M07/M08 A3050 RMK SLP339 T10701080 IEM_DS3505
ZBAA,1998-01-14 11:00,ZBAA 141100Z AUTO 14002KT 2SM M08/M09 A3050 RMK SLP339 T10801090 IEM_DS3505
ZBAA,1998-01-14 12:00,ZBAA 141200Z AUTO 20004KT 5SM M08/M10 A3050 RMK 60002 SLP335 T10811100 57001 IEM_DS3505
ZBAA,1998-01-14 13:00,ZBAA 141300Z AUTO 13002KT 1 1/2SM M09/M10 A3050 RMK SLP340 T10901100 IEM_DS3505
ZBAA,1998-01-14 15:00,ZBAA 141500Z AUTO 20002KT 6SM M08/M10 A3047 RMK SLP325 T10831103 57010 IEM_DS3505
ZBAA,1998-01-14 16:00,ZBAA 141600Z AUTO 00000KT 2SM M08/M09 A3047 RMK SLP329 T10801090 IEM_DS3505
ZBAA,1998-01-14 17:00,ZBAA 141700Z AUTO 34004KT 2SM M09/M10 A3045 RMK SLP323 T10901100 IEM_DS3505
ZBAA,1998-01-14 18:00,ZBAA 141800Z AUTO 00000KT 7SM M09/M11 A3042 RMK 60002 SLP304 T10871107 57021 IEM_DS3505
ZBAA,1998-01-14 19:00,ZBAA 141900Z AUTO 34004KT 1SM M10/M10 A3042 RMK SLP313 T11001100 IEM_DS3505
ZBAA,1998-01-14 20:00,ZBAA 142000Z AUTO 34004KT 1SM M10/M11 A3039 RMK SLP303 T11001110 IEM_DS3505
ZBAA,1998-01-14 21:00,ZBAA 142100Z AUTO 00000KT 6SM M08/M10 A3039 RMK 70004 SLP290 T10851100 57014 IEM_DS3505
ZBAA,1998-01-14 22:00,ZBAA 142200Z AUTO 35004KT 2SM M10/M11 A3039 RMK SLP303 T11001110 IEM_DS3505
ZBAA,1998-01-14 23:00,ZBAA 142300Z AUTO 01004KT 2 1/2SM M09/M12 A3039 RMK SLP302 T10901120 IEM_DS3505
ZBAA,1998-01-15 00:00,ZBAA 150000Z AUTO 07004KT 5SM M08/M13 A3039 RMK 60000 70004 SLP295 T10841131 52005 IEM_DS3505
ZBAA,1998-01-15 01:00,ZBAA 150100Z AUTO 08004KT 2 1/2SM M09/M11 A3039 RMK SLP302 T10901110 IEM_DS3505
ZBAA,1998-01-15 02:00,ZBAA 150200Z AUTO 08002KT 2SM M08/M10 A3039 RMK SLP302 T10801100 IEM_DS3505
ZBAA,1998-01-15 03:00,ZBAA 150300Z AUTO 14004KT 2 1/2SM M08/M13 A3039 RMK SLP295 T10791129 54000 IEM_DS3505
ZBAA,1998-01-15 04:00,ZBAA 150400Z AUTO ////02KT 4SM M07/M13 A3039 RMK SLP302 T10701130 IEM_DS3505
ZBAA,1998-01-15 05:00,ZBAA 150500Z AUTO ////02KT 4SM M06/M12 A3033 RMK SLP280 T10601120 IEM_DS3505
ZBAA,1998-01-15 06:00,ZBAA 150600Z AUTO 16004KT 6SM M06/M16 A3030 RMK SLP271 T10591163 57024 IEM_DS3505
ZBAA,1998-01-15 07:00,ZBAA 150700Z AUTO ////02KT 7SM M06/M14 A3030 RMK SLP270 T10601140 IEM_DS3505
ZBAA,1998-01-15 08:00,ZBAA 150800Z AUTO 15002KT 6SM M07/M14 A3030 RMK SLP271 T10701140 IEM_DS3505
ZBAA,1998-01-15 09:00,ZBAA 150900Z AUTO 16002KT 5SM M07/M14 A3030 RMK SLP271 T10731145 54000 IEM_DS3505
ZBAA,1998-01-15 10:00,ZBAA 151000Z AUTO 00000KT 6SM M08/M14 A3033 RMK SLP281 T10801140 IEM_DS3505
ZBAA,1998-01-15 11:00,ZBAA 151100Z AUTO 00000KT 6SM M09/M13 A3036 RMK SLP291 T10901130 IEM_DS3505
ZBAA,1998-01-15 12:00,ZBAA 151200Z AUTO 00000KT 6SM M08/M13 A3036 RMK SLP287 T10851132 52016 IEM_DS3505
ZBAA,1998-01-15 13:00,ZBAA 151300Z AUTO 10002KT 7SM M09/M13 A3039 RMK SLP302 T10901130 IEM_DS3505
ZBAA,1998-01-15 15:00,ZBAA 151500Z AUTO 00000KT 7SM M08/M13 A3039 RMK SLP289 T10811132 52002 IEM_DS3505
ZBAA,1998-01-15 16:00,ZBAA 151600Z AUTO 00000KT 6SM M09/M13 A3039 RMK SLP302 T10901130 IEM_DS3505
ZBAA,1998-01-15 17:00,ZBAA 151700Z AUTO 09002KT 6SM M09/M14 A3036 RMK SLP291 T10901140 IEM_DS3505
ZBAA,1998-01-15 18:00,ZBAA 151800Z AUTO 11004KT 7SM M09/M17 A3036 RMK SLP289 T10891172 54000 IEM_DS3505
ZBAA,1998-01-15 20:00,ZBAA 152000Z AUTO 14004KT 6SM M09/M15 A3039 RMK SLP302 T10901150 IEM_DS3505
ZBAA,1998-01-15 21:00,ZBAA 152100Z AUTO 16004KT 6SM M09/M18 A3039 RMK SLP293 T10871184 52004 IEM_DS3505
ZBAA,1998-01-15 22:00,ZBAA 152200Z AUTO 14004KT 6SM M10/M17 A3039 RMK SLP303 T11001170 IEM_DS3505
ZBAA,1998-01-15 23:00,ZBAA 152300Z AUTO 13004KT 6SM M10/M17 A3042 RMK SLP313 T11001170 IEM_DS3505
ZBAA,1998-01-16 00:00,ZBAA 160000Z AUTO 11004KT 4SM M10/M17 A3042 RMK SLP304 T11031168 52011 IEM_DS3505
ZBAA,1998-01-16 01:00,ZBAA 160100Z AUTO 13004KT 7SM M10/M17 A3045 RMK SLP323 T11001170 IEM_DS3505
ZBAA,1998-01-16 02:00,ZBAA 160200Z AUTO 12008KT 7SM M09/M17 A3045 RMK SLP323 T10901170 IEM_DS3505
ZBAA,1998-01-16 03:00,ZBAA 160300Z AUTO 14006KT 6SM M08/M19 A3045 RMK SLP310 T10821192 52006 IEM_DS3505
ZBAA,1998-01-16 04:00,ZBAA 160400Z AUTO 12006KT 7SM M08/M15 A3042 RMK SLP312 T10801150 IEM_DS3505
ZBAA,1998-01-16 05:00,ZBAA 160500Z AUTO 12006KT 7SM M08/M15 A3042 RMK SLP312 T10801150 IEM_DS3505
ZBAA,1998-01-16 06:00,ZBAA 160600Z AUTO 14002KT 6SM M06/M16 A3039 RMK SLP291 T10631155 57019 IEM_DS3505
ZBAA,1998-01-16 07:00,ZBAA 160700Z AUTO 09004KT 7SM M08/M15 A3036 RMK SLP291 T10801150 IEM_DS3505
ZBAA,1998-01-16 08:00,ZBAA 160800Z AUTO 06004KT 7SM M07/M14 A3036 RMK SLP291 T10701140 IEM_DS3505
ZBAA,1998-01-16 09:00,ZBAA 160900Z AUTO 18002KT 5SM M06/M16 A3034 RMK SLP285 T10651159 57006 IEM_DS3505
ZBAA,1998-01-16 10:00,ZBAA 161000Z AUTO 06002KT 7SM M08/M14 A3039 RMK SLP302 T10801140 IEM_DS3505
ZBAA,1998-01-16 11:00,ZBAA 161100Z AUTO 35006KT 7SM M08/M13 A3039 RMK SLP302 T10801130 IEM_DS3505
ZBAA,1998-01-16 12:00,ZBAA 161200Z AUTO 00000KT 6SM M06/M15 A3042 RMK SLP300 T10641151 52015 IEM_DS3505
ZBAA,1998-01-16 13:00,ZBAA 161300Z AUTO 31006KT 7SM M08/M12 A3042 RMK SLP312 T10801120 IEM_DS3505
ZBAA,1998-01-16 14:00,ZBAA 161400Z AUTO 31004KT 5SM M08/M12 A3042 RMK SLP312 T10801120 IEM_DS3505
ZBAA,1998-01-16 15:00,ZBAA 161500Z AUTO 04004KT 6SM M08/M12 A3042 RMK SLP303 T10801125 52003 IEM_DS3505
ZBAA,1998-01-16 21:00,ZBAA 162100Z AUTO 34012KT 12SM M09/M22 A3042 RMK SLP298 T10861222 57003 IEM_DS3505
ZBAA,1998-01-16 22:00,ZBAA 162200Z AUTO 31012KT 7SM M10/M20 A3042 RMK SLP313 T11001200 IEM_DS3505
ZBAA,1998-01-16 23:00,ZBAA 162300Z AUTO 30012KT 7SM M10/M21 A3045 RMK SLP323 T11001210 IEM_DS3505
ZBAA,1998-01-17 00:00,ZBAA 170000Z AUTO 36010KT 12SM M10/M25 A3047 RMK SLP314 T10981254 52016 IEM_DS3505
ZBAA,1998-01-17 01:00,ZBAA 170100Z AUTO 31014KT 7SM M10/M22 A3047 RMK SLP330 T11001220 IEM_DS3505
ZBAA,1998-01-17 02:00,ZBAA 170200Z AUTO 31017KT 7SM M10/M22 A3050 RMK SLP340 T11001220 IEM_DS3505
ZBAA,1998-01-17 03:00,ZBAA 170300Z AUTO 36010KT 19SM M08/M26 A3050 RMK SLP329 T10801258 52015 IEM_DS3505
ZBAA,1998-01-17 04:00,ZBAA 170400Z AUTO 31021G33KT 7SM M09/M22 A3047 RMK SLP330 T10901220 IEM_DS3505
ZBAA,1998-01-17 05:00,ZBAA 170500Z AUTO 31019KT 7SM M08/M22 A3045 RMK SLP322 T10801220 IEM_DS3505
ZBAA,1998-01-17 06:00,ZBAA 170600Z AUTO 34014G35KT 19SM M07/M26 A3042 RMK SLP312 T10721261 57017 IEM_DS3505
ZBAA,1998-01-17 07:00,ZBAA 170700Z AUTO 30019KT 7SM M08/M22 A3045 RMK SLP322 T10801220 IEM_DS3505
ZBAA,1998-01-17 08:00,ZBAA 170800Z AUTO 30017KT 7SM M08/M22 A3045 RMK SLP322 T10801220 IEM_DS3505
ZBAA,1998-01-17 09:00,ZBAA 170900Z AUTO 32010KT 19SM M08/ A3047 RMK SLP318 52006 IEM_DS3505
ZBAA,1998-01-17 10:00,ZBAA 171000Z AUTO 30016KT 7SM M09/M22 A3047 RMK SLP330 T10901220 IEM_DS3505
ZBAA,1998-01-17 11:00,ZBAA 171100Z AUTO 31016KT 7SM M10/M24 A3050 RMK SLP340 T11001240 IEM_DS3505
ZBAA,1998-01-17 12:00,ZBAA 171200Z AUTO 34012KT 19SM M09/M30 A3050 RMK SLP334 T10921303 52016 IEM_DS3505
ZBAA,1998-01-17 13:00,ZBAA 171300Z AUTO 31017KT 7SM M10/M26 A3053 RMK SLP350 T11001260 IEM_DS3505
ZBAA,1998-01-17 14:00,ZBAA 171400Z AUTO 32016KT 7SM M11/M25 A3056 RMK SLP360 T11101250 IEM_DS3505
ZBAA,1998-01-17 16:00,ZBAA 171600Z AUTO 30016KT 7SM M12/M26 A3056 RMK SLP361 T11201260 IEM_DS3505
ZBAA,1998-01-17 17:00,ZBAA 171700Z AUTO 31014KT 7SM M12/M26 A3056 RMK SLP361 T11201260 IEM_DS3505
ZBAA,1998-01-17 21:00,ZBAA 172100Z AUTO 32008KT 19SM M12/M26 A3053 RMK SLP343 T11201257 57001 IEM_DS3505
ZBAA,1998-01-17 23:00,ZBAA 172300Z AUTO 30004KT 7SM M14/M28 A3056 RMK SLP361 T11401280 IEM_DS3505
ZBAA,1998-01-18 00:00,ZBAA 180000Z AUTO 32006KT 19SM M12/M27 A3056 RMK SLP353 T11241268 52010 IEM_DS3505
ZBAA,1998-01-18 01:00,ZBAA 180100Z AUTO 32014KT 7SM M14/M27 A3059 RMK SLP371 T11401270 IEM_DS3505
ZBAA,1998-01-18 02:00,ZBAA 180200Z AUTO 31014KT 7SM M13/M27 A3059 RMK SLP371 T11301270 IEM_DS3505
ZBAA,1998-01-18 03:00,ZBAA 180300Z AUTO 32014KT 19SM M10/M22 A3056 RMK SLP350 T11011223 57003 IEM_DS3505
ZBAA,1998-01-18 04:00,ZBAA 180400Z AUTO 31017KT 7SM M11/M27 A3053 RMK SLP350 T11101270 IEM_DS3505
ZBAA,1998-01-18 05:00,ZBAA 180500Z AUTO 31019KT 7SM M10/M27 A3050 RMK SLP340 T11001270 IEM_DS3505
ZBAA,1998-01-18 06:00,ZBAA 180600Z AUTO 32014G29KT 19SM M08/M35 A3047 RMK SLP322 T10811349 57027 IEM_DS3505
ZBAA,1998-01-18 07:00,ZBAA 180700Z AUTO 30016G25KT 7SM M09/M25 A3047 RMK SLP330 T10901250 IEM_DS3505
ZBAA,1998-01-18 08:00,ZBAA 180800Z AUTO 30014KT 7SM M09/M26 A3047 RMK SLP330 T10901260 IEM_DS3505
ZBAA,1998-01-18 09:00,ZBAA 180900Z AUTO 34012KT 19SM M08/M30 A3047 RMK SLP322 T10771300 54000 IEM_DS3505
ZBAA,1998-01-18 10:00,ZBAA 181000Z AUTO 31016KT 7SM M09/M26 A3047 RMK SLP330 T10901260 IEM_DS3505
ZBAA,1998-01-18 11:00,ZBAA 181100Z AUTO 31010KT 7SM M10/M24 A3050 RMK SLP340 T11001240 IEM_DS3505
ZBAA,1998-01-18 12:00,ZBAA 181200Z AUTO 29012KT 19SM M08/M32 A3050 RMK SLP333 T10801315 52010 IEM_DS3505
ZBAA,1998-01-18 13:00,ZBAA 181300Z AUTO ////02KT 7SM M10/M23 A3050 RMK SLP340 T11001230 IEM_DS3505
ZBAA,1998-01-18 14:00,ZBAA 181400Z AUTO 30010KT 7SM M09/M23 A3050 RMK SLP340 T10901230 IEM_DS3505
ZBAA,1998-01-18 15:00,ZBAA 181500Z AUTO 29016KT 12SM M08/M29 A3050 RMK SLP331 T10791289 57001 IEM_DS3505
ZBAA,1998-01-18 16:00,ZBAA 181600Z AUTO 26004KT 7SM M11/M23 A3050 RMK SLP340 T11101230 IEM_DS3505
ZBAA,1998-01-18 17:00,ZBAA 181700Z AUTO 30008KT 7SM M10/M23 A3047 RMK SLP330 T11001230 IEM_DS3505
ZBAA,1998-01-18 18:00,ZBAA 181800Z AUTO 29008KT 12SM M09/M28 A3047 RMK SLP327 T10911279 57004 IEM_DS3505
ZBAA,1998-01-18 19:00,ZBAA 181900Z AUTO 29006KT 7SM M10/M24 A3047 RMK SLP330 T11001240 IEM_DS3505
ZBAA,1998-01-18 20:00,ZBAA 182000Z AUTO 27004KT 7SM M10/M24 A3045 RMK SLP323 T11001240 IEM_DS3505
ZBAA,1998-01-18 21:00,ZBAA 182100Z AUTO 00000KT 19SM M11/M27 A3045 RMK SLP315 T11091267 57012 IEM_DS3505
ZBAA,1998-01-18 22:00,ZBAA 182200Z AUTO 28006KT 7SM M11/M24 A3045 RMK SLP323 T11101240 IEM_DS3505
ZBAA,1998-01-18 23:00,ZBAA 182300Z AUTO 30008KT 7SM M11/M24 A3045 RMK SLP323 T11101240 IEM_DS3505
ZBAA,1998-01-19 00:00,ZBAA 190000Z AUTO 00000KT 19SM M13/M26 A3045 RMK SLP313 T11341259 57003 IEM_DS3505
ZBAA,1998-01-19 01:00,ZBAA 190100Z AUTO 28008KT 7SM M10/M24 A3045 RMK SLP323 T11001240 IEM_DS3505
ZBAA,1998-01-19 02:00,ZBAA 190200Z AUTO 32006KT 7SM M09/M23 A3042 RMK SLP312 T10901230 IEM_DS3505
ZBAA,1998-01-19 03:00,ZBAA 190300Z AUTO 20004KT 19SM M06/M27 A3039 RMK SLP298 T10611268 57014 IEM_DS3505
ZBAA,1998-01-19 04:00,ZBAA 190400Z AUTO 23004KT 7SM M06/M23 A3036 RMK SLP290 T10601230 IEM_DS3505
ZBAA,1998-01-19 05:00,ZBAA 190500Z AUTO 25006KT 7SM M05/M25 A3030 RMK SLP270 T10501250 IEM_DS3505
ZBAA,1998-01-19 06:00,ZBAA 190600Z AUTO 18006KT 19SM M04/M36 A3027 RMK SLP256 T10361358 57042 IEM_DS3505
ZBAA,1998-01-19 08:00,ZBAA 190800Z AUTO 22008KT 7SM M04/M25 A3021 RMK SLP240 T10401250 IEM_DS3505
ZBAA,1998-01-19 09:00,ZBAA 190900Z AUTO 25004KT 19SM M04/M26 A3021 RMK SLP240 T10391257 57016 IEM_DS3505
ZBAA,1998-01-19 10:00,ZBAA 191000Z AUTO 21004KT 7SM M06/M23 A3021 RMK SLP240 T10601230 IEM_DS3505
ZBAA,1998-01-19 11:00,ZBAA 191100Z AUTO 10002KT 7SM M07/M20 A3021 RMK SLP240 T10701200 IEM_DS3505
ZBAA,1998-01-19 13:00,ZBAA 191300Z AUTO 26002KT 7SM M05/M20 A3024 RMK SLP250 T10501200 IEM_DS3505
ZBAA,1998-01-19 15:00,ZBAA 191500Z AUTO 34004KT 8SM M08/M18 A3023 RMK SLP248 T10841178 52006 IEM_DS3505
ZBAA,1998-01-19 16:00,ZBAA 191600Z AUTO 29017G29KT 7SM M04/M20 A3024 RMK SLP250 T10401200 IEM_DS3505
ZBAA,1998-01-19 17:00,ZBAA 191700Z AUTO 29017KT 7SM M05/M21 A3024 RMK SLP250 T10501210 IEM_DS3505
ZBAA,1998-01-19 18:00,ZBAA 191800Z AUTO 34004KT 9SM M05/M23 A3024 RMK SLP248 T10471230 52001 IEM_DS3505
ZBAA,1998-01-19 19:00,ZBAA 191900Z AUTO 30014KT 7SM M06/M20 A3024 RMK SLP250 T10601200 IEM_DS3505
ZBAA,1998-01-19 20:00,ZBAA 192000Z AUTO 30014KT 7SM M06/M19 A3024 RMK SLP250 T10601190 IEM_DS3505
ZBAA,1998-01-19 21:00,ZBAA 192100Z AUTO 32010KT 12SM M06/M23 A3027 RMK SLP253 T10561234 52005 IEM_DS3505
ZBAA,1998-01-19 22:00,ZBAA 192200Z AUTO 29008KT 7SM M07/M21 A3027 RMK SLP261 T10701210 IEM_DS3505
ZBAA,1998-01-20 00:00,ZBAA 200000Z AUTO 32006KT 12SM M06/M26 A3037 RMK SLP268 T10591259 52014 IEM_DS3505
ZBAA,1998-01-20 02:00,ZBAA 200200Z AUTO 28014KT 7SM M05/M22 A3033 RMK SLP280 T10501220 IEM_DS3505
ZBAA,1998-01-20 03:00,ZBAA 200300Z AUTO 34008KT 12SM M03/M26 A3033 RMK SLP274 T10321260 52006 IEM_DS3505
ZBAA,1998-01-20 04:00,ZBAA 200400Z AUTO 30017KT 7SM M04/M23 A3030 RMK SLP270 T10401230 IEM_DS3505
ZBAA,1998-01-20 05:00,ZBAA 200500Z AUTO 29019G33KT 7SM M03/M23 A3027 RMK SLP260 T10301230 IEM_DS3505
ZBAA,1998-01-20 06:00,ZBAA 200600Z AUTO 29010G29KT 12SM M01/M32 A3024 RMK SLP253 T10131316 57020 IEM_DS3505
ZBAA,1998-01-20 07:00,ZBAA 200700Z AUTO 30019G35KT 7SM M03/M24 A3024 RMK SLP249 T10301240 IEM_DS3505
ZBAA,1998-01-20 08:00,ZBAA 200800Z AUTO 29019G41KT 6SM M03/M24 A3027 RMK SLP260 T10301240 IEM_DS3505
ZBAA,1998-01-20 09:00,ZBAA 200900Z AUTO 34008KT 12SM M02/M32 A3027 RMK SLP255 T10241319 52002 IEM_DS3505
ZBAA,1998-01-20 10:00,ZBAA 201000Z AUTO 30010KT 7SM M04/M24 A3030 RMK SLP270 T10401240 IEM_DS3505
ZBAA,1998-01-20 11:00,ZBAA 201100Z AUTO 34004KT 7SM M05/M23 A3033 RMK SLP280 T10501230 IEM_DS3505
ZBAA,1998-01-20 12:00,ZBAA 201200Z AUTO 32006KT 12SM M03/M25 A3033 RMK SLP271 T10341253 52016 IEM_DS3505
ZBAA,1998-01-20 14:00,ZBAA 201400Z AUTO 00000KT 7SM M09/M19 A3036 RMK SLP291 T10901190 IEM_DS3505
ZBAA,1998-01-20 15:00,ZBAA 201500Z AUTO 32006KT 12SM M04/M24 A3036 RMK SLP278 T10411237 52007 IEM_DS3505
ZBAA,1998-01-20 16:00,ZBAA 201600Z AUTO 36002KT 7SM M07/M22 A3036 RMK SLP291 T10701220 IEM_DS3505
ZBAA,1998-01-20 17:00,ZBAA 201700Z AUTO 00000KT 7SM M11/M20 A3033 RMK SLP282 T11101200 IEM_DS3505
ZBAA,1998-01-20 19:00,ZBAA 201900Z AUTO 34006KT 7SM M09/M21 A3033 RMK SLP281 T10901210 IEM_DS3505
ZBAA,1998-01-20 20:00,ZBAA 202000Z AUTO 21002KT 7SM M10/M21 A3033 RMK SLP281 T11001210 IEM_DS3505
ZBAA,1998-01-20 21:00,ZBAA 202100Z AUTO 22004KT 9SM M09/M19 A3033 RMK SLP275 T10891188 57003 IEM_DS3505
ZBAA,1998-01-20 22:00,ZBAA 202200Z AUTO 24004KT 7SM M10/M20 A3033 RMK SLP281 T11001200 IEM_DS3505
ZBAA,1998-01-20 23:00,ZBAA 202300Z AUTO 24004KT 7SM M07/M18 A3033 RMK SLP281 T10701180 IEM_DS3505
ZBAA,1998-01-21 00:00,ZBAA 210000Z AUTO 25004KT 6SM M09/M20 A3033 RMK SLP277 T10881195 52002 IEM_DS3505
ZBAA,1998-01-21 01:00,ZBAA 210100Z AUTO 02002KT 3SM M10/M18 A3036 RMK SLP292 T11001180 IEM_DS3505
ZBAA,1998-01-21 02:00,ZBAA 210200Z AUTO 09002KT 3SM M06/M17 A3036 RMK SLP290 T10601170 IEM_DS3505
ZBAA,1998-01-21 03:00,ZBAA 210300Z AUTO 25004KT 6SM M02/M23 A3036 RMK SLP281 T10181232 52005 IEM_DS3505
ZBAA,1998-01-21 04:00,ZBAA 210400Z AUTO 26002KT 4SM M02/M19 A3030 RMK SLP269 T10201190 IEM_DS3505
ZBAA,1998-01-21 05:00,ZBAA 210500Z AUTO 25006KT 5SM M01/M19 A3027 RMK SLP259 T10101190 IEM_DS3505
ZBAA,1998-01-21 06:00,ZBAA 210600Z AUTO 22008KT 7SM 01/M24 A3024 RMK SLP252 T00081240 57029 IEM_DS3505
ZBAA,1998-01-21 07:00,ZBAA 210700Z AUTO 24008KT 7SM 00/M19 A3024 RMK SLP249 T00001190 IEM_DS3505
ZBAA,1998-01-21 08:00,ZBAA 210800Z AUTO 25006KT 7SM 01/M19 A3021 RMK SLP238 T00101190 IEM_DS3505
ZBAA,1998-01-21 09:00,ZBAA 210900Z AUTO 22006KT 9SM 00/M22 A3021 RMK SLP244 T00001218 57008 IEM_DS3505
ZBAA,1998-01-21 11:00,ZBAA 211100Z AUTO 23008KT 7SM M01/M19 A3024 RMK SLP249 T10101190 IEM_DS3505
ZBAA,1998-01-21 12:00,ZBAA 211200Z AUTO 00000KT 6SM M04/M16 A3027 RMK SLP251 T10361162 52006 IEM_DS3505
ZBAA,1998-01-21 13:00,ZBAA 211300Z AUTO 23006KT 7SM M02/M18 A3027 RMK SLP259 T10201180 IEM_DS3505
ZBAA,1998-01-21 14:00,ZBAA 211400Z AUTO 26006KT 7SM M01/M16 A3027 RMK SLP259 T10101160 IEM_DS3505
ZBAA,1998-01-21 15:00,ZBAA 211500Z AUTO 27004KT 6SM M04/M16 A3030 RMK SLP264 T10451165 52014 IEM_DS3505
ZBAA,1998-01-21 16:00,ZBAA 211600Z AUTO 26004KT 7SM M02/M16 A3033 RMK SLP279 T10201160 IEM_DS3505
ZBAA,1998-01-21 19:00,ZBAA 211900Z AUTO 31010KT 7SM M03/M19 A3033 RMK SLP280 T10301190 IEM_DS3505
ZBAA,1998-01-21 20:00,ZBAA 212000Z AUTO 29008KT 7SM M05/M19 A3033 RMK SLP280 T10501190 IEM_DS3505
ZBAA,1998-01-21 21:00,ZBAA 212100Z AUTO 29012KT 11SM M03/M27 A3033 RMK SLP274 T10301268 52005 IEM_DS3505
ZBAA,1998-01-21 22:00,ZBAA 212200Z AUTO 30008KT 7SM M05/M20 A3033 RMK SLP280 T10501200 IEM_DS3505
ZBAA,1998-01-21 23:00,ZBAA 212300Z AUTO 29008KT 7SM M06/M20 A3036 RMK SLP290 T10601200 IEM_DS3505
ZBAA,1998-01-22 00:00,ZBAA 220000Z AUTO 29006KT 12SM M04/M24 A3036 RMK SLP282 T10381240 52008 IEM_DS3505
ZBAA,1998-01-22 01:00,ZBAA 220100Z AUTO 29008KT 7SM M04/M21 A3036 RMK SLP290 T10401210 IEM_DS3505
ZBAA,1998-01-22 02:00,ZBAA 220200Z AUTO 31010KT 7SM M03/M21 A3036 RMK SLP290 T10301210 IEM_DS3505
ZBAA,1998-01-22 03:00,ZBAA 220300Z AUTO 29017G25KT 12SM M01/M22 A3039 RMK SLP290 T10081219 52008 IEM_DS3505
ZBAA,1998-01-22 04:00,ZBAA 220400Z AUTO 27016KT 7SM M02/M22 A3039 RMK SLP301 T10201220 IEM_DS3505
ZBAA,1998-01-22 05:00,ZBAA 220500Z AUTO 29014G25KT 7SM M01/M23 A3036 RMK SLP289 T10101230 IEM_DS3505
ZBAA,1998-01-22 06:00,ZBAA 220600Z AUTO 34014G27KT 12SM M00/M28 A3033 RMK SLP278 T10041279 57012 IEM_DS3505
ZBAA,1998-01-22 07:00,ZBAA 220700Z AUTO 29016KT 7SM M01/M23 A3033 RMK SLP279 T10101230 IEM_DS3505
ZBAA,1998-01-22 08:00,ZBAA 220800Z AUTO 30008KT 7SM M01/M22 A3033 RMK SLP279 T10101220 IEM_DS3505
ZBAA,1998-01-22 09:00,ZBAA 220900Z AUTO 34012KT 12SM M01/M23 A3033 RMK SLP271 T10081232 57007 IEM_DS3505
ZBAA,1998-01-22 10:00,ZBAA 221000Z AUTO 34006KT 7SM M03/M22 A3036 RMK SLP290 T10301220 IEM_DS3505
ZBAA,1998-01-22 11:00,ZBAA 221100Z AUTO 01004KT 7SM M05/M21 A3036 RMK SLP290 T10501210 IEM_DS3505
ZBAA,1998-01-22 12:00,ZBAA 221200Z AUTO 34008KT 12SM M01/M22 A3036 RMK SLP282 T10141217 52011 IEM_DS3505
ZBAA,1998-01-22 14:00,ZBAA 221400Z AUTO 29006KT 7SM M05/M20 A3039 RMK SLP301 T10501200 IEM_DS3505
ZBAA,1998-01-22 15:00,ZBAA 221500Z AUTO 32010KT 12SM M03/M25 A3039 RMK SLP293 T10291248 52011 IEM_DS3505
ZBAA,1998-01-22 16:00,ZBAA 221600Z AUTO 32006KT 7SM M06/M22 A3039 RMK SLP302 T10601220 IEM_DS3505
ZBAA,1998-01-22 17:00,ZBAA 221700Z AUTO 34008KT 7SM M07/M22 A3039 RMK SLP302 T10701220 IEM_DS3505
ZBAA,1998-01-22 18:00,ZBAA 221800Z AUTO 32014KT 12SM M04/M27 A3042 RMK SLP301 T10451269 52008 IEM_DS3505
ZBAA,1998-01-22 19:00,ZBAA 221900Z AUTO 34012KT 7SM M08/M25 A3045 RMK SLP322 T10801250 IEM_DS3505
ZBAA,1998-01-22 20:00,ZBAA 222000Z AUTO 34014KT 7SM M08/M26 A3045 RMK SLP322 T10801260 IEM_DS3505
ZBAA,1998-01-22 21:00,ZBAA 222100Z AUTO 34014KT 12SM M07/M27 A3047 RMK SLP319 T10741268 52017 IEM_DS3505
ZBAA,1998-01-22 22:00,ZBAA 222200Z AUTO 32016KT 7SM M09/M27 A3050 RMK SLP340 T10901270 IEM_DS3505
ZBAA,1998-01-22 23:00,ZBAA 222300Z AUTO 32023G35KT 7SM M10/M28 A3053 RMK SLP350 T11001280 IEM_DS3505
ZBAA,1998-01-23 01:00,ZBAA 230100Z AUTO 32012KT 7SM M10/M27 A3056 RMK SLP360 T11001270 IEM_DS3505
ZBAA,1998-01-23 02:00,ZBAA 230200Z AUTO 31019G29KT 7SM M09/M28 A3056 RMK SLP360 T10901280 IEM_DS3505
ZBAA,1998-01-23 03:00,ZBAA 230300Z AUTO 34008G25KT 16SM M07/M29 A3056 RMK SLP349 T10701290 52006 IEM_DS3505
ZBAA,1998-01-23 04:00,ZBAA 230400Z AUTO 31016KT 7SM M07/M26 A3053 RMK SLP349 T10701260 IEM_DS3505
ZBAA,1998-01-23 05:00,ZBAA 230500Z AUTO 30017KT 7SM M07/M25 A3050 RMK SLP339 T10701250 IEM_DS3505
ZBAA,1998-01-23 06:00,ZBAA 230600Z AUTO 32014G29KT 16SM M05/M31 A3047 RMK SLP332 T10491312 57017 IEM_DS3505
ZBAA,1998-01-23 07:00,ZBAA 230700Z AUTO 33023G33KT 7SM M05/M26 A3047 RMK SLP328 T10501260 IEM_DS3505
ZBAA,1998-01-23 08:00,ZBAA 230800Z AUTO 32021G31KT 7SM M05/M26 A3050 RMK SLP339 T10501260 IEM_DS3505
ZBAA,1998-01-23 09:00,ZBAA 230900Z AUTO 32014G31KT 9SM M05/M28 A3050 RMK SLP331 T10511279 57001 IEM_DS3505
ZBAA,1998-01-23 10:00,ZBAA 231000Z AUTO 33021KT 7SM M06/M25 A3050 RMK SLP339 T10601250 IEM_DS3505
ZBAA,1998-01-23 11:00,ZBAA 231100Z AUTO 33017G27KT 7SM M06/M24 A3053 RMK SLP349 T10601240 IEM_DS3505
ZBAA,1998-01-23 12:00,ZBAA 231200Z AUTO 02004KT 12SM M06/M24 A3056 RMK SLP348 T10621242 52017 IEM_DS3505
ZBAA,1998-01-23 13:00,ZBAA 231300Z AUTO 32014KT 7SM M07/M24 A3056 RMK SLP359 T10701240 IEM_DS3505
ZBAA,1998-01-23 14:00,ZBAA 231400Z AUTO 32012KT 7SM M07/M23 A3059 RMK SLP369 T10701230 IEM_DS3505
ZBAA,1998-01-23 15:00,ZBAA 231500Z AUTO 34006KT 12SM M07/M25 A3059 RMK SLP355 T10691252 52007 IEM_DS3505
ZBAA,1998-01-23 16:00,ZBAA 231600Z AUTO 32008KT 7SM M07/M23 A3059 RMK SLP369 T10701230 IEM_DS3505
ZBAA,1998-01-23 17:00,ZBAA 231700Z AUTO 33008KT 7SM M07/M23 A3056 RMK SLP359 T10701230 IEM_DS3505
ZBAA,1998-01-23 18:00,ZBAA 231800Z AUTO 00000KT 16SM M10/M22 A3056 RMK SLP353 T10961223 57002 IEM_DS3505
ZBAA,1998-01-23 19:00,ZBAA 231900Z AUTO 33012KT 7SM M07/M22 A3056 RMK SLP359 T10701220 IEM_DS3505
ZBAA,1998-01-23 20:00,ZBAA 232000Z AUTO 33010KT 7SM M08/M23 A3056 RMK SLP359 T10801230 IEM_DS3505
ZBAA,1998-01-23 21:00,ZBAA 232100Z AUTO 34006KT 16SM M07/M25 A3056 RMK SLP355 T10691252 52002 IEM_DS3505
ZBAA,1998-01-23 23:00,ZBAA 232300Z AUTO 31012KT 7SM M08/M23 A3059 RMK SLP370 T10801230 IEM_DS3505
ZBAA,1998-01-24 00:00,ZBAA 240000Z AUTO 34004KT 11SM M08/M26 A3066 RMK SLP366 T10801259 52011 IEM_DS3505
ZBAA,1998-01-24 02:00,ZBAA 240200Z AUTO 32014KT 7SM M06/M23 A3062 RMK SLP379 T10601230 IEM_DS3505
ZBAA,1998-01-24 03:00,ZBAA 240300Z AUTO 32010KT 12SM M04/M24 A3059 RMK SLP365 T10351245 57001 IEM_DS3505
ZBAA,1998-01-24 04:00,ZBAA 240400Z AUTO 32021G33KT 7SM M03/M24 A3056 RMK SLP358 T10301240 IEM_DS3505
ZBAA,1998-01-24 05:00,ZBAA 240500Z AUTO 31019KT 7SM M02/M23 A3053 RMK SLP348 T10201230 IEM_DS3505
ZBAA,1998-01-24 06:00,ZBAA 240600Z AUTO 34006G29KT 12SM M00/M22 A3050 RMK SLP337 T10051222 57028 IEM_DS3505
ZBAA,1998-01-24 07:00,ZBAA 240700Z AUTO 31019G29KT 7SM M01/M22 A3050 RMK SLP338 T10101220 IEM_DS3505
ZBAA,1998-01-24 08:00,ZBAA 240800Z AUTO 30014G23KT 7SM M01/M21 A3050 RMK SLP338 T10101210 IEM_DS3505
ZBAA,1998-01-24 09:00,ZBAA 240900Z AUTO 27002KT 12SM M00/M24 A3047 RMK SLP331 T10051236 57005 IEM_DS3505
ZBAA,1998-01-24 11:00,ZBAA 241100Z AUTO 29008KT 7SM M03/M20 A3050 RMK SLP338 T10301200 IEM_DS3505
ZBAA,1998-01-24 12:00,ZBAA 241200Z AUTO 29004KT 12SM M04/M18 A3050 RMK SLP337 T10421185 52005 IEM_DS3505
ZBAA,1998-01-24 13:00,ZBAA 241300Z AUTO 33008KT 7SM M02/M19 A3050 RMK SLP338 T10201190 IEM_DS3505
ZBAA,1998-01-24 14:00,ZBAA 241400Z AUTO 32010KT 7SM M03/M19 A3050 RMK SLP338 T10301190 IEM_DS3505
ZBAA,1998-01-24 15:00,ZBAA 241500Z AUTO 00000KT 12SM M06/M17 A3050 RMK SLP337 T10581170 54000 IEM_DS3505
ZBAA,1998-01-24 16:00,ZBAA 241600Z AUTO 27004KT 7SM M05/M18 A3050 RMK SLP339 T10501180 IEM_DS3505
ZBAA,1998-01-24 17:00,ZBAA 241700Z AUTO 26004KT 7SM M05/M18 A3047 RMK SLP328 T10501180 IEM_DS3505
ZBAA,1998-01-24 18:00,ZBAA 241800Z AUTO 00000KT 9SM M08/M18 A3047 RMK SLP320 T10851181 57017 IEM_DS3505
ZBAA,1998-01-24 19:00,ZBAA 241900Z AUTO 19002KT 4SM M09/M18 A3045 RMK SLP323 T10901180 IEM_DS3505
ZBAA,1998-01-24 20:00,ZBAA 242000Z AUTO 03002KT 5SM M10/M18 A3045 RMK SLP323 T11001180 IEM_DS3505
ZBAA,1998-01-24 21:00,ZBAA 242100Z AUTO 00000KT 6SM M10/M16 A3042 RMK SLP306 T10991158 57014 IEM_DS3505
ZBAA,1998-01-24 22:00,ZBAA 242200Z AUTO 33004KT 7SM M07/M18 A3042 RMK SLP312 T10701180 IEM_DS3505
ZBAA,1998-01-24 23:00,ZBAA 242300Z AUTO 36006KT 7SM M10/M19 A3042 RMK SLP313 T11001190 IEM_DS3505
ZBAA,1998-01-25 00:00,ZBAA 250000Z AUTO 27002KT 5SM M11/M18 A3042 RMK SLP308 T11131183 52002 IEM_DS3505
ZBAA,1998-01-25 01:00,ZBAA 250100Z AUTO 34004KT 7SM M06/M17 A3042 RMK SLP312 T10601170 IEM_DS3505
ZBAA,1998-01-25 02:00,ZBAA 250200Z AUTO 32010KT 7SM M02/M18 A3042 RMK SLP311 T10201180 IEM_DS3505
ZBAA,1998-01-25 03:00,ZBAA 250300Z AUTO 04002KT 6SM M01/M18 A3039 RMK SLP300 T10081177 57007 IEM_DS3505
ZBAA,1998-01-25 04:00,ZBAA 250400Z AUTO 31016KT 7SM 01/M21 A3036 RMK SLP289 T00101210 IEM_DS3505
ZBAA,1998-01-25 05:00,ZBAA 250500Z AUTO 31014KT 7SM 01/M22 A3033 RMK SLP279 T00101220 IEM_DS3505
ZBAA,1998-01-25 06:00,ZBAA 250600Z AUTO 00000KT 6SM 03/M25 A3030 RMK SLP268 T00311246 57032 IEM_DS3505
ZBAA,1998-01-25 09:00,ZBAA 250900Z AUTO 25006KT 6SM 03/M21 A3027 RMK SLP260 T00281210 57008 IEM_DS3505
ZBAA,1998-01-25 10:00,ZBAA 251000Z AUTO 29006G16KT 7SM 01/M22 A3030 RMK SLP269 T00101220 IEM_DS3505
ZBAA,1998-01-25 11:00,ZBAA 251100Z AUTO 28004KT 7SM 01/M21 A3030 RMK SLP269 T00101210 IEM_DS3505
ZBAA,1998-01-25 12:00,ZBAA 251200Z AUTO 25004KT 6SM M02/M18 A3033 RMK SLP273 T10191179 52012 IEM_DS3505
ZBAA,1998-01-25 13:00,ZBAA 251300Z AUTO 36004KT 7SM M03/M18 A3033 RMK SLP280 T10301180 IEM_DS3505
ZBAA,1998-01-25 14:00,ZBAA 251400Z AUTO 35004KT 7SM M03/M18 A3033 RMK SLP280 T10301180 IEM_DS3505
ZBAA,1998-01-25 15:00,ZBAA 251500Z AUTO 00000KT 6SM M07/M18 A3033 RMK SLP275 T10661177 52003 IEM_DS3505
ZBAA,1998-01-25 16:00,ZBAA 251600Z AUTO 35004KT 7SM M05/M17 A3033 RMK SLP280 T10501170 IEM_DS3505
ZBAA,1998-01-25 18:00,ZBAA 251800Z AUTO 25004KT 6SM M06/M14 A3033 RMK SLP274 T10611145 57001 IEM_DS3505
ZBAA,1998-01-25 19:00,ZBAA 251900Z AUTO 36004KT 7SM M06/M17 A3033 RMK SLP280 T10601170 IEM_DS3505
ZBAA,1998-01-25 20:00,ZBAA 252000Z AUTO 35002KT 7SM M07/M16 A3033 RMK SLP281 T10701160 IEM_DS3505
ZBAA,1998-01-25 21:00,ZBAA 252100Z AUTO 02006KT 7SM M08/M16 A3033 RMK SLP269 T10761164 57005 IEM_DS3505
ZBAA,1998-01-25 22:00,ZBAA 252200Z AUTO 00000KT 7SM M09/M17 A3030 RMK SLP271 T10901170 IEM_DS3505
ZBAA,1998-01-25 23:00,ZBAA 252300Z AUTO 01004KT 6SM M07/M17 A3033 RMK SLP281 T10701170 IEM_DS3505
ZBAA,1998-01-26 00:00,ZBAA 260000Z AUTO 02004KT 4SM M08/M16 A3033 RMK SLP273 T10751162 52004 IEM_DS3505
ZBAA,1998-01-26 01:00,ZBAA 260100Z AUTO 06002KT 6SM M06/M16 A3036 RMK SLP290 T10601160 IEM_DS3505
ZBAA,1998-01-26 02:00,ZBAA 260200Z AUTO 08004KT 5SM M04/M16 A3036 RMK SLP290 T10401160 IEM_DS3505
ZBAA,1998-01-26 03:00,ZBAA 260300Z AUTO 07008KT 6SM M02/M21 A3036 RMK SLP284 T10221209 52011 IEM_DS3505
ZBAA,1998-01-26 04:00,ZBAA 260400Z AUTO 12006KT 4SM M01/M12 A3036 RMK SLP289 T10101120 IEM_DS3505
ZBAA,1998-01-26 05:00,ZBAA 260500Z AUTO 10006KT 5SM 01/M13 A3033 RMK SLP279 T00101130 IEM_DS3505
ZBAA,1998-01-26 06:00,ZBAA 260600Z AUTO 09006KT 6SM 02/M15 A3033 RMK SLP272 T00161154 57012 IEM_DS3505
ZBAA,1998-01-26 07:00,ZBAA 260700Z AUTO 11004KT 7SM 02/M14 A3030 RMK SLP268 T00201140 IEM_DS3505
ZBAA,1998-01-26 08:00,ZBAA 260800Z AUTO 13008KT 7SM 02/M13 A3030 RMK SLP268 T00201130 IEM_DS3505
ZBAA,1998-01-26 09:00,ZBAA 260900Z AUTO 07004KT 6SM 01/M17 A3033 RMK SLP273 T00071171 52001 IEM_DS3505
ZBAA,1998-01-26 10:00,ZBAA 261000Z AUTO 11002KT 5SM M01/M11 A3036 RMK SLP289 T10101110 IEM_DS3505
ZBAA,1998-01-26 11:00,ZBAA 261100Z AUTO 11004KT 4SM M02/M12 A3039 RMK SLP301 T10201120 IEM_DS3505
ZBAA,1998-01-26 12:00,ZBAA 261200Z AUTO 14008KT 7SM M05/M13 A3045 RMK SLP306 T10471128 52032 IEM_DS3505
ZBAA,1998-01-26 13:00,ZBAA 261300Z AUTO 11004KT 7SM M05/M12 A3047 RMK SLP328 T10501120 IEM_DS3505
ZBAA,1998-01-26 14:00,ZBAA 261400Z AUTO 12006KT 7SM M06/M12 A3047 RMK SLP329 T10601120 IEM_DS3505
ZBAA,1998-01-26 15:00,ZBAA 261500Z AUTO 07004KT 7SM M06/M13 A3050 RMK SLP331 T10641131 52025 IEM_DS3505
ZBAA,1998-01-26 16:00,ZBAA 261600Z AUTO 20002KT 7SM M06/M12 A3050 RMK SLP339 T10601120 IEM_DS3505
ZBAA,1998-01-26 17:00,ZBAA 261700Z AUTO 16002KT 7SM M07/M12 A3050 RMK SLP339 T10701120 IEM_DS3505
ZBAA,1998-01-26 18:00,ZBAA 261800Z AUTO 07004KT 6SM M07/M13 A3050 RMK SLP329 T10701128 57001 IEM_DS3505
ZBAA,1998-01-26 19:00,ZBAA 261900Z AUTO 00000KT 7SM M08/M12 A3050 RMK SLP339 T10801120 IEM_DS3505
ZBAA,1998-01-26 21:00,ZBAA 262100Z AUTO 07002KT 6SM M07/M13 A3050 RMK SLP333 T10701128 52004 IEM_DS3505
ZBAA,1998-01-26 22:00,ZBAA 262200Z AUTO 25002KT 7SM M07/M11 A3053 RMK SLP349 T10701110 IEM_DS3505
ZBAA,1998-01-26 23:00,ZBAA 262300Z AUTO 35002KT 6SM M08/M12 A3053 RMK SLP349 T10801120 IEM_DS3505
ZBAA,1998-01-27 00:00,ZBAA 270000Z AUTO 07004KT 6SM M07/M14 A3053 RMK SLP344 T10661135 52010 IEM_DS3505
ZBAA,1998-01-27 01:00,ZBAA 270100Z AUTO 36004KT 5SM M08/M11 A3056 RMK SLP359 T10801110 IEM_DS3505
ZBAA,1998-01-27 02:00,ZBAA 270200Z AUTO 04002KT 4SM M05/M10 A3056 RMK SLP359 T10501100 IEM_DS3505
ZBAA,1998-01-27 03:00,ZBAA 270300Z AUTO 09004KT 5SM M03/M14 A3056 RMK SLP353 T10311138 52009 IEM_DS3505
ZBAA,1998-01-27 05:00,ZBAA 270500Z AUTO 33004KT 6SM M01/M13 A3053 RMK SLP348 T10101130 IEM_DS3505
ZBAA,1998-01-27 06:00,ZBAA 270600Z AUTO 04006KT 5SM 01/M18 A3053 RMK SLP340 T00091184 57012 IEM_DS3505
ZBAA,1998-01-27 07:00,ZBAA 270700Z AUTO ////02KT 6SM 01/M14 A3053 RMK SLP347 T00101140 IEM_DS3505
ZBAA,1998-01-27 08:00,ZBAA 270800Z AUTO 05004KT 6SM 01/M14 A3053 RMK SLP347 T00101140 IEM_DS3505
ZBAA,1998-01-27 09:00,ZBAA 270900Z AUTO 07004KT 6SM 00/M16 A3053 RMK SLP345 T00051158 52005 IEM_DS3505
ZBAA,1998-01-27 11:00,ZBAA 271100Z AUTO 30010KT 6SM 00/M17 A3059 RMK SLP367 T00001170 IEM_DS3505
ZBAA,1998-01-27 12:00,ZBAA 271200Z AUTO 00000KT 6SM M03/M12 A3062 RMK SLP370 T10281120 52024 IEM_DS3505
ZBAA,1998-01-27 13:00,ZBAA 271300Z AUTO 35006KT 7SM M03/M15 A3065 RMK SLP388 T10301150 IEM_DS3505
ZBAA,1998-01-27 14:00,ZBAA 271400Z AUTO 03004KT 7SM M05/M14 A3068 RMK SLP399 T10501140 IEM_DS3505
ZBAA,1998-01-27 15:00,ZBAA 271500Z AUTO 34008KT 6SM M02/M18 A3071 RMK SLP392 T10161183 52022 IEM_DS3505
ZBAA,1998-01-27 17:00,ZBAA 271700Z AUTO 34004KT 7SM M06/M18 A3074 RMK SLP420 T10601180 IEM_DS3505
ZBAA,1998-01-27 18:00,ZBAA 271800Z AUTO 04006KT 6SM M06/M16 A3074 RMK SLP404 T10601159 52012 IEM_DS3505
ZBAA,1998-01-27 19:00,ZBAA 271900Z AUTO 32008KT 7SM M06/M20 A3074 RMK SLP420 T10601200 IEM_DS3505
ZBAA,1998-01-27 20:00,ZBAA 272000Z AUTO 35008KT 7SM M08/M19 A3074 RMK SLP421 T10801190 IEM_DS3505
ZBAA,1998-01-27 21:00,ZBAA 272100Z AUTO 34008KT 10SM M04/M23 A3074 RMK SLP405 T10421230 52001 IEM_DS3505
ZBAA,1998-01-27 22:00,ZBAA 272200Z AUTO 03004KT 7SM M08/M21 A3074 RMK SLP421 T10801210 IEM_DS3505
ZBAA,1998-01-28 00:00,ZBAA 280000Z AUTO 34006KT 12SM M05/M23 A3077 RMK SLP412 T10501231 52007 IEM_DS3505
ZBAA,1998-01-28 01:00,ZBAA 280100Z AUTO 36008KT 7SM M06/M21 A3077 RMK SLP430 T10601210 IEM_DS3505
ZBAA,1998-01-28 02:00,ZBAA 280200Z AUTO 02008KT 7SM M05/M21 A3077 RMK SLP430 T10501210 IEM_DS3505
ZBAA,1998-01-28 03:00,ZBAA 280300Z AUTO 34008KT 12SM M02/M22 A3077 RMK SLP419 T10181223 52007 IEM_DS3505
ZBAA,1998-01-28 04:00,ZBAA 280400Z AUTO 36008KT 7SM M02/M21 A3074 RMK SLP419 T10201210 IEM_DS3505
ZBAA,1998-01-28 05:00,ZBAA 280500Z AUTO 34008KT 7SM 00/M22 A3071 RMK SLP408 T00001220 IEM_DS3505
ZBAA,1998-01-28 06:00,ZBAA 280600Z AUTO 29006KT 14SM 02/M23 A3074 RMK SLP393 T00161226 57026 IEM_DS3505
ZBAA,1998-01-28 07:00,ZBAA 280700Z AUTO 31010KT 7SM 01/M22 A3065 RMK SLP387 T00101220 IEM_DS3505
ZBAA,1998-01-28 08:00,ZBAA 280800Z AUTO 31010KT 7SM 02/M22 A3065 RMK SLP387 T00201220 IEM_DS3505
ZBAA,1998-01-28 09:00,ZBAA 280900Z AUTO 22006KT 12SM 02/M23 A3065 RMK SLP381 T00161226 57011 IEM_DS3505
ZBAA,1998-01-28 10:00,ZBAA 281000Z AUTO 28004KT 7SM 00/M22 A3065 RMK SLP388 T00001220 IEM_DS3505
ZBAA,1998-01-28 11:00,ZBAA 281100Z AUTO 25004KT 7SM 00/M22 A3065 RMK SLP388 T00001220 IEM_DS3505
ZBAA,1998-01-28 12:00,ZBAA 281200Z AUTO 20004KT 11SM M02/M21 A3062 RMK SLP376 T10241212 57006 IEM_DS3505
ZBAA,1998-01-28 13:00,ZBAA 281300Z AUTO 20004KT 7SM M01/M18 A3062 RMK SLP378 T10101180 IEM_DS3505
ZBAA,1998-01-28 14:00,ZBAA 281400Z AUTO 20004KT 7SM M04/M18 A3059 RMK SLP368 T10401180 IEM_DS3505
ZBAA,1998-01-28 15:00,ZBAA 281500Z AUTO 25006KT 9SM M04/M16 A3059 RMK SLP367 T10391162 57009 IEM_DS3505
ZBAA,1998-01-28 16:00,ZBAA 281600Z AUTO 04002KT 7SM M09/M17 A3059 RMK SLP370 T10901170 IEM_DS3505
ZBAA,1998-01-28 17:00,ZBAA 281700Z AUTO 03002KT 7SM M08/M17 A3056 RMK SLP359 T10801170 IEM_DS3505
ZBAA,1998-01-28 18:00,ZBAA 281800Z AUTO 20008KT 9SM M05/M17 A3056 RMK SLP348 T10531167 57018 IEM_DS3505
ZBAA,1998-01-28 19:00,ZBAA 281900Z AUTO 36002KT 5SM M09/M18 A3056 RMK SLP360 T10901180 IEM_DS3505
ZBAA,1998-01-28 20:00,ZBAA 282000Z AUTO 36002KT 5SM M10/M18 A3053 RMK SLP350 T11001180 IEM_DS3505
ZBAA,1998-01-28 21:00,ZBAA 282100Z AUTO 25002KT 9SM M08/M15 A3050 RMK SLP333 T10751149 57015 IEM_DS3505
ZBAA,1998-01-28 22:00,ZBAA 282200Z AUTO 02002KT 7SM M11/M18 A3047 RMK SLP330 T11101180 IEM_DS3505
ZBAA,1998-01-28 23:00,ZBAA 282300Z AUTO 01002KT 7SM M11/M18 A3047 RMK SLP330 T11101180 IEM_DS3505
ZBAA,1998-01-29 00:00,ZBAA 290000Z AUTO 16004KT 4SM M10/M15 A3047 RMK SLP324 T10981150 57010 IEM_DS3505
ZBAA,1998-01-29 01:00,ZBAA 290100Z AUTO 36002KT 6SM M09/M16 A3047 RMK SLP330 T10901160 IEM_DS3505
ZBAA,1998-01-29 02:00,ZBAA 290200Z AUTO 34002KT 6SM M07/M16 A3045 RMK SLP322 T10701160 IEM_DS3505
ZBAA,1998-01-29 03:00,ZBAA 290300Z AUTO 32004KT 5SM M02/M17 A3045 RMK SLP307 T10241167 57016 IEM_DS3505
ZBAA,1998-01-29 05:00,ZBAA 290500Z AUTO ////02KT 6SM 01/M16 A3036 RMK SLP289 T00101160 IEM_DS3505
ZBAA,1998-01-29 06:00,ZBAA 290600Z AUTO 11004KT 6SM 02/M17 A3033 RMK SLP271 T00181172 57036 IEM_DS3505
ZBAA,1998-01-29 07:00,ZBAA 290700Z AUTO 16004KT 7SM 02/M17 A3030 RMK SLP268 T00201170 IEM_DS3505
ZBAA,1998-01-29 09:00,ZBAA 290900Z AUTO 20006KT 6SM 02/M12 A3030 RMK SLP266 T00181121 57005 IEM_DS3505
ZBAA,1998-01-29 10:00,ZBAA 291000Z AUTO 17002KT 4SM 00/M14 A3030 RMK SLP269 T00001140 IEM_DS3505
ZBAA,1998-01-29 11:00,ZBAA 291100Z AUTO 06002KT 4SM M03/M14 A3033 RMK SLP280 T10301140 IEM_DS3505
ZBAA,1998-01-29 12:00,ZBAA 291200Z AUTO 20002KT 4SM M03/M14 A3033 RMK SLP273 T10341136 52006 IEM_DS3505
ZBAA,1998-01-29 13:00,ZBAA 291300Z AUTO 08002KT 2SM M04/M11 A3033 RMK SLP280 T10401110 IEM_DS3505
ZBAA,1998-01-29 14:00,ZBAA 291400Z AUTO 36004KT 2SM M04/M13 A3033 RMK SLP280 T10401130 IEM_DS3505
ZBAA,1998-01-29 15:00,ZBAA 291500Z AUTO 22004KT 4SM M05/M12 A3033 RMK SLP276 T10511123 52004 IEM_DS3505
ZBAA,1998-01-29 16:00,ZBAA 291600Z AUTO 36004KT 2 1/2SM M06/M15 A3036 RMK SLP290 T10601150 IEM_DS3505
ZBAA,1998-01-29 18:00,ZBAA 291800Z AUTO 02004KT 4SM M03/M14 A3036 RMK SLP283 T10301142 52007 IEM_DS3505
ZBAA,1998-01-29 19:00,ZBAA 291900Z AUTO 36008KT 7SM M04/M16 A3036 RMK SLP290 T10401160 IEM_DS3505
ZBAA,1998-01-29 20:00,ZBAA 292000Z AUTO 31002KT 7SM M05/M16 A3039 RMK SLP301 T10501160 IEM_DS3505
ZBAA,1998-01-29 21:00,ZBAA 292100Z AUTO 36004KT 4SM M02/M15 A3039 RMK SLP291 T10241151 52008 IEM_DS3505
ZBAA,1998-01-29 22:00,ZBAA 292200Z AUTO 35006KT 6SM M03/M16 A3039 RMK SLP301 T10301160 IEM_DS3505
ZBAA,1998-01-29 23:00,ZBAA 292300Z AUTO 01006KT 6SM M03/M16 A3042 RMK SLP311 T10301160 IEM_DS3505
ZBAA,1998-01-30 00:00,ZBAA 300000Z AUTO 04004KT 6SM M00/M16 A3045 RMK SLP309 T10021161 52018 IEM_DS3505
ZBAA,1998-01-30 01:00,ZBAA 300100Z AUTO 02006KT 6SM M01/M14 A3047 RMK SLP327 T10101140 IEM_DS3505
ZBAA,1998-01-30 03:00,ZBAA 300300Z AUTO 07006KT 7SM 03/M17 A3047 RMK SLP322 T00331166 52013 IEM_DS3505
ZBAA,1998-01-30 04:00,ZBAA 300400Z AUTO 04008KT 6SM 04/M14 A3047 RMK SLP326 T00401140 IEM_DS3505
ZBAA,1998-01-30 05:00,ZBAA 300500Z AUTO 04008KT 6SM 05/M16 A3047 RMK SLP326 T00501160 IEM_DS3505
ZBAA,1998-01-30 06:00,ZBAA 300600Z AUTO 04010KT 9SM 06/M19 A3045 RMK SLP316 T00591186 57006 IEM_DS3505
ZBAA,1998-01-30 07:00,ZBAA 300700Z AUTO 03008KT 6SM 05/M17 A3045 RMK SLP319 T00501170 IEM_DS3505
ZBAA,1998-01-30 08:00,ZBAA 300800Z AUTO 03006KT 6SM 05/M16 A3045 RMK SLP319 T00501160 IEM_DS3505
ZBAA,1998-01-30 09:00,ZBAA 300900Z AUTO 04004KT 11SM 06/M16 A3045 RMK SLP318 T00551161 52002 IEM_DS3505
ZBAA,1998-01-30 10:00,ZBAA 301000Z AUTO ////02KT 6SM 03/M17 A3047 RMK SLP326 T00301170 IEM_DS3505
ZBAA,1998-01-30 11:00,ZBAA 301100Z AUTO 00000KT 6SM 02/M16 A3050 RMK SLP337 T00201160 IEM_DS3505
ZBAA,1998-01-30 13:00,ZBAA 301300Z AUTO 30006KT 6SM M02/M16 A3053 RMK SLP348 T10201160 IEM_DS3505
ZBAA,1998-01-30 14:00,ZBAA 301400Z AUTO 29004KT 6SM M01/M16 A3053 RMK SLP348 T10101160 IEM_DS3505
ZBAA,1998-01-30 15:00,ZBAA 301500Z AUTO 25004KT 7SM M01/M14 A3056 RMK SLP345 T10121136 52015 IEM_DS3505
ZBAA,1998-01-30 16:00,ZBAA 301600Z AUTO 35006KT 7SM M02/M15 A3056 RMK SLP358 T10201150 IEM_DS3505
ZBAA,1998-01-30 17:00,ZBAA 301700Z AUTO 01002KT 7SM M04/M15 A3056 RMK SLP358 T10401150 IEM_DS3505
ZBAA,1998-01-30 19:00,ZBAA 301900Z AUTO 06004KT 7SM M06/M13 A3056 RMK SLP359 T10601130 IEM_DS3505
ZBAA,1998-01-30 20:00,ZBAA 302000Z AUTO 06002KT 7SM M05/M12 A3059 RMK SLP369 T10501120 IEM_DS3505
ZBAA,1998-01-30 21:00,ZBAA 302100Z AUTO 02004KT 9SM M04/M16 A3059 RMK SLP354 T10401156 52006 IEM_DS3505
ZBAA,1998-01-30 22:00,ZBAA 302200Z AUTO 03002KT 4SM M06/M11 A3059 RMK SLP369 T10601110 IEM_DS3505
ZBAA,1998-01-30 23:00,ZBAA 302300Z AUTO 00000KT 4SM M06/M11 A3062 RMK SLP379 T10601110 IEM_DS3505
ZBAA,1998-01-31 01:00,ZBAA 310100Z AUTO 00000KT 4SM M05/M11 A3065 RMK SLP389 T10501110 IEM_DS3505
ZBAA,1998-01-31 02:00,ZBAA 310200Z AUTO 04002KT 4SM M03/M09 A3065 RMK SLP388 T10301090 IEM_DS3505
ZBAA,1998-01-31 03:00,ZBAA 310300Z AUTO 09004KT 7SM M01/M08 A3065 RMK SLP378 T10081081 54000 IEM_DS3505
ZBAA,1998-01-31 04:00,ZBAA 310400Z AUTO ////02KT 4SM 00/M08 A3062 RMK SLP378 T00001080 IEM_DS3505
ZBAA,1998-01-31 06:00,ZBAA 310600Z AUTO 16006KT 7SM 02/M11 A3056 RMK SLP345 T00221108 57033 IEM_DS3505
ZBAA,1998-01-31 07:00,ZBAA 310700Z AUTO ////04KT 6SM 02/M12 A3053 RMK SLP347 T00201120 IEM_DS3505
ZBAA,1998-01-31 08:00,ZBAA 310800Z AUTO 20002KT 6SM 02/M11 A3053 RMK SLP347 T00201110 IEM_DS3505
ZBAA,1998-01-31 10:00,ZBAA 311000Z AUTO 17002KT 7SM 00/M11 A3053 RMK SLP347 T00001110 IEM_DS3505
ZBAA,1998-01-31 12:00,ZBAA 311200Z AUTO 00000KT 9SM M01/M10 A3053 RMK SLP346 T10071099 52005 IEM_DS3505
ZBAA,1998-01-31 13:00,ZBAA 311300Z AUTO 13004KT 4SM M01/M10 A3053 RMK SLP348 T10101100 IEM_DS3505
ZBAA,1998-01-31 14:00,ZBAA 311400Z AUTO 14004KT 7SM M01/M09 A3056 RMK SLP358 T10101090 IEM_DS3505
ZBAA,1998-01-31 15:00,ZBAA 311500Z AUTO 16004KT 9SM M02/M09 A3053 RMK SLP344 T10151091 57001 IEM_DS3505
ZBAA,1998-01-31 16:00,ZBAA 311600Z AUTO 16004KT 6SM M02/M08 A3053 RMK SLP348 T10201080 IEM_DS3505
ZBAA,1998-01-31 17:00,ZBAA 311700Z AUTO 10002KT 6SM M02/M09 A3053 RMK SLP348 T10201090 IEM_DS3505
ZBAA,1998-01-31 18:00,ZBAA 311800Z AUTO 14002KT 7SM M02/M08 A3053 RMK SLP342 T10231083 57002 IEM_DS3505
ZBAA,1998-01-31 19:00,ZBAA 311900Z AUTO 13004KT 6SM M03/M08 A3053 RMK SLP348 T10301080 IEM_DS3505
ZBAA,1998-01-31 20:00,ZBAA 312000Z AUTO 08002KT 6SM M04/M08 A3050 RMK SLP338 T10401080 IEM_DS3505
ZBAA,1998-01-31 22:00,ZBAA 312200Z AUTO 00000KT 6SM M04/M08 A3050 RMK SLP338 T10401080 IEM_DS3505
ZBAA,1998-01-31 23:00,ZBAA 312300Z AUTO 00000KT 5SM M05/M08 A3050 RMK SLP339 T10501080 IEM_DS3505
ZBAA,1998-02-01 00:00,ZBAA 010000Z AUTO 00000KT 6SM M03/M08 A3050 RMK SLP334 T10341075 52001 IEM_DS3505
ZBAA,1998-02-01 01:00,ZBAA 010100Z AUTO 00000KT 4SM M03/M07 A3053 RMK SLP348 T10301070 IEM_DS3505
ZBAA,1998-02-01 02:00,ZBAA 010200Z AUTO 00000KT 5SM M02/M07 A3053 RMK SLP348 T10201070 IEM_DS3505
ZBAA,1998-02-01 03:00,ZBAA 010300Z AUTO 11002KT 4SM 00/M07 A3053 RMK SLP337 T00001074 52003 IEM_DS3505
ZBAA,1998-02-01 04:00,ZBAA 010400Z AUTO ////02KT 5SM 01/M07 A3050 RMK SLP337 T00101070 IEM_DS3505
ZBAA,1998-02-01 05:00,ZBAA 010500Z AUTO 10002KT 6SM 02/M08 A3047 RMK SLP327 T00201080 IEM_DS3505
ZBAA,1998-02-01 06:00,ZBAA 010600Z AUTO 22006KT 5SM 04/M08 A3045 RMK SLP307 T00351084 57030 IEM_DS3505
ZBAA,1998-02-01 07:00,ZBAA 010700Z AUTO ////02KT 5SM 03/M08 A3042 RMK SLP309 T00301080 IEM_DS3505
ZBAA,1998-02-01 08:00,ZBAA 010800Z AUTO 00000KT 4SM 03/M08 A3042 RMK SLP309 T00301080 IEM_DS3505
ZBAA,1998-02-01 09:00,ZBAA 010900Z AUTO 00000KT 6SM 03/M08 A3042 RMK SLP301 T00291075 57006 IEM_DS3505
ZBAA,1998-02-01 10:00,ZBAA 011000Z AUTO 02002KT 4SM 00/M07 A3042 RMK SLP310 T00001070 IEM_DS3505
ZBAA,1998-02-01 11:00,ZBAA 011100Z AUTO 00000KT 4SM M01/M08 A3045 RMK SLP320 T10101080 IEM_DS3505
ZBAA,1998-02-01 12:00,ZBAA 011200Z AUTO 20004KT 7SM M02/M08 A3045 RMK SLP310 T10151081 52009 IEM_DS3505
ZBAA,1998-02-01 13:00,ZBAA 011300Z AUTO 00000KT 3SM M01/M07 A3045 RMK SLP320 T10101070 IEM_DS3505
ZBAA,1998-02-01 14:00,ZBAA 011400Z AUTO 00000KT 3SM M04/M08 A3045 RMK SLP321 T10401080 IEM_DS3505
ZBAA,1998-02-01 15:00,ZBAA 011500Z AUTO 20002KT 5SM M02/M10 A3042 RMK SLP304 T10211099 57006 IEM_DS3505
ZBAA,1998-02-01 16:00,ZBAA 011600Z AUTO 00000KT 2 1/2SM M06/M08 A3042 RMK SLP310 T10601080 IEM_DS3505
ZBAA,1998-02-01 17:00,ZBAA 011700Z AUTO 36002KT 2SM M05/M08 A3042 RMK SLP311 T10501080 IEM_DS3505
ZBAA,1998-02-01 18:00,ZBAA 011800Z AUTO 20002KT 4SM M05/M10 A3042 RMK SLP299 T10501105 57005 IEM_DS3505
ZBAA,1998-02-01 19:00,ZBAA 011900Z AUTO 36002KT 2SM M06/M09 A3039 RMK SLP300 T10601090 IEM_DS3505
ZBAA,1998-02-01 20:00,ZBAA 012000Z AUTO 36006KT 3SM M06/M09 A3039 RMK SLP302 T10601090 IEM_DS3505
ZBAA,1998-02-01 21:00,ZBAA 012100Z AUTO 20002KT 2SM M06/M10 A3039 RMK SLP290 T10611105 57009 IEM_DS3505
ZBAA,1998-02-01 22:00,ZBAA 012200Z AUTO 35004KT 3SM M06/M10 A3039 RMK SLP302 T10601100 IEM_DS3505
ZBAA,1998-02-01 23:00,ZBAA 012300Z AUTO 33006KT 3SM M05/M09 A3039 RMK SLP301 T10501090 IEM_DS3505
ZBAA,1998-02-02 00:00,ZBAA 020000Z AUTO 00000KT 4SM M06/M10 A3039 RMK SLP292 T10611095 52002 IEM_DS3505
ZBAA,1998-02-02 01:00,ZBAA 020100Z AUTO 33004KT 3SM M04/M09 A3039 RMK SLP301 T10401090 IEM_DS3505
ZBAA,1998-02-02 02:00,ZBAA 020200Z AUTO 35006KT 5SM M03/M09 A3036 RMK SLP290 T10301090 IEM_DS3505
ZBAA,1998-02-02 03:00,ZBAA 020300Z AUTO 02004KT 5SM 00/M10 A3036 RMK SLP284 T00041101 57008 IEM_DS3505
ZBAA,1998-02-02 04:00,ZBAA 020400Z AUTO 32004KT 5SM 00/M09 A3033 RMK SLP279 T00001090 IEM_DS3505
ZBAA,1998-02-02 05:00,ZBAA 020500Z AUTO 34004KT 4SM 01/M09 A3030 RMK SLP269 T00101090 IEM_DS3505
ZBAA,1998-02-02 06:00,ZBAA 020600Z AUTO 18004KT 4SM 03/M08 A3030 RMK SLP263 T00281076 57021 IEM_DS3505
ZBAA,1998-02-02 07:00,ZBAA 020700Z AUTO 00000KT 4SM 02/M09 A3030 RMK SLP268 T00201090 IEM_DS3505
ZBAA,1998-02-02 08:00,ZBAA 020800Z AUTO 06002KT 4SM 02/M08 A3027 RMK SLP258 T00201080 IEM_DS3505
ZBAA,1998-02-02 09:00,ZBAA 020900Z AUTO 20004KT 4SM 02/M08 A3024 RMK SLP253 T00251076 57010 IEM_DS3505
ZBAA,1998-02-02 10:00,ZBAA 021000Z AUTO 00000KT 2SM 01/M08 A3027 RMK SLP258 T00101080 IEM_DS3505
ZBAA,1998-02-02 11:00,ZBAA 021100Z AUTO 00000KT 3SM 01/M08 A3030 RMK SLP269 T00101080 IEM_DS3505
ZBAA,1998-02-02 12:00,ZBAA 021200Z AUTO 34004KT 4SM 01/M07 A3033 RMK SLP271 T00121069 52018 IEM_DS3505
ZBAA,1998-02-02 13:00,ZBAA 021300Z AUTO 34004KT 3SM 01/M08 A3033 RMK SLP279 T00101080 IEM_DS3505
ZBAA,1998-02-02 14:00,ZBAA 021400Z AUTO 31004KT 4SM 01/M05 A3033 RMK SLP279 T00101050 IEM_DS3505
ZBAA,1998-02-02 15:00,ZBAA 021500Z AUTO 34002KT 5SM 00/M06 A3033 RMK SLP271 T00051062 54000 IEM_DS3505
ZBAA,1998-02-02 16:00,ZBAA 021600Z AUTO 31006KT 3SM M01/M04 A3033 RMK SLP279 T10101040 IEM_DS3505
ZBAA,1998-02-02 17:00,ZBAA 021700Z AUTO 35002KT 2SM M02/M04 A3033 RMK SLP279 T10201040 IEM_DS3505
ZBAA,1998-02-02 18:00,ZBAA 021800Z AUTO 34002KT 4SM M00/M06 A3033 RMK SLP273 T10031056 52003 IEM_DS3505
ZBAA,1998-02-02 19:00,ZBAA 021900Z AUTO 01004KT 2 1/2SM M01/M04 A3036 RMK SLP289 T10101040 IEM_DS3505
ZBAA,1998-02-02 20:00,ZBAA 022000Z AUTO 00000KT 2 1/2SM M03/M05 A3036 RMK SLP290 T10301050 IEM_DS3505
ZBAA,1998-02-02 21:00,ZBAA 022100Z AUTO 34008KT 6SM 02/M10 A3036 RMK SLP282 T00191099 52009 IEM_DS3505
ZBAA,1998-02-02 22:00,ZBAA 022200Z AUTO 33004KT 4SM M02/M06 A3039 RMK SLP301 T10201060 IEM_DS3505
ZBAA,1998-02-02 23:00,ZBAA 022300Z AUTO 01006KT 6SM M02/M07 A3042 RMK SLP311 T10201070 IEM_DS3505
ZBAA,1998-02-03 00:00,ZBAA 030000Z AUTO 34008KT 9SM 02/M16 A3047 RMK SLP319 T00161162 52036 IEM_DS3505
ZBAA,1998-02-03 02:00,ZBAA 030200Z AUTO 01008KT 7SM 02/M13 A3053 RMK SLP347 T00201130 IEM_DS3505
ZBAA,1998-02-03 03:00,ZBAA 030300Z AUTO 34010KT 12SM 04/M17 A3056 RMK SLP346 T00371166 52027 IEM_DS3505
ZBAA,1998-02-03 04:00,ZBAA 030400Z AUTO 02012KT 7SM 03/M16 A3056 RMK SLP357 T00301160 IEM_DS3505
ZBAA,1998-02-03 05:00,ZBAA 030500Z AUTO 03014KT 7SM 04/M18 A3056 RMK SLP356 T00401180 IEM_DS3505
ZBAA,1998-02-03 06:00,ZBAA 030600Z AUTO 32010KT 12SM 05/M19 A3053 RMK SLP346 T00491192 54000 IEM_DS3505
ZBAA,1998-02-03 07:00,ZBAA 030700Z AUTO 02010KT 7SM 05/M20 A3056 RMK SLP356 T00501200 IEM_DS3505
ZBAA,1998-02-03 08:00,ZBAA 030800Z AUTO 04008KT 7SM 05/M22 A3056 RMK SLP356 T00501220 IEM_DS3505
ZBAA,1998-02-03 09:00,ZBAA 030900Z AUTO 34012KT 12SM 04/M20 A3059 RMK SLP357 T00441200 52011 IEM_DS3505
ZBAA,1998-02-03 10:00,ZBAA 031000Z AUTO 33010KT 7SM 02/M21 A3062 RMK SLP377 T00201210 IEM_DS3505
ZBAA,1998-02-03 11:00,ZBAA 031100Z AUTO 33012KT 7SM 01/M21 A3065 RMK SLP387 T00101210 IEM_DS3505
ZBAA,1998-02-03 12:00,ZBAA 031200Z AUTO 32010KT 12SM 01/M25 A3068 RMK SLP386 T00121249 52029 IEM_DS3505
ZBAA,1998-02-03 13:00,ZBAA 031300Z AUTO 31012KT 7SM M01/M20 A3071 RMK SLP408 T10101200 IEM_DS3505
ZBAA,1998-02-03 15:00,ZBAA 031500Z AUTO 34010KT 12SM M00/M26 A3071 RMK SLP401 T10031261 52015 IEM_DS3505
ZBAA,1998-02-03 16:00,ZBAA 031600Z AUTO 33012KT 7SM M02/M22 A3071 RMK SLP408 T10201220 IEM_DS3505
ZBAA,1998-02-03 17:00,ZBAA 031700Z AUTO 33010KT 7SM M02/M21 A3071 RMK SLP408 T10201210 IEM_DS3505
ZBAA,1998-02-03 18:00,ZBAA 031800Z AUTO 34010KT 12SM M02/M25 A3071 RMK SLP401 T10151253 54000 IEM_DS3505
ZBAA,1998-02-03 19:00,ZBAA 031900Z AUTO 31010KT 7SM M03/M21 A3071 RMK SLP409 T10301210 IEM_DS3505
ZBAA,1998-02-03 20:00,ZBAA 032000Z AUTO 33008KT 7SM M03/M21 A3068 RMK SLP398 T10301210 IEM_DS3505
ZBAA,1998-02-03 21:00,ZBAA 032100Z AUTO 29006KT 12SM M03/M23 A3068 RMK SLP388 T10281233 57013 IEM_DS3505
ZBAA,1998-02-03 22:00,ZBAA 032200Z AUTO 31008KT 7SM M04/M20 A3068 RMK SLP399 T10401200 IEM_DS3505
ZBAA,1998-02-03 23:00,ZBAA 032300Z AUTO 32010KT 7SM M04/M20 A3068 RMK SLP399 T10401200 IEM_DS3505
ZBAA,1998-02-04 00:00,ZBAA 040000Z AUTO 32004KT 7SM M04/M20 A3068 RMK SLP387 T10371203 57001 IEM_DS3505
ZBAA,1998-02-04 01:00,ZBAA 040100Z AUTO 34008KT 7SM M02/M20 A3068 RMK SLP398 T10201200 IEM_DS3505
ZBAA,1998-02-04 02:00,ZBAA 040200Z AUTO 32017KT 7SM 00/M20 A3068 RMK SLP398 T00001200 IEM_DS3505
ZBAA,1998-02-04 03:00,ZBAA 040300Z AUTO 34008KT 19SM 02/M17 A3065 RMK SLP380 T00161172 57007 IEM_DS3505
ZBAA,1998-02-04 04:00,ZBAA 040400Z AUTO 31017G27KT 7SM 02/M19 A3062 RMK SLP377 T00201190 IEM_DS3505
ZBAA,1998-02-04 05:00,ZBAA 040500Z AUTO 31014KT 7SM 03/M19 A3059 RMK SLP367 T00301190 IEM_DS3505
ZBAA,1998-02-04 06:00,ZBAA 040600Z AUTO 34008G25KT 12SM 05/M22 A3053 RMK SLP344 T00491216 57036 IEM_DS3505
ZBAA,1998-02-04 07:00,ZBAA 040700Z AUTO 30016KT 7SM 05/M18 A3050 RMK SLP336 T00501180 IEM_DS3505
ZBAA,1998-02-04 08:00,ZBAA 040800Z AUTO 30012KT 7SM 05/M17 A3050 RMK SLP336 T00501170 IEM_DS3505
ZBAA,1998-02-04 09:00,ZBAA 040900Z AUTO 29010KT 12SM 05/M18 A3050 RMK SLP333 T00511184 57011 IEM_DS3505
ZBAA,1998-02-04 10:00,ZBAA 041000Z AUTO 30012KT 7SM 03/M17 A3050 RMK SLP337 T00301170 IEM_DS3505
ZBAA,1998-02-04 11:00,ZBAA 041100Z AUTO 29012KT 7SM 02/M16 A3050 RMK SLP337 T00201160 IEM_DS3505
ZBAA,1998-02-04 12:00,ZBAA 041200Z AUTO 29006KT 12SM 02/M18 A3050 RMK SLP334 T00201177 52001 IEM_DS3505
ZBAA,1998-02-04 13:00,ZBAA 041300Z AUTO 29012KT 7SM 02/M15 A3050 RMK SLP337 T00201150 IEM_DS3505
ZBAA,1998-02-04 14:00,ZBAA 041400Z AUTO 28008KT 7SM 01/M15 A3050 RMK SLP337 T00101150 IEM_DS3505
ZBAA,1998-02-04 15:00,ZBAA 041500Z AUTO 34006KT 12SM 01/M16 A3047 RMK SLP331 T00071160 57003 IEM_DS3505
ZBAA,1998-02-04 16:00,ZBAA 041600Z AUTO 30014KT 7SM 01/M15 A3047 RMK SLP327 T00101150 IEM_DS3505
ZBAA,1998-02-04 17:00,ZBAA 041700Z AUTO 31014KT 7SM 01/M15 A3047 RMK SLP327 T00101150 IEM_DS3505
ZBAA,1998-02-04 18:00,ZBAA 041800Z AUTO 32004KT 12SM 00/M15 A3047 RMK SLP321 T00031154 57009 IEM_DS3505
ZBAA,1998-02-04 19:00,ZBAA 041900Z AUTO 31017KT 7SM 01/M17 A3045 RMK SLP320 T00101170 IEM_DS3505
ZBAA,1998-02-04 20:00,ZBAA 042000Z AUTO 31016KT 7SM 01/M17 A3045 RMK SLP320 T00101170 IEM_DS3505
ZBAA,1998-02-04 21:00,ZBAA 042100Z AUTO 34004KT 12SM M00/M18 A3042 RMK SLP305 T10021183 57016 IEM_DS3505
ZBAA,1998-02-04 22:00,ZBAA 042200Z AUTO 34010KT 7SM 00/M18 A3042 RMK SLP310 T00001180 IEM_DS3505
ZBAA,1998-02-04 23:00,ZBAA 042300Z AUTO 32014KT 7SM 00/M18 A3042 RMK SLP310 T00001180 IEM_DS3505
ZBAA,1998-02-05 00:00,ZBAA 050000Z AUTO 34004KT 19SM M00/M19 A3042 RMK SLP307 T10021193 52001 IEM_DS3505
ZBAA,1998-02-05 01:00,ZBAA 050100Z AUTO 32021KT 7SM 01/M19 A3042 RMK SLP310 T00101190 IEM_DS3505
ZBAA,1998-02-05 02:00,ZBAA 050200Z AUTO 32014KT 7SM 02/M19 A3042 RMK SLP310 T00201190 IEM_DS3505
ZBAA,1998-02-05 03:00,ZBAA 050300Z AUTO 34008G27KT 12SM 04/M20 A3039 RMK SLP296 T00401202 57010 IEM_DS3505
ZBAA,1998-02-05 04:00,ZBAA 050400Z AUTO 31016KT 7SM 05/M19 A3036 RMK SLP288 T00501190 IEM_DS3505
ZBAA,1998-02-05 05:00,ZBAA 050500Z AUTO 31016KT 7SM 06/M19 A3033 RMK SLP277 T00601190 IEM_DS3505
ZBAA,1998-02-05 06:00,ZBAA 050600Z AUTO 32004G23KT 12SM 08/M19 A3027 RMK SLP259 T00771189 57037 IEM_DS3505
ZBAA,1998-02-05 07:00,ZBAA 050700Z AUTO 28017KT 7SM 07/M19 A3024 RMK SLP247 T00701190 IEM_DS3505
ZBAA,1998-02-05 08:00,ZBAA 050800Z AUTO 29014KT 7SM 07/M19 A3024 RMK SLP247 T00701190 IEM_DS3505
ZBAA,1998-02-05 09:00,ZBAA 050900Z AUTO 25010KT 12SM 07/M21 A3021 RMK SLP244 T00721210 57015 IEM_DS3505
ZBAA,1998-02-05 10:00,ZBAA 051000Z AUTO 28012KT 7SM 05/M19 A3024 RMK SLP247 T00501190 IEM_DS3505
ZBAA,1998-02-05 11:00,ZBAA 051100Z AUTO 28012KT 7SM 05/M18 A3024 RMK SLP247 T00501180 IEM_DS3505
ZBAA,1998-02-05 12:00,ZBAA 051200Z AUTO 25002KT 12SM 02/M18 A3024 RMK SLP249 T00251179 52005 IEM_DS3505
ZBAA,1998-02-05 13:00,ZBAA 051300Z AUTO 27004KT 7SM 02/M17 A3024 RMK SLP248 T00201170 IEM_DS3505
ZBAA,1998-02-05 14:00,ZBAA 051400Z AUTO 29010KT 7SM 03/M16 A3024 RMK SLP248 T00301160 IEM_DS3505
ZBAA,1998-02-05 15:00,ZBAA 051500Z AUTO 34004KT 11SM 03/M17 A3024 RMK SLP244 T00311170 57005 IEM_DS3505
ZBAA,1998-02-05 16:00,ZBAA 051600Z AUTO 30010KT 7SM 02/M16 A3021 RMK SLP238 T00201160 IEM_DS3505
ZBAA,1998-02-05 17:00,ZBAA 051700Z AUTO 29008KT 7SM 02/M16 A3021 RMK SLP238 T00201160 IEM_DS3505
ZBAA,1998-02-05 18:00,ZBAA 051800Z AUTO 34004KT 12SM 02/M16 A3021 RMK SLP237 T00211155 57007 IEM_DS3505
ZBAA,1998-02-05 19:00,ZBAA 051900Z AUTO 30012KT 7SM 02/M17 A3018 RMK SLP228 T00201170 IEM_DS3505
ZBAA,1998-02-05 20:00,ZBAA 052000Z AUTO 30006KT 7SM 01/M17 A3018 RMK SLP228 T00101170 IEM_DS3505
ZBAA,1998-02-05 21:00,ZBAA 052100Z AUTO 34004KT 12SM 02/M16 A3015 RMK SLP218 T00171165 57019 IEM_DS3505
ZBAA,1998-02-05 22:00,ZBAA 052200Z AUTO 31012KT 7SM 01/M16 A3015 RMK SLP218 T00101160 IEM_DS3505
ZBAA,1998-02-05 23:00,ZBAA 052300Z AUTO 31008KT 6SM 02/M16 A3015 RMK SLP218 T00201160 IEM_DS3505
ZBAA,1998-02-06 00:00,ZBAA 060000Z AUTO 34006KT 12SM 02/M16 A3015 RMK SLP217 T00211155 57001 IEM_DS3505
ZBAA,1998-02-06 01:00,ZBAA 060100Z AUTO 32010KT 6SM 02/M16 A3015 RMK SLP218 T00201160 IEM_DS3505
ZBAA,1998-02-06 02:00,ZBAA 060200Z AUTO 32010KT 6SM 05/M16 A3015 RMK SLP217 T00501160 IEM_DS3505
ZBAA,1998-02-06 03:00,ZBAA 060300Z AUTO 27008KT 12SM 06/M20 A3013 RMK SLP211 T00641195 57006 IEM_DS3505
ZBAA,1998-02-06 05:00,ZBAA 060500Z AUTO 31017G29KT 6SM 07/M17 A3006 RMK SLP186 T00701170 IEM_DS3505
ZBAA,1998-02-06 06:00,ZBAA 060600Z AUTO 22008KT 16SM 07/M20 A3003 RMK SLP185 T00671204 57026 IEM_DS3505
ZBAA,1998-02-06 07:00,ZBAA 060700Z AUTO 30012G25KT 6SM 07/M17 A3003 RMK SLP175 T00701170 IEM_DS3505
ZBAA,1998-02-06 09:00,ZBAA 060900Z AUTO 29012KT 16SM 07/M17 A3003 RMK SLP179 T00671172 57006 IEM_DS3505
ZBAA,1998-02-06 10:00,ZBAA 061000Z AUTO 29012G21KT 6SM 06/M17 A3003 RMK SLP176 T00601170 IEM_DS3505
ZBAA,1998-02-06 11:00,ZBAA 061100Z AUTO 29014KT 6SM 05/M17 A3006 RMK SLP186 T00501170 IEM_DS3505
ZBAA,1998-02-06 12:00,ZBAA 061200Z AUTO 29014KT 12SM 05/M19 A3009 RMK SLP198 T00491187 52019 IEM_DS3505
ZBAA,1998-02-06 13:00,ZBAA 061300Z AUTO 30010KT 7SM 03/M17 A3009 RMK SLP197 T00301170 IEM_DS3505
ZBAA,1998-02-06 14:00,ZBAA 061400Z AUTO 30010KT 7SM 03/M16 A3009 RMK SLP197 T00301160 IEM_DS3505
ZBAA,1998-02-06 15:00,ZBAA 061500Z AUTO 32006KT 19SM 03/M18 A3012 RMK SLP205 T00321181 52007 IEM_DS3505
ZBAA,1998-02-06 16:00,ZBAA 061600Z AUTO 31010KT 7SM 01/M17 A3012 RMK SLP208 T00101170 IEM_DS3505
ZBAA,1998-02-06 17:00,ZBAA 061700Z AUTO 32017G27KT 7SM 01/M19 A3012 RMK SLP208 T00101190 IEM_DS3505
ZBAA,1998-02-06 18:00,ZBAA 061800Z AUTO 34010KT 19SM 01/M24 A3012 RMK SLP209 T00121240 52004 IEM_DS3505
ZBAA,1998-02-06 20:00,ZBAA 062000Z AUTO 31008KT 7SM M02/M17 A3012 RMK SLP209 T10201170 IEM_DS3505
ZBAA,1998-02-06 21:00,ZBAA 062100Z AUTO 32017KT 19SM M00/M23 A3012 RMK SLP210 T10051231 52001 IEM_DS3505
ZBAA,1998-02-06 22:00,ZBAA 062200Z AUTO 30014KT 7SM M02/M17 A3012 RMK SLP209 T10201170 IEM_DS3505
ZBAA,1998-02-06 23:00,ZBAA 062300Z AUTO 32014KT 7SM M03/M19 A3015 RMK SLP219 T10301190 IEM_DS3505
ZBAA,1998-02-07 00:00,ZBAA 070000Z AUTO 32012G23KT 17SM M02/M23 A3018 RMK SLP232 T10221232 52022 IEM_DS3505
ZBAA,1998-02-07 01:00,ZBAA 070100Z AUTO 32014G25KT 7SM M02/M22 A3021 RMK SLP239 T10201220 IEM_DS3505
ZBAA,1998-02-07 03:00,ZBAA 070300Z AUTO 29019G37KT 12SM M02/M30 A3021 RMK SLP240 T10151304 52008 IEM_DS3505
ZBAA,1998-02-07 04:00,ZBAA 070400Z AUTO 34021G33KT 7SM M01/M24 A3021 RMK SLP239 T10101240 IEM_DS3505
ZBAA,1998-02-07 05:00,ZBAA 070500Z AUTO 33023G37KT 7SM M01/M24 A3021 RMK SLP239 T10101240 IEM_DS3505
ZBAA,1998-02-07 06:00,ZBAA 070600Z AUTO 32014KT 12SM M01/M31 A3029 RMK SLP238 T10091310 4////1024 57003 IEM_DS3505
ZBAA,1998-02-07 07:00,ZBAA 070700Z AUTO 32029G41KT 7SM M02/M24 A3021 RMK SLP239 T10201240 IEM_DS3505
ZBAA,1998-02-07 08:00,ZBAA 070800Z AUTO 33029G41KT 7SM M02/M24 A3021 RMK SLP239 T10201240 IEM_DS3505
ZBAA,1998-02-07 09:00,ZBAA 070900Z AUTO 29012G33KT 12SM M02/M27 A3024 RMK SLP252 T10191266 52014 IEM_DS3505
ZBAA,1998-02-07 10:00,ZBAA 071000Z AUTO 34016G27KT 7SM M03/M25 A3027 RMK SLP260 T10301250 IEM_DS3505
ZBAA,1998-02-07 11:00,ZBAA 071100Z AUTO 35016KT 7SM M04/M25 A3030 RMK SLP270 T10401250 IEM_DS3505
ZBAA,1998-02-07 12:00,ZBAA 071200Z AUTO 04004KT 16SM M04/M30 A3030 RMK SLP263 T10361300 52011 IEM_DS3505
ZBAA,1998-02-07 13:00,ZBAA 071300Z AUTO 35014KT 7SM M04/M25 A3027 RMK SLP260 T10401250 IEM_DS3505
ZBAA,1998-02-07 14:00,ZBAA 071400Z AUTO 36006KT 7SM M04/M25 A3027 RMK SLP260 T10401250 IEM_DS3505
ZBAA,1998-02-07 15:00,ZBAA 071500Z AUTO 34004KT 12SM M04/M26 A3027 RMK SLP259 T10441263 57004 IEM_DS3505
ZBAA,1998-02-07 17:00,ZBAA 071700Z AUTO 17004KT 7SM M08/M23 A3030 RMK SLP271 T10801230 IEM_DS3505
ZBAA,1998-02-07 18:00,ZBAA 071800Z AUTO 00000KT 12SM M07/M24 A3030 RMK SLP263 T10701239 52004 IEM_DS3505
ZBAA,1998-02-07 21:00,ZBAA 072100Z AUTO 22006KT 9SM M08/M24 A3024 RMK SLP251 T10791239 57012 IEM_DS3505
ZBAA,1998-02-07 22:00,ZBAA 072200Z AUTO 34004KT 7SM M10/M21 A3027 RMK SLP261 T11001210 IEM_DS3505
ZBAA,1998-02-07 23:00,ZBAA 072300Z AUTO 36002KT 7SM M09/M20 A3027 RMK SLP261 T10901200 IEM_DS3505
ZBAA,1998-02-08 00:00,ZBAA 080000Z AUTO 20004KT 11SM M08/M22 A3034 RMK SLP258 T10831225 52006 IEM_DS3505
ZBAA,1998-02-08 01:00,ZBAA 080100Z AUTO 12002KT 5SM M07/M19 A3027 RMK SLP261 T10701190 IEM_DS3505
ZBAA,1998-02-08 02:00,ZBAA 080200Z AUTO ////02KT 5SM M03/M21 A3027 RMK SLP260 T10301210 IEM_DS3505
ZBAA,1998-02-08 03:00,ZBAA 080300Z AUTO 22006KT 9SM M02/M30 A3024 RMK SLP248 T10211297 57009 IEM_DS3505
ZBAA,1998-02-08 05:00,ZBAA 080500Z AUTO 20008KT 6SM 00/M23 A3015 RMK SLP218 T00001230 IEM_DS3505
ZBAA,1998-02-08 06:00,ZBAA 080600Z AUTO 20010KT 9SM 02/M26 A3012 RMK SLP208 T00201263 57040 IEM_DS3505
ZBAA,1998-02-08 07:00,ZBAA 080700Z AUTO 17002KT 6SM 02/M23 A3009 RMK SLP197 T00201230 IEM_DS3505
ZBAA,1998-02-08 08:00,ZBAA 080800Z AUTO 20010KT 6SM 02/M23 A3006 RMK SLP187 T00201230 IEM_DS3505
ZBAA,1998-02-08 09:00,ZBAA 080900Z AUTO 20008KT 11SM 02/M22 A3006 RMK SLP192 T00201215 57016 IEM_DS3505
ZBAA,1998-02-08 10:00,ZBAA 081000Z AUTO 14004KT 6SM M02/M21 A3006 RMK SLP188 T10201210 IEM_DS3505
ZBAA,1998-02-08 11:00,ZBAA 081100Z AUTO 09002KT 6SM M01/M19 A3003 RMK SLP177 T10101190 IEM_DS3505
ZBAA,1998-02-08 12:00,ZBAA 081200Z AUTO 11004KT 7SM M00/M20 A3003 RMK SLP183 T10051199 57009 IEM_DS3505
ZBAA,1998-02-08 13:00,ZBAA 081300Z AUTO 11004KT 6SM M01/M20 A3003 RMK SLP177 T10101200 IEM_DS3505
ZBAA,1998-02-08 14:00,ZBAA 081400Z AUTO 11006KT 6SM M02/M14 A3003 RMK SLP178 T10201140 IEM_DS3505
ZBAA,1998-02-08 15:00,ZBAA 081500Z AUTO 09006KT 6SM M01/M14 A3003 RMK SLP171 T10141145 57012 IEM_DS3505
ZBAA,1998-02-08 16:00,ZBAA 081600Z AUTO 12004KT 6SM M03/M12 A3000 RMK SLP168 T10301120 IEM_DS3505
ZBAA,1998-02-08 17:00,ZBAA 081700Z AUTO 13002KT 6SM M03/M12 A2997 RMK SLP158 T10301120 IEM_DS3505
ZBAA,1998-02-08 18:00,ZBAA 081800Z AUTO 04004KT 7SM M04/M11 A2997 RMK SLP156 T10361109 57014 IEM_DS3505
ZBAA,1998-02-08 21:00,ZBAA 082100Z AUTO 02004KT 7SM M03/M12 A2994 RMK SLP156 T10281118 54000 IEM_DS3505
ZBAA,1998-02-08 22:00,ZBAA 082200Z AUTO 28006KT 6SM M04/M12 A2997 RMK SLP158 T10401120 IEM_DS3505
ZBAA,1998-02-08 23:00,ZBAA 082300Z AUTO 30006KT 6SM M04/M13 A3000 RMK SLP168 T10401130 IEM_DS3505
ZBAA,1998-02-09 00:00,ZBAA 090000Z AUTO 02004KT 6SM M04/M12 A3003 RMK SLP172 T10401116 52015 IEM_DS3505
ZBAA,1998-02-09 01:00,ZBAA 090100Z AUTO 29004KT 4SM M02/M12 A3003 RMK SLP178 T10201120 IEM_DS3505
ZBAA,1998-02-09 02:00,ZBAA 090200Z AUTO ////02KT 5SM M01/M13 A3006 RMK SLP188 T10101130 IEM_DS3505
ZBAA,1998-02-09 03:00,ZBAA 090300Z AUTO 02004KT 12SM 02/M14 A3006 RMK SLP187 T00201140 52016 IEM_DS3505
ZBAA,1998-02-09 04:00,ZBAA 090400Z AUTO 30016KT 7SM 04/M14 A3006 RMK SLP186 T00401140 IEM_DS3505
ZBAA,1998-02-09 05:00,ZBAA 090500Z AUTO 30019KT 7SM 04/M14 A3006 RMK SLP186 T00401140 IEM_DS3505
ZBAA,1998-02-09 06:00,ZBAA 090600Z AUTO 32012KT 12SM 05/M19 A3006 RMK SLP194 T00501193 52007 IEM_DS3505
ZBAA,1998-02-09 07:00,ZBAA 090700Z AUTO 29021G31KT 7SM 04/M15 A3009 RMK SLP196 T00401150 IEM_DS3505
ZBAA,1998-02-09 08:00,ZBAA 090800Z AUTO 29017G27KT 7SM 03/M16 A3009 RMK SLP197 T00301160 IEM_DS3505
ZBAA,1998-02-09 09:00,ZBAA 090900Z AUTO 32010KT 12SM 04/M22 A3015 RMK SLP217 T00381219 52023 IEM_DS3505
ZBAA,1998-02-09 10:00,ZBAA 091000Z AUTO 29014KT 7SM 01/M17 A3018 RMK SLP228 T00101170 IEM_DS3505
ZBAA,1998-02-09 11:00,ZBAA 091100Z AUTO 31017KT 7SM 01/M17 A3021 RMK SLP238 T00101170 IEM_DS3505
ZBAA,1998-02-09 12:00,ZBAA 091200Z AUTO 32016KT 12SM 02/M23 A3024 RMK SLP246 T00171230 52028 IEM_DS3505
ZBAA,1998-02-09 13:00,ZBAA 091300Z AUTO 31010KT 7SM 01/M17 A3027 RMK SLP258 T00101170 IEM_DS3505
ZBAA,1998-02-09 14:00,ZBAA 091400Z AUTO 31014G25KT 7SM 01/M18 A3027 RMK SLP258 T00101180 IEM_DS3505
ZBAA,1998-02-09 15:00,ZBAA 091500Z AUTO 32006KT 12SM M00/M18 A3027 RMK SLP260 T10031176 52014 IEM_DS3505
ZBAA,1998-02-09 16:00,ZBAA 091600Z AUTO 34002KT 7SM M01/M17 A3030 RMK SLP269 T10101170 IEM_DS3505
ZBAA,1998-02-09 17:00,ZBAA 091700Z AUTO 02002KT 7SM M04/M17 A3030 RMK SLP270 T10401170 IEM_DS3505
ZBAA,1998-02-09 18:00,ZBAA 091800Z AUTO 04002KT 12SM M02/M18 A3030 RMK SLP258 T10241184 57001 IEM_DS3505
ZBAA,1998-02-09 19:00,ZBAA 091900Z AUTO 34002KT 7SM M06/M18 A3027 RMK SLP260 T10601180 IEM_DS3505
ZBAA,1998-02-09 20:00,ZBAA 092000Z AUTO 00000KT 7SM M06/M17 A3024 RMK SLP250 T10601170 IEM_DS3505
ZBAA,1998-02-09 21:00,ZBAA 092100Z AUTO 22004KT 12SM M05/M16 A3024 RMK SLP249 T10541161 57010 IEM_DS3505
ZBAA,1998-02-09 22:00,ZBAA 092200Z AUTO 23004KT 7SM M07/M16 A3024 RMK SLP250 T10701160 IEM_DS3505
ZBAA,1998-02-09 23:00,ZBAA 092300Z AUTO 32002KT 7SM M06/M16 A3027 RMK SLP260 T10601160 IEM_DS3505
ZBAA,1998-02-10 00:00,ZBAA 100000Z AUTO 20002KT 8SM M05/M16 A3027 RMK SLP250 T10541161 52001 IEM_DS3505
ZBAA,1998-02-10 01:00,ZBAA 100100Z AUTO 12002KT 7SM M05/M14 A3024 RMK SLP250 T10501140 IEM_DS3505
ZBAA,1998-02-10 02:00,ZBAA 100200Z AUTO 09004KT 7SM M02/M15 A3021 RMK SLP239 T10201150 IEM_DS3505
ZBAA,1998-02-10 03:00,ZBAA 100300Z AUTO 20010KT 9SM 03/M20 A3021 RMK SLP232 T00311197 57017 IEM_DS3505
ZBAA,1998-02-10 04:00,ZBAA 100400Z AUTO 19012KT 6SM 03/M16 A3015 RMK SLP218 T00301160 IEM_DS3505
ZBAA,1998-02-10 05:00,ZBAA 100500Z AUTO 18010KT 6SM 04/M14 A3009 RMK SLP196 T00401140 IEM_DS3505
ZBAA,1998-02-10 06:00,ZBAA 100600Z AUTO 20012KT 6SM 06/M16 A3006 RMK SLP184 T00611156 57048 IEM_DS3505
ZBAA,1998-02-10 07:00,ZBAA 100700Z AUTO 19012KT 6SM 06/M13 A3003 RMK SLP176 T00601130 IEM_DS3505
ZBAA,1998-02-10 08:00,ZBAA 100800Z AUTO 18008KT 6SM 06/M13 A3000 RMK SLP166 T00601130 IEM_DS3505
ZBAA,1998-02-10 09:00,ZBAA 100900Z AUTO 22006KT 5SM 06/M14 A2997 RMK SLP160 T00621144 57024 IEM_DS3505
ZBAA,1998-02-10 10:00,ZBAA 101000Z AUTO 14002KT 5SM 03/M13 A2997 RMK SLP156 T00301130 IEM_DS3505
ZBAA,1998-02-10 11:00,ZBAA 101100Z AUTO 11004KT 7SM 01/M13 A2997 RMK SLP157 T00101130 IEM_DS3505
ZBAA,1998-02-10 12:00,ZBAA 101200Z AUTO 07006KT 6SM 01/M14 A2994 RMK SLP151 T00071135 57010 IEM_DS3505
ZBAA,1998-02-10 13:00,ZBAA 101300Z AUTO 12004KT 7SM 00/M12 A2994 RMK SLP147 T00001120 IEM_DS3505
ZBAA,1998-02-10 14:00,ZBAA 101400Z AUTO 12004KT 7SM 00/M11 A2991 RMK SLP137 T00001110 IEM_DS3505
ZBAA,1998-02-10 15:00,ZBAA 101500Z AUTO 07004KT 6SM M01/M09 A2988 RMK SLP125 T10091090 57025 IEM_DS3505
ZBAA,1998-02-10 16:00,ZBAA 101600Z AUTO 35004KT 7SM M01/M11 A2985 RMK SLP117 T10101110 IEM_DS3505
ZBAA,1998-02-10 17:00,ZBAA 101700Z AUTO 35002KT 7SM M02/M12 A2983 RMK SLP110 T10201120 IEM_DS3505
ZBAA,1998-02-10 18:00,ZBAA 101800Z AUTO 04004KT 7SM M00/M10 A2980 RMK SLP101 T10041098 57024 IEM_DS3505
ZBAA,1998-02-10 19:00,ZBAA 101900Z AUTO 35004KT 6SM M03/M12 A2980 RMK SLP100 T10301120 IEM_DS3505
ZBAA,1998-02-10 20:00,ZBAA 102000Z AUTO 02002KT 4SM M03/M11 A2977 RMK SLP090 T10301110 IEM_DS3505
ZBAA,1998-02-10 21:00,ZBAA 102100Z AUTO 02004KT 7SM M01/M10 A2974 RMK SLP078 T10131096 57023 IEM_DS3505
ZBAA,1998-02-10 22:00,ZBAA 102200Z AUTO 36002KT 3SM M03/M11 A2971 RMK SLP069 T10301110 IEM_DS3505
ZBAA,1998-02-10 23:00,ZBAA 102300Z AUTO 34002KT 3SM M02/M11 A2971 RMK SLP069 T10201110 IEM_DS3505
ZBAA,1998-02-11 00:00,ZBAA 110000Z AUTO 04004KT 2 1/2SM M01/M10 A2968 RMK SLP057 T10071097 57021 IEM_DS3505
ZBAA,1998-02-11 01:00,ZBAA 110100Z AUTO 33008KT 2 1/2SM 00/M09 A2974 RMK SLP079 T00001090 IEM_DS3505
ZBAA,1998-02-11 02:00,ZBAA 110200Z AUTO 03002KT 2 1/2SM 01/M08 A2971 RMK SLP068 T00101080 IEM_DS3505
ZBAA,1998-02-11 03:00,ZBAA 110300Z AUTO 07008KT 6SM 02/M09 A2968 RMK SLP058 T00211093 52001 IEM_DS3505
ZBAA,1998-02-11 05:00,ZBAA 110500Z AUTO 20004KT 4SM 05/M07 A2962 RMK SLP037 T00501070 IEM_DS3505
ZBAA,1998-02-11 06:00,ZBAA 110600Z AUTO 34004KT 6SM 06/M06 A2965 RMK SLP041 T00631065 57016 IEM_DS3505
ZBAA,1998-02-11 07:00,ZBAA 110700Z AUTO 22004KT 4SM 07/M06 A2962 RMK SLP037 T00701060 IEM_DS3505
ZBAA,1998-02-11 08:00,ZBAA 110800Z AUTO 21006KT 4SM 07/M06 A2962 RMK SLP037 T00701060 IEM_DS3505
ZBAA,1998-02-11 09:00,ZBAA 110900Z AUTO 22006KT 6SM 07/M07 A2965 RMK SLP047 T00721072 52006 IEM_DS3505
ZBAA,1998-02-11 10:00,ZBAA 111000Z AUTO ////04KT 4SM 07/M07 A2968 RMK SLP057 T00701070 IEM_DS3505
ZBAA,1998-02-11 11:00,ZBAA 111100Z AUTO ////02KT 3SM 03/M07 A2974 RMK SLP078 T00301070 IEM_DS3505
ZBAA,1998-02-11 12:00,ZBAA 111200Z AUTO 27008KT 5SM 04/M09 A2977 RMK SLP092 T00441090 52044 IEM_DS3505
ZBAA,1998-02-11 13:00,ZBAA 111300Z AUTO 34008KT 4SM 03/M07 A2983 RMK SLP109 T00301070 IEM_DS3505
ZBAA,1998-02-11 14:00,ZBAA 111400Z AUTO 33010KT 7SM 07/M08 A2988 RMK SLP125 T00701080 IEM_DS3505
ZBAA,1998-02-11 15:00,ZBAA 111500Z AUTO 34010KT 12SM 09/M15 A2991 RMK SLP134 T00921148 52043 IEM_DS3505
ZBAA,1998-02-11 16:00,ZBAA 111600Z AUTO 36017KT 7SM 06/M11 A2991 RMK SLP135 T00601110 IEM_DS3505
ZBAA,1998-02-11 17:00,ZBAA 111700Z AUTO 02008KT 7SM 05/M12 A2994 RMK SLP146 T00501120 IEM_DS3505
ZBAA,1998-02-11 18:00,ZBAA 111800Z AUTO 36012KT 12SM 05/M14 A2997 RMK SLP152 T00491142 52018 IEM_DS3505
ZBAA,1998-02-11 19:00,ZBAA 111900Z AUTO 33008KT 7SM 03/M14 A3003 RMK SLP176 T00301140 IEM_DS3505
ZBAA,1998-02-11 20:00,ZBAA 112000Z AUTO 34006KT 7SM 02/M14 A3006 RMK SLP187 T00201140 IEM_DS3505
ZBAA,1998-02-11 21:00,ZBAA 112100Z AUTO 34008KT 12SM 04/M14 A3009 RMK SLP194 T00371144 52041 IEM_DS3505
ZBAA,1998-02-11 22:00,ZBAA 112200Z AUTO 05004KT 6SM 01/M12 A3009 RMK SLP197 T00101120 IEM_DS3505
ZBAA,1998-02-11 23:00,ZBAA 112300Z AUTO ////02KT 6SM 01/M13 A3015 RMK SLP218 T00101130 IEM_DS3505
ZBAA,1998-02-12 00:00,ZBAA 120000Z AUTO 04008KT 12SM 02/M14 A3015 RMK SLP210 T00171135 52016 IEM_DS3505
ZBAA,1998-02-12 01:00,ZBAA 120100Z AUTO 01008KT 6SM 01/M13 A3021 RMK SLP238 T00101130 IEM_DS3505
ZBAA,1998-02-12 02:00,ZBAA 120200Z AUTO 01008KT 6SM 02/M12 A3021 RMK SLP238 T00201120 IEM_DS3505
ZBAA,1998-02-12 03:00,ZBAA 120300Z AUTO 04012KT 9SM 04/M17 A3021 RMK SLP233 T00351167 52023 IEM_DS3505
ZBAA,1998-02-12 04:00,ZBAA 120400Z AUTO 04008KT 6SM 03/M12 A3021 RMK SLP238 T00301120 IEM_DS3505
ZBAA,1998-02-12 05:00,ZBAA 120500Z AUTO 04008KT 6SM 04/M14 A3018 RMK SLP228 T00401140 IEM_DS3505
ZBAA,1998-02-12 06:00,ZBAA 120600Z AUTO 11006KT 9SM 06/M13 A3021 RMK SLP234 T00611127 52001 IEM_DS3505
ZBAA,1998-02-12 07:00,ZBAA 120700Z AUTO ////02KT 6SM 06/M13 A3021 RMK SLP237 T00601130 IEM_DS3505
ZBAA,1998-02-12 08:00,ZBAA 120800Z AUTO 06002KT 6SM 05/M15 A3021 RMK SLP237 T00501150 IEM_DS3505
ZBAA,1998-02-12 09:00,ZBAA 120900Z AUTO 14004KT 9SM 05/M14 A3024 RMK SLP240 T00531141 52006 IEM_DS3505
ZBAA,1998-02-12 10:00,ZBAA 121000Z AUTO 01002KT 6SM 04/M13 A3024 RMK SLP248 T00401130 IEM_DS3505
ZBAA,1998-02-12 11:00,ZBAA 121100Z AUTO 14004KT 6SM 03/M09 A3027 RMK SLP258 T00301090 IEM_DS3505
ZBAA,1998-02-12 12:00,ZBAA 121200Z AUTO 16004KT 11SM 02/M09 A3027 RMK SLP251 T00251091 52011 IEM_DS3505
ZBAA,1998-02-12 13:00,ZBAA 121300Z AUTO 14004KT 6SM 02/M08 A3027 RMK SLP258 T00201080 IEM_DS3505
ZBAA,1998-02-12 14:00,ZBAA 121400Z AUTO 13004KT 6SM 01/M08 A3027 RMK SLP258 T00101080 IEM_DS3505
ZBAA,1998-02-12 15:00,ZBAA 121500Z AUTO 00000KT 9SM 01/M09 A3030 RMK SLP260 T00141089 52009 IEM_DS3505
ZBAA,1998-02-12 16:00,ZBAA 121600Z AUTO 14004KT 6SM 00/M09 A3030 RMK SLP269 T00001090 IEM_DS3505
ZBAA,1998-02-12 17:00,ZBAA 121700Z AUTO 11004KT 6SM M01/M09 A3030 RMK SLP269 T10101090 IEM_DS3505
ZBAA,1998-02-12 18:00,ZBAA 121800Z AUTO 20004KT 9SM 00/M11 A3027 RMK SLP256 T00041106 57004 IEM_DS3505
ZBAA,1998-02-12 19:00,ZBAA 121900Z AUTO 12002KT 6SM M01/M08 A3030 RMK SLP269 T10101080 IEM_DS3505
ZBAA,1998-02-12 20:00,ZBAA 122000Z AUTO 10004KT 6SM M02/M08 A3027 RMK SLP259 T10201080 IEM_DS3505
ZBAA,1998-02-12 21:00,ZBAA 122100Z AUTO 14004KT 9SM M01/M08 A3027 RMK SLP252 T10121081 57004 IEM_DS3505
ZBAA,1998-02-12 22:00,ZBAA 122200Z AUTO 13002KT 6SM M03/M08 A3024 RMK SLP249 T10301080 IEM_DS3505
ZBAA,1998-02-12 23:00,ZBAA 122300Z AUTO 16002KT 6SM M02/M08 A3027 RMK SLP259 T10201080 IEM_DS3505
ZBAA,1998-02-13 00:00,ZBAA 130000Z AUTO 00000KT 6SM M01/M08 A3027 RMK SLP258 T10071079 52006 IEM_DS3505
ZBAA,1998-02-13 01:00,ZBAA 130100Z AUTO 10002KT 4SM M01/M08 A3027 RMK SLP259 T10101080 IEM_DS3505
ZBAA,1998-02-13 02:00,ZBAA 130200Z AUTO 23002KT 5SM 01/M09 A3027 RMK SLP258 T00101090 IEM_DS3505
ZBAA,1998-02-13 03:00,ZBAA 130300Z AUTO 20006KT 6SM 03/M11 A3027 RMK SLP254 T00311112 57004 IEM_DS3505
ZBAA,1998-02-13 07:00,ZBAA 130700Z AUTO 34017G27KT 6SM 09/M15 A3018 RMK SLP226 T00901150 IEM_DS3505
ZBAA,1998-02-13 08:00,ZBAA 130800Z AUTO 34017G27KT 6SM 09/M15 A3021 RMK SLP236 T00901150 IEM_DS3505
ZBAA,1998-02-13 09:00,ZBAA 130900Z AUTO 32014G25KT 12SM 08/M19 A3018 RMK SLP234 T00811193 54000 IEM_DS3505
ZBAA,1998-02-13 10:00,ZBAA 131000Z AUTO 33016KT 6SM 07/M18 A3021 RMK SLP237 T00701180 IEM_DS3505
ZBAA,1998-02-13 11:00,ZBAA 131100Z AUTO 32012KT 7SM 06/M17 A3024 RMK SLP247 T00601170 IEM_DS3505
ZBAA,1998-02-13 12:00,ZBAA 131200Z AUTO 34004KT 12SM 05/M18 A3027 RMK SLP257 T00531175 52023 IEM_DS3505
ZBAA,1998-02-13 13:00,ZBAA 131300Z AUTO 33008KT 7SM 04/M17 A3030 RMK SLP268 T00401170 IEM_DS3505
ZBAA,1998-02-13 14:00,ZBAA 131400Z AUTO 01008KT 7SM 03/M15 A3030 RMK SLP268 T00301150 IEM_DS3505
ZBAA,1998-02-13 15:00,ZBAA 131500Z AUTO 00000KT 12SM 00/M12 A3030 RMK SLP265 T00051122 52008 IEM_DS3505
ZBAA,1998-02-13 16:00,ZBAA 131600Z AUTO 35004KT 7SM 01/M16 A3030 RMK SLP269 T00101160 IEM_DS3505
ZBAA,1998-02-13 17:00,ZBAA 131700Z AUTO 32004KT 7SM M01/M16 A3030 RMK SLP269 T10101160 IEM_DS3505
ZBAA,1998-02-13 18:00,ZBAA 131800Z AUTO 02004KT 12SM 00/M13 A3030 RMK SLP259 T00051128 57006 IEM_DS3505
ZBAA,1998-02-13 19:00,ZBAA 131900Z AUTO 36006KT 7SM M03/M15 A3030 RMK SLP270 T10301150 IEM_DS3505
ZBAA,1998-02-13 20:00,ZBAA 132000Z AUTO 01006KT 7SM M04/M16 A3027 RMK SLP260 T10401160 IEM_DS3505
ZBAA,1998-02-13 21:00,ZBAA 132100Z AUTO 36004KT 9SM M01/M15 A3027 RMK SLP250 T10091146 57009 IEM_DS3505
ZBAA,1998-02-13 22:00,ZBAA 132200Z AUTO 36002KT 7SM M04/M16 A3027 RMK SLP260 T10401160 IEM_DS3505
ZBAA,1998-02-13 23:00,ZBAA 132300Z AUTO 28002KT 7SM M04/M16 A3027 RMK SLP260 T10401160 IEM_DS3505
ZBAA,1998-02-14 00:00,ZBAA 140000Z AUTO 25004KT 5SM M04/M12 A3027 RMK SLP263 T10361115 52012 IEM_DS3505
ZBAA,1998-02-14 01:00,ZBAA 140100Z AUTO 35004KT 7SM M02/M15 A3030 RMK SLP269 T10201150 IEM_DS3505
ZBAA,1998-02-14 02:00,ZBAA 140200Z AUTO 12004KT 7SM 01/M14 A3030 RMK SLP269 T00101140 IEM_DS3505
ZBAA,1998-02-14 03:00,ZBAA 140300Z AUTO 20012KT 6SM 04/M20 A3030 RMK SLP264 T00401201 52002 IEM_DS3505
ZBAA,1998-02-14 04:00,ZBAA 140400Z AUTO 19012KT 6SM 05/M17 A3027 RMK SLP257 T00501170 IEM_DS3505
ZBAA,1998-02-14 05:00,ZBAA 140500Z AUTO 18010KT 6SM 06/M16 A3021 RMK SLP237 T00601160 IEM_DS3505
ZBAA,1998-02-14 06:00,ZBAA 140600Z AUTO 20008KT 7SM 07/M21 A3015 RMK SLP221 T00721208 57043 IEM_DS3505
ZBAA,1998-02-14 07:00,ZBAA 140700Z AUTO 16010KT 6SM 07/M14 A3012 RMK T00701140 IEM_DS3505
ZBAA,1998-02-14 08:00,ZBAA 140800Z AUTO 17010KT 6SM 06/M14 A3009 RMK SLP196 T00601140 IEM_DS3505
ZBAA,1998-02-14 09:00,ZBAA 140900Z AUTO 20010KT 10SM 07/M18 A3006 RMK SLP191 T00671182 57030 IEM_DS3505
ZBAA,1998-02-14 10:00,ZBAA 141000Z AUTO 13012KT 6SM 03/M10 A3006 RMK SLP187 T00301100 IEM_DS3505
ZBAA,1998-02-14 11:00,ZBAA 141100Z AUTO 13010KT 6SM 01/M08 A3009 RMK SLP197 T00101080 IEM_DS3505
ZBAA,1998-02-14 12:00,ZBAA 141200Z AUTO 14010KT 9SM 00/M09 A3009 RMK SLP198 T00031092 52006 IEM_DS3505
ZBAA,1998-02-14 13:00,ZBAA 141300Z AUTO 13008KT 6SM M01/M09 A3009 RMK SLP198 T10101090 IEM_DS3505
ZBAA,1998-02-14 14:00,ZBAA 141400Z AUTO 12004KT 6SM M01/M09 A3012 RMK SLP209 T10101090 IEM_DS3505
ZBAA,1998-02-14 15:00,ZBAA 141500Z AUTO 04004KT 9SM M01/M07 A3012 RMK SLP199 T10131073 52002 IEM_DS3505
ZBAA,1998-02-14 16:00,ZBAA 141600Z AUTO 05002KT 6SM M01/M08 A3009 RMK SLP198 T10101080 IEM_DS3505
ZBAA,1998-02-14 17:00,ZBAA 141700Z AUTO 08002KT 6SM M02/M07 A3009 RMK SLP198 T10201070 IEM_DS3505
ZBAA,1998-02-14 18:00,ZBAA 141800Z AUTO 07006KT 6SM M03/M07 A3006 RMK SLP190 T10271074 57009 IEM_DS3505
ZBAA,1998-02-14 19:00,ZBAA 141900Z AUTO 05002KT 7SM M03/M07 A3006 RMK SLP188 T10301070 IEM_DS3505
ZBAA,1998-02-14 20:00,ZBAA 142000Z AUTO 00000KT 7SM M03/M08 A3003 RMK SLP178 T10301080 IEM_DS3505
ZBAA,1998-02-14 21:00,ZBAA 142100Z AUTO 04004KT 10SM M03/M07 A3003 RMK SLP175 T10271074 57015 IEM_DS3505
ZBAA,1998-02-14 22:00,ZBAA 142200Z AUTO 30004KT 7SM M03/M08 A3003 RMK SLP178 T10301080 IEM_DS3505
ZBAA,1998-02-14 23:00,ZBAA 142300Z AUTO 28004KT 7SM M04/M08 A3003 RMK SLP178 T10401080 IEM_DS3505
ZBAA,1998-02-15 00:00,ZBAA 150000Z AUTO 02004KT 6SM M03/M08 A3006 RMK SLP184 T10271079 52008 IEM_DS3505
ZBAA,1998-02-15 01:00,ZBAA 150100Z AUTO 31004KT 4SM M02/M08 A3006 RMK SLP188 T10201080 IEM_DS3505
ZBAA,1998-02-15 02:00,ZBAA 150200Z AUTO 33004G14KT 4SM 00/M07 A3006 RMK SLP187 T00001070 IEM_DS3505
ZBAA,1998-02-15 03:00,ZBAA 150300Z AUTO 07008KT 6SM 02/M08 A3006 RMK SLP185 T00221080 52002 IEM_DS3505
ZBAA,1998-02-15 04:00,ZBAA 150400Z AUTO 02004KT 7SM 03/M07 A3003 RMK SLP176 T00301070 IEM_DS3505
ZBAA,1998-02-15 05:00,ZBAA 150500Z AUTO ////02KT 7SM 06/M07 A3003 RMK SLP176 T00601070 IEM_DS3505
ZBAA,1998-02-15 06:00,ZBAA 150600Z AUTO 22002KT 6SM 07/M09 A3000 RMK SLP168 T00741090 57017 IEM_DS3505
ZBAA,1998-02-15 07:00,ZBAA 150700Z AUTO ////02KT 6SM 09/M08 A3000 RMK SLP165 T00901080 IEM_DS3505
ZBAA,1998-02-15 08:00,ZBAA 150800Z AUTO 21006KT 6SM 08/M08 A3000 RMK SLP165 T00801080 IEM_DS3505
ZBAA,1998-02-15 09:00,ZBAA 150900Z AUTO 22006KT 6SM 07/M08 A3003 RMK SLP178 T00681081 52010 IEM_DS3505
ZBAA,1998-02-15 10:00,ZBAA 151000Z AUTO 15002KT 3SM 05/M07 A3006 RMK SLP186 T00501070 IEM_DS3505
ZBAA,1998-02-15 11:00,ZBAA 151100Z AUTO 20004KT 3SM 05/M07 A3009 RMK SLP196 T00501070 IEM_DS3505
ZBAA,1998-02-15 12:00,ZBAA 151200Z AUTO 25004KT 5SM 02/M07 A3009 RMK SLP203 T00251067 52025 IEM_DS3505
ZBAA,1998-02-15 13:00,ZBAA 151300Z AUTO 27004KT 2 1/2SM 04/M07 A3012 RMK SLP207 T00401070 IEM_DS3505
ZBAA,1998-02-15 14:00,ZBAA 151400Z AUTO 02002KT 2SM 01/M07 A3015 RMK SLP218 T00101070 IEM_DS3505
ZBAA,1998-02-15 15:00,ZBAA 151500Z AUTO 27004KT 2 1/2SM 01/M06 A3018 RMK SLP223 T00131059 52020 IEM_DS3505
ZBAA,1998-02-15 16:00,ZBAA 151600Z AUTO 19002KT 1 1/2SM M01/M07 A3018 RMK SLP229 T10101070 IEM_DS3505
ZBAA,1998-02-15 17:00,ZBAA 151700Z AUTO 25004KT 1 1/2SM M01/M06 A3018 RMK SLP229 T10101060 IEM_DS3505
ZBAA,1998-02-15 18:00,ZBAA 151800Z AUTO 34002KT 2 1/2SM 01/M06 A3021 RMK SLP233 T00131059 52010 IEM_DS3505
ZBAA,1998-02-15 19:00,ZBAA 151900Z AUTO 35006KT 4SM M01/M09 A3021 RMK SLP239 T10101090 IEM_DS3505
ZBAA,1998-02-15 20:00,ZBAA 152000Z AUTO 34006KT 5SM M02/M11 A3021 RMK SLP239 T10201110 IEM_DS3505
ZBAA,1998-02-15 21:00,ZBAA 152100Z AUTO 36004KT 12SM 02/M11 A3024 RMK SLP248 T00161107 52015 IEM_DS3505
ZBAA,1998-02-15 22:00,ZBAA 152200Z AUTO 33004KT 4SM M01/M13 A3027 RMK SLP259 T10101130 IEM_DS3505
ZBAA,1998-02-15 23:00,ZBAA 152300Z AUTO 04004KT 7SM M02/M11 A3030 RMK SLP269 T10201110 IEM_DS3505
ZBAA,1998-02-16 00:00,ZBAA 160000Z AUTO 02002KT 4SM M01/M10 A3040 RMK SLP277 T10131102 52028 IEM_DS3505
ZBAA,1998-02-16 01:00,ZBAA 160100Z AUTO 05002KT 3SM 01/M08 A3036 RMK SLP289 T00101080 IEM_DS3505
ZBAA,1998-02-16 02:00,ZBAA 160200Z AUTO 00000KT 3SM 04/M07 A3039 RMK SLP299 T00401070 IEM_DS3505
ZBAA,1998-02-16 03:00,ZBAA 160300Z AUTO 16004KT 6SM 06/M08 A3039 RMK SLP298 T00651079 52022 IEM_DS3505
ZBAA,1998-02-16 04:00,ZBAA 160400Z AUTO 18004KT 3SM 08/M09 A3039 RMK SLP298 T00801090 IEM_DS3505
ZBAA,1998-02-16 05:00,ZBAA 160500Z AUTO 17004KT 4SM 09/M10 A3039 RMK SLP298 T00901100 IEM_DS3505
ZBAA,1998-02-16 06:00,ZBAA 160600Z AUTO 25004KT 6SM 09/M11 A3036 RMK SLP286 T00911112 57012 IEM_DS3505
ZBAA,1998-02-16 07:00,ZBAA 160700Z AUTO 17006KT 7SM 10/M12 A3036 RMK SLP286 T01001120 IEM_DS3505
ZBAA,1998-02-16 08:00,ZBAA 160800Z AUTO 20004KT 7SM 10/M10 A3039 RMK SLP298 T01001100 IEM_DS3505
ZBAA,1998-02-16 09:00,ZBAA 160900Z AUTO 18006KT 6SM 09/M11 A3039 RMK SLP297 T00921109 52011 IEM_DS3505
ZBAA,1998-02-16 10:00,ZBAA 161000Z AUTO 19008KT 7SM 08/M12 A3042 RMK SLP308 T00801120 IEM_DS3505
ZBAA,1998-02-16 11:00,ZBAA 161100Z AUTO 16004KT 7SM 04/M12 A3045 RMK SLP319 T00401120 IEM_DS3505
ZBAA,1998-02-16 12:00,ZBAA 161200Z AUTO 18006KT 12SM 03/M12 A3047 RMK SLP321 T00281120 52023 IEM_DS3505
ZBAA,1998-02-16 13:00,ZBAA 161300Z AUTO 17008KT 7SM 01/M11 A3050 RMK SLP337 T00101110 IEM_DS3505
ZBAA,1998-02-16 14:00,ZBAA 161400Z AUTO 14006KT 7SM M01/M12 A3053 RMK SLP348 T10101120 IEM_DS3505
ZBAA,1998-02-16 15:00,ZBAA 161500Z AUTO 18002KT 12SM M01/M12 A3056 RMK SLP344 T10131120 52023 IEM_DS3505
ZBAA,1998-02-16 16:00,ZBAA 161600Z AUTO 10004KT 7SM M02/M10 A3056 RMK SLP358 T10201100 IEM_DS3505
ZBAA,1998-02-16 17:00,ZBAA 161700Z AUTO 08002KT 7SM M03/M10 A3059 RMK SLP368 T10301100 IEM_DS3505
ZBAA,1998-02-16 18:00,ZBAA 161800Z AUTO 09004KT 9SM M03/M10 A3056 RMK SLP352 T10291096 52008 IEM_DS3505
ZBAA,1998-02-16 19:00,ZBAA 161900Z AUTO 10002KT 7SM M05/M10 A3059 RMK SLP369 T10501100 IEM_DS3505
ZBAA,1998-02-16 20:00,ZBAA 162000Z AUTO 00000KT 7SM M05/M09 A3056 RMK SLP359 T10501090 IEM_DS3505
ZBAA,1998-02-16 21:00,ZBAA 162100Z AUTO 11002KT 6SM M05/M11 A3059 RMK SLP356 T10491109 52004 IEM_DS3505
ZBAA,1998-02-16 22:00,ZBAA 162200Z AUTO 32002KT 7SM M04/M09 A3059 RMK SLP368 T10401090 IEM_DS3505
ZBAA,1998-02-16 23:00,ZBAA 162300Z AUTO 05002KT 7SM M06/M10 A3059 RMK SLP369 T10601100 IEM_DS3505
ZBAA,1998-02-17 00:00,ZBAA 170000Z AUTO 00000KT 6SM M04/M09 A3062 RMK SLP363 T10401086 52007 IEM_DS3505
ZBAA,1998-02-17 01:00,ZBAA 170100Z AUTO 35002KT 2 1/2SM M02/M08 A3062 RMK SLP378 T10201080 IEM_DS3505
ZBAA,1998-02-17 02:00,ZBAA 170200Z AUTO 09002KT 4SM 02/M09 A3062 RMK SLP377 T00201090 IEM_DS3505
ZBAA,1998-02-17 03:00,ZBAA 170300Z AUTO 18006KT 12SM 04/M12 A3059 RMK SLP362 T00431119 57001 IEM_DS3505
ZBAA,1998-02-17 04:00,ZBAA 170400Z AUTO 17008KT 6SM 05/M12 A3059 RMK SLP366 T00501120 IEM_DS3505
ZBAA,1998-02-17 05:00,ZBAA 170500Z AUTO 17008KT 6SM 07/M12 A3056 RMK SLP356 T00701120 IEM_DS3505
ZBAA,1998-02-17 06:00,ZBAA 170600Z AUTO 14008KT 12SM 08/M17 A3053 RMK SLP340 T00781168 57022 IEM_DS3505
ZBAA,1998-02-17 07:00,ZBAA 170700Z AUTO 17006KT 6SM 08/M13 A3050 RMK SLP335 T00801130 IEM_DS3505
ZBAA,1998-02-17 08:00,ZBAA 170800Z AUTO 16006KT 6SM 08/M13 A3050 RMK SLP335 T00801130 IEM_DS3505
ZBAA,1998-02-17 09:00,ZBAA 170900Z AUTO 16004KT 9SM 07/M16 A3047 RMK SLP326 T00691161 57014 IEM_DS3505
ZBAA,1998-02-17 10:00,ZBAA 171000Z AUTO 13002KT 6SM 05/M13 A3047 RMK SLP326 T00501130 IEM_DS3505
ZBAA,1998-02-17 11:00,ZBAA 171100Z AUTO 15004KT 6SM 02/M13 A3047 RMK SLP327 T00201130 IEM_DS3505
ZBAA,1998-02-17 12:00,ZBAA 171200Z AUTO 14008KT 9SM 02/M16 A3050 RMK SLP328 T00251155 52002 IEM_DS3505
ZBAA,1998-02-17 13:00,ZBAA 171300Z AUTO 18006KT 6SM 02/M13 A3050 RMK SLP337 T00201130 IEM_DS3505
ZBAA,1998-02-17 14:00,ZBAA 171400Z AUTO 16002KT 6SM 00/M13 A3050 RMK SLP337 T00001130 IEM_DS3505
ZBAA,1998-02-17 15:00,ZBAA 171500Z AUTO 29002KT 9SM 00/M12 A3050 RMK SLP334 T00011118 52006 IEM_DS3505
ZBAA,1998-02-17 16:00,ZBAA 171600Z AUTO 08002KT 6SM M03/M12 A3053 RMK SLP348 T10301120 IEM_DS3505
ZBAA,1998-02-17 17:00,ZBAA 171700Z AUTO 08002KT 6SM M02/M12 A3050 RMK SLP338 T10201120 IEM_DS3505
ZBAA,1998-02-17 18:00,ZBAA 171800Z AUTO 18004KT 7SM M03/M11 A3050 RMK SLP327 T10311113 57007 IEM_DS3505
ZBAA,1998-02-17 19:00,ZBAA 171900Z AUTO 14002KT 6SM M04/M12 A3047 RMK SLP328 T10401120 IEM_DS3505
ZBAA,1998-02-17 20:00,ZBAA 172000Z AUTO 35004KT 6SM M04/M11 A3047 RMK SLP328 T10401110 IEM_DS3505
ZBAA,1998-02-17 21:00,ZBAA 172100Z AUTO 00000KT 7SM M03/M10 A3047 RMK SLP320 T10341102 57007 IEM_DS3505
ZBAA,1998-02-17 22:00,ZBAA 172200Z AUTO 16002KT 5SM M04/M12 A3047 RMK SLP328 T10401120 IEM_DS3505
ZBAA,1998-02-17 23:00,ZBAA 172300Z AUTO 35002KT 6SM M04/M11 A3047 RMK SLP328 T10401110 IEM_DS3505
ZBAA,1998-02-18 00:00,ZBAA 180000Z AUTO 07002KT 7SM M03/M09 A3047 RMK SLP324 T10321094 52004 IEM_DS3505
ZBAA,1998-02-18 01:00,ZBAA 180100Z AUTO 36002KT 3SM M01/M11 A3050 RMK SLP338 T10101110 IEM_DS3505
ZBAA,1998-02-18 02:00,ZBAA 180200Z AUTO 29002KT 4SM 00/M12 A3047 RMK SLP327 T00001120 IEM_DS3505
ZBAA,1998-02-18 03:00,ZBAA 180300Z AUTO 04008KT 3SM 02/M13 A3047 RMK SLP321 T00251133 57003 IEM_DS3505
ZBAA,1998-02-18 04:00,ZBAA 180400Z AUTO ////02KT 5SM 04/M12 A3047 RMK SLP326 T00401120 IEM_DS3505
ZBAA,1998-02-18 05:00,ZBAA 180500Z AUTO 19004KT 4SM 04/M13 A3045 RMK SLP319 T00401130 IEM_DS3505
ZBAA,1998-02-18 06:00,ZBAA 180600Z AUTO 07002KT 2 1/2SM 04/M12 A3042 RMK SLP305 T00421121 57016 IEM_DS3505
ZBAA,1998-02-18 07:00,ZBAA 180700Z AUTO 00000KT 5SM 05/M13 A3039 RMK SLP299 T00501130 IEM_DS3505
ZBAA,1998-02-18 08:00,ZBAA 180800Z AUTO 16006KT 6SM 05/M12 A3042 RMK SLP309 T00501120 IEM_DS3505
ZBAA,1998-02-18 09:00,ZBAA 180900Z AUTO 09004KT 4SM 04/M11 A3039 RMK SLP297 T00401112 57008 IEM_DS3505
ZBAA,1998-02-18 10:00,ZBAA 181000Z AUTO 18002KT 6SM 04/M12 A3042 RMK SLP309 T00401120 IEM_DS3505
ZBAA,1998-02-18 11:00,ZBAA 181100Z AUTO 01002KT 4SM 04/M10 A3042 RMK SLP309 T00401100 IEM_DS3505
ZBAA,1998-02-18 12:00,ZBAA 181200Z AUTO 07004KT 5SM 03/M06 A3045 RMK SLP310 T00261062 52013 IEM_DS3505
ZBAA,1998-02-18 13:00,ZBAA 181300Z AUTO 09004KT 4SM 03/M06 A3045 RMK SLP319 T00301060 IEM_DS3505
ZBAA,1998-02-18 14:00,ZBAA 181400Z AUTO 15004KT 2SM 00/M01 A3047 RMK SLP327 T00001010 IEM_DS3505
ZBAA,1998-02-18 15:00,ZBAA 181500Z AUTO 36004KT 2 1/2SM 00/M01 A3045 RMK SLP311 T00001009 52001 IEM_DS3505
ZBAA,1998-02-18 16:00,ZBAA 181600Z AUTO 29004KT 1/2SM 00/00 A3045 RMK SLP320 T00000000 IEM_DS3505
ZBAA,1998-02-18 17:00,ZBAA 181700Z AUTO 30006KT 1SM 00/00 A3042 RMK SLP310 T00000000 IEM_DS3505
ZBAA,1998-02-18 18:00,ZBAA 181800Z AUTO 34006KT 1 1/4SM 00/M01 A3039 RMK 60012 SLP291 T00041008 57019 IEM_DS3505
ZBAA,1998-02-18 21:00,ZBAA 182100Z AUTO 34006KT 1SM 01/M00 A3033 RMK 70020 SLP276 T00101001 57015 IEM_DS3505
ZBAA,1998-02-18 22:00,ZBAA 182200Z AUTO 34006KT 1SM 00/00 A3033 RMK SLP279 T00000000 IEM_DS3505
ZBAA,1998-02-18 23:00,ZBAA 182300Z AUTO 32004KT 1SM 01/01 A3033 RMK SLP279 T00100010 IEM_DS3505
ZBAA,1998-02-19 00:00,ZBAA 190000Z AUTO 34006KT 1 1/2SM 01/00 A3033 RMK 60016 70028 SLP273 T00130002 57003 IEM_DS3505
ZBAA,1998-02-19 01:00,ZBAA 190100Z AUTO 33010KT 1SM 02/01 A3033 RMK SLP278 T00200010 IEM_DS3505
ZBAA,1998-02-19 02:00,ZBAA 190200Z AUTO 34008KT 1 1/4SM 02/02 A3030 RMK SLP268 T00200020 IEM_DS3505
ZBAA,1998-02-19 03:00,ZBAA 190300Z AUTO 34004KT 1 1/4SM 02/02 A3030 RMK SLP261 T00250020 57012 IEM_DS3505
ZBAA,1998-02-19 04:00,ZBAA 190400Z AUTO 34008KT 1SM 02/02 A3027 RMK SLP258 T00200020 IEM_DS3505
ZBAA,1998-02-19 05:00,ZBAA 190500Z AUTO 34008KT 1SM 03/02 A3024 RMK SLP248 T00300020 IEM_DS3505
ZBAA,1998-02-19 06:00,ZBAA 190600Z AUTO 02008KT 1 1/4SM 04/03 A3021 RMK 60031 SLP239 T00370027 57022 IEM_DS3505
ZBAA,1998-02-19 07:00,ZBAA 190700Z AUTO 35006KT 1 1/4SM 04/04 A3021 RMK SLP238 T00400040 IEM_DS3505
ZBAA,1998-02-19 08:00,ZBAA 190800Z AUTO 35006KT 1 1/2SM 04/04 A3021 RMK SLP238 T00400040 IEM_DS3505
ZBAA,1998-02-19 09:00,ZBAA 190900Z AUTO 02004KT 1 1/4SM 05/04 A3021 RMK SLP234 T00470037 57005 IEM_DS3505
ZBAA,1998-02-19 10:00,ZBAA 191000Z AUTO 34006KT 1 1/2SM 04/04 A3021 RMK SLP238 T00400040 IEM_DS3505
ZBAA,1998-02-19 11:00,ZBAA 191100Z AUTO 33008KT 4SM 04/04 A3021 RMK SLP238 T00400040 IEM_DS3505
ZBAA,1998-02-19 12:00,ZBAA 191200Z AUTO 34004KT 1 1/4SM 05/04 A3021 RMK 60024 SLP239 T00520040 52005 IEM_DS3505
ZBAA,1998-02-19 13:00,ZBAA 191300Z AUTO 33006KT 4SM 05/04 A3021 RMK SLP237 T00500040 IEM_DS3505
ZBAA,1998-02-19 14:00,ZBAA 191400Z AUTO 33006KT 2 1/2SM 05/05 A3021 RMK SLP237 T00500050 IEM_DS3505
ZBAA,1998-02-19 15:00,ZBAA 191500Z AUTO 36006KT 2 1/2SM 06/05 A3021 RMK SLP233 T00580046 57006 IEM_DS3505
ZBAA,1998-02-19 16:00,ZBAA 191600Z AUTO 34006KT 4SM 04/04 A3018 RMK SLP228 T00400040 IEM_DS3505
ZBAA,1998-02-19 17:00,ZBAA 191700Z AUTO 35004KT 5SM 04/04 A3021 RMK SLP238 T00400040 IEM_DS3505
ZBAA,1998-02-19 18:00,ZBAA 191800Z AUTO 02004KT 2SM 05/04 A3021 RMK 60012 SLP232 T00530044 57001 IEM_DS3505
ZBAA,1998-02-19 19:00,ZBAA 191900Z AUTO 33008KT 7SM 05/04 A3018 RMK SLP227 T00500040 IEM_DS3505
ZBAA,1998-02-19 20:00,ZBAA 192000Z AUTO 33006KT 4SM 05/05 A3021 RMK SLP237 T00500050 IEM_DS3505
ZBAA,1998-02-19 21:00,ZBAA 192100Z AUTO 34004KT 2SM 05/04 A3021 RMK 70075 SLP237 T00540045 52005 IEM_DS3505
ZBAA,1998-02-19 22:00,ZBAA 192200Z AUTO 29006KT 2SM 04/04 A3021 RMK SLP238 T00400040 IEM_DS3505
ZBAA,1998-02-19 23:00,ZBAA 192300Z AUTO 31006KT 2 1/2SM 05/05 A3024 RMK SLP247 T00500050 IEM_DS3505
ZBAA,1998-02-20 00:00,ZBAA 200000Z AUTO 32008KT 2SM 06/05 A3027 RMK 60008 70071 SLP249 T00600048 52012 IEM_DS3505
ZBAA,1998-02-20 01:00,ZBAA 200100Z AUTO 32010KT 4SM 05/05 A3027 RMK SLP257 T00500050 IEM_DS3505
ZBAA,1998-02-20 02:00,ZBAA 200200Z AUTO 01008KT 7SM 07/05 A3030 RMK SLP267 T00700050 IEM_DS3505
ZBAA,1998-02-20 03:00,ZBAA 200300Z AUTO 02012KT 3SM 07/04 A3033 RMK SLP265 T00740039 52016 IEM_DS3505
ZBAA,1998-02-20 04:00,ZBAA 200400Z AUTO 01017KT 6SM 06/04 A3030 RMK SLP267 T00600040 IEM_DS3505
ZBAA,1998-02-20 05:00,ZBAA 200500Z AUTO 02014G25KT 6SM 07/03 A3030 RMK SLP267 T00700030 IEM_DS3505
ZBAA,1998-02-20 06:00,ZBAA 200600Z AUTO 02010G25KT 6SM 08/03 A3030 RMK SLP262 T00770026 57003 IEM_DS3505
ZBAA,1998-02-20 07:00,ZBAA 200700Z AUTO 02016KT 6SM 07/02 A3030 RMK SLP267 T00700020 IEM_DS3505
ZBAA,1998-02-20 08:00,ZBAA 200800Z AUTO 02017G27KT 6SM 06/01 A3030 RMK SLP267 T00600010 IEM_DS3505
ZBAA,1998-02-20 09:00,ZBAA 200900Z AUTO 04012G25KT 6SM 06/M01 A3033 RMK SLP270 T00651013 52008 IEM_DS3505
ZBAA,1998-02-20 10:00,ZBAA 201000Z AUTO 02014KT 6SM 05/M01 A3033 RMK SLP278 T00501010 IEM_DS3505
ZBAA,1998-02-20 11:00,ZBAA 201100Z AUTO 02012G21KT 6SM 05/M02 A3039 RMK SLP299 T00501020 IEM_DS3505
ZBAA,1998-02-20 12:00,ZBAA 201200Z AUTO 04012KT 12SM 05/M04 A3039 RMK SLP291 T00511037 52021 IEM_DS3505
ZBAA,1998-02-20 13:00,ZBAA 201300Z AUTO 02014KT 6SM 04/M02 A3042 RMK SLP309 T00401020 IEM_DS3505
ZBAA,1998-02-20 14:00,ZBAA 201400Z AUTO 02010KT 6SM 04/M04 A3042 RMK SLP309 T00401040 IEM_DS3505
ZBAA,1998-02-20 15:00,ZBAA 201500Z AUTO 34010KT 12SM 04/M06 A3042 RMK SLP298 T00431065 52007 IEM_DS3505
ZBAA,1998-02-20 16:00,ZBAA 201600Z AUTO 02012KT 6SM 03/M07 A3042 RMK SLP309 T00301070 IEM_DS3505
ZBAA,1998-02-20 17:00,ZBAA 201700Z AUTO 03010KT 6SM 03/M07 A3042 RMK SLP309 T00301070 IEM_DS3505
ZBAA,1998-02-20 18:00,ZBAA 201800Z AUTO 02008G21KT 12SM 04/M08 A3045 RMK SLP311 T00351084 52013 IEM_DS3505
ZBAA,1998-02-20 19:00,ZBAA 201900Z AUTO 03010KT 6SM 03/M08 A3045 RMK SLP319 T00301080 IEM_DS3505
ZBAA,1998-02-20 20:00,ZBAA 202000Z AUTO 03010KT 6SM 03/M09 A3045 RMK SLP319 T00301090 IEM_DS3505
ZBAA,1998-02-20 21:00,ZBAA 202100Z AUTO 02008KT 12SM 03/M11 A3045 RMK 70004 SLP314 T00281113 52003 IEM_DS3505
ZBAA,1998-02-20 22:00,ZBAA 202200Z AUTO 03010KT 6SM 02/M12 A3047 RMK SLP327 T00201120 IEM_DS3505
ZBAA,1998-02-20 23:00,ZBAA 202300Z AUTO 03012G23KT 6SM 02/M13 A3047 RMK SLP327 T00201130 IEM_DS3505
ZBAA,1998-02-21 00:00,ZBAA 210000Z AUTO 02008KT 12SM 02/M14 A3050 RMK SLP331 T00211135 52017 IEM_DS3505
ZBAA,1998-02-21 01:00,ZBAA 210100Z AUTO 04010KT 6SM 02/M15 A3053 RMK SLP347 T00201150 IEM_DS3505
ZBAA,1998-02-21 02:00,ZBAA 210200Z AUTO 03012KT 6SM 03/M14 A3053 RMK SLP347 T00301140 IEM_DS3505
ZBAA,1998-02-21 03:00,ZBAA 210300Z AUTO 04004KT 12SM 04/M14 A3053 RMK SLP338 T00431139 52007 IEM_DS3505
ZBAA,1998-02-21 04:00,ZBAA 210400Z AUTO 02010KT 6SM 04/M13 A3053 RMK SLP346 T00401130 IEM_DS3505
ZBAA,1998-02-21 05:00,ZBAA 210500Z AUTO 36006KT 6SM 05/M16 A3050 RMK SLP336 T00501160 IEM_DS3505
ZBAA,1998-02-21 06:00,ZBAA 210600Z AUTO 04006KT 12SM 06/M14 A3047 RMK SLP326 T00611136 57012 IEM_DS3505
ZBAA,1998-02-21 07:00,ZBAA 210700Z AUTO ////02KT 6SM 06/M16 A3047 RMK SLP326 T00601160 IEM_DS3505
ZBAA,1998-02-21 08:00,ZBAA 210800Z AUTO 11002KT 6SM 06/M15 A3047 RMK SLP326 T00601150 IEM_DS3505
ZBAA,1998-02-21 09:00,ZBAA 210900Z AUTO 09004KT 12SM 06/M11 A3047 RMK SLP320 T00651106 57006 IEM_DS3505
ZBAA,1998-02-21 10:00,ZBAA 211000Z AUTO 15002KT 6SM 05/M09 A3047 RMK SLP326 T00501090 IEM_DS3505
ZBAA,1998-02-21 11:00,ZBAA 211100Z AUTO 16002KT 6SM 04/M08 A3047 RMK SLP326 T00401080 IEM_DS3505
ZBAA,1998-02-21 12:00,ZBAA 211200Z AUTO 16004KT 7SM 04/M07 A3047 RMK SLP324 T00391068 52004 IEM_DS3505
ZBAA,1998-02-21 13:00,ZBAA 211300Z AUTO 19004KT 6SM 03/M07 A3047 RMK SLP326 T00301070 IEM_DS3505
ZBAA,1998-02-21 15:00,ZBAA 211500Z AUTO 20004KT 12SM 02/M07 A3050 RMK SLP334 T00151074 52010 IEM_DS3505
ZBAA,1998-02-21 16:00,ZBAA 211600Z AUTO 17004KT 6SM 00/M05 A3050 RMK SLP337 T00001050 IEM_DS3505
ZBAA,1998-02-21 17:00,ZBAA 211700Z AUTO 12002KT 6SM 00/M04 A3050 RMK SLP337 T00001040 IEM_DS3505
ZBAA,1998-02-21 18:00,ZBAA 211800Z AUTO 22002KT 11SM 01/M06 A3050 RMK SLP335 T00081062 52001 IEM_DS3505
ZBAA,1998-02-21 19:00,ZBAA 211900Z AUTO 12004KT 6SM 00/M05 A3050 RMK SLP337 T00001050 IEM_DS3505
ZBAA,1998-02-21 20:00,ZBAA 212000Z AUTO 00000KT 6SM 00/M06 A3050 RMK SLP337 T00001060 IEM_DS3505
ZBAA,1998-02-21 21:00,ZBAA 212100Z AUTO 14002KT 6SM M01/M06 A3050 RMK SLP329 T10061065 57006 IEM_DS3505
ZBAA,1998-02-21 22:00,ZBAA 212200Z AUTO 08002KT 6SM M01/M06 A3050 RMK SLP338 T10101060 IEM_DS3505
ZBAA,1998-02-21 23:00,ZBAA 212300Z AUTO 00000KT 6SM M02/M05 A3050 RMK SLP338 T10201050 IEM_DS3505
ZBAA,1998-02-22 00:00,ZBAA 220000Z AUTO 20004KT 7SM M00/M06 A3053 RMK SLP337 T10021055 52007 IEM_DS3505
ZBAA,1998-02-22 01:00,ZBAA 220100Z AUTO 07002KT 4SM 00/M05 A3053 RMK SLP347 T00001050 IEM_DS3505
ZBAA,1998-02-22 02:00,ZBAA 220200Z AUTO 07002KT 4SM 01/M05 A3053 RMK SLP347 T00101050 IEM_DS3505
ZBAA,1998-02-22 03:00,ZBAA 220300Z AUTO 22006KT 6SM 03/M07 A3050 RMK SLP335 T00301073 57002 IEM_DS3505
ZBAA,1998-02-22 04:00,ZBAA 220400Z AUTO 13002KT 3SM 04/M04 A3047 RMK SLP326 T00401040 IEM_DS3505
ZBAA,1998-02-22 05:00,ZBAA 220500Z AUTO ////02KT 3SM 05/M03 A3045 RMK SLP319 T00501030 IEM_DS3505
ZBAA,1998-02-22 06:00,ZBAA 220600Z AUTO 22008KT 7SM 06/M06 A3042 RMK SLP306 T00581063 57028 IEM_DS3505
ZBAA,1998-02-22 07:00,ZBAA 220700Z AUTO 19006KT 5SM 06/M04 A3039 RMK SLP299 T00601040 IEM_DS3505
ZBAA,1998-02-22 08:00,ZBAA 220800Z AUTO 18008KT 7SM 06/M04 A3039 RMK SLP299 T00601040 IEM_DS3505
ZBAA,1998-02-22 09:00,ZBAA 220900Z AUTO 20006KT 7SM 06/M05 A3036 RMK SLP290 T00581054 57016 IEM_DS3505
ZBAA,1998-02-22 10:00,ZBAA 221000Z AUTO 18006KT 6SM 04/M03 A3039 RMK SLP299 T00401030 IEM_DS3505
ZBAA,1998-02-22 11:00,ZBAA 221100Z AUTO 18004KT 7SM 03/M03 A3039 RMK SLP299 T00301030 IEM_DS3505
ZBAA,1998-02-22 12:00,ZBAA 221200Z AUTO 20004KT 9SM 03/M03 A3039 RMK SLP295 T00311031 52004 IEM_DS3505
ZBAA,1998-02-22 13:00,ZBAA 221300Z AUTO 17004KT 4SM 02/M02 A3039 RMK SLP300 T00201020 IEM_DS3505
ZBAA,1998-02-22 14:00,ZBAA 221400Z AUTO 19002KT 4SM 01/M02 A3039 RMK SLP300 T00101020 IEM_DS3505
ZBAA,1998-02-22 15:00,ZBAA 221500Z AUTO 00000KT 12SM 01/M03 A3039 RMK SLP289 T00141032 57005 IEM_DS3505
ZBAA,1998-02-22 16:00,ZBAA 221600Z AUTO 00000KT 3SM 00/M03 A3036 RMK SLP289 T00001030 IEM_DS3505
ZBAA,1998-02-22 17:00,ZBAA 221700Z AUTO 00000KT 3SM M01/M03 A3036 RMK SLP289 T10101030 IEM_DS3505
ZBAA,1998-02-22 18:00,ZBAA 221800Z AUTO 00000KT 12SM 00/M04 A3036 RMK SLP278 T00041037 57011 IEM_DS3505
ZBAA,1998-02-22 19:00,ZBAA 221900Z AUTO 03002KT 2SM M01/M02 A3033 RMK SLP279 T10101020 IEM_DS3505
ZBAA,1998-02-22 20:00,ZBAA 222000Z AUTO 00000KT 2SM M01/M02 A3033 RMK SLP279 T10101020 IEM_DS3505
ZBAA,1998-02-22 21:00,ZBAA 222100Z AUTO 00000KT 12SM M01/M03 A3033 RMK SLP271 T10101032 57007 IEM_DS3505
ZBAA,1998-02-22 22:00,ZBAA 222200Z AUTO 01002KT 1 1/4SM M02/M02 A3033 RMK SLP278 T10201020 IEM_DS3505
ZBAA,1998-02-22 23:00,ZBAA 222300Z AUTO 35004KT 1 1/4SM M02/M03 A3033 RMK SLP278 T10201030 IEM_DS3505
ZBAA,1998-02-23 00:00,ZBAA 230000Z AUTO 00000KT 4SM M01/M03 A3036 RMK SLP278 T10091034 52006 IEM_DS3505
ZBAA,1998-02-23 01:00,ZBAA 230100Z AUTO 34004KT 1 1/4SM 00/M02 A3036 RMK SLP288 T00001020 IEM_DS3505
ZBAA,1998-02-23 02:00,ZBAA 230200Z AUTO 35004KT 2SM 02/M02 A3036 RMK SLP287 T00201020 IEM_DS3505
ZBAA,1998-02-23 03:00,ZBAA 230300Z AUTO 07004KT 1 1/4SM 05/M03 A3033 RMK SLP280 T00461033 52003 IEM_DS3505
ZBAA,1998-02-23 04:00,ZBAA 230400Z AUTO 34002KT 2 1/2SM 05/M02 A3033 RMK SLP276 T00501020 IEM_DS3505
ZBAA,1998-02-23 05:00,ZBAA 230500Z AUTO 04002KT 2 1/2SM 07/M02 A3030 RMK SLP266 T00701020 IEM_DS3505
ZBAA,1998-02-23 06:00,ZBAA 230600Z AUTO 14006KT 1 1/4SM 08/M01 A3035 RMK SLP257 T00831008 57023 IEM_DS3505
ZBAA,1998-02-23 07:00,ZBAA 230700Z AUTO 14004KT 3SM 09/M02 A3024 RMK SLP245 T00901020 IEM_DS3505
ZBAA,1998-02-23 08:00,ZBAA 230800Z AUTO 16004KT 3SM 09/M02 A3024 RMK SLP245 T00901020 IEM_DS3505
ZBAA,1998-02-23 09:00,ZBAA 230900Z AUTO 14004KT 4SM 08/M00 A3024 RMK SLP251 T00831002 57006 IEM_DS3505
ZBAA,1998-02-23 10:00,ZBAA 231000Z AUTO 16004KT 2SM 07/01 A3027 RMK SLP256 T00700010 IEM_DS3505
ZBAA,1998-02-23 11:00,ZBAA 231100Z AUTO 17002KT 2SM 05/00 A3030 RMK SLP266 T00500000 IEM_DS3505
ZBAA,1998-02-23 12:00,ZBAA 231200Z AUTO 00000KT 4SM 04/00 A3030 RMK SLP264 T00440004 52013 IEM_DS3505
ZBAA,1998-02-23 13:00,ZBAA 231300Z AUTO 12002KT 1 1/4SM 03/00 A3033 RMK SLP277 T00300000 IEM_DS3505
ZBAA,1998-02-23 14:00,ZBAA 231400Z AUTO 11002KT 1 1/4SM 02/00 A3033 RMK SLP277 T00200000 IEM_DS3505
ZBAA,1998-02-23 15:00,ZBAA 231500Z AUTO 00000KT 2 1/2SM 02/M01 A3033 RMK SLP271 T00211007 52007 IEM_DS3505
ZBAA,1998-02-23 16:00,ZBAA 231600Z AUTO 02002KT 1 1/4SM 02/00 A3033 RMK SLP277 T00200000 IEM_DS3505
ZBAA,1998-02-23 17:00,ZBAA 231700Z AUTO 00000KT 1SM 00/M01 A3033 RMK SLP278 T00001010 IEM_DS3505
ZBAA,1998-02-23 18:00,ZBAA 231800Z AUTO 00000KT 2SM 00/M01 A3030 RMK SLP267 T00051006 57004 IEM_DS3505
ZBAA,1998-02-23 19:00,ZBAA 231900Z AUTO 00000KT 1SM 00/M01 A3030 RMK SLP268 T00001010 IEM_DS3505
ZBAA,1998-02-23 20:00,ZBAA 232000Z AUTO 36002KT 1SM 00/M01 A3030 RMK SLP268 T00001010 IEM_DS3505
ZBAA,1998-02-23 21:00,ZBAA 232100Z AUTO 09004KT 1SM M00/M02 A3027 RMK SLP259 T10041016 57008 IEM_DS3505
ZBAA,1998-02-23 22:00,ZBAA 232200Z AUTO 35004KT 1SM 00/M02 A3030 RMK SLP268 T00001020 IEM_DS3505
ZBAA,1998-02-23 23:00,ZBAA 232300Z AUTO 33004KT 1SM 00/M02 A3030 RMK SLP268 T00001020 IEM_DS3505
ZBAA,1998-02-24 00:00,ZBAA 240000Z AUTO 00000KT 1SM M00/M02 A3030 RMK SLP267 T10041019 52008 IEM_DS3505
ZBAA,1998-02-24 01:00,ZBAA 240100Z AUTO 35002KT 1SM 01/M01 A3033 RMK SLP277 T00101010 IEM_DS3505
ZBAA,1998-02-24 02:00,ZBAA 240200Z AUTO 34002KT 1 1/4SM 03/M01 A3030 RMK SLP267 T00301010 IEM_DS3505
ZBAA,1998-02-24 03:00,ZBAA 240300Z AUTO 09004KT 1SM 06/00 A3030 RMK SLP265 T00550000 57002 IEM_DS3505
ZBAA,1998-02-24 04:00,ZBAA 240400Z AUTO 14002KT 1 1/4SM 07/01 A3027 RMK SLP256 T00700010 IEM_DS3505
ZBAA,1998-02-24 05:00,ZBAA 240500Z AUTO 15004KT 1 1/4SM 08/01 A3024 RMK SLP245 T00800010 IEM_DS3505
ZBAA,1998-02-24 06:00,ZBAA 240600Z AUTO 18006KT 1 1/4SM 10/00 A3021 RMK SLP240 T00970005 57025 IEM_DS3505
ZBAA,1998-02-24 07:00,ZBAA 240700Z AUTO 17006KT 1 1/2SM 10/02 A3018 RMK SLP225 T01000020 IEM_DS3505
ZBAA,1998-02-24 08:00,ZBAA 240800Z AUTO 19008KT 2SM 10/01 A3018 RMK SLP225 T01000010 IEM_DS3505
ZBAA,1998-02-24 09:00,ZBAA 240900Z AUTO 18008KT 2 1/2SM 10/01 A3018 RMK SLP224 T01000006 57016 IEM_DS3505
ZBAA,1998-02-24 10:00,ZBAA 241000Z AUTO 15004KT 2 1/2SM 08/02 A3018 RMK SLP225 T00800020 IEM_DS3505
ZBAA,1998-02-24 11:00,ZBAA 241100Z AUTO 16002KT 2 1/2SM 06/01 A3018 RMK SLP226 T00600010 IEM_DS3505
ZBAA,1998-02-24 12:00,ZBAA 241200Z AUTO 00000KT 2 1/2SM 06/01 A3018 RMK SLP228 T00560013 52004 IEM_DS3505
ZBAA,1998-02-24 13:00,ZBAA 241300Z AUTO 16002KT 1 1/2SM 04/01 A3018 RMK SLP226 T00400010 IEM_DS3505
ZBAA,1998-02-24 14:00,ZBAA 241400Z AUTO 00000KT 1SM 03/01 A3018 RMK SLP227 T00300010 IEM_DS3505
ZBAA,1998-02-24 15:00,ZBAA 241500Z AUTO 18002KT 2SM 04/00 A3018 RMK SLP230 T00370002 52002 IEM_DS3505
ZBAA,1998-02-24 16:00,ZBAA 241600Z AUTO 10002KT 1SM 02/01 A3018 RMK SLP227 T00200010 IEM_DS3505
ZBAA,1998-02-24 17:00,ZBAA 241700Z AUTO 12004KT 1SM 01/01 A3018 RMK SLP227 T00100010 IEM_DS3505
ZBAA,1998-02-24 18:00,ZBAA 241800Z AUTO 14004KT 2 1/2SM 03/M00 A3015 RMK SLP219 T00281005 57011 IEM_DS3505
ZBAA,1998-02-24 19:00,ZBAA 241900Z AUTO 35002KT 1SM 01/00 A3015 RMK SLP217 T00100000 IEM_DS3505
ZBAA,1998-02-24 20:00,ZBAA 242000Z AUTO 07002KT 1 1/4SM 01/M01 A3012 RMK SLP207 T00101010 IEM_DS3505
ZBAA,1998-02-24 21:00,ZBAA 242100Z AUTO 14004KT 2SM 01/M01 A3012 RMK SLP205 T00101010 57014 IEM_DS3505
ZBAA,1998-02-24 22:00,ZBAA 242200Z AUTO 12002KT 1 1/4SM 01/M01 A3012 RMK SLP207 T00101010 IEM_DS3505
ZBAA,1998-02-24 23:00,ZBAA 242300Z AUTO 11002KT 1 1/4SM 01/M01 A3012 RMK SLP207 T00101010 IEM_DS3505
ZBAA,1998-02-25 00:00,ZBAA 250000Z AUTO 11002KT 1SM 02/M00 A3012 RMK SLP207 T00151002 52002 IEM_DS3505
ZBAA,1998-02-25 01:00,ZBAA 250100Z AUTO 06002KT 1 1/4SM 02/M01 A3012 RMK SLP207 T00201010 IEM_DS3505
ZBAA,1998-02-25 02:00,ZBAA 250200Z AUTO 04002KT 1 1/4SM 02/M01 A3012 RMK SLP207 T00201010 IEM_DS3505
ZBAA,1998-02-25 03:00,ZBAA 250300Z AUTO 00000KT 2SM 04/01 A3012 RMK SLP207 T00390013 54000 IEM_DS3505
ZBAA,1998-02-25 04:00,ZBAA 250400Z AUTO 13002KT 1SM 04/01 A3009 RMK SLP195 T00400010 IEM_DS3505
ZBAA,1998-02-25 05:00,ZBAA 250500Z AUTO 12002KT 1SM 06/01 A3006 RMK SLP185 T00600010 IEM_DS3505
ZBAA,1998-02-25 06:00,ZBAA 250600Z AUTO 14004KT 1 1/4SM 08/02 A3003 RMK SLP184 T00760020 57023 IEM_DS3505
ZBAA,1998-02-25 07:00,ZBAA 250700Z AUTO 14002KT 1SM 07/03 A3003 RMK SLP174 T00700030 IEM_DS3505
ZBAA,1998-02-25 08:00,ZBAA 250800Z AUTO 11002KT 1SM 08/03 A3003 RMK SLP174 T00800030 IEM_DS3505
ZBAA,1998-02-25 09:00,ZBAA 250900Z AUTO 20002KT 2 1/2SM 09/02 A3003 RMK SLP176 T00890022 57008 IEM_DS3505
ZBAA,1998-02-25 10:00,ZBAA 251000Z AUTO 00000KT 1/2SM 07/03 A3003 RMK SLP174 T00700030 IEM_DS3505
ZBAA,1998-02-25 11:00,ZBAA 251100Z AUTO 04002KT 1/2SM 06/03 A3006 RMK SLP185 T00600030 IEM_DS3505
ZBAA,1998-02-25 12:00,ZBAA 251200Z AUTO 00000KT 1 1/4SM 07/03 A3006 RMK 60000 SLP185 T00740034 52009 IEM_DS3505
ZBAA,1998-02-25 13:00,ZBAA 251300Z AUTO 00000KT 1/2SM 06/03 A3006 RMK SLP185 T00600030 IEM_DS3505
ZBAA,1998-02-25 14:00,ZBAA 251400Z AUTO 00000KT 1/2SM 06/03 A3006 RMK SLP185 T00600030 IEM_DS3505
ZBAA,1998-02-25 15:00,ZBAA 251500Z AUTO 00000KT 1SM 06/05 A3009 RMK SLP193 T00590047 52008 IEM_DS3505
ZBAA,1998-02-25 16:00,ZBAA 251600Z AUTO 00000KT 1/2SM 05/03 A3006 RMK SLP185 T00500030 IEM_DS3505
ZBAA,1998-02-25 17:00,ZBAA 251700Z AUTO 35002KT 1/2SM 04/03 A3006 RMK SLP185 T00400030 IEM_DS3505
ZBAA,1998-02-25 18:00,ZBAA 251800Z AUTO 00000KT 1SM 04/04 A3006 RMK 60004 SLP183 T00450035 57009 IEM_DS3505
ZBAA,1998-02-25 19:00,ZBAA 251900Z AUTO 33004KT 3/8SM 03/02 A3003 RMK SLP175 T00300020 IEM_DS3505
ZBAA,1998-02-25 20:00,ZBAA 252000Z AUTO 29004KT 1/2SM 03/02 A3003 RMK SLP175 T00300020 IEM_DS3505
ZBAA,1998-02-25 21:00,ZBAA 252100Z AUTO 27004KT 1SM 01/00 A3003 RMK 70004 SLP178 T00120004 57006 IEM_DS3505
ZBAA,1998-02-25 22:00,ZBAA 252200Z AUTO 33004KT 3/8SM 02/02 A3003 RMK SLP175 T00200020 IEM_DS3505
ZBAA,1998-02-25 23:00,ZBAA 252300Z AUTO 34004KT 1/2SM 02/01 A3003 RMK SLP175 T00200010 IEM_DS3505
ZBAA,1998-02-26 00:00,ZBAA 260000Z AUTO 29002KT 1/8SM M00/M01 A3006 RMK 70004 SLP187 T10021008 52009 IEM_DS3505
ZBAA,1998-02-26 01:00,ZBAA 260100Z AUTO 35006KT 1SM 05/03 A3006 RMK SLP185 T00500030 IEM_DS3505
ZBAA,1998-02-26 02:00,ZBAA 260200Z AUTO 35006KT 1 1/4SM 06/03 A3009 RMK SLP195 T00600030 IEM_DS3505
ZBAA,1998-02-26 03:00,ZBAA 260300Z AUTO 34014KT 8SM 11/M03 A3006 RMK SLP191 T01081026 52005 IEM_DS3505
ZBAA,1998-02-26 04:00,ZBAA 260400Z AUTO 31014KT 6SM 12/M03 A3006 RMK SLP183 T01201030 IEM_DS3505
ZBAA,1998-02-26 05:00,ZBAA 260500Z AUTO 32012G25KT 6SM 13/M02 A3003 RMK SLP173 T01301020 IEM_DS3505
ZBAA,1998-02-26 06:00,ZBAA 260600Z AUTO 32014KT 10SM 12/M04 A3003 RMK SLP177 T01251036 57014 IEM_DS3505
ZBAA,1998-02-26 07:00,ZBAA 260700Z AUTO 30014KT 6SM 13/M04 A3003 RMK SLP173 T01301040 IEM_DS3505
ZBAA,1998-02-26 08:00,ZBAA 260800Z AUTO 31014KT 6SM 14/M04 A3003 RMK SLP173 T01401040 IEM_DS3505
ZBAA,1998-02-26 09:00,ZBAA 260900Z AUTO 32014KT 12SM 13/M05 A3003 RMK SLP178 T01281052 52001 IEM_DS3505
ZBAA,1998-02-26 10:00,ZBAA 261000Z AUTO ////02KT 6SM 12/M02 A3006 RMK SLP183 T01201020 IEM_DS3505
ZBAA,1998-02-26 11:00,ZBAA 261100Z AUTO 33010KT 6SM 10/M03 A3009 RMK SLP194 T01001030 IEM_DS3505
ZBAA,1998-02-26 12:00,ZBAA 261200Z AUTO 32008KT 12SM 10/M03 A3009 RMK SLP205 T01041033 52026 IEM_DS3505
ZBAA,1998-02-26 13:00,ZBAA 261300Z AUTO 32014KT 7SM 09/M05 A3012 RMK SLP205 T00901050 IEM_DS3505
ZBAA,1998-02-26 14:00,ZBAA 261400Z AUTO 36006KT 7SM 07/M04 A3015 RMK SLP216 T00701040 IEM_DS3505
ZBAA,1998-02-26 15:00,ZBAA 261500Z AUTO 34008KT 12SM 09/M05 A3018 RMK SLP223 T00911052 52019 IEM_DS3505
ZBAA,1998-02-26 16:00,ZBAA 261600Z AUTO 02004KT 7SM 06/M04 A3021 RMK SLP236 T00601040 IEM_DS3505
ZBAA,1998-02-26 17:00,ZBAA 261700Z AUTO 33008KT 7SM 04/M04 A3021 RMK SLP236 T00401040 IEM_DS3505
ZBAA,1998-02-26 18:00,ZBAA 261800Z AUTO 34008KT 11SM 08/M05 A3031 RMK SLP242 T00801050 52019 IEM_DS3505
ZBAA,1998-02-26 19:00,ZBAA 261900Z AUTO 32008KT 7SM 04/M04 A3024 RMK SLP246 T00401040 IEM_DS3505
ZBAA,1998-02-26 20:00,ZBAA 262000Z AUTO 30010KT 7SM 07/M05 A3024 RMK SLP246 T00701050 IEM_DS3505
ZBAA,1998-02-26 21:00,ZBAA 262100Z AUTO 34008KT 9SM 07/M04 A3024 RMK SLP243 T00671043 52001 IEM_DS3505
ZBAA,1998-02-26 22:00,ZBAA 262200Z AUTO 34006KT 7SM 03/M04 A3027 RMK SLP257 T00301040 IEM_DS3505
ZBAA,1998-02-26 23:00,ZBAA 262300Z AUTO 36004KT 7SM 03/M04 A3030 RMK SLP267 T00301040 IEM_DS3505
ZBAA,1998-02-27 00:00,ZBAA 270000Z AUTO 34014KT 16SM 08/M08 A3033 RMK SLP266 T00781083 52023 IEM_DS3505
ZBAA,1998-02-27 01:00,ZBAA 270100Z AUTO 35006KT 7SM 07/M05 A3033 RMK SLP276 T00701050 IEM_DS3505
ZBAA,1998-02-27 02:00,ZBAA 270200Z AUTO 01008KT 7SM 08/M08 A3036 RMK SLP286 T00801080 IEM_DS3505
ZBAA,1998-02-27 03:00,ZBAA 270300Z AUTO 34012KT 19SM 10/M12 A3036 RMK SLP276 T00971115 52010 IEM_DS3505
ZBAA,1998-02-27 04:00,ZBAA 270400Z AUTO 01010KT 7SM 10/M12 A3033 RMK SLP275 T01001120 IEM_DS3505
ZBAA,1998-02-27 05:00,ZBAA 270500Z AUTO 04006KT 7SM 11/M11 A3030 RMK SLP265 T01101110 IEM_DS3505
ZBAA,1998-02-27 06:00,ZBAA 270600Z AUTO 34014KT 19SM 12/M12 A3027 RMK SLP255 T01211123 57021 IEM_DS3505
ZBAA,1998-02-27 07:00,ZBAA 270700Z AUTO 35008KT 7SM 12/M11 A3027 RMK SLP255 T01201110 IEM_DS3505
ZBAA,1998-02-27 08:00,ZBAA 270800Z AUTO 06004KT 7SM 13/M11 A3027 RMK SLP254 T01301110 IEM_DS3505
ZBAA,1998-02-27 09:00,ZBAA 270900Z AUTO 34010KT 19SM 12/M15 A3027 RMK SLP254 T01211146 57001 IEM_DS3505
ZBAA,1998-02-27 10:00,ZBAA 271000Z AUTO 35006KT 7SM 10/M10 A3030 RMK SLP265 T01001100 IEM_DS3505
ZBAA,1998-02-27 11:00,ZBAA 271100Z AUTO 35008KT 7SM 09/M07 A3033 RMK SLP275 T00901070 IEM_DS3505
ZBAA,1998-02-27 12:00,ZBAA 271200Z AUTO 34012KT 19SM 10/M14 A3036 RMK SLP274 T00981142 52020 IEM_DS3505
ZBAA,1998-02-27 14:00,ZBAA 271400Z AUTO 35006KT 7SM 05/M09 A3039 RMK SLP298 T00501090 IEM_DS3505
ZBAA,1998-02-27 15:00,ZBAA 271500Z AUTO 34006KT 16SM 07/M11 A3042 RMK SLP298 T00721114 52023 IEM_DS3505
ZBAA,1998-02-27 16:00,ZBAA 271600Z AUTO 29006KT 7SM 05/M11 A3042 RMK SLP308 T00501110 IEM_DS3505
ZBAA,1998-02-27 17:00,ZBAA 271700Z AUTO 35006KT 7SM 02/M08 A3045 RMK SLP318 T00201080 IEM_DS3505
ZBAA,1998-02-27 18:00,ZBAA 271800Z AUTO 34006KT 16SM 05/M11 A3045 RMK SLP307 T00531109 52009 IEM_DS3505
ZBAA,1998-02-27 19:00,ZBAA 271900Z AUTO 31006KT 7SM 04/M12 A3045 RMK SLP318 T00401120 IEM_DS3505
ZBAA,1998-02-27 20:00,ZBAA 272000Z AUTO 32010KT 7SM 05/M14 A3042 RMK SLP308 T00501140 IEM_DS3505
ZBAA,1998-02-27 21:00,ZBAA 272100Z AUTO 00000KT 12SM 02/M10 A3042 RMK SLP304 T00251096 57003 IEM_DS3505
ZBAA,1998-02-27 22:00,ZBAA 272200Z AUTO 36004KT 7SM 00/M09 A3045 RMK SLP319 T00001090 IEM_DS3505
ZBAA,1998-02-27 23:00,ZBAA 272300Z AUTO 32004KT 7SM 00/M10 A3045 RMK SLP319 T00001100 IEM_DS3505
ZBAA,1998-02-28 00:00,ZBAA 280000Z AUTO 34004KT 12SM 02/M08 A3045 RMK SLP314 T00251077 52010 IEM_DS3505
ZBAA,1998-02-28 01:00,ZBAA 280100Z AUTO 02004KT 7SM 05/M09 A3047 RMK SLP325 T00501090 IEM_DS3505
ZBAA,1998-02-28 02:00,ZBAA 280200Z AUTO 36004KT 7SM 07/M10 A3047 RMK SLP324 T00701100 IEM_DS3505
ZBAA,1998-02-28 03:00,ZBAA 280300Z AUTO 29004KT 12SM 10/M08 A3045 RMK SLP316 T00951085 52002 IEM_DS3505
ZBAA,1998-02-28 04:00,ZBAA 280400Z AUTO ////04KT 7SM 10/M09 A3045 RMK SLP316 T01001090 IEM_DS3505
ZBAA,1998-02-28 05:00,ZBAA 280500Z AUTO 34004KT 7SM 11/M08 A3042 RMK SLP306 T01101080 IEM_DS3505
ZBAA,1998-02-28 06:00,ZBAA 280600Z AUTO 16006KT 12SM 12/M10 A3036 RMK SLP288 T01191096 57027 IEM_DS3505
ZBAA,1998-02-28 07:00,ZBAA 280700Z AUTO 00000KT 7SM 12/M11 A3036 RMK SLP285 T01201110 IEM_DS3505
ZBAA,1998-02-28 08:00,ZBAA 280800Z AUTO 13004KT 7SM 13/M10 A3033 RMK SLP275 T01301100 IEM_DS3505
ZBAA,1998-02-28 09:00,ZBAA 280900Z AUTO 20006KT 16SM 12/M08 A3033 RMK SLP277 T01181081 57012 IEM_DS3505
ZBAA,1998-02-28 10:00,ZBAA 281000Z AUTO 17006KT 7SM 09/M05 A3033 RMK SLP275 T00901050 IEM_DS3505
ZBAA,1998-02-28 11:00,ZBAA 281100Z AUTO 18006KT 7SM 08/M06 A3036 RMK SLP286 T00801060 IEM_DS3505
ZBAA,1998-02-28 12:00,ZBAA 281200Z AUTO 25006KT 12SM 07/M05 A3036 RMK SLP283 T00731054 52006 IEM_DS3505
ZBAA,1998-02-28 13:00,ZBAA 281300Z AUTO 22006KT 7SM 08/M07 A3036 RMK SLP286 T00801070 IEM_DS3505
ZBAA,1998-02-28 14:00,ZBAA 281400Z AUTO 21006KT 7SM 07/M07 A3036 RMK SLP286 T00701070 IEM_DS3505
ZBAA,1998-02-28 15:00,ZBAA 281500Z AUTO 22006KT 9SM 05/M06 A3036 RMK SLP287 T00541060 52004 IEM_DS3505
ZBAA,1998-02-28 16:00,ZBAA 281600Z AUTO 14002KT 7SM 04/M05 A3036 RMK SLP287 T00401050 IEM_DS3505
ZBAA,1998-02-28 17:00,ZBAA 281700Z AUTO 00000KT 7SM 02/M03 A3036 RMK SLP287 T00201030 IEM_DS3505
ZBAA,1998-02-28 18:00,ZBAA 281800Z AUTO 25004KT 9SM 03/M05 A3036 RMK SLP279 T00311050 57008 IEM_DS3505
ZBAA,1998-02-28 19:00,ZBAA 281900Z AUTO 02002KT 7SM 01/M03 A3033 RMK SLP277 T00101030 IEM_DS3505
ZBAA,1998-02-28 20:00,ZBAA 282000Z AUTO 02002KT 7SM 00/M03 A3033 RMK SLP278 T00001030 IEM_DS3505
ZBAA,1998-02-28 21:00,ZBAA 282100Z AUTO 20004KT 9SM 00/M04 A3033 RMK SLP271 T00051039 57008 IEM_DS3505
ZBAA,1998-02-28 22:00,ZBAA 282200Z AUTO 03002KT 7SM 00/M03 A3033 RMK SLP278 T00001030 IEM_DS3505
ZBAA,1998-02-28 23:00,ZBAA 282300Z AUTO 00000KT 4SM M01/M03 A3033 RMK SLP278 T10101030 IEM_DS3505
ZBAA,1998-03-01 00:00,ZBAA 010000Z AUTO 00000KT 4SM 01/M04 A3033 RMK SLP274 T00071037 52003 IEM_DS3505
ZBAA,1998-03-01 01:00,ZBAA 010100Z AUTO 02002KT 4SM 02/M03 A3033 RMK SLP277 T00201030 IEM_DS3505
ZBAA,1998-03-01 02:00,ZBAA 010200Z AUTO 02002KT 4SM 04/M03 A3033 RMK SLP277 T00401030 IEM_DS3505
ZBAA,1998-03-01 03:00,ZBAA 010300Z AUTO 09004KT 12SM 07/M04 A3030 RMK SLP267 T00741040 57007 IEM_DS3505
ZBAA,1998-03-01 04:00,ZBAA 010400Z AUTO ////02KT 3SM 09/M02 A3030 RMK SLP265 T00901020 IEM_DS3505
ZBAA,1998-03-01 05:00,ZBAA 010500Z AUTO 11004KT 4SM 09/M02 A3024 RMK SLP245 T00901020 IEM_DS3505
ZBAA,1998-03-01 06:00,ZBAA 010600Z AUTO 20012KT 7SM 12/M04 A3021 RMK SLP239 T01251041 57027 IEM_DS3505
ZBAA,1998-03-01 07:00,ZBAA 010700Z AUTO 10002KT 3SM 12/M02 A3018 RMK SLP224 T01201020 IEM_DS3505
ZBAA,1998-03-01 08:00,ZBAA 010800Z AUTO 21008KT 4SM 13/M02 A3018 RMK SLP224 T01301020 IEM_DS3505
ZBAA,1998-03-01 09:00,ZBAA 010900Z AUTO 20008KT 7SM 13/M01 A3018 RMK SLP226 T01281008 57014 IEM_DS3505
ZBAA,1998-03-01 10:00,ZBAA 011000Z AUTO 16004KT 5SM 11/00 A3018 RMK SLP225 T01100000 IEM_DS3505
ZBAA,1998-03-01 11:00,ZBAA 011100Z AUTO 15002KT 5SM 09/00 A3018 RMK SLP225 T00900000 IEM_DS3505
ZBAA,1998-03-01 12:00,ZBAA 011200Z AUTO 16004KT 9SM 08/01 A3018 RMK SLP230 T00830011 52004 IEM_DS3505
ZBAA,1998-03-01 14:00,ZBAA 011400Z AUTO 00000KT 2 1/2SM 06/01 A3021 RMK SLP236 T00600010 IEM_DS3505
ZBAA,1998-03-01 15:00,ZBAA 011500Z AUTO 16002KT 9SM 06/01 A3021 RMK SLP232 T00550009 52002 IEM_DS3505
ZBAA,1998-03-01 16:00,ZBAA 011600Z AUTO 11002KT 2SM 04/01 A3018 RMK SLP226 T00400010 IEM_DS3505
ZBAA,1998-03-01 17:00,ZBAA 011700Z AUTO 03002KT 2SM 04/00 A3018 RMK SLP226 T00400000 IEM_DS3505
ZBAA,1998-03-01 18:00,ZBAA 011800Z AUTO 00000KT 7SM 03/01 A3018 RMK SLP228 T00340008 57003 IEM_DS3505
ZBAA,1998-03-01 19:00,ZBAA 011900Z AUTO 07002KT 1 1/4SM 03/00 A3018 RMK SLP227 T00300000 IEM_DS3505
ZBAA,1998-03-01 20:00,ZBAA 012000Z AUTO 05002KT 1 1/4SM 03/00 A3018 RMK SLP227 T00300000 IEM_DS3505
ZBAA,1998-03-01 21:00,ZBAA 012100Z AUTO 00000KT 6SM 03/01 A3015 RMK SLP222 T00260007 57006 IEM_DS3505
ZBAA,1998-03-01 22:00,ZBAA 012200Z AUTO 35004KT 1 1/2SM 03/00 A3018 RMK SLP227 T00300000 IEM_DS3505
ZBAA,1998-03-01 23:00,ZBAA 012300Z AUTO 01004KT 1 1/4SM 02/00 A3018 RMK SLP227 T00200000 IEM_DS3505
ZBAA,1998-03-02 00:00,ZBAA 020000Z AUTO 04004KT 1 1/2SM 02/M00 A3021 RMK SLP232 T00231005 52009 IEM_DS3505
ZBAA,1998-03-02 01:00,ZBAA 020100Z AUTO 36002KT 2SM 05/01 A3021 RMK SLP236 T00500010 IEM_DS3505
ZBAA,1998-03-02 02:00,ZBAA 020200Z AUTO ////02KT 2SM 07/01 A3021 RMK SLP236 T00700010 IEM_DS3505
ZBAA,1998-03-02 03:00,ZBAA 020300Z AUTO 36004KT 1SM 08/02 A3021 RMK SLP234 T00830017 52002 IEM_DS3505
ZBAA,1998-03-02 04:00,ZBAA 020400Z AUTO ////02KT 2SM 11/03 A3018 RMK SLP225 T01100030 IEM_DS3505
ZBAA,1998-03-02 05:00,ZBAA 020500Z AUTO 14004KT 2SM 12/03 A3015 RMK SLP214 T01200030 IEM_DS3505
ZBAA,1998-03-02 06:00,ZBAA 020600Z AUTO 14004KT 1SM 12/03 A3012 RMK SLP211 T01200034 57022 IEM_DS3505
ZBAA,1998-03-02 07:00,ZBAA 020700Z AUTO 16006KT 2 1/2SM 13/03 A3012 RMK SLP204 T01300030 IEM_DS3505
ZBAA,1998-03-02 08:00,ZBAA 020800Z AUTO 19006KT 1 1/2SM 14/03 A3012 RMK SLP204 T01400030 IEM_DS3505
ZBAA,1998-03-02 09:00,ZBAA 020900Z AUTO 18006KT 1 1/4SM 13/03 A3009 RMK SLP203 T01300028 57008 IEM_DS3505
ZBAA,1998-03-02 10:00,ZBAA 021000Z AUTO 15004KT 1 1/4SM 11/04 A3012 RMK SLP205 T01100040 IEM_DS3505
ZBAA,1998-03-02 11:00,ZBAA 021100Z AUTO 13002KT 2 1/2SM 09/04 A3015 RMK SLP215 T00900040 IEM_DS3505
ZBAA,1998-03-02 12:00,ZBAA 021200Z AUTO 00000KT 2SM 08/04 A3015 RMK SLP216 T00800038 52012 IEM_DS3505
ZBAA,1998-03-02 13:00,ZBAA 021300Z AUTO 13002KT 2 1/2SM 07/04 A3015 RMK SLP216 T00700040 IEM_DS3505
ZBAA,1998-03-02 14:00,ZBAA 021400Z AUTO 00000KT 2SM 06/04 A3018 RMK SLP226 T00600040 IEM_DS3505
ZBAA,1998-03-02 15:00,ZBAA 021500Z AUTO 09002KT 1 1/2SM 05/02 A3018 RMK SLP225 T00470025 52009 IEM_DS3505
ZBAA,1998-03-02 16:00,ZBAA 021600Z AUTO 00000KT 1 1/2SM 05/03 A3018 RMK SLP226 T00500030 IEM_DS3505
ZBAA,1998-03-02 17:00,ZBAA 021700Z AUTO 35002KT 1SM 04/02 A3018 RMK SLP226 T00400020 IEM_DS3505
ZBAA,1998-03-02 18:00,ZBAA 021800Z AUTO 00000KT 1 1/4SM 03/02 A3018 RMK SLP222 T00320019 57002 IEM_DS3505
ZBAA,1998-03-02 19:00,ZBAA 021900Z AUTO 35002KT 1SM 04/03 A3018 RMK SLP226 T00400030 IEM_DS3505
ZBAA,1998-03-02 20:00,ZBAA 022000Z AUTO 35004KT 1SM 04/02 A3015 RMK SLP216 T00400020 IEM_DS3505
ZBAA,1998-03-02 21:00,ZBAA 022100Z AUTO 02004KT 1 1/4SM 03/02 A3015 RMK SLP220 T00280015 57002 IEM_DS3505
ZBAA,1998-03-02 22:00,ZBAA 022200Z AUTO 00000KT 1SM 03/01 A3015 RMK SLP216 T00300010 IEM_DS3505
ZBAA,1998-03-02 23:00,ZBAA 022300Z AUTO 00000KT 1SM 02/01 A3018 RMK SLP227 T00200010 IEM_DS3505
ZBAA,1998-03-03 00:00,ZBAA 030000Z AUTO 04004KT 1SM 04/02 A3021 RMK SLP234 T00400017 52013 IEM_DS3505
ZBAA,1998-03-03 01:00,ZBAA 030100Z AUTO 05002KT 1SM 04/02 A3024 RMK SLP246 T00400020 IEM_DS3505
ZBAA,1998-03-03 02:00,ZBAA 030200Z AUTO 10006KT 1SM 06/01 A3024 RMK SLP246 T00600010 IEM_DS3505
ZBAA,1998-03-03 03:00,ZBAA 030300Z AUTO 07006KT 1SM 06/02 A3027 RMK SLP248 T00640016 52014 IEM_DS3505
ZBAA,1998-03-03 04:00,ZBAA 030400Z AUTO 10004KT 2SM 08/01 A3024 RMK SLP245 T00800010 IEM_DS3505
ZBAA,1998-03-03 05:00,ZBAA 030500Z AUTO 08002KT 2 1/2SM 09/01 A3021 RMK SLP235 T00900010 IEM_DS3505
ZBAA,1998-03-03 06:00,ZBAA 030600Z AUTO 07008KT 1SM 09/01 A3021 RMK SLP233 T00910013 57015 IEM_DS3505
ZBAA,1998-03-03 07:00,ZBAA 030700Z AUTO 11004KT 2 1/2SM 10/02 A3021 RMK SLP235 T01000020 IEM_DS3505
ZBAA,1998-03-03 08:00,ZBAA 030800Z AUTO 14004KT 2 1/2SM 10/01 A3018 RMK SLP225 T01000010 IEM_DS3505
ZBAA,1998-03-03 09:00,ZBAA 030900Z AUTO 07006KT 1 1/4SM 10/03 A3021 RMK SLP231 T01010031 57002 IEM_DS3505
ZBAA,1998-03-03 10:00,ZBAA 031000Z AUTO 00000KT 2 1/2SM 09/03 A3021 RMK SLP235 T00900030 IEM_DS3505
ZBAA,1998-03-03 11:00,ZBAA 031100Z AUTO 14002KT 2 1/2SM 09/03 A3024 RMK SLP245 T00900030 IEM_DS3505
ZBAA,1998-03-03 12:00,ZBAA 031200Z AUTO 14006KT 1 1/4SM 08/03 A3024 RMK SLP247 T00750030 52016 IEM_DS3505
ZBAA,1998-03-03 13:00,ZBAA 031300Z AUTO 16004KT 2SM 07/04 A3027 RMK SLP256 T00700040 IEM_DS3505
ZBAA,1998-03-03 14:00,ZBAA 031400Z AUTO 15004KT 2SM 07/03 A3027 RMK SLP256 T00700030 IEM_DS3505
ZBAA,1998-03-03 15:00,ZBAA 031500Z AUTO 11004KT 1 1/4SM 06/01 A3027 RMK SLP254 T00580009 52007 IEM_DS3505
ZBAA,1998-03-03 16:00,ZBAA 031600Z AUTO 00000KT 2SM 05/03 A3027 RMK SLP256 T00500030 IEM_DS3505
ZBAA,1998-03-03 17:00,ZBAA 031700Z AUTO 00000KT 2 1/2SM 05/02 A3027 RMK SLP256 T00500020 IEM_DS3505
ZBAA,1998-03-03 18:00,ZBAA 031800Z AUTO 07002KT 2 1/2SM 05/01 A3027 RMK 60000 SLP257 T00530009 52003 IEM_DS3505
ZBAA,1998-03-03 19:00,ZBAA 031900Z AUTO 01002KT 2 1/2SM 05/02 A3027 RMK SLP256 T00500020 IEM_DS3505
ZBAA,1998-03-03 20:00,ZBAA 032000Z AUTO 01002KT 2SM 04/02 A3024 RMK SLP246 T00400020 IEM_DS3505
ZBAA,1998-03-03 21:00,ZBAA 032100Z AUTO 02004KT 2 1/2SM 04/M00 A3024 RMK 70001 SLP246 T00411002 57011 IEM_DS3505
ZBAA,1998-03-03 22:00,ZBAA 032200Z AUTO 34004KT 2SM 03/01 A3024 RMK SLP247 T00300010 IEM_DS3505
ZBAA,1998-03-03 23:00,ZBAA 032300Z AUTO 36002KT 1 1/2SM 04/01 A3024 RMK SLP246 T00400010 IEM_DS3505
ZBAA,1998-03-04 00:00,ZBAA 040000Z AUTO 04002KT 1 1/4SM 04/00 A3033 RMK 70001 SLP252 T00360004 52006 IEM_DS3505
ZBAA,1998-03-04 01:00,ZBAA 040100Z AUTO 34002KT 1 1/4SM 04/02 A3027 RMK SLP256 T00400020 IEM_DS3505
ZBAA,1998-03-04 02:00,ZBAA 040200Z AUTO 30004KT 1 1/4SM 06/00 A3030 RMK SLP266 T00600000 IEM_DS3505
ZBAA,1998-03-04 03:00,ZBAA 040300Z AUTO 20004KT 2SM 06/M02 A3027 RMK SLP260 T00631023 52008 IEM_DS3505
ZBAA,1998-03-04 04:00,ZBAA 040400Z AUTO 29004KT 2SM 07/01 A3027 RMK SLP256 T00700010 IEM_DS3505
ZBAA,1998-03-04 05:00,ZBAA 040500Z AUTO 34004KT 2SM 07/00 A3024 RMK SLP246 T00700000 IEM_DS3505
ZBAA,1998-03-04 06:00,ZBAA 040600Z AUTO 07004KT 2SM 08/01 A3021 RMK SLP239 T00770006 57021 IEM_DS3505
ZBAA,1998-03-04 07:00,ZBAA 040700Z AUTO 03002KT 2SM 08/01 A3021 RMK SLP235 T00800010 IEM_DS3505
ZBAA,1998-03-04 08:00,ZBAA 040800Z AUTO 00000KT 2SM 08/00 A3018 RMK SLP225 T00800000 IEM_DS3505
ZBAA,1998-03-04 09:00,ZBAA 040900Z AUTO 07004KT 2 1/2SM 07/00 A3018 RMK SLP230 T00730004 57009 IEM_DS3505
ZBAA,1998-03-04 10:00,ZBAA 041000Z AUTO 25002KT 1 1/2SM 08/02 A3018 RMK SLP225 T00800020 IEM_DS3505
ZBAA,1998-03-04 11:00,ZBAA 041100Z AUTO 28004KT 1 1/2SM 07/01 A3018 RMK SLP226 T00700010 IEM_DS3505
ZBAA,1998-03-04 12:00,ZBAA 041200Z AUTO 16004KT 2 1/2SM 07/01 A3018 RMK SLP232 T00660013 52002 IEM_DS3505
ZBAA,1998-03-04 13:00,ZBAA 041300Z AUTO 28004KT 1 1/2SM 07/01 A3021 RMK SLP236 T00700010 IEM_DS3505
ZBAA,1998-03-04 14:00,ZBAA 041400Z AUTO 28004KT 1 1/2SM 07/00 A3018 RMK SLP226 T00700000 IEM_DS3505
ZBAA,1998-03-04 15:00,ZBAA 041500Z AUTO 25004KT 2 1/2SM 06/01 A3018 RMK SLP231 T00600012 57001 IEM_DS3505
ZBAA,1998-03-04 16:00,ZBAA 041600Z AUTO 02002KT 1 1/2SM 05/03 A3018 RMK SLP226 T00500030 IEM_DS3505
ZBAA,1998-03-04 17:00,ZBAA 041700Z AUTO 00000KT 1 1/2SM 06/01 A3018 RMK SLP226 T00600010 IEM_DS3505
ZBAA,1998-03-04 18:00,ZBAA 041800Z AUTO 00000KT 2SM 04/02 A3015 RMK SLP221 T00350017 57010 IEM_DS3505
ZBAA,1998-03-04 19:00,ZBAA 041900Z AUTO 35002KT 1 1/4SM 04/02 A3015 RMK SLP216 T00400020 IEM_DS3505
ZBAA,1998-03-04 20:00,ZBAA 042000Z AUTO 34004KT 1 1/4SM 04/03 A3015 RMK SLP216 T00400030 IEM_DS3505
ZBAA,1998-03-04 21:00,ZBAA 042100Z AUTO 00000KT 1 1/4SM 05/02 A3012 RMK SLP213 T00470019 57008 IEM_DS3505
ZBAA,1998-03-04 22:00,ZBAA 042200Z AUTO 35004KT 1SM 04/03 A3012 RMK SLP206 T00400030 IEM_DS3505
ZBAA,1998-03-04 23:00,ZBAA 042300Z AUTO 35006KT 1SM 04/03 A3012 RMK SLP206 T00400030 IEM_DS3505
ZBAA,1998-03-05 00:00,ZBAA 050000Z AUTO 00000KT 1SM 05/03 A3015 RMK SLP214 T00510026 52001 IEM_DS3505
ZBAA,1998-03-05 01:00,ZBAA 050100Z AUTO 35004KT 1 1/4SM 06/04 A3015 RMK SLP216 T00600040 IEM_DS3505
ZBAA,1998-03-05 02:00,ZBAA 050200Z AUTO 32006KT 1 1/4SM 07/04 A3015 RMK SLP216 T00700040 IEM_DS3505
ZBAA,1998-03-05 03:00,ZBAA 050300Z AUTO 04006KT 2 1/2SM 10/03 A3015 RMK SLP211 T00960031 57002 IEM_DS3505
ZBAA,1998-03-05 04:00,ZBAA 050400Z AUTO ////02KT 2SM 11/05 A3012 RMK SLP205 T01100050 IEM_DS3505
ZBAA,1998-03-05 05:00,ZBAA 050500Z AUTO ////02KT 2SM 11/04 A3009 RMK SLP193 T01100040 IEM_DS3505
ZBAA,1998-03-05 06:00,ZBAA 050600Z AUTO 11004KT 2 1/2SM 12/03 A3006 RMK SLP193 T01220031 57018 IEM_DS3505
ZBAA,1998-03-05 07:00,ZBAA 050700Z AUTO 16004KT 2SM 13/05 A3003 RMK T01300050 IEM_DS3505
ZBAA,1998-03-05 08:00,ZBAA 050800Z AUTO 17004KT 2SM 13/04 A3003 RMK SLP173 T01300040 IEM_DS3505
ZBAA,1998-03-05 09:00,ZBAA 050900Z AUTO 20006KT 3SM 12/03 A3003 RMK SLP183 T01200031 57010 IEM_DS3505
ZBAA,1998-03-05 10:00,ZBAA 051000Z AUTO 15002KT 1 1/4SM 11/06 A3006 RMK SLP183 T01100060 IEM_DS3505
ZBAA,1998-03-05 11:00,ZBAA 051100Z AUTO 20002KT 1SM 10/04 A3006 RMK SLP184 T01000040 IEM_DS3505
ZBAA,1998-03-05 12:00,ZBAA 051200Z AUTO 20004KT 1 1/4SM 08/04 A3009 RMK SLP194 T00810044 52011 IEM_DS3505
ZBAA,1998-03-05 13:00,ZBAA 051300Z AUTO 00000KT 1SM 08/04 A3009 RMK SLP194 T00800040 IEM_DS3505
ZBAA,1998-03-05 14:00,ZBAA 051400Z AUTO 00000KT 1SM 08/04 A3009 RMK SLP194 T00800040 IEM_DS3505
ZBAA,1998-03-05 15:00,ZBAA 051500Z AUTO 00000KT 1 1/4SM 07/03 A3012 RMK SLP202 T00660030 52008 IEM_DS3505
ZBAA,1998-03-05 16:00,ZBAA 051600Z AUTO 00000KT 1SM 07/04 A3012 RMK SLP205 T00700040 IEM_DS3505
ZBAA,1998-03-05 17:00,ZBAA 051700Z AUTO 29002KT 1/2SM 06/04 A3012 RMK SLP206 T00600040 IEM_DS3505
ZBAA,1998-03-05 18:00,ZBAA 051800Z AUTO 27004KT 2SM 06/03 A3012 RMK SLP209 T00630026 52007 IEM_DS3505
ZBAA,1998-03-05 19:00,ZBAA 051900Z AUTO 33006KT 1/2SM 04/03 A3012 RMK SLP206 T00400030 IEM_DS3505
ZBAA,1998-03-05 20:00,ZBAA 052000Z AUTO 34004KT 1/2SM 04/03 A3012 RMK SLP206 T00400030 IEM_DS3505
ZBAA,1998-03-05 21:00,ZBAA 052100Z AUTO 02004KT 2SM 05/03 A3015 RMK SLP213 T00500028 52004 IEM_DS3505
ZBAA,1998-03-05 22:00,ZBAA 052200Z AUTO 34004KT 1SM 04/02 A3015 RMK SLP216 T00400020 IEM_DS3505
ZBAA,1998-03-05 23:00,ZBAA 052300Z AUTO 33006KT 1 1/4SM 03/01 A3018 RMK SLP227 T00300010 IEM_DS3505
ZBAA,1998-03-06 00:00,ZBAA 060000Z AUTO 36004KT 7SM 07/02 A3021 RMK SLP230 T00730016 52017 IEM_DS3505
ZBAA,1998-03-06 01:00,ZBAA 060100Z AUTO 34006KT 4SM 09/01 A3021 RMK SLP235 T00900010 IEM_DS3505
ZBAA,1998-03-06 02:00,ZBAA 060200Z AUTO 01008KT 7SM 12/00 A3024 RMK SLP245 T01200000 IEM_DS3505
ZBAA,1998-03-06 03:00,ZBAA 060300Z AUTO 04010KT 10SM 15/M06 A3024 RMK SLP238 T01491065 52008 IEM_DS3505
ZBAA,1998-03-06 04:00,ZBAA 060400Z AUTO 02010KT 7SM 15/M06 A3021 RMK SLP234 T01501060 IEM_DS3505
ZBAA,1998-03-06 05:00,ZBAA 060500Z AUTO 04010KT 7SM 16/M09 A3021 RMK SLP234 T01601090 IEM_DS3505
ZBAA,1998-03-06 06:00,ZBAA 060600Z AUTO 02008KT 11SM 17/M12 A3018 RMK SLP229 T01701124 57009 IEM_DS3505
ZBAA,1998-03-06 07:00,ZBAA 060700Z AUTO 04006KT 7SM 18/M09 A3018 RMK SLP223 T01801090 IEM_DS3505
ZBAA,1998-03-06 08:00,ZBAA 060800Z AUTO 05006KT 7SM 18/M08 A3018 RMK SLP223 T01801080 IEM_DS3505
ZBAA,1998-03-06 09:00,ZBAA 060900Z AUTO 14006KT 9SM 17/M07 A3018 RMK SLP228 T01691068 57001 IEM_DS3505
ZBAA,1998-03-06 10:00,ZBAA 061000Z AUTO 16002KT 6SM 15/M07 A3021 RMK SLP234 T01501070 IEM_DS3505
ZBAA,1998-03-06 11:00,ZBAA 061100Z AUTO 18012KT 7SM 10/M03 A3024 RMK SLP245 T01001030 IEM_DS3505
ZBAA,1998-03-06 12:00,ZBAA 061200Z AUTO 20010KT 12SM 07/M04 A3033 RMK SLP272 T00711037 52043 IEM_DS3505
ZBAA,1998-03-06 13:00,ZBAA 061300Z AUTO 17006KT 7SM 06/M02 A3036 RMK SLP286 T00601020 IEM_DS3505
ZBAA,1998-03-06 14:00,ZBAA 061400Z AUTO 15002KT 7SM 05/M02 A3042 RMK SLP308 T00501020 IEM_DS3505
ZBAA,1998-03-06 15:00,ZBAA 061500Z AUTO 22002KT 12SM 05/M03 A3042 RMK SLP302 T00501034 52031 IEM_DS3505
ZBAA,1998-03-06 16:00,ZBAA 061600Z AUTO 00000KT 7SM 05/M02 A3045 RMK SLP318 T00501020 IEM_DS3505
ZBAA,1998-03-06 17:00,ZBAA 061700Z AUTO 00000KT 7SM 02/M02 A3045 RMK SLP318 T00201020 IEM_DS3505
ZBAA,1998-03-06 18:00,ZBAA 061800Z AUTO 00000KT 9SM 02/M03 A3045 RMK SLP312 T00251032 52010 IEM_DS3505
ZBAA,1998-03-06 19:00,ZBAA 061900Z AUTO 00000KT 7SM 01/M02 A3045 RMK SLP319 T00101020 IEM_DS3505
ZBAA,1998-03-06 20:00,ZBAA 062000Z AUTO 00000KT 7SM 01/M02 A3045 RMK SLP319 T00101020 IEM_DS3505
ZBAA,1998-03-06 21:00,ZBAA 062100Z AUTO 00000KT 7SM 01/M04 A3045 RMK SLP315 T00081035 52002 IEM_DS3505
ZBAA,1998-03-06 22:00,ZBAA 062200Z AUTO 00000KT 4SM 00/M02 A3047 RMK SLP326 T00001020 IEM_DS3505
ZBAA,1998-03-06 23:00,ZBAA 062300Z AUTO 03002KT 2 1/2SM 00/M01 A3047 RMK SLP326 T00001010 IEM_DS3505
ZBAA,1998-03-07 00:00,ZBAA 070000Z AUTO 25002KT 4SM 03/M03 A3047 RMK SLP326 T00291034 52011 IEM_DS3505
ZBAA,1998-03-07 01:00,ZBAA 070100Z AUTO 06002KT 4SM 04/00 A3047 RMK SLP325 T00400000 IEM_DS3505
ZBAA,1998-03-07 02:00,ZBAA 070200Z AUTO 11002KT 4SM 06/M02 A3047 RMK SLP324 T00601020 IEM_DS3505
ZBAA,1998-03-07 03:00,ZBAA 070300Z AUTO 20008KT 12SM 08/M11 A3047 RMK SLP323 T00851109 57003 IEM_DS3505
ZBAA,1998-03-07 04:00,ZBAA 070400Z AUTO 21008KT 6SM 09/M09 A3047 RMK SLP324 T00901090 IEM_DS3505
ZBAA,1998-03-07 05:00,ZBAA 070500Z AUTO 18008KT 6SM 11/M09 A3045 RMK SLP316 T01101090 IEM_DS3505
ZBAA,1998-03-07 06:00,ZBAA 070600Z AUTO 22008KT 16SM 11/M09 A3042 RMK SLP303 T01111093 57020 IEM_DS3505
ZBAA,1998-03-07 07:00,ZBAA 070700Z AUTO 19008KT 6SM 11/M09 A3039 RMK SLP296 T01101090 IEM_DS3505
ZBAA,1998-03-07 08:00,ZBAA 070800Z AUTO 18006KT 6SM 11/M08 A3036 RMK SLP285 T01101080 IEM_DS3505
ZBAA,1998-03-07 09:00,ZBAA 070900Z AUTO 16006KT 9SM 10/M08 A3036 RMK SLP285 T01001079 57018 IEM_DS3505
ZBAA,1998-03-07 10:00,ZBAA 071000Z AUTO 16004KT 6SM 09/M06 A3036 RMK SLP285 T00901060 IEM_DS3505
ZBAA,1998-03-07 11:00,ZBAA 071100Z AUTO 17004KT 6SM 07/M05 A3036 RMK SLP286 T00701050 IEM_DS3505
ZBAA,1998-03-07 12:00,ZBAA 071200Z AUTO 18004KT 11SM 08/M04 A3036 RMK SLP285 T00781038 54000 IEM_DS3505
ZBAA,1998-03-07 13:00,ZBAA 071300Z AUTO 19004KT 7SM 07/M06 A3036 RMK SLP286 T00701060 IEM_DS3505
ZBAA,1998-03-07 14:00,ZBAA 071400Z AUTO 17002KT 6SM 06/M05 A3036 RMK SLP286 T00601050 IEM_DS3505
ZBAA,1998-03-07 15:00,ZBAA 071500Z AUTO 16002KT 12SM 05/M02 A3036 RMK SLP282 T00511022 57003 IEM_DS3505
ZBAA,1998-03-07 16:00,ZBAA 071600Z AUTO 11002KT 5SM 05/M02 A3033 RMK SLP276 T00501020 IEM_DS3505
ZBAA,1998-03-07 18:00,ZBAA 071800Z AUTO 22004KT 12SM 05/M06 A3033 RMK SLP272 T00501063 57009 IEM_DS3505
ZBAA,1998-03-07 19:00,ZBAA 071900Z AUTO 13002KT 6SM 04/M01 A3030 RMK SLP267 T00401010 IEM_DS3505
ZBAA,1998-03-07 20:00,ZBAA 072000Z AUTO 16002KT 6SM 04/M01 A3030 RMK SLP267 T00401010 IEM_DS3505
ZBAA,1998-03-07 21:00,ZBAA 072100Z AUTO 22002KT 12SM 04/M05 A3027 RMK SLP258 T00371049 57015 IEM_DS3505
ZBAA,1998-03-07 22:00,ZBAA 072200Z AUTO 00000KT 4SM 03/M01 A3027 RMK SLP257 T00301010 IEM_DS3505
ZBAA,1998-03-07 23:00,ZBAA 072300Z AUTO 02004KT 2 1/2SM 04/M03 A3027 RMK SLP256 T00401030 IEM_DS3505
ZBAA,1998-03-08 00:00,ZBAA 080000Z AUTO 00000KT 6SM 04/M03 A3027 RMK SLP252 T00371030 57006 IEM_DS3505
ZBAA,1998-03-08 01:00,ZBAA 080100Z AUTO 01004KT 2SM 05/M01 A3027 RMK SLP256 T00501010 IEM_DS3505
ZBAA,1998-03-08 02:00,ZBAA 080200Z AUTO 17002KT 2 1/2SM 06/M02 A3027 RMK SLP256 T00601020 IEM_DS3505
ZBAA,1998-03-08 03:00,ZBAA 080300Z AUTO 27006KT 5SM 08/M05 A3027 RMK SLP254 T00761053 52002 IEM_DS3505
ZBAA,1998-03-08 04:00,ZBAA 080400Z AUTO ////02KT 2 1/2SM 09/M03 A3024 RMK SLP245 T00901030 IEM_DS3505
ZBAA,1998-03-08 05:00,ZBAA 080500Z AUTO 12002KT 3SM 09/M03 A3021 RMK SLP235 T00901030 IEM_DS3505
ZBAA,1998-03-08 06:00,ZBAA 080600Z AUTO 22006KT 5SM 12/M06 A3018 RMK SLP224 T01191057 57029 IEM_DS3505
ZBAA,1998-03-08 07:00,ZBAA 080700Z AUTO 00000KT 4SM 13/M06 A3015 RMK SLP214 T01301060 IEM_DS3505
ZBAA,1998-03-08 08:00,ZBAA 080800Z AUTO ////02KT 4SM 13/M06 A3012 RMK SLP204 T01301060 IEM_DS3505
ZBAA,1998-03-08 09:00,ZBAA 080900Z AUTO 20008KT 6SM 12/M04 A3012 RMK SLP213 T01231044 57011 IEM_DS3505
ZBAA,1998-03-08 10:00,ZBAA 081000Z AUTO 00000KT 4SM 11/M05 A3012 RMK SLP205 T01101050 IEM_DS3505
ZBAA,1998-03-08 11:00,ZBAA 081100Z AUTO 22004KT 5SM 10/M04 A3015 RMK SLP215 T01001040 IEM_DS3505
ZBAA,1998-03-08 12:00,ZBAA 081200Z AUTO 22002KT 11SM 08/M03 A3015 RMK SLP215 T00781026 52001 IEM_DS3505
ZBAA,1998-03-08 13:00,ZBAA 081300Z AUTO 15002KT 4SM 07/M02 A3015 RMK SLP216 T00701020 IEM_DS3505
ZBAA,1998-03-08 14:00,ZBAA 081400Z AUTO 17002KT 4SM 05/M01 A3015 RMK SLP216 T00501010 IEM_DS3505
ZBAA,1998-03-08 15:00,ZBAA 081500Z AUTO 00000KT 9SM 05/M02 A3018 RMK SLP222 T00461015 52007 IEM_DS3505
ZBAA,1998-03-08 16:00,ZBAA 081600Z AUTO 03002KT 3SM 04/00 A3018 RMK SLP226 T00400000 IEM_DS3505
ZBAA,1998-03-08 17:00,ZBAA 081700Z AUTO 00000KT 2 1/2SM 02/M01 A3018 RMK SLP227 T00201010 IEM_DS3505
ZBAA,1998-03-08 18:00,ZBAA 081800Z AUTO 02004KT 6SM 02/M01 A3018 RMK SLP223 T00221012 52002 IEM_DS3505
ZBAA,1998-03-08 19:00,ZBAA 081900Z AUTO 19004KT 2SM 01/M01 A3015 RMK SLP217 T00101010 IEM_DS3505
ZBAA,1998-03-08 20:00,ZBAA 082000Z AUTO 27002KT 2SM 03/M01 A3015 RMK SLP216 T00301010 IEM_DS3505
ZBAA,1998-03-08 21:00,ZBAA 082100Z AUTO 36002KT 4SM 01/M02 A3015 RMK SLP218 T00101016 57005 IEM_DS3505
ZBAA,1998-03-08 22:00,ZBAA 082200Z AUTO 36004KT 2SM 02/M03 A3015 RMK SLP217 T00201030 IEM_DS3505
ZBAA,1998-03-08 23:00,ZBAA 082300Z AUTO 35006KT 2 1/2SM 01/M03 A3015 RMK SLP217 T00101030 IEM_DS3505
ZBAA,1998-03-09 00:00,ZBAA 090000Z AUTO 34004KT 2 1/2SM 04/M02 A3021 RMK SLP236 T00401020 IEM_DS3505
ZBAA,1998-03-09 01:00,ZBAA 090100Z AUTO 35004KT 4SM 06/M01 A3021 RMK SLP236 T00601010 IEM_DS3505
ZBAA,1998-03-09 02:00,ZBAA 090200Z AUTO 36004KT 5SM 09/M02 A3021 RMK SLP235 T00901020 IEM_DS3505
ZBAA,1998-03-09 03:00,ZBAA 090300Z AUTO 07004KT 3SM 12/M03 A3024 RMK SLP246 T01151034 52016 IEM_DS3505
ZBAA,1998-03-09 04:00,ZBAA 090400Z AUTO 16004KT 6SM 14/M06 A3024 RMK SLP244 T01401060 IEM_DS3505
ZBAA,1998-03-09 06:00,ZBAA 090600Z AUTO 18004KT 5SM 14/M08 A3021 RMK SLP239 T01411085 57007 IEM_DS3505
ZBAA,1998-03-09 07:00,ZBAA 090700Z AUTO 18004KT 5SM 15/M07 A3021 RMK SLP234 T01501070 IEM_DS3505
ZBAA,1998-03-09 08:00,ZBAA 090800Z AUTO 22004KT 5SM 15/M07 A3021 RMK SLP234 T01501070 IEM_DS3505
ZBAA,1998-03-09 09:00,ZBAA 090900Z AUTO 20004KT 5SM 13/M05 A3021 RMK SLP237 T01261048 57003 IEM_DS3505
ZBAA,1998-03-09 10:00,ZBAA 091000Z AUTO 19006KT 4SM 12/M04 A3021 RMK SLP234 T01201040 IEM_DS3505
ZBAA,1998-03-09 11:00,ZBAA 091100Z AUTO 20004KT 4SM 10/M04 A3021 RMK SLP235 T01001040 IEM_DS3505
ZBAA,1998-03-09 12:00,ZBAA 091200Z AUTO 20004G19KT 5SM 10/M02 A3024 RMK SLP246 T00981024 52010 IEM_DS3505
ZBAA,1998-03-09 15:00,ZBAA 091500Z AUTO 20006KT 5SM 08/M04 A3027 RMK SLP257 T00801038 52011 IEM_DS3505
ZBAA,1998-03-09 16:00,ZBAA 091600Z AUTO 14002KT 6SM 07/M04 A3027 RMK SLP256 T00701040 IEM_DS3505
ZBAA,1998-03-09 18:00,ZBAA 091800Z AUTO 25004KT 5SM 06/M04 A3030 RMK SLP260 T00641036 52003 IEM_DS3505
ZBAA,1998-03-09 19:00,ZBAA 091900Z AUTO 13004KT 6SM 06/M02 A3030 RMK SLP266 T00601020 IEM_DS3505
ZBAA,1998-03-09 20:00,ZBAA 092000Z AUTO 08002KT 6SM 05/M01 A3030 RMK SLP266 T00501010 IEM_DS3505
ZBAA,1998-03-09 21:00,ZBAA 092100Z AUTO 16004KT 5SM 04/M01 A3030 RMK SLP263 T00441014 52003 IEM_DS3505
ZBAA,1998-03-09 22:00,ZBAA 092200Z AUTO 11002KT 4SM 05/M01 A3030 RMK SLP266 T00501010 IEM_DS3505
ZBAA,1998-03-09 23:00,ZBAA 092300Z AUTO 07002KT 3SM 05/M01 A3033 RMK SLP276 T00501010 IEM_DS3505
ZBAA,1998-03-10 00:00,ZBAA 100000Z AUTO 11004KT 4SM 05/M02 A3033 RMK SLP272 T00481023 52008 IEM_DS3505
ZBAA,1998-03-10 01:00,ZBAA 100100Z AUTO 07002KT 2 1/2SM 06/M02 A3033 RMK SLP276 T00601020 IEM_DS3505
ZBAA,1998-03-10 02:00,ZBAA 100200Z AUTO 12004KT 4SM 08/M03 A3033 RMK SLP276 T00801030 IEM_DS3505
ZBAA,1998-03-10 03:00,ZBAA 100300Z AUTO 14004KT 2 1/2SM 09/M06 A3033 RMK SLP274 T00861058 52003 IEM_DS3505
ZBAA,1998-03-10 04:00,ZBAA 100400Z AUTO 18006KT 4SM 10/M04 A3033 RMK SLP275 T01001040 IEM_DS3505
ZBAA,1998-03-10 05:00,ZBAA 100500Z AUTO 18006KT 5SM 10/M07 A3027 RMK SLP255 T01001070 IEM_DS3505
ZBAA,1998-03-10 06:00,ZBAA 100600Z AUTO 29002KT 3SM 11/M10 A3024 RMK SLP249 T01111097 57025 IEM_DS3505
ZBAA,1998-03-10 07:00,ZBAA 100700Z AUTO 18006KT 6SM 11/M08 A3024 RMK SLP245 T01101080 IEM_DS3505
ZBAA,1998-03-10 08:00,ZBAA 100800Z AUTO ////04KT 6SM 11/M08 A3021 RMK SLP235 T01101080 IEM_DS3505
ZBAA,1998-03-10 09:00,ZBAA 100900Z AUTO 20004KT 6SM 11/M07 A3021 RMK SLP238 T01081066 57011 IEM_DS3505
ZBAA,1998-03-10 10:00,ZBAA 101000Z AUTO 18004KT 6SM 10/M06 A3021 RMK SLP235 T01001060 IEM_DS3505
ZBAA,1998-03-10 11:00,ZBAA 101100Z AUTO 16006KT 6SM 09/M04 A3021 RMK SLP235 T00901040 IEM_DS3505
ZBAA,1998-03-10 12:00,ZBAA 101200Z AUTO 20004KT 4SM 09/M04 A3024 RMK SLP243 T00881041 52004 IEM_DS3505
ZBAA,1998-03-10 13:00,ZBAA 101300Z AUTO 16004KT 6SM 08/M03 A3024 RMK SLP245 T00801030 IEM_DS3505
ZBAA,1998-03-10 14:00,ZBAA 101400Z AUTO 17012KT 6SM 06/M05 A3024 RMK SLP246 T00601050 IEM_DS3505
ZBAA,1998-03-10 15:00,ZBAA 101500Z AUTO 18004KT 7SM 05/M06 A3024 RMK SLP245 T00511056 52002 IEM_DS3505
ZBAA,1998-03-10 17:00,ZBAA 101700Z AUTO 12004KT 6SM 04/M02 A3024 RMK SLP246 T00401020 IEM_DS3505
ZBAA,1998-03-10 18:00,ZBAA 101800Z AUTO 14004KT 6SM 02/M02 A3024 RMK SLP242 T00231020 57003 IEM_DS3505
ZBAA,1998-03-10 19:00,ZBAA 101900Z AUTO 09002KT 6SM 03/M03 A3021 RMK SLP237 T00301030 IEM_DS3505
ZBAA,1998-03-10 20:00,ZBAA 102000Z AUTO 08002KT 6SM 03/M03 A3018 RMK SLP227 T00301030 IEM_DS3505
ZBAA,1998-03-10 21:00,ZBAA 102100Z AUTO 09002KT 6SM 03/M02 A3018 RMK SLP225 T00281024 57016 IEM_DS3505
ZBAA,1998-03-10 22:00,ZBAA 102200Z AUTO 00000KT 6SM 03/M03 A3018 RMK SLP227 T00301030 IEM_DS3505
ZBAA,1998-03-10 23:00,ZBAA 102300Z AUTO 35002KT 6SM 03/M03 A3018 RMK SLP227 T00301030 IEM_DS3505
ZBAA,1998-03-11 00:00,ZBAA 110000Z AUTO 00000KT 4SM 02/M02 A3025 RMK SLP225 T00241016 57001 IEM_DS3505
ZBAA,1998-03-11 01:00,ZBAA 110100Z AUTO 35004KT 4SM 05/M03 A3018 RMK SLP226 T00501030 IEM_DS3505
ZBAA,1998-03-11 02:00,ZBAA 110200Z AUTO 02004KT 5SM 07/M05 A3015 RMK SLP216 T00701050 IEM_DS3505
ZBAA,1998-03-11 03:00,ZBAA 110300Z AUTO 02004KT 6SM 08/M06 A3015 RMK SLP216 T00791056 57008 IEM_DS3505
ZBAA,1998-03-11 04:00,ZBAA 110400Z AUTO ////02KT 6SM 10/M05 A3012 RMK SLP205 T01001050 IEM_DS3505
ZBAA,1998-03-11 05:00,ZBAA 110500Z AUTO ////02KT 5SM 12/M05 A3009 RMK SLP193 T01201050 IEM_DS3505
ZBAA,1998-03-11 06:00,ZBAA 110600Z AUTO 25004KT 6SM 12/M04 A3003 RMK SLP186 T01241042 57030 IEM_DS3505
ZBAA,1998-03-11 07:00,ZBAA 110700Z AUTO 14004KT 4SM 14/M07 A3000 RMK T01401070 IEM_DS3505
ZBAA,1998-03-11 08:00,ZBAA 110800Z AUTO 15004KT 6SM 14/M07 A3000 RMK SLP163 T01401070 IEM_DS3505
ZBAA,1998-03-11 09:00,ZBAA 110900Z AUTO 20006KT 7SM 14/M05 A3000 RMK SLP162 T01361049 57024 IEM_DS3505
ZBAA,1998-03-11 10:00,ZBAA 111000Z AUTO 19006KT 4SM 12/M04 A2997 RMK SLP153 T01201040 IEM_DS3505
ZBAA,1998-03-11 11:00,ZBAA 111100Z AUTO 21006KT 4SM 11/M04 A2997 RMK SLP153 T01101040 IEM_DS3505
ZBAA,1998-03-11 12:00,ZBAA 111200Z AUTO 20004KT 7SM 10/M01 RMK SLP170 T00961009 52008 IEM_DS3505
ZBAA,1998-03-11 13:00,ZBAA 111300Z AUTO 33002KT 2 1/2SM 09/M02 A3000 RMK SLP164 T00901020 IEM_DS3505
ZBAA,1998-03-11 14:00,ZBAA 111400Z AUTO 31002KT 2 1/2SM 07/M01 A3003 RMK SLP174 T00701010 IEM_DS3505
ZBAA,1998-03-11 15:00,ZBAA 111500Z AUTO 25004KT 7SM 07/M01 A3003 RMK SLP172 T00731012 52002 IEM_DS3505
ZBAA,1998-03-11 16:00,ZBAA 111600Z AUTO 30002KT 2 1/2SM 07/M03 A3000 RMK SLP164 T00701030 IEM_DS3505
ZBAA,1998-03-11 17:00,ZBAA 111700Z AUTO 30004KT 2 1/2SM 06/M04 A3000 RMK SLP164 T00601040 IEM_DS3505
ZBAA,1998-03-11 18:00,ZBAA 111800Z AUTO 29006KT 7SM 06/M03 A2997 RMK SLP160 T00611032 57012 IEM_DS3505
ZBAA,1998-03-11 19:00,ZBAA 111900Z AUTO ////04KT 3SM 03/M05 A2994 RMK T00301050 IEM_DS3505
ZBAA,1998-03-11 20:00,ZBAA 112000Z AUTO 34002KT 2 1/2SM 03/M04 A2994 RMK SLP145 T00301040 IEM_DS3505
ZBAA,1998-03-11 21:00,ZBAA 112100Z AUTO 20004KT 9SM 02/M03 A2991 RMK SLP143 T00201027 57017 IEM_DS3505
ZBAA,1998-03-11 22:00,ZBAA 112200Z AUTO 00000KT 3SM 02/M05 A2991 RMK SLP135 T00201050 IEM_DS3505
ZBAA,1998-03-11 23:00,ZBAA 112300Z AUTO 00000KT 7SM 01/M04 A2991 RMK SLP135 T00101040 IEM_DS3505
ZBAA,1998-03-12 00:00,ZBAA 120000Z AUTO 29004KT 6SM 05/M04 A2991 RMK SLP136 T00461039 57007 IEM_DS3505
ZBAA,1998-03-12 01:00,ZBAA 120100Z AUTO 25004G14KT 5SM 10/M08 A2988 RMK SLP123 T01001080 IEM_DS3505
ZBAA,1998-03-12 02:00,ZBAA 120200Z AUTO 30004KT 7SM 12/M08 A2985 RMK SLP113 T01201080 IEM_DS3505
ZBAA,1998-03-12 03:00,ZBAA 120300Z AUTO 29012KT 12SM 16/M13 A2985 RMK SLP115 T01581131 57020 IEM_DS3505
ZBAA,1998-03-12 04:00,ZBAA 120400Z AUTO 26008KT 7SM 16/M11 A2980 RMK SLP095 T01601110 IEM_DS3505
ZBAA,1998-03-12 05:00,ZBAA 120500Z AUTO 28010KT 7SM 17/M11 A2977 RMK SLP084 T01701110 IEM_DS3505
ZBAA,1998-03-12 06:00,ZBAA 120600Z AUTO 27008G29KT 12SM 18/M11 A2974 RMK SLP083 T01801113 57032 IEM_DS3505
ZBAA,1998-03-12 07:00,ZBAA 120700Z AUTO 28010G19KT 6SM 18/M10 A2971 RMK T01801100 IEM_DS3505
ZBAA,1998-03-12 08:00,ZBAA 120800Z AUTO 27010G19KT 6SM 19/M09 A2968 RMK SLP053 T01901090 IEM_DS3505
ZBAA,1998-03-12 09:00,ZBAA 120900Z AUTO 25008KT 12SM 18/M10 A2968 RMK SLP060 T01781098 57023 IEM_DS3505
ZBAA,1998-03-12 10:00,ZBAA 121000Z AUTO 25008KT 7SM 17/M09 A2968 RMK SLP053 T01701090 IEM_DS3505
ZBAA,1998-03-12 11:00,ZBAA 121100Z AUTO 22008KT 6SM 16/M09 A2968 RMK SLP053 T01601090 IEM_DS3505
ZBAA,1998-03-12 12:00,ZBAA 121200Z AUTO 22008KT 12SM 12/M04 A2971 RMK SLP069 T01221044 52008 IEM_DS3505
ZBAA,1998-03-12 13:00,ZBAA 121300Z AUTO ////04KT 7SM 14/M06 A2971 RMK SLP064 T01401060 IEM_DS3505
ZBAA,1998-03-12 14:00,ZBAA 121400Z AUTO 02004KT 7SM 11/M06 A2974 RMK SLP075 T01101060 IEM_DS3505
ZBAA,1998-03-12 15:00,ZBAA 121500Z AUTO 32004KT 12SM 09/M02 A2977 RMK SLP085 T00931023 52017 IEM_DS3505
ZBAA,1998-03-12 16:00,ZBAA 121600Z AUTO 36006KT 7SM 08/M09 A2977 RMK SLP086 T00801090 IEM_DS3505
ZBAA,1998-03-12 17:00,ZBAA 121700Z AUTO 03006KT 7SM 09/M08 A2977 RMK SLP086 T00901080 IEM_DS3505
ZBAA,1998-03-12 18:00,ZBAA 121800Z AUTO 36008KT 12SM 10/M10 A2980 RMK SLP092 T01031102 52007 IEM_DS3505
ZBAA,1998-03-12 19:00,ZBAA 121900Z AUTO 04004KT 7SM 08/M09 A2980 RMK SLP097 T00801090 IEM_DS3505
ZBAA,1998-03-12 20:00,ZBAA 122000Z AUTO 02008KT 7SM 08/M09 A2980 RMK SLP097 T00801090 IEM_DS3505
ZBAA,1998-03-12 21:00,ZBAA 122100Z AUTO 02004KT 9SM 09/M11 A2983 RMK SLP104 T00891106 52012 IEM_DS3505
ZBAA,1998-03-12 22:00,ZBAA 122200Z AUTO 02008KT 7SM 08/M10 A2985 RMK SLP114 T00801100 IEM_DS3505
ZBAA,1998-03-12 23:00,ZBAA 122300Z AUTO 02010KT 6SM 07/M10 A2985 RMK SLP114 T00701100 IEM_DS3505
ZBAA,1998-03-13 00:00,ZBAA 130000Z AUTO 02008G21KT 12SM 08/M13 A2988 RMK SLP128 T00771132 52023 IEM_DS3505
ZBAA,1998-03-13 01:00,ZBAA 130100Z AUTO 03010KT 6SM 08/M10 A2991 RMK SLP134 T00801100 IEM_DS3505
ZBAA,1998-03-13 02:00,ZBAA 130200Z AUTO 03010KT 6SM 09/M12 A2994 RMK SLP144 T00901120 IEM_DS3505
ZBAA,1998-03-13 03:00,ZBAA 130300Z AUTO 02008KT 12SM 10/M15 A2994 RMK SLP141 T01031154 52013 IEM_DS3505
ZBAA,1998-03-13 04:00,ZBAA 130400Z AUTO 04008KT 6SM 11/M12 A2991 RMK SLP133 T01101120 IEM_DS3505
ZBAA,1998-03-13 05:00,ZBAA 130500Z AUTO 35012KT 6SM 12/M15 A2988 RMK SLP123 T01201150 IEM_DS3505
ZBAA,1998-03-13 06:00,ZBAA 130600Z AUTO 34010KT 12SM 13/M14 A2985 RMK SLP118 T01291138 57022 IEM_DS3505
ZBAA,1998-03-13 07:00,ZBAA 130700Z AUTO 02006KT 7SM 13/M12 A2985 RMK SLP112 T01301120 IEM_DS3505
ZBAA,1998-03-13 08:00,ZBAA 130800Z AUTO ////04KT 7SM 13/M14 A2983 RMK SLP105 T01301140 IEM_DS3505
ZBAA,1998-03-13 09:00,ZBAA 130900Z AUTO 32008KT 12SM 14/M14 A2983 RMK SLP101 T01391143 57017 IEM_DS3505
ZBAA,1998-03-13 10:00,ZBAA 131000Z AUTO 12004KT 6SM 12/M11 A2983 RMK SLP106 T01201110 IEM_DS3505
ZBAA,1998-03-13 11:00,ZBAA 131100Z AUTO 12002KT 6SM 10/M12 A2983 RMK SLP106 T01001120 IEM_DS3505
ZBAA,1998-03-13 12:00,ZBAA 131200Z AUTO 16006KT 12SM 08/M06 A2983 RMK SLP113 T00771063 52011 IEM_DS3505
ZBAA,1998-03-13 13:00,ZBAA 131300Z AUTO 07002KT 7SM 08/M06 A2985 RMK SLP114 T00801060 IEM_DS3505
ZBAA,1998-03-13 14:00,ZBAA 131400Z AUTO 10004KT 7SM 09/M08 A2988 RMK SLP123 T00901080 IEM_DS3505
ZBAA,1998-03-13 15:00,ZBAA 131500Z AUTO 27004KT 12SM 09/M06 A2988 RMK SLP129 T00891059 52016 IEM_DS3505
ZBAA,1998-03-13 16:00,ZBAA 131600Z AUTO 02006KT 6SM 08/M10 A2991 RMK SLP134 T00801100 IEM_DS3505
ZBAA,1998-03-13 17:00,ZBAA 131700Z AUTO 34012KT 6SM 08/M16 A2994 RMK SLP144 T00801160 IEM_DS3505
ZBAA,1998-03-13 18:00,ZBAA 131800Z AUTO 02012G27KT 11SM 08/M17 A2997 RMK SLP155 T00771174 52026 IEM_DS3505
ZBAA,1998-03-13 19:00,ZBAA 131900Z AUTO 35012KT 6SM 05/M17 A3000 RMK SLP165 T00501170 IEM_DS3505
ZBAA,1998-03-13 20:00,ZBAA 132000Z AUTO 33019G31KT 6SM 05/M19 A3000 RMK SLP165 T00501190 IEM_DS3505
ZBAA,1998-03-13 21:00,ZBAA 132100Z AUTO 34014KT 16SM 04/M20 A3003 RMK SLP168 T00421201 52013 IEM_DS3505
ZBAA,1998-03-13 22:00,ZBAA 132200Z AUTO 01016G25KT 6SM 02/M15 A3006 RMK SLP186 T00201150 IEM_DS3505
ZBAA,1998-03-13 23:00,ZBAA 132300Z AUTO 03008KT 6SM 01/M14 A3012 RMK SLP207 T00101140 IEM_DS3505
ZBAA,1998-03-14 00:00,ZBAA 140000Z AUTO 02010KT 16SM 02/M19 A3015 RMK SLP212 T00241191 52043 IEM_DS3505
ZBAA,1998-03-14 01:00,ZBAA 140100Z AUTO 33016G27KT 7SM 03/M20 A3015 RMK SLP216 T00301200 IEM_DS3505
ZBAA,1998-03-14 02:00,ZBAA 140200Z AUTO 34019G31KT 7SM 04/M22 A3015 RMK SLP216 T00401220 IEM_DS3505
ZBAA,1998-03-14 03:00,ZBAA 140300Z AUTO 34012G35KT 11SM 05/M22 A3015 RMK SLP220 T00461223 52009 IEM_DS3505
ZBAA,1998-03-14 04:00,ZBAA 140400Z AUTO 31017KT 7SM 06/M22 A3012 RMK SLP206 T00601220 IEM_DS3505
ZBAA,1998-03-14 05:00,ZBAA 140500Z AUTO 33014KT 7SM 07/M20 A3012 RMK SLP205 T00701200 IEM_DS3505
ZBAA,1998-03-14 06:00,ZBAA 140600Z AUTO 34012KT 10SM 08/M29 A3009 RMK SLP200 T00781289 57020 IEM_DS3505
ZBAA,1998-03-14 07:00,ZBAA 140700Z AUTO 28012KT 7SM 09/M22 A3006 RMK T00901220 IEM_DS3505
ZBAA,1998-03-14 08:00,ZBAA 140800Z AUTO 29012KT 7SM 10/M23 A3003 RMK SLP174 T01001230 IEM_DS3505
ZBAA,1998-03-14 09:00,ZBAA 140900Z AUTO 32010KT 9SM 10/M25 A3000 RMK SLP172 T01041249 57028 IEM_DS3505
ZBAA,1998-03-14 10:00,ZBAA 141000Z AUTO 31010KT 7SM 10/M21 A3000 RMK SLP163 T01001210 IEM_DS3505
ZBAA,1998-03-14 11:00,ZBAA 141100Z AUTO 27004KT 7SM 09/M20 A3003 RMK SLP174 T00901200 IEM_DS3505
ZBAA,1998-03-14 12:00,ZBAA 141200Z AUTO 22010KT 10SM 06/M16 A3003 RMK SLP186 T00641155 52013 IEM_DS3505
ZBAA,1998-03-14 13:00,ZBAA 141300Z AUTO 31008KT 7SM 08/M19 A3006 RMK SLP184 T00801190 IEM_DS3505
ZBAA,1998-03-14 14:00,ZBAA 141400Z AUTO 15004KT 7SM 03/M11 A3009 RMK SLP195 T00301110 IEM_DS3505
ZBAA,1998-03-14 15:00,ZBAA 141500Z AUTO 25010KT 12SM 05/M12 A3012 RMK SLP207 T00511124 52021 IEM_DS3505
ZBAA,1998-03-14 16:00,ZBAA 141600Z AUTO 19002KT 7SM 04/M11 A3012 RMK SLP206 T00401110 IEM_DS3505
ZBAA,1998-03-14 17:00,ZBAA 141700Z AUTO 24002KT 7SM 03/M11 A3012 RMK SLP206 T00301110 IEM_DS3505
ZBAA,1998-03-14 18:00,ZBAA 141800Z AUTO 27004KT 11SM 02/M08 A3012 RMK SLP212 T00221080 52005 IEM_DS3505
ZBAA,1998-03-14 19:00,ZBAA 141900Z AUTO 19004KT 7SM M01/M06 A3012 RMK SLP207 T10101060 IEM_DS3505
ZBAA,1998-03-14 20:00,ZBAA 142000Z AUTO 21002KT 7SM M01/M08 A3012 RMK SLP207 T10101080 IEM_DS3505
ZBAA,1998-03-14 21:00,ZBAA 142100Z AUTO 25004KT 9SM M00/M08 A3012 RMK SLP208 T10031077 57004 IEM_DS3505
ZBAA,1998-03-14 22:00,ZBAA 142200Z AUTO 17004KT 7SM M02/M07 A3012 RMK SLP208 T10201070 IEM_DS3505
ZBAA,1998-03-14 23:00,ZBAA 142300Z AUTO 04004KT 6SM M01/M05 A3012 RMK SLP207 T10101050 IEM_DS3505
ZBAA,1998-03-15 00:00,ZBAA 150000Z AUTO 22002KT 5SM 02/M06 A3012 RMK SLP208 T00161055 54000 IEM_DS3505
ZBAA,1998-03-15 01:00,ZBAA 150100Z AUTO 05002KT 5SM 04/M05 A3012 RMK SLP206 T00401050 IEM_DS3505
ZBAA,1998-03-15 02:00,ZBAA 150200Z AUTO 00000KT 5SM 08/M07 A3012 RMK SLP205 T00801070 IEM_DS3505
ZBAA,1998-03-15 03:00,ZBAA 150300Z AUTO 22004KT 6SM 09/M08 A3009 RMK SLP198 T00921084 57009 IEM_DS3505
ZBAA,1998-03-15 04:00,ZBAA 150400Z AUTO 18010KT 6SM 11/M16 A3006 RMK SLP183 T01101160 IEM_DS3505
ZBAA,1998-03-15 05:00,ZBAA 150500Z AUTO 18010KT 6SM 12/M15 A3000 RMK SLP163 T01201150 IEM_DS3505
ZBAA,1998-03-15 06:00,ZBAA 150600Z AUTO 22008KT 6SM 12/M13 A2997 RMK SLP159 T01151131 57039 IEM_DS3505
ZBAA,1998-03-15 07:00,ZBAA 150700Z AUTO 19010KT 6SM 12/M15 A2994 RMK T01201150 IEM_DS3505
ZBAA,1998-03-15 08:00,ZBAA 150800Z AUTO 17008KT 6SM 12/M14 A2991 RMK SLP133 T01201140 IEM_DS3505
ZBAA,1998-03-15 09:00,ZBAA 150900Z AUTO 20004KT 6SM 12/M14 A2988 RMK SLP134 T01231135 57025 IEM_DS3505
ZBAA,1998-03-15 10:00,ZBAA 151000Z AUTO 16004KT 6SM 11/M09 A2988 RMK SLP123 T01101090 IEM_DS3505
ZBAA,1998-03-15 11:00,ZBAA 151100Z AUTO 13002KT 6SM 10/M07 A2988 RMK SLP123 T01001070 IEM_DS3505
ZBAA,1998-03-15 12:00,ZBAA 151200Z AUTO 18004KT 6SM 10/M03 A2988 RMK SLP133 T00991033 57001 IEM_DS3505
ZBAA,1998-03-15 13:00,ZBAA 151300Z AUTO 11004KT 6SM 07/M04 A2991 RMK SLP134 T00701040 IEM_DS3505
ZBAA,1998-03-15 14:00,ZBAA 151400Z AUTO 14004KT 6SM 06/M03 A2991 RMK SLP134 T00601030 IEM_DS3505
ZBAA,1998-03-15 15:00,ZBAA 151500Z AUTO 22008KT 6SM 08/M00 A2991 RMK SLP141 T00831001 52008 IEM_DS3505
ZBAA,1998-03-15 16:00,ZBAA 151600Z AUTO 19008KT 6SM 06/M01 A2988 RMK SLP124 T00601010 IEM_DS3505
ZBAA,1998-03-15 17:00,ZBAA 151700Z AUTO 19004KT 6SM 06/00 A2991 RMK SLP134 T00600000 IEM_DS3505
ZBAA,1998-03-15 18:00,ZBAA 151800Z AUTO 22004KT 6SM 05/00 A2991 RMK SLP134 T00500003 57007 IEM_DS3505
ZBAA,1998-03-15 19:00,ZBAA 151900Z AUTO 17002KT 5SM 05/01 A2988 RMK SLP124 T00500010 IEM_DS3505
ZBAA,1998-03-15 20:00,ZBAA 152000Z AUTO 15002KT 5SM 02/01 A2988 RMK SLP125 T00200010 IEM_DS3505
ZBAA,1998-03-15 21:00,ZBAA 152100Z AUTO 14004KT 6SM 02/M01 A2988 RMK SLP134 T00161009 54000 IEM_DS3505
ZBAA,1998-03-15 22:00,ZBAA 152200Z AUTO 00000KT 4SM 02/01 A2991 RMK SLP135 T00200010 IEM_DS3505
ZBAA,1998-03-15 23:00,ZBAA 152300Z AUTO 07002KT 4SM 02/00 A2991 RMK SLP135 T00200000 IEM_DS3505
ZBAA,1998-03-16 00:00,ZBAA 160000Z AUTO 00000KT 5SM 03/M00 A2994 RMK SLP146 T00331005 52012 IEM_DS3505
ZBAA,1998-03-16 01:00,ZBAA 160100Z AUTO 03004KT 4SM 04/00 A2997 RMK SLP155 T00400000 IEM_DS3505
ZBAA,1998-03-16 02:00,ZBAA 160200Z AUTO 02002KT 4SM 07/01 A2997 RMK SLP154 T00700010 IEM_DS3505
ZBAA,1998-03-16 03:00,ZBAA 160300Z AUTO 04004KT 4SM 10/01 A2997 RMK SLP158 T00970009 52012 IEM_DS3505
ZBAA,1998-03-16 04:00,ZBAA 160400Z AUTO ////04KT 4SM 11/01 A2994 RMK SLP143 T01100010 IEM_DS3505
ZBAA,1998-03-16 05:00,ZBAA 160500Z AUTO ////02KT 4SM 13/01 A2994 RMK SLP143 T01300010 IEM_DS3505
ZBAA,1998-03-16 06:00,ZBAA 160600Z AUTO 18004KT 6SM 15/00 A2991 RMK SLP145 T01460002 57013 IEM_DS3505
ZBAA,1998-03-16 07:00,ZBAA 160700Z AUTO 17004KT 7SM 16/01 A2991 RMK SLP132 T01600010 IEM_DS3505
ZBAA,1998-03-16 08:00,ZBAA 160800Z AUTO 24006KT 7SM 17/00 A2991 RMK SLP132 T01700000 IEM_DS3505
ZBAA,1998-03-16 09:00,ZBAA 160900Z AUTO 18006KT 6SM 16/M02 A2991 RMK SLP145 T01621021 54000 IEM_DS3505
ZBAA,1998-03-16 10:00,ZBAA 161000Z AUTO 18008KT 7SM 15/01 A2994 RMK SLP142 T01500010 IEM_DS3505
ZBAA,1998-03-16 11:00,ZBAA 161100Z AUTO 18006KT 5SM 12/00 A2997 RMK SLP153 T01200000 IEM_DS3505
ZBAA,1998-03-16 12:00,ZBAA 161200Z AUTO 20004KT 6SM 12/02 A3000 RMK SLP165 T01180023 52020 IEM_DS3505
ZBAA,1998-03-16 13:00,ZBAA 161300Z AUTO 17004KT 4SM 10/01 A3000 RMK SLP163 T01000010 IEM_DS3505
ZBAA,1998-03-16 14:00,ZBAA 161400Z AUTO 14004KT 3SM 08/02 A3003 RMK SLP174 T00800020 IEM_DS3505
ZBAA,1998-03-16 15:00,ZBAA 161500Z AUTO 16004KT 5SM 08/00 A3003 RMK SLP181 T00770003 52016 IEM_DS3505
ZBAA,1998-03-16 16:00,ZBAA 161600Z AUTO 10002KT 3SM 06/01 A3003 RMK SLP174 T00600010 IEM_DS3505
ZBAA,1998-03-16 17:00,ZBAA 161700Z AUTO 10002KT 3SM 06/02 A3003 RMK SLP174 T00600020 IEM_DS3505
ZBAA,1998-03-16 18:00,ZBAA 161800Z AUTO 16002KT 5SM 07/01 A3006 RMK SLP183 T00660010 52002 IEM_DS3505
ZBAA,1998-03-16 19:00,ZBAA 161900Z AUTO 11004KT 3SM 06/02 A3006 RMK SLP185 T00600020 IEM_DS3505
ZBAA,1998-03-16 20:00,ZBAA 162000Z AUTO 06002KT 2SM 05/03 A3006 RMK SLP185 T00500030 IEM_DS3505
ZBAA,1998-03-16 21:00,ZBAA 162100Z AUTO 04006KT 4SM 05/02 A3006 RMK SLP184 T00510024 52001 IEM_DS3505
ZBAA,1998-03-16 22:00,ZBAA 162200Z AUTO 33002KT 2SM 04/02 A3006 RMK SLP185 T00400020 IEM_DS3505
ZBAA,1998-03-16 23:00,ZBAA 162300Z AUTO 00000KT 1SM 04/03 A3009 RMK SLP195 T00400030 IEM_DS3505
ZBAA,1998-03-17 00:00,ZBAA 170000Z AUTO 04004KT 2SM 06/03 A3009 RMK SLP194 T00550028 52010 IEM_DS3505
ZBAA,1998-03-17 01:00,ZBAA 170100Z AUTO 06002KT 1 1/4SM 07/04 A3012 RMK SLP205 T00700040 IEM_DS3505
ZBAA,1998-03-17 02:00,ZBAA 170200Z AUTO 12004KT 1 1/2SM 09/05 A3012 RMK SLP205 T00900050 IEM_DS3505
ZBAA,1998-03-17 03:00,ZBAA 170300Z AUTO 07006KT 2SM 11/04 A3009 RMK SLP196 T01120040 52002 IEM_DS3505
ZBAA,1998-03-17 04:00,ZBAA 170400Z AUTO 11006KT 2SM 14/06 A3009 RMK SLP193 T01400060 IEM_DS3505
ZBAA,1998-03-17 05:00,ZBAA 170500Z AUTO 14006KT 2SM 15/07 A3003 RMK SLP172 T01500070 IEM_DS3505
ZBAA,1998-03-17 06:00,ZBAA 170600Z AUTO 18006KT 2 1/2SM 17/07 A3000 RMK SLP174 T01730071 57022 IEM_DS3505
ZBAA,1998-03-17 07:00,ZBAA 170700Z AUTO 15006KT 2 1/2SM 17/08 A3000 RMK SLP162 T01700080 IEM_DS3505
ZBAA,1998-03-17 08:00,ZBAA 170800Z AUTO 13008KT 1 1/2SM 16/08 A2997 RMK SLP152 T01600080 IEM_DS3505
ZBAA,1998-03-17 09:00,ZBAA 170900Z AUTO 09006KT 4SM 17/07 A2997 RMK SLP155 T01670073 57019 IEM_DS3505
ZBAA,1998-03-17 10:00,ZBAA 171000Z AUTO 12010KT 4SM 15/03 A2997 RMK SLP152 T01500030 IEM_DS3505
ZBAA,1998-03-17 11:00,ZBAA 171100Z AUTO 13008KT 4SM 14/04 A2997 RMK SLP153 T01400040 IEM_DS3505
ZBAA,1998-03-17 12:00,ZBAA 171200Z AUTO 11010KT 9SM 13/05 A3005 RMK SLP157 T01300048 52002 IEM_DS3505
ZBAA,1998-03-17 13:00,ZBAA 171300Z AUTO 12008KT 4SM 12/05 A2997 RMK SLP153 T01200050 IEM_DS3505
ZBAA,1998-03-17 14:00,ZBAA 171400Z AUTO 16002KT 4SM 11/05 A3000 RMK SLP163 T01100050 IEM_DS3505
ZBAA,1998-03-17 15:00,ZBAA 171500Z AUTO 04004KT 7SM 10/06 A2997 RMK SLP160 T01010065 52003 IEM_DS3505
ZBAA,1998-03-17 16:00,ZBAA 171600Z AUTO 19004KT 2SM 10/06 A2997 RMK SLP153 T01000060 IEM_DS3505
ZBAA,1998-03-17 17:00,ZBAA 171700Z AUTO 16004KT 2SM 10/06 A2997 RMK SLP153 T01000060 IEM_DS3505
ZBAA,1998-03-17 18:00,ZBAA 171800Z AUTO 09004KT 2 1/2SM 09/06 A2994 RMK SLP152 T00880062 57007 IEM_DS3505
ZBAA,1998-03-17 19:00,ZBAA 171900Z AUTO 15008KT 2SM 10/06 A2991 RMK T01000060 IEM_DS3505
ZBAA,1998-03-17 20:00,ZBAA 172000Z AUTO 12008KT 2SM 10/07 A2988 RMK SLP123 T01000070 IEM_DS3505
ZBAA,1998-03-17 21:00,ZBAA 172100Z AUTO 34004KT 9SM 10/06 A2991 RMK SLP137 T01000064 57015 IEM_DS3505
ZBAA,1998-03-17 22:00,ZBAA 172200Z AUTO 11004KT 2SM 10/07 A2991 RMK SLP133 T01000070 IEM_DS3505
ZBAA,1998-03-17 23:00,ZBAA 172300Z AUTO 12006KT 2SM 09/07 A2991 RMK SLP134 T00900070 IEM_DS3505
ZBAA,1998-03-18 00:00,ZBAA 180000Z AUTO 09008KT 2SM 09/06 A2988 RMK SLP133 T00910063 57005 IEM_DS3505
ZBAA,1998-03-18 01:00,ZBAA 180100Z AUTO 12012KT 3SM 09/06 A2988 RMK SLP123 T00900060 IEM_DS3505
ZBAA,1998-03-18 02:00,ZBAA 180200Z AUTO 11008KT 3SM 09/06 A2988 RMK SLP123 T00900060 IEM_DS3505
ZBAA,1998-03-18 03:00,ZBAA 180300Z AUTO 07004KT 2SM 09/06 A2988 RMK SLP125 T00940062 57008 IEM_DS3505
ZBAA,1998-03-18 04:00,ZBAA 180400Z AUTO 11008KT 1 1/2SM 08/07 A2985 RMK SLP114 T00800070 IEM_DS3505
ZBAA,1998-03-18 05:00,ZBAA 180500Z AUTO 10004KT 1SM 07/07 A2983 RMK SLP107 T00700070 IEM_DS3505
ZBAA,1998-03-18 06:00,ZBAA 180600Z AUTO 07006KT 2SM 08/07 A2993 RMK 60004 SLP114 T00750069 57011 IEM_DS3505
ZBAA,1998-03-18 09:00,ZBAA 180900Z AUTO 34010G35KT 5SM 07/01 A2994 RMK SLP141 T00720009 52027 IEM_DS3505
ZBAA,1998-03-18 10:00,ZBAA 181000Z AUTO 32019G31KT 7SM 04/01 A2994 RMK SLP145 T00400010 IEM_DS3505
ZBAA,1998-03-18 11:00,ZBAA 181100Z AUTO 32027KT 5SM 02/00 A2997 RMK SLP155 T00200000 IEM_DS3505
ZBAA,1998-03-18 12:00,ZBAA 181200Z AUTO 34019KT 4SM 02/M01 A3006 RMK 60012 SLP173 T00221006 52032 IEM_DS3505
ZBAA,1998-03-18 13:00,ZBAA 181300Z AUTO 32025G37KT 7SM 02/M02 A3009 RMK SLP196 T00201020 IEM_DS3505
ZBAA,1998-03-18 14:00,ZBAA 181400Z AUTO 34016G25KT 6SM 03/M07 A3006 RMK SLP185 T00301070 IEM_DS3505
ZBAA,1998-03-18 15:00,ZBAA 181500Z AUTO 34014G37KT 12SM 03/M09 A3006 RMK SLP184 T00281090 52011 IEM_DS3505
ZBAA,1998-03-18 16:00,ZBAA 181600Z AUTO 33025G39KT 7SM 02/M10 A3009 RMK SLP196 T00201100 IEM_DS3505
ZBAA,1998-03-18 17:00,ZBAA 181700Z AUTO 33023G39KT 7SM 02/M12 A3012 RMK SLP207 T00201120 IEM_DS3505
ZBAA,1998-03-18 18:00,ZBAA 181800Z AUTO 34016KT 12SM 01/M15 A3018 RMK 60001 SLP214 T00121153 40102//// 52029 IEM_DS3505
ZBAA,1998-03-18 19:00,ZBAA 181900Z AUTO 32027KT 6SM 01/M15 A3015 RMK SLP217 T00101150 IEM_DS3505
ZBAA,1998-03-18 20:00,ZBAA 182000Z AUTO 32023KT 6SM 00/M15 A3018 RMK SLP227 T00001150 IEM_DS3505
ZBAA,1998-03-18 21:00,ZBAA 182100Z AUTO 34019G39KT 12SM 00/M19 A3021 RMK 70016 SLP235 T00001190 52021 IEM_DS3505
ZBAA,1998-03-18 22:00,ZBAA 182200Z AUTO 33019G29KT 6SM 00/M17 A3024 RMK SLP247 T00001170 IEM_DS3505
ZBAA,1998-03-18 23:00,ZBAA 182300Z AUTO 33031G45KT 6SM M02/M20 A3027 RMK SLP258 T10201200 IEM_DS3505
ZBAA,1998-03-19 00:00,ZBAA 190000Z AUTO 32014KT 10SM M02/M24 A3033 RMK 70016 SLP270 T10171241 52034 IEM_DS3505
ZBAA,1998-03-19 01:00,ZBAA 190100Z AUTO 33021G33KT 6SM M02/M23 A3033 RMK SLP278 T10201230 IEM_DS3505
ZBAA,1998-03-19 02:00,ZBAA 190200Z AUTO 34019G33KT 6SM M01/M21 A3030 RMK SLP268 T10101210 IEM_DS3505
ZBAA,1998-03-19 03:00,ZBAA 190300Z AUTO 32019KT 12SM M01/M21 A3027 RMK SLP257 T10091210 57012 IEM_DS3505
ZBAA,1998-03-19 04:00,ZBAA 190400Z AUTO 34021G41KT 6SM 00/M20 A3024 RMK SLP247 T00001200 IEM_DS3505
ZBAA,1998-03-19 06:00,ZBAA 190600Z AUTO 32016G25KT 17SM 02/M19 A3024 RMK SLP253 T00161188 57004 IEM_DS3505
ZBAA,1998-03-19 07:00,ZBAA 190700Z AUTO 35016KT 6SM 01/M17 A3024 RMK SLP247 T00101170 IEM_DS3505
ZBAA,1998-03-19 08:00,ZBAA 190800Z AUTO 30016G33KT 6SM 01/M16 A3024 RMK SLP247 T00101160 IEM_DS3505
ZBAA,1998-03-19 09:00,ZBAA 190900Z AUTO 32017G35KT 16SM 01/M19 A3024 RMK SLP256 T00071188 52002 IEM_DS3505
ZBAA,1998-03-19 10:00,ZBAA 191000Z AUTO 29014G23KT 6SM 00/M16 A3027 RMK SLP257 T00001160 IEM_DS3505
ZBAA,1998-03-19 11:00,ZBAA 191100Z AUTO 33014G23KT 6SM 00/M17 A3030 RMK SLP268 T00001170 IEM_DS3505
ZBAA,1998-03-19 12:00,ZBAA 191200Z AUTO 32008KT 12SM M01/M20 A3033 RMK SLP279 T10091199 52023 IEM_DS3505
ZBAA,1998-03-19 14:00,ZBAA 191400Z AUTO 33010KT 7SM M02/M18 A3036 RMK SLP288 T10201180 IEM_DS3505
ZBAA,1998-03-19 15:00,ZBAA 191500Z AUTO 32008KT 12SM M02/M20 A3039 RMK SLP289 T10211195 52010 IEM_DS3505
ZBAA,1998-03-19 16:00,ZBAA 191600Z AUTO 30010KT 7SM M03/M18 A3036 RMK SLP288 T10301180 IEM_DS3505
ZBAA,1998-03-19 17:00,ZBAA 191700Z AUTO 30010KT 7SM M03/M18 A3033 RMK SLP278 T10301180 IEM_DS3505
ZBAA,1998-03-19 18:00,ZBAA 191800Z AUTO 34006KT 12SM M02/M19 A3033 RMK SLP272 T10241194 57017 IEM_DS3505
ZBAA,1998-03-19 19:00,ZBAA 191900Z AUTO 30012KT 7SM M03/M18 A3033 RMK SLP278 T10301180 IEM_DS3505
ZBAA,1998-03-19 20:00,ZBAA 192000Z AUTO 30012KT 7SM M03/M18 A3030 RMK SLP268 T10301180 IEM_DS3505
ZBAA,1998-03-19 21:00,ZBAA 192100Z AUTO 29008KT 12SM M02/M20 A3030 RMK SLP271 T10241204 57001 IEM_DS3505
ZBAA,1998-03-19 22:00,ZBAA 192200Z AUTO 29006KT 7SM M03/M16 A3033 RMK SLP278 T10301160 IEM_DS3505
ZBAA,1998-03-19 23:00,ZBAA 192300Z AUTO 31016KT 6SM M03/M17 A3033 RMK SLP278 T10301170 IEM_DS3505
ZBAA,1998-03-20 00:00,ZBAA 200000Z AUTO 32012KT 14SM M01/M20 A3036 RMK SLP282 T10141205 52011 IEM_DS3505
ZBAA,1998-03-20 01:00,ZBAA 200100Z AUTO 30012KT 6SM M01/M16 A3036 RMK SLP288 T10101160 IEM_DS3505
ZBAA,1998-03-20 02:00,ZBAA 200200Z AUTO 31016KT 6SM 00/M18 A3036 RMK SLP288 T00001180 IEM_DS3505
ZBAA,1998-03-20 03:00,ZBAA 200300Z AUTO 34010KT 16SM 02/M19 A3036 RMK SLP282 T00181192 54000 IEM_DS3505
ZBAA,1998-03-20 04:00,ZBAA 200400Z AUTO 31017KT 6SM 02/M18 A3036 RMK SLP287 T00201180 IEM_DS3505
ZBAA,1998-03-20 05:00,ZBAA 200500Z AUTO 32012KT 6SM 03/M16 A3030 RMK SLP267 T00301160 IEM_DS3505
ZBAA,1998-03-20 06:00,ZBAA 200600Z AUTO 29012G21KT 16SM 04/M22 A3030 RMK SLP264 T00371225 57018 IEM_DS3505
ZBAA,1998-03-20 07:00,ZBAA 200700Z AUTO 28012KT 6SM 03/M17 A3027 RMK SLP257 T00301170 IEM_DS3505
ZBAA,1998-03-20 08:00,ZBAA 200800Z AUTO 29016KT 6SM 04/M16 A3027 RMK SLP256 T00401160 IEM_DS3505
ZBAA,1998-03-20 09:00,ZBAA 200900Z AUTO 29008KT 16SM 04/M20 A3027 RMK SLP257 T00411197 57006 IEM_DS3505
ZBAA,1998-03-20 10:00,ZBAA 201000Z AUTO 28014KT 6SM 04/M13 A3027 RMK SLP256 T00401130 IEM_DS3505
ZBAA,1998-03-20 11:00,ZBAA 201100Z AUTO 29010KT 6SM 03/M13 A3030 RMK SLP267 T00301130 IEM_DS3505
ZBAA,1998-03-20 12:00,ZBAA 201200Z AUTO 29008KT 16SM 03/M15 A3033 RMK SLP272 T00311150 52014 IEM_DS3505
ZBAA,1998-03-20 13:00,ZBAA 201300Z AUTO 34006G16KT 6SM 02/M14 A3036 RMK SLP287 T00201140 IEM_DS3505
ZBAA,1998-03-20 14:00,ZBAA 201400Z AUTO 34010KT 6SM 02/M14 A3036 RMK SLP287 T00201140 IEM_DS3505
ZBAA,1998-03-20 15:00,ZBAA 201500Z AUTO 29008KT 16SM 02/M16 A3039 RMK SLP288 T00241163 52017 IEM_DS3505
ZBAA,1998-03-20 16:00,ZBAA 201600Z AUTO 35008KT 6SM 00/M14 A3039 RMK SLP299 T00001140 IEM_DS3505
ZBAA,1998-03-20 17:00,ZBAA 201700Z AUTO 28004KT 6SM 00/M15 A3039 RMK SLP299 T00001150 IEM_DS3505
ZBAA,1998-03-20 18:00,ZBAA 201800Z AUTO 27006KT 12SM 00/M14 A3039 RMK SLP289 T00021141 52001 IEM_DS3505
ZBAA,1998-03-20 19:00,ZBAA 201900Z AUTO 12002KT 6SM M03/M10 A3036 RMK SLP288 T10301100 IEM_DS3505
ZBAA,1998-03-20 20:00,ZBAA 202000Z AUTO 27002KT 6SM M03/M11 A3036 RMK SLP288 T10301110 IEM_DS3505
ZBAA,1998-03-20 21:00,ZBAA 202100Z AUTO 29004KT 12SM M01/M12 A3033 RMK SLP277 T10121123 57012 IEM_DS3505
ZBAA,1998-03-20 22:00,ZBAA 202200Z AUTO 29006KT 7SM M01/M14 A3033 RMK SLP278 T10101140 IEM_DS3505
ZBAA,1998-03-20 23:00,ZBAA 202300Z AUTO 36004KT 7SM M02/M11 A3036 RMK SLP288 T10201110 IEM_DS3505
ZBAA,1998-03-21 00:00,ZBAA 210000Z AUTO 11006KT 12SM 01/M10 A3039 RMK SLP288 T00061103 52011 IEM_DS3505
ZBAA,1998-03-21 01:00,ZBAA 210100Z AUTO 30012KT 7SM 02/M15 A3039 RMK SLP298 T00201150 IEM_DS3505
ZBAA,1998-03-21 02:00,ZBAA 210200Z AUTO 32016KT 7SM 03/M18 A3039 RMK SLP298 T00301180 IEM_DS3505
ZBAA,1998-03-21 03:00,ZBAA 210300Z AUTO 34012G29KT 12SM 04/ A3036 RMK SLP286 57002 IEM_DS3505
ZBAA,1998-03-21 04:00,ZBAA 210400Z AUTO 32016KT 7SM 05/M19 A3036 RMK SLP286 T00501190 IEM_DS3505
ZBAA,1998-03-21 05:00,ZBAA 210500Z AUTO 30008KT 6SM 05/M18 A3033 RMK SLP276 T00501180 IEM_DS3505
ZBAA,1998-03-21 06:00,ZBAA 210600Z AUTO 32012G25KT 12SM 06/M23 A3030 RMK SLP265 T00601228 57021 IEM_DS3505
ZBAA,1998-03-21 07:00,ZBAA 210700Z AUTO 29012G23KT 6SM 06/M17 A3027 RMK SLP256 T00601170 IEM_DS3505
ZBAA,1998-03-21 08:00,ZBAA 210800Z AUTO 27012G21KT 6SM 07/M15 A3027 RMK SLP256 T00701150 IEM_DS3505
ZBAA,1998-03-21 09:00,ZBAA 210900Z AUTO 34014G25KT 12SM 07/M20 A3027 RMK SLP257 T00691199 57008 IEM_DS3505
ZBAA,1998-03-21 10:00,ZBAA 211000Z AUTO 29012KT 6SM 06/M14 A3027 RMK SLP256 T00601140 IEM_DS3505
ZBAA,1998-03-21 11:00,ZBAA 211100Z AUTO 30006KT 7SM 05/M14 A3027 RMK SLP256 T00501140 IEM_DS3505
ZBAA,1998-03-21 12:00,ZBAA 211200Z AUTO 29008KT 19SM 06/M16 A3038 RMK SLP267 T00561157 52010 IEM_DS3505
ZBAA,1998-03-21 13:00,ZBAA 211300Z AUTO 30006KT 7SM 04/M12 A3033 RMK SLP277 T00401120 IEM_DS3505
ZBAA,1998-03-21 14:00,ZBAA 211400Z AUTO 33006KT 7SM 02/M13 A3033 RMK SLP277 T00201130 IEM_DS3505
ZBAA,1998-03-21 15:00,ZBAA 211500Z AUTO 00000KT 12SM 02/M07 A3036 RMK SLP282 T00161072 52015 IEM_DS3505
ZBAA,1998-03-21 16:00,ZBAA 211600Z AUTO 33006KT 7SM 01/M12 A3039 RMK SLP298 T00101120 IEM_DS3505
ZBAA,1998-03-21 17:00,ZBAA 211700Z AUTO 35006KT 7SM 02/M12 A3039 RMK SLP298 T00201120 IEM_DS3505
ZBAA,1998-03-21 18:00,ZBAA 211800Z AUTO 34004KT 12SM 01/M11 A3042 RMK SLP297 T00091109 52015 IEM_DS3505
ZBAA,1998-03-21 19:00,ZBAA 211900Z AUTO 29006KT 7SM 00/M12 A3039 RMK SLP299 T00001120 IEM_DS3505
ZBAA,1998-03-21 20:00,ZBAA 212000Z AUTO 30002KT 7SM M01/M11 A3042 RMK SLP309 T10101110 IEM_DS3505
ZBAA,1998-03-21 21:00,ZBAA 212100Z AUTO 25004KT 12SM M02/M08 A3042 RMK SLP301 T10201083 52004 IEM_DS3505
ZBAA,1998-03-21 22:00,ZBAA 212200Z AUTO 35002KT 7SM M02/M09 A3045 RMK SLP319 T10201090 IEM_DS3505
ZBAA,1998-03-21 23:00,ZBAA 212300Z AUTO 34004KT 7SM M02/M10 A3045 RMK SLP319 T10201100 IEM_DS3505
ZBAA,1998-03-22 00:00,ZBAA 220000Z AUTO 00000KT 7SM 01/M05 A3047 RMK SLP318 T00131051 52017 IEM_DS3505
ZBAA,1998-03-22 01:00,ZBAA 220100Z AUTO 03002KT 7SM 03/M10 A3047 RMK SLP325 T00301100 IEM_DS3505
ZBAA,1998-03-22 02:00,ZBAA 220200Z AUTO 35004KT 7SM 05/M10 A3047 RMK SLP325 T00501100 IEM_DS3505
ZBAA,1998-03-22 03:00,ZBAA 220300Z AUTO 20010KT 7SM 08/M13 A3045 RMK SLP318 T00761132 54000 IEM_DS3505
ZBAA,1998-03-22 04:00,ZBAA 220400Z AUTO 30012KT 6SM 09/M17 A3045 RMK SLP317 T00901170 IEM_DS3505
ZBAA,1998-03-22 05:00,ZBAA 220500Z AUTO 30014G23KT 6SM 09/M19 A3042 RMK SLP307 T00901190 IEM_DS3505
ZBAA,1998-03-22 06:00,ZBAA 220600Z AUTO 11004KT 8SM 10/M16 A3047 RMK SLP297 T00981160 57021 IEM_DS3505
ZBAA,1998-03-22 07:00,ZBAA 220700Z AUTO 31014G25KT 6SM 11/M18 A3036 RMK SLP285 T01101180 IEM_DS3505
ZBAA,1998-03-22 08:00,ZBAA 220800Z AUTO 30010G19KT 6SM 11/M18 A3036 RMK SLP285 T01101180 IEM_DS3505
ZBAA,1998-03-22 09:00,ZBAA 220900Z AUTO 00000KT 9SM 10/M11 A3036 RMK SLP286 T01031113 57011 IEM_DS3505
ZBAA,1998-03-22 10:00,ZBAA 221000Z AUTO 29008KT 6SM 10/M14 A3036 RMK SLP285 T01001140 IEM_DS3505
ZBAA,1998-03-22 11:00,ZBAA 221100Z AUTO 27008KT 6SM 09/M15 A3039 RMK SLP297 T00901150 IEM_DS3505
ZBAA,1998-03-22 12:00,ZBAA 221200Z AUTO 36004KT 7SM 08/M09 A3039 RMK SLP298 T00761093 52012 IEM_DS3505
ZBAA,1998-03-22 13:00,ZBAA 221300Z AUTO 29006G16KT 6SM 07/M14 A3042 RMK SLP307 T00701140 IEM_DS3505
ZBAA,1998-03-22 14:00,ZBAA 221400Z AUTO 29006KT 6SM 06/M12 A3045 RMK SLP317 T00601120 IEM_DS3505
ZBAA,1998-03-22 15:00,ZBAA 221500Z AUTO 20004KT 7SM 05/M06 A3045 RMK SLP313 T00491056 52015 IEM_DS3505
ZBAA,1998-03-22 16:00,ZBAA 221600Z AUTO 35006KT 7SM 04/M12 A3045 RMK SLP318 T00401120 IEM_DS3505
ZBAA,1998-03-22 17:00,ZBAA 221700Z AUTO 17002KT 7SM 02/M10 A3045 RMK SLP318 T00201100 IEM_DS3505
ZBAA,1998-03-22 18:00,ZBAA 221800Z AUTO 00000KT 4SM 02/M04 A3045 RMK SLP310 T00241037 57003 IEM_DS3505
ZBAA,1998-03-22 19:00,ZBAA 221900Z AUTO 01004KT 7SM 00/M06 A3045 RMK SLP319 T00001060 IEM_DS3505
ZBAA,1998-03-22 20:00,ZBAA 222000Z AUTO 34004KT 7SM 02/M10 A3042 RMK SLP308 T00201100 IEM_DS3505
ZBAA,1998-03-22 21:00,ZBAA 222100Z AUTO 00000KT 4SM 01/M05 A3045 RMK SLP308 T00061053 57002 IEM_DS3505
ZBAA,1998-03-22 22:00,ZBAA 222200Z AUTO 35004KT 7SM M01/M08 A3045 RMK SLP319 T10101080 IEM_DS3505
ZBAA,1998-03-22 23:00,ZBAA 222300Z AUTO 34004KT 6SM 00/M08 A3045 RMK SLP319 T00001080 IEM_DS3505
ZBAA,1998-03-23 00:00,ZBAA 230000Z AUTO 00000KT 2SM 03/M05 A3045 RMK SLP319 T00281047 52011 IEM_DS3505
ZBAA,1998-03-23 01:00,ZBAA 230100Z AUTO 01002KT 6SM 05/M09 A3047 RMK SLP325 T00501090 IEM_DS3505
ZBAA,1998-03-23 02:00,ZBAA 230200Z AUTO 32004KT 7SM 08/M11 A3045 RMK SLP317 T00801110 IEM_DS3505
ZBAA,1998-03-23 03:00,ZBAA 230300Z AUTO 00000KT 7SM 10/M16 A3042 RMK SLP304 T01051162 57015 IEM_DS3505
ZBAA,1998-03-23 04:00,ZBAA 230400Z AUTO 31008G19KT 6SM 11/M17 A3039 RMK SLP296 T01101170 IEM_DS3505
ZBAA,1998-03-23 05:00,ZBAA 230500Z AUTO 28008KT 6SM 12/M16 A3036 RMK SLP285 T01201160 IEM_DS3505
ZBAA,1998-03-23 06:00,ZBAA 230600Z AUTO 27010KT 7SM 13/M16 A3030 RMK SLP269 T01321159 57035 IEM_DS3505
ZBAA,1998-03-23 07:00,ZBAA 230700Z AUTO 30012KT 7SM 13/M19 A3027 RMK SLP254 T01301190 IEM_DS3505
ZBAA,1998-03-23 08:00,ZBAA 230800Z AUTO 21006KT 7SM 14/M16 A3024 RMK SLP244 T01401160 IEM_DS3505
ZBAA,1998-03-23 09:00,ZBAA 230900Z AUTO 22008KT 12SM 13/M13 A3021 RMK SLP246 T01281130 57023 IEM_DS3505
ZBAA,1998-03-23 10:00,ZBAA 231000Z AUTO 22008KT 6SM 12/M13 A3021 RMK SLP234 T01201130 IEM_DS3505
ZBAA,1998-03-23 11:00,ZBAA 231100Z AUTO 21008KT 6SM 11/M12 A3021 RMK SLP235 T01101120 IEM_DS3505
ZBAA,1998-03-23 12:00,ZBAA 231200Z AUTO 20004KT 12SM 09/M05 A3024 RMK SLP248 T00881049 52002 IEM_DS3505
ZBAA,1998-03-23 13:00,ZBAA 231300Z AUTO 21008KT 7SM 10/M07 A3024 RMK SLP245 T01001070 IEM_DS3505
ZBAA,1998-03-23 14:00,ZBAA 231400Z AUTO 21006KT 7SM 09/M07 A3024 RMK SLP245 T00901070 IEM_DS3505
ZBAA,1998-03-23 15:00,ZBAA 231500Z AUTO 22006KT 7SM 06/M04 A3025 RMK SLP249 T00641044 52002 IEM_DS3505
ZBAA,1998-03-23 16:00,ZBAA 231600Z AUTO 02002KT 7SM 05/M04 A3024 RMK SLP246 T00501040 IEM_DS3505
ZBAA,1998-03-23 17:00,ZBAA 231700Z AUTO 00000KT 7SM 04/M04 A3024 RMK SLP246 T00401040 IEM_DS3505
ZBAA,1998-03-23 18:00,ZBAA 231800Z AUTO 22008KT 6SM 05/M05 A3024 RMK SLP246 T00541052 57003 IEM_DS3505
ZBAA,1998-03-23 19:00,ZBAA 231900Z AUTO 00000KT 4SM 02/M03 A3024 RMK SLP247 T00201030 IEM_DS3505
ZBAA,1998-03-23 20:00,ZBAA 232000Z AUTO 00000KT 4SM 02/M03 A3024 RMK SLP247 T00201030 IEM_DS3505
ZBAA,1998-03-23 21:00,ZBAA 232100Z AUTO 22006KT 6SM 03/M00 A3024 RMK SLP245 T00331005 57001 IEM_DS3505
ZBAA,1998-03-23 22:00,ZBAA 232200Z AUTO 34002KT 4SM 01/M04 A3024 RMK SLP247 T00101040 IEM_DS3505
ZBAA,1998-03-23 23:00,ZBAA 232300Z AUTO 01002KT 4SM 01/M04 A3024 RMK SLP247 T00101040 IEM_DS3505
ZBAA,1998-03-24 00:00,ZBAA 240000Z AUTO 20004KT 2SM 03/00 A3024 RMK SLP249 T00340002 52003 IEM_DS3505
ZBAA,1998-03-24 01:00,ZBAA 240100Z AUTO 01002KT 3SM 05/M02 A3024 RMK SLP246 T00501020 IEM_DS3505
ZBAA,1998-03-24 02:00,ZBAA 240200Z AUTO ////02KT 2 1/2SM 07/M03 A3024 RMK SLP246 T00701030 IEM_DS3505
ZBAA,1998-03-24 03:00,ZBAA 240300Z AUTO 22004KT 3SM 09/00 A3024 RMK SLP244 T00930000 57004 IEM_DS3505
ZBAA,1998-03-24 04:00,ZBAA 240400Z AUTO 24004KT 3SM 12/M07 A3018 RMK SLP224 T01201070 IEM_DS3505
ZBAA,1998-03-24 05:00,ZBAA 240500Z AUTO 18004KT 2 1/2SM 13/M06 A3015 RMK SLP214 T01301060 IEM_DS3505
ZBAA,1998-03-24 06:00,ZBAA 240600Z AUTO 20010KT 3SM 15/M02 A3012 RMK SLP209 T01461017 57035 IEM_DS3505
ZBAA,1998-03-24 07:00,ZBAA 240700Z AUTO 17008KT 4SM 15/M01 A3009 RMK T01501010 IEM_DS3505
ZBAA,1998-03-24 08:00,ZBAA 240800Z AUTO 19008KT 4SM 16/M03 A3003 RMK SLP172 T01601030 IEM_DS3505
ZBAA,1998-03-24 09:00,ZBAA 240900Z AUTO 18010KT 4SM 15/M03 A3000 RMK SLP174 T01521034 57035 IEM_DS3505
ZBAA,1998-03-24 10:00,ZBAA 241000Z AUTO 18006KT 3SM 14/M02 A3003 RMK SLP173 T01401020 IEM_DS3505
ZBAA,1998-03-24 11:00,ZBAA 241100Z AUTO 19012KT 2 1/2SM 13/M01 A3006 RMK SLP183 T01301010 IEM_DS3505
ZBAA,1998-03-24 12:00,ZBAA 241200Z AUTO 20008KT 5SM 12/00 A3006 RMK SLP194 T01180001 52020 IEM_DS3505
ZBAA,1998-03-24 13:00,ZBAA 241300Z AUTO 21008KT 2 1/2SM 12/02 A3009 RMK SLP193 T01200020 IEM_DS3505
ZBAA,1998-03-24 14:00,ZBAA 241400Z AUTO 21008KT 2 1/2SM 11/02 A3009 RMK SLP193 T01100020 IEM_DS3505
ZBAA,1998-03-24 15:00,ZBAA 241500Z AUTO 20012KT 6SM 09/01 A3009 RMK SLP200 T00900008 52006 IEM_DS3505
ZBAA,1998-03-24 16:00,ZBAA 241600Z AUTO 17006KT 3SM 08/02 A3009 RMK SLP194 T00800020 IEM_DS3505
ZBAA,1998-03-24 17:00,ZBAA 241700Z AUTO 12002KT 3SM 07/02 A3012 RMK SLP205 T00700020 IEM_DS3505
ZBAA,1998-03-24 18:00,ZBAA 241800Z AUTO 25004KT 6SM 06/01 A3012 RMK SLP207 T00620014 52007 IEM_DS3505
ZBAA,1998-03-24 19:00,ZBAA 241900Z AUTO 11002KT 2 1/2SM 05/02 A3012 RMK SLP206 T00500020 IEM_DS3505
ZBAA,1998-03-24 20:00,ZBAA 242000Z AUTO 12002KT 2SM 04/02 A3012 RMK SLP206 T00400020 IEM_DS3505
ZBAA,1998-03-24 21:00,ZBAA 242100Z AUTO 00000KT 5SM 04/01 A3012 RMK SLP208 T00390013 52001 IEM_DS3505
ZBAA,1998-03-24 22:00,ZBAA 242200Z AUTO 06002KT 2SM 03/02 A3012 RMK SLP206 T00300020 IEM_DS3505
ZBAA,1998-03-24 23:00,ZBAA 242300Z AUTO 00000KT 2SM 03/02 A3015 RMK SLP216 T00300020 IEM_DS3505
ZBAA,1998-03-25 00:00,ZBAA 250000Z AUTO 18004KT 2 1/2SM 05/02 A3015 RMK SLP224 T00460018 52016 IEM_DS3505
ZBAA,1998-03-25 01:00,ZBAA 250100Z AUTO 14004KT 2SM 06/03 A3018 RMK SLP226 T00600030 IEM_DS3505
ZBAA,1998-03-25 03:00,ZBAA 250300Z AUTO 18006KT 2 1/2SM 10/03 A3021 RMK SLP236 T01000030 52012 IEM_DS3505
ZBAA,1998-03-25 04:00,ZBAA 250400Z AUTO ////02KT 2 1/2SM 12/04 A3018 RMK SLP224 T01200040 IEM_DS3505
ZBAA,1998-03-25 05:00,ZBAA 250500Z AUTO 13004KT 2 1/2SM 13/05 A3015 RMK SLP214 T01300050 IEM_DS3505
ZBAA,1998-03-25 06:00,ZBAA 250600Z AUTO 14006KT 2SM 14/02 A3012 RMK SLP210 T01380024 57026 IEM_DS3505
ZBAA,1998-03-25 07:00,ZBAA 250700Z AUTO 18010KT 3SM 15/04 A3009 RMK T01500040 IEM_DS3505
ZBAA,1998-03-25 08:00,ZBAA 250800Z AUTO 17010KT 4SM 15/04 A3006 RMK SLP182 T01500040 IEM_DS3505
ZBAA,1998-03-25 09:00,ZBAA 250900Z AUTO 20010KT 3SM 14/03 A3006 RMK SLP196 T01360033 57014 IEM_DS3505
ZBAA,1998-03-25 10:00,ZBAA 251000Z AUTO 18012G23KT 2 1/2SM 13/04 A3009 RMK SLP193 T01300040 IEM_DS3505
ZBAA,1998-03-25 11:00,ZBAA 251100Z AUTO 18006KT 2SM 12/04 A3009 RMK SLP193 T01200040 IEM_DS3505
ZBAA,1998-03-25 12:00,ZBAA 251200Z AUTO 18006KT 2 1/2SM 11/04 A3012 RMK SLP207 T01100040 52011 IEM_DS3505
ZBAA,1998-03-25 13:00,ZBAA 251300Z AUTO 13004KT 2SM 09/05 A3012 RMK SLP205 T00900050 IEM_DS3505
ZBAA,1998-03-25 14:00,ZBAA 251400Z AUTO 16004KT 2SM 08/05 A3015 RMK SLP215 T00800050 IEM_DS3505
ZBAA,1998-03-25 15:00,ZBAA 251500Z AUTO 20008KT 6SM 09/04 A3015 RMK SLP214 T00930040 52007 IEM_DS3505
ZBAA,1998-03-25 16:00,ZBAA 251600Z AUTO 14004KT 2 1/2SM 07/05 A3012 RMK SLP205 T00700050 IEM_DS3505
ZBAA,1998-03-25 17:00,ZBAA 251700Z AUTO 13004KT 2SM 07/05 A3012 RMK SLP205 T00700050 IEM_DS3505
ZBAA,1998-03-25 18:00,ZBAA 251800Z AUTO 18006KT 5SM 07/04 A3021 RMK SLP209 T00740041 57005 IEM_DS3505
ZBAA,1998-03-25 19:00,ZBAA 251900Z AUTO 15006KT 2SM 07/05 A3009 RMK T00700050 IEM_DS3505
ZBAA,1998-03-25 20:00,ZBAA 252000Z AUTO 15004KT 2SM 06/05 A3009 RMK SLP195 T00600050 IEM_DS3505
ZBAA,1998-03-25 21:00,ZBAA 252100Z AUTO 14004KT 4SM 04/04 A3009 RMK SLP194 T00400035 57015 IEM_DS3505
ZBAA,1998-03-25 22:00,ZBAA 252200Z AUTO 12004KT 2SM 06/05 A3006 RMK SLP185 T00600050 IEM_DS3505
ZBAA,1998-03-25 23:00,ZBAA 252300Z AUTO 14004KT 1 1/2SM 06/05 A3009 RMK SLP195 T00600050 IEM_DS3505
ZBAA,1998-03-26 00:00,ZBAA 260000Z AUTO 20006KT 2 1/2SM 06/04 A3009 RMK SLP199 T00600036 52005 IEM_DS3505
ZBAA,1998-03-26 01:00,ZBAA 260100Z AUTO 18006KT 2SM 07/05 A3012 RMK SLP205 T00700050 IEM_DS3505
ZBAA,1998-03-26 02:00,ZBAA 260200Z AUTO 18006KT 1 1/4SM 07/05 A3012 RMK SLP205 T00700050 IEM_DS3505
ZBAA,1998-03-26 03:00,ZBAA 260300Z AUTO 25006KT 2 1/2SM 08/04 A3009 RMK SLP200 T00850036 52001 IEM_DS3505
ZBAA,1998-03-26 04:00,ZBAA 260400Z AUTO 20004KT 1 1/4SM 09/05 A3009 RMK SLP194 T00900050 IEM_DS3505
ZBAA,1998-03-26 05:00,ZBAA 260500Z AUTO 20004KT 1 1/4SM 10/04 A3006 RMK SLP184 T01000040 IEM_DS3505
ZBAA,1998-03-26 06:00,ZBAA 260600Z AUTO 20010KT 2SM 11/03 A3000 RMK SLP172 T01110034 57028 IEM_DS3505
ZBAA,1998-03-26 07:00,ZBAA 260700Z AUTO 25004KT 1 1/4SM 11/05 A3000 RMK SLP163 T01100050 IEM_DS3505
ZBAA,1998-03-26 08:00,ZBAA 260800Z AUTO 19006KT 1 1/4SM 11/05 A2997 RMK SLP153 T01100050 IEM_DS3505
ZBAA,1998-03-26 09:00,ZBAA 260900Z AUTO 22006KT 3SM 12/04 A2997 RMK SLP159 T01210036 57013 IEM_DS3505
ZBAA,1998-03-26 10:00,ZBAA 261000Z AUTO 36006KT 1SM 10/06 A2997 RMK SLP153 T01000060 IEM_DS3505
ZBAA,1998-03-26 11:00,ZBAA 261100Z AUTO 36004KT 1SM 09/05 A3000 RMK SLP164 T00900050 IEM_DS3505
ZBAA,1998-03-26 12:00,ZBAA 261200Z AUTO 27002KT 2SM 10/05 A3000 RMK SLP167 T00950048 52008 IEM_DS3505
ZBAA,1998-03-26 13:00,ZBAA 261300Z AUTO 35002KT 1SM 08/05 A3003 RMK SLP174 T00800050 IEM_DS3505
ZBAA,1998-03-26 14:00,ZBAA 261400Z AUTO 35002KT 1SM 07/04 A3003 RMK SLP174 T00700040 IEM_DS3505
ZBAA,1998-03-26 15:00,ZBAA 261500Z AUTO 14004KT 2SM 07/04 A3003 RMK SLP177 T00660043 52010 IEM_DS3505
ZBAA,1998-03-26 16:00,ZBAA 261600Z AUTO 11002KT 1SM 07/06 A3003 RMK SLP174 T00700060 IEM_DS3505
ZBAA,1998-03-26 17:00,ZBAA 261700Z AUTO 18004KT 1 1/4SM 07/05 A3000 RMK SLP168 T00720047 57009 IEM_DS3505
ZBAA,1998-03-26 18:00,ZBAA 261800Z AUTO 18004KT 1 1/4SM 07/05 A3000 RMK SLP168 T00720047 57009 IEM_DS3505
ZBAA,1998-03-26 19:00,ZBAA 261900Z AUTO 14004KT 1SM 07/05 A2997 RMK SLP154 T00700050 IEM_DS3505
ZBAA,1998-03-26 20:00,ZBAA 262000Z AUTO 14002KT 1SM 07/05 A2997 RMK SLP154 T00700050 IEM_DS3505
ZBAA,1998-03-26 21:00,ZBAA 262100Z AUTO 14002KT 1 1/4SM 05/04 A2997 RMK SLP159 T00490037 57009 IEM_DS3505
ZBAA,1998-03-26 22:00,ZBAA 262200Z AUTO 14004KT 1 1/4SM 07/05 A2997 RMK SLP154 T00700050 IEM_DS3505
ZBAA,1998-03-26 23:00,ZBAA 262300Z AUTO 16002KT 1 1/4SM 07/05 A2997 RMK SLP154 T00700050 IEM_DS3505
ZBAA,1998-03-27 00:00,ZBAA 270000Z AUTO 00000KT 1 1/4SM 06/04 A2997 RMK SLP162 T00590040 52003 IEM_DS3505
ZBAA,1998-03-27 01:00,ZBAA 270100Z AUTO 08004KT 1 1/4SM 07/05 A2997 RMK SLP154 T00700050 IEM_DS3505
ZBAA,1998-03-27 02:00,ZBAA 270200Z AUTO 13004KT 1 1/4SM 08/06 A2997 RMK SLP154 T00800060 IEM_DS3505
ZBAA,1998-03-27 03:00,ZBAA 270300Z AUTO 11004KT 1SM 09/05 A2997 RMK SLP162 T00940054 54000 IEM_DS3505
ZBAA,1998-03-27 04:00,ZBAA 270400Z AUTO 12004KT 1 1/4SM 11/07 A2997 RMK SLP153 T01100070 IEM_DS3505
ZBAA,1998-03-27 05:00,ZBAA 270500Z AUTO 12004KT 1 1/4SM 12/07 A2994 RMK SLP143 T01200070 IEM_DS3505
ZBAA,1998-03-27 06:00,ZBAA 270600Z AUTO 14006KT 1SM 14/07 A2988 RMK SLP133 T01370069 57029 IEM_DS3505
ZBAA,1998-03-27 07:00,ZBAA 270700Z AUTO 12006KT 1 1/4SM 15/08 A2985 RMK T01500080 IEM_DS3505
ZBAA,1998-03-27 08:00,ZBAA 270800Z AUTO 15004KT 1 1/4SM 15/08 A2985 RMK SLP112 T01500080 IEM_DS3505
ZBAA,1998-03-27 09:00,ZBAA 270900Z AUTO 14008KT 1SM 15/07 A2985 RMK SLP118 T01510067 57015 IEM_DS3505
ZBAA,1998-03-27 10:00,ZBAA 271000Z AUTO 12004KT 1 1/4SM 14/08 A2985 RMK SLP112 T01400080 IEM_DS3505
ZBAA,1998-03-27 11:00,ZBAA 271100Z AUTO 07002KT 1 1/4SM 14/08 A2985 RMK SLP112 T01400080 IEM_DS3505
ZBAA,1998-03-27 12:00,ZBAA 271200Z AUTO 11004KT 1SM 12/08 A2988 RMK SLP129 T01210078 52011 IEM_DS3505
ZBAA,1998-03-27 13:00,ZBAA 271300Z AUTO 17002KT 1 1/4SM 12/08 A2991 RMK SLP133 T01200080 IEM_DS3505
ZBAA,1998-03-27 15:00,ZBAA 271500Z AUTO 11010KT 1SM 10/08 A2991 RMK SLP129 T01030076 54000 IEM_DS3505
ZBAA,1998-03-27 16:00,ZBAA 271600Z AUTO 34004KT 1SM 10/07 A2991 RMK SLP133 T01000070 IEM_DS3505
ZBAA,1998-03-27 17:00,ZBAA 271700Z AUTO 00000KT 1SM 10/08 A2991 RMK SLP133 T01000080 IEM_DS3505
ZBAA,1998-03-27 18:00,ZBAA 271800Z AUTO 02004KT 1SM 10/07 A2988 RMK SLP131 T00990074 52003 IEM_DS3505
ZBAA,1998-03-27 19:00,ZBAA 271900Z AUTO 32004KT 1SM 09/07 A2988 RMK SLP123 T00900070 IEM_DS3505
ZBAA,1998-03-27 20:00,ZBAA 272000Z AUTO 33004KT 1SM 09/07 A2988 RMK SLP123 T00900070 IEM_DS3505
ZBAA,1998-03-27 21:00,ZBAA 272100Z AUTO 00000KT 1SM 09/07 A2988 RMK SLP129 T00870068 57002 IEM_DS3505
ZBAA,1998-03-27 22:00,ZBAA 272200Z AUTO 29004KT 1SM 08/07 A2988 RMK SLP124 T00800070 IEM_DS3505
ZBAA,1998-03-27 23:00,ZBAA 272300Z AUTO 34002KT 1SM 08/07 A2988 RMK SLP124 T00800070 IEM_DS3505
ZBAA,1998-03-28 00:00,ZBAA 280000Z AUTO 00000KT 1/2SM 09/07 A2991 RMK SLP143 T00890070 52013 IEM_DS3505
ZBAA,1998-03-28 01:00,ZBAA 280100Z AUTO 02002KT 1SM 11/08 A2991 RMK SLP133 T01100080 IEM_DS3505
ZBAA,1998-03-28 02:00,ZBAA 280200Z AUTO 35004KT 1SM 13/08 A2994 RMK SLP143 T01300080 IEM_DS3505
ZBAA,1998-03-28 03:00,ZBAA 280300Z AUTO 18008KT 1SM 16/08 A2991 RMK SLP143 T01550075 52001 IEM_DS3505
ZBAA,1998-03-28 04:00,ZBAA 280400Z AUTO 16006KT 1SM 17/08 A2991 RMK SLP132 T01700080 IEM_DS3505
ZBAA,1998-03-28 05:00,ZBAA 280500Z AUTO 15004KT 1SM 19/09 A2988 RMK SLP121 T01900090 IEM_DS3505
ZBAA,1998-03-28 06:00,ZBAA 280600Z AUTO 20004KT 1 1/4SM 20/07 A2985 RMK SLP118 T02030073 57025 IEM_DS3505
ZBAA,1998-03-28 07:00,ZBAA 280700Z AUTO 15004KT 1SM 20/10 A2983 RMK SLP104 T02000100 IEM_DS3505
ZBAA,1998-03-28 08:00,ZBAA 280800Z AUTO 09002KT 1SM 20/09 A2983 RMK SLP104 T02000090 IEM_DS3505
ZBAA,1998-03-28 09:00,ZBAA 280900Z AUTO 27002KT 1 1/2SM 22/06 A2983 RMK SLP109 T02200061 57009 IEM_DS3505
ZBAA,1998-03-28 10:00,ZBAA 281000Z AUTO 02004KT 1SM 19/10 A2985 RMK SLP111 T01900100 IEM_DS3505
ZBAA,1998-03-28 11:00,ZBAA 281100Z AUTO 36006KT 1SM 17/10 A2985 RMK SLP112 T01700100 IEM_DS3505
ZBAA,1998-03-28 12:00,ZBAA 281200Z AUTO 02004KT 2SM 18/09 A2988 RMK SLP130 T01790094 52021 IEM_DS3505
ZBAA,1998-03-28 13:00,ZBAA 281300Z AUTO ////02KT 1SM 16/09 A2991 RMK SLP132 T01600090 IEM_DS3505
ZBAA,1998-03-28 14:00,ZBAA 281400Z AUTO 33002KT 1SM 15/09 A2991 RMK SLP132 T01500090 IEM_DS3505
ZBAA,1998-03-28 15:00,ZBAA 281500Z AUTO 02004KT 1 1/2SM 14/09 A2994 RMK SLP147 T01370092 52017 IEM_DS3505
ZBAA,1998-03-28 16:00,ZBAA 281600Z AUTO 35004KT 1SM 12/09 A2997 RMK SLP153 T01200090 IEM_DS3505
ZBAA,1998-03-28 17:00,ZBAA 281700Z AUTO 32004KT 1SM 11/08 A2997 RMK SLP153 T01100080 IEM_DS3505
ZBAA,1998-03-28 18:00,ZBAA 281800Z AUTO 36004KT 2SM 14/08 A3000 RMK SLP163 T01400080 52016 IEM_DS3505
ZBAA,1998-03-28 19:00,ZBAA 281900Z AUTO 35008KT 1SM 11/07 A3000 RMK SLP163 T01100070 IEM_DS3505
ZBAA,1998-03-28 20:00,ZBAA 282000Z AUTO 35008KT 1SM 11/06 A3003 RMK SLP173 T01100060 IEM_DS3505
ZBAA,1998-03-28 21:00,ZBAA 282100Z AUTO 04004KT 4SM 15/03 A3006 RMK SLP183 T01490026 52020 IEM_DS3505
ZBAA,1998-03-28 22:00,ZBAA 282200Z AUTO 02010KT 4SM 14/M04 A3009 RMK SLP193 T01401040 IEM_DS3505
ZBAA,1998-03-28 23:00,ZBAA 282300Z AUTO 01012KT 5SM 14/M07 A3015 RMK SLP214 T01401070 IEM_DS3505
ZBAA,1998-03-29 00:00,ZBAA 290000Z AUTO 02008KT 6SM 14/M05 A3018 RMK SLP222 T01401046 52039 IEM_DS3505
ZBAA,1998-03-29 01:00,ZBAA 290100Z AUTO 03012G21KT 6SM 15/M08 A3021 RMK SLP234 T01501080 IEM_DS3505
ZBAA,1998-03-29 02:00,ZBAA 290200Z AUTO 04010G19KT 6SM 16/M07 A3024 RMK SLP244 T01601070 IEM_DS3505
ZBAA,1998-03-29 03:00,ZBAA 290300Z AUTO 04012G21KT 6SM 18/M17 A3024 RMK SLP243 T01771169 52021 IEM_DS3505
ZBAA,1998-03-29 04:00,ZBAA 290400Z AUTO 04010KT 6SM 18/M11 A3024 RMK SLP243 T01801110 IEM_DS3505
ZBAA,1998-03-29 05:00,ZBAA 290500Z AUTO 05008KT 6SM 19/M12 A3024 RMK SLP243 T01901120 IEM_DS3505
ZBAA,1998-03-29 06:00,ZBAA 290600Z AUTO 34008KT 7SM 20/M13 A3021 RMK SLP235 T01971134 57008 IEM_DS3505
ZBAA,1998-03-29 07:00,ZBAA 290700Z AUTO 05004KT 6SM 19/M11 A3021 RMK SLP233 T01901110 IEM_DS3505
ZBAA,1998-03-29 08:00,ZBAA 290800Z AUTO 03002KT 6SM 19/M09 A3018 RMK SLP223 T01901090 IEM_DS3505
ZBAA,1998-03-29 09:00,ZBAA 290900Z AUTO 14010KT 9SM 18/M02 A3018 RMK SLP228 T01811017 57007 IEM_DS3505
ZBAA,1998-03-29 10:00,ZBAA 291000Z AUTO 17012KT 6SM 16/03 A3018 RMK SLP224 T01600030 IEM_DS3505
ZBAA,1998-03-29 11:00,ZBAA 291100Z AUTO 16010KT 6SM 14/01 A3021 RMK SLP234 T01400010 IEM_DS3505
ZBAA,1998-03-29 12:00,ZBAA 291200Z AUTO 16008KT 9SM 13/M04 A3024 RMK SLP246 T01261035 52017 IEM_DS3505
ZBAA,1998-03-29 13:00,ZBAA 291300Z AUTO 19006KT 6SM 12/01 A3027 RMK SLP255 T01200010 IEM_DS3505
ZBAA,1998-03-29 14:00,ZBAA 291400Z AUTO 19004KT 6SM 11/01 A3030 RMK SLP265 T01100010 IEM_DS3505
ZBAA,1998-03-29 15:00,ZBAA 291500Z AUTO 29002KT 7SM 11/M02 A3030 RMK SLP263 T01141021 52017 IEM_DS3505
ZBAA,1998-03-29 16:00,ZBAA 291600Z AUTO 00000KT 6SM 11/01 A3030 RMK SLP265 T01100010 IEM_DS3505
ZBAA,1998-03-29 17:00,ZBAA 291700Z AUTO 28002KT 6SM 11/M04 A3030 RMK SLP265 T01101040 IEM_DS3505
ZBAA,1998-03-29 18:00,ZBAA 291800Z AUTO 34004KT 9SM 11/M03 A3030 RMK SLP260 T01141028 57002 IEM_DS3505
ZBAA,1998-03-29 19:00,ZBAA 291900Z AUTO 29006KT 6SM 11/M03 A3030 RMK SLP265 T01101030 IEM_DS3505
ZBAA,1998-03-29 20:00,ZBAA 292000Z AUTO 31008KT 6SM 11/M01 A3030 RMK SLP265 T01101010 IEM_DS3505
ZBAA,1998-03-29 21:00,ZBAA 292100Z AUTO 07006KT 7SM 11/M02 A3027 RMK SLP252 T01081016 57009 IEM_DS3505
ZBAA,1998-03-29 22:00,ZBAA 292200Z AUTO 02002KT 6SM 10/01 A3027 RMK SLP255 T01000010 IEM_DS3505
ZBAA,1998-03-29 23:00,ZBAA 292300Z AUTO 07002KT 6SM 10/03 A3030 RMK SLP265 T01000030 IEM_DS3505
ZBAA,1998-03-30 00:00,ZBAA 300000Z AUTO 07006KT 7SM 10/02 A3030 RMK SLP268 T01000018 52016 IEM_DS3505
ZBAA,1998-03-30 01:00,ZBAA 300100Z AUTO 14002KT 6SM 12/02 A3033 RMK SLP275 T01200020 IEM_DS3505
ZBAA,1998-03-30 02:00,ZBAA 300200Z AUTO 14008KT 6SM 13/M03 A3036 RMK SLP285 T01301030 IEM_DS3505
ZBAA,1998-03-30 06:00,ZBAA 300600Z AUTO 18010KT 7SM 15/M08 A3033 RMK SLP250 T01531077 57024 IEM_DS3505
ZBAA,1998-03-30 09:00,ZBAA 300900Z AUTO 14012KT 7SM 14/M04 A3020 RMK SLP232 T01411035 57018 IEM_DS3505
ZBAA,1998-03-30 12:00,ZBAA 301200Z AUTO 18008KT 7SM 11/M04 RMK SLP273 T01061035 52041 IEM_DS3505
ZBAA,1998-03-30 14:00,ZBAA 301400Z AUTO 18008KT 6SM 10/M02 A3039 RMK SLP296 T01001020 IEM_DS3505
ZBAA,1998-03-30 15:00,ZBAA 301500Z AUTO 18002KT 7SM 08/M00 A3039 RMK SLP288 T00781002 52015 IEM_DS3505
ZBAA,1998-03-30 16:00,ZBAA 301600Z AUTO 14004KT 6SM 07/M01 A3039 RMK SLP297 T00701010 IEM_DS3505
ZBAA,1998-03-30 17:00,ZBAA 301700Z AUTO 17006KT 6SM 07/M01 A3039 RMK SLP297 T00701010 IEM_DS3505
ZBAA,1998-03-30 18:00,ZBAA 301800Z AUTO 00000KT 7SM 06/M01 A3039 RMK SLP291 T00561009 52003 IEM_DS3505
ZBAA,1998-03-30 21:00,ZBAA 302100Z AUTO 00000KT 6SM 07/M01 A3039 RMK SLP289 T00701010 57002 IEM_DS3505
ZBAA,1998-03-30 22:00,ZBAA 302200Z AUTO 00000KT 6SM 06/M03 A3039 RMK SLP297 T00601030 IEM_DS3505
ZBAA,1998-03-30 23:00,ZBAA 302300Z AUTO 05002KT 6SM 06/M02 A3039 RMK SLP297 T00601020 IEM_DS3505
ZBAA,1998-03-31 00:00,ZBAA 310000Z AUTO 04004KT 6SM 08/M04 A3039 RMK SLP289 T00771044 54000 IEM_DS3505
ZBAA,1998-03-31 01:00,ZBAA 310100Z AUTO 02004KT 6SM 09/00 A3039 RMK SLP297 T00900000 IEM_DS3505
ZBAA,1998-03-31 02:00,ZBAA 310200Z AUTO 02002KT 6SM 10/01 A3036 RMK SLP285 T01000010 IEM_DS3505
ZBAA,1998-03-31 03:00,ZBAA 310300Z AUTO 11004KT 6SM 10/M02 A3039 RMK SLP288 T01001025 57001 IEM_DS3505
ZBAA,1998-03-31 04:00,ZBAA 310400Z AUTO 14006KT 6SM 10/M03 A3036 RMK SLP285 T01001030 IEM_DS3505
ZBAA,1998-03-31 05:00,ZBAA 310500Z AUTO 16006KT 6SM 10/M02 A3036 RMK SLP285 T01001020 IEM_DS3505
ZBAA,1998-03-31 06:00,ZBAA 310600Z AUTO 14010KT 6SM 10/M02 A3036 RMK SLP279 T00961024 57010 IEM_DS3505
ZBAA,1998-03-31 07:00,ZBAA 310700Z AUTO 17006KT 6SM 10/M04 A3036 RMK SLP285 T01001040 IEM_DS3505
ZBAA,1998-03-31 08:00,ZBAA 310800Z AUTO 07004KT 6SM 09/M03 A3036 RMK SLP285 T00901030 IEM_DS3505
ZBAA,1998-03-31 09:00,ZBAA 310900Z AUTO 20008KT 6SM 06/02 A3036 RMK SLP280 T00650018 52001 IEM_DS3505
ZBAA,1998-03-31 10:00,ZBAA 311000Z AUTO 22008KT 5SM 07/00 A3033 RMK SLP276 T00700000 IEM_DS3505
ZBAA,1998-03-31 11:00,ZBAA 311100Z AUTO 21008KT 5SM 07/01 A3033 RMK SLP276 T00700010 IEM_DS3505
ZBAA,1998-03-31 12:00,ZBAA 311200Z AUTO 22006KT 4SM 05/02 A3033 RMK SLP279 T00480017 57001 IEM_DS3505
ZBAA,1998-03-31 13:00,ZBAA 311300Z AUTO 29004KT 5SM 06/03 A3033 RMK SLP276 T00600030 IEM_DS3505
ZBAA,1998-03-31 14:00,ZBAA 311400Z AUTO 29006KT 5SM 06/03 A3033 RMK SLP276 T00600030 IEM_DS3505
ZBAA,1998-03-31 15:00,ZBAA 311500Z AUTO 25006KT 4SM 04/02 A3033 RMK SLP279 T00400020 54000 IEM_DS3505
ZBAA,1998-03-31 16:00,ZBAA 311600Z AUTO 23004KT 5SM 06/03 A3033 RMK SLP276 T00600030 IEM_DS3505
ZBAA,1998-03-31 17:00,ZBAA 311700Z AUTO 18004KT 4SM 05/03 A3033 RMK SLP276 T00500030 IEM_DS3505
ZBAA,1998-03-31 18:00,ZBAA 311800Z AUTO 22006KT 2 1/2SM 03/02 A3030 RMK SLP266 T00290019 57013 IEM_DS3505
ZBAA,1998-03-31 19:00,ZBAA 311900Z AUTO 20004KT 4SM 03/02 A3030 RMK SLP267 T00300020 IEM_DS3505
ZBAA,1998-03-31 20:00,ZBAA 312000Z AUTO 00000KT 2 1/2SM 03/02 A3030 RMK SLP267 T00300020 IEM_DS3505
ZBAA,1998-03-31 21:00,ZBAA 312100Z AUTO 27006KT 1SM 02/01 A3027 RMK SLP258 T00190014 57008 IEM_DS3505
ZBAA,1998-03-31 22:00,ZBAA 312200Z AUTO 29002KT 1 1/4SM 02/02 A3030 RMK SLP267 T00200020 IEM_DS3505
ZBAA,1998-03-31 23:00,ZBAA 312300Z AUTO 29004KT 1 1/4SM 03/03 A3030 RMK SLP267 T00300030 IEM_DS3505
ZBAA,1998-04-01 00:00,ZBAA 010000Z AUTO 27004KT 1SM 04/02 A3033 RMK SLP273 T00370024 52015 IEM_DS3505
ZBAA,1998-04-01 01:00,ZBAA 010100Z AUTO 36006KT 4SM 07/01 A3033 RMK SLP276 T00700010 IEM_DS3505
ZBAA,1998-04-01 02:00,ZBAA 010200Z AUTO 02006KT 6SM 09/M01 A3030 RMK SLP265 T00901010 IEM_DS3505
ZBAA,1998-04-01 03:00,ZBAA 010300Z AUTO 00000KT 5SM 10/M06 A3030 RMK SLP263 T01011061 57010 IEM_DS3505
ZBAA,1998-04-01 04:00,ZBAA 010400Z AUTO ////02KT 6SM 11/M10 A3027 RMK SLP255 T01101100 IEM_DS3505
ZBAA,1998-04-01 05:00,ZBAA 010500Z AUTO 19004KT 6SM 11/M12 A3024 RMK SLP245 T01101120 IEM_DS3505
ZBAA,1998-04-01 06:00,ZBAA 010600Z AUTO 25002KT 7SM 11/M08 A3024 RMK SLP246 T01091085 57017 IEM_DS3505
ZBAA,1998-04-01 07:00,ZBAA 010700Z AUTO 19006KT 6SM 12/M12 A3021 RMK SLP234 T01201120 IEM_DS3505
ZBAA,1998-04-01 08:00,ZBAA 010800Z AUTO 19006KT 6SM 12/M12 A3018 RMK SLP224 T01201120 IEM_DS3505
ZBAA,1998-04-01 09:00,ZBAA 010900Z AUTO 22008KT 7SM 11/M08 A3018 RMK SLP237 T01101082 57009 IEM_DS3505
ZBAA,1998-04-01 10:00,ZBAA 011000Z AUTO 21008KT 6SM 11/M08 A3021 RMK SLP235 T01101080 IEM_DS3505
ZBAA,1998-04-01 11:00,ZBAA 011100Z AUTO 20008KT 6SM 10/M08 A3021 RMK SLP235 T01001080 IEM_DS3505
ZBAA,1998-04-01 12:00,ZBAA 011200Z AUTO 22006KT 9SM 08/M06 A3024 RMK SLP247 T00751055 52010 IEM_DS3505
ZBAA,1998-04-01 13:00,ZBAA 011300Z AUTO 22006KT 6SM 09/M05 A3024 RMK SLP245 T00901050 IEM_DS3505
ZBAA,1998-04-01 14:00,ZBAA 011400Z AUTO 22006KT 6SM 08/M04 A3024 RMK SLP245 T00801040 IEM_DS3505
ZBAA,1998-04-01 15:00,ZBAA 011500Z AUTO 22006KT 7SM 05/M02 A3024 RMK SLP251 T00521021 52005 IEM_DS3505
ZBAA,1998-04-01 16:00,ZBAA 011600Z AUTO 17002KT 6SM 05/M02 A3024 RMK SLP246 T00501020 IEM_DS3505
ZBAA,1998-04-01 17:00,ZBAA 011700Z AUTO 00000KT 6SM 03/M02 A3024 RMK SLP247 T00301020 IEM_DS3505
ZBAA,1998-04-01 18:00,ZBAA 011800Z AUTO 20004KT 7SM 04/M01 A3024 RMK SLP250 T00351009 57002 IEM_DS3505
ZBAA,1998-04-01 19:00,ZBAA 011900Z AUTO 06002KT 7SM 02/M01 A3024 RMK SLP247 T00201010 IEM_DS3505
ZBAA,1998-04-01 20:00,ZBAA 012000Z AUTO 00000KT 7SM 02/M01 A3024 RMK SLP247 T00201010 IEM_DS3505
ZBAA,1998-04-01 21:00,ZBAA 012100Z AUTO 20004KT 7SM 00/M02 A3024 RMK SLP246 T00011017 57004 IEM_DS3505
ZBAA,1998-04-01 22:00,ZBAA 012200Z AUTO 08002KT 4SM 01/M01 A3024 RMK SLP247 T00101010 IEM_DS3505
ZBAA,1998-04-01 23:00,ZBAA 012300Z AUTO 10002KT 4SM 00/M02 A3024 RMK SLP247 T00001020 IEM_DS3505
ZBAA,1998-04-02 00:00,ZBAA 020000Z AUTO 25004KT 4SM 03/M01 A3027 RMK SLP254 T00311008 52008 IEM_DS3505
ZBAA,1998-04-02 01:00,ZBAA 020100Z AUTO 09002KT 3SM 06/01 A3027 RMK SLP256 T00600010 IEM_DS3505
ZBAA,1998-04-02 02:00,ZBAA 020200Z AUTO 11002KT 3SM 08/01 A3024 RMK SLP245 T00800010 IEM_DS3505
ZBAA,1998-04-02 03:00,ZBAA 020300Z AUTO 22010KT 6SM 11/M00 A3021 RMK SLP238 T01061005 57015 IEM_DS3505
ZBAA,1998-04-02 04:00,ZBAA 020400Z AUTO 20010G21KT 2 1/2SM 12/M01 A3018 RMK SLP224 T01201010 IEM_DS3505
ZBAA,1998-04-02 05:00,ZBAA 020500Z AUTO 21008KT 7SM 13/M01 A3015 RMK SLP214 T01301010 IEM_DS3505
ZBAA,1998-04-02 06:00,ZBAA 020600Z AUTO 20016KT 7SM 15/M03 A3009 RMK SLP205 T01481029 57033 IEM_DS3505
ZBAA,1998-04-02 07:00,ZBAA 020700Z AUTO 20012G25KT 7SM 15/M02 A3006 RMK T01501020 IEM_DS3505
ZBAA,1998-04-02 08:00,ZBAA 020800Z AUTO 19012KT 7SM 15/M01 A3003 RMK SLP172 T01501010 IEM_DS3505
ZBAA,1998-04-02 09:00,ZBAA 020900Z AUTO 22008KT 6SM 14/00 A3003 RMK SLP180 T01450000 57025 IEM_DS3505
ZBAA,1998-04-02 10:00,ZBAA 021000Z AUTO 20012KT 6SM 14/01 A3003 RMK SLP173 T01400010 IEM_DS3505
ZBAA,1998-04-02 11:00,ZBAA 021100Z AUTO 19010KT 6SM 13/02 A3003 RMK SLP173 T01300020 IEM_DS3505
ZBAA,1998-04-02 12:00,ZBAA 021200Z AUTO 20008KT 9SM 12/03 A3003 RMK SLP179 T01200031 57001 IEM_DS3505
ZBAA,1998-04-02 13:00,ZBAA 021300Z AUTO 16006KT 6SM 10/04 A3006 RMK SLP184 T01000040 IEM_DS3505
ZBAA,1998-04-02 14:00,ZBAA 021400Z AUTO 14004KT 6SM 09/04 A3006 RMK SLP184 T00900040 IEM_DS3505
ZBAA,1998-04-02 15:00,ZBAA 021500Z AUTO 20008KT 12SM 10/04 A3003 RMK SLP180 T01020038 52001 IEM_DS3505
ZBAA,1998-04-02 16:00,ZBAA 021600Z AUTO 17006KT 4SM 08/04 A3003 RMK SLP174 T00800040 IEM_DS3505
ZBAA,1998-04-02 17:00,ZBAA 021700Z AUTO 15006KT 3SM 08/05 A3003 RMK SLP174 T00800050 IEM_DS3505
ZBAA,1998-04-02 18:00,ZBAA 021800Z AUTO 20008KT 6SM 09/04 A3000 RMK SLP176 T00900045 57004 IEM_DS3505
ZBAA,1998-04-02 19:00,ZBAA 021900Z AUTO 17004KT 3SM 07/05 A3000 RMK SLP164 T00700050 IEM_DS3505
ZBAA,1998-04-02 20:00,ZBAA 022000Z AUTO 17004KT 3SM 07/05 A3000 RMK SLP164 T00700050 IEM_DS3505
ZBAA,1998-04-02 21:00,ZBAA 022100Z AUTO 00000KT 6SM 07/05 A3000 RMK SLP171 T00660048 57005 IEM_DS3505
ZBAA,1998-04-02 22:00,ZBAA 022200Z AUTO 10004KT 2SM 06/04 A3003 RMK SLP174 T00600040 IEM_DS3505
ZBAA,1998-04-02 23:00,ZBAA 022300Z AUTO 13004KT 2SM 06/05 A3003 RMK SLP174 T00600050 IEM_DS3505
ZBAA,1998-04-03 00:00,ZBAA 030000Z AUTO 18004KT 2 1/2SM 07/05 A3006 RMK SLP181 T00680047 52010 IEM_DS3505
ZBAA,1998-04-03 01:00,ZBAA 030100Z AUTO 16004KT 2SM 08/06 A3006 RMK SLP184 T00800060 IEM_DS3505
ZBAA,1998-04-03 02:00,ZBAA 030200Z AUTO 17002KT 1 1/4SM 09/06 A3006 RMK SLP184 T00900060 IEM_DS3505
ZBAA,1998-04-03 03:00,ZBAA 030300Z AUTO 20004KT 2SM 10/06 A3006 RMK SLP185 T00950055 52004 IEM_DS3505
ZBAA,1998-04-03 04:00,ZBAA 030400Z AUTO 09004KT 1SM 10/07 A3003 RMK SLP174 T01000070 IEM_DS3505
ZBAA,1998-04-03 05:00,ZBAA 030500Z AUTO 13006KT 1SM 11/07 A3003 RMK SLP173 T01100070 IEM_DS3505
ZBAA,1998-04-03 06:00,ZBAA 030600Z AUTO 16006KT 2SM 14/07 A3000 RMK SLP165 T01380073 57020 IEM_DS3505
ZBAA,1998-04-03 07:00,ZBAA 030700Z AUTO 18004KT 1 1/4SM 13/07 A2997 RMK SLP153 T01300070 IEM_DS3505
ZBAA,1998-04-03 08:00,ZBAA 030800Z AUTO 02002KT 1 1/4SM 14/08 A2997 RMK SLP153 T01400080 IEM_DS3505
ZBAA,1998-04-03 09:00,ZBAA 030900Z AUTO 20008KT 2 1/2SM 17/08 A2994 RMK SLP152 T01660077 57013 IEM_DS3505
ZBAA,1998-04-03 10:00,ZBAA 031000Z AUTO 03004KT 1 1/4SM 14/09 A2997 RMK SLP153 T01400090 IEM_DS3505
ZBAA,1998-04-03 11:00,ZBAA 031100Z AUTO ////02KT 1 1/4SM 13/09 A2997 RMK SLP153 T01300090 IEM_DS3505
ZBAA,1998-04-03 12:00,ZBAA 031200Z AUTO 00000KT 2 1/2SM 13/08 A3000 RMK SLP163 T01280082 52011 IEM_DS3505
ZBAA,1998-04-03 13:00,ZBAA 031300Z AUTO 03004KT 1 1/4SM 12/08 A3000 RMK SLP163 T01200080 IEM_DS3505
ZBAA,1998-04-03 14:00,ZBAA 031400Z AUTO 06004KT 1SM 11/08 A3003 RMK SLP173 T01100080 IEM_DS3505
ZBAA,1998-04-03 15:00,ZBAA 031500Z AUTO 11004KT 2SM 10/08 A3003 RMK SLP174 T00970076 52011 IEM_DS3505
ZBAA,1998-04-03 16:00,ZBAA 031600Z AUTO 00000KT 1SM 10/07 A3003 RMK SLP174 T01000070 IEM_DS3505
ZBAA,1998-04-03 17:00,ZBAA 031700Z AUTO 00000KT 1SM 11/08 A3003 RMK SLP173 T01100080 IEM_DS3505
ZBAA,1998-04-03 18:00,ZBAA 031800Z AUTO 22004KT 2SM 11/08 A3011 RMK SLP176 T01110080 52003 IEM_DS3505
ZBAA,1998-04-03 19:00,ZBAA 031900Z AUTO ////02KT 1SM 10/08 A3003 RMK SLP174 T01000080 IEM_DS3505
ZBAA,1998-04-03 20:00,ZBAA 032000Z AUTO 00000KT 1SM 10/08 A3006 RMK SLP184 T01000080 IEM_DS3505
ZBAA,1998-04-03 21:00,ZBAA 032100Z AUTO 14006KT 1 1/4SM 10/08 A3003 RMK SLP179 T00990080 52003 IEM_DS3505
ZBAA,1998-04-03 22:00,ZBAA 032200Z AUTO 10002KT 1SM 09/08 A3006 RMK SLP184 T00900080 IEM_DS3505
ZBAA,1998-04-03 23:00,ZBAA 032300Z AUTO 00000KT 1SM 09/08 A3006 RMK SLP184 T00900080 IEM_DS3505
ZBAA,1998-04-04 00:00,ZBAA 040000Z AUTO 00000KT 1 1/4SM 11/08 A3009 RMK SLP199 T01080083 52019 IEM_DS3505
ZBAA,1998-04-04 01:00,ZBAA 040100Z AUTO ////02KT 2SM 12/09 A3009 RMK SLP193 T01200090 IEM_DS3505
ZBAA,1998-04-04 02:00,ZBAA 040200Z AUTO 20004KT 2SM 14/10 A3012 RMK SLP204 T01400100 IEM_DS3505
ZBAA,1998-04-04 03:00,ZBAA 040300Z AUTO 20004KT 2SM 15/09 A3012 RMK SLP202 T01530088 52003 IEM_DS3505
ZBAA,1998-04-04 04:00,ZBAA 040400Z AUTO ////02KT 1 1/2SM 16/10 A3009 RMK SLP192 T01600100 IEM_DS3505
ZBAA,1998-04-04 05:00,ZBAA 040500Z AUTO ////04KT 1 1/2SM 17/10 A3009 RMK SLP192 T01700100 IEM_DS3505
ZBAA,1998-04-04 06:00,ZBAA 040600Z AUTO 20004KT 2SM 18/09 A3006 RMK SLP188 T01780090 57013 IEM_DS3505
ZBAA,1998-04-04 07:00,ZBAA 040700Z AUTO 17004KT 2SM 18/10 A3003 RMK T01800100 IEM_DS3505
ZBAA,1998-04-04 08:00,ZBAA 040800Z AUTO 18006KT 2SM 18/10 A3003 RMK SLP172 T01800100 IEM_DS3505
ZBAA,1998-04-04 09:00,ZBAA 040900Z AUTO 20008KT 2 1/2SM 17/09 A3003 RMK SLP179 T01730093 57009 IEM_DS3505
ZBAA,1998-04-04 10:00,ZBAA 041000Z AUTO 18006KT 4SM 17/10 A3003 RMK SLP172 T01700100 IEM_DS3505
ZBAA,1998-04-04 11:00,ZBAA 041100Z AUTO 17004KT 4SM 15/10 A3006 RMK SLP182 T01500100 IEM_DS3505
ZBAA,1998-04-04 12:00,ZBAA 041200Z AUTO 20002KT 2SM 15/10 A3006 RMK SLP190 T01500098 52011 IEM_DS3505
ZBAA,1998-04-04 13:00,ZBAA 041300Z AUTO 15002KT 5SM 14/10 A3009 RMK SLP193 T01400100 IEM_DS3505
ZBAA,1998-04-04 14:00,ZBAA 041400Z AUTO 15002KT 5SM 13/10 A3009 RMK SLP193 T01300100 IEM_DS3505
ZBAA,1998-04-04 15:00,ZBAA 041500Z AUTO 14006KT 2 1/2SM 10/09 A3012 RMK SLP205 T00990087 52014 IEM_DS3505
ZBAA,1998-04-04 16:00,ZBAA 041600Z AUTO 17002KT 2 1/2SM 11/09 A3012 RMK SLP205 T01100090 IEM_DS3505
ZBAA,1998-04-04 17:00,ZBAA 041700Z AUTO 00000KT 2 1/2SM 11/09 A3012 RMK SLP205 T01100090 IEM_DS3505
ZBAA,1998-04-04 18:00,ZBAA 041800Z AUTO 00000KT 2SM 11/09 A3015 RMK SLP208 T01110093 52004 IEM_DS3505
ZBAA,1998-04-04 19:00,ZBAA 041900Z AUTO 00000KT 2SM 09/09 A3012 RMK SLP205 T00900090 IEM_DS3505
ZBAA,1998-04-04 20:00,ZBAA 042000Z AUTO 00000KT 1SM 09/09 A3012 RMK SLP205 T00900090 IEM_DS3505
ZBAA,1998-04-04 21:00,ZBAA 042100Z AUTO 04004KT 2 1/2SM 10/08 A3015 RMK SLP212 T00970085 52004 IEM_DS3505
ZBAA,1998-04-04 22:00,ZBAA 042200Z AUTO 03002KT 1SM 08/08 A3015 RMK SLP215 T00800080 IEM_DS3505
ZBAA,1998-04-04 23:00,ZBAA 042300Z AUTO 14002KT 1SM 08/07 A3018 RMK SLP225 T00800070 IEM_DS3505
ZBAA,1998-04-05 00:00,ZBAA 050000Z AUTO 04004KT 1 1/4SM 10/09 A3018 RMK SLP227 T01040086 52014 IEM_DS3505
ZBAA,1998-04-05 01:00,ZBAA 050100Z AUTO 35008KT 2SM 14/09 A3021 RMK SLP234 T01400090 IEM_DS3505
ZBAA,1998-04-05 02:00,ZBAA 050200Z AUTO 02006KT 3SM 18/05 A3021 RMK SLP233 T01800050 IEM_DS3505
ZBAA,1998-04-05 03:00,ZBAA 050300Z AUTO 36010KT 4SM 19/04 A3021 RMK SLP234 T01920038 52008 IEM_DS3505
ZBAA,1998-04-05 04:00,ZBAA 050400Z AUTO 06006KT 7SM 22/02 A3018 RMK SLP222 T02200020 IEM_DS3505
ZBAA,1998-04-05 05:00,ZBAA 050500Z AUTO ////02KT 7SM 23/03 A3018 RMK SLP222 T02300030 IEM_DS3505
ZBAA,1998-04-05 06:00,ZBAA 050600Z AUTO 14010KT 6SM 20/08 A3018 RMK SLP228 T01990084 57006 IEM_DS3505
ZBAA,1998-04-05 07:00,ZBAA 050700Z AUTO 16010KT 7SM 21/07 A3015 RMK SLP212 T02100070 IEM_DS3505
ZBAA,1998-04-05 08:00,ZBAA 050800Z AUTO 17012KT 4SM 21/07 A3015 RMK SLP212 T02100070 IEM_DS3505
ZBAA,1998-04-05 09:00,ZBAA 050900Z AUTO 14008KT 6SM 19/07 A3015 RMK SLP222 T01920072 57006 IEM_DS3505
ZBAA,1998-04-05 10:00,ZBAA 051000Z AUTO 19008KT 4SM 19/07 A3018 RMK SLP223 T01900070 IEM_DS3505
ZBAA,1998-04-05 11:00,ZBAA 051100Z AUTO 18006G16KT 4SM 18/07 A3018 RMK SLP223 T01800070 IEM_DS3505
ZBAA,1998-04-05 12:00,ZBAA 051200Z AUTO 20006KT 7SM 16/07 A3021 RMK SLP234 T01640069 52011 IEM_DS3505
ZBAA,1998-04-05 13:00,ZBAA 051300Z AUTO 13006KT 4SM 14/10 A3024 RMK SLP244 T01400100 IEM_DS3505
ZBAA,1998-04-05 14:00,ZBAA 051400Z AUTO 13006KT 3SM 12/09 A3024 RMK SLP245 T01200090 IEM_DS3505
ZBAA,1998-04-05 15:00,ZBAA 051500Z AUTO 16004KT 6SM 12/07 A3024 RMK SLP245 T01190073 52012 IEM_DS3505
ZBAA,1998-04-05 16:00,ZBAA 051600Z AUTO 12004KT 2SM 10/08 A3024 RMK SLP245 T01000080 IEM_DS3505
ZBAA,1998-04-05 17:00,ZBAA 051700Z AUTO 02002KT 1 1/2SM 10/08 A3024 RMK SLP245 T01000080 IEM_DS3505
ZBAA,1998-04-05 18:00,ZBAA 051800Z AUTO 00000KT 5SM 10/08 A3024 RMK SLP243 T00970076 57002 IEM_DS3505
ZBAA,1998-04-05 19:00,ZBAA 051900Z AUTO 00000KT 1 1/2SM 09/08 A3024 RMK SLP245 T00900080 IEM_DS3505
ZBAA,1998-04-05 20:00,ZBAA 052000Z AUTO 00000KT 1 1/2SM 08/08 A3021 RMK SLP235 T00800080 IEM_DS3505
ZBAA,1998-04-05 21:00,ZBAA 052100Z AUTO 07002KT 2SM 07/07 A3021 RMK SLP239 T00730069 57005 IEM_DS3505
ZBAA,1998-04-05 22:00,ZBAA 052200Z AUTO 28002KT 1SM 08/08 A3024 RMK SLP245 T00800080 IEM_DS3505
ZBAA,1998-04-05 23:00,ZBAA 052300Z AUTO 33002KT 1SM 09/08 A3024 RMK SLP245 T00900080 IEM_DS3505
ZBAA,1998-04-06 00:00,ZBAA 060000Z AUTO 00000KT 1SM 10/08 A3024 RMK SLP242 T01050082 52003 IEM_DS3505
ZBAA,1998-04-06 01:00,ZBAA 060100Z AUTO 36004KT 1 1/2SM 12/09 A3024 RMK SLP245 T01200090 IEM_DS3505
ZBAA,1998-04-06 02:00,ZBAA 060200Z AUTO 00000KT 1 1/2SM 15/09 A3024 RMK SLP244 T01500090 IEM_DS3505
ZBAA,1998-04-06 03:00,ZBAA 060300Z AUTO 18006KT 1 1/4SM 16/08 A3021 RMK SLP236 T01640083 57005 IEM_DS3505
ZBAA,1998-04-06 04:00,ZBAA 060400Z AUTO 17006KT 2SM 18/10 A3018 RMK SLP223 T01800100 IEM_DS3505
ZBAA,1998-04-06 05:00,ZBAA 060500Z AUTO 17008KT 2SM 20/08 A3015 RMK SLP213 T02000080 IEM_DS3505
ZBAA,1998-04-06 06:00,ZBAA 060600Z AUTO 20010KT 5SM 21/05 A3012 RMK SLP207 T02100046 57029 IEM_DS3505
ZBAA,1998-04-06 07:00,ZBAA 060700Z AUTO 19010KT 4SM 22/05 A3009 RMK SLP191 T02200050 IEM_DS3505
ZBAA,1998-04-06 08:00,ZBAA 060800Z AUTO 18010KT 5SM 22/04 A3006 RMK SLP181 T02200040 IEM_DS3505
ZBAA,1998-04-06 09:00,ZBAA 060900Z AUTO 20008KT 6SM 21/03 A3003 RMK SLP185 T02110026 57022 IEM_DS3505
ZBAA,1998-04-06 10:00,ZBAA 061000Z AUTO 20008KT 7SM 21/03 A3003 RMK SLP171 T02100030 IEM_DS3505
ZBAA,1998-04-06 11:00,ZBAA 061100Z AUTO 18006KT 7SM 18/03 A3003 RMK SLP172 T01800030 IEM_DS3505
ZBAA,1998-04-06 12:00,ZBAA 061200Z AUTO 20006KT 9SM 17/06 A3003 RMK SLP183 T01740065 57002 IEM_DS3505
ZBAA,1998-04-06 13:00,ZBAA 061300Z AUTO 15004KT 7SM 15/07 A3006 RMK SLP182 T01500070 IEM_DS3505
ZBAA,1998-04-06 14:00,ZBAA 061400Z AUTO 12004KT 7SM 14/07 A3006 RMK SLP183 T01400070 IEM_DS3505
ZBAA,1998-04-06 15:00,ZBAA 061500Z AUTO 18004KT 6SM 15/07 A3003 RMK SLP180 T01500073 57003 IEM_DS3505
ZBAA,1998-04-06 16:00,ZBAA 061600Z AUTO 13004KT 7SM 12/08 A3003 RMK SLP173 T01200080 IEM_DS3505
ZBAA,1998-04-06 17:00,ZBAA 061700Z AUTO 13004KT 7SM 12/07 A3000 RMK SLP163 T01200070 IEM_DS3505
ZBAA,1998-04-06 18:00,ZBAA 061800Z AUTO 00000KT 6SM 12/07 A3000 RMK SLP163 T01240072 57017 IEM_DS3505
ZBAA,1998-04-06 19:00,ZBAA 061900Z AUTO 00000KT 7SM 11/07 A2997 RMK SLP153 T01100070 IEM_DS3505
ZBAA,1998-04-06 20:00,ZBAA 062000Z AUTO 00000KT 7SM 11/07 A2997 RMK SLP153 T01100070 IEM_DS3505
ZBAA,1998-04-06 21:00,ZBAA 062100Z AUTO 14004KT 5SM 11/07 A2994 RMK SLP151 T01090074 57012 IEM_DS3505
ZBAA,1998-04-06 22:00,ZBAA 062200Z AUTO 00000KT 3SM 11/08 A2994 RMK SLP143 T01100080 IEM_DS3505
ZBAA,1998-04-06 23:00,ZBAA 062300Z AUTO 07002KT 2SM 11/08 A2997 RMK SLP153 T01100080 IEM_DS3505
ZBAA,1998-04-07 00:00,ZBAA 070000Z AUTO 20004KT 4SM 12/08 A2997 RMK SLP156 T01240079 52005 IEM_DS3505
ZBAA,1998-04-07 01:00,ZBAA 070100Z AUTO 00000KT 1 1/2SM 13/09 A2997 RMK SLP153 T01300090 IEM_DS3505
ZBAA,1998-04-07 02:00,ZBAA 070200Z AUTO ////02KT 2SM 16/09 A2997 RMK SLP152 T01600090 IEM_DS3505
ZBAA,1998-04-07 03:00,ZBAA 070300Z AUTO 27004KT 4SM 18/09 A2994 RMK SLP147 T01850087 57009 IEM_DS3505
ZBAA,1998-04-07 04:00,ZBAA 070400Z AUTO 34006KT 2SM 17/09 A2991 RMK SLP132 T01700090 IEM_DS3505
ZBAA,1998-04-07 05:00,ZBAA 070500Z AUTO 04002KT 2SM 19/09 A2988 RMK SLP121 T01900090 IEM_DS3505
ZBAA,1998-04-07 06:00,ZBAA 070600Z AUTO 25010KT 6SM 22/06 A2985 RMK SLP113 T02210062 57034 IEM_DS3505
ZBAA,1998-04-07 07:00,ZBAA 070700Z AUTO 20004KT 2SM 22/08 A2980 RMK T02200080 IEM_DS3505
ZBAA,1998-04-07 08:00,ZBAA 070800Z AUTO 21004KT 2SM 22/08 A2980 RMK SLP093 T02200080 IEM_DS3505
ZBAA,1998-04-07 09:00,ZBAA 070900Z AUTO 22010KT 9SM 22/06 A2977 RMK SLP094 T02250057 57019 IEM_DS3505
ZBAA,1998-04-07 10:00,ZBAA 071000Z AUTO 20008KT 6SM 22/06 A2977 RMK SLP083 T02200060 IEM_DS3505
ZBAA,1998-04-07 11:00,ZBAA 071100Z AUTO 20004KT 6SM 20/07 A2980 RMK SLP094 T02000070 IEM_DS3505
ZBAA,1998-04-07 12:00,ZBAA 071200Z AUTO 18004KT 6SM 19/09 A2980 RMK SLP096 T01900089 52002 IEM_DS3505
ZBAA,1998-04-07 13:00,ZBAA 071300Z AUTO 15004KT 7SM 17/09 A2980 RMK SLP095 T01700090 IEM_DS3505
ZBAA,1998-04-07 14:00,ZBAA 071400Z AUTO 16006KT 7SM 16/09 A2983 RMK SLP105 T01600090 IEM_DS3505
ZBAA,1998-04-07 15:00,ZBAA 071500Z AUTO 18006KT 7SM 16/08 A2983 RMK SLP103 T01620081 52007 IEM_DS3505
ZBAA,1998-04-07 16:00,ZBAA 071600Z AUTO 15006KT 7SM 14/09 A2980 RMK SLP095 T01400090 IEM_DS3505
ZBAA,1998-04-07 17:00,ZBAA 071700Z AUTO 14002KT 7SM 13/09 A2980 RMK SLP095 T01300090 IEM_DS3505
ZBAA,1998-04-07 18:00,ZBAA 071800Z AUTO 18006KT 6SM 14/10 A2980 RMK SLP099 T01420102 57003 IEM_DS3505
ZBAA,1998-04-07 19:00,ZBAA 071900Z AUTO 07002KT 5SM 12/10 A2980 RMK SLP096 T01200100 IEM_DS3505
ZBAA,1998-04-07 20:00,ZBAA 072000Z AUTO 08002KT 5SM 10/09 A2980 RMK SLP096 T01000090 IEM_DS3505
ZBAA,1998-04-07 21:00,ZBAA 072100Z AUTO 20002KT 4SM 11/10 A2977 RMK SLP094 T01100102 57006 IEM_DS3505
ZBAA,1998-04-07 22:00,ZBAA 072200Z AUTO 02002KT 1 1/2SM 10/09 A2980 RMK SLP096 T01000090 IEM_DS3505
ZBAA,1998-04-07 23:00,ZBAA 072300Z AUTO 00000KT 2SM 10/09 A2980 RMK SLP096 T01000090 IEM_DS3505
ZBAA,1998-04-08 00:00,ZBAA 080000Z AUTO 25002KT 3SM 12/10 A2989 RMK SLP102 T01240103 52008 IEM_DS3505
ZBAA,1998-04-08 01:00,ZBAA 080100Z AUTO ////02KT 2SM 15/11 A2983 RMK SLP105 T01500110 IEM_DS3505
ZBAA,1998-04-08 02:00,ZBAA 080200Z AUTO 14004KT 1 1/2SM 16/12 A2983 RMK SLP105 T01600120 IEM_DS3505
ZBAA,1998-04-08 03:00,ZBAA 080300Z AUTO 20008KT 4SM 19/10 A2983 RMK SLP107 T01930100 52005 IEM_DS3505
ZBAA,1998-04-08 04:00,ZBAA 080400Z AUTO 16006KT 2SM 21/12 A2980 RMK SLP094 T02100120 IEM_DS3505
ZBAA,1998-04-08 05:00,ZBAA 080500Z AUTO 17010KT 4SM 23/10 A2977 RMK SLP083 T02300100 IEM_DS3505
ZBAA,1998-04-08 06:00,ZBAA 080600Z AUTO 20008KT 6SM 24/08 A2977 RMK SLP088 T02390077 57018 IEM_DS3505
ZBAA,1998-04-08 07:00,ZBAA 080700Z AUTO 19012KT 6SM 24/07 A2974 RMK SLP072 T02400070 IEM_DS3505
ZBAA,1998-04-08 08:00,ZBAA 080800Z AUTO 19012KT 6SM 24/08 A2974 RMK SLP072 T02400080 IEM_DS3505
ZBAA,1998-04-08 09:00,ZBAA 080900Z AUTO 20010KT 9SM 24/08 A2974 RMK SLP079 T02380081 57009 IEM_DS3505
ZBAA,1998-04-08 10:00,ZBAA 081000Z AUTO 18006KT 6SM 22/08 A2974 RMK SLP072 T02200080 IEM_DS3505
ZBAA,1998-04-08 11:00,ZBAA 081100Z AUTO 23002KT 5SM 22/08 A2977 RMK SLP083 T02200080 IEM_DS3505
ZBAA,1998-04-08 12:00,ZBAA 081200Z AUTO 18006KT 6SM 20/09 A2980 RMK SLP095 T02050086 52015 IEM_DS3505
ZBAA,1998-04-08 13:00,ZBAA 081300Z AUTO 18004KT 5SM 18/09 A2980 RMK SLP094 T01800090 IEM_DS3505
ZBAA,1998-04-08 14:00,ZBAA 081400Z AUTO 14002KT 5SM 17/10 A2980 RMK SLP095 T01700100 IEM_DS3505
ZBAA,1998-04-08 15:00,ZBAA 081500Z AUTO 18004KT 6SM 17/09 A2980 RMK SLP102 T01700094 52008 IEM_DS3505
ZBAA,1998-04-08 16:00,ZBAA 081600Z AUTO 14006KT 4SM 15/10 A2980 RMK SLP095 T01500100 IEM_DS3505
ZBAA,1998-04-08 18:00,ZBAA 081800Z AUTO 20006KT 7SM 15/12 A2980 RMK SLP099 T01540117 57003 IEM_DS3505
ZBAA,1998-04-08 19:00,ZBAA 081900Z AUTO 16004KT 3SM 14/12 A2980 RMK SLP095 T01400120 IEM_DS3505
ZBAA,1998-04-08 20:00,ZBAA 082000Z AUTO 11004KT 2 1/2SM 13/12 A2980 RMK SLP095 T01300120 IEM_DS3505
ZBAA,1998-04-08 21:00,ZBAA 082100Z AUTO 18004KT 2SM 13/11 A2980 RMK SLP096 T01330112 57003 IEM_DS3505
ZBAA,1998-04-08 22:00,ZBAA 082200Z AUTO 11004KT 1 1/2SM 12/11 A2980 RMK SLP096 T01200110 IEM_DS3505
ZBAA,1998-04-08 23:00,ZBAA 082300Z AUTO 13006KT 1SM 12/12 A2983 RMK SLP106 T01200120 IEM_DS3505
ZBAA,1998-04-09 00:00,ZBAA 090000Z AUTO 22006KT 1 1/4SM 13/12 A2985 RMK SLP112 T01320123 52015 IEM_DS3505
ZBAA,1998-04-09 01:00,ZBAA 090100Z AUTO 13002KT 1/2SM 14/13 A2985 RMK SLP112 T01400130 IEM_DS3505
ZBAA,1998-04-09 02:00,ZBAA 090200Z AUTO 18004KT 1/2SM 14/13 A2985 RMK SLP112 T01400130 IEM_DS3505
ZBAA,1998-04-09 03:00,ZBAA 090300Z AUTO 22004KT 2SM 17/13 A2988 RMK SLP121 T01720131 52009 IEM_DS3505
ZBAA,1998-04-09 04:00,ZBAA 090400Z AUTO 18004KT 1SM 17/13 A2985 RMK SLP112 T01700130 IEM_DS3505
ZBAA,1998-04-09 05:00,ZBAA 090500Z AUTO ////02KT 1SM 18/14 A2983 RMK SLP104 T01800140 IEM_DS3505
ZBAA,1998-04-09 06:00,ZBAA 090600Z AUTO 18008KT 4SM 22/13 A2980 RMK SLP095 T02180132 57025 IEM_DS3505
ZBAA,1998-04-09 07:00,ZBAA 090700Z AUTO 02006KT 1 1/2SM 20/15 A2977 RMK SLP084 T02000150 IEM_DS3505
ZBAA,1998-04-09 08:00,ZBAA 090800Z AUTO 01006KT 1 1/2SM 20/15 A2977 RMK SLP084 T02000150 IEM_DS3505
ZBAA,1998-04-09 09:00,ZBAA 090900Z AUTO 25008KT 4SM 21/14 A2977 RMK SLP085 T02060143 57011 IEM_DS3505
ZBAA,1998-04-09 10:00,ZBAA 091000Z AUTO 34004KT 1 1/4SM 19/15 A2977 RMK SLP084 T01900150 IEM_DS3505
ZBAA,1998-04-09 11:00,ZBAA 091100Z AUTO 02004KT 1SM 18/15 A2980 RMK SLP094 T01800150 IEM_DS3505
ZBAA,1998-04-09 12:00,ZBAA 091200Z AUTO 00000KT 1 1/2SM 17/14 A2983 RMK SLP105 T01670141 52020 IEM_DS3505
ZBAA,1998-04-09 14:00,ZBAA 091400Z AUTO 13002KT 1SM 16/14 A2985 RMK SLP112 T01600140 IEM_DS3505
ZBAA,1998-04-09 15:00,ZBAA 091500Z AUTO 09002KT 1SM 15/14 A2988 RMK SLP121 T01530135 52016 IEM_DS3505
ZBAA,1998-04-09 16:00,ZBAA 091600Z AUTO 15004KT 1SM 16/14 A2988 RMK SLP122 T01600140 IEM_DS3505
ZBAA,1998-04-09 17:00,ZBAA 091700Z AUTO 13002KT 1SM 15/13 A2988 RMK SLP122 T01500130 IEM_DS3505
ZBAA,1998-04-09 18:00,ZBAA 091800Z AUTO 00000KT 1SM 14/13 A2988 RMK SLP124 T01430129 52003 IEM_DS3505
ZBAA,1998-04-09 19:00,ZBAA 091900Z AUTO 00000KT 1 1/4SM 14/13 A2988 RMK SLP122 T01400130 IEM_DS3505
ZBAA,1998-04-09 20:00,ZBAA 092000Z AUTO 13002KT 1 1/4SM 14/13 A2988 RMK SLP122 T01400130 IEM_DS3505
ZBAA,1998-04-09 21:00,ZBAA 092100Z AUTO 07002KT 1SM 14/12 A2988 RMK SLP127 T01380125 52003 IEM_DS3505
ZBAA,1998-04-09 22:00,ZBAA 092200Z AUTO 08002KT 1SM 13/12 A2991 RMK SLP133 T01300120 IEM_DS3505
ZBAA,1998-04-09 23:00,ZBAA 092300Z AUTO 12002KT 1SM 14/13 A2994 RMK SLP142 T01400130 IEM_DS3505
ZBAA,1998-04-10 00:00,ZBAA 100000Z AUTO 11002KT 1 1/2SM 15/14 A2994 RMK SLP149 T01480136 52022 IEM_DS3505
ZBAA,1998-04-10 01:00,ZBAA 100100Z AUTO 13006KT 1 1/4SM 16/14 A2997 RMK SLP152 T01600140 IEM_DS3505
ZBAA,1998-04-10 03:00,ZBAA 100300Z AUTO 14006KT 1 1/2SM 18/15 A3000 RMK SLP162 T01790148 52013 IEM_DS3505
ZBAA,1998-04-10 04:00,ZBAA 100400Z AUTO 13004KT 1 1/4SM 18/15 A2997 RMK SLP152 T01800150 IEM_DS3505
ZBAA,1998-04-10 05:00,ZBAA 100500Z AUTO 10006KT 1 1/2SM 20/16 A2997 RMK SLP151 T02000160 IEM_DS3505
ZBAA,1998-04-10 06:00,ZBAA 100600Z AUTO 14004KT 2 1/2SM 20/16 A2994 RMK SLP150 T02030160 57012 IEM_DS3505
ZBAA,1998-04-10 07:00,ZBAA 100700Z AUTO 14006KT 2SM 22/16 A2994 RMK SLP141 T02200160 IEM_DS3505
ZBAA,1998-04-10 08:00,ZBAA 100800Z AUTO 15006KT 3SM 22/16 A2994 RMK SLP141 T02200160 IEM_DS3505
ZBAA,1998-04-10 09:00,ZBAA 100900Z AUTO 14006KT 2 1/2SM 21/15 A2994 RMK SLP145 T02110152 57005 IEM_DS3505
ZBAA,1998-04-10 10:00,ZBAA 101000Z AUTO 13012KT 1 1/2SM 19/15 A2994 RMK SLP141 T01900150 IEM_DS3505
ZBAA,1998-04-10 11:00,ZBAA 101100Z AUTO 14012G21KT 3SM 18/11 A2997 RMK SLP152 T01800110 IEM_DS3505
ZBAA,1998-04-10 12:00,ZBAA 101200Z AUTO 14008KT 6SM 16/11 A3000 RMK SLP170 T01630113 52025 IEM_DS3505
ZBAA,1998-04-10 13:00,ZBAA 101300Z AUTO 13010KT 7SM 16/09 A3003 RMK SLP172 T01600090 IEM_DS3505
ZBAA,1998-04-10 14:00,ZBAA 101400Z AUTO 13010KT 6SM 15/08 A3003 RMK SLP172 T01500080 IEM_DS3505
ZBAA,1998-04-10 15:00,ZBAA 101500Z AUTO 11008KT 6SM 14/08 A3003 RMK SLP177 T01390081 52007 IEM_DS3505
ZBAA,1998-04-10 16:00,ZBAA 101600Z AUTO 14004KT 7SM 13/07 A3003 RMK SLP173 T01300070 IEM_DS3505
ZBAA,1998-04-10 17:00,ZBAA 101700Z AUTO 15006KT 7SM 13/07 A3003 RMK SLP173 T01300070 IEM_DS3505
ZBAA,1998-04-10 18:00,ZBAA 101800Z AUTO 09006KT 6SM 12/06 A3003 RMK SLP175 T01240065 57002 IEM_DS3505
ZBAA,1998-04-10 20:00,ZBAA 102000Z AUTO 14004KT 7SM 12/09 A3000 RMK SLP163 T01200090 IEM_DS3505
ZBAA,1998-04-10 21:00,ZBAA 102100Z AUTO 11010KT 6SM 11/08 A3000 RMK SLP163 T01110080 57012 IEM_DS3505
ZBAA,1998-04-10 22:00,ZBAA 102200Z AUTO 14006KT 4SM 12/09 A3000 RMK SLP163 T01200090 IEM_DS3505
ZBAA,1998-04-10 23:00,ZBAA 102300Z AUTO 14006KT 3SM 11/09 A3000 RMK SLP163 T01100090 IEM_DS3505
ZBAA,1998-04-11 00:00,ZBAA 110000Z AUTO 09006KT 2SM 11/09 A3009 RMK SLP168 T01080090 52005 IEM_DS3505
ZBAA,1998-04-11 03:00,ZBAA 110300Z AUTO 07004KT 2 1/2SM 12/09 A3003 RMK SLP169 T01160092 52001 IEM_DS3505
ZBAA,1998-04-11 06:00,ZBAA 110600Z AUTO 02002KT 2 1/2SM 13/10 A3003 RMK SLP147 T01320101 57022 IEM_DS3505
ZBAA,1998-04-11 07:00,ZBAA 110700Z AUTO 31010KT 1SM 12/11 A2994 RMK SLP143 T01200110 IEM_DS3505
ZBAA,1998-04-11 08:00,ZBAA 110800Z AUTO 36004KT 1SM 12/12 A2991 RMK SLP133 T01200120 IEM_DS3505
ZBAA,1998-04-11 09:00,ZBAA 110900Z AUTO 02004KT 3SM 12/11 A2991 RMK SLP136 T01250112 57011 IEM_DS3505
ZBAA,1998-04-11 10:00,ZBAA 111000Z AUTO 31004KT 1SM 13/12 A2991 RMK SLP133 T01300120 IEM_DS3505
ZBAA,1998-04-11 11:00,ZBAA 111100Z AUTO 36002KT 1SM 13/12 A2988 RMK SLP123 T01300120 IEM_DS3505
ZBAA,1998-04-11 12:00,ZBAA 111200Z AUTO 32004KT 2SM 13/12 A2991 RMK 60002 SLP137 T01270118 52001 IEM_DS3505
ZBAA,1998-04-11 13:00,ZBAA 111300Z AUTO 30004KT 1SM 13/12 A2991 RMK SLP133 T01300120 IEM_DS3505
ZBAA,1998-04-11 14:00,ZBAA 111400Z AUTO 32004KT 1 1/4SM 12/12 A2988 RMK SLP123 T01200120 IEM_DS3505
ZBAA,1998-04-11 15:00,ZBAA 111500Z AUTO 27006KT 3SM 12/11 A2988 RMK SLP130 T01230114 57007 IEM_DS3505
ZBAA,1998-04-11 17:00,ZBAA 111700Z AUTO 00000KT 3/8SM 11/11 A2985 RMK SLP113 T01100110 IEM_DS3505
ZBAA,1998-04-11 18:00,ZBAA 111800Z AUTO 27006KT 1 1/4SM 12/11 A2983 RMK 60004 SLP109 T01160108 57021 IEM_DS3505
ZBAA,1998-04-11 21:00,ZBAA 112100Z AUTO 01004KT 1/8SM 08/08 A2977 RMK SLP086 T00800080 IEM_DS3505
ZBAA,1998-04-11 22:00,ZBAA 112200Z AUTO 00000KT 1/8SM 08/08 A2977 RMK SLP086 T00800080 IEM_DS3505
ZBAA,1998-04-11 23:00,ZBAA 112300Z AUTO 35004KT 1/8SM 09/09 A2977 RMK SLP086 T00900090 IEM_DS3505
ZBAA,1998-04-12 00:00,ZBAA 120000Z AUTO 07004KT 1/2SM 10/09 A2974 RMK 70004 SLP085 T00980094 57001 IEM_DS3505
ZBAA,1998-04-12 01:00,ZBAA 120100Z AUTO 01002KT 1 1/2SM 12/12 A2974 RMK SLP074 T01200120 IEM_DS3505
ZBAA,1998-04-12 02:00,ZBAA 120200Z AUTO ////02KT 2 1/2SM 15/12 A2971 RMK SLP064 T01500120 IEM_DS3505
ZBAA,1998-04-12 03:00,ZBAA 120300Z AUTO 22006G14KT 3SM 20/10 A2971 RMK SLP067 T01960102 57018 IEM_DS3505
ZBAA,1998-04-12 04:00,ZBAA 120400Z AUTO 16004KT 4SM 21/12 A2968 RMK SLP052 T02100120 IEM_DS3505
ZBAA,1998-04-12 05:00,ZBAA 120500Z AUTO 16010KT 7SM 23/06 A2962 RMK SLP032 T02300060 IEM_DS3505
ZBAA,1998-04-12 06:00,ZBAA 120600Z AUTO 20014KT 7SM 24/04 A2959 RMK SLP035 T02370039 57031 IEM_DS3505
ZBAA,1998-04-12 07:00,ZBAA 120700Z AUTO 18014KT 7SM 24/04 A2956 RMK T02400040 IEM_DS3505
ZBAA,1998-04-12 08:00,ZBAA 120800Z AUTO 19014KT 7SM 24/03 A2956 RMK SLP012 T02400030 IEM_DS3505
ZBAA,1998-04-12 09:00,ZBAA 120900Z AUTO 20008KT 10SM 24/04 A2956 RMK SLP009 T02350042 57026 IEM_DS3505
ZBAA,1998-04-12 10:00,ZBAA 121000Z AUTO 20010KT 7SM 23/03 A2956 RMK SLP012 T02300030 IEM_DS3505
ZBAA,1998-04-12 11:00,ZBAA 121100Z AUTO 18006G17KT 7SM 21/03 A2956 RMK SLP012 T02100030 IEM_DS3505
ZBAA,1998-04-12 12:00,ZBAA 121200Z AUTO 20006KT 9SM 19/05 A2956 RMK SLP020 T01930048 52010 IEM_DS3505
ZBAA,1998-04-12 13:00,ZBAA 121300Z AUTO 15004KT 7SM 17/05 A2959 RMK SLP023 T01700050 IEM_DS3505
ZBAA,1998-04-12 14:00,ZBAA 121400Z AUTO 17006KT 7SM 16/05 A2959 RMK SLP023 T01600050 IEM_DS3505
ZBAA,1998-04-12 15:00,ZBAA 121500Z AUTO 18006KT 11SM 17/05 A2956 RMK SLP022 T01730046 52003 IEM_DS3505
ZBAA,1998-04-12 16:00,ZBAA 121600Z AUTO 14006KT 7SM 15/06 A2956 RMK SLP013 T01500060 IEM_DS3505
ZBAA,1998-04-12 17:00,ZBAA 121700Z AUTO 14006KT 6SM 14/06 A2959 RMK SLP024 T01400060 IEM_DS3505
ZBAA,1998-04-12 18:00,ZBAA 121800Z AUTO 14004KT 10SM 13/08 A2959 RMK SLP021 T01290076 57001 IEM_DS3505
ZBAA,1998-04-12 19:00,ZBAA 121900Z AUTO 22002KT 6SM 14/06 A2956 RMK SLP014 T01400060 IEM_DS3505
ZBAA,1998-04-12 20:00,ZBAA 122000Z AUTO 06004KT 6SM 14/07 A2956 RMK SLP014 T01400070 IEM_DS3505
ZBAA,1998-04-12 21:00,ZBAA 122100Z AUTO 09002KT 6SM 12/08 A2953 RMK SLP004 T01250076 57017 IEM_DS3505
ZBAA,1998-04-12 22:00,ZBAA 122200Z AUTO 12002KT 7SM 13/08 A2956 RMK SLP014 T01300080 IEM_DS3505
ZBAA,1998-04-12 23:00,ZBAA 122300Z AUTO 21006KT 5SM 14/08 A2962 RMK SLP034 T01400080 IEM_DS3505
ZBAA,1998-04-13 00:00,ZBAA 130000Z AUTO 04006KT 4SM 14/08 A2962 RMK SLP033 T01390084 52029 IEM_DS3505
ZBAA,1998-04-13 01:00,ZBAA 130100Z AUTO 29002KT 4SM 16/08 A2962 RMK SLP033 T01600080 IEM_DS3505
ZBAA,1998-04-13 03:00,ZBAA 130300Z AUTO 32012KT 11SM 20/02 A2965 RMK SLP046 T02010017 52013 IEM_DS3505
ZBAA,1998-04-13 04:00,ZBAA 130400Z AUTO 29016KT 6SM 20/03 A2965 RMK SLP043 T02000030 IEM_DS3505
ZBAA,1998-04-13 06:00,ZBAA 130600Z AUTO 29014KT 7SM 18/01 A2977 RMK SLP059 T01850008 52012 IEM_DS3505
ZBAA,1998-04-13 07:00,ZBAA 130700Z AUTO 04006KT 7SM 16/09 A2974 RMK SLP074 T01600090 IEM_DS3505
ZBAA,1998-04-13 08:00,ZBAA 130800Z AUTO 02004KT 7SM 14/11 A2977 RMK SLP085 T01400110 IEM_DS3505
ZBAA,1998-04-13 09:00,ZBAA 130900Z AUTO 04010KT 9SM 16/08 A2977 RMK SLP085 T01610078 52026 IEM_DS3505
ZBAA,1998-04-13 10:00,ZBAA 131000Z AUTO 03008KT 6SM 14/09 A2980 RMK SLP095 T01400090 IEM_DS3505
ZBAA,1998-04-13 11:00,ZBAA 131100Z AUTO 03012G21KT 6SM 13/08 A2983 RMK SLP105 T01300080 IEM_DS3505
ZBAA,1998-04-13 12:00,ZBAA 131200Z AUTO 02010KT 12SM 13/04 A2988 RMK SLP117 T01340042 52032 IEM_DS3505
ZBAA,1998-04-13 13:00,ZBAA 131300Z AUTO 02006KT 6SM 12/06 A2991 RMK SLP133 T01200060 IEM_DS3505
ZBAA,1998-04-13 14:00,ZBAA 131400Z AUTO 04004KT 6SM 11/06 A2991 RMK SLP133 T01100060 IEM_DS3505
ZBAA,1998-04-13 15:00,ZBAA 131500Z AUTO 02004KT 12SM 12/05 A2994 RMK SLP142 T01180048 52025 IEM_DS3505
ZBAA,1998-04-13 16:00,ZBAA 131600Z AUTO 03004KT 6SM 11/06 A2994 RMK SLP143 T01100060 IEM_DS3505
ZBAA,1998-04-13 17:00,ZBAA 131700Z AUTO 03004KT 6SM 11/05 A2994 RMK SLP143 T01100050 IEM_DS3505
ZBAA,1998-04-13 18:00,ZBAA 131800Z AUTO 32002KT 9SM 11/04 A2994 RMK SLP149 T01100040 52007 IEM_DS3505
ZBAA,1998-04-13 19:00,ZBAA 131900Z AUTO 36006KT 6SM 09/06 A2997 RMK SLP154 T00900060 IEM_DS3505
ZBAA,1998-04-13 20:00,ZBAA 132000Z AUTO 01004KT 6SM 09/06 A2997 RMK SLP154 T00900060 IEM_DS3505
ZBAA,1998-04-13 21:00,ZBAA 132100Z AUTO 02002KT 9SM 10/03 A2997 RMK SLP153 T01010034 52004 IEM_DS3505
ZBAA,1998-04-13 22:00,ZBAA 132200Z AUTO 35004KT 7SM 09/05 A3000 RMK SLP164 T00900050 IEM_DS3505
ZBAA,1998-04-13 23:00,ZBAA 132300Z AUTO 32006KT 7SM 09/05 A3000 RMK SLP164 T00900050 IEM_DS3505
ZBAA,1998-04-14 00:00,ZBAA 140000Z AUTO 00000KT 7SM 12/06 A3003 RMK SLP169 T01160061 52016 IEM_DS3505
ZBAA,1998-04-14 01:00,ZBAA 140100Z AUTO 35004KT 7SM 13/07 A3003 RMK SLP173 T01300070 IEM_DS3505
ZBAA,1998-04-14 02:00,ZBAA 140200Z AUTO 33002KT 7SM 15/04 A3003 RMK SLP172 T01500040 IEM_DS3505
ZBAA,1998-04-14 03:00,ZBAA 140300Z AUTO 25004KT 7SM 19/03 A3003 RMK SLP173 T01910027 52004 IEM_DS3505
ZBAA,1998-04-14 04:00,ZBAA 140400Z AUTO ////02KT 7SM 20/03 A3000 RMK SLP161 T02000030 IEM_DS3505
ZBAA,1998-04-14 05:00,ZBAA 140500Z AUTO ////02KT 7SM 22/01 A2997 RMK SLP151 T02200010 IEM_DS3505
ZBAA,1998-04-14 06:00,ZBAA 140600Z AUTO 09008KT 12SM 22/04 A2994 RMK SLP148 T02230045 57025 IEM_DS3505
ZBAA,1998-04-14 07:00,ZBAA 140700Z AUTO 03004KT 7SM 23/01 A2991 RMK T02300010 IEM_DS3505
ZBAA,1998-04-14 09:00,ZBAA 140900Z AUTO 16006KT 16SM 22/02 A2992 RMK SLP133 T02160019 57015 IEM_DS3505
ZBAA,1998-04-14 11:00,ZBAA 141100Z AUTO 16004KT 7SM 18/03 A2991 RMK SLP132 T01800030 IEM_DS3505
ZBAA,1998-04-14 12:00,ZBAA 141200Z AUTO 20006KT 12SM 18/04 A2991 RMK SLP141 T01800035 52008 IEM_DS3505
ZBAA,1998-04-14 13:00,ZBAA 141300Z AUTO 14004KT 7SM 16/04 A2994 RMK SLP142 T01600040 IEM_DS3505
ZBAA,1998-04-14 14:00,ZBAA 141400Z AUTO 13004KT 7SM 14/06 A2994 RMK SLP142 T01400060 IEM_DS3505
ZBAA,1998-04-14 15:00,ZBAA 141500Z AUTO 22004KT 9SM 15/04 A2994 RMK SLP147 T01480039 52006 IEM_DS3505
ZBAA,1998-04-14 16:00,ZBAA 141600Z AUTO 14004KT 7SM 13/04 A2994 RMK SLP143 T01300040 IEM_DS3505
ZBAA,1998-04-14 17:00,ZBAA 141700Z AUTO 15004KT 7SM 13/05 A2991 RMK SLP133 T01300050 IEM_DS3505
ZBAA,1998-04-14 18:00,ZBAA 141800Z AUTO 20006KT 9SM 14/04 A2991 RMK SLP141 T01450041 57006 IEM_DS3505
ZBAA,1998-04-14 19:00,ZBAA 141900Z AUTO 14004KT 7SM 12/04 A2988 RMK T01200040 IEM_DS3505
ZBAA,1998-04-14 20:00,ZBAA 142000Z AUTO 09002KT 7SM 12/05 A2988 RMK SLP123 T01200050 IEM_DS3505
ZBAA,1998-04-14 21:00,ZBAA 142100Z AUTO 16004KT 12SM 14/04 A2988 RMK SLP128 T01350038 57013 IEM_DS3505
ZBAA,1998-04-14 22:00,ZBAA 142200Z AUTO 11004KT 4SM 10/05 A2988 RMK SLP123 T01000050 IEM_DS3505
ZBAA,1998-04-14 23:00,ZBAA 142300Z AUTO 11006KT 4SM 10/05 A2988 RMK SLP123 T01000050 IEM_DS3505
ZBAA,1998-04-15 00:00,ZBAA 150000Z AUTO 16006KT 9SM 14/06 A2988 RMK SLP124 T01360061 57004 IEM_DS3505
ZBAA,1998-04-15 01:00,ZBAA 150100Z AUTO 13006KT 4SM 14/06 A2985 RMK SLP112 T01400060 IEM_DS3505
ZBAA,1998-04-15 03:00,ZBAA 150300Z AUTO 20006KT 6SM 19/08 A2983 RMK SLP109 T01900075 57015 IEM_DS3505
ZBAA,1998-04-15 04:00,ZBAA 150400Z AUTO 14004KT 4SM 20/09 A2980 RMK SLP094 T02000090 IEM_DS3505
ZBAA,1998-04-15 05:00,ZBAA 150500Z AUTO 14004KT 4SM 21/08 A2977 RMK SLP084 T02100080 IEM_DS3505
ZBAA,1998-04-15 06:00,ZBAA 150600Z AUTO 20004KT 6SM 23/08 A2971 RMK SLP069 T02320085 57039 IEM_DS3505
ZBAA,1998-04-15 07:00,ZBAA 150700Z AUTO 16006KT 4SM 23/10 A2968 RMK SLP052 T02300100 IEM_DS3505
ZBAA,1998-04-15 08:00,ZBAA 150800Z AUTO 15006KT 4SM 23/09 A2965 RMK SLP042 T02300090 IEM_DS3505
ZBAA,1998-04-15 09:00,ZBAA 150900Z AUTO 22004KT 6SM 24/09 A2962 RMK SLP035 T02410091 57034 IEM_DS3505
ZBAA,1998-04-15 10:00,ZBAA 151000Z AUTO 11002KT 4SM 23/10 A2962 RMK SLP032 T02300100 IEM_DS3505
ZBAA,1998-04-15 11:00,ZBAA 151100Z AUTO 10002KT 4SM 21/10 A2959 RMK SLP022 T02100100 IEM_DS3505
ZBAA,1998-04-15 12:00,ZBAA 151200Z AUTO 00000KT 9SM 19/12 A2959 RMK SLP029 T01930116 57006 IEM_DS3505
ZBAA,1998-04-15 13:00,ZBAA 151300Z AUTO ////02KT 4SM 19/11 A2962 RMK SLP033 T01900110 IEM_DS3505
ZBAA,1998-04-15 14:00,ZBAA 151400Z AUTO 11006KT 4SM 19/12 A2959 RMK SLP023 T01900120 IEM_DS3505
ZBAA,1998-04-15 15:00,ZBAA 151500Z AUTO 09008KT 9SM 18/12 A2956 RMK SLP017 T01830124 57012 IEM_DS3505
ZBAA,1998-04-15 16:00,ZBAA 151600Z AUTO 35006KT 7SM 18/12 A2959 RMK SLP023 T01800120 IEM_DS3505
ZBAA,1998-04-15 17:00,ZBAA 151700Z AUTO 24008KT 4SM 16/14 A2965 RMK SLP043 T01600140 IEM_DS3505
ZBAA,1998-04-15 18:00,ZBAA 151800Z AUTO 34010KT 12SM 17/06 A2969 RMK 60008 SLP032 T01700060 52015 IEM_DS3505
ZBAA,1998-04-15 19:00,ZBAA 151900Z AUTO 34008KT 2 1/2SM 15/08 A2965 RMK SLP044 T01500080 IEM_DS3505
ZBAA,1998-04-15 20:00,ZBAA 152000Z AUTO 35014KT 2 1/2SM 16/05 A2965 RMK SLP043 T01600050 IEM_DS3505
ZBAA,1998-04-15 21:00,ZBAA 152100Z AUTO 34008G23KT 6SM 16/02 A2968 RMK 70008 SLP045 T01570021 52013 IEM_DS3505
ZBAA,1998-04-15 22:00,ZBAA 152200Z AUTO 34006KT 3SM 13/08 A2965 RMK SLP044 T01300080 IEM_DS3505
ZBAA,1998-04-15 23:00,ZBAA 152300Z AUTO 34008KT 3SM 13/10 A2968 RMK SLP054 T01300100 IEM_DS3505
ZBAA,1998-04-16 00:00,ZBAA 160000Z AUTO 34012KT 5SM 15/03 A2968 RMK 70008 SLP061 T01460031 52016 IEM_DS3505
ZBAA,1998-04-16 01:00,ZBAA 160100Z AUTO 29014KT 2 1/2SM 13/04 A2971 RMK SLP064 T01300040 IEM_DS3505
ZBAA,1998-04-16 02:00,ZBAA 160200Z AUTO 30012KT 4SM 13/06 A2971 RMK SLP064 T01300060 IEM_DS3505
ZBAA,1998-04-16 03:00,ZBAA 160300Z AUTO 29014KT 2 1/2SM 13/05 A2974 RMK SLP082 T01320051 52020 IEM_DS3505
ZBAA,1998-04-16 05:00,ZBAA 160500Z AUTO ////02KT 4SM 13/09 A2974 RMK SLP074 T01300090 IEM_DS3505
ZBAA,1998-04-16 06:00,ZBAA 160600Z AUTO 14004KT 4SM 13/08 A2974 RMK 60008 SLP078 T01280084 57004 IEM_DS3505
ZBAA,1998-04-16 07:00,ZBAA 160700Z AUTO ////02KT 4SM 13/09 A2977 RMK SLP085 T01300090 IEM_DS3505
ZBAA,1998-04-16 08:00,ZBAA 160800Z AUTO 16004KT 4SM 13/10 A2977 RMK SLP085 T01300100 IEM_DS3505
ZBAA,1998-04-16 09:00,ZBAA 160900Z AUTO 11004KT 4SM 13/08 A2980 RMK SLP092 T01320084 52014 IEM_DS3505
ZBAA,1998-04-16 10:00,ZBAA 161000Z AUTO 17002KT 4SM 13/11 A2980 RMK SLP095 T01300110 IEM_DS3505
ZBAA,1998-04-16 11:00,ZBAA 161100Z AUTO 10004KT 4SM 13/11 A2980 RMK SLP095 T01300110 IEM_DS3505
ZBAA,1998-04-16 12:00,ZBAA 161200Z AUTO 04002KT 4SM 13/09 A2985 RMK 60000 SLP113 T01320086 52021 IEM_DS3505
ZBAA,1998-04-16 13:00,ZBAA 161300Z AUTO 30004KT 4SM 13/10 A2988 RMK SLP123 T01300100 IEM_DS3505
ZBAA,1998-04-16 14:00,ZBAA 161400Z AUTO 29006KT 4SM 12/10 A2988 RMK SLP123 T01200100 IEM_DS3505
ZBAA,1998-04-16 15:00,ZBAA 161500Z AUTO 00000KT 4SM 11/10 A2988 RMK SLP134 T01090095 52021 IEM_DS3505
ZBAA,1998-04-16 16:00,ZBAA 161600Z AUTO 00000KT 3SM 10/09 A2991 RMK SLP133 T01000090 IEM_DS3505
ZBAA,1998-04-16 17:00,ZBAA 161700Z AUTO 00000KT 3SM 09/09 A2991 RMK SLP134 T00900090 IEM_DS3505
ZBAA,1998-04-16 18:00,ZBAA 161800Z AUTO 00000KT 6SM 09/08 A2991 RMK SLP137 T00920084 52002 IEM_DS3505
ZBAA,1998-04-16 19:00,ZBAA 161900Z AUTO 00000KT 2 1/2SM 09/09 A2991 RMK SLP134 T00900090 IEM_DS3505
ZBAA,1998-04-16 20:00,ZBAA 162000Z AUTO 00000KT 2SM 08/08 A2991 RMK SLP134 T00800080 IEM_DS3505
ZBAA,1998-04-16 21:00,ZBAA 162100Z AUTO 00000KT 5SM 08/07 A2991 RMK 70008 SLP136 T00770073 57001 IEM_DS3505
ZBAA,1998-04-16 22:00,ZBAA 162200Z AUTO 00000KT 1 1/2SM 07/07 A2991 RMK SLP134 T00700070 IEM_DS3505
ZBAA,1998-04-16 23:00,ZBAA 162300Z AUTO 00000KT 1 1/4SM 08/08 A2994 RMK SLP144 T00800080 IEM_DS3505
ZBAA,1998-04-17 00:00,ZBAA 170000Z AUTO 25004KT 4SM 11/09 A2994 RMK 70008 SLP149 T01110087 52014 IEM_DS3505
ZBAA,1998-04-17 01:00,ZBAA 170100Z AUTO 00000KT 2SM 12/10 A2997 RMK SLP153 T01200100 IEM_DS3505
ZBAA,1998-04-17 02:00,ZBAA 170200Z AUTO ////02KT 2SM 14/11 A2994 RMK SLP142 T01400110 IEM_DS3505
ZBAA,1998-04-17 03:00,ZBAA 170300Z AUTO 25008KT 4SM 16/09 A2991 RMK SLP140 T01630087 57009 IEM_DS3505
ZBAA,1998-04-17 04:00,ZBAA 170400Z AUTO 16006KT 4SM 17/09 A2991 RMK SLP132 T01700090 IEM_DS3505
ZBAA,1998-04-17 05:00,ZBAA 170500Z AUTO 17006KT 4SM 18/12 A2985 RMK SLP111 T01800120 IEM_DS3505
ZBAA,1998-04-17 06:00,ZBAA 170600Z AUTO 20008KT 7SM 20/08 A2985 RMK SLP116 T02050076 57024 IEM_DS3505
ZBAA,1998-04-17 07:00,ZBAA 170700Z AUTO 17008KT 6SM 20/08 A2983 RMK SLP104 T02000080 IEM_DS3505
ZBAA,1998-04-17 08:00,ZBAA 170800Z AUTO 17008KT 6SM 21/08 A2980 RMK SLP094 T02100080 IEM_DS3505
ZBAA,1998-04-17 09:00,ZBAA 170900Z AUTO 20008KT 9SM 21/06 A2980 RMK SLP096 T02130055 57020 IEM_DS3505
ZBAA,1998-04-17 10:00,ZBAA 171000Z AUTO 16004KT 6SM 19/10 A2980 RMK SLP094 T01900100 IEM_DS3505
ZBAA,1998-04-17 11:00,ZBAA 171100Z AUTO 17004KT 6SM 17/09 A2980 RMK SLP095 T01700090 IEM_DS3505
ZBAA,1998-04-17 12:00,ZBAA 171200Z AUTO 18006KT 7SM 18/08 A2980 RMK SLP094 T01810080 57002 IEM_DS3505
ZBAA,1998-04-17 13:00,ZBAA 171300Z AUTO 15004KT 6SM 16/09 A2980 RMK SLP095 T01600090 IEM_DS3505
ZBAA,1998-04-17 14:00,ZBAA 171400Z AUTO 14004KT 6SM 15/09 A2980 RMK SLP095 T01500090 IEM_DS3505
ZBAA,1998-04-17 15:00,ZBAA 171500Z AUTO 16008KT 6SM 15/08 A2980 RMK SLP095 T01510077 52001 IEM_DS3505
ZBAA,1998-04-17 16:00,ZBAA 171600Z AUTO 13006KT 6SM 15/08 A2980 RMK SLP095 T01500080 IEM_DS3505
ZBAA,1998-04-17 17:00,ZBAA 171700Z AUTO 14004KT 6SM 14/09 A2977 RMK SLP085 T01400090 IEM_DS3505
ZBAA,1998-04-17 18:00,ZBAA 171800Z AUTO 14006KT 11SM 12/09 A2977 RMK SLP084 T01160088 57011 IEM_DS3505
ZBAA,1998-04-17 19:00,ZBAA 171900Z AUTO 11002KT 5SM 12/09 A2977 RMK SLP086 T01200090 IEM_DS3505
ZBAA,1998-04-17 20:00,ZBAA 172000Z AUTO 11004KT 5SM 12/09 A2974 RMK SLP074 T01200090 IEM_DS3505
ZBAA,1998-04-17 21:00,ZBAA 172100Z AUTO 09004KT 7SM 11/08 A2974 RMK SLP080 T01060081 57004 IEM_DS3505
ZBAA,1998-04-17 22:00,ZBAA 172200Z AUTO 11002KT 2SM 11/10 A2974 RMK SLP075 T01100100 IEM_DS3505
ZBAA,1998-04-17 23:00,ZBAA 172300Z AUTO 12002KT 2SM 12/10 A2974 RMK SLP074 T01200100 IEM_DS3505
ZBAA,1998-04-18 00:00,ZBAA 180000Z AUTO 11004KT 4SM 13/10 A2974 RMK SLP082 T01320101 52002 IEM_DS3505
ZBAA,1998-04-18 01:00,ZBAA 180100Z AUTO 13004KT 2SM 15/11 A2974 RMK SLP074 T01500110 IEM_DS3505
ZBAA,1998-04-18 02:00,ZBAA 180200Z AUTO 10004KT 2 1/2SM 16/11 A2974 RMK SLP074 T01600110 IEM_DS3505
ZBAA,1998-04-18 03:00,ZBAA 180300Z AUTO 07004KT 4SM 17/10 A2974 RMK SLP073 T01740105 57009 IEM_DS3505
ZBAA,1998-04-18 04:00,ZBAA 180400Z AUTO 14006KT 2 1/2SM 19/12 A2968 RMK SLP053 T01900120 IEM_DS3505
ZBAA,1998-04-18 05:00,ZBAA 180500Z AUTO 14004KT 2 1/2SM 19/13 A2968 RMK SLP053 T01900130 IEM_DS3505
ZBAA,1998-04-18 06:00,ZBAA 180600Z AUTO 09004KT 6SM 21/12 A2965 RMK SLP046 T02120120 57026 IEM_DS3505
ZBAA,1998-04-18 07:00,ZBAA 180700Z AUTO 14004KT 2 1/2SM 21/13 A2962 RMK SLP032 T02100130 IEM_DS3505
ZBAA,1998-04-18 08:00,ZBAA 180800Z AUTO 19006KT 2 1/2SM 23/12 A2962 RMK SLP032 T02300120 IEM_DS3505
ZBAA,1998-04-18 09:00,ZBAA 180900Z AUTO 09002KT 6SM 23/14 A2962 RMK SLP030 T02300135 57016 IEM_DS3505
ZBAA,1998-04-18 10:00,ZBAA 181000Z AUTO 00000KT 2 1/2SM 22/13 A2962 RMK SLP032 T02200130 IEM_DS3505
ZBAA,1998-04-18 11:00,ZBAA 181100Z AUTO 00000KT 2SM 21/14 A2962 RMK SLP032 T02100140 IEM_DS3505
ZBAA,1998-04-18 12:00,ZBAA 181200Z AUTO 36004KT 4SM 20/10 A2968 RMK SLP048 T02050102 52018 IEM_DS3505
ZBAA,1998-04-18 13:00,ZBAA 181300Z AUTO 03002KT 2SM 19/14 A2971 RMK SLP063 T01900140 IEM_DS3505
ZBAA,1998-04-18 14:00,ZBAA 181400Z AUTO 01002KT 2SM 18/14 A2971 RMK SLP063 T01800140 IEM_DS3505
ZBAA,1998-04-18 15:00,ZBAA 181500Z AUTO 36004KT 4SM 19/14 A2971 RMK SLP069 T01870135 52021 IEM_DS3505
ZBAA,1998-04-18 16:00,ZBAA 181600Z AUTO 33004KT 2SM 17/13 A2971 RMK SLP063 T01700130 IEM_DS3505
ZBAA,1998-04-18 17:00,ZBAA 181700Z AUTO 33004KT 2SM 16/13 A2974 RMK SLP074 T01600130 IEM_DS3505
ZBAA,1998-04-18 18:00,ZBAA 181800Z AUTO 02004KT 4SM 17/12 A2974 RMK SLP074 T01690124 52005 IEM_DS3505
ZBAA,1998-04-18 19:00,ZBAA 181900Z AUTO 33004KT 1 1/2SM 15/13 A2974 RMK SLP074 T01500130 IEM_DS3505
ZBAA,1998-04-18 20:00,ZBAA 182000Z AUTO 33004KT 1 1/2SM 15/12 A2977 RMK SLP085 T01500120 IEM_DS3505
ZBAA,1998-04-18 21:00,ZBAA 182100Z AUTO 04004KT 4SM 16/12 A2977 RMK SLP084 T01610119 52010 IEM_DS3505
ZBAA,1998-04-18 23:00,ZBAA 182300Z AUTO 33006KT 1 1/4SM 16/12 A2980 RMK SLP095 T01600120 IEM_DS3505
ZBAA,1998-04-19 00:00,ZBAA 190000Z AUTO 02004KT 2 1/2SM 18/13 A2983 RMK SLP100 T01830130 52016 IEM_DS3505
ZBAA,1998-04-19 01:00,ZBAA 190100Z AUTO 03004KT 2SM 20/14 A2983 RMK SLP104 T02000140 IEM_DS3505
ZBAA,1998-04-19 02:00,ZBAA 190200Z AUTO 06004KT 3SM 23/11 A2980 RMK SLP093 T02300110 IEM_DS3505
ZBAA,1998-04-19 03:00,ZBAA 190300Z AUTO 09008KT 2 1/2SM 22/14 A2980 RMK SLP098 T02230138 57002 IEM_DS3505
ZBAA,1998-04-19 04:00,ZBAA 190400Z AUTO 11006KT 4SM 24/13 A2977 RMK SLP083 T02400130 IEM_DS3505
ZBAA,1998-04-19 05:00,ZBAA 190500Z AUTO 13006KT 4SM 24/15 A2977 RMK SLP083 T02400150 IEM_DS3505
ZBAA,1998-04-19 06:00,ZBAA 190600Z AUTO 11008KT 2 1/2SM 25/16 A2974 RMK SLP073 T02470165 57025 IEM_DS3505
ZBAA,1998-04-19 07:00,ZBAA 190700Z AUTO 14006KT 4SM 25/16 A2971 RMK SLP062 T02500160 IEM_DS3505
ZBAA,1998-04-19 08:00,ZBAA 190800Z AUTO 14006KT 3SM 25/17 A2968 RMK SLP052 T02500170 IEM_DS3505
ZBAA,1998-04-19 09:00,ZBAA 190900Z AUTO 11008KT 2 1/2SM 25/18 A2968 RMK SLP050 T02480184 57023 IEM_DS3505
ZBAA,1998-04-19 10:00,ZBAA 191000Z AUTO 11004KT 3SM 24/17 A2968 RMK SLP052 T02400170 IEM_DS3505
ZBAA,1998-04-19 11:00,ZBAA 191100Z AUTO 09002KT 2 1/2SM 23/18 A2971 RMK SLP062 T02300180 IEM_DS3505
ZBAA,1998-04-19 12:00,ZBAA 191200Z AUTO 14010KT 6SM 22/16 A2979 RMK SLP067 T02200155 52017 IEM_DS3505
ZBAA,1998-04-19 13:00,ZBAA 191300Z AUTO 13004KT 2 1/2SM 22/16 A2974 RMK SLP072 T02200160 IEM_DS3505
ZBAA,1998-04-19 14:00,ZBAA 191400Z AUTO 14008KT 2 1/2SM 20/16 A2974 RMK SLP073 T02000160 IEM_DS3505
ZBAA,1998-04-19 15:00,ZBAA 191500Z AUTO 11008KT 6SM 18/14 A2974 RMK SLP075 T01790141 52008 IEM_DS3505
ZBAA,1998-04-19 16:00,ZBAA 191600Z AUTO 11004KT 2 1/2SM 17/14 A2977 RMK SLP084 T01700140 IEM_DS3505
ZBAA,1998-04-19 17:00,ZBAA 191700Z AUTO 10004KT 2 1/2SM 17/13 A2974 RMK SLP073 T01700130 IEM_DS3505
ZBAA,1998-04-19 18:00,ZBAA 191800Z AUTO 11006KT 6SM 16/13 A2971 RMK SLP070 T01550126 57005 IEM_DS3505
ZBAA,1998-04-19 21:00,ZBAA 192100Z AUTO 04002KT 5SM 15/12 A2974 RMK SLP075 T01470119 52005 IEM_DS3505
ZBAA,1998-04-19 22:00,ZBAA 192200Z AUTO 16004KT 1 1/4SM 14/13 A2974 RMK SLP074 T01400130 IEM_DS3505
ZBAA,1998-04-19 23:00,ZBAA 192300Z AUTO 00000KT 1 1/2SM 16/13 A2977 RMK SLP085 T01600130 IEM_DS3505
ZBAA,1998-04-20 00:00,ZBAA 200000Z AUTO 04002KT 2SM 16/13 A2980 RMK SLP093 T01620132 52018 IEM_DS3505
ZBAA,1998-04-20 01:00,ZBAA 200100Z AUTO ////02KT 2SM 18/14 A2980 RMK SLP094 T01800140 IEM_DS3505
ZBAA,1998-04-20 02:00,ZBAA 200200Z AUTO 04002KT 2SM 20/14 A2980 RMK SLP094 T02000140 IEM_DS3505
ZBAA,1998-04-20 03:00,ZBAA 200300Z AUTO 07004KT 2 1/2SM 20/15 A2980 RMK SLP094 T02050153 52001 IEM_DS3505
ZBAA,1998-04-20 04:00,ZBAA 200400Z AUTO 04002KT 2SM 23/16 A2977 RMK SLP083 T02300160 IEM_DS3505
ZBAA,1998-04-20 05:00,ZBAA 200500Z AUTO 14004KT 2SM 24/17 A2974 RMK SLP072 T02400170 IEM_DS3505
ZBAA,1998-04-20 06:00,ZBAA 200600Z AUTO 14006KT 2SM 24/18 A2971 RMK SLP071 T02430182 57023 IEM_DS3505
ZBAA,1998-04-20 07:00,ZBAA 200700Z AUTO 14004KT 2SM 25/19 A2971 RMK SLP062 T02500190 IEM_DS3505
ZBAA,1998-04-20 08:00,ZBAA 200800Z AUTO 14004KT 2SM 25/20 A2968 RMK SLP052 T02500200 IEM_DS3505
ZBAA,1998-04-20 09:00,ZBAA 200900Z AUTO 04002KT 2SM 26/20 A2968 RMK SLP055 T02570197 57016 IEM_DS3505
ZBAA,1998-04-20 10:00,ZBAA 201000Z AUTO 00000KT 1 1/2SM 26/21 A2968 RMK SLP051 T02600210 IEM_DS3505
ZBAA,1998-04-20 11:00,ZBAA 201100Z AUTO 00000KT 1 1/4SM 24/20 A2968 RMK SLP052 T02400200 IEM_DS3505
ZBAA,1998-04-20 12:00,ZBAA 201200Z AUTO 00000KT 2 1/2SM 22/19 A2971 RMK SLP063 T02220194 52008 IEM_DS3505
ZBAA,1998-04-20 13:00,ZBAA 201300Z AUTO 00000KT 1 1/4SM 22/20 A2971 RMK SLP062 T02200200 IEM_DS3505
ZBAA,1998-04-20 14:00,ZBAA 201400Z AUTO 00000KT 1 1/4SM 21/19 A2971 RMK SLP062 T02100190 IEM_DS3505
ZBAA,1998-04-20 15:00,ZBAA 201500Z AUTO 00000KT 2SM 20/18 A2971 RMK SLP069 T02030182 52006 IEM_DS3505
ZBAA,1998-04-20 16:00,ZBAA 201600Z AUTO 11002KT 1 1/4SM 20/19 A2974 RMK SLP073 T02000190 IEM_DS3505
ZBAA,1998-04-20 17:00,ZBAA 201700Z AUTO 14006KT 1 1/2SM 21/19 A2974 RMK SLP073 T02100190 IEM_DS3505
ZBAA,1998-04-20 18:00,ZBAA 201800Z AUTO 16004KT 7SM 20/16 A2974 RMK SLP072 T02050162 52003 IEM_DS3505
ZBAA,1998-04-20 21:00,ZBAA 202100Z AUTO 16006KT 6SM 18/15 A2974 RMK SLP077 T01770148 52005 IEM_DS3505
ZBAA,1998-04-20 22:00,ZBAA 202200Z AUTO 10002KT 5SM 17/16 A2977 RMK SLP084 T01700160 IEM_DS3505
ZBAA,1998-04-20 23:00,ZBAA 202300Z AUTO 08002KT 5SM 18/16 A2977 RMK SLP084 T01800160 IEM_DS3505
ZBAA,1998-04-21 00:00,ZBAA 210000Z AUTO 18006KT 5SM 20/16 A2980 RMK SLP090 T02010161 52013 IEM_DS3505
ZBAA,1998-04-21 01:00,ZBAA 210100Z AUTO 14004KT 5SM 22/18 A2980 RMK SLP093 T02200180 IEM_DS3505
ZBAA,1998-04-21 02:00,ZBAA 210200Z AUTO 15004KT 5SM 23/18 A2980 RMK SLP093 T02300180 IEM_DS3505
ZBAA,1998-04-21 03:00,ZBAA 210300Z AUTO 20006KT 7SM 25/17 A2977 RMK SLP093 T02470172 52003 IEM_DS3505
ZBAA,1998-04-21 04:00,ZBAA 210400Z AUTO 16008KT 4SM 26/19 A2977 RMK SLP083 T02600190 IEM_DS3505
ZBAA,1998-04-21 05:00,ZBAA 210500Z AUTO 16010KT 4SM 27/19 A2974 RMK SLP071 T02700190 IEM_DS3505
ZBAA,1998-04-21 06:00,ZBAA 210600Z AUTO 18008KT 12SM 30/16 A2974 RMK SLP073 T02950157 57019 IEM_DS3505
ZBAA,1998-04-21 07:00,ZBAA 210700Z AUTO 19010KT 7SM 30/16 A2971 RMK SLP061 T03000160 IEM_DS3505
ZBAA,1998-04-21 08:00,ZBAA 210800Z AUTO 17008KT 7SM 30/18 A2968 RMK SLP051 T03000180 IEM_DS3505
ZBAA,1998-04-21 09:00,ZBAA 210900Z AUTO 18006KT 12SM 30/17 A2968 RMK SLP052 T02990167 57022 IEM_DS3505
ZBAA,1998-04-21 10:00,ZBAA 211000Z AUTO 15004KT 7SM 28/20 A2968 RMK SLP051 T02800200 IEM_DS3505
ZBAA,1998-04-21 11:00,ZBAA 211100Z AUTO 15002KT 7SM 27/19 A2968 RMK SLP051 T02700190 IEM_DS3505
ZBAA,1998-04-21 12:00,ZBAA 211200Z AUTO 22004KT 6SM 25/18 A2968 RMK SLP058 T02530183 52006 IEM_DS3505
ZBAA,1998-04-21 13:00,ZBAA 211300Z AUTO 12004KT 6SM 25/19 A2971 RMK SLP062 T02500190 IEM_DS3505
ZBAA,1998-04-21 14:00,ZBAA 211400Z AUTO 13004KT 5SM 23/18 A2971 RMK SLP062 T02300180 IEM_DS3505
ZBAA,1998-04-21 15:00,ZBAA 211500Z AUTO 11004KT 9SM 22/17 A2974 RMK SLP068 T02170167 52010 IEM_DS3505
ZBAA,1998-04-21 16:00,ZBAA 211600Z AUTO 12004KT 2 1/2SM 21/19 A2974 RMK SLP073 T02100190 IEM_DS3505
ZBAA,1998-04-21 17:00,ZBAA 211700Z AUTO 12008KT 2 1/2SM 21/18 A2974 RMK SLP073 T02100180 IEM_DS3505
ZBAA,1998-04-21 18:00,ZBAA 211800Z AUTO 09010KT 6SM 20/18 A2974 RMK SLP069 T02010177 52002 IEM_DS3505
ZBAA,1998-04-21 21:00,ZBAA 212100Z AUTO 09008KT 4SM 16/15 A2977 RMK 70002 SLP074 T01570147 52004 IEM_DS3505
ZBAA,1998-04-21 22:00,ZBAA 212200Z AUTO 12010KT 2SM 16/15 A2974 RMK SLP074 T01600150 IEM_DS3505
ZBAA,1998-04-21 23:00,ZBAA 212300Z AUTO 13008KT 1 1/4SM 16/16 A2974 RMK SLP074 T01600160 IEM_DS3505
ZBAA,1998-04-22 00:00,ZBAA 220000Z AUTO 18008KT 2SM 15/14 A2974 RMK 60020 70020 SLP093 T01520145 52019 IEM_DS3505
ZBAA,1998-04-22 01:00,ZBAA 220100Z AUTO 14010KT 1 1/4SM 15/15 A2977 RMK SLP085 T01500150 IEM_DS3505
ZBAA,1998-04-22 02:00,ZBAA 220200Z AUTO 16004KT 1 1/4SM 15/14 A2980 RMK SLP095 T01500140 IEM_DS3505
ZBAA,1998-04-22 03:00,ZBAA 220300Z AUTO 11008KT 5SM 14/14 A2977 RMK SLP091 T01450140 57002 IEM_DS3505
ZBAA,1998-04-22 04:00,ZBAA 220400Z AUTO 11004KT 3SM 14/14 A2977 RMK SLP085 T01400140 IEM_DS3505
ZBAA,1998-04-22 05:00,ZBAA 220500Z AUTO 12006KT 4SM 16/15 A2974 RMK SLP074 T01600150 IEM_DS3505
ZBAA,1998-04-22 06:00,ZBAA 220600Z AUTO 09006KT 11SM 15/14 A2974 RMK 60039 SLP078 T01540138 57013 IEM_DS3505
ZBAA,1998-04-22 07:00,ZBAA 220700Z AUTO 12004KT 4SM 17/15 A2971 RMK SLP063 T01700150 IEM_DS3505
ZBAA,1998-04-22 08:00,ZBAA 220800Z AUTO 13006KT 4SM 17/15 A2971 RMK SLP063 T01700150 IEM_DS3505
ZBAA,1998-04-22 09:00,ZBAA 220900Z AUTO 09004KT 12SM 16/14 A2968 RMK SLP052 T01640145 57027 IEM_DS3505
ZBAA,1998-04-22 10:00,ZBAA 221000Z AUTO 15002KT 4SM 17/15 A2965 RMK SLP043 T01700150 IEM_DS3505
ZBAA,1998-04-22 11:00,ZBAA 221100Z AUTO 32004KT 2 1/2SM 17/15 A2968 RMK SLP053 T01700150 IEM_DS3505
ZBAA,1998-04-22 12:00,ZBAA 221200Z AUTO 07004KT 6SM 16/15 A2968 RMK SLP058 T01620148 52006 IEM_DS3505
ZBAA,1998-04-22 13:00,ZBAA 221300Z AUTO 30004KT 1 1/2SM 17/15 A2971 RMK SLP063 T01700150 IEM_DS3505
ZBAA,1998-04-22 14:00,ZBAA 221400Z AUTO 00000KT 1 1/4SM 16/16 A2971 RMK SLP064 T01600160 IEM_DS3505
ZBAA,1998-04-22 15:00,ZBAA 221500Z AUTO 07002KT 6SM 16/15 A2971 RMK SLP068 T01580146 52010 IEM_DS3505
ZBAA,1998-04-22 16:00,ZBAA 221600Z AUTO 12002KT 2SM 16/15 A2971 RMK SLP064 T01600150 IEM_DS3505
ZBAA,1998-04-22 17:00,ZBAA 221700Z AUTO 00000KT 2SM 16/15 A2971 RMK SLP064 T01600150 IEM_DS3505
ZBAA,1998-04-22 18:00,ZBAA 221800Z AUTO 34002KT 2 1/2SM 16/15 A2968 RMK SLP057 T01580149 57011 IEM_DS3505
ZBAA,1998-04-22 21:00,ZBAA 222100Z AUTO 34002KT 1SM 16/15 A2965 RMK 70055 SLP054 T01550152 57003 IEM_DS3505
ZBAA,1998-04-22 22:00,ZBAA 222200Z AUTO 25002KT 1 1/4SM 16/16 A2968 RMK SLP053 T01600160 IEM_DS3505
ZBAA,1998-04-22 23:00,ZBAA 222300Z AUTO 31006KT 1SM 16/16 A2971 RMK SLP064 T01600160 IEM_DS3505
ZBAA,1998-04-23 00:00,ZBAA 230000Z AUTO 04004KT 1SM 16/15 A2971 RMK 60002 70039 SLP062 T01590154 52008 IEM_DS3505
ZBAA,1998-04-23 01:00,ZBAA 230100Z AUTO 28006KT 1SM 16/16 A2974 RMK SLP074 T01600160 IEM_DS3505
ZBAA,1998-04-23 02:00,ZBAA 230200Z AUTO 09006KT 1SM 16/16 A2968 RMK SLP053 T01600160 IEM_DS3505
ZBAA,1998-04-23 03:00,ZBAA 230300Z AUTO 32004KT 2 1/2SM 17/16 A2974 RMK SLP075 T01730161 52013 IEM_DS3505
ZBAA,1998-04-23 04:00,ZBAA 230400Z AUTO 00000KT 1 1/4SM 17/16 A2974 RMK SLP073 T01700160 IEM_DS3505
ZBAA,1998-04-23 05:00,ZBAA 230500Z AUTO 34006KT 2 1/2SM 19/16 A2971 RMK SLP063 T01900160 IEM_DS3505
ZBAA,1998-04-23 06:00,ZBAA 230600Z AUTO 34010KT 7SM 20/13 A2977 RMK 60087 SLP086 T02000128 52012 IEM_DS3505
ZBAA,1998-04-23 07:00,ZBAA 230700Z AUTO 36012KT 7SM 15/13 A2983 RMK SLP105 T01500130 IEM_DS3505
ZBAA,1998-04-23 08:00,ZBAA 230800Z AUTO 01010KT 7SM 13/11 A2988 RMK SLP123 T01300110 IEM_DS3505
ZBAA,1998-04-23 09:00,ZBAA 230900Z AUTO 04014KT 12SM 14/05 A2991 RMK SLP125 T01390052 52038 IEM_DS3505
ZBAA,1998-04-23 10:00,ZBAA 231000Z AUTO 36016KT 6SM 13/07 A2994 RMK SLP143 T01300070 IEM_DS3505
ZBAA,1998-04-23 11:00,ZBAA 231100Z AUTO 34008KT 6SM 12/06 A3000 RMK SLP163 T01200060 IEM_DS3505
ZBAA,1998-04-23 12:00,ZBAA 231200Z AUTO 34012KT 12SM 12/M00 A3006 RMK SLP177 T01231005 52052 IEM_DS3505
ZBAA,1998-04-23 13:00,ZBAA 231300Z AUTO 34010KT 6SM 11/02 A3009 RMK SLP193 T01100020 IEM_DS3505
ZBAA,1998-04-23 14:00,ZBAA 231400Z AUTO 34008KT 6SM 11/03 A3012 RMK SLP205 T01100030 IEM_DS3505
ZBAA,1998-04-23 15:00,ZBAA 231500Z AUTO 34012KT 12SM 12/M03 A3012 RMK SLP204 T01151034 52027 IEM_DS3505
ZBAA,1998-04-23 16:00,ZBAA 231600Z AUTO 01014KT 6SM 10/M03 A3015 RMK SLP215 T01001030 IEM_DS3505
ZBAA,1998-04-23 17:00,ZBAA 231700Z AUTO 36012KT 6SM 09/M04 A3018 RMK SLP225 T00901040 IEM_DS3505
ZBAA,1998-04-23 18:00,ZBAA 231800Z AUTO 34008KT 16SM 09/M07 A3024 RMK SLP218 T00941070 52014 IEM_DS3505
ZBAA,1998-04-23 20:00,ZBAA 232000Z AUTO 32012KT 6SM 07/M06 A3018 RMK SLP226 T00701060 IEM_DS3505
ZBAA,1998-04-23 21:00,ZBAA 232100Z AUTO 32010KT 19SM 08/M08 A3018 RMK 70087 SLP221 T00841075 52002 IEM_DS3505
ZBAA,1998-04-23 22:00,ZBAA 232200Z AUTO 31014KT 7SM 07/M07 A3018 RMK SLP226 T00701070 IEM_DS3505
ZBAA,1998-04-23 23:00,ZBAA 232300Z AUTO 31014KT 7SM 08/M06 A3021 RMK SLP235 T00801060 IEM_DS3505
ZBAA,1998-04-24 00:00,ZBAA 240000Z AUTO 34014KT 19SM 10/M10 A3021 RMK 70087 SLP230 T01011104 52009 IEM_DS3505
ZBAA,1998-04-24 01:00,ZBAA 240100Z AUTO 36010G19KT 7SM 12/M06 A3021 RMK SLP234 T01201060 IEM_DS3505
ZBAA,1998-04-24 02:00,ZBAA 240200Z AUTO 01014KT 7SM 12/M07 A3021 RMK SLP234 T01201070 IEM_DS3505
ZBAA,1998-04-24 03:00,ZBAA 240300Z AUTO 04006KT 19SM 13/M12 A3018 RMK SLP224 T01331121 57006 IEM_DS3505
ZBAA,1998-04-24 04:00,ZBAA 240400Z AUTO 03006KT 7SM 14/M03 A3015 RMK SLP214 T01401030 IEM_DS3505
ZBAA,1998-04-24 05:00,ZBAA 240500Z AUTO 03004KT 7SM 15/M04 A3012 RMK SLP204 T01501040 IEM_DS3505
ZBAA,1998-04-24 06:00,ZBAA 240600Z AUTO 07006KT 19SM 16/M04 A3009 RMK SLP202 T01581044 57022 IEM_DS3505
ZBAA,1998-04-24 07:00,ZBAA 240700Z AUTO 21004KT 6SM 17/M01 A3006 RMK T01701010 IEM_DS3505
ZBAA,1998-04-24 08:00,ZBAA 240800Z AUTO 15004KT 7SM 16/M03 A3003 RMK SLP172 T01601030 IEM_DS3505
ZBAA,1998-04-24 09:00,ZBAA 240900Z AUTO 16004KT 19SM 16/M01 A3000 RMK SLP172 T01551012 57030 IEM_DS3505
ZBAA,1998-04-24 10:00,ZBAA 241000Z AUTO 13002KT 7SM 16/M01 A3000 RMK SLP162 T01601010 IEM_DS3505
ZBAA,1998-04-24 11:00,ZBAA 241100Z AUTO 21006KT 7SM 15/M02 A3000 RMK SLP162 T01501020 IEM_DS3505
ZBAA,1998-04-24 12:00,ZBAA 241200Z AUTO 00000KT 19SM 13/02 A3003 RMK SLP179 T01300019 52007 IEM_DS3505
ZBAA,1998-04-24 13:00,ZBAA 241300Z AUTO 23008KT 7SM 14/M02 A3006 RMK SLP183 T01401020 IEM_DS3505
ZBAA,1998-04-24 14:00,ZBAA 241400Z AUTO 19006KT 7SM 12/00 A3006 RMK SLP183 T01200000 IEM_DS3505
ZBAA,1998-04-24 15:00,ZBAA 241500Z AUTO 22006KT 19SM 11/01 A3006 RMK SLP191 T01080009 52012 IEM_DS3505
ZBAA,1998-04-24 16:00,ZBAA 241600Z AUTO 12004KT 7SM 09/03 A3006 RMK SLP184 T00900030 IEM_DS3505
ZBAA,1998-04-24 17:00,ZBAA 241700Z AUTO 08002KT 7SM 08/04 A3006 RMK SLP184 T00800040 IEM_DS3505
ZBAA,1998-04-24 18:00,ZBAA 241800Z AUTO 18004KT 19SM 07/02 A3003 RMK SLP178 T00660025 57013 IEM_DS3505
ZBAA,1998-04-24 19:00,ZBAA 241900Z AUTO 00000KT 6SM 06/03 A3003 RMK SLP174 T00600030 IEM_DS3505
ZBAA,1998-04-24 20:00,ZBAA 242000Z AUTO 09002KT 6SM 06/03 A3003 RMK SLP174 T00600030 IEM_DS3505
ZBAA,1998-04-24 21:00,ZBAA 242100Z AUTO 18004KT 19SM 08/01 A3000 RMK SLP170 T00750013 57008 IEM_DS3505
ZBAA,1998-04-24 22:00,ZBAA 242200Z AUTO 10004KT 4SM 06/03 A3003 RMK SLP174 T00600030 IEM_DS3505
ZBAA,1998-04-24 23:00,ZBAA 242300Z AUTO 12004KT 4SM 07/04 A3003 RMK SLP174 T00700040 IEM_DS3505
ZBAA,1998-04-25 00:00,ZBAA 250000Z AUTO 20004KT 7SM 10/03 A3000 RMK SLP171 T01010029 52001 IEM_DS3505
ZBAA,1998-04-25 01:00,ZBAA 250100Z AUTO 11004KT 4SM 11/05 A3000 RMK SLP163 T01100050 IEM_DS3505
ZBAA,1998-04-25 02:00,ZBAA 250200Z AUTO 14004KT 4SM 13/05 A3000 RMK SLP163 T01300050 IEM_DS3505
ZBAA,1998-04-25 03:00,ZBAA 250300Z AUTO 20008KT 7SM 16/02 A2998 RMK SLP156 T01590023 57014 IEM_DS3505
ZBAA,1998-04-25 04:00,ZBAA 250400Z AUTO 16008KT 6SM 16/05 A2994 RMK SLP142 T01600050 IEM_DS3505
ZBAA,1998-04-25 06:00,ZBAA 250600Z AUTO 18010KT 9SM 17/02 A2988 RMK SLP127 T01720019 57029 IEM_DS3505
ZBAA,1998-04-25 07:00,ZBAA 250700Z AUTO 18012KT 6SM 18/02 A2985 RMK SLP111 T01800020 IEM_DS3505
ZBAA,1998-04-25 08:00,ZBAA 250800Z AUTO 19014KT 6SM 18/03 A2983 RMK SLP104 T01800030 IEM_DS3505
ZBAA,1998-04-25 09:00,ZBAA 250900Z AUTO 22012KT 9SM 17/06 A2980 RMK SLP102 T01710059 57025 IEM_DS3505
ZBAA,1998-04-25 10:00,ZBAA 251000Z AUTO 18010KT 6SM 17/06 A2980 RMK SLP095 T01700060 IEM_DS3505
ZBAA,1998-04-25 11:00,ZBAA 251100Z AUTO 19008KT 7SM 16/07 A2977 RMK SLP085 T01600070 IEM_DS3505
ZBAA,1998-04-25 12:00,ZBAA 251200Z AUTO 18004KT 9SM 14/08 A2980 RMK SLP094 T01430077 57008 IEM_DS3505
ZBAA,1998-04-25 13:00,ZBAA 251300Z AUTO 14004KT 7SM 13/08 A2980 RMK SLP095 T01300080 IEM_DS3505
ZBAA,1998-04-25 14:00,ZBAA 251400Z AUTO 13004KT 6SM 13/08 A2980 RMK SLP095 T01300080 IEM_DS3505
ZBAA,1998-04-25 15:00,ZBAA 251500Z AUTO 14006KT 7SM 11/07 A2980 RMK SLP099 T01140068 52005 IEM_DS3505
ZBAA,1998-04-25 16:00,ZBAA 251600Z AUTO 10002KT 6SM 12/07 A2983 RMK SLP106 T01200070 IEM_DS3505
ZBAA,1998-04-25 17:00,ZBAA 251700Z AUTO 10004KT 6SM 12/07 A2980 RMK SLP096 T01200070 IEM_DS3505
ZBAA,1998-04-25 18:00,ZBAA 251800Z AUTO 07004KT 12SM 12/08 A2980 RMK SLP093 T01190078 57006 IEM_DS3505
ZBAA,1998-04-25 20:00,ZBAA 252000Z AUTO 00000KT 4SM 12/09 A2977 RMK SLP086 T01200090 IEM_DS3505
ZBAA,1998-04-25 21:00,ZBAA 252100Z AUTO 36004KT 9SM 12/08 A2977 RMK SLP091 T01200084 57002 IEM_DS3505
ZBAA,1998-04-25 22:00,ZBAA 252200Z AUTO 12002KT 3SM 10/08 A2977 RMK SLP086 T01000080 IEM_DS3505
ZBAA,1998-04-25 23:00,ZBAA 252300Z AUTO 02002KT 2 1/2SM 11/09 A2980 RMK SLP096 T01100090 IEM_DS3505
ZBAA,1998-04-26 00:00,ZBAA 260000Z AUTO 09002KT 2 1/2SM 14/09 A2983 RMK SLP106 T01360091 52015 IEM_DS3505
ZBAA,1998-04-26 01:00,ZBAA 260100Z AUTO ////02KT 2 1/2SM 15/10 A2983 RMK SLP105 T01500100 IEM_DS3505
ZBAA,1998-04-26 02:00,ZBAA 260200Z AUTO 09004KT 2 1/2SM 16/11 A2985 RMK SLP112 T01600110 IEM_DS3505
ZBAA,1998-04-26 03:00,ZBAA 260300Z AUTO 09006KT 4SM 17/11 A2985 RMK SLP113 T01730106 52007 IEM_DS3505
ZBAA,1998-04-26 04:00,ZBAA 260400Z AUTO 14006KT 4SM 19/11 A2983 RMK SLP104 T01900110 IEM_DS3505
ZBAA,1998-04-26 05:00,ZBAA 260500Z AUTO 15008KT 4SM 20/12 A2983 RMK SLP104 T02000120 IEM_DS3505
ZBAA,1998-04-26 06:00,ZBAA 260600Z AUTO 14008KT 6SM 20/13 A2980 RMK SLP100 T01970126 57013 IEM_DS3505
ZBAA,1998-04-26 07:00,ZBAA 260700Z AUTO 15008KT 3SM 20/14 A2980 RMK SLP094 T02000140 IEM_DS3505
ZBAA,1998-04-26 08:00,ZBAA 260800Z AUTO 16006KT 2 1/2SM 20/14 A2980 RMK SLP094 T02000140 IEM_DS3505
ZBAA,1998-04-26 09:00,ZBAA 260900Z AUTO 18006KT 6SM 20/13 A2983 RMK SLP106 T01970126 52006 IEM_DS3505
ZBAA,1998-04-26 10:00,ZBAA 261000Z AUTO 14004KT 2 1/2SM 19/14 A2983 RMK SLP104 T01900140 IEM_DS3505
ZBAA,1998-04-26 11:00,ZBAA 261100Z AUTO 14004KT 2SM 18/14 A2983 RMK SLP104 T01800140 IEM_DS3505
ZBAA,1998-04-26 12:00,ZBAA 261200Z AUTO 14004KT 6SM 17/13 A2985 RMK SLP120 T01730134 52014 IEM_DS3505
ZBAA,1998-04-26 13:00,ZBAA 261300Z AUTO 13006KT 2SM 17/13 A2988 RMK SLP122 T01700130 IEM_DS3505
ZBAA,1998-04-26 14:00,ZBAA 261400Z AUTO 14006KT 2 1/2SM 15/11 A2991 RMK SLP132 T01500110 IEM_DS3505
ZBAA,1998-04-26 15:00,ZBAA 261500Z AUTO 14008KT 4SM 15/10 A2993 RMK SLP140 T01470101 52020 IEM_DS3505
ZBAA,1998-04-26 16:00,ZBAA 261600Z AUTO 11004KT 3SM 14/11 A2994 RMK SLP142 T01400110 IEM_DS3505
ZBAA,1998-04-26 17:00,ZBAA 261700Z AUTO 14002KT 2 1/2SM 14/11 A2994 RMK SLP142 T01400110 IEM_DS3505
ZBAA,1998-04-26 18:00,ZBAA 261800Z AUTO 07004KT 4SM 13/10 A2994 RMK SLP144 T01260103 52004 IEM_DS3505
ZBAA,1998-04-26 19:00,ZBAA 261900Z AUTO 11002KT 2 1/2SM 13/10 A2994 RMK SLP143 T01300100 IEM_DS3505
ZBAA,1998-04-26 20:00,ZBAA 262000Z AUTO 09002KT 2 1/2SM 12/10 A2994 RMK SLP143 T01200100 IEM_DS3505
ZBAA,1998-04-26 21:00,ZBAA 262100Z AUTO 11002KT 2 1/2SM 11/10 A2994 RMK SLP145 T01110101 52001 IEM_DS3505
ZBAA,1998-04-26 22:00,ZBAA 262200Z AUTO 00000KT 2 1/2SM 12/10 A2997 RMK SLP153 T01200100 IEM_DS3505
ZBAA,1998-04-26 23:00,ZBAA 262300Z AUTO 14004KT 2 1/2SM 12/10 A2997 RMK SLP153 T01200100 IEM_DS3505
ZBAA,1998-04-27 00:00,ZBAA 270000Z AUTO 07006KT 2 1/2SM 12/10 A2997 RMK SLP154 T01240097 52009 IEM_DS3505
ZBAA,1998-04-27 01:00,ZBAA 270100Z AUTO 12006KT 3SM 14/10 A2997 RMK SLP153 T01400100 IEM_DS3505
ZBAA,1998-04-27 02:00,ZBAA 270200Z AUTO 14006KT 3SM 14/10 A2997 RMK SLP153 T01400100 IEM_DS3505
ZBAA,1998-04-27 03:00,ZBAA 270300Z AUTO 14004KT 2 1/2SM 14/11 A3000 RMK SLP162 T01430107 52008 IEM_DS3505
ZBAA,1998-04-27 04:00,ZBAA 270400Z AUTO 11006KT 2 1/2SM 15/11 A2997 RMK SLP152 T01500110 IEM_DS3505
ZBAA,1998-04-27 05:00,ZBAA 270500Z AUTO 13006KT 2 1/2SM 15/12 A2997 RMK SLP152 T01500120 IEM_DS3505
ZBAA,1998-04-27 06:00,ZBAA 270600Z AUTO 09006KT 2 1/2SM 15/12 A2994 RMK SLP144 T01500121 57018 IEM_DS3505
ZBAA,1998-04-27 07:00,ZBAA 270700Z AUTO 11006KT 2 1/2SM 16/13 A2988 RMK T01600130 IEM_DS3505
ZBAA,1998-04-27 08:00,ZBAA 270800Z AUTO 11004KT 2 1/2SM 16/13 A2988 RMK SLP122 T01600130 IEM_DS3505
ZBAA,1998-04-27 09:00,ZBAA 270900Z AUTO 07004KT 2 1/2SM 15/12 A2988 RMK SLP124 T01520123 57020 IEM_DS3505
ZBAA,1998-04-27 10:00,ZBAA 271000Z AUTO 11002KT 2 1/2SM 15/12 A2988 RMK SLP122 T01500120 IEM_DS3505
ZBAA,1998-04-27 11:00,ZBAA 271100Z AUTO 10002KT 2 1/2SM 15/13 A2988 RMK SLP122 T01500130 IEM_DS3505
ZBAA,1998-04-27 12:00,ZBAA 271200Z AUTO 09004KT 2 1/2SM 14/13 A2991 RMK 60001 SLP137 T01370126 52013 IEM_DS3505
ZBAA,1998-04-27 13:00,ZBAA 271300Z AUTO 13002KT 1 1/2SM 13/13 A2994 RMK SLP143 T01300130 IEM_DS3505
ZBAA,1998-04-27 14:00,ZBAA 271400Z AUTO 01002KT 1 1/4SM 13/13 A2994 RMK SLP143 T01300130 IEM_DS3505
ZBAA,1998-04-27 15:00,ZBAA 271500Z AUTO 04004KT 3SM 13/12 A2994 RMK SLP147 T01310124 52010 IEM_DS3505
ZBAA,1998-04-27 16:00,ZBAA 271600Z AUTO 36004KT 1SM 13/13 A2994 RMK SLP143 T01300130 IEM_DS3505
ZBAA,1998-04-27 17:00,ZBAA 271700Z AUTO 35006KT 1SM 13/13 A2994 RMK SLP143 T01300130 IEM_DS3505
ZBAA,1998-04-27 18:00,ZBAA 271800Z AUTO 04006KT 3SM 13/13 A2994 RMK 60020 SLP144 T01320127 57003 IEM_DS3505
ZBAA,1998-04-27 21:00,ZBAA 272100Z AUTO 07006KT 3SM 12/11 A2991 RMK 70028 SLP139 T01250114 57005 IEM_DS3505
ZBAA,1998-04-27 22:00,ZBAA 272200Z AUTO 15002KT 1/2SM 13/13 A2991 RMK SLP133 T01300130 IEM_DS3505
ZBAA,1998-04-27 23:00,ZBAA 272300Z AUTO 00000KT 1SM 13/13 A2991 RMK SLP133 T01300130 IEM_DS3505
ZBAA,1998-04-28 00:00,ZBAA 280000Z AUTO 07006KT 1 1/4SM 12/12 A2994 RMK 60008 70028 SLP146 T01250118 52007 IEM_DS3505
ZBAA,1998-04-28 01:00,ZBAA 280100Z AUTO 00000KT 1SM 13/13 A2994 RMK SLP143 T01300130 IEM_DS3505
ZBAA,1998-04-28 02:00,ZBAA 280200Z AUTO 29008KT 1SM 13/13 A3000 RMK SLP163 T01300130 IEM_DS3505
ZBAA,1998-04-28 03:00,ZBAA 280300Z AUTO 11008KT 1 1/4SM 13/13 A2994 RMK SLP151 T01320128 52005 IEM_DS3505
ZBAA,1998-04-28 04:00,ZBAA 280400Z AUTO 34004KT 1SM 14/14 A2997 RMK SLP153 T01400140 IEM_DS3505
ZBAA,1998-04-28 05:00,ZBAA 280500Z AUTO 35004KT 1SM 15/14 A3000 RMK SLP162 T01500140 IEM_DS3505
ZBAA,1998-04-28 06:00,ZBAA 280600Z AUTO 07002KT 1 1/4SM 14/13 A3000 RMK 60008 SLP166 T01380134 52015 IEM_DS3505
ZBAA,1998-04-28 07:00,ZBAA 280700Z AUTO 03008KT 4SM 14/14 A3003 RMK SLP173 T01400140 IEM_DS3505
ZBAA,1998-04-28 08:00,ZBAA 280800Z AUTO 08004KT 7SM 14/13 A3003 RMK SLP173 T01400130 IEM_DS3505
ZBAA,1998-04-28 09:00,ZBAA 280900Z AUTO 04006KT 2 1/2SM 14/13 A3006 RMK SLP188 T01420131 52022 IEM_DS3505
ZBAA,1998-04-28 10:00,ZBAA 281000Z AUTO 04004KT 7SM 14/13 A3012 RMK SLP204 T01400130 IEM_DS3505
ZBAA,1998-04-28 12:00,ZBAA 281200Z AUTO 07004KT 2SM 13/12 A3015 RMK 60012 SLP223 T01330124 52034 IEM_DS3505
ZBAA,1998-04-28 13:00,ZBAA 281300Z AUTO 04004KT 7SM 14/11 A3018 RMK SLP224 T01400110 IEM_DS3505
ZBAA,1998-04-28 14:00,ZBAA 281400Z AUTO ////02KT 7SM 14/10 A3021 RMK SLP234 T01400100 IEM_DS3505
ZBAA,1998-04-28 15:00,ZBAA 281500Z AUTO 04004KT 6SM 13/10 A3024 RMK SLP235 T01330100 52012 IEM_DS3505
ZBAA,1998-04-28 16:00,ZBAA 281600Z AUTO 02004KT 7SM 13/10 A3021 RMK SLP234 T01300100 IEM_DS3505
ZBAA,1998-04-28 17:00,ZBAA 281700Z AUTO 34004KT 7SM 13/10 A3021 RMK SLP234 T01300100 IEM_DS3505
ZBAA,1998-04-28 18:00,ZBAA 281800Z AUTO 34004KT 9SM 14/08 A3018 RMK 60000 SLP231 T01370083 57004 IEM_DS3505
ZBAA,1998-04-28 19:00,ZBAA 281900Z AUTO 34006KT 6SM 13/10 A3018 RMK SLP224 T01300100 IEM_DS3505
ZBAA,1998-04-28 20:00,ZBAA 282000Z AUTO 35004KT 6SM 12/10 A3021 RMK SLP234 T01200100 IEM_DS3505
ZBAA,1998-04-28 21:00,ZBAA 282100Z AUTO 02004KT 12SM 14/08 A3018 RMK 70020 SLP227 T01360079 57003 IEM_DS3505
ZBAA,1998-04-28 22:00,ZBAA 282200Z AUTO 35004KT 6SM 12/10 A3021 RMK SLP234 T01200100 IEM_DS3505
ZBAA,1998-04-28 23:00,ZBAA 282300Z AUTO 36004KT 6SM 13/10 A3021 RMK SLP234 T01300100 IEM_DS3505
ZBAA,1998-04-29 00:00,ZBAA 290000Z AUTO 00000KT 6SM 13/09 A3021 RMK 70020 SLP238 T01320093 52010 IEM_DS3505
ZBAA,1998-04-29 01:00,ZBAA 290100Z AUTO 31006KT 6SM 14/10 A3024 RMK SLP244 T01400100 IEM_DS3505
ZBAA,1998-04-29 02:00,ZBAA 290200Z AUTO 31008KT 7SM 14/10 A3027 RMK SLP254 T01400100 IEM_DS3505
ZBAA,1998-04-29 03:00,ZBAA 290300Z AUTO 34004KT 5SM 13/10 A3027 RMK SLP250 T01320101 52012 IEM_DS3505
ZBAA,1998-04-29 04:00,ZBAA 290400Z AUTO 32010KT 6SM 14/11 A3027 RMK SLP254 T01400110 IEM_DS3505
ZBAA,1998-04-29 05:00,ZBAA 290500Z AUTO 34008KT 6SM 14/11 A3024 RMK SLP244 T01400110 IEM_DS3505
ZBAA,1998-04-29 06:00,ZBAA 290600Z AUTO 34006KT 9SM 15/08 A3027 RMK 60002 SLP229 T01490081 57020 IEM_DS3505
ZBAA,1998-04-29 07:00,ZBAA 290700Z AUTO 01008KT 6SM 15/09 A3018 RMK SLP224 T01500090 IEM_DS3505
ZBAA,1998-04-29 08:00,ZBAA 290800Z AUTO 01006KT 6SM 15/10 A3018 RMK SLP224 T01500100 IEM_DS3505
ZBAA,1998-04-29 09:00,ZBAA 290900Z AUTO 34006KT 12SM 15/08 A3015 RMK SLP219 T01500080 57010 IEM_DS3505
ZBAA,1998-04-29 10:00,ZBAA 291000Z AUTO 02004KT 6SM 15/09 A3015 RMK SLP214 T01500090 IEM_DS3505
ZBAA,1998-04-29 11:00,ZBAA 291100Z AUTO 36004KT 6SM 14/09 A3015 RMK SLP214 T01400090 IEM_DS3505
ZBAA,1998-04-29 12:00,ZBAA 291200Z AUTO 34004KT 8SM 14/08 A3015 RMK SLP218 T01440082 57001 IEM_DS3505
ZBAA,1998-04-29 13:00,ZBAA 291300Z AUTO 02006KT 6SM 14/09 A3018 RMK SLP224 T01400090 IEM_DS3505
ZBAA,1998-04-29 14:00,ZBAA 291400Z AUTO 02006KT 6SM 14/09 A3018 RMK SLP224 T01400090 IEM_DS3505
ZBAA,1998-04-29 15:00,ZBAA 291500Z AUTO 02006KT 6SM 14/09 A3015 RMK SLP214 T01400090 IEM_DS3505
ZBAA,1998-04-29 16:00,ZBAA 291600Z AUTO 36004KT 6SM 14/09 A3015 RMK SLP214 T01400090 IEM_DS3505
ZBAA,1998-04-29 17:00,ZBAA 291700Z AUTO 34004KT 6SM 13/09 A3012 RMK SLP204 T01300090 IEM_DS3505
ZBAA,1998-04-29 18:00,ZBAA 291800Z AUTO 34004KT 6SM 13/08 A3012 RMK SLP205 T01340082 57011 IEM_DS3505
ZBAA,1998-04-29 19:00,ZBAA 291900Z AUTO 35006KT 6SM 13/09 A3009 RMK SLP193 T01300090 IEM_DS3505
ZBAA,1998-04-29 20:00,ZBAA 292000Z AUTO 35006KT 6SM 13/09 A3009 RMK SLP193 T01300090 IEM_DS3505
ZBAA,1998-04-29 21:00,ZBAA 292100Z AUTO 00000KT 6SM 13/09 A3006 RMK 70002 SLP191 T01300088 57014 IEM_DS3505
ZBAA,1998-04-29 22:00,ZBAA 292200Z AUTO 35006KT 6SM 13/09 A3009 RMK SLP193 T01300090 IEM_DS3505
ZBAA,1998-04-29 23:00,ZBAA 292300Z AUTO 01004KT 6SM 13/09 A3009 RMK SLP193 T01300090 IEM_DS3505
ZBAA,1998-04-30 00:00,ZBAA 300000Z AUTO 34004KT 6SM 14/09 A3009 RMK 70002 SLP192 T01380091 52001 IEM_DS3505
ZBAA,1998-04-30 01:00,ZBAA 300100Z AUTO 01006KT 6SM 15/10 A3009 RMK SLP193 T01500100 IEM_DS3505
ZBAA,1998-04-30 02:00,ZBAA 300200Z AUTO 02004KT 6SM 16/10 A3006 RMK SLP182 T01600100 IEM_DS3505
ZBAA,1998-04-30 03:00,ZBAA 300300Z AUTO 11004KT 9SM 18/09 A3006 RMK SLP186 T01770088 57006 IEM_DS3505
ZBAA,1998-04-30 04:00,ZBAA 300400Z AUTO ////02KT 6SM 18/10 A3003 RMK SLP172 T01800100 IEM_DS3505
ZBAA,1998-04-30 05:00,ZBAA 300500Z AUTO ////02KT 6SM 19/08 A3000 RMK SLP161 T01900080 IEM_DS3505
ZBAA,1998-04-30 06:00,ZBAA 300600Z AUTO 14008KT 12SM 19/11 A3000 RMK SLP162 T01870106 57024 IEM_DS3505
ZBAA,1998-04-30 07:00,ZBAA 300700Z AUTO 14004KT 6SM 19/12 A2997 RMK SLP151 T01900120 IEM_DS3505
ZBAA,1998-04-30 08:00,ZBAA 300800Z AUTO 14006KT 6SM 19/12 A2994 RMK SLP141 T01900120 IEM_DS3505
ZBAA,1998-04-30 09:00,ZBAA 300900Z AUTO 14006KT 12SM 18/13 A2991 RMK SLP138 T01790129 57024 IEM_DS3505
ZBAA,1998-04-30 10:00,ZBAA 301000Z AUTO 16006KT 4SM 18/13 A2991 RMK SLP132 T01800130 IEM_DS3505
ZBAA,1998-04-30 11:00,ZBAA 301100Z AUTO 16002KT 3SM 17/14 A2991 RMK SLP132 T01700140 IEM_DS3505
ZBAA,1998-04-30 12:00,ZBAA 301200Z AUTO 09004KT 6SM 16/14 A2991 RMK SLP133 T01610136 57005 IEM_DS3505
ZBAA,1998-04-30 13:00,ZBAA 301300Z AUTO 00000KT 3SM 16/14 A2991 RMK SLP132 T01600140 IEM_DS3505
ZBAA,1998-04-30 14:00,ZBAA 301400Z AUTO 00000KT 2 1/2SM 16/15 A2991 RMK SLP132 T01600150 IEM_DS3505
ZBAA,1998-04-30 15:00,ZBAA 301500Z AUTO 09004KT 4SM 16/14 A2988 RMK SLP124 T01580139 57009 IEM_DS3505
ZBAA,1998-04-30 16:00,ZBAA 301600Z AUTO 11002KT 2SM 16/15 A2985 RMK SLP112 T01600150 IEM_DS3505
ZBAA,1998-04-30 17:00,ZBAA 301700Z AUTO 11006KT 1 1/4SM 15/15 A2983 RMK SLP105 T01500150 IEM_DS3505
ZBAA,1998-04-30 18:00,ZBAA 301800Z AUTO 09002KT 2 1/2SM 15/14 A2980 RMK 60028 SLP096 T01480145 57028 IEM_DS3505
ZBAA,1998-04-30 19:00,ZBAA 301900Z AUTO 12002KT 1 1/4SM 14/14 A2977 RMK SLP085 T01400140 IEM_DS3505
ZBAA,1998-04-30 20:00,ZBAA 302000Z AUTO 00000KT 1 1/4SM 14/14 A2974 RMK SLP074 T01400140 IEM_DS3505
ZBAA,1998-04-30 21:00,ZBAA 302100Z AUTO 09004KT 2 1/2SM 14/13 A2974 RMK 70059 SLP072 T01380134 57024 IEM_DS3505
ZBAA,1998-04-30 22:00,ZBAA 302200Z AUTO 00000KT 1 1/4SM 14/14 A2971 RMK SLP064 T01400140 IEM_DS3505
ZBAA,1998-04-30 23:00,ZBAA 302300Z AUTO 12004KT 2SM 14/14 A2971 RMK SLP064 T01400140 IEM_DS3505
ZBAA,1998-05-01 00:00,ZBAA 010000Z AUTO 07004KT 3SM 14/13 A2971 RMK 60043 70071 SLP069 T01360131 57003 IEM_DS3505
ZBAA,1998-05-01 01:00,ZBAA 010100Z AUTO 13002KT 2 1/2SM 14/14 A2971 RMK SLP064 T01400140 IEM_DS3505
ZBAA,1998-05-01 02:00,ZBAA 010200Z AUTO 14002KT 2 1/2SM 15/15 A2968 RMK SLP054 T01500150 IEM_DS3505
ZBAA,1998-05-01 03:00,ZBAA 010300Z AUTO 14004KT 6SM 15/14 A2968 RMK SLP061 T01530139 57008 IEM_DS3505
ZBAA,1998-05-01 04:00,ZBAA 010400Z AUTO ////02KT 2 1/2SM 17/16 A2965 RMK SLP043 T01700160 IEM_DS3505
ZBAA,1998-05-01 05:00,ZBAA 010500Z AUTO 16004KT 3SM 18/16 A2962 RMK SLP033 T01800160 IEM_DS3505
ZBAA,1998-05-01 06:00,ZBAA 010600Z AUTO 22002KT 6SM 18/15 A2962 RMK 60008 SLP036 T01850151 57024 IEM_DS3505
ZBAA,1998-05-01 07:00,ZBAA 010700Z AUTO 13002KT 3SM 18/16 A2959 RMK SLP023 T01800160 IEM_DS3505
ZBAA,1998-05-01 08:00,ZBAA 010800Z AUTO 16004KT 2 1/2SM 19/16 A2956 RMK SLP013 T01900160 IEM_DS3505
ZBAA,1998-05-01 09:00,ZBAA 010900Z AUTO 22004KT 5SM 20/16 A2956 RMK SLP019 T01970155 57017 IEM_DS3505
ZBAA,1998-05-01 10:00,ZBAA 011000Z AUTO 00000KT 1 1/4SM 19/17 A2956 RMK SLP013 T01900170 IEM_DS3505
ZBAA,1998-05-01 11:00,ZBAA 011100Z AUTO 13002KT 1 1/4SM 19/17 A2959 RMK SLP023 T01900170 IEM_DS3505
ZBAA,1998-05-01 12:00,ZBAA 011200Z AUTO 00000KT 4SM 18/16 A2962 RMK SLP028 T01830160 52009 IEM_DS3505
ZBAA,1998-05-01 13:00,ZBAA 011300Z AUTO ////02KT 1 1/4SM 17/16 A2962 RMK SLP033 T01700160 IEM_DS3505
ZBAA,1998-05-01 14:00,ZBAA 011400Z AUTO 30006KT 1SM 17/17 A2965 RMK SLP043 T01700170 IEM_DS3505
ZBAA,1998-05-01 15:00,ZBAA 011500Z AUTO 26004KT 1SM 17/17 A2962 RMK SLP033 T01700170 IEM_DS3505
ZBAA,1998-05-01 16:00,ZBAA 011600Z AUTO 28004KT 1SM 17/16 A2962 RMK SLP033 T01700160 IEM_DS3505
ZBAA,1998-05-01 18:00,ZBAA 011800Z AUTO 27004KT 2 1/2SM 16/14 A2959 RMK SLP032 T01550141 57008 IEM_DS3505
ZBAA,1998-05-01 19:00,ZBAA 011900Z AUTO 34002KT 4SM 15/12 A2959 RMK SLP024 T01500120 IEM_DS3505
ZBAA,1998-05-01 20:00,ZBAA 012000Z AUTO 29008KT 7SM 17/10 A2962 RMK SLP033 T01700100 IEM_DS3505
ZBAA,1998-05-01 21:00,ZBAA 012100Z AUTO 00000KT 6SM 13/11 A2962 RMK 70016 SLP040 T01300113 52008 IEM_DS3505
ZBAA,1998-05-01 22:00,ZBAA 012200Z AUTO 33008KT 6SM 15/12 A2965 RMK SLP044 T01500120 IEM_DS3505
ZBAA,1998-05-01 23:00,ZBAA 012300Z AUTO 32010KT 7SM 18/11 A2968 RMK SLP053 T01800110 IEM_DS3505
ZBAA,1998-05-02 00:00,ZBAA 020000Z AUTO 32008KT 9SM 19/09 A2971 RMK 70008 SLP059 T01900090 52019 IEM_DS3505
ZBAA,1998-05-02 01:00,ZBAA 020100Z AUTO 33017KT 6SM 21/10 A2971 RMK SLP062 T02100100 IEM_DS3505
ZBAA,1998-05-02 02:00,ZBAA 020200Z AUTO 36016KT 6SM 20/10 A2977 RMK SLP084 T02000100 IEM_DS3505
ZBAA,1998-05-02 03:00,ZBAA 020300Z AUTO 36012G29KT 12SM 20/07 A2980 RMK SLP094 T02040074 52035 IEM_DS3505
ZBAA,1998-05-02 04:00,ZBAA 020400Z AUTO 01017G29KT 6SM 19/10 A2983 RMK SLP104 T01900100 IEM_DS3505
ZBAA,1998-05-02 05:00,ZBAA 020500Z AUTO 01016G25KT 6SM 19/11 A2985 RMK SLP111 T01900110 IEM_DS3505
ZBAA,1998-05-02 06:00,ZBAA 020600Z AUTO 02010KT 19SM 19/08 A2988 RMK SLP126 T01900082 52031 IEM_DS3505
ZBAA,1998-05-02 07:00,ZBAA 020700Z AUTO 02012G21KT 6SM 18/11 A2991 RMK SLP132 T01800110 IEM_DS3505
ZBAA,1998-05-02 08:00,ZBAA 020800Z AUTO 03006KT 6SM 19/11 A2991 RMK SLP131 T01900110 IEM_DS3505
ZBAA,1998-05-02 09:00,ZBAA 020900Z AUTO 04004KT 12SM 19/10 A2991 RMK SLP138 T01860100 52012 IEM_DS3505
ZBAA,1998-05-02 10:00,ZBAA 021000Z AUTO 03002KT 7SM 20/11 A2991 RMK SLP131 T02000110 IEM_DS3505
ZBAA,1998-05-02 11:00,ZBAA 021100Z AUTO 00000KT 7SM 19/11 A2991 RMK SLP131 T01900110 IEM_DS3505
ZBAA,1998-05-02 12:00,ZBAA 021200Z AUTO 00000KT 12SM 16/11 A2994 RMK SLP147 T01630109 52009 IEM_DS3505
ZBAA,1998-05-02 13:00,ZBAA 021300Z AUTO 29002KT 7SM 16/12 A2997 RMK SLP152 T01600120 IEM_DS3505
ZBAA,1998-05-02 14:00,ZBAA 021400Z AUTO 27004KT 7SM 17/11 A2997 RMK SLP152 T01700110 IEM_DS3505
ZBAA,1998-05-02 15:00,ZBAA 021500Z AUTO 25004KT 11SM 15/11 A3000 RMK SLP164 T01460112 52017 IEM_DS3505
ZBAA,1998-05-02 16:00,ZBAA 021600Z AUTO 08002KT 7SM 13/11 A3000 RMK SLP163 T01300110 IEM_DS3505
ZBAA,1998-05-02 17:00,ZBAA 021700Z AUTO 00000KT 7SM 12/11 A3000 RMK SLP163 T01200110 IEM_DS3505
ZBAA,1998-05-02 18:00,ZBAA 021800Z AUTO 25004KT 6SM 14/11 A3000 RMK SLP169 T01390109 52005 IEM_DS3505
ZBAA,1998-05-02 19:00,ZBAA 021900Z AUTO 01002KT 7SM 12/11 A3003 RMK SLP173 T01200110 IEM_DS3505
ZBAA,1998-05-02 20:00,ZBAA 022000Z AUTO 00000KT 7SM 11/10 A3003 RMK SLP173 T01100100 IEM_DS3505
ZBAA,1998-05-02 21:00,ZBAA 022100Z AUTO 07002KT 6SM 11/10 A3003 RMK SLP176 T01110101 52007 IEM_DS3505
ZBAA,1998-05-02 22:00,ZBAA 022200Z AUTO 34004KT 6SM 11/10 A3006 RMK SLP183 T01100100 IEM_DS3505
ZBAA,1998-05-02 23:00,ZBAA 022300Z AUTO 36004KT 7SM 12/11 A3006 RMK SLP183 T01200110 IEM_DS3505
ZBAA,1998-05-03 00:00,ZBAA 030000Z AUTO 07004KT 4SM 16/12 A3006 RMK SLP190 T01630119 52014 IEM_DS3505
ZBAA,1998-05-03 01:00,ZBAA 030100Z AUTO ////02KT 7SM 17/13 A3006 RMK SLP182 T01700130 IEM_DS3505
ZBAA,1998-05-03 02:00,ZBAA 030200Z AUTO 09004KT 6SM 19/14 A3006 RMK SLP182 T01900140 IEM_DS3505
ZBAA,1998-05-03 03:00,ZBAA 030300Z AUTO 11004KT 5SM 21/12 A3006 RMK SLP186 T02130125 57004 IEM_DS3505
ZBAA,1998-05-03 04:00,ZBAA 030400Z AUTO 15006KT 6SM 22/16 A3003 RMK SLP171 T02200160 IEM_DS3505
ZBAA,1998-05-03 05:00,ZBAA 030500Z AUTO 18008KT 6SM 23/12 A3003 RMK SLP171 T02300120 IEM_DS3505
ZBAA,1998-05-03 06:00,ZBAA 030600Z AUTO 22006KT 9SM 24/12 A3008 RMK SLP165 T02400117 57021 IEM_DS3505
ZBAA,1998-05-03 07:00,ZBAA 030700Z AUTO 18010KT 6SM 24/12 A2997 RMK SLP150 T02400120 IEM_DS3505
ZBAA,1998-05-03 08:00,ZBAA 030800Z AUTO 17008KT 6SM 24/13 A2994 RMK SLP140 T02400130 IEM_DS3505
ZBAA,1998-05-03 09:00,ZBAA 030900Z AUTO 20010KT 7SM 24/12 A2994 RMK SLP150 T02370120 57015 IEM_DS3505
ZBAA,1998-05-03 10:00,ZBAA 031000Z AUTO 18010KT 7SM 23/13 A2994 RMK SLP141 T02300130 IEM_DS3505
ZBAA,1998-05-03 11:00,ZBAA 031100Z AUTO 18006KT 6SM 21/13 A2994 RMK SLP141 T02100130 IEM_DS3505
ZBAA,1998-05-03 12:00,ZBAA 031200Z AUTO 18002KT 9SM 20/14 A2994 RMK SLP148 T02050136 57002 IEM_DS3505
ZBAA,1998-05-03 13:00,ZBAA 031300Z AUTO 16004KT 6SM 19/14 A2997 RMK SLP151 T01900140 IEM_DS3505
ZBAA,1998-05-03 14:00,ZBAA 031400Z AUTO 12004KT 6SM 18/14 A2997 RMK SLP152 T01800140 IEM_DS3505
ZBAA,1998-05-03 15:00,ZBAA 031500Z AUTO 16006KT 9SM 18/13 A2997 RMK SLP156 T01840129 52009 IEM_DS3505
ZBAA,1998-05-03 16:00,ZBAA 031600Z AUTO 16004KT 6SM 17/13 A2997 RMK SLP152 T01700130 IEM_DS3505
ZBAA,1998-05-03 17:00,ZBAA 031700Z AUTO 15004KT 6SM 17/13 A2997 RMK SLP152 T01700130 IEM_DS3505
ZBAA,1998-05-03 18:00,ZBAA 031800Z AUTO 20004KT 9SM 17/12 A2994 RMK SLP150 T01670118 57006 IEM_DS3505
ZBAA,1998-05-03 19:00,ZBAA 031900Z AUTO 14004KT 6SM 15/12 A2994 RMK SLP142 T01500120 IEM_DS3505
ZBAA,1998-05-03 20:00,ZBAA 032000Z AUTO 11002KT 7SM 15/12 A2997 RMK SLP152 T01500120 IEM_DS3505
ZBAA,1998-05-03 21:00,ZBAA 032100Z AUTO 00000KT 6SM 13/11 A2997 RMK SLP154 T01320107 52003 IEM_DS3505
ZBAA,1998-05-03 22:00,ZBAA 032200Z AUTO 11004KT 5SM 14/12 A3000 RMK SLP163 T01400120 IEM_DS3505
ZBAA,1998-05-03 23:00,ZBAA 032300Z AUTO 12004KT 4SM 14/13 A3000 RMK SLP163 T01400130 IEM_DS3505
ZBAA,1998-05-04 00:00,ZBAA 040000Z AUTO 09004KT 6SM 16/11 A3003 RMK SLP172 T01650109 52018 IEM_DS3505
ZBAA,1998-05-04 01:00,ZBAA 040100Z AUTO 13006KT 5SM 18/13 A3003 RMK SLP172 T01800130 IEM_DS3505
ZBAA,1998-05-04 02:00,ZBAA 040200Z AUTO ////04KT 5SM 19/12 A3003 RMK SLP172 T01900120 IEM_DS3505
ZBAA,1998-05-04 03:00,ZBAA 040300Z AUTO 14006KT 6SM 20/12 A3003 RMK SLP174 T02000120 52002 IEM_DS3505
ZBAA,1998-05-04 04:00,ZBAA 040400Z AUTO 16006KT 7SM 21/13 A3000 RMK SLP161 T02100130 IEM_DS3505
ZBAA,1998-05-04 05:00,ZBAA 040500Z AUTO 14006KT 7SM 22/15 A2997 RMK SLP151 T02200150 IEM_DS3505
ZBAA,1998-05-04 06:00,ZBAA 040600Z AUTO 20010KT 6SM 24/14 A2997 RMK SLP156 T02380138 57017 IEM_DS3505
ZBAA,1998-05-04 07:00,ZBAA 040700Z AUTO 17008KT 7SM 24/17 A2994 RMK SLP140 T02400170 IEM_DS3505
ZBAA,1998-05-04 08:00,ZBAA 040800Z AUTO 14006KT 6SM 23/16 A2994 RMK SLP141 T02300160 IEM_DS3505
ZBAA,1998-05-04 09:00,ZBAA 040900Z AUTO 20008KT 6SM 24/14 A2994 RMK SLP145 T02450137 57012 IEM_DS3505
ZBAA,1998-05-04 10:00,ZBAA 041000Z AUTO 14006KT 6SM 22/15 A2994 RMK SLP141 T02200150 IEM_DS3505
ZBAA,1998-05-04 11:00,ZBAA 041100Z AUTO 14006KT 6SM 21/13 A2994 RMK SLP141 T02100130 IEM_DS3505
ZBAA,1998-05-04 12:00,ZBAA 041200Z AUTO 11008KT 7SM 19/12 A2994 RMK SLP150 T01890121 52005 IEM_DS3505
ZBAA,1998-05-04 13:00,ZBAA 041300Z AUTO 14006KT 7SM 18/12 A2997 RMK SLP152 T01800120 IEM_DS3505
ZBAA,1998-05-04 14:00,ZBAA 041400Z AUTO 14004KT 7SM 17/12 A3000 RMK SLP162 T01700120 IEM_DS3505
ZBAA,1998-05-04 15:00,ZBAA 041500Z AUTO 11004KT 6SM 15/11 A3000 RMK SLP160 T01530114 52010 IEM_DS3505
ZBAA,1998-05-04 16:00,ZBAA 041600Z AUTO 00000KT 6SM 16/09 A3000 RMK SLP162 T01600090 IEM_DS3505
ZBAA,1998-05-04 17:00,ZBAA 041700Z AUTO 06002KT 6SM 15/10 A3000 RMK SLP162 T01500100 IEM_DS3505
ZBAA,1998-05-04 18:00,ZBAA 041800Z AUTO 07004KT 6SM 14/11 A2997 RMK SLP158 T01380106 57002 IEM_DS3505
ZBAA,1998-05-04 19:00,ZBAA 041900Z AUTO 14002KT 6SM 15/11 A2997 RMK SLP152 T01500110 IEM_DS3505
ZBAA,1998-05-04 20:00,ZBAA 042000Z AUTO 12002KT 6SM 15/11 A3000 RMK SLP162 T01500110 IEM_DS3505
ZBAA,1998-05-04 21:00,ZBAA 042100Z AUTO 07004KT 5SM 14/12 A3000 RMK SLP164 T01370116 52006 IEM_DS3505
ZBAA,1998-05-04 22:00,ZBAA 042200Z AUTO 15002KT 4SM 14/12 A3003 RMK SLP173 T01400120 IEM_DS3505
ZBAA,1998-05-04 23:00,ZBAA 042300Z AUTO 13004KT 4SM 15/13 A3003 RMK SLP172 T01500130 IEM_DS3505
ZBAA,1998-05-05 00:00,ZBAA 050000Z AUTO 09004KT 4SM 15/13 A3003 RMK SLP175 T01540133 52011 IEM_DS3505
ZBAA,1998-05-05 01:00,ZBAA 050100Z AUTO 10002KT 2SM 16/14 A3006 RMK SLP182 T01600140 IEM_DS3505
ZBAA,1998-05-05 02:00,ZBAA 050200Z AUTO ////02KT 2SM 17/15 A3003 RMK SLP172 T01700150 IEM_DS3505
ZBAA,1998-05-05 03:00,ZBAA 050300Z AUTO 14004KT 4SM 20/15 A3003 RMK SLP175 T01990150 54000 IEM_DS3505
ZBAA,1998-05-05 04:00,ZBAA 050400Z AUTO 11004KT 2SM 21/17 A3000 RMK SLP161 T02100170 IEM_DS3505
ZBAA,1998-05-05 05:00,ZBAA 050500Z AUTO 16008KT 2 1/2SM 23/17 A2997 RMK SLP151 T02300170 IEM_DS3505
ZBAA,1998-05-05 06:00,ZBAA 050600Z AUTO 20008KT 6SM 25/14 A2997 RMK SLP152 T02510136 57022 IEM_DS3505
ZBAA,1998-05-05 07:00,ZBAA 050700Z AUTO 17008KT 5SM 26/15 A2994 RMK SLP140 T02600150 IEM_DS3505
ZBAA,1998-05-05 08:00,ZBAA 050800Z AUTO 15006KT 5SM 26/14 A2991 RMK SLP130 T02600140 IEM_DS3505
ZBAA,1998-05-05 09:00,ZBAA 050900Z AUTO 18010KT 7SM 26/12 A2991 RMK SLP142 T02610119 57010 IEM_DS3505
ZBAA,1998-05-05 10:00,ZBAA 051000Z AUTO 16006KT 6SM 24/14 A2994 RMK SLP140 T02400140 IEM_DS3505
ZBAA,1998-05-05 11:00,ZBAA 051100Z AUTO 16004KT 7SM 23/14 A2994 RMK SLP141 T02300140 IEM_DS3505
ZBAA,1998-05-05 12:00,ZBAA 051200Z AUTO 22002KT 7SM 22/15 A2994 RMK SLP149 T02190148 52006 IEM_DS3505
ZBAA,1998-05-05 13:00,ZBAA 051300Z AUTO 12006KT 4SM 20/17 A2997 RMK SLP151 T02000170 IEM_DS3505
ZBAA,1998-05-05 14:00,ZBAA 051400Z AUTO 12006KT 2 1/2SM 19/17 A2997 RMK SLP151 T01900170 IEM_DS3505
ZBAA,1998-05-05 15:00,ZBAA 051500Z AUTO 09004KT 7SM 17/14 A2997 RMK SLP158 T01730136 52009 IEM_DS3505
ZBAA,1998-05-05 16:00,ZBAA 051600Z AUTO 12006KT 2 1/2SM 18/16 A2997 RMK SLP152 T01800160 IEM_DS3505
ZBAA,1998-05-05 17:00,ZBAA 051700Z AUTO 12006KT 2 1/2SM 17/15 A2997 RMK SLP152 T01700150 IEM_DS3505
ZBAA,1998-05-05 18:00,ZBAA 051800Z AUTO 11004KT 6SM 16/15 A2997 RMK SLP153 T01610147 57004 IEM_DS3505
ZBAA,1998-05-05 21:00,ZBAA 052100Z AUTO 09004KT 4SM 15/13 A2996 RMK SLP150 T01500134 57003 IEM_DS3505
ZBAA,1998-05-05 22:00,ZBAA 052200Z AUTO 14002KT 1 1/2SM 15/15 A2997 RMK SLP152 T01500150 IEM_DS3505
ZBAA,1998-05-05 23:00,ZBAA 052300Z AUTO 11002KT 1 1/2SM 16/15 A3000 RMK SLP162 T01600150 IEM_DS3505
ZBAA,1998-05-06 00:00,ZBAA 060000Z AUTO 11006KT 3SM 17/14 A3000 RMK SLP166 T01660143 52015 IEM_DS3505
ZBAA,1998-05-06 01:00,ZBAA 060100Z AUTO 13004KT 2SM 18/16 A3000 RMK SLP162 T01800160 IEM_DS3505
ZBAA,1998-05-06 02:00,ZBAA 060200Z AUTO 14004KT 2SM 19/16 A3000 RMK SLP161 T01900160 IEM_DS3505
ZBAA,1998-05-06 03:00,ZBAA 060300Z AUTO 20004KT 6SM 21/14 A3000 RMK SLP166 T02110145 54000 IEM_DS3505
ZBAA,1998-05-06 04:00,ZBAA 060400Z AUTO 12002KT 2 1/2SM 20/15 A3000 RMK SLP161 T02000150 IEM_DS3505
ZBAA,1998-05-06 05:00,ZBAA 060500Z AUTO ////04KT 2 1/2SM 21/17 A3000 RMK SLP161 T02100170 IEM_DS3505
ZBAA,1998-05-06 06:00,ZBAA 060600Z AUTO 09002KT 6SM 22/16 A3000 RMK SLP162 T02210158 57004 IEM_DS3505
ZBAA,1998-05-06 07:00,ZBAA 060700Z AUTO 04002KT 2 1/2SM 21/18 A2997 RMK SLP151 T02100180 IEM_DS3505
ZBAA,1998-05-06 08:00,ZBAA 060800Z AUTO 04002KT 2 1/2SM 21/17 A2997 RMK SLP151 T02100170 IEM_DS3505
ZBAA,1998-05-06 09:00,ZBAA 060900Z AUTO 02004KT 2 1/2SM 20/17 A3000 RMK SLP163 T02030172 52001 IEM_DS3505
ZBAA,1998-05-06 10:00,ZBAA 061000Z AUTO 30004KT 2SM 19/17 A3000 RMK SLP161 T01900170 IEM_DS3505
ZBAA,1998-05-06 12:00,ZBAA 061200Z AUTO 02004KT 1 1/4SM 18/17 A3003 RMK 60016 SLP172 T01810173 52009 IEM_DS3505
ZBAA,1998-05-06 13:00,ZBAA 061300Z AUTO 36004KT 1SM 18/17 A3003 RMK SLP172 T01800170 IEM_DS3505
ZBAA,1998-05-06 14:00,ZBAA 061400Z AUTO 33006KT 1SM 18/17 A3006 RMK SLP182 T01800170 IEM_DS3505
ZBAA,1998-05-06 15:00,ZBAA 061500Z AUTO 36002KT 1SM 18/17 A3006 RMK SLP182 T01770174 52010 IEM_DS3505
ZBAA,1998-05-06 16:00,ZBAA 061600Z AUTO 31006KT 1/2SM 17/17 A3006 RMK SLP182 T01700170 IEM_DS3505
ZBAA,1998-05-06 17:00,ZBAA 061700Z AUTO 34002KT 1/2SM 17/17 A3003 RMK SLP172 T01700170 IEM_DS3505
ZBAA,1998-05-06 18:00,ZBAA 061800Z AUTO 09002KT 1SM 16/16 A3003 RMK 60035 SLP177 T01630161 57005 IEM_DS3505
ZBAA,1998-05-06 19:00,ZBAA 061900Z AUTO 00000KT 1/4SM 16/16 A3003 RMK SLP172 T01600160 IEM_DS3505
ZBAA,1998-05-06 20:00,ZBAA 062000Z AUTO 00000KT 1/4SM 16/16 A3003 RMK SLP172 T01600160 IEM_DS3505
ZBAA,1998-05-06 21:00,ZBAA 062100Z AUTO 00000KT 1SM 16/16 A3004 RMK 70051 SLP174 T01630161 57003 IEM_DS3505
ZBAA,1998-05-06 22:00,ZBAA 062200Z AUTO 33004KT 1/4SM 16/16 A3006 RMK SLP182 T01600160 IEM_DS3505
ZBAA,1998-05-06 23:00,ZBAA 062300Z AUTO 32002KT 3/8SM 16/16 A3006 RMK SLP182 T01600160 IEM_DS3505
ZBAA,1998-05-07 00:00,ZBAA 070000Z AUTO 29002KT 1 1/4SM 18/16 A3009 RMK 60000 70051 SLP191 T01780165 52017 IEM_DS3505
ZBAA,1998-05-07 01:00,ZBAA 070100Z AUTO 35004KT 1SM 18/17 A3009 RMK SLP192 T01800170 IEM_DS3505
ZBAA,1998-05-07 02:00,ZBAA 070200Z AUTO 36004KT 2 1/2SM 21/18 A3012 RMK SLP202 T02100180 IEM_DS3505
ZBAA,1998-05-07 03:00,ZBAA 070300Z AUTO 34012KT 7SM 23/06 A3012 RMK SLP204 T02300064 52013 IEM_DS3505
ZBAA,1998-05-07 04:00,ZBAA 070400Z AUTO 03006KT 6SM 22/11 A3012 RMK SLP202 T02200110 IEM_DS3505
ZBAA,1998-05-07 05:00,ZBAA 070500Z AUTO ////04KT 6SM 23/08 A3012 RMK SLP202 T02300080 IEM_DS3505
ZBAA,1998-05-07 06:00,ZBAA 070600Z AUTO 34008KT 12SM 25/03 A3012 RMK SLP201 T02460030 57003 IEM_DS3505
ZBAA,1998-05-07 07:00,ZBAA 070700Z AUTO 07004KT 7SM 25/06 A3009 RMK SLP190 T02500060 IEM_DS3505
ZBAA,1998-05-07 08:00,ZBAA 070800Z AUTO ////04KT 7SM 25/05 A3009 RMK SLP190 T02500050 IEM_DS3505
ZBAA,1998-05-07 09:00,ZBAA 070900Z AUTO 07008KT 19SM 23/07 A3009 RMK SLP193 T02340074 57008 IEM_DS3505
ZBAA,1998-05-07 10:00,ZBAA 071000Z AUTO 02002KT 6SM 24/05 A3009 RMK SLP191 T02400050 IEM_DS3505
ZBAA,1998-05-07 11:00,ZBAA 071100Z AUTO 02004KT 7SM 22/03 A3012 RMK SLP202 T02200030 IEM_DS3505
ZBAA,1998-05-07 12:00,ZBAA 071200Z AUTO 02004KT 11SM 20/07 A3015 RMK SLP219 T02030072 52026 IEM_DS3505
ZBAA,1998-05-07 13:00,ZBAA 071300Z AUTO 04006KT 7SM 19/00 A3021 RMK SLP233 T01900000 IEM_DS3505
ZBAA,1998-05-07 14:00,ZBAA 071400Z AUTO 01004KT 7SM 18/02 A3024 RMK SLP243 T01800020 IEM_DS3505
ZBAA,1998-05-07 15:00,ZBAA 071500Z AUTO 02004KT 12SM 17/05 A3024 RMK SLP243 T01720051 52024 IEM_DS3505
ZBAA,1998-05-07 16:00,ZBAA 071600Z AUTO 11002KT 7SM 13/03 A3027 RMK SLP254 T01300030 IEM_DS3505
ZBAA,1998-05-07 17:00,ZBAA 071700Z AUTO 17002KT 7SM 12/03 A3027 RMK SLP255 T01200030 IEM_DS3505
ZBAA,1998-05-07 18:00,ZBAA 071800Z AUTO 02004KT 9SM 13/06 A3027 RMK SLP251 T01290056 52008 IEM_DS3505
ZBAA,1998-05-07 19:00,ZBAA 071900Z AUTO 00000KT 7SM 11/06 A3027 RMK SLP255 T01100060 IEM_DS3505
ZBAA,1998-05-07 20:00,ZBAA 072000Z AUTO 34002KT 7SM 11/05 A3027 RMK SLP255 T01100050 IEM_DS3505
ZBAA,1998-05-07 21:00,ZBAA 072100Z AUTO 00000KT 11SM 10/07 A3027 RMK SLP256 T01020066 52005 IEM_DS3505
ZBAA,1998-05-07 22:00,ZBAA 072200Z AUTO 36004KT 6SM 11/04 A3030 RMK SLP265 T01100040 IEM_DS3505
ZBAA,1998-05-07 23:00,ZBAA 072300Z AUTO 00000KT 6SM 13/03 A3030 RMK SLP264 T01300030 IEM_DS3505
ZBAA,1998-05-08 00:00,ZBAA 080000Z AUTO 25004KT 6SM 15/04 A3030 RMK SLP264 T01520044 52008 IEM_DS3505
ZBAA,1998-05-08 01:00,ZBAA 080100Z AUTO 20004KT 6SM 17/04 A3030 RMK SLP264 T01700040 IEM_DS3505
ZBAA,1998-05-08 02:00,ZBAA 080200Z AUTO 15002KT 7SM 20/04 A3027 RMK SLP253 T02000040 IEM_DS3505
ZBAA,1998-05-08 03:00,ZBAA 080300Z AUTO 22012KT 12SM 21/04 A3027 RMK SLP251 T02070038 57013 IEM_DS3505
ZBAA,1998-05-08 04:00,ZBAA 080400Z AUTO 21010KT 6SM 22/01 A3024 RMK SLP242 T02200010 IEM_DS3505
ZBAA,1998-05-08 05:00,ZBAA 080500Z AUTO 17012KT 6SM 22/06 A3018 RMK SLP222 T02200060 IEM_DS3505
ZBAA,1998-05-08 06:00,ZBAA 080600Z AUTO 22012KT 11SM 22/06 A3015 RMK SLP222 T02160059 57029 IEM_DS3505
ZBAA,1998-05-08 07:00,ZBAA 080700Z AUTO 21012KT 6SM 22/04 A3012 RMK T02200040 IEM_DS3505
ZBAA,1998-05-08 08:00,ZBAA 080800Z AUTO 22010KT 6SM 22/05 A3012 RMK SLP202 T02200050 IEM_DS3505
ZBAA,1998-05-08 09:00,ZBAA 080900Z AUTO 22008KT 9SM 21/07 A3009 RMK SLP198 T02110068 57024 IEM_DS3505
ZBAA,1998-05-08 10:00,ZBAA 081000Z AUTO 22010KT 6SM 21/04 A3006 RMK SLP181 T02100040 IEM_DS3505
ZBAA,1998-05-08 11:00,ZBAA 081100Z AUTO 20006KT 6SM 20/07 A3006 RMK SLP181 T02000070 IEM_DS3505
ZBAA,1998-05-08 12:00,ZBAA 081200Z AUTO 20006KT 7SM 18/10 A3009 RMK SLP197 T01800099 57001 IEM_DS3505
ZBAA,1998-05-08 13:00,ZBAA 081300Z AUTO 19006KT 6SM 17/10 A3009 RMK SLP192 T01700100 IEM_DS3505
ZBAA,1998-05-08 14:00,ZBAA 081400Z AUTO 19004KT 6SM 17/10 A3009 RMK SLP192 T01700100 IEM_DS3505
ZBAA,1998-05-08 15:00,ZBAA 081500Z AUTO 22004KT 6SM 17/11 A3009 RMK SLP196 T01660110 57001 IEM_DS3505
ZBAA,1998-05-08 16:00,ZBAA 081600Z AUTO 07002KT 4SM 15/12 A3009 RMK SLP193 T01500120 IEM_DS3505
ZBAA,1998-05-08 17:00,ZBAA 081700Z AUTO 00000KT 4SM 15/12 A3009 RMK SLP193 T01500120 IEM_DS3505
ZBAA,1998-05-08 18:00,ZBAA 081800Z AUTO 00000KT 5SM 15/11 A3006 RMK SLP186 T01490114 57010 IEM_DS3505
ZBAA,1998-05-08 19:00,ZBAA 081900Z AUTO 04002KT 3SM 14/12 A3006 RMK SLP183 T01400120 IEM_DS3505
ZBAA,1998-05-08 20:00,ZBAA 082000Z AUTO 00000KT 3SM 14/12 A3006 RMK SLP183 T01400120 IEM_DS3505
ZBAA,1998-05-08 21:00,ZBAA 082100Z AUTO 00000KT 5SM 14/12 A3006 RMK SLP182 T01430121 57004 IEM_DS3505
ZBAA,1998-05-08 22:00,ZBAA 082200Z AUTO 36002KT 4SM 14/12 A3006 RMK SLP183 T01400120 IEM_DS3505
ZBAA,1998-05-08 23:00,ZBAA 082300Z AUTO 02002KT 4SM 15/11 A3006 RMK SLP182 T01500110 IEM_DS3505
ZBAA,1998-05-09 00:00,ZBAA 090000Z AUTO 11002KT 4SM 16/13 A3009 RMK SLP193 T01610131 52011 IEM_DS3505
ZBAA,1998-05-09 01:00,ZBAA 090100Z AUTO 03002KT 3SM 17/13 A3009 RMK SLP192 T01700130 IEM_DS3505
ZBAA,1998-05-09 02:00,ZBAA 090200Z AUTO 03002KT 4SM 19/14 A3009 RMK SLP192 T01900140 IEM_DS3505
ZBAA,1998-05-09 03:00,ZBAA 090300Z AUTO 00000KT 3SM 20/13 A3006 RMK SLP192 T01950130 57001 IEM_DS3505
ZBAA,1998-05-09 04:00,ZBAA 090400Z AUTO 15002KT 3SM 21/14 A3003 RMK SLP171 T02100140 IEM_DS3505
ZBAA,1998-05-09 05:00,ZBAA 090500Z AUTO 14004KT 3SM 22/14 A3000 RMK SLP161 T02200140 IEM_DS3505
ZBAA,1998-05-09 06:00,ZBAA 090600Z AUTO 20006KT 5SM 23/12 A3000 RMK SLP166 T02270115 57026 IEM_DS3505
ZBAA,1998-05-09 07:00,ZBAA 090700Z AUTO 13002KT 2 1/2SM 23/14 A2997 RMK SLP151 T02300140 IEM_DS3505
ZBAA,1998-05-09 08:00,ZBAA 090800Z AUTO 12002KT 2 1/2SM 24/12 A2997 RMK SLP150 T02400120 IEM_DS3505
ZBAA,1998-05-09 09:00,ZBAA 090900Z AUTO 20006KT 6SM 22/12 A2997 RMK SLP160 T02160123 57006 IEM_DS3505
ZBAA,1998-05-09 10:00,ZBAA 091000Z AUTO 19006KT 4SM 21/13 A2997 RMK SLP151 T02100130 IEM_DS3505
ZBAA,1998-05-09 11:00,ZBAA 091100Z AUTO 19006KT 4SM 20/12 A2997 RMK SLP151 T02000120 IEM_DS3505
ZBAA,1998-05-09 12:00,ZBAA 091200Z AUTO 20004KT 6SM 19/13 A2997 RMK SLP165 T01920132 52005 IEM_DS3505
ZBAA,1998-05-09 13:00,ZBAA 091300Z AUTO 17004KT 4SM 18/13 A3000 RMK SLP162 T01800130 IEM_DS3505
ZBAA,1998-05-09 14:00,ZBAA 091400Z AUTO 09002KT 3SM 18/14 A3003 RMK SLP172 T01800140 IEM_DS3505
ZBAA,1998-05-09 15:00,ZBAA 091500Z AUTO 18002KT 5SM 17/14 A3003 RMK SLP171 T01720144 52006 IEM_DS3505
ZBAA,1998-05-09 16:00,ZBAA 091600Z AUTO 09002KT 2 1/2SM 17/14 A3003 RMK SLP172 T01700140 IEM_DS3505
ZBAA,1998-05-09 17:00,ZBAA 091700Z AUTO 09002KT 2SM 16/14 A3003 RMK SLP172 T01600140 IEM_DS3505
ZBAA,1998-05-09 18:00,ZBAA 091800Z AUTO 00000KT 3SM 15/14 A3003 RMK SLP175 T01520138 52004 IEM_DS3505
ZBAA,1998-05-09 19:00,ZBAA 091900Z AUTO 00000KT 1 1/2SM 16/14 A3003 RMK SLP172 T01600140 IEM_DS3505
ZBAA,1998-05-09 20:00,ZBAA 092000Z AUTO 00000KT 1 1/4SM 16/14 A3003 RMK SLP172 T01600140 IEM_DS3505
ZBAA,1998-05-09 21:00,ZBAA 092100Z AUTO 25002KT 3SM 16/13 A3003 RMK SLP184 T01560131 52009 IEM_DS3505
ZBAA,1998-05-09 22:00,ZBAA 092200Z AUTO 35002KT 1 1/4SM 16/14 A3006 RMK SLP182 T01600140 IEM_DS3505
ZBAA,1998-05-09 23:00,ZBAA 092300Z AUTO 00000KT 1 1/4SM 16/15 A3009 RMK SLP192 T01600150 IEM_DS3505
ZBAA,1998-05-10 00:00,ZBAA 100000Z AUTO 34002KT 2SM 18/13 A3009 RMK SLP199 T01810133 52015 IEM_DS3505
ZBAA,1998-05-10 01:00,ZBAA 100100Z AUTO 00000KT 2SM 20/15 A3009 RMK SLP191 T02000150 IEM_DS3505
ZBAA,1998-05-10 02:00,ZBAA 100200Z AUTO 10002KT 2 1/2SM 22/14 A3012 RMK SLP202 T02200140 IEM_DS3505
ZBAA,1998-05-10 03:00,ZBAA 100300Z AUTO 22012KT 6SM 22/10 A3009 RMK SLP206 T02240097 52007 IEM_DS3505
ZBAA,1998-05-10 04:00,ZBAA 100400Z AUTO 20012G23KT 6SM 24/09 A3009 RMK SLP191 T02400090 IEM_DS3505
ZBAA,1998-05-10 05:00,ZBAA 100500Z AUTO 22014KT 6SM 24/09 A3006 RMK SLP181 T02400090 IEM_DS3505
ZBAA,1998-05-10 06:00,ZBAA 100600Z AUTO 20014KT 6SM 22/09 A3006 RMK SLP194 T02170092 57012 IEM_DS3505
ZBAA,1998-05-10 07:00,ZBAA 100700Z AUTO 22016G25KT 6SM 23/10 A3003 RMK T02300100 IEM_DS3505
ZBAA,1998-05-10 08:00,ZBAA 100800Z AUTO 21016KT 6SM 22/09 A3003 RMK SLP171 T02200090 IEM_DS3505
ZBAA,1998-05-10 09:00,ZBAA 100900Z AUTO 22016G23KT 6SM 20/07 A3006 RMK SLP188 T02040074 57006 IEM_DS3505
ZBAA,1998-05-10 10:00,ZBAA 101000Z AUTO 20014G23KT 6SM 21/07 A3006 RMK SLP181 T02100070 IEM_DS3505
ZBAA,1998-05-10 11:00,ZBAA 101100Z AUTO 21010KT 6SM 20/08 A3006 RMK SLP181 T02000080 IEM_DS3505
ZBAA,1998-05-10 12:00,ZBAA 101200Z AUTO 20008KT 9SM 18/09 A3006 RMK SLP191 T01750091 52003 IEM_DS3505
ZBAA,1998-05-10 13:00,ZBAA 101300Z AUTO 14002KT 6SM 16/10 A3006 RMK SLP182 T01600100 IEM_DS3505
ZBAA,1998-05-10 15:00,ZBAA 101500Z AUTO 22008KT 9SM 16/09 A3006 RMK SLP194 T01630092 52003 IEM_DS3505
ZBAA,1998-05-10 16:00,ZBAA 101600Z AUTO 22006KT 6SM 18/07 A3006 RMK SLP182 T01800070 IEM_DS3505
ZBAA,1998-05-10 17:00,ZBAA 101700Z AUTO 00000KT 6SM 16/09 A3006 RMK SLP182 T01600090 IEM_DS3505
ZBAA,1998-05-10 18:00,ZBAA 101800Z AUTO 22006KT 7SM 16/08 A3012 RMK SLP179 T01620076 57015 IEM_DS3505
ZBAA,1998-05-10 19:00,ZBAA 101900Z AUTO 01002KT 6SM 14/12 A3003 RMK SLP173 T01400120 IEM_DS3505
ZBAA,1998-05-10 20:00,ZBAA 102000Z AUTO 35004KT 6SM 14/12 A3003 RMK SLP173 T01400120 IEM_DS3505
ZBAA,1998-05-10 21:00,ZBAA 102100Z AUTO 22004KT 7SM 15/09 A3000 RMK SLP170 T01540090 57009 IEM_DS3505
ZBAA,1998-05-10 22:00,ZBAA 102200Z AUTO 00000KT 6SM 14/12 A3000 RMK SLP163 T01400120 IEM_DS3505
ZBAA,1998-05-10 23:00,ZBAA 102300Z AUTO 00000KT 6SM 15/12 A3003 RMK SLP172 T01500120 IEM_DS3505
ZBAA,1998-05-11 00:00,ZBAA 110000Z AUTO 22006KT 6SM 17/09 A3003 RMK SLP171 T01690090 52001 IEM_DS3505
ZBAA,1998-05-11 01:00,ZBAA 110100Z AUTO 18004KT 6SM 18/12 A3000 RMK SLP162 T01800120 IEM_DS3505
ZBAA,1998-05-11 02:00,ZBAA 110200Z AUTO 20010KT 6SM 20/10 A3000 RMK SLP161 T02000100 IEM_DS3505
ZBAA,1998-05-11 03:00,ZBAA 110300Z AUTO 22014KT 12SM 20/08 A3000 RMK SLP170 T02040079 57001 IEM_DS3505
ZBAA,1998-05-11 04:00,ZBAA 110400Z AUTO 21010KT 6SM 21/09 A2997 RMK SLP151 T02100090 IEM_DS3505
ZBAA,1998-05-11 05:00,ZBAA 110500Z AUTO 21012KT 6SM 20/07 A2997 RMK SLP151 T02000070 IEM_DS3505
ZBAA,1998-05-11 06:00,ZBAA 110600Z AUTO 22010KT 19SM 18/07 A3005 RMK SLP155 T01820071 57015 IEM_DS3505
ZBAA,1998-05-11 07:00,ZBAA 110700Z AUTO 21012KT 6SM 20/08 A2991 RMK T02000080 IEM_DS3505
ZBAA,1998-05-11 08:00,ZBAA 110800Z AUTO 21010KT 6SM 19/09 A2988 RMK SLP121 T01900090 IEM_DS3505
ZBAA,1998-05-11 09:00,ZBAA 110900Z AUTO 22012G17KT 19SM 18/08 A2988 RMK SLP130 T01800081 57025 IEM_DS3505
ZBAA,1998-05-11 10:00,ZBAA 111000Z AUTO 21008KT 6SM 18/09 A2988 RMK SLP121 T01800090 IEM_DS3505
ZBAA,1998-05-11 11:00,ZBAA 111100Z AUTO 21006KT 6SM 18/09 A2988 RMK SLP121 T01800090 IEM_DS3505
ZBAA,1998-05-11 12:00,ZBAA 111200Z AUTO 20008KT 12SM 16/09 A2988 RMK SLP126 T01630090 57004 IEM_DS3505
ZBAA,1998-05-11 13:00,ZBAA 111300Z AUTO 17004KT 6SM 16/10 A2988 RMK SLP122 T01600100 IEM_DS3505
ZBAA,1998-05-11 14:00,ZBAA 111400Z AUTO 18006KT 6SM 15/11 A2988 RMK SLP122 T01500110 IEM_DS3505
ZBAA,1998-05-11 15:00,ZBAA 111500Z AUTO 20004KT 12SM 14/10 A2988 RMK SLP130 T01410103 52004 IEM_DS3505
ZBAA,1998-05-11 16:00,ZBAA 111600Z AUTO 11002KT 6SM 14/11 A2988 RMK SLP122 T01400110 IEM_DS3505
ZBAA,1998-05-11 18:00,ZBAA 111800Z AUTO 22004KT 6SM 12/10 A2985 RMK SLP121 T01190097 57009 IEM_DS3505
ZBAA,1998-05-11 19:00,ZBAA 111900Z AUTO 21002KT 4SM 11/10 A2985 RMK SLP113 T01100100 IEM_DS3505
ZBAA,1998-05-11 20:00,ZBAA 112000Z AUTO 16002KT 2 1/2SM 11/10 A2985 RMK SLP113 T01100100 IEM_DS3505
ZBAA,1998-05-11 21:00,ZBAA 112100Z AUTO 22004KT 3SM 11/09 A2985 RMK SLP115 T01090093 57006 IEM_DS3505
ZBAA,1998-05-11 22:00,ZBAA 112200Z AUTO 00000KT 1SM 11/11 A2985 RMK SLP113 T01100110 IEM_DS3505
ZBAA,1998-05-11 23:00,ZBAA 112300Z AUTO 36004KT 1 1/2SM 12/12 A2985 RMK SLP113 T01200120 IEM_DS3505
ZBAA,1998-05-12 00:00,ZBAA 120000Z AUTO 16002KT 2SM 15/11 A2985 RMK SLP115 T01510112 54000 IEM_DS3505
ZBAA,1998-05-12 01:00,ZBAA 120100Z AUTO 02002KT 2 1/2SM 17/12 A2983 RMK SLP105 T01700120 IEM_DS3505
ZBAA,1998-05-12 02:00,ZBAA 120200Z AUTO ////02KT 2 1/2SM 19/12 A2983 RMK SLP104 T01900120 IEM_DS3505
ZBAA,1998-05-12 03:00,ZBAA 120300Z AUTO 20008KT 2 1/2SM 20/12 A2983 RMK SLP117 T02030121 52002 IEM_DS3505
ZBAA,1998-05-12 04:00,ZBAA 120400Z AUTO 16006KT 3SM 23/13 A2983 RMK SLP103 T02300130 IEM_DS3505
ZBAA,1998-05-12 05:00,ZBAA 120500Z AUTO 20008KT 3SM 25/12 A2980 RMK SLP093 T02500120 IEM_DS3505
ZBAA,1998-05-12 06:00,ZBAA 120600Z AUTO 25008KT 6SM 26/12 A2977 RMK SLP092 T02560121 57024 IEM_DS3505
ZBAA,1998-05-12 07:00,ZBAA 120700Z AUTO 18012KT 7SM 26/14 A2977 RMK SLP083 T02600140 IEM_DS3505
ZBAA,1998-05-12 08:00,ZBAA 120800Z AUTO 20010KT 7SM 27/14 A2977 RMK SLP082 T02700140 IEM_DS3505
ZBAA,1998-05-12 09:00,ZBAA 120900Z AUTO 20008KT 7SM 26/12 A2977 RMK SLP084 T02650123 57008 IEM_DS3505
ZBAA,1998-05-12 10:00,ZBAA 121000Z AUTO 19008KT 6SM 26/13 A2977 RMK SLP083 T02600130 IEM_DS3505
ZBAA,1998-05-12 11:00,ZBAA 121100Z AUTO 18004KT 6SM 23/14 A2980 RMK SLP093 T02300140 IEM_DS3505
ZBAA,1998-05-12 12:00,ZBAA 121200Z AUTO 20006KT 7SM 23/14 A2980 RMK SLP090 T02290135 52006 IEM_DS3505
ZBAA,1998-05-12 13:00,ZBAA 121300Z AUTO 13002KT 6SM 21/15 A2983 RMK SLP104 T02100150 IEM_DS3505
ZBAA,1998-05-12 14:00,ZBAA 121400Z AUTO 09004KT 4SM 19/16 A2985 RMK SLP111 T01900160 IEM_DS3505
ZBAA,1998-05-12 15:00,ZBAA 121500Z AUTO 22004KT 6SM 20/14 A2985 RMK SLP105 T02050136 52015 IEM_DS3505
ZBAA,1998-05-12 16:00,ZBAA 121600Z AUTO 02002KT 4SM 18/15 A2985 RMK SLP111 T01800150 IEM_DS3505
ZBAA,1998-05-12 17:00,ZBAA 121700Z AUTO 14002KT 4SM 17/14 A2988 RMK SLP122 T01700140 IEM_DS3505
ZBAA,1998-05-12 18:00,ZBAA 121800Z AUTO 11002KT 6SM 16/14 A2988 RMK SLP108 T01610138 52003 IEM_DS3505
ZBAA,1998-05-12 19:00,ZBAA 121900Z AUTO 01002KT 3SM 16/15 A2988 RMK SLP122 T01600150 IEM_DS3505
ZBAA,1998-05-12 20:00,ZBAA 122000Z AUTO 03002KT 3SM 16/14 A2988 RMK SLP122 T01600140 IEM_DS3505
ZBAA,1998-05-12 21:00,ZBAA 122100Z AUTO 00000KT 5SM 15/13 A2988 RMK SLP114 T01470133 52006 IEM_DS3505
ZBAA,1998-05-12 22:00,ZBAA 122200Z AUTO 00000KT 2 1/2SM 15/14 A2991 RMK SLP132 T01500140 IEM_DS3505
ZBAA,1998-05-12 23:00,ZBAA 122300Z AUTO 06002KT 2 1/2SM 17/16 A2991 RMK SLP132 T01700160 IEM_DS3505
ZBAA,1998-05-13 00:00,ZBAA 130000Z AUTO 27002KT 4SM 19/14 A2998 RMK SLP131 T01880145 52017 IEM_DS3505
ZBAA,1998-05-13 01:00,ZBAA 130100Z AUTO 33002KT 4SM 20/15 A2994 RMK SLP141 T02000150 IEM_DS3505
ZBAA,1998-05-13 02:00,ZBAA 130200Z AUTO 02002KT 4SM 22/16 A2994 RMK SLP141 T02200160 IEM_DS3505
ZBAA,1998-05-13 03:00,ZBAA 130300Z AUTO 14004KT 4SM 25/16 A2994 RMK SLP134 T02460165 52003 IEM_DS3505
ZBAA,1998-05-13 04:00,ZBAA 130400Z AUTO 15004KT 4SM 25/17 A2991 RMK SLP130 T02500170 IEM_DS3505
ZBAA,1998-05-13 05:00,ZBAA 130500Z AUTO 18006KT 4SM 27/17 A2991 RMK SLP130 T02700170 IEM_DS3505
ZBAA,1998-05-13 06:00,ZBAA 130600Z AUTO 22008KT 6SM 28/15 A2988 RMK SLP127 T02750149 57007 IEM_DS3505
ZBAA,1998-05-13 07:00,ZBAA 130700Z AUTO 19010KT 5SM 28/15 A2988 RMK SLP119 T02800150 IEM_DS3505
ZBAA,1998-05-13 08:00,ZBAA 130800Z AUTO 18010KT 6SM 28/16 A2988 RMK SLP119 T02800160 IEM_DS3505
ZBAA,1998-05-13 09:00,ZBAA 130900Z AUTO 20008KT 7SM 26/13 A2988 RMK SLP120 T02650131 57007 IEM_DS3505
ZBAA,1998-05-13 10:00,ZBAA 131000Z AUTO 18008KT 6SM 26/14 A2988 RMK SLP120 T02600140 IEM_DS3505
ZBAA,1998-05-13 11:00,ZBAA 131100Z AUTO 17004KT 6SM 24/15 A2988 RMK SLP120 T02400150 IEM_DS3505
ZBAA,1998-05-13 12:00,ZBAA 131200Z AUTO 20004KT 6SM 23/15 A2991 RMK SLP124 T02330148 52004 IEM_DS3505
ZBAA,1998-05-13 13:00,ZBAA 131300Z AUTO 13002KT 6SM 20/15 A2991 RMK SLP131 T02000150 IEM_DS3505
ZBAA,1998-05-13 14:00,ZBAA 131400Z AUTO 14004KT 6SM 20/16 A2991 RMK SLP131 T02000160 IEM_DS3505
ZBAA,1998-05-13 15:00,ZBAA 131500Z AUTO 20004KT 6SM 20/14 A2994 RMK SLP136 T02000144 52012 IEM_DS3505
ZBAA,1998-05-13 16:00,ZBAA 131600Z AUTO 00000KT 4SM 18/15 A2994 RMK SLP142 T01800150 IEM_DS3505
ZBAA,1998-05-13 17:00,ZBAA 131700Z AUTO 00000KT 3SM 17/15 A2994 RMK SLP142 T01700150 IEM_DS3505
ZBAA,1998-05-13 18:00,ZBAA 131800Z AUTO 00000KT 6SM 16/15 A2994 RMK SLP136 T01620148 54000 IEM_DS3505
ZBAA,1998-05-13 19:00,ZBAA 131900Z AUTO 00000KT 2 1/2SM 16/15 A2994 RMK SLP142 T01600150 IEM_DS3505
ZBAA,1998-05-13 20:00,ZBAA 132000Z AUTO 00000KT 2 1/2SM 16/15 A2994 RMK SLP142 T01600150 IEM_DS3505
ZBAA,1998-05-13 21:00,ZBAA 132100Z AUTO 00000KT 4SM 16/14 A2994 RMK SLP136 T01570145 54000 IEM_DS3505
ZBAA,1998-05-13 22:00,ZBAA 132200Z AUTO 00000KT 2SM 16/15 A2994 RMK SLP142 T01600150 IEM_DS3505
ZBAA,1998-05-13 23:00,ZBAA 132300Z AUTO 35002KT 2SM 17/16 A2997 RMK SLP152 T01700160 IEM_DS3505
ZBAA,1998-05-14 00:00,ZBAA 140000Z AUTO 04004KT 5SM 20/16 A2997 RMK SLP144 T01990157 52008 IEM_DS3505
ZBAA,1998-05-14 01:00,ZBAA 140100Z AUTO ////02KT 2 1/2SM 21/17 A2997 RMK SLP151 T02100170 IEM_DS3505
ZBAA,1998-05-14 02:00,ZBAA 140200Z AUTO 12002KT 3SM 23/18 A2997 RMK SLP151 T02300180 IEM_DS3505
ZBAA,1998-05-14 03:00,ZBAA 140300Z AUTO 25002KT 4SM 25/16 A2997 RMK SLP147 T02540158 52003 IEM_DS3505
ZBAA,1998-05-14 04:00,ZBAA 140400Z AUTO 18006KT 2 1/2SM 25/16 A2994 RMK SLP140 T02500160 IEM_DS3505
ZBAA,1998-05-14 05:00,ZBAA 140500Z AUTO 18006KT 3SM 28/13 A2994 RMK SLP140 T02800130 IEM_DS3505
ZBAA,1998-05-14 06:00,ZBAA 140600Z AUTO 22006KT 7SM 28/12 A2994 RMK SLP137 T02750121 57010 IEM_DS3505
ZBAA,1998-05-14 07:00,ZBAA 140700Z AUTO 18008KT 6SM 28/12 A2991 RMK SLP129 T02800120 IEM_DS3505
ZBAA,1998-05-14 08:00,ZBAA 140800Z AUTO 18008KT 6SM 28/13 A2991 RMK SLP129 T02800130 IEM_DS3505
ZBAA,1998-05-14 09:00,ZBAA 140900Z AUTO 22004KT 7SM 26/13 A2988 RMK SLP127 T02630133 57010 IEM_DS3505
ZBAA,1998-05-14 10:00,ZBAA 141000Z AUTO 19006KT 6SM 26/13 A2988 RMK SLP120 T02600130 IEM_DS3505
ZBAA,1998-05-14 11:00,ZBAA 141100Z AUTO 19004KT 6SM 24/14 A2991 RMK SLP130 T02400140 IEM_DS3505
ZBAA,1998-05-14 12:00,ZBAA 141200Z AUTO 20002KT 7SM 24/16 A2991 RMK SLP127 T02360165 54000 IEM_DS3505
ZBAA,1998-05-14 13:00,ZBAA 141300Z AUTO 15002KT 5SM 22/15 A2991 RMK SLP131 T02200150 IEM_DS3505
ZBAA,1998-05-14 14:00,ZBAA 141400Z AUTO 15002KT 5SM 21/16 A2994 RMK SLP141 T02100160 IEM_DS3505
ZBAA,1998-05-14 15:00,ZBAA 141500Z AUTO 20004KT 6SM 21/16 A2994 RMK SLP134 T02070157 52007 IEM_DS3505
ZBAA,1998-05-14 16:00,ZBAA 141600Z AUTO 14002KT 5SM 19/16 A2994 RMK SLP141 T01900160 IEM_DS3505
ZBAA,1998-05-14 17:00,ZBAA 141700Z AUTO 13002KT 4SM 17/16 A2994 RMK SLP142 T01700160 IEM_DS3505
ZBAA,1998-05-14 18:00,ZBAA 141800Z AUTO 18002KT 5SM 19/14 A2991 RMK SLP132 T01880138 57002 IEM_DS3505
ZBAA,1998-05-14 19:00,ZBAA 141900Z AUTO 09002KT 4SM 17/16 A2991 RMK SLP132 T01700160 IEM_DS3505
ZBAA,1998-05-14 20:00,ZBAA 142000Z AUTO 11002KT 2 1/2SM 15/15 A2991 RMK SLP132 T01500150 IEM_DS3505
ZBAA,1998-05-14 21:00,ZBAA 142100Z AUTO 00000KT 4SM 16/13 A2991 RMK SLP129 T01580131 57003 IEM_DS3505
ZBAA,1998-05-14 22:00,ZBAA 142200Z AUTO 08002KT 1 1/2SM 16/15 A2994 RMK SLP142 T01600150 IEM_DS3505
ZBAA,1998-05-14 23:00,ZBAA 142300Z AUTO 09004KT 2SM 17/15 A2994 RMK SLP142 T01700150 IEM_DS3505
ZBAA,1998-05-15 00:00,ZBAA 150000Z AUTO 11002KT 3SM 17/14 A2994 RMK SLP139 T01720137 52010 IEM_DS3505
ZBAA,1998-05-15 01:00,ZBAA 150100Z AUTO 12004KT 2 1/2SM 20/16 A2994 RMK SLP141 T02000160 IEM_DS3505
ZBAA,1998-05-15 02:00,ZBAA 150200Z AUTO 14004KT 3SM 22/16 A2994 RMK SLP141 T02200160 IEM_DS3505
ZBAA,1998-05-15 03:00,ZBAA 150300Z AUTO 11008KT 6SM 24/17 A2994 RMK SLP138 T02430167 57001 IEM_DS3505
ZBAA,1998-05-15 04:00,ZBAA 150400Z AUTO 15006KT 5SM 25/14 A2991 RMK SLP130 T02500140 IEM_DS3505
ZBAA,1998-05-15 05:00,ZBAA 150500Z AUTO 18008KT 7SM 26/13 A2991 RMK SLP130 T02600130 IEM_DS3505
ZBAA,1998-05-15 06:00,ZBAA 150600Z AUTO 22006KT 6SM 27/14 A2988 RMK SLP120 T02670138 57018 IEM_DS3505
ZBAA,1998-05-15 07:00,ZBAA 150700Z AUTO 19006KT 6SM 27/13 A2985 RMK SLP110 T02700130 IEM_DS3505
ZBAA,1998-05-15 08:00,ZBAA 150800Z AUTO 16010KT 4SM 24/16 A2985 RMK SLP110 T02400160 IEM_DS3505
ZBAA,1998-05-15 09:00,ZBAA 150900Z AUTO 16014KT 6SM 23/14 A2985 RMK SLP109 T02340145 57011 IEM_DS3505
ZBAA,1998-05-15 10:00,ZBAA 151000Z AUTO 17010KT 4SM 24/16 A2985 RMK SLP110 T02400160 IEM_DS3505
ZBAA,1998-05-15 11:00,ZBAA 151100Z AUTO 18008KT 4SM 22/15 A2985 RMK SLP111 T02200150 IEM_DS3505
ZBAA,1998-05-15 12:00,ZBAA 151200Z AUTO 18004KT 6SM 21/16 A2988 RMK SLP112 T02090158 52003 IEM_DS3505
ZBAA,1998-05-15 13:00,ZBAA 151300Z AUTO 16004KT 3SM 19/16 A2988 RMK SLP121 T01900160 IEM_DS3505
ZBAA,1998-05-15 14:00,ZBAA 151400Z AUTO 16004KT 2 1/2SM 19/16 A2988 RMK SLP121 T01900160 IEM_DS3505
ZBAA,1998-05-15 15:00,ZBAA 151500Z AUTO 22004KT 6SM 19/14 A2988 RMK SLP112 T01900140 54000 IEM_DS3505
ZBAA,1998-05-15 16:00,ZBAA 151600Z AUTO 14004KT 4SM 18/15 A2985 RMK SLP111 T01800150 IEM_DS3505
ZBAA,1998-05-15 17:00,ZBAA 151700Z AUTO 14006KT 4SM 17/15 A2985 RMK SLP112 T01700150 IEM_DS3505
ZBAA,1998-05-15 18:00,ZBAA 151800Z AUTO 20006KT 7SM 17/12 A2983 RMK SLP101 T01730125 57011 IEM_DS3505
ZBAA,1998-05-15 19:00,ZBAA 151900Z AUTO 14002KT 4SM 16/13 A2983 RMK SLP105 T01600130 IEM_DS3505
ZBAA,1998-05-15 20:00,ZBAA 152000Z AUTO 09002KT 4SM 16/14 A2980 RMK SLP095 T01600140 IEM_DS3505
ZBAA,1998-05-15 21:00,ZBAA 152100Z AUTO 18004KT 6SM 16/13 A2980 RMK SLP093 T01610127 57008 IEM_DS3505
ZBAA,1998-05-15 22:00,ZBAA 152200Z AUTO 13004KT 3SM 15/14 A2980 RMK SLP095 T01500140 IEM_DS3505
ZBAA,1998-05-15 23:00,ZBAA 152300Z AUTO 14002KT 2 1/2SM 16/15 A2980 RMK SLP095 T01600150 IEM_DS3505
ZBAA,1998-05-16 00:00,ZBAA 160000Z AUTO 18006KT 4SM 18/14 A2988 RMK SLP096 T01790137 52003 IEM_DS3505
ZBAA,1998-05-16 01:00,ZBAA 160100Z AUTO 22004KT 2 1/2SM 18/15 A2983 RMK SLP104 T01800150 IEM_DS3505
ZBAA,1998-05-16 02:00,ZBAA 160200Z AUTO 25004KT 2SM 18/15 A2983 RMK SLP104 T01800150 IEM_DS3505
ZBAA,1998-05-16 03:00,ZBAA 160300Z AUTO 27010KT 4SM 18/13 A2983 RMK SLP100 T01780132 52004 IEM_DS3505
ZBAA,1998-05-16 04:00,ZBAA 160400Z AUTO 35004KT 2 1/2SM 18/16 A2983 RMK SLP104 T01800160 IEM_DS3505
ZBAA,1998-05-16 05:00,ZBAA 160500Z AUTO 31006KT 2 1/2SM 18/16 A2980 RMK SLP094 T01800160 IEM_DS3505
ZBAA,1998-05-16 06:00,ZBAA 160600Z AUTO 11004KT 1 1/4SM 18/16 A2980 RMK 60001 SLP087 T01780156 57013 IEM_DS3505
ZBAA,1998-05-16 07:00,ZBAA 160700Z AUTO 23004KT 4SM 18/15 A2977 RMK SLP084 T01800150 IEM_DS3505
ZBAA,1998-05-16 08:00,ZBAA 160800Z AUTO 25002KT 5SM 19/15 A2977 RMK SLP084 T01900150 IEM_DS3505
ZBAA,1998-05-16 09:00,ZBAA 160900Z AUTO 22004KT 4SM 19/15 A2974 RMK SLP076 T01880147 57011 IEM_DS3505
ZBAA,1998-05-16 10:00,ZBAA 161000Z AUTO 23002KT 4SM 20/15 A2974 RMK SLP073 T02000150 IEM_DS3505
ZBAA,1998-05-16 11:00,ZBAA 161100Z AUTO 22002KT 4SM 20/13 A2974 RMK SLP073 T02000130 IEM_DS3505
ZBAA,1998-05-16 12:00,ZBAA 161200Z AUTO 25004KT 6SM 18/12 A2974 RMK SLP071 T01760124 57005 IEM_DS3505
ZBAA,1998-05-16 13:00,ZBAA 161300Z AUTO 09002KT 3SM 16/14 A2974 RMK SLP074 T01600140 IEM_DS3505
ZBAA,1998-05-16 14:00,ZBAA 161400Z AUTO 00000KT 2 1/2SM 15/14 A2977 RMK SLP085 T01500140 IEM_DS3505
ZBAA,1998-05-16 15:00,ZBAA 161500Z AUTO 22006KT 6SM 15/12 A2977 RMK SLP075 T01520123 52003 IEM_DS3505
ZBAA,1998-05-16 16:00,ZBAA 161600Z AUTO 00000KT 2 1/2SM 14/13 A2974 RMK SLP074 T01400130 IEM_DS3505
ZBAA,1998-05-16 17:00,ZBAA 161700Z AUTO 02004KT 1 1/4SM 14/14 A2974 RMK SLP074 T01400140 IEM_DS3505
ZBAA,1998-05-16 18:00,ZBAA 161800Z AUTO 27004KT 4SM 14/12 A2974 RMK SLP069 T01360119 57006 IEM_DS3505
ZBAA,1998-05-16 19:00,ZBAA 161900Z AUTO 34002KT 1 1/4SM 13/13 A2974 RMK SLP074 T01300130 IEM_DS3505
ZBAA,1998-05-16 20:00,ZBAA 162000Z AUTO 33004KT 1 1/4SM 12/12 A2974 RMK SLP074 T01200120 IEM_DS3505
ZBAA,1998-05-16 21:00,ZBAA 162100Z AUTO 34004KT 1 1/4SM 13/12 A2974 RMK 70001 SLP070 T01260117 52001 IEM_DS3505
ZBAA,1998-05-16 22:00,ZBAA 162200Z AUTO 34004KT 2SM 13/13 A2977 RMK SLP085 T01300130 IEM_DS3505
ZBAA,1998-05-16 23:00,ZBAA 162300Z AUTO 34004KT 2 1/2SM 15/14 A2977 RMK SLP085 T01500140 IEM_DS3505
ZBAA,1998-05-17 00:00,ZBAA 170000Z AUTO 00000KT 2 1/2SM 18/14 A2980 RMK 70001 SLP087 T01760138 52018 IEM_DS3505
ZBAA,1998-05-17 01:00,ZBAA 170100Z AUTO 01002KT 6SM 20/14 A2980 RMK SLP094 T02000140 IEM_DS3505
ZBAA,1998-05-17 03:00,ZBAA 170300Z AUTO 04004KT 12SM 26/03 A2977 RMK SLP085 T02600032 57002 IEM_DS3505
ZBAA,1998-05-17 05:00,ZBAA 170500Z AUTO ////04KT 7SM 28/07 A2974 RMK SLP071 T02800070 IEM_DS3505
ZBAA,1998-05-17 06:00,ZBAA 170600Z AUTO 20006KT 19SM 28/06 A2971 RMK SLP071 T02770064 57014 IEM_DS3505
ZBAA,1998-05-17 07:00,ZBAA 170700Z AUTO 17010KT 7SM 28/09 A2971 RMK SLP061 T02800090 IEM_DS3505
ZBAA,1998-05-17 08:00,ZBAA 170800Z AUTO 17008KT 7SM 28/09 A2971 RMK SLP061 T02800090 IEM_DS3505
ZBAA,1998-05-17 09:00,ZBAA 170900Z AUTO 22010KT 19SM 28/09 A2968 RMK SLP055 T02790090 57016 IEM_DS3505
ZBAA,1998-05-17 10:00,ZBAA 171000Z AUTO 19004KT 7SM 27/09 A2971 RMK SLP061 T02700090 IEM_DS3505
ZBAA,1998-05-17 11:00,ZBAA 171100Z AUTO 21008KT 7SM 27/10 A2974 RMK SLP071 T02700100 IEM_DS3505
ZBAA,1998-05-17 12:00,ZBAA 171200Z AUTO 34004KT 12SM 26/07 A2974 RMK SLP064 T02550073 52009 IEM_DS3505
ZBAA,1998-05-17 13:00,ZBAA 171300Z AUTO 00000KT 6SM 22/13 A2977 RMK SLP083 T02200130 IEM_DS3505
ZBAA,1998-05-17 14:00,ZBAA 171400Z AUTO 16002KT 6SM 21/13 A2977 RMK SLP084 T02100130 IEM_DS3505
ZBAA,1998-05-17 15:00,ZBAA 171500Z AUTO 00000KT 9SM 20/12 A2977 RMK SLP079 T01950122 52015 IEM_DS3505
ZBAA,1998-05-17 16:00,ZBAA 171600Z AUTO 00000KT 6SM 19/13 A2977 RMK SLP084 T01900130 IEM_DS3505
ZBAA,1998-05-17 17:00,ZBAA 171700Z AUTO 04002KT 6SM 19/14 A2977 RMK SLP084 T01900140 IEM_DS3505
ZBAA,1998-05-17 18:00,ZBAA 171800Z AUTO 00000KT 7SM 17/11 A2977 RMK SLP076 T01690112 57003 IEM_DS3505
ZBAA,1998-05-17 19:00,ZBAA 171900Z AUTO 02002KT 7SM 17/13 A2977 RMK SLP084 T01700130 IEM_DS3505
ZBAA,1998-05-17 20:00,ZBAA 172000Z AUTO 07002KT 7SM 17/13 A2977 RMK SLP084 T01700130 IEM_DS3505
ZBAA,1998-05-17 21:00,ZBAA 172100Z AUTO 36004KT 6SM 16/12 A2977 RMK SLP077 T01550122 52001 IEM_DS3505
ZBAA,1998-05-17 22:00,ZBAA 172200Z AUTO 34002KT 7SM 16/13 A2980 RMK SLP095 T01600130 IEM_DS3505
ZBAA,1998-05-17 23:00,ZBAA 172300Z AUTO 01002KT 7SM 18/13 A2980 RMK SLP094 T01800130 IEM_DS3505
ZBAA,1998-05-18 00:00,ZBAA 180000Z AUTO 07004KT 5SM 20/14 A2980 RMK SLP089 T01990137 52012 IEM_DS3505
ZBAA,1998-05-18 01:00,ZBAA 180100Z AUTO 12004KT 4SM 22/15 A2980 RMK SLP093 T02200150 IEM_DS3505
ZBAA,1998-05-18 02:00,ZBAA 180200Z AUTO ////04KT 4SM 24/16 A2980 RMK SLP093 T02400160 IEM_DS3505
ZBAA,1998-05-18 03:00,ZBAA 180300Z AUTO 11004KT 5SM 25/15 A2980 RMK SLP089 T02470151 54000 IEM_DS3505
ZBAA,1998-05-18 04:00,ZBAA 180400Z AUTO 13006KT 4SM 26/18 A2977 RMK SLP083 T02600180 IEM_DS3505
ZBAA,1998-05-18 05:00,ZBAA 180500Z AUTO 15006KT 4SM 27/18 A2977 RMK SLP082 T02700180 IEM_DS3505
ZBAA,1998-05-18 06:00,ZBAA 180600Z AUTO 20010KT 5SM 29/16 A2974 RMK SLP070 T02940158 57019 IEM_DS3505
ZBAA,1998-05-18 07:00,ZBAA 180700Z AUTO 17006KT 6SM 29/17 A2971 RMK SLP061 T02900170 IEM_DS3505
ZBAA,1998-05-18 08:00,ZBAA 180800Z AUTO 16006KT 6SM 29/17 A2971 RMK SLP061 T02900170 IEM_DS3505
ZBAA,1998-05-18 09:00,ZBAA 180900Z AUTO 20008KT 6SM 29/16 A2971 RMK SLP058 T02930163 57012 IEM_DS3505
ZBAA,1998-05-18 10:00,ZBAA 181000Z AUTO 17006KT 6SM 28/17 A2968 RMK SLP051 T02800170 IEM_DS3505
ZBAA,1998-05-18 11:00,ZBAA 181100Z AUTO 20006KT 6SM 27/17 A2971 RMK SLP061 T02700170 51030 IEM_DS3505
ZBAA,1998-05-18 12:00,ZBAA 181200Z AUTO 20006KT 9SM 27/15 A2971 RMK SLP061 T02710150 52003 IEM_DS3505
ZBAA,1998-05-18 13:00,ZBAA 181300Z AUTO 15004KT 6SM 25/16 A2971 RMK SLP062 T02500160 IEM_DS3505
ZBAA,1998-05-18 14:00,ZBAA 181400Z AUTO 17006KT 6SM 24/16 A2974 RMK SLP072 T02400160 IEM_DS3505
ZBAA,1998-05-18 15:00,ZBAA 181500Z AUTO 20008KT 7SM 24/16 A2974 RMK SLP068 T02450161 52008 IEM_DS3505
ZBAA,1998-05-18 16:00,ZBAA 181600Z AUTO 17006KT 6SM 23/16 A2971 RMK SLP062 T02300160 IEM_DS3505
ZBAA,1998-05-18 17:00,ZBAA 181700Z AUTO 13004KT 6SM 22/17 A2971 RMK SLP062 T02200170 IEM_DS3505
ZBAA,1998-05-18 18:00,ZBAA 181800Z AUTO 20004KT 6SM 23/18 A2971 RMK SLP061 T02270176 57007 IEM_DS3505
ZBAA,1998-05-18 19:00,ZBAA 181900Z AUTO 16006KT 4SM 22/18 A2971 RMK SLP062 T02200180 IEM_DS3505
ZBAA,1998-05-18 20:00,ZBAA 182000Z AUTO 06002KT 4SM 21/19 A2971 RMK SLP062 T02100190 IEM_DS3505
ZBAA,1998-05-18 21:00,ZBAA 182100Z AUTO 11004KT 6SM 20/17 A2971 RMK SLP058 T01950171 57003 IEM_DS3505
ZBAA,1998-05-18 22:00,ZBAA 182200Z AUTO 13004KT 4SM 20/18 A2974 RMK SLP073 T02000180 IEM_DS3505
ZBAA,1998-05-18 23:00,ZBAA 182300Z AUTO 10004KT 4SM 21/19 A2974 RMK SLP073 T02100190 IEM_DS3505
ZBAA,1998-05-19 00:00,ZBAA 190000Z AUTO 14006KT 4SM 22/19 A2974 RMK SLP069 T02210186 52011 IEM_DS3505
ZBAA,1998-05-19 01:00,ZBAA 190100Z AUTO ////02KT 4SM 24/19 A2974 RMK SLP072 T02400190 IEM_DS3505
ZBAA,1998-05-19 02:00,ZBAA 190200Z AUTO ////04KT 3SM 24/19 A2977 RMK SLP083 T02400190 IEM_DS3505
ZBAA,1998-05-19 03:00,ZBAA 190300Z AUTO 16006KT 7SM 26/20 A2977 RMK SLP073 T02570199 52004 IEM_DS3505
ZBAA,1998-05-19 04:00,ZBAA 190400Z AUTO 06004KT 3SM 26/20 A2977 RMK SLP083 T02600200 IEM_DS3505
ZBAA,1998-05-19 05:00,ZBAA 190500Z AUTO 08006KT 2 1/2SM 27/21 A2974 RMK SLP071 T02700210 IEM_DS3505
ZBAA,1998-05-19 06:00,ZBAA 190600Z AUTO 14006KT 6SM 27/21 A2974 RMK SLP062 T02720208 57011 IEM_DS3505
ZBAA,1998-05-19 07:00,ZBAA 190700Z AUTO 10004KT 2 1/2SM 28/21 A2974 RMK SLP071 T02800210 IEM_DS3505
ZBAA,1998-05-19 08:00,ZBAA 190800Z AUTO 06004KT 2 1/2SM 29/21 A2974 RMK SLP071 T02900210 IEM_DS3505
ZBAA,1998-05-19 09:00,ZBAA 190900Z AUTO 02004KT 6SM 26/21 A2974 RMK SLP066 T02650213 52003 IEM_DS3505
ZBAA,1998-05-19 10:00,ZBAA 191000Z AUTO 05006G17KT 2SM 26/21 A2974 RMK SLP072 T02600210 IEM_DS3505
ZBAA,1998-05-19 11:00,ZBAA 191100Z AUTO 02004KT 2SM 26/21 A2977 RMK SLP083 T02600210 IEM_DS3505
ZBAA,1998-05-19 12:00,ZBAA 191200Z AUTO 02004KT 4SM 26/21 A2980 RMK SLP083 T02550208 52017 IEM_DS3505
ZBAA,1998-05-19 13:00,ZBAA 191300Z AUTO 21002KT 1 1/2SM 24/20 A2983 RMK SLP103 T02400200 IEM_DS3505
ZBAA,1998-05-19 14:00,ZBAA 191400Z AUTO 01004KT 1 1/2SM 23/21 A2985 RMK SLP110 T02300210 IEM_DS3505
ZBAA,1998-05-19 15:00,ZBAA 191500Z AUTO 02004KT 3SM 24/20 A2985 RMK SLP101 T02420196 52018 IEM_DS3505
ZBAA,1998-05-19 16:00,ZBAA 191600Z AUTO 01006KT 1 1/2SM 23/20 A2985 RMK SLP110 T02300200 IEM_DS3505
ZBAA,1998-05-19 17:00,ZBAA 191700Z AUTO ////02KT 1 1/2SM 22/20 A2988 RMK SLP121 T02200200 IEM_DS3505
ZBAA,1998-05-19 18:00,ZBAA 191800Z AUTO 09008KT 3SM 21/16 A2994 RMK SLP126 T02120164 52025 IEM_DS3505
ZBAA,1998-05-19 19:00,ZBAA 191900Z AUTO 11010KT 4SM 20/16 A2997 RMK SLP151 T02000160 IEM_DS3505
ZBAA,1998-05-19 20:00,ZBAA 192000Z AUTO 11006KT 4SM 19/16 A3000 RMK SLP161 T01900160 IEM_DS3505
ZBAA,1998-05-19 21:00,ZBAA 192100Z AUTO 14004KT 4SM 18/17 A3003 RMK 70008 SLP158 T01780171 52032 IEM_DS3505
ZBAA,1998-05-19 22:00,ZBAA 192200Z AUTO 36002KT 4SM 19/16 A3003 RMK SLP172 T01900160 IEM_DS3505
ZBAA,1998-05-19 23:00,ZBAA 192300Z AUTO 11002KT 4SM 20/17 A3006 RMK SLP181 T02000170 IEM_DS3505
ZBAA,1998-05-20 00:00,ZBAA 200000Z AUTO 00000KT 4SM 20/17 A3006 RMK 60008 70008 SLP174 T02050171 52016 IEM_DS3505
ZBAA,1998-05-20 01:00,ZBAA 200100Z AUTO ////02KT 5SM 22/17 A3006 RMK SLP181 T02200170 IEM_DS3505
ZBAA,1998-05-20 02:00,ZBAA 200200Z AUTO 36004KT 4SM 24/18 A3003 RMK SLP171 T02400180 IEM_DS3505
ZBAA,1998-05-20 03:00,ZBAA 200300Z AUTO 07002KT 4SM 24/17 A3003 RMK SLP169 T02450169 57005 IEM_DS3505
ZBAA,1998-05-20 04:00,ZBAA 200400Z AUTO 15004KT 7SM 26/18 A3000 RMK SLP160 T02600180 IEM_DS3505
ZBAA,1998-05-20 05:00,ZBAA 200500Z AUTO 12006KT 7SM 27/16 A3000 RMK SLP160 T02700160 IEM_DS3505
ZBAA,1998-05-20 06:00,ZBAA 200600Z AUTO 16006KT 6SM 27/17 A2997 RMK SLP154 T02680171 57015 IEM_DS3505
ZBAA,1998-05-20 07:00,ZBAA 200700Z AUTO 13006KT 7SM 28/17 A2994 RMK SLP140 T02800170 IEM_DS3505
ZBAA,1998-05-20 08:00,ZBAA 200800Z AUTO 17008KT 7SM 28/18 A2994 RMK SLP140 T02800180 IEM_DS3505
ZBAA,1998-05-20 09:00,ZBAA 200900Z AUTO 14006KT 9SM 26/18 A2994 RMK SLP139 T02630180 57015 IEM_DS3505
ZBAA,1998-05-20 10:00,ZBAA 201000Z AUTO 14006KT 7SM 26/17 A2994 RMK SLP140 T02600170 IEM_DS3505
ZBAA,1998-05-20 11:00,ZBAA 201100Z AUTO 13006KT 7SM 24/13 A2997 RMK SLP150 T02400130 IEM_DS3505
ZBAA,1998-05-20 12:00,ZBAA 201200Z AUTO 11004KT 6SM 21/14 A2997 RMK SLP145 T02110141 52006 IEM_DS3505
ZBAA,1998-05-20 13:00,ZBAA 201300Z AUTO 12002KT 7SM 22/15 A3000 RMK SLP161 T02200150 IEM_DS3505
ZBAA,1998-05-20 14:00,ZBAA 201400Z AUTO 14002KT 7SM 21/16 A3000 RMK SLP161 T02100160 IEM_DS3505
ZBAA,1998-05-20 15:00,ZBAA 201500Z AUTO 09002KT 6SM 20/15 A3003 RMK SLP161 T02030149 52016 IEM_DS3505
ZBAA,1998-05-20 16:00,ZBAA 201600Z AUTO 08002KT 7SM 20/15 A3003 RMK SLP171 T02000150 IEM_DS3505
ZBAA,1998-05-20 17:00,ZBAA 201700Z AUTO 00000KT 7SM 19/15 A3000 RMK SLP161 T01900150 IEM_DS3505
ZBAA,1998-05-20 18:00,ZBAA 201800Z AUTO 04006KT 6SM 19/15 A3000 RMK SLP157 T01860147 57004 IEM_DS3505
ZBAA,1998-05-20 19:00,ZBAA 201900Z AUTO 00000KT 6SM 19/14 A3000 RMK SLP161 T01900140 IEM_DS3505
ZBAA,1998-05-20 20:00,ZBAA 202000Z AUTO 00000KT 6SM 19/14 A2997 RMK SLP151 T01900140 IEM_DS3505
ZBAA,1998-05-20 21:00,ZBAA 202100Z AUTO 07004KT 6SM 16/14 A2997 RMK 70000 SLP147 T01630140 57010 IEM_DS3505
ZBAA,1998-05-20 22:00,ZBAA 202200Z AUTO 15002KT 4SM 18/13 A2997 RMK SLP152 T01800130 IEM_DS3505
ZBAA,1998-05-20 23:00,ZBAA 202300Z AUTO 10004KT 5SM 19/14 A2997 RMK SLP151 T01900140 IEM_DS3505
ZBAA,1998-05-21 00:00,ZBAA 210000Z AUTO 07008KT 6SM 19/14 A2997 RMK SLP146 T01930139 57001 IEM_DS3505
ZBAA,1998-05-21 01:00,ZBAA 210100Z AUTO 12006KT 5SM 21/14 A2997 RMK SLP151 T02100140 IEM_DS3505
ZBAA,1998-05-21 02:00,ZBAA 210200Z AUTO 11006KT 5SM 22/14 A2994 RMK SLP141 T02200140 IEM_DS3505
ZBAA,1998-05-21 03:00,ZBAA 210300Z AUTO 07008KT 7SM 22/16 A2994 RMK SLP139 T02230159 57007 IEM_DS3505
ZBAA,1998-05-21 04:00,ZBAA 210400Z AUTO 12008KT 5SM 23/14 A2991 RMK SLP130 T02300140 IEM_DS3505
ZBAA,1998-05-21 05:00,ZBAA 210500Z AUTO 14006KT 6SM 23/15 A2991 RMK SLP130 T02300150 IEM_DS3505
ZBAA,1998-05-21 06:00,ZBAA 210600Z AUTO 09006KT 5SM 22/17 A2988 RMK 60000 SLP112 T02170170 57027 IEM_DS3505
ZBAA,1998-05-21 07:00,ZBAA 210700Z AUTO 13004KT 7SM 21/16 A2985 RMK SLP111 T02100160 IEM_DS3505
ZBAA,1998-05-21 08:00,ZBAA 210800Z AUTO 16004KT 7SM 19/17 A2985 RMK SLP111 T01900170 IEM_DS3505
ZBAA,1998-05-21 09:00,ZBAA 210900Z AUTO 11004KT 4SM 18/17 A2985 RMK SLP105 T01850174 57008 IEM_DS3505
ZBAA,1998-05-21 10:00,ZBAA 211000Z AUTO 12006G16KT 2SM 18/17 A2983 RMK SLP104 T01800170 IEM_DS3505
ZBAA,1998-05-21 11:00,ZBAA 211100Z AUTO 27002KT 2 1/2SM 16/15 A2988 RMK SLP122 T01600150 IEM_DS3505
ZBAA,1998-05-21 12:00,ZBAA 211200Z AUTO 32010KT 2 1/2SM 16/15 A2991 RMK 60059 SLP116 T01590147 52011 IEM_DS3505
ZBAA,1998-05-21 13:00,ZBAA 211300Z AUTO 31012KT 1 1/2SM 16/15 A2991 RMK SLP132 T01600150 IEM_DS3505
ZBAA,1998-05-21 14:00,ZBAA 211400Z AUTO 02002KT 1 1/2SM 16/16 A2988 RMK SLP122 T01600160 IEM_DS3505
ZBAA,1998-05-21 15:00,ZBAA 211500Z AUTO 02006KT 3SM 16/15 A2988 RMK SLP119 T01590152 52004 IEM_DS3505
ZBAA,1998-05-21 16:00,ZBAA 211600Z AUTO 34006KT 2 1/2SM 16/16 A2988 RMK SLP122 T01600160 IEM_DS3505
ZBAA,1998-05-21 17:00,ZBAA 211700Z AUTO 01004KT 2 1/2SM 16/15 A2988 RMK SLP122 T01600150 IEM_DS3505
ZBAA,1998-05-21 18:00,ZBAA 211800Z AUTO 02004KT 9SM 16/14 A2991 RMK 60039 SLP120 T01590140 52001 IEM_DS3505
ZBAA,1998-05-21 19:00,ZBAA 211900Z AUTO 36004KT 2SM 15/15 A2991 RMK SLP132 T01500150 IEM_DS3505
ZBAA,1998-05-21 20:00,ZBAA 212000Z AUTO 34002KT 2 1/2SM 14/14 A2994 RMK SLP142 T01400140 IEM_DS3505
ZBAA,1998-05-21 21:00,ZBAA 212100Z AUTO 32006KT 12SM 17/08 A2994 RMK 70098 SLP138 T01710079 52017 IEM_DS3505
ZBAA,1998-05-21 22:00,ZBAA 212200Z AUTO 33010KT 6SM 15/11 A2994 RMK SLP142 T01500110 IEM_DS3505
ZBAA,1998-05-21 23:00,ZBAA 212300Z AUTO 32008KT 6SM 17/10 A2997 RMK SLP152 T01700100 IEM_DS3505
ZBAA,1998-05-22 00:00,ZBAA 220000Z AUTO 34008KT 12SM 20/06 A3000 RMK 70098 SLP153 T01960062 52015 IEM_DS3505
ZBAA,1998-05-22 02:00,ZBAA 220200Z AUTO 36006KT 7SM 22/10 A3000 RMK SLP161 T02200100 IEM_DS3505
ZBAA,1998-05-22 03:00,ZBAA 220300Z AUTO 04006KT 19SM 23/06 A3000 RMK SLP153 T02280056 52001 IEM_DS3505
ZBAA,1998-05-22 04:00,ZBAA 220400Z AUTO 02006KT 7SM 24/08 A2997 RMK SLP150 T02400080 IEM_DS3505
ZBAA,1998-05-22 06:00,ZBAA 220600Z AUTO 07004KT 19SM 24/08 A3003 RMK SLP146 T02450080 57007 IEM_DS3505
ZBAA,1998-05-22 07:00,ZBAA 220700Z AUTO ////02KT 7SM 26/07 A2994 RMK SLP140 T02600070 IEM_DS3505
ZBAA,1998-05-22 08:00,ZBAA 220800Z AUTO 11004KT 7SM 25/09 A2994 RMK SLP140 T02500090 IEM_DS3505
ZBAA,1998-05-22 09:00,ZBAA 220900Z AUTO 11008KT 19SM 24/10 A2994 RMK SLP139 T02450103 57007 IEM_DS3505
ZBAA,1998-05-22 12:00,ZBAA 221200Z AUTO 16008KT 19SM 20/16 A3004 RMK SLP152 T01990155 52013 IEM_DS3505
ZBAA,1998-05-22 13:00,ZBAA 221300Z AUTO 14008KT 7SM 18/16 A3003 RMK SLP172 T01800160 IEM_DS3505
ZBAA,1998-05-22 14:00,ZBAA 221400Z AUTO 14006KT 7SM 17/15 A3003 RMK SLP172 T01700150 IEM_DS3505
ZBAA,1998-05-22 15:00,ZBAA 221500Z AUTO 22004KT 16SM 16/14 A3004 RMK SLP175 T01630140 52022 IEM_DS3505
ZBAA,1998-05-22 17:00,ZBAA 221700Z AUTO 16002KT 7SM 16/15 A3006 RMK SLP182 T01600150 IEM_DS3505
ZBAA,1998-05-22 18:00,ZBAA 221800Z AUTO 00000KT 12SM 14/13 A3011 RMK SLP176 T01420126 52001 IEM_DS3505
ZBAA,1998-05-22 20:00,ZBAA 222000Z AUTO 00000KT 7SM 15/14 A3006 RMK SLP182 T01500140 IEM_DS3505
ZBAA,1998-05-22 21:00,ZBAA 222100Z AUTO 00000KT 7SM 14/12 A3003 RMK SLP169 T01380123 57007 IEM_DS3505
ZBAA,1998-05-22 22:00,ZBAA 222200Z AUTO 00000KT 6SM 15/14 A3003 RMK SLP172 T01500140 IEM_DS3505
ZBAA,1998-05-23 00:00,ZBAA 230000Z AUTO 29002KT 5SM 17/12 A3009 RMK SLP169 T01700125 54000 IEM_DS3505
ZBAA,1998-05-23 02:00,ZBAA 230200Z AUTO 27004KT 6SM 19/13 A3003 RMK SLP172 T01900130 IEM_DS3505
ZBAA,1998-05-23 03:00,ZBAA 230300Z AUTO 22008KT 12SM 18/11 A3003 RMK SLP170 T01820112 52001 IEM_DS3505
ZBAA,1998-05-23 04:00,ZBAA 230400Z AUTO 23004KT 6SM 19/13 A3000 RMK SLP161 T01900130 IEM_DS3505
ZBAA,1998-05-23 05:00,ZBAA 230500Z AUTO 17004KT 6SM 19/13 A3000 RMK SLP161 T01900130 IEM_DS3505
ZBAA,1998-05-23 06:00,ZBAA 230600Z AUTO 25008KT 11SM 20/12 A2994 RMK SLP152 T01950122 57018 IEM_DS3505
ZBAA,1998-05-23 07:00,ZBAA 230700Z AUTO 20006KT 6SM 20/12 A2994 RMK SLP141 T02000120 IEM_DS3505
ZBAA,1998-05-23 08:00,ZBAA 230800Z AUTO 20004KT 6SM 21/13 A2991 RMK SLP131 T02100130 IEM_DS3505
ZBAA,1998-05-23 09:00,ZBAA 230900Z AUTO 20006KT 9SM 20/13 A2991 RMK SLP133 T02010129 57019 IEM_DS3505
ZBAA,1998-05-23 10:00,ZBAA 231000Z AUTO 06002KT 6SM 21/15 A2991 RMK SLP131 T02100150 IEM_DS3505
ZBAA,1998-05-23 11:00,ZBAA 231100Z AUTO 06002KT 4SM 20/15 A2991 RMK SLP131 T02000150 IEM_DS3505
ZBAA,1998-05-23 12:00,ZBAA 231200Z AUTO 29004KT 9SM 19/14 A2994 RMK SLP137 T01890141 52004 IEM_DS3505
ZBAA,1998-05-23 13:00,ZBAA 231300Z AUTO 01002KT 4SM 19/15 A2997 RMK SLP151 T01900150 IEM_DS3505
ZBAA,1998-05-23 14:00,ZBAA 231400Z AUTO 35006KT 6SM 19/14 A2997 RMK SLP151 T01900140 IEM_DS3505
ZBAA,1998-05-23 15:00,ZBAA 231500Z AUTO 32010KT 12SM 21/01 A2997 RMK SLP152 T02100011 52016 IEM_DS3505
ZBAA,1998-05-23 16:00,ZBAA 231600Z AUTO 33008KT 6SM 19/04 A3000 RMK SLP161 T01900040 IEM_DS3505
ZBAA,1998-05-23 17:00,ZBAA 231700Z AUTO 34006KT 6SM 19/04 A3000 RMK SLP161 T01900040 IEM_DS3505
ZBAA,1998-05-23 18:00,ZBAA 231800Z AUTO 34008KT 12SM 20/M06 A3000 RMK SLP159 T01951057 52007 IEM_DS3505
ZBAA,1998-05-23 19:00,ZBAA 231900Z AUTO 34008KT 6SM 18/M01 A3000 RMK SLP162 T01801010 IEM_DS3505
ZBAA,1998-05-23 20:00,ZBAA 232000Z AUTO 33008KT 6SM 16/M02 A3000 RMK SLP162 T01601020 IEM_DS3505
ZBAA,1998-05-23 21:00,ZBAA 232100Z AUTO 34006KT 19SM 17/M05 A3000 RMK SLP162 T01721049 52002 IEM_DS3505
ZBAA,1998-05-23 22:00,ZBAA 232200Z AUTO 31012KT 6SM 16/M03 A3003 RMK SLP172 T01601030 IEM_DS3505
ZBAA,1998-05-23 23:00,ZBAA 232300Z AUTO 30008KT 6SM 17/00 A3003 RMK SLP172 T01700000 IEM_DS3505
ZBAA,1998-05-24 00:00,ZBAA 240000Z AUTO 34006KT 19SM 18/M03 A3003 RMK SLP168 T01851033 52006 IEM_DS3505
ZBAA,1998-05-24 01:00,ZBAA 240100Z AUTO 28004KT 7SM 19/01 A3000 RMK SLP161 T01900010 IEM_DS3505
ZBAA,1998-05-24 02:00,ZBAA 240200Z AUTO 30012KT 7SM 21/M02 A3000 RMK SLP161 T02101020 IEM_DS3505
ZBAA,1998-05-24 03:00,ZBAA 240300Z AUTO 27006KT 16SM 22/M02 A2997 RMK SLP148 T02241015 57019 IEM_DS3505
ZBAA,1998-05-24 04:00,ZBAA 240400Z AUTO 27008G21KT 7SM 23/01 A2994 RMK SLP141 T02300010 IEM_DS3505
ZBAA,1998-05-24 05:00,ZBAA 240500Z AUTO 26010KT 7SM 24/00 A2988 RMK SLP120 T02400000 IEM_DS3505
ZBAA,1998-05-24 06:00,ZBAA 240600Z AUTO 22012KT 19SM 24/03 A2985 RMK SLP116 T02440028 57032 IEM_DS3505
ZBAA,1998-05-24 07:00,ZBAA 240700Z AUTO 27014KT 6SM 27/04 A2983 RMK SLP102 T02700040 IEM_DS3505
ZBAA,1998-05-24 08:00,ZBAA 240800Z AUTO 31010KT 6SM 27/05 A2980 RMK SLP092 T02700050 IEM_DS3505
ZBAA,1998-05-24 09:00,ZBAA 240900Z AUTO 22012KT 17SM 24/06 A2980 RMK SLP091 T02440060 57025 IEM_DS3505
ZBAA,1998-05-24 10:00,ZBAA 241000Z AUTO 03004KT 6SM 26/05 A2980 RMK SLP093 T02600050 IEM_DS3505
ZBAA,1998-05-24 11:00,ZBAA 241100Z AUTO ////04KT 6SM 23/09 A2980 RMK SLP093 T02300090 IEM_DS3505
ZBAA,1998-05-24 12:00,ZBAA 241200Z AUTO 22006KT 12SM 20/09 A2980 RMK SLP090 T02020091 57001 IEM_DS3505
ZBAA,1998-05-24 13:00,ZBAA 241300Z AUTO 21008KT 7SM 21/09 A2980 RMK SLP094 T02100090 IEM_DS3505
ZBAA,1998-05-24 14:00,ZBAA 241400Z AUTO 22006KT 7SM 20/09 A2980 RMK SLP094 T02000090 IEM_DS3505
ZBAA,1998-05-24 15:00,ZBAA 241500Z AUTO 20006KT 9SM 18/10 A2980 RMK SLP089 T01750100 57001 IEM_DS3505
ZBAA,1998-05-24 16:00,ZBAA 241600Z AUTO 10002KT 7SM 15/10 A2977 RMK SLP085 T01500100 IEM_DS3505
ZBAA,1998-05-24 17:00,ZBAA 241700Z AUTO 00000KT 7SM 15/11 A2974 RMK SLP074 T01500110 IEM_DS3505
ZBAA,1998-05-24 18:00,ZBAA 241800Z AUTO 22004KT 6SM 14/10 A2974 RMK SLP068 T01450103 57021 IEM_DS3505
ZBAA,1998-05-24 19:00,ZBAA 241900Z AUTO 05002KT 7SM 13/12 A2971 RMK SLP064 T01300120 IEM_DS3505
ZBAA,1998-05-24 20:00,ZBAA 242000Z AUTO ////02KT 7SM 12/11 A2971 RMK SLP064 T01200110 IEM_DS3505
ZBAA,1998-05-24 21:00,ZBAA 242100Z AUTO 25002KT 6SM 13/10 A2971 RMK SLP058 T01280101 57010 IEM_DS3505
ZBAA,1998-05-24 22:00,ZBAA 242200Z AUTO 00000KT 4SM 12/12 A2971 RMK SLP064 T01200120 IEM_DS3505
ZBAA,1998-05-24 23:00,ZBAA 242300Z AUTO 00000KT 5SM 15/12 A2968 RMK SLP054 T01500120 IEM_DS3505
ZBAA,1998-05-25 00:00,ZBAA 250000Z AUTO 00000KT 6SM 18/12 A2968 RMK SLP049 T01820115 57009 IEM_DS3505
ZBAA,1998-05-25 01:00,ZBAA 250100Z AUTO 11002KT 5SM 21/13 A2968 RMK SLP052 T02100130 IEM_DS3505
ZBAA,1998-05-25 02:00,ZBAA 250200Z AUTO 15004KT 7SM 24/12 A2965 RMK SLP042 T02400120 IEM_DS3505
ZBAA,1998-05-25 03:00,ZBAA 250300Z AUTO 20008KT 16SM 27/10 A2965 RMK SLP039 T02680099 57010 IEM_DS3505
ZBAA,1998-05-25 04:00,ZBAA 250400Z AUTO 18008KT 7SM 28/10 A2962 RMK SLP031 T02800100 IEM_DS3505
ZBAA,1998-05-25 05:00,ZBAA 250500Z AUTO 16008KT 7SM 29/11 A2959 RMK SLP021 T02900110 IEM_DS3505
ZBAA,1998-05-25 06:00,ZBAA 250600Z AUTO 20012KT 19SM 29/07 A2964 RMK SLP016 T02930070 57023 IEM_DS3505
ZBAA,1998-05-25 07:00,ZBAA 250700Z AUTO 19012KT 7SM 29/06 A2953 RMK SLP000 T02900060 IEM_DS3505
ZBAA,1998-05-25 08:00,ZBAA 250800Z AUTO 18014KT 7SM 29/08 A2953 RMK SLP000 T02900080 IEM_DS3505
ZBAA,1998-05-25 09:00,ZBAA 250900Z AUTO 20012KT 19SM 28/05 A2950 RMK SLP005 T02800052 57011 IEM_DS3505
ZBAA,1998-05-25 10:00,ZBAA 251000Z AUTO 20014KT 7SM 28/08 A2950 RMK SLP991 T02800080 IEM_DS3505
ZBAA,1998-05-25 11:00,ZBAA 251100Z AUTO 21012KT 7SM 26/07 A2953 RMK SLP001 T02600070 IEM_DS3505
ZBAA,1998-05-25 12:00,ZBAA 251200Z AUTO 22006KT 12SM 23/09 A2953 RMK SLP002 T02310089 57003 IEM_DS3505
ZBAA,1998-05-25 13:00,ZBAA 251300Z AUTO 20010KT 6SM 25/08 A2956 RMK SLP011 T02500080 IEM_DS3505
ZBAA,1998-05-25 14:00,ZBAA 251400Z AUTO 21010KT 7SM 24/09 A2956 RMK SLP012 T02400090 IEM_DS3505
ZBAA,1998-05-25 15:00,ZBAA 251500Z AUTO 20010KT 12SM 21/08 A2956 RMK SLP010 T02130078 52009 IEM_DS3505
ZBAA,1998-05-25 16:00,ZBAA 251600Z AUTO 17004KT 7SM 20/09 A2956 RMK SLP012 T02000090 IEM_DS3505
ZBAA,1998-05-25 17:00,ZBAA 251700Z AUTO 00000KT 7SM 18/10 A2956 RMK SLP013 T01800100 IEM_DS3505
ZBAA,1998-05-25 18:00,ZBAA 251800Z AUTO 25004KT 12SM 18/09 A2953 RMK SLP007 T01750091 57003 IEM_DS3505
ZBAA,1998-05-25 19:00,ZBAA 251900Z AUTO 01002KT 7SM 15/12 A2953 RMK SLP003 T01500120 IEM_DS3505
ZBAA,1998-05-25 20:00,ZBAA 252000Z AUTO 00000KT 7SM 15/12 A2953 RMK SLP003 T01500120 IEM_DS3505
ZBAA,1998-05-25 21:00,ZBAA 252100Z AUTO 00000KT 9SM 14/10 A2953 RMK SLP005 T01360100 57003 IEM_DS3505
ZBAA,1998-05-25 22:00,ZBAA 252200Z AUTO 07002KT 6SM 15/12 A2953 RMK SLP003 T01500120 IEM_DS3505
ZBAA,1998-05-25 23:00,ZBAA 252300Z AUTO 12002KT 6SM 16/13 A2956 RMK SLP013 T01600130 IEM_DS3505
ZBAA,1998-05-26 00:00,ZBAA 260000Z AUTO 03002KT 6SM 18/14 A2956 RMK SLP013 T01800140 IEM_DS3505
ZBAA,1998-05-26 01:00,ZBAA 260100Z AUTO 03004KT 6SM 20/13 A2956 RMK SLP012 T02000130 IEM_DS3505
ZBAA,1998-05-26 02:00,ZBAA 260200Z AUTO 14004KT 6SM 21/15 A2953 RMK SLP002 T02100150 IEM_DS3505
ZBAA,1998-05-26 03:00,ZBAA 260300Z AUTO 20008KT 11SM 26/11 A2953 RMK SLP000 T02630106 57006 IEM_DS3505
ZBAA,1998-05-26 04:00,ZBAA 260400Z AUTO ////04KT 4SM 25/15 A2956 RMK SLP011 T02500150 IEM_DS3505
ZBAA,1998-05-26 05:00,ZBAA 260500Z AUTO 14004KT 4SM 27/16 A2953 RMK SLP001 T02700160 IEM_DS3505
ZBAA,1998-05-26 06:00,ZBAA 260600Z AUTO 32006KT 6SM 30/04 A2953 RMK SLP997 T03030045 57003 IEM_DS3505
ZBAA,1998-05-26 07:00,ZBAA 260700Z AUTO 30012KT 6SM 30/03 A2953 RMK SLP000 T03000030 IEM_DS3505
ZBAA,1998-05-26 08:00,ZBAA 260800Z AUTO 27008KT 6SM 29/03 A2953 RMK SLP000 T02900030 IEM_DS3505
ZBAA,1998-05-26 09:00,ZBAA 260900Z AUTO 34010KT 6SM 30/00 A2956 RMK SLP006 T02970005 52008 IEM_DS3505
ZBAA,1998-05-26 10:00,ZBAA 261000Z AUTO 34008KT 6SM 29/07 A2959 RMK SLP021 T02900070 IEM_DS3505
ZBAA,1998-05-26 11:00,ZBAA 261100Z AUTO 35008KT 6SM 27/07 A2962 RMK SLP031 T02700070 IEM_DS3505
ZBAA,1998-05-26 12:00,ZBAA 261200Z AUTO 02006KT 7SM 26/05 A2965 RMK SLP029 T02640051 52024 IEM_DS3505
ZBAA,1998-05-26 13:00,ZBAA 261300Z AUTO 01004KT 7SM 22/05 A2968 RMK SLP052 T02200050 IEM_DS3505
ZBAA,1998-05-26 14:00,ZBAA 261400Z AUTO 01008KT 6SM 21/04 A2974 RMK SLP073 T02100040 IEM_DS3505
ZBAA,1998-05-26 15:00,ZBAA 261500Z AUTO 02010KT 9SM 22/03 A2977 RMK SLP072 T02180027 52042 IEM_DS3505
ZBAA,1998-05-26 16:00,ZBAA 261600Z AUTO 04006KT 7SM 20/01 A2980 RMK SLP094 T02000010 IEM_DS3505
ZBAA,1998-05-26 17:00,ZBAA 261700Z AUTO 04004KT 7SM 19/00 A2980 RMK SLP094 T01900000 IEM_DS3505
ZBAA,1998-05-26 18:00,ZBAA 261800Z AUTO 07004KT 19SM 18/02 A2983 RMK SLP091 T01800016 52019 IEM_DS3505
ZBAA,1998-05-26 19:00,ZBAA 261900Z AUTO 02006KT 6SM 18/00 A2983 RMK SLP104 T01800000 IEM_DS3505
ZBAA,1998-05-26 20:00,ZBAA 262000Z AUTO 01008KT 7SM 17/00 A2983 RMK SLP105 T01700000 IEM_DS3505
ZBAA,1998-05-26 21:00,ZBAA 262100Z AUTO 07002KT 17SM 15/03 A2983 RMK SLP102 T01480034 52011 IEM_DS3505
ZBAA,1998-05-26 22:00,ZBAA 262200Z AUTO ////04KT 7SM 15/04 A2985 RMK SLP112 T01500040 IEM_DS3505
ZBAA,1998-05-26 23:00,ZBAA 262300Z AUTO 23002KT 7SM 17/03 A2988 RMK SLP122 T01700030 IEM_DS3505
ZBAA,1998-05-27 00:00,ZBAA 270000Z AUTO 09004KT 7SM 18/08 A2988 RMK SLP112 T01830080 52010 IEM_DS3505
ZBAA,1998-05-27 01:00,ZBAA 270100Z AUTO 19004KT 7SM 20/09 A2988 RMK SLP121 T02000090 IEM_DS3505
ZBAA,1998-05-27 02:00,ZBAA 270200Z AUTO 12004KT 6SM 21/06 A2988 RMK SLP121 T02100060 IEM_DS3505
ZBAA,1998-05-27 03:00,ZBAA 270300Z AUTO 07006KT 9SM 21/08 A2985 RMK SLP112 T02110079 54000 IEM_DS3505
ZBAA,1998-05-27 04:00,ZBAA 270400Z AUTO 13006KT 6SM 22/07 A2983 RMK SLP104 T02200070 IEM_DS3505
ZBAA,1998-05-27 05:00,ZBAA 270500Z AUTO 15006KT 6SM 23/08 A2983 RMK SLP103 T02300080 IEM_DS3505
ZBAA,1998-05-27 06:00,ZBAA 270600Z AUTO 14006KT 9SM 21/08 A2980 RMK SLP090 T02130077 57022 IEM_DS3505
ZBAA,1998-05-27 07:00,ZBAA 270700Z AUTO 16006KT 6SM 22/09 A2977 RMK SLP083 T02200090 IEM_DS3505
ZBAA,1998-05-27 08:00,ZBAA 270800Z AUTO 17006KT 6SM 22/08 A2977 RMK SLP083 T02200080 IEM_DS3505
ZBAA,1998-05-27 09:00,ZBAA 270900Z AUTO 11004KT 9SM 21/11 A2974 RMK SLP067 T02100113 57023 IEM_DS3505
ZBAA,1998-05-27 10:00,ZBAA 271000Z AUTO 07002KT 6SM 21/09 A2971 RMK SLP062 T02100090 IEM_DS3505
ZBAA,1998-05-27 11:00,ZBAA 271100Z AUTO 16002KT 7SM 20/10 A2971 RMK SLP063 T02000100 IEM_DS3505
ZBAA,1998-05-27 12:00,ZBAA 271200Z AUTO 22006KT 9SM 20/09 A2974 RMK SLP070 T02030088 52003 IEM_DS3505
ZBAA,1998-05-27 13:00,ZBAA 271300Z AUTO 23002KT 7SM 20/09 A2974 RMK SLP073 T02000090 IEM_DS3505
ZBAA,1998-05-27 14:00,ZBAA 271400Z AUTO 00000KT 7SM 19/12 A2974 RMK SLP073 T01900120 IEM_DS3505
ZBAA,1998-05-27 15:00,ZBAA 271500Z AUTO 00000KT 12SM 18/12 A2974 RMK SLP070 T01830116 54000 IEM_DS3505
ZBAA,1998-05-27 16:00,ZBAA 271600Z AUTO 02002KT 7SM 17/14 A2974 RMK SLP073 T01700140 IEM_DS3505
ZBAA,1998-05-27 17:00,ZBAA 271700Z AUTO 33010KT 7SM 16/14 A2977 RMK SLP085 T01600140 IEM_DS3505
ZBAA,1998-05-27 18:00,ZBAA 271800Z AUTO 34012G29KT 5SM 16/12 A2980 RMK 60008 SLP077 T01610119 52007 IEM_DS3505
ZBAA,1998-05-27 19:00,ZBAA 271900Z AUTO 33017KT 6SM 15/08 A2980 RMK SLP095 T01500080 IEM_DS3505
ZBAA,1998-05-27 20:00,ZBAA 272000Z AUTO 32012KT 6SM 15/05 A2980 RMK SLP095 T01500050 IEM_DS3505
ZBAA,1998-05-27 21:00,ZBAA 272100Z AUTO 34006KT 19SM 15/04 A2983 RMK 70012 SLP088 T01530038 52011 IEM_DS3505
ZBAA,1998-05-27 22:00,ZBAA 272200Z AUTO 02004KT 6SM 13/09 A2983 RMK SLP105 T01300090 IEM_DS3505
ZBAA,1998-05-28 00:00,ZBAA 280000Z AUTO 32012KT 19SM 17/M02 A2983 RMK 60002 70012 SLP102 T01741025 52014 IEM_DS3505
ZBAA,1998-05-28 01:00,ZBAA 280100Z AUTO 31019KT 7SM 19/M01 A2985 RMK SLP111 T01901010 IEM_DS3505
ZBAA,1998-05-28 02:00,ZBAA 280200Z AUTO 32021G35KT 7SM 20/M03 A2985 RMK SLP111 T02001030 IEM_DS3505
ZBAA,1998-05-28 03:00,ZBAA 280300Z AUTO 32014G31KT 19SM 21/M04 A2985 RMK SLP106 T02061038 52004 IEM_DS3505
ZBAA,1998-05-28 04:00,ZBAA 280400Z AUTO 33016G29KT 7SM 22/M01 A2983 RMK SLP104 T02201010 IEM_DS3505
ZBAA,1998-05-28 05:00,ZBAA 280500Z AUTO 33014G23KT 7SM 23/M01 A2983 RMK SLP103 T02301010 IEM_DS3505
ZBAA,1998-05-28 06:00,ZBAA 280600Z AUTO 34012KT 19SM 24/M03 A2980 RMK SLP097 T02361030 57009 IEM_DS3505
ZBAA,1998-05-28 07:00,ZBAA 280700Z AUTO 29012G23KT 7SM 25/01 A2980 RMK SLP093 T02500010 IEM_DS3505
ZBAA,1998-05-28 08:00,ZBAA 280800Z AUTO 29010KT 7SM 25/M02 A2980 RMK SLP093 T02501020 IEM_DS3505
ZBAA,1998-05-28 09:00,ZBAA 280900Z AUTO 22010KT 19SM 24/03 A2977 RMK SLP086 T02440032 57011 IEM_DS3505
ZBAA,1998-05-28 10:00,ZBAA 281000Z AUTO 27008KT 7SM 25/M03 A2977 RMK SLP083 T02501030 IEM_DS3505
ZBAA,1998-05-28 11:00,ZBAA 281100Z AUTO 19008KT 7SM 22/02 A2977 RMK SLP083 T02200020 IEM_DS3505
ZBAA,1998-05-28 12:00,ZBAA 281200Z AUTO 20006KT 19SM 20/04 A2977 RMK SLP084 T02050043 57002 IEM_DS3505
ZBAA,1998-05-28 13:00,ZBAA 281300Z AUTO 19008KT 7SM 19/04 A2977 RMK SLP084 T01900040 IEM_DS3505
ZBAA,1998-05-28 14:00,ZBAA 281400Z AUTO 20010KT 7SM 19/04 A2977 RMK SLP084 T01900040 IEM_DS3505
ZBAA,1998-05-28 15:00,ZBAA 281500Z AUTO 22008KT 16SM 16/06 A2977 RMK SLP087 T01630055 52003 IEM_DS3505
ZBAA,1998-05-28 16:00,ZBAA 281600Z AUTO 22008KT 7SM 20/04 A2977 RMK SLP084 T02000040 IEM_DS3505
ZBAA,1998-05-28 17:00,ZBAA 281700Z AUTO 23008G17KT 7SM 19/04 A2977 RMK SLP084 T01900040 IEM_DS3505
ZBAA,1998-05-28 18:00,ZBAA 281800Z AUTO 20008KT 12SM 16/06 A2980 RMK SLP086 T01550063 57001 IEM_DS3505
ZBAA,1998-05-28 19:00,ZBAA 281900Z AUTO 35004KT 7SM 14/07 A2980 RMK SLP095 T01400070 IEM_DS3505
ZBAA,1998-05-28 20:00,ZBAA 282000Z AUTO 34008KT 7SM 15/06 A2985 RMK SLP112 T01500060 IEM_DS3505
ZBAA,1998-05-28 21:00,ZBAA 282100Z AUTO 07004KT 12SM 15/05 A2988 RMK SLP110 T01540051 52024 IEM_DS3505
ZBAA,1998-05-28 22:00,ZBAA 282200Z AUTO 35010KT 6SM 17/01 A2991 RMK SLP132 T01700010 IEM_DS3505
ZBAA,1998-05-28 23:00,ZBAA 282300Z AUTO 33012KT 7SM 18/M01 A2991 RMK SLP132 T01801010 IEM_DS3505
ZBAA,1998-05-29 00:00,ZBAA 290000Z AUTO 34008KT 19SM 19/M05 A2991 RMK SLP123 T01911051 52013 IEM_DS3505
ZBAA,1998-05-29 01:00,ZBAA 290100Z AUTO 31012KT 7SM 19/M02 A2991 RMK SLP131 T01901020 IEM_DS3505
ZBAA,1998-05-29 02:00,ZBAA 290200Z AUTO 31016KT 7SM 20/M05 A2991 RMK SLP131 T02001050 IEM_DS3505
ZBAA,1998-05-29 03:00,ZBAA 290300Z AUTO 34008KT 19SM 21/M04 A2988 RMK SLP122 T02131045 57001 IEM_DS3505
ZBAA,1998-05-29 04:00,ZBAA 290400Z AUTO 31012G21KT 7SM 23/M02 A2988 RMK SLP120 T02301020 IEM_DS3505
ZBAA,1998-05-29 05:00,ZBAA 290500Z AUTO 32006G16KT 7SM 22/M03 A2985 RMK SLP111 T02201030 IEM_DS3505
ZBAA,1998-05-29 06:00,ZBAA 290600Z AUTO 34004KT 19SM 24/00 A2983 RMK SLP102 T02400001 57020 IEM_DS3505
ZBAA,1998-05-29 07:00,ZBAA 290700Z AUTO 29012KT 7SM 24/M02 A2983 RMK SLP103 T02401020 IEM_DS3505
ZBAA,1998-05-29 08:00,ZBAA 290800Z AUTO 30012KT 7SM 25/M02 A2980 RMK SLP093 T02501020 IEM_DS3505
ZBAA,1998-05-29 09:00,ZBAA 290900Z AUTO 20008KT 12SM 24/00 A2977 RMK SLP085 T02450001 57017 IEM_DS3505
ZBAA,1998-05-29 10:00,ZBAA 291000Z AUTO 32012KT 7SM 25/M02 A2977 RMK SLP083 T02501020 IEM_DS3505
ZBAA,1998-05-29 11:00,ZBAA 291100Z AUTO 18008KT 7SM 22/03 A2977 RMK SLP083 T02200030 IEM_DS3505
ZBAA,1998-05-29 12:00,ZBAA 291200Z AUTO 20006KT 12SM 21/04 A2977 RMK SLP087 T02060038 52002 IEM_DS3505
ZBAA,1998-05-29 13:00,ZBAA 291300Z AUTO 19008KT 7SM 18/03 A2980 RMK SLP094 T01800030 IEM_DS3505
ZBAA,1998-05-29 14:00,ZBAA 291400Z AUTO 19006KT 7SM 18/03 A2980 RMK SLP094 T01800030 IEM_DS3505
ZBAA,1998-05-29 15:00,ZBAA 291500Z AUTO 25006KT 6SM 17/04 A2980 RMK SLP094 T01720043 52007 IEM_DS3505
ZBAA,1998-05-29 16:00,ZBAA 291600Z AUTO 19004KT 7SM 17/03 A2983 RMK SLP105 T01700030 IEM_DS3505
ZBAA,1998-05-29 17:00,ZBAA 291700Z AUTO 11002KT 7SM 14/06 A2983 RMK SLP105 T01400060 IEM_DS3505
ZBAA,1998-05-29 18:00,ZBAA 291800Z AUTO 25006KT 12SM 16/06 A2985 RMK SLP103 T01550063 52009 IEM_DS3505
ZBAA,1998-05-29 19:00,ZBAA 291900Z AUTO 01002KT 7SM 13/07 A2985 RMK SLP112 T01300070 IEM_DS3505
ZBAA,1998-05-29 20:00,ZBAA 292000Z AUTO 36004KT 7SM 12/07 A2985 RMK SLP113 T01200070 IEM_DS3505
ZBAA,1998-05-29 21:00,ZBAA 292100Z AUTO 22002KT 9SM 14/08 A2988 RMK SLP107 T01350079 52004 IEM_DS3505
ZBAA,1998-05-29 22:00,ZBAA 292200Z AUTO 01004KT 7SM 12/06 A2988 RMK SLP123 T01200060 IEM_DS3505
ZBAA,1998-05-29 23:00,ZBAA 292300Z AUTO 36004KT 7SM 15/07 A2988 RMK SLP122 T01500070 IEM_DS3505
ZBAA,1998-05-30 00:00,ZBAA 300000Z AUTO 04004KT 9SM 18/07 A2995 RMK SLP121 T01820071 52014 IEM_DS3505
ZBAA,1998-05-30 01:00,ZBAA 300100Z AUTO ////02KT 7SM 20/07 A2991 RMK SLP131 T02000070 IEM_DS3505
ZBAA,1998-05-30 02:00,ZBAA 300200Z AUTO ////02KT 7SM 23/06 A2988 RMK SLP120 T02300060 IEM_DS3505
ZBAA,1998-05-30 03:00,ZBAA 300300Z AUTO 09004KT 9SM 24/03 A2988 RMK SLP116 T02410032 57005 IEM_DS3505
ZBAA,1998-05-30 05:00,ZBAA 300500Z AUTO 18006KT 7SM 27/00 A2983 RMK SLP102 T02700000 IEM_DS3505
ZBAA,1998-05-30 06:00,ZBAA 300600Z AUTO 18008KT 12SM 27/00 A2983 RMK SLP098 T02700001 57018 IEM_DS3505
ZBAA,1998-05-30 08:00,ZBAA 300800Z AUTO 18012KT 7SM 28/06 A2977 RMK SLP082 T02800060 IEM_DS3505
ZBAA,1998-05-30 09:00,ZBAA 300900Z AUTO 20012KT 16SM 28/02 A2977 RMK SLP082 T02800016 57016 IEM_DS3505
ZBAA,1998-05-30 10:00,ZBAA 301000Z AUTO 18010KT 7SM 27/06 A2974 RMK SLP071 T02700060 IEM_DS3505
ZBAA,1998-05-30 11:00,ZBAA 301100Z AUTO 17008KT 6SM 24/06 A2977 RMK SLP083 T02400060 IEM_DS3505
ZBAA,1998-05-30 12:00,ZBAA 301200Z AUTO 20006KT 16SM 24/06 A2977 RMK SLP083 T02390063 52001 IEM_DS3505
ZBAA,1998-05-30 13:00,ZBAA 301300Z AUTO 15004KT 6SM 21/07 A2980 RMK SLP094 T02100070 IEM_DS3505
ZBAA,1998-05-30 14:00,ZBAA 301400Z AUTO 10004KT 6SM 20/09 A2980 RMK SLP094 T02000090 IEM_DS3505
ZBAA,1998-05-30 15:00,ZBAA 301500Z AUTO 18004KT 12SM 21/10 A2980 RMK SLP088 T02070100 52005 IEM_DS3505
ZBAA,1998-05-30 16:00,ZBAA 301600Z AUTO 13004KT 6SM 18/10 A2980 RMK SLP094 T01800100 IEM_DS3505
ZBAA,1998-05-30 17:00,ZBAA 301700Z AUTO 13004KT 6SM 18/10 A2980 RMK SLP094 T01800100 IEM_DS3505
ZBAA,1998-05-30 18:00,ZBAA 301800Z AUTO 09002KT 6SM 19/11 A2980 RMK SLP091 T01860111 52003 IEM_DS3505
ZBAA,1998-05-30 19:00,ZBAA 301900Z AUTO 10002KT 6SM 16/12 A2983 RMK SLP105 T01600120 IEM_DS3505
ZBAA,1998-05-30 20:00,ZBAA 302000Z AUTO ////02KT 6SM 15/12 A2980 RMK SLP095 T01500120 IEM_DS3505
ZBAA,1998-05-30 21:00,ZBAA 302100Z AUTO 02004KT 7SM 14/12 A2983 RMK SLP091 T01430115 54000 IEM_DS3505
ZBAA,1998-05-30 22:00,ZBAA 302200Z AUTO 35002KT 4SM 15/12 A2983 RMK SLP105 T01500120 IEM_DS3505
ZBAA,1998-05-30 23:00,ZBAA 302300Z AUTO 05002KT 4SM 18/13 A2983 RMK SLP104 T01800130 IEM_DS3505
ZBAA,1998-05-31 00:00,ZBAA 310000Z AUTO 02004KT 4SM 19/12 A2983 RMK SLP100 T01930118 52009 IEM_DS3505
ZBAA,1998-05-31 01:00,ZBAA 310100Z AUTO ////02KT 5SM 22/14 A2983 RMK SLP104 T02200140 IEM_DS3505
ZBAA,1998-05-31 02:00,ZBAA 310200Z AUTO 12004KT 5SM 23/14 A2983 RMK SLP103 T02300140 IEM_DS3505
ZBAA,1998-05-31 03:00,ZBAA 310300Z AUTO 07004KT 6SM 25/15 A2983 RMK SLP094 T02510146 57006 IEM_DS3505
ZBAA,1998-05-31 04:00,ZBAA 310400Z AUTO ////02KT 5SM 27/15 A2980 RMK SLP092 T02700150 IEM_DS3505
ZBAA,1998-05-31 05:00,ZBAA 310500Z AUTO 20006KT 5SM 29/15 A2977 RMK SLP082 T02900150 IEM_DS3505
ZBAA,1998-05-31 06:00,ZBAA 310600Z AUTO 20008KT 6SM 29/16 A2974 RMK SLP073 T02930161 57021 IEM_DS3505
ZBAA,1998-05-31 07:00,ZBAA 310700Z AUTO 19008KT 7SM 30/18 A2971 RMK SLP061 T03000180 IEM_DS3505
ZBAA,1998-05-31 08:00,ZBAA 310800Z AUTO 18006KT 7SM 30/19 A2971 RMK SLP061 T03000190 IEM_DS3505
ZBAA,1998-05-31 09:00,ZBAA 310900Z AUTO 20008KT 2 1/2SM 29/18 A2968 RMK SLP058 T02910181 57015 IEM_DS3505
ZBAA,1998-05-31 10:00,ZBAA 311000Z AUTO 19008KT 4SM 29/18 A2968 RMK SLP051 T02900180 IEM_DS3505
ZBAA,1998-05-31 11:00,ZBAA 311100Z AUTO 19010G21KT 4SM 28/17 A2968 RMK SLP051 T02800170 IEM_DS3505
ZBAA,1998-05-31 12:00,ZBAA 311200Z AUTO 22006KT 7SM 25/14 A2971 RMK SLP058 T02480135 54000 IEM_DS3505
ZBAA,1998-05-31 13:00,ZBAA 311300Z AUTO 18006KT 6SM 24/14 A2974 RMK SLP072 T02400140 IEM_DS3505
ZBAA,1998-05-31 14:00,ZBAA 311400Z AUTO 17006KT 6SM 22/14 A2974 RMK SLP072 T02200140 IEM_DS3505
ZBAA,1998-05-31 15:00,ZBAA 311500Z AUTO 22006KT 6SM 22/15 A2974 RMK SLP068 T02150148 52010 IEM_DS3505
ZBAA,1998-05-31 16:00,ZBAA 311600Z AUTO 14004KT 7SM 20/15 A2971 RMK SLP063 T02000150 IEM_DS3505
ZBAA,1998-05-31 17:00,ZBAA 311700Z AUTO 11002KT 7SM 19/16 A2971 RMK SLP063 T01900160 IEM_DS3505
ZBAA,1998-05-31 18:00,ZBAA 311800Z AUTO 20004KT 6SM 19/14 A2971 RMK SLP062 T01910137 57006 IEM_DS3505
ZBAA,1998-05-31 19:00,ZBAA 311900Z AUTO 13002KT 7SM 18/15 A2968 RMK SLP053 T01800150 IEM_DS3505
ZBAA,1998-05-31 20:00,ZBAA 312000Z AUTO 10004KT 7SM 17/15 A2968 RMK SLP053 T01700150 IEM_DS3505
ZBAA,1998-05-31 21:00,ZBAA 312100Z AUTO 22004KT 6SM 17/13 A2968 RMK SLP055 T01710126 57007 IEM_DS3505
ZBAA,1998-05-31 22:00,ZBAA 312200Z AUTO 13004KT 4SM 16/15 A2968 RMK SLP053 T01600150 IEM_DS3505
ZBAA,1998-05-31 23:00,ZBAA 312300Z AUTO 14004KT 4SM 18/15 A2968 RMK SLP053 T01800150 IEM_DS3505
ZBAA,1998-06-01 00:00,ZBAA 010000Z AUTO 22004KT 4SM 18/14 A2968 RMK SLP049 T01850136 57006 IEM_DS3505
ZBAA,1998-06-01 01:00,ZBAA 010100Z AUTO ////02KT 4SM 21/15 A2968 RMK SLP052 T02100150 IEM_DS3505
ZBAA,1998-06-01 02:00,ZBAA 010200Z AUTO 13004KT 4SM 22/16 A2965 RMK SLP042 T02200160 IEM_DS3505
ZBAA,1998-06-01 03:00,ZBAA 010300Z AUTO 11006KT 4SM 23/16 A2965 RMK SLP039 T02270162 57010 IEM_DS3505
ZBAA,1998-06-01 04:00,ZBAA 010400Z AUTO 14006KT 4SM 24/17 A2965 RMK SLP042 T02400170 IEM_DS3505
ZBAA,1998-06-01 05:00,ZBAA 010500Z AUTO 16008KT 6SM 26/16 A2965 RMK SLP041 T02600160 IEM_DS3505
ZBAA,1998-06-01 06:00,ZBAA 010600Z AUTO 18006KT 6SM 26/14 A2962 RMK SLP027 T02640143 57012 IEM_DS3505
ZBAA,1998-06-01 07:00,ZBAA 010700Z AUTO 15008KT 7SM 27/17 A2959 RMK SLP021 T02700170 IEM_DS3505
ZBAA,1998-06-01 08:00,ZBAA 010800Z AUTO 14008KT 7SM 26/18 A2959 RMK SLP021 T02600180 IEM_DS3505
ZBAA,1998-06-01 09:00,ZBAA 010900Z AUTO 14014KT 6SM 25/14 A2959 RMK SLP023 T02490140 57004 IEM_DS3505
ZBAA,1998-06-01 10:00,ZBAA 011000Z AUTO 13010KT 6SM 24/14 A2959 RMK SLP022 T02400140 IEM_DS3505
ZBAA,1998-06-01 11:00,ZBAA 011100Z AUTO 14008KT 6SM 22/14 A2962 RMK SLP032 T02200140 IEM_DS3505
ZBAA,1998-06-01 12:00,ZBAA 011200Z AUTO 14008KT 6SM 21/15 A2965 RMK SLP033 T02090147 52010 IEM_DS3505
ZBAA,1998-06-01 13:00,ZBAA 011300Z AUTO 14006KT 6SM 20/16 A2968 RMK SLP053 T02000160 IEM_DS3505
ZBAA,1998-06-01 14:00,ZBAA 011400Z AUTO 14004KT 6SM 19/16 A2968 RMK SLP053 T01900160 IEM_DS3505
ZBAA,1998-06-01 15:00,ZBAA 011500Z AUTO 18004KT 6SM 18/15 A2971 RMK SLP050 T01810150 52017 IEM_DS3505
ZBAA,1998-06-01 16:00,ZBAA 011600Z AUTO 12004KT 7SM 18/15 A2971 RMK SLP063 T01800150 IEM_DS3505
ZBAA,1998-06-01 17:00,ZBAA 011700Z AUTO 13004KT 7SM 18/15 A2968 RMK SLP053 T01800150 IEM_DS3505
ZBAA,1998-06-01 18:00,ZBAA 011800Z AUTO 20004KT 7SM 18/15 A2968 RMK SLP044 T01750146 57006 IEM_DS3505
ZBAA,1998-06-01 19:00,ZBAA 011900Z AUTO 14002KT 7SM 17/16 A2965 RMK SLP043 T01700160 IEM_DS3505
ZBAA,1998-06-01 20:00,ZBAA 012000Z AUTO 00000KT 7SM 17/15 A2965 RMK SLP043 T01700150 IEM_DS3505
ZBAA,1998-06-01 21:00,ZBAA 012100Z AUTO 25004KT 5SM 17/15 A2965 RMK SLP036 T01720150 57008 IEM_DS3505
ZBAA,1998-06-01 22:00,ZBAA 012200Z AUTO 11002KT 7SM 17/16 A2965 RMK SLP043 T01700160 IEM_DS3505
ZBAA,1998-06-01 23:00,ZBAA 012300Z AUTO 12004KT 7SM 17/16 A2968 RMK SLP053 T01700160 IEM_DS3505
ZBAA,1998-06-02 00:00,ZBAA 020000Z AUTO 11006KT 4SM 17/16 A2968 RMK 60004 70004 SLP046 T01670155 52010 IEM_DS3505
ZBAA,1998-06-02 01:00,ZBAA 020100Z AUTO 12006KT 3SM 17/16 A2968 RMK SLP053 T01700160 IEM_DS3505
ZBAA,1998-06-02 02:00,ZBAA 020200Z AUTO 13004KT 4SM 17/16 A2971 RMK SLP063 T01700160 IEM_DS3505
ZBAA,1998-06-02 03:00,ZBAA 020300Z AUTO 36004KT 5SM 17/15 A2971 RMK SLP053 T01670153 52007 IEM_DS3505
ZBAA,1998-06-02 04:00,ZBAA 020400Z AUTO 31004KT 4SM 17/16 A2971 RMK SLP063 T01700160 IEM_DS3505
ZBAA,1998-06-02 05:00,ZBAA 020500Z AUTO 04004KT 3SM 16/16 A2971 RMK SLP064 T01600160 IEM_DS3505
ZBAA,1998-06-02 06:00,ZBAA 020600Z AUTO 07004KT 6SM 18/15 A2971 RMK 60028 SLP052 T01800146 57001 IEM_DS3505
ZBAA,1998-06-02 07:00,ZBAA 020700Z AUTO ////02KT 7SM 19/15 A2968 RMK SLP053 T01900150 IEM_DS3505
ZBAA,1998-06-02 08:00,ZBAA 020800Z AUTO 04002KT 7SM 19/15 A2968 RMK SLP053 T01900150 IEM_DS3505
ZBAA,1998-06-02 09:00,ZBAA 020900Z AUTO 07002KT 6SM 19/13 A2968 RMK SLP049 T01920129 57003 IEM_DS3505
ZBAA,1998-06-02 10:00,ZBAA 021000Z AUTO 05002KT 7SM 19/15 A2968 RMK SLP053 T01900150 IEM_DS3505
ZBAA,1998-06-02 11:00,ZBAA 021100Z AUTO ////02KT 6SM 18/15 A2968 RMK SLP053 T01800150 IEM_DS3505
ZBAA,1998-06-02 12:00,ZBAA 021200Z AUTO 00000KT 7SM 17/15 A2971 RMK SLP051 T01730151 52002 IEM_DS3505
ZBAA,1998-06-02 13:00,ZBAA 021300Z AUTO 00000KT 6SM 17/15 A2971 RMK SLP063 T01700150 IEM_DS3505
ZBAA,1998-06-02 14:00,ZBAA 021400Z AUTO 29002KT 6SM 17/14 A2971 RMK SLP063 T01700140 IEM_DS3505
ZBAA,1998-06-02 15:00,ZBAA 021500Z AUTO 00000KT 9SM 16/14 A2971 RMK SLP056 T01550145 52004 IEM_DS3505
ZBAA,1998-06-02 16:00,ZBAA 021600Z AUTO 34002KT 5SM 16/15 A2971 RMK SLP064 T01600150 IEM_DS3505
ZBAA,1998-06-02 17:00,ZBAA 021700Z AUTO 00000KT 4SM 15/15 A2971 RMK SLP064 T01500150 IEM_DS3505
ZBAA,1998-06-02 18:00,ZBAA 021800Z AUTO 29004KT 5SM 15/14 A2968 RMK SLP050 T01480136 57005 IEM_DS3505
ZBAA,1998-06-02 19:00,ZBAA 021900Z AUTO 29004KT 3SM 15/14 A2968 RMK SLP054 T01500140 IEM_DS3505
ZBAA,1998-06-02 20:00,ZBAA 022000Z AUTO 00000KT 2 1/2SM 14/14 A2968 RMK SLP054 T01400140 IEM_DS3505
ZBAA,1998-06-02 21:00,ZBAA 022100Z AUTO 22002KT 1/2SM 13/13 A2968 RMK 70031 SLP053 T01330129 52002 IEM_DS3505
ZBAA,1998-06-02 22:00,ZBAA 022200Z AUTO 31002KT 2 1/2SM 14/13 A2971 RMK SLP064 T01400130 IEM_DS3505
ZBAA,1998-06-02 23:00,ZBAA 022300Z AUTO 34002KT 4SM 16/15 A2971 RMK SLP064 T01600150 IEM_DS3505
ZBAA,1998-06-03 00:00,ZBAA 030000Z AUTO 22002KT 4SM 17/14 A2974 RMK 70028 SLP064 T01710140 52012 IEM_DS3505
ZBAA,1998-06-03 01:00,ZBAA 030100Z AUTO ////02KT 4SM 19/14 A2971 RMK SLP063 T01900140 IEM_DS3505
ZBAA,1998-06-03 02:00,ZBAA 030200Z AUTO ////02KT 4SM 19/15 A2971 RMK SLP063 T01900150 IEM_DS3505
ZBAA,1998-06-03 03:00,ZBAA 030300Z AUTO 34004KT 4SM 20/14 A2971 RMK SLP054 T01950138 57010 IEM_DS3505
ZBAA,1998-06-03 04:00,ZBAA 030400Z AUTO ////04KT 7SM 21/15 A2968 RMK SLP052 T02100150 IEM_DS3505
ZBAA,1998-06-03 05:00,ZBAA 030500Z AUTO 17004KT 6SM 22/12 A2968 RMK SLP052 T02200120 IEM_DS3505
ZBAA,1998-06-03 06:00,ZBAA 030600Z AUTO 22016KT 6SM 21/12 A2968 RMK SLP055 T02130124 52001 IEM_DS3505
ZBAA,1998-06-03 07:00,ZBAA 030700Z AUTO 24016G25KT 5SM 19/14 A2971 RMK SLP063 T01900140 IEM_DS3505
ZBAA,1998-06-03 08:00,ZBAA 030800Z AUTO 27010KT 7SM 17/13 A2971 RMK SLP063 T01700130 IEM_DS3505
ZBAA,1998-06-03 09:00,ZBAA 030900Z AUTO 29008KT 12SM 20/13 A2968 RMK SLP052 T02000130 57003 IEM_DS3505
ZBAA,1998-06-03 11:00,ZBAA 031100Z AUTO 06002KT 6SM 19/14 A2971 RMK SLP063 T01900140 IEM_DS3505
ZBAA,1998-06-03 12:00,ZBAA 031200Z AUTO 00000KT 7SM 17/14 A2977 RMK 60002 SLP073 T01720143 52021 IEM_DS3505
ZBAA,1998-06-03 13:00,ZBAA 031300Z AUTO 02006KT 6SM 18/15 A2980 RMK SLP094 T01800150 IEM_DS3505
ZBAA,1998-06-03 14:00,ZBAA 031400Z AUTO 02002KT 6SM 17/15 A2980 RMK SLP095 T01700150 IEM_DS3505
ZBAA,1998-06-03 15:00,ZBAA 031500Z AUTO 02004KT 5SM 17/14 A2983 RMK SLP093 T01660143 52020 IEM_DS3505
ZBAA,1998-06-03 16:00,ZBAA 031600Z AUTO 03002KT 5SM 16/15 A2983 RMK SLP105 T01600150 IEM_DS3505
ZBAA,1998-06-03 17:00,ZBAA 031700Z AUTO 34004KT 7SM 16/15 A2980 RMK SLP095 T01600150 IEM_DS3505
ZBAA,1998-06-03 18:00,ZBAA 031800Z AUTO 07002KT 6SM 15/14 A2980 RMK 60004 SLP092 T01540142 57001 IEM_DS3505
ZBAA,1998-06-03 19:00,ZBAA 031900Z AUTO 34004KT 4SM 16/16 A2980 RMK SLP095 T01600160 IEM_DS3505
ZBAA,1998-06-03 20:00,ZBAA 032000Z AUTO 32004KT 4SM 16/15 A2980 RMK SLP095 T01600150 IEM_DS3505
ZBAA,1998-06-03 21:00,ZBAA 032100Z AUTO 09002KT 3SM 15/14 A2983 RMK 70008 SLP092 T01500145 54000 IEM_DS3505
ZBAA,1998-06-03 22:00,ZBAA 032200Z AUTO 32004KT 3SM 16/15 A2983 RMK SLP105 T01600150 IEM_DS3505
ZBAA,1998-06-03 23:00,ZBAA 032300Z AUTO 32006KT 7SM 17/16 A2985 RMK SLP112 T01700160 IEM_DS3505
ZBAA,1998-06-04 00:00,ZBAA 040000Z AUTO 00000KT 2 1/2SM 17/15 A2985 RMK 70008 SLP106 T01730147 52013 IEM_DS3505
ZBAA,1998-06-04 01:00,ZBAA 040100Z AUTO 36006KT 6SM 17/16 A2985 RMK SLP112 T01700160 IEM_DS3505
ZBAA,1998-06-04 02:00,ZBAA 040200Z AUTO 31006KT 7SM 18/16 A2988 RMK SLP121 T01800160 IEM_DS3505
ZBAA,1998-06-04 03:00,ZBAA 040300Z AUTO 32004KT 6SM 18/15 A2988 RMK SLP114 T01850146 52008 IEM_DS3505
ZBAA,1998-06-04 05:00,ZBAA 040500Z AUTO 29008KT 6SM 22/15 A2985 RMK SLP111 T02200150 IEM_DS3505
ZBAA,1998-06-04 06:00,ZBAA 040600Z AUTO 27008KT 16SM 23/12 A2983 RMK 60000 SLP104 T02290122 57009 IEM_DS3505
ZBAA,1998-06-04 07:00,ZBAA 040700Z AUTO 24008KT 6SM 24/14 A2983 RMK SLP103 T02400140 IEM_DS3505
ZBAA,1998-06-04 08:00,ZBAA 040800Z AUTO 09010KT 7SM 18/13 A2988 RMK SLP121 T01800130 IEM_DS3505
ZBAA,1998-06-04 09:00,ZBAA 040900Z AUTO 07010KT 19SM 18/12 A2988 RMK SLP122 T01840123 52017 IEM_DS3505
ZBAA,1998-06-04 10:00,ZBAA 041000Z AUTO 27004KT 7SM 16/15 A2988 RMK SLP122 T01600150 IEM_DS3505
ZBAA,1998-06-04 11:00,ZBAA 041100Z AUTO 31006KT 6SM 16/15 A2991 RMK SLP132 T01600150 IEM_DS3505
ZBAA,1998-06-04 12:00,ZBAA 041200Z AUTO 00000KT 6SM 16/15 A2991 RMK 60008 SLP125 T01650146 52003 IEM_DS3505
ZBAA,1998-06-04 13:00,ZBAA 041300Z AUTO 32004KT 6SM 16/15 A2991 RMK SLP132 T01600150 IEM_DS3505
ZBAA,1998-06-04 14:00,ZBAA 041400Z AUTO 15002KT 7SM 14/14 A2994 RMK SLP142 T01400140 IEM_DS3505
ZBAA,1998-06-04 15:00,ZBAA 041500Z AUTO 11004KT 6SM 14/14 A2994 RMK SLP140 T01400136 52015 IEM_DS3505
ZBAA,1998-06-04 16:00,ZBAA 041600Z AUTO 00000KT 5SM 14/14 A2994 RMK SLP142 T01400140 IEM_DS3505
ZBAA,1998-06-04 17:00,ZBAA 041700Z AUTO 00000KT 5SM 14/14 A2997 RMK SLP153 T01400140 IEM_DS3505
ZBAA,1998-06-04 18:00,ZBAA 041800Z AUTO 00000KT 4SM 14/13 A2994 RMK SLP138 T01370132 57002 IEM_DS3505
ZBAA,1998-06-04 19:00,ZBAA 041900Z AUTO 36002KT 2 1/2SM 13/13 A2994 RMK SLP143 T01300130 IEM_DS3505
ZBAA,1998-06-04 20:00,ZBAA 042000Z AUTO 03002KT 2SM 13/13 A2994 RMK SLP143 T01300130 IEM_DS3505
ZBAA,1998-06-04 21:00,ZBAA 042100Z AUTO 00000KT 2 1/2SM 13/13 A2994 RMK 70012 SLP140 T01320128 52002 IEM_DS3505
ZBAA,1998-06-04 22:00,ZBAA 042200Z AUTO 35004KT 7SM 13/13 A2997 RMK SLP153 T01300130 IEM_DS3505
ZBAA,1998-06-05 00:00,ZBAA 050000Z AUTO 29004KT 6SM 18/14 A2997 RMK 70012 SLP148 T01850138 52008 IEM_DS3505
ZBAA,1998-06-05 01:00,ZBAA 050100Z AUTO 35002KT 7SM 20/16 A2997 RMK SLP151 T02000160 IEM_DS3505
ZBAA,1998-06-05 02:00,ZBAA 050200Z AUTO ////02KT 7SM 22/16 A2997 RMK SLP151 T02200160 IEM_DS3505
ZBAA,1998-06-05 03:00,ZBAA 050300Z AUTO 34004KT 6SM 24/14 A2994 RMK SLP144 T02350140 57004 IEM_DS3505
ZBAA,1998-06-05 04:00,ZBAA 050400Z AUTO 14004KT 6SM 25/15 A2994 RMK SLP140 T02500150 IEM_DS3505
ZBAA,1998-06-05 05:00,ZBAA 050500Z AUTO 17006KT 6SM 26/13 A2991 RMK SLP130 T02600130 IEM_DS3505
ZBAA,1998-06-05 06:00,ZBAA 050600Z AUTO 11004KT 6SM 26/14 A2991 RMK SLP131 T02600137 57012 IEM_DS3505
ZBAA,1998-06-05 07:00,ZBAA 050700Z AUTO 16002KT 6SM 28/12 A2988 RMK SLP119 T02800120 IEM_DS3505
ZBAA,1998-06-05 08:00,ZBAA 050800Z AUTO ////02KT 6SM 28/ A2988 RMK SLP119 IEM_DS3505
ZBAA,1998-06-05 09:00,ZBAA 050900Z AUTO 20002KT 6SM 27/13 A2988 RMK SLP116 T02690126 57015 IEM_DS3505
ZBAA,1998-06-05 10:00,ZBAA 051000Z AUTO 17004KT 6SM 26/12 A2988 RMK SLP120 T02600120 IEM_DS3505
ZBAA,1998-06-05 12:00,ZBAA 051200Z AUTO 14008KT 11SM 21/14 A2988 RMK SLP118 T02130145 52002 IEM_DS3505
ZBAA,1998-06-05 13:00,ZBAA 051300Z AUTO 13006KT 7SM 21/18 A2991 RMK SLP131 T02100180 IEM_DS3505
ZBAA,1998-06-05 15:00,ZBAA 051500Z AUTO 11006KT 4SM 18/15 A2994 RMK SLP137 T01820153 52019 IEM_DS3505
ZBAA,1998-06-05 16:00,ZBAA 051600Z AUTO 11004KT 2 1/2SM 18/16 A2994 RMK SLP142 T01800160 IEM_DS3505
ZBAA,1998-06-05 17:00,ZBAA 051700Z AUTO 09004KT 2 1/2SM 17/16 A2994 RMK SLP142 T01700160 IEM_DS3505
ZBAA,1998-06-05 18:00,ZBAA 051800Z AUTO 07004KT 2SM 16/15 A2994 RMK SLP138 T01580151 52001 IEM_DS3505
ZBAA,1998-06-05 19:00,ZBAA 051900Z AUTO 11002KT 2 1/2SM 16/15 A2994 RMK SLP142 T01600150 IEM_DS3505
ZBAA,1998-06-05 20:00,ZBAA 052000Z AUTO 12004KT 2 1/2SM 16/15 A2994 RMK SLP142 T01600150 IEM_DS3505
ZBAA,1998-06-05 21:00,ZBAA 052100Z AUTO 07004KT 2 1/2SM 15/14 A2994 RMK SLP138 T01470142 54000 IEM_DS3505
ZBAA,1998-06-05 22:00,ZBAA 052200Z AUTO 12002KT 2SM 16/15 A2994 RMK SLP142 T01600150 IEM_DS3505
ZBAA,1998-06-05 23:00,ZBAA 052300Z AUTO 12004KT 2SM 16/16 A2997 RMK SLP152 T01600160 IEM_DS3505
ZBAA,1998-06-06 00:00,ZBAA 060000Z AUTO 14004KT 4SM 18/15 A2994 RMK SLP140 T01780152 52002 IEM_DS3505
ZBAA,1998-06-06 01:00,ZBAA 060100Z AUTO ////02KT 2 1/2SM 19/16 A2994 RMK SLP141 T01900160 IEM_DS3505
ZBAA,1998-06-06 02:00,ZBAA 060200Z AUTO ////04KT 3SM 20/16 A2991 RMK SLP131 T02000160 IEM_DS3505
ZBAA,1998-06-06 03:00,ZBAA 060300Z AUTO 11004KT 5SM 22/16 A2991 RMK SLP128 T02170157 57012 IEM_DS3505
ZBAA,1998-06-06 04:00,ZBAA 060400Z AUTO 12006KT 4SM 23/17 A2988 RMK SLP120 T02300170 IEM_DS3505
ZBAA,1998-06-06 05:00,ZBAA 060500Z AUTO 02002KT 7SM 23/09 A2991 RMK SLP130 T02300090 IEM_DS3505
ZBAA,1998-06-06 06:00,ZBAA 060600Z AUTO 22002KT 5SM 26/16 A2983 RMK SLP097 T02650160 57031 IEM_DS3505
ZBAA,1998-06-06 07:00,ZBAA 060700Z AUTO ////04KT 4SM 27/17 A2980 RMK SLP092 T02700170 IEM_DS3505
ZBAA,1998-06-06 08:00,ZBAA 060800Z AUTO 21006KT 4SM 28/17 A2977 RMK SLP082 T02800170 IEM_DS3505
ZBAA,1998-06-06 09:00,ZBAA 060900Z AUTO 25004KT 4SM 28/18 A2977 RMK SLP075 T02830175 57022 IEM_DS3505
ZBAA,1998-06-06 10:00,ZBAA 061000Z AUTO 35006KT 4SM 25/19 A2977 RMK SLP083 T02500190 IEM_DS3505
ZBAA,1998-06-06 11:00,ZBAA 061100Z AUTO 04002KT 3SM 24/19 A2977 RMK SLP083 T02400190 IEM_DS3505
ZBAA,1998-06-06 12:00,ZBAA 061200Z AUTO 11004KT 6SM 24/18 A2977 RMK SLP075 T02360182 54000 IEM_DS3505
ZBAA,1998-06-06 13:00,ZBAA 061300Z AUTO 11004KT 6SM 22/17 A2980 RMK SLP093 T02200170 IEM_DS3505
ZBAA,1998-06-06 14:00,ZBAA 061400Z AUTO 14002KT 7SM 21/17 A2980 RMK SLP094 T02100170 IEM_DS3505
ZBAA,1998-06-06 15:00,ZBAA 061500Z AUTO 04004KT 6SM 21/16 A2980 RMK SLP087 T02120161 52012 IEM_DS3505
ZBAA,1998-06-06 16:00,ZBAA 061600Z AUTO 35002KT 6SM 21/18 A2980 RMK SLP094 T02100180 IEM_DS3505
ZBAA,1998-06-06 17:00,ZBAA 061700Z AUTO 35004KT 6SM 20/18 A2980 RMK SLP094 T02000180 IEM_DS3505
ZBAA,1998-06-06 18:00,ZBAA 061800Z AUTO 34004KT 7SM 19/17 A2983 RMK 60001 SLP080 T01930172 57007 IEM_DS3505
ZBAA,1998-06-06 19:00,ZBAA 061900Z AUTO 00000KT 6SM 19/18 A2977 RMK SLP084 T01900180 IEM_DS3505
ZBAA,1998-06-06 20:00,ZBAA 062000Z AUTO 07002KT 6SM 20/17 A2977 RMK SLP084 T02000170 IEM_DS3505
ZBAA,1998-06-06 21:00,ZBAA 062100Z AUTO 02002KT 5SM 19/17 A2977 RMK 70004 SLP078 T01930174 57002 IEM_DS3505
ZBAA,1998-06-06 22:00,ZBAA 062200Z AUTO 03002KT 2 1/2SM 19/18 A2977 RMK SLP084 T01900180 IEM_DS3505
ZBAA,1998-06-06 23:00,ZBAA 062300Z AUTO 36002KT 2 1/2SM 20/18 A2977 RMK SLP084 T02000180 IEM_DS3505
ZBAA,1998-06-07 00:00,ZBAA 070000Z AUTO 07004KT 5SM 19/17 A2985 RMK 60004 70004 SLP085 T01940171 52007 IEM_DS3505
ZBAA,1998-06-07 01:00,ZBAA 070100Z AUTO 16002KT 2SM 21/18 A2980 RMK SLP094 T02100180 IEM_DS3505
ZBAA,1998-06-07 02:00,ZBAA 070200Z AUTO 13002KT 4SM 21/17 A2980 RMK SLP094 T02100170 IEM_DS3505
ZBAA,1998-06-07 03:00,ZBAA 070300Z AUTO 16002KT 2 1/2SM 22/18 A2977 RMK SLP086 T02200175 52001 IEM_DS3505
ZBAA,1998-06-07 04:00,ZBAA 070400Z AUTO ////04KT 4SM 22/18 A2977 RMK SLP083 T02200180 IEM_DS3505
ZBAA,1998-06-07 05:00,ZBAA 070500Z AUTO 14002KT 4SM 23/18 A2977 RMK SLP083 T02300180 IEM_DS3505
ZBAA,1998-06-07 06:00,ZBAA 070600Z AUTO 20004KT 2SM 22/19 A2974 RMK 60002 SLP074 T02200194 57012 IEM_DS3505
ZBAA,1998-06-07 07:00,ZBAA 070700Z AUTO 15004KT 4SM 25/19 A2971 RMK SLP062 T02500190 IEM_DS3505
ZBAA,1998-06-07 08:00,ZBAA 070800Z AUTO 15004KT 4SM 26/18 A2971 RMK SLP061 T02600180 IEM_DS3505
ZBAA,1998-06-07 09:00,ZBAA 070900Z AUTO 20004KT 4SM 24/18 A2969 RMK SLP054 T02430180 57020 IEM_DS3505
ZBAA,1998-06-07 10:00,ZBAA 071000Z AUTO 18008KT 2 1/2SM 24/19 A2968 RMK SLP052 T02400190 IEM_DS3505
ZBAA,1998-06-07 11:00,ZBAA 071100Z AUTO 19004KT 4SM 24/19 A2971 RMK SLP062 T02400190 IEM_DS3505
ZBAA,1998-06-07 12:00,ZBAA 071200Z AUTO 14004KT 3SM 21/18 A2971 RMK SLP054 T02100176 54000 IEM_DS3505
ZBAA,1998-06-07 13:00,ZBAA 071300Z AUTO 13006KT 2 1/2SM 21/18 A2971 RMK SLP062 T02100180 IEM_DS3505
ZBAA,1998-06-07 14:00,ZBAA 071400Z AUTO 15006KT 2 1/2SM 20/18 A2974 RMK SLP073 T02000180 IEM_DS3505
ZBAA,1998-06-07 15:00,ZBAA 071500Z AUTO 22002KT 2SM 19/18 A2974 RMK SLP071 T01940175 52017 IEM_DS3505
ZBAA,1998-06-07 16:00,ZBAA 071600Z AUTO 12002KT 1 1/2SM 18/18 A2974 RMK SLP073 T01800180 IEM_DS3505
ZBAA,1998-06-07 17:00,ZBAA 071700Z AUTO 09002KT 1 1/2SM 18/17 A2974 RMK SLP073 T01800170 IEM_DS3505
ZBAA,1998-06-07 18:00,ZBAA 071800Z AUTO 07004KT 1SM 18/17 A2971 RMK SLP059 T01750170 57012 IEM_DS3505
ZBAA,1998-06-07 19:00,ZBAA 071900Z AUTO ////02KT 1 1/4SM 18/18 A2971 RMK SLP063 T01800180 IEM_DS3505
ZBAA,1998-06-07 20:00,ZBAA 072000Z AUTO 10002KT 1SM 18/17 A2971 RMK SLP063 T01800170 IEM_DS3505
ZBAA,1998-06-07 21:00,ZBAA 072100Z AUTO 00000KT 1SM 18/18 A2971 RMK 70002 SLP059 T01780175 54000 IEM_DS3505
ZBAA,1998-06-07 22:00,ZBAA 072200Z AUTO 00000KT 1SM 19/18 A2971 RMK SLP063 T01900180 IEM_DS3505
ZBAA,1998-06-08 00:00,ZBAA 080000Z AUTO 04004KT 1 1/4SM 19/18 A2974 RMK 70002 SLP070 T01930179 52011 IEM_DS3505
ZBAA,1998-06-08 01:00,ZBAA 080100Z AUTO 08004KT 1SM 21/19 A2977 RMK SLP084 T02100190 IEM_DS3505
ZBAA,1998-06-08 02:00,ZBAA 080200Z AUTO ////04KT 1 1/2SM 23/19 A2974 RMK SLP072 T02300190 IEM_DS3505
ZBAA,1998-06-08 03:00,ZBAA 080300Z AUTO 07004KT 2SM 23/19 A2973 RMK SLP070 T02320188 54000 IEM_DS3505
ZBAA,1998-06-08 04:00,ZBAA 080400Z AUTO ////02KT 2SM 26/19 A2974 RMK SLP072 T02600190 IEM_DS3505
ZBAA,1998-06-08 05:00,ZBAA 080500Z AUTO ////04G14KT 3SM 28/19 A2971 RMK SLP061 T02800190 IEM_DS3505
ZBAA,1998-06-08 06:00,ZBAA 080600Z AUTO 16006KT 2SM 28/19 A2968 RMK SLP052 T02850194 57018 IEM_DS3505
ZBAA,1998-06-08 08:00,ZBAA 080800Z AUTO 17008KT 4SM 30/19 A2965 RMK SLP041 T03000190 IEM_DS3505
ZBAA,1998-06-08 09:00,ZBAA 080900Z AUTO 20006KT 6SM 30/18 A2965 RMK SLP036 T02990178 57015 IEM_DS3505
ZBAA,1998-06-08 10:00,ZBAA 081000Z AUTO 19008KT 7SM 30/16 A2965 RMK SLP041 T03000160 IEM_DS3505
ZBAA,1998-06-08 11:00,ZBAA 081100Z AUTO 18006KT 6SM 28/19 A2965 RMK SLP041 T02800190 IEM_DS3505
ZBAA,1998-06-08 12:00,ZBAA 081200Z AUTO 18002KT 7SM 27/19 A2968 RMK SLP041 T02720192 52004 IEM_DS3505
ZBAA,1998-06-08 13:00,ZBAA 081300Z AUTO 10004KT 4SM 25/20 A2971 RMK SLP062 T02500200 IEM_DS3505
ZBAA,1998-06-08 14:00,ZBAA 081400Z AUTO 11004KT 4SM 25/21 A2971 RMK SLP062 T02500210 IEM_DS3505
ZBAA,1998-06-08 15:00,ZBAA 081500Z AUTO 11004KT 7SM 22/18 A2974 RMK SLP060 T02250181 52019 IEM_DS3505
ZBAA,1998-06-08 16:00,ZBAA 081600Z AUTO 14006KT 2 1/2SM 22/20 A2971 RMK SLP062 T02200200 IEM_DS3505
ZBAA,1998-06-08 17:00,ZBAA 081700Z AUTO 11004KT 2 1/2SM 22/19 A2974 RMK SLP072 T02200190 IEM_DS3505
ZBAA,1998-06-08 18:00,ZBAA 081800Z AUTO 14006KT 4SM 21/18 A2974 RMK SLP060 T02100185 52001 IEM_DS3505
ZBAA,1998-06-08 19:00,ZBAA 081900Z AUTO 12004KT 2 1/2SM 21/19 A2974 RMK SLP073 T02100190 IEM_DS3505
ZBAA,1998-06-08 20:00,ZBAA 082000Z AUTO 12002KT 2 1/2SM 20/19 A2974 RMK SLP073 T02000190 IEM_DS3505
ZBAA,1998-06-08 21:00,ZBAA 082100Z AUTO 11002KT 2 1/2SM 20/19 A2974 RMK SLP073 T02000190 IEM_DS3505
ZBAA,1998-06-08 22:00,ZBAA 082200Z AUTO 12002KT 2 1/2SM 20/19 A2974 RMK SLP073 T02000190 IEM_DS3505
ZBAA,1998-06-08 23:00,ZBAA 082300Z AUTO 13004KT 2SM 21/20 A2977 RMK SLP084 T02100200 IEM_DS3505
ZBAA,1998-06-09 00:00,ZBAA 090000Z AUTO 16004KT 2SM 22/18 A2977 RMK SLP074 T02250182 52011 IEM_DS3505
ZBAA,1998-06-09 01:00,ZBAA 090100Z AUTO 14004KT 2SM 24/19 A2977 RMK SLP083 T02400190 IEM_DS3505
ZBAA,1998-06-09 03:00,ZBAA 090300Z AUTO 18006KT 3SM 28/18 A2974 RMK SLP074 T02770180 54000 IEM_DS3505
ZBAA,1998-06-09 04:00,ZBAA 090400Z AUTO 20008KT 2 1/2SM 28/20 A2974 RMK SLP071 T02800200 IEM_DS3505
ZBAA,1998-06-09 06:00,ZBAA 090600Z AUTO 20010KT 5SM 32/16 A2968 RMK SLP054 T03180162 57020 IEM_DS3505
ZBAA,1998-06-09 07:00,ZBAA 090700Z AUTO 19012KT 5SM 32/16 A2965 RMK SLP040 T03200160 IEM_DS3505
ZBAA,1998-06-09 08:00,ZBAA 090800Z AUTO 20012KT 5SM 32/15 A2965 RMK SLP040 T03200150 IEM_DS3505
ZBAA,1998-06-09 09:00,ZBAA 090900Z AUTO 20004KT 6SM 31/17 A2965 RMK SLP032 T03080169 57022 IEM_DS3505
ZBAA,1998-06-09 10:00,ZBAA 091000Z AUTO 27016G27KT 2SM 23/18 A2968 RMK SLP052 T02300180 IEM_DS3505
ZBAA,1998-06-09 11:00,ZBAA 091100Z AUTO 09014KT 7SM 20/17 A2971 RMK SLP063 T02000170 IEM_DS3505
ZBAA,1998-06-09 12:00,ZBAA 091200Z AUTO 14006KT 6SM 21/17 A2971 RMK 60031 SLP056 T02090167 52023 IEM_DS3505
ZBAA,1998-06-09 13:00,ZBAA 091300Z AUTO 05004KT 7SM 20/18 A2974 RMK SLP073 T02000180 IEM_DS3505
ZBAA,1998-06-09 14:00,ZBAA 091400Z AUTO 10004KT 7SM 20/17 A2977 RMK SLP084 T02000170 IEM_DS3505
ZBAA,1998-06-09 15:00,ZBAA 091500Z AUTO 11004KT 6SM 19/16 A2977 RMK SLP077 T01880163 52021 IEM_DS3505
ZBAA,1998-06-09 16:00,ZBAA 091600Z AUTO 33002KT 6SM 19/17 A2980 RMK SLP094 T01900170 IEM_DS3505
ZBAA,1998-06-09 17:00,ZBAA 091700Z AUTO 31004KT 7SM 19/17 A2980 RMK SLP094 T01900170 IEM_DS3505
ZBAA,1998-06-09 18:00,ZBAA 091800Z AUTO 07004KT 6SM 19/16 A2980 RMK SLP080 T01890161 52004 IEM_DS3505
ZBAA,1998-06-09 19:00,ZBAA 091900Z AUTO 09002KT 5SM 19/16 A2980 RMK SLP094 T01900160 IEM_DS3505
ZBAA,1998-06-09 20:00,ZBAA 092000Z AUTO 04002KT 4SM 19/17 A2980 RMK SLP094 T01900170 IEM_DS3505
ZBAA,1998-06-09 21:00,ZBAA 092100Z AUTO 34002KT 4SM 18/16 A2980 RMK 70031 SLP083 T01840161 52002 IEM_DS3505
ZBAA,1998-06-09 22:00,ZBAA 092200Z AUTO 33004KT 2 1/2SM 19/18 A2980 RMK SLP094 T01900180 IEM_DS3505
ZBAA,1998-06-09 23:00,ZBAA 092300Z AUTO ////02KT 4SM 20/18 A2980 RMK SLP094 T02000180 IEM_DS3505
ZBAA,1998-06-10 00:00,ZBAA 100000Z AUTO 34002KT 4SM 20/17 A2980 RMK 70031 SLP090 T02050167 52007 IEM_DS3505
ZBAA,1998-06-10 01:00,ZBAA 100100Z AUTO 36004KT 4SM 23/20 A2980 RMK SLP093 T02300200 IEM_DS3505
ZBAA,1998-06-10 02:00,ZBAA 100200Z AUTO 14004KT 5SM 25/18 A2980 RMK SLP093 T02500180 IEM_DS3505
ZBAA,1998-06-10 03:00,ZBAA 100300Z AUTO 11006KT 6SM 26/17 A2977 RMK SLP085 T02590168 57005 IEM_DS3505
ZBAA,1998-06-10 05:00,ZBAA 100500Z AUTO 13006KT 6SM 27/18 A2977 RMK SLP082 T02700180 IEM_DS3505
ZBAA,1998-06-10 06:00,ZBAA 100600Z AUTO 11006KT 6SM 28/18 A2974 RMK SLP064 T02810176 57021 IEM_DS3505
ZBAA,1998-06-10 07:00,ZBAA 100700Z AUTO 15006KT 5SM 29/18 A2971 RMK SLP061 T02900180 IEM_DS3505
ZBAA,1998-06-10 08:00,ZBAA 100800Z AUTO 15004KT 4SM 28/19 A2968 RMK SLP051 T02800190 IEM_DS3505
ZBAA,1998-06-10 09:00,ZBAA 100900Z AUTO 36006KT 5SM 29/19 A2969 RMK SLP055 T02880194 57009 IEM_DS3505
ZBAA,1998-06-10 10:00,ZBAA 101000Z AUTO 18006KT 7SM A2968 RMK SLP053 IEM_DS3505
ZBAA,1998-06-10 11:00,ZBAA 101100Z AUTO 04004KT 6SM 22/18 A2968 RMK SLP052 T02200180 IEM_DS3505
ZBAA,1998-06-10 12:00,ZBAA 101200Z AUTO 02006KT 9SM 22/17 A2968 RMK 60004 SLP040 T02170174 57015 IEM_DS3505
ZBAA,1998-06-10 13:00,ZBAA 101300Z AUTO 12004KT 6SM 20/17 A2971 RMK SLP063 T02000170 IEM_DS3505
ZBAA,1998-06-10 14:00,ZBAA 101400Z AUTO 15004KT 6SM 20/17 A2974 RMK SLP073 T02000170 IEM_DS3505
ZBAA,1998-06-10 15:00,ZBAA 101500Z AUTO 00000KT 9SM 20/18 A2974 RMK SLP067 T02010175 52027 IEM_DS3505
ZBAA,1998-06-10 16:00,ZBAA 101600Z AUTO 04002KT 6SM 19/18 A2977 RMK SLP084 T01900180 IEM_DS3505
ZBAA,1998-06-10 18:00,ZBAA 101800Z AUTO 02004KT 6SM 18/16 A2977 RMK SLP069 T01810163 52002 IEM_DS3505
ZBAA,1998-06-10 20:00,ZBAA 102000Z AUTO 00000KT 3SM 19/17 A2977 RMK SLP084 T01900170 IEM_DS3505
ZBAA,1998-06-10 21:00,ZBAA 102100Z AUTO 00000KT 3SM 19/17 A2977 RMK SLP084 T01900170 IEM_DS3505
ZBAA,1998-06-10 23:00,ZBAA 102300Z AUTO 36002KT 3SM 20/18 A2980 RMK SLP094 T02000180 IEM_DS3505
ZBAA,1998-06-11 00:00,ZBAA 110000Z AUTO 07006KT 4SM 20/17 A2980 RMK 70004 SLP085 T02020169 52009 IEM_DS3505
ZBAA,1998-06-11 01:00,ZBAA 110100Z AUTO ////02KT 4SM 22/19 A2980 RMK SLP093 T02200190 IEM_DS3505
ZBAA,1998-06-11 02:00,ZBAA 110200Z AUTO ////02KT 4SM 23/18 A2980 RMK SLP093 T02300180 IEM_DS3505
ZBAA,1998-06-11 03:00,ZBAA 110300Z AUTO 07008KT 5SM 22/18 A2980 RMK SLP085 T02210180 54000 IEM_DS3505
ZBAA,1998-06-11 04:00,ZBAA 110400Z AUTO 11006KT 4SM 24/19 A2980 RMK SLP093 T02400190 IEM_DS3505
ZBAA,1998-06-11 05:00,ZBAA 110500Z AUTO 10006KT 4SM 25/19 A2977 RMK SLP083 T02500190 IEM_DS3505
ZBAA,1998-06-11 06:00,ZBAA 110600Z AUTO 12006KT 4SM 26/20 A2977 RMK SLP083 T02600200 IEM_DS3505
ZBAA,1998-06-11 07:00,ZBAA 110700Z AUTO 11008KT 4SM 25/20 A2974 RMK SLP072 T02500200 IEM_DS3505
ZBAA,1998-06-11 08:00,ZBAA 110800Z AUTO 13006KT 3SM 26/20 A2974 RMK SLP072 T02600200 IEM_DS3505
ZBAA,1998-06-11 09:00,ZBAA 110900Z AUTO 09008KT 5SM 25/20 A2971 RMK SLP063 T02470195 57013 IEM_DS3505
ZBAA,1998-06-11 10:00,ZBAA 111000Z AUTO 12006KT 3SM 25/20 A2974 RMK SLP072 T02500200 IEM_DS3505
ZBAA,1998-06-11 11:00,ZBAA 111100Z AUTO 11119KT RMK IEM_DS3505
ZBAA,1998-06-11 12:00,ZBAA 111200Z AUTO 07006KT 4SM 22/19 A2977 RMK SLP073 T02190186 52010 IEM_DS3505
ZBAA,1998-06-11 13:00,ZBAA 111300Z AUTO 12002KT 2 1/2SM 22/20 A2977 RMK SLP083 T02200200 IEM_DS3505
ZBAA,1998-06-11 14:00,ZBAA 111400Z AUTO 14002KT 2SM 21/19 A2980 RMK SLP094 T02100190 IEM_DS3505
ZBAA,1998-06-11 15:00,ZBAA 111500Z AUTO 09006KT 4SM 21/18 A2977 RMK SLP082 T02070180 52009 IEM_DS3505
ZBAA,1998-06-11 16:00,ZBAA 111600Z AUTO 13002KT 1 1/2SM 21/19 A2977 RMK SLP084 T02100190 IEM_DS3505
ZBAA,1998-06-11 17:00,ZBAA 111700Z AUTO 14002KT 1 1/2SM 20/18 A2977 RMK SLP084 T02000180 IEM_DS3505
ZBAA,1998-06-11 18:00,ZBAA 111800Z AUTO 07006KT 5SM 20/17 A2977 RMK SLP076 T02010173 57006 IEM_DS3505
ZBAA,1998-06-11 19:00,ZBAA 111900Z AUTO 13002KT 2SM 20/18 A2974 RMK SLP073 T02000180 IEM_DS3505
ZBAA,1998-06-11 20:00,ZBAA 112000Z AUTO 14004KT 2SM 20/18 A2974 RMK SLP073 T02000180 IEM_DS3505
ZBAA,1998-06-11 21:00,ZBAA 112100Z AUTO 07006KT 5SM 20/17 A2977 RMK SLP070 T01970166 57006 IEM_DS3505
ZBAA,1998-06-11 22:00,ZBAA 112200Z AUTO 10004KT 2 1/2SM 20/18 A2977 RMK SLP084 T02000180 IEM_DS3505
ZBAA,1998-06-11 23:00,ZBAA 112300Z AUTO 12004KT 2 1/2SM 20/17 A2977 RMK SLP084 T02000170 IEM_DS3505
ZBAA,1998-06-12 00:00,ZBAA 120000Z AUTO 07008KT 4SM 19/17 A2977 RMK SLP076 T01940171 52006 IEM_DS3505
ZBAA,1998-06-12 02:00,ZBAA 120200Z AUTO 15004KT 4SM 22/18 RMK T02200180 IEM_DS3505
ZBAA,1998-06-12 03:00,ZBAA 120300Z AUTO 07006KT 3SM 21/17 A2977 RMK SLP074 T02090170 57002 IEM_DS3505
ZBAA,1998-06-12 04:00,ZBAA 120400Z AUTO 10006KT 4SM 24/18 A2974 RMK SLP072 T02400180 IEM_DS3505
ZBAA,1998-06-12 05:00,ZBAA 120500Z AUTO 16010KT 4SM 23/19 A2974 RMK SLP072 T02300190 IEM_DS3505
ZBAA,1998-06-12 06:00,ZBAA 120600Z AUTO 11010KT 3SM 20/17 A2974 RMK SLP071 T02010173 57003 IEM_DS3505
ZBAA,1998-06-12 07:00,ZBAA 120700Z AUTO 14008KT 2 1/2SM 24/19 A2974 RMK SLP072 T02400190 IEM_DS3505
ZBAA,1998-06-12 08:00,ZBAA 120800Z AUTO 15010KT 2 1/2SM 23/18 A2974 RMK SLP072 T02300180 IEM_DS3505
ZBAA,1998-06-12 09:00,ZBAA 120900Z AUTO 07008KT 4SM 21/18 A2974 RMK SLP067 T02100175 57004 IEM_DS3505
ZBAA,1998-06-12 10:00,ZBAA 121000Z AUTO 12006KT 3SM 22/18 A2974 RMK SLP072 T02200180 IEM_DS3505
ZBAA,1998-06-12 11:00,ZBAA 121100Z AUTO 12006KT 3SM 21/18 A2977 RMK SLP084 T02100180 IEM_DS3505
ZBAA,1998-06-12 12:00,ZBAA 121200Z AUTO 07008KT 2 1/2SM 21/18 A2977 RMK SLP077 T02070175 52010 IEM_DS3505
ZBAA,1998-06-12 13:00,ZBAA 121300Z AUTO 09004KT 2 1/2SM 21/18 A2980 RMK SLP094 T02100180 IEM_DS3505
ZBAA,1998-06-12 14:00,ZBAA 121400Z AUTO 08002KT 2 1/2SM 21/18 A2980 RMK SLP094 T02100180 IEM_DS3505
ZBAA,1998-06-12 15:00,ZBAA 121500Z AUTO 07004KT 2 1/2SM 20/18 A2980 RMK SLP080 T01980175 52003 IEM_DS3505
ZBAA,1998-06-12 16:00,ZBAA 121600Z AUTO 07002KT 2 1/2SM 20/18 A2977 RMK SLP084 T02000180 IEM_DS3505
ZBAA,1998-06-12 17:00,ZBAA 121700Z AUTO 35002KT 1 1/2SM 20/18 A2977 RMK SLP084 T02000180 IEM_DS3505
ZBAA,1998-06-12 18:00,ZBAA 121800Z AUTO 09002KT 2SM 20/16 A2977 RMK SLP075 T01950164 57005 IEM_DS3505
ZBAA,1998-06-12 19:00,ZBAA 121900Z AUTO 00000KT 1 1/2SM 19/18 A2974 RMK SLP073 T01900180 IEM_DS3505
ZBAA,1998-06-12 20:00,ZBAA 122000Z AUTO 00000KT 1 1/2SM 19/18 A2974 RMK SLP073 T01900180 IEM_DS3505
ZBAA,1998-06-12 21:00,ZBAA 122100Z AUTO 14039KT 1 1/4SM 18/17 A2974 RMK SLP071 T01780171 57004 IEM_DS3505
ZBAA,1998-06-12 22:00,ZBAA 122200Z AUTO 15002KT 1 1/4SM 18/18 A2974 RMK SLP073 T01800180 IEM_DS3505
ZBAA,1998-06-12 23:00,ZBAA 122300Z AUTO 17002KT 1 1/4SM 19/18 A2974 RMK SLP073 T01900180 IEM_DS3505
ZBAA,1998-06-13 00:00,ZBAA 130000Z AUTO 09004KT 3SM 19/17 A2974 RMK SLP072 T01930172 52001 IEM_DS3505
ZBAA,1998-06-13 02:00,ZBAA 130200Z AUTO 18004KT 2 1/2SM 22/18 A2974 RMK SLP072 T02200180 IEM_DS3505
ZBAA,1998-06-13 03:00,ZBAA 130300Z AUTO 22008KT 6SM 24/17 A2974 RMK SLP073 T02420172 52001 IEM_DS3505
ZBAA,1998-06-13 04:00,ZBAA 130400Z AUTO 21004KT 1 1/2SM 24/18 A2974 RMK SLP072 T02400180 IEM_DS3505
ZBAA,1998-06-13 05:00,ZBAA 130500Z AUTO 21004KT 2SM 25/18 A2971 RMK SLP062 T02500180 IEM_DS3505
ZBAA,1998-06-13 06:00,ZBAA 130600Z AUTO 25004KT 5SM 26/18 A2977 RMK SLP061 T02630176 57012 IEM_DS3505
ZBAA,1998-06-13 07:00,ZBAA 130700Z AUTO ////04KT 2SM 26/19 A2968 RMK SLP051 T02600190 IEM_DS3505
ZBAA,1998-06-13 08:00,ZBAA 130800Z AUTO 21008KT 2 1/2SM 26/19 A2968 RMK SLP051 T02600190 IEM_DS3505
ZBAA,1998-06-13 09:00,ZBAA 130900Z AUTO 19006KT 1SM RMK IEM_DS3505
ZBAA,1998-06-13 10:00,ZBAA 131000Z AUTO 18004KT 2 1/2SM 26/19 A2965 RMK SLP041 T02600190 IEM_DS3505
ZBAA,1998-06-13 11:00,ZBAA 131100Z AUTO 15002KT 2SM 25/20 A2965 RMK SLP042 T02500200 IEM_DS3505
ZBAA,1998-06-13 12:00,ZBAA 131200Z AUTO 20004KT 5SM 24/17 A2965 RMK SLP039 T02450166 57005 IEM_DS3505
ZBAA,1998-06-13 13:00,ZBAA 131300Z AUTO 17004KT 3SM 23/17 A2968 RMK SLP052 T02300170 IEM_DS3505
ZBAA,1998-06-13 14:00,ZBAA 131400Z AUTO 15002KT 2 1/2SM 22/18 A2968 RMK SLP052 T02200180 IEM_DS3505
ZBAA,1998-06-13 15:00,ZBAA 131500Z AUTO 18002KT 3SM 21/18 A2968 RMK SLP043 T02090177 52004 IEM_DS3505
ZBAA,1998-06-13 16:00,ZBAA 131600Z AUTO 14002KT 1 1/4SM 21/18 A2968 RMK SLP052 T02100180 IEM_DS3505
ZBAA,1998-06-13 17:00,ZBAA 131700Z AUTO 12004KT 1 1/4SM 20/18 A2968 RMK SLP053 T02000180 IEM_DS3505
ZBAA,1998-06-13 18:00,ZBAA 131800Z AUTO 16004KT 3SM 20/17 A2968 RMK SLP045 T01950172 52002 IEM_DS3505
ZBAA,1998-06-13 19:00,ZBAA 131900Z AUTO 12002KT 1SM 19/18 A2968 RMK SLP053 T01900180 IEM_DS3505
ZBAA,1998-06-13 20:00,ZBAA 132000Z AUTO 13002KT 1SM 19/18 A2968 RMK SLP053 T01900180 IEM_DS3505
ZBAA,1998-06-13 21:00,ZBAA 132100Z AUTO 18004KT 2SM 19/17 A2968 RMK SLP047 T01900174 52002 IEM_DS3505
ZBAA,1998-06-13 22:00,ZBAA 132200Z AUTO 15002KT 1SM 19/18 A2968 RMK SLP053 T01900180 IEM_DS3505
ZBAA,1998-06-14 00:00,ZBAA 140000Z AUTO 20008KT 1 1/4SM 21/18 A2968 RMK SLP045 T02130181 57002 IEM_DS3505
ZBAA,1998-06-14 01:00,ZBAA 140100Z AUTO 20004KT 1SM 23/19 A2968 RMK SLP052 T02300190 IEM_DS3505
ZBAA,1998-06-14 02:00,ZBAA 140200Z AUTO ////04KT 1SM 25/20 A2965 RMK SLP042 T02500200 IEM_DS3505
ZBAA,1998-06-14 03:00,ZBAA 140300Z AUTO 20014KT 6SM 28/16 A2962 RMK SLP032 T02780155 57012 IEM_DS3505
ZBAA,1998-06-14 04:00,ZBAA 140400Z AUTO 22014KT 2 1/2SM 29/18 A2962 RMK SLP031 T02900180 IEM_DS3505
ZBAA,1998-06-14 05:00,ZBAA 140500Z AUTO 22012KT 2 1/2SM 30/18 A2959 RMK SLP020 T03000180 IEM_DS3505
ZBAA,1998-06-14 06:00,ZBAA 140600Z AUTO 22010KT 6SM 31/17 A2956 RMK SLP014 T03070169 57018 IEM_DS3505
ZBAA,1998-06-14 07:00,ZBAA 140700Z AUTO 20014KT 4SM 31/18 A2953 RMK SLP000 T03100180 IEM_DS3505
ZBAA,1998-06-14 08:00,ZBAA 140800Z AUTO 19012KT 4SM 32/18 A2950 RMK SLP990 T03200180 IEM_DS3505
ZBAA,1998-06-14 09:00,ZBAA 140900Z AUTO 20008KT 4SM 31/17 A2950 RMK SLP990 T03110171 57024 IEM_DS3505
ZBAA,1998-06-14 10:00,ZBAA 141000Z AUTO 35016G27KT 3/8SM 29/19 A2953 RMK SLP000 T02900190 IEM_DS3505
ZBAA,1998-06-14 11:00,ZBAA 141100Z AUTO 14008KT 2 1/2SM 22/22 A2950 RMK SLP992 T02200220 IEM_DS3505
ZBAA,1998-06-14 12:00,ZBAA 141200Z AUTO 14006KT 2 1/2SM 27/19 A2950 RMK SLP993 T02660187 52003 IEM_DS3505
ZBAA,1998-06-14 13:00,ZBAA 141300Z AUTO 35006KT 2SM 22/21 A2950 RMK SLP992 T02200210 IEM_DS3505
ZBAA,1998-06-14 14:00,ZBAA 141400Z AUTO 00000KT 2 1/2SM 22/21 A2950 RMK SLP992 T02200210 IEM_DS3505
ZBAA,1998-06-14 15:00,ZBAA 141500Z AUTO 25008KT 6SM 28/16 A2950 RMK SLP985 T02790161 57008 IEM_DS3505
ZBAA,1998-06-14 16:00,ZBAA 141600Z AUTO 35004KT 2SM 22/21 A2950 RMK SLP992 T02200210 IEM_DS3505
ZBAA,1998-06-14 18:00,ZBAA 141800Z AUTO 36002KT 5SM 23/20 A2950 RMK SLP985 T02280199 54000 IEM_DS3505
ZBAA,1998-06-14 19:00,ZBAA 141900Z AUTO 30002KT 2SM 21/20 A2950 RMK SLP992 T02100200 IEM_DS3505
ZBAA,1998-06-14 20:00,ZBAA 142000Z AUTO 00000KT 2SM 21/20 A2950 RMK SLP992 T02100200 IEM_DS3505
ZBAA,1998-06-14 21:00,ZBAA 142100Z AUTO 00000KT 2SM 21/19 A2953 RMK SLP990 T02120193 52005 IEM_DS3505
ZBAA,1998-06-14 22:00,ZBAA 142200Z AUTO 34004KT 1 1/2SM 22/20 A2953 RMK SLP002 T02200200 IEM_DS3505
ZBAA,1998-06-14 23:00,ZBAA 142300Z AUTO 01006KT 2SM 24/21 A2953 RMK SLP001 T02400210 IEM_DS3505
ZBAA,1998-06-15 00:00,ZBAA 150000Z AUTO 34002KT 2 1/2SM 25/19 A2953 RMK SLP999 T02520192 52009 IEM_DS3505
ZBAA,1998-06-15 01:00,ZBAA 150100Z AUTO 32012KT 7SM 29/15 A2953 RMK SLP000 T02900150 IEM_DS3505
ZBAA,1998-06-15 02:00,ZBAA 150200Z AUTO 33016G25KT 6SM 30/12 A2953 RMK SLP000 T03000120 IEM_DS3505
ZBAA,1998-06-15 03:00,ZBAA 150300Z AUTO 34006G25KT 12SM 32/08 A2953 RMK SLP996 T03210080 57003 IEM_DS3505
ZBAA,1998-06-15 04:00,ZBAA 150400Z AUTO 31014KT 6SM 32/12 A2950 RMK SLP990 T03200120 IEM_DS3505
ZBAA,1998-06-15 05:00,ZBAA 150500Z AUTO 30014G23KT 7SM 32/12 A2950 RMK SLP990 T03200120 IEM_DS3505
ZBAA,1998-06-15 06:00,ZBAA 150600Z AUTO 34010G21KT 12SM 34/09 A2947 RMK SLP980 T03420087 57016 IEM_DS3505
ZBAA,1998-06-15 07:00,ZBAA 150700Z AUTO 30012G21KT 6SM 33/10 A2947 RMK SLP979 T03300100 IEM_DS3505
ZBAA,1998-06-15 08:00,ZBAA 150800Z AUTO 30012KT 6SM 34/12 A2947 RMK SLP978 T03400120 IEM_DS3505
ZBAA,1998-06-15 09:00,ZBAA 150900Z AUTO 32012KT 12SM 34/07 A2947 RMK SLP981 T03450072 52001 IEM_DS3505
ZBAA,1998-06-15 11:00,ZBAA 151100Z AUTO 30006KT 6SM 33/12 A2950 RMK SLP990 T03300120 IEM_DS3505
ZBAA,1998-06-15 12:00,ZBAA 151200Z AUTO 36004KT 19SM 32/10 A2950 RMK SLP982 T03170098 52001 IEM_DS3505
ZBAA,1998-06-15 13:00,ZBAA 151300Z AUTO 08002KT 6SM 27/16 A2950 RMK SLP991 T02700160 IEM_DS3505
ZBAA,1998-06-15 14:00,ZBAA 151400Z AUTO 00000KT 7SM 25/15 A2953 RMK SLP001 T02500150 IEM_DS3505
ZBAA,1998-06-15 15:00,ZBAA 151500Z AUTO 27004KT 19SM 26/12 A2953 RMK SLP995 T02570123 52013 IEM_DS3505
ZBAA,1998-06-15 16:00,ZBAA 151600Z AUTO 00000KT 7SM 23/16 A2956 RMK SLP012 T02300160 IEM_DS3505
ZBAA,1998-06-15 17:00,ZBAA 151700Z AUTO 36002KT 7SM 22/16 A2953 RMK SLP002 T02200160 IEM_DS3505
ZBAA,1998-06-15 18:00,ZBAA 151800Z AUTO 00000KT 9SM 22/14 A2956 RMK SLP002 T02210140 52007 IEM_DS3505
ZBAA,1998-06-15 19:00,ZBAA 151900Z AUTO 33004KT 7SM 22/15 A2956 RMK SLP012 T02200150 IEM_DS3505
ZBAA,1998-06-15 20:00,ZBAA 152000Z AUTO 30004KT 7SM 21/15 A2956 RMK SLP012 T02100150 IEM_DS3505
ZBAA,1998-06-15 21:00,ZBAA 152100Z AUTO 04006KT 12SM 23/12 A2953 RMK SLP001 T02260125 57001 IEM_DS3505
ZBAA,1998-06-15 22:00,ZBAA 152200Z AUTO 36002KT 6SM 20/15 A2956 RMK SLP012 T02000150 IEM_DS3505
ZBAA,1998-06-15 23:00,ZBAA 152300Z AUTO 35006KT 6SM 21/15 A2956 RMK SLP012 T02100150 IEM_DS3505
ZBAA,1998-06-16 00:00,ZBAA 160000Z AUTO 02004KT 7SM 24/14 A2956 RMK SLP007 T02450139 52006 IEM_DS3505
ZBAA,1998-06-16 01:00,ZBAA 160100Z AUTO 01004KT 6SM 26/15 A2956 RMK SLP011 T02600150 IEM_DS3505
ZBAA,1998-06-16 02:00,ZBAA 160200Z AUTO 09002KT 6SM 28/13 A2956 RMK SLP011 T02800130 IEM_DS3505
ZBAA,1998-06-16 03:00,ZBAA 160300Z AUTO 32002KT 12SM 30/14 A2956 RMK SLP005 T03030137 57002 IEM_DS3505
ZBAA,1998-06-16 04:00,ZBAA 160400Z AUTO 09004KT 7SM 32/16 A2953 RMK SLP000 T03200160 IEM_DS3505
ZBAA,1998-06-16 05:00,ZBAA 160500Z AUTO ////04KT 6SM 33/15 A2950 RMK SLP990 T03300150 IEM_DS3505
ZBAA,1998-06-16 06:00,ZBAA 160600Z AUTO 25006KT 9SM 35/18 A2950 RMK SLP983 T03500176 57022 IEM_DS3505
ZBAA,1998-06-16 07:00,ZBAA 160700Z AUTO 21008G19KT 7SM 35/15 A2947 RMK SLP978 T03500150 IEM_DS3505
ZBAA,1998-06-16 08:00,ZBAA 160800Z AUTO 21006KT 5SM 36/16 A2944 RMK SLP968 T03600160 IEM_DS3505
ZBAA,1998-06-16 09:00,ZBAA 160900Z AUTO 25006KT 6SM 36/17 A2941 RMK SLP956 T03570166 57027 IEM_DS3505
ZBAA,1998-06-16 11:00,ZBAA 161100Z AUTO 13006KT 3SM 32/21 A2941 RMK SLP959 T03200210 IEM_DS3505
ZBAA,1998-06-16 12:00,ZBAA 161200Z AUTO 16006KT 6SM 29/15 A2944 RMK SLP961 T02920146 52005 IEM_DS3505
ZBAA,1998-06-16 13:00,ZBAA 161300Z AUTO 12004KT 4SM 28/17 A2944 RMK SLP969 T02800170 IEM_DS3505
ZBAA,1998-06-16 14:00,ZBAA 161400Z AUTO 10004KT 2 1/2SM 26/18 A2947 RMK SLP980 T02600180 IEM_DS3505
ZBAA,1998-06-16 15:00,ZBAA 161500Z AUTO 07004G17KT 6SM 26/16 A2950 RMK SLP981 T02570156 52020 IEM_DS3505
ZBAA,1998-06-16 16:00,ZBAA 161600Z AUTO 11008G17KT 3SM 24/21 A2950 RMK SLP991 T02400210 IEM_DS3505
ZBAA,1998-06-16 17:00,ZBAA 161700Z AUTO 15004KT 4SM 24/19 A2953 RMK SLP001 T02400190 IEM_DS3505
ZBAA,1998-06-16 18:00,ZBAA 161800Z AUTO 11010KT 6SM 22/18 A2950 RMK SLP983 T02200180 52002 IEM_DS3505
ZBAA,1998-06-16 19:00,ZBAA 161900Z AUTO 12012G21KT 5SM 23/19 A2953 RMK SLP002 T02300190 IEM_DS3505
ZBAA,1998-06-16 20:00,ZBAA 162000Z AUTO 13010G21KT 6SM 21/18 A2953 RMK SLP002 T02100180 IEM_DS3505
ZBAA,1998-06-16 21:00,ZBAA 162100Z AUTO 16012KT 9SM 20/17 A2959 RMK SLP013 T02040166 52030 IEM_DS3505
ZBAA,1998-06-16 22:00,ZBAA 162200Z AUTO 03002KT 3SM 21/19 A2959 RMK SLP022 T02100190 IEM_DS3505
ZBAA,1998-06-16 23:00,ZBAA 162300Z AUTO 03004KT 3SM 20/19 A2959 RMK SLP022 T02000190 IEM_DS3505
ZBAA,1998-06-17 00:00,ZBAA 170000Z AUTO 02004KT 6SM 22/18 A2959 RMK SLP014 T02230175 52001 IEM_DS3505
ZBAA,1998-06-17 01:00,ZBAA 170100Z AUTO ////04KT 4SM 22/19 A2956 RMK SLP012 T02200190 IEM_DS3505
ZBAA,1998-06-17 02:00,ZBAA 170200Z AUTO ////02KT 7SM 24/17 A2953 RMK SLP001 T02400170 IEM_DS3505
ZBAA,1998-06-17 03:00,ZBAA 170300Z AUTO 20004KT 6SM 26/17 A2950 RMK SLP987 T02590172 57027 IEM_DS3505
ZBAA,1998-06-17 04:00,ZBAA 170400Z AUTO 22006KT 6SM 26/19 A2947 RMK SLP980 T02600190 IEM_DS3505
ZBAA,1998-06-17 05:00,ZBAA 170500Z AUTO 18010KT 4SM 26/19 A2944 RMK SLP970 T02600190 IEM_DS3505
ZBAA,1998-06-17 06:00,ZBAA 170600Z AUTO 20010KT 6SM 26/17 A2941 RMK SLP961 T02600171 57026 IEM_DS3505
ZBAA,1998-06-17 07:00,ZBAA 170700Z AUTO 19010KT 4SM 25/19 A2944 RMK SLP970 T02500190 IEM_DS3505
ZBAA,1998-06-17 08:00,ZBAA 170800Z AUTO 15008KT 4SM 25/20 A2944 RMK SLP970 T02500200 IEM_DS3505
ZBAA,1998-06-17 09:00,ZBAA 170900Z AUTO 34004KT 6SM 23/19 A2947 RMK SLP970 T02330194 52009 IEM_DS3505
ZBAA,1998-06-17 10:00,ZBAA 171000Z AUTO ////04KT 2 1/2SM 24/21 A2944 RMK SLP970 T02400210 IEM_DS3505
ZBAA,1998-06-17 11:00,ZBAA 171100Z AUTO 36008KT 2 1/2SM 24/21 A2947 RMK SLP980 T02400210 IEM_DS3505
ZBAA,1998-06-17 12:00,ZBAA 171200Z AUTO 04004KT 6SM 23/19 A2950 RMK 60004 SLP983 T02260193 52013 IEM_DS3505
ZBAA,1998-06-17 13:00,ZBAA 171300Z AUTO 10004KT 2 1/2SM 21/20 A2953 RMK SLP002 T02100200 IEM_DS3505
ZBAA,1998-06-17 14:00,ZBAA 171400Z AUTO 12004KT 2 1/2SM 20/19 A2953 RMK SLP002 T02000190 IEM_DS3505
ZBAA,1998-06-17 15:00,ZBAA 171500Z AUTO 07006KT 9SM 20/19 A2956 RMK SLP004 T02030190 52021 IEM_DS3505
ZBAA,1998-06-17 16:00,ZBAA 171600Z AUTO 00000KT 2 1/2SM 20/19 A2956 RMK SLP012 T02000190 IEM_DS3505
ZBAA,1998-06-17 17:00,ZBAA 171700Z AUTO 17004KT 2 1/2SM 20/19 A2956 RMK SLP012 T02000190 IEM_DS3505
ZBAA,1998-06-17 18:00,ZBAA 171800Z AUTO 00000KT 3SM 19/18 A2956 RMK SLP009 T01870182 52004 IEM_DS3505
ZBAA,1998-06-17 19:00,ZBAA 171900Z AUTO 16004KT 1 1/4SM 20/19 A2956 RMK SLP012 T02000190 IEM_DS3505
ZBAA,1998-06-17 20:00,ZBAA 172000Z AUTO 14004KT 1 1/4SM 19/19 A2956 RMK SLP013 T01900190 IEM_DS3505
ZBAA,1998-06-17 21:00,ZBAA 172100Z AUTO 00000KT 2 1/2SM 19/18 A2959 RMK 70008 SLP012 T01930177 52003 IEM_DS3505
ZBAA,1998-06-17 22:00,ZBAA 172200Z AUTO 13004KT 1 1/4SM 19/18 A2956 RMK SLP013 T01900180 IEM_DS3505
ZBAA,1998-06-17 23:00,ZBAA 172300Z AUTO 13004KT 1 1/4SM 19/18 A2956 RMK SLP013 T01900180 IEM_DS3505
ZBAA,1998-06-18 00:00,ZBAA 180000Z AUTO 11004KT 2SM 21/18 A2959 RMK 70008 SLP016 T02110177 52004 IEM_DS3505
ZBAA,1998-06-18 01:00,ZBAA 180100Z AUTO 12006KT 4SM 21/18 A2959 RMK SLP022 T02100180 IEM_DS3505
ZBAA,1998-06-18 02:00,ZBAA 180200Z AUTO 11006KT 4SM 23/19 A2956 RMK SLP012 T02300190 IEM_DS3505
ZBAA,1998-06-18 03:00,ZBAA 180300Z AUTO 11004KT 5SM 24/18 A2956 RMK SLP010 T02390176 57006 IEM_DS3505
ZBAA,1998-06-18 04:00,ZBAA 180400Z AUTO 14008KT 4SM 25/19 A2953 RMK SLP001 T02500190 IEM_DS3505
ZBAA,1998-06-18 05:00,ZBAA 180500Z AUTO 21006KT 4SM 26/16 A2950 RMK SLP991 T02600160 IEM_DS3505
ZBAA,1998-06-18 06:00,ZBAA 180600Z AUTO 07006KT 5SM 25/17 A2950 RMK SLP991 T02470167 57019 IEM_DS3505
ZBAA,1998-06-18 07:00,ZBAA 180700Z AUTO 24006KT 6SM 27/14 A2950 RMK SLP991 T02700140 IEM_DS3505
ZBAA,1998-06-18 08:00,ZBAA 180800Z AUTO 31017G29KT 7SM 29/07 A2947 RMK SLP979 T02900070 IEM_DS3505
ZBAA,1998-06-18 09:00,ZBAA 180900Z AUTO 34006G27KT 12SM 28/09 A2947 RMK SLP982 T02850090 57008 IEM_DS3505
ZBAA,1998-06-18 10:00,ZBAA 181000Z AUTO 31010KT 6SM 29/07 A2947 RMK SLP979 T02900070 IEM_DS3505
ZBAA,1998-06-18 11:00,ZBAA 181100Z AUTO ////02KT 6SM 28/11 A2947 RMK SLP980 T02800110 IEM_DS3505
ZBAA,1998-06-18 12:00,ZBAA 181200Z AUTO 20006KT 9SM 25/14 A2950 RMK 60008 SLP985 T02480135 52003 IEM_DS3505
ZBAA,1998-06-18 13:00,ZBAA 181300Z AUTO 18004KT 6SM 24/10 A2950 RMK SLP991 T02400100 IEM_DS3505
ZBAA,1998-06-18 14:00,ZBAA 181400Z AUTO 18004KT 7SM 22/11 A2953 RMK SLP002 T02200110 IEM_DS3505
ZBAA,1998-06-18 15:00,ZBAA 181500Z AUTO 22004KT 6SM 21/14 A2953 RMK SLP999 T02120139 52014 IEM_DS3505
ZBAA,1998-06-18 16:00,ZBAA 181600Z AUTO 00000KT 7SM 19/14 A2953 RMK SLP003 T01900140 IEM_DS3505
ZBAA,1998-06-18 17:00,ZBAA 181700Z AUTO 00000KT 7SM 17/15 A2953 RMK SLP003 T01700150 IEM_DS3505
ZBAA,1998-06-18 18:00,ZBAA 181800Z AUTO 20004KT 7SM 20/15 A2953 RMK SLP997 T01960151 57003 IEM_DS3505
ZBAA,1998-06-18 19:00,ZBAA 181900Z AUTO 35004KT 5SM 17/13 A2953 RMK SLP003 T01700130 IEM_DS3505
ZBAA,1998-06-18 21:00,ZBAA 182100Z AUTO 02004KT 6SM 17/13 A2956 RMK 70008 SLP000 T01730131 52004 IEM_DS3505
ZBAA,1998-06-18 22:00,ZBAA 182200Z AUTO 35004KT 7SM 16/14 A2956 RMK SLP013 T01600140 IEM_DS3505
ZBAA,1998-06-18 23:00,ZBAA 182300Z AUTO 36006KT 7SM 19/13 A2956 RMK SLP013 T01900130 IEM_DS3505
ZBAA,1998-06-19 00:00,ZBAA 190000Z AUTO 02004KT 6SM 21/13 A2956 RMK 70008 SLP004 T02120131 52004 IEM_DS3505
ZBAA,1998-06-19 02:00,ZBAA 190200Z AUTO ////02KT 7SM 26/14 A2953 RMK SLP001 T02600140 IEM_DS3505
ZBAA,1998-06-19 03:00,ZBAA 190300Z AUTO 11006KT 3SM 27/15 A2951 RMK SLP994 T02670147 57010 IEM_DS3505
ZBAA,1998-06-19 04:00,ZBAA 190400Z AUTO 17006KT 5SM 30/14 A2950 RMK SLP990 T03000140 IEM_DS3505
ZBAA,1998-06-19 05:00,ZBAA 190500Z AUTO 19008KT 7SM 31/14 A2947 RMK SLP979 T03100140 IEM_DS3505
ZBAA,1998-06-19 06:00,ZBAA 190600Z AUTO 20008KT 6SM 34/11 A2944 RMK SLP965 T03380108 57029 IEM_DS3505
ZBAA,1998-06-19 07:00,ZBAA 190700Z AUTO 19008KT 7SM 34/13 A2941 RMK SLP958 T03400130 IEM_DS3505
ZBAA,1998-06-19 08:00,ZBAA 190800Z AUTO 18012KT 7SM 36/09 A2938 RMK SLP948 T03600090 IEM_DS3505
ZBAA,1998-06-19 09:00,ZBAA 190900Z AUTO 18012KT 11SM 36/05 A2935 RMK SLP949 T03570048 57016 IEM_DS3505
ZBAA,1998-06-19 10:00,ZBAA 191000Z AUTO 19012KT 7SM 35/08 A2935 RMK SLP938 T03500080 IEM_DS3505
ZBAA,1998-06-19 11:00,ZBAA 191100Z AUTO 19012KT 7SM 34/08 A2932 RMK SLP928 T03400080 IEM_DS3505
ZBAA,1998-06-19 12:00,ZBAA 191200Z AUTO 20010KT 12SM 32/06 A2935 RMK SLP942 T03210063 57007 IEM_DS3505
ZBAA,1998-06-19 13:00,ZBAA 191300Z AUTO 19012KT 7SM 31/07 A2938 RMK SLP949 T03100070 IEM_DS3505
ZBAA,1998-06-19 14:00,ZBAA 191400Z AUTO 19010KT 6SM 30/07 A2938 RMK SLP949 T03000070 IEM_DS3505
ZBAA,1998-06-19 15:00,ZBAA 191500Z AUTO 22004KT 9SM 27/09 A2941 RMK SLP955 T02710094 52013 IEM_DS3505
ZBAA,1998-06-19 16:00,ZBAA 191600Z AUTO 16008KT 7SM 27/08 A2938 RMK SLP950 T02700080 IEM_DS3505
ZBAA,1998-06-19 17:00,ZBAA 191700Z AUTO 14006KT 7SM 26/09 A2938 RMK SLP950 T02600090 IEM_DS3505
ZBAA,1998-06-19 18:00,ZBAA 191800Z AUTO 36006KT 12SM 25/09 A2941 RMK SLP952 T02500090 57002 IEM_DS3505
ZBAA,1998-06-19 20:00,ZBAA 192000Z AUTO ////04KT 5SM 21/15 A2944 RMK SLP971 T02100150 IEM_DS3505
ZBAA,1998-06-19 21:00,ZBAA 192100Z AUTO 02006KT 11SM 21/14 A2947 RMK SLP969 T02130142 52016 IEM_DS3505
ZBAA,1998-06-19 22:00,ZBAA 192200Z AUTO 02004KT 4SM 22/16 A2947 RMK SLP981 T02200160 IEM_DS3505
ZBAA,1998-06-19 23:00,ZBAA 192300Z AUTO 02002KT 4SM 24/15 A2947 RMK SLP980 T02400150 IEM_DS3505
ZBAA,1998-06-20 00:00,ZBAA 200000Z AUTO 07008KT 6SM 26/16 A2950 RMK SLP982 T02560159 52013 IEM_DS3505
ZBAA,1998-06-20 01:00,ZBAA 200100Z AUTO 36004KT 4SM 28/14 A2950 RMK SLP991 T02800140 IEM_DS3505
ZBAA,1998-06-20 02:00,ZBAA 200200Z AUTO 02004KT 6SM 30/13 A2950 RMK SLP990 T03000130 IEM_DS3505
ZBAA,1998-06-20 03:00,ZBAA 200300Z AUTO 07006KT 12SM 30/12 A2950 RMK SLP988 T03020122 52006 IEM_DS3505
ZBAA,1998-06-20 04:00,ZBAA 200400Z AUTO 05002KT 6SM 32/11 A2950 RMK SLP990 T03200110 IEM_DS3505
ZBAA,1998-06-20 05:00,ZBAA 200500Z AUTO ////02KT RMK IEM_DS3505
ZBAA,1998-06-20 06:00,ZBAA 200600Z AUTO 02008KT 16SM 32/11 A2947 RMK SLP980 T03230114 57008 IEM_DS3505
ZBAA,1998-06-20 07:00,ZBAA 200700Z AUTO 11004KT 6SM 34/11 A2947 RMK SLP978 T03400110 IEM_DS3505
ZBAA,1998-06-20 08:00,ZBAA 200800Z AUTO 16006KT 6SM 34/10 A2947 RMK SLP978 T03400100 IEM_DS3505
ZBAA,1998-06-20 09:00,ZBAA 200900Z AUTO 11006KT 16SM 33/12 A2947 RMK SLP973 T03330117 57007 IEM_DS3505
ZBAA,1998-06-20 10:00,ZBAA 201000Z AUTO 12006KT 6SM 32/12 A2947 RMK SLP979 T03200120 IEM_DS3505
ZBAA,1998-06-20 11:00,ZBAA 201100Z AUTO 12002KT 6SM 31/14 A2947 RMK SLP979 T03100140 IEM_DS3505
ZBAA,1998-06-20 12:00,ZBAA 201200Z AUTO 11008KT 9SM 30/17 A2950 RMK SLP987 T02960169 52014 IEM_DS3505
ZBAA,1998-06-20 13:00,ZBAA 201300Z AUTO ////02KT 4SM 27/19 A2953 RMK SLP001 T02700190 IEM_DS3505
ZBAA,1998-06-20 14:00,ZBAA 201400Z AUTO 11008KT 4SM 25/17 A2953 RMK SLP001 T02500170 IEM_DS3505
ZBAA,1998-06-20 15:00,ZBAA 201500Z AUTO 02004KT 12SM 25/16 A2956 RMK SLP001 T02470165 52014 IEM_DS3505
ZBAA,1998-06-20 17:00,ZBAA 201700Z AUTO 36006KT 4SM 23/18 A2953 RMK SLP002 T02300180 IEM_DS3505
ZBAA,1998-06-20 18:00,ZBAA 201800Z AUTO 02004KT 7SM 24/17 A2953 RMK 60000 SLP000 T02360172 57001 IEM_DS3505
ZBAA,1998-06-20 19:00,ZBAA 201900Z AUTO ////02KT 3SM 22/18 A2956 RMK SLP012 T02200180 IEM_DS3505
ZBAA,1998-06-20 20:00,ZBAA 202000Z AUTO 01004KT 2 1/2SM 22/19 A2956 RMK SLP012 T02200190 IEM_DS3505
ZBAA,1998-06-20 21:00,ZBAA 202100Z AUTO 02006KT 4SM 23/18 A2956 RMK 70000 SLP005 T02280184 52005 IEM_DS3505
ZBAA,1998-06-20 22:00,ZBAA 202200Z AUTO 00000KT 2 1/2SM 22/18 A2959 RMK SLP022 T02200180 IEM_DS3505
ZBAA,1998-06-21 00:00,ZBAA 210000Z AUTO 07008KT 4SM 23/20 A2962 RMK SLP019 T02340195 52014 IEM_DS3505
ZBAA,1998-06-21 01:00,ZBAA 210100Z AUTO 10004KT 3SM 26/21 A2962 RMK SLP031 T02600210 IEM_DS3505
ZBAA,1998-06-21 02:00,ZBAA 210200Z AUTO 10008KT 2 1/2SM 27/21 A2962 RMK SLP031 T02700210 IEM_DS3505
ZBAA,1998-06-21 03:00,ZBAA 210300Z AUTO 11008KT 2 1/2SM 28/21 A2962 RMK SLP025 T02840208 52006 IEM_DS3505
ZBAA,1998-06-21 04:00,ZBAA 210400Z AUTO 11010KT 2 1/2SM 29/23 A2962 RMK SLP031 T02900230 IEM_DS3505
ZBAA,1998-06-21 05:00,ZBAA 210500Z AUTO 13012KT 2 1/2SM 29/23 A2962 RMK SLP031 T02900230 IEM_DS3505
ZBAA,1998-06-21 06:00,ZBAA 210600Z AUTO 11012KT 4SM 31/22 A2962 RMK SLP021 T03110224 57004 IEM_DS3505
ZBAA,1998-06-21 07:00,ZBAA 210700Z AUTO 12010KT 1 1/2SM 28/22 A2962 RMK SLP031 T02800220 IEM_DS3505
ZBAA,1998-06-21 08:00,ZBAA 210800Z AUTO 13012KT 2SM 28/22 A2962 RMK SLP031 T02800220 IEM_DS3505
ZBAA,1998-06-21 09:00,ZBAA 210900Z AUTO 09014KT 4SM 27/20 A2962 RMK SLP021 T02740203 54000 IEM_DS3505
ZBAA,1998-06-21 10:00,ZBAA 211000Z AUTO 12014KT 2 1/2SM 26/20 A2962 RMK SLP031 T02600200 IEM_DS3505
ZBAA,1998-06-21 11:00,ZBAA 211100Z AUTO 13012G21KT 2SM 24/20 A2968 RMK SLP052 T02400200 IEM_DS3505
ZBAA,1998-06-21 12:00,ZBAA 211200Z AUTO 09010KT 3SM 24/19 A2971 RMK SLP055 T02350187 52033 IEM_DS3505
ZBAA,1998-06-21 13:00,ZBAA 211300Z AUTO 15004KT 1 1/2SM 22/19 A2977 RMK SLP083 T02200190 IEM_DS3505
ZBAA,1998-06-21 14:00,ZBAA 211400Z AUTO 14002KT 1 1/2SM 22/19 A2977 RMK SLP083 T02200190 IEM_DS3505
ZBAA,1998-06-21 15:00,ZBAA 211500Z AUTO 07004KT 6SM 22/18 A2977 RMK SLP077 T02150175 52023 IEM_DS3505
ZBAA,1998-06-21 16:00,ZBAA 211600Z AUTO 15004KT 1 1/2SM 22/19 A2980 RMK SLP093 T02200190 IEM_DS3505
ZBAA,1998-06-21 17:00,ZBAA 211700Z AUTO 12004KT 2SM 22/19 A2977 RMK SLP083 T02200190 IEM_DS3505
ZBAA,1998-06-21 18:00,ZBAA 211800Z AUTO 07006KT 6SM 22/18 A2977 RMK SLP077 T02150177 54000 IEM_DS3505
ZBAA,1998-06-21 19:00,ZBAA 211900Z AUTO 11002KT 2 1/2SM 22/19 A2977 RMK SLP083 T02200190 IEM_DS3505
ZBAA,1998-06-21 20:00,ZBAA 212000Z AUTO 12002KT 2 1/2SM 22/18 A2977 RMK SLP083 T02200180 IEM_DS3505
ZBAA,1998-06-21 21:00,ZBAA 212100Z AUTO 09004KT 6SM 21/18 A2977 RMK SLP078 T02100175 54000 IEM_DS3505
ZBAA,1998-06-21 22:00,ZBAA 212200Z AUTO 14002KT 3SM 21/18 A2980 RMK SLP094 T02100180 IEM_DS3505
ZBAA,1998-06-21 23:00,ZBAA 212300Z AUTO 11004KT 3SM 22/18 A2980 RMK SLP093 T02200180 IEM_DS3505
ZBAA,1998-06-22 00:00,ZBAA 220000Z AUTO 07006KT 4SM 22/18 A2980 RMK SLP086 T02190181 52008 IEM_DS3505
ZBAA,1998-06-22 01:00,ZBAA 220100Z AUTO 12006KT 3SM 23/19 A2980 RMK SLP093 T02300190 IEM_DS3505
ZBAA,1998-06-22 02:00,ZBAA 220200Z AUTO 12008KT 3SM 24/19 A2980 RMK SLP093 T02400190 IEM_DS3505
ZBAA,1998-06-22 03:00,ZBAA 220300Z AUTO 07008KT 6SM 25/18 A2983 RMK SLP091 T02460185 52005 IEM_DS3505
ZBAA,1998-06-22 04:00,ZBAA 220400Z AUTO 12008KT 2SM 23/19 A2983 RMK SLP103 T02300190 IEM_DS3505
ZBAA,1998-06-22 05:00,ZBAA 220500Z AUTO 13008KT 1 1/4SM 22/19 A2983 RMK SLP104 T02200190 IEM_DS3505
ZBAA,1998-06-22 06:00,ZBAA 220600Z AUTO 07010KT 5SM 24/19 A2983 RMK SLP093 T02370189 52002 IEM_DS3505
ZBAA,1998-06-22 07:00,ZBAA 220700Z AUTO 12012KT 1 1/4SM 24/20 A2983 RMK SLP103 T02400200 IEM_DS3505
ZBAA,1998-06-22 08:00,ZBAA 220800Z AUTO 12010KT 1 1/2SM 24/20 A2980 RMK SLP093 T02400200 IEM_DS3505
ZBAA,1998-06-22 09:00,ZBAA 220900Z AUTO 07008KT 4SM 25/20 A2980 RMK SLP088 T02470195 57005 IEM_DS3505
ZBAA,1998-06-22 10:00,ZBAA 221000Z AUTO 13004KT 2 1/2SM 25/20 A2980 RMK SLP093 T02500200 IEM_DS3505
ZBAA,1998-06-22 11:00,ZBAA 221100Z AUTO 07004KT 2SM 25/20 A2980 RMK SLP093 T02500200 IEM_DS3505
ZBAA,1998-06-22 12:00,ZBAA 221200Z AUTO 04004KT 5SM 25/20 A2983 RMK SLP090 T02480196 52002 IEM_DS3505
ZBAA,1998-06-22 13:00,ZBAA 221300Z AUTO 36004KT 1 1/4SM 24/20 A2985 RMK SLP110 T02400200 IEM_DS3505
ZBAA,1998-06-22 14:00,ZBAA 221400Z AUTO 05002KT 1 1/4SM 24/20 A2983 RMK SLP103 T02400200 IEM_DS3505
ZBAA,1998-06-22 15:00,ZBAA 221500Z AUTO 07006KT 4SM 24/20 A2985 RMK SLP103 T02370195 52013 IEM_DS3505
ZBAA,1998-06-22 17:00,ZBAA 221700Z AUTO 11004KT 2 1/2SM 23/20 A2983 RMK SLP103 T02300200 IEM_DS3505
ZBAA,1998-06-22 18:00,ZBAA 221800Z AUTO 07006KT 5SM 22/19 A2983 RMK SLP097 T02210188 57006 IEM_DS3505
ZBAA,1998-06-22 19:00,ZBAA 221900Z AUTO 11004KT 3SM 23/20 A2983 RMK SLP103 T02300200 IEM_DS3505
ZBAA,1998-06-22 20:00,ZBAA 222000Z AUTO 12002KT 4SM 22/20 A2983 RMK SLP104 T02200200 IEM_DS3505
ZBAA,1998-06-22 21:00,ZBAA 222100Z AUTO 09010KT 4SM 20/20 A2980 RMK 70051 SLP086 T02010196 57011 IEM_DS3505
ZBAA,1998-06-22 22:00,ZBAA 222200Z AUTO 00000KT 2SM 20/20 A2983 RMK SLP104 T02000200 IEM_DS3505
ZBAA,1998-06-22 23:00,ZBAA 222300Z AUTO 11004KT 2SM 21/20 A2983 RMK SLP104 T02100200 IEM_DS3505
ZBAA,1998-06-23 00:00,ZBAA 230000Z AUTO 09006KT 4SM 21/20 A2986 RMK 60055 70055 SLP091 T02090197 52005 IEM_DS3505
ZBAA,1998-06-23 01:00,ZBAA 230100Z AUTO 15002KT 2SM 21/20 A2983 RMK SLP104 T02100200 IEM_DS3505
ZBAA,1998-06-23 02:00,ZBAA 230200Z AUTO 10006KT 1 1/4SM 20/20 A2980 RMK SLP094 T02000200 IEM_DS3505
ZBAA,1998-06-23 04:00,ZBAA 230400Z AUTO 10004KT 1SM 21/21 A2983 RMK SLP104 T02100210 IEM_DS3505
ZBAA,1998-06-23 05:00,ZBAA 230500Z AUTO 10006KT 1SM 21/21 A2980 RMK SLP094 T02100210 IEM_DS3505
ZBAA,1998-06-23 06:00,ZBAA 230600Z AUTO 11006KT 2 1/2SM 24/21 A2977 RMK 60000 SLP083 T02390209 57008 IEM_DS3505
ZBAA,1998-06-23 07:00,ZBAA 230700Z AUTO 11004KT 1 1/4SM 22/21 A2977 RMK SLP083 T02200210 IEM_DS3505
ZBAA,1998-06-23 08:00,ZBAA 230800Z AUTO 12006KT 1 1/4SM 23/22 A2977 RMK SLP083 T02300220 IEM_DS3505
ZBAA,1998-06-23 09:00,ZBAA 230900Z AUTO 04006KT 2 1/2SM 24/22 A2974 RMK SLP070 T02440217 57013 IEM_DS3505
ZBAA,1998-06-23 10:00,ZBAA 231000Z AUTO 09004KT 1 1/4SM 23/21 A2974 RMK SLP072 T02300210 IEM_DS3505
ZBAA,1998-06-23 11:00,ZBAA 231100Z AUTO 12004KT 1 1/4SM 23/21 A2974 RMK SLP072 T02300210 IEM_DS3505
ZBAA,1998-06-23 12:00,ZBAA 231200Z AUTO 02002KT 1SM 23/21 A2977 RMK SLP070 T02340213 54000 IEM_DS3505
ZBAA,1998-06-23 13:00,ZBAA 231300Z AUTO 11002KT 1 1/4SM 22/21 A2977 RMK SLP083 T02200210 IEM_DS3505
ZBAA,1998-06-23 14:00,ZBAA 231400Z AUTO 10004KT 1 1/2SM 22/21 A2977 RMK SLP083 T02200210 IEM_DS3505
ZBAA,1998-06-23 15:00,ZBAA 231500Z AUTO 04006KT 1 1/4SM 22/21 A2980 RMK SLP079 T02240209 52009 IEM_DS3505
ZBAA,1998-06-23 16:00,ZBAA 231600Z AUTO 05002KT 1 1/4SM 22/21 A2977 RMK SLP083 T02200210 IEM_DS3505
ZBAA,1998-06-23 17:00,ZBAA 231700Z AUTO ////02KT 1 1/2SM 22/21 A2977 RMK SLP083 T02200210 IEM_DS3505
ZBAA,1998-06-23 18:00,ZBAA 231800Z AUTO 07006KT 6SM 22/20 A2977 RMK SLP078 T02180203 57001 IEM_DS3505
ZBAA,1998-06-23 19:00,ZBAA 231900Z AUTO 08002KT 2SM 22/20 A2977 RMK SLP083 T02200200 IEM_DS3505
ZBAA,1998-06-23 20:00,ZBAA 232000Z AUTO 08002KT 2SM 22/20 A2977 RMK SLP083 T02200200 IEM_DS3505
ZBAA,1998-06-23 21:00,ZBAA 232100Z AUTO 07006KT 4SM 21/19 A2977 RMK 70004 SLP080 T02090192 52002 IEM_DS3505
ZBAA,1998-06-23 22:00,ZBAA 232200Z AUTO 13002KT 1 1/2SM 21/20 A2980 RMK SLP094 T02100200 IEM_DS3505
ZBAA,1998-06-23 23:00,ZBAA 232300Z AUTO ////02KT 1 1/2SM 22/20 A2980 RMK SLP093 T02200200 IEM_DS3505
ZBAA,1998-06-24 00:00,ZBAA 240000Z AUTO 07004KT 2 1/2SM 22/19 A2980 RMK SLP087 T02160188 52007 IEM_DS3505
ZBAA,1998-06-24 01:00,ZBAA 240100Z AUTO 13004KT 2 1/2SM 23/20 A2980 RMK SLP093 T02300200 IEM_DS3505
ZBAA,1998-06-24 02:00,ZBAA 240200Z AUTO 11002KT 2 1/2SM 24/21 A2980 RMK SLP093 T02400210 IEM_DS3505
ZBAA,1998-06-24 03:00,ZBAA 240300Z AUTO 34004KT 2 1/2SM 25/20 A2980 RMK SLP086 T02520195 57001 IEM_DS3505
ZBAA,1998-06-24 04:00,ZBAA 240400Z AUTO ////02KT 3SM 25/21 A2980 RMK SLP093 T02500210 IEM_DS3505
ZBAA,1998-06-24 05:00,ZBAA 240500Z AUTO 07002KT 3SM 26/22 A2977 RMK SLP083 T02600220 IEM_DS3505
ZBAA,1998-06-24 06:00,ZBAA 240600Z AUTO 07008KT 4SM 28/21 A2977 RMK SLP073 T02760207 57012 IEM_DS3505
ZBAA,1998-06-24 07:00,ZBAA 240700Z AUTO 10004KT 2 1/2SM 27/22 A2974 RMK SLP071 T02700220 IEM_DS3505
ZBAA,1998-06-24 09:00,ZBAA 240900Z AUTO 11006KT 4SM 28/21 A2974 RMK SLP066 T02760212 57008 IEM_DS3505
ZBAA,1998-06-24 10:00,ZBAA 241000Z AUTO 11004KT 7SM 26/21 A2974 RMK SLP072 T02600210 IEM_DS3505
ZBAA,1998-06-24 11:00,ZBAA 241100Z AUTO 11004KT 7SM 26/21 A2974 RMK SLP072 T02600210 IEM_DS3505
ZBAA,1998-06-24 12:00,ZBAA 241200Z AUTO 09004KT 6SM 25/19 A2977 RMK SLP067 T02520187 52001 IEM_DS3505
ZBAA,1998-06-24 13:00,ZBAA 241300Z AUTO 12006KT 7SM 24/19 A2977 RMK SLP083 T02400190 IEM_DS3505
ZBAA,1998-06-24 14:00,ZBAA 241400Z AUTO 13004KT 7SM 23/20 A2980 RMK SLP093 T02300200 IEM_DS3505
ZBAA,1998-06-24 15:00,ZBAA 241500Z AUTO 11006KT 7SM 23/19 A2980 RMK SLP080 T02300188 52013 IEM_DS3505
ZBAA,1998-06-24 16:00,ZBAA 241600Z AUTO 13002KT 7SM 22/20 A2977 RMK SLP083 T02200200 IEM_DS3505
ZBAA,1998-06-24 17:00,ZBAA 241700Z AUTO 13004KT 7SM 22/19 A2977 RMK SLP083 T02200190 IEM_DS3505
ZBAA,1998-06-24 18:00,ZBAA 241800Z AUTO 02004KT 6SM 22/19 A2982 RMK SLP075 T02160186 57005 IEM_DS3505
ZBAA,1998-06-24 19:00,ZBAA 241900Z AUTO 08002KT 7SM 21/20 A2974 RMK SLP073 T02100200 IEM_DS3505
ZBAA,1998-06-24 20:00,ZBAA 242000Z AUTO 11002KT 7SM 21/20 A2974 RMK SLP073 T02100200 IEM_DS3505
ZBAA,1998-06-24 21:00,ZBAA 242100Z AUTO 09004KT 5SM 21/19 A2974 RMK SLP072 T02110189 57003 IEM_DS3505
ZBAA,1998-06-24 22:00,ZBAA 242200Z AUTO 00000KT 4SM 21/20 A2974 RMK SLP073 T02100200 IEM_DS3505
ZBAA,1998-06-24 23:00,ZBAA 242300Z AUTO 09002KT 4SM 21/19 A2977 RMK SLP084 T02100190 IEM_DS3505
ZBAA,1998-06-25 00:00,ZBAA 250000Z AUTO 07004KT 4SM 22/19 A2977 RMK SLP074 T02200194 52002 IEM_DS3505
ZBAA,1998-06-25 01:00,ZBAA 250100Z AUTO 13002KT 3SM 23/20 A2977 RMK SLP083 T02300200 IEM_DS3505
ZBAA,1998-06-25 02:00,ZBAA 250200Z AUTO ////02KT 2 1/2SM 24/21 A2974 RMK SLP072 T02400210 IEM_DS3505
ZBAA,1998-06-25 03:00,ZBAA 250300Z AUTO 00000KT 4SM 26/21 A2974 RMK SLP069 T02610210 57004 IEM_DS3505
ZBAA,1998-06-25 04:00,ZBAA 250400Z AUTO ////02KT 2 1/2SM 26/22 A2971 RMK SLP061 T02600220 IEM_DS3505
ZBAA,1998-06-25 05:00,ZBAA 250500Z AUTO 09004KT 2 1/2SM 27/21 A2968 RMK SLP051 T02700210 IEM_DS3505
ZBAA,1998-06-25 06:00,ZBAA 250600Z AUTO 14006KT 5SM 28/20 A2965 RMK SLP043 T02750203 57026 IEM_DS3505
ZBAA,1998-06-25 07:00,ZBAA 250700Z AUTO 13004KT 3SM 28/22 A2965 RMK SLP041 T02800220 IEM_DS3505
ZBAA,1998-06-25 08:00,ZBAA 250800Z AUTO 16004KT 3SM 28/22 A2962 RMK SLP031 T02800220 IEM_DS3505
ZBAA,1998-06-25 09:00,ZBAA 250900Z AUTO 18006KT 6SM 28/21 A2962 RMK SLP029 T02770207 57014 IEM_DS3505
ZBAA,1998-06-25 10:00,ZBAA 251000Z AUTO 14004KT 3SM 27/22 A2962 RMK SLP031 T02700220 IEM_DS3505
ZBAA,1998-06-25 11:00,ZBAA 251100Z AUTO 11004KT 2SM 26/22 A2962 RMK SLP031 T02600220 IEM_DS3505
ZBAA,1998-06-25 12:00,ZBAA 251200Z AUTO 16008KT 6SM 26/20 A2962 RMK SLP026 T02610199 57003 IEM_DS3505
ZBAA,1998-06-25 13:00,ZBAA 251300Z AUTO 13004KT 2 1/2SM 25/21 A2965 RMK SLP042 T02500210 IEM_DS3505
ZBAA,1998-06-25 14:00,ZBAA 251400Z AUTO 12004KT 2 1/2SM 24/21 A2965 RMK SLP042 T02400210 IEM_DS3505
ZBAA,1998-06-25 15:00,ZBAA 251500Z AUTO 16004KT 6SM 24/20 A2965 RMK SLP033 T02430195 52007 IEM_DS3505
ZBAA,1998-06-25 16:00,ZBAA 251600Z AUTO 12002KT 3SM 23/21 A2965 RMK SLP042 T02300210 IEM_DS3505
ZBAA,1998-06-25 17:00,ZBAA 251700Z AUTO 15004KT 3SM 23/21 A2962 RMK SLP032 T02300210 IEM_DS3505
ZBAA,1998-06-25 18:00,ZBAA 251800Z AUTO 14006KT 6SM 22/20 A2962 RMK SLP023 T02210198 57010 IEM_DS3505
ZBAA,1998-06-25 19:00,ZBAA 251900Z AUTO 12004KT 2 1/2SM 22/21 A2962 RMK SLP032 T02200210 IEM_DS3505
ZBAA,1998-06-25 21:00,ZBAA 252100Z AUTO 16004KT 6SM 22/19 A2962 RMK SLP023 T02230192 54000 IEM_DS3505
ZBAA,1998-06-25 22:00,ZBAA 252200Z AUTO 09002KT 3SM 21/21 A2962 RMK SLP032 T02100210 IEM_DS3505
ZBAA,1998-06-25 23:00,ZBAA 252300Z AUTO 12002KT 3SM 22/21 A2962 RMK SLP032 T02200210 IEM_DS3505
ZBAA,1998-06-26 00:00,ZBAA 260000Z AUTO 25004KT 6SM 24/20 A2967 RMK SLP025 T02360199 52002 IEM_DS3505
ZBAA,1998-06-26 02:00,ZBAA 260200Z AUTO 35002KT 4SM 26/22 A2959 RMK SLP021 T02600220 IEM_DS3505
ZBAA,1998-06-26 03:00,ZBAA 260300Z AUTO 25002KT 5SM 28/21 A2959 RMK SLP015 T02810208 57010 IEM_DS3505
ZBAA,1998-06-26 04:00,ZBAA 260400Z AUTO ////02KT 3SM 28/23 A2956 RMK SLP011 T02800230 IEM_DS3505
ZBAA,1998-06-26 05:00,ZBAA 260500Z AUTO 20004KT 2 1/2SM 29/23 A2953 RMK SLP000 T02900230 IEM_DS3505
ZBAA,1998-06-26 06:00,ZBAA 260600Z AUTO 20010KT 6SM 33/22 A2953 RMK SLP996 T03270215 57019 IEM_DS3505
ZBAA,1998-06-26 08:00,ZBAA 260800Z AUTO 20006KT 4SM 33/23 A2947 RMK SLP979 T03300230 IEM_DS3505
ZBAA,1998-06-26 09:00,ZBAA 260900Z AUTO 18008KT 6SM 34/21 A2947 RMK SLP977 T03370210 57019 IEM_DS3505
ZBAA,1998-06-26 10:00,ZBAA 261000Z AUTO 17004KT 4SM 32/23 A2947 RMK SLP979 T03200230 IEM_DS3505
ZBAA,1998-06-26 11:00,ZBAA 261100Z AUTO 11004KT 4SM 32/24 A2947 RMK SLP979 T03200240 IEM_DS3505
ZBAA,1998-06-26 12:00,ZBAA 261200Z AUTO 00000KT 6SM 31/22 A2947 RMK SLP978 T03110223 52001 IEM_DS3505
ZBAA,1998-06-26 13:00,ZBAA 261300Z AUTO 04002KT 3SM 29/24 A2953 RMK SLP000 T02900240 IEM_DS3505
ZBAA,1998-06-26 14:00,ZBAA 261400Z AUTO 04004KT 2 1/2SM 29/24 A2956 RMK SLP011 T02900240 IEM_DS3505
ZBAA,1998-06-26 15:00,ZBAA 261500Z AUTO 36008KT 9SM 28/16 A2962 RMK SLP018 T02850164 52040 IEM_DS3505
ZBAA,1998-06-26 16:00,ZBAA 261600Z AUTO 02006KT 7SM 24/20 A2962 RMK SLP032 T02400200 IEM_DS3505
ZBAA,1998-06-26 17:00,ZBAA 261700Z AUTO 03002KT 6SM 24/20 A2956 RMK SLP012 T02400200 IEM_DS3505
ZBAA,1998-06-26 18:00,ZBAA 261800Z AUTO 00000KT 6SM 24/18 A2956 RMK SLP010 T02390183 57008 IEM_DS3505
ZBAA,1998-06-26 19:00,ZBAA 261900Z AUTO 31008KT 7SM 23/20 A2956 RMK SLP012 T02300200 IEM_DS3505
ZBAA,1998-06-26 20:00,ZBAA 262000Z AUTO 33006KT 7SM 22/21 A2959 RMK SLP022 T02200210 IEM_DS3505
ZBAA,1998-06-26 21:00,ZBAA 262100Z AUTO 34002KT 6SM 24/19 A2962 RMK SLP016 T02390193 52006 IEM_DS3505
ZBAA,1998-06-26 22:00,ZBAA 262200Z AUTO 02002KT 4SM 22/21 A2962 RMK SLP032 T02200210 IEM_DS3505
ZBAA,1998-06-26 23:00,ZBAA 262300Z AUTO 01004KT 5SM 24/21 A2962 RMK SLP032 T02400210 IEM_DS3505
ZBAA,1998-06-27 00:00,ZBAA 270000Z AUTO 02004KT 5SM 26/20 A2965 RMK SLP031 T02640197 52015 IEM_DS3505
ZBAA,1998-06-27 01:00,ZBAA 270100Z AUTO 03004KT 6SM 28/22 A2965 RMK SLP041 T02800220 IEM_DS3505
ZBAA,1998-06-27 02:00,ZBAA 270200Z AUTO 02004KT 6SM 30/21 A2965 RMK SLP041 T03000210 IEM_DS3505
ZBAA,1998-06-27 03:00,ZBAA 270300Z AUTO 02004KT 7SM 31/20 A2965 RMK SLP031 T03090205 54000 IEM_DS3505
ZBAA,1998-06-27 04:00,ZBAA 270400Z AUTO ////04KT 6SM 33/21 A2965 RMK SLP040 T03300210 IEM_DS3505
ZBAA,1998-06-27 05:00,ZBAA 270500Z AUTO 09004KT 6SM 34/21 A2962 RMK SLP030 T03400210 IEM_DS3505
ZBAA,1998-06-27 06:00,ZBAA 270600Z AUTO 20004KT 7SM 34/21 A2962 RMK SLP028 T03450212 57003 IEM_DS3505
ZBAA,1998-06-27 07:00,ZBAA 270700Z AUTO 10004KT 7SM 36/21 A2962 RMK SLP029 T03600210 IEM_DS3505
ZBAA,1998-06-27 08:00,ZBAA 270800Z AUTO 19008KT 6SM 35/19 A2962 RMK SLP029 T03500190 IEM_DS3505
ZBAA,1998-06-27 09:00,ZBAA 270900Z AUTO 18008KT 6SM 37/16 A2959 RMK SLP017 T03680155 57011 IEM_DS3505
ZBAA,1998-06-27 10:00,ZBAA 271000Z AUTO 18002KT 5SM 35/20 A2959 RMK SLP019 T03500200 IEM_DS3505
ZBAA,1998-06-27 11:00,ZBAA 271100Z AUTO 00000KT 7SM 33/22 A2959 RMK SLP020 T03300220 IEM_DS3505
ZBAA,1998-06-27 12:00,ZBAA 271200Z AUTO 00000KT 6SM 32/20 A2962 RMK SLP022 T03180205 52005 IEM_DS3505
ZBAA,1998-06-27 13:00,ZBAA 271300Z AUTO 12004KT 5SM 30/23 A2962 RMK SLP030 T03000230 IEM_DS3505
ZBAA,1998-06-27 14:00,ZBAA 271400Z AUTO 12004KT 4SM 29/23 A2965 RMK SLP041 T02900230 IEM_DS3505
ZBAA,1998-06-27 15:00,ZBAA 271500Z AUTO 11006KT 7SM 29/22 A2968 RMK SLP038 T02880222 52016 IEM_DS3505
ZBAA,1998-06-27 16:00,ZBAA 271600Z AUTO 11002KT 4SM 27/23 A2968 RMK SLP051 T02700230 IEM_DS3505
ZBAA,1998-06-27 17:00,ZBAA 271700Z AUTO 00000KT 2 1/2SM 26/23 A2968 RMK SLP051 T02600230 IEM_DS3505
ZBAA,1998-06-27 18:00,ZBAA 271800Z AUTO 00000KT 7SM 26/22 A2968 RMK SLP040 T02590222 52002 IEM_DS3505
ZBAA,1998-06-27 19:00,ZBAA 271900Z AUTO 09002KT 2SM 26/23 A2971 RMK SLP061 T02600230 IEM_DS3505
ZBAA,1998-06-27 20:00,ZBAA 272000Z AUTO ////02KT 2SM 26/23 A2971 RMK SLP061 T02600230 IEM_DS3505
ZBAA,1998-06-27 21:00,ZBAA 272100Z AUTO 00000KT 3SM 25/22 A2971 RMK SLP056 T02510225 52016 IEM_DS3505
ZBAA,1998-06-27 22:00,ZBAA 272200Z AUTO 12002KT 2SM 25/23 A2971 RMK SLP062 T02500230 IEM_DS3505
ZBAA,1998-06-27 23:00,ZBAA 272300Z AUTO 16004KT 2SM 26/23 A2971 RMK SLP061 T02600230 IEM_DS3505
ZBAA,1998-06-28 00:00,ZBAA 280000Z AUTO 34004KT 5SM 27/22 A2977 RMK SLP069 T02710224 52013 IEM_DS3505
ZBAA,1998-06-28 01:00,ZBAA 280100Z AUTO 09006KT 2SM 28/23 A2974 RMK SLP071 T02800230 IEM_DS3505
ZBAA,1998-06-28 03:00,ZBAA 280300Z AUTO 18004KT 4SM 31/23 A2971 RMK SLP060 T03120227 57009 IEM_DS3505
ZBAA,1998-06-28 04:00,ZBAA 280400Z AUTO 19006KT 2 1/2SM 32/24 A2971 RMK SLP060 T03200240 IEM_DS3505
ZBAA,1998-06-28 05:00,ZBAA 280500Z AUTO 19006KT 2 1/2SM 34/25 A2968 RMK SLP050 T03400250 IEM_DS3505
ZBAA,1998-06-28 06:00,ZBAA 280600Z AUTO 20014KT 6SM 36/20 A2965 RMK SLP045 T03610204 57015 IEM_DS3505
ZBAA,1998-06-28 07:00,ZBAA 280700Z AUTO 19010KT 7SM 36/21 A2965 RMK SLP039 T03600210 IEM_DS3505
ZBAA,1998-06-28 08:00,ZBAA 280800Z AUTO 19012KT 7SM 37/20 A2962 RMK SLP029 T03700200 IEM_DS3505
ZBAA,1998-06-28 09:00,ZBAA 280900Z AUTO 20010KT 6SM 36/18 A2962 RMK SLP029 T03640185 57016 IEM_DS3505
ZBAA,1998-06-28 10:00,ZBAA 281000Z AUTO 18008KT 7SM 35/21 A2962 RMK SLP029 T03500210 IEM_DS3505
ZBAA,1998-06-28 11:00,ZBAA 281100Z AUTO 16004KT 6SM 34/20 A2962 RMK SLP030 T03400200 IEM_DS3505
ZBAA,1998-06-28 12:00,ZBAA 281200Z AUTO 16004KT 6SM 34/20 A2962 RMK SLP028 T03370197 57001 IEM_DS3505
ZBAA,1998-06-28 13:00,ZBAA 281300Z AUTO 12006KT 7SM 31/24 A2968 RMK SLP050 T03100240 IEM_DS3505
ZBAA,1998-06-28 14:00,ZBAA 281400Z AUTO 13006KT 7SM 30/23 A2968 RMK SLP051 T03000230 IEM_DS3505
ZBAA,1998-06-28 15:00,ZBAA 281500Z AUTO 07006KT 6SM 28/22 A2971 RMK SLP044 T02830223 52017 IEM_DS3505
ZBAA,1998-06-28 16:00,ZBAA 281600Z AUTO 09004KT 7SM 28/23 A2971 RMK SLP061 T02800230 IEM_DS3505
ZBAA,1998-06-28 18:00,ZBAA 281800Z AUTO 09006KT 6SM 26/22 A2971 RMK SLP049 T02590224 52004 IEM_DS3505
ZBAA,1998-06-28 19:00,ZBAA 281900Z AUTO 02002KT 7SM 26/21 A2971 RMK SLP061 T02600210 IEM_DS3505
ZBAA,1998-06-28 20:00,ZBAA 282000Z AUTO 11002KT 7SM 25/22 A2968 RMK SLP052 T02500220 IEM_DS3505
ZBAA,1998-06-28 21:00,ZBAA 282100Z AUTO 09004KT 5SM 24/22 A2968 RMK SLP047 T02410217 57002 IEM_DS3505
ZBAA,1998-06-28 22:00,ZBAA 282200Z AUTO 00000KT 2 1/2SM 24/22 A2968 RMK SLP052 T02400220 IEM_DS3505
ZBAA,1998-06-28 23:00,ZBAA 282300Z AUTO 08002KT 3SM 25/22 A2968 RMK SLP052 T02500220 IEM_DS3505
ZBAA,1998-06-29 00:00,ZBAA 290000Z AUTO 04006KT 4SM 26/22 A2968 RMK SLP047 T02650224 54000 IEM_DS3505
ZBAA,1998-06-29 01:00,ZBAA 290100Z AUTO 08004KT 3SM 28/24 A2968 RMK SLP051 T02800240 IEM_DS3505
ZBAA,1998-06-29 02:00,ZBAA 290200Z AUTO 05004KT 3SM 29/24 A2971 RMK SLP061 T02900240 IEM_DS3505
ZBAA,1998-06-29 03:00,ZBAA 290300Z AUTO 02008KT 6SM 31/22 A2968 RMK SLP048 T03100223 52001 IEM_DS3505
ZBAA,1998-06-29 05:00,ZBAA 290500Z AUTO 03012G23KT 7SM 30/21 A2968 RMK SLP051 T03000210 IEM_DS3505
ZBAA,1998-06-29 06:00,ZBAA 290600Z AUTO 04010G21KT 7SM 31/19 A2965 RMK SLP038 T03130194 57010 IEM_DS3505
ZBAA,1998-06-29 07:00,ZBAA 290700Z AUTO 01014KT 7SM 30/20 A2965 RMK SLP041 T03000200 IEM_DS3505
ZBAA,1998-06-29 08:00,ZBAA 290800Z AUTO 01012KT 7SM 29/20 A2962 RMK SLP031 T02900200 IEM_DS3505
ZBAA,1998-06-29 09:00,ZBAA 290900Z AUTO 34008KT 6SM 30/19 A2962 RMK SLP026 T02950190 57012 IEM_DS3505
ZBAA,1998-06-29 10:00,ZBAA 291000Z AUTO 02008KT 7SM 29/20 A2962 RMK SLP031 T02900200 IEM_DS3505
ZBAA,1998-06-29 11:00,ZBAA 291100Z AUTO 07002KT 5SM 29/23 A2962 RMK SLP031 T02900230 IEM_DS3505
ZBAA,1998-06-29 12:00,ZBAA 291200Z AUTO 04006KT 6SM 28/21 A2965 RMK SLP033 T02790209 52007 IEM_DS3505
ZBAA,1998-06-29 13:00,ZBAA 291300Z AUTO 00000KT 2 1/2SM 25/24 A2968 RMK SLP052 T02500240 IEM_DS3505
ZBAA,1998-06-29 14:00,ZBAA 291400Z AUTO 32008KT 2SM 23/22 A2974 RMK SLP072 T02300220 IEM_DS3505
ZBAA,1998-06-29 15:00,ZBAA 291500Z AUTO 04010G21KT 9SM 26/22 A2971 RMK SLP049 T02570220 52016 IEM_DS3505
ZBAA,1998-06-29 16:00,ZBAA 291600Z AUTO 01006KT 1SM 23/23 A2968 RMK SLP052 T02300230 IEM_DS3505
ZBAA,1998-06-29 17:00,ZBAA 291700Z AUTO ////02KT 1 1/4SM 23/23 A2971 RMK SLP062 T02300230 IEM_DS3505
ZBAA,1998-06-29 18:00,ZBAA 291800Z AUTO 04006KT 4SM 24/23 A2968 RMK 60323 SLP052 T02350228 52003 IEM_DS3505
ZBAA,1998-06-29 19:00,ZBAA 291900Z AUTO 32004KT 1 1/2SM 23/23 A2971 RMK SLP062 T02300230 IEM_DS3505
ZBAA,1998-06-29 20:00,ZBAA 292000Z AUTO 04002KT 1 1/2SM RMK IEM_DS3505
ZBAA,1998-06-29 21:00,ZBAA 292100Z AUTO 04006KT 7SM 23/22 A2968 RMK 70339 SLP044 T02320225 57008 IEM_DS3505
ZBAA,1998-06-29 22:00,ZBAA 292200Z AUTO 00000KT 3SM 23/22 A2968 RMK SLP052 T02300220 IEM_DS3505
ZBAA,1998-06-29 23:00,ZBAA 292300Z AUTO ////02KT 2 1/2SM 23/23 A2971 RMK SLP062 T02300230 IEM_DS3505
ZBAA,1998-06-30 00:00,ZBAA 300000Z AUTO 04004KT 3SM 23/22 A2977 RMK 60020 70339 SLP057 T02330218 52013 IEM_DS3505
ZBAA,1998-06-30 03:00,ZBAA 300300Z AUTO 16006KT 2SM 22/22 A2971 RMK SLP062 T02240216 52004 IEM_DS3505
ZBAA,1998-06-30 04:00,ZBAA 300400Z AUTO 20006KT 1SM 23/23 A2971 RMK SLP062 T02300230 IEM_DS3505
ZBAA,1998-06-30 05:00,ZBAA 300500Z AUTO 19006G17KT 1SM 22/22 A2971 RMK SLP062 T02200220 IEM_DS3505
ZBAA,1998-06-30 06:00,ZBAA 300600Z AUTO 11006KT 3SM 23/21 A2974 RMK 60067 SLP049 T02260214 57013 IEM_DS3505
ZBAA,1998-06-30 07:00,ZBAA 300700Z AUTO 17002KT 1 1/4SM 23/23 A2968 RMK SLP052 T02300230 IEM_DS3505
ZBAA,1998-06-30 08:00,ZBAA 300800Z AUTO 20004KT 1 1/2SM 23/23 A2968 RMK SLP052 T02300230 IEM_DS3505
ZBAA,1998-06-30 09:00,ZBAA 300900Z AUTO 11002KT 7SM 24/22 A2968 RMK SLP045 T02390220 57004 IEM_DS3505
ZBAA,1998-06-30 10:00,ZBAA 301000Z AUTO 05002KT 2SM 23/23 A2968 RMK SLP052 T02300230 IEM_DS3505
ZBAA,1998-06-30 11:00,ZBAA 301100Z AUTO 01004KT 3SM 23/23 A2968 RMK SLP052 T02300230 IEM_DS3505
ZBAA,1998-06-30 12:00,ZBAA 301200Z AUTO 07004KT 9SM 24/22 A2968 RMK SLP048 T02360218 52003 IEM_DS3505
ZBAA,1998-06-30 13:00,ZBAA 301300Z AUTO 05004KT 7SM 22/20 A2971 RMK SLP062 T02200200 IEM_DS3505
ZBAA,1998-06-30 14:00,ZBAA 301400Z AUTO 02004KT 7SM 21/20 A2971 RMK SLP062 T02100200 IEM_DS3505
ZBAA,1998-06-30 15:00,ZBAA 301500Z AUTO 04006KT 7SM 21/20 A2971 RMK SLP053 T02120196 52005 IEM_DS3505
ZBAA,1998-06-30 16:00,ZBAA 301600Z AUTO 34004KT 4SM 21/21 A2971 RMK SLP062 T02100210 IEM_DS3505
ZBAA,1998-06-30 17:00,ZBAA 301700Z AUTO 30006KT 7SM 21/21 A2971 RMK SLP062 T02100210 IEM_DS3505
ZBAA,1998-06-30 18:00,ZBAA 301800Z AUTO 02004KT 7SM 21/20 A2968 RMK 60047 SLP054 T02090198 52001 IEM_DS3505
ZBAA,1998-06-30 19:00,ZBAA 301900Z AUTO 34004KT 7SM 21/21 A2968 RMK SLP052 T02100210 IEM_DS3505
ZBAA,1998-06-30 20:00,ZBAA 302000Z AUTO 36004KT 7SM 21/20 A2968 RMK SLP052 T02100200 IEM_DS3505
ZBAA,1998-06-30 21:00,ZBAA 302100Z AUTO 02002KT 7SM 20/20 A2971 RMK 70118 SLP056 T02050199 52002 IEM_DS3505
ZBAA,1998-06-30 22:00,ZBAA 302200Z AUTO 11002KT 7SM 21/20 A2971 RMK SLP062 T02100200 IEM_DS3505
ZBAA,1998-06-30 23:00,ZBAA 302300Z AUTO 31002KT 7SM 21/21 A2971 RMK SLP062 T02100210 IEM_DS3505
ZBAA,1998-07-01 00:00,ZBAA 010000Z AUTO 00000KT 6SM 21/20 A2971 RMK 60012 70122 SLP062 T02120201 52006 IEM_DS3505
ZBAA,1998-07-01 01:00,ZBAA 010100Z AUTO 00000KT 4SM 22/21 A2974 RMK SLP072 T02200210 IEM_DS3505
ZBAA,1998-07-01 02:00,ZBAA 010200Z AUTO ////02KT 4SM 24/22 A2974 RMK SLP072 T02400220 IEM_DS3505
ZBAA,1998-07-01 03:00,ZBAA 010300Z AUTO 14004KT 6SM 24/21 A2974 RMK SLP069 T02350208 52007 IEM_DS3505
ZBAA,1998-07-01 04:00,ZBAA 010400Z AUTO 21004KT 6SM 25/22 A2974 RMK SLP072 T02500220 IEM_DS3505
ZBAA,1998-07-01 05:00,ZBAA 010500Z AUTO 19004KT 7SM 25/21 A2971 RMK SLP062 T02500210 IEM_DS3505
ZBAA,1998-07-01 06:00,ZBAA 010600Z AUTO 20004KT 8SM 26/21 A2976 RMK SLP057 T02580212 57012 IEM_DS3505
ZBAA,1998-07-01 07:00,ZBAA 010700Z AUTO 17006KT 4SM 27/22 A2968 RMK SLP051 T02700220 IEM_DS3505
ZBAA,1998-07-01 08:00,ZBAA 010800Z AUTO 19006KT 4SM 27/22 A2968 RMK SLP051 T02700220 IEM_DS3505
ZBAA,1998-07-01 09:00,ZBAA 010900Z AUTO 22006KT 12SM 27/21 A2965 RMK SLP043 T02700209 57013 IEM_DS3505
ZBAA,1998-07-01 10:00,ZBAA 011000Z AUTO 18006KT 6SM 27/22 A2965 RMK SLP041 T02700220 IEM_DS3505
ZBAA,1998-07-01 12:00,ZBAA 011200Z AUTO 18004KT 12SM 25/22 A2968 RMK SLP042 T02510218 57002 IEM_DS3505
ZBAA,1998-07-01 13:00,ZBAA 011300Z AUTO 11002KT 7SM 24/22 A2971 RMK SLP062 T02400220 IEM_DS3505
ZBAA,1998-07-01 14:00,ZBAA 011400Z AUTO 07004KT 7SM 24/22 A2977 RMK SLP083 T02400220 IEM_DS3505
ZBAA,1998-07-01 15:00,ZBAA 011500Z AUTO 20004KT 6SM 24/22 A2971 RMK SLP066 T02380220 52024 IEM_DS3505
ZBAA,1998-07-01 16:00,ZBAA 011600Z AUTO 36006KT 4SM 23/23 A2974 RMK SLP072 T02300230 IEM_DS3505
ZBAA,1998-07-01 17:00,ZBAA 011700Z AUTO 35004KT 4SM 23/22 A2974 RMK SLP072 T02300220 IEM_DS3505
ZBAA,1998-07-01 18:00,ZBAA 011800Z AUTO 20004KT 5SM 23/21 A2962 RMK SLP044 T02330210 57022 IEM_DS3505
ZBAA,1998-07-01 19:00,ZBAA 011900Z AUTO 31006KT 2 1/2SM 23/22 A2962 RMK SLP032 T02300220 IEM_DS3505
ZBAA,1998-07-01 20:00,ZBAA 012000Z AUTO 00000KT 2SM 22/22 A2962 RMK SLP032 T02200220 IEM_DS3505
ZBAA,1998-07-01 21:00,ZBAA 012100Z AUTO 00000KT 4SM 21/20 A2962 RMK 70004 SLP026 T02120201 57017 IEM_DS3505
ZBAA,1998-07-01 22:00,ZBAA 012200Z AUTO 03004KT 6SM 21/18 A2962 RMK SLP032 T02100180 IEM_DS3505
ZBAA,1998-07-01 23:00,ZBAA 012300Z AUTO 00000KT 6SM 24/19 A2965 RMK SLP042 T02400190 IEM_DS3505
ZBAA,1998-07-02 00:00,ZBAA 020000Z AUTO 09004KT 4SM 25/21 A2971 RMK SLP037 T02480209 52011 IEM_DS3505
ZBAA,1998-07-02 01:00,ZBAA 020100Z AUTO ////02KT 7SM 27/20 A2965 RMK SLP041 T02700200 IEM_DS3505
ZBAA,1998-07-02 02:00,ZBAA 020200Z AUTO ////02KT 7SM 28/20 A2968 RMK SLP051 T02800200 IEM_DS3505
ZBAA,1998-07-02 03:00,ZBAA 020300Z AUTO 11002KT 5SM 28/20 A2965 RMK SLP042 T02850202 52005 IEM_DS3505
ZBAA,1998-07-02 04:00,ZBAA 020400Z AUTO 02004KT 7SM 30/19 A2965 RMK SLP041 T03000190 IEM_DS3505
ZBAA,1998-07-02 05:00,ZBAA 020500Z AUTO ////02KT 7SM 31/20 A2965 RMK SLP040 T03100200 IEM_DS3505
ZBAA,1998-07-02 06:00,ZBAA 020600Z AUTO 20004KT 6SM 31/21 A2965 RMK SLP042 T03070214 54000 IEM_DS3505
ZBAA,1998-07-02 07:00,ZBAA 020700Z AUTO 13004KT 7SM 32/20 A2965 RMK SLP040 T03200200 IEM_DS3505
ZBAA,1998-07-02 08:00,ZBAA 020800Z AUTO 11004KT 6SM 32/20 A2965 RMK SLP040 T03200200 IEM_DS3505
ZBAA,1998-07-02 09:00,ZBAA 020900Z AUTO 11002KT 9SM 31/21 A2965 RMK SLP037 T03110214 57005 IEM_DS3505
ZBAA,1998-07-02 10:00,ZBAA 021000Z AUTO 18004KT 6SM 32/19 A2965 RMK SLP040 T03200190 IEM_DS3505
ZBAA,1998-07-02 11:00,ZBAA 021100Z AUTO 18004KT 6SM 30/22 A2965 RMK SLP041 T03000220 IEM_DS3505
ZBAA,1998-07-02 12:00,ZBAA 021200Z AUTO 22004KT 6SM 29/23 A2968 RMK SLP045 T02860230 52008 IEM_DS3505
ZBAA,1998-07-02 13:00,ZBAA 021300Z AUTO 19004KT 6SM 27/23 A2971 RMK SLP061 T02700230 IEM_DS3505
ZBAA,1998-07-02 14:00,ZBAA 021400Z AUTO 16002KT 6SM 26/23 A2971 RMK SLP061 T02600230 IEM_DS3505
ZBAA,1998-07-02 16:00,ZBAA 021600Z AUTO 00000KT 3SM 25/24 A2974 RMK SLP072 T02500240 IEM_DS3505
ZBAA,1998-07-02 17:00,ZBAA 021700Z AUTO 00000KT 3SM 24/23 A2974 RMK SLP072 T02400230 IEM_DS3505
ZBAA,1998-07-02 18:00,ZBAA 021800Z AUTO 00000KT 6SM 25/23 A2974 RMK SLP062 T02470229 52004 IEM_DS3505
ZBAA,1998-07-02 19:00,ZBAA 021900Z AUTO 12002KT 2 1/2SM 24/23 A2974 RMK SLP072 T02400230 IEM_DS3505
ZBAA,1998-07-02 20:00,ZBAA 022000Z AUTO 00000KT 2 1/2SM 24/23 A2974 RMK SLP072 T02400230 IEM_DS3505
ZBAA,1998-07-02 21:00,ZBAA 022100Z AUTO 01002KT 4SM 23/22 A2974 RMK SLP072 T02300220 IEM_DS3505
ZBAA,1998-07-02 22:00,ZBAA 022200Z AUTO 03002KT 5SM 24/22 A2977 RMK SLP083 T02400220 IEM_DS3505
ZBAA,1998-07-02 23:00,ZBAA 022300Z AUTO 07002KT 5SM 25/23 A2977 RMK SLP083 T02500230 IEM_DS3505
ZBAA,1998-07-03 00:00,ZBAA 030000Z AUTO 11006KT 4SM 27/23 A2977 RMK SLP074 T02690231 52010 IEM_DS3505
ZBAA,1998-07-03 01:00,ZBAA 030100Z AUTO 00000KT 4SM 28/24 A2977 RMK SLP082 T02800240 IEM_DS3505
ZBAA,1998-07-03 02:00,ZBAA 030200Z AUTO 21004KT 4SM 29/24 A2977 RMK SLP082 T02900240 IEM_DS3505
ZBAA,1998-07-03 03:00,ZBAA 030300Z AUTO 20006KT 6SM 31/23 A2977 RMK SLP076 T03070229 52002 IEM_DS3505
ZBAA,1998-07-03 04:00,ZBAA 030400Z AUTO 18004KT 4SM 32/24 A2977 RMK SLP081 T03200240 IEM_DS3505
ZBAA,1998-07-03 05:00,ZBAA 030500Z AUTO 18008KT 4SM 32/24 A2974 RMK SLP070 T03200240 IEM_DS3505
ZBAA,1998-07-03 06:00,ZBAA 030600Z AUTO 22008KT 6SM 33/22 A2974 RMK SLP067 T03260225 57009 IEM_DS3505
ZBAA,1998-07-03 08:00,ZBAA 030800Z AUTO 17010KT 6SM 33/24 A2971 RMK SLP060 T03300240 IEM_DS3505
ZBAA,1998-07-03 09:00,ZBAA 030900Z AUTO 18006KT 10SM 33/22 A2971 RMK SLP053 T03280217 57014 IEM_DS3505
ZBAA,1998-07-03 11:00,ZBAA 031100Z AUTO 15004KT 6SM 31/22 A2971 RMK SLP060 T03100220 IEM_DS3505
ZBAA,1998-07-03 12:00,ZBAA 031200Z AUTO 14006KT 6SM 30/23 A2971 RMK SLP053 T02950227 54000 IEM_DS3505
ZBAA,1998-07-03 13:00,ZBAA 031300Z AUTO 13006KT 6SM 29/23 A2974 RMK SLP071 T02900230 IEM_DS3505
ZBAA,1998-07-03 14:00,ZBAA 031400Z AUTO 12006KT 7SM 28/23 A2974 RMK SLP071 T02800230 IEM_DS3505
ZBAA,1998-07-03 15:00,ZBAA 031500Z AUTO 09004KT 9SM 28/22 A2974 RMK SLP069 T02750217 52016 IEM_DS3505
ZBAA,1998-07-03 16:00,ZBAA 031600Z AUTO 09006KT 4SM 22/22 A2980 RMK SLP093 T02200220 IEM_DS3505
ZBAA,1998-07-03 17:00,ZBAA 031700Z AUTO 31010KT 7SM 23/22 A2980 RMK SLP093 T02300220 IEM_DS3505
ZBAA,1998-07-03 18:00,ZBAA 031800Z AUTO 14002KT 7SM 22/21 A2983 RMK 60047 SLP085 T02250210 40330//// 52016 IEM_DS3505
ZBAA,1998-07-03 19:00,ZBAA 031900Z AUTO 00000KT 7SM 22/22 A2983 RMK SLP104 T02200220 IEM_DS3505
ZBAA,1998-07-03 20:00,ZBAA 032000Z AUTO 11002KT 7SM 22/22 A2983 RMK SLP104 T02200220 IEM_DS3505
ZBAA,1998-07-03 21:00,ZBAA 032100Z AUTO 00000KT 5SM 22/21 A2983 RMK 70047 SLP092 T02240213 52007 IEM_DS3505
ZBAA,1998-07-03 22:00,ZBAA 032200Z AUTO 14002KT 7SM 22/21 A2983 RMK SLP104 T02200210 IEM_DS3505
ZBAA,1998-07-03 23:00,ZBAA 032300Z AUTO 18004KT 5SM 22/21 A2985 RMK SLP111 T02200210 IEM_DS3505
ZBAA,1998-07-04 00:00,ZBAA 040000Z AUTO 00000KT 5SM 23/21 A2985 RMK 70047 SLP103 T02280211 52011 IEM_DS3505
ZBAA,1998-07-04 01:00,ZBAA 040100Z AUTO 09002KT 4SM 23/22 A2985 RMK SLP110 T02300220 IEM_DS3505
ZBAA,1998-07-04 02:00,ZBAA 040200Z AUTO 09002KT 3SM 23/22 A2985 RMK SLP110 T02300220 IEM_DS3505
ZBAA,1998-07-04 03:00,ZBAA 040300Z AUTO 07004KT 3SM 24/22 A2980 RMK SLP094 T02430215 57009 IEM_DS3505
ZBAA,1998-07-04 04:00,ZBAA 040400Z AUTO 09002KT 4SM 25/23 A2983 RMK SLP103 T02500230 IEM_DS3505
ZBAA,1998-07-04 05:00,ZBAA 040500Z AUTO 09002KT 4SM 25/23 A2983 RMK SLP103 T02500230 IEM_DS3505
ZBAA,1998-07-04 06:00,ZBAA 040600Z AUTO 00000KT 3SM 27/23 A2983 RMK SLP090 T02710233 57005 IEM_DS3505
ZBAA,1998-07-04 07:00,ZBAA 040700Z AUTO 36004KT 2 1/2SM 26/24 A2980 RMK SLP093 T02600240 IEM_DS3505
ZBAA,1998-07-04 08:00,ZBAA 040800Z AUTO 01004KT 4SM 27/24 A2977 RMK SLP082 T02700240 IEM_DS3505
ZBAA,1998-07-04 09:00,ZBAA 040900Z AUTO 36006KT 4SM 28/24 A2977 RMK SLP074 T02850245 57015 IEM_DS3505
ZBAA,1998-07-04 10:00,ZBAA 041000Z AUTO 35006KT 4SM 27/24 A2977 RMK SLP082 T02700240 IEM_DS3505
ZBAA,1998-07-04 11:00,ZBAA 041100Z AUTO 36006KT 2 1/2SM 26/24 A2980 RMK SLP093 T02600240 IEM_DS3505
ZBAA,1998-07-04 12:00,ZBAA 041200Z AUTO 02006KT 2 1/2SM 26/23 A2980 RMK SLP085 T02600232 52010 IEM_DS3505
ZBAA,1998-07-04 13:00,ZBAA 041300Z AUTO 36004KT 2SM 26/24 A2983 RMK SLP103 T02600240 IEM_DS3505
ZBAA,1998-07-04 14:00,ZBAA 041400Z AUTO 02004KT 2SM 26/24 A2983 RMK SLP103 T02600240 IEM_DS3505
ZBAA,1998-07-04 15:00,ZBAA 041500Z AUTO 36004KT 2 1/2SM 25/23 A2983 RMK SLP093 T02530233 52008 IEM_DS3505
ZBAA,1998-07-04 17:00,ZBAA 041700Z AUTO 05002KT 1 1/2SM 25/24 A2980 RMK SLP093 T02500240 IEM_DS3505
ZBAA,1998-07-04 18:00,ZBAA 041800Z AUTO 04004KT 4SM 26/23 A2980 RMK SLP081 T02550230 57011 IEM_DS3505
ZBAA,1998-07-04 19:00,ZBAA 041900Z AUTO 07002KT 1 1/4SM 25/24 A2980 RMK SLP093 T02500240 IEM_DS3505
ZBAA,1998-07-04 20:00,ZBAA 042000Z AUTO 07002KT 1 1/4SM 25/24 A2977 RMK SLP083 T02500240 IEM_DS3505
ZBAA,1998-07-04 21:00,ZBAA 042100Z AUTO 09002KT 2 1/2SM 25/23 A2980 RMK SLP079 T02470229 57002 IEM_DS3505
ZBAA,1998-07-04 22:00,ZBAA 042200Z AUTO 11002KT 1SM 25/24 A2980 RMK SLP093 T02500240 IEM_DS3505
ZBAA,1998-07-04 23:00,ZBAA 042300Z AUTO 10002KT 1 1/4SM 25/24 A2977 RMK SLP083 T02500240 IEM_DS3505
ZBAA,1998-07-05 00:00,ZBAA 050000Z AUTO 09006KT 2 1/2SM 26/23 A2977 RMK SLP079 T02550230 54000 IEM_DS3505
ZBAA,1998-07-05 01:00,ZBAA 050100Z AUTO 12006KT 2 1/2SM 26/24 A2977 RMK SLP083 T02600240 IEM_DS3505
ZBAA,1998-07-05 02:00,ZBAA 050200Z AUTO 12006KT 4SM 28/25 A2977 RMK SLP082 T02800250 IEM_DS3505
ZBAA,1998-07-05 03:00,ZBAA 050300Z AUTO 11004KT 4SM 28/25 A2977 RMK SLP075 T02840247 57004 IEM_DS3505
ZBAA,1998-07-05 04:00,ZBAA 050400Z AUTO 12006KT 2 1/2SM 28/25 A2974 RMK SLP071 T02800250 IEM_DS3505
ZBAA,1998-07-05 05:00,ZBAA 050500Z AUTO 11006KT 2 1/2SM 29/25 A2971 RMK SLP061 T02900250 IEM_DS3505
ZBAA,1998-07-05 06:00,ZBAA 050600Z AUTO 11006KT 6SM 30/24 A2971 RMK SLP053 T03020236 57022 IEM_DS3505
ZBAA,1998-07-05 07:00,ZBAA 050700Z AUTO 11010KT 7SM 25/24 A2968 RMK SLP052 T02500240 IEM_DS3505
ZBAA,1998-07-05 08:00,ZBAA 050800Z AUTO 10006KT 7SM 26/24 A2968 RMK SLP051 T02600240 IEM_DS3505
ZBAA,1998-07-05 09:00,ZBAA 050900Z AUTO 11006KT 4SM 27/24 A2963 RMK SLP036 T02670241 57017 IEM_DS3505
ZBAA,1998-07-05 10:00,ZBAA 051000Z AUTO 10006KT 2 1/2SM 25/25 A2965 RMK SLP042 T02500250 IEM_DS3505
ZBAA,1998-07-05 11:00,ZBAA 051100Z AUTO 12006KT 2 1/2SM 26/25 A2965 RMK SLP041 T02600250 IEM_DS3505
ZBAA,1998-07-05 12:00,ZBAA 051200Z AUTO 11010KT 6SM 26/24 A2962 RMK 60001 SLP029 T02650235 57007 IEM_DS3505
ZBAA,1998-07-05 13:00,ZBAA 051300Z AUTO 12010KT 1 1/2SM 25/24 A2962 RMK SLP031 T02500240 IEM_DS3505
ZBAA,1998-07-05 14:00,ZBAA 051400Z AUTO 13010G19KT 1 1/2SM 24/24 A2962 RMK SLP032 T02400240 IEM_DS3505
ZBAA,1998-07-05 15:00,ZBAA 051500Z AUTO 11008KT 2SM 24/23 A2959 RMK SLP020 T02390233 57009 IEM_DS3505
ZBAA,1998-07-05 16:00,ZBAA 051600Z AUTO 11012G21KT 1SM 23/23 A2956 RMK SLP012 T02300230 IEM_DS3505
ZBAA,1998-07-05 17:00,ZBAA 051700Z AUTO 12012KT 1 1/4SM 24/23 A2950 RMK SLP991 T02400230 IEM_DS3505
ZBAA,1998-07-05 18:00,ZBAA 051800Z AUTO 14012G23KT 6SM 25/24 A2947 RMK 60102 SLP981 T02480236 57039 IEM_DS3505
ZBAA,1998-07-05 19:00,ZBAA 051900Z AUTO 15012G23KT 2 1/2SM 25/24 A2944 RMK SLP970 T02500240 IEM_DS3505
ZBAA,1998-07-05 20:00,ZBAA 052000Z AUTO 16014KT 7SM 25/25 A2941 RMK SLP960 T02500250 IEM_DS3505
ZBAA,1998-07-05 21:00,ZBAA 052100Z AUTO 18016KT 6SM 26/24 A2941 RMK 70106 SLP959 T02580239 57022 IEM_DS3505
ZBAA,1998-07-05 22:00,ZBAA 052200Z AUTO 22004KT 7SM 21/21 A2944 RMK SLP971 T02100210 IEM_DS3505
ZBAA,1998-07-05 23:00,ZBAA 052300Z AUTO 20008KT 4SM 23/23 A2944 RMK SLP970 T02300230 IEM_DS3505
ZBAA,1998-07-06 00:00,ZBAA 060000Z AUTO 22004KT 7SM 25/23 A2944 RMK 60154 70260 SLP971 T02460230 52012 IEM_DS3505
ZBAA,1998-07-06 01:00,ZBAA 060100Z AUTO 19004KT 7SM 27/25 A2944 RMK SLP970 T02700250 IEM_DS3505
ZBAA,1998-07-06 02:00,ZBAA 060200Z AUTO 00000KT 7SM 28/26 A2944 RMK SLP969 T02800260 IEM_DS3505
ZBAA,1998-07-06 03:00,ZBAA 060300Z AUTO 20006KT 4SM 30/25 A2944 RMK SLP972 T03000252 52001 IEM_DS3505
ZBAA,1998-07-06 04:00,ZBAA 060400Z AUTO 21004KT 4SM 31/27 A2944 RMK SLP969 T03100270 IEM_DS3505
ZBAA,1998-07-06 05:00,ZBAA 060500Z AUTO 19006KT 4SM 31/26 A2944 RMK SLP969 T03100260 IEM_DS3505
ZBAA,1998-07-06 06:00,ZBAA 060600Z AUTO 20008KT 6SM 32/26 A2944 RMK SLP968 T03230255 57004 IEM_DS3505
ZBAA,1998-07-06 08:00,ZBAA 060800Z AUTO 17004KT 7SM 26/23 A2944 RMK SLP970 T02600230 IEM_DS3505
ZBAA,1998-07-06 09:00,ZBAA 060900Z AUTO 25008KT 3SM 28/26 A2944 RMK SLP971 T02820257 52003 IEM_DS3505
ZBAA,1998-07-06 10:00,ZBAA 061000Z AUTO 21008KT 7SM 30/25 A2944 RMK SLP969 T03000250 IEM_DS3505
ZBAA,1998-07-06 11:00,ZBAA 061100Z AUTO 22008KT 4SM 29/25 A2947 RMK SLP979 T02900250 IEM_DS3505
ZBAA,1998-07-06 12:00,ZBAA 061200Z AUTO 00000KT 6SM 27/24 A2947 RMK 60000 SLP981 T02700238 52010 IEM_DS3505
ZBAA,1998-07-06 13:00,ZBAA 061300Z AUTO 25004KT 7SM 29/22 A2950 RMK SLP990 T02900220 IEM_DS3505
ZBAA,1998-07-06 14:00,ZBAA 061400Z AUTO 27006KT 6SM 29/20 A2950 RMK SLP990 T02900200 IEM_DS3505
ZBAA,1998-07-06 15:00,ZBAA 061500Z AUTO 29006KT 6SM 28/21 A2953 RMK SLP990 T02850208 52009 IEM_DS3505
ZBAA,1998-07-06 16:00,ZBAA 061600Z AUTO 29006KT 6SM 28/19 A2953 RMK SLP001 T02800190 IEM_DS3505
ZBAA,1998-07-06 17:00,ZBAA 061700Z AUTO 31010KT 6SM 28/19 A2953 RMK SLP001 T02800190 IEM_DS3505
ZBAA,1998-07-06 18:00,ZBAA 061800Z AUTO 32006KT 7SM 28/16 A2953 RMK SLP992 T02840155 52003 IEM_DS3505
ZBAA,1998-07-06 19:00,ZBAA 061900Z AUTO 31008KT 6SM 28/18 A2953 RMK SLP001 T02800180 IEM_DS3505
ZBAA,1998-07-06 20:00,ZBAA 062000Z AUTO 32004KT 6SM 27/19 A2956 RMK SLP011 T02700190 IEM_DS3505
ZBAA,1998-07-06 21:00,ZBAA 062100Z AUTO 29008KT 9SM 27/16 A2956 RMK 70154 SLP999 T02720161 52006 IEM_DS3505
ZBAA,1998-07-06 23:00,ZBAA 062300Z AUTO 31008KT 6SM 27/18 A2953 RMK SLP001 T02700180 IEM_DS3505
ZBAA,1998-07-07 00:00,ZBAA 070000Z AUTO 14002KT 9SM 30/19 A2953 RMK 70001 SLP002 T02980192 52003 IEM_DS3505
ZBAA,1998-07-07 01:00,ZBAA 070100Z AUTO 31010KT 6SM 30/19 A2956 RMK SLP010 T03000190 IEM_DS3505
ZBAA,1998-07-07 02:00,ZBAA 070200Z AUTO 31012KT 6SM 31/17 A2956 RMK SLP010 T03100170 IEM_DS3505
ZBAA,1998-07-07 03:00,ZBAA 070300Z AUTO 32010KT 12SM 33/14 A2956 RMK SLP006 T03290141 52004 IEM_DS3505
ZBAA,1998-07-07 04:00,ZBAA 070400Z AUTO 29010KT 6SM 33/17 A2953 RMK SLP000 T03300170 IEM_DS3505
ZBAA,1998-07-07 05:00,ZBAA 070500Z AUTO 28012KT 6SM 34/17 A2953 RMK SLP000 T03400170 IEM_DS3505
ZBAA,1998-07-07 06:00,ZBAA 070600Z AUTO 29008KT 11SM 34/15 A2961 RMK SLP002 T03430147 57003 IEM_DS3505
ZBAA,1998-07-07 08:00,ZBAA 070800Z AUTO 30012KT 6SM 35/16 A2953 RMK SLP999 T03500160 IEM_DS3505
ZBAA,1998-07-07 09:00,ZBAA 070900Z AUTO 29010KT 16SM 35/16 A2953 RMK SLP001 T03470157 57001 IEM_DS3505
ZBAA,1998-07-07 10:00,ZBAA 071000Z AUTO 31008KT 6SM 34/15 A2953 RMK SLP000 T03400150 IEM_DS3505
ZBAA,1998-07-07 11:00,ZBAA 071100Z AUTO 28006KT 6SM 33/17 A2956 RMK SLP010 T03300170 IEM_DS3505
ZBAA,1998-07-07 12:00,ZBAA 071200Z AUTO 22006KT 12SM 30/23 A2956 RMK SLP010 T02980233 52008 IEM_DS3505
ZBAA,1998-07-07 13:00,ZBAA 071300Z AUTO ////04KT 6SM 30/19 A2959 RMK SLP020 T03000190 IEM_DS3505
ZBAA,1998-07-07 14:00,ZBAA 071400Z AUTO 00000KT 7SM 28/20 A2959 RMK SLP021 T02800200 IEM_DS3505
ZBAA,1998-07-07 15:00,ZBAA 071500Z AUTO 22004KT 10SM 27/23 A2959 RMK SLP021 T02700231 52011 IEM_DS3505
ZBAA,1998-07-07 16:00,ZBAA 071600Z AUTO 00000KT 7SM 26/21 A2962 RMK SLP031 T02600210 IEM_DS3505
ZBAA,1998-07-07 17:00,ZBAA 071700Z AUTO 30004KT 6SM 26/19 A2962 RMK SLP031 T02600190 IEM_DS3505
ZBAA,1998-07-07 18:00,ZBAA 071800Z AUTO 29006KT 12SM 25/23 A2962 RMK SLP026 T02510228 52005 IEM_DS3505
ZBAA,1998-07-07 19:00,ZBAA 071900Z AUTO 35002KT 6SM 24/21 A2962 RMK SLP032 T02400210 IEM_DS3505
ZBAA,1998-07-07 20:00,ZBAA 072000Z AUTO 34004KT 6SM 22/21 A2962 RMK SLP032 T02200210 IEM_DS3505
ZBAA,1998-07-07 21:00,ZBAA 072100Z AUTO 02004KT 4SM 24/19 A2962 RMK SLP027 T02390194 52001 IEM_DS3505
ZBAA,1998-07-07 22:00,ZBAA 072200Z AUTO 34004KT 6SM 23/20 A2965 RMK SLP042 T02300200 IEM_DS3505
ZBAA,1998-07-07 23:00,ZBAA 072300Z AUTO 35006KT 6SM 24/20 A2968 RMK SLP052 T02400200 IEM_DS3505
ZBAA,1998-07-08 00:00,ZBAA 080000Z AUTO 34004KT 6SM 26/18 A2968 RMK SLP040 T02630177 52013 IEM_DS3505
ZBAA,1998-07-08 01:00,ZBAA 080100Z AUTO 01006KT 6SM 27/19 A2968 RMK SLP051 T02700190 IEM_DS3505
ZBAA,1998-07-08 02:00,ZBAA 080200Z AUTO 35006KT 6SM 28/19 A2968 RMK SLP051 T02800190 IEM_DS3505
ZBAA,1998-07-08 03:00,ZBAA 080300Z AUTO 02006KT 7SM 30/17 A2968 RMK SLP046 T03010173 52006 IEM_DS3505
ZBAA,1998-07-08 04:00,ZBAA 080400Z AUTO 36004KT 6SM 30/20 A2968 RMK SLP051 T03000200 IEM_DS3505
ZBAA,1998-07-08 05:00,ZBAA 080500Z AUTO 05002KT 6SM 31/18 A2965 RMK SLP040 T03100180 IEM_DS3505
ZBAA,1998-07-08 06:00,ZBAA 080600Z AUTO 32002KT 9SM 31/19 A2965 RMK SLP038 T03100188 57008 IEM_DS3505
ZBAA,1998-07-08 07:00,ZBAA 080700Z AUTO ////02KT 6SM 32/17 A2965 RMK SLP040 T03200170 IEM_DS3505
ZBAA,1998-07-08 08:00,ZBAA 080800Z AUTO 00000KT 6SM 33/19 A2962 RMK SLP030 T03300190 IEM_DS3505
ZBAA,1998-07-08 09:00,ZBAA 080900Z AUTO 22006KT 7SM 30/22 A2962 RMK SLP030 T02950217 57008 IEM_DS3505
ZBAA,1998-07-08 10:00,ZBAA 081000Z AUTO 19006KT 6SM 31/19 A2962 RMK SLP030 T03100190 IEM_DS3505
ZBAA,1998-07-08 11:00,ZBAA 081100Z AUTO 19006KT 6SM RMK IEM_DS3505
ZBAA,1998-07-08 12:00,ZBAA 081200Z AUTO 20008KT 4SM 26/21 A2965 RMK SLP035 T02580213 52005 IEM_DS3505
ZBAA,1998-07-08 13:00,ZBAA 081300Z AUTO 18006KT 6SM 26/22 A2965 RMK SLP041 T02600220 IEM_DS3505
ZBAA,1998-07-08 14:00,ZBAA 081400Z AUTO 15004KT 3SM 24/23 A2968 RMK SLP052 T02400230 IEM_DS3505
ZBAA,1998-07-08 15:00,ZBAA 081500Z AUTO 20004KT 5SM 23/21 A2968 RMK SLP044 T02280210 52009 IEM_DS3505
ZBAA,1998-07-08 16:00,ZBAA 081600Z AUTO 14002KT 3SM 23/22 A2968 RMK SLP052 T02300220 IEM_DS3505
ZBAA,1998-07-08 17:00,ZBAA 081700Z AUTO 13002KT 3SM 23/22 A2965 RMK SLP042 T02300220 IEM_DS3505
ZBAA,1998-07-08 18:00,ZBAA 081800Z AUTO 20004KT 5SM 22/20 A2965 RMK SLP040 T02190205 57004 IEM_DS3505
ZBAA,1998-07-08 19:00,ZBAA 081900Z AUTO 00000KT 2SM 22/21 A2965 RMK SLP042 T02200210 IEM_DS3505
ZBAA,1998-07-08 20:00,ZBAA 082000Z AUTO 10002KT 2SM 22/21 A2965 RMK SLP042 T02200210 IEM_DS3505
ZBAA,1998-07-08 21:00,ZBAA 082100Z AUTO 22002KT 4SM 22/20 A2968 RMK SLP042 T02170205 52002 IEM_DS3505
ZBAA,1998-07-08 22:00,ZBAA 082200Z AUTO 00000KT 1SM 22/22 A2968 RMK SLP052 T02200220 IEM_DS3505
ZBAA,1998-07-08 23:00,ZBAA 082300Z AUTO 00000KT 1SM 22/22 A2968 RMK SLP052 T02200220 IEM_DS3505
ZBAA,1998-07-09 00:00,ZBAA 090000Z AUTO 09004KT 2SM 23/21 A2968 RMK SLP046 T02310214 52004 IEM_DS3505
ZBAA,1998-07-09 01:00,ZBAA 090100Z AUTO 00000KT 1SM 24/22 A2968 RMK SLP052 T02400220 IEM_DS3505
ZBAA,1998-07-09 02:00,ZBAA 090200Z AUTO ////02KT 1 1/4SM 24/22 A2968 RMK SLP052 T02400220 IEM_DS3505
ZBAA,1998-07-09 03:00,ZBAA 090300Z AUTO 11004KT 2SM 25/22 A2968 RMK SLP050 T02490218 52003 IEM_DS3505
ZBAA,1998-07-09 04:00,ZBAA 090400Z AUTO ////02KT 1 1/4SM 27/23 A2968 RMK SLP051 T02700230 IEM_DS3505
ZBAA,1998-07-09 05:00,ZBAA 090500Z AUTO 21002KT 1 1/2SM 27/23 A2968 RMK SLP051 T02700230 IEM_DS3505
ZBAA,1998-07-09 06:00,ZBAA 090600Z AUTO 14002KT 2SM 27/23 A2965 RMK SLP040 T02710230 57009 IEM_DS3505
ZBAA,1998-07-09 07:00,ZBAA 090700Z AUTO 09002KT 2SM 29/24 A2965 RMK SLP041 T02900240 IEM_DS3505
ZBAA,1998-07-09 08:00,ZBAA 090800Z AUTO 11002KT 4SM 29/23 A2962 RMK SLP031 T02900230 IEM_DS3505
ZBAA,1998-07-09 09:00,ZBAA 090900Z AUTO 20006KT 2 1/2SM 29/24 A2962 RMK SLP031 T02880236 57009 IEM_DS3505
ZBAA,1998-07-09 10:00,ZBAA 091000Z AUTO 15002KT 4SM 29/24 A2962 RMK SLP031 T02900240 IEM_DS3505
ZBAA,1998-07-09 11:00,ZBAA 091100Z AUTO 19006KT 1 1/2SM 27/24 A2965 RMK SLP041 T02700240 IEM_DS3505
ZBAA,1998-07-09 12:00,ZBAA 091200Z AUTO 20004KT 2 1/2SM 27/23 A2965 RMK SLP036 T02680229 52005 IEM_DS3505
ZBAA,1998-07-09 13:00,ZBAA 091300Z AUTO 18006KT 1 1/4SM 27/24 A2968 RMK SLP051 T02700240 IEM_DS3505
ZBAA,1998-07-09 14:00,ZBAA 091400Z AUTO 15002KT 1 1/4SM 26/24 A2968 RMK SLP051 T02600240 IEM_DS3505
ZBAA,1998-07-09 15:00,ZBAA 091500Z AUTO 20002KT 2SM 25/22 A2968 RMK SLP044 T02520223 52008 IEM_DS3505
ZBAA,1998-07-09 16:00,ZBAA 091600Z AUTO 14002KT 1 1/4SM 25/24 A2968 RMK SLP052 T02500240 IEM_DS3505
ZBAA,1998-07-09 18:00,ZBAA 091800Z AUTO 11002KT 4SM 24/22 A2965 RMK SLP038 T02360221 57006 IEM_DS3505
ZBAA,1998-07-09 19:00,ZBAA 091900Z AUTO 00000KT 1 1/4SM 24/23 A2965 RMK SLP042 T02400230 IEM_DS3505
ZBAA,1998-07-09 20:00,ZBAA 092000Z AUTO 00000KT 1 1/4SM 24/23 A2965 RMK SLP042 T02400230 IEM_DS3505
ZBAA,1998-07-09 21:00,ZBAA 092100Z AUTO 00000KT 2 1/2SM 23/22 A2968 RMK SLP043 T02290219 52005 IEM_DS3505
ZBAA,1998-07-09 22:00,ZBAA 092200Z AUTO 00000KT 1SM 23/23 A2968 RMK SLP052 T02300230 IEM_DS3505
ZBAA,1998-07-10 00:00,ZBAA 100000Z AUTO 00000KT 1 1/4SM 26/23 A2968 RMK SLP042 T02580226 57001 IEM_DS3505
ZBAA,1998-07-10 01:00,ZBAA 100100Z AUTO 09002KT 2 1/2SM 27/23 A2968 RMK SLP051 T02700230 IEM_DS3505
ZBAA,1998-07-10 03:00,ZBAA 100300Z AUTO 20006KT 3SM 30/23 A2968 RMK SLP043 T02950227 52001 IEM_DS3505
ZBAA,1998-07-10 04:00,ZBAA 100400Z AUTO ////02KT 3SM 31/22 A2965 RMK SLP040 T03100220 IEM_DS3505
ZBAA,1998-07-10 05:00,ZBAA 100500Z AUTO 17006KT 2 1/2SM 31/22 A2965 RMK SLP040 T03100220 IEM_DS3505
ZBAA,1998-07-10 06:00,ZBAA 100600Z AUTO 16008KT 4SM 30/22 A2965 RMK SLP038 T03020217 57005 IEM_DS3505
ZBAA,1998-07-10 07:00,ZBAA 100700Z AUTO 17006KT 2 1/2SM 32/23 A2962 RMK SLP030 T03200230 IEM_DS3505
ZBAA,1998-07-10 09:00,ZBAA 100900Z AUTO 20008KT 4SM 29/23 A2962 RMK SLP031 T02930231 57007 IEM_DS3505
ZBAA,1998-07-10 10:00,ZBAA 101000Z AUTO 18006KT 5SM 30/23 A2962 RMK SLP030 T03000230 IEM_DS3505
ZBAA,1998-07-10 11:00,ZBAA 101100Z AUTO 18004KT 3SM 28/24 A2962 RMK SLP031 T02800240 IEM_DS3505
ZBAA,1998-07-10 12:00,ZBAA 101200Z AUTO 20004KT 5SM 27/23 A2962 RMK SLP031 T02690227 54000 IEM_DS3505
ZBAA,1998-07-10 13:00,ZBAA 101300Z AUTO 15002KT 3SM 26/24 A2965 RMK SLP041 T02600240 IEM_DS3505
ZBAA,1998-07-10 14:00,ZBAA 101400Z AUTO 14002KT 2 1/2SM 26/24 A2965 RMK SLP041 T02600240 IEM_DS3505
ZBAA,1998-07-10 15:00,ZBAA 101500Z AUTO 16004KT 6SM 26/23 A2965 RMK SLP038 T02550227 52007 IEM_DS3505
ZBAA,1998-07-10 16:00,ZBAA 101600Z AUTO 12002KT 2 1/2SM 25/24 A2968 RMK SLP052 T02500240 IEM_DS3505
ZBAA,1998-07-10 17:00,ZBAA 101700Z AUTO 07002KT 2 1/2SM 25/24 A2965 RMK SLP042 T02500240 IEM_DS3505
ZBAA,1998-07-10 18:00,ZBAA 101800Z AUTO 11002KT 3SM 24/23 A2968 RMK SLP037 T02450229 57001 IEM_DS3505
ZBAA,1998-07-10 19:00,ZBAA 101900Z AUTO 12002KT 2SM 24/24 A2968 RMK SLP052 T02400240 IEM_DS3505
ZBAA,1998-07-10 20:00,ZBAA 102000Z AUTO 00000KT 1 1/2SM 24/24 A2968 RMK SLP052 T02400240 IEM_DS3505
ZBAA,1998-07-10 21:00,ZBAA 102100Z AUTO 00000KT 1 1/2SM 25/24 A2968 RMK SLP052 T02500240 IEM_DS3505
ZBAA,1998-07-10 23:00,ZBAA 102300Z AUTO 00000KT 1 1/4SM 25/24 A2968 RMK SLP052 T02500240 IEM_DS3505
ZBAA,1998-07-11 00:00,ZBAA 110000Z AUTO 00000KT 2SM 26/23 A2971 RMK SLP048 T02550230 52008 IEM_DS3505
ZBAA,1998-07-11 01:00,ZBAA 110100Z AUTO 35006KT 1 1/4SM 27/25 A2971 RMK SLP061 T02700250 IEM_DS3505
ZBAA,1998-07-11 02:00,ZBAA 110200Z AUTO 00000KT 1 1/4SM 27/25 A2971 RMK SLP061 T02700250 IEM_DS3505
ZBAA,1998-07-11 03:00,ZBAA 110300Z AUTO 11004KT 2SM 28/23 A2971 RMK SLP054 T02750230 52006 IEM_DS3505
ZBAA,1998-07-11 04:00,ZBAA 110400Z AUTO 00000KT 1 1/4SM 29/23 A2971 RMK SLP061 T02900230 IEM_DS3505
ZBAA,1998-07-11 05:00,ZBAA 110500Z AUTO 26002KT 1 1/4SM 28/24 A2971 RMK SLP061 T02800240 IEM_DS3505
ZBAA,1998-07-11 06:00,ZBAA 110600Z AUTO 02004KT 2SM 28/24 A2971 RMK 60000 SLP058 T02850245 52004 IEM_DS3505
ZBAA,1998-07-11 07:00,ZBAA 110700Z AUTO 35006KT 1SM 28/26 A2971 RMK SLP061 T02800260 IEM_DS3505
ZBAA,1998-07-11 08:00,ZBAA 110800Z AUTO 34006KT 1SM 27/24 A2971 RMK SLP061 T02700240 IEM_DS3505
ZBAA,1998-07-11 09:00,ZBAA 110900Z AUTO 34004KT 2SM 28/20 A2971 RMK SLP055 T02750203 57003 IEM_DS3505
ZBAA,1998-07-11 10:00,ZBAA 111000Z AUTO 29002KT 2 1/2SM 27/23 A2971 RMK SLP061 T02700230 IEM_DS3505
ZBAA,1998-07-11 11:00,ZBAA 111100Z AUTO 29004KT 2SM 27/23 A2971 RMK SLP061 T02700230 IEM_DS3505
ZBAA,1998-07-11 12:00,ZBAA 111200Z AUTO 20002KT 2 1/2SM 25/22 A2971 RMK 60004 SLP053 T02470219 57002 IEM_DS3505
ZBAA,1998-07-11 13:00,ZBAA 111300Z AUTO 32002KT 2SM 27/22 A2974 RMK SLP071 T02700220 IEM_DS3505
ZBAA,1998-07-11 14:00,ZBAA 111400Z AUTO 29004KT 2 1/2SM 27/23 A2974 RMK SLP071 T02700230 IEM_DS3505
ZBAA,1998-07-11 15:00,ZBAA 111500Z AUTO 34006KT 2 1/2SM 22/19 A2977 RMK SLP075 T02210188 52022 IEM_DS3505
ZBAA,1998-07-11 16:00,ZBAA 111600Z AUTO 34008KT 4SM 23/21 A2977 RMK SLP083 T02300210 IEM_DS3505
ZBAA,1998-07-11 17:00,ZBAA 111700Z AUTO 35012KT 7SM 22/21 A2977 RMK SLP083 T02200210 IEM_DS3505
ZBAA,1998-07-11 18:00,ZBAA 111800Z AUTO 32004KT 6SM 24/19 A2974 RMK 60004 SLP072 T02360194 57003 IEM_DS3505
ZBAA,1998-07-11 19:00,ZBAA 111900Z AUTO 32004KT 7SM 22/22 A2974 RMK SLP072 T02200220 IEM_DS3505
ZBAA,1998-07-11 20:00,ZBAA 112000Z AUTO 33006KT 6SM 23/21 A2977 RMK SLP083 T02300210 IEM_DS3505
ZBAA,1998-07-11 21:00,ZBAA 112100Z AUTO 02004KT 6SM 23/19 A2977 RMK 70008 SLP071 T02320188 57001 IEM_DS3505
ZBAA,1998-07-11 22:00,ZBAA 112200Z AUTO 36006KT 6SM 23/21 A2977 RMK SLP083 T02300210 IEM_DS3505
ZBAA,1998-07-11 23:00,ZBAA 112300Z AUTO 34004KT 7SM 23/22 A2977 RMK SLP083 T02300220 IEM_DS3505
ZBAA,1998-07-12 00:00,ZBAA 120000Z AUTO 27002KT 2 1/2SM 22/21 A2977 RMK 60008 70016 SLP084 T02190207 52012 IEM_DS3505
ZBAA,1998-07-12 02:00,ZBAA 120200Z AUTO 32008KT 7SM 23/21 A2980 RMK SLP093 T02300210 IEM_DS3505
ZBAA,1998-07-12 03:00,ZBAA 120300Z AUTO 36004KT 2 1/2SM 24/20 A2980 RMK SLP086 T02370205 52002 IEM_DS3505
ZBAA,1998-07-12 04:00,ZBAA 120400Z AUTO 31006KT 7SM 24/21 A2980 RMK SLP093 T02400210 IEM_DS3505
ZBAA,1998-07-12 05:00,ZBAA 120500Z AUTO 30004KT 7SM 24/22 A2980 RMK SLP093 T02400220 IEM_DS3505
ZBAA,1998-07-12 06:00,ZBAA 120600Z AUTO 02006KT 2SM 25/20 A2977 RMK 60004 SLP080 T02530200 57006 IEM_DS3505
ZBAA,1998-07-12 07:00,ZBAA 120700Z AUTO 35006KT 6SM 25/22 A2977 RMK SLP083 T02500220 IEM_DS3505
ZBAA,1998-07-12 08:00,ZBAA 120800Z AUTO 36006KT 6SM 25/22 A2974 RMK SLP072 T02500220 IEM_DS3505
ZBAA,1998-07-12 09:00,ZBAA 120900Z AUTO 36004KT 3SM 25/21 A2974 RMK SLP064 T02530213 57016 IEM_DS3505
ZBAA,1998-07-12 10:00,ZBAA 121000Z AUTO 35004KT 6SM 25/22 A2971 RMK SLP062 T02500220 IEM_DS3505
ZBAA,1998-07-12 11:00,ZBAA 121100Z AUTO 33006KT 6SM 25/22 A2974 RMK SLP072 T02500220 IEM_DS3505
ZBAA,1998-07-12 12:00,ZBAA 121200Z AUTO 02004KT 4SM 25/21 A2974 RMK SLP066 T02470206 52002 IEM_DS3505
ZBAA,1998-07-12 13:00,ZBAA 121300Z AUTO 34004KT 3SM 24/22 A2974 RMK SLP072 T02400220 IEM_DS3505
ZBAA,1998-07-12 14:00,ZBAA 121400Z AUTO 35006KT 3SM 23/23 A2974 RMK SLP072 T02300230 IEM_DS3505
ZBAA,1998-07-12 15:00,ZBAA 121500Z AUTO 00000KT 3SM 24/21 A2974 RMK SLP063 T02420210 57003 IEM_DS3505
ZBAA,1998-07-12 16:00,ZBAA 121600Z AUTO 35002KT 2 1/2SM 23/23 A2971 RMK SLP062 T02300230 IEM_DS3505
ZBAA,1998-07-12 17:00,ZBAA 121700Z AUTO 36002KT 2SM 23/23 A2968 RMK SLP052 T02300230 IEM_DS3505
ZBAA,1998-07-12 18:00,ZBAA 121800Z AUTO 00000KT 1 1/2SM 23/22 A2968 RMK 60002 SLP045 T02320223 57017 IEM_DS3505
ZBAA,1998-07-12 19:00,ZBAA 121900Z AUTO ////02KT 2SM 23/23 A2968 RMK SLP052 T02300230 IEM_DS3505
ZBAA,1998-07-12 20:00,ZBAA 122000Z AUTO ////04KT 2SM 23/22 A2965 RMK SLP042 T02300220 IEM_DS3505
ZBAA,1998-07-12 21:00,ZBAA 122100Z AUTO 09004KT 1 1/4SM 23/22 A2962 RMK 70028 SLP022 T02300223 57023 IEM_DS3505
ZBAA,1998-07-12 22:00,ZBAA 122200Z AUTO 34006KT 1SM 22/22 A2962 RMK SLP031 T02200220 IEM_DS3505
ZBAA,1998-07-13 00:00,ZBAA 130000Z AUTO 34002KT 1SM 22/22 A2959 RMK 60055 70063 SLP017 T02210217 57005 IEM_DS3505
ZBAA,1998-07-13 01:00,ZBAA 130100Z AUTO 01002KT 1SM 22/22 A2959 RMK SLP021 T02200220 IEM_DS3505
ZBAA,1998-07-13 02:00,ZBAA 130200Z AUTO 01004KT 1 1/4SM 22/22 A2956 RMK SLP011 T02200220 IEM_DS3505
ZBAA,1998-07-13 03:00,ZBAA 130300Z AUTO 32004KT 1 1/2SM 23/23 A2956 RMK SLP011 T02300230 IEM_DS3505
ZBAA,1998-07-13 04:00,ZBAA 130400Z AUTO 02002KT 1 1/2SM 23/23 A2956 RMK SLP011 T02300230 IEM_DS3505
ZBAA,1998-07-13 05:00,ZBAA 130500Z AUTO 07002KT 1SM 24/23 A2953 RMK SLP000 T02400230 IEM_DS3505
ZBAA,1998-07-13 06:00,ZBAA 130600Z AUTO 00000KT 1 1/4SM 26/24 A2953 RMK 60020 SLP002 T02600235 57007 IEM_DS3505
ZBAA,1998-07-13 07:00,ZBAA 130700Z AUTO ////02KT 1 1/4SM 27/25 A2950 RMK SLP990 T02700250 IEM_DS3505
ZBAA,1998-07-13 08:00,ZBAA 130800Z AUTO ////02KT 1 1/4SM 27/25 A2950 RMK SLP990 T02700250 IEM_DS3505
ZBAA,1998-07-13 09:00,ZBAA 130900Z AUTO 02004KT 2SM 27/24 A2950 RMK SLP986 T02690240 57016 IEM_DS3505
ZBAA,1998-07-13 10:00,ZBAA 131000Z AUTO 00000KT 1 1/2SM 27/25 A2947 RMK SLP979 T02700250 IEM_DS3505
ZBAA,1998-07-13 12:00,ZBAA 131200Z AUTO 04002KT 1 1/4SM 26/24 A2950 RMK SLP984 T02620245 57002 IEM_DS3505
ZBAA,1998-07-13 13:00,ZBAA 131300Z AUTO 13006KT 2SM 25/24 A2953 RMK SLP000 T02500240 IEM_DS3505
ZBAA,1998-07-13 14:00,ZBAA 131400Z AUTO 11002KT 2 1/2SM 25/24 A2956 RMK SLP010 T02500240 IEM_DS3505
ZBAA,1998-07-13 15:00,ZBAA 131500Z AUTO 07004KT 4SM 25/24 A2956 RMK SLP000 T02510241 52016 IEM_DS3505
ZBAA,1998-07-13 16:00,ZBAA 131600Z AUTO 12002KT 3SM 25/24 A2953 RMK SLP000 T02500240 IEM_DS3505
ZBAA,1998-07-13 17:00,ZBAA 131700Z AUTO 00000KT 2 1/2SM 25/24 A2953 RMK SLP000 T02500240 IEM_DS3505
ZBAA,1998-07-13 18:00,ZBAA 131800Z AUTO 07004KT 4SM 25/24 A2953 RMK SLP996 T02470240 57004 IEM_DS3505
ZBAA,1998-07-13 19:00,ZBAA 131900Z AUTO 00000KT 1 1/4SM 25/24 A2953 RMK SLP000 T02500240 IEM_DS3505
ZBAA,1998-07-13 20:00,ZBAA 132000Z AUTO 11002KT 1 1/4SM 25/24 A2953 RMK SLP000 T02500240 IEM_DS3505
ZBAA,1998-07-13 21:00,ZBAA 132100Z AUTO 07002KT 1 1/4SM 24/24 A2953 RMK 70063 SLP997 T02440240 52001 IEM_DS3505
ZBAA,1998-07-13 22:00,ZBAA 132200Z AUTO 10002KT 1SM 24/24 A2953 RMK SLP000 T02400240 IEM_DS3505
ZBAA,1998-07-13 23:00,ZBAA 132300Z AUTO 00000KT 1/2SM 24/24 A2956 RMK SLP010 T02400240 IEM_DS3505
ZBAA,1998-07-14 00:00,ZBAA 140000Z AUTO 27002KT 1SM 25/24 A2960 RMK 70020 SLP001 T02540243 52004 IEM_DS3505
ZBAA,1998-07-14 01:00,ZBAA 140100Z AUTO 00000KT 1 1/4SM 26/25 A2956 RMK SLP010 T02600250 IEM_DS3505
ZBAA,1998-07-14 02:00,ZBAA 140200Z AUTO 00000KT 2SM 27/26 A2956 RMK SLP010 T02700260 IEM_DS3505
ZBAA,1998-07-14 03:00,ZBAA 140300Z AUTO 32002KT 2SM 29/25 A2956 RMK SLP004 T02930249 52003 IEM_DS3505
ZBAA,1998-07-14 04:00,ZBAA 140400Z AUTO 27004KT 2 1/2SM 30/26 A2953 RMK SLP999 T03000260 IEM_DS3505
ZBAA,1998-07-14 05:00,ZBAA 140500Z AUTO 24006KT 2 1/2SM 32/26 A2950 RMK SLP989 T03200260 IEM_DS3505
ZBAA,1998-07-14 06:00,ZBAA 140600Z AUTO 18004KT 2 1/2SM 33/25 A2947 RMK SLP981 T03280251 57023 IEM_DS3505
ZBAA,1998-07-14 07:00,ZBAA 140700Z AUTO 28012KT 7SM 34/21 A2947 RMK SLP977 T03400210 IEM_DS3505
ZBAA,1998-07-14 08:00,ZBAA 140800Z AUTO 28010KT 7SM 35/20 A2947 RMK SLP977 T03500200 IEM_DS3505
ZBAA,1998-07-14 09:00,ZBAA 140900Z AUTO 14006G19KT 2 1/2SM 32/26 A2947 RMK SLP977 T03240264 57004 IEM_DS3505
ZBAA,1998-07-14 10:00,ZBAA 141000Z AUTO 29010KT 6SM 34/21 A2947 RMK SLP977 T03400210 IEM_DS3505
ZBAA,1998-07-14 11:00,ZBAA 141100Z AUTO 26006KT 7SM 33/23 A2947 RMK SLP977 T03300230 IEM_DS3505
ZBAA,1998-07-14 12:00,ZBAA 141200Z AUTO 27004G17KT 3SM 30/26 A2950 RMK SLP989 T03050262 52012 IEM_DS3505
ZBAA,1998-07-14 13:00,ZBAA 141300Z AUTO 26006KT 7SM 31/22 A2950 RMK SLP989 T03100220 IEM_DS3505
ZBAA,1998-07-14 14:00,ZBAA 141400Z AUTO 30008KT 7SM 30/21 A2953 RMK SLP999 T03000210 IEM_DS3505
ZBAA,1998-07-14 15:00,ZBAA 141500Z AUTO 27006KT 4SM 28/24 A2953 RMK SLP998 T02850241 52009 IEM_DS3505
ZBAA,1998-07-14 16:00,ZBAA 141600Z AUTO 27006KT 7SM 27/22 A2953 RMK SLP000 T02700220 IEM_DS3505
ZBAA,1998-07-14 17:00,ZBAA 141700Z AUTO 00000KT 7SM 26/23 A2953 RMK SLP000 T02600230 IEM_DS3505
ZBAA,1998-07-14 18:00,ZBAA 141800Z AUTO 34002KT 9SM 27/21 A2958 RMK SLP996 T02670212 57002 IEM_DS3505
ZBAA,1998-07-14 19:00,ZBAA 141900Z AUTO 35006KT 7SM 26/21 A2953 RMK SLP000 T02600210 IEM_DS3505
ZBAA,1998-07-14 20:00,ZBAA 142000Z AUTO 02004KT 7SM 26/22 A2953 RMK SLP000 T02600220 IEM_DS3505
ZBAA,1998-07-14 21:00,ZBAA 142100Z AUTO 34004KT 9SM 27/20 A2953 RMK SLP998 T02660199 52002 IEM_DS3505
ZBAA,1998-07-14 22:00,ZBAA 142200Z AUTO 32006KT 6SM 26/21 A2956 RMK SLP010 T02600210 IEM_DS3505
ZBAA,1998-07-14 23:00,ZBAA 142300Z AUTO 31004KT 6SM 28/21 A2956 RMK SLP010 T02800210 IEM_DS3505
ZBAA,1998-07-15 00:00,ZBAA 150000Z AUTO 32006KT 19SM 29/20 A2956 RMK SLP007 T02900198 52009 IEM_DS3505
ZBAA,1998-07-15 01:00,ZBAA 150100Z AUTO 30010KT 6SM 30/21 A2956 RMK SLP009 T03000210 IEM_DS3505
ZBAA,1998-07-15 02:00,ZBAA 150200Z AUTO 32008KT 6SM 31/23 A2956 RMK SLP009 T03100230 IEM_DS3505
ZBAA,1998-07-15 03:00,ZBAA 150300Z AUTO 34010KT 12SM 32/19 A2956 RMK SLP004 T03240190 57003 IEM_DS3505
ZBAA,1998-07-15 04:00,ZBAA 150400Z AUTO 34006KT 6SM 33/24 A2956 RMK SLP009 T03300240 IEM_DS3505
ZBAA,1998-07-15 05:00,ZBAA 150500Z AUTO 02006KT 6SM 33/23 A2953 RMK SLP999 T03300230 IEM_DS3505
ZBAA,1998-07-15 06:00,ZBAA 150600Z AUTO 32002KT 11SM 33/22 A2960 RMK SLP000 T03310216 57004 IEM_DS3505
ZBAA,1998-07-15 07:00,ZBAA 150700Z AUTO 36006KT 6SM 33/22 A2953 RMK SLP999 T03300220 IEM_DS3505
ZBAA,1998-07-15 08:00,ZBAA 150800Z AUTO ////04KT 6SM 34/22 A2950 RMK SLP988 T03400220 IEM_DS3505
ZBAA,1998-07-15 09:00,ZBAA 150900Z AUTO 02006KT 9SM 34/21 A2950 RMK SLP992 T03390208 57008 IEM_DS3505
ZBAA,1998-07-15 10:00,ZBAA 151000Z AUTO ////02KT 6SM 34/22 A2953 RMK SLP998 T03400220 IEM_DS3505
ZBAA,1998-07-15 11:00,ZBAA 151100Z AUTO 12002KT 7SM 32/25 A2953 RMK SLP999 T03200250 IEM_DS3505
ZBAA,1998-07-15 12:00,ZBAA 151200Z AUTO 11004KT 11SM 30/24 A2956 RMK SLP000 T02990236 52008 IEM_DS3505
ZBAA,1998-07-15 13:00,ZBAA 151300Z AUTO 15002KT 6SM 29/24 A2956 RMK SLP009 T02900240 IEM_DS3505
ZBAA,1998-07-15 14:00,ZBAA 151400Z AUTO 12006KT 7SM 28/26 A2959 RMK SLP020 T02800260 IEM_DS3505
ZBAA,1998-07-15 15:00,ZBAA 151500Z AUTO 11004KT 6SM 27/25 A2959 RMK SLP015 T02670247 52015 IEM_DS3505
ZBAA,1998-07-15 16:00,ZBAA 151600Z AUTO 16002KT 7SM 26/25 A2959 RMK SLP020 T02600250 IEM_DS3505
ZBAA,1998-07-15 17:00,ZBAA 151700Z AUTO 18002KT 6SM 26/25 A2959 RMK SLP020 T02600250 IEM_DS3505
ZBAA,1998-07-15 18:00,ZBAA 151800Z AUTO 27002KT 9SM 26/24 A2959 RMK SLP019 T02600244 52004 IEM_DS3505
ZBAA,1998-07-15 19:00,ZBAA 151900Z AUTO 04002KT 5SM 27/25 A2959 RMK SLP020 T02700250 IEM_DS3505
ZBAA,1998-07-15 20:00,ZBAA 152000Z AUTO 00000KT 5SM 26/25 A2959 RMK SLP020 T02600250 IEM_DS3505
ZBAA,1998-07-15 21:00,ZBAA 152100Z AUTO 00000KT 3SM 25/24 A2959 RMK SLP018 T02510244 57001 IEM_DS3505
ZBAA,1998-07-15 22:00,ZBAA 152200Z AUTO 00000KT 2 1/2SM 26/25 A2959 RMK SLP020 T02600250 IEM_DS3505
ZBAA,1998-07-15 23:00,ZBAA 152300Z AUTO 10002KT 2SM 26/25 A2959 RMK SLP020 T02600250 IEM_DS3505
ZBAA,1998-07-16 00:00,ZBAA 160000Z AUTO 07004KT 4SM 27/25 A2966 RMK SLP021 T02730249 52003 IEM_DS3505
ZBAA,1998-07-16 01:00,ZBAA 160100Z AUTO 13004KT 4SM 27/25 A2959 RMK SLP020 T02700250 IEM_DS3505
ZBAA,1998-07-16 02:00,ZBAA 160200Z AUTO 15004KT 4SM 28/24 A2959 RMK SLP020 T02800240 IEM_DS3505
ZBAA,1998-07-16 03:00,ZBAA 160300Z AUTO 14006KT 4SM 30/24 A2959 RMK SLP019 T02950235 57002 IEM_DS3505
ZBAA,1998-07-16 04:00,ZBAA 160400Z AUTO 19006KT 6SM 31/25 A2959 RMK SLP019 T03100250 IEM_DS3505
ZBAA,1998-07-16 05:00,ZBAA 160500Z AUTO 18006KT 6SM 31/25 A2956 RMK SLP009 T03100250 IEM_DS3505
ZBAA,1998-07-16 06:00,ZBAA 160600Z AUTO 18006KT 9SM 31/24 A2956 RMK SLP009 T03060238 57010 IEM_DS3505
ZBAA,1998-07-16 07:00,ZBAA 160700Z AUTO 19006KT 6SM 31/25 A2953 RMK SLP999 T03100250 IEM_DS3505
ZBAA,1998-07-16 08:00,ZBAA 160800Z AUTO 18004KT 6SM 31/25 A2953 RMK SLP999 T03100250 IEM_DS3505
ZBAA,1998-07-16 09:00,ZBAA 160900Z AUTO 20004KT 7SM 31/23 A2950 RMK SLP996 T03090233 57013 IEM_DS3505
ZBAA,1998-07-16 11:00,ZBAA 161100Z AUTO 18006KT 6SM 29/25 A2953 RMK SLP999 T02900250 IEM_DS3505
ZBAA,1998-07-16 12:00,ZBAA 161200Z AUTO 16006KT 4SM 29/24 A2959 RMK SLP997 T02930240 52001 IEM_DS3505
ZBAA,1998-07-16 13:00,ZBAA 161300Z AUTO 14004KT 3SM 28/25 A2953 RMK SLP000 T02800250 IEM_DS3505
ZBAA,1998-07-16 14:00,ZBAA 161400Z AUTO 13004KT 3SM 27/25 A2953 RMK SLP000 T02700250 IEM_DS3505
ZBAA,1998-07-16 15:00,ZBAA 161500Z AUTO 14006KT 4SM 26/23 A2954 RMK SLP002 T02630231 52005 IEM_DS3505
ZBAA,1998-07-16 18:00,ZBAA 161800Z AUTO 22004KT 6SM 26/23 A2959 RMK SLP998 T02550232 57004 IEM_DS3505
ZBAA,1998-07-16 21:00,ZBAA 162100Z AUTO 25004KT 5SM 25/23 A2954 RMK 70000 SLP002 T02470234 52004 IEM_DS3505
ZBAA,1998-07-17 00:00,ZBAA 170000Z AUTO 11002KT 3SM 24/23 A2961 RMK 60012 70012 SLP003 T02430233 52001 IEM_DS3505
ZBAA,1998-07-17 02:00,ZBAA 170200Z AUTO 15004KT 1 1/2SM 25/24 A2953 RMK SLP000 T02500240 IEM_DS3505
ZBAA,1998-07-17 03:00,ZBAA 170300Z AUTO 18006KT 5SM 26/23 A2956 RMK SLP003 T02620232 54000 IEM_DS3505
ZBAA,1998-07-17 04:00,ZBAA 170400Z AUTO 14008KT 2 1/2SM 26/24 A2953 RMK SLP000 T02600240 IEM_DS3505
ZBAA,1998-07-17 06:00,ZBAA 170600Z AUTO 14010KT 6SM 26/22 A2953 RMK 60001 SLP995 T02640224 57008 IEM_DS3505
ZBAA,1998-07-17 07:00,ZBAA 170700Z AUTO 15006KT 5SM 26/24 A2953 RMK SLP000 T02600240 IEM_DS3505
ZBAA,1998-07-17 08:00,ZBAA 170800Z AUTO 14006KT 5SM 27/24 A2950 RMK SLP990 T02700240 IEM_DS3505
ZBAA,1998-07-17 09:00,ZBAA 170900Z AUTO 14008KT 6SM 27/22 A2949 RMK SLP987 T02670225 57008 IEM_DS3505
ZBAA,1998-07-17 10:00,ZBAA 171000Z AUTO 12006KT 7SM 26/24 A2950 RMK SLP990 T02600240 IEM_DS3505
ZBAA,1998-07-17 11:00,ZBAA 171100Z AUTO 14004KT 5SM 26/24 A2950 RMK SLP990 T02600240 IEM_DS3505
ZBAA,1998-07-17 12:00,ZBAA 171200Z AUTO 14004KT 4SM 25/23 A2953 RMK SLP992 T02530228 52005 IEM_DS3505
ZBAA,1998-07-17 13:00,ZBAA 171300Z AUTO 13004KT 3SM 25/24 A2956 RMK SLP010 T02500240 IEM_DS3505
ZBAA,1998-07-17 14:00,ZBAA 171400Z AUTO 12002KT 3SM 24/24 A2956 RMK SLP010 T02400240 IEM_DS3505
ZBAA,1998-07-17 15:00,ZBAA 171500Z AUTO 34004G25KT 5SM 24/22 A2959 RMK SLP008 T02450224 52016 IEM_DS3505
ZBAA,1998-07-17 16:00,ZBAA 171600Z AUTO 24004KT 7SM 20/20 A2956 RMK SLP011 T02000200 IEM_DS3505
ZBAA,1998-07-17 17:00,ZBAA 171700Z AUTO 15004KT 7SM 20/20 A2953 RMK SLP001 T02000200 IEM_DS3505
ZBAA,1998-07-17 18:00,ZBAA 171800Z AUTO 20004KT 6SM 21/20 A2953 RMK 60020 SLP999 T02070198 57009 IEM_DS3505
ZBAA,1998-07-17 19:00,ZBAA 171900Z AUTO 31004KT 4SM 20/20 A2950 RMK SLP991 T02000200 IEM_DS3505
ZBAA,1998-07-17 20:00,ZBAA 172000Z AUTO 07002KT 4SM 20/20 A2950 RMK SLP991 T02000200 IEM_DS3505
ZBAA,1998-07-17 21:00,ZBAA 172100Z AUTO 32004KT 6SM 20/19 A2950 RMK 70035 SLP985 T02030192 57014 IEM_DS3505
ZBAA,1998-07-17 22:00,ZBAA 172200Z AUTO 00000KT 2 1/2SM 20/20 A2947 RMK SLP980 T02000200 IEM_DS3505
ZBAA,1998-07-17 23:00,ZBAA 172300Z AUTO 00000KT 4SM 21/21 A2947 RMK SLP980 T02100210 IEM_DS3505
ZBAA,1998-07-18 00:00,ZBAA 180000Z AUTO 25002KT 5SM 23/20 A2950 RMK 60002 70024 SLP987 T02270199 52002 IEM_DS3505
ZBAA,1998-07-18 01:00,ZBAA 180100Z AUTO ////02KT 4SM 24/21 A2950 RMK SLP990 T02400210 IEM_DS3505
ZBAA,1998-07-18 02:00,ZBAA 180200Z AUTO ////02KT 6SM 26/22 A2950 RMK SLP990 T02600220 IEM_DS3505
ZBAA,1998-07-18 03:00,ZBAA 180300Z AUTO 20004KT 9SM 27/21 A2948 RMK SLP984 T02710208 57003 IEM_DS3505
ZBAA,1998-07-18 04:00,ZBAA 180400Z AUTO 19004KT 6SM 28/22 A2947 RMK SLP978 T02800220 IEM_DS3505
ZBAA,1998-07-18 05:00,ZBAA 180500Z AUTO 18004KT 3SM 29/23 A2947 RMK SLP978 T02900230 IEM_DS3505
ZBAA,1998-07-18 06:00,ZBAA 180600Z AUTO 20006KT 9SM 29/21 A2944 RMK SLP965 T02880214 57019 IEM_DS3505
ZBAA,1998-07-18 07:00,ZBAA 180700Z AUTO 16006KT 4SM 29/24 A2941 RMK SLP958 T02900240 IEM_DS3505
ZBAA,1998-07-18 08:00,ZBAA 180800Z AUTO 16006KT 4SM 29/23 A2941 RMK SLP958 T02900230 IEM_DS3505
ZBAA,1998-07-18 09:00,ZBAA 180900Z AUTO 22006KT 7SM 29/22 A2941 RMK SLP954 T02920221 57011 IEM_DS3505
ZBAA,1998-07-18 10:00,ZBAA 181000Z AUTO 25010KT 4SM 22/20 A2944 RMK SLP970 T02200200 IEM_DS3505
ZBAA,1998-07-18 12:00,ZBAA 181200Z AUTO 16004KT 9SM 21/20 A2947 RMK 60193 SLP970 T02070201 52016 IEM_DS3505
ZBAA,1998-07-18 13:00,ZBAA 181300Z AUTO 29002KT 6SM 22/20 A2944 RMK SLP970 T02200200 IEM_DS3505
ZBAA,1998-07-18 14:00,ZBAA 181400Z AUTO 00000KT 6SM 21/20 A2944 RMK SLP970 T02100200 IEM_DS3505
ZBAA,1998-07-18 15:00,ZBAA 181500Z AUTO 25004KT 12SM 21/21 A2944 RMK SLP970 T02140209 54000 IEM_DS3505
ZBAA,1998-07-18 16:00,ZBAA 181600Z AUTO 30004KT 7SM 22/20 A2944 RMK SLP970 T02200200 IEM_DS3505
ZBAA,1998-07-18 17:00,ZBAA 181700Z AUTO 25002KT 7SM 21/20 A2941 RMK SLP960 T02100200 IEM_DS3505
ZBAA,1998-07-18 18:00,ZBAA 181800Z AUTO 11004KT 3SM 21/20 A2941 RMK SLP959 T02070202 57011 IEM_DS3505
ZBAA,1998-07-18 19:00,ZBAA 181900Z AUTO ////02KT 7SM 20/20 A2941 RMK SLP960 T02000200 IEM_DS3505
ZBAA,1998-07-18 20:00,ZBAA 182000Z AUTO 00000KT 5SM 20/20 A2941 RMK SLP960 T02000200 IEM_DS3505
ZBAA,1998-07-18 21:00,ZBAA 182100Z AUTO 25002KT 2SM 20/20 A2941 RMK 70193 SLP958 T01990197 57001 IEM_DS3505
ZBAA,1998-07-18 22:00,ZBAA 182200Z AUTO 00000KT 5SM 20/20 A2941 RMK SLP960 T02000200 IEM_DS3505
ZBAA,1998-07-18 23:00,ZBAA 182300Z AUTO 33002KT 5SM 22/21 A2941 RMK SLP959 T02200210 IEM_DS3505
ZBAA,1998-07-19 00:00,ZBAA 190000Z AUTO 00000KT 5SM 25/20 A2941 RMK 70193 SLP960 T02480203 52002 IEM_DS3505
ZBAA,1998-07-19 01:00,ZBAA 190100Z AUTO ////02KT 7SM 27/22 A2941 RMK SLP959 T02700220 IEM_DS3505
ZBAA,1998-07-19 02:00,ZBAA 190200Z AUTO 30006KT 7SM 29/21 A2941 RMK SLP958 T02900210 IEM_DS3505
ZBAA,1998-07-19 03:00,ZBAA 190300Z AUTO 22006KT 6SM 30/19 A2938 RMK SLP947 T02980192 57013 IEM_DS3505
ZBAA,1998-07-19 04:00,ZBAA 190400Z AUTO 28008KT 7SM 32/19 A2935 RMK SLP937 T03200190 IEM_DS3505
ZBAA,1998-07-19 05:00,ZBAA 190500Z AUTO 28008KT 6SM 33/16 A2935 RMK SLP937 T03300160 IEM_DS3505
ZBAA,1998-07-19 06:00,ZBAA 190600Z AUTO 32008KT 19SM 34/13 A2932 RMK SLP930 T03430129 57017 IEM_DS3505
ZBAA,1998-07-19 08:00,ZBAA 190800Z AUTO 32010KT 6SM 34/16 A2932 RMK SLP927 T03400160 IEM_DS3505
ZBAA,1998-07-19 09:00,ZBAA 190900Z AUTO 32010KT 19SM 34/11 A2932 RMK SLP925 T03450110 57005 IEM_DS3505
ZBAA,1998-07-19 10:00,ZBAA 191000Z AUTO 31010KT 6SM 34/16 A2932 RMK SLP927 T03400160 IEM_DS3505
ZBAA,1998-07-19 11:00,ZBAA 191100Z AUTO 28004KT 6SM 33/17 A2932 RMK SLP927 T03300170 IEM_DS3505
ZBAA,1998-07-19 12:00,ZBAA 191200Z AUTO 25002KT 19SM 30/17 A2940 RMK SLP933 T02980166 52008 IEM_DS3505
ZBAA,1998-07-19 13:00,ZBAA 191300Z AUTO ////02KT 7SM 29/21 A2938 RMK SLP948 T02900210 IEM_DS3505
ZBAA,1998-07-19 14:00,ZBAA 191400Z AUTO 33002KT 7SM 26/21 A2938 RMK SLP949 T02600210 IEM_DS3505
ZBAA,1998-07-19 15:00,ZBAA 191500Z AUTO 27002KT 12SM 26/17 A2937 RMK SLP945 T02600171 52012 IEM_DS3505
ZBAA,1998-07-19 16:00,ZBAA 191600Z AUTO 32002KT 7SM 25/20 A2938 RMK SLP949 T02500200 IEM_DS3505
ZBAA,1998-07-19 17:00,ZBAA 191700Z AUTO 30008KT 7SM 26/17 A2938 RMK SLP949 T02600170 IEM_DS3505
ZBAA,1998-07-19 18:00,ZBAA 191800Z AUTO 34004KT 6SM 24/18 A2938 RMK SLP944 T02440178 54000 IEM_DS3505
ZBAA,1998-07-19 19:00,ZBAA 191900Z AUTO 35006KT 7SM 22/18 A2938 RMK SLP949 T02200180 IEM_DS3505
ZBAA,1998-07-19 20:00,ZBAA 192000Z AUTO 34006KT 7SM 22/18 A2938 RMK SLP949 T02200180 IEM_DS3505
ZBAA,1998-07-19 21:00,ZBAA 192100Z AUTO 00000KT 6SM 23/18 A2938 RMK SLP948 T02260180 52003 IEM_DS3505
ZBAA,1998-07-19 22:00,ZBAA 192200Z AUTO 36004KT 7SM 21/18 A2941 RMK SLP960 T02100180 IEM_DS3505
ZBAA,1998-07-19 23:00,ZBAA 192300Z AUTO 01004KT 6SM 24/19 A2941 RMK SLP959 T02400190 IEM_DS3505
ZBAA,1998-07-20 00:00,ZBAA 200000Z AUTO 32006KT 7SM 28/17 A2944 RMK SLP962 T02780167 52014 IEM_DS3505
ZBAA,1998-07-20 01:00,ZBAA 200100Z AUTO 01004KT 7SM 27/20 A2944 RMK SLP969 T02700200 IEM_DS3505
ZBAA,1998-07-20 02:00,ZBAA 200200Z AUTO 34004KT 7SM 30/17 A2941 RMK SLP958 T03000170 IEM_DS3505
ZBAA,1998-07-20 03:00,ZBAA 200300Z AUTO 04004KT 12SM 32/15 A2941 RMK SLP962 T03190149 54000 IEM_DS3505
ZBAA,1998-07-20 04:00,ZBAA 200400Z AUTO ////04KT 6SM 32/16 A2941 RMK SLP958 T03200160 IEM_DS3505
ZBAA,1998-07-20 05:00,ZBAA 200500Z AUTO 30006KT 6SM 32/16 A2938 RMK SLP947 T03200160 IEM_DS3505
ZBAA,1998-07-20 06:00,ZBAA 200600Z AUTO 22008KT 12SM 34/16 A2938 RMK SLP948 T03360157 57013 IEM_DS3505
ZBAA,1998-07-20 07:00,ZBAA 200700Z AUTO ////04KT 6SM 34/16 A2935 RMK SLP937 T03400160 IEM_DS3505
ZBAA,1998-07-20 08:00,ZBAA 200800Z AUTO 17010KT 6SM 33/19 A2935 RMK SLP937 T03300190 IEM_DS3505
ZBAA,1998-07-20 09:00,ZBAA 200900Z AUTO 20006KT 12SM 32/18 A2935 RMK SLP942 T03190182 57007 IEM_DS3505
ZBAA,1998-07-20 10:00,ZBAA 201000Z AUTO 18008KT 6SM 31/20 A2935 RMK SLP938 T03100200 IEM_DS3505
ZBAA,1998-07-20 11:00,ZBAA 201100Z AUTO 19006KT 6SM 30/20 A2935 RMK SLP938 T03000200 IEM_DS3505
ZBAA,1998-07-20 12:00,ZBAA 201200Z AUTO 20004KT 16SM 29/21 A2935 RMK SLP940 T02930209 57002 IEM_DS3505
ZBAA,1998-07-20 13:00,ZBAA 201300Z AUTO 13004KT 6SM 27/22 A2938 RMK SLP948 T02700220 IEM_DS3505
ZBAA,1998-07-20 14:00,ZBAA 201400Z AUTO 17002KT 6SM 27/22 A2941 RMK SLP959 T02700220 IEM_DS3505
ZBAA,1998-07-20 15:00,ZBAA 201500Z AUTO 16004KT 9SM 26/21 A2941 RMK SLP951 T02570208 52011 IEM_DS3505
ZBAA,1998-07-20 16:00,ZBAA 201600Z AUTO 00000KT 6SM 26/23 A2941 RMK SLP959 T02600230 IEM_DS3505
ZBAA,1998-07-20 17:00,ZBAA 201700Z AUTO 09002KT 7SM 25/22 A2941 RMK SLP959 T02500220 IEM_DS3505
ZBAA,1998-07-20 18:00,ZBAA 201800Z AUTO 29006KT 12SM 24/21 A2941 RMK 60004 SLP960 T02420210 52009 IEM_DS3505
ZBAA,1998-07-20 19:00,ZBAA 201900Z AUTO 36004KT 5SM 24/23 A2941 RMK SLP959 T02400230 IEM_DS3505
ZBAA,1998-07-20 20:00,ZBAA 202000Z AUTO 36004KT 5SM 23/22 A2941 RMK SLP959 T02300220 IEM_DS3505
ZBAA,1998-07-20 21:00,ZBAA 202100Z AUTO 07004KT 9SM 22/20 A2944 RMK 70004 SLP959 T02180201 57001 IEM_DS3505
ZBAA,1998-07-20 22:00,ZBAA 202200Z AUTO 05002KT 5SM 23/21 A2944 RMK SLP969 T02300210 IEM_DS3505
ZBAA,1998-07-20 23:00,ZBAA 202300Z AUTO 04002KT 6SM 24/22 A2947 RMK SLP979 T02400220 IEM_DS3505
ZBAA,1998-07-21 00:00,ZBAA 210000Z AUTO 09006KT 4SM 25/23 A2950 RMK 70004 SLP980 T02520226 52021 IEM_DS3505
ZBAA,1998-07-21 01:00,ZBAA 210100Z AUTO 09004KT 5SM 27/23 A2950 RMK SLP990 T02700230 IEM_DS3505
ZBAA,1998-07-21 02:00,ZBAA 210200Z AUTO 11004KT 4SM 28/24 A2950 RMK SLP989 T02800240 IEM_DS3505
ZBAA,1998-07-21 03:00,ZBAA 210300Z AUTO 07004KT 6SM 29/22 A2950 RMK SLP983 T02920222 52003 IEM_DS3505
ZBAA,1998-07-21 04:00,ZBAA 210400Z AUTO ////02KT 4SM 30/22 A2947 RMK SLP978 T03000220 IEM_DS3505
ZBAA,1998-07-21 05:00,ZBAA 210500Z AUTO ////02KT 4SM 32/23 A2947 RMK SLP978 T03200230 IEM_DS3505
ZBAA,1998-07-21 06:00,ZBAA 210600Z AUTO 14006KT 6SM 32/21 A2947 RMK SLP978 T03190212 57005 IEM_DS3505
ZBAA,1998-07-21 07:00,ZBAA 210700Z AUTO 12004KT 7SM 33/22 A2944 RMK SLP967 T03300220 IEM_DS3505
ZBAA,1998-07-21 08:00,ZBAA 210800Z AUTO 11004KT 7SM 33/21 A2944 RMK SLP967 T03300210 IEM_DS3505
ZBAA,1998-07-21 09:00,ZBAA 210900Z AUTO 16004KT 9SM 33/20 A2944 RMK SLP971 T03260205 57007 IEM_DS3505
ZBAA,1998-07-21 10:00,ZBAA 211000Z AUTO 08002KT 7SM 31/22 A2944 RMK SLP968 T03100220 IEM_DS3505
ZBAA,1998-07-21 11:00,ZBAA 211100Z AUTO 10002KT 5SM 31/24 A2947 RMK SLP978 T03100240 IEM_DS3505
ZBAA,1998-07-21 12:00,ZBAA 211200Z AUTO 11004KT 6SM 28/23 A2950 RMK 60000 SLP979 T02780226 52008 IEM_DS3505
ZBAA,1998-07-21 13:00,ZBAA 211300Z AUTO 14002KT 4SM 28/24 A2953 RMK SLP000 T02800240 IEM_DS3505
ZBAA,1998-07-21 15:00,ZBAA 211500Z AUTO 11008KT 6SM 24/20 A2959 RMK SLP011 T02450204 52032 IEM_DS3505
ZBAA,1998-07-21 16:00,ZBAA 211600Z AUTO 10010KT 4SM 22/21 A2959 RMK SLP021 T02200210 IEM_DS3505
ZBAA,1998-07-21 17:00,ZBAA 211700Z AUTO 21008KT 4SM 22/21 A2962 RMK SLP031 T02200210 IEM_DS3505
ZBAA,1998-07-21 18:00,ZBAA 211800Z AUTO 07006KT 3SM 22/21 A2962 RMK 60004 SLP023 T02250208 52012 IEM_DS3505
ZBAA,1998-07-21 19:00,ZBAA 211900Z AUTO 18004KT 2SM 22/21 A2959 RMK SLP021 T02200210 IEM_DS3505
ZBAA,1998-07-21 20:00,ZBAA 212000Z AUTO 30002KT 2 1/2SM 22/21 A2959 RMK SLP021 T02200210 IEM_DS3505
ZBAA,1998-07-21 21:00,ZBAA 212100Z AUTO 09002KT 4SM 22/21 A2958 RMK 70016 SLP018 T02240209 57005 IEM_DS3505
ZBAA,1998-07-21 22:00,ZBAA 212200Z AUTO 09002KT 1SM 22/21 A2962 RMK SLP031 T02200210 IEM_DS3505
ZBAA,1998-07-21 23:00,ZBAA 212300Z AUTO 11002KT 2 1/2SM 23/23 A2962 RMK SLP031 T02300230 IEM_DS3505
ZBAA,1998-07-22 00:00,ZBAA 220000Z AUTO 07004KT 4SM 24/22 A2962 RMK 60012 70016 SLP024 T02390215 52006 IEM_DS3505
ZBAA,1998-07-22 01:00,ZBAA 220100Z AUTO 12004KT 4SM 26/23 A2965 RMK SLP040 T02600230 IEM_DS3505
ZBAA,1998-07-22 02:00,ZBAA 220200Z AUTO 13004KT 4SM 27/23 A2965 RMK SLP040 T02700230 IEM_DS3505
ZBAA,1998-07-22 03:00,ZBAA 220300Z AUTO 11008KT 3SM 27/22 A2963 RMK SLP032 T02680219 52008 IEM_DS3505
ZBAA,1998-07-22 05:00,ZBAA 220500Z AUTO 15004KT 4SM 28/23 A2965 RMK SLP040 T02800230 IEM_DS3505
ZBAA,1998-07-22 06:00,ZBAA 220600Z AUTO 18002KT 4SM 29/22 A2962 RMK SLP027 T02900218 57005 IEM_DS3505
ZBAA,1998-07-22 07:00,ZBAA 220700Z AUTO 16006KT 4SM 30/24 A2962 RMK SLP029 T03000240 IEM_DS3505
ZBAA,1998-07-22 08:00,ZBAA 220800Z AUTO 13006KT 4SM 30/24 A2962 RMK SLP029 T03000240 IEM_DS3505
ZBAA,1998-07-22 09:00,ZBAA 220900Z AUTO 11006KT 4SM 30/22 A2959 RMK SLP021 T02950225 57006 IEM_DS3505
ZBAA,1998-07-22 10:00,ZBAA 221000Z AUTO 14004KT 4SM 29/24 A2959 RMK SLP019 T02900240 IEM_DS3505
ZBAA,1998-07-22 11:00,ZBAA 221100Z AUTO 13002KT 4SM 28/25 A2962 RMK SLP030 T02800250 IEM_DS3505
ZBAA,1998-07-22 12:00,ZBAA 221200Z AUTO 11002KT 3SM 27/24 A2962 RMK SLP027 T02720239 52006 IEM_DS3505
ZBAA,1998-07-22 13:00,ZBAA 221300Z AUTO 11004KT 3SM 27/24 A2965 RMK SLP040 T02700240 IEM_DS3505
ZBAA,1998-07-22 14:00,ZBAA 221400Z AUTO 12004KT 3SM 27/24 A2968 RMK SLP050 T02700240 IEM_DS3505
ZBAA,1998-07-22 15:00,ZBAA 221500Z AUTO 11006KT 3SM 25/23 A2968 RMK SLP036 T02540229 52009 IEM_DS3505
ZBAA,1998-07-22 16:00,ZBAA 221600Z AUTO 13008KT 4SM 25/24 A2968 RMK SLP050 T02500240 IEM_DS3505
ZBAA,1998-07-22 17:00,ZBAA 221700Z AUTO 13008KT 4SM 24/23 A2968 RMK SLP051 T02400230 IEM_DS3505
ZBAA,1998-07-22 18:00,ZBAA 221800Z AUTO 11008KT 2 1/2SM 24/22 A2968 RMK SLP043 T02390221 52007 IEM_DS3505
ZBAA,1998-07-22 19:00,ZBAA 221900Z AUTO 11006KT 3SM 24/23 A2968 RMK SLP051 T02400230 IEM_DS3505
ZBAA,1998-07-22 20:00,ZBAA 222000Z AUTO 12004KT 3SM 23/23 A2968 RMK SLP051 T02300230 IEM_DS3505
ZBAA,1998-07-22 21:00,ZBAA 222100Z AUTO 04004KT 2 1/2SM 23/22 A2971 RMK SLP048 T02330218 52005 IEM_DS3505
ZBAA,1998-07-22 22:00,ZBAA 222200Z AUTO 09002KT 2SM 23/23 A2971 RMK SLP061 T02300230 IEM_DS3505
ZBAA,1998-07-22 23:00,ZBAA 222300Z AUTO 00000KT 2SM 23/23 A2971 RMK SLP061 T02300230 IEM_DS3505
ZBAA,1998-07-23 00:00,ZBAA 230000Z AUTO 02004KT 2 1/2SM 23/22 A2975 RMK 60008 70008 SLP052 T02340221 52004 IEM_DS3505
ZBAA,1998-07-23 01:00,ZBAA 230100Z AUTO 00000KT RMK IEM_DS3505
ZBAA,1998-07-23 02:00,ZBAA 230200Z AUTO 03002KT 2SM 25/23 A2971 RMK SLP060 T02500230 IEM_DS3505
ZBAA,1998-07-23 03:00,ZBAA 230300Z AUTO 09004KT 3SM 25/22 A2971 RMK SLP057 T02470222 52005 IEM_DS3505
ZBAA,1998-07-23 04:00,ZBAA 230400Z AUTO 10004KT 2SM 23/22 A2971 RMK SLP061 T02300220 IEM_DS3505
ZBAA,1998-07-23 05:00,ZBAA 230500Z AUTO 09002KT 2SM 24/23 A2968 RMK SLP051 T02400230 IEM_DS3505
ZBAA,1998-07-23 06:00,ZBAA 230600Z AUTO 11006KT 3SM 27/22 A2968 RMK SLP044 T02660225 57013 IEM_DS3505
ZBAA,1998-07-23 07:00,ZBAA 230700Z AUTO 35008KT 1SM 23/23 A2968 RMK SLP051 T02300230 IEM_DS3505
ZBAA,1998-07-23 08:00,ZBAA 230800Z AUTO 36006KT 1SM 23/23 A2965 RMK SLP041 T02300230 IEM_DS3505
ZBAA,1998-07-23 09:00,ZBAA 230900Z AUTO 34004KT 2 1/2SM 24/23 A2963 RMK SLP035 T02390230 57009 IEM_DS3505
ZBAA,1998-07-23 10:00,ZBAA 231000Z AUTO 02002KT 1SM 24/23 A2965 RMK SLP041 T02400230 IEM_DS3505
ZBAA,1998-07-23 11:00,ZBAA 231100Z AUTO 02002KT 1 1/4SM 24/23 A2965 RMK SLP041 T02400230 IEM_DS3505
ZBAA,1998-07-23 12:00,ZBAA 231200Z AUTO 18004KT 2 1/2SM 23/22 A2968 RMK 60039 SLP040 T02320222 52004 IEM_DS3505
ZBAA,1998-07-23 13:00,ZBAA 231300Z AUTO 11002KT 1 1/4SM 23/23 A2968 RMK SLP051 T02300230 IEM_DS3505
ZBAA,1998-07-23 14:00,ZBAA 231400Z AUTO 13006KT 4SM 23/22 A2968 RMK SLP051 T02300220 IEM_DS3505
ZBAA,1998-07-23 15:00,ZBAA 231500Z AUTO 25002KT 2 1/2SM 23/22 A2968 RMK SLP040 T02290222 52001 IEM_DS3505
ZBAA,1998-07-23 16:00,ZBAA 231600Z AUTO 35010KT 2SM 21/21 A2965 RMK SLP041 T02100210 IEM_DS3505
ZBAA,1998-07-23 17:00,ZBAA 231700Z AUTO 33006G16KT 1 1/2SM 21/21 A2968 RMK SLP051 T02100210 IEM_DS3505
ZBAA,1998-07-23 18:00,ZBAA 231800Z AUTO 32004KT 1 1/4SM 22/21 A2965 RMK 60087 SLP041 T02160213 52001 IEM_DS3505
ZBAA,1998-07-23 19:00,ZBAA 231900Z AUTO 25002KT 4SM 21/21 A2965 RMK SLP041 T02100210 IEM_DS3505
ZBAA,1998-07-23 20:00,ZBAA 232000Z AUTO 33004KT 4SM 21/21 A2965 RMK SLP041 T02100210 IEM_DS3505
ZBAA,1998-07-23 21:00,ZBAA 232100Z AUTO 34002KT 3SM 21/21 A2962 RMK 70260 SLP031 T02140212 57011 IEM_DS3505
ZBAA,1998-07-23 22:00,ZBAA 232200Z AUTO 32004KT 4SM 21/21 A2962 RMK SLP031 T02100210 IEM_DS3505
ZBAA,1998-07-24 00:00,ZBAA 240000Z AUTO 36004KT 4SM 24/21 A2969 RMK 60126 70252 SLP031 T02370211 52001 IEM_DS3505
ZBAA,1998-07-24 01:00,ZBAA 240100Z AUTO 05002KT 7SM 26/24 A2962 RMK SLP030 T02600240 IEM_DS3505
ZBAA,1998-07-24 02:00,ZBAA 240200Z AUTO ////02KT 7SM 26/22 A2962 RMK SLP030 T02600220 IEM_DS3505
ZBAA,1998-07-24 03:00,ZBAA 240300Z AUTO 36004KT 5SM 27/21 A2962 RMK SLP026 T02700214 57005 IEM_DS3505
ZBAA,1998-07-24 04:00,ZBAA 240400Z AUTO ////02KT 7SM 28/23 A2959 RMK SLP020 T02800230 IEM_DS3505
ZBAA,1998-07-24 06:00,ZBAA 240600Z AUTO 14006KT 6SM 30/22 A2959 RMK SLP021 T02950219 57005 IEM_DS3505
ZBAA,1998-07-24 07:00,ZBAA 240700Z AUTO ////04KT 7SM 30/23 A2956 RMK SLP009 T03000230 IEM_DS3505
ZBAA,1998-07-24 08:00,ZBAA 240800Z AUTO 18008KT 7SM 30/24 A2956 RMK SLP009 T03000240 IEM_DS3505
ZBAA,1998-07-24 09:00,ZBAA 240900Z AUTO 18008KT 6SM 30/22 A2956 RMK SLP012 T02960223 57009 IEM_DS3505
ZBAA,1998-07-24 10:00,ZBAA 241000Z AUTO 17006KT 7SM 28/24 A2959 RMK SLP020 T02800240 IEM_DS3505
ZBAA,1998-07-24 11:00,ZBAA 241100Z AUTO 17006KT 6SM 27/24 A2959 RMK SLP020 T02700240 IEM_DS3505
ZBAA,1998-07-24 12:00,ZBAA 241200Z AUTO 20004KT 6SM 27/23 A2962 RMK SLP017 T02660233 52005 IEM_DS3505
ZBAA,1998-07-24 13:00,ZBAA 241300Z AUTO 14002KT 5SM 26/25 A2962 RMK SLP030 T02600250 IEM_DS3505
ZBAA,1998-07-24 14:00,ZBAA 241400Z AUTO 15002KT 5SM 26/25 A2965 RMK SLP040 T02600250 IEM_DS3505
ZBAA,1998-07-24 15:00,ZBAA 241500Z AUTO 14006KT 6SM 26/24 A2968 RMK SLP036 T02560237 52019 IEM_DS3505
ZBAA,1998-07-24 16:00,ZBAA 241600Z AUTO 13008KT 4SM 25/24 A2968 RMK SLP050 T02500240 IEM_DS3505
ZBAA,1998-07-24 17:00,ZBAA 241700Z AUTO 13008KT 4SM 25/24 A2968 RMK SLP050 T02500240 IEM_DS3505
ZBAA,1998-07-24 18:00,ZBAA 241800Z AUTO 11004KT 6SM 25/24 A2968 RMK SLP042 T02480239 52006 IEM_DS3505
ZBAA,1998-07-24 19:00,ZBAA 241900Z AUTO 11008KT 4SM 23/22 A2968 RMK SLP051 T02300220 IEM_DS3505
ZBAA,1998-07-24 20:00,ZBAA 242000Z AUTO 11006KT 3SM 23/22 A2968 RMK SLP051 T02300220 IEM_DS3505
ZBAA,1998-07-24 21:00,ZBAA 242100Z AUTO 14004KT 5SM 24/23 A2971 RMK SLP048 T02370228 52006 IEM_DS3505
ZBAA,1998-07-24 22:00,ZBAA 242200Z AUTO 12006KT 2 1/2SM 23/22 A2971 RMK SLP061 T02300220 IEM_DS3505
ZBAA,1998-07-24 23:00,ZBAA 242300Z AUTO 13006KT 1 1/2SM 23/23 A2971 RMK SLP061 T02300230 IEM_DS3505
ZBAA,1998-07-25 00:00,ZBAA 250000Z AUTO 16006KT 6SM 25/23 A2974 RMK SLP060 T02480230 52012 IEM_DS3505
ZBAA,1998-07-25 01:00,ZBAA 250100Z AUTO 12006KT 2SM 23/23 A2974 RMK SLP071 T02300230 IEM_DS3505
ZBAA,1998-07-25 02:00,ZBAA 250200Z AUTO 12010KT 1 1/2SM 24/23 A2974 RMK SLP071 T02400230 IEM_DS3505
ZBAA,1998-07-25 03:00,ZBAA 250300Z AUTO 18006KT 5SM 27/23 A2974 RMK SLP063 T02730234 52003 IEM_DS3505
ZBAA,1998-07-25 04:00,ZBAA 250400Z AUTO 11006KT 1 1/2SM 26/24 A2974 RMK SLP070 T02600240 IEM_DS3505
ZBAA,1998-07-25 05:00,ZBAA 250500Z AUTO 12006KT 1 1/2SM 27/25 A2971 RMK SLP060 T02700250 IEM_DS3505
ZBAA,1998-07-25 06:00,ZBAA 250600Z AUTO 14004KT 5SM 29/24 A2971 RMK SLP054 T02930239 57009 IEM_DS3505
ZBAA,1998-07-25 07:00,ZBAA 250700Z AUTO 11006KT 2 1/2SM 27/25 A2968 RMK SLP050 T02700250 IEM_DS3505
ZBAA,1998-07-25 08:00,ZBAA 250800Z AUTO 12008KT 4SM 28/25 A2968 RMK SLP050 T02800250 IEM_DS3505
ZBAA,1998-07-25 09:00,ZBAA 250900Z AUTO 09006KT 5SM 29/25 A2968 RMK SLP045 T02880248 57009 IEM_DS3505
ZBAA,1998-07-25 10:00,ZBAA 251000Z AUTO 12006KT 7SM 28/25 A2968 RMK SLP050 T02800250 IEM_DS3505
ZBAA,1998-07-25 11:00,ZBAA 251100Z AUTO 12004KT 7SM 27/25 A2971 RMK SLP060 T02700250 IEM_DS3505
ZBAA,1998-07-25 12:00,ZBAA 251200Z AUTO 14008KT 6SM 27/23 A2971 RMK SLP054 T02670234 52009 IEM_DS3505
ZBAA,1998-07-25 13:00,ZBAA 251300Z AUTO 10004KT 7SM 26/24 A2974 RMK SLP070 T02600240 IEM_DS3505
ZBAA,1998-07-25 14:00,ZBAA 251400Z AUTO 11004KT 7SM 25/24 A2974 RMK SLP071 T02500240 IEM_DS3505
ZBAA,1998-07-25 15:00,ZBAA 251500Z AUTO 14006KT 7SM 25/23 A2974 RMK SLP061 T02530233 52007 IEM_DS3505
ZBAA,1998-07-25 16:00,ZBAA 251600Z AUTO 13002KT 7SM 25/24 A2974 RMK SLP071 T02500240 IEM_DS3505
ZBAA,1998-07-25 17:00,ZBAA 251700Z AUTO 11002KT 4SM 24/23 A2974 RMK SLP071 T02400230 IEM_DS3505
ZBAA,1998-07-25 18:00,ZBAA 251800Z AUTO 07004KT 3SM 24/23 A2974 RMK SLP059 T02420229 57002 IEM_DS3505
ZBAA,1998-07-25 19:00,ZBAA 251900Z AUTO 12004KT 4SM 24/23 A2974 RMK SLP071 T02400230 IEM_DS3505
ZBAA,1998-07-25 20:00,ZBAA 252000Z AUTO 12006KT 4SM 24/23 A2974 RMK SLP071 T02400230 IEM_DS3505
ZBAA,1998-07-25 21:00,ZBAA 252100Z AUTO 09004KT 2SM 24/23 A2974 RMK SLP061 T02350228 52002 IEM_DS3505
ZBAA,1998-07-25 22:00,ZBAA 252200Z AUTO 12004KT 4SM 23/23 A2974 RMK SLP071 T02300230 IEM_DS3505
ZBAA,1998-07-25 23:00,ZBAA 252300Z AUTO 11004KT 2 1/2SM 24/23 A2974 RMK SLP071 T02400230 IEM_DS3505
ZBAA,1998-07-26 00:00,ZBAA 260000Z AUTO 11004KT 2SM 24/23 A2974 RMK SLP064 T02390227 52003 IEM_DS3505
ZBAA,1998-07-26 02:00,ZBAA 260200Z AUTO 08002KT 3SM 24/23 A2974 RMK SLP071 T02400230 IEM_DS3505
ZBAA,1998-07-26 03:00,ZBAA 260300Z AUTO 02002KT 3SM 26/24 A2974 RMK SLP060 T02600237 57004 IEM_DS3505
ZBAA,1998-07-26 04:00,ZBAA 260400Z AUTO 11002KT 2SM 26/24 A2971 RMK SLP060 T02600240 IEM_DS3505
ZBAA,1998-07-26 05:00,ZBAA 260500Z AUTO 15002KT 1 1/2SM 26/24 A2971 RMK SLP060 T02600240 IEM_DS3505
ZBAA,1998-07-26 06:00,ZBAA 260600Z AUTO 09002KT 2 1/2SM 28/25 A2971 RMK SLP052 T02750247 57008 IEM_DS3505
ZBAA,1998-07-26 07:00,ZBAA 260700Z AUTO 00000KT 1 1/4SM 27/25 A2968 RMK SLP050 T02700250 IEM_DS3505
ZBAA,1998-07-26 08:00,ZBAA 260800Z AUTO 03002KT 1 1/4SM 27/25 A2968 RMK SLP050 T02700250 IEM_DS3505
ZBAA,1998-07-26 09:00,ZBAA 260900Z AUTO 07002KT 3SM 29/26 A2965 RMK SLP041 T02860257 57011 IEM_DS3505
ZBAA,1998-07-26 10:00,ZBAA 261000Z AUTO 04002KT 1 1/4SM 27/26 A2965 RMK SLP040 T02700260 IEM_DS3505
ZBAA,1998-07-26 11:00,ZBAA 261100Z AUTO 35002KT 1 1/4SM 27/26 A2968 RMK SLP050 T02700260 IEM_DS3505
ZBAA,1998-07-26 12:00,ZBAA 261200Z AUTO 04004KT 2SM 27/25 A2968 RMK SLP040 T02720254 57001 IEM_DS3505
ZBAA,1998-07-26 13:00,ZBAA 261300Z AUTO 03002KT 1SM 26/25 A2968 RMK SLP050 T02600250 IEM_DS3505
ZBAA,1998-07-26 15:00,ZBAA 261500Z AUTO 02004KT 2SM 26/25 A2968 RMK SLP047 T02610247 52007 IEM_DS3505
ZBAA,1998-07-26 16:00,ZBAA 261600Z AUTO 00000KT 1SM 25/25 A2968 RMK SLP050 T02500250 IEM_DS3505
ZBAA,1998-07-26 17:00,ZBAA 261700Z AUTO 08002KT 1SM 25/25 A2968 RMK SLP050 T02500250 IEM_DS3505
ZBAA,1998-07-26 18:00,ZBAA 261800Z AUTO 07002KT 1 1/4SM 25/24 A2968 RMK SLP046 T02540245 57001 IEM_DS3505
ZBAA,1998-07-26 19:00,ZBAA 261900Z AUTO 09002KT 1 1/4SM 25/24 A2968 RMK SLP050 T02500240 IEM_DS3505
ZBAA,1998-07-26 20:00,ZBAA 262000Z AUTO 09004KT 2SM 25/24 A2968 RMK SLP050 T02500240 IEM_DS3505
ZBAA,1998-07-26 21:00,ZBAA 262100Z AUTO 34002KT 1 1/4SM 25/24 A2968 RMK SLP044 T02500243 57002 IEM_DS3505
ZBAA,1998-07-26 22:00,ZBAA 262200Z AUTO 00000KT 2SM 25/24 A2968 RMK SLP050 T02500240 IEM_DS3505
ZBAA,1998-07-26 23:00,ZBAA 262300Z AUTO 11002KT 2SM 25/24 A2968 RMK SLP050 T02500240 IEM_DS3505
ZBAA,1998-07-27 00:00,ZBAA 270000Z AUTO 07004KT 1 1/4SM 26/24 A2968 RMK SLP045 T02580245 52001 IEM_DS3505
ZBAA,1998-07-27 01:00,ZBAA 270100Z AUTO 12004KT 2SM 26/25 A2968 RMK SLP050 T02600250 IEM_DS3505
ZBAA,1998-07-27 03:00,ZBAA 270300Z AUTO 14004KT 2SM 29/26 A2968 RMK SLP045 T02860257 54000 IEM_DS3505
ZBAA,1998-07-27 04:00,ZBAA 270400Z AUTO 14004KT 1 1/4SM 28/26 A2968 RMK SLP050 T02800260 IEM_DS3505
ZBAA,1998-07-27 05:00,ZBAA 270500Z AUTO ////02KT 1 1/4SM 29/27 A2965 RMK SLP040 T02900270 IEM_DS3505
ZBAA,1998-07-27 06:00,ZBAA 270600Z AUTO 22004KT 2 1/2SM 32/27 A2965 RMK SLP033 T03180273 57012 IEM_DS3505
ZBAA,1998-07-27 07:00,ZBAA 270700Z AUTO 06002KT 1 1/4SM 31/27 A2962 RMK SLP029 T03100270 IEM_DS3505
ZBAA,1998-07-27 08:00,ZBAA 270800Z AUTO 01004KT 1 1/4SM 30/28 A2962 RMK SLP029 T03000280 IEM_DS3505
ZBAA,1998-07-27 09:00,ZBAA 270900Z AUTO 20002KT 6SM 32/24 A2960 RMK SLP021 T03160244 57012 IEM_DS3505
ZBAA,1998-07-27 10:00,ZBAA 271000Z AUTO 03004KT 1 1/4SM 29/27 A2959 RMK SLP019 T02900270 IEM_DS3505
ZBAA,1998-07-27 11:00,ZBAA 271100Z AUTO 01006KT 1SM 29/27 A2959 RMK SLP019 T02900270 IEM_DS3505
ZBAA,1998-07-27 12:00,ZBAA 271200Z AUTO 34002KT 2SM 29/26 A2962 RMK SLP025 T02910265 52004 IEM_DS3505
ZBAA,1998-07-27 13:00,ZBAA 271300Z AUTO 35004KT 1SM 28/27 A2965 RMK SLP040 T02800270 IEM_DS3505
ZBAA,1998-07-27 14:00,ZBAA 271400Z AUTO 35004KT 1SM 27/26 A2965 RMK SLP040 T02700260 IEM_DS3505
ZBAA,1998-07-27 15:00,ZBAA 271500Z AUTO 00000KT 2SM 28/26 A2965 RMK SLP031 T02770259 52006 IEM_DS3505
ZBAA,1998-07-27 16:00,ZBAA 271600Z AUTO 03002KT 2 1/2SM 27/24 A2965 RMK SLP040 T02700240 IEM_DS3505
ZBAA,1998-07-27 17:00,ZBAA 271700Z AUTO 32012KT 4SM 27/23 A2965 RMK SLP040 T02700230 IEM_DS3505
ZBAA,1998-07-27 18:00,ZBAA 271800Z AUTO 36006KT 4SM 27/22 A2965 RMK SLP036 T02690222 52005 IEM_DS3505
ZBAA,1998-07-27 20:00,ZBAA 272000Z AUTO 03004KT 4SM 24/22 A2968 RMK SLP051 T02400220 IEM_DS3505
ZBAA,1998-07-27 21:00,ZBAA 272100Z AUTO 02006KT 6SM 24/21 A2968 RMK SLP037 T02450206 52001 IEM_DS3505
ZBAA,1998-07-27 22:00,ZBAA 272200Z AUTO 36008KT 7SM 24/21 A2965 RMK SLP041 T02400210 IEM_DS3505
ZBAA,1998-07-27 23:00,ZBAA 272300Z AUTO 36006KT 7SM 24/22 A2968 RMK SLP051 T02400220 IEM_DS3505
ZBAA,1998-07-28 00:00,ZBAA 280000Z AUTO 02008KT 6SM 24/20 A2968 RMK SLP040 T02450204 52003 IEM_DS3505
ZBAA,1998-07-28 01:00,ZBAA 280100Z AUTO 35006KT 6SM 25/22 A2968 RMK SLP050 T02500220 IEM_DS3505
ZBAA,1998-07-28 02:00,ZBAA 280200Z AUTO 01002KT 7SM 25/22 A2968 RMK SLP050 T02500220 IEM_DS3505
ZBAA,1998-07-28 03:00,ZBAA 280300Z AUTO 02006KT 2 1/2SM 25/22 A2966 RMK SLP045 T02510220 52005 IEM_DS3505
ZBAA,1998-07-28 04:00,ZBAA 280400Z AUTO 03002KT 7SM 26/23 A2968 RMK SLP050 T02600230 IEM_DS3505
ZBAA,1998-07-28 05:00,ZBAA 280500Z AUTO 09002KT 6SM 26/24 A2968 RMK SLP050 T02600240 IEM_DS3505
ZBAA,1998-07-28 06:00,ZBAA 280600Z AUTO 00000KT 3SM 24/23 A2965 RMK 60008 SLP036 T02420233 57009 IEM_DS3505
ZBAA,1998-07-28 07:00,ZBAA 280700Z AUTO 12004KT 7SM 28/23 A2965 RMK SLP040 T02800230 IEM_DS3505
ZBAA,1998-07-28 08:00,ZBAA 280800Z AUTO 14004KT 6SM 28/24 A2962 RMK SLP030 T02800240 IEM_DS3505
ZBAA,1998-07-28 09:00,ZBAA 280900Z AUTO 11006KT 3SM 27/24 A2962 RMK SLP029 T02670237 57007 IEM_DS3505
ZBAA,1998-07-28 10:00,ZBAA 281000Z AUTO 13004KT 4SM 27/24 A2962 RMK SLP030 T02700240 IEM_DS3505
ZBAA,1998-07-28 11:00,ZBAA 281100Z AUTO 11002KT 3SM 26/24 A2965 RMK SLP040 T02600240 IEM_DS3505
ZBAA,1998-07-28 12:00,ZBAA 281200Z AUTO 09002KT 4SM 25/23 A2965 RMK SLP035 T02480233 52006 IEM_DS3505
ZBAA,1998-07-28 13:00,ZBAA 281300Z AUTO 13002KT 2 1/2SM 24/24 A2968 RMK SLP051 T02400240 IEM_DS3505
ZBAA,1998-07-28 14:00,ZBAA 281400Z AUTO 14002KT 2SM 24/23 A2968 RMK SLP051 T02400230 IEM_DS3505
ZBAA,1998-07-28 15:00,ZBAA 281500Z AUTO 04004KT 4SM 23/22 A2968 RMK SLP046 T02280219 52011 IEM_DS3505
ZBAA,1998-07-28 16:00,ZBAA 281600Z AUTO 00000KT 2SM 23/23 A2968 RMK SLP051 T02300230 IEM_DS3505
ZBAA,1998-07-28 17:00,ZBAA 281700Z AUTO 36002KT 2SM 23/23 A2968 RMK SLP051 T02300230 IEM_DS3505
ZBAA,1998-07-28 18:00,ZBAA 281800Z AUTO 00000KT 5SM 23/22 A2968 RMK SLP046 T02260222 57001 IEM_DS3505
ZBAA,1998-07-28 19:00,ZBAA 281900Z AUTO 00000KT 2SM 23/22 A2968 RMK SLP051 T02300220 IEM_DS3505
ZBAA,1998-07-28 20:00,ZBAA 282000Z AUTO 27002KT 1 1/4SM 23/23 A2968 RMK SLP051 T02300230 IEM_DS3505
ZBAA,1998-07-28 21:00,ZBAA 282100Z AUTO 00000KT 1 1/4SM 23/22 A2968 RMK 70008 SLP045 T02270223 54000 IEM_DS3505
ZBAA,1998-07-28 22:00,ZBAA 282200Z AUTO 00000KT 1SM 23/22 A2968 RMK SLP051 T02300220 IEM_DS3505
ZBAA,1998-07-28 23:00,ZBAA 282300Z AUTO 00000KT 1 1/4SM 24/23 A2968 RMK SLP051 T02400230 IEM_DS3505
ZBAA,1998-07-29 00:00,ZBAA 290000Z AUTO 36002KT 2SM 26/23 A2968 RMK 70008 SLP047 T02550227 52002 IEM_DS3505
ZBAA,1998-07-29 01:00,ZBAA 290100Z AUTO 15002KT 2SM 26/24 A2968 RMK SLP050 T02600240 IEM_DS3505
ZBAA,1998-07-29 02:00,ZBAA 290200Z AUTO 05002KT 2SM 28/24 A2968 RMK SLP050 T02800240 IEM_DS3505
ZBAA,1998-07-29 03:00,ZBAA 290300Z AUTO 14002KT 2 1/2SM 29/24 A2968 RMK SLP048 T02910237 52001 IEM_DS3505
ZBAA,1998-07-29 04:00,ZBAA 290400Z AUTO 12002KT 2 1/2SM 30/26 A2968 RMK SLP049 T03000260 IEM_DS3505
ZBAA,1998-07-29 05:00,ZBAA 290500Z AUTO ////02KT 2 1/2SM 30/25 A2965 RMK SLP039 T03000250 IEM_DS3505
ZBAA,1998-07-29 06:00,ZBAA 290600Z AUTO 16006KT 3SM 31/24 A2965 RMK SLP040 T03090239 57008 IEM_DS3505
ZBAA,1998-07-29 07:00,ZBAA 290700Z AUTO 16006KT 3SM 32/26 A2965 RMK SLP039 T03200260 IEM_DS3505
ZBAA,1998-07-29 08:00,ZBAA 290800Z AUTO 16006KT 1 1/2SM 31/26 A2962 RMK SLP029 T03100260 IEM_DS3505
ZBAA,1998-07-29 09:00,ZBAA 290900Z AUTO 20006KT 3SM 31/25 A2962 RMK SLP031 T03100248 57009 IEM_DS3505
ZBAA,1998-07-29 10:00,ZBAA 291000Z AUTO 15004KT 2SM 30/25 A2962 RMK SLP029 T03000250 IEM_DS3505
ZBAA,1998-07-29 11:00,ZBAA 291100Z AUTO 13002KT 2SM 29/26 A2965 RMK SLP040 T02900260 IEM_DS3505
ZBAA,1998-07-29 12:00,ZBAA 291200Z AUTO 00000KT 3SM 29/25 A2965 RMK SLP034 T02880254 52003 IEM_DS3505
ZBAA,1998-07-29 13:00,ZBAA 291300Z AUTO 13004KT 1 1/2SM 28/26 A2968 RMK SLP050 T02800260 IEM_DS3505
ZBAA,1998-07-29 14:00,ZBAA 291400Z AUTO 14002KT 1 1/2SM 27/26 A2968 RMK SLP050 T02700260 IEM_DS3505
ZBAA,1998-07-29 15:00,ZBAA 291500Z AUTO 11002KT 2SM 26/25 A2968 RMK SLP039 T02630249 52005 IEM_DS3505
ZBAA,1998-07-29 16:00,ZBAA 291600Z AUTO 00000KT 1 1/4SM 26/26 A2968 RMK SLP050 T02600260 IEM_DS3505
ZBAA,1998-07-29 17:00,ZBAA 291700Z AUTO 00000KT 1 1/4SM 26/25 A2968 RMK SLP050 T02600250 IEM_DS3505
ZBAA,1998-07-29 18:00,ZBAA 291800Z AUTO 16004KT 1 1/2SM 26/25 A2968 RMK SLP044 T02590249 52005 IEM_DS3505
ZBAA,1998-07-29 19:00,ZBAA 291900Z AUTO 00000KT 1SM 25/25 A2968 RMK SLP050 T02500250 IEM_DS3505
ZBAA,1998-07-29 20:00,ZBAA 292000Z AUTO 09002KT 1SM 25/25 A2968 RMK SLP050 T02500250 IEM_DS3505
ZBAA,1998-07-29 21:00,ZBAA 292100Z AUTO 36002KT 1SM 25/24 A2968 RMK SLP046 T02480245 52002 IEM_DS3505
ZBAA,1998-07-29 22:00,ZBAA 292200Z AUTO 12002KT 1/2SM 25/25 A2971 RMK SLP060 T02500250 IEM_DS3505
ZBAA,1998-07-29 23:00,ZBAA 292300Z AUTO 10002KT 1SM 25/25 A2971 RMK SLP060 T02500250 IEM_DS3505
ZBAA,1998-07-30 00:00,ZBAA 300000Z AUTO 07004KT 1SM 27/25 A2971 RMK SLP053 T02670254 52007 IEM_DS3505
ZBAA,1998-07-30 01:00,ZBAA 300100Z AUTO 10004KT 1SM 27/26 A2971 RMK SLP060 T02700260 IEM_DS3505
ZBAA,1998-07-30 02:00,ZBAA 300200Z AUTO 08002KT 1SM 29/27 A2971 RMK SLP060 T02900270 IEM_DS3505
ZBAA,1998-07-30 03:00,ZBAA 300300Z AUTO 11004KT 1 1/4SM 30/25 A2971 RMK SLP053 T02960251 54000 IEM_DS3505
ZBAA,1998-07-30 04:00,ZBAA 300400Z AUTO 13004KT 12SM RMK IEM_DS3505
ZBAA,1998-07-30 05:00,ZBAA 300500Z AUTO 15004KT 2SM 31/26 A2968 RMK SLP049 T03100260 IEM_DS3505
ZBAA,1998-07-30 06:00,ZBAA 300600Z AUTO 14008KT 2SM 31/24 A2965 RMK SLP040 T03100240 57013 IEM_DS3505
ZBAA,1998-07-30 07:00,ZBAA 300700Z AUTO 13006KT 2SM 32/26 A2965 RMK SLP039 T03200260 IEM_DS3505
ZBAA,1998-07-30 08:00,ZBAA 300800Z AUTO 13006KT 2SM 31/25 A2962 RMK SLP029 T03100250 IEM_DS3505
ZBAA,1998-07-30 09:00,ZBAA 300900Z AUTO 14006KT 3SM 31/25 A2962 RMK SLP029 T03090246 57011 IEM_DS3505
ZBAA,1998-07-30 12:00,ZBAA 301200Z AUTO 11004KT 4SM 27/25 A2970 RMK SLP034 T02730246 52005 IEM_DS3505
ZBAA,1998-07-30 15:00,ZBAA 301500Z AUTO 09002KT 3SM 25/23 A2967 RMK SLP046 T02480226 52012 IEM_DS3505
ZBAA,1998-07-30 16:00,ZBAA 301600Z AUTO 11002KT 2 1/2SM 25/24 A2968 RMK SLP050 T02500240 IEM_DS3505
ZBAA,1998-07-30 17:00,ZBAA 301700Z AUTO 13002KT 2 1/2SM 25/24 A2968 RMK SLP050 T02500240 IEM_DS3505
ZBAA,1998-07-30 18:00,ZBAA 301800Z AUTO 00000KT 2 1/2SM 24/23 A2968 RMK SLP048 T02440231 52002 IEM_DS3505
ZBAA,1998-07-30 19:00,ZBAA 301900Z AUTO 00000KT 2 1/2SM 24/23 A2968 RMK SLP051 T02400230 IEM_DS3505
ZBAA,1998-07-30 20:00,ZBAA 302000Z AUTO 00000KT 2 1/2SM 24/23 A2968 RMK SLP051 T02400230 IEM_DS3505
ZBAA,1998-07-30 21:00,ZBAA 302100Z AUTO 02004KT 2 1/2SM 24/23 A2968 RMK SLP043 T02360229 57005 IEM_DS3505
ZBAA,1998-07-30 22:00,ZBAA 302200Z AUTO 00000KT 1 1/4SM 23/23 A2968 RMK SLP051 T02300230 IEM_DS3505
ZBAA,1998-07-30 23:00,ZBAA 302300Z AUTO 00000KT 1 1/4SM 24/24 A2971 RMK SLP061 T02400240 IEM_DS3505
ZBAA,1998-07-31 00:00,ZBAA 310000Z AUTO 00000KT 2 1/2SM 24/23 A2971 RMK SLP053 T02450229 52010 IEM_DS3505
ZBAA,1998-07-31 01:00,ZBAA 310100Z AUTO 13004KT 2SM 26/24 A2971 RMK SLP060 T02600240 IEM_DS3505
ZBAA,1998-07-31 02:00,ZBAA 310200Z AUTO 12004KT 2SM 27/24 A2968 RMK SLP050 T02700240 IEM_DS3505
ZBAA,1998-07-31 03:00,ZBAA 310300Z AUTO 14006KT 6SM 28/23 A2968 RMK SLP047 T02790227 57006 IEM_DS3505
ZBAA,1998-07-31 04:00,ZBAA 310400Z AUTO 16004KT 4SM 28/24 A2965 RMK SLP040 T02800240 IEM_DS3505
ZBAA,1998-07-31 05:00,ZBAA 310500Z AUTO 14004KT 7SM 30/24 A2965 RMK SLP039 T03000240 IEM_DS3505
ZBAA,1998-07-31 06:00,ZBAA 310600Z AUTO 09002KT 6SM 30/23 A2962 RMK SLP026 T02950228 57021 IEM_DS3505
ZBAA,1998-07-31 07:00,ZBAA 310700Z AUTO 18006KT 7SM 29/24 A2959 RMK SLP019 T02900240 IEM_DS3505
ZBAA,1998-07-31 08:00,ZBAA 310800Z AUTO 15004KT 7SM 29/24 A2956 RMK SLP009 T02900240 IEM_DS3505
ZBAA,1998-07-31 09:00,ZBAA 310900Z AUTO 25002KT 6SM 30/23 A2956 RMK SLP009 T02980232 57017 IEM_DS3505
ZBAA,1998-07-31 10:00,ZBAA 311000Z AUTO 20004KT 6SM 29/24 A2956 RMK SLP009 T02900240 IEM_DS3505
ZBAA,1998-07-31 11:00,ZBAA 311100Z AUTO 16002KT 6SM 28/25 A2956 RMK SLP010 T02800250 IEM_DS3505
ZBAA,1998-07-31 12:00,ZBAA 311200Z AUTO 22002KT 6SM 28/24 A2959 RMK SLP013 T02780235 52004 IEM_DS3505
ZBAA,1998-07-31 13:00,ZBAA 311300Z AUTO 00000KT 4SM 26/25 A2959 RMK SLP020 T02600250 IEM_DS3505
ZBAA,1998-07-31 14:00,ZBAA 311400Z AUTO 00000KT 4SM 26/25 A2959 RMK SLP020 T02600250 IEM_DS3505
ZBAA,1998-07-31 15:00,ZBAA 311500Z AUTO 00000KT 6SM 25/24 A2959 RMK SLP014 T02510238 52001 IEM_DS3505
ZBAA,1998-07-31 16:00,ZBAA 311600Z AUTO 00000KT 2 1/2SM 25/25 A2956 RMK SLP010 T02500250 IEM_DS3505
ZBAA,1998-07-31 17:00,ZBAA 311700Z AUTO 14004KT 2 1/2SM 25/24 A2956 RMK SLP010 T02500240 IEM_DS3505
ZBAA,1998-07-31 18:00,ZBAA 311800Z AUTO 11002KT 6SM 24/23 A2956 RMK SLP009 T02450229 57005 IEM_DS3505
ZBAA,1998-07-31 19:00,ZBAA 311900Z AUTO 17002KT 3SM 24/24 A2956 RMK SLP010 T02400240 IEM_DS3505
ZBAA,1998-07-31 20:00,ZBAA 312000Z AUTO 10002KT 3SM 24/24 A2956 RMK SLP010 T02400240 IEM_DS3505
ZBAA,1998-07-31 21:00,ZBAA 312100Z AUTO 22002KT 5SM 24/23 A2956 RMK SLP007 T02450233 57002 IEM_DS3505
ZBAA,1998-07-31 22:00,ZBAA 312200Z AUTO 10002KT 2SM 24/24 A2956 RMK SLP010 T02400240 IEM_DS3505
ZBAA,1998-07-31 23:00,ZBAA 312300Z AUTO 19002KT 2 1/2SM 24/24 A2956 RMK SLP010 T02400240 IEM_DS3505
ZBAA,1998-08-01 00:00,ZBAA 010000Z AUTO 00000KT 5SM 24/22 A2959 RMK 60000 SLP013 T02400225 52006 IEM_DS3505
ZBAA,1998-08-01 01:00,ZBAA 010100Z AUTO 07002KT 2SM 25/25 A2956 RMK SLP010 T02500250 IEM_DS3505
ZBAA,1998-08-01 02:00,ZBAA 010200Z AUTO 00000KT 1 1/4SM 26/25 A2959 RMK SLP020 T02600250 IEM_DS3505
ZBAA,1998-08-01 03:00,ZBAA 010300Z AUTO 20004KT 6SM 29/21 A2956 RMK SLP012 T02860212 57001 IEM_DS3505
ZBAA,1998-08-01 04:00,ZBAA 010400Z AUTO 10004KT 1SM 29/25 A2956 RMK SLP009 T02900250 IEM_DS3505
ZBAA,1998-08-01 05:00,ZBAA 010500Z AUTO 16004KT 2 1/2SM 30/23 A2953 RMK SLP999 T03000230 IEM_DS3505
ZBAA,1998-08-01 06:00,ZBAA 010600Z AUTO 20006KT 6SM 31/22 A2953 RMK SLP996 T03120225 57016 IEM_DS3505
ZBAA,1998-08-01 07:00,ZBAA 010700Z AUTO 17006KT 5SM 31/24 A2950 RMK SLP989 T03100240 IEM_DS3505
ZBAA,1998-08-01 08:00,ZBAA 010800Z AUTO 15008KT 5SM 31/24 A2947 RMK SLP978 T03100240 IEM_DS3505
ZBAA,1998-08-01 09:00,ZBAA 010900Z AUTO 22008KT 6SM 31/23 A2947 RMK SLP984 T03120232 57012 IEM_DS3505
ZBAA,1998-08-01 10:00,ZBAA 011000Z AUTO 17008KT 7SM 30/24 A2950 RMK SLP989 T03000240 IEM_DS3505
ZBAA,1998-08-01 11:00,ZBAA 011100Z AUTO 17004KT 5SM 29/24 A2950 RMK SLP989 T02900240 IEM_DS3505
ZBAA,1998-08-01 12:00,ZBAA 011200Z AUTO 18002KT 4SM 28/24 A2953 RMK SLP993 T02840241 52009 IEM_DS3505
ZBAA,1998-08-01 13:00,ZBAA 011300Z AUTO 13002KT 4SM 27/24 A2956 RMK SLP010 T02700240 IEM_DS3505
ZBAA,1998-08-01 14:00,ZBAA 011400Z AUTO ////02KT 3SM 27/24 A2956 RMK SLP010 T02700240 IEM_DS3505
ZBAA,1998-08-01 15:00,ZBAA 011500Z AUTO 32012KT 4SM 27/24 A2959 RMK SLP009 T02730243 52016 IEM_DS3505
ZBAA,1998-08-01 16:00,ZBAA 011600Z AUTO ////02KT 7SM 24/19 A2956 RMK SLP010 T02400190 IEM_DS3505
ZBAA,1998-08-01 17:00,ZBAA 011700Z AUTO 32006KT 7SM 23/19 A2956 RMK SLP011 T02300190 IEM_DS3505
ZBAA,1998-08-01 18:00,ZBAA 011800Z AUTO 04004KT 7SM 24/19 A2959 RMK SLP012 T02360188 52003 IEM_DS3505
ZBAA,1998-08-01 19:00,ZBAA 011900Z AUTO 02004KT 7SM 22/20 A2959 RMK SLP021 T02200200 IEM_DS3505
ZBAA,1998-08-01 20:00,ZBAA 012000Z AUTO 10002KT 7SM 22/19 A2959 RMK SLP021 T02200190 IEM_DS3505
ZBAA,1998-08-01 21:00,ZBAA 012100Z AUTO 36002KT 4SM 22/19 A2957 RMK 70000 SLP014 T02230194 52002 IEM_DS3505
ZBAA,1998-08-01 22:00,ZBAA 012200Z AUTO 09002KT 6SM 22/20 A2962 RMK SLP031 T02200200 IEM_DS3505
ZBAA,1998-08-01 23:00,ZBAA 012300Z AUTO 04002KT 6SM 23/21 A2962 RMK SLP031 T02300210 IEM_DS3505
ZBAA,1998-08-02 00:00,ZBAA 020000Z AUTO 04002KT 4SM 24/21 A2962 RMK SLP028 T02410209 52014 IEM_DS3505
ZBAA,1998-08-02 01:00,ZBAA 020100Z AUTO ////02KT 7SM 25/22 A2962 RMK SLP030 T02500220 IEM_DS3505
ZBAA,1998-08-02 03:00,ZBAA 020300Z AUTO 09004KT 4SM 27/22 A2962 RMK SLP027 T02730218 57001 IEM_DS3505
ZBAA,1998-08-02 04:00,ZBAA 020400Z AUTO ////02KT 4SM 28/23 A2962 RMK SLP030 T02800230 IEM_DS3505
ZBAA,1998-08-02 05:00,ZBAA 020500Z AUTO 15004KT 4SM 28/23 A2962 RMK SLP030 T02800230 IEM_DS3505
ZBAA,1998-08-02 06:00,ZBAA 020600Z AUTO 11004KT 5SM 29/24 A2959 RMK SLP020 T02920238 57007 IEM_DS3505
ZBAA,1998-08-02 07:00,ZBAA 020700Z AUTO 11004KT 4SM 30/24 A2959 RMK SLP019 T03000240 IEM_DS3505
ZBAA,1998-08-02 08:00,ZBAA 020800Z AUTO 13004KT 4SM 29/24 A2956 RMK SLP009 T02900240 IEM_DS3505
ZBAA,1998-08-02 09:00,ZBAA 020900Z AUTO 00000KT 3SM 29/25 A2956 RMK SLP009 T02930249 57011 IEM_DS3505
ZBAA,1998-08-02 10:00,ZBAA 021000Z AUTO 08004KT 3SM 29/25 A2956 RMK SLP009 T02900250 IEM_DS3505
ZBAA,1998-08-02 11:00,ZBAA 021100Z AUTO 05002KT 2SM 28/25 A2959 RMK SLP020 T02800250 IEM_DS3505
ZBAA,1998-08-02 12:00,ZBAA 021200Z AUTO 34004KT 4SM 28/26 A2959 RMK SLP017 T02820255 52008 IEM_DS3505
ZBAA,1998-08-02 13:00,ZBAA 021300Z AUTO 09002KT 2SM 27/25 A2962 RMK SLP030 T02700250 IEM_DS3505
ZBAA,1998-08-02 14:00,ZBAA 021400Z AUTO 14006KT 2SM 27/26 A2965 RMK SLP040 T02700260 IEM_DS3505
ZBAA,1998-08-02 15:00,ZBAA 021500Z AUTO 14004KT 3SM 25/20 A2965 RMK SLP034 T02520195 52017 IEM_DS3505
ZBAA,1998-08-02 16:00,ZBAA 021600Z AUTO 15006KT 2 1/2SM 25/24 A2965 RMK SLP040 T02500240 IEM_DS3505
ZBAA,1998-08-02 17:00,ZBAA 021700Z AUTO 08002KT 2 1/2SM 25/23 A2968 RMK SLP050 T02500230 IEM_DS3505
ZBAA,1998-08-02 18:00,ZBAA 021800Z AUTO 36004KT 4SM 24/22 A2968 RMK SLP034 T02400222 54000 IEM_DS3505
ZBAA,1998-08-02 19:00,ZBAA 021900Z AUTO 10002KT 6SM 23/21 A2965 RMK SLP041 T02300210 IEM_DS3505
ZBAA,1998-08-02 20:00,ZBAA 022000Z AUTO 00000KT 6SM 23/21 A2965 RMK SLP041 T02300210 IEM_DS3505
ZBAA,1998-08-02 21:00,ZBAA 022100Z AUTO 04004KT 4SM 24/22 A2968 RMK SLP045 T02410225 52011 IEM_DS3505
ZBAA,1998-08-02 22:00,ZBAA 022200Z AUTO 10004KT 5SM 23/21 A2968 RMK SLP051 T02300210 IEM_DS3505
ZBAA,1998-08-02 23:00,ZBAA 022300Z AUTO ////02KT 4SM 23/22 A2971 RMK SLP061 T02300220 IEM_DS3505
ZBAA,1998-08-03 00:00,ZBAA 030000Z AUTO 04004KT 3SM 24/21 A2974 RMK SLP058 T02360210 52013 IEM_DS3505
ZBAA,1998-08-03 01:00,ZBAA 030100Z AUTO 12006KT 2 1/2SM 25/22 A2971 RMK SLP060 T02500220 IEM_DS3505
ZBAA,1998-08-03 02:00,ZBAA 030200Z AUTO 14004KT 2 1/2SM 26/23 A2971 RMK SLP060 T02600230 IEM_DS3505
ZBAA,1998-08-03 03:00,ZBAA 030300Z AUTO 09004KT 5SM 26/22 A2971 RMK SLP058 T02630222 54000 IEM_DS3505
ZBAA,1998-08-03 04:00,ZBAA 030400Z AUTO ////02KT 2 1/2SM 28/23 A2971 RMK SLP060 T02800230 IEM_DS3505
ZBAA,1998-08-03 05:00,ZBAA 030500Z AUTO ////02KT 2 1/2SM 28/24 A2968 RMK SLP050 T02800240 IEM_DS3505
ZBAA,1998-08-03 06:00,ZBAA 030600Z AUTO 11004KT 6SM 29/23 A2968 RMK SLP047 T02870234 57011 IEM_DS3505
ZBAA,1998-08-03 07:00,ZBAA 030700Z AUTO 11004KT 2 1/2SM 28/24 A2968 RMK SLP050 T02800240 IEM_DS3505
ZBAA,1998-08-03 08:00,ZBAA 030800Z AUTO 08002KT 2 1/2SM 28/24 A2968 RMK SLP050 T02800240 IEM_DS3505
ZBAA,1998-08-03 09:00,ZBAA 030900Z AUTO 09004KT 5SM 28/25 A2965 RMK SLP034 T02820254 57013 IEM_DS3505
ZBAA,1998-08-03 10:00,ZBAA 031000Z AUTO ////02KT 2SM 28/25 A2965 RMK SLP040 T02800250 IEM_DS3505
ZBAA,1998-08-03 11:00,ZBAA 031100Z AUTO ////02KT 2SM 27/25 A2965 RMK SLP040 T02700250 IEM_DS3505
ZBAA,1998-08-03 12:00,ZBAA 031200Z AUTO 07006KT 9SM 26/19 A2968 RMK SLP038 T02620191 52004 IEM_DS3505
ZBAA,1998-08-03 13:00,ZBAA 031300Z AUTO 00000KT 5SM 24/21 A2971 RMK SLP061 T02400210 IEM_DS3505
ZBAA,1998-08-03 14:00,ZBAA 031400Z AUTO 19019KT 9SM RMK IEM_DS3505
ZBAA,1998-08-03 15:00,ZBAA 031500Z AUTO 18010KT 6SM 23/19 A2977 RMK SLP072 T02260193 52033 IEM_DS3505
ZBAA,1998-08-03 16:00,ZBAA 031600Z AUTO 05004KT 6SM 23/21 A2974 RMK SLP071 T02300210 IEM_DS3505
ZBAA,1998-08-03 17:00,ZBAA 031700Z AUTO 01006KT 6SM 23/22 A2971 RMK SLP061 T02300220 IEM_DS3505
ZBAA,1998-08-03 18:00,ZBAA 031800Z AUTO 14006KT 6SM 22/21 A2968 RMK 60110 SLP055 T02230211 57016 IEM_DS3505
ZBAA,1998-08-03 19:00,ZBAA 031900Z AUTO 11002KT 6SM 23/22 A2968 RMK SLP051 T02300220 IEM_DS3505
ZBAA,1998-08-03 20:00,ZBAA 032000Z AUTO 09002KT 4SM 22/22 A2968 RMK SLP051 T02200220 IEM_DS3505
ZBAA,1998-08-03 21:00,ZBAA 032100Z AUTO 07002KT 6SM 22/21 A2968 RMK 70110 SLP048 T02220214 57007 IEM_DS3505
ZBAA,1998-08-03 22:00,ZBAA 032200Z AUTO ////02KT 4SM 22/22 A2971 RMK SLP061 T02200220 IEM_DS3505
ZBAA,1998-08-03 23:00,ZBAA 032300Z AUTO 36002KT 4SM 23/22 A2971 RMK SLP061 T02300220 IEM_DS3505
ZBAA,1998-08-04 00:00,ZBAA 040000Z AUTO 32002KT 5SM 24/21 A2971 RMK 70110 SLP054 T02440213 52006 IEM_DS3505
ZBAA,1998-08-04 01:00,ZBAA 040100Z AUTO 01002KT 6SM 25/22 A2971 RMK SLP060 T02500220 IEM_DS3505
ZBAA,1998-08-04 03:00,ZBAA 040300Z AUTO 04006KT 4SM 26/23 A2971 RMK SLP057 T02630226 52003 IEM_DS3505
ZBAA,1998-08-04 04:00,ZBAA 040400Z AUTO 14002KT 6SM 27/22 A2971 RMK SLP060 T02700220 IEM_DS3505
ZBAA,1998-08-04 05:00,ZBAA 040500Z AUTO 00000KT 6SM 28/23 A2968 RMK SLP050 T02800230 IEM_DS3505
ZBAA,1998-08-04 06:00,ZBAA 040600Z AUTO 29004KT 3SM 24/23 A2968 RMK 60016 SLP043 T02430230 57015 IEM_DS3505
ZBAA,1998-08-04 07:00,ZBAA 040700Z AUTO 02004KT 6SM 27/23 A2965 RMK SLP040 T02700230 IEM_DS3505
ZBAA,1998-08-04 08:00,ZBAA 040800Z AUTO 07002KT 6SM 28/23 A2962 RMK SLP030 T02800230 IEM_DS3505
ZBAA,1998-08-04 09:00,ZBAA 040900Z AUTO 11004KT 3SM 26/23 A2962 RMK SLP024 T02630230 57018 IEM_DS3505
ZBAA,1998-08-04 10:00,ZBAA 041000Z AUTO 12006KT 6SM 26/24 A2962 RMK SLP030 T02600240 IEM_DS3505
ZBAA,1998-08-04 11:00,ZBAA 041100Z AUTO 13004KT 7SM 25/23 A2962 RMK SLP030 T02500230 IEM_DS3505
ZBAA,1998-08-04 12:00,ZBAA 041200Z AUTO 11002KT 5SM 24/23 A2962 RMK 60001 SLP026 T02410229 52002 IEM_DS3505
ZBAA,1998-08-04 13:00,ZBAA 041300Z AUTO 15004KT 6SM 24/23 A2962 RMK SLP031 T02400230 IEM_DS3505
ZBAA,1998-08-04 14:00,ZBAA 041400Z AUTO 16002KT 6SM 23/23 A2962 RMK SLP031 T02300230 IEM_DS3505
ZBAA,1998-08-04 15:00,ZBAA 041500Z AUTO 00000KT 4SM 23/22 A2962 RMK SLP028 T02280222 52002 IEM_DS3505
ZBAA,1998-08-04 17:00,ZBAA 041700Z AUTO 15002KT 3SM 23/23 A2962 RMK SLP031 T02300230 IEM_DS3505
ZBAA,1998-08-04 18:00,ZBAA 041800Z AUTO 00000KT 2 1/2SM 22/22 A2962 RMK SLP025 T02200215 57004 IEM_DS3505
ZBAA,1998-08-04 19:00,ZBAA 041900Z AUTO 00000KT 1SM 22/22 A2959 RMK SLP021 T02200220 IEM_DS3505
ZBAA,1998-08-04 20:00,ZBAA 042000Z AUTO 12002KT 1SM 21/21 A2959 RMK SLP021 T02100210 IEM_DS3505
ZBAA,1998-08-04 21:00,ZBAA 042100Z AUTO 00000KT 1SM 21/21 A2959 RMK 70016 SLP021 T02090207 57003 IEM_DS3505
ZBAA,1998-08-04 22:00,ZBAA 042200Z AUTO 01002KT 1/8SM 22/22 A2962 RMK SLP031 T02200220 IEM_DS3505
ZBAA,1998-08-04 23:00,ZBAA 042300Z AUTO ////02KT 3/8SM 22/22 A2962 RMK SLP031 T02200220 IEM_DS3505
ZBAA,1998-08-05 00:00,ZBAA 050000Z AUTO 34002KT 1SM 23/22 A2965 RMK 70016 SLP028 T02290222 52007 IEM_DS3505
ZBAA,1998-08-05 01:00,ZBAA 050100Z AUTO 16002KT 1SM 24/24 A2965 RMK SLP041 T02400240 IEM_DS3505
ZBAA,1998-08-05 02:00,ZBAA 050200Z AUTO 11002KT 1 1/4SM 27/24 A2965 RMK SLP040 T02700240 IEM_DS3505
ZBAA,1998-08-05 03:00,ZBAA 050300Z AUTO 18006KT 2SM 28/24 A2962 RMK SLP031 T02760237 52003 IEM_DS3505
ZBAA,1998-08-05 04:00,ZBAA 050400Z AUTO ////04KT 6SM 30/23 A2962 RMK SLP029 T03000230 IEM_DS3505
ZBAA,1998-08-05 05:00,ZBAA 050500Z AUTO 17006KT 2 1/2SM 31/24 A2959 RMK SLP019 T03100240 IEM_DS3505
ZBAA,1998-08-05 06:00,ZBAA 050600Z AUTO 22006KT 6SM 31/24 A2959 RMK SLP017 T03100245 57014 IEM_DS3505
ZBAA,1998-08-05 07:00,ZBAA 050700Z AUTO 18012KT 6SM 32/25 A2956 RMK SLP009 T03200250 IEM_DS3505
ZBAA,1998-08-05 08:00,ZBAA 050800Z AUTO 18012KT 6SM 32/24 A2956 RMK SLP009 T03200240 IEM_DS3505
ZBAA,1998-08-05 09:00,ZBAA 050900Z AUTO 22008KT 5SM 31/24 A2953 RMK SLP004 T03130239 57013 IEM_DS3505
ZBAA,1998-08-05 10:00,ZBAA 051000Z AUTO 19006KT 3SM 32/25 A2953 RMK SLP999 T03200250 IEM_DS3505
ZBAA,1998-08-05 11:00,ZBAA 051100Z AUTO 15004KT 2 1/2SM 30/25 A2953 RMK SLP999 T03000250 IEM_DS3505
ZBAA,1998-08-05 12:00,ZBAA 051200Z AUTO 20006KT 3SM 28/25 A2956 RMK SLP003 T02850250 57001 IEM_DS3505
ZBAA,1998-08-05 13:00,ZBAA 051300Z AUTO 11004KT 1 1/2SM 27/26 A2956 RMK SLP010 T02700260 IEM_DS3505
ZBAA,1998-08-05 14:00,ZBAA 051400Z AUTO 12004KT 1 1/4SM 27/26 A2959 RMK SLP020 T02700260 IEM_DS3505
ZBAA,1998-08-05 15:00,ZBAA 051500Z AUTO 20002KT 2SM 26/24 A2959 RMK SLP012 T02650245 52009 IEM_DS3505
ZBAA,1998-08-05 16:00,ZBAA 051600Z AUTO 12004KT 1SM 26/25 A2959 RMK SLP020 T02600250 IEM_DS3505
ZBAA,1998-08-05 17:00,ZBAA 051700Z AUTO 00000KT 1SM 25/25 A2959 RMK SLP020 T02500250 IEM_DS3505
ZBAA,1998-08-05 18:00,ZBAA 051800Z AUTO 00000KT 2SM 25/24 A2959 RMK SLP011 T02490240 57001 IEM_DS3505
ZBAA,1998-08-05 19:00,ZBAA 051900Z AUTO 03002KT 1SM 25/25 A2959 RMK SLP020 T02500250 IEM_DS3505
ZBAA,1998-08-05 21:00,ZBAA 052100Z AUTO 00000KT 1/2SM 24/24 A2959 RMK SLP013 T02410237 52002 IEM_DS3505
ZBAA,1998-08-05 22:00,ZBAA 052200Z AUTO 04002KT 1/8SM 24/24 A2959 RMK SLP020 T02400240 IEM_DS3505
ZBAA,1998-08-05 23:00,ZBAA 052300Z AUTO 01002KT 1/4SM 25/25 A2959 RMK SLP020 T02500250 IEM_DS3505
ZBAA,1998-08-06 00:00,ZBAA 060000Z AUTO 04004KT 3/8SM 25/25 A2959 RMK SLP020 T02500247 52007 IEM_DS3505
ZBAA,1998-08-06 01:00,ZBAA 060100Z AUTO 02002KT 1/2SM 26/26 A2959 RMK SLP020 T02600260 IEM_DS3505
ZBAA,1998-08-06 02:00,ZBAA 060200Z AUTO 00000KT 1SM 28/26 A2959 RMK SLP020 T02800260 IEM_DS3505
ZBAA,1998-08-06 03:00,ZBAA 060300Z AUTO 14006KT 1SM 29/26 A2959 RMK SLP023 T02890261 52003 IEM_DS3505
ZBAA,1998-08-06 04:00,ZBAA 060400Z AUTO 17006KT 1 1/4SM 32/27 A2959 RMK SLP019 T03200270 IEM_DS3505
ZBAA,1998-08-06 05:00,ZBAA 060500Z AUTO 17004KT 2SM 33/27 A2959 RMK SLP019 T03300270 IEM_DS3505
ZBAA,1998-08-06 06:00,ZBAA 060600Z AUTO 14006KT 1 1/4SM 32/26 A2959 RMK SLP018 T03180263 57005 IEM_DS3505
ZBAA,1998-08-06 07:00,ZBAA 060700Z AUTO 17006KT 2SM 34/26 A2956 RMK SLP008 T03400260 IEM_DS3505
ZBAA,1998-08-06 08:00,ZBAA 060800Z AUTO 17006KT 2 1/2SM 34/25 A2956 RMK SLP008 T03400250 IEM_DS3505
ZBAA,1998-08-06 09:00,ZBAA 060900Z AUTO 18006KT 4SM 33/26 A2956 RMK SLP005 T03290265 57013 IEM_DS3505
ZBAA,1998-08-06 10:00,ZBAA 061000Z AUTO 15004KT 2 1/2SM 33/27 A2956 RMK SLP009 T03300270 IEM_DS3505
ZBAA,1998-08-06 11:00,ZBAA 061100Z AUTO 15004KT 2 1/2SM 31/28 A2956 RMK SLP009 T03100280 IEM_DS3505
ZBAA,1998-08-06 12:00,ZBAA 061200Z AUTO 00000KT 2 1/2SM 30/27 A2959 RMK SLP011 T02950272 52006 IEM_DS3505
ZBAA,1998-08-06 13:00,ZBAA 061300Z AUTO 10002KT 2SM 29/27 A2962 RMK SLP030 T02900270 IEM_DS3505
ZBAA,1998-08-06 14:00,ZBAA 061400Z AUTO 11004KT 2SM 28/27 A2962 RMK SLP030 T02800270 IEM_DS3505
ZBAA,1998-08-06 15:00,ZBAA 061500Z AUTO 20004KT 4SM 29/26 A2959 RMK SLP021 T02890263 52010 IEM_DS3505
ZBAA,1998-08-06 16:00,ZBAA 061600Z AUTO 12004KT 2SM 28/27 A2962 RMK SLP030 T02800270 IEM_DS3505
ZBAA,1998-08-06 17:00,ZBAA 061700Z AUTO 13004KT 2 1/2SM 28/27 A2959 RMK SLP020 T02800270 IEM_DS3505
ZBAA,1998-08-06 18:00,ZBAA 061800Z AUTO 16004KT 3SM 27/25 A2966 RMK SLP021 T02720251 54000 IEM_DS3505
ZBAA,1998-08-06 19:00,ZBAA 061900Z AUTO 13002KT 2SM 27/26 A2959 RMK SLP020 T02700260 IEM_DS3505
ZBAA,1998-08-06 20:00,ZBAA 062000Z AUTO 10004KT 2SM 27/26 A2959 RMK SLP020 T02700260 IEM_DS3505
ZBAA,1998-08-06 21:00,ZBAA 062100Z AUTO 07002KT 2 1/2SM 26/25 A2959 RMK SLP016 T02590249 57005 IEM_DS3505
ZBAA,1998-08-06 22:00,ZBAA 062200Z AUTO 14002KT 2SM 26/25 A2962 RMK SLP030 T02600250 IEM_DS3505
ZBAA,1998-08-07 00:00,ZBAA 070000Z AUTO 18006KT 2SM 25/23 A2969 RMK 60000 SLP031 T02530230 52015 IEM_DS3505
ZBAA,1998-08-07 02:00,ZBAA 070200Z AUTO ////02KT 2 1/2SM 27/24 A2965 RMK SLP040 T02700240 IEM_DS3505
ZBAA,1998-08-07 03:00,ZBAA 070300Z AUTO 02004KT 2 1/2SM 26/24 A2968 RMK SLP038 T02590237 52007 IEM_DS3505
ZBAA,1998-08-07 04:00,ZBAA 070400Z AUTO 00000KT 2SM 26/25 A2968 RMK SLP050 T02600250 IEM_DS3505
ZBAA,1998-08-07 05:00,ZBAA 070500Z AUTO ////02KT 2SM 26/24 A2968 RMK SLP050 T02600240 IEM_DS3505
ZBAA,1998-08-07 06:00,ZBAA 070600Z AUTO 32004KT 3SM 25/21 A2965 RMK SLP039 T02540212 52001 IEM_DS3505
ZBAA,1998-08-07 07:00,ZBAA 070700Z AUTO 02004KT 2 1/2SM 27/24 A2965 RMK SLP040 T02700240 IEM_DS3505
ZBAA,1998-08-07 08:00,ZBAA 070800Z AUTO 03006KT 4SM 27/23 A2962 RMK SLP030 T02700230 IEM_DS3505
ZBAA,1998-08-07 09:00,ZBAA 070900Z AUTO 34002KT 3SM 27/22 A2962 RMK SLP026 T02680224 57013 IEM_DS3505
ZBAA,1998-08-07 11:00,ZBAA 071100Z AUTO 01006KT 6SM 26/21 A2962 RMK SLP030 T02600210 IEM_DS3505
ZBAA,1998-08-07 12:00,ZBAA 071200Z AUTO 02004KT 3SM 26/21 A2962 RMK SLP022 T02570206 57004 IEM_DS3505
ZBAA,1998-08-07 13:00,ZBAA 071300Z AUTO 01004KT 6SM 24/21 A2962 RMK SLP031 T02400210 IEM_DS3505
ZBAA,1998-08-07 14:00,ZBAA 071400Z AUTO 35002KT 6SM 24/21 A2962 RMK SLP031 T02400210 IEM_DS3505
ZBAA,1998-08-07 15:00,ZBAA 071500Z AUTO 34004KT 6SM 24/20 A2962 RMK SLP028 T02440205 52006 IEM_DS3505
ZBAA,1998-08-07 17:00,ZBAA 071700Z AUTO 30004KT 6SM 24/21 A2962 RMK SLP031 T02400210 IEM_DS3505
ZBAA,1998-08-07 18:00,ZBAA 071800Z AUTO 25004KT 6SM 22/20 A2959 RMK SLP024 T02250205 57004 IEM_DS3505
ZBAA,1998-08-07 19:00,ZBAA 071900Z AUTO 30004KT 7SM 23/21 A2959 RMK SLP021 T02300210 IEM_DS3505
ZBAA,1998-08-07 20:00,ZBAA 072000Z AUTO 35002KT 7SM 22/21 A2959 RMK SLP021 T02200210 IEM_DS3505
ZBAA,1998-08-07 21:00,ZBAA 072100Z AUTO 25004KT 6SM 21/19 A2959 RMK 70000 SLP021 T02140189 57003 IEM_DS3505
ZBAA,1998-08-07 22:00,ZBAA 072200Z AUTO 32004KT 7SM 22/20 A2959 RMK SLP021 T02200200 IEM_DS3505
ZBAA,1998-08-07 23:00,ZBAA 072300Z AUTO 29006KT 7SM 23/20 A2959 RMK SLP021 T02300200 IEM_DS3505
ZBAA,1998-08-08 00:00,ZBAA 080000Z AUTO 25006KT 6SM 25/20 A2959 RMK SLP022 T02470200 52001 IEM_DS3505
ZBAA,1998-08-08 02:00,ZBAA 080200Z AUTO 30004KT 7SM 28/21 A2959 RMK SLP020 T02800210 IEM_DS3505
ZBAA,1998-08-08 03:00,ZBAA 080300Z AUTO 20008KT 7SM 29/20 A2956 RMK SLP017 T02880199 57005 IEM_DS3505
ZBAA,1998-08-08 04:00,ZBAA 080400Z AUTO ////04KT 7SM 31/19 A2956 RMK SLP009 T03100190 IEM_DS3505
ZBAA,1998-08-08 05:00,ZBAA 080500Z AUTO 22006KT 7SM 31/19 A2953 RMK SLP999 T03100190 IEM_DS3505
ZBAA,1998-08-08 06:00,ZBAA 080600Z AUTO 18008KT 9SM 31/21 A2953 RMK SLP004 T03080214 57013 IEM_DS3505
ZBAA,1998-08-08 07:00,ZBAA 080700Z AUTO 16006KT 6SM 31/22 A2953 RMK SLP999 T03100220 IEM_DS3505
ZBAA,1998-08-08 08:00,ZBAA 080800Z AUTO 17008KT 6SM 30/23 A2953 RMK SLP999 T03000230 IEM_DS3505
ZBAA,1998-08-08 09:00,ZBAA 080900Z AUTO 20008KT 6SM 30/23 A2950 RMK SLP996 T02990227 57008 IEM_DS3505
ZBAA,1998-08-08 10:00,ZBAA 081000Z AUTO 18008KT 6SM 30/24 A2953 RMK SLP999 T03000240 IEM_DS3505
ZBAA,1998-08-08 11:00,ZBAA 081100Z AUTO 19006KT 6SM 28/24 A2953 RMK SLP000 T02800240 IEM_DS3505
ZBAA,1998-08-08 12:00,ZBAA 081200Z AUTO 16004KT 7SM 27/24 A2956 RMK SLP005 T02690236 52009 IEM_DS3505
ZBAA,1998-08-08 13:00,ZBAA 081300Z AUTO 11004KT 3SM 26/24 A2959 RMK SLP020 T02600240 IEM_DS3505
ZBAA,1998-08-08 14:00,ZBAA 081400Z AUTO 13002KT 2 1/2SM 26/24 A2959 RMK SLP020 T02600240 IEM_DS3505
ZBAA,1998-08-08 15:00,ZBAA 081500Z AUTO 20002KT 9SM 26/24 A2959 RMK SLP017 T02630239 52012 IEM_DS3505
ZBAA,1998-08-08 16:00,ZBAA 081600Z AUTO 11004KT 2SM 25/24 A2959 RMK SLP020 T02500240 IEM_DS3505
ZBAA,1998-08-08 17:00,ZBAA 081700Z AUTO 12002KT 1 1/4SM 25/24 A2959 RMK SLP020 T02500240 IEM_DS3505
ZBAA,1998-08-08 18:00,ZBAA 081800Z AUTO 20004KT 2SM 25/24 A2959 RMK SLP016 T02480239 57001 IEM_DS3505
ZBAA,1998-08-08 19:00,ZBAA 081900Z AUTO 02002KT 1SM 24/24 A2959 RMK SLP020 T02400240 IEM_DS3505
ZBAA,1998-08-08 20:00,ZBAA 082000Z AUTO 00000KT 1SM 24/23 A2959 RMK SLP020 T02400230 IEM_DS3505
ZBAA,1998-08-08 21:00,ZBAA 082100Z AUTO 00000KT 1SM 24/23 A2959 RMK SLP017 T02410234 52001 IEM_DS3505
ZBAA,1998-08-08 22:00,ZBAA 082200Z AUTO 00000KT 1/2SM 24/24 A2959 RMK SLP020 T02400240 IEM_DS3505
ZBAA,1998-08-08 23:00,ZBAA 082300Z AUTO 00000KT 3/8SM 24/24 A2959 RMK SLP020 T02400240 IEM_DS3505
ZBAA,1998-08-09 00:00,ZBAA 090000Z AUTO 04006KT 3/8SM 25/24 A2962 RMK SLP024 T02460240 52007 IEM_DS3505
ZBAA,1998-08-09 01:00,ZBAA 090100Z AUTO ////02KT 1SM 28/26 A2962 RMK SLP030 T02800260 IEM_DS3505
ZBAA,1998-08-09 02:00,ZBAA 090200Z AUTO 14004KT 1 1/2SM 28/25 A2962 RMK SLP030 T02800250 IEM_DS3505
ZBAA,1998-08-09 03:00,ZBAA 090300Z AUTO 16004KT 2 1/2SM 29/25 A2962 RMK SLP029 T02910253 52005 IEM_DS3505
ZBAA,1998-08-09 04:00,ZBAA 090400Z AUTO 13004KT 2 1/2SM 31/24 A2962 RMK SLP029 T03100240 IEM_DS3505
ZBAA,1998-08-09 05:00,ZBAA 090500Z AUTO 11004KT 3SM 32/24 A2962 RMK SLP029 T03200240 IEM_DS3505
ZBAA,1998-08-09 06:00,ZBAA 090600Z AUTO 14004KT 4SM 31/24 A2959 RMK SLP021 T03110240 57008 IEM_DS3505
ZBAA,1998-08-09 07:00,ZBAA 090700Z AUTO 15004KT 4SM 31/24 A2959 RMK SLP019 T03100240 IEM_DS3505
ZBAA,1998-08-09 08:00,ZBAA 090800Z AUTO 25004KT 4SM 32/23 A2956 RMK SLP009 T03200230 IEM_DS3505
ZBAA,1998-08-09 09:00,ZBAA 090900Z AUTO 20004KT 6SM 32/24 A2956 RMK SLP001 T03150243 57020 IEM_DS3505
ZBAA,1998-08-09 10:00,ZBAA 091000Z AUTO 07002KT 4SM 31/25 A2953 RMK SLP999 T03100250 IEM_DS3505
ZBAA,1998-08-09 11:00,ZBAA 091100Z AUTO ////02KT 4SM RMK IEM_DS3505
ZBAA,1998-08-09 12:00,ZBAA 091200Z AUTO 14008KT 7SM 26/23 A2959 RMK SLP016 T02640229 52015 IEM_DS3505
ZBAA,1998-08-09 14:00,ZBAA 091400Z AUTO 12006KT 6SM 25/24 A2962 RMK SLP030 T02500240 IEM_DS3505
ZBAA,1998-08-09 15:00,ZBAA 091500Z AUTO 07004KT 6SM 24/23 A2962 RMK SLP027 T02450227 52011 IEM_DS3505
ZBAA,1998-08-09 16:00,ZBAA 091600Z AUTO 10002KT 6SM 25/23 A2962 RMK SLP030 T02500230 IEM_DS3505
ZBAA,1998-08-09 17:00,ZBAA 091700Z AUTO 00000KT 6SM 24/23 A2962 RMK SLP031 T02400230 IEM_DS3505
ZBAA,1998-08-09 18:00,ZBAA 091800Z AUTO 07004KT 2 1/2SM 24/23 A2959 RMK SLP019 T02400230 57008 IEM_DS3505
ZBAA,1998-08-09 19:00,ZBAA 091900Z AUTO 00000KT 4SM 24/23 A2959 RMK SLP020 T02400230 IEM_DS3505
ZBAA,1998-08-09 20:00,ZBAA 092000Z AUTO 12002KT 4SM 24/23 A2956 RMK SLP010 T02400230 IEM_DS3505
ZBAA,1998-08-09 21:00,ZBAA 092100Z AUTO 07004KT 2SM 24/23 A2953 RMK 70002 SLP004 T02390226 57015 IEM_DS3505
ZBAA,1998-08-09 22:00,ZBAA 092200Z AUTO 29004KT 2 1/2SM 25/23 A2953 RMK SLP000 T02500230 IEM_DS3505
ZBAA,1998-08-09 23:00,ZBAA 092300Z AUTO 27002KT 2 1/2SM 25/23 A2956 RMK SLP010 T02500230 IEM_DS3505
ZBAA,1998-08-10 00:00,ZBAA 100000Z AUTO 00000KT 2 1/2SM 26/23 A2956 RMK 60002 70002 SLP006 T02590231 52002 IEM_DS3505
ZBAA,1998-08-10 01:00,ZBAA 100100Z AUTO 13002KT 3SM 27/23 A2956 RMK SLP010 T02700230 IEM_DS3505
ZBAA,1998-08-10 02:00,ZBAA 100200Z AUTO ////02KT 3SM 28/24 A2953 RMK SLP000 T02800240 IEM_DS3505
ZBAA,1998-08-10 03:00,ZBAA 100300Z AUTO 14006KT 3SM 28/24 A2953 RMK SLP000 T02850244 57006 IEM_DS3505
ZBAA,1998-08-10 04:00,ZBAA 100400Z AUTO 21004KT 4SM 31/23 A2950 RMK SLP989 T03100230 IEM_DS3505
ZBAA,1998-08-10 05:00,ZBAA 100500Z AUTO 15004KT 5SM 32/24 A2947 RMK SLP978 T03200240 IEM_DS3505
ZBAA,1998-08-10 06:00,ZBAA 100600Z AUTO 20008KT 6SM 31/24 A2947 RMK SLP986 T03130245 57014 IEM_DS3505
ZBAA,1998-08-10 07:00,ZBAA 100700Z AUTO 17008KT 3SM 31/25 A2947 RMK SLP978 T03100250 IEM_DS3505
ZBAA,1998-08-10 08:00,ZBAA 100800Z AUTO 02008KT 7SM 28/22 A2947 RMK SLP978 T02800220 IEM_DS3505
ZBAA,1998-08-10 09:00,ZBAA 100900Z AUTO 25008KT 6SM 30/24 A2947 RMK SLP980 T02980244 57006 IEM_DS3505
ZBAA,1998-08-10 10:00,ZBAA 101000Z AUTO 14004KT 6SM 28/23 A2947 RMK SLP978 T02800230 IEM_DS3505
ZBAA,1998-08-10 11:00,ZBAA 101100Z AUTO 16004KT 7SM 27/24 A2944 RMK SLP969 T02700240 IEM_DS3505
ZBAA,1998-08-10 12:00,ZBAA 101200Z AUTO 25004KT 6SM 28/25 A2947 RMK SLP979 T02850250 57001 IEM_DS3505
ZBAA,1998-08-10 13:00,ZBAA 101300Z AUTO 12002KT 7SM 25/23 A2950 RMK SLP990 T02500230 IEM_DS3505
ZBAA,1998-08-10 14:00,ZBAA 101400Z AUTO 04002KT 7SM 24/23 A2950 RMK SLP990 T02400230 IEM_DS3505
ZBAA,1998-08-10 15:00,ZBAA 101500Z AUTO 27006KT 7SM 26/21 A2950 RMK SLP992 T02610210 52013 IEM_DS3505
ZBAA,1998-08-10 16:00,ZBAA 101600Z AUTO ////02KT 7SM 25/23 A2950 RMK SLP990 T02500230 IEM_DS3505
ZBAA,1998-08-10 17:00,ZBAA 101700Z AUTO 14002KT 7SM 23/23 A2953 RMK SLP001 T02300230 IEM_DS3505
ZBAA,1998-08-10 18:00,ZBAA 101800Z AUTO 25004KT 12SM 25/21 A2953 RMK SLP990 T02510206 57002 IEM_DS3505
ZBAA,1998-08-10 19:00,ZBAA 101900Z AUTO 33004KT 7SM 24/21 A2950 RMK SLP990 T02400210 IEM_DS3505
ZBAA,1998-08-10 20:00,ZBAA 102000Z AUTO 34002KT 7SM 23/22 A2953 RMK SLP001 T02300220 IEM_DS3505
ZBAA,1998-08-10 21:00,ZBAA 102100Z AUTO 34006KT 12SM 28/17 A2953 RMK SLP993 T02750173 52003 IEM_DS3505
ZBAA,1998-08-10 22:00,ZBAA 102200Z AUTO 32004KT 6SM 24/21 A2953 RMK SLP000 T02400210 IEM_DS3505
ZBAA,1998-08-10 23:00,ZBAA 102300Z AUTO 35004KT 6SM 26/21 A2953 RMK SLP000 T02600210 IEM_DS3505
ZBAA,1998-08-11 00:00,ZBAA 110000Z AUTO 29008KT 16SM 29/20 A2956 RMK SLP003 T02880203 52010 IEM_DS3505
ZBAA,1998-08-11 01:00,ZBAA 110100Z AUTO 31010KT 6SM 30/19 A2956 RMK SLP009 T03000190 IEM_DS3505
ZBAA,1998-08-11 02:00,ZBAA 110200Z AUTO 30008KT 7SM 31/19 A2956 RMK SLP009 T03100190 IEM_DS3505
ZBAA,1998-08-11 03:00,ZBAA 110300Z AUTO 32008KT 12SM 32/17 A2956 RMK SLP008 T03220166 52005 IEM_DS3505
ZBAA,1998-08-11 04:00,ZBAA 110400Z AUTO 29010KT 6SM 32/18 A2956 RMK SLP009 T03200180 IEM_DS3505
ZBAA,1998-08-11 05:00,ZBAA 110500Z AUTO 28010KT 6SM 33/17 A2953 RMK SLP999 T03300170 IEM_DS3505
ZBAA,1998-08-11 06:00,ZBAA 110600Z AUTO 29012KT 9SM 34/15 A2956 RMK SLP005 T03430151 57003 IEM_DS3505
ZBAA,1998-08-11 07:00,ZBAA 110700Z AUTO 29010KT 6SM 35/17 A2956 RMK SLP008 T03500170 IEM_DS3505
ZBAA,1998-08-11 09:00,ZBAA 110900Z AUTO 32006KT 12SM 34/16 A2956 RMK SLP003 T03420165 57001 IEM_DS3505
ZBAA,1998-08-11 10:00,ZBAA 111000Z AUTO 29008KT 6SM 33/18 A2953 RMK SLP999 T03300180 IEM_DS3505
ZBAA,1998-08-11 11:00,ZBAA 111100Z AUTO 30006KT 6SM 32/20 A2956 RMK SLP009 T03200200 IEM_DS3505
ZBAA,1998-08-11 12:00,ZBAA 111200Z AUTO 20004KT 12SM 29/19 A2956 RMK SLP007 T02860191 52003 IEM_DS3505
ZBAA,1998-08-11 13:00,ZBAA 111300Z AUTO 26004KT 6SM 29/20 A2956 RMK SLP009 T02900200 IEM_DS3505
ZBAA,1998-08-11 14:00,ZBAA 111400Z AUTO 26002KT 6SM 28/21 A2959 RMK SLP020 T02800210 IEM_DS3505
ZBAA,1998-08-11 15:00,ZBAA 111500Z AUTO 29004KT 12SM 26/22 A2959 RMK SLP015 T02650222 52008 IEM_DS3505
ZBAA,1998-08-11 16:00,ZBAA 111600Z AUTO 35002KT 6SM 25/23 A2959 RMK SLP020 T02500230 IEM_DS3505
ZBAA,1998-08-11 17:00,ZBAA 111700Z AUTO 35004KT 6SM 24/21 A2959 RMK SLP020 T02400210 IEM_DS3505
ZBAA,1998-08-11 18:00,ZBAA 111800Z AUTO 04002KT 7SM 24/22 A2959 RMK SLP017 T02390217 52002 IEM_DS3505
ZBAA,1998-08-11 19:00,ZBAA 111900Z AUTO 35004KT 6SM 23/21 A2959 RMK SLP021 T02300210 IEM_DS3505
ZBAA,1998-08-11 20:00,ZBAA 112000Z AUTO 34006KT 6SM 23/21 A2959 RMK SLP021 T02300210 IEM_DS3505
ZBAA,1998-08-11 21:00,ZBAA 112100Z AUTO 04004KT 9SM 25/20 A2962 RMK SLP020 T02460200 52003 IEM_DS3505
ZBAA,1998-08-11 22:00,ZBAA 112200Z AUTO 33004KT 6SM 23/21 A2962 RMK SLP031 T02300210 IEM_DS3505
ZBAA,1998-08-11 23:00,ZBAA 112300Z AUTO 35006KT 6SM 24/21 A2962 RMK SLP031 T02400210 IEM_DS3505
ZBAA,1998-08-12 00:00,ZBAA 120000Z AUTO 07004KT 9SM 27/20 A2962 RMK SLP024 T02670202 52004 IEM_DS3505
ZBAA,1998-08-12 03:00,ZBAA 120300Z AUTO 09002KT 9SM 30/20 A2962 RMK SLP030 T02950202 52006 IEM_DS3505
ZBAA,1998-08-12 04:00,ZBAA 120400Z AUTO ////02KT 7SM 32/20 A2962 RMK SLP029 T03200200 IEM_DS3505
ZBAA,1998-08-12 05:00,ZBAA 120500Z AUTO 00000KT RMK IEM_DS3505
ZBAA,1998-08-12 06:00,ZBAA 120600Z AUTO 20004KT 9SM 32/22 A2959 RMK SLP015 T03160217 57015 IEM_DS3505
ZBAA,1998-08-12 07:00,ZBAA 120700Z AUTO 10004KT 7SM 31/22 A2956 RMK SLP009 T03100220 IEM_DS3505
ZBAA,1998-08-12 08:00,ZBAA 120800Z AUTO 10004KT 6SM 33/20 A2956 RMK SLP009 T03300200 IEM_DS3505
ZBAA,1998-08-12 09:00,ZBAA 120900Z AUTO 20004KT 12SM 33/22 A2956 RMK SLP009 T03290219 57006 IEM_DS3505
ZBAA,1998-08-12 10:00,ZBAA 121000Z AUTO 10004KT 6SM 31/23 A2956 RMK SLP009 T03100230 IEM_DS3505
ZBAA,1998-08-12 11:00,ZBAA 121100Z AUTO 05002KT 7SM 30/25 A2956 RMK SLP009 T03000250 IEM_DS3505
ZBAA,1998-08-12 12:00,ZBAA 121200Z AUTO 27017KT 7SM 30/25 A2969 RMK 60001 SLP030 T02960248 52021 IEM_DS3505
ZBAA,1998-08-12 13:00,ZBAA 121300Z AUTO 14008KT 7SM 25/22 A2962 RMK SLP030 T02500220 IEM_DS3505
ZBAA,1998-08-12 14:00,ZBAA 121400Z AUTO 09006KT 7SM 25/23 A2962 RMK SLP030 T02500230 IEM_DS3505
ZBAA,1998-08-12 15:00,ZBAA 121500Z AUTO 00000KT 5SM 24/22 A2965 RMK SLP026 T02390217 57004 IEM_DS3505
ZBAA,1998-08-12 16:00,ZBAA 121600Z AUTO 01004KT 7SM 25/23 A2965 RMK SLP040 T02500230 IEM_DS3505
ZBAA,1998-08-12 17:00,ZBAA 121700Z AUTO 36006KT 7SM 25/20 A2965 RMK SLP040 T02500200 IEM_DS3505
ZBAA,1998-08-12 18:00,ZBAA 121800Z AUTO 07006KT 5SM 22/20 A2965 RMK 60126 SLP030 T02190205 40333//// 52004 IEM_DS3505
ZBAA,1998-08-12 19:00,ZBAA 121900Z AUTO 31008KT 7SM 22/20 A2959 RMK SLP021 T02200200 IEM_DS3505
ZBAA,1998-08-12 20:00,ZBAA 122000Z AUTO 33010KT 6SM 22/20 A2962 RMK SLP031 T02200200 IEM_DS3505
ZBAA,1998-08-12 21:00,ZBAA 122100Z AUTO 11004KT 9SM 22/20 A2959 RMK 70130 SLP017 T02160196 57013 IEM_DS3505
ZBAA,1998-08-12 22:00,ZBAA 122200Z AUTO 06002KT 6SM 21/21 A2962 RMK SLP031 T02100210 IEM_DS3505
ZBAA,1998-08-12 23:00,ZBAA 122300Z AUTO 33002KT 7SM 22/21 A2962 RMK SLP031 T02200210 IEM_DS3505
ZBAA,1998-08-13 00:00,ZBAA 130000Z AUTO 00000KT 6SM 24/21 A2962 RMK 60000 70130 SLP025 T02390206 52008 IEM_DS3505
ZBAA,1998-08-13 01:00,ZBAA 130100Z AUTO 35006KT 6SM 25/21 A2962 RMK SLP030 T02500210 IEM_DS3505
ZBAA,1998-08-13 02:00,ZBAA 130200Z AUTO 01006KT 6SM 27/21 A2962 RMK SLP030 T02700210 IEM_DS3505
ZBAA,1998-08-13 03:00,ZBAA 130300Z AUTO 04004KT 6SM 28/22 A2962 RMK SLP026 T02800215 52001 IEM_DS3505
ZBAA,1998-08-13 04:00,ZBAA 130400Z AUTO ////04KT 6SM 30/22 RMK T03000220 IEM_DS3505
ZBAA,1998-08-13 05:00,ZBAA 130500Z AUTO 04004KT 6SM 31/21 A2959 RMK SLP019 T03100210 IEM_DS3505
ZBAA,1998-08-13 06:00,ZBAA 130600Z AUTO 14004KT 6SM 30/23 A2956 RMK SLP013 T03020228 57013 IEM_DS3505
ZBAA,1998-08-13 07:00,ZBAA 130700Z AUTO 15006KT 7SM 32/22 A2956 RMK SLP009 T03200220 IEM_DS3505
ZBAA,1998-08-13 08:00,ZBAA 130800Z AUTO 17006KT 7SM 33/22 A2956 RMK SLP009 T03300220 IEM_DS3505
ZBAA,1998-08-13 09:00,ZBAA 130900Z AUTO 00000KT 6SM 30/23 A2956 RMK SLP010 T02970232 57003 IEM_DS3505
ZBAA,1998-08-13 10:00,ZBAA 131000Z AUTO 14002KT 6SM 30/25 A2956 RMK SLP009 T03000250 IEM_DS3505
ZBAA,1998-08-13 11:00,ZBAA 131100Z AUTO 11002KT 4SM 29/25 A2956 RMK SLP009 T02900250 IEM_DS3505
ZBAA,1998-08-13 12:00,ZBAA 131200Z AUTO 27004KT 4SM 28/24 A2959 RMK SLP016 T02840240 52006 IEM_DS3505
ZBAA,1998-08-13 13:00,ZBAA 131300Z AUTO 09002KT 2 1/2SM 28/25 A2959 RMK SLP020 T02800250 IEM_DS3505
ZBAA,1998-08-13 14:00,ZBAA 131400Z AUTO 11002KT 2 1/2SM 27/25 A2962 RMK SLP030 T02700250 IEM_DS3505
ZBAA,1998-08-13 15:00,ZBAA 131500Z AUTO 32004KT 4SM 27/23 A2962 RMK SLP026 T02670229 52010 IEM_DS3505
ZBAA,1998-08-13 16:00,ZBAA 131600Z AUTO 02002KT 2 1/2SM 26/26 A2962 RMK SLP030 T02600260 IEM_DS3505
ZBAA,1998-08-13 17:00,ZBAA 131700Z AUTO 01004KT 2 1/2SM 26/25 A2962 RMK SLP030 T02600250 IEM_DS3505
ZBAA,1998-08-13 18:00,ZBAA 131800Z AUTO 00000KT 4SM 26/23 A2962 RMK SLP024 T02630228 57002 IEM_DS3505
ZBAA,1998-08-13 19:00,ZBAA 131900Z AUTO 35006KT 5SM 25/24 A2962 RMK SLP030 T02500240 IEM_DS3505
ZBAA,1998-08-13 21:00,ZBAA 132100Z AUTO 34006KT 4SM 26/20 A2962 RMK SLP029 T02630204 52005 IEM_DS3505
ZBAA,1998-08-13 22:00,ZBAA 132200Z AUTO 01004KT 6SM 25/19 A2965 RMK SLP040 T02500190 IEM_DS3505
ZBAA,1998-08-13 23:00,ZBAA 132300Z AUTO 35004KT 6SM 25/20 A2965 RMK SLP040 T02500200 IEM_DS3505
ZBAA,1998-08-14 00:00,ZBAA 140000Z AUTO 00000KT 12SM 26/19 A2968 RMK SLP040 T02590186 52011 IEM_DS3505
ZBAA,1998-08-14 01:00,ZBAA 140100Z AUTO 01004KT 6SM 27/20 A2968 RMK SLP050 T02700200 IEM_DS3505
ZBAA,1998-08-14 02:00,ZBAA 140200Z AUTO 02004KT 6SM 28/20 A2971 RMK SLP060 T02800200 IEM_DS3505
ZBAA,1998-08-14 03:00,ZBAA 140300Z AUTO 04008KT 12SM 29/16 A2967 RMK SLP046 T02920157 52006 IEM_DS3505
ZBAA,1998-08-14 04:00,ZBAA 140400Z AUTO 02006KT 6SM 31/17 A2968 RMK SLP049 T03100170 IEM_DS3505
ZBAA,1998-08-14 05:00,ZBAA 140500Z AUTO 01008KT 6SM 32/16 A2968 RMK SLP049 T03200160 IEM_DS3505
ZBAA,1998-08-14 06:00,ZBAA 140600Z AUTO 02006KT 16SM 31/18 A2968 RMK SLP045 T03070175 57001 IEM_DS3505
ZBAA,1998-08-14 07:00,ZBAA 140700Z AUTO ////04KT 7SM 33/17 A2965 RMK SLP039 T03300170 IEM_DS3505
ZBAA,1998-08-14 08:00,ZBAA 140800Z AUTO ////04KT 7SM 33/18 A2965 RMK SLP039 T03300180 IEM_DS3505
ZBAA,1998-08-14 09:00,ZBAA 140900Z AUTO 07006KT 19SM 30/16 A2968 RMK SLP044 T03030164 57001 IEM_DS3505
ZBAA,1998-08-14 10:00,ZBAA 141000Z AUTO ////02KT 6SM 32/18 A2968 RMK SLP049 T03200180 IEM_DS3505
ZBAA,1998-08-14 11:00,ZBAA 141100Z AUTO 03002KT 6SM 30/19 A2968 RMK SLP049 T03000190 IEM_DS3505
ZBAA,1998-08-14 12:00,ZBAA 141200Z AUTO 00000KT 12SM 26/20 A2971 RMK SLP053 T02630197 52009 IEM_DS3505
ZBAA,1998-08-14 13:00,ZBAA 141300Z AUTO 35008KT 7SM 28/20 A2974 RMK SLP070 T02800200 IEM_DS3505
ZBAA,1998-08-14 14:00,ZBAA 141400Z AUTO 01006KT 7SM 27/18 A2974 RMK SLP070 T02700180 IEM_DS3505
ZBAA,1998-08-14 15:00,ZBAA 141500Z AUTO 04004KT 9SM 24/20 A2977 RMK SLP067 T02430195 52014 IEM_DS3505
ZBAA,1998-08-14 16:00,ZBAA 141600Z AUTO 36006KT 7SM 23/18 A2974 RMK SLP071 T02300180 IEM_DS3505
ZBAA,1998-08-14 22:00,ZBAA 142200Z AUTO 35004KT 6SM 22/16 A2977 RMK SLP082 T02200160 IEM_DS3505
ZBAA,1998-08-15 01:00,ZBAA 150100Z AUTO 35008KT 4SM 25/17 A2983 RMK SLP102 T02500170 IEM_DS3505
ZBAA,1998-08-15 02:00,ZBAA 150200Z AUTO 01006KT 4SM 27/16 A2983 RMK SLP101 T02700160 IEM_DS3505
ZBAA,1998-08-15 03:00,ZBAA 150300Z AUTO 04004KT 6SM 27/16 A2983 RMK SLP091 T02720161 52006 IEM_DS3505
ZBAA,1998-08-15 04:00,ZBAA 150400Z AUTO 35008KT 4SM 28/16 A2980 RMK SLP091 T02800160 IEM_DS3505
ZBAA,1998-08-15 05:00,ZBAA 150500Z AUTO 36006KT 4SM 29/17 A2980 RMK SLP091 T02900170 IEM_DS3505
ZBAA,1998-08-15 06:00,ZBAA 150600Z AUTO 04008KT 6SM 29/16 A2977 RMK SLP085 T02880162 57006 IEM_DS3505
ZBAA,1998-08-15 07:00,ZBAA 150700Z AUTO 34006KT 6SM 30/17 A2977 RMK SLP081 T03000170 IEM_DS3505
ZBAA,1998-08-15 08:00,ZBAA 150800Z AUTO ////04KT 6SM 31/16 A2977 RMK SLP080 T03100160 IEM_DS3505
ZBAA,1998-08-15 09:00,ZBAA 150900Z AUTO 00000KT 6SM 28/19 A2977 RMK SLP079 T02850186 57006 IEM_DS3505
ZBAA,1998-08-15 10:00,ZBAA 151000Z AUTO 28004KT 6SM 29/16 A2980 RMK SLP091 T02900160 IEM_DS3505
ZBAA,1998-08-15 11:00,ZBAA 151100Z AUTO 00000KT 6SM 27/20 A2980 RMK SLP091 T02700200 IEM_DS3505
ZBAA,1998-08-15 12:00,ZBAA 151200Z AUTO 22004KT 7SM 25/20 A2980 RMK SLP087 T02490197 52007 IEM_DS3505
ZBAA,1998-08-15 13:00,ZBAA 151300Z AUTO 00000KT 5SM 25/21 A2983 RMK SLP102 T02500210 IEM_DS3505
ZBAA,1998-08-15 14:00,ZBAA 151400Z AUTO 00000KT 4SM 25/20 A2983 RMK SLP102 T02500200 IEM_DS3505
ZBAA,1998-08-15 15:00,ZBAA 151500Z AUTO 25002KT 7SM 24/19 A2983 RMK SLP091 T02350190 52005 IEM_DS3505
ZBAA,1998-08-15 16:00,ZBAA 151600Z AUTO 36004KT 5SM 24/20 A2980 RMK SLP092 T02400200 IEM_DS3505
ZBAA,1998-08-15 17:00,ZBAA 151700Z AUTO 35002KT 5SM 22/20 A2980 RMK SLP092 T02200200 IEM_DS3505
ZBAA,1998-08-15 18:00,ZBAA 151800Z AUTO 00000KT 6SM 21/19 A2980 RMK SLP084 T02130193 57007 IEM_DS3505
ZBAA,1998-08-15 19:00,ZBAA 151900Z AUTO 01002KT 7SM 21/19 A2980 RMK SLP092 T02100190 IEM_DS3505
ZBAA,1998-08-15 20:00,ZBAA 152000Z AUTO 36004KT 7SM 21/19 A2980 RMK SLP092 T02100190 IEM_DS3505
ZBAA,1998-08-16 15:00,ZBAA 161500Z AUTO 14006KT 5SM 24/22 A2983 RMK SLP087 T02420221 52011 IEM_DS3505
ZBAA,1998-08-16 16:00,ZBAA 161600Z AUTO 11004KT 2SM 24/23 A2983 RMK SLP102 T02400230 IEM_DS3505
ZBAA,1998-08-16 17:00,ZBAA 161700Z AUTO 11004KT 2SM 23/23 A2980 RMK SLP092 T02300230 IEM_DS3505
ZBAA,1998-08-16 21:00,ZBAA 162100Z AUTO 04004KT 4SM 22/21 A2983 RMK 70001 SLP090 T02190208 52002 IEM_DS3505
ZBAA,1998-08-16 22:00,ZBAA 162200Z AUTO 34002KT 3SM 21/21 A2983 RMK SLP103 T02100210 IEM_DS3505
ZBAA,1998-08-16 23:00,ZBAA 162300Z AUTO 36002KT 4SM 22/22 A2983 RMK SLP102 T02200220 IEM_DS3505
ZBAA,1998-08-17 00:00,ZBAA 170000Z AUTO 02004KT 5SM 23/20 A2985 RMK 60001 70001 SLP098 T02320205 52007 IEM_DS3505
ZBAA,1998-08-17 01:00,ZBAA 170100Z AUTO 01002KT 7SM 25/22 A2985 RMK SLP109 T02500220 IEM_DS3505
ZBAA,1998-08-17 03:00,ZBAA 170300Z AUTO 14004KT 6SM 27/22 A2983 RMK SLP098 T02670220 52001 IEM_DS3505
ZBAA,1998-08-17 04:00,ZBAA 170400Z AUTO ////04KT 7SM 28/22 A2983 RMK SLP101 T02800220 IEM_DS3505
ZBAA,1998-08-17 05:00,ZBAA 170500Z AUTO ////04KT 7SM 29/22 A2980 RMK SLP091 T02900220 IEM_DS3505
ZBAA,1998-08-17 06:00,ZBAA 170600Z AUTO 11004KT 7SM 29/21 A2980 RMK SLP086 T02860213 57012 IEM_DS3505
ZBAA,1998-08-17 07:00,ZBAA 170700Z AUTO 15004KT 7SM 30/23 A2977 RMK SLP081 T03000230 IEM_DS3505
ZBAA,1998-08-17 08:00,ZBAA 170800Z AUTO 16006KT 7SM 30/22 A2977 RMK SLP081 T03000220 IEM_DS3505
ZBAA,1998-08-17 09:00,ZBAA 170900Z AUTO 14006KT 7SM 29/22 A2977 RMK SLP076 T02930223 57010 IEM_DS3505
ZBAA,1998-08-17 10:00,ZBAA 171000Z AUTO 16004KT 7SM 29/23 A2977 RMK SLP081 T02900230 IEM_DS3505
ZBAA,1998-08-17 11:00,ZBAA 171100Z AUTO 14004KT 7SM 27/23 A2977 RMK SLP081 T02700230 IEM_DS3505
ZBAA,1998-08-17 12:00,ZBAA 171200Z AUTO 16006KT 6SM 26/22 A2980 RMK SLP083 T02590225 52006 IEM_DS3505
ZBAA,1998-08-17 13:00,ZBAA 171300Z AUTO 15002KT 7SM 25/23 A2980 RMK SLP092 T02500230 IEM_DS3505
ZBAA,1998-08-17 14:00,ZBAA 171400Z AUTO 14004KT 4SM 25/23 A2983 RMK SLP102 T02500230 IEM_DS3505
ZBAA,1998-08-17 15:00,ZBAA 171500Z AUTO 20002KT 6SM 25/22 A2980 RMK SLP090 T02490221 52008 IEM_DS3505
ZBAA,1998-08-17 16:00,ZBAA 171600Z AUTO 14002KT 4SM 24/23 A2983 RMK SLP102 T02400230 IEM_DS3505
ZBAA,1998-08-17 17:00,ZBAA 171700Z AUTO 13002KT 3SM 24/23 A2980 RMK SLP092 T02400230 IEM_DS3505
ZBAA,1998-08-17 18:00,ZBAA 171800Z AUTO 16004KT 2SM 23/22 A2980 RMK SLP085 T02280216 57005 IEM_DS3505
ZBAA,1998-08-17 19:00,ZBAA 171900Z AUTO 12004KT 2SM 23/23 A2980 RMK SLP092 T02300230 IEM_DS3505
ZBAA,1998-08-17 20:00,ZBAA 172000Z AUTO 12004KT 1 1/4SM 23/23 A2980 RMK SLP092 T02300230 IEM_DS3505
ZBAA,1998-08-17 21:00,ZBAA 172100Z AUTO 00000KT 2 1/2SM 22/21 A2980 RMK SLP087 T02250213 52002 IEM_DS3505
ZBAA,1998-08-17 22:00,ZBAA 172200Z AUTO 09002KT 1SM 23/23 A2980 RMK SLP092 T02300230 IEM_DS3505
ZBAA,1998-08-17 23:00,ZBAA 172300Z AUTO 10002KT 1SM 23/23 A2983 RMK SLP102 T02300230 IEM_DS3505
ZBAA,1998-08-18 00:00,ZBAA 180000Z AUTO 18004KT 2 1/2SM 24/21 A2983 RMK SLP094 T02400213 52006 IEM_DS3505
ZBAA,1998-08-18 01:00,ZBAA 180100Z AUTO 17002KT 1 1/2SM 25/23 A2983 RMK SLP102 T02500230 IEM_DS3505
ZBAA,1998-08-18 02:00,ZBAA 180200Z AUTO ////04KT 1 1/2SM 27/23 A2983 RMK SLP101 T02700230 IEM_DS3505
ZBAA,1998-08-18 03:00,ZBAA 180300Z AUTO 25006KT 4SM 28/22 A2980 RMK SLP094 T02800216 52001 IEM_DS3505
ZBAA,1998-08-18 04:00,ZBAA 180400Z AUTO ////04KT 1 1/2SM 28/24 A2980 RMK SLP091 T02800240 IEM_DS3505
ZBAA,1998-08-18 05:00,ZBAA 180500Z AUTO ////04KT 1 1/2SM 29/24 A2977 RMK SLP081 T02900240 IEM_DS3505
ZBAA,1998-08-18 06:00,ZBAA 180600Z AUTO 22008KT 6SM 31/22 A2974 RMK SLP076 T03080225 57018 IEM_DS3505
ZBAA,1998-08-18 07:00,ZBAA 180700Z AUTO 16006KT 3SM 31/24 A2974 RMK SLP069 T03100240 IEM_DS3505
ZBAA,1998-08-18 08:00,ZBAA 180800Z AUTO 18008KT 3SM 31/23 A2974 RMK SLP069 T03100230 IEM_DS3505
ZBAA,1998-08-18 09:00,ZBAA 180900Z AUTO 20006KT 6SM 31/22 A2971 RMK SLP062 T03100220 57014 IEM_DS3505
ZBAA,1998-08-18 10:00,ZBAA 181000Z AUTO 16006KT 3SM 30/24 A2971 RMK SLP060 T03000240 IEM_DS3505
ZBAA,1998-08-18 11:00,ZBAA 181100Z AUTO 15004KT 3SM 28/24 A2971 RMK SLP060 T02800240 IEM_DS3505
ZBAA,1998-08-18 12:00,ZBAA 181200Z AUTO 16004KT 4SM 28/23 A2974 RMK SLP060 T02830229 57002 IEM_DS3505
ZBAA,1998-08-18 13:00,ZBAA 181300Z AUTO 02004KT 2 1/2SM 27/25 A2974 RMK SLP070 T02700250 IEM_DS3505
ZBAA,1998-08-18 14:00,ZBAA 181400Z AUTO 09008KT 6SM 24/19 A2977 RMK SLP082 T02400190 IEM_DS3505
ZBAA,1998-08-18 15:00,ZBAA 181500Z AUTO 07006KT 6SM 24/19 A2977 RMK SLP071 T02450194 52011 IEM_DS3505
ZBAA,1998-08-18 16:00,ZBAA 181600Z AUTO ////02KT 6SM 23/20 A2977 RMK SLP082 T02300200 IEM_DS3505
ZBAA,1998-08-18 17:00,ZBAA 181700Z AUTO 36004KT 7SM 23/20 A2977 RMK SLP082 T02300200 IEM_DS3505
ZBAA,1998-08-18 18:00,ZBAA 181800Z AUTO 04006KT 6SM 24/20 A2977 RMK SLP072 T02370195 52001 IEM_DS3505
ZBAA,1998-08-18 19:00,ZBAA 181900Z AUTO 01004KT 7SM 23/21 A2977 RMK SLP082 T02300210 IEM_DS3505
ZBAA,1998-08-18 20:00,ZBAA 182000Z AUTO 36002KT 7SM 23/21 A2980 RMK SLP092 T02300210 IEM_DS3505
ZBAA,1998-08-18 21:00,ZBAA 182100Z AUTO 02004KT 6SM 23/20 A2980 RMK SLP082 T02300198 52010 IEM_DS3505
ZBAA,1998-08-18 22:00,ZBAA 182200Z AUTO ////02KT 7SM 22/20 A2983 RMK SLP102 T02200200 IEM_DS3505
ZBAA,1998-08-18 23:00,ZBAA 182300Z AUTO 03004KT 7SM 24/20 A2985 RMK SLP109 T02400200 IEM_DS3505
ZBAA,1998-08-19 00:00,ZBAA 190000Z AUTO 04008KT 9SM 26/18 A2985 RMK SLP103 T02550178 52021 IEM_DS3505
ZBAA,1998-08-19 01:00,ZBAA 190100Z AUTO 02006KT 6SM 26/18 A2988 RMK SLP119 T02600180 IEM_DS3505
ZBAA,1998-08-19 02:00,ZBAA 190200Z AUTO 03008KT 6SM 27/17 A2988 RMK SLP118 T02700170 IEM_DS3505
ZBAA,1998-08-19 03:00,ZBAA 190300Z AUTO 04012KT 9SM 28/16 A2988 RMK SLP114 T02810157 52011 IEM_DS3505
ZBAA,1998-08-19 04:00,ZBAA 190400Z AUTO 04006KT 6SM 29/16 A2988 RMK SLP118 T02900160 IEM_DS3505
ZBAA,1998-08-19 05:00,ZBAA 190500Z AUTO 03008KT 6SM 30/16 A2988 RMK SLP118 T03000160 IEM_DS3505
ZBAA,1998-08-19 06:00,ZBAA 190600Z AUTO 04006KT 9SM 30/16 A2988 RMK SLP111 T03000158 57003 IEM_DS3505
ZBAA,1998-08-19 07:00,ZBAA 190700Z AUTO 04008KT 6SM 31/13 A2988 RMK SLP118 T03100130 IEM_DS3505
ZBAA,1998-08-19 08:00,ZBAA 190800Z AUTO 04006KT 6SM 31/15 A2985 RMK SLP108 T03100150 IEM_DS3505
ZBAA,1998-08-19 09:00,ZBAA 190900Z AUTO 07008G16KT 12SM 29/14 A2988 RMK SLP111 T02940139 54000 IEM_DS3505
ZBAA,1998-08-19 10:00,ZBAA 191000Z AUTO 04006KT 7SM 29/14 A2988 RMK SLP118 T02900140 IEM_DS3505
ZBAA,1998-08-19 11:00,ZBAA 191100Z AUTO ////04KT 6SM 27/14 A2988 RMK SLP118 T02700140 IEM_DS3505
ZBAA,1998-08-19 12:00,ZBAA 191200Z AUTO 02004KT 10SM 26/14 A2991 RMK SLP125 T02610145 52013 IEM_DS3505
ZBAA,1998-08-19 13:00,ZBAA 191300Z AUTO 35002KT 6SM 25/15 A2994 RMK SLP139 T02500150 IEM_DS3505
ZBAA,1998-08-19 14:00,ZBAA 191400Z AUTO 36004KT 7SM 24/16 A2997 RMK SLP149 T02400160 IEM_DS3505
ZBAA,1998-08-19 15:00,ZBAA 191500Z AUTO 02002KT 6SM 24/15 A3000 RMK SLP147 T02350154 52022 IEM_DS3505
ZBAA,1998-08-19 16:00,ZBAA 191600Z AUTO 35004KT 7SM 23/16 A3000 RMK SLP159 T02300160 IEM_DS3505
ZBAA,1998-08-19 17:00,ZBAA 191700Z AUTO 23002KT 7SM 22/16 A3003 RMK SLP170 T02200160 IEM_DS3505
ZBAA,1998-08-19 18:00,ZBAA 191800Z AUTO 02002KT 6SM 22/17 A3003 RMK SLP166 T02210167 52019 IEM_DS3505
ZBAA,1998-08-19 19:00,ZBAA 191900Z AUTO 34002KT 6SM 21/18 A3003 RMK SLP170 T02100180 IEM_DS3505
ZBAA,1998-08-19 20:00,ZBAA 192000Z AUTO 02002KT 6SM 21/18 A3003 RMK SLP170 T02100180 IEM_DS3505
ZBAA,1998-08-19 21:00,ZBAA 192100Z AUTO 00000KT 9SM 21/17 A3003 RMK SLP167 T02090172 52001 IEM_DS3505
ZBAA,1998-08-19 22:00,ZBAA 192200Z AUTO 32004KT 6SM 20/17 A3006 RMK SLP180 T02000170 IEM_DS3505
ZBAA,1998-08-19 23:00,ZBAA 192300Z AUTO 36004KT 6SM 21/16 A3006 RMK SLP180 T02100160 IEM_DS3505
ZBAA,1998-08-20 00:00,ZBAA 200000Z AUTO 22002KT 6SM 24/18 A3006 RMK SLP173 T02430178 52006 IEM_DS3505
ZBAA,1998-08-20 01:00,ZBAA 200100Z AUTO 04002KT 6SM 25/18 A3003 RMK SLP169 T02500180 IEM_DS3505
ZBAA,1998-08-20 02:00,ZBAA 200200Z AUTO ////04KT 6SM 26/16 A3003 RMK SLP169 T02600160 IEM_DS3505
ZBAA,1998-08-20 03:00,ZBAA 200300Z AUTO 20006KT 7SM 27/15 A3003 RMK SLP166 T02720149 57007 IEM_DS3505
ZBAA,1998-08-20 04:00,ZBAA 200400Z AUTO ////04KT 6SM 28/14 A3003 RMK SLP169 T02800140 IEM_DS3505
ZBAA,1998-08-20 05:00,ZBAA 200500Z AUTO 16006KT 6SM 29/14 A3000 RMK SLP158 T02900140 IEM_DS3505
ZBAA,1998-08-20 06:00,ZBAA 200600Z AUTO 20006KT 9SM 29/15 A2997 RMK SLP149 T02870150 57017 IEM_DS3505
ZBAA,1998-08-20 07:00,ZBAA 200700Z AUTO 16008KT 6SM 29/14 A2997 RMK SLP148 T02900140 IEM_DS3505
ZBAA,1998-08-20 08:00,ZBAA 200800Z AUTO 17008KT 6SM 29/14 A2994 RMK SLP138 T02900140 IEM_DS3505
ZBAA,1998-08-20 09:00,ZBAA 200900Z AUTO 22006KT 9SM 28/15 A2991 RMK SLP132 T02820148 57017 IEM_DS3505
ZBAA,1998-08-20 10:00,ZBAA 201000Z AUTO 15004KT 6SM 27/16 A2991 RMK SLP129 T02700160 IEM_DS3505
ZBAA,1998-08-20 12:00,ZBAA 201200Z AUTO 00000KT 7SM 23/17 A2994 RMK SLP130 T02340168 57002 IEM_DS3505
ZBAA,1998-08-20 13:00,ZBAA 201300Z AUTO 14004KT 6SM 22/17 A2994 RMK SLP140 T02200170 IEM_DS3505
ZBAA,1998-08-20 14:00,ZBAA 201400Z AUTO 15002KT 6SM 23/17 A2994 RMK SLP139 T02300170 IEM_DS3505
ZBAA,1998-08-20 15:00,ZBAA 201500Z AUTO 16004KT 7SM 22/17 A2994 RMK SLP137 T02190174 52007 IEM_DS3505
ZBAA,1998-08-20 16:00,ZBAA 201600Z AUTO 13002KT 6SM 22/18 A2994 RMK SLP140 T02200180 IEM_DS3505
ZBAA,1998-08-20 17:00,ZBAA 201700Z AUTO 00000KT 6SM 21/18 A2994 RMK SLP140 T02100180 IEM_DS3505
ZBAA,1998-08-20 18:00,ZBAA 201800Z AUTO 22002KT 7SM 22/17 A2994 RMK SLP137 T02200170 54000 IEM_DS3505
ZBAA,1998-08-20 19:00,ZBAA 201900Z AUTO 08002KT 5SM 21/18 A2994 RMK SLP140 T02100180 IEM_DS3505
ZBAA,1998-08-20 20:00,ZBAA 202000Z AUTO 04002KT 5SM 21/18 A2994 RMK SLP140 T02100180 IEM_DS3505
ZBAA,1998-08-20 21:00,ZBAA 202100Z AUTO 18002KT 7SM 22/18 A2991 RMK SLP131 T02170179 57006 IEM_DS3505
ZBAA,1998-08-20 22:00,ZBAA 202200Z AUTO 10002KT 4SM 21/18 A2994 RMK SLP140 T02100180 IEM_DS3505
ZBAA,1998-08-20 23:00,ZBAA 202300Z AUTO 09002KT 4SM 21/18 A2994 RMK SLP140 T02100180 IEM_DS3505
ZBAA,1998-08-21 00:00,ZBAA 210000Z AUTO 14004KT 7SM 22/18 A2994 RMK SLP136 T02250181 52005 IEM_DS3505
ZBAA,1998-08-21 01:00,ZBAA 210100Z AUTO 10002KT 4SM 23/18 A2994 RMK SLP139 T02300180 IEM_DS3505
ZBAA,1998-08-21 02:00,ZBAA 210200Z AUTO 11004KT 4SM 24/18 A2994 RMK SLP139 T02400180 IEM_DS3505
ZBAA,1998-08-21 03:00,ZBAA 210300Z AUTO 20002KT 7SM 25/16 A2994 RMK SLP138 T02490163 52002 IEM_DS3505
ZBAA,1998-08-21 04:00,ZBAA 210400Z AUTO 13004KT 6SM 25/17 A2991 RMK SLP129 T02500170 IEM_DS3505
ZBAA,1998-08-21 05:00,ZBAA 210500Z AUTO 16004KT 6SM 26/16 A2991 RMK SLP129 T02600160 IEM_DS3505
ZBAA,1998-08-21 06:00,ZBAA 210600Z AUTO 22004KT 9SM 25/17 A2991 RMK SLP129 T02520169 57009 IEM_DS3505
ZBAA,1998-08-21 07:00,ZBAA 210700Z AUTO 17006KT 6SM 26/17 A2988 RMK SLP119 T02600170 IEM_DS3505
ZBAA,1998-08-21 08:00,ZBAA 210800Z AUTO 17006KT 6SM 26/17 A2988 RMK SLP119 T02600170 IEM_DS3505
ZBAA,1998-08-21 09:00,ZBAA 210900Z AUTO 16004KT 11SM 26/16 A2988 RMK SLP118 T02550161 57011 IEM_DS3505
ZBAA,1998-08-21 10:00,ZBAA 211000Z AUTO 18004KT 6SM 25/16 A2988 RMK SLP119 T02500160 IEM_DS3505
ZBAA,1998-08-21 11:00,ZBAA 211100Z AUTO 19006KT 7SM 24/17 A2985 RMK SLP109 T02400170 IEM_DS3505
ZBAA,1998-08-21 12:00,ZBAA 211200Z AUTO 25006KT 5SM 22/17 A2993 RMK 60000 SLP114 T02190170 57004 IEM_DS3505
ZBAA,1998-08-21 13:00,ZBAA 211300Z AUTO 26004KT 7SM 22/18 A2988 RMK SLP119 T02200180 IEM_DS3505
ZBAA,1998-08-21 14:00,ZBAA 211400Z AUTO 29004KT 7SM 21/18 A2988 RMK SLP120 T02100180 IEM_DS3505
ZBAA,1998-08-21 15:00,ZBAA 211500Z AUTO 25006KT 5SM 20/18 A2988 RMK SLP120 T01980180 52006 IEM_DS3505
ZBAA,1998-08-21 16:00,ZBAA 211600Z AUTO 25006KT 6SM 21/18 A2991 RMK SLP130 T02100180 IEM_DS3505
ZBAA,1998-08-21 17:00,ZBAA 211700Z AUTO 22008KT 7SM 20/18 A2991 RMK SLP130 T02000180 IEM_DS3505
ZBAA,1998-08-21 18:00,ZBAA 211800Z AUTO 11004KT 4SM 19/19 A2988 RMK 60012 SLP119 T01910186 57001 IEM_DS3505
ZBAA,1998-08-21 19:00,ZBAA 211900Z AUTO 00000KT 7SM 18/18 A2988 RMK SLP120 T01800180 IEM_DS3505
ZBAA,1998-08-21 20:00,ZBAA 212000Z AUTO 00000KT 4SM 19/18 A2985 RMK SLP110 T01900180 IEM_DS3505
ZBAA,1998-08-21 21:00,ZBAA 212100Z AUTO 02002KT 3SM 19/18 A2985 RMK 70020 SLP112 T01940181 57007 IEM_DS3505
ZBAA,1998-08-21 23:00,ZBAA 212300Z AUTO ////02KT 1 1/2SM 19/19 A2985 RMK SLP110 T01900190 IEM_DS3505
ZBAA,1998-08-22 00:00,ZBAA 220000Z AUTO 02002KT 2SM 19/18 A2985 RMK 60012 70028 SLP112 T01890181 54000 IEM_DS3505
ZBAA,1998-08-22 01:00,ZBAA 220100Z AUTO 03002KT 1 1/4SM 19/19 A2988 RMK SLP120 T01900190 IEM_DS3505
ZBAA,1998-08-22 02:00,ZBAA 220200Z AUTO 05002KT 1 1/4SM 19/18 A2988 RMK SLP120 T01900180 IEM_DS3505
ZBAA,1998-08-22 03:00,ZBAA 220300Z AUTO 04004KT 3SM 19/18 A2985 RMK SLP110 T01910181 57002 IEM_DS3505
ZBAA,1998-08-22 04:00,ZBAA 220400Z AUTO 03002KT 4SM 20/18 A2985 RMK SLP110 T02000180 IEM_DS3505
ZBAA,1998-08-22 05:00,ZBAA 220500Z AUTO 03002KT 5SM 21/19 A2985 RMK SLP110 T02100190 IEM_DS3505
ZBAA,1998-08-22 06:00,ZBAA 220600Z AUTO 07006KT 6SM 21/18 A2983 RMK 60004 SLP095 T02080181 57015 IEM_DS3505
ZBAA,1998-08-22 07:00,ZBAA 220700Z AUTO ////04KT 7SM 23/18 A2980 RMK SLP092 T02300180 IEM_DS3505
ZBAA,1998-08-22 08:00,ZBAA 220800Z AUTO ////02KT 7SM 24/18 A2980 RMK SLP092 T02400180 IEM_DS3505
ZBAA,1998-08-22 09:00,ZBAA 220900Z AUTO ////02KT 7SM 23/18 A2977 RMK SLP082 T02300180 IEM_DS3505
ZBAA,1998-08-22 10:00,ZBAA 221000Z AUTO 13006KT 7SM 22/18 A2977 RMK SLP082 T02200180 IEM_DS3505
ZBAA,1998-08-22 11:00,ZBAA 221100Z AUTO 15004KT 7SM 21/18 A2977 RMK SLP082 T02100180 IEM_DS3505
ZBAA,1998-08-22 12:00,ZBAA 221200Z AUTO 14002KT 6SM 19/18 A2980 RMK SLP081 T01940180 57001 IEM_DS3505
ZBAA,1998-08-22 13:00,ZBAA 221300Z AUTO 17002KT 5SM 20/18 A2980 RMK SLP093 T02000180 IEM_DS3505
ZBAA,1998-08-22 14:00,ZBAA 221400Z AUTO 17002KT 5SM 20/18 A2980 RMK SLP093 T02000180 IEM_DS3505
ZBAA,1998-08-22 15:00,ZBAA 221500Z AUTO 00000KT 6SM 18/17 A2980 RMK SLP086 T01810174 52005 IEM_DS3505
ZBAA,1998-08-22 16:00,ZBAA 221600Z AUTO 00000KT 3SM 19/18 A2980 RMK SLP093 T01900180 IEM_DS3505
ZBAA,1998-08-22 17:00,ZBAA 221700Z AUTO 18002KT 2 1/2SM 18/18 A2980 RMK SLP093 T01800180 IEM_DS3505
ZBAA,1998-08-22 18:00,ZBAA 221800Z AUTO 20002KT 5SM 18/18 A2977 RMK SLP084 T01820175 57002 IEM_DS3505
ZBAA,1998-08-22 19:00,ZBAA 221900Z AUTO 00000KT 2SM 19/18 A2977 RMK SLP083 T01900180 IEM_DS3505
ZBAA,1998-08-22 20:00,ZBAA 222000Z AUTO 00000KT 1 1/4SM 19/18 A2977 RMK SLP083 T01900180 IEM_DS3505
ZBAA,1998-08-22 21:00,ZBAA 222100Z AUTO 00000KT 1 1/4SM 18/17 A2977 RMK 70008 SLP082 T01790174 57002 IEM_DS3505
ZBAA,1998-08-23 00:00,ZBAA 230000Z AUTO 32004KT 1 1/4SM 21/19 A2977 RMK 70004 SLP080 T02110194 57002 IEM_DS3505
ZBAA,1998-08-23 01:00,ZBAA 230100Z AUTO 33004KT 4SM 23/19 A2977 RMK SLP082 T02300190 IEM_DS3505
ZBAA,1998-08-23 02:00,ZBAA 230200Z AUTO ////04KT 6SM 25/19 A2977 RMK SLP082 T02500190 IEM_DS3505
ZBAA,1998-08-23 03:00,ZBAA 230300Z AUTO 22006KT 3SM 26/20 A2976 RMK SLP077 T02650201 57003 IEM_DS3505
ZBAA,1998-08-23 05:00,ZBAA 230500Z AUTO 07004KT 7SM 31/20 A2974 RMK SLP069 T03100200 IEM_DS3505
ZBAA,1998-08-23 06:00,ZBAA 230600Z AUTO 14008KT 5SM 30/22 A2974 RMK SLP068 T03020219 57009 IEM_DS3505
ZBAA,1998-08-23 07:00,ZBAA 230700Z AUTO 04004KT 7SM 31/19 A2974 RMK SLP069 T03100190 IEM_DS3505
ZBAA,1998-08-23 08:00,ZBAA 230800Z AUTO 07004KT 7SM 32/18 A2974 RMK SLP069 T03200180 IEM_DS3505
ZBAA,1998-08-23 09:00,ZBAA 230900Z AUTO 14004KT 4SM 28/22 A2974 RMK SLP067 T02840224 57001 IEM_DS3505
ZBAA,1998-08-23 10:00,ZBAA 231000Z AUTO 00000KT 6SM 31/18 A2974 RMK SLP069 T03100180 IEM_DS3505
ZBAA,1998-08-23 11:00,ZBAA 231100Z AUTO 00000KT 6SM 29/19 A2974 RMK SLP070 T02900190 IEM_DS3505
ZBAA,1998-08-23 12:00,ZBAA 231200Z AUTO 25004KT 3SM 26/23 A2977 RMK SLP077 T02650229 52010 IEM_DS3505
ZBAA,1998-08-23 13:00,ZBAA 231300Z AUTO 14002KT 7SM 26/22 A2980 RMK SLP091 T02600220 IEM_DS3505
ZBAA,1998-08-23 14:00,ZBAA 231400Z AUTO 13004KT 7SM 24/22 A2980 RMK SLP092 T02400220 IEM_DS3505
ZBAA,1998-08-23 15:00,ZBAA 231500Z AUTO 16002KT 6SM 24/22 A2983 RMK SLP091 T02410223 52015 IEM_DS3505
ZBAA,1998-08-23 16:00,ZBAA 231600Z AUTO 14004KT 5SM 24/21 A2983 RMK SLP102 T02400210 IEM_DS3505
ZBAA,1998-08-23 17:00,ZBAA 231700Z AUTO 06002KT 4SM 23/21 A2983 RMK SLP102 T02300210 IEM_DS3505
ZBAA,1998-08-23 18:00,ZBAA 231800Z AUTO 20004KT 2SM 24/22 A2983 RMK SLP091 T02450221 54000 IEM_DS3505
ZBAA,1998-08-23 19:00,ZBAA 231900Z AUTO 08002KT 4SM 23/21 A2983 RMK SLP102 T02300210 IEM_DS3505
ZBAA,1998-08-23 20:00,ZBAA 232000Z AUTO 00000KT 4SM 22/20 A2983 RMK SLP102 T02200200 IEM_DS3505
ZBAA,1998-08-23 21:00,ZBAA 232100Z AUTO 09004KT 1SM 23/22 A2983 RMK SLP091 T02290220 54000 IEM_DS3505
ZBAA,1998-08-23 22:00,ZBAA 232200Z AUTO 00000KT 4SM 22/20 A2983 RMK SLP102 T02200200 IEM_DS3505
ZBAA,1998-08-23 23:00,ZBAA 232300Z AUTO ////02KT 3SM 21/20 A2983 RMK SLP103 T02100200 IEM_DS3505
ZBAA,1998-08-24 00:00,ZBAA 240000Z AUTO 04004KT 1SM 22/21 A2983 RMK 60016 70016 SLP096 T02190213 52004 IEM_DS3505
ZBAA,1998-08-24 01:00,ZBAA 240100Z AUTO 14002KT 3SM 21/20 A2985 RMK SLP110 T02100200 IEM_DS3505
ZBAA,1998-08-24 02:00,ZBAA 240200Z AUTO 00000KT 2 1/2SM 21/21 A2985 RMK SLP110 T02100210 IEM_DS3505
ZBAA,1998-08-24 03:00,ZBAA 240300Z AUTO 07004KT 2SM 22/21 A2983 RMK SLP100 T02190210 52004 IEM_DS3505
ZBAA,1998-08-24 04:00,ZBAA 240400Z AUTO 03002KT 2 1/2SM 22/21 A2983 RMK SLP102 T02200210 IEM_DS3505
ZBAA,1998-08-24 05:00,ZBAA 240500Z AUTO 07002KT 2 1/2SM 22/21 A2983 RMK SLP102 T02200210 IEM_DS3505
ZBAA,1998-08-24 06:00,ZBAA 240600Z AUTO 14004KT 2 1/2SM 22/21 A2983 RMK 60059 SLP096 T02200208 57004 IEM_DS3505
ZBAA,1998-08-24 07:00,ZBAA 240700Z AUTO 19006KT 4SM 23/22 A2980 RMK SLP092 T02300220 IEM_DS3505
ZBAA,1998-08-24 09:00,ZBAA 240900Z AUTO 22004KT 6SM 25/21 A2977 RMK SLP083 T02490208 57013 IEM_DS3505
ZBAA,1998-08-24 10:00,ZBAA 241000Z AUTO 17004KT 4SM 25/21 A2977 RMK SLP082 T02500210 IEM_DS3505
ZBAA,1998-08-24 12:00,ZBAA 241200Z AUTO 00000KT 4SM 22/20 A2980 RMK 60000 SLP083 T02200205 54000 IEM_DS3505
ZBAA,1998-08-24 13:00,ZBAA 241300Z AUTO 14002KT 2 1/2SM 22/21 A2980 RMK SLP092 T02200210 IEM_DS3505
ZBAA,1998-08-24 14:00,ZBAA 241400Z AUTO 17002KT 2 1/2SM 22/21 A2980 RMK SLP092 T02200210 IEM_DS3505
ZBAA,1998-08-24 15:00,ZBAA 241500Z AUTO 00000KT 2SM 20/20 A2980 RMK SLP087 T02000197 52004 IEM_DS3505
ZBAA,1998-08-24 16:00,ZBAA 241600Z AUTO 07002KT 1SM 21/21 A2980 RMK SLP092 T02100210 IEM_DS3505
ZBAA,1998-08-24 17:00,ZBAA 241700Z AUTO 11002KT 1SM 20/20 A2980 RMK SLP093 T02000200 IEM_DS3505
ZBAA,1998-08-24 18:00,ZBAA 241800Z AUTO 00000KT 1 1/4SM 20/20 A2980 RMK SLP086 T01980195 57001 IEM_DS3505
ZBAA,1998-08-24 19:00,ZBAA 241900Z AUTO 00000KT 1/2SM 20/20 A2980 RMK SLP093 T02000200 IEM_DS3505
ZBAA,1998-08-24 20:00,ZBAA 242000Z AUTO 29004KT 1/8SM 20/20 A2980 RMK SLP093 T02000200 IEM_DS3505
ZBAA,1998-08-24 21:00,ZBAA 242100Z AUTO 00000KT 1SM 19/19 A2980 RMK 70075 SLP085 T01940189 57001 IEM_DS3505
ZBAA,1998-08-24 22:00,ZBAA 242200Z AUTO 31004KT 1/8SM 20/20 A2980 RMK SLP093 T02000200 IEM_DS3505
ZBAA,1998-08-24 23:00,ZBAA 242300Z AUTO 30004KT 1/4SM 20/20 A2980 RMK SLP093 T02000200 IEM_DS3505
ZBAA,1998-08-25 00:00,ZBAA 250000Z AUTO 36002KT 4SM 23/20 A2980 RMK 70059 SLP087 T02280204 52002 IEM_DS3505
ZBAA,1998-08-25 01:00,ZBAA 250100Z AUTO 34004KT 2SM 24/22 A2980 RMK SLP092 T02400220 IEM_DS3505
ZBAA,1998-08-25 02:00,ZBAA 250200Z AUTO 01004KT 4SM 27/22 A2980 RMK SLP091 T02700220 IEM_DS3505
ZBAA,1998-08-25 03:00,ZBAA 250300Z AUTO 32008KT 19SM 30/17 A2977 RMK SLP083 T02970166 57004 IEM_DS3505
ZBAA,1998-08-25 04:00,ZBAA 250400Z AUTO 30010KT 7SM 31/15 A2977 RMK SLP080 T03100150 IEM_DS3505
ZBAA,1998-08-25 05:00,ZBAA 250500Z AUTO 29012KT 7SM 32/14 A2974 RMK SLP069 T03200140 IEM_DS3505
ZBAA,1998-08-25 06:00,ZBAA 250600Z AUTO 27008KT 19SM 32/10 A2974 RMK SLP067 T03220101 57015 IEM_DS3505
ZBAA,1998-08-25 07:00,ZBAA 250700Z AUTO 28008KT 7SM 33/11 A2971 RMK SLP059 T03300110 IEM_DS3505
ZBAA,1998-08-25 08:00,ZBAA 250800Z AUTO 28012KT 7SM 33/08 A2971 RMK SLP059 T03300080 IEM_DS3505
ZBAA,1998-08-25 09:00,ZBAA 250900Z AUTO 27008G19KT 19SM 32/08 A2971 RMK SLP054 T03240079 57013 IEM_DS3505
ZBAA,1998-08-25 10:00,ZBAA 251000Z AUTO 27004KT 7SM 32/11 A2971 RMK SLP059 T03200110 IEM_DS3505
ZBAA,1998-08-25 11:00,ZBAA 251100Z AUTO 24004KT 7SM 30/11 A2971 RMK SLP060 T03000110 IEM_DS3505
ZBAA,1998-08-25 12:00,ZBAA 251200Z AUTO 22002KT 12SM 24/18 A2971 RMK SLP060 T02440185 52005 IEM_DS3505
ZBAA,1998-08-25 13:00,ZBAA 251300Z AUTO 34004KT 7SM 26/16 A2974 RMK SLP070 T02600160 IEM_DS3505
ZBAA,1998-08-25 14:00,ZBAA 251400Z AUTO 01002KT 6SM 24/16 A2974 RMK SLP071 T02400160 IEM_DS3505
ZBAA,1998-08-25 15:00,ZBAA 251500Z AUTO 29004KT 9SM 25/19 A2977 RMK SLP069 T02470191 52010 IEM_DS3505
ZBAA,1998-08-25 16:00,ZBAA 251600Z AUTO 36004KT 6SM 23/16 A2977 RMK SLP082 T02300160 IEM_DS3505
ZBAA,1998-08-25 17:00,ZBAA 251700Z AUTO 27002KT 6SM 21/16 A2977 RMK SLP082 T02100160 IEM_DS3505
ZBAA,1998-08-25 18:00,ZBAA 251800Z AUTO 09004KT 9SM 21/16 A2983 RMK SLP079 T02140156 52010 IEM_DS3505
ZBAA,1998-08-25 19:00,ZBAA 251900Z AUTO 34006KT 7SM 20/16 A2977 RMK SLP083 T02000160 IEM_DS3505
ZBAA,1998-08-25 20:00,ZBAA 252000Z AUTO 34006KT 7SM 21/15 A2980 RMK SLP092 T02100150 IEM_DS3505
ZBAA,1998-08-25 21:00,ZBAA 252100Z AUTO 34004KT 12SM 24/13 A2980 RMK SLP083 T02400126 52004 IEM_DS3505
ZBAA,1998-08-25 22:00,ZBAA 252200Z AUTO 29006KT 7SM 21/14 A2980 RMK SLP092 T02100140 IEM_DS3505
ZBAA,1998-08-25 23:00,ZBAA 252300Z AUTO ////02KT 7SM 22/14 A2983 RMK SLP102 T02200140 IEM_DS3505
ZBAA,1998-08-26 00:00,ZBAA 260000Z AUTO 32010KT 19SM 25/12 A2983 RMK SLP093 T02540116 52009 IEM_DS3505
ZBAA,1998-08-26 01:00,ZBAA 260100Z AUTO 31012KT 6SM 27/13 A2983 RMK SLP101 T02700130 IEM_DS3505
ZBAA,1998-08-26 02:00,ZBAA 260200Z AUTO 32012KT 7SM 28/10 A2983 RMK SLP101 T02800100 IEM_DS3505
ZBAA,1998-08-26 03:00,ZBAA 260300Z AUTO 34008KT 16SM 28/10 A2983 RMK SLP094 T02810103 52002 IEM_DS3505
ZBAA,1998-08-26 05:00,ZBAA 260500Z AUTO 03006KT 6SM 30/11 A2980 RMK SLP091 T03000110 IEM_DS3505
ZBAA,1998-08-26 06:00,ZBAA 260600Z AUTO 07008KT 19SM 30/12 A2980 RMK SLP085 T02960117 57009 IEM_DS3505
ZBAA,1998-08-26 07:00,ZBAA 260700Z AUTO ////04KT 6SM 31/11 A2977 RMK SLP080 T03100110 IEM_DS3505
ZBAA,1998-08-26 08:00,ZBAA 260800Z AUTO 07004KT 6SM 31/12 A2977 RMK SLP080 T03100120 IEM_DS3505
ZBAA,1998-08-26 09:00,ZBAA 260900Z AUTO 11004KT 19SM 29/16 A2977 RMK SLP078 T02870155 57007 IEM_DS3505
ZBAA,1998-08-26 10:00,ZBAA 261000Z AUTO 17002KT 6SM 29/13 A2977 RMK SLP081 T02900130 IEM_DS3505
ZBAA,1998-08-26 11:00,ZBAA 261100Z AUTO 00000KT 6SM 27/14 A2980 RMK SLP091 T02700140 IEM_DS3505
ZBAA,1998-08-26 12:00,ZBAA 261200Z AUTO 29002KT 16SM 25/17 A2980 RMK SLP088 T02480166 52010 IEM_DS3505
ZBAA,1998-08-26 13:00,ZBAA 261300Z AUTO 29006KT 6SM 25/16 A2983 RMK SLP102 T02500160 IEM_DS3505
ZBAA,1998-08-26 14:00,ZBAA 261400Z AUTO 35004KT 6SM 25/17 A2983 RMK SLP102 T02500170 IEM_DS3505
ZBAA,1998-08-26 15:00,ZBAA 261500Z AUTO 29004KT 9SM 24/16 A2983 RMK SLP093 T02370164 52005 IEM_DS3505
ZBAA,1998-08-26 17:00,ZBAA 261700Z AUTO 02002KT 6SM 23/17 A2983 RMK SLP102 T02300170 IEM_DS3505
ZBAA,1998-08-26 18:00,ZBAA 261800Z AUTO 02004KT 7SM 23/16 A2983 RMK SLP096 T02310164 52003 IEM_DS3505
ZBAA,1998-08-26 19:00,ZBAA 261900Z AUTO 08002KT 6SM 22/18 A2985 RMK SLP109 T02200180 IEM_DS3505
ZBAA,1998-08-26 20:00,ZBAA 262000Z AUTO 03002KT 6SM 21/17 A2985 RMK SLP110 T02100170 IEM_DS3505
ZBAA,1998-08-26 21:00,ZBAA 262100Z AUTO 36002KT 6SM 21/20 A2985 RMK SLP098 T02130197 52001 IEM_DS3505
ZBAA,1998-08-26 22:00,ZBAA 262200Z AUTO 03002KT 6SM 21/16 A2985 RMK SLP110 T02100160 IEM_DS3505
ZBAA,1998-08-26 23:00,ZBAA 262300Z AUTO 36004KT 6SM 22/16 A2988 RMK SLP119 T02200160 IEM_DS3505
ZBAA,1998-08-27 00:00,ZBAA 270000Z AUTO 02004KT 9SM 22/17 A2992 RMK SLP111 T02200172 52013 IEM_DS3505
ZBAA,1998-08-27 01:00,ZBAA 270100Z AUTO 02006KT 7SM 26/13 A2988 RMK SLP119 T02600130 IEM_DS3505
ZBAA,1998-08-27 02:00,ZBAA 270200Z AUTO 02008KT 7SM 27/14 A2988 RMK SLP118 T02700140 IEM_DS3505
ZBAA,1998-08-27 03:00,ZBAA 270300Z AUTO 02004KT 9SM 27/14 A2988 RMK SLP113 T02670138 52002 IEM_DS3505
ZBAA,1998-08-27 04:00,ZBAA 270400Z AUTO ////04KT 6SM 28/12 A2985 RMK SLP108 T02800120 IEM_DS3505
ZBAA,1998-08-27 05:00,ZBAA 270500Z AUTO ////04KT 6SM 29/13 A2985 RMK SLP108 T02900130 IEM_DS3505
ZBAA,1998-08-27 06:00,ZBAA 270600Z AUTO 11004KT 12SM 28/15 A2983 RMK SLP097 T02850154 57015 IEM_DS3505
ZBAA,1998-08-27 07:00,ZBAA 270700Z AUTO 17004KT 7SM 30/11 A2980 RMK SLP091 T03000110 IEM_DS3505
ZBAA,1998-08-27 08:00,ZBAA 270800Z AUTO ////04KT 6SM 30/13 A2980 RMK SLP091 T03000130 IEM_DS3505
ZBAA,1998-08-27 09:00,ZBAA 270900Z AUTO 14004KT 12SM 28/17 A2980 RMK SLP091 T02800173 57007 IEM_DS3505
ZBAA,1998-08-27 10:00,ZBAA 271000Z AUTO 30014KT 7SM 29/12 A2983 RMK SLP101 T02900120 IEM_DS3505
ZBAA,1998-08-27 11:00,ZBAA 271100Z AUTO 25006KT 7SM 25/12 A2983 RMK SLP102 T02500120 IEM_DS3505
ZBAA,1998-08-27 12:00,ZBAA 271200Z AUTO 00000KT 7SM 23/15 A2983 RMK SLP093 T02290151 52002 IEM_DS3505
ZBAA,1998-08-27 13:00,ZBAA 271300Z AUTO 03002KT 6SM 22/16 A2985 RMK SLP109 T02200160 IEM_DS3505
ZBAA,1998-08-27 14:00,ZBAA 271400Z AUTO 01004KT 7SM 21/15 A2985 RMK SLP110 T02100150 IEM_DS3505
ZBAA,1998-08-27 15:00,ZBAA 271500Z AUTO 00000KT 6SM 21/15 A2985 RMK SLP104 T02070153 52011 IEM_DS3505
ZBAA,1998-08-27 16:00,ZBAA 271600Z AUTO 00000KT 7SM 19/16 A2985 RMK SLP110 T01900160 IEM_DS3505
ZBAA,1998-08-27 17:00,ZBAA 271700Z AUTO 32004KT 7SM 20/16 A2985 RMK SLP110 T02000160 IEM_DS3505
ZBAA,1998-08-27 18:00,ZBAA 271800Z AUTO 00000KT 9SM 19/16 A2985 RMK SLP106 T01870159 52002 IEM_DS3505
ZBAA,1998-08-27 19:00,ZBAA 271900Z AUTO 32004KT 7SM 19/16 A2985 RMK SLP110 T01900160 IEM_DS3505
ZBAA,1998-08-27 20:00,ZBAA 272000Z AUTO 35004KT 7SM 19/16 A2985 RMK SLP110 T01900160 IEM_DS3505
ZBAA,1998-08-27 21:00,ZBAA 272100Z AUTO 00000KT 6SM 19/16 A2985 RMK SLP101 T01870159 57005 IEM_DS3505
ZBAA,1998-08-27 22:00,ZBAA 272200Z AUTO 35006KT 7SM 17/15 A2985 RMK SLP110 T01700150 IEM_DS3505
ZBAA,1998-08-28 00:00,ZBAA 280000Z AUTO 07004KT 6SM 22/16 A2985 RMK SLP103 T02210164 52002 IEM_DS3505
ZBAA,1998-08-28 01:00,ZBAA 280100Z AUTO 35004KT 7SM 24/17 A2985 RMK SLP109 T02400170 IEM_DS3505
ZBAA,1998-08-28 02:00,ZBAA 280200Z AUTO ////02KT 7SM 26/15 A2985 RMK SLP109 T02600150 IEM_DS3505
ZBAA,1998-08-28 03:00,ZBAA 280300Z AUTO 09004KT 7SM 27/16 A2983 RMK SLP099 T02700162 57004 IEM_DS3505
ZBAA,1998-08-28 04:00,ZBAA 280400Z AUTO ////04KT 7SM 28/14 A2980 RMK SLP091 T02800140 IEM_DS3505
ZBAA,1998-08-28 05:00,ZBAA 280500Z AUTO 24006KT 7SM 29/15 A2980 RMK SLP091 T02900150 IEM_DS3505
ZBAA,1998-08-28 06:00,ZBAA 280600Z AUTO 22006KT 12SM 30/17 A2977 RMK SLP079 T02960172 57020 IEM_DS3505
ZBAA,1998-08-28 07:00,ZBAA 280700Z AUTO 18006KT 7SM 31/16 A2974 RMK SLP069 T03100160 IEM_DS3505
ZBAA,1998-08-28 08:00,ZBAA 280800Z AUTO 17008KT 6SM 30/17 A2974 RMK SLP070 T03000170 IEM_DS3505
ZBAA,1998-08-28 09:00,ZBAA 280900Z AUTO 22008KT 12SM 30/18 A2971 RMK SLP065 T02980175 57014 IEM_DS3505
ZBAA,1998-08-28 10:00,ZBAA 281000Z AUTO 16006KT 6SM 28/17 A2971 RMK SLP060 T02800170 IEM_DS3505
ZBAA,1998-08-28 11:00,ZBAA 281100Z AUTO 14004KT 7SM 26/19 A2971 RMK SLP060 T02600190 IEM_DS3505
ZBAA,1998-08-28 12:00,ZBAA 281200Z AUTO 20002KT 12SM 25/20 A2974 RMK SLP065 T02540201 54000 IEM_DS3505
ZBAA,1998-08-28 13:00,ZBAA 281300Z AUTO 21012KT 7SM 24/16 A2977 RMK SLP082 T02400160 IEM_DS3505
ZBAA,1998-08-28 14:00,ZBAA 281400Z AUTO ////04KT 7SM 24/17 A2977 RMK SLP082 T02400170 IEM_DS3505
ZBAA,1998-08-28 15:00,ZBAA 281500Z AUTO 14004KT 9SM 20/16 A2977 RMK SLP077 T01970161 52012 IEM_DS3505
ZBAA,1998-08-28 16:00,ZBAA 281600Z AUTO 25004KT 6SM 22/16 A2977 RMK SLP082 T02200160 IEM_DS3505
ZBAA,1998-08-28 17:00,ZBAA 281700Z AUTO 35006KT 6SM 21/16 A2977 RMK SLP082 T02100160 IEM_DS3505
ZBAA,1998-08-28 18:00,ZBAA 281800Z AUTO 11006KT 7SM 19/17 A2977 RMK 60008 SLP076 T01940166 57001 IEM_DS3505
ZBAA,1998-08-28 19:00,ZBAA 281900Z AUTO 22002KT 7SM 19/17 A2977 RMK SLP083 T01900170 IEM_DS3505
ZBAA,1998-08-28 20:00,ZBAA 282000Z AUTO 00000KT 7SM 18/17 A2977 RMK SLP083 T01800170 IEM_DS3505
ZBAA,1998-08-28 21:00,ZBAA 282100Z AUTO 00000KT 6SM 17/16 A2977 RMK 70008 SLP075 T01680161 57001 IEM_DS3505
ZBAA,1998-08-28 22:00,ZBAA 282200Z AUTO 36004KT 6SM 18/17 A2977 RMK SLP083 T01800170 IEM_DS3505
ZBAA,1998-08-28 23:00,ZBAA 282300Z AUTO 35002KT 6SM 20/17 A2977 RMK SLP083 T02000170 IEM_DS3505
ZBAA,1998-08-29 00:00,ZBAA 290000Z AUTO 04004KT 6SM 23/17 A2977 RMK 70008 SLP079 T02280168 52004 IEM_DS3505
ZBAA,1998-08-29 01:00,ZBAA 290100Z AUTO 35004KT 5SM 23/18 A2977 RMK SLP082 T02300180 IEM_DS3505
ZBAA,1998-08-29 02:00,ZBAA 290200Z AUTO ////04KT 6SM 26/17 A2977 RMK SLP081 T02600170 IEM_DS3505
ZBAA,1998-08-29 03:00,ZBAA 290300Z AUTO 18006KT 9SM 27/18 A2978 RMK SLP083 T02720178 52004 IEM_DS3505
ZBAA,1998-08-29 04:00,ZBAA 290400Z AUTO ////04KT 7SM 28/16 A2977 RMK SLP081 T02800160 IEM_DS3505
ZBAA,1998-08-29 05:00,ZBAA 290500Z AUTO 13006KT 6SM 29/16 A2974 RMK SLP070 T02900160 IEM_DS3505
ZBAA,1998-08-29 06:00,ZBAA 290600Z AUTO 14006KT 7SM 29/17 A2971 RMK SLP063 T02890167 57020 IEM_DS3505
ZBAA,1998-08-29 07:00,ZBAA 290700Z AUTO 16002KT 7SM 27/18 A2974 RMK SLP070 T02700180 IEM_DS3505
ZBAA,1998-08-29 08:00,ZBAA 290800Z AUTO 19008KT 7SM 27/10 A2974 RMK SLP070 T02700100 IEM_DS3505
ZBAA,1998-08-29 09:00,ZBAA 290900Z AUTO 29008KT 12SM 24/12 A2971 RMK SLP067 T02350122 52004 IEM_DS3505
ZBAA,1998-08-29 10:00,ZBAA 291000Z AUTO 01008KT 7SM 23/14 A2977 RMK SLP082 T02300140 IEM_DS3505
ZBAA,1998-08-29 11:00,ZBAA 291100Z AUTO 17006KT 6SM 22/15 A2974 RMK SLP071 T02200150 IEM_DS3505
ZBAA,1998-08-29 12:00,ZBAA 291200Z AUTO 16002KT 12SM 21/13 A2980 RMK 60004 SLP079 T02110133 52012 IEM_DS3505
ZBAA,1998-08-29 13:00,ZBAA 291300Z AUTO 13008KT 6SM 19/14 A2983 RMK SLP103 T01900140 IEM_DS3505
ZBAA,1998-08-29 14:00,ZBAA 291400Z AUTO 12006KT 7SM 18/14 A2983 RMK SLP103 T01800140 IEM_DS3505
ZBAA,1998-08-29 15:00,ZBAA 291500Z AUTO 04004KT 9SM 17/15 A2985 RMK SLP098 T01710150 52019 IEM_DS3505
ZBAA,1998-08-29 16:00,ZBAA 291600Z AUTO 33002KT 7SM 17/14 A2985 RMK SLP110 T01700140 IEM_DS3505
ZBAA,1998-08-29 17:00,ZBAA 291700Z AUTO 00000KT 7SM 17/15 A2985 RMK SLP110 T01700150 IEM_DS3505
ZBAA,1998-08-29 18:00,ZBAA 291800Z AUTO 07002KT 9SM 16/14 A2985 RMK SLP102 T01610145 52004 IEM_DS3505
ZBAA,1998-08-29 19:00,ZBAA 291900Z AUTO 28002KT 7SM 17/14 A2985 RMK SLP110 T01700140 IEM_DS3505
ZBAA,1998-08-29 20:00,ZBAA 292000Z AUTO 03002KT 7SM 16/15 A2985 RMK SLP111 T01600150 IEM_DS3505
ZBAA,1998-08-29 21:00,ZBAA 292100Z AUTO 00000KT 6SM 15/15 A2985 RMK 70004 SLP106 T01510146 52004 IEM_DS3505
ZBAA,1998-08-29 22:00,ZBAA 292200Z AUTO 00000KT 4SM 15/15 A2988 RMK SLP121 T01500150 IEM_DS3505
ZBAA,1998-08-30 00:00,ZBAA 300000Z AUTO 04004KT 4SM 20/15 A2991 RMK 70004 SLP119 T02040150 52013 IEM_DS3505
ZBAA,1998-08-30 01:00,ZBAA 300100Z AUTO ////02KT 6SM 20/16 A2991 RMK SLP130 T02000160 IEM_DS3505
ZBAA,1998-08-30 02:00,ZBAA 300200Z AUTO ////02KT 7SM 22/16 A2991 RMK SLP130 T02200160 IEM_DS3505
ZBAA,1998-08-30 03:00,ZBAA 300300Z AUTO 07006KT 9SM 23/15 A2991 RMK SLP127 T02310147 52008 IEM_DS3505
ZBAA,1998-08-30 04:00,ZBAA 300400Z AUTO ////04KT 6SM 25/15 A2988 RMK SLP119 T02500150 IEM_DS3505
ZBAA,1998-08-30 05:00,ZBAA 300500Z AUTO 13006KT 6SM 26/15 A2988 RMK SLP119 T02600150 IEM_DS3505
ZBAA,1998-08-30 06:00,ZBAA 300600Z AUTO 11006KT 12SM 25/15 A2985 RMK SLP112 T02520152 57015 IEM_DS3505
ZBAA,1998-08-30 07:00,ZBAA 300700Z AUTO 13006KT 6SM 26/15 A2985 RMK SLP109 T02600150 IEM_DS3505
ZBAA,1998-08-30 08:00,ZBAA 300800Z AUTO 19004KT 6SM 26/16 A2985 RMK SLP109 T02600160 IEM_DS3505
ZBAA,1998-08-30 09:00,ZBAA 300900Z AUTO 09004KT 12SM 26/16 A2985 RMK SLP102 T02550159 57010 IEM_DS3505
ZBAA,1998-08-30 11:00,ZBAA 301100Z AUTO 16002KT 6SM 23/17 A2985 RMK SLP109 T02300170 IEM_DS3505
ZBAA,1998-08-30 12:00,ZBAA 301200Z AUTO 00000KT 6SM 21/17 A2988 RMK SLP112 T02130174 52010 IEM_DS3505
ZBAA,1998-08-30 13:00,ZBAA 301300Z AUTO 00000KT 6SM 21/17 A2988 RMK SLP120 T02100170 IEM_DS3505
ZBAA,1998-08-30 14:00,ZBAA 301400Z AUTO 11002KT 7SM 21/18 A2991 RMK SLP130 T02100180 IEM_DS3505
ZBAA,1998-08-30 15:00,ZBAA 301500Z AUTO 14004KT 6SM 20/18 A2991 RMK SLP122 T01990183 52010 IEM_DS3505
ZBAA,1998-08-30 16:00,ZBAA 301600Z AUTO 11008KT 4SM 20/19 A2991 RMK SLP130 T02000190 IEM_DS3505
ZBAA,1998-08-30 17:00,ZBAA 301700Z AUTO 11002KT 4SM 19/18 A2991 RMK SLP130 T01900180 IEM_DS3505
ZBAA,1998-08-30 18:00,ZBAA 301800Z AUTO 02006KT 6SM 20/18 A2991 RMK SLP127 T02010180 52005 IEM_DS3505
ZBAA,1998-08-30 19:00,ZBAA 301900Z AUTO 00000KT 7SM 19/18 A2994 RMK SLP140 T01900180 IEM_DS3505
ZBAA,1998-08-30 20:00,ZBAA 302000Z AUTO 00000KT 7SM 19/17 A2994 RMK SLP140 T01900170 IEM_DS3505
ZBAA,1998-08-30 21:00,ZBAA 302100Z AUTO 02002KT 3SM 19/18 A2994 RMK 70016 SLP133 T01870176 52006 IEM_DS3505
ZBAA,1998-08-30 22:00,ZBAA 302200Z AUTO 26006KT 7SM 18/16 A2997 RMK SLP150 T01800160 IEM_DS3505
ZBAA,1998-08-30 23:00,ZBAA 302300Z AUTO 27004KT 7SM 17/16 A2997 RMK SLP151 T01700160 IEM_DS3505
ZBAA,1998-08-31 00:00,ZBAA 310000Z AUTO 34002KT 1 1/4SM 18/18 A2997 RMK 60075 70075 SLP145 T01850177 52012 IEM_DS3505
ZBAA,1998-08-31 01:00,ZBAA 310100Z AUTO ////02KT 7SM 20/17 A2997 RMK SLP150 T02000170 IEM_DS3505
ZBAA,1998-08-31 02:00,ZBAA 310200Z AUTO 36004KT 6SM 22/17 A2997 RMK SLP150 T02200170 IEM_DS3505
ZBAA,1998-08-31 03:00,ZBAA 310300Z AUTO 02002KT 3SM 23/17 A2997 RMK SLP148 T02270170 52003 IEM_DS3505
ZBAA,1998-08-31 04:00,ZBAA 310400Z AUTO ////02KT 6SM 25/16 A2994 RMK SLP139 T02500160 IEM_DS3505
ZBAA,1998-08-31 05:00,ZBAA 310500Z AUTO ////04KT 6SM 25/17 A2994 RMK SLP139 T02500170 IEM_DS3505
ZBAA,1998-08-31 06:00,ZBAA 310600Z AUTO 22008KT 9SM 26/17 A2994 RMK 60000 SLP135 T02580167 57013 IEM_DS3505
ZBAA,1998-08-31 07:00,ZBAA 310700Z AUTO 08006KT 7SM 23/16 A2994 RMK SLP139 T02300160 IEM_DS3505
ZBAA,1998-08-31 08:00,ZBAA 310800Z AUTO 07002KT 6SM 23/16 A2991 RMK SLP129 T02300160 IEM_DS3505
ZBAA,1998-08-31 09:00,ZBAA 310900Z AUTO 22004KT 10SM 25/16 A2991 RMK SLP129 T02520157 57006 IEM_DS3505
ZBAA,1998-08-31 10:00,ZBAA 311000Z AUTO 07004KT 6SM 22/17 A2991 RMK SLP130 T02200170 IEM_DS3505
ZBAA,1998-08-31 11:00,ZBAA 311100Z AUTO 10002KT 6SM 21/18 A2991 RMK SLP130 T02100180 IEM_DS3505
ZBAA,1998-08-31 12:00,ZBAA 311200Z AUTO 00000KT 9SM 20/17 A2994 RMK SLP135 T02020171 52006 IEM_DS3505
ZBAA,1998-08-31 13:00,ZBAA 311300Z AUTO 00000KT 6SM 20/18 A2994 RMK SLP140 T02000180 IEM_DS3505
ZBAA,1998-08-31 14:00,ZBAA 311400Z AUTO 26004KT 7SM 20/18 A2994 RMK SLP140 T02000180 IEM_DS3505
ZBAA,1998-08-31 15:00,ZBAA 311500Z AUTO 00000KT 9SM 19/17 A2997 RMK SLP141 T01870174 52006 IEM_DS3505
ZBAA,1998-08-31 16:00,ZBAA 311600Z AUTO 01002KT 5SM 19/18 A2997 RMK SLP150 T01900180 IEM_DS3505
ZBAA,1998-08-31 17:00,ZBAA 311700Z AUTO 34004KT 4SM 18/17 A2997 RMK SLP150 T01800170 IEM_DS3505
ZBAA,1998-08-31 18:00,ZBAA 311800Z AUTO 00000KT 1 1/4SM 18/17 A2994 RMK SLP142 T01750170 52001 IEM_DS3505
ZBAA,1998-08-31 19:00,ZBAA 311900Z AUTO 34004KT 4SM 18/17 A2994 RMK SLP140 T01800170 IEM_DS3505
ZBAA,1998-08-31 20:00,ZBAA 312000Z AUTO 34004KT 3SM 17/16 A2994 RMK SLP141 T01700160 IEM_DS3505
ZBAA,1998-08-31 21:00,ZBAA 312100Z AUTO 00000KT 1SM 17/17 A2994 RMK 70063 SLP141 T01700167 57001 IEM_DS3505
ZBAA,1998-08-31 22:00,ZBAA 312200Z AUTO 34004KT 3SM 17/16 A2997 RMK SLP151 T01700160 IEM_DS3505
ZBAA,1998-08-31 23:00,ZBAA 312300Z AUTO 34006KT 4SM 18/17 A2997 RMK SLP150 T01800170 IEM_DS3505
ZBAA,1998-09-01 00:00,ZBAA 010000Z AUTO 04004KT 5SM 20/17 A2997 RMK SLP146 T02010167 52005 IEM_DS3505
ZBAA,1998-09-01 01:00,ZBAA 010100Z AUTO 36004KT 7SM 21/17 A2997 RMK SLP150 T02100170 IEM_DS3505
ZBAA,1998-09-01 02:00,ZBAA 010200Z AUTO 36004KT 6SM 23/17 A3000 RMK SLP159 T02300170 IEM_DS3505
ZBAA,1998-09-01 03:00,ZBAA 010300Z AUTO 11004KT 7SM 24/16 A2997 RMK SLP151 T02400162 52005 IEM_DS3505
ZBAA,1998-09-01 05:00,ZBAA 010500Z AUTO 07004KT 7SM 26/17 A2994 RMK SLP139 T02600170 IEM_DS3505
ZBAA,1998-09-01 06:00,ZBAA 010600Z AUTO 14004KT 9SM 27/16 A2994 RMK SLP136 T02680162 57015 IEM_DS3505
ZBAA,1998-09-01 07:00,ZBAA 010700Z AUTO ////02KT 6SM 27/17 A2991 RMK SLP129 T02700170 IEM_DS3505
ZBAA,1998-09-01 08:00,ZBAA 010800Z AUTO 17004KT 7SM 27/16 A2988 RMK SLP118 T02700160 IEM_DS3505
ZBAA,1998-09-01 09:00,ZBAA 010900Z AUTO 17006KT 7SM 27/17 A2988 RMK SLP118 T02700170 IEM_DS3505
ZBAA,1998-09-01 11:00,ZBAA 011100Z AUTO 14004KT 6SM 24/18 A2988 RMK SLP119 T02400180 IEM_DS3505
ZBAA,1998-09-01 12:00,ZBAA 011200Z AUTO 16002KT 6SM 22/19 A2991 RMK SLP128 T02210190 52002 IEM_DS3505
ZBAA,1998-09-01 13:00,ZBAA 011300Z AUTO 17004KT 4SM 22/19 A2994 RMK SLP140 T02200190 IEM_DS3505
ZBAA,1998-09-01 14:00,ZBAA 011400Z AUTO 16002KT 4SM 22/19 A2994 RMK SLP140 T02200190 IEM_DS3505
ZBAA,1998-09-01 15:00,ZBAA 011500Z AUTO 18002KT 6SM 21/19 A2994 RMK SLP137 T02060187 52009 IEM_DS3505
ZBAA,1998-09-01 16:00,ZBAA 011600Z AUTO 21002KT 3SM 21/19 A2994 RMK SLP140 T02100190 IEM_DS3505
ZBAA,1998-09-01 17:00,ZBAA 011700Z AUTO 00000KT 2 1/2SM 20/19 A2994 RMK SLP140 T02000190 IEM_DS3505
ZBAA,1998-09-01 18:00,ZBAA 011800Z AUTO 00000KT 5SM 19/18 A2994 RMK SLP137 T01930180 54000 IEM_DS3505
ZBAA,1998-09-01 19:00,ZBAA 011900Z AUTO 00000KT 2SM 18/18 A2991 RMK SLP130 T01800180 IEM_DS3505
ZBAA,1998-09-01 20:00,ZBAA 012000Z AUTO 00000KT 2SM 18/18 A2991 RMK SLP130 T01800180 IEM_DS3505
ZBAA,1998-09-01 21:00,ZBAA 012100Z AUTO 00000KT 1 1/4SM 18/18 A2991 RMK SLP128 T01810176 57009 IEM_DS3505
ZBAA,1998-09-01 22:00,ZBAA 012200Z AUTO 00000KT 2SM 18/18 A2991 RMK SLP130 T01800180 IEM_DS3505
ZBAA,1998-09-01 23:00,ZBAA 012300Z AUTO 36002KT 2SM 19/18 A2994 RMK SLP140 T01900180 IEM_DS3505
ZBAA,1998-09-02 00:00,ZBAA 020000Z AUTO 00000KT 3SM 20/19 A2994 RMK SLP135 T02030186 52007 IEM_DS3505
ZBAA,1998-09-02 01:00,ZBAA 020100Z AUTO 00000KT 3SM 22/18 A2994 RMK SLP140 T02200180 IEM_DS3505
ZBAA,1998-09-02 02:00,ZBAA 020200Z AUTO ////02KT 3SM 24/18 A2994 RMK SLP139 T02400180 IEM_DS3505
ZBAA,1998-09-02 03:00,ZBAA 020300Z AUTO 16004KT 2SM 25/19 A2991 RMK SLP133 T02530193 57002 IEM_DS3505
ZBAA,1998-09-02 04:00,ZBAA 020400Z AUTO ////04KT 4SM 26/20 A2991 RMK SLP129 T02600200 IEM_DS3505
ZBAA,1998-09-02 05:00,ZBAA 020500Z AUTO 18004KT 3SM 27/20 A2988 RMK SLP118 T02700200 IEM_DS3505
ZBAA,1998-09-02 06:00,ZBAA 020600Z AUTO 22008KT 6SM 27/20 A2985 RMK SLP113 T02740195 57020 IEM_DS3505
ZBAA,1998-09-02 08:00,ZBAA 020800Z AUTO 17008KT 5SM 28/19 A2983 RMK SLP101 T02800190 IEM_DS3505
ZBAA,1998-09-02 09:00,ZBAA 020900Z AUTO 18006KT 4SM 27/20 A2983 RMK SLP100 T02730199 57013 IEM_DS3505
ZBAA,1998-09-02 10:00,ZBAA 021000Z AUTO 15002KT 3SM 26/21 A2985 RMK SLP109 T02600210 IEM_DS3505
ZBAA,1998-09-02 11:00,ZBAA 021100Z AUTO 12002KT 3SM 25/20 A2985 RMK SLP109 T02500200 IEM_DS3505
ZBAA,1998-09-02 12:00,ZBAA 021200Z AUTO 34012KT 2 1/2SM 24/22 A2991 RMK 60002 SLP130 T02410219 52030 IEM_DS3505
ZBAA,1998-09-02 13:00,ZBAA 021300Z AUTO 26006KT 7SM 19/18 A2988 RMK SLP120 T01900180 IEM_DS3505
ZBAA,1998-09-02 14:00,ZBAA 021400Z AUTO 23006KT 6SM 19/17 A2988 RMK SLP120 T01900170 IEM_DS3505
ZBAA,1998-09-02 15:00,ZBAA 021500Z AUTO 16004KT 12SM 19/18 A2985 RMK SLP115 T01870179 57015 IEM_DS3505
ZBAA,1998-09-02 16:00,ZBAA 021600Z AUTO 23006KT 7SM 20/17 A2985 RMK SLP110 T02000170 IEM_DS3505
ZBAA,1998-09-02 17:00,ZBAA 021700Z AUTO 34004KT 7SM 19/17 A2985 RMK SLP110 T01900170 IEM_DS3505
ZBAA,1998-09-02 18:00,ZBAA 021800Z AUTO 20004KT 4SM 18/17 A2985 RMK 60008 SLP102 T01790171 57013 IEM_DS3505
ZBAA,1998-09-02 19:00,ZBAA 021900Z AUTO 04002KT 5SM 18/17 A2983 RMK SLP103 T01800170 IEM_DS3505
ZBAA,1998-09-02 20:00,ZBAA 022000Z AUTO 00000KT 4SM 17/17 A2983 RMK SLP103 T01700170 IEM_DS3505
ZBAA,1998-09-02 21:00,ZBAA 022100Z AUTO 00000KT 2SM 18/17 A2983 RMK 70008 SLP092 T01810174 57010 IEM_DS3505
ZBAA,1998-09-02 22:00,ZBAA 022200Z AUTO 34002KT 2SM 17/17 A2983 RMK SLP103 T01700170 IEM_DS3505
ZBAA,1998-09-02 23:00,ZBAA 022300Z AUTO 35004KT 1 1/2SM 18/17 A2983 RMK SLP103 T01800170 IEM_DS3505
ZBAA,1998-09-03 00:00,ZBAA 030000Z AUTO 07004KT 2SM 20/18 A2987 RMK 70008 SLP094 T01950185 52002 IEM_DS3505
ZBAA,1998-09-03 01:00,ZBAA 030100Z AUTO 11002KT 2 1/2SM 21/19 RMK T02100190 IEM_DS3505
ZBAA,1998-09-03 02:00,ZBAA 030200Z AUTO 12004KT 3SM 22/20 A2983 RMK SLP102 T02200200 IEM_DS3505
ZBAA,1998-09-03 03:00,ZBAA 030300Z AUTO 18006KT 4SM 25/20 A2983 RMK SLP096 T02460202 52002 IEM_DS3505
ZBAA,1998-09-03 04:00,ZBAA 030400Z AUTO 14004KT 3SM 26/19 A2980 RMK SLP091 T02600190 IEM_DS3505
ZBAA,1998-09-03 05:00,ZBAA 030500Z AUTO 16008KT 2 1/2SM 26/21 A2980 RMK SLP091 T02600210 IEM_DS3505
ZBAA,1998-09-03 06:00,ZBAA 030600Z AUTO 14006KT 5SM 26/20 A2977 RMK SLP080 T02590205 57016 IEM_DS3505
ZBAA,1998-09-03 07:00,ZBAA 030700Z AUTO 13006KT 2 1/2SM 26/21 A2974 RMK SLP070 T02600210 IEM_DS3505
ZBAA,1998-09-03 08:00,ZBAA 030800Z AUTO 14004KT 2 1/2SM 26/21 A2971 RMK SLP060 T02600210 IEM_DS3505
ZBAA,1998-09-03 09:00,ZBAA 030900Z AUTO 18004KT 5SM 27/22 A2971 RMK SLP055 T02670217 57025 IEM_DS3505
ZBAA,1998-09-03 10:00,ZBAA 031000Z AUTO 10004KT 3SM 25/22 A2971 RMK SLP060 T02500220 IEM_DS3505
ZBAA,1998-09-03 11:00,ZBAA 031100Z AUTO 13002KT 2 1/2SM 24/21 A2971 RMK SLP061 T02400210 IEM_DS3505
ZBAA,1998-09-03 12:00,ZBAA 031200Z AUTO 00000KT 2SM 24/22 A2974 RMK SLP059 T02400222 52004 IEM_DS3505
ZBAA,1998-09-03 14:00,ZBAA 031400Z AUTO 36006KT 2 1/2SM 23/21 A2974 RMK SLP071 T02300210 IEM_DS3505
ZBAA,1998-09-03 15:00,ZBAA 031500Z AUTO 02002KT 1 1/4SM 23/21 A2971 RMK SLP063 T02270210 52004 IEM_DS3505
ZBAA,1998-09-03 16:00,ZBAA 031600Z AUTO 36002KT 1 1/2SM 22/21 A2974 RMK SLP071 T02200210 IEM_DS3505
ZBAA,1998-09-03 17:00,ZBAA 031700Z AUTO 15002KT 1SM 21/21 A2974 RMK SLP071 T02100210 IEM_DS3505
ZBAA,1998-09-03 18:00,ZBAA 031800Z AUTO 34002KT 1 1/4SM 21/20 A2974 RMK SLP064 T02140203 52001 IEM_DS3505
ZBAA,1998-09-03 19:00,ZBAA 031900Z AUTO 35004KT 1SM 21/ A2974 RMK SLP071 IEM_DS3505
ZBAA,1998-09-03 22:00,ZBAA 032200Z AUTO 01004KT 1SM 20/20 A2974 RMK SLP072 T02000200 IEM_DS3505
ZBAA,1998-09-03 23:00,ZBAA 032300Z AUTO 32004KT 1SM 21/20 A2974 RMK SLP071 T02100200 IEM_DS3505
ZBAA,1998-09-04 00:00,ZBAA 040000Z AUTO 36006KT 4SM 23/20 A2974 RMK SLP067 T02280202 52003 IEM_DS3505
ZBAA,1998-09-04 01:00,ZBAA 040100Z AUTO 04006KT 3SM 25/19 A2974 RMK SLP071 T02500190 IEM_DS3505
ZBAA,1998-09-04 02:00,ZBAA 040200Z AUTO 02004KT 4SM 27/16 A2977 RMK SLP081 T02700160 IEM_DS3505
ZBAA,1998-09-04 03:00,ZBAA 040300Z AUTO 07006KT 9SM 28/16 A2977 RMK SLP071 T02820160 52005 IEM_DS3505
ZBAA,1998-09-04 04:00,ZBAA 040400Z AUTO ////04KT 7SM 29/15 A2974 RMK SLP070 T02900150 IEM_DS3505
ZBAA,1998-09-04 05:00,ZBAA 040500Z AUTO 02004KT 7SM 29/17 A2974 RMK SLP070 T02900170 IEM_DS3505
ZBAA,1998-09-04 06:00,ZBAA 040600Z AUTO 09008KT 9SM 30/14 A2971 RMK SLP058 T02950143 57013 IEM_DS3505
ZBAA,1998-09-04 07:00,ZBAA 040700Z AUTO ////04KT 7SM 31/16 A2968 RMK SLP049 T03100160 IEM_DS3505
ZBAA,1998-09-04 08:00,ZBAA 040800Z AUTO 10004KT 7SM 31/12 A2968 RMK SLP049 T03100120 IEM_DS3505
ZBAA,1998-09-04 09:00,ZBAA 040900Z AUTO 20004KT 11SM 30/15 A2968 RMK SLP048 T02970146 57010 IEM_DS3505
ZBAA,1998-09-04 10:00,ZBAA 041000Z AUTO 18004KT 7SM 29/15 A2968 RMK SLP050 T02900150 IEM_DS3505
ZBAA,1998-09-04 11:00,ZBAA 041100Z AUTO 19006KT 7SM 27/15 A2968 RMK SLP050 T02700150 IEM_DS3505
ZBAA,1998-09-04 12:00,ZBAA 041200Z AUTO 00000KT 7SM 24/18 A2971 RMK SLP054 T02430180 52005 IEM_DS3505
ZBAA,1998-09-04 13:00,ZBAA 041300Z AUTO 13002KT 7SM 23/18 A2971 RMK SLP061 T02300180 IEM_DS3505
ZBAA,1998-09-04 14:00,ZBAA 041400Z AUTO 12002KT 4SM 21/18 A2974 RMK SLP071 T02100180 IEM_DS3505
ZBAA,1998-09-04 15:00,ZBAA 041500Z AUTO 14004KT 6SM 20/18 A2974 RMK SLP061 T02050178 52008 IEM_DS3505
ZBAA,1998-09-04 16:00,ZBAA 041600Z AUTO 00000KT 4SM 21/19 A2974 RMK SLP071 T02100190 IEM_DS3505
ZBAA,1998-09-04 18:00,ZBAA 041800Z AUTO 14004KT 9SM 19/17 A2971 RMK SLP058 T01910166 57003 IEM_DS3505
ZBAA,1998-09-04 19:00,ZBAA 041900Z AUTO 11006KT 1 1/4SM 20/20 A2971 RMK SLP062 T02000200 IEM_DS3505
ZBAA,1998-09-04 20:00,ZBAA 042000Z AUTO 11004KT 1/2SM 20/20 A2971 RMK SLP062 T02000200 IEM_DS3505
ZBAA,1998-09-04 21:00,ZBAA 042100Z AUTO 07004KT 7SM 20/18 A2968 RMK SLP049 T01950185 57009 IEM_DS3505
ZBAA,1998-09-04 22:00,ZBAA 042200Z AUTO 13002KT 1SM 21/21 A2968 RMK SLP051 T02100210 IEM_DS3505
ZBAA,1998-09-04 23:00,ZBAA 042300Z AUTO 10002KT 1SM 21/21 A2968 RMK SLP051 T02100210 IEM_DS3505
ZBAA,1998-09-05 00:00,ZBAA 050000Z AUTO 07002KT 1SM 20/20 A2971 RMK SLP051 T02050197 52001 IEM_DS3505
ZBAA,1998-09-05 01:00,ZBAA 050100Z AUTO 12004KT 1 1/4SM 22/21 A2971 RMK SLP061 T02200210 IEM_DS3505
ZBAA,1998-09-05 02:00,ZBAA 050200Z AUTO 15002KT 1 1/4SM 23/20 A2971 RMK SLP061 T02300200 IEM_DS3505
ZBAA,1998-09-05 03:00,ZBAA 050300Z AUTO 07004KT 1 1/4SM 25/21 A2967 RMK SLP046 T02480206 57005 IEM_DS3505
ZBAA,1998-09-05 04:00,ZBAA 050400Z AUTO ////02KT 1 1/4SM 26/21 A2965 RMK SLP040 T02600210 IEM_DS3505
ZBAA,1998-09-05 05:00,ZBAA 050500Z AUTO ////04KT 1 1/2SM 27/21 A2962 RMK SLP030 T02700210 IEM_DS3505
ZBAA,1998-09-05 06:00,ZBAA 050600Z AUTO 16004KT 3SM 29/22 A2965 RMK SLP019 T02880224 57026 IEM_DS3505
ZBAA,1998-09-05 07:00,ZBAA 050700Z AUTO ////02KT 2SM 29/22 A2959 RMK SLP019 T02900220 IEM_DS3505
ZBAA,1998-09-05 08:00,ZBAA 050800Z AUTO 13002KT 2SM 29/22 A2956 RMK SLP009 T02900220 IEM_DS3505
ZBAA,1998-09-05 09:00,ZBAA 050900Z AUTO 20008KT 4SM 30/22 A2956 RMK SLP008 T02960218 57011 IEM_DS3505
ZBAA,1998-09-05 11:00,ZBAA 051100Z AUTO 15002KT 2 1/2SM 27/23 A2956 RMK SLP010 T02700230 IEM_DS3505
ZBAA,1998-09-05 12:00,ZBAA 051200Z AUTO 09004KT 3SM 25/23 A2959 RMK SLP013 T02500231 52004 IEM_DS3505
ZBAA,1998-09-05 13:00,ZBAA 051300Z AUTO 02002KT 1 1/4SM 25/23 A2962 RMK SLP030 T02500230 IEM_DS3505
ZBAA,1998-09-05 14:00,ZBAA 051400Z AUTO 01002KT 1 1/4SM 25/23 A2962 RMK SLP030 T02500230 IEM_DS3505
ZBAA,1998-09-05 15:00,ZBAA 051500Z AUTO 02004KT 2 1/2SM 24/23 A2965 RMK SLP026 T02420230 52014 IEM_DS3505
ZBAA,1998-09-05 16:00,ZBAA 051600Z AUTO 35006KT 1SM 24/22 A2965 RMK SLP041 T02400220 IEM_DS3505
ZBAA,1998-09-05 17:00,ZBAA 051700Z AUTO 36006KT 1SM 23/22 A2965 RMK SLP041 T02300220 IEM_DS3505
ZBAA,1998-09-05 18:00,ZBAA 051800Z AUTO 02002KT 2 1/2SM 24/22 A2965 RMK SLP032 T02420217 52006 IEM_DS3505
ZBAA,1998-09-05 19:00,ZBAA 051900Z AUTO 36004KT 1SM 22/21 A2965 RMK SLP041 T02200210 IEM_DS3505
ZBAA,1998-09-05 20:00,ZBAA 052000Z AUTO 35004KT 1SM 22/21 A2965 RMK SLP041 T02200210 IEM_DS3505
ZBAA,1998-09-05 21:00,ZBAA 052100Z AUTO 04004KT 3SM 22/19 A2965 RMK SLP034 T02190186 52002 IEM_DS3505
ZBAA,1998-09-05 22:00,ZBAA 052200Z AUTO 36002KT 1SM 20/19 A2968 RMK SLP051 T02000190 IEM_DS3505
ZBAA,1998-09-05 23:00,ZBAA 052300Z AUTO 04002KT 2SM 21/18 A2968 RMK SLP051 T02100180 IEM_DS3505
ZBAA,1998-09-06 00:00,ZBAA 060000Z AUTO 07004KT 3SM 24/18 A2971 RMK SLP053 T02380180 52019 IEM_DS3505
ZBAA,1998-09-06 01:00,ZBAA 060100Z AUTO 11004KT 7SM 25/17 A2971 RMK SLP060 T02500170 IEM_DS3505
ZBAA,1998-09-06 02:00,ZBAA 060200Z AUTO ////02KT 7SM 27/18 A2971 RMK SLP060 T02700180 IEM_DS3505
ZBAA,1998-09-06 03:00,ZBAA 060300Z AUTO 11006KT 6SM 28/21 A2971 RMK SLP056 T02830207 52003 IEM_DS3505
ZBAA,1998-09-06 04:00,ZBAA 060400Z AUTO ////04KT 7SM 29/19 A2968 RMK SLP050 T02900190 IEM_DS3505
ZBAA,1998-09-06 05:00,ZBAA 060500Z AUTO ////04KT 7SM 30/17 A2968 RMK SLP049 T03000170 IEM_DS3505
ZBAA,1998-09-06 06:00,ZBAA 060600Z AUTO 20006KT 6SM 31/17 A2965 RMK SLP040 T03100173 57016 IEM_DS3505
ZBAA,1998-09-06 07:00,ZBAA 060700Z AUTO 15008KT 7SM 30/19 A2962 RMK SLP029 T03000190 IEM_DS3505
ZBAA,1998-09-06 08:00,ZBAA 060800Z AUTO 16006KT 7SM 31/18 A2962 RMK SLP029 T03100180 IEM_DS3505
ZBAA,1998-09-06 09:00,ZBAA 060900Z AUTO 20008KT 11SM 30/18 A2959 RMK SLP023 T03050178 57017 IEM_DS3505
ZBAA,1998-09-06 10:00,ZBAA 061000Z AUTO 19006KT 7SM 28/19 A2959 RMK SLP020 T02800190 IEM_DS3505
ZBAA,1998-09-06 11:00,ZBAA 061100Z AUTO 12004KT 7SM 27/19 A2959 RMK SLP020 T02700190 IEM_DS3505
ZBAA,1998-09-06 12:00,ZBAA 061200Z AUTO 20004KT 12SM 27/20 A2962 RMK SLP024 T02660196 52001 IEM_DS3505
ZBAA,1998-09-06 13:00,ZBAA 061300Z AUTO 11004KT 7SM 25/19 A2962 RMK SLP030 T02500190 IEM_DS3505
ZBAA,1998-09-06 14:00,ZBAA 061400Z AUTO 11002KT 7SM 24/20 A2965 RMK SLP041 T02400200 IEM_DS3505
ZBAA,1998-09-06 15:00,ZBAA 061500Z AUTO 11004KT 9SM 22/19 A2962 RMK SLP032 T02200187 52008 IEM_DS3505
ZBAA,1998-09-06 16:00,ZBAA 061600Z AUTO 36006KT 7SM 22/20 A2965 RMK SLP041 T02200200 IEM_DS3505
ZBAA,1998-09-06 17:00,ZBAA 061700Z AUTO 03002KT 7SM 22/19 A2965 RMK SLP041 T02200190 IEM_DS3505
ZBAA,1998-09-06 18:00,ZBAA 061800Z AUTO 04004KT 7SM 22/19 A2965 RMK SLP034 T02230194 52002 IEM_DS3505
ZBAA,1998-09-06 19:00,ZBAA 061900Z AUTO 36002KT 7SM 21/20 A2965 RMK SLP041 T02100200 IEM_DS3505
ZBAA,1998-09-06 20:00,ZBAA 062000Z AUTO 35004KT 7SM 20/19 A2965 RMK SLP041 T02000190 IEM_DS3505
ZBAA,1998-09-06 21:00,ZBAA 062100Z AUTO 36004KT 6SM 21/19 A2965 RMK SLP036 T02130186 52002 IEM_DS3505
ZBAA,1998-09-06 22:00,ZBAA 062200Z AUTO 35004KT 3SM 20/18 A2968 RMK SLP051 T02000180 IEM_DS3505
ZBAA,1998-09-06 23:00,ZBAA 062300Z AUTO 34004KT 2 1/2SM 21/19 A2971 RMK SLP061 T02100190 IEM_DS3505
ZBAA,1998-09-07 00:00,ZBAA 070000Z AUTO 02004KT 3SM 23/19 A2971 RMK SLP054 T02280191 52018 IEM_DS3505
ZBAA,1998-09-07 01:00,ZBAA 070100Z AUTO 02004KT 5SM 25/20 A2971 RMK SLP060 T02500200 IEM_DS3505
ZBAA,1998-09-07 02:00,ZBAA 070200Z AUTO 04002KT 7SM 27/20 A2974 RMK SLP070 T02700200 IEM_DS3505
ZBAA,1998-09-07 03:00,ZBAA 070300Z AUTO 07006KT 2 1/2SM 28/21 A2971 RMK SLP060 T02780214 52006 IEM_DS3505
ZBAA,1998-09-07 04:00,ZBAA 070400Z AUTO ////04KT 5SM 29/20 A2971 RMK SLP060 T02900200 IEM_DS3505
ZBAA,1998-09-07 05:00,ZBAA 070500Z AUTO 12004KT 4SM 31/22 A2971 RMK SLP059 T03100220 IEM_DS3505
ZBAA,1998-09-07 06:00,ZBAA 070600Z AUTO 11006KT 3SM 30/24 A2968 RMK SLP051 T03040237 57009 IEM_DS3505
ZBAA,1998-09-07 07:00,ZBAA 070700Z AUTO 13004KT 4SM 31/24 A2968 RMK SLP049 T03100240 IEM_DS3505
ZBAA,1998-09-07 08:00,ZBAA 070800Z AUTO 14004KT 4SM 31/24 A2965 RMK SLP039 T03100240 IEM_DS3505
ZBAA,1998-09-07 09:00,ZBAA 070900Z AUTO 11004KT 2SM 30/25 A2965 RMK SLP039 T03010252 57012 IEM_DS3505
ZBAA,1998-09-07 10:00,ZBAA 071000Z AUTO 14004KT 2SM 29/24 A2965 RMK SLP040 T02900240 IEM_DS3505
ZBAA,1998-09-07 11:00,ZBAA 071100Z AUTO 12002KT 1 1/2SM 28/24 A2968 RMK SLP050 T02800240 IEM_DS3505
ZBAA,1998-09-07 12:00,ZBAA 071200Z AUTO 11006KT 2SM 27/22 A2971 RMK SLP053 T02660225 52014 IEM_DS3505
ZBAA,1998-09-07 13:00,ZBAA 071300Z AUTO 17006KT 1 1/2SM 26/24 A2977 RMK SLP081 T02600240 IEM_DS3505
ZBAA,1998-09-07 14:00,ZBAA 071400Z AUTO 24017KT 7SM 23/16 A2980 RMK SLP092 T02300160 IEM_DS3505
ZBAA,1998-09-07 15:00,ZBAA 071500Z AUTO 11010KT 6SM 24/22 A2975 RMK SLP076 T02440219 52023 IEM_DS3505
ZBAA,1998-09-07 16:00,ZBAA 071600Z AUTO 28004KT 6SM 22/18 A2974 RMK SLP071 T02200180 IEM_DS3505
ZBAA,1998-09-07 18:00,ZBAA 071800Z AUTO 09002KT 6SM 23/21 A2979 RMK 60002 SLP066 T02270207 57010 IEM_DS3505
ZBAA,1998-09-07 19:00,ZBAA 071900Z AUTO 09004KT 5SM 20/19 A2977 RMK SLP083 T02000190 IEM_DS3505
ZBAA,1998-09-07 20:00,ZBAA 072000Z AUTO 00000KT 6SM 20/20 A2977 RMK SLP083 T02000200 IEM_DS3505
ZBAA,1998-09-07 21:00,ZBAA 072100Z AUTO 11004KT 6SM 22/19 A2977 RMK 70002 SLP073 T02210190 52007 IEM_DS3505
ZBAA,1998-09-07 22:00,ZBAA 072200Z AUTO 10002KT 7SM 21/18 A2980 RMK SLP092 T02100180 IEM_DS3505
ZBAA,1998-09-07 23:00,ZBAA 072300Z AUTO 03002KT 7SM 20/18 A2980 RMK SLP093 T02000180 IEM_DS3505
ZBAA,1998-09-08 00:00,ZBAA 080000Z AUTO 07004KT 12SM 22/17 A2980 RMK 70002 SLP089 T02230170 52015 IEM_DS3505
ZBAA,1998-09-08 02:00,ZBAA 080200Z AUTO 11004KT 7SM 24/18 A2983 RMK SLP102 T02400180 IEM_DS3505
ZBAA,1998-09-08 03:00,ZBAA 080300Z AUTO 04004KT 6SM 24/18 A2980 RMK SLP091 T02450179 52002 IEM_DS3505
ZBAA,1998-09-08 04:00,ZBAA 080400Z AUTO 14004KT 7SM 26/18 A2980 RMK SLP091 T02600180 IEM_DS3505
ZBAA,1998-09-08 05:00,ZBAA 080500Z AUTO 08002KT 7SM 27/19 A2977 RMK SLP081 T02700190 IEM_DS3505
ZBAA,1998-09-08 06:00,ZBAA 080600Z AUTO 07004KT 6SM 28/21 A2974 RMK SLP072 T02780208 57018 IEM_DS3505
ZBAA,1998-09-08 07:00,ZBAA 080700Z AUTO 14004KT 7SM 27/20 A2974 RMK SLP070 T02700200 IEM_DS3505
ZBAA,1998-09-08 08:00,ZBAA 080800Z AUTO 13004KT 6SM 28/20 A2971 RMK SLP060 T02800200 IEM_DS3505
ZBAA,1998-09-08 09:00,ZBAA 080900Z AUTO 14004KT 6SM 28/22 A2971 RMK SLP060 T02750219 57012 IEM_DS3505
ZBAA,1998-09-08 10:00,ZBAA 081000Z AUTO 00000KT 7SM 26/21 A2971 RMK SLP060 T02600210 IEM_DS3505
ZBAA,1998-09-08 11:00,ZBAA 081100Z AUTO 36004KT 7SM 25/21 A2971 RMK SLP060 T02500210 IEM_DS3505
ZBAA,1998-09-08 12:00,ZBAA 081200Z AUTO 04004KT 6SM 26/22 A2977 RMK SLP073 T02640217 52012 IEM_DS3505
ZBAA,1998-09-08 13:00,ZBAA 081300Z AUTO 02002KT 7SM 25/21 A2977 RMK SLP082 T02500210 IEM_DS3505
ZBAA,1998-09-08 14:00,ZBAA 081400Z AUTO 06002KT 4SM 24/22 A2980 RMK SLP092 T02400220 IEM_DS3505
ZBAA,1998-09-08 15:00,ZBAA 081500Z AUTO 14006KT 6SM 25/20 A2974 RMK SLP070 T02460205 57002 IEM_DS3505
ZBAA,1998-09-08 16:00,ZBAA 081600Z AUTO 12008KT 5SM 22/20 A2977 RMK SLP082 T02200200 IEM_DS3505
ZBAA,1998-09-08 17:00,ZBAA 081700Z AUTO 02004KT 7SM 22/20 A2977 RMK SLP082 T02200200 IEM_DS3505
ZBAA,1998-09-08 18:00,ZBAA 081800Z AUTO 09002KT 5SM 24/24 A2977 RMK SLP069 T02440235 57001 IEM_DS3505
ZBAA,1998-09-08 19:00,ZBAA 081900Z AUTO 07002KT 7SM 22/20 A2974 RMK SLP071 T02200200 IEM_DS3505
ZBAA,1998-09-08 20:00,ZBAA 082000Z AUTO 01002KT 7SM 22/19 A2974 RMK SLP071 T02200190 IEM_DS3505
ZBAA,1998-09-08 21:00,ZBAA 082100Z AUTO 09004KT 6SM 22/20 A2974 RMK SLP068 T02190197 57001 IEM_DS3505
ZBAA,1998-09-08 22:00,ZBAA 082200Z AUTO 31004KT 7SM 22/19 A2974 RMK SLP071 T02200190 IEM_DS3505
ZBAA,1998-09-08 23:00,ZBAA 082300Z AUTO 09002KT 7SM 22/20 A2977 RMK SLP082 T02200200 IEM_DS3505
ZBAA,1998-09-09 00:00,ZBAA 090000Z AUTO 11004KT 6SM 23/19 A2977 RMK SLP071 T02290193 52003 IEM_DS3505
ZBAA,1998-09-09 01:00,ZBAA 090100Z AUTO 13004KT 4SM 24/21 A2977 RMK SLP082 T02400210 IEM_DS3505
ZBAA,1998-09-09 02:00,ZBAA 090200Z AUTO 12002KT 2 1/2SM 25/22 A2977 RMK SLP082 T02500220 IEM_DS3505
ZBAA,1998-09-09 03:00,ZBAA 090300Z AUTO 16004KT 2SM 27/23 A2977 RMK SLP075 T02710230 52004 IEM_DS3505
ZBAA,1998-09-09 04:00,ZBAA 090400Z AUTO 14006KT 2 1/2SM 28/23 A2977 RMK SLP081 T02800230 IEM_DS3505
ZBAA,1998-09-09 05:00,ZBAA 090500Z AUTO 17006KT 2 1/2SM 30/22 A2974 RMK SLP070 T03000220 IEM_DS3505
ZBAA,1998-09-09 06:00,ZBAA 090600Z AUTO 18008KT 3SM 31/22 A2974 RMK SLP070 T03110216 57005 IEM_DS3505
ZBAA,1998-09-09 07:00,ZBAA 090700Z AUTO 17006KT 4SM 31/21 A2974 RMK SLP069 T03100210 IEM_DS3505
ZBAA,1998-09-09 08:00,ZBAA 090800Z AUTO 15006KT 7SM 31/22 A2974 RMK SLP069 T03100220 IEM_DS3505
ZBAA,1998-09-09 09:00,ZBAA 090900Z AUTO 20006KT 6SM 31/21 A2974 RMK SLP063 T03090213 57007 IEM_DS3505
ZBAA,1998-09-09 10:00,ZBAA 091000Z AUTO ////04KT 4SM 29/22 A2974 RMK SLP070 T02900220 IEM_DS3505
ZBAA,1998-09-09 11:00,ZBAA 091100Z AUTO 15004KT 4SM 27/22 A2974 RMK SLP070 T02700220 IEM_DS3505
ZBAA,1998-09-09 12:00,ZBAA 091200Z AUTO 16004KT 6SM 28/21 A2977 RMK SLP074 T02750214 52011 IEM_DS3505
ZBAA,1998-09-09 13:00,ZBAA 091300Z AUTO 11004KT 4SM 26/22 A2980 RMK SLP091 T02600220 IEM_DS3505
ZBAA,1998-09-09 14:00,ZBAA 091400Z AUTO 12002KT 4SM 24/22 A2980 RMK SLP092 T02400220 IEM_DS3505
ZBAA,1998-09-09 15:00,ZBAA 091500Z AUTO 16004KT 7SM 25/20 A2979 RMK SLP088 T02490205 52014 IEM_DS3505
ZBAA,1998-09-09 16:00,ZBAA 091600Z AUTO 11002KT 3SM 23/21 A2983 RMK SLP102 T02300210 IEM_DS3505
ZBAA,1998-09-09 17:00,ZBAA 091700Z AUTO 13004KT 3SM 23/21 A2983 RMK SLP102 T02300210 IEM_DS3505
ZBAA,1998-09-09 18:00,ZBAA 091800Z AUTO 16004KT 6SM 22/20 A2983 RMK SLP095 T02150198 52007 IEM_DS3505
ZBAA,1998-09-09 19:00,ZBAA 091900Z AUTO 10002KT 4SM 22/20 A2983 RMK SLP102 T02200200 IEM_DS3505
ZBAA,1998-09-09 20:00,ZBAA 092000Z AUTO 08002KT 4SM 21/20 A2985 RMK SLP110 T02100200 IEM_DS3505
ZBAA,1998-09-09 21:00,ZBAA 092100Z AUTO 00000KT 6SM 20/19 A2985 RMK SLP099 T02030189 52004 IEM_DS3505
ZBAA,1998-09-09 22:00,ZBAA 092200Z AUTO 10002KT 1 1/4SM 20/19 A2985 RMK SLP110 T02000190 IEM_DS3505
ZBAA,1998-09-09 23:00,ZBAA 092300Z AUTO 11002KT 2SM 21/20 A2988 RMK SLP120 T02100200 IEM_DS3505
ZBAA,1998-09-10 00:00,ZBAA 100000Z AUTO 20002KT 4SM 23/20 A2988 RMK SLP117 T02310197 52017 IEM_DS3505
ZBAA,1998-09-10 01:00,ZBAA 100100Z AUTO 13004KT 2 1/2SM 25/21 A2988 RMK SLP119 T02500210 IEM_DS3505
ZBAA,1998-09-10 02:00,ZBAA 100200Z AUTO 11004KT 2 1/2SM 26/21 A2991 RMK SLP129 T02600210 IEM_DS3505
ZBAA,1998-09-10 03:00,ZBAA 100300Z AUTO 18006KT 6SM 28/20 A2991 RMK SLP123 T02850200 52007 IEM_DS3505
ZBAA,1998-09-10 04:00,ZBAA 100400Z AUTO 16006KT 4SM 30/22 A2991 RMK SLP128 T03000220 IEM_DS3505
ZBAA,1998-09-10 05:00,ZBAA 100500Z AUTO 16008KT 7SM 31/21 A2988 RMK SLP118 T03100210 IEM_DS3505
ZBAA,1998-09-10 06:00,ZBAA 100600Z AUTO 18010KT 9SM 32/19 A2988 RMK SLP119 T03190190 57004 IEM_DS3505
ZBAA,1998-09-10 08:00,ZBAA 100800Z AUTO 16008KT 7SM 32/18 A2985 RMK SLP107 T03200180 IEM_DS3505
ZBAA,1998-09-10 09:00,ZBAA 100900Z AUTO 18008KT 12SM 32/18 A2985 RMK SLP109 T03190179 57010 IEM_DS3505
ZBAA,1998-09-10 11:00,ZBAA 101100Z AUTO 14002KT 7SM 27/19 A2988 RMK SLP118 T02700190 IEM_DS3505
ZBAA,1998-09-10 12:00,ZBAA 101200Z AUTO 00000KT 9SM 25/20 A2991 RMK SLP120 T02520200 52010 IEM_DS3505
ZBAA,1998-09-10 13:00,ZBAA 101300Z AUTO 11004KT 7SM 25/21 A2994 RMK SLP139 T02500210 IEM_DS3505
ZBAA,1998-09-10 14:00,ZBAA 101400Z AUTO 14004KT 5SM 24/21 A2994 RMK SLP139 T02400210 IEM_DS3505
ZBAA,1998-09-10 15:00,ZBAA 101500Z AUTO 16004KT 7SM 24/18 A2994 RMK SLP135 T02410184 52015 IEM_DS3505
ZBAA,1998-09-10 16:00,ZBAA 101600Z AUTO 11004KT 2 1/2SM 23/22 A2994 RMK SLP139 T02300220 IEM_DS3505
ZBAA,1998-09-10 17:00,ZBAA 101700Z AUTO 12004KT 2SM 22/21 A2994 RMK SLP140 T02200210 IEM_DS3505
ZBAA,1998-09-10 18:00,ZBAA 101800Z AUTO 09002KT 6SM 20/18 A3000 RMK SLP138 T02030181 52003 IEM_DS3505
ZBAA,1998-09-10 21:00,ZBAA 102100Z AUTO 00000KT 7SM 20/19 A2993 RMK SLP138 T01980188 54000 IEM_DS3505
ZBAA,1998-09-10 22:00,ZBAA 102200Z AUTO 00000KT 1SM 20/20 A2994 RMK SLP140 T02000200 IEM_DS3505
ZBAA,1998-09-10 23:00,ZBAA 102300Z AUTO 36002KT 1SM 20/20 A2997 RMK SLP150 T02000200 IEM_DS3505
ZBAA,1998-09-11 00:00,ZBAA 110000Z AUTO 00000KT 3SM 22/20 A2997 RMK SLP146 T02250204 52008 IEM_DS3505
ZBAA,1998-09-11 01:00,ZBAA 110100Z AUTO 00000KT 1SM 24/22 A2997 RMK SLP149 T02400220 IEM_DS3505
ZBAA,1998-09-11 02:00,ZBAA 110200Z AUTO ////02KT 1 1/4SM 26/22 A2997 RMK SLP149 T02600220 IEM_DS3505
ZBAA,1998-09-11 03:00,ZBAA 110300Z AUTO 18006KT 6SM 28/20 A2997 RMK SLP151 T02820202 52005 IEM_DS3505
ZBAA,1998-09-11 04:00,ZBAA 110400Z AUTO 18006KT 1 1/2SM 29/21 A2997 RMK SLP148 T02900210 IEM_DS3505
ZBAA,1998-09-11 06:00,ZBAA 110600Z AUTO 20006KT 6SM 31/18 A2991 RMK SLP133 T03140180 57018 IEM_DS3505
ZBAA,1998-09-11 07:00,ZBAA 110700Z AUTO 16008KT 6SM 31/19 A2988 RMK SLP118 T03100190 IEM_DS3505
ZBAA,1998-09-11 08:00,ZBAA 110800Z AUTO 18006KT 6SM 31/19 A2988 RMK SLP118 T03100190 IEM_DS3505
ZBAA,1998-09-11 09:00,ZBAA 110900Z AUTO 20008KT 7SM 31/19 A2988 RMK SLP118 T03120187 57015 IEM_DS3505
ZBAA,1998-09-11 10:00,ZBAA 111000Z AUTO 15004KT 7SM 29/21 A2988 RMK SLP118 T02900210 IEM_DS3505
ZBAA,1998-09-11 11:00,ZBAA 111100Z AUTO 10002KT 5SM 26/22 A2988 RMK SLP119 T02600220 IEM_DS3505
ZBAA,1998-09-11 12:00,ZBAA 111200Z AUTO 18004KT 6SM 27/19 A2991 RMK SLP122 T02710189 52004 IEM_DS3505
ZBAA,1998-09-11 13:00,ZBAA 111300Z AUTO 11002KT 4SM 23/22 A2991 RMK SLP129 T02300220 IEM_DS3505
ZBAA,1998-09-11 14:00,ZBAA 111400Z AUTO 10002KT 4SM 23/22 A2994 RMK SLP139 T02300220 IEM_DS3505
ZBAA,1998-09-11 15:00,ZBAA 111500Z AUTO 18004KT 6SM 24/19 A2994 RMK SLP133 T02350193 52011 IEM_DS3505
ZBAA,1998-09-11 16:00,ZBAA 111600Z AUTO 09002KT 1 1/2SM 23/22 A2994 RMK SLP139 T02300220 IEM_DS3505
ZBAA,1998-09-11 17:00,ZBAA 111700Z AUTO 00000KT 1 1/4SM 21/21 A2994 RMK SLP140 T02100210 IEM_DS3505
ZBAA,1998-09-11 18:00,ZBAA 111800Z AUTO 00000KT 6SM 21/18 A2994 RMK SLP136 T02090185 52003 IEM_DS3505
ZBAA,1998-09-11 19:00,ZBAA 111900Z AUTO 11002KT 1 1/4SM 21/20 A2994 RMK SLP140 T02100200 IEM_DS3505
ZBAA,1998-09-11 20:00,ZBAA 112000Z AUTO 11002KT 1 1/4SM 21/20 A2997 RMK SLP150 T02100200 IEM_DS3505
ZBAA,1998-09-11 21:00,ZBAA 112100Z AUTO 00000KT 6SM 19/18 A2997 RMK SLP143 T01930180 52007 IEM_DS3505
ZBAA,1998-09-11 22:00,ZBAA 112200Z AUTO 00000KT 1SM 21/20 A3000 RMK SLP160 T02100200 IEM_DS3505
ZBAA,1998-09-12 00:00,ZBAA 120000Z AUTO 11006KT 5SM 22/21 A3003 RMK SLP161 T02240206 52018 IEM_DS3505
ZBAA,1998-09-12 01:00,ZBAA 120100Z AUTO 13008KT 1SM 22/21 A3003 RMK SLP170 T02200210 IEM_DS3505
ZBAA,1998-09-12 02:00,ZBAA 120200Z AUTO 13008KT 1 1/4SM 22/21 A3006 RMK SLP180 T02200210 IEM_DS3505
ZBAA,1998-09-12 03:00,ZBAA 120300Z AUTO 09006KT 4SM 23/21 A3006 RMK SLP169 T02330213 52008 IEM_DS3505
ZBAA,1998-09-12 04:00,ZBAA 120400Z AUTO 12006KT 2SM 23/21 A3003 RMK SLP170 T02300210 IEM_DS3505
ZBAA,1998-09-12 05:00,ZBAA 120500Z AUTO 12008KT 4SM 25/21 A3003 RMK SLP169 T02500210 IEM_DS3505
ZBAA,1998-09-12 06:00,ZBAA 120600Z AUTO 09008KT 4SM 25/21 A3000 RMK SLP153 T02540214 57016 IEM_DS3505
ZBAA,1998-09-12 07:00,ZBAA 120700Z AUTO 11006KT 4SM 25/21 A2997 RMK SLP149 T02500210 IEM_DS3505
ZBAA,1998-09-12 08:00,ZBAA 120800Z AUTO 12006KT 4SM 25/21 A2997 RMK SLP149 T02500210 IEM_DS3505
ZBAA,1998-09-12 09:00,ZBAA 120900Z AUTO 09004KT 3SM 24/22 A2997 RMK SLP142 T02440216 57011 IEM_DS3505
ZBAA,1998-09-12 10:00,ZBAA 121000Z AUTO 12004KT 3SM 24/21 A2997 RMK SLP149 T02400210 IEM_DS3505
ZBAA,1998-09-12 11:00,ZBAA 121100Z AUTO 13004KT 2 1/2SM 24/21 A2997 RMK SLP149 T02400210 IEM_DS3505
ZBAA,1998-09-12 12:00,ZBAA 121200Z AUTO 11004KT 4SM 23/20 A2997 RMK SLP149 T02310205 52007 IEM_DS3505
ZBAA,1998-09-12 13:00,ZBAA 121300Z AUTO 13004KT 2 1/2SM 23/21 A3000 RMK SLP159 T02300210 IEM_DS3505
ZBAA,1998-09-12 14:00,ZBAA 121400Z AUTO 14002KT 2 1/2SM 22/21 A3000 RMK SLP160 T02200210 IEM_DS3505
ZBAA,1998-09-12 15:00,ZBAA 121500Z AUTO 09004KT 2 1/2SM 22/20 A3000 RMK SLP151 T02230203 52002 IEM_DS3505
ZBAA,1998-09-12 17:00,ZBAA 121700Z AUTO 12004KT 2 1/2SM 21/20 A2997 RMK SLP150 T02100200 IEM_DS3505
ZBAA,1998-09-12 18:00,ZBAA 121800Z AUTO 09006KT 3SM 22/20 A2994 RMK SLP141 T02160204 57010 IEM_DS3505
ZBAA,1998-09-12 19:00,ZBAA 121900Z AUTO 12002KT 1 1/4SM 20/20 A2994 RMK SLP140 T02000200 IEM_DS3505
ZBAA,1998-09-12 20:00,ZBAA 122000Z AUTO 10004KT 1 1/4SM 20/20 A2994 RMK SLP140 T02000200 IEM_DS3505
ZBAA,1998-09-12 21:00,ZBAA 122100Z AUTO 11004KT 2SM 20/20 A2994 RMK SLP135 T02050200 57006 IEM_DS3505
ZBAA,1998-09-12 22:00,ZBAA 122200Z AUTO 09004KT 1 1/4SM 20/20 A2994 RMK SLP140 T02000200 IEM_DS3505
ZBAA,1998-09-12 23:00,ZBAA 122300Z AUTO 08002KT 1SM 20/20 A2994 RMK SLP140 T02000200 IEM_DS3505
ZBAA,1998-09-13 00:00,ZBAA 130000Z AUTO 14004KT 2 1/2SM 21/20 A2994 RMK 60000 SLP135 T02110202 54000 IEM_DS3505
ZBAA,1998-09-13 01:00,ZBAA 130100Z AUTO 11002KT 1/2SM 21/21 A2994 RMK SLP140 T02100210 IEM_DS3505
ZBAA,1998-09-13 02:00,ZBAA 130200Z AUTO 00000KT 1/2SM 21/21 A2994 RMK SLP140 T02100210 IEM_DS3505
ZBAA,1998-09-13 03:00,ZBAA 130300Z AUTO 02004KT 2SM 22/21 A2991 RMK SLP128 T02250210 57007 IEM_DS3505
ZBAA,1998-09-13 04:00,ZBAA 130400Z AUTO 14004KT 1SM 23/22 A2988 RMK SLP119 T02300220 IEM_DS3505
ZBAA,1998-09-13 05:00,ZBAA 130500Z AUTO 11002KT 1 1/4SM 24/22 A2988 RMK SLP119 T02400220 IEM_DS3505
ZBAA,1998-09-13 06:00,ZBAA 130600Z AUTO 32004KT 2 1/2SM 26/22 A2985 RMK SLP099 T02580221 57029 IEM_DS3505
ZBAA,1998-09-13 07:00,ZBAA 130700Z AUTO 35006KT 1SM 24/22 A2983 RMK SLP102 T02400220 IEM_DS3505
ZBAA,1998-09-13 08:00,ZBAA 130800Z AUTO 34004KT 1SM 24/22 A2980 RMK SLP092 T02400220 IEM_DS3505
ZBAA,1998-09-13 09:00,ZBAA 130900Z AUTO 36004KT 2SM 26/23 A2980 RMK SLP083 T02580226 57016 IEM_DS3505
ZBAA,1998-09-13 10:00,ZBAA 131000Z AUTO 34004KT 1 1/4SM 24/22 A2980 RMK SLP092 T02400220 IEM_DS3505
ZBAA,1998-09-13 11:00,ZBAA 131100Z AUTO 35002KT 1SM 23/22 A2977 RMK SLP082 T02300220 IEM_DS3505
ZBAA,1998-09-13 12:00,ZBAA 131200Z AUTO 04004KT 2SM 23/22 A2980 RMK SLP083 T02330217 54000 IEM_DS3505
ZBAA,1998-09-13 13:00,ZBAA 131300Z AUTO 29004KT 1SM 23/22 A2980 RMK SLP092 T02300220 IEM_DS3505
ZBAA,1998-09-13 14:00,ZBAA 131400Z AUTO 29004KT 1SM 22/22 A2980 RMK SLP092 T02200220 IEM_DS3505
ZBAA,1998-09-13 15:00,ZBAA 131500Z AUTO 32002KT 2SM 23/22 A2980 RMK SLP083 T02330215 54000 IEM_DS3505
ZBAA,1998-09-13 16:00,ZBAA 131600Z AUTO 32004KT 1SM 23/21 A2977 RMK SLP082 T02300210 IEM_DS3505
ZBAA,1998-09-13 17:00,ZBAA 131700Z AUTO 32006KT 1SM 23/21 A2977 RMK SLP082 T02300210 IEM_DS3505
ZBAA,1998-09-13 18:00,ZBAA 131800Z AUTO 34002KT 2SM 23/21 A2977 RMK SLP081 T02320214 57002 IEM_DS3505
ZBAA,1998-09-13 19:00,ZBAA 131900Z AUTO 33004KT 1SM 23/22 A2977 RMK SLP082 T02300220 IEM_DS3505
ZBAA,1998-09-13 21:00,ZBAA 132100Z AUTO 36008KT 16SM 25/ A2980 RMK 70000 SLP083 52003 IEM_DS3505
ZBAA,1998-09-13 22:00,ZBAA 132200Z AUTO 34006KT 6SM 21/17 A2983 RMK SLP101 T02100170 IEM_DS3505
ZBAA,1998-09-13 23:00,ZBAA 132300Z AUTO 36010KT 6SM 22/09 A2985 RMK SLP108 T02200090 IEM_DS3505
ZBAA,1998-09-14 00:00,ZBAA 140000Z AUTO 02006KT 16SM 23/07 A2985 RMK SLP101 T02290067 52017 IEM_DS3505
ZBAA,1998-09-14 01:00,ZBAA 140100Z AUTO 35006KT 6SM 21/11 A2988 RMK SLP118 T02100110 IEM_DS3505
ZBAA,1998-09-14 02:00,ZBAA 140200Z AUTO 35006KT 6SM 22/10 A2991 RMK SLP128 T02200100 IEM_DS3505
ZBAA,1998-09-14 03:00,ZBAA 140300Z AUTO 02008KT 12SM 23/08 A2991 RMK SLP119 T02280078 52018 IEM_DS3505
ZBAA,1998-09-14 04:00,ZBAA 140400Z AUTO 02008KT 6SM 22/10 A2991 RMK SLP128 T02200100 IEM_DS3505
ZBAA,1998-09-14 05:00,ZBAA 140500Z AUTO 02006KT 6SM 23/09 A2988 RMK SLP118 T02300090 IEM_DS3505
ZBAA,1998-09-14 06:00,ZBAA 140600Z AUTO 04010KT 9SM 23/08 A2988 RMK SLP113 T02270085 57006 IEM_DS3505
ZBAA,1998-09-14 07:00,ZBAA 140700Z AUTO 03006KT 6SM 23/09 A2985 RMK SLP108 T02300090 IEM_DS3505
ZBAA,1998-09-14 08:00,ZBAA 140800Z AUTO 02002KT 6SM 24/11 A2985 RMK SLP108 T02400110 IEM_DS3505
ZBAA,1998-09-14 09:00,ZBAA 140900Z AUTO 04006KT 12SM 24/09 A2985 RMK SLP112 T02370089 57001 IEM_DS3505
ZBAA,1998-09-14 10:00,ZBAA 141000Z AUTO 29002KT 6SM 24/09 A2988 RMK SLP118 T02400090 IEM_DS3505
ZBAA,1998-09-14 11:00,ZBAA 141100Z AUTO 12002KT 6SM 20/12 A2991 RMK SLP129 T02000120 IEM_DS3505
ZBAA,1998-09-14 12:00,ZBAA 141200Z AUTO 00000KT 9SM 17/12 A2994 RMK SLP128 T01740120 52016 IEM_DS3505
ZBAA,1998-09-14 13:00,ZBAA 141300Z AUTO 31002KT 7SM 19/11 A2997 RMK SLP149 T01900110 IEM_DS3505
ZBAA,1998-09-14 14:00,ZBAA 141400Z AUTO 35004KT 7SM 18/12 A2997 RMK SLP149 T01800120 IEM_DS3505
ZBAA,1998-09-14 15:00,ZBAA 141500Z AUTO 00000KT 3SM 16/12 A2997 RMK SLP149 T01610123 52021 IEM_DS3505
ZBAA,1998-09-14 16:00,ZBAA 141600Z AUTO 29004KT 7SM 17/12 A3000 RMK SLP160 T01700120 IEM_DS3505
ZBAA,1998-09-14 17:00,ZBAA 141700Z AUTO 31004KT 7SM 17/10 A3000 RMK SLP160 T01700100 IEM_DS3505
ZBAA,1998-09-14 18:00,ZBAA 141800Z AUTO 00000KT 6SM 16/11 A3003 RMK SLP158 T01570112 52008 IEM_DS3505
ZBAA,1998-09-14 19:00,ZBAA 141900Z AUTO 32006KT 7SM 15/10 A3003 RMK SLP170 T01500100 IEM_DS3505
ZBAA,1998-09-14 20:00,ZBAA 142000Z AUTO 00000KT 7SM 15/10 A3003 RMK SLP170 T01500100 IEM_DS3505
ZBAA,1998-09-14 21:00,ZBAA 142100Z AUTO 00000KT 11SM 15/09 A3006 RMK SLP173 T01500089 52015 IEM_DS3505
ZBAA,1998-09-14 22:00,ZBAA 142200Z AUTO 33002KT 7SM 14/10 A3009 RMK SLP190 T01400100 IEM_DS3505
ZBAA,1998-09-14 23:00,ZBAA 142300Z AUTO 33004KT 7SM 15/10 A3009 RMK SLP190 T01500100 IEM_DS3505
ZBAA,1998-09-15 00:00,ZBAA 150000Z AUTO 34004KT 12SM 19/06 A3012 RMK SLP188 T01910060 52015 IEM_DS3505
ZBAA,1998-09-15 02:00,ZBAA 150200Z AUTO 35006KT 7SM 23/07 A3012 RMK SLP200 T02300070 IEM_DS3505
ZBAA,1998-09-15 03:00,ZBAA 150300Z AUTO 03006KT 7SM 24/05 A3009 RMK SLP188 T02400050 IEM_DS3505
ZBAA,1998-09-15 04:00,ZBAA 150400Z AUTO 00000KT RMK IEM_DS3505
ZBAA,1998-09-15 05:00,ZBAA 150500Z AUTO 02006KT 7SM 25/02 A3003 RMK SLP168 T02500020 IEM_DS3505
ZBAA,1998-09-15 06:00,ZBAA 150600Z AUTO 29004KT 19SM 25/05 A3003 RMK SLP167 T02540046 57020 IEM_DS3505
ZBAA,1998-09-15 07:00,ZBAA 150700Z AUTO ////02KT 7SM 26/03 A3000 RMK SLP158 T02600030 IEM_DS3505
ZBAA,1998-09-15 08:00,ZBAA 150800Z AUTO ////02KT 7SM 27/05 A2997 RMK SLP147 T02700050 IEM_DS3505
ZBAA,1998-09-15 09:00,ZBAA 150900Z AUTO 11004KT 19SM 26/05 A2997 RMK SLP152 T02550054 57015 IEM_DS3505
ZBAA,1998-09-15 10:00,ZBAA 151000Z AUTO 21004KT 7SM 25/04 A2997 RMK SLP148 T02500040 IEM_DS3505
ZBAA,1998-09-15 11:00,ZBAA 151100Z AUTO 20004KT 7SM 22/06 A2997 RMK SLP148 T02200060 IEM_DS3505
ZBAA,1998-09-15 12:00,ZBAA 151200Z AUTO 00000KT 19SM 20/08 A3000 RMK SLP162 T01970084 52009 IEM_DS3505
ZBAA,1998-09-15 13:00,ZBAA 151300Z AUTO 14002KT 7SM 18/10 A3003 RMK SLP169 T01800100 IEM_DS3505
ZBAA,1998-09-15 14:00,ZBAA 151400Z AUTO 00000KT 7SM 15/11 A3003 RMK SLP170 T01500110 IEM_DS3505
ZBAA,1998-09-15 15:00,ZBAA 151500Z AUTO 25006KT 19SM 17/09 A3002 RMK SLP167 T01700087 52006 IEM_DS3505
ZBAA,1998-09-15 16:00,ZBAA 151600Z AUTO 36002KT 7SM 15/12 A3003 RMK SLP170 T01500120 IEM_DS3505
ZBAA,1998-09-15 17:00,ZBAA 151700Z AUTO 00000KT 7SM 14/13 A3003 RMK SLP170 T01400130 IEM_DS3505
ZBAA,1998-09-15 18:00,ZBAA 151800Z AUTO 16004KT 12SM 11/10 A3003 RMK SLP168 T01140096 54000 IEM_DS3505
ZBAA,1998-09-15 20:00,ZBAA 152000Z AUTO 00000KT 7SM 14/11 A3006 RMK SLP180 T01400110 IEM_DS3505
ZBAA,1998-09-15 21:00,ZBAA 152100Z AUTO 02004KT 9SM 10/09 A3006 RMK SLP173 T01030089 52005 IEM_DS3505
ZBAA,1998-09-15 22:00,ZBAA 152200Z AUTO 35004KT 7SM 12/10 A3006 RMK SLP181 T01200100 IEM_DS3505
ZBAA,1998-09-15 23:00,ZBAA 152300Z AUTO 36002KT 7SM 14/11 A3006 RMK SLP180 T01400110 IEM_DS3505
ZBAA,1998-09-16 00:00,ZBAA 160000Z AUTO 34004KT 5SM 16/11 A3006 RMK SLP180 T01600110 IEM_DS3505
ZBAA,1998-09-16 01:00,ZBAA 160100Z AUTO ////02KT 7SM 19/13 A3006 RMK SLP179 T01900130 IEM_DS3505
ZBAA,1998-09-16 03:00,ZBAA 160300Z AUTO 11004KT 4SM 23/11 A3003 RMK SLP169 T02340106 57006 IEM_DS3505
ZBAA,1998-09-16 04:00,ZBAA 160400Z AUTO 16004KT 7SM 25/10 A3003 RMK SLP168 T02500100 IEM_DS3505
ZBAA,1998-09-16 05:00,ZBAA 160500Z AUTO 17010KT 7SM 25/09 A2997 RMK SLP148 T02500090 IEM_DS3505
ZBAA,1998-09-16 06:00,ZBAA 160600Z AUTO 20008G19KT 9SM 26/07 A2994 RMK SLP147 T02630071 57023 IEM_DS3505
ZBAA,1998-09-16 07:00,ZBAA 160700Z AUTO 19010KT 6SM 27/06 A2994 RMK SLP137 T02700060 IEM_DS3505
ZBAA,1998-09-16 08:00,ZBAA 160800Z AUTO 18012KT 6SM 26/06 A2991 RMK SLP128 T02600060 IEM_DS3505
ZBAA,1998-09-16 09:00,ZBAA 160900Z AUTO 20008KT 9SM 26/08 A2991 RMK SLP130 T02610082 57017 IEM_DS3505
ZBAA,1998-09-16 10:00,ZBAA 161000Z AUTO 17006KT 6SM 23/09 A2991 RMK SLP128 T02300090 IEM_DS3505
ZBAA,1998-09-16 11:00,ZBAA 161100Z AUTO 18006KT 6SM 21/10 A2991 RMK SLP129 T02100100 IEM_DS3505
ZBAA,1998-09-16 12:00,ZBAA 161200Z AUTO 20006KT 9SM 23/09 A2998 RMK SLP130 T02260088 52001 IEM_DS3505
ZBAA,1998-09-16 13:00,ZBAA 161300Z AUTO 17008KT 6SM 21/10 A2991 RMK SLP129 T02100100 IEM_DS3505
ZBAA,1998-09-16 15:00,ZBAA 161500Z AUTO 20004KT 7SM 21/10 A2991 RMK SLP129 T02110103 57001 IEM_DS3505
ZBAA,1998-09-16 16:00,ZBAA 161600Z AUTO 16006KT 6SM 21/10 A2988 RMK SLP118 T02100100 IEM_DS3505
ZBAA,1998-09-16 17:00,ZBAA 161700Z AUTO 14004KT 6SM 20/12 A2988 RMK SLP119 T02000120 IEM_DS3505
ZBAA,1998-09-16 18:00,ZBAA 161800Z AUTO 20004KT 6SM 20/11 A2994 RMK SLP116 T02030108 57013 IEM_DS3505
ZBAA,1998-09-16 21:00,ZBAA 162100Z AUTO 00000KT 5SM 18/16 A2988 RMK 70001 SLP119 T01750156 52003 IEM_DS3505
ZBAA,1998-09-16 22:00,ZBAA 162200Z AUTO 15002KT 4SM 18/16 A2988 RMK SLP119 T01800160 IEM_DS3505
ZBAA,1998-09-16 23:00,ZBAA 162300Z AUTO 13004KT 4SM 17/16 A2991 RMK SLP129 T01700160 IEM_DS3505
ZBAA,1998-09-17 00:00,ZBAA 170000Z AUTO 00000KT 4SM 18/16 A2991 RMK 60002 70002 SLP126 T01800156 52007 IEM_DS3505
ZBAA,1998-09-17 01:00,ZBAA 170100Z AUTO 13002KT 4SM 18/16 A2994 RMK SLP139 T01800160 IEM_DS3505
ZBAA,1998-09-17 02:00,ZBAA 170200Z AUTO 05002KT 4SM 19/15 A2994 RMK SLP139 T01900150 IEM_DS3505
ZBAA,1998-09-17 03:00,ZBAA 170300Z AUTO 00000KT 3SM 20/15 A2994 RMK SLP134 T01970148 52008 IEM_DS3505
ZBAA,1998-09-17 04:00,ZBAA 170400Z AUTO ////02KT 5SM 21/14 A2991 RMK SLP129 T02100140 IEM_DS3505
ZBAA,1998-09-17 05:00,ZBAA 170500Z AUTO ////02KT 5SM 21/15 A2988 RMK SLP118 T02100150 IEM_DS3505
ZBAA,1998-09-17 06:00,ZBAA 170600Z AUTO 14004KT 4SM 22/15 A2996 RMK SLP124 T02170152 57010 IEM_DS3505
ZBAA,1998-09-17 07:00,ZBAA 170700Z AUTO 15004KT 4SM 22/15 A2988 RMK SLP118 T02200150 IEM_DS3505
ZBAA,1998-09-17 08:00,ZBAA 170800Z AUTO 13004KT 4SM 22/16 A2988 RMK SLP118 T02200160 IEM_DS3505
ZBAA,1998-09-17 09:00,ZBAA 170900Z AUTO 25004KT 5SM 22/15 A2991 RMK SLP123 T02200153 57001 IEM_DS3505
ZBAA,1998-09-17 10:00,ZBAA 171000Z AUTO 12002KT 4SM 21/17 A2991 RMK SLP129 T02100170 IEM_DS3505
ZBAA,1998-09-17 11:00,ZBAA 171100Z AUTO 00000KT 3SM 20/17 A2991 RMK SLP129 T02000170 IEM_DS3505
ZBAA,1998-09-17 12:00,ZBAA 171200Z AUTO 00000KT 6SM 19/16 A2991 RMK SLP132 T01890162 52008 IEM_DS3505
ZBAA,1998-09-17 13:00,ZBAA 171300Z AUTO 15002KT 2 1/2SM 18/17 A2994 RMK SLP139 T01800170 IEM_DS3505
ZBAA,1998-09-17 14:00,ZBAA 171400Z AUTO 17002KT 2SM 18/17 A2994 RMK SLP139 T01800170 IEM_DS3505
ZBAA,1998-09-17 15:00,ZBAA 171500Z AUTO 00000KT 4SM 16/16 A2994 RMK SLP139 T01610156 52007 IEM_DS3505
ZBAA,1998-09-17 16:00,ZBAA 171600Z AUTO 33002KT 1 1/4SM 17/16 A2994 RMK SLP139 T01700160 IEM_DS3505
ZBAA,1998-09-17 17:00,ZBAA 171700Z AUTO 35004KT 1 1/4SM 17/16 A2994 RMK SLP139 T01700160 IEM_DS3505
ZBAA,1998-09-17 18:00,ZBAA 171800Z AUTO 02002KT 2SM 16/16 A2994 RMK SLP138 T01650157 54000 IEM_DS3505
ZBAA,1998-09-17 19:00,ZBAA 171900Z AUTO 33004KT 1 1/4SM 16/15 A2994 RMK SLP140 T01600150 IEM_DS3505
ZBAA,1998-09-17 20:00,ZBAA 172000Z AUTO 32006KT 1SM 17/15 A2994 RMK SLP139 T01700150 IEM_DS3505
ZBAA,1998-09-17 21:00,ZBAA 172100Z AUTO 00000KT 1SM 15/14 A2997 RMK 70001 SLP142 T01500143 52003 IEM_DS3505
ZBAA,1998-09-17 22:00,ZBAA 172200Z AUTO 35006KT 1 1/2SM 16/14 A2997 RMK SLP150 T01600140 IEM_DS3505
ZBAA,1998-09-17 23:00,ZBAA 172300Z AUTO 36004KT 2SM 16/15 A3000 RMK SLP160 T01600150 IEM_DS3505
ZBAA,1998-09-18 00:00,ZBAA 180000Z AUTO 14002KT 2SM 19/16 A3003 RMK SLP164 T01910157 52022 IEM_DS3505
ZBAA,1998-09-18 01:00,ZBAA 180100Z AUTO 36008KT 7SM 23/14 A3003 RMK SLP168 T02300140 IEM_DS3505
ZBAA,1998-09-18 02:00,ZBAA 180200Z AUTO 34008KT 7SM 25/12 A3006 RMK SLP178 T02500120 IEM_DS3505
ZBAA,1998-09-18 03:00,ZBAA 180300Z AUTO 36010KT 9SM 28/05 A3006 RMK SLP167 T02770051 52004 IEM_DS3505
ZBAA,1998-09-18 04:00,ZBAA 180400Z AUTO 00000KT RMK IEM_DS3505
ZBAA,1998-09-18 05:00,ZBAA 180500Z AUTO 34008KT 7SM 29/05 A3000 RMK SLP157 T02900050 IEM_DS3505
ZBAA,1998-09-18 06:00,ZBAA 180600Z AUTO 04006KT 11SM 31/06 A2997 RMK SLP146 T03060059 57021 IEM_DS3505
ZBAA,1998-09-18 07:00,ZBAA 180700Z AUTO ////02KT 6SM 31/08 A2994 RMK SLP137 T03100080 IEM_DS3505
ZBAA,1998-09-18 08:00,ZBAA 180800Z AUTO 04004KT 6SM 30/05 A2994 RMK SLP137 T03000050 IEM_DS3505
ZBAA,1998-09-18 09:00,ZBAA 180900Z AUTO 11004KT 12SM 29/11 A2994 RMK SLP139 T02870107 57007 IEM_DS3505
ZBAA,1998-09-18 10:00,ZBAA 181000Z AUTO 05004KT 6SM 27/06 A2997 RMK SLP147 T02700060 IEM_DS3505
ZBAA,1998-09-18 11:00,ZBAA 181100Z AUTO 31002KT 6SM 26/08 A2997 RMK SLP148 T02600080 IEM_DS3505
ZBAA,1998-09-18 12:00,ZBAA 181200Z AUTO 29002KT 7SM 23/14 A3000 RMK SLP158 T02330144 52019 IEM_DS3505
ZBAA,1998-09-18 13:00,ZBAA 181300Z AUTO 35002KT 6SM 24/10 A3003 RMK SLP168 T02400100 IEM_DS3505
ZBAA,1998-09-18 14:00,ZBAA 181400Z AUTO 35006KT 6SM 23/11 A3006 RMK SLP178 T02300110 IEM_DS3505
ZBAA,1998-09-18 15:00,ZBAA 181500Z AUTO 34004KT 9SM 22/12 A3006 RMK SLP169 T02240120 52011 IEM_DS3505
ZBAA,1998-09-18 16:00,ZBAA 181600Z AUTO 36006KT 6SM 21/10 A3006 RMK SLP179 T02100100 IEM_DS3505
ZBAA,1998-09-18 17:00,ZBAA 181700Z AUTO 01006KT 6SM 21/09 A3006 RMK SLP179 T02100090 IEM_DS3505
ZBAA,1998-09-18 18:00,ZBAA 181800Z AUTO 36008KT 9SM 24/07 A3009 RMK SLP180 T02350067 52011 IEM_DS3505
ZBAA,1998-09-18 19:00,ZBAA 181900Z AUTO 35008KT 6SM 22/08 A3009 RMK SLP189 T02200080 IEM_DS3505
ZBAA,1998-09-18 20:00,ZBAA 182000Z AUTO 33006KT 6SM 21/08 A3009 RMK SLP189 T02100080 IEM_DS3505
ZBAA,1998-09-18 21:00,ZBAA 182100Z AUTO 34008KT 7SM 23/08 A3009 RMK SLP185 T02290085 52005 IEM_DS3505
ZBAA,1998-09-18 22:00,ZBAA 182200Z AUTO 32006KT 6SM 21/08 A3012 RMK SLP200 T02100080 IEM_DS3505
ZBAA,1998-09-18 23:00,ZBAA 182300Z AUTO 36008KT 6SM 20/11 A3009 RMK SLP189 T02000110 IEM_DS3505
ZBAA,1998-09-19 00:00,ZBAA 190000Z AUTO 34006KT 12SM 22/10 A3015 RMK SLP199 T02170104 52014 IEM_DS3505
ZBAA,1998-09-19 01:00,ZBAA 190100Z AUTO 31008KT 6SM 22/11 A3015 RMK SLP210 T02200110 IEM_DS3505
ZBAA,1998-09-19 02:00,ZBAA 190200Z AUTO 31008KT 6SM 21/13 A3018 RMK SLP220 T02100130 IEM_DS3505
ZBAA,1998-09-19 03:00,ZBAA 190300Z AUTO 34006KT 7SM 22/12 A3018 RMK SLP209 T02220115 52010 IEM_DS3505
ZBAA,1998-09-19 04:00,ZBAA 190400Z AUTO 36004KT 6SM 23/12 A3015 RMK SLP210 T02300120 IEM_DS3505
ZBAA,1998-09-19 05:00,ZBAA 190500Z AUTO 33006KT 7SM 23/12 A3015 RMK SLP210 T02300120 IEM_DS3505
ZBAA,1998-09-19 06:00,ZBAA 190600Z AUTO 34008KT 7SM 22/12 A3015 RMK SLP203 T02240115 57006 IEM_DS3505
ZBAA,1998-09-19 07:00,ZBAA 190700Z AUTO 02004KT 7SM 22/13 A3012 RMK SLP200 T02200130 IEM_DS3505
ZBAA,1998-09-19 08:00,ZBAA 190800Z AUTO 01006KT 7SM 21/14 A3012 RMK SLP200 T02100140 IEM_DS3505
ZBAA,1998-09-19 09:00,ZBAA 190900Z AUTO 36010KT 7SM 21/13 A3012 RMK SLP196 T02100128 57007 IEM_DS3505
ZBAA,1998-09-19 10:00,ZBAA 191000Z AUTO 35008KT 7SM 20/14 A3012 RMK SLP200 T02000140 IEM_DS3505
ZBAA,1998-09-19 11:00,ZBAA 191100Z AUTO 35008KT 7SM 19/14 A3012 RMK SLP200 T01900140 IEM_DS3505
ZBAA,1998-09-19 12:00,ZBAA 191200Z AUTO 34004KT 7SM 20/12 A3012 RMK SLP195 T01970124 57001 IEM_DS3505
ZBAA,1998-09-19 13:00,ZBAA 191300Z AUTO 36006KT 7SM 17/15 A3012 RMK SLP201 T01700150 IEM_DS3505
ZBAA,1998-09-19 14:00,ZBAA 191400Z AUTO 00000KT 6SM 17/15 A3009 RMK SLP190 T01700150 IEM_DS3505
ZBAA,1998-09-19 15:00,ZBAA 191500Z AUTO 02004KT 7SM 18/14 A3009 RMK SLP183 T01830136 57012 IEM_DS3505
ZBAA,1998-09-19 16:00,ZBAA 191600Z AUTO 33002KT 7SM 17/15 A3006 RMK SLP180 T01700150 IEM_DS3505
ZBAA,1998-09-19 17:00,ZBAA 191700Z AUTO 30008KT 6SM 18/13 A3003 RMK SLP169 T01800130 IEM_DS3505
ZBAA,1998-09-19 18:00,ZBAA 191800Z AUTO 32004KT 6SM 18/12 A3003 RMK 60000 SLP173 T01850124 57010 IEM_DS3505
ZBAA,1998-09-19 19:00,ZBAA 191900Z AUTO 31008KT 7SM 18/13 A3003 RMK SLP169 T01800130 IEM_DS3505
ZBAA,1998-09-19 20:00,ZBAA 192000Z AUTO 30008KT 7SM 17/13 A3000 RMK SLP160 T01700130 IEM_DS3505
ZBAA,1998-09-19 21:00,ZBAA 192100Z AUTO 27006KT 9SM 16/14 A3000 RMK 70004 SLP166 T01620135 57008 IEM_DS3505
ZBAA,1998-09-19 22:00,ZBAA 192200Z AUTO 29006KT 7SM 16/14 A3000 RMK SLP160 T01600140 IEM_DS3505
ZBAA,1998-09-19 23:00,ZBAA 192300Z AUTO 29006KT 7SM 16/13 A3000 RMK SLP160 T01600130 IEM_DS3505
ZBAA,1998-09-20 00:00,ZBAA 200000Z AUTO 34006KT 19SM 17/10 A3000 RMK 60004 70004 SLP159 T01710101 57007 IEM_DS3505
ZBAA,1998-09-20 01:00,ZBAA 200100Z AUTO 29008KT 6SM 17/12 A3000 RMK SLP160 T01700120 IEM_DS3505
ZBAA,1998-09-20 02:00,ZBAA 200200Z AUTO 30008KT 6SM 19/11 A2997 RMK SLP149 T01900110 IEM_DS3505
ZBAA,1998-09-20 03:00,ZBAA 200300Z AUTO 32006KT 9SM 19/08 A2994 RMK SLP147 T01930084 57012 IEM_DS3505
ZBAA,1998-09-20 04:00,ZBAA 200400Z AUTO 33006KT 6SM 21/08 A2991 RMK SLP129 T02100080 IEM_DS3505
ZBAA,1998-09-20 05:00,ZBAA 200500Z AUTO 31006KT 6SM 22/07 A2988 RMK SLP118 T02200070 IEM_DS3505
ZBAA,1998-09-20 06:00,ZBAA 200600Z AUTO 32004KT 12SM 22/08 A2988 RMK SLP115 T02150085 57031 IEM_DS3505
ZBAA,1998-09-20 07:00,ZBAA 200700Z AUTO 22004KT 6SM 22/09 A2985 RMK SLP108 T02200090 IEM_DS3505
ZBAA,1998-09-20 08:00,ZBAA 200800Z AUTO 29008KT 7SM 21/09 A2983 RMK SLP101 T02100090 IEM_DS3505
ZBAA,1998-09-20 09:00,ZBAA 200900Z AUTO 22008KT 12SM 19/12 A2983 RMK SLP104 T01870117 57012 IEM_DS3505
ZBAA,1998-09-20 10:00,ZBAA 201000Z AUTO 20008KT 6SM 19/12 A2983 RMK SLP102 T01900120 IEM_DS3505
ZBAA,1998-09-20 11:00,ZBAA 201100Z AUTO 20008KT 6SM 19/11 A2983 RMK SLP102 T01900110 IEM_DS3505
ZBAA,1998-09-20 12:00,ZBAA 201200Z AUTO 20008KT 12SM 16/12 A2983 RMK SLP102 T01630125 57002 IEM_DS3505
ZBAA,1998-09-20 13:00,ZBAA 201300Z AUTO 18006KT 6SM 16/13 A2983 RMK SLP102 T01600130 IEM_DS3505
ZBAA,1998-09-20 15:00,ZBAA 201500Z AUTO 25004KT 12SM 14/11 A2982 RMK SLP098 T01400110 57004 IEM_DS3505
ZBAA,1998-09-20 16:00,ZBAA 201600Z AUTO 23006KT 6SM 16/12 A2980 RMK SLP092 T01600120 IEM_DS3505
ZBAA,1998-09-20 17:00,ZBAA 201700Z AUTO 05002KT 6SM 14/13 A2980 RMK SLP093 T01400130 IEM_DS3505
ZBAA,1998-09-20 18:00,ZBAA 201800Z AUTO 00000KT 12SM 12/11 A2980 RMK SLP092 T01230112 57006 IEM_DS3505
ZBAA,1998-09-20 19:00,ZBAA 201900Z AUTO 00000KT 4SM 13/12 A2980 RMK SLP093 T01300120 IEM_DS3505
ZBAA,1998-09-20 20:00,ZBAA 202000Z AUTO 00000KT 3SM 12/12 A2980 RMK SLP093 T01200120 IEM_DS3505
ZBAA,1998-09-20 21:00,ZBAA 202100Z AUTO 00000KT 6SM 12/11 A2980 RMK 70001 SLP091 T01200112 57001 IEM_DS3505
ZBAA,1998-09-20 22:00,ZBAA 202200Z AUTO 34004KT 2 1/2SM 12/11 A2980 RMK SLP093 T01200110 IEM_DS3505
ZBAA,1998-09-20 23:00,ZBAA 202300Z AUTO 36006KT 7SM 13/12 A2983 RMK SLP103 T01300120 IEM_DS3505
ZBAA,1998-09-21 00:00,ZBAA 210000Z AUTO 34004KT 4SM 17/13 A2988 RMK SLP097 T01670130 52006 IEM_DS3505
ZBAA,1998-09-21 01:00,ZBAA 210100Z AUTO 01006KT 7SM 19/12 A2983 RMK SLP102 T01900120 IEM_DS3505
ZBAA,1998-09-21 02:00,ZBAA 210200Z AUTO 02006KT 7SM 22/11 A2985 RMK SLP108 T02200110 IEM_DS3505
ZBAA,1998-09-21 03:00,ZBAA 210300Z AUTO 34008KT 16SM 26/08 A2985 RMK SLP104 T02580075 52008 IEM_DS3505
ZBAA,1998-09-21 04:00,ZBAA 210400Z AUTO 34006KT 7SM 26/08 A2983 RMK SLP100 T02600080 IEM_DS3505
ZBAA,1998-09-21 05:00,ZBAA 210500Z AUTO 34006KT 7SM 27/09 A2983 RMK SLP100 T02700090 IEM_DS3505
ZBAA,1998-09-21 06:00,ZBAA 210600Z AUTO 04006KT 19SM 28/06 A2989 RMK SLP099 T02800060 57005 IEM_DS3505
ZBAA,1998-09-21 07:00,ZBAA 210700Z AUTO 34004KT 7SM 29/07 A2983 RMK SLP100 T02900070 IEM_DS3505
ZBAA,1998-09-21 08:00,ZBAA 210800Z AUTO ////02KT 7SM 29/07 A2983 RMK SLP100 T02900070 IEM_DS3505
ZBAA,1998-09-21 09:00,ZBAA 210900Z AUTO 09004KT 19SM 28/08 A2983 RMK SLP095 T02780080 57004 IEM_DS3505
ZBAA,1998-09-21 10:00,ZBAA 211000Z AUTO 13002KT 7SM 26/09 A2983 RMK SLP100 T02600090 IEM_DS3505
ZBAA,1998-09-21 11:00,ZBAA 211100Z AUTO 15002KT 7SM 23/09 A2985 RMK SLP108 T02300090 IEM_DS3505
ZBAA,1998-09-21 12:00,ZBAA 211200Z AUTO 20004KT 17SM 21/12 A2988 RMK SLP111 T02140116 52016 IEM_DS3505
ZBAA,1998-09-21 13:00,ZBAA 211300Z AUTO 17004KT 7SM 21/11 A2991 RMK SLP129 T02100110 IEM_DS3505
ZBAA,1998-09-21 14:00,ZBAA 211400Z AUTO 16002KT 7SM 19/12 A2991 RMK SLP129 T01900120 IEM_DS3505
ZBAA,1998-09-21 15:00,ZBAA 211500Z AUTO 00000KT 6SM 16/12 A2991 RMK SLP130 T01620118 52019 IEM_DS3505
ZBAA,1998-09-21 16:00,ZBAA 211600Z AUTO 08002KT 7SM 18/11 A2994 RMK SLP139 T01800110 IEM_DS3505
ZBAA,1998-09-21 17:00,ZBAA 211700Z AUTO 12004KT 7SM 17/12 A2997 RMK SLP149 T01700120 IEM_DS3505
ZBAA,1998-09-21 18:00,ZBAA 211800Z AUTO 07004KT 12SM 15/11 A2997 RMK SLP147 T01490106 52017 IEM_DS3505
ZBAA,1998-09-21 19:00,ZBAA 211900Z AUTO 13006KT 7SM 18/15 A3000 RMK SLP159 T01800150 IEM_DS3505
ZBAA,1998-09-21 20:00,ZBAA 212000Z AUTO 13004KT 7SM 17/15 A3000 RMK SLP160 T01700150 IEM_DS3505
ZBAA,1998-09-21 21:00,ZBAA 212100Z AUTO 11004KT 6SM 15/14 A3000 RMK SLP160 T01540145 52013 IEM_DS3505
ZBAA,1998-09-21 22:00,ZBAA 212200Z AUTO 36002KT 6SM 15/14 A3003 RMK SLP170 T01500140 IEM_DS3505
ZBAA,1998-09-21 23:00,ZBAA 212300Z AUTO 35002KT 4SM 16/14 A3006 RMK SLP180 T01600140 IEM_DS3505
ZBAA,1998-09-22 00:00,ZBAA 220000Z AUTO 02002KT 2 1/2SM 17/15 A3006 RMK SLP176 T01680149 52015 IEM_DS3505
ZBAA,1998-09-22 02:00,ZBAA 220200Z AUTO ////04KT 5SM 22/16 A3006 RMK SLP179 T02200160 IEM_DS3505
ZBAA,1998-09-22 03:00,ZBAA 220300Z AUTO 16002KT 6SM 23/14 A3006 RMK SLP175 T02270136 57001 IEM_DS3505
ZBAA,1998-09-22 04:00,ZBAA 220400Z AUTO 16004KT 6SM 24/16 A3003 RMK SLP168 T02400160 IEM_DS3505
ZBAA,1998-09-22 05:00,ZBAA 220500Z AUTO 18006KT 6SM 25/14 A3000 RMK SLP158 T02500140 IEM_DS3505
ZBAA,1998-09-22 06:00,ZBAA 220600Z AUTO 20010KT 9SM 27/10 A2997 RMK SLP151 T02670096 57023 IEM_DS3505
ZBAA,1998-09-22 07:00,ZBAA 220700Z AUTO 17010G19KT 6SM 27/11 A2994 RMK SLP137 T02700110 IEM_DS3505
ZBAA,1998-09-22 08:00,ZBAA 220800Z AUTO 18010KT 6SM 27/10 A2994 RMK SLP137 T02700100 IEM_DS3505
ZBAA,1998-09-22 09:00,ZBAA 220900Z AUTO 18006KT 9SM 26/10 A2991 RMK SLP137 T02590104 57014 IEM_DS3505
ZBAA,1998-09-22 10:00,ZBAA 221000Z AUTO 14004KT 6SM 24/12 A2994 RMK SLP138 T02400120 IEM_DS3505
ZBAA,1998-09-22 11:00,ZBAA 221100Z AUTO 13004KT 6SM 21/17 A2994 RMK SLP139 T02100170 IEM_DS3505
ZBAA,1998-09-22 12:00,ZBAA 221200Z AUTO 14006KT 7SM 21/16 A2997 RMK SLP138 T02060161 54000 IEM_DS3505
ZBAA,1998-09-22 13:00,ZBAA 221300Z AUTO 12004KT 6SM 19/17 A2997 RMK SLP149 T01900170 IEM_DS3505
ZBAA,1998-09-22 14:00,ZBAA 221400Z AUTO 13004KT 6SM 19/16 A2997 RMK SLP149 T01900160 IEM_DS3505
ZBAA,1998-09-22 15:00,ZBAA 221500Z AUTO 11002KT 9SM 18/16 A2997 RMK SLP148 T01850162 52011 IEM_DS3505
ZBAA,1998-09-22 16:00,ZBAA 221600Z AUTO 11004KT 6SM 18/16 A3000 RMK SLP159 T01800160 IEM_DS3505
ZBAA,1998-09-22 18:00,ZBAA 221800Z AUTO 02004KT 9SM 17/16 A2997 RMK SLP148 T01720159 54000 IEM_DS3505
ZBAA,1998-09-22 19:00,ZBAA 221900Z AUTO 00000KT 5SM 17/16 A2997 RMK SLP149 T01700160 IEM_DS3505
ZBAA,1998-09-22 20:00,ZBAA 222000Z AUTO 27002KT 5SM 18/16 A3000 RMK SLP159 T01800160 IEM_DS3505
ZBAA,1998-09-22 21:00,ZBAA 222100Z AUTO 02004KT 6SM 17/16 A3000 RMK SLP148 T01680158 54000 IEM_DS3505
ZBAA,1998-09-22 22:00,ZBAA 222200Z AUTO 00000KT 4SM 16/16 A3000 RMK SLP160 T01600160 IEM_DS3505
ZBAA,1998-09-22 23:00,ZBAA 222300Z AUTO 12002KT 3SM 17/16 RMK T01700160 IEM_DS3505
ZBAA,1998-09-23 00:00,ZBAA 230000Z AUTO 36006KT 2 1/2SM 17/16 A3000 RMK SLP157 T01740159 52008 IEM_DS3505
ZBAA,1998-09-23 01:00,ZBAA 230100Z AUTO 36002KT 4SM 20/17 A3000 RMK SLP159 T02000170 IEM_DS3505
ZBAA,1998-09-23 02:00,ZBAA 230200Z AUTO ////02KT 4SM 21/16 A3000 RMK SLP159 T02100160 IEM_DS3505
ZBAA,1998-09-23 03:00,ZBAA 230300Z AUTO 04002KT 2 1/2SM 20/15 A3000 RMK SLP157 T02040152 52001 IEM_DS3505
ZBAA,1998-09-23 04:00,ZBAA 230400Z AUTO ////02KT 4SM 23/17 A3000 RMK SLP158 T02300170 IEM_DS3505
ZBAA,1998-09-23 05:00,ZBAA 230500Z AUTO 16006KT 4SM 22/16 A2997 RMK SLP148 T02200160 IEM_DS3505
ZBAA,1998-09-23 06:00,ZBAA 230600Z AUTO 14006KT 4SM 23/15 A2994 RMK SLP144 T02290147 57013 IEM_DS3505
ZBAA,1998-09-23 07:00,ZBAA 230700Z AUTO 13004KT 4SM 24/16 A2994 RMK SLP138 T02400160 IEM_DS3505
ZBAA,1998-09-23 08:00,ZBAA 230800Z AUTO 14004KT 4SM 24/16 A2994 RMK SLP138 T02400160 IEM_DS3505
ZBAA,1998-09-23 09:00,ZBAA 230900Z AUTO 14004KT 4SM 23/14 A2994 RMK SLP137 T02290145 57007 IEM_DS3505
ZBAA,1998-09-23 10:00,ZBAA 231000Z AUTO 09002KT 3SM 21/16 A2994 RMK SLP139 T02100160 IEM_DS3505
ZBAA,1998-09-23 11:00,ZBAA 231100Z AUTO 08002KT 2 1/2SM 20/16 A2997 RMK SLP149 T02000160 IEM_DS3505
ZBAA,1998-09-23 12:00,ZBAA 231200Z AUTO 07004KT 5SM 20/16 A2997 RMK SLP150 T01950164 52012 IEM_DS3505
ZBAA,1998-09-23 13:00,ZBAA 231300Z AUTO 12002KT 2 1/2SM 19/16 A3000 RMK SLP159 T01900160 IEM_DS3505
ZBAA,1998-09-23 14:00,ZBAA 231400Z AUTO 09002KT 2SM 18/16 A3000 RMK SLP159 T01800160 IEM_DS3505
ZBAA,1998-09-23 15:00,ZBAA 231500Z AUTO 02004KT 6SM 19/16 A3000 RMK SLP154 T01900156 52005 IEM_DS3505
ZBAA,1998-09-23 16:00,ZBAA 231600Z AUTO 01002KT 1 1/2SM 17/16 A3000 RMK SLP160 T01700160 IEM_DS3505
ZBAA,1998-09-23 17:00,ZBAA 231700Z AUTO 34004KT 1 1/4SM 17/15 A2997 RMK SLP149 T01700150 IEM_DS3505
ZBAA,1998-09-23 18:00,ZBAA 231800Z AUTO 02004KT 4SM 18/15 A2997 RMK SLP149 T01770151 57005 IEM_DS3505
ZBAA,1998-09-23 19:00,ZBAA 231900Z AUTO 36004KT 1 1/4SM 17/15 A2997 RMK SLP149 T01700150 IEM_DS3505
ZBAA,1998-09-23 20:00,ZBAA 232000Z AUTO 34004KT 1 1/4SM 17/16 A2997 RMK SLP149 T01700160 IEM_DS3505
ZBAA,1998-09-23 21:00,ZBAA 232100Z AUTO 04004KT 2SM 17/15 A2997 RMK SLP146 T01720151 57003 IEM_DS3505
ZBAA,1998-09-23 22:00,ZBAA 232200Z AUTO 34002KT 1 1/4SM 16/15 A2997 RMK SLP150 T01600150 IEM_DS3505
ZBAA,1998-09-23 23:00,ZBAA 232300Z AUTO 34004KT 1 1/4SM 16/15 A3000 RMK SLP160 T01600150 IEM_DS3505
ZBAA,1998-09-24 00:00,ZBAA 240000Z AUTO 00000KT 1SM 18/16 A3000 RMK SLP156 T01820155 52009 IEM_DS3505
ZBAA,1998-09-24 01:00,ZBAA 240100Z AUTO 35004KT 2SM 19/16 A3000 RMK SLP159 T01900160 IEM_DS3505
ZBAA,1998-09-24 02:00,ZBAA 240200Z AUTO ////02KT 2SM 21/16 A3000 RMK SLP159 T02100160 IEM_DS3505
ZBAA,1998-09-24 03:00,ZBAA 240300Z AUTO 07004KT 4SM 23/16 A2998 RMK SLP153 T02280164 57002 IEM_DS3505
ZBAA,1998-09-24 04:00,ZBAA 240400Z AUTO ////02KT 4SM 24/17 A2997 RMK SLP148 T02400170 IEM_DS3505
ZBAA,1998-09-24 05:00,ZBAA 240500Z AUTO ////04KT 4SM 25/17 A2994 RMK SLP138 T02500170 IEM_DS3505
ZBAA,1998-09-24 06:00,ZBAA 240600Z AUTO 20006KT 3SM 26/16 A2994 RMK SLP139 T02640161 57014 IEM_DS3505
ZBAA,1998-09-24 07:00,ZBAA 240700Z AUTO 17006KT 4SM 27/17 A2991 RMK SLP127 T02700170 IEM_DS3505
ZBAA,1998-09-24 08:00,ZBAA 240800Z AUTO 17004KT 3SM 26/16 A2991 RMK SLP128 T02600160 IEM_DS3505
ZBAA,1998-09-24 09:00,ZBAA 240900Z AUTO 20004KT 3SM 26/16 A2991 RMK SLP127 T02650158 57012 IEM_DS3505
ZBAA,1998-09-24 11:00,ZBAA 241100Z AUTO 17002KT 2 1/2SM 23/17 A2991 RMK SLP128 T02300170 IEM_DS3505
ZBAA,1998-09-24 12:00,ZBAA 241200Z AUTO 36006KT 5SM 23/17 A2997 RMK SLP143 T02270170 52016 IEM_DS3505
ZBAA,1998-09-24 13:00,ZBAA 241300Z AUTO 12006KT 2 1/2SM 22/17 A2994 RMK SLP138 T02200170 IEM_DS3505
ZBAA,1998-09-24 14:00,ZBAA 241400Z AUTO 18004KT 2 1/2SM 20/17 A2994 RMK SLP139 T02000170 IEM_DS3505
ZBAA,1998-09-24 15:00,ZBAA 241500Z AUTO 18004KT 6SM 22/17 A2994 RMK SLP137 T02210167 57006 IEM_DS3505
ZBAA,1998-09-24 16:00,ZBAA 241600Z AUTO 03002KT 2 1/2SM 20/17 A2994 RMK SLP139 T02000170 IEM_DS3505
ZBAA,1998-09-24 17:00,ZBAA 241700Z AUTO 00000KT 2 1/2SM 18/16 A2994 RMK SLP139 T01800160 IEM_DS3505
ZBAA,1998-09-24 18:00,ZBAA 241800Z AUTO 00000KT 1 1/4SM 18/16 A2991 RMK SLP131 T01770165 57006 IEM_DS3505
ZBAA,1998-09-24 19:00,ZBAA 241900Z AUTO 00000KT 2 1/2SM 18/17 A2991 RMK SLP129 T01800170 IEM_DS3505
ZBAA,1998-09-24 20:00,ZBAA 242000Z AUTO 00000KT 2 1/2SM 18/16 A2991 RMK SLP129 T01800160 IEM_DS3505
ZBAA,1998-09-24 21:00,ZBAA 242100Z AUTO 00000KT 2SM 18/17 A2991 RMK SLP129 T01790167 57002 IEM_DS3505
ZBAA,1998-09-24 22:00,ZBAA 242200Z AUTO 01002KT 2 1/2SM 17/15 A2991 RMK SLP129 T01700150 IEM_DS3505
ZBAA,1998-09-24 23:00,ZBAA 242300Z AUTO 00000KT 1 1/4SM 17/16 A2991 RMK SLP129 T01700160 IEM_DS3505
ZBAA,1998-09-25 00:00,ZBAA 250000Z AUTO 00000KT 1/2SM 18/16 A2994 RMK SLP132 T01810163 52003 IEM_DS3505
ZBAA,1998-09-25 01:00,ZBAA 250100Z AUTO 12002KT 1SM 20/17 A2994 RMK SLP139 T02000170 IEM_DS3505
ZBAA,1998-09-25 02:00,ZBAA 250200Z AUTO ////02KT 1SM 22/18 A2994 RMK SLP138 T02200180 IEM_DS3505
ZBAA,1998-09-25 03:00,ZBAA 250300Z AUTO 07002KT 1 1/4SM 25/18 A2994 RMK SLP135 T02520178 52003 IEM_DS3505
ZBAA,1998-09-25 04:00,ZBAA 250400Z AUTO ////02KT 1SM 27/18 A2991 RMK SLP127 T02700180 IEM_DS3505
ZBAA,1998-09-25 05:00,ZBAA 250500Z AUTO 13004KT 1 1/4SM 28/17 A2988 RMK SLP117 T02800170 IEM_DS3505
ZBAA,1998-09-25 06:00,ZBAA 250600Z AUTO 20006KT 1 1/4SM 28/16 A2985 RMK SLP113 T02830161 57022 IEM_DS3505
ZBAA,1998-09-25 07:00,ZBAA 250700Z AUTO 14006KT 1SM 29/17 A2985 RMK SLP107 T02900170 IEM_DS3505
ZBAA,1998-09-25 08:00,ZBAA 250800Z AUTO 15004KT 1SM 28/18 A2985 RMK SLP107 T02800180 IEM_DS3505
ZBAA,1998-09-25 09:00,ZBAA 250900Z AUTO 00000KT 1 1/4SM 29/17 A2985 RMK SLP103 T02870168 57010 IEM_DS3505
ZBAA,1998-09-25 10:00,ZBAA 251000Z AUTO 20010KT 1 1/4SM 27/14 A2985 RMK SLP107 T02700140 IEM_DS3505
ZBAA,1998-09-25 11:00,ZBAA 251100Z AUTO 15008KT 1 1/2SM 24/15 A2988 RMK SLP118 T02400150 IEM_DS3505
ZBAA,1998-09-25 12:00,ZBAA 251200Z AUTO 14006KT 5SM 25/15 A2988 RMK SLP124 T02510154 52021 IEM_DS3505
ZBAA,1998-09-25 13:00,ZBAA 251300Z AUTO 34002KT 1 1/4SM 21/16 A2991 RMK SLP129 T02100160 IEM_DS3505
ZBAA,1998-09-25 14:00,ZBAA 251400Z AUTO 00000KT 1 1/4SM 20/17 A2994 RMK SLP139 T02000170 IEM_DS3505
ZBAA,1998-09-25 15:00,ZBAA 251500Z AUTO 29004KT 6SM 22/15 A2994 RMK SLP137 T02230153 52013 IEM_DS3505
ZBAA,1998-09-25 16:00,ZBAA 251600Z AUTO 34002KT 1SM 20/17 A2994 RMK SLP139 T02000170 IEM_DS3505
ZBAA,1998-09-25 17:00,ZBAA 251700Z AUTO 27004KT 1SM 19/17 A2997 RMK SLP149 T01900170 IEM_DS3505
ZBAA,1998-09-25 18:00,ZBAA 251800Z AUTO 04002KT 1 1/4SM 20/16 A2997 RMK SLP144 T02040164 52007 IEM_DS3505
ZBAA,1998-09-25 19:00,ZBAA 251900Z AUTO 36004KT 1 1/4SM 17/15 A2997 RMK SLP149 T01700150 IEM_DS3505
ZBAA,1998-09-25 20:00,ZBAA 252000Z AUTO 35004KT 1 1/4SM 16/14 A2997 RMK SLP150 T01600140 IEM_DS3505
ZBAA,1998-09-25 21:00,ZBAA 252100Z AUTO 25004KT 1SM 17/15 A3000 RMK SLP150 T01680149 52006 IEM_DS3505
ZBAA,1998-09-25 22:00,ZBAA 252200Z AUTO 34006KT 2SM 17/13 A3003 RMK SLP170 T01700130 IEM_DS3505
ZBAA,1998-09-25 23:00,ZBAA 252300Z AUTO 34006KT 7SM 18/11 A3006 RMK SLP179 T01800110 IEM_DS3505
ZBAA,1998-09-26 00:00,ZBAA 260000Z AUTO 34008KT 10SM 23/05 A3006 RMK SLP177 T02260052 52027 IEM_DS3505
ZBAA,1998-09-26 01:00,ZBAA 260100Z AUTO 31008KT 7SM 24/09 A3009 RMK SLP188 T02400090 IEM_DS3505
ZBAA,1998-09-26 02:00,ZBAA 260200Z AUTO 34012KT 7SM 27/02 A3009 RMK SLP188 T02700020 IEM_DS3505
ZBAA,1998-09-26 03:00,ZBAA 260300Z AUTO 02008KT 19SM 27/02 A3009 RMK SLP189 T02660021 52012 IEM_DS3505
ZBAA,1998-09-26 04:00,ZBAA 260400Z AUTO 36012KT 7SM 28/00 A3009 RMK SLP188 T02800000 IEM_DS3505
ZBAA,1998-09-26 05:00,ZBAA 260500Z AUTO 01008KT 7SM 29/01 A3006 RMK SLP177 T02900010 IEM_DS3505
ZBAA,1998-09-26 06:00,ZBAA 260600Z AUTO 04006KT 19SM 29/00 A3006 RMK SLP175 T02890003 57014 IEM_DS3505
ZBAA,1998-09-26 07:00,ZBAA 260700Z AUTO 02006KT 7SM 30/02 A3003 RMK SLP167 T03000020 IEM_DS3505
ZBAA,1998-09-26 08:00,ZBAA 260800Z AUTO 05004KT 7SM 30/00 A3003 RMK SLP167 T03000000 IEM_DS3505
ZBAA,1998-09-26 09:00,ZBAA 260900Z AUTO 07006KT 19SM 28/02 A3003 RMK SLP164 T02820019 57011 IEM_DS3505
ZBAA,1998-09-26 10:00,ZBAA 261000Z AUTO 00000KT 7SM 26/05 A3003 RMK SLP168 T02600050 IEM_DS3505
ZBAA,1998-09-26 11:00,ZBAA 261100Z AUTO 17002KT 7SM 23/04 A3006 RMK SLP178 T02300040 IEM_DS3505
ZBAA,1998-09-26 12:00,ZBAA 261200Z AUTO 00000KT 19SM 20/09 A3009 RMK SLP181 T02030092 52017 IEM_DS3505
ZBAA,1998-09-26 13:00,ZBAA 261300Z AUTO 15006KT 4SM 21/13 A3012 RMK SLP200 T02100130 IEM_DS3505
ZBAA,1998-09-26 14:00,ZBAA 261400Z AUTO 10002KT 3SM 19/13 A3015 RMK SLP210 T01900130 IEM_DS3505
ZBAA,1998-09-26 15:00,ZBAA 261500Z AUTO 07004KT 19SM 18/14 A3015 RMK SLP201 T01830143 52020 IEM_DS3505
ZBAA,1998-09-26 16:00,ZBAA 261600Z AUTO 36004KT 2 1/2SM 16/14 A3015 RMK SLP211 T01600140 IEM_DS3505
ZBAA,1998-09-26 17:00,ZBAA 261700Z AUTO 00000KT 3SM 17/15 A3015 RMK SLP211 T01700150 IEM_DS3505
ZBAA,1998-09-26 18:00,ZBAA 261800Z AUTO 34004KT 9SM 18/15 A3015 RMK SLP207 T01800149 52006 IEM_DS3505
ZBAA,1998-09-26 19:00,ZBAA 261900Z AUTO 36002KT 4SM 16/15 A3015 RMK SLP211 T01600150 IEM_DS3505
ZBAA,1998-09-26 20:00,ZBAA 262000Z AUTO 33002KT 4SM 16/14 A3015 RMK SLP211 T01600140 IEM_DS3505
ZBAA,1998-09-26 21:00,ZBAA 262100Z AUTO 02002KT 7SM 16/14 A3015 RMK SLP207 T01600142 54000 IEM_DS3505
ZBAA,1998-09-26 22:00,ZBAA 262200Z AUTO 01002KT 2 1/2SM 15/14 A3015 RMK SLP211 T01500140 IEM_DS3505
ZBAA,1998-09-26 23:00,ZBAA 262300Z AUTO 34002KT 2 1/2SM 16/14 A3015 RMK SLP211 T01600140 IEM_DS3505
ZBAA,1998-09-27 00:00,ZBAA 270000Z AUTO 00000KT 2 1/2SM 17/16 A3015 RMK SLP208 T01720155 54000 IEM_DS3505
ZBAA,1998-09-27 01:00,ZBAA 270100Z AUTO 02002KT 4SM 19/14 A3015 RMK SLP210 T01900140 IEM_DS3505
ZBAA,1998-09-27 02:00,ZBAA 270200Z AUTO ////02KT 7SM 22/14 A3015 RMK SLP210 T02200140 IEM_DS3505
ZBAA,1998-09-27 03:00,ZBAA 270300Z AUTO 09004KT 4SM 22/14 A3012 RMK SLP204 T02240144 57004 IEM_DS3505
ZBAA,1998-09-27 04:00,ZBAA 270400Z AUTO 14004KT 7SM 24/16 A3009 RMK SLP188 T02400160 IEM_DS3505
ZBAA,1998-09-27 05:00,ZBAA 270500Z AUTO ////04KT 7SM 25/16 A3006 RMK SLP178 T02500160 IEM_DS3505
ZBAA,1998-09-27 06:00,ZBAA 270600Z AUTO 16006KT 6SM 26/16 A3003 RMK SLP172 T02620160 57031 IEM_DS3505
ZBAA,1998-09-27 07:00,ZBAA 270700Z AUTO 18006KT 4SM 27/16 A3003 RMK SLP168 T02700160 IEM_DS3505
ZBAA,1998-09-27 08:00,ZBAA 270800Z AUTO 18006KT 4SM 27/16 A3000 RMK SLP158 T02700160 IEM_DS3505
ZBAA,1998-09-27 09:00,ZBAA 270900Z AUTO 20006KT 5SM 26/15 A3000 RMK SLP161 T02650154 57011 IEM_DS3505
ZBAA,1998-09-27 10:00,ZBAA 271000Z AUTO 15002KT 3SM 25/17 A3003 RMK SLP168 T02500170 IEM_DS3505
ZBAA,1998-09-27 11:00,ZBAA 271100Z AUTO 12002KT 2 1/2SM 23/17 A3003 RMK SLP168 T02300170 IEM_DS3505
ZBAA,1998-09-27 12:00,ZBAA 271200Z AUTO 16004KT 5SM 23/17 A3006 RMK SLP171 T02290166 52010 IEM_DS3505
ZBAA,1998-09-27 13:00,ZBAA 271300Z AUTO 12002KT 2SM 21/19 A3006 RMK SLP179 T02100190 IEM_DS3505
ZBAA,1998-09-27 14:00,ZBAA 271400Z AUTO 12004KT 1 1/2SM 20/18 A3009 RMK SLP189 T02000180 IEM_DS3505
ZBAA,1998-09-27 15:00,ZBAA 271500Z AUTO 00000KT 5SM 19/18 A3006 RMK SLP176 T01890176 52005 IEM_DS3505
ZBAA,1998-09-27 16:00,ZBAA 271600Z AUTO 10002KT 2 1/2SM 18/18 A3006 RMK SLP179 T01800180 IEM_DS3505
ZBAA,1998-09-27 17:00,ZBAA 271700Z AUTO 01002KT 2 1/2SM 18/17 A3006 RMK SLP179 T01800170 IEM_DS3505
ZBAA,1998-09-27 18:00,ZBAA 271800Z AUTO 02004KT 4SM 18/17 A3006 RMK SLP172 T01810173 57004 IEM_DS3505
ZBAA,1998-09-27 19:00,ZBAA 271900Z AUTO 01002KT 2SM 18/17 A3003 RMK SLP169 T01800170 IEM_DS3505
ZBAA,1998-09-27 20:00,ZBAA 272000Z AUTO 33004KT 2SM 16/16 A3003 RMK SLP170 T01600160 IEM_DS3505
ZBAA,1998-09-27 21:00,ZBAA 272100Z AUTO 36004KT 2 1/2SM 18/16 A3003 RMK SLP169 T01750165 57003 IEM_DS3505
ZBAA,1998-09-27 22:00,ZBAA 272200Z AUTO 00000KT 1SM 17/17 A3003 RMK SLP170 T01700170 IEM_DS3505
ZBAA,1998-09-28 00:00,ZBAA 280000Z AUTO 04004KT 2SM 18/16 A3006 RMK SLP172 T01850165 52003 IEM_DS3505
ZBAA,1998-09-28 02:00,ZBAA 280200Z AUTO ////02KT 4SM 22/17 A3006 RMK SLP179 T02200170 IEM_DS3505
ZBAA,1998-09-28 03:00,ZBAA 280300Z AUTO 07006KT 2 1/2SM 22/17 A3003 RMK SLP169 T02210171 57003 IEM_DS3505
ZBAA,1998-09-28 05:00,ZBAA 280500Z AUTO ////04KT 4SM 25/17 A3000 RMK SLP158 T02500170 IEM_DS3505
ZBAA,1998-09-28 06:00,ZBAA 280600Z AUTO 09004KT 2SM 25/17 A2997 RMK SLP149 T02510169 57020 IEM_DS3505
ZBAA,1998-09-28 07:00,ZBAA 280700Z AUTO 13006KT 2SM 26/18 A2994 RMK SLP138 T02600180 IEM_DS3505
ZBAA,1998-09-28 08:00,ZBAA 280800Z AUTO 14004KT 1 1/2SM 26/18 A2994 RMK SLP138 T02600180 IEM_DS3505
ZBAA,1998-09-28 09:00,ZBAA 280900Z AUTO 16002KT 3SM 25/18 A2994 RMK SLP139 T02510175 57010 IEM_DS3505
ZBAA,1998-09-28 10:00,ZBAA 281000Z AUTO 12002KT 1 1/4SM 24/18 A2994 RMK SLP138 T02400180 IEM_DS3505
ZBAA,1998-09-28 11:00,ZBAA 281100Z AUTO 00000KT 1SM 22/18 A2997 RMK SLP148 T02200180 IEM_DS3505
ZBAA,1998-09-28 12:00,ZBAA 281200Z AUTO 00000KT 2 1/2SM 21/17 A2997 RMK SLP142 T02080174 52003 IEM_DS3505
ZBAA,1998-09-28 13:00,ZBAA 281300Z AUTO 11002KT 1SM 20/18 A2997 RMK SLP149 T02000180 IEM_DS3505
ZBAA,1998-09-28 14:00,ZBAA 281400Z AUTO 08002KT 1SM 20/18 A3000 RMK SLP159 T02000180 IEM_DS3505
ZBAA,1998-09-28 15:00,ZBAA 281500Z AUTO 00000KT 2 1/2SM 20/17 A3000 RMK SLP153 T01980174 52011 IEM_DS3505
ZBAA,1998-09-28 16:00,ZBAA 281600Z AUTO 14004KT 1SM 21/18 A3000 RMK SLP159 T02100180 IEM_DS3505
ZBAA,1998-09-28 17:00,ZBAA 281700Z AUTO 19002KT 1SM 20/18 A3000 RMK SLP159 T02000180 IEM_DS3505
ZBAA,1998-09-28 18:00,ZBAA 281800Z AUTO 00000KT 1SM 19/17 A2997 RMK SLP153 T01890169 54000 IEM_DS3505
ZBAA,1998-09-28 19:00,ZBAA 281900Z AUTO 00000KT 1SM 19/18 A2997 RMK SLP149 T01900180 IEM_DS3505
ZBAA,1998-09-28 20:00,ZBAA 282000Z AUTO 08002KT 1SM 18/18 A2997 RMK SLP149 T01800180 IEM_DS3505
ZBAA,1998-09-28 21:00,ZBAA 282100Z AUTO 00000KT 1SM 16/16 A2997 RMK SLP146 T01650163 57007 IEM_DS3505
ZBAA,1998-09-28 22:00,ZBAA 282200Z AUTO 01002KT 1SM 17/17 A2997 RMK SLP149 T01700170 IEM_DS3505
ZBAA,1998-09-28 23:00,ZBAA 282300Z AUTO 00000KT 1SM 17/17 A2997 RMK SLP149 T01700170 IEM_DS3505
ZBAA,1998-09-29 00:00,ZBAA 290000Z AUTO 00000KT 1SM 17/17 A3000 RMK SLP152 T01730168 52005 IEM_DS3505
ZBAA,1998-09-29 01:00,ZBAA 290100Z AUTO 07002KT 1 1/4SM 19/16 A3000 RMK SLP159 T01900160 IEM_DS3505
ZBAA,1998-09-29 03:00,ZBAA 290300Z AUTO 11004KT 1SM 22/17 A2997 RMK SLP149 T02180169 57002 IEM_DS3505
ZBAA,1998-09-29 04:00,ZBAA 290400Z AUTO 16004KT 1 1/4SM 23/16 A2997 RMK SLP148 T02300160 IEM_DS3505
ZBAA,1998-09-29 05:00,ZBAA 290500Z AUTO 14004KT 1 1/4SM 25/17 A2994 RMK SLP138 T02500170 IEM_DS3505
ZBAA,1998-09-29 06:00,ZBAA 290600Z AUTO 16004KT 1 1/4SM 25/17 A2991 RMK SLP127 T02510169 57022 IEM_DS3505
ZBAA,1998-09-29 07:00,ZBAA 290700Z AUTO 17004KT 1 1/4SM 26/16 A2991 RMK SLP128 T02600160 IEM_DS3505
ZBAA,1998-09-29 08:00,ZBAA 290800Z AUTO 21002KT 1 1/4SM 26/16 A2988 RMK SLP117 T02600160 IEM_DS3505
ZBAA,1998-09-29 09:00,ZBAA 290900Z AUTO 22004KT 1SM 26/17 A2991 RMK SLP121 T02570167 57006 IEM_DS3505
ZBAA,1998-09-29 10:00,ZBAA 291000Z AUTO 05002KT 1SM 23/18 A2991 RMK SLP128 T02300180 IEM_DS3505
ZBAA,1998-09-29 12:00,ZBAA 291200Z AUTO 00000KT 1SM 20/17 A2994 RMK SLP131 T02020173 52010 IEM_DS3505
ZBAA,1998-09-29 13:00,ZBAA 291300Z AUTO 00000KT 1SM 21/18 A2994 RMK SLP139 T02100180 IEM_DS3505
ZBAA,1998-09-29 14:00,ZBAA 291400Z AUTO 00000KT 1SM 20/18 A2994 RMK SLP139 T02000180 IEM_DS3505
ZBAA,1998-09-29 15:00,ZBAA 291500Z AUTO 00000KT 1SM 19/17 A2994 RMK SLP134 T01870172 52003 IEM_DS3505
ZBAA,1998-09-29 16:00,ZBAA 291600Z AUTO 00000KT 1SM 20/18 A2994 RMK SLP139 T02000180 IEM_DS3505
ZBAA,1998-09-29 17:00,ZBAA 291700Z AUTO 32002KT 1SM 19/17 A2994 RMK SLP139 T01900170 IEM_DS3505
ZBAA,1998-09-29 18:00,ZBAA 291800Z AUTO 36004KT 1SM 18/17 A2991 RMK SLP130 T01780170 57004 IEM_DS3505
ZBAA,1998-09-29 19:00,ZBAA 291900Z AUTO 03002KT 1SM 18/17 A2991 RMK SLP129 T01800170 IEM_DS3505
ZBAA,1998-09-29 20:00,ZBAA 292000Z AUTO 35004KT 1SM 17/17 A2991 RMK SLP129 T01700170 IEM_DS3505
ZBAA,1998-09-29 21:00,ZBAA 292100Z AUTO 04004KT 1SM 18/17 A2991 RMK SLP125 T01830170 57005 IEM_DS3505
ZBAA,1998-09-29 22:00,ZBAA 292200Z AUTO 35004KT 1/2SM 17/16 A2991 RMK SLP129 T01700160 IEM_DS3505
ZBAA,1998-09-30 00:00,ZBAA 300000Z AUTO 00000KT 1SM 19/17 A2991 RMK SLP127 T01870169 52002 IEM_DS3505
ZBAA,1998-09-30 01:00,ZBAA 300100Z AUTO 35004KT 1SM 21/17 A2991 RMK SLP129 T02100170 IEM_DS3505
ZBAA,1998-09-30 02:00,ZBAA 300200Z AUTO 01004KT 1SM 23/17 A2988 RMK SLP118 T02300170 IEM_DS3505
ZBAA,1998-09-30 03:00,ZBAA 300300Z AUTO 36002KT 1 1/4SM 25/18 A2988 RMK SLP115 T02460178 57012 IEM_DS3505
ZBAA,1998-09-30 04:00,ZBAA 300400Z AUTO ////02KT 1 1/4SM 27/17 A2985 RMK SLP107 T02700170 IEM_DS3505
ZBAA,1998-09-30 05:00,ZBAA 300500Z AUTO 03002KT 1 1/4SM 28/16 A2983 RMK SLP100 T02800160 IEM_DS3505
ZBAA,1998-09-30 06:00,ZBAA 300600Z AUTO 14004KT 2 1/2SM 28/17 A2980 RMK SLP089 T02850166 57026 IEM_DS3505
ZBAA,1998-09-30 07:00,ZBAA 300700Z AUTO 21004KT 1 1/2SM 29/17 A2977 RMK SLP080 T02900170 IEM_DS3505
ZBAA,1998-09-30 08:00,ZBAA 300800Z AUTO 19004KT 1 1/4SM 29/17 A2977 RMK SLP080 T02900170 IEM_DS3505
ZBAA,1998-09-30 09:00,ZBAA 300900Z AUTO 20002KT 2SM 29/18 A2977 RMK SLP076 T02870183 57013 IEM_DS3505
ZBAA,1998-09-30 10:00,ZBAA 301000Z AUTO 00000KT 1SM 25/19 A2977 RMK SLP080 T02500190 IEM_DS3505
ZBAA,1998-09-30 11:00,ZBAA 301100Z AUTO 00000KT 1SM 23/19 A2977 RMK SLP081 T02300190 IEM_DS3505
ZBAA,1998-09-30 12:00,ZBAA 301200Z AUTO 00000KT 1 1/4SM 22/19 A2980 RMK SLP084 T02170187 52008 IEM_DS3505
ZBAA,1998-09-30 13:00,ZBAA 301300Z AUTO 00000KT 1SM 21/19 A2980 RMK SLP091 T02100190 IEM_DS3505
ZBAA,1998-09-30 14:00,ZBAA 301400Z AUTO 00000KT 1SM 20/19 A2980 RMK SLP092 T02000190 IEM_DS3505
ZBAA,1998-09-30 15:00,ZBAA 301500Z AUTO 00000KT 1SM 20/18 A2979 RMK SLP089 T01970184 52005 IEM_DS3505
ZBAA,1998-09-30 16:00,ZBAA 301600Z AUTO 36002KT 1SM 19/19 A2980 RMK SLP092 T01900190 IEM_DS3505
ZBAA,1998-09-30 18:00,ZBAA 301800Z AUTO 00000KT 1SM 19/18 A2980 RMK SLP086 T01870179 57003 IEM_DS3505
ZBAA,1998-09-30 19:00,ZBAA 301900Z AUTO 06002KT 1SM 19/18 A2980 RMK SLP092 T01900180 IEM_DS3505
ZBAA,1998-09-30 20:00,ZBAA 302000Z AUTO 04002KT 1SM 19/18 A2980 RMK SLP092 T01900180 IEM_DS3505
ZBAA,1998-09-30 21:00,ZBAA 302100Z AUTO 02004KT 1SM 19/18 A2980 RMK SLP087 T01910175 52001 IEM_DS3505
ZBAA,1998-09-30 22:00,ZBAA 302200Z AUTO 35004KT 1SM 18/17 A2980 RMK SLP092 T01800170 IEM_DS3505
ZBAA,1998-09-30 23:00,ZBAA 302300Z AUTO 34004KT 1SM 19/17 A2983 RMK SLP102 T01900170 IEM_DS3505
ZBAA,1998-10-01 00:00,ZBAA 010000Z AUTO 00000KT 2SM 21/18 A2985 RMK SLP104 T02090179 52017 IEM_DS3505
ZBAA,1998-10-01 01:00,ZBAA 010100Z AUTO 34006KT 4SM 26/17 A2988 RMK SLP117 T02600170 IEM_DS3505
ZBAA,1998-10-01 02:00,ZBAA 010200Z AUTO 32019KT 6SM 28/05 A2988 RMK SLP117 T02800050 IEM_DS3505
ZBAA,1998-10-01 03:00,ZBAA 010300Z AUTO 34012KT 12SM 28/02 A2988 RMK SLP117 T02810021 52013 IEM_DS3505
ZBAA,1998-10-01 04:00,ZBAA 010400Z AUTO 34012G23KT 6SM 29/M01 A2988 RMK SLP117 T02901010 IEM_DS3505
ZBAA,1998-10-01 05:00,ZBAA 010500Z AUTO 33014KT 6SM 29/M05 A2991 RMK SLP127 T02901050 IEM_DS3505
ZBAA,1998-10-01 06:00,ZBAA 010600Z AUTO 34012G25KT 19SM 28/M04 A2988 RMK SLP121 T02821038 52004 IEM_DS3505
ZBAA,1998-10-01 07:00,ZBAA 010700Z AUTO 34016G25KT 6SM 29/M07 A2991 RMK SLP127 T02901070 IEM_DS3505
ZBAA,1998-10-01 08:00,ZBAA 010800Z AUTO 32019KT 6SM 28/M05 A2994 RMK SLP137 T02801050 IEM_DS3505
ZBAA,1998-10-01 09:00,ZBAA 010900Z AUTO 34006KT 19SM 26/M02 A2997 RMK SLP142 T02581017 52021 IEM_DS3505
ZBAA,1998-10-01 10:00,ZBAA 011000Z AUTO 36008KT 6SM 25/M02 A2997 RMK SLP148 T02501020 IEM_DS3505
ZBAA,1998-10-01 11:00,ZBAA 011100Z AUTO 33006KT 6SM 23/00 A3000 RMK SLP158 T02300000 IEM_DS3505
ZBAA,1998-10-01 12:00,ZBAA 011200Z AUTO 04004KT 19SM 23/03 A3003 RMK SLP158 T02330027 52016 IEM_DS3505
ZBAA,1998-10-01 13:00,ZBAA 011300Z AUTO 34008KT 6SM 21/M01 A3006 RMK SLP179 T02101010 IEM_DS3505
ZBAA,1998-10-01 14:00,ZBAA 011400Z AUTO 36006KT 7SM 16/01 A3009 RMK SLP190 T01600010 IEM_DS3505
ZBAA,1998-10-01 15:00,ZBAA 011500Z AUTO 36008KT 19SM 21/M04 A3009 RMK SLP180 T02081045 52022 IEM_DS3505
ZBAA,1998-10-01 16:00,ZBAA 011600Z AUTO 35008KT 7SM 16/M01 A3009 RMK SLP190 T01601010 IEM_DS3505
ZBAA,1998-10-01 17:00,ZBAA 011700Z AUTO 33006KT 7SM 15/M01 A3009 RMK SLP190 T01501010 IEM_DS3505
ZBAA,1998-10-01 18:00,ZBAA 011800Z AUTO 02004KT 19SM 18/M01 A3012 RMK SLP187 T01761014 52007 IEM_DS3505
ZBAA,1998-10-01 19:00,ZBAA 011900Z AUTO 34006KT 7SM 14/M01 A3012 RMK SLP201 T01401010 IEM_DS3505
ZBAA,1998-10-01 20:00,ZBAA 012000Z AUTO 35006KT 7SM 13/01 A3012 RMK SLP202 T01300010 IEM_DS3505
ZBAA,1998-10-01 21:00,ZBAA 012100Z AUTO 07004KT 12SM 14/01 A3010 RMK SLP195 T01360009 52007 IEM_DS3505
ZBAA,1998-10-01 23:00,ZBAA 012300Z AUTO 02004KT 7SM 14/00 A3015 RMK SLP211 T01400000 IEM_DS3505
ZBAA,1998-10-02 00:00,ZBAA 020000Z AUTO 04004KT 7SM 17/M02 A3022 RMK SLP211 T01741019 52016 IEM_DS3505
ZBAA,1998-10-02 01:00,ZBAA 020100Z AUTO 01006KT 6SM 19/M01 A3018 RMK SLP220 T01901010 IEM_DS3505
ZBAA,1998-10-02 02:00,ZBAA 020200Z AUTO 03002KT 6SM 21/M03 A3018 RMK SLP220 T02101030 IEM_DS3505
ZBAA,1998-10-02 03:00,ZBAA 020300Z AUTO 16002KT 7SM 23/M03 A3015 RMK SLP206 T02271027 57004 IEM_DS3505
ZBAA,1998-10-02 04:00,ZBAA 020400Z AUTO 18004KT 6SM 23/M02 A3012 RMK SLP200 T02301020 IEM_DS3505
ZBAA,1998-10-02 05:00,ZBAA 020500Z AUTO 19010KT 6SM 23/M03 A3009 RMK SLP188 T02301030 IEM_DS3505
ZBAA,1998-10-02 06:00,ZBAA 020600Z AUTO 20008KT 7SM 23/01 A3006 RMK SLP184 T02280006 57022 IEM_DS3505
ZBAA,1998-10-02 07:00,ZBAA 020700Z AUTO 20010KT 6SM 23/M01 A3006 RMK SLP178 T02301010 IEM_DS3505
ZBAA,1998-10-02 08:00,ZBAA 020800Z AUTO 21008KT 6SM 23/03 A3006 RMK SLP178 T02300030 IEM_DS3505
ZBAA,1998-10-02 09:00,ZBAA 020900Z AUTO 22008KT 6SM 22/08 A3003 RMK SLP176 T02170075 57009 IEM_DS3505
ZBAA,1998-10-02 10:00,ZBAA 021000Z AUTO 19004KT 6SM 21/07 A3003 RMK SLP169 T02100070 IEM_DS3505
ZBAA,1998-10-02 11:00,ZBAA 021100Z AUTO 18006KT 6SM 20/09 A3003 RMK SLP169 T02000090 IEM_DS3505
ZBAA,1998-10-02 12:00,ZBAA 021200Z AUTO 16004KT 9SM 20/11 A3006 RMK SLP175 T01970107 57001 IEM_DS3505
ZBAA,1998-10-02 13:00,ZBAA 021300Z AUTO 13004KT 6SM 18/12 A3006 RMK SLP179 T01800120 IEM_DS3505
ZBAA,1998-10-02 14:00,ZBAA 021400Z AUTO 13004KT 6SM 18/13 A3006 RMK SLP179 T01800130 IEM_DS3505
ZBAA,1998-10-02 15:00,ZBAA 021500Z AUTO 18004KT 9SM 18/11 A3003 RMK SLP172 T01780110 57002 IEM_DS3505
ZBAA,1998-10-02 16:00,ZBAA 021600Z AUTO 10002KT 6SM 16/13 A3003 RMK SLP170 T01600130 IEM_DS3505
ZBAA,1998-10-02 17:00,ZBAA 021700Z AUTO 00000KT 6SM 15/13 A3003 RMK SLP170 T01500130 IEM_DS3505
ZBAA,1998-10-02 18:00,ZBAA 021800Z AUTO 00000KT 9SM 15/11 A3003 RMK SLP171 T01510114 57002 IEM_DS3505
ZBAA,1998-10-02 19:00,ZBAA 021900Z AUTO 03002KT 3SM 14/12 A3006 RMK SLP180 T01400120 IEM_DS3505
ZBAA,1998-10-02 20:00,ZBAA 022000Z AUTO 34002KT 4SM 13/11 A3006 RMK SLP181 T01300110 IEM_DS3505
ZBAA,1998-10-02 21:00,ZBAA 022100Z AUTO 00000KT 9SM 12/11 A3009 RMK SLP179 T01240109 52008 IEM_DS3505
ZBAA,1998-10-02 22:00,ZBAA 022200Z AUTO 35006KT 4SM 11/09 A3009 RMK SLP191 T01100090 IEM_DS3505
ZBAA,1998-10-02 23:00,ZBAA 022300Z AUTO 35006KT 5SM 12/10 A3012 RMK SLP202 T01200100 IEM_DS3505
ZBAA,1998-10-03 00:00,ZBAA 030000Z AUTO 07004KT 5SM 16/12 A3015 RMK SLP206 T01610115 52027 IEM_DS3505
ZBAA,1998-10-03 01:00,ZBAA 030100Z AUTO 35006KT 7SM 19/11 A3018 RMK SLP220 T01900110 IEM_DS3505
ZBAA,1998-10-03 02:00,ZBAA 030200Z AUTO 34006KT 7SM 21/06 A3018 RMK SLP220 T02100060 IEM_DS3505
ZBAA,1998-10-03 03:00,ZBAA 030300Z AUTO 02006KT 12SM 24/00 A3016 RMK SLP212 T02400003 52007 IEM_DS3505
ZBAA,1998-10-03 04:00,ZBAA 030400Z AUTO ////02KT 7SM 25/M03 A3015 RMK SLP209 T02501030 IEM_DS3505
ZBAA,1998-10-03 05:00,ZBAA 030500Z AUTO ////02KT 7SM 26/M02 A3015 RMK SLP209 T02601020 IEM_DS3505
ZBAA,1998-10-03 06:00,ZBAA 030600Z AUTO 32004KT 11SM 27/M04 A3012 RMK SLP199 T02661041 57013 IEM_DS3505
ZBAA,1998-10-03 07:00,ZBAA 030700Z AUTO ////04KT 7SM 27/M04 A3009 RMK SLP188 T02701040 IEM_DS3505
ZBAA,1998-10-03 08:00,ZBAA 030800Z AUTO 13006KT 7SM 26/M03 A3009 RMK SLP188 T02601030 IEM_DS3505
ZBAA,1998-10-03 09:00,ZBAA 030900Z AUTO 20004KT 10SM 26/M01 A3009 RMK SLP192 T02591007 57008 IEM_DS3505
ZBAA,1998-10-03 10:00,ZBAA 031000Z AUTO 13002KT 6SM 22/03 A3012 RMK SLP200 T02200030 IEM_DS3505
ZBAA,1998-10-03 12:00,ZBAA 031200Z AUTO 18002KT 7SM 19/05 A3015 RMK SLP209 T01880052 52017 IEM_DS3505
ZBAA,1998-10-03 13:00,ZBAA 031300Z AUTO 13002KT 5SM 17/07 A3018 RMK SLP221 T01700070 IEM_DS3505
ZBAA,1998-10-03 14:00,ZBAA 031400Z AUTO 12004KT 4SM 17/05 A3021 RMK SLP231 T01700050 IEM_DS3505
ZBAA,1998-10-03 15:00,ZBAA 031500Z AUTO 00000KT 7SM 17/05 A3021 RMK SLP223 T01710052 52014 IEM_DS3505
ZBAA,1998-10-03 16:00,ZBAA 031600Z AUTO 12004KT 4SM 15/12 A3021 RMK SLP231 T01500120 IEM_DS3505
ZBAA,1998-10-03 18:00,ZBAA 031800Z AUTO 09006KT 6SM 14/12 A3024 RMK SLP233 T01450115 52010 IEM_DS3505
ZBAA,1998-10-03 19:00,ZBAA 031900Z AUTO 12004KT 7SM 15/11 A3024 RMK SLP241 T01500110 IEM_DS3505
ZBAA,1998-10-03 20:00,ZBAA 032000Z AUTO 00000KT 7SM 15/11 A3024 RMK SLP241 T01500110 IEM_DS3505
ZBAA,1998-10-03 21:00,ZBAA 032100Z AUTO 02004KT 6SM 14/11 A3024 RMK SLP235 T01390109 52002 IEM_DS3505
ZBAA,1998-10-03 22:00,ZBAA 032200Z AUTO 31002KT 4SM 13/11 A3024 RMK SLP242 T01300110 IEM_DS3505
ZBAA,1998-10-03 23:00,ZBAA 032300Z AUTO 32004KT 3SM 14/12 A3027 RMK SLP252 T01400120 IEM_DS3505
ZBAA,1998-10-04 00:00,ZBAA 040000Z AUTO 02004KT 6SM 16/12 A3031 RMK SLP242 T01560117 52007 IEM_DS3505
ZBAA,1998-10-04 01:00,ZBAA 040100Z AUTO 30002KT 5SM 18/12 A3027 RMK SLP251 T01800120 IEM_DS3505
ZBAA,1998-10-04 02:00,ZBAA 040200Z AUTO ////02KT 7SM 20/12 A3027 RMK SLP250 T02000120 IEM_DS3505
ZBAA,1998-10-04 03:00,ZBAA 040300Z AUTO 07006KT 6SM 20/13 A3024 RMK SLP240 T02030133 57002 IEM_DS3505
ZBAA,1998-10-04 04:00,ZBAA 040400Z AUTO ////04KT 5SM 22/13 A3021 RMK SLP230 T02200130 IEM_DS3505
ZBAA,1998-10-04 05:00,ZBAA 040500Z AUTO ////04KT 4SM 24/13 A3018 RMK SLP219 T02400130 IEM_DS3505
ZBAA,1998-10-04 06:00,ZBAA 040600Z AUTO 22006KT 6SM 25/12 A3015 RMK SLP207 T02500119 57033 IEM_DS3505
ZBAA,1998-10-04 07:00,ZBAA 040700Z AUTO 18008KT 4SM 25/11 A3012 RMK SLP199 T02500110 IEM_DS3505
ZBAA,1998-10-04 08:00,ZBAA 040800Z AUTO 19010KT 4SM 26/10 A3012 RMK SLP199 T02600100 IEM_DS3505
ZBAA,1998-10-04 09:00,ZBAA 040900Z AUTO 20006KT 7SM 25/11 A3009 RMK SLP192 T02480114 57015 IEM_DS3505
ZBAA,1998-10-04 10:00,ZBAA 041000Z AUTO 17006KT 7SM 21/12 A3009 RMK SLP189 T02100120 IEM_DS3505
ZBAA,1998-10-04 11:00,ZBAA 041100Z AUTO 15004KT 4SM 21/12 A3009 RMK SLP189 T02100120 IEM_DS3505
ZBAA,1998-10-04 12:00,ZBAA 041200Z AUTO 16004KT 9SM 21/12 A3009 RMK SLP194 T02060121 52002 IEM_DS3505
ZBAA,1998-10-04 14:00,ZBAA 041400Z AUTO 13002KT 3SM 18/13 A3012 RMK SLP201 T01800130 IEM_DS3505
ZBAA,1998-10-04 15:00,ZBAA 041500Z AUTO 18006KT 6SM 19/12 A3012 RMK SLP198 T01930123 52004 IEM_DS3505
ZBAA,1998-10-04 16:00,ZBAA 041600Z AUTO 13002KT 1 1/2SM 17/13 A3012 RMK SLP201 T01700130 IEM_DS3505
ZBAA,1998-10-04 17:00,ZBAA 041700Z AUTO 14004KT 2SM 17/13 A3012 RMK SLP201 T01700130 IEM_DS3505
ZBAA,1998-10-04 18:00,ZBAA 041800Z AUTO 18004KT 6SM 17/13 A3012 RMK SLP195 T01730132 57002 IEM_DS3505
ZBAA,1998-10-04 19:00,ZBAA 041900Z AUTO 07002KT 2SM 15/13 A3009 RMK SLP190 T01500130 IEM_DS3505
ZBAA,1998-10-04 20:00,ZBAA 042000Z AUTO 05002KT 2SM 15/13 A3009 RMK SLP190 T01500130 IEM_DS3505
ZBAA,1998-10-04 21:00,ZBAA 042100Z AUTO 34002KT 6SM 15/13 A3009 RMK SLP191 T01540129 57005 IEM_DS3505
ZBAA,1998-10-04 22:00,ZBAA 042200Z AUTO 10002KT 1 1/4SM 14/13 A3009 RMK SLP190 T01400130 IEM_DS3505
ZBAA,1998-10-04 23:00,ZBAA 042300Z AUTO 09002KT 1 1/4SM 15/13 A3012 RMK SLP201 T01500130 IEM_DS3505
ZBAA,1998-10-05 00:00,ZBAA 050000Z AUTO 00000KT 2 1/2SM 16/14 A3012 RMK SLP194 T01640136 52003 IEM_DS3505
ZBAA,1998-10-05 01:00,ZBAA 050100Z AUTO 05002KT 1 1/2SM 17/14 A3012 RMK SLP201 T01700140 IEM_DS3505
ZBAA,1998-10-05 02:00,ZBAA 050200Z AUTO ////02KT 2SM 19/14 A3012 RMK SLP200 T01900140 IEM_DS3505
ZBAA,1998-10-05 03:00,ZBAA 050300Z AUTO 09004KT 2 1/2SM 19/14 A3009 RMK SLP193 T01860141 57001 IEM_DS3505
ZBAA,1998-10-05 04:00,ZBAA 050400Z AUTO 14002KT 2SM 22/14 A3009 RMK SLP189 T02200140 IEM_DS3505
ZBAA,1998-10-05 05:00,ZBAA 050500Z AUTO 17008KT 2 1/2SM 22/13 A3006 RMK SLP179 T02200130 IEM_DS3505
ZBAA,1998-10-05 06:00,ZBAA 050600Z AUTO 18004KT 6SM 22/13 A3003 RMK SLP171 T02160131 57022 IEM_DS3505
ZBAA,1998-10-05 07:00,ZBAA 050700Z AUTO 14006KT 4SM 22/13 A3003 RMK SLP169 T02200130 IEM_DS3505
ZBAA,1998-10-05 08:00,ZBAA 050800Z AUTO 17004KT 4SM 22/13 A3003 RMK SLP169 T02200130 IEM_DS3505
ZBAA,1998-10-05 09:00,ZBAA 050900Z AUTO 11002KT 5SM 21/13 A3002 RMK SLP167 T02140133 57004 IEM_DS3505
ZBAA,1998-10-05 10:00,ZBAA 051000Z AUTO 00000KT 2 1/2SM RMK IEM_DS3505
ZBAA,1998-10-05 11:00,ZBAA 051100Z AUTO 00000KT 2SM 19/15 A3003 RMK SLP169 T01900150 IEM_DS3505
ZBAA,1998-10-05 12:00,ZBAA 051200Z AUTO 00000KT 3SM 18/15 A3006 RMK SLP175 T01810148 52008 IEM_DS3505
ZBAA,1998-10-05 13:00,ZBAA 051300Z AUTO 00000KT 1 1/2SM 18/15 A3006 RMK SLP179 T01800150 IEM_DS3505
ZBAA,1998-10-05 15:00,ZBAA 051500Z AUTO 00000KT 2SM 16/15 A3006 RMK SLP179 T01630146 52004 IEM_DS3505
ZBAA,1998-10-05 16:00,ZBAA 051600Z AUTO 36002KT 1 1/4SM 17/15 A3006 RMK SLP180 T01700150 IEM_DS3505
ZBAA,1998-10-05 18:00,ZBAA 051800Z AUTO 00000KT 1 1/4SM 17/14 A3012 RMK SLP179 T01670144 54000 IEM_DS3505
ZBAA,1998-10-05 19:00,ZBAA 051900Z AUTO 36002KT 1SM A3006 RMK IEM_DS3505
ZBAA,1998-10-05 21:00,ZBAA 052100Z AUTO 02004KT 1 1/4SM 16/14 A3006 RMK SLP178 T01570139 57001 IEM_DS3505
ZBAA,1998-10-05 22:00,ZBAA 052200Z AUTO 02002KT 1SM 15/14 A3006 RMK SLP180 T01500140 IEM_DS3505
ZBAA,1998-10-05 23:00,ZBAA 052300Z AUTO 00000KT 1SM 15/14 A3009 RMK SLP190 T01500140 IEM_DS3505
ZBAA,1998-10-06 00:00,ZBAA 060000Z AUTO 02004KT 1 1/4SM 17/15 A3009 RMK SLP183 T01690148 52005 IEM_DS3505
ZBAA,1998-10-06 01:00,ZBAA 060100Z AUTO 02002KT 1SM 18/15 A3009 RMK SLP190 T01800150 IEM_DS3505
ZBAA,1998-10-06 02:00,ZBAA 060200Z AUTO 33002KT 1SM 19/15 A3009 RMK SLP189 T01900150 IEM_DS3505
ZBAA,1998-10-06 03:00,ZBAA 060300Z AUTO 04004KT 4SM 20/15 A3009 RMK SLP183 T01990154 54000 IEM_DS3505
ZBAA,1998-10-06 04:00,ZBAA 060400Z AUTO ////02KT 1SM 21/16 A3006 RMK SLP179 T02100160 IEM_DS3505
ZBAA,1998-10-06 05:00,ZBAA 060500Z AUTO 00000KT 1 1/4SM 21/15 A3003 RMK SLP169 T02100150 IEM_DS3505
ZBAA,1998-10-06 06:00,ZBAA 060600Z AUTO 07004KT 2 1/2SM 22/16 A3000 RMK SLP162 T02200157 57021 IEM_DS3505
ZBAA,1998-10-06 07:00,ZBAA 060700Z AUTO ////02KT 1 1/4SM 22/16 A3000 RMK SLP159 T02200160 IEM_DS3505
ZBAA,1998-10-06 08:00,ZBAA 060800Z AUTO 27002KT 1SM 22/16 A3000 RMK SLP159 T02200160 IEM_DS3505
ZBAA,1998-10-06 09:00,ZBAA 060900Z AUTO 00000KT 2 1/2SM 22/16 A3000 RMK SLP159 T02190165 57003 IEM_DS3505
ZBAA,1998-10-06 10:00,ZBAA 061000Z AUTO 36002KT 1SM 21/16 A3000 RMK SLP159 T02100160 IEM_DS3505
ZBAA,1998-10-06 11:00,ZBAA 061100Z AUTO 00000KT 1SM 20/17 A3000 RMK SLP159 T02000170 IEM_DS3505
ZBAA,1998-10-06 12:00,ZBAA 061200Z AUTO 00000KT 2SM 20/17 A3003 RMK 60000 SLP162 T02000172 52003 IEM_DS3505
ZBAA,1998-10-06 13:00,ZBAA 061300Z AUTO 00000KT 1SM 20/17 A3003 RMK SLP169 T02000170 IEM_DS3505
ZBAA,1998-10-06 14:00,ZBAA 061400Z AUTO 00000KT 1SM 19/17 A3003 RMK SLP169 T01900170 IEM_DS3505
ZBAA,1998-10-06 15:00,ZBAA 061500Z AUTO 22004KT 2SM 18/17 A3003 RMK SLP168 T01830170 52006 IEM_DS3505
ZBAA,1998-10-06 16:00,ZBAA 061600Z AUTO 20002KT 1SM 19/17 A3003 RMK SLP169 T01900170 IEM_DS3505
ZBAA,1998-10-06 17:00,ZBAA 061700Z AUTO 19006KT 1SM 19/16 A3003 RMK SLP169 T01900160 IEM_DS3505
ZBAA,1998-10-06 18:00,ZBAA 061800Z AUTO 00000KT 6SM 17/17 A3003 RMK 60028 SLP164 T01730168 57003 IEM_DS3505
ZBAA,1998-10-06 19:00,ZBAA 061900Z AUTO 12004KT 1 1/4SM 17/16 A3000 RMK SLP160 T01700160 IEM_DS3505
ZBAA,1998-10-06 20:00,ZBAA 062000Z AUTO 35004KT 1SM 17/16 A3000 RMK SLP160 T01700160 IEM_DS3505
ZBAA,1998-10-06 21:00,ZBAA 062100Z AUTO 36004KT 5SM 17/16 A3000 RMK 70031 SLP160 T01710164 57004 IEM_DS3505
ZBAA,1998-10-06 22:00,ZBAA 062200Z AUTO 11002KT 1/2SM 18/17 A3000 RMK SLP159 T01800170 IEM_DS3505
ZBAA,1998-10-06 23:00,ZBAA 062300Z AUTO 14002KT 1/2SM 18/18 A3000 RMK SLP159 T01800180 IEM_DS3505
ZBAA,1998-10-07 00:00,ZBAA 070000Z AUTO 34002KT 1SM 18/17 A3000 RMK 70031 SLP162 T01770169 52001 IEM_DS3505
ZBAA,1998-10-07 01:00,ZBAA 070100Z AUTO 00000KT 1SM 19/18 A3003 RMK SLP169 T01900180 IEM_DS3505
ZBAA,1998-10-07 02:00,ZBAA 070200Z AUTO 13002KT 1SM 20/17 A3000 RMK SLP159 T02000170 IEM_DS3505
ZBAA,1998-10-07 03:00,ZBAA 070300Z AUTO 07004KT 1 1/4SM 20/17 A3000 RMK SLP155 T02010172 57007 IEM_DS3505
ZBAA,1998-10-07 04:00,ZBAA 070400Z AUTO ////02KT 2SM 22/17 A2997 RMK SLP148 T02200170 IEM_DS3505
ZBAA,1998-10-07 05:00,ZBAA 070500Z AUTO 18002KT 2SM 23/16 A2994 RMK SLP138 T02300160 IEM_DS3505
ZBAA,1998-10-07 06:00,ZBAA 070600Z AUTO 14002KT 2 1/2SM 23/17 A2991 RMK SLP130 T02290171 57024 IEM_DS3505
ZBAA,1998-10-07 07:00,ZBAA 070700Z AUTO 15002KT 2SM 24/16 A2991 RMK SLP128 T02400160 IEM_DS3505
ZBAA,1998-10-07 08:00,ZBAA 070800Z AUTO 18004KT 2SM 23/17 A2988 RMK SLP118 T02300170 IEM_DS3505
ZBAA,1998-10-07 09:00,ZBAA 070900Z AUTO 00000KT 2 1/2SM 23/18 A2988 RMK SLP117 T02300183 57013 IEM_DS3505
ZBAA,1998-10-07 10:00,ZBAA 071000Z AUTO 21002KT 1 1/4SM 21/18 A2988 RMK SLP118 T02100180 IEM_DS3505
ZBAA,1998-10-07 12:00,ZBAA 071200Z AUTO 00000KT 1SM 19/18 A2991 RMK SLP129 T01940181 52012 IEM_DS3505
ZBAA,1998-10-07 14:00,ZBAA 071400Z AUTO 01002KT 1SM 19/18 A2994 RMK SLP139 T01900180 IEM_DS3505
ZBAA,1998-10-07 15:00,ZBAA 071500Z AUTO 00000KT 1SM 18/17 A2994 RMK SLP136 T01820174 52007 IEM_DS3505
ZBAA,1998-10-07 16:00,ZBAA 071600Z AUTO 00000KT 1SM 18/17 A2994 RMK SLP139 T01800170 IEM_DS3505
ZBAA,1998-10-07 17:00,ZBAA 071700Z AUTO 35002KT 1SM 18/17 A2994 RMK SLP139 T01800170 IEM_DS3505
ZBAA,1998-10-07 18:00,ZBAA 071800Z AUTO 02004KT 1SM 18/17 A2994 RMK SLP138 T01800170 52002 IEM_DS3505
ZBAA,1998-10-07 19:00,ZBAA 071900Z AUTO 33002KT 1SM 18/17 A2994 RMK SLP139 T01800170 IEM_DS3505
ZBAA,1998-10-07 20:00,ZBAA 072000Z AUTO 34004KT 1SM 18/17 A2994 RMK SLP139 T01800170 IEM_DS3505
ZBAA,1998-10-07 21:00,ZBAA 072100Z AUTO 02004KT 1SM 17/16 A2997 RMK SLP143 T01720164 52005 IEM_DS3505
ZBAA,1998-10-07 22:00,ZBAA 072200Z AUTO 36004KT 1SM 17/16 A2997 RMK SLP149 T01700160 IEM_DS3505
ZBAA,1998-10-07 23:00,ZBAA 072300Z AUTO 01004KT 1SM 18/16 A3000 RMK SLP159 T01800160 IEM_DS3505
ZBAA,1998-10-08 00:00,ZBAA 080000Z AUTO 04004KT 1SM 18/17 A3003 RMK SLP164 T01830166 52020 IEM_DS3505
ZBAA,1998-10-08 01:00,ZBAA 080100Z AUTO 01002KT 1SM 18/17 A3006 RMK SLP179 T01800170 IEM_DS3505
ZBAA,1998-10-08 03:00,ZBAA 080300Z AUTO 07008KT 2SM 21/16 A3006 RMK SLP175 T02070157 52011 IEM_DS3505
ZBAA,1998-10-08 04:00,ZBAA 080400Z AUTO 00000KT 1 1/2SM 24/16 A3006 RMK SLP178 T02400160 IEM_DS3505
ZBAA,1998-10-08 05:00,ZBAA 080500Z AUTO 00000KT 3SM 24/15 A3003 RMK SLP168 T02400150 IEM_DS3505
ZBAA,1998-10-08 06:00,ZBAA 080600Z AUTO 11008KT 3SM 23/14 A3003 RMK SLP169 T02290139 57005 IEM_DS3505
ZBAA,1998-10-08 08:00,ZBAA 080800Z AUTO 15006KT 2 1/2SM 23/14 A3003 RMK SLP168 T02300140 IEM_DS3505
ZBAA,1998-10-08 09:00,ZBAA 080900Z AUTO 00000KT 3SM 22/17 A3003 RMK SLP168 T02160171 57002 IEM_DS3505
ZBAA,1998-10-08 10:00,ZBAA 081000Z AUTO 13002KT 3SM 22/13 A3003 RMK SLP169 T02200130 IEM_DS3505
ZBAA,1998-10-08 11:00,ZBAA 081100Z AUTO 00000KT 2 1/2SM 21/13 A3006 RMK SLP179 T02100130 IEM_DS3505
ZBAA,1998-10-08 12:00,ZBAA 081200Z AUTO 00000KT 5SM 19/14 A3013 RMK SLP182 T01940142 52014 IEM_DS3505
ZBAA,1998-10-08 13:00,ZBAA 081300Z AUTO 17002KT 3SM 20/14 A3009 RMK SLP189 T02000140 IEM_DS3505
ZBAA,1998-10-08 14:00,ZBAA 081400Z AUTO 17004KT 4SM 19/13 A3009 RMK SLP189 T01900130 IEM_DS3505
ZBAA,1998-10-08 15:00,ZBAA 081500Z AUTO 00000KT 6SM 19/14 A3012 RMK SLP191 T01870140 52009 IEM_DS3505
ZBAA,1998-10-08 16:00,ZBAA 081600Z AUTO 10002KT 5SM 18/14 A3009 RMK SLP190 T01800140 IEM_DS3505
ZBAA,1998-10-08 17:00,ZBAA 081700Z AUTO 09002KT 5SM 18/13 A3009 RMK SLP190 T01800130 IEM_DS3505
ZBAA,1998-10-08 18:00,ZBAA 081800Z AUTO 07004KT 6SM 18/14 A3009 RMK SLP189 T01770144 57001 IEM_DS3505
ZBAA,1998-10-08 19:00,ZBAA 081900Z AUTO 00000KT 7SM 17/12 A3009 RMK SLP190 T01700120 IEM_DS3505
ZBAA,1998-10-08 20:00,ZBAA 082000Z AUTO 00000KT 7SM 18/13 A3009 RMK SLP190 T01800130 IEM_DS3505
ZBAA,1998-10-08 21:00,ZBAA 082100Z AUTO 07004KT 6SM 18/13 A3009 RMK SLP187 T01750127 57003 IEM_DS3505
ZBAA,1998-10-08 22:00,ZBAA 082200Z AUTO 08002KT 7SM 18/12 A3009 RMK SLP190 T01800120 IEM_DS3505
ZBAA,1998-10-08 23:00,ZBAA 082300Z AUTO 00000KT 7SM 18/12 A3009 RMK SLP190 T01800120 IEM_DS3505
ZBAA,1998-10-09 00:00,ZBAA 090000Z AUTO 09002KT 7SM 17/12 A3009 RMK SLP187 T01730122 54000 IEM_DS3505
ZBAA,1998-10-09 01:00,ZBAA 090100Z AUTO 00000KT 7SM 19/11 A3012 RMK SLP200 T01900110 IEM_DS3505
ZBAA,1998-10-09 02:00,ZBAA 090200Z AUTO 10002KT 7SM 19/11 A3012 RMK SLP200 T01900110 IEM_DS3505
ZBAA,1998-10-09 03:00,ZBAA 090300Z AUTO 07004KT 6SM 18/12 A3009 RMK SLP191 T01770121 52004 IEM_DS3505
ZBAA,1998-10-09 04:00,ZBAA 090400Z AUTO 14002KT 7SM 19/12 A3009 RMK SLP189 T01900120 IEM_DS3505
ZBAA,1998-10-09 06:00,ZBAA 090600Z AUTO 09004KT 6SM 20/12 A3003 RMK SLP168 T01970124 57023 IEM_DS3505
ZBAA,1998-10-09 07:00,ZBAA 090700Z AUTO ////02KT 7SM 21/12 A3000 RMK SLP159 T02100120 IEM_DS3505
ZBAA,1998-10-09 08:00,ZBAA 090800Z AUTO 14004KT 7SM 21/13 A3000 RMK SLP159 T02100130 IEM_DS3505
ZBAA,1998-10-09 09:00,ZBAA 090900Z AUTO 07004KT 6SM 20/14 A3000 RMK SLP161 T01960137 57007 IEM_DS3505
ZBAA,1998-10-09 10:00,ZBAA 091000Z AUTO 00000KT 5SM 19/13 A3000 RMK SLP159 T01900130 IEM_DS3505
ZBAA,1998-10-09 11:00,ZBAA 091100Z AUTO 00000KT 5SM 18/13 A3003 RMK SLP169 T01800130 IEM_DS3505
ZBAA,1998-10-09 12:00,ZBAA 091200Z AUTO 00000KT 6SM 18/14 A3003 RMK SLP169 T01750136 52008 IEM_DS3505
ZBAA,1998-10-09 13:00,ZBAA 091300Z AUTO 00000KT 5SM 17/14 A3006 RMK SLP180 T01700140 IEM_DS3505
ZBAA,1998-10-09 14:00,ZBAA 091400Z AUTO 03002KT 5SM 17/14 A3006 RMK SLP180 T01700140 IEM_DS3505
ZBAA,1998-10-09 15:00,ZBAA 091500Z AUTO 00000KT 6SM 16/14 A3006 RMK SLP175 T01580140 52006 IEM_DS3505
ZBAA,1998-10-09 16:00,ZBAA 091600Z AUTO 01002KT 4SM 16/14 A3006 RMK SLP180 T01600140 IEM_DS3505
ZBAA,1998-10-09 17:00,ZBAA 091700Z AUTO 35002KT 4SM 16/14 A3006 RMK SLP180 T01600140 IEM_DS3505
ZBAA,1998-10-09 18:00,ZBAA 091800Z AUTO 00000KT 4SM 16/14 A3006 RMK SLP180 T01550139 52005 IEM_DS3505
ZBAA,1998-10-09 19:00,ZBAA 091900Z AUTO 32002KT 2 1/2SM 15/14 A3009 RMK SLP190 T01500140 IEM_DS3505
ZBAA,1998-10-09 20:00,ZBAA 092000Z AUTO 01002KT 2 1/2SM 15/14 A3009 RMK SLP190 T01500140 IEM_DS3505
ZBAA,1998-10-09 21:00,ZBAA 092100Z AUTO 02004KT 2SM 16/14 A3009 RMK SLP188 T01550135 52008 IEM_DS3505
ZBAA,1998-10-09 22:00,ZBAA 092200Z AUTO 36002KT 2 1/2SM 15/14 A3012 RMK SLP201 T01500140 IEM_DS3505
ZBAA,1998-10-09 23:00,ZBAA 092300Z AUTO 36002KT 2SM 15/14 A3012 RMK SLP201 T01500140 IEM_DS3505
ZBAA,1998-10-10 00:00,ZBAA 100000Z AUTO 02002KT 2SM 17/14 A3015 RMK SLP204 T01670141 52016 IEM_DS3505
ZBAA,1998-10-10 01:00,ZBAA 100100Z AUTO 01002KT 1 1/2SM 17/15 A3018 RMK SLP221 T01700150 IEM_DS3505
ZBAA,1998-10-10 02:00,ZBAA 100200Z AUTO ////02KT 2SM 19/15 A3018 RMK SLP220 T01900150 IEM_DS3505
ZBAA,1998-10-10 03:00,ZBAA 100300Z AUTO 04004KT 2 1/2SM 19/15 A3018 RMK SLP209 T01900147 52005 IEM_DS3505
ZBAA,1998-10-10 04:00,ZBAA 100400Z AUTO 08002KT 2 1/2SM 21/15 A3015 RMK SLP210 T02100150 IEM_DS3505
ZBAA,1998-10-10 05:00,ZBAA 100500Z AUTO 14002KT 2 1/2SM 21/16 A3015 RMK SLP210 T02100160 IEM_DS3505
ZBAA,1998-10-10 06:00,ZBAA 100600Z AUTO 09004KT 2 1/2SM 21/16 A3012 RMK SLP201 T02080162 57008 IEM_DS3505
ZBAA,1998-10-10 07:00,ZBAA 100700Z AUTO 11004KT 2SM 22/16 A3012 RMK SLP200 T02200160 IEM_DS3505
ZBAA,1998-10-10 08:00,ZBAA 100800Z AUTO 11002KT 1 1/2SM 22/16 A3012 RMK SLP200 T02200160 IEM_DS3505
ZBAA,1998-10-10 09:00,ZBAA 100900Z AUTO 02002KT 2SM 22/17 A3012 RMK SLP195 T02150173 57006 IEM_DS3505
ZBAA,1998-10-10 10:00,ZBAA 101000Z AUTO 12002KT 1 1/4SM 21/17 A3012 RMK SLP200 T02100170 IEM_DS3505
ZBAA,1998-10-10 11:00,ZBAA 101100Z AUTO 10002KT 1 1/4SM 21/17 A3012 RMK SLP200 T02100170 IEM_DS3505
ZBAA,1998-10-10 12:00,ZBAA 101200Z AUTO 14002KT 2 1/2SM 20/18 A3015 RMK SLP203 T02000177 52008 IEM_DS3505
ZBAA,1998-10-10 13:00,ZBAA 101300Z AUTO 11004KT 1 1/4SM 20/17 A3015 RMK SLP210 T02000170 IEM_DS3505
ZBAA,1998-10-10 14:00,ZBAA 101400Z AUTO 10004KT 1 1/4SM 19/16 A3015 RMK SLP210 T01900160 IEM_DS3505
ZBAA,1998-10-10 15:00,ZBAA 101500Z AUTO 09002KT 2SM 18/17 A3018 RMK SLP209 T01830171 52006 IEM_DS3505
ZBAA,1998-10-10 16:00,ZBAA 101600Z AUTO 00000KT 1SM 18/17 A3018 RMK SLP221 T01800170 IEM_DS3505
ZBAA,1998-10-10 17:00,ZBAA 101700Z AUTO 36002KT 1SM 17/16 A3018 RMK SLP221 T01700160 IEM_DS3505
ZBAA,1998-10-10 18:00,ZBAA 101800Z AUTO 04002KT 2SM 18/17 A3018 RMK SLP210 T01790167 40217//// 52001 IEM_DS3505
ZBAA,1998-10-10 19:00,ZBAA 101900Z AUTO 00000KT 1SM 18/17 A3018 RMK SLP221 T01800170 IEM_DS3505
ZBAA,1998-10-10 20:00,ZBAA 102000Z AUTO 00000KT 1SM 18/17 A3015 RMK SLP211 T01800170 IEM_DS3505
ZBAA,1998-10-10 21:00,ZBAA 102100Z AUTO 07004KT 2SM 18/17 A3018 RMK SLP210 T01790166 54000 IEM_DS3505
ZBAA,1998-10-10 22:00,ZBAA 102200Z AUTO 01002KT 1SM 18/17 A3018 RMK SLP221 T01800170 IEM_DS3505
ZBAA,1998-10-10 23:00,ZBAA 102300Z AUTO 20006KT 1 1/4SM 16/16 A3021 RMK SLP231 T01600160 IEM_DS3505
ZBAA,1998-10-11 00:00,ZBAA 110000Z AUTO 07004KT 3SM 17/15 A3021 RMK 60047 70043 SLP218 T01680153 52008 IEM_DS3505
ZBAA,1998-10-11 01:00,ZBAA 110100Z AUTO 09006KT 2SM 17/15 A3021 RMK SLP231 T01700150 IEM_DS3505
ZBAA,1998-10-11 02:00,ZBAA 110200Z AUTO 00000KT RMK IEM_DS3505
ZBAA,1998-10-11 03:00,ZBAA 110300Z AUTO 04004KT 2 1/2SM 20/16 A3021 RMK SLP227 T01950155 52009 IEM_DS3505
ZBAA,1998-10-11 04:00,ZBAA 110400Z AUTO ////02KT 2 1/2SM 21/16 A3021 RMK SLP230 T02100160 IEM_DS3505
ZBAA,1998-10-11 05:00,ZBAA 110500Z AUTO 13004KT 2 1/2SM 21/16 A3018 RMK SLP220 T02100160 IEM_DS3505
ZBAA,1998-10-11 06:00,ZBAA 110600Z AUTO 20006KT 5SM 21/16 A3018 RMK SLP221 T02100157 57006 IEM_DS3505
ZBAA,1998-10-11 07:00,ZBAA 110700Z AUTO 24004G14KT 4SM 21/15 A3018 RMK SLP220 T02100150 IEM_DS3505
ZBAA,1998-10-11 08:00,ZBAA 110800Z AUTO 27006KT 4SM 21/15 A3018 RMK SLP220 T02100150 IEM_DS3505
ZBAA,1998-10-11 09:00,ZBAA 110900Z AUTO 00000KT 2SM 19/16 A3018 RMK SLP217 T01880163 57004 IEM_DS3505
ZBAA,1998-10-11 10:00,ZBAA 111000Z AUTO 31004KT 2SM 20/16 A3018 RMK SLP220 T02000160 IEM_DS3505
ZBAA,1998-10-11 11:00,ZBAA 111100Z AUTO 08002KT 2SM 19/17 A3018 RMK SLP220 T01900170 IEM_DS3505
ZBAA,1998-10-11 12:00,ZBAA 111200Z AUTO 36004KT 4SM 18/16 A3018 RMK 60004 SLP213 T01800165 57004 IEM_DS3505
ZBAA,1998-10-11 13:00,ZBAA 111300Z AUTO 35004KT 2SM 18/16 A3018 RMK SLP221 T01800160 IEM_DS3505
ZBAA,1998-10-11 14:00,ZBAA 111400Z AUTO 31006KT 2SM 18/15 A3021 RMK SLP231 T01800150 IEM_DS3505
ZBAA,1998-10-11 15:00,ZBAA 111500Z AUTO 29004KT 2 1/2SM 18/17 A3021 RMK SLP228 T01780168 52015 IEM_DS3505
ZBAA,1998-10-11 16:00,ZBAA 111600Z AUTO 30002KT 2SM 18/16 A3021 RMK SLP231 T01800160 IEM_DS3505
ZBAA,1998-10-11 17:00,ZBAA 111700Z AUTO 31004KT 2SM 18/15 A3021 RMK SLP231 T01800150 IEM_DS3505
ZBAA,1998-10-11 18:00,ZBAA 111800Z AUTO 25006KT 2SM 18/16 A3021 RMK SLP232 T01780159 52004 IEM_DS3505
ZBAA,1998-10-11 19:00,ZBAA 111900Z AUTO 23004KT 1 1/2SM 17/16 A3021 RMK SLP231 T01700160 IEM_DS3505
ZBAA,1998-10-11 21:00,ZBAA 112100Z AUTO 00000KT 1SM 17/16 A3020 RMK 70051 SLP229 T01670162 57003 IEM_DS3505
ZBAA,1998-10-11 22:00,ZBAA 112200Z AUTO 34004KT 2SM 17/16 A3021 RMK SLP231 T01700160 IEM_DS3505
ZBAA,1998-10-11 23:00,ZBAA 112300Z AUTO 33004KT 1 1/4SM 17/16 A3024 RMK SLP241 T01700160 IEM_DS3505
ZBAA,1998-10-12 00:00,ZBAA 120000Z AUTO 00000KT 1 1/4SM 17/16 A3024 RMK 60004 70008 SLP236 T01730161 52007 IEM_DS3505
ZBAA,1998-10-12 01:00,ZBAA 120100Z AUTO 32006KT 2SM 19/16 A3027 RMK SLP251 T01900160 IEM_DS3505
ZBAA,1998-10-12 02:00,ZBAA 120200Z AUTO 01004KT 2SM 19/17 A3024 RMK SLP241 T01900170 IEM_DS3505
ZBAA,1998-10-12 03:00,ZBAA 120300Z AUTO 34002KT 2SM 20/17 A3024 RMK SLP241 T02000167 52005 IEM_DS3505
ZBAA,1998-10-12 04:00,ZBAA 120400Z AUTO 32004KT 2SM 21/16 A3024 RMK SLP240 T02100160 IEM_DS3505
ZBAA,1998-10-12 05:00,ZBAA 120500Z AUTO ////02KT 2SM 23/17 A3021 RMK SLP230 T02300170 IEM_DS3505
ZBAA,1998-10-12 06:00,ZBAA 120600Z AUTO 09004KT 2 1/2SM 22/17 A3023 RMK SLP215 T02250173 57026 IEM_DS3505
ZBAA,1998-10-12 07:00,ZBAA 120700Z AUTO 00000KT 2SM 24/18 A3015 RMK SLP209 T02400180 IEM_DS3505
ZBAA,1998-10-12 08:00,ZBAA 120800Z AUTO 15002KT 2SM 23/18 A3015 RMK SLP210 T02300180 IEM_DS3505
ZBAA,1998-10-12 09:00,ZBAA 120900Z AUTO 25004KT 2SM 22/18 A3014 RMK SLP207 T02240179 57008 IEM_DS3505
ZBAA,1998-10-12 10:00,ZBAA 121000Z AUTO 24002KT 1 1/4SM 22/18 A3015 RMK SLP210 T02200180 IEM_DS3505
ZBAA,1998-10-12 11:00,ZBAA 121100Z AUTO 00000KT 1 1/4SM 20/18 A3018 RMK SLP220 T02000180 IEM_DS3505
ZBAA,1998-10-12 12:00,ZBAA 121200Z AUTO 00000KT 6SM 20/17 A3018 RMK SLP212 T01970173 52005 IEM_DS3505
ZBAA,1998-10-12 13:00,ZBAA 121300Z AUTO 00000KT 1SM 19/18 A3018 RMK SLP220 T01900180 IEM_DS3505
ZBAA,1998-10-12 14:00,ZBAA 121400Z AUTO 10002KT 1SM 19/18 A3018 RMK SLP220 T01900180 IEM_DS3505
ZBAA,1998-10-12 15:00,ZBAA 121500Z AUTO 00000KT 1SM 18/17 A3018 RMK SLP217 T01830171 52005 IEM_DS3505
ZBAA,1998-10-12 16:00,ZBAA 121600Z AUTO 00000KT 1SM 19/18 A3018 RMK SLP220 T01900180 IEM_DS3505
ZBAA,1998-10-12 17:00,ZBAA 121700Z AUTO 08002KT 1/2SM 18/18 A3015 RMK SLP211 T01800180 IEM_DS3505
ZBAA,1998-10-12 18:00,ZBAA 121800Z AUTO 00000KT 1 1/4SM 18/17 A3015 RMK SLP207 T01750167 57010 IEM_DS3505
ZBAA,1998-10-12 19:00,ZBAA 121900Z AUTO 00000KT 1/2SM 18/18 A3015 RMK SLP211 T01800180 IEM_DS3505
ZBAA,1998-10-12 20:00,ZBAA 122000Z AUTO 13002KT 1/2SM 18/18 A3015 RMK SLP211 T01800180 IEM_DS3505
ZBAA,1998-10-12 21:00,ZBAA 122100Z AUTO 00000KT 1 1/4SM 18/17 A3012 RMK SLP202 T01750168 57005 IEM_DS3505
ZBAA,1998-10-12 22:00,ZBAA 122200Z AUTO 12004KT 1/4SM 17/17 A3012 RMK SLP201 T01700170 IEM_DS3505
ZBAA,1998-10-12 23:00,ZBAA 122300Z AUTO 14004KT 3/8SM 17/17 A3012 RMK SLP201 T01700170 IEM_DS3505
ZBAA,1998-10-13 00:00,ZBAA 130000Z AUTO 00000KT 1 1/4SM 17/16 A3018 RMK SLP199 T01720165 57003 IEM_DS3505
ZBAA,1998-10-13 02:00,ZBAA 130200Z AUTO 15002KT 1SM 18/18 A3012 RMK SLP201 T01800180 IEM_DS3505
ZBAA,1998-10-13 03:00,ZBAA 130300Z AUTO 22004KT 2SM 18/17 A3009 RMK SLP193 T01830171 57006 IEM_DS3505
ZBAA,1998-10-13 04:00,ZBAA 130400Z AUTO 10002KT 1/2SM 18/18 A3006 RMK SLP179 T01800180 IEM_DS3505
ZBAA,1998-10-13 05:00,ZBAA 130500Z AUTO 09004KT 1SM 19/18 A3006 RMK SLP179 T01900180 IEM_DS3505
ZBAA,1998-10-13 06:00,ZBAA 130600Z AUTO 27004KT 1 1/4SM 19/17 A3003 RMK 60000 SLP171 T01900169 57022 IEM_DS3505
ZBAA,1998-10-13 07:00,ZBAA 130700Z AUTO 32014KT 7SM 16/13 A3003 RMK SLP170 T01600130 IEM_DS3505
ZBAA,1998-10-13 08:00,ZBAA 130800Z AUTO 32010KT 7SM 16/12 A3000 RMK SLP160 T01600120 IEM_DS3505
ZBAA,1998-10-13 09:00,ZBAA 130900Z AUTO 27004KT 5SM 16/11 A3002 RMK SLP166 T01620110 57005 IEM_DS3505
ZBAA,1998-10-13 10:00,ZBAA 131000Z AUTO 32012G21KT 7SM 16/11 A3003 RMK SLP170 T01600110 IEM_DS3505
ZBAA,1998-10-13 11:00,ZBAA 131100Z AUTO 36010KT 7SM 13/10 A3003 RMK SLP170 T01300100 IEM_DS3505
ZBAA,1998-10-13 12:00,ZBAA 131200Z AUTO 04006KT 7SM 13/11 A3003 RMK 60031 SLP168 T01330112 52002 IEM_DS3505
ZBAA,1998-10-13 13:00,ZBAA 131300Z AUTO 36006KT 7SM 13/10 A3000 RMK SLP160 T01300100 IEM_DS3505
ZBAA,1998-10-13 14:00,ZBAA 131400Z AUTO 02008KT 6SM 13/10 A3000 RMK SLP160 T01300100 IEM_DS3505
ZBAA,1998-10-13 15:00,ZBAA 131500Z AUTO 34004KT 11SM 13/09 A3003 RMK SLP164 T01300088 57004 IEM_DS3505
ZBAA,1998-10-13 17:00,ZBAA 131700Z AUTO 30008KT 7SM 12/06 A3000 RMK SLP161 T01200060 IEM_DS3505
ZBAA,1998-10-13 18:00,ZBAA 131800Z AUTO 34006KT 12SM 13/02 A3005 RMK 60002 SLP156 T01330017 57008 IEM_DS3505
ZBAA,1998-10-13 20:00,ZBAA 132000Z AUTO 24004KT 7SM 11/04 A2994 RMK SLP141 T01100040 IEM_DS3505
ZBAA,1998-10-13 21:00,ZBAA 132100Z AUTO 29008KT 12SM 12/01 A2994 RMK 70031 SLP145 T01200014 57011 IEM_DS3505
ZBAA,1998-10-13 22:00,ZBAA 132200Z AUTO 28004KT 7SM 12/02 A2994 RMK SLP140 T01200020 IEM_DS3505
ZBAA,1998-10-13 23:00,ZBAA 132300Z AUTO 30010KT 7SM 13/01 A2991 RMK SLP130 T01300010 IEM_DS3505
ZBAA,1998-10-14 00:00,ZBAA 140000Z AUTO 25004KT 9SM 11/05 A2991 RMK 70031 SLP134 T01110050 57011 IEM_DS3505
ZBAA,1998-10-14 01:00,ZBAA 140100Z AUTO 22006KT 7SM 14/02 A2991 RMK SLP130 T01400020 IEM_DS3505
ZBAA,1998-10-14 02:00,ZBAA 140200Z AUTO 23008KT 7SM 16/02 A2988 RMK SLP120 T01600020 IEM_DS3505
ZBAA,1998-10-14 03:00,ZBAA 140300Z AUTO 22008G23KT 9SM 17/03 A2988 RMK SLP118 T01670030 57016 IEM_DS3505
ZBAA,1998-10-14 04:00,ZBAA 140400Z AUTO 28014G23KT 7SM 18/M02 A2985 RMK SLP109 T01801020 IEM_DS3505
ZBAA,1998-10-14 05:00,ZBAA 140500Z AUTO 30016G29KT 7SM 19/M01 A2983 RMK SLP102 T01901010 IEM_DS3505
ZBAA,1998-10-14 06:00,ZBAA 140600Z AUTO 25008G27KT 12SM 20/00 A2980 RMK SLP093 T01950005 57025 IEM_DS3505
ZBAA,1998-10-14 07:00,ZBAA 140700Z AUTO 30017G27KT 7SM 19/M04 A2980 RMK SLP092 T01901040 IEM_DS3505
ZBAA,1998-10-14 08:00,ZBAA 140800Z AUTO 31021KT 7SM 19/M06 A2977 RMK SLP082 T01901060 IEM_DS3505
ZBAA,1998-10-14 09:00,ZBAA 140900Z AUTO 22006KT 12SM 18/03 A2980 RMK SLP086 T01800032 57007 IEM_DS3505
ZBAA,1998-10-14 10:00,ZBAA 141000Z AUTO 29008KT 7SM 17/M04 A2980 RMK SLP092 T01701040 IEM_DS3505
ZBAA,1998-10-14 11:00,ZBAA 141100Z AUTO 28002KT 7SM 17/M04 A2983 RMK SLP102 T01701040 IEM_DS3505
ZBAA,1998-10-14 12:00,ZBAA 141200Z AUTO 00000KT 12SM 13/ A2983 RMK SLP095 52009 IEM_DS3505
ZBAA,1998-10-14 13:00,ZBAA 141300Z AUTO 25002KT 7SM 15/M03 A2983 RMK SLP103 T01501030 IEM_DS3505
ZBAA,1998-10-14 15:00,ZBAA 141500Z AUTO 00000KT 12SM 10/08 A2983 RMK SLP100 T01050076 52005 IEM_DS3505
ZBAA,1998-10-14 17:00,ZBAA 141700Z AUTO 28010KT 7SM 15/M05 A2983 RMK SLP103 T01501050 IEM_DS3505
ZBAA,1998-10-14 18:00,ZBAA 141800Z AUTO 00000KT 12SM 12/02 A2983 RMK SLP106 T01190019 52006 IEM_DS3505
ZBAA,1998-10-14 19:00,ZBAA 141900Z AUTO 26006KT 7SM 14/M04 A2983 RMK SLP103 T01401040 IEM_DS3505
ZBAA,1998-10-14 20:00,ZBAA 142000Z AUTO 27008KT 7SM 14/M05 A2983 RMK SLP103 T01401050 IEM_DS3505
ZBAA,1998-10-14 21:00,ZBAA 142100Z AUTO 25006KT 12SM 10/01 A2983 RMK SLP105 T01040013 57001 IEM_DS3505
ZBAA,1998-10-14 22:00,ZBAA 142200Z AUTO 29008KT 7SM 13/M03 A2985 RMK SLP110 T01301030 IEM_DS3505
ZBAA,1998-10-15 00:00,ZBAA 150000Z AUTO 22004KT 7SM 12/05 A2988 RMK SLP114 T01240051 52009 IEM_DS3505
ZBAA,1998-10-15 01:00,ZBAA 150100Z AUTO 27004KT 7SM 17/M03 A2988 RMK SLP119 T01701030 IEM_DS3505
ZBAA,1998-10-15 02:00,ZBAA 150200Z AUTO 28008KT 7SM 19/M04 A2988 RMK SLP119 T01901040 IEM_DS3505
ZBAA,1998-10-15 03:00,ZBAA 150300Z AUTO 22006KT 16SM 19/02 A2988 RMK SLP122 T01920020 52008 IEM_DS3505
ZBAA,1998-10-15 04:00,ZBAA 150400Z AUTO 31014KT 7SM 22/M06 A2988 RMK SLP118 T02201060 IEM_DS3505
ZBAA,1998-10-15 05:00,ZBAA 150500Z AUTO 30014KT 7SM 22/M06 A2985 RMK SLP108 T02201060 IEM_DS3505
ZBAA,1998-10-15 06:00,ZBAA 150600Z AUTO 20012KT 19SM 22/M00 A2983 RMK SLP106 T02181002 57016 IEM_DS3505
ZBAA,1998-10-15 08:00,ZBAA 150800Z AUTO 28008KT 7SM 23/M05 A2983 RMK SLP101 T02301050 IEM_DS3505
ZBAA,1998-10-15 09:00,ZBAA 150900Z AUTO 22006KT 19SM 20/04 A2985 RMK SLP106 T02030039 54000 IEM_DS3505
ZBAA,1998-10-15 10:00,ZBAA 151000Z AUTO 22008KT 7SM 19/02 A2985 RMK SLP109 T01900020 IEM_DS3505
ZBAA,1998-10-15 11:00,ZBAA 151100Z AUTO 22004KT 7SM 18/03 A2988 RMK SLP119 T01800030 IEM_DS3505
ZBAA,1998-10-15 12:00,ZBAA 151200Z AUTO 22006KT 12SM 16/04 A2996 RMK SLP125 T01590038 52019 IEM_DS3505
ZBAA,1998-10-15 13:00,ZBAA 151300Z AUTO 08004KT 7SM 15/05 A2991 RMK SLP130 T01500050 IEM_DS3505
ZBAA,1998-10-15 14:00,ZBAA 151400Z AUTO 00000KT 7SM 13/06 A2994 RMK SLP140 T01300060 IEM_DS3505
ZBAA,1998-10-15 15:00,ZBAA 151500Z AUTO 20004KT 7SM 14/04 A2994 RMK SLP138 T01420039 52013 IEM_DS3505
ZBAA,1998-10-15 16:00,ZBAA 151600Z AUTO 00000KT 7SM 10/07 A2997 RMK SLP151 T01000070 IEM_DS3505
ZBAA,1998-10-15 17:00,ZBAA 151700Z AUTO 01002KT 7SM 11/07 A2997 RMK SLP151 T01100070 IEM_DS3505
ZBAA,1998-10-15 18:00,ZBAA 151800Z AUTO 27002KT 7SM 11/07 A2997 RMK SLP148 T01060066 52010 IEM_DS3505
ZBAA,1998-10-15 19:00,ZBAA 151900Z AUTO 00000KT 7SM 09/07 A2997 RMK SLP151 T00900070 IEM_DS3505
ZBAA,1998-10-15 20:00,ZBAA 152000Z AUTO 34004KT 7SM 10/06 A2997 RMK SLP151 T01000060 IEM_DS3505
ZBAA,1998-10-15 21:00,ZBAA 152100Z AUTO 04002KT 6SM 10/06 A2997 RMK SLP147 T00990062 57001 IEM_DS3505
ZBAA,1998-10-15 22:00,ZBAA 152200Z AUTO 36002KT 7SM 08/06 A2997 RMK SLP151 T00800060 IEM_DS3505
ZBAA,1998-10-15 23:00,ZBAA 152300Z AUTO 35004KT 7SM 08/06 A2997 RMK SLP151 T00800060 IEM_DS3505
ZBAA,1998-10-16 00:00,ZBAA 160000Z AUTO 00000KT 4SM 10/07 A3000 RMK SLP156 T01040070 52009 IEM_DS3505
ZBAA,1998-10-16 01:00,ZBAA 160100Z AUTO 33004KT 7SM 14/07 A3000 RMK SLP160 T01400070 IEM_DS3505
ZBAA,1998-10-16 02:00,ZBAA 160200Z AUTO 04002KT 7SM 16/06 A3000 RMK SLP160 T01600060 IEM_DS3505
ZBAA,1998-10-16 03:00,ZBAA 160300Z AUTO 14004KT 4SM 17/08 A3000 RMK SLP155 T01710083 57001 IEM_DS3505
ZBAA,1998-10-16 04:00,ZBAA 160400Z AUTO 16004KT 6SM 19/06 A2997 RMK SLP149 T01900060 IEM_DS3505
ZBAA,1998-10-16 05:00,ZBAA 160500Z AUTO 12004KT 6SM 19/06 A2994 RMK SLP139 T01900060 IEM_DS3505
ZBAA,1998-10-16 06:00,ZBAA 160600Z AUTO 00000KT 3SM 20/10 A2991 RMK SLP136 T01970103 57019 IEM_DS3505
ZBAA,1998-10-16 07:00,ZBAA 160700Z AUTO 13002KT 5SM 21/07 A2991 RMK SLP129 T02100070 IEM_DS3505
ZBAA,1998-10-16 08:00,ZBAA 160800Z AUTO 17004KT 5SM 21/07 A2991 RMK SLP129 T02100070 IEM_DS3505
ZBAA,1998-10-16 09:00,ZBAA 160900Z AUTO 18004KT 2 1/2SM 20/13 A2988 RMK SLP120 T01990127 57016 IEM_DS3505
ZBAA,1998-10-16 10:00,ZBAA 161000Z AUTO 00000KT 3SM 19/09 A2991 RMK SLP129 T01900090 IEM_DS3505
ZBAA,1998-10-16 11:00,ZBAA 161100Z AUTO 36004KT 2 1/2SM 17/11 A2991 RMK SLP129 T01700110 IEM_DS3505
ZBAA,1998-10-16 12:00,ZBAA 161200Z AUTO 00000KT 4SM 16/12 A2991 RMK SLP124 T01580122 52004 IEM_DS3505
ZBAA,1998-10-16 13:00,ZBAA 161300Z AUTO 00000KT 2 1/2SM 16/10 A2991 RMK SLP130 T01600100 IEM_DS3505
ZBAA,1998-10-16 14:00,ZBAA 161400Z AUTO 32006KT 3SM 16/09 A2991 RMK SLP130 T01600090 IEM_DS3505
ZBAA,1998-10-16 15:00,ZBAA 161500Z AUTO 00000KT 4SM 15/11 A2994 RMK SLP133 T01490114 52009 IEM_DS3505
ZBAA,1998-10-16 16:00,ZBAA 161600Z AUTO 33004KT 4SM 14/09 A2994 RMK SLP140 T01400090 IEM_DS3505
ZBAA,1998-10-16 17:00,ZBAA 161700Z AUTO 03002KT 4SM 14/09 A2994 RMK SLP140 T01400090 IEM_DS3505
ZBAA,1998-10-16 18:00,ZBAA 161800Z AUTO 34010KT 12SM 18/02 A2997 RMK SLP141 T01790020 52008 IEM_DS3505
ZBAA,1998-10-16 19:00,ZBAA 161900Z AUTO 34008KT 7SM 16/01 A2997 RMK SLP150 T01600010 IEM_DS3505
ZBAA,1998-10-16 20:00,ZBAA 162000Z AUTO 34016G25KT 7SM 17/M05 A3000 RMK SLP160 T01701050 IEM_DS3505
ZBAA,1998-10-16 21:00,ZBAA 162100Z AUTO 32010KT 19SM 16/M07 A3000 RMK SLP155 T01571070 52014 IEM_DS3505
ZBAA,1998-10-16 22:00,ZBAA 162200Z AUTO 34014KT 7SM 13/M08 A3003 RMK SLP170 T01301080 IEM_DS3505
ZBAA,1998-10-16 23:00,ZBAA 162300Z AUTO 34012G23KT 7SM 12/M09 A3006 RMK SLP181 T01201090 IEM_DS3505
ZBAA,1998-10-17 00:00,ZBAA 170000Z AUTO 34016KT 19SM 12/M12 A3012 RMK SLP179 T01201123 52024 IEM_DS3505
ZBAA,1998-10-17 01:00,ZBAA 170100Z AUTO 32023G35KT 7SM 12/M12 A3009 RMK SLP191 T01201120 IEM_DS3505
ZBAA,1998-10-17 03:00,ZBAA 170300Z AUTO 36014G29KT 19SM 13/M13 A3006 RMK SLP180 T01321130 52001 IEM_DS3505
ZBAA,1998-10-17 04:00,ZBAA 170400Z AUTO 34016G25KT 7SM 15/M14 A3003 RMK SLP170 T01501140 IEM_DS3505
ZBAA,1998-10-17 05:00,ZBAA 170500Z AUTO 30012KT 7SM 16/M13 A3000 RMK SLP160 T01601130 IEM_DS3505
ZBAA,1998-10-17 06:00,ZBAA 170600Z AUTO 34010KT 19SM 16/M14 A2997 RMK SLP151 T01591137 57029 IEM_DS3505
ZBAA,1998-10-17 07:00,ZBAA 170700Z AUTO 30012KT 7SM 17/M15 A2994 RMK SLP139 T01701150 IEM_DS3505
ZBAA,1998-10-17 08:00,ZBAA 170800Z AUTO 29008KT 7SM 17/M15 A2994 RMK SLP139 T01701150 IEM_DS3505
ZBAA,1998-10-17 09:00,ZBAA 170900Z AUTO 32004KT 19SM 17/M10 A2994 RMK SLP145 T01671102 57006 IEM_DS3505
ZBAA,1998-10-17 10:00,ZBAA 171000Z AUTO 30002KT 7SM 15/M10 A2994 RMK SLP140 T01501100 IEM_DS3505
ZBAA,1998-10-17 11:00,ZBAA 171100Z AUTO 02002KT 7SM 12/M05 A2994 RMK SLP140 T01201050 IEM_DS3505
ZBAA,1998-10-17 12:00,ZBAA 171200Z AUTO 25004KT 19SM 12/M03 A2997 RMK SLP147 T01191030 52002 IEM_DS3505
ZBAA,1998-10-17 13:00,ZBAA 171300Z AUTO 17004KT 7SM 09/M01 A2997 RMK SLP151 T00901010 IEM_DS3505
ZBAA,1998-10-17 14:00,ZBAA 171400Z AUTO 00000KT 7SM 08/00 A2997 RMK SLP151 T00800000 IEM_DS3505
ZBAA,1998-10-17 15:00,ZBAA 171500Z AUTO 11002KT 9SM 07/02 A2997 RMK SLP148 T00660016 54000 IEM_DS3505
ZBAA,1998-10-17 17:00,ZBAA 171700Z AUTO 00000KT 7SM 06/02 A2994 RMK SLP142 T00600020 IEM_DS3505
ZBAA,1998-10-17 18:00,ZBAA 171800Z AUTO 00000KT 7SM 06/02 A2994 RMK SLP144 T00620020 57004 IEM_DS3505
ZBAA,1998-10-17 19:00,ZBAA 171900Z AUTO 00000KT 7SM 06/02 A2994 RMK SLP142 T00600020 IEM_DS3505
ZBAA,1998-10-17 20:00,ZBAA 172000Z AUTO 36004KT 7SM 05/02 A2994 RMK SLP142 T00500020 IEM_DS3505
ZBAA,1998-10-17 21:00,ZBAA 172100Z AUTO 00000KT 7SM 05/02 A2994 RMK SLP141 T00500017 57003 IEM_DS3505
ZBAA,1998-10-17 22:00,ZBAA 172200Z AUTO 35004KT 6SM 05/00 A2997 RMK SLP152 T00500000 IEM_DS3505
ZBAA,1998-10-17 23:00,ZBAA 172300Z AUTO 00000KT 6SM 06/01 A2997 RMK SLP152 T00600010 IEM_DS3505
ZBAA,1998-10-18 00:00,ZBAA 180000Z AUTO 00000KT 2 1/2SM 07/02 A3000 RMK SLP160 T00730025 52019 IEM_DS3505
ZBAA,1998-10-18 01:00,ZBAA 180100Z AUTO 35006KT 7SM 11/02 A3003 RMK SLP171 T01100020 IEM_DS3505
ZBAA,1998-10-18 02:00,ZBAA 180200Z AUTO 32010KT 7SM 15/M03 A3003 RMK SLP170 T01501030 IEM_DS3505
ZBAA,1998-10-18 03:00,ZBAA 180300Z AUTO 34010KT 6SM 17/M03 A3003 RMK SLP172 T01691028 52012 IEM_DS3505
ZBAA,1998-10-18 04:00,ZBAA 180400Z AUTO 32019G31KT 7SM 18/M11 A3003 RMK SLP169 T01801110 IEM_DS3505
ZBAA,1998-10-18 05:00,ZBAA 180500Z AUTO 32021G33KT 7SM 18/M13 A3003 RMK SLP169 T01801130 IEM_DS3505
ZBAA,1998-10-18 06:00,ZBAA 180600Z AUTO 29010KT 7SM 18/M12 A3003 RMK SLP171 T01811120 57001 IEM_DS3505
ZBAA,1998-10-18 07:00,ZBAA 180700Z AUTO 31019KT 7SM 18/M11 A3003 RMK SLP169 T01801110 IEM_DS3505
ZBAA,1998-10-18 08:00,ZBAA 180800Z AUTO 32023KT 7SM 18/M13 A3006 RMK SLP179 T01801130 IEM_DS3505
ZBAA,1998-10-18 09:00,ZBAA 180900Z AUTO 34006G25KT 6SM 17/M11 A3006 RMK SLP180 T01721108 52009 IEM_DS3505
ZBAA,1998-10-18 10:00,ZBAA 181000Z AUTO 36010KT 7SM 15/M09 A3009 RMK SLP190 T01501090 IEM_DS3505
ZBAA,1998-10-18 11:00,ZBAA 181100Z AUTO 34008KT 7SM 13/M07 A3012 RMK SLP202 T01301070 IEM_DS3505
ZBAA,1998-10-18 12:00,ZBAA 181200Z AUTO 00000KT 9SM 12/M00 A3015 RMK SLP206 T01171001 52026 IEM_DS3505
ZBAA,1998-10-18 13:00,ZBAA 181300Z AUTO 36006KT 7SM 13/M07 A3018 RMK SLP222 T01301070 IEM_DS3505
ZBAA,1998-10-18 14:00,ZBAA 181400Z AUTO 32008KT 6SM 14/M08 A3018 RMK SLP222 T01401080 IEM_DS3505
ZBAA,1998-10-18 15:00,ZBAA 181500Z AUTO 25004KT 9SM 08/00 A3018 RMK SLP219 T00850001 52013 IEM_DS3505
ZBAA,1998-10-18 16:00,ZBAA 181600Z AUTO 27004KT 6SM 09/M03 A3018 RMK SLP223 T00901030 IEM_DS3505
ZBAA,1998-10-18 17:00,ZBAA 181700Z AUTO 19002KT 6SM 08/M03 A3018 RMK SLP223 T00801030 IEM_DS3505
ZBAA,1998-10-18 18:00,ZBAA 181800Z AUTO 00000KT 7SM 07/01 A3018 RMK SLP221 T00720009 52002 IEM_DS3505
ZBAA,1998-10-18 19:00,ZBAA 181900Z AUTO 27006KT 6SM 08/M03 A3021 RMK SLP233 T00801030 IEM_DS3505
ZBAA,1998-10-18 20:00,ZBAA 182000Z AUTO 29006KT 7SM 10/M06 A3018 RMK SLP222 T01001060 IEM_DS3505
ZBAA,1998-10-18 21:00,ZBAA 182100Z AUTO 27008KT 7SM 07/M01 A3021 RMK SLP222 T00671014 52001 IEM_DS3505
ZBAA,1998-10-18 22:00,ZBAA 182200Z AUTO 00000KT 7SM 05/01 A3024 RMK SLP244 T00500010 IEM_DS3505
ZBAA,1998-10-18 23:00,ZBAA 182300Z AUTO 00000KT 7SM 05/00 A3024 RMK SLP244 T00500000 IEM_DS3505
ZBAA,1998-10-19 00:00,ZBAA 190000Z AUTO 00000KT 2 1/2SM 08/02 A3027 RMK SLP242 T00830020 52020 IEM_DS3505
ZBAA,1998-10-19 01:00,ZBAA 190100Z AUTO 03002KT 7SM 12/M02 A3027 RMK SLP252 T01201020 IEM_DS3505
ZBAA,1998-10-19 03:00,ZBAA 190300Z AUTO 22004KT 6SM 17/M00 A3027 RMK SLP251 T01681004 52009 IEM_DS3505
ZBAA,1998-10-19 04:00,ZBAA 190400Z AUTO 20004KT 7SM 18/M01 A3027 RMK SLP251 T01801010 IEM_DS3505
ZBAA,1998-10-19 05:00,ZBAA 190500Z AUTO 20008KT 7SM 20/M06 A3024 RMK SLP240 T02001060 IEM_DS3505
ZBAA,1998-10-19 06:00,ZBAA 190600Z AUTO 18010KT 14SM 20/M04 A3021 RMK SLP232 T02031044 57019 IEM_DS3505
ZBAA,1998-10-19 07:00,ZBAA 190700Z AUTO 19010KT 7SM 21/M07 A3021 RMK SLP230 T02101070 IEM_DS3505
ZBAA,1998-10-19 08:00,ZBAA 190800Z AUTO 18010KT 7SM 20/M06 A3018 RMK SLP220 T02001060 IEM_DS3505
ZBAA,1998-10-19 09:00,ZBAA 190900Z AUTO 20006KT 9SM 19/M01 A3021 RMK SLP227 T01871009 57005 IEM_DS3505
ZBAA,1998-10-19 10:00,ZBAA 191000Z AUTO 16004KT 7SM 16/M01 A3021 RMK SLP231 T01601010 IEM_DS3505
ZBAA,1998-10-19 11:00,ZBAA 191100Z AUTO 16004G14KT 7SM 15/M01 A3024 RMK SLP241 T01501010 IEM_DS3505
ZBAA,1998-10-19 12:00,ZBAA 191200Z AUTO 20004KT 9SM 14/02 A3024 RMK SLP241 T01400015 52014 IEM_DS3505
ZBAA,1998-10-19 13:00,ZBAA 191300Z AUTO 12002KT 7SM 11/02 A3024 RMK SLP242 T01100020 IEM_DS3505
ZBAA,1998-10-19 14:00,ZBAA 191400Z AUTO 00000KT 7SM 10/04 A3027 RMK SLP253 T01000040 IEM_DS3505
ZBAA,1998-10-19 15:00,ZBAA 191500Z AUTO 20006KT 7SM 12/01 A3027 RMK SLP244 T01200013 52004 IEM_DS3505
ZBAA,1998-10-19 16:00,ZBAA 191600Z AUTO 11002KT 7SM 07/03 A3027 RMK SLP253 T00700030 IEM_DS3505
ZBAA,1998-10-19 17:00,ZBAA 191700Z AUTO 12002KT 7SM 07/03 A3027 RMK SLP253 T00700030 IEM_DS3505
ZBAA,1998-10-19 18:00,ZBAA 191800Z AUTO 00000KT 6SM 08/02 A3027 RMK SLP250 T00810023 52005 IEM_DS3505
ZBAA,1998-10-19 21:00,ZBAA 192100Z AUTO 00000KT 4SM 06/04 A3027 RMK SLP252 T00610035 52002 IEM_DS3505
ZBAA,1998-10-19 22:00,ZBAA 192200Z AUTO 00000KT 7SM 06/04 A3030 RMK SLP264 T00600040 IEM_DS3505
ZBAA,1998-10-19 23:00,ZBAA 192300Z AUTO 00000KT 3SM 05/04 A3030 RMK SLP264 T00500040 IEM_DS3505
ZBAA,1998-10-20 00:00,ZBAA 200000Z AUTO 00000KT 1 1/4SM 07/04 A3036 RMK SLP261 T00740041 52009 IEM_DS3505
ZBAA,1998-10-20 01:00,ZBAA 200100Z AUTO 00000KT 4SM 09/03 A3033 RMK SLP273 T00900030 IEM_DS3505
ZBAA,1998-10-20 02:00,ZBAA 200200Z AUTO 10002KT 4SM 11/03 A3033 RMK SLP273 T01100030 IEM_DS3505
ZBAA,1998-10-20 03:00,ZBAA 200300Z AUTO 22006KT 3SM 16/04 A3033 RMK SLP266 T01570040 52005 IEM_DS3505
ZBAA,1998-10-20 04:00,ZBAA 200400Z AUTO ////02KT 2SM 15/04 A3030 RMK SLP262 T01500040 IEM_DS3505
ZBAA,1998-10-20 05:00,ZBAA 200500Z AUTO 08002KT 2SM 17/05 A3027 RMK SLP251 T01700050 IEM_DS3505
ZBAA,1998-10-20 06:00,ZBAA 200600Z AUTO 18008KT 6SM 20/02 A3030 RMK SLP239 T01990021 57027 IEM_DS3505
ZBAA,1998-10-20 07:00,ZBAA 200700Z AUTO 18008KT 5SM 20/01 A3021 RMK SLP230 T02000010 IEM_DS3505
ZBAA,1998-10-20 08:00,ZBAA 200800Z AUTO 18008KT 7SM 20/00 A3021 RMK SLP230 T02000000 IEM_DS3505
ZBAA,1998-10-20 09:00,ZBAA 200900Z AUTO 20004KT 6SM 19/04 A3019 RMK SLP225 T01860043 57014 IEM_DS3505
ZBAA,1998-10-20 10:00,ZBAA 201000Z AUTO 00000KT 5SM 16/04 A3021 RMK SLP231 T01600040 IEM_DS3505
ZBAA,1998-10-20 11:00,ZBAA 201100Z AUTO 09002KT 4SM 13/05 A3021 RMK SLP232 T01300050 IEM_DS3505
ZBAA,1998-10-20 12:00,ZBAA 201200Z AUTO 00000KT 7SM 12/06 A3021 RMK SLP227 T01220063 52002 IEM_DS3505
ZBAA,1998-10-20 13:00,ZBAA 201300Z AUTO 00000KT 3SM 12/06 A3021 RMK SLP232 T01200060 IEM_DS3505
ZBAA,1998-10-20 14:00,ZBAA 201400Z AUTO 12002KT 4SM 12/05 A3021 RMK SLP232 T01200050 IEM_DS3505
ZBAA,1998-10-20 15:00,ZBAA 201500Z AUTO 00000KT 6SM 12/05 A3021 RMK SLP229 T01150052 52002 IEM_DS3505
ZBAA,1998-10-20 17:00,ZBAA 201700Z AUTO 32002KT 4SM 10/05 A3021 RMK SLP232 T01000050 IEM_DS3505
ZBAA,1998-10-20 18:00,ZBAA 201800Z AUTO 00000KT 6SM 11/05 A3021 RMK SLP225 T01100053 57003 IEM_DS3505
ZBAA,1998-10-20 19:00,ZBAA 201900Z AUTO 00000KT 4SM 09/06 A3021 RMK SLP233 T00900060 IEM_DS3505
ZBAA,1998-10-20 20:00,ZBAA 202000Z AUTO 00000KT 3SM 09/06 A3018 RMK SLP223 T00900060 IEM_DS3505
ZBAA,1998-10-20 21:00,ZBAA 202100Z AUTO 00000KT 6SM 10/06 A3018 RMK SLP218 T01000061 57007 IEM_DS3505
ZBAA,1998-10-20 22:00,ZBAA 202200Z AUTO 00000KT 2 1/2SM 08/06 A3018 RMK SLP223 T00800060 IEM_DS3505
ZBAA,1998-10-20 23:00,ZBAA 202300Z AUTO 36002KT 2SM 08/06 A3018 RMK SLP223 T00800060 IEM_DS3505
ZBAA,1998-10-21 00:00,ZBAA 210000Z AUTO 00000KT 2SM 10/06 A3018 RMK SLP220 T00960061 52001 IEM_DS3505
ZBAA,1998-10-21 01:00,ZBAA 210100Z AUTO 03002KT 2 1/2SM 11/06 A3021 RMK SLP232 T01100060 IEM_DS3505
ZBAA,1998-10-21 02:00,ZBAA 210200Z AUTO 08002KT 2 1/2SM 13/06 A3018 RMK SLP222 T01300060 IEM_DS3505
ZBAA,1998-10-21 03:00,ZBAA 210300Z AUTO 07002KT 4SM 14/06 A3017 RMK SLP218 T01410064 57002 IEM_DS3505
ZBAA,1998-10-21 04:00,ZBAA 210400Z AUTO ////02KT 2 1/2SM 16/07 A3015 RMK SLP211 T01600070 IEM_DS3505
ZBAA,1998-10-21 05:00,ZBAA 210500Z AUTO 13004KT 2 1/2SM 17/08 A3015 RMK SLP211 T01700080 IEM_DS3505
ZBAA,1998-10-21 06:00,ZBAA 210600Z AUTO 00000KT 5SM 17/08 A3017 RMK SLP197 T01670085 57020 IEM_DS3505
ZBAA,1998-10-21 07:00,ZBAA 210700Z AUTO 13006KT 2 1/2SM 17/08 A3009 RMK SLP190 T01700080 IEM_DS3505
ZBAA,1998-10-21 08:00,ZBAA 210800Z AUTO 15004KT 2 1/2SM 17/08 A3009 RMK SLP190 T01700080 IEM_DS3505
ZBAA,1998-10-21 09:00,ZBAA 210900Z AUTO 00000KT 4SM 16/10 A3009 RMK SLP188 T01600097 57009 IEM_DS3505
ZBAA,1998-10-21 10:00,ZBAA 211000Z AUTO 00000KT 2SM 14/09 A3009 RMK SLP190 T01400090 IEM_DS3505
ZBAA,1998-10-21 11:00,ZBAA 211100Z AUTO 00000KT 1 1/2SM 13/10 A3009 RMK SLP191 T01300100 IEM_DS3505
ZBAA,1998-10-21 12:00,ZBAA 211200Z AUTO 00000KT 3SM 13/10 A3009 RMK SLP195 T01290102 52006 IEM_DS3505
ZBAA,1998-10-21 13:00,ZBAA 211300Z AUTO 00000KT 1 1/4SM 13/10 A3012 RMK SLP202 T01300100 IEM_DS3505
ZBAA,1998-10-21 14:00,ZBAA 211400Z AUTO 01002KT 1 1/4SM 13/09 A3009 RMK SLP191 T01300090 IEM_DS3505
ZBAA,1998-10-21 15:00,ZBAA 211500Z AUTO 00000KT 2 1/2SM 14/09 A3012 RMK SLP193 T01400093 57001 IEM_DS3505
ZBAA,1998-10-21 16:00,ZBAA 211600Z AUTO 29006KT 1 1/4SM 12/09 A3012 RMK SLP202 T01200090 IEM_DS3505
ZBAA,1998-10-21 17:00,ZBAA 211700Z AUTO 33006KT 1 1/4SM 12/09 A3012 RMK SLP202 T01200090 IEM_DS3505
ZBAA,1998-10-21 18:00,ZBAA 211800Z AUTO 34004KT 2 1/2SM 12/08 A3012 RMK SLP199 T01250083 52006 IEM_DS3505
ZBAA,1998-10-21 19:00,ZBAA 211900Z AUTO 35006KT 1 1/4SM 10/08 A3012 RMK SLP202 T01000080 IEM_DS3505
ZBAA,1998-10-21 20:00,ZBAA 212000Z AUTO 35006KT 1 1/2SM 10/07 A3015 RMK SLP212 T01000070 IEM_DS3505
ZBAA,1998-10-21 21:00,ZBAA 212100Z AUTO 34008KT 9SM 14/ A3015 RMK SLP202 52003 IEM_DS3505
ZBAA,1998-10-21 22:00,ZBAA 212200Z AUTO 35004KT 7SM 10/00 A3015 RMK SLP212 T01000000 IEM_DS3505
ZBAA,1998-10-22 00:00,ZBAA 220000Z AUTO 34010KT 12SM 14/M10 A3018 RMK SLP217 T01411103 52014 IEM_DS3505
ZBAA,1998-10-22 01:00,ZBAA 220100Z AUTO 32008KT 7SM 15/M08 A3021 RMK SLP231 T01501080 IEM_DS3505
ZBAA,1998-10-22 02:00,ZBAA 220200Z AUTO 31010KT 7SM 17/M11 A3021 RMK SLP231 T01701110 IEM_DS3505
ZBAA,1998-10-22 03:00,ZBAA 220300Z AUTO 34010KT 9SM 18/M18 A3017 RMK SLP217 T01761184 52001 IEM_DS3505
ZBAA,1998-10-22 04:00,ZBAA 220400Z AUTO 31008KT 7SM 18/M13 A3015 RMK SLP211 T01801130 IEM_DS3505
ZBAA,1998-10-22 06:00,ZBAA 220600Z AUTO 34010KT 12SM 20/M11 A3009 RMK SLP193 T02001112 57024 IEM_DS3505
ZBAA,1998-10-22 07:00,ZBAA 220700Z AUTO 29012KT 7SM 20/M11 A3009 RMK SLP189 T02001110 IEM_DS3505
ZBAA,1998-10-22 08:00,ZBAA 220800Z AUTO 29012KT 7SM 20/M11 A3009 RMK SLP189 T02001110 IEM_DS3505
ZBAA,1998-10-22 09:00,ZBAA 220900Z AUTO 29002KT 12SM 19/M09 A3009 RMK SLP188 T01921090 57005 IEM_DS3505
ZBAA,1998-10-22 10:00,ZBAA 221000Z AUTO 28008KT 7SM 18/M10 A3009 RMK SLP190 T01801100 IEM_DS3505
ZBAA,1998-10-22 11:00,ZBAA 221100Z AUTO 25004KT 7SM 16/M07 A3012 RMK SLP201 T01601070 IEM_DS3505
ZBAA,1998-10-22 12:00,ZBAA 221200Z AUTO 00000KT 9SM 12/01 A3012 RMK SLP204 T01170009 52015 IEM_DS3505
ZBAA,1998-10-22 13:00,ZBAA 221300Z AUTO 22006KT 7SM 15/M05 A3015 RMK SLP211 T01501050 IEM_DS3505
ZBAA,1998-10-22 14:00,ZBAA 221400Z AUTO 22006KT 7SM 14/M04 A3015 RMK SLP211 T01401040 IEM_DS3505
ZBAA,1998-10-22 15:00,ZBAA 221500Z AUTO 25006KT 7SM 10/01 A3015 RMK SLP210 T01050007 52007 IEM_DS3505
ZBAA,1998-10-22 16:00,ZBAA 221600Z AUTO 35002KT 7SM 10/00 A3018 RMK SLP222 T01000000 IEM_DS3505
ZBAA,1998-10-22 17:00,ZBAA 221700Z AUTO 35004KT 7SM 10/M01 A3018 RMK SLP222 T01001010 IEM_DS3505
ZBAA,1998-10-22 18:00,ZBAA 221800Z AUTO 00000KT 7SM 10/01 A3021 RMK SLP217 T00990011 52007 IEM_DS3505
ZBAA,1998-10-22 19:00,ZBAA 221900Z AUTO 36004KT 7SM 07/00 A3021 RMK SLP233 T00700000 IEM_DS3505
ZBAA,1998-10-22 20:00,ZBAA 222000Z AUTO 35006KT 7SM 06/00 A3021 RMK SLP233 T00600000 IEM_DS3505
ZBAA,1998-10-22 21:00,ZBAA 222100Z AUTO 02004KT 7SM 08/M00 A3024 RMK SLP227 T00851005 52010 IEM_DS3505
ZBAA,1998-10-22 22:00,ZBAA 222200Z AUTO 01002KT 7SM 09/M01 A3024 RMK SLP243 T00901010 IEM_DS3505
ZBAA,1998-10-22 23:00,ZBAA 222300Z AUTO 30002KT 7SM 08/M01 A3027 RMK SLP253 T00801010 IEM_DS3505
ZBAA,1998-10-23 00:00,ZBAA 230000Z AUTO 07006KT 7SM 11/00 A3027 RMK SLP246 T01120001 52018 IEM_DS3505
ZBAA,1998-10-23 02:00,ZBAA 230200Z AUTO 02006KT 7SM 15/M03 A3030 RMK SLP262 T01501030 IEM_DS3505
ZBAA,1998-10-23 03:00,ZBAA 230300Z AUTO 07008KT 12SM 16/M04 A3030 RMK SLP252 T01641041 52006 IEM_DS3505
ZBAA,1998-10-23 04:00,ZBAA 230400Z AUTO 05004KT 7SM 17/M04 A3027 RMK SLP251 T01701040 IEM_DS3505
ZBAA,1998-10-23 05:00,ZBAA 230500Z AUTO 03004KT 7SM 18/M05 A3024 RMK SLP241 T01801050 IEM_DS3505
ZBAA,1998-10-23 06:00,ZBAA 230600Z AUTO 09004KT 12SM 18/M02 A3021 RMK SLP234 T01851021 57017 IEM_DS3505
ZBAA,1998-10-23 07:00,ZBAA 230700Z AUTO ////02KT 7SM 19/M04 A3021 RMK SLP231 T01901040 IEM_DS3505
ZBAA,1998-10-23 08:00,ZBAA 230800Z AUTO 19004KT 7SM 19/M04 A3021 RMK SLP231 T01901040 IEM_DS3505
ZBAA,1998-10-23 09:00,ZBAA 230900Z AUTO 14004KT 16SM 17/03 A3021 RMK SLP229 T01660030 57006 IEM_DS3505
ZBAA,1998-10-23 10:00,ZBAA 231000Z AUTO 15002KT 7SM 15/00 A3021 RMK SLP231 T01500000 IEM_DS3505
ZBAA,1998-10-23 12:00,ZBAA 231200Z AUTO 00000KT 6SM 10/04 A3024 RMK SLP236 T01030045 52007 IEM_DS3505
ZBAA,1998-10-23 13:00,ZBAA 231300Z AUTO 16002KT 7SM 11/03 A3024 RMK SLP242 T01100030 IEM_DS3505
ZBAA,1998-10-23 14:00,ZBAA 231400Z AUTO 09002KT 7SM 09/04 A3024 RMK SLP243 T00900040 IEM_DS3505
ZBAA,1998-10-23 15:00,ZBAA 231500Z AUTO 00000KT 6SM 10/03 A3027 RMK SLP244 T00950029 52008 IEM_DS3505
ZBAA,1998-10-23 16:00,ZBAA 231600Z AUTO 00000KT 7SM 08/04 A3027 RMK SLP253 T00800040 IEM_DS3505
ZBAA,1998-10-23 17:00,ZBAA 231700Z AUTO 35002KT 4SM 07/05 A3027 RMK SLP253 T00700050 IEM_DS3505
ZBAA,1998-10-23 18:00,ZBAA 231800Z AUTO 00000KT 7SM 07/04 A3027 RMK SLP247 T00710035 52003 IEM_DS3505
ZBAA,1998-10-23 19:00,ZBAA 231900Z AUTO 35002KT 4SM 07/02 A3027 RMK SLP253 T00700020 IEM_DS3505
ZBAA,1998-10-23 20:00,ZBAA 232000Z AUTO 34002KT 4SM 07/02 A3027 RMK SLP253 T00700020 IEM_DS3505
ZBAA,1998-10-23 21:00,ZBAA 232100Z AUTO 04006KT 6SM 08/04 A3027 RMK SLP247 T00750035 54000 IEM_DS3505
ZBAA,1998-10-23 22:00,ZBAA 232200Z AUTO 36004KT 7SM 05/02 A3027 RMK SLP254 T00500020 IEM_DS3505
ZBAA,1998-10-23 23:00,ZBAA 232300Z AUTO 33004KT 7SM 07/02 A3030 RMK SLP263 T00700020 IEM_DS3505
ZBAA,1998-10-24 00:00,ZBAA 240000Z AUTO 00000KT 3SM 08/04 A3030 RMK SLP261 T00850036 52014 IEM_DS3505
ZBAA,1998-10-24 01:00,ZBAA 240100Z AUTO 00000KT 6SM 10/03 A3033 RMK SLP273 T01000030 IEM_DS3505
ZBAA,1998-10-24 02:00,ZBAA 240200Z AUTO 00000KT 6SM 12/03 A3033 RMK SLP272 T01200030 IEM_DS3505
ZBAA,1998-10-24 03:00,ZBAA 240300Z AUTO 07004KT 3SM 12/04 A3033 RMK SLP264 T01240042 52003 IEM_DS3505
ZBAA,1998-10-24 04:00,ZBAA 240400Z AUTO 04002KT 6SM 15/01 A3030 RMK SLP262 T01500010 IEM_DS3505
ZBAA,1998-10-24 05:00,ZBAA 240500Z AUTO 00000KT 6SM 15/01 A3027 RMK SLP252 T01500010 IEM_DS3505
ZBAA,1998-10-24 06:00,ZBAA 240600Z AUTO 25004KT 2 1/2SM 14/04 A3024 RMK SLP247 T01400044 57017 IEM_DS3505
ZBAA,1998-10-24 07:00,ZBAA 240700Z AUTO 22004KT 6SM 15/01 A3027 RMK SLP252 T01500010 IEM_DS3505
ZBAA,1998-10-24 08:00,ZBAA 240800Z AUTO 16002KT 4SM 14/03 A3024 RMK SLP242 T01400030 IEM_DS3505
ZBAA,1998-10-24 09:00,ZBAA 240900Z AUTO 22006KT 2SM 11/08 A3027 RMK SLP252 T01140083 52005 IEM_DS3505
ZBAA,1998-10-24 10:00,ZBAA 241000Z AUTO 22010KT 2 1/2SM 12/07 A3027 RMK SLP252 T01200070 IEM_DS3505
ZBAA,1998-10-24 11:00,ZBAA 241100Z AUTO 22004KT 2 1/2SM 12/07 A3027 RMK SLP252 T01200070 IEM_DS3505
ZBAA,1998-10-24 12:00,ZBAA 241200Z AUTO 27006KT 4SM 10/08 A3030 RMK 60012 SLP256 T00960079 52004 IEM_DS3505
ZBAA,1998-10-24 13:00,ZBAA 241300Z AUTO 26002KT 2SM 10/08 A3033 RMK SLP273 T01000080 IEM_DS3505
ZBAA,1998-10-24 14:00,ZBAA 241400Z AUTO 30004KT 2 1/2SM 11/08 A3033 RMK SLP273 T01100080 IEM_DS3505
ZBAA,1998-10-24 15:00,ZBAA 241500Z AUTO 02002KT 2 1/2SM 10/09 A3030 RMK SLP257 T01020086 52001 IEM_DS3505
ZBAA,1998-10-24 16:00,ZBAA 241600Z AUTO 00000KT 1 1/2SM 10/09 A3030 RMK SLP263 T01000090 IEM_DS3505
ZBAA,1998-10-24 17:00,ZBAA 241700Z AUTO 10002KT 1SM 10/09 A3030 RMK SLP263 T01000090 IEM_DS3505
ZBAA,1998-10-24 18:00,ZBAA 241800Z AUTO 07004KT 3SM 10/09 A3030 RMK 60008 SLP256 T00960090 57001 IEM_DS3505
ZBAA,1998-10-24 19:00,ZBAA 241900Z AUTO 09004KT 1SM 10/09 A3027 RMK SLP253 T01000090 IEM_DS3505
ZBAA,1998-10-24 20:00,ZBAA 242000Z AUTO 00000KT 1SM 10/10 A3027 RMK SLP253 T01000100 IEM_DS3505
ZBAA,1998-10-24 21:00,ZBAA 242100Z AUTO 02002KT 1 1/4SM 10/09 A3027 RMK 70031 SLP248 T00980094 57008 IEM_DS3505
ZBAA,1998-10-24 22:00,ZBAA 242200Z AUTO 36002KT 1SM 10/10 A3027 RMK SLP253 T01000100 IEM_DS3505
ZBAA,1998-10-24 23:00,ZBAA 242300Z AUTO 36004KT 1SM 10/10 A3027 RMK SLP253 T01000100 IEM_DS3505
ZBAA,1998-10-25 00:00,ZBAA 250000Z AUTO 04006KT 1SM 10/10 A3027 RMK 60016 70035 SLP245 T01020096 57003 IEM_DS3505
ZBAA,1998-10-25 01:00,ZBAA 250100Z AUTO 02004KT 1SM 10/10 A3024 RMK SLP243 T01000100 IEM_DS3505
ZBAA,1998-10-25 02:00,ZBAA 250200Z AUTO ////02KT 1SM 10/10 A3021 RMK SLP232 T01000100 IEM_DS3505
ZBAA,1998-10-25 03:00,ZBAA 250300Z AUTO 36006KT 1SM 10/10 A3021 RMK SLP218 T01040098 57027 IEM_DS3505
ZBAA,1998-10-25 04:00,ZBAA 250400Z AUTO 34008KT 1SM 10/10 A3018 RMK SLP222 T01000100 IEM_DS3505
ZBAA,1998-10-25 05:00,ZBAA 250500Z AUTO 01004KT 1SM 10/10 A3015 RMK SLP212 T01000100 IEM_DS3505
ZBAA,1998-10-25 06:00,ZBAA 250600Z AUTO 04002KT 1SM 10/10 A3012 RMK 60079 SLP198 T01040100 57020 IEM_DS3505
ZBAA,1998-10-25 07:00,ZBAA 250700Z AUTO 01004KT 1SM 10/10 A3012 RMK SLP202 T01000100 IEM_DS3505
ZBAA,1998-10-25 08:00,ZBAA 250800Z AUTO 34006KT 2SM 10/10 A3009 RMK SLP191 T01000100 IEM_DS3505
ZBAA,1998-10-25 09:00,ZBAA 250900Z AUTO 04006KT 1SM 11/10 A3009 RMK SLP185 T01060100 57013 IEM_DS3505
ZBAA,1998-10-25 10:00,ZBAA 251000Z AUTO 36008KT 7SM 10/09 A3009 RMK SLP191 T01000090 IEM_DS3505
ZBAA,1998-10-25 11:00,ZBAA 251100Z AUTO 35010KT 7SM 10/09 A3012 RMK SLP202 T01000090 IEM_DS3505
ZBAA,1998-10-25 12:00,ZBAA 251200Z AUTO 36004KT 6SM 10/09 A3012 RMK 60016 SLP196 T01040092 52011 IEM_DS3505
ZBAA,1998-10-25 13:00,ZBAA 251300Z AUTO 02008KT 5SM 09/09 A3012 RMK SLP203 T00900090 IEM_DS3505
ZBAA,1998-10-25 14:00,ZBAA 251400Z AUTO 35010KT 7SM 09/09 A3015 RMK SLP213 T00900090 IEM_DS3505
ZBAA,1998-10-25 15:00,ZBAA 251500Z AUTO 04006KT 12SM 10/08 A3015 RMK SLP205 T00980077 52009 IEM_DS3505
ZBAA,1998-10-25 16:00,ZBAA 251600Z AUTO 01008KT 7SM 08/06 A3015 RMK SLP213 T00800060 IEM_DS3505
ZBAA,1998-10-25 17:00,ZBAA 251700Z AUTO 01010KT 7SM 08/05 A3015 RMK SLP213 T00800050 IEM_DS3505
ZBAA,1998-10-25 18:00,ZBAA 251800Z AUTO 04004KT 12SM 08/06 A3015 RMK SLP205 T00790057 54000 IEM_DS3505
ZBAA,1998-10-25 19:00,ZBAA 251900Z AUTO 03006KT 6SM 08/05 A3015 RMK SLP213 T00800050 IEM_DS3505
ZBAA,1998-10-25 20:00,ZBAA 252000Z AUTO 03006KT 6SM 08/05 A3015 RMK SLP213 T00800050 IEM_DS3505
ZBAA,1998-10-25 21:00,ZBAA 252100Z AUTO 34008KT 19SM 10/02 A3015 RMK 70098 SLP206 T00990017 52001 IEM_DS3505
ZBAA,1998-10-25 22:00,ZBAA 252200Z AUTO 01004KT 6SM 08/05 A3018 RMK SLP223 T00800050 IEM_DS3505
ZBAA,1998-10-25 23:00,ZBAA 252300Z AUTO 35004KT RMK IEM_DS3505
ZBAA,1998-10-26 00:00,ZBAA 260000Z AUTO 34004KT 12SM 10/02 A3023 RMK 70094 SLP218 T00980022 52012 IEM_DS3505
ZBAA,1998-10-26 01:00,ZBAA 260100Z AUTO 33002KT 7SM 09/06 A3021 RMK SLP233 T00900060 IEM_DS3505
ZBAA,1998-10-26 02:00,ZBAA 260200Z AUTO 34004KT 7SM 10/06 A3021 RMK SLP232 T01000060 IEM_DS3505
ZBAA,1998-10-26 03:00,ZBAA 260300Z AUTO 34014KT 12SM 13/01 A3021 RMK SLP222 T01290011 52004 IEM_DS3505
ZBAA,1998-10-26 04:00,ZBAA 260400Z AUTO 01006KT RMK IEM_DS3505
ZBAA,1998-10-26 05:00,ZBAA 260500Z AUTO 34006KT 6SM 14/03 A3018 RMK SLP222 T01400030 IEM_DS3505
ZBAA,1998-10-26 06:00,ZBAA 260600Z AUTO 34012KT 12SM 14/M00 A3018 RMK SLP216 T01391004 57006 IEM_DS3505
ZBAA,1998-10-26 07:00,ZBAA 260700Z AUTO 36008KT 6SM 13/03 A3018 RMK SLP222 T01300030 IEM_DS3505
ZBAA,1998-10-26 08:00,ZBAA 260800Z AUTO 34010KT 6SM 13/00 A3018 RMK SLP222 T01300000 IEM_DS3505
ZBAA,1998-10-26 09:00,ZBAA 260900Z AUTO 29010G25KT 12SM 13/M03 A3018 RMK SLP218 T01301027 52002 IEM_DS3505
ZBAA,1998-10-26 10:00,ZBAA 261000Z AUTO 33016G25KT 6SM 12/M02 A3021 RMK SLP232 T01201020 IEM_DS3505
ZBAA,1998-10-26 11:00,ZBAA 261100Z AUTO 32016KT 6SM 11/M03 A3021 RMK SLP232 T01101030 IEM_DS3505
ZBAA,1998-10-26 12:00,ZBAA 261200Z AUTO 34004G23KT 12SM 10/M01 A3024 RMK SLP233 T01021014 52015 IEM_DS3505
ZBAA,1998-10-26 13:00,ZBAA 261300Z AUTO 33012KT 7SM 10/M03 A3024 RMK SLP243 T01001030 IEM_DS3505
ZBAA,1998-10-26 14:00,ZBAA 261400Z AUTO 33012KT 7SM 09/M02 A3024 RMK SLP243 T00901020 IEM_DS3505
ZBAA,1998-10-26 15:00,ZBAA 261500Z AUTO 34004KT 12SM 09/M01 A3024 RMK SLP238 T00881014 52005 IEM_DS3505
ZBAA,1998-10-26 16:00,ZBAA 261600Z AUTO 03002KT 7SM 07/00 A3024 RMK SLP243 T00700000 IEM_DS3505
ZBAA,1998-10-26 17:00,ZBAA 261700Z AUTO 03004KT 7SM 07/M01 A3024 RMK SLP243 T00701010 IEM_DS3505
ZBAA,1998-10-26 18:00,ZBAA 261800Z AUTO 04002KT 12SM 07/M00 A3024 RMK SLP239 T00661005 52001 IEM_DS3505
ZBAA,1998-10-26 19:00,ZBAA 261900Z AUTO 01004KT 7SM 07/00 A3024 RMK SLP243 T00700000 IEM_DS3505
ZBAA,1998-10-26 20:00,ZBAA 262000Z AUTO 02004KT 7SM 05/00 A3024 RMK SLP244 T00500000 IEM_DS3505
ZBAA,1998-10-26 21:00,ZBAA 262100Z AUTO 02004KT 12SM 05/M01 A3024 RMK SLP237 T00531006 57002 IEM_DS3505
ZBAA,1998-10-26 22:00,ZBAA 262200Z AUTO ////02KT 7SM 03/M01 A3024 RMK SLP244 T00301010 IEM_DS3505
ZBAA,1998-10-26 23:00,ZBAA 262300Z AUTO 32002KT 05/00 A3024 RMK SLP244 T00500000 IEM_DS3505
ZBAA,1998-10-27 00:00,ZBAA 270000Z AUTO 27004KT 2 1/2SM 06/01 A3024 RMK SLP241 T00550014 52004 IEM_DS3505
ZBAA,1998-10-27 02:00,ZBAA 270200Z AUTO ////02KT 7SM 10/00 A3027 RMK SLP253 T01000000 IEM_DS3505
ZBAA,1998-10-27 03:00,ZBAA 270300Z AUTO 20006KT 12SM 12/01 A3024 RMK SLP241 T01210008 54000 IEM_DS3505
ZBAA,1998-10-27 04:00,ZBAA 270400Z AUTO 20002KT 7SM 13/M01 A3021 RMK SLP232 T01301010 IEM_DS3505
ZBAA,1998-10-27 05:00,ZBAA 270500Z AUTO 20008KT 7SM 14/00 A3018 RMK SLP222 T01400000 IEM_DS3505
ZBAA,1998-10-27 06:00,ZBAA 270600Z AUTO 18010KT 12SM 14/02 A3015 RMK SLP212 T01440015 57029 IEM_DS3505
ZBAA,1998-10-27 07:00,ZBAA 270700Z AUTO 21010KT 7SM 15/00 A3012 RMK SLP201 T01500000 IEM_DS3505
ZBAA,1998-10-27 08:00,ZBAA 270800Z AUTO 20008KT 7SM 15/00 A3012 RMK SLP201 T01500000 IEM_DS3505
ZBAA,1998-10-27 09:00,ZBAA 270900Z AUTO 20006KT 12SM 14/02 A3012 RMK SLP201 T01360018 57011 IEM_DS3505
ZBAA,1998-10-27 10:00,ZBAA 271000Z AUTO 15002KT 7SM 11/04 A3012 RMK SLP202 T01100040 IEM_DS3505
ZBAA,1998-10-27 11:00,ZBAA 271100Z AUTO 13002KT 7SM 09/04 A3012 RMK SLP203 T00900040 IEM_DS3505
ZBAA,1998-10-27 12:00,ZBAA 271200Z AUTO 16004KT 12SM 09/04 A3012 RMK SLP202 T00920042 52001 IEM_DS3505
ZBAA,1998-10-27 13:00,ZBAA 271300Z AUTO 12002KT 7SM 07/05 A3012 RMK SLP203 T00700050 IEM_DS3505
ZBAA,1998-10-27 14:00,ZBAA 271400Z AUTO 16002KT 7SM 07/05 A3012 RMK SLP203 T00700050 IEM_DS3505
ZBAA,1998-10-27 15:00,ZBAA 271500Z AUTO 00000KT 7SM 08/04 A3012 RMK SLP202 T00750035 54000 IEM_DS3505
ZBAA,1998-10-27 16:00,ZBAA 271600Z AUTO 02002KT 4SM 06/05 A3012 RMK SLP203 T00600050 IEM_DS3505
ZBAA,1998-10-27 17:00,ZBAA 271700Z AUTO 02002KT 4SM 05/05 A3012 RMK SLP203 T00500050 IEM_DS3505
ZBAA,1998-10-27 18:00,ZBAA 271800Z AUTO 00000KT 6SM 05/04 A3012 RMK SLP201 T00540040 57001 IEM_DS3505
ZBAA,1998-10-27 19:00,ZBAA 271900Z AUTO 35002KT 4SM 05/04 A3012 RMK SLP203 T00500040 IEM_DS3505
ZBAA,1998-10-27 20:00,ZBAA 272000Z AUTO 00000KT 4SM 05/04 A3009 RMK SLP192 T00500040 IEM_DS3505
ZBAA,1998-10-27 21:00,ZBAA 272100Z AUTO 00000KT 4SM 04/03 A3009 RMK SLP193 T00410034 57008 IEM_DS3505
ZBAA,1998-10-27 22:00,ZBAA 272200Z AUTO 35002KT 2 1/2SM 04/04 A3009 RMK SLP193 T00400040 IEM_DS3505
ZBAA,1998-10-28 00:00,ZBAA 280000Z AUTO 00000KT 2SM 06/04 A3017 RMK SLP197 T00580039 52004 IEM_DS3505
ZBAA,1998-10-28 01:00,ZBAA 280100Z AUTO 36004KT 3SM 07/05 A3012 RMK SLP203 T00700050 IEM_DS3505
ZBAA,1998-10-28 02:00,ZBAA 280200Z AUTO 03002KT 4SM 10/05 A3012 RMK SLP202 T01000050 IEM_DS3505
ZBAA,1998-10-28 03:00,ZBAA 280300Z AUTO 14004KT 6SM 13/05 A3009 RMK SLP194 T01320053 57003 IEM_DS3505
ZBAA,1998-10-28 04:00,ZBAA 280400Z AUTO ////02KT 4SM 14/05 A3009 RMK SLP190 T01400050 IEM_DS3505
ZBAA,1998-10-28 05:00,ZBAA 280500Z AUTO 12002KT 4SM 16/07 A3003 RMK SLP170 T01600070 IEM_DS3505
ZBAA,1998-10-28 06:00,ZBAA 280600Z AUTO 18006KT 6SM 17/06 A3000 RMK SLP171 T01690061 57023 IEM_DS3505
ZBAA,1998-10-28 08:00,ZBAA 280800Z AUTO 18008KT 4SM 17/06 A3000 RMK SLP160 T01700060 IEM_DS3505
ZBAA,1998-10-28 09:00,ZBAA 280900Z AUTO 00000KT 6SM 15/07 A3000 RMK SLP165 T01540071 57006 IEM_DS3505
ZBAA,1998-10-28 10:00,ZBAA 281000Z AUTO 15004KT 2 1/2SM 14/07 A3003 RMK SLP170 T01400070 IEM_DS3505
ZBAA,1998-10-28 11:00,ZBAA 281100Z AUTO 10002KT 2 1/2SM 13/07 A3003 RMK SLP170 T01300070 IEM_DS3505
ZBAA,1998-10-28 12:00,ZBAA 281200Z AUTO 00000KT 5SM 11/08 A3006 RMK SLP172 T01060079 52007 IEM_DS3505
ZBAA,1998-10-28 13:00,ZBAA 281300Z AUTO 14002KT 1 1/2SM 10/08 A3006 RMK SLP181 T01000080 IEM_DS3505
ZBAA,1998-10-28 14:00,ZBAA 281400Z AUTO 10002KT 1 1/2SM 10/08 A3006 RMK SLP181 T01000080 IEM_DS3505
ZBAA,1998-10-28 15:00,ZBAA 281500Z AUTO 00000KT 3SM 08/07 A3006 RMK SLP178 T00830072 52006 IEM_DS3505
ZBAA,1998-10-28 16:00,ZBAA 281600Z AUTO 00000KT 1 1/4SM 08/07 A3006 RMK SLP182 T00800070 IEM_DS3505
ZBAA,1998-10-28 17:00,ZBAA 281700Z AUTO 35002KT 1SM 08/08 A3006 RMK SLP182 T00800080 IEM_DS3505
ZBAA,1998-10-28 18:00,ZBAA 281800Z AUTO 00000KT 2SM 07/07 A3006 RMK SLP179 T00730066 52001 IEM_DS3505
ZBAA,1998-10-28 19:00,ZBAA 281900Z AUTO 00000KT 1SM 06/06 A3006 RMK SLP182 T00600060 IEM_DS3505
ZBAA,1998-10-28 20:00,ZBAA 282000Z AUTO 32004KT 1SM 07/06 A3003 RMK SLP172 T00700060 IEM_DS3505
ZBAA,1998-10-28 21:00,ZBAA 282100Z AUTO 00000KT 1 1/4SM 06/06 A3003 RMK SLP173 T00630059 57006 IEM_DS3505
ZBAA,1998-10-28 22:00,ZBAA 282200Z AUTO 34002KT 1SM 06/06 A3006 RMK SLP182 T00600060 IEM_DS3505
ZBAA,1998-10-28 23:00,ZBAA 282300Z AUTO 34004KT 1SM 06/05 A3006 RMK SLP182 T00600050 IEM_DS3505
ZBAA,1998-10-29 00:00,ZBAA 290000Z AUTO 00000KT 1SM 07/06 A3006 RMK SLP179 T00660057 52006 IEM_DS3505
ZBAA,1998-10-29 01:00,ZBAA 290100Z AUTO 36002KT 1SM 08/07 A3006 RMK SLP182 T00800070 IEM_DS3505
ZBAA,1998-10-29 02:00,ZBAA 290200Z AUTO 00000KT 1 1/2SM 11/07 A3006 RMK SLP181 T01100070 IEM_DS3505
ZBAA,1998-10-29 03:00,ZBAA 290300Z AUTO 07002KT 2 1/2SM 12/08 A3003 RMK SLP174 T01240081 57005 IEM_DS3505
ZBAA,1998-10-29 04:00,ZBAA 290400Z AUTO 00000KT 1 1/2SM 13/09 A3003 RMK SLP170 T01300090 IEM_DS3505
ZBAA,1998-10-29 05:00,ZBAA 290500Z AUTO 10002KT 1 1/2SM 14/07 A3000 RMK SLP160 T01400070 IEM_DS3505
ZBAA,1998-10-29 06:00,ZBAA 290600Z AUTO 00000KT 4SM 15/09 A2997 RMK SLP147 T01470093 57027 IEM_DS3505
ZBAA,1998-10-29 07:00,ZBAA 290700Z AUTO 13004KT 1 1/2SM 15/08 A2994 RMK SLP140 T01500080 IEM_DS3505
ZBAA,1998-10-29 08:00,ZBAA 290800Z AUTO 15002KT 1 1/2SM 15/09 A2994 RMK SLP140 T01500090 IEM_DS3505
ZBAA,1998-10-29 09:00,ZBAA 290900Z AUTO 00000KT 2 1/2SM 14/10 A2994 RMK SLP143 T01380099 57004 IEM_DS3505
ZBAA,1998-10-29 10:00,ZBAA 291000Z AUTO 00000KT 1SM 13/10 A2994 RMK SLP140 T01300100 IEM_DS3505
ZBAA,1998-10-29 11:00,ZBAA 291100Z AUTO 30002KT 1SM 12/10 A2997 RMK SLP151 T01200100 IEM_DS3505
ZBAA,1998-10-29 12:00,ZBAA 291200Z AUTO 00000KT 2SM 10/09 A2997 RMK SLP154 T01000088 52011 IEM_DS3505
ZBAA,1998-10-29 13:00,ZBAA 291300Z AUTO 00000KT 1SM 09/09 A3000 RMK SLP161 T00900090 IEM_DS3505
ZBAA,1998-10-29 14:00,ZBAA 291400Z AUTO 00000KT 1/2SM 09/09 A3000 RMK SLP161 T00900090 IEM_DS3505
ZBAA,1998-10-29 15:00,ZBAA 291500Z AUTO 00000KT 3/8SM 08/08 A3000 RMK SLP155 T00810079 52001 IEM_DS3505
ZBAA,1998-10-29 16:00,ZBAA 291600Z AUTO 36002KT 1/2SM 08/08 A3000 RMK SLP161 T00800080 IEM_DS3505
ZBAA,1998-10-29 17:00,ZBAA 291700Z AUTO 00000KT 3/8SM 06/06 A3000 RMK SLP162 T00600060 IEM_DS3505
ZBAA,1998-10-29 18:00,ZBAA 291800Z AUTO 00000KT 1/4SM 06/06 A3000 RMK SLP159 T00630061 52004 IEM_DS3505
ZBAA,1998-10-29 19:00,ZBAA 291900Z AUTO 32002KT 1/2SM 07/07 A3000 RMK SLP162 T00700070 IEM_DS3505
ZBAA,1998-10-29 20:00,ZBAA 292000Z AUTO 32004KT 1/2SM 07/06 A2997 RMK SLP152 T00700060 IEM_DS3505
ZBAA,1998-10-29 21:00,ZBAA 292100Z AUTO 00000KT 1/8SM 04/04 A3000 RMK SLP158 T00430041 57001 IEM_DS3505
ZBAA,1998-10-29 22:00,ZBAA 292200Z AUTO 15002KT 1SM 02/02 A3000 RMK SLP163 T00200020 IEM_DS3505
ZBAA,1998-10-29 23:00,ZBAA 292300Z AUTO 34002KT 1SM 05/05 A3000 RMK SLP162 T00500050 IEM_DS3505
ZBAA,1998-10-30 00:00,ZBAA 300000Z AUTO 00000KT 1/8SM 05/05 A3003 RMK SLP166 T00490047 52008 IEM_DS3505
ZBAA,1998-10-30 01:00,ZBAA 300100Z AUTO 35006KT 1SM 10/09 A3003 RMK SLP171 T01000090 IEM_DS3505
ZBAA,1998-10-30 02:00,ZBAA 300200Z AUTO 01004KT 2SM 13/07 A3003 RMK SLP170 T01300070 IEM_DS3505
ZBAA,1998-10-30 03:00,ZBAA 300300Z AUTO 20006KT 1SM 12/10 A3000 RMK SLP164 T01210095 57002 IEM_DS3505
ZBAA,1998-10-30 04:00,ZBAA 300400Z AUTO 19002KT 5SM 17/03 A2997 RMK SLP149 T01700030 IEM_DS3505
ZBAA,1998-10-30 05:00,ZBAA 300500Z AUTO 19004KT 4SM 18/04 A2994 RMK SLP139 T01800040 IEM_DS3505
ZBAA,1998-10-30 06:00,ZBAA 300600Z AUTO 20006KT 1 1/4SM 17/09 A3001 RMK SLP140 T01690090 57023 IEM_DS3505
ZBAA,1998-10-30 07:00,ZBAA 300700Z AUTO 21008KT 19SM RMK IEM_DS3505
ZBAA,1998-10-30 08:00,ZBAA 300800Z AUTO 18006KT 2SM 18/06 A2991 RMK SLP129 T01800060 IEM_DS3505
ZBAA,1998-10-30 11:00,ZBAA 301100Z AUTO 21006KT 1 1/4SM 13/08 A2991 RMK SLP130 T01300080 IEM_DS3505
ZBAA,1998-10-30 12:00,ZBAA 301200Z AUTO 36006KT 1 1/4SM 11/08 A2999 RMK SLP137 T01070078 52012 IEM_DS3505
ZBAA,1998-10-30 13:00,ZBAA 301300Z AUTO 24002KT 1SM 12/07 A2997 RMK SLP151 T01200070 IEM_DS3505
ZBAA,1998-10-30 15:00,ZBAA 301500Z AUTO 32016KT 9SM 16/M08 A3003 RMK SLP165 T01601085 52029 IEM_DS3505
ZBAA,1998-10-30 16:00,ZBAA 301600Z AUTO 25010KT 7SM 14/M07 A3006 RMK SLP180 T01401070 IEM_DS3505
ZBAA,1998-10-30 17:00,ZBAA 301700Z AUTO 29006KT 7SM 11/M08 A3009 RMK SLP191 T01101080 IEM_DS3505
ZBAA,1998-10-30 18:00,ZBAA 301800Z AUTO 32017KT 19SM 12/M14 A3012 RMK SLP200 T01161145 52035 IEM_DS3505
ZBAA,1998-10-30 19:00,ZBAA 301900Z AUTO 34008KT 7SM 08/M08 A3015 RMK SLP213 T00801080 IEM_DS3505
ZBAA,1998-10-30 20:00,ZBAA 302000Z AUTO 34010KT 7SM 08/M08 A3018 RMK SLP223 T00801080 IEM_DS3505
ZBAA,1998-10-30 21:00,ZBAA 302100Z AUTO 29012KT 19SM 09/M16 A3021 RMK SLP221 T00861163 52020 IEM_DS3505
ZBAA,1998-10-30 23:00,ZBAA 302300Z AUTO 31010KT 6SM 06/M14 A3024 RMK SLP243 T00601140 IEM_DS3505
ZBAA,1998-10-31 00:00,ZBAA 310000Z AUTO 34012KT 19SM 06/M15 A3027 RMK SLP237 T00651154 52016 IEM_DS3505
ZBAA,1998-10-31 02:00,ZBAA 310200Z AUTO 31016KT 6SM 07/M13 A3030 RMK SLP263 T00701130 IEM_DS3505
ZBAA,1998-10-31 03:00,ZBAA 310300Z AUTO 02004KT 19SM 08/M12 A3030 RMK SLP257 T00771121 52020 IEM_DS3505
ZBAA,1998-10-31 05:00,ZBAA 310500Z AUTO 28010KT 6SM 10/M12 A3024 RMK SLP243 T01001120 IEM_DS3505
ZBAA,1998-10-31 06:00,ZBAA 310600Z AUTO 09006KT 19SM 11/M12 A3021 RMK SLP232 T01111123 57025 IEM_DS3505
ZBAA,1998-10-31 07:00,ZBAA 310700Z AUTO 32006KT 7SM 12/M13 A3021 RMK SLP232 T01201130 IEM_DS3505
ZBAA,1998-10-31 08:00,ZBAA 310800Z AUTO ////02KT 7SM 12/M11 A3018 RMK SLP222 T01201110 IEM_DS3505
ZBAA,1998-10-31 09:00,ZBAA 310900Z AUTO 16006KT 16SM 10/M07 A3018 RMK SLP219 T00991069 57013 IEM_DS3505
ZBAA,1998-10-31 10:00,ZBAA 311000Z AUTO 15004KT 7SM 07/M04 A3018 RMK SLP223 T00701040 IEM_DS3505
ZBAA,1998-10-31 11:00,ZBAA 311100Z AUTO 15004KT 7SM 06/M04 A3018 RMK SLP223 T00601040 IEM_DS3505
ZBAA,1998-10-31 12:00,ZBAA 311200Z AUTO 20006KT 12SM 07/M05 A3018 RMK SLP225 T00681049 52005 IEM_DS3505
ZBAA,1998-10-31 13:00,ZBAA 311300Z AUTO 16004KT 7SM 05/M04 A3021 RMK SLP234 T00501040 IEM_DS3505
ZBAA,1998-10-31 14:00,ZBAA 311400Z AUTO 13004KT 7SM 04/M03 A3021 RMK SLP234 T00401030 IEM_DS3505
ZBAA,1998-10-31 15:00,ZBAA 311500Z AUTO 25008KT 10SM 05/M05 A3018 RMK SLP223 T00531053 57002 IEM_DS3505
ZBAA,1998-10-31 16:00,ZBAA 311600Z AUTO 14004KT 7SM 04/M04 A3015 RMK SLP214 T00401040 IEM_DS3505
ZBAA,1998-10-31 17:00,ZBAA 311700Z AUTO 14004KT 7SM 04/M04 A3015 RMK SLP214 T00401040 IEM_DS3505
ZBAA,1998-10-31 18:00,ZBAA 311800Z AUTO 14002KT 9SM 04/M03 A3012 RMK SLP200 T00371034 57022 IEM_DS3505
ZBAA,1998-10-31 19:00,ZBAA 311900Z AUTO 11004KT 7SM 03/M03 A3009 RMK SLP193 T00301030 IEM_DS3505
ZBAA,1998-10-31 20:00,ZBAA 312000Z AUTO 11002KT 7SM 02/M03 A3009 RMK SLP193 T00201030 IEM_DS3505
ZBAA,1998-10-31 21:00,ZBAA 312100Z AUTO 02004KT 9SM 02/M03 A3006 RMK SLP179 T00241026 57021 IEM_DS3505
ZBAA,1998-10-31 22:00,ZBAA 312200Z AUTO 01002KT 5SM 01/M03 A3003 RMK SLP173 T00101030 IEM_DS3505
ZBAA,1998-10-31 23:00,ZBAA 312300Z AUTO 00000KT RMK IEM_DS3505
ZBAA,1998-11-01 00:00,ZBAA 010000Z AUTO 02004KT 2 1/2SM 02/M02 A3003 RMK SLP170 T00221021 57010 IEM_DS3505
ZBAA,1998-11-01 01:00,ZBAA 010100Z AUTO 36002KT 4SM 05/M04 A3003 RMK SLP172 T00501040 IEM_DS3505
ZBAA,1998-11-01 02:00,ZBAA 010200Z AUTO ////02KT 5SM 07/M02 A2997 RMK SLP152 T00701020 IEM_DS3505
ZBAA,1998-11-01 03:00,ZBAA 010300Z AUTO 07002KT 4SM 07/M02 A2994 RMK SLP146 T00711021 57023 IEM_DS3505
ZBAA,1998-11-01 04:00,ZBAA 010400Z AUTO 14004KT 7SM 10/M03 A2991 RMK SLP131 T01001030 IEM_DS3505
ZBAA,1998-11-01 05:00,ZBAA 010500Z AUTO 17004KT 6SM 11/M03 A2985 RMK SLP111 T01101030 IEM_DS3505
ZBAA,1998-11-01 06:00,ZBAA 010600Z AUTO 22006KT 3SM 12/M01 A2983 RMK SLP100 T01171010 57046 IEM_DS3505
ZBAA,1998-11-01 07:00,ZBAA 010700Z AUTO 14002KT 6SM 12/M02 A2980 RMK SLP093 T01201020 IEM_DS3505
ZBAA,1998-11-01 08:00,ZBAA 010800Z AUTO 19002KT 5SM 11/M02 A2980 RMK SLP093 T01101020 IEM_DS3505
ZBAA,1998-11-01 09:00,ZBAA 010900Z AUTO 00000KT 4SM 10/01 A2983 RMK SLP091 T01030012 57009 IEM_DS3505
ZBAA,1998-11-01 10:00,ZBAA 011000Z AUTO 33004KT 4SM 10/00 A2983 RMK SLP104 T01000000 IEM_DS3505
ZBAA,1998-11-01 11:00,ZBAA 011100Z AUTO 35008KT 4SM 08/01 A2985 RMK SLP111 T00800010 IEM_DS3505
ZBAA,1998-11-01 12:00,ZBAA 011200Z AUTO 36006KT 4SM 10/M00 A2988 RMK SLP112 T01031001 52021 IEM_DS3505
ZBAA,1998-11-01 13:00,ZBAA 011300Z AUTO 28008KT 6SM 12/00 A2988 RMK SLP120 T01200000 IEM_DS3505
ZBAA,1998-11-01 14:00,ZBAA 011400Z AUTO 34004KT 6SM 11/01 A2991 RMK SLP131 T01100010 IEM_DS3505
ZBAA,1998-11-01 15:00,ZBAA 011500Z AUTO 00000KT 7SM 10/02 A2994 RMK SLP136 T01020022 52024 IEM_DS3505
ZBAA,1998-11-01 16:00,ZBAA 011600Z AUTO 36006KT 7SM 08/00 A2994 RMK SLP140 T00800000 IEM_DS3505
ZBAA,1998-11-01 23:00,ZBAA 012300Z AUTO 00000KT 7SM 05/M01 A3003 RMK SLP172 T00501010 IEM_DS3505
ZBAA,1998-11-02 00:00,ZBAA 020000Z AUTO 25006KT 19SM 08/M02 A3003 RMK SLP174 T00761018 52013 IEM_DS3505
ZBAA,1998-11-02 01:00,ZBAA 020100Z AUTO 00000KT 7SM 10/00 A3006 RMK SLP181 T01000000 IEM_DS3505
ZBAA,1998-11-02 03:00,ZBAA 020300Z AUTO 25008KT 12SM 16/M01 A3003 RMK SLP172 T01581014 57001 IEM_DS3505
ZBAA,1998-11-02 05:00,ZBAA 020500Z AUTO 21010G19KT 7SM 18/M04 A2997 RMK SLP149 T01801040 IEM_DS3505
ZBAA,1998-11-02 06:00,ZBAA 020600Z AUTO 22012KT 12SM 18/M03 A2994 RMK SLP142 T01851028 57030 IEM_DS3505
ZBAA,1998-11-02 07:00,ZBAA 020700Z AUTO 21008KT 7SM 19/M03 A2994 RMK SLP139 T01901030 IEM_DS3505
ZBAA,1998-11-02 08:00,ZBAA 020800Z AUTO 21010KT 7SM 18/M03 A2991 RMK SLP129 T01801030 IEM_DS3505
ZBAA,1998-11-02 09:00,ZBAA 020900Z AUTO 20006KT 9SM 17/00 A2991 RMK SLP135 T01670000 57008 IEM_DS3505
ZBAA,1998-11-02 11:00,ZBAA 021100Z AUTO 19006KT 7SM 13/M01 A2991 RMK SLP130 T01301010 IEM_DS3505
ZBAA,1998-11-02 12:00,ZBAA 021200Z AUTO 18006KT 12SM 12/01 A2991 RMK SLP137 T01240010 52002 IEM_DS3505
ZBAA,1998-11-02 13:00,ZBAA 021300Z AUTO 14002KT 7SM 11/01 A2994 RMK SLP141 T01100010 IEM_DS3505
ZBAA,1998-11-02 14:00,ZBAA 021400Z AUTO 08002KT 7SM 08/03 A2991 RMK SLP131 T00800030 IEM_DS3505
ZBAA,1998-11-02 15:00,ZBAA 021500Z AUTO 20008KT 12SM 12/M00 A2991 RMK SLP135 T01191001 57001 IEM_DS3505
ZBAA,1998-11-02 16:00,ZBAA 021600Z AUTO ////02KT 5SM 07/03 A2991 RMK SLP132 T00700030 IEM_DS3505
ZBAA,1998-11-02 17:00,ZBAA 021700Z AUTO 07002KT 5SM 06/03 A2991 RMK SLP132 T00600030 IEM_DS3505
ZBAA,1998-11-02 18:00,ZBAA 021800Z AUTO 20002KT 7SM 08/01 A2991 RMK SLP126 T00820010 57009 IEM_DS3505
ZBAA,1998-11-02 19:00,ZBAA 021900Z AUTO 06002KT 5SM 05/02 A2988 RMK SLP122 T00500020 IEM_DS3505
ZBAA,1998-11-02 20:00,ZBAA 022000Z AUTO 07002KT 5SM 05/02 A2988 RMK SLP122 T00500020 IEM_DS3505
ZBAA,1998-11-02 21:00,ZBAA 022100Z AUTO 00000KT 6SM 06/02 A2988 RMK SLP114 T00550015 57012 IEM_DS3505
ZBAA,1998-11-02 22:00,ZBAA 022200Z AUTO 03002KT 4SM 04/02 A2988 RMK SLP122 T00400020 IEM_DS3505
ZBAA,1998-11-02 23:00,ZBAA 022300Z AUTO 35002KT 4SM 04/01 A2988 RMK SLP122 T00400010 IEM_DS3505
ZBAA,1998-11-03 00:00,ZBAA 030000Z AUTO 02002KT 5SM 05/01 A2991 RMK SLP120 T00500012 52005 IEM_DS3505
ZBAA,1998-11-03 01:00,ZBAA 030100Z AUTO 09002KT 4SM 07/02 A2991 RMK SLP132 T00700020 IEM_DS3505
ZBAA,1998-11-03 02:00,ZBAA 030200Z AUTO 10002KT 3SM 09/04 A2988 RMK SLP121 T00900040 IEM_DS3505
ZBAA,1998-11-03 03:00,ZBAA 030300Z AUTO 04006KT 4SM 11/02 A2988 RMK SLP112 T01080021 57007 IEM_DS3505
ZBAA,1998-11-03 04:00,ZBAA 030400Z AUTO 15002KT 4SM 13/03 A2985 RMK SLP110 T01300030 IEM_DS3505
ZBAA,1998-11-03 06:00,ZBAA 030600Z AUTO 18002KT 4SM 14/04 A2986 RMK SLP092 T01420045 57020 IEM_DS3505
ZBAA,1998-11-03 07:00,ZBAA 030700Z AUTO 16004KT 4SM 15/04 A2980 RMK SLP093 T01500040 IEM_DS3505
ZBAA,1998-11-03 08:00,ZBAA 030800Z AUTO 15002KT 4SM 15/04 A2980 RMK SLP093 T01500040 IEM_DS3505
ZBAA,1998-11-03 09:00,ZBAA 030900Z AUTO 00000KT 3SM 13/06 A2983 RMK SLP097 T01320058 52004 IEM_DS3505
ZBAA,1998-11-03 10:00,ZBAA 031000Z AUTO 36002KT 2 1/2SM 12/05 A2988 RMK SLP120 T01200050 IEM_DS3505
ZBAA,1998-11-03 11:00,ZBAA 031100Z AUTO 35008KT 2 1/2SM 11/05 A2994 RMK SLP141 T01100050 IEM_DS3505
ZBAA,1998-11-03 12:00,ZBAA 031200Z AUTO 00000KT 6SM 11/05 A3000 RMK SLP149 T01060046 52052 IEM_DS3505
ZBAA,1998-11-03 13:00,ZBAA 031300Z AUTO 33012G21KT 7SM 16/M04 A3003 RMK SLP170 T01601040 IEM_DS3505
ZBAA,1998-11-03 14:00,ZBAA 031400Z AUTO 33017G29KT 7SM 15/M09 A3009 RMK SLP190 T01501090 IEM_DS3505
ZBAA,1998-11-03 15:00,ZBAA 031500Z AUTO 34012KT 9SM 14/M09 A3015 RMK SLP197 T01421093 52048 IEM_DS3505
ZBAA,1998-11-03 17:00,ZBAA 031700Z AUTO 32016KT 7SM 12/M05 A3018 RMK SLP222 T01201050 IEM_DS3505
ZBAA,1998-11-03 18:00,ZBAA 031800Z AUTO 34010KT 19SM 12/M08 A3021 RMK SLP225 T01211078 40159//// 52028 IEM_DS3505
ZBAA,1998-11-03 21:00,ZBAA 032100Z AUTO 02006KT 19SM 08/M05 A3027 RMK SLP251 T00851050 52026 IEM_DS3505
ZBAA,1998-11-03 22:00,ZBAA 032200Z AUTO 32004KT 7SM 07/M03 A3030 RMK SLP263 T00701030 IEM_DS3505
ZBAA,1998-11-03 23:00,ZBAA 032300Z AUTO 32004KT 6SM 06/M03 A3036 RMK SLP284 T00601030 IEM_DS3505
ZBAA,1998-11-04 00:00,ZBAA 040000Z AUTO 04004KT 12SM 09/M03 A3039 RMK SLP280 T00871027 52029 IEM_DS3505
ZBAA,1998-11-04 01:00,ZBAA 040100Z AUTO 01004KT 6SM 09/M03 A3039 RMK SLP294 T00901030 IEM_DS3505
ZBAA,1998-11-04 02:00,ZBAA 040200Z AUTO 02006KT 6SM 11/M04 A3039 RMK SLP294 T01101040 IEM_DS3505
ZBAA,1998-11-04 03:00,ZBAA 040300Z AUTO 04008KT 12SM 12/M04 A3039 RMK SLP288 T01231041 52008 IEM_DS3505
ZBAA,1998-11-04 04:00,ZBAA 040400Z AUTO ////04KT 6SM 13/M05 A3039 RMK SLP293 T01301050 IEM_DS3505
ZBAA,1998-11-04 05:00,ZBAA 040500Z AUTO 09002KT 6SM 14/M03 A3036 RMK SLP282 T01401030 IEM_DS3505
ZBAA,1998-11-04 06:00,ZBAA 040600Z AUTO 16004KT 10SM 15/M03 A3033 RMK SLP267 T01481026 57021 IEM_DS3505
ZBAA,1998-11-04 07:00,ZBAA 040700Z AUTO 16004KT 6SM 15/M06 A3030 RMK SLP262 T01501060 IEM_DS3505
ZBAA,1998-11-04 09:00,ZBAA 040900Z AUTO 14006KT 10SM 12/M02 A3030 RMK SLP263 T01211020 57004 IEM_DS3505
ZBAA,1998-11-04 10:00,ZBAA 041000Z AUTO 15004KT 6SM 11/M04 A3033 RMK SLP273 T01101040 IEM_DS3505
ZBAA,1998-11-04 11:00,ZBAA 041100Z AUTO 14002KT 7SM 09/M03 A3033 RMK SLP273 T00901030 IEM_DS3505
ZBAA,1998-11-04 12:00,ZBAA 041200Z AUTO 16004KT 9SM 09/M01 A3033 RMK SLP267 T00891010 52004 IEM_DS3505
ZBAA,1998-11-04 13:00,ZBAA 041300Z AUTO 15004KT 7SM 08/00 A3033 RMK SLP273 T00800000 IEM_DS3505
ZBAA,1998-11-04 14:00,ZBAA 041400Z AUTO 16004KT 7SM 07/02 A3036 RMK SLP283 T00700020 IEM_DS3505
ZBAA,1998-11-04 15:00,ZBAA 041500Z AUTO 18006KT 9SM 07/02 A3036 RMK SLP277 T00710025 52010 IEM_DS3505
ZBAA,1998-11-04 16:00,ZBAA 041600Z AUTO 05002KT 7SM 05/03 A3036 RMK SLP284 T00500030 IEM_DS3505
ZBAA,1998-11-04 17:00,ZBAA 041700Z AUTO 00000KT 5SM 04/02 A3036 RMK SLP284 T00400020 IEM_DS3505
ZBAA,1998-11-04 18:00,ZBAA 041800Z AUTO 00000KT 4SM 03/02 A3036 RMK SLP278 T00340019 52001 IEM_DS3505
ZBAA,1998-11-04 19:00,ZBAA 041900Z AUTO 08002KT 4SM 03/03 A3036 RMK SLP284 T00300030 IEM_DS3505
ZBAA,1998-11-04 20:00,ZBAA 042000Z AUTO 11004KT 4SM 03/02 A3033 RMK SLP274 T00300020 IEM_DS3505
ZBAA,1998-11-04 21:00,ZBAA 042100Z AUTO 00000KT 4SM 03/02 A3033 RMK SLP273 T00320019 57006 IEM_DS3505
ZBAA,1998-11-04 22:00,ZBAA 042200Z AUTO 00000KT 4SM 03/03 A3036 RMK SLP284 T00300030 IEM_DS3505
ZBAA,1998-11-04 23:00,ZBAA 042300Z AUTO 00000KT 3SM 03/03 A3033 RMK SLP274 T00300030 IEM_DS3505
ZBAA,1998-11-05 00:00,ZBAA 050000Z AUTO 00000KT 3SM 04/02 A3036 RMK SLP275 T00370024 52002 IEM_DS3505
ZBAA,1998-11-05 02:00,ZBAA 050200Z AUTO 12004KT 2 1/2SM 08/05 A3033 RMK SLP273 T00800050 IEM_DS3505
ZBAA,1998-11-05 03:00,ZBAA 050300Z AUTO 18006KT 6SM 10/04 A3033 RMK SLP263 T00990037 57011 IEM_DS3505
ZBAA,1998-11-05 04:00,ZBAA 050400Z AUTO 13006KT 7SM 11/04 A3030 RMK SLP262 T01100040 IEM_DS3505
ZBAA,1998-11-05 05:00,ZBAA 050500Z AUTO 15006KT 6SM 12/02 A3027 RMK SLP252 T01200020 IEM_DS3505
ZBAA,1998-11-05 06:00,ZBAA 050600Z AUTO 16006KT 12SM 12/01 A3028 RMK SLP235 T01200013 57028 IEM_DS3505
ZBAA,1998-11-05 07:00,ZBAA 050700Z AUTO 12006KT 7SM 12/02 A3021 RMK SLP232 T01200020 IEM_DS3505
ZBAA,1998-11-05 08:00,ZBAA 050800Z AUTO 14004KT 12/03 A3021 RMK SLP232 T01200030 IEM_DS3505
ZBAA,1998-11-05 09:00,ZBAA 050900Z AUTO 09004KT 6SM 10/05 A3018 RMK SLP223 T01000046 57013 IEM_DS3505
ZBAA,1998-11-05 10:00,ZBAA 051000Z AUTO 00000KT 4SM 09/05 A3018 RMK SLP223 T00900050 IEM_DS3505
ZBAA,1998-11-05 11:00,ZBAA 051100Z AUTO 00000KT 2 1/2SM 08/05 A3018 RMK SLP223 T00800050 IEM_DS3505
ZBAA,1998-11-05 12:00,ZBAA 051200Z AUTO 27004KT 4SM 07/05 A3018 RMK SLP217 T00720052 57006 IEM_DS3505
ZBAA,1998-11-05 13:00,ZBAA 051300Z AUTO 35004KT 4SM 06/04 A3018 RMK SLP223 T00600040 IEM_DS3505
ZBAA,1998-11-05 14:00,ZBAA 051400Z AUTO 03002KT 3SM 07/05 A3018 RMK SLP223 T00700050 IEM_DS3505
ZBAA,1998-11-05 15:00,ZBAA 051500Z AUTO 00000KT 3SM 08/05 A3018 RMK SLP216 T00820053 54000 IEM_DS3505
ZBAA,1998-11-05 16:00,ZBAA 051600Z AUTO 35002KT 3SM 07/04 A3015 RMK SLP213 T00700040 IEM_DS3505
ZBAA,1998-11-05 17:00,ZBAA 051700Z AUTO 31004KT 07/04 A3015 RMK SLP213 T00700040 IEM_DS3505
ZBAA,1998-11-05 18:00,ZBAA 051800Z AUTO 00000KT 4SM 08/05 A3015 RMK SLP212 T00750048 57004 IEM_DS3505
ZBAA,1998-11-05 20:00,ZBAA 052000Z AUTO 36002KT 4SM 05/04 RMK T00500040 IEM_DS3505
ZBAA,1998-11-05 21:00,ZBAA 052100Z AUTO 34004KT 3SM 07/02 A3015 RMK SLP209 T00660024 57003 IEM_DS3505
ZBAA,1998-11-05 22:00,ZBAA 052200Z AUTO 28006KT 4SM 06/03 A3015 RMK SLP213 T00600030 IEM_DS3505
ZBAA,1998-11-05 23:00,ZBAA 052300Z AUTO 30008KT 7SM 09/M02 A3018 RMK SLP223 T00901020 IEM_DS3505
ZBAA,1998-11-06 00:00,ZBAA 060000Z AUTO 34004KT 6SM 11/M05 A3018 RMK SLP220 T01111046 52011 IEM_DS3505
ZBAA,1998-11-06 01:00,ZBAA 060100Z AUTO 29010KT 7SM 12/M03 A3021 RMK SLP232 T01201030 IEM_DS3505
ZBAA,1998-11-06 02:00,ZBAA 060200Z AUTO 29014KT 7SM 13/M04 A3021 RMK SLP232 T01301040 IEM_DS3505
ZBAA,1998-11-06 03:00,ZBAA 060300Z AUTO 32012KT 12SM 14/M06 A3021 RMK SLP231 T01361055 52011 IEM_DS3505
ZBAA,1998-11-06 04:00,ZBAA 060400Z AUTO 31014KT 7SM 15/M04 A3021 RMK SLP231 T01501040 IEM_DS3505
ZBAA,1998-11-06 05:00,ZBAA 060500Z AUTO 28014KT 7SM 15/M05 A3018 RMK SLP221 T01501050 IEM_DS3505
ZBAA,1998-11-06 06:00,ZBAA 060600Z AUTO 29012KT 12SM 16/M07 A3018 RMK SLP219 T01551066 57012 IEM_DS3505
ZBAA,1998-11-06 07:00,ZBAA 060700Z AUTO 29014KT 7SM 16/M06 A3018 RMK SLP221 T01601060 IEM_DS3505
ZBAA,1998-11-06 08:00,ZBAA 060800Z AUTO 29012KT 7SM 15/M06 A3018 RMK SLP221 T01501060 IEM_DS3505
ZBAA,1998-11-06 09:00,ZBAA 060900Z AUTO 34006KT 16SM 15/M07 A3018 RMK SLP215 T01481072 57004 IEM_DS3505
ZBAA,1998-11-06 10:00,ZBAA 061000Z AUTO 30008KT 7SM 13/M05 A3018 RMK SLP222 T01301050 IEM_DS3505
ZBAA,1998-11-06 11:00,ZBAA 061100Z AUTO ////04KT 7SM 12/M04 A3018 RMK SLP222 T01201040 IEM_DS3505
ZBAA,1998-11-06 12:00,ZBAA 061200Z AUTO 00000KT 4SM 10/M01 A3018 RMK SLP218 T00981013 52003 IEM_DS3505
ZBAA,1998-11-06 13:00,ZBAA 061300Z AUTO 28002KT 6SM 10/M03 A3021 RMK SLP232 T01001030 IEM_DS3505
ZBAA,1998-11-06 14:00,ZBAA 061400Z AUTO ////02KT 6SM 10/M03 A3021 RMK SLP232 T01001030 IEM_DS3505
ZBAA,1998-11-06 15:00,ZBAA 061500Z AUTO 00000KT 4SM 08/M00 A3021 RMK SLP228 T00751003 52010 IEM_DS3505
ZBAA,1998-11-06 16:00,ZBAA 061600Z AUTO 31002KT 6SM 06/00 A3021 RMK SLP233 T00600000 IEM_DS3505
ZBAA,1998-11-06 17:00,ZBAA 061700Z AUTO 00000KT 6SM 05/01 A3021 RMK SLP234 T00500010 IEM_DS3505
ZBAA,1998-11-06 18:00,ZBAA 061800Z AUTO 00000KT 4SM 03/01 A3025 RMK SLP225 T00340008 57003 IEM_DS3505
ZBAA,1998-11-06 19:00,ZBAA 061900Z AUTO 35002KT 7SM 04/00 A3018 RMK SLP224 T00400000 IEM_DS3505
ZBAA,1998-11-06 20:00,ZBAA 062000Z AUTO 00000KT 7SM 04/00 A3018 RMK SLP224 T00400000 IEM_DS3505
ZBAA,1998-11-06 21:00,ZBAA 062100Z AUTO 00000KT 2 1/2SM 03/01 A3015 RMK SLP213 T00330009 57012 IEM_DS3505
ZBAA,1998-11-06 22:00,ZBAA 062200Z AUTO 00000KT 7SM 03/01 A3015 RMK SLP214 T00300010 IEM_DS3505
ZBAA,1998-11-06 23:00,ZBAA 062300Z AUTO 35004KT 7SM 02/00 A3015 RMK SLP214 T00200000 IEM_DS3505
ZBAA,1998-11-07 00:00,ZBAA 070000Z AUTO 00000KT 2 1/2SM 04/00 A3015 RMK SLP206 T00350003 57007 IEM_DS3505
ZBAA,1998-11-07 01:00,ZBAA 070100Z AUTO 05002KT 5SM 06/02 A3012 RMK SLP203 T00600020 IEM_DS3505
ZBAA,1998-11-07 02:00,ZBAA 070200Z AUTO 10002KT 7SM 08/00 A3009 RMK SLP192 T00800000 IEM_DS3505
ZBAA,1998-11-07 03:00,ZBAA 070300Z AUTO 07002KT 3SM 10/01 A3006 RMK SLP182 T01030011 57024 IEM_DS3505
ZBAA,1998-11-07 04:00,ZBAA 070400Z AUTO ////02KT 7SM 12/M01 A3003 RMK SLP171 T01201010 IEM_DS3505
ZBAA,1998-11-07 05:00,ZBAA 070500Z AUTO 13004KT 5SM 13/01 A2997 RMK SLP150 T01300010 IEM_DS3505
ZBAA,1998-11-07 06:00,ZBAA 070600Z AUTO 14004KT 3SM 14/03 A3002 RMK SLP147 T01380028 57035 IEM_DS3505
ZBAA,1998-11-07 07:00,ZBAA 070700Z AUTO 16004KT 4SM 14/00 A2991 RMK SLP130 T01400000 IEM_DS3505
ZBAA,1998-11-07 08:00,ZBAA 070800Z AUTO 19006KT 3SM 13/01 A2991 RMK SLP130 T01300010 IEM_DS3505
ZBAA,1998-11-07 09:00,ZBAA 070900Z AUTO 00000KT 4SM 13/02 A2988 RMK SLP122 T01280025 57025 IEM_DS3505
ZBAA,1998-11-07 10:00,ZBAA 071000Z AUTO 05002KT 1 1/2SM 10/04 A2988 RMK SLP121 T01000040 IEM_DS3505
ZBAA,1998-11-07 11:00,ZBAA 071100Z AUTO 06002KT 1 1/2SM 08/03 A2988 RMK SLP121 T00800030 IEM_DS3505
ZBAA,1998-11-07 12:00,ZBAA 071200Z AUTO 00000KT 2SM 07/03 A2988 RMK SLP117 T00740031 57005 IEM_DS3505
ZBAA,1998-11-07 13:00,ZBAA 071300Z AUTO ////02KT 1 1/2SM 07/03 A2988 RMK SLP121 T00700030 IEM_DS3505
ZBAA,1998-11-07 14:00,ZBAA 071400Z AUTO 35004KT 1 1/2SM 07/03 A2988 RMK SLP121 T00700030 IEM_DS3505
ZBAA,1998-11-07 15:00,ZBAA 071500Z AUTO 02006KT 1 1/4SM 08/03 A2985 RMK SLP108 T00800030 57009 IEM_DS3505
ZBAA,1998-11-07 16:00,ZBAA 071600Z AUTO 35004KT 1 1/2SM 06/02 A2985 RMK SLP112 T00600020 IEM_DS3505
ZBAA,1998-11-07 17:00,ZBAA 071700Z AUTO 31002KT 2SM 05/02 A2983 RMK SLP105 T00500020 IEM_DS3505
ZBAA,1998-11-07 18:00,ZBAA 071800Z AUTO 00000KT 2SM 06/03 A2980 RMK SLP094 T00560029 57014 IEM_DS3505
ZBAA,1998-11-07 19:00,ZBAA 071900Z AUTO 01002KT 2SM 05/02 A2980 RMK SLP095 T00500020 IEM_DS3505
ZBAA,1998-11-07 20:00,ZBAA 072000Z AUTO 34002KT 1 1/2SM 04/01 A2977 RMK SLP085 T00400010 IEM_DS3505
ZBAA,1998-11-07 21:00,ZBAA 072100Z AUTO 00000KT 1 1/4SM 04/02 A2977 RMK SLP085 T00380020 57009 IEM_DS3505
ZBAA,1998-11-07 22:00,ZBAA 072200Z AUTO 35004KT 2SM 04/01 A2980 RMK SLP095 T00400010 IEM_DS3505
ZBAA,1998-11-07 23:00,ZBAA 072300Z AUTO 35006KT 1 1/2SM 04/02 A2980 RMK SLP095 T00400020 IEM_DS3505
ZBAA,1998-11-08 00:00,ZBAA 080000Z AUTO 36004KT 2 1/2SM 08/02 A2983 RMK SLP093 T00850020 52008 IEM_DS3505
ZBAA,1998-11-08 01:00,ZBAA 080100Z AUTO 36004KT 1 1/2SM 08/04 A2983 RMK SLP104 T00800040 IEM_DS3505
ZBAA,1998-11-08 02:00,ZBAA 080200Z AUTO 32004KT 1 1/2SM 10/04 A2985 RMK SLP111 T01000040 IEM_DS3505
ZBAA,1998-11-08 03:00,ZBAA 080300Z AUTO 34008KT 6SM A2985 RMK SLP105 52013 IEM_DS3505
ZBAA,1998-11-08 04:00,ZBAA 080400Z AUTO 07002KT 2SM RMK IEM_DS3505
ZBAA,1998-11-08 05:00,ZBAA 080500Z AUTO 05002KT 3SM 16/04 A2983 RMK SLP102 T01600040 IEM_DS3505
ZBAA,1998-11-08 06:00,ZBAA 080600Z AUTO 34010KT 9SM 20/ A2985 RMK SLP100 57005 IEM_DS3505
ZBAA,1998-11-08 07:00,ZBAA 080700Z AUTO 08002KT 6SM 17/01 A2985 RMK SLP109 T01700010 IEM_DS3505
ZBAA,1998-11-08 08:00,ZBAA 080800Z AUTO 00000KT 6SM 17/M02 A2985 RMK SLP109 T01701020 IEM_DS3505
ZBAA,1998-11-08 09:00,ZBAA 080900Z AUTO 34008KT 6SM 17/M04 A2991 RMK SLP117 T01741043 52016 IEM_DS3505
ZBAA,1998-11-08 10:00,ZBAA 081000Z AUTO 05004KT 7SM 14/M02 A2994 RMK SLP140 T01401020 IEM_DS3505
ZBAA,1998-11-08 11:00,ZBAA 081100Z AUTO 05002KT 7SM 12/M03 A2997 RMK SLP151 T01201030 IEM_DS3505
ZBAA,1998-11-08 12:00,ZBAA 081200Z AUTO 07004KT 6SM 11/M04 A3003 RMK SLP162 T01141035 52045 IEM_DS3505
ZBAA,1998-11-08 13:00,ZBAA 081300Z AUTO 02004KT 7SM 11/M05 A3006 RMK SLP181 T01101050 IEM_DS3505
ZBAA,1998-11-08 14:00,ZBAA 081400Z AUTO 03004KT 7SM 10/M05 A3009 RMK SLP191 T01001050 IEM_DS3505
ZBAA,1998-11-08 15:00,ZBAA 081500Z AUTO 00000KT 6SM 08/M01 A3009 RMK SLP191 T00831008 52030 IEM_DS3505
ZBAA,1998-11-08 16:00,ZBAA 081600Z AUTO 01004KT 7SM 08/M05 A3012 RMK SLP203 T00801050 IEM_DS3505
ZBAA,1998-11-08 17:00,ZBAA 081700Z AUTO 32004KT 7SM 09/M05 A3015 RMK SLP213 T00901050 IEM_DS3505
ZBAA,1998-11-08 18:00,ZBAA 081800Z AUTO 34006KT 4SM 04/02 A3015 RMK SLP208 T00450017 52016 IEM_DS3505
ZBAA,1998-11-08 19:00,ZBAA 081900Z AUTO 33012KT 7SM 10/M06 A3015 RMK SLP212 T01001060 IEM_DS3505
ZBAA,1998-11-08 20:00,ZBAA 082000Z AUTO 34010KT 7SM 09/M07 A3018 RMK SLP223 T00901070 IEM_DS3505
ZBAA,1998-11-08 21:00,ZBAA 082100Z AUTO 32006KT 17SM 09/M07 A3018 RMK SLP214 T00931072 52006 IEM_DS3505
ZBAA,1998-11-09 00:00,ZBAA 090000Z AUTO 34004KT 6SM 09/M06 A3024 RMK SLP237 T00891061 52023 IEM_DS3505
ZBAA,1998-11-09 01:00,ZBAA 090100Z AUTO 31008KT 7SM 11/M08 A3024 RMK SLP241 T01101080 IEM_DS3505
ZBAA,1998-11-09 02:00,ZBAA 090200Z AUTO 31008KT 7SM 12/M09 A3024 RMK SLP241 T01201090 IEM_DS3505
ZBAA,1998-11-09 03:00,ZBAA 090300Z AUTO 32004KT 19SM 13/M08 A3024 RMK SLP239 T01301084 52002 IEM_DS3505
ZBAA,1998-11-09 04:00,ZBAA 090400Z AUTO 29006KT 7SM 14/M08 A3021 RMK SLP230 T01401080 IEM_DS3505
ZBAA,1998-11-09 05:00,ZBAA 090500Z AUTO 31010KT 7SM 14/M09 A3018 RMK SLP220 T01401090 IEM_DS3505
ZBAA,1998-11-09 06:00,ZBAA 090600Z AUTO 18004KT 12SM 16/M07 A3015 RMK SLP218 T01551066 57021 IEM_DS3505
ZBAA,1998-11-09 07:00,ZBAA 090700Z AUTO 31008KT 7SM 16/M08 A3015 RMK SLP210 T01601080 IEM_DS3505
ZBAA,1998-11-09 08:00,ZBAA 090800Z AUTO 18008KT 7SM 15/M06 A3015 RMK SLP210 T01501060 IEM_DS3505
ZBAA,1998-11-09 09:00,ZBAA 090900Z AUTO 22004KT 11SM 13/M02 A3015 RMK SLP212 T01321016 57006 IEM_DS3505
ZBAA,1998-11-09 10:00,ZBAA 091000Z AUTO 10004KT 7SM 10/M03 A3018 RMK SLP221 T01001030 IEM_DS3505
ZBAA,1998-11-09 11:00,ZBAA 091100Z AUTO 09002KT 7SM 09/M03 A3018 RMK SLP221 T00901030 IEM_DS3505
ZBAA,1998-11-09 12:00,ZBAA 091200Z AUTO 18006KT 9SM 10/M00 A3021 RMK SLP220 T00991005 52008 IEM_DS3505
ZBAA,1998-11-09 13:00,ZBAA 091300Z AUTO 10004KT 7SM 08/M03 A3021 RMK SLP232 T00801030 IEM_DS3505
ZBAA,1998-11-09 14:00,ZBAA 091400Z AUTO 12004KT 7SM 07/M03 A3021 RMK SLP232 T00701030 IEM_DS3505
ZBAA,1998-11-09 15:00,ZBAA 091500Z AUTO 11004KT 6SM 06/M01 A3021 RMK SLP229 T00651006 52009 IEM_DS3505
ZBAA,1998-11-09 16:00,ZBAA 091600Z AUTO 03002KT 4SM 05/M01 A3021 RMK SLP232 T00501010 IEM_DS3505
ZBAA,1998-11-09 17:00,ZBAA 091700Z AUTO 03002KT 4SM 04/00 A3021 RMK SLP233 T00400000 IEM_DS3505
ZBAA,1998-11-09 18:00,ZBAA 091800Z AUTO 00000KT 11SM 04/01 A3021 RMK SLP229 T00400006 54000 IEM_DS3505
ZBAA,1998-11-09 19:00,ZBAA 091900Z AUTO 35002KT 4SM 03/M02 A3021 RMK SLP233 T00301020 IEM_DS3505
ZBAA,1998-11-09 20:00,ZBAA 092000Z AUTO 36004KT 4SM 02/M01 A3021 RMK SLP233 T00201010 IEM_DS3505
ZBAA,1998-11-09 21:00,ZBAA 092100Z AUTO 00000KT 6SM 04/M01 A3021 RMK SLP226 T00351009 57003 IEM_DS3505
ZBAA,1998-11-09 22:00,ZBAA 092200Z AUTO 00000KT 4SM 02/M01 A3021 RMK SLP233 T00201010 IEM_DS3505
ZBAA,1998-11-09 23:00,ZBAA 092300Z AUTO 36002KT 5SM 03/00 A3021 RMK SLP233 T00300000 IEM_DS3505
ZBAA,1998-11-10 00:00,ZBAA 100000Z AUTO 00000KT 5SM 04/M01 A3021 RMK SLP229 T00431009 52003 IEM_DS3505
ZBAA,1998-11-10 02:00,ZBAA 100200Z AUTO 00000KT 7SM 08/00 A3021 RMK SLP232 T00800000 IEM_DS3505
ZBAA,1998-11-10 03:00,ZBAA 100300Z AUTO 09004KT 4SM 10/M00 A3021 RMK SLP221 T01051003 57008 IEM_DS3505
ZBAA,1998-11-10 04:00,ZBAA 100400Z AUTO ////02KT 5SM 12/M02 A3018 RMK SLP221 T01201020 IEM_DS3505
ZBAA,1998-11-10 05:00,ZBAA 100500Z AUTO 14004KT 5SM 13/M01 A3012 RMK SLP200 T01301010 IEM_DS3505
ZBAA,1998-11-10 06:00,ZBAA 100600Z AUTO 14004KT 4SM 13/02 A3009 RMK SLP195 T01310023 57026 IEM_DS3505
ZBAA,1998-11-10 07:00,ZBAA 100700Z AUTO 14002KT 5SM 14/00 A3009 RMK SLP189 T01400000 IEM_DS3505
ZBAA,1998-11-10 08:00,ZBAA 100800Z AUTO 17004KT 4SM 13/01 A3006 RMK SLP179 T01300010 IEM_DS3505
ZBAA,1998-11-10 09:00,ZBAA 100900Z AUTO 16002KT 4SM 12/03 A3006 RMK SLP179 T01190030 57016 IEM_DS3505
ZBAA,1998-11-10 10:00,ZBAA 101000Z AUTO 00000KT 2 1/2SM 09/02 A3006 RMK SLP180 T00900020 IEM_DS3505
ZBAA,1998-11-10 11:00,ZBAA 101100Z AUTO 00000KT 2SM 08/03 A3006 RMK SLP180 T00800030 IEM_DS3505
ZBAA,1998-11-10 12:00,ZBAA 101200Z AUTO 09004KT 2SM 06/04 A3009 RMK SLP184 T00630037 52004 IEM_DS3505
ZBAA,1998-11-10 13:00,ZBAA 101300Z AUTO 00000KT 1 1/2SM 07/04 A3009 RMK SLP191 T00700040 IEM_DS3505
ZBAA,1998-11-10 14:00,ZBAA 101400Z AUTO 35004KT 1 1/2SM 05/03 A3012 RMK SLP202 T00500030 IEM_DS3505
ZBAA,1998-11-10 15:00,ZBAA 101500Z AUTO 02004KT 2SM 07/03 A3015 RMK SLP203 T00670028 52020 IEM_DS3505
ZBAA,1998-11-10 16:00,ZBAA 101600Z AUTO 36002KT 2 1/2SM 06/02 A3015 RMK SLP212 T00600020 IEM_DS3505
ZBAA,1998-11-10 17:00,ZBAA 101700Z AUTO 34006KT 2 1/2SM 06/02 A3015 RMK SLP212 T00600020 IEM_DS3505
ZBAA,1998-11-10 18:00,ZBAA 101800Z AUTO 36004KT 4SM 08/01 A3018 RMK SLP212 T00840009 52009 IEM_DS3505
ZBAA,1998-11-10 19:00,ZBAA 101900Z AUTO 35008KT 4SM 06/01 A3018 RMK SLP222 T00600010 IEM_DS3505
ZBAA,1998-11-10 20:00,ZBAA 102000Z AUTO 36006KT 4SM 05/01 A3018 RMK SLP222 T00500010 IEM_DS3505
ZBAA,1998-11-10 21:00,ZBAA 102100Z AUTO 14004KT 4SM 07/M00 A3019 RMK SLP224 T00661002 52012 IEM_DS3505
ZBAA,1998-11-10 22:00,ZBAA 102200Z AUTO 35006KT 7SM 06/01 A3021 RMK SLP232 T00600010 IEM_DS3505
ZBAA,1998-11-10 23:00,ZBAA 102300Z AUTO 36006KT 7SM 04/00 A3024 RMK SLP243 T00400000 IEM_DS3505
ZBAA,1998-11-11 00:00,ZBAA 110000Z AUTO 04004KT 4SM 06/00 A3027 RMK SLP276 T00620002 52051 IEM_DS3505
ZBAA,1998-11-11 01:00,ZBAA 110100Z AUTO 00000KT 7SM 09/01 A3027 RMK SLP252 T00900010 IEM_DS3505
ZBAA,1998-11-11 02:00,ZBAA 110200Z AUTO 17006KT 7SM 12/02 A3027 RMK SLP251 T01200020 IEM_DS3505
ZBAA,1998-11-11 03:00,ZBAA 110300Z AUTO 20006KT 5SM 13/04 A3027 RMK SLP249 T01310043 52007 IEM_DS3505
ZBAA,1998-11-11 05:00,ZBAA 110500Z AUTO 20008KT 4SM 15/03 A3021 RMK SLP230 T01500030 IEM_DS3505
ZBAA,1998-11-11 06:00,ZBAA 110600Z AUTO 20008KT 6SM 16/03 A3018 RMK SLP221 T01580027 57028 IEM_DS3505
ZBAA,1998-11-11 08:00,ZBAA 110800Z AUTO 19006KT 4SM 15/02 A3015 RMK SLP210 T01500020 IEM_DS3505
ZBAA,1998-11-11 09:00,ZBAA 110900Z AUTO 22004KT 6SM 13/03 A3012 RMK SLP208 T01340028 57013 IEM_DS3505
ZBAA,1998-11-11 10:00,ZBAA 111000Z AUTO 19002KT 4SM 11/03 A3012 RMK SLP201 T01100030 IEM_DS3505
ZBAA,1998-11-11 11:00,ZBAA 111100Z AUTO 11004KT 5SM 09/03 A3015 RMK SLP211 T00900030 IEM_DS3505
ZBAA,1998-11-11 12:00,ZBAA 111200Z AUTO 00000KT 6SM 08/04 A3012 RMK SLP206 T00760041 57002 IEM_DS3505
ZBAA,1998-11-11 13:00,ZBAA 111300Z AUTO 20002KT 3SM 07/04 A3012 RMK SLP202 T00700040 IEM_DS3505
ZBAA,1998-11-11 14:00,ZBAA 111400Z AUTO 10002KT 2 1/2SM 06/04 A3012 RMK SLP202 T00600040 IEM_DS3505
ZBAA,1998-11-11 15:00,ZBAA 111500Z AUTO 00000KT 4SM 05/03 A3012 RMK SLP202 T00520030 57004 IEM_DS3505
ZBAA,1998-11-11 16:00,ZBAA 111600Z AUTO 35002KT 2SM 05/04 A3012 RMK SLP202 T00500040 IEM_DS3505
ZBAA,1998-11-11 17:00,ZBAA 111700Z AUTO 00000KT 1 1/2SM 04/04 A3009 RMK SLP191 T00400040 IEM_DS3505
ZBAA,1998-11-11 18:00,ZBAA 111800Z AUTO 00000KT 2SM 04/02 A3009 RMK SLP188 T00380025 57014 IEM_DS3505
ZBAA,1998-11-11 19:00,ZBAA 111900Z AUTO 34002KT 1 1/4SM 04/03 A3009 RMK SLP191 T00400030 IEM_DS3505
ZBAA,1998-11-11 20:00,ZBAA 112000Z AUTO 35002KT 1 1/4SM 04/03 A3006 RMK SLP181 T00400030 IEM_DS3505
ZBAA,1998-11-11 21:00,ZBAA 112100Z AUTO 00000KT 1/2SM 03/02 A3006 RMK SLP179 T00320024 57009 IEM_DS3505
ZBAA,1998-11-11 22:00,ZBAA 112200Z AUTO 01002KT 1 1/4SM 03/02 A3003 RMK SLP171 T00300020 IEM_DS3505
ZBAA,1998-11-11 23:00,ZBAA 112300Z AUTO 19002KT 1SM 02/02 A3003 RMK SLP172 T00200020 IEM_DS3505
ZBAA,1998-11-12 00:00,ZBAA 120000Z AUTO 00000KT 3/8SM 03/02 A3003 RMK SLP168 T00310021 57011 IEM_DS3505
ZBAA,1998-11-12 01:00,ZBAA 120100Z AUTO 00000KT 1SM 05/04 A3003 RMK SLP171 T00500040 IEM_DS3505
ZBAA,1998-11-12 02:00,ZBAA 120200Z AUTO 00000KT 1SM 08/05 A3000 RMK SLP160 T00800050 IEM_DS3505
ZBAA,1998-11-12 03:00,ZBAA 120300Z AUTO 02002KT 2SM 10/04 A2997 RMK SLP157 T01030045 57011 IEM_DS3505
ZBAA,1998-11-12 04:00,ZBAA 120400Z AUTO 05002KT 1 1/2SM 12/05 A2994 RMK SLP139 T01200050 IEM_DS3505
ZBAA,1998-11-12 05:00,ZBAA 120500Z AUTO 11006KT 1 1/2SM 12/07 A2991 RMK SLP129 T01200070 IEM_DS3505
ZBAA,1998-11-12 06:00,ZBAA 120600Z AUTO 11004KT 2SM 12/07 A2988 RMK SLP122 T01230074 57035 IEM_DS3505
ZBAA,1998-11-12 07:00,ZBAA 120700Z AUTO 14004KT 1 1/2SM 13/06 A2985 RMK SLP109 T01300060 IEM_DS3505
ZBAA,1998-11-12 08:00,ZBAA 120800Z AUTO 12002KT 1 1/2SM 12/06 A2985 RMK SLP109 T01200060 IEM_DS3505
ZBAA,1998-11-12 09:00,ZBAA 120900Z AUTO 00000KT 2SM 11/06 A2985 RMK SLP107 T01140063 57015 IEM_DS3505
ZBAA,1998-11-12 10:00,ZBAA 121000Z AUTO 00000KT 1SM 08/06 A2985 RMK SLP110 T00800060 IEM_DS3505
ZBAA,1998-11-12 12:00,ZBAA 121200Z AUTO 07004KT 1 1/4SM 07/06 A2985 RMK SLP108 T00730057 52001 IEM_DS3505
ZBAA,1998-11-12 13:00,ZBAA 121300Z AUTO 00000KT 1SM 07/07 A2985 RMK SLP110 T00700070 IEM_DS3505
ZBAA,1998-11-12 14:00,ZBAA 121400Z AUTO 29002KT 1SM 06/06 A2985 RMK SLP110 T00600060 IEM_DS3505
ZBAA,1998-11-12 15:00,ZBAA 121500Z AUTO 00000KT 1/4SM 04/04 A2985 RMK SLP104 T00440042 57004 IEM_DS3505
ZBAA,1998-11-12 16:00,ZBAA 121600Z AUTO 00000KT 3/8SM 05/05 A2983 RMK SLP104 T00500050 IEM_DS3505
ZBAA,1998-11-12 17:00,ZBAA 121700Z AUTO 35004KT 3/8SM 05/05 A2983 RMK SLP104 T00500050 IEM_DS3505
ZBAA,1998-11-12 18:00,ZBAA 121800Z AUTO 02002KT 3/8SM 04/04 A2983 RMK SLP097 T00390037 57007 IEM_DS3505
ZBAA,1998-11-12 19:00,ZBAA 121900Z AUTO 36002KT 1/2SM 03/03 A2980 RMK SLP094 T00300030 IEM_DS3505
ZBAA,1998-11-12 20:00,ZBAA 122000Z AUTO 34004KT 1/2SM 04/04 A2980 RMK SLP094 T00400040 IEM_DS3505
ZBAA,1998-11-12 21:00,ZBAA 122100Z AUTO 34002KT 1/2SM 05/04 A2977 RMK SLP086 T00490044 57011 IEM_DS3505
ZBAA,1998-11-12 22:00,ZBAA 122200Z AUTO 33004KT 1SM 03/03 A2977 RMK SLP084 T00300030 IEM_DS3505
ZBAA,1998-11-12 23:00,ZBAA 122300Z AUTO 33006KT 1SM 04/03 A2980 RMK SLP094 T00400030 IEM_DS3505
ZBAA,1998-11-13 00:00,ZBAA 130000Z AUTO 00000KT 1/8SM 01/01 A2980 RMK SLP088 T00130010 52002 IEM_DS3505
ZBAA,1998-11-13 01:00,ZBAA 130100Z AUTO 35004KT 1SM 07/04 A2980 RMK SLP093 T00700040 IEM_DS3505
ZBAA,1998-11-13 03:00,ZBAA 130300Z AUTO 20004KT 1SM 10/06 A2980 RMK SLP095 T00960059 52007 IEM_DS3505
ZBAA,1998-11-13 04:00,ZBAA 130400Z AUTO 24004KT 1 1/4SM 13/05 A2977 RMK SLP082 T01300050 IEM_DS3505
ZBAA,1998-11-13 05:00,ZBAA 130500Z AUTO 12002KT 2 1/2SM 16/03 A2977 RMK SLP081 T01600030 IEM_DS3505
ZBAA,1998-11-13 06:00,ZBAA 130600Z AUTO 22006KT 1 1/4SM 17/06 A2974 RMK SLP074 T01660065 57020 IEM_DS3505
ZBAA,1998-11-13 07:00,ZBAA 130700Z AUTO 17004KT 1SM 17/06 A2974 RMK SLP070 T01700060 IEM_DS3505
ZBAA,1998-11-13 08:00,ZBAA 130800Z AUTO 15002KT 1SM 16/07 A2974 RMK SLP070 T01600070 IEM_DS3505
ZBAA,1998-11-13 09:00,ZBAA 130900Z AUTO 00000KT 1SM 14/08 A2977 RMK SLP079 T01380078 52004 IEM_DS3505
ZBAA,1998-11-13 10:00,ZBAA 131000Z AUTO 00000KT RMK IEM_DS3505
ZBAA,1998-11-13 11:00,ZBAA 131100Z AUTO 07002KT 1SM 10/07 A2980 RMK SLP092 T01000070 IEM_DS3505
ZBAA,1998-11-13 12:00,ZBAA 131200Z AUTO 00000KT 1SM 08/06 A2980 RMK SLP092 T00800065 52013 IEM_DS3505
ZBAA,1998-11-13 13:00,ZBAA 131300Z AUTO 11002KT 1/2SM 07/06 A2983 RMK SLP103 T00700060 IEM_DS3505
ZBAA,1998-11-13 14:00,ZBAA 131400Z AUTO 04002KT 3/8SM 08/07 A2983 RMK SLP103 T00800070 IEM_DS3505
ZBAA,1998-11-13 15:00,ZBAA 131500Z AUTO 00000KT 1SM 06/06 A2985 RMK SLP102 T00620055 52010 IEM_DS3505
ZBAA,1998-11-13 16:00,ZBAA 131600Z AUTO 25002KT 1/2SM 06/06 A2985 RMK SLP110 T00600060 IEM_DS3505
ZBAA,1998-11-13 17:00,ZBAA 131700Z AUTO 00000KT 1/2SM 05/05 A2985 RMK SLP111 T00500050 IEM_DS3505
ZBAA,1998-11-13 18:00,ZBAA 131800Z AUTO 00000KT 3/8SM 03/03 A2985 RMK SLP107 T00300027 52005 IEM_DS3505
ZBAA,1998-11-13 19:00,ZBAA 131900Z AUTO 00000KT 1/2SM 04/04 A2985 RMK SLP111 T00400040 IEM_DS3505
ZBAA,1998-11-13 20:00,ZBAA 132000Z AUTO 18002KT 3/8SM 01/01 A2988 RMK SLP122 T00100010 IEM_DS3505
ZBAA,1998-11-13 21:00,ZBAA 132100Z AUTO 04004KT 1/8SM 05/05 A2988 RMK SLP116 T00510051 52009 IEM_DS3505
ZBAA,1998-11-13 22:00,ZBAA 132200Z AUTO 00000KT 1/2SM 04/04 A2991 RMK SLP131 T00400040 IEM_DS3505
ZBAA,1998-11-13 23:00,ZBAA 132300Z AUTO 00000KT 1SM 05/05 A2994 RMK SLP141 T00500050 IEM_DS3505
ZBAA,1998-11-14 00:00,ZBAA 140000Z AUTO 36006KT 1SM 06/05 A2997 RMK SLP142 T00610047 52026 IEM_DS3505
ZBAA,1998-11-14 01:00,ZBAA 140100Z AUTO 27006KT 1SM 07/05 A2997 RMK SLP150 T00700050 IEM_DS3505
ZBAA,1998-11-14 03:00,ZBAA 140300Z AUTO 07004KT 1 1/4SM 09/04 A2997 RMK SLP144 T00920045 52002 IEM_DS3505
ZBAA,1998-11-14 04:00,ZBAA 140400Z AUTO 29010KT 1SM 10/06 A2994 RMK SLP140 T01000060 IEM_DS3505
ZBAA,1998-11-14 06:00,ZBAA 140600Z AUTO 02004KT 1SM 12/06 A2988 RMK SLP122 T01160063 57022 IEM_DS3505
ZBAA,1998-11-14 07:00,ZBAA 140700Z AUTO 29002KT 1 1/4SM 13/07 A2988 RMK SLP119 T01300070 IEM_DS3505
ZBAA,1998-11-14 08:00,ZBAA 140800Z AUTO 24002KT 1 1/4SM 12/07 A2988 RMK SLP119 T01200070 IEM_DS3505
ZBAA,1998-11-14 09:00,ZBAA 140900Z AUTO 02002KT 1SM 10/07 A2988 RMK SLP118 T01040073 57004 IEM_DS3505
ZBAA,1998-11-14 10:00,ZBAA 141000Z AUTO 28004KT 1SM 11/07 A2991 RMK SLP129 T01100070 IEM_DS3505
ZBAA,1998-11-14 11:00,ZBAA 141100Z AUTO 00000KT 1SM 09/07 A2991 RMK SLP130 T00900070 IEM_DS3505
ZBAA,1998-11-14 12:00,ZBAA 141200Z AUTO 36004KT 1SM 07/06 A2991 RMK SLP128 T00730062 52010 IEM_DS3505
ZBAA,1998-11-14 13:00,ZBAA 141300Z AUTO 35004KT 1SM 07/06 A2994 RMK SLP140 T00700060 IEM_DS3505
ZBAA,1998-11-14 14:00,ZBAA 141400Z AUTO 32002KT 1SM 07/07 A2994 RMK SLP140 T00700070 IEM_DS3505
ZBAA,1998-11-14 15:00,ZBAA 141500Z AUTO 00000KT 1/8SM 05/05 A2994 RMK SLP142 T00500048 52014 IEM_DS3505
ZBAA,1998-11-14 16:00,ZBAA 141600Z AUTO 32004KT 1/2SM 06/06 A2994 RMK SLP141 T00600060 IEM_DS3505
ZBAA,1998-11-14 17:00,ZBAA 141700Z AUTO 32004KT 1/2SM 05/05 A2997 RMK SLP151 T00500050 IEM_DS3505
ZBAA,1998-11-14 18:00,ZBAA 141800Z AUTO 00000KT 0SM 03/03 A2997 RMK SLP147 T00290029 52005 IEM_DS3505
ZBAA,1998-11-14 20:00,ZBAA 142000Z AUTO 35004KT 1SM 06/05 A2997 RMK SLP151 T00600050 IEM_DS3505
ZBAA,1998-11-14 21:00,ZBAA 142100Z AUTO 04006KT 4SM 07/06 A2997 RMK SLP148 T00720065 52001 IEM_DS3505
ZBAA,1998-11-14 22:00,ZBAA 142200Z AUTO 35006KT 1 1/2SM 06/04 A3000 RMK SLP161 T00600040 IEM_DS3505
ZBAA,1998-11-14 23:00,ZBAA 142300Z AUTO 35002KT 2SM 07/03 A3000 RMK SLP160 T00700030 IEM_DS3505
ZBAA,1998-11-15 00:00,ZBAA 150000Z AUTO 02006KT 4SM 09/02 A3007 RMK SLP164 T00890025 52016 IEM_DS3505
ZBAA,1998-11-15 01:00,ZBAA 150100Z AUTO 02006KT 6SM 12/01 A3003 RMK SLP169 T01200010 IEM_DS3505
ZBAA,1998-11-15 02:00,ZBAA 150200Z AUTO 06004KT 6SM 13/M01 A3006 RMK SLP179 T01301010 IEM_DS3505
ZBAA,1998-11-15 03:00,ZBAA 150300Z AUTO 04006KT 6SM 14/M00 A3006 RMK SLP176 T01431003 52012 IEM_DS3505
ZBAA,1998-11-15 04:00,ZBAA 150400Z AUTO 03008KT 7SM 15/M04 A3003 RMK SLP169 T01501040 IEM_DS3505
ZBAA,1998-11-15 05:00,ZBAA 150500Z AUTO 04004KT 6SM 16/M04 A3000 RMK SLP159 T01601040 IEM_DS3505
ZBAA,1998-11-15 06:00,ZBAA 150600Z AUTO 14006KT 4SM 14/08 A3000 RMK SLP164 T01370078 57012 IEM_DS3505
ZBAA,1998-11-15 07:00,ZBAA 150700Z AUTO 15002KT 6SM 15/00 A3000 RMK SLP159 T01500000 IEM_DS3505
ZBAA,1998-11-15 08:00,ZBAA 150800Z AUTO 17004KT 1 1/4SM 13/08 A3003 RMK SLP169 T01300080 IEM_DS3505
ZBAA,1998-11-15 09:00,ZBAA 150900Z AUTO 14004KT 4SM 12/07 A3000 RMK SLP165 T01210066 52001 IEM_DS3505
ZBAA,1998-11-15 10:00,ZBAA 151000Z AUTO 15002KT 1 1/4SM 12/06 A3003 RMK SLP169 T01200060 IEM_DS3505
ZBAA,1998-11-15 11:00,ZBAA 151100Z AUTO 18006KT 2SM 12/05 A3006 RMK SLP180 T01200050 IEM_DS3505
ZBAA,1998-11-15 12:00,ZBAA 151200Z AUTO 14010KT 6SM 10/03 A3009 RMK SLP196 T01020033 52031 IEM_DS3505
ZBAA,1998-11-15 13:00,ZBAA 151300Z AUTO 13004KT 6SM 10/M05 A3012 RMK SLP201 T01001050 IEM_DS3505
ZBAA,1998-11-15 14:00,ZBAA 151400Z AUTO 16004KT 6SM 08/M07 A3012 RMK SLP202 T00801070 IEM_DS3505
ZBAA,1998-11-15 15:00,ZBAA 151500Z AUTO 11002KT 6SM 08/M04 A3012 RMK SLP203 T00831041 52007 IEM_DS3505
ZBAA,1998-11-15 16:00,ZBAA 151600Z AUTO 19006KT 7SM 06/M07 A3012 RMK SLP202 T00601070 IEM_DS3505
ZBAA,1998-11-15 21:00,ZBAA 152100Z AUTO 00000KT 6SM 04/M03 A3015 RMK SLP203 T00441031 52001 IEM_DS3505
ZBAA,1998-11-15 22:00,ZBAA 152200Z AUTO 02002KT 6SM 05/M06 A3015 RMK SLP212 T00501060 IEM_DS3505
ZBAA,1998-11-15 23:00,ZBAA 152300Z AUTO 04004KT 6SM 05/M06 A3015 RMK SLP212 T00501060 IEM_DS3505
ZBAA,1998-11-16 00:00,ZBAA 160000Z AUTO 00000KT 6SM 04/M03 A3018 RMK SLP215 T00411032 52012 IEM_DS3505
ZBAA,1998-11-16 01:00,ZBAA 160100Z AUTO 02006KT 6SM 05/M08 A3018 RMK SLP222 T00501080 IEM_DS3505
ZBAA,1998-11-16 02:00,ZBAA 160200Z AUTO 05002KT 6SM 06/M08 A3018 RMK SLP222 T00601080 IEM_DS3505
ZBAA,1998-11-16 03:00,ZBAA 160300Z AUTO 20004KT 6SM 06/M05 A3018 RMK SLP222 T00581053 52007 IEM_DS3505
ZBAA,1998-11-16 04:00,ZBAA 160400Z AUTO ////02KT 7SM 07/M08 A3015 RMK SLP212 T00701080 IEM_DS3505
ZBAA,1998-11-16 05:00,ZBAA 160500Z AUTO ////02KT 7SM 08/M08 A3012 RMK SLP202 T00801080 IEM_DS3505
ZBAA,1998-11-16 06:00,ZBAA 160600Z AUTO 22008G25KT 7SM 08/M06 A3012 RMK SLP205 T00851059 57017 IEM_DS3505
ZBAA,1998-11-16 08:00,ZBAA 160800Z AUTO 31021KT 7SM 09/M18 A3015 RMK SLP211 T00901180 IEM_DS3505
ZBAA,1998-11-16 09:00,ZBAA 160900Z AUTO 32019G27KT 6SM 07/M21 A3018 RMK SLP220 T00721208 52014 IEM_DS3505
ZBAA,1998-11-16 10:00,ZBAA 161000Z AUTO 31016KT 7SM 06/M18 A3024 RMK SLP242 T00601180 IEM_DS3505
ZBAA,1998-11-16 11:00,ZBAA 161100Z AUTO 34016KT 7SM 05/M17 A3027 RMK SLP252 T00501170 IEM_DS3505
ZBAA,1998-11-16 12:00,ZBAA 161200Z AUTO 32012G23KT 19SM 05/M23 A3030 RMK SLP256 T00471234 52036 IEM_DS3505
ZBAA,1998-11-16 13:00,ZBAA 161300Z AUTO 35016KT 7SM 03/M15 A3030 RMK SLP263 T00301150 IEM_DS3505
ZBAA,1998-11-16 14:00,ZBAA 161400Z AUTO 35017KT 7SM 02/M16 A3033 RMK SLP273 T00201160 IEM_DS3505
ZBAA,1998-11-16 15:00,ZBAA 161500Z AUTO 34006G29KT 19SM 02/M17 A3033 RMK SLP271 T00251170 52015 IEM_DS3505
ZBAA,1998-11-16 16:00,ZBAA 161600Z AUTO 35012KT 7SM 01/M18 A3033 RMK SLP274 T00101180 IEM_DS3505
ZBAA,1998-11-16 17:00,ZBAA 161700Z AUTO 34008KT 7SM 01/M17 A3033 RMK SLP274 T00101170 IEM_DS3505
ZBAA,1998-11-16 18:00,ZBAA 161800Z AUTO 34004KT 19SM 00/M15 A3033 RMK SLP271 T00021148 54000 IEM_DS3505
ZBAA,1998-11-16 19:00,ZBAA 161900Z AUTO 35016G25KT 7SM 00/M19 A3033 RMK SLP274 T00001190 IEM_DS3505
ZBAA,1998-11-16 20:00,ZBAA 162000Z AUTO 35012KT 7SM M01/M17 A3030 RMK SLP264 T10101170 IEM_DS3505
ZBAA,1998-11-16 21:00,ZBAA 162100Z AUTO 02004KT 19SM M01/M16 A3030 RMK SLP264 T10101156 57007 IEM_DS3505
ZBAA,1998-11-16 22:00,ZBAA 162200Z AUTO 29004KT 7SM M02/M18 A3030 RMK SLP264 T10201180 IEM_DS3505
ZBAA,1998-11-16 23:00,ZBAA 162300Z AUTO 26002KT 7SM M02/M17 A3033 RMK SLP274 T10201170 IEM_DS3505
ZBAA,1998-11-17 00:00,ZBAA 170000Z AUTO 34006KT 19SM M00/M19 A3033 RMK SLP270 T10011189 52006 IEM_DS3505
ZBAA,1998-11-17 01:00,ZBAA 170100Z AUTO 31014G23KT 7SM 01/M19 A3036 RMK SLP284 T00101190 IEM_DS3505
ZBAA,1998-11-17 03:00,ZBAA 170300Z AUTO 32019KT 12SM 01/M27 A3039 RMK SLP285 T00111266 52015 IEM_DS3505
ZBAA,1998-11-17 04:00,ZBAA 170400Z AUTO 35019KT 7SM 01/M26 A3039 RMK SLP295 T00101260 IEM_DS3505
ZBAA,1998-11-17 05:00,ZBAA 170500Z AUTO 34019G31KT 7SM 01/M25 A3036 RMK SLP284 T00101250 IEM_DS3505
ZBAA,1998-11-17 06:00,ZBAA 170600Z AUTO 29017G29KT 19SM 01/M29 A3036 RMK SLP281 T00101294 57005 IEM_DS3505
ZBAA,1998-11-17 07:00,ZBAA 170700Z AUTO 34017G27KT 7SM 01/M23 A3036 RMK SLP284 T00101230 IEM_DS3505
ZBAA,1998-11-17 09:00,ZBAA 170900Z AUTO 32010G23KT 19SM M00/M22 A3039 RMK SLP285 T10031225 52004 IEM_DS3505
ZBAA,1998-11-17 10:00,ZBAA 171000Z AUTO 35016KT 7SM M02/M25 A3042 RMK SLP305 T10201250 IEM_DS3505
ZBAA,1998-11-17 11:00,ZBAA 171100Z AUTO 36014G23KT 7SM M03/M24 A3045 RMK SLP316 T10301240 IEM_DS3505
ZBAA,1998-11-17 12:00,ZBAA 171200Z AUTO 36012G27KT 16SM M03/M30 A3047 RMK SLP314 T10321302 52029 IEM_DS3505
ZBAA,1998-11-17 13:00,ZBAA 171300Z AUTO 36016KT 7SM M04/M26 A3047 RMK SLP323 T10401260 IEM_DS3505
ZBAA,1998-11-17 14:00,ZBAA 171400Z AUTO 36012KT 7SM M05/M26 A3050 RMK SLP333 T10501260 IEM_DS3505
ZBAA,1998-11-17 15:00,ZBAA 171500Z AUTO 34008KT 19SM M05/M26 A3050 RMK SLP327 T10471261 52013 IEM_DS3505
ZBAA,1998-11-17 17:00,ZBAA 171700Z AUTO 02004KT 7SM M06/M21 A3047 RMK SLP323 T10601210 IEM_DS3505
ZBAA,1998-11-17 18:00,ZBAA 171800Z AUTO 02002KT 19SM M06/M19 A3047 RMK SLP320 T10641191 57007 IEM_DS3505
ZBAA,1998-11-17 19:00,ZBAA 171900Z AUTO 00000KT 7SM M08/M18 A3045 RMK SLP317 T10801180 IEM_DS3505
ZBAA,1998-11-17 20:00,ZBAA 172000Z AUTO 14002KT 7SM M08/M17 A3045 RMK SLP317 T10801170 IEM_DS3505
ZBAA,1998-11-17 21:00,ZBAA 172100Z AUTO 25004KT 19SM M07/M20 A3045 RMK SLP309 T10661205 57011 IEM_DS3505
ZBAA,1998-11-17 22:00,ZBAA 172200Z AUTO 00000KT 7SM M08/M16 A3042 RMK SLP307 T10801160 IEM_DS3505
ZBAA,1998-11-17 23:00,ZBAA 172300Z AUTO 21006KT 7SM M07/M16 A3042 RMK SLP307 T10701160 IEM_DS3505
ZBAA,1998-11-18 00:00,ZBAA 180000Z AUTO 22008KT 19SM M06/M22 A3042 RMK SLP309 T10631219 57001 IEM_DS3505
ZBAA,1998-11-18 01:00,ZBAA 180100Z AUTO 22010KT 7SM M04/M20 A3042 RMK SLP306 T10401200 IEM_DS3505
ZBAA,1998-11-18 02:00,ZBAA 180200Z AUTO 23010KT 7SM M03/M20 A3042 RMK SLP306 T10301200 IEM_DS3505
ZBAA,1998-11-18 03:00,ZBAA 180300Z AUTO 22012KT 12SM M02/M24 A3039 RMK SLP300 T10241243 57008 IEM_DS3505
ZBAA,1998-11-18 04:00,ZBAA 180400Z AUTO 21008KT 6SM M01/M21 A3036 RMK SLP284 T10101210 IEM_DS3505
ZBAA,1998-11-18 06:00,ZBAA 180600Z AUTO 20014KT 12SM M00/M25 A3030 RMK SLP261 T10021249 57039 IEM_DS3505
ZBAA,1998-11-18 08:00,ZBAA 180800Z AUTO 21010KT 7SM 00/M19 A3027 RMK SLP254 T00001190 IEM_DS3505
ZBAA,1998-11-18 09:00,ZBAA 180900Z AUTO 20010KT 9SM M01/M20 A3027 RMK SLP250 T10091199 57011 IEM_DS3505
ZBAA,1998-11-18 10:00,ZBAA 181000Z AUTO 19004KT 7SM M03/M17 A3027 RMK SLP254 T10301170 IEM_DS3505
ZBAA,1998-11-18 11:00,ZBAA 181100Z AUTO 12004KT 6SM M03/M14 A3027 RMK SLP254 T10301140 IEM_DS3505
ZBAA,1998-11-18 12:00,ZBAA 181200Z AUTO 25004KT 12SM M03/M14 A3030 RMK SLP255 T10331141 52005 IEM_DS3505
ZBAA,1998-11-18 13:00,ZBAA 181300Z AUTO 11004KT 4SM M04/M13 A3030 RMK SLP265 T10401130 IEM_DS3505
ZBAA,1998-11-18 14:00,ZBAA 181400Z AUTO 12002KT 4SM M05/M13 A3033 RMK SLP275 T10501130 IEM_DS3505
ZBAA,1998-11-18 15:00,ZBAA 181500Z AUTO 09004KT 12SM M05/M11 A3033 RMK SLP264 T10511111 52009 IEM_DS3505
ZBAA,1998-11-18 16:00,ZBAA 181600Z AUTO 00000KT 4SM M05/M14 A3033 RMK SLP275 T10501140 IEM_DS3505
ZBAA,1998-11-18 17:00,ZBAA 181700Z AUTO 36006KT 4SM M06/M11 A3036 RMK SLP285 T10601110 IEM_DS3505
ZBAA,1998-11-18 18:00,ZBAA 181800Z AUTO 02004KT 9SM M06/M12 A3036 RMK SLP270 T10581116 52006 IEM_DS3505
ZBAA,1998-11-18 19:00,ZBAA 181900Z AUTO 36004KT 3SM M06/M12 A3036 RMK SLP285 T10601120 IEM_DS3505
ZBAA,1998-11-18 20:00,ZBAA 182000Z AUTO 35006KT 4SM M06/M13 A3036 RMK SLP285 T10601130 IEM_DS3505
ZBAA,1998-11-18 21:00,ZBAA 182100Z AUTO 07004KT 9SM M05/M12 A3036 RMK SLP274 T10541122 52004 IEM_DS3505
ZBAA,1998-11-18 23:00,ZBAA 182300Z AUTO 35004KT 4SM M06/M12 A3039 RMK SLP296 T10601120 IEM_DS3505
ZBAA,1998-11-19 00:00,ZBAA 190000Z AUTO 00000KT 4SM M05/M11 A3042 RMK SLP297 T10491114 52023 IEM_DS3505
ZBAA,1998-11-19 01:00,ZBAA 190100Z AUTO 04004KT 5SM M02/M12 A3042 RMK SLP305 T10201120 IEM_DS3505
ZBAA,1998-11-19 02:00,ZBAA 190200Z AUTO 10004KT 7SM M01/M13 A3045 RMK SLP315 T10101130 IEM_DS3505
ZBAA,1998-11-19 03:00,ZBAA 190300Z AUTO 07004KT 5SM 01/M14 A3045 RMK SLP304 T00071138 52007 IEM_DS3505
ZBAA,1998-11-19 04:00,ZBAA 190400Z AUTO ////04KT 7SM 02/M16 A3039 RMK SLP294 T00201160 IEM_DS3505
ZBAA,1998-11-19 05:00,ZBAA 190500Z AUTO 16002KT 7SM 03/M18 A3039 RMK SLP294 T00301180 IEM_DS3505
ZBAA,1998-11-19 06:00,ZBAA 190600Z AUTO 20006KT 6SM 03/M16 A3036 RMK SLP287 T00271157 57017 IEM_DS3505
ZBAA,1998-11-19 07:00,ZBAA 190700Z AUTO 19006KT 4SM 04/M15 A3036 RMK SLP283 T00401150 IEM_DS3505
ZBAA,1998-11-19 08:00,ZBAA 190800Z AUTO 19006KT 4SM 02/M14 A3036 RMK SLP283 T00201140 IEM_DS3505
ZBAA,1998-11-19 09:00,ZBAA 190900Z AUTO 18002KT 4SM 02/M14 A3036 RMK SLP281 T00191138 57006 IEM_DS3505
ZBAA,1998-11-19 10:00,ZBAA 191000Z AUTO 14002KT 3SM 00/M13 A3036 RMK SLP284 T00001130 IEM_DS3505
ZBAA,1998-11-19 11:00,ZBAA 191100Z AUTO 11002KT 3SM M02/M12 A3039 RMK SLP295 T10201120 IEM_DS3505
ZBAA,1998-11-19 12:00,ZBAA 191200Z AUTO 00000KT 7SM M02/M11 A3039 RMK SLP286 T10181107 52005 IEM_DS3505
ZBAA,1998-11-19 13:00,ZBAA 191300Z AUTO 00000KT 2 1/2SM M03/M10 A3039 RMK SLP296 T10301100 IEM_DS3505
ZBAA,1998-11-19 14:00,ZBAA 191400Z AUTO 11002KT 2SM M03/M09 A3039 RMK SLP296 T10301090 IEM_DS3505
ZBAA,1998-11-19 15:00,ZBAA 191500Z AUTO 16004KT 5SM M03/M11 A3039 RMK SLP286 T10301111 54000 IEM_DS3505
ZBAA,1998-11-19 16:00,ZBAA 191600Z AUTO 11002KT 1 1/4SM M03/M10 A3039 RMK SLP296 T10301100 IEM_DS3505
ZBAA,1998-11-19 17:00,ZBAA 191700Z AUTO 15004KT 1 1/4SM M04/M09 A3036 RMK SLP285 T10401090 IEM_DS3505
ZBAA,1998-11-19 18:00,ZBAA 191800Z AUTO 00000KT 3SM M04/M11 A3036 RMK SLP275 T10351114 57011 IEM_DS3505
ZBAA,1998-11-19 19:00,ZBAA 191900Z AUTO 06002KT 2SM M04/M10 A3036 RMK SLP285 T10401100 IEM_DS3505
ZBAA,1998-11-19 20:00,ZBAA 192000Z AUTO 00000KT 2SM M05/M10 A3033 RMK SLP275 T10501100 IEM_DS3505
ZBAA,1998-11-19 21:00,ZBAA 192100Z AUTO 02002KT 2SM M05/M10 A3033 RMK SLP269 T10471095 57006 IEM_DS3505
ZBAA,1998-11-19 22:00,ZBAA 192200Z AUTO 34002KT 2SM M05/M10 A3033 RMK SLP275 T10501100 IEM_DS3505
ZBAA,1998-11-19 23:00,ZBAA 192300Z AUTO 35004KT 2SM M05/M10 A3033 RMK SLP275 T10501100 IEM_DS3505
ZBAA,1998-11-20 00:00,ZBAA 200000Z AUTO 02004KT 2SM M04/M10 A3036 RMK SLP271 T10381097 52002 IEM_DS3505
ZBAA,1998-11-20 02:00,ZBAA 200200Z AUTO 36002KT 2 1/2SM 00/M09 A3036 RMK SLP284 T00001090 IEM_DS3505
ZBAA,1998-11-20 03:00,ZBAA 200300Z AUTO 04004KT 3SM 01/M10 A3036 RMK SLP275 T00141104 52004 IEM_DS3505
ZBAA,1998-11-20 04:00,ZBAA 200400Z AUTO 03002KT 3SM 03/M09 A3033 RMK SLP273 T00301090 IEM_DS3505
ZBAA,1998-11-20 05:00,ZBAA 200500Z AUTO ////02KT 3SM 05/M10 A3030 RMK SLP263 T00501100 IEM_DS3505
ZBAA,1998-11-20 06:00,ZBAA 200600Z AUTO 07004KT 2 1/2SM 05/M09 A3035 RMK SLP259 T00481090 57016 IEM_DS3505
ZBAA,1998-11-20 07:00,ZBAA 200700Z AUTO ////02KT 3SM 06/M10 A3030 RMK SLP262 T00601100 IEM_DS3505
ZBAA,1998-11-20 08:00,ZBAA 200800Z AUTO 21004KT 3SM 05/M09 A3030 RMK SLP263 T00501090 IEM_DS3505
ZBAA,1998-11-20 09:00,ZBAA 200900Z AUTO 00000KT 2 1/2SM 03/M07 A3030 RMK SLP260 T00321069 52001 IEM_DS3505
ZBAA,1998-11-20 10:00,ZBAA 201000Z AUTO 00000KT 2 1/2SM 01/M08 A3033 RMK SLP274 T00101080 IEM_DS3505
ZBAA,1998-11-20 11:00,ZBAA 201100Z AUTO 00000KT 2SM 02/M09 A3036 RMK SLP283 T00201090 IEM_DS3505
ZBAA,1998-11-20 12:00,ZBAA 201200Z AUTO 00000KT 2SM M01/M06 A3036 RMK SLP281 T10081059 52021 IEM_DS3505
ZBAA,1998-11-20 13:00,ZBAA 201300Z AUTO 00000KT 1 1/4SM 00/M08 A3039 RMK SLP295 T00001080 IEM_DS3505
ZBAA,1998-11-20 14:00,ZBAA 201400Z AUTO 00000KT 1 1/4SM 00/M07 A3039 RMK SLP295 T00001070 IEM_DS3505
ZBAA,1998-11-20 15:00,ZBAA 201500Z AUTO 00000KT 1SM M01/M05 A3039 RMK SLP288 T10111047 52007 IEM_DS3505
ZBAA,1998-11-20 16:00,ZBAA 201600Z AUTO 00000KT 1 1/4SM 00/M06 A3039 RMK SLP295 T00001060 IEM_DS3505
ZBAA,1998-11-20 17:00,ZBAA 201700Z AUTO 00000KT 1SM M01/M04 A3039 RMK SLP295 T10101040 IEM_DS3505
ZBAA,1998-11-20 18:00,ZBAA 201800Z AUTO 00000KT 1SM M00/M02 A3039 RMK SLP293 T10041025 52006 IEM_DS3505
ZBAA,1998-11-20 19:00,ZBAA 201900Z AUTO 13002KT 1 1/4SM 00/M06 A3039 RMK SLP295 T00001060 IEM_DS3505
ZBAA,1998-11-20 20:00,ZBAA 202000Z AUTO 12008KT 4SM 00/M03 A3039 RMK SLP295 T00001030 IEM_DS3505
ZBAA,1998-11-20 21:00,ZBAA 202100Z AUTO 11008KT 6SM 01/M03 A3039 RMK SLP288 T00071033 57005 IEM_DS3505
ZBAA,1998-11-20 22:00,ZBAA 202200Z AUTO 16002KT 6SM 01/M03 A3039 RMK SLP295 T00101030 IEM_DS3505
ZBAA,1998-11-20 23:00,ZBAA 202300Z AUTO 14006KT 1SM 01/M02 A3039 RMK SLP295 T00101020 IEM_DS3505
ZBAA,1998-11-21 00:00,ZBAA 210000Z AUTO 07004KT 1 1/4SM M01/M01 A3042 RMK 60001 70001 SLP293 T10081012 52004 IEM_DS3505
ZBAA,1998-11-21 01:00,ZBAA 210100Z AUTO 14006KT 1/2SM M02/M02 A3042 RMK SLP305 T10201020 IEM_DS3505
ZBAA,1998-11-21 02:00,ZBAA 210200Z AUTO 13008KT 3/8SM M02/M02 A3042 RMK SLP305 T10201020 IEM_DS3505
ZBAA,1998-11-21 05:00,ZBAA 210500Z AUTO 14006KT 3/8SM M02/M03 A3042 RMK SLP305 T10201030 IEM_DS3505
ZBAA,1998-11-21 06:00,ZBAA 210600Z AUTO 07008KT 1/2SM M03/M04 A3046 RMK 60031 SLP296 T10281039 57004 IEM_DS3505
ZBAA,1998-11-21 07:00,ZBAA 210700Z AUTO 00000KT 1SM M03/M03 A3042 RMK SLP306 T10301030 IEM_DS3505
ZBAA,1998-11-21 08:00,ZBAA 210800Z AUTO 12002KT 1SM M03/M03 A3045 RMK SLP316 T10301030 IEM_DS3505
ZBAA,1998-11-21 09:00,ZBAA 210900Z AUTO 34002KT 4SM M03/M04 A3045 RMK SLP307 T10291043 52011 IEM_DS3505
ZBAA,1998-11-21 10:00,ZBAA 211000Z AUTO ////02KT 4SM M03/M04 A3045 RMK SLP316 T10301040 IEM_DS3505
ZBAA,1998-11-21 11:00,ZBAA 211100Z AUTO 28004KT 4SM M03/M03 A3045 RMK SLP316 T10301030 IEM_DS3505
ZBAA,1998-11-21 12:00,ZBAA 211200Z AUTO 00000KT 9SM M06/M08 A3045 RMK 60008 SLP313 T10651077 52006 IEM_DS3505
ZBAA,1998-11-21 13:00,ZBAA 211300Z AUTO 24002KT 7SM M03/M04 A3045 RMK SLP316 T10301040 IEM_DS3505
ZBAA,1998-11-21 14:00,ZBAA 211400Z AUTO 22002KT 7SM M04/M05 A3045 RMK SLP316 T10401050 IEM_DS3505
ZBAA,1998-11-21 15:00,ZBAA 211500Z AUTO 00000KT 2SM M05/M05 A3045 RMK SLP311 T10471053 57002 IEM_DS3505
ZBAA,1998-11-21 16:00,ZBAA 211600Z AUTO 20006KT 4SM M04/M04 A3045 RMK SLP316 T10401040 IEM_DS3505
ZBAA,1998-11-21 17:00,ZBAA 211700Z AUTO 21004KT 4SM M03/M04 A3045 RMK SLP316 T10301040 IEM_DS3505
ZBAA,1998-11-21 18:00,ZBAA 211800Z AUTO 20004KT 7SM M03/M05 A3050 RMK SLP310 T10341053 57001 IEM_DS3505
ZBAA,1998-11-21 19:00,ZBAA 211900Z AUTO 18004KT 4SM M03/M04 A3045 RMK SLP316 T10301040 IEM_DS3505
ZBAA,1998-11-21 20:00,ZBAA 212000Z AUTO 17004KT 4SM M03/M05 A3042 RMK SLP306 T10301050 IEM_DS3505
ZBAA,1998-11-21 21:00,ZBAA 212100Z AUTO 18004KT 7SM M04/M06 A3042 RMK 70039 SLP298 T10371057 57012 IEM_DS3505
ZBAA,1998-11-21 22:00,ZBAA 212200Z AUTO 17002KT 4SM M04/M05 A3039 RMK SLP296 T10401050 IEM_DS3505
ZBAA,1998-11-21 23:00,ZBAA 212300Z AUTO 14002KT 4SM M04/M05 A3039 RMK SLP296 T10401050 IEM_DS3505
ZBAA,1998-11-22 00:00,ZBAA 220000Z AUTO 20004KT 3SM M04/M05 A3044 RMK 70039 SLP291 T10381054 57008 IEM_DS3505
ZBAA,1998-11-22 01:00,ZBAA 220100Z AUTO 12002KT 1SM M04/M04 A3039 RMK SLP296 T10401040 IEM_DS3505
ZBAA,1998-11-22 02:00,ZBAA 220200Z AUTO 14002KT 1SM M04/M04 A3036 RMK SLP285 T10401040 IEM_DS3505
ZBAA,1998-11-22 03:00,ZBAA 220300Z AUTO 18004KT 1SM M03/M04 A3033 RMK SLP273 T10301041 57017 IEM_DS3505
ZBAA,1998-11-22 04:00,ZBAA 220400Z AUTO 12004KT 1SM M03/M03 A3030 RMK SLP264 T10301030 IEM_DS3505
ZBAA,1998-11-22 05:00,ZBAA 220500Z AUTO 11004KT 1SM M03/M03 A3024 RMK SLP244 T10301030 IEM_DS3505
ZBAA,1998-11-22 06:00,ZBAA 220600Z AUTO 00000KT 1 1/4SM M02/M04 A3021 RMK 60002 SLP237 T10211041 57036 IEM_DS3505
ZBAA,1998-11-22 07:00,ZBAA 220700Z AUTO 11004KT 1SM M02/M03 A3021 RMK SLP234 T10201030 IEM_DS3505
ZBAA,1998-11-22 08:00,ZBAA 220800Z AUTO 11002KT 1SM M02/M03 A3021 RMK SLP234 T10201030 IEM_DS3505
ZBAA,1998-11-22 09:00,ZBAA 220900Z AUTO 00000KT 1SM M02/M04 A3021 RMK SLP227 T10201036 57010 IEM_DS3505
ZBAA,1998-11-22 10:00,ZBAA 221000Z AUTO 06002KT 1 1/4SM M02/M03 A3021 RMK SLP234 T10201030 IEM_DS3505
ZBAA,1998-11-22 10:30,ZBAA 221030Z AUTO 03002KT 1 1/4SM M02/M03 A3024 RMK SLP244 T10201030 IEM_DS3505
ZBAA,1998-11-22 12:00,ZBAA 221200Z AUTO 04006KT 1 1/4SM M02/M03 A3027 RMK SLP249 T10161031 52022 IEM_DS3505
ZBAA,1998-11-22 13:00,ZBAA 221300Z AUTO 00000KT 1 1/2SM M02/M03 A3030 RMK SLP264 T10201030 IEM_DS3505
ZBAA,1998-11-22 14:00,ZBAA 221400Z AUTO 31006KT 2SM M02/M04 A3030 RMK SLP264 T10201040 IEM_DS3505
ZBAA,1998-11-22 15:00,ZBAA 221500Z AUTO 36002KT 1 1/2SM M01/M02 A3033 RMK SLP260 T10111025 52011 IEM_DS3505
ZBAA,1998-11-22 16:00,ZBAA 221600Z AUTO 30006KT 1 1/2SM M01/M03 A3033 RMK SLP274 T10101030 IEM_DS3505
ZBAA,1998-11-22 17:00,ZBAA 221700Z AUTO 36006KT 1 1/2SM M03/M04 A3033 RMK SLP274 T10301040 IEM_DS3505
ZBAA,1998-11-22 18:00,ZBAA 221800Z AUTO 36004KT 2 1/2SM M02/M04 A3036 RMK SLP270 T10211045 52010 IEM_DS3505
ZBAA,1998-11-22 19:00,ZBAA 221900Z AUTO 33004KT 1 1/4SM M05/M06 A3036 RMK SLP285 T10501060 IEM_DS3505
ZBAA,1998-11-22 20:00,ZBAA 222000Z AUTO 33006KT 1 1/4SM M02/M04 A3036 RMK SLP284 T10201040 IEM_DS3505
ZBAA,1998-11-22 21:00,ZBAA 222100Z AUTO 04004KT 4SM M01/M04 A3036 RMK 70002 SLP278 T10071039 52008 IEM_DS3505
ZBAA,1998-11-22 22:00,ZBAA 222200Z AUTO 14002KT 2SM M03/M05 A3036 RMK SLP285 T10301050 IEM_DS3505
ZBAA,1998-11-22 23:00,ZBAA 222300Z AUTO 33002KT 2 1/2SM M02/M04 A3039 RMK SLP295 T10201040 IEM_DS3505
ZBAA,1998-11-23 00:00,ZBAA 230000Z AUTO 11006KT 2SM M01/M04 A3036 RMK 70002 SLP286 T10111044 52008 IEM_DS3505
ZBAA,1998-11-23 01:00,ZBAA 230100Z AUTO 17006KT 2 1/2SM M01/M04 A3039 RMK SLP295 T10101040 IEM_DS3505
ZBAA,1998-11-23 02:00,ZBAA 230200Z AUTO 16006KT 3SM M02/M04 A3039 RMK SLP295 T10201040 IEM_DS3505
ZBAA,1998-11-23 03:00,ZBAA 230300Z AUTO 11008KT 1 1/2SM M02/M04 A3042 RMK SLP296 T10221042 52010 IEM_DS3505
ZBAA,1998-11-23 04:00,ZBAA 230400Z AUTO 15006KT 2 1/2SM M03/M03 A3036 RMK SLP285 T10301030 IEM_DS3505
ZBAA,1998-11-23 05:00,ZBAA 230500Z AUTO 16006KT 2 1/2SM M03/M03 A3036 RMK SLP285 T10301030 IEM_DS3505
ZBAA,1998-11-23 06:00,ZBAA 230600Z AUTO 11006KT 1 1/4SM M03/M05 A3033 RMK 60002 SLP271 T10311049 57025 IEM_DS3505
ZBAA,1998-11-23 07:00,ZBAA 230700Z AUTO 15006KT 2 1/2SM M03/M04 A3033 RMK SLP274 T10301040 IEM_DS3505
ZBAA,1998-11-23 08:00,ZBAA 230800Z AUTO 15006KT 3SM M03/M04 A3033 RMK SLP274 T10301040 IEM_DS3505
ZBAA,1998-11-23 09:00,ZBAA 230900Z AUTO 14002KT 3SM M03/M04 A3033 RMK SLP274 T10301040 IEM_DS3505
ZBAA,1998-11-23 10:00,ZBAA 231000Z AUTO 14002KT 4SM M03/M04 A3033 RMK SLP274 T10301040 IEM_DS3505
ZBAA,1998-11-23 11:00,ZBAA 231100Z AUTO 00000KT 3SM M03/M04 A3036 RMK SLP285 T10301040 IEM_DS3505
ZBAA,1998-11-23 12:00,ZBAA 231200Z AUTO 00000KT 6SM M03/M06 A3041 RMK 60000 SLP278 T10331056 52015 IEM_DS3505
ZBAA,1998-11-23 13:00,ZBAA 231300Z AUTO 23002KT 3SM M03/M04 A3036 RMK SLP285 T10301040 IEM_DS3505
ZBAA,1998-11-23 14:00,ZBAA 231400Z AUTO 12002KT 2 1/2SM M04/M04 A3039 RMK SLP296 T10401040 IEM_DS3505
ZBAA,1998-11-23 15:00,ZBAA 231500Z AUTO 00000KT 6SM M04/M06 A3039 RMK SLP289 T10441057 52011 IEM_DS3505
ZBAA,1998-11-23 16:00,ZBAA 231600Z AUTO 36004KT 2SM M04/M05 A3042 RMK SLP306 T10401050 IEM_DS3505
ZBAA,1998-11-23 17:00,ZBAA 231700Z AUTO 00000KT 1 1/4SM M05/M05 A3042 RMK SLP306 T10501050 IEM_DS3505
ZBAA,1998-11-23 18:00,ZBAA 231800Z AUTO 00000KT 1 1/4SM M06/M06 A3045 RMK SLP307 T10581061 52017 IEM_DS3505
ZBAA,1998-11-23 19:00,ZBAA 231900Z AUTO 35008KT 4SM M08/M09 A3045 RMK SLP317 T10801090 IEM_DS3505
ZBAA,1998-11-23 20:00,ZBAA 232000Z AUTO 01008KT 4SM M04/M06 A3045 RMK SLP316 T10401060 IEM_DS3505
ZBAA,1998-11-23 21:00,ZBAA 232100Z AUTO 04004KT 5SM M03/M08 A3047 RMK 70004 SLP321 T10341082 52015 IEM_DS3505
ZBAA,1998-11-23 22:00,ZBAA 232200Z AUTO 03006KT 7SM M05/M10 A3050 RMK SLP333 T10501100 IEM_DS3505
ZBAA,1998-11-23 23:00,ZBAA 232300Z AUTO 02006KT 7SM M04/M11 A3053 RMK SLP343 T10401110 IEM_DS3505
ZBAA,1998-11-24 00:00,ZBAA 240000Z AUTO 04010KT 12SM M04/M12 A3056 RMK 70004 SLP337 T10371123 52016 IEM_DS3505
ZBAA,1998-11-24 01:00,ZBAA 240100Z AUTO 01006KT 7SM M03/M11 A3056 RMK SLP353 T10301110 IEM_DS3505
ZBAA,1998-11-24 02:00,ZBAA 240200Z AUTO 03006KT 7SM M02/M11 A3059 RMK SLP363 T10201110 IEM_DS3505
ZBAA,1998-11-24 03:00,ZBAA 240300Z AUTO 04006KT 12SM M01/M13 A3059 RMK SLP360 T10091127 52023 IEM_DS3505
ZBAA,1998-11-24 04:00,ZBAA 240400Z AUTO 06004KT 7SM 00/M12 A3056 RMK SLP352 T00001120 IEM_DS3505
ZBAA,1998-11-24 05:00,ZBAA 240500Z AUTO 17002KT 7SM 00/M13 A3056 RMK SLP352 T00001130 IEM_DS3505
ZBAA,1998-11-24 06:00,ZBAA 240600Z AUTO 14004KT 19SM 01/M11 A3053 RMK SLP345 T00091109 57015 IEM_DS3505
ZBAA,1998-11-24 07:00,ZBAA 240700Z AUTO 16002KT 7SM 01/M12 A3053 RMK SLP342 T00101120 IEM_DS3505
ZBAA,1998-11-24 08:00,ZBAA 240800Z AUTO 00000KT 7SM 00/M12 A3053 RMK SLP342 T00001120 IEM_DS3505
ZBAA,1998-11-24 09:00,ZBAA 240900Z AUTO 18004KT 9SM M01/M10 A3053 RMK SLP341 T10111095 57004 IEM_DS3505
ZBAA,1998-11-24 10:00,ZBAA 241000Z AUTO 00000KT 7SM M03/M10 A3053 RMK SLP343 T10301100 IEM_DS3505
ZBAA,1998-11-24 11:00,ZBAA 241100Z AUTO 00000KT 7SM M04/M09 A3056 RMK SLP353 T10401090 IEM_DS3505
ZBAA,1998-11-24 12:00,ZBAA 241200Z AUTO 00000KT 4SM M03/M10 A3056 RMK SLP348 T10311102 52006 IEM_DS3505
ZBAA,1998-11-24 13:00,ZBAA 241300Z AUTO 00000KT 7SM M05/M07 A3056 RMK SLP353 T10501070 IEM_DS3505
ZBAA,1998-11-24 14:00,ZBAA 241400Z AUTO 00000KT 6SM M04/M09 A3056 RMK SLP353 T10401090 IEM_DS3505
ZBAA,1998-11-24 15:00,ZBAA 241500Z AUTO 11004KT 4SM M02/M07 A3056 RMK SLP346 T10231071 57001 IEM_DS3505
ZBAA,1998-11-24 16:00,ZBAA 241600Z AUTO 10002KT 5SM M04/M07 A3053 RMK SLP343 T10401070 IEM_DS3505
ZBAA,1998-11-24 17:00,ZBAA 241700Z AUTO 11002KT 4SM M03/M06 A3053 RMK SLP343 T10301060 IEM_DS3505
ZBAA,1998-11-24 18:00,ZBAA 241800Z AUTO 16004KT 6SM M02/M07 A3053 RMK SLP337 T10181069 57009 IEM_DS3505
ZBAA,1998-11-24 19:00,ZBAA 241900Z AUTO 10002KT 4SM M03/M05 A3050 RMK SLP333 T10301050 IEM_DS3505
ZBAA,1998-11-24 20:00,ZBAA 242000Z AUTO 10002KT 3SM M03/M06 A3050 RMK SLP333 T10301060 IEM_DS3505
ZBAA,1998-11-24 21:00,ZBAA 242100Z AUTO 00000KT 9SM M02/M06 A3050 RMK SLP329 T10211060 57008 IEM_DS3505
ZBAA,1998-11-24 22:00,ZBAA 242200Z AUTO 12002KT 3SM M03/M06 RMK T10301060 IEM_DS3505
ZBAA,1998-11-24 23:00,ZBAA 242300Z AUTO 13004KT 3SM M03/M07 A3047 RMK SLP323 T10301070 IEM_DS3505
ZBAA,1998-11-25 00:00,ZBAA 250000Z AUTO 11004KT 2 1/2SM M03/M05 A3047 RMK SLP323 T10291047 57006 IEM_DS3505
ZBAA,1998-11-25 01:00,ZBAA 250100Z AUTO 08002KT 2 1/2SM M02/M06 A3050 RMK SLP333 T10201060 IEM_DS3505
ZBAA,1998-11-25 02:00,ZBAA 250200Z AUTO 10002KT 2 1/2SM M02/M06 A3047 RMK SLP323 T10201060 IEM_DS3505
ZBAA,1998-11-25 03:00,ZBAA 250300Z AUTO 11004KT 4SM M01/M05 A3047 RMK SLP317 T10131053 57006 IEM_DS3505
ZBAA,1998-11-25 04:00,ZBAA 250400Z AUTO 09002KT 2 1/2SM M01/M05 A3045 RMK SLP315 T10101050 IEM_DS3505
ZBAA,1998-11-25 05:00,ZBAA 250500Z AUTO 12004KT 3SM 00/M06 A3042 RMK SLP305 T00001060 IEM_DS3505
ZBAA,1998-11-25 06:00,ZBAA 250600Z AUTO 14006KT 3SM 00/M06 A3039 RMK SLP293 T00001055 57024 IEM_DS3505
ZBAA,1998-11-25 07:00,ZBAA 250700Z AUTO 09004KT 4SM 00/M06 A3036 RMK SLP284 T00001060 IEM_DS3505
ZBAA,1998-11-25 08:00,ZBAA 250800Z AUTO 08002KT 43SM RMK IEM_DS3505
ZBAA,1998-11-25 09:00,ZBAA 250900Z AUTO 11004KT 3SM M02/M06 A3034 RMK SLP277 T10221057 57016 IEM_DS3505
ZBAA,1998-11-25 10:00,ZBAA 251000Z AUTO 00000KT 3SM M02/M06 A3036 RMK SLP284 T10201060 IEM_DS3505
ZBAA,1998-11-25 11:00,ZBAA 251100Z AUTO 03002KT 3SM M03/M05 A3036 RMK SLP285 T10301050 IEM_DS3505
ZBAA,1998-11-25 12:00,ZBAA 251200Z AUTO 00000KT 4SM M02/M05 A3039 RMK SLP281 T10191050 52004 IEM_DS3505
ZBAA,1998-11-25 13:00,ZBAA 251300Z AUTO 00000KT 2SM M03/M05 A3036 RMK SLP285 T10301050 IEM_DS3505
ZBAA,1998-11-25 14:00,ZBAA 251400Z AUTO 00000KT 2SM M04/M05 A3036 RMK SLP285 T10401050 IEM_DS3505
ZBAA,1998-11-25 15:00,ZBAA 251500Z AUTO 02004KT 1 1/4SM M04/M05 A3036 RMK SLP281 T10401053 54000 IEM_DS3505
ZBAA,1998-11-25 16:00,ZBAA 251600Z AUTO 00000KT 1 1/4SM M06/M07 A3036 RMK SLP285 T10601070 IEM_DS3505
ZBAA,1998-11-25 17:00,ZBAA 251700Z AUTO 00000KT 1 1/4SM M05/M05 A3036 RMK SLP285 T10501050 IEM_DS3505
ZBAA,1998-11-25 18:00,ZBAA 251800Z AUTO 02002KT 1SM M03/M04 A3036 RMK SLP279 T10331044 57002 IEM_DS3505
ZBAA,1998-11-25 19:00,ZBAA 251900Z AUTO 00000KT 1SM M04/M05 A3033 RMK SLP275 T10401050 IEM_DS3505
ZBAA,1998-11-25 20:00,ZBAA 252000Z AUTO 35002KT 1SM M04/M05 A3033 RMK SLP275 T10401050 IEM_DS3505
ZBAA,1998-11-25 21:00,ZBAA 252100Z AUTO 00000KT 1SM M04/M05 A3033 RMK SLP266 T10401049 57013 IEM_DS3505
ZBAA,1998-11-25 22:00,ZBAA 252200Z AUTO 31002KT 1SM M03/M05 A3033 RMK SLP274 T10301050 IEM_DS3505
ZBAA,1998-11-25 23:00,ZBAA 252300Z AUTO 33004KT 1SM M04/M06 A3033 RMK SLP275 T10401060 IEM_DS3505
ZBAA,1998-11-26 00:00,ZBAA 260000Z AUTO 00000KT 1/2SM M06/M06 A3033 RMK SLP270 T10561059 52004 IEM_DS3505
ZBAA,1998-11-26 01:00,ZBAA 260100Z AUTO 36004KT 1 1/4SM M03/M05 A3033 RMK SLP274 T10301050 IEM_DS3505
ZBAA,1998-11-26 02:00,ZBAA 260200Z AUTO 36002KT 1SM M02/M04 A3033 RMK SLP274 T10201040 IEM_DS3505
ZBAA,1998-11-26 03:00,ZBAA 260300Z AUTO 11004KT 1SM 01/M03 A3033 RMK SLP269 T00091028 57001 IEM_DS3505
ZBAA,1998-11-26 04:00,ZBAA 260400Z AUTO 35004KT 2SM 00/M03 A3030 RMK SLP264 T00001030 IEM_DS3505
ZBAA,1998-11-26 05:00,ZBAA 260500Z AUTO 34002KT 2SM 01/M03 A3027 RMK SLP253 T00101030 IEM_DS3505
ZBAA,1998-11-26 06:00,ZBAA 260600Z AUTO 00000KT 3SM 02/M04 A3024 RMK SLP244 T00191039 57025 IEM_DS3505
ZBAA,1998-11-26 07:00,ZBAA 260700Z AUTO 00000KT 3SM 02/M04 A3024 RMK SLP243 T00201040 IEM_DS3505
ZBAA,1998-11-26 08:00,ZBAA 260800Z AUTO 24002KT 2 1/2SM 01/M04 A3024 RMK SLP243 T00101040 IEM_DS3505
ZBAA,1998-11-26 09:00,ZBAA 260900Z AUTO 00000KT 2 1/2SM 00/M04 A3024 RMK SLP240 T00041039 57004 IEM_DS3505
ZBAA,1998-11-26 10:00,ZBAA 261000Z AUTO ////02KT 2SM 02/M04 A3024 RMK SLP243 T00201040 IEM_DS3505
ZBAA,1998-11-26 11:00,ZBAA 261100Z AUTO 19002KT 2SM 00/M03 A3024 RMK SLP244 T00001030 IEM_DS3505
ZBAA,1998-11-26 12:00,ZBAA 261200Z AUTO 16004KT 2SM 00/M01 A3027 RMK SLP250 T00041014 52010 IEM_DS3505
ZBAA,1998-11-26 13:00,ZBAA 261300Z AUTO 00000KT 1 1/2SM M01/M03 A3027 RMK SLP254 T10101030 IEM_DS3505
ZBAA,1998-11-26 14:00,ZBAA 261400Z AUTO 00000KT 1 1/2SM M01/M03 A3027 RMK SLP254 T10101030 IEM_DS3505
ZBAA,1998-11-26 15:00,ZBAA 261500Z AUTO 00000KT 3SM M02/M03 A3027 RMK SLP250 T10151034 54000 IEM_DS3505
ZBAA,1998-11-26 16:00,ZBAA 261600Z AUTO 00000KT 1 1/4SM M02/M03 A3027 RMK SLP254 T10201030 IEM_DS3505
ZBAA,1998-11-26 17:00,ZBAA 261700Z AUTO 01002KT 1 1/4SM M02/M03 A3027 RMK SLP254 T10201030 IEM_DS3505
ZBAA,1998-11-26 18:00,ZBAA 261800Z AUTO 00000KT 3SM M02/M03 A3027 RMK SLP246 T10231029 57004 IEM_DS3505
ZBAA,1998-11-26 19:00,ZBAA 261900Z AUTO 00000KT 1SM M04/M04 A3024 RMK SLP245 T10401040 IEM_DS3505
ZBAA,1998-11-26 20:00,ZBAA 262000Z AUTO 28002KT 1SM M03/M03 A3024 RMK SLP244 T10301030 IEM_DS3505
ZBAA,1998-11-26 21:00,ZBAA 262100Z AUTO 00000KT 2 1/2SM M03/M04 A3024 RMK SLP242 T10321043 57004 IEM_DS3505
ZBAA,1998-11-26 22:00,ZBAA 262200Z AUTO 00000KT 1SM M04/M04 A3024 RMK SLP245 T10401040 IEM_DS3505
ZBAA,1998-11-26 23:00,ZBAA 262300Z AUTO 35004KT 1/2SM M04/M04 A3027 RMK SLP255 T10401040 IEM_DS3505
ZBAA,1998-11-27 00:00,ZBAA 270000Z AUTO 00000KT 1/2SM M04/M04 A3027 RMK SLP250 T10391044 52008 IEM_DS3505
ZBAA,1998-11-27 01:00,ZBAA 270100Z AUTO 00000KT 1SM M04/M04 A3030 RMK SLP265 T10401040 IEM_DS3505
ZBAA,1998-11-27 02:00,ZBAA 270200Z AUTO 31002KT 1SM M01/M03 A3030 RMK SLP264 T10101030 IEM_DS3505
ZBAA,1998-11-27 03:00,ZBAA 270300Z AUTO 00000KT 1 1/4SM 04/M01 A3030 RMK SLP254 T00431006 52005 IEM_DS3505
ZBAA,1998-11-27 04:00,ZBAA 270400Z AUTO 26002KT 1 1/4SM 05/M04 A3027 RMK SLP252 T00501040 IEM_DS3505
ZBAA,1998-11-27 05:00,ZBAA 270500Z AUTO 25008KT 2SM 07/M06 A3027 RMK SLP252 T00701060 IEM_DS3505
ZBAA,1998-11-27 06:00,ZBAA 270600Z AUTO 36006KT 9SM 10/M13 A3031 RMK SLP246 T00961132 57008 IEM_DS3505
ZBAA,1998-11-27 07:00,ZBAA 270700Z AUTO 32010KT 7SM 09/M08 A3024 RMK SLP242 T00901080 IEM_DS3505
ZBAA,1998-11-27 08:00,ZBAA 270800Z AUTO 32006KT 7SM 08/M09 A3027 RMK SLP252 T00801090 IEM_DS3505
ZBAA,1998-11-27 09:00,ZBAA 270900Z AUTO 34008KT 6SM 08/M12 A3027 RMK SLP248 T00831125 52002 IEM_DS3505
ZBAA,1998-11-27 10:00,ZBAA 271000Z AUTO 06002KT 7SM 03/M05 A3030 RMK SLP263 T00301050 IEM_DS3505
ZBAA,1998-11-27 11:00,ZBAA 271100Z AUTO 09002KT 7SM 04/M09 A3030 RMK SLP263 T00401090 IEM_DS3505
ZBAA,1998-11-27 12:00,ZBAA 271200Z AUTO 29004KT 4SM 03/M04 A3030 RMK SLP262 T00261045 52013 IEM_DS3505
ZBAA,1998-11-27 13:00,ZBAA 271300Z AUTO 00000KT 7SM 02/M07 A3033 RMK SLP273 T00201070 IEM_DS3505
ZBAA,1998-11-27 14:00,ZBAA 271400Z AUTO 00000KT 7SM 02/M08 A3033 RMK SLP273 T00201080 IEM_DS3505
ZBAA,1998-11-27 15:00,ZBAA 271500Z AUTO 18002KT 2 1/2SM 01/M05 A3036 RMK SLP271 T00141054 52010 IEM_DS3505
ZBAA,1998-11-27 16:00,ZBAA 271600Z AUTO 19002KT 7SM M01/M06 A3036 RMK SLP284 T10101060 IEM_DS3505
ZBAA,1998-11-27 17:00,ZBAA 271700Z AUTO 09002KT 4SM M03/M05 A3036 RMK SLP285 T10301050 IEM_DS3505
ZBAA,1998-11-27 18:00,ZBAA 271800Z AUTO 11006KT 6SM 00/M07 A3036 RMK SLP271 T00021070 54000 IEM_DS3505
ZBAA,1998-11-27 19:00,ZBAA 271900Z AUTO 10004KT 4SM M01/M06 A3033 RMK SLP274 T10101060 IEM_DS3505
ZBAA,1998-11-27 20:00,ZBAA 272000Z AUTO 11006KT 4SM M01/M03 A3030 RMK SLP264 T10101030 IEM_DS3505
ZBAA,1998-11-27 21:00,ZBAA 272100Z AUTO 11006KT 5SM M02/M04 A3027 RMK SLP250 T10201040 57021 IEM_DS3505
ZBAA,1998-11-27 22:00,ZBAA 272200Z AUTO 16002KT 4SM M01/M04 A3027 RMK SLP254 T10101040 IEM_DS3505
ZBAA,1998-11-27 23:00,ZBAA 272300Z AUTO 36002KT 4SM M02/M04 A3027 RMK SLP254 T10201040 IEM_DS3505
ZBAA,1998-11-28 00:00,ZBAA 280000Z AUTO 02004KT 4SM M02/M03 A3027 RMK SLP251 T10151034 54000 IEM_DS3505
ZBAA,1998-11-28 01:00,ZBAA 280100Z AUTO 11004KT 3SM 00/M03 A3027 RMK SLP254 T00001030 IEM_DS3505
ZBAA,1998-11-28 02:00,ZBAA 280200Z AUTO 00000KT 3SM 00/M03 A3027 RMK SLP254 T00001030 IEM_DS3505
ZBAA,1998-11-28 03:00,ZBAA 280300Z AUTO 07004KT 3SM 01/M03 A3024 RMK SLP232 T00071027 57018 IEM_DS3505
ZBAA,1998-11-28 04:00,ZBAA 280400Z AUTO 03002KT 2 1/2SM 01/M02 A3018 RMK SLP223 T00101020 IEM_DS3505
ZBAA,1998-11-28 05:00,ZBAA 280500Z AUTO 00000KT 2 1/2SM 02/M01 A3012 RMK SLP203 T00201010 IEM_DS3505
ZBAA,1998-11-28 06:00,ZBAA 280600Z AUTO 07004KT 4SM 03/M01 A3009 RMK SLP189 T00291007 57043 IEM_DS3505
ZBAA,1998-11-28 07:00,ZBAA 280700Z AUTO 35004KT 2SM 02/00 A3006 RMK SLP182 T00200000 IEM_DS3505
ZBAA,1998-11-28 08:00,ZBAA 280800Z AUTO 35006KT 2SM 01/M01 A3006 RMK SLP182 T00101010 IEM_DS3505
ZBAA,1998-11-28 09:00,ZBAA 280900Z AUTO 34004KT 1 1/2SM 00/M01 A3006 RMK SLP182 T00001010 IEM_DS3505
ZBAA,1998-11-28 10:00,ZBAA 281000Z AUTO 34004KT 1 1/2SM 01/M01 A3006 RMK SLP182 T00101010 IEM_DS3505
ZBAA,1998-11-28 11:00,ZBAA 281100Z AUTO 31006KT 1 1/4SM 01/M01 A3006 RMK SLP182 T00101010 IEM_DS3505
ZBAA,1998-11-28 12:00,ZBAA 281200Z AUTO 34004KT 2SM 00/M01 A3006 RMK SLP177 T00021010 52001 IEM_DS3505
ZBAA,1998-11-28 13:00,ZBAA 281300Z AUTO 32004KT 1SM 00/M02 A3006 RMK SLP182 T00001020 IEM_DS3505
ZBAA,1998-11-28 14:00,ZBAA 281400Z AUTO 34004KT 1SM M01/M03 A3006 RMK SLP182 T10101030 IEM_DS3505
ZBAA,1998-11-28 15:00,ZBAA 281500Z AUTO 00000KT 2SM 00/M02 A3006 RMK SLP174 T00001015 57003 IEM_DS3505
ZBAA,1998-11-28 16:00,ZBAA 281600Z AUTO 34004KT 1SM M01/M02 A3006 RMK SLP182 T10101020 IEM_DS3505
ZBAA,1998-11-28 17:00,ZBAA 281700Z AUTO 33006KT 1SM M01/M02 A3006 RMK SLP182 T10101020 IEM_DS3505
ZBAA,1998-11-28 18:00,ZBAA 281800Z AUTO 00000KT 2 1/2SM M00/M02 A3003 RMK SLP172 T10031024 57002 IEM_DS3505
ZBAA,1998-11-28 19:00,ZBAA 281900Z AUTO 34004KT 1SM M03/M03 A3003 RMK SLP173 T10301030 IEM_DS3505
ZBAA,1998-11-28 20:00,ZBAA 282000Z AUTO 33004KT 1SM M02/M03 A3000 RMK SLP163 T10201030 IEM_DS3505
ZBAA,1998-11-28 21:00,ZBAA 282100Z AUTO 34004KT 2SM 00/M02 A3003 RMK SLP167 T00011017 57005 IEM_DS3505
ZBAA,1998-11-28 22:00,ZBAA 282200Z AUTO 1 1/4SM M02/M04 A3000 RMK SLP163 T10201040 IEM_DS3505
ZBAA,1998-11-28 23:00,ZBAA 282300Z AUTO 35006KT 1 1/2SM M02/M03 A3003 RMK SLP173 T10201030 IEM_DS3505
ZBAA,1998-11-29 00:00,ZBAA 290000Z AUTO 36002KT 2SM 00/M03 A3003 RMK SLP170 T00031034 52003 IEM_DS3505
ZBAA,1998-11-29 01:00,ZBAA 290100Z AUTO 36006KT 1 1/2SM M01/M02 A3006 RMK SLP182 T10101020 IEM_DS3505
ZBAA,1998-11-29 03:00,ZBAA 290300Z AUTO 02002KT 2SM 03/M02 A3006 RMK SLP181 T00271022 52011 IEM_DS3505
ZBAA,1998-11-29 04:00,ZBAA 290400Z AUTO 03004KT 2SM 02/M02 RMK T00201020 IEM_DS3505
ZBAA,1998-11-29 06:00,ZBAA 290600Z AUTO 02006KT 2SM 05/M01 A3003 RMK SLP170 T00471007 57011 IEM_DS3505
ZBAA,1998-11-29 07:00,ZBAA 290700Z AUTO 36004KT 2SM RMK IEM_DS3505
ZBAA,1998-11-29 08:00,ZBAA 290800Z AUTO 35004KT 2SM 03/00 A3006 RMK SLP181 T00300000 IEM_DS3505
ZBAA,1998-11-29 09:00,ZBAA 290900Z AUTO 09006KT 1 1/4SM 04/01 A3009 RMK SLP184 T00360010 52014 IEM_DS3505
ZBAA,1998-11-29 10:00,ZBAA 291000Z AUTO 17002KT 2SM 03/01 A3009 RMK SLP192 T00300010 IEM_DS3505
ZBAA,1998-11-29 11:00,ZBAA 291100Z AUTO 17004KT 2 1/2SM 03/00 A3012 RMK SLP203 T00300000 IEM_DS3505
ZBAA,1998-11-29 12:00,ZBAA 291200Z AUTO 09006KT 2 1/2SM 02/M01 A3012 RMK SLP199 T00241013 52015 IEM_DS3505
ZBAA,1998-11-29 13:00,ZBAA 291300Z AUTO 14004KT 2 1/2SM 02/M01 A3012 RMK SLP203 T00201010 IEM_DS3505
ZBAA,1998-11-29 14:00,ZBAA 291400Z AUTO 16006KT 3SM 02/M02 A3015 RMK SLP213 T00201020 IEM_DS3505
ZBAA,1998-11-29 15:00,ZBAA 291500Z AUTO 11006KT 5SM 02/M04 A3015 RMK SLP209 T00151037 52010 IEM_DS3505
ZBAA,1998-11-29 16:00,ZBAA 291600Z AUTO 20004KT 4SM 02/M03 A3015 RMK SLP213 T00201030 IEM_DS3505
ZBAA,1998-11-29 17:00,ZBAA 291700Z AUTO 20004KT 4SM 01/M03 A3015 RMK SLP213 T00101030 IEM_DS3505
ZBAA,1998-11-29 18:00,ZBAA 291800Z AUTO 18004KT 6SM 01/M04 A3012 RMK SLP204 T00111035 57005 IEM_DS3505
ZBAA,1998-11-29 19:00,ZBAA 291900Z AUTO 15002KT 4SM 01/M03 A3012 RMK SLP203 T00101030 IEM_DS3505
ZBAA,1998-11-29 20:00,ZBAA 292000Z AUTO 13002KT 4SM 01/M02 A3012 RMK SLP203 T00101020 IEM_DS3505
ZBAA,1998-11-29 21:00,ZBAA 292100Z AUTO 11006KT 5SM 00/M04 A3012 RMK SLP196 T00041036 57008 IEM_DS3505
ZBAA,1998-11-29 22:00,ZBAA 292200Z AUTO 17004KT 3SM 00/M02 A3012 RMK SLP203 T00001020 IEM_DS3505
ZBAA,1998-11-29 23:00,ZBAA 292300Z AUTO 17002KT 2SM M01/M02 A3015 RMK SLP214 T10101020 IEM_DS3505
ZBAA,1998-11-30 00:00,ZBAA 300000Z AUTO 07006KT 4SM M00/M03 A3015 RMK SLP212 T10041029 52016 IEM_DS3505
ZBAA,1998-11-30 01:00,ZBAA 300100Z AUTO 15002KT 1 1/4SM M01/M01 A3021 RMK SLP234 T10101010 IEM_DS3505
ZBAA,1998-11-30 02:00,ZBAA 300200Z AUTO 14002KT 1SM M01/M01 A3021 RMK SLP234 T10101010 IEM_DS3505
ZBAA,1998-11-30 03:00,ZBAA 300300Z AUTO 14004KT 4SM M01/M02 A3021 RMK SLP227 T10061018 52015 IEM_DS3505
ZBAA,1998-11-30 04:00,ZBAA 300400Z AUTO 15004KT 2SM 00/M01 A3018 RMK SLP223 T00001010 IEM_DS3505
ZBAA,1998-11-30 05:00,ZBAA 300500Z AUTO 14004KT 2SM 00/M02 A3018 RMK SLP223 T00001020 IEM_DS3505
ZBAA,1998-11-30 06:00,ZBAA 300600Z AUTO 11004KT 2 1/2SM M00/M01 A3018 RMK 60000 SLP217 T10011013 57010 IEM_DS3505
ZBAA,1998-11-30 07:00,ZBAA 300700Z AUTO 13004KT 2SM 00/M02 A3018 RMK SLP223 T00001020 IEM_DS3505
ZBAA,1998-11-30 08:00,ZBAA 300800Z AUTO 12004KT 2SM 00/M02 A3021 RMK SLP234 T00001020 IEM_DS3505
ZBAA,1998-11-30 09:00,ZBAA 300900Z AUTO 09008KT 2SM M00/M03 A3021 RMK SLP234 T10041027 52016 IEM_DS3505
ZBAA,1998-11-30 10:00,ZBAA 301000Z AUTO 14004KT 2 1/2SM M01/M02 A3027 RMK SLP254 T10101020 IEM_DS3505
ZBAA,1998-11-30 11:00,ZBAA 301100Z AUTO 14004KT 3SM M01/M04 A3027 RMK SLP254 T10101040 IEM_DS3505
ZBAA,1998-11-30 12:00,ZBAA 301200Z AUTO 14006KT 3SM M01/M02 A3033 RMK SLP266 T10061023 52032 IEM_DS3505
ZBAA,1998-11-30 13:00,ZBAA 301300Z AUTO 14004KT 5SM M01/M05 A3036 RMK SLP284 T10101050 IEM_DS3505
ZBAA,1998-11-30 14:00,ZBAA 301400Z AUTO 14004KT 4SM M01/M04 A3039 RMK SLP295 T10101040 IEM_DS3505
ZBAA,1998-11-30 15:00,ZBAA 301500Z AUTO 11004KT 2 1/2SM M01/M04 A3042 RMK SLP295 T10101042 52029 IEM_DS3505
ZBAA,1998-11-30 16:00,ZBAA 301600Z AUTO 11004KT 7SM M02/M07 A3045 RMK SLP315 T10201070 IEM_DS3505
ZBAA,1998-11-30 17:00,ZBAA 301700Z AUTO 12006KT 7SM M02/M08 A3047 RMK SLP323 T10201080 IEM_DS3505
ZBAA,1998-11-30 18:00,ZBAA 301800Z AUTO 11010KT 6SM M02/M10 A3052 RMK SLP317 T10251098 52022 IEM_DS3505
ZBAA,1998-11-30 21:00,ZBAA 302100Z AUTO 14006KT 19SM M03/M12 A3053 RMK 70000 SLP338 T10321115 52021 IEM_DS3505
ZBAA,1998-11-30 22:00,ZBAA 302200Z AUTO 06008KT 6SM M03/M13 A3056 RMK SLP353 T10301130 IEM_DS3505
ZBAA,1998-11-30 23:00,ZBAA 302300Z AUTO 04008G17KT 6SM M03/M14 A3056 RMK SLP353 T10301140 IEM_DS3505
ZBAA,1998-12-01 00:00,ZBAA 010000Z AUTO 07008KT 19SM M03/M16 A3062 RMK SLP370 T10321162 52032 IEM_DS3505
ZBAA,1998-12-01 01:00,ZBAA 010100Z AUTO 03010KT 6SM M05/M16 A3068 RMK SLP394 T10501160 IEM_DS3505
ZBAA,1998-12-01 02:00,ZBAA 010200Z AUTO 03014G23KT 6SM M05/M20 A3068 RMK SLP394 T10501200 IEM_DS3505
ZBAA,1998-12-01 03:00,ZBAA 010300Z AUTO 04014G21KT 12SM M05/M20 A3065 RMK SLP384 T10491204 52013 IEM_DS3505
ZBAA,1998-12-01 04:00,ZBAA 010400Z AUTO 04012G21KT 6SM M05/M20 A3065 RMK SLP384 T10501200 IEM_DS3505
ZBAA,1998-12-01 05:00,ZBAA 010500Z AUTO 03010G19KT 6SM M04/M19 A3062 RMK SLP373 T10401190 IEM_DS3505
ZBAA,1998-12-01 06:00,ZBAA 010600Z AUTO 04008KT 19SM M04/M24 A3062 RMK SLP368 T10411239 57016 IEM_DS3505
ZBAA,1998-12-01 07:00,ZBAA 010700Z AUTO 04008KT 6SM M04/M20 A3062 RMK SLP373 T10401200 IEM_DS3505
ZBAA,1998-12-01 08:00,ZBAA 010800Z AUTO 06006KT 6SM M04/M20 A3062 RMK SLP373 T10401200 IEM_DS3505
ZBAA,1998-12-01 09:00,ZBAA 010900Z AUTO 07004KT 16SM M04/M19 A3065 RMK SLP380 T10441191 52012 IEM_DS3505
ZBAA,1998-12-01 10:00,ZBAA 011000Z AUTO 08002KT 6SM M05/M18 A3068 RMK SLP394 T10501180 IEM_DS3505
ZBAA,1998-12-01 11:00,ZBAA 011100Z AUTO 06004KT 6SM M05/M19 A3068 RMK SLP394 T10501190 IEM_DS3505
ZBAA,1998-12-01 12:00,ZBAA 011200Z AUTO 04006KT 12SM M05/M21 A3071 RMK SLP395 T10471210 52015 IEM_DS3505
ZBAA,1998-12-01 13:00,ZBAA 011300Z AUTO 07002KT 7SM M06/M18 A3071 RMK SLP404 T10601180 IEM_DS3505
ZBAA,1998-12-01 14:00,ZBAA 011400Z AUTO 06002KT 7SM M06/M19 A3074 RMK SLP415 T10601190 IEM_DS3505
ZBAA,1998-12-01 15:00,ZBAA 011500Z AUTO 04002KT 6SM M06/M17 A3074 RMK SLP406 T10571168 52011 IEM_DS3505
ZBAA,1998-12-01 16:00,ZBAA 011600Z AUTO 02002KT 6SM M07/M17 A3074 RMK SLP415 T10701170 IEM_DS3505
ZBAA,1998-12-01 17:00,ZBAA 011700Z AUTO 03004KT 6SM M07/M18 A3074 RMK SLP415 T10701180 IEM_DS3505
ZBAA,1998-12-01 18:00,ZBAA 011800Z AUTO 36004KT 12SM M06/M16 A3074 RMK SLP409 T10621162 52003 IEM_DS3505
ZBAA,1998-12-01 19:00,ZBAA 011900Z AUTO 03006KT 7SM M07/M19 A3074 RMK SLP415 T10701190 IEM_DS3505
ZBAA,1998-12-01 20:00,ZBAA 012000Z AUTO 02006KT 7SM M08/M19 A3074 RMK SLP416 T10801190 IEM_DS3505
ZBAA,1998-12-01 21:00,ZBAA 012100Z AUTO 02002KT 16SM M08/M19 A3071 RMK SLP403 T10751188 57006 IEM_DS3505
ZBAA,1998-12-01 22:00,ZBAA 012200Z AUTO 01006KT 7SM M08/M19 A3074 RMK SLP416 T10801190 IEM_DS3505
ZBAA,1998-12-01 23:00,ZBAA 012300Z AUTO 02004KT 7SM M08/M18 A3074 RMK SLP416 T10801180 IEM_DS3505
ZBAA,1998-12-02 00:00,ZBAA 020000Z AUTO 02002KT 9SM M08/M17 A3080 RMK SLP413 T10811174 52010 IEM_DS3505
ZBAA,1998-12-02 01:00,ZBAA 020100Z AUTO 02006KT 7SM M07/M17 A3077 RMK SLP425 T10701170 IEM_DS3505
ZBAA,1998-12-02 02:00,ZBAA 020200Z AUTO 03006KT 7SM M06/M18 A3077 RMK SLP425 T10601180 IEM_DS3505
ZBAA,1998-12-02 03:00,ZBAA 020300Z AUTO 00000KT 6SM M04/M19 A3077 RMK SLP418 T10421187 52005 IEM_DS3505
ZBAA,1998-12-02 04:00,ZBAA 020400Z AUTO 03004KT 7SM M04/M19 A3071 RMK SLP404 T10401190 IEM_DS3505
ZBAA,1998-12-02 06:00,ZBAA 020600Z AUTO 20008KT 6SM M02/M19 A3065 RMK SLP390 T10211187 57028 IEM_DS3505
ZBAA,1998-12-02 07:00,ZBAA 020700Z AUTO 23004KT 7SM M02/M18 A3065 RMK SLP383 T10201180 IEM_DS3505
ZBAA,1998-12-02 08:00,ZBAA 020800Z AUTO 18006KT 7SM M02/M15 A3065 RMK SLP383 T10201150 IEM_DS3505
ZBAA,1998-12-02 09:00,ZBAA 020900Z AUTO 20004KT 6SM M03/M13 A3065 RMK SLP382 T10281132 57008 IEM_DS3505
ZBAA,1998-12-02 10:00,ZBAA 021000Z AUTO 03002KT 6SM M04/M12 A3068 RMK SLP393 T10401120 IEM_DS3505
ZBAA,1998-12-02 11:00,ZBAA 021100Z AUTO 00000KT 6SM M05/M10 A3068 RMK SLP394 T10501100 IEM_DS3505
ZBAA,1998-12-02 12:00,ZBAA 021200Z AUTO 00000KT 3SM M05/M09 A3068 RMK SLP394 T10491094 52012 IEM_DS3505
ZBAA,1998-12-02 13:00,ZBAA 021300Z AUTO 15002KT 4SM M05/M10 A3071 RMK SLP404 T10501100 IEM_DS3505
ZBAA,1998-12-02 14:00,ZBAA 021400Z AUTO 10002KT 4SM M05/M10 A3071 RMK SLP404 T10501100 IEM_DS3505
ZBAA,1998-12-02 15:00,ZBAA 021500Z AUTO 16002KT 4SM M05/M09 A3068 RMK SLP396 T10541086 52002 IEM_DS3505
ZBAA,1998-12-02 16:00,ZBAA 021600Z AUTO 04002KT 2 1/2SM M06/M09 A3068 RMK SLP394 T10601090 IEM_DS3505
ZBAA,1998-12-02 17:00,ZBAA 021700Z AUTO 02002KT 2 1/2SM M06/M09 A3068 RMK SLP394 T10601090 IEM_DS3505
ZBAA,1998-12-02 18:00,ZBAA 021800Z AUTO 00000KT 4SM M06/M09 A3065 RMK SLP384 T10611090 57012 IEM_DS3505
ZBAA,1998-12-02 19:00,ZBAA 021900Z AUTO 35002KT 2 1/2SM M07/M10 A3065 RMK SLP384 T10701100 IEM_DS3505
ZBAA,1998-12-02 20:00,ZBAA 022000Z AUTO 34004KT 3SM M08/M12 A3062 RMK SLP374 T10801120 IEM_DS3505
ZBAA,1998-12-02 21:00,ZBAA 022100Z AUTO 00000KT 3/8SM M08/M10 A3061 RMK SLP370 T10761095 57014 IEM_DS3505
ZBAA,1998-12-02 22:00,ZBAA 022200Z AUTO 32002KT 7SM M08/M12 A3062 RMK SLP374 T10801120 IEM_DS3505
ZBAA,1998-12-02 23:00,ZBAA 022300Z AUTO 00000KT 7SM M08/M12 A3059 RMK SLP364 T10801120 IEM_DS3505
ZBAA,1998-12-03 00:00,ZBAA 030000Z AUTO 00000KT 1 1/4SM M08/M09 A3059 RMK SLP364 T10761090 57006 IEM_DS3505
ZBAA,1998-12-03 01:00,ZBAA 030100Z AUTO 06002KT 4SM M07/M10 A3059 RMK SLP364 T10701100 IEM_DS3505
ZBAA,1998-12-03 02:00,ZBAA 030200Z AUTO ////02KT 3SM M06/M10 A3059 RMK SLP364 T10601100 IEM_DS3505
ZBAA,1998-12-03 03:00,ZBAA 030300Z AUTO 20002KT 2 1/2SM M04/M07 A3054 RMK SLP345 T10371073 57019 IEM_DS3505
ZBAA,1998-12-03 04:00,ZBAA 030400Z AUTO 09002KT 1 1/2SM M04/M09 A3053 RMK SLP343 T10401090 IEM_DS3505
ZBAA,1998-12-03 05:00,ZBAA 030500Z AUTO 12002KT 1 1/4SM M04/M08 A3047 RMK SLP323 T10401080 IEM_DS3505
ZBAA,1998-12-03 06:00,ZBAA 030600Z AUTO 20008KT 2 1/2SM M01/M11 A3045 RMK SLP306 T10081106 57038 IEM_DS3505
ZBAA,1998-12-03 07:00,ZBAA 030700Z AUTO 00000KT 1SM M02/M07 A3042 RMK SLP305 T10201070 IEM_DS3505
ZBAA,1998-12-03 08:00,ZBAA 030800Z AUTO 10002KT 1SM M02/M07 A3039 RMK SLP295 T10201070 IEM_DS3505
ZBAA,1998-12-03 09:00,ZBAA 030900Z AUTO 36002KT 2SM M02/M08 A3039 RMK SLP288 T10201078 57018 IEM_DS3505
ZBAA,1998-12-03 10:00,ZBAA 031000Z AUTO 17002KT 2 1/2SM M03/M09 A3036 RMK SLP285 T10301090 IEM_DS3505
ZBAA,1998-12-03 11:00,ZBAA 031100Z AUTO 13002KT 3SM M04/M08 A3036 RMK SLP285 T10401080 IEM_DS3505
ZBAA,1998-12-03 12:00,ZBAA 031200Z AUTO 00000KT 3SM M04/M09 A3036 RMK SLP278 T10421093 57011 IEM_DS3505
ZBAA,1998-12-03 13:00,ZBAA 031300Z AUTO 06002KT 2 1/2SM M05/M07 A3036 RMK SLP285 T10501070 IEM_DS3505
ZBAA,1998-12-03 14:00,ZBAA 031400Z AUTO 08002KT 2SM M05/M08 A3033 RMK SLP275 T10501080 IEM_DS3505
ZBAA,1998-12-03 15:00,ZBAA 031500Z AUTO 00000KT 2 1/2SM M03/M07 A3030 RMK SLP261 T10341069 57016 IEM_DS3505
ZBAA,1998-12-03 16:00,ZBAA 031600Z AUTO 00000KT 2SM M03/M08 A3030 RMK SLP264 T10301080 IEM_DS3505
ZBAA,1998-12-03 17:00,ZBAA 031700Z AUTO 00000KT 2SM M04/M07 A3027 RMK SLP255 T10401070 IEM_DS3505
ZBAA,1998-12-03 20:00,ZBAA 032000Z AUTO 35002KT 1 1/4SM M04/M07 A3024 RMK SLP245 T10401070 IEM_DS3505
ZBAA,1998-12-03 21:00,ZBAA 032100Z AUTO 00000KT 3SM M05/M09 A3024 RMK SLP232 T10461089 57014 IEM_DS3505
ZBAA,1998-12-03 22:00,ZBAA 032200Z AUTO 35004KT 1 1/4SM M05/M07 A3021 RMK SLP235 T10501070 IEM_DS3505
ZBAA,1998-12-03 23:00,ZBAA 032300Z AUTO 28004KT 1 1/4SM M04/M08 A3024 RMK SLP245 T10401080 IEM_DS3505
ZBAA,1998-12-04 00:00,ZBAA 040000Z AUTO 00000KT 1 1/4SM M04/M08 A3024 RMK SLP240 T10351083 52008 IEM_DS3505
ZBAA,1998-12-04 01:00,ZBAA 040100Z AUTO 31002KT 1 1/4SM M03/M07 A3027 RMK SLP254 T10301070 IEM_DS3505
ZBAA,1998-12-04 01:30,ZBAA 040130Z AUTO 35002KT 1 1/4SM M03/M07 A3027 RMK SLP254 T10301070 IEM_DS3505
ZBAA,1998-12-04 03:00,ZBAA 040300Z AUTO 00000KT 3SM M01/M08 A3030 RMK SLP257 T10111085 52017 IEM_DS3505
ZBAA,1998-12-04 04:00,ZBAA 040400Z AUTO 04002KT 2 1/2SM M01/M07 A3027 RMK SLP254 T10101070 IEM_DS3505
ZBAA,1998-12-04 05:00,ZBAA 040500Z AUTO 09002KT 2 1/2SM 00/M10 A3027 RMK SLP254 T00001100 IEM_DS3505
ZBAA,1998-12-04 06:00,ZBAA 040600Z AUTO 22004KT 3SM 01/M10 A3024 RMK SLP248 T00131100 57009 IEM_DS3505
ZBAA,1998-12-04 07:00,ZBAA 040700Z AUTO 04002KT 2 1/2SM 01/M09 A3027 RMK SLP253 T00101090 IEM_DS3505
ZBAA,1998-12-04 08:00,ZBAA 040800Z AUTO 01004KT 2 1/2SM 01/M09 A3030 RMK SLP263 T00101090 IEM_DS3505
ZBAA,1998-12-04 09:00,ZBAA 040900Z AUTO 09002KT 3SM M01/M06 A3036 RMK SLP275 T10121065 52027 IEM_DS3505
ZBAA,1998-12-04 10:00,ZBAA 041000Z AUTO 31004KT 2 1/2SM 00/M08 A3039 RMK SLP295 T00001080 IEM_DS3505
ZBAA,1998-12-04 11:00,ZBAA 041100Z AUTO 33006KT 2 1/2SM 00/M09 A3045 RMK SLP315 T00001090 IEM_DS3505
ZBAA,1998-12-04 12:00,ZBAA 041200Z AUTO 34006KT 6SM 01/M12 A3050 RMK SLP321 T00111123 52046 IEM_DS3505
ZBAA,1998-12-04 14:00,ZBAA 041400Z AUTO 02008KT 7SM M02/M13 A3059 RMK SLP363 T10201130 IEM_DS3505
ZBAA,1998-12-04 15:00,ZBAA 041500Z AUTO 02008KT 19SM M02/M17 A3059 RMK SLP358 T10151170 52037 IEM_DS3505
ZBAA,1998-12-04 16:00,ZBAA 041600Z AUTO 04006KT 7SM M03/M16 A3065 RMK SLP383 T10301160 IEM_DS3505
ZBAA,1998-12-04 17:00,ZBAA 041700Z AUTO 03008KT 7SM M04/M15 A3065 RMK SLP383 T10401150 IEM_DS3505
ZBAA,1998-12-04 18:00,ZBAA 041800Z AUTO 04008KT 19SM M04/M18 A3065 RMK SLP379 T10391179 52021 IEM_DS3505
ZBAA,1998-12-04 19:00,ZBAA 041900Z AUTO 02008KT 7SM M05/M15 A3068 RMK SLP394 T10501150 IEM_DS3505
ZBAA,1998-12-04 20:00,ZBAA 042000Z AUTO 03006KT 7SM M06/M15 A3068 RMK SLP394 T10601150 IEM_DS3505
ZBAA,1998-12-04 21:00,ZBAA 042100Z AUTO 02008KT 19SM M06/M17 A3068 RMK SLP387 T10581170 52007 IEM_DS3505
ZBAA,1998-12-04 22:00,ZBAA 042200Z AUTO 04006KT 7SM M06/M16 A3068 RMK SLP394 T10601160 IEM_DS3505
ZBAA,1998-12-05 00:00,ZBAA 050000Z AUTO 34002KT 19SM M07/M16 A3071 RMK SLP399 T10701162 52012 IEM_DS3505
ZBAA,1998-12-05 02:00,ZBAA 050200Z AUTO 06006KT 7SM M04/M17 A3071 RMK SLP404 T10401170 IEM_DS3505
ZBAA,1998-12-05 03:00,ZBAA 050300Z AUTO 09004KT 19SM M02/M20 A3071 RMK SLP402 T10221201 52004 IEM_DS3505
ZBAA,1998-12-05 04:00,ZBAA 050400Z AUTO 15004KT 7SM M03/M16 A3071 RMK SLP403 T10301160 IEM_DS3505
ZBAA,1998-12-05 05:00,ZBAA 050500Z AUTO 16004KT 6SM M02/M16 A3068 RMK SLP393 T10201160 IEM_DS3505
ZBAA,1998-12-05 06:00,ZBAA 050600Z AUTO 16004KT 12SM M02/M19 A3065 RMK SLP381 T10191191 57022 IEM_DS3505
ZBAA,1998-12-05 07:00,ZBAA 050700Z AUTO 19008KT 7SM M02/M16 A3062 RMK SLP373 T10201160 IEM_DS3505
ZBAA,1998-12-05 08:00,ZBAA 050800Z AUTO 19008KT 6SM M02/M14 A3062 RMK SLP373 T10201140 IEM_DS3505
ZBAA,1998-12-05 09:00,ZBAA 050900Z AUTO 20004KT 9SM M03/M12 A3062 RMK SLP369 T10291122 57012 IEM_DS3505
ZBAA,1998-12-05 10:00,ZBAA 051000Z AUTO 20004KT 6SM M03/M14 A3062 RMK SLP373 T10301140 IEM_DS3505
ZBAA,1998-12-05 11:00,ZBAA 051100Z AUTO 00000KT 5SM M04/M12 A3059 RMK SLP363 T10401120 IEM_DS3505
ZBAA,1998-12-05 12:00,ZBAA 051200Z AUTO 00000KT 9SM M05/M13 A3059 RMK SLP362 T10471129 57007 IEM_DS3505
ZBAA,1998-12-05 13:00,ZBAA 051300Z AUTO 09002KT 3SM M05/M10 A3062 RMK SLP374 T10501100 IEM_DS3505
ZBAA,1998-12-05 14:00,ZBAA 051400Z AUTO 13002KT 3SM M06/M10 A3062 RMK SLP374 T10601100 IEM_DS3505
ZBAA,1998-12-05 15:00,ZBAA 051500Z AUTO 00000KT 7SM M05/M10 A3062 RMK SLP365 T10521098 52003 IEM_DS3505
ZBAA,1998-12-05 16:00,ZBAA 051600Z AUTO 09002KT 4SM M05/M10 A3059 RMK SLP364 T10501100 IEM_DS3505
ZBAA,1998-12-05 17:00,ZBAA 051700Z AUTO 10004KT 4SM M05/M10 A3056 RMK SLP353 T10501100 IEM_DS3505
ZBAA,1998-12-05 18:00,ZBAA 051800Z AUTO 07004KT 6SM M05/M07 A3056 RMK SLP344 T10481074 57020 IEM_DS3505
ZBAA,1998-12-05 19:00,ZBAA 051900Z AUTO 11004KT 6SM M05/M09 A3053 RMK SLP343 T10501090 IEM_DS3505
ZBAA,1998-12-05 20:00,ZBAA 052000Z AUTO 00000KT 6SM M05/M08 A3053 RMK SLP343 T10501080 IEM_DS3505
ZBAA,1998-12-05 21:00,ZBAA 052100Z AUTO 07004KT 6SM M04/M06 A3050 RMK SLP327 T10411065 57017 IEM_DS3505
ZBAA,1998-12-05 22:00,ZBAA 052200Z AUTO 00000KT 5SM M04/M08 A3050 RMK SLP333 T10401080 IEM_DS3505
ZBAA,1998-12-05 23:00,ZBAA 052300Z AUTO 00000KT 4SM M04/M07 A3050 RMK SLP333 T10401070 IEM_DS3505
ZBAA,1998-12-06 00:00,ZBAA 060000Z AUTO 07004KT 4SM M04/M06 A3050 RMK SLP322 T10361059 57006 IEM_DS3505
ZBAA,1998-12-06 01:00,ZBAA 060100Z AUTO 00000KT 4SM M04/M07 A3047 RMK SLP323 T10401070 IEM_DS3505
ZBAA,1998-12-06 02:00,ZBAA 060200Z AUTO 00000KT 3SM M04/M07 A3047 RMK SLP323 T10401070 IEM_DS3505
ZBAA,1998-12-06 03:00,ZBAA 060300Z AUTO 04002KT 1SM M04/M05 A3047 RMK SLP314 T10371053 57008 IEM_DS3505
ZBAA,1998-12-06 04:00,ZBAA 060400Z AUTO 36006KT 1/2SM M04/M04 A3042 RMK SLP306 T10401040 IEM_DS3505
ZBAA,1998-12-06 05:00,ZBAA 060500Z AUTO 34006KT 1SM M04/M04 A3039 RMK SLP296 T10401040 IEM_DS3505
ZBAA,1998-12-06 06:00,ZBAA 060600Z AUTO 04004KT 1 1/4SM M03/M06 A3036 RMK 60002 SLP283 T10341061 57030 IEM_DS3505
ZBAA,1998-12-06 07:00,ZBAA 060700Z AUTO 00000KT 2SM M03/M04 A3036 RMK SLP285 T10301040 IEM_DS3505
ZBAA,1998-12-06 08:00,ZBAA 060800Z AUTO ////02KT 2SM M03/M04 A3036 RMK SLP285 T10301040 IEM_DS3505
ZBAA,1998-12-06 09:00,ZBAA 060900Z AUTO 09002KT 1 1/4SM M05/M06 A3039 RMK SLP282 T10461059 57001 IEM_DS3505
ZBAA,1998-12-06 10:00,ZBAA 061000Z AUTO 04002KT 1 1/4SM M05/M05 A3039 RMK SLP296 T10501050 IEM_DS3505
ZBAA,1998-12-06 11:00,ZBAA 061100Z AUTO 33002KT 1 1/4SM M06/M06 A3042 RMK SLP306 T10601060 IEM_DS3505
ZBAA,1998-12-06 12:00,ZBAA 061200Z AUTO 00000KT 1 1/4SM M04/M06 A3042 RMK SLP297 T10421059 52015 IEM_DS3505
ZBAA,1998-12-06 14:00,ZBAA 061400Z AUTO 26004KT 1SM M06/M07 A3042 RMK SLP306 T10601070 IEM_DS3505
ZBAA,1998-12-06 15:00,ZBAA 061500Z AUTO 29006KT 1SM M05/M06 A3042 RMK SLP296 T10461063 57001 IEM_DS3505
ZBAA,1998-12-06 16:00,ZBAA 061600Z AUTO 30008KT 1 1/2SM M06/M07 A3045 RMK SLP316 T10601070 IEM_DS3505
ZBAA,1998-12-06 17:00,ZBAA 061700Z AUTO 33008KT 2SM M05/M09 A3045 RMK SLP316 T10501090 IEM_DS3505
ZBAA,1998-12-06 18:00,ZBAA 061800Z AUTO 34008KT 12SM M01/M14 A3047 RMK SLP309 T10141144 52013 IEM_DS3505
ZBAA,1998-12-06 19:00,ZBAA 061900Z AUTO 36008KT 7SM M06/M10 A3047 RMK SLP323 T10601100 IEM_DS3505
ZBAA,1998-12-06 20:00,ZBAA 062000Z AUTO 02004KT 7SM M05/M12 A3047 RMK SLP323 T10501120 IEM_DS3505
ZBAA,1998-12-06 21:00,ZBAA 062100Z AUTO 36002KT 12SM M04/M15 A3047 RMK 70002 SLP319 T10361147 52009 IEM_DS3505
ZBAA,1998-12-06 22:00,ZBAA 062200Z AUTO 34004KT 7SM M07/M13 A3050 RMK SLP334 T10701130 IEM_DS3505
ZBAA,1998-12-06 23:00,ZBAA 062300Z AUTO 01008KT 7SM M07/M14 A3050 RMK SLP334 T10701140 IEM_DS3505
ZBAA,1998-12-07 00:00,ZBAA 070000Z AUTO 34006KT 12SM M05/M15 A3058 RMK 70002 SLP337 T10501154 52018 IEM_DS3505
ZBAA,1998-12-07 01:00,ZBAA 070100Z AUTO 34006KT 7SM M05/M13 A3056 RMK SLP353 T10501130 IEM_DS3505
ZBAA,1998-12-07 02:00,ZBAA 070200Z AUTO 33006KT 7SM M03/M12 A3056 RMK SLP353 T10301120 IEM_DS3505
ZBAA,1998-12-07 03:00,ZBAA 070300Z AUTO 07006G23KT 16SM M01/M16 A3056 RMK SLP346 T10091155 52010 IEM_DS3505
ZBAA,1998-12-07 04:00,ZBAA 070400Z AUTO 04006KT 7SM M02/M12 A3053 RMK SLP343 T10201120 IEM_DS3505
ZBAA,1998-12-07 05:00,ZBAA 070500Z AUTO 33006G16KT 7SM 00/M13 A3053 RMK SLP342 T00001130 IEM_DS3505
ZBAA,1998-12-07 06:00,ZBAA 070600Z AUTO 32006KT 16SM 02/M16 A3050 RMK SLP331 T00211156 57015 IEM_DS3505
ZBAA,1998-12-07 07:00,ZBAA 070700Z AUTO 01004KT 7SM 01/M13 A3050 RMK SLP332 T00101130 IEM_DS3505
ZBAA,1998-12-07 08:00,ZBAA 070800Z AUTO 04002KT 7SM 00/M13 A3050 RMK SLP332 T00001130 IEM_DS3505
ZBAA,1998-12-07 09:00,ZBAA 070900Z AUTO 32006KT 12SM 01/M17 A3051 RMK SLP335 T00081168 52004 IEM_DS3505
ZBAA,1998-12-07 10:00,ZBAA 071000Z AUTO 34006KT 7SM M02/M13 A3053 RMK SLP343 T10201130 IEM_DS3505
ZBAA,1998-12-07 12:00,ZBAA 071200Z AUTO 34004KT 16SM M01/M14 A3056 RMK SLP341 T10101135 52006 IEM_DS3505
ZBAA,1998-12-07 13:00,ZBAA 071300Z AUTO 30002KT 7SM M03/M15 A3056 RMK SLP353 T10301150 IEM_DS3505
ZBAA,1998-12-07 14:00,ZBAA 071400Z AUTO 00000KT 7SM M06/M12 A3056 RMK SLP354 T10601120 IEM_DS3505
ZBAA,1998-12-07 15:00,ZBAA 071500Z AUTO 22002KT 12SM M05/M11 A3056 RMK SLP345 T10481113 52004 IEM_DS3505
ZBAA,1998-12-07 16:00,ZBAA 071600Z AUTO 00000KT 7SM M07/M12 A3056 RMK SLP354 T10701120 IEM_DS3505
ZBAA,1998-12-07 17:00,ZBAA 071700Z AUTO 34002KT 7SM M06/M12 A3056 RMK SLP354 T10601120 IEM_DS3505
ZBAA,1998-12-07 18:00,ZBAA 071800Z AUTO 00000KT 9SM M05/M10 A3056 RMK SLP349 T10531099 52004 IEM_DS3505
ZBAA,1998-12-07 19:00,ZBAA 071900Z AUTO 36002KT 4SM M08/M12 A3056 RMK SLP354 T10801120 IEM_DS3505
ZBAA,1998-12-07 20:00,ZBAA 072000Z AUTO 35004KT 7SM M07/M12 A3056 RMK SLP354 T10701120 IEM_DS3505
ZBAA,1998-12-07 21:00,ZBAA 072100Z AUTO 27002KT 6SM M07/M10 A3056 RMK SLP347 T10711103 57002 IEM_DS3505
ZBAA,1998-12-07 22:00,ZBAA 072200Z AUTO 34004KT 7SM M08/M12 A3056 RMK SLP354 T10801120 IEM_DS3505
ZBAA,1998-12-07 23:00,ZBAA 072300Z AUTO 33008KT 7SM M07/M12 A3056 RMK SLP354 T10701120 IEM_DS3505
ZBAA,1998-12-08 00:00,ZBAA 080000Z AUTO 04002KT 5SM M07/M12 A3059 RMK SLP354 T10691116 52006 IEM_DS3505
ZBAA,1998-12-08 01:00,ZBAA 080100Z AUTO 33006KT 7SM M04/M11 A3059 RMK SLP363 T10401110 IEM_DS3505
ZBAA,1998-12-08 02:00,ZBAA 080200Z AUTO 34004KT 7SM M03/M11 A3059 RMK SLP363 T10301110 IEM_DS3505
ZBAA,1998-12-08 03:00,ZBAA 080300Z AUTO 32008KT 5SM 02/M18 A3059 RMK SLP361 T00151175 52008 IEM_DS3505
ZBAA,1998-12-08 04:00,ZBAA 080400Z AUTO 32008KT 7SM 01/M13 A3059 RMK SLP362 T00101130 IEM_DS3505
ZBAA,1998-12-08 06:00,ZBAA 080600Z AUTO 32012KT 9SM 03/M23 A3056 RMK SLP347 T00341226 57014 IEM_DS3505
ZBAA,1998-12-08 07:00,ZBAA 080700Z AUTO 30012KT 7SM 02/M15 A3056 RMK SLP352 T00201150 IEM_DS3505
ZBAA,1998-12-08 08:00,ZBAA 080800Z AUTO 29010KT 7SM 02/M15 A3056 RMK SLP352 T00201150 IEM_DS3505
ZBAA,1998-12-08 09:00,ZBAA 080900Z AUTO 32008KT 6SM 02/ A3057 RMK SLP356 52009 IEM_DS3505
ZBAA,1998-12-08 10:00,ZBAA 081000Z AUTO 30010KT 7SM 00/M15 A3059 RMK SLP362 T00001150 IEM_DS3505
ZBAA,1998-12-08 11:00,ZBAA 081100Z AUTO 30006KT 7SM M01/M15 A3062 RMK SLP373 T10101150 IEM_DS3505
ZBAA,1998-12-08 12:00,ZBAA 081200Z AUTO 32004KT 6SM 00/M16 A3062 RMK SLP373 T00031165 52016 IEM_DS3505
ZBAA,1998-12-08 13:00,ZBAA 081300Z AUTO 33008KT 7SM M02/M17 A3065 RMK SLP383 T10201170 IEM_DS3505
ZBAA,1998-12-08 14:00,ZBAA 081400Z AUTO 34008KT 7SM M02/M17 A3065 RMK SLP383 T10201170 IEM_DS3505
ZBAA,1998-12-08 16:00,ZBAA 081600Z AUTO 33006KT 7SM M04/M16 A3068 RMK SLP393 T10401160 IEM_DS3505
ZBAA,1998-12-08 17:00,ZBAA 081700Z AUTO 33004KT 7SM M04/M17 A3068 RMK SLP393 T10401170 IEM_DS3505
ZBAA,1998-12-08 18:00,ZBAA 081800Z AUTO 04004KT 4SM M03/M17 A3068 RMK SLP391 T10291172 52005 IEM_DS3505
ZBAA,1998-12-08 19:00,ZBAA 081900Z AUTO 33008KT 7SM M03/M18 A3068 RMK SLP393 T10301180 IEM_DS3505
ZBAA,1998-12-08 20:00,ZBAA 082000Z AUTO 34004KT 7SM M04/M18 A3068 RMK SLP393 T10401180 IEM_DS3505
ZBAA,1998-12-08 21:00,ZBAA 082100Z AUTO 27006KT 9SM M03/M16 A3068 RMK SLP391 T10321162 54000 IEM_DS3505
ZBAA,1998-12-08 22:00,ZBAA 082200Z AUTO ////02KT 7SM M05/M17 A3068 RMK SLP394 T10501170 IEM_DS3505
ZBAA,1998-12-08 23:00,ZBAA 082300Z AUTO 31004KT 6SM M06/M15 A3068 RMK SLP394 T10601150 IEM_DS3505
ZBAA,1998-12-09 00:00,ZBAA 090000Z AUTO 29004KT 2 1/2SM M07/M13 A3071 RMK SLP403 T10691133 52011 IEM_DS3505
ZBAA,1998-12-09 01:00,ZBAA 090100Z AUTO 34002KT 6SM M04/M13 A3074 RMK SLP415 T10401130 IEM_DS3505
ZBAA,1998-12-09 03:00,ZBAA 090300Z AUTO 14004KT 4SM 01/M14 A3074 RMK SLP404 T00081145 52002 IEM_DS3505
ZBAA,1998-12-09 04:00,ZBAA 090400Z AUTO ////02KT 6SM 00/M14 A3068 RMK SLP392 T00001140 IEM_DS3505
ZBAA,1998-12-09 05:00,ZBAA 090500Z AUTO 12002KT 7SM 01/M14 A3065 RMK SLP382 T00101140 IEM_DS3505
ZBAA,1998-12-09 06:00,ZBAA 090600Z AUTO 20008KT 6SM 02/M15 A3070 RMK SLP377 T00241148 57027 IEM_DS3505
ZBAA,1998-12-09 07:00,ZBAA 090700Z AUTO ////02KT 7SM 02/M13 A3062 RMK SLP372 T00201130 IEM_DS3505
ZBAA,1998-12-09 08:00,ZBAA 090800Z AUTO 18006KT 5SM 02/M11 A3062 RMK SLP372 T00201110 IEM_DS3505
ZBAA,1998-12-09 09:00,ZBAA 090900Z AUTO 20004KT 6SM 00/M13 A3062 RMK SLP369 T00051130 57008 IEM_DS3505
ZBAA,1998-12-09 10:00,ZBAA 091000Z AUTO 19006KT 4SM M01/M12 A3062 RMK SLP373 T10101120 IEM_DS3505
ZBAA,1998-12-09 11:00,ZBAA 091100Z AUTO 17006KT 4SM M02/M11 A3062 RMK SLP373 T10201110 IEM_DS3505
ZBAA,1998-12-09 12:00,ZBAA 091200Z AUTO 00000KT 6SM M02/M12 A3059 RMK SLP367 T10231117 57003 IEM_DS3505
ZBAA,1998-12-09 13:00,ZBAA 091300Z AUTO 00000KT 4SM M03/M12 A3059 RMK SLP363 T10301120 IEM_DS3505
ZBAA,1998-12-09 15:00,ZBAA 091500Z AUTO 20004KT 6SM M03/M11 A3059 RMK SLP362 T10301112 57004 IEM_DS3505
ZBAA,1998-12-09 16:00,ZBAA 091600Z AUTO 00000KT 1 1/2SM M06/M10 A3059 RMK SLP364 T10601100 IEM_DS3505
ZBAA,1998-12-09 17:00,ZBAA 091700Z AUTO 36002KT 1 1/2SM M06/M10 A3059 RMK SLP364 T10601100 IEM_DS3505
ZBAA,1998-12-09 18:00,ZBAA 091800Z AUTO 22002KT 9SM M05/M11 A3056 RMK SLP356 T10471106 57006 IEM_DS3505
ZBAA,1998-12-09 19:00,ZBAA 091900Z AUTO 35004KT 2SM M07/M10 A3056 RMK SLP354 T10701100 IEM_DS3505
ZBAA,1998-12-09 20:00,ZBAA 092000Z AUTO 35004KT 2SM M07/M11 A3056 RMK SLP354 T10701110 IEM_DS3505
ZBAA,1998-12-09 21:00,ZBAA 092100Z AUTO 16002KT 6SM M07/M11 A3053 RMK SLP344 T10701107 57012 IEM_DS3505
ZBAA,1998-12-09 22:00,ZBAA 092200Z AUTO 34002KT 2 1/2SM M08/M12 A3053 RMK SLP344 T10801120 IEM_DS3505
ZBAA,1998-12-09 23:00,ZBAA 092300Z AUTO 33004KT 2SM M08/M12 A3053 RMK SLP344 T10801120 IEM_DS3505
ZBAA,1998-12-10 00:00,ZBAA 100000Z AUTO 00000KT 2SM M07/M10 A3053 RMK SLP340 T10721099 57005 IEM_DS3505
ZBAA,1998-12-10 01:00,ZBAA 100100Z AUTO 35002KT 2SM M05/M09 A3053 RMK SLP343 T10501090 IEM_DS3505
ZBAA,1998-12-10 02:00,ZBAA 100200Z AUTO 34002KT 2SM M03/M07 A3053 RMK SLP343 T10301070 IEM_DS3505
ZBAA,1998-12-10 03:00,ZBAA 100300Z AUTO 20006KT 6SM 00/M11 A3050 RMK SLP337 T00041107 57002 IEM_DS3505
ZBAA,1998-12-10 04:00,ZBAA 100400Z AUTO ////04KT 3SM 02/M08 A3047 RMK SLP322 T00201080 IEM_DS3505
ZBAA,1998-12-10 06:00,ZBAA 100600Z AUTO 22008G25KT 7SM 07/M16 A3045 RMK SLP317 T00671158 57020 IEM_DS3505
ZBAA,1998-12-10 07:00,ZBAA 100700Z AUTO 31010KT 7SM 07/M12 A3045 RMK SLP313 T00701120 IEM_DS3505
ZBAA,1998-12-10 08:00,ZBAA 100800Z AUTO 01008KT 7SM 05/M10 A3050 RMK SLP331 T00501100 IEM_DS3505
ZBAA,1998-12-10 09:00,ZBAA 100900Z AUTO 34008KT 9SM 07/M15 A3053 RMK SLP338 T00661146 52021 IEM_DS3505
ZBAA,1998-12-10 10:00,ZBAA 101000Z AUTO 35016G25KT 7SM 03/M12 A3056 RMK SLP352 T00301120 IEM_DS3505
ZBAA,1998-12-10 11:00,ZBAA 101100Z AUTO 34017G27KT 7SM 03/M19 A3062 RMK SLP372 T00301190 IEM_DS3505
ZBAA,1998-12-10 12:00,ZBAA 101200Z AUTO 02004G29KT 12SM 02/M15 A3065 RMK SLP376 T00241148 52038 IEM_DS3505
ZBAA,1998-12-10 13:00,ZBAA 101300Z AUTO 35014KT 7SM 01/M20 A3068 RMK SLP392 T00101200 IEM_DS3505
ZBAA,1998-12-10 14:00,ZBAA 101400Z AUTO 35008KT 7SM M01/M18 A3071 RMK SLP403 T10101180 IEM_DS3505
ZBAA,1998-12-10 15:00,ZBAA 101500Z AUTO 00000KT 9SM M02/M14 A3071 RMK SLP396 T10221141 52020 IEM_DS3505
ZBAA,1998-12-10 16:00,ZBAA 101600Z AUTO 35002KT 7SM M01/M18 A3071 RMK SLP403 T10101180 IEM_DS3505
ZBAA,1998-12-10 17:00,ZBAA 101700Z AUTO 35006KT 7SM M01/M17 A3071 RMK SLP403 T10101170 IEM_DS3505
ZBAA,1998-12-10 18:00,ZBAA 101800Z AUTO 00000KT 9SM M01/M18 A3071 RMK SLP397 T10101175 52001 IEM_DS3505
ZBAA,1998-12-10 19:00,ZBAA 101900Z AUTO 01006KT 7SM M03/M15 A3071 RMK SLP403 T10301150 IEM_DS3505
ZBAA,1998-12-10 20:00,ZBAA 102000Z AUTO 00000KT 7SM M04/M16 A3071 RMK SLP404 T10401160 IEM_DS3505
ZBAA,1998-12-10 21:00,ZBAA 102100Z AUTO 27004KT 9SM M03/M16 A3068 RMK SLP395 T10261157 57002 IEM_DS3505
ZBAA,1998-12-10 22:00,ZBAA 102200Z AUTO ////02KT 7SM M03/M15 A3068 RMK SLP393 T10301150 IEM_DS3505
ZBAA,1998-12-10 23:00,ZBAA 102300Z AUTO 00000KT 7SM M05/M13 A3068 RMK SLP394 T10501130 IEM_DS3505
ZBAA,1998-12-11 00:00,ZBAA 110000Z AUTO 22006KT 6SM M04/M13 A3071 RMK SLP397 T10421133 52002 IEM_DS3505
ZBAA,1998-12-11 01:00,ZBAA 110100Z AUTO 07002KT 7SM M04/ RMK IEM_DS3505
ZBAA,1998-12-11 02:00,ZBAA 110200Z AUTO 12004KT 7SM M01/M10 A3068 RMK SLP393 T10101100 IEM_DS3505
ZBAA,1998-12-11 03:00,ZBAA 110300Z AUTO 20014G16KT 7SM 01/M16 A3068 RMK SLP391 T00121158 57006 IEM_DS3505
ZBAA,1998-12-11 04:00,ZBAA 110400Z AUTO 22010KT 7SM 03/M15 A3062 RMK SLP372 T00301150 IEM_DS3505
ZBAA,1998-12-11 05:00,ZBAA 110500Z AUTO 19010KT 7SM 03/M15 A3059 RMK SLP362 T00301150 IEM_DS3505
ZBAA,1998-12-11 06:00,ZBAA 110600Z AUTO 22012KT 7SM 04/M20 A3056 RMK SLP350 T00411200 57041 IEM_DS3505
ZBAA,1998-12-11 07:00,ZBAA 110700Z AUTO 18010KT 7SM 04/M16 A3050 RMK T00401160 IEM_DS3505
ZBAA,1998-12-11 08:00,ZBAA 110800Z AUTO 18008KT 7SM 03/M15 A3050 RMK SLP331 T00301150 IEM_DS3505
ZBAA,1998-12-11 09:00,ZBAA 110900Z AUTO 18004KT 10SM 02/M15 A3047 RMK SLP325 T00221147 57025 IEM_DS3505
ZBAA,1998-12-11 10:00,ZBAA 111000Z AUTO 15004KT 7SM 00/M14 A3047 RMK SLP322 T00001140 IEM_DS3505
ZBAA,1998-12-11 11:00,ZBAA 111100Z AUTO 13002KT 7SM M02/M12 A3047 RMK SLP323 T10201120 IEM_DS3505
ZBAA,1998-12-11 12:00,ZBAA 111200Z AUTO 16006KT 9SM 00/M14 A3045 RMK SLP316 T00031139 57009 IEM_DS3505
ZBAA,1998-12-11 13:00,ZBAA 111300Z AUTO 14004KT 7SM M03/M11 A3045 RMK SLP316 T10301110 IEM_DS3505
ZBAA,1998-12-11 14:00,ZBAA 111400Z AUTO 07004KT 7SM M04/M12 A3042 RMK SLP306 T10401120 IEM_DS3505
ZBAA,1998-12-11 15:00,ZBAA 111500Z AUTO 00000KT 7SM M03/M14 A3042 RMK SLP306 T10341137 57010 IEM_DS3505
ZBAA,1998-12-11 18:00,ZBAA 111800Z AUTO 00000KT 3SM M06/M12 A3039 RMK SLP285 T10611115 57021 IEM_DS3505
ZBAA,1998-12-11 19:00,ZBAA 111900Z AUTO 34004KT 7SM M06/M11 A3036 RMK SLP285 T10601110 IEM_DS3505
ZBAA,1998-12-11 20:00,ZBAA 112000Z AUTO 35004KT 4SM M06/M10 A3033 RMK SLP275 T10601100 IEM_DS3505
ZBAA,1998-12-11 21:00,ZBAA 112100Z AUTO 04004KT 3SM M05/M12 A3033 RMK SLP265 T10501121 57020 IEM_DS3505
ZBAA,1998-12-11 22:00,ZBAA 112200Z AUTO 00000KT 4SM M07/M11 A3030 RMK SLP265 T10701110 IEM_DS3505
ZBAA,1998-12-11 23:00,ZBAA 112300Z AUTO 33004KT 5SM M06/M11 A3033 RMK SLP275 T10601110 IEM_DS3505
ZBAA,1998-12-12 00:00,ZBAA 120000Z AUTO 00000KT 3SM M07/M11 A3033 RMK SLP264 T10691110 57001 IEM_DS3505
ZBAA,1998-12-12 01:00,ZBAA 120100Z AUTO 33004KT 4SM M04/M10 A3033 RMK SLP275 T10401100 IEM_DS3505
ZBAA,1998-12-12 02:00,ZBAA 120200Z AUTO 35004KT 4SM M03/M08 A3033 RMK SLP274 T10301080 IEM_DS3505
ZBAA,1998-12-12 03:00,ZBAA 120300Z AUTO 02006KT 4SM 00/M12 A3030 RMK SLP261 T00051122 57003 IEM_DS3505
ZBAA,1998-12-12 04:00,ZBAA 120400Z AUTO 03002KT 4SM 01/M10 A3027 RMK SLP253 T00101100 IEM_DS3505
ZBAA,1998-12-12 05:00,ZBAA 120500Z AUTO 00000KT 5SM 03/M11 A3024 RMK SLP243 T00301110 IEM_DS3505
ZBAA,1998-12-12 06:00,ZBAA 120600Z AUTO 29002KT 5SM 05/M11 A3021 RMK SLP237 T00491110 57024 IEM_DS3505
ZBAA,1998-12-12 07:00,ZBAA 120700Z AUTO 04002KT 4SM 04/M09 A3021 RMK SLP233 T00401090 IEM_DS3505
ZBAA,1998-12-12 08:00,ZBAA 120800Z AUTO 00000KT 4SM 03/M10 A3021 RMK SLP233 T00301100 IEM_DS3505
ZBAA,1998-12-12 09:00,ZBAA 120900Z AUTO 00000KT 4SM 02/M08 A3024 RMK SLP239 T00251076 52002 IEM_DS3505
ZBAA,1998-12-12 10:00,ZBAA 121000Z AUTO 01002KT 4SM 00/M07 A3027 RMK SLP254 T00001070 IEM_DS3505
ZBAA,1998-12-12 11:00,ZBAA 121100Z AUTO 00000KT 3SM M01/M08 A3027 RMK SLP254 T10101080 IEM_DS3505
ZBAA,1998-12-12 12:00,ZBAA 121200Z AUTO 00000KT 5SM M00/M08 A3027 RMK SLP253 T10021080 52014 IEM_DS3505
ZBAA,1998-12-12 13:00,ZBAA 121300Z AUTO 34004KT 2 1/2SM M03/M09 A3030 RMK SLP264 T10301090 IEM_DS3505
ZBAA,1998-12-12 14:00,ZBAA 121400Z AUTO 34004KT 2 1/2SM M02/M08 A3030 RMK SLP264 T10201080 IEM_DS3505
ZBAA,1998-12-12 15:00,ZBAA 121500Z AUTO 00000KT 4SM M03/M08 A3030 RMK SLP262 T10311082 52009 IEM_DS3505
ZBAA,1998-12-12 16:00,ZBAA 121600Z AUTO 35004KT 3SM M02/M09 A3033 RMK SLP274 T10201090 IEM_DS3505
ZBAA,1998-12-12 17:00,ZBAA 121700Z AUTO 02002KT 3SM M03/M08 A3030 RMK SLP264 T10301080 IEM_DS3505
ZBAA,1998-12-12 18:00,ZBAA 121800Z AUTO 00000KT 3SM M04/M08 A3030 RMK SLP257 T10351085 57005 IEM_DS3505
ZBAA,1998-12-12 19:00,ZBAA 121900Z AUTO 05002KT 2 1/2SM M02/M08 A3030 RMK SLP264 T10201080 IEM_DS3505
ZBAA,1998-12-12 20:00,ZBAA 122000Z AUTO 32002KT 3SM M03/M09 A3027 RMK SLP254 T10301090 IEM_DS3505
ZBAA,1998-12-12 21:00,ZBAA 122100Z AUTO 22002KT 3SM M04/M09 A3027 RMK SLP251 T10391094 57006 IEM_DS3505
ZBAA,1998-12-12 22:00,ZBAA 122200Z AUTO 34002KT 3SM M04/M08 A3027 RMK SLP255 T10401080 IEM_DS3505
ZBAA,1998-12-12 23:00,ZBAA 122300Z AUTO ////04KT M06/M09 A3027 RMK SLP255 T10601090 IEM_DS3505
ZBAA,1998-12-13 00:00,ZBAA 130000Z AUTO 00000KT 2SM M06/M09 A3032 RMK SLP249 T10551087 57002 IEM_DS3505
ZBAA,1998-12-13 01:00,ZBAA 130100Z AUTO 25002KT 3SM M02/M07 A3027 RMK SLP254 T10201070 IEM_DS3505
ZBAA,1998-12-13 02:00,ZBAA 130200Z AUTO 21002KT 2 1/2SM 02/M07 A3027 RMK SLP253 T00201070 IEM_DS3505
ZBAA,1998-12-13 03:00,ZBAA 130300Z AUTO 29004KT 3SM 05/M08 A3027 RMK SLP252 T00491078 52004 IEM_DS3505
ZBAA,1998-12-13 04:00,ZBAA 130400Z AUTO 20004KT 2 1/2SM 08/M07 A3024 RMK SLP242 T00801070 IEM_DS3505
ZBAA,1998-12-13 05:00,ZBAA 130500Z AUTO 18008KT 1 1/2SM 09/M08 A3021 RMK SLP231 T00901080 IEM_DS3505
ZBAA,1998-12-13 06:00,ZBAA 130600Z AUTO 16004KT 3SM 08/M08 A3023 RMK SLP216 T00831082 57036 IEM_DS3505
ZBAA,1998-12-13 07:00,ZBAA 130700Z AUTO 18006KT 3SM 09/M09 A3015 RMK SLP211 T00901090 IEM_DS3505
ZBAA,1998-12-13 08:00,ZBAA 130800Z AUTO 21004KT 2SM 07/M08 A3015 RMK SLP212 T00701080 IEM_DS3505
ZBAA,1998-12-13 09:00,ZBAA 130900Z AUTO 18006KT 2 1/2SM 06/M06 A3015 RMK SLP209 T00621055 57007 IEM_DS3505
ZBAA,1998-12-13 10:00,ZBAA 131000Z AUTO 19006KT 1 1/4SM 04/M06 A3015 RMK SLP212 T00401060 IEM_DS3505
ZBAA,1998-12-13 12:00,ZBAA 131200Z AUTO 25004KT 2 1/2SM 02/M06 A3015 RMK SLP212 T00241055 52002 IEM_DS3505
ZBAA,1998-12-13 13:00,ZBAA 131300Z AUTO 28006KT 2SM 05/M07 A3015 RMK SLP212 T00501070 IEM_DS3505
ZBAA,1998-12-13 14:00,ZBAA 131400Z AUTO 30010KT 6SM 07/M08 A3015 RMK SLP212 T00701080 IEM_DS3505
ZBAA,1998-12-13 15:00,ZBAA 131500Z AUTO 29010G25KT 6SM 06/M05 A3018 RMK SLP216 T00611053 52005 IEM_DS3505
ZBAA,1998-12-13 16:00,ZBAA 131600Z AUTO 29014KT 6SM 06/M08 A3018 RMK SLP222 T00601080 IEM_DS3505
ZBAA,1998-12-13 17:00,ZBAA 131700Z AUTO 30014G29KT 7SM 06/M11 A3018 RMK SLP222 T00601110 IEM_DS3505
ZBAA,1998-12-13 18:00,ZBAA 131800Z AUTO 29016KT 6SM 06/M16 A3018 RMK SLP218 T00611157 52003 IEM_DS3505
ZBAA,1998-12-13 19:00,ZBAA 131900Z AUTO 29006KT 7SM 04/M11 A3018 RMK SLP223 T00401110 IEM_DS3505
ZBAA,1998-12-13 20:00,ZBAA 132000Z AUTO 28006KT 7SM 03/M11 A3021 RMK SLP233 T00301110 IEM_DS3505
ZBAA,1998-12-13 21:00,ZBAA 132100Z AUTO 29006KT 6SM 05/M13 A3021 RMK SLP225 T00471134 52006 IEM_DS3505
ZBAA,1998-12-13 22:00,ZBAA 132200Z AUTO 27006KT 7SM 03/M12 A3024 RMK SLP243 T00301120 IEM_DS3505
ZBAA,1998-12-13 23:00,ZBAA 132300Z AUTO 30012KT 7SM 03/M12 A3024 RMK SLP243 T00301120 IEM_DS3505
ZBAA,1998-12-14 00:00,ZBAA 140000Z AUTO 32016KT 6SM 04/M12 A3027 RMK SLP246 T00441121 52021 IEM_DS3505
ZBAA,1998-12-14 02:00,ZBAA 140200Z AUTO 36008KT 7SM 05/M12 A3030 RMK SLP263 T00501120 IEM_DS3505
ZBAA,1998-12-14 03:00,ZBAA 140300Z AUTO 34006G19KT 7SM 07/M15 A3030 RMK SLP257 T00661151 52011 IEM_DS3505
ZBAA,1998-12-14 04:00,ZBAA 140400Z AUTO 31019G31KT 7SM 07/M13 A3027 RMK SLP252 T00701130 IEM_DS3505
ZBAA,1998-12-14 05:00,ZBAA 140500Z AUTO 31019G31KT 7SM 08/M14 A3027 RMK SLP252 T00801140 IEM_DS3505
ZBAA,1998-12-14 06:00,ZBAA 140600Z AUTO 29010KT 9SM 09/M13 A3027 RMK SLP246 T00911132 57010 IEM_DS3505
ZBAA,1998-12-14 07:00,ZBAA 140700Z AUTO 31012KT 7SM 09/M13 A3024 RMK SLP242 T00901130 IEM_DS3505
ZBAA,1998-12-14 08:00,ZBAA 140800Z AUTO 30010KT 7SM 08/M12 A3024 RMK SLP242 T00801120 IEM_DS3505
ZBAA,1998-12-14 09:00,ZBAA 140900Z AUTO 29010KT 12SM 08/M14 A3024 RMK SLP246 T00831140 57001 IEM_DS3505
ZBAA,1998-12-14 10:00,ZBAA 141000Z AUTO 23002KT 7SM 07/M11 A3027 RMK SLP252 T00701110 IEM_DS3505
ZBAA,1998-12-14 11:00,ZBAA 141100Z AUTO 25002KT 7SM 06/M11 A3024 RMK SLP242 T00601110 IEM_DS3505
ZBAA,1998-12-14 12:00,ZBAA 141200Z AUTO 22004KT 12SM 03/M08 A3024 RMK SLP246 T00331077 54000 IEM_DS3505
ZBAA,1998-12-14 13:00,ZBAA 141300Z AUTO 22004KT 7SM 05/M11 A3024 RMK SLP242 T00501110 IEM_DS3505
ZBAA,1998-12-14 14:00,ZBAA 141400Z AUTO 26006KT 7SM 04/M11 A3021 RMK SLP233 T00401110 IEM_DS3505
ZBAA,1998-12-14 15:00,ZBAA 141500Z AUTO 22006KT 12SM 01/M11 A3021 RMK SLP235 T00141109 57011 IEM_DS3505
ZBAA,1998-12-14 16:00,ZBAA 141600Z AUTO 19004KT 7SM 01/M09 A3021 RMK SLP233 T00101090 IEM_DS3505
ZBAA,1998-12-14 17:00,ZBAA 141700Z AUTO 24006KT 7SM 05/M12 A3018 RMK SLP222 T00501120 IEM_DS3505
ZBAA,1998-12-14 18:00,ZBAA 141800Z AUTO 10002KT 7SM 02/M11 A3015 RMK SLP213 T00201110 IEM_DS3505
ZBAA,1998-12-14 19:00,ZBAA 141900Z AUTO 00000KT 7SM 00/M10 A3015 RMK SLP213 T00001100 IEM_DS3505
ZBAA,1998-12-14 20:00,ZBAA 142000Z AUTO 19006KT 7SM M02/M09 A3012 RMK SLP204 T10201090 IEM_DS3505
ZBAA,1998-12-14 21:00,ZBAA 142100Z AUTO 18004KT 6SM M02/M09 A3012 RMK SLP201 T10241086 57016 IEM_DS3505
ZBAA,1998-12-14 22:00,ZBAA 142200Z AUTO 19006KT 7SM M02/M09 A3009 RMK SLP193 T10201090 IEM_DS3505
ZBAA,1998-12-14 23:00,ZBAA 142300Z AUTO 00000KT 7SM 00/M10 A3009 RMK SLP192 T00001100 IEM_DS3505
ZBAA,1998-12-15 00:00,ZBAA 150000Z AUTO 00000KT 3SM M03/M08 A3009 RMK SLP193 T10311082 57008 IEM_DS3505
ZBAA,1998-12-15 01:00,ZBAA 150100Z AUTO 11002KT 3SM 00/M06 A3009 RMK SLP192 T00001060 IEM_DS3505
ZBAA,1998-12-15 02:00,ZBAA 150200Z AUTO 00000KT 2 1/2SM 04/M07 A3009 RMK SLP191 T00401070 IEM_DS3505
ZBAA,1998-12-15 03:00,ZBAA 150300Z AUTO 20004KT 4SM 06/M07 A3006 RMK SLP183 T00551067 57010 IEM_DS3505
ZBAA,1998-12-15 04:00,ZBAA 150400Z AUTO 31012KT 7SM 11/M12 A3003 RMK SLP170 T01101120 IEM_DS3505
ZBAA,1998-12-15 05:00,ZBAA 150500Z AUTO 30017G31KT 7SM 12/M13 A3000 RMK SLP159 T01201130 IEM_DS3505
ZBAA,1998-12-15 06:00,ZBAA 150600Z AUTO 29004G25KT 5SM 12/M09 A3000 RMK SLP158 T01171086 57024 IEM_DS3505
ZBAA,1998-12-15 07:00,ZBAA 150700Z AUTO 28016KT 7SM 12/M13 A2997 RMK SLP149 T01201130 IEM_DS3505
ZBAA,1998-12-15 08:00,ZBAA 150800Z AUTO 29012KT 7SM 11/M12 A3000 RMK SLP160 T01101120 IEM_DS3505
ZBAA,1998-12-15 09:00,ZBAA 150900Z AUTO 00000KT 5SM 10/M08 A3003 RMK SLP171 T00951077 52012 IEM_DS3505
ZBAA,1998-12-15 10:00,ZBAA 151000Z AUTO 29008KT 7SM 09/M11 A3003 RMK SLP170 T00901110 IEM_DS3505
ZBAA,1998-12-15 11:00,ZBAA 151100Z AUTO 14002KT 7SM 04/M09 A3006 RMK SLP181 T00401090 IEM_DS3505
ZBAA,1998-12-15 12:00,ZBAA 151200Z AUTO 27006KT 6SM 05/M07 A3009 RMK SLP185 T00531070 52014 IEM_DS3505
ZBAA,1998-12-15 13:00,ZBAA 151300Z AUTO 27006KT 7SM 05/M09 A3009 RMK SLP191 T00501090 IEM_DS3505
ZBAA,1998-12-15 14:00,ZBAA 151400Z AUTO 27006KT 7SM 05/M10 A3009 RMK SLP191 T00501100 IEM_DS3505
ZBAA,1998-12-15 15:00,ZBAA 151500Z AUTO 29008KT 6SM 08/M10 A3009 RMK SLP191 T00761097 52007 IEM_DS3505
ZBAA,1998-12-15 16:00,ZBAA 151600Z AUTO 27004KT 7SM 02/M09 A3012 RMK SLP203 T00201090 IEM_DS3505
ZBAA,1998-12-15 17:00,ZBAA 151700Z AUTO 12002KT 7SM M02/M07 A3012 RMK SLP204 T10201070 IEM_DS3505
ZBAA,1998-12-15 18:00,ZBAA 151800Z AUTO 27004KT 7SM 06/M11 A3012 RMK SLP199 T00591106 52008 IEM_DS3505
ZBAA,1998-12-15 21:00,ZBAA 152100Z AUTO 22002KT 6SM 07/M09 A3012 RMK SLP203 T00671094 52004 IEM_DS3505
ZBAA,1998-12-15 22:00,ZBAA 152200Z AUTO 01004KT 7SM 01/M10 A3015 RMK SLP213 T00101100 IEM_DS3505
ZBAA,1998-12-15 23:00,ZBAA 152300Z AUTO 33006KT 7SM 01/M10 A3015 RMK SLP213 T00101100 IEM_DS3505
ZBAA,1998-12-16 00:00,ZBAA 160000Z AUTO 09004KT 6SM 06/M10 A3018 RMK SLP216 T00591100 52012 IEM_DS3505
ZBAA,1998-12-16 01:00,ZBAA 160100Z AUTO 00000KT 5SM 02/M06 A3021 RMK SLP233 T00201060 IEM_DS3505
ZBAA,1998-12-16 02:00,ZBAA 160200Z AUTO 35002KT 7SM 07/M07 A3021 RMK SLP232 T00701070 IEM_DS3505
ZBAA,1998-12-16 03:00,ZBAA 160300Z AUTO 11004KT 6SM 10/M05 A3021 RMK SLP223 T01031052 52008 IEM_DS3505
ZBAA,1998-12-16 04:00,ZBAA 160400Z AUTO 01006KT 7SM 10/M10 A3018 RMK SLP221 T01001100 IEM_DS3505
ZBAA,1998-12-16 05:00,ZBAA 160500Z AUTO 30004KT 7SM 11/M11 A3018 RMK SLP221 T01101110 IEM_DS3505
ZBAA,1998-12-16 06:00,ZBAA 160600Z AUTO 22006KT 9SM 12/M08 A3015 RMK SLP213 T01211083 57010 IEM_DS3505
ZBAA,1998-12-16 07:00,ZBAA 160700Z AUTO 17004KT 7SM 12/M11 A3015 RMK SLP211 T01201110 IEM_DS3505
ZBAA,1998-12-16 08:00,ZBAA 160800Z AUTO 19006KT 4SM 11/M09 A3015 RMK SLP211 T01101090 IEM_DS3505
ZBAA,1998-12-16 09:00,ZBAA 160900Z AUTO 18002KT 6SM 07/M04 A3015 RMK SLP211 T00701042 57002 IEM_DS3505
ZBAA,1998-12-16 10:00,ZBAA 161000Z AUTO 19004KT 4SM 05/M07 A3015 RMK SLP212 T00501070 IEM_DS3505
ZBAA,1998-12-16 11:00,ZBAA 161100Z AUTO 00000KT 4SM 03/M06 A3018 RMK SLP223 T00301060 IEM_DS3505
ZBAA,1998-12-16 12:00,ZBAA 161200Z AUTO 00000KT 6SM 04/M04 A3018 RMK SLP215 T00351036 52003 IEM_DS3505
ZBAA,1998-12-16 13:00,ZBAA 161300Z AUTO 00000KT 2SM 01/M06 A3018 RMK SLP223 T00101060 IEM_DS3505
ZBAA,1998-12-16 14:00,ZBAA 161400Z AUTO 00000KT 1 1/2SM 00/M06 A3018 RMK SLP223 T00001060 IEM_DS3505
ZBAA,1998-12-16 15:00,ZBAA 161500Z AUTO 00000KT 4SM M01/M05 A3018 RMK SLP218 T10121048 52003 IEM_DS3505
ZBAA,1998-12-16 16:00,ZBAA 161600Z AUTO 34004KT 2SM M01/M06 A3021 RMK SLP234 T10101060 IEM_DS3505
ZBAA,1998-12-16 17:00,ZBAA 161700Z AUTO 36002KT 2SM M02/M06 A3018 RMK SLP224 T10201060 IEM_DS3505
ZBAA,1998-12-16 18:00,ZBAA 161800Z AUTO 00000KT 4SM M01/M05 A3023 RMK SLP217 T10131053 57001 IEM_DS3505
ZBAA,1998-12-16 19:00,ZBAA 161900Z AUTO 01002KT 3SM M02/M06 A3018 RMK SLP224 T10201060 IEM_DS3505
ZBAA,1998-12-16 20:00,ZBAA 162000Z AUTO 02002KT 3SM M02/M06 A3018 RMK SLP224 T10201060 IEM_DS3505
ZBAA,1998-12-16 21:00,ZBAA 162100Z AUTO 00000KT 2 1/2SM M03/M06 A3015 RMK SLP216 T10261065 57001 IEM_DS3505
ZBAA,1998-12-16 22:00,ZBAA 162200Z AUTO 36002KT 3SM M03/M06 A3015 RMK SLP214 T10301060 IEM_DS3505
ZBAA,1998-12-16 23:00,ZBAA 162300Z AUTO 34002KT 3SM M03/M06 A3018 RMK SLP224 T10301060 IEM_DS3505
ZBAA,1998-12-17 00:00,ZBAA 170000Z AUTO 04004KT 2 1/2SM M01/M06 A3018 RMK SLP216 T10091064 54000 IEM_DS3505
ZBAA,1998-12-17 01:00,ZBAA 170100Z AUTO 36002KT 4SM M02/M05 A3018 RMK SLP224 T10201050 IEM_DS3505
ZBAA,1998-12-17 02:00,ZBAA 170200Z AUTO 35002KT 4SM 01/M04 A3021 RMK SLP233 T00101040 IEM_DS3505
ZBAA,1998-12-17 03:00,ZBAA 170300Z AUTO 04006KT 2 1/2SM 03/M06 A3017 RMK SLP218 T00271064 52002 IEM_DS3505
ZBAA,1998-12-17 04:00,ZBAA 170400Z AUTO 36004KT 4SM 04/M05 A3015 RMK SLP212 T00401050 IEM_DS3505
ZBAA,1998-12-17 05:00,ZBAA 170500Z AUTO 02002KT 4SM 05/M05 A3012 RMK SLP202 T00501050 IEM_DS3505
ZBAA,1998-12-17 06:00,ZBAA 170600Z AUTO 09006KT 3SM 06/M06 A3009 RMK SLP189 T00581057 57029 IEM_DS3505
ZBAA,1998-12-17 07:00,ZBAA 170700Z AUTO 00000KT 4SM 06/M06 A3009 RMK SLP191 T00601060 IEM_DS3505
ZBAA,1998-12-17 08:00,ZBAA 170800Z AUTO 00000KT 4SM 05/M06 A3009 RMK SLP191 T00501060 IEM_DS3505
ZBAA,1998-12-17 09:00,ZBAA 170900Z AUTO 04002KT 2SM 03/M04 A3006 RMK SLP183 T00311038 57006 IEM_DS3505
ZBAA,1998-12-17 10:00,ZBAA 171000Z AUTO 35002KT 3SM 03/M05 A3009 RMK SLP192 T00301050 IEM_DS3505
ZBAA,1998-12-17 11:00,ZBAA 171100Z AUTO 32002KT 3SM 03/M05 A3009 RMK SLP192 T00301050 IEM_DS3505
ZBAA,1998-12-17 12:00,ZBAA 171200Z AUTO 02004KT 3SM 02/M03 A3013 RMK SLP183 T00171031 54000 IEM_DS3505
ZBAA,1998-12-17 13:00,ZBAA 171300Z AUTO 01002KT 2SM 02/M04 A3006 RMK SLP182 T00201040 IEM_DS3505
ZBAA,1998-12-17 14:00,ZBAA 171400Z AUTO 00000KT 2SM 04/M05 A3006 RMK SLP181 T00401050 IEM_DS3505
ZBAA,1998-12-17 15:00,ZBAA 171500Z AUTO 36006KT 2 1/2SM 03/M04 A3009 RMK SLP182 T00261041 57001 IEM_DS3505
ZBAA,1998-12-17 16:00,ZBAA 171600Z AUTO 35002KT 1 1/4SM 00/M04 A3006 RMK SLP182 T00001040 IEM_DS3505
ZBAA,1998-12-17 17:00,ZBAA 171700Z AUTO 34004KT 1 1/4SM 00/M04 A3006 RMK SLP182 T00001040 IEM_DS3505
ZBAA,1998-12-17 18:00,ZBAA 171800Z AUTO 02004KT 2SM 02/M03 A3006 RMK SLP177 T00221032 57005 IEM_DS3505
ZBAA,1998-12-17 19:00,ZBAA 171900Z AUTO 34006KT 1 1/4SM M02/M05 A3006 RMK SLP183 T10201050 IEM_DS3505
ZBAA,1998-12-17 20:00,ZBAA 172000Z AUTO 36006KT 1 1/4SM M02/M05 A3006 RMK SLP183 T10201050 IEM_DS3505
ZBAA,1998-12-17 21:00,ZBAA 172100Z AUTO 00000KT 4SM M01/M04 A3003 RMK SLP173 T10091041 57004 IEM_DS3505
ZBAA,1998-12-17 23:00,ZBAA 172300Z AUTO 36006KT 2SM M01/M04 A3006 RMK SLP182 T10101040 IEM_DS3505
ZBAA,1998-12-18 00:00,ZBAA 180000Z AUTO 02004KT 2SM 00/M05 A3009 RMK SLP185 T00021050 52012 IEM_DS3505
ZBAA,1998-12-18 01:00,ZBAA 180100Z AUTO 35004KT 2SM 01/M04 A3012 RMK SLP203 T00101040 IEM_DS3505
ZBAA,1998-12-18 02:00,ZBAA 180200Z AUTO 35010KT 2 1/2SM 05/M03 A3012 RMK SLP202 T00501030 IEM_DS3505
ZBAA,1998-12-18 03:00,ZBAA 180300Z AUTO 09004G25KT 3SM 08/M05 A3012 RMK SLP193 T00771047 52008 IEM_DS3505
ZBAA,1998-12-18 04:00,ZBAA 180400Z AUTO 32019KT 6SM 11/M11 A3009 RMK SLP190 T01101110 IEM_DS3505
ZBAA,1998-12-18 05:00,ZBAA 180500Z AUTO 32016KT 6SM 10/M13 A3012 RMK SLP201 T01001130 IEM_DS3505
ZBAA,1998-12-18 06:00,ZBAA 180600Z AUTO 34012KT 6SM 10/M18 A3012 RMK SLP184 T01031175 57008 IEM_DS3505
ZBAA,1998-12-18 07:00,ZBAA 180700Z AUTO 31012KT 6SM 10/M14 A3012 RMK SLP201 T01001140 IEM_DS3505
ZBAA,1998-12-18 08:00,ZBAA 180800Z AUTO 31010KT 6SM 09/M14 A3012 RMK SLP201 T00901140 IEM_DS3505
ZBAA,1998-12-18 09:00,ZBAA 180900Z AUTO 02004KT 7SM 08/M14 A3012 RMK SLP200 T00851140 52015 IEM_DS3505
ZBAA,1998-12-18 10:00,ZBAA 181000Z AUTO 30012KT 7SM 08/M16 A3015 RMK SLP212 T00801160 IEM_DS3505
ZBAA,1998-12-18 11:00,ZBAA 181100Z AUTO ////04KT 7SM 04/M11 A3018 RMK SLP223 T00401110 IEM_DS3505
ZBAA,1998-12-18 12:00,ZBAA 181200Z AUTO 36004KT 12SM 07/M12 A3018 RMK SLP213 T00741121 52013 IEM_DS3505
ZBAA,1998-12-18 13:00,ZBAA 181300Z AUTO 36008KT 6SM 02/M12 A3018 RMK SLP223 T00201120 IEM_DS3505
ZBAA,1998-12-18 14:00,ZBAA 181400Z AUTO 36006KT 6SM 05/M15 A3021 RMK SLP232 T00501150 IEM_DS3505
ZBAA,1998-12-18 15:00,ZBAA 181500Z AUTO 07004KT 12SM 04/M11 A3021 RMK SLP226 T00391107 52013 IEM_DS3505
ZBAA,1998-12-18 16:00,ZBAA 181600Z AUTO 13002KT 6SM 01/M13 A3021 RMK SLP233 T00101130 IEM_DS3505
ZBAA,1998-12-18 17:00,ZBAA 181700Z AUTO 22002KT 7SM 02/M13 A3021 RMK SLP233 T00201130 IEM_DS3505
ZBAA,1998-12-18 18:00,ZBAA 181800Z AUTO 00000KT 12SM 02/M11 A3021 RMK SLP228 T00161106 52002 IEM_DS3505
ZBAA,1998-12-18 19:00,ZBAA 181900Z AUTO ////04KT 7SM M02/M11 A3021 RMK SLP234 T10201110 IEM_DS3505
ZBAA,1998-12-18 20:00,ZBAA 182000Z AUTO 35004KT 7SM M02/M12 A3021 RMK SLP234 T10201120 IEM_DS3505
ZBAA,1998-12-18 21:00,ZBAA 182100Z AUTO 29002KT 3SM M01/M08 A3021 RMK SLP228 T10111080 54000 IEM_DS3505
ZBAA,1998-12-18 22:00,ZBAA 182200Z AUTO 35002KT 7SM M01/M11 A3018 RMK SLP224 T10101110 IEM_DS3505
ZBAA,1998-12-18 23:00,ZBAA 182300Z AUTO 36004KT 7SM M03/M11 A3021 RMK SLP234 T10301110 IEM_DS3505
ZBAA,1998-12-19 00:00,ZBAA 190000Z AUTO 00000KT 2SM M02/M08 A3021 RMK SLP226 T10231078 57002 IEM_DS3505
ZBAA,1998-12-19 01:00,ZBAA 190100Z AUTO 35004KT 7SM M02/M08 A3021 RMK SLP234 T10201080 IEM_DS3505
ZBAA,1998-12-19 02:00,ZBAA 190200Z AUTO 04002KT 7SM 00/M09 A3021 RMK SLP234 T00001090 IEM_DS3505
ZBAA,1998-12-19 03:00,ZBAA 190300Z AUTO 09002KT 3SM 04/M09 A3021 RMK SLP225 T00411092 57001 IEM_DS3505
ZBAA,1998-12-19 04:00,ZBAA 190400Z AUTO ////02KT 5SM 04/M09 A3018 RMK SLP223 T00401090 IEM_DS3505
ZBAA,1998-12-19 05:00,ZBAA 190500Z AUTO ////02KT 07/M12 A3015 RMK SLP212 T00701120 IEM_DS3505
ZBAA,1998-12-19 06:00,ZBAA 190600Z AUTO 16004KT 4SM 09/M10 A3012 RMK SLP202 T00911098 57023 IEM_DS3505
ZBAA,1998-12-19 07:00,ZBAA 190700Z AUTO 18002KT 5SM 08/M11 A3012 RMK SLP202 T00801110 IEM_DS3505
ZBAA,1998-12-19 08:00,ZBAA 190800Z AUTO 13002KT 4SM 07/M08 A3012 RMK SLP202 T00701080 IEM_DS3505
ZBAA,1998-12-19 09:00,ZBAA 190900Z AUTO 20004KT 2SM 05/M06 A3012 RMK SLP200 T00521059 57002 IEM_DS3505
ZBAA,1998-12-19 10:00,ZBAA 191000Z AUTO 00000KT 2 1/2SM 03/M09 A3015 RMK SLP213 T00301090 IEM_DS3505
ZBAA,1998-12-19 11:00,ZBAA 191100Z AUTO 04002KT 2 1/2SM 02/M07 A3015 RMK SLP213 T00201070 IEM_DS3505
ZBAA,1998-12-19 12:00,ZBAA 191200Z AUTO 00000KT 2 1/2SM 00/M06 A3018 RMK SLP212 T00011063 52011 IEM_DS3505
ZBAA,1998-12-19 13:00,ZBAA 191300Z AUTO 35004KT 2 1/2SM 00/M07 A3015 RMK SLP213 T00001070 IEM_DS3505
ZBAA,1998-12-19 14:00,ZBAA 191400Z AUTO 02002KT 2 1/2SM 01/M07 A3018 RMK SLP223 T00101070 IEM_DS3505
ZBAA,1998-12-19 15:00,ZBAA 191500Z AUTO 02002KT 2SM M01/M06 A3018 RMK SLP218 T10081063 52007 IEM_DS3505
ZBAA,1998-12-19 16:00,ZBAA 191600Z AUTO 35004KT 2 1/2SM M01/M08 A3018 RMK SLP224 T10101080 IEM_DS3505
ZBAA,1998-12-19 17:00,ZBAA 191700Z AUTO 35004KT 2 1/2SM M01/M09 A3018 RMK SLP224 T10101090 IEM_DS3505
ZBAA,1998-12-19 18:00,ZBAA 191800Z AUTO 04004KT 6SM 00/M09 A3018 RMK SLP212 T00041090 57006 IEM_DS3505
ZBAA,1998-12-19 19:00,ZBAA 191900Z AUTO 05002KT 2 1/2SM M03/M07 A3015 RMK SLP214 T10301070 IEM_DS3505
ZBAA,1998-12-19 20:00,ZBAA 192000Z AUTO 32004KT 2 1/2SM M03/M07 A3015 RMK SLP214 T10301070 IEM_DS3505
ZBAA,1998-12-19 21:00,ZBAA 192100Z AUTO 02006KT 6SM M01/M08 A3012 RMK SLP203 T10131083 57009 IEM_DS3505
ZBAA,1998-12-19 22:00,ZBAA 192200Z AUTO 34002KT 4SM M03/M08 A3012 RMK SLP204 T10301080 IEM_DS3505
ZBAA,1998-12-19 23:00,ZBAA 192300Z AUTO 35004KT 4SM M04/M08 A3012 RMK SLP204 T10401080 IEM_DS3505
ZBAA,1998-12-20 00:00,ZBAA 200000Z AUTO 02006KT 2 1/2SM M01/M07 A3012 RMK SLP202 T10131073 57001 IEM_DS3505
ZBAA,1998-12-20 01:00,ZBAA 200100Z AUTO 35004KT 4SM M01/M07 A3012 RMK SLP204 T10101070 IEM_DS3505
ZBAA,1998-12-20 02:00,ZBAA 200200Z AUTO 36002KT 5SM 00/M06 A3012 RMK SLP203 T00001060 IEM_DS3505
ZBAA,1998-12-20 03:00,ZBAA 200300Z AUTO 07006KT 4SM 02/M05 A3009 RMK SLP193 T00241047 57009 IEM_DS3505
ZBAA,1998-12-20 04:00,ZBAA 200400Z AUTO 01004KT 4SM 02/M05 A3006 RMK SLP182 T00201050 IEM_DS3505
ZBAA,1998-12-20 05:00,ZBAA 200500Z AUTO 03002KT 4SM 04/M06 A3000 RMK SLP161 T00401060 IEM_DS3505
ZBAA,1998-12-20 06:00,ZBAA 200600Z AUTO 07006KT 5SM 05/M04 A3000 RMK SLP158 T00541035 57035 IEM_DS3505
ZBAA,1998-12-20 07:00,ZBAA 200700Z AUTO 35002KT 4SM 05/M05 A2997 RMK SLP151 T00501050 IEM_DS3505
ZBAA,1998-12-20 08:00,ZBAA 200800Z AUTO 35002KT 4SM 04/M05 A3000 RMK SLP161 T00401050 IEM_DS3505
ZBAA,1998-12-20 09:00,ZBAA 200900Z AUTO 11006KT 2 1/2SM 02/00 A3000 RMK SLP160 T00200004 52002 IEM_DS3505
ZBAA,1998-12-20 10:00,ZBAA 201000Z AUTO 15004KT 1 1/4SM 02/01 A3000 RMK SLP162 T00200010 IEM_DS3505
ZBAA,1998-12-20 11:00,ZBAA 201100Z AUTO 14004KT 1SM 02/02 A3003 RMK SLP172 T00200020 IEM_DS3505
ZBAA,1998-12-20 12:00,ZBAA 201200Z AUTO 00000KT 3SM 02/01 A3003 RMK SLP163 T00170009 52003 IEM_DS3505
ZBAA,1998-12-20 13:00,ZBAA 201300Z AUTO 30002KT 1SM 02/02 A3003 RMK SLP172 T00200020 IEM_DS3505
ZBAA,1998-12-20 14:00,ZBAA 201400Z AUTO 33004KT 1SM 02/02 A3000 RMK SLP162 T00200020 IEM_DS3505
ZBAA,1998-12-20 15:00,ZBAA 201500Z AUTO 36004KT 4SM 02/01 A3003 RMK SLP163 T00240011 54000 IEM_DS3505
ZBAA,1998-12-20 16:00,ZBAA 201600Z AUTO 28002KT 1SM 02/02 A3003 RMK SLP172 T00200020 IEM_DS3505
ZBAA,1998-12-20 17:00,ZBAA 201700Z AUTO 29004KT 1SM 02/01 A3000 RMK SLP162 T00200010 IEM_DS3505
ZBAA,1998-12-20 18:00,ZBAA 201800Z AUTO 04004KT 2 1/2SM 03/02 A3003 RMK SLP166 T00280015 52003 IEM_DS3505
ZBAA,1998-12-20 19:00,ZBAA 201900Z AUTO 35004KT 1SM 01/00 A3003 RMK SLP172 T00100000 IEM_DS3505
ZBAA,1998-12-20 20:00,ZBAA 202000Z AUTO 34006KT 1SM M01/M02 A3003 RMK SLP172 T10101020 IEM_DS3505
ZBAA,1998-12-20 21:00,ZBAA 202100Z AUTO 02004KT 2SM 01/M00 A3001 RMK SLP167 T00071004 52001 IEM_DS3505
ZBAA,1998-12-20 22:00,ZBAA 202200Z AUTO 34004KT 1SM M01/M01 A3003 RMK SLP172 T10101010 IEM_DS3505
ZBAA,1998-12-20 23:00,ZBAA 202300Z AUTO 35006KT 1 1/4SM M02/M02 A3003 RMK SLP173 T10201020 IEM_DS3505
ZBAA,1998-12-21 00:00,ZBAA 210000Z AUTO 36002KT 1SM M00/M02 A3006 RMK SLP181 T10031015 52014 IEM_DS3505
ZBAA,1998-12-21 01:00,ZBAA 210100Z AUTO 36008KT 1 1/4SM 00/M01 A3009 RMK SLP192 T00001010 IEM_DS3505
ZBAA,1998-12-21 02:00,ZBAA 210200Z AUTO 35008KT 1 1/4SM 02/M01 A3012 RMK SLP203 T00201010 IEM_DS3505
ZBAA,1998-12-21 03:00,ZBAA 210300Z AUTO 00000KT 1 1/2SM 05/M01 A3009 RMK SLP195 T00491014 52014 IEM_DS3505
ZBAA,1998-12-21 04:00,ZBAA 210400Z AUTO 01004KT 2SM 07/M03 A3009 RMK SLP191 T00701030 IEM_DS3505
ZBAA,1998-12-21 05:00,ZBAA 210500Z AUTO 02004KT 2 1/2SM 08/M03 A3009 RMK SLP190 T00801030 IEM_DS3505
ZBAA,1998-12-21 06:00,ZBAA 210600Z AUTO 09004KT 2 1/2SM 11/M04 A3006 RMK SLP184 T01111037 57010 IEM_DS3505
ZBAA,1998-12-21 07:00,ZBAA 210700Z AUTO 05002KT 4SM 10/M04 A3009 RMK SLP190 T01001040 IEM_DS3505
ZBAA,1998-12-21 08:00,ZBAA 210800Z AUTO 01002KT 4SM 10/M04 A3009 RMK SLP190 T01001040 IEM_DS3505
ZBAA,1998-12-21 09:00,ZBAA 210900Z AUTO 00000KT 2SM 06/00 A3015 RMK SLP206 T00630001 52021 IEM_DS3505
ZBAA,1998-12-21 10:00,ZBAA 211000Z AUTO 35002KT 4SM 05/M06 A3018 RMK SLP222 T00501060 IEM_DS3505
ZBAA,1998-12-21 11:00,ZBAA 211100Z AUTO 36004KT 4SM 05/M06 A3018 RMK SLP222 T00501060 IEM_DS3505
ZBAA,1998-12-21 12:00,ZBAA 211200Z AUTO 00000KT 1 1/4SM 03/M01 A3021 RMK SLP222 T00271006 52016 IEM_DS3505
ZBAA,1998-12-21 13:00,ZBAA 211300Z AUTO 32002KT 7SM 06/M09 A3024 RMK SLP242 T00601090 IEM_DS3505
ZBAA,1998-12-21 14:00,ZBAA 211400Z AUTO 33006KT 7SM 08/M09 A3024 RMK SLP242 T00801090 IEM_DS3505
ZBAA,1998-12-21 15:00,ZBAA 211500Z AUTO 02006KT 6SM 07/M09 A3027 RMK SLP245 T00711092 52023 IEM_DS3505
ZBAA,1998-12-21 16:00,ZBAA 211600Z AUTO 34004KT 7SM 04/M09 A3030 RMK SLP263 T00401090 IEM_DS3505
ZBAA,1998-12-21 17:00,ZBAA 211700Z AUTO 35008KT 6SM 03/M08 A3030 RMK SLP263 T00301080 IEM_DS3505
ZBAA,1998-12-21 18:00,ZBAA 211800Z AUTO 02004KT 12SM 05/M09 A3033 RMK SLP261 T00471087 52017 IEM_DS3505
ZBAA,1998-12-21 19:00,ZBAA 211900Z AUTO 01006KT 7SM 03/M10 A3033 RMK SLP273 T00301100 IEM_DS3505
ZBAA,1998-12-21 20:00,ZBAA 212000Z AUTO 02006KT 7SM 02/M10 A3033 RMK SLP273 T00201100 IEM_DS3505
ZBAA,1998-12-21 21:00,ZBAA 212100Z AUTO 02006KT 19SM 04/M11 A3030 RMK SLP256 T00371112 57006 IEM_DS3505
ZBAA,1998-12-21 22:00,ZBAA 212200Z AUTO 02008KT 6SM 02/M11 A3033 RMK SLP273 T00201110 IEM_DS3505
ZBAA,1998-12-21 23:00,ZBAA 212300Z AUTO 02006KT 6SM 03/M11 A3033 RMK SLP273 T00301110 IEM_DS3505
ZBAA,1998-12-22 00:00,ZBAA 220000Z AUTO 00000KT 12SM 01/M08 A3033 RMK SLP270 T00111080 52014 IEM_DS3505
ZBAA,1998-12-22 02:00,ZBAA 220200Z AUTO 08002KT 4SM 03/M04 A3036 RMK SLP283 T00301040 IEM_DS3505
ZBAA,1998-12-22 03:00,ZBAA 220300Z AUTO 00000KT 4SM 06/M07 A3033 RMK SLP267 T00571073 57003 IEM_DS3505
ZBAA,1998-12-22 04:00,ZBAA 220400Z AUTO ////02KT 1 1/4SM 05/M04 A3030 RMK SLP263 T00501040 IEM_DS3505
ZBAA,1998-12-22 05:00,ZBAA 220500Z AUTO 13004KT 1 1/4SM 05/M02 A3027 RMK SLP252 T00501020 IEM_DS3505
ZBAA,1998-12-22 06:00,ZBAA 220600Z AUTO 11006KT 1 1/4SM 05/M02 A3024 RMK SLP240 T00481016 57027 IEM_DS3505
ZBAA,1998-12-22 07:00,ZBAA 220700Z AUTO 14006KT 1SM 04/M02 A3024 RMK SLP243 T00401020 IEM_DS3505
ZBAA,1998-12-22 08:00,ZBAA 220800Z AUTO 12006KT 1SM 02/M02 A3024 RMK SLP243 T00201020 IEM_DS3505
ZBAA,1998-12-22 09:00,ZBAA 220900Z AUTO 14006KT 1 1/4SM M01/M02 A3024 RMK SLP236 T10061021 57004 IEM_DS3505
ZBAA,1998-12-22 10:00,ZBAA 221000Z AUTO 15006KT 1SM A3024 RMK IEM_DS3505
ZBAA,1998-12-22 11:00,ZBAA 221100Z AUTO 16002KT 3/8SM M02/M02 A3024 RMK SLP244 T10201020 IEM_DS3505
ZBAA,1998-12-22 12:00,ZBAA 221200Z AUTO 00000KT 1SM M02/M02 A3024 RMK SLP238 T10161022 52001 IEM_DS3505
ZBAA,1998-12-22 13:00,ZBAA 221300Z AUTO 07002KT 1/2SM M02/M02 A3024 RMK SLP244 T10201020 IEM_DS3505
ZBAA,1998-12-22 15:00,ZBAA 221500Z AUTO 00000KT 1/2SM M02/M02 A3023 RMK SLP239 T10201023 52002 IEM_DS3505
ZBAA,1998-12-22 17:00,ZBAA 221700Z AUTO 36002KT M03/M03 A3024 RMK SLP244 T10301030 IEM_DS3505
ZBAA,1998-12-22 18:00,ZBAA 221800Z AUTO 00000KT 1SM M01/M02 A3031 RMK SLP243 T10121020 52004 IEM_DS3505
ZBAA,1998-12-22 19:00,ZBAA 221900Z AUTO 34004KT 1/8SM M03/M03 A3027 RMK SLP254 T10301030 IEM_DS3505
ZBAA,1998-12-22 20:00,ZBAA 222000Z AUTO 34002KT 1/8SM M04/M04 A3027 RMK SLP255 T10401040 IEM_DS3505
ZBAA,1998-12-22 21:00,ZBAA 222100Z AUTO 00000KT 1 1/4SM M04/M04 A3027 RMK SLP255 T10381041 52011 IEM_DS3505
ZBAA,1998-12-22 22:00,ZBAA 222200Z AUTO 01004KT 1SM M04/M04 A3033 RMK SLP275 T10401040 IEM_DS3505
ZBAA,1998-12-22 23:00,ZBAA 222300Z AUTO 35008KT 1 1/4SM M04/M04 A3036 RMK SLP285 T10401040 IEM_DS3505
ZBAA,1998-12-23 00:00,ZBAA 230000Z AUTO 34010KT 4SM 03/M10 A3036 RMK SLP271 T00311097 52016 IEM_DS3505
ZBAA,1998-12-23 01:00,ZBAA 230100Z AUTO 34006KT 7SM 01/M04 A3039 RMK SLP295 T00101040 IEM_DS3505
ZBAA,1998-12-23 02:00,ZBAA 230200Z AUTO 01008KT 7SM 03/M06 A3042 RMK SLP304 T00301060 IEM_DS3505
ZBAA,1998-12-23 03:00,ZBAA 230300Z AUTO 02006KT 9SM 06/M09 A3042 RMK SLP296 T00631093 52026 IEM_DS3505
ZBAA,1998-12-23 04:00,ZBAA 230400Z AUTO 02006KT 7SM 05/M10 A3042 RMK SLP304 T00501100 IEM_DS3505
ZBAA,1998-12-23 05:00,ZBAA 230500Z AUTO 02008KT 7SM 06/M10 A3039 RMK SLP294 T00601100 IEM_DS3505
ZBAA,1998-12-23 06:00,ZBAA 230600Z AUTO 04008KT 19SM 08/M11 A3039 RMK SLP283 T00831106 57013 IEM_DS3505
ZBAA,1998-12-23 07:00,ZBAA 230700Z AUTO 03006KT 7SM 07/M10 A3039 RMK SLP293 T00701100 IEM_DS3505
ZBAA,1998-12-23 08:00,ZBAA 230800Z AUTO 03004KT 7SM 07/M10 A3039 RMK SLP293 T00701100 IEM_DS3505
ZBAA,1998-12-23 09:00,ZBAA 230900Z AUTO 02004KT 6SM 05/M08 A3039 RMK SLP289 T00531076 52005 IEM_DS3505
ZBAA,1998-12-23 10:00,ZBAA 231000Z AUTO 02004KT 7SM 04/M10 A3042 RMK SLP304 T00401100 IEM_DS3505
ZBAA,1998-12-23 11:00,ZBAA 231100Z AUTO 02006KT 7SM 02/M10 A3042 RMK SLP304 T00201100 IEM_DS3505
ZBAA,1998-12-23 12:00,ZBAA 231200Z AUTO 25004KT 12SM 02/M07 A3045 RMK SLP301 T00241073 52013 IEM_DS3505
ZBAA,1998-12-23 13:00,ZBAA 231300Z AUTO 35006KT 7SM 01/M10 A3045 RMK SLP315 T00101100 IEM_DS3505
ZBAA,1998-12-23 14:00,ZBAA 231400Z AUTO 36006KT 7SM 01/M10 A3045 RMK SLP315 T00101100 IEM_DS3505
ZBAA,1998-12-23 15:00,ZBAA 231500Z AUTO 29004KT 2 1/2SM 00/M05 A3045 RMK SLP306 T00011051 52005 IEM_DS3505
ZBAA,1998-12-23 16:00,ZBAA 231600Z AUTO 33006KT 7SM 00/M09 A3045 RMK SLP315 T00001090 IEM_DS3505
ZBAA,1998-12-23 18:00,ZBAA 231800Z AUTO 29004KT 2SM M02/M06 A3051 RMK SLP311 T10231062 52005 IEM_DS3505
ZBAA,1998-12-23 19:00,ZBAA 231900Z AUTO 35006KT 7SM M02/M09 A3045 RMK SLP315 T10201090 IEM_DS3505
ZBAA,1998-12-23 20:00,ZBAA 232000Z AUTO 35006KT 7SM M03/M09 A3045 RMK SLP316 T10301090 IEM_DS3505
ZBAA,1998-12-23 21:00,ZBAA 232100Z AUTO 25002KT 2SM M02/M06 A3045 RMK SLP308 T10251061 57004 IEM_DS3505
ZBAA,1998-12-23 22:00,ZBAA 232200Z AUTO 34004KT 7SM M03/M09 A3045 RMK SLP316 T10301090 IEM_DS3505
ZBAA,1998-12-23 23:00,ZBAA 232300Z AUTO 33004KT 7SM M03/M09 A3045 RMK SLP316 T10301090 IEM_DS3505
ZBAA,1998-12-24 00:00,ZBAA 240000Z AUTO 00000KT 2SM M02/M08 A3045 RMK SLP305 T10171079 57003 IEM_DS3505
ZBAA,1998-12-24 01:00,ZBAA 240100Z AUTO 36006KT 7SM M02/M07 A3045 RMK SLP315 T10201070 IEM_DS3505
ZBAA,1998-12-24 02:00,ZBAA 240200Z AUTO 35006KT 7SM 01/M08 A3045 RMK SLP315 T00101080 IEM_DS3505
ZBAA,1998-12-24 03:00,ZBAA 240300Z AUTO 02004KT 6SM 04/M10 A3042 RMK SLP302 T00391097 57002 IEM_DS3505
ZBAA,1998-12-24 05:00,ZBAA 240500Z AUTO 7SM 06/M10 A3036 RMK SLP282 T00601100 IEM_DS3505
ZBAA,1998-12-24 06:00,ZBAA 240600Z AUTO 20004KT 6SM 08/M08 A3033 RMK SLP269 T00771080 57033 IEM_DS3505
ZBAA,1998-12-24 07:00,ZBAA 240700Z AUTO 00000KT 7SM 07/M10 A3030 RMK SLP262 T00701100 IEM_DS3505
ZBAA,1998-12-24 08:00,ZBAA 240800Z AUTO 00000KT 7SM 06/M10 A3030 RMK SLP262 T00601100 IEM_DS3505
ZBAA,1998-12-24 09:00,ZBAA 240900Z AUTO 20004KT 5SM 05/M05 A3030 RMK SLP259 T00481053 57010 IEM_DS3505
ZBAA,1998-12-24 10:00,ZBAA 241000Z AUTO 00000KT 02/M09 A3030 RMK SLP263 T00201090 IEM_DS3505
ZBAA,1998-12-24 11:00,ZBAA 241100Z AUTO 00000KT 01/M09 A3030 RMK SLP263 T00101090 IEM_DS3505
ZBAA,1998-12-24 12:00,ZBAA 241200Z AUTO 20004KT 6SM 00/M05 A3033 RMK SLP260 T00031049 54000 IEM_DS3505
ZBAA,1998-12-24 13:00,ZBAA 241300Z AUTO 00000KT 3SM M01/M07 A3033 RMK SLP274 T10101070 IEM_DS3505
ZBAA,1998-12-24 14:00,ZBAA 241400Z AUTO 36002KT 3SM 00/M07 A3030 RMK SLP264 T00001070 IEM_DS3505
ZBAA,1998-12-24 15:00,ZBAA 241500Z AUTO 00000KT 4SM M02/M05 A3030 RMK SLP257 T10181052 57002 IEM_DS3505
ZBAA,1998-12-24 16:00,ZBAA 241600Z AUTO 34004KT 3SM M03/M07 A3030 RMK SLP264 T10301070 IEM_DS3505
ZBAA,1998-12-24 17:00,ZBAA 241700Z AUTO 34004KT 3SM M02/M07 A3030 RMK SLP264 T10201070 IEM_DS3505
ZBAA,1998-12-24 18:00,ZBAA 241800Z AUTO 00000KT 3SM M02/M05 A3027 RMK SLP251 T10161046 57006 IEM_DS3505
ZBAA,1998-12-24 19:00,ZBAA 241900Z AUTO 34006KT 4SM M03/M08 A3027 RMK SLP255 T10301080 IEM_DS3505
ZBAA,1998-12-24 20:00,ZBAA 242000Z AUTO 34006KT 4SM M04/M08 A3027 RMK SLP256 T10401080 IEM_DS3505
ZBAA,1998-12-24 21:00,ZBAA 242100Z AUTO 00000KT 3SM M04/M05 A3024 RMK SLP244 T10361052 57007 IEM_DS3505
ZBAA,1998-12-24 22:00,ZBAA 242200Z AUTO 35006KT 7SM M04/M08 A3027 RMK SLP256 T10401080 IEM_DS3505
ZBAA,1998-12-24 23:00,ZBAA 242300Z AUTO 35006KT 7SM M05/M09 A3027 RMK SLP256 T10501090 IEM_DS3505
ZBAA,1998-12-25 00:00,ZBAA 250000Z AUTO 02004KT 4SM M03/M09 A3030 RMK SLP251 T10261087 52006 IEM_DS3505
ZBAA,1998-12-25 01:00,ZBAA 250100Z AUTO 01006KT 7SM 00/M08 A3030 RMK SLP264 T00001080 IEM_DS3505
ZBAA,1998-12-25 02:00,ZBAA 250200Z AUTO 35008KT 7SM 04/M08 A3033 RMK SLP273 T00401080 IEM_DS3505
ZBAA,1998-12-25 03:00,ZBAA 250300Z AUTO 04008KT 6SM 06/M11 A3033 RMK SLP265 T00651111 52015 IEM_DS3505
ZBAA,1998-12-25 04:00,ZBAA 250400Z AUTO 36008KT 7SM 08/M10 A3030 RMK SLP262 T00801100 IEM_DS3505
ZBAA,1998-12-25 05:00,ZBAA 250500Z AUTO 02006KT 7SM 09/M10 A3030 RMK SLP262 T00901100 IEM_DS3505
ZBAA,1998-12-25 06:00,ZBAA 250600Z AUTO 02004KT 10SM 09/M12 A3027 RMK SLP255 T00941116 57010 IEM_DS3505
ZBAA,1998-12-25 07:00,ZBAA 250700Z AUTO 03002KT 6SM 10/M12 A3030 RMK SLP261 T01001120 IEM_DS3505
ZBAA,1998-12-25 08:00,ZBAA 250800Z AUTO 04004KT 6SM 09/M10 A3030 RMK SLP262 T00901100 IEM_DS3505
ZBAA,1998-12-25 09:00,ZBAA 250900Z AUTO 00000KT 10SM 05/M06 A3030 RMK SLP258 T00511061 52002 IEM_DS3505
ZBAA,1998-12-25 10:00,ZBAA 251000Z AUTO 00000KT 6SM 06/M11 A3030 RMK SLP262 T00601110 IEM_DS3505
ZBAA,1998-12-25 11:00,ZBAA 251100Z AUTO 33002KT 6SM 04/M10 A3033 RMK SLP273 T00401100 IEM_DS3505
ZBAA,1998-12-25 12:00,ZBAA 251200Z AUTO 00000KT 9SM 03/M07 A3036 RMK SLP275 T00271073 52017 IEM_DS3505
ZBAA,1998-12-25 13:00,ZBAA 251300Z AUTO 14002KT 6SM 01/M08 A3036 RMK SLP284 T00101080 IEM_DS3505
ZBAA,1998-12-25 14:00,ZBAA 251400Z AUTO 18006KT 6SM 01/M10 A3036 RMK SLP284 T00101100 IEM_DS3505
ZBAA,1998-12-25 15:00,ZBAA 251500Z AUTO 20004KT 9SM 00/M06 A3036 RMK SLP281 T00031065 52007 IEM_DS3505
ZBAA,1998-12-25 16:00,ZBAA 251600Z AUTO 14002KT 7SM M02/M07 A3036 RMK SLP284 T10201070 IEM_DS3505
ZBAA,1998-12-25 17:00,ZBAA 251700Z AUTO 10004KT 7SM M01/M07 A3036 RMK SLP284 T10101070 IEM_DS3505
ZBAA,1998-12-25 18:00,ZBAA 251800Z AUTO 00000KT 6SM M02/M07 A3041 RMK SLP279 T10251072 57002 IEM_DS3505
ZBAA,1998-12-25 20:00,ZBAA 252000Z AUTO 00000KT 4SM M03/M07 A3033 RMK SLP274 T10301070 IEM_DS3505
ZBAA,1998-12-25 21:00,ZBAA 252100Z AUTO 00000KT 6SM M03/M07 A3033 RMK SLP270 T10311069 57010 IEM_DS3505
ZBAA,1998-12-25 22:00,ZBAA 252200Z AUTO 32002KT 2 1/2SM M03/M07 A3033 RMK SLP274 T10301070 IEM_DS3505
ZBAA,1998-12-25 23:00,ZBAA 252300Z AUTO 00000KT 2 1/2SM M04/M06 A3033 RMK SLP275 T10401060 IEM_DS3505
ZBAA,1998-12-26 00:00,ZBAA 260000Z AUTO 00000KT 4SM M04/M07 A3033 RMK SLP267 T10391067 57003 IEM_DS3505
ZBAA,1998-12-26 01:00,ZBAA 260100Z AUTO 00000KT 1 1/4SM M03/M06 A3033 RMK SLP274 T10301060 IEM_DS3505
ZBAA,1998-12-26 02:00,ZBAA 260200Z AUTO 00000KT 1 1/4SM M01/M05 A3033 RMK SLP274 T10101050 IEM_DS3505
ZBAA,1998-12-26 03:00,ZBAA 260300Z AUTO 00000KT 2 1/2SM 02/M05 A3030 RMK SLP258 T00251046 57008 IEM_DS3505
ZBAA,1998-12-26 04:00,ZBAA 260400Z AUTO ////02KT 2SM 03/M05 A3027 RMK SLP253 T00301050 IEM_DS3505
ZBAA,1998-12-26 05:00,ZBAA 260500Z AUTO 11002KT 2SM 03/M05 A3021 RMK SLP233 T00301050 IEM_DS3505
ZBAA,1998-12-26 06:00,ZBAA 260600Z AUTO 20006KT 4SM 05/M04 A3021 RMK SLP224 T00531045 57034 IEM_DS3505
ZBAA,1998-12-26 07:00,ZBAA 260700Z AUTO 11004KT 2SM 04/M04 A3018 RMK SLP223 T00401040 IEM_DS3505
ZBAA,1998-12-26 08:00,ZBAA 260800Z AUTO 04002KT 2SM 03/M03 A3018 RMK SLP223 T00301030 IEM_DS3505
ZBAA,1998-12-26 09:00,ZBAA 260900Z AUTO 00000KT 3SM 04/M04 A3018 RMK SLP216 T00361035 57008 IEM_DS3505
ZBAA,1998-12-26 10:00,ZBAA 261000Z AUTO 00000KT 1 1/2SM 01/M04 A3018 RMK SLP223 T00101040 IEM_DS3505
ZBAA,1998-12-26 11:00,ZBAA 261100Z AUTO 00000KT 2 1/2SM M03/M05 A3018 RMK SLP244 T10281046 57001 IEM_DS3505
ZBAA,1998-12-26 12:00,ZBAA 261200Z AUTO 00000KT 4SM M00/M04 A3018 RMK SLP222 T10041039 52005 IEM_DS3505
ZBAA,1998-12-26 13:00,ZBAA 261300Z AUTO 32002KT 1SM 00/M04 A3021 RMK SLP234 T00001040 IEM_DS3505
ZBAA,1998-12-26 14:00,ZBAA 261400Z AUTO 35002KT 1SM M02/M04 A3021 RMK SLP234 T10201040 IEM_DS3505
ZBAA,1998-12-26 15:00,ZBAA 261500Z AUTO 00000KT 5SM M03/M05 A3021 RMK SLP222 T10261050 52001 IEM_DS3505
ZBAA,1998-12-26 16:00,ZBAA 261600Z AUTO 35002KT 1SM M04/M06 A3021 RMK SLP234 T10401060 IEM_DS3505
ZBAA,1998-12-26 17:00,ZBAA 261700Z AUTO 33002KT 1SM M03/M05 A3018 RMK SLP224 T10301050 IEM_DS3505
ZBAA,1998-12-26 18:00,ZBAA 261800Z AUTO 00000KT 2 1/2SM M03/M05 A3021 RMK SLP221 T10281046 57001 IEM_DS3505
ZBAA,1998-12-26 19:00,ZBAA 261900Z AUTO 34004KT 1SM M05/M07 A3021 RMK SLP235 T10501070 IEM_DS3505
ZBAA,1998-12-26 20:00,ZBAA 262000Z AUTO 35006KT 1 1/4SM M04/M06 A3021 RMK SLP234 T10401060 IEM_DS3505
ZBAA,1998-12-26 21:00,ZBAA 262100Z AUTO 00000KT 1 1/4SM M04/M06 A3021 RMK SLP226 T10451062 52004 IEM_DS3505
ZBAA,1998-12-26 22:00,ZBAA 262200Z AUTO 33006KT 1 1/2SM M04/M06 A3021 RMK SLP234 T10401060 IEM_DS3505
ZBAA,1998-12-27 00:00,ZBAA 270000Z AUTO 00000KT 1SM M04/M06 A3024 RMK SLP237 T10431057 52011 IEM_DS3505
ZBAA,1998-12-27 01:00,ZBAA 270100Z AUTO 27019KT RMK IEM_DS3505
ZBAA,1998-12-27 02:00,ZBAA 270200Z AUTO 36006KT 2SM 00/M04 A3027 RMK SLP254 T00001040 IEM_DS3505
ZBAA,1998-12-27 03:00,ZBAA 270300Z AUTO 25004KT 1 1/4SM 02/M05 A3024 RMK SLP248 T00231049 52011 IEM_DS3505
ZBAA,1998-12-27 04:00,ZBAA 270400Z AUTO ////02KT 2 1/2SM 04/M04 A3024 RMK SLP243 T00401040 IEM_DS3505
ZBAA,1998-12-27 05:00,ZBAA 270500Z AUTO 26002KT 2 1/2SM 05/M04 A3021 RMK SLP232 T00501040 IEM_DS3505
ZBAA,1998-12-27 06:00,ZBAA 270600Z AUTO 00000KT 4SM 08/M06 A3018 RMK SLP226 T00781058 57021 IEM_DS3505
ZBAA,1998-12-27 07:00,ZBAA 270700Z AUTO 26002KT 2 1/2SM 07/M06 A3021 RMK SLP232 T00701060 IEM_DS3505
ZBAA,1998-12-27 08:00,ZBAA 270800Z AUTO 00000KT 2 1/2SM 06/M05 A3021 RMK SLP232 T00601050 IEM_DS3505
ZBAA,1998-12-27 09:00,ZBAA 270900Z AUTO 00000KT 2SM 05/M03 A3021 RMK SLP230 T00501034 52004 IEM_DS3505
ZBAA,1998-12-27 10:00,ZBAA 271000Z AUTO 00000KT 1 1/2SM 03/M05 A3024 RMK SLP243 T00301050 IEM_DS3505
ZBAA,1998-12-27 11:00,ZBAA 271100Z AUTO 00000KT 1 1/4SM 01/M04 A3027 RMK SLP253 T00101040 IEM_DS3505
ZBAA,1998-12-27 12:00,ZBAA 271200Z AUTO 00000KT 2SM 01/M03 A3027 RMK SLP251 T00071033 52020 IEM_DS3505
ZBAA,1998-12-27 13:00,ZBAA 271300Z AUTO 00000KT 1 1/4SM M01/M04 A3030 RMK SLP264 T10101040 IEM_DS3505
ZBAA,1998-12-27 14:00,ZBAA 271400Z AUTO 00000KT 1SM M01/M04 A3030 RMK SLP264 T10101040 IEM_DS3505
ZBAA,1998-12-27 15:00,ZBAA 271500Z AUTO 00000KT 1 1/4SM M02/M03 A3033 RMK SLP260 T10151034 52009 IEM_DS3505
ZBAA,1998-12-27 16:00,ZBAA 271600Z AUTO 00000KT 1SM M02/M04 A3033 RMK SLP274 T10201040 IEM_DS3505
ZBAA,1998-12-27 17:00,ZBAA 271700Z AUTO 36002KT 1SM M01/M03 A3033 RMK SLP274 T10101030 IEM_DS3505
ZBAA,1998-12-27 18:00,ZBAA 271800Z AUTO 00000KT 1 1/4SM M01/M04 A3033 RMK SLP259 T10111037 54000 IEM_DS3505
ZBAA,1998-12-27 19:00,ZBAA 271900Z AUTO 35002KT 1SM M01/M04 A3033 RMK SLP274 T10101040 IEM_DS3505
ZBAA,1998-12-27 20:00,ZBAA 272000Z AUTO 00000KT 1SM M01/M04 A3033 RMK SLP274 T10101040 IEM_DS3505
ZBAA,1998-12-27 21:00,ZBAA 272100Z AUTO 00000KT 1 1/4SM M01/M03 A3033 RMK SLP267 T10091031 52008 IEM_DS3505
ZBAA,1998-12-27 22:00,ZBAA 272200Z AUTO 30008KT 6SM 04/M08 A3033 RMK SLP273 T00401080 IEM_DS3505
ZBAA,1998-12-27 23:00,ZBAA 272300Z AUTO 30012KT 6SM 05/M12 A3036 RMK SLP283 T00501120 IEM_DS3505
ZBAA,1998-12-28 00:00,ZBAA 280000Z AUTO 32016KT 2SM 05/M21 A3042 RMK SLP291 T00511208 52024 IEM_DS3505
ZBAA,1998-12-28 01:00,ZBAA 280100Z AUTO 31019KT 6SM 03/M19 A3045 RMK SLP314 T00301190 IEM_DS3505
ZBAA,1998-12-28 03:00,ZBAA 280300Z AUTO 34014G25KT 11SM 04/M23 A3050 RMK SLP318 T00351234 52026 IEM_DS3505
ZBAA,1998-12-28 04:00,ZBAA 280400Z AUTO 32014G23KT 7SM 03/M21 A3047 RMK SLP321 T00301210 IEM_DS3505
ZBAA,1998-12-28 05:00,ZBAA 280500Z AUTO 31019KT 7SM 03/M21 A3047 RMK SLP321 T00301210 IEM_DS3505
ZBAA,1998-12-28 06:00,ZBAA 280600Z AUTO 34012G27KT 7SM 04/M19 A3045 RMK SLP315 T00371187 57003 IEM_DS3505
ZBAA,1998-12-28 07:00,ZBAA 280700Z AUTO 31025KT 7SM 03/M21 A3045 RMK SLP314 T00301210 IEM_DS3505
ZBAA,1998-12-28 08:00,ZBAA 280800Z AUTO 31021G31KT 7SM 02/M22 A3047 RMK SLP322 T00201220 IEM_DS3505
ZBAA,1998-12-28 09:00,ZBAA 280900Z AUTO 32010KT 12SM 02/M25 A3050 RMK SLP325 T00231252 52010 IEM_DS3505
ZBAA,1998-12-28 10:00,ZBAA 281000Z AUTO 31014KT 7SM 01/M24 A3050 RMK SLP332 T00101240 IEM_DS3505
ZBAA,1998-12-28 11:00,ZBAA 281100Z AUTO 31012KT 7SM 00/M22 A3053 RMK SLP342 T00001220 IEM_DS3505
ZBAA,1998-12-28 12:00,ZBAA 281200Z AUTO 02006KT 16SM 01/M26 A3053 RMK SLP334 T00121263 52010 IEM_DS3505
ZBAA,1998-12-28 13:00,ZBAA 281300Z AUTO 36010KT 7SM M01/M22 A3053 RMK SLP342 T10101220 IEM_DS3505
ZBAA,1998-12-28 14:00,ZBAA 281400Z AUTO 35012KT 7SM M02/M23 A3053 RMK SLP343 T10201230 IEM_DS3505
ZBAA,1998-12-28 15:00,ZBAA 281500Z AUTO 07002KT 16SM M01/M19 A3056 RMK SLP343 T10101194 52008 IEM_DS3505
ZBAA,1998-12-28 16:00,ZBAA 281600Z AUTO 35006KT 7SM M05/M21 A3056 RMK SLP353 T10501210 IEM_DS3505
ZBAA,1998-12-28 17:00,ZBAA 281700Z AUTO 00000KT 7SM M04/M19 A3056 RMK SLP353 T10401190 IEM_DS3505
ZBAA,1998-12-28 18:00,ZBAA 281800Z AUTO 04006KT 12SM M02/M22 A3053 RMK SLP341 T10241217 57002 IEM_DS3505
ZBAA,1998-12-28 19:00,ZBAA 281900Z AUTO 02004KT 7SM M05/M18 A3053 RMK SLP343 T10501180 IEM_DS3505
ZBAA,1998-12-28 20:00,ZBAA 282000Z AUTO 01006KT 7SM M05/M18 A3050 RMK SLP333 T10501180 IEM_DS3505
ZBAA,1998-12-28 21:00,ZBAA 282100Z AUTO 00000KT 9SM M05/M16 A3050 RMK SLP336 T10471163 57005 IEM_DS3505
ZBAA,1998-12-28 22:00,ZBAA 282200Z AUTO 02006KT 7SM M06/M19 A3050 RMK SLP334 T10601190 IEM_DS3505
ZBAA,1998-12-28 23:00,ZBAA 282300Z AUTO 27002KT 7SM M07/M18 A3053 RMK SLP344 T10701180 IEM_DS3505
ZBAA,1998-12-29 00:00,ZBAA 290000Z AUTO 00000KT 6SM M08/M12 A3053 RMK SLP340 T10781123 52004 IEM_DS3505
ZBAA,1998-12-29 01:00,ZBAA 290100Z AUTO 33004KT 7SM M04/M17 A3056 RMK SLP353 T10401170 IEM_DS3505
ZBAA,1998-12-29 02:00,ZBAA 290200Z AUTO ////02KT 7SM M03/M19 A3056 RMK SLP353 T10301190 IEM_DS3505
ZBAA,1998-12-29 03:00,ZBAA 290300Z AUTO 25006KT 6SM M00/M18 A3056 RMK SLP347 T10041176 52007 IEM_DS3505
ZBAA,1998-12-29 04:00,ZBAA 290400Z AUTO 21002KT 7SM 00/M21 A3053 RMK SLP342 T00001210 IEM_DS3505
ZBAA,1998-12-29 05:00,ZBAA 290500Z AUTO ////02KT 7SM 01/M20 A3047 RMK SLP322 T00101200 IEM_DS3505
ZBAA,1998-12-29 06:00,ZBAA 290600Z AUTO 25010KT 7SM 02/M20 A3047 RMK SLP319 T00231197 57028 IEM_DS3505
ZBAA,1998-12-29 07:00,ZBAA 290700Z AUTO 06002KT 7SM 02/M20 A3045 RMK SLP315 T00201200 IEM_DS3505
ZBAA,1998-12-29 08:00,ZBAA 290800Z AUTO 11002KT 7SM 02/M20 A3045 RMK SLP315 T00201200 IEM_DS3505
ZBAA,1998-12-29 09:00,ZBAA 290900Z AUTO 22004KT 6SM 01/M18 A3045 RMK SLP316 T00101178 57003 IEM_DS3505
ZBAA,1998-12-29 10:00,ZBAA 291000Z AUTO 20004KT 4SM 01/M18 A3045 RMK SLP315 T00101180 IEM_DS3505
ZBAA,1998-12-29 11:00,ZBAA 291100Z AUTO 36002KT 3SM M02/M16 A3047 RMK SLP323 T10201160 IEM_DS3505
ZBAA,1998-12-29 12:00,ZBAA 291200Z AUTO 20004KT 6SM M01/M18 A3047 RMK SLP319 T10131176 52002 IEM_DS3505
ZBAA,1998-12-29 13:00,ZBAA 291300Z AUTO 00000KT 3SM M03/M15 A3047 RMK SLP323 T10301150 IEM_DS3505
ZBAA,1998-12-29 14:00,ZBAA 291400Z AUTO 00000KT 3SM M04/M15 A3047 RMK SLP323 T10401150 IEM_DS3505
ZBAA,1998-12-29 15:00,ZBAA 291500Z AUTO 25002KT 2SM M04/M15 A3047 RMK SLP322 T10371150 52004 IEM_DS3505
ZBAA,1998-12-29 17:00,ZBAA 291700Z AUTO 35004KT 2SM M04/M14 A3047 RMK SLP323 T10401140 IEM_DS3505
ZBAA,1998-12-29 18:00,ZBAA 291800Z AUTO 00000KT 3SM M03/M14 A3047 RMK SLP318 T10311138 57004 IEM_DS3505
ZBAA,1998-12-29 19:00,ZBAA 291900Z AUTO 36002KT 3SM M06/M11 A3047 RMK SLP323 T10601110 IEM_DS3505
ZBAA,1998-12-29 20:00,ZBAA 292000Z AUTO 01004KT 3SM M05/M11 A3045 RMK SLP316 T10501110 IEM_DS3505
ZBAA,1998-12-29 21:00,ZBAA 292100Z AUTO 02002KT 4SM M03/M14 A3042 RMK SLP304 T10331141 57014 IEM_DS3505
ZBAA,1998-12-29 22:00,ZBAA 292200Z AUTO 34004KT 5SM M06/M11 A3045 RMK SLP316 T10601110 IEM_DS3505
ZBAA,1998-12-29 23:00,ZBAA 292300Z AUTO 35004KT 6SM M05/M12 A3045 RMK SLP316 T10501120 IEM_DS3505
ZBAA,1998-12-30 00:00,ZBAA 300000Z AUTO 02004KT 3SM M03/M14 A3045 RMK SLP307 T10311138 52003 IEM_DS3505
ZBAA,1998-12-30 01:00,ZBAA 300100Z AUTO 35006KT 6SM M04/M13 A3045 RMK SLP316 T10401130 IEM_DS3505
ZBAA,1998-12-30 02:00,ZBAA 300200Z AUTO 02004KT 7SM M02/M14 A3045 RMK SLP315 T10201140 IEM_DS3505
ZBAA,1998-12-30 03:00,ZBAA 300300Z AUTO 04002KT 4SM 01/M08 A3045 RMK SLP315 T00081078 52008 IEM_DS3505
ZBAA,1998-12-30 04:00,ZBAA 300400Z AUTO 17002KT 7SM 02/M08 A3042 RMK SLP303 T00201080 IEM_DS3505
ZBAA,1998-12-30 05:00,ZBAA 300500Z AUTO 7SM 03/M18 A3039 RMK SLP293 T00301180 IEM_DS3505
ZBAA,1998-12-30 06:00,ZBAA 300600Z AUTO 22004KT 6SM 04/M17 A3036 RMK SLP281 T00421174 57034 IEM_DS3505
ZBAA,1998-12-30 07:00,ZBAA 300700Z AUTO 27004KT 7SM 04/M19 A3033 RMK SLP273 T00401190 IEM_DS3505
ZBAA,1998-12-30 08:00,ZBAA 300800Z AUTO 14004KT 5SM 03/M15 A3036 RMK SLP283 T00301150 IEM_DS3505
ZBAA,1998-12-30 09:00,ZBAA 300900Z AUTO 22004KT 4SM 02/M12 A3036 RMK SLP279 T00161119 57002 IEM_DS3505
ZBAA,1998-12-30 10:00,ZBAA 301000Z AUTO 20006KT 02/M17 A3036 RMK SLP283 T00201170 IEM_DS3505
ZBAA,1998-12-30 11:00,ZBAA 301100Z AUTO 00000KT 3SM M02/M13 A3039 RMK SLP294 T10201130 IEM_DS3505
ZBAA,1998-12-30 12:00,ZBAA 301200Z AUTO 22002KT 5SM M01/M13 A3042 RMK SLP297 T10081128 52018 IEM_DS3505
ZBAA,1998-12-30 13:00,ZBAA 301300Z AUTO 00000KT 2 1/2SM M03/M13 A3042 RMK SLP305 T10301130 IEM_DS3505
ZBAA,1998-12-30 14:00,ZBAA 301400Z AUTO 00000KT 2 1/2SM M03/M15 A3045 RMK SLP316 T10301150 IEM_DS3505
ZBAA,1998-12-30 15:00,ZBAA 301500Z AUTO 00000KT 5SM M05/M13 A3045 RMK SLP310 T10461132 52013 IEM_DS3505
ZBAA,1998-12-30 16:00,ZBAA 301600Z AUTO 00000KT 2 1/2SM M04/M13 A3047 RMK SLP322 T10401130 IEM_DS3505
ZBAA,1998-12-30 17:00,ZBAA 301700Z AUTO 35006KT 2 1/2SM M06/M13 A3047 RMK SLP322 T10601130 IEM_DS3505
ZBAA,1998-12-30 18:00,ZBAA 301800Z AUTO 00000KT 4SM M05/M12 A3047 RMK SLP315 T10501116 52005 IEM_DS3505
ZBAA,1998-12-30 19:00,ZBAA 301900Z AUTO 34006KT 3SM M07/M13 A3050 RMK SLP334 T10701130 IEM_DS3505
ZBAA,1998-12-30 20:00,ZBAA 302000Z AUTO 34004KT M07/M13 A3047 RMK SLP323 T10701130 IEM_DS3505
ZBAA,1998-12-30 21:00,ZBAA 302100Z AUTO 02004KT 9SM M04/M12 A3047 RMK SLP320 T10441123 52005 IEM_DS3505
ZBAA,1998-12-30 22:00,ZBAA 302200Z AUTO 35004KT 7SM M07/M14 A3047 RMK SLP323 T10701140 IEM_DS3505
ZBAA,1998-12-30 23:00,ZBAA 302300Z AUTO 36008KT 7SM M07/M14 A3050 RMK SLP334 T10701140 IEM_DS3505
