station,valid,metar
ZBAA,2006-01-01 00:00,ZBAA 010000Z AUTO 22002KT 2 1/2SM M06/M08 A3033 RMK SLP271 T10581075 52003 IEM_DS3505
ZBAA,2006-01-01 01:00,ZBAA 010100Z AUTO 32004KT 2 1/2SM M04/M07 A3033 RMK T10401070 IEM_DS3505
ZBAA,2006-01-01 01:30,ZBAA 010130Z AUTO 33002KT 2SM M03/M07 A3033 RMK T10301070 IEM_DS3505
ZBAA,2006-01-01 02:00,ZBAA 010200Z AUTO 31004KT 2SM M02/M07 A3036 RMK T10201070 IEM_DS3505
ZBAA,2006-01-01 03:00,ZBAA 010300Z AUTO 22004KT 4SM M00/M06 A3033 RMK SLP268 T10031057 57003 IEM_DS3505
ZBAA,2006-01-01 04:00,ZBAA 010400Z AUTO 12002KT 2 1/2SM 02/M06 A3030 RMK T00201060 IEM_DS3505
ZBAA,2006-01-01 05:00,ZBAA 010500Z AUTO 27008KT 3SM 06/M07 A3024 RMK T00601070 IEM_DS3505
ZBAA,2006-01-01 06:00,ZBAA 010600Z AUTO 25004KT 5SM 05/M06 A3021 RMK SLP238 T00541065 57029 IEM_DS3505
ZBAA,2006-01-01 07:00,ZBAA 010700Z AUTO 28012KT 6SM 08/M14 A3021 RMK T00801140 IEM_DS3505
ZBAA,2006-01-01 08:00,ZBAA 010800Z AUTO 28012KT 7SM 08/M13 A3021 RMK T00801130 IEM_DS3505
ZBAA,2006-01-01 09:00,ZBAA 010900Z AUTO 22004KT 5SM 03/M06 A3021 RMK SLP239 T00261055 54000 IEM_DS3505
ZBAA,2006-01-01 10:00,ZBAA 011000Z AUTO 28010KT 6SM 05/M13 A3024 RMK T00501130 IEM_DS3505
ZBAA,2006-01-01 11:00,ZBAA 011100Z AUTO 29006KT 6SM 04/M13 A3024 RMK T00401130 IEM_DS3505
ZBAA,2006-01-01 12:00,ZBAA 011200Z AUTO 25004KT 6SM M00/M05 A3027 RMK SLP249 T10031051 52010 IEM_DS3505
ZBAA,2006-01-01 13:00,ZBAA 011300Z AUTO 28006KT 02/M10 A3027 RMK T00201100 IEM_DS3505
ZBAA,2006-01-01 14:00,ZBAA 011400Z AUTO 30002KT 00/M10 A3027 RMK T00001100 IEM_DS3505
ZBAA,2006-01-01 15:00,ZBAA 011500Z AUTO 25004KT 4SM M02/M05 A3030 RMK SLP260 T10161048 52011 IEM_DS3505
ZBAA,2006-01-01 16:00,ZBAA 011600Z AUTO 33002KT 2 1/2SM M03/M09 A3030 RMK T10301090 IEM_DS3505
ZBAA,2006-01-01 17:00,ZBAA 011700Z AUTO 33002KT 2 1/2SM M02/M09 A3030 RMK T10201090 IEM_DS3505
ZBAA,2006-01-01 19:00,ZBAA 011900Z AUTO 5SM M04/M11 A3030 RMK T10401110 IEM_DS3505
ZBAA,2006-01-01 20:00,ZBAA 012000Z AUTO 29008KT 6SM M01/M13 A3030 RMK T10101130 IEM_DS3505
ZBAA,2006-01-01 21:00,ZBAA 012100Z AUTO 09004KT 6SM M03/M11 A3030 RMK SLP255 T10271107 57003 IEM_DS3505
ZBAA,2006-01-01 22:00,ZBAA 012200Z AUTO 01002KT 6SM M05/M11 A3030 RMK T10501110 IEM_DS3505
ZBAA,2006-01-01 23:00,ZBAA 012300Z AUTO 35004KT 6SM M05/M14 A3030 RMK T10501140 IEM_DS3505
ZBAA,2006-01-02 00:00,ZBAA 020000Z AUTO 04004KT 12SM M00/M12 A3033 RMK SLP269 T10041123 52014 IEM_DS3505
ZBAA,2006-01-02 01:00,ZBAA 020100Z AUTO 02006KT 6SM M04/M13 A3036 RMK T10401130 IEM_DS3505
ZBAA,2006-01-02 02:00,ZBAA 020200Z AUTO 01004KT 6SM M01/M12 A3036 RMK T10101120 IEM_DS3505
ZBAA,2006-01-02 03:00,ZBAA 020300Z AUTO 04006KT 16SM 04/M14 A3036 RMK SLP271 T00451143 52003 IEM_DS3505
ZBAA,2006-01-02 04:00,ZBAA 020400Z AUTO 6SM 04/M12 A3033 RMK T00401120 IEM_DS3505
ZBAA,2006-01-02 05:00,ZBAA 020500Z AUTO 25006KT 6SM 06/M14 A3030 RMK T00601140 IEM_DS3505
ZBAA,2006-01-02 06:00,ZBAA 020600Z AUTO 22006KT 5SM 04/M07 A3027 RMK SLP250 T00411074 57022 IEM_DS3505
ZBAA,2006-01-02 07:00,ZBAA 020700Z AUTO 29006KT 6SM 06/M14 A3027 RMK T00601140 IEM_DS3505
ZBAA,2006-01-02 08:00,ZBAA 020800Z AUTO 25006KT 6SM 06/M13 A3027 RMK T00601130 IEM_DS3505
ZBAA,2006-01-02 09:00,ZBAA 020900Z AUTO 25004KT 5SM 02/M08 A3027 RMK SLP254 T00191082 52004 IEM_DS3505
ZBAA,2006-01-02 10:00,ZBAA 021000Z AUTO 02004KT 5SM 02/M14 A3027 RMK T00201140 IEM_DS3505
ZBAA,2006-01-02 11:00,ZBAA 021100Z AUTO 04002KT 5SM 00/M14 A3027 RMK T00001140 IEM_DS3505
ZBAA,2006-01-02 12:00,ZBAA 021200Z AUTO 22002KT 6SM 00/M09 A3030 RMK SLP258 T00011088 52004 IEM_DS3505
ZBAA,2006-01-02 13:00,ZBAA 021300Z AUTO 13002KT 5SM M02/M12 A3030 RMK T10201120 IEM_DS3505
ZBAA,2006-01-02 14:00,ZBAA 021400Z AUTO 04002KT M02/M11 A3033 RMK T10201110 IEM_DS3505
ZBAA,2006-01-02 16:00,ZBAA 021600Z AUTO 36004KT 4SM M04/M13 A3033 RMK T10401130 IEM_DS3505
ZBAA,2006-01-02 17:00,ZBAA 021700Z AUTO 34002KT 3SM M05/M14 A3033 RMK T10501140 IEM_DS3505
ZBAA,2006-01-02 18:00,ZBAA 021800Z AUTO 22002KT 4SM M05/M07 A3033 RMK SLP264 T10531071 57005 IEM_DS3505
ZBAA,2006-01-02 19:00,ZBAA 021900Z AUTO 36006KT M07/M14 A3030 RMK T10701140 IEM_DS3505
ZBAA,2006-01-02 20:00,ZBAA 022000Z AUTO 5SM M06/M14 A3030 RMK T10601140 IEM_DS3505
ZBAA,2006-01-02 21:00,ZBAA 022100Z AUTO 04002KT 4SM M06/M08 A3030 RMK SLP253 T10571080 57011 IEM_DS3505
ZBAA,2006-01-02 22:00,ZBAA 022200Z AUTO 03004KT 5SM M05/M14 A3030 RMK T10501140 IEM_DS3505
ZBAA,2006-01-02 23:00,ZBAA 022300Z AUTO 33002KT 5SM M06/M14 A3033 RMK T10601140 IEM_DS3505
ZBAA,2006-01-03 00:00,ZBAA 030000Z AUTO 04004KT 5SM M04/M09 A3036 RMK SLP275 T10411091 52022 IEM_DS3505
ZBAA,2006-01-03 01:00,ZBAA 030100Z AUTO 36006KT 5SM M04/M14 A3039 RMK T10401140 IEM_DS3505
ZBAA,2006-01-03 02:00,ZBAA 030200Z AUTO 07004KT M01/M08 A3042 RMK T10101080 IEM_DS3505
ZBAA,2006-01-03 03:00,ZBAA 030300Z AUTO 09008KT 6SM M01/M07 A3039 RMK SLP290 T10071071 52015 IEM_DS3505
ZBAA,2006-01-03 04:00,ZBAA 030400Z AUTO 13008KT 6SM 00/M10 A3039 RMK T00001100 IEM_DS3505
ZBAA,2006-01-03 05:00,ZBAA 030500Z AUTO 13008KT 6SM 01/M10 A3039 RMK T00101100 IEM_DS3505
ZBAA,2006-01-03 05:30,ZBAA 030530Z AUTO 10006KT 6SM 01/M10 A3036 RMK T00101100 IEM_DS3505
ZBAA,2006-01-03 06:00,ZBAA 030600Z AUTO 09008KT 9SM 00/M08 A3036 RMK SLP278 T00031082 57012 IEM_DS3505
ZBAA,2006-01-03 07:00,ZBAA 030700Z AUTO 11004KT 6SM 00/M10 A3036 RMK T00001100 IEM_DS3505
ZBAA,2006-01-03 08:00,ZBAA 030800Z AUTO 12004KT 6SM 00/M11 A3039 RMK T00001110 IEM_DS3505
ZBAA,2006-01-03 09:00,ZBAA 030900Z AUTO 07004KT 9SM M00/M10 A3039 RMK SLP293 T10031097 52015 IEM_DS3505
ZBAA,2006-01-03 10:00,ZBAA 031000Z AUTO 6SM M01/M11 A3042 RMK T10101110 IEM_DS3505
ZBAA,2006-01-03 11:00,ZBAA 031100Z AUTO 21004KT 7SM 00/M09 A3045 RMK T00001090 IEM_DS3505
ZBAA,2006-01-03 12:00,ZBAA 031200Z AUTO 20002KT 12SM M02/M09 A3047 RMK 60000 SLP324 T10151087 52031 IEM_DS3505
ZBAA,2006-01-03 13:00,ZBAA 031300Z AUTO 19006KT 6SM M02/M06 A3050 RMK T10201060 IEM_DS3505
ZBAA,2006-01-03 14:00,ZBAA 031400Z AUTO 22004KT 6SM M02/M05 A3053 RMK T10201050 IEM_DS3505
ZBAA,2006-01-03 15:00,ZBAA 031500Z AUTO 25004KT 12SM M03/M06 A3053 RMK SLP336 T10341065 52012 IEM_DS3505
ZBAA,2006-01-03 16:00,ZBAA 031600Z AUTO 20004KT 6SM M02/M07 A3053 RMK T10201070 IEM_DS3505
ZBAA,2006-01-03 17:00,ZBAA 031700Z AUTO 26002KT 6SM M03/M07 A3056 RMK T10301070 IEM_DS3505
ZBAA,2006-01-03 18:00,ZBAA 031800Z AUTO 29004KT 11SM M04/M06 A3056 RMK 60000 SLP348 T10421063 52012 IEM_DS3505
ZBAA,2006-01-03 19:00,ZBAA 031900Z AUTO 02010KT 6SM M04/ A3056 RMK IEM_DS3505
ZBAA,2006-01-03 20:00,ZBAA 032000Z AUTO 02012KT 6SM M05/M23 A3059 RMK T10501230 IEM_DS3505
ZBAA,2006-01-03 21:00,ZBAA 032100Z AUTO 02008KT 12SM M04/M23 A3062 RMK 70000 SLP365 T10441229 52017 IEM_DS3505
ZBAA,2006-01-03 22:00,ZBAA 032200Z AUTO 02012KT 6SM M06/M23 A3065 RMK T10601230 IEM_DS3505
ZBAA,2006-01-03 23:00,ZBAA 032300Z AUTO 35008KT 6SM M08/M23 A3068 RMK T10801230 IEM_DS3505
ZBAA,2006-01-04 00:00,ZBAA 040000Z AUTO 02008KT 12SM M06/M24 A3068 RMK 70000 SLP390 T10621235 52024 IEM_DS3505
ZBAA,2006-01-04 01:00,ZBAA 040100Z AUTO 02012KT 6SM M07/M24 A3071 RMK T10701240 IEM_DS3505
ZBAA,2006-01-04 02:00,ZBAA 040200Z AUTO 01008KT 6SM M07/M24 A3074 RMK T10701240 IEM_DS3505
ZBAA,2006-01-04 03:00,ZBAA 040300Z AUTO 34006KT 12SM M05/M27 A3074 RMK SLP407 T10491269 52017 IEM_DS3505
ZBAA,2006-01-04 04:00,ZBAA 040400Z AUTO 35014KT 6SM M06/M28 A3074 RMK T10601280 IEM_DS3505
ZBAA,2006-01-04 05:00,ZBAA 040500Z AUTO 33014KT 6SM M06/M28 A3071 RMK T10601280 IEM_DS3505
ZBAA,2006-01-04 06:00,ZBAA 040600Z AUTO 34010KT 12SM M06/M26 A3068 RMK SLP389 T10551261 57018 IEM_DS3505
ZBAA,2006-01-04 07:00,ZBAA 040700Z AUTO 31016KT 6SM M06/M28 A3068 RMK T10601280 IEM_DS3505
ZBAA,2006-01-04 08:00,ZBAA 040800Z AUTO 31016KT 6SM M06/M28 A3071 RMK T10601280 IEM_DS3505
ZBAA,2006-01-04 09:00,ZBAA 040900Z AUTO 34010KT 12SM M06/M26 A3071 RMK SLP397 T10581263 52008 IEM_DS3505
ZBAA,2006-01-04 10:00,ZBAA 041000Z AUTO 31017G27KT 6SM M06/M27 A3071 RMK T10601270 IEM_DS3505
ZBAA,2006-01-04 11:00,ZBAA 041100Z AUTO 31016KT 6SM M06/M28 A3074 RMK T10601280 IEM_DS3505
ZBAA,2006-01-04 12:00,ZBAA 041200Z AUTO 02010KT 12SM M06/M27 A3074 RMK SLP405 T10611272 52008 IEM_DS3505
ZBAA,2006-01-04 13:00,ZBAA 041300Z AUTO 32017KT 6SM M07/M28 A3074 RMK T10701280 IEM_DS3505
ZBAA,2006-01-04 14:00,ZBAA 041400Z AUTO 32014KT 6SM M07/M28 A3074 RMK T10701280 IEM_DS3505
ZBAA,2006-01-04 15:00,ZBAA 041500Z AUTO 36008KT 19SM M07/M27 A3074 RMK SLP409 T10691267 52004 IEM_DS3505
ZBAA,2006-01-04 16:00,ZBAA 041600Z AUTO 32016KT 6SM M08/M29 A3074 RMK T10801290 IEM_DS3505
ZBAA,2006-01-04 17:00,ZBAA 041700Z AUTO 31014KT 6SM M09/M27 A3074 RMK T10901270 IEM_DS3505
ZBAA,2006-01-04 18:00,ZBAA 041800Z AUTO 36010KT 19SM M08/M28 A3077 RMK SLP409 T10851275 54000 IEM_DS3505
ZBAA,2006-01-04 19:00,ZBAA 041900Z AUTO 32016KT 6SM M10/M28 A3074 RMK T11001280 IEM_DS3505
ZBAA,2006-01-04 20:00,ZBAA 042000Z AUTO 31014KT 6SM M11/M28 A3074 RMK T11101280 IEM_DS3505
ZBAA,2006-01-04 21:00,ZBAA 042100Z AUTO 36006KT 19SM M10/M28 A3071 RMK SLP396 T10991281 57013 IEM_DS3505
ZBAA,2006-01-04 22:00,ZBAA 042200Z AUTO 32016KT 6SM M11/M28 A3074 RMK T11101280 IEM_DS3505
ZBAA,2006-01-04 23:00,ZBAA 042300Z AUTO 32014KT 6SM M11/M28 A3074 RMK T11101280 IEM_DS3505
ZBAA,2006-01-05 00:00,ZBAA 050000Z AUTO 02004KT 19SM M10/M28 A3071 RMK SLP396 T10991276 54000 IEM_DS3505
ZBAA,2006-01-05 01:00,ZBAA 050100Z AUTO 32019G29KT 6SM M08/M27 A3074 RMK T10801270 IEM_DS3505
ZBAA,2006-01-05 02:00,ZBAA 050200Z AUTO 31017KT 6SM M07/M27 A3074 RMK T10701270 IEM_DS3505
ZBAA,2006-01-05 03:00,ZBAA 050300Z AUTO 36012KT 19SM M07/M27 A3068 RMK SLP386 T10671271 57010 IEM_DS3505
ZBAA,2006-01-05 04:00,ZBAA 050400Z AUTO 31017G27KT 6SM M06/M27 A3065 RMK T10601270 IEM_DS3505
ZBAA,2006-01-05 05:00,ZBAA 050500Z AUTO 28014KT 6SM M05/M26 A3059 RMK T10501260 IEM_DS3505
ZBAA,2006-01-05 06:00,ZBAA 050600Z AUTO 36004G25KT 19SM M03/M26 A3056 RMK SLP349 T10341264 57037 IEM_DS3505
ZBAA,2006-01-05 07:00,ZBAA 050700Z AUTO 28014KT 6SM M03/M25 A3053 RMK T10301250 IEM_DS3505
ZBAA,2006-01-05 08:00,ZBAA 050800Z AUTO 29014G23KT 6SM M03/M25 A3053 RMK T10301250 IEM_DS3505
ZBAA,2006-01-05 09:00,ZBAA 050900Z AUTO 29006KT 19SM M03/M26 A3053 RMK SLP345 T10331256 57004 IEM_DS3505
ZBAA,2006-01-05 10:00,ZBAA 051000Z AUTO 26010KT 6SM M04/M25 A3056 RMK T10401250 IEM_DS3505
ZBAA,2006-01-05 11:00,ZBAA 051100Z AUTO 29010KT 6SM M05/M24 A3056 RMK T10501240 IEM_DS3505
ZBAA,2006-01-05 12:00,ZBAA 051200Z AUTO 29004KT 19SM M05/M24 A3059 RMK SLP359 T10461236 52014 IEM_DS3505
ZBAA,2006-01-05 13:00,ZBAA 051300Z AUTO 31008KT 6SM M05/M25 A3059 RMK T10501250 IEM_DS3505
ZBAA,2006-01-05 14:00,ZBAA 051400Z AUTO 30010KT 6SM M05/M25 A3056 RMK T10501250 IEM_DS3505
ZBAA,2006-01-05 15:00,ZBAA 051500Z AUTO 34008KT 19SM M04/M27 A3056 RMK SLP352 T10391268 57007 IEM_DS3505
ZBAA,2006-01-05 16:00,ZBAA 051600Z AUTO 28008KT 6SM M06/M24 A3053 RMK T10601240 IEM_DS3505
ZBAA,2006-01-05 17:00,ZBAA 051700Z AUTO 29010KT 6SM M06/M25 A3053 RMK T10601250 IEM_DS3505
ZBAA,2006-01-05 18:00,ZBAA 051800Z AUTO 34008KT 19SM M05/M27 A3053 RMK SLP337 T10471267 57015 IEM_DS3505
ZBAA,2006-01-05 19:00,ZBAA 051900Z AUTO 28006KT 6SM M07/M25 A3053 RMK T10701250 IEM_DS3505
ZBAA,2006-01-05 20:00,ZBAA 052000Z AUTO 28008KT 6SM M07/M25 A3050 RMK T10701250 IEM_DS3505
ZBAA,2006-01-05 21:00,ZBAA 052100Z AUTO 32006KT 19SM M05/M27 A3050 RMK SLP328 T10541273 57009 IEM_DS3505
ZBAA,2006-01-05 22:00,ZBAA 052200Z AUTO 31008KT 6SM M07/M27 A3050 RMK T10701270 IEM_DS3505
ZBAA,2006-01-05 23:00,ZBAA 052300Z AUTO 31014KT 6SM M07/M26 A3050 RMK T10701260 IEM_DS3505
ZBAA,2006-01-06 00:00,ZBAA 060000Z AUTO 34002KT 19SM M06/M25 A3053 RMK SLP335 T10631251 52007 IEM_DS3505
ZBAA,2006-01-06 01:00,ZBAA 060100Z AUTO 30012KT 6SM M05/M26 A3053 RMK T10501260 IEM_DS3505
ZBAA,2006-01-06 02:00,ZBAA 060200Z AUTO 31014KT 6SM M03/M26 A3056 RMK T10301260 IEM_DS3505
ZBAA,2006-01-06 03:00,ZBAA 060300Z AUTO 34008G27KT 19SM M02/M27 A3053 RMK SLP338 T10191267 52004 IEM_DS3505
ZBAA,2006-01-06 04:00,ZBAA 060400Z AUTO 31017KT 6SM M01/M25 A3050 RMK T10101250 IEM_DS3505
ZBAA,2006-01-06 05:00,ZBAA 060500Z AUTO 29017KT 6SM M01/M26 A3047 RMK T10101260 IEM_DS3505
ZBAA,2006-01-06 06:00,ZBAA 060600Z AUTO 29008KT 19SM 01/M25 A3045 RMK SLP308 T00111252 57030 IEM_DS3505
ZBAA,2006-01-06 07:00,ZBAA 060700Z AUTO 29016KT 6SM 01/M25 A3045 RMK T00101250 IEM_DS3505
ZBAA,2006-01-06 08:00,ZBAA 060800Z AUTO 29016KT 6SM 01/M25 A3042 RMK T00101250 IEM_DS3505
ZBAA,2006-01-06 09:00,ZBAA 060900Z AUTO 27004G17KT 19SM M00/M25 A3045 RMK SLP309 T10041247 52001 IEM_DS3505
ZBAA,2006-01-06 10:00,ZBAA 061000Z AUTO 30008KT 6SM M01/M24 A3045 RMK T10101240 IEM_DS3505
ZBAA,2006-01-06 11:00,ZBAA 061100Z AUTO 26006KT 6SM M01/M24 A3047 RMK T10101240 IEM_DS3505
ZBAA,2006-01-06 12:00,ZBAA 061200Z AUTO 29004KT 16SM M02/M22 A3047 RMK SLP319 T10211221 52009 IEM_DS3505
ZBAA,2006-01-06 13:00,ZBAA 061300Z AUTO 32010KT 6SM M02/M24 A3047 RMK T10201240 IEM_DS3505
ZBAA,2006-01-06 14:00,ZBAA 061400Z AUTO 31008KT 6SM M02/M24 A3047 RMK T10201240 IEM_DS3505
ZBAA,2006-01-06 15:00,ZBAA 061500Z AUTO 07004KT 12SM M06/M21 A3047 RMK SLP321 T10571213 52003 IEM_DS3505
ZBAA,2006-01-06 16:00,ZBAA 061600Z AUTO 32012KT 6SM M02/M24 A3047 RMK T10201240 IEM_DS3505
ZBAA,2006-01-06 17:00,ZBAA 061700Z AUTO 31012KT 6SM M03/M23 A3047 RMK T10301230 IEM_DS3505
ZBAA,2006-01-06 18:00,ZBAA 061800Z AUTO 34004KT 19SM M03/M23 A3047 RMK SLP313 T10271226 57008 IEM_DS3505
ZBAA,2006-01-06 19:00,ZBAA 061900Z AUTO 01008KT 6SM M05/M22 A3047 RMK T10501220 IEM_DS3505
ZBAA,2006-01-06 20:00,ZBAA 062000Z AUTO 03008KT 6SM M06/M22 A3047 RMK T10601220 IEM_DS3505
ZBAA,2006-01-06 21:00,ZBAA 062100Z AUTO 04004KT 19SM M05/M23 A3047 RMK SLP309 T10461226 57004 IEM_DS3505
ZBAA,2006-01-06 22:00,ZBAA 062200Z AUTO 01008KT 6SM M07/M22 A3047 RMK T10701220 IEM_DS3505
ZBAA,2006-01-06 23:00,ZBAA 062300Z AUTO 35006KT 6SM M07/M22 A3047 RMK T10701220 IEM_DS3505
ZBAA,2006-01-07 00:00,ZBAA 070000Z AUTO 36004KT 12SM M04/M22 A3047 RMK SLP321 T10431219 52012 IEM_DS3505
ZBAA,2006-01-07 01:00,ZBAA 070100Z AUTO 33010KT 6SM M03/M22 A3050 RMK T10301220 IEM_DS3505
ZBAA,2006-01-07 02:00,ZBAA 070200Z AUTO 31014KT 6SM M01/M22 A3050 RMK T10101220 IEM_DS3505
ZBAA,2006-01-07 03:00,ZBAA 070300Z AUTO 36004KT 19SM 00/M22 A3047 RMK SLP321 T00001222 54000 IEM_DS3505
ZBAA,2006-01-07 04:00,ZBAA 070400Z AUTO 32012KT 6SM 01/M22 A3045 RMK T00101220 IEM_DS3505
ZBAA,2006-01-07 05:00,ZBAA 070500Z AUTO 32012KT 6SM 02/M22 A3042 RMK T00201220 IEM_DS3505
ZBAA,2006-01-07 06:00,ZBAA 070600Z AUTO 22004KT 19SM 03/M22 A3039 RMK SLP288 T00271222 57033 IEM_DS3505
ZBAA,2006-01-07 07:00,ZBAA 070700Z AUTO 32010KT 6SM 03/M23 A3036 RMK T00301230 IEM_DS3505
ZBAA,2006-01-07 08:00,ZBAA 070800Z AUTO 27008KT 6SM 03/M23 A3036 RMK T00301230 IEM_DS3505
ZBAA,2006-01-07 09:00,ZBAA 070900Z AUTO 25006KT 19SM 00/M21 A3036 RMK SLP286 T00031213 57002 IEM_DS3505
ZBAA,2006-01-07 10:00,ZBAA 071000Z AUTO 21006KT 6SM 01/M20 A3039 RMK T00101200 IEM_DS3505
ZBAA,2006-01-07 11:00,ZBAA 071100Z AUTO 23006KT 6SM 00/M20 A3039 RMK T00001200 IEM_DS3505
ZBAA,2006-01-07 12:00,ZBAA 071200Z AUTO 25002KT 12SM M04/M20 A3042 RMK SLP297 T10371200 52011 IEM_DS3505
ZBAA,2006-01-07 13:00,ZBAA 071300Z AUTO 25006KT M01/M18 A3042 RMK T10101180 IEM_DS3505
ZBAA,2006-01-07 14:00,ZBAA 071400Z AUTO 25004KT M02/M17 A3042 RMK T10201170 IEM_DS3505
ZBAA,2006-01-07 15:00,ZBAA 071500Z AUTO 25004KT 12SM M04/M18 A3042 RMK SLP296 T10451180 57001 IEM_DS3505
ZBAA,2006-01-07 16:00,ZBAA 071600Z AUTO 02002KT 2SM M07/M19 A3039 RMK T10701190 IEM_DS3505
ZBAA,2006-01-07 17:00,ZBAA 071700Z AUTO 36006KT 1 1/2SM M07/M19 A3039 RMK T10701190 IEM_DS3505
ZBAA,2006-01-07 18:00,ZBAA 071800Z AUTO 04002KT 9SM M05/M16 A3039 RMK SLP285 T10481163 57011 IEM_DS3505
ZBAA,2006-01-07 19:00,ZBAA 071900Z AUTO 34004KT 2SM M08/M19 A3039 RMK T10801190 IEM_DS3505
ZBAA,2006-01-07 20:00,ZBAA 072000Z AUTO 34004KT M08/M19 A3039 RMK T10801190 IEM_DS3505
ZBAA,2006-01-07 21:00,ZBAA 072100Z AUTO 09002KT 7SM M06/M16 A3036 RMK SLP277 T10591162 57008 IEM_DS3505
ZBAA,2006-01-07 22:00,ZBAA 072200Z AUTO 34006KT 6SM M09/M20 A3036 RMK T10901200 IEM_DS3505
ZBAA,2006-01-07 23:00,ZBAA 072300Z AUTO 33006KT 6SM M09/M21 A3036 RMK T10901210 IEM_DS3505
ZBAA,2006-01-08 00:00,ZBAA 080000Z AUTO 04004KT 7SM M06/M18 A3036 RMK SLP278 T10611181 52001 IEM_DS3505
ZBAA,2006-01-08 01:00,ZBAA 080100Z AUTO 35008KT 6SM M07/M20 A3036 RMK T10701200 IEM_DS3505
ZBAA,2006-01-08 02:00,ZBAA 080200Z AUTO 36008KT 6SM M04/M20 A3036 RMK T10401200 IEM_DS3505
ZBAA,2006-01-08 03:00,ZBAA 080300Z AUTO 07008KT 7SM M01/M20 A3036 RMK SLP272 T10081199 57006 IEM_DS3505
ZBAA,2006-01-08 04:00,ZBAA 080400Z AUTO 36006KT 6SM 00/M21 A3033 RMK T00001210 IEM_DS3505
ZBAA,2006-01-08 05:00,ZBAA 080500Z AUTO 03006KT 6SM 01/M21 A3027 RMK T00101210 IEM_DS3505
ZBAA,2006-01-08 06:00,ZBAA 080600Z AUTO 11002KT 7SM 03/M21 A3024 RMK SLP238 T00301211 57034 IEM_DS3505
ZBAA,2006-01-08 07:00,ZBAA 080700Z AUTO 07002KT 6SM 02/M20 A3021 RMK T00201200 IEM_DS3505
ZBAA,2006-01-08 08:00,ZBAA 080800Z AUTO 6SM 03/M20 A3021 RMK T00301200 IEM_DS3505
ZBAA,2006-01-08 09:00,ZBAA 080900Z AUTO 07002KT 7SM 01/M20 A3021 RMK SLP233 T00141204 57005 IEM_DS3505
ZBAA,2006-01-08 10:00,ZBAA 081000Z AUTO 16002KT 5SM M01/M18 A3021 RMK T10101180 IEM_DS3505
ZBAA,2006-01-08 11:00,ZBAA 081100Z AUTO 04004KT 5SM M03/M19 A3024 RMK T10301190 IEM_DS3505
ZBAA,2006-01-08 12:00,ZBAA 081200Z AUTO 25004KT 6SM M02/M18 A3024 RMK SLP245 T10151176 52012 IEM_DS3505
ZBAA,2006-01-08 13:00,ZBAA 081300Z AUTO 35004KT M06/M21 A3027 RMK T10601210 IEM_DS3505
ZBAA,2006-01-08 14:00,ZBAA 081400Z AUTO 35004KT M04/M20 A3024 RMK T10401200 IEM_DS3505
ZBAA,2006-01-08 15:00,ZBAA 081500Z AUTO 29004KT 6SM M04/M16 A3027 RMK SLP243 T10391165 57002 IEM_DS3505
ZBAA,2006-01-08 16:00,ZBAA 081600Z AUTO 34006KT M07/M20 A3024 RMK T10701200 IEM_DS3505
ZBAA,2006-01-08 17:00,ZBAA 081700Z AUTO 34006KT M07/M20 A3024 RMK T10701200 IEM_DS3505
ZBAA,2006-01-08 18:00,ZBAA 081800Z AUTO 27002KT 6SM M06/M16 A3024 RMK SLP238 T10651165 57005 IEM_DS3505
ZBAA,2006-01-08 19:00,ZBAA 081900Z AUTO 32006KT M07/M20 A3024 RMK T10701200 IEM_DS3505
ZBAA,2006-01-08 20:00,ZBAA 082000Z AUTO 35004KT M08/M20 A3024 RMK T10801200 IEM_DS3505
ZBAA,2006-01-08 21:00,ZBAA 082100Z AUTO 29004KT 7SM M02/M17 A3024 RMK SLP234 T10191172 57004 IEM_DS3505
ZBAA,2006-01-08 22:00,ZBAA 082200Z AUTO 33008KT 5SM M09/M19 A3024 RMK T10901190 IEM_DS3505
ZBAA,2006-01-08 23:00,ZBAA 082300Z AUTO 36008KT 5SM M06/M19 A3024 RMK T10601190 IEM_DS3505
ZBAA,2006-01-09 00:00,ZBAA 090000Z AUTO 29004KT 7SM M03/M17 A3027 RMK SLP245 T10261167 52011 IEM_DS3505
ZBAA,2006-01-09 01:00,ZBAA 090100Z AUTO 36006KT M07/M18 A3027 RMK T10701180 IEM_DS3505
ZBAA,2006-01-09 02:00,ZBAA 090200Z AUTO 36004KT M04/M18 A3027 RMK T10401180 IEM_DS3505
ZBAA,2006-01-09 03:00,ZBAA 090300Z AUTO 25006KT 7SM 02/M16 A3027 RMK SLP251 T00251165 52006 IEM_DS3505
ZBAA,2006-01-09 04:00,ZBAA 090400Z AUTO 32008KT 6SM 03/M16 A3024 RMK T00301160 IEM_DS3505
ZBAA,2006-01-09 05:00,ZBAA 090500Z AUTO 33006KT 6SM 04/M17 A3021 RMK T00401170 IEM_DS3505
ZBAA,2006-01-09 06:00,ZBAA 090600Z AUTO 25004KT 9SM 04/M18 A3018 RMK SLP216 T00411181 57035 IEM_DS3505
ZBAA,2006-01-09 07:00,ZBAA 090700Z AUTO 17006KT 6SM 04/M16 A3015 RMK T00401160 IEM_DS3505
ZBAA,2006-01-09 08:00,ZBAA 090800Z AUTO 15004KT 5SM 03/M16 A3015 RMK T00301160 IEM_DS3505
ZBAA,2006-01-09 09:00,ZBAA 090900Z AUTO 20004KT 6SM 02/M18 A3018 RMK SLP215 T00241177 54000 IEM_DS3505
ZBAA,2006-01-09 10:00,ZBAA 091000Z AUTO 12006KT 01/M16 A3015 RMK T00101160 IEM_DS3505
ZBAA,2006-01-09 11:00,ZBAA 091100Z AUTO 20006KT 6SM 02/M16 A3021 RMK T00201160 IEM_DS3505
ZBAA,2006-01-09 12:00,ZBAA 091200Z AUTO 14002KT 6SM M01/M16 A3021 RMK SLP226 T10071161 52010 IEM_DS3505
ZBAA,2006-01-09 13:00,ZBAA 091300Z AUTO 04004KT 3SM M02/M15 A3021 RMK T10201150 IEM_DS3505
ZBAA,2006-01-09 14:00,ZBAA 091400Z AUTO 03004KT 3SM M03/M15 A3021 RMK T10301150 IEM_DS3505
ZBAA,2006-01-09 15:00,ZBAA 091500Z AUTO 08002KT 5SM M00/M16 A3021 RMK SLP226 T10051156 52001 IEM_DS3505
ZBAA,2006-01-09 16:00,ZBAA 091600Z AUTO 07002KT 2 1/2SM M02/M15 A3021 RMK T10201150 IEM_DS3505
ZBAA,2006-01-09 17:00,ZBAA 091700Z AUTO 01002KT 2 1/2SM M04/M15 A3021 RMK T10401150 IEM_DS3505
ZBAA,2006-01-09 18:00,ZBAA 091800Z AUTO 02002KT 4SM M04/M14 A3021 RMK SLP229 T10361144 52003 IEM_DS3505
ZBAA,2006-01-09 19:00,ZBAA 091900Z AUTO 03002KT 2 1/2SM M05/M16 A3021 RMK T10501160 IEM_DS3505
ZBAA,2006-01-09 20:00,ZBAA 092000Z AUTO 35006KT 2 1/2SM M08/M16 A3021 RMK T10801160 IEM_DS3505
ZBAA,2006-01-09 21:00,ZBAA 092100Z AUTO 04004KT 5SM M04/M14 A3024 RMK SLP235 T10371142 52005 IEM_DS3505
ZBAA,2006-01-09 22:00,ZBAA 092200Z AUTO 03004KT 2 1/2SM M07/M16 A3024 RMK T10701160 IEM_DS3505
ZBAA,2006-01-09 23:00,ZBAA 092300Z AUTO 35004KT 3SM M07/M16 A3027 RMK T10701160 IEM_DS3505
ZBAA,2006-01-10 00:00,ZBAA 100000Z AUTO 07002KT 5SM M05/M14 A3030 RMK SLP261 T10511144 52026 IEM_DS3505
ZBAA,2006-01-10 01:00,ZBAA 100100Z AUTO 35004KT M05/M15 A3033 RMK T10501150 IEM_DS3505
ZBAA,2006-01-10 02:00,ZBAA 100200Z AUTO 36006KT M03/M16 A3036 RMK T10301160 IEM_DS3505
ZBAA,2006-01-10 03:00,ZBAA 100300Z AUTO 09006KT 6SM M00/M09 A3036 RMK SLP273 T10011093 52012 IEM_DS3505
ZBAA,2006-01-10 04:00,ZBAA 100400Z AUTO 13004KT 01/M10 A3033 RMK T00101100 IEM_DS3505
ZBAA,2006-01-10 05:00,ZBAA 100500Z AUTO 09004KT 3SM 02/M10 A3030 RMK T00201100 IEM_DS3505
ZBAA,2006-01-10 06:00,ZBAA 100600Z AUTO 11006KT 7SM 03/M10 A3027 RMK SLP253 T00271099 57020 IEM_DS3505
ZBAA,2006-01-10 07:00,ZBAA 100700Z AUTO 12006KT 3SM 03/M10 A3027 RMK T00301100 IEM_DS3505
ZBAA,2006-01-10 08:00,ZBAA 100800Z AUTO 14006KT 3SM 02/M10 A3027 RMK T00201100 IEM_DS3505
ZBAA,2006-01-10 09:00,ZBAA 100900Z AUTO 14004KT 6SM 01/M09 A3030 RMK SLP258 T00141090 52005 IEM_DS3505
ZBAA,2006-01-10 10:00,ZBAA 101000Z AUTO 14006KT 3SM 00/M08 A3030 RMK T00001080 IEM_DS3505
ZBAA,2006-01-10 11:00,ZBAA 101100Z AUTO 11006KT 3SM M01/M08 A3033 RMK T10101080 IEM_DS3505
ZBAA,2006-01-10 12:00,ZBAA 101200Z AUTO 14008KT 9SM M01/M05 A3033 RMK SLP271 T10111053 52013 IEM_DS3505
ZBAA,2006-01-10 13:00,ZBAA 101300Z AUTO 14008KT 3SM M02/M07 A3036 RMK T10201070 IEM_DS3505
ZBAA,2006-01-10 14:00,ZBAA 101400Z AUTO 12006KT 4SM M03/M07 A3039 RMK T10301070 IEM_DS3505
ZBAA,2006-01-10 15:00,ZBAA 101500Z AUTO 11006KT 9SM M03/M07 A3039 RMK SLP288 T10321072 52017 IEM_DS3505
ZBAA,2006-01-10 16:00,ZBAA 101600Z AUTO 14006KT 4SM M04/M08 A3042 RMK T10401080 IEM_DS3505
ZBAA,2006-01-10 17:00,ZBAA 101700Z AUTO 12006KT 4SM M04/M08 A3039 RMK T10401080 IEM_DS3505
ZBAA,2006-01-10 20:00,ZBAA 102000Z AUTO 10004KT 5SM M03/M09 A3039 RMK T10301090 IEM_DS3505
ZBAA,2006-01-10 22:00,ZBAA 102200Z AUTO 11002KT 5SM M04/M09 A3039 RMK T10401090 IEM_DS3505
ZBAA,2006-01-10 23:00,ZBAA 102300Z AUTO 14002KT M03/M09 A3039 RMK T10301090 IEM_DS3505
ZBAA,2006-01-11 00:00,ZBAA 110000Z AUTO 11002KT 9SM M04/M09 A3042 RMK SLP298 T10361092 52014 IEM_DS3505
ZBAA,2006-01-11 01:00,ZBAA 110100Z AUTO 07002KT 4SM M03/M09 A3042 RMK T10301090 IEM_DS3505
ZBAA,2006-01-11 02:00,ZBAA 110200Z AUTO 12006KT 2 1/2SM M03/M07 A3045 RMK T10301070 IEM_DS3505
ZBAA,2006-01-11 03:00,ZBAA 110300Z AUTO 07006KT 8SM M03/M06 A3045 RMK SLP304 T10311064 52006 IEM_DS3505
ZBAA,2006-01-11 04:00,ZBAA 110400Z AUTO 2SM M03/M05 A3042 RMK T10301050 IEM_DS3505
ZBAA,2006-01-11 05:00,ZBAA 110500Z AUTO 03002KT 2SM M02/M05 A3039 RMK T10201050 IEM_DS3505
ZBAA,2006-01-11 06:00,ZBAA 110600Z AUTO 07006KT 7SM M02/M05 A3036 RMK 60000 SLP277 T10171050 57027 IEM_DS3505
ZBAA,2006-01-11 07:00,ZBAA 110700Z AUTO 09004KT 2 1/2SM M01/M05 A3036 RMK T10101050 IEM_DS3505
ZBAA,2006-01-11 08:00,ZBAA 110800Z AUTO 12002KT 2 1/2SM M01/M05 A3036 RMK T10101050 IEM_DS3505
ZBAA,2006-01-11 09:00,ZBAA 110900Z AUTO 09002KT 5SM M02/M05 A3036 RMK SLP276 T10191046 57001 IEM_DS3505
ZBAA,2006-01-11 10:00,ZBAA 111000Z AUTO 15002KT 2 1/2SM M02/M05 A3036 RMK T10201050 IEM_DS3505
ZBAA,2006-01-11 11:00,ZBAA 111100Z AUTO 14002KT 2 1/2SM M02/M05 A3036 RMK T10201050 IEM_DS3505
ZBAA,2006-01-11 12:00,ZBAA 111200Z AUTO 04004KT 5SM M01/M05 A3039 RMK 60000 SLP286 T10141049 52010 IEM_DS3505
ZBAA,2006-01-11 12:30,ZBAA 111230Z AUTO 15002KT 2 1/2SM M02/M04 A3039 RMK T10201040 IEM_DS3505
ZBAA,2006-01-11 13:00,ZBAA 111300Z AUTO 00000KT 2 1/2SM M02/M04 A3039 RMK T10201040 IEM_DS3505
ZBAA,2006-01-11 13:30,ZBAA 111330Z AUTO 15002KT 2 1/2SM M02/M04 A3039 RMK T10201040 IEM_DS3505
ZBAA,2006-01-11 14:00,ZBAA 111400Z AUTO 15002KT 2 1/2SM M02/M05 A3042 RMK T10201050 IEM_DS3505
ZBAA,2006-01-11 15:00,ZBAA 111500Z AUTO 02002KT 5SM M01/M05 A3039 RMK SLP292 T10111053 52006 IEM_DS3505
ZBAA,2006-01-11 16:00,ZBAA 111600Z AUTO 31006KT 2 1/2SM M01/M05 A3039 RMK T10101050 IEM_DS3505
ZBAA,2006-01-11 17:00,ZBAA 111700Z AUTO 29006KT 2SM M01/M05 A3039 RMK T10101050 IEM_DS3505
ZBAA,2006-01-11 18:00,ZBAA 111800Z AUTO 02002KT 5SM M01/M06 A3039 RMK SLP282 T10091057 57010 IEM_DS3505
ZBAA,2006-01-11 19:00,ZBAA 111900Z AUTO 31008KT 1 1/2SM M02/M03 A3036 RMK T10201030 IEM_DS3505
ZBAA,2006-01-11 20:00,ZBAA 112000Z AUTO 32006KT 1 1/2SM M01/M03 A3033 RMK T10101030 IEM_DS3505
ZBAA,2006-01-11 21:00,ZBAA 112100Z AUTO 36002KT 5SM M01/M03 A3030 RMK 70000 SLP263 T10101034 57019 IEM_DS3505
ZBAA,2006-01-11 22:00,ZBAA 112200Z AUTO 33004KT 1SM M01/M02 A3030 RMK T10101020 IEM_DS3505
ZBAA,2006-01-11 23:00,ZBAA 112300Z AUTO 31006KT 1SM M02/M02 A3027 RMK T10201020 IEM_DS3505
ZBAA,2006-01-12 00:00,ZBAA 120000Z AUTO 04004KT 4SM M01/M03 A3027 RMK 60000 70000 SLP251 T10071034 57012 IEM_DS3505
ZBAA,2006-01-12 01:00,ZBAA 120100Z AUTO 32006KT 1SM M01/M02 A3030 RMK T10101020 IEM_DS3505
ZBAA,2006-01-12 02:00,ZBAA 120200Z AUTO 36006KT 1SM M02/M02 A3030 RMK T10201020 IEM_DS3505
ZBAA,2006-01-12 03:00,ZBAA 120300Z AUTO 04004KT 4SM M00/M02 A3027 RMK SLP248 T10051021 57003 IEM_DS3505
ZBAA,2006-01-12 04:00,ZBAA 120400Z AUTO 36004KT 1SM M01/M01 A3024 RMK T10101010 IEM_DS3505
ZBAA,2006-01-12 05:00,ZBAA 120500Z AUTO 36004KT 1SM M01/M01 A3021 RMK T10101010 IEM_DS3505
ZBAA,2006-01-12 06:00,ZBAA 120600Z AUTO 04004KT 2 1/2SM 00/M01 A3018 RMK 60002 SLP216 T00001013 57032 IEM_DS3505
ZBAA,2006-01-12 07:00,ZBAA 120700Z AUTO 36006KT 1SM M01/M01 A3018 RMK T10101010 IEM_DS3505
ZBAA,2006-01-12 08:00,ZBAA 120800Z AUTO 35004KT 1SM M01/M01 A3015 RMK T10101010 IEM_DS3505
ZBAA,2006-01-12 09:00,ZBAA 120900Z AUTO 04002KT 2 1/2SM 00/M02 A3015 RMK SLP209 T00021015 57006 IEM_DS3505
ZBAA,2006-01-12 10:00,ZBAA 121000Z AUTO 34004KT 1SM 00/M01 A3015 RMK T00001010 IEM_DS3505
ZBAA,2006-01-12 11:00,ZBAA 121100Z AUTO 33006KT 2SM 00/00 A3015 RMK T00000000 IEM_DS3505
ZBAA,2006-01-12 12:00,ZBAA 121200Z AUTO 07002KT 2 1/2SM 00/M02 A3018 RMK 60000 SLP217 T00051016 52008 IEM_DS3505
ZBAA,2006-01-12 12:30,ZBAA 121230Z AUTO 35004KT 2SM M01/M02 A3018 RMK T10101020 IEM_DS3505
ZBAA,2006-01-12 13:00,ZBAA 121300Z AUTO 36006KT 1 1/2SM M02/M03 A3018 RMK T10201030 IEM_DS3505
ZBAA,2006-01-12 14:00,ZBAA 121400Z AUTO 35004KT 1/2SM M04/M04 A3018 RMK T10401040 IEM_DS3505
ZBAA,2006-01-12 15:00,ZBAA 121500Z AUTO 02002KT 2SM M02/M03 A3015 RMK SLP212 T10171028 57006 IEM_DS3505
ZBAA,2006-01-12 16:00,ZBAA 121600Z AUTO 32006KT 1/4SM M04/M05 A3018 RMK T10401050 IEM_DS3505
ZBAA,2006-01-12 17:00,ZBAA 121700Z AUTO 23002KT 1/4SM M06/M07 A3015 RMK T10601070 IEM_DS3505
ZBAA,2006-01-12 18:00,ZBAA 121800Z AUTO 29002KT 1SM M03/M04 A3015 RMK SLP217 T10331041 52005 IEM_DS3505
ZBAA,2006-01-12 19:00,ZBAA 121900Z AUTO 31004KT 1/4SM M07/M07 A3018 RMK T10701070 IEM_DS3505
ZBAA,2006-01-12 20:00,ZBAA 122000Z AUTO 23004KT 3/8SM M06/M06 A3018 RMK T10601060 IEM_DS3505
ZBAA,2006-01-12 21:00,ZBAA 122100Z AUTO 27002KT 2SM M03/M04 A3021 RMK 70002 SLP227 T10271035 52010 IEM_DS3505
ZBAA,2006-01-12 22:00,ZBAA 122200Z AUTO 35008KT 2SM M05/M05 A3021 RMK T10501050 IEM_DS3505
ZBAA,2006-01-12 23:00,ZBAA 122300Z AUTO 02008KT 2 1/2SM M03/M04 A3021 RMK T10301040 IEM_DS3505
ZBAA,2006-01-13 00:00,ZBAA 130000Z AUTO 36004KT 6SM M01/M06 A3024 RMK 70002 SLP234 T10071059 52007 IEM_DS3505
ZBAA,2006-01-13 01:00,ZBAA 130100Z AUTO 35008KT 2 1/2SM M02/M04 A3024 RMK T10201040 IEM_DS3505
ZBAA,2006-01-13 02:00,ZBAA 130200Z AUTO 04004KT 4SM M01/M04 A3024 RMK T10101040 IEM_DS3505
ZBAA,2006-01-13 03:00,ZBAA 130300Z AUTO 34004KT 9SM 06/M06 A3024 RMK SLP239 T00561063 52006 IEM_DS3505
ZBAA,2006-01-13 04:00,ZBAA 130400Z AUTO 01004KT 03/M04 A3024 RMK T00301040 IEM_DS3505
ZBAA,2006-01-13 05:00,ZBAA 130500Z AUTO 01006KT 5SM 05/M02 A3018 RMK T00501020 IEM_DS3505
ZBAA,2006-01-13 06:00,ZBAA 130600Z AUTO 04004KT 9SM 07/M10 A3018 RMK SLP220 T00731096 57019 IEM_DS3505
ZBAA,2006-01-13 07:00,ZBAA 130700Z AUTO 07004KT 6SM 06/M04 A3018 RMK T00601040 IEM_DS3505
ZBAA,2006-01-13 08:00,ZBAA 130800Z AUTO 02006KT 6SM 05/M03 A3021 RMK T00501030 IEM_DS3505
ZBAA,2006-01-13 09:00,ZBAA 130900Z AUTO 18002KT 12SM 06/M09 A3021 RMK SLP226 T00591091 52006 IEM_DS3505
ZBAA,2006-01-13 10:00,ZBAA 131000Z AUTO 01004KT 4SM 00/M03 A3021 RMK T00001030 IEM_DS3505
ZBAA,2006-01-13 11:00,ZBAA 131100Z AUTO 36002KT 4SM 00/M04 A3024 RMK T00001040 IEM_DS3505
ZBAA,2006-01-13 12:00,ZBAA 131200Z AUTO 27004KT 6SM 02/M04 A3024 RMK SLP240 T00231036 52014 IEM_DS3505
ZBAA,2006-01-13 13:00,ZBAA 131300Z AUTO 03002KT 3SM M02/M04 A3024 RMK T10201040 IEM_DS3505
ZBAA,2006-01-13 14:00,ZBAA 131400Z AUTO 36004KT 2 1/2SM M02/M05 A3024 RMK T10201050 IEM_DS3505
ZBAA,2006-01-13 15:00,ZBAA 131500Z AUTO 20002KT 6SM M01/M05 A3024 RMK SLP241 T10091049 52001 IEM_DS3505
ZBAA,2006-01-13 16:00,ZBAA 131600Z AUTO 36004KT 2 1/2SM M03/M06 A3027 RMK T10301060 IEM_DS3505
ZBAA,2006-01-13 17:00,ZBAA 131700Z AUTO 03004KT 2 1/2SM M04/M06 A3027 RMK T10401060 IEM_DS3505
ZBAA,2006-01-13 18:00,ZBAA 131800Z AUTO 07002KT 4SM M03/M05 A3027 RMK SLP242 T10261054 52001 IEM_DS3505
ZBAA,2006-01-13 19:00,ZBAA 131900Z AUTO 05006KT 2 1/2SM M05/M06 A3024 RMK T10501060 IEM_DS3505
ZBAA,2006-01-13 20:00,ZBAA 132000Z AUTO 04004KT 2 1/2SM M06/M07 A3024 RMK T10601070 IEM_DS3505
ZBAA,2006-01-13 21:00,ZBAA 132100Z AUTO 07004KT 4SM M04/M06 A3024 RMK SLP231 T10371065 57011 IEM_DS3505
ZBAA,2006-01-13 22:00,ZBAA 132200Z AUTO 00000KT 3SM M05/M07 A3021 RMK T10501070 IEM_DS3505
ZBAA,2006-01-13 23:00,ZBAA 132300Z AUTO 15004KT 2SM M08/M08 A3024 RMK T10801080 IEM_DS3505
ZBAA,2006-01-14 00:00,ZBAA 140000Z AUTO 09004KT 1/8SM M06/M07 A3024 RMK SLP242 T10611069 52010 IEM_DS3505
ZBAA,2006-01-14 01:00,ZBAA 140100Z AUTO 18002KT 1/8SM M06/M06 A3027 RMK T10601060 IEM_DS3505
ZBAA,2006-01-14 02:00,ZBAA 140200Z AUTO 07002KT 1/8SM M06/M06 A3027 RMK T10601060 IEM_DS3505
ZBAA,2006-01-14 03:00,ZBAA 140300Z AUTO 11004KT 2SM M04/M04 A3024 RMK SLP240 T10361043 57002 IEM_DS3505
ZBAA,2006-01-14 04:00,ZBAA 140400Z AUTO 15002KT 1/8SM M04/M04 A3021 RMK T10401040 IEM_DS3505
ZBAA,2006-01-14 05:00,ZBAA 140500Z AUTO 11004KT 3/8SM M03/M03 A3018 RMK T10301030 IEM_DS3505
ZBAA,2006-01-14 06:00,ZBAA 140600Z AUTO 11004KT 1SM M02/M03 A3018 RMK 60000 SLP219 T10241031 57021 IEM_DS3505
ZBAA,2006-01-14 07:00,ZBAA 140700Z AUTO 15006KT 1/2SM M02/M02 A3018 RMK T10201020 IEM_DS3505
ZBAA,2006-01-14 08:00,ZBAA 140800Z AUTO 11006KT 1/2SM M02/M02 A3018 RMK T10201020 IEM_DS3505
ZBAA,2006-01-14 09:00,ZBAA 140900Z AUTO 14004KT 1 1/4SM M02/M03 A3018 RMK SLP217 T10151028 57002 IEM_DS3505
ZBAA,2006-01-14 10:00,ZBAA 141000Z AUTO 12006KT 1SM M02/M02 A3018 RMK T10201020 IEM_DS3505
ZBAA,2006-01-14 11:00,ZBAA 141100Z AUTO 12004KT 1SM M02/M02 A3018 RMK T10201020 IEM_DS3505
ZBAA,2006-01-14 12:00,ZBAA 141200Z AUTO 09004KT 1SM M02/M04 A3018 RMK 60000 SLP224 T10251036 52007 IEM_DS3505
ZBAA,2006-01-14 13:00,ZBAA 141300Z AUTO 14002KT 1SM M02/M02 A3021 RMK T10201020 IEM_DS3505
ZBAA,2006-01-14 14:00,ZBAA 141400Z AUTO 11004KT 1SM M02/M02 A3018 RMK T10201020 IEM_DS3505
ZBAA,2006-01-14 15:00,ZBAA 141500Z AUTO 04004KT 1SM M02/M03 A3018 RMK SLP224 T10201027 54000 IEM_DS3505
ZBAA,2006-01-14 16:00,ZBAA 141600Z AUTO 01004KT 1SM M02/M02 A3018 RMK T10201020 IEM_DS3505
ZBAA,2006-01-14 17:00,ZBAA 141700Z AUTO 02004KT 1SM M02/M02 A3018 RMK T10201020 IEM_DS3505
ZBAA,2006-01-14 18:00,ZBAA 141800Z AUTO 04002KT 1SM M01/M03 A3018 RMK SLP221 T10141027 57003 IEM_DS3505
ZBAA,2006-01-14 19:00,ZBAA 141900Z AUTO 35006KT 1SM M02/M02 A3018 RMK T10201020 IEM_DS3505
ZBAA,2006-01-14 20:00,ZBAA 142000Z AUTO 35012KT 1SM M03/M04 A3015 RMK T10301040 IEM_DS3505
ZBAA,2006-01-14 21:00,ZBAA 142100Z AUTO 07002KT 2SM M03/M04 A3015 RMK 70000 SLP213 T10261043 57008 IEM_DS3505
ZBAA,2006-01-14 22:00,ZBAA 142200Z AUTO 26004KT 1SM M03/M04 A3015 RMK T10301040 IEM_DS3505
ZBAA,2006-01-14 23:00,ZBAA 142300Z AUTO 33006KT 1 1/4SM M04/M05 A3018 RMK T10401050 IEM_DS3505
ZBAA,2006-01-15 00:00,ZBAA 150000Z AUTO 29002KT 1 1/4SM M04/M05 A3018 RMK 70000 SLP226 T10411051 52013 IEM_DS3505
ZBAA,2006-01-15 01:00,ZBAA 150100Z AUTO 33004KT 1 1/2SM M02/M05 A3021 RMK T10201050 IEM_DS3505
ZBAA,2006-01-15 02:00,ZBAA 150200Z AUTO 11002KT 1 1/2SM 00/M05 A3021 RMK T00001050 IEM_DS3505
ZBAA,2006-01-15 04:00,ZBAA 150400Z AUTO 04006KT 04/M11 A3021 RMK T00401110 IEM_DS3505
ZBAA,2006-01-15 05:00,ZBAA 150500Z AUTO 06002KT 5SM 05/M12 A3018 RMK T00501120 IEM_DS3505
ZBAA,2006-01-15 06:00,ZBAA 150600Z AUTO 22006KT 2SM 04/M05 A3015 RMK SLP214 T00381054 57018 IEM_DS3505
ZBAA,2006-01-15 07:00,ZBAA 150700Z AUTO 15004KT 5SM 06/M13 A3015 RMK T00601130 IEM_DS3505
ZBAA,2006-01-15 08:00,ZBAA 150800Z AUTO 18006KT 5SM 05/M13 A3015 RMK T00501130 IEM_DS3505
ZBAA,2006-01-15 09:00,ZBAA 150900Z AUTO 25004KT 2 1/2SM 02/M06 A3018 RMK SLP219 T00211055 52004 IEM_DS3505
ZBAA,2006-01-15 10:00,ZBAA 151000Z AUTO 18006KT 1 1/2SM 02/M07 A3018 RMK T00201070 IEM_DS3505
ZBAA,2006-01-15 11:00,ZBAA 151100Z AUTO 19004KT 1 1/2SM 00/M06 A3018 RMK T00001060 IEM_DS3505
ZBAA,2006-01-15 12:00,ZBAA 151200Z AUTO 22002KT 2SM M01/M05 A3021 RMK SLP224 T10111048 52005 IEM_DS3505
ZBAA,2006-01-15 13:00,ZBAA 151300Z AUTO 11002KT 1 1/4SM M02/M07 A3018 RMK T10201070 IEM_DS3505
ZBAA,2006-01-15 14:00,ZBAA 151400Z AUTO 04002KT 1 1/4SM M02/M06 A3018 RMK T10201060 IEM_DS3505
ZBAA,2006-01-15 15:00,ZBAA 151500Z AUTO 09002KT 1 1/4SM M03/M06 A3018 RMK SLP223 T10271058 57001 IEM_DS3505
ZBAA,2006-01-15 16:00,ZBAA 151600Z AUTO 00000KT 1SM M03/M06 A3021 RMK T10301060 IEM_DS3505
ZBAA,2006-01-15 17:00,ZBAA 151700Z AUTO 11008KT 1SM M02/M05 A3021 RMK T10201050 IEM_DS3505
ZBAA,2006-01-15 18:00,ZBAA 151800Z AUTO 14004KT 2SM M02/M06 A3024 RMK SLP234 T10241060 52012 IEM_DS3505
ZBAA,2006-01-15 19:00,ZBAA 151900Z AUTO 11008KT 1 1/2SM M03/M06 A3024 RMK T10301060 IEM_DS3505
ZBAA,2006-01-15 20:00,ZBAA 152000Z AUTO 2SM M05/M07 A3024 RMK T10501070 IEM_DS3505
ZBAA,2006-01-15 21:00,ZBAA 152100Z AUTO 02004KT 4SM M04/M07 A3021 RMK SLP232 T10401073 57003 IEM_DS3505
ZBAA,2006-01-15 22:00,ZBAA 152200Z AUTO 34006KT 2 1/2SM M04/M06 A3021 RMK T10401060 IEM_DS3505
ZBAA,2006-01-15 23:00,ZBAA 152300Z AUTO 31006KT 2 1/2SM M02/M05 A3021 RMK T10201050 IEM_DS3505
ZBAA,2006-01-16 00:00,ZBAA 160000Z AUTO 07002KT 5SM M02/M07 A3024 RMK SLP246 T10241066 52014 IEM_DS3505
ZBAA,2006-01-16 01:00,ZBAA 160100Z AUTO 28006KT 1 1/4SM M02/M05 A3030 RMK T10201050 IEM_DS3505
ZBAA,2006-01-16 02:00,ZBAA 160200Z AUTO 27006KT 1 1/4SM M01/M05 A3030 RMK T10101050 IEM_DS3505
ZBAA,2006-01-16 03:00,ZBAA 160300Z AUTO 07004KT 6SM 00/M06 A3030 RMK SLP261 T00011061 52015 IEM_DS3505
ZBAA,2006-01-16 04:00,ZBAA 160400Z AUTO 01006KT 1 1/4SM 00/M04 A3030 RMK T00001040 IEM_DS3505
ZBAA,2006-01-16 05:00,ZBAA 160500Z AUTO 36004KT 1 1/2SM 00/M04 A3027 RMK T00001040 IEM_DS3505
ZBAA,2006-01-16 06:00,ZBAA 160600Z AUTO 07006KT 6SM 01/M06 A3024 RMK SLP241 T00081063 57020 IEM_DS3505
ZBAA,2006-01-16 07:00,ZBAA 160700Z AUTO 11006KT 2 1/2SM 01/M05 A3027 RMK T00101050 IEM_DS3505
ZBAA,2006-01-16 08:00,ZBAA 160800Z AUTO 13006KT 2 1/2SM 00/M06 A3027 RMK T00001060 IEM_DS3505
ZBAA,2006-01-16 09:00,ZBAA 160900Z AUTO 14006KT 6SM M01/M09 A3033 RMK SLP267 T10101087 52026 IEM_DS3505
ZBAA,2006-01-16 10:00,ZBAA 161000Z AUTO 15006KT 3SM M01/M07 A3033 RMK T10101070 IEM_DS3505
ZBAA,2006-01-16 11:00,ZBAA 161100Z AUTO 19006KT 3SM M01/M09 A3036 RMK T10101090 IEM_DS3505
ZBAA,2006-01-16 12:00,ZBAA 161200Z AUTO 18004KT 8SM M02/M12 A3036 RMK SLP287 T10161120 52020 IEM_DS3505
ZBAA,2006-01-16 13:00,ZBAA 161300Z AUTO 16006KT M02/M11 A3039 RMK T10201110 IEM_DS3505
ZBAA,2006-01-16 14:00,ZBAA 161400Z AUTO 15006KT M02/M10 A3039 RMK T10201100 IEM_DS3505
ZBAA,2006-01-16 15:00,ZBAA 161500Z AUTO 11006KT 9SM M03/M12 A3042 RMK SLP297 T10281125 52010 IEM_DS3505
ZBAA,2006-01-16 16:00,ZBAA 161600Z AUTO 15010KT M03/M12 A3042 RMK T10301120 IEM_DS3505
ZBAA,2006-01-16 17:00,ZBAA 161700Z AUTO 16006KT M03/M12 A3045 RMK T10301120 IEM_DS3505
ZBAA,2006-01-16 19:00,ZBAA 161900Z AUTO 16004KT 7SM M04/M13 A3047 RMK T10401130 IEM_DS3505
ZBAA,2006-01-16 20:00,ZBAA 162000Z AUTO 16004KT 7SM M04/M14 A3047 RMK T10401140 IEM_DS3505
ZBAA,2006-01-16 21:00,ZBAA 162100Z AUTO 20004KT 9SM M04/M14 A3047 RMK SLP315 T10401145 52001 IEM_DS3505
ZBAA,2006-01-16 22:00,ZBAA 162200Z AUTO 17006KT 7SM M04/M14 A3045 RMK T10401140 IEM_DS3505
ZBAA,2006-01-16 23:00,ZBAA 162300Z AUTO 18004KT 7SM M04/M15 A3047 RMK T10401150 IEM_DS3505
ZBAA,2006-01-17 00:00,ZBAA 170000Z AUTO 20004KT 8SM M04/M15 A3047 RMK SLP324 T10411148 52009 IEM_DS3505
ZBAA,2006-01-17 01:00,ZBAA 170100Z AUTO 14004KT 5SM M04/M14 A3050 RMK T10401140 IEM_DS3505
ZBAA,2006-01-17 02:00,ZBAA 170200Z AUTO 16004KT 5SM M04/M14 A3053 RMK T10401140 IEM_DS3505
ZBAA,2006-01-17 03:00,ZBAA 170300Z AUTO 14004KT 9SM M04/M14 A3053 RMK SLP338 T10411135 52014 IEM_DS3505
ZBAA,2006-01-17 04:00,ZBAA 170400Z AUTO 17006KT 4SM M03/M11 A3050 RMK T10301110 IEM_DS3505
ZBAA,2006-01-17 05:00,ZBAA 170500Z AUTO 17006KT M03/M11 A3050 RMK T10301110 IEM_DS3505
ZBAA,2006-01-17 06:00,ZBAA 170600Z AUTO 14002KT 9SM M04/M11 A3050 RMK 60000 SLP326 T10431111 57013 IEM_DS3505
ZBAA,2006-01-17 07:00,ZBAA 170700Z AUTO 16004KT M04/M10 A3050 RMK T10401100 IEM_DS3505
ZBAA,2006-01-17 08:00,ZBAA 170800Z AUTO 14004KT M04/M10 A3050 RMK T10401100 IEM_DS3505
ZBAA,2006-01-17 09:00,ZBAA 170900Z AUTO 16004KT 9SM M04/M11 A3050 RMK SLP331 T10451113 52005 IEM_DS3505
ZBAA,2006-01-17 10:00,ZBAA 171000Z AUTO 14004KT 3SM M05/M10 A3050 RMK T10501100 IEM_DS3505
ZBAA,2006-01-17 11:00,ZBAA 171100Z AUTO 15006KT 3SM M05/M10 A3053 RMK T10501100 IEM_DS3505
ZBAA,2006-01-17 12:00,ZBAA 171200Z AUTO 20004KT 9SM M06/M11 A3053 RMK SLP343 T10611110 52012 IEM_DS3505
ZBAA,2006-01-17 13:00,ZBAA 171300Z AUTO 15002KT 3SM M07/M11 A3053 RMK T10701110 IEM_DS3505
ZBAA,2006-01-17 14:00,ZBAA 171400Z AUTO 16004KT 3SM M08/M11 A3056 RMK T10801110 IEM_DS3505
ZBAA,2006-01-17 15:00,ZBAA 171500Z AUTO 22004KT 7SM M08/M10 A3056 RMK SLP350 T10751099 52007 IEM_DS3505
ZBAA,2006-01-17 16:00,ZBAA 171600Z AUTO 16004KT 2 1/2SM M08/M10 A3056 RMK T10801100 IEM_DS3505
ZBAA,2006-01-17 17:00,ZBAA 171700Z AUTO 11002KT 2 1/2SM M08/M09 A3056 RMK T10801090 IEM_DS3505
ZBAA,2006-01-17 18:00,ZBAA 171800Z AUTO 22002KT 5SM M08/M10 A3056 RMK SLP352 T10851101 52002 IEM_DS3505
ZBAA,2006-01-17 19:00,ZBAA 171900Z AUTO 08004KT 1 1/2SM M08/M10 A3059 RMK T10801100 IEM_DS3505
ZBAA,2006-01-17 20:00,ZBAA 172000Z AUTO 06002KT 1 1/2SM M09/M10 A3056 RMK T10901100 IEM_DS3505
ZBAA,2006-01-17 21:00,ZBAA 172100Z AUTO 04002KT 4SM M09/M10 A3056 RMK 70000 SLP348 T10891104 57004 IEM_DS3505
ZBAA,2006-01-17 22:00,ZBAA 172200Z AUTO 33006KT 1 1/4SM M10/M11 A3056 RMK T11001110 IEM_DS3505
ZBAA,2006-01-17 23:00,ZBAA 172300Z AUTO 33006KT 2SM M10/M11 A3056 RMK T11001110 IEM_DS3505
ZBAA,2006-01-18 00:00,ZBAA 180000Z AUTO 25002KT 5SM M09/M10 A3056 RMK 70000 SLP351 T10891102 52003 IEM_DS3505
ZBAA,2006-01-18 01:00,ZBAA 180100Z AUTO 31008KT 1 1/2SM M07/M09 A3059 RMK T10701090 IEM_DS3505
ZBAA,2006-01-18 02:00,ZBAA 180200Z AUTO 34008KT 1 1/2SM M06/M09 A3059 RMK T10601090 IEM_DS3505
ZBAA,2006-01-18 03:00,ZBAA 180300Z AUTO 36004KT 5SM M03/M08 A3059 RMK SLP355 T10281079 52004 IEM_DS3505
ZBAA,2006-01-18 04:00,ZBAA 180400Z AUTO 36006KT 2 1/2SM M02/M08 A3053 RMK T10201080 IEM_DS3505
ZBAA,2006-01-18 05:00,ZBAA 180500Z AUTO 36006KT 2 1/2SM M01/M08 A3053 RMK T10101080 IEM_DS3505
ZBAA,2006-01-18 05:30,ZBAA 180530Z AUTO 01004KT 2 1/2SM 00/M08 A3050 RMK T00001080 IEM_DS3505
ZBAA,2006-01-18 06:00,ZBAA 180600Z AUTO 02002KT 5SM 00/M09 A3050 RMK SLP331 T00021090 57024 IEM_DS3505
ZBAA,2006-01-18 07:00,ZBAA 180700Z AUTO 13002KT 3SM 01/M08 A3050 RMK T00101080 IEM_DS3505
ZBAA,2006-01-18 08:00,ZBAA 180800Z AUTO 3SM 01/M08 A3050 RMK T00101080 IEM_DS3505
ZBAA,2006-01-18 09:00,ZBAA 180900Z AUTO 20002KT 4SM M01/M09 A3050 RMK SLP331 T10061088 54000 IEM_DS3505
ZBAA,2006-01-18 10:00,ZBAA 181000Z AUTO 13004KT 2 1/2SM M03/M08 A3053 RMK T10301080 IEM_DS3505
ZBAA,2006-01-18 11:00,ZBAA 181100Z AUTO 13002KT 2 1/2SM M03/M08 A3056 RMK T10301080 IEM_DS3505
ZBAA,2006-01-18 12:00,ZBAA 181200Z AUTO 25002KT 6SM M03/M08 A3059 RMK SLP357 T10331085 52026 IEM_DS3505
ZBAA,2006-01-18 13:00,ZBAA 181300Z AUTO 10002KT 2SM M05/M09 A3059 RMK T10501090 IEM_DS3505
ZBAA,2006-01-18 14:00,ZBAA 181400Z AUTO 04002KT 1 1/2SM M05/M09 A3059 RMK T10501090 IEM_DS3505
ZBAA,2006-01-18 15:00,ZBAA 181500Z AUTO 25002KT 6SM M05/M09 A3059 RMK SLP355 T10471086 57002 IEM_DS3505
ZBAA,2006-01-18 16:00,ZBAA 181600Z AUTO 03002KT 1 1/4SM M06/M09 A3059 RMK T10601090 IEM_DS3505
ZBAA,2006-01-18 17:00,ZBAA 181700Z AUTO 04002KT 1 1/4SM M06/M09 A3056 RMK T10601090 IEM_DS3505
ZBAA,2006-01-18 19:00,ZBAA 181900Z AUTO 34002KT 1 1/4SM M07/M09 A3056 RMK T10701090 IEM_DS3505
ZBAA,2006-01-18 20:00,ZBAA 182000Z AUTO 35006KT 1 1/4SM M07/M09 A3056 RMK T10701090 IEM_DS3505
ZBAA,2006-01-18 21:00,ZBAA 182100Z AUTO 11002KT 2 1/2SM M06/M09 A3053 RMK SLP340 T10631087 57011 IEM_DS3505
ZBAA,2006-01-18 22:00,ZBAA 182200Z AUTO 33006KT 1 1/2SM M08/M11 A3053 RMK T10801110 IEM_DS3505
ZBAA,2006-01-18 23:00,ZBAA 182300Z AUTO 34006KT 2SM M09/M11 A3056 RMK T10901110 IEM_DS3505
ZBAA,2006-01-19 00:00,ZBAA 190000Z AUTO 20002KT 2SM M06/M09 A3056 RMK SLP356 T10631089 52015 IEM_DS3505
ZBAA,2006-01-19 01:00,ZBAA 190100Z AUTO 03002KT 1 1/4SM M06/M08 A3059 RMK T10601080 IEM_DS3505
ZBAA,2006-01-19 02:00,ZBAA 190200Z AUTO 09004KT 1 1/4SM M05/M08 A3062 RMK T10501080 IEM_DS3505
ZBAA,2006-01-19 03:00,ZBAA 190300Z AUTO 34002KT 2 1/2SM M02/M08 A3059 RMK SLP363 T10211078 52007 IEM_DS3505
ZBAA,2006-01-19 04:00,ZBAA 190400Z AUTO 08004KT 1SM M03/M08 A3056 RMK T10301080 IEM_DS3505
ZBAA,2006-01-19 05:00,ZBAA 190500Z AUTO 09004KT 1SM M02/M07 A3053 RMK T10201070 IEM_DS3505
ZBAA,2006-01-19 06:00,ZBAA 190600Z AUTO 07004KT 5SM M00/M09 A3050 RMK SLP327 T10031090 57035 IEM_DS3505
ZBAA,2006-01-19 07:00,ZBAA 190700Z AUTO 14004KT 1 1/4SM M01/M07 A3050 RMK T10101070 IEM_DS3505
ZBAA,2006-01-19 08:00,ZBAA 190800Z AUTO 16002KT 1 1/4SM M01/M07 A3050 RMK T10101070 IEM_DS3505
ZBAA,2006-01-19 09:00,ZBAA 190900Z AUTO 20004KT 4SM M00/M08 A3050 RMK SLP330 T10051080 52003 IEM_DS3505
ZBAA,2006-01-19 10:00,ZBAA 191000Z AUTO 14002KT 1SM M02/M07 A3050 RMK T10201070 IEM_DS3505
ZBAA,2006-01-19 11:00,ZBAA 191100Z AUTO 12002KT 1SM M02/M07 A3053 RMK T10201070 IEM_DS3505
ZBAA,2006-01-19 12:00,ZBAA 191200Z AUTO 22002KT 4SM M01/M08 A3053 RMK SLP340 T10141082 52009 IEM_DS3505
ZBAA,2006-01-19 14:00,ZBAA 191400Z AUTO 14002KT 1SM M03/M07 A3050 RMK T10301070 IEM_DS3505
ZBAA,2006-01-19 15:00,ZBAA 191500Z AUTO 22004KT 2 1/2SM M02/M08 A3050 RMK SLP329 T10251080 57010 IEM_DS3505
ZBAA,2006-01-19 16:00,ZBAA 191600Z AUTO 11002KT 1 1/4SM M04/M08 A3050 RMK T10401080 IEM_DS3505
ZBAA,2006-01-19 17:00,ZBAA 191700Z AUTO 04002KT 1SM M04/M08 A3047 RMK T10401080 IEM_DS3505
ZBAA,2006-01-19 18:00,ZBAA 191800Z AUTO 20004KT 2SM M03/M08 A3047 RMK SLP315 T10271076 57014 IEM_DS3505
ZBAA,2006-01-19 19:00,ZBAA 191900Z AUTO 02002KT 1SM M04/M08 A3045 RMK T10401080 IEM_DS3505
ZBAA,2006-01-19 20:00,ZBAA 192000Z AUTO 00000KT 1 1/4SM M04/M08 A3045 RMK T10401080 IEM_DS3505
ZBAA,2006-01-19 21:00,ZBAA 192100Z AUTO 22002KT 2SM M03/M07 A3042 RMK SLP300 T10321073 57015 IEM_DS3505
ZBAA,2006-01-19 22:00,ZBAA 192200Z AUTO 32002KT 1SM M04/M07 A3042 RMK T10401070 IEM_DS3505
ZBAA,2006-01-19 23:00,ZBAA 192300Z AUTO 36004KT 1SM M03/M07 A3042 RMK T10301070 IEM_DS3505
ZBAA,2006-01-20 00:00,ZBAA 200000Z AUTO 32002KT 1 1/4SM M02/M07 A3042 RMK SLP303 T10241068 52003 IEM_DS3505
ZBAA,2006-01-20 01:00,ZBAA 200100Z AUTO 15002KT 1SM M02/M06 A3045 RMK T10201060 IEM_DS3505
ZBAA,2006-01-20 02:00,ZBAA 200200Z AUTO 07002KT 1SM M02/M06 A3045 RMK T10201060 IEM_DS3505
ZBAA,2006-01-20 03:00,ZBAA 200300Z AUTO 25002KT 2SM 00/M06 A3045 RMK SLP305 T00031063 52002 IEM_DS3505
ZBAA,2006-01-20 04:00,ZBAA 200400Z AUTO 04004KT 1 1/4SM 01/M07 A3042 RMK T00101070 IEM_DS3505
ZBAA,2006-01-20 05:00,ZBAA 200500Z AUTO 07002KT 1 1/4SM 01/M07 A3039 RMK T00101070 IEM_DS3505
ZBAA,2006-01-20 07:00,ZBAA 200700Z AUTO 08002KT 2SM 03/M09 A3036 RMK T00301090 IEM_DS3505
ZBAA,2006-01-20 08:00,ZBAA 200800Z AUTO 09004KT 2 1/2SM 03/M09 A3036 RMK T00301090 IEM_DS3505
ZBAA,2006-01-20 09:00,ZBAA 200900Z AUTO 16002KT 2SM 03/M06 A3036 RMK SLP280 T00291057 52003 IEM_DS3505
ZBAA,2006-01-20 10:00,ZBAA 201000Z AUTO 10006KT 2 1/2SM 02/M08 A3036 RMK T00201080 IEM_DS3505
ZBAA,2006-01-20 11:00,ZBAA 201100Z AUTO 09004KT 2 1/2SM 01/M06 A3039 RMK SLP290 T00101060 IEM_DS3505
ZBAA,2006-01-20 12:00,ZBAA 201200Z AUTO 09004KT 2SM 01/M06 A3039 RMK SLP291 T00071060 52011 IEM_DS3505
ZBAA,2006-01-20 13:00,ZBAA 201300Z AUTO 10006KT 2SM 00/M07 A3042 RMK SLP300 T00001070 IEM_DS3505
ZBAA,2006-01-20 14:00,ZBAA 201400Z AUTO 09004KT 2SM 00/M07 A3042 RMK SLP300 T00001070 IEM_DS3505
ZBAA,2006-01-20 15:00,ZBAA 201500Z AUTO 07004KT 2SM M00/M06 A3042 RMK SLP295 T10011059 52004 IEM_DS3505
ZBAA,2006-01-20 16:00,ZBAA 201600Z AUTO 07006KT 1 1/2SM M02/M08 A3042 RMK T10201080 IEM_DS3505
ZBAA,2006-01-20 17:00,ZBAA 201700Z AUTO 00000KT 1 1/2SM M03/M09 A3039 RMK T10301090 IEM_DS3505
ZBAA,2006-01-20 18:00,ZBAA 201800Z AUTO 04002KT 2SM M02/M07 A3039 RMK SLP284 T10251068 57011 IEM_DS3505
ZBAA,2006-01-20 19:00,ZBAA 201900Z AUTO 35004KT 1 1/4SM M07/M10 A3039 RMK SLP291 T10701100 IEM_DS3505
ZBAA,2006-01-20 20:00,ZBAA 202000Z AUTO 02002KT 1 1/4SM M05/M08 A3036 RMK SLP282 T10501080 IEM_DS3505
ZBAA,2006-01-20 21:00,ZBAA 202100Z AUTO 07002KT 2SM M03/M08 A3036 RMK SLP281 T10291080 57003 IEM_DS3505
ZBAA,2006-01-20 22:00,ZBAA 202200Z AUTO 00000KT 1 1/4SM M06/M08 A3036 RMK SLP282 T10601080 IEM_DS3505
ZBAA,2006-01-20 23:00,ZBAA 202300Z AUTO 35006KT 1 1/4SM M08/M10 A3036 RMK SLP282 T10801100 IEM_DS3505
ZBAA,2006-01-21 00:00,ZBAA 210000Z AUTO 07004KT 2SM M04/M09 A3036 RMK SLP285 T10411089 52004 IEM_DS3505
ZBAA,2006-01-21 01:00,ZBAA 210100Z AUTO 36004KT 1 1/4SM M05/M08 A3039 RMK T10501080 IEM_DS3505
ZBAA,2006-01-21 02:00,ZBAA 210200Z AUTO 34004KT 1 1/4SM M03/M08 A3039 RMK T10301080 IEM_DS3505
ZBAA,2006-01-21 03:00,ZBAA 210300Z AUTO 22002KT 2 1/2SM M01/M08 A3039 RMK SLP284 T10071077 57001 IEM_DS3505
ZBAA,2006-01-21 04:00,ZBAA 210400Z AUTO 01004KT 1 1/2SM 00/M08 A3033 RMK T00001080 IEM_DS3505
ZBAA,2006-01-21 05:00,ZBAA 210500Z AUTO 1 1/2SM 02/M08 A3030 RMK T00201080 IEM_DS3505
ZBAA,2006-01-21 06:00,ZBAA 210600Z AUTO 22004KT 3SM 03/M05 A3027 RMK SLP252 T00291052 57032 IEM_DS3505
ZBAA,2006-01-21 07:00,ZBAA 210700Z AUTO 09004KT 1 1/2SM 03/M07 A3027 RMK T00301070 IEM_DS3505
ZBAA,2006-01-21 08:00,ZBAA 210800Z AUTO 15004KT 1 1/2SM 02/M07 A3027 RMK T00201070 IEM_DS3505
ZBAA,2006-01-21 09:00,ZBAA 210900Z AUTO 25004KT 2 1/2SM 02/M03 A3027 RMK SLP250 T00221029 57002 IEM_DS3505
ZBAA,2006-01-21 10:00,ZBAA 211000Z AUTO 02002KT 1 1/4SM M01/M07 A3027 RMK T10101070 IEM_DS3505
ZBAA,2006-01-21 11:00,ZBAA 211100Z AUTO 02002KT 1 1/4SM M03/M08 A3030 RMK T10301080 IEM_DS3505
ZBAA,2006-01-21 12:00,ZBAA 211200Z AUTO 27002KT 2SM M01/M03 A3030 RMK SLP264 T10111030 52014 IEM_DS3505
ZBAA,2006-01-21 13:00,ZBAA 211300Z AUTO 04004KT 1SM M03/M08 A3033 RMK T10301080 IEM_DS3505
ZBAA,2006-01-21 14:00,ZBAA 211400Z AUTO 1SM M01/M07 A3033 RMK T10101070 IEM_DS3505
ZBAA,2006-01-21 15:00,ZBAA 211500Z AUTO 36002KT 2 1/2SM M03/M05 A3036 RMK SLP273 T10271046 52009 IEM_DS3505
ZBAA,2006-01-21 16:00,ZBAA 211600Z AUTO 34006KT 1 1/4SM M03/M10 A3036 RMK T10301100 IEM_DS3505
ZBAA,2006-01-21 17:00,ZBAA 211700Z AUTO 34004KT 1 1/2SM M04/M10 A3036 RMK T10401100 IEM_DS3505
ZBAA,2006-01-21 18:00,ZBAA 211800Z AUTO 04006KT 7SM M00/M13 A3036 RMK SLP278 T10011130 52006 IEM_DS3505
ZBAA,2006-01-21 19:00,ZBAA 211900Z AUTO 03008KT 6SM M02/M13 A3039 RMK T10201130 IEM_DS3505
ZBAA,2006-01-21 20:00,ZBAA 212000Z AUTO 35004KT 6SM M05/M14 A3039 RMK T10501140 IEM_DS3505
ZBAA,2006-01-21 21:00,ZBAA 212100Z AUTO 09004KT 7SM M02/M15 A3042 RMK SLP298 T10221146 52019 IEM_DS3505
ZBAA,2006-01-21 22:00,ZBAA 212200Z AUTO 02004KT 6SM M04/M13 A3045 RMK T10401130 IEM_DS3505
ZBAA,2006-01-21 23:00,ZBAA 212300Z AUTO 16002KT 5SM M06/M13 A3047 RMK T10601130 IEM_DS3505
ZBAA,2006-01-22 00:00,ZBAA 220000Z AUTO 14006KT 7SM M03/M10 A3050 RMK SLP328 T10291098 52030 IEM_DS3505
ZBAA,2006-01-22 01:00,ZBAA 220100Z AUTO 14002KT 1 1/2SM M04/M09 A3053 RMK T10401090 IEM_DS3505
ZBAA,2006-01-22 02:00,ZBAA 220200Z AUTO 08004KT 2 1/2SM M01/M08 A3056 RMK T10101080 IEM_DS3505
ZBAA,2006-01-22 03:00,ZBAA 220300Z AUTO 20002KT 6SM 01/M08 A3053 RMK SLP340 T00131077 52012 IEM_DS3505
ZBAA,2006-01-22 04:00,ZBAA 220400Z AUTO 14004KT 2 1/2SM 02/M07 A3050 RMK T00201070 IEM_DS3505
ZBAA,2006-01-22 05:00,ZBAA 220500Z AUTO 3SM 03/M10 A3047 RMK T00301100 IEM_DS3505
ZBAA,2006-01-22 06:00,ZBAA 220600Z AUTO 20002KT 7SM 04/M11 A3045 RMK SLP307 T00391109 57033 IEM_DS3505
ZBAA,2006-01-22 07:00,ZBAA 220700Z AUTO 16004KT 04/M10 A3045 RMK SLP311 T00401100 IEM_DS3505
ZBAA,2006-01-22 08:00,ZBAA 220800Z AUTO 17004KT 04/M10 A3045 RMK SLP311 T00401100 IEM_DS3505
ZBAA,2006-01-22 09:00,ZBAA 220900Z AUTO 22004KT 9SM 03/M11 A3047 RMK SLP315 T00271112 52008 IEM_DS3505
ZBAA,2006-01-22 10:00,ZBAA 221000Z AUTO 13002KT 3SM 01/M09 A3047 RMK SLP317 T00101090 IEM_DS3505
ZBAA,2006-01-22 11:00,ZBAA 221100Z AUTO 19006KT 3SM 01/M09 A3047 RMK T00101090 IEM_DS3505
ZBAA,2006-01-22 12:00,ZBAA 221200Z AUTO 24004KT 6SM M01/M09 A3047 RMK SLP326 T10091090 52011 IEM_DS3505
ZBAA,2006-01-22 13:00,ZBAA 221300Z AUTO 2 1/2SM M02/M09 A3050 RMK SLP329 T10201090 IEM_DS3505
ZBAA,2006-01-22 14:00,ZBAA 221400Z AUTO 04002KT 2 1/2SM M04/M09 A3050 RMK SLP329 T10401090 IEM_DS3505
ZBAA,2006-01-22 15:00,ZBAA 221500Z AUTO 14002KT 7SM M02/M09 A3053 RMK SLP335 T10251090 52009 IEM_DS3505
ZBAA,2006-01-22 16:00,ZBAA 221600Z AUTO 08002KT 2SM M05/M10 A3053 RMK SLP339 T10501100 IEM_DS3505
ZBAA,2006-01-22 17:00,ZBAA 221700Z AUTO 08002KT 2SM M05/M10 A3053 RMK SLP339 T10501100 IEM_DS3505
ZBAA,2006-01-22 18:00,ZBAA 221800Z AUTO 14002KT 7SM M03/M08 A3053 RMK SLP339 T10331076 52004 IEM_DS3505
ZBAA,2006-01-22 19:00,ZBAA 221900Z AUTO 10006KT 3SM M05/M07 A3053 RMK SLP339 T10501070 IEM_DS3505
ZBAA,2006-01-22 20:00,ZBAA 222000Z AUTO 08004KT 3SM M06/M08 A3056 RMK SLP349 T10601080 IEM_DS3505
ZBAA,2006-01-22 21:00,ZBAA 222100Z AUTO 07004KT 9SM M06/M08 A3056 RMK SLP342 T10641081 52003 IEM_DS3505
ZBAA,2006-01-22 22:00,ZBAA 222200Z AUTO 06004KT 2 1/2SM M07/M09 A3056 RMK SLP350 T10701090 IEM_DS3505
ZBAA,2006-01-22 23:00,ZBAA 222300Z AUTO 00000KT 2 1/2SM M07/M09 A3056 RMK SLP350 T10701090 IEM_DS3505
ZBAA,2006-01-23 00:00,ZBAA 230000Z AUTO 04004KT 5SM M07/M09 A3056 RMK SLP346 T10711089 52003 IEM_DS3505
ZBAA,2006-01-23 01:00,ZBAA 230100Z AUTO 36006KT 1 1/4SM M06/M07 A3056 RMK SLP349 T10601070 IEM_DS3505
ZBAA,2006-01-23 02:00,ZBAA 230200Z AUTO 01006KT 1 1/4SM M05/M08 A3056 RMK SLP349 T10501080 IEM_DS3505
ZBAA,2006-01-23 03:00,ZBAA 230300Z AUTO 04004KT 5SM M04/M07 A3056 RMK SLP350 T10351073 52005 IEM_DS3505
ZBAA,2006-01-23 04:00,ZBAA 230400Z AUTO 02002KT 2 1/2SM M02/M07 A3053 RMK SLP339 T10201070 IEM_DS3505
ZBAA,2006-01-23 05:00,ZBAA 230500Z AUTO 04002KT 2 1/2SM M01/M07 A3050 RMK SLP329 T10101070 IEM_DS3505
ZBAA,2006-01-23 06:00,ZBAA 230600Z AUTO 11004KT 6SM M01/M07 A3050 RMK SLP325 T10081072 57025 IEM_DS3505
ZBAA,2006-01-23 07:00,ZBAA 230700Z AUTO 14004KT 2 1/2SM 00/M06 A3050 RMK SLP328 T00001060 IEM_DS3505
ZBAA,2006-01-23 08:00,ZBAA 230800Z AUTO 13004KT 2 1/2SM 00/M06 A3050 RMK SLP328 T00001060 IEM_DS3505
ZBAA,2006-01-23 09:00,ZBAA 230900Z AUTO 07004KT 6SM M01/M08 A3050 RMK SLP329 T10111077 52004 IEM_DS3505
ZBAA,2006-01-23 10:00,ZBAA 231000Z AUTO 10002KT 2SM M04/M07 A3050 RMK SLP329 T10401070 IEM_DS3505
ZBAA,2006-01-23 11:00,ZBAA 231100Z AUTO 06002KT 2SM M04/M07 A3053 RMK SLP339 T10401070 IEM_DS3505
ZBAA,2006-01-23 12:00,ZBAA 231200Z AUTO 09004KT 4SM M03/M07 A3053 RMK SLP337 T10281073 52007 IEM_DS3505
ZBAA,2006-01-23 13:00,ZBAA 231300Z AUTO 02002KT 1 1/2SM M04/M07 A3053 RMK SLP339 T10401070 IEM_DS3505
ZBAA,2006-01-23 14:00,ZBAA 231400Z AUTO 04002KT 1 1/4SM M06/M08 A3053 RMK SLP339 T10601080 IEM_DS3505
ZBAA,2006-01-23 15:00,ZBAA 231500Z AUTO 07004KT 4SM M04/M08 A3053 RMK SLP336 T10441075 57001 IEM_DS3505
ZBAA,2006-01-23 16:00,ZBAA 231600Z AUTO 36004KT 1SM M06/M08 A3053 RMK SLP339 T10601080 IEM_DS3505
ZBAA,2006-01-23 17:00,ZBAA 231700Z AUTO 36006KT 1SM M06/M08 A3050 RMK SLP329 T10601080 IEM_DS3505
ZBAA,2006-01-23 18:00,ZBAA 231800Z AUTO 04004KT 4SM M05/M08 A3050 RMK SLP332 T10521078 57003 IEM_DS3505
ZBAA,2006-01-23 19:00,ZBAA 231900Z AUTO 33004KT 1SM M08/M09 A3053 RMK SLP340 T10801090 IEM_DS3505
ZBAA,2006-01-23 20:00,ZBAA 232000Z AUTO 34004KT 1SM M07/M09 A3050 RMK SLP329 T10701090 IEM_DS3505
ZBAA,2006-01-23 21:00,ZBAA 232100Z AUTO 04004KT 4SM M04/M08 A3047 RMK SLP320 T10431079 57012 IEM_DS3505
ZBAA,2006-01-23 22:00,ZBAA 232200Z AUTO 33004KT 1 1/4SM M06/M08 A3047 RMK SLP318 T10601080 IEM_DS3505
ZBAA,2006-01-23 23:00,ZBAA 232300Z AUTO 34002KT 1 1/4SM M06/M09 A3050 RMK SLP329 T10601090 IEM_DS3505
ZBAA,2006-01-24 00:00,ZBAA 240000Z AUTO 04006KT 2SM M03/M08 A3047 RMK SLP320 T10341077 54000 IEM_DS3505
ZBAA,2006-01-24 01:00,ZBAA 240100Z AUTO 34006KT 1 1/2SM M05/M09 A3050 RMK SLP329 T10501090 IEM_DS3505
ZBAA,2006-01-24 02:00,ZBAA 240200Z AUTO 34006KT 1 1/2SM M04/M08 A3050 RMK SLP329 T10401080 IEM_DS3505
ZBAA,2006-01-24 03:00,ZBAA 240300Z AUTO 04006KT 2 1/2SM M02/M06 A3050 RMK SLP319 T10251061 57001 IEM_DS3505
ZBAA,2006-01-24 04:00,ZBAA 240400Z AUTO 36006KT 1 1/2SM M03/M07 A3047 RMK SLP318 T10301070 IEM_DS3505
ZBAA,2006-01-24 05:00,ZBAA 240500Z AUTO 01006KT 1 1/2SM M02/M08 A3045 RMK SLP312 T10201080 IEM_DS3505
ZBAA,2006-01-24 06:00,ZBAA 240600Z AUTO 04006KT 2 1/2SM M01/M06 A3039 RMK SLP290 T10111062 57029 IEM_DS3505
ZBAA,2006-01-24 07:00,ZBAA 240700Z AUTO 07004KT 2SM 00/M07 A3039 RMK SLP290 T00001070 IEM_DS3505
ZBAA,2006-01-24 08:00,ZBAA 240800Z AUTO 04002KT 2SM 00/M07 A3039 RMK SLP290 T00001070 IEM_DS3505
ZBAA,2006-01-24 09:00,ZBAA 240900Z AUTO 04002KT 2 1/2SM M01/M06 A3042 RMK SLP295 T10091057 52005 IEM_DS3505
ZBAA,2006-01-24 10:00,ZBAA 241000Z AUTO 00000KT 1 1/2SM M03/M07 A3042 RMK SLP301 T10301070 IEM_DS3505
ZBAA,2006-01-24 11:00,ZBAA 241100Z AUTO 36004KT 1 1/2SM M04/M08 A3045 RMK SLP312 T10401080 IEM_DS3505
ZBAA,2006-01-24 12:00,ZBAA 241200Z AUTO 29002KT 2SM M03/M06 A3047 RMK SLP314 T10331059 52019 IEM_DS3505
ZBAA,2006-01-24 13:00,ZBAA 241300Z AUTO 02004KT 2SM M04/M09 A3047 RMK SLP318 T10401090 IEM_DS3505
ZBAA,2006-01-24 14:00,ZBAA 241400Z AUTO 34006KT 2SM M05/M09 A3047 RMK SLP318 T10501090 IEM_DS3505
ZBAA,2006-01-24 15:00,ZBAA 241500Z AUTO 02002KT 2SM M04/M06 A3050 RMK SLP326 T10421062 52012 IEM_DS3505
ZBAA,2006-01-24 16:00,ZBAA 241600Z AUTO 26006KT 1 1/2SM M05/M08 A3050 RMK SLP329 T10501080 IEM_DS3505
ZBAA,2006-01-24 17:00,ZBAA 241700Z AUTO 29006KT 1 1/2SM M04/M08 A3050 RMK SLP329 T10401080 IEM_DS3505
ZBAA,2006-01-24 18:00,ZBAA 241800Z AUTO 34004KT 4SM M03/M08 A3050 RMK SLP330 T10261079 52004 IEM_DS3505
ZBAA,2006-01-24 19:00,ZBAA 241900Z AUTO 35008KT 2 1/2SM M06/M10 A3053 RMK SLP339 T10601100 IEM_DS3505
ZBAA,2006-01-24 20:00,ZBAA 242000Z AUTO 35010KT 3SM M06/M10 A3053 RMK SLP339 T10601100 IEM_DS3505
ZBAA,2006-01-24 21:00,ZBAA 242100Z AUTO 09004KT 7SM M02/M12 A3053 RMK SLP332 T10251123 52002 IEM_DS3505
ZBAA,2006-01-24 22:00,ZBAA 242200Z AUTO 01004KT M06/M12 A3053 RMK SLP339 T10601120 IEM_DS3505
ZBAA,2006-01-24 23:00,ZBAA 242300Z AUTO 07004KT M05/M13 A3056 RMK SLP349 T10501130 IEM_DS3505
ZBAA,2006-01-25 00:00,ZBAA 250000Z AUTO 07004KT 7SM M04/M13 A3056 RMK SLP348 T10361128 52015 IEM_DS3505
ZBAA,2006-01-25 01:00,ZBAA 250100Z AUTO 02014KT 6SM M03/M13 A3059 RMK SLP359 T10301130 IEM_DS3505
ZBAA,2006-01-25 02:00,ZBAA 250200Z AUTO 02012KT 6SM M01/M13 A3059 RMK SLP359 T10101130 IEM_DS3505
ZBAA,2006-01-25 03:00,ZBAA 250300Z AUTO 04004KT 9SM 01/M14 A3062 RMK SLP367 T00141135 52020 IEM_DS3505
ZBAA,2006-01-25 04:00,ZBAA 250400Z AUTO 02008KT 6SM 02/M12 A3059 RMK SLP358 T00201120 IEM_DS3505
ZBAA,2006-01-25 05:00,ZBAA 250500Z AUTO 03010KT 6SM 03/M12 A3053 RMK SLP338 T00301120 IEM_DS3505
ZBAA,2006-01-25 06:00,ZBAA 250600Z AUTO 07006KT 12SM 05/M13 A3050 RMK SLP322 T00461133 57045 IEM_DS3505
ZBAA,2006-01-25 07:00,ZBAA 250700Z AUTO 04006KT 6SM 05/M12 A3047 RMK SLP317 T00501120 IEM_DS3505
ZBAA,2006-01-25 08:00,ZBAA 250800Z AUTO 10004KT 6SM 04/M12 A3047 RMK SLP317 T00401120 IEM_DS3505
ZBAA,2006-01-25 09:00,ZBAA 250900Z AUTO 22002KT 9SM 04/M13 A3047 RMK SLP321 T00401129 57001 IEM_DS3505
ZBAA,2006-01-25 10:00,ZBAA 251000Z AUTO 15002KT 6SM 01/M12 A3047 RMK SLP317 T00101120 IEM_DS3505
ZBAA,2006-01-25 11:00,ZBAA 251100Z AUTO 18006KT 01/M11 A3047 RMK SLP317 T00101110 IEM_DS3505
ZBAA,2006-01-25 12:00,ZBAA 251200Z AUTO 22004KT 9SM 00/M08 A3050 RMK SLP327 T00001084 52006 IEM_DS3505
ZBAA,2006-01-25 13:00,ZBAA 251300Z AUTO 20006KT 2 1/2SM 01/M07 A3050 RMK SLP328 T00101070 IEM_DS3505
ZBAA,2006-01-25 14:00,ZBAA 251400Z AUTO 16004KT 2 1/2SM M01/M07 A3047 RMK SLP317 T10101070 IEM_DS3505
ZBAA,2006-01-25 15:00,ZBAA 251500Z AUTO 22006KT 7SM M02/M09 A3047 RMK SLP320 T10241087 57007 IEM_DS3505
ZBAA,2006-01-25 16:00,ZBAA 251600Z AUTO 15004KT 2SM M03/M07 A3047 RMK SLP318 T10301070 IEM_DS3505
ZBAA,2006-01-25 17:00,ZBAA 251700Z AUTO 10002KT 2SM M04/M08 A3045 RMK SLP312 T10401080 IEM_DS3505
ZBAA,2006-01-25 18:00,ZBAA 251800Z AUTO 25002KT 6SM M04/M09 A3045 RMK SLP304 T10441089 57016 IEM_DS3505
ZBAA,2006-01-25 19:00,ZBAA 251900Z AUTO 02002KT 1 1/2SM M06/M09 A3042 RMK SLP301 T10601090 IEM_DS3505
ZBAA,2006-01-25 20:00,ZBAA 252000Z AUTO 03002KT 1 1/2SM M06/M09 A3039 RMK SLP291 T10601090 IEM_DS3505
ZBAA,2006-01-25 21:00,ZBAA 252100Z AUTO 20002KT 6SM M06/M09 A3039 RMK SLP287 T10601094 57017 IEM_DS3505
ZBAA,2006-01-25 22:00,ZBAA 252200Z AUTO 34002KT 1 1/2SM M07/M10 A3036 RMK SLP282 T10701100 IEM_DS3505
ZBAA,2006-01-25 23:00,ZBAA 252300Z AUTO 01002KT 1 1/2SM M07/M10 A3036 RMK SLP282 T10701100 IEM_DS3505
ZBAA,2006-01-26 00:00,ZBAA 260000Z AUTO 34004KT 2 1/2SM M07/M09 A3036 RMK SLP282 T10681092 57005 IEM_DS3505
ZBAA,2006-01-26 01:00,ZBAA 260100Z AUTO 35006KT 1 1/2SM M06/M09 A3036 RMK T10601090 IEM_DS3505
ZBAA,2006-01-26 02:00,ZBAA 260200Z AUTO 35006KT 2SM M03/M09 A3036 RMK SLP282 T10301090 IEM_DS3505
ZBAA,2006-01-26 03:00,ZBAA 260300Z AUTO 11002KT 4SM 02/M07 A3033 RMK SLP270 T00181068 57012 IEM_DS3505
ZBAA,2006-01-26 04:00,ZBAA 260400Z AUTO 08002KT 2SM 01/M09 A3030 RMK SLP261 T00101090 IEM_DS3505
ZBAA,2006-01-26 05:00,ZBAA 260500Z AUTO 05004KT 2 1/2SM 03/M08 A3027 RMK SLP251 T00301080 IEM_DS3505
ZBAA,2006-01-26 06:00,ZBAA 260600Z AUTO 22002KT 6SM 06/M10 A3021 RMK SLP233 T00631100 57036 IEM_DS3505
ZBAA,2006-01-26 07:00,ZBAA 260700Z AUTO 23006KT 3SM 07/M11 A3021 RMK SLP229 T00701110 IEM_DS3505
ZBAA,2006-01-26 08:00,ZBAA 260800Z AUTO 21006KT 2 1/2SM 07/M11 A3021 RMK SLP229 T00701110 IEM_DS3505
ZBAA,2006-01-26 09:00,ZBAA 260900Z AUTO 20002KT 5SM 05/M08 A3021 RMK SLP232 T00531082 57002 IEM_DS3505
ZBAA,2006-01-26 10:00,ZBAA 261000Z AUTO 15004KT 3SM 02/M08 A3021 RMK SLP230 T00201080 IEM_DS3505
ZBAA,2006-01-26 11:00,ZBAA 261100Z AUTO 00000KT 1 1/2SM 01/M08 A3024 RMK SLP240 T00101080 IEM_DS3505
ZBAA,2006-01-26 12:00,ZBAA 261200Z AUTO 20002KT 6SM 00/M07 A3024 RMK SLP241 T00001073 52009 IEM_DS3505
ZBAA,2006-01-26 13:00,ZBAA 261300Z AUTO 34004KT 2SM M01/M09 A3027 RMK SLP251 T10101090 IEM_DS3505
ZBAA,2006-01-26 14:00,ZBAA 261400Z AUTO 35004KT 2SM M02/M10 A3027 RMK SLP251 T10201100 IEM_DS3505
ZBAA,2006-01-26 15:00,ZBAA 261500Z AUTO 29002KT 6SM M02/M07 A3027 RMK SLP248 T10251072 52007 IEM_DS3505
ZBAA,2006-01-26 16:00,ZBAA 261600Z AUTO 2SM M05/M10 A3027 RMK SLP252 T10501100 IEM_DS3505
ZBAA,2006-01-26 17:00,ZBAA 261700Z AUTO 31004KT 2SM M03/M11 A3027 RMK SLP252 T10301110 IEM_DS3505
ZBAA,2006-01-26 18:00,ZBAA 261800Z AUTO 32004KT 4SM M04/M08 A3027 RMK SLP251 T10401076 52004 IEM_DS3505
ZBAA,2006-01-26 19:00,ZBAA 261900Z AUTO 33006KT 2 1/2SM M04/M11 A3027 RMK SLP252 T10401110 IEM_DS3505
ZBAA,2006-01-26 20:00,ZBAA 262000Z AUTO 34006KT 3SM M06/M12 A3027 RMK SLP252 T10601120 IEM_DS3505
ZBAA,2006-01-26 21:00,ZBAA 262100Z AUTO 32002KT 2 1/2SM M05/M08 A3027 RMK SLP248 T10541077 57004 IEM_DS3505
ZBAA,2006-01-26 22:00,ZBAA 262200Z AUTO 33008KT 5SM M04/M12 A3027 RMK SLP252 T10401120 IEM_DS3505
ZBAA,2006-01-26 23:00,ZBAA 262300Z AUTO 35006KT 5SM M05/M12 A3030 RMK SLP262 T10501120 IEM_DS3505
ZBAA,2006-01-27 00:00,ZBAA 270000Z AUTO 04004KT 7SM M04/M11 A3033 RMK SLP266 T10371112 52018 IEM_DS3505
ZBAA,2006-01-27 01:00,ZBAA 270100Z AUTO 35004KT 5SM M02/M11 A3036 RMK SLP281 T10201110 IEM_DS3505
ZBAA,2006-01-27 02:00,ZBAA 270200Z AUTO 05004KT 01/M11 A3036 RMK SLP281 T00101110 IEM_DS3505
ZBAA,2006-01-27 03:00,ZBAA 270300Z AUTO 14006KT 7SM 03/M12 A3036 RMK SLP281 T00291118 52015 IEM_DS3505
ZBAA,2006-01-27 04:00,ZBAA 270400Z AUTO 13004KT 2 1/2SM 04/M10 A3036 RMK SLP281 T00401100 IEM_DS3505
ZBAA,2006-01-27 05:00,ZBAA 270500Z AUTO 13008KT 3SM 05/M10 A3033 RMK SLP270 T00501100 IEM_DS3505
ZBAA,2006-01-27 06:00,ZBAA 270600Z AUTO 14008KT 9SM 06/M09 A3030 RMK SLP260 T00601091 57020 IEM_DS3505
ZBAA,2006-01-27 07:00,ZBAA 270700Z AUTO 14008KT 5SM 06/M10 A3030 RMK SLP260 T00601100 IEM_DS3505
ZBAA,2006-01-27 08:00,ZBAA 270800Z AUTO 15012KT 6SM 05/M09 A3030 RMK SLP260 T00501090 IEM_DS3505
ZBAA,2006-01-27 09:00,ZBAA 270900Z AUTO 14008KT 12SM 02/M08 A3030 RMK SLP261 T00241080 54000 IEM_DS3505
ZBAA,2006-01-27 10:00,ZBAA 271000Z AUTO 16008KT 6SM 01/M08 A3033 RMK SLP271 T00101080 IEM_DS3505
ZBAA,2006-01-27 11:00,ZBAA 271100Z AUTO 16008KT 6SM 00/M07 A3036 RMK SLP281 T00001070 IEM_DS3505
ZBAA,2006-01-27 12:00,ZBAA 271200Z AUTO 14004KT 12SM M00/M08 A3036 RMK SLP276 T10031078 52015 IEM_DS3505
ZBAA,2006-01-27 13:00,ZBAA 271300Z AUTO 16006KT 6SM M01/M06 A3036 RMK SLP281 T10101060 IEM_DS3505
ZBAA,2006-01-27 14:00,ZBAA 271400Z AUTO 16008KT 6SM M01/M06 A3036 RMK SLP281 T10101060 IEM_DS3505
ZBAA,2006-01-27 15:00,ZBAA 271500Z AUTO 14008KT 12SM M02/M06 A3033 RMK SLP271 T10161058 57005 IEM_DS3505
ZBAA,2006-01-27 16:00,ZBAA 271600Z AUTO 13008KT 6SM M02/M07 A3033 RMK SLP271 T10201070 IEM_DS3505
ZBAA,2006-01-27 17:00,ZBAA 271700Z AUTO 12006KT 6SM M03/M07 A3030 RMK SLP262 T10301070 IEM_DS3505
ZBAA,2006-01-27 18:00,ZBAA 271800Z AUTO 09006KT 12SM M03/M08 A3030 RMK SLP259 T10321075 57011 IEM_DS3505
ZBAA,2006-01-27 19:00,ZBAA 271900Z AUTO 10006KT 6SM M03/M07 A3030 RMK SLP262 T10301070 IEM_DS3505
ZBAA,2006-01-27 20:00,ZBAA 272000Z AUTO 10004KT 7SM M03/M07 A3024 RMK T10301070 IEM_DS3505
ZBAA,2006-01-27 21:00,ZBAA 272100Z AUTO 07004KT 12SM M03/M08 A3024 RMK SLP238 T10341079 57022 IEM_DS3505
ZBAA,2006-01-27 22:00,ZBAA 272200Z AUTO 11004KT 6SM M03/M07 A3021 RMK SLP230 T10301070 IEM_DS3505
ZBAA,2006-01-27 23:00,ZBAA 272300Z AUTO 14002KT 6SM M03/M07 A3021 RMK SLP230 T10301070 IEM_DS3505
ZBAA,2006-01-28 00:00,ZBAA 280000Z AUTO 09006KT 12SM M03/M08 A3018 RMK SLP221 T10321083 57017 IEM_DS3505
ZBAA,2006-01-28 01:00,ZBAA 280100Z AUTO 02002KT 7SM M03/M08 A3018 RMK SLP220 T10301080 IEM_DS3505
ZBAA,2006-01-28 02:00,ZBAA 280200Z AUTO 06002KT 7SM M03/M08 A3018 RMK SLP220 T10301080 IEM_DS3505
ZBAA,2006-01-28 03:00,ZBAA 280300Z AUTO 07002KT 12SM M02/M08 A3018 RMK SLP218 T10221079 57003 IEM_DS3505
ZBAA,2006-01-28 04:00,ZBAA 280400Z AUTO 08002KT 7SM M02/M07 A3015 RMK SLP210 T10201070 IEM_DS3505
ZBAA,2006-01-28 05:00,ZBAA 280500Z AUTO 10002KT 7SM M01/M07 A3009 RMK SLP190 T10101070 IEM_DS3505
ZBAA,2006-01-28 06:00,ZBAA 280600Z AUTO 04002KT 12SM M01/M07 A3006 RMK SLP180 T10091068 57038 IEM_DS3505
ZBAA,2006-01-28 07:00,ZBAA 280700Z AUTO 03002KT 4SM M01/M07 A3006 RMK T10101070 IEM_DS3505
ZBAA,2006-01-28 08:00,ZBAA 280800Z AUTO 36002KT M01/M08 A3003 RMK SLP169 T10101080 IEM_DS3505
ZBAA,2006-01-28 09:00,ZBAA 280900Z AUTO 04002KT 9SM M01/M07 A3003 RMK SLP169 T10081072 57011 IEM_DS3505
ZBAA,2006-01-28 10:00,ZBAA 281000Z AUTO 31008KT M01/M07 A3006 RMK SLP180 T10101070 IEM_DS3505
ZBAA,2006-01-28 11:00,ZBAA 281100Z AUTO 02004KT 4SM M01/M06 A3006 RMK SLP180 T10101060 IEM_DS3505
ZBAA,2006-01-28 12:00,ZBAA 281200Z AUTO 04004KT 7SM M01/M07 A3009 RMK SLP189 T10061072 52020 IEM_DS3505
ZBAA,2006-01-28 13:00,ZBAA 281300Z AUTO 36004KT 4SM M01/M06 A3009 RMK SLP190 T10101060 IEM_DS3505
ZBAA,2006-01-28 14:00,ZBAA 281400Z AUTO 31006KT 4SM M01/M05 A3009 RMK SLP190 T10101050 IEM_DS3505
ZBAA,2006-01-28 15:00,ZBAA 281500Z AUTO 36006KT 6SM M00/M06 A3012 RMK SLP196 T10021058 52007 IEM_DS3505
ZBAA,2006-01-28 16:00,ZBAA 281600Z AUTO 31006KT 2 1/2SM M01/M05 A3009 RMK SLP190 T10101050 IEM_DS3505
ZBAA,2006-01-28 17:00,ZBAA 281700Z AUTO 34004KT 2SM M02/M05 A3009 RMK SLP190 T10201050 IEM_DS3505
ZBAA,2006-01-28 18:00,ZBAA 281800Z AUTO 02002KT 9SM M00/M05 A3012 RMK SLP200 T10011053 52005 IEM_DS3505
ZBAA,2006-01-28 19:00,ZBAA 281900Z AUTO 34008KT 2SM M02/M05 A3015 RMK SLP210 T10201050 IEM_DS3505
ZBAA,2006-01-28 20:00,ZBAA 282000Z AUTO 35004KT 2 1/2SM M01/M05 A3015 RMK SLP210 T10101050 IEM_DS3505
ZBAA,2006-01-28 21:00,ZBAA 282100Z AUTO 07004KT 7SM M00/M05 A3015 RMK SLP203 T10041046 52003 IEM_DS3505
ZBAA,2006-01-28 22:00,ZBAA 282200Z AUTO 35008KT 3SM M01/M05 A3015 RMK SLP210 T10101050 IEM_DS3505
ZBAA,2006-01-28 23:00,ZBAA 282300Z AUTO 32006KT 4SM 00/M05 A3021 RMK SLP230 T00001050 IEM_DS3505
ZBAA,2006-01-29 00:00,ZBAA 290000Z AUTO 04006KT 9SM 02/M08 A3024 RMK SLP238 T00241078 52035 IEM_DS3505
ZBAA,2006-01-29 01:00,ZBAA 290100Z AUTO 36008KT 02/M05 A3027 RMK SLP251 T00201050 IEM_DS3505
ZBAA,2006-01-29 02:00,ZBAA 290200Z AUTO 01012KT 04/M07 A3030 RMK SLP260 T00401070 IEM_DS3505
ZBAA,2006-01-29 04:00,ZBAA 290400Z AUTO 02016KT 6SM 04/M14 A3033 RMK SLP271 T00401140 IEM_DS3505
ZBAA,2006-01-29 05:00,ZBAA 290500Z AUTO 03012KT 6SM 05/M15 A3033 RMK SLP270 T00501150 IEM_DS3505
ZBAA,2006-01-29 06:00,ZBAA 290600Z AUTO 04006KT 12SM 05/M15 A3030 RMK SLP263 T00511154 52002 IEM_DS3505
ZBAA,2006-01-29 07:00,ZBAA 290700Z AUTO 04014KT 6SM 05/M19 A3033 RMK SLP270 T00501190 IEM_DS3505
ZBAA,2006-01-29 08:00,ZBAA 290800Z AUTO 04010KT 6SM 04/M19 A3036 RMK SLP281 T00401190 IEM_DS3505
ZBAA,2006-01-29 09:00,ZBAA 290900Z AUTO 04004KT 12SM 04/M20 A3036 RMK SLP281 T00421202 52018 IEM_DS3505
ZBAA,2006-01-29 10:00,ZBAA 291000Z AUTO 03008KT 6SM 02/M19 A3039 RMK SLP290 T00201190 IEM_DS3505
ZBAA,2006-01-29 11:00,ZBAA 291100Z AUTO 01006KT 6SM 02/M20 A3042 RMK SLP300 T00201200 IEM_DS3505
ZBAA,2006-01-29 12:00,ZBAA 291200Z AUTO 07004KT 16SM 02/M20 A3047 RMK SLP316 T00211204 52034 IEM_DS3505
ZBAA,2006-01-29 13:00,ZBAA 291300Z AUTO 04014KT 6SM 02/M23 A3050 RMK SLP328 T00201230 IEM_DS3505
ZBAA,2006-01-29 14:00,ZBAA 291400Z AUTO 04012KT 6SM 01/M22 A3053 RMK SLP338 T00101220 IEM_DS3505
ZBAA,2006-01-29 15:00,ZBAA 291500Z AUTO 07010KT 12SM 01/M17 A3053 RMK SLP337 T00101173 52021 IEM_DS3505
ZBAA,2006-01-29 16:00,ZBAA 291600Z AUTO 03014KT 6SM M01/M24 A3053 RMK SLP339 T10101240 IEM_DS3505
ZBAA,2006-01-29 17:00,ZBAA 291700Z AUTO 03012KT 6SM M01/M25 A3056 RMK SLP349 T10101250 IEM_DS3505
ZBAA,2006-01-29 18:00,ZBAA 291800Z AUTO 02002KT 19SM M01/M25 A3059 RMK SLP361 T10101252 52024 IEM_DS3505
ZBAA,2006-01-29 19:00,ZBAA 291900Z AUTO 03008KT 6SM M02/M25 A3059 RMK SLP359 T10201250 IEM_DS3505
ZBAA,2006-01-29 20:00,ZBAA 292000Z AUTO 02012KT 6SM M02/M26 A3059 RMK SLP359 T10201260 IEM_DS3505
ZBAA,2006-01-29 21:00,ZBAA 292100Z AUTO 16002KT 12SM M03/ A3062 RMK SLP366 52005 IEM_DS3505
ZBAA,2006-01-29 22:00,ZBAA 292200Z AUTO 05004KT 6SM M04/M24 A3062 RMK SLP369 T10401240 IEM_DS3505
ZBAA,2006-01-29 23:00,ZBAA 292300Z AUTO 01004KT 6SM M04/ A3062 RMK SLP369 IEM_DS3505
ZBAA,2006-01-30 00:00,ZBAA 300000Z AUTO 16004KT 5SM M03/M07 A3062 RMK SLP374 T10331069 52008 IEM_DS3505
ZBAA,2006-01-30 01:00,ZBAA 300100Z AUTO 11004KT M03/M09 A3065 RMK SLP379 T10301090 IEM_DS3505
ZBAA,2006-01-30 02:00,ZBAA 300200Z AUTO 13004KT 5SM M02/M08 A3065 RMK SLP379 T10201080 IEM_DS3505
ZBAA,2006-01-30 03:00,ZBAA 300300Z AUTO 16006KT 12SM M01/M11 A3065 RMK SLP382 T10131109 52008 IEM_DS3505
ZBAA,2006-01-30 04:00,ZBAA 300400Z AUTO 16008KT 6SM M01/M11 A3065 RMK SLP379 T10101110 IEM_DS3505
ZBAA,2006-01-30 05:00,ZBAA 300500Z AUTO 17008KT 6SM 00/M12 A3059 RMK SLP358 T00001120 IEM_DS3505
ZBAA,2006-01-30 06:00,ZBAA 300600Z AUTO 18004KT 16SM 01/M12 A3056 RMK SLP351 T00101121 57031 IEM_DS3505
ZBAA,2006-01-30 07:00,ZBAA 300700Z AUTO 16008KT 6SM 01/M10 A3056 RMK SLP348 T00101100 IEM_DS3505
ZBAA,2006-01-30 08:00,ZBAA 300800Z AUTO 17012KT 6SM 00/M11 A3053 RMK SLP338 T00001110 IEM_DS3505
ZBAA,2006-01-30 09:00,ZBAA 300900Z AUTO 20010KT 12SM M00/M12 A3053 RMK SLP341 T10041117 57010 IEM_DS3505
ZBAA,2006-01-30 10:00,ZBAA 301000Z AUTO 18008KT 6SM M01/M13 A3053 RMK SLP339 T10101130 IEM_DS3505
ZBAA,2006-01-30 11:00,ZBAA 301100Z AUTO 17010KT 6SM M01/M10 A3053 RMK SLP339 T10101100 IEM_DS3505
ZBAA,2006-01-30 12:00,ZBAA 301200Z AUTO 18006KT 16SM M02/M12 A3056 RMK SLP347 T10181116 52006 IEM_DS3505
ZBAA,2006-01-30 13:00,ZBAA 301300Z AUTO 17010KT 6SM M02/M11 A3053 RMK SLP339 T10201110 IEM_DS3505
ZBAA,2006-01-30 14:00,ZBAA 301400Z AUTO 15010KT 6SM M02/M10 A3053 RMK SLP339 T10201100 IEM_DS3505
ZBAA,2006-01-30 15:00,ZBAA 301500Z AUTO 20006KT 16SM M03/M11 A3053 RMK SLP338 T10341107 57009 IEM_DS3505
ZBAA,2006-01-30 16:00,ZBAA 301600Z AUTO 16008KT 6SM M03/M10 A3053 RMK SLP339 T10301100 IEM_DS3505
ZBAA,2006-01-30 17:00,ZBAA 301700Z AUTO 15006KT 6SM M03/M10 A3050 RMK SLP329 T10301100 IEM_DS3505
ZBAA,2006-01-30 18:00,ZBAA 301800Z AUTO 20004KT 19SM M03/M10 A3047 RMK SLP322 T10321103 57016 IEM_DS3505
ZBAA,2006-01-30 19:00,ZBAA 301900Z AUTO 10004KT 6SM M04/M10 A3047 RMK SLP318 T10401100 IEM_DS3505
ZBAA,2006-01-30 20:00,ZBAA 302000Z AUTO 06004KT 6SM M04/M10 A3045 RMK SLP312 T10401100 IEM_DS3505
ZBAA,2006-01-30 21:00,ZBAA 302100Z AUTO 20002KT 16SM M03/M10 A3045 RMK SLP311 T10331097 57011 IEM_DS3505
ZBAA,2006-01-30 22:00,ZBAA 302200Z AUTO 07004KT 6SM M04/M10 A3045 RMK SLP312 T10401100 IEM_DS3505
ZBAA,2006-01-30 23:00,ZBAA 302300Z AUTO 03002KT 6SM M04/M10 A3045 RMK SLP312 T10401100 IEM_DS3505
ZBAA,2006-01-31 00:00,ZBAA 310000Z AUTO 20002KT 9SM M04/M09 A3045 RMK SLP307 T10361094 57004 IEM_DS3505
ZBAA,2006-01-31 01:00,ZBAA 310100Z AUTO 05004KT 6SM M04/M10 A3045 RMK SLP312 T10401100 IEM_DS3505
ZBAA,2006-01-31 02:00,ZBAA 310200Z AUTO 03006KT 6SM M03/M10 A3045 RMK SLP312 T10301100 IEM_DS3505
ZBAA,2006-01-31 03:00,ZBAA 310300Z AUTO 25002KT 9SM M01/M09 A3042 RMK SLP304 T10111092 57003 IEM_DS3505
ZBAA,2006-01-31 04:00,ZBAA 310400Z AUTO 05002KT 6SM 00/M10 A3042 RMK SLP300 T00001100 IEM_DS3505
ZBAA,2006-01-31 05:00,ZBAA 310500Z AUTO 11004KT 6SM 01/M10 A3039 RMK SLP290 T00101100 IEM_DS3505
ZBAA,2006-01-31 06:00,ZBAA 310600Z AUTO 22006KT 9SM 02/M08 A3033 RMK SLP273 T00171081 57031 IEM_DS3505
ZBAA,2006-01-31 07:00,ZBAA 310700Z AUTO 5SM 02/M09 A3033 RMK SLP271 T00201090 IEM_DS3505
ZBAA,2006-01-31 08:00,ZBAA 310800Z AUTO 16004KT 03/M08 A3033 RMK SLP271 T00301080 IEM_DS3505
ZBAA,2006-01-31 09:00,ZBAA 310900Z AUTO 22004KT 7SM 01/M06 A3033 RMK SLP274 T00101059 52001 IEM_DS3505
ZBAA,2006-01-31 10:00,ZBAA 311000Z AUTO 15002KT 3SM 00/M08 A3036 RMK SLP281 T00001080 IEM_DS3505
ZBAA,2006-01-31 11:00,ZBAA 311100Z AUTO 16004KT 3SM M01/M07 A3036 RMK SLP281 T10101070 IEM_DS3505
ZBAA,2006-01-31 12:00,ZBAA 311200Z AUTO 22004KT 6SM M01/M06 A3036 RMK SLP286 T10081058 52012 IEM_DS3505
ZBAA,2006-01-31 13:00,ZBAA 311300Z AUTO 24004KT 2SM 00/M05 A3036 RMK SLP281 T00001050 IEM_DS3505
ZBAA,2006-01-31 14:00,ZBAA 311400Z AUTO 35002KT 2SM M03/M08 A3039 RMK SLP291 T10301080 IEM_DS3505
ZBAA,2006-01-31 15:00,ZBAA 311500Z AUTO 22004KT 6SM M01/M05 A3039 RMK SLP289 T10131053 52003 IEM_DS3505
ZBAA,2006-01-31 16:00,ZBAA 311600Z AUTO 35002KT 2SM M04/M08 A3042 RMK SLP301 T10401080 IEM_DS3505
ZBAA,2006-01-31 17:00,ZBAA 311700Z AUTO 33004KT 2SM M04/M08 A3042 RMK SLP301 T10401080 IEM_DS3505
ZBAA,2006-01-31 18:00,ZBAA 311800Z AUTO 02002KT 5SM M02/M06 A3042 RMK SLP299 T10231056 52010 IEM_DS3505
ZBAA,2006-01-31 19:00,ZBAA 311900Z AUTO 35006KT 4SM M06/M10 A3045 RMK SLP312 T10601100 IEM_DS3505
ZBAA,2006-01-31 20:00,ZBAA 312000Z AUTO 34008KT 4SM M06/M11 A3047 RMK SLP318 T10601110 IEM_DS3505
ZBAA,2006-01-31 21:00,ZBAA 312100Z AUTO 04006KT 7SM M01/M14 A3047 RMK SLP307 T10131135 52008 IEM_DS3505
ZBAA,2006-01-31 22:00,ZBAA 312200Z AUTO 35010KT 6SM M07/M13 A3047 RMK SLP318 T10701130 IEM_DS3505
ZBAA,2006-01-31 23:00,ZBAA 312300Z AUTO 35008KT 6SM M07/M15 A3050 RMK SLP329 T10701150 IEM_DS3505
ZBAA,2006-02-01 00:00,ZBAA 010000Z AUTO 04006KT 12SM M02/M18 A3053 RMK SLP339 T10241180 52032 IEM_DS3505
ZBAA,2006-02-01 01:00,ZBAA 010100Z AUTO 36006KT 6SM M03/M16 A3056 RMK T10301160 IEM_DS3505
ZBAA,2006-02-01 02:00,ZBAA 010200Z AUTO 36006KT 6SM M02/M17 A3056 RMK T10201170 IEM_DS3505
ZBAA,2006-02-01 03:00,ZBAA 010300Z AUTO 14006KT 12SM M01/M12 A3056 RMK SLP347 T10121122 52008 IEM_DS3505
ZBAA,2006-02-01 04:00,ZBAA 010400Z AUTO 6SM 00/M20 A3053 RMK T00001200 IEM_DS3505
ZBAA,2006-02-01 05:00,ZBAA 010500Z AUTO 6SM 01/M21 A3047 RMK T00101210 IEM_DS3505
ZBAA,2006-02-01 06:00,ZBAA 010600Z AUTO 11006KT 12SM 01/M17 A3045 RMK SLP310 T00101173 57037 IEM_DS3505
ZBAA,2006-02-01 07:00,ZBAA 010700Z AUTO 16006KT 6SM 02/M20 A3042 RMK T00201200 IEM_DS3505
ZBAA,2006-02-01 08:00,ZBAA 010800Z AUTO 17010KT 6SM 00/M16 A3045 RMK T00001160 IEM_DS3505
ZBAA,2006-02-01 09:00,ZBAA 010900Z AUTO 22006KT 12SM M00/M17 A3045 RMK SLP309 T10041167 57001 IEM_DS3505
ZBAA,2006-02-01 10:00,ZBAA 011000Z AUTO 16006KT 6SM M03/M15 A3045 RMK T10301150 IEM_DS3505
ZBAA,2006-02-01 11:00,ZBAA 011100Z AUTO 15012KT 6SM M02/M08 A3045 RMK T10201080 IEM_DS3505
ZBAA,2006-02-01 12:00,ZBAA 011200Z AUTO 18008KT 16SM M03/M09 A3047 RMK SLP315 T10301086 52006 IEM_DS3505
ZBAA,2006-02-01 13:00,ZBAA 011300Z AUTO 14008KT 6SM M03/M08 A3047 RMK T10301080 IEM_DS3505
ZBAA,2006-02-01 14:00,ZBAA 011400Z AUTO 16008KT 6SM M04/M08 A3047 RMK T10401080 IEM_DS3505
ZBAA,2006-02-01 15:00,ZBAA 011500Z AUTO 20006KT 12SM M03/M08 A3045 RMK SLP312 T10321079 57003 IEM_DS3505
ZBAA,2006-02-01 16:00,ZBAA 011600Z AUTO 13006KT 5SM M04/M07 A3045 RMK T10401070 IEM_DS3505
ZBAA,2006-02-01 17:00,ZBAA 011700Z AUTO 11006KT 5SM M04/M07 A3045 RMK T10401070 IEM_DS3505
ZBAA,2006-02-01 18:00,ZBAA 011800Z AUTO 20006KT 12SM M03/M08 A3045 RMK 60000 SLP312 T10341079 54000 IEM_DS3505
ZBAA,2006-02-01 19:00,ZBAA 011900Z AUTO 09006KT 7SM M05/M08 A3045 RMK T10501080 IEM_DS3505
ZBAA,2006-02-01 20:00,ZBAA 012000Z AUTO 10006KT 7SM M05/M09 A3045 RMK T10501090 IEM_DS3505
ZBAA,2006-02-01 21:00,ZBAA 012100Z AUTO 22002KT 9SM M06/M09 A3045 RMK 70000 SLP309 T10601087 57003 IEM_DS3505
ZBAA,2006-02-01 22:00,ZBAA 012200Z AUTO 08004KT 7SM M06/M10 A3045 RMK T10601100 IEM_DS3505
ZBAA,2006-02-01 23:00,ZBAA 012300Z AUTO 01004KT 6SM M08/M11 A3047 RMK T10801110 IEM_DS3505
ZBAA,2006-02-02 00:00,ZBAA 020000Z AUTO 34002KT 7SM M07/M09 A3053 RMK 70000 SLP336 T10741093 52026 IEM_DS3505
ZBAA,2006-02-02 01:00,ZBAA 020100Z AUTO 32017G27KT 6SM M04/M18 A3059 RMK T10401180 IEM_DS3505
ZBAA,2006-02-02 02:00,ZBAA 020200Z AUTO 34019KT 6SM M05/M27 A3065 RMK T10501270 IEM_DS3505
ZBAA,2006-02-02 03:00,ZBAA 020300Z AUTO 02014G35KT 9SM M05/M28 A3071 RMK SLP392 T10511285 52056 IEM_DS3505
ZBAA,2006-02-02 04:00,ZBAA 020400Z AUTO 31027KT 6SM M06/M33 A3074 RMK T10601330 IEM_DS3505
ZBAA,2006-02-02 05:00,ZBAA 020500Z AUTO 33019KT 6SM M05/M32 A3071 RMK T10501320 IEM_DS3505
ZBAA,2006-02-02 06:00,ZBAA 020600Z AUTO 36014KT 9SM M05/M31 A3071 RMK SLP395 T10531312 52003 IEM_DS3505
ZBAA,2006-02-02 07:00,ZBAA 020700Z AUTO 02008KT 6SM M06/M32 A3074 RMK T10601320 IEM_DS3505
ZBAA,2006-02-02 08:00,ZBAA 020800Z AUTO 03012KT 6SM M07/M32 A3074 RMK T10701320 IEM_DS3505
ZBAA,2006-02-02 09:00,ZBAA 020900Z AUTO 36008KT 9SM M06/M32 A3077 RMK SLP411 T10621319 52016 IEM_DS3505
ZBAA,2006-02-02 10:00,ZBAA 021000Z AUTO 03010KT 6SM M09/M32 A3080 RMK T10901320 IEM_DS3505
ZBAA,2006-02-02 11:00,ZBAA 021100Z AUTO 04010KT 6SM M10/M32 A3083 RMK T11001320 IEM_DS3505
ZBAA,2006-02-02 12:00,ZBAA 021200Z AUTO 04010KT 12SM M10/M32 A3086 RMK SLP446 T10961322 52034 IEM_DS3505
ZBAA,2006-02-02 13:00,ZBAA 021300Z AUTO 02012KT 6SM M11/M32 A3089 RMK T11101320 IEM_DS3505
ZBAA,2006-02-02 14:00,ZBAA 021400Z AUTO 02012KT 6SM M11/M33 A3092 RMK T11101330 IEM_DS3505
ZBAA,2006-02-02 15:00,ZBAA 021500Z AUTO 02008KT 12SM M10/M33 A3095 RMK SLP469 T11001333 52023 IEM_DS3505
ZBAA,2006-02-02 16:00,ZBAA 021600Z AUTO 01012KT 6SM M12/M33 A3095 RMK T11201330 IEM_DS3505
ZBAA,2006-02-02 16:30,ZBAA 021630Z AUTO 01012KT 6SM M13/M33 A3095 RMK T11301330 IEM_DS3505
ZBAA,2006-02-02 17:00,ZBAA 021700Z AUTO 36010KT 6SM M13/M32 A3098 RMK T11301320 IEM_DS3505
ZBAA,2006-02-02 17:30,ZBAA 021730Z AUTO 02014KT 6SM M13/M33 A3095 RMK T11301330 IEM_DS3505
ZBAA,2006-02-02 18:00,ZBAA 021800Z AUTO 04010KT 12SM M12/M33 A3098 RMK SLP481 T11241331 52012 IEM_DS3505
ZBAA,2006-02-02 19:00,ZBAA 021900Z AUTO 01010KT 6SM M14/M32 A3098 RMK T11401320 IEM_DS3505
ZBAA,2006-02-02 20:00,ZBAA 022000Z AUTO 01010KT 6SM M15/M33 A3098 RMK T11501330 IEM_DS3505
ZBAA,2006-02-02 21:00,ZBAA 022100Z AUTO 04010KT 12SM M14/M32 A3101 RMK SLP493 T11421323 52012 IEM_DS3505
ZBAA,2006-02-02 22:00,ZBAA 022200Z AUTO 02010KT 6SM M15/M33 A3101 RMK T11501330 IEM_DS3505
ZBAA,2006-02-02 23:00,ZBAA 022300Z AUTO 02008KT 6SM M15/M33 A3104 RMK T11501330 IEM_DS3505
ZBAA,2006-02-03 00:00,ZBAA 030000Z AUTO 02006KT 16SM M13/M33 A3101 RMK SLP497 T11331332 52004 IEM_DS3505
ZBAA,2006-02-03 01:00,ZBAA 030100Z AUTO 01010KT 6SM M14/M33 A3101 RMK T11401330 IEM_DS3505
ZBAA,2006-02-03 02:00,ZBAA 030200Z AUTO 03010KT 6SM M12/M33 A3101 RMK T11201330 IEM_DS3505
ZBAA,2006-02-03 03:00,ZBAA 030300Z AUTO 02008KT 19SM M10/M34 A3098 RMK SLP488 T10971338 57009 IEM_DS3505
ZBAA,2006-02-03 04:00,ZBAA 030400Z AUTO 36008KT 6SM M10/M33 A3095 RMK T11001330 IEM_DS3505
ZBAA,2006-02-03 05:00,ZBAA 030500Z AUTO 03008KT 6SM M08/M32 A3092 RMK T10801320 IEM_DS3505
ZBAA,2006-02-03 06:00,ZBAA 030600Z AUTO 07006KT 19SM M06/M33 A3089 RMK SLP461 T10621329 57027 IEM_DS3505
ZBAA,2006-02-03 07:00,ZBAA 030700Z AUTO 05006KT 6SM M06/M32 A3086 RMK T10601320 IEM_DS3505
ZBAA,2006-02-03 08:00,ZBAA 030800Z AUTO 07002KT 6SM M06/M32 A3086 RMK T10601320 IEM_DS3505
ZBAA,2006-02-03 09:00,ZBAA 030900Z AUTO 20004KT 19SM M06/M32 A3086 RMK SLP452 T10571315 57009 IEM_DS3505
ZBAA,2006-02-03 10:00,ZBAA 031000Z AUTO 13002KT 6SM M08/M29 A3086 RMK T10801290 IEM_DS3505
ZBAA,2006-02-03 11:00,ZBAA 031100Z AUTO 14002KT 6SM M09/M28 A3086 RMK T10901280 IEM_DS3505
ZBAA,2006-02-03 12:00,ZBAA 031200Z AUTO 20004KT 19SM M08/M30 A3086 RMK SLP456 T10831297 52004 IEM_DS3505
ZBAA,2006-02-03 13:00,ZBAA 031300Z AUTO 15004KT 6SM M09/M26 A3089 RMK T10901260 IEM_DS3505
ZBAA,2006-02-03 14:00,ZBAA 031400Z AUTO 21006KT 6SM M08/M28 A3089 RMK T10801280 IEM_DS3505
ZBAA,2006-02-03 15:00,ZBAA 031500Z AUTO 25004KT 19SM M10/M28 A3086 RMK SLP453 T10981280 57003 IEM_DS3505
ZBAA,2006-02-03 16:00,ZBAA 031600Z AUTO 06002KT 6SM M11/M26 A3086 RMK T11101260 IEM_DS3505
ZBAA,2006-02-03 17:00,ZBAA 031700Z AUTO 36004KT 6SM M14/M26 A3086 RMK T11401260 IEM_DS3505
ZBAA,2006-02-03 18:00,ZBAA 031800Z AUTO 02002KT 16SM M11/M25 A3083 RMK SLP441 T11071253 57012 IEM_DS3505
ZBAA,2006-02-03 19:00,ZBAA 031900Z AUTO 02004KT 4SM M13/M25 A3083 RMK T11301250 IEM_DS3505
ZBAA,2006-02-03 20:00,ZBAA 032000Z AUTO 33004KT 5SM M15/M27 A3080 RMK T11501270 IEM_DS3505
ZBAA,2006-02-03 21:00,ZBAA 032100Z AUTO 09002KT 12SM M12/M24 A3080 RMK SLP424 T11251239 57017 IEM_DS3505
ZBAA,2006-02-03 22:00,ZBAA 032200Z AUTO 33006KT 6SM M14/M27 A3077 RMK T11401270 IEM_DS3505
ZBAA,2006-02-03 23:00,ZBAA 032300Z AUTO 34006KT 6SM M14/M27 A3077 RMK T11401270 IEM_DS3505
ZBAA,2006-02-04 00:00,ZBAA 040000Z AUTO 25002KT 9SM M13/M23 A3080 RMK SLP427 T11271227 52003 IEM_DS3505
ZBAA,2006-02-04 01:00,ZBAA 040100Z AUTO 34008KT 6SM M11/M26 A3080 RMK T11101260 IEM_DS3505
ZBAA,2006-02-04 02:00,ZBAA 040200Z AUTO 36008KT 6SM M08/M28 A3077 RMK T10801280 IEM_DS3505
ZBAA,2006-02-04 03:00,ZBAA 040300Z AUTO 07004KT 12SM M06/M28 A3077 RMK SLP417 T10591284 57010 IEM_DS3505
ZBAA,2006-02-04 04:00,ZBAA 040400Z AUTO 6SM M05/M28 A3074 RMK T10501280 IEM_DS3505
ZBAA,2006-02-04 05:00,ZBAA 040500Z AUTO 10002KT 6SM M04/M28 A3068 RMK T10401280 IEM_DS3505
ZBAA,2006-02-04 06:00,ZBAA 040600Z AUTO 25006KT 12SM M02/M26 A3065 RMK SLP376 T10201260 57040 IEM_DS3505
ZBAA,2006-02-04 07:00,ZBAA 040700Z AUTO 14004KT 6SM M02/M28 A3062 RMK T10201280 IEM_DS3505
ZBAA,2006-02-04 08:00,ZBAA 040800Z AUTO 20006KT 6SM M02/M26 A3062 RMK T10201260 IEM_DS3505
ZBAA,2006-02-04 09:00,ZBAA 040900Z AUTO 22004KT 12SM M02/M25 A3059 RMK SLP363 T10201252 57013 IEM_DS3505
ZBAA,2006-02-04 10:00,ZBAA 041000Z AUTO 13002KT 6SM M04/M25 A3062 RMK T10401250 IEM_DS3505
ZBAA,2006-02-04 11:00,ZBAA 041100Z AUTO 07004KT 6SM M06/M22 A3062 RMK T10601220 IEM_DS3505
ZBAA,2006-02-04 13:00,ZBAA 041300Z AUTO 09004KT 5SM M06/M23 A3062 RMK T10601230 IEM_DS3505
ZBAA,2006-02-04 14:00,ZBAA 041400Z AUTO 09006KT 4SM M06/M23 A3062 RMK T10601230 IEM_DS3505
ZBAA,2006-02-04 15:00,ZBAA 041500Z AUTO 18004KT 9SM M05/M22 A3062 RMK SLP366 T10481218 57006 IEM_DS3505
ZBAA,2006-02-04 16:00,ZBAA 041600Z AUTO 2 1/2SM M07/M22 A3062 RMK T10701220 IEM_DS3505
ZBAA,2006-02-04 17:00,ZBAA 041700Z AUTO 04002KT 2 1/2SM M07/M23 A3059 RMK T10701230 IEM_DS3505
ZBAA,2006-02-04 18:00,ZBAA 041800Z AUTO 18004KT 9SM M06/M22 A3059 RMK SLP357 T10561225 57009 IEM_DS3505
ZBAA,2006-02-04 19:00,ZBAA 041900Z AUTO 08004KT 2 1/2SM M08/M20 A3056 RMK T10801200 IEM_DS3505
ZBAA,2006-02-04 20:00,ZBAA 042000Z AUTO 09006KT 3SM M08/M17 A3053 RMK T10801170 IEM_DS3505
ZBAA,2006-02-04 21:00,ZBAA 042100Z AUTO 07002KT 9SM M08/M19 A3053 RMK SLP336 T10751194 57021 IEM_DS3505
ZBAA,2006-02-04 22:00,ZBAA 042200Z AUTO 11002KT 4SM M08/M16 A3050 RMK T10801160 IEM_DS3505
ZBAA,2006-02-04 23:00,ZBAA 042300Z AUTO 00000KT 4SM M09/M17 A3050 RMK T10901170 IEM_DS3505
ZBAA,2006-02-05 00:00,ZBAA 050000Z AUTO 04004KT 7SM M08/M15 A3053 RMK SLP332 T10831149 57004 IEM_DS3505
ZBAA,2006-02-05 01:00,ZBAA 050100Z AUTO 09002KT 4SM M07/M16 A3050 RMK T10701160 IEM_DS3505
ZBAA,2006-02-05 02:00,ZBAA 050200Z AUTO 10002KT 3SM M06/M15 A3050 RMK T10601150 IEM_DS3505
ZBAA,2006-02-05 03:00,ZBAA 050300Z AUTO 07004KT 6SM M04/M14 A3050 RMK SLP324 T10451141 57008 IEM_DS3505
ZBAA,2006-02-05 04:00,ZBAA 050400Z AUTO 3SM M03/M14 A3045 RMK T10301140 IEM_DS3505
ZBAA,2006-02-05 05:00,ZBAA 050500Z AUTO 12002KT 3SM M02/M14 A3042 RMK T10201140 IEM_DS3505
ZBAA,2006-02-05 06:00,ZBAA 050600Z AUTO 11004KT 6SM M02/M14 A3039 RMK SLP282 T10161141 57041 IEM_DS3505
ZBAA,2006-02-05 07:00,ZBAA 050700Z AUTO 14006KT 3SM M02/M13 A3036 RMK T10201130 IEM_DS3505
ZBAA,2006-02-05 08:00,ZBAA 050800Z AUTO 13004KT 2 1/2SM M02/M12 A3033 RMK T10201120 IEM_DS3505
ZBAA,2006-02-05 09:00,ZBAA 050900Z AUTO 18004KT 6SM M02/M09 A3033 RMK SLP264 T10151089 57018 IEM_DS3505
ZBAA,2006-02-05 10:00,ZBAA 051000Z AUTO 12004KT 2 1/2SM M02/M11 A3033 RMK T10201110 IEM_DS3505
ZBAA,2006-02-05 11:00,ZBAA 051100Z AUTO 08004KT 2 1/2SM M02/M11 A3030 RMK T10201110 IEM_DS3505
ZBAA,2006-02-05 12:00,ZBAA 051200Z AUTO 10004KT 6SM M02/M08 A3030 RMK SLP260 T10211084 57004 IEM_DS3505
ZBAA,2006-02-05 13:00,ZBAA 051300Z AUTO 10004KT 2 1/2SM M02/M12 A3030 RMK T10201120 IEM_DS3505
ZBAA,2006-02-05 14:00,ZBAA 051400Z AUTO 11004KT 2 1/2SM M03/M13 A3030 RMK T10301130 IEM_DS3505
ZBAA,2006-02-05 15:00,ZBAA 051500Z AUTO 07002KT 6SM M02/M11 A3027 RMK SLP251 T10221110 57009 IEM_DS3505
ZBAA,2006-02-05 16:00,ZBAA 051600Z AUTO 07004KT 2 1/2SM M03/M12 A3024 RMK T10301120 IEM_DS3505
ZBAA,2006-02-05 17:00,ZBAA 051700Z AUTO 07002KT 2 1/2SM M03/M12 A3024 RMK T10301120 IEM_DS3505
ZBAA,2006-02-05 18:00,ZBAA 051800Z AUTO 07004KT 6SM M03/M11 A3021 RMK SLP228 T10281108 57023 IEM_DS3505
ZBAA,2006-02-05 19:00,ZBAA 051900Z AUTO 01002KT 2 1/2SM M03/M11 A3021 RMK T10301110 IEM_DS3505
ZBAA,2006-02-05 20:00,ZBAA 052000Z AUTO 36002KT 2 1/2SM M03/M11 A3018 RMK T10301110 IEM_DS3505
ZBAA,2006-02-05 21:00,ZBAA 052100Z AUTO 09002KT 6SM M03/M10 A3018 RMK SLP216 T10311102 57012 IEM_DS3505
ZBAA,2006-02-05 22:00,ZBAA 052200Z AUTO 08004KT 2 1/2SM M03/M11 A3015 RMK T10301110 IEM_DS3505
ZBAA,2006-02-05 23:00,ZBAA 052300Z AUTO 04004KT 2 1/2SM M03/M10 A3015 RMK T10301100 IEM_DS3505
ZBAA,2006-02-06 00:00,ZBAA 060000Z AUTO 07002KT 4SM M04/M06 A3015 RMK 60002 70002 SLP206 T10431061 57010 IEM_DS3505
ZBAA,2006-02-06 01:00,ZBAA 060100Z AUTO 08004KT 1 1/4SM M04/M06 A3015 RMK T10401060 IEM_DS3505
ZBAA,2006-02-06 02:00,ZBAA 060200Z AUTO 03006KT 1SM M04/M05 A3015 RMK T10401050 IEM_DS3505
ZBAA,2006-02-06 03:00,ZBAA 060300Z AUTO 04006KT 1 1/4SM M04/M05 A3015 RMK SLP208 T10381051 52002 IEM_DS3505
ZBAA,2006-02-06 04:00,ZBAA 060400Z AUTO 36006KT 1/2SM M04/M04 A3015 RMK T10401040 IEM_DS3505
ZBAA,2006-02-06 05:00,ZBAA 060500Z AUTO 34008KT 1/2SM M04/M04 A3012 RMK T10401040 IEM_DS3505
ZBAA,2006-02-06 06:00,ZBAA 060600Z AUTO 36004KT 1 1/4SM M03/M05 A3012 RMK 60016 SLP197 T10301046 57011 IEM_DS3505
ZBAA,2006-02-06 07:00,ZBAA 060700Z AUTO 35006KT 1SM M03/M04 A3012 RMK T10301040 IEM_DS3505
ZBAA,2006-02-06 08:00,ZBAA 060800Z AUTO 34008KT 1SM M03/M03 A3012 RMK T10301030 IEM_DS3505
ZBAA,2006-02-06 09:00,ZBAA 060900Z AUTO 04004KT 4SM M02/M06 A3012 RMK SLP199 T10181056 52002 IEM_DS3505
ZBAA,2006-02-06 10:00,ZBAA 061000Z AUTO 02006KT 1 1/4SM M03/M04 A3015 RMK T10301040 IEM_DS3505
ZBAA,2006-02-06 11:00,ZBAA 061100Z AUTO 35010KT 1 1/2SM M02/M05 A3018 RMK T10201050 IEM_DS3505
ZBAA,2006-02-06 12:00,ZBAA 061200Z AUTO 32010KT 19SM M02/M13 A3021 RMK 60000 SLP230 T10171132 52031 IEM_DS3505
ZBAA,2006-02-06 13:00,ZBAA 061300Z AUTO 31019KT 6SM M04/M15 A3024 RMK T10401150 IEM_DS3505
ZBAA,2006-02-06 14:00,ZBAA 061400Z AUTO 31019G29KT 6SM M05/M17 A3027 RMK T10501170 IEM_DS3505
ZBAA,2006-02-06 15:00,ZBAA 061500Z AUTO 32010KT 19SM M04/M21 A3030 RMK SLP255 T10431209 52025 IEM_DS3505
ZBAA,2006-02-06 16:00,ZBAA 061600Z AUTO 31019KT 6SM M06/M20 A3033 RMK T10601200 IEM_DS3505
ZBAA,2006-02-06 17:00,ZBAA 061700Z AUTO 30021KT 6SM M07/M21 A3033 RMK T10701210 IEM_DS3505
ZBAA,2006-02-06 18:00,ZBAA 061800Z AUTO 34004KT 19SM M06/M21 A3036 RMK SLP273 T10621210 52018 IEM_DS3505
ZBAA,2006-02-06 19:00,ZBAA 061900Z AUTO 32016KT 6SM M08/M20 A3036 RMK T10801200 IEM_DS3505
ZBAA,2006-02-06 20:00,ZBAA 062000Z AUTO 34010KT 6SM M09/M20 A3036 RMK T10901200 IEM_DS3505
ZBAA,2006-02-06 21:00,ZBAA 062100Z AUTO 02006KT 19SM M07/M21 A3036 RMK 70019 SLP279 T10681211 52006 IEM_DS3505
ZBAA,2006-02-06 22:00,ZBAA 062200Z AUTO 36010KT 6SM M08/M18 A3039 RMK T10801180 IEM_DS3505
ZBAA,2006-02-06 23:00,ZBAA 062300Z AUTO 36010KT 6SM M09/M19 A3042 RMK T10901190 IEM_DS3505
ZBAA,2006-02-07 00:00,ZBAA 070000Z AUTO 04006KT 19SM M07/M22 A3045 RMK 70017 SLP306 T10701217 52027 IEM_DS3505
ZBAA,2006-02-07 01:00,ZBAA 070100Z AUTO 36010KT 6SM M08/M18 A3047 RMK T10801180 IEM_DS3505
ZBAA,2006-02-07 02:00,ZBAA 070200Z AUTO 01010KT 6SM M06/M18 A3047 RMK T10601180 IEM_DS3505
ZBAA,2006-02-07 03:00,ZBAA 070300Z AUTO 36006KT 19SM M04/M20 A3047 RMK SLP320 T10361195 52014 IEM_DS3505
ZBAA,2006-02-07 04:00,ZBAA 070400Z AUTO 03010KT 6SM M05/M17 A3047 RMK T10501170 IEM_DS3505
ZBAA,2006-02-07 05:00,ZBAA 070500Z AUTO 02010KT 6SM M03/M16 A3047 RMK T10301160 IEM_DS3505
ZBAA,2006-02-07 06:00,ZBAA 070600Z AUTO 34010KT 19SM M01/M18 A3047 RMK SLP318 T10071178 57002 IEM_DS3505
ZBAA,2006-02-07 07:00,ZBAA 070700Z AUTO 01010KT 6SM M02/M16 A3047 RMK T10201160 IEM_DS3505
ZBAA,2006-02-07 08:00,ZBAA 070800Z AUTO 33014KT 6SM M01/M18 A3050 RMK T10101180 IEM_DS3505
ZBAA,2006-02-07 09:00,ZBAA 070900Z AUTO 36006KT 19SM M01/M18 A3053 RMK SLP341 T10131179 52022 IEM_DS3505
ZBAA,2006-02-07 10:00,ZBAA 071000Z AUTO 31016KT 6SM M03/M19 A3059 RMK T10301190 IEM_DS3505
ZBAA,2006-02-07 11:00,ZBAA 071100Z AUTO 31016KT 6SM M04/M20 A3062 RMK T10401200 IEM_DS3505
ZBAA,2006-02-07 12:00,ZBAA 071200Z AUTO 36010KT 19SM M04/M22 A3065 RMK SLP375 T10401221 52034 IEM_DS3505
ZBAA,2006-02-07 13:00,ZBAA 071300Z AUTO 33016KT 6SM M05/M20 A3068 RMK T10501200 IEM_DS3505
ZBAA,2006-02-07 14:00,ZBAA 071400Z AUTO 33016G27KT 6SM M06/M20 A3068 RMK T10601200 IEM_DS3505
ZBAA,2006-02-07 15:00,ZBAA 071500Z AUTO 36004G33KT 19SM M05/M21 A3068 RMK SLP396 T10541211 52021 IEM_DS3505
ZBAA,2006-02-07 16:00,ZBAA 071600Z AUTO 32023G33KT 6SM M06/M20 A3071 RMK T10601200 IEM_DS3505
ZBAA,2006-02-07 17:00,ZBAA 071700Z AUTO 31016KT 6SM M07/M21 A3074 RMK T10701210 IEM_DS3505
ZBAA,2006-02-07 18:00,ZBAA 071800Z AUTO 36006KT 19SM M07/M21 A3074 RMK SLP413 T10661209 52017 IEM_DS3505
ZBAA,2006-02-07 19:00,ZBAA 071900Z AUTO 32014KT 6SM M08/M23 A3077 RMK T10801230 IEM_DS3505
ZBAA,2006-02-07 20:00,ZBAA 072000Z AUTO 33014KT 6SM M09/M23 A3077 RMK T10901230 IEM_DS3505
ZBAA,2006-02-07 21:00,ZBAA 072100Z AUTO 34008KT 19SM M08/M22 A3080 RMK SLP422 T10781220 52009 IEM_DS3505
ZBAA,2006-02-07 22:00,ZBAA 072200Z AUTO 31012KT 6SM M10/M22 A3080 RMK T11001220 IEM_DS3505
ZBAA,2006-02-07 23:00,ZBAA 072300Z AUTO 31014KT 6SM M10/M22 A3083 RMK T11001220 IEM_DS3505
ZBAA,2006-02-08 00:00,ZBAA 080000Z AUTO 34006KT 19SM M09/M23 A3083 RMK SLP439 T10861231 52017 IEM_DS3505
ZBAA,2006-02-08 01:00,ZBAA 080100Z AUTO 01010KT 6SM M08/M22 A3086 RMK T10801220 IEM_DS3505
ZBAA,2006-02-08 02:00,ZBAA 080200Z AUTO 01012KT 6SM M07/M21 A3083 RMK T10701210 IEM_DS3505
ZBAA,2006-02-08 03:00,ZBAA 080300Z AUTO 02008KT 19SM M05/M22 A3083 RMK SLP444 T10461221 52005 IEM_DS3505
ZBAA,2006-02-08 04:00,ZBAA 080400Z AUTO 31017KT 6SM M03/M21 A3083 RMK T10301210 IEM_DS3505
ZBAA,2006-02-08 05:00,ZBAA 080500Z AUTO 31016G25KT 6SM M02/M22 A3080 RMK T10201220 IEM_DS3505
ZBAA,2006-02-08 06:00,ZBAA 080600Z AUTO 36006G25KT 19SM M01/M21 A3077 RMK SLP416 T10131208 57028 IEM_DS3505
ZBAA,2006-02-08 07:00,ZBAA 080700Z AUTO 30014KT 6SM M01/M22 A3074 RMK T10101220 IEM_DS3505
ZBAA,2006-02-08 08:00,ZBAA 080800Z AUTO 30012KT 6SM M01/M22 A3074 RMK T10101220 IEM_DS3505
ZBAA,2006-02-08 09:00,ZBAA 080900Z AUTO 36006G25KT 19SM M01/M22 A3074 RMK SLP410 T10101217 57006 IEM_DS3505
ZBAA,2006-02-08 10:00,ZBAA 081000Z AUTO 29014KT 6SM M03/M21 A3074 RMK T10301210 IEM_DS3505
ZBAA,2006-02-08 11:00,ZBAA 081100Z AUTO 29014KT 6SM M03/M22 A3074 RMK T10301220 IEM_DS3505
ZBAA,2006-02-08 12:00,ZBAA 081200Z AUTO 22006KT 16SM M04/M16 A3074 RMK SLP416 T10431159 52006 IEM_DS3505
ZBAA,2006-02-08 13:00,ZBAA 081300Z AUTO 29012KT 6SM M04/M21 A3077 RMK T10401210 IEM_DS3505
ZBAA,2006-02-08 14:00,ZBAA 081400Z AUTO 29010KT 6SM M04/M21 A3074 RMK T10401210 IEM_DS3505
ZBAA,2006-02-08 15:00,ZBAA 081500Z AUTO 27004KT 16SM M07/M15 A3074 RMK SLP414 T10711151 57002 IEM_DS3505
ZBAA,2006-02-08 16:00,ZBAA 081600Z AUTO 29006KT 6SM M05/M21 A3074 RMK T10501210 IEM_DS3505
ZBAA,2006-02-08 17:00,ZBAA 081700Z AUTO 28006KT 6SM M08/M20 A3071 RMK T10801200 IEM_DS3505
ZBAA,2006-02-08 18:00,ZBAA 081800Z AUTO 09002KT 12SM M10/M15 A3071 RMK SLP394 T11051149 57020 IEM_DS3505
ZBAA,2006-02-08 19:00,ZBAA 081900Z AUTO 00000KT 6SM M09/M19 A3068 RMK T10901190 IEM_DS3505
ZBAA,2006-02-08 20:00,ZBAA 082000Z AUTO 34002KT 6SM M09/M20 A3065 RMK T10901200 IEM_DS3505
ZBAA,2006-02-08 21:00,ZBAA 082100Z AUTO 22004KT 12SM M11/M16 A3062 RMK SLP364 T11121156 57030 IEM_DS3505
ZBAA,2006-02-08 22:00,ZBAA 082200Z AUTO 35002KT 6SM M12/M20 A3059 RMK T11201200 IEM_DS3505
ZBAA,2006-02-08 23:00,ZBAA 082300Z AUTO 6SM M12/M20 A3056 RMK T11201200 IEM_DS3505
ZBAA,2006-02-09 00:00,ZBAA 090000Z AUTO 22002KT 7SM M11/M14 A3056 RMK SLP346 T11101141 57018 IEM_DS3505
ZBAA,2006-02-09 01:00,ZBAA 090100Z AUTO 14002KT 6SM M08/M19 A3053 RMK T10801190 IEM_DS3505
ZBAA,2006-02-09 02:00,ZBAA 090200Z AUTO 6SM M04/M17 A3050 RMK T10401170 IEM_DS3505
ZBAA,2006-02-09 03:00,ZBAA 090300Z AUTO 09002KT 7SM M02/M18 A3047 RMK SLP318 T10171183 57028 IEM_DS3505
ZBAA,2006-02-09 04:00,ZBAA 090400Z AUTO 25006KT 6SM 01/M19 A3042 RMK T00101190 IEM_DS3505
ZBAA,2006-02-09 05:00,ZBAA 090500Z AUTO 30014KT 6SM 03/M20 A3036 RMK T00301200 IEM_DS3505
ZBAA,2006-02-09 06:00,ZBAA 090600Z AUTO 20008KT 11SM 00/M18 A3030 RMK SLP267 T00051182 57050 IEM_DS3505
ZBAA,2006-02-09 07:00,ZBAA 090700Z AUTO 19010KT 6SM 02/M16 A3027 RMK T00201160 IEM_DS3505
ZBAA,2006-02-09 08:00,ZBAA 090800Z AUTO 18012KT 6SM 02/M16 A3024 RMK T00201160 IEM_DS3505
ZBAA,2006-02-09 10:00,ZBAA 091000Z AUTO 21012KT 6SM 00/M17 A3021 RMK T00001170 IEM_DS3505
ZBAA,2006-02-09 11:00,ZBAA 091100Z AUTO 20010KT 6SM M01/M17 A3018 RMK T10101170 IEM_DS3505
ZBAA,2006-02-09 12:00,ZBAA 091200Z AUTO 25006KT 12SM M03/M15 A3018 RMK SLP224 T10271151 57013 IEM_DS3505
ZBAA,2006-02-09 13:00,ZBAA 091300Z AUTO 21006KT 5SM M03/M15 A3018 RMK T10301150 IEM_DS3505
ZBAA,2006-02-09 14:00,ZBAA 091400Z AUTO 21004KT 4SM M04/M16 A3015 RMK T10401160 IEM_DS3505
ZBAA,2006-02-09 15:00,ZBAA 091500Z AUTO 22004KT 12SM M05/M16 A3015 RMK SLP211 T10471157 57012 IEM_DS3505
ZBAA,2006-02-09 16:00,ZBAA 091600Z AUTO 36002KT 3SM M06/M14 A3012 RMK T10601140 IEM_DS3505
ZBAA,2006-02-09 17:00,ZBAA 091700Z AUTO 05004KT 3SM M07/M14 A3012 RMK T10701140 IEM_DS3505
ZBAA,2006-02-09 18:00,ZBAA 091800Z AUTO 29002KT 9SM M07/M13 A3012 RMK SLP195 T10691128 57016 IEM_DS3505
ZBAA,2006-02-09 19:00,ZBAA 091900Z AUTO 01002KT 2 1/2SM M08/M14 A3009 RMK T10801140 IEM_DS3505
ZBAA,2006-02-09 20:00,ZBAA 092000Z AUTO 24002KT 2 1/2SM M08/M14 A3006 RMK T10801140 IEM_DS3505
ZBAA,2006-02-09 21:00,ZBAA 092100Z AUTO 29002KT 9SM M08/M12 A3006 RMK SLP181 T10771124 57014 IEM_DS3505
ZBAA,2006-02-09 22:00,ZBAA 092200Z AUTO 33002KT 4SM M08/M14 A3006 RMK T10801140 IEM_DS3505
ZBAA,2006-02-09 23:00,ZBAA 092300Z AUTO 36006KT 4SM M09/M14 A3006 RMK T10901140 IEM_DS3505
ZBAA,2006-02-10 00:00,ZBAA 100000Z AUTO 07002KT 6SM M06/M12 A3009 RMK SLP183 T10621123 52002 IEM_DS3505
ZBAA,2006-02-10 01:00,ZBAA 100100Z AUTO 35006KT 4SM M05/M13 A3009 RMK T10501130 IEM_DS3505
ZBAA,2006-02-10 02:00,ZBAA 100200Z AUTO 36006KT 4SM M02/M13 A3006 RMK T10201130 IEM_DS3505
ZBAA,2006-02-10 03:00,ZBAA 100300Z AUTO 07002KT 6SM 04/M12 A3006 RMK SLP176 T00441117 57006 IEM_DS3505
ZBAA,2006-02-10 04:00,ZBAA 100400Z AUTO 03004KT 4SM 04/M11 A3003 RMK T00401110 IEM_DS3505
ZBAA,2006-02-10 05:00,ZBAA 100500Z AUTO 4SM 07/M10 A3000 RMK T00701100 IEM_DS3505
ZBAA,2006-02-10 06:00,ZBAA 100600Z AUTO 22006KT 9SM 08/M13 A2997 RMK SLP154 T00851132 57022 IEM_DS3505
ZBAA,2006-02-10 07:00,ZBAA 100700Z AUTO 19010KT 6SM 09/M09 A2997 RMK T00901090 IEM_DS3505
ZBAA,2006-02-10 08:00,ZBAA 100800Z AUTO 20008KT 5SM 09/M11 A2997 RMK T00901110 IEM_DS3505
ZBAA,2006-02-10 09:00,ZBAA 100900Z AUTO 22006KT 12SM 07/M10 A2997 RMK SLP150 T00681104 57004 IEM_DS3505
ZBAA,2006-02-10 10:00,ZBAA 101000Z AUTO 21008KT 4SM 05/M09 A2997 RMK T00501090 IEM_DS3505
ZBAA,2006-02-10 11:00,ZBAA 101100Z AUTO 25006KT 4SM 05/M09 A3000 RMK T00501090 IEM_DS3505
ZBAA,2006-02-10 12:00,ZBAA 101200Z AUTO 18002KT 9SM 03/M08 A3003 RMK SLP167 T00331075 52017 IEM_DS3505
ZBAA,2006-02-10 13:00,ZBAA 101300Z AUTO 00000KT 2 1/2SM 00/M08 A3003 RMK T00001080 IEM_DS3505
ZBAA,2006-02-10 14:00,ZBAA 101400Z AUTO 02004KT 2 1/2SM 00/M08 A3006 RMK T00001080 IEM_DS3505
ZBAA,2006-02-10 15:00,ZBAA 101500Z AUTO 04004KT 9SM 01/M07 A3009 RMK SLP184 T00131072 52017 IEM_DS3505
ZBAA,2006-02-10 16:00,ZBAA 101600Z AUTO 32004KT 2 1/2SM M01/M08 A3012 RMK T10101080 IEM_DS3505
ZBAA,2006-02-10 17:00,ZBAA 101700Z AUTO 35010KT 4SM M01/M08 A3012 RMK T10101080 IEM_DS3505
ZBAA,2006-02-10 18:00,ZBAA 101800Z AUTO 04004KT 9SM 03/M10 A3012 RMK SLP198 T00281101 52014 IEM_DS3505
ZBAA,2006-02-10 19:00,ZBAA 101900Z AUTO 02006KT 6SM 00/M10 A3015 RMK T00001100 IEM_DS3505
ZBAA,2006-02-10 20:00,ZBAA 102000Z AUTO 12008KT 2 1/2SM M02/M07 A3015 RMK T10201070 IEM_DS3505
ZBAA,2006-02-10 21:00,ZBAA 102100Z AUTO 09008KT 9SM M03/M08 A3018 RMK SLP218 T10271076 52020 IEM_DS3505
ZBAA,2006-02-10 22:00,ZBAA 102200Z AUTO 08004KT 2 1/2SM M04/M08 A3021 RMK T10401080 IEM_DS3505
ZBAA,2006-02-10 23:00,ZBAA 102300Z AUTO 35002KT 3SM M05/M09 A3024 RMK T10501090 IEM_DS3505
ZBAA,2006-02-11 00:00,ZBAA 110000Z AUTO 02004KT 9SM M03/M09 A3027 RMK SLP252 T10341086 52033 IEM_DS3505
ZBAA,2006-02-11 01:00,ZBAA 110100Z AUTO 21004KT 4SM M01/M09 A3030 RMK T10101090 IEM_DS3505
ZBAA,2006-02-11 02:00,ZBAA 110200Z AUTO 20004KT 6SM 00/M10 A3030 RMK T00001100 IEM_DS3505
ZBAA,2006-02-11 03:00,ZBAA 110300Z AUTO 11004KT 12SM 02/M10 A3030 RMK SLP256 T00171098 52005 IEM_DS3505
ZBAA,2006-02-11 04:00,ZBAA 110400Z AUTO 6SM 03/M11 A3030 RMK T00301110 IEM_DS3505
ZBAA,2006-02-11 05:00,ZBAA 110500Z AUTO 09004KT 6SM 04/M11 A3027 RMK T00401110 IEM_DS3505
ZBAA,2006-02-11 06:00,ZBAA 110600Z AUTO 20006KT 12SM 05/M10 A3024 RMK SLP239 T00471098 57017 IEM_DS3505
ZBAA,2006-02-11 07:00,ZBAA 110700Z AUTO 19008KT 6SM 05/M09 A3021 RMK T00501090 IEM_DS3505
ZBAA,2006-02-11 08:00,ZBAA 110800Z AUTO 17008KT 6SM 05/M09 A3021 RMK T00501090 IEM_DS3505
ZBAA,2006-02-11 09:00,ZBAA 110900Z AUTO 20006KT 12SM 04/M09 A3021 RMK SLP233 T00411089 57006 IEM_DS3505
ZBAA,2006-02-11 10:00,ZBAA 111000Z AUTO 14004KT 6SM 02/M08 A3024 RMK T00201080 IEM_DS3505
ZBAA,2006-02-11 11:00,ZBAA 111100Z AUTO 14004KT 6SM 01/M08 A3024 RMK T00101080 IEM_DS3505
ZBAA,2006-02-11 12:00,ZBAA 111200Z AUTO 18006KT 7SM 02/M06 A3027 RMK SLP249 T00201061 52015 IEM_DS3505
ZBAA,2006-02-11 13:00,ZBAA 111300Z AUTO 12008KT 4SM 00/M08 A3027 RMK T00001080 IEM_DS3505
ZBAA,2006-02-11 14:00,ZBAA 111400Z AUTO 13006KT 4SM M01/M07 A3030 RMK T10101070 IEM_DS3505
ZBAA,2006-02-11 15:00,ZBAA 111500Z AUTO 20004KT 7SM M01/M06 A3030 RMK SLP263 T10091064 52014 IEM_DS3505
ZBAA,2006-02-11 16:00,ZBAA 111600Z AUTO 13008KT 4SM M02/M07 A3033 RMK T10201070 IEM_DS3505
ZBAA,2006-02-11 17:00,ZBAA 111700Z AUTO 13004KT 3SM M03/M06 A3033 RMK T10301060 IEM_DS3505
ZBAA,2006-02-11 18:00,ZBAA 111800Z AUTO 07004KT 7SM M03/M06 A3033 RMK SLP266 T10341065 52003 IEM_DS3505
ZBAA,2006-02-11 19:00,ZBAA 111900Z AUTO 13004KT 2 1/2SM M03/M06 A3033 RMK T10301060 IEM_DS3505
ZBAA,2006-02-11 20:00,ZBAA 112000Z AUTO 36002KT 2 1/2SM M06/M08 A3033 RMK T10601080 IEM_DS3505
ZBAA,2006-02-11 21:00,ZBAA 112100Z AUTO 07004KT 5SM M05/M07 A3033 RMK SLP263 T10501067 57003 IEM_DS3505
ZBAA,2006-02-11 22:00,ZBAA 112200Z AUTO 36002KT 2SM M06/M08 A3033 RMK T10601080 IEM_DS3505
ZBAA,2006-02-11 23:00,ZBAA 112300Z AUTO 01002KT 2SM M06/M07 A3030 RMK T10601070 IEM_DS3505
ZBAA,2006-02-12 00:00,ZBAA 120000Z AUTO 09004KT 4SM M05/M06 A3030 RMK SLP264 T10511062 52001 IEM_DS3505
ZBAA,2006-02-12 01:00,ZBAA 120100Z AUTO 08002KT 1 1/4SM M04/M05 A3033 RMK T10401050 IEM_DS3505
ZBAA,2006-02-12 02:00,ZBAA 120200Z AUTO 05002KT 1 1/4SM M03/M04 A3030 RMK T10301040 IEM_DS3505
ZBAA,2006-02-12 03:00,ZBAA 120300Z AUTO 04004KT 5SM M02/M03 A3030 RMK SLP250 T10151028 57014 IEM_DS3505
ZBAA,2006-02-12 04:00,ZBAA 120400Z AUTO 08002KT 1 1/2SM 00/M03 A3024 RMK T00001030 IEM_DS3505
ZBAA,2006-02-12 05:00,ZBAA 120500Z AUTO 09002KT 1 1/2SM 02/M03 A3018 RMK T00201030 IEM_DS3505
ZBAA,2006-02-12 06:00,ZBAA 120600Z AUTO 14004KT 6SM 03/M03 A3015 RMK SLP205 T00341030 57044 IEM_DS3505
ZBAA,2006-02-12 07:00,ZBAA 120700Z AUTO 14006KT 2SM 03/M03 A3012 RMK T00301030 IEM_DS3505
ZBAA,2006-02-12 08:00,ZBAA 120800Z AUTO 13004KT 1 1/2SM 02/M02 A3009 RMK T00201020 IEM_DS3505
ZBAA,2006-02-12 09:00,ZBAA 120900Z AUTO 18004KT 5SM 03/M04 A3006 RMK SLP178 T00331039 57027 IEM_DS3505
ZBAA,2006-02-12 10:00,ZBAA 121000Z AUTO 08004KT 1 1/2SM 01/M03 A3006 RMK T00101030 IEM_DS3505
ZBAA,2006-02-12 11:00,ZBAA 121100Z AUTO 07004KT 1 1/2SM 00/M04 A3006 RMK T00001040 IEM_DS3505
ZBAA,2006-02-12 12:00,ZBAA 121200Z AUTO 09004KT 5SM 00/M03 A3003 RMK SLP170 T00011034 57009 IEM_DS3505
ZBAA,2006-02-12 13:00,ZBAA 121300Z AUTO 05002KT 1 1/4SM M02/M04 A3003 RMK T10201040 IEM_DS3505
ZBAA,2006-02-12 14:00,ZBAA 121400Z AUTO 33002KT 1 1/4SM M02/M04 A3000 RMK T10201040 IEM_DS3505
ZBAA,2006-02-12 15:00,ZBAA 121500Z AUTO 02004KT 4SM 00/M03 A3000 RMK SLP155 T00041028 57014 IEM_DS3505
ZBAA,2006-02-12 16:00,ZBAA 121600Z AUTO 02002KT 1SM M03/M04 A2997 RMK T10301040 IEM_DS3505
ZBAA,2006-02-12 17:00,ZBAA 121700Z AUTO 34006KT 1SM M03/M04 A2997 RMK T10301040 IEM_DS3505
ZBAA,2006-02-12 18:00,ZBAA 121800Z AUTO 04004KT 3SM 01/M03 A2997 RMK SLP143 T00081033 57012 IEM_DS3505
ZBAA,2006-02-12 19:00,ZBAA 121900Z AUTO 25002KT 1SM M03/M05 A2994 RMK T10301050 IEM_DS3505
ZBAA,2006-02-12 20:00,ZBAA 122000Z AUTO 29004KT 1 1/4SM M02/M04 A2991 RMK T10201040 IEM_DS3505
ZBAA,2006-02-12 21:00,ZBAA 122100Z AUTO 04002KT 3SM M00/M04 A2991 RMK SLP123 T10021039 57020 IEM_DS3505
ZBAA,2006-02-12 22:00,ZBAA 122200Z AUTO 34002KT 1 1/4SM M02/M04 A2988 RMK T10201040 IEM_DS3505
ZBAA,2006-02-12 23:00,ZBAA 122300Z AUTO 34004KT 1 1/4SM M02/M04 A2988 RMK T10201040 IEM_DS3505
ZBAA,2006-02-13 00:00,ZBAA 130000Z AUTO 07004KT 3SM M00/M04 A2988 RMK SLP121 T10011036 57002 IEM_DS3505
ZBAA,2006-02-13 01:00,ZBAA 130100Z AUTO 35004KT 1SM 00/M03 A2988 RMK T00001030 IEM_DS3505
ZBAA,2006-02-13 02:00,ZBAA 130200Z AUTO 36002KT 1SM 01/M02 A2985 RMK T00101020 IEM_DS3505
ZBAA,2006-02-13 03:00,ZBAA 130300Z AUTO 04002KT 2SM 01/M02 A2985 RMK SLP114 T00111016 57007 IEM_DS3505
ZBAA,2006-02-13 04:00,ZBAA 130400Z AUTO 01004KT 1SM 01/M01 A2985 RMK T00101010 IEM_DS3505
ZBAA,2006-02-13 05:00,ZBAA 130500Z AUTO 01002KT 1SM 02/M01 A2983 RMK T00201010 IEM_DS3505
ZBAA,2006-02-13 06:00,ZBAA 130600Z AUTO 04004KT 2SM 03/M00 A2980 RMK SLP081 T00301001 57033 IEM_DS3505
ZBAA,2006-02-13 07:00,ZBAA 130700Z AUTO 05002KT 1SM 03/M01 A2977 RMK T00301010 IEM_DS3505
ZBAA,2006-02-13 08:00,ZBAA 130800Z AUTO 17004KT 1SM 04/01 A2977 RMK T00400010 IEM_DS3505
ZBAA,2006-02-13 10:00,ZBAA 131000Z AUTO 22004KT 1SM 03/01 A2977 RMK T00300010 IEM_DS3505
ZBAA,2006-02-13 11:00,ZBAA 131100Z AUTO 17004KT 1SM 01/00 A2977 RMK T00100000 IEM_DS3505
ZBAA,2006-02-13 12:00,ZBAA 131200Z AUTO 22002KT 2SM 01/M00 A2980 RMK SLP093 T00141001 52015 IEM_DS3505
ZBAA,2006-02-13 13:00,ZBAA 131300Z AUTO 22004KT 1SM 03/02 A2983 RMK T00300020 IEM_DS3505
ZBAA,2006-02-13 14:00,ZBAA 131400Z AUTO 32004KT 1SM 00/M01 A2983 RMK T00001010 IEM_DS3505
ZBAA,2006-02-13 15:00,ZBAA 131500Z AUTO 29002KT 1 1/4SM 00/M01 A2985 RMK SLP107 T00041009 52014 IEM_DS3505
ZBAA,2006-02-13 16:00,ZBAA 131600Z AUTO 1SM M01/M02 A2985 RMK T10101020 IEM_DS3505
ZBAA,2006-02-13 17:00,ZBAA 131700Z AUTO 04002KT 1SM M01/M02 A2983 RMK T10101020 IEM_DS3505
ZBAA,2006-02-13 18:00,ZBAA 131800Z AUTO 20002KT 2SM M00/M02 A2985 RMK SLP106 T10051016 57001 IEM_DS3505
ZBAA,2006-02-13 19:00,ZBAA 131900Z AUTO 34006KT 1/2SM M02/M03 A2985 RMK T10201030 IEM_DS3505
ZBAA,2006-02-13 20:00,ZBAA 132000Z AUTO 30010KT 1/2SM M01/M02 A2985 RMK T10101020 IEM_DS3505
ZBAA,2006-02-13 21:00,ZBAA 132100Z AUTO 25002KT 2SM M02/M03 A2988 RMK SLP120 T10221032 52014 IEM_DS3505
ZBAA,2006-02-13 22:00,ZBAA 132200Z AUTO 29016KT 2 1/2SM 06/M05 A2991 RMK T00601050 IEM_DS3505
ZBAA,2006-02-13 23:00,ZBAA 132300Z AUTO 01006KT 2 1/2SM 01/M05 A2994 RMK T00101050 IEM_DS3505
ZBAA,2006-02-14 00:00,ZBAA 140000Z AUTO 32002KT 9SM 06/M05 A3000 RMK SLP161 T00641047 52041 IEM_DS3505
ZBAA,2006-02-14 01:00,ZBAA 140100Z AUTO 33008KT 5SM 06/M04 A3003 RMK T00601040 IEM_DS3505
ZBAA,2006-02-14 02:00,ZBAA 140200Z AUTO 02006KT 6SM 09/M06 A3003 RMK T00901060 IEM_DS3505
ZBAA,2006-02-14 03:00,ZBAA 140300Z AUTO 34006KT 19SM 11/M08 A3006 RMK SLP175 T01101083 52015 IEM_DS3505
ZBAA,2006-02-14 04:00,ZBAA 140400Z AUTO 28008KT 6SM 12/M09 A3006 RMK T01201090 IEM_DS3505
ZBAA,2006-02-14 05:00,ZBAA 140500Z AUTO 33010G19KT 6SM 12/M09 A3003 RMK T01201090 IEM_DS3505
ZBAA,2006-02-14 06:00,ZBAA 140600Z AUTO 32010KT 19SM 13/M11 A3000 RMK SLP167 T01281109 57008 IEM_DS3505
ZBAA,2006-02-14 07:00,ZBAA 140700Z AUTO 33006G19KT 6SM 11/M07 A3003 RMK T01101070 IEM_DS3505
ZBAA,2006-02-14 08:00,ZBAA 140800Z AUTO 32006KT 6SM 13/M07 A3003 RMK T01301070 IEM_DS3505
ZBAA,2006-02-14 09:00,ZBAA 140900Z AUTO 29006KT 19SM 11/M12 A3006 RMK SLP176 T01131115 52008 IEM_DS3505
ZBAA,2006-02-14 10:00,ZBAA 141000Z AUTO 27004KT 6SM 10/M08 A3006 RMK T01001080 IEM_DS3505
ZBAA,2006-02-14 11:00,ZBAA 141100Z AUTO 10014KT 6SM 07/M03 A3009 RMK T00701030 IEM_DS3505
ZBAA,2006-02-14 12:00,ZBAA 141200Z AUTO 18008KT 19SM 04/M05 A3012 RMK SLP198 T00381049 52022 IEM_DS3505
ZBAA,2006-02-14 13:00,ZBAA 141300Z AUTO 13010KT 4SM 02/M03 A3015 RMK T00201030 IEM_DS3505
ZBAA,2006-02-14 14:00,ZBAA 141400Z AUTO 10006KT 5SM 01/M04 A3021 RMK T00101040 IEM_DS3505
ZBAA,2006-02-14 15:00,ZBAA 141500Z AUTO 09006KT 12SM 00/M04 A3021 RMK SLP230 T00011045 52032 IEM_DS3505
ZBAA,2006-02-14 16:00,ZBAA 141600Z AUTO 07002KT 5SM M02/M05 A3024 RMK T10201050 IEM_DS3505
ZBAA,2006-02-14 17:00,ZBAA 141700Z AUTO 10006KT 5SM M01/M04 A3021 RMK T10101040 IEM_DS3505
ZBAA,2006-02-14 18:00,ZBAA 141800Z AUTO 07004KT 9SM M01/M05 A3021 RMK SLP228 T10101047 57002 IEM_DS3505
ZBAA,2006-02-14 19:00,ZBAA 141900Z AUTO 35004KT 6SM M03/M05 A3021 RMK T10301050 IEM_DS3505
ZBAA,2006-02-14 20:00,ZBAA 142000Z AUTO 30002KT 4SM M02/M05 A3018 RMK T10201050 IEM_DS3505
ZBAA,2006-02-14 21:00,ZBAA 142100Z AUTO 02002KT 7SM M02/M05 A3018 RMK SLP219 T10211052 57009 IEM_DS3505
ZBAA,2006-02-14 22:00,ZBAA 142200Z AUTO 36004KT 4SM M02/M05 A3018 RMK T10201050 IEM_DS3505
ZBAA,2006-02-14 23:00,ZBAA 142300Z AUTO 36004KT 5SM M01/M05 A3018 RMK T10101050 IEM_DS3505
ZBAA,2006-02-15 00:00,ZBAA 150000Z AUTO 07004KT 6SM M00/M05 A3018 RMK SLP223 T10011053 52004 IEM_DS3505
ZBAA,2006-02-15 01:00,ZBAA 150100Z AUTO 15002KT 5SM 01/M05 A3021 RMK T00101050 IEM_DS3505
ZBAA,2006-02-15 02:00,ZBAA 150200Z AUTO 11002KT 5SM 02/M06 A3021 RMK T00201060 IEM_DS3505
ZBAA,2006-02-15 03:00,ZBAA 150300Z AUTO 07004KT 9SM 02/M08 A3021 RMK SLP231 T00231079 52008 IEM_DS3505
ZBAA,2006-02-15 04:00,ZBAA 150400Z AUTO 13004KT 6SM 02/M07 A3021 RMK T00201070 IEM_DS3505
ZBAA,2006-02-15 05:00,ZBAA 150500Z AUTO 13002KT 6SM 03/M08 A3018 RMK T00301080 IEM_DS3505
ZBAA,2006-02-15 06:00,ZBAA 150600Z AUTO 09002KT 9SM 03/M10 A3015 RMK SLP210 T00321097 57021 IEM_DS3505
ZBAA,2006-02-15 07:00,ZBAA 150700Z AUTO 15002KT 6SM 03/M08 A3015 RMK T00301080 IEM_DS3505
ZBAA,2006-02-15 08:00,ZBAA 150800Z AUTO 14004KT 6SM 03/M08 A3015 RMK T00301080 IEM_DS3505
ZBAA,2006-02-15 09:00,ZBAA 150900Z AUTO 22006KT 9SM 03/M09 A3015 RMK SLP210 T00321094 54000 IEM_DS3505
ZBAA,2006-02-15 10:00,ZBAA 151000Z AUTO 18002KT 4SM 02/M07 A3018 RMK T00201070 IEM_DS3505
ZBAA,2006-02-15 11:00,ZBAA 151100Z AUTO 21002KT 4SM 01/M08 A3021 RMK T00101080 IEM_DS3505
ZBAA,2006-02-15 12:00,ZBAA 151200Z AUTO 32002KT 9SM 02/M08 A3024 RMK SLP236 T00201084 52026 IEM_DS3505
ZBAA,2006-02-15 13:00,ZBAA 151300Z AUTO 03004KT 2 1/2SM M01/M08 A3027 RMK T10101080 IEM_DS3505
ZBAA,2006-02-15 14:00,ZBAA 151400Z AUTO 30010KT 5SM 02/M13 A3030 RMK T00201130 IEM_DS3505
ZBAA,2006-02-15 15:00,ZBAA 151500Z AUTO 32014G23KT 19SM 04/M22 A3033 RMK SLP264 T00361223 52028 IEM_DS3505
ZBAA,2006-02-15 16:00,ZBAA 151600Z AUTO 31012KT 6SM 01/M20 A3036 RMK T00101200 IEM_DS3505
ZBAA,2006-02-15 17:00,ZBAA 151700Z AUTO 32014KT 6SM 01/M22 A3039 RMK T00101220 IEM_DS3505
ZBAA,2006-02-15 18:00,ZBAA 151800Z AUTO 34012KT 19SM 00/M25 A3042 RMK SLP303 T00041249 40051//// 52038 IEM_DS3505
ZBAA,2006-02-15 19:00,ZBAA 151900Z AUTO 33017KT 6SM M02/M23 A3045 RMK T10201230 IEM_DS3505
ZBAA,2006-02-15 20:00,ZBAA 152000Z AUTO 34019G29KT 6SM M02/M26 A3047 RMK T10201260 IEM_DS3505
ZBAA,2006-02-15 21:00,ZBAA 152100Z AUTO 34012KT 19SM M02/M28 A3047 RMK SLP313 T10211277 52010 IEM_DS3505
ZBAA,2006-02-15 22:00,ZBAA 152200Z AUTO 33016KT 6SM M04/M28 A3050 RMK T10401280 IEM_DS3505
ZBAA,2006-02-15 23:00,ZBAA 152300Z AUTO 32014KT 6SM M04/M27 A3050 RMK T10401270 IEM_DS3505
ZBAA,2006-02-16 00:00,ZBAA 160000Z AUTO 36010KT 19SM M03/M28 A3053 RMK SLP338 T10341279 52025 IEM_DS3505
ZBAA,2006-02-16 01:00,ZBAA 160100Z AUTO 30010KT 6SM M02/M26 A3056 RMK T10201260 IEM_DS3505
ZBAA,2006-02-16 02:00,ZBAA 160200Z AUTO 29010KT 6SM M01/M26 A3056 RMK T10101260 IEM_DS3505
ZBAA,2006-02-16 03:00,ZBAA 160300Z AUTO 32014KT 19SM 00/M27 A3056 RMK SLP348 T00021269 52010 IEM_DS3505
ZBAA,2006-02-16 04:00,ZBAA 160400Z AUTO 31012KT 6SM 01/M25 A3053 RMK T00101250 IEM_DS3505
ZBAA,2006-02-16 05:00,ZBAA 160500Z AUTO 28016G25KT 6SM 02/M26 A3050 RMK T00201260 IEM_DS3505
ZBAA,2006-02-16 06:00,ZBAA 160600Z AUTO 34014G29KT 19SM 02/M27 A3050 RMK SLP330 T00251272 57018 IEM_DS3505
ZBAA,2006-02-16 07:00,ZBAA 160700Z AUTO 28017G27KT 6SM 03/M26 A3047 RMK T00301260 IEM_DS3505
ZBAA,2006-02-16 08:00,ZBAA 160800Z AUTO 28016KT 6SM 03/M27 A3050 RMK T00301270 IEM_DS3505
ZBAA,2006-02-16 09:00,ZBAA 160900Z AUTO 32010KT 19SM 02/M28 A3050 RMK SLP330 T00191277 54000 IEM_DS3505
ZBAA,2006-02-16 10:00,ZBAA 161000Z AUTO 33010KT 6SM 00/M27 A3053 RMK T00001270 IEM_DS3505
ZBAA,2006-02-16 11:00,ZBAA 161100Z AUTO 32006KT 6SM M02/M27 A3053 RMK T10201270 IEM_DS3505
ZBAA,2006-02-16 12:00,ZBAA 161200Z AUTO 34002KT 19SM 00/M27 A3056 RMK SLP347 T00031268 52017 IEM_DS3505
ZBAA,2006-02-16 13:00,ZBAA 161300Z AUTO 35004KT 6SM M03/M26 A3056 RMK T10301260 IEM_DS3505
ZBAA,2006-02-16 14:00,ZBAA 161400Z AUTO 23004KT 6SM M02/M24 A3056 RMK T10201240 IEM_DS3505
ZBAA,2006-02-16 15:00,ZBAA 161500Z AUTO 27002KT 16SM M01/M24 A3056 RMK SLP352 T10101244 52005 IEM_DS3505
ZBAA,2006-02-16 16:00,ZBAA 161600Z AUTO 17004KT 5SM M03/M23 A3056 RMK T10301230 IEM_DS3505
ZBAA,2006-02-16 17:00,ZBAA 161700Z AUTO 26002KT 5SM M02/M23 A3056 RMK T10201230 IEM_DS3505
ZBAA,2006-02-16 18:00,ZBAA 161800Z AUTO 29004KT 19SM M02/M23 A3056 RMK SLP355 T10241229 52003 IEM_DS3505
ZBAA,2006-02-16 19:00,ZBAA 161900Z AUTO 28004KT 6SM M05/M23 A3056 RMK SLP349 T10501230 IEM_DS3505
ZBAA,2006-02-16 20:00,ZBAA 162000Z AUTO 26006KT 6SM M03/M22 A3056 RMK SLP349 T10301220 IEM_DS3505
ZBAA,2006-02-16 21:00,ZBAA 162100Z AUTO 29004KT 19SM M01/M25 A3053 RMK SLP345 T10091251 57010 IEM_DS3505
ZBAA,2006-02-16 22:00,ZBAA 162200Z AUTO 27008KT 6SM M03/M23 A3053 RMK SLP339 T10301230 IEM_DS3505
ZBAA,2006-02-16 23:00,ZBAA 162300Z AUTO 28008KT 6SM M03/M23 A3053 RMK SLP339 T10301230 IEM_DS3505
ZBAA,2006-02-17 00:00,ZBAA 170000Z AUTO 27002KT 12SM M02/M20 A3056 RMK SLP351 T10221201 52006 IEM_DS3505
ZBAA,2006-02-17 01:00,ZBAA 170100Z AUTO 30006KT 6SM 01/M22 A3056 RMK SLP348 T00101220 IEM_DS3505
ZBAA,2006-02-17 02:00,ZBAA 170200Z AUTO 31012KT 6SM 02/M23 A3056 RMK SLP348 T00201230 IEM_DS3505
ZBAA,2006-02-17 03:00,ZBAA 170300Z AUTO 27010KT 19SM 03/M24 A3053 RMK SLP341 T00341243 57010 IEM_DS3505
ZBAA,2006-02-17 04:00,ZBAA 170400Z AUTO 29016KT 6SM 04/M24 A3053 RMK SLP338 T00401240 IEM_DS3505
ZBAA,2006-02-17 05:00,ZBAA 170500Z AUTO 30016G35KT 6SM 06/M24 A3047 RMK SLP316 T00601240 IEM_DS3505
ZBAA,2006-02-17 06:00,ZBAA 170600Z AUTO 25008G27KT 19SM 06/M25 A3042 RMK SLP303 T00551249 57038 IEM_DS3505
ZBAA,2006-02-17 07:00,ZBAA 170700Z AUTO 28016KT 6SM 07/M24 A3039 RMK SLP289 T00701240 IEM_DS3505
ZBAA,2006-02-17 08:00,ZBAA 170800Z AUTO 27017KT 6SM 07/M24 A3036 RMK SLP280 T00701240 IEM_DS3505
ZBAA,2006-02-17 09:00,ZBAA 170900Z AUTO 22008KT 19SM 06/M24 A3036 RMK SLP278 T00551237 57024 IEM_DS3505
ZBAA,2006-02-17 10:00,ZBAA 171000Z AUTO 21010KT 6SM 04/M22 A3033 RMK SLP271 T00401220 IEM_DS3505
ZBAA,2006-02-17 11:00,ZBAA 171100Z AUTO 20008KT 6SM 03/M22 A3033 RMK SLP271 T00301220 IEM_DS3505
ZBAA,2006-02-17 12:00,ZBAA 171200Z AUTO 22004KT 12SM 02/M21 A3033 RMK SLP276 T00161208 57003 IEM_DS3505
ZBAA,2006-02-17 13:00,ZBAA 171300Z AUTO 21006KT 6SM 01/M21 A3033 RMK SLP271 T00101210 IEM_DS3505
ZBAA,2006-02-17 14:00,ZBAA 171400Z AUTO 20008KT 6SM 01/M20 A3033 RMK SLP271 T00101200 IEM_DS3505
ZBAA,2006-02-17 15:00,ZBAA 171500Z AUTO 25004KT 9SM M00/M18 A3033 RMK SLP274 T10041185 57001 IEM_DS3505
ZBAA,2006-02-17 16:00,ZBAA 171600Z AUTO 5SM M01/M19 A3033 RMK SLP271 T10101190 IEM_DS3505
ZBAA,2006-02-17 17:00,ZBAA 171700Z AUTO 23002KT 5SM M02/M18 A3033 RMK SLP271 T10201180 IEM_DS3505
ZBAA,2006-02-17 18:00,ZBAA 171800Z AUTO 25002KT 9SM M03/M17 A3030 RMK SLP263 T10321172 57011 IEM_DS3505
ZBAA,2006-02-17 19:00,ZBAA 171900Z AUTO 36002KT 4SM M04/M18 A3030 RMK SLP262 T10401180 IEM_DS3505
ZBAA,2006-02-17 20:00,ZBAA 172000Z AUTO 36004KT 4SM M06/M18 A3027 RMK SLP252 T10601180 IEM_DS3505
ZBAA,2006-02-17 21:00,ZBAA 172100Z AUTO 27002KT 9SM M05/M16 A3027 RMK SLP250 T10491158 57014 IEM_DS3505
ZBAA,2006-02-17 22:00,ZBAA 172200Z AUTO 24002KT 6SM M06/M18 A3027 RMK SLP252 T10601180 IEM_DS3505
ZBAA,2006-02-17 23:00,ZBAA 172300Z AUTO 28002KT 4SM M07/M17 A3027 RMK SLP252 T10701170 IEM_DS3505
ZBAA,2006-02-18 00:00,ZBAA 180000Z AUTO 22004KT 7SM M04/M14 A3027 RMK SLP255 T10401145 52005 IEM_DS3505
ZBAA,2006-02-18 01:00,ZBAA 180100Z AUTO 03004KT 3SM M02/M16 A3030 RMK SLP261 T10201160 IEM_DS3505
ZBAA,2006-02-18 02:00,ZBAA 180200Z AUTO 02004KT 4SM 01/M17 A3027 RMK SLP251 T00101170 IEM_DS3505
ZBAA,2006-02-18 03:00,ZBAA 180300Z AUTO 22002KT 7SM 08/M18 A3024 RMK SLP241 T00811178 57013 IEM_DS3505
ZBAA,2006-02-18 04:00,ZBAA 180400Z AUTO 27010G19KT 6SM 09/M19 A3021 RMK SLP229 T00901190 IEM_DS3505
ZBAA,2006-02-18 05:00,ZBAA 180500Z AUTO 27012G21KT 6SM 10/M20 A3018 RMK SLP218 T01001200 IEM_DS3505
ZBAA,2006-02-18 06:00,ZBAA 180600Z AUTO 25006G25KT 12SM 10/M22 A3012 RMK SLP207 T00981216 57034 IEM_DS3505
ZBAA,2006-02-18 07:00,ZBAA 180700Z AUTO 22006KT 6SM 11/M20 A3012 RMK SLP198 T01101200 IEM_DS3505
ZBAA,2006-02-18 08:00,ZBAA 180800Z AUTO 23010KT 6SM 10/M20 A3012 RMK SLP198 T01001200 IEM_DS3505
ZBAA,2006-02-18 09:00,ZBAA 180900Z AUTO 22008KT 12SM 09/M21 A3012 RMK SLP198 T00941207 57009 IEM_DS3505
ZBAA,2006-02-18 10:00,ZBAA 181000Z AUTO 22006KT 6SM 07/M20 A3012 RMK SLP199 T00701200 IEM_DS3505
ZBAA,2006-02-18 11:00,ZBAA 181100Z AUTO 22006KT 6SM 05/M19 A3012 RMK SLP199 T00501190 IEM_DS3505
ZBAA,2006-02-18 12:00,ZBAA 181200Z AUTO 25002KT 12SM 04/M19 A3015 RMK SLP208 T00431186 52010 IEM_DS3505
ZBAA,2006-02-18 13:00,ZBAA 181300Z AUTO 21004KT 5SM 02/M17 A3015 RMK SLP210 T00201170 IEM_DS3505
ZBAA,2006-02-18 14:00,ZBAA 181400Z AUTO 21004KT 4SM 02/M16 A3015 RMK SLP210 T00201160 IEM_DS3505
ZBAA,2006-02-18 15:00,ZBAA 181500Z AUTO 25004KT 11SM 02/M17 A3015 RMK SLP213 T00201170 52005 IEM_DS3505
ZBAA,2006-02-18 16:00,ZBAA 181600Z AUTO 03002KT 4SM M01/M17 A3015 RMK SLP210 T10101170 IEM_DS3505
ZBAA,2006-02-18 17:00,ZBAA 181700Z AUTO 07002KT 3SM M02/M17 A3015 RMK SLP210 T10201170 IEM_DS3505
ZBAA,2006-02-18 18:00,ZBAA 181800Z AUTO 16002KT 9SM M01/M17 A3018 RMK SLP212 T10121174 57001 IEM_DS3505
ZBAA,2006-02-18 19:00,ZBAA 181900Z AUTO 36004KT 4SM M03/M17 A3015 RMK SLP210 T10301170 IEM_DS3505
ZBAA,2006-02-18 20:00,ZBAA 182000Z AUTO 34004KT 6SM M03/M17 A3015 RMK SLP210 T10301170 IEM_DS3505
ZBAA,2006-02-18 21:00,ZBAA 182100Z AUTO 33002KT 6SM M04/M14 A3015 RMK SLP209 T10361138 57003 IEM_DS3505
ZBAA,2006-02-18 22:00,ZBAA 182200Z AUTO 34002KT 6SM M06/M18 A3015 RMK SLP211 T10601180 IEM_DS3505
ZBAA,2006-02-18 23:00,ZBAA 182300Z AUTO 34004KT 6SM M06/M17 A3015 RMK SLP211 T10601170 IEM_DS3505
ZBAA,2006-02-19 00:00,ZBAA 190000Z AUTO 22002KT 5SM M03/M12 A3018 RMK SLP219 T10291121 52010 IEM_DS3505
ZBAA,2006-02-19 01:00,ZBAA 190100Z AUTO 02002KT 4SM 00/M16 A3021 RMK SLP230 T00001160 IEM_DS3505
ZBAA,2006-02-19 02:00,ZBAA 190200Z AUTO 03002KT 4SM 02/M15 A3018 RMK SLP220 T00201150 IEM_DS3505
ZBAA,2006-02-19 03:00,ZBAA 190300Z AUTO 04002KT 7SM 08/M17 A3018 RMK SLP215 T00821169 57004 IEM_DS3505
ZBAA,2006-02-19 04:00,ZBAA 190400Z AUTO 10004KT 5SM 08/M16 A3015 RMK SLP209 T00801160 IEM_DS3505
ZBAA,2006-02-19 05:00,ZBAA 190500Z AUTO 15006KT 6SM 11/M17 A3012 RMK SLP198 T01101170 IEM_DS3505
ZBAA,2006-02-19 06:00,ZBAA 190600Z AUTO 20008G19KT 9SM 12/M18 A3009 RMK SLP187 T01221185 57028 IEM_DS3505
ZBAA,2006-02-19 07:00,ZBAA 190700Z AUTO 17010KT 5SM 12/M17 A3006 RMK SLP178 T01201170 IEM_DS3505
ZBAA,2006-02-19 08:00,ZBAA 190800Z AUTO 18008KT 6SM 12/M17 A3006 RMK SLP178 T01201170 IEM_DS3505
ZBAA,2006-02-19 09:00,ZBAA 190900Z AUTO 20008KT 12SM 12/M19 A3003 RMK SLP173 T01171189 57014 IEM_DS3505
ZBAA,2006-02-19 10:00,ZBAA 191000Z AUTO 17006KT 6SM 07/M17 A3003 RMK SLP168 T00701170 IEM_DS3505
ZBAA,2006-02-19 11:00,ZBAA 191100Z AUTO 14004KT 6SM 07/M17 A3006 RMK SLP179 T00701170 IEM_DS3505
ZBAA,2006-02-19 12:00,ZBAA 191200Z AUTO 18004KT 12SM 08/M18 A3006 RMK SLP181 T00781181 52008 IEM_DS3505
ZBAA,2006-02-19 13:00,ZBAA 191300Z AUTO 13006KT 6SM 05/M15 A3006 RMK SLP179 T00501150 IEM_DS3505
ZBAA,2006-02-19 14:00,ZBAA 191400Z AUTO 14006KT 4SM 05/M15 A3006 RMK SLP179 T00501150 IEM_DS3505
ZBAA,2006-02-19 15:00,ZBAA 191500Z AUTO 22004KT 9SM 04/M15 A3006 RMK SLP179 T00361151 57001 IEM_DS3505
ZBAA,2006-02-19 16:00,ZBAA 191600Z AUTO 17004KT 4SM 01/M14 A3003 RMK SLP169 T00101140 IEM_DS3505
ZBAA,2006-02-19 17:00,ZBAA 191700Z AUTO 04004KT 4SM M01/M15 A3003 RMK SLP169 T10101150 IEM_DS3505
ZBAA,2006-02-19 18:00,ZBAA 191800Z AUTO 20002KT 6SM 01/M12 A3003 RMK SLP171 T00131121 57008 IEM_DS3505
ZBAA,2006-02-19 19:00,ZBAA 191900Z AUTO 36004KT 4SM M03/M14 A3003 RMK SLP169 T10301140 IEM_DS3505
ZBAA,2006-02-19 20:00,ZBAA 192000Z AUTO 06002KT 3SM M03/M13 A3003 RMK SLP169 T10301130 IEM_DS3505
ZBAA,2006-02-19 21:00,ZBAA 192100Z AUTO 16004KT 7SM M00/M07 A3000 RMK SLP161 T10031073 57010 IEM_DS3505
ZBAA,2006-02-19 22:00,ZBAA 192200Z AUTO 36004KT 3SM M04/M10 A3003 RMK SLP169 T10401100 IEM_DS3505
ZBAA,2006-02-19 23:00,ZBAA 192300Z AUTO 2SM M03/M07 A3003 RMK SLP169 T10301070 IEM_DS3505
ZBAA,2006-02-20 00:00,ZBAA 200000Z AUTO 04004KT 5SM M02/M06 A3003 RMK SLP165 T10161063 52003 IEM_DS3505
ZBAA,2006-02-20 01:00,ZBAA 200100Z AUTO 03002KT 1 1/2SM 00/M05 A3003 RMK SLP169 T00001050 IEM_DS3505
ZBAA,2006-02-20 02:00,ZBAA 200200Z AUTO 08004KT 1 1/4SM 02/M03 A3003 RMK SLP168 T00201030 IEM_DS3505
ZBAA,2006-02-20 03:00,ZBAA 200300Z AUTO 09004KT 5SM 04/M04 A3003 RMK SLP164 T00381042 57001 IEM_DS3505
ZBAA,2006-02-20 04:00,ZBAA 200400Z AUTO 14006KT 1 1/2SM 06/M01 A3000 RMK SLP158 T00601010 IEM_DS3505
ZBAA,2006-02-20 05:00,ZBAA 200500Z AUTO 09006KT 1 1/2SM 07/M01 A2997 RMK SLP148 T00701010 IEM_DS3505
ZBAA,2006-02-20 06:00,ZBAA 200600Z AUTO 14004KT 6SM 08/M06 A2994 RMK SLP132 T00831055 57031 IEM_DS3505
ZBAA,2006-02-20 07:00,ZBAA 200700Z AUTO 12008KT 2 1/2SM 09/M02 A2991 RMK SLP127 T00901020 IEM_DS3505
ZBAA,2006-02-20 08:00,ZBAA 200800Z AUTO 13006KT 2 1/2SM 09/M02 A2991 RMK SLP127 T00901020 IEM_DS3505
ZBAA,2006-02-20 09:00,ZBAA 200900Z AUTO 14002KT 7SM 09/M03 A2991 RMK SLP124 T00941032 57008 IEM_DS3505
ZBAA,2006-02-20 10:00,ZBAA 201000Z AUTO 10006KT 2SM 07/00 A2991 RMK SLP127 T00700000 IEM_DS3505
ZBAA,2006-02-20 11:00,ZBAA 201100Z AUTO 10004KT 2SM 05/00 A2991 RMK SLP128 T00500000 IEM_DS3505
ZBAA,2006-02-20 12:00,ZBAA 201200Z AUTO 07004KT 6SM 05/M01 A2991 RMK SLP127 T00511009 52002 IEM_DS3505
ZBAA,2006-02-20 13:00,ZBAA 201300Z AUTO 29002KT 1 1/2SM 04/00 A2994 RMK SLP138 T00400000 IEM_DS3505
ZBAA,2006-02-20 14:00,ZBAA 201400Z AUTO 36004KT 1 1/2SM 03/M01 A2994 RMK SLP138 T00301010 IEM_DS3505
ZBAA,2006-02-20 15:00,ZBAA 201500Z AUTO 36002KT 5SM 04/M01 A2994 RMK SLP135 T00391009 52008 IEM_DS3505
ZBAA,2006-02-20 16:00,ZBAA 201600Z AUTO 35004KT 1 1/4SM 01/M02 A2991 RMK SLP128 T00101020 IEM_DS3505
ZBAA,2006-02-20 17:00,ZBAA 201700Z AUTO 36004KT 1SM 01/M02 A2991 RMK SLP128 T00101020 IEM_DS3505
ZBAA,2006-02-20 18:00,ZBAA 201800Z AUTO 36002KT 4SM 03/M01 A2994 RMK SLP143 T00331011 52009 IEM_DS3505
ZBAA,2006-02-20 19:00,ZBAA 201900Z AUTO 19004KT 1SM 00/M02 A2991 RMK SLP129 T00001020 IEM_DS3505
ZBAA,2006-02-20 20:00,ZBAA 202000Z AUTO 33006KT 1SM 00/M02 A2994 RMK SLP139 T00001020 IEM_DS3505
ZBAA,2006-02-20 21:00,ZBAA 202100Z AUTO 11002KT 4SM 02/M02 A2997 RMK SLP146 T00191015 52003 IEM_DS3505
ZBAA,2006-02-20 22:00,ZBAA 202200Z AUTO 34006KT 1 1/4SM 01/M02 A2997 RMK SLP148 T00101020 IEM_DS3505
ZBAA,2006-02-20 23:00,ZBAA 202300Z AUTO 33002KT 1 1/2SM 01/M02 A3000 RMK SLP159 T00101020 IEM_DS3505
ZBAA,2006-02-21 00:00,ZBAA 210000Z AUTO 04004KT 2 1/2SM 03/M01 A3003 RMK SLP173 T00341008 52026 IEM_DS3505
ZBAA,2006-02-21 01:00,ZBAA 210100Z AUTO 34006KT 1 1/4SM 05/00 A3009 RMK SLP189 T00500000 IEM_DS3505
ZBAA,2006-02-21 02:00,ZBAA 210200Z AUTO 32016KT 4SM 10/M08 A3009 RMK SLP188 T01001080 IEM_DS3505
ZBAA,2006-02-21 03:00,ZBAA 210300Z AUTO 34012G27KT 6SM 10/M17 A3015 RMK SLP207 T01011171 52035 IEM_DS3505
ZBAA,2006-02-21 04:00,ZBAA 210400Z AUTO 33016KT 5SM 08/M16 A3018 RMK SLP219 T00801160 IEM_DS3505
ZBAA,2006-02-21 05:00,ZBAA 210500Z AUTO 32023KT 5SM 07/M18 A3021 RMK SLP229 T00701180 IEM_DS3505
ZBAA,2006-02-21 06:00,ZBAA 210600Z AUTO 36014G35KT 7SM 06/M18 A3021 RMK SLP230 T00621178 52022 IEM_DS3505
ZBAA,2006-02-21 07:00,ZBAA 210700Z AUTO 32023G33KT 6SM 06/M19 A3024 RMK SLP239 T00601190 IEM_DS3505
ZBAA,2006-02-21 08:00,ZBAA 210800Z AUTO 35017KT 6SM 06/M21 A3027 RMK SLP250 T00601210 IEM_DS3505
ZBAA,2006-02-21 09:00,ZBAA 210900Z AUTO 02010KT 19SM 05/M21 A3027 RMK SLP254 T00541208 52024 IEM_DS3505
ZBAA,2006-02-21 10:00,ZBAA 211000Z AUTO 35012KT 6SM 04/M20 A3033 RMK SLP271 T00401200 IEM_DS3505
ZBAA,2006-02-21 11:00,ZBAA 211100Z AUTO 35010KT 6SM 03/M20 A3039 RMK SLP290 T00301200 IEM_DS3505
ZBAA,2006-02-21 12:00,ZBAA 211200Z AUTO 02006KT 19SM 04/M22 A3039 RMK SLP290 T00371222 52036 IEM_DS3505
ZBAA,2006-02-21 13:00,ZBAA 211300Z AUTO 36008KT 6SM 01/M19 A3045 RMK SLP311 T00101190 IEM_DS3505
ZBAA,2006-02-21 14:00,ZBAA 211400Z AUTO 01010KT 6SM 01/M20 A3047 RMK SLP317 T00101200 IEM_DS3505
ZBAA,2006-02-21 15:00,ZBAA 211500Z AUTO 02008KT 19SM 01/M22 A3050 RMK SLP321 T00141217 52031 IEM_DS3505
ZBAA,2006-02-21 16:00,ZBAA 211600Z AUTO 01006KT 6SM M02/M19 A3050 RMK SLP329 T10201190 IEM_DS3505
ZBAA,2006-02-21 17:00,ZBAA 211700Z AUTO 36006KT 6SM M03/M20 A3050 RMK SLP329 T10301200 IEM_DS3505
ZBAA,2006-02-21 18:00,ZBAA 211800Z AUTO 04004KT 19SM M01/M20 A3050 RMK SLP322 T10111201 52001 IEM_DS3505
ZBAA,2006-02-21 19:00,ZBAA 211900Z AUTO 34006KT 6SM M06/M20 A3050 RMK SLP329 T10601200 IEM_DS3505
ZBAA,2006-02-21 20:00,ZBAA 212000Z AUTO 32006KT 6SM M06/M19 A3050 RMK SLP329 T10601190 IEM_DS3505
ZBAA,2006-02-21 21:00,ZBAA 212100Z AUTO 02004KT 19SM M02/M23 A3050 RMK SLP323 T10241229 54000 IEM_DS3505
ZBAA,2006-02-21 22:00,ZBAA 212200Z AUTO 02004KT 6SM M04/M20 A3050 RMK SLP329 T10401200 IEM_DS3505
ZBAA,2006-02-21 23:00,ZBAA 212300Z AUTO 36006KT 6SM M05/M19 A3050 RMK SLP329 T10501190 IEM_DS3505
ZBAA,2006-02-22 00:00,ZBAA 220000Z AUTO 04006KT 19SM M01/M25 A3050 RMK SLP326 T10121246 52003 IEM_DS3505
ZBAA,2006-02-22 01:00,ZBAA 220100Z AUTO 02006KT 6SM M02/M18 A3050 RMK SLP329 T10201180 IEM_DS3505
ZBAA,2006-02-22 02:00,ZBAA 220200Z AUTO 03006KT 6SM 00/M20 A3047 RMK SLP317 T00001200 IEM_DS3505
ZBAA,2006-02-22 03:00,ZBAA 220300Z AUTO 25004KT 19SM 03/M24 A3047 RMK SLP317 T00321245 57009 IEM_DS3505
ZBAA,2006-02-22 04:00,ZBAA 220400Z AUTO 6SM 03/M22 A3045 RMK SLP311 T00301220 IEM_DS3505
ZBAA,2006-02-22 05:00,ZBAA 220500Z AUTO 20010KT 6SM 05/M22 A3042 RMK SLP299 T00501220 IEM_DS3505
ZBAA,2006-02-22 06:00,ZBAA 220600Z AUTO 22010G23KT 19SM 06/M21 A3036 RMK SLP279 T00551208 57037 IEM_DS3505
ZBAA,2006-02-22 07:00,ZBAA 220700Z AUTO 20012KT 6SM 06/M20 A3033 RMK SLP270 T00601200 IEM_DS3505
ZBAA,2006-02-22 08:00,ZBAA 220800Z AUTO 20014KT 6SM 06/M19 A3030 RMK SLP260 T00601190 IEM_DS3505
ZBAA,2006-02-22 09:00,ZBAA 220900Z AUTO 20010KT 19SM 06/M20 A3030 RMK SLP264 T00571197 57015 IEM_DS3505
ZBAA,2006-02-22 10:00,ZBAA 221000Z AUTO 19008KT 6SM 04/M18 A3030 RMK SLP260 T00401180 IEM_DS3505
ZBAA,2006-02-22 11:00,ZBAA 221100Z AUTO 17008KT 6SM 02/M17 A3033 RMK SLP271 T00201170 IEM_DS3505
ZBAA,2006-02-22 12:00,ZBAA 221200Z AUTO 22006KT 12SM 03/M18 A3033 RMK SLP270 T00261175 52005 IEM_DS3505
ZBAA,2006-02-22 13:00,ZBAA 221300Z AUTO 16006G16KT 6SM 01/M17 A3033 RMK SLP271 T00101170 IEM_DS3505
ZBAA,2006-02-22 14:00,ZBAA 221400Z AUTO 18004KT 6SM 01/M16 A3033 RMK SLP271 T00101160 IEM_DS3505
ZBAA,2006-02-22 15:00,ZBAA 221500Z AUTO 25008KT 12SM 02/M17 A3036 RMK SLP272 T00161168 52003 IEM_DS3505
ZBAA,2006-02-22 16:00,ZBAA 221600Z AUTO 04006KT 6SM M02/M15 A3036 RMK SLP281 T10201150 IEM_DS3505
ZBAA,2006-02-22 17:00,ZBAA 221700Z AUTO 01004KT 6SM M04/M16 A3036 RMK SLP282 T10401160 IEM_DS3505
ZBAA,2006-02-22 18:00,ZBAA 221800Z AUTO 36006KT 19SM 03/M20 A3039 RMK SLP285 T00341201 52013 IEM_DS3505
ZBAA,2006-02-22 19:00,ZBAA 221900Z AUTO 28004KT 6SM M02/M15 A3039 RMK SLP291 T10201150 IEM_DS3505
ZBAA,2006-02-22 20:00,ZBAA 222000Z AUTO 33006KT 6SM M04/M17 A3042 RMK SLP301 T10401170 IEM_DS3505
ZBAA,2006-02-22 21:00,ZBAA 222100Z AUTO 11008KT 19SM 00/M20 A3042 RMK SLP298 T00051199 52013 IEM_DS3505
ZBAA,2006-02-22 22:00,ZBAA 222200Z AUTO 01006KT 6SM M02/M21 A3045 RMK SLP312 T10201210 IEM_DS3505
ZBAA,2006-02-22 23:00,ZBAA 222300Z AUTO 32010KT 6SM M01/M23 A3045 RMK SLP311 T10101230 IEM_DS3505
ZBAA,2006-02-23 00:00,ZBAA 230000Z AUTO 34004KT 19SM 00/M23 A3045 RMK SLP308 T00041233 52009 IEM_DS3505
ZBAA,2006-02-23 01:00,ZBAA 230100Z AUTO 33008KT 6SM 03/M23 A3047 RMK SLP317 T00301230 IEM_DS3505
ZBAA,2006-02-23 02:00,ZBAA 230200Z AUTO 01008KT 6SM 04/M23 A3045 RMK SLP311 T00401230 IEM_DS3505
ZBAA,2006-02-23 03:00,ZBAA 230300Z AUTO 07008KT 19SM 05/M24 A3045 RMK SLP303 T00511241 57004 IEM_DS3505
ZBAA,2006-02-23 04:00,ZBAA 230400Z AUTO 06008KT 6SM 06/M23 A3042 RMK SLP299 T00601230 IEM_DS3505
ZBAA,2006-02-23 05:00,ZBAA 230500Z AUTO 05006KT 6SM 06/M23 A3039 RMK SLP289 T00601230 IEM_DS3505
ZBAA,2006-02-23 06:00,ZBAA 230600Z AUTO 16002KT 19SM 07/M24 A3039 RMK SLP283 T00701238 57020 IEM_DS3505
ZBAA,2006-02-23 07:00,ZBAA 230700Z AUTO 6SM 07/M23 A3036 RMK SLP280 T00701230 IEM_DS3505
ZBAA,2006-02-23 08:00,ZBAA 230800Z AUTO 14004KT 6SM 07/M22 A3033 RMK SLP270 T00701220 IEM_DS3505
ZBAA,2006-02-23 09:00,ZBAA 230900Z AUTO 16006KT 19SM 06/M22 A3033 RMK SLP272 T00651219 57011 IEM_DS3505
ZBAA,2006-02-23 10:00,ZBAA 231000Z AUTO 14008KT 6SM 04/M18 A3036 RMK SLP281 T00401180 IEM_DS3505
ZBAA,2006-02-23 11:00,ZBAA 231100Z AUTO 16008KT 16SM 03/M16 A3036 RMK SLP281 T00301160 IEM_DS3505
ZBAA,2006-02-23 12:00,ZBAA 231200Z AUTO 16008KT 16SM 02/M17 A3039 RMK SLP289 T00231172 52016 IEM_DS3505
ZBAA,2006-02-23 13:00,ZBAA 231300Z AUTO 14012KT 6SM 00/M10 A3042 RMK SLP300 T00001100 IEM_DS3505
ZBAA,2006-02-23 14:00,ZBAA 231400Z AUTO 13008G17KT 6SM M01/M07 A3045 RMK SLP311 T10101070 IEM_DS3505
ZBAA,2006-02-23 15:00,ZBAA 231500Z AUTO 09004KT 12SM M02/M07 A3045 RMK SLP307 T10171074 52018 IEM_DS3505
ZBAA,2006-02-23 16:00,ZBAA 231600Z AUTO 12006KT 6SM M02/M08 A3045 RMK SLP312 T10201080 IEM_DS3505
ZBAA,2006-02-23 17:00,ZBAA 231700Z AUTO 11004KT 6SM M03/M09 A3045 RMK SLP312 T10301090 IEM_DS3505
ZBAA,2006-02-23 18:00,ZBAA 231800Z AUTO 04004KT 9SM M03/M09 A3045 RMK SLP306 T10321086 57001 IEM_DS3505
ZBAA,2006-02-23 19:00,ZBAA 231900Z AUTO 11002KT 6SM M04/M10 A3045 RMK SLP312 T10401100 IEM_DS3505
ZBAA,2006-02-23 20:00,ZBAA 232000Z AUTO 17004KT 6SM M05/M12 A3042 RMK SLP301 T10501120 IEM_DS3505
ZBAA,2006-02-23 21:00,ZBAA 232100Z AUTO 07004KT 9SM M04/M12 A3042 RMK SLP291 T10371119 57015 IEM_DS3505
ZBAA,2006-02-23 22:00,ZBAA 232200Z AUTO 27004KT 6SM M04/M11 A3042 RMK SLP301 T10401110 IEM_DS3505
ZBAA,2006-02-23 23:00,ZBAA 232300Z AUTO 35006KT 6SM M04/M11 A3042 RMK SLP301 T10401110 IEM_DS3505
ZBAA,2006-02-24 00:00,ZBAA 240000Z AUTO 07006KT 12SM M02/M14 A3042 RMK SLP298 T10231138 52007 IEM_DS3505
ZBAA,2006-02-24 01:00,ZBAA 240100Z AUTO 02002KT 6SM M01/M12 A3042 RMK SLP300 T10101120 IEM_DS3505
ZBAA,2006-02-24 02:00,ZBAA 240200Z AUTO 6SM M01/M12 A3042 RMK SLP300 T10101120 IEM_DS3505
ZBAA,2006-02-24 03:00,ZBAA 240300Z AUTO 09008KT 12SM M00/M13 A3039 RMK SLP287 T10031129 57011 IEM_DS3505
ZBAA,2006-02-24 04:00,ZBAA 240400Z AUTO 12008KT 6SM 00/M11 A3036 RMK SLP281 T00001110 IEM_DS3505
ZBAA,2006-02-24 05:00,ZBAA 240500Z AUTO 10008KT 6SM 01/M11 A3030 RMK SLP261 T00101110 IEM_DS3505
ZBAA,2006-02-24 06:00,ZBAA 240600Z AUTO 09006KT 12SM 01/M11 A3027 RMK SLP247 T00091112 57040 IEM_DS3505
ZBAA,2006-02-24 07:00,ZBAA 240700Z AUTO 14008KT 6SM 01/M10 A3024 RMK SLP240 T00101100 IEM_DS3505
ZBAA,2006-02-24 08:00,ZBAA 240800Z AUTO 14008KT 6SM 00/M07 A3024 RMK SLP240 T00001070 IEM_DS3505
ZBAA,2006-02-24 09:00,ZBAA 240900Z AUTO 09008KT 12SM M01/M08 A3024 RMK SLP236 T10071075 57011 IEM_DS3505
ZBAA,2006-02-24 10:00,ZBAA 241000Z AUTO 13006KT 5SM M01/M08 A3024 RMK SLP240 T10101080 IEM_DS3505
ZBAA,2006-02-24 11:00,ZBAA 241100Z AUTO 11008KT 4SM M01/M08 A3024 RMK SLP240 T10101080 IEM_DS3505
ZBAA,2006-02-24 12:00,ZBAA 241200Z AUTO 09008KT 9SM M01/M07 A3024 RMK SLP239 T10131066 52003 IEM_DS3505
ZBAA,2006-02-24 13:00,ZBAA 241300Z AUTO 11002KT 4SM M01/M06 A3024 RMK SLP240 T10101060 IEM_DS3505
ZBAA,2006-02-24 14:00,ZBAA 241400Z AUTO 14004KT 4SM M01/M06 A3024 RMK SLP240 T10101060 IEM_DS3505
ZBAA,2006-02-24 15:00,ZBAA 241500Z AUTO 07004KT 9SM M01/M07 A3024 RMK SLP240 T10141067 52001 IEM_DS3505
ZBAA,2006-02-24 16:00,ZBAA 241600Z AUTO 35002KT 4SM M01/M06 A3024 RMK SLP240 T10101060 IEM_DS3505
ZBAA,2006-02-24 17:00,ZBAA 241700Z AUTO 29004KT 3SM M01/M06 A3024 RMK SLP240 T10101060 IEM_DS3505
ZBAA,2006-02-24 18:00,ZBAA 241800Z AUTO 04002KT 7SM M01/M06 A3024 RMK SLP239 T10101063 57001 IEM_DS3505
ZBAA,2006-02-24 19:00,ZBAA 241900Z AUTO 29006KT 3SM M01/M06 A3021 RMK SLP230 T10101060 IEM_DS3505
ZBAA,2006-02-24 20:00,ZBAA 242000Z AUTO 31006KT 2 1/2SM M01/M06 A3021 RMK SLP230 T10101060 IEM_DS3505
ZBAA,2006-02-24 21:00,ZBAA 242100Z AUTO 04004KT 7SM M01/M06 A3021 RMK SLP224 T10071059 57015 IEM_DS3505
ZBAA,2006-02-24 22:00,ZBAA 242200Z AUTO 36008KT 3SM M01/M06 A3021 RMK SLP230 T10101060 IEM_DS3505
ZBAA,2006-02-24 23:00,ZBAA 242300Z AUTO 02004KT 3SM M01/M07 A3024 RMK SLP240 T10101070 IEM_DS3505
ZBAA,2006-02-25 00:00,ZBAA 250000Z AUTO 04002KT 6SM M00/M07 A3024 RMK SLP244 T10031069 52020 IEM_DS3505
ZBAA,2006-02-25 01:00,ZBAA 250100Z AUTO 36008KT 4SM 01/M07 A3027 RMK SLP251 T00101070 IEM_DS3505
ZBAA,2006-02-25 02:00,ZBAA 250200Z AUTO 36010KT 4SM 02/M07 A3030 RMK SLP261 T00201070 IEM_DS3505
ZBAA,2006-02-25 03:00,ZBAA 250300Z AUTO 04006KT 7SM 03/M08 A3030 RMK SLP257 T00321085 52014 IEM_DS3505
ZBAA,2006-02-25 04:00,ZBAA 250400Z AUTO 03010KT 4SM 04/M10 A3030 RMK SLP260 T00401100 IEM_DS3505
ZBAA,2006-02-25 05:00,ZBAA 250500Z AUTO 02008KT 6SM 05/M11 A3027 RMK SLP250 T00501110 IEM_DS3505
ZBAA,2006-02-25 06:00,ZBAA 250600Z AUTO 02008KT 12SM 06/M16 A3027 RMK SLP244 T00651155 57013 IEM_DS3505
ZBAA,2006-02-25 07:00,ZBAA 250700Z AUTO 04006KT 6SM 07/M14 A3027 RMK SLP250 T00701140 IEM_DS3505
ZBAA,2006-02-25 08:00,ZBAA 250800Z AUTO 06008KT 6SM 07/M15 A3027 RMK SLP250 T00701150 IEM_DS3505
ZBAA,2006-02-25 09:00,ZBAA 250900Z AUTO 07008KT 16SM 07/M16 A3030 RMK SLP253 T00661160 52009 IEM_DS3505
ZBAA,2006-02-25 10:00,ZBAA 251000Z AUTO 04010KT 6SM 05/M18 A3033 RMK SLP270 T00501180 IEM_DS3505
ZBAA,2006-02-25 11:00,ZBAA 251100Z AUTO 03012KT 6SM 03/M18 A3039 RMK SLP290 T00301180 IEM_DS3505
ZBAA,2006-02-25 12:00,ZBAA 251200Z AUTO 11006KT 9SM 00/ A3045 RMK SLP313 52059 IEM_DS3505
ZBAA,2006-02-25 13:00,ZBAA 251300Z AUTO 02006KT 5SM 00/M09 A3050 RMK SLP328 T00001090 IEM_DS3505
ZBAA,2006-02-25 14:00,ZBAA 251400Z AUTO 36008KT 6SM 00/M15 A3053 RMK SLP338 T00001150 IEM_DS3505
ZBAA,2006-02-25 15:00,ZBAA 251500Z AUTO 07002KT 12SM M02/ A3056 RMK SLP346 52033 IEM_DS3505
ZBAA,2006-02-25 16:00,ZBAA 251600Z AUTO 35010KT 6SM M03/M17 A3056 RMK SLP349 T10301170 IEM_DS3505
ZBAA,2006-02-25 17:00,ZBAA 251700Z AUTO 35010KT 6SM M04/M17 A3059 RMK SLP359 T10401170 IEM_DS3505
ZBAA,2006-02-25 18:00,ZBAA 251800Z AUTO 36008KT 19SM M02/M22 A3059 RMK SLP359 T10181218 52013 IEM_DS3505
ZBAA,2006-02-25 19:00,ZBAA 251900Z AUTO 34008KT 6SM M06/M18 A3059 RMK SLP359 T10601180 IEM_DS3505
ZBAA,2006-02-25 20:00,ZBAA 252000Z AUTO 35010KT 6SM M06/M20 A3059 RMK SLP359 T10601200 IEM_DS3505
ZBAA,2006-02-25 21:00,ZBAA 252100Z AUTO 36008KT 19SM M03/M22 A3059 RMK SLP362 T10301217 52003 IEM_DS3505
ZBAA,2006-02-25 22:00,ZBAA 252200Z AUTO 31012KT 6SM M04/M23 A3062 RMK SLP369 T10401230 IEM_DS3505
ZBAA,2006-02-25 23:00,ZBAA 252300Z AUTO 01008KT 6SM M05/M21 A3062 RMK SLP369 T10501210 IEM_DS3505
ZBAA,2006-02-26 00:00,ZBAA 260000Z AUTO 36006KT 19SM M03/M22 A3065 RMK SLP379 T10281216 52017 IEM_DS3505
ZBAA,2006-02-26 01:00,ZBAA 260100Z AUTO 01006KT 6SM M03/M20 A3068 RMK SLP389 T10301200 IEM_DS3505
ZBAA,2006-02-26 02:00,ZBAA 260200Z AUTO 04006KT 6SM M03/M21 A3068 RMK SLP389 T10301210 IEM_DS3505
ZBAA,2006-02-26 03:00,ZBAA 260300Z AUTO 34006KT 19SM M01/M23 A3065 RMK SLP382 T10061233 52003 IEM_DS3505
ZBAA,2006-02-26 04:00,ZBAA 260400Z AUTO 01006KT 6SM M01/M22 A3065 RMK SLP379 T10101220 IEM_DS3505
ZBAA,2006-02-26 05:00,ZBAA 260500Z AUTO 30006KT 6SM 01/M23 A3062 RMK SLP368 T00101230 IEM_DS3505
ZBAA,2006-02-26 06:00,ZBAA 260600Z AUTO 32002KT 19SM 02/M24 A3059 RMK SLP359 T00201245 57023 IEM_DS3505
ZBAA,2006-02-26 07:00,ZBAA 260700Z AUTO 6SM 02/M23 A3059 RMK SLP358 T00201230 IEM_DS3505
ZBAA,2006-02-26 08:00,ZBAA 260800Z AUTO 6SM 02/M23 A3056 RMK SLP348 T00201230 IEM_DS3505
ZBAA,2006-02-26 09:00,ZBAA 260900Z AUTO 25006KT 19SM 02/M17 A3056 RMK SLP351 T00161173 57008 IEM_DS3505
ZBAA,2006-02-26 10:00,ZBAA 261000Z AUTO 14006KT 6SM 01/M22 A3056 RMK SLP348 T00101220 IEM_DS3505
ZBAA,2006-02-26 11:00,ZBAA 261100Z AUTO 18006KT 6SM M01/M19 A3059 RMK SLP359 T10101190 IEM_DS3505
ZBAA,2006-02-26 12:00,ZBAA 261200Z AUTO 25008KT 16SM M00/M12 A3059 RMK SLP367 T10011118 52016 IEM_DS3505
ZBAA,2006-02-26 13:00,ZBAA 261300Z AUTO 23006KT 6SM 00/M12 A3062 RMK SLP369 T00001120 IEM_DS3505
ZBAA,2006-02-26 14:00,ZBAA 261400Z AUTO 6SM 00/M10 A3065 RMK SLP379 T00001100 IEM_DS3505
ZBAA,2006-02-26 15:00,ZBAA 261500Z AUTO 22004KT 9SM M02/M12 A3065 RMK SLP384 T10201115 52017 IEM_DS3505
ZBAA,2006-02-26 16:00,ZBAA 261600Z AUTO 10004KT 3SM M03/M13 A3065 RMK SLP379 T10301130 IEM_DS3505
ZBAA,2006-02-26 17:00,ZBAA 261700Z AUTO 04002KT 3SM M04/M12 A3065 RMK SLP379 T10401120 IEM_DS3505
ZBAA,2006-02-26 18:00,ZBAA 261800Z AUTO 20002KT 7SM M03/M10 A3068 RMK SLP383 T10261099 57001 IEM_DS3505
ZBAA,2006-02-26 19:00,ZBAA 261900Z AUTO 35006KT 4SM M06/M16 A3065 RMK SLP380 T10601160 IEM_DS3505
ZBAA,2006-02-26 20:00,ZBAA 262000Z AUTO 35006KT 5SM M06/M18 A3068 RMK SLP390 T10601180 IEM_DS3505
ZBAA,2006-02-26 21:00,ZBAA 262100Z AUTO 18002KT 6SM M05/ A3068 RMK SLP389 52006 IEM_DS3505
ZBAA,2006-02-26 22:00,ZBAA 262200Z AUTO 34006KT 6SM M06/M19 A3068 RMK SLP390 T10601190 IEM_DS3505
ZBAA,2006-02-26 23:00,ZBAA 262300Z AUTO 33006KT 6SM M07/M20 A3068 RMK SLP390 T10701200 IEM_DS3505
ZBAA,2006-02-27 00:00,ZBAA 270000Z AUTO 04002KT 5SM M03/ A3071 RMK SLP401 52012 IEM_DS3505
ZBAA,2006-02-27 01:00,ZBAA 270100Z AUTO 34008KT 6SM M02/M20 A3071 RMK SLP400 T10201200 IEM_DS3505
ZBAA,2006-02-27 02:00,ZBAA 270200Z AUTO 01008KT 6SM M02/M20 A3071 RMK SLP400 T10201200 IEM_DS3505
ZBAA,2006-02-27 03:00,ZBAA 270300Z AUTO 04006KT 9SM 00/M21 A3071 RMK SLP396 T00051211 57005 IEM_DS3505
ZBAA,2006-02-27 04:00,ZBAA 270400Z AUTO 03004KT 6SM 01/M21 A3071 RMK SLP399 T00101210 IEM_DS3505
ZBAA,2006-02-27 05:00,ZBAA 270500Z AUTO 09002KT 6SM 01/M20 A3068 RMK SLP388 T00101200 IEM_DS3505
ZBAA,2006-02-27 06:00,ZBAA 270600Z AUTO 07004KT 12SM 02/M21 A3065 RMK SLP376 T00151209 57020 IEM_DS3505
ZBAA,2006-02-27 07:00,ZBAA 270700Z AUTO 14004KT 6SM 02/M17 A3062 RMK SLP368 T00201170 IEM_DS3505
ZBAA,2006-02-27 08:00,ZBAA 270800Z AUTO 14006KT 4SM 01/M14 A3062 RMK SLP368 T00101140 IEM_DS3505
ZBAA,2006-02-27 09:00,ZBAA 270900Z AUTO 20004KT 9SM 01/M17 A3062 RMK SLP368 T00131171 57008 IEM_DS3505
ZBAA,2006-02-27 10:00,ZBAA 271000Z AUTO 18006KT 3SM 01/M15 A3062 RMK SLP368 T00101150 IEM_DS3505
ZBAA,2006-02-27 11:00,ZBAA 271100Z AUTO 15004KT 3SM 00/M14 A3062 RMK SLP369 T00001140 IEM_DS3505
ZBAA,2006-02-27 12:00,ZBAA 271200Z AUTO 27006KT 7SM 00/M10 A3062 RMK SLP370 T00051095 52002 IEM_DS3505
ZBAA,2006-02-27 13:00,ZBAA 271300Z AUTO 16004KT 3SM 00/M10 A3062 RMK SLP369 T00001100 IEM_DS3505
ZBAA,2006-02-27 14:00,ZBAA 271400Z AUTO 22006KT 6SM 00/M09 A3062 RMK SLP369 T00001090 IEM_DS3505
ZBAA,2006-02-27 15:00,ZBAA 271500Z AUTO 18008KT 9SM M00/M09 A3062 RMK SLP364 T10041088 57006 IEM_DS3505
ZBAA,2006-02-27 16:00,ZBAA 271600Z AUTO 19008KT 6SM M01/M06 A3059 RMK SLP359 T10101060 IEM_DS3505
ZBAA,2006-02-27 17:00,ZBAA 271700Z AUTO 17008KT 4SM M02/M05 A3059 RMK SLP359 T10201050 IEM_DS3505
ZBAA,2006-02-27 18:00,ZBAA 271800Z AUTO 22006KT 6SM M03/M04 A3056 RMK 60002 SLP351 T10291042 57013 IEM_DS3505
ZBAA,2006-02-27 19:00,ZBAA 271900Z AUTO 17006KT 2 1/2SM M03/M04 A3053 RMK SLP339 T10301040 IEM_DS3505
ZBAA,2006-02-27 20:00,ZBAA 272000Z AUTO 18008KT 2 1/2SM M03/M04 A3050 RMK SLP329 T10301040 IEM_DS3505
ZBAA,2006-02-27 21:00,ZBAA 272100Z AUTO 22004KT 6SM M04/M05 A3050 RMK 70002 SLP325 T10371050 57026 IEM_DS3505
ZBAA,2006-02-27 22:00,ZBAA 272200Z AUTO 18006KT 2 1/2SM M03/M04 A3047 RMK SLP318 T10301040 IEM_DS3505
ZBAA,2006-02-27 23:00,ZBAA 272300Z AUTO 17006KT 1 1/2SM M04/M04 A3047 RMK SLP318 T10401040 IEM_DS3505
ZBAA,2006-02-28 00:00,ZBAA 280000Z AUTO 20006KT 4SM M04/M05 A3047 RMK 60000 70003 SLP323 T10381051 57002 IEM_DS3505
ZBAA,2006-02-28 01:00,ZBAA 280100Z AUTO 18008KT 1SM M03/M03 A3047 RMK SLP318 T10301030 IEM_DS3505
ZBAA,2006-02-28 02:00,ZBAA 280200Z AUTO 17006KT 1SM M03/M03 A3047 RMK SLP318 T10301030 IEM_DS3505
ZBAA,2006-02-28 03:00,ZBAA 280300Z AUTO 25004KT 4SM M02/M05 A3045 RMK SLP307 T10251047 57016 IEM_DS3505
ZBAA,2006-02-28 04:00,ZBAA 280400Z AUTO 17004KT 1 1/4SM M02/M04 A3042 RMK SLP301 T10201040 IEM_DS3505
ZBAA,2006-02-28 05:00,ZBAA 280500Z AUTO 15006KT 1 1/4SM M01/M04 A3039 RMK SLP290 T10101040 IEM_DS3505
ZBAA,2006-02-28 06:00,ZBAA 280600Z AUTO 22006G17KT 5SM M01/M05 A3036 RMK 60000 SLP276 T10101047 57031 IEM_DS3505
ZBAA,2006-02-28 07:00,ZBAA 280700Z AUTO 16006KT 1 1/4SM M01/M04 A3033 RMK SLP271 T10101040 IEM_DS3505
ZBAA,2006-02-28 08:00,ZBAA 280800Z AUTO 17004KT 1 1/2SM M01/M04 A3033 RMK SLP271 T10101040 IEM_DS3505
ZBAA,2006-02-28 09:00,ZBAA 280900Z AUTO 25006KT 5SM 00/M04 A3033 RMK SLP265 T00041042 57011 IEM_DS3505
ZBAA,2006-02-28 10:00,ZBAA 281000Z AUTO 12004KT 1 1/4SM M01/M04 A3030 RMK SLP261 T10101040 IEM_DS3505
ZBAA,2006-02-28 11:00,ZBAA 281100Z AUTO 05006KT 1 1/4SM M02/M04 A3033 RMK SLP271 T10201040 IEM_DS3505
ZBAA,2006-02-28 12:00,ZBAA 281200Z AUTO 27006KT 4SM M01/M04 A3033 RMK 60000 SLP267 T10131035 52002 IEM_DS3505
ZBAA,2006-02-28 13:00,ZBAA 281300Z AUTO 04004KT 1SM M03/M05 A3033 RMK SLP272 T10301050 IEM_DS3505
ZBAA,2006-02-28 14:00,ZBAA 281400Z AUTO 36004KT 1SM M04/M05 A3033 RMK SLP272 T10401050 IEM_DS3505
ZBAA,2006-02-28 15:00,ZBAA 281500Z AUTO 22002KT 4SM M03/M06 A3033 RMK SLP268 T10331059 52001 IEM_DS3505
ZBAA,2006-02-28 16:00,ZBAA 281600Z AUTO 30006KT 1 1/4SM M04/M04 A3033 RMK T10401040 IEM_DS3505
ZBAA,2006-02-28 17:00,ZBAA 281700Z AUTO 29008KT 6SM 00/M10 A3030 RMK SLP261 T00001100 IEM_DS3505
ZBAA,2006-02-28 18:00,ZBAA 281800Z AUTO 29004KT 12SM 00/M13 A3030 RMK SLP265 T00031127 57003 IEM_DS3505
ZBAA,2006-02-28 19:00,ZBAA 281900Z AUTO 28012KT 6SM M01/M11 A3030 RMK SLP261 T10101110 IEM_DS3505
ZBAA,2006-02-28 20:00,ZBAA 282000Z AUTO 28006KT 6SM M01/M12 A3027 RMK SLP251 T10101120 IEM_DS3505
ZBAA,2006-02-28 21:00,ZBAA 282100Z AUTO 25002KT 12SM M02/M12 A3027 RMK 70000 SLP252 T10241124 57013 IEM_DS3505
ZBAA,2006-02-28 22:00,ZBAA 282200Z AUTO 36006KT 6SM M05/M08 A3027 RMK SLP252 T10501080 IEM_DS3505
ZBAA,2006-02-28 23:00,ZBAA 282300Z AUTO 34006KT 2SM M07/M10 A3027 RMK SLP252 T10701100 IEM_DS3505
ZBAA,2006-03-01 00:00,ZBAA 010000Z AUTO 20002KT 11SM M01/M09 A3027 RMK 70000 SLP251 T10081092 57001 IEM_DS3505
ZBAA,2006-03-01 01:00,ZBAA 010100Z AUTO 01004KT 2 1/2SM M01/M07 A3027 RMK T10101070 IEM_DS3505
ZBAA,2006-03-01 02:00,ZBAA 010200Z AUTO 33004KT 5SM 04/M09 A3027 RMK SLP250 T00401090 IEM_DS3505
ZBAA,2006-03-01 03:00,ZBAA 010300Z AUTO 25004KT 19SM 06/M14 A3024 RMK SLP239 T00551135 57011 IEM_DS3505
ZBAA,2006-03-01 04:00,ZBAA 010400Z AUTO 35006KT 6SM 07/M12 A3021 RMK SLP229 T00701120 IEM_DS3505
ZBAA,2006-03-01 05:00,ZBAA 010500Z AUTO 27014G25KT 6SM 08/M15 A3018 RMK SLP219 T00801150 IEM_DS3505
ZBAA,2006-03-01 06:00,ZBAA 010600Z AUTO 32010G23KT 19SM 08/M16 A3018 RMK SLP214 T00811162 57025 IEM_DS3505
ZBAA,2006-03-01 07:00,ZBAA 010700Z AUTO 31017KT 6SM 08/M14 A3015 RMK SLP209 T00801140 IEM_DS3505
ZBAA,2006-03-01 08:00,ZBAA 010800Z AUTO 30016KT 6SM 08/M13 A3015 RMK SLP209 T00801130 IEM_DS3505
ZBAA,2006-03-01 09:00,ZBAA 010900Z AUTO 34012KT 19SM 07/M16 A3018 RMK SLP217 T00691165 52003 IEM_DS3505
ZBAA,2006-03-01 10:00,ZBAA 011000Z AUTO 32017G27KT 6SM 05/M16 A3018 RMK SLP219 T00501160 IEM_DS3505
ZBAA,2006-03-01 11:00,ZBAA 011100Z AUTO 32016KT 6SM 05/M15 A3021 RMK SLP229 T00501150 IEM_DS3505
ZBAA,2006-03-01 12:00,ZBAA 011200Z AUTO 34006KT 19SM 05/M16 A3024 RMK SLP238 T00481157 52021 IEM_DS3505
ZBAA,2006-03-01 13:00,ZBAA 011300Z AUTO 31012KT 6SM 04/M14 A3024 RMK SLP239 T00401140 IEM_DS3505
ZBAA,2006-03-01 14:00,ZBAA 011400Z AUTO 33014KT 6SM 03/M14 A3024 RMK SLP240 T00301140 IEM_DS3505
ZBAA,2006-03-01 15:00,ZBAA 011500Z AUTO 22002KT 19SM M01/M14 A3024 RMK SLP241 T10081140 52003 IEM_DS3505
ZBAA,2006-03-01 16:00,ZBAA 011600Z AUTO 34010KT 6SM 02/M13 A3024 RMK SLP240 T00201130 IEM_DS3505
ZBAA,2006-03-01 17:00,ZBAA 011700Z AUTO 34010KT 6SM 01/M14 A3024 RMK SLP240 T00101140 IEM_DS3505
ZBAA,2006-03-01 18:00,ZBAA 011800Z AUTO 34010KT 12SM M02/M11 A3024 RMK SLP238 T10191112 57003 IEM_DS3505
ZBAA,2006-03-01 19:00,ZBAA 011900Z AUTO 32019G29KT 6SM 02/M20 A3024 RMK SLP240 T00201200 IEM_DS3505
ZBAA,2006-03-01 20:00,ZBAA 012000Z AUTO 31016G27KT 6SM 01/M20 A3024 RMK SLP240 T00101200 IEM_DS3505
ZBAA,2006-03-01 21:00,ZBAA 012100Z AUTO 36004KT 16SM M00/M19 A3021 RMK SLP237 T10021188 57001 IEM_DS3505
ZBAA,2006-03-01 22:00,ZBAA 012200Z AUTO 29008G17KT 6SM 00/M20 A3024 RMK SLP240 T00001200 IEM_DS3505
ZBAA,2006-03-01 23:00,ZBAA 012300Z AUTO 27006KT 6SM M02/M19 A3024 RMK SLP240 T10201190 IEM_DS3505
ZBAA,2006-03-02 00:00,ZBAA 020000Z AUTO 34004KT 19SM 01/M20 A3024 RMK SLP243 T00081202 52006 IEM_DS3505
ZBAA,2006-03-02 01:00,ZBAA 020100Z AUTO 30010G19KT 6SM 03/M21 A3024 RMK SLP240 T00301210 IEM_DS3505
ZBAA,2006-03-02 02:00,ZBAA 020200Z AUTO 30014KT 6SM 04/M21 A3024 RMK SLP239 T00401210 IEM_DS3505
ZBAA,2006-03-02 03:00,ZBAA 020300Z AUTO 29006KT 19SM 05/M22 A3024 RMK SLP233 T00511220 57010 IEM_DS3505
ZBAA,2006-03-02 04:00,ZBAA 020400Z AUTO 28014G23KT 6SM 06/M20 A3021 RMK SLP229 T00601200 IEM_DS3505
ZBAA,2006-03-02 05:00,ZBAA 020500Z AUTO 28010KT 6SM 08/M20 A3015 RMK SLP209 T00801200 IEM_DS3505
ZBAA,2006-03-02 06:00,ZBAA 020600Z AUTO 04004KT 19SM 08/M22 A3012 RMK SLP198 T00801218 57035 IEM_DS3505
ZBAA,2006-03-02 07:00,ZBAA 020700Z AUTO 35012KT 6SM 09/M19 A3009 RMK SLP188 T00901190 IEM_DS3505
ZBAA,2006-03-02 08:00,ZBAA 020800Z AUTO 06006KT 6SM 08/M20 A3009 RMK SLP189 T00801200 IEM_DS3505
ZBAA,2006-03-02 09:00,ZBAA 020900Z AUTO 22004KT 19SM 08/M22 A3009 RMK SLP188 T00811217 57010 IEM_DS3505
ZBAA,2006-03-02 10:00,ZBAA 021000Z AUTO 08006KT 6SM 06/M20 A3009 RMK SLP189 T00601200 IEM_DS3505
ZBAA,2006-03-02 11:00,ZBAA 021100Z AUTO 13008KT 6SM 05/M19 A3012 RMK SLP199 T00501190 IEM_DS3505
ZBAA,2006-03-02 12:00,ZBAA 021200Z AUTO 14004KT 12SM 05/M21 A3012 RMK SLP200 T00491212 52012 IEM_DS3505
ZBAA,2006-03-02 13:00,ZBAA 021300Z AUTO 06006KT 6SM 01/M17 A3015 RMK SLP210 T00101170 IEM_DS3505
ZBAA,2006-03-02 14:00,ZBAA 021400Z AUTO 09006KT 6SM 02/M18 A3015 RMK SLP210 T00201180 IEM_DS3505
ZBAA,2006-03-02 15:00,ZBAA 021500Z AUTO 18006KT 12SM 03/M19 A3015 RMK SLP210 T00271193 52010 IEM_DS3505
ZBAA,2006-03-02 16:00,ZBAA 021600Z AUTO 03004KT 6SM 00/M17 A3015 RMK SLP210 T00001170 IEM_DS3505
ZBAA,2006-03-02 17:00,ZBAA 021700Z AUTO 08004KT 6SM 00/M17 A3015 RMK SLP210 T00001170 IEM_DS3505
ZBAA,2006-03-02 18:00,ZBAA 021800Z AUTO 20004KT 9SM M00/M17 A3018 RMK SLP212 T10031166 52002 IEM_DS3505
ZBAA,2006-03-02 19:00,ZBAA 021900Z AUTO 09008KT 6SM M02/M17 A3015 RMK SLP210 T10201170 IEM_DS3505
ZBAA,2006-03-02 20:00,ZBAA 022000Z AUTO 10006KT 4SM M02/M17 A3015 RMK SLP210 T10201170 IEM_DS3505
ZBAA,2006-03-02 21:00,ZBAA 022100Z AUTO 09004KT 9SM M03/M14 A3015 RMK SLP205 T10301144 57007 IEM_DS3505
ZBAA,2006-03-02 22:00,ZBAA 022200Z AUTO 03004KT 4SM M04/M14 A3015 RMK SLP210 T10401140 IEM_DS3505
ZBAA,2006-03-02 23:00,ZBAA 022300Z AUTO 04002KT 4SM M04/M13 A3015 RMK SLP210 T10401130 IEM_DS3505
ZBAA,2006-03-03 00:00,ZBAA 030000Z AUTO 09004KT 7SM M03/M12 A3018 RMK SLP216 T10281123 52011 IEM_DS3505
ZBAA,2006-03-03 01:00,ZBAA 030100Z AUTO 07004KT 4SM M01/M09 A3018 RMK SLP220 T10101090 IEM_DS3505
ZBAA,2006-03-03 02:00,ZBAA 030200Z AUTO 09004KT 4SM 00/M09 A3018 RMK SLP220 T00001090 IEM_DS3505
ZBAA,2006-03-03 03:00,ZBAA 030300Z AUTO 09006KT 7SM 03/M10 A3015 RMK SLP208 T00271105 57008 IEM_DS3505
ZBAA,2006-03-03 04:00,ZBAA 030400Z AUTO 08006KT 4SM 04/M09 A3012 RMK SLP199 T00401090 IEM_DS3505
ZBAA,2006-03-03 05:00,ZBAA 030500Z AUTO 15004KT 4SM 06/M09 A3009 RMK SLP189 T00601090 IEM_DS3505
ZBAA,2006-03-03 06:00,ZBAA 030600Z AUTO 16004KT 7SM 08/M11 A3006 RMK SLP173 T00791114 57035 IEM_DS3505
ZBAA,2006-03-03 07:00,ZBAA 030700Z AUTO 22006KT 4SM 08/M09 A3003 RMK SLP168 T00801090 IEM_DS3505
ZBAA,2006-03-03 08:00,ZBAA 030800Z AUTO 19004KT 4SM 09/M09 A3000 RMK SLP157 T00901090 IEM_DS3505
ZBAA,2006-03-03 09:00,ZBAA 030900Z AUTO 22004KT 7SM 09/M11 A2997 RMK SLP153 T00941107 57020 IEM_DS3505
ZBAA,2006-03-03 10:00,ZBAA 031000Z AUTO 04004KT 3SM 06/M09 A2997 RMK T00601090 IEM_DS3505
ZBAA,2006-03-03 11:00,ZBAA 031100Z AUTO 05002KT 3SM 04/M09 A3000 RMK SLP158 T00401090 IEM_DS3505
ZBAA,2006-03-03 12:00,ZBAA 031200Z AUTO 06004KT 7SM 04/M10 A3000 RMK SLP158 T00421095 52005 IEM_DS3505
ZBAA,2006-03-03 13:00,ZBAA 031300Z AUTO 04004KT 3SM 03/M09 A3000 RMK SLP158 T00301090 IEM_DS3505
ZBAA,2006-03-03 14:00,ZBAA 031400Z AUTO 09008KT 3SM 02/M08 A3000 RMK SLP158 T00201080 IEM_DS3505
ZBAA,2006-03-03 15:00,ZBAA 031500Z AUTO 07004KT 7SM 04/M08 A3000 RMK SLP149 T00371080 57009 IEM_DS3505
ZBAA,2006-03-03 16:00,ZBAA 031600Z AUTO 06002KT 4SM 02/M07 A2997 RMK SLP148 T00201070 IEM_DS3505
ZBAA,2006-03-03 17:00,ZBAA 031700Z AUTO 35002KT 4SM 02/M07 A2997 RMK SLP148 T00201070 IEM_DS3505
ZBAA,2006-03-03 18:00,ZBAA 031800Z AUTO 02004KT 7SM 03/M06 A2994 RMK SLP139 T00281058 57009 IEM_DS3505
ZBAA,2006-03-03 19:00,ZBAA 031900Z AUTO 34002KT 4SM 03/M07 A2991 RMK SLP128 T00301070 IEM_DS3505
ZBAA,2006-03-03 20:00,ZBAA 032000Z AUTO 30004KT 4SM 01/M07 A2988 RMK SLP118 T00101070 IEM_DS3505
ZBAA,2006-03-03 21:00,ZBAA 032100Z AUTO 25002KT 7SM 01/M07 A2988 RMK SLP119 T00071073 57020 IEM_DS3505
ZBAA,2006-03-03 22:00,ZBAA 032200Z AUTO 29006KT 4SM 01/M07 A2988 RMK SLP118 T00101070 IEM_DS3505
ZBAA,2006-03-03 23:00,ZBAA 032300Z AUTO 31006KT 4SM 01/M06 A2991 RMK SLP128 T00101060 IEM_DS3505
ZBAA,2006-03-04 00:00,ZBAA 040000Z AUTO 29002KT 5SM 02/M05 A2991 RMK SLP132 T00161053 52012 IEM_DS3505
ZBAA,2006-03-04 01:00,ZBAA 040100Z AUTO 36008KT 2 1/2SM 04/M02 A2994 RMK SLP138 T00401020 IEM_DS3505
ZBAA,2006-03-04 02:00,ZBAA 040200Z AUTO 01004KT 2 1/2SM 06/M01 A2994 RMK SLP138 T00601010 IEM_DS3505
ZBAA,2006-03-04 03:00,ZBAA 040300Z AUTO 29002KT 6SM 10/M06 A2997 RMK SLP144 T00991064 52013 IEM_DS3505
ZBAA,2006-03-04 04:00,ZBAA 040400Z AUTO 08004KT 3SM 12/M03 A2994 RMK SLP137 T01201030 IEM_DS3505
ZBAA,2006-03-04 05:00,ZBAA 040500Z AUTO 28016KT 6SM 15/M12 A2991 RMK SLP126 T01501120 IEM_DS3505
ZBAA,2006-03-04 06:00,ZBAA 040600Z AUTO 22004KT 19SM 16/M14 A2988 RMK SLP124 T01601145 57020 IEM_DS3505
ZBAA,2006-03-04 07:00,ZBAA 040700Z AUTO 27016G25KT 6SM 16/M15 A2988 RMK SLP116 T01601150 IEM_DS3505
ZBAA,2006-03-04 08:00,ZBAA 040800Z AUTO 28016G25KT 6SM 17/M14 A2988 RMK SLP116 T01701140 IEM_DS3505
ZBAA,2006-03-04 09:00,ZBAA 040900Z AUTO 22004KT 19SM 16/M14 A2991 RMK SLP126 T01611144 52002 IEM_DS3505
ZBAA,2006-03-04 10:00,ZBAA 041000Z AUTO 20008KT 6SM 15/M12 A2991 RMK SLP126 T01501120 IEM_DS3505
ZBAA,2006-03-04 11:00,ZBAA 041100Z AUTO 18010KT 6SM 13/M12 A2991 RMK SLP127 T01301120 IEM_DS3505
ZBAA,2006-03-04 12:00,ZBAA 041200Z AUTO 18006KT 16SM 12/M13 A2994 RMK SLP137 T01161134 52011 IEM_DS3505
ZBAA,2006-03-04 13:00,ZBAA 041300Z AUTO 16008KT 4SM 08/M11 A2994 RMK SLP137 T00801110 IEM_DS3505
ZBAA,2006-03-04 14:00,ZBAA 041400Z AUTO 11012KT 1 1/4SM 05/00 A2997 RMK SLP148 T00500000 IEM_DS3505
ZBAA,2006-03-04 15:00,ZBAA 041500Z AUTO 09004KT 9SM 05/M04 A3000 RMK SLP154 T00491036 52017 IEM_DS3505
ZBAA,2006-03-04 16:00,ZBAA 041600Z AUTO 09008KT 1 1/2SM 02/00 A3000 RMK SLP158 T00200000 IEM_DS3505
ZBAA,2006-03-04 17:00,ZBAA 041700Z AUTO 09006KT 1 1/2SM 01/00 A3003 RMK SLP169 T00100000 IEM_DS3505
ZBAA,2006-03-04 18:00,ZBAA 041800Z AUTO 09008KT 6SM 01/M01 A3003 RMK SLP169 T00071014 52015 IEM_DS3505
ZBAA,2006-03-04 19:00,ZBAA 041900Z AUTO 22002KT 1 1/4SM 00/M01 A3003 RMK SLP169 T00001010 IEM_DS3505
ZBAA,2006-03-04 20:00,ZBAA 042000Z AUTO 00000KT 1SM 00/M01 A3003 RMK SLP169 T00001010 IEM_DS3505
ZBAA,2006-03-04 21:00,ZBAA 042100Z AUTO 11002KT 5SM M00/M02 A3003 RMK SLP166 T10011018 57003 IEM_DS3505
ZBAA,2006-03-04 22:00,ZBAA 042200Z AUTO 36002KT 1SM M01/M02 A3003 RMK SLP169 T10101020 IEM_DS3505
ZBAA,2006-03-04 23:00,ZBAA 042300Z AUTO 33006KT 1SM M03/M03 A3003 RMK T10301030 IEM_DS3505
ZBAA,2006-03-05 00:00,ZBAA 050000Z AUTO 04002KT 2SM 01/M01 A3006 RMK SLP175 T00091010 52009 IEM_DS3505
ZBAA,2006-03-05 01:00,ZBAA 050100Z AUTO 33006KT 1SM 03/01 A3006 RMK SLP179 T00300010 IEM_DS3505
ZBAA,2006-03-05 02:00,ZBAA 050200Z AUTO 36008KT 1SM 07/00 A3006 RMK SLP179 T00700000 IEM_DS3505
ZBAA,2006-03-05 03:00,ZBAA 050300Z AUTO 04006KT 5SM 10/M04 A3006 RMK SLP179 T00981042 52004 IEM_DS3505
ZBAA,2006-03-05 04:00,ZBAA 050400Z AUTO 02010KT 6SM 14/M12 A3006 RMK SLP178 T01401120 IEM_DS3505
ZBAA,2006-03-05 05:00,ZBAA 050500Z AUTO 04008KT 6SM 14/M14 A3003 RMK SLP167 T01401140 IEM_DS3505
ZBAA,2006-03-05 06:00,ZBAA 050600Z AUTO 07002KT 9SM 16/M16 A3000 RMK SLP158 T01581158 57021 IEM_DS3505
ZBAA,2006-03-05 07:00,ZBAA 050700Z AUTO 04008KT 6SM 15/M15 A3000 RMK SLP156 T01501150 IEM_DS3505
ZBAA,2006-03-05 08:00,ZBAA 050800Z AUTO 02008KT 6SM 15/M15 A3000 RMK SLP156 T01501150 IEM_DS3505
ZBAA,2006-03-05 09:00,ZBAA 050900Z AUTO 11008KT 9SM 14/M09 A3003 RMK SLP162 T01431090 52004 IEM_DS3505
ZBAA,2006-03-05 10:00,ZBAA 051000Z AUTO 03014KT 6SM 12/ A3006 RMK SLP178 IEM_DS3505
ZBAA,2006-03-05 11:00,ZBAA 051100Z AUTO 04016KT 6SM 11/M16 A3009 RMK SLP188 T01101160 IEM_DS3505
ZBAA,2006-03-05 12:00,ZBAA 051200Z AUTO 14012KT 12SM 09/ A3015 RMK SLP218 52055 IEM_DS3505
ZBAA,2006-03-05 13:00,ZBAA 051300Z AUTO 13006KT 6SM 08/M04 A3024 RMK SLP239 T00801040 IEM_DS3505
ZBAA,2006-03-05 14:00,ZBAA 051400Z AUTO 13004KT 4SM 05/M04 A3027 RMK SLP250 T00501040 IEM_DS3505
ZBAA,2006-03-05 15:00,ZBAA 051500Z AUTO 16004KT 9SM 03/M09 A3030 RMK SLP262 T00281088 52044 IEM_DS3505
ZBAA,2006-03-05 16:00,ZBAA 051600Z AUTO 19006KT 4SM 02/M07 A3030 RMK SLP261 T00201070 IEM_DS3505
ZBAA,2006-03-05 17:00,ZBAA 051700Z AUTO 18006KT 4SM 00/M07 A3033 RMK SLP271 T00001070 IEM_DS3505
ZBAA,2006-03-05 18:00,ZBAA 051800Z AUTO 09002KT 9SM 01/M08 A3033 RMK SLP271 T00101075 52010 IEM_DS3505
ZBAA,2006-03-05 19:00,ZBAA 051900Z AUTO 18006KT 5SM M01/M08 A3033 RMK SLP271 T10101080 IEM_DS3505
ZBAA,2006-03-05 20:00,ZBAA 052000Z AUTO 18004KT 5SM 00/M07 A3033 RMK SLP271 T00001070 IEM_DS3505
ZBAA,2006-03-05 21:00,ZBAA 052100Z AUTO 18004KT 12SM 01/M09 A3036 RMK SLP277 T00061086 52005 IEM_DS3505
ZBAA,2006-03-05 22:00,ZBAA 052200Z AUTO 19006KT 4SM M02/M07 A3036 RMK SLP281 T10201070 IEM_DS3505
ZBAA,2006-03-05 23:00,ZBAA 052300Z AUTO 20006KT 4SM M01/M07 A3039 RMK SLP290 T10101070 IEM_DS3505
ZBAA,2006-03-06 00:00,ZBAA 060000Z AUTO 18004KT 9SM 01/M09 A3042 RMK SLP295 T00071088 52018 IEM_DS3505
ZBAA,2006-03-06 01:00,ZBAA 060100Z AUTO 18012KT 6SM 02/M09 A3042 RMK SLP300 T00201090 IEM_DS3505
ZBAA,2006-03-06 02:00,ZBAA 060200Z AUTO 17012KT 6SM 03/M09 A3042 RMK SLP300 T00301090 IEM_DS3505
ZBAA,2006-03-06 03:00,ZBAA 060300Z AUTO 20010KT 12SM 05/M11 A3039 RMK SLP280 T00501107 57015 IEM_DS3505
ZBAA,2006-03-06 04:00,ZBAA 060400Z AUTO 17010KT 6SM 05/M11 A3033 RMK SLP270 T00501110 IEM_DS3505
ZBAA,2006-03-06 05:00,ZBAA 060500Z AUTO 15010KT 6SM 06/M10 A3027 RMK SLP250 T00601100 IEM_DS3505
ZBAA,2006-03-06 06:00,ZBAA 060600Z AUTO 18012KT 12SM 07/M11 A3024 RMK SLP233 T00741109 57047 IEM_DS3505
ZBAA,2006-03-06 07:00,ZBAA 060700Z AUTO 19010KT 6SM 08/M08 A3018 RMK SLP219 T00801080 IEM_DS3505
ZBAA,2006-03-06 08:00,ZBAA 060800Z AUTO 18010KT 6SM 08/M10 A3015 RMK SLP209 T00801100 IEM_DS3505
ZBAA,2006-03-06 09:00,ZBAA 060900Z AUTO 22010KT 12SM 07/M11 A3012 RMK SLP200 T00741109 57033 IEM_DS3505
ZBAA,2006-03-06 10:00,ZBAA 061000Z AUTO 18010KT 6SM 06/M09 A3012 RMK SLP199 T00601090 IEM_DS3505
ZBAA,2006-03-06 11:00,ZBAA 061100Z AUTO 17006KT 6SM 04/M10 A3012 RMK SLP199 T00401100 IEM_DS3505
ZBAA,2006-03-06 12:00,ZBAA 061200Z AUTO 18010KT 12SM 03/M10 A3012 RMK SLP195 T00321101 57005 IEM_DS3505
ZBAA,2006-03-06 13:00,ZBAA 061300Z AUTO 14008KT 6SM 02/M08 A3012 RMK SLP200 T00201080 IEM_DS3505
ZBAA,2006-03-06 14:00,ZBAA 061400Z AUTO 12008KT 6SM 01/M07 A3009 RMK SLP190 T00101070 IEM_DS3505
ZBAA,2006-03-06 15:00,ZBAA 061500Z AUTO 14004KT 12SM 00/M08 A3009 RMK SLP187 T00051077 57008 IEM_DS3505
ZBAA,2006-03-06 16:00,ZBAA 061600Z AUTO 03004KT 6SM M01/M08 A3009 RMK SLP190 T10101080 IEM_DS3505
ZBAA,2006-03-06 17:00,ZBAA 061700Z AUTO 10006KT 6SM M01/M07 A3006 RMK SLP180 T10101070 IEM_DS3505
ZBAA,2006-03-06 18:00,ZBAA 061800Z AUTO 07004KT 9SM M01/M08 A3009 RMK SLP183 T10081076 57004 IEM_DS3505
ZBAA,2006-03-06 19:00,ZBAA 061900Z AUTO 00000KT 6SM M04/M09 A3006 RMK SLP180 T10401090 IEM_DS3505
ZBAA,2006-03-06 20:00,ZBAA 062000Z AUTO 01004KT 6SM M02/M08 A3006 RMK SLP180 T10201080 IEM_DS3505
ZBAA,2006-03-06 21:00,ZBAA 062100Z AUTO 07002KT 9SM M02/M06 A3003 RMK SLP175 T10161065 57008 IEM_DS3505
ZBAA,2006-03-06 22:00,ZBAA 062200Z AUTO 34002KT 6SM M03/M08 A3006 RMK SLP180 T10301080 IEM_DS3505
ZBAA,2006-03-06 23:00,ZBAA 062300Z AUTO 35006KT 5SM M04/M09 A3006 RMK SLP180 T10401090 IEM_DS3505
ZBAA,2006-03-07 00:00,ZBAA 070000Z AUTO 04002KT 7SM 00/M06 A3009 RMK SLP184 T00041065 52009 IEM_DS3505
ZBAA,2006-03-07 01:00,ZBAA 070100Z AUTO 35010KT 6SM 02/M08 A3009 RMK SLP189 T00201080 IEM_DS3505
ZBAA,2006-03-07 02:00,ZBAA 070200Z AUTO 36008KT 6SM 06/M08 A3009 RMK SLP189 T00601080 IEM_DS3505
ZBAA,2006-03-07 03:00,ZBAA 070300Z AUTO 04008KT 9SM 08/M10 A3009 RMK SLP186 T00831101 52002 IEM_DS3505
ZBAA,2006-03-07 04:00,ZBAA 070400Z AUTO 03008KT 6SM 13/M12 A3006 RMK SLP178 T01301120 IEM_DS3505
ZBAA,2006-03-07 05:00,ZBAA 070500Z AUTO 03006KT 6SM A3006 RMK SLP178 IEM_DS3505
ZBAA,2006-03-07 06:00,ZBAA 070600Z AUTO 14006KT 9SM 14/M11 A3003 RMK SLP176 T01441111 57009 IEM_DS3505
ZBAA,2006-03-07 07:00,ZBAA 070700Z AUTO 14008KT 6SM 15/M09 A3003 RMK SLP167 T01501090 IEM_DS3505
ZBAA,2006-03-07 08:00,ZBAA 070800Z AUTO 14010KT 6SM 15/M10 A3006 RMK SLP178 T01501100 IEM_DS3505
ZBAA,2006-03-07 09:00,ZBAA 070900Z AUTO 16008KT 9SM 13/M09 A3006 RMK SLP184 T01321093 52008 IEM_DS3505
ZBAA,2006-03-07 10:00,ZBAA 071000Z AUTO 16008KT 4SM 11/M07 A3009 RMK SLP188 T01101070 IEM_DS3505
ZBAA,2006-03-07 11:00,ZBAA 071100Z AUTO 14010KT 4SM 09/M04 A3015 RMK SLP209 T00901040 IEM_DS3505
ZBAA,2006-03-07 12:00,ZBAA 071200Z AUTO 11006KT 9SM 06/M06 A3021 RMK SLP225 T00631060 52040 IEM_DS3505
ZBAA,2006-03-07 13:00,ZBAA 071300Z AUTO 13008KT 5SM 05/M09 A3024 RMK SLP239 T00501090 IEM_DS3505
ZBAA,2006-03-07 14:00,ZBAA 071400Z AUTO 10006KT 6SM 04/M09 A3027 RMK SLP250 T00401090 IEM_DS3505
ZBAA,2006-03-07 15:00,ZBAA 071500Z AUTO 09006KT 9SM 03/M09 A3027 RMK SLP252 T00341086 52027 IEM_DS3505
ZBAA,2006-03-07 16:00,ZBAA 071600Z AUTO 00000KT 6SM 02/M08 A3030 RMK SLP261 T00201080 IEM_DS3505
ZBAA,2006-03-07 17:00,ZBAA 071700Z AUTO 6SM 02/M09 A3030 RMK SLP261 T00201090 IEM_DS3505
ZBAA,2006-03-07 18:00,ZBAA 071800Z AUTO 04002KT 9SM 04/M10 A3030 RMK SLP259 T00391098 52008 IEM_DS3505
ZBAA,2006-03-07 19:00,ZBAA 071900Z AUTO 6SM 03/M09 A3030 RMK SLP261 T00301090 IEM_DS3505
ZBAA,2006-03-07 20:00,ZBAA 072000Z AUTO 00000KT 6SM 02/M09 A3030 RMK SLP261 T00201090 IEM_DS3505
ZBAA,2006-03-07 21:00,ZBAA 072100Z AUTO 07004KT 9SM 04/M12 A3030 RMK SLP256 T00401124 57003 IEM_DS3505
ZBAA,2006-03-07 22:00,ZBAA 072200Z AUTO 33004KT 6SM 02/M10 A3033 RMK SLP271 T00201100 IEM_DS3505
ZBAA,2006-03-07 23:00,ZBAA 072300Z AUTO 34002KT 6SM 01/M09 A3033 RMK SLP271 T00101090 IEM_DS3505
ZBAA,2006-03-08 00:00,ZBAA 080000Z AUTO 07006KT 9SM 05/M12 A3033 RMK SLP265 T00491121 52008 IEM_DS3505
ZBAA,2006-03-08 01:00,ZBAA 080100Z AUTO 35004KT 5SM 05/M10 A3036 RMK SLP280 T00501100 IEM_DS3505
ZBAA,2006-03-08 02:00,ZBAA 080200Z AUTO 5SM 07/M12 A3036 RMK SLP280 T00701120 IEM_DS3505
ZBAA,2006-03-08 03:00,ZBAA 080300Z AUTO 09008KT 9SM 08/M11 A3036 RMK SLP270 T00801113 52005 IEM_DS3505
ZBAA,2006-03-08 04:00,ZBAA 080400Z AUTO 12008KT 6SM 09/M12 A3033 RMK SLP270 T00901120 IEM_DS3505
ZBAA,2006-03-08 05:00,ZBAA 080500Z AUTO 13010KT 6SM 10/M13 A3030 RMK SLP260 T01001130 IEM_DS3505
ZBAA,2006-03-08 06:00,ZBAA 080600Z AUTO 11008KT 12SM 10/M11 A3027 RMK SLP246 T01021106 57024 IEM_DS3505
ZBAA,2006-03-08 07:00,ZBAA 080700Z AUTO 13008KT 6SM 11/M11 A3024 RMK SLP238 T01101110 IEM_DS3505
ZBAA,2006-03-08 08:00,ZBAA 080800Z AUTO 15010KT 6SM 10/M09 A3027 RMK SLP250 T01001090 IEM_DS3505
ZBAA,2006-03-08 09:00,ZBAA 080900Z AUTO 11010KT 16SM 08/M15 A3027 RMK SLP245 T00841146 57001 IEM_DS3505
ZBAA,2006-03-08 10:00,ZBAA 081000Z AUTO 13008KT 6SM 08/M09 A3027 RMK SLP250 T00801090 IEM_DS3505
ZBAA,2006-03-08 11:00,ZBAA 081100Z AUTO 14008KT 6SM 06/M11 A3030 RMK SLP260 T00601110 IEM_DS3505
ZBAA,2006-03-08 12:00,ZBAA 081200Z AUTO 14004KT 12SM 05/M13 A3030 RMK SLP259 T00521127 52014 IEM_DS3505
ZBAA,2006-03-08 13:00,ZBAA 081300Z AUTO 16004KT 6SM 04/M10 A3030 RMK SLP260 T00401100 IEM_DS3505
ZBAA,2006-03-08 14:00,ZBAA 081400Z AUTO 14004KT 6SM 04/M11 A3030 RMK SLP260 T00401110 IEM_DS3505
ZBAA,2006-03-08 15:00,ZBAA 081500Z AUTO 09004KT 9SM 03/M10 A3030 RMK SLP255 T00261100 57004 IEM_DS3505
ZBAA,2006-03-08 16:00,ZBAA 081600Z AUTO 17002KT 6SM 02/M11 A3027 RMK SLP251 T00201110 IEM_DS3505
ZBAA,2006-03-08 17:00,ZBAA 081700Z AUTO 10002KT 6SM 02/M10 A3027 RMK SLP251 T00201100 IEM_DS3505
ZBAA,2006-03-08 18:00,ZBAA 081800Z AUTO 07002KT 9SM 01/M10 A3024 RMK SLP239 T00131099 57016 IEM_DS3505
ZBAA,2006-03-08 19:00,ZBAA 081900Z AUTO 00000KT 6SM 00/M10 A3021 RMK SLP230 T00001100 IEM_DS3505
ZBAA,2006-03-08 20:00,ZBAA 082000Z AUTO 00000KT 4SM M01/M09 A3018 RMK SLP220 T10101090 IEM_DS3505
ZBAA,2006-03-08 21:00,ZBAA 082100Z AUTO 36002KT 7SM M01/M09 A3018 RMK SLP218 T10101091 57021 IEM_DS3505
ZBAA,2006-03-08 22:00,ZBAA 082200Z AUTO 28002KT 4SM M01/M09 A3018 RMK SLP220 T10101090 IEM_DS3505
ZBAA,2006-03-08 23:00,ZBAA 082300Z AUTO 4SM M01/M09 A3015 RMK SLP210 T10101090 IEM_DS3505
ZBAA,2006-03-09 00:00,ZBAA 090000Z AUTO 07002KT 6SM 02/M08 A3015 RMK SLP211 T00191082 57007 IEM_DS3505
ZBAA,2006-03-09 01:00,ZBAA 090100Z AUTO 03002KT 4SM 02/M10 A3015 RMK SLP210 T00201100 IEM_DS3505
ZBAA,2006-03-09 02:00,ZBAA 090200Z AUTO 4SM 04/M08 A3012 RMK SLP199 T00401080 IEM_DS3505
ZBAA,2006-03-09 03:00,ZBAA 090300Z AUTO 14004KT 9SM 06/M04 A3009 RMK SLP190 T00581038 57021 IEM_DS3505
ZBAA,2006-03-09 04:00,ZBAA 090400Z AUTO 14004KT 4SM 06/M04 A3006 RMK SLP179 T00601040 IEM_DS3505
ZBAA,2006-03-09 05:00,ZBAA 090500Z AUTO 14006KT 4SM 07/M04 A3003 RMK SLP168 T00701040 IEM_DS3505
ZBAA,2006-03-09 06:00,ZBAA 090600Z AUTO 18004KT 9SM 09/M06 A2997 RMK SLP143 T00921058 57046 IEM_DS3505
ZBAA,2006-03-09 07:00,ZBAA 090700Z AUTO 4SM 09/M04 A2994 RMK SLP137 T00901040 IEM_DS3505
ZBAA,2006-03-09 08:00,ZBAA 090800Z AUTO 14004KT 4SM 10/M04 A2991 RMK SLP127 T01001040 IEM_DS3505
ZBAA,2006-03-09 09:00,ZBAA 090900Z AUTO 22008KT 9SM 10/M05 A2988 RMK SLP116 T01021053 57027 IEM_DS3505
ZBAA,2006-03-09 10:00,ZBAA 091000Z AUTO 15006KT 4SM 09/M04 A2988 RMK SLP117 T00901040 IEM_DS3505
ZBAA,2006-03-09 11:00,ZBAA 091100Z AUTO 15004KT 4SM 07/M04 A2988 RMK SLP117 T00701040 IEM_DS3505
ZBAA,2006-03-09 12:00,ZBAA 091200Z AUTO 16004KT 6SM 08/M05 A2988 RMK SLP112 T00821053 57004 IEM_DS3505
ZBAA,2006-03-09 13:00,ZBAA 091300Z AUTO 03002KT 4SM 06/M03 A2985 RMK SLP107 T00601030 IEM_DS3505
ZBAA,2006-03-09 14:00,ZBAA 091400Z AUTO 36002KT 3SM 05/M03 A2988 RMK SLP118 T00501030 IEM_DS3505
ZBAA,2006-03-09 15:00,ZBAA 091500Z AUTO 09002KT 6SM 07/M04 A2988 RMK SLP118 T00681040 52006 IEM_DS3505
ZBAA,2006-03-09 16:00,ZBAA 091600Z AUTO 35002KT 3SM 06/M03 A2988 RMK SLP118 T00601030 IEM_DS3505
ZBAA,2006-03-09 17:00,ZBAA 091700Z AUTO 34004KT 3SM 06/M03 A2988 RMK SLP118 T00601030 IEM_DS3505
ZBAA,2006-03-09 18:00,ZBAA 091800Z AUTO 04004KT 6SM 07/M02 A2988 RMK SLP117 T00711023 57001 IEM_DS3505
ZBAA,2006-03-09 19:00,ZBAA 091900Z AUTO 33002KT 3SM 06/M03 A2988 RMK SLP118 T00601030 IEM_DS3505
ZBAA,2006-03-09 20:00,ZBAA 092000Z AUTO 29012KT 1 1/2SM 09/M05 A2988 RMK SLP117 T00901050 IEM_DS3505
ZBAA,2006-03-09 21:00,ZBAA 092100Z AUTO 34006G31KT 5SM 12/ A2991 RMK SLP132 52015 IEM_DS3505
ZBAA,2006-03-09 22:00,ZBAA 092200Z AUTO 30019G29KT 2 1/2SM 11/M21 A2991 RMK SLP127 T01101210 IEM_DS3505
ZBAA,2006-03-09 23:00,ZBAA 092300Z AUTO 31023KT 3SM 10/M20 A2997 RMK SLP147 T01001200 IEM_DS3505
ZBAA,2006-03-10 00:00,ZBAA 100000Z AUTO 36004G33KT 5SM 10/M21 A3000 RMK SLP158 T01041212 52026 IEM_DS3505
ZBAA,2006-03-10 01:00,ZBAA 100100Z AUTO 31016KT 5SM 11/M15 A3003 RMK SLP167 T01101150 IEM_DS3505
ZBAA,2006-03-10 02:00,ZBAA 100200Z AUTO 33017KT 5SM 11/M14 A3003 RMK SLP167 T01101140 IEM_DS3505
ZBAA,2006-03-10 03:00,ZBAA 100300Z AUTO 32017KT 4SM 12/M18 A3003 RMK SLP165 T01241184 52007 IEM_DS3505
ZBAA,2006-03-10 04:00,ZBAA 100400Z AUTO 34012KT 6SM 13/M14 A3000 RMK SLP157 T01301140 IEM_DS3505
ZBAA,2006-03-10 05:00,ZBAA 100500Z AUTO 03006KT 6SM 13/M14 A2997 RMK SLP147 T01301140 IEM_DS3505
ZBAA,2006-03-10 06:00,ZBAA 100600Z AUTO 02010KT 5SM 14/M17 A2994 RMK SLP130 T01371174 57035 IEM_DS3505
ZBAA,2006-03-10 07:00,ZBAA 100700Z AUTO 36008KT 6SM 14/M14 A2991 RMK SLP127 T01401140 IEM_DS3505
ZBAA,2006-03-10 08:00,ZBAA 100800Z AUTO 33012KT 6SM 13/M14 A2994 RMK SLP137 T01301140 IEM_DS3505
ZBAA,2006-03-10 09:00,ZBAA 100900Z AUTO 04008KT 9SM 13/M16 A2994 RMK SLP137 T01281159 52008 IEM_DS3505
ZBAA,2006-03-10 10:00,ZBAA 101000Z AUTO 03014KT 6SM 11/M15 A2994 RMK SLP137 T01101150 IEM_DS3505
ZBAA,2006-03-10 11:00,ZBAA 101100Z AUTO 35010KT 6SM 10/M10 A3000 RMK SLP157 T01001100 IEM_DS3505
ZBAA,2006-03-10 12:00,ZBAA 101200Z AUTO 02008KT 12SM 10/M10 A3003 RMK SLP164 T01001096 52026 IEM_DS3505
ZBAA,2006-03-10 13:00,ZBAA 101300Z AUTO 36014KT 6SM 08/M06 A3006 RMK SLP179 T00801060 IEM_DS3505
ZBAA,2006-03-10 14:00,ZBAA 101400Z AUTO 35016KT 6SM 05/M01 A3009 RMK SLP189 T00501010 IEM_DS3505
ZBAA,2006-03-10 15:00,ZBAA 101500Z AUTO 36010KT 12SM 05/M01 A3012 RMK SLP191 T00491009 52027 IEM_DS3505
ZBAA,2006-03-10 16:00,ZBAA 101600Z AUTO 34012KT 7SM 03/01 A3012 RMK SLP199 T00300010 IEM_DS3505
ZBAA,2006-03-10 17:00,ZBAA 101700Z AUTO 35012KT 7SM 02/01 A3015 RMK SLP210 T00200010 IEM_DS3505
ZBAA,2006-03-10 18:00,ZBAA 101800Z AUTO 04004KT 16SM 03/M00 A3015 RMK SLP199 T00281003 52008 IEM_DS3505
ZBAA,2006-03-10 19:00,ZBAA 101900Z AUTO 08004KT 6SM 02/01 A3015 RMK SLP210 T00200010 IEM_DS3505
ZBAA,2006-03-10 20:00,ZBAA 102000Z AUTO 05004KT 6SM 02/01 A3015 RMK SLP210 T00200010 IEM_DS3505
ZBAA,2006-03-10 21:00,ZBAA 102100Z AUTO 09006KT 16SM 03/M02 A3018 RMK SLP214 T00291022 52015 IEM_DS3505
ZBAA,2006-03-10 22:00,ZBAA 102200Z AUTO 19004KT 6SM 02/00 A3021 RMK SLP230 T00200000 IEM_DS3505
ZBAA,2006-03-10 23:00,ZBAA 102300Z AUTO 15006KT 6SM 02/00 A3024 RMK SLP240 T00200000 IEM_DS3505
ZBAA,2006-03-11 00:00,ZBAA 110000Z AUTO 09006KT 16SM 02/M01 A3027 RMK SLP249 T00251013 52034 IEM_DS3505
ZBAA,2006-03-11 01:00,ZBAA 110100Z AUTO 14006KT 6SM 03/00 A3030 RMK SLP261 T00300000 IEM_DS3505
ZBAA,2006-03-11 02:00,ZBAA 110200Z AUTO 14004KT 6SM 05/00 A3030 RMK SLP260 T00500000 IEM_DS3505
ZBAA,2006-03-11 03:00,ZBAA 110300Z AUTO 11008KT 12SM 06/M02 A3030 RMK SLP252 T00551021 52003 IEM_DS3505
ZBAA,2006-03-11 04:00,ZBAA 110400Z AUTO 05006KT 6SM 05/M09 A3030 RMK SLP260 T00501090 IEM_DS3505
ZBAA,2006-03-11 05:00,ZBAA 110500Z AUTO 35012G21KT 7SM 05/M09 A3030 RMK SLP260 T00501090 IEM_DS3505
ZBAA,2006-03-11 06:00,ZBAA 110600Z AUTO 36008KT 12SM 02/M03 A3030 RMK 60000 SLP260 T00251030 52008 IEM_DS3505
ZBAA,2006-03-11 07:00,ZBAA 110700Z AUTO 27006KT 6SM 07/M06 A3027 RMK SLP250 T00701060 IEM_DS3505
ZBAA,2006-03-11 08:00,ZBAA 110800Z AUTO 31019G29KT 6SM 07/ A3027 RMK SLP250 IEM_DS3505
ZBAA,2006-03-11 09:00,ZBAA 110900Z AUTO 34010KT 12SM 05/M23 A3030 RMK SLP265 T00541228 52005 IEM_DS3505
ZBAA,2006-03-11 10:00,ZBAA 111000Z AUTO 31021G31KT 6SM 03/M26 A3036 RMK SLP281 T00301260 IEM_DS3505
ZBAA,2006-03-11 11:00,ZBAA 111100Z AUTO 31019KT 6SM 01/M26 A3042 RMK SLP300 T00101260 IEM_DS3505
ZBAA,2006-03-11 12:00,ZBAA 111200Z AUTO 36016G27KT 12SM 01/M29 A3047 RMK SLP316 T00081286 52050 IEM_DS3505
ZBAA,2006-03-11 13:00,ZBAA 111300Z AUTO 32017KT 6SM M01/M27 A3050 RMK SLP329 T10101270 IEM_DS3505
ZBAA,2006-03-11 14:00,ZBAA 111400Z AUTO 32019G29KT 6SM M01/M28 A3053 RMK SLP339 T10101280 IEM_DS3505
ZBAA,2006-03-11 15:00,ZBAA 111500Z AUTO 32010KT 16SM M01/M28 A3056 RMK SLP345 T10141281 52029 IEM_DS3505
ZBAA,2006-03-11 16:00,ZBAA 111600Z AUTO 31021G31KT 6SM M02/M27 A3056 RMK SLP349 T10201270 IEM_DS3505
ZBAA,2006-03-11 17:00,ZBAA 111700Z AUTO 32023G33KT 6SM M02/M24 A3056 RMK SLP349 T10201240 IEM_DS3505
ZBAA,2006-03-11 18:00,ZBAA 111800Z AUTO 32008KT 19SM M02/M25 A3056 RMK SLP348 T10231247 52003 IEM_DS3505
ZBAA,2006-03-11 19:00,ZBAA 111900Z AUTO 32023G33KT 6SM M04/M25 A3056 RMK SLP349 T10401250 IEM_DS3505
ZBAA,2006-03-11 20:00,ZBAA 112000Z AUTO 32021G31KT 6SM M05/M28 A3059 RMK SLP359 T10501280 IEM_DS3505
ZBAA,2006-03-11 21:00,ZBAA 112100Z AUTO 36012KT 19SM M05/M28 A3059 RMK 70000 SLP359 T10501277 52011 IEM_DS3505
ZBAA,2006-03-11 22:00,ZBAA 112200Z AUTO 31021KT 6SM M06/M25 A3059 RMK SLP359 T10601250 IEM_DS3505
ZBAA,2006-03-11 23:00,ZBAA 112300Z AUTO 31025KT 6SM M05/M24 A3059 RMK SLP359 T10501240 IEM_DS3505
ZBAA,2006-03-12 00:00,ZBAA 120000Z AUTO 34010KT 19SM M04/M25 A3059 RMK 70000 SLP367 T10411249 52008 IEM_DS3505
ZBAA,2006-03-12 01:00,ZBAA 120100Z AUTO 31029G41KT 6SM M02/M23 A3059 RMK SLP359 T10201230 IEM_DS3505
ZBAA,2006-03-12 02:00,ZBAA 120200Z AUTO 31023KT 6SM M01/M24 A3059 RMK SLP359 T10101240 IEM_DS3505
ZBAA,2006-03-12 03:00,ZBAA 120300Z AUTO 34010G31KT 19SM M01/M23 A3059 RMK SLP362 T10091229 57005 IEM_DS3505
ZBAA,2006-03-12 04:00,ZBAA 120400Z AUTO 31021G31KT 6SM 01/M24 A3056 RMK SLP348 T00101240 IEM_DS3505
ZBAA,2006-03-12 05:00,ZBAA 120500Z AUTO 32025G35KT 6SM 03/M24 A3053 RMK SLP338 T00301240 IEM_DS3505
ZBAA,2006-03-12 06:00,ZBAA 120600Z AUTO 29016G37KT 19SM 02/M23 A3047 RMK SLP325 T00221226 57037 IEM_DS3505
ZBAA,2006-03-12 07:00,ZBAA 120700Z AUTO 32019G29KT 6SM 04/M24 A3045 RMK SLP311 T00401240 IEM_DS3505
ZBAA,2006-03-12 08:00,ZBAA 120800Z AUTO 32021G31KT 6SM 04/M24 A3042 RMK SLP300 T00401240 IEM_DS3505
ZBAA,2006-03-12 09:00,ZBAA 120900Z AUTO 29012KT 19SM 03/M23 A3039 RMK SLP291 T00301228 57034 IEM_DS3505
ZBAA,2006-03-12 10:00,ZBAA 121000Z AUTO 27017KT 6SM 02/M20 A3036 RMK SLP281 T00201200 IEM_DS3505
ZBAA,2006-03-12 11:00,ZBAA 121100Z AUTO 28017G27KT 6SM 01/M20 A3036 RMK SLP281 T00101200 IEM_DS3505
ZBAA,2006-03-12 12:00,ZBAA 121200Z AUTO 29014KT 19SM 02/M23 A3039 RMK SLP293 T00161231 52002 IEM_DS3505
ZBAA,2006-03-12 13:00,ZBAA 121300Z AUTO 28016KT 6SM 01/M20 A3039 RMK SLP290 T00101200 IEM_DS3505
ZBAA,2006-03-12 14:00,ZBAA 121400Z AUTO 28012KT 6SM 00/M19 A3042 RMK SLP300 T00001190 IEM_DS3505
ZBAA,2006-03-12 15:00,ZBAA 121500Z AUTO 29004KT 16SM 01/M22 A3039 RMK SLP296 T00061224 52003 IEM_DS3505
ZBAA,2006-03-12 16:00,ZBAA 121600Z AUTO 26010KT 6SM 00/M20 A3036 RMK SLP281 T00001200 IEM_DS3505
ZBAA,2006-03-12 17:00,ZBAA 121700Z AUTO 27006KT 6SM 00/M21 A3036 RMK SLP281 T00001210 IEM_DS3505
ZBAA,2006-03-12 18:00,ZBAA 121800Z AUTO 25006KT 12SM 00/M23 A3033 RMK SLP268 T00031233 57027 IEM_DS3505
ZBAA,2006-03-12 19:00,ZBAA 121900Z AUTO 27008KT 6SM 01/M21 A3030 RMK SLP261 T00101210 IEM_DS3505
ZBAA,2006-03-12 20:00,ZBAA 122000Z AUTO 30010KT 6SM 01/M21 A3027 RMK SLP251 T00101210 IEM_DS3505
ZBAA,2006-03-12 21:00,ZBAA 122100Z AUTO 25002KT 9SM M01/M20 A3024 RMK SLP245 T10141199 57023 IEM_DS3505
ZBAA,2006-03-12 22:00,ZBAA 122200Z AUTO 28006KT 6SM 00/M20 A3024 RMK SLP240 T00001200 IEM_DS3505
ZBAA,2006-03-12 23:00,ZBAA 122300Z AUTO 23004KT 6SM 00/M18 A3027 RMK SLP251 T00001180 IEM_DS3505
ZBAA,2006-03-13 00:00,ZBAA 130000Z AUTO 32008KT 12SM 03/M20 A3027 RMK SLP248 T00281199 52003 IEM_DS3505
ZBAA,2006-03-13 01:00,ZBAA 130100Z AUTO 29014KT 6SM 04/M18 A3027 RMK SLP250 T00401180 IEM_DS3505
ZBAA,2006-03-13 02:00,ZBAA 130200Z AUTO 28017KT 6SM 05/M18 A3027 RMK SLP250 T00501180 IEM_DS3505
ZBAA,2006-03-13 03:00,ZBAA 130300Z AUTO 29016KT 16SM 06/M18 A3024 RMK SLP242 T00621185 57006 IEM_DS3505
ZBAA,2006-03-13 04:00,ZBAA 130400Z AUTO 28016G25KT 6SM 06/M17 A3024 RMK SLP239 T00601170 IEM_DS3505
ZBAA,2006-03-13 05:00,ZBAA 130500Z AUTO 28019KT 6SM 08/M16 A3018 RMK SLP219 T00801160 IEM_DS3505
ZBAA,2006-03-13 06:00,ZBAA 130600Z AUTO 32014G31KT 19SM 08/M17 A3015 RMK SLP218 T00801171 57024 IEM_DS3505
ZBAA,2006-03-13 07:00,ZBAA 130700Z AUTO 28017G27KT 6SM 09/M15 A3012 RMK SLP198 T00901150 IEM_DS3505
ZBAA,2006-03-13 08:00,ZBAA 130800Z AUTO 32017KT 6SM 10/M14 A3012 RMK SLP198 T01001140 IEM_DS3505
ZBAA,2006-03-13 09:00,ZBAA 130900Z AUTO 32014KT 19SM 09/M14 A3012 RMK SLP203 T00911140 57015 IEM_DS3505
ZBAA,2006-03-13 10:00,ZBAA 131000Z AUTO 31016KT 6SM 09/M14 A3012 RMK SLP198 T00901140 IEM_DS3505
ZBAA,2006-03-13 11:00,ZBAA 131100Z AUTO 31010KT 6SM 08/M13 A3015 RMK SLP209 T00801130 IEM_DS3505
ZBAA,2006-03-13 12:00,ZBAA 131200Z AUTO 32002KT 19SM 08/M13 A3015 RMK SLP213 T00771127 52010 IEM_DS3505
ZBAA,2006-03-13 13:00,ZBAA 131300Z AUTO 04002KT 6SM 06/M12 A3018 RMK SLP219 T00601120 IEM_DS3505
ZBAA,2006-03-13 13:30,ZBAA 131330Z AUTO 34006KT 6SM 04/M13 A3018 RMK SLP219 T00401130 IEM_DS3505
ZBAA,2006-03-13 14:00,ZBAA 131400Z AUTO 34006KT 6SM 05/M13 A3018 RMK SLP219 T00501130 IEM_DS3505
ZBAA,2006-03-13 15:00,ZBAA 131500Z AUTO 25006KT 19SM 05/M12 A3018 RMK SLP219 T00491116 52006 IEM_DS3505
ZBAA,2006-03-13 16:00,ZBAA 131600Z AUTO 20006KT 6SM 04/M11 A3018 RMK SLP219 T00401110 IEM_DS3505
ZBAA,2006-03-13 17:00,ZBAA 131700Z AUTO 19004KT 6SM 01/M11 A3015 RMK SLP210 T00101110 IEM_DS3505
ZBAA,2006-03-13 18:00,ZBAA 131800Z AUTO 29002KT 16SM 03/M13 A3015 RMK SLP218 T00271127 57001 IEM_DS3505
ZBAA,2006-03-13 19:00,ZBAA 131900Z AUTO 24006KT 6SM 03/M10 A3015 RMK SLP209 T00301100 IEM_DS3505
ZBAA,2006-03-13 20:00,ZBAA 132000Z AUTO 26006KT 6SM 03/M11 A3015 RMK SLP209 T00301110 IEM_DS3505
ZBAA,2006-03-13 21:00,ZBAA 132100Z AUTO 27004KT 16SM 02/M13 A3015 RMK SLP210 T00191134 57008 IEM_DS3505
ZBAA,2006-03-13 22:00,ZBAA 132200Z AUTO 28006KT 6SM 03/M11 A3015 RMK SLP209 T00301110 IEM_DS3505
ZBAA,2006-03-13 23:00,ZBAA 132300Z AUTO 05004KT 6SM M01/M11 A3015 RMK SLP210 T10101110 IEM_DS3505
ZBAA,2006-03-14 00:00,ZBAA 140000Z AUTO 04002KT 7SM 04/M11 A3018 RMK SLP213 T00451108 52003 IEM_DS3505
ZBAA,2006-03-14 01:00,ZBAA 140100Z AUTO 33004KT 6SM 07/M10 A3018 RMK SLP219 T00701100 IEM_DS3505
ZBAA,2006-03-14 02:00,ZBAA 140200Z AUTO 04004KT 6SM 10/M09 A3015 RMK SLP208 T01001090 IEM_DS3505
ZBAA,2006-03-14 03:00,ZBAA 140300Z AUTO 20008KT 16SM 14/M13 A3015 RMK SLP205 T01361134 57007 IEM_DS3505
ZBAA,2006-03-14 04:00,ZBAA 140400Z AUTO 24008KT 6SM 15/M13 A3012 RMK SLP198 T01501130 IEM_DS3505
ZBAA,2006-03-14 05:00,ZBAA 140500Z AUTO 28012KT 6SM 16/M13 A3006 RMK SLP177 T01601130 IEM_DS3505
ZBAA,2006-03-14 06:00,ZBAA 140600Z AUTO 25008KT 19SM 17/M14 A3003 RMK SLP169 T01711136 57036 IEM_DS3505
ZBAA,2006-03-14 07:00,ZBAA 140700Z AUTO 23008KT 6SM 18/M12 A3000 RMK SLP156 T01801120 IEM_DS3505
ZBAA,2006-03-14 08:00,ZBAA 140800Z AUTO 21008KT 6SM 18/M12 A2997 RMK SLP146 T01801120 IEM_DS3505
ZBAA,2006-03-14 09:00,ZBAA 140900Z AUTO 22008KT 19SM 18/M13 A2994 RMK SLP146 T01771131 57023 IEM_DS3505
ZBAA,2006-03-14 10:00,ZBAA 141000Z AUTO 20008KT 6SM 16/M11 A2994 RMK SLP136 T01601110 IEM_DS3505
ZBAA,2006-03-14 12:00,ZBAA 141200Z AUTO 22006KT 16SM 12/M12 A2997 RMK SLP149 T01211122 52003 IEM_DS3505
ZBAA,2006-03-14 13:00,ZBAA 141300Z AUTO 21008KT 6SM 12/M12 A2997 RMK SLP147 T01201120 IEM_DS3505
ZBAA,2006-03-14 14:00,ZBAA 141400Z AUTO 21008KT 6SM 12/M11 A2997 RMK SLP147 T01201110 IEM_DS3505
ZBAA,2006-03-14 15:00,ZBAA 141500Z AUTO 22006KT 9SM 10/M10 A2994 RMK SLP142 T00991097 57006 IEM_DS3505
ZBAA,2006-03-14 16:00,ZBAA 141600Z AUTO 23006KT 6SM 10/M09 A2994 RMK SLP137 T01001090 IEM_DS3505
ZBAA,2006-03-14 17:00,ZBAA 141700Z AUTO 11002KT 6SM 08/M09 A2991 RMK SLP127 T00801090 IEM_DS3505
ZBAA,2006-03-14 18:00,ZBAA 141800Z AUTO 25004KT 9SM 08/M08 A2991 RMK SLP128 T00781083 57014 IEM_DS3505
ZBAA,2006-03-14 19:00,ZBAA 141900Z AUTO 19002KT 6SM 05/M08 A2991 RMK SLP128 T00501080 IEM_DS3505
ZBAA,2006-03-14 20:00,ZBAA 142000Z AUTO 01004KT 6SM 06/M08 A2988 RMK SLP118 T00601080 IEM_DS3505
ZBAA,2006-03-14 21:00,ZBAA 142100Z AUTO 22002KT 9SM 06/M07 A2988 RMK SLP111 T00591070 57017 IEM_DS3505
ZBAA,2006-03-14 22:00,ZBAA 142200Z AUTO 34004KT 6SM 04/M08 A2985 RMK SLP107 T00401080 IEM_DS3505
ZBAA,2006-03-14 23:00,ZBAA 142300Z AUTO 04002KT 5SM 04/M08 A2985 RMK SLP107 T00401080 IEM_DS3505
ZBAA,2006-03-15 00:00,ZBAA 150000Z AUTO 11002KT 6SM 07/M06 A2985 RMK SLP111 T00681065 57001 IEM_DS3505
ZBAA,2006-03-15 01:00,ZBAA 150100Z AUTO 03004KT 08/ A2985 RMK IEM_DS3505
ZBAA,2006-03-15 02:00,ZBAA 150200Z AUTO 01004KT 4SM 12/M08 A2985 RMK SLP106 T01201080 IEM_DS3505
ZBAA,2006-03-15 03:00,ZBAA 150300Z AUTO 04010KT 9SM 15/M11 A2983 RMK SLP092 T01471109 57018 IEM_DS3505
ZBAA,2006-03-15 04:00,ZBAA 150400Z AUTO 36006KT 6SM 16/M11 A2980 RMK SLP088 T01601110 IEM_DS3505
ZBAA,2006-03-15 05:00,ZBAA 150500Z AUTO 03006KT 6SM 17/M10 A2974 RMK SLP068 T01701100 IEM_DS3505
ZBAA,2006-03-15 06:00,ZBAA 150600Z AUTO 36010KT 19SM 17/M11 A2971 RMK SLP058 T01711106 57034 IEM_DS3505
ZBAA,2006-03-15 07:00,ZBAA 150700Z AUTO 04006KT 6SM 18/M11 A2968 RMK SLP048 T01801110 IEM_DS3505
ZBAA,2006-03-15 08:00,ZBAA 150800Z AUTO 28012G21KT 6SM 18/M08 A2968 RMK SLP048 T01801080 IEM_DS3505
ZBAA,2006-03-15 09:00,ZBAA 150900Z AUTO 34006KT 19SM 17/M12 A2965 RMK SLP044 T01711125 57014 IEM_DS3505
ZBAA,2006-03-15 10:00,ZBAA 151000Z AUTO 28014KT 6SM 16/M09 A2968 RMK SLP048 T01601090 IEM_DS3505
ZBAA,2006-03-15 11:00,ZBAA 151100Z AUTO 27012KT 6SM 15/M09 A2968 RMK SLP048 T01501090 IEM_DS3505
ZBAA,2006-03-15 12:00,ZBAA 151200Z AUTO 29006KT 9SM 14/M10 A2971 RMK SLP054 T01431104 52010 IEM_DS3505
ZBAA,2006-03-15 13:00,ZBAA 151300Z AUTO 29012KT 6SM 14/M09 A2971 RMK SLP058 T01401090 IEM_DS3505
ZBAA,2006-03-15 14:00,ZBAA 151400Z AUTO 30010KT 6SM 13/M09 A2971 RMK SLP058 T01301090 IEM_DS3505
ZBAA,2006-03-15 15:00,ZBAA 151500Z AUTO 32004KT 9SM 12/M10 A2971 RMK SLP058 T01191097 52004 IEM_DS3505
ZBAA,2006-03-15 16:00,ZBAA 151600Z AUTO 26006KT 6SM 11/M09 A2971 RMK SLP059 T01101090 IEM_DS3505
ZBAA,2006-03-15 17:00,ZBAA 151700Z AUTO 29008KT 6SM 11/M08 A2971 RMK SLP059 T01101080 IEM_DS3505
ZBAA,2006-03-15 18:00,ZBAA 151800Z AUTO 25002KT 9SM 08/M08 A2968 RMK SLP051 T00751085 57007 IEM_DS3505
ZBAA,2006-03-15 19:00,ZBAA 151900Z AUTO 29006KT 6SM 09/M08 A2968 RMK SLP049 T00901080 IEM_DS3505
ZBAA,2006-03-15 20:00,ZBAA 152000Z AUTO 29008KT 6SM 10/M08 A2968 RMK SLP049 T01001080 IEM_DS3505
ZBAA,2006-03-15 21:00,ZBAA 152100Z AUTO 20002KT 7SM 05/M08 A2968 RMK SLP054 T00511080 52003 IEM_DS3505
ZBAA,2006-03-15 22:00,ZBAA 152200Z AUTO 23004KT 6SM 07/M09 A2971 RMK SLP059 T00701090 IEM_DS3505
ZBAA,2006-03-15 23:00,ZBAA 152300Z AUTO 28006KT 6SM 08/M08 A2974 RMK SLP069 T00801080 IEM_DS3505
ZBAA,2006-03-16 00:00,ZBAA 160000Z AUTO 02002KT 7SM 09/M06 A2974 RMK SLP070 T00931065 52016 IEM_DS3505
ZBAA,2006-03-16 01:00,ZBAA 160100Z AUTO 30008G17KT 6SM 15/M10 A2977 RMK SLP078 T01501100 IEM_DS3505
ZBAA,2006-03-16 02:00,ZBAA 160200Z AUTO 31014G23KT 6SM 17/M10 A2977 RMK SLP078 T01701100 IEM_DS3505
ZBAA,2006-03-16 03:00,ZBAA 160300Z AUTO 32004KT 16SM 18/M12 A2974 RMK SLP073 T01821117 52003 IEM_DS3505
ZBAA,2006-03-16 04:00,ZBAA 160400Z AUTO 31010KT 6SM 19/M11 A2974 RMK SLP068 T01901110 IEM_DS3505
ZBAA,2006-03-16 05:00,ZBAA 160500Z AUTO 31010KT 6SM 21/M12 A2971 RMK SLP057 T02101120 IEM_DS3505
ZBAA,2006-03-16 06:00,ZBAA 160600Z AUTO 18006KT 16SM 22/M12 A2968 RMK SLP048 T02191124 57025 IEM_DS3505
ZBAA,2006-03-16 07:00,ZBAA 160700Z AUTO 6SM 23/M12 A2965 RMK SLP037 T02301120 IEM_DS3505
ZBAA,2006-03-16 08:00,ZBAA 160800Z AUTO 21010KT 6SM 22/M11 A2965 RMK SLP037 T02201110 IEM_DS3505
ZBAA,2006-03-16 09:00,ZBAA 160900Z AUTO 18008KT 16SM 22/M11 A2965 RMK SLP040 T02161113 57008 IEM_DS3505
ZBAA,2006-03-16 10:00,ZBAA 161000Z AUTO 19010KT 6SM 20/M10 A2965 RMK SLP037 T02001100 IEM_DS3505
ZBAA,2006-03-16 11:00,ZBAA 161100Z AUTO 18004KT 6SM 16/M08 A2968 RMK SLP048 T01601080 IEM_DS3505
ZBAA,2006-03-16 12:00,ZBAA 161200Z AUTO 18006KT 9SM 17/M11 A2968 RMK SLP050 T01711106 52010 IEM_DS3505
ZBAA,2006-03-16 13:00,ZBAA 161300Z AUTO 16004KT 6SM 16/M08 A2971 RMK SLP058 T01601080 IEM_DS3505
ZBAA,2006-03-16 14:00,ZBAA 161400Z AUTO 19008KT 6SM 15/M07 A2974 RMK SLP068 T01501070 IEM_DS3505
ZBAA,2006-03-16 15:00,ZBAA 161500Z AUTO 20008KT 12SM 14/M07 A2974 RMK SLP074 T01401068 52024 IEM_DS3505
ZBAA,2006-03-16 16:00,ZBAA 161600Z AUTO 18014G27KT 6SM 15/M06 A2974 RMK SLP068 T01501060 IEM_DS3505
ZBAA,2006-03-16 17:00,ZBAA 161700Z AUTO 18010KT 6SM 14/M05 A2974 RMK SLP068 T01401050 IEM_DS3505
ZBAA,2006-03-16 18:00,ZBAA 161800Z AUTO 22006KT 9SM 13/M06 A2974 RMK SLP062 T01321059 57011 IEM_DS3505
ZBAA,2006-03-16 19:00,ZBAA 161900Z AUTO 16006KT 6SM 10/M05 A2971 RMK SLP059 T01001050 IEM_DS3505
ZBAA,2006-03-16 20:00,ZBAA 162000Z AUTO 14004KT 6SM 11/M05 A2974 RMK SLP069 T01101050 IEM_DS3505
ZBAA,2006-03-16 21:00,ZBAA 162100Z AUTO 25006KT 9SM 10/M05 A2974 RMK SLP063 T01021046 54000 IEM_DS3505
ZBAA,2006-03-16 22:00,ZBAA 162200Z AUTO 12008KT 6SM 09/M04 A2974 RMK SLP069 T00901040 IEM_DS3505
ZBAA,2006-03-16 23:00,ZBAA 162300Z AUTO 10006KT 5SM 08/M04 A2977 RMK SLP079 T00801040 IEM_DS3505
ZBAA,2006-03-17 00:00,ZBAA 170000Z AUTO 18002KT 12SM 10/M04 A2977 RMK SLP073 T00981035 52010 IEM_DS3505
ZBAA,2006-03-17 01:00,ZBAA 170100Z AUTO 13004KT 4SM 11/M02 A2977 RMK SLP079 T01101020 IEM_DS3505
ZBAA,2006-03-17 02:00,ZBAA 170200Z AUTO 06002KT 4SM 12/M02 A2977 RMK SLP079 T01201020 IEM_DS3505
ZBAA,2006-03-17 03:00,ZBAA 170300Z AUTO 14004KT 9SM 13/M03 A2974 RMK SLP070 T01301029 57003 IEM_DS3505
ZBAA,2006-03-17 04:00,ZBAA 170400Z AUTO 14004KT 4SM 14/M01 A2974 RMK SLP068 T01401010 IEM_DS3505
ZBAA,2006-03-17 05:00,ZBAA 170500Z AUTO 12006KT 4SM 14/M01 A2971 RMK SLP058 T01401010 IEM_DS3505
ZBAA,2006-03-17 06:00,ZBAA 170600Z AUTO 20004KT 9SM 15/M03 A2971 RMK SLP053 T01481026 57017 IEM_DS3505
ZBAA,2006-03-17 07:00,ZBAA 170700Z AUTO 19004KT 4SM 15/00 A2968 RMK SLP048 T01500000 IEM_DS3505
ZBAA,2006-03-17 08:00,ZBAA 170800Z AUTO 18006KT 4SM 15/00 A2965 RMK SLP038 T01500000 IEM_DS3505
ZBAA,2006-03-17 09:00,ZBAA 170900Z AUTO 25004KT 9SM 15/M01 A2965 RMK SLP043 T01501011 57010 IEM_DS3505
ZBAA,2006-03-17 10:00,ZBAA 171000Z AUTO 15002KT 3SM 14/00 A2968 RMK SLP048 T01400000 IEM_DS3505
ZBAA,2006-03-17 11:00,ZBAA 171100Z AUTO 08002KT 2 1/2SM 12/M01 A2968 RMK SLP048 T01201010 IEM_DS3505
ZBAA,2006-03-17 12:00,ZBAA 171200Z AUTO 29004KT 9SM 13/M01 A2971 RMK SLP060 T01291007 52017 IEM_DS3505
ZBAA,2006-03-17 13:00,ZBAA 171300Z AUTO 31016KT 4SM 15/M04 A2977 RMK SLP078 T01501040 IEM_DS3505
ZBAA,2006-03-17 14:00,ZBAA 171400Z AUTO 32025G35KT 6SM 15/M12 A2980 RMK SLP088 T01501120 IEM_DS3505
ZBAA,2006-03-17 15:00,ZBAA 171500Z AUTO 36010G35KT 5SM 13/M11 A2988 RMK SLP116 T01311107 52056 IEM_DS3505
ZBAA,2006-03-17 16:00,ZBAA 171600Z AUTO 33019G35KT 4SM 11/M10 A2994 RMK SLP137 T01101100 IEM_DS3505
ZBAA,2006-03-17 17:00,ZBAA 171700Z AUTO 32023G33KT 6SM 10/M13 A2997 RMK SLP147 T01001130 IEM_DS3505
ZBAA,2006-03-17 18:00,ZBAA 171800Z AUTO 02010KT 5SM 09/M15 A3000 RMK SLP147 T00931152 52031 IEM_DS3505
ZBAA,2006-03-17 19:00,ZBAA 171900Z AUTO 32029G39KT 6SM 08/M17 A3000 RMK SLP157 T00801170 IEM_DS3505
ZBAA,2006-03-17 20:00,ZBAA 172000Z AUTO 31021G31KT 6SM 07/M19 A3000 RMK SLP158 T00701190 IEM_DS3505
ZBAA,2006-03-17 21:00,ZBAA 172100Z AUTO 36012KT 9SM 08/M22 A3003 RMK SLP165 T00751222 52017 IEM_DS3505
ZBAA,2006-03-17 22:00,ZBAA 172200Z AUTO 31021KT 6SM 06/M21 A3006 RMK SLP179 T00601210 IEM_DS3505
ZBAA,2006-03-17 23:00,ZBAA 172300Z AUTO 31017G27KT 6SM 06/M22 A3009 RMK SLP189 T00601220 IEM_DS3505
ZBAA,2006-03-18 00:00,ZBAA 180000Z AUTO 02010KT 12SM 07/M20 A3012 RMK SLP201 T00721203 52036 IEM_DS3505
ZBAA,2006-03-18 01:00,ZBAA 180100Z AUTO 31017KT 6SM 09/M21 A3012 RMK SLP198 T00901210 IEM_DS3505
ZBAA,2006-03-18 02:00,ZBAA 180200Z AUTO 32017G29KT 6SM 10/M21 A3015 RMK SLP208 T01001210 IEM_DS3505
ZBAA,2006-03-18 03:00,ZBAA 180300Z AUTO 02010KT 19SM 11/M21 A3015 RMK SLP213 T01061210 52012 IEM_DS3505
ZBAA,2006-03-18 04:00,ZBAA 180400Z AUTO 27012KT 6SM 12/M20 A3015 RMK SLP208 T01201200 IEM_DS3505
ZBAA,2006-03-18 05:00,ZBAA 180500Z AUTO 27014KT 6SM 13/M20 A3012 RMK SLP198 T01301200 IEM_DS3505
ZBAA,2006-03-18 06:00,ZBAA 180600Z AUTO 32010KT 19SM 14/M23 A3006 RMK SLP184 T01391231 57029 IEM_DS3505
ZBAA,2006-03-18 07:00,ZBAA 180700Z AUTO 27014KT 6SM 14/M19 A3006 RMK SLP178 T01401190 IEM_DS3505
ZBAA,2006-03-18 08:00,ZBAA 180800Z AUTO 28016KT 6SM 15/M21 A3003 RMK SLP167 T01501210 IEM_DS3505
ZBAA,2006-03-18 09:00,ZBAA 180900Z AUTO 29010KT 19SM 14/M21 A3003 RMK SLP172 T01431211 57012 IEM_DS3505
ZBAA,2006-03-18 10:00,ZBAA 181000Z AUTO 27016KT 6SM 14/M22 A3003 RMK SLP167 T01401220 IEM_DS3505
ZBAA,2006-03-18 11:00,ZBAA 181100Z AUTO 30010KT 6SM 13/M22 A3006 RMK SLP178 T01301220 IEM_DS3505
ZBAA,2006-03-18 12:00,ZBAA 181200Z AUTO 27006KT 19SM 12/M21 A3009 RMK SLP194 T01181214 52022 IEM_DS3505
ZBAA,2006-03-18 13:00,ZBAA 181300Z AUTO 30008KT 6SM 11/M21 A3012 RMK SLP198 T01101210 IEM_DS3505
ZBAA,2006-03-18 14:00,ZBAA 181400Z AUTO 33008KT 6SM 09/M22 A3015 RMK SLP209 T00901220 IEM_DS3505
ZBAA,2006-03-18 15:00,ZBAA 181500Z AUTO 02002KT 16SM 09/M24 A3015 RMK SLP211 T00891236 52017 IEM_DS3505
ZBAA,2006-03-18 16:00,ZBAA 181600Z AUTO 34004KT 6SM 04/M22 A3018 RMK SLP219 T00401220 IEM_DS3505
ZBAA,2006-03-18 17:00,ZBAA 181700Z AUTO 36002KT 6SM 05/M20 A3018 RMK SLP219 T00501200 IEM_DS3505
ZBAA,2006-03-18 18:00,ZBAA 181800Z AUTO 04002KT 12SM 05/M20 A3018 RMK SLP215 T00521201 52004 IEM_DS3505
ZBAA,2006-03-18 19:00,ZBAA 181900Z AUTO 34002KT 6SM 03/M20 A3018 RMK SLP219 T00301200 IEM_DS3505
ZBAA,2006-03-18 20:00,ZBAA 182000Z AUTO 14006KT 6SM 02/M11 A3015 RMK SLP210 T00201110 IEM_DS3505
ZBAA,2006-03-18 21:00,ZBAA 182100Z AUTO 09006KT 16SM 01/M05 A3018 RMK SLP212 T00081054 57003 IEM_DS3505
ZBAA,2006-03-18 22:00,ZBAA 182200Z AUTO 18004KT 6SM M01/M05 A3018 RMK SLP220 T10101050 IEM_DS3505
ZBAA,2006-03-18 23:00,ZBAA 182300Z AUTO 17002KT 4SM 00/M04 A3018 RMK SLP220 T00001040 IEM_DS3505
ZBAA,2006-03-19 00:00,ZBAA 190000Z AUTO 07004KT 9SM 02/M03 A3018 RMK SLP215 T00201033 52003 IEM_DS3505
ZBAA,2006-03-19 01:00,ZBAA 190100Z AUTO 16004KT 6SM 04/M05 A3021 RMK SLP229 T00401050 IEM_DS3505
ZBAA,2006-03-19 02:00,ZBAA 190200Z AUTO 15006KT 6SM 06/M06 A3018 RMK SLP219 T00601060 IEM_DS3505
ZBAA,2006-03-19 03:00,ZBAA 190300Z AUTO 09004KT 11SM 10/M08 A3015 RMK SLP203 T00971079 57012 IEM_DS3505
ZBAA,2006-03-19 04:00,ZBAA 190400Z AUTO 11004KT 5SM 11/M08 A3009 RMK SLP188 T01101080 IEM_DS3505
ZBAA,2006-03-19 05:00,ZBAA 190500Z AUTO 11004KT 5SM 12/M11 A3006 RMK SLP178 T01201110 IEM_DS3505
ZBAA,2006-03-19 06:00,ZBAA 190600Z AUTO 18008KT 9SM 15/M09 A3000 RMK SLP157 T01461094 57046 IEM_DS3505
ZBAA,2006-03-19 07:00,ZBAA 190700Z AUTO 15008KT 5SM 15/M10 A2997 RMK SLP146 T01501100 IEM_DS3505
ZBAA,2006-03-19 08:00,ZBAA 190800Z AUTO 16008KT 5SM 15/M09 A2991 RMK SLP126 T01501090 IEM_DS3505
ZBAA,2006-03-19 09:00,ZBAA 190900Z AUTO 20008KT 9SM 15/M08 A2991 RMK SLP128 T01511077 57029 IEM_DS3505
ZBAA,2006-03-19 10:00,ZBAA 191000Z AUTO 15004KT 5SM 13/M07 A2991 RMK SLP127 T01301070 IEM_DS3505
ZBAA,2006-03-19 11:00,ZBAA 191100Z AUTO 16004KT 5SM 12/M06 A2991 RMK SLP127 T01201060 IEM_DS3505
ZBAA,2006-03-19 12:00,ZBAA 191200Z AUTO 20004KT 9SM 13/M06 A2991 RMK SLP133 T01261064 52005 IEM_DS3505
ZBAA,2006-03-19 13:00,ZBAA 191300Z AUTO 12006KT 4SM 11/M05 A2991 RMK SLP127 T01101050 IEM_DS3505
ZBAA,2006-03-19 14:00,ZBAA 191400Z AUTO 10006KT 4SM 11/M05 A2994 RMK SLP137 T01101050 IEM_DS3505
ZBAA,2006-03-19 15:00,ZBAA 191500Z AUTO 11002KT 9SM 11/M05 A2994 RMK SLP131 T01131052 57002 IEM_DS3505
ZBAA,2006-03-19 16:00,ZBAA 191600Z AUTO 09006KT 4SM 08/M01 A2991 RMK SLP127 T00801010 IEM_DS3505
ZBAA,2006-03-19 17:00,ZBAA 191700Z AUTO 04002KT 4SM 06/M03 A2994 RMK SLP138 T00601030 IEM_DS3505
ZBAA,2006-03-19 18:00,ZBAA 191800Z AUTO 04004KT 8SM 07/M01 A2994 RMK SLP131 T00721012 54000 IEM_DS3505
ZBAA,2006-03-19 19:00,ZBAA 191900Z AUTO 05002KT 4SM 06/M03 A2991 RMK SLP128 T00601030 IEM_DS3505
ZBAA,2006-03-19 20:00,ZBAA 192000Z AUTO 35002KT 4SM 04/M04 A2991 RMK SLP128 T00401040 IEM_DS3505
ZBAA,2006-03-19 21:00,ZBAA 192100Z AUTO 09002KT 6SM 05/M02 A2991 RMK SLP124 T00461016 57007 IEM_DS3505
ZBAA,2006-03-19 22:00,ZBAA 192200Z AUTO 34004KT 4SM 04/M06 A2991 RMK SLP128 T00401060 IEM_DS3505
ZBAA,2006-03-19 23:00,ZBAA 192300Z AUTO 34004KT 4SM 04/M06 A2994 RMK SLP138 T00401060 IEM_DS3505
ZBAA,2006-03-20 00:00,ZBAA 200000Z AUTO 07002KT 6SM 07/M03 A2994 RMK SLP139 T00711029 52015 IEM_DS3505
ZBAA,2006-03-20 01:00,ZBAA 200100Z AUTO 36004KT 4SM 08/M06 A2994 RMK SLP137 T00801060 IEM_DS3505
ZBAA,2006-03-20 02:00,ZBAA 200200Z AUTO 06002KT 4SM 11/M05 A2994 RMK SLP137 T01101050 IEM_DS3505
ZBAA,2006-03-20 03:00,ZBAA 200300Z AUTO 07006KT 9SM 14/M05 A2991 RMK SLP129 T01411046 57009 IEM_DS3505
ZBAA,2006-03-20 04:00,ZBAA 200400Z AUTO 05004KT 4SM 15/M06 A2991 RMK SLP126 T01501060 IEM_DS3505
ZBAA,2006-03-20 05:00,ZBAA 200500Z AUTO 11004KT 4SM 18/M08 A2988 RMK SLP116 T01801080 IEM_DS3505
ZBAA,2006-03-20 06:00,ZBAA 200600Z AUTO 20004KT 9SM 19/M13 A2983 RMK SLP102 T01911132 57027 IEM_DS3505
ZBAA,2006-03-20 07:00,ZBAA 200700Z AUTO 20008KT 6SM 20/M13 A2983 RMK SLP099 T02001130 IEM_DS3505
ZBAA,2006-03-20 08:00,ZBAA 200800Z AUTO 19012KT 6SM 19/M13 A2983 RMK SLP099 T01901130 IEM_DS3505
ZBAA,2006-03-20 09:00,ZBAA 200900Z AUTO 25008KT 9SM 19/M14 A2983 RMK SLP097 T01881135 57005 IEM_DS3505
ZBAA,2006-03-20 10:00,ZBAA 201000Z AUTO 21010KT 6SM 18/M12 A2983 RMK SLP099 T01801120 IEM_DS3505
ZBAA,2006-03-20 11:00,ZBAA 201100Z AUTO 19004KT 6SM 16/M12 A2985 RMK SLP105 T01601120 IEM_DS3505
ZBAA,2006-03-20 12:00,ZBAA 201200Z AUTO 25006KT 9SM 16/M12 A2988 RMK SLP114 T01551119 52017 IEM_DS3505
ZBAA,2006-03-20 13:00,ZBAA 201300Z AUTO 12006KT 4SM 13/M07 A2988 RMK SLP117 T01301070 IEM_DS3505
ZBAA,2006-03-20 14:00,ZBAA 201400Z AUTO 19006KT 4SM 13/M08 A2991 RMK SLP127 T01301080 IEM_DS3505
ZBAA,2006-03-20 15:00,ZBAA 201500Z AUTO 29004KT 6SM 13/M06 A2991 RMK SLP130 T01311065 52016 IEM_DS3505
ZBAA,2006-03-20 16:00,ZBAA 201600Z AUTO 20002KT 3SM 08/M06 A2991 RMK SLP127 T00801060 IEM_DS3505
ZBAA,2006-03-20 17:00,ZBAA 201700Z AUTO 35006KT 3SM 07/M06 A2994 RMK SLP138 T00701060 IEM_DS3505
ZBAA,2006-03-20 18:00,ZBAA 201800Z AUTO 29002KT 6SM 10/M06 A2994 RMK SLP136 T01031057 52006 IEM_DS3505
ZBAA,2006-03-20 19:00,ZBAA 201900Z AUTO 02002KT 2 1/2SM 06/01 A2994 RMK SLP138 T00600010 IEM_DS3505
ZBAA,2006-03-20 20:00,ZBAA 202000Z AUTO 02004KT 2 1/2SM 04/M01 A2994 RMK SLP138 T00401010 IEM_DS3505
ZBAA,2006-03-20 21:00,ZBAA 202100Z AUTO 07004KT 7SM 06/M06 A2997 RMK SLP142 T00611058 52006 IEM_DS3505
ZBAA,2006-03-20 22:00,ZBAA 202200Z AUTO 08004KT 2 1/2SM 06/02 A2997 RMK SLP148 T00600020 IEM_DS3505
ZBAA,2006-03-20 23:00,ZBAA 202300Z AUTO 11004KT 1 1/4SM 05/02 A3000 RMK SLP158 T00500020 IEM_DS3505
ZBAA,2006-03-21 00:00,ZBAA 210000Z AUTO 07004KT 6SM 06/02 A3000 RMK SLP159 T00550018 52016 IEM_DS3505
ZBAA,2006-03-21 01:00,ZBAA 210100Z AUTO 12004KT 1 1/4SM 08/03 A3003 RMK SLP168 T00800030 IEM_DS3505
ZBAA,2006-03-21 02:00,ZBAA 210200Z AUTO 09004KT 1 1/4SM 10/03 A3003 RMK SLP167 T01000030 IEM_DS3505
ZBAA,2006-03-21 03:00,ZBAA 210300Z AUTO 11004KT 6SM 12/01 A3000 RMK SLP156 T01200013 57002 IEM_DS3505
ZBAA,2006-03-21 04:00,ZBAA 210400Z AUTO 14004KT 1 1/2SM 14/04 A2997 RMK SLP147 T01400040 IEM_DS3505
ZBAA,2006-03-21 05:00,ZBAA 210500Z AUTO 17008KT 2SM 15/02 A2994 RMK SLP136 T01500020 IEM_DS3505
ZBAA,2006-03-21 06:00,ZBAA 210600Z AUTO 22006KT 7SM 16/00 A2991 RMK SLP125 T01630000 57031 IEM_DS3505
ZBAA,2006-03-21 07:00,ZBAA 210700Z AUTO 15010KT 2SM 17/02 A2988 RMK SLP116 T01700020 IEM_DS3505
ZBAA,2006-03-21 08:00,ZBAA 210800Z AUTO 18012KT 2 1/2SM 18/M01 A2985 RMK SLP105 T01801010 IEM_DS3505
ZBAA,2006-03-21 09:00,ZBAA 210900Z AUTO 20010KT 7SM 17/M04 A2985 RMK SLP104 T01741039 57021 IEM_DS3505
ZBAA,2006-03-21 10:00,ZBAA 211000Z AUTO 17010KT 3SM 16/M03 A2985 RMK SLP105 T01601030 IEM_DS3505
ZBAA,2006-03-21 11:00,ZBAA 211100Z AUTO 17006KT 3SM 14/M02 A2985 RMK SLP105 T01401020 IEM_DS3505
ZBAA,2006-03-21 12:00,ZBAA 211200Z AUTO 22002KT 6SM 14/M01 A2985 RMK SLP109 T01421010 52004 IEM_DS3505
ZBAA,2006-03-21 13:00,ZBAA 211300Z AUTO 10008KT 2SM 12/02 A2985 RMK SLP106 T01200020 IEM_DS3505
ZBAA,2006-03-21 14:00,ZBAA 211400Z AUTO 11008KT 2SM 11/04 A2985 RMK SLP106 T01100040 IEM_DS3505
ZBAA,2006-03-21 15:00,ZBAA 211500Z AUTO 16004KT 6SM 13/M00 A2985 RMK SLP102 T01271002 57006 IEM_DS3505
ZBAA,2006-03-21 16:00,ZBAA 211600Z AUTO 12006KT 2SM 10/05 A2985 RMK SLP106 T01000050 IEM_DS3505
ZBAA,2006-03-21 17:00,ZBAA 211700Z AUTO 01004KT 2SM 09/04 A2988 RMK SLP117 T00900040 IEM_DS3505
ZBAA,2006-03-21 18:00,ZBAA 211800Z AUTO 09004KT 6SM 09/04 A2985 RMK SLP104 T00940038 52002 IEM_DS3505
ZBAA,2006-03-21 19:00,ZBAA 211900Z AUTO 17002KT 2SM 09/04 A2985 RMK SLP106 T00900040 IEM_DS3505
ZBAA,2006-03-21 20:00,ZBAA 212000Z AUTO 21004KT 2SM 08/04 A2983 RMK SLP100 T00800040 IEM_DS3505
ZBAA,2006-03-21 21:00,ZBAA 212100Z AUTO 25006KT 4SM 08/03 A2983 RMK SLP098 T00820027 57006 IEM_DS3505
ZBAA,2006-03-21 22:00,ZBAA 212200Z AUTO 29014KT 6SM 11/ A2985 RMK SLP106 IEM_DS3505
ZBAA,2006-03-21 23:00,ZBAA 212300Z AUTO 30017KT 6SM 12/M14 A2988 RMK SLP117 T01201140 IEM_DS3505
ZBAA,2006-03-22 00:00,ZBAA 220000Z AUTO 34012KT 16SM 13/M16 A2991 RMK SLP138 T01281159 52040 IEM_DS3505
ZBAA,2006-03-22 01:00,ZBAA 220100Z AUTO 32016KT 6SM 15/M15 A2994 RMK SLP136 T01501150 IEM_DS3505
ZBAA,2006-03-22 02:00,ZBAA 220200Z AUTO 32017G29KT 6SM 17/M15 A2997 RMK SLP146 T01701150 IEM_DS3505
ZBAA,2006-03-22 03:00,ZBAA 220300Z AUTO 34014G27KT 19SM 16/M16 A2997 RMK SLP146 T01571158 52008 IEM_DS3505
ZBAA,2006-03-22 04:00,ZBAA 220400Z AUTO 32021G31KT 6SM 17/M16 A2994 RMK SLP136 T01701160 IEM_DS3505
ZBAA,2006-03-22 05:00,ZBAA 220500Z AUTO 33021G33KT 6SM 18/M17 A2994 RMK SLP136 T01801170 IEM_DS3505
ZBAA,2006-03-22 06:00,ZBAA 220600Z AUTO 32012G35KT 19SM 18/M17 A2991 RMK SLP131 T01751171 57015 IEM_DS3505
ZBAA,2006-03-22 07:00,ZBAA 220700Z AUTO 33019G29KT 6SM 18/M16 A2988 RMK SLP116 T01801160 IEM_DS3505
ZBAA,2006-03-22 08:00,ZBAA 220800Z AUTO 33019G31KT 6SM 18/M17 A2991 RMK SLP126 T01801170 IEM_DS3505
ZBAA,2006-03-22 09:00,ZBAA 220900Z AUTO 32012KT 19SM 16/M15 A2991 RMK SLP130 T01641153 57001 IEM_DS3505
ZBAA,2006-03-22 10:00,ZBAA 221000Z AUTO 32019KT 6SM 15/M15 A2994 RMK SLP136 T01501150 IEM_DS3505
ZBAA,2006-03-22 11:00,ZBAA 221100Z AUTO 32019G29KT 6SM 14/M16 A2997 RMK SLP147 T01401160 IEM_DS3505
ZBAA,2006-03-22 12:00,ZBAA 221200Z AUTO 34008G27KT 19SM 13/M17 A3003 RMK SLP166 T01311167 52036 IEM_DS3505
ZBAA,2006-03-22 13:00,ZBAA 221300Z AUTO 33017G27KT 6SM 12/M15 A3006 RMK SLP178 T01201150 IEM_DS3505
ZBAA,2006-03-22 14:00,ZBAA 221400Z AUTO 35012KT 6SM 10/M15 A3009 RMK SLP188 T01001150 IEM_DS3505
ZBAA,2006-03-22 15:00,ZBAA 221500Z AUTO 36010KT 19SM 11/M16 A3012 RMK SLP194 T01081156 52028 IEM_DS3505
ZBAA,2006-03-22 16:00,ZBAA 221600Z AUTO 35012KT 6SM 08/M15 A3012 RMK SLP199 T00801150 IEM_DS3505
ZBAA,2006-03-22 17:00,ZBAA 221700Z AUTO 34012KT 6SM 08/M17 A3012 RMK SLP199 T00801170 IEM_DS3505
ZBAA,2006-03-22 18:00,ZBAA 221800Z AUTO 04006KT 19SM 08/M18 A3015 RMK SLP202 T00851175 52007 IEM_DS3505
ZBAA,2006-03-22 19:00,ZBAA 221900Z AUTO 35006KT 6SM 03/M16 A3015 RMK SLP209 T00301160 IEM_DS3505
ZBAA,2006-03-22 20:00,ZBAA 222000Z AUTO 36006KT 6SM 04/M16 A3015 RMK SLP209 T00401160 IEM_DS3505
ZBAA,2006-03-22 21:00,ZBAA 222100Z AUTO 07002KT 19SM 04/M16 A3015 RMK SLP206 T00451165 52004 IEM_DS3505
ZBAA,2006-03-22 22:00,ZBAA 222200Z AUTO 28002KT 6SM 03/M15 A3015 RMK SLP209 T00301150 IEM_DS3505
ZBAA,2006-03-22 23:00,ZBAA 222300Z AUTO 28006KT 6SM 05/M17 A3015 RMK SLP209 T00501170 IEM_DS3505
ZBAA,2006-03-23 00:00,ZBAA 230000Z AUTO 16004KT 19SM 09/M17 A3015 RMK SLP212 T00901171 52006 IEM_DS3505
ZBAA,2006-03-23 01:00,ZBAA 230100Z AUTO 29004KT 6SM 10/M17 A3018 RMK SLP218 T01001170 IEM_DS3505
ZBAA,2006-03-23 02:00,ZBAA 230200Z AUTO 6SM 12/M17 A3015 RMK SLP208 T01201170 IEM_DS3505
ZBAA,2006-03-23 03:00,ZBAA 230300Z AUTO 09004KT 19SM 12/M17 A3012 RMK SLP199 T01221174 57013 IEM_DS3505
ZBAA,2006-03-23 04:00,ZBAA 230400Z AUTO 26008KT 6SM 13/M18 A3009 RMK SLP188 T01301180 IEM_DS3505
ZBAA,2006-03-23 05:00,ZBAA 230500Z AUTO 6SM 13/M18 A3006 RMK SLP178 T01301180 IEM_DS3505
ZBAA,2006-03-23 06:00,ZBAA 230600Z AUTO 18004KT 19SM 14/M18 A3000 RMK SLP160 T01391185 57039 IEM_DS3505
ZBAA,2006-03-23 07:00,ZBAA 230700Z AUTO 19008KT 6SM 15/M17 A2997 RMK SLP146 T01501170 IEM_DS3505
ZBAA,2006-03-23 08:00,ZBAA 230800Z AUTO 18014KT 6SM 15/M17 A2994 RMK SLP136 T01501170 IEM_DS3505
ZBAA,2006-03-23 09:00,ZBAA 230900Z AUTO 22010KT 19SM 14/M17 A2994 RMK SLP137 T01391172 57023 IEM_DS3505
ZBAA,2006-03-23 10:00,ZBAA 231000Z AUTO 18012KT 6SM 12/M16 A2991 RMK SLP127 T01201160 IEM_DS3505
ZBAA,2006-03-23 11:00,ZBAA 231100Z AUTO 18008KT 6SM 10/M15 A2994 RMK SLP137 T01001150 IEM_DS3505
ZBAA,2006-03-23 12:00,ZBAA 231200Z AUTO 20006KT 9SM 11/M17 A2994 RMK SLP138 T01071166 52001 IEM_DS3505
ZBAA,2006-03-23 13:00,ZBAA 231300Z AUTO 14006KT 6SM 10/M10 A2994 RMK SLP137 T01001100 IEM_DS3505
ZBAA,2006-03-23 14:00,ZBAA 231400Z AUTO 15006KT 6SM 08/M07 A2994 RMK SLP137 T00801070 IEM_DS3505
ZBAA,2006-03-23 15:00,ZBAA 231500Z AUTO 20006KT 9SM 08/M10 A2994 RMK SLP140 T00761097 52002 IEM_DS3505
ZBAA,2006-03-23 16:00,ZBAA 231600Z AUTO 13006KT 6SM 07/M06 A2994 RMK SLP138 T00701060 IEM_DS3505
ZBAA,2006-03-23 17:00,ZBAA 231700Z AUTO 6SM 05/M05 A2991 RMK SLP128 T00501050 IEM_DS3505
ZBAA,2006-03-23 18:00,ZBAA 231800Z AUTO 20002KT 9SM 05/M09 A2991 RMK SLP126 T00541088 57014 IEM_DS3505
ZBAA,2006-03-23 19:00,ZBAA 231900Z AUTO 05006KT 6SM 03/M04 A2988 RMK SLP118 T00301040 IEM_DS3505
ZBAA,2006-03-23 20:00,ZBAA 232000Z AUTO 09006KT 6SM 03/M05 A2988 RMK SLP118 T00301050 IEM_DS3505
ZBAA,2006-03-23 21:00,ZBAA 232100Z AUTO 04004KT 8SM 03/M07 A2988 RMK SLP110 T00271069 57016 IEM_DS3505
ZBAA,2006-03-23 22:00,ZBAA 232200Z AUTO 02002KT 6SM 01/M05 A2988 RMK SLP118 T00101050 IEM_DS3505
ZBAA,2006-03-23 23:00,ZBAA 232300Z AUTO 36002KT 6SM 02/M04 A2988 RMK SLP118 T00201040 IEM_DS3505
ZBAA,2006-03-24 00:00,ZBAA 240000Z AUTO 04004KT 8SM 05/M06 A2988 RMK SLP115 T00501059 52005 IEM_DS3505
ZBAA,2006-03-24 01:00,ZBAA 240100Z AUTO 04002KT 6SM 07/M03 A2988 RMK SLP117 T00701030 IEM_DS3505
ZBAA,2006-03-24 02:00,ZBAA 240200Z AUTO 5SM 09/M04 A2988 RMK SLP117 T00901040 IEM_DS3505
ZBAA,2006-03-24 03:00,ZBAA 240300Z AUTO 16006KT 12SM 14/M07 A2985 RMK SLP104 T01411073 57010 IEM_DS3505
ZBAA,2006-03-24 04:00,ZBAA 240400Z AUTO 18008KT 5SM 16/M06 A2983 RMK SLP099 T01601060 IEM_DS3505
ZBAA,2006-03-24 04:30,ZBAA 240430Z AUTO 21008KT 5SM 17/M07 A2980 RMK SLP088 T01701070 IEM_DS3505
ZBAA,2006-03-24 05:00,ZBAA 240500Z AUTO 22010KT 6SM 18/M11 A2977 RMK SLP078 T01801110 IEM_DS3505
ZBAA,2006-03-24 06:00,ZBAA 240600Z AUTO 27008G25KT 19SM 20/M17 A2974 RMK SLP070 T01991169 57034 IEM_DS3505
ZBAA,2006-03-24 07:00,ZBAA 240700Z AUTO 27016G27KT 4SM 21/M16 A2971 RMK SLP057 T02101160 IEM_DS3505
ZBAA,2006-03-24 08:00,ZBAA 240800Z AUTO 27016G31KT 5SM 22/M17 A2968 RMK SLP047 T02201170 IEM_DS3505
ZBAA,2006-03-24 09:00,ZBAA 240900Z AUTO 29008G27KT 19SM 21/M18 A2968 RMK SLP052 T02111179 57018 IEM_DS3505
ZBAA,2006-03-24 10:00,ZBAA 241000Z AUTO 30014KT 4SM 21/M18 A2968 RMK SLP047 T02101180 IEM_DS3505
ZBAA,2006-03-24 11:00,ZBAA 241100Z AUTO 30019KT 5SM 20/M19 A2974 RMK SLP067 T02001190 IEM_DS3505
ZBAA,2006-03-24 12:00,ZBAA 241200Z AUTO 32008KT 16SM 19/M19 A2977 RMK SLP075 T01941191 52023 IEM_DS3505
ZBAA,2006-03-24 13:00,ZBAA 241300Z AUTO 30008KT 6SM 18/M17 A2980 RMK SLP088 T01801170 IEM_DS3505
ZBAA,2006-03-24 14:00,ZBAA 241400Z AUTO 31004KT 6SM 16/M17 A2980 RMK SLP088 T01601170 IEM_DS3505
ZBAA,2006-03-24 15:00,ZBAA 241500Z AUTO 32008KT 12SM 18/M19 A2983 RMK SLP091 T01751187 52016 IEM_DS3505
ZBAA,2006-03-24 16:00,ZBAA 241600Z AUTO 30010KT 6SM 15/M16 A2983 RMK SLP099 T01501160 IEM_DS3505
ZBAA,2006-03-24 17:00,ZBAA 241700Z AUTO 30008KT 6SM 14/M17 A2983 RMK SLP099 T01401170 IEM_DS3505
ZBAA,2006-03-24 18:00,ZBAA 241800Z AUTO 29006KT 16SM 16/M19 A2983 RMK SLP091 T01561186 52001 IEM_DS3505
ZBAA,2006-03-24 19:00,ZBAA 241900Z AUTO 27006KT 6SM 12/M16 A2983 RMK SLP100 T01201160 IEM_DS3505
ZBAA,2006-03-24 20:00,ZBAA 242000Z AUTO 29006KT 6SM 11/M17 A2983 RMK SLP100 T01101170 IEM_DS3505
ZBAA,2006-03-24 21:00,ZBAA 242100Z AUTO 36010KT 19SM 13/M18 A2985 RMK SLP105 T01301179 52013 IEM_DS3505
ZBAA,2006-03-24 22:00,ZBAA 242200Z AUTO 32017KT 3SM 11/M16 A2991 RMK SLP127 T01101160 IEM_DS3505
ZBAA,2006-03-24 23:00,ZBAA 242300Z AUTO 31017KT 3SM 10/M17 A2997 RMK SLP147 T01001170 IEM_DS3505
ZBAA,2006-03-25 00:00,ZBAA 250000Z AUTO 02010KT 5SM 10/M18 A3000 RMK SLP154 T01041178 52049 IEM_DS3505
ZBAA,2006-03-25 01:00,ZBAA 250100Z AUTO 32019KT 4SM 12/M22 A3003 RMK SLP167 T01201220 IEM_DS3505
ZBAA,2006-03-25 02:00,ZBAA 250200Z AUTO 32019G29KT 4SM 12/M23 A3003 RMK SLP167 T01201230 IEM_DS3505
ZBAA,2006-03-25 03:00,ZBAA 250300Z AUTO 36010G29KT 6SM 12/M21 A3003 RMK SLP169 T01201213 52015 IEM_DS3505
ZBAA,2006-03-25 04:00,ZBAA 250400Z AUTO 33016G25KT 6SM 13/M26 A3003 RMK SLP167 T01301260 IEM_DS3505
ZBAA,2006-03-25 05:00,ZBAA 250500Z AUTO 03010KT 6SM 12/M24 A3003 RMK SLP167 T01201240 IEM_DS3505
ZBAA,2006-03-25 06:00,ZBAA 250600Z AUTO 02008KT 7SM 13/M24 A3003 RMK SLP163 T01341235 57006 IEM_DS3505
ZBAA,2006-03-25 07:00,ZBAA 250700Z AUTO 01008KT 6SM 13/M26 A3003 RMK SLP167 T01301260 IEM_DS3505
ZBAA,2006-03-25 08:00,ZBAA 250800Z AUTO 06008KT 6SM 13/M26 A3003 RMK SLP167 T01301260 IEM_DS3505
ZBAA,2006-03-25 09:00,ZBAA 250900Z AUTO 04008KT 9SM 13/M26 A3003 RMK SLP164 T01301258 52001 IEM_DS3505
ZBAA,2006-03-25 10:00,ZBAA 251000Z AUTO 04010KT 6SM 11/M25 A3006 RMK SLP178 T01101250 IEM_DS3505
ZBAA,2006-03-25 11:00,ZBAA 251100Z AUTO 06006KT 6SM 10/M24 A3009 RMK SLP188 T01001240 IEM_DS3505
ZBAA,2006-03-25 12:00,ZBAA 251200Z AUTO 07008KT 16SM 10/M26 A3012 RMK SLP195 T00951264 52030 IEM_DS3505
ZBAA,2006-03-25 13:00,ZBAA 251300Z AUTO 04010KT 6SM 08/M24 A3015 RMK SLP209 T00801240 IEM_DS3505
ZBAA,2006-03-25 14:00,ZBAA 251400Z AUTO 08006KT 6SM 08/M23 A3018 RMK SLP219 T00801230 IEM_DS3505
ZBAA,2006-03-25 15:00,ZBAA 251500Z AUTO 18008KT 12SM 06/ A3021 RMK SLP224 52029 IEM_DS3505
ZBAA,2006-03-25 16:00,ZBAA 251600Z AUTO 10004KT 6SM 06/M16 A3021 RMK SLP229 T00601160 IEM_DS3505
ZBAA,2006-03-25 17:00,ZBAA 251700Z AUTO 00000KT 6SM 04/M07 A3021 RMK SLP229 T00401070 IEM_DS3505
ZBAA,2006-03-25 18:00,ZBAA 251800Z AUTO 04002KT 7SM 04/M04 A3018 RMK SLP216 T00371045 57008 IEM_DS3505
ZBAA,2006-03-25 19:00,ZBAA 251900Z AUTO 05002KT 6SM 03/M07 A3018 RMK SLP219 T00301070 IEM_DS3505
ZBAA,2006-03-25 20:00,ZBAA 252000Z AUTO 06004KT 6SM 03/M04 A3015 RMK SLP209 T00301040 IEM_DS3505
ZBAA,2006-03-25 21:00,ZBAA 252100Z AUTO 22002KT 6SM 04/M04 A3015 RMK SLP210 T00451038 57006 IEM_DS3505
ZBAA,2006-03-25 22:00,ZBAA 252200Z AUTO 08004KT 6SM 03/M03 A3015 RMK SLP209 T00301030 IEM_DS3505
ZBAA,2006-03-25 23:00,ZBAA 252300Z AUTO 19006KT 4SM 03/M03 A3021 RMK SLP229 T00301030 IEM_DS3505
ZBAA,2006-03-26 00:00,ZBAA 260000Z AUTO 02002KT 7SM 06/M08 A3021 RMK SLP223 T00631084 52013 IEM_DS3505
ZBAA,2006-03-26 01:00,ZBAA 260100Z AUTO 01008KT 6SM 05/M05 A3021 RMK SLP229 T00501050 IEM_DS3505
ZBAA,2006-03-26 02:00,ZBAA 260200Z AUTO 05006KT 6SM 05/M02 A3018 RMK SLP219 T00501020 IEM_DS3505
ZBAA,2006-03-26 03:00,ZBAA 260300Z AUTO 14008KT 9SM 08/M08 A3015 RMK SLP208 T00831078 57015 IEM_DS3505
ZBAA,2006-03-26 04:00,ZBAA 260400Z AUTO 10004G14KT 6SM 09/M04 A3012 RMK SLP198 T00901040 IEM_DS3505
ZBAA,2006-03-26 05:00,ZBAA 260500Z AUTO 18014KT 6SM 11/M10 A3006 RMK SLP178 T01101100 IEM_DS3505
ZBAA,2006-03-26 06:00,ZBAA 260600Z AUTO 18010G23KT 12SM 12/M15 A3003 RMK SLP163 T01161150 57045 IEM_DS3505
ZBAA,2006-03-26 07:00,ZBAA 260700Z AUTO 19012KT 6SM 12/M14 A2997 RMK SLP147 T01201140 IEM_DS3505
ZBAA,2006-03-26 08:00,ZBAA 260800Z AUTO 19012KT 6SM 12/M12 A2991 RMK SLP127 T01201120 IEM_DS3505
ZBAA,2006-03-26 09:00,ZBAA 260900Z AUTO 20010KT 12SM 12/M17 A2988 RMK SLP117 T01191166 57046 IEM_DS3505
ZBAA,2006-03-26 10:00,ZBAA 261000Z AUTO 14010KT 6SM 10/M12 A2988 RMK SLP117 T01001120 IEM_DS3505
ZBAA,2006-03-26 11:00,ZBAA 261100Z AUTO 14010KT 6SM 09/M11 A2988 RMK SLP117 T00901110 IEM_DS3505
ZBAA,2006-03-26 12:00,ZBAA 261200Z AUTO 14006KT 12SM 08/M08 A2991 RMK SLP127 T00841082 52010 IEM_DS3505
ZBAA,2006-03-26 13:00,ZBAA 261300Z AUTO 12008KT 6SM 08/M08 A2994 RMK SLP137 T00801080 IEM_DS3505
ZBAA,2006-03-26 14:00,ZBAA 261400Z AUTO 07008KT 6SM 07/M08 A2997 RMK SLP148 T00701080 IEM_DS3505
ZBAA,2006-03-26 15:00,ZBAA 261500Z AUTO 07004KT 16SM 07/M06 A2997 RMK SLP141 T00711056 52014 IEM_DS3505
ZBAA,2006-03-26 16:00,ZBAA 261600Z AUTO 34002KT 6SM 06/M08 A2997 RMK SLP148 T00601080 IEM_DS3505
ZBAA,2006-03-26 17:00,ZBAA 261700Z AUTO 00000KT 6SM 07/M07 A2997 RMK SLP148 T00701070 IEM_DS3505
ZBAA,2006-03-26 18:00,ZBAA 261800Z AUTO 36004KT 6SM 07/M11 A2997 RMK SLP147 T00701112 52006 IEM_DS3505
ZBAA,2006-03-26 19:00,ZBAA 261900Z AUTO 27004KT 4SM 07/M08 A2994 RMK SLP138 T00701080 IEM_DS3505
ZBAA,2006-03-26 20:00,ZBAA 262000Z AUTO 31012KT 3SM 07/M17 A2994 RMK SLP138 T00701170 IEM_DS3505
ZBAA,2006-03-26 21:00,ZBAA 262100Z AUTO 36008KT 4SM 07/M19 A2994 RMK SLP135 T00721194 57012 IEM_DS3505
ZBAA,2006-03-26 22:00,ZBAA 262200Z AUTO 33010KT 3SM 05/M18 A2994 RMK SLP138 T00501180 IEM_DS3505
ZBAA,2006-03-26 23:00,ZBAA 262300Z AUTO 35010KT 4SM 05/M18 A2997 RMK SLP148 T00501180 IEM_DS3505
ZBAA,2006-03-27 00:00,ZBAA 270000Z AUTO 04006KT 5SM 06/M18 A2997 RMK SLP145 T00641184 52010 IEM_DS3505
ZBAA,2006-03-27 01:00,ZBAA 270100Z AUTO 35012KT 5SM 07/M17 A2997 RMK SLP148 T00701170 IEM_DS3505
ZBAA,2006-03-27 02:00,ZBAA 270200Z AUTO 33014G23KT 5SM 08/M17 A2997 RMK SLP147 T00801170 IEM_DS3505
ZBAA,2006-03-27 03:00,ZBAA 270300Z AUTO 36008G33KT 5SM 07/M17 A3000 RMK SLP146 T00731169 52001 IEM_DS3505
ZBAA,2006-03-27 04:00,ZBAA 270400Z AUTO 32019KT 4SM 07/M16 A2997 RMK SLP148 T00701160 IEM_DS3505
ZBAA,2006-03-27 05:00,ZBAA 270500Z AUTO 31021KT 6SM 08/M17 A2997 RMK SLP147 T00801170 IEM_DS3505
ZBAA,2006-03-27 06:00,ZBAA 270600Z AUTO 32012KT 5SM 07/M14 A2994 RMK SLP140 T00741135 57006 IEM_DS3505
ZBAA,2006-03-27 07:00,ZBAA 270700Z AUTO 34016KT 6SM 10/M18 A2994 RMK SLP137 T01001180 IEM_DS3505
ZBAA,2006-03-27 08:00,ZBAA 270800Z AUTO 33019KT 5SM 10/M19 A2994 RMK SLP137 T01001190 IEM_DS3505
ZBAA,2006-03-27 09:00,ZBAA 270900Z AUTO 34014G37KT 5SM 09/M22 A2997 RMK SLP153 T00861225 52013 IEM_DS3505
ZBAA,2006-03-27 10:00,ZBAA 271000Z AUTO 32023G33KT 6SM 08/M24 A3003 RMK SLP168 T00801240 IEM_DS3505
ZBAA,2006-03-27 11:00,ZBAA 271100Z AUTO 32019G31KT 6SM 07/M24 A3006 RMK SLP179 T00701240 IEM_DS3505
ZBAA,2006-03-27 12:00,ZBAA 271200Z AUTO 34008KT 8SM 07/M22 A3009 RMK SLP195 T00681217 52042 IEM_DS3505
ZBAA,2006-03-27 13:00,ZBAA 271300Z AUTO 32017G27KT 6SM 06/M20 A3015 RMK SLP209 T00601200 IEM_DS3505
ZBAA,2006-03-27 14:00,ZBAA 271400Z AUTO 31016KT 6SM 05/M20 A3015 RMK SLP209 T00501200 IEM_DS3505
ZBAA,2006-03-27 15:00,ZBAA 271500Z AUTO 34012KT 12SM 06/M20 A3018 RMK SLP221 T00561198 52025 IEM_DS3505
ZBAA,2006-03-27 16:00,ZBAA 271600Z AUTO 30016KT 6SM 04/M17 A3018 RMK SLP219 T00401170 IEM_DS3505
ZBAA,2006-03-27 17:00,ZBAA 271700Z AUTO 31014KT 6SM 04/M17 A3021 RMK SLP229 T00401170 IEM_DS3505
ZBAA,2006-03-27 18:00,ZBAA 271800Z AUTO 34006KT 12SM 04/M18 A3021 RMK SLP229 T00391176 52008 IEM_DS3505
ZBAA,2006-03-27 19:00,ZBAA 271900Z AUTO 32012KT 6SM 03/M16 A3021 RMK SLP229 T00301160 IEM_DS3505
ZBAA,2006-03-27 20:00,ZBAA 272000Z AUTO 28006KT 6SM 02/M16 A3018 RMK SLP220 T00201160 IEM_DS3505
ZBAA,2006-03-27 21:00,ZBAA 272100Z AUTO 34002KT 12SM 03/M17 A3018 RMK SLP220 T00291173 57009 IEM_DS3505
ZBAA,2006-03-27 22:00,ZBAA 272200Z AUTO 28008KT 6SM 01/M15 A3018 RMK SLP220 T00101150 IEM_DS3505
ZBAA,2006-03-27 23:00,ZBAA 272300Z AUTO 28006KT 6SM 02/M15 A3021 RMK SLP230 T00201150 IEM_DS3505
ZBAA,2006-03-28 00:00,ZBAA 280000Z AUTO 32004KT 12SM 05/M21 A3021 RMK SLP231 T00511211 52011 IEM_DS3505
ZBAA,2006-03-28 01:00,ZBAA 280100Z AUTO 30010KT 6SM 07/M21 A3021 RMK SLP229 T00701210 IEM_DS3505
ZBAA,2006-03-28 02:00,ZBAA 280200Z AUTO 31010KT 6SM 07/M21 A3021 RMK SLP229 T00701210 IEM_DS3505
ZBAA,2006-03-28 03:00,ZBAA 280300Z AUTO 29010KT 19SM 09/M21 A3015 RMK SLP210 T00941207 57020 IEM_DS3505
ZBAA,2006-03-28 04:00,ZBAA 280400Z AUTO 28014KT 6SM 11/M21 A3012 RMK SLP198 T01101210 IEM_DS3505
ZBAA,2006-03-28 05:00,ZBAA 280500Z AUTO 27016KT 6SM 11/M19 A3006 RMK SLP178 T01101190 IEM_DS3505
ZBAA,2006-03-28 06:00,ZBAA 280600Z AUTO 22012G25KT 19SM 12/M19 A3000 RMK SLP168 T01151191 57042 IEM_DS3505
ZBAA,2006-03-28 07:00,ZBAA 280700Z AUTO 21017G27KT 6SM 13/M17 A2997 RMK SLP147 T01301170 IEM_DS3505
ZBAA,2006-03-28 08:00,ZBAA 280800Z AUTO 21017KT 6SM 13/M17 A2991 RMK SLP127 T01301170 IEM_DS3505
ZBAA,2006-03-28 09:00,ZBAA 280900Z AUTO 22016KT 19SM 12/M18 A2988 RMK SLP128 T01191177 57040 IEM_DS3505
ZBAA,2006-03-28 10:00,ZBAA 281000Z AUTO 20014KT 6SM 11/M16 A2988 RMK SLP117 T01101160 IEM_DS3505
ZBAA,2006-03-28 11:00,ZBAA 281100Z AUTO 19012KT 6SM 11/M14 A2988 RMK SLP117 T01101140 IEM_DS3505
ZBAA,2006-03-28 12:00,ZBAA 281200Z AUTO 22008KT 19SM 10/M14 A2988 RMK SLP120 T00971142 57008 IEM_DS3505
ZBAA,2006-03-28 13:00,ZBAA 281300Z AUTO 14008KT 6SM 10/M13 A2988 RMK SLP117 T01001130 IEM_DS3505
ZBAA,2006-03-28 14:00,ZBAA 281400Z AUTO 13006KT 6SM 09/M12 A2988 RMK SLP117 T00901120 IEM_DS3505
ZBAA,2006-03-28 15:00,ZBAA 281500Z AUTO 22004KT 9SM 09/M12 A2985 RMK SLP106 T00871118 57014 IEM_DS3505
ZBAA,2006-03-28 16:00,ZBAA 281600Z AUTO 13006KT 6SM 06/M11 A2983 RMK SLP101 T00601110 IEM_DS3505
ZBAA,2006-03-28 17:00,ZBAA 281700Z AUTO 10008KT 6SM 05/M11 A2980 RMK SLP090 T00501110 IEM_DS3505
ZBAA,2006-03-28 18:00,ZBAA 281800Z AUTO 32002KT 9SM 06/M10 A2980 RMK SLP084 T00571101 57022 IEM_DS3505
ZBAA,2006-03-28 19:00,ZBAA 281900Z AUTO 10004KT 6SM 04/M11 A2980 RMK SLP090 T00401110 IEM_DS3505
ZBAA,2006-03-28 20:00,ZBAA 282000Z AUTO 36006KT 6SM 01/M11 A2977 RMK SLP080 T00101110 IEM_DS3505
ZBAA,2006-03-28 21:00,ZBAA 282100Z AUTO 09004KT 9SM 03/M09 A2977 RMK SLP078 T00291091 57006 IEM_DS3505
ZBAA,2006-03-28 22:00,ZBAA 282200Z AUTO 04002KT 5SM 02/M10 A2977 RMK SLP080 T00201100 IEM_DS3505
ZBAA,2006-03-28 23:00,ZBAA 282300Z AUTO 03002KT 4SM 03/M10 A2980 RMK SLP090 T00301100 IEM_DS3505
ZBAA,2006-03-29 00:00,ZBAA 290000Z AUTO 07004KT 9SM 06/M10 A2980 RMK SLP091 T00601098 52013 IEM_DS3505
ZBAA,2006-03-29 01:00,ZBAA 290100Z AUTO 01004KT 4SM 08/M11 A2983 RMK SLP100 T00801110 IEM_DS3505
ZBAA,2006-03-29 02:00,ZBAA 290200Z AUTO 03004KT 5SM 11/M10 A2983 RMK SLP100 T01101100 IEM_DS3505
ZBAA,2006-03-29 03:00,ZBAA 290300Z AUTO 09006KT 9SM 14/M10 A2980 RMK SLP088 T01421105 57002 IEM_DS3505
ZBAA,2006-03-29 04:00,ZBAA 290400Z AUTO 10004KT 6SM 16/M10 A2980 RMK SLP088 T01601100 IEM_DS3505
ZBAA,2006-03-29 05:00,ZBAA 290500Z AUTO 02004KT 6SM 19/M10 A2977 RMK SLP078 T01901100 IEM_DS3505
ZBAA,2006-03-29 06:00,ZBAA 290600Z AUTO 22004KT 9SM 19/M12 A2974 RMK SLP073 T01871124 57015 IEM_DS3505
ZBAA,2006-03-29 07:00,ZBAA 290700Z AUTO 27008G19KT 6SM 20/M11 A2974 RMK SLP067 T02001110 IEM_DS3505
ZBAA,2006-03-29 08:00,ZBAA 290800Z AUTO 30008G17KT 6SM 21/M12 A2974 RMK SLP067 T02101120 IEM_DS3505
ZBAA,2006-03-29 09:00,ZBAA 290900Z AUTO 29012KT 12SM 21/M13 A2977 RMK SLP074 T02061134 52001 IEM_DS3505
ZBAA,2006-03-29 10:00,ZBAA 291000Z AUTO 35012KT 6SM 19/M15 A2980 RMK SLP088 T01901150 IEM_DS3505
ZBAA,2006-03-29 11:00,ZBAA 291100Z AUTO 35012KT 6SM 16/M14 A2983 RMK SLP099 T01601140 IEM_DS3505
ZBAA,2006-03-29 12:00,ZBAA 291200Z AUTO 09010KT 7SM 10/M07 A2991 RMK SLP127 T00971066 52052 IEM_DS3505
ZBAA,2006-03-29 13:00,ZBAA 291300Z AUTO 14014KT 6SM 07/M03 A2997 RMK SLP148 T00701030 IEM_DS3505
ZBAA,2006-03-29 14:00,ZBAA 291400Z AUTO 16008KT 6SM 06/M01 A3003 RMK SLP168 T00601010 IEM_DS3505
ZBAA,2006-03-29 15:00,ZBAA 291500Z AUTO 07004KT 9SM 06/M04 A3009 RMK SLP185 T00561043 52058 IEM_DS3505
ZBAA,2006-03-29 16:00,ZBAA 291600Z AUTO 27002KT 6SM 05/M01 A3009 RMK SLP189 T00501010 IEM_DS3505
ZBAA,2006-03-29 17:00,ZBAA 291700Z AUTO 36002KT 6SM 04/M02 A3009 RMK SLP189 T00401020 IEM_DS3505
ZBAA,2006-03-29 18:00,ZBAA 291800Z AUTO 36002KT 7SM 04/M04 A3009 RMK SLP189 T00441038 52004 IEM_DS3505
ZBAA,2006-03-29 19:00,ZBAA 291900Z AUTO 36002KT 6SM 03/M02 A3009 RMK SLP189 T00301020 IEM_DS3505
ZBAA,2006-03-29 20:00,ZBAA 292000Z AUTO 00000KT 6SM 02/M03 A3009 RMK SLP189 T00201030 IEM_DS3505
ZBAA,2006-03-29 21:00,ZBAA 292100Z AUTO 09002KT 6SM 03/M04 A3012 RMK SLP193 T00271036 52004 IEM_DS3505
ZBAA,2006-03-29 22:00,ZBAA 292200Z AUTO 6SM 03/M02 A3012 RMK SLP199 T00301020 IEM_DS3505
ZBAA,2006-03-29 23:00,ZBAA 292300Z AUTO 16004KT 6SM 04/M02 A3012 RMK SLP199 T00401020 IEM_DS3505
ZBAA,2006-03-30 00:00,ZBAA 300000Z AUTO 14002KT 7SM 07/M04 A3012 RMK SLP201 T00671041 52008 IEM_DS3505
ZBAA,2006-03-30 01:00,ZBAA 300100Z AUTO 11004KT 4SM 08/M04 A3015 RMK SLP209 T00801040 IEM_DS3505
ZBAA,2006-03-30 02:00,ZBAA 300200Z AUTO 17010KT 6SM 11/M09 A3012 RMK SLP198 T01101090 IEM_DS3505
ZBAA,2006-03-30 02:30,ZBAA 300230Z AUTO 20010KT 6SM 11/M11 A3012 RMK SLP198 T01101110 IEM_DS3505
ZBAA,2006-03-30 03:00,ZBAA 300300Z AUTO 18006KT 9SM 11/M11 A3012 RMK SLP195 T01131108 57006 IEM_DS3505
ZBAA,2006-03-30 04:00,ZBAA 300400Z AUTO 16008KT 6SM 13/M09 A3009 RMK SLP188 T01301090 IEM_DS3505
ZBAA,2006-03-30 05:00,ZBAA 300500Z AUTO 16010KT 6SM 13/M10 A3006 RMK SLP178 T01301100 IEM_DS3505
ZBAA,2006-03-30 06:00,ZBAA 300600Z AUTO 20010KT 9SM 15/M11 A3003 RMK SLP161 T01461109 57034 IEM_DS3505
ZBAA,2006-03-30 07:00,ZBAA 300700Z AUTO 17010KT 6SM 15/M09 A3000 RMK SLP156 T01501090 IEM_DS3505
ZBAA,2006-03-30 08:00,ZBAA 300800Z AUTO 14008KT 6SM 15/M06 A2997 RMK SLP146 T01501060 IEM_DS3505
ZBAA,2006-03-30 09:00,ZBAA 300900Z AUTO 11006KT 12SM 15/M08 A2994 RMK SLP136 T01511083 57025 IEM_DS3505
ZBAA,2006-03-30 10:00,ZBAA 301000Z AUTO 12012KT 6SM 13/M08 A2994 RMK SLP137 T01301080 IEM_DS3505
ZBAA,2006-03-30 11:00,ZBAA 301100Z AUTO 13010KT 6SM 11/M06 A2994 RMK SLP137 T01101060 IEM_DS3505
ZBAA,2006-03-30 12:00,ZBAA 301200Z AUTO 11004KT 9SM 09/M06 A2997 RMK SLP149 T00891061 52013 IEM_DS3505
ZBAA,2006-03-30 13:00,ZBAA 301300Z AUTO 13008KT 6SM 08/M07 A2997 RMK SLP147 T00801070 IEM_DS3505
ZBAA,2006-03-30 14:00,ZBAA 301400Z AUTO 14006KT 6SM 07/M06 A2997 RMK SLP148 T00701060 IEM_DS3505
ZBAA,2006-03-30 15:00,ZBAA 301500Z AUTO 07002KT 9SM 06/M05 A3000 RMK SLP151 T00621054 52002 IEM_DS3505
ZBAA,2006-03-30 16:00,ZBAA 301600Z AUTO 13004KT 6SM 06/M07 A2997 RMK SLP148 T00601070 IEM_DS3505
ZBAA,2006-03-30 17:00,ZBAA 301700Z AUTO 17004KT 6SM 05/M08 A2994 RMK SLP138 T00501080 IEM_DS3505
ZBAA,2006-03-30 18:00,ZBAA 301800Z AUTO 07004KT 9SM 05/M08 A2991 RMK SLP128 T00461082 57023 IEM_DS3505
ZBAA,2006-03-30 19:00,ZBAA 301900Z AUTO 19002KT 6SM 05/M09 A2988 RMK SLP118 T00501090 IEM_DS3505
ZBAA,2006-03-30 20:00,ZBAA 302000Z AUTO 29002KT 6SM 03/M09 A2985 RMK SLP107 T00301090 IEM_DS3505
ZBAA,2006-03-30 21:00,ZBAA 302100Z AUTO 02002KT 9SM 04/M09 A2985 RMK SLP106 T00371090 57022 IEM_DS3505
ZBAA,2006-03-30 22:00,ZBAA 302200Z AUTO 28006KT 6SM 04/M07 A2985 RMK SLP107 T00401070 IEM_DS3505
ZBAA,2006-03-30 23:00,ZBAA 302300Z AUTO 29004KT 6SM 04/M07 A2985 RMK SLP107 T00401070 IEM_DS3505
ZBAA,2006-03-31 00:00,ZBAA 310000Z AUTO 04002KT 7SM 07/M10 A2985 RMK SLP104 T00681096 57002 IEM_DS3505
ZBAA,2006-03-31 01:00,ZBAA 310100Z AUTO 31004KT 6SM 09/M07 A2985 RMK SLP106 T00901070 IEM_DS3505
ZBAA,2006-03-31 02:00,ZBAA 310200Z AUTO 03004KT 6SM 10/M08 A2985 RMK SLP106 T01001080 IEM_DS3505
ZBAA,2006-03-31 03:00,ZBAA 310300Z AUTO 04004KT 9SM 11/M07 A2983 RMK SLP094 T01081070 57010 IEM_DS3505
ZBAA,2006-03-31 05:00,ZBAA 310500Z AUTO 16004KT 6SM 14/M05 A2974 RMK SLP068 T01401050 IEM_DS3505
ZBAA,2006-03-31 06:00,ZBAA 310600Z AUTO 16004KT 9SM 16/M06 A2971 RMK SLP056 T01551055 57037 IEM_DS3505
ZBAA,2006-03-31 07:00,ZBAA 310700Z AUTO 5SM 16/M04 A2968 RMK SLP048 T01601040 IEM_DS3505
ZBAA,2006-03-31 08:00,ZBAA 310800Z AUTO 15004KT 5SM 17/M03 A2965 RMK SLP038 T01701030 IEM_DS3505
ZBAA,2006-03-31 09:00,ZBAA 310900Z AUTO 18004KT 9SM 17/M03 A2965 RMK SLP039 T01711031 57017 IEM_DS3505
ZBAA,2006-03-31 10:00,ZBAA 311000Z AUTO 19004KT 4SM 16/M01 A2968 RMK SLP048 T01601010 IEM_DS3505
ZBAA,2006-03-31 11:00,ZBAA 311100Z AUTO 18002KT 4SM 14/M01 A2968 RMK SLP048 T01401010 IEM_DS3505
ZBAA,2006-03-31 12:00,ZBAA 311200Z AUTO 07004KT 7SM 14/M00 A2968 RMK SLP049 T01371004 52010 IEM_DS3505
ZBAA,2006-03-31 13:00,ZBAA 311300Z AUTO 04004KT 2 1/2SM 12/00 A2971 RMK SLP059 T01200000 IEM_DS3505
ZBAA,2006-03-31 14:00,ZBAA 311400Z AUTO 04004KT 2 1/2SM 12/01 A2971 RMK SLP059 T01200010 IEM_DS3505
ZBAA,2006-03-31 15:00,ZBAA 311500Z AUTO 04004KT 6SM 13/03 A2971 RMK SLP056 T01300028 52007 IEM_DS3505
ZBAA,2006-03-31 16:00,ZBAA 311600Z AUTO 00000KT 2 1/2SM 12/04 A2971 RMK SLP059 T01200040 IEM_DS3505
ZBAA,2006-03-31 17:00,ZBAA 311700Z AUTO 13004KT 2 1/2SM 12/05 A2971 RMK SLP059 T01200050 IEM_DS3505
ZBAA,2006-03-31 18:00,ZBAA 311800Z AUTO 04004KT 6SM 12/04 A2968 RMK SLP048 T01230040 57008 IEM_DS3505
ZBAA,2006-03-31 19:00,ZBAA 311900Z AUTO 29006KT 2 1/2SM 12/02 A2968 RMK SLP048 T01200020 IEM_DS3505
ZBAA,2006-03-31 20:00,ZBAA 312000Z AUTO 29004KT 2 1/2SM 12/02 A2968 RMK SLP048 T01200020 IEM_DS3505
ZBAA,2006-03-31 21:00,ZBAA 312100Z AUTO 09004KT 6SM 11/05 A2968 RMK SLP050 T01130050 52002 IEM_DS3505
ZBAA,2006-03-31 22:00,ZBAA 312200Z AUTO 2 1/2SM 11/01 A2971 RMK SLP059 T01100010 IEM_DS3505
ZBAA,2006-03-31 23:00,ZBAA 312300Z AUTO 34006KT 2 1/2SM 12/00 A2971 RMK SLP059 T01200000 IEM_DS3505
ZBAA,2006-04-01 00:00,ZBAA 010000Z AUTO 07004KT 5SM 12/01 A2971 RMK 60000 70000 SLP060 T01210011 52010 IEM_DS3505
ZBAA,2006-04-01 01:00,ZBAA 010100Z AUTO 02010KT 2 1/2SM 14/02 A2974 RMK T01400020 IEM_DS3505
ZBAA,2006-04-01 02:00,ZBAA 010200Z AUTO 12004KT 2 1/2SM 13/04 A2977 RMK T01300040 IEM_DS3505
ZBAA,2006-04-01 03:00,ZBAA 010300Z AUTO 09008KT 6SM 14/05 A2977 RMK SLP076 T01440050 52016 IEM_DS3505
ZBAA,2006-04-01 04:00,ZBAA 010400Z AUTO 05014KT 6SM 16/05 A2977 RMK T01600050 IEM_DS3505
ZBAA,2006-04-01 05:00,ZBAA 010500Z AUTO 05012KT 6SM 17/04 A2974 RMK T01700040 IEM_DS3505
ZBAA,2006-04-01 06:00,ZBAA 010600Z AUTO 11006KT 7SM 16/06 A2974 RMK SLP066 T01580060 57010 IEM_DS3505
ZBAA,2006-04-01 07:00,ZBAA 010700Z AUTO 07008KT 6SM 18/03 A2971 RMK T01800030 IEM_DS3505
ZBAA,2006-04-01 08:00,ZBAA 010800Z AUTO 6SM 19/02 A2971 RMK T01900020 IEM_DS3505
ZBAA,2006-04-01 09:00,ZBAA 010900Z AUTO 16008KT 9SM 15/05 A2971 RMK SLP069 T01480048 52003 IEM_DS3505
ZBAA,2006-04-01 10:00,ZBAA 011000Z AUTO 18014KT 6SM 14/06 A2974 RMK T01400060 IEM_DS3505
ZBAA,2006-04-01 11:00,ZBAA 011100Z AUTO 17012KT 6SM 13/06 A2977 RMK T01300060 IEM_DS3505
ZBAA,2006-04-01 12:00,ZBAA 011200Z AUTO 20006KT 9SM 12/05 A2980 RMK SLP090 T01180048 52021 IEM_DS3505
ZBAA,2006-04-01 13:00,ZBAA 011300Z AUTO 14006KT 6SM 11/05 A2983 RMK T01100050 IEM_DS3505
ZBAA,2006-04-01 14:00,ZBAA 011400Z AUTO 17006KT 5SM 10/06 A2983 RMK T01000060 IEM_DS3505
ZBAA,2006-04-01 15:00,ZBAA 011500Z AUTO 22008KT 9SM 09/05 A2985 RMK SLP104 T00920050 52014 IEM_DS3505
ZBAA,2006-04-01 16:00,ZBAA 011600Z AUTO 16006KT 2 1/2SM 09/06 A2983 RMK T00900060 IEM_DS3505
ZBAA,2006-04-01 17:00,ZBAA 011700Z AUTO 15006KT 2 1/2SM 08/06 A2983 RMK T00800060 IEM_DS3505
ZBAA,2006-04-01 18:00,ZBAA 011800Z AUTO 25008KT 9SM 07/05 A2983 RMK SLP093 T00730048 57011 IEM_DS3505
ZBAA,2006-04-01 19:00,ZBAA 011900Z AUTO 13004KT 2SM 07/06 A2980 RMK T00700060 IEM_DS3505
ZBAA,2006-04-01 20:00,ZBAA 012000Z AUTO 14004KT 1 1/2SM 07/05 A2980 RMK T00700050 IEM_DS3505
ZBAA,2006-04-01 21:00,ZBAA 012100Z AUTO 22004KT 6SM 06/04 A2977 RMK 70000 SLP081 T00580041 57012 IEM_DS3505
ZBAA,2006-04-01 22:00,ZBAA 012200Z AUTO 13002KT 1 1/4SM 05/05 A2977 RMK T00500050 IEM_DS3505
ZBAA,2006-04-01 23:00,ZBAA 012300Z AUTO 1SM 06/05 A2977 RMK T00600050 IEM_DS3505
ZBAA,2006-04-02 00:00,ZBAA 020000Z AUTO 22006KT 4SM 06/05 A2977 RMK SLP075 T00650050 57007 IEM_DS3505
ZBAA,2006-04-02 01:00,ZBAA 020100Z AUTO 07004KT 1SM 08/06 A2974 RMK T00800060 IEM_DS3505
ZBAA,2006-04-02 02:00,ZBAA 020200Z AUTO 06004KT 1SM 09/06 A2974 RMK T00900060 IEM_DS3505
ZBAA,2006-04-02 03:00,ZBAA 020300Z AUTO 20004KT 2 1/2SM 11/06 A2971 RMK SLP058 T01140055 57016 IEM_DS3505
ZBAA,2006-04-02 04:00,ZBAA 020400Z AUTO 14008KT 1SM 13/07 A2968 RMK T01300070 IEM_DS3505
ZBAA,2006-04-02 05:00,ZBAA 020500Z AUTO 16008KT 1 1/4SM 17/06 A2962 RMK T01700060 IEM_DS3505
ZBAA,2006-04-02 06:00,ZBAA 020600Z AUTO 25006KT 7SM 22/00 A2959 RMK SLP018 T02250004 57040 IEM_DS3505
ZBAA,2006-04-02 07:00,ZBAA 020700Z AUTO 20014G25KT 2SM 23/03 A2956 RMK T02300030 IEM_DS3505
ZBAA,2006-04-02 08:00,ZBAA 020800Z AUTO 20014KT 3SM 25/M01 A2953 RMK T02501010 IEM_DS3505
ZBAA,2006-04-02 09:00,ZBAA 020900Z AUTO 22008KT 9SM 24/M06 A2956 RMK SLP001 T02421059 57016 IEM_DS3505
ZBAA,2006-04-02 10:00,ZBAA 021000Z AUTO 15004KT 4SM 22/M02 A2956 RMK T02201020 IEM_DS3505
ZBAA,2006-04-02 11:00,ZBAA 021100Z AUTO 3SM 19/M02 A2959 RMK T01901020 IEM_DS3505
ZBAA,2006-04-02 12:00,ZBAA 021200Z AUTO 22006KT 7SM 20/M04 A2962 RMK SLP025 T01991037 52023 IEM_DS3505
ZBAA,2006-04-02 13:00,ZBAA 021300Z AUTO 01004KT 2 1/2SM 16/03 A2965 RMK T01600030 IEM_DS3505
ZBAA,2006-04-02 14:00,ZBAA 021400Z AUTO 36004KT 2 1/2SM 15/04 A2968 RMK T01500040 IEM_DS3505
ZBAA,2006-04-02 15:00,ZBAA 021500Z AUTO 35006KT 7SM 16/M01 A2971 RMK SLP051 T01581013 52026 IEM_DS3505
ZBAA,2006-04-02 16:00,ZBAA 021600Z AUTO 35002KT 2 1/2SM 12/04 A2971 RMK T01200040 IEM_DS3505
ZBAA,2006-04-02 17:00,ZBAA 021700Z AUTO 27004KT 2 1/2SM 12/03 A2971 RMK T01200030 IEM_DS3505
ZBAA,2006-04-02 18:00,ZBAA 021800Z AUTO 14002KT 6SM 13/02 A2971 RMK SLP056 T01260025 52006 IEM_DS3505
ZBAA,2006-04-02 19:00,ZBAA 021900Z AUTO 35004KT 2 1/2SM 09/02 A2971 RMK T00900020 IEM_DS3505
ZBAA,2006-04-02 20:00,ZBAA 022000Z AUTO 35006KT 2 1/2SM 08/02 A2971 RMK T00800020 IEM_DS3505
ZBAA,2006-04-02 21:00,ZBAA 022100Z AUTO 33002KT 6SM 10/02 A2971 RMK SLP055 T00970016 57001 IEM_DS3505
ZBAA,2006-04-02 22:00,ZBAA 022200Z AUTO 33004KT 2 1/2SM 08/01 A2974 RMK T00800010 IEM_DS3505
ZBAA,2006-04-02 23:00,ZBAA 022300Z AUTO 36004KT 2 1/2SM 10/01 A2974 RMK T01000010 IEM_DS3505
ZBAA,2006-04-03 00:00,ZBAA 030000Z AUTO 04006KT 6SM 14/02 A2977 RMK SLP071 T01350018 52015 IEM_DS3505
ZBAA,2006-04-03 01:00,ZBAA 030100Z AUTO 06004KT 2 1/2SM 16/02 A2974 RMK T01600020 IEM_DS3505
ZBAA,2006-04-03 02:00,ZBAA 030200Z AUTO 01006KT 2 1/2SM 18/02 A2974 RMK T01800020 IEM_DS3505
ZBAA,2006-04-03 03:00,ZBAA 030300Z AUTO 07008KT 6SM 19/03 A2971 RMK SLP056 T01930026 57014 IEM_DS3505
ZBAA,2006-04-03 04:00,ZBAA 030400Z AUTO 13006KT 2 1/2SM 21/04 A2968 RMK T02100040 IEM_DS3505
ZBAA,2006-04-03 06:00,ZBAA 030600Z AUTO 16004KT 6SM 23/06 A2962 RMK SLP026 T02280057 57030 IEM_DS3505
ZBAA,2006-04-03 07:00,ZBAA 030700Z AUTO 13008KT 2 1/2SM 24/08 A2959 RMK T02400080 IEM_DS3505
ZBAA,2006-04-03 08:00,ZBAA 030800Z AUTO 13008KT 2 1/2SM 24/08 A2959 RMK T02400080 IEM_DS3505
ZBAA,2006-04-03 09:00,ZBAA 030900Z AUTO 09004KT 6SM 24/06 A2956 RMK SLP008 T02410055 57018 IEM_DS3505
ZBAA,2006-04-03 10:00,ZBAA 031000Z AUTO 12008KT 2 1/2SM 22/08 A2959 RMK T02200080 IEM_DS3505
ZBAA,2006-04-03 11:00,ZBAA 031100Z AUTO 11006KT 2 1/2SM 21/09 A2962 RMK T02100090 IEM_DS3505
ZBAA,2006-04-03 12:00,ZBAA 031200Z AUTO 04004KT 7SM 20/07 A2965 RMK SLP033 T01960070 52025 IEM_DS3505
ZBAA,2006-04-03 13:00,ZBAA 031300Z AUTO 10002KT 2 1/2SM 17/08 A2968 RMK T01700080 IEM_DS3505
ZBAA,2006-04-03 14:00,ZBAA 031400Z AUTO 03004KT 2 1/2SM 17/08 A2971 RMK T01700080 IEM_DS3505
ZBAA,2006-04-03 15:00,ZBAA 031500Z AUTO 07002KT 6SM 18/06 A2971 RMK SLP059 T01800062 52026 IEM_DS3505
ZBAA,2006-04-03 16:00,ZBAA 031600Z AUTO 36008KT 2 1/2SM 15/08 A2974 RMK T01500080 IEM_DS3505
ZBAA,2006-04-03 17:00,ZBAA 031700Z AUTO 35010KT 4SM 14/05 A2974 RMK T01400050 IEM_DS3505
ZBAA,2006-04-03 18:00,ZBAA 031800Z AUTO 04006KT 9SM 19/ A2974 RMK SLP068 52009 IEM_DS3505
ZBAA,2006-04-03 19:00,ZBAA 031900Z AUTO 03006KT 6SM 17/M07 A2980 RMK T01701070 IEM_DS3505
ZBAA,2006-04-03 20:00,ZBAA 032000Z AUTO 02012KT 6SM 18/ A2980 RMK IEM_DS3505
ZBAA,2006-04-03 21:00,ZBAA 032100Z AUTO 11006KT 7SM 14/ A2983 RMK SLP095 52027 IEM_DS3505
ZBAA,2006-04-03 22:00,ZBAA 032200Z AUTO 13004KT 6SM 13/00 A2985 RMK T01300000 IEM_DS3505
ZBAA,2006-04-03 23:00,ZBAA 032300Z AUTO 20004KT 4SM 12/06 A2988 RMK T01200060 IEM_DS3505
ZBAA,2006-04-04 00:00,ZBAA 040000Z AUTO 14002KT 6SM 13/05 A2988 RMK SLP121 T01300049 52025 IEM_DS3505
ZBAA,2006-04-04 01:00,ZBAA 040100Z AUTO 22004KT 2 1/2SM 15/04 A2991 RMK T01500040 IEM_DS3505
ZBAA,2006-04-04 02:00,ZBAA 040200Z AUTO 6SM 19/01 A2991 RMK T01900010 IEM_DS3505
ZBAA,2006-04-04 03:00,ZBAA 040300Z AUTO 18004KT 6SM 17/01 A2991 RMK SLP134 T01660011 52013 IEM_DS3505
ZBAA,2006-04-04 04:00,ZBAA 040400Z AUTO 05010KT 6SM 22/ A2991 RMK IEM_DS3505
ZBAA,2006-04-04 05:00,ZBAA 040500Z AUTO 03008KT 6SM 22/M14 A2988 RMK T02201140 IEM_DS3505
ZBAA,2006-04-04 06:00,ZBAA 040600Z AUTO 16004KT 7SM 21/M08 A2988 RMK SLP113 T02091085 57020 IEM_DS3505
ZBAA,2006-04-04 07:00,ZBAA 040700Z AUTO 07006KT 6SM 21/M14 A2985 RMK T02101140 IEM_DS3505
ZBAA,2006-04-04 08:00,ZBAA 040800Z AUTO 04006KT 6SM 21/M14 A2985 RMK T02101140 IEM_DS3505
ZBAA,2006-04-04 09:00,ZBAA 040900Z AUTO 22004KT 7SM 21/M10 A2985 RMK SLP111 T02061098 57003 IEM_DS3505
ZBAA,2006-04-04 10:00,ZBAA 041000Z AUTO 09004KT 6SM 20/M12 A2988 RMK T02001120 IEM_DS3505
ZBAA,2006-04-04 11:00,ZBAA 041100Z AUTO 18002KT 6SM 19/M14 A2991 RMK T01901140 IEM_DS3505
ZBAA,2006-04-04 12:00,ZBAA 041200Z AUTO 03002KT 7SM 16/ A2994 RMK SLP135 52024 IEM_DS3505
ZBAA,2006-04-04 13:00,ZBAA 041300Z AUTO 07006KT 6SM 18/M11 A2997 RMK T01801110 IEM_DS3505
ZBAA,2006-04-04 14:00,ZBAA 041400Z AUTO 08004KT 6SM 15/M10 A3000 RMK T01501100 IEM_DS3505
ZBAA,2006-04-04 15:00,ZBAA 041500Z AUTO 04008KT 16SM 16/M13 A3000 RMK SLP154 T01601134 52019 IEM_DS3505
ZBAA,2006-04-04 16:00,ZBAA 041600Z AUTO 02008KT 6SM 14/M11 A3003 RMK T01401110 IEM_DS3505
ZBAA,2006-04-04 17:00,ZBAA 041700Z AUTO 01008KT 6SM 13/M12 A3003 RMK T01301120 IEM_DS3505
ZBAA,2006-04-04 18:00,ZBAA 041800Z AUTO 04006KT 12SM 13/M13 A3006 RMK SLP171 T01291131 52017 IEM_DS3505
ZBAA,2006-04-04 19:00,ZBAA 041900Z AUTO 04008KT 6SM 12/M12 A3006 RMK T01201120 IEM_DS3505
ZBAA,2006-04-04 20:00,ZBAA 042000Z AUTO 06008KT 6SM 11/M12 A3009 RMK T01101120 IEM_DS3505
ZBAA,2006-04-04 21:00,ZBAA 042100Z AUTO 07006KT 12SM 09/M04 A3012 RMK SLP196 T00901035 52025 IEM_DS3505
ZBAA,2006-04-04 22:00,ZBAA 042200Z AUTO 15004KT 6SM 09/M07 A3015 RMK T00901070 IEM_DS3505
ZBAA,2006-04-04 23:00,ZBAA 042300Z AUTO 18006KT 6SM 10/M04 A3018 RMK T01001040 IEM_DS3505
ZBAA,2006-04-05 00:00,ZBAA 050000Z AUTO 14006KT 12SM 10/M09 A3021 RMK SLP227 T00961090 52030 IEM_DS3505
ZBAA,2006-04-05 01:00,ZBAA 050100Z AUTO 19010KT 6SM 10/M08 A3021 RMK T01001080 IEM_DS3505
ZBAA,2006-04-05 02:00,ZBAA 050200Z AUTO 16014KT 6SM 11/M09 A3021 RMK T01101090 IEM_DS3505
ZBAA,2006-04-05 03:00,ZBAA 050300Z AUTO 18012KT 16SM 12/M04 A3021 RMK SLP223 T01211037 57003 IEM_DS3505
ZBAA,2006-04-05 04:00,ZBAA 050400Z AUTO 20012KT 6SM 13/M03 A3018 RMK T01301030 IEM_DS3505
ZBAA,2006-04-05 05:00,ZBAA 050500Z AUTO 19014KT 6SM 14/M04 A3015 RMK T01401040 IEM_DS3505
ZBAA,2006-04-05 06:00,ZBAA 050600Z AUTO 18010KT 12SM 14/M08 A3012 RMK SLP196 T01361077 57027 IEM_DS3505
ZBAA,2006-04-05 07:00,ZBAA 050700Z AUTO 18014KT 6SM 14/M06 A3009 RMK T01401060 IEM_DS3505
ZBAA,2006-04-05 08:00,ZBAA 050800Z AUTO 16014KT 6SM 14/M06 A3006 RMK T01401060 IEM_DS3505
ZBAA,2006-04-05 09:00,ZBAA 050900Z AUTO 16008KT 12SM 12/M06 A3006 RMK SLP177 T01161063 57020 IEM_DS3505
ZBAA,2006-04-05 10:00,ZBAA 051000Z AUTO 15014KT 6SM 11/M05 A3006 RMK T01101050 IEM_DS3505
ZBAA,2006-04-05 11:00,ZBAA 051100Z AUTO 14012KT 6SM 10/M06 A3009 RMK T01001060 IEM_DS3505
ZBAA,2006-04-05 12:00,ZBAA 051200Z AUTO 16008KT 12SM 08/M08 A3009 RMK SLP191 T00841082 52014 IEM_DS3505
ZBAA,2006-04-05 13:00,ZBAA 051300Z AUTO 17010KT 6SM 08/M06 A3012 RMK T00801060 IEM_DS3505
ZBAA,2006-04-05 14:00,ZBAA 051400Z AUTO 17010KT 6SM 08/M06 A3012 RMK T00801060 IEM_DS3505
ZBAA,2006-04-05 15:00,ZBAA 051500Z AUTO 18006KT 12SM 07/M06 A3012 RMK SLP197 T00731064 52006 IEM_DS3505
ZBAA,2006-04-05 16:00,ZBAA 051600Z AUTO 11006KT 7SM 07/M02 A3012 RMK T00701020 IEM_DS3505
ZBAA,2006-04-05 17:00,ZBAA 051700Z AUTO 10008KT 6SM 05/01 A3009 RMK T00500010 IEM_DS3505
ZBAA,2006-04-05 18:00,ZBAA 051800Z AUTO 09006KT 16SM 06/M02 A3006 RMK SLP178 T00621024 57019 IEM_DS3505
ZBAA,2006-04-05 19:00,ZBAA 051900Z AUTO 08008KT 6SM 04/01 A3003 RMK T00400010 IEM_DS3505
ZBAA,2006-04-05 20:00,ZBAA 052000Z AUTO 08008KT 6SM 04/01 A3000 RMK T00400010 IEM_DS3505
ZBAA,2006-04-05 21:00,ZBAA 052100Z AUTO 11008KT 16SM 05/M02 A2997 RMK SLP149 T00491020 57029 IEM_DS3505
ZBAA,2006-04-05 22:00,ZBAA 052200Z AUTO 11006KT 7SM 04/01 A2997 RMK T00400010 IEM_DS3505
ZBAA,2006-04-05 23:00,ZBAA 052300Z AUTO 13008KT 7SM 04/00 A2997 RMK T00400000 IEM_DS3505
ZBAA,2006-04-06 00:00,ZBAA 060000Z AUTO 11004KT 19SM 05/M01 A2997 RMK SLP143 T00481012 57006 IEM_DS3505
ZBAA,2006-04-06 01:00,ZBAA 060100Z AUTO 13006KT 6SM 05/00 A2994 RMK T00500000 IEM_DS3505
ZBAA,2006-04-06 02:00,ZBAA 060200Z AUTO 17004KT 6SM 05/00 A2994 RMK T00500000 IEM_DS3505
ZBAA,2006-04-06 03:00,ZBAA 060300Z AUTO 14004KT 16SM 05/00 A2994 RMK SLP129 T00510003 57014 IEM_DS3505
ZBAA,2006-04-06 04:00,ZBAA 060400Z AUTO 05004KT 5SM 05/02 A2991 RMK T00500020 IEM_DS3505
ZBAA,2006-04-06 05:00,ZBAA 060500Z AUTO 09004KT 4SM 05/02 A2985 RMK T00500020 IEM_DS3505
ZBAA,2006-04-06 06:00,ZBAA 060600Z AUTO 09006KT 12SM 08/M00 A2983 RMK 60000 SLP103 T00791001 57026 IEM_DS3505
ZBAA,2006-04-06 07:00,ZBAA 060700Z AUTO 27010KT 3SM 07/02 A2988 RMK T00700020 IEM_DS3505
ZBAA,2006-04-06 08:00,ZBAA 060800Z AUTO 36004KT 3SM 06/03 A2983 RMK T00600030 IEM_DS3505
ZBAA,2006-04-06 09:00,ZBAA 060900Z AUTO 16004KT 9SM 07/02 A2980 RMK SLP087 T00700015 57016 IEM_DS3505
ZBAA,2006-04-06 10:00,ZBAA 061000Z AUTO 05004KT 2 1/2SM 06/02 A2980 RMK T00600020 IEM_DS3505
ZBAA,2006-04-06 11:00,ZBAA 061100Z AUTO 07004KT 2 1/2SM 06/02 A2980 RMK T00600020 IEM_DS3505
ZBAA,2006-04-06 12:00,ZBAA 061200Z AUTO 09004KT 5SM 06/01 A2983 RMK 60001 SLP094 T00600011 52007 IEM_DS3505
ZBAA,2006-04-06 13:00,ZBAA 061300Z AUTO 01006KT 2 1/2SM 06/02 A2983 RMK T00600020 IEM_DS3505
ZBAA,2006-04-06 14:00,ZBAA 061400Z AUTO 03006KT 2 1/2SM 05/03 A2983 RMK T00500030 IEM_DS3505
ZBAA,2006-04-06 15:00,ZBAA 061500Z AUTO 04008KT 5SM 06/01 A2985 RMK SLP098 T00580010 52004 IEM_DS3505
ZBAA,2006-04-06 16:00,ZBAA 061600Z AUTO 01006KT 2SM 05/03 A2983 RMK T00500030 IEM_DS3505
ZBAA,2006-04-06 17:00,ZBAA 061700Z AUTO 16004KT 2SM 05/03 A2983 RMK T00500030 IEM_DS3505
ZBAA,2006-04-06 18:00,ZBAA 061800Z AUTO 25002KT 3SM 05/02 A2985 RMK SLP102 T00500017 52004 IEM_DS3505
ZBAA,2006-04-06 19:00,ZBAA 061900Z AUTO 10004KT 2SM 05/03 A2983 RMK T00500030 IEM_DS3505
ZBAA,2006-04-06 20:00,ZBAA 062000Z AUTO 25004KT 1 1/2SM 05/03 A2983 RMK T00500030 IEM_DS3505
ZBAA,2006-04-06 21:00,ZBAA 062100Z AUTO 27004KT 2 1/2SM 05/02 A2983 RMK 70002 SLP092 T00490016 57010 IEM_DS3505
ZBAA,2006-04-06 22:00,ZBAA 062200Z AUTO 24006KT 1 1/2SM 05/01 A2983 RMK T00500010 IEM_DS3505
ZBAA,2006-04-06 23:00,ZBAA 062300Z AUTO 27017KT 3SM 11/ A2983 RMK IEM_DS3505
ZBAA,2006-04-07 00:00,ZBAA 070000Z AUTO 04002KT 5SM 12/M11 A2985 RMK 70002 SLP105 T01231107 52013 IEM_DS3505
ZBAA,2006-04-07 03:00,ZBAA 070300Z AUTO 29016G29KT 7SM 18/M18 A2985 RMK SLP098 T01851180 57006 IEM_DS3505
ZBAA,2006-04-07 04:00,ZBAA 070400Z AUTO 28019G29KT 6SM 18/M16 A2983 RMK T01801160 IEM_DS3505
ZBAA,2006-04-07 05:00,ZBAA 070500Z AUTO 28017G27KT 6SM 20/M16 A2980 RMK T02001160 IEM_DS3505
ZBAA,2006-04-07 06:00,ZBAA 070600Z AUTO 34008G25KT 19SM 21/M18 A2980 RMK SLP087 T02101180 57011 IEM_DS3505
ZBAA,2006-04-07 07:00,ZBAA 070700Z AUTO 29017KT 6SM 21/M16 A2980 RMK T02101160 IEM_DS3505
ZBAA,2006-04-07 08:00,ZBAA 070800Z AUTO 29017KT 6SM 22/M15 A2980 RMK T02201150 IEM_DS3505
ZBAA,2006-04-07 09:00,ZBAA 070900Z AUTO 34008KT 19SM 22/M20 A2980 RMK SLP083 T02191195 57004 IEM_DS3505
ZBAA,2006-04-07 10:00,ZBAA 071000Z AUTO 35012KT 6SM 20/M15 A2980 RMK T02001150 IEM_DS3505
ZBAA,2006-04-07 11:00,ZBAA 071100Z AUTO 03010KT 6SM 18/M15 A2983 RMK T01801150 IEM_DS3505
ZBAA,2006-04-07 12:00,ZBAA 071200Z AUTO 09006KT 19SM 17/M16 A2985 RMK SLP107 T01681163 52024 IEM_DS3505
ZBAA,2006-04-07 13:00,ZBAA 071300Z AUTO 07006KT 6SM 15/M15 A2988 RMK T01501150 IEM_DS3505
ZBAA,2006-04-07 14:00,ZBAA 071400Z AUTO 08002KT 6SM 12/M16 A2991 RMK T01201160 IEM_DS3505
ZBAA,2006-04-07 15:00,ZBAA 071500Z AUTO 09004KT 16SM 13/M14 A2991 RMK SLP128 T01311138 52021 IEM_DS3505
ZBAA,2006-04-07 16:00,ZBAA 071600Z AUTO 07004KT 6SM 10/M10 A2994 RMK T01001100 IEM_DS3505
ZBAA,2006-04-07 17:00,ZBAA 071700Z AUTO 35004KT 6SM 09/M13 A2994 RMK T00901130 IEM_DS3505
ZBAA,2006-04-07 18:00,ZBAA 071800Z AUTO 11010KT 12SM 10/M06 A2997 RMK SLP144 T01031057 52016 IEM_DS3505
ZBAA,2006-04-07 19:00,ZBAA 071900Z AUTO 12010KT 6SM 08/00 A3000 RMK T00800000 IEM_DS3505
ZBAA,2006-04-07 20:00,ZBAA 072000Z AUTO 12006KT 4SM 07/01 A3000 RMK T00700010 IEM_DS3505
ZBAA,2006-04-07 21:00,ZBAA 072100Z AUTO 07006KT 9SM 06/00 A3003 RMK SLP164 T00610004 52020 IEM_DS3505
ZBAA,2006-04-07 22:00,ZBAA 072200Z AUTO 10004KT 3SM 06/01 A3003 RMK T00600010 IEM_DS3505
ZBAA,2006-04-07 23:00,ZBAA 072300Z AUTO 17004KT 3SM 07/01 A3006 RMK T00700010 IEM_DS3505
ZBAA,2006-04-08 00:00,ZBAA 080000Z AUTO 07006KT 6SM 07/M00 A3006 RMK SLP178 T00661004 52013 IEM_DS3505
ZBAA,2006-04-08 01:00,ZBAA 080100Z AUTO 15006KT 2 1/2SM 08/01 A3006 RMK T00800010 IEM_DS3505
ZBAA,2006-04-08 02:00,ZBAA 080200Z AUTO 16004KT 2 1/2SM 09/01 A3006 RMK T00900010 IEM_DS3505
ZBAA,2006-04-08 03:00,ZBAA 080300Z AUTO 11004KT 7SM 10/M01 A3003 RMK SLP170 T00991012 57008 IEM_DS3505
ZBAA,2006-04-08 04:00,ZBAA 080400Z AUTO 15008KT 2 1/2SM 12/00 A3000 RMK T01200000 IEM_DS3505
ZBAA,2006-04-08 05:00,ZBAA 080500Z AUTO 13008KT 2 1/2SM 12/M01 A3000 RMK T01201010 IEM_DS3505
ZBAA,2006-04-08 06:00,ZBAA 080600Z AUTO 16008KT 9SM 12/M02 A2997 RMK SLP142 T01221024 57028 IEM_DS3505
ZBAA,2006-04-08 07:00,ZBAA 080700Z AUTO 15008KT 4SM 14/M02 A2991 RMK T01401020 IEM_DS3505
ZBAA,2006-04-08 08:00,ZBAA 080800Z AUTO 15012KT 3SM 14/M03 A2988 RMK T01401030 IEM_DS3505
ZBAA,2006-04-08 09:00,ZBAA 080900Z AUTO 09008KT 6SM 12/M04 A2988 RMK SLP116 T01251042 57026 IEM_DS3505
ZBAA,2006-04-08 10:00,ZBAA 081000Z AUTO 12010KT 2 1/2SM 12/M04 A2988 RMK T01201040 IEM_DS3505
ZBAA,2006-04-08 11:00,ZBAA 081100Z AUTO 11006KT 2 1/2SM 12/M04 A2991 RMK T01201040 IEM_DS3505
ZBAA,2006-04-08 12:00,ZBAA 081200Z AUTO 09006KT 7SM 10/M05 A2991 RMK SLP127 T01011047 52011 IEM_DS3505
ZBAA,2006-04-08 13:00,ZBAA 081300Z AUTO 17004KT 2 1/2SM 09/M05 A2991 RMK T00901050 IEM_DS3505
ZBAA,2006-04-08 14:00,ZBAA 081400Z AUTO 23004KT 2 1/2SM 09/M05 A2991 RMK T00901050 IEM_DS3505
ZBAA,2006-04-08 15:00,ZBAA 081500Z AUTO 09002KT 5SM 09/M07 A2991 RMK SLP128 T00921066 52001 IEM_DS3505
ZBAA,2006-04-08 16:00,ZBAA 081600Z AUTO 25004KT 2 1/2SM 09/M05 A2991 RMK T00901050 IEM_DS3505
ZBAA,2006-04-08 17:00,ZBAA 081700Z AUTO 2 1/2SM 08/M05 A2988 RMK T00801050 IEM_DS3505
ZBAA,2006-04-08 18:00,ZBAA 081800Z AUTO 04002KT 4SM 08/M06 A2988 RMK SLP115 T00791062 57013 IEM_DS3505
ZBAA,2006-04-08 19:00,ZBAA 081900Z AUTO 14002KT 2 1/2SM 08/M04 A2985 RMK T00801040 IEM_DS3505
ZBAA,2006-04-08 20:00,ZBAA 082000Z AUTO 17004KT 2 1/2SM 06/M02 A2985 RMK T00601020 IEM_DS3505
ZBAA,2006-04-08 21:00,ZBAA 082100Z AUTO 09004KT 4SM 07/M05 A2985 RMK SLP106 T00741047 57009 IEM_DS3505
ZBAA,2006-04-08 22:00,ZBAA 082200Z AUTO 17002KT 2 1/2SM 06/M02 A2985 RMK T00601020 IEM_DS3505
ZBAA,2006-04-08 23:00,ZBAA 082300Z AUTO 21002KT 2 1/2SM 08/M03 A2985 RMK T00801030 IEM_DS3505
ZBAA,2006-04-09 00:00,ZBAA 090000Z AUTO 07004KT 4SM 08/M04 A2985 RMK SLP105 T00851037 57001 IEM_DS3505
ZBAA,2006-04-09 01:00,ZBAA 090100Z AUTO 2SM 10/M03 A2985 RMK T01001030 IEM_DS3505
ZBAA,2006-04-09 02:00,ZBAA 090200Z AUTO 12002KT 2SM 11/M03 A2985 RMK T01101030 IEM_DS3505
ZBAA,2006-04-09 03:00,ZBAA 090300Z AUTO 09006KT 5SM 11/M02 A2983 RMK SLP102 T01111023 57003 IEM_DS3505
ZBAA,2006-04-09 04:00,ZBAA 090400Z AUTO 2SM 13/M03 A2983 RMK T01301030 IEM_DS3505
ZBAA,2006-04-09 05:00,ZBAA 090500Z AUTO 17004KT 2SM 14/M03 A2980 RMK T01401030 IEM_DS3505
ZBAA,2006-04-09 06:00,ZBAA 090600Z AUTO 07006KT 5SM 13/M02 A2977 RMK SLP070 T01311020 57031 IEM_DS3505
ZBAA,2006-04-09 07:00,ZBAA 090700Z AUTO 11006KT 2 1/2SM 15/00 A2971 RMK T01500000 IEM_DS3505
ZBAA,2006-04-09 08:00,ZBAA 090800Z AUTO 11006KT 2 1/2SM 15/01 A2968 RMK T01500010 IEM_DS3505
ZBAA,2006-04-09 09:00,ZBAA 090900Z AUTO 14004KT 6SM 14/01 A2968 RMK SLP048 T01390012 57022 IEM_DS3505
ZBAA,2006-04-09 10:00,ZBAA 091000Z AUTO 15008KT 2 1/2SM 14/02 A2968 RMK T01400020 IEM_DS3505
ZBAA,2006-04-09 11:00,ZBAA 091100Z AUTO 14006KT 2 1/2SM 13/02 A2971 RMK T01300020 IEM_DS3505
ZBAA,2006-04-09 12:00,ZBAA 091200Z AUTO 18004KT 4SM 12/02 A2974 RMK SLP065 T01250024 52017 IEM_DS3505
ZBAA,2006-04-09 13:00,ZBAA 091300Z AUTO 16002KT 2 1/2SM 12/03 A2974 RMK T01200030 IEM_DS3505
ZBAA,2006-04-09 14:00,ZBAA 091400Z AUTO 12002KT 2 1/2SM 11/03 A2974 RMK T01100030 IEM_DS3505
ZBAA,2006-04-09 15:00,ZBAA 091500Z AUTO 11002KT 4SM 10/03 A2974 RMK SLP067 T01030033 52002 IEM_DS3505
ZBAA,2006-04-09 16:00,ZBAA 091600Z AUTO 11004KT 2 1/2SM 10/03 A2974 RMK T01000030 IEM_DS3505
ZBAA,2006-04-09 17:00,ZBAA 091700Z AUTO 14006KT 2 1/2SM 09/05 A2974 RMK T00900050 IEM_DS3505
ZBAA,2006-04-09 18:00,ZBAA 091800Z AUTO 11004KT 4SM 08/05 A2974 RMK SLP064 T00820046 57003 IEM_DS3505
ZBAA,2006-04-09 19:00,ZBAA 091900Z AUTO 10004KT 2 1/2SM 08/06 A2974 RMK T00800060 IEM_DS3505
ZBAA,2006-04-09 20:00,ZBAA 092000Z AUTO 03002KT 2SM 07/05 A2971 RMK T00700050 IEM_DS3505
ZBAA,2006-04-09 21:00,ZBAA 092100Z AUTO 02002KT 4SM 07/04 A2971 RMK SLP057 T00730044 57007 IEM_DS3505
ZBAA,2006-04-09 22:00,ZBAA 092200Z AUTO 35004KT 2SM 06/05 A2974 RMK T00600050 IEM_DS3505
ZBAA,2006-04-09 23:00,ZBAA 092300Z AUTO 00000KT 1 1/2SM 08/06 A2974 RMK T00800060 IEM_DS3505
ZBAA,2006-04-10 00:00,ZBAA 100000Z AUTO 07002KT 2 1/2SM 10/05 A2977 RMK SLP077 T00990053 52020 IEM_DS3505
ZBAA,2006-04-10 01:00,ZBAA 100100Z AUTO 32006KT 2SM 11/06 A2977 RMK T01100060 IEM_DS3505
ZBAA,2006-04-10 02:00,ZBAA 100200Z AUTO 36002KT 2SM 11/06 A2977 RMK T01100060 IEM_DS3505
ZBAA,2006-04-10 03:00,ZBAA 100300Z AUTO 07004KT 4SM 12/06 A2980 RMK SLP082 T01200059 52005 IEM_DS3505
ZBAA,2006-04-10 04:00,ZBAA 100400Z AUTO 11006KT 1 1/2SM 13/08 A2977 RMK T01300080 IEM_DS3505
ZBAA,2006-04-10 05:00,ZBAA 100500Z AUTO 11008KT 1 1/2SM 14/09 A2977 RMK T01400090 IEM_DS3505
ZBAA,2006-04-10 05:30,ZBAA 100530Z AUTO 11008KT 1 1/4SM 13/10 A2974 RMK T01300100 IEM_DS3505
ZBAA,2006-04-10 06:00,ZBAA 100600Z AUTO 09006KT 3SM 13/09 A2974 RMK SLP064 T01310088 57018 IEM_DS3505
ZBAA,2006-04-10 07:00,ZBAA 100700Z AUTO 11008KT 1 1/4SM 12/11 A2971 RMK T01200110 IEM_DS3505
ZBAA,2006-04-10 08:00,ZBAA 100800Z AUTO 12006KT 1 1/4SM 12/11 A2971 RMK T01200110 IEM_DS3505
ZBAA,2006-04-10 09:00,ZBAA 100900Z AUTO 07004KT 3SM 12/10 A2971 RMK SLP051 T01220103 57013 IEM_DS3505
ZBAA,2006-04-10 10:00,ZBAA 101000Z AUTO 12006KT 1 1/4SM 13/11 A2971 RMK T01300110 IEM_DS3505
ZBAA,2006-04-10 11:00,ZBAA 101100Z AUTO 10006KT 1SM 13/11 A2971 RMK T01300110 IEM_DS3505
ZBAA,2006-04-10 12:00,ZBAA 101200Z AUTO 09004KT 3SM 12/10 A2971 RMK SLP061 T01230100 52010 IEM_DS3505
ZBAA,2006-04-10 13:00,ZBAA 101300Z AUTO 14004KT 1SM 13/11 A2974 RMK T01300110 IEM_DS3505
ZBAA,2006-04-10 14:00,ZBAA 101400Z AUTO 15002KT 1SM 12/11 A2974 RMK T01200110 IEM_DS3505
ZBAA,2006-04-10 15:00,ZBAA 101500Z AUTO 09002KT 2 1/2SM 12/10 A2974 RMK SLP069 T01160099 52008 IEM_DS3505
ZBAA,2006-04-10 17:00,ZBAA 101700Z AUTO 00000KT 1 1/4SM 12/11 A2977 RMK T01200110 IEM_DS3505
ZBAA,2006-04-10 18:00,ZBAA 101800Z AUTO 36002KT 2SM 12/10 A2977 RMK SLP077 T01190101 52008 IEM_DS3505
ZBAA,2006-04-10 19:00,ZBAA 101900Z AUTO 05002KT 1 1/4SM 12/11 A2977 RMK T01200110 IEM_DS3505
ZBAA,2006-04-10 20:00,ZBAA 102000Z AUTO 12004KT 1SM 12/11 A2977 RMK T01200110 IEM_DS3505
ZBAA,2006-04-10 21:00,ZBAA 102100Z AUTO 02004KT 2SM 11/09 A2980 RMK SLP085 T01070093 52008 IEM_DS3505
ZBAA,2006-04-10 22:00,ZBAA 102200Z AUTO 03002KT 1SM 11/10 A2983 RMK T01100100 IEM_DS3505
ZBAA,2006-04-10 23:00,ZBAA 102300Z AUTO 05004KT 1SM 11/11 A2983 RMK T01100110 IEM_DS3505
ZBAA,2006-04-11 00:00,ZBAA 110000Z AUTO 04004KT 1 1/4SM 12/10 A2985 RMK SLP104 T01250102 52019 IEM_DS3505
ZBAA,2006-04-11 01:00,ZBAA 110100Z AUTO 01006KT 2 1/2SM 16/11 A2985 RMK T01600110 IEM_DS3505
ZBAA,2006-04-11 02:00,ZBAA 110200Z AUTO 01012KT 5SM 18/06 A2985 RMK T01800060 IEM_DS3505
ZBAA,2006-04-11 03:00,ZBAA 110300Z AUTO 36012KT 9SM 19/M03 A2985 RMK SLP105 T01881028 52001 IEM_DS3505
ZBAA,2006-04-11 04:00,ZBAA 110400Z AUTO 02017KT 6SM 19/M02 A2988 RMK T01901020 IEM_DS3505
ZBAA,2006-04-11 05:00,ZBAA 110500Z AUTO 02019KT 6SM 19/M04 A2988 RMK T01901040 IEM_DS3505
ZBAA,2006-04-11 06:00,ZBAA 110600Z AUTO 02010KT 12SM 18/M06 A2991 RMK SLP127 T01851055 52022 IEM_DS3505
ZBAA,2006-04-11 07:00,ZBAA 110700Z AUTO 02017G27KT 6SM 17/M07 A2994 RMK T01701070 IEM_DS3505
ZBAA,2006-04-11 08:00,ZBAA 110800Z AUTO 01019G31KT 6SM 16/M08 A2997 RMK T01601080 IEM_DS3505
ZBAA,2006-04-11 09:00,ZBAA 110900Z AUTO 36017G31KT 8SM 14/M10 A2997 RMK SLP145 T01371102 52018 IEM_DS3505
ZBAA,2006-04-11 10:00,ZBAA 111000Z AUTO 01021KT 6SM 12/M11 A3003 RMK T01201110 IEM_DS3505
ZBAA,2006-04-11 11:00,ZBAA 111100Z AUTO 34016KT 6SM 11/M11 A3012 RMK T01101110 IEM_DS3505
ZBAA,2006-04-11 12:00,ZBAA 111200Z AUTO 34017KT 9SM 08/M07 A3015 RMK SLP207 T00781067 52061 IEM_DS3505
ZBAA,2006-04-11 13:00,ZBAA 111300Z AUTO 33017G27KT 7SM 07/M04 A3024 RMK T00701040 IEM_DS3505
ZBAA,2006-04-11 14:00,ZBAA 111400Z AUTO 36021KT 7SM 05/M03 A3027 RMK T00501030 IEM_DS3505
ZBAA,2006-04-11 15:00,ZBAA 111500Z AUTO 36014KT 9SM 03/M04 A3030 RMK SLP255 T00321036 52048 IEM_DS3505
ZBAA,2006-04-11 16:00,ZBAA 111600Z AUTO 33016KT 6SM 04/M05 A3030 RMK T00401050 IEM_DS3505
ZBAA,2006-04-11 17:00,ZBAA 111700Z AUTO 32017KT 6SM 04/M06 A3030 RMK T00401060 IEM_DS3505
ZBAA,2006-04-11 18:00,ZBAA 111800Z AUTO 36010KT 9SM 05/M10 A3033 RMK 60000 SLP260 T00471102 40191//// 52005 IEM_DS3505
ZBAA,2006-04-11 19:00,ZBAA 111900Z AUTO 33017KT 6SM 05/M09 A3033 RMK T00501090 IEM_DS3505
ZBAA,2006-04-11 20:00,ZBAA 112000Z AUTO 31014KT 6SM 04/M09 A3033 RMK T00401090 IEM_DS3505
ZBAA,2006-04-11 21:00,ZBAA 112100Z AUTO 36008G27KT 12SM 04/M12 A3033 RMK 70000 SLP271 T00451116 52011 IEM_DS3505
ZBAA,2006-04-11 22:00,ZBAA 112200Z AUTO 35016KT 6SM 05/M12 A3036 RMK T00501120 IEM_DS3505
ZBAA,2006-04-11 23:00,ZBAA 112300Z AUTO 34010KT 6SM 06/M13 A3033 RMK T00601130 IEM_DS3505
ZBAA,2006-04-12 00:00,ZBAA 120000Z AUTO 36008KT 19SM 06/M13 A3033 RMK 70000 SLP272 T00601130 54000 IEM_DS3505
ZBAA,2006-04-12 01:00,ZBAA 120100Z AUTO 32010KT 6SM 08/M14 A3036 RMK T00801140 IEM_DS3505
ZBAA,2006-04-12 02:00,ZBAA 120200Z AUTO 01014KT 6SM 09/M20 A3033 RMK T00901200 IEM_DS3505
ZBAA,2006-04-12 03:00,ZBAA 120300Z AUTO 02010KT 19SM 10/M20 A3030 RMK SLP261 T00961195 57011 IEM_DS3505
ZBAA,2006-04-12 04:00,ZBAA 120400Z AUTO 36008KT 6SM 11/M19 A3027 RMK T01101190 IEM_DS3505
ZBAA,2006-04-12 05:00,ZBAA 120500Z AUTO 34012KT 6SM 12/M19 A3024 RMK T01201190 IEM_DS3505
ZBAA,2006-04-12 06:00,ZBAA 120600Z AUTO 32016KT 19SM 12/M20 A3021 RMK SLP223 T01241196 57037 IEM_DS3505
ZBAA,2006-04-12 07:00,ZBAA 120700Z AUTO 02008KT 6SM 14/M19 A3015 RMK T01401190 IEM_DS3505
ZBAA,2006-04-12 08:00,ZBAA 120800Z AUTO 6SM 13/M19 A3012 RMK T01301190 IEM_DS3505
ZBAA,2006-04-12 09:00,ZBAA 120900Z AUTO 32006KT 19SM 13/M18 A3015 RMK SLP204 T01301179 57019 IEM_DS3505
ZBAA,2006-04-12 10:00,ZBAA 121000Z AUTO 29010KT 6SM 13/M17 A3015 RMK T01301170 IEM_DS3505
ZBAA,2006-04-12 11:00,ZBAA 121100Z AUTO 29012KT 6SM 12/M15 A3015 RMK T01201150 IEM_DS3505
ZBAA,2006-04-12 12:00,ZBAA 121200Z AUTO 32006KT 19SM 12/M17 A3018 RMK SLP220 T01151169 52016 IEM_DS3505
ZBAA,2006-04-12 13:00,ZBAA 121300Z AUTO 30010G19KT 6SM 11/M14 A3021 RMK T01101140 IEM_DS3505
ZBAA,2006-04-12 14:00,ZBAA 121400Z AUTO 29010KT 6SM 10/M14 A3024 RMK T01001140 IEM_DS3505
ZBAA,2006-04-12 15:00,ZBAA 121500Z AUTO 32006KT 19SM 10/M17 A3024 RMK SLP240 T01031169 52020 IEM_DS3505
ZBAA,2006-04-12 16:00,ZBAA 121600Z AUTO 31008KT 6SM 09/M14 A3024 RMK T00901140 IEM_DS3505
ZBAA,2006-04-12 17:00,ZBAA 121700Z AUTO 28006KT 6SM 08/M13 A3024 RMK T00801130 IEM_DS3505
ZBAA,2006-04-12 18:00,ZBAA 121800Z AUTO 28004KT 9SM 06/M11 A3021 RMK SLP230 T00611110 57010 IEM_DS3505
ZBAA,2006-04-12 19:00,ZBAA 121900Z AUTO 30010KT 6SM 08/M13 A3021 RMK T00801130 IEM_DS3505
ZBAA,2006-04-12 20:00,ZBAA 122000Z AUTO 30008KT 6SM 08/M12 A3021 RMK T00801120 IEM_DS3505
ZBAA,2006-04-12 21:00,ZBAA 122100Z AUTO 16002KT 9SM 04/M11 A3021 RMK SLP229 T00441109 57001 IEM_DS3505
ZBAA,2006-04-12 22:00,ZBAA 122200Z AUTO 29008KT 6SM 07/M11 A3021 RMK T00701110 IEM_DS3505
ZBAA,2006-04-12 23:00,ZBAA 122300Z AUTO 32010KT 6SM 08/M11 A3024 RMK T00801110 IEM_DS3505
ZBAA,2006-04-13 00:00,ZBAA 130000Z AUTO 29004KT 7SM 10/M11 A3024 RMK SLP242 T01031111 52013 IEM_DS3505
ZBAA,2006-04-13 01:00,ZBAA 130100Z AUTO 30012KT 6SM 12/M11 A3024 RMK T01201110 IEM_DS3505
ZBAA,2006-04-13 02:00,ZBAA 130200Z AUTO 32010KT 6SM 14/M14 A3027 RMK T01401140 IEM_DS3505
ZBAA,2006-04-13 03:00,ZBAA 130300Z AUTO 29004KT 12SM 15/M19 A3024 RMK SLP238 T01501190 57004 IEM_DS3505
ZBAA,2006-04-13 04:00,ZBAA 130400Z AUTO 30004KT 6SM 15/M24 A3021 RMK T01501240 IEM_DS3505
ZBAA,2006-04-13 05:00,ZBAA 130500Z AUTO 6SM 17/M19 A3018 RMK T01701190 IEM_DS3505
ZBAA,2006-04-13 06:00,ZBAA 130600Z AUTO 22006KT 12SM 17/M16 A3015 RMK SLP207 T01681163 57031 IEM_DS3505
ZBAA,2006-04-13 07:00,ZBAA 130700Z AUTO 18010KT 6SM 18/M16 A3012 RMK T01801160 IEM_DS3505
ZBAA,2006-04-13 08:00,ZBAA 130800Z AUTO 18012KT 6SM 18/M13 A3009 RMK T01801130 IEM_DS3505
ZBAA,2006-04-13 09:00,ZBAA 130900Z AUTO 22010KT 12SM 17/M15 A3009 RMK SLP194 T01691149 57013 IEM_DS3505
ZBAA,2006-04-13 10:00,ZBAA 131000Z AUTO 20014KT 6SM 16/M12 A3009 RMK T01601120 IEM_DS3505
ZBAA,2006-04-13 11:00,ZBAA 131100Z AUTO 19014KT 6SM 15/M10 A3012 RMK T01501100 IEM_DS3505
ZBAA,2006-04-13 12:00,ZBAA 131200Z AUTO 22010KT 19SM 14/M08 A3012 RMK SLP204 T01441083 52010 IEM_DS3505
ZBAA,2006-04-13 13:00,ZBAA 131300Z AUTO 20012KT 6SM 14/M05 A3015 RMK T01401050 IEM_DS3505
ZBAA,2006-04-13 14:00,ZBAA 131400Z AUTO 20012KT 6SM 14/M04 A3015 RMK T01401040 IEM_DS3505
ZBAA,2006-04-13 15:00,ZBAA 131500Z AUTO 22014KT 12SM 12/M02 A3015 RMK SLP215 T01231020 52012 IEM_DS3505
ZBAA,2006-04-13 16:00,ZBAA 131600Z AUTO 21010KT 6SM 13/M03 A3018 RMK T01301030 IEM_DS3505
ZBAA,2006-04-13 17:00,ZBAA 131700Z AUTO 20008KT 6SM 12/M03 A3015 RMK T01201030 IEM_DS3505
ZBAA,2006-04-13 18:00,ZBAA 131800Z AUTO 22008KT 7SM 10/M02 A3015 RMK SLP207 T01001017 57008 IEM_DS3505
ZBAA,2006-04-13 19:00,ZBAA 131900Z AUTO 18006KT 6SM 09/M02 A3015 RMK T00901020 IEM_DS3505
ZBAA,2006-04-13 20:00,ZBAA 132000Z AUTO 14004KT 6SM 10/M01 A3015 RMK T01001010 IEM_DS3505
ZBAA,2006-04-13 21:00,ZBAA 132100Z AUTO 22004KT 7SM 08/M00 A3015 RMK SLP210 T00821005 52002 IEM_DS3505
ZBAA,2006-04-13 22:00,ZBAA 132200Z AUTO 14006KT 5SM 08/01 A3018 RMK T00800010 IEM_DS3505
ZBAA,2006-04-13 23:00,ZBAA 132300Z AUTO 12006KT 4SM 09/01 A3018 RMK T00900010 IEM_DS3505
ZBAA,2006-04-14 00:00,ZBAA 140000Z AUTO 20004KT 7SM 09/00 A3018 RMK SLP219 T00900005 52009 IEM_DS3505
ZBAA,2006-04-14 01:00,ZBAA 140100Z AUTO 15004KT 4SM 11/01 A3018 RMK T01100010 IEM_DS3505
ZBAA,2006-04-14 02:00,ZBAA 140200Z AUTO 14008KT 4SM 13/01 A3018 RMK T01300010 IEM_DS3505
ZBAA,2006-04-14 03:00,ZBAA 140300Z AUTO 20006KT 6SM 14/01 A3015 RMK SLP207 T01410014 57012 IEM_DS3505
ZBAA,2006-04-14 04:00,ZBAA 140400Z AUTO 16012KT 4SM 16/01 A3012 RMK T01600010 IEM_DS3505
ZBAA,2006-04-14 05:00,ZBAA 140500Z AUTO 19008KT 4SM 18/01 A3009 RMK T01800010 IEM_DS3505
ZBAA,2006-04-14 06:00,ZBAA 140600Z AUTO 20012KT 9SM 19/M02 A3003 RMK SLP170 T01931018 57036 IEM_DS3505
ZBAA,2006-04-14 07:00,ZBAA 140700Z AUTO 19012KT 4SM 20/M01 A3000 RMK T02001010 IEM_DS3505
ZBAA,2006-04-14 08:00,ZBAA 140800Z AUTO 20014KT 4SM 20/M03 A2997 RMK T02001030 IEM_DS3505
ZBAA,2006-04-14 09:00,ZBAA 140900Z AUTO 22012KT 12SM 19/M02 A2997 RMK SLP150 T01881022 57020 IEM_DS3505
ZBAA,2006-04-14 10:00,ZBAA 141000Z AUTO 19014KT 5SM 18/00 A2997 RMK T01800000 IEM_DS3505
ZBAA,2006-04-14 11:00,ZBAA 141100Z AUTO 20008KT 5SM 18/M01 A2997 RMK T01801010 IEM_DS3505
ZBAA,2006-04-14 12:00,ZBAA 141200Z AUTO 20010KT 9SM 16/M01 A3000 RMK SLP155 T01601007 52005 IEM_DS3505
ZBAA,2006-04-14 13:00,ZBAA 141300Z AUTO 16008KT 4SM 16/01 A3000 RMK T01600010 IEM_DS3505
ZBAA,2006-04-14 14:00,ZBAA 141400Z AUTO 17012KT 4SM 15/01 A3000 RMK T01500010 IEM_DS3505
ZBAA,2006-04-14 15:00,ZBAA 141500Z AUTO 22008KT 9SM 14/01 A3003 RMK SLP164 T01440006 52009 IEM_DS3505
ZBAA,2006-04-14 16:00,ZBAA 141600Z AUTO 13006KT 4SM 14/02 A3003 RMK T01400020 IEM_DS3505
ZBAA,2006-04-14 17:00,ZBAA 141700Z AUTO 10008KT 4SM 13/01 A3003 RMK T01300010 IEM_DS3505
ZBAA,2006-04-14 18:00,ZBAA 141800Z AUTO 09004KT 9SM 12/03 A3006 RMK SLP168 T01210026 52004 IEM_DS3505
ZBAA,2006-04-14 19:00,ZBAA 141900Z AUTO 06006KT 4SM 12/01 A3006 RMK T01200010 IEM_DS3505
ZBAA,2006-04-14 20:00,ZBAA 142000Z AUTO 4SM 12/01 A3006 RMK T01200010 IEM_DS3505
ZBAA,2006-04-14 21:00,ZBAA 142100Z AUTO 02004KT 9SM 10/00 A3006 RMK SLP180 T01040004 52012 IEM_DS3505
ZBAA,2006-04-14 22:00,ZBAA 142200Z AUTO 34006KT 5SM 09/03 A3009 RMK T00900030 IEM_DS3505
ZBAA,2006-04-14 23:00,ZBAA 142300Z AUTO 36002KT 4SM 10/04 A3012 RMK T01000040 IEM_DS3505
ZBAA,2006-04-15 00:00,ZBAA 150000Z AUTO 09010KT 9SM 11/M01 A3015 RMK SLP209 T01141010 52029 IEM_DS3505
ZBAA,2006-04-15 01:00,ZBAA 150100Z AUTO 01006KT 6SM 13/00 A3018 RMK T01300000 IEM_DS3505
ZBAA,2006-04-15 02:00,ZBAA 150200Z AUTO 33010KT 6SM 15/M04 A3015 RMK T01501040 IEM_DS3505
ZBAA,2006-04-15 03:00,ZBAA 150300Z AUTO 04006G21KT 9SM 15/M04 A3015 RMK SLP206 T01461042 57003 IEM_DS3505
ZBAA,2006-04-15 04:00,ZBAA 150400Z AUTO 31012KT 6SM 16/M13 A3015 RMK T01601130 IEM_DS3505
ZBAA,2006-04-15 05:00,ZBAA 150500Z AUTO 34006KT 6SM 16/M12 A3012 RMK T01601120 IEM_DS3505
ZBAA,2006-04-15 06:00,ZBAA 150600Z AUTO 36012KT 19SM 17/M18 A3009 RMK SLP188 T01671177 57018 IEM_DS3505
ZBAA,2006-04-15 07:00,ZBAA 150700Z AUTO 35008KT 6SM 16/M14 A3009 RMK T01601140 IEM_DS3505
ZBAA,2006-04-15 08:00,ZBAA 150800Z AUTO 32014G23KT 6SM 17/M15 A3009 RMK T01701150 IEM_DS3505
ZBAA,2006-04-15 09:00,ZBAA 150900Z AUTO 36010KT 19SM 16/M16 A3009 RMK SLP184 T01601156 57004 IEM_DS3505
ZBAA,2006-04-15 10:00,ZBAA 151000Z AUTO 01012KT 6SM 15/M18 A3009 RMK T01501180 IEM_DS3505
ZBAA,2006-04-15 11:00,ZBAA 151100Z AUTO 05010KT 6SM 13/M18 A3012 RMK T01301180 IEM_DS3505
ZBAA,2006-04-15 12:00,ZBAA 151200Z AUTO 20006KT 9SM 08/ A3018 RMK SLP221 52036 IEM_DS3505
ZBAA,2006-04-15 13:00,ZBAA 151300Z AUTO 14010KT 6SM 08/03 A3021 RMK T00800030 IEM_DS3505
ZBAA,2006-04-15 14:00,ZBAA 151400Z AUTO 15010KT 6SM 07/02 A3024 RMK T00700020 IEM_DS3505
ZBAA,2006-04-15 15:00,ZBAA 151500Z AUTO 22006KT 6SM 06/01 A3024 RMK SLP237 T00590011 52016 IEM_DS3505
ZBAA,2006-04-15 16:00,ZBAA 151600Z AUTO 13004KT 6SM 06/01 A3024 RMK T00600010 IEM_DS3505
ZBAA,2006-04-15 17:00,ZBAA 151700Z AUTO 13006KT 6SM 05/02 A3024 RMK T00500020 IEM_DS3505
ZBAA,2006-04-15 18:00,ZBAA 151800Z AUTO 20004KT 5SM 05/00 A3021 RMK SLP230 T00500004 57007 IEM_DS3505
ZBAA,2006-04-15 19:00,ZBAA 151900Z AUTO 17006KT 6SM 05/02 A3021 RMK T00500020 IEM_DS3505
ZBAA,2006-04-15 20:00,ZBAA 152000Z AUTO 14008KT 6SM 05/02 A3018 RMK T00500020 IEM_DS3505
ZBAA,2006-04-15 21:00,ZBAA 152100Z AUTO 18004KT 6SM 05/M00 A3018 RMK SLP214 T00471001 57016 IEM_DS3505
ZBAA,2006-04-15 22:00,ZBAA 152200Z AUTO 10006KT 4SM 04/02 A3018 RMK T00400020 IEM_DS3505
ZBAA,2006-04-15 23:00,ZBAA 152300Z AUTO 11006KT 4SM 05/01 A3015 RMK T00500010 IEM_DS3505
ZBAA,2006-04-16 00:00,ZBAA 160000Z AUTO 20006KT 7SM 07/M02 A3015 RMK SLP208 T00661025 57006 IEM_DS3505
ZBAA,2006-04-16 01:00,ZBAA 160100Z AUTO 14008KT 5SM 07/00 A3015 RMK T00700000 IEM_DS3505
ZBAA,2006-04-16 02:00,ZBAA 160200Z AUTO 17010KT 6SM 09/M01 A3012 RMK T00901010 IEM_DS3505
ZBAA,2006-04-16 03:00,ZBAA 160300Z AUTO 11006KT 9SM 10/M02 A3009 RMK SLP181 T00991018 57027 IEM_DS3505
ZBAA,2006-04-16 04:00,ZBAA 160400Z AUTO 10012KT 6SM 11/M01 A3003 RMK T01101010 IEM_DS3505
ZBAA,2006-04-16 05:00,ZBAA 160500Z AUTO 13012KT 6SM 12/00 A3000 RMK T01200000 IEM_DS3505
ZBAA,2006-04-16 06:00,ZBAA 160600Z AUTO 14008KT 9SM 12/M03 A2994 RMK SLP131 T01251029 57050 IEM_DS3505
ZBAA,2006-04-16 07:00,ZBAA 160700Z AUTO 13012KT 6SM 13/M02 A2988 RMK T01301020 IEM_DS3505
ZBAA,2006-04-16 08:00,ZBAA 160800Z AUTO 12012KT 6SM 14/M03 A2985 RMK T01401030 IEM_DS3505
ZBAA,2006-04-16 09:00,ZBAA 160900Z AUTO 11010KT 12SM 12/M02 A2983 RMK SLP093 T01251025 57038 IEM_DS3505
ZBAA,2006-04-16 10:00,ZBAA 161000Z AUTO 12012KT 6SM 12/M01 A2980 RMK T01201010 IEM_DS3505
ZBAA,2006-04-16 11:00,ZBAA 161100Z AUTO 11012KT 6SM 10/M01 A2983 RMK T01001010 IEM_DS3505
ZBAA,2006-04-16 12:00,ZBAA 161200Z AUTO 09006KT 9SM 10/00 A2983 RMK SLP095 T00980002 52002 IEM_DS3505
ZBAA,2006-04-16 13:00,ZBAA 161300Z AUTO 08006KT 6SM 10/00 A2983 RMK T01000000 IEM_DS3505
ZBAA,2006-04-16 14:00,ZBAA 161400Z AUTO 10008KT 6SM 10/01 A2980 RMK T01000010 IEM_DS3505
ZBAA,2006-04-16 15:00,ZBAA 161500Z AUTO 09004KT 9SM 10/00 A2983 RMK SLP084 T00950004 57011 IEM_DS3505
ZBAA,2006-04-16 16:00,ZBAA 161600Z AUTO 15006KT 6SM 10/01 A2974 RMK T01000010 IEM_DS3505
ZBAA,2006-04-16 17:00,ZBAA 161700Z AUTO 21004KT 6SM 10/01 A2977 RMK T01000010 IEM_DS3505
ZBAA,2006-04-16 18:00,ZBAA 161800Z AUTO 11002KT 7SM 09/00 A2974 RMK SLP067 T00920001 57016 IEM_DS3505
ZBAA,2006-04-16 19:00,ZBAA 161900Z AUTO 16002KT 4SM 09/01 A2971 RMK T00900010 IEM_DS3505
ZBAA,2006-04-16 20:00,ZBAA 162000Z AUTO 18004KT 4SM 08/02 A2971 RMK T00800020 IEM_DS3505
ZBAA,2006-04-16 21:00,ZBAA 162100Z AUTO 14002KT 6SM 09/00 A2971 RMK SLP055 T00900002 57012 IEM_DS3505
ZBAA,2006-04-16 22:00,ZBAA 162200Z AUTO 17002KT 4SM 08/02 A2971 RMK T00800020 IEM_DS3505
ZBAA,2006-04-16 23:00,ZBAA 162300Z AUTO 17002KT 4SM 09/02 A2974 RMK T00900020 IEM_DS3505
ZBAA,2006-04-17 00:00,ZBAA 170000Z AUTO 07002KT 5SM 10/01 A2974 RMK SLP062 T01000006 52007 IEM_DS3505
ZBAA,2006-04-17 01:00,ZBAA 170100Z AUTO 3SM 11/02 A2974 RMK T01100020 IEM_DS3505
ZBAA,2006-04-17 02:00,ZBAA 170200Z AUTO 13004KT 3SM 12/02 A2974 RMK T01200020 IEM_DS3505
ZBAA,2006-04-17 03:00,ZBAA 170300Z AUTO 18004KT 5SM 14/00 A2974 RMK SLP062 T01400003 54000 IEM_DS3505
ZBAA,2006-04-17 04:00,ZBAA 170400Z AUTO 3SM 16/02 A2971 RMK T01600020 IEM_DS3505
ZBAA,2006-04-17 05:00,ZBAA 170500Z AUTO 14006KT 3SM 17/01 A2968 RMK T01700010 IEM_DS3505
ZBAA,2006-04-17 06:00,ZBAA 170600Z AUTO 16002KT 5SM 17/01 A2968 RMK SLP047 T01700006 57015 IEM_DS3505
ZBAA,2006-04-17 07:00,ZBAA 170700Z AUTO 14008KT 3SM 17/02 A2965 RMK T01700020 IEM_DS3505
ZBAA,2006-04-17 08:00,ZBAA 170800Z AUTO 17008KT 3SM 17/03 A2965 RMK T01700030 IEM_DS3505
ZBAA,2006-04-17 09:00,ZBAA 170900Z AUTO 11004KT 5SM 18/02 A2965 RMK SLP035 T01790018 57012 IEM_DS3505
ZBAA,2006-04-17 10:00,ZBAA 171000Z AUTO 10008KT 3SM 16/05 A2968 RMK T01600050 IEM_DS3505
ZBAA,2006-04-17 11:00,ZBAA 171100Z AUTO 06004KT 3SM 16/05 A2971 RMK T01600050 IEM_DS3505
ZBAA,2006-04-17 12:00,ZBAA 171200Z AUTO 09008KT 5SM 14/06 RMK SLP056 T01360065 52021 IEM_DS3505
ZBAA,2006-04-17 13:00,ZBAA 171300Z AUTO 12008KT 4SM 13/07 A2977 RMK T01300070 IEM_DS3505
ZBAA,2006-04-17 14:00,ZBAA 171400Z AUTO 13012KT 4SM 12/07 A2980 RMK T01200070 IEM_DS3505
ZBAA,2006-04-17 15:00,ZBAA 171500Z AUTO 07004KT 6SM 11/05 A2980 RMK SLP092 T01140051 52036 IEM_DS3505
ZBAA,2006-04-17 16:00,ZBAA 171600Z AUTO 13006KT 4SM 10/07 A2983 RMK T01000070 IEM_DS3505
ZBAA,2006-04-17 17:00,ZBAA 171700Z AUTO 14006KT 4SM 10/06 A2985 RMK T01000060 IEM_DS3505
ZBAA,2006-04-17 18:00,ZBAA 171800Z AUTO 07002KT 7SM 09/05 A2988 RMK SLP116 T00860052 52024 IEM_DS3505
ZBAA,2006-04-17 19:00,ZBAA 171900Z AUTO 17004KT 2SM 08/06 A2988 RMK T00800060 IEM_DS3505
ZBAA,2006-04-17 20:00,ZBAA 172000Z AUTO 18004KT 2 1/2SM 07/05 A2985 RMK T00700050 IEM_DS3505
ZBAA,2006-04-17 21:00,ZBAA 172100Z AUTO 22004KT 4SM 07/05 A2985 RMK SLP112 T00710048 57004 IEM_DS3505
ZBAA,2006-04-17 22:00,ZBAA 172200Z AUTO 16004KT 2SM 07/06 A2988 RMK T00700060 IEM_DS3505
ZBAA,2006-04-17 23:00,ZBAA 172300Z AUTO 17004KT 2SM 08/07 A2991 RMK T00800070 IEM_DS3505
ZBAA,2006-04-18 00:00,ZBAA 180000Z AUTO 20004KT 4SM 08/05 A2991 RMK SLP125 T00830052 52012 IEM_DS3505
ZBAA,2006-04-18 01:00,ZBAA 180100Z AUTO 16008KT 1 1/2SM 09/06 A2991 RMK T00900060 IEM_DS3505
ZBAA,2006-04-18 02:00,ZBAA 180200Z AUTO 14006KT 1 1/2SM 09/07 A2991 RMK T00900070 IEM_DS3505
ZBAA,2006-04-18 03:00,ZBAA 180300Z AUTO 14006KT 4SM 10/06 A2988 RMK SLP118 T01000062 57007 IEM_DS3505
ZBAA,2006-04-18 04:00,ZBAA 180400Z AUTO 12008KT 1 1/2SM 10/07 A2988 RMK T01000070 IEM_DS3505
ZBAA,2006-04-18 05:00,ZBAA 180500Z AUTO 12004KT 1 1/2SM 10/07 A2985 RMK T01000070 IEM_DS3505
ZBAA,2006-04-18 06:00,ZBAA 180600Z AUTO 11004KT 4SM 13/07 A2985 RMK 60000 SLP106 T01270070 57011 IEM_DS3505
ZBAA,2006-04-18 07:00,ZBAA 180700Z AUTO 1 1/2SM 12/08 A2985 RMK T01200080 IEM_DS3505
ZBAA,2006-04-18 08:00,ZBAA 180800Z AUTO 1 1/2SM 14/08 A2983 RMK T01400080 IEM_DS3505
ZBAA,2006-04-18 09:00,ZBAA 180900Z AUTO 02002KT 4SM 15/05 A2983 RMK SLP095 T01540048 57011 IEM_DS3505
ZBAA,2006-04-18 10:00,ZBAA 181000Z AUTO 28016KT 2 1/2SM 18/ A2983 RMK IEM_DS3505
ZBAA,2006-04-18 11:00,ZBAA 181100Z AUTO 30021G33KT 2SM 16/M20 A2985 RMK T01601200 IEM_DS3505
ZBAA,2006-04-18 12:00,ZBAA 181200Z AUTO 32016KT 2SM 15/M22 A2991 RMK SLP120 T01521222 52025 IEM_DS3505
ZBAA,2006-04-18 13:00,ZBAA 181300Z AUTO 33019KT 2 1/2SM 13/M16 A2994 RMK T01301160 IEM_DS3505
ZBAA,2006-04-18 14:00,ZBAA 181400Z AUTO 30019G35KT 2 1/2SM 12/M15 A2994 RMK T01201150 IEM_DS3505
ZBAA,2006-04-18 15:00,ZBAA 181500Z AUTO 34014G25KT 3SM 11/M19 A2997 RMK SLP150 T01131192 52029 IEM_DS3505
ZBAA,2006-04-18 16:00,ZBAA 181600Z AUTO 31014G23KT 5SM 10/M14 A2997 RMK T01001140 IEM_DS3505
ZBAA,2006-04-18 17:00,ZBAA 181700Z AUTO 30021KT 5SM 09/M12 A2997 RMK T00901120 IEM_DS3505
ZBAA,2006-04-18 18:00,ZBAA 181800Z AUTO 32008KT 9SM 09/M13 A2997 RMK SLP150 T00911133 54000 IEM_DS3505
ZBAA,2006-04-18 19:00,ZBAA 181900Z AUTO 28006KT 6SM 09/M10 A2997 RMK T00901100 IEM_DS3505
ZBAA,2006-04-18 20:00,ZBAA 182000Z AUTO 31017G27KT 6SM 09/M12 A2997 RMK T00901120 IEM_DS3505
ZBAA,2006-04-18 21:00,ZBAA 182100Z AUTO 32012KT 19SM 09/M15 A2997 RMK 70000 SLP151 T00871150 52002 IEM_DS3505
ZBAA,2006-04-18 22:00,ZBAA 182200Z AUTO 26008KT 6SM 07/M12 A3000 RMK T00701120 IEM_DS3505
ZBAA,2006-04-18 23:00,ZBAA 182300Z AUTO 27012G21KT 6SM 08/M13 A3000 RMK T00801130 IEM_DS3505
ZBAA,2006-04-19 00:00,ZBAA 190000Z AUTO 32014KT 19SM 10/M14 A3000 RMK 70000 SLP156 T01041136 52005 IEM_DS3505
ZBAA,2006-04-19 01:00,ZBAA 190100Z AUTO 30025G37KT 6SM 12/M09 A3000 RMK T01201090 IEM_DS3505
ZBAA,2006-04-19 02:00,ZBAA 190200Z AUTO 30027KT 6SM 13/M09 A3000 RMK T01301090 IEM_DS3505
ZBAA,2006-04-19 03:00,ZBAA 190300Z AUTO 32016G31KT 12SM 13/M10 A3003 RMK SLP164 T01291102 52008 IEM_DS3505
ZBAA,2006-04-19 04:00,ZBAA 190400Z AUTO 35016G25KT 6SM 15/M09 A3000 RMK T01501090 IEM_DS3505
ZBAA,2006-04-19 05:00,ZBAA 190500Z AUTO 32021G31KT 6SM 16/M10 A3003 RMK T01601100 IEM_DS3505
ZBAA,2006-04-19 06:00,ZBAA 190600Z AUTO 34014KT 12SM 16/M12 A3003 RMK SLP167 T01571117 52003 IEM_DS3505
ZBAA,2006-04-19 07:00,ZBAA 190700Z AUTO 33019G29KT 6SM 17/M11 A3003 RMK T01701110 IEM_DS3505
ZBAA,2006-04-19 08:00,ZBAA 190800Z AUTO 32021G35KT 6SM 17/M11 A3003 RMK T01701110 IEM_DS3505
ZBAA,2006-04-19 09:00,ZBAA 190900Z AUTO 36016KT 12SM 16/M14 A3006 RMK SLP178 T01591135 52010 IEM_DS3505
ZBAA,2006-04-19 10:00,ZBAA 191000Z AUTO 32019G31KT 6SM 15/M12 A3009 RMK T01501120 IEM_DS3505
ZBAA,2006-04-19 11:00,ZBAA 191100Z AUTO 32019G31KT 6SM 14/M11 A3009 RMK T01401110 IEM_DS3505
ZBAA,2006-04-19 12:00,ZBAA 191200Z AUTO 36012G29KT 19SM 14/M11 A3012 RMK SLP197 T01381108 52019 IEM_DS3505
ZBAA,2006-04-19 13:00,ZBAA 191300Z AUTO 33012KT 6SM 13/M09 A3015 RMK T01301090 IEM_DS3505
ZBAA,2006-04-19 14:00,ZBAA 191400Z AUTO 35008KT 6SM 11/M08 A3015 RMK T01101080 IEM_DS3505
ZBAA,2006-04-19 15:00,ZBAA 191500Z AUTO 02006KT 19SM 13/M10 A3015 RMK SLP211 T01271097 52014 IEM_DS3505
ZBAA,2006-04-19 16:00,ZBAA 191600Z AUTO 34002KT 6SM 08/M08 A3018 RMK T00801080 IEM_DS3505
ZBAA,2006-04-19 17:00,ZBAA 191700Z AUTO 02004KT 6SM 09/M07 A3021 RMK T00901070 IEM_DS3505
ZBAA,2006-04-19 18:00,ZBAA 191800Z AUTO 04004KT 16SM 09/M08 A3021 RMK SLP224 T00931083 52013 IEM_DS3505
ZBAA,2006-04-19 19:00,ZBAA 191900Z AUTO 30004KT 6SM 07/M07 A3021 RMK T00701070 IEM_DS3505
ZBAA,2006-04-19 20:00,ZBAA 192000Z AUTO 35004KT 6SM 07/M07 A3021 RMK T00701070 IEM_DS3505
ZBAA,2006-04-19 21:00,ZBAA 192100Z AUTO 09002KT 12SM 06/M07 A3021 RMK SLP225 T00631073 52001 IEM_DS3505
ZBAA,2006-04-19 22:00,ZBAA 192200Z AUTO 28002KT 6SM 06/M05 A3021 RMK T00601050 IEM_DS3505
ZBAA,2006-04-19 23:00,ZBAA 192300Z AUTO 03006KT 6SM 08/M06 A3021 RMK T00801060 IEM_DS3505
ZBAA,2006-04-20 00:00,ZBAA 200000Z AUTO 02004KT 19SM 12/M08 A3021 RMK SLP224 T01161078 57001 IEM_DS3505
ZBAA,2006-04-20 01:00,ZBAA 200100Z AUTO 33004KT 6SM 13/M07 A3018 RMK T01301070 IEM_DS3505
ZBAA,2006-04-20 02:00,ZBAA 200200Z AUTO 31006KT 6SM 15/M08 A3018 RMK T01501080 IEM_DS3505
ZBAA,2006-04-20 03:00,ZBAA 200300Z AUTO 32004KT 19SM 16/M11 A3015 RMK SLP202 T01621113 57021 IEM_DS3505
ZBAA,2006-04-20 04:00,ZBAA 200400Z AUTO 11006KT 6SM 17/M08 A3009 RMK T01701080 IEM_DS3505
ZBAA,2006-04-20 05:00,ZBAA 200500Z AUTO 22010KT 6SM 19/M09 A3003 RMK T01901090 IEM_DS3505
ZBAA,2006-04-20 06:00,ZBAA 200600Z AUTO 27008KT 19SM 18/M11 A3000 RMK SLP157 T01851114 57045 IEM_DS3505
ZBAA,2006-04-20 07:00,ZBAA 200700Z AUTO 19012KT 6SM 20/M09 A2994 RMK T02001090 IEM_DS3505
ZBAA,2006-04-20 08:00,ZBAA 200800Z AUTO 18010KT 6SM 20/M09 A2991 RMK T02001090 IEM_DS3505
ZBAA,2006-04-20 09:00,ZBAA 200900Z AUTO 22010KT 19SM 18/M06 A2991 RMK SLP125 T01851063 57032 IEM_DS3505
ZBAA,2006-04-20 10:00,ZBAA 201000Z AUTO 20010KT 6SM 18/M05 A2988 RMK T01801050 IEM_DS3505
ZBAA,2006-04-20 11:00,ZBAA 201100Z AUTO 18008KT 6SM 17/M04 A2988 RMK T01701040 IEM_DS3505
ZBAA,2006-04-20 12:00,ZBAA 201200Z AUTO 22006KT 12SM 16/M03 A2991 RMK SLP123 T01551034 57002 IEM_DS3505
ZBAA,2006-04-20 13:00,ZBAA 201300Z AUTO 17004KT 6SM 14/M02 A2991 RMK T01401020 IEM_DS3505
ZBAA,2006-04-20 14:00,ZBAA 201400Z AUTO 14004KT 6SM 14/M01 A2991 RMK T01401010 IEM_DS3505
ZBAA,2006-04-20 15:00,ZBAA 201500Z AUTO 18004KT 9SM 14/M02 A2991 RMK SLP120 T01351017 57003 IEM_DS3505
ZBAA,2006-04-20 16:00,ZBAA 201600Z AUTO 11008KT 6SM 13/M01 A2988 RMK T01301010 IEM_DS3505
ZBAA,2006-04-20 17:00,ZBAA 201700Z AUTO 12004KT 6SM 12/M01 A2988 RMK T01201010 IEM_DS3505
ZBAA,2006-04-20 18:00,ZBAA 201800Z AUTO 20004KT 7SM 11/M02 A2985 RMK SLP107 T01071020 57013 IEM_DS3505
ZBAA,2006-04-20 19:00,ZBAA 201900Z AUTO 12006KT 6SM 10/M01 A2985 RMK T01001010 IEM_DS3505
ZBAA,2006-04-20 20:00,ZBAA 202000Z AUTO 15004KT 6SM 09/M01 A2983 RMK T00901010 IEM_DS3505
ZBAA,2006-04-20 21:00,ZBAA 202100Z AUTO 02002KT 6SM 08/M00 A2983 RMK SLP093 T00781002 57014 IEM_DS3505
ZBAA,2006-04-20 22:00,ZBAA 202200Z AUTO 11004KT 4SM 09/M01 A2983 RMK T00901010 IEM_DS3505
ZBAA,2006-04-20 23:00,ZBAA 202300Z AUTO 13002KT 4SM 10/00 A2983 RMK T01000000 IEM_DS3505
ZBAA,2006-04-21 00:00,ZBAA 210000Z AUTO 18004KT 6SM 12/01 A2980 RMK SLP089 T01170014 57004 IEM_DS3505
ZBAA,2006-04-21 01:00,ZBAA 210100Z AUTO 12006KT 4SM 14/02 A2980 RMK T01400020 IEM_DS3505
ZBAA,2006-04-21 02:00,ZBAA 210200Z AUTO 13006KT 4SM 15/02 A2977 RMK T01500020 IEM_DS3505
ZBAA,2006-04-21 03:00,ZBAA 210300Z AUTO 18008KT 9SM 16/02 A2974 RMK SLP071 T01600021 57018 IEM_DS3505
ZBAA,2006-04-21 04:00,ZBAA 210400Z AUTO 17008KT 4SM 18/03 A2974 RMK T01800030 IEM_DS3505
ZBAA,2006-04-21 05:00,ZBAA 210500Z AUTO 18008KT 5SM 19/03 A2968 RMK T01900030 IEM_DS3505
ZBAA,2006-04-21 06:00,ZBAA 210600Z AUTO 20008KT 9SM 20/02 A2962 RMK SLP031 T01950024 57040 IEM_DS3505
ZBAA,2006-04-21 07:00,ZBAA 210700Z AUTO 18008KT 5SM 20/04 A2959 RMK T02000040 IEM_DS3505
ZBAA,2006-04-21 08:00,ZBAA 210800Z AUTO 19008KT 4SM 20/04 A2956 RMK T02000040 IEM_DS3505
ZBAA,2006-04-21 09:00,ZBAA 210900Z AUTO 22008KT 7SM 20/05 A2956 RMK SLP007 T01970054 57024 IEM_DS3505
ZBAA,2006-04-21 10:00,ZBAA 211000Z AUTO 21006KT 4SM 19/06 A2956 RMK T01900060 IEM_DS3505
ZBAA,2006-04-21 11:00,ZBAA 211100Z AUTO 26004KT 4SM 19/06 A2959 RMK T01900060 IEM_DS3505
ZBAA,2006-04-21 12:00,ZBAA 211200Z AUTO 20008KT 6SM 16/09 A2959 RMK SLP025 T01640093 52018 IEM_DS3505
ZBAA,2006-04-21 13:00,ZBAA 211300Z AUTO 18008KT 3SM 17/10 A2962 RMK T01700100 IEM_DS3505
ZBAA,2006-04-21 14:00,ZBAA 211400Z AUTO 20006KT 4SM 16/11 A2968 RMK T01600110 IEM_DS3505
ZBAA,2006-04-21 15:00,ZBAA 211500Z AUTO 25006KT 5SM 14/10 A2968 RMK SLP053 T01430095 52028 IEM_DS3505
ZBAA,2006-04-21 16:00,ZBAA 211600Z AUTO 26004KT 3SM 16/11 A2971 RMK T01600110 IEM_DS3505
ZBAA,2006-04-21 17:00,ZBAA 211700Z AUTO 32017G27KT 3SM 18/ A2974 RMK IEM_DS3505
ZBAA,2006-04-21 18:00,ZBAA 211800Z AUTO 02008KT 7SM 17/M10 A2974 RMK SLP064 T01691099 52012 IEM_DS3505
ZBAA,2006-04-21 19:00,ZBAA 211900Z AUTO 32029G41KT 6SM 16/M07 A2974 RMK T01601070 IEM_DS3505
ZBAA,2006-04-21 20:00,ZBAA 212000Z AUTO 32017KT 6SM 15/M06 A2974 RMK T01501060 IEM_DS3505
ZBAA,2006-04-21 21:00,ZBAA 212100Z AUTO 36006KT 12SM 15/M07 A2977 RMK SLP074 T01491072 52010 IEM_DS3505
ZBAA,2006-04-21 22:00,ZBAA 212200Z AUTO 31008KT 6SM 13/M05 A2980 RMK T01301050 IEM_DS3505
ZBAA,2006-04-21 23:00,ZBAA 212300Z AUTO 30010KT 6SM 15/M05 A2983 RMK T01501050 IEM_DS3505
ZBAA,2006-04-22 00:00,ZBAA 220000Z AUTO 02004KT 19SM 16/M05 A2983 RMK SLP094 T01591046 52019 IEM_DS3505
ZBAA,2006-04-22 01:00,ZBAA 220100Z AUTO 30010KT 6SM 18/M04 A2983 RMK T01801040 IEM_DS3505
ZBAA,2006-04-22 02:00,ZBAA 220200Z AUTO 28010KT 6SM 18/M05 A2983 RMK T01801050 IEM_DS3505
ZBAA,2006-04-22 03:00,ZBAA 220300Z AUTO 32008KT 19SM 19/M08 A2980 RMK SLP091 T01901082 57003 IEM_DS3505
ZBAA,2006-04-22 04:00,ZBAA 220400Z AUTO 24006KT 6SM 20/M05 A2977 RMK T02001050 IEM_DS3505
ZBAA,2006-04-22 05:00,ZBAA 220500Z AUTO 29014G27KT 6SM 21/M10 A2974 RMK T02101100 IEM_DS3505
ZBAA,2006-04-22 06:00,ZBAA 220600Z AUTO 02008KT 19SM 21/M14 A2971 RMK SLP058 T02141142 57032 IEM_DS3505
ZBAA,2006-04-22 07:00,ZBAA 220700Z AUTO 29021G31KT 6SM 22/M14 A2968 RMK T02201140 IEM_DS3505
ZBAA,2006-04-22 08:00,ZBAA 220800Z AUTO 29014KT 6SM 21/M13 A2965 RMK T02101130 IEM_DS3505
ZBAA,2006-04-22 09:00,ZBAA 220900Z AUTO 02010KT 16SM 20/M16 A2968 RMK SLP042 T01961156 57016 IEM_DS3505
ZBAA,2006-04-22 10:00,ZBAA 221000Z AUTO 35017KT 6SM 19/M13 A2971 RMK T01901130 IEM_DS3505
ZBAA,2006-04-22 11:00,ZBAA 221100Z AUTO 36016KT 6SM 17/M13 A2974 RMK T01701130 IEM_DS3505
ZBAA,2006-04-22 12:00,ZBAA 221200Z AUTO 29008KT 9SM 17/M12 A2977 RMK SLP080 T01691117 52037 IEM_DS3505
ZBAA,2006-04-22 13:00,ZBAA 221300Z AUTO 34014KT 6SM 16/M15 A2980 RMK T01601150 IEM_DS3505
ZBAA,2006-04-22 14:00,ZBAA 221400Z AUTO 33014KT 6SM 15/M16 A2983 RMK T01501160 IEM_DS3505
ZBAA,2006-04-22 15:00,ZBAA 221500Z AUTO 34008KT 9SM 15/M17 A2985 RMK SLP102 T01531174 52022 IEM_DS3505
ZBAA,2006-04-22 16:00,ZBAA 221600Z AUTO 31017KT 6SM 14/M19 A2985 RMK T01401190 IEM_DS3505
ZBAA,2006-04-22 17:00,ZBAA 221700Z AUTO 30012KT 6SM 13/M19 A2985 RMK T01301190 IEM_DS3505
ZBAA,2006-04-22 18:00,ZBAA 221800Z AUTO 32012G29KT 9SM 12/M23 A2985 RMK SLP107 T01231226 52005 IEM_DS3505
ZBAA,2006-04-22 19:00,ZBAA 221900Z AUTO 31012KT 6SM 11/M21 A2985 RMK T01101210 IEM_DS3505
ZBAA,2006-04-22 20:00,ZBAA 222000Z AUTO 28012KT 6SM 11/M20 A2983 RMK T01101200 IEM_DS3505
ZBAA,2006-04-22 21:00,ZBAA 222100Z AUTO 32006KT 9SM 11/M22 A2983 RMK SLP103 T01131218 57004 IEM_DS3505
ZBAA,2006-04-22 22:00,ZBAA 222200Z AUTO 30017KT 6SM 11/M20 A2985 RMK T01101200 IEM_DS3505
ZBAA,2006-04-22 23:00,ZBAA 222300Z AUTO 32017G31KT 2 1/2SM 11/M19 A2988 RMK T01101190 IEM_DS3505
ZBAA,2006-04-23 00:00,ZBAA 230000Z AUTO 34010G35KT 5SM 11/M18 A2988 RMK SLP122 T01131181 52019 IEM_DS3505
ZBAA,2006-04-23 01:00,ZBAA 230100Z AUTO 32019G31KT 5SM 13/M18 A2988 RMK T01301180 IEM_DS3505
ZBAA,2006-04-23 02:00,ZBAA 230200Z AUTO 30019KT 5SM 14/M17 A2988 RMK T01401170 IEM_DS3505
ZBAA,2006-04-23 03:00,ZBAA 230300Z AUTO 34010G29KT 6SM 14/M18 A2988 RMK SLP125 T01421182 52003 IEM_DS3505
ZBAA,2006-04-23 04:00,ZBAA 230400Z AUTO 30019G31KT 6SM 16/M17 A2988 RMK T01601170 IEM_DS3505
ZBAA,2006-04-23 05:00,ZBAA 230500Z AUTO 27019G31KT 6SM 17/M16 A2985 RMK T01701160 IEM_DS3505
ZBAA,2006-04-23 06:00,ZBAA 230600Z AUTO 29010G29KT 12SM 18/M17 A2983 RMK SLP107 T01771170 57018 IEM_DS3505
ZBAA,2006-04-23 07:00,ZBAA 230700Z AUTO 27016KT 4SM 19/M16 A2980 RMK T01901160 IEM_DS3505
ZBAA,2006-04-23 08:00,ZBAA 230800Z AUTO 26016G25KT 4SM 19/M17 A2980 RMK T01901170 IEM_DS3505
ZBAA,2006-04-23 09:00,ZBAA 230900Z AUTO 32012G27KT 9SM 20/M21 A2980 RMK SLP089 T01961211 57018 IEM_DS3505
ZBAA,2006-04-23 10:00,ZBAA 231000Z AUTO 29014KT 4SM 19/M19 A2980 RMK T01901190 IEM_DS3505
ZBAA,2006-04-23 11:00,ZBAA 231100Z AUTO 29008KT 4SM 19/M20 A2980 RMK T01901200 IEM_DS3505
ZBAA,2006-04-23 12:00,ZBAA 231200Z AUTO 32006KT 6SM 18/M24 A2985 RMK SLP106 T01851244 52017 IEM_DS3505
ZBAA,2006-04-23 13:00,ZBAA 231300Z AUTO 29010KT 4SM 17/M19 A2985 RMK T01701190 IEM_DS3505
ZBAA,2006-04-23 14:00,ZBAA 231400Z AUTO 31008KT 4SM 16/M20 A2988 RMK T01601200 IEM_DS3505
ZBAA,2006-04-23 15:00,ZBAA 231500Z AUTO 25004KT 6SM 16/M21 A2988 RMK SLP122 T01631214 52016 IEM_DS3505
ZBAA,2006-04-23 16:00,ZBAA 231600Z AUTO 26004KT 4SM 14/M19 A2991 RMK T01401190 IEM_DS3505
ZBAA,2006-04-23 17:00,ZBAA 231700Z AUTO 29002KT 4SM 11/M16 A2988 RMK T01101160 IEM_DS3505
ZBAA,2006-04-23 18:00,ZBAA 231800Z AUTO 04004KT 6SM 11/M14 A2991 RMK SLP121 T01091139 57001 IEM_DS3505
ZBAA,2006-04-23 19:00,ZBAA 231900Z AUTO 32002KT 6SM 09/M15 A2991 RMK T00901150 IEM_DS3505
ZBAA,2006-04-23 20:00,ZBAA 232000Z AUTO 00000KT 6SM 09/M15 A2991 RMK T00901150 IEM_DS3505
ZBAA,2006-04-23 21:00,ZBAA 232100Z AUTO 02004KT 7SM 08/M11 A2991 RMK SLP129 T00771111 52008 IEM_DS3505
ZBAA,2006-04-23 22:00,ZBAA 232200Z AUTO 27004KT 6SM 09/M15 A2994 RMK T00901150 IEM_DS3505
ZBAA,2006-04-23 23:00,ZBAA 232300Z AUTO 27004KT 6SM 11/M14 A2997 RMK T01101140 IEM_DS3505
ZBAA,2006-04-24 00:00,ZBAA 240000Z AUTO 02004KT 9SM 16/M17 A2997 RMK SLP147 T01571171 52018 IEM_DS3505
ZBAA,2006-04-24 01:00,ZBAA 240100Z AUTO 06002KT 6SM 17/M16 A2997 RMK T01701160 IEM_DS3505
ZBAA,2006-04-24 02:00,ZBAA 240200Z AUTO 34006KT 6SM 19/M17 A2997 RMK T01901170 IEM_DS3505
ZBAA,2006-04-24 03:00,ZBAA 240300Z AUTO 36006KT 16SM 20/M21 A2997 RMK SLP141 T02001208 57006 IEM_DS3505
ZBAA,2006-04-24 04:00,ZBAA 240400Z AUTO 08004KT 6SM 20/M21 A2994 RMK T02001210 IEM_DS3505
ZBAA,2006-04-24 05:00,ZBAA 240500Z AUTO 19012KT 6SM 22/M17 A2991 RMK T02201170 IEM_DS3505
ZBAA,2006-04-24 06:00,ZBAA 240600Z AUTO 20006KT 16SM 23/M16 A2988 RMK SLP112 T02301165 57029 IEM_DS3505
ZBAA,2006-04-24 07:00,ZBAA 240700Z AUTO 14010KT 6SM 22/M17 A2985 RMK T02201170 IEM_DS3505
ZBAA,2006-04-24 08:00,ZBAA 240800Z AUTO 19008G21KT 6SM 23/M15 A2983 RMK T02301150 IEM_DS3505
ZBAA,2006-04-24 09:00,ZBAA 240900Z AUTO 22010KT 19SM 23/M12 A2983 RMK SLP094 T02291116 57018 IEM_DS3505
ZBAA,2006-04-24 10:00,ZBAA 241000Z AUTO 16008KT 6SM 22/M11 A2983 RMK T02201110 IEM_DS3505
ZBAA,2006-04-24 11:00,ZBAA 241100Z AUTO 12008KT 6SM 20/M08 A2983 RMK T02001080 IEM_DS3505
ZBAA,2006-04-24 12:00,ZBAA 241200Z AUTO 11004KT 12SM 20/M08 A2985 RMK SLP105 T01951078 52011 IEM_DS3505
ZBAA,2006-04-24 13:00,ZBAA 241300Z AUTO 14010KT 6SM 18/M05 A2985 RMK T01801050 IEM_DS3505
ZBAA,2006-04-24 14:00,ZBAA 241400Z AUTO 12008KT 6SM 17/M03 A2988 RMK T01701030 IEM_DS3505
ZBAA,2006-04-24 15:00,ZBAA 241500Z AUTO 11010KT 12SM 15/M04 A2988 RMK SLP118 T01511037 52013 IEM_DS3505
ZBAA,2006-04-24 16:00,ZBAA 241600Z AUTO 11014KT 6SM 12/02 A2991 RMK T01200020 IEM_DS3505
ZBAA,2006-04-24 17:00,ZBAA 241700Z AUTO 12008KT 6SM 11/00 A2991 RMK T01100000 IEM_DS3505
ZBAA,2006-04-24 18:00,ZBAA 241800Z AUTO 07006KT 12SM 10/00 A2991 RMK SLP124 T00990002 52006 IEM_DS3505
ZBAA,2006-04-24 19:00,ZBAA 241900Z AUTO 12004KT 6SM 11/M01 A2991 RMK T01101010 IEM_DS3505
ZBAA,2006-04-24 20:00,ZBAA 242000Z AUTO 13004KT 6SM 10/M02 A2988 RMK T01001020 IEM_DS3505
ZBAA,2006-04-24 21:00,ZBAA 242100Z AUTO 07006KT 9SM 10/M01 A2985 RMK SLP106 T00971014 57018 IEM_DS3505
ZBAA,2006-04-24 22:00,ZBAA 242200Z AUTO 10004KT 6SM 10/M02 A2988 RMK T01001020 IEM_DS3505
ZBAA,2006-04-24 23:00,ZBAA 242300Z AUTO 31006KT 6SM 11/M02 A2988 RMK T01101020 IEM_DS3505
ZBAA,2006-04-25 00:00,ZBAA 250000Z AUTO 07008KT 9SM 12/M03 A2988 RMK SLP108 T01181028 52002 IEM_DS3505
ZBAA,2006-04-25 01:00,ZBAA 250100Z AUTO 6SM 13/M02 A2985 RMK T01301020 IEM_DS3505
ZBAA,2006-04-25 02:00,ZBAA 250200Z AUTO 11002KT 6SM 14/M02 A2985 RMK T01401020 IEM_DS3505
ZBAA,2006-04-25 03:00,ZBAA 250300Z AUTO 07006KT 7SM 14/M01 A2985 RMK SLP099 T01421006 57009 IEM_DS3505
ZBAA,2006-04-25 04:00,ZBAA 250400Z AUTO 12006KT 6SM 16/00 A2980 RMK T01600000 IEM_DS3505
ZBAA,2006-04-25 05:00,ZBAA 250500Z AUTO 14006KT 5SM 16/01 A2980 RMK T01600010 IEM_DS3505
ZBAA,2006-04-25 06:00,ZBAA 250600Z AUTO 07006KT 7SM 15/02 A2977 RMK SLP073 T01530018 57026 IEM_DS3505
ZBAA,2006-04-25 07:00,ZBAA 250700Z AUTO 12008KT 4SM 17/04 A2974 RMK T01700040 IEM_DS3505
ZBAA,2006-04-25 08:00,ZBAA 250800Z AUTO 4SM 16/04 A2974 RMK T01600040 IEM_DS3505
ZBAA,2006-04-25 09:00,ZBAA 250900Z AUTO 07004KT 7SM 17/03 A2971 RMK SLP058 T01660033 57015 IEM_DS3505
ZBAA,2006-04-25 10:00,ZBAA 251000Z AUTO 15004KT 4SM 17/05 A2971 RMK T01700050 IEM_DS3505
ZBAA,2006-04-25 11:00,ZBAA 251100Z AUTO 20002KT 3SM 16/05 A2974 RMK T01600050 IEM_DS3505
ZBAA,2006-04-25 12:00,ZBAA 251200Z AUTO 25002KT 6SM 15/05 A2974 RMK SLP068 T01490046 52010 IEM_DS3505
ZBAA,2006-04-25 13:00,ZBAA 251300Z AUTO 01004KT 3SM 14/06 A2977 RMK T01400060 IEM_DS3505
ZBAA,2006-04-25 14:00,ZBAA 251400Z AUTO 12006KT 3SM 14/07 A2977 RMK T01400070 IEM_DS3505
ZBAA,2006-04-25 15:00,ZBAA 251500Z AUTO 11006KT 4SM 12/05 A2977 RMK SLP079 T01240046 52011 IEM_DS3505
ZBAA,2006-04-25 17:00,ZBAA 251700Z AUTO 16006KT 3SM 13/07 A2977 RMK T01300070 IEM_DS3505
ZBAA,2006-04-25 18:00,ZBAA 251800Z AUTO 09002KT 4SM 13/05 A2977 RMK SLP069 T01340053 57010 IEM_DS3505
ZBAA,2006-04-25 19:00,ZBAA 251900Z AUTO 00000KT 3SM 12/07 A2974 RMK T01200070 IEM_DS3505
ZBAA,2006-04-25 20:00,ZBAA 252000Z AUTO 00000KT 3SM 12/07 A2974 RMK T01200070 IEM_DS3505
ZBAA,2006-04-25 21:00,ZBAA 252100Z AUTO 05004KT 4SM 12/06 A2974 RMK SLP063 T01180063 57006 IEM_DS3505
ZBAA,2006-04-25 22:00,ZBAA 252200Z AUTO 01004KT 2 1/2SM 12/07 A2974 RMK T01200070 IEM_DS3505
ZBAA,2006-04-25 23:00,ZBAA 252300Z AUTO 06004KT 2 1/2SM 12/07 A2977 RMK T01200070 IEM_DS3505
ZBAA,2006-04-26 00:00,ZBAA 260000Z AUTO 04002KT 2 1/2SM 14/08 A2977 RMK SLP076 T01370077 52013 IEM_DS3505
ZBAA,2006-04-26 01:00,ZBAA 260100Z AUTO 09004KT 2SM 14/10 A2980 RMK T01400100 IEM_DS3505
ZBAA,2006-04-26 02:00,ZBAA 260200Z AUTO 09006KT 2SM 14/10 A2980 RMK T01400100 IEM_DS3505
ZBAA,2006-04-26 03:00,ZBAA 260300Z AUTO 07008KT 6SM 16/09 A2980 RMK SLP087 T01550094 52011 IEM_DS3505
ZBAA,2006-04-26 04:00,ZBAA 260400Z AUTO 08010KT 2 1/2SM 16/10 A2980 RMK T01600100 IEM_DS3505
ZBAA,2006-04-26 05:00,ZBAA 260500Z AUTO 10008KT 2 1/2SM 18/10 A2980 RMK T01800100 IEM_DS3505
ZBAA,2006-04-26 06:00,ZBAA 260600Z AUTO 07004KT 6SM 18/09 A2980 RMK SLP089 T01770088 52002 IEM_DS3505
ZBAA,2006-04-26 07:00,ZBAA 260700Z AUTO 11012KT 2 1/2SM 18/11 A2977 RMK T01800110 IEM_DS3505
ZBAA,2006-04-26 08:00,ZBAA 260800Z AUTO 36016KT 7SM 15/09 A2985 RMK T01500090 IEM_DS3505
ZBAA,2006-04-26 09:00,ZBAA 260900Z AUTO 07010G25KT 7SM 17/05 A2988 RMK SLP108 T01700053 52019 IEM_DS3505
ZBAA,2006-04-26 10:00,ZBAA 261000Z AUTO 03006KT 6SM 15/09 A2991 RMK T01500090 IEM_DS3505
ZBAA,2006-04-26 11:00,ZBAA 261100Z AUTO 17004KT 6SM 14/09 A2994 RMK T01400090 IEM_DS3505
ZBAA,2006-04-26 12:00,ZBAA 261200Z AUTO 09004KT 9SM 13/08 A2997 RMK 60002 SLP147 T01320079 52039 IEM_DS3505
ZBAA,2006-04-26 13:00,ZBAA 261300Z AUTO 10006KT 6SM 13/08 A3000 RMK T01300080 IEM_DS3505
ZBAA,2006-04-26 14:00,ZBAA 261400Z AUTO 16004KT 6SM 11/08 A3003 RMK T01100080 IEM_DS3505
ZBAA,2006-04-26 15:00,ZBAA 261500Z AUTO 25002KT 5SM 11/08 A3006 RMK SLP175 T01060080 52028 IEM_DS3505
ZBAA,2006-04-26 16:00,ZBAA 261600Z AUTO 00000KT 6SM 10/08 A3006 RMK T01000080 IEM_DS3505
ZBAA,2006-04-26 17:00,ZBAA 261700Z AUTO 14002KT 6SM 11/08 A3009 RMK T01100080 IEM_DS3505
ZBAA,2006-04-26 18:00,ZBAA 261800Z AUTO 14002KT 5SM 09/08 A3006 RMK SLP175 T00920078 54000 IEM_DS3505
ZBAA,2006-04-26 19:00,ZBAA 261900Z AUTO 00000KT 5SM 08/07 A3006 RMK T00800070 IEM_DS3505
ZBAA,2006-04-26 20:00,ZBAA 262000Z AUTO 35004KT 5SM 07/07 A3009 RMK T00700070 IEM_DS3505
ZBAA,2006-04-26 21:00,ZBAA 262100Z AUTO 20002KT 2 1/2SM 08/07 A3009 RMK 70002 SLP184 T00770066 52008 IEM_DS3505
ZBAA,2006-04-26 22:00,ZBAA 262200Z AUTO 00000KT 4SM 07/07 A3009 RMK T00700070 IEM_DS3505
ZBAA,2006-04-26 23:00,ZBAA 262300Z AUTO 35004KT 4SM 09/09 A3009 RMK T00900090 IEM_DS3505
ZBAA,2006-04-27 00:00,ZBAA 270000Z AUTO 09002KT 4SM 12/08 A3012 RMK 70002 SLP195 T01250084 52011 IEM_DS3505
ZBAA,2006-04-27 01:00,ZBAA 270100Z AUTO 04004KT 4SM 14/09 A3012 RMK T01400090 IEM_DS3505
ZBAA,2006-04-27 02:00,ZBAA 270200Z AUTO 13004KT 4SM 16/09 A3009 RMK T01600090 IEM_DS3505
ZBAA,2006-04-27 03:00,ZBAA 270300Z AUTO 25010KT 9SM 19/01 A3006 RMK SLP180 T01910011 57014 IEM_DS3505
ZBAA,2006-04-27 04:00,ZBAA 270400Z AUTO 20010KT 6SM 20/02 A3003 RMK T02000020 IEM_DS3505
ZBAA,2006-04-27 05:00,ZBAA 270500Z AUTO 21010G19KT 6SM 22/00 A3000 RMK T02200000 IEM_DS3505
ZBAA,2006-04-27 06:00,ZBAA 270600Z AUTO 18010KT 11SM 20/M01 A2997 RMK SLP146 T02051007 57034 IEM_DS3505
ZBAA,2006-04-27 07:00,ZBAA 270700Z AUTO 17014KT 6SM 22/M01 A2994 RMK T02201010 IEM_DS3505
ZBAA,2006-04-27 08:00,ZBAA 270800Z AUTO 21016KT 6SM 21/00 A2991 RMK T02100000 IEM_DS3505
ZBAA,2006-04-27 09:00,ZBAA 270900Z AUTO 22010KT 12SM 20/00 A2988 RMK SLP118 T02010005 57028 IEM_DS3505
ZBAA,2006-04-27 10:00,ZBAA 271000Z AUTO 21004KT 6SM 20/01 A2988 RMK T02000010 IEM_DS3505
ZBAA,2006-04-27 11:00,ZBAA 271100Z AUTO 19006KT 6SM 19/02 A2988 RMK T01900020 IEM_DS3505
ZBAA,2006-04-27 12:00,ZBAA 271200Z AUTO 22004KT 7SM 18/02 A2988 RMK SLP121 T01810024 52003 IEM_DS3505
ZBAA,2006-04-27 13:00,ZBAA 271300Z AUTO 18004KT 7SM 18/04 A2991 RMK T01800040 IEM_DS3505
ZBAA,2006-04-27 14:00,ZBAA 271400Z AUTO 11008KT 6SM 16/03 A2991 RMK T01600030 IEM_DS3505
ZBAA,2006-04-27 15:00,ZBAA 271500Z AUTO 16004KT 7SM 16/00 A2988 RMK SLP118 T01550005 57003 IEM_DS3505
ZBAA,2006-04-27 16:00,ZBAA 271600Z AUTO 16006KT 6SM 14/02 A2988 RMK T01400020 IEM_DS3505
ZBAA,2006-04-27 17:00,ZBAA 271700Z AUTO 11006KT 6SM 14/03 A2985 RMK T01400030 IEM_DS3505
ZBAA,2006-04-27 18:00,ZBAA 271800Z AUTO 25002KT 7SM 12/03 A2983 RMK SLP098 T01250029 57020 IEM_DS3505
ZBAA,2006-04-27 19:00,ZBAA 271900Z AUTO 10006KT 6SM 12/05 A2980 RMK T01200050 IEM_DS3505
ZBAA,2006-04-27 20:00,ZBAA 272000Z AUTO 08006KT 6SM 11/04 A2980 RMK T01100040 IEM_DS3505
ZBAA,2006-04-27 21:00,ZBAA 272100Z AUTO 07004KT 7SM 11/03 A2977 RMK SLP076 T01090034 57022 IEM_DS3505
ZBAA,2006-04-27 22:00,ZBAA 272200Z AUTO 32002KT 4SM 09/04 A2980 RMK T00900040 IEM_DS3505
ZBAA,2006-04-27 23:00,ZBAA 272300Z AUTO 34002KT 4SM 12/05 A2980 RMK T01200050 IEM_DS3505
ZBAA,2006-04-28 00:00,ZBAA 280000Z AUTO 09002KT 7SM 14/05 A2980 RMK SLP078 T01380047 52002 IEM_DS3505
ZBAA,2006-04-28 01:00,ZBAA 280100Z AUTO 08004KT 4SM 16/04 A2977 RMK T01600040 IEM_DS3505
ZBAA,2006-04-28 02:00,ZBAA 280200Z AUTO 04004KT 4SM 17/04 A2977 RMK T01700040 IEM_DS3505
ZBAA,2006-04-28 03:00,ZBAA 280300Z AUTO 04008KT 7SM 19/03 A2974 RMK SLP062 T01900028 57015 IEM_DS3505
ZBAA,2006-04-28 04:00,ZBAA 280400Z AUTO 5SM 21/04 A2971 RMK T02100040 IEM_DS3505
ZBAA,2006-04-28 05:00,ZBAA 280500Z AUTO 5SM 22/04 A2968 RMK T02200040 IEM_DS3505
ZBAA,2006-04-28 06:00,ZBAA 280600Z AUTO 02004KT 9SM 24/01 A2965 RMK SLP036 T02370007 57026 IEM_DS3505
ZBAA,2006-04-28 07:00,ZBAA 280700Z AUTO 14004KT 6SM 24/01 A2962 RMK T02400010 IEM_DS3505
ZBAA,2006-04-28 08:00,ZBAA 280800Z AUTO 6SM 24/01 A2959 RMK T02400010 IEM_DS3505
ZBAA,2006-04-28 09:00,ZBAA 280900Z AUTO 20008KT 9SM 24/M01 A2956 RMK SLP009 T02371013 57027 IEM_DS3505
ZBAA,2006-04-28 10:00,ZBAA 281000Z AUTO 15008KT 6SM 23/02 A2956 RMK T02300020 IEM_DS3505
ZBAA,2006-04-28 11:00,ZBAA 281100Z AUTO 19008KT 6SM 21/02 A2956 RMK T02100020 IEM_DS3505
ZBAA,2006-04-28 12:00,ZBAA 281200Z AUTO 22004KT 7SM 20/03 A2959 RMK SLP013 T01980031 52004 IEM_DS3505
ZBAA,2006-04-28 13:00,ZBAA 281300Z AUTO 16006KT 5SM 18/05 A2959 RMK T01800050 IEM_DS3505
ZBAA,2006-04-28 14:00,ZBAA 281400Z AUTO 12006KT 5SM 18/06 A2959 RMK T01800060 IEM_DS3505
ZBAA,2006-04-28 15:00,ZBAA 281500Z AUTO 20004KT 6SM 17/04 A2959 RMK SLP015 T01680045 52002 IEM_DS3505
ZBAA,2006-04-28 16:00,ZBAA 281600Z AUTO 11010KT 4SM 16/05 A2956 RMK T01600050 IEM_DS3505
ZBAA,2006-04-28 17:00,ZBAA 281700Z AUTO 11012KT 4SM 16/07 A2956 RMK T01600070 IEM_DS3505
ZBAA,2006-04-28 18:00,ZBAA 281800Z AUTO 09004KT 6SM 15/03 A2956 RMK SLP001 T01460031 57014 IEM_DS3505
ZBAA,2006-04-28 19:00,ZBAA 281900Z AUTO 12010KT 2 1/2SM 13/08 A2953 RMK T01300080 IEM_DS3505
ZBAA,2006-04-28 21:00,ZBAA 282100Z AUTO 11004KT 6SM 13/07 A2950 RMK SLP986 T01270067 57015 IEM_DS3505
ZBAA,2006-04-28 22:00,ZBAA 282200Z AUTO 11008KT 1SM 10/09 A2950 RMK T01000090 IEM_DS3505
ZBAA,2006-04-28 23:00,ZBAA 282300Z AUTO 11008KT 1SM 11/09 A2947 RMK T01100090 IEM_DS3505
ZBAA,2006-04-29 00:00,ZBAA 290000Z AUTO 20004KT 6SM 14/07 A2947 RMK SLP972 T01400066 57014 IEM_DS3505
ZBAA,2006-04-29 01:00,ZBAA 290100Z AUTO 09004KT 1 1/4SM 13/10 A2944 RMK T01300100 IEM_DS3505
ZBAA,2006-04-29 02:00,ZBAA 290200Z AUTO 12006KT 2SM 16/09 A2941 RMK T01600090 IEM_DS3505
ZBAA,2006-04-29 03:00,ZBAA 290300Z AUTO 27002KT 8SM 19/06 A2938 RMK SLP942 T01870065 57030 IEM_DS3505
ZBAA,2006-04-29 04:00,ZBAA 290400Z AUTO 12006KT 2 1/2SM 19/09 A2935 RMK T01900090 IEM_DS3505
ZBAA,2006-04-29 05:00,ZBAA 290500Z AUTO 2 1/2SM 21/09 A2932 RMK T02100090 IEM_DS3505
ZBAA,2006-04-29 06:00,ZBAA 290600Z AUTO 18006KT 9SM 24/05 A2929 RMK SLP908 T02370051 57034 IEM_DS3505
ZBAA,2006-04-29 07:00,ZBAA 290700Z AUTO 25004KT 4SM 23/07 A2926 RMK T02300070 IEM_DS3505
ZBAA,2006-04-29 08:00,ZBAA 290800Z AUTO 33004KT 3SM 24/07 A2923 RMK T02400070 IEM_DS3505
ZBAA,2006-04-29 09:00,ZBAA 290900Z AUTO 25008KT 9SM 26/06 A2923 RMK SLP897 T02570058 57011 IEM_DS3505
ZBAA,2006-04-29 10:00,ZBAA 291000Z AUTO 35008KT 2 1/2SM 22/10 A2923 RMK T02200100 IEM_DS3505
ZBAA,2006-04-29 11:00,ZBAA 291100Z AUTO 35004KT 2 1/2SM 21/09 A2926 RMK T02100090 IEM_DS3505
ZBAA,2006-04-29 12:00,ZBAA 291200Z AUTO 04002KT 6SM 22/08 A2926 RMK SLP906 T02160078 52009 IEM_DS3505
ZBAA,2006-04-29 13:00,ZBAA 291300Z AUTO 35006KT 2 1/2SM 21/09 A2932 RMK T02100090 IEM_DS3505
ZBAA,2006-04-29 14:00,ZBAA 291400Z AUTO 33006KT 2 1/2SM 20/09 A2935 RMK T02000090 IEM_DS3505
ZBAA,2006-04-29 15:00,ZBAA 291500Z AUTO 09002KT 7SM 20/08 A2935 RMK SLP939 T02020076 52033 IEM_DS3505
ZBAA,2006-04-29 16:00,ZBAA 291600Z AUTO 05004KT 2 1/2SM 18/10 A2935 RMK T01800100 IEM_DS3505
ZBAA,2006-04-29 17:00,ZBAA 291700Z AUTO 31002KT 2 1/2SM 17/10 A2935 RMK T01700100 IEM_DS3505
ZBAA,2006-04-29 18:00,ZBAA 291800Z AUTO 02002KT 7SM 17/08 A2932 RMK SLP925 T01680077 57013 IEM_DS3505
ZBAA,2006-04-29 19:00,ZBAA 291900Z AUTO 34006KT 2 1/2SM 15/09 A2932 RMK T01500090 IEM_DS3505
ZBAA,2006-04-29 20:00,ZBAA 292000Z AUTO 34004KT 2 1/2SM 16/09 A2935 RMK T01600090 IEM_DS3505
ZBAA,2006-04-29 21:00,ZBAA 292100Z AUTO 07002KT 6SM 16/07 A2935 RMK SLP936 T01630067 52011 IEM_DS3505
ZBAA,2006-04-29 22:00,ZBAA 292200Z AUTO 34004KT 2 1/2SM 16/09 A2938 RMK T01600090 IEM_DS3505
ZBAA,2006-04-29 23:00,ZBAA 292300Z AUTO 00000KT 2 1/2SM 19/10 A2941 RMK T01900100 IEM_DS3505
ZBAA,2006-04-30 00:00,ZBAA 300000Z AUTO 11002KT 6SM 23/08 A2944 RMK SLP965 T02340075 52029 IEM_DS3505
ZBAA,2006-04-30 01:00,ZBAA 300100Z AUTO 12004KT 6SM 26/08 A2944 RMK T02600080 IEM_DS3505
ZBAA,2006-04-30 02:00,ZBAA 300200Z AUTO 09008KT 6SM 28/05 A2944 RMK T02800050 IEM_DS3505
ZBAA,2006-04-30 03:00,ZBAA 300300Z AUTO 09010KT 9SM 28/03 A2947 RMK SLP971 T02850027 52006 IEM_DS3505
ZBAA,2006-04-30 04:00,ZBAA 300400Z AUTO 12010KT 6SM 29/10 A2944 RMK T02900100 IEM_DS3505
ZBAA,2006-04-30 05:00,ZBAA 300500Z AUTO 13012KT 5SM 29/09 A2944 RMK T02900090 IEM_DS3505
ZBAA,2006-04-30 06:00,ZBAA 300600Z AUTO 11008KT 9SM 29/05 A2944 RMK SLP961 T02860048 57010 IEM_DS3505
ZBAA,2006-04-30 07:00,ZBAA 300700Z AUTO 13012KT 5SM 29/07 A2944 RMK T02900070 IEM_DS3505
ZBAA,2006-04-30 08:00,ZBAA 300800Z AUTO 14012KT 4SM 29/08 A2944 RMK T02900080 IEM_DS3505
ZBAA,2006-04-30 09:00,ZBAA 300900Z AUTO 14012KT 5SM 25/03 A2944 RMK SLP969 T02470028 52007 IEM_DS3505
ZBAA,2006-04-30 10:00,ZBAA 301000Z AUTO 14012KT 3SM 23/06 A2950 RMK T02300060 IEM_DS3505
ZBAA,2006-04-30 11:00,ZBAA 301100Z AUTO 14012KT 3SM 21/05 A2953 RMK T02100050 IEM_DS3505
ZBAA,2006-04-30 12:00,ZBAA 301200Z AUTO 11006KT 5SM 19/03 A2959 RMK SLP015 T01920034 52046 IEM_DS3505
ZBAA,2006-04-30 13:00,ZBAA 301300Z AUTO 15008KT 3SM 19/03 A2962 RMK T01900030 IEM_DS3505
ZBAA,2006-04-30 14:00,ZBAA 301400Z AUTO 14002KT 3SM 19/02 A2968 RMK T01900020 IEM_DS3505
ZBAA,2006-04-30 15:00,ZBAA 301500Z AUTO 09004KT 4SM 18/01 A2968 RMK SLP046 T01770008 52031 IEM_DS3505
ZBAA,2006-04-30 16:00,ZBAA 301600Z AUTO 12004KT 2 1/2SM 18/00 A2971 RMK T01800000 IEM_DS3505
ZBAA,2006-04-30 17:00,ZBAA 301700Z AUTO 00000KT 2 1/2SM 17/00 A2971 RMK T01700000 IEM_DS3505
ZBAA,2006-04-30 18:00,ZBAA 301800Z AUTO 02002KT 4SM 17/M05 A2971 RMK SLP055 T01671051 52009 IEM_DS3505
ZBAA,2006-04-30 19:00,ZBAA 301900Z AUTO 29004KT 2 1/2SM 17/M05 A2974 RMK T01701050 IEM_DS3505
ZBAA,2006-04-30 20:00,ZBAA 302000Z AUTO 34006KT 3SM 16/M01 A2974 RMK T01601010 IEM_DS3505
ZBAA,2006-04-30 21:00,ZBAA 302100Z AUTO 33006KT 4SM 16/M04 A2974 RMK SLP068 T01601035 52013 IEM_DS3505
ZBAA,2006-04-30 22:00,ZBAA 302200Z AUTO 02002KT 2 1/2SM 17/02 A2977 RMK T01700020 IEM_DS3505
ZBAA,2006-04-30 23:00,ZBAA 302300Z AUTO 36004KT 2 1/2SM 18/02 A2980 RMK T01800020 IEM_DS3505
ZBAA,2006-05-01 00:00,ZBAA 010000Z AUTO 04004KT 5SM 19/00 A2983 RMK SLP098 T01930004 52030 IEM_DS3505
ZBAA,2006-05-01 01:00,ZBAA 010100Z AUTO 12002KT 4SM 21/M03 A2983 RMK T02101030 IEM_DS3505
ZBAA,2006-05-01 02:00,ZBAA 010200Z AUTO 07002KT 6SM 24/M09 A2985 RMK T02401090 IEM_DS3505
ZBAA,2006-05-01 03:00,ZBAA 010300Z AUTO 04008G14KT 9SM 24/M12 A2985 RMK SLP105 T02401123 52007 IEM_DS3505
ZBAA,2006-05-01 04:00,ZBAA 010400Z AUTO 15006KT 6SM 27/M12 A2983 RMK T02701120 IEM_DS3505
ZBAA,2006-05-01 05:00,ZBAA 010500Z AUTO 14004KT 6SM 27/M12 A2980 RMK T02701120 IEM_DS3505
ZBAA,2006-05-01 06:00,ZBAA 010600Z AUTO 20006KT 12SM 26/M09 A2980 RMK SLP088 T02611092 57017 IEM_DS3505
ZBAA,2006-05-01 07:00,ZBAA 010700Z AUTO 29004KT 6SM 28/M09 A2977 RMK T02801090 IEM_DS3505
ZBAA,2006-05-01 08:00,ZBAA 010800Z AUTO 18012KT 6SM 28/M08 A2977 RMK T02801080 IEM_DS3505
ZBAA,2006-05-01 09:00,ZBAA 010900Z AUTO 20010KT 9SM 26/M05 A2977 RMK SLP082 T02561048 57006 IEM_DS3505
ZBAA,2006-05-01 10:00,ZBAA 011000Z AUTO 16014KT 5SM 24/00 A2980 RMK T02400000 IEM_DS3505
ZBAA,2006-05-01 11:00,ZBAA 011100Z AUTO 15012KT 5SM 22/01 A2983 RMK T02200010 IEM_DS3505
ZBAA,2006-05-01 12:00,ZBAA 011200Z AUTO 18010KT 12SM 19/M01 A2988 RMK SLP112 T01911008 52030 IEM_DS3505
ZBAA,2006-05-01 13:00,ZBAA 011300Z AUTO 12012KT 6SM 17/03 A2991 RMK T01700030 IEM_DS3505
ZBAA,2006-05-01 14:00,ZBAA 011400Z AUTO 12010KT 6SM 16/03 A2994 RMK T01600030 IEM_DS3505
ZBAA,2006-05-01 15:00,ZBAA 011500Z AUTO 14004KT 9SM 16/01 A2997 RMK SLP142 T01580012 52030 IEM_DS3505
ZBAA,2006-05-01 16:00,ZBAA 011600Z AUTO 11006KT 6SM 14/04 A3000 RMK T01400040 IEM_DS3505
ZBAA,2006-05-01 17:00,ZBAA 011700Z AUTO 07004KT 6SM 13/04 A3000 RMK T01300040 IEM_DS3505
ZBAA,2006-05-01 18:00,ZBAA 011800Z AUTO 09006KT 9SM 12/03 A3000 RMK SLP152 T01230030 52010 IEM_DS3505
ZBAA,2006-05-01 19:00,ZBAA 011900Z AUTO 00000KT 6SM 11/04 A3000 RMK T01100040 IEM_DS3505
ZBAA,2006-05-01 20:00,ZBAA 012000Z AUTO 00000KT 6SM 11/04 A3000 RMK T01100040 IEM_DS3505
ZBAA,2006-05-01 21:00,ZBAA 012100Z AUTO 07002KT 9SM 11/04 A3003 RMK SLP164 T01110036 52011 IEM_DS3505
ZBAA,2006-05-01 22:00,ZBAA 012200Z AUTO 08004KT 6SM 12/05 A3003 RMK T01200050 IEM_DS3505
ZBAA,2006-05-01 23:00,ZBAA 012300Z AUTO 10004KT 6SM 14/05 A3003 RMK T01400050 IEM_DS3505
ZBAA,2006-05-02 00:00,ZBAA 020000Z AUTO 14002KT 9SM 16/05 A3003 RMK SLP171 T01560046 52007 IEM_DS3505
ZBAA,2006-05-02 01:00,ZBAA 020100Z AUTO 14004KT 6SM 18/04 A3006 RMK T01800040 IEM_DS3505
ZBAA,2006-05-02 02:00,ZBAA 020200Z AUTO 15008KT 6SM 20/02 A3003 RMK T02000020 IEM_DS3505
ZBAA,2006-05-02 03:00,ZBAA 020300Z AUTO 18012KT 19SM 20/01 A3003 RMK SLP163 T02040008 57008 IEM_DS3505
ZBAA,2006-05-02 04:00,ZBAA 020400Z AUTO 17014KT 6SM 23/02 A3000 RMK T02300020 IEM_DS3505
ZBAA,2006-05-02 05:00,ZBAA 020500Z AUTO 19014KT 6SM 23/01 A2994 RMK T02300010 IEM_DS3505
ZBAA,2006-05-02 06:00,ZBAA 020600Z AUTO 22014KT 16SM 24/M00 A2994 RMK SLP132 T02351001 57031 IEM_DS3505
ZBAA,2006-05-02 07:00,ZBAA 020700Z AUTO 19012G21KT 6SM 24/01 A2991 RMK T02400010 IEM_DS3505
ZBAA,2006-05-02 08:00,ZBAA 020800Z AUTO 19014KT 6SM 24/02 A2988 RMK T02400020 IEM_DS3505
ZBAA,2006-05-02 09:00,ZBAA 020900Z AUTO 20010KT 19SM 23/01 A2988 RMK SLP115 T02330010 57017 IEM_DS3505
ZBAA,2006-05-02 10:00,ZBAA 021000Z AUTO 19012KT 6SM 23/03 A2988 RMK T02300030 IEM_DS3505
ZBAA,2006-05-02 11:00,ZBAA 021100Z AUTO 11012KT 6SM 21/04 A2988 RMK T02100040 IEM_DS3505
ZBAA,2006-05-02 12:00,ZBAA 021200Z AUTO 16006KT 16SM 20/02 A2991 RMK SLP122 T01950015 52007 IEM_DS3505
ZBAA,2006-05-02 13:00,ZBAA 021300Z AUTO 12010KT 6SM 17/03 A2991 RMK T01700030 IEM_DS3505
ZBAA,2006-05-02 14:00,ZBAA 021400Z AUTO 12008KT 6SM 16/02 A2994 RMK T01600020 IEM_DS3505
ZBAA,2006-05-02 15:00,ZBAA 021500Z AUTO 11008KT 16SM 16/01 A2994 RMK SLP134 T01590012 52012 IEM_DS3505
ZBAA,2006-05-02 16:00,ZBAA 021600Z AUTO 12010KT 6SM 15/02 A2994 RMK T01500020 IEM_DS3505
ZBAA,2006-05-02 17:00,ZBAA 021700Z AUTO 12008KT 6SM 14/02 A2994 RMK T01400020 IEM_DS3505
ZBAA,2006-05-02 18:00,ZBAA 021800Z AUTO 11004KT 12SM 14/03 A2994 RMK SLP127 T01390031 57006 IEM_DS3505
ZBAA,2006-05-02 19:00,ZBAA 021900Z AUTO 36004KT 6SM 13/02 A2991 RMK T01300020 IEM_DS3505
ZBAA,2006-05-02 20:00,ZBAA 022000Z AUTO 03002KT 6SM 12/02 A2991 RMK T01200020 IEM_DS3505
ZBAA,2006-05-02 21:00,ZBAA 022100Z AUTO 07002KT 9SM 12/03 A2991 RMK SLP128 T01210033 54000 IEM_DS3505
ZBAA,2006-05-02 22:00,ZBAA 022200Z AUTO 09004KT 6SM 13/03 A2991 RMK T01300030 IEM_DS3505
ZBAA,2006-05-02 23:00,ZBAA 022300Z AUTO 13004KT 6SM 14/03 A2991 RMK T01400030 IEM_DS3505
ZBAA,2006-05-03 00:00,ZBAA 030000Z AUTO 07004KT 9SM 14/04 A2991 RMK SLP123 T01450042 57005 IEM_DS3505
ZBAA,2006-05-03 01:00,ZBAA 030100Z AUTO 12006KT 6SM 17/05 A2991 RMK T01700050 IEM_DS3505
ZBAA,2006-05-03 02:00,ZBAA 030200Z AUTO 13006KT 6SM 18/05 A2988 RMK T01800050 IEM_DS3505
ZBAA,2006-05-03 03:00,ZBAA 030300Z AUTO 09004KT 7SM 20/06 A2985 RMK SLP109 T01960056 57014 IEM_DS3505
ZBAA,2006-05-03 04:00,ZBAA 030400Z AUTO 16006KT 4SM 21/07 A2985 RMK T02100070 IEM_DS3505
ZBAA,2006-05-03 05:00,ZBAA 030500Z AUTO 10008KT 4SM 22/08 A2983 RMK T02200080 IEM_DS3505
ZBAA,2006-05-03 06:00,ZBAA 030600Z AUTO 16004KT 7SM 23/09 A2980 RMK SLP085 T02320092 57023 IEM_DS3505
ZBAA,2006-05-03 07:00,ZBAA 030700Z AUTO 12006KT 4SM 24/10 A2977 RMK T02400100 IEM_DS3505
ZBAA,2006-05-03 08:00,ZBAA 030800Z AUTO 15008KT 4SM 25/10 A2977 RMK T02500100 IEM_DS3505
ZBAA,2006-05-03 09:00,ZBAA 030900Z AUTO 20008KT 7SM 26/10 A2974 RMK SLP067 T02580104 57018 IEM_DS3505
ZBAA,2006-05-03 10:00,ZBAA 031000Z AUTO 13006KT 4SM 25/11 A2974 RMK T02500110 IEM_DS3505
ZBAA,2006-05-03 11:00,ZBAA 031100Z AUTO 11006KT 4SM 24/12 A2974 RMK T02400120 IEM_DS3505
ZBAA,2006-05-03 12:00,ZBAA 031200Z AUTO 22004KT 6SM 23/12 A2977 RMK SLP075 T02330117 52008 IEM_DS3505
ZBAA,2006-05-03 13:00,ZBAA 031300Z AUTO 12006KT 4SM 22/12 A2980 RMK T02200120 IEM_DS3505
ZBAA,2006-05-03 14:00,ZBAA 031400Z AUTO 11008KT 4SM 21/12 A2980 RMK T02100120 IEM_DS3505
ZBAA,2006-05-03 15:00,ZBAA 031500Z AUTO 18006KT 6SM 21/11 A2980 RMK SLP081 T02130113 52006 IEM_DS3505
ZBAA,2006-05-03 16:00,ZBAA 031600Z AUTO 13006KT 4SM 19/12 A2980 RMK T01900120 IEM_DS3505
ZBAA,2006-05-03 17:00,ZBAA 031700Z AUTO 13004KT 4SM 19/12 A2980 RMK T01900120 IEM_DS3505
ZBAA,2006-05-03 18:00,ZBAA 031800Z AUTO 18004KT 6SM 19/11 A2977 RMK SLP079 T01880106 57002 IEM_DS3505
ZBAA,2006-05-03 19:00,ZBAA 031900Z AUTO 13004KT 4SM 18/12 A2980 RMK T01800120 IEM_DS3505
ZBAA,2006-05-03 20:00,ZBAA 032000Z AUTO 12006KT 4SM 17/12 A2977 RMK T01700120 IEM_DS3505
ZBAA,2006-05-03 21:00,ZBAA 032100Z AUTO 16002KT 5SM 17/11 A2977 RMK SLP077 T01720110 57002 IEM_DS3505
ZBAA,2006-05-03 22:00,ZBAA 032200Z AUTO 09006KT 3SM 16/11 A2977 RMK T01600110 IEM_DS3505
ZBAA,2006-05-03 23:00,ZBAA 032300Z AUTO 13004KT 2 1/2SM 17/12 A2980 RMK T01700120 IEM_DS3505
ZBAA,2006-05-04 00:00,ZBAA 040000Z AUTO 07002KT 6SM 19/12 A2980 RMK SLP081 T01870118 52004 IEM_DS3505
ZBAA,2006-05-04 01:00,ZBAA 040100Z AUTO 13004KT 2 1/2SM 20/13 A2980 RMK T02000130 IEM_DS3505
ZBAA,2006-05-04 02:00,ZBAA 040200Z AUTO 11004KT 3SM 20/13 A2977 RMK T02000130 IEM_DS3505
ZBAA,2006-05-04 03:00,ZBAA 040300Z AUTO 14002KT 7SM 20/12 A2980 RMK SLP081 T02030120 54000 IEM_DS3505
ZBAA,2006-05-04 04:00,ZBAA 040400Z AUTO 12006KT 2 1/2SM 20/14 A2977 RMK T02000140 IEM_DS3505
ZBAA,2006-05-04 05:00,ZBAA 040500Z AUTO 10006KT 2 1/2SM 21/14 A2974 RMK T02100140 IEM_DS3505
ZBAA,2006-05-04 06:00,ZBAA 040600Z AUTO 04004KT 6SM 20/14 A2974 RMK 60000 SLP069 T01960135 57012 IEM_DS3505
ZBAA,2006-05-04 07:00,ZBAA 040700Z AUTO 14006KT 2 1/2SM 20/15 A2974 RMK T02000150 IEM_DS3505
ZBAA,2006-05-04 08:00,ZBAA 040800Z AUTO 10006KT 2 1/2SM 19/14 A2974 RMK T01900140 IEM_DS3505
ZBAA,2006-05-04 09:00,ZBAA 040900Z AUTO 04002KT 5SM 19/14 A2977 RMK SLP076 T01920138 52007 IEM_DS3505
ZBAA,2006-05-04 10:00,ZBAA 041000Z AUTO 17004KT 2SM 18/16 A2977 RMK T01800160 IEM_DS3505
ZBAA,2006-05-04 11:00,ZBAA 041100Z AUTO 14006KT 1 1/2SM 17/15 A2974 RMK T01700150 IEM_DS3505
ZBAA,2006-05-04 12:00,ZBAA 041200Z AUTO 02004KT 5SM 17/15 A2977 RMK 60004 SLP075 T01690147 57001 IEM_DS3505
ZBAA,2006-05-04 13:00,ZBAA 041300Z AUTO 35004KT 1 1/2SM 18/16 A2980 RMK T01800160 IEM_DS3505
ZBAA,2006-05-04 14:00,ZBAA 041400Z AUTO 05002KT 1 1/4SM 17/16 A2977 RMK T01700160 IEM_DS3505
ZBAA,2006-05-04 15:00,ZBAA 041500Z AUTO 09002KT 5SM 16/14 A2977 RMK SLP079 T01650142 52004 IEM_DS3505
ZBAA,2006-05-04 16:00,ZBAA 041600Z AUTO 33002KT 1 1/4SM 16/15 A2980 RMK T01600150 IEM_DS3505
ZBAA,2006-05-04 17:00,ZBAA 041700Z AUTO 34008KT 1 1/4SM 16/15 A2980 RMK T01600150 IEM_DS3505
ZBAA,2006-05-04 18:00,ZBAA 041800Z AUTO 09002KT 5SM 16/14 A2983 RMK 60000 SLP097 T01620139 52018 IEM_DS3505
ZBAA,2006-05-04 19:00,ZBAA 041900Z AUTO 33008KT 1 1/2SM 16/15 A2985 RMK T01600150 IEM_DS3505
ZBAA,2006-05-04 20:00,ZBAA 042000Z AUTO 1 1/4SM 15/14 A2988 RMK T01500140 IEM_DS3505
ZBAA,2006-05-04 21:00,ZBAA 042100Z AUTO 36002KT 2 1/2SM 16/13 A2988 RMK 70006 SLP115 T01580133 52017 IEM_DS3505
ZBAA,2006-05-04 22:00,ZBAA 042200Z AUTO 33004KT 1 1/4SM 15/14 A2991 RMK T01500140 IEM_DS3505
ZBAA,2006-05-04 23:00,ZBAA 042300Z AUTO 36008KT 2 1/2SM 17/13 A2991 RMK T01700130 IEM_DS3505
ZBAA,2006-05-05 00:00,ZBAA 050000Z AUTO 04004KT 4SM 18/13 A2994 RMK 70006 SLP134 T01790130 52019 IEM_DS3505
ZBAA,2006-05-05 01:00,ZBAA 050100Z AUTO 03014KT 6SM 20/07 A2994 RMK T02000070 IEM_DS3505
ZBAA,2006-05-05 02:00,ZBAA 050200Z AUTO 03012KT 6SM 21/06 A2997 RMK T02100060 IEM_DS3505
ZBAA,2006-05-05 03:00,ZBAA 050300Z AUTO 09008KT 7SM 22/08 A2994 RMK SLP140 T02220083 52007 IEM_DS3505
ZBAA,2006-05-05 04:00,ZBAA 050400Z AUTO 06010KT 6SM 24/04 A2994 RMK T02400040 IEM_DS3505
ZBAA,2006-05-05 05:00,ZBAA 050500Z AUTO 07006KT 6SM 24/05 A2991 RMK T02400050 IEM_DS3505
ZBAA,2006-05-05 06:00,ZBAA 050600Z AUTO 09006KT 7SM 25/07 A2991 RMK SLP124 T02490066 57016 IEM_DS3505
ZBAA,2006-05-05 07:00,ZBAA 050700Z AUTO 13010KT 6SM 25/07 A2988 RMK T02500070 IEM_DS3505
ZBAA,2006-05-05 08:00,ZBAA 050800Z AUTO 13008KT 6SM 25/08 A2988 RMK T02500080 IEM_DS3505
ZBAA,2006-05-05 09:00,ZBAA 050900Z AUTO 14006KT 12SM 24/01 A2988 RMK SLP118 T02400010 57006 IEM_DS3505
ZBAA,2006-05-05 10:00,ZBAA 051000Z AUTO 15008KT 6SM 24/02 A2988 RMK T02400020 IEM_DS3505
ZBAA,2006-05-05 11:00,ZBAA 051100Z AUTO 17006KT 6SM 21/05 A2988 RMK T02100050 IEM_DS3505
ZBAA,2006-05-05 12:00,ZBAA 051200Z AUTO 20006KT 9SM 20/06 A2988 RMK SLP123 T01990063 52005 IEM_DS3505
ZBAA,2006-05-05 13:00,ZBAA 051300Z AUTO 19010KT 6SM 19/07 A2991 RMK T01900070 IEM_DS3505
ZBAA,2006-05-05 14:00,ZBAA 051400Z AUTO 18008KT 6SM 18/08 A2991 RMK T01800080 IEM_DS3505
ZBAA,2006-05-05 15:00,ZBAA 051500Z AUTO 22006KT 9SM 16/06 A2994 RMK SLP134 T01630056 52011 IEM_DS3505
ZBAA,2006-05-05 16:00,ZBAA 051600Z AUTO 16006KT 6SM 16/07 A2991 RMK T01600070 IEM_DS3505
ZBAA,2006-05-05 17:00,ZBAA 051700Z AUTO 14002KT 6SM 16/06 A2991 RMK T01600060 IEM_DS3505
ZBAA,2006-05-05 18:00,ZBAA 051800Z AUTO 25006KT 9SM 15/05 A2988 RMK SLP117 T01520046 57017 IEM_DS3505
ZBAA,2006-05-05 19:00,ZBAA 051900Z AUTO 35002KT 6SM 14/07 A2988 RMK T01400070 IEM_DS3505
ZBAA,2006-05-05 20:00,ZBAA 052000Z AUTO 10004KT 6SM 13/06 A2985 RMK T01300060 IEM_DS3505
ZBAA,2006-05-05 21:00,ZBAA 052100Z AUTO 00000KT 9SM 12/06 A2985 RMK SLP104 T01220058 57013 IEM_DS3505
ZBAA,2006-05-05 22:00,ZBAA 052200Z AUTO 00000KT 6SM 12/07 A2988 RMK T01200070 IEM_DS3505
ZBAA,2006-05-05 23:00,ZBAA 052300Z AUTO 05004KT 6SM 14/07 A2988 RMK T01400070 IEM_DS3505
ZBAA,2006-05-06 00:00,ZBAA 060000Z AUTO 25004KT 7SM 17/05 A2988 RMK SLP113 T01700050 52009 IEM_DS3505
ZBAA,2006-05-06 01:00,ZBAA 060100Z AUTO 18004KT 3SM 18/07 A2988 RMK T01800070 IEM_DS3505
ZBAA,2006-05-06 02:00,ZBAA 060200Z AUTO 24006KT 4SM 20/07 A2988 RMK T02000070 IEM_DS3505
ZBAA,2006-05-06 03:00,ZBAA 060300Z AUTO 22008KT 9SM 20/04 A2985 RMK SLP107 T02050037 57006 IEM_DS3505
ZBAA,2006-05-06 04:00,ZBAA 060400Z AUTO 18006KT 4SM 23/07 A2983 RMK T02300070 IEM_DS3505
ZBAA,2006-05-06 05:00,ZBAA 060500Z AUTO 20004KT 5SM 23/06 A2980 RMK T02300060 IEM_DS3505
ZBAA,2006-05-06 06:00,ZBAA 060600Z AUTO 20004KT 12SM 23/06 A2980 RMK SLP082 T02320056 57025 IEM_DS3505
ZBAA,2006-05-06 07:00,ZBAA 060700Z AUTO 4SM 23/08 A2977 RMK T02300080 IEM_DS3505
ZBAA,2006-05-06 08:00,ZBAA 060800Z AUTO 23006KT 4SM 24/08 A2977 RMK T02400080 IEM_DS3505
ZBAA,2006-05-06 09:00,ZBAA 060900Z AUTO 22006KT 12SM 24/05 A2974 RMK SLP071 T02370046 57011 IEM_DS3505
ZBAA,2006-05-06 10:00,ZBAA 061000Z AUTO 18004KT 4SM 24/08 A2974 RMK T02400080 IEM_DS3505
ZBAA,2006-05-06 11:00,ZBAA 061100Z AUTO 13004KT 4SM 23/08 A2974 RMK T02300080 IEM_DS3505
ZBAA,2006-05-06 12:00,ZBAA 061200Z AUTO 25004KT 9SM 21/07 A2980 RMK SLP083 T02110066 52012 IEM_DS3505
ZBAA,2006-05-06 13:00,ZBAA 061300Z AUTO 20006KT 4SM 21/09 A2980 RMK T02100090 IEM_DS3505
ZBAA,2006-05-06 14:00,ZBAA 061400Z AUTO 20006KT 4SM 21/09 A2983 RMK T02100090 IEM_DS3505
ZBAA,2006-05-06 15:00,ZBAA 061500Z AUTO 20004KT 7SM 19/08 A2983 RMK SLP093 T01880076 52010 IEM_DS3505
ZBAA,2006-05-06 16:00,ZBAA 061600Z AUTO 11002KT 4SM 18/09 A2983 RMK T01800090 IEM_DS3505
ZBAA,2006-05-06 17:00,ZBAA 061700Z AUTO 17002KT 3SM 17/10 A2983 RMK T01700100 IEM_DS3505
ZBAA,2006-05-06 18:00,ZBAA 061800Z AUTO 22004KT 6SM 17/08 A2983 RMK SLP091 T01660083 57002 IEM_DS3505
ZBAA,2006-05-06 19:00,ZBAA 061900Z AUTO 4SM 16/10 A2983 RMK T01600100 IEM_DS3505
ZBAA,2006-05-06 20:00,ZBAA 062000Z AUTO 07002KT 4SM 16/10 A2983 RMK T01600100 IEM_DS3505
ZBAA,2006-05-06 21:00,ZBAA 062100Z AUTO 20002KT 6SM 15/09 A2983 RMK SLP095 T01460090 52004 IEM_DS3505
ZBAA,2006-05-06 22:00,ZBAA 062200Z AUTO 08002KT 4SM 15/10 A2985 RMK T01500100 IEM_DS3505
ZBAA,2006-05-06 23:00,ZBAA 062300Z AUTO 07004KT 3SM 16/10 A2985 RMK T01600100 IEM_DS3505
ZBAA,2006-05-07 00:00,ZBAA 070000Z AUTO 18002KT 6SM 19/10 A2988 RMK SLP110 T01860097 52015 IEM_DS3505
ZBAA,2006-05-07 01:00,ZBAA 070100Z AUTO 09004KT 2 1/2SM 20/11 A2988 RMK T02000110 IEM_DS3505
ZBAA,2006-05-07 02:00,ZBAA 070200Z AUTO 12006KT 2 1/2SM 22/12 A2988 RMK T02200120 IEM_DS3505
ZBAA,2006-05-07 03:00,ZBAA 070300Z AUTO 22008KT 6SM 24/11 A2985 RMK SLP111 T02440107 52001 IEM_DS3505
ZBAA,2006-05-07 04:00,ZBAA 070400Z AUTO 16012KT 3SM 26/11 A2985 RMK T02600110 IEM_DS3505
ZBAA,2006-05-07 05:00,ZBAA 070500Z AUTO 16010KT 4SM 26/11 A2983 RMK T02600110 IEM_DS3505
ZBAA,2006-05-07 06:00,ZBAA 070600Z AUTO 22008KT 9SM 26/08 A2980 RMK SLP090 T02640084 57021 IEM_DS3505
ZBAA,2006-05-07 07:00,ZBAA 070700Z AUTO 17010KT 5SM 27/11 A2980 RMK T02700110 IEM_DS3505
ZBAA,2006-05-07 08:00,ZBAA 070800Z AUTO 15008KT 5SM 27/11 A2977 RMK T02700110 IEM_DS3505
ZBAA,2006-05-07 09:00,ZBAA 070900Z AUTO 22008KT 9SM 26/10 A2977 RMK SLP074 T02650098 57016 IEM_DS3505
ZBAA,2006-05-07 10:00,ZBAA 071000Z AUTO 12008KT 5SM 26/10 A2977 RMK T02600100 IEM_DS3505
ZBAA,2006-05-07 11:00,ZBAA 071100Z AUTO 12010KT 4SM 25/11 A2977 RMK T02500110 IEM_DS3505
ZBAA,2006-05-07 12:00,ZBAA 071200Z AUTO 07004KT 6SM 24/11 A2983 RMK SLP087 T02420112 52013 IEM_DS3505
ZBAA,2006-05-07 13:00,ZBAA 071300Z AUTO 11010KT 4SM 22/11 A2983 RMK T02200110 IEM_DS3505
ZBAA,2006-05-07 14:00,ZBAA 071400Z AUTO 11008KT 4SM 22/11 A2983 RMK T02200110 IEM_DS3505
ZBAA,2006-05-07 15:00,ZBAA 071500Z AUTO 11004KT 6SM 21/11 A2985 RMK SLP098 T02080109 52011 IEM_DS3505
ZBAA,2006-05-07 16:00,ZBAA 071600Z AUTO 12010KT 5SM 20/11 A2983 RMK T02000110 IEM_DS3505
ZBAA,2006-05-07 17:00,ZBAA 071700Z AUTO 13008KT 5SM 19/11 A2983 RMK T01900110 IEM_DS3505
ZBAA,2006-05-07 18:00,ZBAA 071800Z AUTO 11006KT 6SM 19/11 A2983 RMK SLP091 T01880114 57007 IEM_DS3505
ZBAA,2006-05-07 19:00,ZBAA 071900Z AUTO 12008KT 4SM 18/13 A2983 RMK T01800130 IEM_DS3505
ZBAA,2006-05-07 20:00,ZBAA 072000Z AUTO 12006KT 4SM 18/13 A2983 RMK T01800130 IEM_DS3505
ZBAA,2006-05-07 21:00,ZBAA 072100Z AUTO 09006KT 5SM 17/13 A2983 RMK SLP094 T01730128 52003 IEM_DS3505
ZBAA,2006-05-07 22:00,ZBAA 072200Z AUTO 10006KT 3SM 18/14 A2985 RMK T01800140 IEM_DS3505
ZBAA,2006-05-07 23:00,ZBAA 072300Z AUTO 11002KT 2 1/2SM 18/14 A2988 RMK T01800140 IEM_DS3505
ZBAA,2006-05-08 00:00,ZBAA 080000Z AUTO 04004KT 5SM 18/13 A2988 RMK SLP112 T01790134 52018 IEM_DS3505
ZBAA,2006-05-08 01:00,ZBAA 080100Z AUTO 11006KT 2SM 19/15 A2988 RMK T01900150 IEM_DS3505
ZBAA,2006-05-08 02:00,ZBAA 080200Z AUTO 13006KT 1 1/2SM 19/16 A2988 RMK T01900160 IEM_DS3505
ZBAA,2006-05-08 03:00,ZBAA 080300Z AUTO 07002KT 5SM 23/16 A2988 RMK SLP112 T02260157 54000 IEM_DS3505
ZBAA,2006-05-08 04:00,ZBAA 080400Z AUTO 36004KT 1 1/2SM 21/17 A2988 RMK T02100170 IEM_DS3505
ZBAA,2006-05-08 05:00,ZBAA 080500Z AUTO 35008KT 2SM 21/16 A2988 RMK T02100160 IEM_DS3505
ZBAA,2006-05-08 06:00,ZBAA 080600Z AUTO 02006KT 6SM 22/15 A2988 RMK SLP108 T02250154 57004 IEM_DS3505
ZBAA,2006-05-08 07:00,ZBAA 080700Z AUTO 35008KT 2SM 21/16 A2988 RMK T02100160 IEM_DS3505
ZBAA,2006-05-08 08:00,ZBAA 080800Z AUTO 35012KT 2SM 21/16 A2985 RMK T02100160 IEM_DS3505
ZBAA,2006-05-08 09:00,ZBAA 080900Z AUTO 02008KT 5SM 21/15 A2985 RMK SLP101 T02140148 57007 IEM_DS3505
ZBAA,2006-05-08 10:00,ZBAA 081000Z AUTO 01012KT 3SM 20/15 A2988 RMK T02000150 IEM_DS3505
ZBAA,2006-05-08 11:00,ZBAA 081100Z AUTO 01016KT 7SM 19/14 A2988 RMK T01900140 IEM_DS3505
ZBAA,2006-05-08 12:00,ZBAA 081200Z AUTO 04006KT 7SM 20/13 A2991 RMK SLP125 T01990131 52024 IEM_DS3505
ZBAA,2006-05-08 13:00,ZBAA 081300Z AUTO 02014KT 6SM 19/13 A2997 RMK T01900130 IEM_DS3505
ZBAA,2006-05-08 14:00,ZBAA 081400Z AUTO 02012KT 6SM 19/13 A2997 RMK T01900130 IEM_DS3505
ZBAA,2006-05-08 15:00,ZBAA 081500Z AUTO 07012KT 7SM 19/12 A2997 RMK SLP146 T01940124 52021 IEM_DS3505
ZBAA,2006-05-08 16:00,ZBAA 081600Z AUTO 01010KT 6SM 18/14 A3000 RMK T01800140 IEM_DS3505
ZBAA,2006-05-08 17:00,ZBAA 081700Z AUTO 36008KT 6SM 17/14 A2997 RMK T01700140 IEM_DS3505
ZBAA,2006-05-08 18:00,ZBAA 081800Z AUTO 09006KT 9SM 18/11 A2994 RMK SLP129 T01840108 57017 IEM_DS3505
ZBAA,2006-05-08 19:00,ZBAA 081900Z AUTO 33004KT 7SM 16/15 A2991 RMK T01600150 IEM_DS3505
ZBAA,2006-05-08 20:00,ZBAA 082000Z AUTO 33004KT 6SM 16/15 A2991 RMK T01600150 IEM_DS3505
ZBAA,2006-05-08 21:00,ZBAA 082100Z AUTO 04006KT 9SM 17/13 A2994 RMK SLP134 T01710128 52005 IEM_DS3505
ZBAA,2006-05-08 22:00,ZBAA 082200Z AUTO 34004KT 4SM 16/15 A2994 RMK T01600150 IEM_DS3505
ZBAA,2006-05-09 00:00,ZBAA 090000Z AUTO 09004KT 7SM 16/14 A2997 RMK 60000 70001 SLP144 T01600135 52009 IEM_DS3505
ZBAA,2006-05-09 01:00,ZBAA 090100Z AUTO 15006KT 2 1/2SM 16/15 A2997 RMK T01600150 IEM_DS3505
ZBAA,2006-05-09 02:00,ZBAA 090200Z AUTO 11002KT 2 1/2SM 16/14 A2997 RMK T01600140 IEM_DS3505
ZBAA,2006-05-09 03:00,ZBAA 090300Z AUTO 09004KT 4SM 16/14 A2997 RMK SLP150 T01570141 52006 IEM_DS3505
ZBAA,2006-05-09 04:00,ZBAA 090400Z AUTO 14004KT 1 1/2SM 16/15 A2997 RMK T01600150 IEM_DS3505
ZBAA,2006-05-09 05:00,ZBAA 090500Z AUTO 12004KT 1 1/2SM 16/15 A2994 RMK T01600150 IEM_DS3505
ZBAA,2006-05-09 06:00,ZBAA 090600Z AUTO 11002KT 5SM 17/15 A2994 RMK 60012 SLP138 T01670147 57012 IEM_DS3505
ZBAA,2006-05-09 07:00,ZBAA 090700Z AUTO 18002KT 1 1/2SM 16/15 A2994 RMK T01600150 IEM_DS3505
ZBAA,2006-05-09 08:00,ZBAA 090800Z AUTO 11004KT 1 1/2SM 17/16 A2991 RMK T01700160 IEM_DS3505
ZBAA,2006-05-09 09:00,ZBAA 090900Z AUTO 27002G14KT 4SM 17/14 A2994 RMK SLP137 T01690144 57001 IEM_DS3505
ZBAA,2006-05-09 10:00,ZBAA 091000Z AUTO 07004KT 1 1/2SM 17/16 A2994 RMK T01700160 IEM_DS3505
ZBAA,2006-05-09 11:00,ZBAA 091100Z AUTO 00000KT 1 1/2SM 17/16 A2994 RMK T01700160 IEM_DS3505
ZBAA,2006-05-09 12:00,ZBAA 091200Z AUTO 25002KT 4SM 16/14 A2997 RMK 60000 SLP149 T01650143 52012 IEM_DS3505
ZBAA,2006-05-09 13:00,ZBAA 091300Z AUTO 30006KT 1 1/2SM 17/16 A3000 RMK T01700160 IEM_DS3505
ZBAA,2006-05-09 14:00,ZBAA 091400Z AUTO 28008KT 1 1/4SM 16/15 A3003 RMK T01600150 IEM_DS3505
ZBAA,2006-05-09 15:00,ZBAA 091500Z AUTO 25002KT 2 1/2SM 16/14 A3000 RMK SLP159 T01600142 52010 IEM_DS3505
ZBAA,2006-05-09 16:00,ZBAA 091600Z AUTO 29008KT 1 1/4SM 16/15 A3003 RMK T01600150 IEM_DS3505
ZBAA,2006-05-09 17:00,ZBAA 091700Z AUTO 33004KT 3SM 15/14 A3003 RMK T01500140 IEM_DS3505
ZBAA,2006-05-09 18:00,ZBAA 091800Z AUTO 34006KT 9SM 18/ A3003 RMK SLP167 52008 IEM_DS3505
ZBAA,2006-05-09 19:00,ZBAA 091900Z AUTO 32012KT 6SM 16/06 A3006 RMK T01600060 IEM_DS3505
ZBAA,2006-05-09 20:00,ZBAA 092000Z AUTO 33008KT 6SM 15/05 A3009 RMK T01500050 IEM_DS3505
ZBAA,2006-05-09 21:00,ZBAA 092100Z AUTO 36006KT 6SM 17/M03 A3009 RMK 70012 SLP191 T01691032 52024 IEM_DS3505
ZBAA,2006-05-09 22:00,ZBAA 092200Z AUTO 31012KT 6SM 15/M01 A3012 RMK T01501010 IEM_DS3505
ZBAA,2006-05-09 23:00,ZBAA 092300Z AUTO 30014KT 6SM 16/M01 A3015 RMK T01601010 IEM_DS3505
ZBAA,2006-05-10 00:00,ZBAA 100000Z AUTO 34008KT 12SM 17/M04 A3018 RMK 70011 SLP216 T01671045 52025 IEM_DS3505
ZBAA,2006-05-10 01:00,ZBAA 100100Z AUTO 33014KT 6SM 19/M01 A3018 RMK T01901010 IEM_DS3505
ZBAA,2006-05-10 02:00,ZBAA 100200Z AUTO 34014G23KT 6SM 20/M02 A3018 RMK T02001020 IEM_DS3505
ZBAA,2006-05-10 03:00,ZBAA 100300Z AUTO 34010KT 19SM 20/M03 A3018 RMK SLP218 T01961033 52002 IEM_DS3505
ZBAA,2006-05-10 04:00,ZBAA 100400Z AUTO 34008G17KT 6SM 22/M02 A3015 RMK T02201020 IEM_DS3505
ZBAA,2006-05-10 05:00,ZBAA 100500Z AUTO 01012KT 6SM 22/M01 A3012 RMK T02201010 IEM_DS3505
ZBAA,2006-05-10 06:00,ZBAA 100600Z AUTO 32008G16KT 19SM 22/M04 A3012 RMK SLP199 T02191042 57019 IEM_DS3505
ZBAA,2006-05-10 07:00,ZBAA 100700Z AUTO 05008KT 6SM 23/M02 A3012 RMK T02301020 IEM_DS3505
ZBAA,2006-05-10 08:00,ZBAA 100800Z AUTO 05014KT 6SM 23/M02 A3009 RMK T02301020 IEM_DS3505
ZBAA,2006-05-10 09:00,ZBAA 100900Z AUTO 34006KT 19SM 22/M06 A3009 RMK SLP190 T02231056 57009 IEM_DS3505
ZBAA,2006-05-10 10:00,ZBAA 101000Z AUTO 36010KT 6SM 22/M02 A3012 RMK T02201020 IEM_DS3505
ZBAA,2006-05-10 11:00,ZBAA 101100Z AUTO 05008KT 6SM 21/M02 A3012 RMK T02101020 IEM_DS3505
ZBAA,2006-05-10 12:00,ZBAA 101200Z AUTO 04004KT 19SM 19/M04 A3015 RMK SLP209 T01921036 52019 IEM_DS3505
ZBAA,2006-05-10 13:00,ZBAA 101300Z AUTO 36004KT 6SM 17/M01 A3018 RMK T01701010 IEM_DS3505
ZBAA,2006-05-10 14:00,ZBAA 101400Z AUTO 35006KT 6SM 15/01 A3021 RMK T01500010 IEM_DS3505
ZBAA,2006-05-10 15:00,ZBAA 101500Z AUTO 32002KT 19SM 16/M01 A3021 RMK SLP227 T01591008 52018 IEM_DS3505
ZBAA,2006-05-10 16:00,ZBAA 101600Z AUTO 35006KT 6SM 14/M01 A3024 RMK T01401010 IEM_DS3505
ZBAA,2006-05-10 17:00,ZBAA 101700Z AUTO 6SM 15/M01 A3024 RMK T01501010 IEM_DS3505
ZBAA,2006-05-10 18:00,ZBAA 101800Z AUTO 09006KT 16SM 13/05 A3027 RMK SLP246 T01270049 52019 IEM_DS3505
ZBAA,2006-05-10 19:00,ZBAA 101900Z AUTO 16004KT 6SM 12/06 A3027 RMK T01200060 IEM_DS3505
ZBAA,2006-05-10 20:00,ZBAA 102000Z AUTO 17002KT 6SM 11/07 A3030 RMK T01100070 IEM_DS3505
ZBAA,2006-05-10 21:00,ZBAA 102100Z AUTO 04004KT 12SM 11/05 A3030 RMK SLP250 T01090050 52004 IEM_DS3505
ZBAA,2006-05-10 22:00,ZBAA 102200Z AUTO 36006KT 6SM 11/07 A3030 RMK T01100070 IEM_DS3505
ZBAA,2006-05-10 23:00,ZBAA 102300Z AUTO 01004KT 6SM 14/07 A3030 RMK T01400070 IEM_DS3505
ZBAA,2006-05-11 00:00,ZBAA 110000Z AUTO 04004KT 12SM 16/05 A3033 RMK SLP271 T01610051 52021 IEM_DS3505
ZBAA,2006-05-11 01:00,ZBAA 110100Z AUTO 01002KT 6SM 18/04 A3036 RMK T01800040 IEM_DS3505
ZBAA,2006-05-11 02:00,ZBAA 110200Z AUTO 05004KT 6SM 20/01 A3033 RMK T02000010 IEM_DS3505
ZBAA,2006-05-11 03:00,ZBAA 110300Z AUTO 09008KT 12SM 20/04 A3033 RMK SLP258 T02040036 57013 IEM_DS3505
ZBAA,2006-05-11 04:00,ZBAA 110400Z AUTO 14008KT 6SM 23/04 A3027 RMK T02300040 IEM_DS3505
ZBAA,2006-05-11 05:00,ZBAA 110500Z AUTO 13010KT 6SM 22/00 A3024 RMK T02200000 IEM_DS3505
ZBAA,2006-05-11 06:00,ZBAA 110600Z AUTO 22006KT 12SM 22/01 A3024 RMK SLP237 T02150012 57021 IEM_DS3505
ZBAA,2006-05-11 07:00,ZBAA 110700Z AUTO 16006KT 6SM 22/M01 A3021 RMK T02201010 IEM_DS3505
ZBAA,2006-05-11 08:00,ZBAA 110800Z AUTO 15006KT 6SM 21/04 A3021 RMK T02100040 IEM_DS3505
ZBAA,2006-05-11 09:00,ZBAA 110900Z AUTO 22008KT 12SM 20/05 A3021 RMK SLP227 T02040048 57010 IEM_DS3505
ZBAA,2006-05-11 10:00,ZBAA 111000Z AUTO 17008KT 6SM 20/06 A3021 RMK T02000060 IEM_DS3505
ZBAA,2006-05-11 11:00,ZBAA 111100Z AUTO 23021KT 4SM 16/11 A3024 RMK T01600110 IEM_DS3505
ZBAA,2006-05-11 12:00,ZBAA 111200Z AUTO 25008KT 9SM 15/08 A3030 RMK 60001 SLP263 T01510076 52036 IEM_DS3505
ZBAA,2006-05-11 13:00,ZBAA 111300Z AUTO 24010KT 6SM 15/10 A3033 RMK T01500100 IEM_DS3505
ZBAA,2006-05-11 14:00,ZBAA 111400Z AUTO 24010KT 7SM 14/11 A3036 RMK T01400110 IEM_DS3505
ZBAA,2006-05-11 15:00,ZBAA 111500Z AUTO 25008KT 9SM 13/10 A3036 RMK SLP278 T01290095 52015 IEM_DS3505
ZBAA,2006-05-11 16:00,ZBAA 111600Z AUTO 32002KT 7SM 13/10 A3036 RMK T01300100 IEM_DS3505
ZBAA,2006-05-11 17:00,ZBAA 111700Z AUTO 36006KT 7SM 12/11 A3033 RMK T01200110 IEM_DS3505
ZBAA,2006-05-11 18:00,ZBAA 111800Z AUTO 34002KT 6SM 13/09 A3033 RMK 60004 SLP260 T01260094 57018 IEM_DS3505
ZBAA,2006-05-11 18:30,ZBAA 111830Z AUTO 36004KT 5SM 13/10 A3033 RMK T01300100 IEM_DS3505
ZBAA,2006-05-11 19:00,ZBAA 111900Z AUTO 36006KT 5SM 13/10 A3030 RMK T01300100 IEM_DS3505
ZBAA,2006-05-11 20:00,ZBAA 112000Z AUTO 02004KT 5SM 13/10 A3030 RMK T01300100 IEM_DS3505
ZBAA,2006-05-11 20:30,ZBAA 112030Z AUTO 03004KT 5SM 13/10 A3027 RMK T01300100 IEM_DS3505
ZBAA,2006-05-11 21:00,ZBAA 112100Z AUTO 09002KT 5SM 12/10 A3027 RMK 70007 SLP248 T01240096 57012 IEM_DS3505
ZBAA,2006-05-11 22:00,ZBAA 112200Z AUTO 27002KT 4SM 12/10 A3027 RMK T01200100 IEM_DS3505
ZBAA,2006-05-11 23:00,ZBAA 112300Z AUTO 19002KT 3SM 13/10 A3027 RMK T01300100 IEM_DS3505
ZBAA,2006-05-12 00:00,ZBAA 120000Z AUTO 18004KT 5SM 13/10 A3027 RMK 60000 70007 SLP245 T01290095 57004 IEM_DS3505
ZBAA,2006-05-12 01:00,ZBAA 120100Z AUTO 17004KT 4SM 14/11 A3027 RMK T01400110 IEM_DS3505
ZBAA,2006-05-12 02:00,ZBAA 120200Z AUTO 18006KT 4SM 14/10 A3027 RMK T01400100 IEM_DS3505
ZBAA,2006-05-12 03:00,ZBAA 120300Z AUTO 20006KT 7SM 14/10 A3024 RMK SLP242 T01400098 57003 IEM_DS3505
ZBAA,2006-05-12 04:00,ZBAA 120400Z AUTO 18008KT 4SM 14/10 A3021 RMK T01400100 IEM_DS3505
ZBAA,2006-05-12 05:00,ZBAA 120500Z AUTO 19008KT 4SM 14/10 A3021 RMK T01400100 IEM_DS3505
ZBAA,2006-05-12 06:00,ZBAA 120600Z AUTO 20004G17KT 9SM 14/08 A3018 RMK 60000 SLP216 T01410085 57026 IEM_DS3505
ZBAA,2006-05-12 07:00,ZBAA 120700Z AUTO 18006KT 4SM 14/10 A3015 RMK T01400100 IEM_DS3505
ZBAA,2006-05-12 08:00,ZBAA 120800Z AUTO 18008KT 4SM 15/10 A3012 RMK T01500100 IEM_DS3505
ZBAA,2006-05-12 09:00,ZBAA 120900Z AUTO 22006KT 9SM 16/09 A3009 RMK SLP189 T01600090 57026 IEM_DS3505
ZBAA,2006-05-12 10:00,ZBAA 121000Z AUTO 15004KT 4SM 15/10 A3009 RMK T01500100 IEM_DS3505
ZBAA,2006-05-12 11:00,ZBAA 121100Z AUTO 14006KT 3SM 14/11 A3009 RMK T01400110 IEM_DS3505
ZBAA,2006-05-12 12:00,ZBAA 121200Z AUTO 22002KT 9SM 15/09 A3009 RMK 60000 SLP188 T01530088 57001 IEM_DS3505
ZBAA,2006-05-12 13:00,ZBAA 121300Z AUTO 2 1/2SM 13/11 A3012 RMK T01300110 IEM_DS3505
ZBAA,2006-05-12 14:00,ZBAA 121400Z AUTO 34004KT 2 1/2SM 13/11 A3012 RMK T01300110 IEM_DS3505
ZBAA,2006-05-12 15:00,ZBAA 121500Z AUTO 27004KT 6SM 13/09 A3012 RMK SLP191 T01340091 52003 IEM_DS3505
ZBAA,2006-05-12 16:00,ZBAA 121600Z AUTO 30008KT 2SM 13/10 A3012 RMK T01300100 IEM_DS3505
ZBAA,2006-05-12 17:00,ZBAA 121700Z AUTO 30014KT 6SM 15/06 A3012 RMK T01500060 IEM_DS3505
ZBAA,2006-05-12 18:00,ZBAA 121800Z AUTO 04002KT 12SM 15/03 A3009 RMK SLP188 T01470029 57003 IEM_DS3505
ZBAA,2006-05-12 19:00,ZBAA 121900Z AUTO 30014KT 6SM 14/04 A3009 RMK T01400040 IEM_DS3505
ZBAA,2006-05-12 20:00,ZBAA 122000Z AUTO 31016KT 6SM 15/04 A3009 RMK T01500040 IEM_DS3505
ZBAA,2006-05-12 21:00,ZBAA 122100Z AUTO 04002KT 16SM 14/02 A3009 RMK 70000 SLP189 T01380021 52001 IEM_DS3505
ZBAA,2006-05-12 22:00,ZBAA 122200Z AUTO 29012KT 6SM 15/04 A3009 RMK T01500040 IEM_DS3505
ZBAA,2006-05-12 23:00,ZBAA 122300Z AUTO 30014KT 6SM 17/03 A3009 RMK T01700030 IEM_DS3505
ZBAA,2006-05-13 00:00,ZBAA 130000Z AUTO 32004KT 19SM 18/01 A3012 RMK 70000 SLP193 T01760007 52004 IEM_DS3505
ZBAA,2006-05-13 01:00,ZBAA 130100Z AUTO 29012KT 6SM 20/03 A3009 RMK T02000030 IEM_DS3505
ZBAA,2006-05-13 02:00,ZBAA 130200Z AUTO 28012KT 6SM 21/03 A3009 RMK T02100030 IEM_DS3505
ZBAA,2006-05-13 03:00,ZBAA 130300Z AUTO 29008KT 19SM 23/M02 A3006 RMK SLP179 T02281020 57014 IEM_DS3505
ZBAA,2006-05-13 04:00,ZBAA 130400Z AUTO 26010G21KT 6SM 24/00 A3003 RMK T02400000 IEM_DS3505
ZBAA,2006-05-13 05:00,ZBAA 130500Z AUTO 28014KT 7SM 26/M01 A3000 RMK T02601010 IEM_DS3505
ZBAA,2006-05-13 06:00,ZBAA 130600Z AUTO 32010G23KT 19SM 25/M04 A2997 RMK SLP149 T02501043 57029 IEM_DS3505
ZBAA,2006-05-13 07:00,ZBAA 130700Z AUTO 30016KT 7SM 27/M01 A2994 RMK T02701010 IEM_DS3505
ZBAA,2006-05-13 08:00,ZBAA 130800Z AUTO 31014KT 7SM 26/M03 A2991 RMK T02601030 IEM_DS3505
ZBAA,2006-05-13 09:00,ZBAA 130900Z AUTO 32012KT 19SM 26/M05 A2991 RMK SLP128 T02631053 57021 IEM_DS3505
ZBAA,2006-05-13 10:00,ZBAA 131000Z AUTO 32016KT 7SM 26/M04 A2991 RMK T02601040 IEM_DS3505
ZBAA,2006-05-13 11:00,ZBAA 131100Z AUTO 33014KT 6SM 25/M03 A2991 RMK T02501030 IEM_DS3505
ZBAA,2006-05-13 12:00,ZBAA 131200Z AUTO 32008G21KT 12SM 24/M06 A2994 RMK SLP140 T02451057 52012 IEM_DS3505
ZBAA,2006-05-13 13:00,ZBAA 131300Z AUTO 33014KT 4SM 24/M01 A2997 RMK T02401010 IEM_DS3505
ZBAA,2006-05-13 14:00,ZBAA 131400Z AUTO 32012KT 4SM 23/00 A2997 RMK T02300000 IEM_DS3505
ZBAA,2006-05-13 15:00,ZBAA 131500Z AUTO 04002KT 12SM 19/00 A3000 RMK SLP154 T01900001 52014 IEM_DS3505
ZBAA,2006-05-13 16:00,ZBAA 131600Z AUTO 22004KT 4SM 19/02 A3000 RMK T01900020 IEM_DS3505
ZBAA,2006-05-13 17:00,ZBAA 131700Z AUTO 17004KT 4SM 17/02 A2997 RMK T01700020 IEM_DS3505
ZBAA,2006-05-13 18:00,ZBAA 131800Z AUTO 22006KT 12SM 15/02 A2997 RMK SLP150 T01500015 57004 IEM_DS3505
ZBAA,2006-05-13 19:00,ZBAA 131900Z AUTO 24004KT 6SM 15/03 A2994 RMK T01500030 IEM_DS3505
ZBAA,2006-05-13 20:00,ZBAA 132000Z AUTO 25006KT 6SM 17/02 A2994 RMK T01700020 IEM_DS3505
ZBAA,2006-05-13 22:00,ZBAA 132200Z AUTO 35002KT 3SM 14/04 A2994 RMK T01400040 IEM_DS3505
ZBAA,2006-05-13 23:00,ZBAA 132300Z AUTO 02002KT 4SM 17/03 A2994 RMK T01700030 IEM_DS3505
ZBAA,2006-05-14 00:00,ZBAA 140000Z AUTO 11002KT 7SM 20/03 A2994 RMK SLP136 T02040027 54000 IEM_DS3505
ZBAA,2006-05-14 01:00,ZBAA 140100Z AUTO 07002KT 5SM 22/03 A2994 RMK T02200030 IEM_DS3505
ZBAA,2006-05-14 02:00,ZBAA 140200Z AUTO 31004KT 6SM 25/01 A2994 RMK T02500010 IEM_DS3505
ZBAA,2006-05-14 03:00,ZBAA 140300Z AUTO 20004G17KT 9SM 27/02 A2991 RMK SLP126 T02660025 57010 IEM_DS3505
ZBAA,2006-05-14 04:00,ZBAA 140400Z AUTO 23006KT 6SM 29/00 A2988 RMK T02900000 IEM_DS3505
ZBAA,2006-05-14 05:00,ZBAA 140500Z AUTO 20006KT 6SM 30/00 A2985 RMK T03000000 IEM_DS3505
ZBAA,2006-05-14 06:00,ZBAA 140600Z AUTO 25010KT 19SM 30/M04 A2983 RMK SLP093 T03001036 57033 IEM_DS3505
ZBAA,2006-05-14 07:00,ZBAA 140700Z AUTO 23008G17KT 6SM 31/M02 A2980 RMK T03101020 IEM_DS3505
ZBAA,2006-05-14 08:00,ZBAA 140800Z AUTO 21010KT 6SM 31/M02 A2977 RMK T03101020 IEM_DS3505
ZBAA,2006-05-14 09:00,ZBAA 140900Z AUTO 22012KT 19SM 30/M05 A2977 RMK SLP075 T02991050 57018 IEM_DS3505
ZBAA,2006-05-14 10:00,ZBAA 141000Z AUTO 20012KT 6SM 30/M02 A2974 RMK T03001020 IEM_DS3505
ZBAA,2006-05-14 11:00,ZBAA 141100Z AUTO 20012KT 6SM 28/00 A2974 RMK T02800000 IEM_DS3505
ZBAA,2006-05-14 12:00,ZBAA 141200Z AUTO 22006KT 16SM 25/01 A2977 RMK SLP077 T02500012 52002 IEM_DS3505
ZBAA,2006-05-14 13:00,ZBAA 141300Z AUTO 20010KT 6SM 26/00 A2977 RMK T02600000 IEM_DS3505
ZBAA,2006-05-14 14:00,ZBAA 141400Z AUTO 20010KT 6SM 25/03 A2977 RMK T02500030 IEM_DS3505
ZBAA,2006-05-14 15:00,ZBAA 141500Z AUTO 22006KT 12SM 22/03 A2977 RMK SLP080 T02190031 52003 IEM_DS3505
ZBAA,2006-05-14 16:00,ZBAA 141600Z AUTO 09006KT 6SM 19/04 A2977 RMK T01900040 IEM_DS3505
ZBAA,2006-05-14 17:00,ZBAA 141700Z AUTO 08002KT 5SM 19/05 A2977 RMK T01900050 IEM_DS3505
ZBAA,2006-05-14 18:00,ZBAA 141800Z AUTO 22002KT 9SM 18/05 A2977 RMK SLP072 T01830052 57008 IEM_DS3505
ZBAA,2006-05-14 19:00,ZBAA 141900Z AUTO 02002KT 4SM 15/05 A2977 RMK T01500050 IEM_DS3505
ZBAA,2006-05-14 20:00,ZBAA 142000Z AUTO 03004KT 4SM 16/05 A2977 RMK T01600050 IEM_DS3505
ZBAA,2006-05-14 21:00,ZBAA 142100Z AUTO 07002KT 9SM 15/07 A2977 RMK SLP074 T01490072 52002 IEM_DS3505
ZBAA,2006-05-14 22:00,ZBAA 142200Z AUTO 08004KT 4SM 16/06 A2980 RMK T01600060 IEM_DS3505
ZBAA,2006-05-14 23:00,ZBAA 142300Z AUTO 05004KT 4SM 17/06 A2980 RMK T01700060 IEM_DS3505
ZBAA,2006-05-15 00:00,ZBAA 150000Z AUTO 07004KT 12SM 20/08 A2980 RMK SLP087 T01970081 52013 IEM_DS3505
ZBAA,2006-05-15 01:00,ZBAA 150100Z AUTO 11004KT 4SM 22/08 A2980 RMK T02200080 IEM_DS3505
ZBAA,2006-05-15 02:00,ZBAA 150200Z AUTO 13006KT 4SM 25/09 A2980 RMK T02500090 IEM_DS3505
ZBAA,2006-05-15 03:00,ZBAA 150300Z AUTO 14006KT 9SM 26/09 A2980 RMK SLP081 T02610086 57006 IEM_DS3505
ZBAA,2006-05-15 04:00,ZBAA 150400Z AUTO 14008KT 4SM 28/11 A2977 RMK T02800110 IEM_DS3505
ZBAA,2006-05-15 05:00,ZBAA 150500Z AUTO 15008KT 4SM 30/11 A2974 RMK T03000110 IEM_DS3505
ZBAA,2006-05-15 06:00,ZBAA 150600Z AUTO 18006KT 9SM 31/07 A2971 RMK SLP056 T03080073 57024 IEM_DS3505
ZBAA,2006-05-15 07:00,ZBAA 150700Z AUTO 14012KT 5SM 32/09 A2968 RMK T03200090 IEM_DS3505
ZBAA,2006-05-15 08:00,ZBAA 150800Z AUTO 16010KT 5SM 32/11 A2968 RMK T03200110 IEM_DS3505
ZBAA,2006-05-15 09:00,ZBAA 150900Z AUTO 20008KT 12SM 32/03 A2968 RMK SLP041 T03180029 57016 IEM_DS3505
ZBAA,2006-05-15 10:00,ZBAA 151000Z AUTO 16008KT 6SM 31/04 A2965 RMK T03100040 IEM_DS3505
ZBAA,2006-05-15 11:00,ZBAA 151100Z AUTO 14004KT 6SM 29/06 A2968 RMK T02900060 IEM_DS3505
ZBAA,2006-05-15 12:00,ZBAA 151200Z AUTO 20002KT 12SM 27/02 A2968 RMK SLP052 T02720023 52011 IEM_DS3505
ZBAA,2006-05-15 13:00,ZBAA 151300Z AUTO 12004KT 5SM 25/09 A2971 RMK T02500090 IEM_DS3505
ZBAA,2006-05-15 14:00,ZBAA 151400Z AUTO 11004KT 4SM 24/10 A2974 RMK T02400100 IEM_DS3505
ZBAA,2006-05-15 15:00,ZBAA 151500Z AUTO 20010KT 12SM 25/06 A2974 RMK SLP063 T02470060 52012 IEM_DS3505
ZBAA,2006-05-15 16:00,ZBAA 151600Z AUTO 18006KT 5SM 22/08 A2974 RMK T02200080 IEM_DS3505
ZBAA,2006-05-15 17:00,ZBAA 151700Z AUTO 15006KT 6SM 23/10 A2974 RMK T02300100 IEM_DS3505
ZBAA,2006-05-15 18:00,ZBAA 151800Z AUTO 25004KT 9SM 21/10 A2971 RMK SLP056 T02060098 57007 IEM_DS3505
ZBAA,2006-05-15 19:00,ZBAA 151900Z AUTO 10008KT 6SM 19/11 A2974 RMK T01900110 IEM_DS3505
ZBAA,2006-05-15 20:00,ZBAA 152000Z AUTO 11008KT 6SM 19/12 A2974 RMK T01900120 IEM_DS3505
ZBAA,2006-05-15 21:00,ZBAA 152100Z AUTO 14002KT 9SM 19/12 A2974 RMK SLP063 T01860119 52007 IEM_DS3505
ZBAA,2006-05-15 21:30,ZBAA 152130Z AUTO 13008KT 4SM 18/14 A2974 RMK T01800140 IEM_DS3505
ZBAA,2006-05-15 22:00,ZBAA 152200Z AUTO 12008KT 3SM 18/14 A2974 RMK T01800140 IEM_DS3505
ZBAA,2006-05-15 22:30,ZBAA 152230Z AUTO 13006KT 3SM 18/14 A2974 RMK T01800140 IEM_DS3505
ZBAA,2006-05-15 23:00,ZBAA 152300Z AUTO 14006KT 3SM 19/15 A2977 RMK T01900150 IEM_DS3505
ZBAA,2006-05-16 00:00,ZBAA 160000Z AUTO 16004KT 9SM 20/14 A2977 RMK SLP074 T02050135 52010 IEM_DS3505
ZBAA,2006-05-16 01:00,ZBAA 160100Z AUTO 15008KT 2 1/2SM 22/16 A2977 RMK T02200160 IEM_DS3505
ZBAA,2006-05-16 02:00,ZBAA 160200Z AUTO 12006KT 2 1/2SM 24/16 A2974 RMK T02400160 IEM_DS3505
ZBAA,2006-05-16 03:00,ZBAA 160300Z AUTO 18006KT 9SM 25/14 A2974 RMK SLP069 T02520140 57004 IEM_DS3505
ZBAA,2006-05-16 04:00,ZBAA 160400Z AUTO 13010KT 3SM 27/16 A2974 RMK T02700160 IEM_DS3505
ZBAA,2006-05-16 05:00,ZBAA 160500Z AUTO 16008KT 3SM 29/15 A2971 RMK T02900150 IEM_DS3505
ZBAA,2006-05-16 06:00,ZBAA 160600Z AUTO 22006KT 9SM 30/09 A2968 RMK SLP047 T02950091 57022 IEM_DS3505
ZBAA,2006-05-16 07:00,ZBAA 160700Z AUTO 17010KT 4SM 32/11 A2968 RMK T03200110 IEM_DS3505
ZBAA,2006-05-16 08:00,ZBAA 160800Z AUTO 18016KT 5SM 32/08 A2965 RMK T03200080 IEM_DS3505
ZBAA,2006-05-16 09:00,ZBAA 160900Z AUTO 20014G31KT 12SM 32/06 A2962 RMK SLP025 T03190062 57022 IEM_DS3505
ZBAA,2006-05-16 10:00,ZBAA 161000Z AUTO 18012KT 6SM 31/10 A2962 RMK T03100100 IEM_DS3505
ZBAA,2006-05-16 11:00,ZBAA 161100Z AUTO 19016KT 4SM 30/09 A2962 RMK T03000090 IEM_DS3505
ZBAA,2006-05-16 12:00,ZBAA 161200Z AUTO 22016KT 9SM 28/08 A2971 RMK SLP056 T02830081 52031 IEM_DS3505
ZBAA,2006-05-16 13:00,ZBAA 161300Z AUTO 01006KT 7SM 21/16 A2980 RMK T02100160 IEM_DS3505
ZBAA,2006-05-16 14:00,ZBAA 161400Z AUTO 34004KT 7SM 20/17 A2980 RMK T02000170 IEM_DS3505
ZBAA,2006-05-16 15:00,ZBAA 161500Z AUTO 34004KT 12SM 23/13 A2983 RMK SLP093 T02310133 52036 IEM_DS3505
ZBAA,2006-05-16 16:00,ZBAA 161600Z AUTO 34008KT 6SM 20/16 A2985 RMK T02000160 IEM_DS3505
ZBAA,2006-05-16 17:00,ZBAA 161700Z AUTO 35006KT 6SM 21/15 A2988 RMK T02100150 IEM_DS3505
ZBAA,2006-05-16 18:00,ZBAA 161800Z AUTO 04004KT 6SM 22/11 A2988 RMK 60002 SLP112 T02220110 52020 IEM_DS3505
ZBAA,2006-05-16 19:00,ZBAA 161900Z AUTO 34008KT 2 1/2SM 20/14 A2988 RMK T02000140 IEM_DS3505
ZBAA,2006-05-16 20:00,ZBAA 162000Z AUTO 34008KT 2 1/2SM 19/13 A2991 RMK T01900130 IEM_DS3505
ZBAA,2006-05-16 21:00,ZBAA 162100Z AUTO 36008KT 6SM 22/ A2991 RMK 70002 SLP124 52012 IEM_DS3505
ZBAA,2006-05-16 22:00,ZBAA 162200Z AUTO 31014KT 2SM 20/M05 A2994 RMK T02001050 IEM_DS3505
ZBAA,2006-05-16 23:00,ZBAA 162300Z AUTO 31014KT 2SM 20/M05 A2997 RMK T02001050 IEM_DS3505
ZBAA,2006-05-17 00:00,ZBAA 170000Z AUTO 02006KT 5SM 22/M11 A3000 RMK 70002 SLP149 T02151114 52024 IEM_DS3505
ZBAA,2006-05-17 01:00,ZBAA 170100Z AUTO 31012KT 2SM 23/M05 A3000 RMK T02301050 IEM_DS3505
ZBAA,2006-05-17 02:00,ZBAA 170200Z AUTO 35006KT 2 1/2SM 23/M04 A3000 RMK T02301040 IEM_DS3505
ZBAA,2006-05-17 03:00,ZBAA 170300Z AUTO 02008KT 5SM 24/M09 A3000 RMK SLP153 T02411094 52004 IEM_DS3505
ZBAA,2006-05-17 04:00,ZBAA 170400Z AUTO 03006KT 2 1/2SM 26/M07 A2997 RMK T02601070 IEM_DS3505
ZBAA,2006-05-17 05:00,ZBAA 170500Z AUTO 2 1/2SM 26/M07 A2997 RMK T02601070 IEM_DS3505
ZBAA,2006-05-17 06:00,ZBAA 170600Z AUTO 11006KT 6SM 27/M08 A2994 RMK SLP132 T02721084 57021 IEM_DS3505
ZBAA,2006-05-17 07:00,ZBAA 170700Z AUTO 15006KT 5SM 28/M08 A2991 RMK T02801080 IEM_DS3505
ZBAA,2006-05-17 08:00,ZBAA 170800Z AUTO 15010KT 5SM 28/M05 A2988 RMK T02801050 IEM_DS3505
ZBAA,2006-05-17 09:00,ZBAA 170900Z AUTO 14008KT 5SM 27/00 A2988 RMK SLP111 T02710000 57021 IEM_DS3505
ZBAA,2006-05-17 10:00,ZBAA 171000Z AUTO 14016KT 3SM 24/ A2988 RMK IEM_DS3505
ZBAA,2006-05-17 11:00,ZBAA 171100Z AUTO 14014KT 4SM 22/12 A2988 RMK T02200120 IEM_DS3505
ZBAA,2006-05-17 12:00,ZBAA 171200Z AUTO 11008KT 7SM 20/10 A2991 RMK SLP122 T02030095 52011 IEM_DS3505
ZBAA,2006-05-17 13:00,ZBAA 171300Z AUTO 13012KT 6SM 20/10 A2991 RMK T02000100 IEM_DS3505
ZBAA,2006-05-17 14:00,ZBAA 171400Z AUTO 14010KT 6SM 19/10 A2994 RMK T01900100 IEM_DS3505
ZBAA,2006-05-17 15:00,ZBAA 171500Z AUTO 11004KT 9SM 18/12 A2991 RMK SLP127 T01810123 52005 IEM_DS3505
ZBAA,2006-05-17 16:00,ZBAA 171600Z AUTO 12006KT 6SM 18/11 A2991 RMK T01800110 IEM_DS3505
ZBAA,2006-05-17 18:00,ZBAA 171800Z AUTO 11004KT 9SM 16/11 A2985 RMK SLP106 T01640113 57021 IEM_DS3505
ZBAA,2006-05-17 19:00,ZBAA 171900Z AUTO 17004KT 4SM 15/11 A2983 RMK T01500110 IEM_DS3505
ZBAA,2006-05-17 20:00,ZBAA 172000Z AUTO 16004KT 4SM 15/11 A2983 RMK T01500110 IEM_DS3505
ZBAA,2006-05-17 21:00,ZBAA 172100Z AUTO 09002KT 6SM 15/10 A2980 RMK SLP085 T01480104 57021 IEM_DS3505
ZBAA,2006-05-17 22:00,ZBAA 172200Z AUTO 19002KT 2 1/2SM 15/12 A2980 RMK T01500120 IEM_DS3505
ZBAA,2006-05-17 23:00,ZBAA 172300Z AUTO 13004KT 2 1/2SM 16/12 A2980 RMK T01600120 IEM_DS3505
ZBAA,2006-05-18 00:00,ZBAA 180000Z AUTO 07002KT 4SM 17/11 A2980 RMK SLP086 T01690114 52001 IEM_DS3505
ZBAA,2006-05-18 01:00,ZBAA 180100Z AUTO 02004KT 2 1/2SM 19/13 A2980 RMK T01900130 IEM_DS3505
ZBAA,2006-05-18 02:00,ZBAA 180200Z AUTO 13006KT 2 1/2SM 20/13 A2977 RMK T02000130 IEM_DS3505
ZBAA,2006-05-18 03:00,ZBAA 180300Z AUTO 14004KT 4SM 22/12 A2974 RMK SLP064 T02220125 57022 IEM_DS3505
ZBAA,2006-05-18 04:00,ZBAA 180400Z AUTO 2 1/2SM 24/14 A2971 RMK T02400140 IEM_DS3505
ZBAA,2006-05-18 05:00,ZBAA 180500Z AUTO 16008KT 2 1/2SM 26/14 A2968 RMK T02600140 IEM_DS3505
ZBAA,2006-05-18 06:00,ZBAA 180600Z AUTO 20006KT 5SM 27/13 A2965 RMK SLP034 T02700130 57030 IEM_DS3505
ZBAA,2006-05-18 07:00,ZBAA 180700Z AUTO 18008KT 2 1/2SM 28/15 A2962 RMK T02800150 IEM_DS3505
ZBAA,2006-05-18 08:00,ZBAA 180800Z AUTO 17010KT 2 1/2SM 29/15 A2959 RMK T02900150 IEM_DS3505
ZBAA,2006-05-18 09:00,ZBAA 180900Z AUTO 32002KT 6SM 28/14 A2959 RMK SLP014 T02800135 57020 IEM_DS3505
ZBAA,2006-05-18 10:00,ZBAA 181000Z AUTO 08006KT 2 1/2SM 27/17 A2959 RMK T02700170 IEM_DS3505
ZBAA,2006-05-18 11:00,ZBAA 181100Z AUTO 04008KT 2 1/2SM 26/16 A2962 RMK T02600160 IEM_DS3505
ZBAA,2006-05-18 12:00,ZBAA 181200Z AUTO 04004KT 5SM 26/15 A2962 RMK 60000 SLP029 T02580149 52015 IEM_DS3505
ZBAA,2006-05-18 13:00,ZBAA 181300Z AUTO 01004KT 2 1/2SM 25/15 A2965 RMK T02500150 IEM_DS3505
ZBAA,2006-05-18 14:00,ZBAA 181400Z AUTO 35006KT 2 1/2SM 24/15 A2965 RMK T02400150 IEM_DS3505
ZBAA,2006-05-18 15:00,ZBAA 181500Z AUTO 02002KT 4SM 25/14 A2965 RMK SLP034 T02510136 52006 IEM_DS3505
ZBAA,2006-05-18 16:00,ZBAA 181600Z AUTO 34004KT 2 1/2SM 24/14 A2965 RMK T02400140 IEM_DS3505
ZBAA,2006-05-18 17:00,ZBAA 181700Z AUTO 01002KT 2 1/2SM 23/14 A2965 RMK T02300140 IEM_DS3505
ZBAA,2006-05-18 18:00,ZBAA 181800Z AUTO 22002KT 4SM 23/15 A2965 RMK SLP030 T02280154 57004 IEM_DS3505
ZBAA,2006-05-18 19:00,ZBAA 181900Z AUTO 36004KT 2 1/2SM 21/15 A2965 RMK T02100150 IEM_DS3505
ZBAA,2006-05-18 20:00,ZBAA 182000Z AUTO 02004KT 2 1/2SM 22/16 A2965 RMK T02200160 IEM_DS3505
ZBAA,2006-05-18 21:00,ZBAA 182100Z AUTO 05004KT 4SM 23/15 A2965 RMK 70000 SLP032 T02260150 52002 IEM_DS3505
ZBAA,2006-05-18 22:00,ZBAA 182200Z AUTO 07006KT 2SM 22/17 A2965 RMK T02200170 IEM_DS3505
ZBAA,2006-05-18 23:00,ZBAA 182300Z AUTO 07006KT 2SM 22/17 A2968 RMK T02200170 IEM_DS3505
ZBAA,2006-05-19 00:00,ZBAA 190000Z AUTO 09006KT 5SM 22/15 A2971 RMK 70000 SLP054 T02170151 52021 IEM_DS3505
ZBAA,2006-05-19 01:00,ZBAA 190100Z AUTO 11014KT 1 1/4SM 22/17 A2974 RMK T02200170 IEM_DS3505
ZBAA,2006-05-19 02:00,ZBAA 190200Z AUTO 12017KT 1 1/2SM 21/17 A2974 RMK T02100170 IEM_DS3505
ZBAA,2006-05-19 03:00,ZBAA 190300Z AUTO 14014KT 5SM 18/12 A2977 RMK SLP077 T01770119 52023 IEM_DS3505
ZBAA,2006-05-19 04:00,ZBAA 190400Z AUTO 14008KT 4SM 19/11 A2977 RMK T01900110 IEM_DS3505
ZBAA,2006-05-19 05:00,ZBAA 190500Z AUTO 14006KT 5SM 19/10 A2974 RMK T01900100 IEM_DS3505
ZBAA,2006-05-19 06:00,ZBAA 190600Z AUTO 16004KT 9SM 19/06 A2974 RMK SLP065 T01870059 57012 IEM_DS3505
ZBAA,2006-05-19 07:00,ZBAA 190700Z AUTO 18006KT 6SM 19/08 A2971 RMK T01900080 IEM_DS3505
ZBAA,2006-05-19 08:00,ZBAA 190800Z AUTO 20008KT 6SM 19/07 A2971 RMK T01900070 IEM_DS3505
ZBAA,2006-05-19 09:00,ZBAA 190900Z AUTO 22002KT 9SM 20/06 A2968 RMK SLP046 T01950056 57019 IEM_DS3505
ZBAA,2006-05-19 10:00,ZBAA 191000Z AUTO 18004KT 6SM 19/06 A2968 RMK T01900060 IEM_DS3505
ZBAA,2006-05-19 11:00,ZBAA 191100Z AUTO 18010KT 6SM 19/05 A2971 RMK T01900050 IEM_DS3505
ZBAA,2006-05-19 12:00,ZBAA 191200Z AUTO 11004KT 12SM 19/02 A2971 RMK SLP058 T01900024 52012 IEM_DS3505
ZBAA,2006-05-19 13:00,ZBAA 191300Z AUTO 19006KT 6SM 19/05 A2974 RMK T01900050 IEM_DS3505
ZBAA,2006-05-19 14:00,ZBAA 191400Z AUTO 13006KT 6SM 19/04 A2974 RMK T01900040 IEM_DS3505
ZBAA,2006-05-19 15:00,ZBAA 191500Z AUTO 29002KT 9SM 17/04 A2977 RMK SLP074 T01700040 52016 IEM_DS3505
ZBAA,2006-05-19 15:30,ZBAA 191530Z AUTO 21004KT 6SM 18/04 A2977 RMK T01800040 IEM_DS3505
ZBAA,2006-05-19 16:00,ZBAA 191600Z AUTO 6SM 18/03 A2974 RMK T01800030 IEM_DS3505
ZBAA,2006-05-19 16:30,ZBAA 191630Z AUTO 00000KT 7SM 18/03 A2977 RMK T01800030 IEM_DS3505
ZBAA,2006-05-19 17:00,ZBAA 191700Z AUTO 35002KT 7SM 18/05 A2977 RMK T01800050 IEM_DS3505
ZBAA,2006-05-19 17:30,ZBAA 191730Z AUTO 11002KT 7SM 18/04 A2974 RMK T01800040 IEM_DS3505
ZBAA,2006-05-19 18:00,ZBAA 191800Z AUTO 02004KT 9SM 18/02 A2977 RMK SLP066 T01780017 57008 IEM_DS3505
ZBAA,2006-05-19 19:00,ZBAA 191900Z AUTO 35004KT 7SM 17/07 A2974 RMK T01700070 IEM_DS3505
ZBAA,2006-05-19 20:00,ZBAA 192000Z AUTO 33004KT 7SM 17/11 A2974 RMK T01700110 IEM_DS3505
ZBAA,2006-05-19 21:00,ZBAA 192100Z AUTO 02002KT 9SM 18/04 A2977 RMK SLP070 T01800039 52004 IEM_DS3505
ZBAA,2006-05-19 22:00,ZBAA 192200Z AUTO 33004KT 5SM 17/11 A2977 RMK T01700110 IEM_DS3505
ZBAA,2006-05-19 23:00,ZBAA 192300Z AUTO 36004KT 5SM 18/10 A2980 RMK T01800100 IEM_DS3505
ZBAA,2006-05-20 00:00,ZBAA 200000Z AUTO 02004KT 9SM 19/07 A2980 RMK SLP087 T01930068 52017 IEM_DS3505
ZBAA,2006-05-20 01:00,ZBAA 200100Z AUTO 35004KT 5SM 20/07 A2983 RMK T02000070 IEM_DS3505
ZBAA,2006-05-20 02:00,ZBAA 200200Z AUTO 08004KT 6SM 22/05 A2983 RMK T02200050 IEM_DS3505
ZBAA,2006-05-20 03:00,ZBAA 200300Z AUTO 11004KT 19SM 21/00 A2983 RMK SLP097 T02070005 52010 IEM_DS3505
ZBAA,2006-05-20 04:00,ZBAA 200400Z AUTO 15006KT 6SM 21/03 A2985 RMK T02100030 IEM_DS3505
ZBAA,2006-05-20 05:00,ZBAA 200500Z AUTO 12006KT 7SM 21/02 A2983 RMK T02100020 IEM_DS3505
ZBAA,2006-05-20 06:00,ZBAA 200600Z AUTO 07006KT 16SM 20/02 A2983 RMK 60000 SLP090 T02040023 57007 IEM_DS3505
ZBAA,2006-05-20 07:00,ZBAA 200700Z AUTO 04004KT 6SM 21/04 A2980 RMK T02100040 IEM_DS3505
ZBAA,2006-05-20 08:00,ZBAA 200800Z AUTO 12006KT 6SM 21/03 A2980 RMK T02100030 IEM_DS3505
ZBAA,2006-05-20 09:00,ZBAA 200900Z AUTO 07004KT 12SM 21/04 A2980 RMK SLP084 T02130035 57006 IEM_DS3505
ZBAA,2006-05-20 10:00,ZBAA 201000Z AUTO 25002KT 6SM 21/04 A2983 RMK T02100040 IEM_DS3505
ZBAA,2006-05-20 11:00,ZBAA 201100Z AUTO 35006KT 6SM 20/06 A2983 RMK T02000060 IEM_DS3505
ZBAA,2006-05-20 12:00,ZBAA 201200Z AUTO 36002KT 6SM 20/04 A2983 RMK SLP098 T02030035 52014 IEM_DS3505
ZBAA,2006-05-20 13:00,ZBAA 201300Z AUTO 36006KT 6SM 19/06 A2985 RMK T01900060 IEM_DS3505
ZBAA,2006-05-20 14:00,ZBAA 201400Z AUTO 01004KT 7SM 18/09 A2988 RMK T01800090 IEM_DS3505
ZBAA,2006-05-20 15:00,ZBAA 201500Z AUTO 20006KT 5SM 18/09 A2991 RMK SLP121 T01830086 52023 IEM_DS3505
ZBAA,2006-05-20 16:00,ZBAA 201600Z AUTO 7SM 17/13 A2988 RMK T01700130 IEM_DS3505
ZBAA,2006-05-20 17:00,ZBAA 201700Z AUTO 21006KT 7SM 16/13 A2991 RMK T01600130 IEM_DS3505
ZBAA,2006-05-20 18:00,ZBAA 201800Z AUTO 32002KT 7SM 14/12 A2991 RMK 60012 SLP123 T01430123 52001 IEM_DS3505
ZBAA,2006-05-20 19:00,ZBAA 201900Z AUTO 35002KT 3SM 14/13 A2991 RMK T01400130 IEM_DS3505
ZBAA,2006-05-20 20:00,ZBAA 202000Z AUTO 35006KT 3SM 14/13 A2988 RMK T01400130 IEM_DS3505
ZBAA,2006-05-20 21:00,ZBAA 202100Z AUTO 02004KT 7SM 14/11 A2988 RMK 70016 SLP114 T01360110 57009 IEM_DS3505
ZBAA,2006-05-20 22:00,ZBAA 202200Z AUTO 34006KT 3SM 14/13 A2988 RMK T01400130 IEM_DS3505
ZBAA,2006-05-20 23:00,ZBAA 202300Z AUTO 34006KT 3SM 14/13 A2988 RMK T01400130 IEM_DS3505
ZBAA,2006-05-21 00:00,ZBAA 210000Z AUTO 04004KT 9SM 16/10 A2988 RMK 60004 70016 SLP111 T01550103 57003 IEM_DS3505
ZBAA,2006-05-21 01:00,ZBAA 210100Z AUTO 35008KT 5SM 16/13 A2985 RMK T01600130 IEM_DS3505
ZBAA,2006-05-21 02:00,ZBAA 210200Z AUTO 35006KT 5SM 17/12 A2985 RMK T01700120 IEM_DS3505
ZBAA,2006-05-21 03:00,ZBAA 210300Z AUTO 04004KT 9SM 18/10 A2985 RMK SLP105 T01850101 57005 IEM_DS3505
ZBAA,2006-05-21 04:00,ZBAA 210400Z AUTO 36004KT 4SM 18/12 A2985 RMK T01800120 IEM_DS3505
ZBAA,2006-05-21 05:00,ZBAA 210500Z AUTO 13004KT 4SM 19/12 A2983 RMK T01900120 IEM_DS3505
ZBAA,2006-05-21 06:00,ZBAA 210600Z AUTO 16004KT 12SM 20/10 A2983 RMK SLP097 T01960103 57009 IEM_DS3505
ZBAA,2006-05-21 07:00,ZBAA 210700Z AUTO 17006KT 4SM 20/13 A2980 RMK T02000130 IEM_DS3505
ZBAA,2006-05-21 08:00,ZBAA 210800Z AUTO 17006KT 4SM 20/13 A2977 RMK T02000130 IEM_DS3505
ZBAA,2006-05-21 09:00,ZBAA 210900Z AUTO 20006KT 12SM 20/11 A2977 RMK SLP081 T01960114 57016 IEM_DS3505
ZBAA,2006-05-21 10:00,ZBAA 211000Z AUTO 18008KT 4SM 19/13 A2977 RMK T01900130 IEM_DS3505
ZBAA,2006-05-21 11:00,ZBAA 211100Z AUTO 17006KT 4SM 19/13 A2980 RMK T01900130 IEM_DS3505
ZBAA,2006-05-21 12:00,ZBAA 211200Z AUTO 20008KT 9SM 18/12 A2983 RMK SLP094 T01780125 52013 IEM_DS3505
ZBAA,2006-05-21 13:00,ZBAA 211300Z AUTO 18008KT 2 1/2SM 17/14 A2983 RMK T01700140 IEM_DS3505
ZBAA,2006-05-21 14:00,ZBAA 211400Z AUTO 18004KT 1 1/2SM 16/14 A2983 RMK T01600140 IEM_DS3505
ZBAA,2006-05-21 15:00,ZBAA 211500Z AUTO 22004KT 6SM 16/14 A2983 RMK SLP098 T01560136 52004 IEM_DS3505
ZBAA,2006-05-21 16:00,ZBAA 211600Z AUTO 09002KT 1 1/4SM 15/14 A2983 RMK T01500140 IEM_DS3505
ZBAA,2006-05-21 17:00,ZBAA 211700Z AUTO 10002KT 1 1/4SM 15/14 A2980 RMK T01500140 IEM_DS3505
ZBAA,2006-05-21 18:00,ZBAA 211800Z AUTO 25004KT 4SM 14/13 A2980 RMK SLP085 T01420129 57013 IEM_DS3505
ZBAA,2006-05-21 19:00,ZBAA 211900Z AUTO 00000KT 1 1/4SM 14/13 A2977 RMK T01400130 IEM_DS3505
ZBAA,2006-05-21 20:00,ZBAA 212000Z AUTO 35006KT 1SM 12/12 A2977 RMK T01200120 IEM_DS3505
ZBAA,2006-05-21 21:00,ZBAA 212100Z AUTO 25002KT 1/2SM 14/13 A2977 RMK 70000 SLP079 T01410133 57006 IEM_DS3505
ZBAA,2006-05-21 22:00,ZBAA 212200Z AUTO 00000KT 1SM 14/14 A2977 RMK T01400140 IEM_DS3505
ZBAA,2006-05-21 23:00,ZBAA 212300Z AUTO 25004KT 1 1/4SM 15/14 A2980 RMK T01500140 IEM_DS3505
ZBAA,2006-05-22 00:00,ZBAA 220000Z AUTO 27004KT 4SM 16/14 A2980 RMK SLP085 T01600137 52006 IEM_DS3505
ZBAA,2006-05-22 01:00,ZBAA 220100Z AUTO 28004KT 1 1/4SM 19/15 A2977 RMK T01900150 IEM_DS3505
ZBAA,2006-05-22 02:00,ZBAA 220200Z AUTO 1 1/2SM 22/15 A2977 RMK T02200150 IEM_DS3505
ZBAA,2006-05-22 03:00,ZBAA 220300Z AUTO 25006KT 5SM 22/13 A2974 RMK SLP067 T02250133 57017 IEM_DS3505
ZBAA,2006-05-22 04:00,ZBAA 220400Z AUTO 23008KT 3SM 28/10 A2971 RMK T02800100 IEM_DS3505
ZBAA,2006-05-22 05:00,ZBAA 220500Z AUTO 20010KT 4SM 30/10 A2968 RMK T03000100 IEM_DS3505
ZBAA,2006-05-22 06:00,ZBAA 220600Z AUTO 22010KT 12SM 28/10 A2965 RMK SLP041 T02840097 57026 IEM_DS3505
ZBAA,2006-05-22 07:00,ZBAA 220700Z AUTO 21016KT 4SM 31/08 A2962 RMK T03100080 IEM_DS3505
ZBAA,2006-05-22 08:00,ZBAA 220800Z AUTO 21017KT 4SM 30/06 A2959 RMK T03000060 IEM_DS3505
ZBAA,2006-05-22 09:00,ZBAA 220900Z AUTO 22014G27KT 16SM 29/01 A2959 RMK SLP022 T02910007 57019 IEM_DS3505
ZBAA,2006-05-22 10:00,ZBAA 221000Z AUTO 20016G25KT 6SM 29/06 A2959 RMK T02900060 IEM_DS3505
ZBAA,2006-05-22 11:00,ZBAA 221100Z AUTO 21017KT 6SM 27/06 A2959 RMK T02700060 IEM_DS3505
ZBAA,2006-05-22 12:00,ZBAA 221200Z AUTO 22012KT 16SM 25/06 A2959 RMK SLP028 T02520059 52006 IEM_DS3505
ZBAA,2006-05-22 13:00,ZBAA 221300Z AUTO 21014KT 6SM 25/11 A2962 RMK T02500110 IEM_DS3505
ZBAA,2006-05-22 14:00,ZBAA 221400Z AUTO 23008KT 6SM 24/12 A2962 RMK T02400120 IEM_DS3505
ZBAA,2006-05-22 15:00,ZBAA 221500Z AUTO 25008KT 12SM 23/10 A2962 RMK SLP030 T02260104 52002 IEM_DS3505
ZBAA,2006-05-22 16:00,ZBAA 221600Z AUTO 07002KT 6SM 21/12 A2962 RMK T02100120 IEM_DS3505
ZBAA,2006-05-22 17:00,ZBAA 221700Z AUTO 17002KT 5SM 19/12 A2962 RMK T01900120 IEM_DS3505
ZBAA,2006-05-22 18:00,ZBAA 221800Z AUTO 27004KT 12SM 20/10 A2962 RMK SLP026 T02010097 57003 IEM_DS3505
ZBAA,2006-05-22 19:00,ZBAA 221900Z AUTO 34004KT 4SM 16/11 A2962 RMK T01600110 IEM_DS3505
ZBAA,2006-05-22 20:00,ZBAA 222000Z AUTO 03004KT 4SM 17/12 A2965 RMK T01700120 IEM_DS3505
ZBAA,2006-05-22 21:00,ZBAA 222100Z AUTO 04004KT 9SM 16/10 A2965 RMK SLP038 T01570105 52011 IEM_DS3505
ZBAA,2006-05-22 22:00,ZBAA 222200Z AUTO 17004KT 4SM 16/12 A2971 RMK T01600120 IEM_DS3505
ZBAA,2006-05-22 23:00,ZBAA 222300Z AUTO 04006KT 4SM 19/12 A2971 RMK T01900120 IEM_DS3505
ZBAA,2006-05-23 00:00,ZBAA 230000Z AUTO 07008KT 6SM 22/12 A2974 RMK SLP063 T02240121 52025 IEM_DS3505
ZBAA,2006-05-23 01:00,ZBAA 230100Z AUTO 09004KT 4SM 25/13 A2974 RMK T02500130 IEM_DS3505
ZBAA,2006-05-23 02:00,ZBAA 230200Z AUTO 12010KT 4SM 27/11 A2974 RMK T02700110 IEM_DS3505
ZBAA,2006-05-23 03:00,ZBAA 230300Z AUTO 11008KT 7SM 28/09 A2974 RMK SLP065 T02830091 52003 IEM_DS3505
ZBAA,2006-05-23 04:00,ZBAA 230400Z AUTO 15012KT 6SM 30/08 A2974 RMK T03000080 IEM_DS3505
ZBAA,2006-05-23 05:00,ZBAA 230500Z AUTO 13012KT 6SM 30/10 A2971 RMK T03000100 IEM_DS3505
ZBAA,2006-05-23 06:00,ZBAA 230600Z AUTO 11010KT 7SM 31/09 A2968 RMK SLP048 T03060089 57017 IEM_DS3505
ZBAA,2006-05-23 07:00,ZBAA 230700Z AUTO 11014KT 6SM 31/11 A2968 RMK T03100110 IEM_DS3505
ZBAA,2006-05-23 08:00,ZBAA 230800Z AUTO 13019KT 6SM 28/14 A2968 RMK T02800140 IEM_DS3505
ZBAA,2006-05-23 09:00,ZBAA 230900Z AUTO 11016KT 9SM 25/04 A2968 RMK SLP049 T02530044 54000 IEM_DS3505
ZBAA,2006-05-23 10:00,ZBAA 231000Z AUTO 13014KT 6SM 25/08 A2971 RMK T02500080 IEM_DS3505
ZBAA,2006-05-23 11:00,ZBAA 231100Z AUTO 13012KT 6SM 24/07 A2974 RMK T02400070 IEM_DS3505
ZBAA,2006-05-23 12:00,ZBAA 231200Z AUTO 11006KT 11SM 22/04 A2977 RMK SLP075 T02160038 52026 IEM_DS3505
ZBAA,2006-05-23 13:00,ZBAA 231300Z AUTO 14006KT 6SM 21/07 A2980 RMK T02100070 IEM_DS3505
ZBAA,2006-05-23 14:00,ZBAA 231400Z AUTO 15004KT 6SM 20/08 A2983 RMK T02000080 IEM_DS3505
ZBAA,2006-05-23 15:00,ZBAA 231500Z AUTO 09004KT 9SM 19/06 A2983 RMK SLP089 T01940065 52014 IEM_DS3505
ZBAA,2006-05-23 16:00,ZBAA 231600Z AUTO 04002KT 6SM 19/07 A2983 RMK T01900070 IEM_DS3505
ZBAA,2006-05-23 17:00,ZBAA 231700Z AUTO 09002KT 6SM 20/06 A2983 RMK T02000060 IEM_DS3505
ZBAA,2006-05-23 18:00,ZBAA 231800Z AUTO 07004KT 7SM 18/07 A2983 RMK SLP092 T01830068 52003 IEM_DS3505
ZBAA,2006-05-23 19:00,ZBAA 231900Z AUTO 03004KT 6SM 19/07 A2983 RMK T01900070 IEM_DS3505
ZBAA,2006-05-23 20:00,ZBAA 232000Z AUTO 06002KT 6SM 18/06 A2983 RMK T01800060 IEM_DS3505
ZBAA,2006-05-23 21:00,ZBAA 232100Z AUTO 04004KT 6SM 17/08 A2985 RMK SLP099 T01720084 52007 IEM_DS3505
ZBAA,2006-05-23 22:00,ZBAA 232200Z AUTO 35004KT 6SM 17/09 A2985 RMK T01700090 IEM_DS3505
ZBAA,2006-05-23 23:00,ZBAA 232300Z AUTO 34004KT 6SM 18/09 A2988 RMK T01800090 IEM_DS3505
ZBAA,2006-05-24 00:00,ZBAA 240000Z AUTO 07008KT 7SM 20/06 A2991 RMK SLP118 T02040056 52019 IEM_DS3505
ZBAA,2006-05-24 01:00,ZBAA 240100Z AUTO 01004KT 6SM 21/07 A2988 RMK T02100070 IEM_DS3505
ZBAA,2006-05-24 02:00,ZBAA 240200Z AUTO 03004KT 6SM 24/07 A2988 RMK T02400070 IEM_DS3505
ZBAA,2006-05-24 03:00,ZBAA 240300Z AUTO 07008KT 9SM 24/03 A2988 RMK SLP112 T02450026 57006 IEM_DS3505
ZBAA,2006-05-24 04:00,ZBAA 240400Z AUTO 06004KT 6SM 27/08 A2985 RMK T02700080 IEM_DS3505
ZBAA,2006-05-24 05:00,ZBAA 240500Z AUTO 10004KT 6SM 28/08 A2985 RMK T02800080 IEM_DS3505
ZBAA,2006-05-24 06:00,ZBAA 240600Z AUTO 09008KT 6SM 27/09 A2983 RMK SLP095 T02670087 57017 IEM_DS3505
ZBAA,2006-05-24 07:00,ZBAA 240700Z AUTO 12010KT 6SM 28/11 A2983 RMK T02800110 IEM_DS3505
ZBAA,2006-05-24 08:00,ZBAA 240800Z AUTO 13008KT 6SM 28/13 A2980 RMK T02800130 IEM_DS3505
ZBAA,2006-05-24 09:00,ZBAA 240900Z AUTO 09004KT 6SM 26/14 A2983 RMK SLP088 T02620140 57007 IEM_DS3505
ZBAA,2006-05-24 10:00,ZBAA 241000Z AUTO 13006KT 4SM 27/15 A2980 RMK T02700150 IEM_DS3505
ZBAA,2006-05-24 11:00,ZBAA 241100Z AUTO 14004KT 4SM 26/16 A2983 RMK T02600160 IEM_DS3505
ZBAA,2006-05-24 12:00,ZBAA 241200Z AUTO 09008KT 7SM 25/14 A2983 RMK SLP093 T02480143 52005 IEM_DS3505
ZBAA,2006-05-24 13:00,ZBAA 241300Z AUTO 11006KT 4SM 25/17 A2983 RMK T02500170 IEM_DS3505
ZBAA,2006-05-24 14:00,ZBAA 241400Z AUTO 11010KT 3SM 23/17 A2985 RMK T02300170 IEM_DS3505
ZBAA,2006-05-24 15:00,ZBAA 241500Z AUTO 09012KT 9SM 20/14 A2988 RMK SLP110 T02050135 52017 IEM_DS3505
ZBAA,2006-05-24 16:00,ZBAA 241600Z AUTO 05004KT 2 1/2SM 20/19 A2988 RMK T02000190 IEM_DS3505
ZBAA,2006-05-24 17:00,ZBAA 241700Z AUTO 26006KT 1 1/4SM 19/17 A2991 RMK T01900170 IEM_DS3505
ZBAA,2006-05-24 18:00,ZBAA 241800Z AUTO 29004KT 5SM 17/16 A2994 RMK 60031 SLP133 T01730155 52023 IEM_DS3505
ZBAA,2006-05-24 19:00,ZBAA 241900Z AUTO 33008KT 2SM 18/18 A2994 RMK T01800180 IEM_DS3505
ZBAA,2006-05-24 20:00,ZBAA 242000Z AUTO 35010KT 4SM 17/16 A2994 RMK T01700160 IEM_DS3505
ZBAA,2006-05-24 21:00,ZBAA 242100Z AUTO 02004KT 6SM 17/14 A2991 RMK 70036 SLP130 T01740143 57003 IEM_DS3505
ZBAA,2006-05-24 22:00,ZBAA 242200Z AUTO 02008KT 7SM 17/15 A2994 RMK T01700150 IEM_DS3505
ZBAA,2006-05-24 23:00,ZBAA 242300Z AUTO 02010KT 6SM 18/15 A2994 RMK T01800150 IEM_DS3505
ZBAA,2006-05-25 00:00,ZBAA 250000Z AUTO 04006KT 7SM 18/14 A2997 RMK 60008 70037 SLP139 T01810138 52009 IEM_DS3505
ZBAA,2006-05-25 01:00,ZBAA 250100Z AUTO 07008KT 7SM 17/16 A2997 RMK T01700160 IEM_DS3505
ZBAA,2006-05-25 02:00,ZBAA 250200Z AUTO 03004KT 7SM 18/16 A2997 RMK T01800160 IEM_DS3505
ZBAA,2006-05-25 03:00,ZBAA 250300Z AUTO 04008KT 9SM 18/15 A2997 RMK SLP139 T01810146 54000 IEM_DS3505
ZBAA,2006-05-25 04:00,ZBAA 250400Z AUTO 02016KT 7SM 18/15 A2994 RMK T01800150 IEM_DS3505
ZBAA,2006-05-25 05:00,ZBAA 250500Z AUTO 01010KT 7SM 18/15 A2994 RMK T01800150 IEM_DS3505
ZBAA,2006-05-25 06:00,ZBAA 250600Z AUTO 02004KT 12SM 19/13 A2994 RMK 60000 SLP136 T01890133 57004 IEM_DS3505
ZBAA,2006-05-25 07:00,ZBAA 250700Z AUTO 02006KT 6SM 19/15 A2991 RMK T01900150 IEM_DS3505
ZBAA,2006-05-25 08:00,ZBAA 250800Z AUTO 01006KT 6SM 19/16 A2991 RMK T01900160 IEM_DS3505
ZBAA,2006-05-25 09:00,ZBAA 250900Z AUTO 02004KT 9SM 19/13 A2991 RMK SLP118 T01900130 57017 IEM_DS3505
ZBAA,2006-05-25 10:00,ZBAA 251000Z AUTO 36004KT 6SM 19/14 A2991 RMK T01900140 IEM_DS3505
ZBAA,2006-05-25 11:00,ZBAA 251100Z AUTO 35006KT 6SM 18/15 A2991 RMK T01800150 IEM_DS3505
ZBAA,2006-05-25 12:00,ZBAA 251200Z AUTO 04004KT 9SM 19/13 A2991 RMK 60000 SLP125 T01870129 52007 IEM_DS3505
ZBAA,2006-05-25 13:00,ZBAA 251300Z AUTO 36004KT 6SM 18/15 A2994 RMK T01800150 IEM_DS3505
ZBAA,2006-05-25 14:00,ZBAA 251400Z AUTO 03004KT 6SM 18/14 A2994 RMK T01800140 IEM_DS3505
ZBAA,2006-05-25 15:00,ZBAA 251500Z AUTO 07004KT 9SM 18/14 A2994 RMK SLP134 T01750136 52008 IEM_DS3505
ZBAA,2006-05-25 16:00,ZBAA 251600Z AUTO 09004KT 5SM 17/14 A2994 RMK T01700140 IEM_DS3505
ZBAA,2006-05-25 16:30,ZBAA 251630Z AUTO 12008KT 3SM 17/13 A2994 RMK T01700130 IEM_DS3505
ZBAA,2006-05-25 17:00,ZBAA 251700Z AUTO 13008KT 3SM 17/13 A2994 RMK T01700130 IEM_DS3505
ZBAA,2006-05-25 17:30,ZBAA 251730Z AUTO 15004KT 2 1/2SM 16/13 A2994 RMK T01600130 IEM_DS3505
ZBAA,2006-05-25 18:00,ZBAA 251800Z AUTO 09004KT 7SM 15/12 A2991 RMK SLP129 T01530117 57005 IEM_DS3505
ZBAA,2006-05-25 18:30,ZBAA 251830Z AUTO 12006KT 2SM 15/13 A2991 RMK T01500130 IEM_DS3505
ZBAA,2006-05-25 19:00,ZBAA 251900Z AUTO 13004KT 2SM 15/13 A2991 RMK T01500130 IEM_DS3505
ZBAA,2006-05-25 19:30,ZBAA 251930Z AUTO 21002KT 1 1/4SM 14/13 A2991 RMK T01400130 IEM_DS3505
ZBAA,2006-05-25 20:00,ZBAA 252000Z AUTO 00000KT 1 1/4SM 14/13 A2991 RMK T01400130 IEM_DS3505
ZBAA,2006-05-25 20:30,ZBAA 252030Z AUTO 00000KT 1 1/4SM 14/12 A2988 RMK T01400120 IEM_DS3505
ZBAA,2006-05-25 21:00,ZBAA 252100Z AUTO 07004KT 6SM 14/12 A2988 RMK 70002 SLP113 T01370118 57016 IEM_DS3505
ZBAA,2006-05-25 22:00,ZBAA 252200Z AUTO 00000KT 1SM 14/13 A2988 RMK T01400130 IEM_DS3505
ZBAA,2006-05-25 23:00,ZBAA 252300Z AUTO 06002KT 1 1/4SM 15/14 A2985 RMK T01500140 IEM_DS3505
ZBAA,2006-05-26 00:00,ZBAA 260000Z AUTO 11006KT 2 1/2SM 15/12 A2988 RMK 70001 SLP113 T01470122 54000 IEM_DS3505
ZBAA,2006-05-26 01:00,ZBAA 260100Z AUTO 12006KT 1 1/4SM 16/14 A2985 RMK T01600140 IEM_DS3505
ZBAA,2006-05-26 03:00,ZBAA 260300Z AUTO 07008KT 2 1/2SM 16/14 A2985 RMK SLP095 T01590136 57018 IEM_DS3505
ZBAA,2006-05-26 04:00,ZBAA 260400Z AUTO 10006KT 1SM 16/15 A2983 RMK T01600150 IEM_DS3505
ZBAA,2006-05-26 05:00,ZBAA 260500Z AUTO 10008KT 1SM 16/15 A2980 RMK T01600150 IEM_DS3505
ZBAA,2006-05-26 06:00,ZBAA 260600Z AUTO 09008KT 2SM 17/14 A2977 RMK 60000 SLP073 T01660144 57022 IEM_DS3505
ZBAA,2006-05-26 07:00,ZBAA 260700Z AUTO 10008KT 1SM 16/16 A2974 RMK T01600160 IEM_DS3505
ZBAA,2006-05-26 08:00,ZBAA 260800Z AUTO 12010KT 1 1/4SM 16/16 A2971 RMK T01600160 IEM_DS3505
ZBAA,2006-05-26 09:00,ZBAA 260900Z AUTO 20004KT 1 1/4SM 17/15 A2971 RMK SLP055 T01670151 57018 IEM_DS3505
ZBAA,2006-05-26 10:00,ZBAA 261000Z AUTO 11006KT 1SM 17/16 A2971 RMK T01700160 IEM_DS3505
ZBAA,2006-05-26 11:00,ZBAA 261100Z AUTO 08004KT 1SM 17/16 A2971 RMK T01700160 IEM_DS3505
ZBAA,2006-05-26 12:00,ZBAA 261200Z AUTO 09004KT 1SM 16/15 A2971 RMK 60012 SLP054 T01620152 57001 IEM_DS3505
ZBAA,2006-05-26 13:00,ZBAA 261300Z AUTO 12008KT 2SM 16/16 A2971 RMK T01600160 IEM_DS3505
ZBAA,2006-05-26 14:00,ZBAA 261400Z AUTO 01006KT 2 1/2SM 16/16 A2974 RMK T01600160 IEM_DS3505
ZBAA,2006-05-26 15:00,ZBAA 261500Z AUTO 02004KT 2 1/2SM 15/14 A2974 RMK SLP062 T01500140 52008 IEM_DS3505
ZBAA,2006-05-26 16:00,ZBAA 261600Z AUTO 34008KT 2SM 15/15 A2974 RMK T01500150 IEM_DS3505
ZBAA,2006-05-26 17:00,ZBAA 261700Z AUTO 35006KT 2 1/2SM 15/15 A2971 RMK T01500150 IEM_DS3505
ZBAA,2006-05-26 18:00,ZBAA 261800Z AUTO 36004KT 4SM 15/13 A2971 RMK 60075 SLP052 T01470134 57010 IEM_DS3505
ZBAA,2006-05-26 19:00,ZBAA 261900Z AUTO 35010KT 2 1/2SM 15/15 A2971 RMK T01500150 IEM_DS3505
ZBAA,2006-05-26 20:00,ZBAA 262000Z AUTO 35012KT 5SM 14/14 A2971 RMK T01400140 IEM_DS3505
ZBAA,2006-05-26 21:00,ZBAA 262100Z AUTO 36008KT 7SM 14/12 A2974 RMK 70101 SLP059 T01370116 52007 IEM_DS3505
ZBAA,2006-05-26 22:00,ZBAA 262200Z AUTO 34010KT 7SM 14/13 A2974 RMK T01400130 IEM_DS3505
ZBAA,2006-05-26 23:00,ZBAA 262300Z AUTO 34010KT 7SM 14/13 A2977 RMK T01400130 IEM_DS3505
ZBAA,2006-05-27 00:00,ZBAA 270000Z AUTO 36006KT 9SM 14/11 A2980 RMK 60020 70110 SLP083 T01410111 52024 IEM_DS3505
ZBAA,2006-05-27 01:00,ZBAA 270100Z AUTO 33012KT 7SM 15/13 A2980 RMK T01500130 IEM_DS3505
ZBAA,2006-05-27 02:00,ZBAA 270200Z AUTO 32014KT 7SM 16/13 A2983 RMK T01600130 IEM_DS3505
ZBAA,2006-05-27 03:00,ZBAA 270300Z AUTO 34008KT 19SM 16/11 A2983 RMK SLP097 T01630108 52014 IEM_DS3505
ZBAA,2006-05-27 04:00,ZBAA 270400Z AUTO 31014KT 7SM 19/13 A2983 RMK T01900130 IEM_DS3505
ZBAA,2006-05-27 05:00,ZBAA 270500Z AUTO 31012KT 6SM 20/14 A2983 RMK T02000140 IEM_DS3505
ZBAA,2006-05-27 06:00,ZBAA 270600Z AUTO 34006KT 19SM 20/10 A2983 RMK 60008 SLP092 T02020100 57004 IEM_DS3505
ZBAA,2006-05-27 07:00,ZBAA 270700Z AUTO 31012KT 6SM 23/10 A2980 RMK T02300100 IEM_DS3505
ZBAA,2006-05-27 08:00,ZBAA 270800Z AUTO 31012KT 6SM 23/10 A2977 RMK T02300100 IEM_DS3505
ZBAA,2006-05-27 09:00,ZBAA 270900Z AUTO 32006KT 19SM 22/07 A2977 RMK SLP073 T02240070 57019 IEM_DS3505
ZBAA,2006-05-27 10:00,ZBAA 271000Z AUTO 29010KT 6SM 22/11 A2974 RMK T02200110 IEM_DS3505
ZBAA,2006-05-27 11:00,ZBAA 271100Z AUTO 29006KT 6SM 22/11 A2974 RMK T02200110 IEM_DS3505
ZBAA,2006-05-27 12:00,ZBAA 271200Z AUTO 25002KT 6SM 18/10 A2974 RMK SLP070 T01850103 57004 IEM_DS3505
ZBAA,2006-05-27 13:00,ZBAA 271300Z AUTO 27006KT 6SM 20/10 A2977 RMK T02000100 IEM_DS3505
ZBAA,2006-05-27 14:00,ZBAA 271400Z AUTO 03004KT 6SM 17/14 A2977 RMK T01700140 IEM_DS3505
ZBAA,2006-05-27 15:00,ZBAA 271500Z AUTO 00000KT 6SM 16/12 A2977 RMK SLP080 T01600118 52010 IEM_DS3505
ZBAA,2006-05-27 16:00,ZBAA 271600Z AUTO 29002KT 6SM 17/11 A2980 RMK T01700110 IEM_DS3505
ZBAA,2006-05-27 17:00,ZBAA 271700Z AUTO 32004KT 6SM 16/12 A2980 RMK T01600120 IEM_DS3505
ZBAA,2006-05-27 18:00,ZBAA 271800Z AUTO 34002KT 6SM 14/12 A2980 RMK SLP080 T01450118 52001 IEM_DS3505
ZBAA,2006-05-27 19:00,ZBAA 271900Z AUTO 34004KT 6SM 14/12 A2977 RMK T01400120 IEM_DS3505
ZBAA,2006-05-27 20:00,ZBAA 272000Z AUTO 34006KT 6SM 14/12 A2977 RMK T01400120 IEM_DS3505
ZBAA,2006-05-27 21:00,ZBAA 272100Z AUTO 36002KT 6SM 13/10 A2977 RMK 70017 SLP076 T01310101 57004 IEM_DS3505
ZBAA,2006-05-27 22:00,ZBAA 272200Z AUTO 35006KT 6SM 15/13 A2977 RMK T01500130 IEM_DS3505
ZBAA,2006-05-27 23:00,ZBAA 272300Z AUTO 36006KT 6SM 18/13 A2977 RMK T01800130 IEM_DS3505
ZBAA,2006-05-28 00:00,ZBAA 280000Z AUTO 02004KT 19SM 22/08 A2980 RMK 70008 SLP079 T02240078 52003 IEM_DS3505
ZBAA,2006-05-28 01:00,ZBAA 280100Z AUTO 36006KT 6SM 23/11 A2980 RMK T02300110 IEM_DS3505
ZBAA,2006-05-28 02:00,ZBAA 280200Z AUTO 33006KT 6SM 26/10 A2977 RMK T02600100 IEM_DS3505
ZBAA,2006-05-28 03:00,ZBAA 280300Z AUTO 32004KT 19SM 29/04 A2977 RMK SLP073 T02880036 57006 IEM_DS3505
ZBAA,2006-05-28 04:00,ZBAA 280400Z AUTO 32006KT 6SM 30/08 A2974 RMK T03000080 IEM_DS3505
ZBAA,2006-05-28 05:00,ZBAA 280500Z AUTO 30006KT 6SM 31/03 A2971 RMK T03100030 IEM_DS3505
ZBAA,2006-05-28 06:00,ZBAA 280600Z AUTO 36002G14KT 19SM 31/M02 A2971 RMK SLP051 T03061020 57022 IEM_DS3505
ZBAA,2006-05-28 07:00,ZBAA 280700Z AUTO 26004KT 6SM 32/01 A2968 RMK T03200010 IEM_DS3505
ZBAA,2006-05-28 08:00,ZBAA 280800Z AUTO 26008G17KT 6SM 32/02 A2965 RMK T03200020 IEM_DS3505
ZBAA,2006-05-28 09:00,ZBAA 280900Z AUTO 22008KT 19SM 30/03 A2962 RMK SLP033 T02970029 57018 IEM_DS3505
ZBAA,2006-05-28 10:00,ZBAA 281000Z AUTO 18006KT 6SM 30/05 A2962 RMK T03000050 IEM_DS3505
ZBAA,2006-05-28 11:00,ZBAA 281100Z AUTO 22010KT 6SM 28/07 A2962 RMK T02800070 IEM_DS3505
ZBAA,2006-05-28 12:00,ZBAA 281200Z AUTO 22004KT 19SM 25/05 A2965 RMK SLP033 T02460054 52001 IEM_DS3505
ZBAA,2006-05-28 13:00,ZBAA 281300Z AUTO 22006KT 6SM 24/07 A2965 RMK T02400070 IEM_DS3505
ZBAA,2006-05-28 14:00,ZBAA 281400Z AUTO 21006KT 6SM 23/09 A2965 RMK T02300090 IEM_DS3505
ZBAA,2006-05-28 15:00,ZBAA 281500Z AUTO 25008KT 19SM 23/10 A2965 RMK SLP037 T02310099 52004 IEM_DS3505
ZBAA,2006-05-28 16:00,ZBAA 281600Z AUTO 09002KT 6SM 21/12 A2965 RMK T02100120 IEM_DS3505
ZBAA,2006-05-28 17:00,ZBAA 281700Z AUTO 00000KT 6SM 19/13 A2965 RMK T01900130 IEM_DS3505
ZBAA,2006-05-28 18:00,ZBAA 281800Z AUTO 22002KT 16SM 18/11 A2965 RMK SLP033 T01820113 57004 IEM_DS3505
ZBAA,2006-05-28 19:00,ZBAA 281900Z AUTO 02002KT 6SM 17/13 A2965 RMK T01700130 IEM_DS3505
ZBAA,2006-05-28 20:00,ZBAA 282000Z AUTO 04002KT 6SM 16/12 A2965 RMK T01600120 IEM_DS3505
ZBAA,2006-05-28 21:00,ZBAA 282100Z AUTO 02002KT 7SM 16/12 A2965 RMK SLP034 T01600120 54000 IEM_DS3505
ZBAA,2006-05-28 22:00,ZBAA 282200Z AUTO 04002KT 6SM 17/13 A2965 RMK T01700130 IEM_DS3505
ZBAA,2006-05-28 23:00,ZBAA 282300Z AUTO 06002KT 6SM 18/13 A2965 RMK T01800130 IEM_DS3505
ZBAA,2006-05-29 00:00,ZBAA 290000Z AUTO 29002KT 9SM 21/13 A2965 RMK SLP036 T02110130 52002 IEM_DS3505
ZBAA,2006-05-29 01:00,ZBAA 290100Z AUTO 12002KT 5SM 23/15 A2965 RMK T02300150 IEM_DS3505
ZBAA,2006-05-29 02:00,ZBAA 290200Z AUTO 5SM 25/15 A2965 RMK T02500150 IEM_DS3505
ZBAA,2006-05-29 03:00,ZBAA 290300Z AUTO 18008KT 9SM 27/12 A2962 RMK SLP029 T02680121 57006 IEM_DS3505
ZBAA,2006-05-29 04:00,ZBAA 290400Z AUTO 17008KT 4SM 29/14 A2962 RMK T02900140 IEM_DS3505
ZBAA,2006-05-29 05:00,ZBAA 290500Z AUTO 17010KT 4SM 31/12 A2959 RMK T03100120 IEM_DS3505
ZBAA,2006-05-29 06:00,ZBAA 290600Z AUTO 20008KT 12SM 30/12 A2959 RMK SLP015 T03020117 57014 IEM_DS3505
ZBAA,2006-05-29 07:00,ZBAA 290700Z AUTO 18010KT 6SM 32/11 A2959 RMK T03200110 IEM_DS3505
ZBAA,2006-05-29 08:00,ZBAA 290800Z AUTO 17010KT 6SM 31/12 A2956 RMK T03100120 IEM_DS3505
ZBAA,2006-05-29 09:00,ZBAA 290900Z AUTO 20010G21KT 12SM 29/12 A2956 RMK SLP004 T02920122 57011 IEM_DS3505
ZBAA,2006-05-29 10:00,ZBAA 291000Z AUTO 18008KT 6SM 29/15 A2956 RMK T02900150 IEM_DS3505
ZBAA,2006-05-29 11:00,ZBAA 291100Z AUTO 18006KT 6SM 27/16 A2956 RMK T02700160 IEM_DS3505
ZBAA,2006-05-29 12:00,ZBAA 291200Z AUTO 18004KT 12SM 27/13 A2959 RMK SLP012 T02670131 52008 IEM_DS3505
ZBAA,2006-05-29 13:00,ZBAA 291300Z AUTO 14004KT 6SM 26/16 A2959 RMK T02600160 IEM_DS3505
ZBAA,2006-05-29 14:00,ZBAA 291400Z AUTO 17002KT 6SM 24/16 A2962 RMK T02400160 IEM_DS3505
ZBAA,2006-05-29 15:00,ZBAA 291500Z AUTO 16004KT 12SM 24/15 A2962 RMK SLP021 T02430152 52009 IEM_DS3505
ZBAA,2006-05-29 16:00,ZBAA 291600Z AUTO 13004KT 6SM 23/17 A2962 RMK T02300170 IEM_DS3505
ZBAA,2006-05-29 17:00,ZBAA 291700Z AUTO 16004KT 6SM 22/17 A2962 RMK T02200170 IEM_DS3505
ZBAA,2006-05-29 18:00,ZBAA 291800Z AUTO 11002KT 9SM 22/16 A2962 RMK SLP019 T02190155 57002 IEM_DS3505
ZBAA,2006-05-29 19:00,ZBAA 291900Z AUTO 02002KT 3SM 21/17 A2959 RMK T02100170 IEM_DS3505
ZBAA,2006-05-29 20:00,ZBAA 292000Z AUTO 09006KT 2 1/2SM 21/17 A2962 RMK T02100170 IEM_DS3505
ZBAA,2006-05-29 21:00,ZBAA 292100Z AUTO 07004KT 5SM 21/16 A2962 RMK SLP017 T02060156 57002 IEM_DS3505
ZBAA,2006-05-29 22:00,ZBAA 292200Z AUTO 06004KT 2 1/2SM 21/17 A2962 RMK T02100170 IEM_DS3505
ZBAA,2006-05-29 23:00,ZBAA 292300Z AUTO 05002KT 2 1/2SM 22/17 A2965 RMK T02200170 IEM_DS3505
ZBAA,2006-05-30 00:00,ZBAA 300000Z AUTO 07004KT 6SM 23/15 A2965 RMK SLP033 T02280151 52016 IEM_DS3505
ZBAA,2006-05-30 01:00,ZBAA 300100Z AUTO 3SM 26/16 A2965 RMK T02600160 IEM_DS3505
ZBAA,2006-05-30 02:00,ZBAA 300200Z AUTO 4SM 27/16 A2965 RMK T02700160 IEM_DS3505
ZBAA,2006-05-30 03:00,ZBAA 300300Z AUTO 04006KT 7SM 27/14 A2965 RMK SLP027 T02720142 57006 IEM_DS3505
ZBAA,2006-05-30 04:00,ZBAA 300400Z AUTO 10006KT 4SM 30/16 A2962 RMK T03000160 IEM_DS3505
ZBAA,2006-05-30 05:00,ZBAA 300500Z AUTO 12006KT 4SM 30/17 A2962 RMK T03000170 IEM_DS3505
ZBAA,2006-05-30 06:00,ZBAA 300600Z AUTO 11006KT 7SM 30/16 A2959 RMK SLP016 T03010158 57011 IEM_DS3505
ZBAA,2006-05-30 07:00,ZBAA 300700Z AUTO 15004KT 4SM 30/18 A2959 RMK T03000180 IEM_DS3505
ZBAA,2006-05-30 08:00,ZBAA 300800Z AUTO 14004KT 3SM 29/19 A2962 RMK T02900190 IEM_DS3505
ZBAA,2006-05-30 09:00,ZBAA 300900Z AUTO 04002KT 7SM 29/17 A2962 RMK SLP029 T02870169 52013 IEM_DS3505
ZBAA,2006-05-30 10:00,ZBAA 301000Z AUTO 06006KT 3SM 29/20 A2959 RMK T02900200 IEM_DS3505
ZBAA,2006-05-30 11:00,ZBAA 301100Z AUTO 10004KT 3SM 28/20 A2959 RMK T02800200 IEM_DS3505
ZBAA,2006-05-30 12:00,ZBAA 301200Z AUTO 09004KT 7SM 26/18 A2962 RMK SLP025 T02640180 57004 IEM_DS3505
ZBAA,2006-05-30 13:00,ZBAA 301300Z AUTO 16004KT 2 1/2SM 26/21 A2965 RMK T02600210 IEM_DS3505
ZBAA,2006-05-30 14:00,ZBAA 301400Z AUTO 36008KT 2SM 26/21 A2971 RMK T02600210 IEM_DS3505
ZBAA,2006-05-30 15:00,ZBAA 301500Z AUTO 16004KT 5SM 26/19 A2968 RMK SLP045 T02590186 52020 IEM_DS3505
ZBAA,2006-05-30 16:00,ZBAA 301600Z AUTO 24004KT 2 1/2SM 26/20 A2968 RMK T02600200 IEM_DS3505
ZBAA,2006-05-30 17:00,ZBAA 301700Z AUTO 30004KT 1 1/2SM 25/20 A2971 RMK T02500200 IEM_DS3505
ZBAA,2006-05-30 18:00,ZBAA 301800Z AUTO 02004KT 5SM 24/19 A2968 RMK SLP043 T02380191 57002 IEM_DS3505
ZBAA,2006-05-30 19:00,ZBAA 301900Z AUTO 06002KT 2 1/2SM 24/19 A2968 RMK T02400190 IEM_DS3505
ZBAA,2006-05-30 20:00,ZBAA 302000Z AUTO 19002KT 2SM 22/19 A2971 RMK T02200190 IEM_DS3505
ZBAA,2006-05-30 21:00,ZBAA 302100Z AUTO 11002KT 4SM 23/19 A2971 RMK SLP058 T02290191 52015 IEM_DS3505
ZBAA,2006-05-30 22:00,ZBAA 302200Z AUTO 29006KT 2 1/2SM 23/18 A2977 RMK T02300180 IEM_DS3505
ZBAA,2006-05-30 23:00,ZBAA 302300Z AUTO 06004KT 2 1/2SM 24/18 A2977 RMK T02400180 IEM_DS3505
ZBAA,2006-05-31 00:00,ZBAA 310000Z AUTO 07006KT 6SM 26/16 A2977 RMK SLP077 T02570157 52019 IEM_DS3505
ZBAA,2006-05-31 01:00,ZBAA 310100Z AUTO 06004KT 5SM 25/17 A2977 RMK T02500170 IEM_DS3505
ZBAA,2006-05-31 02:00,ZBAA 310200Z AUTO 10004KT 4SM 27/18 A2977 RMK T02700180 IEM_DS3505
ZBAA,2006-05-31 03:00,ZBAA 310300Z AUTO 07004KT 7SM 29/14 A2977 RMK SLP076 T02890143 57001 IEM_DS3505
ZBAA,2006-05-31 04:00,ZBAA 310400Z AUTO 6SM 29/18 A2977 RMK T02900180 IEM_DS3505
ZBAA,2006-05-31 05:00,ZBAA 310500Z AUTO 15006KT 6SM 30/16 A2977 RMK T03000160 IEM_DS3505
ZBAA,2006-05-31 06:00,ZBAA 310600Z AUTO 09006KT 7SM 30/16 A2977 RMK SLP067 T02990160 57009 IEM_DS3505
ZBAA,2006-05-31 07:00,ZBAA 310700Z AUTO 14006KT 5SM 31/17 A2974 RMK T03100170 IEM_DS3505
ZBAA,2006-05-31 08:00,ZBAA 310800Z AUTO 12006KT 5SM 31/18 A2971 RMK T03100180 IEM_DS3505
ZBAA,2006-05-31 09:00,ZBAA 310900Z AUTO 22012KT 9SM 30/11 A2971 RMK SLP061 T03020112 57006 IEM_DS3505
ZBAA,2006-05-31 10:00,ZBAA 311000Z AUTO 21010KT 6SM 30/14 A2971 RMK T03000140 IEM_DS3505
ZBAA,2006-05-31 11:00,ZBAA 311100Z AUTO 19006KT 6SM 29/16 A2974 RMK T02900160 IEM_DS3505
ZBAA,2006-05-31 12:00,ZBAA 311200Z AUTO 18002KT 9SM 28/16 A2977 RMK SLP073 T02750162 52012 IEM_DS3505
ZBAA,2006-05-31 13:00,ZBAA 311300Z AUTO 14002KT 4SM 26/18 A2977 RMK T02600180 IEM_DS3505
ZBAA,2006-05-31 14:00,ZBAA 311400Z AUTO 12006KT 4SM 26/18 A2980 RMK T02600180 IEM_DS3505
ZBAA,2006-05-31 15:00,ZBAA 311500Z AUTO 16002KT 9SM 26/16 A2980 RMK SLP083 T02560165 52010 IEM_DS3505
ZBAA,2006-05-31 16:00,ZBAA 311600Z AUTO 16004KT 3SM 23/19 A2980 RMK T02300190 IEM_DS3505
ZBAA,2006-05-31 17:00,ZBAA 311700Z AUTO 17002KT 3SM 22/19 A2980 RMK T02200190 IEM_DS3505
ZBAA,2006-05-31 18:00,ZBAA 311800Z AUTO 20002KT 9SM 22/15 A2980 RMK SLP082 T02240153 57001 IEM_DS3505
ZBAA,2006-05-31 19:00,ZBAA 311900Z AUTO 13006KT 4SM 23/17 A2980 RMK T02300170 IEM_DS3505
ZBAA,2006-05-31 20:00,ZBAA 312000Z AUTO 15006KT 4SM 22/18 A2980 RMK T02200180 IEM_DS3505
ZBAA,2006-05-31 21:00,ZBAA 312100Z AUTO 16004KT 6SM 21/16 A2980 RMK SLP088 T02120157 52006 IEM_DS3505
ZBAA,2006-05-31 22:00,ZBAA 312200Z AUTO 2SM 21/18 A2983 RMK T02100180 IEM_DS3505
ZBAA,2006-05-31 23:00,ZBAA 312300Z AUTO 07002KT 2SM 23/18 A2983 RMK T02300180 IEM_DS3505
ZBAA,2006-06-01 00:00,ZBAA 010000Z AUTO 18004KT 6SM 25/16 A2983 RMK SLP095 T02470164 52007 IEM_DS3505
ZBAA,2006-06-01 01:00,ZBAA 010100Z AUTO 13004KT 2SM 27/19 A2983 RMK T02700190 IEM_DS3505
ZBAA,2006-06-01 02:00,ZBAA 010200Z AUTO 14006KT 2 1/2SM 28/19 A2983 RMK T02800190 IEM_DS3505
ZBAA,2006-06-01 03:00,ZBAA 010300Z AUTO 20008KT 9SM 30/15 A2983 RMK SLP091 T02950152 57004 IEM_DS3505
ZBAA,2006-06-01 04:00,ZBAA 010400Z AUTO 18010KT 4SM 32/18 A2980 RMK T03200180 IEM_DS3505
ZBAA,2006-06-01 05:00,ZBAA 010500Z AUTO 20012KT 4SM 33/17 A2980 RMK T03300170 IEM_DS3505
ZBAA,2006-06-01 06:00,ZBAA 010600Z AUTO 22008KT 9SM 32/12 A2977 RMK SLP076 T03200123 57015 IEM_DS3505
ZBAA,2006-06-01 07:00,ZBAA 010700Z AUTO 19012G23KT 6SM 33/15 A2977 RMK T03300150 IEM_DS3505
ZBAA,2006-06-01 08:00,ZBAA 010800Z AUTO 19012KT 5SM 33/16 A2974 RMK T03300160 IEM_DS3505
ZBAA,2006-06-01 09:00,ZBAA 010900Z AUTO 22008KT 9SM 32/13 A2974 RMK SLP060 T03200128 57016 IEM_DS3505
ZBAA,2006-06-01 10:00,ZBAA 011000Z AUTO 20008KT 5SM 31/16 A2974 RMK T03100160 IEM_DS3505
ZBAA,2006-06-01 11:00,ZBAA 011100Z AUTO 18006KT 4SM 30/16 A2974 RMK T03000160 IEM_DS3505
ZBAA,2006-06-01 12:00,ZBAA 011200Z AUTO 16004KT 7SM 29/15 A2977 RMK SLP072 T02920153 52012 IEM_DS3505
ZBAA,2006-06-01 13:00,ZBAA 011300Z AUTO 14008KT 4SM 27/18 A2977 RMK T02700180 IEM_DS3505
ZBAA,2006-06-01 14:00,ZBAA 011400Z AUTO 12008KT 4SM 25/18 A2980 RMK T02500180 IEM_DS3505
ZBAA,2006-06-01 15:00,ZBAA 011500Z AUTO 14004KT 7SM 26/15 A2980 RMK SLP079 T02620150 52007 IEM_DS3505
ZBAA,2006-06-01 16:00,ZBAA 011600Z AUTO 13008KT 4SM 24/18 A2980 RMK T02400180 IEM_DS3505
ZBAA,2006-06-01 17:00,ZBAA 011700Z AUTO 13004KT 4SM 23/19 A2980 RMK T02300190 IEM_DS3505
ZBAA,2006-06-01 18:00,ZBAA 011800Z AUTO 16002KT 7SM 22/17 A2980 RMK SLP083 T02180170 52004 IEM_DS3505
ZBAA,2006-06-01 19:00,ZBAA 011900Z AUTO 12006KT 3SM 22/19 A2980 RMK T02200190 IEM_DS3505
ZBAA,2006-06-01 20:00,ZBAA 012000Z AUTO 12006KT 2 1/2SM 22/18 A2980 RMK T02200180 IEM_DS3505
ZBAA,2006-06-01 21:00,ZBAA 012100Z AUTO 09004KT 6SM 21/17 A2980 RMK SLP086 T02090169 52003 IEM_DS3505
ZBAA,2006-06-01 22:00,ZBAA 012200Z AUTO 13006KT 2 1/2SM 21/18 A2983 RMK T02100180 IEM_DS3505
ZBAA,2006-06-01 23:00,ZBAA 012300Z AUTO 13008KT 2 1/2SM 21/18 A2983 RMK T02100180 IEM_DS3505
ZBAA,2006-06-02 00:00,ZBAA 020000Z AUTO 09004KT 6SM 22/17 A2983 RMK SLP097 T02210166 52011 IEM_DS3505
ZBAA,2006-06-02 01:00,ZBAA 020100Z AUTO 13006KT 2 1/2SM 23/18 A2983 RMK T02300180 IEM_DS3505
ZBAA,2006-06-02 02:00,ZBAA 020200Z AUTO 13006KT 2 1/2SM 24/18 A2983 RMK T02400180 IEM_DS3505
ZBAA,2006-06-02 03:00,ZBAA 020300Z AUTO 16004KT 7SM 25/17 A2985 RMK SLP096 T02540168 57001 IEM_DS3505
ZBAA,2006-06-02 04:00,ZBAA 020400Z AUTO 08006KT 2 1/2SM 25/19 A2983 RMK T02500190 IEM_DS3505
ZBAA,2006-06-02 05:00,ZBAA 020500Z AUTO 07006KT 2 1/2SM 26/19 A2983 RMK T02600190 IEM_DS3505
ZBAA,2006-06-02 06:00,ZBAA 020600Z AUTO 02002KT 7SM 27/17 A2983 RMK SLP092 T02680170 57005 IEM_DS3505
ZBAA,2006-06-02 07:00,ZBAA 020700Z AUTO 04012KT 3SM 25/18 A2983 RMK T02500180 IEM_DS3505
ZBAA,2006-06-02 08:00,ZBAA 020800Z AUTO 01016KT 7SM 22/18 A2985 RMK T02200180 IEM_DS3505
ZBAA,2006-06-02 09:00,ZBAA 020900Z AUTO 04010KT 9SM 23/16 A2985 RMK SLP098 T02290155 52006 IEM_DS3505
ZBAA,2006-06-02 10:00,ZBAA 021000Z AUTO 02010KT 5SM 21/18 A2983 RMK T02100180 IEM_DS3505
ZBAA,2006-06-02 11:00,ZBAA 021100Z AUTO 34008KT 7SM 21/17 A2983 RMK T02100170 IEM_DS3505
ZBAA,2006-06-02 12:00,ZBAA 021200Z AUTO 34006KT 9SM 22/16 A2983 RMK 60000 SLP101 T02190155 52003 IEM_DS3505
ZBAA,2006-06-02 13:00,ZBAA 021300Z AUTO 32006KT 5SM 21/18 A2985 RMK T02100180 IEM_DS3505
ZBAA,2006-06-02 14:00,ZBAA 021400Z AUTO 33006KT 4SM 21/18 A2985 RMK T02100180 IEM_DS3505
ZBAA,2006-06-02 15:00,ZBAA 021500Z AUTO 27002KT 7SM 20/18 A2985 RMK SLP103 T02050175 52002 IEM_DS3505
ZBAA,2006-06-02 16:00,ZBAA 021600Z AUTO 34004KT 4SM 20/18 A2985 RMK T02000180 IEM_DS3505
ZBAA,2006-06-02 17:00,ZBAA 021700Z AUTO 36004KT 4SM 19/18 A2983 RMK T01900180 IEM_DS3505
ZBAA,2006-06-02 18:00,ZBAA 021800Z AUTO 34002KT 7SM 20/18 A2983 RMK 60008 SLP092 T02040176 57011 IEM_DS3505
ZBAA,2006-06-02 19:00,ZBAA 021900Z AUTO 01006KT 6SM 20/17 A2983 RMK T02000170 IEM_DS3505
ZBAA,2006-06-02 20:00,ZBAA 022000Z AUTO 35004KT 6SM 19/17 A2983 RMK T01900170 IEM_DS3505
ZBAA,2006-06-02 21:00,ZBAA 022100Z AUTO 07004KT 5SM 20/17 A2983 RMK 70006 SLP093 T01980166 52001 IEM_DS3505
ZBAA,2006-06-02 22:00,ZBAA 022200Z AUTO 04002KT 7SM 20/18 A2983 RMK T02000180 IEM_DS3505
ZBAA,2006-06-02 23:00,ZBAA 022300Z AUTO 11004KT 3SM 20/18 A2983 RMK T02000180 IEM_DS3505
ZBAA,2006-06-03 00:00,ZBAA 030000Z AUTO 09002KT 7SM 21/17 A2983 RMK 70006 SLP092 T02100168 57001 IEM_DS3505
ZBAA,2006-06-03 01:00,ZBAA 030100Z AUTO 06002KT 2 1/2SM 21/19 A2983 RMK T02100190 IEM_DS3505
ZBAA,2006-06-03 02:00,ZBAA 030200Z AUTO 36004KT 2 1/2SM 21/19 A2980 RMK T02100190 IEM_DS3505
ZBAA,2006-06-03 03:00,ZBAA 030300Z AUTO 07004KT 6SM 23/17 A2980 RMK SLP085 T02310169 57007 IEM_DS3505
ZBAA,2006-06-03 04:00,ZBAA 030400Z AUTO 12008KT 4SM 24/19 A2980 RMK T02400190 IEM_DS3505
ZBAA,2006-06-03 05:00,ZBAA 030500Z AUTO 13006KT 3SM 25/19 A2977 RMK T02500190 IEM_DS3505
ZBAA,2006-06-03 06:00,ZBAA 030600Z AUTO 07004KT 6SM 25/18 A2977 RMK SLP073 T02510176 57012 IEM_DS3505
ZBAA,2006-06-03 07:00,ZBAA 030700Z AUTO 15006KT 3SM 27/19 A2974 RMK T02700190 IEM_DS3505
ZBAA,2006-06-03 08:00,ZBAA 030800Z AUTO 13004KT 3SM 26/19 A2974 RMK T02600190 IEM_DS3505
ZBAA,2006-06-03 09:00,ZBAA 030900Z AUTO 20004KT 7SM 27/17 A2974 RMK SLP062 T02730172 57011 IEM_DS3505
ZBAA,2006-06-03 10:00,ZBAA 031000Z AUTO 10008KT 2 1/2SM 25/20 A2974 RMK T02500200 IEM_DS3505
ZBAA,2006-06-03 11:00,ZBAA 031100Z AUTO 12008KT 2 1/2SM 25/20 A2974 RMK T02500200 IEM_DS3505
ZBAA,2006-06-03 12:00,ZBAA 031200Z AUTO 09006KT 5SM 24/19 A2974 RMK SLP066 T02390188 52004 IEM_DS3505
ZBAA,2006-06-03 13:00,ZBAA 031300Z AUTO 13008KT 3SM 23/18 A2977 RMK T02300180 IEM_DS3505
ZBAA,2006-06-03 14:00,ZBAA 031400Z AUTO 13006KT 3SM 23/18 A2977 RMK T02300180 IEM_DS3505
ZBAA,2006-06-03 15:00,ZBAA 031500Z AUTO 07004KT 5SM 22/17 A2977 RMK SLP074 T02180172 52008 IEM_DS3505
ZBAA,2006-06-03 16:00,ZBAA 031600Z AUTO 12004KT 3SM 22/18 A2977 RMK T02200180 IEM_DS3505
ZBAA,2006-06-03 17:00,ZBAA 031700Z AUTO 12008KT 2 1/2SM 21/18 A2977 RMK T02100180 IEM_DS3505
ZBAA,2006-06-03 18:00,ZBAA 031800Z AUTO 09004KT 5SM 20/17 A2977 RMK SLP067 T02040168 57007 IEM_DS3505
ZBAA,2006-06-03 19:00,ZBAA 031900Z AUTO 12004KT 1 1/2SM 20/18 A2977 RMK T02000180 IEM_DS3505
ZBAA,2006-06-03 20:00,ZBAA 032000Z AUTO 12004KT 1 1/2SM 20/17 A2977 RMK T02000170 IEM_DS3505
ZBAA,2006-06-03 21:00,ZBAA 032100Z AUTO 09004KT 3SM 19/16 A2977 RMK SLP071 T01890163 52004 IEM_DS3505
ZBAA,2006-06-03 22:00,ZBAA 032200Z AUTO 00000KT 1 1/4SM 20/18 A2977 RMK T02000180 IEM_DS3505
ZBAA,2006-06-03 23:00,ZBAA 032300Z AUTO 18002KT 1 1/2SM 21/18 A2977 RMK T02100180 IEM_DS3505
ZBAA,2006-06-04 00:00,ZBAA 040000Z AUTO 09006KT 4SM 21/16 A2977 RMK SLP075 T02070163 52004 IEM_DS3505
ZBAA,2006-06-04 01:00,ZBAA 040100Z AUTO 13002KT 1 1/4SM 22/18 A2977 RMK T02200180 IEM_DS3505
ZBAA,2006-06-04 02:00,ZBAA 040200Z AUTO 16002KT 1 1/2SM 24/18 A2974 RMK T02400180 IEM_DS3505
ZBAA,2006-06-04 03:00,ZBAA 040300Z AUTO 09004KT 6SM 26/17 A2974 RMK SLP065 T02570174 57010 IEM_DS3505
ZBAA,2006-06-04 04:00,ZBAA 040400Z AUTO 07004KT 1 1/2SM 26/19 A2974 RMK T02600190 IEM_DS3505
ZBAA,2006-06-04 05:00,ZBAA 040500Z AUTO 2SM 28/19 A2971 RMK T02800190 IEM_DS3505
ZBAA,2006-06-04 06:00,ZBAA 040600Z AUTO 11004KT 7SM 28/18 A2968 RMK SLP045 T02840179 57019 IEM_DS3505
ZBAA,2006-06-04 07:00,ZBAA 040700Z AUTO 2 1/2SM 29/19 A2968 RMK T02900190 IEM_DS3505
ZBAA,2006-06-04 08:00,ZBAA 040800Z AUTO 19006KT 2 1/2SM 30/20 A2965 RMK T03000200 IEM_DS3505
ZBAA,2006-06-04 09:00,ZBAA 040900Z AUTO 25004KT 7SM 29/16 A2965 RMK SLP034 T02910160 57011 IEM_DS3505
ZBAA,2006-06-04 10:00,ZBAA 041000Z AUTO 20006KT 2SM 29/19 A2965 RMK T02900190 IEM_DS3505
ZBAA,2006-06-04 11:00,ZBAA 041100Z AUTO 22004KT 2SM 29/19 A2965 RMK T02900190 IEM_DS3505
ZBAA,2006-06-04 12:00,ZBAA 041200Z AUTO 16002KT 6SM 27/17 A2965 RMK SLP035 T02680167 52001 IEM_DS3505
ZBAA,2006-06-04 13:00,ZBAA 041300Z AUTO 10004KT 2SM 26/19 A2968 RMK T02600190 IEM_DS3505
ZBAA,2006-06-04 14:00,ZBAA 041400Z AUTO 15004KT 1 1/2SM 23/20 A2968 RMK T02300200 IEM_DS3505
ZBAA,2006-06-04 15:00,ZBAA 041500Z AUTO 22002KT 5SM 24/18 A2968 RMK SLP044 T02400182 52009 IEM_DS3505
ZBAA,2006-06-04 16:00,ZBAA 041600Z AUTO 08004KT 1 1/4SM 24/21 A2968 RMK T02400210 IEM_DS3505
ZBAA,2006-06-04 17:00,ZBAA 041700Z AUTO 04004KT 1SM 23/21 A2965 RMK T02300210 IEM_DS3505
ZBAA,2006-06-04 18:00,ZBAA 041800Z AUTO 04004KT 4SM 21/18 A2965 RMK SLP036 T02140184 57008 IEM_DS3505
ZBAA,2006-06-04 19:00,ZBAA 041900Z AUTO 34004KT 1 1/4SM 20/19 A2968 RMK T02000190 IEM_DS3505
ZBAA,2006-06-04 20:00,ZBAA 042000Z AUTO 01004KT 1 1/4SM 21/18 A2968 RMK T02100180 IEM_DS3505
ZBAA,2006-06-04 21:00,ZBAA 042100Z AUTO 04002KT 4SM 22/18 A2968 RMK SLP043 T02160184 52007 IEM_DS3505
ZBAA,2006-06-04 22:00,ZBAA 042200Z AUTO 34004KT 1 1/2SM 20/18 A2968 RMK T02000180 IEM_DS3505
ZBAA,2006-06-04 23:00,ZBAA 042300Z AUTO 34004KT 1 1/2SM 22/19 A2968 RMK T02200190 IEM_DS3505
ZBAA,2006-06-05 00:00,ZBAA 050000Z AUTO 04002KT 6SM 24/17 A2968 RMK SLP047 T02410174 52004 IEM_DS3505
ZBAA,2006-06-05 01:00,ZBAA 050100Z AUTO 07002KT 1 1/2SM 25/19 A2968 RMK T02500190 IEM_DS3505
ZBAA,2006-06-05 02:00,ZBAA 050200Z AUTO 04002KT 2SM 26/19 A2968 RMK T02600190 IEM_DS3505
ZBAA,2006-06-05 03:00,ZBAA 050300Z AUTO 02002KT 6SM 30/18 A2965 RMK SLP036 T02980179 57011 IEM_DS3505
ZBAA,2006-06-05 04:00,ZBAA 050400Z AUTO 2 1/2SM 29/20 A2965 RMK T02900200 IEM_DS3505
ZBAA,2006-06-05 05:00,ZBAA 050500Z AUTO 08004KT 2 1/2SM 29/20 A2962 RMK T02900200 IEM_DS3505
ZBAA,2006-06-05 06:00,ZBAA 050600Z AUTO 11002KT 6SM 31/18 A2962 RMK SLP019 T03110178 57017 IEM_DS3505
ZBAA,2006-06-05 07:00,ZBAA 050700Z AUTO 12006KT 2 1/2SM 32/21 A2959 RMK T03200210 IEM_DS3505
ZBAA,2006-06-05 08:00,ZBAA 050800Z AUTO 12006KT 2SM 32/21 A2959 RMK T03200210 IEM_DS3505
ZBAA,2006-06-05 09:00,ZBAA 050900Z AUTO 22008KT 9SM 34/12 A2956 RMK SLP006 T03370115 57013 IEM_DS3505
ZBAA,2006-06-05 10:00,ZBAA 051000Z AUTO 16006KT 2 1/2SM 33/19 A2956 RMK T03300190 IEM_DS3505
ZBAA,2006-06-05 11:00,ZBAA 051100Z AUTO 18006KT 2 1/2SM 30/16 A2959 RMK T03000160 IEM_DS3505
ZBAA,2006-06-05 12:00,ZBAA 051200Z AUTO 20004KT 9SM 30/15 A2959 RMK SLP016 T03010146 52010 IEM_DS3505
ZBAA,2006-06-05 13:00,ZBAA 051300Z AUTO 16004KT 2 1/2SM 27/19 A2962 RMK T02700190 IEM_DS3505
ZBAA,2006-06-05 14:00,ZBAA 051400Z AUTO 15002KT 2 1/2SM 24/20 A2962 RMK T02400200 IEM_DS3505
ZBAA,2006-06-05 15:00,ZBAA 051500Z AUTO 22004KT 7SM 26/17 A2962 RMK SLP021 T02650173 52005 IEM_DS3505
ZBAA,2006-06-05 16:00,ZBAA 051600Z AUTO 10004KT 1 1/4SM 25/21 A2962 RMK T02500210 IEM_DS3505
ZBAA,2006-06-05 17:00,ZBAA 051700Z AUTO 16002KT 1SM 24/22 A2962 RMK T02400220 IEM_DS3505
ZBAA,2006-06-05 18:00,ZBAA 051800Z AUTO 20006KT 7SM 25/16 A2959 RMK SLP019 T02470164 57002 IEM_DS3505
ZBAA,2006-06-05 19:00,ZBAA 051900Z AUTO 14004KT 1 1/4SM 24/20 A2962 RMK T02400200 IEM_DS3505
ZBAA,2006-06-05 20:00,ZBAA 052000Z AUTO 19002KT 1 1/4SM 22/19 A2959 RMK T02200190 IEM_DS3505
ZBAA,2006-06-05 21:00,ZBAA 052100Z AUTO 22002KT 6SM 22/15 A2962 RMK SLP024 T02230152 52005 IEM_DS3505
ZBAA,2006-06-05 22:00,ZBAA 052200Z AUTO 09004KT 1 1/4SM 22/19 A2962 RMK T02200190 IEM_DS3505
ZBAA,2006-06-05 23:00,ZBAA 052300Z AUTO 13004KT 1 1/4SM 23/19 A2962 RMK T02300190 IEM_DS3505
ZBAA,2006-06-06 00:00,ZBAA 060000Z AUTO 20004KT 5SM 24/15 A2965 RMK SLP031 T02450146 52007 IEM_DS3505
ZBAA,2006-06-06 01:00,ZBAA 060100Z AUTO 15006KT 2SM 26/18 A2962 RMK T02600180 IEM_DS3505
ZBAA,2006-06-06 02:00,ZBAA 060200Z AUTO 16008KT 2 1/2SM 28/18 A2962 RMK T02800180 IEM_DS3505
ZBAA,2006-06-06 03:00,ZBAA 060300Z AUTO 20006KT 6SM 27/15 A2962 RMK SLP026 T02730153 57005 IEM_DS3505
ZBAA,2006-06-06 04:00,ZBAA 060400Z AUTO 15010KT 2 1/2SM 29/18 A2959 RMK T02900180 IEM_DS3505
ZBAA,2006-06-06 05:00,ZBAA 060500Z AUTO 19008KT 2 1/2SM 31/19 A2959 RMK T03100190 IEM_DS3505
ZBAA,2006-06-06 06:00,ZBAA 060600Z AUTO 22010G23KT 6SM 30/16 A2956 RMK SLP001 T03020155 57025 IEM_DS3505
ZBAA,2006-06-06 07:00,ZBAA 060700Z AUTO 20012KT 3SM 31/16 A2953 RMK T03100160 IEM_DS3505
ZBAA,2006-06-06 08:00,ZBAA 060800Z AUTO 18012KT 4SM 32/14 A2950 RMK T03200140 IEM_DS3505
ZBAA,2006-06-06 09:00,ZBAA 060900Z AUTO 22010KT 9SM 31/12 A2950 RMK SLP984 T03140118 57017 IEM_DS3505
ZBAA,2006-06-06 10:00,ZBAA 061000Z AUTO 18012KT 4SM 31/14 A2947 RMK T03100140 IEM_DS3505
ZBAA,2006-06-06 11:00,ZBAA 061100Z AUTO 20008KT 4SM 30/15 A2950 RMK T03000150 IEM_DS3505
ZBAA,2006-06-06 12:00,ZBAA 061200Z AUTO 22002KT 9SM 30/12 A2953 RMK SLP992 T02960116 52008 IEM_DS3505
ZBAA,2006-06-06 13:00,ZBAA 061300Z AUTO 30010KT 5SM 28/17 A2953 RMK T02800170 IEM_DS3505
ZBAA,2006-06-06 14:00,ZBAA 061400Z AUTO 29006KT 5SM 26/18 A2956 RMK T02600180 IEM_DS3505
ZBAA,2006-06-06 15:00,ZBAA 061500Z AUTO 36004KT 9SM 25/17 A2956 RMK SLP002 T02500172 52010 IEM_DS3505
ZBAA,2006-06-06 16:00,ZBAA 061600Z AUTO 35008KT 3SM 22/21 A2956 RMK T02200210 IEM_DS3505
ZBAA,2006-06-06 17:00,ZBAA 061700Z AUTO 02002KT 2 1/2SM 22/21 A2956 RMK T02200210 IEM_DS3505
ZBAA,2006-06-06 18:00,ZBAA 061800Z AUTO 14002KT 9SM 22/19 A2956 RMK 60004 SLP997 T02200194 57005 IEM_DS3505
ZBAA,2006-06-06 19:00,ZBAA 061900Z AUTO 04004KT 2 1/2SM 22/21 A2953 RMK T02200210 IEM_DS3505
ZBAA,2006-06-06 20:00,ZBAA 062000Z AUTO 03004KT 2 1/2SM 21/21 A2953 RMK T02100210 IEM_DS3505
ZBAA,2006-06-06 21:00,ZBAA 062100Z AUTO 36002KT 7SM 22/19 A2953 RMK 70006 SLP996 T02190187 57001 IEM_DS3505
ZBAA,2006-06-06 22:00,ZBAA 062200Z AUTO 02002KT 1 1/4SM 21/21 A2956 RMK T02100210 IEM_DS3505
ZBAA,2006-06-06 23:00,ZBAA 062300Z AUTO 00000KT 2SM 22/21 A2956 RMK T02200210 IEM_DS3505
ZBAA,2006-06-07 00:00,ZBAA 070000Z AUTO 22004KT 5SM 25/18 A2956 RMK 60000 70006 SLP007 T02470182 52011 IEM_DS3505
ZBAA,2006-06-07 01:00,ZBAA 070100Z AUTO 26008KT 4SM 26/17 A2956 RMK T02600170 IEM_DS3505
ZBAA,2006-06-07 02:00,ZBAA 070200Z AUTO 27014G23KT 6SM 29/10 A2956 RMK T02900100 IEM_DS3505
ZBAA,2006-06-07 03:00,ZBAA 070300Z AUTO 34008KT 19SM 29/03 A2956 RMK SLP001 T02900031 57006 IEM_DS3505
ZBAA,2006-06-07 04:00,ZBAA 070400Z AUTO 27017G27KT 6SM 30/06 A2956 RMK T03000060 IEM_DS3505
ZBAA,2006-06-07 05:00,ZBAA 070500Z AUTO 29019G29KT 7SM 30/06 A2953 RMK T03000060 IEM_DS3505
ZBAA,2006-06-07 06:00,ZBAA 070600Z AUTO 32012KT 19SM 29/02 A2953 RMK SLP987 T02920025 57014 IEM_DS3505
ZBAA,2006-06-07 07:00,ZBAA 070700Z AUTO 28017KT 6SM 29/08 A2950 RMK T02900080 IEM_DS3505
ZBAA,2006-06-07 08:00,ZBAA 070800Z AUTO 30017KT 6SM 30/07 A2950 RMK T03000070 IEM_DS3505
ZBAA,2006-06-07 09:00,ZBAA 070900Z AUTO 32012G25KT 19SM 29/01 A2953 RMK SLP993 T02900007 52006 IEM_DS3505
ZBAA,2006-06-07 10:00,ZBAA 071000Z AUTO 34014KT 6SM 28/06 A2953 RMK T02800060 IEM_DS3505
ZBAA,2006-06-07 11:00,ZBAA 071100Z AUTO 35012KT 6SM 27/06 A2956 RMK T02700060 IEM_DS3505
ZBAA,2006-06-07 12:00,ZBAA 071200Z AUTO 34004KT 19SM 26/01 A2956 RMK SLP007 T02610014 52014 IEM_DS3505
ZBAA,2006-06-07 13:00,ZBAA 071300Z AUTO 01004KT 6SM 24/07 A2959 RMK T02400070 IEM_DS3505
ZBAA,2006-06-07 14:00,ZBAA 071400Z AUTO 02002KT 6SM 23/07 A2959 RMK T02300070 IEM_DS3505
ZBAA,2006-06-07 15:00,ZBAA 071500Z AUTO 14002KT 19SM 21/06 A2956 RMK SLP009 T02140065 52002 IEM_DS3505
ZBAA,2006-06-07 16:00,ZBAA 071600Z AUTO 20004KT 6SM 21/07 A2956 RMK T02100070 IEM_DS3505
ZBAA,2006-06-07 17:00,ZBAA 071700Z AUTO 25004KT 6SM 22/07 A2953 RMK T02200070 IEM_DS3505
ZBAA,2006-06-07 18:00,ZBAA 071800Z AUTO 25008KT 16SM 21/06 A2953 RMK SLP996 T02080056 57013 IEM_DS3505
ZBAA,2006-06-07 19:00,ZBAA 071900Z AUTO 01002KT 6SM 19/10 A2953 RMK T01900100 IEM_DS3505
ZBAA,2006-06-07 20:00,ZBAA 072000Z AUTO 21002KT 6SM 19/09 A2953 RMK T01900090 IEM_DS3505
ZBAA,2006-06-07 21:00,ZBAA 072100Z AUTO 29002KT 12SM 21/06 A2953 RMK SLP989 T02130056 57007 IEM_DS3505
ZBAA,2006-06-07 22:00,ZBAA 072200Z AUTO 36004KT 6SM 17/11 A2950 RMK T01700110 IEM_DS3505
ZBAA,2006-06-07 23:00,ZBAA 072300Z AUTO 34006KT 6SM 20/11 A2950 RMK T02000110 IEM_DS3505
ZBAA,2006-06-08 00:00,ZBAA 080000Z AUTO 32010KT 12SM 26/ A2950 RMK SLP987 57002 IEM_DS3505
ZBAA,2006-06-08 01:00,ZBAA 080100Z AUTO 27010KT 6SM 26/04 A2950 RMK T02600040 IEM_DS3505
ZBAA,2006-06-08 02:00,ZBAA 080200Z AUTO 26012KT 6SM 28/02 A2947 RMK T02800020 IEM_DS3505
ZBAA,2006-06-08 03:00,ZBAA 080300Z AUTO 29014G25KT 19SM 29/M01 A2944 RMK SLP967 T02931009 57020 IEM_DS3505
ZBAA,2006-06-08 04:00,ZBAA 080400Z AUTO 29017G27KT 6SM 30/02 A2941 RMK T03000020 IEM_DS3505
ZBAA,2006-06-08 05:00,ZBAA 080500Z AUTO 31014G23KT 6SM 30/03 A2938 RMK T03000030 IEM_DS3505
ZBAA,2006-06-08 06:00,ZBAA 080600Z AUTO 27014G25KT 19SM 32/M01 A2935 RMK SLP938 T03161012 57029 IEM_DS3505
ZBAA,2006-06-08 07:00,ZBAA 080700Z AUTO 29017KT 6SM 32/01 A2932 RMK T03200010 IEM_DS3505
ZBAA,2006-06-08 08:00,ZBAA 080800Z AUTO 31016KT 6SM 31/00 A2929 RMK T03100000 IEM_DS3505
ZBAA,2006-06-08 09:00,ZBAA 080900Z AUTO 29012G19KT 19SM 32/M03 A2926 RMK SLP911 T03201034 57027 IEM_DS3505
ZBAA,2006-06-08 10:00,ZBAA 081000Z AUTO 29012KT 6SM 31/01 A2926 RMK T03100010 IEM_DS3505
ZBAA,2006-06-08 11:00,ZBAA 081100Z AUTO 29008KT 6SM 30/01 A2926 RMK T03000010 IEM_DS3505
ZBAA,2006-06-08 12:00,ZBAA 081200Z AUTO 29004KT 19SM 29/M03 A2929 RMK SLP911 T02911032 54000 IEM_DS3505
ZBAA,2006-06-08 13:00,ZBAA 081300Z AUTO 01004KT 6SM 27/04 A2926 RMK T02700040 IEM_DS3505
ZBAA,2006-06-08 14:00,ZBAA 081400Z AUTO 22006KT 6SM 26/05 A2926 RMK T02600050 IEM_DS3505
ZBAA,2006-06-08 15:00,ZBAA 081500Z AUTO 29010KT 19SM 28/M02 RMK SLP910 T02851016 54000 IEM_DS3505
ZBAA,2006-06-08 16:00,ZBAA 081600Z AUTO 35008KT 5SM 25/05 A2926 RMK T02500050 IEM_DS3505
ZBAA,2006-06-08 17:00,ZBAA 081700Z AUTO 36004KT 5SM 25/06 A2926 RMK T02500060 IEM_DS3505
ZBAA,2006-06-08 18:00,ZBAA 081800Z AUTO 32006KT 9SM 27/01 A2923 RMK SLP896 T02700007 57014 IEM_DS3505
ZBAA,2006-06-08 19:00,ZBAA 081900Z AUTO 26004KT 5SM 23/07 A2923 RMK T02300070 IEM_DS3505
ZBAA,2006-06-08 20:00,ZBAA 082000Z AUTO 24006KT 5SM 23/08 A2923 RMK T02300080 IEM_DS3505
ZBAA,2006-06-08 21:00,ZBAA 082100Z AUTO 32010KT 7SM 25/01 A2923 RMK SLP897 T02540008 52001 IEM_DS3505
ZBAA,2006-06-08 22:00,ZBAA 082200Z AUTO 35016KT 6SM 22/06 A2926 RMK T02200060 IEM_DS3505
ZBAA,2006-06-08 23:00,ZBAA 082300Z AUTO 33014KT 6SM 23/07 A2926 RMK T02300070 IEM_DS3505
ZBAA,2006-06-09 00:00,ZBAA 090000Z AUTO 02010KT 7SM 24/05 A2926 RMK SLP910 T02370046 52012 IEM_DS3505
ZBAA,2006-06-09 01:00,ZBAA 090100Z AUTO 33016KT 6SM 25/07 A2929 RMK T02500070 IEM_DS3505
ZBAA,2006-06-09 02:00,ZBAA 090200Z AUTO 32014KT 6SM 26/07 A2929 RMK T02600070 IEM_DS3505
ZBAA,2006-06-09 03:00,ZBAA 090300Z AUTO 34008KT 16SM 26/05 A2926 RMK SLP914 T02580049 52004 IEM_DS3505
ZBAA,2006-06-09 04:00,ZBAA 090400Z AUTO 33017G27KT 7SM 27/07 A2926 RMK T02700070 IEM_DS3505
ZBAA,2006-06-09 05:00,ZBAA 090500Z AUTO 31017G27KT 7SM 24/08 A2926 RMK T02400080 IEM_DS3505
ZBAA,2006-06-09 06:00,ZBAA 090600Z AUTO 29010KT 19SM 25/08 A2926 RMK 60000 SLP911 T02490080 57003 IEM_DS3505
ZBAA,2006-06-09 07:00,ZBAA 090700Z AUTO 30017KT 7SM 27/09 A2926 RMK T02700090 IEM_DS3505
ZBAA,2006-06-09 08:00,ZBAA 090800Z AUTO 28017G27KT 7SM 26/10 A2926 RMK T02600100 IEM_DS3505
ZBAA,2006-06-09 09:00,ZBAA 090900Z AUTO 32014KT 19SM 25/06 A2929 RMK SLP914 T02500057 52003 IEM_DS3505
ZBAA,2006-06-09 10:00,ZBAA 091000Z AUTO 02012KT 7SM 26/08 A2929 RMK T02600080 IEM_DS3505
ZBAA,2006-06-09 11:00,ZBAA 091100Z AUTO 03008KT 7SM 21/12 A2935 RMK T02100120 IEM_DS3505
ZBAA,2006-06-09 12:00,ZBAA 091200Z AUTO 04004KT 19SM 22/07 A2938 RMK 60000 SLP943 T02180069 52029 IEM_DS3505
ZBAA,2006-06-09 13:00,ZBAA 091300Z AUTO 04008KT 6SM 21/11 A2941 RMK T02100110 IEM_DS3505
ZBAA,2006-06-09 14:00,ZBAA 091400Z AUTO 01008KT 6SM 20/11 A2944 RMK T02000110 IEM_DS3505
ZBAA,2006-06-09 15:00,ZBAA 091500Z AUTO 02006KT 19SM 21/08 A2947 RMK SLP967 T02070084 52024 IEM_DS3505
ZBAA,2006-06-09 16:00,ZBAA 091600Z AUTO 01010KT 6SM 20/11 A2947 RMK T02000110 IEM_DS3505
ZBAA,2006-06-09 17:00,ZBAA 091700Z AUTO 34004KT 6SM 17/11 A2944 RMK T01700110 IEM_DS3505
ZBAA,2006-06-09 18:00,ZBAA 091800Z AUTO 02002KT 19SM 19/09 A2944 RMK SLP966 T01880087 57001 IEM_DS3505
ZBAA,2006-06-09 19:00,ZBAA 091900Z AUTO 34006KT 6SM 16/11 A2944 RMK T01600110 IEM_DS3505
ZBAA,2006-06-09 20:00,ZBAA 092000Z AUTO 34006KT 6SM 15/11 A2944 RMK T01500110 IEM_DS3505
ZBAA,2006-06-09 21:00,ZBAA 092100Z AUTO 07002KT 19SM 17/09 A2947 RMK 70000 SLP974 T01680092 52007 IEM_DS3505
ZBAA,2006-06-09 22:00,ZBAA 092200Z AUTO 36004KT 6SM 19/11 A2947 RMK T01900110 IEM_DS3505
ZBAA,2006-06-09 23:00,ZBAA 092300Z AUTO 36004KT 6SM 20/11 A2950 RMK T02000110 IEM_DS3505
ZBAA,2006-06-10 00:00,ZBAA 100000Z AUTO 02008KT 19SM 24/06 A2950 RMK 70000 SLP986 T02360064 52013 IEM_DS3505
ZBAA,2006-06-10 01:00,ZBAA 100100Z AUTO 36006KT 6SM 24/11 A2953 RMK T02400110 IEM_DS3505
ZBAA,2006-06-10 02:00,ZBAA 100200Z AUTO 34006KT 6SM 25/10 A2950 RMK T02500100 IEM_DS3505
ZBAA,2006-06-10 03:00,ZBAA 100300Z AUTO 04010KT 19SM 26/07 A2950 RMK SLP989 T02630069 52003 IEM_DS3505
ZBAA,2006-06-10 04:00,ZBAA 100400Z AUTO 02012KT 6SM 27/09 A2950 RMK T02700090 IEM_DS3505
ZBAA,2006-06-10 05:00,ZBAA 100500Z AUTO 01010KT 6SM 27/09 A2950 RMK T02700090 IEM_DS3505
ZBAA,2006-06-10 06:00,ZBAA 100600Z AUTO 04006KT 19SM 28/07 A2947 RMK 60000 SLP975 T02800067 57014 IEM_DS3505
ZBAA,2006-06-10 07:00,ZBAA 100700Z AUTO 03006KT 6SM 26/12 A2947 RMK T02600120 IEM_DS3505
ZBAA,2006-06-10 08:00,ZBAA 100800Z AUTO 06008KT 6SM 28/10 A2944 RMK T02800100 IEM_DS3505
ZBAA,2006-06-10 09:00,ZBAA 100900Z AUTO 25006KT 19SM 29/07 A2944 RMK SLP968 T02860072 57007 IEM_DS3505
ZBAA,2006-06-10 10:00,ZBAA 101000Z AUTO 01016G25KT 7SM 27/12 A2950 RMK T02700120 IEM_DS3505
ZBAA,2006-06-10 11:00,ZBAA 101100Z AUTO 04006KT 6SM 25/15 A2950 RMK T02500150 IEM_DS3505
ZBAA,2006-06-10 12:00,ZBAA 101200Z AUTO 20002KT 19SM 24/11 A2950 RMK 60000 SLP984 T02440107 52016 IEM_DS3505
ZBAA,2006-06-10 13:00,ZBAA 101300Z AUTO 28006KT 6SM 24/15 A2953 RMK T02400150 IEM_DS3505
ZBAA,2006-06-10 14:00,ZBAA 101400Z AUTO 34006KT 6SM 21/16 A2953 RMK T02100160 IEM_DS3505
ZBAA,2006-06-10 15:00,ZBAA 101500Z AUTO 36002KT 19SM 22/13 A2956 RMK SLP000 T02160127 52016 IEM_DS3505
ZBAA,2006-06-10 16:00,ZBAA 101600Z AUTO 28004KT 6SM 21/16 A2956 RMK T02100160 IEM_DS3505
ZBAA,2006-06-10 17:00,ZBAA 101700Z AUTO 33006KT 6SM 19/16 A2956 RMK T01900160 IEM_DS3505
ZBAA,2006-06-10 18:00,ZBAA 101800Z AUTO 07002KT 19SM 19/14 A2956 RMK SLP000 T01940136 54000 IEM_DS3505
ZBAA,2006-06-10 19:00,ZBAA 101900Z AUTO 35004KT 6SM 17/14 A2956 RMK T01700140 IEM_DS3505
ZBAA,2006-06-10 20:00,ZBAA 102000Z AUTO 34004KT 6SM 17/14 A2956 RMK T01700140 IEM_DS3505
ZBAA,2006-06-10 21:00,ZBAA 102100Z AUTO 04002KT 12SM 19/14 A2956 RMK 70000 SLP002 T01890140 52002 IEM_DS3505
ZBAA,2006-06-10 22:00,ZBAA 102200Z AUTO 35006KT 6SM 18/15 A2956 RMK T01800150 IEM_DS3505
ZBAA,2006-06-10 23:00,ZBAA 102300Z AUTO 04004KT 6SM 20/15 A2959 RMK T02000150 IEM_DS3505
ZBAA,2006-06-11 00:00,ZBAA 110000Z AUTO 09006KT 11SM 23/14 A2959 RMK 70000 SLP008 T02320139 52006 IEM_DS3505
ZBAA,2006-06-11 01:00,ZBAA 110100Z AUTO 07006KT 6SM 24/16 A2959 RMK T02400160 IEM_DS3505
ZBAA,2006-06-11 02:00,ZBAA 110200Z AUTO 08006KT 5SM 26/16 A2956 RMK T02600160 IEM_DS3505
ZBAA,2006-06-11 03:00,ZBAA 110300Z AUTO 36004KT 9SM 28/11 A2956 RMK SLP004 T02840110 57004 IEM_DS3505
ZBAA,2006-06-11 04:00,ZBAA 110400Z AUTO 12004KT 4SM 29/14 A2956 RMK T02900140 IEM_DS3505
ZBAA,2006-06-11 05:00,ZBAA 110500Z AUTO 5SM 31/15 A2956 RMK T03100150 IEM_DS3505
ZBAA,2006-06-11 06:00,ZBAA 110600Z AUTO 16004KT 9SM 32/11 A2953 RMK SLP991 T03200107 57013 IEM_DS3505
ZBAA,2006-06-11 07:00,ZBAA 110700Z AUTO 5SM 32/14 A2950 RMK T03200140 IEM_DS3505
ZBAA,2006-06-11 08:00,ZBAA 110800Z AUTO 18012KT 6SM 33/11 A2947 RMK T03300110 IEM_DS3505
ZBAA,2006-06-11 09:00,ZBAA 110900Z AUTO 22006KT 12SM 33/10 A2947 RMK SLP973 T03290097 57018 IEM_DS3505
ZBAA,2006-06-11 10:00,ZBAA 111000Z AUTO 23006KT 6SM 32/12 A2947 RMK T03200120 IEM_DS3505
ZBAA,2006-06-11 11:00,ZBAA 111100Z AUTO 32004KT 6SM 30/15 A2950 RMK T03000150 IEM_DS3505
ZBAA,2006-06-11 12:00,ZBAA 111200Z AUTO 22004KT 9SM 30/10 A2950 RMK SLP984 T02950101 52011 IEM_DS3505
ZBAA,2006-06-11 13:00,ZBAA 111300Z AUTO 19008KT 5SM 28/13 A2956 RMK T02800130 IEM_DS3505
ZBAA,2006-06-11 14:00,ZBAA 111400Z AUTO 21012KT 7SM 29/12 A2959 RMK T02900120 IEM_DS3505
ZBAA,2006-06-11 15:00,ZBAA 111500Z AUTO 27006KT 7SM 27/09 A2959 RMK SLP012 T02700094 52028 IEM_DS3505
ZBAA,2006-06-11 16:00,ZBAA 111600Z AUTO 20004KT 6SM 26/12 A2959 RMK T02600120 IEM_DS3505
ZBAA,2006-06-11 17:00,ZBAA 111700Z AUTO 12006KT 6SM 25/13 A2959 RMK T02500130 IEM_DS3505
ZBAA,2006-06-11 18:00,ZBAA 111800Z AUTO 09002KT 9SM 22/13 A2959 RMK SLP011 T02240129 57001 IEM_DS3505
ZBAA,2006-06-11 19:00,ZBAA 111900Z AUTO 14004KT 6SM 22/16 A2956 RMK T02200160 IEM_DS3505
ZBAA,2006-06-11 20:00,ZBAA 112000Z AUTO 08004KT 5SM 22/16 A2956 RMK T02200160 IEM_DS3505
ZBAA,2006-06-11 21:00,ZBAA 112100Z AUTO 04002KT 9SM 21/15 A2959 RMK 70000 SLP011 T02120148 54000 IEM_DS3505
ZBAA,2006-06-11 22:00,ZBAA 112200Z AUTO 14002KT 4SM 23/15 A2959 RMK T02300150 IEM_DS3505
ZBAA,2006-06-11 23:00,ZBAA 112300Z AUTO 35002KT 4SM 23/16 A2962 RMK T02300160 IEM_DS3505
ZBAA,2006-06-12 00:00,ZBAA 120000Z AUTO 04004KT 7SM 23/15 A2962 RMK 70000 SLP023 T02310152 52012 IEM_DS3505
ZBAA,2006-06-12 01:00,ZBAA 120100Z AUTO 01004KT 4SM 24/16 A2962 RMK T02400160 IEM_DS3505
ZBAA,2006-06-12 02:00,ZBAA 120200Z AUTO 13004KT 4SM 24/16 A2959 RMK T02400160 IEM_DS3505
ZBAA,2006-06-12 03:00,ZBAA 120300Z AUTO 02002KT 7SM 25/16 A2965 RMK SLP025 T02510157 52002 IEM_DS3505
ZBAA,2006-06-12 04:00,ZBAA 120400Z AUTO 06004KT 4SM 27/16 A2962 RMK T02700160 IEM_DS3505
ZBAA,2006-06-12 05:00,ZBAA 120500Z AUTO 09004KT 4SM 28/16 A2962 RMK T02800160 IEM_DS3505
ZBAA,2006-06-12 06:00,ZBAA 120600Z AUTO 09008KT 9SM 28/15 A2959 RMK SLP013 T02830149 57012 IEM_DS3505
ZBAA,2006-06-12 07:00,ZBAA 120700Z AUTO 10008KT 4SM 30/17 A2956 RMK T03000170 IEM_DS3505
ZBAA,2006-06-12 08:00,ZBAA 120800Z AUTO 11008KT 4SM 30/16 A2956 RMK T03000160 IEM_DS3505
ZBAA,2006-06-12 09:00,ZBAA 120900Z AUTO 09004KT 9SM 30/15 A2956 RMK SLP997 T02950152 57016 IEM_DS3505
ZBAA,2006-06-12 10:00,ZBAA 121000Z AUTO 02004KT 4SM 29/17 A2959 RMK T02900170 IEM_DS3505
ZBAA,2006-06-12 11:00,ZBAA 121100Z AUTO 31014KT 4SM 28/17 A2962 RMK T02800170 IEM_DS3505
ZBAA,2006-06-12 12:00,ZBAA 121200Z AUTO 27008KT 9SM 23/19 A2965 RMK 60004 SLP045 T02330186 52047 IEM_DS3505
ZBAA,2006-06-12 13:00,ZBAA 121300Z AUTO 18012KT 7SM 23/20 A2974 RMK T02300200 IEM_DS3505
ZBAA,2006-06-12 14:00,ZBAA 121400Z AUTO 34004KT 4SM 22/20 A2974 RMK T02200200 IEM_DS3505
ZBAA,2006-06-12 15:00,ZBAA 121500Z AUTO 32008KT 9SM 23/18 A2971 RMK SLP060 T02280183 52015 IEM_DS3505
ZBAA,2006-06-12 16:00,ZBAA 121600Z AUTO 30014KT 4SM 22/20 A2974 RMK T02200200 IEM_DS3505
ZBAA,2006-06-12 17:00,ZBAA 121700Z AUTO 34004KT 4SM 21/19 A2974 RMK T02100190 IEM_DS3505
ZBAA,2006-06-12 18:00,ZBAA 121800Z AUTO 02004KT 12SM 22/16 A2977 RMK 60012 SLP067 T02240155 52008 IEM_DS3505
ZBAA,2006-06-12 19:00,ZBAA 121900Z AUTO 32008KT 5SM 21/19 A2977 RMK T02100190 IEM_DS3505
ZBAA,2006-06-12 20:00,ZBAA 122000Z AUTO 34012KT 6SM 20/18 A2977 RMK T02000180 IEM_DS3505
ZBAA,2006-06-12 21:00,ZBAA 122100Z AUTO 02006KT 12SM 21/16 A2977 RMK 70017 SLP072 T02080158 52005 IEM_DS3505
ZBAA,2006-06-12 22:00,ZBAA 122200Z AUTO 01016KT 6SM 20/15 A2980 RMK T02000150 IEM_DS3505
ZBAA,2006-06-12 23:00,ZBAA 122300Z AUTO 01016KT 6SM 20/13 A2980 RMK T02000130 IEM_DS3505
ZBAA,2006-06-13 00:00,ZBAA 130000Z AUTO 04010KT 16SM 21/11 A2980 RMK 70017 SLP089 T02080109 52016 IEM_DS3505
ZBAA,2006-06-13 01:00,ZBAA 130100Z AUTO 35016KT 6SM 21/13 A2983 RMK T02100130 IEM_DS3505
ZBAA,2006-06-13 02:00,ZBAA 130200Z AUTO 34016KT 7SM 22/12 A2983 RMK T02200120 IEM_DS3505
ZBAA,2006-06-13 03:00,ZBAA 130300Z AUTO 36006KT 19SM 20/13 A2983 RMK SLP089 T02050127 54000 IEM_DS3505
ZBAA,2006-06-13 04:00,ZBAA 130400Z AUTO 34012KT 7SM 23/12 A2980 RMK T02300120 IEM_DS3505
ZBAA,2006-06-13 05:00,ZBAA 130500Z AUTO 36012KT 7SM 22/12 A2980 RMK T02200120 IEM_DS3505
ZBAA,2006-06-13 06:00,ZBAA 130600Z AUTO 04006KT 19SM 22/09 A2980 RMK 60002 SLP083 T02170093 57006 IEM_DS3505
ZBAA,2006-06-13 07:00,ZBAA 130700Z AUTO 01014KT 6SM 21/12 A2980 RMK T02100120 IEM_DS3505
ZBAA,2006-06-13 08:00,ZBAA 130800Z AUTO 03010KT 7SM 19/15 A2980 RMK T01900150 IEM_DS3505
ZBAA,2006-06-13 09:00,ZBAA 130900Z AUTO 36004KT 19SM 19/14 A2980 RMK SLP085 T01870140 52002 IEM_DS3505
ZBAA,2006-06-13 10:00,ZBAA 131000Z AUTO 02008KT 7SM 19/16 A2980 RMK T01900160 IEM_DS3505
ZBAA,2006-06-13 11:00,ZBAA 131100Z AUTO 02008KT 7SM 19/16 A2980 RMK T01900160 IEM_DS3505
ZBAA,2006-06-13 12:00,ZBAA 131200Z AUTO 04004KT 16SM 18/15 A2980 RMK 60004 SLP084 T01800153 57001 IEM_DS3505
ZBAA,2006-06-13 13:00,ZBAA 131300Z AUTO 03002KT 6SM 18/16 A2980 RMK T01800160 IEM_DS3505
ZBAA,2006-06-13 14:00,ZBAA 131400Z AUTO 02004KT 6SM 18/16 A2980 RMK T01800160 IEM_DS3505
ZBAA,2006-06-13 15:00,ZBAA 131500Z AUTO 09002KT 16SM 18/16 A2980 RMK SLP089 T01750157 52005 IEM_DS3505
ZBAA,2006-06-13 16:00,ZBAA 131600Z AUTO 6SM 18/16 A2980 RMK T01800160 IEM_DS3505
ZBAA,2006-06-13 17:00,ZBAA 131700Z AUTO 33004KT 6SM 16/15 A2980 RMK T01600150 IEM_DS3505
ZBAA,2006-06-13 18:00,ZBAA 131800Z AUTO 32002KT 7SM 17/15 A2977 RMK SLP077 T01680152 57012 IEM_DS3505
ZBAA,2006-06-13 19:00,ZBAA 131900Z AUTO 33008KT 6SM 16/15 A2977 RMK T01600150 IEM_DS3505
ZBAA,2006-06-13 20:00,ZBAA 132000Z AUTO 35006KT 6SM 15/14 A2974 RMK T01500140 IEM_DS3505
ZBAA,2006-06-13 21:00,ZBAA 132100Z AUTO 02002KT 12SM 15/14 A2974 RMK 70007 SLP059 T01480135 57018 IEM_DS3505
ZBAA,2006-06-13 22:00,ZBAA 132200Z AUTO 34006KT 6SM 16/15 A2971 RMK T01600150 IEM_DS3505
ZBAA,2006-06-13 23:00,ZBAA 132300Z AUTO 33008KT 6SM 18/15 A2971 RMK T01800150 IEM_DS3505
ZBAA,2006-06-14 00:00,ZBAA 140000Z AUTO 32004KT 12SM 20/13 A2971 RMK 70007 SLP054 T02010133 57005 IEM_DS3505
ZBAA,2006-06-14 01:00,ZBAA 140100Z AUTO 6SM 21/15 A2968 RMK T02100150 IEM_DS3505
ZBAA,2006-06-14 02:00,ZBAA 140200Z AUTO 07004KT 6SM 23/15 A2965 RMK T02300150 IEM_DS3505
ZBAA,2006-06-14 03:00,ZBAA 140300Z AUTO 25004KT 12SM 26/12 A2965 RMK SLP032 T02550120 57022 IEM_DS3505
ZBAA,2006-06-14 04:00,ZBAA 140400Z AUTO 16004KT 6SM 27/15 A2962 RMK T02700150 IEM_DS3505
ZBAA,2006-06-14 05:00,ZBAA 140500Z AUTO 12004KT 7SM 28/15 A2959 RMK T02800150 IEM_DS3505
ZBAA,2006-06-14 06:00,ZBAA 140600Z AUTO 27004KT 12SM 30/09 A2956 RMK SLP999 T02960092 57032 IEM_DS3505
ZBAA,2006-06-14 07:00,ZBAA 140700Z AUTO 08008KT 7SM 30/13 A2953 RMK T03000130 IEM_DS3505
ZBAA,2006-06-14 08:00,ZBAA 140800Z AUTO 26006KT 7SM 32/09 A2950 RMK T03200090 IEM_DS3505
ZBAA,2006-06-14 09:00,ZBAA 140900Z AUTO 25008KT 12SM 30/09 A2950 RMK SLP982 T03050088 57017 IEM_DS3505
ZBAA,2006-06-14 10:00,ZBAA 141000Z AUTO 08008KT 6SM 26/13 A2950 RMK T02600130 IEM_DS3505
ZBAA,2006-06-14 11:00,ZBAA 141100Z AUTO 11008KT 6SM 24/14 A2953 RMK T02400140 IEM_DS3505
ZBAA,2006-06-14 12:00,ZBAA 141200Z AUTO 07004KT 19SM 23/12 A2953 RMK SLP994 T02280118 52011 IEM_DS3505
ZBAA,2006-06-14 13:00,ZBAA 141300Z AUTO 14002KT 6SM 21/14 A2956 RMK T02100140 IEM_DS3505
ZBAA,2006-06-14 14:00,ZBAA 141400Z AUTO 15002KT 6SM 21/14 A2956 RMK T02100140 IEM_DS3505
ZBAA,2006-06-14 15:00,ZBAA 141500Z AUTO 29004KT 16SM 22/11 A2956 RMK SLP002 T02160113 52009 IEM_DS3505
ZBAA,2006-06-14 16:00,ZBAA 141600Z AUTO 02002KT 6SM 19/16 A2956 RMK T01900160 IEM_DS3505
ZBAA,2006-06-14 17:00,ZBAA 141700Z AUTO 17004KT 6SM 18/15 A2953 RMK T01800150 IEM_DS3505
ZBAA,2006-06-14 18:00,ZBAA 141800Z AUTO 25004KT 16SM 20/12 A2953 RMK SLP992 T01990119 57010 IEM_DS3505
ZBAA,2006-06-14 19:00,ZBAA 141900Z AUTO 06006KT 6SM 18/16 A2953 RMK T01800160 IEM_DS3505
ZBAA,2006-06-14 20:00,ZBAA 142000Z AUTO 06004KT 6SM 17/15 A2950 RMK T01700150 IEM_DS3505
ZBAA,2006-06-14 21:00,ZBAA 142100Z AUTO 09004KT 9SM 17/12 A2953 RMK SLP987 T01730122 57005 IEM_DS3505
ZBAA,2006-06-14 22:00,ZBAA 142200Z AUTO 05004KT 4SM 17/15 A2953 RMK T01700150 IEM_DS3505
ZBAA,2006-06-14 23:00,ZBAA 142300Z AUTO 05004KT 2 1/2SM 18/16 A2953 RMK T01800160 IEM_DS3505
ZBAA,2006-06-15 00:00,ZBAA 150000Z AUTO 07006KT 9SM 21/14 A2953 RMK SLP989 T02100144 52001 IEM_DS3505
ZBAA,2006-06-15 01:00,ZBAA 150100Z AUTO 2 1/2SM 23/17 A2950 RMK T02300170 IEM_DS3505
ZBAA,2006-06-15 02:00,ZBAA 150200Z AUTO 5SM 25/16 A2950 RMK T02500160 IEM_DS3505
ZBAA,2006-06-15 03:00,ZBAA 150300Z AUTO 09006KT 7SM 26/14 A2950 RMK SLP980 T02630138 57008 IEM_DS3505
ZBAA,2006-06-15 04:00,ZBAA 150400Z AUTO 11006KT 6SM 29/15 A2947 RMK T02900150 IEM_DS3505
ZBAA,2006-06-15 05:00,ZBAA 150500Z AUTO 06008KT 6SM 31/11 A2944 RMK T03100110 IEM_DS3505
ZBAA,2006-06-15 06:00,ZBAA 150600Z AUTO 14006KT 7SM 32/07 A2944 RMK SLP961 T03160073 57019 IEM_DS3505
ZBAA,2006-06-15 07:00,ZBAA 150700Z AUTO 12006KT 6SM 33/07 A2941 RMK T03300070 IEM_DS3505
ZBAA,2006-06-15 08:00,ZBAA 150800Z AUTO 11008KT 6SM 33/06 A2941 RMK T03300060 IEM_DS3505
ZBAA,2006-06-15 09:00,ZBAA 150900Z AUTO 09006KT 19SM 33/03 A2938 RMK SLP946 T03290029 57015 IEM_DS3505
ZBAA,2006-06-15 10:00,ZBAA 151000Z AUTO 11008KT 6SM 33/07 A2941 RMK T03300070 IEM_DS3505
ZBAA,2006-06-15 11:00,ZBAA 151100Z AUTO 09008KT 6SM 31/09 A2941 RMK T03100090 IEM_DS3505
ZBAA,2006-06-15 12:00,ZBAA 151200Z AUTO 09004KT 19SM 29/05 A2941 RMK SLP956 T02880050 52010 IEM_DS3505
ZBAA,2006-06-15 13:00,ZBAA 151300Z AUTO 17004KT 6SM 27/10 A2944 RMK T02700100 IEM_DS3505
ZBAA,2006-06-15 14:00,ZBAA 151400Z AUTO 16002KT 6SM 27/11 A2947 RMK T02700110 IEM_DS3505
ZBAA,2006-06-15 15:00,ZBAA 151500Z AUTO 36006KT 9SM 27/08 A2950 RMK SLP977 T02670077 52021 IEM_DS3505
ZBAA,2006-06-15 16:00,ZBAA 151600Z AUTO 10008KT 6SM 25/16 A2950 RMK T02500160 IEM_DS3505
ZBAA,2006-06-15 17:00,ZBAA 151700Z AUTO 12010KT 2 1/2SM 23/18 A2947 RMK T02300180 IEM_DS3505
ZBAA,2006-06-15 18:00,ZBAA 151800Z AUTO 02006KT 7SM 22/18 A2947 RMK SLP976 T02210177 57001 IEM_DS3505
ZBAA,2006-06-15 19:00,ZBAA 151900Z AUTO 32002KT 3SM 21/17 A2950 RMK T02100170 IEM_DS3505
ZBAA,2006-06-15 20:00,ZBAA 152000Z AUTO 00000KT 3SM 20/16 A2947 RMK T02000160 IEM_DS3505
ZBAA,2006-06-15 21:00,ZBAA 152100Z AUTO 02004KT 7SM 21/13 A2950 RMK SLP979 T02100127 52003 IEM_DS3505
ZBAA,2006-06-15 22:00,ZBAA 152200Z AUTO 28008KT 2 1/2SM 22/17 A2950 RMK T02200170 IEM_DS3505
ZBAA,2006-06-15 23:00,ZBAA 152300Z AUTO 29006KT 2 1/2SM 23/17 A2950 RMK T02300170 IEM_DS3505
ZBAA,2006-06-16 00:00,ZBAA 160000Z AUTO 02004KT 7SM 24/14 A2950 RMK SLP989 T02440145 52010 IEM_DS3505
ZBAA,2006-06-16 01:00,ZBAA 160100Z AUTO 34004KT 4SM 27/15 A2953 RMK T02700150 IEM_DS3505
ZBAA,2006-06-16 02:00,ZBAA 160200Z AUTO 32016KT 6SM 30/12 A2950 RMK T03000120 IEM_DS3505
ZBAA,2006-06-16 03:00,ZBAA 160300Z AUTO 36006G29KT 19SM 31/09 A2947 RMK SLP972 T03100087 57017 IEM_DS3505
ZBAA,2006-06-16 04:00,ZBAA 160400Z AUTO 34016G29KT 6SM 32/10 A2947 RMK T03200100 IEM_DS3505
ZBAA,2006-06-16 05:00,ZBAA 160500Z AUTO 03014KT 6SM 30/11 A2947 RMK T03000110 IEM_DS3505
ZBAA,2006-06-16 06:00,ZBAA 160600Z AUTO 07012KT 19SM 32/07 A2947 RMK SLP973 T03250074 52001 IEM_DS3505
ZBAA,2006-06-16 07:00,ZBAA 160700Z AUTO 04012KT 6SM 34/09 A2947 RMK T03400090 IEM_DS3505
ZBAA,2006-06-16 07:03,ZBAA 160703Z AUTO 04012KT 6SM 34/09 A2947 RMK T03400090 IEM_DS3505
ZBAA,2006-06-16 07:30,ZBAA 160730Z AUTO 03010KT 6SM 34/10 A2947 RMK T03400100 IEM_DS3505
ZBAA,2006-06-16 08:00,ZBAA 160800Z AUTO 01008KT 6SM 33/08 A2947 RMK T03300080 IEM_DS3505
ZBAA,2006-06-16 09:00,ZBAA 160900Z AUTO 09008KT 19SM 34/05 A2947 RMK SLP978 T03370053 52005 IEM_DS3505
ZBAA,2006-06-16 10:00,ZBAA 161000Z AUTO 05010KT 6SM 33/07 A2950 RMK T03300070 IEM_DS3505
ZBAA,2006-06-16 11:00,ZBAA 161100Z AUTO 08008KT 6SM 31/06 A2953 RMK T03100060 IEM_DS3505
ZBAA,2006-06-16 12:00,ZBAA 161200Z AUTO 07006KT 19SM 30/05 A2956 RMK SLP001 T02950049 52023 IEM_DS3505
ZBAA,2006-06-16 13:00,ZBAA 161300Z AUTO 05006KT 6SM 28/07 A2959 RMK T02800070 IEM_DS3505
ZBAA,2006-06-16 14:00,ZBAA 161400Z AUTO 03006KT 6SM 27/07 A2962 RMK T02700070 IEM_DS3505
ZBAA,2006-06-16 15:00,ZBAA 161500Z AUTO 04004KT 19SM 27/03 A2965 RMK SLP031 T02670032 52030 IEM_DS3505
ZBAA,2006-06-16 16:00,ZBAA 161600Z AUTO 03004KT 6SM 25/07 A2968 RMK T02500070 IEM_DS3505
ZBAA,2006-06-16 17:00,ZBAA 161700Z AUTO 27006KT 6SM 23/07 A2968 RMK T02300070 IEM_DS3505
ZBAA,2006-06-16 18:00,ZBAA 161800Z AUTO 36002KT 16SM 23/05 A2968 RMK SLP049 T02270052 52018 IEM_DS3505
ZBAA,2006-06-16 19:00,ZBAA 161900Z AUTO 14002KT 6SM 20/11 A2971 RMK T02000110 IEM_DS3505
ZBAA,2006-06-16 20:00,ZBAA 162000Z AUTO 34004KT 6SM 18/10 A2971 RMK T01800100 IEM_DS3505
ZBAA,2006-06-16 21:00,ZBAA 162100Z AUTO 04002KT 6SM 19/13 A2971 RMK SLP058 T01940131 52009 IEM_DS3505
ZBAA,2006-06-16 22:00,ZBAA 162200Z AUTO 04002KT 6SM 20/13 A2974 RMK T02000130 IEM_DS3505
ZBAA,2006-06-16 23:00,ZBAA 162300Z AUTO 02002KT 5SM 22/14 A2974 RMK T02200140 IEM_DS3505
ZBAA,2006-06-17 00:00,ZBAA 170000Z AUTO 29002KT 9SM 27/08 A2974 RMK SLP064 T02680083 52006 IEM_DS3505
ZBAA,2006-06-17 01:00,ZBAA 170100Z AUTO 4SM 27/12 A2974 RMK T02700120 IEM_DS3505
ZBAA,2006-06-17 02:00,ZBAA 170200Z AUTO 6SM 29/10 A2974 RMK T02900100 IEM_DS3505
ZBAA,2006-06-17 03:00,ZBAA 170300Z AUTO 27006KT 19SM 32/04 A2971 RMK SLP056 T03170037 57008 IEM_DS3505
ZBAA,2006-06-17 04:00,ZBAA 170400Z AUTO 33006KT 6SM 34/07 A2968 RMK T03400070 IEM_DS3505
ZBAA,2006-06-17 05:00,ZBAA 170500Z AUTO 32006KT 6SM 34/06 A2968 RMK T03400060 IEM_DS3505
ZBAA,2006-06-17 06:00,ZBAA 170600Z AUTO 36010KT 19SM 34/01 A2968 RMK SLP041 T03440009 57015 IEM_DS3505
ZBAA,2006-06-17 07:00,ZBAA 170700Z AUTO 04006KT 6SM 35/08 A2965 RMK T03500080 IEM_DS3505
ZBAA,2006-06-17 08:00,ZBAA 170800Z AUTO 36006KT 6SM 35/07 A2965 RMK T03500070 IEM_DS3505
ZBAA,2006-06-17 09:00,ZBAA 170900Z AUTO 22002KT 19SM 35/05 A2965 RMK SLP030 T03480053 57011 IEM_DS3505
ZBAA,2006-06-17 10:00,ZBAA 171000Z AUTO 20006KT 6SM 35/07 A2965 RMK T03500070 IEM_DS3505
ZBAA,2006-06-17 11:00,ZBAA 171100Z AUTO 02004KT 6SM 34/07 A2965 RMK T03400070 IEM_DS3505
ZBAA,2006-06-17 12:00,ZBAA 171200Z AUTO 20002KT 19SM 31/06 A2968 RMK SLP046 T03080060 52016 IEM_DS3505
ZBAA,2006-06-17 13:00,ZBAA 171300Z AUTO 22006KT 6SM 30/10 A2971 RMK T03000100 IEM_DS3505
ZBAA,2006-06-17 14:00,ZBAA 171400Z AUTO 23006KT 6SM 30/10 A2971 RMK T03000100 IEM_DS3505
ZBAA,2006-06-17 15:00,ZBAA 171500Z AUTO 22006KT 12SM 27/08 A2971 RMK SLP057 T02730077 52011 IEM_DS3505
ZBAA,2006-06-17 16:00,ZBAA 171600Z AUTO 30004KT 6SM 27/10 A2971 RMK T02700100 IEM_DS3505
ZBAA,2006-06-17 17:00,ZBAA 171700Z AUTO 35004KT 6SM 24/09 A2971 RMK T02400090 IEM_DS3505
ZBAA,2006-06-17 18:00,ZBAA 171800Z AUTO 22004KT 9SM 25/09 A2971 RMK SLP058 T02470086 52001 IEM_DS3505
ZBAA,2006-06-17 19:00,ZBAA 171900Z AUTO 35004KT 6SM 20/11 A2974 RMK T02000110 IEM_DS3505
ZBAA,2006-06-17 20:00,ZBAA 172000Z AUTO 34006KT 6SM 19/12 A2974 RMK T01900120 IEM_DS3505
ZBAA,2006-06-17 21:00,ZBAA 172100Z AUTO 29004KT 9SM 24/10 A2974 RMK SLP064 T02360096 52006 IEM_DS3505
ZBAA,2006-06-17 22:00,ZBAA 172200Z AUTO 35004KT 6SM 21/12 A2974 RMK T02100120 IEM_DS3505
ZBAA,2006-06-17 23:00,ZBAA 172300Z AUTO 33006KT 6SM 23/12 A2977 RMK T02300120 IEM_DS3505
ZBAA,2006-06-18 00:00,ZBAA 180000Z AUTO 04004KT 12SM 28/08 A2977 RMK SLP074 T02750084 52010 IEM_DS3505
ZBAA,2006-06-18 01:00,ZBAA 180100Z AUTO 35004KT 6SM 29/11 A2977 RMK T02900110 IEM_DS3505
ZBAA,2006-06-18 02:00,ZBAA 180200Z AUTO 36004KT 6SM 30/11 A2977 RMK T03000110 IEM_DS3505
ZBAA,2006-06-18 03:00,ZBAA 180300Z AUTO 18002KT 16SM 32/07 A2974 RMK SLP067 T03250067 57007 IEM_DS3505
ZBAA,2006-06-18 04:00,ZBAA 180400Z AUTO 6SM 34/09 A2974 RMK T03400090 IEM_DS3505
ZBAA,2006-06-18 05:00,ZBAA 180500Z AUTO 09004KT 6SM 34/11 A2971 RMK T03400110 IEM_DS3505
ZBAA,2006-06-18 06:00,ZBAA 180600Z AUTO 22010KT 16SM 37/07 A2968 RMK SLP043 T03710071 57024 IEM_DS3505
ZBAA,2006-06-18 07:00,ZBAA 180700Z AUTO 11006KT 6SM 37/13 A2965 RMK T03700130 IEM_DS3505
ZBAA,2006-06-18 08:00,ZBAA 180800Z AUTO 09004KT 6SM 36/13 A2965 RMK T03600130 IEM_DS3505
ZBAA,2006-06-18 09:00,ZBAA 180900Z AUTO 20010KT 16SM 36/07 A2965 RMK SLP031 T03600071 57012 IEM_DS3505
ZBAA,2006-06-18 10:00,ZBAA 181000Z AUTO 17008KT 5SM 35/12 A2965 RMK T03500120 IEM_DS3505
ZBAA,2006-06-18 11:00,ZBAA 181100Z AUTO 15006KT 6SM 34/13 A2965 RMK T03400130 IEM_DS3505
ZBAA,2006-06-18 12:00,ZBAA 181200Z AUTO 18006KT 12SM 33/08 A2965 RMK SLP037 T03270082 52006 IEM_DS3505
ZBAA,2006-06-18 13:00,ZBAA 181300Z AUTO 16006KT 6SM 31/12 A2968 RMK T03100120 IEM_DS3505
ZBAA,2006-06-18 14:00,ZBAA 181400Z AUTO 15006KT 6SM 30/12 A2968 RMK T03000120 IEM_DS3505
ZBAA,2006-06-18 15:00,ZBAA 181500Z AUTO 20006KT 12SM 30/09 A2968 RMK SLP045 T03050088 52008 IEM_DS3505
ZBAA,2006-06-18 16:00,ZBAA 181600Z AUTO 18008KT 6SM 29/12 A2968 RMK T02900120 IEM_DS3505
ZBAA,2006-06-18 17:00,ZBAA 181700Z AUTO 15006KT 6SM 29/12 A2968 RMK T02900120 IEM_DS3505
ZBAA,2006-06-18 18:00,ZBAA 181800Z AUTO 20004KT 12SM 28/09 A2968 RMK SLP044 T02810089 54000 IEM_DS3505
ZBAA,2006-06-18 19:00,ZBAA 181900Z AUTO 14008KT 6SM 29/12 A2968 RMK T02900120 IEM_DS3505
ZBAA,2006-06-18 20:00,ZBAA 182000Z AUTO 28002KT 6SM 27/13 A2971 RMK T02700130 IEM_DS3505
ZBAA,2006-06-18 21:00,ZBAA 182100Z AUTO 02004KT 12SM 27/11 A2971 RMK SLP053 T02740110 52008 IEM_DS3505
ZBAA,2006-06-18 22:00,ZBAA 182200Z AUTO 06006KT 5SM 26/15 A2971 RMK T02600150 IEM_DS3505
ZBAA,2006-06-18 23:00,ZBAA 182300Z AUTO 12004KT 5SM 27/15 A2974 RMK T02700150 IEM_DS3505
ZBAA,2006-06-19 00:00,ZBAA 190000Z AUTO 27002KT 9SM 29/14 A2974 RMK SLP065 T02880135 52012 IEM_DS3505
ZBAA,2006-06-19 01:00,ZBAA 190100Z AUTO 31004KT 4SM 29/15 A2977 RMK T02900150 IEM_DS3505
ZBAA,2006-06-19 02:00,ZBAA 190200Z AUTO 36006KT 4SM 31/15 A2974 RMK T03100150 IEM_DS3505
ZBAA,2006-06-19 03:00,ZBAA 190300Z AUTO 34004KT 9SM 32/09 A2977 RMK SLP069 T03210090 52004 IEM_DS3505
ZBAA,2006-06-19 04:00,ZBAA 190400Z AUTO 01008KT 5SM 31/15 A2974 RMK T03100150 IEM_DS3505
ZBAA,2006-06-19 05:00,ZBAA 190500Z AUTO 36010KT 6SM 32/14 A2974 RMK T03200140 IEM_DS3505
ZBAA,2006-06-19 06:00,ZBAA 190600Z AUTO 02008KT 9SM 33/08 A2974 RMK SLP061 T03340081 57008 IEM_DS3505
ZBAA,2006-06-19 07:00,ZBAA 190700Z AUTO 33016KT 7SM 34/12 A2974 RMK T03400120 IEM_DS3505
ZBAA,2006-06-19 08:00,ZBAA 190800Z AUTO 01008KT 7SM 31/12 A2974 RMK T03100120 IEM_DS3505
ZBAA,2006-06-19 09:00,ZBAA 190900Z AUTO 02004KT 12SM 31/09 A2974 RMK SLP059 T03120089 57002 IEM_DS3505
ZBAA,2006-06-19 10:00,ZBAA 191000Z AUTO 35004KT 6SM 31/13 A2974 RMK T03100130 IEM_DS3505
ZBAA,2006-06-19 11:00,ZBAA 191100Z AUTO 28004KT 6SM 31/12 A2977 RMK T03100120 IEM_DS3505
ZBAA,2006-06-19 12:00,ZBAA 191200Z AUTO 02002KT 9SM 30/10 A2977 RMK SLP072 T02950096 52013 IEM_DS3505
ZBAA,2006-06-19 13:00,ZBAA 191300Z AUTO 28006KT 6SM 30/12 A2977 RMK T03000120 IEM_DS3505
ZBAA,2006-06-19 14:00,ZBAA 191400Z AUTO 26008KT 6SM 30/12 A2977 RMK T03000120 IEM_DS3505
ZBAA,2006-06-19 15:00,ZBAA 191500Z AUTO 20004KT 7SM 29/10 A2977 RMK SLP073 T02910103 52001 IEM_DS3505
ZBAA,2006-06-19 16:00,ZBAA 191600Z AUTO 05004KT 6SM 28/12 A2977 RMK T02800120 IEM_DS3505
ZBAA,2006-06-19 17:00,ZBAA 191700Z AUTO 24006KT 6SM 27/13 A2977 RMK T02700130 IEM_DS3505
ZBAA,2006-06-19 18:00,ZBAA 191800Z AUTO 22006KT 7SM 27/12 A2977 RMK SLP077 T02680121 52004 IEM_DS3505
ZBAA,2006-06-19 19:00,ZBAA 191900Z AUTO 09004KT 6SM 26/16 A2980 RMK T02600160 IEM_DS3505
ZBAA,2006-06-19 20:00,ZBAA 192000Z AUTO 09002KT 6SM 25/16 A2980 RMK T02500160 IEM_DS3505
ZBAA,2006-06-19 21:00,ZBAA 192100Z AUTO 22004KT 7SM 25/14 A2980 RMK 70000 SLP085 T02470139 52008 IEM_DS3505
ZBAA,2006-06-19 22:00,ZBAA 192200Z AUTO 27008KT 5SM 26/17 A2980 RMK T02600170 IEM_DS3505
ZBAA,2006-06-19 23:00,ZBAA 192300Z AUTO 10004KT 5SM 25/17 A2983 RMK T02500170 IEM_DS3505
ZBAA,2006-06-20 00:00,ZBAA 200000Z AUTO 09004KT 6SM 25/15 A2983 RMK 60000 70000 SLP091 T02520149 52006 IEM_DS3505
ZBAA,2006-06-20 01:00,ZBAA 200100Z AUTO 02004KT 5SM 25/17 A2983 RMK T02500170 IEM_DS3505
ZBAA,2006-06-20 02:00,ZBAA 200200Z AUTO 36004KT 5SM 27/15 A2983 RMK T02700150 IEM_DS3505
ZBAA,2006-06-20 03:00,ZBAA 200300Z AUTO 27002KT 6SM 27/15 A2983 RMK SLP097 T02700151 52006 IEM_DS3505
ZBAA,2006-06-20 04:00,ZBAA 200400Z AUTO 20006KT 7SM 28/16 A2983 RMK T02800160 IEM_DS3505
ZBAA,2006-06-20 05:00,ZBAA 200500Z AUTO 28006KT 7SM 29/16 A2980 RMK T02900160 IEM_DS3505
ZBAA,2006-06-20 06:00,ZBAA 200600Z AUTO 22006KT 6SM 29/16 A2980 RMK 60000 SLP083 T02870156 57014 IEM_DS3505
ZBAA,2006-06-20 07:00,ZBAA 200700Z AUTO 22006KT 6SM 31/13 A2980 RMK T03100130 IEM_DS3505
ZBAA,2006-06-20 08:00,ZBAA 200800Z AUTO 24006KT 6SM 31/12 A2977 RMK T03100120 IEM_DS3505
ZBAA,2006-06-20 09:00,ZBAA 200900Z AUTO 22004KT 7SM 28/17 A2977 RMK SLP078 T02750168 57005 IEM_DS3505
ZBAA,2006-06-20 10:00,ZBAA 201000Z AUTO 20006KT 6SM 31/12 A2977 RMK T03100120 IEM_DS3505
ZBAA,2006-06-20 11:00,ZBAA 201100Z AUTO 19006KT 6SM 29/12 A2977 RMK T02900120 IEM_DS3505
ZBAA,2006-06-20 12:00,ZBAA 201200Z AUTO 22004KT 5SM 26/17 A2977 RMK 60000 SLP080 T02570174 52002 IEM_DS3505
ZBAA,2006-06-20 13:00,ZBAA 201300Z AUTO 19006KT 6SM 27/17 A2980 RMK T02700170 IEM_DS3505
ZBAA,2006-06-20 14:00,ZBAA 201400Z AUTO 22006KT 6SM 26/18 A2980 RMK T02600180 IEM_DS3505
ZBAA,2006-06-20 15:00,ZBAA 201500Z AUTO 22002KT 4SM 22/17 A2980 RMK SLP087 T02220169 52006 IEM_DS3505
ZBAA,2006-06-20 16:00,ZBAA 201600Z AUTO 05002KT 6SM 23/18 A2980 RMK T02300180 IEM_DS3505
ZBAA,2006-06-20 17:00,ZBAA 201700Z AUTO 09004KT 4SM 23/19 A2980 RMK T02300190 IEM_DS3505
ZBAA,2006-06-20 18:00,ZBAA 201800Z AUTO 25002KT 4SM 21/16 A2977 RMK SLP079 T02090165 57007 IEM_DS3505
ZBAA,2006-06-20 19:00,ZBAA 201900Z AUTO 10002KT 1SM 21/19 A2977 RMK T02100190 IEM_DS3505
ZBAA,2006-06-20 20:00,ZBAA 202000Z AUTO 04004KT 1SM 21/19 A2980 RMK T02100190 IEM_DS3505
ZBAA,2006-06-20 21:00,ZBAA 202100Z AUTO 22002KT 3SM 20/16 A2980 RMK 70000 SLP081 T02020164 52001 IEM_DS3505
ZBAA,2006-06-20 22:00,ZBAA 202200Z AUTO 33004KT 3SM 21/16 A2980 RMK T02100160 IEM_DS3505
ZBAA,2006-06-20 23:00,ZBAA 202300Z AUTO 35006KT 5SM 23/15 A2980 RMK T02300150 IEM_DS3505
ZBAA,2006-06-21 00:00,ZBAA 210000Z AUTO 04002KT 4SM 26/18 A2980 RMK 70000 SLP085 T02600176 52005 IEM_DS3505
ZBAA,2006-06-21 01:00,ZBAA 210100Z AUTO 6SM 27/15 A2980 RMK T02700150 IEM_DS3505
ZBAA,2006-06-21 02:00,ZBAA 210200Z AUTO 10002KT 6SM 30/15 A2977 RMK T03000150 IEM_DS3505
ZBAA,2006-06-21 03:00,ZBAA 210300Z AUTO 16004KT 4SM 32/14 A2977 RMK SLP077 T03150142 57008 IEM_DS3505
ZBAA,2006-06-21 04:00,ZBAA 210400Z AUTO 6SM 34/15 A2977 RMK T03400150 IEM_DS3505
ZBAA,2006-06-21 05:00,ZBAA 210500Z AUTO 21006KT 6SM 34/15 A2974 RMK T03400150 IEM_DS3505
ZBAA,2006-06-21 06:00,ZBAA 210600Z AUTO 22008KT 7SM 34/13 A2971 RMK SLP054 T03410130 57023 IEM_DS3505
ZBAA,2006-06-21 07:00,ZBAA 210700Z AUTO 17006KT 6SM 36/14 A2968 RMK T03600140 IEM_DS3505
ZBAA,2006-06-21 08:00,ZBAA 210800Z AUTO 17008KT 6SM 35/16 A2968 RMK T03500160 IEM_DS3505
ZBAA,2006-06-21 09:00,ZBAA 210900Z AUTO 22006KT 12SM 34/10 A2968 RMK SLP046 T03380104 57008 IEM_DS3505
ZBAA,2006-06-21 10:00,ZBAA 211000Z AUTO 19006KT 6SM 34/15 A2968 RMK T03400150 IEM_DS3505
ZBAA,2006-06-21 11:00,ZBAA 211100Z AUTO 19008KT 6SM 32/15 A2968 RMK T03200150 IEM_DS3505
ZBAA,2006-06-21 12:00,ZBAA 211200Z AUTO 25006KT 12SM 31/14 A2971 RMK SLP050 T03060143 52004 IEM_DS3505
ZBAA,2006-06-21 13:00,ZBAA 211300Z AUTO 15004KT 5SM 30/16 A2971 RMK T03000160 IEM_DS3505
ZBAA,2006-06-21 14:00,ZBAA 211400Z AUTO 15006KT 5SM 28/17 A2971 RMK T02800170 IEM_DS3505
ZBAA,2006-06-21 15:00,ZBAA 211500Z AUTO 20004KT 12SM 27/16 A2971 RMK SLP060 T02680164 52010 IEM_DS3505
ZBAA,2006-06-21 16:00,ZBAA 211600Z AUTO 17008KT 5SM 26/19 A2971 RMK T02600190 IEM_DS3505
ZBAA,2006-06-21 17:00,ZBAA 211700Z AUTO 14004KT 4SM 26/19 A2974 RMK T02600190 IEM_DS3505
ZBAA,2006-06-21 18:00,ZBAA 211800Z AUTO 22004KT 9SM 24/17 A2974 RMK SLP062 T02370170 52002 IEM_DS3505
ZBAA,2006-06-21 19:00,ZBAA 211900Z AUTO 09004KT 3SM 24/19 A2974 RMK T02400190 IEM_DS3505
ZBAA,2006-06-21 20:00,ZBAA 212000Z AUTO 10004KT 3SM 24/19 A2974 RMK T02400190 IEM_DS3505
ZBAA,2006-06-21 21:00,ZBAA 212100Z AUTO 20002KT 5SM 22/17 A2974 RMK SLP061 T02230172 57001 IEM_DS3505
ZBAA,2006-06-21 22:00,ZBAA 212200Z AUTO 08002KT 2 1/2SM 23/19 A2974 RMK T02300190 IEM_DS3505
ZBAA,2006-06-21 22:30,ZBAA 212230Z AUTO 05002KT 2 1/2SM 23/19 A2974 RMK T02300190 IEM_DS3505
ZBAA,2006-06-21 23:00,ZBAA 212300Z AUTO 06002KT 2 1/2SM 24/19 A2974 RMK T02400190 IEM_DS3505
ZBAA,2006-06-22 00:00,ZBAA 220000Z AUTO 04002KT 6SM 27/18 A2974 RMK SLP064 T02680184 52003 IEM_DS3505
ZBAA,2006-06-22 01:00,ZBAA 220100Z AUTO 08004KT 2 1/2SM 27/20 A2974 RMK T02700200 IEM_DS3505
ZBAA,2006-06-22 02:00,ZBAA 220200Z AUTO 10004KT 2 1/2SM 28/20 A2974 RMK T02800200 IEM_DS3505
ZBAA,2006-06-22 03:00,ZBAA 220300Z AUTO 18004KT 5SM 31/16 A2971 RMK SLP057 T03130161 57007 IEM_DS3505
ZBAA,2006-06-22 04:00,ZBAA 220400Z AUTO 17006KT 2 1/2SM 31/19 A2971 RMK T03100190 IEM_DS3505
ZBAA,2006-06-22 05:00,ZBAA 220500Z AUTO 15006KT 2 1/2SM 32/20 A2968 RMK T03200200 IEM_DS3505
ZBAA,2006-06-22 06:00,ZBAA 220600Z AUTO 20010KT 7SM 33/14 A2968 RMK SLP044 T03280144 57013 IEM_DS3505
ZBAA,2006-06-22 07:00,ZBAA 220700Z AUTO 18012G21KT 5SM 34/17 A2965 RMK T03400170 IEM_DS3505
ZBAA,2006-06-22 08:00,ZBAA 220800Z AUTO 18012KT 5SM 34/17 A2965 RMK T03400170 IEM_DS3505
ZBAA,2006-06-22 09:00,ZBAA 220900Z AUTO 20010KT 9SM 32/13 A2965 RMK SLP035 T03240131 57009 IEM_DS3505
ZBAA,2006-06-22 10:00,ZBAA 221000Z AUTO 18012KT 6SM 32/16 A2965 RMK T03200160 IEM_DS3505
ZBAA,2006-06-22 11:00,ZBAA 221100Z AUTO 18012G21KT 6SM 32/17 A2968 RMK T03200170 IEM_DS3505
ZBAA,2006-06-22 12:00,ZBAA 221200Z AUTO 20004KT 7SM 30/16 A2968 RMK SLP046 T02960164 52011 IEM_DS3505
ZBAA,2006-06-22 13:00,ZBAA 221300Z AUTO 02004KT 6SM 29/19 A2971 RMK T02900190 IEM_DS3505
ZBAA,2006-06-22 14:00,ZBAA 221400Z AUTO 09006KT 6SM 28/19 A2974 RMK T02800190 IEM_DS3505
ZBAA,2006-06-22 15:00,ZBAA 221500Z AUTO 07002KT 6SM 26/18 A2974 RMK SLP060 T02580175 52014 IEM_DS3505
ZBAA,2006-06-22 16:00,ZBAA 221600Z AUTO 14006KT 6SM 27/19 A2971 RMK T02700190 IEM_DS3505
ZBAA,2006-06-22 17:00,ZBAA 221700Z AUTO 14006KT 4SM 26/19 A2971 RMK T02600190 IEM_DS3505
ZBAA,2006-06-22 18:00,ZBAA 221800Z AUTO 16004KT 7SM 25/18 A2971 RMK SLP057 T02480175 57003 IEM_DS3505
ZBAA,2006-06-22 19:00,ZBAA 221900Z AUTO 06004KT 2SM 24/19 A2974 RMK T02400190 IEM_DS3505
ZBAA,2006-06-22 20:00,ZBAA 222000Z AUTO 09006KT 1 1/4SM 23/21 A2971 RMK T02300210 IEM_DS3505
ZBAA,2006-06-22 21:00,ZBAA 222100Z AUTO 14002KT 5SM 22/18 A2974 RMK SLP061 T02220176 52004 IEM_DS3505
ZBAA,2006-06-22 22:00,ZBAA 222200Z AUTO 09006KT 1 1/4SM 23/21 A2974 RMK T02300210 IEM_DS3505
ZBAA,2006-06-22 23:00,ZBAA 222300Z AUTO 09004KT 1 1/4SM 24/21 A2974 RMK T02400210 IEM_DS3505
ZBAA,2006-06-23 00:00,ZBAA 230000Z AUTO 07002KT 5SM 26/19 A2977 RMK SLP068 T02580192 52007 IEM_DS3505
ZBAA,2006-06-23 01:00,ZBAA 230100Z AUTO 06004KT 1 1/4SM 26/22 A2974 RMK T02600220 IEM_DS3505
ZBAA,2006-06-23 02:00,ZBAA 230200Z AUTO 09006KT 1 1/2SM 29/22 A2974 RMK T02900220 IEM_DS3505
ZBAA,2006-06-23 03:00,ZBAA 230300Z AUTO 09002KT 6SM 30/20 A2974 RMK SLP062 T02970200 57006 IEM_DS3505
ZBAA,2006-06-23 04:00,ZBAA 230400Z AUTO 2SM 30/23 A2971 RMK T03000230 IEM_DS3505
ZBAA,2006-06-23 05:00,ZBAA 230500Z AUTO 2SM 33/23 A2971 RMK T03300230 IEM_DS3505
ZBAA,2006-06-23 06:00,ZBAA 230600Z AUTO 22008KT 9SM 35/13 A2965 RMK SLP037 T03500126 57025 IEM_DS3505
ZBAA,2006-06-23 07:00,ZBAA 230700Z AUTO 20010KT 4SM 36/15 A2962 RMK T03600150 IEM_DS3505
ZBAA,2006-06-23 08:00,ZBAA 230800Z AUTO 19014KT 5SM 36/14 A2962 RMK T03600140 IEM_DS3505
ZBAA,2006-06-23 09:00,ZBAA 230900Z AUTO 20012KT 12SM 35/12 A2959 RMK SLP015 T03480125 57022 IEM_DS3505
ZBAA,2006-06-23 10:00,ZBAA 231000Z AUTO 17012KT 5SM 35/16 A2959 RMK T03500160 IEM_DS3505
ZBAA,2006-06-23 11:00,ZBAA 231100Z AUTO 18010KT 5SM 34/16 A2962 RMK T03400160 IEM_DS3505
ZBAA,2006-06-23 12:00,ZBAA 231200Z AUTO 20006KT 12SM 32/12 A2962 RMK SLP031 T03220124 52016 IEM_DS3505
ZBAA,2006-06-23 13:00,ZBAA 231300Z AUTO 01012KT 5SM 32/15 A2971 RMK T03200150 IEM_DS3505
ZBAA,2006-06-23 14:00,ZBAA 231400Z AUTO 01012KT 5SM 25/19 A2974 RMK T02500190 IEM_DS3505
ZBAA,2006-06-23 15:00,ZBAA 231500Z AUTO 04006KT 12SM 27/16 A2974 RMK SLP062 T02680158 52031 IEM_DS3505
ZBAA,2006-06-23 16:00,ZBAA 231600Z AUTO 03010KT 6SM 23/19 A2974 RMK T02300190 IEM_DS3505
ZBAA,2006-06-23 17:00,ZBAA 231700Z AUTO 02010KT 6SM 23/19 A2971 RMK T02300190 IEM_DS3505
ZBAA,2006-06-23 18:00,ZBAA 231800Z AUTO 32004KT 12SM 25/16 A2971 RMK SLP054 T02470164 57008 IEM_DS3505
ZBAA,2006-06-23 19:00,ZBAA 231900Z AUTO 01010KT 6SM 23/18 A2971 RMK T02300180 IEM_DS3505
ZBAA,2006-06-23 20:00,ZBAA 232000Z AUTO 36008KT 7SM 24/18 A2974 RMK T02400180 IEM_DS3505
ZBAA,2006-06-23 21:00,ZBAA 232100Z AUTO 04006KT 12SM 25/16 A2977 RMK SLP068 T02480157 52014 IEM_DS3505
ZBAA,2006-06-23 22:00,ZBAA 232200Z AUTO 03006KT 7SM 23/19 A2977 RMK T02300190 IEM_DS3505
ZBAA,2006-06-23 23:00,ZBAA 232300Z AUTO 08006KT 6SM 24/19 A2977 RMK T02400190 IEM_DS3505
ZBAA,2006-06-24 00:00,ZBAA 240000Z AUTO 07006KT 9SM 25/17 A2974 RMK 60000 70000 SLP064 T02510173 57004 IEM_DS3505
ZBAA,2006-06-24 01:00,ZBAA 240100Z AUTO 03006KT 5SM 23/20 A2977 RMK T02300200 IEM_DS3505
ZBAA,2006-06-24 02:00,ZBAA 240200Z AUTO 30008KT 7SM 25/20 A2977 RMK T02500200 IEM_DS3505
ZBAA,2006-06-24 03:00,ZBAA 240300Z AUTO 02004KT 9SM 28/18 A2974 RMK SLP064 T02790180 54000 IEM_DS3505
ZBAA,2006-06-24 04:00,ZBAA 240400Z AUTO 03006KT 6SM 25/20 A2974 RMK T02500200 IEM_DS3505
ZBAA,2006-06-24 05:00,ZBAA 240500Z AUTO 5SM 29/21 A2971 RMK T02900210 IEM_DS3505
ZBAA,2006-06-24 06:00,ZBAA 240600Z AUTO 09006KT 7SM 31/20 A2968 RMK 60000 SLP041 T03100197 57023 IEM_DS3505
ZBAA,2006-06-24 07:00,ZBAA 240700Z AUTO 04006KT 4SM 30/22 A2965 RMK T03000220 IEM_DS3505
ZBAA,2006-06-24 08:00,ZBAA 240800Z AUTO 08006KT 4SM 30/22 A2962 RMK T03000220 IEM_DS3505
ZBAA,2006-06-24 09:00,ZBAA 240900Z AUTO 20006KT 7SM 33/ A2962 RMK SLP014 57027 IEM_DS3505
ZBAA,2006-06-24 10:00,ZBAA 241000Z AUTO 36004KT 3SM 30/22 A2962 RMK T03000220 IEM_DS3505
ZBAA,2006-06-24 11:00,ZBAA 241100Z AUTO 32023KT 5SM 23/17 A2968 RMK T02300170 IEM_DS3505
ZBAA,2006-06-24 12:00,ZBAA 241200Z AUTO 32002G29KT 9SM A2968 RMK 60055 SLP048 52033 IEM_DS3505
ZBAA,2006-06-24 13:00,ZBAA 241300Z AUTO 07012G21KT 7SM 23/18 A2968 RMK T02300180 IEM_DS3505
ZBAA,2006-06-24 14:00,ZBAA 241400Z AUTO 09008KT 6SM 22/19 A2971 RMK T02200190 IEM_DS3505
ZBAA,2006-06-24 15:00,ZBAA 241500Z AUTO 09008KT 12SM 22/18 A2971 RMK SLP055 T02150175 52008 IEM_DS3505
ZBAA,2006-06-24 16:00,ZBAA 241600Z AUTO 36004KT 6SM 21/19 A2971 RMK T02100190 IEM_DS3505
ZBAA,2006-06-24 17:00,ZBAA 241700Z AUTO 35004KT 6SM 20/18 A2971 RMK T02000180 IEM_DS3505
ZBAA,2006-06-24 18:00,ZBAA 241800Z AUTO 04002KT 7SM 21/18 A2971 RMK 60002 SLP047 T02070183 57008 IEM_DS3505
ZBAA,2006-06-24 19:00,ZBAA 241900Z AUTO 35006KT 6SM 19/18 A2968 RMK T01900180 IEM_DS3505
ZBAA,2006-06-24 20:00,ZBAA 242000Z AUTO 35004KT 6SM 19/17 A2968 RMK T01900170 IEM_DS3505
ZBAA,2006-06-24 21:00,ZBAA 242100Z AUTO 02002KT 7SM 20/17 A2968 RMK 70056 SLP043 T02020174 57004 IEM_DS3505
ZBAA,2006-06-24 22:00,ZBAA 242200Z AUTO 34008KT 6SM 19/18 A2968 RMK T01900180 IEM_DS3505
ZBAA,2006-06-24 23:00,ZBAA 242300Z AUTO 02006KT 6SM 20/18 A2968 RMK T02000180 IEM_DS3505
ZBAA,2006-06-25 00:00,ZBAA 250000Z AUTO 04006KT 7SM 22/16 A2968 RMK 60000 70056 SLP046 T02180163 52002 IEM_DS3505
ZBAA,2006-06-25 01:00,ZBAA 250100Z AUTO 02004KT 6SM 24/19 A2968 RMK T02400190 IEM_DS3505
ZBAA,2006-06-25 02:00,ZBAA 250200Z AUTO 13004KT 6SM 26/19 A2968 RMK T02600190 IEM_DS3505
ZBAA,2006-06-25 03:00,ZBAA 250300Z AUTO 09006KT 9SM 24/17 A2968 RMK SLP047 T02440167 52001 IEM_DS3505
ZBAA,2006-06-25 04:00,ZBAA 250400Z AUTO 6SM 27/20 A2968 RMK T02700200 IEM_DS3505
ZBAA,2006-06-25 05:00,ZBAA 250500Z AUTO 12006KT 5SM 28/21 A2965 RMK T02800210 IEM_DS3505
ZBAA,2006-06-25 06:00,ZBAA 250600Z AUTO 20004KT 7SM 28/20 A2962 RMK 60000 SLP027 T02830195 57019 IEM_DS3505
ZBAA,2006-06-25 07:00,ZBAA 250700Z AUTO 15006KT 4SM 29/21 A2962 RMK T02900210 IEM_DS3505
ZBAA,2006-06-25 08:00,ZBAA 250800Z AUTO 10008KT 3SM 29/21 A2962 RMK T02900210 IEM_DS3505
ZBAA,2006-06-25 09:00,ZBAA 250900Z AUTO 07002KT 7SM 28/18 A2962 RMK SLP022 T02790180 57005 IEM_DS3505
ZBAA,2006-06-25 10:00,ZBAA 251000Z AUTO 14006KT 2 1/2SM 27/22 A2962 RMK T02700220 IEM_DS3505
ZBAA,2006-06-25 11:00,ZBAA 251100Z AUTO 10008KT 2 1/2SM 26/22 A2962 RMK T02600220 IEM_DS3505
ZBAA,2006-06-25 12:00,ZBAA 251200Z AUTO 07008KT 5SM 25/21 A2962 RMK 60000 SLP025 T02530210 52003 IEM_DS3505
ZBAA,2006-06-25 13:00,ZBAA 251300Z AUTO 10006KT 2SM 25/23 A2965 RMK T02500230 IEM_DS3505
ZBAA,2006-06-25 14:00,ZBAA 251400Z AUTO 14006KT 1 1/4SM 24/23 A2965 RMK T02400230 IEM_DS3505
ZBAA,2006-06-25 15:00,ZBAA 251500Z AUTO 11004KT 4SM 23/19 A2965 RMK SLP037 T02330192 52012 IEM_DS3505
ZBAA,2006-06-25 16:00,ZBAA 251600Z AUTO 13006KT 1 1/4SM 23/22 A2968 RMK T02300220 IEM_DS3505
ZBAA,2006-06-25 17:00,ZBAA 251700Z AUTO 14006KT 1 1/2SM 23/22 A2968 RMK T02300220 IEM_DS3505
ZBAA,2006-06-25 18:00,ZBAA 251800Z AUTO 04002KT 4SM 22/19 A2968 RMK 60000 SLP043 T02170191 52006 IEM_DS3505
ZBAA,2006-06-25 19:00,ZBAA 251900Z AUTO 17004KT 2 1/2SM 22/21 A2968 RMK T02200210 IEM_DS3505
ZBAA,2006-06-25 20:00,ZBAA 252000Z AUTO 11004KT 2 1/2SM 22/21 A2965 RMK T02200210 IEM_DS3505
ZBAA,2006-06-25 21:00,ZBAA 252100Z AUTO 22002KT 2 1/2SM 21/19 A2965 RMK 70000 SLP036 T02060189 57007 IEM_DS3505
ZBAA,2006-06-25 22:00,ZBAA 252200Z AUTO 16002KT 2SM 21/21 A2965 RMK T02100210 IEM_DS3505
ZBAA,2006-06-25 23:00,ZBAA 252300Z AUTO 2SM 22/21 A2968 RMK T02200210 IEM_DS3505
ZBAA,2006-06-26 00:00,ZBAA 260000Z AUTO 25002KT 2 1/2SM 23/20 A2965 RMK 70000 SLP039 T02340196 52003 IEM_DS3505
ZBAA,2006-06-26 01:00,ZBAA 260100Z AUTO 08004KT 2SM 25/22 A2965 RMK T02500220 IEM_DS3505
ZBAA,2006-06-26 02:00,ZBAA 260200Z AUTO 16004KT 2SM 27/22 A2965 RMK T02700220 IEM_DS3505
ZBAA,2006-06-26 03:00,ZBAA 260300Z AUTO 18004KT 6SM 28/18 A2965 RMK SLP029 T02840185 57010 IEM_DS3505
ZBAA,2006-06-26 04:00,ZBAA 260400Z AUTO 15006KT 2 1/2SM 30/21 A2962 RMK T03000210 IEM_DS3505
ZBAA,2006-06-26 05:00,ZBAA 260500Z AUTO 17006KT 2 1/2SM 31/21 A2959 RMK T03100210 IEM_DS3505
ZBAA,2006-06-26 06:00,ZBAA 260600Z AUTO 22008KT 9SM 32/17 A2956 RMK SLP007 T03210172 57022 IEM_DS3505
ZBAA,2006-06-26 07:00,ZBAA 260700Z AUTO 18010KT 4SM 33/20 A2956 RMK T03300200 IEM_DS3505
ZBAA,2006-06-26 08:00,ZBAA 260800Z AUTO 17004KT 7SM 32/19 A2956 RMK T03200190 IEM_DS3505
ZBAA,2006-06-26 09:00,ZBAA 260900Z AUTO 22002KT 12SM 33/15 A2953 RMK SLP001 T03280153 57006 IEM_DS3505
ZBAA,2006-06-26 10:00,ZBAA 261000Z AUTO 35012KT 2 1/2SM 28/23 A2956 RMK T02800230 IEM_DS3505
ZBAA,2006-06-26 11:00,ZBAA 261100Z AUTO 10004KT 2 1/2SM 27/22 A2953 RMK T02700220 IEM_DS3505
ZBAA,2006-06-26 12:00,ZBAA 261200Z AUTO 02002KT 12SM 29/19 A2956 RMK SLP005 T02880194 52004 IEM_DS3505
ZBAA,2006-06-26 13:00,ZBAA 261300Z AUTO 02006KT 3SM 27/22 A2965 RMK T02700220 IEM_DS3505
ZBAA,2006-06-26 14:00,ZBAA 261400Z AUTO 08006KT 3SM 27/22 A2962 RMK T02700220 IEM_DS3505
ZBAA,2006-06-26 15:00,ZBAA 261500Z AUTO 09004KT 7SM 26/21 A2962 RMK SLP021 T02650208 52016 IEM_DS3505
ZBAA,2006-06-26 16:00,ZBAA 261600Z AUTO 30004KT 2 1/2SM 25/22 A2962 RMK T02500220 IEM_DS3505
ZBAA,2006-06-26 17:00,ZBAA 261700Z AUTO 22004KT 2 1/2SM 24/22 A2959 RMK T02400220 IEM_DS3505
ZBAA,2006-06-26 18:00,ZBAA 261800Z AUTO 04002KT 4SM 25/22 A2959 RMK 60000 SLP014 T02510220 57007 IEM_DS3505
ZBAA,2006-06-26 19:00,ZBAA 261900Z AUTO 36004KT 2 1/2SM 22/21 A2959 RMK T02200210 IEM_DS3505
ZBAA,2006-06-26 20:00,ZBAA 262000Z AUTO 11006KT 3SM 23/21 A2956 RMK T02300210 IEM_DS3505
ZBAA,2006-06-26 21:00,ZBAA 262100Z AUTO 04002KT 5SM 24/20 A2959 RMK 70000 SLP018 T02390202 52004 IEM_DS3505
ZBAA,2006-06-26 22:00,ZBAA 262200Z AUTO 34006KT 3SM 22/21 A2962 RMK T02200210 IEM_DS3505
ZBAA,2006-06-26 23:00,ZBAA 262300Z AUTO 03006KT 4SM 24/21 A2962 RMK T02400210 IEM_DS3505
ZBAA,2006-06-27 00:00,ZBAA 270000Z AUTO 04006KT 6SM 26/19 A2962 RMK 70000 SLP025 T02600194 52007 IEM_DS3505
ZBAA,2006-06-27 01:00,ZBAA 270100Z AUTO 4SM 28/22 A2962 RMK T02800220 IEM_DS3505
ZBAA,2006-06-27 02:00,ZBAA 270200Z AUTO 12002KT 5SM 30/21 A2962 RMK T03000210 IEM_DS3505
ZBAA,2006-06-27 03:00,ZBAA 270300Z AUTO 22004KT 7SM 31/18 A2962 RMK SLP022 T03130180 57003 IEM_DS3505
ZBAA,2006-06-27 04:00,ZBAA 270400Z AUTO 5SM 33/21 A2959 RMK T03300210 IEM_DS3505
ZBAA,2006-06-27 05:00,ZBAA 270500Z AUTO 19006KT 6SM 35/21 A2959 RMK T03500210 IEM_DS3505
ZBAA,2006-06-27 06:00,ZBAA 270600Z AUTO 20004KT 7SM 35/17 A2956 RMK SLP004 T03490167 57018 IEM_DS3505
ZBAA,2006-06-27 07:00,ZBAA 270700Z AUTO 10008KT 6SM 36/19 A2956 RMK T03600190 IEM_DS3505
ZBAA,2006-06-27 08:00,ZBAA 270800Z AUTO 12008KT 6SM 36/19 A2956 RMK T03600190 IEM_DS3505
ZBAA,2006-06-27 09:00,ZBAA 270900Z AUTO 09004KT 7SM 34/19 A2953 RMK SLP997 T03400189 57007 IEM_DS3505
ZBAA,2006-06-27 10:00,ZBAA 271000Z AUTO 11010KT 5SM 35/21 A2956 RMK T03500210 IEM_DS3505
ZBAA,2006-06-27 11:00,ZBAA 271100Z AUTO 09008KT 4SM 33/23 A2956 RMK T03300230 IEM_DS3505
ZBAA,2006-06-27 12:00,ZBAA 271200Z AUTO 11006KT 6SM 32/21 A2959 RMK SLP011 T03190208 52014 IEM_DS3505
ZBAA,2006-06-27 13:00,ZBAA 271300Z AUTO 09008KT 3SM 31/24 A2959 RMK T03100240 IEM_DS3505
ZBAA,2006-06-27 14:00,ZBAA 271400Z AUTO 13012KT 3SM 30/23 A2965 RMK T03000230 IEM_DS3505
ZBAA,2006-06-27 15:00,ZBAA 271500Z AUTO 11008KT 6SM 28/22 A2965 RMK SLP031 T02820215 52020 IEM_DS3505
ZBAA,2006-06-27 16:00,ZBAA 271600Z AUTO 24016KT 2 1/2SM 26/21 A2968 RMK T02600210 IEM_DS3505
ZBAA,2006-06-27 17:00,ZBAA 271700Z AUTO 25008KT 4SM 22/21 A2971 RMK T02200210 IEM_DS3505
ZBAA,2006-06-27 18:00,ZBAA 271800Z AUTO 07004KT 6SM 24/20 A2971 RMK 60004 SLP055 T02370204 52024 IEM_DS3505
ZBAA,2006-06-27 19:00,ZBAA 271900Z AUTO 34004KT 3SM 22/21 A2974 RMK T02200210 IEM_DS3505
ZBAA,2006-06-27 20:00,ZBAA 272000Z AUTO 32006KT 2 1/2SM 22/21 A2971 RMK T02200210 IEM_DS3505
ZBAA,2006-06-27 21:00,ZBAA 272100Z AUTO 02004KT 6SM 23/20 A2974 RMK 70006 SLP061 T02310201 52006 IEM_DS3505
ZBAA,2006-06-27 22:00,ZBAA 272200Z AUTO 07002KT 2 1/2SM 23/22 A2974 RMK T02300220 IEM_DS3505
ZBAA,2006-06-27 23:00,ZBAA 272300Z AUTO 15002KT 2 1/2SM 24/21 A2974 RMK T02400210 IEM_DS3505
ZBAA,2006-06-28 00:00,ZBAA 280000Z AUTO 09006KT 4SM 25/19 A2974 RMK 60000 70006 SLP061 T02490191 54000 IEM_DS3505
ZBAA,2006-06-28 01:00,ZBAA 280100Z AUTO 12008KT 1 1/2SM 26/22 A2974 RMK T02600220 IEM_DS3505
ZBAA,2006-06-28 02:00,ZBAA 280200Z AUTO 11010KT 2SM 28/22 A2974 RMK T02800220 IEM_DS3505
ZBAA,2006-06-28 03:00,ZBAA 280300Z AUTO 09008KT 7SM 29/20 A2971 RMK SLP052 T02870196 57009 IEM_DS3505
ZBAA,2006-06-28 04:00,ZBAA 280400Z AUTO 13010KT 2 1/2SM 29/22 A2968 RMK T02900220 IEM_DS3505
ZBAA,2006-06-28 05:00,ZBAA 280500Z AUTO 12008KT 2 1/2SM 30/22 A2968 RMK T03000220 IEM_DS3505
ZBAA,2006-06-28 06:00,ZBAA 280600Z AUTO 14002KT 9SM 30/18 A2965 RMK SLP037 T03010176 57015 IEM_DS3505
ZBAA,2006-06-28 07:00,ZBAA 280700Z AUTO 12008KT 2SM 29/24 A2965 RMK T02900240 IEM_DS3505
ZBAA,2006-06-28 08:00,ZBAA 280800Z AUTO 18008KT 4SM 28/23 A2965 RMK T02800230 IEM_DS3505
ZBAA,2006-06-28 09:00,ZBAA 280900Z AUTO 16004KT 9SM 27/19 A2962 RMK SLP026 T02740190 57011 IEM_DS3505
ZBAA,2006-06-28 10:00,ZBAA 281000Z AUTO 14006KT 3SM 27/21 A2962 RMK T02700210 IEM_DS3505
ZBAA,2006-06-28 11:00,ZBAA 281100Z AUTO 11008KT 3SM 26/22 A2962 RMK T02600220 IEM_DS3505
ZBAA,2006-06-28 12:00,ZBAA 281200Z AUTO 11008KT 7SM 26/20 A2962 RMK 60000 SLP021 T02550201 57005 IEM_DS3505
ZBAA,2006-06-28 13:00,ZBAA 281300Z AUTO 11014KT 2 1/2SM 25/22 A2962 RMK T02500220 IEM_DS3505
ZBAA,2006-06-28 14:00,ZBAA 281400Z AUTO 12010KT 2 1/2SM 24/22 A2962 RMK T02400220 IEM_DS3505
ZBAA,2006-06-28 15:00,ZBAA 281500Z AUTO 09006KT 6SM 23/21 A2962 RMK SLP026 T02310208 52005 IEM_DS3505
ZBAA,2006-06-28 16:00,ZBAA 281600Z AUTO 01004KT 2SM 23/22 A2962 RMK T02300220 IEM_DS3505
ZBAA,2006-06-28 17:00,ZBAA 281700Z AUTO 01004KT 2SM 22/22 A2959 RMK T02200220 IEM_DS3505
ZBAA,2006-06-28 18:00,ZBAA 281800Z AUTO 07006KT 6SM 23/20 A2959 RMK 60008 SLP010 T02310195 57016 IEM_DS3505
ZBAA,2006-06-28 19:00,ZBAA 281900Z AUTO 06006KT 1SM 22/21 A2959 RMK T02200210 IEM_DS3505
ZBAA,2006-06-28 21:00,ZBAA 282100Z AUTO 09004KT 4SM 22/20 A2959 RMK 70006 SLP008 T02190202 57002 IEM_DS3505
ZBAA,2006-06-28 22:00,ZBAA 282200Z AUTO 11010KT 1/2SM 21/21 A2956 RMK T02100210 IEM_DS3505
ZBAA,2006-06-28 23:00,ZBAA 282300Z AUTO 12008KT 1SM 21/21 A2956 RMK T02100210 IEM_DS3505
ZBAA,2006-06-29 00:00,ZBAA 290000Z AUTO 22002KT 5SM 23/20 A2956 RMK 60000 70006 SLP998 T02260203 57010 IEM_DS3505
ZBAA,2006-06-29 01:00,ZBAA 290100Z AUTO 05006KT 1 1/2SM 21/21 A2956 RMK T02100210 IEM_DS3505
ZBAA,2006-06-29 02:00,ZBAA 290200Z AUTO 07008KT 7SM 22/21 A2956 RMK T02200210 IEM_DS3505
ZBAA,2006-06-29 03:00,ZBAA 290300Z AUTO 07006KT 2 1/2SM 23/20 A2956 RMK SLP999 T02320205 52001 IEM_DS3505
ZBAA,2006-06-29 04:00,ZBAA 290400Z AUTO 12008KT 4SM 25/23 A2953 RMK T02500230 IEM_DS3505
ZBAA,2006-06-29 05:00,ZBAA 290500Z AUTO 12010KT 4SM 25/23 A2953 RMK T02500230 IEM_DS3505
ZBAA,2006-06-29 06:00,ZBAA 290600Z AUTO 11008KT 7SM 25/21 A2953 RMK 60000 SLP991 T02540209 57008 IEM_DS3505
ZBAA,2006-06-29 07:00,ZBAA 290700Z AUTO 14008KT 4SM 26/22 A2950 RMK T02600220 IEM_DS3505
ZBAA,2006-06-29 08:00,ZBAA 290800Z AUTO 14008KT 4SM 27/22 A2950 RMK T02700220 IEM_DS3505
ZBAA,2006-06-29 09:00,ZBAA 290900Z AUTO 11006KT 7SM 25/20 A2950 RMK SLP979 T02530199 57012 IEM_DS3505
ZBAA,2006-06-29 10:00,ZBAA 291000Z AUTO 12008KT 4SM 26/22 A2950 RMK T02600220 IEM_DS3505
ZBAA,2006-06-29 11:00,ZBAA 291100Z AUTO 12008KT 4SM 25/22 A2950 RMK T02500220 IEM_DS3505
ZBAA,2006-06-29 12:00,ZBAA 291200Z AUTO 04004KT 7SM 24/21 A2956 RMK 60001 SLP007 T02420209 52028 IEM_DS3505
ZBAA,2006-06-29 13:00,ZBAA 291300Z AUTO 17004KT 7SM 20/19 A2956 RMK T02000190 IEM_DS3505
ZBAA,2006-06-29 14:00,ZBAA 291400Z AUTO 33002KT 7SM 20/20 A2956 RMK T02000200 IEM_DS3505
ZBAA,2006-06-29 15:00,ZBAA 291500Z AUTO 22004KT 12SM 21/19 A2956 RMK SLP010 T02110190 52002 IEM_DS3505
ZBAA,2006-06-29 16:00,ZBAA 291600Z AUTO 25002KT 5SM 21/20 A2959 RMK T02100200 IEM_DS3505
ZBAA,2006-06-29 17:00,ZBAA 291700Z AUTO 04004KT 4SM 20/20 A2956 RMK T02000200 IEM_DS3505
ZBAA,2006-06-29 18:00,ZBAA 291800Z AUTO 04002KT 4SM 20/18 A2956 RMK 60031 SLP998 T02040185 57011 IEM_DS3505
ZBAA,2006-06-29 19:00,ZBAA 291900Z AUTO 08002KT 2 1/2SM 20/20 A2956 RMK T02000200 IEM_DS3505
ZBAA,2006-06-29 20:00,ZBAA 292000Z AUTO 05004KT 3SM 20/20 A2959 RMK T02000200 IEM_DS3505
ZBAA,2006-06-29 21:00,ZBAA 292100Z AUTO 32002KT 3SM 20/19 A2959 RMK 70033 SLP017 T02040189 52018 IEM_DS3505
ZBAA,2006-06-29 22:00,ZBAA 292200Z AUTO 31004KT 1 1/2SM 20/20 A2959 RMK T02000200 IEM_DS3505
ZBAA,2006-06-29 23:00,ZBAA 292300Z AUTO 30006KT 2 1/2SM 21/21 A2962 RMK T02100210 IEM_DS3505
ZBAA,2006-06-30 00:00,ZBAA 300000Z AUTO 02004KT 6SM 23/18 A2962 RMK 70033 SLP023 T02300183 52007 IEM_DS3505
ZBAA,2006-06-30 01:00,ZBAA 300100Z AUTO 01004KT 6SM 24/21 A2962 RMK T02400210 IEM_DS3505
ZBAA,2006-06-30 02:00,ZBAA 300200Z AUTO 02004KT 6SM 26/20 A2962 RMK T02600200 IEM_DS3505
ZBAA,2006-06-30 03:00,ZBAA 300300Z AUTO 09002KT 7SM 27/20 A2962 RMK SLP021 T02700196 57002 IEM_DS3505
ZBAA,2006-06-30 04:00,ZBAA 300400Z AUTO 11004KT 6SM 28/21 A2962 RMK T02800210 IEM_DS3505
ZBAA,2006-06-30 05:00,ZBAA 300500Z AUTO 6SM 29/21 A2959 RMK T02900210 IEM_DS3505
ZBAA,2006-06-30 06:00,ZBAA 300600Z AUTO 14002KT 9SM 30/19 A2959 RMK SLP013 T02990193 57008 IEM_DS3505
ZBAA,2006-06-30 07:00,ZBAA 300700Z AUTO 08006KT 7SM 30/21 A2959 RMK T03000210 IEM_DS3505
ZBAA,2006-06-30 08:00,ZBAA 300800Z AUTO 13006KT 5SM 30/22 A2959 RMK T03000220 IEM_DS3505
ZBAA,2006-06-30 09:00,ZBAA 300900Z AUTO 16006KT 7SM 29/19 A2959 RMK SLP008 T02910194 57005 IEM_DS3505
ZBAA,2006-06-30 10:00,ZBAA 301000Z AUTO 14010KT 4SM 29/23 A2956 RMK T02900230 IEM_DS3505
ZBAA,2006-06-30 11:00,ZBAA 301100Z AUTO 02014KT 7SM 26/21 A2962 RMK T02600210 IEM_DS3505
ZBAA,2006-06-30 12:00,ZBAA 301200Z AUTO 04010KT 5SM 26/18 A2965 RMK 60000 SLP029 T02610180 52021 IEM_DS3505
ZBAA,2006-06-30 13:00,ZBAA 301300Z AUTO 10008KT 7SM 21/21 A2968 RMK T02100210 IEM_DS3505
ZBAA,2006-06-30 14:00,ZBAA 301400Z AUTO 01004KT 7SM 21/20 A2968 RMK T02100200 IEM_DS3505
ZBAA,2006-06-30 15:00,ZBAA 301500Z AUTO 04006KT 6SM 22/20 A2968 RMK SLP046 T02240199 52017 IEM_DS3505
ZBAA,2006-06-30 16:00,ZBAA 301600Z AUTO 22004KT 7SM 21/21 A2971 RMK T02100210 IEM_DS3505
ZBAA,2006-06-30 17:00,ZBAA 301700Z AUTO 34004KT 7SM 21/21 A2971 RMK T02100210 IEM_DS3505
ZBAA,2006-06-30 18:00,ZBAA 301800Z AUTO 02002KT 9SM 22/20 A2968 RMK 60031 SLP047 T02160199 52001 IEM_DS3505
ZBAA,2006-06-30 19:00,ZBAA 301900Z AUTO 33004KT 4SM 21/21 A2968 RMK T02100210 IEM_DS3505
ZBAA,2006-06-30 20:00,ZBAA 302000Z AUTO 36004KT 4SM 21/21 A2968 RMK T02100210 IEM_DS3505
ZBAA,2006-06-30 21:00,ZBAA 302100Z AUTO 04004KT 5SM 22/20 A2968 RMK 70030 SLP043 T02160197 57004 IEM_DS3505
ZBAA,2006-06-30 22:00,ZBAA 302200Z AUTO 34004KT 2 1/2SM 21/21 A2968 RMK T02100210 IEM_DS3505
ZBAA,2006-06-30 23:00,ZBAA 302300Z AUTO 36006KT 2 1/2SM 22/22 A2968 RMK T02200220 IEM_DS3505
ZBAA,2006-07-01 00:00,ZBAA 010000Z AUTO 04004KT 6SM 23/20 A2971 RMK 70030 SLP048 T02320196 52005 IEM_DS3505
ZBAA,2006-07-01 01:00,ZBAA 010100Z AUTO 01014KT 4SM 22/21 A2971 RMK T02200210 IEM_DS3505
ZBAA,2006-07-01 02:00,ZBAA 010200Z AUTO 36010KT 5SM 22/21 A2971 RMK T02200210 IEM_DS3505
ZBAA,2006-07-01 03:00,ZBAA 010300Z AUTO 02004KT 9SM 23/20 A2971 RMK SLP054 T02300198 52005 IEM_DS3505
ZBAA,2006-07-01 04:00,ZBAA 010400Z AUTO 01010KT 7SM 25/20 A2971 RMK T02500200 IEM_DS3505
ZBAA,2006-07-01 05:00,ZBAA 010500Z AUTO 01008KT 7SM 26/20 A2968 RMK T02600200 IEM_DS3505
ZBAA,2006-07-01 06:00,ZBAA 010600Z AUTO 07004KT 12SM 26/18 A2968 RMK 60016 SLP047 T02580182 57007 IEM_DS3505
ZBAA,2006-07-01 07:00,ZBAA 010700Z AUTO 03004KT 7SM 28/20 A2968 RMK T02800200 IEM_DS3505
ZBAA,2006-07-01 08:00,ZBAA 010800Z AUTO 6SM 29/20 A2965 RMK T02900200 IEM_DS3505
ZBAA,2006-07-01 09:00,ZBAA 010900Z AUTO 22002KT 12SM 28/18 A2965 RMK SLP036 T02810182 57010 IEM_DS3505
ZBAA,2006-07-01 10:00,ZBAA 011000Z AUTO 31004KT 6SM 29/20 A2965 RMK T02900200 IEM_DS3505
ZBAA,2006-07-01 11:00,ZBAA 011100Z AUTO 08002KT 6SM 29/19 A2965 RMK T02900190 IEM_DS3505
ZBAA,2006-07-01 12:00,ZBAA 011200Z AUTO 22004KT 9SM 26/19 A2968 RMK SLP047 T02610193 52011 IEM_DS3505
ZBAA,2006-07-01 13:00,ZBAA 011300Z AUTO 6SM 26/21 A2971 RMK T02600210 IEM_DS3505
ZBAA,2006-07-01 14:00,ZBAA 011400Z AUTO 26004KT 6SM 26/21 A2971 RMK T02600210 IEM_DS3505
ZBAA,2006-07-01 15:00,ZBAA 011500Z AUTO 29002KT 6SM 23/19 A2971 RMK SLP051 T02310191 52003 IEM_DS3505
ZBAA,2006-07-01 16:00,ZBAA 011600Z AUTO 30002KT 4SM 24/21 A2971 RMK T02400210 IEM_DS3505
ZBAA,2006-07-01 17:00,ZBAA 011700Z AUTO 36002KT 4SM 24/22 A2971 RMK T02400220 IEM_DS3505
ZBAA,2006-07-01 18:00,ZBAA 011800Z AUTO 35004KT 4SM 23/22 A2971 RMK T02300220 IEM_DS3505
ZBAA,2006-07-01 19:00,ZBAA 011900Z AUTO 33004KT 5SM 22/21 A2971 RMK T02200210 IEM_DS3505
ZBAA,2006-07-01 20:00,ZBAA 012000Z AUTO 33004KT 5SM 21/21 A2971 RMK T02100210 IEM_DS3505
ZBAA,2006-07-01 21:00,ZBAA 012100Z AUTO 02002KT 5SM 21/20 A2971 RMK 70017 SLP049 T02120195 57003 IEM_DS3505
ZBAA,2006-07-01 22:00,ZBAA 012200Z AUTO 34006KT 6SM 22/21 A2971 RMK T02200210 IEM_DS3505
ZBAA,2006-07-01 23:00,ZBAA 012300Z AUTO 35008KT 6SM 24/20 A2971 RMK T02400200 IEM_DS3505
ZBAA,2006-07-02 00:00,ZBAA 020000Z AUTO 02004KT 12SM 26/18 A2971 RMK 70017 SLP056 T02580182 52007 IEM_DS3505
ZBAA,2006-07-02 01:00,ZBAA 020100Z AUTO 36006KT 6SM 26/20 A2971 RMK T02600200 IEM_DS3505
ZBAA,2006-07-02 02:00,ZBAA 020200Z AUTO 34004KT 6SM 28/22 A2971 RMK T02800220 IEM_DS3505
ZBAA,2006-07-02 03:00,ZBAA 020300Z AUTO 27002KT 19SM 30/18 A2971 RMK SLP050 T02980179 57006 IEM_DS3505
ZBAA,2006-07-02 04:00,ZBAA 020400Z AUTO 12006KT 6SM 30/21 A2968 RMK T03000210 IEM_DS3505
ZBAA,2006-07-02 05:00,ZBAA 020500Z AUTO 20006KT 6SM 32/20 A2965 RMK T03200200 IEM_DS3505
ZBAA,2006-07-02 06:00,ZBAA 020600Z AUTO 20006KT 19SM 32/17 A2965 RMK SLP033 T03180173 57017 IEM_DS3505
ZBAA,2006-07-02 07:00,ZBAA 020700Z AUTO 6SM 32/21 A2965 RMK T03200210 IEM_DS3505
ZBAA,2006-07-02 08:00,ZBAA 020800Z AUTO 22006KT 6SM 32/21 A2965 RMK T03200210 IEM_DS3505
ZBAA,2006-07-02 09:00,ZBAA 020900Z AUTO 25008KT 16SM 30/18 A2965 RMK SLP031 T03050183 57002 IEM_DS3505
ZBAA,2006-07-02 10:00,ZBAA 021000Z AUTO 15004KT 6SM 31/21 A2965 RMK T03100210 IEM_DS3505
ZBAA,2006-07-02 11:00,ZBAA 021100Z AUTO 25006KT 6SM 30/21 A2965 RMK T03000210 IEM_DS3505
ZBAA,2006-07-02 12:00,ZBAA 021200Z AUTO 25006KT 19SM 28/18 A2965 RMK SLP035 T02840185 52004 IEM_DS3505
ZBAA,2006-07-02 13:00,ZBAA 021300Z AUTO 24004KT 6SM 29/21 A2965 RMK T02900210 IEM_DS3505
ZBAA,2006-07-02 14:00,ZBAA 021400Z AUTO 22004KT 6SM 29/21 A2965 RMK T02900210 IEM_DS3505
ZBAA,2006-07-02 15:00,ZBAA 021500Z AUTO 22002KT 16SM 27/18 A2965 RMK SLP035 T02740181 54000 IEM_DS3505
ZBAA,2006-07-02 16:00,ZBAA 021600Z AUTO 15004KT 6SM 27/21 A2965 RMK T02700210 IEM_DS3505
ZBAA,2006-07-02 17:00,ZBAA 021700Z AUTO 09006KT 4SM 27/23 A2965 RMK T02700230 IEM_DS3505
ZBAA,2006-07-02 18:00,ZBAA 021800Z AUTO 20002KT 12SM 26/20 A2965 RMK SLP030 T02590200 57005 IEM_DS3505
ZBAA,2006-07-02 19:00,ZBAA 021900Z AUTO 09006KT 2 1/2SM 25/23 A2965 RMK T02500230 IEM_DS3505
ZBAA,2006-07-02 20:00,ZBAA 022000Z AUTO 10004KT 2 1/2SM 25/22 A2962 RMK T02500220 IEM_DS3505
ZBAA,2006-07-02 21:00,ZBAA 022100Z AUTO 07004KT 9SM 25/21 A2962 RMK SLP026 T02520207 57004 IEM_DS3505
ZBAA,2006-07-02 22:00,ZBAA 022200Z AUTO 11006KT 2SM 24/22 A2965 RMK T02400220 IEM_DS3505
ZBAA,2006-07-02 23:00,ZBAA 022300Z AUTO 11008KT 1 1/4SM 25/22 A2962 RMK T02500220 IEM_DS3505
ZBAA,2006-07-03 00:00,ZBAA 030000Z AUTO 09006KT 7SM 27/20 A2965 RMK SLP028 T02720198 52002 IEM_DS3505
ZBAA,2006-07-03 01:00,ZBAA 030100Z AUTO 12004KT 2 1/2SM 27/22 A2965 RMK T02700220 IEM_DS3505
ZBAA,2006-07-03 02:00,ZBAA 030200Z AUTO 13004KT 3SM 28/20 A2965 RMK T02800200 IEM_DS3505
ZBAA,2006-07-03 03:00,ZBAA 030300Z AUTO 14006KT 9SM 30/16 A2962 RMK SLP025 T03040164 57003 IEM_DS3505
ZBAA,2006-07-03 04:00,ZBAA 030400Z AUTO 11006KT 6SM 30/19 A2962 RMK T03000190 IEM_DS3505
ZBAA,2006-07-03 05:00,ZBAA 030500Z AUTO 17008KT 6SM 31/20 A2959 RMK T03100200 IEM_DS3505
ZBAA,2006-07-03 06:00,ZBAA 030600Z AUTO 09006KT 12SM 32/16 A2959 RMK SLP008 T03170164 57017 IEM_DS3505
ZBAA,2006-07-03 07:00,ZBAA 030700Z AUTO 13008KT 6SM 32/20 A2956 RMK T03200200 IEM_DS3505
ZBAA,2006-07-03 08:00,ZBAA 030800Z AUTO 12006KT 6SM 31/18 A2956 RMK T03100180 IEM_DS3505
ZBAA,2006-07-03 09:00,ZBAA 030900Z AUTO 09006KT 16SM 31/16 A2956 RMK SLP999 T03130157 57009 IEM_DS3505
ZBAA,2006-07-03 10:00,ZBAA 031000Z AUTO 13008KT 6SM 30/20 A2956 RMK T03000200 IEM_DS3505
ZBAA,2006-07-03 11:00,ZBAA 031100Z AUTO 12006KT 6SM 30/20 A2956 RMK T03000200 IEM_DS3505
ZBAA,2006-07-03 12:00,ZBAA 031200Z AUTO 14006KT 12SM 29/16 A2956 RMK SLP007 T02920164 52008 IEM_DS3505
ZBAA,2006-07-03 13:00,ZBAA 031300Z AUTO 14006KT 6SM 28/21 A2959 RMK T02800210 IEM_DS3505
ZBAA,2006-07-03 14:00,ZBAA 031400Z AUTO 16006KT 6SM 26/22 A2959 RMK T02600220 IEM_DS3505
ZBAA,2006-07-03 15:00,ZBAA 031500Z AUTO 14006KT 9SM 26/17 A2959 RMK SLP013 T02630171 52006 IEM_DS3505
ZBAA,2006-07-03 16:00,ZBAA 031600Z AUTO 11008KT 4SM 25/22 A2959 RMK T02500220 IEM_DS3505
ZBAA,2006-07-03 17:00,ZBAA 031700Z AUTO 13006KT 4SM 25/22 A2956 RMK T02500220 IEM_DS3505
ZBAA,2006-07-03 18:00,ZBAA 031800Z AUTO 09004KT 7SM 24/19 A2956 RMK SLP001 T02350188 57012 IEM_DS3505
ZBAA,2006-07-03 19:00,ZBAA 031900Z AUTO 12006KT 3SM 23/22 A2956 RMK T02300220 IEM_DS3505
ZBAA,2006-07-03 20:00,ZBAA 032000Z AUTO 17004KT 2 1/2SM 22/21 A2953 RMK T02200210 IEM_DS3505
ZBAA,2006-07-03 21:00,ZBAA 032100Z AUTO 07002KT 5SM 22/20 A2956 RMK SLP999 T02250195 57002 IEM_DS3505
ZBAA,2006-07-03 22:00,ZBAA 032200Z AUTO 13006KT 1 1/2SM 22/21 A2956 RMK T02200210 IEM_DS3505
ZBAA,2006-07-03 23:00,ZBAA 032300Z AUTO 13004KT 1 1/2SM 23/22 A2956 RMK T02300220 IEM_DS3505
ZBAA,2006-07-04 00:00,ZBAA 040000Z AUTO 11002KT 5SM 24/20 A2956 RMK SLP006 T02400201 52007 IEM_DS3505
ZBAA,2006-07-04 01:00,ZBAA 040100Z AUTO 16004KT 1 1/2SM 25/22 A2956 RMK T02500220 IEM_DS3505
ZBAA,2006-07-04 02:00,ZBAA 040200Z AUTO 1 1/2SM 26/22 A2956 RMK T02600220 IEM_DS3505
ZBAA,2006-07-04 03:00,ZBAA 040300Z AUTO 22004KT 6SM 28/20 A2956 RMK SLP998 T02840196 57008 IEM_DS3505
ZBAA,2006-07-04 04:00,ZBAA 040400Z AUTO 1 1/2SM 29/23 A2953 RMK T02900230 IEM_DS3505
ZBAA,2006-07-04 05:00,ZBAA 040500Z AUTO 2SM 30/23 A2950 RMK T03000230 IEM_DS3505
ZBAA,2006-07-04 06:00,ZBAA 040600Z AUTO 27004KT 6SM 32/20 A2950 RMK SLP980 T03170200 57018 IEM_DS3505
ZBAA,2006-07-04 07:00,ZBAA 040700Z AUTO 2SM 32/24 A2947 RMK T03200240 IEM_DS3505
ZBAA,2006-07-04 08:00,ZBAA 040800Z AUTO 15006KT 2 1/2SM 33/23 A2947 RMK T03300230 IEM_DS3505
ZBAA,2006-07-04 09:00,ZBAA 040900Z AUTO 22004KT 7SM 31/21 A2947 RMK SLP973 T03130206 57007 IEM_DS3505
ZBAA,2006-07-04 10:00,ZBAA 041000Z AUTO 22010KT 2 1/2SM 32/24 A2947 RMK T03200240 IEM_DS3505
ZBAA,2006-07-04 11:00,ZBAA 041100Z AUTO 22006KT 3SM 31/23 A2947 RMK T03100230 IEM_DS3505
ZBAA,2006-07-04 12:00,ZBAA 041200Z AUTO 22006KT 6SM 31/21 A2950 RMK SLP983 T03070212 52010 IEM_DS3505
ZBAA,2006-07-04 13:00,ZBAA 041300Z AUTO 13006KT 2 1/2SM 30/24 A2950 RMK T03000240 IEM_DS3505
ZBAA,2006-07-04 14:00,ZBAA 041400Z AUTO 12010KT 2 1/2SM 28/24 A2953 RMK T02800240 IEM_DS3505
ZBAA,2006-07-04 15:00,ZBAA 041500Z AUTO 11004KT 5SM 28/22 A2953 RMK SLP988 T02770220 52005 IEM_DS3505
ZBAA,2006-07-04 16:00,ZBAA 041600Z AUTO 11008KT 2SM 26/23 A2953 RMK T02600230 IEM_DS3505
ZBAA,2006-07-04 17:00,ZBAA 041700Z AUTO 11008KT 2 1/2SM 25/23 A2953 RMK T02500230 IEM_DS3505
ZBAA,2006-07-04 18:00,ZBAA 041800Z AUTO 09006KT 5SM 24/21 A2953 RMK SLP991 T02420211 52003 IEM_DS3505
ZBAA,2006-07-04 19:00,ZBAA 041900Z AUTO 10004KT 2 1/2SM 24/22 A2953 RMK T02400220 IEM_DS3505
ZBAA,2006-07-04 20:00,ZBAA 042000Z AUTO 11004KT 2SM 24/22 A2953 RMK T02400220 IEM_DS3505
ZBAA,2006-07-04 21:00,ZBAA 042100Z AUTO 07004KT 4SM 24/21 A2953 RMK SLP996 T02370208 52005 IEM_DS3505
ZBAA,2006-07-04 22:00,ZBAA 042200Z AUTO 10004KT 2SM 24/22 A2956 RMK T02400220 IEM_DS3505
ZBAA,2006-07-04 23:00,ZBAA 042300Z AUTO 07002KT 2SM 24/23 A2956 RMK T02400230 IEM_DS3505
ZBAA,2006-07-05 00:00,ZBAA 050000Z AUTO 02004KT 5SM 26/21 A2956 RMK SLP999 T02570214 52003 IEM_DS3505
ZBAA,2006-07-05 01:00,ZBAA 050100Z AUTO 10002KT 1 1/2SM 27/23 A2953 RMK T02700230 IEM_DS3505
ZBAA,2006-07-05 02:00,ZBAA 050200Z AUTO 11004KT 1 1/2SM 28/24 A2953 RMK T02800240 IEM_DS3505
ZBAA,2006-07-05 03:00,ZBAA 050300Z AUTO 11006KT 6SM 30/21 A2950 RMK SLP984 T03030211 57015 IEM_DS3505
ZBAA,2006-07-05 04:00,ZBAA 050400Z AUTO 2SM 31/24 A2947 RMK T03100240 IEM_DS3505
ZBAA,2006-07-05 05:00,ZBAA 050500Z AUTO 09004KT 4SM 33/22 A2944 RMK T03300220 IEM_DS3505
ZBAA,2006-07-05 06:00,ZBAA 050600Z AUTO 20006KT 9SM 34/19 A2944 RMK SLP957 T03410186 57027 IEM_DS3505
ZBAA,2006-07-05 07:00,ZBAA 050700Z AUTO 04010KT 4SM 32/22 A2944 RMK T03200220 IEM_DS3505
ZBAA,2006-07-05 08:00,ZBAA 050800Z AUTO 05012KT 4SM 31/23 A2941 RMK T03100230 IEM_DS3505
ZBAA,2006-07-05 09:00,ZBAA 050900Z AUTO 09004KT 12SM 27/18 A2941 RMK SLP959 T02720185 52002 IEM_DS3505
ZBAA,2006-07-05 10:00,ZBAA 051000Z AUTO 12008KT 7SM 30/22 A2944 RMK T03000220 IEM_DS3505
ZBAA,2006-07-05 11:00,ZBAA 051100Z AUTO 12006KT 6SM 30/22 A2944 RMK T03000220 IEM_DS3505
ZBAA,2006-07-05 12:00,ZBAA 051200Z AUTO 09006KT 12SM 27/18 A2944 RMK 60003 SLP965 T02660177 52006 IEM_DS3505
ZBAA,2006-07-05 13:00,ZBAA 051300Z AUTO 12012KT 6SM 26/19 A2950 RMK T02600190 IEM_DS3505
ZBAA,2006-07-05 14:00,ZBAA 051400Z AUTO 15008KT 6SM 25/19 A2953 RMK T02500190 IEM_DS3505
ZBAA,2006-07-05 15:00,ZBAA 051500Z AUTO 36002KT 9SM 24/18 A2953 RMK SLP996 T02430178 52031 IEM_DS3505
ZBAA,2006-07-05 16:00,ZBAA 051600Z AUTO 11002KT 6SM 23/19 A2953 RMK T02300190 IEM_DS3505
ZBAA,2006-07-05 17:00,ZBAA 051700Z AUTO 14002KT 6SM 23/20 A2953 RMK T02300200 IEM_DS3505
ZBAA,2006-07-05 18:00,ZBAA 051800Z AUTO 07004KT 9SM 23/18 A2953 RMK SLP991 T02300181 57005 IEM_DS3505
ZBAA,2006-07-05 19:00,ZBAA 051900Z AUTO 11002KT 6SM 23/20 A2953 RMK T02300200 IEM_DS3505
ZBAA,2006-07-05 20:00,ZBAA 052000Z AUTO 04002KT 5SM 23/20 A2953 RMK T02300200 IEM_DS3505
ZBAA,2006-07-05 21:00,ZBAA 052100Z AUTO 09004KT 6SM 22/19 A2953 RMK 70003 SLP991 T02200194 54000 IEM_DS3505
ZBAA,2006-07-05 22:00,ZBAA 052200Z AUTO 34004KT 4SM 22/21 A2953 RMK T02200210 IEM_DS3505
ZBAA,2006-07-05 23:00,ZBAA 052300Z AUTO 34006KT 5SM 25/21 A2953 RMK T02500210 IEM_DS3505
ZBAA,2006-07-06 00:00,ZBAA 060000Z AUTO 36004KT 7SM 27/18 A2956 RMK 70003 SLP001 T02720182 52010 IEM_DS3505
ZBAA,2006-07-06 01:00,ZBAA 060100Z AUTO 02006KT 6SM 28/21 A2956 RMK T02800210 IEM_DS3505
ZBAA,2006-07-06 02:00,ZBAA 060200Z AUTO 01010KT 6SM 30/20 A2956 RMK T03000200 IEM_DS3505
ZBAA,2006-07-06 03:00,ZBAA 060300Z AUTO 07008KT 19SM 30/16 A2956 RMK SLP002 T03050161 52001 IEM_DS3505
ZBAA,2006-07-06 04:00,ZBAA 060400Z AUTO 02008KT 6SM 31/19 A2956 RMK T03100190 IEM_DS3505
ZBAA,2006-07-06 05:00,ZBAA 060500Z AUTO 06010KT 6SM 32/19 A2956 RMK T03200190 IEM_DS3505
ZBAA,2006-07-06 06:00,ZBAA 060600Z AUTO 04010KT 19SM 32/15 A2953 RMK SLP993 T03220152 57009 IEM_DS3505
ZBAA,2006-07-06 07:00,ZBAA 060700Z AUTO 11008KT 6SM 33/19 A2953 RMK T03300190 IEM_DS3505
ZBAA,2006-07-06 08:00,ZBAA 060800Z AUTO 13008KT 6SM 32/20 A2953 RMK T03200200 IEM_DS3505
ZBAA,2006-07-06 09:00,ZBAA 060900Z AUTO 14008KT 19SM 32/17 A2953 RMK SLP991 T03170168 57002 IEM_DS3505
ZBAA,2006-07-06 10:00,ZBAA 061000Z AUTO 13008KT 6SM 32/20 A2953 RMK T03200200 IEM_DS3505
ZBAA,2006-07-06 11:00,ZBAA 061100Z AUTO 13008KT 6SM 31/19 A2953 RMK T03100190 IEM_DS3505
ZBAA,2006-07-06 12:00,ZBAA 061200Z AUTO 14004KT 19SM 30/17 A2956 RMK SLP002 T02980173 52011 IEM_DS3505
ZBAA,2006-07-06 13:00,ZBAA 061300Z AUTO 13008KT 6SM 29/21 A2959 RMK T02900210 IEM_DS3505
ZBAA,2006-07-06 14:00,ZBAA 061400Z AUTO 16008KT 6SM 27/22 A2959 RMK T02700220 IEM_DS3505
ZBAA,2006-07-06 15:00,ZBAA 061500Z AUTO 18006KT 12SM 26/20 A2962 RMK SLP025 T02590200 52023 IEM_DS3505
ZBAA,2006-07-06 16:00,ZBAA 061600Z AUTO 16008KT 4SM 26/22 A2962 RMK T02600220 IEM_DS3505
ZBAA,2006-07-06 17:00,ZBAA 061700Z AUTO 12006KT 4SM 25/22 A2962 RMK T02500220 IEM_DS3505
ZBAA,2006-07-06 18:00,ZBAA 061800Z AUTO 18004KT 9SM 24/19 A2962 RMK SLP023 T02430194 57002 IEM_DS3505
ZBAA,2006-07-06 19:00,ZBAA 061900Z AUTO 12006KT 2 1/2SM 24/22 A2962 RMK T02400220 IEM_DS3505
ZBAA,2006-07-06 20:00,ZBAA 062000Z AUTO 11006KT 2 1/2SM 24/23 A2962 RMK T02400230 IEM_DS3505
ZBAA,2006-07-06 21:00,ZBAA 062100Z AUTO 16002KT 5SM 24/20 A2962 RMK SLP027 T02370196 52004 IEM_DS3505
ZBAA,2006-07-06 22:00,ZBAA 062200Z AUTO 11006KT 2SM 24/22 A2962 RMK T02400220 IEM_DS3505
ZBAA,2006-07-06 23:00,ZBAA 062300Z AUTO 12006KT 2SM 24/22 A2965 RMK T02400220 IEM_DS3505
ZBAA,2006-07-07 00:00,ZBAA 070000Z AUTO 18006KT 7SM 25/20 A2965 RMK SLP032 T02500200 52005 IEM_DS3505
ZBAA,2006-07-07 01:00,ZBAA 070100Z AUTO 15006KT 2 1/2SM 26/22 A2965 RMK T02600220 IEM_DS3505
ZBAA,2006-07-07 02:00,ZBAA 070200Z AUTO 16006KT 4SM 27/21 A2965 RMK T02700210 IEM_DS3505
ZBAA,2006-07-07 03:00,ZBAA 070300Z AUTO 22006KT 12SM 29/18 A2962 RMK SLP026 T02860184 57006 IEM_DS3505
ZBAA,2006-07-07 04:00,ZBAA 070400Z AUTO 15006KT 4SM 29/22 A2962 RMK T02900220 IEM_DS3505
ZBAA,2006-07-07 05:00,ZBAA 070500Z AUTO 17004KT 5SM 30/22 A2959 RMK T03000220 IEM_DS3505
ZBAA,2006-07-07 06:00,ZBAA 070600Z AUTO 18008KT 12SM 30/20 A2959 RMK SLP009 T03050195 57017 IEM_DS3505
ZBAA,2006-07-07 07:00,ZBAA 070700Z AUTO 13006KT 5SM 30/22 A2959 RMK T03000220 IEM_DS3505
ZBAA,2006-07-07 08:00,ZBAA 070800Z AUTO 11008KT 4SM 31/23 A2956 RMK T03100230 IEM_DS3505
ZBAA,2006-07-07 09:00,ZBAA 070900Z AUTO 14006KT 12SM 31/19 A2956 RMK SLP999 T03100194 57010 IEM_DS3505
ZBAA,2006-07-07 10:00,ZBAA 071000Z AUTO 12010KT 4SM 30/23 A2956 RMK T03000230 IEM_DS3505
ZBAA,2006-07-07 11:00,ZBAA 071100Z AUTO 12010KT 4SM 29/23 A2956 RMK T02900230 IEM_DS3505
ZBAA,2006-07-07 12:00,ZBAA 071200Z AUTO 18006KT 9SM 28/20 A2959 RMK SLP012 T02850202 52013 IEM_DS3505
ZBAA,2006-07-07 13:00,ZBAA 071300Z AUTO 12008KT 4SM 27/22 A2962 RMK T02700220 IEM_DS3505
ZBAA,2006-07-07 14:00,ZBAA 071400Z AUTO 12008KT 3SM 27/22 A2962 RMK T02700220 IEM_DS3505
ZBAA,2006-07-07 15:00,ZBAA 071500Z AUTO 14004KT 9SM 27/19 A2962 RMK SLP027 T02680189 52015 IEM_DS3505
ZBAA,2006-07-07 16:00,ZBAA 071600Z AUTO 12006KT 3SM 26/22 A2965 RMK T02600220 IEM_DS3505
ZBAA,2006-07-07 17:00,ZBAA 071700Z AUTO 09008KT 4SM 25/22 A2962 RMK T02500220 IEM_DS3505
ZBAA,2006-07-07 18:00,ZBAA 071800Z AUTO 14002KT 9SM 25/19 A2962 RMK SLP021 T02520191 57006 IEM_DS3505
ZBAA,2006-07-07 19:00,ZBAA 071900Z AUTO 12008KT 5SM 24/21 A2962 RMK T02400210 IEM_DS3505
ZBAA,2006-07-07 20:00,ZBAA 072000Z AUTO 11006KT 5SM 24/22 A2962 RMK T02400220 IEM_DS3505
ZBAA,2006-07-07 21:00,ZBAA 072100Z AUTO 11006KT 9SM 24/20 A2962 RMK SLP021 T02410196 54000 IEM_DS3505
ZBAA,2006-07-07 22:00,ZBAA 072200Z AUTO 10008KT 5SM 23/21 A2962 RMK T02300210 IEM_DS3505
ZBAA,2006-07-07 23:00,ZBAA 072300Z AUTO 12008KT 4SM 24/21 A2962 RMK T02400210 IEM_DS3505
ZBAA,2006-07-08 00:00,ZBAA 080000Z AUTO 14004KT 7SM 25/21 A2965 RMK SLP028 T02530208 52007 IEM_DS3505
ZBAA,2006-07-08 01:00,ZBAA 080100Z AUTO 13006KT 3SM 24/22 A2965 RMK T02400220 IEM_DS3505
ZBAA,2006-07-08 02:00,ZBAA 080200Z AUTO 11008KT 3SM 26/23 A2962 RMK T02600230 IEM_DS3505
ZBAA,2006-07-08 03:00,ZBAA 080300Z AUTO 14008KT 9SM 28/21 A2962 RMK SLP023 T02780206 57005 IEM_DS3505
ZBAA,2006-07-08 04:00,ZBAA 080400Z AUTO 11008KT 3SM 27/23 A2962 RMK T02700230 IEM_DS3505
ZBAA,2006-07-08 05:00,ZBAA 080500Z AUTO 11008KT 3SM 28/23 A2962 RMK T02800230 IEM_DS3505
ZBAA,2006-07-08 06:00,ZBAA 080600Z AUTO 14008KT 9SM 30/21 A2959 RMK SLP009 T03050207 57014 IEM_DS3505
ZBAA,2006-07-08 07:00,ZBAA 080700Z AUTO 11010KT 3SM 29/23 A2956 RMK T02900230 IEM_DS3505
ZBAA,2006-07-08 08:00,ZBAA 080800Z AUTO 14008KT 3SM 29/23 A2956 RMK T02900230 IEM_DS3505
ZBAA,2006-07-08 09:00,ZBAA 080900Z AUTO 11008KT 11SM 30/20 A2956 RMK SLP005 T02960202 57004 IEM_DS3505
ZBAA,2006-07-08 10:00,ZBAA 081000Z AUTO 13008KT 3SM 29/22 A2956 RMK T02900220 IEM_DS3505
ZBAA,2006-07-08 11:00,ZBAA 081100Z AUTO 14008KT 2 1/2SM 28/24 A2959 RMK T02800240 IEM_DS3505
ZBAA,2006-07-08 12:00,ZBAA 081200Z AUTO 14010KT 6SM 28/21 A2959 RMK 60000 SLP007 T02810214 52002 IEM_DS3505
ZBAA,2006-07-08 13:00,ZBAA 081300Z AUTO 13008KT 4SM 27/22 A2959 RMK T02700220 IEM_DS3505
ZBAA,2006-07-08 14:00,ZBAA 081400Z AUTO 12008KT 4SM 27/22 A2962 RMK T02700220 IEM_DS3505
ZBAA,2006-07-08 15:00,ZBAA 081500Z AUTO 09010KT 6SM 26/21 A2965 RMK SLP025 T02610211 52018 IEM_DS3505
ZBAA,2006-07-08 16:00,ZBAA 081600Z AUTO 11008KT 3SM 25/22 A2962 RMK T02500220 IEM_DS3505
ZBAA,2006-07-08 17:00,ZBAA 081700Z AUTO 10008KT 2 1/2SM 25/22 A2962 RMK T02500220 IEM_DS3505
ZBAA,2006-07-08 18:00,ZBAA 081800Z AUTO 09006KT 5SM 24/21 A2962 RMK SLP025 T02450208 54000 IEM_DS3505
ZBAA,2006-07-08 19:00,ZBAA 081900Z AUTO 09006KT 2 1/2SM 24/22 A2962 RMK T02400220 IEM_DS3505
ZBAA,2006-07-08 20:00,ZBAA 082000Z AUTO 10008KT 1 1/4SM 22/22 A2962 RMK T02200220 IEM_DS3505
ZBAA,2006-07-08 21:00,ZBAA 082100Z AUTO 09006KT 4SM 23/21 A2962 RMK 70007 SLP024 T02310210 57001 IEM_DS3505
ZBAA,2006-07-08 22:00,ZBAA 082200Z AUTO 10004KT 1SM 22/22 A2965 RMK T02200220 IEM_DS3505
ZBAA,2006-07-08 23:00,ZBAA 082300Z AUTO 05004KT 1SM 22/22 A2965 RMK T02200220 IEM_DS3505
ZBAA,2006-07-09 00:00,ZBAA 090000Z AUTO 07006KT 2 1/2SM 23/21 A2962 RMK 60008 70007 SLP026 T02280211 52002 IEM_DS3505
ZBAA,2006-07-09 01:00,ZBAA 090100Z AUTO 11006KT 1SM 23/22 A2962 RMK T02300220 IEM_DS3505
ZBAA,2006-07-09 02:00,ZBAA 090200Z AUTO 11004KT 1SM 23/23 A2965 RMK T02300230 IEM_DS3505
ZBAA,2006-07-09 03:00,ZBAA 090300Z AUTO 04004KT 2SM 24/22 A2965 RMK SLP029 T02390216 52003 IEM_DS3505
ZBAA,2006-07-09 04:00,ZBAA 090400Z AUTO 34002KT 1SM 24/23 A2965 RMK T02400230 IEM_DS3505
ZBAA,2006-07-09 05:00,ZBAA 090500Z AUTO 36004KT 1SM 24/23 A2965 RMK T02400230 IEM_DS3505
ZBAA,2006-07-09 06:00,ZBAA 090600Z AUTO 02004KT 2SM 26/22 A2962 RMK 60000 SLP024 T02580225 57005 IEM_DS3505
ZBAA,2006-07-09 07:00,ZBAA 090700Z AUTO 35004KT 1SM 24/24 A2962 RMK T02400240 IEM_DS3505
ZBAA,2006-07-09 08:00,ZBAA 090800Z AUTO 35004KT 1SM 24/24 A2959 RMK T02400240 IEM_DS3505
ZBAA,2006-07-09 09:00,ZBAA 090900Z AUTO 04004KT 2SM 26/23 A2959 RMK SLP012 T02600229 57012 IEM_DS3505
ZBAA,2006-07-09 10:00,ZBAA 091000Z AUTO 36006KT 1SM 24/24 A2962 RMK T02400240 IEM_DS3505
ZBAA,2006-07-09 11:00,ZBAA 091100Z AUTO 01006KT 1SM 24/24 A2959 RMK T02400240 IEM_DS3505
ZBAA,2006-07-09 12:00,ZBAA 091200Z AUTO 07004KT 2SM 25/23 A2959 RMK SLP018 T02500227 52006 IEM_DS3505
ZBAA,2006-07-09 13:00,ZBAA 091300Z AUTO 09006KT 1SM 25/25 A2962 RMK T02500250 IEM_DS3505
ZBAA,2006-07-09 14:00,ZBAA 091400Z AUTO 11010KT 1SM 25/25 A2962 RMK T02500250 IEM_DS3505
ZBAA,2006-07-09 15:00,ZBAA 091500Z AUTO 11006KT 2SM 25/22 A2965 RMK SLP032 T02530224 52014 IEM_DS3505
ZBAA,2006-07-09 16:00,ZBAA 091600Z AUTO 10006KT 1 1/4SM 25/24 A2965 RMK T02500240 IEM_DS3505
ZBAA,2006-07-09 17:00,ZBAA 091700Z AUTO 12006KT 2SM 24/24 A2962 RMK T02400240 IEM_DS3505
ZBAA,2006-07-09 18:00,ZBAA 091800Z AUTO 02004KT 2 1/2SM 24/22 A2962 RMK 60012 SLP027 T02450222 57005 IEM_DS3505
ZBAA,2006-07-09 19:00,ZBAA 091900Z AUTO 13006KT 1 1/4SM 23/23 A2962 RMK T02300230 IEM_DS3505
ZBAA,2006-07-09 20:00,ZBAA 092000Z AUTO 13006KT 1SM 23/23 A2962 RMK T02300230 IEM_DS3505
ZBAA,2006-07-09 21:00,ZBAA 092100Z AUTO 09004KT 1 1/4SM 23/22 A2959 RMK 70037 SLP014 T02320220 57013 IEM_DS3505
ZBAA,2006-07-09 22:00,ZBAA 092200Z AUTO 13006KT 1SM 23/23 A2959 RMK T02300230 IEM_DS3505
ZBAA,2006-07-09 23:00,ZBAA 092300Z AUTO 10002KT 1/2SM 23/23 A2959 RMK T02300230 IEM_DS3505
ZBAA,2006-07-10 00:00,ZBAA 100000Z AUTO 07004KT 2SM 24/22 A2959 RMK 60028 70038 SLP015 T02380221 52001 IEM_DS3505
ZBAA,2006-07-10 01:00,ZBAA 100100Z AUTO 12006KT 1SM 24/24 A2959 RMK T02400240 IEM_DS3505
ZBAA,2006-07-10 02:00,ZBAA 100200Z AUTO 08004KT 1SM 24/24 A2959 RMK T02400240 IEM_DS3505
ZBAA,2006-07-10 03:00,ZBAA 100300Z AUTO 09004KT 2SM 25/22 A2959 RMK SLP014 T02460225 57001 IEM_DS3505
ZBAA,2006-07-10 04:00,ZBAA 100400Z AUTO 15004KT 1SM 25/24 A2959 RMK T02500240 IEM_DS3505
ZBAA,2006-07-10 05:00,ZBAA 100500Z AUTO 05002KT 1SM 25/24 A2956 RMK T02500240 IEM_DS3505
ZBAA,2006-07-10 06:00,ZBAA 100600Z AUTO 04006KT 2SM 25/23 A2956 RMK 60002 SLP995 T02490228 57019 IEM_DS3505
ZBAA,2006-07-10 07:00,ZBAA 100700Z AUTO 23006KT 1 1/2SM 24/24 A2956 RMK T02400240 IEM_DS3505
ZBAA,2006-07-10 08:00,ZBAA 100800Z AUTO 2 1/2SM 25/24 A2956 RMK T02500240 IEM_DS3505
ZBAA,2006-07-10 09:00,ZBAA 100900Z AUTO 07006KT 19SM 26/20 A2956 RMK SLP001 T02570198 52006 IEM_DS3505
ZBAA,2006-07-10 10:00,ZBAA 101000Z AUTO 08004KT 4SM 25/24 A2956 RMK T02500240 IEM_DS3505
ZBAA,2006-07-10 11:00,ZBAA 101100Z AUTO 06002KT 4SM 25/23 A2956 RMK T02500230 IEM_DS3505
ZBAA,2006-07-10 12:00,ZBAA 101200Z AUTO 02002KT 9SM 24/21 A2959 RMK 60000 SLP008 T02410210 52007 IEM_DS3505
ZBAA,2006-07-10 13:00,ZBAA 101300Z AUTO 02004KT 6SM 24/23 A2959 RMK T02400230 IEM_DS3505
ZBAA,2006-07-10 14:00,ZBAA 101400Z AUTO 35004KT 6SM 23/22 A2959 RMK T02300220 IEM_DS3505
ZBAA,2006-07-10 15:00,ZBAA 101500Z AUTO 14002KT 7SM 22/20 A2959 RMK SLP019 T02240205 52011 IEM_DS3505
ZBAA,2006-07-10 16:00,ZBAA 101600Z AUTO 06002KT 6SM 22/22 A2962 RMK T02200220 IEM_DS3505
ZBAA,2006-07-10 17:00,ZBAA 101700Z AUTO 20002KT 6SM 22/22 A2962 RMK T02200220 IEM_DS3505
ZBAA,2006-07-10 18:00,ZBAA 101800Z AUTO 27002KT 2 1/2SM 22/21 A2959 RMK SLP020 T02230211 52001 IEM_DS3505
ZBAA,2006-07-10 19:00,ZBAA 101900Z AUTO 32004KT 4SM 22/22 A2962 RMK T02200220 IEM_DS3505
ZBAA,2006-07-10 20:00,ZBAA 102000Z AUTO 01004KT 4SM 21/21 A2962 RMK T02100210 IEM_DS3505
ZBAA,2006-07-10 21:00,ZBAA 102100Z AUTO 27002KT 2SM 22/21 A2962 RMK 70002 SLP020 T02210207 54000 IEM_DS3505
ZBAA,2006-07-10 22:00,ZBAA 102200Z AUTO 31002KT 1/2SM 21/21 A2962 RMK T02100210 IEM_DS3505
ZBAA,2006-07-10 23:00,ZBAA 102300Z AUTO 36004KT 1 1/4SM 22/22 A2965 RMK T02200220 IEM_DS3505
ZBAA,2006-07-11 00:00,ZBAA 110000Z AUTO 04002KT 5SM 24/21 A2962 RMK 70002 SLP028 T02440211 52008 IEM_DS3505
ZBAA,2006-07-11 01:00,ZBAA 110100Z AUTO 01006KT 6SM 25/22 A2962 RMK T02500220 IEM_DS3505
ZBAA,2006-07-11 02:00,ZBAA 110200Z AUTO 05004KT 6SM 27/23 A2962 RMK T02700230 IEM_DS3505
ZBAA,2006-07-11 03:00,ZBAA 110300Z AUTO 16004KT 6SM 29/22 A2962 RMK SLP025 T02870215 57003 IEM_DS3505
ZBAA,2006-07-11 04:00,ZBAA 110400Z AUTO 2 1/2SM 29/24 A2962 RMK T02900240 IEM_DS3505
ZBAA,2006-07-11 05:00,ZBAA 110500Z AUTO 25004KT 2SM 30/24 A2962 RMK T03000240 IEM_DS3505
ZBAA,2006-07-11 06:00,ZBAA 110600Z AUTO 22008KT 6SM 31/22 A2959 RMK SLP016 T03080221 57009 IEM_DS3505
ZBAA,2006-07-11 07:00,ZBAA 110700Z AUTO 14006KT 1 1/2SM 31/26 A2959 RMK T03100260 IEM_DS3505
ZBAA,2006-07-11 08:00,ZBAA 110800Z AUTO 16010KT 1 1/2SM 30/25 A2959 RMK T03000250 IEM_DS3505
ZBAA,2006-07-11 09:00,ZBAA 110900Z AUTO 20006KT 9SM 31/22 A2956 RMK SLP007 T03110216 57009 IEM_DS3505
ZBAA,2006-07-11 10:00,ZBAA 111000Z AUTO 16008KT 3SM 30/25 A2956 RMK T03000250 IEM_DS3505
ZBAA,2006-07-11 11:00,ZBAA 111100Z AUTO 15006KT 3SM 29/25 A2956 RMK T02900250 IEM_DS3505
ZBAA,2006-07-11 12:00,ZBAA 111200Z AUTO 14004KT 7SM 30/22 A2959 RMK SLP010 T02980220 52003 IEM_DS3505
ZBAA,2006-07-11 13:00,ZBAA 111300Z AUTO 12004KT 2 1/2SM 28/25 A2959 RMK T02800250 IEM_DS3505
ZBAA,2006-07-11 14:00,ZBAA 111400Z AUTO 13006KT 2 1/2SM 27/25 A2959 RMK T02700250 IEM_DS3505
ZBAA,2006-07-11 15:00,ZBAA 111500Z AUTO 16006KT 5SM 28/24 A2962 RMK SLP020 T02760238 52010 IEM_DS3505
ZBAA,2006-07-11 16:00,ZBAA 111600Z AUTO 14006KT 1 1/2SM 26/26 A2962 RMK T02600260 IEM_DS3505
ZBAA,2006-07-11 17:00,ZBAA 111700Z AUTO 14004KT 1 1/4SM 26/26 A2962 RMK T02600260 IEM_DS3505
ZBAA,2006-07-11 18:00,ZBAA 111800Z AUTO 20002KT 4SM 26/22 A2962 RMK SLP018 T02600217 57002 IEM_DS3505
ZBAA,2006-07-11 19:00,ZBAA 111900Z AUTO 12006KT 1SM 25/25 A2959 RMK T02500250 IEM_DS3505
ZBAA,2006-07-11 20:00,ZBAA 112000Z AUTO 12006KT 1SM 25/24 A2959 RMK T02500240 IEM_DS3505
ZBAA,2006-07-11 21:00,ZBAA 112100Z AUTO 32004G35KT 5SM 26/21 A2962 RMK SLP010 T02550212 57008 IEM_DS3505
ZBAA,2006-07-11 22:00,ZBAA 112200Z AUTO 12008KT 5SM 20/20 A2959 RMK T02000200 IEM_DS3505
ZBAA,2006-07-11 23:00,ZBAA 112300Z AUTO 10010KT 2 1/2SM 21/21 A2965 RMK T02100210 IEM_DS3505
ZBAA,2006-07-12 00:00,ZBAA 120000Z AUTO 14004KT 7SM 23/21 A2965 RMK 60142 70142 SLP026 T02270210 52016 IEM_DS3505
ZBAA,2006-07-12 01:00,ZBAA 120100Z AUTO 10006KT 4SM 23/22 A2962 RMK T02300220 IEM_DS3505
ZBAA,2006-07-12 02:00,ZBAA 120200Z AUTO 03004KT 4SM 24/22 A2962 RMK T02400220 IEM_DS3505
ZBAA,2006-07-12 03:00,ZBAA 120300Z AUTO 27004KT 9SM 28/21 A2962 RMK SLP025 T02760209 57001 IEM_DS3505
ZBAA,2006-07-12 04:00,ZBAA 120400Z AUTO 21006G16KT 4SM 28/23 A2959 RMK T02800230 IEM_DS3505
ZBAA,2006-07-12 05:00,ZBAA 120500Z AUTO 21004KT 4SM 29/25 A2959 RMK T02900250 IEM_DS3505
ZBAA,2006-07-12 06:00,ZBAA 120600Z AUTO 20006KT 9SM 30/21 A2953 RMK SLP998 T03020210 57027 IEM_DS3505
ZBAA,2006-07-12 07:00,ZBAA 120700Z AUTO 15010KT 6SM 30/24 A2950 RMK T03000240 IEM_DS3505
ZBAA,2006-07-12 08:00,ZBAA 120800Z AUTO 17010KT 6SM 30/25 A2950 RMK T03000250 IEM_DS3505
ZBAA,2006-07-12 09:00,ZBAA 120900Z AUTO 18008KT 6SM 29/22 A2950 RMK SLP981 T02920219 57017 IEM_DS3505
ZBAA,2006-07-12 10:00,ZBAA 121000Z AUTO 15010KT 7SM 29/24 A2950 RMK T02900240 IEM_DS3505
ZBAA,2006-07-12 11:00,ZBAA 121100Z AUTO 06004KT 4SM 29/25 A2956 RMK T02900250 IEM_DS3505
ZBAA,2006-07-12 12:00,ZBAA 121200Z AUTO 36012KT 6SM 22/19 A2962 RMK 60059 SLP008 T02160192 52026 IEM_DS3505
ZBAA,2006-07-12 13:00,ZBAA 121300Z AUTO 36004KT 7SM 21/21 A2962 RMK T02100210 IEM_DS3505
ZBAA,2006-07-12 14:00,ZBAA 121400Z AUTO 25006KT 7SM 21/21 A2959 RMK T02100210 IEM_DS3505
ZBAA,2006-07-12 15:00,ZBAA 121500Z AUTO 32002KT 7SM 22/20 A2959 RMK SLP012 T02160199 52005 IEM_DS3505
ZBAA,2006-07-12 16:00,ZBAA 121600Z AUTO 02004KT 6SM 21/21 A2959 RMK T02100210 IEM_DS3505
ZBAA,2006-07-12 17:00,ZBAA 121700Z AUTO 08002KT 4SM 21/20 A2962 RMK T02100200 IEM_DS3505
ZBAA,2006-07-12 18:00,ZBAA 121800Z AUTO 02002KT 6SM 21/19 A2962 RMK 60047 SLP021 T02070192 52009 IEM_DS3505
ZBAA,2006-07-12 19:00,ZBAA 121900Z AUTO 00000KT 3SM 20/20 A2962 RMK T02000200 IEM_DS3505
ZBAA,2006-07-12 20:00,ZBAA 122000Z AUTO 35006KT 2 1/2SM 20/20 A2962 RMK T02000200 IEM_DS3505
ZBAA,2006-07-12 21:00,ZBAA 122100Z AUTO 04002KT 5SM 21/19 A2965 RMK 70246 SLP030 T02080193 52009 IEM_DS3505
ZBAA,2006-07-12 22:00,ZBAA 122200Z AUTO 34004KT 7SM 20/20 A2965 RMK T02000200 IEM_DS3505
ZBAA,2006-07-12 23:00,ZBAA 122300Z AUTO 35008KT 7SM 21/20 A2965 RMK T02100200 IEM_DS3505
ZBAA,2006-07-13 00:00,ZBAA 130000Z AUTO 04006KT 7SM 23/19 A2965 RMK 70105 SLP034 T02310186 52003 IEM_DS3505
ZBAA,2006-07-13 01:00,ZBAA 130100Z AUTO 36002KT 6SM 24/21 A2965 RMK T02400210 IEM_DS3505
ZBAA,2006-07-13 02:00,ZBAA 130200Z AUTO 36004KT 6SM 26/22 A2965 RMK T02600220 IEM_DS3505
ZBAA,2006-07-13 03:00,ZBAA 130300Z AUTO 11002KT 9SM 26/19 A2965 RMK SLP035 T02550194 52002 IEM_DS3505
ZBAA,2006-07-13 04:00,ZBAA 130400Z AUTO 07004KT 6SM 28/23 A2962 RMK T02800230 IEM_DS3505
ZBAA,2006-07-13 05:00,ZBAA 130500Z AUTO 10004KT 6SM 29/23 A2962 RMK T02900230 IEM_DS3505
ZBAA,2006-07-13 06:00,ZBAA 130600Z AUTO 14004KT 12SM 29/21 A2962 RMK SLP024 T02890209 57011 IEM_DS3505
ZBAA,2006-07-13 07:00,ZBAA 130700Z AUTO 16006KT 6SM 30/25 A2959 RMK T03000250 IEM_DS3505
ZBAA,2006-07-13 08:00,ZBAA 130800Z AUTO 14006KT 6SM 30/25 A2959 RMK T03000250 IEM_DS3505
ZBAA,2006-07-13 09:00,ZBAA 130900Z AUTO 16004KT 12SM 29/22 A2959 RMK SLP012 T02900218 57012 IEM_DS3505
ZBAA,2006-07-13 10:00,ZBAA 131000Z AUTO 16008KT 4SM 29/25 A2959 RMK T02900250 IEM_DS3505
ZBAA,2006-07-13 11:00,ZBAA 131100Z AUTO 18004KT 4SM 28/25 A2962 RMK T02800250 IEM_DS3505
ZBAA,2006-07-13 12:00,ZBAA 131200Z AUTO 18002KT 7SM 28/22 A2962 RMK SLP022 T02770224 52010 IEM_DS3505
ZBAA,2006-07-13 13:00,ZBAA 131300Z AUTO 17004KT 4SM 26/25 A2962 RMK T02600250 IEM_DS3505
ZBAA,2006-07-13 14:00,ZBAA 131400Z AUTO 12002KT 4SM 27/25 A2965 RMK T02700250 IEM_DS3505
ZBAA,2006-07-13 15:00,ZBAA 131500Z AUTO 22002KT 6SM 27/24 A2965 RMK SLP031 T02710236 52009 IEM_DS3505
ZBAA,2006-07-13 16:00,ZBAA 131600Z AUTO 07006KT 2 1/2SM 26/26 A2965 RMK T02600260 IEM_DS3505
ZBAA,2006-07-13 17:00,ZBAA 131700Z AUTO 26006KT 6SM 24/22 A2962 RMK T02400220 IEM_DS3505
ZBAA,2006-07-13 18:00,ZBAA 131800Z AUTO 22002KT 6SM 25/23 A2962 RMK 60008 SLP026 T02520231 57005 IEM_DS3505
ZBAA,2006-07-13 19:00,ZBAA 131900Z AUTO 11004KT 2 1/2SM 25/24 A2965 RMK T02500240 IEM_DS3505
ZBAA,2006-07-13 20:00,ZBAA 132000Z AUTO 02002KT 2SM 25/24 A2965 RMK T02500240 IEM_DS3505
ZBAA,2006-07-13 21:00,ZBAA 132100Z AUTO 11002KT 4SM 24/22 A2965 RMK 70009 SLP033 T02410222 52007 IEM_DS3505
ZBAA,2006-07-13 22:00,ZBAA 132200Z AUTO 17004KT 1SM 25/25 A2965 RMK T02500250 IEM_DS3505
ZBAA,2006-07-13 23:00,ZBAA 132300Z AUTO 03002KT 1SM 25/25 A2968 RMK T02500250 IEM_DS3505
ZBAA,2006-07-14 00:00,ZBAA 140000Z AUTO 02002KT 5SM 26/23 A2968 RMK 70009 SLP042 T02610226 52009 IEM_DS3505
ZBAA,2006-07-14 01:00,ZBAA 140100Z AUTO 35006KT 1 1/2SM 27/26 A2968 RMK T02700260 IEM_DS3505
ZBAA,2006-07-14 02:00,ZBAA 140200Z AUTO 36006KT 2SM 28/26 A2968 RMK T02800260 IEM_DS3505
ZBAA,2006-07-14 03:00,ZBAA 140300Z AUTO 04004KT 4SM 30/24 A2968 RMK SLP042 T02980237 54000 IEM_DS3505
ZBAA,2006-07-14 04:00,ZBAA 140400Z AUTO 03002KT 2 1/2SM 30/26 A2968 RMK T03000260 IEM_DS3505
ZBAA,2006-07-14 05:00,ZBAA 140500Z AUTO 10012KT 2 1/2SM 30/27 A2968 RMK T03000270 IEM_DS3505
ZBAA,2006-07-14 06:00,ZBAA 140600Z AUTO 14006KT 6SM 29/24 A2971 RMK SLP048 T02920236 52006 IEM_DS3505
ZBAA,2006-07-14 07:00,ZBAA 140700Z AUTO 11010KT 2 1/2SM 29/26 A2968 RMK T02900260 IEM_DS3505
ZBAA,2006-07-14 08:00,ZBAA 140800Z AUTO 11008KT 3SM 29/26 A2968 RMK T02900260 IEM_DS3505
ZBAA,2006-07-14 09:00,ZBAA 140900Z AUTO 11004KT 7SM 29/24 A2971 RMK SLP052 T02910235 52004 IEM_DS3505
ZBAA,2006-07-14 10:00,ZBAA 141000Z AUTO 14008KT 3SM 28/25 A2974 RMK T02800250 IEM_DS3505
ZBAA,2006-07-14 11:00,ZBAA 141100Z AUTO 14006KT 4SM 27/25 A2974 RMK T02700250 IEM_DS3505
ZBAA,2006-07-14 12:00,ZBAA 141200Z AUTO 22002KT 9SM 28/23 A2974 RMK SLP070 T02750231 52018 IEM_DS3505
ZBAA,2006-07-14 13:00,ZBAA 141300Z AUTO 2 1/2SM 27/26 A2974 RMK T02700260 IEM_DS3505
ZBAA,2006-07-14 14:00,ZBAA 141400Z AUTO 09004KT 2 1/2SM 27/25 A2977 RMK T02700250 IEM_DS3505
ZBAA,2006-07-14 15:00,ZBAA 141500Z AUTO 11004KT 6SM 26/23 A2974 RMK SLP060 T02610234 57010 IEM_DS3505
ZBAA,2006-07-14 16:00,ZBAA 141600Z AUTO 13006KT 2SM 26/25 A2974 RMK T02600250 IEM_DS3505
ZBAA,2006-07-14 17:00,ZBAA 141700Z AUTO 13004KT 2SM 26/25 A2974 RMK T02600250 IEM_DS3505
ZBAA,2006-07-14 18:00,ZBAA 141800Z AUTO 16004KT 4SM 26/23 A2977 RMK SLP069 T02590234 52009 IEM_DS3505
ZBAA,2006-07-14 19:00,ZBAA 141900Z AUTO 10004KT 1 1/4SM 25/25 A2977 RMK T02500250 IEM_DS3505
ZBAA,2006-07-14 20:00,ZBAA 142000Z AUTO 05004KT 1 1/4SM 25/25 A2977 RMK T02500250 IEM_DS3505
ZBAA,2006-07-14 21:00,ZBAA 142100Z AUTO 07004KT 4SM 26/24 A2977 RMK SLP078 T02560237 52009 IEM_DS3505
ZBAA,2006-07-14 22:00,ZBAA 142200Z AUTO 05002KT 1SM 25/25 A2980 RMK T02500250 IEM_DS3505
ZBAA,2006-07-14 23:00,ZBAA 142300Z AUTO 04002KT 1SM 26/25 A2980 RMK T02600250 IEM_DS3505
ZBAA,2006-07-15 00:00,ZBAA 150000Z AUTO 04004KT 5SM 27/24 A2980 RMK SLP081 T02720237 52003 IEM_DS3505
ZBAA,2006-07-15 01:00,ZBAA 150100Z AUTO 02004KT 1 1/4SM 28/26 A2980 RMK T02800260 IEM_DS3505
ZBAA,2006-07-15 02:00,ZBAA 150200Z AUTO 34006KT 1 1/2SM 29/26 A2977 RMK T02900260 IEM_DS3505
ZBAA,2006-07-15 03:00,ZBAA 150300Z AUTO 07006KT 6SM 30/23 A2977 RMK SLP073 T03010230 57008 IEM_DS3505
ZBAA,2006-07-15 04:00,ZBAA 150400Z AUTO 01006KT 4SM 32/25 A2977 RMK T03200250 IEM_DS3505
ZBAA,2006-07-15 05:00,ZBAA 150500Z AUTO 08006KT 3SM 33/25 A2974 RMK T03300250 IEM_DS3505
ZBAA,2006-07-15 06:00,ZBAA 150600Z AUTO 09006KT 7SM 32/23 A2971 RMK SLP058 T03230233 57015 IEM_DS3505
ZBAA,2006-07-15 07:00,ZBAA 150700Z AUTO 3SM 33/27 A2971 RMK T03300270 IEM_DS3505
ZBAA,2006-07-15 08:00,ZBAA 150800Z AUTO 08004KT 3SM 33/26 A2971 RMK T03300260 IEM_DS3505
ZBAA,2006-07-15 09:00,ZBAA 150900Z AUTO 14008KT 9SM 32/23 A2971 RMK SLP052 T03210234 57006 IEM_DS3505
ZBAA,2006-07-15 10:00,ZBAA 151000Z AUTO 13008KT 2 1/2SM 32/27 A2971 RMK T03200270 IEM_DS3505
ZBAA,2006-07-15 11:00,ZBAA 151100Z AUTO 16006KT 1 1/4SM 30/28 A2971 RMK T03000280 IEM_DS3505
ZBAA,2006-07-15 12:00,ZBAA 151200Z AUTO 11004KT 5SM 30/24 A2971 RMK SLP054 T02980242 52002 IEM_DS3505
ZBAA,2006-07-15 13:00,ZBAA 151300Z AUTO 12012KT 2SM 29/25 A2971 RMK T02900250 IEM_DS3505
ZBAA,2006-07-15 14:00,ZBAA 151400Z AUTO 10010KT 2 1/2SM 28/25 A2974 RMK T02800250 IEM_DS3505
ZBAA,2006-07-15 15:00,ZBAA 151500Z AUTO 09006KT 5SM 28/23 A2974 RMK SLP064 T02750233 52010 IEM_DS3505
ZBAA,2006-07-15 16:00,ZBAA 151600Z AUTO 12004KT 3SM 27/25 A2974 RMK T02700250 IEM_DS3505
ZBAA,2006-07-15 17:00,ZBAA 151700Z AUTO 08004KT 3SM 27/25 A2974 RMK T02700250 IEM_DS3505
ZBAA,2006-07-15 18:00,ZBAA 151800Z AUTO 09004KT 4SM 26/24 A2974 RMK SLP063 T02620235 57001 IEM_DS3505
ZBAA,2006-07-15 19:00,ZBAA 151900Z AUTO 2SM 26/25 A2974 RMK T02600250 IEM_DS3505
ZBAA,2006-07-15 20:00,ZBAA 152000Z AUTO 31002KT 2SM 26/25 A2971 RMK T02600250 IEM_DS3505
ZBAA,2006-07-15 21:00,ZBAA 152100Z AUTO 02002KT 4SM 26/24 A2974 RMK SLP058 T02620235 57005 IEM_DS3505
ZBAA,2006-07-15 22:00,ZBAA 152200Z AUTO 34004KT 2 1/2SM 26/25 A2974 RMK T02600250 IEM_DS3505
ZBAA,2006-07-15 23:00,ZBAA 152300Z AUTO 32006KT 2 1/2SM 27/26 A2974 RMK T02700260 IEM_DS3505
ZBAA,2006-07-16 00:00,ZBAA 160000Z AUTO 02002KT 5SM 28/24 A2974 RMK 60000 70000 SLP062 T02820236 52004 IEM_DS3505
ZBAA,2006-07-16 01:00,ZBAA 160100Z AUTO 34006KT 4SM 30/26 A2974 RMK T03000260 IEM_DS3505
ZBAA,2006-07-16 02:00,ZBAA 160200Z AUTO 01006KT 4SM 31/25 A2974 RMK T03100250 IEM_DS3505
ZBAA,2006-07-16 03:00,ZBAA 160300Z AUTO 09006KT 7SM 32/23 A2974 RMK SLP059 T03160226 57003 IEM_DS3505
ZBAA,2006-07-16 04:00,ZBAA 160400Z AUTO 06008KT 6SM 33/24 A2971 RMK T03300240 IEM_DS3505
ZBAA,2006-07-16 05:00,ZBAA 160500Z AUTO 10004KT 6SM 33/23 A2971 RMK T03300230 IEM_DS3505
ZBAA,2006-07-16 06:00,ZBAA 160600Z AUTO 11004KT 7SM 33/21 A2968 RMK SLP047 T03280210 57012 IEM_DS3505
ZBAA,2006-07-16 07:00,ZBAA 160700Z AUTO 12010KT 6SM 33/23 A2968 RMK T03300230 IEM_DS3505
ZBAA,2006-07-16 08:00,ZBAA 160800Z AUTO 15012KT 4SM 32/25 A2968 RMK T03200250 IEM_DS3505
ZBAA,2006-07-16 09:00,ZBAA 160900Z AUTO 14006KT 12SM 31/21 A2968 RMK SLP046 T03090214 57001 IEM_DS3505
ZBAA,2006-07-16 10:00,ZBAA 161000Z AUTO 15010KT 6SM 30/24 A2968 RMK T03000240 IEM_DS3505
ZBAA,2006-07-16 11:00,ZBAA 161100Z AUTO 14006KT 6SM 30/25 A2971 RMK T03000250 IEM_DS3505
ZBAA,2006-07-16 12:00,ZBAA 161200Z AUTO 16006KT 12SM 28/21 A2971 RMK SLP056 T02760212 52010 IEM_DS3505
ZBAA,2006-07-16 13:00,ZBAA 161300Z AUTO 16008KT 5SM 27/25 A2974 RMK T02700250 IEM_DS3505
ZBAA,2006-07-16 14:00,ZBAA 161400Z AUTO 17006KT 6SM 25/24 A2974 RMK T02500240 IEM_DS3505
ZBAA,2006-07-16 15:00,ZBAA 161500Z AUTO 11004KT 12SM 26/20 A2974 RMK SLP060 T02590198 52004 IEM_DS3505
ZBAA,2006-07-16 16:00,ZBAA 161600Z AUTO 16004KT 6SM 25/24 A2974 RMK T02500240 IEM_DS3505
ZBAA,2006-07-16 17:00,ZBAA 161700Z AUTO 15002KT 6SM 25/24 A2971 RMK T02500240 IEM_DS3505
ZBAA,2006-07-16 18:00,ZBAA 161800Z AUTO 09004KT 9SM 25/21 A2968 RMK SLP049 T02480207 57011 IEM_DS3505
ZBAA,2006-07-16 19:00,ZBAA 161900Z AUTO 11004KT 6SM 25/24 A2968 RMK T02500240 IEM_DS3505
ZBAA,2006-07-16 20:00,ZBAA 162000Z AUTO 10004KT 6SM 25/24 A2968 RMK T02500240 IEM_DS3505
ZBAA,2006-07-16 21:00,ZBAA 162100Z AUTO 11004KT 12SM 25/20 A2968 RMK 70000 SLP041 T02460203 57008 IEM_DS3505
ZBAA,2006-07-16 22:00,ZBAA 162200Z AUTO 12006KT 6SM 24/23 A2968 RMK T02400230 IEM_DS3505
ZBAA,2006-07-16 23:00,ZBAA 162300Z AUTO 16004KT 6SM 24/23 A2968 RMK T02400230 IEM_DS3505
ZBAA,2006-07-17 00:00,ZBAA 170000Z AUTO 07002KT 9SM 25/20 A2968 RMK SLP046 T02480196 52005 IEM_DS3505
ZBAA,2006-07-17 01:00,ZBAA 170100Z AUTO 14002KT 4SM 26/24 A2968 RMK T02600240 IEM_DS3505
ZBAA,2006-07-17 02:00,ZBAA 170200Z AUTO 10004KT 2 1/2SM 26/24 A2968 RMK T02600240 IEM_DS3505
ZBAA,2006-07-17 03:00,ZBAA 170300Z AUTO 09006KT 9SM 27/20 A2968 RMK SLP041 T02740205 57005 IEM_DS3505
ZBAA,2006-07-17 04:00,ZBAA 170400Z AUTO 11004KT 2SM 28/24 A2968 RMK T02800240 IEM_DS3505
ZBAA,2006-07-17 05:00,ZBAA 170500Z AUTO 11006KT 1 1/2SM 28/23 A2965 RMK T02800230 IEM_DS3505
ZBAA,2006-07-17 06:00,ZBAA 170600Z AUTO 11006KT 12SM 29/18 A2965 RMK SLP031 T02930175 57010 IEM_DS3505
ZBAA,2006-07-17 07:00,ZBAA 170700Z AUTO 11008KT 2 1/2SM 28/23 A2965 RMK T02800230 IEM_DS3505
ZBAA,2006-07-17 08:00,ZBAA 170800Z AUTO 11008KT 4SM 28/22 A2965 RMK T02800220 IEM_DS3505
ZBAA,2006-07-17 09:00,ZBAA 170900Z AUTO 09008KT 16SM 28/20 A2965 RMK SLP028 T02850197 57003 IEM_DS3505
ZBAA,2006-07-17 10:00,ZBAA 171000Z AUTO 12008KT 4SM 28/22 A2965 RMK T02800220 IEM_DS3505
ZBAA,2006-07-17 11:00,ZBAA 171100Z AUTO 12008KT 4SM 27/22 A2965 RMK T02700220 IEM_DS3505
ZBAA,2006-07-17 12:00,ZBAA 171200Z AUTO 16010KT 16SM 26/19 A2965 RMK SLP034 T02560190 52006 IEM_DS3505
ZBAA,2006-07-17 13:00,ZBAA 171300Z AUTO 14010KT 7SM 25/22 A2965 RMK T02500220 IEM_DS3505
ZBAA,2006-07-17 14:00,ZBAA 171400Z AUTO 13008KT 7SM 24/21 A2968 RMK T02400210 IEM_DS3505
ZBAA,2006-07-17 15:00,ZBAA 171500Z AUTO 16008KT 16SM 24/18 A2965 RMK SLP038 T02350184 52004 IEM_DS3505
ZBAA,2006-07-17 16:00,ZBAA 171600Z AUTO 13008KT 7SM 23/21 A2965 RMK T02300210 IEM_DS3505
ZBAA,2006-07-17 17:00,ZBAA 171700Z AUTO 12008KT 7SM 22/20 A2965 RMK T02200200 IEM_DS3505
ZBAA,2006-07-17 18:00,ZBAA 171800Z AUTO 14004KT 16SM 22/19 A2965 RMK 60000 SLP027 T02240188 57011 IEM_DS3505
ZBAA,2006-07-17 19:00,ZBAA 171900Z AUTO 11004KT 2 1/2SM 21/20 A2962 RMK T02100200 IEM_DS3505
ZBAA,2006-07-17 20:00,ZBAA 172000Z AUTO 10006KT 2 1/2SM 20/20 A2962 RMK T02000200 IEM_DS3505
ZBAA,2006-07-17 21:00,ZBAA 172100Z AUTO 07006KT 6SM 21/19 A2962 RMK 70017 SLP025 T02060193 57002 IEM_DS3505
ZBAA,2006-07-17 22:00,ZBAA 172200Z AUTO 10006KT 1SM 20/20 A2965 RMK T02000200 IEM_DS3505
ZBAA,2006-07-17 23:00,ZBAA 172300Z AUTO 09006KT 1SM 20/20 A2965 RMK T02000200 IEM_DS3505
ZBAA,2006-07-18 00:00,ZBAA 180000Z AUTO 07006KT 4SM 20/19 A2965 RMK 60024 70024 SLP032 T02050192 52006 IEM_DS3505
ZBAA,2006-07-18 01:00,ZBAA 180100Z AUTO 02006KT 1SM 20/20 A2965 RMK T02000200 IEM_DS3505
ZBAA,2006-07-18 02:00,ZBAA 180200Z AUTO 04004KT 1 1/2SM 20/20 A2965 RMK T02000200 IEM_DS3505
ZBAA,2006-07-18 03:00,ZBAA 180300Z AUTO 07006KT 2 1/2SM 21/20 A2968 RMK SLP038 T02080195 52006 IEM_DS3505
ZBAA,2006-07-18 04:00,ZBAA 180400Z AUTO 11008KT 2 1/2SM 21/21 A2968 RMK T02100210 IEM_DS3505
ZBAA,2006-07-18 05:00,ZBAA 180500Z AUTO 10006KT 3SM 21/21 A2968 RMK T02100210 IEM_DS3505
ZBAA,2006-07-18 06:00,ZBAA 180600Z AUTO 09006KT 5SM 22/20 A2968 RMK 60004 SLP040 T02170198 52002 IEM_DS3505
ZBAA,2006-07-18 07:00,ZBAA 180700Z AUTO 06006KT 3SM 22/21 A2968 RMK T02200210 IEM_DS3505
ZBAA,2006-07-18 08:00,ZBAA 180800Z AUTO 08002KT 5SM 22/21 A2968 RMK T02200210 IEM_DS3505
ZBAA,2006-07-18 09:00,ZBAA 180900Z AUTO 09006KT 6SM 22/19 A2971 RMK SLP048 T02180192 52008 IEM_DS3505
ZBAA,2006-07-18 10:00,ZBAA 181000Z AUTO 18002KT 2SM 21/21 A2971 RMK T02100210 IEM_DS3505
ZBAA,2006-07-18 11:00,ZBAA 181100Z AUTO 12004KT 2 1/2SM 22/21 A2971 RMK T02200210 IEM_DS3505
ZBAA,2006-07-18 12:00,ZBAA 181200Z AUTO 07004KT 6SM 22/19 A2974 RMK 60000 SLP060 T02170193 52012 IEM_DS3505
ZBAA,2006-07-18 13:00,ZBAA 181300Z AUTO 4SM 22/21 A2974 RMK T02200210 IEM_DS3505
ZBAA,2006-07-18 14:00,ZBAA 181400Z AUTO 24002KT 2 1/2SM 22/21 A2974 RMK T02200210 IEM_DS3505
ZBAA,2006-07-18 15:00,ZBAA 181500Z AUTO 09004KT 6SM 22/19 A2974 RMK SLP066 T02160190 52006 IEM_DS3505
ZBAA,2006-07-18 16:00,ZBAA 181600Z AUTO 2 1/2SM 21/20 A2974 RMK T02100200 IEM_DS3505
ZBAA,2006-07-18 17:00,ZBAA 181700Z AUTO 00000KT 2 1/2SM 22/20 A2974 RMK T02200200 IEM_DS3505
ZBAA,2006-07-18 18:00,ZBAA 181800Z AUTO 00000KT 4SM 22/19 A2971 RMK SLP056 T02150192 57010 IEM_DS3505
ZBAA,2006-07-18 19:00,ZBAA 181900Z AUTO 24002KT 1 1/2SM 21/21 A2971 RMK T02100210 IEM_DS3505
ZBAA,2006-07-18 20:00,ZBAA 182000Z AUTO 28002KT 1 1/2SM 21/21 A2971 RMK T02100210 IEM_DS3505
ZBAA,2006-07-18 21:00,ZBAA 182100Z AUTO 34002KT 4SM 22/19 A2971 RMK 70012 SLP058 T02170191 52002 IEM_DS3505
ZBAA,2006-07-18 22:00,ZBAA 182200Z AUTO 10004KT 2SM 22/21 A2971 RMK T02200210 IEM_DS3505
ZBAA,2006-07-18 23:00,ZBAA 182300Z AUTO 00000KT 2SM 22/22 A2971 RMK T02200220 IEM_DS3505
ZBAA,2006-07-19 00:00,ZBAA 190000Z AUTO 22004KT 5SM 23/20 A2971 RMK 70005 SLP058 T02290197 54000 IEM_DS3505
ZBAA,2006-07-19 01:00,ZBAA 190100Z AUTO 1 1/2SM 24/21 A2971 RMK T02400210 IEM_DS3505
ZBAA,2006-07-19 02:00,ZBAA 190200Z AUTO 03004KT 1 1/2SM 25/22 A2971 RMK T02500220 IEM_DS3505
ZBAA,2006-07-19 03:00,ZBAA 190300Z AUTO 27002KT 7SM 26/20 A2971 RMK SLP056 T02590195 57002 IEM_DS3505
ZBAA,2006-07-19 04:00,ZBAA 190400Z AUTO 15006KT 2 1/2SM 26/22 A2971 RMK T02600220 IEM_DS3505
ZBAA,2006-07-19 05:00,ZBAA 190500Z AUTO 17006KT 2 1/2SM 27/22 A2968 RMK T02700220 IEM_DS3505
ZBAA,2006-07-19 06:00,ZBAA 190600Z AUTO 27004KT 7SM 28/20 A2968 RMK SLP039 T02760199 57016 IEM_DS3505
ZBAA,2006-07-19 07:00,ZBAA 190700Z AUTO 16006KT 2 1/2SM 27/22 A2965 RMK T02700220 IEM_DS3505
ZBAA,2006-07-19 08:00,ZBAA 190800Z AUTO 15006KT 3SM 28/22 A2965 RMK T02800220 IEM_DS3505
ZBAA,2006-07-19 09:00,ZBAA 190900Z AUTO 18006KT 9SM 28/20 A2965 RMK SLP031 T02750196 57008 IEM_DS3505
ZBAA,2006-07-19 10:00,ZBAA 191000Z AUTO 17006KT 4SM 27/22 A2962 RMK T02700220 IEM_DS3505
ZBAA,2006-07-19 11:00,ZBAA 191100Z AUTO 16006KT 3SM 26/23 A2965 RMK T02600230 IEM_DS3505
ZBAA,2006-07-19 12:00,ZBAA 191200Z AUTO 18004KT 9SM 26/20 A2965 RMK SLP032 T02600203 52001 IEM_DS3505
ZBAA,2006-07-19 13:00,ZBAA 191300Z AUTO 17004KT 4SM 24/22 A2965 RMK T02400220 IEM_DS3505
ZBAA,2006-07-19 14:00,ZBAA 191400Z AUTO 16004KT 3SM 25/23 A2965 RMK T02500230 IEM_DS3505
ZBAA,2006-07-19 15:00,ZBAA 191500Z AUTO 18002KT 7SM 25/21 A2965 RMK SLP034 T02500209 52002 IEM_DS3505
ZBAA,2006-07-19 16:00,ZBAA 191600Z AUTO 16006KT 2 1/2SM 24/23 A2962 RMK T02400230 IEM_DS3505
ZBAA,2006-07-19 17:00,ZBAA 191700Z AUTO 17006KT 2 1/2SM 24/23 A2962 RMK T02400230 IEM_DS3505
ZBAA,2006-07-19 18:00,ZBAA 191800Z AUTO 18006KT 6SM 24/21 A2962 RMK SLP018 T02390208 57016 IEM_DS3505
ZBAA,2006-07-19 19:00,ZBAA 191900Z AUTO 15004KT 1 1/2SM 23/23 A2962 RMK T02300230 IEM_DS3505
ZBAA,2006-07-19 20:00,ZBAA 192000Z AUTO 14004KT 1 1/4SM 23/23 A2962 RMK T02300230 IEM_DS3505
ZBAA,2006-07-19 21:00,ZBAA 192100Z AUTO 22002KT 2 1/2SM 23/21 A2962 RMK 70004 SLP021 T02310214 52003 IEM_DS3505
ZBAA,2006-07-19 22:00,ZBAA 192200Z AUTO 19004KT 1SM 23/23 A2962 RMK T02300230 IEM_DS3505
ZBAA,2006-07-19 23:00,ZBAA 192300Z AUTO 18004KT 1SM 23/23 A2962 RMK T02300230 IEM_DS3505
ZBAA,2006-07-20 00:00,ZBAA 200000Z AUTO 22006KT 2 1/2SM 25/22 A2962 RMK 60004 70004 SLP022 T02490218 52001 IEM_DS3505
ZBAA,2006-07-20 01:00,ZBAA 200100Z AUTO 1 1/4SM 26/24 A2962 RMK T02600240 IEM_DS3505
ZBAA,2006-07-20 02:00,ZBAA 200200Z AUTO 14004KT 1 1/4SM 27/25 A2959 RMK T02700250 IEM_DS3505
ZBAA,2006-07-20 03:00,ZBAA 200300Z AUTO 20008KT 4SM 28/22 A2959 RMK SLP011 T02850220 57011 IEM_DS3505
ZBAA,2006-07-20 04:00,ZBAA 200400Z AUTO 17006KT 1 1/4SM 29/25 A2956 RMK T02900250 IEM_DS3505
ZBAA,2006-07-20 05:00,ZBAA 200500Z AUTO 17006KT 3SM 30/25 A2953 RMK T03000250 IEM_DS3505
ZBAA,2006-07-20 06:00,ZBAA 200600Z AUTO 20008KT 6SM 31/23 A2950 RMK SLP986 T03090230 57025 IEM_DS3505
ZBAA,2006-07-20 07:00,ZBAA 200700Z AUTO 19008KT 2SM 31/26 A2947 RMK T03100260 IEM_DS3505
ZBAA,2006-07-20 08:00,ZBAA 200800Z AUTO 19006KT 2 1/2SM 32/26 A2947 RMK T03200260 IEM_DS3505
ZBAA,2006-07-20 09:00,ZBAA 200900Z AUTO 20010KT 6SM 32/23 A2944 RMK SLP968 T03160229 57018 IEM_DS3505
ZBAA,2006-07-20 10:00,ZBAA 201000Z AUTO 17008KT 2SM 31/26 A2944 RMK T03100260 IEM_DS3505
ZBAA,2006-07-20 11:00,ZBAA 201100Z AUTO 12006KT 2 1/2SM 30/26 A2947 RMK T03000260 IEM_DS3505
ZBAA,2006-07-20 12:00,ZBAA 201200Z AUTO 16004KT 5SM 30/24 A2947 RMK SLP976 T03010235 52008 IEM_DS3505
ZBAA,2006-07-20 13:00,ZBAA 201300Z AUTO 04004KT 3SM 27/24 A2950 RMK T02700240 IEM_DS3505
ZBAA,2006-07-20 14:00,ZBAA 201400Z AUTO 03006KT 3SM 26/24 A2950 RMK T02600240 IEM_DS3505
ZBAA,2006-07-20 15:00,ZBAA 201500Z AUTO 22002KT 4SM 28/24 A2950 RMK SLP983 T02770237 52007 IEM_DS3505
ZBAA,2006-07-20 16:00,ZBAA 201600Z AUTO 36002KT 1 1/2SM 26/24 A2950 RMK T02600240 IEM_DS3505
ZBAA,2006-07-20 17:00,ZBAA 201700Z AUTO 30006KT 1 1/2SM 25/24 A2950 RMK T02500240 IEM_DS3505
ZBAA,2006-07-20 18:00,ZBAA 201800Z AUTO 20002KT 2 1/2SM 26/24 A2950 RMK SLP985 T02640237 52002 IEM_DS3505
ZBAA,2006-07-20 19:00,ZBAA 201900Z AUTO 29006KT 1 1/4SM 25/25 A2950 RMK T02500250 IEM_DS3505
ZBAA,2006-07-20 20:00,ZBAA 202000Z AUTO 31010KT 4SM 26/22 A2953 RMK T02600220 IEM_DS3505
ZBAA,2006-07-20 21:00,ZBAA 202100Z AUTO 36004KT 7SM 27/20 A2953 RMK 70000 SLP994 T02670198 52009 IEM_DS3505
ZBAA,2006-07-20 22:00,ZBAA 202200Z AUTO 01006KT 6SM 25/20 A2956 RMK T02500200 IEM_DS3505
ZBAA,2006-07-20 23:00,ZBAA 202300Z AUTO 34008KT 6SM 25/22 A2956 RMK T02500220 IEM_DS3505
ZBAA,2006-07-21 00:00,ZBAA 210000Z AUTO 36010KT 19SM 30/12 A2959 RMK SLP005 T02980123 52011 IEM_DS3505
ZBAA,2006-07-21 01:00,ZBAA 210100Z AUTO 35010KT 6SM 29/19 A2959 RMK T02900190 IEM_DS3505
ZBAA,2006-07-21 02:00,ZBAA 210200Z AUTO 33010KT 6SM 30/19 A2959 RMK T03000190 IEM_DS3505
ZBAA,2006-07-21 03:00,ZBAA 210300Z AUTO 02010KT 19SM 31/12 A2959 RMK SLP014 T03140118 52009 IEM_DS3505
ZBAA,2006-07-21 04:00,ZBAA 210400Z AUTO 35010KT 6SM 32/17 A2959 RMK T03200170 IEM_DS3505
ZBAA,2006-07-21 05:00,ZBAA 210500Z AUTO 33010KT 6SM 33/18 A2959 RMK T03300180 IEM_DS3505
ZBAA,2006-07-21 06:00,ZBAA 210600Z AUTO 02008KT 19SM 34/11 A2956 RMK SLP007 T03370110 57007 IEM_DS3505
ZBAA,2006-07-21 07:00,ZBAA 210700Z AUTO 36008KT 6SM 34/16 A2956 RMK T03400160 IEM_DS3505
ZBAA,2006-07-21 08:00,ZBAA 210800Z AUTO 35008KT 6SM 34/16 A2956 RMK T03400160 IEM_DS3505
ZBAA,2006-07-21 09:00,ZBAA 210900Z AUTO 02012KT 19SM 34/10 A2956 RMK SLP002 T03430095 57005 IEM_DS3505
ZBAA,2006-07-21 10:00,ZBAA 211000Z AUTO 32010KT 6SM 34/16 A2956 RMK T03400160 IEM_DS3505
ZBAA,2006-07-21 11:00,ZBAA 211100Z AUTO 31008KT 6SM 32/15 A2959 RMK T03200150 IEM_DS3505
ZBAA,2006-07-21 12:00,ZBAA 211200Z AUTO 36002KT 19SM 32/11 A2959 RMK SLP018 T03210108 52016 IEM_DS3505
ZBAA,2006-07-21 13:00,ZBAA 211300Z AUTO 35006KT 6SM 28/18 A2962 RMK T02800180 IEM_DS3505
ZBAA,2006-07-21 14:00,ZBAA 211400Z AUTO 34006KT 6SM 29/18 A2965 RMK T02900180 IEM_DS3505
ZBAA,2006-07-21 15:00,ZBAA 211500Z AUTO 04002KT 9SM 29/13 A2968 RMK SLP039 T02880131 52021 IEM_DS3505
ZBAA,2006-07-21 16:00,ZBAA 211600Z AUTO 33004KT 6SM 25/19 A2968 RMK T02500190 IEM_DS3505
ZBAA,2006-07-21 17:00,ZBAA 211700Z AUTO 34006KT 6SM 24/19 A2971 RMK T02400190 IEM_DS3505
ZBAA,2006-07-21 18:00,ZBAA 211800Z AUTO 02004KT 9SM 27/13 A2971 RMK SLP050 T02720132 52011 IEM_DS3505
ZBAA,2006-07-21 19:00,ZBAA 211900Z AUTO 36010KT 6SM 27/15 A2971 RMK T02700150 IEM_DS3505
ZBAA,2006-07-21 20:00,ZBAA 212000Z AUTO 01008KT 6SM 26/15 A2971 RMK T02600150 IEM_DS3505
ZBAA,2006-07-21 21:00,ZBAA 212100Z AUTO 04006KT 12SM 26/13 A2974 RMK SLP058 T02640128 52008 IEM_DS3505
ZBAA,2006-07-21 22:00,ZBAA 212200Z AUTO 01008KT 6SM 26/14 A2974 RMK T02600140 IEM_DS3505
ZBAA,2006-07-21 23:00,ZBAA 212300Z AUTO 36010KT 6SM 26/15 A2977 RMK T02600150 IEM_DS3505
ZBAA,2006-07-22 00:00,ZBAA 220000Z AUTO 02006KT 12SM 27/11 A2977 RMK SLP076 T02680113 52018 IEM_DS3505
ZBAA,2006-07-22 01:00,ZBAA 220100Z AUTO 01008KT 6SM 27/14 A2977 RMK T02700140 IEM_DS3505
ZBAA,2006-07-22 02:00,ZBAA 220200Z AUTO 01012KT 6SM 28/14 A2980 RMK T02800140 IEM_DS3505
ZBAA,2006-07-22 03:00,ZBAA 220300Z AUTO 02008KT 19SM 29/09 A2980 RMK SLP079 T02930094 52003 IEM_DS3505
ZBAA,2006-07-22 04:00,ZBAA 220400Z AUTO 36006KT 6SM 29/15 A2977 RMK T02900150 IEM_DS3505
ZBAA,2006-07-22 05:00,ZBAA 220500Z AUTO 02008KT 6SM 30/13 A2977 RMK T03000130 IEM_DS3505
ZBAA,2006-07-22 06:00,ZBAA 220600Z AUTO 07004KT 19SM 31/10 A2974 RMK SLP065 T03080097 57014 IEM_DS3505
ZBAA,2006-07-22 07:00,ZBAA 220700Z AUTO 09006KT 6SM 31/13 A2974 RMK T03100130 IEM_DS3505
ZBAA,2006-07-22 08:00,ZBAA 220800Z AUTO 14006KT 6SM 31/12 A2971 RMK T03100120 IEM_DS3505
ZBAA,2006-07-22 09:00,ZBAA 220900Z AUTO 09004KT 19SM 31/10 A2971 RMK SLP053 T03110099 57012 IEM_DS3505
ZBAA,2006-07-22 10:00,ZBAA 221000Z AUTO 14006KT 6SM 30/13 A2971 RMK T03000130 IEM_DS3505
ZBAA,2006-07-22 11:00,ZBAA 221100Z AUTO 13006KT 6SM 29/15 A2971 RMK T02900150 IEM_DS3505
ZBAA,2006-07-22 12:00,ZBAA 221200Z AUTO 18004KT 19SM 28/12 A2974 RMK SLP058 T02840119 52005 IEM_DS3505
ZBAA,2006-07-22 13:00,ZBAA 221300Z AUTO 17004KT 6SM 26/17 A2974 RMK T02600170 IEM_DS3505
ZBAA,2006-07-22 14:00,ZBAA 221400Z AUTO 16006KT 6SM 25/16 A2974 RMK T02500160 IEM_DS3505
ZBAA,2006-07-22 15:00,ZBAA 221500Z AUTO 20004KT 19SM 26/15 A2974 RMK SLP060 T02560153 52002 IEM_DS3505
ZBAA,2006-07-22 16:00,ZBAA 221600Z AUTO 15004KT 6SM 24/18 A2971 RMK T02400180 IEM_DS3505
ZBAA,2006-07-22 17:00,ZBAA 221700Z AUTO 16004KT 6SM 23/18 A2971 RMK T02300180 IEM_DS3505
ZBAA,2006-07-22 18:00,ZBAA 221800Z AUTO 22006KT 12SM 23/17 A2968 RMK SLP049 T02280170 57011 IEM_DS3505
ZBAA,2006-07-22 19:00,ZBAA 221900Z AUTO 08004KT 6SM 23/19 A2968 RMK T02300190 IEM_DS3505
ZBAA,2006-07-22 20:00,ZBAA 222000Z AUTO 12006KT 6SM 22/19 A2968 RMK T02200190 IEM_DS3505
ZBAA,2006-07-22 21:00,ZBAA 222100Z AUTO 22004KT 12SM 21/17 A2968 RMK SLP046 T02140172 57003 IEM_DS3505
ZBAA,2006-07-22 22:00,ZBAA 222200Z AUTO 13004KT 4SM 22/20 A2968 RMK T02200200 IEM_DS3505
ZBAA,2006-07-22 23:00,ZBAA 222300Z AUTO 12006KT 3SM 22/20 A2971 RMK T02200200 IEM_DS3505
ZBAA,2006-07-23 00:00,ZBAA 230000Z AUTO 22004KT 9SM 22/19 A2971 RMK 60000 70001 SLP050 T02240188 52004 IEM_DS3505
ZBAA,2006-07-23 01:00,ZBAA 230100Z AUTO 10004KT 3SM 23/20 A2968 RMK T02300200 IEM_DS3505
ZBAA,2006-07-23 02:00,ZBAA 230200Z AUTO 05004KT 3SM 24/21 A2968 RMK T02400210 IEM_DS3505
ZBAA,2006-07-23 03:00,ZBAA 230300Z AUTO 25008KT 9SM 27/18 A2968 RMK SLP043 T02720179 57007 IEM_DS3505
ZBAA,2006-07-23 04:00,ZBAA 230400Z AUTO 05006KT 2 1/2SM 24/22 A2968 RMK T02400220 IEM_DS3505
ZBAA,2006-07-23 05:00,ZBAA 230500Z AUTO 07004KT 2 1/2SM 26/23 A2965 RMK T02600230 IEM_DS3505
ZBAA,2006-07-23 06:00,ZBAA 230600Z AUTO 16006KT 9SM 28/18 A2962 RMK 60000 SLP025 T02850183 57018 IEM_DS3505
ZBAA,2006-07-23 07:00,ZBAA 230700Z AUTO 08006KT 4SM 28/23 A2962 RMK T02800230 IEM_DS3505
ZBAA,2006-07-23 08:00,ZBAA 230800Z AUTO 12008KT 5SM 29/22 A2959 RMK T02900220 IEM_DS3505
ZBAA,2006-07-23 09:00,ZBAA 230900Z AUTO 16004KT 12SM 29/15 A2962 RMK SLP017 T02930151 57008 IEM_DS3505
ZBAA,2006-07-23 10:00,ZBAA 231000Z AUTO 06008KT 5SM 27/21 A2962 RMK T02700210 IEM_DS3505
ZBAA,2006-07-23 11:00,ZBAA 231100Z AUTO 36010KT 2 1/2SM 23/21 A2968 RMK T02300210 IEM_DS3505
ZBAA,2006-07-23 12:00,ZBAA 231200Z AUTO 07012KT 7SM 23/18 A2965 RMK 60000 SLP044 T02270183 52026 IEM_DS3505
ZBAA,2006-07-23 13:00,ZBAA 231300Z AUTO 34010KT 4SM 21/20 A2968 RMK T02100200 IEM_DS3505
ZBAA,2006-07-23 14:00,ZBAA 231400Z AUTO 34006KT 2 1/2SM 21/20 A2968 RMK T02100200 IEM_DS3505
ZBAA,2006-07-23 15:00,ZBAA 231500Z AUTO 02004KT 9SM 22/18 A2968 RMK SLP043 T02180184 54000 IEM_DS3505
ZBAA,2006-07-23 16:00,ZBAA 231600Z AUTO 34008KT 3SM 20/20 A2968 RMK T02000200 IEM_DS3505
ZBAA,2006-07-23 17:00,ZBAA 231700Z AUTO 01006KT 4SM 20/20 A2965 RMK T02000200 IEM_DS3505
ZBAA,2006-07-23 18:00,ZBAA 231800Z AUTO 02002KT 7SM 21/18 A2965 RMK 60000 SLP041 T02110175 57002 IEM_DS3505
ZBAA,2006-07-23 19:00,ZBAA 231900Z AUTO 30006KT 4SM 20/19 A2968 RMK T02000190 IEM_DS3505
ZBAA,2006-07-23 20:00,ZBAA 232000Z AUTO 32008KT 4SM 20/19 A2965 RMK T02000190 IEM_DS3505
ZBAA,2006-07-23 21:00,ZBAA 232100Z AUTO 02002KT 9SM 20/17 A2965 RMK 70002 SLP037 T02040172 57004 IEM_DS3505
ZBAA,2006-07-23 22:00,ZBAA 232200Z AUTO 01006KT 3SM 20/19 A2968 RMK T02000190 IEM_DS3505
ZBAA,2006-07-23 23:00,ZBAA 232300Z AUTO 32006KT 5SM 22/20 A2968 RMK T02200200 IEM_DS3505
ZBAA,2006-07-24 00:00,ZBAA 240000Z AUTO 04006KT 7SM 24/17 A2968 RMK 70001 SLP049 T02350173 52011 IEM_DS3505
ZBAA,2006-07-24 01:00,ZBAA 240100Z AUTO 01004KT 5SM 23/21 A2971 RMK T02300210 IEM_DS3505
ZBAA,2006-07-24 02:00,ZBAA 240200Z AUTO 5SM 25/20 A2971 RMK T02500200 IEM_DS3505
ZBAA,2006-07-24 03:00,ZBAA 240300Z AUTO 04006KT 7SM 27/18 A2971 RMK SLP050 T02670180 52002 IEM_DS3505
ZBAA,2006-07-24 04:00,ZBAA 240400Z AUTO 08004KT 5SM 27/21 A2971 RMK T02700210 IEM_DS3505
ZBAA,2006-07-24 05:00,ZBAA 240500Z AUTO 08006KT 5SM 27/20 A2971 RMK T02700200 IEM_DS3505
ZBAA,2006-07-24 06:00,ZBAA 240600Z AUTO 07008KT 9SM 28/18 A2968 RMK SLP038 T02810176 57012 IEM_DS3505
ZBAA,2006-07-24 07:00,ZBAA 240700Z AUTO 10008KT 4SM 28/21 A2968 RMK T02800210 IEM_DS3505
ZBAA,2006-07-24 08:00,ZBAA 240800Z AUTO 36014KT 1 1/4SM 21/21 A2971 RMK T02100210 IEM_DS3505
ZBAA,2006-07-24 09:00,ZBAA 240900Z AUTO 11014KT 9SM 24/17 A2974 RMK SLP055 T02390172 52016 IEM_DS3505
ZBAA,2006-07-24 10:00,ZBAA 241000Z AUTO 03012KT 5SM 20/19 A2977 RMK T02000190 IEM_DS3505
ZBAA,2006-07-24 11:00,ZBAA 241100Z AUTO 01010KT 2SM 19/19 A2980 RMK T01900190 IEM_DS3505
ZBAA,2006-07-24 12:00,ZBAA 241200Z AUTO 04004KT 7SM 19/18 A2983 RMK 60063 SLP087 T01940179 52032 IEM_DS3505
ZBAA,2006-07-24 13:00,ZBAA 241300Z AUTO 02008KT 7SM 19/18 A2983 RMK T01900180 IEM_DS3505
ZBAA,2006-07-24 14:00,ZBAA 241400Z AUTO 01010KT 7SM 20/19 A2983 RMK T02000190 IEM_DS3505
ZBAA,2006-07-24 15:00,ZBAA 241500Z AUTO 04004KT 9SM 20/17 A2983 RMK SLP096 T01970171 52009 IEM_DS3505
ZBAA,2006-07-24 16:00,ZBAA 241600Z AUTO 36010KT 7SM 20/19 A2983 RMK T02000190 IEM_DS3505
ZBAA,2006-07-24 17:00,ZBAA 241700Z AUTO 35006KT 7SM 20/18 A2985 RMK T02000180 IEM_DS3505
ZBAA,2006-07-24 18:00,ZBAA 241800Z AUTO 02004KT 9SM 20/16 A2985 RMK 60004 SLP099 T02000164 52003 IEM_DS3505
ZBAA,2006-07-24 19:00,ZBAA 241900Z AUTO 02008KT 7SM 20/17 A2983 RMK T02000170 IEM_DS3505
ZBAA,2006-07-24 20:00,ZBAA 242000Z AUTO 01008KT 7SM 20/17 A2985 RMK T02000170 IEM_DS3505
ZBAA,2006-07-24 21:00,ZBAA 242100Z AUTO 04004KT 12SM 20/16 A2985 RMK 70065 SLP100 T01970156 52001 IEM_DS3505
ZBAA,2006-07-24 22:00,ZBAA 242200Z AUTO 01008KT 7SM 20/17 A2985 RMK T02000170 IEM_DS3505
ZBAA,2006-07-24 23:00,ZBAA 242300Z AUTO 36008KT 7SM 20/18 A2988 RMK T02000180 IEM_DS3505
ZBAA,2006-07-25 00:00,ZBAA 250000Z AUTO 04004KT 12SM 20/15 A2988 RMK 70065 SLP115 T02030153 52015 IEM_DS3505
ZBAA,2006-07-25 01:00,ZBAA 250100Z AUTO 02006KT 7SM 21/17 A2988 RMK T02100170 IEM_DS3505
ZBAA,2006-07-25 02:00,ZBAA 250200Z AUTO 06006KT 7SM 21/17 A2991 RMK T02100170 IEM_DS3505
ZBAA,2006-07-25 03:00,ZBAA 250300Z AUTO 07004KT 12SM 20/15 A2991 RMK SLP127 T02000154 52012 IEM_DS3505
ZBAA,2006-07-25 04:00,ZBAA 250400Z AUTO 19004KT 7SM 21/18 A2991 RMK T02100180 IEM_DS3505
ZBAA,2006-07-25 05:00,ZBAA 250500Z AUTO 19008KT 5SM 19/18 A2994 RMK T01900180 IEM_DS3505
ZBAA,2006-07-25 06:00,ZBAA 250600Z AUTO 07010KT 6SM 18/17 A2994 RMK 60008 SLP130 T01850168 52003 IEM_DS3505
ZBAA,2006-07-25 07:00,ZBAA 250700Z AUTO 15006KT 5SM 20/19 A2994 RMK T02000190 IEM_DS3505
ZBAA,2006-07-25 08:00,ZBAA 250800Z AUTO 17004KT 5SM 20/18 A2994 RMK T02000180 IEM_DS3505
ZBAA,2006-07-25 09:00,ZBAA 250900Z AUTO 02002KT 6SM 19/17 A2991 RMK SLP129 T01920166 57001 IEM_DS3505
ZBAA,2006-07-25 10:00,ZBAA 251000Z AUTO 28006KT 4SM 20/18 A2991 RMK T02000180 IEM_DS3505
ZBAA,2006-07-25 11:00,ZBAA 251100Z AUTO 35006KT 5SM 21/17 A2991 RMK T02100170 IEM_DS3505
ZBAA,2006-07-25 12:00,ZBAA 251200Z AUTO 04002KT 6SM 20/16 A2994 RMK 60000 SLP137 T02010159 52008 IEM_DS3505
ZBAA,2006-07-25 13:00,ZBAA 251300Z AUTO 27006KT 4SM 20/18 A2997 RMK T02000180 IEM_DS3505
ZBAA,2006-07-25 14:00,ZBAA 251400Z AUTO 28004KT 4SM 20/18 A2997 RMK T02000180 IEM_DS3505
ZBAA,2006-07-25 15:00,ZBAA 251500Z AUTO 02002KT 7SM 20/16 A2997 RMK SLP144 T02030163 52007 IEM_DS3505
ZBAA,2006-07-25 16:00,ZBAA 251600Z AUTO 30006KT 4SM 20/19 A2997 RMK T02000190 IEM_DS3505
ZBAA,2006-07-25 17:00,ZBAA 251700Z AUTO 29004KT 2 1/2SM 20/19 A2997 RMK T02000190 IEM_DS3505
ZBAA,2006-07-25 18:00,ZBAA 251800Z AUTO 28004KT 7SM 20/17 A2997 RMK 60000 SLP142 T02000166 57002 IEM_DS3505
ZBAA,2006-07-25 19:00,ZBAA 251900Z AUTO 29002KT 2SM 19/19 A2997 RMK T01900190 IEM_DS3505
ZBAA,2006-07-25 20:00,ZBAA 252000Z AUTO 30002KT 2SM 19/19 A2994 RMK T01900190 IEM_DS3505
ZBAA,2006-07-25 21:00,ZBAA 252100Z AUTO 02002KT 7SM 20/16 A2994 RMK 70006 SLP137 T02000164 57005 IEM_DS3505
ZBAA,2006-07-25 22:00,ZBAA 252200Z AUTO 35004KT 1 1/2SM 19/19 A2994 RMK T01900190 IEM_DS3505
ZBAA,2006-07-25 23:00,ZBAA 252300Z AUTO 33004KT 2 1/2SM 20/20 A2994 RMK T02000200 IEM_DS3505
ZBAA,2006-07-26 00:00,ZBAA 260000Z AUTO 04002KT 6SM 20/17 A2994 RMK 70006 SLP138 T02040166 52001 IEM_DS3505
ZBAA,2006-07-26 01:00,ZBAA 260100Z AUTO 36004KT 5SM 20/19 A2994 RMK T02000190 IEM_DS3505
ZBAA,2006-07-26 02:00,ZBAA 260200Z AUTO 35006KT 5SM 20/19 A2994 RMK T02000190 IEM_DS3505
ZBAA,2006-07-26 03:00,ZBAA 260300Z AUTO 04004KT 7SM 22/16 A2994 RMK SLP137 T02150162 57001 IEM_DS3505
ZBAA,2006-07-26 04:00,ZBAA 260400Z AUTO 33006KT 4SM 20/19 A2994 RMK T02000190 IEM_DS3505
ZBAA,2006-07-26 05:00,ZBAA 260500Z AUTO 35006KT 4SM 20/19 A2994 RMK T02000190 IEM_DS3505
ZBAA,2006-07-26 06:00,ZBAA 260600Z AUTO 34002KT 6SM 20/18 A2991 RMK 60047 SLP126 T01980181 57011 IEM_DS3505
ZBAA,2006-07-26 07:00,ZBAA 260700Z AUTO 35008KT 6SM 20/19 A2991 RMK T02000190 IEM_DS3505
ZBAA,2006-07-26 08:00,ZBAA 260800Z AUTO 35006KT 6SM 20/19 A2988 RMK T02000190 IEM_DS3505
ZBAA,2006-07-26 09:00,ZBAA 260900Z AUTO 04004KT 6SM 21/17 A2988 RMK SLP111 T02100174 57015 IEM_DS3505
ZBAA,2006-07-26 10:00,ZBAA 261000Z AUTO 02008KT 6SM 20/19 A2988 RMK T02000190 IEM_DS3505
ZBAA,2006-07-26 11:00,ZBAA 261100Z AUTO 01004KT 7SM 20/19 A2988 RMK T02000190 IEM_DS3505
ZBAA,2006-07-26 12:00,ZBAA 261200Z AUTO 04004KT 7SM 21/18 A2988 RMK 60000 SLP111 T02070175 54000 IEM_DS3505
ZBAA,2006-07-26 13:00,ZBAA 261300Z AUTO 34004KT 5SM 20/19 A2988 RMK T02000190 IEM_DS3505
ZBAA,2006-07-26 14:00,ZBAA 261400Z AUTO 34006KT 4SM 20/19 A2988 RMK T02000190 IEM_DS3505
ZBAA,2006-07-26 15:00,ZBAA 261500Z AUTO 07002KT 5SM 21/18 A2988 RMK SLP108 T02100178 57003 IEM_DS3505
ZBAA,2006-07-26 16:00,ZBAA 261600Z AUTO 34006KT 4SM 20/19 A2988 RMK T02000190 IEM_DS3505
ZBAA,2006-07-26 17:00,ZBAA 261700Z AUTO 36004KT 4SM 20/19 A2988 RMK T02000190 IEM_DS3505
ZBAA,2006-07-26 18:00,ZBAA 261800Z AUTO 02004KT 4SM 20/18 A2985 RMK 60000 SLP105 T02030181 57003 IEM_DS3505
ZBAA,2006-07-26 19:00,ZBAA 261900Z AUTO 36002KT 2 1/2SM 20/20 A2985 RMK T02000200 IEM_DS3505
ZBAA,2006-07-26 20:00,ZBAA 262000Z AUTO 32002KT 2SM 20/20 A2983 RMK T02000200 IEM_DS3505
ZBAA,2006-07-26 21:00,ZBAA 262100Z AUTO 07004KT 2 1/2SM 21/19 A2983 RMK 70047 SLP092 T02060187 57013 IEM_DS3505
ZBAA,2006-07-26 22:00,ZBAA 262200Z AUTO 04004KT 1 1/2SM 20/20 A2983 RMK T02000200 IEM_DS3505
ZBAA,2006-07-26 23:00,ZBAA 262300Z AUTO 01002KT 1 1/2SM 20/20 A2980 RMK T02000200 IEM_DS3505
ZBAA,2006-07-27 00:00,ZBAA 270000Z AUTO 07002KT 2 1/2SM 22/19 A2983 RMK 70047 SLP095 T02150189 52003 IEM_DS3505
ZBAA,2006-07-27 01:00,ZBAA 270100Z AUTO 1 1/4SM 22/21 A2980 RMK T02200210 IEM_DS3505
ZBAA,2006-07-27 02:00,ZBAA 270200Z AUTO 09006KT 1 1/2SM 23/21 A2977 RMK T02300210 IEM_DS3505
ZBAA,2006-07-27 03:00,ZBAA 270300Z AUTO 09004KT 4SM 24/19 A2980 RMK SLP080 T02420188 57015 IEM_DS3505
ZBAA,2006-07-27 04:00,ZBAA 270400Z AUTO 1 1/2SM 24/21 A2977 RMK T02400210 IEM_DS3505
ZBAA,2006-07-27 05:00,ZBAA 270500Z AUTO 1 1/2SM 24/21 A2977 RMK T02400210 IEM_DS3505
ZBAA,2006-07-27 06:00,ZBAA 270600Z AUTO 34002KT 5SM 26/19 A2977 RMK SLP070 T02620193 57010 IEM_DS3505
ZBAA,2006-07-27 07:00,ZBAA 270700Z AUTO 01004KT 1 1/2SM 25/21 A2974 RMK T02500210 IEM_DS3505
ZBAA,2006-07-27 08:00,ZBAA 270800Z AUTO 1 1/2SM 25/22 A2974 RMK T02500220 IEM_DS3505
ZBAA,2006-07-27 09:00,ZBAA 270900Z AUTO 02002KT 5SM 26/20 A2974 RMK SLP058 T02640200 57012 IEM_DS3505
ZBAA,2006-07-27 10:00,ZBAA 271000Z AUTO 06004KT 1 1/2SM 25/22 A2971 RMK T02500220 IEM_DS3505
ZBAA,2006-07-27 11:00,ZBAA 271100Z AUTO 05004KT 1 1/2SM 25/22 A2971 RMK T02500220 IEM_DS3505
ZBAA,2006-07-27 12:00,ZBAA 271200Z AUTO 07002KT 4SM 25/21 A2971 RMK SLP058 T02500207 54000 IEM_DS3505
ZBAA,2006-07-27 13:00,ZBAA 271300Z AUTO 06004KT 1 1/2SM 24/22 A2974 RMK T02400220 IEM_DS3505
ZBAA,2006-07-27 14:00,ZBAA 271400Z AUTO 09004KT 1 1/2SM 24/22 A2974 RMK T02400220 IEM_DS3505
ZBAA,2006-07-27 15:00,ZBAA 271500Z AUTO 11004KT 4SM 24/21 A2974 RMK SLP058 T02430212 52001 IEM_DS3505
ZBAA,2006-07-27 16:00,ZBAA 271600Z AUTO 05002KT 1 1/4SM 23/22 A2974 RMK T02300220 IEM_DS3505
ZBAA,2006-07-27 17:00,ZBAA 271700Z AUTO 11004KT 2SM 23/23 A2974 RMK T02300230 IEM_DS3505
ZBAA,2006-07-27 18:00,ZBAA 271800Z AUTO 11004KT 4SM 23/21 A2971 RMK SLP056 T02330212 57002 IEM_DS3505
ZBAA,2006-07-27 19:00,ZBAA 271900Z AUTO 13006KT 2SM 22/22 A2971 RMK T02200220 IEM_DS3505
ZBAA,2006-07-27 20:00,ZBAA 272000Z AUTO 12006KT 2SM 22/22 A2971 RMK T02200220 IEM_DS3505
ZBAA,2006-07-27 21:00,ZBAA 272100Z AUTO 16004KT 4SM 23/21 A2974 RMK 70000 SLP057 T02280213 52001 IEM_DS3505
ZBAA,2006-07-27 22:00,ZBAA 272200Z AUTO 12008KT 1 1/4SM 22/22 A2971 RMK T02200220 IEM_DS3505
ZBAA,2006-07-27 23:00,ZBAA 272300Z AUTO 12006KT 1 1/4SM 22/22 A2974 RMK T02200220 IEM_DS3505
ZBAA,2006-07-28 00:00,ZBAA 280000Z AUTO 11004KT 2 1/2SM 23/22 A2974 RMK 60002 70002 SLP065 T02280216 52007 IEM_DS3505
ZBAA,2006-07-28 01:00,ZBAA 280100Z AUTO 09006KT 1SM 22/22 A2974 RMK T02200220 IEM_DS3505
ZBAA,2006-07-28 02:00,ZBAA 280200Z AUTO 12006KT 1SM 22/22 A2974 RMK T02200220 IEM_DS3505
ZBAA,2006-07-28 03:00,ZBAA 280300Z AUTO 09004KT 1 1/4SM 23/22 A2974 RMK SLP064 T02290219 57001 IEM_DS3505
ZBAA,2006-07-28 04:00,ZBAA 280400Z AUTO 12006KT 1SM 23/23 A2974 RMK T02300230 IEM_DS3505
ZBAA,2006-07-28 05:00,ZBAA 280500Z AUTO 11006KT 1SM 23/23 A2974 RMK T02300230 IEM_DS3505
ZBAA,2006-07-28 06:00,ZBAA 280600Z AUTO 07002KT 2 1/2SM 24/22 A2974 RMK 60000 SLP058 T02420221 57006 IEM_DS3505
ZBAA,2006-07-28 07:00,ZBAA 280700Z AUTO 10004KT 1SM 24/23 A2971 RMK T02400230 IEM_DS3505
ZBAA,2006-07-28 08:00,ZBAA 280800Z AUTO 06004KT 1SM 24/23 A2971 RMK T02400230 IEM_DS3505
ZBAA,2006-07-28 09:00,ZBAA 280900Z AUTO 07004KT 4SM 26/22 A2971 RMK SLP049 T02580225 57008 IEM_DS3505
ZBAA,2006-07-28 10:00,ZBAA 281000Z AUTO 04004KT 1SM 24/24 A2971 RMK T02400240 IEM_DS3505
ZBAA,2006-07-28 11:00,ZBAA 281100Z AUTO 35004KT 1SM 24/23 A2971 RMK T02400230 IEM_DS3505
ZBAA,2006-07-28 12:00,ZBAA 281200Z AUTO 02002KT 2SM 25/23 A2971 RMK SLP056 T02520227 52006 IEM_DS3505
ZBAA,2006-07-28 13:00,ZBAA 281300Z AUTO 03002KT 1SM 23/23 A2974 RMK T02300230 IEM_DS3505
ZBAA,2006-07-28 14:00,ZBAA 281400Z AUTO 36002KT 1SM 23/23 A2974 RMK T02300230 IEM_DS3505
ZBAA,2006-07-28 15:00,ZBAA 281500Z AUTO 36002KT 1 1/4SM 24/22 A2974 RMK SLP066 T02450222 52010 IEM_DS3505
ZBAA,2006-07-28 16:00,ZBAA 281600Z AUTO 36004KT 1SM 23/23 A2974 RMK T02300230 IEM_DS3505
ZBAA,2006-07-28 17:00,ZBAA 281700Z AUTO 01002KT 1SM 23/23 A2974 RMK T02300230 IEM_DS3505
ZBAA,2006-07-28 18:00,ZBAA 281800Z AUTO 07002KT 1 1/4SM 24/22 A2974 RMK SLP067 T02410222 52001 IEM_DS3505
ZBAA,2006-07-28 19:00,ZBAA 281900Z AUTO 10002KT 1SM 23/23 A2974 RMK T02300230 IEM_DS3505
ZBAA,2006-07-28 20:00,ZBAA 282000Z AUTO 07002KT 1SM 23/23 A2974 RMK T02300230 IEM_DS3505
ZBAA,2006-07-28 21:00,ZBAA 282100Z AUTO 07002KT 1 1/4SM 24/22 A2974 RMK 70002 SLP068 T02360220 52002 IEM_DS3505
ZBAA,2006-07-28 22:00,ZBAA 282200Z AUTO 10004KT 1SM 24/24 A2977 RMK T02400240 IEM_DS3505
ZBAA,2006-07-28 23:00,ZBAA 282300Z AUTO 03002KT 1SM 24/24 A2977 RMK T02400240 IEM_DS3505
ZBAA,2006-07-29 00:00,ZBAA 290000Z AUTO 09002KT 1SM 24/23 A2977 RMK 70000 SLP075 T02440227 52007 IEM_DS3505
ZBAA,2006-07-29 01:00,ZBAA 290100Z AUTO 09004KT 1SM 24/24 A2980 RMK T02400240 IEM_DS3505
ZBAA,2006-07-29 02:00,ZBAA 290200Z AUTO 12004KT 1SM 25/24 A2980 RMK T02500240 IEM_DS3505
ZBAA,2006-07-29 03:00,ZBAA 290300Z AUTO 09002KT 1SM 26/24 A2980 RMK SLP080 T02580237 52005 IEM_DS3505
ZBAA,2006-07-29 04:00,ZBAA 290400Z AUTO 14004KT 1SM 26/25 A2980 RMK T02600250 IEM_DS3505
ZBAA,2006-07-29 05:00,ZBAA 290500Z AUTO 16004KT 1SM 26/26 A2977 RMK T02600260 IEM_DS3505
ZBAA,2006-07-29 06:00,ZBAA 290600Z AUTO 25004KT 3SM 30/24 A2977 RMK SLP068 T02980242 57012 IEM_DS3505
ZBAA,2006-07-29 07:00,ZBAA 290700Z AUTO 03002KT 1SM 29/27 A2974 RMK T02900270 IEM_DS3505
ZBAA,2006-07-29 08:00,ZBAA 290800Z AUTO 1SM 30/27 A2971 RMK T03000270 IEM_DS3505
ZBAA,2006-07-29 09:00,ZBAA 290900Z AUTO 18004KT 4SM 31/24 A2971 RMK SLP049 T03090241 57019 IEM_DS3505
ZBAA,2006-07-29 10:00,ZBAA 291000Z AUTO 05004KT 1SM 29/27 A2968 RMK T02900270 IEM_DS3505
ZBAA,2006-07-29 11:00,ZBAA 291100Z AUTO 34006KT 1SM 28/27 A2971 RMK T02800270 IEM_DS3505
ZBAA,2006-07-29 12:00,ZBAA 291200Z AUTO 18002KT 5SM 29/25 A2971 RMK SLP053 T02930248 52004 IEM_DS3505
ZBAA,2006-07-29 13:00,ZBAA 291300Z AUTO 31006KT 1SM 27/26 A2974 RMK T02700260 IEM_DS3505
ZBAA,2006-07-29 14:00,ZBAA 291400Z AUTO 04002KT 1SM 27/26 A2974 RMK T02700260 IEM_DS3505
ZBAA,2006-07-29 15:00,ZBAA 291500Z AUTO 18002KT 2 1/2SM 28/25 A2974 RMK SLP067 T02750246 52014 IEM_DS3505
ZBAA,2006-07-29 16:00,ZBAA 291600Z AUTO 31004KT 1SM 25/25 A2974 RMK T02500250 IEM_DS3505
ZBAA,2006-07-29 17:00,ZBAA 291700Z AUTO 1SM 25/25 A2974 RMK T02500250 IEM_DS3505
ZBAA,2006-07-29 18:00,ZBAA 291800Z AUTO 18004KT 2SM 26/24 A2971 RMK SLP056 T02620242 57011 IEM_DS3505
ZBAA,2006-07-29 19:00,ZBAA 291900Z AUTO 09004KT 1SM 25/25 A2971 RMK T02500250 IEM_DS3505
ZBAA,2006-07-29 20:00,ZBAA 292000Z AUTO 07004KT 1SM 25/25 A2971 RMK T02500250 IEM_DS3505
ZBAA,2006-07-29 21:00,ZBAA 292100Z AUTO 20004KT 2SM 26/24 A2971 RMK 70000 SLP053 T02590243 57003 IEM_DS3505
ZBAA,2006-07-29 22:00,ZBAA 292200Z AUTO 1SM 25/25 A2971 RMK T02500250 IEM_DS3505
ZBAA,2006-07-29 23:00,ZBAA 292300Z AUTO 00000KT 1/2SM 25/25 A2971 RMK T02500250 IEM_DS3505
ZBAA,2006-07-30 00:00,ZBAA 300000Z AUTO 29002KT 1 1/2SM 27/25 A2974 RMK 60000 70000 SLP060 T02680248 52007 IEM_DS3505
ZBAA,2006-07-30 01:00,ZBAA 300100Z AUTO 01006KT 4SM 26/25 A2974 RMK T02600250 IEM_DS3505
ZBAA,2006-07-30 02:00,ZBAA 300200Z AUTO 03006KT 5SM 28/26 A2974 RMK T02800260 IEM_DS3505
ZBAA,2006-07-30 03:00,ZBAA 300300Z AUTO 36004KT 2 1/2SM 30/23 A2974 RMK SLP059 T03020234 57001 IEM_DS3505
ZBAA,2006-07-30 04:00,ZBAA 300400Z AUTO 05004KT 1 1/4SM 30/26 A2971 RMK T03000260 IEM_DS3505
ZBAA,2006-07-30 05:00,ZBAA 300500Z AUTO 08004KT 1 1/2SM 31/27 A2971 RMK T03100270 IEM_DS3505
ZBAA,2006-07-30 06:00,ZBAA 300600Z AUTO 11004KT 6SM 33/23 A2971 RMK SLP052 T03310234 57007 IEM_DS3505
ZBAA,2006-07-30 07:00,ZBAA 300700Z AUTO 10004KT 2SM 32/26 A2971 RMK T03200260 IEM_DS3505
ZBAA,2006-07-30 08:00,ZBAA 300800Z AUTO 10004KT 2SM 32/27 A2968 RMK T03200270 IEM_DS3505
ZBAA,2006-07-30 09:00,ZBAA 300900Z AUTO 18004KT 6SM 33/23 A2968 RMK SLP046 T03290230 57006 IEM_DS3505
ZBAA,2006-07-30 10:00,ZBAA 301000Z AUTO 10004KT 4SM 32/26 A2968 RMK T03200260 IEM_DS3505
ZBAA,2006-07-30 11:00,ZBAA 301100Z AUTO 11004KT 1 1/2SM 31/27 A2971 RMK T03100270 IEM_DS3505
ZBAA,2006-07-30 12:00,ZBAA 301200Z AUTO 18002KT 5SM 31/25 A2971 RMK SLP058 T03070248 52012 IEM_DS3505
ZBAA,2006-07-30 13:00,ZBAA 301300Z AUTO 12004KT 1SM 29/28 A2974 RMK T02900280 IEM_DS3505
ZBAA,2006-07-30 14:00,ZBAA 301400Z AUTO 13006KT 1SM 29/28 A2974 RMK T02900280 IEM_DS3505
ZBAA,2006-07-30 15:00,ZBAA 301500Z AUTO 11002KT 4SM 28/25 A2974 RMK SLP062 T02820250 52004 IEM_DS3505
ZBAA,2006-07-30 16:00,ZBAA 301600Z AUTO 10004KT 1SM 28/27 A2974 RMK T02800270 IEM_DS3505
ZBAA,2006-07-30 17:00,ZBAA 301700Z AUTO 06002KT 1SM 27/27 A2971 RMK T02700270 IEM_DS3505
ZBAA,2006-07-30 18:00,ZBAA 301800Z AUTO 09002KT 2 1/2SM 27/25 A2974 RMK SLP057 T02690249 57005 IEM_DS3505
ZBAA,2006-07-30 19:00,ZBAA 301900Z AUTO 04004KT 1SM 26/26 A2971 RMK T02600260 IEM_DS3505
ZBAA,2006-07-30 20:00,ZBAA 302000Z AUTO 05004KT 1SM 26/26 A2971 RMK T02600260 IEM_DS3505
ZBAA,2006-07-30 21:00,ZBAA 302100Z AUTO 11004KT 1/2SM 26/25 A2971 RMK SLP052 T02650251 57005 IEM_DS3505
ZBAA,2006-07-30 22:00,ZBAA 302200Z AUTO 07004KT 1SM 26/26 A2971 RMK T02600260 IEM_DS3505
ZBAA,2006-07-30 23:00,ZBAA 302300Z AUTO 09004KT 1SM 26/26 A2968 RMK T02600260 IEM_DS3505
ZBAA,2006-07-31 00:00,ZBAA 310000Z AUTO 07002KT 1/2SM 27/25 A2968 RMK SLP044 T02680252 57008 IEM_DS3505
ZBAA,2006-07-31 01:00,ZBAA 310100Z AUTO 35008KT 1SM 26/26 A2968 RMK T02600260 IEM_DS3505
ZBAA,2006-07-31 02:00,ZBAA 310200Z AUTO 12012G23KT 1SM 20/20 A2977 RMK T02000200 IEM_DS3505
ZBAA,2006-07-31 03:00,ZBAA 310300Z AUTO 07012KT 9SM 22/20 A2974 RMK SLP062 T02180197 52018 IEM_DS3505
ZBAA,2006-07-31 04:00,ZBAA 310400Z AUTO 10008KT 7SM 22/21 A2974 RMK T02200210 IEM_DS3505
ZBAA,2006-07-31 05:00,ZBAA 310500Z AUTO 36004KT 4SM 22/22 A2974 RMK T02200220 IEM_DS3505
ZBAA,2006-07-31 06:00,ZBAA 310600Z AUTO 34004KT 7SM 23/20 A2971 RMK 60106 SLP055 T02270202 57007 IEM_DS3505
ZBAA,2006-07-31 07:00,ZBAA 310700Z AUTO 29010KT 3SM 24/23 A2968 RMK T02400230 IEM_DS3505
ZBAA,2006-07-31 08:00,ZBAA 310800Z AUTO 27010KT 4SM 24/22 A2965 RMK T02400220 IEM_DS3505
ZBAA,2006-07-31 09:00,ZBAA 310900Z AUTO 04004KT 11SM 27/19 A2965 RMK SLP030 T02660187 57025 IEM_DS3505
ZBAA,2006-07-31 10:00,ZBAA 311000Z AUTO 36006KT 4SM 25/23 A2965 RMK T02500230 IEM_DS3505
ZBAA,2006-07-31 11:00,ZBAA 311100Z AUTO 10002KT 4SM 25/23 A2965 RMK T02500230 IEM_DS3505
ZBAA,2006-07-31 12:00,ZBAA 311200Z AUTO 34002KT 11SM 25/20 A2968 RMK 60000 SLP037 T02500198 52007 IEM_DS3505
ZBAA,2006-07-31 13:00,ZBAA 311300Z AUTO 31004KT 3SM 24/23 A2965 RMK T02400230 IEM_DS3505
ZBAA,2006-07-31 14:00,ZBAA 311400Z AUTO 35004KT 3SM 24/23 A2962 RMK T02400230 IEM_DS3505
ZBAA,2006-07-31 15:00,ZBAA 311500Z AUTO 25002KT 11SM 24/20 A2962 RMK SLP030 T02440201 57008 IEM_DS3505
ZBAA,2006-07-31 16:00,ZBAA 311600Z AUTO 28002KT 4SM 24/23 A2962 RMK T02400230 IEM_DS3505
ZBAA,2006-07-31 17:00,ZBAA 311700Z AUTO 36002KT 4SM 24/23 A2962 RMK T02400230 IEM_DS3505
ZBAA,2006-07-31 18:00,ZBAA 311800Z AUTO 27004KT 9SM 24/20 A2962 RMK 60000 SLP030 T02420203 52001 IEM_DS3505
ZBAA,2006-07-31 19:00,ZBAA 311900Z AUTO 4SM 24/23 A2962 RMK T02400230 IEM_DS3505
ZBAA,2006-07-31 20:00,ZBAA 312000Z AUTO 19002KT 4SM 23/22 A2962 RMK T02300220 IEM_DS3505
ZBAA,2006-07-31 21:00,ZBAA 312100Z AUTO 32002KT 6SM 23/21 A2962 RMK 70105 SLP027 T02330208 57003 IEM_DS3505
ZBAA,2006-07-31 22:00,ZBAA 312200Z AUTO 00000KT 4SM 23/22 A2965 RMK T02300220 IEM_DS3505
ZBAA,2006-07-31 23:00,ZBAA 312300Z AUTO 01004KT 3SM 24/23 A2965 RMK T02400230 IEM_DS3505
ZBAA,2006-08-01 00:00,ZBAA 010000Z AUTO 04002KT 7SM 27/20 A2965 RMK 70105 SLP032 T02740195 52005 IEM_DS3505
ZBAA,2006-08-01 01:00,ZBAA 010100Z AUTO 05004KT 3SM 26/23 A2965 RMK T02600230 IEM_DS3505
ZBAA,2006-08-01 02:00,ZBAA 010200Z AUTO 03004KT 6SM 27/21 A2968 RMK T02700210 IEM_DS3505
ZBAA,2006-08-01 03:00,ZBAA 010300Z AUTO 09004KT 9SM 30/19 A2968 RMK SLP040 T02960190 52008 IEM_DS3505
ZBAA,2006-08-01 04:00,ZBAA 010400Z AUTO 07002KT 7SM 31/21 A2965 RMK T03100210 IEM_DS3505
ZBAA,2006-08-01 05:00,ZBAA 010500Z AUTO 15006KT 7SM 32/23 A2965 RMK T03200230 IEM_DS3505
ZBAA,2006-08-01 06:00,ZBAA 010600Z AUTO 18006KT 12SM 32/18 A2962 RMK SLP024 T03180180 57016 IEM_DS3505
ZBAA,2006-08-01 07:00,ZBAA 010700Z AUTO 14004KT 7SM 32/22 A2962 RMK T03200220 IEM_DS3505
ZBAA,2006-08-01 08:00,ZBAA 010800Z AUTO 11008KT 7SM 32/23 A2962 RMK T03200230 IEM_DS3505
ZBAA,2006-08-01 09:00,ZBAA 010900Z AUTO 18008KT 19SM 32/19 A2962 RMK SLP021 T03190192 57003 IEM_DS3505
ZBAA,2006-08-01 10:00,ZBAA 011000Z AUTO 33025G43KT 1SM A2968 RMK IEM_DS3505
ZBAA,2006-08-01 11:00,ZBAA 011100Z AUTO 24008KT 7SM A2971 RMK IEM_DS3505
ZBAA,2006-08-01 12:00,ZBAA 011200Z AUTO 32004KT 9SM 22/19 A2971 RMK 60008 SLP046 T02170194 52025 IEM_DS3505
ZBAA,2006-08-01 13:00,ZBAA 011300Z AUTO 29004KT 7SM 21/21 A2971 RMK T02100210 IEM_DS3505
ZBAA,2006-08-01 14:00,ZBAA 011400Z AUTO 26002KT 7SM 21/21 A2971 RMK T02100210 IEM_DS3505
ZBAA,2006-08-01 15:00,ZBAA 011500Z AUTO 04004KT 9SM 22/20 A2971 RMK SLP055 T02180197 52009 IEM_DS3505
ZBAA,2006-08-01 16:00,ZBAA 011600Z AUTO 34006KT 6SM 21/21 A2971 RMK T02100210 IEM_DS3505
ZBAA,2006-08-01 17:00,ZBAA 011700Z AUTO 34008KT 6SM 21/20 A2971 RMK T02100200 IEM_DS3505
ZBAA,2006-08-01 18:00,ZBAA 011800Z AUTO 32002KT 7SM 22/19 A2971 RMK 60003 SLP053 T02220190 57002 IEM_DS3505
ZBAA,2006-08-01 19:00,ZBAA 011900Z AUTO 31004KT 6SM 21/20 A2971 RMK T02100200 IEM_DS3505
ZBAA,2006-08-01 20:00,ZBAA 012000Z AUTO 33006KT 6SM 21/20 A2971 RMK T02100200 IEM_DS3505
ZBAA,2006-08-01 21:00,ZBAA 012100Z AUTO 34006KT 12SM 22/19 A2971 RMK 70009 SLP054 T02190191 52001 IEM_DS3505
ZBAA,2006-08-01 22:00,ZBAA 012200Z AUTO 36004KT 6SM 21/20 A2974 RMK T02100200 IEM_DS3505
ZBAA,2006-08-01 23:00,ZBAA 012300Z AUTO 33004KT 6SM 22/21 A2974 RMK T02200210 IEM_DS3505
ZBAA,2006-08-02 00:00,ZBAA 020000Z AUTO 32002KT 12SM 24/19 A2977 RMK 70009 SLP075 T02440192 52020 IEM_DS3505
ZBAA,2006-08-02 01:00,ZBAA 020100Z AUTO 36006KT 6SM 24/21 A2977 RMK T02400210 IEM_DS3505
ZBAA,2006-08-02 02:00,ZBAA 020200Z AUTO 01004KT 6SM 25/21 A2980 RMK T02500210 IEM_DS3505
ZBAA,2006-08-02 03:00,ZBAA 020300Z AUTO 34006KT 19SM 28/18 A2980 RMK SLP082 T02770176 52007 IEM_DS3505
ZBAA,2006-08-02 04:00,ZBAA 020400Z AUTO 36006KT 6SM 28/22 A2980 RMK T02800220 IEM_DS3505
ZBAA,2006-08-02 05:00,ZBAA 020500Z AUTO 35008KT 6SM 28/22 A2977 RMK T02800220 IEM_DS3505
ZBAA,2006-08-02 06:00,ZBAA 020600Z AUTO 04004KT 19SM 30/17 A2977 RMK SLP071 T03000168 57010 IEM_DS3505
ZBAA,2006-08-02 07:00,ZBAA 020700Z AUTO 35008KT 7SM 30/22 A2977 RMK T03000220 IEM_DS3505
ZBAA,2006-08-02 08:00,ZBAA 020800Z AUTO 35008KT 7SM 30/21 A2974 RMK T03000210 IEM_DS3505
ZBAA,2006-08-02 09:00,ZBAA 020900Z AUTO 02004KT 19SM 30/18 A2977 RMK SLP066 T03030177 57005 IEM_DS3505
ZBAA,2006-08-02 10:00,ZBAA 021000Z AUTO 36006KT 7SM 29/21 A2977 RMK T02900210 IEM_DS3505
ZBAA,2006-08-02 11:00,ZBAA 021100Z AUTO 05004KT 6SM 28/22 A2977 RMK T02800220 IEM_DS3505
ZBAA,2006-08-02 12:00,ZBAA 021200Z AUTO 22002KT 19SM 27/20 A2980 RMK SLP082 T02730196 52016 IEM_DS3505
ZBAA,2006-08-02 13:00,ZBAA 021300Z AUTO 00000KT 6SM 26/21 A2980 RMK T02600210 IEM_DS3505
ZBAA,2006-08-02 14:00,ZBAA 021400Z AUTO 13002KT 6SM 25/22 A2983 RMK T02500220 IEM_DS3505
ZBAA,2006-08-02 15:00,ZBAA 021500Z AUTO 22002KT 12SM 26/21 A2983 RMK SLP093 T02560206 52011 IEM_DS3505
ZBAA,2006-08-02 16:00,ZBAA 021600Z AUTO 05004KT 6SM 25/22 A2983 RMK T02500220 IEM_DS3505
ZBAA,2006-08-02 17:00,ZBAA 021700Z AUTO 07004KT 6SM 24/21 A2985 RMK T02400210 IEM_DS3505
ZBAA,2006-08-02 18:00,ZBAA 021800Z AUTO 07002KT 12SM 24/21 A2985 RMK SLP102 T02450208 52009 IEM_DS3505
ZBAA,2006-08-02 19:00,ZBAA 021900Z AUTO 02002KT 6SM 23/22 A2985 RMK T02300220 IEM_DS3505
ZBAA,2006-08-02 20:00,ZBAA 022000Z AUTO 03004KT 6SM 23/22 A2988 RMK T02300220 IEM_DS3505
ZBAA,2006-08-02 21:00,ZBAA 022100Z AUTO 07002KT 9SM 24/20 A2988 RMK SLP116 T02360203 52014 IEM_DS3505
ZBAA,2006-08-02 22:00,ZBAA 022200Z AUTO 36004KT 6SM 23/22 A2991 RMK T02300220 IEM_DS3505
ZBAA,2006-08-02 23:00,ZBAA 022300Z AUTO 34004KT 6SM 23/22 A2991 RMK T02300220 IEM_DS3505
ZBAA,2006-08-03 00:00,ZBAA 030000Z AUTO 09004KT 7SM 25/21 A2991 RMK SLP128 T02530208 52012 IEM_DS3505
ZBAA,2006-08-03 01:00,ZBAA 030100Z AUTO 13002KT 5SM 26/23 A2994 RMK T02600230 IEM_DS3505
ZBAA,2006-08-03 02:00,ZBAA 030200Z AUTO 5SM 27/23 A2994 RMK T02700230 IEM_DS3505
ZBAA,2006-08-03 03:00,ZBAA 030300Z AUTO 07002KT 7SM 29/21 A2994 RMK SLP133 T02860209 52005 IEM_DS3505
ZBAA,2006-08-03 04:00,ZBAA 030400Z AUTO 4SM 29/23 A2994 RMK T02900230 IEM_DS3505
ZBAA,2006-08-03 05:00,ZBAA 030500Z AUTO 16004KT 4SM 29/23 A2991 RMK T02900230 IEM_DS3505
ZBAA,2006-08-03 06:00,ZBAA 030600Z AUTO 22002KT 9SM 30/21 A2991 RMK SLP118 T03000206 57015 IEM_DS3505
ZBAA,2006-08-03 07:00,ZBAA 030700Z AUTO 12006KT 4SM 30/24 A2988 RMK T03000240 IEM_DS3505
ZBAA,2006-08-03 08:00,ZBAA 030800Z AUTO 11006KT 4SM 30/23 A2988 RMK T03000230 IEM_DS3505
ZBAA,2006-08-03 09:00,ZBAA 030900Z AUTO 20004KT 12SM 29/21 A2988 RMK SLP117 T02940206 57001 IEM_DS3505
ZBAA,2006-08-03 10:00,ZBAA 031000Z AUTO 10004KT 4SM 29/24 A2988 RMK T02900240 IEM_DS3505
ZBAA,2006-08-03 11:00,ZBAA 031100Z AUTO 13004KT 4SM 28/24 A2988 RMK T02800240 IEM_DS3505
ZBAA,2006-08-03 12:00,ZBAA 031200Z AUTO 18002KT 9SM 27/21 A2991 RMK SLP124 T02680211 52006 IEM_DS3505
ZBAA,2006-08-03 13:00,ZBAA 031300Z AUTO 14004KT 3SM 27/24 A2991 RMK T02700240 IEM_DS3505
ZBAA,2006-08-03 14:00,ZBAA 031400Z AUTO 13006KT 2 1/2SM 26/24 A2991 RMK T02600240 IEM_DS3505
ZBAA,2006-08-03 15:00,ZBAA 031500Z AUTO 09004KT 7SM 26/21 A2994 RMK SLP131 T02580210 52008 IEM_DS3505
ZBAA,2006-08-03 16:00,ZBAA 031600Z AUTO 13014KT 3SM 24/23 A2994 RMK T02400230 IEM_DS3505
ZBAA,2006-08-03 17:00,ZBAA 031700Z AUTO 15006KT 4SM 22/22 A2991 RMK T02200220 IEM_DS3505
ZBAA,2006-08-03 18:00,ZBAA 031800Z AUTO 27004KT 7SM 23/21 A2994 RMK 60002 SLP131 T02280207 54000 IEM_DS3505
ZBAA,2006-08-03 19:00,ZBAA 031900Z AUTO 07006KT 4SM 22/22 A2991 RMK T02200220 IEM_DS3505
ZBAA,2006-08-03 20:00,ZBAA 032000Z AUTO 05006KT 3SM 22/22 A2991 RMK T02200220 IEM_DS3505
ZBAA,2006-08-03 21:00,ZBAA 032100Z AUTO 09004KT 5SM 23/21 A2991 RMK 70003 SLP125 T02260211 57007 IEM_DS3505
ZBAA,2006-08-03 22:00,ZBAA 032200Z AUTO 14002KT 4SM 22/22 A2991 RMK T02200220 IEM_DS3505
ZBAA,2006-08-03 23:00,ZBAA 032300Z AUTO 15002KT 4SM 22/22 A2994 RMK T02200220 IEM_DS3505
ZBAA,2006-08-04 00:00,ZBAA 040000Z AUTO 07002KT 7SM 24/20 A2994 RMK 60001 70003 SLP134 T02400205 52009 IEM_DS3505
ZBAA,2006-08-04 01:00,ZBAA 040100Z AUTO 10004KT 4SM 25/23 A2994 RMK T02500230 IEM_DS3505
ZBAA,2006-08-04 02:00,ZBAA 040200Z AUTO 4SM 25/22 A2994 RMK T02500220 IEM_DS3505
ZBAA,2006-08-04 03:00,ZBAA 040300Z AUTO 18004KT 9SM 27/21 A2994 RMK SLP134 T02690207 54000 IEM_DS3505
ZBAA,2006-08-04 04:00,ZBAA 040400Z AUTO 12004KT 4SM 27/22 A2991 RMK T02700220 IEM_DS3505
ZBAA,2006-08-04 05:00,ZBAA 040500Z AUTO 15004KT 4SM 28/23 A2991 RMK T02800230 IEM_DS3505
ZBAA,2006-08-04 06:00,ZBAA 040600Z AUTO 18004KT 9SM 29/20 A2988 RMK SLP113 T02860201 57021 IEM_DS3505
ZBAA,2006-08-04 07:00,ZBAA 040700Z AUTO 15006KT 4SM 29/23 A2988 RMK T02900230 IEM_DS3505
ZBAA,2006-08-04 08:00,ZBAA 040800Z AUTO 11008KT 4SM 29/23 A2985 RMK T02900230 IEM_DS3505
ZBAA,2006-08-04 09:00,ZBAA 040900Z AUTO 14006KT 12SM 29/20 A2985 RMK SLP105 T02880203 57007 IEM_DS3505
ZBAA,2006-08-04 10:00,ZBAA 041000Z AUTO 13006KT 4SM 28/23 A2985 RMK T02800230 IEM_DS3505
ZBAA,2006-08-04 11:00,ZBAA 041100Z AUTO 12006KT 3SM 27/24 A2985 RMK T02700240 IEM_DS3505
ZBAA,2006-08-04 12:00,ZBAA 041200Z AUTO 16002KT 9SM 27/22 A2985 RMK SLP109 T02690217 52003 IEM_DS3505
ZBAA,2006-08-04 13:00,ZBAA 041300Z AUTO 14004KT 2 1/2SM 26/24 A2988 RMK T02600240 IEM_DS3505
ZBAA,2006-08-04 14:00,ZBAA 041400Z AUTO 12004KT 2SM 26/24 A2988 RMK T02600240 IEM_DS3505
ZBAA,2006-08-04 15:00,ZBAA 041500Z AUTO 20004KT 7SM 25/22 A2988 RMK SLP111 T02520221 52003 IEM_DS3505
ZBAA,2006-08-04 16:00,ZBAA 041600Z AUTO 15002KT 1 1/2SM 25/24 A2988 RMK T02500240 IEM_DS3505
ZBAA,2006-08-04 17:00,ZBAA 041700Z AUTO 12006KT 1 1/2SM 24/24 A2985 RMK T02400240 IEM_DS3505
ZBAA,2006-08-04 18:00,ZBAA 041800Z AUTO 25004KT 5SM 24/22 A2985 RMK SLP104 T02430222 57007 IEM_DS3505
ZBAA,2006-08-04 19:00,ZBAA 041900Z AUTO 12006KT 1 1/4SM 24/24 A2985 RMK T02400240 IEM_DS3505
ZBAA,2006-08-04 20:00,ZBAA 042000Z AUTO 12006KT 1SM 23/23 A2985 RMK T02300230 IEM_DS3505
ZBAA,2006-08-04 21:00,ZBAA 042100Z AUTO 16004KT 3SM 23/22 A2983 RMK SLP095 T02320218 57009 IEM_DS3505
ZBAA,2006-08-04 22:00,ZBAA 042200Z AUTO 13006KT 1/4SM 23/23 A2983 RMK T02300230 IEM_DS3505
ZBAA,2006-08-04 23:00,ZBAA 042300Z AUTO 16004KT 1/2SM 23/23 A2985 RMK T02300230 IEM_DS3505
ZBAA,2006-08-05 00:00,ZBAA 050000Z AUTO 22002KT 3SM 24/22 A2985 RMK SLP104 T02370220 52008 IEM_DS3505
ZBAA,2006-08-05 01:00,ZBAA 050100Z AUTO 11004KT 1SM 24/24 A2985 RMK T02400240 IEM_DS3505
ZBAA,2006-08-05 02:00,ZBAA 050200Z AUTO 17004KT 1SM 25/24 A2985 RMK T02500240 IEM_DS3505
ZBAA,2006-08-05 03:00,ZBAA 050300Z AUTO 22004KT 4SM 27/22 A2985 RMK SLP102 T02710223 57001 IEM_DS3505
ZBAA,2006-08-05 04:00,ZBAA 050400Z AUTO 14008KT 2SM 28/24 A2983 RMK T02800240 IEM_DS3505
ZBAA,2006-08-05 05:00,ZBAA 050500Z AUTO 17008KT 2SM 29/25 A2983 RMK T02900250 IEM_DS3505
ZBAA,2006-08-05 06:00,ZBAA 050600Z AUTO 20006KT 7SM 29/21 A2980 RMK SLP088 T02920212 57014 IEM_DS3505
ZBAA,2006-08-05 07:00,ZBAA 050700Z AUTO 16008KT 2 1/2SM 30/24 A2980 RMK T03000240 IEM_DS3505
ZBAA,2006-08-05 08:00,ZBAA 050800Z AUTO 18008KT 2 1/2SM 29/24 A2977 RMK T02900240 IEM_DS3505
ZBAA,2006-08-05 09:00,ZBAA 050900Z AUTO 20006KT 7SM 29/22 A2977 RMK SLP075 T02890217 57013 IEM_DS3505
ZBAA,2006-08-05 10:00,ZBAA 051000Z AUTO 18008KT 2 1/2SM 28/24 A2977 RMK T02800240 IEM_DS3505
ZBAA,2006-08-05 11:00,ZBAA 051100Z AUTO 17006KT 2 1/2SM 27/24 A2977 RMK T02700240 IEM_DS3505
ZBAA,2006-08-05 12:00,ZBAA 051200Z AUTO 18004KT 4SM 27/22 A2977 RMK SLP074 T02740224 57001 IEM_DS3505
ZBAA,2006-08-05 13:00,ZBAA 051300Z AUTO 15004KT 2SM 26/25 A2977 RMK T02600250 IEM_DS3505
ZBAA,2006-08-05 14:00,ZBAA 051400Z AUTO 17006KT 2SM 25/24 A2980 RMK T02500240 IEM_DS3505
ZBAA,2006-08-05 15:00,ZBAA 051500Z AUTO 18002KT 2 1/2SM 26/23 A2977 RMK SLP076 T02600227 52002 IEM_DS3505
ZBAA,2006-08-05 16:00,ZBAA 051600Z AUTO 11006KT 2SM 25/25 A2977 RMK T02500250 IEM_DS3505
ZBAA,2006-08-05 17:00,ZBAA 051700Z AUTO 13002KT 1 1/4SM 25/24 A2977 RMK T02500240 IEM_DS3505
ZBAA,2006-08-05 18:00,ZBAA 051800Z AUTO 16002KT 2SM 25/22 A2977 RMK SLP071 T02520225 57005 IEM_DS3505
ZBAA,2006-08-05 19:00,ZBAA 051900Z AUTO 13002KT 1SM 24/24 A2977 RMK T02400240 IEM_DS3505
ZBAA,2006-08-05 20:00,ZBAA 052000Z AUTO 11004KT 1SM 24/24 A2974 RMK T02400240 IEM_DS3505
ZBAA,2006-08-05 21:00,ZBAA 052100Z AUTO 20002KT 1 1/4SM 24/22 A2977 RMK SLP069 T02440223 57002 IEM_DS3505
ZBAA,2006-08-05 22:00,ZBAA 052200Z AUTO 11004KT 3/8SM 24/24 A2977 RMK T02400240 IEM_DS3505
ZBAA,2006-08-05 23:00,ZBAA 052300Z AUTO 12004KT 1/2SM 24/24 A2977 RMK T02400240 IEM_DS3505
ZBAA,2006-08-06 00:00,ZBAA 060000Z AUTO 20002KT 2SM 26/23 A2977 RMK SLP070 T02560227 52001 IEM_DS3505
ZBAA,2006-08-06 01:00,ZBAA 060100Z AUTO 05002KT 1SM 26/26 A2977 RMK T02600260 IEM_DS3505
ZBAA,2006-08-06 02:00,ZBAA 060200Z AUTO 05004KT 1SM 27/26 A2977 RMK T02700260 IEM_DS3505
ZBAA,2006-08-06 03:00,ZBAA 060300Z AUTO 20004KT 4SM 30/23 A2974 RMK SLP068 T02960233 57002 IEM_DS3505
ZBAA,2006-08-06 04:00,ZBAA 060400Z AUTO 14008KT 1 1/4SM 30/26 A2974 RMK T03000260 IEM_DS3505
ZBAA,2006-08-06 05:00,ZBAA 060500Z AUTO 16010KT 2 1/2SM 31/26 A2974 RMK T03100260 IEM_DS3505
ZBAA,2006-08-06 06:00,ZBAA 060600Z AUTO 22010KT 9SM 31/22 A2971 RMK SLP055 T03110221 57013 IEM_DS3505
ZBAA,2006-08-06 07:00,ZBAA 060700Z AUTO 17010KT 5SM 31/25 A2968 RMK T03100250 IEM_DS3505
ZBAA,2006-08-06 08:00,ZBAA 060800Z AUTO 17008KT 5SM 31/25 A2968 RMK T03100250 IEM_DS3505
ZBAA,2006-08-06 09:00,ZBAA 060900Z AUTO 20008KT 9SM 31/22 A2968 RMK SLP042 T03080224 57013 IEM_DS3505
ZBAA,2006-08-06 10:00,ZBAA 061000Z AUTO 15008KT 4SM 30/25 A2968 RMK T03000250 IEM_DS3505
ZBAA,2006-08-06 11:00,ZBAA 061100Z AUTO 17008KT 3SM 28/25 A2968 RMK T02800250 IEM_DS3505
ZBAA,2006-08-06 12:00,ZBAA 061200Z AUTO 18004KT 6SM 29/23 A2968 RMK SLP046 T02870234 52004 IEM_DS3505
ZBAA,2006-08-06 13:00,ZBAA 061300Z AUTO 14002KT 2 1/2SM 27/25 A2971 RMK T02700250 IEM_DS3505
ZBAA,2006-08-06 14:00,ZBAA 061400Z AUTO 14004KT 2 1/2SM 28/26 A2971 RMK T02800260 IEM_DS3505
ZBAA,2006-08-06 15:00,ZBAA 061500Z AUTO 20004KT 4SM 27/24 A2974 RMK SLP059 T02700239 52013 IEM_DS3505
ZBAA,2006-08-06 16:00,ZBAA 061600Z AUTO 12006KT 1 1/2SM 26/25 A2971 RMK T02600250 IEM_DS3505
ZBAA,2006-08-06 17:00,ZBAA 061700Z AUTO 16006KT 1 1/2SM 26/25 A2971 RMK T02600250 IEM_DS3505
ZBAA,2006-08-06 18:00,ZBAA 061800Z AUTO 22004KT 2 1/2SM 26/23 A2971 RMK SLP051 T02550226 57008 IEM_DS3505
ZBAA,2006-08-06 19:00,ZBAA 061900Z AUTO 14002KT 1 1/2SM 25/25 A2971 RMK T02500250 IEM_DS3505
ZBAA,2006-08-06 20:00,ZBAA 062000Z AUTO 09004KT 1 1/2SM 25/25 A2968 RMK T02500250 IEM_DS3505
ZBAA,2006-08-06 21:00,ZBAA 062100Z AUTO 11002KT 2SM 24/22 A2971 RMK SLP050 T02410222 57001 IEM_DS3505
ZBAA,2006-08-06 22:00,ZBAA 062200Z AUTO 10002KT 1SM 24/24 A2971 RMK T02400240 IEM_DS3505
ZBAA,2006-08-06 23:00,ZBAA 062300Z AUTO 00000KT 1SM 25/24 A2971 RMK T02500240 IEM_DS3505
ZBAA,2006-08-07 00:00,ZBAA 070000Z AUTO 20002KT 3SM 26/23 A2971 RMK SLP052 T02570228 52002 IEM_DS3505
ZBAA,2006-08-07 01:00,ZBAA 070100Z AUTO 14004KT 1SM 27/25 A2971 RMK T02700250 IEM_DS3505
ZBAA,2006-08-07 02:00,ZBAA 070200Z AUTO 13004KT 1SM 28/26 A2971 RMK T02800260 IEM_DS3505
ZBAA,2006-08-07 03:00,ZBAA 070300Z AUTO 20004KT 3SM 30/23 A2971 RMK SLP053 T03000232 52001 IEM_DS3505
ZBAA,2006-08-07 04:00,ZBAA 070400Z AUTO 13006KT 1 1/4SM 31/27 A2971 RMK T03100270 IEM_DS3505
ZBAA,2006-08-07 05:00,ZBAA 070500Z AUTO 16008KT 2SM 32/26 A2968 RMK T03200260 IEM_DS3505
ZBAA,2006-08-07 06:00,ZBAA 070600Z AUTO 18004KT 9SM 32/23 A2968 RMK SLP041 T03230230 57012 IEM_DS3505
ZBAA,2006-08-07 07:00,ZBAA 070700Z AUTO 15008KT 3SM 32/26 A2965 RMK T03200260 IEM_DS3505
ZBAA,2006-08-07 08:00,ZBAA 070800Z AUTO 15008KT 3SM 32/26 A2965 RMK T03200260 IEM_DS3505
ZBAA,2006-08-07 09:00,ZBAA 070900Z AUTO 18006KT 9SM 32/23 A2965 RMK SLP034 T03180231 57007 IEM_DS3505
ZBAA,2006-08-07 10:00,ZBAA 071000Z AUTO 16006KT 4SM 31/26 A2965 RMK T03100260 IEM_DS3505
ZBAA,2006-08-07 11:00,ZBAA 071100Z AUTO 14004KT 3SM 30/27 A2965 RMK T03000270 IEM_DS3505
ZBAA,2006-08-07 12:00,ZBAA 071200Z AUTO 18004KT 7SM 30/24 A2968 RMK SLP046 T02950241 52012 IEM_DS3505
ZBAA,2006-08-07 13:00,ZBAA 071300Z AUTO 16006KT 2 1/2SM 28/26 A2971 RMK T02800260 IEM_DS3505
ZBAA,2006-08-07 14:00,ZBAA 071400Z AUTO 16006KT 2 1/2SM 28/26 A2971 RMK T02800260 IEM_DS3505
ZBAA,2006-08-07 15:00,ZBAA 071500Z AUTO 18004KT 7SM 28/24 A2971 RMK SLP058 T02780238 52012 IEM_DS3505
ZBAA,2006-08-07 16:00,ZBAA 071600Z AUTO 12006KT 2 1/2SM 27/26 A2974 RMK T02700260 IEM_DS3505
ZBAA,2006-08-07 17:00,ZBAA 071700Z AUTO 12008KT 1 1/4SM 26/26 A2971 RMK T02600260 IEM_DS3505
ZBAA,2006-08-07 18:00,ZBAA 071800Z AUTO 18004KT 5SM 26/24 A2971 RMK SLP056 T02620235 57002 IEM_DS3505
ZBAA,2006-08-07 19:00,ZBAA 071900Z AUTO 11006KT 1SM 26/26 A2971 RMK T02600260 IEM_DS3505
ZBAA,2006-08-07 20:00,ZBAA 072000Z AUTO 12006KT 1SM 26/26 A2971 RMK T02600260 IEM_DS3505
ZBAA,2006-08-07 21:00,ZBAA 072100Z AUTO 11002KT 2 1/2SM 26/24 A2971 RMK SLP058 T02570236 52002 IEM_DS3505
ZBAA,2006-08-07 22:00,ZBAA 072200Z AUTO 12006KT 3/8SM 25/25 A2974 RMK T02500250 IEM_DS3505
ZBAA,2006-08-07 23:00,ZBAA 072300Z AUTO 12004KT 1/2SM 25/25 A2974 RMK T02500250 IEM_DS3505
ZBAA,2006-08-08 00:00,ZBAA 080000Z AUTO 18002KT 2SM 27/23 A2974 RMK SLP068 T02740234 52010 IEM_DS3505
ZBAA,2006-08-08 01:00,ZBAA 080100Z AUTO 12006KT 1SM 27/26 A2977 RMK T02700260 IEM_DS3505
ZBAA,2006-08-08 02:00,ZBAA 080200Z AUTO 12006KT 1SM 29/26 A2977 RMK T02900260 IEM_DS3505
ZBAA,2006-08-08 03:00,ZBAA 080300Z AUTO 14004KT 5SM 30/24 A2977 RMK SLP067 T03040236 57001 IEM_DS3505
ZBAA,2006-08-08 04:00,ZBAA 080400Z AUTO 12006KT 1 1/2SM 31/26 A2974 RMK T03100260 IEM_DS3505
ZBAA,2006-08-08 05:00,ZBAA 080500Z AUTO 14006KT 2SM 31/26 A2974 RMK T03100260 IEM_DS3505
ZBAA,2006-08-08 06:00,ZBAA 080600Z AUTO 16006KT 6SM 32/23 A2971 RMK SLP054 T03220232 57013 IEM_DS3505
ZBAA,2006-08-08 07:00,ZBAA 080700Z AUTO 12008KT 2 1/2SM 32/26 A2971 RMK T03200260 IEM_DS3505
ZBAA,2006-08-08 08:00,ZBAA 080800Z AUTO 12008KT 2 1/2SM 32/26 A2968 RMK T03200260 IEM_DS3505
ZBAA,2006-08-08 09:00,ZBAA 080900Z AUTO 18006KT 6SM 31/23 A2968 RMK SLP046 T03140230 57008 IEM_DS3505
ZBAA,2006-08-08 10:00,ZBAA 081000Z AUTO 12010KT 2 1/2SM 30/26 A2968 RMK T03000260 IEM_DS3505
ZBAA,2006-08-08 11:00,ZBAA 081100Z AUTO 13008KT 2 1/2SM 29/25 A2971 RMK T02900250 IEM_DS3505
ZBAA,2006-08-08 12:00,ZBAA 081200Z AUTO 11004KT 5SM 30/24 A2974 RMK SLP059 T02950237 52013 IEM_DS3505
ZBAA,2006-08-08 13:00,ZBAA 081300Z AUTO 33004KT 2 1/2SM 26/25 A2974 RMK T02600250 IEM_DS3505
ZBAA,2006-08-08 14:00,ZBAA 081400Z AUTO 35006KT 3SM 25/24 A2977 RMK T02500240 IEM_DS3505
ZBAA,2006-08-08 15:00,ZBAA 081500Z AUTO 07004KT 4SM 28/23 A2977 RMK SLP068 T02800232 52009 IEM_DS3505
ZBAA,2006-08-08 16:00,ZBAA 081600Z AUTO 32008KT 4SM 25/24 A2974 RMK T02500240 IEM_DS3505
ZBAA,2006-08-08 17:00,ZBAA 081700Z AUTO 30004KT 4SM 25/23 A2974 RMK T02500230 IEM_DS3505
ZBAA,2006-08-08 18:00,ZBAA 081800Z AUTO 04004KT 5SM 25/23 A2974 RMK 60008 SLP058 T02470226 57010 IEM_DS3505
ZBAA,2006-08-08 19:00,ZBAA 081900Z AUTO 05008KT 2 1/2SM 25/24 A2977 RMK T02500240 IEM_DS3505
ZBAA,2006-08-08 20:00,ZBAA 082000Z AUTO 10008KT 4SM 24/23 A2977 RMK T02400230 IEM_DS3505
ZBAA,2006-08-08 21:00,ZBAA 082100Z AUTO 09004KT 5SM 25/22 A2977 RMK 70006 SLP068 T02460223 52010 IEM_DS3505
ZBAA,2006-08-08 22:00,ZBAA 082200Z AUTO 07004KT 6SM 23/22 A2974 RMK T02300220 IEM_DS3505
ZBAA,2006-08-08 23:00,ZBAA 082300Z AUTO 35002KT 6SM 24/22 A2977 RMK T02400220 IEM_DS3505
ZBAA,2006-08-09 00:00,ZBAA 090000Z AUTO 27002KT 7SM 26/22 A2977 RMK 60000 70006 SLP069 T02640220 52001 IEM_DS3505
ZBAA,2006-08-09 01:00,ZBAA 090100Z AUTO 01004KT 6SM 26/24 A2977 RMK T02600240 IEM_DS3505
ZBAA,2006-08-09 02:00,ZBAA 090200Z AUTO 04004KT 6SM 27/24 A2977 RMK T02700240 IEM_DS3505
ZBAA,2006-08-09 03:00,ZBAA 090300Z AUTO 11002KT 7SM 29/23 A2977 RMK SLP073 T02870232 52004 IEM_DS3505
ZBAA,2006-08-09 04:00,ZBAA 090400Z AUTO 16006KT 3SM 29/25 A2977 RMK T02900250 IEM_DS3505
ZBAA,2006-08-09 05:00,ZBAA 090500Z AUTO 14004KT 2 1/2SM 28/25 A2974 RMK T02800250 IEM_DS3505
ZBAA,2006-08-09 06:00,ZBAA 090600Z AUTO 18006KT 7SM 29/23 A2974 RMK SLP062 T02870232 57011 IEM_DS3505
ZBAA,2006-08-09 07:00,ZBAA 090700Z AUTO 14006KT 2 1/2SM 29/27 A2971 RMK T02900270 IEM_DS3505
ZBAA,2006-08-09 08:00,ZBAA 090800Z AUTO 16006KT 2 1/2SM 30/26 A2971 RMK T03000260 IEM_DS3505
ZBAA,2006-08-09 09:00,ZBAA 090900Z AUTO 20004KT 7SM 29/24 A2971 RMK SLP052 T02940241 57010 IEM_DS3505
ZBAA,2006-08-09 10:00,ZBAA 091000Z AUTO 15006KT 2 1/2SM 29/26 A2971 RMK T02900260 IEM_DS3505
ZBAA,2006-08-09 11:00,ZBAA 091100Z AUTO 16006KT 1 1/2SM 28/26 A2971 RMK T02800260 IEM_DS3505
ZBAA,2006-08-09 12:00,ZBAA 091200Z AUTO 22002KT 4SM 28/25 A2974 RMK SLP059 T02820246 52007 IEM_DS3505
ZBAA,2006-08-09 13:00,ZBAA 091300Z AUTO 12004KT 1 1/2SM 28/26 A2974 RMK T02800260 IEM_DS3505
ZBAA,2006-08-09 14:00,ZBAA 091400Z AUTO 10006KT 1 1/4SM 27/27 A2974 RMK T02700270 IEM_DS3505
ZBAA,2006-08-09 15:00,ZBAA 091500Z AUTO 09002KT 2 1/2SM 28/25 A2974 RMK SLP067 T02800246 52008 IEM_DS3505
ZBAA,2006-08-09 16:00,ZBAA 091600Z AUTO 15004KT 1SM 27/27 A2974 RMK T02700270 IEM_DS3505
ZBAA,2006-08-09 17:00,ZBAA 091700Z AUTO 14002KT 1SM 27/26 A2974 RMK T02700260 IEM_DS3505
ZBAA,2006-08-09 18:00,ZBAA 091800Z AUTO 25002KT 1 1/4SM 27/25 A2971 RMK 60012 SLP058 T02720252 57009 IEM_DS3505
ZBAA,2006-08-09 19:00,ZBAA 091900Z AUTO 15008KT 1SM 25/25 A2971 RMK T02500250 IEM_DS3505
ZBAA,2006-08-09 20:00,ZBAA 092000Z AUTO 09004KT 2 1/2SM 25/25 A2971 RMK T02500250 IEM_DS3505
ZBAA,2006-08-09 21:00,ZBAA 092100Z AUTO 05004KT 1 1/4SM 26/25 A2971 RMK 70014 SLP051 T02630247 57007 IEM_DS3505
ZBAA,2006-08-09 22:00,ZBAA 092200Z AUTO 09006KT 1/2SM 26/26 A2971 RMK T02600260 IEM_DS3505
ZBAA,2006-08-09 23:00,ZBAA 092300Z AUTO 12006KT 3/8SM 26/26 A2971 RMK T02600260 IEM_DS3505
ZBAA,2006-08-10 00:00,ZBAA 100000Z AUTO 14002KT 1SM 27/25 A2974 RMK 60004 70014 SLP062 T02680248 52011 IEM_DS3505
ZBAA,2006-08-10 01:00,ZBAA 100100Z AUTO 11010KT 2SM 25/25 A2974 RMK T02500250 IEM_DS3505
ZBAA,2006-08-10 02:00,ZBAA 100200Z AUTO 12010KT 2 1/2SM 25/25 A2977 RMK T02500250 IEM_DS3505
ZBAA,2006-08-10 03:00,ZBAA 100300Z AUTO 09006KT 3SM 28/24 A2977 RMK SLP065 T02770243 52003 IEM_DS3505
ZBAA,2006-08-10 04:00,ZBAA 100400Z AUTO 2 1/2SM 25/25 A2974 RMK T02500250 IEM_DS3505
ZBAA,2006-08-10 05:00,ZBAA 100500Z AUTO 07008KT 2 1/2SM 26/25 A2974 RMK T02600250 IEM_DS3505
ZBAA,2006-08-10 06:00,ZBAA 100600Z AUTO 32002KT 4SM 29/25 A2974 RMK 60000 SLP058 T02900250 57007 IEM_DS3505
ZBAA,2006-08-10 07:00,ZBAA 100700Z AUTO 36006KT 1SM 25/25 A2974 RMK T02500250 IEM_DS3505
ZBAA,2006-08-10 08:00,ZBAA 100800Z AUTO 05008KT 2 1/2SM 24/24 A2971 RMK T02400240 IEM_DS3505
ZBAA,2006-08-10 09:00,ZBAA 100900Z AUTO 09004KT 6SM 27/24 A2971 RMK SLP052 T02710236 57006 IEM_DS3505
ZBAA,2006-08-10 10:00,ZBAA 101000Z AUTO 2 1/2SM 25/25 A2968 RMK T02500250 IEM_DS3505
ZBAA,2006-08-10 11:00,ZBAA 101100Z AUTO 03006KT 2 1/2SM 25/25 A2971 RMK T02500250 IEM_DS3505
ZBAA,2006-08-10 12:00,ZBAA 101200Z AUTO 07006KT 4SM 26/23 A2971 RMK 60000 SLP055 T02560233 52003 IEM_DS3505
ZBAA,2006-08-10 13:00,ZBAA 101300Z AUTO 03004KT 2SM 25/25 A2974 RMK T02500250 IEM_DS3505
ZBAA,2006-08-10 14:00,ZBAA 101400Z AUTO 01002KT 2 1/2SM 25/25 A2974 RMK T02500250 IEM_DS3505
ZBAA,2006-08-10 15:00,ZBAA 101500Z AUTO 11004KT 4SM 26/24 A2974 RMK SLP061 T02570237 52006 IEM_DS3505
ZBAA,2006-08-10 16:00,ZBAA 101600Z AUTO 31004KT 2SM 25/25 A2974 RMK T02500250 IEM_DS3505
ZBAA,2006-08-10 17:00,ZBAA 101700Z AUTO 05002KT 1 1/2SM 25/25 A2971 RMK T02500250 IEM_DS3505
ZBAA,2006-08-10 18:00,ZBAA 101800Z AUTO 04002KT 2 1/2SM 26/24 A2971 RMK 60000 SLP056 T02550236 57005 IEM_DS3505
ZBAA,2006-08-10 19:00,ZBAA 101900Z AUTO 02002KT 1 1/2SM 25/25 A2971 RMK T02500250 IEM_DS3505
ZBAA,2006-08-10 20:00,ZBAA 102000Z AUTO 02002KT 1 1/4SM 25/25 A2971 RMK T02500250 IEM_DS3505
ZBAA,2006-08-10 21:00,ZBAA 102100Z AUTO 09002KT 2SM 25/24 A2974 RMK 70000 SLP059 T02540236 52003 IEM_DS3505
ZBAA,2006-08-10 22:00,ZBAA 102200Z AUTO 11004KT 1SM 25/25 A2974 RMK T02500250 IEM_DS3505
ZBAA,2006-08-10 23:00,ZBAA 102300Z AUTO 14004KT 1/2SM 25/25 A2974 RMK T02500250 IEM_DS3505
ZBAA,2006-08-11 00:00,ZBAA 110000Z AUTO 09002KT 1 1/4SM 26/24 A2974 RMK 70000 SLP059 T02640243 54000 IEM_DS3505
ZBAA,2006-08-11 01:00,ZBAA 110100Z AUTO 14004KT 1SM 26/26 A2974 RMK T02600260 IEM_DS3505
ZBAA,2006-08-11 02:00,ZBAA 110200Z AUTO 16004KT 1SM 27/27 A2974 RMK T02700270 IEM_DS3505
ZBAA,2006-08-11 03:00,ZBAA 110300Z AUTO 22004KT 4SM 30/24 A2974 RMK SLP061 T02990245 52002 IEM_DS3505
ZBAA,2006-08-11 04:00,ZBAA 110400Z AUTO 1SM 30/27 A2974 RMK T03000270 IEM_DS3505
ZBAA,2006-08-11 05:00,ZBAA 110500Z AUTO 16004KT 1SM 31/28 A2971 RMK T03100280 IEM_DS3505
ZBAA,2006-08-11 06:00,ZBAA 110600Z AUTO 20008KT 6SM 32/24 A2971 RMK SLP053 T03180244 57008 IEM_DS3505
ZBAA,2006-08-11 07:00,ZBAA 110700Z AUTO 19008KT 2SM 32/27 A2968 RMK T03200270 IEM_DS3505
ZBAA,2006-08-11 08:00,ZBAA 110800Z AUTO 19010KT 2SM 31/28 A2965 RMK T03100280 IEM_DS3505
ZBAA,2006-08-11 09:00,ZBAA 110900Z AUTO 20008KT 6SM 31/24 A2965 RMK SLP038 T03090241 57015 IEM_DS3505
ZBAA,2006-08-11 10:00,ZBAA 111000Z AUTO 17006KT 1 1/2SM 29/27 A2965 RMK T02900270 IEM_DS3505
ZBAA,2006-08-11 11:00,ZBAA 111100Z AUTO 16006KT 1 1/2SM 29/27 A2965 RMK T02900270 IEM_DS3505
ZBAA,2006-08-11 12:00,ZBAA 111200Z AUTO 18002KT 5SM 30/25 A2965 RMK 60000 SLP036 T02980251 57002 IEM_DS3505
ZBAA,2006-08-11 13:00,ZBAA 111300Z AUTO 14004KT 1 1/4SM 29/27 A2968 RMK T02900270 IEM_DS3505
ZBAA,2006-08-11 14:00,ZBAA 111400Z AUTO 11006KT 1 1/4SM 28/27 A2968 RMK T02800270 IEM_DS3505
ZBAA,2006-08-11 15:00,ZBAA 111500Z AUTO 18004KT 4SM 29/25 A2968 RMK SLP041 T02860250 52005 IEM_DS3505
ZBAA,2006-08-11 16:00,ZBAA 111600Z AUTO 14004KT 1SM 28/27 A2968 RMK T02800270 IEM_DS3505
ZBAA,2006-08-11 17:00,ZBAA 111700Z AUTO 15004KT 1SM 27/27 A2968 RMK T02700270 IEM_DS3505
ZBAA,2006-08-11 18:00,ZBAA 111800Z AUTO 20004KT 4SM 28/24 A2968 RMK SLP042 T02770245 52001 IEM_DS3505
ZBAA,2006-08-11 19:00,ZBAA 111900Z AUTO 16006KT 1 1/4SM 27/27 A2968 RMK T02700270 IEM_DS3505
ZBAA,2006-08-11 20:00,ZBAA 112000Z AUTO 15006KT 1 1/4SM 27/26 A2965 RMK T02700260 IEM_DS3505
ZBAA,2006-08-11 21:00,ZBAA 112100Z AUTO 20004KT 2 1/2SM 27/24 A2965 RMK 70000 SLP035 T02720243 57007 IEM_DS3505
ZBAA,2006-08-11 22:00,ZBAA 112200Z AUTO 13002KT 1SM 26/26 A2965 RMK T02600260 IEM_DS3505
ZBAA,2006-08-11 23:00,ZBAA 112300Z AUTO 14004KT 1SM 27/27 A2965 RMK T02700270 IEM_DS3505
ZBAA,2006-08-12 00:00,ZBAA 120000Z AUTO 22004KT 2 1/2SM 28/25 A2965 RMK 70000 SLP036 T02800246 52001 IEM_DS3505
ZBAA,2006-08-12 01:00,ZBAA 120100Z AUTO 13002KT 1 1/4SM 28/27 A2965 RMK T02800270 IEM_DS3505
ZBAA,2006-08-12 02:00,ZBAA 120200Z AUTO 13006KT 1 1/4SM 29/28 A2965 RMK T02900280 IEM_DS3505
ZBAA,2006-08-12 03:00,ZBAA 120300Z AUTO 25004KT 4SM 31/25 A2968 RMK SLP037 T03100251 52001 IEM_DS3505
ZBAA,2006-08-12 04:00,ZBAA 120400Z AUTO 14004KT 1 1/4SM 31/28 A2965 RMK T03100280 IEM_DS3505
ZBAA,2006-08-12 05:00,ZBAA 120500Z AUTO 17004KT 1 1/2SM 32/29 A2965 RMK T03200290 IEM_DS3505
ZBAA,2006-08-12 06:00,ZBAA 120600Z AUTO 20006KT 4SM 32/25 A2962 RMK SLP027 T03210249 57010 IEM_DS3505
ZBAA,2006-08-12 07:00,ZBAA 120700Z AUTO 14004KT 1 1/2SM 32/28 A2962 RMK T03200280 IEM_DS3505
ZBAA,2006-08-12 08:00,ZBAA 120800Z AUTO 16006KT 2SM 32/29 A2962 RMK T03200290 IEM_DS3505
ZBAA,2006-08-12 09:00,ZBAA 120900Z AUTO 25006KT 5SM 32/25 A2962 RMK SLP020 T03230251 57007 IEM_DS3505
ZBAA,2006-08-12 10:00,ZBAA 121000Z AUTO 22004KT 1 1/2SM 31/28 A2962 RMK T03100280 IEM_DS3505
ZBAA,2006-08-12 11:00,ZBAA 121100Z AUTO 35004KT 1 1/4SM 30/29 A2962 RMK T03000290 IEM_DS3505
ZBAA,2006-08-12 12:00,ZBAA 121200Z AUTO 22002KT 4SM 31/26 A2965 RMK SLP030 T03110257 52010 IEM_DS3505
ZBAA,2006-08-12 13:00,ZBAA 121300Z AUTO 16004KT 1SM 29/29 A2965 RMK T02900290 IEM_DS3505
ZBAA,2006-08-12 14:00,ZBAA 121400Z AUTO 02002KT 1SM 29/29 A2965 RMK T02900290 IEM_DS3505
ZBAA,2006-08-12 15:00,ZBAA 121500Z AUTO 22002KT 2 1/2SM 30/26 A2965 RMK SLP037 T02990259 52007 IEM_DS3505
ZBAA,2006-08-12 16:00,ZBAA 121600Z AUTO 36004KT 1SM 29/29 A2965 RMK T02900290 IEM_DS3505
ZBAA,2006-08-12 17:00,ZBAA 121700Z AUTO 28008KT 1SM 28/28 A2965 RMK T02800280 IEM_DS3505
ZBAA,2006-08-12 18:00,ZBAA 121800Z AUTO 36006KT 7SM 24/22 A2968 RMK 60063 SLP039 T02380219 52002 IEM_DS3505
ZBAA,2006-08-12 19:00,ZBAA 121900Z AUTO 29004KT 5SM 24/24 A2968 RMK T02400240 IEM_DS3505
ZBAA,2006-08-12 19:30,ZBAA 121930Z AUTO 28006KT 6SM 24/24 A2968 RMK T02400240 IEM_DS3505
ZBAA,2006-08-12 20:00,ZBAA 122000Z AUTO 31008KT 6SM 25/24 A2968 RMK T02500240 IEM_DS3505
ZBAA,2006-08-12 21:00,ZBAA 122100Z AUTO 25004KT 6SM 25/22 A2968 RMK 70083 SLP050 T02460221 52011 IEM_DS3505
ZBAA,2006-08-12 21:30,ZBAA 122130Z AUTO 01008KT 7SM 25/24 A2968 RMK T02500240 IEM_DS3505
ZBAA,2006-08-12 22:00,ZBAA 122200Z AUTO 29008KT 7SM 25/23 A2971 RMK T02500230 IEM_DS3505
ZBAA,2006-08-12 23:00,ZBAA 122300Z AUTO 35006KT 6SM 24/23 A2971 RMK T02400230 IEM_DS3505
ZBAA,2006-08-13 00:00,ZBAA 130000Z AUTO 02002KT 9SM 25/21 A2971 RMK 60043 70106 SLP056 T02460213 52006 IEM_DS3505
ZBAA,2006-08-13 01:00,ZBAA 130100Z AUTO 33008KT 7SM 24/23 A2974 RMK T02400230 IEM_DS3505
ZBAA,2006-08-13 02:00,ZBAA 130200Z AUTO 35010KT 7SM 24/23 A2974 RMK T02400230 IEM_DS3505
ZBAA,2006-08-13 03:00,ZBAA 130300Z AUTO 02004KT 12SM 26/20 A2974 RMK SLP059 T02640205 52003 IEM_DS3505
ZBAA,2006-08-13 04:00,ZBAA 130400Z AUTO 01014KT 7SM 24/21 A2974 RMK T02400210 IEM_DS3505
ZBAA,2006-08-13 05:00,ZBAA 130500Z AUTO 01016KT 7SM 23/21 A2974 RMK T02300210 IEM_DS3505
ZBAA,2006-08-13 06:00,ZBAA 130600Z AUTO 01012KT 7SM 22/21 A2974 RMK T02200210 IEM_DS3505
ZBAA,2006-08-13 07:00,ZBAA 130700Z AUTO 02012KT 7SM 22/21 A2971 RMK T02200210 IEM_DS3505
ZBAA,2006-08-13 08:00,ZBAA 130800Z AUTO 35010KT 4SM 21/21 A2974 RMK T02100210 IEM_DS3505
ZBAA,2006-08-13 09:00,ZBAA 130900Z AUTO 04006KT 9SM 21/19 A2974 RMK SLP064 T02130194 52007 IEM_DS3505
ZBAA,2006-08-13 10:00,ZBAA 131000Z AUTO 35008KT 4SM 21/21 A2974 RMK T02100210 IEM_DS3505
ZBAA,2006-08-13 11:00,ZBAA 131100Z AUTO 36006KT 7SM 21/21 A2974 RMK T02100210 IEM_DS3505
ZBAA,2006-08-13 12:00,ZBAA 131200Z AUTO 02004KT 7SM 22/20 A2974 RMK 60028 SLP066 T02160195 52002 IEM_DS3505
ZBAA,2006-08-13 13:00,ZBAA 131300Z AUTO 34006KT 7SM 21/21 A2974 RMK T02100210 IEM_DS3505
ZBAA,2006-08-13 14:00,ZBAA 131400Z AUTO 33006KT 6SM 21/21 A2974 RMK T02100210 IEM_DS3505
ZBAA,2006-08-13 15:00,ZBAA 131500Z AUTO 02002KT 7SM 22/20 A2974 RMK SLP063 T02200199 57003 IEM_DS3505
ZBAA,2006-08-13 16:00,ZBAA 131600Z AUTO 33002KT 6SM 21/21 A2974 RMK T02100210 IEM_DS3505
ZBAA,2006-08-13 17:00,ZBAA 131700Z AUTO 34004KT 6SM 21/21 A2971 RMK T02100210 IEM_DS3505
ZBAA,2006-08-13 18:00,ZBAA 131800Z AUTO 29002KT 7SM 22/20 A2971 RMK 60000 SLP055 T02190198 57008 IEM_DS3505
ZBAA,2006-08-13 19:00,ZBAA 131900Z AUTO 33006KT 6SM 21/21 A2971 RMK T02100210 IEM_DS3505
ZBAA,2006-08-13 20:00,ZBAA 132000Z AUTO 33004KT 6SM 21/21 A2971 RMK T02100210 IEM_DS3505
ZBAA,2006-08-13 21:00,ZBAA 132100Z AUTO 29002KT 7SM 22/20 A2971 RMK 70051 SLP054 T02210202 57001 IEM_DS3505
ZBAA,2006-08-13 22:00,ZBAA 132200Z AUTO 34004KT 6SM 21/21 A2971 RMK T02100210 IEM_DS3505
ZBAA,2006-08-13 23:00,ZBAA 132300Z AUTO 33006KT 6SM 22/21 A2971 RMK T02200210 IEM_DS3505
ZBAA,2006-08-14 00:00,ZBAA 140000Z AUTO 04002KT 12SM 24/20 A2971 RMK 70027 SLP055 T02350196 52001 IEM_DS3505
ZBAA,2006-08-14 01:00,ZBAA 140100Z AUTO 35004KT 6SM 24/22 A2971 RMK T02400220 IEM_DS3505
ZBAA,2006-08-14 02:00,ZBAA 140200Z AUTO 36006KT 6SM 25/22 A2971 RMK T02500220 IEM_DS3505
ZBAA,2006-08-14 03:00,ZBAA 140300Z AUTO 25004KT 12SM 26/20 A2971 RMK SLP053 T02650196 57001 IEM_DS3505
ZBAA,2006-08-14 04:00,ZBAA 140400Z AUTO 36004KT 6SM 26/23 A2971 RMK T02600230 IEM_DS3505
ZBAA,2006-08-14 05:00,ZBAA 140500Z AUTO 28006KT 6SM 27/23 A2971 RMK T02700230 IEM_DS3505
ZBAA,2006-08-14 06:00,ZBAA 140600Z AUTO 02002KT 12SM 27/21 A2968 RMK 60000 SLP042 T02700211 57011 IEM_DS3505
ZBAA,2006-08-14 07:00,ZBAA 140700Z AUTO 32008KT 7SM 26/24 A2968 RMK T02600240 IEM_DS3505
ZBAA,2006-08-14 08:00,ZBAA 140800Z AUTO 13002KT 4SM 26/24 A2965 RMK T02600240 IEM_DS3505
ZBAA,2006-08-14 09:00,ZBAA 140900Z AUTO 25004KT 9SM 26/22 A2965 RMK SLP039 T02600219 57003 IEM_DS3505
ZBAA,2006-08-14 10:00,ZBAA 141000Z AUTO 01004KT 3SM 26/25 A2965 RMK T02600250 IEM_DS3505
ZBAA,2006-08-14 11:00,ZBAA 141100Z AUTO 3SM 25/24 A2965 RMK T02500240 IEM_DS3505
ZBAA,2006-08-14 12:00,ZBAA 141200Z AUTO 16006KT 9SM 25/22 A2968 RMK 60000 SLP043 T02500223 52004 IEM_DS3505
ZBAA,2006-08-14 13:00,ZBAA 141300Z AUTO 18006KT 2 1/2SM 24/24 A2968 RMK T02400240 IEM_DS3505
ZBAA,2006-08-14 14:00,ZBAA 141400Z AUTO 25004KT 2SM 24/24 A2968 RMK T02400240 IEM_DS3505
ZBAA,2006-08-14 15:00,ZBAA 141500Z AUTO 32004KT 9SM 24/22 A2968 RMK SLP046 T02400223 52003 IEM_DS3505
ZBAA,2006-08-14 16:00,ZBAA 141600Z AUTO 01004KT 1/8SM 23/23 A2971 RMK T02300230 IEM_DS3505
ZBAA,2006-08-14 17:00,ZBAA 141700Z AUTO 03002KT 1/8SM 23/23 A2971 RMK T02300230 IEM_DS3505
ZBAA,2006-08-14 18:00,ZBAA 141800Z AUTO 11002KT 5SM 23/22 A2968 RMK SLP047 T02340220 52001 IEM_DS3505
ZBAA,2006-08-14 19:00,ZBAA 141900Z AUTO 30004KT 1SM 22/22 A2968 RMK T02200220 IEM_DS3505
ZBAA,2006-08-14 20:00,ZBAA 142000Z AUTO 32006KT 2 1/2SM 21/21 A2968 RMK T02100210 IEM_DS3505
ZBAA,2006-08-14 21:00,ZBAA 142100Z AUTO 02002KT 3SM 23/21 A2968 RMK 70000 SLP040 T02260214 57007 IEM_DS3505
ZBAA,2006-08-14 22:00,ZBAA 142200Z AUTO 34006KT 6SM 20/20 A2968 RMK T02000200 IEM_DS3505
ZBAA,2006-08-14 23:00,ZBAA 142300Z AUTO 34006KT 6SM 22/22 A2968 RMK T02200220 IEM_DS3505
ZBAA,2006-08-15 00:00,ZBAA 150000Z AUTO 04004KT 12SM 26/20 A2971 RMK 70000 SLP048 T02560202 52008 IEM_DS3505
ZBAA,2006-08-15 01:00,ZBAA 150100Z AUTO 36008KT 6SM 26/23 A2971 RMK T02600230 IEM_DS3505
ZBAA,2006-08-15 02:00,ZBAA 150200Z AUTO 35004KT 6SM 28/23 A2971 RMK T02800230 IEM_DS3505
ZBAA,2006-08-15 03:00,ZBAA 150300Z AUTO 07004KT 19SM 30/19 A2971 RMK SLP049 T03010189 52001 IEM_DS3505
ZBAA,2006-08-15 04:00,ZBAA 150400Z AUTO 06004KT 6SM 31/23 A2968 RMK T03100230 IEM_DS3505
ZBAA,2006-08-15 05:00,ZBAA 150500Z AUTO 07004KT 6SM 31/23 A2968 RMK T03100230 IEM_DS3505
ZBAA,2006-08-15 06:00,ZBAA 150600Z AUTO 16002KT 19SM 33/19 A2965 RMK SLP035 T03290190 57014 IEM_DS3505
ZBAA,2006-08-15 07:00,ZBAA 150700Z AUTO 13004KT 6SM 33/20 A2965 RMK T03300200 IEM_DS3505
ZBAA,2006-08-15 08:00,ZBAA 150800Z AUTO 15006KT 6SM 33/19 A2965 RMK T03300190 IEM_DS3505
ZBAA,2006-08-15 09:00,ZBAA 150900Z AUTO 18006KT 19SM 32/18 A2962 RMK SLP029 T03240175 57006 IEM_DS3505
ZBAA,2006-08-15 10:00,ZBAA 151000Z AUTO 16006KT 6SM 30/23 A2962 RMK T03000230 IEM_DS3505
ZBAA,2006-08-15 11:00,ZBAA 151100Z AUTO 19006KT 7SM 28/23 A2965 RMK T02800230 IEM_DS3505
ZBAA,2006-08-15 12:00,ZBAA 151200Z AUTO 20004KT 19SM 29/21 A2965 RMK SLP036 T02860209 52007 IEM_DS3505
ZBAA,2006-08-15 13:00,ZBAA 151300Z AUTO 18006KT 7SM 26/23 A2968 RMK T02600230 IEM_DS3505
ZBAA,2006-08-15 14:00,ZBAA 151400Z AUTO 19004KT 6SM 25/23 A2968 RMK T02500230 IEM_DS3505
ZBAA,2006-08-15 15:00,ZBAA 151500Z AUTO 22002KT 12SM 27/21 A2968 RMK SLP040 T02660211 52004 IEM_DS3505
ZBAA,2006-08-15 16:00,ZBAA 151600Z AUTO 13004KT 4SM 25/24 A2968 RMK T02500240 IEM_DS3505
ZBAA,2006-08-15 17:00,ZBAA 151700Z AUTO 10002KT 3SM 25/24 A2968 RMK T02500240 IEM_DS3505
ZBAA,2006-08-15 18:00,ZBAA 151800Z AUTO 20002KT 9SM 24/21 A2968 RMK SLP042 T02450214 52002 IEM_DS3505
ZBAA,2006-08-15 19:00,ZBAA 151900Z AUTO 08004KT 1 1/2SM 24/23 A2968 RMK T02400230 IEM_DS3505
ZBAA,2006-08-15 20:00,ZBAA 152000Z AUTO 06006KT 1 1/4SM 23/23 A2968 RMK T02300230 IEM_DS3505
ZBAA,2006-08-15 21:00,ZBAA 152100Z AUTO 09002KT 7SM 23/21 A2971 RMK SLP050 T02330214 52008 IEM_DS3505
ZBAA,2006-08-15 22:00,ZBAA 152200Z AUTO 04004KT 1 1/2SM 23/23 A2971 RMK T02300230 IEM_DS3505
ZBAA,2006-08-15 23:00,ZBAA 152300Z AUTO 03004KT 1 1/2SM 24/23 A2971 RMK T02400230 IEM_DS3505
ZBAA,2006-08-16 00:00,ZBAA 160000Z AUTO 04002KT 5SM 26/22 A2971 RMK SLP057 T02560223 52007 IEM_DS3505
ZBAA,2006-08-16 01:00,ZBAA 160100Z AUTO 02004KT 1 1/2SM 25/24 A2974 RMK T02500240 IEM_DS3505
ZBAA,2006-08-16 02:00,ZBAA 160200Z AUTO 01004KT 2SM 26/24 A2974 RMK T02600240 IEM_DS3505
ZBAA,2006-08-16 03:00,ZBAA 160300Z AUTO 36004KT 4SM 29/22 A2974 RMK SLP058 T02880221 52001 IEM_DS3505
ZBAA,2006-08-16 04:00,ZBAA 160400Z AUTO 2SM 30/25 A2971 RMK T03000250 IEM_DS3505
ZBAA,2006-08-16 05:00,ZBAA 160500Z AUTO 4SM 32/25 A2971 RMK T03200250 IEM_DS3505
ZBAA,2006-08-16 06:00,ZBAA 160600Z AUTO 20004KT 9SM 32/19 A2968 RMK SLP044 T03240189 57014 IEM_DS3505
ZBAA,2006-08-16 07:00,ZBAA 160700Z AUTO 6SM 33/24 A2968 RMK T03300240 IEM_DS3505
ZBAA,2006-08-16 08:00,ZBAA 160800Z AUTO 24002KT 6SM 33/22 A2968 RMK T03300220 IEM_DS3505
ZBAA,2006-08-16 09:00,ZBAA 160900Z AUTO 20006KT 9SM 32/20 A2968 RMK SLP043 T03150198 57001 IEM_DS3505
ZBAA,2006-08-16 10:00,ZBAA 161000Z AUTO 12006KT 6SM 31/23 A2968 RMK T03100230 IEM_DS3505
ZBAA,2006-08-16 11:00,ZBAA 161100Z AUTO 14004KT 6SM 30/23 A2971 RMK T03000230 IEM_DS3505
ZBAA,2006-08-16 12:00,ZBAA 161200Z AUTO 20002KT 6SM 29/20 A2971 RMK SLP058 T02930196 52015 IEM_DS3505
ZBAA,2006-08-16 13:00,ZBAA 161300Z AUTO 12008KT 4SM 27/23 A2977 RMK T02700230 IEM_DS3505
ZBAA,2006-08-16 14:00,ZBAA 161400Z AUTO 13008KT 5SM 26/22 A2977 RMK T02600220 IEM_DS3505
ZBAA,2006-08-16 15:00,ZBAA 161500Z AUTO 11006KT 6SM 27/22 A2977 RMK SLP075 T02670217 52017 IEM_DS3505
ZBAA,2006-08-16 16:00,ZBAA 161600Z AUTO 14004KT 4SM 26/22 A2980 RMK T02600220 IEM_DS3505
ZBAA,2006-08-16 17:00,ZBAA 161700Z AUTO 07006KT 4SM 25/23 A2980 RMK T02500230 IEM_DS3505
ZBAA,2006-08-16 18:00,ZBAA 161800Z AUTO 14002KT 5SM 25/22 A2980 RMK SLP086 T02530216 52011 IEM_DS3505
ZBAA,2006-08-16 19:00,ZBAA 161900Z AUTO 09004KT 2 1/2SM 24/23 A2983 RMK T02400230 IEM_DS3505
ZBAA,2006-08-16 20:00,ZBAA 162000Z AUTO 08006KT 2SM 24/23 A2983 RMK T02400230 IEM_DS3505
ZBAA,2006-08-16 21:00,ZBAA 162100Z AUTO 14004KT 5SM 24/20 A2983 RMK SLP094 T02420203 52008 IEM_DS3505
ZBAA,2006-08-16 22:00,ZBAA 162200Z AUTO 13002KT 2SM 24/23 A2985 RMK T02400230 IEM_DS3505
ZBAA,2006-08-16 23:00,ZBAA 162300Z AUTO 06004KT 2SM 25/23 A2985 RMK T02500230 IEM_DS3505
ZBAA,2006-08-17 00:00,ZBAA 170000Z AUTO 11002KT 5SM 27/21 A2985 RMK SLP105 T02670208 52011 IEM_DS3505
ZBAA,2006-08-17 01:00,ZBAA 170100Z AUTO 06004KT 3SM 27/23 A2988 RMK T02700230 IEM_DS3505
ZBAA,2006-08-17 02:00,ZBAA 170200Z AUTO 15004KT 4SM 28/23 A2988 RMK T02800230 IEM_DS3505
ZBAA,2006-08-17 03:00,ZBAA 170300Z AUTO 20004KT 9SM 29/19 A2988 RMK SLP107 T02930187 52002 IEM_DS3505
ZBAA,2006-08-17 04:00,ZBAA 170400Z AUTO 13004KT 4SM 30/23 A2985 RMK T03000230 IEM_DS3505
ZBAA,2006-08-17 05:00,ZBAA 170500Z AUTO 12004KT 4SM 30/23 A2985 RMK T03000230 IEM_DS3505
ZBAA,2006-08-17 06:00,ZBAA 170600Z AUTO 14006KT 12SM 30/20 A2983 RMK SLP097 T03000200 57010 IEM_DS3505
ZBAA,2006-08-17 07:00,ZBAA 170700Z AUTO 15008KT 6SM 30/23 A2983 RMK T03000230 IEM_DS3505
ZBAA,2006-08-17 08:00,ZBAA 170800Z AUTO 19008KT 6SM 29/24 A2983 RMK T02900240 IEM_DS3505
ZBAA,2006-08-17 09:00,ZBAA 170900Z AUTO 20006KT 9SM 30/20 A2983 RMK SLP089 T02980204 57008 IEM_DS3505
ZBAA,2006-08-17 10:00,ZBAA 171000Z AUTO 19006KT 4SM 28/24 A2983 RMK T02800240 IEM_DS3505
ZBAA,2006-08-17 11:00,ZBAA 171100Z AUTO 16004KT 4SM 27/24 A2983 RMK T02700240 IEM_DS3505
ZBAA,2006-08-17 12:00,ZBAA 171200Z AUTO 22004KT 7SM 28/21 A2983 RMK SLP097 T02780209 52008 IEM_DS3505
ZBAA,2006-08-17 13:00,ZBAA 171300Z AUTO 14004KT 3SM 27/24 A2983 RMK T02700240 IEM_DS3505
ZBAA,2006-08-17 14:00,ZBAA 171400Z AUTO 16004KT 3SM 26/24 A2985 RMK T02600240 IEM_DS3505
ZBAA,2006-08-17 15:00,ZBAA 171500Z AUTO 20002KT 6SM 26/21 A2985 RMK SLP102 T02600210 52005 IEM_DS3505
ZBAA,2006-08-17 16:00,ZBAA 171600Z AUTO 15006KT 2 1/2SM 25/24 A2985 RMK T02500240 IEM_DS3505
ZBAA,2006-08-17 17:00,ZBAA 171700Z AUTO 15004KT 2 1/2SM 25/24 A2985 RMK T02500240 IEM_DS3505
ZBAA,2006-08-17 18:00,ZBAA 171800Z AUTO 18004KT 5SM 25/21 A2985 RMK SLP107 T02470212 52005 IEM_DS3505
ZBAA,2006-08-17 19:00,ZBAA 171900Z AUTO 17004KT 2SM 24/23 A2985 RMK T02400230 IEM_DS3505
ZBAA,2006-08-17 20:00,ZBAA 172000Z AUTO 05002KT 1 1/2SM 24/24 A2985 RMK T02400240 IEM_DS3505
ZBAA,2006-08-17 21:00,ZBAA 172100Z AUTO 27002KT 5SM 24/21 A2985 RMK SLP108 T02410210 52001 IEM_DS3505
ZBAA,2006-08-17 22:00,ZBAA 172200Z AUTO 06002KT 1 1/4SM 24/23 A2988 RMK T02400230 IEM_DS3505
ZBAA,2006-08-17 23:00,ZBAA 172300Z AUTO 00000KT 1 1/2SM 24/24 A2988 RMK T02400240 IEM_DS3505
ZBAA,2006-08-18 00:00,ZBAA 180000Z AUTO 04002KT 5SM 26/22 A2991 RMK SLP116 T02630215 52008 IEM_DS3505
ZBAA,2006-08-18 01:00,ZBAA 180100Z AUTO 07004KT 3SM 26/24 A2991 RMK T02600240 IEM_DS3505
ZBAA,2006-08-18 02:00,ZBAA 180200Z AUTO 10004KT 3SM 28/25 A2988 RMK T02800250 IEM_DS3505
ZBAA,2006-08-18 03:00,ZBAA 180300Z AUTO 14002KT 7SM 29/22 A2988 RMK SLP113 T02940221 57003 IEM_DS3505
ZBAA,2006-08-18 04:00,ZBAA 180400Z AUTO 16004KT 3SM 30/24 A2988 RMK T03000240 IEM_DS3505
ZBAA,2006-08-18 05:00,ZBAA 180500Z AUTO 10004KT 4SM 31/24 A2985 RMK T03100240 IEM_DS3505
ZBAA,2006-08-18 06:00,ZBAA 180600Z AUTO 16004KT 7SM 32/22 A2985 RMK SLP102 T03180216 57011 IEM_DS3505
ZBAA,2006-08-18 07:00,ZBAA 180700Z AUTO 20006KT 3SM 32/25 A2983 RMK T03200250 IEM_DS3505
ZBAA,2006-08-18 08:00,ZBAA 180800Z AUTO 14006KT 3SM 32/24 A2983 RMK T03200240 IEM_DS3505
ZBAA,2006-08-18 09:00,ZBAA 180900Z AUTO 20004KT 9SM 31/22 A2983 RMK SLP095 T03130223 57007 IEM_DS3505
ZBAA,2006-08-18 10:00,ZBAA 181000Z AUTO 17006KT 4SM 30/25 A2983 RMK T03000250 IEM_DS3505
ZBAA,2006-08-18 11:00,ZBAA 181100Z AUTO 16006KT 4SM 28/25 A2983 RMK T02800250 IEM_DS3505
ZBAA,2006-08-18 12:00,ZBAA 181200Z AUTO 25002KT 9SM 29/22 A2985 RMK SLP104 T02870220 52009 IEM_DS3505
ZBAA,2006-08-18 13:00,ZBAA 181300Z AUTO 3SM 27/25 A2985 RMK T02700250 IEM_DS3505
ZBAA,2006-08-18 14:00,ZBAA 181400Z AUTO 00000KT 2 1/2SM 26/25 A2985 RMK T02600250 IEM_DS3505
ZBAA,2006-08-18 15:00,ZBAA 181500Z AUTO 30002KT 6SM 27/22 A2985 RMK SLP103 T02670223 57001 IEM_DS3505
ZBAA,2006-08-18 16:00,ZBAA 181600Z AUTO 02004KT 1 1/2SM 26/25 A2985 RMK T02600250 IEM_DS3505
ZBAA,2006-08-18 17:00,ZBAA 181700Z AUTO 33004KT 2SM 25/24 A2985 RMK T02500240 IEM_DS3505
ZBAA,2006-08-18 18:00,ZBAA 181800Z AUTO 29002KT 6SM 26/22 A2985 RMK SLP099 T02550224 57004 IEM_DS3505
ZBAA,2006-08-18 19:00,ZBAA 181900Z AUTO 35006KT 1 1/4SM 23/23 A2985 RMK T02300230 IEM_DS3505
ZBAA,2006-08-18 20:00,ZBAA 182000Z AUTO 34004KT 1 1/4SM 23/23 A2983 RMK T02300230 IEM_DS3505
ZBAA,2006-08-18 21:00,ZBAA 182100Z AUTO 04002KT 5SM 24/22 A2983 RMK SLP098 T02410222 57001 IEM_DS3505
ZBAA,2006-08-18 22:00,ZBAA 182200Z AUTO 34006KT 1 1/2SM 22/22 A2985 RMK T02200220 IEM_DS3505
ZBAA,2006-08-18 23:00,ZBAA 182300Z AUTO 34006KT 2SM 23/23 A2985 RMK T02300230 IEM_DS3505
ZBAA,2006-08-19 00:00,ZBAA 190000Z AUTO 04002KT 5SM 26/22 A2985 RMK SLP102 T02650215 52004 IEM_DS3505
ZBAA,2006-08-19 01:00,ZBAA 190100Z AUTO 05002KT 2 1/2SM 27/24 A2983 RMK T02700240 IEM_DS3505
ZBAA,2006-08-19 02:00,ZBAA 190200Z AUTO 04002KT 2 1/2SM 28/25 A2983 RMK T02800250 IEM_DS3505
ZBAA,2006-08-19 03:00,ZBAA 190300Z AUTO 36002KT 6SM 31/22 A2983 RMK SLP091 T03070223 57011 IEM_DS3505
ZBAA,2006-08-19 04:00,ZBAA 190400Z AUTO 15004KT 1 1/2SM 31/25 A2980 RMK T03100250 IEM_DS3505
ZBAA,2006-08-19 05:00,ZBAA 190500Z AUTO 2 1/2SM 33/24 A2980 RMK T03300240 IEM_DS3505
ZBAA,2006-08-19 06:00,ZBAA 190600Z AUTO 16006KT 9SM 33/17 A2977 RMK SLP074 T03290171 57017 IEM_DS3505
ZBAA,2006-08-19 07:00,ZBAA 190700Z AUTO 15006KT 4SM 33/21 A2974 RMK T03300210 IEM_DS3505
ZBAA,2006-08-19 08:00,ZBAA 190800Z AUTO 13010KT 4SM 33/20 A2974 RMK T03300200 IEM_DS3505
ZBAA,2006-08-19 09:00,ZBAA 190900Z AUTO 16006KT 12SM 33/15 A2974 RMK SLP061 T03290154 57013 IEM_DS3505
ZBAA,2006-08-19 10:00,ZBAA 191000Z AUTO 15004KT 6SM 30/22 A2974 RMK T03000220 IEM_DS3505
ZBAA,2006-08-19 11:00,ZBAA 191100Z AUTO 16004KT 5SM 28/23 A2974 RMK T02800230 IEM_DS3505
ZBAA,2006-08-19 12:00,ZBAA 191200Z AUTO 14002KT 9SM 29/21 A2974 RMK SLP069 T02940206 52008 IEM_DS3505
ZBAA,2006-08-19 13:00,ZBAA 191300Z AUTO 17004KT 4SM 26/22 A2977 RMK T02600220 IEM_DS3505
ZBAA,2006-08-19 14:00,ZBAA 191400Z AUTO 16004KT 4SM 26/22 A2977 RMK T02600220 IEM_DS3505
ZBAA,2006-08-19 15:00,ZBAA 191500Z AUTO 20004KT 9SM 27/21 A2977 RMK SLP075 T02660214 52006 IEM_DS3505
ZBAA,2006-08-19 16:00,ZBAA 191600Z AUTO 16006KT 4SM 26/23 A2977 RMK T02600230 IEM_DS3505
ZBAA,2006-08-19 17:00,ZBAA 191700Z AUTO 16004KT 3SM 26/24 A2974 RMK T02600240 IEM_DS3505
ZBAA,2006-08-19 18:00,ZBAA 191800Z AUTO 22002KT 7SM 26/21 A2974 RMK SLP067 T02620212 57008 IEM_DS3505
ZBAA,2006-08-19 19:00,ZBAA 191900Z AUTO 28004KT 2 1/2SM 26/24 A2974 RMK T02600240 IEM_DS3505
ZBAA,2006-08-19 20:00,ZBAA 192000Z AUTO 34004KT 2SM 25/24 A2974 RMK T02500240 IEM_DS3505
ZBAA,2006-08-19 21:00,ZBAA 192100Z AUTO 27004KT 7SM 26/19 A2974 RMK SLP062 T02640190 57005 IEM_DS3505
ZBAA,2006-08-19 22:00,ZBAA 192200Z AUTO 34006KT 2SM 24/23 A2974 RMK T02400230 IEM_DS3505
ZBAA,2006-08-19 23:00,ZBAA 192300Z AUTO 34004KT 2SM 26/24 A2977 RMK T02600240 IEM_DS3505
ZBAA,2006-08-20 00:00,ZBAA 200000Z AUTO 34008KT 12SM 30/15 A2977 RMK SLP071 T03000153 52009 IEM_DS3505
ZBAA,2006-08-20 01:00,ZBAA 200100Z AUTO 30014KT 6SM 31/21 A2977 RMK T03100210 IEM_DS3505
ZBAA,2006-08-20 02:00,ZBAA 200200Z AUTO 30017KT 6SM 32/18 A2980 RMK T03200180 IEM_DS3505
ZBAA,2006-08-20 03:00,ZBAA 200300Z AUTO 34010KT 12SM 33/14 A2980 RMK SLP079 T03280135 52008 IEM_DS3505
ZBAA,2006-08-20 04:00,ZBAA 200400Z AUTO 32017KT 6SM 32/18 A2980 RMK T03200180 IEM_DS3505
ZBAA,2006-08-20 05:00,ZBAA 200500Z AUTO 32021KT 6SM 31/17 A2980 RMK T03100170 IEM_DS3505
ZBAA,2006-08-20 06:00,ZBAA 200600Z AUTO 34012KT 19SM 31/13 A2980 RMK SLP082 T03090132 52003 IEM_DS3505
ZBAA,2006-08-20 07:00,ZBAA 200700Z AUTO 31014KT 6SM 29/18 A2983 RMK T02900180 IEM_DS3505
ZBAA,2006-08-20 08:00,ZBAA 200800Z AUTO 32014KT 6SM 28/18 A2983 RMK T02800180 IEM_DS3505
ZBAA,2006-08-20 09:00,ZBAA 200900Z AUTO 34010KT 19SM 29/12 A2983 RMK SLP092 T02890115 52010 IEM_DS3505
ZBAA,2006-08-20 10:00,ZBAA 201000Z AUTO 35010KT 6SM 26/18 A2983 RMK T02600180 IEM_DS3505
ZBAA,2006-08-20 11:00,ZBAA 201100Z AUTO 35010KT 6SM 25/17 A2985 RMK T02500170 IEM_DS3505
ZBAA,2006-08-20 12:00,ZBAA 201200Z AUTO 04004KT 19SM 27/13 A2988 RMK SLP112 T02710131 52020 IEM_DS3505
ZBAA,2006-08-20 13:00,ZBAA 201300Z AUTO 35006KT 6SM 24/18 A2991 RMK T02400180 IEM_DS3505
ZBAA,2006-08-20 14:00,ZBAA 201400Z AUTO 34006KT 6SM 24/18 A2991 RMK T02400180 IEM_DS3505
ZBAA,2006-08-20 15:00,ZBAA 201500Z AUTO 09002KT 19SM 26/14 A2994 RMK SLP130 T02620140 52018 IEM_DS3505
ZBAA,2006-08-20 16:00,ZBAA 201600Z AUTO 36004KT 6SM 24/18 A2994 RMK T02400180 IEM_DS3505
ZBAA,2006-08-20 17:00,ZBAA 201700Z AUTO 34002KT 6SM 24/19 A2994 RMK T02400190 IEM_DS3505
ZBAA,2006-08-20 18:00,ZBAA 201800Z AUTO 14004KT 12SM 25/16 A2994 RMK SLP130 T02520155 54000 IEM_DS3505
ZBAA,2006-08-20 19:00,ZBAA 201900Z AUTO 34006KT 6SM 23/18 A2994 RMK T02300180 IEM_DS3505
ZBAA,2006-08-20 20:00,ZBAA 202000Z AUTO 34006KT 6SM 21/18 A2994 RMK T02100180 IEM_DS3505
ZBAA,2006-08-20 21:00,ZBAA 202100Z AUTO 07002KT 19SM 24/13 A2994 RMK SLP136 T02430132 52006 IEM_DS3505
ZBAA,2006-08-20 22:00,ZBAA 202200Z AUTO 34006KT 6SM 21/17 A2997 RMK T02100170 IEM_DS3505
ZBAA,2006-08-20 23:00,ZBAA 202300Z AUTO 34008KT 6SM 22/16 A2997 RMK T02200160 IEM_DS3505
ZBAA,2006-08-21 00:00,ZBAA 210000Z AUTO 02004KT 19SM 25/13 A2997 RMK SLP146 T02530134 52009 IEM_DS3505
ZBAA,2006-08-21 01:00,ZBAA 210100Z AUTO 35010KT 6SM 25/16 A2997 RMK T02500160 IEM_DS3505
ZBAA,2006-08-21 02:00,ZBAA 210200Z AUTO 35008KT 6SM 27/17 A2997 RMK T02700170 IEM_DS3505
ZBAA,2006-08-21 03:00,ZBAA 210300Z AUTO 34004KT 19SM 29/12 A2997 RMK SLP143 T02900124 57002 IEM_DS3505
ZBAA,2006-08-21 04:00,ZBAA 210400Z AUTO 6SM 31/14 A2994 RMK T03100140 IEM_DS3505
ZBAA,2006-08-21 05:00,ZBAA 210500Z AUTO 6SM 31/12 A2994 RMK T03100120 IEM_DS3505
ZBAA,2006-08-21 06:00,ZBAA 210600Z AUTO 09004KT 19SM 31/09 A2991 RMK SLP126 T03080091 57017 IEM_DS3505
ZBAA,2006-08-21 07:00,ZBAA 210700Z AUTO 12006KT 6SM 31/13 A2991 RMK T03100130 IEM_DS3505
ZBAA,2006-08-21 08:00,ZBAA 210800Z AUTO 12006KT 6SM 31/12 A2988 RMK T03100120 IEM_DS3505
ZBAA,2006-08-21 09:00,ZBAA 210900Z AUTO 14004KT 19SM 30/11 A2988 RMK SLP119 T03030108 57007 IEM_DS3505
ZBAA,2006-08-21 10:00,ZBAA 211000Z AUTO 16008KT 6SM 28/16 A2988 RMK T02800160 IEM_DS3505
ZBAA,2006-08-21 11:00,ZBAA 211100Z AUTO 18006KT 6SM 25/15 A2988 RMK T02500150 IEM_DS3505
ZBAA,2006-08-21 12:00,ZBAA 211200Z AUTO 22006KT 12SM 26/17 A2991 RMK SLP128 T02580172 52008 IEM_DS3505
ZBAA,2006-08-21 13:00,ZBAA 211300Z AUTO 18006KT 6SM 23/17 A2991 RMK T02300170 IEM_DS3505
ZBAA,2006-08-21 14:00,ZBAA 211400Z AUTO 22006KT 6SM 24/19 A2991 RMK T02400190 IEM_DS3505
ZBAA,2006-08-21 15:00,ZBAA 211500Z AUTO 27006KT 12SM 24/15 A2991 RMK SLP124 T02430152 57003 IEM_DS3505
ZBAA,2006-08-21 16:00,ZBAA 211600Z AUTO 00000KT 6SM 23/18 A2991 RMK T02300180 IEM_DS3505
ZBAA,2006-08-21 17:00,ZBAA 211700Z AUTO 02004KT 6SM 21/18 A2991 RMK T02100180 IEM_DS3505
ZBAA,2006-08-21 18:00,ZBAA 211800Z AUTO 29004KT 11SM 21/16 A2988 RMK SLP115 T02130163 57009 IEM_DS3505
ZBAA,2006-08-21 19:00,ZBAA 211900Z AUTO 34004KT 6SM 18/17 A2988 RMK T01800170 IEM_DS3505
ZBAA,2006-08-21 20:00,ZBAA 212000Z AUTO 35004KT 6SM 17/17 A2991 RMK T01700170 IEM_DS3505
ZBAA,2006-08-21 21:00,ZBAA 212100Z AUTO 07002KT 9SM 20/17 A2988 RMK SLP119 T02020166 52003 IEM_DS3505
ZBAA,2006-08-21 22:00,ZBAA 212200Z AUTO 33006KT 6SM 18/17 A2991 RMK T01800170 IEM_DS3505
ZBAA,2006-08-21 23:00,ZBAA 212300Z AUTO 34008KT 6SM 20/17 A2991 RMK T02000170 IEM_DS3505
ZBAA,2006-08-22 00:00,ZBAA 220000Z AUTO 04002KT 16SM 23/15 A2991 RMK SLP129 T02280146 52010 IEM_DS3505
ZBAA,2006-08-22 01:00,ZBAA 220100Z AUTO 01006KT 6SM 23/17 A2991 RMK T02300170 IEM_DS3505
ZBAA,2006-08-22 02:00,ZBAA 220200Z AUTO 35002KT 6SM 24/17 A2994 RMK T02400170 IEM_DS3505
ZBAA,2006-08-22 03:00,ZBAA 220300Z AUTO 25012KT 12SM 24/15 A2991 RMK SLP132 T02390151 52003 IEM_DS3505
ZBAA,2006-08-22 04:00,ZBAA 220400Z AUTO 17004KT 6SM 25/18 A2991 RMK T02500180 IEM_DS3505
ZBAA,2006-08-22 05:00,ZBAA 220500Z AUTO 20012KT 6SM 25/16 A2991 RMK T02500160 IEM_DS3505
ZBAA,2006-08-22 06:00,ZBAA 220600Z AUTO 25008KT 19SM 24/13 A2991 RMK SLP124 T02440133 57008 IEM_DS3505
ZBAA,2006-08-22 07:00,ZBAA 220700Z AUTO 20008G17KT 6SM 27/16 A2988 RMK T02700160 IEM_DS3505
ZBAA,2006-08-22 08:00,ZBAA 220800Z AUTO 15008KT 6SM 26/16 A2988 RMK T02600160 IEM_DS3505
ZBAA,2006-08-22 09:00,ZBAA 220900Z AUTO 18004KT 19SM 25/13 A2988 RMK SLP110 T02490128 57014 IEM_DS3505
ZBAA,2006-08-22 10:00,ZBAA 221000Z AUTO 15008KT 6SM 24/15 A2985 RMK T02400150 IEM_DS3505
ZBAA,2006-08-22 11:00,ZBAA 221100Z AUTO 16006KT 6SM 22/16 A2985 RMK T02200160 IEM_DS3505
ZBAA,2006-08-22 12:00,ZBAA 221200Z AUTO 18004KT 19SM 22/15 A2988 RMK SLP112 T02190153 52002 IEM_DS3505
ZBAA,2006-08-22 13:00,ZBAA 221300Z AUTO 16006KT 6SM 20/17 A2988 RMK T02000170 IEM_DS3505
ZBAA,2006-08-22 14:00,ZBAA 221400Z AUTO 16004KT 6SM 19/17 A2988 RMK T01900170 IEM_DS3505
ZBAA,2006-08-22 15:00,ZBAA 221500Z AUTO 20002KT 9SM 20/16 A2985 RMK SLP112 T02050155 54000 IEM_DS3505
ZBAA,2006-08-22 16:00,ZBAA 221600Z AUTO 16004KT 6SM 19/17 A2985 RMK T01900170 IEM_DS3505
ZBAA,2006-08-22 17:00,ZBAA 221700Z AUTO 17004KT 6SM 19/17 A2985 RMK T01900170 IEM_DS3505
ZBAA,2006-08-22 18:00,ZBAA 221800Z AUTO 20004KT 9SM 19/16 A2985 RMK SLP105 T01930162 57007 IEM_DS3505
ZBAA,2006-08-22 19:00,ZBAA 221900Z AUTO 03002KT 5SM 19/18 A2985 RMK T01900180 IEM_DS3505
ZBAA,2006-08-22 20:00,ZBAA 222000Z AUTO 09004KT 5SM 19/18 A2985 RMK T01900180 IEM_DS3505
ZBAA,2006-08-22 21:00,ZBAA 222100Z AUTO 25002KT 7SM 18/16 A2985 RMK SLP103 T01840164 57002 IEM_DS3505
ZBAA,2006-08-22 22:00,ZBAA 222200Z AUTO 02004KT 3SM 18/17 A2985 RMK T01800170 IEM_DS3505
ZBAA,2006-08-22 23:00,ZBAA 222300Z AUTO 35004KT 4SM 18/18 A2988 RMK T01800180 IEM_DS3505
ZBAA,2006-08-23 00:00,ZBAA 230000Z AUTO 11004KT 6SM 22/17 A2988 RMK SLP109 T02190173 52006 IEM_DS3505
ZBAA,2006-08-23 01:00,ZBAA 230100Z AUTO 01002KT 6SM 23/19 A2988 RMK T02300190 IEM_DS3505
ZBAA,2006-08-23 02:00,ZBAA 230200Z AUTO 07004KT 6SM 24/19 A2985 RMK T02400190 IEM_DS3505
ZBAA,2006-08-23 03:00,ZBAA 230300Z AUTO 16004KT 9SM 27/16 A2985 RMK SLP104 T02660159 57005 IEM_DS3505
ZBAA,2006-08-23 04:00,ZBAA 230400Z AUTO 6SM 27/19 A2983 RMK T02700190 IEM_DS3505
ZBAA,2006-08-23 05:00,ZBAA 230500Z AUTO 6SM 29/19 A2983 RMK T02900190 IEM_DS3505
ZBAA,2006-08-23 06:00,ZBAA 230600Z AUTO 22006KT 12SM 29/16 A2980 RMK SLP089 T02890158 57015 IEM_DS3505
ZBAA,2006-08-23 07:00,ZBAA 230700Z AUTO 4SM 30/19 A2980 RMK T03000190 IEM_DS3505
ZBAA,2006-08-23 08:00,ZBAA 230800Z AUTO 15006KT 4SM 30/20 A2980 RMK T03000200 IEM_DS3505
ZBAA,2006-08-23 09:00,ZBAA 230900Z AUTO 22006KT 12SM 29/17 A2980 RMK SLP086 T02940166 57003 IEM_DS3505
ZBAA,2006-08-23 10:00,ZBAA 231000Z AUTO 14006KT 6SM 28/20 A2980 RMK T02800200 IEM_DS3505
ZBAA,2006-08-23 11:00,ZBAA 231100Z AUTO 16006KT 6SM 26/20 A2980 RMK T02600200 IEM_DS3505
ZBAA,2006-08-23 12:00,ZBAA 231200Z AUTO 20002KT 12SM 26/19 A2983 RMK SLP097 T02610188 52011 IEM_DS3505
ZBAA,2006-08-23 13:00,ZBAA 231300Z AUTO 17004KT 6SM 24/21 A2983 RMK T02400210 IEM_DS3505
ZBAA,2006-08-23 14:00,ZBAA 231400Z AUTO 15004KT 4SM 24/21 A2985 RMK T02400210 IEM_DS3505
ZBAA,2006-08-23 15:00,ZBAA 231500Z AUTO 20002KT 7SM 24/19 A2985 RMK SLP103 T02420193 52006 IEM_DS3505
ZBAA,2006-08-23 16:00,ZBAA 231600Z AUTO 16004KT 3SM 23/21 A2985 RMK T02300210 IEM_DS3505
ZBAA,2006-08-23 17:00,ZBAA 231700Z AUTO 06004KT 2 1/2SM 23/22 A2985 RMK T02300220 IEM_DS3505
ZBAA,2006-08-23 18:00,ZBAA 231800Z AUTO 06004KT 6SM 23/19 A2985 RMK SLP105 T02320192 52003 IEM_DS3505
ZBAA,2006-08-23 19:00,ZBAA 231900Z AUTO 03004KT 2SM 22/21 A2985 RMK T02200210 IEM_DS3505
ZBAA,2006-08-23 20:00,ZBAA 232000Z AUTO 09002KT 2 1/2SM 22/21 A2985 RMK T02200210 IEM_DS3505
ZBAA,2006-08-23 21:00,ZBAA 232100Z AUTO 36002KT 5SM 22/19 A2985 RMK SLP108 T02240194 52003 IEM_DS3505
ZBAA,2006-08-23 22:00,ZBAA 232200Z AUTO 01002KT 2 1/2SM 22/21 A2988 RMK T02200210 IEM_DS3505
ZBAA,2006-08-23 23:00,ZBAA 232300Z AUTO 33004KT 2SM 22/21 A2988 RMK T02200210 IEM_DS3505
ZBAA,2006-08-24 00:00,ZBAA 240000Z AUTO 04004KT 5SM 24/20 A2988 RMK SLP116 T02440197 52007 IEM_DS3505
ZBAA,2006-08-24 01:00,ZBAA 240100Z AUTO 35006KT 2 1/2SM 25/22 A2988 RMK T02500220 IEM_DS3505
ZBAA,2006-08-24 02:00,ZBAA 240200Z AUTO 05002KT 4SM 27/22 A2988 RMK T02700220 IEM_DS3505
ZBAA,2006-08-24 03:00,ZBAA 240300Z AUTO 02002KT 6SM 28/20 A2988 RMK SLP116 T02780204 52001 IEM_DS3505
ZBAA,2006-08-24 04:00,ZBAA 240400Z AUTO 17004KT 3SM 29/24 A2988 RMK T02900240 IEM_DS3505
ZBAA,2006-08-24 05:00,ZBAA 240500Z AUTO 17004KT 3SM 30/24 A2988 RMK T03000240 IEM_DS3505
ZBAA,2006-08-24 06:00,ZBAA 240600Z AUTO 18004KT 6SM 30/21 A2985 RMK SLP105 T02980212 57011 IEM_DS3505
ZBAA,2006-08-24 07:00,ZBAA 240700Z AUTO 10006KT 2 1/2SM 31/24 A2985 RMK T03100240 IEM_DS3505
ZBAA,2006-08-24 08:00,ZBAA 240800Z AUTO 15008KT 2SM 30/23 A2983 RMK T03000230 IEM_DS3505
ZBAA,2006-08-24 09:00,ZBAA 240900Z AUTO 18004KT 9SM 31/20 A2983 RMK SLP095 T03090199 57010 IEM_DS3505
ZBAA,2006-08-24 10:00,ZBAA 241000Z AUTO 11006KT 2 1/2SM 30/24 A2983 RMK T03000240 IEM_DS3505
ZBAA,2006-08-24 11:00,ZBAA 241100Z AUTO 12006KT 2 1/2SM 28/24 A2985 RMK T02800240 IEM_DS3505
ZBAA,2006-08-24 12:00,ZBAA 241200Z AUTO 09004KT 9SM 28/20 A2988 RMK SLP109 T02750196 52014 IEM_DS3505
ZBAA,2006-08-24 13:00,ZBAA 241300Z AUTO 13006KT 2 1/2SM 27/23 A2988 RMK T02700230 IEM_DS3505
ZBAA,2006-08-24 14:00,ZBAA 241400Z AUTO 14004KT 2 1/2SM 26/23 A2988 RMK T02600230 IEM_DS3505
ZBAA,2006-08-24 15:00,ZBAA 241500Z AUTO 16004KT 6SM 26/22 A2988 RMK SLP117 T02610220 52008 IEM_DS3505
ZBAA,2006-08-24 16:00,ZBAA 241600Z AUTO 10004KT 1 1/4SM 25/24 A2991 RMK T02500240 IEM_DS3505
ZBAA,2006-08-24 17:00,ZBAA 241700Z AUTO 13006KT 1 1/4SM 24/24 A2991 RMK T02400240 IEM_DS3505
ZBAA,2006-08-24 18:00,ZBAA 241800Z AUTO 20002KT 4SM 24/21 A2991 RMK SLP117 T02400211 54000 IEM_DS3505
ZBAA,2006-08-24 19:00,ZBAA 241900Z AUTO 08006KT 1SM 23/23 A2988 RMK T02300230 IEM_DS3505
ZBAA,2006-08-24 20:00,ZBAA 242000Z AUTO 08004KT 1SM 23/23 A2988 RMK T02300230 IEM_DS3505
ZBAA,2006-08-24 21:00,ZBAA 242100Z AUTO 09004KT 2 1/2SM 23/21 A2988 RMK SLP112 T02310214 57005 IEM_DS3505
ZBAA,2006-08-24 22:00,ZBAA 242200Z AUTO 06002KT 1SM 23/22 A2988 RMK T02300220 IEM_DS3505
ZBAA,2006-08-24 23:00,ZBAA 242300Z AUTO 06002KT 1SM 23/22 A2991 RMK T02300220 IEM_DS3505
ZBAA,2006-08-25 00:00,ZBAA 250000Z AUTO 07004KT 1 1/4SM 24/21 A2991 RMK SLP120 T02370214 52007 IEM_DS3505
ZBAA,2006-08-25 01:00,ZBAA 250100Z AUTO 07004KT 1SM 24/23 A2991 RMK T02400230 IEM_DS3505
ZBAA,2006-08-25 02:00,ZBAA 250200Z AUTO 06002KT 1 1/4SM 25/23 A2988 RMK T02500230 IEM_DS3505
ZBAA,2006-08-25 03:00,ZBAA 250300Z AUTO 16002KT 4SM 26/22 A2991 RMK SLP120 T02650217 52001 IEM_DS3505
ZBAA,2006-08-25 04:00,ZBAA 250400Z AUTO 10004KT 1 1/4SM 28/24 A2988 RMK T02800240 IEM_DS3505
ZBAA,2006-08-25 05:00,ZBAA 250500Z AUTO 09004KT 1 1/4SM 28/24 A2985 RMK T02800240 IEM_DS3505
ZBAA,2006-08-25 06:00,ZBAA 250600Z AUTO 11004KT 6SM 29/20 A2985 RMK SLP096 T02910205 57024 IEM_DS3505
ZBAA,2006-08-25 07:00,ZBAA 250700Z AUTO 07006KT 2SM 29/24 A2983 RMK T02900240 IEM_DS3505
ZBAA,2006-08-25 08:00,ZBAA 250800Z AUTO 08006KT 2SM 29/23 A2980 RMK T02900230 IEM_DS3505
ZBAA,2006-08-25 09:00,ZBAA 250900Z AUTO 09004KT 6SM 29/21 A2980 RMK SLP082 T02890209 57014 IEM_DS3505
ZBAA,2006-08-25 10:00,ZBAA 251000Z AUTO 08004KT 1 1/2SM 28/24 A2980 RMK T02800240 IEM_DS3505
ZBAA,2006-08-25 11:00,ZBAA 251100Z AUTO 09002KT 1 1/2SM 28/24 A2980 RMK T02800240 IEM_DS3505
ZBAA,2006-08-25 12:00,ZBAA 251200Z AUTO 11010KT 7SM 23/20 A2980 RMK 60008 SLP085 T02260205 52002 IEM_DS3505
ZBAA,2006-08-25 13:00,ZBAA 251300Z AUTO 11006KT 2 1/2SM 22/21 A2985 RMK T02200210 IEM_DS3505
ZBAA,2006-08-25 14:00,ZBAA 251400Z AUTO 04006KT 1 1/2SM 22/21 A2983 RMK T02200210 IEM_DS3505
ZBAA,2006-08-25 15:00,ZBAA 251500Z AUTO 09008KT 9SM 21/19 A2983 RMK SLP089 T02140190 52004 IEM_DS3505
ZBAA,2006-08-25 16:00,ZBAA 251600Z AUTO 34006KT 1 1/2SM 21/21 A2980 RMK T02100210 IEM_DS3505
ZBAA,2006-08-25 17:00,ZBAA 251700Z AUTO 32008KT 1 1/4SM 21/21 A2977 RMK T02100210 IEM_DS3505
ZBAA,2006-08-25 18:00,ZBAA 251800Z AUTO 02002KT 9SM 21/19 A2977 RMK 60008 SLP072 T02130190 57016 IEM_DS3505
ZBAA,2006-08-25 19:00,ZBAA 251900Z AUTO 34006KT 2SM 21/21 A2974 RMK T02100210 IEM_DS3505
ZBAA,2006-08-25 20:00,ZBAA 252000Z AUTO 34006KT 2SM 21/21 A2974 RMK T02100210 IEM_DS3505
ZBAA,2006-08-25 21:00,ZBAA 252100Z AUTO 36004KT 9SM 22/18 A2971 RMK 70016 SLP054 T02170183 57018 IEM_DS3505
ZBAA,2006-08-25 22:00,ZBAA 252200Z AUTO 36006KT 2SM 21/21 A2971 RMK T02100210 IEM_DS3505
ZBAA,2006-08-25 23:00,ZBAA 252300Z AUTO 34008KT 2SM 21/21 A2971 RMK T02100210 IEM_DS3505
ZBAA,2006-08-26 00:00,ZBAA 260000Z AUTO 02004KT 7SM 22/19 A2971 RMK 60002 70016 SLP055 T02240188 54000 IEM_DS3505
ZBAA,2006-08-26 01:00,ZBAA 260100Z AUTO 34008KT 3SM 23/21 A2971 RMK T02300210 IEM_DS3505
ZBAA,2006-08-26 02:00,ZBAA 260200Z AUTO 35008KT 4SM 23/21 A2971 RMK T02300210 IEM_DS3505
ZBAA,2006-08-26 03:00,ZBAA 260300Z AUTO 02006KT 9SM 24/18 A2971 RMK SLP056 T02450182 52001 IEM_DS3505
ZBAA,2006-08-26 04:00,ZBAA 260400Z AUTO 35008KT 5SM 25/21 A2971 RMK T02500210 IEM_DS3505
ZBAA,2006-08-26 05:00,ZBAA 260500Z AUTO 35012KT 6SM 26/21 A2968 RMK T02600210 IEM_DS3505
ZBAA,2006-08-26 06:00,ZBAA 260600Z AUTO 34006KT 12SM 28/18 A2968 RMK SLP035 T02780182 57020 IEM_DS3505
ZBAA,2006-08-26 07:00,ZBAA 260700Z AUTO 36008KT 6SM 27/21 A2965 RMK T02700210 IEM_DS3505
ZBAA,2006-08-26 08:00,ZBAA 260800Z AUTO 02006KT 6SM 27/21 A2965 RMK T02700210 IEM_DS3505
ZBAA,2006-08-26 09:00,ZBAA 260900Z AUTO 02004KT 12SM 28/17 A2965 RMK SLP032 T02820171 57003 IEM_DS3505
ZBAA,2006-08-26 10:00,ZBAA 261000Z AUTO 27006KT 6SM 27/21 A2965 RMK T02700210 IEM_DS3505
ZBAA,2006-08-26 11:00,ZBAA 261100Z AUTO 31006KT 6SM 26/20 A2965 RMK T02600200 IEM_DS3505
ZBAA,2006-08-26 12:00,ZBAA 261200Z AUTO 22004KT 9SM 25/19 A2965 RMK SLP037 T02530187 52005 IEM_DS3505
ZBAA,2006-08-26 13:00,ZBAA 261300Z AUTO 26004KT 6SM 25/21 A2968 RMK T02500210 IEM_DS3505
ZBAA,2006-08-26 14:00,ZBAA 261400Z AUTO 17004KT 5SM 22/21 A2968 RMK T02200210 IEM_DS3505
ZBAA,2006-08-26 15:00,ZBAA 261500Z AUTO 22002KT 9SM 23/19 A2968 RMK SLP040 T02320194 52003 IEM_DS3505
ZBAA,2006-08-26 16:00,ZBAA 261600Z AUTO 05002KT 4SM 22/21 A2968 RMK T02200210 IEM_DS3505
ZBAA,2006-08-26 17:00,ZBAA 261700Z AUTO 01002KT 3SM 21/21 A2968 RMK T02100210 IEM_DS3505
ZBAA,2006-08-26 18:00,ZBAA 261800Z AUTO 22002KT 6SM 22/19 A2968 RMK SLP043 T02150194 52003 IEM_DS3505
ZBAA,2006-08-26 19:00,ZBAA 261900Z AUTO 34004KT 3SM 20/20 A2968 RMK T02000200 IEM_DS3505
ZBAA,2006-08-26 20:00,ZBAA 262000Z AUTO 01002KT 2 1/2SM 19/19 A2968 RMK T01900190 IEM_DS3505
ZBAA,2006-08-26 21:00,ZBAA 262100Z AUTO 09002KT 4SM 21/19 A2968 RMK 70000 SLP049 T02090194 52006 IEM_DS3505
ZBAA,2006-08-26 22:00,ZBAA 262200Z AUTO 33004KT 3SM 19/19 A2971 RMK T01900190 IEM_DS3505
ZBAA,2006-08-26 23:00,ZBAA 262300Z AUTO 34004KT 3SM 20/20 A2971 RMK T02000200 IEM_DS3505
ZBAA,2006-08-27 00:00,ZBAA 270000Z AUTO 02002KT 6SM 24/20 A2974 RMK SLP059 T02370196 52010 IEM_DS3505
ZBAA,2006-08-27 01:00,ZBAA 270100Z AUTO 01004KT 4SM 25/22 A2974 RMK T02500220 IEM_DS3505
ZBAA,2006-08-27 02:00,ZBAA 270200Z AUTO 03004KT 4SM 26/22 A2974 RMK T02600220 IEM_DS3505
ZBAA,2006-08-27 03:00,ZBAA 270300Z AUTO 18002KT 7SM 29/19 A2974 RMK SLP061 T02880189 52002 IEM_DS3505
ZBAA,2006-08-27 04:00,ZBAA 270400Z AUTO 4SM 30/22 A2971 RMK T03000220 IEM_DS3505
ZBAA,2006-08-27 05:00,ZBAA 270500Z AUTO 5SM 32/22 A2971 RMK T03200220 IEM_DS3505
ZBAA,2006-08-27 06:00,ZBAA 270600Z AUTO 20006KT 7SM 32/20 A2968 RMK SLP047 T03200196 57014 IEM_DS3505
ZBAA,2006-08-27 07:00,ZBAA 270700Z AUTO 13004KT 5SM 32/22 A2968 RMK T03200220 IEM_DS3505
ZBAA,2006-08-27 08:00,ZBAA 270800Z AUTO 11006KT 5SM 33/23 A2968 RMK T03300230 IEM_DS3505
ZBAA,2006-08-27 09:00,ZBAA 270900Z AUTO 20006KT 12SM 32/20 A2968 RMK SLP043 T03190195 57004 IEM_DS3505
ZBAA,2006-08-27 10:00,ZBAA 271000Z AUTO 14006KT 4SM 31/23 A2968 RMK T03100230 IEM_DS3505
ZBAA,2006-08-27 11:00,ZBAA 271100Z AUTO 17006KT 4SM 28/23 A2968 RMK T02800230 IEM_DS3505
ZBAA,2006-08-27 12:00,ZBAA 271200Z AUTO 22004KT 9SM 28/23 A2971 RMK SLP056 T02830228 52013 IEM_DS3505
ZBAA,2006-08-27 13:00,ZBAA 271300Z AUTO 15004KT 3SM 26/24 A2971 RMK T02600240 IEM_DS3505
ZBAA,2006-08-27 14:00,ZBAA 271400Z AUTO 15004KT 2SM 26/24 A2974 RMK T02600240 IEM_DS3505
ZBAA,2006-08-27 15:00,ZBAA 271500Z AUTO 22004KT 7SM 26/22 A2974 RMK SLP063 T02630222 52007 IEM_DS3505
ZBAA,2006-08-27 16:00,ZBAA 271600Z AUTO 12004KT 1 1/2SM 26/24 A2974 RMK T02600240 IEM_DS3505
ZBAA,2006-08-27 17:00,ZBAA 271700Z AUTO 08004KT 1 1/2SM 25/24 A2974 RMK T02500240 IEM_DS3505
ZBAA,2006-08-27 18:00,ZBAA 271800Z AUTO 18002KT 2 1/2SM 25/23 A2974 RMK SLP065 T02500227 52002 IEM_DS3505
ZBAA,2006-08-27 19:00,ZBAA 271900Z AUTO 04004KT 1 1/4SM 24/24 A2974 RMK T02400240 IEM_DS3505
ZBAA,2006-08-27 20:00,ZBAA 272000Z AUTO 08004KT 1SM 24/23 A2974 RMK T02400230 IEM_DS3505
ZBAA,2006-08-27 21:00,ZBAA 272100Z AUTO 27002KT 2SM 24/22 A2977 RMK SLP072 T02400223 52007 IEM_DS3505
ZBAA,2006-08-27 22:00,ZBAA 272200Z AUTO 35002KT 1 1/2SM 23/23 A2977 RMK T02300230 IEM_DS3505
ZBAA,2006-08-27 23:00,ZBAA 272300Z AUTO 35006KT 2SM 23/23 A2980 RMK T02300230 IEM_DS3505
ZBAA,2006-08-28 00:00,ZBAA 280000Z AUTO 04004KT 4SM 26/22 A2980 RMK SLP083 T02610215 52011 IEM_DS3505
ZBAA,2006-08-28 01:00,ZBAA 280100Z AUTO 36006KT 4SM 29/24 A2980 RMK T02900240 IEM_DS3505
ZBAA,2006-08-28 02:00,ZBAA 280200Z AUTO 36010KT 6SM 30/22 A2980 RMK T03000220 IEM_DS3505
ZBAA,2006-08-28 03:00,ZBAA 280300Z AUTO 04008KT 12SM 31/15 A2980 RMK SLP083 T03120152 54000 IEM_DS3505
ZBAA,2006-08-28 04:00,ZBAA 280400Z AUTO 02012KT 6SM 32/18 A2977 RMK T03200180 IEM_DS3505
ZBAA,2006-08-28 05:00,ZBAA 280500Z AUTO 01010KT 6SM 32/18 A2977 RMK T03200180 IEM_DS3505
ZBAA,2006-08-28 06:00,ZBAA 280600Z AUTO 07004KT 19SM 32/15 A2977 RMK SLP072 T03220148 57011 IEM_DS3505
ZBAA,2006-08-28 07:00,ZBAA 280700Z AUTO 13004KT 6SM 32/18 A2977 RMK T03200180 IEM_DS3505
ZBAA,2006-08-28 08:00,ZBAA 280800Z AUTO 13002KT 6SM 31/19 A2977 RMK T03100190 IEM_DS3505
ZBAA,2006-08-28 09:00,ZBAA 280900Z AUTO 22004KT 11SM 30/21 A2977 RMK SLP075 T03020207 52003 IEM_DS3505
ZBAA,2006-08-28 10:00,ZBAA 281000Z AUTO 15002KT 6SM 29/21 A2977 RMK T02900210 IEM_DS3505
ZBAA,2006-08-28 11:00,ZBAA 281100Z AUTO 17008KT 6SM 28/23 A2980 RMK T02800230 IEM_DS3505
ZBAA,2006-08-28 12:00,ZBAA 281200Z AUTO 22006KT 9SM 27/21 A2980 RMK SLP087 T02660209 52012 IEM_DS3505
ZBAA,2006-08-28 13:00,ZBAA 281300Z AUTO 20006KT 3SM 27/23 A2983 RMK T02700230 IEM_DS3505
ZBAA,2006-08-28 14:00,ZBAA 281400Z AUTO 08012KT 4SM 27/23 A2983 RMK T02700230 IEM_DS3505
ZBAA,2006-08-28 15:00,ZBAA 281500Z AUTO 07008KT 9SM 25/20 A2985 RMK SLP097 T02540198 52010 IEM_DS3505
ZBAA,2006-08-28 16:00,ZBAA 281600Z AUTO 02010KT 4SM 23/21 A2985 RMK T02300210 IEM_DS3505
ZBAA,2006-08-28 17:00,ZBAA 281700Z AUTO 01012KT 4SM 22/21 A2985 RMK T02200210 IEM_DS3505
ZBAA,2006-08-28 18:00,ZBAA 281800Z AUTO 04006KT 9SM 23/19 A2985 RMK 60000 SLP100 T02260188 52003 IEM_DS3505
ZBAA,2006-08-28 19:00,ZBAA 281900Z AUTO 36010KT 4SM 22/21 A2985 RMK T02200210 IEM_DS3505
ZBAA,2006-08-28 20:00,ZBAA 282000Z AUTO 02006KT 4SM 22/21 A2988 RMK T02200210 IEM_DS3505
ZBAA,2006-08-28 21:00,ZBAA 282100Z AUTO 07006KT 9SM 22/19 A2988 RMK 70000 SLP114 T02210191 52014 IEM_DS3505
ZBAA,2006-08-28 22:00,ZBAA 282200Z AUTO 12002KT 4SM 22/21 A2991 RMK T02200210 IEM_DS3505
ZBAA,2006-08-28 23:00,ZBAA 282300Z AUTO 3SM 22/21 A2994 RMK T02200210 IEM_DS3505
ZBAA,2006-08-29 00:00,ZBAA 290000Z AUTO 09006KT 19SM 22/16 A2994 RMK 60000 70000 SLP134 T02210159 52019 IEM_DS3505
ZBAA,2006-08-29 01:00,ZBAA 290100Z AUTO 35004KT 7SM 24/20 A2994 RMK T02400200 IEM_DS3505
ZBAA,2006-08-29 02:00,ZBAA 290200Z AUTO 02004KT 6SM 25/19 A2994 RMK T02500190 IEM_DS3505
ZBAA,2006-08-29 03:00,ZBAA 290300Z AUTO 07006KT 19SM 26/16 A2994 RMK SLP138 T02640163 52004 IEM_DS3505
ZBAA,2006-08-29 04:00,ZBAA 290400Z AUTO 6SM 28/18 A2994 RMK T02800180 IEM_DS3505
ZBAA,2006-08-29 05:00,ZBAA 290500Z AUTO 14006KT 7SM 29/16 A2991 RMK T02900160 IEM_DS3505
ZBAA,2006-08-29 06:00,ZBAA 290600Z AUTO 14002KT 19SM 28/15 A2991 RMK SLP123 T02800146 57015 IEM_DS3505
ZBAA,2006-08-29 07:00,ZBAA 290700Z AUTO 01004KT 7SM 27/18 A2991 RMK T02700180 IEM_DS3505
ZBAA,2006-08-29 08:00,ZBAA 290800Z AUTO 7SM 29/19 A2991 RMK T02900190 IEM_DS3505
ZBAA,2006-08-29 09:00,ZBAA 290900Z AUTO 09004KT 19SM 28/14 A2988 RMK SLP119 T02840143 57004 IEM_DS3505
ZBAA,2006-08-29 10:00,ZBAA 291000Z AUTO 09004KT 6SM 28/17 A2988 RMK T02800170 IEM_DS3505
ZBAA,2006-08-29 11:00,ZBAA 291100Z AUTO 18004KT 6SM 26/18 A2991 RMK T02600180 IEM_DS3505
ZBAA,2006-08-29 12:00,ZBAA 291200Z AUTO 22002KT 19SM 26/16 A2994 RMK SLP130 T02550164 52011 IEM_DS3505
ZBAA,2006-08-29 13:00,ZBAA 291300Z AUTO 07004KT 6SM 25/20 A2994 RMK T02500200 IEM_DS3505
ZBAA,2006-08-29 14:00,ZBAA 291400Z AUTO 16002KT 6SM 24/20 A2991 RMK T02400200 IEM_DS3505
ZBAA,2006-08-29 15:00,ZBAA 291500Z AUTO 25002KT 12SM 24/16 A2991 RMK SLP126 T02410164 57004 IEM_DS3505
ZBAA,2006-08-29 16:00,ZBAA 291600Z AUTO 35006KT 6SM 23/20 A2991 RMK T02300200 IEM_DS3505
ZBAA,2006-08-29 17:00,ZBAA 291700Z AUTO 35004KT 6SM 22/20 A2991 RMK T02200200 IEM_DS3505
ZBAA,2006-08-29 18:00,ZBAA 291800Z AUTO 04002KT 9SM 23/18 A2991 RMK SLP127 T02320179 52001 IEM_DS3505
ZBAA,2006-08-29 19:00,ZBAA 291900Z AUTO 32004KT 6SM 21/20 A2994 RMK T02100200 IEM_DS3505
ZBAA,2006-08-29 20:00,ZBAA 292000Z AUTO 01006KT 6SM 22/20 A2991 RMK T02200200 IEM_DS3505
ZBAA,2006-08-29 21:00,ZBAA 292100Z AUTO 04002KT 7SM 23/18 A2991 RMK SLP120 T02270178 57007 IEM_DS3505
ZBAA,2006-08-29 22:00,ZBAA 292200Z AUTO 34004KT 6SM 21/20 A2991 RMK T02100200 IEM_DS3505
ZBAA,2006-08-29 23:00,ZBAA 292300Z AUTO 02002KT 6SM 22/20 A2991 RMK T02200200 IEM_DS3505
ZBAA,2006-08-30 00:00,ZBAA 300000Z AUTO 36004KT 6SM 22/19 A2991 RMK 60002 70002 SLP129 T02230191 52009 IEM_DS3505
ZBAA,2006-08-30 01:00,ZBAA 300100Z AUTO 35006KT 7SM 21/21 A2991 RMK T02100210 IEM_DS3505
ZBAA,2006-08-30 02:00,ZBAA 300200Z AUTO 36004KT 4SM 22/20 A2991 RMK T02200200 IEM_DS3505
ZBAA,2006-08-30 03:00,ZBAA 300300Z AUTO 34004KT 7SM 25/19 A2991 RMK SLP126 T02460192 57003 IEM_DS3505
ZBAA,2006-08-30 04:00,ZBAA 300400Z AUTO 27004KT 4SM 24/21 A2991 RMK T02400210 IEM_DS3505
ZBAA,2006-08-30 05:00,ZBAA 300500Z AUTO 34006KT 4SM 25/21 A2988 RMK T02500210 IEM_DS3505
ZBAA,2006-08-30 06:00,ZBAA 300600Z AUTO 04004KT 9SM 26/18 A2985 RMK 60003 SLP108 T02550182 57018 IEM_DS3505
ZBAA,2006-08-30 07:00,ZBAA 300700Z AUTO 01004KT 6SM 25/20 A2985 RMK T02500200 IEM_DS3505
ZBAA,2006-08-30 08:00,ZBAA 300800Z AUTO 09002KT 6SM 25/20 A2985 RMK T02500200 IEM_DS3505
ZBAA,2006-08-30 09:00,ZBAA 300900Z AUTO 14002KT 11SM 25/17 A2985 RMK SLP101 T02520171 57007 IEM_DS3505
ZBAA,2006-08-30 10:00,ZBAA 301000Z AUTO 17004KT 7SM 25/20 A2983 RMK T02500200 IEM_DS3505
ZBAA,2006-08-30 11:00,ZBAA 301100Z AUTO 20002KT 6SM 24/20 A2983 RMK T02400200 IEM_DS3505
ZBAA,2006-08-30 12:00,ZBAA 301200Z AUTO 22002KT 7SM 23/17 A2983 RMK SLP098 T02340167 57003 IEM_DS3505
ZBAA,2006-08-30 13:00,ZBAA 301300Z AUTO 28002KT 4SM 24/20 A2983 RMK T02400200 IEM_DS3505
ZBAA,2006-08-30 14:00,ZBAA 301400Z AUTO 04002KT 3SM 23/21 A2980 RMK T02300210 IEM_DS3505
ZBAA,2006-08-30 15:00,ZBAA 301500Z AUTO 29004KT 7SM 23/16 A2980 RMK SLP087 T02290165 57011 IEM_DS3505
ZBAA,2006-08-30 16:00,ZBAA 301600Z AUTO 00000KT 3SM 23/20 A2980 RMK T02300200 IEM_DS3505
ZBAA,2006-08-30 17:00,ZBAA 301700Z AUTO 00000KT 3SM 23/20 A2980 RMK T02300200 IEM_DS3505
ZBAA,2006-08-30 18:00,ZBAA 301800Z AUTO 36004KT 6SM 22/18 A2977 RMK SLP079 T02210179 57008 IEM_DS3505
ZBAA,2006-08-30 19:00,ZBAA 301900Z AUTO 34004KT 4SM 21/21 A2977 RMK T02100210 IEM_DS3505
ZBAA,2006-08-30 20:00,ZBAA 302000Z AUTO 34004KT 4SM 21/21 A2977 RMK T02100210 IEM_DS3505
ZBAA,2006-08-30 21:00,ZBAA 302100Z AUTO 25002KT 5SM 22/19 A2977 RMK 70004 SLP071 T02200186 57008 IEM_DS3505
ZBAA,2006-08-30 22:00,ZBAA 302200Z AUTO 33004KT 4SM 21/20 A2977 RMK T02100200 IEM_DS3505
ZBAA,2006-08-30 23:00,ZBAA 302300Z AUTO 35004KT 5SM 22/20 A2977 RMK T02200200 IEM_DS3505
ZBAA,2006-08-31 00:00,ZBAA 310000Z AUTO 04002KT 7SM 23/19 A2977 RMK 70003 SLP079 T02340187 52008 IEM_DS3505
ZBAA,2006-08-31 01:00,ZBAA 310100Z AUTO 01006KT 6SM 24/20 A2980 RMK T02400200 IEM_DS3505
ZBAA,2006-08-31 02:00,ZBAA 310200Z AUTO 36004KT 6SM 26/20 A2977 RMK T02600200 IEM_DS3505
ZBAA,2006-08-31 03:00,ZBAA 310300Z AUTO 32004KT 12SM 27/16 A2977 RMK SLP071 T02700160 57007 IEM_DS3505
ZBAA,2006-08-31 04:00,ZBAA 310400Z AUTO 6SM 29/18 A2974 RMK T02900180 IEM_DS3505
ZBAA,2006-08-31 05:00,ZBAA 310500Z AUTO 18004KT 6SM 29/18 A2971 RMK T02900180 IEM_DS3505
ZBAA,2006-08-31 06:00,ZBAA 310600Z AUTO 18008KT 12SM 30/17 A2971 RMK SLP054 T02950167 57017 IEM_DS3505
ZBAA,2006-08-31 07:00,ZBAA 310700Z AUTO 19006KT 6SM 31/19 A2971 RMK T03100190 IEM_DS3505
ZBAA,2006-08-31 08:00,ZBAA 310800Z AUTO 16006KT 6SM 30/20 A2971 RMK T03000200 IEM_DS3505
ZBAA,2006-08-31 09:00,ZBAA 310900Z AUTO 22006KT 16SM 28/17 A2968 RMK SLP050 T02850174 57004 IEM_DS3505
ZBAA,2006-08-31 10:00,ZBAA 311000Z AUTO 17008KT 4SM 28/20 A2968 RMK T02800200 IEM_DS3505
ZBAA,2006-08-31 11:00,ZBAA 311100Z AUTO 17006KT 4SM 26/21 A2971 RMK T02600210 IEM_DS3505
ZBAA,2006-08-31 12:00,ZBAA 311200Z AUTO 20004KT 12SM 25/19 A2971 RMK SLP058 T02540186 52008 IEM_DS3505
ZBAA,2006-08-31 13:00,ZBAA 311300Z AUTO 17004KT 4SM 24/21 A2974 RMK T02400210 IEM_DS3505
ZBAA,2006-08-31 14:00,ZBAA 311400Z AUTO 15004KT 4SM 24/21 A2974 RMK T02400210 IEM_DS3505
ZBAA,2006-08-31 15:00,ZBAA 311500Z AUTO 22002KT 9SM 24/18 A2974 RMK SLP064 T02370184 52006 IEM_DS3505
ZBAA,2006-08-31 16:00,ZBAA 311600Z AUTO 11002KT 3SM 23/21 A2974 RMK T02300210 IEM_DS3505
ZBAA,2006-08-31 17:00,ZBAA 311700Z AUTO 11002KT 2 1/2SM 22/21 A2974 RMK T02200210 IEM_DS3505
ZBAA,2006-08-31 18:00,ZBAA 311800Z AUTO 18002KT 7SM 22/18 A2974 RMK SLP065 T02150179 52001 IEM_DS3505
ZBAA,2006-08-31 19:00,ZBAA 311900Z AUTO 05004KT 2SM 22/21 A2974 RMK T02200210 IEM_DS3505
ZBAA,2006-08-31 20:00,ZBAA 312000Z AUTO 05004KT 2SM 21/20 A2974 RMK T02100200 IEM_DS3505
ZBAA,2006-08-31 21:00,ZBAA 312100Z AUTO 06004KT 7SM 21/18 A2974 RMK SLP065 T02070181 54000 IEM_DS3505
ZBAA,2006-08-31 22:00,ZBAA 312200Z AUTO 03004KT 2SM 21/20 A2974 RMK T02100200 IEM_DS3505
ZBAA,2006-08-31 23:00,ZBAA 312300Z AUTO 34002KT 2SM 22/21 A2977 RMK T02200210 IEM_DS3505
ZBAA,2006-09-01 00:00,ZBAA 010000Z AUTO 09004KT 5SM 24/20 A2977 RMK SLP074 T02380195 52008 IEM_DS3505
ZBAA,2006-09-01 01:00,ZBAA 010100Z AUTO 05002KT 2 1/2SM 25/21 A2977 RMK T02500210 IEM_DS3505
ZBAA,2006-09-01 02:00,ZBAA 010200Z AUTO 10002KT 2 1/2SM 26/21 A2977 RMK T02600210 IEM_DS3505
ZBAA,2006-09-01 03:00,ZBAA 010300Z AUTO 25004KT 7SM 28/19 A2977 RMK SLP076 T02770190 52003 IEM_DS3505
ZBAA,2006-09-01 04:00,ZBAA 010400Z AUTO 4SM 29/20 A2977 RMK T02900200 IEM_DS3505
ZBAA,2006-09-01 05:00,ZBAA 010500Z AUTO 11006KT 3SM 29/21 A2974 RMK T02900210 IEM_DS3505
ZBAA,2006-09-01 06:00,ZBAA 010600Z AUTO 18006KT 9SM 29/18 A2974 RMK SLP062 T02940185 57014 IEM_DS3505
ZBAA,2006-09-01 07:00,ZBAA 010700Z AUTO 14008KT 5SM 30/20 A2971 RMK T03000200 IEM_DS3505
ZBAA,2006-09-01 08:00,ZBAA 010800Z AUTO 16008KT 6SM 30/21 A2971 RMK T03000210 IEM_DS3505
ZBAA,2006-09-01 09:00,ZBAA 010900Z AUTO 18006KT 9SM 29/18 A2971 RMK SLP059 T02890184 57003 IEM_DS3505
ZBAA,2006-09-01 10:00,ZBAA 011000Z AUTO 16006KT 5SM 28/21 A2971 RMK T02800210 IEM_DS3505
ZBAA,2006-09-01 11:00,ZBAA 011100Z AUTO 16006KT 4SM 26/21 A2974 RMK T02600210 IEM_DS3505
ZBAA,2006-09-01 12:00,ZBAA 011200Z AUTO 20004KT 7SM 27/19 A2977 RMK SLP070 T02690187 52011 IEM_DS3505
ZBAA,2006-09-01 13:00,ZBAA 011300Z AUTO 15004KT 3SM 26/21 A2977 RMK T02600210 IEM_DS3505
ZBAA,2006-09-01 14:00,ZBAA 011400Z AUTO 13006KT 3SM 25/22 A2980 RMK T02500220 IEM_DS3505
ZBAA,2006-09-01 15:00,ZBAA 011500Z AUTO 11002KT 6SM 25/20 A2980 RMK SLP084 T02460197 52014 IEM_DS3505
ZBAA,2006-09-01 16:00,ZBAA 011600Z AUTO 10002KT 2SM 24/22 A2980 RMK T02400220 IEM_DS3505
ZBAA,2006-09-01 17:00,ZBAA 011700Z AUTO 06004KT 1 1/2SM 23/22 A2980 RMK T02300220 IEM_DS3505
ZBAA,2006-09-01 18:00,ZBAA 011800Z AUTO 20002KT 4SM 23/20 A2983 RMK SLP088 T02330197 52004 IEM_DS3505
ZBAA,2006-09-01 19:00,ZBAA 011900Z AUTO 07002KT 1 1/2SM 23/21 A2983 RMK T02300210 IEM_DS3505
ZBAA,2006-09-01 20:00,ZBAA 012000Z AUTO 07002KT 1 1/2SM 23/21 A2980 RMK T02300210 IEM_DS3505
ZBAA,2006-09-01 21:00,ZBAA 012100Z AUTO 07002KT 3SM 22/20 A2983 RMK SLP094 T02250197 52006 IEM_DS3505
ZBAA,2006-09-01 22:00,ZBAA 012200Z AUTO 08004KT 1 1/4SM 22/21 A2985 RMK T02200210 IEM_DS3505
ZBAA,2006-09-01 23:00,ZBAA 012300Z AUTO 07004KT 1 1/4SM 22/21 A2985 RMK T02200210 IEM_DS3505
ZBAA,2006-09-02 00:00,ZBAA 020000Z AUTO 09004KT 4SM 23/19 A2988 RMK SLP112 T02330192 52017 IEM_DS3505
ZBAA,2006-09-02 01:00,ZBAA 020100Z AUTO 11006KT 1 1/2SM 25/22 A2988 RMK T02500220 IEM_DS3505
ZBAA,2006-09-02 02:00,ZBAA 020200Z AUTO 10008KT 2 1/2SM 26/21 A2991 RMK T02600210 IEM_DS3505
ZBAA,2006-09-02 03:00,ZBAA 020300Z AUTO 11006KT 6SM 26/20 A2991 RMK SLP120 T02650196 52008 IEM_DS3505
ZBAA,2006-09-02 04:00,ZBAA 020400Z AUTO 13006KT 2 1/2SM 26/22 A2988 RMK T02600220 IEM_DS3505
ZBAA,2006-09-02 05:00,ZBAA 020500Z AUTO 15008KT 2SM 27/22 A2988 RMK T02700220 IEM_DS3505
ZBAA,2006-09-02 06:00,ZBAA 020600Z AUTO 14004KT 6SM 28/20 A2985 RMK SLP104 T02790199 57015 IEM_DS3505
ZBAA,2006-09-02 07:00,ZBAA 020700Z AUTO 13008KT 3SM 28/22 A2985 RMK T02800220 IEM_DS3505
ZBAA,2006-09-02 08:00,ZBAA 020800Z AUTO 15008KT 3SM 28/22 A2983 RMK T02800220 IEM_DS3505
ZBAA,2006-09-02 09:00,ZBAA 020900Z AUTO 11006KT 7SM 28/20 A2983 RMK SLP095 T02790202 57010 IEM_DS3505
ZBAA,2006-09-02 10:00,ZBAA 021000Z AUTO 12008KT 3SM 27/23 A2983 RMK T02700230 IEM_DS3505
ZBAA,2006-09-02 11:00,ZBAA 021100Z AUTO 12008KT 2 1/2SM 25/23 A2983 RMK T02500230 IEM_DS3505
ZBAA,2006-09-02 12:00,ZBAA 021200Z AUTO 16006KT 6SM 25/20 A2983 RMK SLP098 T02520202 52003 IEM_DS3505
ZBAA,2006-09-02 13:00,ZBAA 021300Z AUTO 14008KT 2 1/2SM 25/22 A2985 RMK T02500220 IEM_DS3505
ZBAA,2006-09-02 14:00,ZBAA 021400Z AUTO 15004KT 2 1/2SM 24/22 A2983 RMK T02400220 IEM_DS3505
ZBAA,2006-09-02 15:00,ZBAA 021500Z AUTO 22006KT 4SM 24/20 A2983 RMK SLP098 T02350199 54000 IEM_DS3505
ZBAA,2006-09-02 16:00,ZBAA 021600Z AUTO 17006KT 1 1/2SM 23/22 A2983 RMK T02300220 IEM_DS3505
ZBAA,2006-09-02 17:00,ZBAA 021700Z AUTO 16006KT 1 1/2SM 23/21 A2983 RMK T02300210 IEM_DS3505
ZBAA,2006-09-02 18:00,ZBAA 021800Z AUTO 22002KT 4SM 22/20 A2980 RMK SLP089 T02240199 57008 IEM_DS3505
ZBAA,2006-09-02 19:00,ZBAA 021900Z AUTO 15004KT 1 1/2SM 23/21 A2980 RMK T02300210 IEM_DS3505
ZBAA,2006-09-02 20:00,ZBAA 022000Z AUTO 14006KT 1 1/4SM 23/22 A2980 RMK T02300220 IEM_DS3505
ZBAA,2006-09-02 21:00,ZBAA 022100Z AUTO 22006KT 3SM 22/20 A2980 RMK SLP078 T02220199 57011 IEM_DS3505
ZBAA,2006-09-02 22:00,ZBAA 022200Z AUTO 12006KT 1SM 22/22 A2980 RMK T02200220 IEM_DS3505
ZBAA,2006-09-02 23:00,ZBAA 022300Z AUTO 11004KT 1SM 22/22 A2980 RMK T02200220 IEM_DS3505
ZBAA,2006-09-03 00:00,ZBAA 030000Z AUTO 25004KT 2 1/2SM 23/20 A2983 RMK SLP089 T02300203 52010 IEM_DS3505
ZBAA,2006-09-03 01:00,ZBAA 030100Z AUTO 06004KT 1SM 23/22 A2980 RMK T02300220 IEM_DS3505
ZBAA,2006-09-03 02:00,ZBAA 030200Z AUTO 05004KT 1SM 24/22 A2983 RMK T02400220 IEM_DS3505
ZBAA,2006-09-03 03:00,ZBAA 030300Z AUTO 27004KT 5SM 26/21 A2980 RMK SLP088 T02640209 57001 IEM_DS3505
ZBAA,2006-09-03 04:00,ZBAA 030400Z AUTO 32006KT 1 1/2SM 27/22 A2980 RMK T02700220 IEM_DS3505
ZBAA,2006-09-03 05:00,ZBAA 030500Z AUTO 31012KT 6SM 28/11 A2980 RMK T02800110 IEM_DS3505
ZBAA,2006-09-03 06:00,ZBAA 030600Z AUTO 34012KT 19SM 27/06 A2983 RMK 60000 SLP086 T02740062 57002 IEM_DS3505
ZBAA,2006-09-03 07:00,ZBAA 030700Z AUTO 31012KT 6SM 25/12 A2983 RMK T02500120 IEM_DS3505
ZBAA,2006-09-03 08:00,ZBAA 030800Z AUTO 31014KT 7SM 23/13 A2985 RMK T02300130 IEM_DS3505
ZBAA,2006-09-03 09:00,ZBAA 030900Z AUTO 02008KT 19SM 23/08 A2985 RMK SLP107 T02280078 52021 IEM_DS3505
ZBAA,2006-09-03 10:00,ZBAA 031000Z AUTO 31010KT 6SM 22/12 A2988 RMK T02200120 IEM_DS3505
ZBAA,2006-09-03 11:00,ZBAA 031100Z AUTO 31014KT 6SM 22/10 A2988 RMK T02200100 IEM_DS3505
ZBAA,2006-09-03 12:00,ZBAA 031200Z AUTO 36008KT 19SM 22/07 A2991 RMK 60000 SLP119 T02240074 52012 IEM_DS3505
ZBAA,2006-09-03 13:00,ZBAA 031300Z AUTO 29010KT 6SM 21/12 A2991 RMK T02100120 IEM_DS3505
ZBAA,2006-09-03 14:00,ZBAA 031400Z AUTO 30012KT 6SM 21/11 A2994 RMK T02100110 IEM_DS3505
ZBAA,2006-09-03 15:00,ZBAA 031500Z AUTO 34008KT 19SM 22/05 A2994 RMK SLP131 T02230048 52012 IEM_DS3505
ZBAA,2006-09-03 16:00,ZBAA 031600Z AUTO 31010KT 6SM 20/11 A2994 RMK T02000110 IEM_DS3505
ZBAA,2006-09-03 17:00,ZBAA 031700Z AUTO 30008KT 6SM 21/08 A2997 RMK T02100080 IEM_DS3505
ZBAA,2006-09-03 18:00,ZBAA 031800Z AUTO 34004KT 19SM 21/03 A2997 RMK 60000 SLP143 T02140031 52012 IEM_DS3505
ZBAA,2006-09-03 19:00,ZBAA 031900Z AUTO 35006KT 6SM 19/10 A2997 RMK T01900100 IEM_DS3505
ZBAA,2006-09-03 20:00,ZBAA 032000Z AUTO 35008KT 6SM 18/10 A3000 RMK T01800100 IEM_DS3505
ZBAA,2006-09-03 21:00,ZBAA 032100Z AUTO 04004KT 19SM 20/04 A3000 RMK 70000 SLP155 T02020043 52012 IEM_DS3505
ZBAA,2006-09-03 22:00,ZBAA 032200Z AUTO 36006KT 6SM 18/09 A3003 RMK T01800090 IEM_DS3505
ZBAA,2006-09-03 23:00,ZBAA 032300Z AUTO 36006KT 6SM 19/08 A3003 RMK T01900080 IEM_DS3505
ZBAA,2006-09-04 00:00,ZBAA 040000Z AUTO 07006KT 19SM 20/05 A3006 RMK 70000 SLP174 T02050049 52019 IEM_DS3505
ZBAA,2006-09-04 01:00,ZBAA 040100Z AUTO 03004KT 6SM 20/08 A3006 RMK T02000080 IEM_DS3505
ZBAA,2006-09-04 02:00,ZBAA 040200Z AUTO 36006KT 6SM 22/07 A3006 RMK T02200070 IEM_DS3505
ZBAA,2006-09-04 03:00,ZBAA 040300Z AUTO 36004KT 19SM 23/03 A3006 RMK SLP172 T02340034 57002 IEM_DS3505
ZBAA,2006-09-04 04:00,ZBAA 040400Z AUTO 35010KT 6SM 24/05 A3003 RMK T02400050 IEM_DS3505
ZBAA,2006-09-04 05:00,ZBAA 040500Z AUTO 02006KT 6SM 24/06 A3003 RMK T02400060 IEM_DS3505
ZBAA,2006-09-04 06:00,ZBAA 040600Z AUTO 02006KT 19SM 25/03 A3000 RMK SLP154 T02530027 57018 IEM_DS3505
ZBAA,2006-09-04 07:00,ZBAA 040700Z AUTO 02006KT 6SM 25/06 A2997 RMK T02500060 IEM_DS3505
ZBAA,2006-09-04 08:00,ZBAA 040800Z AUTO 14004KT 6SM 26/06 A2997 RMK T02600060 IEM_DS3505
ZBAA,2006-09-04 09:00,ZBAA 040900Z AUTO 14008KT 19SM 25/03 A2994 RMK SLP143 T02530033 57011 IEM_DS3505
ZBAA,2006-09-04 10:00,ZBAA 041000Z AUTO 20006KT 6SM 25/06 A2997 RMK T02500060 IEM_DS3505
ZBAA,2006-09-04 11:00,ZBAA 041100Z AUTO 18010KT 6SM 22/09 A2997 RMK T02200090 IEM_DS3505
ZBAA,2006-09-04 12:00,ZBAA 041200Z AUTO 22008KT 19SM 20/10 A3000 RMK SLP159 T01960103 52016 IEM_DS3505
ZBAA,2006-09-04 13:00,ZBAA 041300Z AUTO 20006KT 6SM 19/11 A3000 RMK T01900110 IEM_DS3505
ZBAA,2006-09-04 14:00,ZBAA 041400Z AUTO 12006KT 6SM 19/13 A3000 RMK T01900130 IEM_DS3505
ZBAA,2006-09-04 15:00,ZBAA 041500Z AUTO 22004KT 16SM 17/12 A3003 RMK SLP161 T01690120 52002 IEM_DS3505
ZBAA,2006-09-04 16:00,ZBAA 041600Z AUTO 16002KT 6SM 17/14 A3000 RMK T01700140 IEM_DS3505
ZBAA,2006-09-04 17:00,ZBAA 041700Z AUTO 09004KT 6SM 17/14 A3000 RMK T01700140 IEM_DS3505
ZBAA,2006-09-04 18:00,ZBAA 041800Z AUTO 29004KT 16SM 16/12 A3000 RMK SLP157 T01600122 57004 IEM_DS3505
ZBAA,2006-09-04 19:00,ZBAA 041900Z AUTO 6SM 15/14 A3000 RMK T01500140 IEM_DS3505
ZBAA,2006-09-04 20:00,ZBAA 042000Z AUTO 35002KT 6SM 14/13 A3000 RMK T01400130 IEM_DS3505
ZBAA,2006-09-04 21:00,ZBAA 042100Z AUTO 20002KT 16SM 15/12 A2997 RMK SLP147 T01530122 57010 IEM_DS3505
ZBAA,2006-09-04 22:00,ZBAA 042200Z AUTO 35004KT 6SM 16/13 A2997 RMK T01600130 IEM_DS3505
ZBAA,2006-09-04 23:00,ZBAA 042300Z AUTO 34004KT 6SM 15/13 A2997 RMK T01500130 IEM_DS3505
ZBAA,2006-09-05 00:00,ZBAA 050000Z AUTO 09002KT 9SM 18/12 A2997 RMK SLP146 T01790124 57002 IEM_DS3505
ZBAA,2006-09-05 01:00,ZBAA 050100Z AUTO 35006KT 6SM 19/13 A2997 RMK T01900130 IEM_DS3505
ZBAA,2006-09-05 02:00,ZBAA 050200Z AUTO 36004KT 6SM 21/13 A2994 RMK T02100130 IEM_DS3505
ZBAA,2006-09-05 03:00,ZBAA 050300Z AUTO 16002KT 12SM 22/10 A2994 RMK SLP132 T02220100 57013 IEM_DS3505
ZBAA,2006-09-05 04:00,ZBAA 050400Z AUTO 6SM 23/11 A2991 RMK T02300110 IEM_DS3505
ZBAA,2006-09-05 05:00,ZBAA 050500Z AUTO 16006KT 6SM 25/11 A2988 RMK T02500110 IEM_DS3505
ZBAA,2006-09-05 06:00,ZBAA 050600Z AUTO 20006KT 19SM 25/09 A2985 RMK SLP103 T02540088 57029 IEM_DS3505
ZBAA,2006-09-05 07:00,ZBAA 050700Z AUTO 13006KT 6SM 26/11 A2983 RMK T02600110 IEM_DS3505
ZBAA,2006-09-05 08:00,ZBAA 050800Z AUTO 12006KT 6SM 26/11 A2980 RMK T02600110 IEM_DS3505
ZBAA,2006-09-05 09:00,ZBAA 050900Z AUTO 18006KT 19SM 26/08 A2980 RMK SLP085 T02600076 57018 IEM_DS3505
ZBAA,2006-09-05 10:00,ZBAA 051000Z AUTO 11006KT 6SM 25/13 A2977 RMK T02500130 IEM_DS3505
ZBAA,2006-09-05 11:00,ZBAA 051100Z AUTO 16006KT 6SM 22/12 A2977 RMK T02200120 IEM_DS3505
ZBAA,2006-09-05 12:00,ZBAA 051200Z AUTO 22006KT 16SM 22/09 A2980 RMK SLP084 T02190094 57001 IEM_DS3505
ZBAA,2006-09-05 13:00,ZBAA 051300Z AUTO 17006KT 6SM 20/12 A2980 RMK T02000120 IEM_DS3505
ZBAA,2006-09-05 14:00,ZBAA 051400Z AUTO 15006KT 6SM 20/13 A2980 RMK T02000130 IEM_DS3505
ZBAA,2006-09-05 15:00,ZBAA 051500Z AUTO 18004KT 12SM 19/11 A2977 RMK SLP077 T01880111 57007 IEM_DS3505
ZBAA,2006-09-05 16:00,ZBAA 051600Z AUTO 15006KT 6SM 19/13 A2977 RMK T01900130 IEM_DS3505
ZBAA,2006-09-05 17:00,ZBAA 051700Z AUTO 16004KT 6SM 17/13 A2977 RMK T01700130 IEM_DS3505
ZBAA,2006-09-05 18:00,ZBAA 051800Z AUTO 14002KT 9SM 16/11 A2974 RMK SLP066 T01600114 57011 IEM_DS3505
ZBAA,2006-09-05 19:00,ZBAA 051900Z AUTO 05004KT 6SM 16/13 A2974 RMK T01600130 IEM_DS3505
ZBAA,2006-09-05 20:00,ZBAA 052000Z AUTO 02004KT 5SM 15/12 A2974 RMK T01500120 IEM_DS3505
ZBAA,2006-09-05 21:00,ZBAA 052100Z AUTO 09002KT 12SM 15/11 A2974 RMK SLP061 T01460114 57005 IEM_DS3505
ZBAA,2006-09-05 22:00,ZBAA 052200Z AUTO 35004KT 5SM 13/12 A2974 RMK T01300120 IEM_DS3505
ZBAA,2006-09-05 23:00,ZBAA 052300Z AUTO 35004KT 5SM 16/15 A2974 RMK T01600150 IEM_DS3505
ZBAA,2006-09-06 00:00,ZBAA 060000Z AUTO 02004KT 12SM 19/12 A2974 RMK SLP066 T01890122 52005 IEM_DS3505
ZBAA,2006-09-06 01:00,ZBAA 060100Z AUTO 01004KT 6SM 20/14 A2974 RMK T02000140 IEM_DS3505
ZBAA,2006-09-06 02:00,ZBAA 060200Z AUTO 6SM 23/14 A2974 RMK T02300140 IEM_DS3505
ZBAA,2006-09-06 03:00,ZBAA 060300Z AUTO 11004KT 12SM 25/12 A2971 RMK SLP058 T02520117 57008 IEM_DS3505
ZBAA,2006-09-06 04:00,ZBAA 060400Z AUTO 6SM 26/14 A2971 RMK T02600140 IEM_DS3505
ZBAA,2006-09-06 05:00,ZBAA 060500Z AUTO 5SM 28/15 A2968 RMK T02800150 IEM_DS3505
ZBAA,2006-09-06 06:00,ZBAA 060600Z AUTO 20008KT 12SM 29/12 A2965 RMK SLP037 T02900124 57021 IEM_DS3505
ZBAA,2006-09-06 07:00,ZBAA 060700Z AUTO 18010KT 4SM 30/15 A2962 RMK T03000150 IEM_DS3505
ZBAA,2006-09-06 08:00,ZBAA 060800Z AUTO 17010KT 6SM 31/14 A2962 RMK T03100140 IEM_DS3505
ZBAA,2006-09-06 09:00,ZBAA 060900Z AUTO 20008KT 16SM 30/13 A2962 RMK SLP025 T02970126 57012 IEM_DS3505
ZBAA,2006-09-06 10:00,ZBAA 061000Z AUTO 17006KT 6SM 28/15 A2962 RMK T02800150 IEM_DS3505
ZBAA,2006-09-06 11:00,ZBAA 061100Z AUTO 14006KT 5SM 27/18 A2962 RMK T02700180 IEM_DS3505
ZBAA,2006-09-06 12:00,ZBAA 061200Z AUTO 18004KT 9SM 25/16 A2965 RMK SLP037 T02500159 52012 IEM_DS3505
ZBAA,2006-09-06 13:00,ZBAA 061300Z AUTO 13006KT 5SM 24/18 A2965 RMK T02400180 IEM_DS3505
ZBAA,2006-09-06 14:00,ZBAA 061400Z AUTO 15006KT 5SM 23/18 A2968 RMK T02300180 IEM_DS3505
ZBAA,2006-09-06 15:00,ZBAA 061500Z AUTO 22004KT 12SM 22/15 A2968 RMK SLP045 T02190150 52008 IEM_DS3505
ZBAA,2006-09-06 16:00,ZBAA 061600Z AUTO 07006KT 4SM 21/17 A2971 RMK T02100170 IEM_DS3505
ZBAA,2006-09-06 17:00,ZBAA 061700Z AUTO 03004KT 3SM 20/17 A2971 RMK T02000170 IEM_DS3505
ZBAA,2006-09-06 18:00,ZBAA 061800Z AUTO 25004KT 9SM 21/14 A2974 RMK SLP059 T02090145 52015 IEM_DS3505
ZBAA,2006-09-06 19:00,ZBAA 061900Z AUTO 02004KT 3SM 19/17 A2974 RMK T01900170 IEM_DS3505
ZBAA,2006-09-06 20:00,ZBAA 062000Z AUTO 03004KT 3SM 19/17 A2977 RMK T01900170 IEM_DS3505
ZBAA,2006-09-06 21:00,ZBAA 062100Z AUTO 07002KT 9SM 19/15 A2977 RMK SLP078 T01910154 52018 IEM_DS3505
ZBAA,2006-09-06 22:00,ZBAA 062200Z AUTO 05004KT 3SM 18/16 A2983 RMK T01800160 IEM_DS3505
ZBAA,2006-09-06 23:00,ZBAA 062300Z AUTO 06006KT 3SM 19/16 A2985 RMK T01900160 IEM_DS3505
ZBAA,2006-09-07 00:00,ZBAA 070000Z AUTO 04008KT 7SM 19/15 A2985 RMK SLP103 T01940147 52025 IEM_DS3505
ZBAA,2006-09-07 01:00,ZBAA 070100Z AUTO 06006KT 6SM 22/16 A2988 RMK T02200160 IEM_DS3505
ZBAA,2006-09-07 02:00,ZBAA 070200Z AUTO 09008KT 6SM 22/16 A2988 RMK T02200160 IEM_DS3505
ZBAA,2006-09-07 03:00,ZBAA 070300Z AUTO 07008KT 7SM 22/16 A2988 RMK SLP114 T02150162 52011 IEM_DS3505
ZBAA,2006-09-07 04:00,ZBAA 070400Z AUTO 10014KT 6SM 23/14 A2988 RMK T02300140 IEM_DS3505
ZBAA,2006-09-07 05:00,ZBAA 070500Z AUTO 07010KT 6SM 23/15 A2988 RMK T02300150 IEM_DS3505
ZBAA,2006-09-07 06:00,ZBAA 070600Z AUTO 18008KT 9SM 26/16 A2985 RMK SLP100 T02580155 57014 IEM_DS3505
ZBAA,2006-09-07 07:00,ZBAA 070700Z AUTO 10012KT 7SM 24/15 A2983 RMK T02400150 IEM_DS3505
ZBAA,2006-09-07 08:00,ZBAA 070800Z AUTO 12016KT 7SM 24/17 A2983 RMK T02400170 IEM_DS3505
ZBAA,2006-09-07 09:00,ZBAA 070900Z AUTO 14012KT 12SM 23/16 A2983 RMK SLP097 T02280156 57003 IEM_DS3505
ZBAA,2006-09-07 10:00,ZBAA 071000Z AUTO 12012KT 7SM 22/17 A2985 RMK T02200170 IEM_DS3505
ZBAA,2006-09-07 11:00,ZBAA 071100Z AUTO 13014KT 7SM 21/16 A2985 RMK T02100160 IEM_DS3505
ZBAA,2006-09-07 12:00,ZBAA 071200Z AUTO 11010KT 12SM 21/15 A2985 RMK SLP106 T02060154 52009 IEM_DS3505
ZBAA,2006-09-07 13:00,ZBAA 071300Z AUTO 12012KT 6SM 20/15 A2988 RMK T02000150 IEM_DS3505
ZBAA,2006-09-07 14:00,ZBAA 071400Z AUTO 12012KT 7SM 20/15 A2988 RMK T02000150 IEM_DS3505
ZBAA,2006-09-07 15:00,ZBAA 071500Z AUTO 11006KT 12SM 19/15 A2988 RMK SLP114 T01940153 52008 IEM_DS3505
ZBAA,2006-09-07 16:00,ZBAA 071600Z AUTO 12012KT 6SM 19/16 A2985 RMK T01900160 IEM_DS3505
ZBAA,2006-09-07 17:00,ZBAA 071700Z AUTO 12008KT 6SM 19/17 A2988 RMK T01900170 IEM_DS3505
ZBAA,2006-09-07 18:00,ZBAA 071800Z AUTO 20006KT 9SM 19/14 A2985 RMK SLP105 T01930143 57009 IEM_DS3505
ZBAA,2006-09-07 19:00,ZBAA 071900Z AUTO 16004KT 5SM 19/17 A2988 RMK T01900170 IEM_DS3505
ZBAA,2006-09-07 20:00,ZBAA 072000Z AUTO 17004KT 4SM 18/17 A2988 RMK T01800170 IEM_DS3505
ZBAA,2006-09-07 21:00,ZBAA 072100Z AUTO 32004G23KT 9SM 18/14 A2988 RMK 70000 SLP116 T01850142 52011 IEM_DS3505
ZBAA,2006-09-07 22:00,ZBAA 072200Z AUTO 31019KT 7SM 16/11 A2994 RMK T01600110 IEM_DS3505
ZBAA,2006-09-07 23:00,ZBAA 072300Z AUTO 30021G31KT 7SM 14/08 A2997 RMK T01400080 IEM_DS3505
ZBAA,2006-09-08 00:00,ZBAA 080000Z AUTO 34014KT 12SM 15/04 A3000 RMK 60000 70000 SLP147 T01520037 52030 IEM_DS3505
ZBAA,2006-09-08 01:00,ZBAA 080100Z AUTO 31021KT 6SM 15/03 A3003 RMK T01500030 IEM_DS3505
ZBAA,2006-09-08 02:00,ZBAA 080200Z AUTO 31016KT 6SM 16/04 A3003 RMK T01600040 IEM_DS3505
ZBAA,2006-09-08 03:00,ZBAA 080300Z AUTO 34008KT 19SM 17/00 A3006 RMK SLP168 T01710003 52021 IEM_DS3505
ZBAA,2006-09-08 04:00,ZBAA 080400Z AUTO 36012KT 6SM 19/04 A3003 RMK T01900040 IEM_DS3505
ZBAA,2006-09-08 05:00,ZBAA 080500Z AUTO 35012KT 6SM 22/05 A3003 RMK T02200050 IEM_DS3505
ZBAA,2006-09-08 06:00,ZBAA 080600Z AUTO 34010KT 19SM 21/M01 A3000 RMK 60000 SLP158 T02141006 57009 IEM_DS3505
ZBAA,2006-09-08 07:00,ZBAA 080700Z AUTO 36012KT 6SM 22/03 A3000 RMK T02200030 IEM_DS3505
ZBAA,2006-09-08 08:00,ZBAA 080800Z AUTO 36014KT 6SM 21/03 A3003 RMK T02100030 IEM_DS3505
ZBAA,2006-09-08 09:00,ZBAA 080900Z AUTO 34012G29KT 19SM 21/M03 A3006 RMK SLP175 T02061031 52016 IEM_DS3505
ZBAA,2006-09-08 10:00,ZBAA 081000Z AUTO 33012KT 6SM 19/01 A3006 RMK T01900010 IEM_DS3505
ZBAA,2006-09-08 11:00,ZBAA 081100Z AUTO 35006KT 6SM 16/02 A3009 RMK T01600020 IEM_DS3505
ZBAA,2006-09-08 12:00,ZBAA 081200Z AUTO 36002KT 19SM 18/M02 A3012 RMK SLP198 T01781019 52023 IEM_DS3505
ZBAA,2006-09-08 13:00,ZBAA 081300Z AUTO 30014KT 6SM 16/01 A3015 RMK T01600010 IEM_DS3505
ZBAA,2006-09-08 14:00,ZBAA 081400Z AUTO 31014KT 6SM 16/02 A3018 RMK T01600020 IEM_DS3505
ZBAA,2006-09-08 15:00,ZBAA 081500Z AUTO 34004KT 19SM 16/M00 A3018 RMK SLP215 T01601003 52017 IEM_DS3505
ZBAA,2006-09-08 16:00,ZBAA 081600Z AUTO 32012KT 6SM 14/03 A3018 RMK T01400030 IEM_DS3505
ZBAA,2006-09-08 17:00,ZBAA 081700Z AUTO 30010KT 6SM 14/02 A3018 RMK T01400020 IEM_DS3505
ZBAA,2006-09-08 18:00,ZBAA 081800Z AUTO 32004KT 19SM 14/M00 A3015 RMK SLP210 T01441001 57005 IEM_DS3505
ZBAA,2006-09-08 19:00,ZBAA 081900Z AUTO 27004KT 6SM 11/05 A3015 RMK T01100050 IEM_DS3505
ZBAA,2006-09-08 20:00,ZBAA 082000Z AUTO 28008KT 6SM 11/04 A3015 RMK T01100040 IEM_DS3505
ZBAA,2006-09-08 21:00,ZBAA 082100Z AUTO 32008KT 19SM 14/M02 A3015 RMK 70000 SLP207 T01421018 57003 IEM_DS3505
ZBAA,2006-09-08 22:00,ZBAA 082200Z AUTO 28010KT 6SM 12/03 A3018 RMK T01200030 IEM_DS3505
ZBAA,2006-09-08 23:00,ZBAA 082300Z AUTO 27008KT 6SM 13/03 A3018 RMK T01300030 IEM_DS3505
ZBAA,2006-09-09 00:00,ZBAA 090000Z AUTO 32010KT 19SM 15/M04 A3018 RMK 70000 SLP223 T01541035 52016 IEM_DS3505
ZBAA,2006-09-09 01:00,ZBAA 090100Z AUTO 31010KT 6SM 17/01 A3021 RMK T01700010 IEM_DS3505
ZBAA,2006-09-09 02:00,ZBAA 090200Z AUTO 27010KT 6SM 16/M01 A3021 RMK T01601010 IEM_DS3505
ZBAA,2006-09-09 03:00,ZBAA 090300Z AUTO 36012KT 19SM 18/M07 A3018 RMK SLP220 T01801067 57003 IEM_DS3505
ZBAA,2006-09-09 04:00,ZBAA 090400Z AUTO 29016G25KT 6SM 20/M03 A3018 RMK T02001030 IEM_DS3505
ZBAA,2006-09-09 05:00,ZBAA 090500Z AUTO 31019KT 6SM 20/M02 A3015 RMK T02001020 IEM_DS3505
ZBAA,2006-09-09 06:00,ZBAA 090600Z AUTO 32010G29KT 19SM 20/M05 A3015 RMK SLP204 T02011049 57016 IEM_DS3505
ZBAA,2006-09-09 07:00,ZBAA 090700Z AUTO 31014KT 6SM 18/M01 A3015 RMK T01801010 IEM_DS3505
ZBAA,2006-09-09 08:00,ZBAA 090800Z AUTO 33012KT 6SM 20/00 A3012 RMK T02000000 IEM_DS3505
ZBAA,2006-09-09 09:00,ZBAA 090900Z AUTO 34010KT 19SM 19/M03 A3012 RMK SLP200 T01871028 57004 IEM_DS3505
ZBAA,2006-09-09 10:00,ZBAA 091000Z AUTO 32008KT 6SM 18/01 A3012 RMK T01800010 IEM_DS3505
ZBAA,2006-09-09 11:00,ZBAA 091100Z AUTO 35006KT 6SM 16/01 A3012 RMK T01600010 IEM_DS3505
ZBAA,2006-09-09 12:00,ZBAA 091200Z AUTO 14004KT 19SM 16/M00 A3012 RMK SLP201 T01611002 52001 IEM_DS3505
ZBAA,2006-09-09 13:00,ZBAA 091300Z AUTO 13002KT 6SM 16/04 A3015 RMK T01600040 IEM_DS3505
ZBAA,2006-09-09 14:00,ZBAA 091400Z AUTO 16004KT 7SM 15/07 A3015 RMK T01500070 IEM_DS3505
ZBAA,2006-09-09 15:00,ZBAA 091500Z AUTO 16004KT 19SM 16/00 A3012 RMK SLP201 T01580004 54000 IEM_DS3505
ZBAA,2006-09-09 16:00,ZBAA 091600Z AUTO 19002KT 6SM 15/05 A3015 RMK T01500050 IEM_DS3505
ZBAA,2006-09-09 17:00,ZBAA 091700Z AUTO 11002KT 6SM 15/07 A3012 RMK T01500070 IEM_DS3505
ZBAA,2006-09-09 18:00,ZBAA 091800Z AUTO 20004KT 19SM 13/03 A3009 RMK SLP189 T01340026 57012 IEM_DS3505
ZBAA,2006-09-09 19:00,ZBAA 091900Z AUTO 05006KT 6SM 12/08 A3009 RMK T01200080 IEM_DS3505
ZBAA,2006-09-09 20:00,ZBAA 092000Z AUTO 03004KT 6SM 12/08 A3009 RMK T01200080 IEM_DS3505
ZBAA,2006-09-09 21:00,ZBAA 092100Z AUTO 02002KT 9SM 11/05 A3009 RMK SLP184 T01060049 57005 IEM_DS3505
ZBAA,2006-09-09 22:00,ZBAA 092200Z AUTO 33004KT 6SM 09/07 A3009 RMK T00900070 IEM_DS3505
ZBAA,2006-09-09 23:00,ZBAA 092300Z AUTO 35006KT 6SM 11/08 A3012 RMK T01100080 IEM_DS3505
ZBAA,2006-09-10 00:00,ZBAA 100000Z AUTO 04006KT 12SM 14/06 A3012 RMK SLP191 T01440055 52007 IEM_DS3505
ZBAA,2006-09-10 01:00,ZBAA 100100Z AUTO 6SM 16/06 A3009 RMK T01600060 IEM_DS3505
ZBAA,2006-09-10 02:00,ZBAA 100200Z AUTO 02004KT 6SM 18/07 A3009 RMK T01800070 IEM_DS3505
ZBAA,2006-09-10 03:00,ZBAA 100300Z AUTO 20004KT 16SM 22/06 A3009 RMK SLP181 T02200059 57010 IEM_DS3505
ZBAA,2006-09-10 04:00,ZBAA 100400Z AUTO 6SM 22/08 A3006 RMK T02200080 IEM_DS3505
ZBAA,2006-09-10 05:00,ZBAA 100500Z AUTO 18004KT 6SM 25/09 A3003 RMK T02500090 IEM_DS3505
ZBAA,2006-09-10 06:00,ZBAA 100600Z AUTO 20010KT 19SM 27/05 A3000 RMK SLP154 T02710054 57026 IEM_DS3505
ZBAA,2006-09-10 07:00,ZBAA 100700Z AUTO 21010KT 6SM 28/08 A2997 RMK T02800080 IEM_DS3505
ZBAA,2006-09-10 08:00,ZBAA 100800Z AUTO 19010KT 6SM 28/09 A2994 RMK T02800090 IEM_DS3505
ZBAA,2006-09-10 09:00,ZBAA 100900Z AUTO 22010KT 19SM 27/05 A2994 RMK SLP140 T02740051 57014 IEM_DS3505
ZBAA,2006-09-10 10:00,ZBAA 101000Z AUTO 21008KT 6SM 26/09 A2994 RMK T02600090 IEM_DS3505
ZBAA,2006-09-10 11:00,ZBAA 101100Z AUTO 15004KT 6SM 24/09 A2997 RMK T02400090 IEM_DS3505
ZBAA,2006-09-10 12:00,ZBAA 101200Z AUTO 22004KT 19SM 22/10 A2997 RMK SLP151 T02180097 52010 IEM_DS3505
ZBAA,2006-09-10 13:00,ZBAA 101300Z AUTO 6SM 21/12 A3000 RMK T02100120 IEM_DS3505
ZBAA,2006-09-10 14:00,ZBAA 101400Z AUTO 6SM 19/12 A3000 RMK T01900120 IEM_DS3505
ZBAA,2006-09-10 15:00,ZBAA 101500Z AUTO 25004KT 19SM 20/10 A3000 RMK SLP158 T01980097 52008 IEM_DS3505
ZBAA,2006-09-10 16:00,ZBAA 101600Z AUTO 01004KT 6SM 17/13 A3003 RMK T01700130 IEM_DS3505
ZBAA,2006-09-10 17:00,ZBAA 101700Z AUTO 35006KT 6SM 15/12 A3003 RMK T01500120 IEM_DS3505
ZBAA,2006-09-10 18:00,ZBAA 101800Z AUTO 07002KT 16SM 16/11 A3000 RMK SLP157 T01610111 57001 IEM_DS3505
ZBAA,2006-09-10 19:00,ZBAA 101900Z AUTO 34006KT 6SM 14/13 A3003 RMK T01400130 IEM_DS3505
ZBAA,2006-09-10 20:00,ZBAA 102000Z AUTO 34006KT 6SM 14/12 A3003 RMK T01400120 IEM_DS3505
ZBAA,2006-09-10 21:00,ZBAA 102100Z AUTO 09002KT 12SM 15/11 A3003 RMK SLP164 T01470109 52007 IEM_DS3505
ZBAA,2006-09-10 22:00,ZBAA 102200Z AUTO 33004KT 6SM 13/12 A3003 RMK T01300120 IEM_DS3505
ZBAA,2006-09-10 23:00,ZBAA 102300Z AUTO 34006KT 6SM 16/13 A3006 RMK T01600130 IEM_DS3505
ZBAA,2006-09-11 00:00,ZBAA 110000Z AUTO 04002KT 12SM 20/12 A3006 RMK SLP177 T02010116 52013 IEM_DS3505
ZBAA,2006-09-11 01:00,ZBAA 110100Z AUTO 36004KT 6SM 21/13 A3006 RMK T02100130 IEM_DS3505
ZBAA,2006-09-11 02:00,ZBAA 110200Z AUTO 01006KT 6SM 23/13 A3006 RMK T02300130 IEM_DS3505
ZBAA,2006-09-11 03:00,ZBAA 110300Z AUTO 25004KT 12SM 27/08 A3006 RMK SLP177 T02710076 54000 IEM_DS3505
ZBAA,2006-09-11 04:00,ZBAA 110400Z AUTO 6SM 28/13 A3006 RMK T02800130 IEM_DS3505
ZBAA,2006-09-11 05:00,ZBAA 110500Z AUTO 6SM 30/11 A3003 RMK T03000110 IEM_DS3505
ZBAA,2006-09-11 06:00,ZBAA 110600Z AUTO 20006KT 12SM 30/10 A3003 RMK SLP164 T03000100 57013 IEM_DS3505
ZBAA,2006-09-11 07:00,ZBAA 110700Z AUTO 19008KT 6SM 31/10 A3000 RMK T03100100 IEM_DS3505
ZBAA,2006-09-11 08:00,ZBAA 110800Z AUTO 18006KT 6SM 31/12 A3000 RMK T03100120 IEM_DS3505
ZBAA,2006-09-11 09:00,ZBAA 110900Z AUTO 20006KT 16SM 30/07 A3000 RMK SLP157 T02990072 57007 IEM_DS3505
ZBAA,2006-09-11 10:00,ZBAA 111000Z AUTO 19004KT 6SM 28/12 A3003 RMK T02800120 IEM_DS3505
ZBAA,2006-09-11 11:00,ZBAA 111100Z AUTO 17006KT 6SM 24/14 A3003 RMK T02400140 IEM_DS3505
ZBAA,2006-09-11 12:00,ZBAA 111200Z AUTO 22004KT 12SM 25/11 A3006 RMK SLP176 T02480114 52019 IEM_DS3505
ZBAA,2006-09-11 13:00,ZBAA 111300Z AUTO 22006KT 6SM 25/13 A3006 RMK T02500130 IEM_DS3505
ZBAA,2006-09-11 14:00,ZBAA 111400Z AUTO 01002KT 6SM 22/15 A3009 RMK T02200150 IEM_DS3505
ZBAA,2006-09-11 15:00,ZBAA 111500Z AUTO 22002KT 12SM 21/12 A3009 RMK SLP188 T02100122 52012 IEM_DS3505
ZBAA,2006-09-11 16:00,ZBAA 111600Z AUTO 35006KT 6SM 18/13 A3012 RMK T01800130 IEM_DS3505
ZBAA,2006-09-11 17:00,ZBAA 111700Z AUTO 04004KT 6SM 19/16 A3012 RMK T01900160 IEM_DS3505
ZBAA,2006-09-11 18:00,ZBAA 111800Z AUTO 20002KT 9SM 18/12 A3012 RMK SLP193 T01770124 52005 IEM_DS3505
ZBAA,2006-09-11 19:00,ZBAA 111900Z AUTO 03004KT 6SM 18/15 A3012 RMK T01800150 IEM_DS3505
ZBAA,2006-09-11 20:00,ZBAA 112000Z AUTO 00000KT 6SM 16/14 A3015 RMK T01600140 IEM_DS3505
ZBAA,2006-09-11 21:00,ZBAA 112100Z AUTO 11002KT 6SM 16/12 A3015 RMK SLP199 T01580125 52006 IEM_DS3505
ZBAA,2006-09-11 22:00,ZBAA 112200Z AUTO 35004KT 6SM 14/13 A3015 RMK T01400130 IEM_DS3505
ZBAA,2006-09-11 23:00,ZBAA 112300Z AUTO 34006KT 6SM 16/14 A3018 RMK T01600140 IEM_DS3505
ZBAA,2006-09-12 00:00,ZBAA 120000Z AUTO 02002KT 5SM 20/14 A3018 RMK SLP216 T01980135 52017 IEM_DS3505
ZBAA,2006-09-12 01:00,ZBAA 120100Z AUTO 03006KT 6SM 22/13 A3018 RMK T02200130 IEM_DS3505
ZBAA,2006-09-12 02:00,ZBAA 120200Z AUTO 36004KT 6SM 23/14 A3021 RMK T02300140 IEM_DS3505
ZBAA,2006-09-12 03:00,ZBAA 120300Z AUTO 04002KT 12SM 26/12 A3018 RMK SLP218 T02570118 52002 IEM_DS3505
ZBAA,2006-09-12 04:00,ZBAA 120400Z AUTO 6SM 27/15 A3018 RMK T02700150 IEM_DS3505
ZBAA,2006-09-12 05:00,ZBAA 120500Z AUTO 22004KT 6SM 28/14 A3015 RMK T02800140 IEM_DS3505
ZBAA,2006-09-12 06:00,ZBAA 120600Z AUTO 22008KT 12SM 30/09 A3012 RMK SLP199 T02980093 57019 IEM_DS3505
ZBAA,2006-09-12 07:00,ZBAA 120700Z AUTO 22008KT 6SM 31/10 A3012 RMK T03100100 IEM_DS3505
ZBAA,2006-09-12 08:00,ZBAA 120800Z AUTO 20006KT 6SM 30/11 A3012 RMK T03000110 IEM_DS3505
ZBAA,2006-09-12 09:00,ZBAA 120900Z AUTO 22010KT 12SM 28/07 A3012 RMK SLP199 T02850066 54000 IEM_DS3505
ZBAA,2006-09-12 10:00,ZBAA 121000Z AUTO 18006KT 6SM 26/12 A3012 RMK T02600120 IEM_DS3505
ZBAA,2006-09-12 11:00,ZBAA 121100Z AUTO 19006KT 6SM 23/11 A3015 RMK T02300110 IEM_DS3505
ZBAA,2006-09-12 12:00,ZBAA 121200Z AUTO 20002KT 12SM 23/10 A3015 RMK SLP210 T02330104 52011 IEM_DS3505
ZBAA,2006-09-12 13:00,ZBAA 121300Z AUTO 17006KT 6SM 21/13 A3018 RMK T02100130 IEM_DS3505
ZBAA,2006-09-12 14:00,ZBAA 121400Z AUTO 36004KT 6SM 20/13 A3018 RMK T02000130 IEM_DS3505
ZBAA,2006-09-12 15:00,ZBAA 121500Z AUTO 25002KT 12SM 21/12 A3018 RMK SLP217 T02060121 52007 IEM_DS3505
ZBAA,2006-09-12 16:00,ZBAA 121600Z AUTO 6SM 19/14 A3018 RMK T01900140 IEM_DS3505
ZBAA,2006-09-12 17:00,ZBAA 121700Z AUTO 13002KT 3SM 18/15 A3018 RMK T01800150 IEM_DS3505
ZBAA,2006-09-12 18:00,ZBAA 121800Z AUTO 01002KT 9SM 17/13 A3018 RMK SLP217 T01730128 54000 IEM_DS3505
ZBAA,2006-09-12 19:00,ZBAA 121900Z AUTO 34006KT 4SM 14/13 A3021 RMK T01400130 IEM_DS3505
ZBAA,2006-09-12 20:00,ZBAA 122000Z AUTO 35004KT 5SM 14/13 A3018 RMK T01400130 IEM_DS3505
ZBAA,2006-09-12 21:00,ZBAA 122100Z AUTO 09002KT 6SM 16/13 A3018 RMK SLP217 T01590126 54000 IEM_DS3505
ZBAA,2006-09-12 22:00,ZBAA 122200Z AUTO 34004KT 5SM 13/13 A3021 RMK T01300130 IEM_DS3505
ZBAA,2006-09-12 23:00,ZBAA 122300Z AUTO 33006KT 6SM 16/14 A3021 RMK T01600140 IEM_DS3505
ZBAA,2006-09-13 00:00,ZBAA 130000Z AUTO 04004KT 12SM 20/12 A3021 RMK SLP228 T01990119 52011 IEM_DS3505
ZBAA,2006-09-13 01:00,ZBAA 130100Z AUTO 36006KT 6SM 21/14 A3021 RMK T02100140 IEM_DS3505
ZBAA,2006-09-13 02:00,ZBAA 130200Z AUTO 01006KT 6SM 23/14 A3021 RMK T02300140 IEM_DS3505
ZBAA,2006-09-13 03:00,ZBAA 130300Z AUTO 16002KT 9SM 27/12 A3021 RMK SLP224 T02670116 57004 IEM_DS3505
ZBAA,2006-09-13 04:00,ZBAA 130400Z AUTO 07002KT 6SM 27/13 A3018 RMK T02700130 IEM_DS3505
ZBAA,2006-09-13 05:00,ZBAA 130500Z AUTO 19006KT 6SM 29/13 A3018 RMK T02900130 IEM_DS3505
ZBAA,2006-09-13 06:00,ZBAA 130600Z AUTO 25008KT 12SM 29/07 A3015 RMK SLP203 T02940067 57021 IEM_DS3505
ZBAA,2006-09-13 07:00,ZBAA 130700Z AUTO 19006KT 6SM 30/10 A3012 RMK T03000100 IEM_DS3505
ZBAA,2006-09-13 08:00,ZBAA 130800Z AUTO 21006KT 6SM 29/10 A3009 RMK T02900100 IEM_DS3505
ZBAA,2006-09-13 09:00,ZBAA 130900Z AUTO 22008KT 9SM 28/08 A3012 RMK SLP193 T02770076 57010 IEM_DS3505
ZBAA,2006-09-13 10:00,ZBAA 131000Z AUTO 17006KT 6SM 25/13 A3012 RMK T02500130 IEM_DS3505
ZBAA,2006-09-13 11:00,ZBAA 131100Z AUTO 18006KT 5SM 23/13 A3012 RMK T02300130 IEM_DS3505
ZBAA,2006-09-13 12:00,ZBAA 131200Z AUTO 22002KT 9SM 24/10 A3012 RMK SLP201 T02400103 52008 IEM_DS3505
ZBAA,2006-09-13 13:00,ZBAA 131300Z AUTO 19004KT 6SM 21/14 A3015 RMK T02100140 IEM_DS3505
ZBAA,2006-09-13 14:00,ZBAA 131400Z AUTO 16002KT 6SM 21/14 A3015 RMK T02100140 IEM_DS3505
ZBAA,2006-09-13 15:00,ZBAA 131500Z AUTO 09002KT 7SM 21/12 A3012 RMK SLP199 T02110120 57002 IEM_DS3505
ZBAA,2006-09-13 16:00,ZBAA 131600Z AUTO 05002KT 4SM 20/15 A3012 RMK T02000150 IEM_DS3505
ZBAA,2006-09-13 17:00,ZBAA 131700Z AUTO 10006KT 4SM 20/15 A3012 RMK T02000150 IEM_DS3505
ZBAA,2006-09-13 18:00,ZBAA 131800Z AUTO 22002KT 7SM 20/12 A3012 RMK SLP195 T01960124 57004 IEM_DS3505
ZBAA,2006-09-13 19:00,ZBAA 131900Z AUTO 01004KT 3SM 18/15 A3012 RMK T01800150 IEM_DS3505
ZBAA,2006-09-13 20:00,ZBAA 132000Z AUTO 03004KT 3SM 18/15 A3012 RMK T01800150 IEM_DS3505
ZBAA,2006-09-13 21:00,ZBAA 132100Z AUTO 07002KT 6SM 18/13 A3012 RMK SLP189 T01850134 57006 IEM_DS3505
ZBAA,2006-09-13 22:00,ZBAA 132200Z AUTO 34004KT 4SM 17/15 A3012 RMK T01700150 IEM_DS3505
ZBAA,2006-09-13 23:00,ZBAA 132300Z AUTO 36004KT 3SM 18/15 A3012 RMK T01800150 IEM_DS3505
ZBAA,2006-09-14 00:00,ZBAA 140000Z AUTO 07004KT 6SM 20/14 A3012 RMK SLP194 T01950139 52005 IEM_DS3505
ZBAA,2006-09-14 01:00,ZBAA 140100Z AUTO 04002KT 3SM 20/15 A3012 RMK T02000150 IEM_DS3505
ZBAA,2006-09-14 02:00,ZBAA 140200Z AUTO 02004KT 3SM 21/16 A3012 RMK T02100160 IEM_DS3505
ZBAA,2006-09-14 03:00,ZBAA 140300Z AUTO 07004KT 6SM 23/14 A3012 RMK SLP193 T02300140 57001 IEM_DS3505
ZBAA,2006-09-14 04:00,ZBAA 140400Z AUTO 05004KT 2 1/2SM 24/17 A3009 RMK T02400170 IEM_DS3505
ZBAA,2006-09-14 05:00,ZBAA 140500Z AUTO 08004KT 2 1/2SM 26/18 A3006 RMK T02600180 IEM_DS3505
ZBAA,2006-09-14 06:00,ZBAA 140600Z AUTO 11006KT 6SM 26/15 A3006 RMK SLP172 T02580146 57021 IEM_DS3505
ZBAA,2006-09-14 07:00,ZBAA 140700Z AUTO 10004KT 3SM 26/17 A3003 RMK T02600170 IEM_DS3505
ZBAA,2006-09-14 08:00,ZBAA 140800Z AUTO 13008KT 3SM 26/17 A3003 RMK T02600170 IEM_DS3505
ZBAA,2006-09-14 09:00,ZBAA 140900Z AUTO 16006KT 7SM 25/13 A3003 RMK SLP160 T02520134 57012 IEM_DS3505
ZBAA,2006-09-14 10:00,ZBAA 141000Z AUTO 14008KT 3SM 24/17 A3003 RMK T02400170 IEM_DS3505
ZBAA,2006-09-14 11:00,ZBAA 141100Z AUTO 16006KT 3SM 22/17 A3003 RMK T02200170 IEM_DS3505
ZBAA,2006-09-14 12:00,ZBAA 141200Z AUTO 20006G25KT 9SM 20/11 A3006 RMK SLP176 T02040113 52016 IEM_DS3505
ZBAA,2006-09-14 13:00,ZBAA 141300Z AUTO 19008KT 7SM 21/14 A3006 RMK T02100140 IEM_DS3505
ZBAA,2006-09-14 14:00,ZBAA 141400Z AUTO 32002KT 6SM 20/13 A3006 RMK T02000130 IEM_DS3505
ZBAA,2006-09-14 15:00,ZBAA 141500Z AUTO 32004KT 9SM 20/13 A3006 RMK SLP171 T01960126 57005 IEM_DS3505
ZBAA,2006-09-14 16:00,ZBAA 141600Z AUTO 06004KT 6SM 20/14 A3006 RMK T02000140 IEM_DS3505
ZBAA,2006-09-14 17:00,ZBAA 141700Z AUTO 35004KT 6SM 18/14 A3003 RMK T01800140 IEM_DS3505
ZBAA,2006-09-14 18:00,ZBAA 141800Z AUTO 36002KT 9SM 19/13 A3003 RMK SLP163 T01920132 57008 IEM_DS3505
ZBAA,2006-09-14 19:00,ZBAA 141900Z AUTO 31002KT 6SM 18/15 A3003 RMK T01800150 IEM_DS3505
ZBAA,2006-09-14 20:00,ZBAA 142000Z AUTO 32002KT 4SM 18/15 A3003 RMK T01800150 IEM_DS3505
ZBAA,2006-09-14 21:00,ZBAA 142100Z AUTO 29002KT 6SM 18/14 A3003 RMK SLP160 T01800137 57003 IEM_DS3505
ZBAA,2006-09-14 22:00,ZBAA 142200Z AUTO 29006KT 2 1/2SM 17/15 A3003 RMK T01700150 IEM_DS3505
ZBAA,2006-09-14 23:00,ZBAA 142300Z AUTO 35004KT 2 1/2SM 17/15 A3003 RMK T01700150 IEM_DS3505
ZBAA,2006-09-15 00:00,ZBAA 150000Z AUTO 29004KT 5SM 19/14 A3003 RMK SLP166 T01880141 52006 IEM_DS3505
ZBAA,2006-09-15 01:00,ZBAA 150100Z AUTO 01004KT 2 1/2SM 20/15 A3006 RMK T02000150 IEM_DS3505
ZBAA,2006-09-15 02:00,ZBAA 150200Z AUTO 2 1/2SM 22/15 A3003 RMK T02200150 IEM_DS3505
ZBAA,2006-09-15 03:00,ZBAA 150300Z AUTO 16004KT 7SM 24/13 A3003 RMK SLP168 T02380128 52002 IEM_DS3505
ZBAA,2006-09-15 04:00,ZBAA 150400Z AUTO 13004KT 3SM 25/16 A3003 RMK T02500160 IEM_DS3505
ZBAA,2006-09-15 05:00,ZBAA 150500Z AUTO 14004KT 4SM 26/15 A3000 RMK T02600150 IEM_DS3505
ZBAA,2006-09-15 06:00,ZBAA 150600Z AUTO 16004KT 7SM 26/12 A2997 RMK SLP146 T02580119 57022 IEM_DS3505
ZBAA,2006-09-15 07:00,ZBAA 150700Z AUTO 10004KT 4SM 26/15 A2997 RMK T02600150 IEM_DS3505
ZBAA,2006-09-15 08:00,ZBAA 150800Z AUTO 15004KT 4SM 26/14 A2997 RMK T02600140 IEM_DS3505
ZBAA,2006-09-15 09:00,ZBAA 150900Z AUTO 20004KT 9SM 24/12 A2997 RMK SLP141 T02450121 57005 IEM_DS3505
ZBAA,2006-09-15 10:00,ZBAA 151000Z AUTO 12006KT 4SM 24/16 A2997 RMK T02400160 IEM_DS3505
ZBAA,2006-09-15 11:00,ZBAA 151100Z AUTO 14004KT 4SM 23/16 A2997 RMK T02300160 IEM_DS3505
ZBAA,2006-09-15 12:00,ZBAA 151200Z AUTO 14002KT 9SM 22/14 A3000 RMK SLP150 T02230139 52009 IEM_DS3505
ZBAA,2006-09-15 13:00,ZBAA 151300Z AUTO 14004KT 2 1/2SM 21/17 A3000 RMK T02100170 IEM_DS3505
ZBAA,2006-09-15 14:00,ZBAA 151400Z AUTO 12004KT 2 1/2SM 20/17 A3000 RMK T02000170 IEM_DS3505
ZBAA,2006-09-15 15:00,ZBAA 151500Z AUTO 22002KT 6SM 20/16 A3003 RMK SLP160 T01980159 52010 IEM_DS3505
ZBAA,2006-09-15 16:00,ZBAA 151600Z AUTO 03002KT 1 1/2SM 19/17 A3003 RMK T01900170 IEM_DS3505
ZBAA,2006-09-15 17:00,ZBAA 151700Z AUTO 04004KT 1 1/4SM 19/17 A3003 RMK T01900170 IEM_DS3505
ZBAA,2006-09-15 18:00,ZBAA 151800Z AUTO 07002KT 4SM 18/16 A3003 RMK SLP159 T01830157 57001 IEM_DS3505
ZBAA,2006-09-15 19:00,ZBAA 151900Z AUTO 02002KT 1 1/4SM 18/16 A3000 RMK T01800160 IEM_DS3505
ZBAA,2006-09-15 20:00,ZBAA 152000Z AUTO 33004KT 1 1/4SM 16/15 A3000 RMK T01600150 IEM_DS3505
ZBAA,2006-09-15 21:00,ZBAA 152100Z AUTO 04004KT 4SM 18/15 A3000 RMK SLP157 T01750151 57002 IEM_DS3505
ZBAA,2006-09-15 22:00,ZBAA 152200Z AUTO 34006KT 1 1/2SM 16/15 A3003 RMK T01600150 IEM_DS3505
ZBAA,2006-09-15 23:00,ZBAA 152300Z AUTO 34004KT 1 1/2SM 16/16 A3003 RMK T01600160 IEM_DS3505
ZBAA,2006-09-16 00:00,ZBAA 160000Z AUTO 04004KT 5SM 19/15 A3003 RMK SLP166 T01890148 52009 IEM_DS3505
ZBAA,2006-09-16 01:00,ZBAA 160100Z AUTO 35006KT 2 1/2SM 20/16 A3003 RMK T02000160 IEM_DS3505
ZBAA,2006-09-16 02:00,ZBAA 160200Z AUTO 01004KT 3SM 22/16 A3006 RMK T02200160 IEM_DS3505
ZBAA,2006-09-16 03:00,ZBAA 160300Z AUTO 02002KT 6SM 24/16 A3003 RMK SLP168 T02410156 52002 IEM_DS3505
ZBAA,2006-09-16 04:00,ZBAA 160400Z AUTO 3SM 25/17 A3003 RMK T02500170 IEM_DS3505
ZBAA,2006-09-16 05:00,ZBAA 160500Z AUTO 23004G14KT 3SM 26/16 A3000 RMK T02600160 IEM_DS3505
ZBAA,2006-09-16 06:00,ZBAA 160600Z AUTO 27002KT 5SM 27/14 A2997 RMK SLP147 T02730143 57021 IEM_DS3505
ZBAA,2006-09-16 07:00,ZBAA 160700Z AUTO 3SM 28/17 A2997 RMK T02800170 IEM_DS3505
ZBAA,2006-09-16 08:00,ZBAA 160800Z AUTO 19006KT 3SM 28/16 A2997 RMK T02800160 IEM_DS3505
ZBAA,2006-09-16 09:00,ZBAA 160900Z AUTO 20006KT 4SM 26/16 A2994 RMK SLP141 T02630160 57006 IEM_DS3505
ZBAA,2006-09-16 10:00,ZBAA 161000Z AUTO 17006KT 2 1/2SM 24/19 A2997 RMK T02400190 IEM_DS3505
ZBAA,2006-09-16 11:00,ZBAA 161100Z AUTO 15006KT 2SM 23/19 A2997 RMK T02300190 IEM_DS3505
ZBAA,2006-09-16 12:00,ZBAA 161200Z AUTO 22002KT 5SM 23/16 A2997 RMK SLP150 T02260164 52009 IEM_DS3505
ZBAA,2006-09-16 13:00,ZBAA 161300Z AUTO 18002KT 1 1/4SM 21/19 A3000 RMK T02100190 IEM_DS3505
ZBAA,2006-09-16 14:00,ZBAA 161400Z AUTO 15002KT 1 1/4SM 21/19 A3000 RMK T02100190 IEM_DS3505
ZBAA,2006-09-16 15:00,ZBAA 161500Z AUTO 22002KT 3SM 20/16 A3000 RMK SLP154 T01990158 52004 IEM_DS3505
ZBAA,2006-09-16 16:00,ZBAA 161600Z AUTO 04004KT 1SM 20/18 A3000 RMK T02000180 IEM_DS3505
ZBAA,2006-09-16 17:00,ZBAA 161700Z AUTO 05004KT 1SM 19/18 A3000 RMK T01900180 IEM_DS3505
ZBAA,2006-09-16 18:00,ZBAA 161800Z AUTO 35002KT 2 1/2SM 18/15 A3000 RMK SLP152 T01770153 57002 IEM_DS3505
ZBAA,2006-09-16 19:00,ZBAA 161900Z AUTO 35004KT 1SM 16/16 A3000 RMK T01600160 IEM_DS3505
ZBAA,2006-09-16 20:00,ZBAA 162000Z AUTO 34004KT 1 1/4SM 16/16 A3000 RMK T01600160 IEM_DS3505
ZBAA,2006-09-16 21:00,ZBAA 162100Z AUTO 34006KT 2SM 17/15 A3000 RMK SLP151 T01700153 57001 IEM_DS3505
ZBAA,2006-09-16 22:00,ZBAA 162200Z AUTO 33004KT 1 1/4SM 16/15 A3000 RMK T01600150 IEM_DS3505
ZBAA,2006-09-16 23:00,ZBAA 162300Z AUTO 34004KT 1 1/2SM 16/16 A3000 RMK T01600160 IEM_DS3505
ZBAA,2006-09-17 00:00,ZBAA 170000Z AUTO 04002KT 5SM 20/14 A3000 RMK SLP157 T01990145 52006 IEM_DS3505
ZBAA,2006-09-17 01:00,ZBAA 170100Z AUTO 36006KT 4SM 21/15 A3000 RMK T02100150 IEM_DS3505
ZBAA,2006-09-17 02:00,ZBAA 170200Z AUTO 35008KT 5SM 24/15 A3003 RMK T02400150 IEM_DS3505
ZBAA,2006-09-17 03:00,ZBAA 170300Z AUTO 02004KT 6SM 26/13 A3000 RMK SLP154 T02650129 57003 IEM_DS3505
ZBAA,2006-09-17 04:00,ZBAA 170400Z AUTO 02004KT 6SM 28/14 A2997 RMK T02800140 IEM_DS3505
ZBAA,2006-09-17 05:00,ZBAA 170500Z AUTO 6SM 30/14 A2997 RMK T03000140 IEM_DS3505
ZBAA,2006-09-17 06:00,ZBAA 170600Z AUTO 34004KT 9SM 31/09 A2994 RMK SLP134 T03070090 57020 IEM_DS3505
ZBAA,2006-09-17 07:00,ZBAA 170700Z AUTO 24006KT 6SM 32/11 A2991 RMK T03200110 IEM_DS3505
ZBAA,2006-09-17 08:00,ZBAA 170800Z AUTO 20006KT 6SM 32/12 A2991 RMK T03200120 IEM_DS3505
ZBAA,2006-09-17 09:00,ZBAA 170900Z AUTO 25002KT 19SM 32/06 A2991 RMK SLP120 T03170060 57014 IEM_DS3505
ZBAA,2006-09-17 10:00,ZBAA 171000Z AUTO 16004KT 6SM 28/14 A2991 RMK T02800140 IEM_DS3505
ZBAA,2006-09-17 11:00,ZBAA 171100Z AUTO 15006KT 6SM 25/16 A2991 RMK T02500160 IEM_DS3505
ZBAA,2006-09-17 12:00,ZBAA 171200Z AUTO 22004KT 12SM 25/15 A2991 RMK SLP131 T02490152 52011 IEM_DS3505
ZBAA,2006-09-17 13:00,ZBAA 171300Z AUTO 05004KT 3SM 23/17 A2994 RMK T02300170 IEM_DS3505
ZBAA,2006-09-17 14:00,ZBAA 171400Z AUTO 11004KT 3SM 23/18 A2994 RMK T02300180 IEM_DS3505
ZBAA,2006-09-17 15:00,ZBAA 171500Z AUTO 11002KT 6SM 22/15 A2994 RMK SLP137 T02150146 52006 IEM_DS3505
ZBAA,2006-09-17 16:00,ZBAA 171600Z AUTO 01004KT 1 1/4SM 20/18 A2994 RMK T02000180 IEM_DS3505
ZBAA,2006-09-17 17:00,ZBAA 171700Z AUTO 36002KT 2SM 18/17 A2994 RMK T01800170 IEM_DS3505
ZBAA,2006-09-17 18:00,ZBAA 171800Z AUTO 36002KT 6SM 18/15 A2994 RMK SLP134 T01820147 57003 IEM_DS3505
ZBAA,2006-09-17 19:00,ZBAA 171900Z AUTO 34006KT 5SM 17/15 A2994 RMK T01700150 IEM_DS3505
ZBAA,2006-09-17 20:00,ZBAA 172000Z AUTO 34006KT 5SM 17/15 A2994 RMK T01700150 IEM_DS3505
ZBAA,2006-09-17 21:00,ZBAA 172100Z AUTO 27002KT 7SM 17/14 A2994 RMK SLP130 T01730136 57004 IEM_DS3505
ZBAA,2006-09-17 22:00,ZBAA 172200Z AUTO 34008KT 5SM 16/14 A2994 RMK T01600140 IEM_DS3505
ZBAA,2006-09-17 23:00,ZBAA 172300Z AUTO 34006KT 5SM 18/15 A2994 RMK T01800150 IEM_DS3505
ZBAA,2006-09-18 00:00,ZBAA 180000Z AUTO 29002KT 7SM 21/12 A2994 RMK SLP141 T02080120 52011 IEM_DS3505
ZBAA,2006-09-18 01:00,ZBAA 180100Z AUTO 35008KT 6SM 24/13 A2997 RMK T02400130 IEM_DS3505
ZBAA,2006-09-18 02:00,ZBAA 180200Z AUTO 36006KT 6SM 26/13 A2997 RMK T02600130 IEM_DS3505
ZBAA,2006-09-18 03:00,ZBAA 180300Z AUTO 04004KT 9SM 29/09 A2997 RMK SLP140 T02930094 57001 IEM_DS3505
ZBAA,2006-09-18 04:00,ZBAA 180400Z AUTO 04004KT 6SM 30/13 A2994 RMK T03000130 IEM_DS3505
ZBAA,2006-09-18 05:00,ZBAA 180500Z AUTO 05002KT 6SM 31/11 A2991 RMK T03100110 IEM_DS3505
ZBAA,2006-09-18 06:00,ZBAA 180600Z AUTO 07004KT 12SM 33/07 A2991 RMK SLP122 T03310072 57018 IEM_DS3505
ZBAA,2006-09-18 07:00,ZBAA 180700Z AUTO 07002KT 6SM 33/10 A2988 RMK T03300100 IEM_DS3505
ZBAA,2006-09-18 08:00,ZBAA 180800Z AUTO 18006KT 6SM 33/11 A2988 RMK T03300110 IEM_DS3505
ZBAA,2006-09-18 09:00,ZBAA 180900Z AUTO 20004KT 12SM 32/10 A2988 RMK SLP116 T03180105 57006 IEM_DS3505
ZBAA,2006-09-18 10:00,ZBAA 181000Z AUTO 14004KT 6SM 30/14 A2988 RMK T03000140 IEM_DS3505
ZBAA,2006-09-18 11:00,ZBAA 181100Z AUTO 13004KT 5SM 27/20 A2991 RMK T02700200 IEM_DS3505
ZBAA,2006-09-18 12:00,ZBAA 181200Z AUTO 16002KT 9SM 26/14 A2991 RMK SLP127 T02620143 52011 IEM_DS3505
ZBAA,2006-09-18 13:00,ZBAA 181300Z AUTO 17004KT 4SM 24/19 A2994 RMK T02400190 IEM_DS3505
ZBAA,2006-09-18 14:00,ZBAA 181400Z AUTO 07006KT 3SM 23/19 A2994 RMK T02300190 IEM_DS3505
ZBAA,2006-09-18 15:00,ZBAA 181500Z AUTO 10006KT 9SM 23/15 A2994 RMK SLP132 T02270151 52005 IEM_DS3505
ZBAA,2006-09-18 16:00,ZBAA 181600Z AUTO 07004KT 2SM 21/19 A2994 RMK T02100190 IEM_DS3505
ZBAA,2006-09-18 17:00,ZBAA 181700Z AUTO 06006KT 1 1/2SM 20/19 A2994 RMK T02000190 IEM_DS3505
ZBAA,2006-09-18 18:00,ZBAA 181800Z AUTO 09004KT 5SM 19/16 A2997 RMK SLP137 T01920159 52005 IEM_DS3505
ZBAA,2006-09-18 19:00,ZBAA 181900Z AUTO 02004KT 1 1/2SM 20/18 A2994 RMK T02000180 IEM_DS3505
ZBAA,2006-09-18 20:00,ZBAA 182000Z AUTO 35004KT 2 1/2SM 18/17 A2997 RMK T01800170 IEM_DS3505
ZBAA,2006-09-18 21:00,ZBAA 182100Z AUTO 04004KT 3SM 19/17 A2997 RMK SLP140 T01870167 52003 IEM_DS3505
ZBAA,2006-09-18 22:00,ZBAA 182200Z AUTO 34006KT 3SM 17/16 A2997 RMK T01700160 IEM_DS3505
ZBAA,2006-09-18 23:00,ZBAA 182300Z AUTO 34004KT 3SM 17/16 A3000 RMK T01700160 IEM_DS3505
ZBAA,2006-09-19 00:00,ZBAA 190000Z AUTO 07006KT 3SM 21/17 A3000 RMK SLP152 T02080170 52012 IEM_DS3505
ZBAA,2006-09-19 01:00,ZBAA 190100Z AUTO 36004KT 4SM 22/16 A3000 RMK T02200160 IEM_DS3505
ZBAA,2006-09-19 02:00,ZBAA 190200Z AUTO 01004KT 4SM 23/17 A3000 RMK T02300170 IEM_DS3505
ZBAA,2006-09-19 03:00,ZBAA 190300Z AUTO 09004KT 4SM 25/18 A3000 RMK SLP157 T02520179 52005 IEM_DS3505
ZBAA,2006-09-19 04:00,ZBAA 190400Z AUTO 3SM 27/18 A3000 RMK T02700180 IEM_DS3505
ZBAA,2006-09-19 05:00,ZBAA 190500Z AUTO 13004KT 2 1/2SM 28/20 A2997 RMK T02800200 IEM_DS3505
ZBAA,2006-09-19 06:00,ZBAA 190600Z AUTO 16006KT 6SM 29/15 A2997 RMK SLP144 T02910149 57013 IEM_DS3505
ZBAA,2006-09-19 07:00,ZBAA 190700Z AUTO 16008KT 2 1/2SM 29/19 A2997 RMK T02900190 IEM_DS3505
ZBAA,2006-09-19 08:00,ZBAA 190800Z AUTO 12008KT 2SM 28/21 A2994 RMK T02800210 IEM_DS3505
ZBAA,2006-09-19 09:00,ZBAA 190900Z AUTO 16006KT 6SM 28/16 A2994 RMK SLP139 T02810157 57005 IEM_DS3505
ZBAA,2006-09-19 10:00,ZBAA 191000Z AUTO 12006KT 2SM 26/20 A2997 RMK T02600200 IEM_DS3505
ZBAA,2006-09-19 11:00,ZBAA 191100Z AUTO 13006KT 1 1/2SM 25/20 A2997 RMK T02500200 IEM_DS3505
ZBAA,2006-09-19 12:00,ZBAA 191200Z AUTO 14006KT 6SM 24/17 A3000 RMK SLP152 T02440172 52013 IEM_DS3505
ZBAA,2006-09-19 13:00,ZBAA 191300Z AUTO 16002KT 1 1/2SM 23/20 A3003 RMK T02300200 IEM_DS3505
ZBAA,2006-09-19 14:00,ZBAA 191400Z AUTO 11006KT 1 1/2SM 23/19 A3003 RMK T02300190 IEM_DS3505
ZBAA,2006-09-19 15:00,ZBAA 191500Z AUTO 04002KT 5SM 22/17 A3003 RMK SLP163 T02190166 52011 IEM_DS3505
ZBAA,2006-09-19 16:00,ZBAA 191600Z AUTO 06004KT 1SM 21/19 A3003 RMK T02100190 IEM_DS3505
ZBAA,2006-09-19 17:00,ZBAA 191700Z AUTO 04002KT 1SM 21/19 A3003 RMK T02100190 IEM_DS3505
ZBAA,2006-09-19 18:00,ZBAA 191800Z AUTO 09004KT 4SM 20/17 A3003 RMK SLP164 T01980166 52001 IEM_DS3505
ZBAA,2006-09-19 19:00,ZBAA 191900Z AUTO 12004KT 1 1/4SM 21/19 A3003 RMK T02100190 IEM_DS3505
ZBAA,2006-09-19 20:00,ZBAA 192000Z AUTO 06002KT 1SM 20/18 A3003 RMK T02000180 IEM_DS3505
ZBAA,2006-09-19 21:00,ZBAA 192100Z AUTO 04002KT 4SM 19/16 A3003 RMK SLP162 T01910156 57002 IEM_DS3505
ZBAA,2006-09-19 22:00,ZBAA 192200Z AUTO 35004KT 1SM 19/18 A3003 RMK T01900180 IEM_DS3505
ZBAA,2006-09-19 23:00,ZBAA 192300Z AUTO 34006KT 1SM 19/18 A3006 RMK T01900180 IEM_DS3505
ZBAA,2006-09-20 00:00,ZBAA 200000Z AUTO 02002KT 4SM 21/16 A3006 RMK SLP177 T02130163 52015 IEM_DS3505
ZBAA,2006-09-20 01:00,ZBAA 200100Z AUTO 01006KT 1 1/2SM 21/18 A3009 RMK T02100180 IEM_DS3505
ZBAA,2006-09-20 02:00,ZBAA 200200Z AUTO 01006KT 2SM 23/16 A3009 RMK T02300160 IEM_DS3505
ZBAA,2006-09-20 03:00,ZBAA 200300Z AUTO 07004KT 7SM 26/12 A3009 RMK SLP179 T02580119 52002 IEM_DS3505
ZBAA,2006-09-20 04:00,ZBAA 200400Z AUTO 6SM 27/13 A3006 RMK T02700130 IEM_DS3505
ZBAA,2006-09-20 05:00,ZBAA 200500Z AUTO 18006KT 6SM 27/13 A3006 RMK T02700130 IEM_DS3505
ZBAA,2006-09-20 06:00,ZBAA 200600Z AUTO 18002KT 9SM 27/10 A3000 RMK SLP158 T02730096 57021 IEM_DS3505
ZBAA,2006-09-20 07:00,ZBAA 200700Z AUTO 13006KT 6SM 28/12 A3000 RMK T02800120 IEM_DS3505
ZBAA,2006-09-20 08:00,ZBAA 200800Z AUTO 6SM 28/13 A2997 RMK T02800130 IEM_DS3505
ZBAA,2006-09-20 09:00,ZBAA 200900Z AUTO 20004KT 12SM 27/08 A2997 RMK SLP149 T02700080 57009 IEM_DS3505
ZBAA,2006-09-20 10:00,ZBAA 201000Z AUTO 00000KT 6SM 26/13 A3000 RMK T02600130 IEM_DS3505
ZBAA,2006-09-20 11:00,ZBAA 201100Z AUTO 6SM 23/15 A3000 RMK T02300150 IEM_DS3505
ZBAA,2006-09-20 12:00,ZBAA 201200Z AUTO 18002KT 7SM 22/11 A3000 RMK SLP160 T02170114 52011 IEM_DS3505
ZBAA,2006-09-20 13:00,ZBAA 201300Z AUTO 15004KT 6SM 22/15 A3003 RMK T02200150 IEM_DS3505
ZBAA,2006-09-20 14:00,ZBAA 201400Z AUTO 03002KT 6SM 21/16 A3003 RMK T02100160 IEM_DS3505
ZBAA,2006-09-20 15:00,ZBAA 201500Z AUTO 07002KT 9SM 19/12 A3006 RMK SLP172 T01940124 52012 IEM_DS3505
ZBAA,2006-09-20 16:00,ZBAA 201600Z AUTO 04004KT 4SM 19/16 A3006 RMK T01900160 IEM_DS3505
ZBAA,2006-09-20 17:00,ZBAA 201700Z AUTO 03002KT 3SM 19/17 A3006 RMK T01900170 IEM_DS3505
ZBAA,2006-09-20 18:00,ZBAA 201800Z AUTO 07002KT 6SM 18/14 A3006 RMK SLP170 T01780137 57002 IEM_DS3505
ZBAA,2006-09-20 19:00,ZBAA 201900Z AUTO 36004KT 4SM 15/14 A3006 RMK T01500140 IEM_DS3505
ZBAA,2006-09-20 20:00,ZBAA 202000Z AUTO 33004KT 4SM 15/14 A3006 RMK T01500140 IEM_DS3505
ZBAA,2006-09-20 21:00,ZBAA 202100Z AUTO 04002KT 6SM 16/13 A3006 RMK SLP176 T01650132 52006 IEM_DS3505
ZBAA,2006-09-20 22:00,ZBAA 202200Z AUTO 34006KT 4SM 16/14 A3006 RMK T01600140 IEM_DS3505
ZBAA,2006-09-20 23:00,ZBAA 202300Z AUTO 34006KT 5SM 16/14 A3009 RMK T01600140 IEM_DS3505
ZBAA,2006-09-21 00:00,ZBAA 210000Z AUTO 07004KT 7SM 20/13 A3009 RMK SLP189 T02010126 52013 IEM_DS3505
ZBAA,2006-09-21 01:00,ZBAA 210100Z AUTO 35008KT 6SM 21/14 A3012 RMK T02100140 IEM_DS3505
ZBAA,2006-09-21 02:00,ZBAA 210200Z AUTO 01008KT 6SM 23/14 A3012 RMK T02300140 IEM_DS3505
ZBAA,2006-09-21 03:00,ZBAA 210300Z AUTO 07004KT 16SM 26/08 A3012 RMK SLP194 T02600085 52005 IEM_DS3505
ZBAA,2006-09-21 04:00,ZBAA 210400Z AUTO 29004KT 6SM 28/11 A3009 RMK T02800110 IEM_DS3505
ZBAA,2006-09-21 05:00,ZBAA 210500Z AUTO 31004KT 6SM 29/11 A3009 RMK T02900110 IEM_DS3505
ZBAA,2006-09-21 06:00,ZBAA 210600Z AUTO 36002KT 19SM 29/07 A3006 RMK SLP178 T02920072 57016 IEM_DS3505
ZBAA,2006-09-21 07:00,ZBAA 210700Z AUTO 6SM 29/10 A3006 RMK T02900100 IEM_DS3505
ZBAA,2006-09-21 08:00,ZBAA 210800Z AUTO 17004KT 6SM 29/10 A3006 RMK T02900100 IEM_DS3505
ZBAA,2006-09-21 09:00,ZBAA 210900Z AUTO 20004KT 19SM 28/08 A3006 RMK SLP174 T02810084 57004 IEM_DS3505
ZBAA,2006-09-21 10:00,ZBAA 211000Z AUTO 16004KT 6SM 26/10 A3006 RMK T02600100 IEM_DS3505
ZBAA,2006-09-21 11:00,ZBAA 211100Z AUTO 15004KT 6SM 24/12 A3009 RMK T02400120 IEM_DS3505
ZBAA,2006-09-21 12:00,ZBAA 211200Z AUTO 22002KT 16SM 22/11 A3009 RMK SLP188 T02240109 52014 IEM_DS3505
ZBAA,2006-09-21 13:00,ZBAA 211300Z AUTO 22004KT 5SM 25/12 A3012 RMK T02500120 IEM_DS3505
ZBAA,2006-09-21 14:00,ZBAA 211400Z AUTO 4SM 22/14 A3012 RMK T02200140 IEM_DS3505
ZBAA,2006-09-21 15:00,ZBAA 211500Z AUTO 04002KT 12SM 19/12 A3012 RMK SLP198 T01940124 52010 IEM_DS3505
ZBAA,2006-09-21 16:00,ZBAA 211600Z AUTO 04002KT 4SM 20/15 A3015 RMK T02000150 IEM_DS3505
ZBAA,2006-09-21 17:00,ZBAA 211700Z AUTO 36004KT 4SM 18/15 A3015 RMK T01800150 IEM_DS3505
ZBAA,2006-09-21 18:00,ZBAA 211800Z AUTO 01002KT 12SM 17/13 A3015 RMK SLP202 T01730128 52004 IEM_DS3505
ZBAA,2006-09-21 19:00,ZBAA 211900Z AUTO 35004KT 4SM 16/14 A3015 RMK T01600140 IEM_DS3505
ZBAA,2006-09-21 20:00,ZBAA 212000Z AUTO 03002KT 4SM 16/14 A3015 RMK T01600140 IEM_DS3505
ZBAA,2006-09-21 21:00,ZBAA 212100Z AUTO 07002KT 7SM 17/13 A3018 RMK SLP211 T01660129 52009 IEM_DS3505
ZBAA,2006-09-21 22:00,ZBAA 212200Z AUTO 33004KT 4SM 15/13 A3018 RMK T01500130 IEM_DS3505
ZBAA,2006-09-21 23:00,ZBAA 212300Z AUTO 34006KT 5SM 16/14 A3018 RMK T01600140 IEM_DS3505
ZBAA,2006-09-22 00:00,ZBAA 220000Z AUTO 04002KT 7SM 20/13 A3021 RMK SLP223 T01970134 52011 IEM_DS3505
ZBAA,2006-09-22 01:00,ZBAA 220100Z AUTO 35006KT 6SM 21/14 A3021 RMK T02100140 IEM_DS3505
ZBAA,2006-09-22 02:00,ZBAA 220200Z AUTO 6SM 23/14 A3021 RMK T02300140 IEM_DS3505
ZBAA,2006-09-22 03:00,ZBAA 220300Z AUTO 14004KT 9SM 26/12 A3021 RMK SLP225 T02590124 52003 IEM_DS3505
ZBAA,2006-09-22 04:00,ZBAA 220400Z AUTO 15004KT 6SM 27/15 A3021 RMK T02700150 IEM_DS3505
ZBAA,2006-09-22 05:00,ZBAA 220500Z AUTO 17004KT 6SM 28/14 A3018 RMK T02800140 IEM_DS3505
ZBAA,2006-09-22 06:00,ZBAA 220600Z AUTO 36002KT 12SM 29/10 A3015 RMK SLP206 T02880105 57019 IEM_DS3505
ZBAA,2006-09-22 07:00,ZBAA 220700Z AUTO 13006KT 6SM 29/14 A3015 RMK T02900140 IEM_DS3505
ZBAA,2006-09-22 08:00,ZBAA 220800Z AUTO 13006KT 6SM 29/14 A3012 RMK T02900140 IEM_DS3505
ZBAA,2006-09-22 09:00,ZBAA 220900Z AUTO 11006KT 9SM 27/12 A3012 RMK SLP197 T02740118 57009 IEM_DS3505
ZBAA,2006-09-22 10:00,ZBAA 221000Z AUTO 16004KT 5SM 24/17 A3012 RMK T02400170 IEM_DS3505
ZBAA,2006-09-22 11:00,ZBAA 221100Z AUTO 15004KT 4SM 23/16 A3015 RMK T02300160 IEM_DS3505
ZBAA,2006-09-22 12:00,ZBAA 221200Z AUTO 16002KT 9SM 24/14 A3015 RMK SLP209 T02410136 52012 IEM_DS3505
ZBAA,2006-09-22 13:00,ZBAA 221300Z AUTO 16004KT 4SM 21/16 A3018 RMK T02100160 IEM_DS3505
ZBAA,2006-09-22 14:00,ZBAA 221400Z AUTO 16004KT 4SM 21/16 A3018 RMK T02100160 IEM_DS3505
ZBAA,2006-09-22 15:00,ZBAA 221500Z AUTO 29002KT 7SM 19/14 A3018 RMK SLP213 T01930139 52004 IEM_DS3505
ZBAA,2006-09-22 16:00,ZBAA 221600Z AUTO 11002KT 2 1/2SM 19/16 A3018 RMK T01900160 IEM_DS3505
ZBAA,2006-09-22 17:00,ZBAA 221700Z AUTO 2 1/2SM 19/16 A3018 RMK T01900160 IEM_DS3505
ZBAA,2006-09-22 18:00,ZBAA 221800Z AUTO 25002KT 6SM 18/14 A3018 RMK SLP212 T01790138 57001 IEM_DS3505
ZBAA,2006-09-22 19:00,ZBAA 221900Z AUTO 33004KT 2SM 16/15 A3018 RMK T01600150 IEM_DS3505
ZBAA,2006-09-22 20:00,ZBAA 222000Z AUTO 34004KT 2SM 15/14 A3018 RMK T01500140 IEM_DS3505
ZBAA,2006-09-22 21:00,ZBAA 222100Z AUTO 07002KT 5SM 16/14 A3018 RMK SLP210 T01610138 57002 IEM_DS3505
ZBAA,2006-09-22 22:00,ZBAA 222200Z AUTO 32004KT 2SM 16/14 A3018 RMK T01600140 IEM_DS3505
ZBAA,2006-09-22 23:00,ZBAA 222300Z AUTO 34006KT 2SM 16/15 A3018 RMK T01600150 IEM_DS3505
ZBAA,2006-09-23 00:00,ZBAA 230000Z AUTO 02004KT 5SM 20/13 A3018 RMK SLP215 T01990134 52005 IEM_DS3505
ZBAA,2006-09-23 01:00,ZBAA 230100Z AUTO 36006KT 4SM 21/14 A3018 RMK T02100140 IEM_DS3505
ZBAA,2006-09-23 02:00,ZBAA 230200Z AUTO 03006KT 4SM 23/15 A3018 RMK T02300150 IEM_DS3505
ZBAA,2006-09-23 03:00,ZBAA 230300Z AUTO 14004KT 9SM 26/12 A3018 RMK SLP214 T02600121 57001 IEM_DS3505
ZBAA,2006-09-23 04:00,ZBAA 230400Z AUTO 10004KT 4SM 27/16 A3015 RMK T02700160 IEM_DS3505
ZBAA,2006-09-23 05:00,ZBAA 230500Z AUTO 18004KT 6SM 28/15 A3012 RMK T02800150 IEM_DS3505
ZBAA,2006-09-23 06:00,ZBAA 230600Z AUTO 20004KT 9SM 29/10 A3009 RMK SLP185 T02900097 57029 IEM_DS3505
ZBAA,2006-09-23 07:00,ZBAA 230700Z AUTO 13006KT 6SM 29/13 A3006 RMK T02900130 IEM_DS3505
ZBAA,2006-09-23 08:00,ZBAA 230800Z AUTO 14006KT 6SM 29/13 A3006 RMK T02900130 IEM_DS3505
ZBAA,2006-09-23 09:00,ZBAA 230900Z AUTO 18004KT 9SM 28/12 A3006 RMK SLP171 T02810121 57014 IEM_DS3505
ZBAA,2006-09-23 10:00,ZBAA 231000Z AUTO 14004KT 5SM 26/14 A3003 RMK T02600140 IEM_DS3505
ZBAA,2006-09-23 11:00,ZBAA 231100Z AUTO 13006KT 4SM 25/17 A3006 RMK T02500170 IEM_DS3505
ZBAA,2006-09-23 12:00,ZBAA 231200Z AUTO 22002KT 7SM 23/14 A3006 RMK SLP178 T02320137 52007 IEM_DS3505
ZBAA,2006-09-23 13:00,ZBAA 231300Z AUTO 14002KT 4SM 19/16 A3009 RMK T01900160 IEM_DS3505
ZBAA,2006-09-23 14:00,ZBAA 231400Z AUTO 17002KT 4SM 20/17 A3009 RMK T02000170 IEM_DS3505
ZBAA,2006-09-23 15:00,ZBAA 231500Z AUTO 22002KT 6SM 21/15 A3009 RMK SLP187 T02080149 52009 IEM_DS3505
ZBAA,2006-09-23 16:00,ZBAA 231600Z AUTO 08006KT 2 1/2SM 20/17 A3009 RMK T02000170 IEM_DS3505
ZBAA,2006-09-23 17:00,ZBAA 231700Z AUTO 07002KT 2 1/2SM 19/16 A3009 RMK T01900160 IEM_DS3505
ZBAA,2006-09-23 18:00,ZBAA 231800Z AUTO 20002KT 5SM 19/15 A3009 RMK SLP180 T01920151 57007 IEM_DS3505
ZBAA,2006-09-23 19:00,ZBAA 231900Z AUTO 36004KT 3SM 17/15 A3009 RMK T01700150 IEM_DS3505
ZBAA,2006-09-23 20:00,ZBAA 232000Z AUTO 02004KT 3SM 17/15 A3006 RMK T01700150 IEM_DS3505
ZBAA,2006-09-23 21:00,ZBAA 232100Z AUTO 03002KT 5SM 18/15 A3006 RMK SLP176 T01760149 57004 IEM_DS3505
ZBAA,2006-09-23 22:00,ZBAA 232200Z AUTO 35006KT 3SM 15/14 A3009 RMK T01500140 IEM_DS3505
ZBAA,2006-09-23 23:00,ZBAA 232300Z AUTO 35004KT 3SM 16/14 A3009 RMK T01600140 IEM_DS3505
ZBAA,2006-09-24 00:00,ZBAA 240000Z AUTO 09004KT 2 1/2SM 18/15 A3009 RMK SLP186 T01850148 52010 IEM_DS3505
ZBAA,2006-09-24 01:00,ZBAA 240100Z AUTO 09004KT 2SM 19/16 A3009 RMK T01900160 IEM_DS3505
ZBAA,2006-09-24 02:00,ZBAA 240200Z AUTO 11004KT 1SM 21/18 A3009 RMK T02100180 IEM_DS3505
ZBAA,2006-09-24 03:00,ZBAA 240300Z AUTO 20004KT 4SM 24/16 A3006 RMK SLP177 T02450165 57009 IEM_DS3505
ZBAA,2006-09-24 04:00,ZBAA 240400Z AUTO 14004KT 1SM 25/20 A3006 RMK T02500200 IEM_DS3505
ZBAA,2006-09-24 05:00,ZBAA 240500Z AUTO 15006KT 1SM 27/19 A3003 RMK T02700190 IEM_DS3505
ZBAA,2006-09-24 06:00,ZBAA 240600Z AUTO 20010KT 6SM 28/14 A3000 RMK SLP155 T02760139 57022 IEM_DS3505
ZBAA,2006-09-24 07:00,ZBAA 240700Z AUTO 20010KT 2 1/2SM 27/16 A2997 RMK T02700160 IEM_DS3505
ZBAA,2006-09-24 08:00,ZBAA 240800Z AUTO 20008KT 2 1/2SM 27/16 A2997 RMK T02700160 IEM_DS3505
ZBAA,2006-09-24 09:00,ZBAA 240900Z AUTO 20004KT 6SM 26/14 A2997 RMK SLP142 T02650136 57013 IEM_DS3505
ZBAA,2006-09-24 10:00,ZBAA 241000Z AUTO 16004KT 2 1/2SM 25/17 A2997 RMK T02500170 IEM_DS3505
ZBAA,2006-09-24 11:00,ZBAA 241100Z AUTO 18004KT 2 1/2SM 23/18 A2997 RMK T02300180 IEM_DS3505
ZBAA,2006-09-24 12:00,ZBAA 241200Z AUTO 20002KT 6SM 24/14 A2997 RMK 60000 SLP148 T02440142 52006 IEM_DS3505
ZBAA,2006-09-24 13:00,ZBAA 241300Z AUTO 21004KT 2 1/2SM 23/19 A3000 RMK T02300190 IEM_DS3505
ZBAA,2006-09-24 14:00,ZBAA 241400Z AUTO 20004KT 2 1/2SM 22/18 A2997 RMK T02200180 IEM_DS3505
ZBAA,2006-09-24 15:00,ZBAA 241500Z AUTO 22002KT 6SM 22/16 A2997 RMK SLP144 T02190164 57004 IEM_DS3505
ZBAA,2006-09-24 16:00,ZBAA 241600Z AUTO 13004KT 2 1/2SM 22/18 A2997 RMK T02200180 IEM_DS3505
ZBAA,2006-09-24 17:00,ZBAA 241700Z AUTO 12006KT 2 1/2SM 21/19 A2994 RMK T02100190 IEM_DS3505
ZBAA,2006-09-24 18:00,ZBAA 241800Z AUTO 16002KT 4SM 21/17 A2994 RMK 60000 SLP137 T02090169 57007 IEM_DS3505
ZBAA,2006-09-24 19:00,ZBAA 241900Z AUTO 09004KT 2SM 20/19 A2994 RMK T02000190 IEM_DS3505
ZBAA,2006-09-24 20:00,ZBAA 242000Z AUTO 09004KT 1SM 20/19 A2994 RMK T02000190 IEM_DS3505
ZBAA,2006-09-24 21:00,ZBAA 242100Z AUTO 09004KT 3SM 20/18 A2994 RMK 70003 SLP133 T01980179 57004 IEM_DS3505
ZBAA,2006-09-24 22:00,ZBAA 242200Z AUTO 02002KT 1SM 19/19 A2994 RMK T01900190 IEM_DS3505
ZBAA,2006-09-24 23:00,ZBAA 242300Z AUTO 34004KT 1SM 19/19 A2997 RMK T01900190 IEM_DS3505
ZBAA,2006-09-25 00:00,ZBAA 250000Z AUTO 02004KT 4SM 20/16 A3000 RMK 60004 70004 SLP147 T01950165 52014 IEM_DS3505
ZBAA,2006-09-25 01:00,ZBAA 250100Z AUTO 04006KT 2 1/2SM 18/18 A3000 RMK T01800180 IEM_DS3505
ZBAA,2006-09-25 02:00,ZBAA 250200Z AUTO 35004KT 6SM 18/18 A3000 RMK T01800180 IEM_DS3505
ZBAA,2006-09-25 03:00,ZBAA 250300Z AUTO 04004KT 9SM 19/15 A3000 RMK SLP154 T01940151 52007 IEM_DS3505
ZBAA,2006-09-25 04:00,ZBAA 250400Z AUTO 36006KT 6SM 21/18 A2997 RMK T02100180 IEM_DS3505
ZBAA,2006-09-25 05:00,ZBAA 250500Z AUTO 04008KT 6SM 22/17 A2997 RMK T02200170 IEM_DS3505
ZBAA,2006-09-25 06:00,ZBAA 250600Z AUTO 09006KT 19SM 23/15 A2994 RMK 60000 SLP136 T02280146 57018 IEM_DS3505
ZBAA,2006-09-25 07:00,ZBAA 250700Z AUTO 11008KT 6SM 23/17 A2991 RMK T02300170 IEM_DS3505
ZBAA,2006-09-25 08:00,ZBAA 250800Z AUTO 14008KT 6SM 23/17 A2991 RMK T02300170 IEM_DS3505
ZBAA,2006-09-25 09:00,ZBAA 250900Z AUTO 09004KT 12SM 22/14 A2994 RMK SLP129 T02180142 57007 IEM_DS3505
ZBAA,2006-09-25 10:00,ZBAA 251000Z AUTO 18004KT 6SM 21/16 A2994 RMK T02100160 IEM_DS3505
ZBAA,2006-09-25 11:00,ZBAA 251100Z AUTO 16004KT 6SM 20/17 A2994 RMK T02000170 IEM_DS3505
ZBAA,2006-09-25 12:00,ZBAA 251200Z AUTO 22002KT 6SM 19/15 A2997 RMK SLP145 T01940149 52016 IEM_DS3505
ZBAA,2006-09-25 13:00,ZBAA 251300Z AUTO 21002KT 5SM 19/16 A3000 RMK T01900160 IEM_DS3505
ZBAA,2006-09-25 14:00,ZBAA 251400Z AUTO 04002KT 5SM 19/17 A3000 RMK T01900170 IEM_DS3505
ZBAA,2006-09-25 15:00,ZBAA 251500Z AUTO 04002KT 6SM 18/15 A3000 RMK SLP151 T01760147 52005 IEM_DS3505
ZBAA,2006-09-25 16:00,ZBAA 251600Z AUTO 35006KT 4SM 17/16 A3000 RMK T01700160 IEM_DS3505
ZBAA,2006-09-25 17:00,ZBAA 251700Z AUTO 35006KT 4SM 16/16 A3000 RMK T01600160 IEM_DS3505
ZBAA,2006-09-25 18:00,ZBAA 251800Z AUTO 02002KT 5SM 16/14 A3000 RMK SLP155 T01630143 52005 IEM_DS3505
ZBAA,2006-09-25 19:00,ZBAA 251900Z AUTO 33006KT 6SM 15/14 A3000 RMK T01500140 IEM_DS3505
ZBAA,2006-09-25 20:00,ZBAA 252000Z AUTO 32008KT 6SM 15/12 A3000 RMK T01500120 IEM_DS3505
ZBAA,2006-09-25 21:00,ZBAA 252100Z AUTO 36002KT 12SM 17/04 A3003 RMK 70002 SLP158 T01690036 52003 IEM_DS3505
ZBAA,2006-09-25 22:00,ZBAA 252200Z AUTO 34006KT 6SM 13/09 A3003 RMK T01300090 IEM_DS3505
ZBAA,2006-09-25 23:00,ZBAA 252300Z AUTO 34006KT 6SM 15/09 A3006 RMK T01500090 IEM_DS3505
ZBAA,2006-09-26 00:00,ZBAA 260000Z AUTO 34008KT 19SM 20/02 A3006 RMK 70000 SLP174 T02020025 52016 IEM_DS3505
ZBAA,2006-09-26 01:00,ZBAA 260100Z AUTO 34006KT 6SM 19/08 A3006 RMK T01900080 IEM_DS3505
ZBAA,2006-09-26 02:00,ZBAA 260200Z AUTO 31008KT 6SM 22/09 A3006 RMK T02200090 IEM_DS3505
ZBAA,2006-09-26 03:00,ZBAA 260300Z AUTO 34006KT 19SM 24/03 A3006 RMK SLP170 T02390027 57004 IEM_DS3505
ZBAA,2006-09-26 04:00,ZBAA 260400Z AUTO 34006KT 6SM 25/08 A3003 RMK T02500080 IEM_DS3505
ZBAA,2006-09-26 05:00,ZBAA 260500Z AUTO 03004KT 6SM 26/07 A3000 RMK T02600070 IEM_DS3505
ZBAA,2006-09-26 06:00,ZBAA 260600Z AUTO 34006KT 19SM 27/M02 A3000 RMK SLP151 T02671021 57019 IEM_DS3505
ZBAA,2006-09-26 07:00,ZBAA 260700Z AUTO 6SM 26/05 A2997 RMK T02600050 IEM_DS3505
ZBAA,2006-09-26 08:00,ZBAA 260800Z AUTO 03004KT 6SM 26/04 A2997 RMK T02600040 IEM_DS3505
ZBAA,2006-09-26 09:00,ZBAA 260900Z AUTO 09002KT 19SM 26/M02 A2997 RMK SLP146 T02621016 57005 IEM_DS3505
ZBAA,2006-09-26 10:00,ZBAA 261000Z AUTO 12006KT 6SM 24/07 A2997 RMK T02400070 IEM_DS3505
ZBAA,2006-09-26 11:00,ZBAA 261100Z AUTO 13004KT 6SM 20/09 A2997 RMK T02000090 IEM_DS3505
ZBAA,2006-09-26 12:00,ZBAA 261200Z AUTO 22002KT 16SM 20/04 A3000 RMK SLP160 T02040044 52014 IEM_DS3505
ZBAA,2006-09-26 13:00,ZBAA 261300Z AUTO 17004KT 6SM 20/08 A3003 RMK T02000080 IEM_DS3505
ZBAA,2006-09-26 14:00,ZBAA 261400Z AUTO 15004KT 6SM 19/11 A3003 RMK T01900110 IEM_DS3505
ZBAA,2006-09-26 15:00,ZBAA 261500Z AUTO 22004KT 12SM 19/09 A3003 RMK SLP168 T01870089 52008 IEM_DS3505
ZBAA,2006-09-26 16:00,ZBAA 261600Z AUTO 15002KT 6SM 16/12 A3003 RMK T01600120 IEM_DS3505
ZBAA,2006-09-26 17:00,ZBAA 261700Z AUTO 10010KT 6SM 17/13 A3006 RMK T01700130 IEM_DS3505
ZBAA,2006-09-26 18:00,ZBAA 261800Z AUTO 22002KT 9SM 17/12 A3006 RMK SLP172 T01680121 52004 IEM_DS3505
ZBAA,2006-09-26 19:00,ZBAA 261900Z AUTO 03004KT 3SM 15/14 A3006 RMK T01500140 IEM_DS3505
ZBAA,2006-09-26 20:00,ZBAA 262000Z AUTO 35002KT 4SM 14/13 A3006 RMK T01400130 IEM_DS3505
ZBAA,2006-09-26 21:00,ZBAA 262100Z AUTO 09002KT 5SM 15/13 A3006 RMK SLP176 T01510133 52004 IEM_DS3505
ZBAA,2006-09-26 22:00,ZBAA 262200Z AUTO 34004KT 6SM 15/12 A3009 RMK T01500120 IEM_DS3505
ZBAA,2006-09-26 23:00,ZBAA 262300Z AUTO 34004KT 6SM 15/12 A3009 RMK T01500120 IEM_DS3505
ZBAA,2006-09-27 00:00,ZBAA 270000Z AUTO 02002KT 3/8SM 16/15 A3009 RMK SLP182 T01590149 52005 IEM_DS3505
ZBAA,2006-09-27 01:00,ZBAA 270100Z AUTO 01004KT 6SM 17/14 A3009 RMK T01700140 IEM_DS3505
ZBAA,2006-09-27 02:00,ZBAA 270200Z AUTO 04004KT 4SM 19/15 A3006 RMK T01900150 IEM_DS3505
ZBAA,2006-09-27 03:00,ZBAA 270300Z AUTO 18004KT 4SM 22/15 A3006 RMK SLP171 T02170151 57010 IEM_DS3505
ZBAA,2006-09-27 04:00,ZBAA 270400Z AUTO 13004KT 4SM 22/16 A3003 RMK T02200160 IEM_DS3505
ZBAA,2006-09-27 05:00,ZBAA 270500Z AUTO 14004KT 4SM 24/17 A3000 RMK T02400170 IEM_DS3505
ZBAA,2006-09-27 06:00,ZBAA 270600Z AUTO 20010KT 9SM 26/12 A2997 RMK SLP149 T02600117 57022 IEM_DS3505
ZBAA,2006-09-27 07:00,ZBAA 270700Z AUTO 20008KT 5SM 27/15 A2997 RMK T02700150 IEM_DS3505
ZBAA,2006-09-27 08:00,ZBAA 270800Z AUTO 19008G17KT 6SM 26/15 A2994 RMK T02600150 IEM_DS3505
ZBAA,2006-09-27 09:00,ZBAA 270900Z AUTO 20006KT 7SM 25/13 A2994 RMK SLP141 T02480131 57008 IEM_DS3505
ZBAA,2006-09-27 10:00,ZBAA 271000Z AUTO 17006KT 4SM 23/17 A2994 RMK T02300170 IEM_DS3505
ZBAA,2006-09-27 11:00,ZBAA 271100Z AUTO 16006KT 4SM 21/16 A2997 RMK T02100160 IEM_DS3505
ZBAA,2006-09-27 12:00,ZBAA 271200Z AUTO 18004KT 7SM 21/13 A2997 RMK SLP145 T02130130 52003 IEM_DS3505
ZBAA,2006-09-27 13:00,ZBAA 271300Z AUTO 15004KT 5SM 20/15 A2997 RMK T02000150 IEM_DS3505
ZBAA,2006-09-27 14:00,ZBAA 271400Z AUTO 15004KT 4SM 20/15 A3000 RMK T02000150 IEM_DS3505
ZBAA,2006-09-27 15:00,ZBAA 271500Z AUTO 25004KT 9SM 20/12 A3000 RMK SLP150 T01960119 52006 IEM_DS3505
ZBAA,2006-09-27 16:00,ZBAA 271600Z AUTO 02004KT 3SM 18/16 A3000 RMK T01800160 IEM_DS3505
ZBAA,2006-09-27 17:00,ZBAA 271700Z AUTO 35006KT 2 1/2SM 16/15 A3000 RMK T01600150 IEM_DS3505
ZBAA,2006-09-27 18:00,ZBAA 271800Z AUTO 35004KT 6SM 17/13 A3000 RMK SLP153 T01710130 52003 IEM_DS3505
ZBAA,2006-09-27 19:00,ZBAA 271900Z AUTO 34004KT 2 1/2SM 15/15 A3000 RMK T01500150 IEM_DS3505
ZBAA,2006-09-27 20:00,ZBAA 272000Z AUTO 34008KT 2 1/2SM 16/15 A3000 RMK T01600150 IEM_DS3505
ZBAA,2006-09-27 21:00,ZBAA 272100Z AUTO 02002KT 6SM 17/13 A3003 RMK SLP161 T01680129 52008 IEM_DS3505
ZBAA,2006-09-27 22:00,ZBAA 272200Z AUTO 34004KT 2 1/2SM 15/13 A3003 RMK T01500130 IEM_DS3505
ZBAA,2006-09-27 23:00,ZBAA 272300Z AUTO 33006KT 3SM 16/14 A3006 RMK T01600140 IEM_DS3505
ZBAA,2006-09-28 00:00,ZBAA 280000Z AUTO 02006KT 9SM 22/05 A3006 RMK SLP178 T02170052 52017 IEM_DS3505
ZBAA,2006-09-28 01:00,ZBAA 280100Z AUTO 01006KT 5SM 21/12 A3009 RMK T02100120 IEM_DS3505
ZBAA,2006-09-28 02:00,ZBAA 280200Z AUTO 01006KT 6SM 23/10 A3012 RMK T02300100 IEM_DS3505
ZBAA,2006-09-28 03:00,ZBAA 280300Z AUTO 02006KT 19SM 26/03 A3009 RMK SLP188 T02610034 52010 IEM_DS3505
ZBAA,2006-09-28 04:00,ZBAA 280400Z AUTO 01006KT 6SM 26/07 A3009 RMK T02600070 IEM_DS3505
ZBAA,2006-09-28 05:00,ZBAA 280500Z AUTO 02006KT 6SM 26/05 A3006 RMK T02600050 IEM_DS3505
ZBAA,2006-09-28 06:00,ZBAA 280600Z AUTO 07010KT 19SM 27/02 A3003 RMK SLP165 T02730017 57023 IEM_DS3505
ZBAA,2006-09-28 07:00,ZBAA 280700Z AUTO 05004KT 6SM 28/04 A3003 RMK T02800040 IEM_DS3505
ZBAA,2006-09-28 08:00,ZBAA 280800Z AUTO 07006KT 6SM 28/05 A3000 RMK T02800050 IEM_DS3505
ZBAA,2006-09-28 09:00,ZBAA 280900Z AUTO 09004KT 19SM 27/03 A3000 RMK SLP159 T02680033 57006 IEM_DS3505
ZBAA,2006-09-28 10:00,ZBAA 281000Z AUTO 16002KT 6SM 24/07 A3003 RMK T02400070 IEM_DS3505
ZBAA,2006-09-28 11:00,ZBAA 281100Z AUTO 18004KT 6SM 22/09 A3003 RMK T02200090 IEM_DS3505
ZBAA,2006-09-28 12:00,ZBAA 281200Z AUTO 27002KT 16SM 21/05 A3006 RMK SLP178 T02090053 52019 IEM_DS3505
ZBAA,2006-09-28 13:00,ZBAA 281300Z AUTO 02008KT 6SM 21/11 A3009 RMK T02100110 IEM_DS3505
ZBAA,2006-09-28 14:00,ZBAA 281400Z AUTO 6SM 19/11 A3012 RMK T01900110 IEM_DS3505
ZBAA,2006-09-28 15:00,ZBAA 281500Z AUTO 04002KT 12SM 18/07 A3012 RMK SLP193 T01800074 52015 IEM_DS3505
ZBAA,2006-09-28 16:00,ZBAA 281600Z AUTO 35002KT 6SM 17/10 A3012 RMK T01700100 IEM_DS3505
ZBAA,2006-09-28 17:00,ZBAA 281700Z AUTO 34006KT 6SM 16/10 A3012 RMK T01600100 IEM_DS3505
ZBAA,2006-09-28 18:00,ZBAA 281800Z AUTO 02002KT 12SM 15/08 A3015 RMK SLP201 T01540077 52008 IEM_DS3505
ZBAA,2006-09-28 19:00,ZBAA 281900Z AUTO 34006KT 6SM 15/08 A3015 RMK T01500080 IEM_DS3505
ZBAA,2006-09-28 20:00,ZBAA 282000Z AUTO 06004KT 6SM 15/09 A3015 RMK T01500090 IEM_DS3505
ZBAA,2006-09-28 21:00,ZBAA 282100Z AUTO 02004KT 16SM 15/06 A3015 RMK SLP208 T01500055 52007 IEM_DS3505
ZBAA,2006-09-28 22:00,ZBAA 282200Z AUTO 33006KT 6SM 12/08 A3018 RMK T01200080 IEM_DS3505
ZBAA,2006-09-28 23:00,ZBAA 282300Z AUTO 33006KT 6SM 15/08 A3018 RMK T01500080 IEM_DS3505
ZBAA,2006-09-29 00:00,ZBAA 290000Z AUTO 04002KT 19SM 19/06 A3021 RMK SLP224 T01890064 52015 IEM_DS3505
ZBAA,2006-09-29 01:00,ZBAA 290100Z AUTO 35006KT 6SM 20/08 A3021 RMK T02000080 IEM_DS3505
ZBAA,2006-09-29 02:00,ZBAA 290200Z AUTO 35006KT 6SM 22/07 A3021 RMK T02200070 IEM_DS3505
ZBAA,2006-09-29 03:00,ZBAA 290300Z AUTO 09006KT 19SM 24/06 A3021 RMK SLP227 T02400058 52003 IEM_DS3505
ZBAA,2006-09-29 04:00,ZBAA 290400Z AUTO 6SM 25/06 A3018 RMK T02500060 IEM_DS3505
ZBAA,2006-09-29 05:00,ZBAA 290500Z AUTO 6SM 26/05 A3018 RMK T02600050 IEM_DS3505
ZBAA,2006-09-29 06:00,ZBAA 290600Z AUTO 18004KT 19SM 27/05 A3015 RMK SLP201 T02690052 57025 IEM_DS3505
ZBAA,2006-09-29 07:00,ZBAA 290700Z AUTO 6SM 27/07 A3012 RMK T02700070 IEM_DS3505
ZBAA,2006-09-29 08:00,ZBAA 290800Z AUTO 16004KT 6SM 27/07 A3012 RMK T02700070 IEM_DS3505
ZBAA,2006-09-29 09:00,ZBAA 290900Z AUTO 18004KT 19SM 26/08 A3012 RMK SLP191 T02600085 57010 IEM_DS3505
ZBAA,2006-09-29 10:00,ZBAA 291000Z AUTO 12006KT 6SM 24/11 A3012 RMK T02400110 IEM_DS3505
ZBAA,2006-09-29 11:00,ZBAA 291100Z AUTO 13004KT 6SM 22/12 A3012 RMK T02200120 IEM_DS3505
ZBAA,2006-09-29 12:00,ZBAA 291200Z AUTO 14002KT 16SM 21/11 A3012 RMK SLP201 T02140106 52009 IEM_DS3505
ZBAA,2006-09-29 13:00,ZBAA 291300Z AUTO 15004KT 6SM 19/14 A3015 RMK T01900140 IEM_DS3505
ZBAA,2006-09-29 14:00,ZBAA 291400Z AUTO 17010KT 6SM 20/15 A3015 RMK T02000150 IEM_DS3505
ZBAA,2006-09-29 15:00,ZBAA 291500Z AUTO 20004KT 12SM 19/14 A3015 RMK SLP206 T01870138 52006 IEM_DS3505
ZBAA,2006-09-29 16:00,ZBAA 291600Z AUTO 06006KT 6SM 18/15 A3015 RMK T01800150 IEM_DS3505
ZBAA,2006-09-29 17:00,ZBAA 291700Z AUTO 08008KT 4SM 17/14 A3015 RMK T01700140 IEM_DS3505
ZBAA,2006-09-29 18:00,ZBAA 291800Z AUTO 07002KT 7SM 17/13 A3015 RMK SLP203 T01690132 57003 IEM_DS3505
ZBAA,2006-09-29 19:00,ZBAA 291900Z AUTO 00000KT 4SM 16/13 A3015 RMK T01600130 IEM_DS3505
ZBAA,2006-09-29 20:00,ZBAA 292000Z AUTO 04004KT 4SM 16/13 A3015 RMK T01600130 IEM_DS3505
ZBAA,2006-09-29 21:00,ZBAA 292100Z AUTO 09004KT 7SM 16/13 A3012 RMK SLP198 T01560131 57005 IEM_DS3505
ZBAA,2006-09-29 22:00,ZBAA 292200Z AUTO 33004KT 4SM 14/12 A3015 RMK T01400120 IEM_DS3505
ZBAA,2006-09-29 23:00,ZBAA 292300Z AUTO 35004KT 4SM 15/13 A3015 RMK T01500130 IEM_DS3505
ZBAA,2006-09-30 00:00,ZBAA 300000Z AUTO 02002KT 5SM 17/14 A3015 RMK SLP208 T01660137 52009 IEM_DS3505
ZBAA,2006-09-30 01:00,ZBAA 300100Z AUTO 02004KT 4SM 18/13 A3015 RMK T01800130 IEM_DS3505
ZBAA,2006-09-30 02:00,ZBAA 300200Z AUTO 02002KT 4SM 19/15 A3015 RMK T01900150 IEM_DS3505
ZBAA,2006-09-30 03:00,ZBAA 300300Z AUTO 36002KT 6SM 21/14 A3015 RMK SLP202 T02110145 57006 IEM_DS3505
ZBAA,2006-09-30 04:00,ZBAA 300400Z AUTO 06002KT 4SM 22/16 A3012 RMK T02200160 IEM_DS3505
ZBAA,2006-09-30 05:00,ZBAA 300500Z AUTO 12004KT 4SM 23/16 A3009 RMK T02300160 IEM_DS3505
ZBAA,2006-09-30 06:00,ZBAA 300600Z AUTO 20004KT 7SM 25/13 A3006 RMK SLP173 T02510133 57028 IEM_DS3505
ZBAA,2006-09-30 07:00,ZBAA 300700Z AUTO 14004KT 4SM 25/16 A3003 RMK T02500160 IEM_DS3505
ZBAA,2006-09-30 08:00,ZBAA 300800Z AUTO 16006KT 4SM 25/17 A3003 RMK T02500170 IEM_DS3505
ZBAA,2006-09-30 09:00,ZBAA 300900Z AUTO 20004KT 6SM 25/12 A3003 RMK SLP161 T02490122 57012 IEM_DS3505
ZBAA,2006-09-30 10:00,ZBAA 301000Z AUTO 15004KT 4SM 24/16 A3003 RMK T02400160 IEM_DS3505
ZBAA,2006-09-30 11:00,ZBAA 301100Z AUTO 01006KT 4SM 22/17 A3003 RMK T02200170 IEM_DS3505
ZBAA,2006-09-30 12:00,ZBAA 301200Z AUTO 09002KT 6SM 20/13 A3006 RMK SLP176 T02010131 52014 IEM_DS3505
ZBAA,2006-09-30 13:00,ZBAA 301300Z AUTO 11006KT 3SM 21/16 A3006 RMK T02100160 IEM_DS3505
ZBAA,2006-09-30 14:00,ZBAA 301400Z AUTO 17006KT 2 1/2SM 20/16 A3006 RMK T02000160 IEM_DS3505
ZBAA,2006-09-30 15:00,ZBAA 301500Z AUTO 11002KT 6SM 20/13 A3006 RMK SLP172 T01980126 57003 IEM_DS3505
ZBAA,2006-09-30 16:00,ZBAA 301600Z AUTO 36002KT 2SM 18/16 A3006 RMK T01800160 IEM_DS3505
ZBAA,2006-09-30 17:00,ZBAA 301700Z AUTO 04002KT 2SM 18/16 A3006 RMK T01800160 IEM_DS3505
ZBAA,2006-09-30 18:00,ZBAA 301800Z AUTO 05002KT 5SM 17/12 A3003 RMK SLP167 T01710124 57005 IEM_DS3505
ZBAA,2006-09-30 19:00,ZBAA 301900Z AUTO 35004KT 1 1/4SM 16/15 A3003 RMK T01600150 IEM_DS3505
ZBAA,2006-09-30 20:00,ZBAA 302000Z AUTO 34004KT 1 1/2SM 15/14 A3003 RMK T01500140 IEM_DS3505
ZBAA,2006-09-30 21:00,ZBAA 302100Z AUTO 09002KT 4SM 16/12 A3003 RMK SLP164 T01560124 57003 IEM_DS3505
ZBAA,2006-09-30 22:00,ZBAA 302200Z AUTO 34004KT 1 1/4SM 15/14 A3003 RMK T01500140 IEM_DS3505
ZBAA,2006-09-30 23:00,ZBAA 302300Z AUTO 34006KT 1 1/4SM 15/15 A3006 RMK T01500150 IEM_DS3505
ZBAA,2006-10-01 00:00,ZBAA 010000Z AUTO 07002KT 3SM 18/15 A3006 RMK SLP177 T01810146 52012 IEM_DS3505
ZBAA,2006-10-01 01:00,ZBAA 010100Z AUTO 34004KT 2SM 19/16 A3006 RMK T01900160 IEM_DS3505
ZBAA,2006-10-01 02:00,ZBAA 010200Z AUTO 01004KT 2 1/2SM 21/16 A3006 RMK T02100160 IEM_DS3505
ZBAA,2006-10-01 03:00,ZBAA 010300Z AUTO 04002KT 6SM 25/12 A3003 RMK SLP168 T02480124 57008 IEM_DS3505
ZBAA,2006-10-01 04:00,ZBAA 010400Z AUTO 4SM 25/15 A3000 RMK T02500150 IEM_DS3505
ZBAA,2006-10-01 05:00,ZBAA 010500Z AUTO 4SM 27/15 A2997 RMK T02700150 IEM_DS3505
ZBAA,2006-10-01 06:00,ZBAA 010600Z AUTO 25006KT 7SM 29/10 A2997 RMK SLP144 T02860103 57024 IEM_DS3505
ZBAA,2006-10-01 07:00,ZBAA 010700Z AUTO 21008KT 5SM 29/13 A2994 RMK T02900130 IEM_DS3505
ZBAA,2006-10-01 08:00,ZBAA 010800Z AUTO 20006KT 4SM 29/14 A2994 RMK T02900140 IEM_DS3505
ZBAA,2006-10-01 09:00,ZBAA 010900Z AUTO 22006KT 9SM 28/10 A2994 RMK SLP133 T02770100 57011 IEM_DS3505
ZBAA,2006-10-01 10:00,ZBAA 011000Z AUTO 18006KT 4SM 26/14 A2994 RMK T02600140 IEM_DS3505
ZBAA,2006-10-01 11:00,ZBAA 011100Z AUTO 15004KT 3SM 24/14 A2994 RMK T02400140 IEM_DS3505
ZBAA,2006-10-01 12:00,ZBAA 011200Z AUTO 25002KT 9SM 23/13 A2997 RMK SLP144 T02260131 52011 IEM_DS3505
ZBAA,2006-10-01 13:00,ZBAA 011300Z AUTO 15002KT 2 1/2SM 21/16 A2997 RMK T02100160 IEM_DS3505
ZBAA,2006-10-01 14:00,ZBAA 011400Z AUTO 00000KT 1 1/2SM 20/16 A2997 RMK T02000160 IEM_DS3505
ZBAA,2006-10-01 15:00,ZBAA 011500Z AUTO 22004KT 5SM 20/13 A2997 RMK SLP144 T01980133 54000 IEM_DS3505
ZBAA,2006-10-01 16:00,ZBAA 011600Z AUTO 06004KT 1 1/4SM 19/16 A2997 RMK T01900160 IEM_DS3505
ZBAA,2006-10-01 17:00,ZBAA 011700Z AUTO 05002KT 1SM 18/16 A2997 RMK T01800160 IEM_DS3505
ZBAA,2006-10-01 18:00,ZBAA 011800Z AUTO 20002KT 4SM 17/12 A2997 RMK SLP140 T01700123 57004 IEM_DS3505
ZBAA,2006-10-01 19:00,ZBAA 011900Z AUTO 01004KT 1 1/4SM 15/14 A2994 RMK T01500140 IEM_DS3505
ZBAA,2006-10-01 20:00,ZBAA 012000Z AUTO 04002KT 1 1/2SM 17/15 A2994 RMK T01700150 IEM_DS3505
ZBAA,2006-10-01 21:00,ZBAA 012100Z AUTO 09002KT 4SM 16/12 A2994 RMK SLP137 T01560125 57003 IEM_DS3505
ZBAA,2006-10-01 22:00,ZBAA 012200Z AUTO 34004KT 1 1/4SM 16/15 A2994 RMK T01600150 IEM_DS3505
ZBAA,2006-10-01 23:00,ZBAA 012300Z AUTO 36006KT 1 1/4SM 16/15 A2997 RMK T01600150 IEM_DS3505
ZBAA,2006-10-02 00:00,ZBAA 020000Z AUTO 07002KT 4SM 18/14 A2997 RMK SLP141 T01840141 52004 IEM_DS3505
ZBAA,2006-10-02 01:00,ZBAA 020100Z AUTO 08002KT 2 1/2SM 20/16 A2997 RMK T02000160 IEM_DS3505
ZBAA,2006-10-02 02:00,ZBAA 020200Z AUTO 06002KT 2 1/2SM 22/16 A2997 RMK T02200160 IEM_DS3505
ZBAA,2006-10-02 03:00,ZBAA 020300Z AUTO 00000KT 6SM 26/12 A2994 RMK SLP138 T02630120 57003 IEM_DS3505
ZBAA,2006-10-02 04:00,ZBAA 020400Z AUTO 14004KT 3SM 27/14 A2991 RMK T02700140 IEM_DS3505
ZBAA,2006-10-02 05:00,ZBAA 020500Z AUTO 19006KT 4SM 29/13 A2991 RMK T02900130 IEM_DS3505
ZBAA,2006-10-02 06:00,ZBAA 020600Z AUTO 18008KT 7SM 30/11 A2988 RMK SLP112 T02950111 57026 IEM_DS3505
ZBAA,2006-10-02 07:00,ZBAA 020700Z AUTO 18008KT 4SM 30/15 A2985 RMK T03000150 IEM_DS3505
ZBAA,2006-10-02 08:00,ZBAA 020800Z AUTO 17008KT 3SM 30/15 A2985 RMK T03000150 IEM_DS3505
ZBAA,2006-10-02 09:00,ZBAA 020900Z AUTO 22006KT 7SM 29/08 A2985 RMK SLP104 T02890075 57008 IEM_DS3505
ZBAA,2006-10-02 10:00,ZBAA 021000Z AUTO 15004KT 2 1/2SM 24/15 A2985 RMK T02400150 IEM_DS3505
ZBAA,2006-10-02 11:00,ZBAA 021100Z AUTO 15004KT 2 1/2SM 24/15 A2988 RMK T02400150 IEM_DS3505
ZBAA,2006-10-02 12:00,ZBAA 021200Z AUTO 22004KT 6SM 24/12 A2988 RMK SLP121 T02350115 52017 IEM_DS3505
ZBAA,2006-10-02 13:00,ZBAA 021300Z AUTO 21006KT 2 1/2SM 22/14 A2991 RMK T02200140 IEM_DS3505
ZBAA,2006-10-02 14:00,ZBAA 021400Z AUTO 35004KT 2 1/2SM 22/15 A2991 RMK T02200150 IEM_DS3505
ZBAA,2006-10-02 15:00,ZBAA 021500Z AUTO 25004KT 6SM 22/10 A2991 RMK SLP124 T02190098 52003 IEM_DS3505
ZBAA,2006-10-02 16:00,ZBAA 021600Z AUTO 03004KT 2SM 19/15 A2991 RMK T01900150 IEM_DS3505
ZBAA,2006-10-02 17:00,ZBAA 021700Z AUTO 00000KT 2SM 18/15 A2991 RMK T01800150 IEM_DS3505
ZBAA,2006-10-02 18:00,ZBAA 021800Z AUTO 29002KT 6SM 18/10 A2991 RMK SLP123 T01820103 57001 IEM_DS3505
ZBAA,2006-10-02 19:00,ZBAA 021900Z AUTO 05002KT 1 1/4SM 18/15 A2991 RMK T01800150 IEM_DS3505
ZBAA,2006-10-02 20:00,ZBAA 022000Z AUTO 36006KT 1 1/4SM 17/15 A2991 RMK T01700150 IEM_DS3505
ZBAA,2006-10-02 21:00,ZBAA 022100Z AUTO 34004KT 6SM 16/11 A2991 RMK SLP128 T01580108 52005 IEM_DS3505
ZBAA,2006-10-02 22:00,ZBAA 022200Z AUTO 33004KT 1 1/4SM 17/15 A2994 RMK T01700150 IEM_DS3505
ZBAA,2006-10-02 23:00,ZBAA 022300Z AUTO 08002KT 1 1/4SM 17/15 A2994 RMK T01700150 IEM_DS3505
ZBAA,2006-10-03 00:00,ZBAA 030000Z AUTO 09002KT 6SM 18/13 A2997 RMK SLP143 T01850127 52015 IEM_DS3505
ZBAA,2006-10-03 01:00,ZBAA 030100Z AUTO 02004KT 2SM 20/15 A2997 RMK T02000150 IEM_DS3505
ZBAA,2006-10-03 02:00,ZBAA 030200Z AUTO 35004KT 4SM 24/13 A3000 RMK T02400130 IEM_DS3505
ZBAA,2006-10-03 03:00,ZBAA 030300Z AUTO 36006KT 12SM 27/06 A2997 RMK SLP147 T02730061 52004 IEM_DS3505
ZBAA,2006-10-03 04:00,ZBAA 030400Z AUTO 34008KT 6SM 28/11 A2997 RMK T02800110 IEM_DS3505
ZBAA,2006-10-03 05:00,ZBAA 030500Z AUTO 36008KT 6SM 28/10 A2994 RMK T02800100 IEM_DS3505
ZBAA,2006-10-03 06:00,ZBAA 030600Z AUTO 02004KT 16SM 30/06 A2991 RMK SLP127 T02960063 57020 IEM_DS3505
ZBAA,2006-10-03 07:00,ZBAA 030700Z AUTO 06004KT 6SM 29/10 A2991 RMK T02900100 IEM_DS3505
ZBAA,2006-10-03 08:00,ZBAA 030800Z AUTO 08004KT 6SM 29/10 A2988 RMK T02900100 IEM_DS3505
ZBAA,2006-10-03 09:00,ZBAA 030900Z AUTO 09004KT 19SM 28/07 A2988 RMK SLP119 T02840071 57008 IEM_DS3505
ZBAA,2006-10-03 10:00,ZBAA 031000Z AUTO 23002KT 6SM 26/12 A2991 RMK T02600120 IEM_DS3505
ZBAA,2006-10-03 11:00,ZBAA 031100Z AUTO 25004KT 6SM 25/11 A2991 RMK T02500110 IEM_DS3505
ZBAA,2006-10-03 12:00,ZBAA 031200Z AUTO 27002KT 9SM 22/10 A2994 RMK SLP135 T02170105 52016 IEM_DS3505
ZBAA,2006-10-03 13:00,ZBAA 031300Z AUTO 04004KT 6SM 21/15 A2994 RMK T02100150 IEM_DS3505
ZBAA,2006-10-03 14:00,ZBAA 031400Z AUTO 03004KT 6SM 21/14 A2997 RMK T02100140 IEM_DS3505
ZBAA,2006-10-03 15:00,ZBAA 031500Z AUTO 32002KT 9SM 20/11 A2997 RMK SLP144 T02000107 52009 IEM_DS3505
ZBAA,2006-10-03 16:00,ZBAA 031600Z AUTO 35004KT 6SM 19/14 A2997 RMK T01900140 IEM_DS3505
ZBAA,2006-10-03 17:00,ZBAA 031700Z AUTO 33004KT 6SM 18/13 A2997 RMK T01800130 IEM_DS3505
ZBAA,2006-10-03 18:00,ZBAA 031800Z AUTO 04002KT 7SM 18/12 A2997 RMK SLP145 T01840122 52001 IEM_DS3505
ZBAA,2006-10-03 19:00,ZBAA 031900Z AUTO 33006KT 6SM 17/11 A2997 RMK T01700110 IEM_DS3505
ZBAA,2006-10-03 20:00,ZBAA 032000Z AUTO 33004KT 6SM 15/10 A2997 RMK T01500100 IEM_DS3505
ZBAA,2006-10-03 21:00,ZBAA 032100Z AUTO 09002KT 7SM 16/10 A3000 RMK SLP148 T01550103 52003 IEM_DS3505
ZBAA,2006-10-03 22:00,ZBAA 032200Z AUTO 34006KT 6SM 15/10 A3000 RMK T01500100 IEM_DS3505
ZBAA,2006-10-03 23:00,ZBAA 032300Z AUTO 33006KT 6SM 17/09 A3000 RMK T01700090 IEM_DS3505
ZBAA,2006-10-04 00:00,ZBAA 040000Z AUTO 04002KT 12SM 19/08 A3003 RMK SLP161 T01880082 52013 IEM_DS3505
ZBAA,2006-10-04 01:00,ZBAA 040100Z AUTO 35008KT 6SM 22/08 A3003 RMK T02200080 IEM_DS3505
ZBAA,2006-10-04 02:00,ZBAA 040200Z AUTO 35006KT 6SM 24/09 A3003 RMK T02400090 IEM_DS3505
ZBAA,2006-10-04 03:00,ZBAA 040300Z AUTO 36004KT 19SM 27/03 A3000 RMK SLP160 T02700028 57001 IEM_DS3505
ZBAA,2006-10-04 04:00,ZBAA 040400Z AUTO 36004KT 6SM 28/08 A3000 RMK T02800080 IEM_DS3505
ZBAA,2006-10-04 05:00,ZBAA 040500Z AUTO 6SM 30/08 A2997 RMK T03000080 IEM_DS3505
ZBAA,2006-10-04 06:00,ZBAA 040600Z AUTO 29004KT 19SM 30/M00 A2994 RMK SLP132 T03021002 57028 IEM_DS3505
ZBAA,2006-10-04 07:00,ZBAA 040700Z AUTO 6SM 30/03 A2991 RMK T03000030 IEM_DS3505
ZBAA,2006-10-04 08:00,ZBAA 040800Z AUTO 10004KT 6SM 30/03 A2991 RMK T03000030 IEM_DS3505
ZBAA,2006-10-04 09:00,ZBAA 040900Z AUTO 18004KT 19SM 29/02 A2991 RMK SLP126 T02900015 57006 IEM_DS3505
ZBAA,2006-10-04 10:00,ZBAA 041000Z AUTO 17006KT 6SM 25/05 A2991 RMK T02500050 IEM_DS3505
ZBAA,2006-10-04 11:00,ZBAA 041100Z AUTO 18008KT 6SM 24/06 A2994 RMK T02400060 IEM_DS3505
ZBAA,2006-10-04 12:00,ZBAA 041200Z AUTO 20002KT 19SM 23/06 A2994 RMK SLP135 T02330057 52009 IEM_DS3505
ZBAA,2006-10-04 13:00,ZBAA 041300Z AUTO 20008KT 6SM 25/08 A2994 RMK T02500080 IEM_DS3505
ZBAA,2006-10-04 14:00,ZBAA 041400Z AUTO 00000KT 6SM 21/09 A2997 RMK T02100090 IEM_DS3505
ZBAA,2006-10-04 15:00,ZBAA 041500Z AUTO 25004KT 16SM 21/12 A2997 RMK SLP146 T02090115 52011 IEM_DS3505
ZBAA,2006-10-04 16:00,ZBAA 041600Z AUTO 08002KT 6SM 18/11 A2997 RMK T01800110 IEM_DS3505
ZBAA,2006-10-04 17:00,ZBAA 041700Z AUTO 08002KT 4SM 18/13 A2997 RMK T01800130 IEM_DS3505
ZBAA,2006-10-04 18:00,ZBAA 041800Z AUTO 27002KT 12SM 18/13 A2997 RMK SLP145 T01770126 57001 IEM_DS3505
ZBAA,2006-10-04 19:00,ZBAA 041900Z AUTO 03002KT 4SM 17/12 A2997 RMK T01700120 IEM_DS3505
ZBAA,2006-10-04 20:00,ZBAA 042000Z AUTO 34004KT 4SM 15/11 A2997 RMK T01500110 IEM_DS3505
ZBAA,2006-10-04 21:00,ZBAA 042100Z AUTO 07004KT 5SM 16/13 A2997 RMK SLP145 T01640131 54000 IEM_DS3505
ZBAA,2006-10-04 22:00,ZBAA 042200Z AUTO 34004KT 5SM 14/11 A2997 RMK T01400110 IEM_DS3505
ZBAA,2006-10-04 23:00,ZBAA 042300Z AUTO 34004KT 5SM 14/11 A3000 RMK T01400110 IEM_DS3505
ZBAA,2006-10-05 00:00,ZBAA 050000Z AUTO 07002KT 3SM 17/12 A3000 RMK SLP155 T01720121 52010 IEM_DS3505
ZBAA,2006-10-05 01:00,ZBAA 050100Z AUTO 01004KT 6SM 18/11 A3000 RMK T01800110 IEM_DS3505
ZBAA,2006-10-05 02:00,ZBAA 050200Z AUTO 08002KT 3SM 20/14 A3000 RMK T02000140 IEM_DS3505
ZBAA,2006-10-05 03:00,ZBAA 050300Z AUTO 07002KT 4SM 23/14 A3000 RMK SLP153 T02310141 57002 IEM_DS3505
ZBAA,2006-10-05 04:00,ZBAA 050400Z AUTO 2SM 23/16 A2997 RMK T02300160 IEM_DS3505
ZBAA,2006-10-05 05:00,ZBAA 050500Z AUTO 12004KT 2SM 25/17 A2994 RMK T02500170 IEM_DS3505
ZBAA,2006-10-05 06:00,ZBAA 050600Z AUTO 20004KT 5SM 27/14 A2991 RMK SLP125 T02680135 57028 IEM_DS3505
ZBAA,2006-10-05 07:00,ZBAA 050700Z AUTO 15004KT 2SM 27/16 A2991 RMK T02700160 IEM_DS3505
ZBAA,2006-10-05 08:00,ZBAA 050800Z AUTO 17004KT 2SM 26/16 A2988 RMK T02600160 IEM_DS3505
ZBAA,2006-10-05 09:00,ZBAA 050900Z AUTO 22004KT 4SM 26/14 A2988 RMK SLP117 T02610136 57008 IEM_DS3505
ZBAA,2006-10-05 10:00,ZBAA 051000Z AUTO 10004KT 2SM 24/17 A2988 RMK T02400170 IEM_DS3505
ZBAA,2006-10-05 11:00,ZBAA 051100Z AUTO 12004KT 2SM 23/17 A2991 RMK T02300170 IEM_DS3505
ZBAA,2006-10-05 12:00,ZBAA 051200Z AUTO 25002KT 4SM 23/13 A2994 RMK SLP131 T02260134 52014 IEM_DS3505
ZBAA,2006-10-05 13:00,ZBAA 051300Z AUTO 06004KT 1 1/4SM 20/18 A2994 RMK T02000180 IEM_DS3505
ZBAA,2006-10-05 14:00,ZBAA 051400Z AUTO 14002KT 1SM 19/18 A2994 RMK T01900180 IEM_DS3505
ZBAA,2006-10-05 15:00,ZBAA 051500Z AUTO 14002KT 4SM 20/14 A2994 RMK SLP136 T01970136 52005 IEM_DS3505
ZBAA,2006-10-05 16:00,ZBAA 051600Z AUTO 05004KT 1SM 19/17 A2994 RMK T01900170 IEM_DS3505
ZBAA,2006-10-05 17:00,ZBAA 051700Z AUTO 06004KT 1SM 18/17 A2994 RMK T01800170 IEM_DS3505
ZBAA,2006-10-05 18:00,ZBAA 051800Z AUTO 10002KT 4SM 18/13 A2994 RMK SLP135 T01830134 57001 IEM_DS3505
ZBAA,2006-10-05 19:00,ZBAA 051900Z AUTO 04004KT 1SM 18/17 A2994 RMK T01800170 IEM_DS3505
ZBAA,2006-10-05 20:00,ZBAA 052000Z AUTO 07004KT 1SM 17/16 A2994 RMK T01700160 IEM_DS3505
ZBAA,2006-10-05 21:00,ZBAA 052100Z AUTO 07002KT 2 1/2SM 16/14 A2994 RMK SLP132 T01640139 57003 IEM_DS3505
ZBAA,2006-10-05 22:00,ZBAA 052200Z AUTO 00000KT 1SM 16/16 A2994 RMK T01600160 IEM_DS3505
ZBAA,2006-10-05 23:00,ZBAA 052300Z AUTO 36002KT 1SM 16/16 A2994 RMK T01600160 IEM_DS3505
ZBAA,2006-10-06 00:00,ZBAA 060000Z AUTO 09002KT 1 1/4SM 17/15 A2994 RMK SLP138 T01710149 52006 IEM_DS3505
ZBAA,2006-10-06 01:00,ZBAA 060100Z AUTO 06004KT 1SM 18/16 A2997 RMK T01800160 IEM_DS3505
ZBAA,2006-10-06 02:00,ZBAA 060200Z AUTO 07004KT 1SM 19/17 A2997 RMK T01900170 IEM_DS3505
ZBAA,2006-10-06 03:00,ZBAA 060300Z AUTO 09004KT 2SM 22/15 A2994 RMK SLP136 T02250151 57002 IEM_DS3505
ZBAA,2006-10-06 04:00,ZBAA 060400Z AUTO 14004KT 1 1/4SM 23/17 A2991 RMK T02300170 IEM_DS3505
ZBAA,2006-10-06 05:00,ZBAA 060500Z AUTO 14004KT 1 1/4SM 24/17 A2988 RMK T02400170 IEM_DS3505
ZBAA,2006-10-06 06:00,ZBAA 060600Z AUTO 22006KT 4SM 27/11 A2988 RMK SLP111 T02720113 57025 IEM_DS3505
ZBAA,2006-10-06 07:00,ZBAA 060700Z AUTO 13006KT 1 1/4SM 26/16 A2985 RMK T02600160 IEM_DS3505
ZBAA,2006-10-06 08:00,ZBAA 060800Z AUTO 16006KT 1 1/2SM 27/15 A2985 RMK T02700150 IEM_DS3505
ZBAA,2006-10-06 09:00,ZBAA 060900Z AUTO 20004KT 5SM 27/11 A2983 RMK SLP098 T02660107 57013 IEM_DS3505
ZBAA,2006-10-06 10:00,ZBAA 061000Z AUTO 12002KT 1 1/2SM 23/16 A2983 RMK T02300160 IEM_DS3505
ZBAA,2006-10-06 11:00,ZBAA 061100Z AUTO 02002KT 1 1/2SM 22/18 A2988 RMK T02200180 IEM_DS3505
ZBAA,2006-10-06 12:00,ZBAA 061200Z AUTO 04006KT 4SM 23/13 A2991 RMK SLP130 T02260131 52032 IEM_DS3505
ZBAA,2006-10-06 13:00,ZBAA 061300Z AUTO 12006KT 2SM 21/18 A2991 RMK T02100180 IEM_DS3505
ZBAA,2006-10-06 14:00,ZBAA 061400Z AUTO 02008KT 1 1/2SM 20/18 A2988 RMK T02000180 IEM_DS3505
ZBAA,2006-10-06 15:00,ZBAA 061500Z AUTO 32002KT 4SM 22/15 A2991 RMK SLP123 T02150149 57007 IEM_DS3505
ZBAA,2006-10-06 16:00,ZBAA 061600Z AUTO 28006KT 2 1/2SM 19/17 A2991 RMK T01900170 IEM_DS3505
ZBAA,2006-10-06 17:00,ZBAA 061700Z AUTO 31006KT 3SM 18/16 A2991 RMK T01800160 IEM_DS3505
ZBAA,2006-10-06 18:00,ZBAA 061800Z AUTO 32006KT 5SM 18/14 A2991 RMK 60000 SLP122 T01810138 57001 IEM_DS3505
ZBAA,2006-10-06 19:00,ZBAA 061900Z AUTO 34008KT 2 1/2SM 17/16 A2991 RMK T01700160 IEM_DS3505
ZBAA,2006-10-06 20:00,ZBAA 062000Z AUTO 35006KT 2 1/2SM 16/15 A2991 RMK T01600150 IEM_DS3505
ZBAA,2006-10-06 21:00,ZBAA 062100Z AUTO 04004KT 9SM 20/10 A2991 RMK 70000 SLP125 T01950097 52003 IEM_DS3505
ZBAA,2006-10-06 22:00,ZBAA 062200Z AUTO 34008KT 3SM 17/13 A2994 RMK T01700130 IEM_DS3505
ZBAA,2006-10-06 23:00,ZBAA 062300Z AUTO 35008KT 5SM 16/12 A2997 RMK T01600120 IEM_DS3505
ZBAA,2006-10-07 00:00,ZBAA 070000Z AUTO 04006KT 16SM 20/01 A2997 RMK 70000 SLP145 T02050014 52020 IEM_DS3505
ZBAA,2006-10-07 01:00,ZBAA 070100Z AUTO 01010KT 6SM 21/05 A3000 RMK T02100050 IEM_DS3505
ZBAA,2006-10-07 02:00,ZBAA 070200Z AUTO 02010KT 6SM 21/03 A3000 RMK T02100030 IEM_DS3505
ZBAA,2006-10-07 03:00,ZBAA 070300Z AUTO 04008KT 19SM 22/00 A3000 RMK SLP156 T02240003 52011 IEM_DS3505
ZBAA,2006-10-07 04:00,ZBAA 070400Z AUTO 01010KT 6SM 24/01 A3000 RMK T02400010 IEM_DS3505
ZBAA,2006-10-07 05:00,ZBAA 070500Z AUTO 01008KT 6SM 25/00 A2997 RMK T02500000 IEM_DS3505
ZBAA,2006-10-07 06:00,ZBAA 070600Z AUTO 04006KT 16SM 25/M02 A2994 RMK SLP139 T02521016 57017 IEM_DS3505
ZBAA,2006-10-07 07:00,ZBAA 070700Z AUTO 02006KT 6SM 25/00 A2994 RMK T02500000 IEM_DS3505
ZBAA,2006-10-07 08:00,ZBAA 070800Z AUTO 02004KT 6SM 24/01 A2994 RMK T02400010 IEM_DS3505
ZBAA,2006-10-07 09:00,ZBAA 070900Z AUTO 09004KT 12SM 24/02 A2991 RMK SLP129 T02420024 57010 IEM_DS3505
ZBAA,2006-10-07 10:00,ZBAA 071000Z AUTO 02002KT 6SM 22/06 A2994 RMK T02200060 IEM_DS3505
ZBAA,2006-10-07 11:00,ZBAA 071100Z AUTO 36002KT 6SM 20/06 A2994 RMK T02000060 IEM_DS3505
ZBAA,2006-10-07 12:00,ZBAA 071200Z AUTO 09006KT 9SM 20/05 A2997 RMK SLP145 T01950048 52016 IEM_DS3505
ZBAA,2006-10-07 13:00,ZBAA 071300Z AUTO 6SM 20/07 A3000 RMK T02000070 IEM_DS3505
ZBAA,2006-10-07 14:00,ZBAA 071400Z AUTO 23006KT 6SM 21/09 A3000 RMK T02100090 IEM_DS3505
ZBAA,2006-10-07 15:00,ZBAA 071500Z AUTO 09004KT 9SM 20/11 A3000 RMK SLP156 T01950110 52011 IEM_DS3505
ZBAA,2006-10-07 16:00,ZBAA 071600Z AUTO 11008KT 5SM 19/13 A3000 RMK T01900130 IEM_DS3505
ZBAA,2006-10-07 17:00,ZBAA 071700Z AUTO 11008KT 5SM 19/13 A3000 RMK T01900130 IEM_DS3505
ZBAA,2006-10-07 18:00,ZBAA 071800Z AUTO 09006KT 12SM 18/11 A3000 RMK SLP153 T01790110 57003 IEM_DS3505
ZBAA,2006-10-07 19:00,ZBAA 071900Z AUTO 06002KT 6SM 18/13 A3000 RMK T01800130 IEM_DS3505
ZBAA,2006-10-07 20:00,ZBAA 072000Z AUTO 08002KT 6SM 17/12 A3000 RMK T01700120 IEM_DS3505
ZBAA,2006-10-07 21:00,ZBAA 072100Z AUTO 11012KT 9SM 18/07 A3000 RMK SLP150 T01760074 57003 IEM_DS3505
ZBAA,2006-10-07 22:00,ZBAA 072200Z AUTO 17004KT 6SM 17/09 A3000 RMK T01700090 IEM_DS3505
ZBAA,2006-10-07 23:00,ZBAA 072300Z AUTO 6SM 18/06 A3003 RMK T01800060 IEM_DS3505
ZBAA,2006-10-08 00:00,ZBAA 080000Z AUTO 32006KT 12SM 15/09 A3003 RMK 60008 70006 SLP169 T01530090 52018 IEM_DS3505
ZBAA,2006-10-08 01:00,ZBAA 080100Z AUTO 34008KT 5SM 13/13 A3009 RMK T01300130 IEM_DS3505
ZBAA,2006-10-08 02:00,ZBAA 080200Z AUTO 07006KT 7SM 13/11 A3006 RMK T01300110 IEM_DS3505
ZBAA,2006-10-08 03:00,ZBAA 080300Z AUTO 07006KT 8SM 13/10 A3003 RMK SLP164 T01260105 57005 IEM_DS3505
ZBAA,2006-10-08 04:00,ZBAA 080400Z AUTO 05006KT 7SM 14/12 A3003 RMK T01400120 IEM_DS3505
ZBAA,2006-10-08 05:00,ZBAA 080500Z AUTO 04004KT 6SM 14/13 A3000 RMK T01400130 IEM_DS3505
ZBAA,2006-10-08 06:00,ZBAA 080600Z AUTO 07008KT 9SM 15/10 A2997 RMK 60047 SLP143 T01490101 57021 IEM_DS3505
ZBAA,2006-10-08 07:00,ZBAA 080700Z AUTO 11004KT 6SM 15/12 A2997 RMK T01500120 IEM_DS3505
ZBAA,2006-10-08 08:00,ZBAA 080800Z AUTO 16004KT 6SM 16/12 A2997 RMK T01600120 IEM_DS3505
ZBAA,2006-10-08 09:00,ZBAA 080900Z AUTO 11004KT 9SM 15/10 A2997 RMK SLP143 T01530099 54000 IEM_DS3505
ZBAA,2006-10-08 10:00,ZBAA 081000Z AUTO 17004KT 6SM 14/12 A2997 RMK T01400120 IEM_DS3505
ZBAA,2006-10-08 11:00,ZBAA 081100Z AUTO 16004KT 6SM 15/12 A2997 RMK T01500120 IEM_DS3505
ZBAA,2006-10-08 12:00,ZBAA 081200Z AUTO 25002KT 12SM 15/11 A3000 RMK SLP157 T01510107 52014 IEM_DS3505
ZBAA,2006-10-08 13:00,ZBAA 081300Z AUTO 15004KT 7SM 15/13 A3000 RMK T01500130 IEM_DS3505
ZBAA,2006-10-08 14:00,ZBAA 081400Z AUTO 12004KT 7SM 15/13 A3000 RMK T01500130 IEM_DS3505
ZBAA,2006-10-08 15:00,ZBAA 081500Z AUTO 07002KT 12SM 14/11 A3000 RMK SLP155 T01430111 57002 IEM_DS3505
ZBAA,2006-10-08 16:00,ZBAA 081600Z AUTO 13004KT 7SM 14/13 A3000 RMK T01400130 IEM_DS3505
ZBAA,2006-10-08 17:00,ZBAA 081700Z AUTO 11004KT 7SM 14/13 A3000 RMK T01400130 IEM_DS3505
ZBAA,2006-10-08 18:00,ZBAA 081800Z AUTO 22002KT 9SM 14/11 A3000 RMK SLP152 T01400112 57003 IEM_DS3505
ZBAA,2006-10-08 19:00,ZBAA 081900Z AUTO 17002KT 5SM 14/13 A2997 RMK T01400130 IEM_DS3505
ZBAA,2006-10-08 20:00,ZBAA 082000Z AUTO 12004KT 5SM 14/13 A2997 RMK T01400130 IEM_DS3505
ZBAA,2006-10-08 21:00,ZBAA 082100Z AUTO 18004KT 6SM 14/11 A2997 RMK 70052 SLP145 T01420112 57007 IEM_DS3505
ZBAA,2006-10-08 22:00,ZBAA 082200Z AUTO 09002KT 5SM 14/13 A2997 RMK T01400130 IEM_DS3505
ZBAA,2006-10-08 23:00,ZBAA 082300Z AUTO 17002KT 4SM 14/13 A2997 RMK T01400130 IEM_DS3505
ZBAA,2006-10-09 00:00,ZBAA 090000Z AUTO 20004KT 5SM 15/12 A3000 RMK 70045 SLP154 T01470117 52009 IEM_DS3505
ZBAA,2006-10-09 01:00,ZBAA 090100Z AUTO 14004KT 4SM 16/13 A3000 RMK T01600130 IEM_DS3505
ZBAA,2006-10-09 02:00,ZBAA 090200Z AUTO 14004KT 2 1/2SM 16/13 A3000 RMK T01600130 IEM_DS3505
ZBAA,2006-10-09 03:00,ZBAA 090300Z AUTO 18004KT 6SM 16/11 A2997 RMK SLP151 T01580114 57003 IEM_DS3505
ZBAA,2006-10-09 04:00,ZBAA 090400Z AUTO 13004KT 2 1/2SM 17/14 A2997 RMK T01700140 IEM_DS3505
ZBAA,2006-10-09 05:00,ZBAA 090500Z AUTO 15004KT 2 1/2SM 19/14 A2994 RMK T01900140 IEM_DS3505
ZBAA,2006-10-09 06:00,ZBAA 090600Z AUTO 27004KT 6SM 18/12 A2991 RMK SLP130 T01770122 57021 IEM_DS3505
ZBAA,2006-10-09 07:00,ZBAA 090700Z AUTO 16006KT 2 1/2SM 19/14 A2991 RMK T01900140 IEM_DS3505
ZBAA,2006-10-09 08:00,ZBAA 090800Z AUTO 15006KT 2 1/2SM 19/14 A2991 RMK T01900140 IEM_DS3505
ZBAA,2006-10-09 09:00,ZBAA 090900Z AUTO 18002KT 6SM 19/13 A2991 RMK SLP123 T01860130 57007 IEM_DS3505
ZBAA,2006-10-09 10:00,ZBAA 091000Z AUTO 11004KT 2 1/2SM 17/15 A2991 RMK T01700150 IEM_DS3505
ZBAA,2006-10-09 11:00,ZBAA 091100Z AUTO 09004KT 2 1/2SM 17/15 A2991 RMK T01700150 IEM_DS3505
ZBAA,2006-10-09 12:00,ZBAA 091200Z AUTO 09004KT 5SM 16/13 A2991 RMK SLP127 T01630132 52004 IEM_DS3505
ZBAA,2006-10-09 13:00,ZBAA 091300Z AUTO 09004KT 2SM 16/14 A2991 RMK T01600140 IEM_DS3505
ZBAA,2006-10-09 14:00,ZBAA 091400Z AUTO 08004KT 2SM 16/14 A2991 RMK T01600140 IEM_DS3505
ZBAA,2006-10-09 15:00,ZBAA 091500Z AUTO 09004KT 2 1/2SM 15/13 A2991 RMK SLP127 T01520129 54000 IEM_DS3505
ZBAA,2006-10-09 16:00,ZBAA 091600Z AUTO 34004KT 1 1/2SM 14/14 A2991 RMK T01400140 IEM_DS3505
ZBAA,2006-10-09 17:00,ZBAA 091700Z AUTO 35004KT 1 1/4SM 14/14 A2991 RMK T01400140 IEM_DS3505
ZBAA,2006-10-09 18:00,ZBAA 091800Z AUTO 04002KT 2 1/2SM 15/13 A2991 RMK SLP121 T01460126 57006 IEM_DS3505
ZBAA,2006-10-09 19:00,ZBAA 091900Z AUTO 34004KT 1 1/2SM 15/14 A2991 RMK T01500140 IEM_DS3505
ZBAA,2006-10-09 20:00,ZBAA 092000Z AUTO 32002KT 1 1/2SM 15/14 A2991 RMK T01500140 IEM_DS3505
ZBAA,2006-10-09 21:00,ZBAA 092100Z AUTO 29002KT 2SM 13/12 A2991 RMK SLP123 T01340120 52002 IEM_DS3505
ZBAA,2006-10-09 22:00,ZBAA 092200Z AUTO 34006KT 1 1/2SM 14/14 A2991 RMK T01400140 IEM_DS3505
ZBAA,2006-10-09 23:00,ZBAA 092300Z AUTO 34006KT 1 1/4SM 14/14 A2994 RMK T01400140 IEM_DS3505
ZBAA,2006-10-10 00:00,ZBAA 100000Z AUTO 09002KT 2 1/2SM 15/14 A2994 RMK SLP139 T01540136 52016 IEM_DS3505
ZBAA,2006-10-10 01:00,ZBAA 100100Z AUTO 01008KT 2SM 18/14 A2997 RMK T01800140 IEM_DS3505
ZBAA,2006-10-10 02:00,ZBAA 100200Z AUTO 01010KT 4SM 21/12 A2997 RMK T02100120 IEM_DS3505
ZBAA,2006-10-10 03:00,ZBAA 100300Z AUTO 04010KT 7SM 22/08 A2997 RMK SLP143 T02230077 52004 IEM_DS3505
ZBAA,2006-10-10 04:00,ZBAA 100400Z AUTO 04010KT 6SM 23/08 A2994 RMK T02300080 IEM_DS3505
ZBAA,2006-10-10 05:00,ZBAA 100500Z AUTO 05010KT 6SM 24/07 A2994 RMK T02400070 IEM_DS3505
ZBAA,2006-10-10 06:00,ZBAA 100600Z AUTO 11006KT 12SM 25/05 A2991 RMK SLP126 T02510053 57016 IEM_DS3505
ZBAA,2006-10-10 07:00,ZBAA 100700Z AUTO 14006KT 6SM 25/08 A2991 RMK T02500080 IEM_DS3505
ZBAA,2006-10-10 08:00,ZBAA 100800Z AUTO 17006KT 6SM 25/08 A2991 RMK T02500080 IEM_DS3505
ZBAA,2006-10-10 09:00,ZBAA 100900Z AUTO 18004KT 12SM 24/06 A2991 RMK SLP123 T02410064 57003 IEM_DS3505
ZBAA,2006-10-10 10:00,ZBAA 101000Z AUTO 19006KT 6SM 22/14 A2991 RMK T02200140 IEM_DS3505
ZBAA,2006-10-10 11:00,ZBAA 101100Z AUTO 14016KT 2 1/2SM 20/17 A2997 RMK T02000170 IEM_DS3505
ZBAA,2006-10-10 12:00,ZBAA 101200Z AUTO 14006KT 9SM 19/14 A3000 RMK SLP159 T01870138 52035 IEM_DS3505
ZBAA,2006-10-10 13:00,ZBAA 101300Z AUTO 14010KT 4SM 18/14 A3003 RMK T01800140 IEM_DS3505
ZBAA,2006-10-10 14:00,ZBAA 101400Z AUTO 01006KT 6SM 18/13 A3009 RMK T01800130 IEM_DS3505
ZBAA,2006-10-10 15:00,ZBAA 101500Z AUTO 07012KT 9SM 18/11 A3012 RMK SLP189 T01800113 52030 IEM_DS3505
ZBAA,2006-10-10 16:00,ZBAA 101600Z AUTO 13004KT 6SM 17/13 A3012 RMK T01700130 IEM_DS3505
ZBAA,2006-10-10 17:00,ZBAA 101700Z AUTO 36006KT 6SM 15/13 A3012 RMK T01500130 IEM_DS3505
ZBAA,2006-10-10 18:00,ZBAA 101800Z AUTO 11008KT 12SM 14/09 A3015 RMK 60000 SLP205 T01440086 52016 IEM_DS3505
ZBAA,2006-10-10 19:00,ZBAA 101900Z AUTO 12006KT 6SM 13/11 A3015 RMK T01300110 IEM_DS3505
ZBAA,2006-10-10 20:00,ZBAA 102000Z AUTO 14004KT 6SM 12/11 A3018 RMK T01200110 IEM_DS3505
ZBAA,2006-10-10 21:00,ZBAA 102100Z AUTO 09004KT 12SM 11/07 A3021 RMK 70000 SLP226 T01130074 52021 IEM_DS3505
ZBAA,2006-10-10 22:00,ZBAA 102200Z AUTO 18004KT 6SM 10/10 A3024 RMK T01000100 IEM_DS3505
ZBAA,2006-10-10 23:00,ZBAA 102300Z AUTO 14004KT 6SM 11/10 A3027 RMK T01100100 IEM_DS3505
ZBAA,2006-10-11 00:00,ZBAA 110000Z AUTO 09004KT 16SM 12/06 A3027 RMK 70000 SLP251 T01230059 52025 IEM_DS3505
ZBAA,2006-10-11 01:00,ZBAA 110100Z AUTO 15006KT 6SM 13/09 A3030 RMK T01300090 IEM_DS3505
ZBAA,2006-10-11 02:00,ZBAA 110200Z AUTO 16006KT 6SM 15/09 A3030 RMK T01500090 IEM_DS3505
ZBAA,2006-10-11 03:00,ZBAA 110300Z AUTO 11004KT 19SM 17/07 A3030 RMK SLP253 T01680069 52002 IEM_DS3505
ZBAA,2006-10-11 04:00,ZBAA 110400Z AUTO 14006KT 7SM 18/08 A3027 RMK T01800080 IEM_DS3505
ZBAA,2006-10-11 05:00,ZBAA 110500Z AUTO 15008KT 7SM 18/08 A3024 RMK T01800080 IEM_DS3505
ZBAA,2006-10-11 06:00,ZBAA 110600Z AUTO 20006KT 19SM 19/05 A3021 RMK SLP225 T01880046 57028 IEM_DS3505
ZBAA,2006-10-11 07:00,ZBAA 110700Z AUTO 14008KT 6SM 19/07 A3018 RMK T01900070 IEM_DS3505
ZBAA,2006-10-11 08:00,ZBAA 110800Z AUTO 15010KT 6SM 18/06 A3018 RMK T01800060 IEM_DS3505
ZBAA,2006-10-11 09:00,ZBAA 110900Z AUTO 18004KT 19SM 18/05 A3018 RMK SLP213 T01800049 57012 IEM_DS3505
ZBAA,2006-10-11 10:00,ZBAA 111000Z AUTO 14006KT 6SM 17/07 A3018 RMK T01700070 IEM_DS3505
ZBAA,2006-10-11 11:00,ZBAA 111100Z AUTO 13006KT 6SM 17/08 A3018 RMK T01700080 IEM_DS3505
ZBAA,2006-10-11 12:00,ZBAA 111200Z AUTO 16008KT 19SM 16/06 A3021 RMK SLP223 T01640060 52010 IEM_DS3505
ZBAA,2006-10-11 13:00,ZBAA 111300Z AUTO 13006KT 6SM 15/09 A3021 RMK T01500090 IEM_DS3505
ZBAA,2006-10-11 14:00,ZBAA 111400Z AUTO 14006KT 6SM 14/09 A3021 RMK T01400090 IEM_DS3505
ZBAA,2006-10-11 15:00,ZBAA 111500Z AUTO 18002KT 19SM 14/08 A3021 RMK SLP221 T01350079 57002 IEM_DS3505
ZBAA,2006-10-11 16:00,ZBAA 111600Z AUTO 11002KT 6SM 13/10 A3018 RMK T01300100 IEM_DS3505
ZBAA,2006-10-11 17:00,ZBAA 111700Z AUTO 05004KT 6SM 12/10 A3018 RMK T01200100 IEM_DS3505
ZBAA,2006-10-11 18:00,ZBAA 111800Z AUTO 22002KT 19SM 12/08 A3018 RMK SLP215 T01180083 57006 IEM_DS3505
ZBAA,2006-10-11 19:00,ZBAA 111900Z AUTO 12004KT 6SM 12/10 A3018 RMK T01200100 IEM_DS3505
ZBAA,2006-10-11 20:00,ZBAA 112000Z AUTO 15004KT 6SM 11/10 A3018 RMK T01100100 IEM_DS3505
ZBAA,2006-10-11 21:00,ZBAA 112100Z AUTO 22002KT 9SM 10/08 A3018 RMK SLP212 T01030081 57003 IEM_DS3505
ZBAA,2006-10-11 22:00,ZBAA 112200Z AUTO 04002KT 4SM 11/10 A3018 RMK T01100100 IEM_DS3505
ZBAA,2006-10-11 23:00,ZBAA 112300Z AUTO 05002KT 2SM 11/10 A3018 RMK T01100100 IEM_DS3505
ZBAA,2006-10-12 00:00,ZBAA 120000Z AUTO 09002KT 7SM 12/09 A3021 RMK SLP226 T01210093 52014 IEM_DS3505
ZBAA,2006-10-12 01:00,ZBAA 120100Z AUTO 04002KT 2 1/2SM 13/11 A3021 RMK T01300110 IEM_DS3505
ZBAA,2006-10-12 02:00,ZBAA 120200Z AUTO 3SM 15/12 A3021 RMK T01500120 IEM_DS3505
ZBAA,2006-10-12 03:00,ZBAA 120300Z AUTO 20002KT 7SM 18/10 A3021 RMK SLP225 T01750097 57001 IEM_DS3505
ZBAA,2006-10-12 04:00,ZBAA 120400Z AUTO 06002KT 4SM 18/12 A3018 RMK T01800120 IEM_DS3505
ZBAA,2006-10-12 05:00,ZBAA 120500Z AUTO 4SM 20/12 A3015 RMK T02000120 IEM_DS3505
ZBAA,2006-10-12 06:00,ZBAA 120600Z AUTO 18004KT 7SM 21/10 A3015 RMK SLP198 T02130105 57027 IEM_DS3505
ZBAA,2006-10-12 07:00,ZBAA 120700Z AUTO 08002KT 4SM 21/13 A3012 RMK T02100130 IEM_DS3505
ZBAA,2006-10-12 08:00,ZBAA 120800Z AUTO 14006KT 3SM 21/13 A3012 RMK T02100130 IEM_DS3505
ZBAA,2006-10-12 09:00,ZBAA 120900Z AUTO 20002KT 9SM 21/10 A3012 RMK SLP194 T02090104 57004 IEM_DS3505
ZBAA,2006-10-12 10:00,ZBAA 121000Z AUTO 08004KT 3SM 19/13 A3012 RMK T01900130 IEM_DS3505
ZBAA,2006-10-12 12:00,ZBAA 121200Z AUTO 07002KT 7SM 17/12 A3015 RMK SLP207 T01670118 52013 IEM_DS3505
ZBAA,2006-10-12 15:00,ZBAA 121500Z AUTO 07002KT 7SM 16/11 RMK SLP218 T01620112 52011 IEM_DS3505
ZBAA,2006-10-12 16:00,ZBAA 121600Z AUTO 35004KT 2 1/2SM 14/13 A3021 RMK T01400130 IEM_DS3505
ZBAA,2006-10-12 17:00,ZBAA 121700Z AUTO 2 1/2SM 16/14 A3021 RMK T01600140 IEM_DS3505
ZBAA,2006-10-12 18:00,ZBAA 121800Z AUTO 07004KT 7SM 16/12 A3018 RMK SLP214 T01570125 57004 IEM_DS3505
ZBAA,2006-10-12 19:00,ZBAA 121900Z AUTO 10004KT 2 1/2SM 16/14 A3015 RMK T01600140 IEM_DS3505
ZBAA,2006-10-12 20:00,ZBAA 122000Z AUTO 05002KT 2 1/2SM 16/14 A3015 RMK T01600140 IEM_DS3505
ZBAA,2006-10-12 21:00,ZBAA 122100Z AUTO 02002KT 7SM 16/12 A3015 RMK SLP206 T01550124 57008 IEM_DS3505
ZBAA,2006-10-12 22:00,ZBAA 122200Z AUTO 15002KT 2 1/2SM 16/14 A3015 RMK T01600140 IEM_DS3505
ZBAA,2006-10-12 23:00,ZBAA 122300Z AUTO 14004KT 2 1/2SM 16/14 A3015 RMK T01600140 IEM_DS3505
ZBAA,2006-10-13 00:00,ZBAA 130000Z AUTO 04004KT 6SM 16/12 A3015 RMK SLP205 T01610121 57001 IEM_DS3505
ZBAA,2006-10-13 01:00,ZBAA 130100Z AUTO 12004KT 3SM 17/14 A3015 RMK T01700140 IEM_DS3505
ZBAA,2006-10-13 02:00,ZBAA 130200Z AUTO 09006KT 3SM 17/14 A3012 RMK T01700140 IEM_DS3505
ZBAA,2006-10-13 03:00,ZBAA 130300Z AUTO 07004KT 7SM 18/13 A3012 RMK SLP190 T01780129 57015 IEM_DS3505
ZBAA,2006-10-13 04:00,ZBAA 130400Z AUTO 4SM 18/15 A3009 RMK T01800150 IEM_DS3505
ZBAA,2006-10-13 05:00,ZBAA 130500Z AUTO 04002KT 4SM 19/15 A3003 RMK T01900150 IEM_DS3505
ZBAA,2006-10-13 06:00,ZBAA 130600Z AUTO 14002KT 7SM 21/14 A3000 RMK SLP155 T02100144 57035 IEM_DS3505
ZBAA,2006-10-13 07:00,ZBAA 130700Z AUTO 05004KT 3SM 20/16 A3000 RMK T02000160 IEM_DS3505
ZBAA,2006-10-13 08:00,ZBAA 130800Z AUTO 13004KT 3SM 20/16 A2997 RMK T02000160 IEM_DS3505
ZBAA,2006-10-13 09:00,ZBAA 130900Z AUTO 18002KT 7SM 21/15 A2997 RMK SLP142 T02080147 57013 IEM_DS3505
ZBAA,2006-10-13 10:00,ZBAA 131000Z AUTO 11004KT 2SM 19/17 A2997 RMK T01900170 IEM_DS3505
ZBAA,2006-10-13 11:00,ZBAA 131100Z AUTO 06004KT 2SM 19/17 A2997 RMK T01900170 IEM_DS3505
ZBAA,2006-10-13 12:00,ZBAA 131200Z AUTO 07004KT 5SM 18/15 A3000 RMK SLP148 T01790150 52006 IEM_DS3505
ZBAA,2006-10-13 13:00,ZBAA 131300Z AUTO 04006KT 2SM 18/16 A3000 RMK T01800160 IEM_DS3505
ZBAA,2006-10-13 14:00,ZBAA 131400Z AUTO 13004KT 2SM 18/16 A3000 RMK T01800160 IEM_DS3505
ZBAA,2006-10-13 15:00,ZBAA 131500Z AUTO 07002KT 5SM 17/14 A3000 RMK SLP152 T01680141 52004 IEM_DS3505
ZBAA,2006-10-13 16:00,ZBAA 131600Z AUTO 29006KT 1 1/2SM 18/16 A3000 RMK T01800160 IEM_DS3505
ZBAA,2006-10-13 17:00,ZBAA 131700Z AUTO 28004KT 1 1/2SM 18/16 A2997 RMK T01800160 IEM_DS3505
ZBAA,2006-10-13 18:00,ZBAA 131800Z AUTO 07002KT 4SM 16/14 A2997 RMK SLP149 T01590139 57003 IEM_DS3505
ZBAA,2006-10-13 19:00,ZBAA 131900Z AUTO 35004KT 1 1/4SM 18/16 A2997 RMK T01800160 IEM_DS3505
ZBAA,2006-10-13 20:00,ZBAA 132000Z AUTO 34004KT 1 1/4SM 17/16 A2997 RMK T01700160 IEM_DS3505
ZBAA,2006-10-13 21:00,ZBAA 132100Z AUTO 36002KT 2 1/2SM 16/14 A3000 RMK SLP153 T01600142 52004 IEM_DS3505
ZBAA,2006-10-13 22:00,ZBAA 132200Z AUTO 01008KT 1 1/4SM 17/15 A3000 RMK T01700150 IEM_DS3505
ZBAA,2006-10-13 23:00,ZBAA 132300Z AUTO 36010KT 1 1/2SM 17/15 A3003 RMK T01700150 IEM_DS3505
ZBAA,2006-10-14 00:00,ZBAA 140000Z AUTO 07004KT 2SM 18/13 A3003 RMK SLP169 T01760131 52016 IEM_DS3505
ZBAA,2006-10-14 01:00,ZBAA 140100Z AUTO 02004KT 2 1/2SM 18/14 A3006 RMK T01800140 IEM_DS3505
ZBAA,2006-10-14 02:00,ZBAA 140200Z AUTO 36008KT 3SM 20/14 A3006 RMK T02000140 IEM_DS3505
ZBAA,2006-10-14 03:00,ZBAA 140300Z AUTO 04002KT 5SM 19/13 A3003 RMK SLP169 T01880130 54000 IEM_DS3505
ZBAA,2006-10-14 04:00,ZBAA 140400Z AUTO 12002KT 3SM 22/14 A3003 RMK T02200140 IEM_DS3505
ZBAA,2006-10-14 05:00,ZBAA 140500Z AUTO 10006KT 2SM 21/15 A3000 RMK T02100150 IEM_DS3505
ZBAA,2006-10-14 06:00,ZBAA 140600Z AUTO 09010KT 3SM 19/14 A3000 RMK SLP153 T01910144 57016 IEM_DS3505
ZBAA,2006-10-14 07:00,ZBAA 140700Z AUTO 11010KT 3SM 18/12 A3000 RMK T01800120 IEM_DS3505
ZBAA,2006-10-14 08:00,ZBAA 140800Z AUTO 11010KT 4SM 17/11 A3000 RMK T01700110 IEM_DS3505
ZBAA,2006-10-14 09:00,ZBAA 140900Z AUTO 11010KT 6SM 17/10 A3000 RMK SLP157 T01720103 52004 IEM_DS3505
ZBAA,2006-10-14 10:00,ZBAA 141000Z AUTO 09004KT 7SM 17/10 A3003 RMK T01700100 IEM_DS3505
ZBAA,2006-10-14 11:00,ZBAA 141100Z AUTO 12004KT 7SM 17/10 A3006 RMK T01700100 IEM_DS3505
ZBAA,2006-10-14 12:00,ZBAA 141200Z AUTO 09004KT 9SM 17/09 A3006 RMK SLP175 T01660093 52018 IEM_DS3505
ZBAA,2006-10-14 13:00,ZBAA 141300Z AUTO 21002KT 6SM 16/10 A3009 RMK T01600100 IEM_DS3505
ZBAA,2006-10-14 14:00,ZBAA 141400Z AUTO 06004KT 6SM 16/10 A3009 RMK T01600100 IEM_DS3505
ZBAA,2006-10-14 15:00,ZBAA 141500Z AUTO 07002KT 7SM 16/09 A3009 RMK SLP182 T01640091 52007 IEM_DS3505
ZBAA,2006-10-14 16:00,ZBAA 141600Z AUTO 04002KT 6SM 16/10 A3006 RMK T01600100 IEM_DS3505
ZBAA,2006-10-14 17:00,ZBAA 141700Z AUTO 07004KT 6SM 16/09 A3006 RMK T01600090 IEM_DS3505
ZBAA,2006-10-14 18:00,ZBAA 141800Z AUTO 02004KT 7SM 16/09 A3006 RMK SLP177 T01600087 57005 IEM_DS3505
ZBAA,2006-10-14 19:00,ZBAA 141900Z AUTO 00000KT 6SM 16/09 A3006 RMK T01600090 IEM_DS3505
ZBAA,2006-10-14 20:00,ZBAA 142000Z AUTO 27002KT 6SM 16/10 A3006 RMK T01600100 IEM_DS3505
ZBAA,2006-10-14 21:00,ZBAA 142100Z AUTO 36002KT 9SM 16/08 A3006 RMK SLP174 T01610083 57003 IEM_DS3505
ZBAA,2006-10-14 22:00,ZBAA 142200Z AUTO 31004KT 6SM 16/11 A3006 RMK T01600110 IEM_DS3505
ZBAA,2006-10-14 23:00,ZBAA 142300Z AUTO 35004KT 7SM 16/12 A3006 RMK T01600120 IEM_DS3505
ZBAA,2006-10-15 00:00,ZBAA 150000Z AUTO 02002KT 6SM 17/10 A3009 RMK SLP183 T01660098 52009 IEM_DS3505
ZBAA,2006-10-15 01:00,ZBAA 150100Z AUTO 36004KT 4SM 17/12 A3009 RMK T01700120 IEM_DS3505
ZBAA,2006-10-15 02:00,ZBAA 150200Z AUTO 36006KT 4SM 17/12 A3009 RMK T01700120 IEM_DS3505
ZBAA,2006-10-15 03:00,ZBAA 150300Z AUTO 02004KT 9SM 18/10 A3009 RMK SLP184 T01830099 52001 IEM_DS3505
ZBAA,2006-10-15 04:00,ZBAA 150400Z AUTO 36004KT 4SM 18/12 A3006 RMK T01800120 IEM_DS3505
ZBAA,2006-10-15 05:00,ZBAA 150500Z AUTO 04002KT 4SM 19/12 A3003 RMK T01900120 IEM_DS3505
ZBAA,2006-10-15 06:00,ZBAA 150600Z AUTO 09004KT 9SM 20/11 A3000 RMK SLP155 T01960106 57029 IEM_DS3505
ZBAA,2006-10-15 07:00,ZBAA 150700Z AUTO 11004KT 3SM 19/13 A3000 RMK T01900130 IEM_DS3505
ZBAA,2006-10-15 08:00,ZBAA 150800Z AUTO 12004KT 3SM 19/14 A2997 RMK T01900140 IEM_DS3505
ZBAA,2006-10-15 09:00,ZBAA 150900Z AUTO 09002KT 9SM 18/11 A2997 RMK SLP149 T01830114 57006 IEM_DS3505
ZBAA,2006-10-15 10:00,ZBAA 151000Z AUTO 16004KT 3SM 17/13 A2997 RMK T01700130 IEM_DS3505
ZBAA,2006-10-15 11:00,ZBAA 151100Z AUTO 16004KT 3SM 16/14 A3000 RMK T01600140 IEM_DS3505
ZBAA,2006-10-15 12:00,ZBAA 151200Z AUTO 18002KT 7SM 17/12 A3000 RMK SLP158 T01660117 52009 IEM_DS3505
ZBAA,2006-10-15 13:00,ZBAA 151300Z AUTO 15004KT 2 1/2SM 16/14 A3000 RMK T01600140 IEM_DS3505
ZBAA,2006-10-15 14:00,ZBAA 151400Z AUTO 16002KT 2 1/2SM 15/13 A3000 RMK T01500130 IEM_DS3505
ZBAA,2006-10-15 15:00,ZBAA 151500Z AUTO 11002KT 6SM 16/12 A3000 RMK SLP156 T01570123 57002 IEM_DS3505
ZBAA,2006-10-15 16:00,ZBAA 151600Z AUTO 15004KT 2 1/2SM 16/14 A2997 RMK T01600140 IEM_DS3505
ZBAA,2006-10-15 17:00,ZBAA 151700Z AUTO 16002KT 2 1/2SM 16/14 A2997 RMK T01600140 IEM_DS3505
ZBAA,2006-10-15 18:00,ZBAA 151800Z AUTO 00000KT 4SM 16/12 A2997 RMK SLP142 T01570121 57014 IEM_DS3505
ZBAA,2006-10-15 19:00,ZBAA 151900Z AUTO 00000KT 2SM 16/14 A2994 RMK T01600140 IEM_DS3505
ZBAA,2006-10-15 20:00,ZBAA 152000Z AUTO 09004KT 2SM 16/14 A2994 RMK T01600140 IEM_DS3505
ZBAA,2006-10-15 21:00,ZBAA 152100Z AUTO 20002KT 2 1/2SM 16/13 A2994 RMK SLP135 T01600127 57007 IEM_DS3505
ZBAA,2006-10-15 22:00,ZBAA 152200Z AUTO 11002KT 1 1/2SM 16/15 A2994 RMK T01600150 IEM_DS3505
ZBAA,2006-10-15 23:00,ZBAA 152300Z AUTO 07002KT 1 1/4SM 16/15 A2994 RMK T01600150 IEM_DS3505
ZBAA,2006-10-16 00:00,ZBAA 160000Z AUTO 36002KT 1 1/4SM 16/13 A2997 RMK SLP150 T01650134 52015 IEM_DS3505
ZBAA,2006-10-16 01:00,ZBAA 160100Z AUTO 29008KT 1 1/4SM 17/15 A3003 RMK T01700150 IEM_DS3505
ZBAA,2006-10-16 02:00,ZBAA 160200Z AUTO 1 1/4SM 16/15 A2997 RMK T01600150 IEM_DS3505
ZBAA,2006-10-16 03:00,ZBAA 160300Z AUTO 04004KT 5SM 20/13 A3000 RMK SLP154 T02000130 52004 IEM_DS3505
ZBAA,2006-10-16 04:00,ZBAA 160400Z AUTO 06002KT 1 1/2SM 20/15 A2997 RMK T02000150 IEM_DS3505
ZBAA,2006-10-16 05:00,ZBAA 160500Z AUTO 05004KT 2 1/2SM 22/14 A2997 RMK T02200140 IEM_DS3505
ZBAA,2006-10-16 06:00,ZBAA 160600Z AUTO 02006KT 6SM 24/08 A2994 RMK SLP139 T02440084 57014 IEM_DS3505
ZBAA,2006-10-16 07:00,ZBAA 160700Z AUTO 30016KT 6SM 26/04 A2994 RMK T02600040 IEM_DS3505
ZBAA,2006-10-16 08:00,ZBAA 160800Z AUTO 28012KT 6SM 25/04 A2997 RMK T02500040 IEM_DS3505
ZBAA,2006-10-16 09:00,ZBAA 160900Z AUTO 34008KT 12SM 23/00 A3000 RMK SLP159 T02320003 52020 IEM_DS3505
ZBAA,2006-10-16 10:00,ZBAA 161000Z AUTO 31010KT 6SM 22/04 A3006 RMK T02200040 IEM_DS3505
ZBAA,2006-10-16 11:00,ZBAA 161100Z AUTO 36012KT 6SM 20/03 A3009 RMK T02000030 IEM_DS3505
ZBAA,2006-10-16 12:00,ZBAA 161200Z AUTO 02006KT 19SM 20/00 A3012 RMK SLP198 T01990004 52038 IEM_DS3505
ZBAA,2006-10-16 13:00,ZBAA 161300Z AUTO 36016KT 6SM 17/02 A3018 RMK T01700020 IEM_DS3505
ZBAA,2006-10-16 14:00,ZBAA 161400Z AUTO 01012KT 6SM 16/01 A3021 RMK T01600010 IEM_DS3505
ZBAA,2006-10-16 15:00,ZBAA 161500Z AUTO 04010KT 19SM 16/M03 A3024 RMK SLP228 T01581027 52030 IEM_DS3505
ZBAA,2006-10-16 16:00,ZBAA 161600Z AUTO 36014KT 6SM 14/00 A3024 RMK T01400000 IEM_DS3505
ZBAA,2006-10-16 17:00,ZBAA 161700Z AUTO 36010KT 6SM 13/00 A3027 RMK T01300000 IEM_DS3505
ZBAA,2006-10-16 18:00,ZBAA 161800Z AUTO 04004KT 19SM 14/M02 A3027 RMK SLP247 T01361024 52019 IEM_DS3505
ZBAA,2006-10-16 19:00,ZBAA 161900Z AUTO 36006KT 6SM 12/01 A3027 RMK T01200010 IEM_DS3505
ZBAA,2006-10-16 20:00,ZBAA 162000Z AUTO 35006KT 6SM 10/01 A3027 RMK T01000010 IEM_DS3505
ZBAA,2006-10-16 21:00,ZBAA 162100Z AUTO 04004KT 19SM 12/M03 A3030 RMK SLP256 T01181028 52009 IEM_DS3505
ZBAA,2006-10-16 22:00,ZBAA 162200Z AUTO 01006KT 6SM 10/00 A3030 RMK T01000000 IEM_DS3505
ZBAA,2006-10-16 23:00,ZBAA 162300Z AUTO 03004KT 6SM 10/00 A3033 RMK T01000000 IEM_DS3505
ZBAA,2006-10-17 00:00,ZBAA 170000Z AUTO 04004KT 16SM 12/M02 A3036 RMK SLP272 T01241022 52016 IEM_DS3505
ZBAA,2006-10-17 01:00,ZBAA 170100Z AUTO 02008KT 6SM 14/M02 A3036 RMK T01401020 IEM_DS3505
ZBAA,2006-10-17 02:00,ZBAA 170200Z AUTO 04004KT 6SM 15/M02 A3036 RMK T01501020 IEM_DS3505
ZBAA,2006-10-17 03:00,ZBAA 170300Z AUTO 16006KT 16SM 16/M04 A3036 RMK SLP272 T01591036 54000 IEM_DS3505
ZBAA,2006-10-17 04:00,ZBAA 170400Z AUTO 18008KT 6SM 17/M01 A3033 RMK T01701010 IEM_DS3505
ZBAA,2006-10-17 05:00,ZBAA 170500Z AUTO 16008KT 6SM 17/00 A3027 RMK T01700000 IEM_DS3505
ZBAA,2006-10-17 06:00,ZBAA 170600Z AUTO 22008KT 19SM 18/M03 A3024 RMK SLP236 T01781030 57036 IEM_DS3505
ZBAA,2006-10-17 07:00,ZBAA 170700Z AUTO 15006KT 6SM 18/00 A3024 RMK T01800000 IEM_DS3505
ZBAA,2006-10-17 08:00,ZBAA 170800Z AUTO 18008KT 6SM 17/00 A3021 RMK T01700000 IEM_DS3505
ZBAA,2006-10-17 09:00,ZBAA 170900Z AUTO 20004KT 19SM 17/M02 A3021 RMK SLP228 T01691017 57008 IEM_DS3505
ZBAA,2006-10-17 10:00,ZBAA 171000Z AUTO 12006KT 6SM 15/01 A3021 RMK T01500010 IEM_DS3505
ZBAA,2006-10-17 11:00,ZBAA 171100Z AUTO 12006KT 6SM 14/02 A3024 RMK T01400020 IEM_DS3505
ZBAA,2006-10-17 12:00,ZBAA 171200Z AUTO 18006KT 16SM 13/01 A3024 RMK SLP237 T01290013 52008 IEM_DS3505
ZBAA,2006-10-17 13:00,ZBAA 171300Z AUTO 14004KT 6SM 12/04 A3024 RMK T01200040 IEM_DS3505
ZBAA,2006-10-17 14:00,ZBAA 171400Z AUTO 16004KT 6SM 10/05 A3024 RMK T01000050 IEM_DS3505
ZBAA,2006-10-17 15:00,ZBAA 171500Z AUTO 27002G17KT 12SM 10/03 A3024 RMK SLP236 T01040032 57001 IEM_DS3505
ZBAA,2006-10-17 16:00,ZBAA 171600Z AUTO 05002KT 6SM 11/05 A3021 RMK T01100050 IEM_DS3505
ZBAA,2006-10-17 17:00,ZBAA 171700Z AUTO 06004KT 6SM 10/05 A3021 RMK T01000050 IEM_DS3505
ZBAA,2006-10-17 18:00,ZBAA 171800Z AUTO 07002KT 9SM 10/05 A3021 RMK SLP225 T00960046 57011 IEM_DS3505
ZBAA,2006-10-17 19:00,ZBAA 171900Z AUTO 07002KT 6SM 09/05 A3018 RMK T00900050 IEM_DS3505
ZBAA,2006-10-17 20:00,ZBAA 172000Z AUTO 09006KT 6SM 09/05 A3018 RMK T00900050 IEM_DS3505
ZBAA,2006-10-17 21:00,ZBAA 172100Z AUTO 16004KT 9SM 10/06 A3015 RMK SLP207 T00990057 57017 IEM_DS3505
ZBAA,2006-10-17 22:00,ZBAA 172200Z AUTO 00000KT 6SM 08/05 A3015 RMK T00800050 IEM_DS3505
ZBAA,2006-10-17 23:00,ZBAA 172300Z AUTO 06002KT 4SM 09/05 A3018 RMK T00900050 IEM_DS3505
ZBAA,2006-10-18 00:00,ZBAA 180000Z AUTO 11002KT 7SM 10/06 A3018 RMK SLP216 T01030064 52008 IEM_DS3505
ZBAA,2006-10-18 01:00,ZBAA 180100Z AUTO 11002KT 3SM 11/06 A3018 RMK T01100060 IEM_DS3505
ZBAA,2006-10-18 02:00,ZBAA 180200Z AUTO 06002KT 3SM 13/07 A3015 RMK T01300070 IEM_DS3505
ZBAA,2006-10-18 03:00,ZBAA 180300Z AUTO 25006KT 7SM 15/08 A3015 RMK SLP203 T01500085 57013 IEM_DS3505
ZBAA,2006-10-18 04:00,ZBAA 180400Z AUTO 09002KT 3SM 15/09 A3012 RMK T01500090 IEM_DS3505
ZBAA,2006-10-18 05:00,ZBAA 180500Z AUTO 17006KT 3SM 17/10 A3009 RMK T01700100 IEM_DS3505
ZBAA,2006-10-18 06:00,ZBAA 180600Z AUTO 22004KT 7SM 18/08 A3006 RMK SLP177 T01790079 57025 IEM_DS3505
ZBAA,2006-10-18 07:00,ZBAA 180700Z AUTO 20004KT 4SM 18/10 A3006 RMK T01800100 IEM_DS3505
ZBAA,2006-10-18 08:00,ZBAA 180800Z AUTO 17006KT 4SM 18/10 A3003 RMK T01800100 IEM_DS3505
ZBAA,2006-10-18 09:00,ZBAA 180900Z AUTO 20004KT 7SM 17/09 A3003 RMK SLP166 T01690086 57011 IEM_DS3505
ZBAA,2006-10-18 10:00,ZBAA 181000Z AUTO 16004KT 3SM 15/11 A3003 RMK T01500110 IEM_DS3505
ZBAA,2006-10-18 11:00,ZBAA 181100Z AUTO 16004KT 3SM 15/11 A3003 RMK T01500110 IEM_DS3505
ZBAA,2006-10-18 12:00,ZBAA 181200Z AUTO 20002KT 7SM 15/10 A3006 RMK SLP173 T01510095 52007 IEM_DS3505
ZBAA,2006-10-18 13:00,ZBAA 181300Z AUTO 12004KT 2 1/2SM 13/11 A3006 RMK T01300110 IEM_DS3505
ZBAA,2006-10-18 14:00,ZBAA 181400Z AUTO 13006KT 2 1/2SM 13/11 A3006 RMK T01300110 IEM_DS3505
ZBAA,2006-10-18 15:00,ZBAA 181500Z AUTO 09004KT 7SM 13/10 A3003 RMK SLP169 T01290095 57004 IEM_DS3505
ZBAA,2006-10-18 16:00,ZBAA 181600Z AUTO 2 1/2SM 13/11 A3003 RMK T01300110 IEM_DS3505
ZBAA,2006-10-18 17:00,ZBAA 181700Z AUTO 04002KT 2SM 11/10 A3003 RMK T01100100 IEM_DS3505
ZBAA,2006-10-18 18:00,ZBAA 181800Z AUTO 02002KT 5SM 11/09 A3003 RMK SLP163 T01090090 57006 IEM_DS3505
ZBAA,2006-10-18 19:00,ZBAA 181900Z AUTO 33002KT 2SM 11/10 A3003 RMK T01100100 IEM_DS3505
ZBAA,2006-10-18 20:00,ZBAA 182000Z AUTO 35004KT 2SM 11/10 A3003 RMK T01100100 IEM_DS3505
ZBAA,2006-10-18 21:00,ZBAA 182100Z AUTO 07002KT 4SM 11/09 A3003 RMK SLP164 T01060087 52001 IEM_DS3505
ZBAA,2006-10-18 22:00,ZBAA 182200Z AUTO 35010KT 2SM 11/10 A3009 RMK T01100100 IEM_DS3505
ZBAA,2006-10-18 23:00,ZBAA 182300Z AUTO 36008KT 2SM 12/10 A3009 RMK T01200100 IEM_DS3505
ZBAA,2006-10-19 00:00,ZBAA 190000Z AUTO 04004KT 5SM 14/09 A3012 RMK SLP196 T01370094 52032 IEM_DS3505
ZBAA,2006-10-19 01:00,ZBAA 190100Z AUTO 36008KT 2 1/2SM 15/10 A3015 RMK T01500100 IEM_DS3505
ZBAA,2006-10-19 02:00,ZBAA 190200Z AUTO 35006KT 4SM 18/08 A3015 RMK T01800080 IEM_DS3505
ZBAA,2006-10-19 03:00,ZBAA 190300Z AUTO 04008KT 9SM 20/03 A3015 RMK SLP203 T01960029 52007 IEM_DS3505
ZBAA,2006-10-19 04:00,ZBAA 190400Z AUTO 03012KT 6SM 21/03 A3012 RMK T02100030 IEM_DS3505
ZBAA,2006-10-19 05:00,ZBAA 190500Z AUTO 02010KT 6SM 22/04 A3009 RMK T02200040 IEM_DS3505
ZBAA,2006-10-19 06:00,ZBAA 190600Z AUTO 09008KT 12SM 23/03 A3009 RMK SLP187 T02270028 57016 IEM_DS3505
ZBAA,2006-10-19 07:00,ZBAA 190700Z AUTO 14006KT 6SM 23/07 A3009 RMK T02300070 IEM_DS3505
ZBAA,2006-10-19 08:00,ZBAA 190800Z AUTO 14008KT 5SM 21/10 A3012 RMK T02100100 IEM_DS3505
ZBAA,2006-10-19 09:00,ZBAA 190900Z AUTO 11004KT 12SM 20/05 A3012 RMK SLP197 T02030048 52010 IEM_DS3505
ZBAA,2006-10-19 10:00,ZBAA 191000Z AUTO 14004G14KT 5SM 18/08 A3015 RMK T01800080 IEM_DS3505
ZBAA,2006-10-19 11:00,ZBAA 191100Z AUTO 16008KT 3SM 16/11 A3021 RMK T01600110 IEM_DS3505
ZBAA,2006-10-19 12:00,ZBAA 191200Z AUTO 18002KT 9SM 16/07 A3024 RMK SLP236 T01610068 52039 IEM_DS3505
ZBAA,2006-10-19 13:00,ZBAA 191300Z AUTO 15004KT 5SM 15/09 A3027 RMK T01500090 IEM_DS3505
ZBAA,2006-10-19 14:00,ZBAA 191400Z AUTO 12002KT 6SM 15/09 A3030 RMK T01500090 IEM_DS3505
ZBAA,2006-10-19 15:00,ZBAA 191500Z AUTO 11006KT 9SM 16/07 A3033 RMK SLP263 T01550068 52027 IEM_DS3505
ZBAA,2006-10-19 16:00,ZBAA 191600Z AUTO 17004KT 6SM 14/08 A3033 RMK T01400080 IEM_DS3505
ZBAA,2006-10-19 17:00,ZBAA 191700Z AUTO 18004KT 6SM 14/06 A3033 RMK T01400060 IEM_DS3505
ZBAA,2006-10-19 18:00,ZBAA 191800Z AUTO 11004KT 9SM 14/01 A3036 RMK SLP270 T01440006 52007 IEM_DS3505
ZBAA,2006-10-19 19:00,ZBAA 191900Z AUTO 19004KT 6SM 14/03 A3033 RMK T01400030 IEM_DS3505
ZBAA,2006-10-19 20:00,ZBAA 192000Z AUTO 20006KT 6SM 14/03 A3033 RMK T01400030 IEM_DS3505
ZBAA,2006-10-19 21:00,ZBAA 192100Z AUTO 20002KT 9SM 14/M00 A3036 RMK SLP273 T01351005 52003 IEM_DS3505
ZBAA,2006-10-19 22:00,ZBAA 192200Z AUTO 20004KT 6SM 13/02 A3036 RMK T01300020 IEM_DS3505
ZBAA,2006-10-19 23:00,ZBAA 192300Z AUTO 18006KT 6SM 13/02 A3036 RMK T01300020 IEM_DS3505
ZBAA,2006-10-20 00:00,ZBAA 200000Z AUTO 22004KT 9SM 14/M01 A3039 RMK SLP287 T01361012 52013 IEM_DS3505
ZBAA,2006-10-20 01:00,ZBAA 200100Z AUTO 17004KT 6SM 14/01 A3039 RMK T01400010 IEM_DS3505
ZBAA,2006-10-20 02:00,ZBAA 200200Z AUTO 16006KT 6SM 14/00 A3039 RMK T01400000 IEM_DS3505
ZBAA,2006-10-20 03:00,ZBAA 200300Z AUTO 11004KT 9SM 15/M05 A3039 RMK SLP289 T01471051 52002 IEM_DS3505
ZBAA,2006-10-20 04:00,ZBAA 200400Z AUTO 14004KT 6SM 14/M03 A3039 RMK T01401030 IEM_DS3505
ZBAA,2006-10-20 05:00,ZBAA 200500Z AUTO 12004KT 6SM 15/M02 A3036 RMK T01501020 IEM_DS3505
ZBAA,2006-10-20 06:00,ZBAA 200600Z AUTO 07004KT 12SM 16/M02 A3033 RMK SLP264 T01581022 57024 IEM_DS3505
ZBAA,2006-10-20 07:00,ZBAA 200700Z AUTO 09002KT 6SM 15/00 A3033 RMK T01500000 IEM_DS3505
ZBAA,2006-10-20 08:00,ZBAA 200800Z AUTO 06004KT 6SM 15/00 A3030 RMK T01500000 IEM_DS3505
ZBAA,2006-10-20 09:00,ZBAA 200900Z AUTO 09004KT 7SM 16/01 A3030 RMK SLP249 T01560010 57015 IEM_DS3505
ZBAA,2006-10-20 10:00,ZBAA 201000Z AUTO 03004KT 6SM 14/00 A3027 RMK T01400000 IEM_DS3505
ZBAA,2006-10-20 11:00,ZBAA 201100Z AUTO 05004KT 6SM 14/01 A3030 RMK T01400010 IEM_DS3505
ZBAA,2006-10-20 12:00,ZBAA 201200Z AUTO 05002KT 12SM 14/00 A3030 RMK SLP254 T01440003 52004 IEM_DS3505
ZBAA,2006-10-20 13:00,ZBAA 201300Z AUTO 08002KT 6SM 14/02 A3030 RMK T01400020 IEM_DS3505
ZBAA,2006-10-20 14:00,ZBAA 201400Z AUTO 11004KT 6SM 14/05 A3030 RMK T01400050 IEM_DS3505
ZBAA,2006-10-20 15:00,ZBAA 201500Z AUTO 16004KT 9SM 14/07 A3030 RMK SLP250 T01430069 57003 IEM_DS3505
ZBAA,2006-10-20 16:00,ZBAA 201600Z AUTO 14006KT 7SM 14/08 A3027 RMK T01400080 IEM_DS3505
ZBAA,2006-10-20 17:00,ZBAA 201700Z AUTO 11004KT 7SM 13/08 A3027 RMK T01300080 IEM_DS3505
ZBAA,2006-10-20 18:00,ZBAA 201800Z AUTO 07002KT 9SM 14/07 A3024 RMK SLP235 T01360072 57015 IEM_DS3505
ZBAA,2006-10-20 19:00,ZBAA 201900Z AUTO 13004KT 7SM 13/08 A3021 RMK T01300080 IEM_DS3505
ZBAA,2006-10-20 20:00,ZBAA 202000Z AUTO 11004KT 7SM 13/07 A3021 RMK T01300070 IEM_DS3505
ZBAA,2006-10-20 21:00,ZBAA 202100Z AUTO 09004KT 9SM 13/07 A3021 RMK SLP222 T01280066 57013 IEM_DS3505
ZBAA,2006-10-20 22:00,ZBAA 202200Z AUTO 04002KT 7SM 13/07 A3021 RMK T01300070 IEM_DS3505
ZBAA,2006-10-20 23:00,ZBAA 202300Z AUTO 05004KT 5SM 13/08 A3021 RMK T01300080 IEM_DS3505
ZBAA,2006-10-21 00:00,ZBAA 210000Z AUTO 07004KT 12SM 13/07 A3021 RMK SLP224 T01280066 52001 IEM_DS3505
ZBAA,2006-10-21 01:00,ZBAA 210100Z AUTO 11004KT 5SM 13/08 A3021 RMK T01300080 IEM_DS3505
ZBAA,2006-10-21 02:00,ZBAA 210200Z AUTO 11004KT 4SM 13/08 A3018 RMK T01300080 IEM_DS3505
ZBAA,2006-10-21 03:00,ZBAA 210300Z AUTO 11002KT 9SM 14/07 A3018 RMK SLP211 T01370072 57012 IEM_DS3505
ZBAA,2006-10-21 04:00,ZBAA 210400Z AUTO 14002KT 4SM 14/09 A3012 RMK T01400090 IEM_DS3505
ZBAA,2006-10-21 05:00,ZBAA 210500Z AUTO 14004KT 4SM 14/09 A3009 RMK T01400090 IEM_DS3505
ZBAA,2006-10-21 06:00,ZBAA 210600Z AUTO 16004KT 9SM 14/08 A3006 RMK SLP173 T01430085 57038 IEM_DS3505
ZBAA,2006-10-21 07:00,ZBAA 210700Z AUTO 13008KT 4SM 14/09 A3003 RMK T01400090 IEM_DS3505
ZBAA,2006-10-21 08:00,ZBAA 210800Z AUTO 02002KT 3SM 14/10 A3003 RMK T01400100 IEM_DS3505
ZBAA,2006-10-21 09:00,ZBAA 210900Z AUTO 34002KT 5SM 14/10 A3006 RMK SLP173 T01420102 54000 IEM_DS3505
ZBAA,2006-10-21 10:00,ZBAA 211000Z AUTO 08004KT 2 1/2SM 12/11 A3000 RMK T01200110 IEM_DS3505
ZBAA,2006-10-21 11:00,ZBAA 211100Z AUTO 00000KT 1 1/2SM 12/11 A3000 RMK T01200110 IEM_DS3505
ZBAA,2006-10-21 12:00,ZBAA 211200Z AUTO 04002KT 4SM 12/11 A3003 RMK 60008 SLP159 T01230109 57014 IEM_DS3505
ZBAA,2006-10-21 13:00,ZBAA 211300Z AUTO 30006KT 1 1/2SM 12/11 A3003 RMK T01200110 IEM_DS3505
ZBAA,2006-10-21 14:00,ZBAA 211400Z AUTO 03002KT 1 1/2SM 12/11 A3000 RMK T01200110 IEM_DS3505
ZBAA,2006-10-21 15:00,ZBAA 211500Z AUTO 09002KT 3SM 12/11 A3000 RMK SLP154 T01230109 57005 IEM_DS3505
ZBAA,2006-10-21 16:00,ZBAA 211600Z AUTO 29004KT 1 1/4SM 12/11 A3000 RMK T01200110 IEM_DS3505
ZBAA,2006-10-21 17:00,ZBAA 211700Z AUTO 35008KT 1 1/2SM 12/12 A3000 RMK T01200120 IEM_DS3505
ZBAA,2006-10-21 18:00,ZBAA 211800Z AUTO 36002KT 3SM 12/10 A3003 RMK 60002 SLP160 T01170103 52006 IEM_DS3505
ZBAA,2006-10-21 19:00,ZBAA 211900Z AUTO 33004KT 1 1/2SM 10/10 A3003 RMK T01000100 IEM_DS3505
ZBAA,2006-10-21 20:00,ZBAA 212000Z AUTO 30016KT 6SM 13/06 A3003 RMK T01300060 IEM_DS3505
ZBAA,2006-10-21 21:00,ZBAA 212100Z AUTO 32008KT 19SM 15/M01 A3006 RMK 70009 SLP171 T01461007 52011 IEM_DS3505
ZBAA,2006-10-21 22:00,ZBAA 212200Z AUTO 27006KT 6SM 11/05 A3006 RMK T01100050 IEM_DS3505
ZBAA,2006-10-21 23:00,ZBAA 212300Z AUTO 28008KT 6SM 12/04 A3009 RMK T01200040 IEM_DS3505
ZBAA,2006-10-22 00:00,ZBAA 220000Z AUTO 34008KT 19SM 15/02 A3012 RMK 70009 SLP197 T01480017 52026 IEM_DS3505
ZBAA,2006-10-22 01:00,ZBAA 220100Z AUTO 31014KT 6SM 16/05 A3015 RMK T01600050 IEM_DS3505
ZBAA,2006-10-22 02:00,ZBAA 220200Z AUTO 34010KT 6SM 17/06 A3018 RMK T01700060 IEM_DS3505
ZBAA,2006-10-22 03:00,ZBAA 220300Z AUTO 02008KT 19SM 18/01 A3021 RMK SLP220 T01820008 52023 IEM_DS3505
ZBAA,2006-10-22 04:00,ZBAA 220400Z AUTO 03017KT 6SM 15/05 A3021 RMK T01500050 IEM_DS3505
ZBAA,2006-10-22 05:00,ZBAA 220500Z AUTO 03019KT 6SM 15/03 A3021 RMK T01500030 IEM_DS3505
ZBAA,2006-10-22 06:00,ZBAA 220600Z AUTO 07012G29KT 19SM 16/02 A3021 RMK SLP230 T01620015 52010 IEM_DS3505
ZBAA,2006-10-22 07:00,ZBAA 220700Z AUTO 03021KT 6SM 15/01 A3024 RMK T01500010 IEM_DS3505
ZBAA,2006-10-22 08:00,ZBAA 220800Z AUTO 04019KT 6SM 14/01 A3027 RMK T01400010 IEM_DS3505
ZBAA,2006-10-22 09:00,ZBAA 220900Z AUTO 07008KT 19SM 14/M01 A3027 RMK SLP255 T01371007 52024 IEM_DS3505
ZBAA,2006-10-22 10:00,ZBAA 221000Z AUTO 04012KT 6SM 13/01 A3030 RMK T01300010 IEM_DS3505
ZBAA,2006-10-22 11:00,ZBAA 221100Z AUTO 03014KT 6SM 12/00 A3033 RMK T01200000 IEM_DS3505
ZBAA,2006-10-22 12:00,ZBAA 221200Z AUTO 04004KT 12SM 11/M00 A3036 RMK SLP276 T01071001 52021 IEM_DS3505
ZBAA,2006-10-22 13:00,ZBAA 221300Z AUTO 01008KT 6SM 10/M01 A3039 RMK T01001010 IEM_DS3505
ZBAA,2006-10-22 14:00,ZBAA 221400Z AUTO 36010KT 6SM 10/00 A3039 RMK T01000000 IEM_DS3505
ZBAA,2006-10-22 15:00,ZBAA 221500Z AUTO 02004KT 19SM 10/M02 A3039 RMK SLP287 T00991018 52011 IEM_DS3505
ZBAA,2006-10-22 16:00,ZBAA 221600Z AUTO 01010KT 6SM 10/M02 A3039 RMK T01001020 IEM_DS3505
ZBAA,2006-10-22 17:00,ZBAA 221700Z AUTO 36008KT 6SM 08/M01 A3039 RMK T00801010 IEM_DS3505
ZBAA,2006-10-22 18:00,ZBAA 221800Z AUTO 36002KT 19SM 09/M03 A3039 RMK SLP288 T00891030 52001 IEM_DS3505
ZBAA,2006-10-22 19:00,ZBAA 221900Z AUTO 01008KT 6SM 08/M02 A3039 RMK T00801020 IEM_DS3505
ZBAA,2006-10-22 20:00,ZBAA 222000Z AUTO 02010KT 6SM 08/M03 A3039 RMK T00801030 IEM_DS3505
ZBAA,2006-10-22 21:00,ZBAA 222100Z AUTO 02002KT 19SM 07/M04 A3039 RMK SLP287 T00741035 57001 IEM_DS3505
ZBAA,2006-10-22 22:00,ZBAA 222200Z AUTO 01008KT 6SM 08/M03 A3039 RMK T00801030 IEM_DS3505
ZBAA,2006-10-22 23:00,ZBAA 222300Z AUTO 01008KT 6SM 08/M03 A3042 RMK T00801030 IEM_DS3505
ZBAA,2006-10-23 00:00,ZBAA 230000Z AUTO 02004KT 19SM 10/M05 A3042 RMK SLP301 T01041048 52014 IEM_DS3505
ZBAA,2006-10-23 01:00,ZBAA 230100Z AUTO 01006KT 6SM 11/M03 A3042 RMK T01101030 IEM_DS3505
ZBAA,2006-10-23 02:00,ZBAA 230200Z AUTO 35004KT 6SM 12/M01 A3042 RMK T01201010 IEM_DS3505
ZBAA,2006-10-23 03:00,ZBAA 230300Z AUTO 25002KT 19SM 15/M02 A3042 RMK SLP295 T01491016 57006 IEM_DS3505
ZBAA,2006-10-23 04:00,ZBAA 230400Z AUTO 09002KT 6SM 15/M01 A3039 RMK T01501010 IEM_DS3505
ZBAA,2006-10-23 05:00,ZBAA 230500Z AUTO 03004KT 6SM 16/01 A3036 RMK T01600010 IEM_DS3505
ZBAA,2006-10-23 06:00,ZBAA 230600Z AUTO 27006KT 19SM 18/01 A3033 RMK SLP270 T01760007 57025 IEM_DS3505
ZBAA,2006-10-23 07:00,ZBAA 230700Z AUTO 6SM 18/03 A3033 RMK T01800030 IEM_DS3505
ZBAA,2006-10-23 08:00,ZBAA 230800Z AUTO 15004KT 6SM 17/03 A3033 RMK T01700030 IEM_DS3505
ZBAA,2006-10-23 09:00,ZBAA 230900Z AUTO 20004KT 19SM 16/02 A3033 RMK SLP262 T01630020 57008 IEM_DS3505
ZBAA,2006-10-23 10:00,ZBAA 231000Z AUTO 15004KT 6SM 14/05 A3033 RMK T01400050 IEM_DS3505
ZBAA,2006-10-23 11:00,ZBAA 231100Z AUTO 16004KT 6SM 13/05 A3033 RMK T01300050 IEM_DS3505
ZBAA,2006-10-23 12:00,ZBAA 231200Z AUTO 18002KT 19SM 12/04 A3036 RMK SLP271 T01170035 52009 IEM_DS3505
ZBAA,2006-10-23 13:00,ZBAA 231300Z AUTO 16004KT 6SM 11/05 A3036 RMK T01100050 IEM_DS3505
ZBAA,2006-10-23 14:00,ZBAA 231400Z AUTO 15002KT 6SM 09/07 A3036 RMK T00900070 IEM_DS3505
ZBAA,2006-10-23 15:00,ZBAA 231500Z AUTO 22002KT 16SM 10/03 A3036 RMK SLP275 T01000028 52004 IEM_DS3505
ZBAA,2006-10-23 16:00,ZBAA 231600Z AUTO 07004KT 6SM 08/04 A3036 RMK T00800040 IEM_DS3505
ZBAA,2006-10-23 17:00,ZBAA 231700Z AUTO 08004KT 6SM 08/04 A3036 RMK T00800040 IEM_DS3505
ZBAA,2006-10-23 18:00,ZBAA 231800Z AUTO 22004KT 16SM 08/00 A3036 RMK SLP270 T00770002 57005 IEM_DS3505
ZBAA,2006-10-23 19:00,ZBAA 231900Z AUTO 04004KT 6SM 07/03 A3033 RMK T00700030 IEM_DS3505
ZBAA,2006-10-23 20:00,ZBAA 232000Z AUTO 07006KT 5SM 07/02 A3033 RMK T00700020 IEM_DS3505
ZBAA,2006-10-23 21:00,ZBAA 232100Z AUTO 20002KT 9SM 05/00 A3033 RMK SLP268 T00530003 57002 IEM_DS3505
ZBAA,2006-10-23 22:00,ZBAA 232200Z AUTO 05004KT 5SM 06/02 A3033 RMK T00600020 IEM_DS3505
ZBAA,2006-10-23 23:00,ZBAA 232300Z AUTO 06004KT 3SM 06/03 A3033 RMK T00600030 IEM_DS3505
ZBAA,2006-10-24 00:00,ZBAA 240000Z AUTO 11002KT 6SM 08/01 A3036 RMK SLP271 T00810008 52003 IEM_DS3505
ZBAA,2006-10-24 01:00,ZBAA 240100Z AUTO 05002KT 3SM 07/03 A3036 RMK T00700030 IEM_DS3505
ZBAA,2006-10-24 02:00,ZBAA 240200Z AUTO 13004KT 2 1/2SM 08/04 A3036 RMK T00800040 IEM_DS3505
ZBAA,2006-10-24 03:00,ZBAA 240300Z AUTO 18002KT 4SM 10/01 A3036 RMK SLP271 T01000014 54000 IEM_DS3505
ZBAA,2006-10-24 04:00,ZBAA 240400Z AUTO 04002KT 2 1/2SM 09/04 A3033 RMK T00900040 IEM_DS3505
ZBAA,2006-10-24 05:00,ZBAA 240500Z AUTO 05002KT 2 1/2SM 10/05 A3033 RMK T01000050 IEM_DS3505
ZBAA,2006-10-24 06:00,ZBAA 240600Z AUTO 20002KT 6SM 12/02 A3030 RMK SLP252 T01200019 57019 IEM_DS3505
ZBAA,2006-10-24 07:00,ZBAA 240700Z AUTO 14002KT 2 1/2SM 12/04 A3027 RMK T01200040 IEM_DS3505
ZBAA,2006-10-24 08:00,ZBAA 240800Z AUTO 24004KT 2 1/2SM 12/04 A3030 RMK T01200040 IEM_DS3505
ZBAA,2006-10-24 09:00,ZBAA 240900Z AUTO 18002KT 7SM 12/02 A3027 RMK SLP254 T01210023 52002 IEM_DS3505
ZBAA,2006-10-24 10:00,ZBAA 241000Z AUTO 04002KT 2 1/2SM 11/05 A3030 RMK T01100050 IEM_DS3505
ZBAA,2006-10-24 11:00,ZBAA 241100Z AUTO 34002KT 2 1/2SM 11/06 A3030 RMK T01100060 IEM_DS3505
ZBAA,2006-10-24 12:00,ZBAA 241200Z AUTO 07002KT 6SM 11/05 A3030 RMK 60000 SLP260 T01110048 52006 IEM_DS3505
ZBAA,2006-10-24 13:00,ZBAA 241300Z AUTO 31002KT 2SM 10/06 A3033 RMK T01000060 IEM_DS3505
ZBAA,2006-10-24 14:00,ZBAA 241400Z AUTO 30002KT 2SM 10/06 A3033 RMK T01000060 IEM_DS3505
ZBAA,2006-10-24 15:00,ZBAA 241500Z AUTO 36002KT 6SM 11/05 A3033 RMK SLP265 T01070048 52005 IEM_DS3505
ZBAA,2006-10-24 16:00,ZBAA 241600Z AUTO 36004KT 2SM 09/06 A3033 RMK T00900060 IEM_DS3505
ZBAA,2006-10-24 17:00,ZBAA 241700Z AUTO 35004KT 2SM 09/07 A3033 RMK T00900070 IEM_DS3505
ZBAA,2006-10-24 18:00,ZBAA 241800Z AUTO 04002KT 6SM 09/05 A3033 RMK SLP262 T00920052 57003 IEM_DS3505
ZBAA,2006-10-24 19:00,ZBAA 241900Z AUTO 33004KT 1 1/2SM 07/06 A3033 RMK T00700060 IEM_DS3505
ZBAA,2006-10-24 20:00,ZBAA 242000Z AUTO 28002KT 1 1/2SM 07/06 A3033 RMK T00700060 IEM_DS3505
ZBAA,2006-10-24 21:00,ZBAA 242100Z AUTO 02002KT 5SM 07/04 A3033 RMK 70000 SLP265 T00660044 52003 IEM_DS3505
ZBAA,2006-10-24 22:00,ZBAA 242200Z AUTO 33004KT 1 1/4SM 06/05 A3033 RMK T00600050 IEM_DS3505
ZBAA,2006-10-24 23:00,ZBAA 242300Z AUTO 34008KT 2 1/2SM 08/06 A3036 RMK T00800060 IEM_DS3505
ZBAA,2006-10-25 00:00,ZBAA 250000Z AUTO 02006KT 7SM 11/04 A3042 RMK 70000 SLP289 T01090044 52024 IEM_DS3505
ZBAA,2006-10-25 01:00,ZBAA 250100Z AUTO 01010KT 4SM 12/06 A3045 RMK T01200060 IEM_DS3505
ZBAA,2006-10-25 02:00,ZBAA 250200Z AUTO 03014KT 6SM 14/03 A3045 RMK T01400030 IEM_DS3505
ZBAA,2006-10-25 03:00,ZBAA 250300Z AUTO 04010KT 19SM 16/M00 A3045 RMK SLP306 T01581004 52017 IEM_DS3505
ZBAA,2006-10-25 04:00,ZBAA 250400Z AUTO 02010KT 6SM 16/01 A3045 RMK T01600010 IEM_DS3505
ZBAA,2006-10-25 05:00,ZBAA 250500Z AUTO 02008KT 6SM 17/00 A3042 RMK T01700000 IEM_DS3505
ZBAA,2006-10-25 06:00,ZBAA 250600Z AUTO 09006KT 19SM 17/M00 A3039 RMK SLP289 T01741003 57017 IEM_DS3505
ZBAA,2006-10-25 07:00,ZBAA 250700Z AUTO 05004KT 6SM 17/01 A3039 RMK T01700010 IEM_DS3505
ZBAA,2006-10-25 08:00,ZBAA 250800Z AUTO 08006KT 6SM 17/01 A3039 RMK T01700010 IEM_DS3505
ZBAA,2006-10-25 09:00,ZBAA 250900Z AUTO 18006KT 19SM 15/05 A3042 RMK SLP293 T01540048 52004 IEM_DS3505
ZBAA,2006-10-25 10:00,ZBAA 251000Z AUTO 16006KT 6SM 12/06 A3042 RMK T01200060 IEM_DS3505
ZBAA,2006-10-25 11:00,ZBAA 251100Z AUTO 17006KT 6SM 11/06 A3045 RMK T01100060 IEM_DS3505
ZBAA,2006-10-25 12:00,ZBAA 251200Z AUTO 18004KT 16SM 12/04 A3047 RMK SLP312 T01250035 52019 IEM_DS3505
ZBAA,2006-10-25 13:00,ZBAA 251300Z AUTO 12008KT 6SM 11/03 A3047 RMK T01100030 IEM_DS3505
ZBAA,2006-10-25 14:00,ZBAA 251400Z AUTO 13008KT 6SM 11/03 A3050 RMK T01100030 IEM_DS3505
ZBAA,2006-10-25 15:00,ZBAA 251500Z AUTO 14006KT 12SM 11/06 A3047 RMK SLP321 T01120057 52009 IEM_DS3505
ZBAA,2006-10-25 16:00,ZBAA 251600Z AUTO 14008KT 6SM 10/M01 A3050 RMK T01001010 IEM_DS3505
ZBAA,2006-10-25 17:00,ZBAA 251700Z AUTO 14006KT 6SM 10/M02 A3047 RMK T01001020 IEM_DS3505
ZBAA,2006-10-25 18:00,ZBAA 251800Z AUTO 16006KT 12SM 10/M08 A3047 RMK SLP320 T01011076 57001 IEM_DS3505
ZBAA,2006-10-25 19:00,ZBAA 251900Z AUTO 13008KT 6SM 09/M04 A3047 RMK T00901040 IEM_DS3505
ZBAA,2006-10-25 20:00,ZBAA 252000Z AUTO 13008KT 7SM 08/M02 A3047 RMK T00801020 IEM_DS3505
ZBAA,2006-10-25 21:00,ZBAA 252100Z AUTO 16006KT 12SM 08/M09 A3047 RMK SLP311 T00851094 57009 IEM_DS3505
ZBAA,2006-10-25 22:00,ZBAA 252200Z AUTO 15006KT 7SM 08/M05 A3047 RMK T00801050 IEM_DS3505
ZBAA,2006-10-25 23:00,ZBAA 252300Z AUTO 13006KT 7SM 08/M05 A3047 RMK T00801050 IEM_DS3505
ZBAA,2006-10-26 00:00,ZBAA 260000Z AUTO 09002KT 9SM 08/M05 A3047 RMK SLP320 T00801054 52009 IEM_DS3505
ZBAA,2006-10-26 01:00,ZBAA 260100Z AUTO 14004KT 7SM 08/M05 A3050 RMK T00801050 IEM_DS3505
ZBAA,2006-10-26 02:00,ZBAA 260200Z AUTO 14006KT 7SM 08/M07 A3047 RMK T00801070 IEM_DS3505
ZBAA,2006-10-26 03:00,ZBAA 260300Z AUTO 14004KT 12SM 10/M05 A3047 RMK SLP311 T00961051 57009 IEM_DS3505
ZBAA,2006-10-26 04:00,ZBAA 260400Z AUTO 10004KT 7SM 10/M04 A3045 RMK T01001040 IEM_DS3505
ZBAA,2006-10-26 05:00,ZBAA 260500Z AUTO 14004KT 6SM 11/M03 A3039 RMK T01101030 IEM_DS3505
ZBAA,2006-10-26 06:00,ZBAA 260600Z AUTO 14004KT 12SM 14/02 A3036 RMK SLP274 T01350021 57037 IEM_DS3505
ZBAA,2006-10-26 07:00,ZBAA 260700Z AUTO 10006KT 6SM 12/01 A3033 RMK T01200010 IEM_DS3505
ZBAA,2006-10-26 08:00,ZBAA 260800Z AUTO 12004KT 6SM 12/02 A3033 RMK T01200020 IEM_DS3505
ZBAA,2006-10-26 09:00,ZBAA 260900Z AUTO 09004KT 9SM 12/03 A3030 RMK SLP257 T01220034 57017 IEM_DS3505
ZBAA,2006-10-26 10:00,ZBAA 261000Z AUTO 08004KT 6SM 10/02 A3030 RMK T01000020 IEM_DS3505
ZBAA,2006-10-26 11:00,ZBAA 261100Z AUTO 06002KT 6SM 10/02 A3033 RMK T01000020 IEM_DS3505
ZBAA,2006-10-26 12:00,ZBAA 261200Z AUTO 07004KT 9SM 09/03 A3033 RMK SLP261 T00930033 52004 IEM_DS3505
ZBAA,2006-10-26 13:00,ZBAA 261300Z AUTO 10006KT 5SM 10/02 A3033 RMK T01000020 IEM_DS3505
ZBAA,2006-10-26 14:00,ZBAA 261400Z AUTO 09006KT 4SM 09/02 A3030 RMK T00900020 IEM_DS3505
ZBAA,2006-10-26 15:00,ZBAA 261500Z AUTO 36002KT 7SM 08/03 RMK SLP255 T00770034 57006 IEM_DS3505
ZBAA,2006-10-26 16:00,ZBAA 261600Z AUTO 07004KT 4SM 08/02 A3030 RMK T00800020 IEM_DS3505
ZBAA,2006-10-26 18:00,ZBAA 261800Z AUTO 07002KT 6SM 07/03 A3024 RMK SLP240 T00700034 57015 IEM_DS3505
ZBAA,2006-10-26 19:00,ZBAA 261900Z AUTO 05004KT 4SM 07/02 A3024 RMK T00700020 IEM_DS3505
ZBAA,2006-10-26 20:00,ZBAA 262000Z AUTO 05004KT 4SM 07/02 A3021 RMK T00700020 IEM_DS3505
ZBAA,2006-10-26 21:00,ZBAA 262100Z AUTO 09002KT 6SM 06/04 A3021 RMK SLP228 T00590036 57012 IEM_DS3505
ZBAA,2006-10-26 22:00,ZBAA 262200Z AUTO 35002KT 3SM 06/03 A3021 RMK T00600030 IEM_DS3505
ZBAA,2006-10-26 23:00,ZBAA 262300Z AUTO 36004KT 3SM 06/03 A3021 RMK T00600030 IEM_DS3505
ZBAA,2006-10-27 00:00,ZBAA 270000Z AUTO 07002KT 5SM 07/03 A3021 RMK SLP230 T00690030 52002 IEM_DS3505
ZBAA,2006-10-27 01:00,ZBAA 270100Z AUTO 09002KT 3SM 09/04 A3021 RMK T00900040 IEM_DS3505
ZBAA,2006-10-27 02:00,ZBAA 270200Z AUTO 3SM 10/05 A3021 RMK T01000050 IEM_DS3505
ZBAA,2006-10-27 03:00,ZBAA 270300Z AUTO 04004KT 5SM 12/05 A3018 RMK SLP221 T01240049 57009 IEM_DS3505
ZBAA,2006-10-27 04:00,ZBAA 270400Z AUTO 05004KT 2 1/2SM 12/06 A3015 RMK T01200060 IEM_DS3505
ZBAA,2006-10-27 05:00,ZBAA 270500Z AUTO 04004KT 2 1/2SM 13/07 A3012 RMK T01300070 IEM_DS3505
ZBAA,2006-10-27 06:00,ZBAA 270600Z AUTO 27004KT 5SM 15/06 A3012 RMK SLP197 T01480059 57024 IEM_DS3505
ZBAA,2006-10-27 07:00,ZBAA 270700Z AUTO 2 1/2SM 14/07 A3009 RMK T01400070 IEM_DS3505
ZBAA,2006-10-27 08:00,ZBAA 270800Z AUTO 2SM 14/07 A3009 RMK T01400070 IEM_DS3505
ZBAA,2006-10-27 09:00,ZBAA 270900Z AUTO 16002KT 5SM 14/06 A3009 RMK SLP183 T01410065 57014 IEM_DS3505
ZBAA,2006-10-27 10:00,ZBAA 271000Z AUTO 07002KT 2SM 13/08 A3009 RMK T01300080 IEM_DS3505
ZBAA,2006-10-27 11:00,ZBAA 271100Z AUTO 11002KT 1 1/2SM 13/08 A3009 RMK T01300080 IEM_DS3505
ZBAA,2006-10-27 12:00,ZBAA 271200Z AUTO 20004KT 4SM 13/08 A3009 RMK SLP186 T01280075 52003 IEM_DS3505
ZBAA,2006-10-27 13:00,ZBAA 271300Z AUTO 07002KT 1 1/4SM 12/09 A3009 RMK T01200090 IEM_DS3505
ZBAA,2006-10-27 14:00,ZBAA 271400Z AUTO 04004KT 1 1/4SM 11/09 A3009 RMK T01100090 IEM_DS3505
ZBAA,2006-10-27 15:00,ZBAA 271500Z AUTO 25002KT 4SM 10/07 A3009 RMK SLP189 T01050070 52003 IEM_DS3505
ZBAA,2006-10-27 16:00,ZBAA 271600Z AUTO 1SM 09/08 A3009 RMK T00900080 IEM_DS3505
ZBAA,2006-10-27 17:00,ZBAA 271700Z AUTO 01002KT 1SM 09/08 A3009 RMK T00900080 IEM_DS3505
ZBAA,2006-10-27 18:00,ZBAA 271800Z AUTO 36002KT 3SM 08/07 A3009 RMK SLP187 T00830068 57002 IEM_DS3505
ZBAA,2006-10-27 19:00,ZBAA 271900Z AUTO 36004KT 1SM 07/07 A3009 RMK T00700070 IEM_DS3505
ZBAA,2006-10-27 20:00,ZBAA 272000Z AUTO 35006KT 1 1/4SM 08/07 A3006 RMK T00800070 IEM_DS3505
ZBAA,2006-10-27 21:00,ZBAA 272100Z AUTO 09002KT 1SM 07/06 A3006 RMK SLP182 T00680057 57005 IEM_DS3505
ZBAA,2006-10-27 22:00,ZBAA 272200Z AUTO 35004KT 1 1/4SM 06/06 A3009 RMK T00600060 IEM_DS3505
ZBAA,2006-10-27 23:00,ZBAA 272300Z AUTO 34006KT 1SM 06/06 A3009 RMK T00600060 IEM_DS3505
ZBAA,2006-10-28 00:00,ZBAA 280000Z AUTO 04004KT 1 1/4SM 09/07 A3012 RMK SLP199 T00880069 52017 IEM_DS3505
ZBAA,2006-10-28 01:00,ZBAA 280100Z AUTO 34008KT 1 1/2SM 12/08 A3012 RMK T01200080 IEM_DS3505
ZBAA,2006-10-28 02:00,ZBAA 280200Z AUTO 33006KT 2SM 15/08 A3012 RMK T01500080 IEM_DS3505
ZBAA,2006-10-28 03:00,ZBAA 280300Z AUTO 34006KT 9SM 20/00 A3012 RMK SLP198 T01990004 54000 IEM_DS3505
ZBAA,2006-10-28 04:00,ZBAA 280400Z AUTO 32008KT 6SM 21/02 A3012 RMK T02100020 IEM_DS3505
ZBAA,2006-10-28 05:00,ZBAA 280500Z AUTO 31008G17KT 6SM 22/M02 A3009 RMK T02201020 IEM_DS3505
ZBAA,2006-10-28 06:00,ZBAA 280600Z AUTO 02006KT 19SM 22/M06 A3006 RMK SLP180 T02221056 57018 IEM_DS3505
ZBAA,2006-10-28 07:00,ZBAA 280700Z AUTO 27010KT 6SM 22/M03 A3006 RMK T02201030 IEM_DS3505
ZBAA,2006-10-28 08:00,ZBAA 280800Z AUTO 26008KT 6SM 22/M03 A3006 RMK T02201030 IEM_DS3505
ZBAA,2006-10-28 09:00,ZBAA 280900Z AUTO 29004KT 19SM 21/M05 A3006 RMK SLP181 T02071052 52001 IEM_DS3505
ZBAA,2006-10-28 10:00,ZBAA 281000Z AUTO 24006KT 6SM 19/M02 A3009 RMK T01901020 IEM_DS3505
ZBAA,2006-10-28 11:00,ZBAA 281100Z AUTO 29006KT 6SM 17/00 A3009 RMK T01700000 IEM_DS3505
ZBAA,2006-10-28 12:00,ZBAA 281200Z AUTO 36004KT 16SM 14/02 A3012 RMK SLP199 T01440023 52017 IEM_DS3505
ZBAA,2006-10-28 13:00,ZBAA 281300Z AUTO 01004KT 6SM 13/04 A3015 RMK T01300040 IEM_DS3505
ZBAA,2006-10-28 14:00,ZBAA 281400Z AUTO 35004KT 6SM 11/03 A3015 RMK T01100030 IEM_DS3505
ZBAA,2006-10-28 15:00,ZBAA 281500Z AUTO 07004KT 9SM 12/04 A3018 RMK SLP211 T01200038 52013 IEM_DS3505
ZBAA,2006-10-28 16:00,ZBAA 281600Z AUTO 35008KT 6SM 11/02 A3018 RMK T01100020 IEM_DS3505
ZBAA,2006-10-28 17:00,ZBAA 281700Z AUTO 33008KT 6SM 11/01 A3018 RMK T01100010 IEM_DS3505
ZBAA,2006-10-28 18:00,ZBAA 281800Z AUTO 32002KT 9SM 08/03 A3021 RMK SLP219 T00830032 52008 IEM_DS3505
ZBAA,2006-10-28 19:00,ZBAA 281900Z AUTO 36002KT 6SM 09/02 A3021 RMK T00900020 IEM_DS3505
ZBAA,2006-10-28 20:00,ZBAA 282000Z AUTO 35008KT 6SM 08/02 A3018 RMK T00800020 IEM_DS3505
ZBAA,2006-10-28 21:00,ZBAA 282100Z AUTO 36002KT 16SM 07/02 A3021 RMK SLP225 T00680023 52005 IEM_DS3505
ZBAA,2006-10-28 22:00,ZBAA 282200Z AUTO 34006KT 6SM 07/01 A3021 RMK T00700010 IEM_DS3505
ZBAA,2006-10-28 23:00,ZBAA 282300Z AUTO 33006KT 6SM 07/01 A3024 RMK T00700010 IEM_DS3505
ZBAA,2006-10-29 00:00,ZBAA 290000Z AUTO 29002KT 6SM 10/04 A3024 RMK SLP243 T01030038 52018 IEM_DS3505
ZBAA,2006-10-29 01:00,ZBAA 290100Z AUTO 36006KT 6SM 13/01 A3027 RMK T01300010 IEM_DS3505
ZBAA,2006-10-29 02:00,ZBAA 290200Z AUTO 32004KT 6SM 17/M01 A3027 RMK T01701010 IEM_DS3505
ZBAA,2006-10-29 03:00,ZBAA 290300Z AUTO 09004KT 19SM 19/M03 A3024 RMK SLP236 T01911031 57006 IEM_DS3505
ZBAA,2006-10-29 04:00,ZBAA 290400Z AUTO 6SM 20/M01 A3021 RMK T02001010 IEM_DS3505
ZBAA,2006-10-29 05:00,ZBAA 290500Z AUTO 13006KT 6SM 20/01 A3018 RMK T02000010 IEM_DS3505
ZBAA,2006-10-29 06:00,ZBAA 290600Z AUTO 20004KT 19SM 22/M03 A3015 RMK SLP209 T02151031 57027 IEM_DS3505
ZBAA,2006-10-29 07:00,ZBAA 290700Z AUTO 14008KT 6SM 20/01 A3015 RMK T02000010 IEM_DS3505
ZBAA,2006-10-29 08:00,ZBAA 290800Z AUTO 14006KT 5SM 19/04 A3015 RMK T01900040 IEM_DS3505
ZBAA,2006-10-29 09:00,ZBAA 290900Z AUTO 11004KT 16SM 18/02 A3015 RMK SLP203 T01800023 57007 IEM_DS3505
ZBAA,2006-10-29 10:00,ZBAA 291000Z AUTO 13006KT 4SM 16/06 A3015 RMK T01600060 IEM_DS3505
ZBAA,2006-10-29 11:00,ZBAA 291100Z AUTO 12006KT 3SM 15/07 A3015 RMK T01500070 IEM_DS3505
ZBAA,2006-10-29 12:00,ZBAA 291200Z AUTO 11004KT 12SM 15/08 A3015 RMK SLP211 T01500080 52008 IEM_DS3505
ZBAA,2006-10-29 13:00,ZBAA 291300Z AUTO 07002KT 2 1/2SM 13/08 A3018 RMK T01300080 IEM_DS3505
ZBAA,2006-10-29 14:00,ZBAA 291400Z AUTO 01002KT 2 1/2SM 12/08 A3018 RMK T01200080 IEM_DS3505
ZBAA,2006-10-29 15:00,ZBAA 291500Z AUTO 04002KT 9SM 12/10 A3015 RMK SLP208 T01240100 57002 IEM_DS3505
ZBAA,2006-10-29 16:00,ZBAA 291600Z AUTO 00000KT 2 1/2SM 11/09 A3015 RMK T01100090 IEM_DS3505
ZBAA,2006-10-29 17:00,ZBAA 291700Z AUTO 07002KT 2SM 11/09 A3015 RMK T01100090 IEM_DS3505
ZBAA,2006-10-29 18:00,ZBAA 291800Z AUTO 07002KT 8SM 11/09 A3015 RMK SLP202 T01070091 57006 IEM_DS3505
ZBAA,2006-10-29 19:00,ZBAA 291900Z AUTO 01002KT 1 1/2SM 09/08 A3012 RMK T00900080 IEM_DS3505
ZBAA,2006-10-29 20:00,ZBAA 292000Z AUTO 00000KT 1 1/2SM 09/09 A3012 RMK T00900090 IEM_DS3505
ZBAA,2006-10-29 21:00,ZBAA 292100Z AUTO 04002KT 4SM 10/08 A3012 RMK SLP193 T00950078 57009 IEM_DS3505
ZBAA,2006-10-29 22:00,ZBAA 292200Z AUTO 34004KT 2SM 08/07 A3012 RMK T00800070 IEM_DS3505
ZBAA,2006-10-29 23:00,ZBAA 292300Z AUTO 33004KT 2SM 07/06 A3012 RMK T00700060 IEM_DS3505
ZBAA,2006-10-30 00:00,ZBAA 300000Z AUTO 04002KT 2SM 10/08 A3015 RMK SLP202 T00970083 52008 IEM_DS3505
ZBAA,2006-10-30 01:00,ZBAA 300100Z AUTO 34004KT 2 1/2SM 11/08 A3015 RMK T01100080 IEM_DS3505
ZBAA,2006-10-30 02:00,ZBAA 300200Z AUTO 02004KT 2 1/2SM 12/09 A3012 RMK T01200090 IEM_DS3505
ZBAA,2006-10-30 03:00,ZBAA 300300Z AUTO 20002KT 3SM 16/09 A3012 RMK SLP195 T01570094 57006 IEM_DS3505
ZBAA,2006-10-30 04:00,ZBAA 300400Z AUTO 2 1/2SM 17/10 A3009 RMK T01700100 IEM_DS3505
ZBAA,2006-10-30 05:00,ZBAA 300500Z AUTO 2 1/2SM 18/10 A3006 RMK T01800100 IEM_DS3505
ZBAA,2006-10-30 06:00,ZBAA 300600Z AUTO 18002KT 4SM 19/09 A3003 RMK SLP171 T01920091 57024 IEM_DS3505
ZBAA,2006-10-30 07:00,ZBAA 300700Z AUTO 19006KT 2SM 19/10 A3003 RMK T01900100 IEM_DS3505
ZBAA,2006-10-30 08:00,ZBAA 300800Z AUTO 18004KT 1 1/2SM 18/11 A3003 RMK T01800110 IEM_DS3505
ZBAA,2006-10-30 09:00,ZBAA 300900Z AUTO 22004KT 4SM 18/08 A3003 RMK SLP168 T01760085 57003 IEM_DS3505
ZBAA,2006-10-30 10:00,ZBAA 301000Z AUTO 17002KT 1 1/2SM 14/10 A3003 RMK T01400100 IEM_DS3505
ZBAA,2006-10-30 11:00,ZBAA 301100Z AUTO 08002KT 1 1/2SM 14/11 A3006 RMK T01400110 IEM_DS3505
ZBAA,2006-10-30 12:00,ZBAA 301200Z AUTO 04002KT 3SM 14/10 A3006 RMK SLP181 T01400096 52012 IEM_DS3505
ZBAA,2006-10-30 13:00,ZBAA 301300Z AUTO 07002KT 1 1/4SM 13/11 A3009 RMK T01300110 IEM_DS3505
ZBAA,2006-10-30 14:00,ZBAA 301400Z AUTO 04002KT 1 1/4SM 13/11 A3009 RMK T01300110 IEM_DS3505
ZBAA,2006-10-30 15:00,ZBAA 301500Z AUTO 02004KT 4SM 12/10 A3009 RMK SLP189 T01240096 52009 IEM_DS3505
ZBAA,2006-10-30 16:00,ZBAA 301600Z AUTO 33004KT 1 1/4SM 11/09 A3012 RMK T01100090 IEM_DS3505
ZBAA,2006-10-30 17:00,ZBAA 301700Z AUTO 34006KT 1 1/2SM 10/09 A3009 RMK T01000090 IEM_DS3505
ZBAA,2006-10-30 18:00,ZBAA 301800Z AUTO 04002KT 2SM 11/09 A3012 RMK SLP190 T01080091 52001 IEM_DS3505
ZBAA,2006-10-30 19:00,ZBAA 301900Z AUTO 34010KT 1 1/2SM 10/08 A3009 RMK T01000080 IEM_DS3505
ZBAA,2006-10-30 20:00,ZBAA 302000Z AUTO 33006KT 2SM 09/07 A3009 RMK T00900070 IEM_DS3505
ZBAA,2006-10-30 21:00,ZBAA 302100Z AUTO 34002KT 1 1/4SM 08/07 A3012 RMK SLP193 T00820071 52003 IEM_DS3505
ZBAA,2006-10-30 22:00,ZBAA 302200Z AUTO 33006KT 2SM 08/06 A3012 RMK T00800060 IEM_DS3505
ZBAA,2006-10-30 23:00,ZBAA 302300Z AUTO 35008KT 3SM 09/06 A3015 RMK T00900060 IEM_DS3505
ZBAA,2006-10-31 00:00,ZBAA 310000Z AUTO 04002KT 4SM 11/06 A3015 RMK SLP210 T01110064 52016 IEM_DS3505
ZBAA,2006-10-31 01:00,ZBAA 310100Z AUTO 35008KT 6SM 14/05 A3018 RMK T01400050 IEM_DS3505
ZBAA,2006-10-31 02:00,ZBAA 310200Z AUTO 35008KT 6SM 17/05 A3018 RMK T01700050 IEM_DS3505
ZBAA,2006-10-31 03:00,ZBAA 310300Z AUTO 04008KT 19SM 21/M02 A3018 RMK SLP214 T02081023 52005 IEM_DS3505
ZBAA,2006-10-31 04:00,ZBAA 310400Z AUTO 35008KT 6SM 22/01 A3015 RMK T02200010 IEM_DS3505
ZBAA,2006-10-31 05:00,ZBAA 310500Z AUTO 02010KT 6SM 22/M03 A3012 RMK T02201030 IEM_DS3505
ZBAA,2006-10-31 06:00,ZBAA 310600Z AUTO 04008KT 19SM 23/M05 A3012 RMK SLP193 T02281052 57021 IEM_DS3505
ZBAA,2006-10-31 07:00,ZBAA 310700Z AUTO 02006KT 6SM 23/M01 A3012 RMK T02301010 IEM_DS3505
ZBAA,2006-10-31 08:00,ZBAA 310800Z AUTO 08004KT 6SM 22/M02 A3012 RMK T02201020 IEM_DS3505
ZBAA,2006-10-31 09:00,ZBAA 310900Z AUTO 09004KT 19SM 20/M02 A3012 RMK SLP194 T02021022 52001 IEM_DS3505
ZBAA,2006-10-31 10:00,ZBAA 311000Z AUTO 00000KT 6SM 17/01 A3015 RMK T01700010 IEM_DS3505
ZBAA,2006-10-31 11:00,ZBAA 311100Z AUTO 25004KT 6SM 17/02 A3015 RMK T01700020 IEM_DS3505
ZBAA,2006-10-31 12:00,ZBAA 311200Z AUTO 04006KT 9SM 14/05 A3018 RMK SLP217 T01380047 52022 IEM_DS3505
ZBAA,2006-10-31 13:00,ZBAA 311300Z AUTO 12008KT 6SM 15/03 A3021 RMK T01500030 IEM_DS3505
ZBAA,2006-10-31 14:00,ZBAA 311400Z AUTO 10008KT 6SM 13/05 A3021 RMK T01300050 IEM_DS3505
ZBAA,2006-10-31 15:00,ZBAA 311500Z AUTO 07002KT 9SM 12/06 A3024 RMK SLP230 T01170060 52014 IEM_DS3505
ZBAA,2006-10-31 16:00,ZBAA 311600Z AUTO 04002KT 6SM 10/07 A3024 RMK T01000070 IEM_DS3505
ZBAA,2006-10-31 17:00,ZBAA 311700Z AUTO 34004KT 6SM 10/06 A3024 RMK T01000060 IEM_DS3505
ZBAA,2006-10-31 18:00,ZBAA 311800Z AUTO 02002KT 6SM 10/06 A3024 RMK SLP237 T00970061 52007 IEM_DS3505
ZBAA,2006-10-31 19:00,ZBAA 311900Z AUTO 00000KT 6SM 10/06 A3024 RMK T01000060 IEM_DS3505
ZBAA,2006-10-31 20:00,ZBAA 312000Z AUTO 28002KT 6SM 09/06 A3024 RMK T00900060 IEM_DS3505
ZBAA,2006-10-31 21:00,ZBAA 312100Z AUTO 07002KT 9SM 09/06 A3024 RMK SLP233 T00860062 57004 IEM_DS3505
ZBAA,2006-10-31 22:00,ZBAA 312200Z AUTO 34004KT 6SM 07/05 A3024 RMK T00700050 IEM_DS3505
ZBAA,2006-10-31 23:00,ZBAA 312300Z AUTO 34006KT 5SM 08/05 A3024 RMK T00800050 IEM_DS3505
ZBAA,2006-11-01 00:00,ZBAA 010000Z AUTO 09002KT 5SM 10/07 A3024 RMK SLP240 T01010066 52006 IEM_DS3505
ZBAA,2006-11-01 01:00,ZBAA 010100Z AUTO 36004KT 6SM 11/06 A3024 RMK T01100060 IEM_DS3505
ZBAA,2006-11-01 02:00,ZBAA 010200Z AUTO 05002KT 6SM 13/06 A3024 RMK T01300060 IEM_DS3505
ZBAA,2006-11-01 03:00,ZBAA 010300Z AUTO 14004KT 7SM 17/07 A3021 RMK SLP229 T01700068 57010 IEM_DS3505
ZBAA,2006-11-01 04:00,ZBAA 010400Z AUTO 13004KT 6SM 17/08 A3018 RMK T01700080 IEM_DS3505
ZBAA,2006-11-01 05:00,ZBAA 010500Z AUTO 23004KT 6SM 19/07 A3015 RMK T01900070 IEM_DS3505
ZBAA,2006-11-01 06:00,ZBAA 010600Z AUTO 18004KT 12SM 19/06 A3012 RMK SLP197 T01940055 57032 IEM_DS3505
ZBAA,2006-11-01 07:00,ZBAA 010700Z AUTO 17006KT 6SM 19/05 A3009 RMK T01900050 IEM_DS3505
ZBAA,2006-11-01 08:00,ZBAA 010800Z AUTO 18006KT 6SM 19/07 A3009 RMK T01900070 IEM_DS3505
ZBAA,2006-11-01 09:00,ZBAA 010900Z AUTO 20004KT 12SM 18/06 A3009 RMK SLP187 T01770056 57010 IEM_DS3505
ZBAA,2006-11-01 10:00,ZBAA 011000Z AUTO 13002KT 5SM 15/08 A3009 RMK T01500080 IEM_DS3505
ZBAA,2006-11-01 11:00,ZBAA 011100Z AUTO 00000KT 4SM 13/09 A3012 RMK T01300090 IEM_DS3505
ZBAA,2006-11-01 12:00,ZBAA 011200Z AUTO 22002KT 9SM 13/07 A3012 RMK SLP191 T01260071 52003 IEM_DS3505
ZBAA,2006-11-01 13:00,ZBAA 011300Z AUTO 00000KT 3SM 11/08 A3012 RMK T01100080 IEM_DS3505
ZBAA,2006-11-01 14:00,ZBAA 011400Z AUTO 07002KT 3SM 11/08 A3012 RMK T01100080 IEM_DS3505
ZBAA,2006-11-01 15:00,ZBAA 011500Z AUTO 07002KT 12SM 10/07 A3009 RMK SLP189 T00990070 57001 IEM_DS3505
ZBAA,2006-11-01 16:00,ZBAA 011600Z AUTO 03002KT 2 1/2SM 10/08 A3009 RMK T01000080 IEM_DS3505
ZBAA,2006-11-01 17:00,ZBAA 011700Z AUTO 36004KT 2SM 09/08 A3009 RMK T00900080 IEM_DS3505
ZBAA,2006-11-01 18:00,ZBAA 011800Z AUTO 04002KT 9SM 08/06 A3006 RMK SLP179 T00840065 57010 IEM_DS3505
ZBAA,2006-11-01 19:00,ZBAA 011900Z AUTO 36002KT 2 1/2SM 08/06 A3006 RMK T00800060 IEM_DS3505
ZBAA,2006-11-01 20:00,ZBAA 012000Z AUTO 34004KT 2 1/2SM 08/06 A3006 RMK T00800060 IEM_DS3505
ZBAA,2006-11-01 21:00,ZBAA 012100Z AUTO 02002KT 5SM 08/06 A3003 RMK SLP170 T00800061 57009 IEM_DS3505
ZBAA,2006-11-01 22:00,ZBAA 012200Z AUTO 33004KT 3SM 07/06 A3003 RMK T00700060 IEM_DS3505
ZBAA,2006-11-01 23:00,ZBAA 012300Z AUTO 33004KT 2 1/2SM 07/05 A3003 RMK T00700050 IEM_DS3505
ZBAA,2006-11-02 00:00,ZBAA 020000Z AUTO 09002KT 4SM 09/06 A3006 RMK SLP176 T00920063 52005 IEM_DS3505
ZBAA,2006-11-02 01:00,ZBAA 020100Z AUTO 35006KT 4SM 11/07 A3006 RMK T01100070 IEM_DS3505
ZBAA,2006-11-02 02:00,ZBAA 020200Z AUTO 36004KT 6SM 14/05 A3003 RMK T01400050 IEM_DS3505
ZBAA,2006-11-02 03:00,ZBAA 020300Z AUTO 04004KT 6SM 16/05 A3003 RMK SLP165 T01620052 57010 IEM_DS3505
ZBAA,2006-11-02 04:00,ZBAA 020400Z AUTO 09002KT 6SM 17/07 A3000 RMK T01700070 IEM_DS3505
ZBAA,2006-11-02 05:00,ZBAA 020500Z AUTO 14004KT 6SM 19/06 A2997 RMK T01900060 IEM_DS3505
ZBAA,2006-11-02 06:00,ZBAA 020600Z AUTO 22004KT 6SM 21/03 A2994 RMK SLP135 T02080031 57030 IEM_DS3505
ZBAA,2006-11-02 07:00,ZBAA 020700Z AUTO 18006KT 4SM 20/06 A2991 RMK T02000060 IEM_DS3505
ZBAA,2006-11-02 08:00,ZBAA 020800Z AUTO 19006KT 4SM 20/06 A2991 RMK T02000060 IEM_DS3505
ZBAA,2006-11-02 09:00,ZBAA 020900Z AUTO 22004KT 6SM 18/06 A2991 RMK SLP129 T01830059 57006 IEM_DS3505
ZBAA,2006-11-02 10:00,ZBAA 021000Z AUTO 15004KT 3SM 17/06 A2991 RMK T01700060 IEM_DS3505
ZBAA,2006-11-02 11:00,ZBAA 021100Z AUTO 15002KT 3SM 15/07 A2994 RMK T01500070 IEM_DS3505
ZBAA,2006-11-02 12:00,ZBAA 021200Z AUTO 36002KT 6SM 13/08 A2994 RMK SLP135 T01340076 52006 IEM_DS3505
ZBAA,2006-11-02 13:00,ZBAA 021300Z AUTO 3SM 14/08 A2994 RMK T01400080 IEM_DS3505
ZBAA,2006-11-02 14:00,ZBAA 021400Z AUTO 2 1/2SM 12/08 A2994 RMK T01200080 IEM_DS3505
ZBAA,2006-11-02 15:00,ZBAA 021500Z AUTO 35006KT 4SM 10/07 A2994 RMK SLP137 T01030074 52002 IEM_DS3505
ZBAA,2006-11-02 16:00,ZBAA 021600Z AUTO 35004KT 2 1/2SM 10/08 A2994 RMK T01000080 IEM_DS3505
ZBAA,2006-11-02 17:00,ZBAA 021700Z AUTO 33004KT 2 1/2SM 08/07 A2994 RMK T00800070 IEM_DS3505
ZBAA,2006-11-02 18:00,ZBAA 021800Z AUTO 07002KT 2SM 09/07 A2994 RMK SLP137 T00910071 54000 IEM_DS3505
ZBAA,2006-11-02 19:00,ZBAA 021900Z AUTO 33004KT 3SM 09/06 A2994 RMK T00900060 IEM_DS3505
ZBAA,2006-11-02 20:00,ZBAA 022000Z AUTO 34006KT 2 1/2SM 08/05 A2991 RMK T00800050 IEM_DS3505
ZBAA,2006-11-02 21:00,ZBAA 022100Z AUTO 04002KT 4SM 08/05 A2991 RMK SLP129 T00770053 57008 IEM_DS3505
ZBAA,2006-11-02 22:00,ZBAA 022200Z AUTO 32004KT 3SM 07/05 A2991 RMK T00700050 IEM_DS3505
ZBAA,2006-11-02 23:00,ZBAA 022300Z AUTO 34006KT 3SM 07/05 A2991 RMK T00700050 IEM_DS3505
ZBAA,2006-11-03 00:00,ZBAA 030000Z AUTO 22002KT 5SM 10/06 A2991 RMK SLP132 T01000056 52003 IEM_DS3505
ZBAA,2006-11-03 01:00,ZBAA 030100Z AUTO 5SM 12/06 A2994 RMK T01200060 IEM_DS3505
ZBAA,2006-11-03 02:00,ZBAA 030200Z AUTO 13004KT 5SM 14/06 A2991 RMK T01400060 IEM_DS3505
ZBAA,2006-11-03 03:00,ZBAA 030300Z AUTO 27002KT 4SM 17/05 A2991 RMK SLP123 T01690049 57009 IEM_DS3505
ZBAA,2006-11-03 04:00,ZBAA 030400Z AUTO 10004KT 4SM 18/05 A2985 RMK T01800050 IEM_DS3505
ZBAA,2006-11-03 05:00,ZBAA 030500Z AUTO 16004KT 5SM 20/04 A2983 RMK T02000040 IEM_DS3505
ZBAA,2006-11-03 06:00,ZBAA 030600Z AUTO 20006KT 6SM 22/03 A2983 RMK SLP093 T02150027 57030 IEM_DS3505
ZBAA,2006-11-03 07:00,ZBAA 030700Z AUTO 17008KT 4SM 20/04 A2980 RMK T02000040 IEM_DS3505
ZBAA,2006-11-03 08:00,ZBAA 030800Z AUTO 15004KT 4SM 19/06 A2980 RMK T01900060 IEM_DS3505
ZBAA,2006-11-03 09:00,ZBAA 030900Z AUTO 20002G16KT 7SM 19/03 A2980 RMK SLP086 T01930026 57007 IEM_DS3505
ZBAA,2006-11-03 10:00,ZBAA 031000Z AUTO 14002KT 3SM 16/08 A2980 RMK T01600080 IEM_DS3505
ZBAA,2006-11-03 11:00,ZBAA 031100Z AUTO 3SM 16/07 A2980 RMK T01600070 IEM_DS3505
ZBAA,2006-11-03 12:00,ZBAA 031200Z AUTO 18002KT 6SM 16/06 A2980 RMK SLP091 T01560061 52005 IEM_DS3505
ZBAA,2006-11-03 13:00,ZBAA 031300Z AUTO 14004KT 2 1/2SM 14/08 A2983 RMK T01400080 IEM_DS3505
ZBAA,2006-11-03 14:00,ZBAA 031400Z AUTO 14006KT 2 1/2SM 14/08 A2980 RMK T01400080 IEM_DS3505
ZBAA,2006-11-03 15:00,ZBAA 031500Z AUTO 20004KT 6SM 14/05 A2980 RMK SLP086 T01420053 57005 IEM_DS3505
ZBAA,2006-11-03 16:00,ZBAA 031600Z AUTO 30004KT 1 1/4SM 11/08 A2980 RMK T01100080 IEM_DS3505
ZBAA,2006-11-03 17:00,ZBAA 031700Z AUTO 02002KT 1 1/4SM 10/08 A2977 RMK T01000080 IEM_DS3505
ZBAA,2006-11-03 18:00,ZBAA 031800Z AUTO 25002KT 4SM 09/06 A2977 RMK SLP080 T00930057 57006 IEM_DS3505
ZBAA,2006-11-03 19:00,ZBAA 031900Z AUTO 00000KT 1SM 09/08 A2977 RMK T00900080 IEM_DS3505
ZBAA,2006-11-03 20:00,ZBAA 032000Z AUTO 27002KT 1 1/4SM 08/08 A2977 RMK T00800080 IEM_DS3505
ZBAA,2006-11-03 21:00,ZBAA 032100Z AUTO 07002KT 3SM 09/07 A2974 RMK SLP069 T00900068 57011 IEM_DS3505
ZBAA,2006-11-03 22:00,ZBAA 032200Z AUTO 32002KT 1 1/2SM 08/07 A2974 RMK T00800070 IEM_DS3505
ZBAA,2006-11-03 23:00,ZBAA 032300Z AUTO 35002KT 1 1/2SM 08/06 A2974 RMK T00800060 IEM_DS3505
ZBAA,2006-11-04 00:00,ZBAA 040000Z AUTO 34002KT 1 1/4SM 10/07 A2977 RMK SLP076 T00970071 52007 IEM_DS3505
ZBAA,2006-11-04 01:00,ZBAA 040100Z AUTO 35006KT 2SM 11/08 A2977 RMK T01100080 IEM_DS3505
ZBAA,2006-11-04 02:00,ZBAA 040200Z AUTO 27010KT 2 1/2SM 17/05 A2977 RMK T01700050 IEM_DS3505
ZBAA,2006-11-04 03:00,ZBAA 040300Z AUTO 32017G31KT 5SM 19/M00 A2980 RMK SLP084 T01881001 52008 IEM_DS3505
ZBAA,2006-11-04 04:00,ZBAA 040400Z AUTO 29021G33KT 5SM 18/02 A2983 RMK T01800020 IEM_DS3505
ZBAA,2006-11-04 05:00,ZBAA 040500Z AUTO 29019G29KT 6SM 18/M01 A2983 RMK T01801010 IEM_DS3505
ZBAA,2006-11-04 06:00,ZBAA 040600Z AUTO 32014KT 19SM 18/M06 A2983 RMK SLP107 T01821065 4////0080 52023 IEM_DS3505
ZBAA,2006-11-04 07:00,ZBAA 040700Z AUTO 31025G37KT 6SM 17/M04 A2988 RMK T01701040 IEM_DS3505
ZBAA,2006-11-04 08:00,ZBAA 040800Z AUTO 30023KT 6SM 15/M04 A2991 RMK T01501040 IEM_DS3505
ZBAA,2006-11-04 09:00,ZBAA 040900Z AUTO 36008KT 19SM 14/M09 A2994 RMK SLP145 T01371088 52037 IEM_DS3505
ZBAA,2006-11-04 10:00,ZBAA 041000Z AUTO 33014KT 6SM 13/M07 A2997 RMK T01301070 IEM_DS3505
ZBAA,2006-11-04 11:00,ZBAA 041100Z AUTO 32010KT 6SM 12/M08 A3000 RMK T01201080 IEM_DS3505
ZBAA,2006-11-04 12:00,ZBAA 041200Z AUTO 34006KT 19SM 13/M10 A3003 RMK SLP168 T01261098 52023 IEM_DS3505
ZBAA,2006-11-04 13:00,ZBAA 041300Z AUTO 33010KT 6SM 11/M07 A3006 RMK T01101070 IEM_DS3505
ZBAA,2006-11-04 14:00,ZBAA 041400Z AUTO 36006KT 6SM 10/M07 A3006 RMK T01001070 IEM_DS3505
ZBAA,2006-11-04 15:00,ZBAA 041500Z AUTO 02002KT 19SM 10/M09 A3003 RMK SLP170 T00981088 52003 IEM_DS3505
ZBAA,2006-11-04 16:00,ZBAA 041600Z AUTO 24004KT 6SM 09/M05 A3003 RMK T00901050 IEM_DS3505
ZBAA,2006-11-04 17:00,ZBAA 041700Z AUTO 02002KT 6SM 07/M06 A3003 RMK T00701060 IEM_DS3505
ZBAA,2006-11-04 18:00,ZBAA 041800Z AUTO 32008KT 19SM 11/M08 A3003 RMK SLP170 T01131080 54000 IEM_DS3505
ZBAA,2006-11-04 19:00,ZBAA 041900Z AUTO 24008KT 6SM 08/M05 A3003 RMK T00801050 IEM_DS3505
ZBAA,2006-11-04 20:00,ZBAA 042000Z AUTO 27012KT 6SM 09/M09 A3003 RMK T00901090 IEM_DS3505
ZBAA,2006-11-04 21:00,ZBAA 042100Z AUTO 36002KT 19SM 09/M12 A3003 RMK SLP174 T00901116 52003 IEM_DS3505
ZBAA,2006-11-04 22:00,ZBAA 042200Z AUTO 27008KT 6SM 08/M09 A3003 RMK T00801090 IEM_DS3505
ZBAA,2006-11-04 23:00,ZBAA 042300Z AUTO 30008KT 6SM 08/M10 A3003 RMK T00801100 IEM_DS3505
ZBAA,2006-11-05 00:00,ZBAA 050000Z AUTO 32008KT 19SM 10/M11 A3006 RMK SLP179 T00951106 52005 IEM_DS3505
ZBAA,2006-11-05 01:00,ZBAA 050100Z AUTO 27017KT 6SM 10/M08 A3006 RMK T01001080 IEM_DS3505
ZBAA,2006-11-05 02:00,ZBAA 050200Z AUTO 28021G35KT 6SM 10/M13 A3006 RMK T01001130 IEM_DS3505
ZBAA,2006-11-05 03:00,ZBAA 050300Z AUTO 29019G33KT 19SM 11/M17 A3006 RMK SLP177 T01071166 57002 IEM_DS3505
ZBAA,2006-11-05 04:00,ZBAA 050400Z AUTO 28019G35KT 6SM 10/M21 A3006 RMK T01001210 IEM_DS3505
ZBAA,2006-11-05 05:00,ZBAA 050500Z AUTO 30019G35KT 6SM 11/M20 A3003 RMK T01101200 IEM_DS3505
ZBAA,2006-11-05 06:00,ZBAA 050600Z AUTO 34010G39KT 19SM 10/M20 A3003 RMK SLP170 T01031200 57007 IEM_DS3505
ZBAA,2006-11-05 07:00,ZBAA 050700Z AUTO 29023G35KT 6SM 09/M22 A3003 RMK T00901220 IEM_DS3505
ZBAA,2006-11-05 08:00,ZBAA 050800Z AUTO 28019G33KT 6SM 08/M23 A3006 RMK T00801230 IEM_DS3505
ZBAA,2006-11-05 09:00,ZBAA 050900Z AUTO 32012KT 19SM 07/M25 A3009 RMK SLP190 T00741248 52020 IEM_DS3505
ZBAA,2006-11-05 10:00,ZBAA 051000Z AUTO 30019KT 6SM 06/M23 A3012 RMK T00601230 IEM_DS3505
ZBAA,2006-11-05 11:00,ZBAA 051100Z AUTO 31014KT 6SM 05/M23 A3015 RMK T00501230 IEM_DS3505
ZBAA,2006-11-05 12:00,ZBAA 051200Z AUTO 32010KT 16SM 06/M24 A3015 RMK SLP207 T00561237 52017 IEM_DS3505
ZBAA,2006-11-05 13:00,ZBAA 051300Z AUTO 33010KT 6SM 04/M22 A3015 RMK T00401220 IEM_DS3505
ZBAA,2006-11-05 14:00,ZBAA 051400Z AUTO 34012KT 6SM 03/M22 A3018 RMK T00301220 IEM_DS3505
ZBAA,2006-11-05 15:00,ZBAA 051500Z AUTO 32012KT 16SM 05/M26 A3018 RMK SLP210 T00481255 52003 IEM_DS3505
ZBAA,2006-11-05 16:00,ZBAA 051600Z AUTO 34006KT 6SM 01/M21 A3018 RMK T00101210 IEM_DS3505
ZBAA,2006-11-05 17:00,ZBAA 051700Z AUTO 30008KT 6SM 01/M21 A3015 RMK T00101210 IEM_DS3505
ZBAA,2006-11-05 18:00,ZBAA 051800Z AUTO 34008KT 16SM 04/M25 A3015 RMK SLP208 T00351253 57002 IEM_DS3505
ZBAA,2006-11-05 19:00,ZBAA 051900Z AUTO 27004KT 6SM 01/M20 A3015 RMK T00101200 IEM_DS3505
ZBAA,2006-11-05 20:00,ZBAA 052000Z AUTO 26004KT 6SM 00/M19 A3012 RMK T00001190 IEM_DS3505
ZBAA,2006-11-05 21:00,ZBAA 052100Z AUTO 32008KT 19SM 04/M25 A3012 RMK SLP201 T00361252 57008 IEM_DS3505
ZBAA,2006-11-05 22:00,ZBAA 052200Z AUTO 29006KT 6SM 02/M22 A3012 RMK T00201220 IEM_DS3505
ZBAA,2006-11-05 23:00,ZBAA 052300Z AUTO 29010KT 6SM 02/M22 A3012 RMK T00201220 IEM_DS3505
ZBAA,2006-11-06 00:00,ZBAA 060000Z AUTO 32010KT 19SM 04/M24 A3018 RMK SLP217 T00421237 52016 IEM_DS3505
ZBAA,2006-11-06 01:00,ZBAA 060100Z AUTO 32019G29KT 6SM 04/M22 A3018 RMK T00401220 IEM_DS3505
ZBAA,2006-11-06 02:00,ZBAA 060200Z AUTO 33021G33KT 6SM 05/M21 A3018 RMK T00501210 IEM_DS3505
ZBAA,2006-11-06 03:00,ZBAA 060300Z AUTO 34010G31KT 19SM 05/M23 A3021 RMK SLP228 T00541228 52011 IEM_DS3505
ZBAA,2006-11-06 04:00,ZBAA 060400Z AUTO 31016KT 6SM 07/M20 A3018 RMK T00701200 IEM_DS3505
ZBAA,2006-11-06 05:00,ZBAA 060500Z AUTO 31017G27KT 6SM 07/M21 A3018 RMK T00701210 IEM_DS3505
ZBAA,2006-11-06 06:00,ZBAA 060600Z AUTO 32010G29KT 19SM 08/M22 A3018 RMK SLP218 T00811217 57010 IEM_DS3505
ZBAA,2006-11-06 07:00,ZBAA 060700Z AUTO 34016KT 6SM 08/M22 A3018 RMK T00801220 IEM_DS3505
ZBAA,2006-11-06 08:00,ZBAA 060800Z AUTO 34017KT 6SM 08/M21 A3018 RMK T00801210 IEM_DS3505
ZBAA,2006-11-06 09:00,ZBAA 060900Z AUTO 36004KT 19SM 09/M22 A3018 RMK SLP215 T00861225 57003 IEM_DS3505
ZBAA,2006-11-06 10:00,ZBAA 061000Z AUTO 36008KT 6SM 06/M19 A3018 RMK T00601190 IEM_DS3505
ZBAA,2006-11-06 11:00,ZBAA 061100Z AUTO 16006KT 6SM 04/M17 A3021 RMK T00401170 IEM_DS3505
ZBAA,2006-11-06 12:00,ZBAA 061200Z AUTO 16004KT 16SM 05/M18 A3021 RMK SLP232 T00501180 52017 IEM_DS3505
ZBAA,2006-11-06 13:00,ZBAA 061300Z AUTO 20004KT 6SM 04/M17 A3021 RMK T00401170 IEM_DS3505
ZBAA,2006-11-06 14:00,ZBAA 061400Z AUTO 18008KT 6SM 02/M14 A3021 RMK T00201140 IEM_DS3505
ZBAA,2006-11-06 15:00,ZBAA 061500Z AUTO 25006KT 16SM 04/M19 A3018 RMK SLP225 T00411188 57007 IEM_DS3505
ZBAA,2006-11-06 16:00,ZBAA 061600Z AUTO 14004KT 6SM 02/M12 A3018 RMK T00201120 IEM_DS3505
ZBAA,2006-11-06 17:00,ZBAA 061700Z AUTO 04002KT 6SM 01/M12 A3015 RMK T00101120 IEM_DS3505
ZBAA,2006-11-06 18:00,ZBAA 061800Z AUTO 25012KT 16SM 04/M19 A3015 RMK SLP207 T00441192 57017 IEM_DS3505
ZBAA,2006-11-06 19:00,ZBAA 061900Z AUTO 06004KT 6SM 01/M12 A3015 RMK T00101120 IEM_DS3505
ZBAA,2006-11-06 20:00,ZBAA 062000Z AUTO 02002KT 6SM 00/M11 A3012 RMK T00001110 IEM_DS3505
ZBAA,2006-11-06 21:00,ZBAA 062100Z AUTO 22010KT 12SM 03/M18 A3009 RMK SLP189 T00331181 57018 IEM_DS3505
ZBAA,2006-11-06 22:00,ZBAA 062200Z AUTO 03004KT 6SM 00/M11 A3009 RMK T00001110 IEM_DS3505
ZBAA,2006-11-06 23:00,ZBAA 062300Z AUTO 07004KT 5SM M01/M11 A3009 RMK T10101110 IEM_DS3505
ZBAA,2006-11-07 00:00,ZBAA 070000Z AUTO 27004KT 7SM 03/M14 A3009 RMK SLP187 T00331144 57003 IEM_DS3505
ZBAA,2006-11-07 01:00,ZBAA 070100Z AUTO 04004KT 5SM 02/M11 A3009 RMK T00201110 IEM_DS3505
ZBAA,2006-11-07 02:00,ZBAA 070200Z AUTO 03004KT 5SM 05/M11 A3006 RMK T00501110 IEM_DS3505
ZBAA,2006-11-07 03:00,ZBAA 070300Z AUTO 22004KT 7SM 10/M12 A3003 RMK SLP168 T00971122 57018 IEM_DS3505
ZBAA,2006-11-07 04:00,ZBAA 070400Z AUTO 11002KT 5SM 09/M11 A3000 RMK T00901110 IEM_DS3505
ZBAA,2006-11-07 05:00,ZBAA 070500Z AUTO 18006KT 5SM 13/M08 A2994 RMK T01301080 IEM_DS3505
ZBAA,2006-11-07 06:00,ZBAA 070600Z AUTO 22006KT 8SM 17/M08 A2988 RMK SLP123 T01661078 57045 IEM_DS3505
ZBAA,2006-11-07 07:00,ZBAA 070700Z AUTO 18006KT 5SM 16/M06 A2988 RMK T01601060 IEM_DS3505
ZBAA,2006-11-07 08:00,ZBAA 070800Z AUTO 19006KT 5SM 16/M04 A2985 RMK T01601040 IEM_DS3505
ZBAA,2006-11-07 09:00,ZBAA 070900Z AUTO 22004KT 7SM 15/M04 A2985 RMK SLP107 T01501043 57016 IEM_DS3505
ZBAA,2006-11-07 10:00,ZBAA 071000Z AUTO 18006KT 4SM 11/M03 A2985 RMK T01101030 IEM_DS3505
ZBAA,2006-11-07 11:00,ZBAA 071100Z AUTO 09004KT 4SM 12/M02 A2985 RMK T01201020 IEM_DS3505
ZBAA,2006-11-07 12:00,ZBAA 071200Z AUTO 20004KT 7SM 12/M03 A2983 RMK SLP099 T01171032 57008 IEM_DS3505
ZBAA,2006-11-07 13:00,ZBAA 071300Z AUTO 05006KT 2 1/2SM 08/M01 A2983 RMK T00801010 IEM_DS3505
ZBAA,2006-11-07 14:00,ZBAA 071400Z AUTO 07004KT 2 1/2SM 08/M01 A2983 RMK T00801010 IEM_DS3505
ZBAA,2006-11-07 15:00,ZBAA 071500Z AUTO 27004KT 7SM 10/M02 A2980 RMK SLP092 T01031020 57007 IEM_DS3505
ZBAA,2006-11-07 16:00,ZBAA 071600Z AUTO 36004KT 2SM 05/M02 A2980 RMK T00501020 IEM_DS3505
ZBAA,2006-11-07 17:00,ZBAA 071700Z AUTO 35004KT 2 1/2SM 05/M02 A2980 RMK T00501020 IEM_DS3505
ZBAA,2006-11-07 18:00,ZBAA 071800Z AUTO 09002KT 5SM 05/M01 A2980 RMK SLP082 T00541006 57009 IEM_DS3505
ZBAA,2006-11-07 19:00,ZBAA 071900Z AUTO 35004KT 2 1/2SM 04/M02 A2977 RMK T00401020 IEM_DS3505
ZBAA,2006-11-07 20:00,ZBAA 072000Z AUTO 34004KT 2 1/2SM 04/M02 A2977 RMK T00401020 IEM_DS3505
ZBAA,2006-11-07 21:00,ZBAA 072100Z AUTO 07002KT 4SM 06/M01 A2977 RMK SLP071 T00571008 57011 IEM_DS3505
ZBAA,2006-11-07 22:00,ZBAA 072200Z AUTO 34004KT 3SM 04/M01 A2977 RMK T00401010 IEM_DS3505
ZBAA,2006-11-07 23:00,ZBAA 072300Z AUTO 34004KT 3SM 04/M02 A2977 RMK T00401020 IEM_DS3505
ZBAA,2006-11-08 00:00,ZBAA 080000Z AUTO 04002KT 4SM 07/M01 A2983 RMK SLP089 T00671007 52017 IEM_DS3505
ZBAA,2006-11-08 01:00,ZBAA 080100Z AUTO 34006KT 3SM 08/00 A2983 RMK T00800000 IEM_DS3505
ZBAA,2006-11-08 02:00,ZBAA 080200Z AUTO 33006KT 3SM 13/M02 A2985 RMK T01301020 IEM_DS3505
ZBAA,2006-11-08 03:00,ZBAA 080300Z AUTO 34008KT 12SM 19/M08 A2985 RMK SLP104 T01921080 52016 IEM_DS3505
ZBAA,2006-11-08 04:00,ZBAA 080400Z AUTO 32012G21KT 6SM 19/M08 A2985 RMK T01901080 IEM_DS3505
ZBAA,2006-11-08 05:00,ZBAA 080500Z AUTO 29012KT 6SM 20/M07 A2983 RMK T02001070 IEM_DS3505
ZBAA,2006-11-08 06:00,ZBAA 080600Z AUTO 32010G27KT 19SM 20/M11 A2983 RMK SLP102 T01951106 57002 IEM_DS3505
ZBAA,2006-11-08 07:00,ZBAA 080700Z AUTO 27017KT 6SM 19/M08 A2985 RMK T01901080 IEM_DS3505
ZBAA,2006-11-08 08:00,ZBAA 080800Z AUTO 28016KT 6SM 18/M09 A2985 RMK T01801090 IEM_DS3505
ZBAA,2006-11-08 09:00,ZBAA 080900Z AUTO 34004KT 19SM 17/M10 A2988 RMK SLP120 T01741104 52018 IEM_DS3505
ZBAA,2006-11-08 10:00,ZBAA 081000Z AUTO 29014KT 6SM 16/M09 A2991 RMK T01601090 IEM_DS3505
ZBAA,2006-11-08 11:00,ZBAA 081100Z AUTO 33008KT 6SM 15/M09 A2997 RMK T01501090 IEM_DS3505
ZBAA,2006-11-08 12:00,ZBAA 081200Z AUTO 36008KT 19SM 16/M11 A3000 RMK SLP146 T01551110 52025 IEM_DS3505
ZBAA,2006-11-08 13:00,ZBAA 081300Z AUTO 35008KT 6SM 10/M08 A3000 RMK T01001080 IEM_DS3505
ZBAA,2006-11-08 14:00,ZBAA 081400Z AUTO 36010KT 6SM 12/M10 A3003 RMK T01201100 IEM_DS3505
ZBAA,2006-11-08 15:00,ZBAA 081500Z AUTO 34012KT 19SM 14/M10 A3003 RMK SLP161 T01401099 52016 IEM_DS3505
ZBAA,2006-11-08 16:00,ZBAA 081600Z AUTO 32006KT 6SM 10/M11 A3006 RMK T01001110 IEM_DS3505
ZBAA,2006-11-08 17:00,ZBAA 081700Z AUTO 34008KT 6SM 08/M07 A3006 RMK T00801070 IEM_DS3505
ZBAA,2006-11-08 18:00,ZBAA 081800Z AUTO 36006KT 19SM 13/M10 A3006 RMK SLP173 T01261098 52012 IEM_DS3505
ZBAA,2006-11-08 19:00,ZBAA 081900Z AUTO 35006KT 6SM A3006 RMK IEM_DS3505
ZBAA,2006-11-08 20:00,ZBAA 082000Z AUTO 01010KT 6SM 09/M08 A3006 RMK T00901080 IEM_DS3505
ZBAA,2006-11-08 21:00,ZBAA 082100Z AUTO 09006KT 19SM 07/M11 A3009 RMK SLP191 T00741109 52017 IEM_DS3505
ZBAA,2006-11-08 22:00,ZBAA 082200Z AUTO 14008KT 6SM 05/01 A3012 RMK T00500010 IEM_DS3505
ZBAA,2006-11-08 23:00,ZBAA 082300Z AUTO 14008KT 5SM 04/00 A3015 RMK T00400000 IEM_DS3505
ZBAA,2006-11-09 00:00,ZBAA 090000Z AUTO 09002KT 16SM 06/01 A3018 RMK SLP217 T00590007 52026 IEM_DS3505
ZBAA,2006-11-09 01:00,ZBAA 090100Z AUTO 05004KT 6SM 06/00 A3021 RMK T00600000 IEM_DS3505
ZBAA,2006-11-09 02:00,ZBAA 090200Z AUTO 09006KT 6SM 07/00 A3021 RMK T00700000 IEM_DS3505
ZBAA,2006-11-09 03:00,ZBAA 090300Z AUTO 07006KT 16SM 09/02 A3021 RMK SLP222 T00900017 52005 IEM_DS3505
ZBAA,2006-11-09 04:00,ZBAA 090400Z AUTO 12004KT 6SM 10/01 A3018 RMK T01000010 IEM_DS3505
ZBAA,2006-11-09 05:00,ZBAA 090500Z AUTO 14004KT 6SM 11/02 A3015 RMK T01100020 IEM_DS3505
ZBAA,2006-11-09 06:00,ZBAA 090600Z AUTO 14004KT 16SM 13/04 A3015 RMK SLP204 T01300037 57018 IEM_DS3505
ZBAA,2006-11-09 07:00,ZBAA 090700Z AUTO 15006KT 6SM 12/04 A3015 RMK T01200040 IEM_DS3505
ZBAA,2006-11-09 08:00,ZBAA 090800Z AUTO 10006KT 6SM 12/04 A3015 RMK T01200040 IEM_DS3505
ZBAA,2006-11-09 09:00,ZBAA 090900Z AUTO 11004KT 9SM 11/03 A3018 RMK SLP212 T01130031 52008 IEM_DS3505
ZBAA,2006-11-09 10:00,ZBAA 091000Z AUTO 08004KT 5SM 10/03 A3018 RMK T01000030 IEM_DS3505
ZBAA,2006-11-09 11:00,ZBAA 091100Z AUTO 10008KT 5SM 09/03 A3021 RMK T00900030 IEM_DS3505
ZBAA,2006-11-09 12:00,ZBAA 091200Z AUTO 09008KT 9SM 08/02 A3024 RMK SLP239 T00790019 52026 IEM_DS3505
ZBAA,2006-11-09 13:00,ZBAA 091300Z AUTO 12012KT 6SM 06/01 A3027 RMK T00600010 IEM_DS3505
ZBAA,2006-11-09 14:00,ZBAA 091400Z AUTO 15008KT 6SM 06/01 A3030 RMK T00600010 IEM_DS3505
ZBAA,2006-11-09 15:00,ZBAA 091500Z AUTO 09006KT 9SM 05/00 A3030 RMK SLP261 T00520000 52022 IEM_DS3505
ZBAA,2006-11-09 16:00,ZBAA 091600Z AUTO 15002KT 7SM 06/01 A3030 RMK T00600010 IEM_DS3505
ZBAA,2006-11-09 17:00,ZBAA 091700Z AUTO 05006KT 7SM 05/00 A3030 RMK T00500000 IEM_DS3505
ZBAA,2006-11-09 18:00,ZBAA 091800Z AUTO 07004KT 12SM 06/M00 A3030 RMK SLP257 T00571004 57003 IEM_DS3505
ZBAA,2006-11-09 19:00,ZBAA 091900Z AUTO 7SM 05/00 A3030 RMK T00500000 IEM_DS3505
ZBAA,2006-11-09 20:00,ZBAA 092000Z AUTO 02004KT 7SM 05/00 A3027 RMK T00500000 IEM_DS3505
ZBAA,2006-11-09 21:00,ZBAA 092100Z AUTO 07006KT 6SM 06/M01 A3027 RMK 70000 SLP249 T00581007 57008 IEM_DS3505
ZBAA,2006-11-09 22:00,ZBAA 092200Z AUTO 12002KT 7SM 05/00 A3027 RMK T00500000 IEM_DS3505
ZBAA,2006-11-09 23:00,ZBAA 092300Z AUTO 06002KT 7SM 05/00 A3030 RMK T00500000 IEM_DS3505
ZBAA,2006-11-10 00:00,ZBAA 100000Z AUTO 02002KT 5SM 05/02 A3033 RMK 60004 70006 SLP263 T00480018 52013 IEM_DS3505
ZBAA,2006-11-10 01:00,ZBAA 100100Z AUTO 03002KT 7SM 06/M05 A3033 RMK T00601050 IEM_DS3505
ZBAA,2006-11-10 02:00,ZBAA 100200Z AUTO 35004KT 7SM 07/M06 A3030 RMK T00701060 IEM_DS3505
ZBAA,2006-11-10 03:00,ZBAA 100300Z AUTO 04004KT 7SM 08/M00 A3030 RMK SLP257 T00771005 57006 IEM_DS3505
ZBAA,2006-11-10 04:00,ZBAA 100400Z AUTO 03002KT 6SM 10/M01 A3027 RMK T01001010 IEM_DS3505
ZBAA,2006-11-10 05:00,ZBAA 100500Z AUTO 03004KT 6SM 10/M03 A3024 RMK T01001030 IEM_DS3505
ZBAA,2006-11-10 06:00,ZBAA 100600Z AUTO 16004KT 9SM 12/00 A3021 RMK 60001 SLP230 T01150000 57026 IEM_DS3505
ZBAA,2006-11-10 07:00,ZBAA 100700Z AUTO 05008KT 6SM 11/M07 A3021 RMK T01101070 IEM_DS3505
ZBAA,2006-11-10 08:00,ZBAA 100800Z AUTO 07004KT 6SM 11/M10 A3021 RMK T01101100 IEM_DS3505
ZBAA,2006-11-10 09:00,ZBAA 100900Z AUTO 25006KT 9SM 09/ A3024 RMK SLP237 52007 IEM_DS3505
ZBAA,2006-11-10 10:00,ZBAA 101000Z AUTO 13002KT 6SM 08/M09 A3027 RMK T00801090 IEM_DS3505
ZBAA,2006-11-10 11:00,ZBAA 101100Z AUTO 15004KT 6SM 06/M06 A3030 RMK T00601060 IEM_DS3505
ZBAA,2006-11-10 12:00,ZBAA 101200Z AUTO 14002KT 8SM 04/02 A3030 RMK SLP260 T00430015 52022 IEM_DS3505
ZBAA,2006-11-10 13:00,ZBAA 101300Z AUTO 6SM 04/M03 A3033 RMK T00401030 IEM_DS3505
ZBAA,2006-11-10 14:00,ZBAA 101400Z AUTO 31010KT 6SM 08/ A3033 RMK IEM_DS3505
ZBAA,2006-11-10 15:00,ZBAA 101500Z AUTO 34002KT 5SM 02/M00 A3033 RMK SLP270 T00211003 52010 IEM_DS3505
ZBAA,2006-11-10 16:00,ZBAA 101600Z AUTO 01006KT 6SM 06/ A3036 RMK IEM_DS3505
ZBAA,2006-11-10 17:00,ZBAA 101700Z AUTO 18002KT 6SM 03/M17 A3036 RMK T00301170 IEM_DS3505
ZBAA,2006-11-10 18:00,ZBAA 101800Z AUTO 11004KT 7SM 01/M09 A3036 RMK SLP278 T00141092 52008 IEM_DS3505
ZBAA,2006-11-10 19:00,ZBAA 101900Z AUTO 02010KT 6SM 05/M17 A3036 RMK T00501170 IEM_DS3505
ZBAA,2006-11-10 20:00,ZBAA 102000Z AUTO 01004KT 6SM 03/M15 A3036 RMK T00301150 IEM_DS3505
ZBAA,2006-11-10 21:00,ZBAA 102100Z AUTO 09002KT 9SM 02/M14 A3036 RMK 70007 SLP273 T00201142 57005 IEM_DS3505
ZBAA,2006-11-10 22:00,ZBAA 102200Z AUTO 34006KT 6SM 00/M13 A3036 RMK T00001130 IEM_DS3505
ZBAA,2006-11-10 23:00,ZBAA 102300Z AUTO 34006KT 6SM M01/M12 A3036 RMK T10101120 IEM_DS3505
ZBAA,2006-11-11 00:00,ZBAA 110000Z AUTO 34006KT 7SM 03/M08 A3039 RMK 70001 SLP288 T00271080 52015 IEM_DS3505
ZBAA,2006-11-11 01:00,ZBAA 110100Z AUTO 35004KT 6SM 05/M14 A3039 RMK T00501140 IEM_DS3505
ZBAA,2006-11-11 02:00,ZBAA 110200Z AUTO 04002KT 6SM 07/M16 A3036 RMK T00701160 IEM_DS3505
ZBAA,2006-11-11 03:00,ZBAA 110300Z AUTO 25006KT 9SM 09/ A3036 RMK SLP277 57011 IEM_DS3505
ZBAA,2006-11-11 04:00,ZBAA 110400Z AUTO 11004KT 6SM 10/M16 A3033 RMK T01001160 IEM_DS3505
ZBAA,2006-11-11 05:00,ZBAA 110500Z AUTO 17006KT 6SM 12/M13 A3027 RMK T01201130 IEM_DS3505
ZBAA,2006-11-11 06:00,ZBAA 110600Z AUTO 22006KT 12SM 12/M07 A3024 RMK SLP241 T01171067 57036 IEM_DS3505
ZBAA,2006-11-11 07:00,ZBAA 110700Z AUTO 19006G16KT 6SM 12/M01 A3024 RMK T01201010 IEM_DS3505
ZBAA,2006-11-11 08:00,ZBAA 110800Z AUTO 19008KT 6SM 12/M05 A3021 RMK T01201050 IEM_DS3505
ZBAA,2006-11-11 09:00,ZBAA 110900Z AUTO 22004KT 9SM 10/M03 A3021 RMK SLP233 T00971026 57008 IEM_DS3505
ZBAA,2006-11-11 10:00,ZBAA 111000Z AUTO 15004KT 6SM 08/M03 A3024 RMK T00801030 IEM_DS3505
ZBAA,2006-11-11 11:00,ZBAA 111100Z AUTO 15002KT 6SM 07/M02 A3024 RMK T00701020 IEM_DS3505
ZBAA,2006-11-11 12:00,ZBAA 111200Z AUTO 22002KT 7SM 06/M02 A3024 RMK SLP236 T00601016 52003 IEM_DS3505
ZBAA,2006-11-11 13:00,ZBAA 111300Z AUTO 00000KT 6SM 05/M01 A3024 RMK T00501010 IEM_DS3505
ZBAA,2006-11-11 14:00,ZBAA 111400Z AUTO 13002KT 6SM 05/M02 A3021 RMK T00501020 IEM_DS3505
ZBAA,2006-11-11 15:00,ZBAA 111500Z AUTO 11002KT 7SM 05/M01 A3021 RMK SLP228 T00521013 57007 IEM_DS3505
ZBAA,2006-11-11 16:00,ZBAA 111600Z AUTO 04004KT 6SM 04/M04 A3021 RMK T00401040 IEM_DS3505
ZBAA,2006-11-11 17:00,ZBAA 111700Z AUTO 36002KT 6SM 04/M03 A3018 RMK T00401030 IEM_DS3505
ZBAA,2006-11-11 18:00,ZBAA 111800Z AUTO 34002KT 4SM 03/M00 A3015 RMK SLP208 T00301005 57020 IEM_DS3505
ZBAA,2006-11-11 19:00,ZBAA 111900Z AUTO 34004KT 6SM 02/M05 A3012 RMK T00201050 IEM_DS3505
ZBAA,2006-11-11 20:00,ZBAA 112000Z AUTO 34002KT 6SM 02/M06 A3012 RMK T00201060 IEM_DS3505
ZBAA,2006-11-11 21:00,ZBAA 112100Z AUTO 04002KT 4SM 02/M03 A3012 RMK SLP191 T00201027 57017 IEM_DS3505
ZBAA,2006-11-11 22:00,ZBAA 112200Z AUTO 33004KT 6SM 01/M05 A3009 RMK T00101050 IEM_DS3505
ZBAA,2006-11-11 23:00,ZBAA 112300Z AUTO 34006KT 4SM 02/M04 A3009 RMK T00201040 IEM_DS3505
ZBAA,2006-11-12 00:00,ZBAA 120000Z AUTO 07002KT 4SM 02/M03 A3009 RMK SLP187 T00221029 57005 IEM_DS3505
ZBAA,2006-11-12 01:00,ZBAA 120100Z AUTO 01004KT 3SM 04/M03 A3009 RMK T00401030 IEM_DS3505
ZBAA,2006-11-12 02:00,ZBAA 120200Z AUTO 05002KT 2 1/2SM 05/M02 A3006 RMK T00501020 IEM_DS3505
ZBAA,2006-11-12 03:00,ZBAA 120300Z AUTO 09004KT 5SM 09/M02 A3003 RMK SLP167 T00861018 57019 IEM_DS3505
ZBAA,2006-11-12 04:00,ZBAA 120400Z AUTO 12002KT 2SM 10/01 A3000 RMK T01000010 IEM_DS3505
ZBAA,2006-11-12 05:00,ZBAA 120500Z AUTO 12002KT 2SM 11/01 A2994 RMK T01100010 IEM_DS3505
ZBAA,2006-11-12 06:00,ZBAA 120600Z AUTO 18004KT 4SM 12/01 A2991 RMK SLP129 T01210011 57038 IEM_DS3505
ZBAA,2006-11-12 07:00,ZBAA 120700Z AUTO 16006KT 2SM 12/00 A2991 RMK T01200000 IEM_DS3505
ZBAA,2006-11-12 08:00,ZBAA 120800Z AUTO 16006KT 1 1/2SM 11/01 A2988 RMK T01100010 IEM_DS3505
ZBAA,2006-11-12 09:00,ZBAA 120900Z AUTO 22002KT 3SM 10/01 A2988 RMK SLP122 T01020011 57007 IEM_DS3505
ZBAA,2006-11-12 10:00,ZBAA 121000Z AUTO 07002KT 1 1/2SM 09/01 A2991 RMK T00900010 IEM_DS3505
ZBAA,2006-11-12 11:00,ZBAA 121100Z AUTO 05002KT 1 1/4SM 08/01 A2991 RMK T00800010 IEM_DS3505
ZBAA,2006-11-12 12:00,ZBAA 121200Z AUTO 07002KT 2SM 07/02 A2991 RMK SLP128 T00670020 52006 IEM_DS3505
ZBAA,2006-11-12 13:00,ZBAA 121300Z AUTO 35008KT 1 1/4SM 06/02 A2994 RMK T00600020 IEM_DS3505
ZBAA,2006-11-12 14:00,ZBAA 121400Z AUTO 35006KT 1 1/4SM 06/01 A2994 RMK T00600010 IEM_DS3505
ZBAA,2006-11-12 15:00,ZBAA 121500Z AUTO 07002KT 3SM 06/02 A2997 RMK SLP144 T00570016 52016 IEM_DS3505
ZBAA,2006-11-12 16:00,ZBAA 121600Z AUTO 36010KT 2SM 08/02 A2997 RMK T00800020 IEM_DS3505
ZBAA,2006-11-12 17:00,ZBAA 121700Z AUTO 35010KT 2 1/2SM 07/01 A3000 RMK T00700010 IEM_DS3505
ZBAA,2006-11-12 18:00,ZBAA 121800Z AUTO 02008KT 6SM 11/M06 A3003 RMK SLP165 T01111063 52021 IEM_DS3505
ZBAA,2006-11-12 19:00,ZBAA 121900Z AUTO 35006KT 6SM 08/M03 A3006 RMK T00801030 IEM_DS3505
ZBAA,2006-11-12 20:00,ZBAA 122000Z AUTO 03006KT 6SM 09/M03 A3009 RMK T00901030 IEM_DS3505
ZBAA,2006-11-12 21:00,ZBAA 122100Z AUTO 04006KT 19SM 09/M05 A3012 RMK SLP190 T00911048 52025 IEM_DS3505
ZBAA,2006-11-12 22:00,ZBAA 122200Z AUTO 02010KT 6SM 08/M04 A3015 RMK T00801040 IEM_DS3505
ZBAA,2006-11-12 23:00,ZBAA 122300Z AUTO 04006KT 6SM 08/M06 A3018 RMK T00801060 IEM_DS3505
ZBAA,2006-11-13 00:00,ZBAA 130000Z AUTO 04004KT 19SM 09/M06 A3021 RMK SLP224 T00901060 52034 IEM_DS3505
ZBAA,2006-11-13 01:00,ZBAA 130100Z AUTO 35010KT 6SM 10/M07 A3024 RMK T01001070 IEM_DS3505
ZBAA,2006-11-13 02:00,ZBAA 130200Z AUTO 32008KT 6SM 12/M07 A3024 RMK T01201070 IEM_DS3505
ZBAA,2006-11-13 03:00,ZBAA 130300Z AUTO 34010KT 19SM 13/M10 A3024 RMK SLP236 T01271097 52012 IEM_DS3505
ZBAA,2006-11-13 04:00,ZBAA 130400Z AUTO 32012KT 6SM 13/M08 A3021 RMK T01301080 IEM_DS3505
ZBAA,2006-11-13 05:00,ZBAA 130500Z AUTO 32010KT 6SM 13/M09 A3021 RMK T01301090 IEM_DS3505
ZBAA,2006-11-13 06:00,ZBAA 130600Z AUTO 02010KT 19SM 13/M11 A3018 RMK SLP223 T01301108 57013 IEM_DS3505
ZBAA,2006-11-13 07:00,ZBAA 130700Z AUTO 29012KT 6SM 14/M09 A3018 RMK T01401090 IEM_DS3505
ZBAA,2006-11-13 08:00,ZBAA 130800Z AUTO 04004KT 6SM 13/M08 A3018 RMK T01301080 IEM_DS3505
ZBAA,2006-11-13 09:00,ZBAA 130900Z AUTO 14002KT 19SM 12/M09 A3018 RMK SLP222 T01191091 57001 IEM_DS3505
ZBAA,2006-11-13 10:00,ZBAA 131000Z AUTO 35008KT 6SM 10/M07 A3024 RMK T01001070 IEM_DS3505
ZBAA,2006-11-13 11:00,ZBAA 131100Z AUTO 30012KT 6SM 10/M07 A3024 RMK T01001070 IEM_DS3505
ZBAA,2006-11-13 12:00,ZBAA 131200Z AUTO 34004KT 19SM 10/M10 A3027 RMK SLP249 T01021100 52027 IEM_DS3505
ZBAA,2006-11-13 13:00,ZBAA 131300Z AUTO 32014KT 6SM 09/M12 A3030 RMK T00901120 IEM_DS3505
ZBAA,2006-11-13 14:00,ZBAA 131400Z AUTO 34017KT 6SM 08/M13 A3033 RMK T00801130 IEM_DS3505
ZBAA,2006-11-13 15:00,ZBAA 131500Z AUTO 34004G33KT 19SM 08/M14 A3033 RMK SLP270 T00801136 52021 IEM_DS3505
ZBAA,2006-11-13 16:00,ZBAA 131600Z AUTO 31016KT 6SM 07/M13 A3036 RMK T00701130 IEM_DS3505
ZBAA,2006-11-13 17:00,ZBAA 131700Z AUTO 32014KT 6SM 06/M13 A3036 RMK T00601130 IEM_DS3505
ZBAA,2006-11-13 18:00,ZBAA 131800Z AUTO 36004KT 19SM 06/M13 A3036 RMK SLP274 T00561129 52004 IEM_DS3505
ZBAA,2006-11-13 19:00,ZBAA 131900Z AUTO 31012KT 6SM 05/M13 A3036 RMK T00501130 IEM_DS3505
ZBAA,2006-11-13 20:00,ZBAA 132000Z AUTO 30010KT 6SM 05/M12 A3033 RMK T00501120 IEM_DS3505
ZBAA,2006-11-13 21:00,ZBAA 132100Z AUTO 09002KT 19SM 05/M14 A3033 RMK SLP268 T00471137 57006 IEM_DS3505
ZBAA,2006-11-13 22:00,ZBAA 132200Z AUTO 22002KT 6SM 02/M11 A3033 RMK T00201110 IEM_DS3505
ZBAA,2006-11-13 23:00,ZBAA 132300Z AUTO 22002KT 6SM 03/M10 A3030 RMK T00301100 IEM_DS3505
ZBAA,2006-11-14 00:00,ZBAA 140000Z AUTO 25002KT 7SM 04/M09 A3030 RMK SLP266 T00391091 57003 IEM_DS3505
ZBAA,2006-11-14 01:00,ZBAA 140100Z AUTO 28006KT 6SM 08/M10 A3033 RMK T00801100 IEM_DS3505
ZBAA,2006-11-14 02:00,ZBAA 140200Z AUTO 24010G19KT 6SM 10/M11 A3030 RMK T01001110 IEM_DS3505
ZBAA,2006-11-14 03:00,ZBAA 140300Z AUTO 22008KT 12SM 10/M13 A3024 RMK SLP245 T01021131 57020 IEM_DS3505
ZBAA,2006-11-14 04:00,ZBAA 140400Z AUTO 27014KT 6SM 12/M12 A3018 RMK T01201120 IEM_DS3505
ZBAA,2006-11-14 05:00,ZBAA 140500Z AUTO 22012KT 6SM 13/M11 A3015 RMK T01301110 IEM_DS3505
ZBAA,2006-11-14 06:00,ZBAA 140600Z AUTO 22010G23KT 16SM 13/M14 A3009 RMK SLP198 T01311138 57047 IEM_DS3505
ZBAA,2006-11-14 07:00,ZBAA 140700Z AUTO 21012KT 6SM 14/M12 A3006 RMK T01401120 IEM_DS3505
ZBAA,2006-11-14 08:00,ZBAA 140800Z AUTO 21012G21KT 6SM 13/M11 A3003 RMK T01301110 IEM_DS3505
ZBAA,2006-11-14 09:00,ZBAA 140900Z AUTO 22012KT 12SM 12/M10 A3003 RMK SLP172 T01181104 57026 IEM_DS3505
ZBAA,2006-11-14 10:00,ZBAA 141000Z AUTO 19012KT 6SM 11/M09 A3000 RMK T01101090 IEM_DS3505
ZBAA,2006-11-14 11:00,ZBAA 141100Z AUTO 22008KT 6SM 11/M09 A3000 RMK T01101090 IEM_DS3505
ZBAA,2006-11-14 12:00,ZBAA 141200Z AUTO 25008KT 12SM 11/M10 A3000 RMK SLP168 T01071101 57004 IEM_DS3505
ZBAA,2006-11-14 13:00,ZBAA 141300Z AUTO 23006KT 6SM 10/M08 A3003 RMK T01001080 IEM_DS3505
ZBAA,2006-11-14 14:00,ZBAA 141400Z AUTO 26006KT 6SM 11/M09 A3003 RMK T01101090 IEM_DS3505
ZBAA,2006-11-14 15:00,ZBAA 141500Z AUTO 25002KT 9SM 07/M07 A3003 RMK SLP177 T00711070 52009 IEM_DS3505
ZBAA,2006-11-14 16:00,ZBAA 141600Z AUTO 30012KT 6SM 12/M09 A3003 RMK T01201090 IEM_DS3505
ZBAA,2006-11-14 17:00,ZBAA 141700Z AUTO 31008KT 6SM 10/M10 A3006 RMK T01001100 IEM_DS3505
ZBAA,2006-11-14 18:00,ZBAA 141800Z AUTO 09002KT 9SM 07/M07 A3006 RMK SLP185 T00701074 52008 IEM_DS3505
ZBAA,2006-11-14 19:00,ZBAA 141900Z AUTO 23004KT 6SM 07/M08 A3009 RMK T00701080 IEM_DS3505
ZBAA,2006-11-14 20:00,ZBAA 142000Z AUTO 05002KT 6SM 07/M07 A3009 RMK T00701070 IEM_DS3505
ZBAA,2006-11-14 21:00,ZBAA 142100Z AUTO 04004KT 12SM 07/M08 A3012 RMK SLP198 T00721076 52013 IEM_DS3505
ZBAA,2006-11-14 22:00,ZBAA 142200Z AUTO 32010KT 6SM 08/M08 A3015 RMK T00801080 IEM_DS3505
ZBAA,2006-11-14 23:00,ZBAA 142300Z AUTO 33008KT 6SM 06/M08 A3018 RMK T00601080 IEM_DS3505
ZBAA,2006-11-15 00:00,ZBAA 150000Z AUTO 33004KT 6SM 07/M06 A3018 RMK SLP223 T00681062 52025 IEM_DS3505
ZBAA,2006-11-15 01:00,ZBAA 150100Z AUTO 02006KT 6SM 10/M08 A3021 RMK T01001080 IEM_DS3505
ZBAA,2006-11-15 02:00,ZBAA 150200Z AUTO 04004KT 6SM 12/M08 A3018 RMK T01201080 IEM_DS3505
ZBAA,2006-11-15 03:00,ZBAA 150300Z AUTO 04008KT 12SM 13/M08 A3018 RMK SLP216 T01331080 57007 IEM_DS3505
ZBAA,2006-11-15 04:00,ZBAA 150400Z AUTO 05004KT 6SM 13/M08 A3015 RMK T01301080 IEM_DS3505
ZBAA,2006-11-15 05:00,ZBAA 150500Z AUTO 6SM 15/M08 A3012 RMK T01501080 IEM_DS3505
ZBAA,2006-11-15 06:00,ZBAA 150600Z AUTO 25010KT 12SM 16/M10 A3009 RMK SLP195 T01601098 57021 IEM_DS3505
ZBAA,2006-11-15 07:00,ZBAA 150700Z AUTO 29010KT 6SM 16/M09 A3009 RMK T01601090 IEM_DS3505
ZBAA,2006-11-15 08:00,ZBAA 150800Z AUTO 21008KT 6SM 15/M08 A3012 RMK T01501080 IEM_DS3505
ZBAA,2006-11-15 09:00,ZBAA 150900Z AUTO 20002KT 9SM 13/M07 A3012 RMK SLP199 T01331074 52004 IEM_DS3505
ZBAA,2006-11-15 10:00,ZBAA 151000Z AUTO 21008G19KT 6SM 11/M06 A3012 RMK T01101060 IEM_DS3505
ZBAA,2006-11-15 11:00,ZBAA 151100Z AUTO 20006KT 6SM 09/M05 A3012 RMK T00901050 IEM_DS3505
ZBAA,2006-11-15 12:00,ZBAA 151200Z AUTO 20006KT 7SM 10/M06 A3015 RMK SLP210 T01011058 52011 IEM_DS3505
ZBAA,2006-11-15 13:00,ZBAA 151300Z AUTO 13008KT 4SM 09/M05 A3015 RMK T00901050 IEM_DS3505
ZBAA,2006-11-15 14:00,ZBAA 151400Z AUTO 16006KT 4SM 07/M03 A3018 RMK T00701030 IEM_DS3505
ZBAA,2006-11-15 15:00,ZBAA 151500Z AUTO 25006KT 9SM 07/M03 A3018 RMK SLP218 T00701027 52008 IEM_DS3505
ZBAA,2006-11-15 16:00,ZBAA 151600Z AUTO 04004KT 4SM 06/M02 A3018 RMK T00601020 IEM_DS3505
ZBAA,2006-11-15 17:00,ZBAA 151700Z AUTO 04004KT 4SM 06/M02 A3021 RMK T00601020 IEM_DS3505
ZBAA,2006-11-15 18:00,ZBAA 151800Z AUTO 07004KT 7SM 04/M02 A3021 RMK SLP226 T00441022 52008 IEM_DS3505
ZBAA,2006-11-15 19:00,ZBAA 151900Z AUTO 01002KT 5SM 04/M02 A3021 RMK T00401020 IEM_DS3505
ZBAA,2006-11-15 20:00,ZBAA 152000Z AUTO 36004KT 5SM 02/M03 A3021 RMK T00201030 IEM_DS3505
ZBAA,2006-11-15 21:00,ZBAA 152100Z AUTO 04004KT 7SM 03/M02 A3021 RMK SLP227 T00261017 52001 IEM_DS3505
ZBAA,2006-11-15 22:00,ZBAA 152200Z AUTO 34004KT 6SM 02/M04 A3021 RMK T00201040 IEM_DS3505
ZBAA,2006-11-15 23:00,ZBAA 152300Z AUTO 34004KT 6SM 03/M05 A3024 RMK T00301050 IEM_DS3505
ZBAA,2006-11-16 00:00,ZBAA 160000Z AUTO 07004KT 6SM 04/M02 A3024 RMK SLP240 T00421018 52013 IEM_DS3505
ZBAA,2006-11-16 01:00,ZBAA 160100Z AUTO 35006KT 6SM 05/M05 A3027 RMK T00501050 IEM_DS3505
ZBAA,2006-11-16 02:00,ZBAA 160200Z AUTO 36004KT 6SM 06/M05 A3027 RMK T00601050 IEM_DS3505
ZBAA,2006-11-16 03:00,ZBAA 160300Z AUTO 07006KT 7SM 08/M02 A3024 RMK SLP239 T00821019 57001 IEM_DS3505
ZBAA,2006-11-16 04:00,ZBAA 160400Z AUTO 07004KT 6SM 10/M03 A3024 RMK T01001030 IEM_DS3505
ZBAA,2006-11-16 05:00,ZBAA 160500Z AUTO 16002KT 6SM 11/M03 A3018 RMK T01101030 IEM_DS3505
ZBAA,2006-11-16 06:00,ZBAA 160600Z AUTO 09004KT 9SM 11/00 A3018 RMK SLP214 T01070001 57025 IEM_DS3505
ZBAA,2006-11-16 07:00,ZBAA 160700Z AUTO 13006KT 6SM 11/M06 A3018 RMK T01101060 IEM_DS3505
ZBAA,2006-11-16 08:00,ZBAA 160800Z AUTO 07006KT 6SM 11/M05 A3018 RMK T01101050 IEM_DS3505
ZBAA,2006-11-16 09:00,ZBAA 160900Z AUTO 09004KT 9SM 09/00 A3018 RMK SLP217 T00920004 52002 IEM_DS3505
ZBAA,2006-11-16 10:00,ZBAA 161000Z AUTO 08004KT 4SM 09/M05 A3018 RMK T00901050 IEM_DS3505
ZBAA,2006-11-16 11:00,ZBAA 161100Z AUTO 05002KT 4SM 07/M04 A3021 RMK T00701040 IEM_DS3505
ZBAA,2006-11-16 12:00,ZBAA 161200Z AUTO 02002KT 7SM 06/01 A3021 RMK SLP232 T00630012 52015 IEM_DS3505
ZBAA,2006-11-16 13:00,ZBAA 161300Z AUTO 12008KT 4SM 08/02 A3024 RMK T00800020 IEM_DS3505
ZBAA,2006-11-16 14:00,ZBAA 161400Z AUTO 11006KT 4SM 07/02 A3024 RMK T00700020 IEM_DS3505
ZBAA,2006-11-16 15:00,ZBAA 161500Z AUTO 11004KT 7SM 07/03 A3027 RMK SLP246 T00690030 52015 IEM_DS3505
ZBAA,2006-11-16 16:00,ZBAA 161600Z AUTO 14006KT 4SM 07/03 A3027 RMK T00700030 IEM_DS3505
ZBAA,2006-11-16 17:00,ZBAA 161700Z AUTO 17004KT 4SM 07/03 A3027 RMK T00700030 IEM_DS3505
ZBAA,2006-11-16 18:00,ZBAA 161800Z AUTO 02002KT 6SM 06/03 A3027 RMK SLP243 T00560026 57003 IEM_DS3505
ZBAA,2006-11-16 19:00,ZBAA 161900Z AUTO 00000KT 4SM 07/03 A3027 RMK T00700030 IEM_DS3505
ZBAA,2006-11-16 20:00,ZBAA 162000Z AUTO 33002KT 4SM 06/03 A3024 RMK T00600030 IEM_DS3505
ZBAA,2006-11-16 21:00,ZBAA 162100Z AUTO 07004KT 7SM 06/02 A3024 RMK SLP241 T00630022 57002 IEM_DS3505
ZBAA,2006-11-16 22:00,ZBAA 162200Z AUTO 28004KT 4SM 07/04 A3027 RMK T00700040 IEM_DS3505
ZBAA,2006-11-16 23:00,ZBAA 162300Z AUTO 29004KT 3SM 07/03 A3027 RMK T00700030 IEM_DS3505
ZBAA,2006-11-17 00:00,ZBAA 170000Z AUTO 09004KT 7SM 07/02 A3030 RMK SLP255 T00700023 52013 IEM_DS3505
ZBAA,2006-11-17 01:00,ZBAA 170100Z AUTO 28006KT 2 1/2SM 08/04 A3030 RMK T00800040 IEM_DS3505
ZBAA,2006-11-17 02:00,ZBAA 170200Z AUTO 3SM 08/04 A3030 RMK T00800040 IEM_DS3505
ZBAA,2006-11-17 03:00,ZBAA 170300Z AUTO 09006KT 7SM 08/03 A3030 RMK SLP252 T00850027 57002 IEM_DS3505
ZBAA,2006-11-17 04:00,ZBAA 170400Z AUTO 10004KT 3SM 09/04 A3027 RMK T00900040 IEM_DS3505
ZBAA,2006-11-17 05:00,ZBAA 170500Z AUTO 05004KT 3SM 09/04 A3024 RMK T00900040 IEM_DS3505
ZBAA,2006-11-17 06:00,ZBAA 170600Z AUTO 07006KT 7SM 10/03 A3024 RMK SLP230 T00970032 57022 IEM_DS3505
ZBAA,2006-11-17 07:00,ZBAA 170700Z AUTO 09004KT 3SM 10/04 A3021 RMK T01000040 IEM_DS3505
ZBAA,2006-11-17 08:00,ZBAA 170800Z AUTO 10004KT 3SM 09/04 A3024 RMK T00900040 IEM_DS3505
ZBAA,2006-11-17 09:00,ZBAA 170900Z AUTO 07002KT 7SM 08/03 A3024 RMK SLP237 T00830034 52007 IEM_DS3505
ZBAA,2006-11-17 10:00,ZBAA 171000Z AUTO 00000KT 2 1/2SM 07/04 A3027 RMK T00700040 IEM_DS3505
ZBAA,2006-11-17 11:00,ZBAA 171100Z AUTO 00000KT 2 1/2SM 07/04 A3027 RMK T00700040 IEM_DS3505
ZBAA,2006-11-17 12:00,ZBAA 171200Z AUTO 04004KT 6SM 08/04 A3030 RMK SLP256 T00790037 52018 IEM_DS3505
ZBAA,2006-11-17 13:00,ZBAA 171300Z AUTO 36004KT 1 1/2SM 07/04 A3030 RMK T00700040 IEM_DS3505
ZBAA,2006-11-17 14:00,ZBAA 171400Z AUTO 35004KT 1 1/2SM 07/04 A3030 RMK T00700040 IEM_DS3505
ZBAA,2006-11-17 15:00,ZBAA 171500Z AUTO 04002KT 7SM 06/03 A3030 RMK SLP257 T00630033 52001 IEM_DS3505
ZBAA,2006-11-17 16:00,ZBAA 171600Z AUTO 30006KT 1 1/2SM 06/04 A3030 RMK T00600040 IEM_DS3505
ZBAA,2006-11-17 17:00,ZBAA 171700Z AUTO 36004KT 1 1/2SM 04/03 A3027 RMK T00400030 IEM_DS3505
ZBAA,2006-11-17 18:00,ZBAA 171800Z AUTO 04002KT 6SM 04/03 A3027 RMK SLP252 T00440027 57005 IEM_DS3505
ZBAA,2006-11-17 19:00,ZBAA 171900Z AUTO 32004KT 1 1/2SM 03/02 A3030 RMK T00300020 IEM_DS3505
ZBAA,2006-11-17 20:00,ZBAA 172000Z AUTO 33004KT 1 1/2SM 03/03 A3030 RMK T00300030 IEM_DS3505
ZBAA,2006-11-17 21:00,ZBAA 172100Z AUTO 02002KT 5SM 03/02 A3030 RMK SLP254 T00310019 52002 IEM_DS3505
ZBAA,2006-11-17 22:00,ZBAA 172200Z AUTO 35006KT 1 1/2SM 02/01 A3030 RMK T00200010 IEM_DS3505
ZBAA,2006-11-17 23:00,ZBAA 172300Z AUTO 35008KT 1 1/2SM 01/00 A3030 RMK T00100000 IEM_DS3505
ZBAA,2006-11-18 00:00,ZBAA 180000Z AUTO 09002KT 4SM 04/02 A3033 RMK SLP263 T00350023 52009 IEM_DS3505
ZBAA,2006-11-18 01:00,ZBAA 180100Z AUTO 34006KT 2 1/2SM 05/03 A3033 RMK T00500030 IEM_DS3505
ZBAA,2006-11-18 02:00,ZBAA 180200Z AUTO 36006KT 4SM 08/03 A3033 RMK T00800030 IEM_DS3505
ZBAA,2006-11-18 03:00,ZBAA 180300Z AUTO 04006KT 7SM 10/M00 A3030 RMK SLP257 T01011001 57005 IEM_DS3505
ZBAA,2006-11-18 04:00,ZBAA 180400Z AUTO 36002KT 4SM 11/01 A3027 RMK T01100010 IEM_DS3505
ZBAA,2006-11-18 05:00,ZBAA 180500Z AUTO 06002KT 5SM 13/01 A3024 RMK T01300010 IEM_DS3505
ZBAA,2006-11-18 06:00,ZBAA 180600Z AUTO 11002KT 9SM 13/M03 A3024 RMK SLP237 T01271027 57020 IEM_DS3505
ZBAA,2006-11-18 07:00,ZBAA 180700Z AUTO 16004KT 6SM 12/M03 A3021 RMK T01201030 IEM_DS3505
ZBAA,2006-11-18 08:00,ZBAA 180800Z AUTO 17004KT 6SM 11/M02 A3021 RMK T01101020 IEM_DS3505
ZBAA,2006-11-18 09:00,ZBAA 180900Z AUTO 22004KT 7SM 10/01 A3021 RMK SLP233 T01040012 57005 IEM_DS3505
ZBAA,2006-11-18 10:00,ZBAA 181000Z AUTO 19006KT 3SM 10/01 A3024 RMK T01000010 IEM_DS3505
ZBAA,2006-11-18 11:00,ZBAA 181100Z AUTO 18006KT 3SM 09/02 A3024 RMK T00900020 IEM_DS3505
ZBAA,2006-11-18 12:00,ZBAA 181200Z AUTO 20002KT 7SM 08/01 A3024 RMK SLP237 T00750014 52004 IEM_DS3505
ZBAA,2006-11-18 13:00,ZBAA 181300Z AUTO 13002KT 2 1/2SM 06/02 A3024 RMK T00600020 IEM_DS3505
ZBAA,2006-11-18 14:00,ZBAA 181400Z AUTO 10006KT 2 1/2SM 06/01 A3024 RMK T00600010 IEM_DS3505
ZBAA,2006-11-18 15:00,ZBAA 181500Z AUTO 09004KT 4SM 05/01 A3024 RMK SLP238 T00520011 52002 IEM_DS3505
ZBAA,2006-11-18 16:00,ZBAA 181600Z AUTO 10002KT 2SM 05/02 A3024 RMK T00500020 IEM_DS3505
ZBAA,2006-11-18 17:00,ZBAA 181700Z AUTO 10002KT 1 1/2SM 05/03 A3024 RMK T00500030 IEM_DS3505
ZBAA,2006-11-18 18:00,ZBAA 181800Z AUTO 04002KT 2 1/2SM 03/01 A3024 RMK SLP235 T00300012 57003 IEM_DS3505
ZBAA,2006-11-18 19:00,ZBAA 181900Z AUTO 36004KT 1SM 02/02 A3024 RMK T00200020 IEM_DS3505
ZBAA,2006-11-18 20:00,ZBAA 182000Z AUTO 34002KT 1SM 03/02 A3021 RMK T00300020 IEM_DS3505
ZBAA,2006-11-18 21:00,ZBAA 182100Z AUTO 02002KT 3/8SM 02/02 A3021 RMK SLP228 T00200016 57008 IEM_DS3505
ZBAA,2006-11-18 22:00,ZBAA 182200Z AUTO 00000KT 1 1/4SM 04/03 A3021 RMK T00400030 IEM_DS3505
ZBAA,2006-11-18 23:00,ZBAA 182300Z AUTO 01002KT 1 1/4SM 05/03 A3021 RMK T00500030 IEM_DS3505
ZBAA,2006-11-19 00:00,ZBAA 190000Z AUTO 02004KT 1 1/4SM 04/03 A3024 RMK SLP237 T00390033 52009 IEM_DS3505
ZBAA,2006-11-19 01:00,ZBAA 190100Z AUTO 35006KT 1 1/4SM 05/02 A3024 RMK T00500020 IEM_DS3505
ZBAA,2006-11-19 02:00,ZBAA 190200Z AUTO 36004KT 1 1/2SM 06/02 A3024 RMK T00600020 IEM_DS3505
ZBAA,2006-11-19 03:00,ZBAA 190300Z AUTO 04004KT 2SM 08/04 A3024 RMK SLP235 T00770036 57002 IEM_DS3505
ZBAA,2006-11-19 04:00,ZBAA 190400Z AUTO 36004KT 2 1/2SM 09/01 A3021 RMK T00900010 IEM_DS3505
ZBAA,2006-11-19 05:00,ZBAA 190500Z AUTO 08002KT 2 1/2SM 10/01 A3018 RMK T01000010 IEM_DS3505
ZBAA,2006-11-19 06:00,ZBAA 190600Z AUTO 16004KT 6SM 12/01 A3015 RMK SLP208 T01200013 57026 IEM_DS3505
ZBAA,2006-11-19 07:00,ZBAA 190700Z AUTO 21004KT 2 1/2SM 12/02 A3015 RMK T01200020 IEM_DS3505
ZBAA,2006-11-19 08:00,ZBAA 190800Z AUTO 18004KT 2 1/2SM 11/02 A3012 RMK T01100020 IEM_DS3505
ZBAA,2006-11-19 09:00,ZBAA 190900Z AUTO 20004KT 4SM 09/02 A3015 RMK SLP207 T00870023 57002 IEM_DS3505
ZBAA,2006-11-19 10:00,ZBAA 191000Z AUTO 18008KT 1 1/4SM 09/04 A3015 RMK T00900040 IEM_DS3505
ZBAA,2006-11-19 11:00,ZBAA 191100Z AUTO 17006KT 1 1/4SM 06/03 A3015 RMK T00600030 IEM_DS3505
ZBAA,2006-11-19 12:00,ZBAA 191200Z AUTO 22002KT 3SM 06/03 A3015 RMK SLP212 T00570027 52005 IEM_DS3505
ZBAA,2006-11-19 13:00,ZBAA 191300Z AUTO 16004KT 1SM 05/02 A3015 RMK T00500020 IEM_DS3505
ZBAA,2006-11-19 14:00,ZBAA 191400Z AUTO 15004KT 1SM 05/03 A3015 RMK T00500030 IEM_DS3505
ZBAA,2006-11-19 15:00,ZBAA 191500Z AUTO 25002KT 2SM 05/04 A3015 RMK SLP208 T00500038 57003 IEM_DS3505
ZBAA,2006-11-19 16:00,ZBAA 191600Z AUTO 15004KT 1SM 05/04 A3015 RMK T00500040 IEM_DS3505
ZBAA,2006-11-19 17:00,ZBAA 191700Z AUTO 08004KT 1SM 04/04 A3012 RMK T00400040 IEM_DS3505
ZBAA,2006-11-19 18:00,ZBAA 191800Z AUTO 20004KT 1SM 05/04 A3012 RMK SLP199 T00490043 57009 IEM_DS3505
ZBAA,2006-11-19 19:00,ZBAA 191900Z AUTO 15004KT 1/2SM 06/05 A3012 RMK T00600050 IEM_DS3505
ZBAA,2006-11-19 20:00,ZBAA 192000Z AUTO 35004KT 1/2SM 05/04 A3009 RMK T00500040 IEM_DS3505
ZBAA,2006-11-19 21:00,ZBAA 192100Z AUTO 20002KT 1/2SM 04/04 A3009 RMK SLP190 T00450039 57009 IEM_DS3505
ZBAA,2006-11-19 22:00,ZBAA 192200Z AUTO 1/2SM 05/05 A3009 RMK T00500050 IEM_DS3505
ZBAA,2006-11-19 23:00,ZBAA 192300Z AUTO 24004KT 1/2SM 05/05 A3009 RMK T00500050 IEM_DS3505
ZBAA,2006-11-20 00:00,ZBAA 200000Z AUTO 14002KT 1SM 04/03 A3009 RMK SLP195 T00370033 52004 IEM_DS3505
ZBAA,2006-11-20 01:00,ZBAA 200100Z AUTO 32002KT 1/2SM 05/04 A3012 RMK T00500040 IEM_DS3505
ZBAA,2006-11-20 02:00,ZBAA 200200Z AUTO 00000KT 1/2SM 06/04 A3009 RMK T00600040 IEM_DS3505
ZBAA,2006-11-20 03:00,ZBAA 200300Z AUTO 22004KT 1SM 04/03 A3009 RMK SLP189 T00420033 57006 IEM_DS3505
ZBAA,2006-11-20 04:00,ZBAA 200400Z AUTO 19004KT 1SM 06/04 A3006 RMK T00600040 IEM_DS3505
ZBAA,2006-11-20 05:00,ZBAA 200500Z AUTO 17004KT 1SM 07/04 A3003 RMK T00700040 IEM_DS3505
ZBAA,2006-11-20 06:00,ZBAA 200600Z AUTO 20004KT 1SM 05/03 A3000 RMK SLP161 T00540034 57027 IEM_DS3505
ZBAA,2006-11-20 07:00,ZBAA 200700Z AUTO 17006KT 1SM 06/04 A3000 RMK T00600040 IEM_DS3505
ZBAA,2006-11-20 08:00,ZBAA 200800Z AUTO 15006KT 1SM 06/04 A3000 RMK T00600040 IEM_DS3505
ZBAA,2006-11-20 09:00,ZBAA 200900Z AUTO 22004KT 1SM 04/03 A3000 RMK SLP163 T00430030 52001 IEM_DS3505
ZBAA,2006-11-20 10:00,ZBAA 201000Z AUTO 13006KT 1SM 05/04 A3003 RMK T00500040 IEM_DS3505
ZBAA,2006-11-20 11:00,ZBAA 201100Z AUTO 17008KT 1SM 05/04 A3003 RMK T00500040 IEM_DS3505
ZBAA,2006-11-20 12:00,ZBAA 201200Z AUTO 22004KT 1SM 04/03 A3003 RMK SLP175 T00410029 52012 IEM_DS3505
ZBAA,2006-11-20 13:00,ZBAA 201300Z AUTO 15006KT 1SM 05/04 A3006 RMK T00500040 IEM_DS3505
ZBAA,2006-11-20 14:00,ZBAA 201400Z AUTO 15004KT 1SM 05/04 A3006 RMK T00500040 IEM_DS3505
ZBAA,2006-11-20 15:00,ZBAA 201500Z AUTO 18002KT 1 1/4SM 04/03 A3006 RMK SLP180 T00380026 52005 IEM_DS3505
ZBAA,2006-11-20 16:00,ZBAA 201600Z AUTO 00000KT 1SM 05/04 A3006 RMK T00500040 IEM_DS3505
ZBAA,2006-11-20 17:00,ZBAA 201700Z AUTO 35006KT 1SM 05/04 A3006 RMK T00500040 IEM_DS3505
ZBAA,2006-11-20 18:00,ZBAA 201800Z AUTO 16002KT 2 1/2SM 04/02 A3006 RMK SLP182 T00400025 52002 IEM_DS3505
ZBAA,2006-11-20 19:00,ZBAA 201900Z AUTO 36008KT 1SM 04/03 A3006 RMK T00400030 IEM_DS3505
ZBAA,2006-11-20 20:00,ZBAA 202000Z AUTO 34006KT 1SM 03/03 A3006 RMK T00300030 IEM_DS3505
ZBAA,2006-11-20 21:00,ZBAA 202100Z AUTO 20002KT 1SM 02/01 A3006 RMK SLP178 T00220013 57004 IEM_DS3505
ZBAA,2006-11-20 22:00,ZBAA 202200Z AUTO 35004KT 1/8SM 02/02 A3009 RMK T00200020 IEM_DS3505
ZBAA,2006-11-20 23:00,ZBAA 202300Z AUTO 34006KT 1/8SM 01/01 A3009 RMK T00100010 IEM_DS3505
ZBAA,2006-11-21 00:00,ZBAA 210000Z AUTO 25004KT 1/8SM 02/02 A3012 RMK SLP199 T00170016 52021 IEM_DS3505
ZBAA,2006-11-21 01:00,ZBAA 210100Z AUTO 34004KT 1SM 03/03 A3012 RMK T00300030 IEM_DS3505
ZBAA,2006-11-21 02:00,ZBAA 210200Z AUTO 13002KT 1SM 06/04 A3012 RMK T00600040 IEM_DS3505
ZBAA,2006-11-21 03:00,ZBAA 210300Z AUTO 22006KT 1SM 05/03 A3012 RMK SLP203 T00540027 52004 IEM_DS3505
ZBAA,2006-11-21 04:00,ZBAA 210400Z AUTO 15004KT 1 1/2SM 12/M01 A3009 RMK T01201010 IEM_DS3505
ZBAA,2006-11-21 05:00,ZBAA 210500Z AUTO 18008KT 1SM 12/02 A3009 RMK T01200020 IEM_DS3505
ZBAA,2006-11-21 06:00,ZBAA 210600Z AUTO 22006KT 6SM 12/M00 A3009 RMK SLP188 T01211001 57014 IEM_DS3505
ZBAA,2006-11-21 07:00,ZBAA 210700Z AUTO 16008KT 1 1/4SM 12/M02 A3009 RMK T01201020 IEM_DS3505
ZBAA,2006-11-21 08:00,ZBAA 210800Z AUTO 16006KT 1 1/2SM 11/M01 A3012 RMK T01101010 IEM_DS3505
ZBAA,2006-11-21 09:00,ZBAA 210900Z AUTO 25004KT 4SM 09/02 A3012 RMK SLP204 T00910018 52015 IEM_DS3505
ZBAA,2006-11-21 10:00,ZBAA 211000Z AUTO 00000KT 1 1/2SM 08/02 A3015 RMK T00800020 IEM_DS3505
ZBAA,2006-11-21 11:00,ZBAA 211100Z AUTO 05004KT 1 1/4SM 07/01 A3018 RMK T00700010 IEM_DS3505
ZBAA,2006-11-21 12:00,ZBAA 211200Z AUTO 07004KT 3SM 06/01 A3021 RMK SLP230 T00580013 52026 IEM_DS3505
ZBAA,2006-11-21 13:00,ZBAA 211300Z AUTO 12010KT 1 1/4SM 07/02 A3027 RMK T00700020 IEM_DS3505
ZBAA,2006-11-21 14:00,ZBAA 211400Z AUTO 12012KT 2SM 06/03 A3030 RMK T00600030 IEM_DS3505
ZBAA,2006-11-21 15:00,ZBAA 211500Z AUTO 09008KT 9SM 06/02 A3033 RMK SLP269 T00560019 52039 IEM_DS3505
ZBAA,2006-11-21 16:00,ZBAA 211600Z AUTO 12008KT 6SM 05/01 A3036 RMK T00500010 IEM_DS3505
ZBAA,2006-11-21 17:00,ZBAA 211700Z AUTO 19004KT 7SM 05/M01 A3039 RMK T00501010 IEM_DS3505
ZBAA,2006-11-21 18:00,ZBAA 211800Z AUTO 11010KT 12SM 04/M06 A3042 RMK SLP293 T00421061 52024 IEM_DS3505
ZBAA,2006-11-21 19:00,ZBAA 211900Z AUTO 16008KT 7SM 04/M06 A3042 RMK T00401060 IEM_DS3505
ZBAA,2006-11-21 20:00,ZBAA 212000Z AUTO 14008KT 7SM 04/M06 A3045 RMK T00401060 IEM_DS3505
ZBAA,2006-11-21 21:00,ZBAA 212100Z AUTO 09004KT 19SM 03/M07 A3045 RMK SLP313 T00301072 52020 IEM_DS3505
ZBAA,2006-11-21 22:00,ZBAA 212200Z AUTO 17006KT 7SM 03/M07 A3047 RMK T00301070 IEM_DS3505
ZBAA,2006-11-21 23:00,ZBAA 212300Z AUTO 16006KT 7SM 02/M07 A3050 RMK T00201070 IEM_DS3505
ZBAA,2006-11-22 00:00,ZBAA 220000Z AUTO 18004KT 19SM 02/M09 A3053 RMK SLP339 T00231090 52026 IEM_DS3505
ZBAA,2006-11-22 01:00,ZBAA 220100Z AUTO 15010KT 7SM 02/M07 A3056 RMK T00201070 IEM_DS3505
ZBAA,2006-11-22 02:00,ZBAA 220200Z AUTO 17008KT 7SM 02/M07 A3056 RMK T00201070 IEM_DS3505
ZBAA,2006-11-22 03:00,ZBAA 220300Z AUTO 14004KT 19SM 03/M11 A3056 RMK SLP348 T00271109 52009 IEM_DS3505
ZBAA,2006-11-22 04:00,ZBAA 220400Z AUTO 14006KT 7SM 03/M09 A3053 RMK T00301090 IEM_DS3505
ZBAA,2006-11-22 05:00,ZBAA 220500Z AUTO 15006KT 7SM 03/M09 A3053 RMK T00301090 IEM_DS3505
ZBAA,2006-11-22 06:00,ZBAA 220600Z AUTO 20004KT 16SM 03/M12 A3050 RMK SLP328 T00341121 57020 IEM_DS3505
ZBAA,2006-11-22 07:00,ZBAA 220700Z AUTO 15006KT 6SM 03/M11 A3050 RMK T00301110 IEM_DS3505
ZBAA,2006-11-22 08:00,ZBAA 220800Z AUTO 15008KT 6SM 03/M11 A3050 RMK T00301110 IEM_DS3505
ZBAA,2006-11-22 09:00,ZBAA 220900Z AUTO 14006KT 16SM 02/M13 A3050 RMK SLP332 T00241130 52003 IEM_DS3505
ZBAA,2006-11-22 10:00,ZBAA 221000Z AUTO 14010KT 6SM 02/M11 A3053 RMK T00201110 IEM_DS3505
ZBAA,2006-11-22 11:00,ZBAA 221100Z AUTO 15008KT 6SM 02/M10 A3053 RMK T00201100 IEM_DS3505
ZBAA,2006-11-22 12:00,ZBAA 221200Z AUTO 16006KT 12SM 02/M11 A3053 RMK SLP340 T00181113 52008 IEM_DS3505
ZBAA,2006-11-22 13:00,ZBAA 221300Z AUTO 14008KT 6SM 02/M10 A3053 RMK T00201100 IEM_DS3505
ZBAA,2006-11-22 14:00,ZBAA 221400Z AUTO 14006KT 6SM 01/M10 A3053 RMK T00101100 IEM_DS3505
ZBAA,2006-11-22 15:00,ZBAA 221500Z AUTO 20004KT 12SM 01/M11 A3053 RMK SLP339 T00121109 57001 IEM_DS3505
ZBAA,2006-11-22 16:00,ZBAA 221600Z AUTO 16002KT 6SM 01/M10 A3053 RMK T00101100 IEM_DS3505
ZBAA,2006-11-22 17:00,ZBAA 221700Z AUTO 15002KT 6SM 01/M10 A3053 RMK T00101100 IEM_DS3505
ZBAA,2006-11-22 18:00,ZBAA 221800Z AUTO 22002KT 12SM 01/M11 A3050 RMK SLP329 T00101111 57010 IEM_DS3505
ZBAA,2006-11-22 19:00,ZBAA 221900Z AUTO 15004KT 6SM 01/M12 A3050 RMK T00101120 IEM_DS3505
ZBAA,2006-11-22 20:00,ZBAA 222000Z AUTO 10004KT 6SM 01/M09 A3047 RMK T00101090 IEM_DS3505
ZBAA,2006-11-22 21:00,ZBAA 222100Z AUTO 11002KT 12SM 01/M11 A3047 RMK SLP316 T00111107 57013 IEM_DS3505
ZBAA,2006-11-22 22:00,ZBAA 222200Z AUTO 11002KT 6SM 00/M09 A3047 RMK T00001090 IEM_DS3505
ZBAA,2006-11-22 23:00,ZBAA 222300Z AUTO 13002KT 6SM M01/M09 A3047 RMK T10101090 IEM_DS3505
ZBAA,2006-11-23 00:00,ZBAA 230000Z AUTO 22002KT 9SM 01/M09 A3050 RMK SLP327 T00081090 52011 IEM_DS3505
ZBAA,2006-11-23 01:00,ZBAA 230100Z AUTO 10002KT 4SM 01/M09 A3050 RMK T00101090 IEM_DS3505
ZBAA,2006-11-23 02:00,ZBAA 230200Z AUTO 02004KT 4SM 02/M09 A3050 RMK T00201090 IEM_DS3505
ZBAA,2006-11-23 03:00,ZBAA 230300Z AUTO 02002KT 9SM 03/M10 A3050 RMK SLP331 T00311098 52004 IEM_DS3505
ZBAA,2006-11-23 04:00,ZBAA 230400Z AUTO 03002KT 5SM 03/M10 A3050 RMK T00301100 IEM_DS3505
ZBAA,2006-11-23 05:00,ZBAA 230500Z AUTO 12002KT 5SM 04/M10 A3047 RMK T00401100 IEM_DS3505
ZBAA,2006-11-23 06:00,ZBAA 230600Z AUTO 22004KT 7SM 04/M10 A3047 RMK SLP317 T00431098 57013 IEM_DS3505
ZBAA,2006-11-23 07:00,ZBAA 230700Z AUTO 12002KT 4SM 04/M10 A3047 RMK T00401100 IEM_DS3505
ZBAA,2006-11-23 08:00,ZBAA 230800Z AUTO 15004KT 4SM 04/M09 A3047 RMK T00401090 IEM_DS3505
ZBAA,2006-11-23 09:00,ZBAA 230900Z AUTO 22004KT 7SM 03/M09 A3050 RMK SLP329 T00291087 52011 IEM_DS3505
ZBAA,2006-11-23 10:00,ZBAA 231000Z AUTO 12006KT 4SM 03/M08 A3050 RMK T00301080 IEM_DS3505
ZBAA,2006-11-23 11:00,ZBAA 231100Z AUTO 12006KT 3SM 02/M08 A3053 RMK T00201080 IEM_DS3505
ZBAA,2006-11-23 12:00,ZBAA 231200Z AUTO 22002KT 7SM 02/M08 A3056 RMK SLP348 T00191085 52019 IEM_DS3505
ZBAA,2006-11-23 13:00,ZBAA 231300Z AUTO 15002KT 2 1/2SM 01/M07 A3056 RMK T00101070 IEM_DS3505
ZBAA,2006-11-23 14:00,ZBAA 231400Z AUTO 05002KT 2 1/2SM 01/M07 A3056 RMK T00101070 IEM_DS3505
ZBAA,2006-11-23 15:00,ZBAA 231500Z AUTO 14002KT 7SM 01/M08 A3056 RMK SLP351 T00141079 52003 IEM_DS3505
ZBAA,2006-11-23 16:00,ZBAA 231600Z AUTO 04002KT 1 1/2SM 00/M06 A3056 RMK T00001060 IEM_DS3505
ZBAA,2006-11-23 17:00,ZBAA 231700Z AUTO 00000KT 1 1/2SM M01/M06 A3056 RMK T10101060 IEM_DS3505
ZBAA,2006-11-23 18:00,ZBAA 231800Z AUTO 20002KT 7SM 00/M06 A3056 RMK SLP351 T00021064 54000 IEM_DS3505
ZBAA,2006-11-23 19:00,ZBAA 231900Z AUTO 00000KT 1 1/2SM M01/M06 A3056 RMK T10101060 IEM_DS3505
ZBAA,2006-11-23 20:00,ZBAA 232000Z AUTO 35004KT 2SM M01/M07 A3053 RMK T10101070 IEM_DS3505
ZBAA,2006-11-23 21:00,ZBAA 232100Z AUTO 07002KT 6SM 00/M06 A3053 RMK SLP339 T00021060 57012 IEM_DS3505
ZBAA,2006-11-23 22:00,ZBAA 232200Z AUTO 34004KT 2 1/2SM M02/M07 A3053 RMK T10201070 IEM_DS3505
ZBAA,2006-11-23 23:00,ZBAA 232300Z AUTO 34004KT 2 1/2SM M03/M07 A3053 RMK T10301070 IEM_DS3505
ZBAA,2006-11-24 00:00,ZBAA 240000Z AUTO 09002KT 4SM M01/M05 A3056 RMK SLP344 T10081054 52005 IEM_DS3505
ZBAA,2006-11-24 01:00,ZBAA 240100Z AUTO 35004KT 2 1/2SM M01/M05 A3056 RMK T10101050 IEM_DS3505
ZBAA,2006-11-24 02:00,ZBAA 240200Z AUTO 35004KT 2 1/2SM 01/M05 A3056 RMK T00101050 IEM_DS3505
ZBAA,2006-11-24 03:00,ZBAA 240300Z AUTO 20002KT 5SM 03/M06 A3053 RMK SLP340 T00301056 57004 IEM_DS3505
ZBAA,2006-11-24 04:00,ZBAA 240400Z AUTO 08002KT 2 1/2SM 03/M06 A3050 RMK T00301060 IEM_DS3505
ZBAA,2006-11-24 05:00,ZBAA 240500Z AUTO 13004KT 2 1/2SM 04/M06 A3047 RMK T00401060 IEM_DS3505
ZBAA,2006-11-24 06:00,ZBAA 240600Z AUTO 22004KT 6SM 05/M12 A3047 RMK SLP313 T00471118 57026 IEM_DS3505
ZBAA,2006-11-24 07:00,ZBAA 240700Z AUTO 13004KT 4SM 05/M10 A3045 RMK T00501100 IEM_DS3505
ZBAA,2006-11-24 08:00,ZBAA 240800Z AUTO 14006KT 3SM 04/M10 A3045 RMK T00401100 IEM_DS3505
ZBAA,2006-11-24 09:00,ZBAA 240900Z AUTO 18004KT 6SM 04/M10 A3045 RMK SLP306 T00431095 57007 IEM_DS3505
ZBAA,2006-11-24 10:00,ZBAA 241000Z AUTO 12004KT 3SM 03/M10 A3045 RMK T00301100 IEM_DS3505
ZBAA,2006-11-24 11:00,ZBAA 241100Z AUTO 14004KT 3SM 03/M10 A3045 RMK T00301100 IEM_DS3505
ZBAA,2006-11-24 12:00,ZBAA 241200Z AUTO 20004KT 6SM 03/M08 A3042 RMK SLP305 T00341083 57002 IEM_DS3505
ZBAA,2006-11-24 13:00,ZBAA 241300Z AUTO 20006KT 2 1/2SM 03/M08 A3042 RMK T00301080 IEM_DS3505
ZBAA,2006-11-24 14:00,ZBAA 241400Z AUTO 16004KT 2 1/2SM 03/M07 A3042 RMK T00301070 IEM_DS3505
ZBAA,2006-11-24 15:00,ZBAA 241500Z AUTO 25002KT 6SM 03/M07 A3042 RMK SLP295 T00301069 57009 IEM_DS3505
ZBAA,2006-11-24 16:00,ZBAA 241600Z AUTO 00000KT 2 1/2SM 03/M06 A3039 RMK T00301060 IEM_DS3505
ZBAA,2006-11-24 17:00,ZBAA 241700Z AUTO 05002KT 1 1/2SM 02/M08 A3039 RMK T00201080 IEM_DS3505
ZBAA,2006-11-24 18:00,ZBAA 241800Z AUTO 29002KT 5SM 01/M01 A3039 RMK 60000 SLP288 T00121014 57007 IEM_DS3505
ZBAA,2006-11-24 19:00,ZBAA 241900Z AUTO 34006KT 1SM 00/M01 A3039 RMK T00001010 IEM_DS3505
ZBAA,2006-11-24 20:00,ZBAA 242000Z AUTO 36004KT 1SM 00/00 A3036 RMK T00000000 IEM_DS3505
ZBAA,2006-11-24 21:00,ZBAA 242100Z AUTO 07002KT 3SM 00/M00 A3036 RMK 70002 SLP272 T00051004 57016 IEM_DS3505
ZBAA,2006-11-24 22:00,ZBAA 242200Z AUTO 03002KT 1 1/4SM 00/00 A3033 RMK T00000000 IEM_DS3505
ZBAA,2006-11-24 23:00,ZBAA 242300Z AUTO 01002KT 1 1/4SM 00/00 A3033 RMK T00000000 IEM_DS3505
ZBAA,2006-11-25 00:00,ZBAA 250000Z AUTO 07002KT 1SM 00/M00 A3033 RMK 60003 70003 SLP270 T00031004 57002 IEM_DS3505
ZBAA,2006-11-25 01:00,ZBAA 250100Z AUTO 34004KT 1SM 00/00 A3033 RMK T00000000 IEM_DS3505
ZBAA,2006-11-25 02:00,ZBAA 250200Z AUTO 35004KT 1SM 00/00 A3033 RMK T00000000 IEM_DS3505
ZBAA,2006-11-25 03:00,ZBAA 250300Z AUTO 11002KT 1SM 01/00 A3033 RMK SLP263 T00130001 57007 IEM_DS3505
ZBAA,2006-11-25 04:00,ZBAA 250400Z AUTO 36004KT 1SM 02/00 A3030 RMK T00200000 IEM_DS3505
ZBAA,2006-11-25 05:00,ZBAA 250500Z AUTO 36004KT 1 1/4SM 02/00 A3027 RMK T00200000 IEM_DS3505
ZBAA,2006-11-25 06:00,ZBAA 250600Z AUTO 11002KT 2SM 02/01 A3024 RMK 60002 SLP238 T00240008 57025 IEM_DS3505
ZBAA,2006-11-25 07:00,ZBAA 250700Z AUTO 03004KT 1 1/4SM 03/00 A3024 RMK T00300000 IEM_DS3505
ZBAA,2006-11-25 08:00,ZBAA 250800Z AUTO 04004KT 1 1/4SM 03/00 A3024 RMK T00300000 IEM_DS3505
ZBAA,2006-11-25 09:00,ZBAA 250900Z AUTO 22004KT 1SM 02/01 A3024 RMK SLP237 T00250013 57001 IEM_DS3505
ZBAA,2006-11-25 10:00,ZBAA 251000Z AUTO 05002KT 1 1/4SM 03/01 A3024 RMK T00300010 IEM_DS3505
ZBAA,2006-11-25 11:00,ZBAA 251100Z AUTO 03002KT 1 1/2SM 03/00 A3024 RMK T00300000 IEM_DS3505
ZBAA,2006-11-25 12:00,ZBAA 251200Z AUTO 22002KT 1SM 03/02 A3024 RMK 60002 SLP237 T00260017 54000 IEM_DS3505
ZBAA,2006-11-25 13:00,ZBAA 251300Z AUTO 04002KT 1 1/2SM 03/01 A3024 RMK T00300010 IEM_DS3505
ZBAA,2006-11-25 14:00,ZBAA 251400Z AUTO 34002KT 1 1/4SM 03/01 A3024 RMK T00300010 IEM_DS3505
ZBAA,2006-11-25 15:00,ZBAA 251500Z AUTO 25002KT 1 1/4SM 03/02 A3024 RMK SLP236 T00270017 57001 IEM_DS3505
ZBAA,2006-11-25 16:00,ZBAA 251600Z AUTO 29004KT 1 1/4SM 03/00 A3024 RMK T00300000 IEM_DS3505
ZBAA,2006-11-25 17:00,ZBAA 251700Z AUTO 31006KT 1 1/4SM 03/00 A3021 RMK T00300000 IEM_DS3505
ZBAA,2006-11-25 18:00,ZBAA 251800Z AUTO 09002KT 2SM 02/01 A3021 RMK SLP229 T00230014 57007 IEM_DS3505
ZBAA,2006-11-25 19:00,ZBAA 251900Z AUTO 32004KT 1 1/4SM 02/00 A3021 RMK T00200000 IEM_DS3505
ZBAA,2006-11-25 20:00,ZBAA 252000Z AUTO 32006KT 1 1/4SM 01/00 A3018 RMK T00100000 IEM_DS3505
ZBAA,2006-11-25 21:00,ZBAA 252100Z AUTO 32002KT 1SM 00/00 A3018 RMK 70006 SLP226 T00050001 57003 IEM_DS3505
ZBAA,2006-11-25 22:00,ZBAA 252200Z AUTO 32006KT 1 1/4SM 01/00 A3021 RMK T00100000 IEM_DS3505
ZBAA,2006-11-25 23:00,ZBAA 252300Z AUTO 34006KT 1 1/4SM 02/00 A3021 RMK T00200000 IEM_DS3505
ZBAA,2006-11-26 00:00,ZBAA 260000Z AUTO 32002KT 1SM 02/01 A3024 RMK 70005 SLP232 T00160010 52006 IEM_DS3505
ZBAA,2006-11-26 01:00,ZBAA 260100Z AUTO 36008KT 3SM 04/02 A3024 RMK T00400020 IEM_DS3505
ZBAA,2006-11-26 02:00,ZBAA 260200Z AUTO 34010KT 4SM 07/01 A3024 RMK T00700010 IEM_DS3505
ZBAA,2006-11-26 03:00,ZBAA 260300Z AUTO 36012KT 16SM 09/M03 A3027 RMK SLP239 T00901032 52007 IEM_DS3505
ZBAA,2006-11-26 04:00,ZBAA 260400Z AUTO 01010KT 5SM 09/00 A3024 RMK T00900000 IEM_DS3505
ZBAA,2006-11-26 05:00,ZBAA 260500Z AUTO 01010KT 6SM 09/M02 A3021 RMK T00901020 IEM_DS3505
ZBAA,2006-11-26 06:00,ZBAA 260600Z AUTO 34008KT 16SM 09/M05 A3021 RMK SLP228 T00931054 57011 IEM_DS3505
ZBAA,2006-11-26 07:00,ZBAA 260700Z AUTO 03012KT 6SM 08/M04 A3021 RMK T00801040 IEM_DS3505
ZBAA,2006-11-26 08:00,ZBAA 260800Z AUTO 02008KT 6SM 08/M04 A3024 RMK T00801040 IEM_DS3505
ZBAA,2006-11-26 09:00,ZBAA 260900Z AUTO 04004KT 9SM 08/M06 A3024 RMK SLP243 T00781056 52015 IEM_DS3505
ZBAA,2006-11-26 10:00,ZBAA 261000Z AUTO 31008KT 6SM 07/M04 A3030 RMK T00701040 IEM_DS3505
ZBAA,2006-11-26 11:00,ZBAA 261100Z AUTO 35006KT 6SM 06/M05 A3033 RMK T00601050 IEM_DS3505
ZBAA,2006-11-26 12:00,ZBAA 261200Z AUTO 04004KT 9SM 07/M08 A3033 RMK SLP263 T00661078 52020 IEM_DS3505
ZBAA,2006-11-26 13:00,ZBAA 261300Z AUTO 02010KT 6SM 05/M09 A3033 RMK T00501090 IEM_DS3505
ZBAA,2006-11-26 14:00,ZBAA 261400Z AUTO 02012KT 6SM 05/M09 A3033 RMK T00501090 IEM_DS3505
ZBAA,2006-11-26 15:00,ZBAA 261500Z AUTO 04006KT 12SM 04/M10 A3033 RMK SLP270 T00411100 52007 IEM_DS3505
ZBAA,2006-11-26 16:00,ZBAA 261600Z AUTO 01014KT 6SM 03/M09 A3033 RMK T00301090 IEM_DS3505
ZBAA,2006-11-26 17:00,ZBAA 261700Z AUTO 01010KT 6SM 03/M09 A3033 RMK T00301090 IEM_DS3505
ZBAA,2006-11-26 18:00,ZBAA 261800Z AUTO 04004KT 12SM 03/M10 A3033 RMK SLP271 T00271095 52001 IEM_DS3505
ZBAA,2006-11-26 19:00,ZBAA 261900Z AUTO 36006KT 6SM 01/M09 A3036 RMK T00101090 IEM_DS3505
ZBAA,2006-11-26 20:00,ZBAA 262000Z AUTO 01006KT 6SM 01/M09 A3036 RMK T00101090 IEM_DS3505
ZBAA,2006-11-26 21:00,ZBAA 262100Z AUTO 04008KT 12SM 02/M10 A3036 RMK SLP273 T00161102 52002 IEM_DS3505
ZBAA,2006-11-26 22:00,ZBAA 262200Z AUTO 02010KT 6SM 01/M10 A3036 RMK T00101100 IEM_DS3505
ZBAA,2006-11-26 23:00,ZBAA 262300Z AUTO 01012KT 6SM 00/M10 A3036 RMK T00001100 IEM_DS3505
ZBAA,2006-11-27 00:00,ZBAA 270000Z AUTO 04004KT 12SM 01/M10 A3036 RMK SLP279 T00091103 52006 IEM_DS3505
ZBAA,2006-11-27 01:00,ZBAA 270100Z AUTO 01010KT 6SM 00/M09 A3036 RMK T00001090 IEM_DS3505
ZBAA,2006-11-27 02:00,ZBAA 270200Z AUTO 03008KT 6SM 02/M11 A3036 RMK T00201110 IEM_DS3505
ZBAA,2006-11-27 03:00,ZBAA 270300Z AUTO 07004KT 12SM 03/M10 A3033 RMK SLP271 T00341103 57008 IEM_DS3505
ZBAA,2006-11-27 04:00,ZBAA 270400Z AUTO 35006KT 6SM 04/M11 A3030 RMK T00401110 IEM_DS3505
ZBAA,2006-11-27 05:00,ZBAA 270500Z AUTO 6SM 04/M11 A3027 RMK T00401110 IEM_DS3505
ZBAA,2006-11-27 06:00,ZBAA 270600Z AUTO 22004KT 12SM 04/M08 A3024 RMK SLP238 T00421082 57033 IEM_DS3505
ZBAA,2006-11-27 07:00,ZBAA 270700Z AUTO 11002KT 6SM 04/M11 A3024 RMK T00401110 IEM_DS3505
ZBAA,2006-11-27 08:00,ZBAA 270800Z AUTO 14004KT 6SM 04/M10 A3024 RMK T00401100 IEM_DS3505
ZBAA,2006-11-27 09:00,ZBAA 270900Z AUTO 20008KT 9SM 03/M06 A3021 RMK SLP235 T00311061 57003 IEM_DS3505
ZBAA,2006-11-27 10:00,ZBAA 271000Z AUTO 18008KT 6SM 03/M06 A3021 RMK T00301060 IEM_DS3505
ZBAA,2006-11-27 11:00,ZBAA 271100Z AUTO 18008KT 6SM 02/M05 A3021 RMK T00201050 IEM_DS3505
ZBAA,2006-11-27 12:00,ZBAA 271200Z AUTO 22004KT 9SM 02/M05 A3021 RMK SLP233 T00151048 57002 IEM_DS3505
ZBAA,2006-11-27 13:00,ZBAA 271300Z AUTO 21006KT 6SM 02/M05 A3021 RMK T00201050 IEM_DS3505
ZBAA,2006-11-27 14:00,ZBAA 271400Z AUTO 21006KT 6SM 02/M05 A3021 RMK T00201050 IEM_DS3505
ZBAA,2006-11-27 15:00,ZBAA 271500Z AUTO 25004KT 9SM 00/M04 A3021 RMK SLP228 T00011038 57005 IEM_DS3505
ZBAA,2006-11-27 16:00,ZBAA 271600Z AUTO 27004KT 6SM 01/M05 A3018 RMK T00101050 IEM_DS3505
ZBAA,2006-11-27 17:00,ZBAA 271700Z AUTO 24004KT 6SM M01/M05 A3018 RMK T10101050 IEM_DS3505
ZBAA,2006-11-27 18:00,ZBAA 271800Z AUTO 25004KT 9SM M01/M04 A3018 RMK SLP217 T10101035 57011 IEM_DS3505
ZBAA,2006-11-27 19:00,ZBAA 271900Z AUTO 28006KT 6SM 00/M06 A3018 RMK T00001060 IEM_DS3505
ZBAA,2006-11-27 20:00,ZBAA 272000Z AUTO 33006KT 6SM 00/M07 A3018 RMK T00001070 IEM_DS3505
ZBAA,2006-11-27 21:00,ZBAA 272100Z AUTO 02002KT 11SM 00/M10 A3021 RMK SLP224 T00031102 52007 IEM_DS3505
ZBAA,2006-11-27 22:00,ZBAA 272200Z AUTO 28004KT 6SM 00/M10 A3024 RMK T00001100 IEM_DS3505
ZBAA,2006-11-27 23:00,ZBAA 272300Z AUTO 30016KT 6SM 00/M11 A3024 RMK T00001110 IEM_DS3505
ZBAA,2006-11-28 00:00,ZBAA 280000Z AUTO 02008KT 12SM 01/M14 A3027 RMK SLP251 T00141135 52027 IEM_DS3505
ZBAA,2006-11-28 01:00,ZBAA 280100Z AUTO 31016KT 6SM 02/M12 A3030 RMK T00201120 IEM_DS3505
ZBAA,2006-11-28 02:00,ZBAA 280200Z AUTO 32014KT 6SM 03/M13 A3030 RMK T00301130 IEM_DS3505
ZBAA,2006-11-28 03:00,ZBAA 280300Z AUTO 04008KT 12SM 04/M13 A3030 RMK SLP260 T00361132 52009 IEM_DS3505
ZBAA,2006-11-28 04:00,ZBAA 280400Z AUTO 31010KT 6SM 04/M13 A3030 RMK T00401130 IEM_DS3505
ZBAA,2006-11-28 05:00,ZBAA 280500Z AUTO 06008KT 6SM 04/M12 A3027 RMK T00401120 IEM_DS3505
ZBAA,2006-11-28 06:00,ZBAA 280600Z AUTO 36004KT 19SM 06/M13 A3024 RMK SLP240 T00561134 57020 IEM_DS3505
ZBAA,2006-11-28 07:00,ZBAA 280700Z AUTO 07006KT 6SM 04/M12 A3027 RMK T00401120 IEM_DS3505
ZBAA,2006-11-28 08:00,ZBAA 280800Z AUTO 09006KT 6SM 04/M12 A3027 RMK T00401120 IEM_DS3505
ZBAA,2006-11-28 09:00,ZBAA 280900Z AUTO 34002KT 19SM 05/M13 A3030 RMK SLP256 T00491130 52016 IEM_DS3505
ZBAA,2006-11-28 10:00,ZBAA 281000Z AUTO 28006KT 6SM 04/M11 A3030 RMK T00401110 IEM_DS3505
ZBAA,2006-11-28 11:00,ZBAA 281100Z AUTO 28008KT 6SM 03/M11 A3033 RMK T00301110 IEM_DS3505
ZBAA,2006-11-28 12:00,ZBAA 281200Z AUTO 29004KT 16SM 03/M11 A3036 RMK SLP275 T00261106 52019 IEM_DS3505
ZBAA,2006-11-28 13:00,ZBAA 281300Z AUTO 30006KT 6SM 02/M11 A3036 RMK T00201110 IEM_DS3505
ZBAA,2006-11-28 14:00,ZBAA 281400Z AUTO 25002KT 6SM 02/M10 A3036 RMK T00201100 IEM_DS3505
ZBAA,2006-11-28 15:00,ZBAA 281500Z AUTO 27002KT 12SM 01/M09 A3036 RMK SLP278 T00111090 52003 IEM_DS3505
ZBAA,2006-11-28 16:00,ZBAA 281600Z AUTO 31008KT 6SM 01/M11 A3036 RMK T00101110 IEM_DS3505
ZBAA,2006-11-28 17:00,ZBAA 281700Z AUTO 31006KT 6SM M01/M10 A3036 RMK T10101100 IEM_DS3505
ZBAA,2006-11-28 18:00,ZBAA 281800Z AUTO 34004KT 12SM M02/M07 A3036 RMK SLP278 T10191074 54000 IEM_DS3505
ZBAA,2006-11-28 19:00,ZBAA 281900Z AUTO 28002KT 6SM M02/M10 A3036 RMK T10201100 IEM_DS3505
ZBAA,2006-11-28 20:00,ZBAA 282000Z AUTO 35004KT 6SM M02/M10 A3036 RMK T10201100 IEM_DS3505
ZBAA,2006-11-28 21:00,ZBAA 282100Z AUTO 09002KT 16SM M02/M08 A3033 RMK SLP270 T10211076 57008 IEM_DS3505
ZBAA,2006-11-28 22:00,ZBAA 282200Z AUTO 32002KT 6SM M03/M11 A3036 RMK T10301110 IEM_DS3505
ZBAA,2006-11-28 23:00,ZBAA 282300Z AUTO 34004KT 6SM M04/M10 A3036 RMK T10401100 IEM_DS3505
ZBAA,2006-11-29 00:00,ZBAA 290000Z AUTO 04002KT 9SM M01/M11 A3036 RMK SLP277 T10131112 52006 IEM_DS3505
ZBAA,2006-11-29 01:00,ZBAA 290100Z AUTO 36004KT 6SM M01/M10 A3036 RMK T10101100 IEM_DS3505
ZBAA,2006-11-29 02:00,ZBAA 290200Z AUTO 01006KT 6SM 01/M11 A3036 RMK T00101110 IEM_DS3505
ZBAA,2006-11-29 03:00,ZBAA 290300Z AUTO 09006KT 9SM 03/M12 A3036 RMK SLP271 T00341117 57005 IEM_DS3505
ZBAA,2006-11-29 04:00,ZBAA 290400Z AUTO 03002KT 6SM 03/M11 A3030 RMK T00301110 IEM_DS3505
ZBAA,2006-11-29 05:00,ZBAA 290500Z AUTO 06004KT 6SM 04/M11 A3027 RMK T00401110 IEM_DS3505
ZBAA,2006-11-29 06:00,ZBAA 290600Z AUTO 07004KT 12SM 06/M11 A3024 RMK SLP239 T00571110 57032 IEM_DS3505
ZBAA,2006-11-29 07:00,ZBAA 290700Z AUTO 21008KT 6SM 06/M09 A3021 RMK T00601090 IEM_DS3505
ZBAA,2006-11-29 08:00,ZBAA 290800Z AUTO 18008KT 6SM 05/M09 A3021 RMK T00501090 IEM_DS3505
ZBAA,2006-11-29 09:00,ZBAA 290900Z AUTO 20004KT 9SM 04/M09 A3021 RMK SLP235 T00351088 57004 IEM_DS3505
ZBAA,2006-11-29 10:00,ZBAA 291000Z AUTO 19008KT 6SM 03/M08 A3024 RMK T00301080 IEM_DS3505
ZBAA,2006-11-29 11:00,ZBAA 291100Z AUTO 19006KT 6SM 03/M08 A3024 RMK T00301080 IEM_DS3505
ZBAA,2006-11-29 12:00,ZBAA 291200Z AUTO 25004KT 9SM 01/M05 A3027 RMK SLP249 T00141051 52013 IEM_DS3505
ZBAA,2006-11-29 13:00,ZBAA 291300Z AUTO 00000KT 6SM 00/M07 A3027 RMK T00001070 IEM_DS3505
ZBAA,2006-11-29 14:00,ZBAA 291400Z AUTO 35006KT 6SM M02/M07 A3030 RMK T10201070 IEM_DS3505
ZBAA,2006-11-29 15:00,ZBAA 291500Z AUTO 02002KT 6SM 00/M06 A3030 RMK SLP254 T00001056 52006 IEM_DS3505
ZBAA,2006-11-29 16:00,ZBAA 291600Z AUTO 24004KT 5SM M02/M07 A3030 RMK T10201070 IEM_DS3505
ZBAA,2006-11-29 17:00,ZBAA 291700Z AUTO 36002KT 4SM M03/M08 A3027 RMK T10301080 IEM_DS3505
ZBAA,2006-11-29 18:00,ZBAA 291800Z AUTO 04004KT 5SM M02/M05 A3027 RMK SLP250 T10181053 57004 IEM_DS3505
ZBAA,2006-11-29 19:00,ZBAA 291900Z AUTO 33004KT 4SM M04/M08 A3027 RMK T10401080 IEM_DS3505
ZBAA,2006-11-29 20:00,ZBAA 292000Z AUTO 34006KT 4SM M03/M09 A3027 RMK T10301090 IEM_DS3505
ZBAA,2006-11-29 21:00,ZBAA 292100Z AUTO 04002KT 4SM M03/M06 A3024 RMK SLP243 T10281059 57008 IEM_DS3505
ZBAA,2006-11-29 22:00,ZBAA 292200Z AUTO 34004KT 6SM M05/M10 A3027 RMK T10501100 IEM_DS3505
ZBAA,2006-11-29 23:00,ZBAA 292300Z AUTO 33004KT 6SM M04/M10 A3027 RMK T10401100 IEM_DS3505
ZBAA,2006-11-30 00:00,ZBAA 300000Z AUTO 07002KT 9SM M01/M10 A3033 RMK SLP258 T10111099 52015 IEM_DS3505
ZBAA,2006-11-30 01:00,ZBAA 300100Z AUTO 32004KT 6SM 00/M10 A3033 RMK T00001100 IEM_DS3505
ZBAA,2006-11-30 02:00,ZBAA 300200Z AUTO 04002KT 4SM 01/M09 A3033 RMK T00101090 IEM_DS3505
ZBAA,2006-11-30 03:00,ZBAA 300300Z AUTO 32008KT 12SM 05/M14 A3033 RMK SLP261 T00521142 52004 IEM_DS3505
ZBAA,2006-11-30 04:00,ZBAA 300400Z AUTO 28014KT 6SM 05/M15 A3030 RMK T00501150 IEM_DS3505
ZBAA,2006-11-30 05:00,ZBAA 300500Z AUTO 30012G23KT 6SM 06/M16 A3024 RMK T00601160 IEM_DS3505
ZBAA,2006-11-30 06:00,ZBAA 300600Z AUTO 36006KT 12SM 07/M15 A3021 RMK SLP235 T00671153 57026 IEM_DS3505
ZBAA,2006-11-30 07:00,ZBAA 300700Z AUTO 28016G27KT 6SM 07/M16 A3021 RMK T00701160 IEM_DS3505
ZBAA,2006-11-30 08:00,ZBAA 300800Z AUTO 30012KT 6SM 06/M17 A3021 RMK T00601170 IEM_DS3505
ZBAA,2006-11-30 09:00,ZBAA 300900Z AUTO 25004KT 8SM 04/M09 A3021 RMK SLP232 T00411093 57003 IEM_DS3505
ZBAA,2006-11-30 10:00,ZBAA 301000Z AUTO 27006KT 6SM 04/M15 A3021 RMK T00401150 IEM_DS3505
ZBAA,2006-11-30 11:00,ZBAA 301100Z AUTO 23006KT 6SM 04/M11 A3021 RMK T00401110 IEM_DS3505
ZBAA,2006-11-30 12:00,ZBAA 301200Z AUTO 29002KT 6SM 01/M07 A3024 RMK SLP238 T00071071 52005 IEM_DS3505
ZBAA,2006-11-30 13:00,ZBAA 301300Z AUTO 00000KT 4SM 01/M09 A3024 RMK T00101090 IEM_DS3505
ZBAA,2006-11-30 14:00,ZBAA 301400Z AUTO 00000KT 3SM 01/M09 A3021 RMK T00101090 IEM_DS3505
ZBAA,2006-11-30 15:00,ZBAA 301500Z AUTO 25004KT 5SM 00/M06 A3021 RMK SLP234 T00001056 57003 IEM_DS3505
ZBAA,2006-11-30 16:00,ZBAA 301600Z AUTO 36004KT 2 1/2SM M02/M11 A3021 RMK T10201110 IEM_DS3505
ZBAA,2006-11-30 17:00,ZBAA 301700Z AUTO 32006KT 2 1/2SM M03/M11 A3021 RMK T10301110 IEM_DS3505
ZBAA,2006-11-30 18:00,ZBAA 301800Z AUTO 09002KT 4SM M02/M06 A3021 RMK SLP225 T10191059 57009 IEM_DS3505
ZBAA,2006-11-30 19:00,ZBAA 301900Z AUTO 36002KT 4SM M03/M11 A3021 RMK T10301110 IEM_DS3505
ZBAA,2006-11-30 20:00,ZBAA 302000Z AUTO 28006KT 4SM M03/M12 A3018 RMK T10301120 IEM_DS3505
ZBAA,2006-11-30 21:00,ZBAA 302100Z AUTO 34006KT 12SM 02/M14 A3018 RMK SLP215 T00161141 57010 IEM_DS3505
ZBAA,2006-11-30 22:00,ZBAA 302200Z AUTO 28010KT 6SM 00/M14 A3018 RMK T00001140 IEM_DS3505
ZBAA,2006-11-30 23:00,ZBAA 302300Z AUTO 30014KT 6SM 00/M15 A3021 RMK T00001150 IEM_DS3505
ZBAA,2006-12-01 00:00,ZBAA 010000Z AUTO 34006KT 19SM 02/M17 A3021 RMK SLP230 T00161168 52015 IEM_DS3505
ZBAA,2006-12-01 01:00,ZBAA 010100Z AUTO 30014KT 6SM 01/M15 A3024 RMK T00101150 IEM_DS3505
ZBAA,2006-12-01 02:00,ZBAA 010200Z AUTO 31017KT 6SM 02/M16 A3024 RMK T00201160 IEM_DS3505
ZBAA,2006-12-01 03:00,ZBAA 010300Z AUTO 34010KT 16SM 04/M18 A3024 RMK SLP233 T00391183 52003 IEM_DS3505
ZBAA,2006-12-01 04:00,ZBAA 010400Z AUTO 29014KT 6SM 04/M17 A3021 RMK T00401170 IEM_DS3505
ZBAA,2006-12-01 05:00,ZBAA 010500Z AUTO 28014KT 6SM 05/M17 A3018 RMK T00501170 IEM_DS3505
ZBAA,2006-12-01 06:00,ZBAA 010600Z AUTO 32014G29KT 16SM 04/M19 A3018 RMK SLP223 T00441192 57010 IEM_DS3505
ZBAA,2006-12-01 07:00,ZBAA 010700Z AUTO 33017G29KT 6SM 04/M19 A3018 RMK T00401190 IEM_DS3505
ZBAA,2006-12-01 08:00,ZBAA 010800Z AUTO 32017KT 6SM 03/M21 A3024 RMK T00301210 IEM_DS3505
ZBAA,2006-12-01 09:00,ZBAA 010900Z AUTO 29012KT 19SM 02/M20 A3027 RMK SLP252 T00231203 52029 IEM_DS3505
ZBAA,2006-12-01 10:00,ZBAA 011000Z AUTO 33016KT 6SM 00/M20 A3033 RMK T00001200 IEM_DS3505
ZBAA,2006-12-01 11:00,ZBAA 011100Z AUTO 34014KT 6SM M01/M20 A3036 RMK T10101200 IEM_DS3505
ZBAA,2006-12-01 12:00,ZBAA 011200Z AUTO 36008KT 12SM M00/M20 A3039 RMK SLP285 T10051196 52032 IEM_DS3505
ZBAA,2006-12-01 13:00,ZBAA 011300Z AUTO 34016KT 6SM M02/M19 A3042 RMK T10201190 IEM_DS3505
ZBAA,2006-12-01 14:00,ZBAA 011400Z AUTO 35012KT 6SM M03/M19 A3042 RMK T10301190 IEM_DS3505
ZBAA,2006-12-01 15:00,ZBAA 011500Z AUTO 36008KT 12SM M02/M19 A3045 RMK SLP302 T10171187 52017 IEM_DS3505
ZBAA,2006-12-01 16:00,ZBAA 011600Z AUTO 32014KT 6SM M03/M20 A3045 RMK T10301200 IEM_DS3505
ZBAA,2006-12-01 17:00,ZBAA 011700Z AUTO 31010KT 6SM M04/M20 A3047 RMK T10401200 IEM_DS3505
ZBAA,2006-12-01 18:00,ZBAA 011800Z AUTO 36006KT 12SM M03/M20 A3047 RMK SLP319 T10311195 52017 IEM_DS3505
ZBAA,2006-12-01 19:00,ZBAA 011900Z AUTO 31008KT 6SM M05/M19 A3050 RMK T10501190 IEM_DS3505
ZBAA,2006-12-01 20:00,ZBAA 012000Z AUTO 30010KT 6SM M05/M19 A3047 RMK T10501190 IEM_DS3505
ZBAA,2006-12-01 21:00,ZBAA 012100Z AUTO 34004KT 12SM M04/M19 A3050 RMK SLP324 T10381188 52005 IEM_DS3505
ZBAA,2006-12-01 22:00,ZBAA 012200Z AUTO 22004KT 6SM M06/M19 A3050 RMK T10601190 IEM_DS3505
ZBAA,2006-12-01 23:00,ZBAA 012300Z AUTO 29008KT 6SM M05/M20 A3053 RMK T10501200 IEM_DS3505
ZBAA,2006-12-02 00:00,ZBAA 020000Z AUTO 04004KT 12SM M04/M20 A3053 RMK SLP344 T10371196 52020 IEM_DS3505
ZBAA,2006-12-02 01:00,ZBAA 020100Z AUTO 31014KT 6SM M03/M19 A3056 RMK T10301190 IEM_DS3505
ZBAA,2006-12-02 02:00,ZBAA 020200Z AUTO 31016KT 6SM M02/M21 A3056 RMK T10201210 IEM_DS3505
ZBAA,2006-12-02 03:00,ZBAA 020300Z AUTO 36012KT 19SM 00/M21 A3053 RMK SLP341 T00031206 57003 IEM_DS3505
ZBAA,2006-12-02 04:00,ZBAA 020400Z AUTO 31012KT 6SM 01/M19 A3053 RMK T00101190 IEM_DS3505
ZBAA,2006-12-02 05:00,ZBAA 020500Z AUTO 30016KT 6SM 02/M19 A3050 RMK T00201190 IEM_DS3505
ZBAA,2006-12-02 06:00,ZBAA 020600Z AUTO 36008G23KT 19SM 03/M20 A3047 RMK SLP317 T00321195 57024 IEM_DS3505
ZBAA,2006-12-02 07:00,ZBAA 020700Z AUTO 28014KT 6SM 02/M18 A3047 RMK T00201180 IEM_DS3505
ZBAA,2006-12-02 08:00,ZBAA 020800Z AUTO 29012KT 6SM 02/M18 A3045 RMK T00201180 IEM_DS3505
ZBAA,2006-12-02 09:00,ZBAA 020900Z AUTO 27006KT 16SM 01/M18 A3045 RMK SLP316 T00131176 57001 IEM_DS3505
ZBAA,2006-12-02 10:00,ZBAA 021000Z AUTO 29006KT 6SM 01/M16 A3047 RMK T00101160 IEM_DS3505
ZBAA,2006-12-02 11:00,ZBAA 021100Z AUTO 02002KT 6SM M01/M16 A3047 RMK T10101160 IEM_DS3505
ZBAA,2006-12-02 12:00,ZBAA 021200Z AUTO 25004KT 12SM M02/M15 A3047 RMK SLP324 T10171152 52008 IEM_DS3505
ZBAA,2006-12-02 13:00,ZBAA 021300Z AUTO 6SM M02/M17 A3050 RMK T10201170 IEM_DS3505
ZBAA,2006-12-02 14:00,ZBAA 021400Z AUTO 6SM M02/M17 A3050 RMK T10201170 IEM_DS3505
ZBAA,2006-12-02 15:00,ZBAA 021500Z AUTO 22002KT 9SM M02/M14 A3050 RMK SLP335 T10211139 52011 IEM_DS3505
ZBAA,2006-12-02 16:00,ZBAA 021600Z AUTO 6SM M03/M16 A3053 RMK T10301160 IEM_DS3505
ZBAA,2006-12-02 17:00,ZBAA 021700Z AUTO 02004KT 6SM M03/M15 A3053 RMK T10301150 IEM_DS3505
ZBAA,2006-12-02 18:00,ZBAA 021800Z AUTO 36004KT 9SM M05/M14 A3053 RMK SLP334 T10521135 57001 IEM_DS3505
ZBAA,2006-12-02 19:00,ZBAA 021900Z AUTO 34006KT 6SM M06/M16 A3050 RMK T10601160 IEM_DS3505
ZBAA,2006-12-02 20:00,ZBAA 022000Z AUTO 35010KT 6SM M04/M16 A3050 RMK T10401160 IEM_DS3505
ZBAA,2006-12-02 21:00,ZBAA 022100Z AUTO 04006KT 7SM M05/M16 A3050 RMK SLP326 T10531162 57008 IEM_DS3505
ZBAA,2006-12-02 22:00,ZBAA 022200Z AUTO 36008KT 6SM M04/M17 A3050 RMK T10401170 IEM_DS3505
ZBAA,2006-12-02 23:00,ZBAA 022300Z AUTO 35006KT 6SM M05/M17 A3050 RMK T10501170 IEM_DS3505
ZBAA,2006-12-03 00:00,ZBAA 030000Z AUTO 22002KT 9SM M04/M15 A3053 RMK SLP339 T10451152 52013 IEM_DS3505
ZBAA,2006-12-03 01:00,ZBAA 030100Z AUTO 36004KT 6SM M02/M16 A3053 RMK T10201160 IEM_DS3505
ZBAA,2006-12-03 02:00,ZBAA 030200Z AUTO 32002KT 6SM M01/M16 A3053 RMK T10101160 IEM_DS3505
ZBAA,2006-12-03 03:00,ZBAA 030300Z AUTO 22006KT 7SM 01/M15 A3053 RMK SLP335 T00061150 57004 IEM_DS3505
ZBAA,2006-12-03 04:00,ZBAA 030400Z AUTO 21006KT 6SM 03/M15 A3050 RMK T00301150 IEM_DS3505
ZBAA,2006-12-03 05:00,ZBAA 030500Z AUTO 20006KT 6SM 04/M15 A3047 RMK T00401150 IEM_DS3505
ZBAA,2006-12-03 06:00,ZBAA 030600Z AUTO 22006G19KT 9SM 04/M16 A3045 RMK SLP310 T00431156 57025 IEM_DS3505
ZBAA,2006-12-03 07:00,ZBAA 030700Z AUTO 21006G16KT 6SM 05/M14 A3042 RMK T00501140 IEM_DS3505
ZBAA,2006-12-03 08:00,ZBAA 030800Z AUTO 24008KT 6SM 05/M17 A3045 RMK T00501170 IEM_DS3505
ZBAA,2006-12-03 09:00,ZBAA 030900Z AUTO 25004KT 7SM 02/M14 A3045 RMK SLP316 T00221140 52006 IEM_DS3505
ZBAA,2006-12-03 10:00,ZBAA 031000Z AUTO 31004KT 6SM 01/M15 A3047 RMK T00101150 IEM_DS3505
ZBAA,2006-12-03 11:00,ZBAA 031100Z AUTO 31002KT 6SM 00/M15 A3050 RMK T00001150 IEM_DS3505
ZBAA,2006-12-03 12:00,ZBAA 031200Z AUTO 27004KT 7SM 00/M12 A3050 RMK SLP331 T00011119 52015 IEM_DS3505
ZBAA,2006-12-03 13:00,ZBAA 031300Z AUTO 02002KT 4SM M02/M14 A3050 RMK T10201140 IEM_DS3505
ZBAA,2006-12-03 14:00,ZBAA 031400Z AUTO 03002KT 4SM M02/M13 A3050 RMK T10201130 IEM_DS3505
ZBAA,2006-12-03 15:00,ZBAA 031500Z AUTO 29002KT 7SM M02/M11 A3050 RMK SLP333 T10241107 52002 IEM_DS3505
ZBAA,2006-12-03 16:00,ZBAA 031600Z AUTO 03002KT 4SM M04/M12 A3053 RMK T10401120 IEM_DS3505
ZBAA,2006-12-03 17:00,ZBAA 031700Z AUTO 02002KT 3SM M05/M12 A3050 RMK T10501120 IEM_DS3505
ZBAA,2006-12-03 18:00,ZBAA 031800Z AUTO 11002KT 7SM M04/M10 A3050 RMK SLP331 T10451103 57002 IEM_DS3505
ZBAA,2006-12-03 19:00,ZBAA 031900Z AUTO 3SM M06/M11 A3053 RMK T10601110 IEM_DS3505
ZBAA,2006-12-03 20:00,ZBAA 032000Z AUTO 36002KT 3SM M05/M12 A3050 RMK T10501120 IEM_DS3505
ZBAA,2006-12-03 21:00,ZBAA 032100Z AUTO 07004KT 6SM M05/M11 A3047 RMK SLP321 T10511110 57010 IEM_DS3505
ZBAA,2006-12-03 22:00,ZBAA 032200Z AUTO 35004KT 6SM M06/M12 A3047 RMK T10601120 IEM_DS3505
ZBAA,2006-12-03 23:00,ZBAA 032300Z AUTO 34004KT 6SM M07/M12 A3047 RMK T10701120 IEM_DS3505
ZBAA,2006-12-04 00:00,ZBAA 040000Z AUTO 14002KT 6SM M04/M12 A3047 RMK SLP316 T10431115 57005 IEM_DS3505
ZBAA,2006-12-04 01:00,ZBAA 040100Z AUTO 36006KT 5SM M05/M12 A3047 RMK T10501120 IEM_DS3505
ZBAA,2006-12-04 02:00,ZBAA 040200Z AUTO 09002KT 4SM M02/M11 A3045 RMK T10201110 IEM_DS3505
ZBAA,2006-12-04 03:00,ZBAA 040300Z AUTO 09002KT 6SM 01/M12 A3042 RMK SLP298 T00141120 57018 IEM_DS3505
ZBAA,2006-12-04 04:00,ZBAA 040400Z AUTO 07002KT 4SM 01/M12 A3039 RMK T00101120 IEM_DS3505
ZBAA,2006-12-04 05:00,ZBAA 040500Z AUTO 12002KT 4SM 03/M11 A3036 RMK T00301110 IEM_DS3505
ZBAA,2006-12-04 06:00,ZBAA 040600Z AUTO 20008KT 7SM 05/M11 A3033 RMK SLP267 T00471114 57031 IEM_DS3505
ZBAA,2006-12-04 07:00,ZBAA 040700Z AUTO 17004KT 2 1/2SM 05/M11 A3030 RMK T00501110 IEM_DS3505
ZBAA,2006-12-04 08:00,ZBAA 040800Z AUTO 17004KT 2 1/2SM 04/M10 A3030 RMK T00401100 IEM_DS3505
ZBAA,2006-12-04 09:00,ZBAA 040900Z AUTO 25004KT 6SM 02/M09 A3030 RMK SLP268 T00191091 52001 IEM_DS3505
ZBAA,2006-12-04 10:00,ZBAA 041000Z AUTO 2 1/2SM 03/M11 A3033 RMK T00301110 IEM_DS3505
ZBAA,2006-12-04 11:00,ZBAA 041100Z AUTO 13002KT 2SM 00/M10 A3036 RMK T00001100 IEM_DS3505
ZBAA,2006-12-04 12:00,ZBAA 041200Z AUTO 32002KT 7SM M01/M08 A3039 RMK SLP284 T10061078 52016 IEM_DS3505
ZBAA,2006-12-04 13:00,ZBAA 041300Z AUTO 34006KT 2 1/2SM M03/M10 A3042 RMK T10301100 IEM_DS3505
ZBAA,2006-12-04 14:00,ZBAA 041400Z AUTO 34008KT 3SM M02/M10 A3045 RMK T10201100 IEM_DS3505
ZBAA,2006-12-04 15:00,ZBAA 041500Z AUTO 02010KT 12SM 01/M14 A3047 RMK SLP315 T00131144 52031 IEM_DS3505
ZBAA,2006-12-04 16:00,ZBAA 041600Z AUTO 01014KT 6SM 00/M14 A3050 RMK T00001140 IEM_DS3505
ZBAA,2006-12-04 17:00,ZBAA 041700Z AUTO 01014KT 6SM M01/M15 A3053 RMK T10101150 IEM_DS3505
ZBAA,2006-12-04 18:00,ZBAA 041800Z AUTO 02006KT 16SM M00/M16 A3056 RMK SLP338 T10051160 52023 IEM_DS3505
ZBAA,2006-12-04 19:00,ZBAA 041900Z AUTO 02012KT 6SM M02/M15 A3056 RMK T10201150 IEM_DS3505
ZBAA,2006-12-04 20:00,ZBAA 042000Z AUTO 01012KT 6SM M02/M15 A3056 RMK T10201150 IEM_DS3505
ZBAA,2006-12-04 21:00,ZBAA 042100Z AUTO 07008KT 19SM M03/M16 A3056 RMK SLP342 T10261160 52004 IEM_DS3505
ZBAA,2006-12-04 22:00,ZBAA 042200Z AUTO 02008KT 6SM M03/M15 A3056 RMK T10301150 IEM_DS3505
ZBAA,2006-12-04 23:00,ZBAA 042300Z AUTO 01012KT 6SM M03/M16 A3059 RMK T10301160 IEM_DS3505
ZBAA,2006-12-05 00:00,ZBAA 050000Z AUTO 04004KT 19SM M03/M16 A3062 RMK SLP365 T10291156 52023 IEM_DS3505
ZBAA,2006-12-05 01:00,ZBAA 050100Z AUTO 01012KT 6SM M02/M16 A3062 RMK T10201160 IEM_DS3505
ZBAA,2006-12-05 02:00,ZBAA 050200Z AUTO 36008KT 6SM M01/M15 A3062 RMK T10101150 IEM_DS3505
ZBAA,2006-12-05 03:00,ZBAA 050300Z AUTO 04006KT 12SM 01/M17 A3062 RMK SLP371 T00111167 52006 IEM_DS3505
ZBAA,2006-12-05 04:00,ZBAA 050400Z AUTO 6SM 01/M16 A3059 RMK T00101160 IEM_DS3505
ZBAA,2006-12-05 05:00,ZBAA 050500Z AUTO 09002KT 6SM 02/M16 A3056 RMK T00201160 IEM_DS3505
ZBAA,2006-12-05 06:00,ZBAA 050600Z AUTO 16006KT 19SM 03/M15 A3053 RMK SLP335 T00291147 57036 IEM_DS3505
ZBAA,2006-12-05 07:00,ZBAA 050700Z AUTO 14006KT 6SM 02/M15 A3050 RMK T00201150 IEM_DS3505
ZBAA,2006-12-05 08:00,ZBAA 050800Z AUTO 14008KT 6SM 02/M12 A3050 RMK T00201120 IEM_DS3505
ZBAA,2006-12-05 09:00,ZBAA 050900Z AUTO 16006KT 19SM 02/M09 A3050 RMK SLP325 T00151094 57010 IEM_DS3505
ZBAA,2006-12-05 10:00,ZBAA 051000Z AUTO 16006KT 6SM 01/M10 A3050 RMK T00101100 IEM_DS3505
ZBAA,2006-12-05 11:00,ZBAA 051100Z AUTO 15004KT 6SM 01/M09 A3050 RMK T00101090 IEM_DS3505
ZBAA,2006-12-05 12:00,ZBAA 051200Z AUTO 16004KT 12SM 01/M06 A3050 RMK SLP330 T00101059 52005 IEM_DS3505
ZBAA,2006-12-05 13:00,ZBAA 051300Z AUTO 16006KT 7SM 01/M06 A3050 RMK T00101060 IEM_DS3505
ZBAA,2006-12-05 14:00,ZBAA 051400Z AUTO 17004KT 7SM 00/M05 A3050 RMK T00001050 IEM_DS3505
ZBAA,2006-12-05 15:00,ZBAA 051500Z AUTO 16004KT 12SM 00/M05 A3047 RMK SLP316 T00041050 57014 IEM_DS3505
ZBAA,2006-12-05 16:00,ZBAA 051600Z AUTO 13006KT 7SM 00/M06 A3045 RMK T00001060 IEM_DS3505
ZBAA,2006-12-05 17:00,ZBAA 051700Z AUTO 13006KT 7SM 00/M06 A3045 RMK T00001060 IEM_DS3505
ZBAA,2006-12-05 18:00,ZBAA 051800Z AUTO 09002KT 12SM M00/M05 A3045 RMK SLP303 T10031049 57013 IEM_DS3505
ZBAA,2006-12-05 19:00,ZBAA 051900Z AUTO 11008KT 7SM M01/M07 A3042 RMK T10101070 IEM_DS3505
ZBAA,2006-12-05 20:00,ZBAA 052000Z AUTO 12008KT 7SM M01/M06 A3039 RMK T10101060 IEM_DS3505
ZBAA,2006-12-05 21:00,ZBAA 052100Z AUTO 14004KT 9SM M00/M05 A3039 RMK SLP283 T10051049 57020 IEM_DS3505
ZBAA,2006-12-05 22:00,ZBAA 052200Z AUTO 12006KT 7SM M01/M05 A3036 RMK T10101050 IEM_DS3505
ZBAA,2006-12-05 23:00,ZBAA 052300Z AUTO 12004KT 7SM M01/M05 A3036 RMK T10101050 IEM_DS3505
ZBAA,2006-12-06 00:00,ZBAA 060000Z AUTO 02002KT 9SM M00/M04 A3039 RMK SLP283 T10041039 54000 IEM_DS3505
ZBAA,2006-12-06 01:00,ZBAA 060100Z AUTO 07002KT 4SM 00/M04 A3039 RMK T00001040 IEM_DS3505
ZBAA,2006-12-06 02:00,ZBAA 060200Z AUTO 08004KT 4SM 00/M04 A3039 RMK T00001040 IEM_DS3505
ZBAA,2006-12-06 03:00,ZBAA 060300Z AUTO 07006KT 9SM 01/M03 A3039 RMK SLP287 T00131034 52004 IEM_DS3505
ZBAA,2006-12-06 04:00,ZBAA 060400Z AUTO 02004KT 3SM 01/M03 A3036 RMK T00101030 IEM_DS3505
ZBAA,2006-12-06 05:00,ZBAA 060500Z AUTO 01006KT 3SM 02/M03 A3033 RMK T00201030 IEM_DS3505
ZBAA,2006-12-06 06:00,ZBAA 060600Z AUTO 07002KT 9SM 03/M02 A3033 RMK SLP266 T00301025 57020 IEM_DS3505
ZBAA,2006-12-06 07:00,ZBAA 060700Z AUTO 11002KT 3SM 03/M03 A3033 RMK T00301030 IEM_DS3505
ZBAA,2006-12-06 08:00,ZBAA 060800Z AUTO 11002KT 3SM 02/M03 A3033 RMK T00201030 IEM_DS3505
ZBAA,2006-12-06 09:00,ZBAA 060900Z AUTO 09002KT 9SM 02/M03 A3036 RMK SLP276 T00211032 52009 IEM_DS3505
ZBAA,2006-12-06 10:00,ZBAA 061000Z AUTO 00000KT 2SM 01/M03 A3036 RMK T00101030 IEM_DS3505
ZBAA,2006-12-06 11:00,ZBAA 061100Z AUTO 36002KT 2SM 01/M03 A3039 RMK T00101030 IEM_DS3505
ZBAA,2006-12-06 13:00,ZBAA 061300Z AUTO 35010KT 2 1/2SM 01/M03 A3042 RMK T00101030 IEM_DS3505
ZBAA,2006-12-06 14:00,ZBAA 061400Z AUTO 35010KT 2 1/2SM M01/M04 A3045 RMK T10101040 IEM_DS3505
ZBAA,2006-12-06 15:00,ZBAA 061500Z AUTO 02008KT 9SM 02/M06 A3047 RMK SLP315 T00171059 52021 IEM_DS3505
ZBAA,2006-12-06 16:00,ZBAA 061600Z AUTO 34014KT 6SM 00/M07 A3050 RMK T00001070 IEM_DS3505
ZBAA,2006-12-06 17:00,ZBAA 061700Z AUTO 35016KT 6SM 00/M12 A3053 RMK T00001120 IEM_DS3505
ZBAA,2006-12-06 18:00,ZBAA 061800Z AUTO 02008KT 19SM 00/M15 A3056 RMK SLP338 T00021146 52023 IEM_DS3505
ZBAA,2006-12-06 19:00,ZBAA 061900Z AUTO 02006KT 6SM M01/M14 A3059 RMK T10101140 IEM_DS3505
ZBAA,2006-12-06 20:00,ZBAA 062000Z AUTO 36012KT 6SM M02/M14 A3059 RMK T10201140 IEM_DS3505
ZBAA,2006-12-06 21:00,ZBAA 062100Z AUTO 02006KT 19SM M01/M16 A3059 RMK SLP353 T10131159 52015 IEM_DS3505
ZBAA,2006-12-06 22:00,ZBAA 062200Z AUTO 01012KT 6SM M03/M15 A3059 RMK T10301150 IEM_DS3505
ZBAA,2006-12-06 23:00,ZBAA 062300Z AUTO 36010KT 6SM M03/M15 A3062 RMK T10301150 IEM_DS3505
ZBAA,2006-12-07 00:00,ZBAA 070000Z AUTO 04008KT 19SM M02/M16 A3065 RMK SLP375 T10241158 52022 IEM_DS3505
ZBAA,2006-12-07 01:00,ZBAA 070100Z AUTO 01010KT 6SM M02/M15 A3068 RMK T10201150 IEM_DS3505
ZBAA,2006-12-07 02:00,ZBAA 070200Z AUTO 36010KT 6SM M01/M15 A3068 RMK T10101150 IEM_DS3505
ZBAA,2006-12-07 03:00,ZBAA 070300Z AUTO 04008KT 12SM 01/M17 A3065 RMK SLP381 T00121167 52006 IEM_DS3505
ZBAA,2006-12-07 04:00,ZBAA 070400Z AUTO 35006KT 6SM 01/M15 A3062 RMK T00101150 IEM_DS3505
ZBAA,2006-12-07 05:00,ZBAA 070500Z AUTO 36006KT 6SM 02/M16 A3062 RMK T00201160 IEM_DS3505
ZBAA,2006-12-07 06:00,ZBAA 070600Z AUTO 04008KT 19SM 02/M18 A3059 RMK SLP355 T00241177 57026 IEM_DS3505
ZBAA,2006-12-07 07:00,ZBAA 070700Z AUTO 01002KT 6SM 03/M17 A3056 RMK T00301170 IEM_DS3505
ZBAA,2006-12-07 08:00,ZBAA 070800Z AUTO 05004KT 6SM 03/M18 A3056 RMK T00301180 IEM_DS3505
ZBAA,2006-12-07 10:00,ZBAA 071000Z AUTO 16004KT 6SM 01/M15 A3059 RMK T00101150 IEM_DS3505
ZBAA,2006-12-07 11:00,ZBAA 071100Z AUTO 16004KT 6SM 00/M16 A3062 RMK T00001160 IEM_DS3505
ZBAA,2006-12-07 12:00,ZBAA 071200Z AUTO 25002KT 9SM 01/M15 A3062 RMK SLP369 T00111154 52011 IEM_DS3505
ZBAA,2006-12-07 13:00,ZBAA 071300Z AUTO 15004KT 6SM 00/M14 A3062 RMK T00001140 IEM_DS3505
ZBAA,2006-12-07 14:00,ZBAA 071400Z AUTO 15004KT 6SM M01/M14 A3062 RMK T10101140 IEM_DS3505
ZBAA,2006-12-07 15:00,ZBAA 071500Z AUTO 25002KT 9SM M01/M15 A3062 RMK SLP370 T10061149 52001 IEM_DS3505
ZBAA,2006-12-07 16:00,ZBAA 071600Z AUTO 12002KT 6SM M02/M14 A3062 RMK T10201140 IEM_DS3505
ZBAA,2006-12-07 17:00,ZBAA 071700Z AUTO 00000KT 6SM M03/M13 A3059 RMK T10301130 IEM_DS3505
ZBAA,2006-12-07 18:00,ZBAA 071800Z AUTO 22002KT 7SM M01/M13 A3062 RMK SLP363 T10071126 57007 IEM_DS3505
ZBAA,2006-12-07 19:00,ZBAA 071900Z AUTO 05002KT 4SM M03/M14 A3059 RMK T10301140 IEM_DS3505
ZBAA,2006-12-07 20:00,ZBAA 072000Z AUTO 04002KT 4SM M03/M14 A3059 RMK T10301140 IEM_DS3505
ZBAA,2006-12-07 21:00,ZBAA 072100Z AUTO 20002KT 7SM M02/M13 A3056 RMK SLP354 T10171126 57009 IEM_DS3505
ZBAA,2006-12-07 22:00,ZBAA 072200Z AUTO 06004KT 4SM M03/M12 A3056 RMK T10301120 IEM_DS3505
ZBAA,2006-12-07 23:00,ZBAA 072300Z AUTO 04002KT 4SM M03/M12 A3059 RMK T10301120 IEM_DS3505
ZBAA,2006-12-08 00:00,ZBAA 080000Z AUTO 09004KT 6SM M01/M12 A3059 RMK SLP355 T10121116 52001 IEM_DS3505
ZBAA,2006-12-08 01:00,ZBAA 080100Z AUTO 10002KT 2 1/2SM M02/M12 A3059 RMK T10201120 IEM_DS3505
ZBAA,2006-12-08 02:00,ZBAA 080200Z AUTO 05002KT 2 1/2SM M02/M12 A3059 RMK T10201120 IEM_DS3505
ZBAA,2006-12-08 03:00,ZBAA 080300Z AUTO 18002KT 9SM 01/M14 A3056 RMK SLP348 T00071137 57007 IEM_DS3505
ZBAA,2006-12-08 04:00,ZBAA 080400Z AUTO 14004KT 2SM 00/M11 A3053 RMK T00001110 IEM_DS3505
ZBAA,2006-12-08 05:00,ZBAA 080500Z AUTO 18006KT 2SM 01/M11 A3050 RMK T00101110 IEM_DS3505
ZBAA,2006-12-08 06:00,ZBAA 080600Z AUTO 20006KT 9SM 02/M14 A3050 RMK SLP326 T00201138 57022 IEM_DS3505
ZBAA,2006-12-08 07:00,ZBAA 080700Z AUTO 18008KT 4SM 02/M13 A3047 RMK T00201130 IEM_DS3505
ZBAA,2006-12-08 08:00,ZBAA 080800Z AUTO 16004KT 4SM 02/M12 A3047 RMK T00201120 IEM_DS3505
ZBAA,2006-12-08 09:00,ZBAA 080900Z AUTO 20004KT 9SM 01/M12 A3047 RMK SLP323 T00071123 57003 IEM_DS3505
ZBAA,2006-12-08 10:00,ZBAA 081000Z AUTO 18004KT 3SM M01/M12 A3050 RMK T10101120 IEM_DS3505
ZBAA,2006-12-08 11:00,ZBAA 081100Z AUTO 07004KT 3SM M01/M12 A3050 RMK T10101120 IEM_DS3505
ZBAA,2006-12-08 12:00,ZBAA 081200Z AUTO 20002KT 7SM M01/M07 A3050 RMK SLP330 T10121071 52007 IEM_DS3505
ZBAA,2006-12-08 13:00,ZBAA 081300Z AUTO 32002KT 2 1/2SM M02/M11 A3050 RMK T10201110 IEM_DS3505
ZBAA,2006-12-08 14:00,ZBAA 081400Z AUTO 34006KT 2 1/2SM M03/M11 A3053 RMK T10301110 IEM_DS3505
ZBAA,2006-12-08 15:00,ZBAA 081500Z AUTO 25004KT 6SM M02/M07 A3053 RMK SLP341 T10171070 52011 IEM_DS3505
ZBAA,2006-12-08 16:00,ZBAA 081600Z AUTO 29004KT 3SM M01/M12 A3056 RMK T10101120 IEM_DS3505
ZBAA,2006-12-08 17:00,ZBAA 081700Z AUTO 29012KT 6SM M01/M13 A3056 RMK T10101130 IEM_DS3505
ZBAA,2006-12-08 18:00,ZBAA 081800Z AUTO 32004KT 12SM M00/M14 A3056 RMK SLP349 T10051144 52008 IEM_DS3505
ZBAA,2006-12-08 19:00,ZBAA 081900Z AUTO 30016KT 6SM M01/M15 A3056 RMK T10101150 IEM_DS3505
ZBAA,2006-12-08 20:00,ZBAA 082000Z AUTO 31016KT 6SM M01/M16 A3056 RMK T10101160 IEM_DS3505
ZBAA,2006-12-08 21:00,ZBAA 082100Z AUTO 02004G25KT 12SM M02/M15 A3056 RMK SLP353 T10181152 52004 IEM_DS3505
ZBAA,2006-12-08 22:00,ZBAA 082200Z AUTO 31016KT 6SM M02/M15 A3059 RMK T10201150 IEM_DS3505
ZBAA,2006-12-08 23:00,ZBAA 082300Z AUTO 31010KT 6SM M03/M15 A3059 RMK T10301150 IEM_DS3505
ZBAA,2006-12-09 00:00,ZBAA 090000Z AUTO 34002KT 19SM M02/M15 A3062 RMK SLP368 T10231147 52015 IEM_DS3505
ZBAA,2006-12-09 01:00,ZBAA 090100Z AUTO 33010KT 6SM M01/M15 A3065 RMK T10101150 IEM_DS3505
ZBAA,2006-12-09 02:00,ZBAA 090200Z AUTO 31012KT 6SM 01/M15 A3065 RMK T00101150 IEM_DS3505
ZBAA,2006-12-09 03:00,ZBAA 090300Z AUTO 02006KT 19SM 02/M16 A3062 RMK SLP370 T00181157 52002 IEM_DS3505
ZBAA,2006-12-09 04:00,ZBAA 090400Z AUTO 30014KT 6SM 03/M15 A3059 RMK T00301150 IEM_DS3505
ZBAA,2006-12-09 05:00,ZBAA 090500Z AUTO 32012KT 6SM 03/M16 A3056 RMK T00301160 IEM_DS3505
ZBAA,2006-12-09 06:00,ZBAA 090600Z AUTO 04002KT 19SM 05/M17 A3053 RMK SLP334 T00461171 57036 IEM_DS3505
ZBAA,2006-12-09 07:00,ZBAA 090700Z AUTO 31010KT 6SM 04/M16 A3050 RMK T00401160 IEM_DS3505
ZBAA,2006-12-09 08:00,ZBAA 090800Z AUTO 29006KT 6SM 04/M16 A3050 RMK T00401160 IEM_DS3505
ZBAA,2006-12-09 09:00,ZBAA 090900Z AUTO 22006KT 16SM 02/M14 A3050 RMK SLP329 T00171144 57005 IEM_DS3505
ZBAA,2006-12-09 10:00,ZBAA 091000Z AUTO 24006KT 6SM 02/M14 A3050 RMK T00201140 IEM_DS3505
ZBAA,2006-12-09 11:00,ZBAA 091100Z AUTO 24004KT 6SM 01/M13 A3050 RMK T00101130 IEM_DS3505
ZBAA,2006-12-09 12:00,ZBAA 091200Z AUTO 22004KT 12SM M01/M11 A3050 RMK SLP331 T10061108 52002 IEM_DS3505
ZBAA,2006-12-09 13:00,ZBAA 091300Z AUTO 23006KT 4SM 01/M11 A3050 RMK T00101110 IEM_DS3505
ZBAA,2006-12-09 14:00,ZBAA 091400Z AUTO 24002KT 3SM 00/M10 A3047 RMK T00001100 IEM_DS3505
ZBAA,2006-12-09 15:00,ZBAA 091500Z AUTO 22002KT 12SM M02/M10 A3047 RMK SLP321 T10231101 57010 IEM_DS3505
ZBAA,2006-12-09 16:00,ZBAA 091600Z AUTO 36002KT 2SM M05/M12 A3047 RMK T10501120 IEM_DS3505
ZBAA,2006-12-09 17:00,ZBAA 091700Z AUTO 01002KT 1 1/2SM M05/M12 A3047 RMK T10501120 IEM_DS3505
ZBAA,2006-12-09 18:00,ZBAA 091800Z AUTO 25004KT 12SM M04/M10 A3045 RMK SLP313 T10371101 57008 IEM_DS3505
ZBAA,2006-12-09 19:00,ZBAA 091900Z AUTO 35002KT 1 1/2SM M07/M12 A3045 RMK T10701120 IEM_DS3505
ZBAA,2006-12-09 20:00,ZBAA 092000Z AUTO 35006KT 2SM M07/M13 A3042 RMK T10701130 IEM_DS3505
ZBAA,2006-12-09 21:00,ZBAA 092100Z AUTO 16002KT 9SM M06/M10 A3039 RMK SLP288 T10581097 57025 IEM_DS3505
ZBAA,2006-12-09 22:00,ZBAA 092200Z AUTO 35004KT 2 1/2SM M07/M12 A3039 RMK T10701120 IEM_DS3505
ZBAA,2006-12-09 23:00,ZBAA 092300Z AUTO 01002KT 2 1/2SM M07/M12 A3039 RMK T10701120 IEM_DS3505
ZBAA,2006-12-10 00:00,ZBAA 100000Z AUTO 25002KT 3SM M06/M09 A3039 RMK SLP285 T10641091 57003 IEM_DS3505
ZBAA,2006-12-10 01:00,ZBAA 100100Z AUTO 2 1/2SM M04/M11 A3039 RMK T10401110 IEM_DS3505
ZBAA,2006-12-10 02:00,ZBAA 100200Z AUTO 02004KT 2 1/2SM M04/M11 A3039 RMK T10401110 IEM_DS3505
ZBAA,2006-12-10 03:00,ZBAA 100300Z AUTO 14002KT 5SM 01/M08 A3036 RMK SLP277 T00071083 57008 IEM_DS3505
ZBAA,2006-12-10 04:00,ZBAA 100400Z AUTO 11002KT 2 1/2SM 01/M09 A3033 RMK T00101090 IEM_DS3505
ZBAA,2006-12-10 05:00,ZBAA 100500Z AUTO 15004KT 2 1/2SM 03/M11 A3027 RMK T00301110 IEM_DS3505
ZBAA,2006-12-10 06:00,ZBAA 100600Z AUTO 20002KT 6SM 03/M09 A3024 RMK SLP242 T00301087 57035 IEM_DS3505
ZBAA,2006-12-10 07:00,ZBAA 100700Z AUTO 16004KT 1 1/2SM 04/M08 A3021 RMK T00401080 IEM_DS3505
ZBAA,2006-12-10 08:00,ZBAA 100800Z AUTO 16004KT 2SM 03/M08 A3024 RMK T00301080 IEM_DS3505
ZBAA,2006-12-10 09:00,ZBAA 100900Z AUTO 18004KT 5SM 01/M07 A3024 RMK SLP242 T00141071 54000 IEM_DS3505
ZBAA,2006-12-10 10:00,ZBAA 101000Z AUTO 16004KT 2SM 00/M07 A3024 RMK T00001070 IEM_DS3505
ZBAA,2006-12-10 11:00,ZBAA 101100Z AUTO 16006KT 2SM M01/M07 A3027 RMK T10101070 IEM_DS3505
ZBAA,2006-12-10 12:00,ZBAA 101200Z AUTO 22002KT 4SM M01/M06 A3027 RMK SLP247 T10141065 52005 IEM_DS3505
ZBAA,2006-12-10 13:00,ZBAA 101300Z AUTO 00000KT 1 1/2SM M02/M07 A3027 RMK T10201070 IEM_DS3505
ZBAA,2006-12-10 14:00,ZBAA 101400Z AUTO 15002KT 1 1/4SM M04/M07 A3027 RMK T10401070 IEM_DS3505
ZBAA,2006-12-10 15:00,ZBAA 101500Z AUTO 00000KT 3SM M03/M07 A3027 RMK SLP248 T10321067 52001 IEM_DS3505
ZBAA,2006-12-10 16:00,ZBAA 101600Z AUTO 05004KT 1SM M04/M07 A3027 RMK T10401070 IEM_DS3505
ZBAA,2006-12-10 17:00,ZBAA 101700Z AUTO 03002KT 1SM M05/M08 A3027 RMK T10501080 IEM_DS3505
ZBAA,2006-12-10 18:00,ZBAA 101800Z AUTO 09002KT 2 1/2SM M05/M07 A3027 RMK SLP243 T10461069 57005 IEM_DS3505
ZBAA,2006-12-10 19:00,ZBAA 101900Z AUTO 01002KT 1SM M05/M07 A3024 RMK T10501070 IEM_DS3505
ZBAA,2006-12-10 20:00,ZBAA 102000Z AUTO 00000KT 1SM M06/M08 A3024 RMK T10601080 IEM_DS3505
ZBAA,2006-12-10 21:00,ZBAA 102100Z AUTO 11002KT 2 1/2SM M04/M06 A3024 RMK SLP237 T10441064 57006 IEM_DS3505
ZBAA,2006-12-10 22:00,ZBAA 102200Z AUTO 34004KT 1 1/4SM M07/M09 A3024 RMK T10701090 IEM_DS3505
ZBAA,2006-12-10 23:00,ZBAA 102300Z AUTO 36004KT 1 1/4SM M06/M09 A3021 RMK T10601090 IEM_DS3505
ZBAA,2006-12-11 00:00,ZBAA 110000Z AUTO 04004KT 2SM M04/M07 A3021 RMK SLP229 T10451073 57008 IEM_DS3505
ZBAA,2006-12-11 01:00,ZBAA 110100Z AUTO 06004KT 1 1/4SM M05/M08 A3021 RMK T10501080 IEM_DS3505
ZBAA,2006-12-11 02:00,ZBAA 110200Z AUTO 03002KT 1 1/4SM M04/M08 A3021 RMK T10401080 IEM_DS3505
ZBAA,2006-12-11 03:00,ZBAA 110300Z AUTO 09006KT 2 1/2SM M01/M05 A3021 RMK SLP227 T10091049 57002 IEM_DS3505
ZBAA,2006-12-11 04:00,ZBAA 110400Z AUTO 04002KT 1SM 00/M06 A3018 RMK T00001060 IEM_DS3505
ZBAA,2006-12-11 05:00,ZBAA 110500Z AUTO 04002KT 1SM 01/M06 A3015 RMK T00101060 IEM_DS3505
ZBAA,2006-12-11 06:00,ZBAA 110600Z AUTO 11004KT 4SM 02/M04 A3012 RMK SLP201 T00191042 57026 IEM_DS3505
ZBAA,2006-12-11 07:00,ZBAA 110700Z AUTO 08002KT 1SM 01/M05 A3012 RMK T00101050 IEM_DS3505
ZBAA,2006-12-11 08:00,ZBAA 110800Z AUTO 12002KT 1SM 01/M04 A3012 RMK T00101040 IEM_DS3505
ZBAA,2006-12-11 09:00,ZBAA 110900Z AUTO 09002KT 1 1/4SM M01/M04 A3015 RMK SLP210 T10091037 52009 IEM_DS3505
ZBAA,2006-12-11 10:00,ZBAA 111000Z AUTO 15002KT 1/2SM M01/M03 A3015 RMK T10101030 IEM_DS3505
ZBAA,2006-12-11 11:00,ZBAA 111100Z AUTO 05004KT 1/2SM M02/M03 A3018 RMK T10201030 IEM_DS3505
ZBAA,2006-12-11 12:00,ZBAA 111200Z AUTO 18002KT 1/8SM M04/M05 A3018 RMK SLP221 T10421046 52011 IEM_DS3505
ZBAA,2006-12-11 13:00,ZBAA 111300Z AUTO 00000KT 3/8SM M03/M04 A3018 RMK T10301040 IEM_DS3505
ZBAA,2006-12-11 14:00,ZBAA 111400Z AUTO 16004KT 3/8SM M05/M05 A3018 RMK T10501050 IEM_DS3505
ZBAA,2006-12-11 15:00,ZBAA 111500Z AUTO 29002KT 1/8SM M04/M04 A3021 RMK SLP226 T10421045 52005 IEM_DS3505
ZBAA,2006-12-11 16:00,ZBAA 111600Z AUTO 00000KT 1/8SM M05/M05 A3021 RMK T10501050 IEM_DS3505
ZBAA,2006-12-11 17:00,ZBAA 111700Z AUTO 00000KT 1/8SM M05/M05 A3021 RMK T10501050 IEM_DS3505
ZBAA,2006-12-11 18:00,ZBAA 111800Z AUTO 14002KT 1/8SM M04/M04 A3021 RMK SLP230 T10371040 52004 IEM_DS3505
ZBAA,2006-12-11 19:00,ZBAA 111900Z AUTO 00000KT 1/8SM M06/M06 A3021 RMK T10601060 IEM_DS3505
ZBAA,2006-12-11 20:00,ZBAA 112000Z AUTO 27004KT 3/8SM M06/M06 A3021 RMK T10601060 IEM_DS3505
ZBAA,2006-12-11 21:00,ZBAA 112100Z AUTO 27002KT 1SM M03/M03 A3021 RMK SLP227 T10311034 57003 IEM_DS3505
ZBAA,2006-12-11 22:00,ZBAA 112200Z AUTO 30004KT 1SM M05/M05 A3021 RMK T10501050 IEM_DS3505
ZBAA,2006-12-11 23:00,ZBAA 112300Z AUTO 29006KT 1/2SM M05/M05 A3021 RMK T10501050 IEM_DS3505
ZBAA,2006-12-12 00:00,ZBAA 120000Z AUTO 25002KT 1/8SM M03/M04 A3024 RMK SLP243 T10341037 52016 IEM_DS3505
ZBAA,2006-12-12 01:00,ZBAA 120100Z AUTO 35004KT 1SM M02/M05 A3027 RMK T10201050 IEM_DS3505
ZBAA,2006-12-12 02:00,ZBAA 120200Z AUTO 1SM M01/M05 A3027 RMK T10101050 IEM_DS3505
ZBAA,2006-12-12 03:00,ZBAA 120300Z AUTO 22002KT 1SM M02/M02 A3027 RMK SLP253 T10181022 52010 IEM_DS3505
ZBAA,2006-12-12 04:00,ZBAA 120400Z AUTO 35004KT 2SM 03/M05 A3024 RMK T00301050 IEM_DS3505
ZBAA,2006-12-12 05:00,ZBAA 120500Z AUTO 34006KT 4SM 06/M08 A3024 RMK T00601080 IEM_DS3505
ZBAA,2006-12-12 06:00,ZBAA 120600Z AUTO 22004KT 1 1/4SM 04/M03 A3024 RMK SLP237 T00391034 57016 IEM_DS3505
ZBAA,2006-12-12 07:00,ZBAA 120700Z AUTO 30006KT 6SM 07/M11 A3024 RMK T00701110 IEM_DS3505
ZBAA,2006-12-12 08:00,ZBAA 120800Z AUTO 28010KT 6SM 07/M11 A3027 RMK T00701110 IEM_DS3505
ZBAA,2006-12-12 09:00,ZBAA 120900Z AUTO 34004G23KT 4SM 06/M10 A3030 RMK SLP257 T00571105 52021 IEM_DS3505
ZBAA,2006-12-12 10:00,ZBAA 121000Z AUTO 30014KT 6SM 06/M12 A3030 RMK T00601120 IEM_DS3505
ZBAA,2006-12-12 11:00,ZBAA 121100Z AUTO 28006KT 6SM 05/M11 A3030 RMK T00501110 IEM_DS3505
ZBAA,2006-12-12 12:00,ZBAA 121200Z AUTO 36008KT 9SM 06/M13 A3033 RMK SLP266 T00631128 52009 IEM_DS3505
ZBAA,2006-12-12 13:00,ZBAA 121300Z AUTO 35002KT 5SM 03/M11 A3033 RMK T00301110 IEM_DS3505
ZBAA,2006-12-12 14:00,ZBAA 121400Z AUTO 19002KT 5SM 02/M10 A3033 RMK T00201100 IEM_DS3505
ZBAA,2006-12-12 15:00,ZBAA 121500Z AUTO 25004KT 12SM 03/M11 A3036 RMK SLP279 T00301106 52012 IEM_DS3505
ZBAA,2006-12-12 16:00,ZBAA 121600Z AUTO 29004KT 5SM 04/M11 A3036 RMK T00401110 IEM_DS3505
ZBAA,2006-12-12 17:00,ZBAA 121700Z AUTO 23006KT 6SM 03/M11 A3033 RMK T00301110 IEM_DS3505
ZBAA,2006-12-12 18:00,ZBAA 121800Z AUTO 36002KT 4SM M01/M06 A3036 RMK SLP272 T10091061 57006 IEM_DS3505
ZBAA,2006-12-12 19:00,ZBAA 121900Z AUTO 28004KT 6SM 02/M12 A3033 RMK T00201120 IEM_DS3505
ZBAA,2006-12-12 20:00,ZBAA 122000Z AUTO 29008KT 6SM 02/M12 A3033 RMK T00201120 IEM_DS3505
ZBAA,2006-12-12 21:00,ZBAA 122100Z AUTO 29002KT 3SM M04/M06 A3033 RMK SLP269 T10361065 57004 IEM_DS3505
ZBAA,2006-12-12 22:00,ZBAA 122200Z AUTO 27006KT 6SM 02/M12 A3033 RMK T00201120 IEM_DS3505
ZBAA,2006-12-12 23:00,ZBAA 122300Z AUTO 27006KT 6SM 02/M12 A3036 RMK T00201120 IEM_DS3505
ZBAA,2006-12-13 00:00,ZBAA 130000Z AUTO 32006KT 12SM 04/M15 A3036 RMK SLP268 T00381154 54000 IEM_DS3505
ZBAA,2006-12-13 01:00,ZBAA 130100Z AUTO 29008KT 5SM 03/M13 A3036 RMK T00301130 IEM_DS3505
ZBAA,2006-12-13 02:00,ZBAA 130200Z AUTO 30012KT 6SM 04/M13 A3039 RMK T00401130 IEM_DS3505
ZBAA,2006-12-13 03:00,ZBAA 130300Z AUTO 36006KT 12SM 06/M16 A3039 RMK SLP277 T00631163 52009 IEM_DS3505
ZBAA,2006-12-13 04:00,ZBAA 130400Z AUTO 29010KT 6SM 06/M15 A3036 RMK T00601150 IEM_DS3505
ZBAA,2006-12-13 05:00,ZBAA 130500Z AUTO 30010KT 6SM 07/M15 A3033 RMK T00701150 IEM_DS3505
ZBAA,2006-12-13 06:00,ZBAA 130600Z AUTO 02006KT 16SM 08/M18 A3030 RMK SLP254 T00751183 57023 IEM_DS3505
ZBAA,2006-12-13 07:00,ZBAA 130700Z AUTO 32012KT 6SM 07/M16 A3027 RMK T00701160 IEM_DS3505
ZBAA,2006-12-13 08:00,ZBAA 130800Z AUTO 32008KT 6SM 06/M16 A3027 RMK T00601160 IEM_DS3505
ZBAA,2006-12-13 09:00,ZBAA 130900Z AUTO 25004KT 9SM 05/M12 A3027 RMK SLP256 T00461115 52001 IEM_DS3505
ZBAA,2006-12-13 10:00,ZBAA 131000Z AUTO 03002KT 6SM 01/M14 A3030 RMK T00101140 IEM_DS3505
ZBAA,2006-12-13 11:00,ZBAA 131100Z AUTO 00000KT 6SM 03/M15 A3030 RMK T00301150 IEM_DS3505
ZBAA,2006-12-13 12:00,ZBAA 131200Z AUTO 22004KT 7SM 01/M08 A3030 RMK SLP257 T00141081 52002 IEM_DS3505
ZBAA,2006-12-13 13:00,ZBAA 131300Z AUTO 14002KT 6SM M01/M13 A3030 RMK T10101130 IEM_DS3505
ZBAA,2006-12-13 14:00,ZBAA 131400Z AUTO 15004KT 4SM M02/M11 A3027 RMK T10201110 IEM_DS3505
ZBAA,2006-12-13 15:00,ZBAA 131500Z AUTO 25002KT 6SM M01/M08 A3027 RMK SLP248 T10131078 57009 IEM_DS3505
ZBAA,2006-12-13 16:00,ZBAA 131600Z AUTO 04004KT 3SM M02/M13 A3024 RMK T10201130 IEM_DS3505
ZBAA,2006-12-13 17:00,ZBAA 131700Z AUTO 35004KT 2 1/2SM M05/M13 A3024 RMK T10501130 IEM_DS3505
ZBAA,2006-12-13 18:00,ZBAA 131800Z AUTO 22002KT 5SM M03/M09 A3021 RMK SLP228 T10291086 57020 IEM_DS3505
ZBAA,2006-12-13 18:30,ZBAA 131830Z AUTO 34006KT 2SM M05/M12 A3021 RMK T10501120 IEM_DS3505
ZBAA,2006-12-13 19:00,ZBAA 131900Z AUTO 34004KT 2SM M06/M12 A3021 RMK T10601120 IEM_DS3505
ZBAA,2006-12-13 19:30,ZBAA 131930Z AUTO 33004KT 2 1/2SM M06/M12 A3018 RMK T10601120 IEM_DS3505
ZBAA,2006-12-13 20:00,ZBAA 132000Z AUTO 33002KT 2 1/2SM M05/M12 A3018 RMK T10501120 IEM_DS3505
ZBAA,2006-12-13 20:30,ZBAA 132030Z AUTO 33004KT 2 1/2SM M06/M12 A3018 RMK T10601120 IEM_DS3505
ZBAA,2006-12-13 21:00,ZBAA 132100Z AUTO 07002KT 5SM M04/M09 A3018 RMK SLP213 T10391093 57015 IEM_DS3505
ZBAA,2006-12-13 21:30,ZBAA 132130Z AUTO 34004KT 4SM M06/M12 A3018 RMK T10601120 IEM_DS3505
ZBAA,2006-12-13 22:00,ZBAA 132200Z AUTO 34004KT 4SM M06/M13 A3018 RMK T10601130 IEM_DS3505
ZBAA,2006-12-13 23:00,ZBAA 132300Z AUTO 34004KT 4SM M06/M12 A3018 RMK T10601120 IEM_DS3505
ZBAA,2006-12-14 00:00,ZBAA 140000Z AUTO 09002KT 4SM M04/M11 A3018 RMK SLP216 T10431107 52002 IEM_DS3505
ZBAA,2006-12-14 01:00,ZBAA 140100Z AUTO 05004KT 3SM M05/M11 A3018 RMK T10501110 IEM_DS3505
ZBAA,2006-12-14 02:00,ZBAA 140200Z AUTO 35002KT 3SM M03/M11 A3018 RMK T10301110 IEM_DS3505
ZBAA,2006-12-14 03:00,ZBAA 140300Z AUTO 09002KT 9SM 02/M13 A3015 RMK SLP207 T00171132 57008 IEM_DS3505
ZBAA,2006-12-14 04:00,ZBAA 140400Z AUTO 06002KT 4SM 02/M11 A3012 RMK T00201110 IEM_DS3505
ZBAA,2006-12-14 05:00,ZBAA 140500Z AUTO 08002KT 4SM 03/M12 A3009 RMK T00301120 IEM_DS3505
ZBAA,2006-12-14 06:00,ZBAA 140600Z AUTO 20004KT 9SM 06/M11 A3006 RMK SLP176 T00581109 57031 IEM_DS3505
ZBAA,2006-12-14 07:00,ZBAA 140700Z AUTO 14004KT 2 1/2SM 04/M10 A3003 RMK T00401100 IEM_DS3505
ZBAA,2006-12-14 08:00,ZBAA 140800Z AUTO 16004KT 2 1/2SM 04/M10 A3003 RMK T00401100 IEM_DS3505
ZBAA,2006-12-14 09:00,ZBAA 140900Z AUTO 20004KT 3SM 04/M08 A3003 RMK SLP171 T00361081 57005 IEM_DS3505
ZBAA,2006-12-14 10:00,ZBAA 141000Z AUTO 11002KT 2SM 01/M10 A3006 RMK T00101100 IEM_DS3505
ZBAA,2006-12-14 11:00,ZBAA 141100Z AUTO 05002KT 1 1/2SM 00/M10 A3006 RMK T00001100 IEM_DS3505
ZBAA,2006-12-14 12:00,ZBAA 141200Z AUTO 32002KT 2 1/2SM M00/M07 A3009 RMK SLP189 T10051069 52017 IEM_DS3505
ZBAA,2006-12-14 13:00,ZBAA 141300Z AUTO 03002KT 1 1/4SM M02/M09 A3009 RMK T10201090 IEM_DS3505
ZBAA,2006-12-14 14:00,ZBAA 141400Z AUTO 35004KT 1 1/4SM M02/M09 A3012 RMK T10201090 IEM_DS3505
ZBAA,2006-12-14 15:00,ZBAA 141500Z AUTO 36002KT 2 1/2SM M02/M06 A3015 RMK SLP202 T10161060 52014 IEM_DS3505
ZBAA,2006-12-14 16:00,ZBAA 141600Z AUTO 36002KT 3SM M02/M10 A3015 RMK T10201100 IEM_DS3505
ZBAA,2006-12-14 17:00,ZBAA 141700Z AUTO 03004KT 3SM M01/M10 A3015 RMK T10101100 IEM_DS3505
ZBAA,2006-12-14 18:00,ZBAA 141800Z AUTO 02008KT 9SM 04/M13 A3018 RMK SLP217 T00381126 52015 IEM_DS3505
ZBAA,2006-12-14 19:00,ZBAA 141900Z AUTO 31016KT 6SM 03/M11 A3018 RMK T00301110 IEM_DS3505
ZBAA,2006-12-14 20:00,ZBAA 142000Z AUTO 35008KT 6SM 00/M11 A3021 RMK T00001110 IEM_DS3505
ZBAA,2006-12-14 21:00,ZBAA 142100Z AUTO 36006KT 12SM 03/M12 A3021 RMK SLP225 T00301121 52008 IEM_DS3505
ZBAA,2006-12-14 22:00,ZBAA 142200Z AUTO 04008KT 6SM 00/M12 A3024 RMK T00001120 IEM_DS3505
ZBAA,2006-12-14 23:00,ZBAA 142300Z AUTO 36006KT 6SM M01/M11 A3027 RMK T10101110 IEM_DS3505
ZBAA,2006-12-15 00:00,ZBAA 150000Z AUTO 02010KT 19SM 03/M13 A3030 RMK SLP254 T00261132 52029 IEM_DS3505
ZBAA,2006-12-15 01:00,ZBAA 150100Z AUTO 32012KT 6SM 03/M12 A3033 RMK T00301120 IEM_DS3505
ZBAA,2006-12-15 02:00,ZBAA 150200Z AUTO 35008KT 6SM 02/M11 A3036 RMK T00201110 IEM_DS3505
ZBAA,2006-12-15 03:00,ZBAA 150300Z AUTO 36006KT 19SM 05/M14 A3036 RMK SLP272 T00481136 52018 IEM_DS3505
ZBAA,2006-12-15 04:00,ZBAA 150400Z AUTO 01008KT 6SM 04/M12 A3033 RMK T00401120 IEM_DS3505
ZBAA,2006-12-15 05:00,ZBAA 150500Z AUTO 33012KT 6SM 05/M13 A3030 RMK T00501130 IEM_DS3505
ZBAA,2006-12-15 06:00,ZBAA 150600Z AUTO 36010KT 19SM 06/M14 A3027 RMK SLP250 T00651137 57022 IEM_DS3505
ZBAA,2006-12-15 07:00,ZBAA 150700Z AUTO 30008KT 6SM 07/M11 A3027 RMK T00701110 IEM_DS3505
ZBAA,2006-12-15 08:00,ZBAA 150800Z AUTO 28014KT 6SM 06/M12 A3027 RMK T00601120 IEM_DS3505
ZBAA,2006-12-15 09:00,ZBAA 150900Z AUTO 34002KT 19SM 05/M14 A3030 RMK SLP257 T00531136 52007 IEM_DS3505
ZBAA,2006-12-15 10:00,ZBAA 151000Z AUTO 29010KT 6SM 04/M12 A3033 RMK T00401120 IEM_DS3505
ZBAA,2006-12-15 11:00,ZBAA 151100Z AUTO 28006KT 6SM 03/M12 A3033 RMK T00301120 IEM_DS3505
ZBAA,2006-12-15 12:00,ZBAA 151200Z AUTO 22002KT 12SM 02/M11 A3033 RMK SLP271 T00231109 52014 IEM_DS3505
ZBAA,2006-12-15 13:00,ZBAA 151300Z AUTO 25006KT 6SM 04/M11 A3033 RMK T00401110 IEM_DS3505
ZBAA,2006-12-15 14:00,ZBAA 151400Z AUTO 28008KT 6SM 02/M11 A3033 RMK T00201110 IEM_DS3505
ZBAA,2006-12-15 15:00,ZBAA 151500Z AUTO 29004KT 12SM 01/M11 A3033 RMK SLP271 T00101111 54000 IEM_DS3505
ZBAA,2006-12-15 16:00,ZBAA 151600Z AUTO 28010KT 6SM 02/M10 A3033 RMK T00201100 IEM_DS3505
ZBAA,2006-12-15 17:00,ZBAA 151700Z AUTO 28012KT 6SM 01/M13 A3033 RMK T00101130 IEM_DS3505
ZBAA,2006-12-15 18:00,ZBAA 151800Z AUTO 29008KT 16SM 02/M15 A3033 RMK SLP271 T00221149 54000 IEM_DS3505
ZBAA,2006-12-15 19:00,ZBAA 151900Z AUTO 27008KT 6SM 00/M13 A3033 RMK T00001130 IEM_DS3505
ZBAA,2006-12-15 20:00,ZBAA 152000Z AUTO 29012KT 6SM 00/M14 A3030 RMK T00001140 IEM_DS3505
ZBAA,2006-12-15 21:00,ZBAA 152100Z AUTO 32017KT 19SM 01/M22 A3030 RMK SLP265 T00141224 57006 IEM_DS3505
ZBAA,2006-12-15 22:00,ZBAA 152200Z AUTO 30016KT 6SM M01/M22 A3036 RMK T10101220 IEM_DS3505
ZBAA,2006-12-15 23:00,ZBAA 152300Z AUTO 32017KT 6SM M02/M23 A3039 RMK T10201230 IEM_DS3505
ZBAA,2006-12-16 00:00,ZBAA 160000Z AUTO 32019G29KT 19SM M02/M25 A3042 RMK SLP294 T10211246 52028 IEM_DS3505
ZBAA,2006-12-16 01:00,ZBAA 160100Z AUTO 31021KT 6SM M03/M25 A3045 RMK T10301250 IEM_DS3505
ZBAA,2006-12-16 02:00,ZBAA 160200Z AUTO 31031G43KT 5SM M04/M27 A3047 RMK T10401270 IEM_DS3505
ZBAA,2006-12-16 03:00,ZBAA 160300Z AUTO 34014G47KT 12SM M03/M26 A3047 RMK SLP316 T10331263 52022 IEM_DS3505
ZBAA,2006-12-16 04:00,ZBAA 160400Z AUTO 32033G49KT 6SM M04/M27 A3047 RMK T10401270 IEM_DS3505
ZBAA,2006-12-16 05:00,ZBAA 160500Z AUTO 30029G39KT 6SM M04/M27 A3047 RMK T10401270 IEM_DS3505
ZBAA,2006-12-16 06:00,ZBAA 160600Z AUTO 36012G43KT 19SM M04/M28 A3047 RMK SLP313 T10401276 57003 IEM_DS3505
ZBAA,2006-12-16 07:00,ZBAA 160700Z AUTO 32021G35KT 6SM M05/M27 A3050 RMK T10501270 IEM_DS3505
ZBAA,2006-12-16 08:00,ZBAA 160800Z AUTO 32023G37KT 6SM M05/M26 A3050 RMK T10501260 IEM_DS3505
ZBAA,2006-12-16 09:00,ZBAA 160900Z AUTO 36012KT 19SM M05/M25 A3053 RMK SLP333 T10461253 52020 IEM_DS3505
ZBAA,2006-12-16 10:00,ZBAA 161000Z AUTO 30019G31KT 6SM M06/M25 A3056 RMK T10601250 IEM_DS3505
ZBAA,2006-12-16 11:00,ZBAA 161100Z AUTO 31017G29KT 6SM M07/M25 A3059 RMK T10701250 IEM_DS3505
ZBAA,2006-12-16 12:00,ZBAA 161200Z AUTO 02008KT 19SM M06/M25 A3062 RMK SLP361 T10591253 52027 IEM_DS3505
ZBAA,2006-12-16 13:00,ZBAA 161300Z AUTO 34008KT 6SM M08/M25 A3065 RMK T10801250 IEM_DS3505
ZBAA,2006-12-16 14:00,ZBAA 161400Z AUTO 36006KT 6SM M08/M25 A3065 RMK T10801250 IEM_DS3505
ZBAA,2006-12-16 15:00,ZBAA 161500Z AUTO 02006KT 19SM M07/M25 A3065 RMK SLP376 T10671254 52015 IEM_DS3505
ZBAA,2006-12-16 16:00,ZBAA 161600Z AUTO 01010KT 6SM M09/M25 A3065 RMK T10901250 IEM_DS3505
ZBAA,2006-12-16 17:00,ZBAA 161700Z AUTO 02012KT 6SM M10/M25 A3065 RMK T11001250 IEM_DS3505
ZBAA,2006-12-16 18:00,ZBAA 161800Z AUTO 04008KT 19SM M10/M25 A3065 RMK SLP377 T10951246 52001 IEM_DS3505
ZBAA,2006-12-16 19:00,ZBAA 161900Z AUTO 36012KT 6SM M11/M25 A3065 RMK T11101250 IEM_DS3505
ZBAA,2006-12-16 20:00,ZBAA 162000Z AUTO 36014KT 6SM M11/M24 A3065 RMK T11101240 IEM_DS3505
ZBAA,2006-12-16 21:00,ZBAA 162100Z AUTO 02008KT 19SM M08/M26 A3065 RMK SLP367 T10851255 57010 IEM_DS3505
ZBAA,2006-12-16 22:00,ZBAA 162200Z AUTO 02014KT 6SM M11/M24 A3062 RMK T11101240 IEM_DS3505
ZBAA,2006-12-16 23:00,ZBAA 162300Z AUTO 03008KT 6SM M10/M25 A3062 RMK T11001250 IEM_DS3505
ZBAA,2006-12-17 00:00,ZBAA 170000Z AUTO 04004KT 19SM M10/M24 A3062 RMK SLP371 T11011240 52004 IEM_DS3505
ZBAA,2006-12-17 01:00,ZBAA 170100Z AUTO 01010KT 6SM M09/M26 A3062 RMK T10901260 IEM_DS3505
ZBAA,2006-12-17 02:00,ZBAA 170200Z AUTO 01008KT 6SM M07/M25 A3062 RMK T10701250 IEM_DS3505
ZBAA,2006-12-17 03:00,ZBAA 170300Z AUTO 20006KT 12SM M05/M24 A3059 RMK SLP367 T10511235 57004 IEM_DS3505
ZBAA,2006-12-17 04:00,ZBAA 170400Z AUTO 6SM M04/M25 A3059 RMK T10401250 IEM_DS3505
ZBAA,2006-12-17 05:00,ZBAA 170500Z AUTO 18004KT 6SM M03/M24 A3053 RMK T10301240 IEM_DS3505
ZBAA,2006-12-17 06:00,ZBAA 170600Z AUTO 22008KT 12SM M02/M23 A3050 RMK SLP333 T10241229 57034 IEM_DS3505
ZBAA,2006-12-17 07:00,ZBAA 170700Z AUTO 18006KT 6SM M02/M23 A3050 RMK T10201230 IEM_DS3505
ZBAA,2006-12-17 08:00,ZBAA 170800Z AUTO 17004KT 6SM M02/M23 A3047 RMK T10201230 IEM_DS3505
ZBAA,2006-12-17 09:00,ZBAA 170900Z AUTO 22006KT 12SM M03/M19 A3047 RMK SLP324 T10291193 57009 IEM_DS3505
ZBAA,2006-12-17 10:00,ZBAA 171000Z AUTO 16004KT 6SM M04/M20 A3047 RMK T10401200 IEM_DS3505
ZBAA,2006-12-17 11:00,ZBAA 171100Z AUTO 10004KT 5SM M05/M19 A3047 RMK T10501190 IEM_DS3505
ZBAA,2006-12-17 12:00,ZBAA 171200Z AUTO 18004KT 9SM M04/M19 A3050 RMK SLP327 T10401194 52003 IEM_DS3505
ZBAA,2006-12-17 13:00,ZBAA 171300Z AUTO 03002KT 2 1/2SM M06/M19 A3050 RMK T10601190 IEM_DS3505
ZBAA,2006-12-17 14:00,ZBAA 171400Z AUTO 08004KT 2 1/2SM M07/M19 A3050 RMK T10701190 IEM_DS3505
ZBAA,2006-12-17 15:00,ZBAA 171500Z AUTO 07002KT 7SM M06/M18 A3050 RMK SLP322 T10551179 57005 IEM_DS3505
ZBAA,2006-12-17 16:00,ZBAA 171600Z AUTO 02002KT 2 1/2SM M07/M19 A3047 RMK T10701190 IEM_DS3505
ZBAA,2006-12-17 17:00,ZBAA 171700Z AUTO 02004KT 2 1/2SM M06/M20 A3047 RMK T10601200 IEM_DS3505
ZBAA,2006-12-17 18:00,ZBAA 171800Z AUTO 04004KT 7SM M06/M17 A3047 RMK SLP317 T10571174 57004 IEM_DS3505
ZBAA,2006-12-17 19:00,ZBAA 171900Z AUTO 35002KT 3SM M07/M18 A3047 RMK T10701180 IEM_DS3505
ZBAA,2006-12-17 20:00,ZBAA 172000Z AUTO 33006KT 3SM M07/M18 A3045 RMK T10701180 IEM_DS3505
ZBAA,2006-12-17 21:00,ZBAA 172100Z AUTO 09004KT 7SM M06/M17 A3045 RMK SLP307 T10631174 57011 IEM_DS3505
ZBAA,2006-12-17 22:00,ZBAA 172200Z AUTO 35006KT 4SM M09/M17 A3045 RMK T10901170 IEM_DS3505
ZBAA,2006-12-17 23:00,ZBAA 172300Z AUTO 33004KT 5SM M09/M18 A3045 RMK T10901180 IEM_DS3505
ZBAA,2006-12-18 00:00,ZBAA 180000Z AUTO 07004KT 6SM M07/M17 A3045 RMK SLP314 T10731169 52007 IEM_DS3505
ZBAA,2006-12-18 00:30,ZBAA 180030Z AUTO 34006KT 4SM M08/M17 A3047 RMK T10801170 IEM_DS3505
ZBAA,2006-12-18 01:00,ZBAA 180100Z AUTO 34004KT 4SM M07/M17 A3047 RMK T10701170 IEM_DS3505
ZBAA,2006-12-18 02:00,ZBAA 180200Z AUTO 02006KT 4SM M05/M19 A3047 RMK T10501190 IEM_DS3505
ZBAA,2006-12-18 03:00,ZBAA 180300Z AUTO 04004KT 7SM M02/M19 A3047 RMK SLP314 T10251194 52001 IEM_DS3505
ZBAA,2006-12-18 04:00,ZBAA 180400Z AUTO 05002KT 4SM M03/M18 A3045 RMK T10301180 IEM_DS3505
ZBAA,2006-12-18 05:00,ZBAA 180500Z AUTO 05002KT 4SM M01/M18 A3042 RMK T10101180 IEM_DS3505
ZBAA,2006-12-18 06:00,ZBAA 180600Z AUTO 07004KT 6SM 00/M18 A3039 RMK SLP292 T00011176 57022 IEM_DS3505
ZBAA,2006-12-18 07:00,ZBAA 180700Z AUTO 15002KT 5SM 00/M18 A3039 RMK T00001180 IEM_DS3505
ZBAA,2006-12-18 08:00,ZBAA 180800Z AUTO 14002KT 4SM 00/M18 A3042 RMK T00001180 IEM_DS3505
ZBAA,2006-12-18 09:00,ZBAA 180900Z AUTO 09002KT 5SM M01/M17 A3042 RMK SLP303 T10111173 52011 IEM_DS3505
ZBAA,2006-12-18 10:00,ZBAA 181000Z AUTO 09002KT 4SM M02/M17 A3045 RMK T10201170 IEM_DS3505
ZBAA,2006-12-18 11:00,ZBAA 181100Z AUTO 04002KT 3SM M04/M17 A3047 RMK T10401170 IEM_DS3505
ZBAA,2006-12-18 12:00,ZBAA 181200Z AUTO 04002KT 4SM M03/M15 A3047 RMK SLP319 T10271151 52015 IEM_DS3505
ZBAA,2006-12-18 13:00,ZBAA 181300Z AUTO 29004KT 2 1/2SM M04/M16 A3047 RMK T10401160 IEM_DS3505
ZBAA,2006-12-18 14:00,ZBAA 181400Z AUTO 34006KT 2 1/2SM M05/M16 A3050 RMK T10501160 IEM_DS3505
ZBAA,2006-12-18 15:00,ZBAA 181500Z AUTO 29002KT 4SM M04/M13 A3050 RMK SLP328 T10451129 52010 IEM_DS3505
ZBAA,2006-12-18 16:00,ZBAA 181600Z AUTO 35006KT 1 1/2SM M06/M16 A3050 RMK T10601160 IEM_DS3505
ZBAA,2006-12-18 17:00,ZBAA 181700Z AUTO 34004KT 2SM M07/M15 A3050 RMK T10701150 IEM_DS3505
ZBAA,2006-12-18 18:00,ZBAA 181800Z AUTO 32004KT 4SM M06/M13 A3050 RMK SLP328 T10571126 54000 IEM_DS3505
ZBAA,2006-12-18 19:00,ZBAA 181900Z AUTO 27004KT 4SM M06/M15 A3050 RMK T10601150 IEM_DS3505
ZBAA,2006-12-18 20:00,ZBAA 182000Z AUTO 23004KT 4SM M07/M15 A3050 RMK T10701150 IEM_DS3505
ZBAA,2006-12-18 21:00,ZBAA 182100Z AUTO 07004KT 2 1/2SM M07/M12 A3047 RMK SLP324 T10701121 57005 IEM_DS3505
ZBAA,2006-12-18 22:00,ZBAA 182200Z AUTO 31004KT 4SM M08/M15 A3050 RMK T10801150 IEM_DS3505
ZBAA,2006-12-18 23:00,ZBAA 182300Z AUTO 34006KT 4SM M07/M15 A3050 RMK T10701150 IEM_DS3505
ZBAA,2006-12-19 00:00,ZBAA 190000Z AUTO 07002KT 1 1/4SM M06/M10 A3053 RMK SLP336 T10601104 52012 IEM_DS3505
ZBAA,2006-12-19 01:00,ZBAA 190100Z AUTO 34006KT 4SM M06/M15 A3053 RMK T10601150 IEM_DS3505
ZBAA,2006-12-19 02:00,ZBAA 190200Z AUTO 03004KT 4SM M03/M15 A3056 RMK T10301150 IEM_DS3505
ZBAA,2006-12-19 03:00,ZBAA 190300Z AUTO 02002KT 4SM 01/M14 A3053 RMK SLP341 T00101142 52006 IEM_DS3505
ZBAA,2006-12-19 04:00,ZBAA 190400Z AUTO 07002KT 6SM 00/M13 A3053 RMK T00001130 IEM_DS3505
ZBAA,2006-12-19 05:00,ZBAA 190500Z AUTO 07004KT 6SM 02/M13 A3050 RMK T00201130 IEM_DS3505
ZBAA,2006-12-19 06:00,ZBAA 190600Z AUTO 18004KT 5SM 04/M16 A3047 RMK SLP317 T00361156 57024 IEM_DS3505
ZBAA,2006-12-19 07:00,ZBAA 190700Z AUTO 14004KT 6SM 03/M13 A3047 RMK T00301130 IEM_DS3505
ZBAA,2006-12-19 08:00,ZBAA 190800Z AUTO 10004KT 6SM 02/M13 A3047 RMK T00201130 IEM_DS3505
ZBAA,2006-12-19 09:00,ZBAA 190900Z AUTO 20002KT 5SM 02/M16 A3047 RMK SLP319 T00161158 52002 IEM_DS3505
ZBAA,2006-12-19 10:00,ZBAA 191000Z AUTO 12004KT 3SM 00/M13 A3047 RMK T00001130 IEM_DS3505
ZBAA,2006-12-19 11:00,ZBAA 191100Z AUTO 13002KT 3SM 00/M13 A3050 RMK T00001130 IEM_DS3505
ZBAA,2006-12-19 12:00,ZBAA 191200Z AUTO 22002KT 4SM 00/M14 A3050 RMK SLP332 T00031141 52013 IEM_DS3505
ZBAA,2006-12-19 13:00,ZBAA 191300Z AUTO 14006KT 1 1/2SM 00/M12 A3053 RMK T00001120 IEM_DS3505
ZBAA,2006-12-19 14:00,ZBAA 191400Z AUTO 15004KT 1 1/2SM M01/M11 A3053 RMK T10101110 IEM_DS3505
ZBAA,2006-12-19 15:00,ZBAA 191500Z AUTO 07002KT 5SM 00/M12 A3053 RMK SLP333 T00011119 52001 IEM_DS3505
ZBAA,2006-12-19 16:00,ZBAA 191600Z AUTO 04002KT 1 1/4SM M01/M12 A3053 RMK T10101120 IEM_DS3505
ZBAA,2006-12-19 17:00,ZBAA 191700Z AUTO 00000KT 1 1/4SM M01/M12 A3050 RMK T10101120 IEM_DS3505
ZBAA,2006-12-19 18:00,ZBAA 191800Z AUTO 36004KT 5SM M01/M13 A3050 RMK SLP330 T10101126 57003 IEM_DS3505
ZBAA,2006-12-19 19:00,ZBAA 191900Z AUTO 00000KT 1 1/4SM M03/M11 A3050 RMK T10301110 IEM_DS3505
ZBAA,2006-12-19 20:00,ZBAA 192000Z AUTO 35006KT 1 1/4SM M04/M11 A3050 RMK T10401110 IEM_DS3505
ZBAA,2006-12-19 21:00,ZBAA 192100Z AUTO 07002KT 5SM M02/M11 A3050 RMK SLP320 T10181111 57010 IEM_DS3505
ZBAA,2006-12-19 22:00,ZBAA 192200Z AUTO 33004KT 2SM M05/M11 A3047 RMK T10501110 IEM_DS3505
ZBAA,2006-12-19 23:00,ZBAA 192300Z AUTO 35004KT 2SM M04/M12 A3047 RMK T10401120 IEM_DS3505
ZBAA,2006-12-20 00:00,ZBAA 200000Z AUTO 07002KT 3SM M03/M11 A3050 RMK SLP327 T10321112 52007 IEM_DS3505
ZBAA,2006-12-20 01:00,ZBAA 200100Z AUTO 34004KT 2 1/2SM M04/M10 A3050 RMK T10401100 IEM_DS3505
ZBAA,2006-12-20 02:00,ZBAA 200200Z AUTO 34006KT 2 1/2SM M02/M10 A3053 RMK T10201100 IEM_DS3505
ZBAA,2006-12-20 03:00,ZBAA 200300Z AUTO 07002KT 5SM 02/M11 A3050 RMK SLP330 T00221110 52003 IEM_DS3505
ZBAA,2006-12-20 04:00,ZBAA 200400Z AUTO 02002KT 2 1/2SM 01/M11 A3047 RMK T00101110 IEM_DS3505
ZBAA,2006-12-20 05:00,ZBAA 200500Z AUTO 02002KT 2 1/2SM 04/M10 A3045 RMK T00401100 IEM_DS3505
ZBAA,2006-12-20 06:00,ZBAA 200600Z AUTO 22004KT 4SM 05/M10 A3045 RMK SLP306 T00501103 57024 IEM_DS3505
ZBAA,2006-12-20 07:00,ZBAA 200700Z AUTO 29006KT 5SM 06/M09 A3042 RMK T00601090 IEM_DS3505
ZBAA,2006-12-20 08:00,ZBAA 200800Z AUTO 29008KT 6SM 06/M09 A3042 RMK T00601090 IEM_DS3505
ZBAA,2006-12-20 09:00,ZBAA 200900Z AUTO 27004KT 4SM 03/M11 A3045 RMK SLP308 T00321112 52002 IEM_DS3505
ZBAA,2006-12-20 10:00,ZBAA 201000Z AUTO 26008KT 5SM 04/M09 A3045 RMK T00401090 IEM_DS3505
ZBAA,2006-12-20 11:00,ZBAA 201100Z AUTO 26008KT 5SM 03/M09 A3045 RMK T00301090 IEM_DS3505
ZBAA,2006-12-20 12:00,ZBAA 201200Z AUTO 22004KT 4SM 01/M10 A3045 RMK SLP312 T00071099 52004 IEM_DS3505
ZBAA,2006-12-20 13:00,ZBAA 201300Z AUTO 29006KT 2 1/2SM 02/M09 A3045 RMK T00201090 IEM_DS3505
ZBAA,2006-12-20 14:00,ZBAA 201400Z AUTO 35002KT 2 1/2SM M01/M09 A3045 RMK T10101090 IEM_DS3505
ZBAA,2006-12-20 15:00,ZBAA 201500Z AUTO 25002KT 3SM M01/M09 A3045 RMK SLP310 T10101089 57002 IEM_DS3505
ZBAA,2006-12-20 16:00,ZBAA 201600Z AUTO 04002KT 2SM M03/M09 A3045 RMK T10301090 IEM_DS3505
ZBAA,2006-12-20 17:00,ZBAA 201700Z AUTO 00000KT 2SM M03/M09 A3045 RMK T10301090 IEM_DS3505
ZBAA,2006-12-20 18:00,ZBAA 201800Z AUTO 11002KT 4SM M03/M09 A3045 RMK SLP302 T10261093 57008 IEM_DS3505
ZBAA,2006-12-20 19:00,ZBAA 201900Z AUTO 34004KT 2 1/2SM M05/M10 A3042 RMK T10501100 IEM_DS3505
ZBAA,2006-12-20 20:00,ZBAA 202000Z AUTO 35004KT 2 1/2SM M04/M09 A3042 RMK T10401090 IEM_DS3505
ZBAA,2006-12-20 21:00,ZBAA 202100Z AUTO 04002KT 4SM M04/M08 A3039 RMK SLP287 T10351085 57015 IEM_DS3505
ZBAA,2006-12-20 22:00,ZBAA 202200Z AUTO 02002KT 3SM M05/M10 A3039 RMK T10501100 IEM_DS3505
ZBAA,2006-12-20 23:00,ZBAA 202300Z AUTO 00000KT 3SM M05/M09 A3039 RMK T10501090 IEM_DS3505
ZBAA,2006-12-21 00:00,ZBAA 210000Z AUTO 07002KT 2 1/2SM M03/M08 A3039 RMK SLP289 T10271084 52002 IEM_DS3505
ZBAA,2006-12-21 01:00,ZBAA 210100Z AUTO 36004KT 3SM M03/M09 A3039 RMK T10301090 IEM_DS3505
ZBAA,2006-12-21 02:00,ZBAA 210200Z AUTO 14004KT 2 1/2SM M02/M09 A3039 RMK T10201090 IEM_DS3505
ZBAA,2006-12-21 03:00,ZBAA 210300Z AUTO 22002KT 2SM 02/M08 A3036 RMK SLP283 T00181075 57006 IEM_DS3505
ZBAA,2006-12-21 04:00,ZBAA 210400Z AUTO 14004KT 2 1/2SM 01/M08 A3033 RMK T00101080 IEM_DS3505
ZBAA,2006-12-21 05:00,ZBAA 210500Z AUTO 09004KT 2 1/2SM 03/M09 A3030 RMK T00301090 IEM_DS3505
ZBAA,2006-12-21 06:00,ZBAA 210600Z AUTO 20004KT 5SM 07/M10 A3027 RMK SLP252 T00701103 57030 IEM_DS3505
ZBAA,2006-12-21 07:00,ZBAA 210700Z AUTO 13004KT 2 1/2SM 05/M08 A3027 RMK T00501080 IEM_DS3505
ZBAA,2006-12-21 08:00,ZBAA 210800Z AUTO 20008KT 1SM 06/M08 A3030 RMK T00601080 IEM_DS3505
ZBAA,2006-12-21 09:00,ZBAA 210900Z AUTO 25002KT 5SM 04/M09 A3033 RMK SLP269 T00421092 52016 IEM_DS3505
ZBAA,2006-12-21 10:00,ZBAA 211000Z AUTO 36006KT 2SM 01/M08 A3036 RMK T00101080 IEM_DS3505
ZBAA,2006-12-21 11:00,ZBAA 211100Z AUTO 03006KT 2 1/2SM 02/M09 A3036 RMK T00201090 IEM_DS3505
ZBAA,2006-12-21 12:00,ZBAA 211200Z AUTO 09002KT 4SM 01/M08 A3039 RMK SLP289 T00101083 52020 IEM_DS3505
ZBAA,2006-12-21 13:00,ZBAA 211300Z AUTO 34008KT 4SM 00/M10 A3039 RMK T00001100 IEM_DS3505
ZBAA,2006-12-21 14:00,ZBAA 211400Z AUTO 36008KT 4SM M01/M10 A3042 RMK T10101100 IEM_DS3505
ZBAA,2006-12-21 15:00,ZBAA 211500Z AUTO 09002KT 3SM M01/M11 A3042 RMK SLP301 T10061113 52012 IEM_DS3505
ZBAA,2006-12-21 16:00,ZBAA 211600Z AUTO 33004KT 4SM M02/M12 A3045 RMK T10201120 IEM_DS3505
ZBAA,2006-12-21 17:00,ZBAA 211700Z AUTO 34004KT 4SM M03/M12 A3045 RMK T10301120 IEM_DS3505
ZBAA,2006-12-21 18:00,ZBAA 211800Z AUTO 07004KT 6SM M01/M12 A3042 RMK SLP299 T10101120 57001 IEM_DS3505
ZBAA,2006-12-21 19:00,ZBAA 211900Z AUTO 33006KT 6SM M04/M13 A3042 RMK T10401130 IEM_DS3505
ZBAA,2006-12-21 20:00,ZBAA 212000Z AUTO 35008KT 6SM M05/M12 A3042 RMK T10501120 IEM_DS3505
ZBAA,2006-12-21 21:00,ZBAA 212100Z AUTO 04004KT 9SM M02/M12 A3042 RMK SLP300 T10211122 54000 IEM_DS3505
ZBAA,2006-12-21 22:00,ZBAA 212200Z AUTO 35004KT 6SM M06/M12 A3042 RMK T10601120 IEM_DS3505
ZBAA,2006-12-21 23:00,ZBAA 212300Z AUTO 33006KT 6SM M06/M12 A3042 RMK T10601120 IEM_DS3505
ZBAA,2006-12-22 00:00,ZBAA 220000Z AUTO 07002KT 12SM M04/M12 A3045 RMK SLP303 T10381117 52003 IEM_DS3505
ZBAA,2006-12-22 01:00,ZBAA 220100Z AUTO 35008KT 6SM M03/M11 A3045 RMK T10301110 IEM_DS3505
ZBAA,2006-12-22 02:00,ZBAA 220200Z AUTO 35004KT 6SM M01/M11 A3042 RMK T10101110 IEM_DS3505
ZBAA,2006-12-22 03:00,ZBAA 220300Z AUTO 09002KT 11SM 04/M12 A3042 RMK SLP296 T00351124 57007 IEM_DS3505
ZBAA,2006-12-22 04:00,ZBAA 220400Z AUTO 07002KT 6SM 02/M12 A3039 RMK T00201120 IEM_DS3505
ZBAA,2006-12-22 05:00,ZBAA 220500Z AUTO 06002KT 6SM 03/M12 A3033 RMK T00301120 IEM_DS3505
ZBAA,2006-12-22 07:00,ZBAA 220700Z AUTO 04002KT 5SM 05/M10 A3030 RMK T00501100 IEM_DS3505
ZBAA,2006-12-22 08:00,ZBAA 220800Z AUTO 36006KT 4SM 04/M11 A3030 RMK T00401110 IEM_DS3505
ZBAA,2006-12-22 09:00,ZBAA 220900Z AUTO 22004KT 9SM 04/M14 A3030 RMK SLP261 T00431140 57002 IEM_DS3505
ZBAA,2006-12-22 10:00,ZBAA 221000Z AUTO 00000KT 4SM 02/M11 A3030 RMK T00201110 IEM_DS3505
ZBAA,2006-12-22 11:00,ZBAA 221100Z AUTO 3SM 00/M11 A3033 RMK T00001110 IEM_DS3505
ZBAA,2006-12-22 12:00,ZBAA 221200Z AUTO 35004KT 9SM 00/M12 A3033 RMK SLP270 T00001117 52008 IEM_DS3505
ZBAA,2006-12-22 13:00,ZBAA 221300Z AUTO 02002KT 2 1/2SM M01/M10 A3033 RMK T10101100 IEM_DS3505
ZBAA,2006-12-22 14:00,ZBAA 221400Z AUTO 35004KT 2 1/2SM M03/M11 A3036 RMK T10301110 IEM_DS3505
ZBAA,2006-12-22 15:00,ZBAA 221500Z AUTO 09002KT 8SM M02/M10 A3036 RMK SLP274 T10161104 52004 IEM_DS3505
ZBAA,2006-12-22 16:00,ZBAA 221600Z AUTO 34006KT 4SM M03/M11 A3036 RMK T10301110 IEM_DS3505
ZBAA,2006-12-22 17:00,ZBAA 221700Z AUTO 33006KT 5SM M04/M11 A3036 RMK T10401110 IEM_DS3505
ZBAA,2006-12-22 18:00,ZBAA 221800Z AUTO 34008KT 7SM M02/M11 A3036 RMK SLP279 T10181108 52006 IEM_DS3505
ZBAA,2006-12-22 19:00,ZBAA 221900Z AUTO 34008KT 6SM M04/M11 A3036 RMK T10401110 IEM_DS3505
ZBAA,2006-12-22 20:00,ZBAA 222000Z AUTO 01012KT 6SM M02/M11 A3036 RMK T10201110 IEM_DS3505
ZBAA,2006-12-22 21:00,ZBAA 222100Z AUTO 02004KT 12SM M01/M11 A3036 RMK SLP278 T10091111 57001 IEM_DS3505
ZBAA,2006-12-22 22:00,ZBAA 222200Z AUTO 34008KT 6SM M04/M12 A3039 RMK T10401120 IEM_DS3505
ZBAA,2006-12-22 23:00,ZBAA 222300Z AUTO 36010KT 6SM M02/M12 A3039 RMK T10201120 IEM_DS3505
ZBAA,2006-12-23 00:00,ZBAA 230000Z AUTO 09004KT 12SM M02/M12 A3042 RMK SLP297 T10151125 52018 IEM_DS3505
ZBAA,2006-12-23 01:00,ZBAA 230100Z AUTO 35008KT 6SM 01/M12 A3045 RMK T00101120 IEM_DS3505
ZBAA,2006-12-23 02:00,ZBAA 230200Z AUTO 36006KT 6SM 02/M12 A3047 RMK T00201120 IEM_DS3505
ZBAA,2006-12-23 03:00,ZBAA 230300Z AUTO 02004KT 12SM 05/M14 A3045 RMK SLP312 T00511143 52015 IEM_DS3505
ZBAA,2006-12-23 04:00,ZBAA 230400Z AUTO 35006KT 6SM 04/M12 A3045 RMK T00401120 IEM_DS3505
ZBAA,2006-12-23 05:00,ZBAA 230500Z AUTO 36002KT 6SM 06/M12 A3042 RMK T00601120 IEM_DS3505
ZBAA,2006-12-23 06:00,ZBAA 230600Z AUTO 11008KT 12SM 07/M13 A3042 RMK SLP293 T00671130 57018 IEM_DS3505
ZBAA,2006-12-23 07:00,ZBAA 230700Z AUTO 14008KT 6SM 06/M11 A3039 RMK T00601110 IEM_DS3505
ZBAA,2006-12-23 08:00,ZBAA 230800Z AUTO 13006KT 5SM 05/M08 A3039 RMK T00501080 IEM_DS3505
ZBAA,2006-12-23 09:00,ZBAA 230900Z AUTO 14004KT 12SM 05/M05 A3039 RMK SLP291 T00541053 57002 IEM_DS3505
ZBAA,2006-12-23 10:00,ZBAA 231000Z AUTO 13002KT 4SM 02/M07 A3039 RMK T00201070 IEM_DS3505
ZBAA,2006-12-23 11:00,ZBAA 231100Z AUTO 16004KT 4SM 01/M06 A3042 RMK T00101060 IEM_DS3505
ZBAA,2006-12-23 12:00,ZBAA 231200Z AUTO 16004KT 12SM 02/M05 A3042 RMK SLP298 T00181054 52006 IEM_DS3505
ZBAA,2006-12-23 13:00,ZBAA 231300Z AUTO 15004KT 6SM 00/M06 A3042 RMK T00001060 IEM_DS3505
ZBAA,2006-12-23 14:00,ZBAA 231400Z AUTO 15004KT 6SM 00/M06 A3042 RMK T00001060 IEM_DS3505
ZBAA,2006-12-23 15:00,ZBAA 231500Z AUTO 18002KT 12SM M01/M06 A3042 RMK SLP294 T10081060 57003 IEM_DS3505
ZBAA,2006-12-23 16:00,ZBAA 231600Z AUTO 00000KT 6SM M03/M07 A3039 RMK T10301070 IEM_DS3505
ZBAA,2006-12-23 17:00,ZBAA 231700Z AUTO 05002KT 6SM M03/M07 A3039 RMK T10301070 IEM_DS3505
ZBAA,2006-12-23 18:00,ZBAA 231800Z AUTO 04004KT 9SM M03/M06 A3039 RMK SLP283 T10271063 57011 IEM_DS3505
ZBAA,2006-12-23 19:00,ZBAA 231900Z AUTO 00000KT 5SM M05/M07 A3036 RMK T10501070 IEM_DS3505
ZBAA,2006-12-23 20:00,ZBAA 232000Z AUTO 36002KT 4SM M05/M08 A3033 RMK T10501080 IEM_DS3505
ZBAA,2006-12-23 21:00,ZBAA 232100Z AUTO 36002KT 4SM M04/M07 A3033 RMK SLP268 T10371068 57016 IEM_DS3505
ZBAA,2006-12-23 22:00,ZBAA 232200Z AUTO 33002KT 3SM M05/M07 A3033 RMK T10501070 IEM_DS3505
ZBAA,2006-12-23 23:00,ZBAA 232300Z AUTO 28002KT 3SM M04/M07 A3033 RMK T10401070 IEM_DS3505
ZBAA,2006-12-24 00:00,ZBAA 240000Z AUTO 07002KT 5SM M04/M07 A3033 RMK SLP266 T10441070 57002 IEM_DS3505
ZBAA,2006-12-24 01:00,ZBAA 240100Z AUTO 35006KT 2SM M03/M06 A3033 RMK T10301060 IEM_DS3505
ZBAA,2006-12-24 02:00,ZBAA 240200Z AUTO 36004KT 3SM M01/M06 A3033 RMK T10101060 IEM_DS3505
ZBAA,2006-12-24 03:00,ZBAA 240300Z AUTO 14002KT 7SM 02/M06 A3033 RMK SLP262 T00221059 57004 IEM_DS3505
ZBAA,2006-12-24 04:00,ZBAA 240400Z AUTO 05004KT 5SM 02/M05 A3027 RMK T00201050 IEM_DS3505
ZBAA,2006-12-24 05:00,ZBAA 240500Z AUTO 06002KT 6SM 03/M05 A3024 RMK T00301050 IEM_DS3505
ZBAA,2006-12-24 06:00,ZBAA 240600Z AUTO 18004KT 7SM 04/M05 A3021 RMK SLP229 T00411051 57032 IEM_DS3505
ZBAA,2006-12-24 07:00,ZBAA 240700Z AUTO 13004KT 5SM 03/M04 A3021 RMK T00301040 IEM_DS3505
ZBAA,2006-12-24 08:00,ZBAA 240800Z AUTO 14004KT 4SM 03/M04 A3021 RMK T00301040 IEM_DS3505
ZBAA,2006-12-24 09:00,ZBAA 240900Z AUTO 16004KT 7SM 02/M05 A3021 RMK SLP230 T00251051 54000 IEM_DS3505
ZBAA,2006-12-24 10:00,ZBAA 241000Z AUTO 13004KT 3SM 00/M05 A3021 RMK T00001050 IEM_DS3505
ZBAA,2006-12-24 11:00,ZBAA 241100Z AUTO 17002KT 2 1/2SM M01/M05 A3024 RMK T10101050 IEM_DS3505
ZBAA,2006-12-24 12:00,ZBAA 241200Z AUTO 16002KT 6SM 00/M05 A3021 RMK SLP234 T00011049 52004 IEM_DS3505
ZBAA,2006-12-24 13:00,ZBAA 241300Z AUTO 00000KT 2SM M02/M05 A3024 RMK T10201050 IEM_DS3505
ZBAA,2006-12-24 14:00,ZBAA 241400Z AUTO 00000KT 2SM M03/M06 A3021 RMK T10301060 IEM_DS3505
ZBAA,2006-12-24 15:00,ZBAA 241500Z AUTO 05002KT 6SM M02/M06 A3021 RMK SLP233 T10231058 57001 IEM_DS3505
ZBAA,2006-12-24 16:00,ZBAA 241600Z AUTO 02002KT 1 1/4SM M03/M05 A3021 RMK T10301050 IEM_DS3505
ZBAA,2006-12-24 17:00,ZBAA 241700Z AUTO 05002KT 1 1/4SM M04/M06 A3021 RMK T10401060 IEM_DS3505
ZBAA,2006-12-24 18:00,ZBAA 241800Z AUTO 09002KT 5SM M02/M05 A3021 RMK SLP229 T10231051 57003 IEM_DS3505
ZBAA,2006-12-24 19:00,ZBAA 241900Z AUTO 33004KT 1 1/4SM M05/M07 A3021 RMK T10501070 IEM_DS3505
ZBAA,2006-12-24 20:00,ZBAA 242000Z AUTO 33004KT 1 1/2SM M05/M07 A3021 RMK T10501070 IEM_DS3505
ZBAA,2006-12-24 21:00,ZBAA 242100Z AUTO 07002KT 3SM M04/M05 A3021 RMK SLP229 T10361054 57001 IEM_DS3505
ZBAA,2006-12-24 22:00,ZBAA 242200Z AUTO 34004KT 1 1/2SM M05/M06 A3021 RMK T10501060 IEM_DS3505
ZBAA,2006-12-24 23:00,ZBAA 242300Z AUTO 34004KT 2SM M05/M07 A3021 RMK T10501070 IEM_DS3505
ZBAA,2006-12-25 00:00,ZBAA 250000Z AUTO 07002KT 3SM M04/M06 A3024 RMK SLP235 T10371055 52006 IEM_DS3505
ZBAA,2006-12-25 01:00,ZBAA 250100Z AUTO 33006KT 2SM M04/M06 A3024 RMK T10401060 IEM_DS3505
ZBAA,2006-12-25 02:00,ZBAA 250200Z AUTO 35004KT 2SM M03/M05 A3024 RMK T10301050 IEM_DS3505
ZBAA,2006-12-25 03:00,ZBAA 250300Z AUTO 04004KT 4SM 00/M04 A3024 RMK SLP237 T00041044 52002 IEM_DS3505
ZBAA,2006-12-25 04:00,ZBAA 250400Z AUTO 35004KT 2 1/2SM 00/M05 A3021 RMK T00001050 IEM_DS3505
ZBAA,2006-12-25 05:00,ZBAA 250500Z AUTO 01002KT 2 1/2SM 01/M04 A3018 RMK T00101040 IEM_DS3505
ZBAA,2006-12-25 06:00,ZBAA 250600Z AUTO 09004KT 5SM 02/M04 A3015 RMK SLP211 T00231044 57025 IEM_DS3505
ZBAA,2006-12-25 07:00,ZBAA 250700Z AUTO 06002KT 2 1/2SM 02/M04 A3015 RMK T00201040 IEM_DS3505
ZBAA,2006-12-25 08:00,ZBAA 250800Z AUTO 08002KT 2 1/2SM 01/M04 A3015 RMK T00101040 IEM_DS3505
ZBAA,2006-12-25 09:00,ZBAA 250900Z AUTO 07002KT 4SM 01/M04 A3018 RMK SLP216 T00091041 52004 IEM_DS3505
ZBAA,2006-12-25 10:00,ZBAA 251000Z AUTO 15004KT 2SM M01/M04 A3018 RMK T10101040 IEM_DS3505
ZBAA,2006-12-25 11:00,ZBAA 251100Z AUTO 00000KT 1 1/2SM M02/M05 A3018 RMK T10201050 IEM_DS3505
ZBAA,2006-12-25 12:00,ZBAA 251200Z AUTO 04002KT 3SM M01/M04 A3021 RMK SLP229 T10091042 52013 IEM_DS3505
ZBAA,2006-12-25 13:00,ZBAA 251300Z AUTO 01002KT 1 1/4SM M02/M04 A3021 RMK T10201040 IEM_DS3505
ZBAA,2006-12-25 14:00,ZBAA 251400Z AUTO 02002KT 1SM M03/M05 A3021 RMK T10301050 IEM_DS3505
ZBAA,2006-12-25 15:00,ZBAA 251500Z AUTO 07002KT 3SM M01/M04 A3021 RMK SLP231 T10121040 52002 IEM_DS3505
ZBAA,2006-12-25 16:00,ZBAA 251600Z AUTO 34004KT 1SM M03/M05 A3021 RMK T10301050 IEM_DS3505
ZBAA,2006-12-25 17:00,ZBAA 251700Z AUTO 34004KT 1SM M03/M05 A3021 RMK T10301050 IEM_DS3505
ZBAA,2006-12-25 18:00,ZBAA 251800Z AUTO 04004KT 3SM M02/M04 A3021 RMK SLP228 T10201043 57002 IEM_DS3505
ZBAA,2006-12-25 19:00,ZBAA 251900Z AUTO 35006KT 1 1/2SM M03/M05 A3021 RMK T10301050 IEM_DS3505
ZBAA,2006-12-25 20:00,ZBAA 252000Z AUTO 34004KT 1 1/2SM M04/M05 A3021 RMK T10401050 IEM_DS3505
ZBAA,2006-12-25 21:00,ZBAA 252100Z AUTO 07002KT 4SM M02/M05 A3021 RMK SLP222 T10241049 57007 IEM_DS3505
ZBAA,2006-12-25 22:00,ZBAA 252200Z AUTO 35006KT 1 1/2SM M05/M07 A3021 RMK T10501070 IEM_DS3505
ZBAA,2006-12-25 23:00,ZBAA 252300Z AUTO 34008KT 1 1/2SM M04/M06 A3021 RMK T10401060 IEM_DS3505
ZBAA,2006-12-26 00:00,ZBAA 260000Z AUTO 04002KT 4SM M01/M05 A3024 RMK SLP237 T10101050 52015 IEM_DS3505
ZBAA,2006-12-26 01:00,ZBAA 260100Z AUTO 34008KT 2SM M02/M05 A3024 RMK T10201050 IEM_DS3505
ZBAA,2006-12-26 02:00,ZBAA 260200Z AUTO 34008KT 2SM M01/M05 A3027 RMK T10101050 IEM_DS3505
ZBAA,2006-12-26 03:00,ZBAA 260300Z AUTO 04006KT 6SM 02/M05 A3027 RMK SLP249 T00251054 52013 IEM_DS3505
ZBAA,2006-12-26 04:00,ZBAA 260400Z AUTO 35012KT 3SM 03/M05 A3027 RMK T00301050 IEM_DS3505
ZBAA,2006-12-26 05:00,ZBAA 260500Z AUTO 02010KT 4SM 04/M06 A3024 RMK T00401060 IEM_DS3505
ZBAA,2006-12-26 06:00,ZBAA 260600Z AUTO 04008KT 7SM 05/M08 A3024 RMK SLP242 T00531075 57007 IEM_DS3505
ZBAA,2006-12-26 07:00,ZBAA 260700Z AUTO 03006KT 4SM 06/M07 A3027 RMK T00601070 IEM_DS3505
ZBAA,2006-12-26 08:00,ZBAA 260800Z AUTO 14006KT 2SM 03/M04 A3030 RMK T00301040 IEM_DS3505
ZBAA,2006-12-26 09:00,ZBAA 260900Z AUTO 14008KT 4SM 02/M03 A3033 RMK SLP271 T00181033 52028 IEM_DS3505
ZBAA,2006-12-26 10:00,ZBAA 261000Z AUTO 13006KT 2SM 00/M04 A3036 RMK T00001040 IEM_DS3505
ZBAA,2006-12-26 11:00,ZBAA 261100Z AUTO 19006KT 2SM M01/M04 A3042 RMK T10101040 IEM_DS3505
ZBAA,2006-12-26 12:00,ZBAA 261200Z AUTO 09002KT 5SM M01/M04 A3045 RMK SLP307 T10121039 52036 IEM_DS3505
ZBAA,2006-12-26 13:00,ZBAA 261300Z AUTO 20004KT 2 1/2SM M01/M05 A3045 RMK T10101050 IEM_DS3505
ZBAA,2006-12-26 14:00,ZBAA 261400Z AUTO 2 1/2SM M01/M04 A3047 RMK T10101040 IEM_DS3505
ZBAA,2006-12-26 15:00,ZBAA 261500Z AUTO 32002KT 4SM M04/M05 A3047 RMK SLP317 T10371051 52010 IEM_DS3505
ZBAA,2006-12-26 16:00,ZBAA 261600Z AUTO 14004KT 2 1/2SM M04/M06 A3047 RMK T10401060 IEM_DS3505
ZBAA,2006-12-26 17:00,ZBAA 261700Z AUTO 33002KT 1 1/2SM M06/M08 A3047 RMK T10601080 IEM_DS3505
ZBAA,2006-12-26 18:00,ZBAA 261800Z AUTO 07004KT 3SM M04/M06 A3047 RMK SLP318 T10421063 52001 IEM_DS3505
ZBAA,2006-12-26 19:00,ZBAA 261900Z AUTO 32008KT 6SM M05/M11 A3047 RMK T10501110 IEM_DS3505
ZBAA,2006-12-26 20:00,ZBAA 262000Z AUTO 32012KT 6SM M03/M14 A3047 RMK T10301140 IEM_DS3505
ZBAA,2006-12-26 21:00,ZBAA 262100Z AUTO 02004KT 12SM M02/M14 A3050 RMK SLP318 T10251139 54000 IEM_DS3505
ZBAA,2006-12-26 22:00,ZBAA 262200Z AUTO 32008KT 6SM M05/M16 A3050 RMK T10501160 IEM_DS3505
ZBAA,2006-12-26 23:00,ZBAA 262300Z AUTO 34006KT 6SM M06/M17 A3050 RMK T10601170 IEM_DS3505
ZBAA,2006-12-27 00:00,ZBAA 270000Z AUTO 36006KT 19SM M03/M15 A3053 RMK SLP332 T10321152 52014 IEM_DS3505
ZBAA,2006-12-27 01:00,ZBAA 270100Z AUTO 36006KT 6SM M05/M17 A3053 RMK T10501170 IEM_DS3505
ZBAA,2006-12-27 02:00,ZBAA 270200Z AUTO 02004KT 6SM M03/M16 A3053 RMK T10301160 IEM_DS3505
ZBAA,2006-12-27 03:00,ZBAA 270300Z AUTO 36008KT 19SM M01/M17 A3050 RMK SLP331 T10071174 57001 IEM_DS3505
ZBAA,2006-12-27 04:00,ZBAA 270400Z AUTO 30017KT 6SM 00/M17 A3047 RMK T00001170 IEM_DS3505
ZBAA,2006-12-27 05:00,ZBAA 270500Z AUTO 30014KT 6SM 01/M18 A3045 RMK T00101180 IEM_DS3505
ZBAA,2006-12-27 06:00,ZBAA 270600Z AUTO 34010KT 19SM 02/M20 A3045 RMK SLP304 T00151196 57027 IEM_DS3505
ZBAA,2006-12-27 07:00,ZBAA 270700Z AUTO 04010KT 6SM 00/M18 A3042 RMK T00001180 IEM_DS3505
ZBAA,2006-12-27 08:00,ZBAA 270800Z AUTO 01006KT 6SM 00/M20 A3045 RMK T00001200 IEM_DS3505
ZBAA,2006-12-27 09:00,ZBAA 270900Z AUTO 32006KT 19SM 01/M21 A3045 RMK SLP314 T00091208 52010 IEM_DS3505
ZBAA,2006-12-27 10:00,ZBAA 271000Z AUTO 32017KT 6SM 00/M24 A3047 RMK T00001240 IEM_DS3505
ZBAA,2006-12-27 11:00,ZBAA 271100Z AUTO 35006KT 6SM M02/M23 A3050 RMK T10201230 IEM_DS3505
ZBAA,2006-12-27 12:00,ZBAA 271200Z AUTO 34006KT 19SM M01/M24 A3053 RMK SLP341 T10111245 52027 IEM_DS3505
ZBAA,2006-12-27 13:00,ZBAA 271300Z AUTO 34010KT 6SM M04/M22 A3056 RMK T10401220 IEM_DS3505
ZBAA,2006-12-27 14:00,ZBAA 271400Z AUTO 33014KT 6SM M04/M23 A3056 RMK T10401230 IEM_DS3505
ZBAA,2006-12-27 15:00,ZBAA 271500Z AUTO 36008KT 19SM M03/M24 A3059 RMK SLP356 T10331237 52015 IEM_DS3505
ZBAA,2006-12-27 16:00,ZBAA 271600Z AUTO 33012KT 6SM M05/M24 A3059 RMK T10501240 IEM_DS3505
ZBAA,2006-12-27 17:00,ZBAA 271700Z AUTO 34008KT 6SM M07/M23 A3059 RMK T10701230 IEM_DS3505
ZBAA,2006-12-27 18:00,ZBAA 271800Z AUTO 36008KT 19SM M04/M23 A3062 RMK SLP359 T10431229 52003 IEM_DS3505
ZBAA,2006-12-27 19:00,ZBAA 271900Z AUTO 34004KT 6SM M08/M22 A3062 RMK T10801220 IEM_DS3505
ZBAA,2006-12-27 20:00,ZBAA 272000Z AUTO 36008KT 6SM M08/M21 A3062 RMK T10801210 IEM_DS3505
ZBAA,2006-12-27 21:00,ZBAA 272100Z AUTO 04004KT 19SM M06/M23 A3062 RMK SLP370 T10641228 52010 IEM_DS3505
ZBAA,2006-12-27 22:00,ZBAA 272200Z AUTO 35008KT 6SM M10/M22 A3065 RMK T11001220 IEM_DS3505
ZBAA,2006-12-27 23:00,ZBAA 272300Z AUTO 02008KT 6SM M09/M23 A3065 RMK T10901230 IEM_DS3505
ZBAA,2006-12-28 00:00,ZBAA 280000Z AUTO 04006KT 19SM M08/M23 A3065 RMK SLP381 T10781231 52011 IEM_DS3505
ZBAA,2006-12-28 01:00,ZBAA 280100Z AUTO 02014KT 6SM M08/M22 A3068 RMK T10801220 IEM_DS3505
ZBAA,2006-12-28 02:00,ZBAA 280200Z AUTO 02012KT 6SM M07/M23 A3068 RMK T10701230 IEM_DS3505
ZBAA,2006-12-28 03:00,ZBAA 280300Z AUTO 04010KT 19SM M04/M23 A3068 RMK SLP384 T10371234 52003 IEM_DS3505
ZBAA,2006-12-28 04:00,ZBAA 280400Z AUTO 02010KT 6SM M04/M24 A3065 RMK T10401240 IEM_DS3505
ZBAA,2006-12-28 05:00,ZBAA 280500Z AUTO 02008KT 6SM M03/M23 A3062 RMK T10301230 IEM_DS3505
ZBAA,2006-12-28 06:00,ZBAA 280600Z AUTO 02002KT 19SM M01/M23 A3059 RMK SLP357 T10071234 57026 IEM_DS3505
ZBAA,2006-12-28 07:00,ZBAA 280700Z AUTO 04004KT 6SM M01/M23 A3056 RMK T10101230 IEM_DS3505
ZBAA,2006-12-28 08:00,ZBAA 280800Z AUTO 05004KT 6SM M02/M23 A3059 RMK T10201230 IEM_DS3505
ZBAA,2006-12-28 09:00,ZBAA 280900Z AUTO 22004KT 16SM M02/M21 A3059 RMK SLP360 T10181213 52002 IEM_DS3505
ZBAA,2006-12-28 10:00,ZBAA 281000Z AUTO 08002KT 6SM M05/M21 A3062 RMK T10501210 IEM_DS3505
ZBAA,2006-12-28 11:00,ZBAA 281100Z AUTO 00000KT 6SM M05/M20 A3062 RMK T10501200 IEM_DS3505
ZBAA,2006-12-28 12:00,ZBAA 281200Z AUTO 25002KT 12SM M04/M17 A3059 RMK SLP363 T10391168 52003 IEM_DS3505
ZBAA,2006-12-28 13:00,ZBAA 281300Z AUTO 34002KT 4SM M06/M20 A3059 RMK T10601200 IEM_DS3505
ZBAA,2006-12-28 14:00,ZBAA 281400Z AUTO 02002KT 4SM M06/M21 A3059 RMK T10601210 IEM_DS3505
ZBAA,2006-12-28 15:00,ZBAA 281500Z AUTO 22002KT 19SM M07/M15 A3059 RMK SLP360 T10681152 57003 IEM_DS3505
ZBAA,2006-12-28 16:00,ZBAA 281600Z AUTO 05002KT 3SM M08/M20 A3059 RMK T10801200 IEM_DS3505
ZBAA,2006-12-28 17:00,ZBAA 281700Z AUTO 34002KT 3SM M09/M20 A3059 RMK T10901200 IEM_DS3505
ZBAA,2006-12-28 18:00,ZBAA 281800Z AUTO 20002KT 7SM M08/M15 A3059 RMK SLP359 T10781148 57001 IEM_DS3505
ZBAA,2006-12-28 19:00,ZBAA 281900Z AUTO 35004KT 3SM M11/M19 A3059 RMK T11101190 IEM_DS3505
ZBAA,2006-12-28 20:00,ZBAA 282000Z AUTO 34004KT 3SM M11/M19 A3059 RMK T11101190 IEM_DS3505
ZBAA,2006-12-28 21:00,ZBAA 282100Z AUTO 16002KT 7SM M09/M14 A3059 RMK SLP357 T10891145 57002 IEM_DS3505
ZBAA,2006-12-28 22:00,ZBAA 282200Z AUTO 34004KT 3SM M10/M18 A3059 RMK T11001180 IEM_DS3505
ZBAA,2006-12-28 23:00,ZBAA 282300Z AUTO 34006KT 5SM M11/M19 A3059 RMK T11101190 IEM_DS3505
ZBAA,2006-12-29 00:00,ZBAA 290000Z AUTO 07002KT 5SM M09/M16 A3059 RMK SLP360 T10891161 52003 IEM_DS3505
ZBAA,2006-12-29 01:00,ZBAA 290100Z AUTO 35006KT 6SM M09/M19 A3059 RMK T10901190 IEM_DS3505
ZBAA,2006-12-29 02:00,ZBAA 290200Z AUTO 35006KT 6SM M08/M18 A3062 RMK T10801180 IEM_DS3505
ZBAA,2006-12-29 03:00,ZBAA 290300Z AUTO 04002KT 9SM M03/M20 A3059 RMK SLP360 T10321200 54000 IEM_DS3505
ZBAA,2006-12-29 04:00,ZBAA 290400Z AUTO 01002KT 6SM M03/M20 A3056 RMK T10301200 IEM_DS3505
ZBAA,2006-12-29 05:00,ZBAA 290500Z AUTO 36002KT 6SM M02/M20 A3053 RMK T10201200 IEM_DS3505
ZBAA,2006-12-29 06:00,ZBAA 290600Z AUTO 09002KT 9SM M01/M18 A3050 RMK SLP327 T10081184 57033 IEM_DS3505
ZBAA,2006-12-29 07:00,ZBAA 290700Z AUTO 11002KT 6SM M01/M20 A3047 RMK T10101200 IEM_DS3505
ZBAA,2006-12-29 08:00,ZBAA 290800Z AUTO 13004KT 5SM M01/M19 A3047 RMK T10101190 IEM_DS3505
ZBAA,2006-12-29 09:00,ZBAA 290900Z AUTO 18002KT 6SM M02/M13 A3047 RMK SLP327 T10171129 54000 IEM_DS3505
ZBAA,2006-12-29 10:00,ZBAA 291000Z AUTO 14002KT 3SM M03/M16 A3050 RMK T10301160 IEM_DS3505
ZBAA,2006-12-29 11:00,ZBAA 291100Z AUTO 14002KT 3SM M03/M16 A3053 RMK T10301160 IEM_DS3505
ZBAA,2006-12-29 12:00,ZBAA 291200Z AUTO 22002KT 6SM M03/M12 A3053 RMK SLP339 T10271117 52012 IEM_DS3505
ZBAA,2006-12-29 13:00,ZBAA 291300Z AUTO 10004KT 2 1/2SM M03/M15 A3053 RMK T10301150 IEM_DS3505
ZBAA,2006-12-29 14:00,ZBAA 291400Z AUTO 10004KT 2SM M03/M14 A3056 RMK T10301140 IEM_DS3505
ZBAA,2006-12-29 15:00,ZBAA 291500Z AUTO 07002KT 5SM M02/M12 A3056 RMK SLP347 T10231116 52009 IEM_DS3505
ZBAA,2006-12-29 16:00,ZBAA 291600Z AUTO 2SM M04/M14 A3056 RMK T10401140 IEM_DS3505
ZBAA,2006-12-29 17:00,ZBAA 291700Z AUTO 05004KT 2SM M03/M15 A3053 RMK T10301150 IEM_DS3505
ZBAA,2006-12-29 18:00,ZBAA 291800Z AUTO 04002KT 4SM M03/M11 A3053 RMK SLP342 T10261111 57005 IEM_DS3505
ZBAA,2006-12-29 19:00,ZBAA 291900Z AUTO 34002KT 2SM M03/M14 A3056 RMK T10301140 IEM_DS3505
ZBAA,2006-12-29 20:00,ZBAA 292000Z AUTO 03002KT 1SM M04/M08 A3056 RMK T10401080 IEM_DS3505
ZBAA,2006-12-29 21:00,ZBAA 292100Z AUTO 07004KT 4SM M04/M05 A3056 RMK 70003 SLP347 T10431054 52005 IEM_DS3505
ZBAA,2006-12-29 22:00,ZBAA 292200Z AUTO 09002KT 1SM M05/M05 A3056 RMK T10501050 IEM_DS3505
ZBAA,2006-12-29 23:00,ZBAA 292300Z AUTO 06004KT 1SM M05/M05 A3059 RMK T10501050 IEM_DS3505
ZBAA,2006-12-30 00:00,ZBAA 300000Z AUTO 09006KT 2 1/2SM M05/M06 A3059 RMK 60008 70008 SLP360 T10461056 52012 IEM_DS3505
ZBAA,2006-12-30 01:00,ZBAA 300100Z AUTO 06004KT 1/2SM M05/M05 A3062 RMK T10501050 IEM_DS3505
ZBAA,2006-12-30 02:00,ZBAA 300200Z AUTO 05002KT 1/2SM M04/M05 A3062 RMK T10401050 IEM_DS3505
ZBAA,2006-12-30 03:00,ZBAA 300300Z AUTO 07002KT 2SM M04/M05 A3062 RMK SLP362 T10381049 52002 IEM_DS3505
ZBAA,2006-12-30 04:00,ZBAA 300400Z AUTO 36004KT 1SM M04/M05 A3059 RMK T10401050 IEM_DS3505
ZBAA,2006-12-30 04:30,ZBAA 300430Z AUTO 36004KT 1SM M04/M04 A3056 RMK T10401040 IEM_DS3505
ZBAA,2006-12-30 05:00,ZBAA 300500Z AUTO 35002KT 1SM M04/M04 A3056 RMK T10401040 IEM_DS3505
ZBAA,2006-12-30 05:30,ZBAA 300530Z AUTO 35004KT 1SM M04/M04 A3053 RMK T10401040 IEM_DS3505
ZBAA,2006-12-30 06:00,ZBAA 300600Z AUTO 07004KT 2 1/2SM M03/M04 A3053 RMK 60002 SLP337 T10311045 57024 IEM_DS3505
ZBAA,2006-12-30 06:30,ZBAA 300630Z AUTO 36004KT 1SM M04/M05 A3053 RMK T10401050 IEM_DS3505
ZBAA,2006-12-30 07:00,ZBAA 300700Z AUTO 35002KT 1SM M04/M05 A3053 RMK T10401050 IEM_DS3505
ZBAA,2006-12-30 07:30,ZBAA 300730Z AUTO 01002KT 1SM M04/M05 A3053 RMK T10401050 IEM_DS3505
ZBAA,2006-12-30 08:00,ZBAA 300800Z AUTO 04002KT 1SM M05/M06 A3053 RMK T10501060 IEM_DS3505
ZBAA,2006-12-30 09:00,ZBAA 300900Z AUTO 07004KT 3SM M03/M05 A3056 RMK SLP346 T10311051 52008 IEM_DS3505
ZBAA,2006-12-30 10:00,ZBAA 301000Z AUTO 10004KT 1SM M04/M05 A3056 RMK T10401050 IEM_DS3505
ZBAA,2006-12-30 11:00,ZBAA 301100Z AUTO 09002KT 1 1/2SM M03/M05 A3056 RMK T10301050 IEM_DS3505
ZBAA,2006-12-30 12:00,ZBAA 301200Z AUTO 07002KT 3SM M03/M05 A3059 RMK 60000 SLP356 T10311048 52010 IEM_DS3505
ZBAA,2006-12-30 13:00,ZBAA 301300Z AUTO 14004KT 2 1/2SM M03/M05 A3059 RMK T10301050 IEM_DS3505
ZBAA,2006-12-30 14:00,ZBAA 301400Z AUTO 14004KT 2 1/2SM M03/M05 A3059 RMK T10301050 IEM_DS3505
ZBAA,2006-12-30 15:00,ZBAA 301500Z AUTO 07002KT 3SM M03/M05 A3059 RMK SLP355 T10321046 57001 IEM_DS3505
ZBAA,2006-12-30 18:00,ZBAA 301800Z AUTO 20002KT 2 1/2SM M03/M05 RMK 60000 SLP343 T10331047 57011 IEM_DS3505
ZBAA,2006-12-30 21:00,ZBAA 302100Z AUTO 14002KT 2 1/2SM M04/M05 A3050 RMK 70007 SLP331 T10351053 57012 IEM_DS3505
ZBAA,2006-12-30 22:00,ZBAA 302200Z AUTO 12002KT 2SM M04/M05 A3053 RMK T10401050 IEM_DS3505
ZBAA,2006-12-30 23:00,ZBAA 302300Z AUTO 09002KT 1 1/2SM M04/M05 A3053 RMK T10401050 IEM_DS3505
