station,valid,metar
ZBAA,1996-01-01 00:00,ZBAA 010000Z AUTO 07002KT 4SM M03/M11 A3006 RMK SLP196 T10301112 57004 IEM_DS3505
ZBAA,1996-01-01 01:00,ZBAA 010100Z AUTO 00000KT 4SM M04/M09 A3006 RMK SLP190 T10401090 IEM_DS3505
ZBAA,1996-01-01 02:00,ZBAA 010200Z AUTO 00000KT 4SM M02/M08 A3006 RMK SLP189 T10201080 IEM_DS3505
ZBAA,1996-01-01 03:00,ZBAA 010300Z AUTO 02006KT 4SM 01/M07 A3006 RMK SLP188 T00111072 57007 IEM_DS3505
ZBAA,1996-01-01 04:00,ZBAA 010400Z AUTO ////02KT 5SM 01/M08 A3003 RMK SLP178 T00101080 IEM_DS3505
ZBAA,1996-01-01 05:00,ZBAA 010500Z AUTO ////02KT 5SM 02/M08 A2997 RMK SLP158 T00201080 IEM_DS3505
ZBAA,1996-01-01 06:00,ZBAA 010600Z AUTO 04004KT 3SM 06/M10 A2994 RMK SLP150 T00571097 57038 IEM_DS3505
ZBAA,1996-01-01 07:00,ZBAA 010700Z AUTO ////02KT 6SM 04/M08 A2991 RMK SLP137 T00401080 IEM_DS3505
ZBAA,1996-01-01 08:00,ZBAA 010800Z AUTO ////02KT 6SM 03/M09 A2991 RMK SLP137 T00301090 IEM_DS3505
ZBAA,1996-01-01 09:00,ZBAA 010900Z AUTO 20002KT 1 1/2SM 04/M10 A2991 RMK SLP142 T00351097 57008 IEM_DS3505
ZBAA,1996-01-01 10:00,ZBAA 011000Z AUTO 00000KT 5SM 00/M09 A2994 RMK SLP148 T00001090 IEM_DS3505
ZBAA,1996-01-01 11:00,ZBAA 011100Z AUTO 00000KT 4SM M01/M08 A2994 RMK SLP149 T10101080 IEM_DS3505
ZBAA,1996-01-01 12:00,ZBAA 011200Z AUTO 00000KT 2SM M01/M09 A2994 RMK SLP148 T10101087 52005 IEM_DS3505
ZBAA,1996-01-01 13:00,ZBAA 011300Z AUTO 00000KT 3SM M02/M08 A2994 RMK SLP149 T10201080 IEM_DS3505
ZBAA,1996-01-01 14:00,ZBAA 011400Z AUTO ////04KT 3SM M02/M08 A2994 RMK SLP149 T10201080 IEM_DS3505
ZBAA,1996-01-01 15:00,ZBAA 011500Z AUTO 07004KT 1 1/2SM 00/M09 A2994 RMK SLP146 T00011094 57001 IEM_DS3505
ZBAA,1996-01-01 18:00,ZBAA 011800Z AUTO 16004KT 4SM M00/M09 A2992 RMK SLP140 T10051093 57005 IEM_DS3505
ZBAA,1996-01-01 20:00,ZBAA 012000Z AUTO 32017KT 7SM 02/M09 A2991 RMK SLP138 T00201090 IEM_DS3505
ZBAA,1996-01-01 21:00,ZBAA 012100Z AUTO 34006KT 9SM 07/M14 A2994 RMK SLP154 T00711141 52014 IEM_DS3505
ZBAA,1996-01-01 22:00,ZBAA 012200Z AUTO 29008KT 6SM 05/M09 A2997 RMK SLP157 T00501090 IEM_DS3505
ZBAA,1996-01-01 23:00,ZBAA 012300Z AUTO 31012KT 6SM 05/M11 A3003 RMK SLP177 T00501110 IEM_DS3505
ZBAA,1996-01-02 00:00,ZBAA 020000Z AUTO 29012KT 12SM 04/M20 A3006 RMK SLP194 T00431197 52039 IEM_DS3505
ZBAA,1996-01-02 01:00,ZBAA 020100Z AUTO 31012KT 6SM 03/M15 A3012 RMK SLP209 T00301150 IEM_DS3505
ZBAA,1996-01-02 02:00,ZBAA 020200Z AUTO 32019G31KT 6SM 02/M17 A3015 RMK SLP219 T00201170 IEM_DS3505
ZBAA,1996-01-02 03:00,ZBAA 020300Z AUTO 34012KT 19SM 02/M20 A3021 RMK SLP246 T00171204 52051 IEM_DS3505
ZBAA,1996-01-02 04:00,ZBAA 020400Z AUTO 33021KT 6SM 02/M18 A3021 RMK SLP239 T00201180 IEM_DS3505
ZBAA,1996-01-02 05:00,ZBAA 020500Z AUTO 33019G29KT 6SM 02/M19 A3021 RMK SLP239 T00201190 IEM_DS3505
ZBAA,1996-01-02 06:00,ZBAA 020600Z AUTO 29012KT 19SM 03/M26 A3021 RMK SLP249 T00261264 52003 IEM_DS3505
ZBAA,1996-01-02 07:00,ZBAA 020700Z AUTO 34027KT 7SM 01/M23 A3024 RMK SLP250 T00101230 IEM_DS3505
ZBAA,1996-01-02 08:00,ZBAA 020800Z AUTO 35023KT 7SM 00/M24 A3027 RMK SLP260 T00001240 IEM_DS3505
ZBAA,1996-01-02 09:00,ZBAA 020900Z AUTO 34014KT 19SM M01/M21 A3033 RMK SLP280 T10101213 52032 IEM_DS3505
ZBAA,1996-01-02 10:00,ZBAA 021000Z AUTO 34021KT 7SM M02/M25 A3036 RMK SLP291 T10201250 IEM_DS3505
ZBAA,1996-01-02 11:00,ZBAA 021100Z AUTO 34023G33KT 7SM M02/M26 A3039 RMK SLP302 T10201260 IEM_DS3505
ZBAA,1996-01-02 12:00,ZBAA 021200Z AUTO 34012KT 19SM M03/ A3042 RMK SLP310 52029 IEM_DS3505
ZBAA,1996-01-02 13:00,ZBAA 021300Z AUTO 34021KT 7SM M04/M27 A3045 RMK SLP322 T10401270 IEM_DS3505
ZBAA,1996-01-02 14:00,ZBAA 021400Z AUTO 36017KT 7SM M04/M27 A3045 RMK SLP322 T10401270 IEM_DS3505
ZBAA,1996-01-02 15:00,ZBAA 021500Z AUTO 32008KT 19SM M04/M31 A3045 RMK SLP313 T10451309 52002 IEM_DS3505
ZBAA,1996-01-02 16:00,ZBAA 021600Z AUTO 35016KT 7SM M05/M27 A3042 RMK SLP313 T10501270 IEM_DS3505
ZBAA,1996-01-02 17:00,ZBAA 021700Z AUTO 34014KT 7SM M05/M27 A3042 RMK SLP313 T10501270 IEM_DS3505
ZBAA,1996-01-02 18:00,ZBAA 021800Z AUTO 34010KT 19SM M05/M30 A3042 RMK SLP312 T10481303 57001 IEM_DS3505
ZBAA,1996-01-02 20:00,ZBAA 022000Z AUTO ////04KT 7SM M07/M25 A3042 RMK SLP313 T10701250 IEM_DS3505
ZBAA,1996-01-02 21:00,ZBAA 022100Z AUTO 32012KT 19SM M05/ A3042 RMK SLP310 57002 IEM_DS3505
ZBAA,1996-01-02 22:00,ZBAA 022200Z AUTO ////04KT 7SM M08/M25 A3045 RMK SLP324 T10801250 IEM_DS3505
ZBAA,1996-01-02 23:00,ZBAA 022300Z AUTO ////02KT 7SM M08/M25 A3045 RMK SLP324 T10801250 IEM_DS3505
ZBAA,1996-01-03 00:00,ZBAA 030000Z AUTO 29006KT 19SM M07/M31 A3047 RMK SLP324 T10661311 52013 IEM_DS3505
ZBAA,1996-01-03 01:00,ZBAA 030100Z AUTO ////04KT 7SM M06/M23 A3047 RMK SLP330 T10601230 IEM_DS3505
ZBAA,1996-01-03 02:00,ZBAA 030200Z AUTO 28006KT 7SM M04/M24 A3047 RMK SLP330 T10401240 IEM_DS3505
ZBAA,1996-01-03 03:00,ZBAA 030300Z AUTO 20008KT 12SM M03/M25 A3045 RMK SLP327 T10301253 52004 IEM_DS3505
ZBAA,1996-01-03 04:00,ZBAA 030400Z AUTO ////04KT 7SM M02/M23 A3042 RMK SLP312 T10201230 IEM_DS3505
ZBAA,1996-01-03 05:00,ZBAA 030500Z AUTO 23010KT 7SM M01/M23 A3039 RMK SLP302 T10101230 IEM_DS3505
ZBAA,1996-01-03 06:00,ZBAA 030600Z AUTO 18010KT 12SM M01/M28 A3039 RMK SLP290 T10081282 57037 IEM_DS3505
ZBAA,1996-01-03 07:00,ZBAA 030700Z AUTO 22008KT 6SM M01/M23 A3033 RMK SLP280 T10101230 IEM_DS3505
ZBAA,1996-01-03 08:00,ZBAA 030800Z AUTO 21010KT 6SM M02/M23 A3033 RMK SLP281 T10201230 IEM_DS3505
ZBAA,1996-01-03 09:00,ZBAA 030900Z AUTO 20010KT 12SM M02/M27 A3030 RMK SLP273 T10171274 57017 IEM_DS3505
ZBAA,1996-01-03 10:00,ZBAA 031000Z AUTO 18006KT 6SM M03/M22 A3030 RMK SLP271 T10301220 IEM_DS3505
ZBAA,1996-01-03 11:00,ZBAA 031100Z AUTO 16006KT 6SM M03/M22 A3030 RMK SLP271 T10301220 IEM_DS3505
ZBAA,1996-01-03 12:00,ZBAA 031200Z AUTO 20010KT 16SM M03/M24 A3030 RMK SLP265 T10311240 57008 IEM_DS3505
ZBAA,1996-01-03 13:00,ZBAA 031300Z AUTO ////02KT 7SM M04/M20 A3027 RMK SLP261 T10401200 IEM_DS3505
ZBAA,1996-01-03 14:00,ZBAA 031400Z AUTO ////04KT 7SM M04/M20 A3027 RMK SLP261 T10401200 IEM_DS3505
ZBAA,1996-01-03 15:00,ZBAA 031500Z AUTO 20008KT 16SM M04/M23 A3024 RMK SLP254 T10391228 57011 IEM_DS3505
ZBAA,1996-01-03 16:00,ZBAA 031600Z AUTO ////04KT 7SM M07/M20 A3024 RMK SLP252 T10701200 IEM_DS3505
ZBAA,1996-01-03 18:00,ZBAA 031800Z AUTO 18004KT 16SM M06/M20 A3023 RMK SLP246 T10551197 57008 IEM_DS3505
ZBAA,1996-01-03 20:00,ZBAA 032000Z AUTO 00000KT 7SM M09/M19 A3018 RMK SLP232 T10901190 IEM_DS3505
ZBAA,1996-01-03 21:00,ZBAA 032100Z AUTO 02004KT 16SM M07/M20 A3018 RMK SLP232 T10731200 57014 IEM_DS3505
ZBAA,1996-01-03 22:00,ZBAA 032200Z AUTO ////02KT 7SM M09/M18 A3015 RMK SLP222 T10901180 IEM_DS3505
ZBAA,1996-01-03 23:00,ZBAA 032300Z AUTO ////02KT 7SM M09/M18 A3015 RMK SLP222 T10901180 IEM_DS3505
ZBAA,1996-01-04 00:00,ZBAA 040000Z AUTO 36004KT 6SM M08/M19 A3015 RMK SLP225 T10771190 57007 IEM_DS3505
ZBAA,1996-01-04 01:00,ZBAA 040100Z AUTO ////02KT 7SM M08/M17 A3015 RMK SLP222 T10801170 IEM_DS3505
ZBAA,1996-01-04 02:00,ZBAA 040200Z AUTO ////04KT 7SM M06/M15 A3015 RMK SLP221 T10601150 IEM_DS3505
ZBAA,1996-01-04 03:00,ZBAA 040300Z AUTO 04008KT 6SM M04/M21 A3012 RMK SLP215 T10401207 57010 IEM_DS3505
ZBAA,1996-01-04 04:00,ZBAA 040400Z AUTO ////02KT 6SM M03/M15 A3009 RMK SLP199 T10301150 IEM_DS3505
ZBAA,1996-01-04 05:00,ZBAA 040500Z AUTO ////04KT 6SM M01/M15 A3006 RMK SLP189 T10101150 IEM_DS3505
ZBAA,1996-01-04 06:00,ZBAA 040600Z AUTO 00000KT 9SM M00/M18 A3003 RMK SLP181 T10041181 57033 IEM_DS3505
ZBAA,1996-01-04 07:00,ZBAA 040700Z AUTO ////02KT 6SM 00/M17 A3003 RMK SLP178 T00001170 IEM_DS3505
ZBAA,1996-01-04 08:00,ZBAA 040800Z AUTO 00000KT 6SM 00/M17 A3000 RMK SLP168 T00001170 IEM_DS3505
ZBAA,1996-01-04 09:00,ZBAA 040900Z AUTO 32002KT 7SM M01/M17 A3000 RMK SLP173 T10101166 57008 IEM_DS3505
ZBAA,1996-01-04 10:00,ZBAA 041000Z AUTO ////02KT 7SM M02/M16 A3003 RMK SLP179 T10201160 IEM_DS3505
ZBAA,1996-01-04 11:00,ZBAA 041100Z AUTO ////02KT 7SM M03/M16 A3006 RMK SLP189 T10301160 IEM_DS3505
ZBAA,1996-01-04 12:00,ZBAA 041200Z AUTO 00000KT 6SM M03/M12 A3006 RMK SLP192 T10311125 52018 IEM_DS3505
ZBAA,1996-01-04 13:00,ZBAA 041300Z AUTO 00000KT 7SM M04/M15 A3009 RMK SLP200 T10401150 IEM_DS3505
ZBAA,1996-01-04 14:00,ZBAA 041400Z AUTO 00000KT 7SM M04/M16 A3012 RMK SLP211 T10401160 IEM_DS3505
ZBAA,1996-01-04 15:00,ZBAA 041500Z AUTO 36004KT 6SM M05/M14 A3012 RMK SLP209 T10491137 52017 IEM_DS3505
ZBAA,1996-01-04 18:00,ZBAA 041800Z AUTO 34002KT 6SM M06/M15 A3013 RMK SLP214 T10581153 52006 IEM_DS3505
ZBAA,1996-01-04 20:00,ZBAA 042000Z AUTO 34008KT 7SM M05/M16 A3012 RMK SLP211 T10501160 IEM_DS3505
ZBAA,1996-01-04 21:00,ZBAA 042100Z AUTO 09004KT 7SM M07/M15 A3012 RMK SLP215 T10661153 54000 IEM_DS3505
ZBAA,1996-01-04 22:00,ZBAA 042200Z AUTO 35006KT 7SM M05/M15 A3015 RMK SLP221 T10501150 IEM_DS3505
ZBAA,1996-01-04 23:00,ZBAA 042300Z AUTO 34006KT 7SM M05/M14 A3015 RMK SLP221 T10501140 IEM_DS3505
ZBAA,1996-01-05 00:00,ZBAA 050000Z AUTO 07002KT 7SM M04/M13 A3018 RMK SLP232 T10351131 52017 IEM_DS3505
ZBAA,1996-01-05 01:00,ZBAA 050100Z AUTO ////02KT 7SM M04/M12 A3021 RMK SLP241 T10401120 IEM_DS3505
ZBAA,1996-01-05 02:00,ZBAA 050200Z AUTO ////04KT 5SM M01/M11 A3024 RMK SLP250 T10101110 IEM_DS3505
ZBAA,1996-01-05 03:00,ZBAA 050300Z AUTO 27002KT 4SM 01/M14 A3024 RMK SLP249 T00081142 52018 IEM_DS3505
ZBAA,1996-01-05 04:00,ZBAA 050400Z AUTO 18008KT 4SM 03/M12 A3021 RMK SLP239 T00301120 IEM_DS3505
ZBAA,1996-01-05 05:00,ZBAA 050500Z AUTO 19010KT 4SM 03/M11 A3021 RMK SLP239 T00301110 IEM_DS3505
ZBAA,1996-01-05 06:00,ZBAA 050600Z AUTO 20008KT 4SM 04/M07 A3018 RMK SLP234 T00371069 57015 IEM_DS3505
ZBAA,1996-01-05 07:00,ZBAA 050700Z AUTO 18006KT 5SM 04/M12 A3018 RMK SLP229 T00401120 IEM_DS3505
ZBAA,1996-01-05 08:00,ZBAA 050800Z AUTO 17006KT 5SM 03/M12 A3021 RMK SLP239 T00301120 IEM_DS3505
ZBAA,1996-01-05 09:00,ZBAA 050900Z AUTO 16004KT 4SM 03/M12 A3021 RMK SLP238 T00261116 52004 IEM_DS3505
ZBAA,1996-01-05 10:00,ZBAA 051000Z AUTO ////02KT 5SM 00/M10 A3021 RMK SLP240 T00001100 IEM_DS3505
ZBAA,1996-01-05 11:00,ZBAA 051100Z AUTO ////04KT 5SM M01/M09 A3024 RMK SLP250 T10101090 IEM_DS3505
ZBAA,1996-01-05 12:00,ZBAA 051200Z AUTO 18008KT 5SM M00/M06 A3027 RMK SLP254 T10051063 52016 IEM_DS3505
ZBAA,1996-01-05 13:00,ZBAA 051300Z AUTO 19006KT 5SM M02/M07 A3027 RMK SLP261 T10201070 IEM_DS3505
ZBAA,1996-01-05 14:00,ZBAA 051400Z AUTO ////02KT 5SM M03/M06 A3030 RMK SLP271 T10301060 IEM_DS3505
ZBAA,1996-01-05 15:00,ZBAA 051500Z AUTO 18006KT 6SM M02/M06 A3030 RMK SLP264 T10241060 52010 IEM_DS3505
ZBAA,1996-01-05 16:00,ZBAA 051600Z AUTO ////04KT 5SM M05/M06 A3030 RMK SLP271 T10501060 IEM_DS3505
ZBAA,1996-01-05 18:00,ZBAA 051800Z AUTO 18002KT 5SM M02/M05 A3029 RMK SLP267 T10211052 52003 IEM_DS3505
ZBAA,1996-01-05 20:00,ZBAA 052000Z AUTO 00000KT 4SM M04/M07 A3030 RMK SLP271 T10401070 IEM_DS3505
ZBAA,1996-01-05 21:00,ZBAA 052100Z AUTO 34004KT 3SM M04/M07 A3030 RMK SLP270 T10351066 52003 IEM_DS3505
ZBAA,1996-01-05 23:00,ZBAA 052300Z AUTO 00000KT 4SM M03/M06 A3030 RMK SLP271 T10301060 IEM_DS3505
ZBAA,1996-01-06 00:00,ZBAA 060000Z AUTO 34004KT 3SM M03/M07 A3030 RMK SLP273 T10331068 52002 IEM_DS3505
ZBAA,1996-01-06 01:00,ZBAA 060100Z AUTO 00000KT 4SM M03/M05 A3030 RMK SLP271 T10301050 IEM_DS3505
ZBAA,1996-01-06 02:00,ZBAA 060200Z AUTO ////04KT 4SM M03/M05 A3033 RMK SLP281 T10301050 IEM_DS3505
ZBAA,1996-01-06 03:00,ZBAA 060300Z AUTO 04002KT 2 1/2SM M02/M07 A3033 RMK SLP279 T10251070 52006 IEM_DS3505
ZBAA,1996-01-06 04:00,ZBAA 060400Z AUTO 00000KT 3SM M02/M05 A3030 RMK SLP271 T10201050 IEM_DS3505
ZBAA,1996-01-06 05:00,ZBAA 060500Z AUTO 00000KT 2 1/2SM M02/M05 A3027 RMK SLP261 T10201050 IEM_DS3505
ZBAA,1996-01-06 06:00,ZBAA 060600Z AUTO 34004KT 1 1/4SM M01/M07 A3027 RMK SLP262 T10141067 57016 IEM_DS3505
ZBAA,1996-01-06 07:00,ZBAA 060700Z AUTO 15006KT 2SM M01/M05 A3027 RMK SLP260 T10101050 IEM_DS3505
ZBAA,1996-01-06 08:00,ZBAA 060800Z AUTO ////04KT 2SM M01/M04 A3027 RMK SLP260 T10101040 IEM_DS3505
ZBAA,1996-01-06 09:00,ZBAA 060900Z AUTO 18006KT 1 1/4SM M02/M06 A3027 RMK SLP259 T10151060 57004 IEM_DS3505
ZBAA,1996-01-06 10:00,ZBAA 061000Z AUTO 00000KT 2SM M02/M04 A3030 RMK SLP271 T10201040 IEM_DS3505
ZBAA,1996-01-06 11:00,ZBAA 061100Z AUTO ////02KT 2SM M01/M04 A3033 RMK SLP280 T10101040 IEM_DS3505
ZBAA,1996-01-06 12:00,ZBAA 061200Z AUTO 29002KT 1 1/4SM M02/M06 A3033 RMK SLP280 T10161061 52021 IEM_DS3505
ZBAA,1996-01-06 13:00,ZBAA 061300Z AUTO ////04KT 2SM M02/M04 A3036 RMK SLP291 T10201040 IEM_DS3505
ZBAA,1996-01-06 14:00,ZBAA 061400Z AUTO 00000KT 2SM M01/M04 A3036 RMK SLP290 T10101040 IEM_DS3505
ZBAA,1996-01-06 15:00,ZBAA 061500Z AUTO 25004KT 2 1/2SM M01/M06 A3036 RMK SLP289 T10111059 52009 IEM_DS3505
ZBAA,1996-01-06 16:00,ZBAA 061600Z AUTO ////04KT 2SM M02/M04 A3033 RMK SLP281 T10201040 IEM_DS3505
ZBAA,1996-01-06 17:00,ZBAA 061700Z AUTO ////04KT 1 1/2SM M03/M03 A3033 RMK SLP281 T10301030 IEM_DS3505
ZBAA,1996-01-06 18:00,ZBAA 061800Z AUTO 04002KT 1 1/2SM M02/M04 A3034 RMK SLP285 T10171036 57004 IEM_DS3505
ZBAA,1996-01-06 20:00,ZBAA 062000Z AUTO ////04KT 3SM M02/M07 A3036 RMK SLP291 T10201070 IEM_DS3505
ZBAA,1996-01-06 21:00,ZBAA 062100Z AUTO 34006KT 1 1/4SM M02/M03 A3036 RMK SLP282 T10211034 57003 IEM_DS3505
ZBAA,1996-01-06 22:00,ZBAA 062200Z AUTO 00000KT 3SM M03/M06 A3036 RMK SLP291 T10301060 IEM_DS3505
ZBAA,1996-01-06 23:00,ZBAA 062300Z AUTO 00000KT 4SM M03/M07 A3036 RMK SLP291 T10301070 IEM_DS3505
ZBAA,1996-01-07 00:00,ZBAA 070000Z AUTO 34002KT 2SM M02/M04 A3039 RMK 60000 70001 SLP295 T10231036 52013 IEM_DS3505
ZBAA,1996-01-07 01:00,ZBAA 070100Z AUTO 00000KT 4SM M03/M05 A3042 RMK SLP312 T10301050 IEM_DS3505
ZBAA,1996-01-07 02:00,ZBAA 070200Z AUTO 00000KT 4SM M02/M03 A3042 RMK SLP312 T10201030 IEM_DS3505
ZBAA,1996-01-07 03:00,ZBAA 070300Z AUTO 00000KT 2SM 00/M06 A3042 RMK SLP312 T00001057 52018 IEM_DS3505
ZBAA,1996-01-07 04:00,ZBAA 070400Z AUTO 33006KT 3SM 01/M03 A3042 RMK SLP311 T00101030 IEM_DS3505
ZBAA,1996-01-07 05:00,ZBAA 070500Z AUTO 36008KT 6SM 02/M06 A3042 RMK SLP311 T00201060 IEM_DS3505
ZBAA,1996-01-07 06:00,ZBAA 070600Z AUTO 34010KT 9SM 02/M15 A3045 RMK SLP318 T00211147 52006 IEM_DS3505
ZBAA,1996-01-07 07:00,ZBAA 070700Z AUTO 04010KT 7SM 00/M08 A3047 RMK SLP328 T00001080 IEM_DS3505
ZBAA,1996-01-07 08:00,ZBAA 070800Z AUTO 05006KT 7SM 00/M09 A3053 RMK SLP349 T00001090 IEM_DS3505
ZBAA,1996-01-07 09:00,ZBAA 070900Z AUTO 34010KT 12SM M01/ A3056 RMK SLP368 52049 IEM_DS3505
ZBAA,1996-01-07 10:00,ZBAA 071000Z AUTO 34014KT 6SM M01/M17 A3062 RMK SLP379 T10101170 IEM_DS3505
ZBAA,1996-01-07 11:00,ZBAA 071100Z AUTO 35008KT 6SM M03/M18 A3068 RMK SLP400 T10301180 IEM_DS3505
ZBAA,1996-01-07 12:00,ZBAA 071200Z AUTO 34014KT 12SM M04/M26 A3074 RMK SLP415 T10391263 52046 IEM_DS3505
ZBAA,1996-01-07 14:00,ZBAA 071400Z AUTO 35012KT 7SM M06/M26 A3077 RMK SLP432 T10601260 IEM_DS3505
ZBAA,1996-01-07 15:00,ZBAA 071500Z AUTO 02008KT 19SM M06/M31 A3080 RMK SLP441 T10641306 52026 IEM_DS3505
ZBAA,1996-01-07 16:00,ZBAA 071600Z AUTO 31012KT 7SM M07/M25 A3080 RMK SLP442 T10701250 IEM_DS3505
ZBAA,1996-01-07 17:00,ZBAA 071700Z AUTO 32014KT 7SM M08/M25 A3080 RMK SLP442 T10801250 IEM_DS3505
ZBAA,1996-01-07 18:00,ZBAA 071800Z AUTO 36006KT 19SM M08/M26 A3080 RMK SLP450 T10831255 52009 IEM_DS3505
ZBAA,1996-01-07 20:00,ZBAA 072000Z AUTO 30010KT 7SM M08/M24 A3080 RMK SLP442 T10801240 IEM_DS3505
ZBAA,1996-01-07 21:00,ZBAA 072100Z AUTO 34004KT 19SM M08/M24 A3080 RMK SLP441 T10841243 57009 IEM_DS3505
ZBAA,1996-01-07 22:00,ZBAA 072200Z AUTO 30008KT 7SM M09/M24 A3077 RMK SLP433 T10901240 IEM_DS3505
ZBAA,1996-01-07 23:00,ZBAA 072300Z AUTO 26006KT 7SM M09/M23 A3080 RMK SLP443 T10901230 IEM_DS3505
ZBAA,1996-01-08 00:00,ZBAA 080000Z AUTO 00000KT 19SM M09/M23 A3080 RMK SLP442 T10871226 54000 IEM_DS3505
ZBAA,1996-01-08 01:00,ZBAA 080100Z AUTO 28010KT 7SM M08/M23 A3080 RMK SLP442 T10801230 IEM_DS3505
ZBAA,1996-01-08 02:00,ZBAA 080200Z AUTO 30014KT 7SM M06/M23 A3077 RMK SLP432 T10601230 IEM_DS3505
ZBAA,1996-01-08 03:00,ZBAA 080300Z AUTO 02006KT 19SM M04/M30 A3077 RMK SLP432 T10391303 57009 IEM_DS3505
ZBAA,1996-01-08 04:00,ZBAA 080400Z AUTO 29016KT 7SM M04/M24 A3071 RMK SLP410 T10401240 IEM_DS3505
ZBAA,1996-01-08 05:00,ZBAA 080500Z AUTO 30016KT 7SM M03/M24 A3068 RMK SLP400 T10301240 IEM_DS3505
ZBAA,1996-01-08 06:00,ZBAA 080600Z AUTO 32010KT 16SM M01/ A3065 RMK SLP391 57041 IEM_DS3505
ZBAA,1996-01-08 07:00,ZBAA 080700Z AUTO 28014G23KT 7SM M02/M24 A3062 RMK SLP379 T10201240 IEM_DS3505
ZBAA,1996-01-08 08:00,ZBAA 080800Z AUTO 29014KT 7SM M02/M24 A3059 RMK SLP369 T10201240 IEM_DS3505
ZBAA,1996-01-08 09:00,ZBAA 080900Z AUTO 27008KT 12SM M02/M27 A3056 RMK SLP367 T10191270 57024 IEM_DS3505
ZBAA,1996-01-08 10:00,ZBAA 081000Z AUTO 27006KT 7SM M03/M23 A3053 RMK SLP349 T10301230 IEM_DS3505
ZBAA,1996-01-08 11:00,ZBAA 081100Z AUTO 29008KT 7SM M04/M23 A3053 RMK SLP350 T10401230 IEM_DS3505
ZBAA,1996-01-08 12:00,ZBAA 081200Z AUTO 20008KT 16SM M03/M27 A3050 RMK SLP350 T10341272 57017 IEM_DS3505
ZBAA,1996-01-08 13:00,ZBAA 081300Z AUTO ////04KT 7SM M04/M22 A3050 RMK SLP340 T10401220 IEM_DS3505
ZBAA,1996-01-08 14:00,ZBAA 081400Z AUTO ////04KT 7SM M05/M23 A3050 RMK SLP340 T10501230 IEM_DS3505
ZBAA,1996-01-08 15:00,ZBAA 081500Z AUTO 20004KT 12SM M06/M29 A3047 RMK SLP338 T10571287 57012 IEM_DS3505
ZBAA,1996-01-08 18:00,ZBAA 081800Z AUTO 00000KT 12SM M07/M20 A3044 RMK SLP320 T10691202 57017 IEM_DS3505
ZBAA,1996-01-08 20:00,ZBAA 082000Z AUTO ////02KT 7SM M08/M20 A3042 RMK SLP313 T10801200 IEM_DS3505
ZBAA,1996-01-08 21:00,ZBAA 082100Z AUTO 00000KT 9SM M08/M22 A3039 RMK SLP304 T10811220 57017 IEM_DS3505
ZBAA,1996-01-08 22:00,ZBAA 082200Z AUTO 00000KT 7SM M10/M19 A3039 RMK SLP304 T11001190 IEM_DS3505
ZBAA,1996-01-08 23:00,ZBAA 082300Z AUTO 00000KT 7SM M09/M19 A3039 RMK SLP304 T10901190 IEM_DS3505
ZBAA,1996-01-09 00:00,ZBAA 090000Z AUTO 00000KT 2SM M09/M18 A3039 RMK SLP300 T10931178 57004 IEM_DS3505
ZBAA,1996-01-09 01:00,ZBAA 090100Z AUTO 36006KT 7SM M08/M17 A3039 RMK SLP303 T10801170 IEM_DS3505
ZBAA,1996-01-09 02:00,ZBAA 090200Z AUTO ////04KT 7SM M05/M17 A3039 RMK SLP303 T10501170 IEM_DS3505
ZBAA,1996-01-09 03:00,ZBAA 090300Z AUTO 25002KT 2SM M01/M23 A3039 RMK SLP296 T10141229 57003 IEM_DS3505
ZBAA,1996-01-09 04:00,ZBAA 090400Z AUTO ////02KT 7SM M01/M18 A3036 RMK SLP290 T10101180 IEM_DS3505
ZBAA,1996-01-09 05:00,ZBAA 090500Z AUTO ////04KT 7SM 01/M18 A3030 RMK SLP270 T00101180 IEM_DS3505
ZBAA,1996-01-09 06:00,ZBAA 090600Z AUTO 22006KT 2SM 01/M21 A3027 RMK SLP268 T00081206 57028 IEM_DS3505
ZBAA,1996-01-09 07:00,ZBAA 090700Z AUTO ////04KT 7SM 02/M19 A3027 RMK SLP260 T00201190 IEM_DS3505
ZBAA,1996-01-09 08:00,ZBAA 090800Z AUTO 20008KT 4SM 01/M19 A3024 RMK SLP250 T00101190 IEM_DS3505
ZBAA,1996-01-09 09:00,ZBAA 090900Z AUTO 20006KT 5SM 00/M20 A3024 RMK SLP257 T00021204 57011 IEM_DS3505
ZBAA,1996-01-09 10:00,ZBAA 091000Z AUTO 21006KT 4SM M02/M18 A3024 RMK SLP250 T10201180 IEM_DS3505
ZBAA,1996-01-09 11:00,ZBAA 091100Z AUTO ////02KT 4SM M02/M19 A3027 RMK SLP261 T10201190 IEM_DS3505
ZBAA,1996-01-09 12:00,ZBAA 091200Z AUTO 18002KT 5SM M02/M19 A3027 RMK SLP262 T10221187 52005 IEM_DS3505
ZBAA,1996-01-09 13:00,ZBAA 091300Z AUTO ////02KT 4SM M05/M19 A3027 RMK SLP261 T10501190 IEM_DS3505
ZBAA,1996-01-09 14:00,ZBAA 091400Z AUTO 00000KT 4SM M05/M19 A3030 RMK SLP271 T10501190 IEM_DS3505
ZBAA,1996-01-09 15:00,ZBAA 091500Z AUTO 29002KT 3SM M05/M17 A3030 RMK SLP263 T10521172 52001 IEM_DS3505
ZBAA,1996-01-09 18:00,ZBAA 091800Z AUTO 29004KT 2 1/2SM M08/M16 A3028 RMK SLP263 T10791162 54000 IEM_DS3505
ZBAA,1996-01-09 20:00,ZBAA 092000Z AUTO 32006KT 5SM M08/M18 A3027 RMK SLP262 T10801180 IEM_DS3505
ZBAA,1996-01-09 21:00,ZBAA 092100Z AUTO 00000KT 2SM M09/M15 A3027 RMK SLP264 T10881148 52001 IEM_DS3505
ZBAA,1996-01-09 22:00,ZBAA 092200Z AUTO ////04KT 7SM M09/M17 A3027 RMK SLP262 T10901170 IEM_DS3505
ZBAA,1996-01-10 00:00,ZBAA 100000Z AUTO 00000KT 1 1/4SM M09/M15 A3030 RMK SLP276 T10911153 52011 IEM_DS3505
ZBAA,1996-01-10 01:00,ZBAA 100100Z AUTO 00000KT 7SM M07/M16 A3033 RMK SLP282 T10701160 IEM_DS3505
ZBAA,1996-01-10 02:00,ZBAA 100200Z AUTO 00000KT 5SM M04/M15 A3036 RMK SLP291 T10401150 IEM_DS3505
ZBAA,1996-01-10 03:00,ZBAA 100300Z AUTO 04004KT 2 1/2SM 01/M16 A3036 RMK SLP286 T00071159 52011 IEM_DS3505
ZBAA,1996-01-10 04:00,ZBAA 100400Z AUTO ////02KT 5SM 01/M16 A3033 RMK SLP280 T00101160 IEM_DS3505
ZBAA,1996-01-10 05:00,ZBAA 100500Z AUTO ////04KT 5SM 02/M16 A3030 RMK SLP270 T00201160 IEM_DS3505
ZBAA,1996-01-10 06:00,ZBAA 100600Z AUTO 16004KT 3SM 04/M18 A3027 RMK SLP263 T00431178 57022 IEM_DS3505
ZBAA,1996-01-10 07:00,ZBAA 100700Z AUTO ////02KT 4SM 03/M18 A3027 RMK SLP259 T00301180 IEM_DS3505
ZBAA,1996-01-10 08:00,ZBAA 100800Z AUTO ////02KT 4SM 03/M19 A3027 RMK SLP259 T00301190 IEM_DS3505
ZBAA,1996-01-10 09:00,ZBAA 100900Z AUTO 16002KT 3SM 02/M15 A3027 RMK SLP264 T00201150 54000 IEM_DS3505
ZBAA,1996-01-10 10:00,ZBAA 101000Z AUTO 00000KT 4SM 00/M18 A3027 RMK SLP260 T00001180 IEM_DS3505
ZBAA,1996-01-10 11:00,ZBAA 101100Z AUTO 00000KT 4SM M01/M18 A3030 RMK SLP270 T10101180 IEM_DS3505
ZBAA,1996-01-10 12:00,ZBAA 101200Z AUTO 36002KT 2 1/2SM M03/M14 A3030 RMK SLP272 T10271136 52007 IEM_DS3505
ZBAA,1996-01-10 13:00,ZBAA 101300Z AUTO ////02KT 4SM M04/M16 A3030 RMK SLP271 T10401160 IEM_DS3505
ZBAA,1996-01-10 14:00,ZBAA 101400Z AUTO ////02KT 4SM M03/M16 A3030 RMK SLP271 T10301160 IEM_DS3505
ZBAA,1996-01-10 15:00,ZBAA 101500Z AUTO 04006KT 5SM M03/M15 A3030 RMK SLP270 T10301149 54000 IEM_DS3505
ZBAA,1996-01-10 16:00,ZBAA 101600Z AUTO ////04KT 3SM M04/M16 A3030 RMK SLP271 T10401160 IEM_DS3505
ZBAA,1996-01-10 17:00,ZBAA 101700Z AUTO ////04KT 3SM M04/M14 A3030 RMK SLP271 T10401140 IEM_DS3505
ZBAA,1996-01-10 18:00,ZBAA 101800Z AUTO 18002KT 4SM M05/M17 A3031 RMK SLP272 T10511170 52002 IEM_DS3505
ZBAA,1996-01-10 20:00,ZBAA 102000Z AUTO 33006KT 4SM M05/M16 A3030 RMK SLP271 T10501160 IEM_DS3505
ZBAA,1996-01-10 21:00,ZBAA 102100Z AUTO 20004KT 4SM M06/M14 A3033 RMK SLP277 T10631136 52004 IEM_DS3505
ZBAA,1996-01-10 22:00,ZBAA 102200Z AUTO 34006KT 5SM M06/M16 A3033 RMK SLP282 T10601160 IEM_DS3505
ZBAA,1996-01-10 23:00,ZBAA 102300Z AUTO ////04KT 7SM M05/M15 A3036 RMK SLP292 T10501150 IEM_DS3505
ZBAA,1996-01-11 00:00,ZBAA 110000Z AUTO 02002KT 1 1/2SM M07/M13 A3039 RMK SLP300 T10691133 52023 IEM_DS3505
ZBAA,1996-01-11 01:00,ZBAA 110100Z AUTO 00000KT 7SM M04/M15 A3039 RMK SLP302 T10401150 IEM_DS3505
ZBAA,1996-01-11 02:00,ZBAA 110200Z AUTO 00000KT 7SM 00/M12 A3042 RMK SLP311 T00001120 IEM_DS3505
ZBAA,1996-01-11 03:00,ZBAA 110300Z AUTO 07006KT 6SM 02/M20 A3045 RMK SLP315 T00191200 52016 IEM_DS3505
ZBAA,1996-01-11 04:00,ZBAA 110400Z AUTO ////04KT 7SM 04/M14 A3042 RMK SLP310 T00401140 IEM_DS3505
ZBAA,1996-01-11 05:00,ZBAA 110500Z AUTO 12008KT 7SM 05/M15 A3039 RMK SLP300 T00501150 IEM_DS3505
ZBAA,1996-01-11 06:00,ZBAA 110600Z AUTO 16004KT 6SM 05/M19 A3039 RMK SLP305 T00491189 57010 IEM_DS3505
ZBAA,1996-01-11 07:00,ZBAA 110700Z AUTO 15008KT 7SM 04/M14 A3042 RMK SLP310 T00401140 IEM_DS3505
ZBAA,1996-01-11 08:00,ZBAA 110800Z AUTO 15008KT 7SM 03/M10 A3042 RMK SLP311 T00301100 IEM_DS3505
ZBAA,1996-01-11 09:00,ZBAA 110900Z AUTO 14006KT 3SM 02/M10 A3045 RMK SLP319 T00241103 52013 IEM_DS3505
ZBAA,1996-01-11 10:00,ZBAA 111000Z AUTO ////04KT 7SM 01/M10 A3047 RMK SLP328 T00101100 IEM_DS3505
ZBAA,1996-01-11 11:00,ZBAA 111100Z AUTO ////02KT 7SM 00/M11 A3050 RMK SLP339 T00001110 IEM_DS3505
ZBAA,1996-01-11 12:00,ZBAA 111200Z AUTO 16006KT 6SM M00/M13 A3053 RMK SLP349 T10011134 52030 IEM_DS3505
ZBAA,1996-01-11 13:00,ZBAA 111300Z AUTO ////04KT 7SM M02/M10 A3056 RMK SLP359 T10201100 IEM_DS3505
ZBAA,1996-01-11 14:00,ZBAA 111400Z AUTO 17006KT 7SM M02/M10 A3059 RMK SLP369 T10201100 IEM_DS3505
ZBAA,1996-01-11 15:00,ZBAA 111500Z AUTO 16006KT 6SM M02/M12 A3059 RMK SLP372 T10211121 52023 IEM_DS3505
ZBAA,1996-01-11 16:00,ZBAA 111600Z AUTO ////02KT 7SM M04/M10 A3059 RMK SLP370 T10401100 IEM_DS3505
ZBAA,1996-01-11 18:00,ZBAA 111800Z AUTO 27002KT 6SM M05/M12 A3061 RMK SLP377 T10531115 52005 IEM_DS3505
ZBAA,1996-01-11 20:00,ZBAA 112000Z AUTO ////02KT 7SM M06/M10 A3062 RMK SLP380 T10601100 IEM_DS3505
ZBAA,1996-01-11 21:00,ZBAA 112100Z AUTO 02004KT 6SM M05/M12 A3062 RMK SLP377 T10471122 54000 IEM_DS3505
ZBAA,1996-01-11 22:00,ZBAA 112200Z AUTO ////02KT 7SM M07/M11 A3062 RMK SLP381 T10701110 IEM_DS3505
ZBAA,1996-01-11 23:00,ZBAA 112300Z AUTO ////04KT 7SM M07/M11 A3062 RMK SLP381 T10701110 IEM_DS3505
ZBAA,1996-01-12 00:00,ZBAA 120000Z AUTO 00000KT 4SM M07/M12 A3062 RMK SLP381 T10691116 52003 IEM_DS3505
ZBAA,1996-01-12 01:00,ZBAA 120100Z AUTO 35006KT 4SM M06/M11 A3062 RMK SLP380 T10601110 IEM_DS3505
ZBAA,1996-01-12 02:00,ZBAA 120200Z AUTO 34006KT 4SM M04/M10 A3062 RMK SLP380 T10401100 IEM_DS3505
ZBAA,1996-01-12 03:00,ZBAA 120300Z AUTO 00000KT 2SM M02/M11 A3062 RMK SLP380 T10161113 54000 IEM_DS3505
ZBAA,1996-01-12 04:00,ZBAA 120400Z AUTO 00000KT 5SM 00/M10 A3059 RMK SLP369 T00001100 IEM_DS3505
ZBAA,1996-01-12 05:00,ZBAA 120500Z AUTO ////04KT 5SM 01/M10 A3056 RMK SLP358 T00101100 IEM_DS3505
ZBAA,1996-01-12 06:00,ZBAA 120600Z AUTO 18006KT 5SM 02/M13 A3053 RMK SLP353 T00161132 57027 IEM_DS3505
ZBAA,1996-01-12 07:00,ZBAA 120700Z AUTO ////02KT 5SM 02/M10 A3053 RMK SLP348 T00201100 IEM_DS3505
ZBAA,1996-01-12 08:00,ZBAA 120800Z AUTO ////04KT 5SM 02/M11 A3053 RMK SLP348 T00201110 IEM_DS3505
ZBAA,1996-01-12 09:00,ZBAA 120900Z AUTO 20006KT 4SM 01/M11 A3053 RMK SLP346 T00081111 57007 IEM_DS3505
ZBAA,1996-01-12 10:00,ZBAA 121000Z AUTO ////02KT 4SM 00/M10 A3053 RMK SLP349 T00001100 IEM_DS3505
ZBAA,1996-01-12 11:00,ZBAA 121100Z AUTO ////02KT 4SM M02/M11 A3053 RMK SLP349 T10201110 IEM_DS3505
ZBAA,1996-01-12 12:00,ZBAA 121200Z AUTO 20006KT 3SM M01/M11 A3053 RMK SLP353 T10071109 52006 IEM_DS3505
ZBAA,1996-01-12 13:00,ZBAA 121300Z AUTO ////04KT 4SM M03/M10 A3053 RMK SLP349 T10301100 IEM_DS3505
ZBAA,1996-01-12 14:00,ZBAA 121400Z AUTO ////02KT 4SM M05/M10 A3053 RMK SLP350 T10501100 IEM_DS3505
ZBAA,1996-01-12 15:00,ZBAA 121500Z AUTO 20004KT 3SM M02/M14 A3053 RMK SLP347 T10251139 57005 IEM_DS3505
ZBAA,1996-01-12 16:00,ZBAA 121600Z AUTO 00000KT 3SM M06/M10 A3050 RMK SLP340 T10601100 IEM_DS3505
ZBAA,1996-01-12 18:00,ZBAA 121800Z AUTO 20002KT 3SM M04/M13 A3047 RMK SLP330 T10351126 57017 IEM_DS3505
ZBAA,1996-01-12 20:00,ZBAA 122000Z AUTO 00000KT 3SM M07/M11 A3045 RMK SLP323 T10701110 IEM_DS3505
ZBAA,1996-01-12 21:00,ZBAA 122100Z AUTO 36006KT 3SM M04/M11 A3044 RMK SLP320 T10401113 57010 IEM_DS3505
ZBAA,1996-01-12 22:00,ZBAA 122200Z AUTO 00000KT 2 1/2SM M07/M11 A3045 RMK SLP323 T10701110 IEM_DS3505
ZBAA,1996-01-12 23:00,ZBAA 122300Z AUTO 00000KT 2 1/2SM M06/M10 A3045 RMK SLP323 T10601100 IEM_DS3505
ZBAA,1996-01-13 00:00,ZBAA 130000Z AUTO 00000KT 2SM M05/M12 A3042 RMK SLP315 T10491125 57005 IEM_DS3505
ZBAA,1996-01-13 01:00,ZBAA 130100Z AUTO 00000KT 2SM M05/M10 A3045 RMK SLP323 T10501100 IEM_DS3505
ZBAA,1996-01-13 02:00,ZBAA 130200Z AUTO 00000KT 2SM M04/M10 A3045 RMK SLP322 T10401100 IEM_DS3505
ZBAA,1996-01-13 03:00,ZBAA 130300Z AUTO 29002KT 1 1/2SM M02/M11 A3042 RMK SLP312 T10181110 57003 IEM_DS3505
ZBAA,1996-01-13 04:00,ZBAA 130400Z AUTO 00000KT 2SM M02/M10 A3039 RMK SLP302 T10201100 IEM_DS3505
ZBAA,1996-01-13 05:00,ZBAA 130500Z AUTO 00000KT 2SM 00/M10 A3036 RMK SLP290 T00001100 IEM_DS3505
ZBAA,1996-01-13 06:00,ZBAA 130600Z AUTO 34004KT 2SM 00/M11 A3033 RMK SLP281 T00001107 57031 IEM_DS3505
ZBAA,1996-01-13 07:00,ZBAA 130700Z AUTO 00000KT 2SM 00/M09 A3033 RMK SLP280 T00001090 IEM_DS3505
ZBAA,1996-01-13 08:00,ZBAA 130800Z AUTO 00000KT 2SM 00/M09 A3030 RMK SLP270 T00001090 IEM_DS3505
ZBAA,1996-01-13 09:00,ZBAA 130900Z AUTO 29002KT 1 1/4SM M00/M10 A3030 RMK SLP272 T10021105 57009 IEM_DS3505
ZBAA,1996-01-13 10:00,ZBAA 131000Z AUTO 00000KT 2 1/2SM M01/M10 A3030 RMK SLP270 T10101100 IEM_DS3505
ZBAA,1996-01-13 11:00,ZBAA 131100Z AUTO 00000KT 2 1/2SM M01/M10 A3030 RMK SLP270 T10101100 IEM_DS3505
ZBAA,1996-01-13 12:00,ZBAA 131200Z AUTO 32004KT 1 1/4SM M01/M10 A3030 RMK SLP271 T10081099 57001 IEM_DS3505
ZBAA,1996-01-13 13:00,ZBAA 131300Z AUTO 00000KT 3SM M01/M10 A3030 RMK SLP270 T10101100 IEM_DS3505
ZBAA,1996-01-13 14:00,ZBAA 131400Z AUTO 00000KT 3SM M02/M10 A3030 RMK SLP271 T10201100 IEM_DS3505
ZBAA,1996-01-13 15:00,ZBAA 131500Z AUTO 32004KT 1 1/4SM M02/M03 A3030 RMK SLP270 T10151030 54000 IEM_DS3505
ZBAA,1996-01-13 16:00,ZBAA 131600Z AUTO ////04KT 3SM M02/M09 A3030 RMK SLP271 T10201090 IEM_DS3505
ZBAA,1996-01-13 18:00,ZBAA 131800Z AUTO 36004KT 3SM M02/M08 A3027 RMK SLP260 T10161082 57010 IEM_DS3505
ZBAA,1996-01-13 20:00,ZBAA 132000Z AUTO 35006KT 3SM M03/M05 A3024 RMK SLP251 T10301050 IEM_DS3505
ZBAA,1996-01-13 21:00,ZBAA 132100Z AUTO 34004KT 3SM M02/M10 A3024 RMK SLP250 T10231097 57010 IEM_DS3505
ZBAA,1996-01-13 22:00,ZBAA 132200Z AUTO 34006KT 4SM M03/M07 A3024 RMK SLP251 T10301070 IEM_DS3505
ZBAA,1996-01-13 23:00,ZBAA 132300Z AUTO 31006KT 6SM M02/M10 A3027 RMK SLP261 T10201100 IEM_DS3505
ZBAA,1996-01-14 00:00,ZBAA 140000Z AUTO 36004KT 16SM M03/M15 A3027 RMK SLP261 T10281153 52011 IEM_DS3505
ZBAA,1996-01-14 01:00,ZBAA 140100Z AUTO 35006KT 7SM M02/M12 A3033 RMK SLP281 T10201120 IEM_DS3505
ZBAA,1996-01-14 02:00,ZBAA 140200Z AUTO 36008KT 6SM 00/M12 A3033 RMK SLP280 T00001120 IEM_DS3505
ZBAA,1996-01-14 03:00,ZBAA 140300Z AUTO 34008KT 16SM 01/M20 A3036 RMK SLP284 T00061202 52023 IEM_DS3505
ZBAA,1996-01-14 04:00,ZBAA 140400Z AUTO 36010KT 6SM 01/M13 A3030 RMK SLP270 T00101130 IEM_DS3505
ZBAA,1996-01-14 05:00,ZBAA 140500Z AUTO 01008KT 6SM 02/M13 A3030 RMK SLP270 T00201130 IEM_DS3505
ZBAA,1996-01-14 06:00,ZBAA 140600Z AUTO 36008KT 16SM 02/M21 A3027 RMK SLP260 T00211213 57024 IEM_DS3505
ZBAA,1996-01-14 07:00,ZBAA 140700Z AUTO 04006KT 6SM 02/M14 A3030 RMK SLP270 T00201140 IEM_DS3505
ZBAA,1996-01-14 08:00,ZBAA 140800Z AUTO 05006KT 6SM 02/M14 A3027 RMK SLP260 T00201140 IEM_DS3505
ZBAA,1996-01-14 09:00,ZBAA 140900Z AUTO 02008KT 16SM 02/M21 A3030 RMK SLP267 T00151214 52007 IEM_DS3505
ZBAA,1996-01-14 10:00,ZBAA 141000Z AUTO ////04KT 6SM 00/M14 A3030 RMK SLP270 T00001140 IEM_DS3505
ZBAA,1996-01-14 11:00,ZBAA 141100Z AUTO ////02KT 6SM 00/M15 A3033 RMK SLP280 T00001150 IEM_DS3505
ZBAA,1996-01-14 12:00,ZBAA 141200Z AUTO 02004KT 12SM 01/M17 A3036 RMK SLP287 T00061172 52020 IEM_DS3505
ZBAA,1996-01-14 14:00,ZBAA 141400Z AUTO ////04KT 6SM M01/M15 A3039 RMK SLP302 T10101150 IEM_DS3505
ZBAA,1996-01-14 15:00,ZBAA 141500Z AUTO 02006KT 12SM M00/M19 A3039 RMK SLP296 T10021192 52009 IEM_DS3505
ZBAA,1996-01-14 16:00,ZBAA 141600Z AUTO ////04KT 6SM M03/M16 A3039 RMK SLP302 T10301160 IEM_DS3505
ZBAA,1996-01-14 18:00,ZBAA 141800Z AUTO 04002KT 12SM M02/M17 A3036 RMK SLP290 T10191173 57006 IEM_DS3505
ZBAA,1996-01-14 20:00,ZBAA 142000Z AUTO ////02KT 6SM M04/M15 A3036 RMK SLP291 T10401150 IEM_DS3505
ZBAA,1996-01-14 21:00,ZBAA 142100Z AUTO 04004KT 6SM M03/M11 A3036 RMK SLP288 T10321110 57002 IEM_DS3505
ZBAA,1996-01-14 22:00,ZBAA 142200Z AUTO 00000KT 6SM M05/M12 A3036 RMK SLP292 T10501120 IEM_DS3505
ZBAA,1996-01-14 23:00,ZBAA 142300Z AUTO ////04KT 6SM M05/M14 A3039 RMK SLP303 T10501140 IEM_DS3505
ZBAA,1996-01-15 00:00,ZBAA 150000Z AUTO 34004KT 6SM M04/M14 A3039 RMK SLP296 T10351139 52007 IEM_DS3505
ZBAA,1996-01-15 01:00,ZBAA 150100Z AUTO ////02KT 6SM M05/M13 A3039 RMK SLP303 T10501130 IEM_DS3505
ZBAA,1996-01-15 02:00,ZBAA 150200Z AUTO ////02KT 5SM M03/M12 A3042 RMK SLP312 T10301120 IEM_DS3505
ZBAA,1996-01-15 03:00,ZBAA 150300Z AUTO 36004KT 6SM M01/M12 A3042 RMK SLP303 T10141115 52008 IEM_DS3505
ZBAA,1996-01-15 04:00,ZBAA 150400Z AUTO ////02KT 6SM M01/M07 A3039 RMK SLP302 T10101070 IEM_DS3505
ZBAA,1996-01-15 05:00,ZBAA 150500Z AUTO ////04KT 6SM 00/M09 A3036 RMK SLP290 T00001090 IEM_DS3505
ZBAA,1996-01-15 06:00,ZBAA 150600Z AUTO 32004KT 6SM 01/M14 A3033 RMK SLP282 T00111142 57021 IEM_DS3505
ZBAA,1996-01-15 07:00,ZBAA 150700Z AUTO 31012G21KT 6SM 01/M13 A3033 RMK SLP280 T00101130 IEM_DS3505
ZBAA,1996-01-15 08:00,ZBAA 150800Z AUTO 30016KT 7SM 00/M14 A3033 RMK SLP280 T00001140 IEM_DS3505
ZBAA,1996-01-15 09:00,ZBAA 150900Z AUTO 34012KT 16SM M01/M26 A3036 RMK SLP293 T10071258 52010 IEM_DS3505
ZBAA,1996-01-15 10:00,ZBAA 151000Z AUTO 30010KT 7SM M02/M18 A3039 RMK SLP302 T10201180 IEM_DS3505
ZBAA,1996-01-15 11:00,ZBAA 151100Z AUTO 31016KT 7SM M03/M20 A3039 RMK SLP302 T10301200 IEM_DS3505
ZBAA,1996-01-15 12:00,ZBAA 151200Z AUTO 02010KT 19SM M04/M24 A3039 RMK SLP312 T10391243 52019 IEM_DS3505
ZBAA,1996-01-15 13:00,ZBAA 151300Z AUTO 32019KT 7SM M05/M23 A3042 RMK SLP313 T10501230 IEM_DS3505
ZBAA,1996-01-15 14:00,ZBAA 151400Z AUTO 32014KT 7SM M06/M23 A3045 RMK SLP323 T10601230 IEM_DS3505
ZBAA,1996-01-15 15:00,ZBAA 151500Z AUTO 34008KT 19SM M06/M26 A3047 RMK SLP324 T10581256 52012 IEM_DS3505
ZBAA,1996-01-15 16:00,ZBAA 151600Z AUTO 32010KT 7SM M07/M24 A3047 RMK SLP330 T10701240 IEM_DS3505
ZBAA,1996-01-15 17:00,ZBAA 151700Z AUTO 33014KT 7SM M07/M25 A3047 RMK SLP330 T10701250 IEM_DS3505
ZBAA,1996-01-15 18:00,ZBAA 151800Z AUTO 36010KT 19SM M07/M31 A3046 RMK SLP325 T10701309 52001 IEM_DS3505
ZBAA,1996-01-15 20:00,ZBAA 152000Z AUTO 33008KT 7SM M09/M27 A3047 RMK SLP331 T10901270 IEM_DS3505
ZBAA,1996-01-15 21:00,ZBAA 152100Z AUTO 04006KT 19SM M08/M28 A3047 RMK SLP328 T10831285 52002 IEM_DS3505
ZBAA,1996-01-15 22:00,ZBAA 152200Z AUTO 01006KT 7SM M11/M25 A3047 RMK SLP331 T11101250 IEM_DS3505
ZBAA,1996-01-15 23:00,ZBAA 152300Z AUTO 03008KT 7SM M11/M24 A3045 RMK SLP324 T11101240 IEM_DS3505
ZBAA,1996-01-16 00:00,ZBAA 160000Z AUTO 09002KT 19SM M08/M27 A3045 RMK SLP325 T10851274 57003 IEM_DS3505
ZBAA,1996-01-16 01:00,ZBAA 160100Z AUTO 03008KT 7SM M09/M23 A3047 RMK SLP331 T10901230 IEM_DS3505
ZBAA,1996-01-16 02:00,ZBAA 160200Z AUTO 03008KT 7SM M07/M23 A3047 RMK SLP330 T10701230 IEM_DS3505
ZBAA,1996-01-16 03:00,ZBAA 160300Z AUTO 00000KT 7SM M06/M23 A3045 RMK SLP324 T10551232 57001 IEM_DS3505
ZBAA,1996-01-16 04:00,ZBAA 160400Z AUTO ////04KT 7SM M04/M22 A3042 RMK SLP312 T10401220 IEM_DS3505
ZBAA,1996-01-16 05:00,ZBAA 160500Z AUTO ////04KT 7SM M03/M20 A3039 RMK SLP302 T10301200 IEM_DS3505
ZBAA,1996-01-16 06:00,ZBAA 160600Z AUTO 18008KT 6SM M03/M22 A3036 RMK SLP291 T10271225 57032 IEM_DS3505
ZBAA,1996-01-16 07:00,ZBAA 160700Z AUTO 10006KT 7SM M02/M20 A3033 RMK SLP281 T10201200 IEM_DS3505
ZBAA,1996-01-16 08:00,ZBAA 160800Z AUTO 21010KT 5SM M02/M20 A3033 RMK SLP281 T10201200 IEM_DS3505
ZBAA,1996-01-16 09:00,ZBAA 160900Z AUTO 20006KT 6SM M04/M20 A3033 RMK SLP280 T10381203 57012 IEM_DS3505
ZBAA,1996-01-16 10:00,ZBAA 161000Z AUTO ////04KT 5SM M04/M18 A3033 RMK SLP281 T10401180 IEM_DS3505
ZBAA,1996-01-16 11:00,ZBAA 161100Z AUTO ////04KT 6SM M05/M17 A3033 RMK SLP281 T10501170 IEM_DS3505
ZBAA,1996-01-16 12:00,ZBAA 161200Z AUTO 20008KT 16SM M05/M18 A3033 RMK SLP289 T10491183 52009 IEM_DS3505
ZBAA,1996-01-16 13:00,ZBAA 161300Z AUTO 20006KT 6SM M05/M16 A3033 RMK SLP281 T10501160 IEM_DS3505
ZBAA,1996-01-16 14:00,ZBAA 161400Z AUTO ////02KT 6SM M06/M16 A3036 RMK SLP292 T10601160 IEM_DS3505
ZBAA,1996-01-16 15:00,ZBAA 161500Z AUTO 20004KT 12SM M06/M15 A3036 RMK SLP292 T10571152 52003 IEM_DS3505
ZBAA,1996-01-16 16:00,ZBAA 161600Z AUTO ////02KT 6SM M07/M15 A3036 RMK SLP292 T10701150 IEM_DS3505
ZBAA,1996-01-16 18:00,ZBAA 161800Z AUTO 00000KT 5SM M07/M15 A3034 RMK SLP284 T10671149 57007 IEM_DS3505
ZBAA,1996-01-16 20:00,ZBAA 162000Z AUTO 00000KT 6SM M09/M15 A3036 RMK SLP293 T10901150 IEM_DS3505
ZBAA,1996-01-16 21:00,ZBAA 162100Z AUTO 32002KT 3SM M07/M16 A3036 RMK SLP288 T10711163 52003 IEM_DS3505
ZBAA,1996-01-16 22:00,ZBAA 162200Z AUTO ////02KT 6SM M09/M15 A3036 RMK SLP293 T10901150 IEM_DS3505
ZBAA,1996-01-16 23:00,ZBAA 162300Z AUTO 33006KT 6SM M08/M16 A3039 RMK SLP303 T10801160 IEM_DS3505
ZBAA,1996-01-17 00:00,ZBAA 170000Z AUTO 00000KT 2 1/2SM M08/M14 A3039 RMK SLP305 T10811145 52017 IEM_DS3505
ZBAA,1996-01-17 01:00,ZBAA 170100Z AUTO ////04KT 6SM M06/M16 A3042 RMK SLP313 T10601160 IEM_DS3505
ZBAA,1996-01-17 02:00,ZBAA 170200Z AUTO 36008KT 6SM M04/M18 A3045 RMK SLP322 T10401180 IEM_DS3505
ZBAA,1996-01-17 03:00,ZBAA 170300Z AUTO 36014KT 7SM M02/M27 A3045 RMK SLP323 T10201273 52019 IEM_DS3505
ZBAA,1996-01-17 04:00,ZBAA 170400Z AUTO 33016KT 6SM M01/M21 A3045 RMK SLP322 T10101210 IEM_DS3505
ZBAA,1996-01-17 05:00,ZBAA 170500Z AUTO 32019KT 6SM M01/M22 A3039 RMK SLP302 T10101220 IEM_DS3505
ZBAA,1996-01-17 06:00,ZBAA 170600Z AUTO 02008KT 9SM 00/M30 A3039 RMK SLP299 T00001295 57024 IEM_DS3505
ZBAA,1996-01-17 07:00,ZBAA 170700Z AUTO 31014KT 6SM 00/M21 A3036 RMK SLP290 T00001210 IEM_DS3505
ZBAA,1996-01-17 08:00,ZBAA 170800Z AUTO 32014KT 6SM 00/M22 A3039 RMK SLP301 T00001220 IEM_DS3505
ZBAA,1996-01-17 09:00,ZBAA 170900Z AUTO 02010KT 12SM M01/M28 A3039 RMK SLP301 T10071276 52002 IEM_DS3505
ZBAA,1996-01-17 10:00,ZBAA 171000Z AUTO 30010KT 6SM M02/M22 A3042 RMK SLP312 T10201220 IEM_DS3505
ZBAA,1996-01-17 11:00,ZBAA 171100Z AUTO 31014KT 6SM M02/M22 A3045 RMK SLP322 T10201220 IEM_DS3505
ZBAA,1996-01-17 12:00,ZBAA 171200Z AUTO 32004KT 19SM M03/M21 A3047 RMK SLP328 T10301212 52026 IEM_DS3505
ZBAA,1996-01-17 13:00,ZBAA 171300Z AUTO 32010KT 7SM M03/M23 A3050 RMK SLP339 T10301230 IEM_DS3505
ZBAA,1996-01-17 15:00,ZBAA 171500Z AUTO 36006KT 19SM M04/M25 A3053 RMK SLP346 T10401248 52019 IEM_DS3505
ZBAA,1996-01-17 16:00,ZBAA 171600Z AUTO 36008KT 7SM M05/M22 A3053 RMK SLP350 T10501220 IEM_DS3505
ZBAA,1996-01-17 18:00,ZBAA 171800Z AUTO 36008KT 16SM M06/M24 A3054 RMK SLP351 T10591245 52005 IEM_DS3505
ZBAA,1996-01-17 20:00,ZBAA 172000Z AUTO 01008KT 7SM M07/M23 A3056 RMK SLP361 T10701230 IEM_DS3505
ZBAA,1996-01-17 21:00,ZBAA 172100Z AUTO 36008KT 19SM M06/M26 A3053 RMK SLP349 T10641264 57002 IEM_DS3505
ZBAA,1996-01-17 22:00,ZBAA 172200Z AUTO 03008KT 7SM M08/M23 A3056 RMK SLP361 T10801230 IEM_DS3505
ZBAA,1996-01-17 23:00,ZBAA 172300Z AUTO 03008KT 7SM M09/M22 A3056 RMK SLP361 T10901220 IEM_DS3505
ZBAA,1996-01-18 00:00,ZBAA 180000Z AUTO 02010KT 19SM M07/M27 A3056 RMK SLP359 T10691266 52009 IEM_DS3505
ZBAA,1996-01-18 01:00,ZBAA 180100Z AUTO 01006KT 6SM M07/M21 A3056 RMK SLP361 T10701210 IEM_DS3505
ZBAA,1996-01-18 02:00,ZBAA 180200Z AUTO 03008KT 6SM M06/M21 A3056 RMK SLP360 T10601210 IEM_DS3505
ZBAA,1996-01-18 03:00,ZBAA 180300Z AUTO 02010KT 19SM M03/M24 A3056 RMK SLP351 T10301239 57007 IEM_DS3505
ZBAA,1996-01-18 04:00,ZBAA 180400Z AUTO 01010KT 6SM M02/M22 A3050 RMK SLP339 T10201220 IEM_DS3505
ZBAA,1996-01-18 05:00,ZBAA 180500Z AUTO 33016KT 6SM M01/M22 A3045 RMK SLP322 T10101220 IEM_DS3505
ZBAA,1996-01-18 06:00,ZBAA 180600Z AUTO 04008KT 19SM 00/ A3045 RMK SLP307 57044 IEM_DS3505
ZBAA,1996-01-18 07:00,ZBAA 180700Z AUTO 31014KT 6SM 00/M21 A3039 RMK SLP301 T00001210 IEM_DS3505
ZBAA,1996-01-18 08:00,ZBAA 180800Z AUTO 30012KT 6SM 00/M22 A3036 RMK SLP290 T00001220 IEM_DS3505
ZBAA,1996-01-18 09:00,ZBAA 180900Z AUTO 22008KT 6SM M01/M20 A3036 RMK SLP296 T10121198 57011 IEM_DS3505
ZBAA,1996-01-18 11:00,ZBAA 181100Z AUTO 32006KT 6SM M03/M22 A3039 RMK SLP302 T10301220 IEM_DS3505
ZBAA,1996-01-18 12:00,ZBAA 181200Z AUTO 20006KT 9SM M03/M17 A3039 RMK SLP301 T10331171 52004 IEM_DS3505
ZBAA,1996-01-18 13:00,ZBAA 181300Z AUTO 24006KT 6SM M04/M21 A3039 RMK SLP302 T10401210 IEM_DS3505
ZBAA,1996-01-18 14:00,ZBAA 181400Z AUTO ////02KT 6SM M04/M16 A3039 RMK SLP302 T10401160 IEM_DS3505
ZBAA,1996-01-18 15:00,ZBAA 181500Z AUTO 18006KT 6SM M04/M14 A3036 RMK SLP298 T10451144 57002 IEM_DS3505
ZBAA,1996-01-18 16:00,ZBAA 181600Z AUTO 24006KT 1SM RMK IEM_DS3505
ZBAA,1996-01-18 18:00,ZBAA 181800Z AUTO 22002KT 6SM M07/M13 A3033 RMK SLP280 T10661134 57018 IEM_DS3505
ZBAA,1996-01-18 20:00,ZBAA 182000Z AUTO ////02KT 4SM M08/M16 A3030 RMK SLP272 T10801160 IEM_DS3505
ZBAA,1996-01-18 21:00,ZBAA 182100Z AUTO 07008KT 6SM M04/M22 A3030 RMK SLP265 T10411223 57015 IEM_DS3505
ZBAA,1996-01-18 22:00,ZBAA 182200Z AUTO 00000KT 7SM M09/M17 A3030 RMK SLP272 T10901170 IEM_DS3505
ZBAA,1996-01-18 23:00,ZBAA 182300Z AUTO ////04KT 6SM M07/M18 A3027 RMK SLP262 T10701180 IEM_DS3505
ZBAA,1996-01-19 00:00,ZBAA 190000Z AUTO 00000KT 2SM M08/M16 A3027 RMK SLP260 T10751162 57005 IEM_DS3505
ZBAA,1996-01-19 01:00,ZBAA 190100Z AUTO ////04KT 6SM M05/M17 A3027 RMK SLP261 T10501170 IEM_DS3505
ZBAA,1996-01-19 02:00,ZBAA 190200Z AUTO 03006KT 6SM M02/M12 A3027 RMK SLP261 T10201120 IEM_DS3505
ZBAA,1996-01-19 03:00,ZBAA 190300Z AUTO 02006KT 6SM M00/M25 A3027 RMK SLP257 T10021248 57003 IEM_DS3505
ZBAA,1996-01-19 04:00,ZBAA 190400Z AUTO 03006KT 6SM 01/M17 A3021 RMK SLP240 T00101170 IEM_DS3505
ZBAA,1996-01-19 05:00,ZBAA 190500Z AUTO 02008KT 6SM 02/M17 A3018 RMK SLP229 T00201170 IEM_DS3505
ZBAA,1996-01-19 06:00,ZBAA 190600Z AUTO 00000KT 6SM M02/M22 A3015 RMK SLP225 T10181224 57032 IEM_DS3505
ZBAA,1996-01-19 07:00,ZBAA 190700Z AUTO 05008KT 6SM 02/M18 A3015 RMK SLP219 T00201180 IEM_DS3505
ZBAA,1996-01-19 08:00,ZBAA 190800Z AUTO 03006KT 6SM 01/M18 A3015 RMK SLP219 T00101180 IEM_DS3505
ZBAA,1996-01-19 09:00,ZBAA 190900Z AUTO 20008KT 6SM 01/M19 A3015 RMK SLP217 T00121188 57007 IEM_DS3505
ZBAA,1996-01-19 10:00,ZBAA 191000Z AUTO 00000KT 7SM M01/M21 A3015 RMK SLP220 T10101210 IEM_DS3505
ZBAA,1996-01-19 11:00,ZBAA 191100Z AUTO ////04KT 7SM M02/M20 A3015 RMK SLP220 T10201200 IEM_DS3505
ZBAA,1996-01-19 12:00,ZBAA 191200Z AUTO 18004KT 6SM M01/M15 A3015 RMK SLP223 T10131150 52005 IEM_DS3505
ZBAA,1996-01-19 13:00,ZBAA 191300Z AUTO ////04KT 7SM M03/M20 A3015 RMK SLP221 T10301200 IEM_DS3505
ZBAA,1996-01-19 16:00,ZBAA 191600Z AUTO 33006KT 7SM M05/M19 A3018 RMK SLP231 T10501190 IEM_DS3505
ZBAA,1996-01-19 18:00,ZBAA 191800Z AUTO 02006KT 3SM M04/M19 A3020 RMK SLP237 T10401187 52006 IEM_DS3505
ZBAA,1996-01-19 21:00,ZBAA 192100Z AUTO 02006KT 3SM M03/M20 A3020 RMK SLP239 T10321205 52002 IEM_DS3505
ZBAA,1996-01-19 22:00,ZBAA 192200Z AUTO 34012KT 7SM M06/M18 A3024 RMK SLP252 T10601180 IEM_DS3505
ZBAA,1996-01-19 23:00,ZBAA 192300Z AUTO 30008KT 7SM M04/M17 A3024 RMK SLP251 T10401170 IEM_DS3505
ZBAA,1996-01-20 00:00,ZBAA 200000Z AUTO 02006KT 12SM M04/M17 A3027 RMK SLP266 T10381174 52026 IEM_DS3505
ZBAA,1996-01-20 01:00,ZBAA 200100Z AUTO 30010KT 7SM M03/M16 A3030 RMK SLP271 T10301160 IEM_DS3505
ZBAA,1996-01-20 02:00,ZBAA 200200Z AUTO 32014KT 7SM M01/M17 A3030 RMK SLP270 T10101170 IEM_DS3505
ZBAA,1996-01-20 03:00,ZBAA 200300Z AUTO 34006KT 19SM M00/M18 A3033 RMK SLP281 T10031185 52015 IEM_DS3505
ZBAA,1996-01-20 04:00,ZBAA 200400Z AUTO 32014KT 7SM 01/M17 A3030 RMK SLP270 T00101170 IEM_DS3505
ZBAA,1996-01-20 05:00,ZBAA 200500Z AUTO 30014KT 7SM 01/M17 A3027 RMK SLP260 T00101170 IEM_DS3505
ZBAA,1996-01-20 06:00,ZBAA 200600Z AUTO 36012KT 19SM 02/M24 A3027 RMK SLP258 T00191237 57022 IEM_DS3505
ZBAA,1996-01-20 07:00,ZBAA 200700Z AUTO 30014KT 7SM 02/M17 A3024 RMK SLP249 T00201170 IEM_DS3505
ZBAA,1996-01-20 08:00,ZBAA 200800Z AUTO 30012KT 7SM 02/M18 A3024 RMK SLP249 T00201180 IEM_DS3505
ZBAA,1996-01-20 09:00,ZBAA 200900Z AUTO 34008KT 19SM 02/M23 A3027 RMK SLP257 T00191234 57001 IEM_DS3505
ZBAA,1996-01-20 10:00,ZBAA 201000Z AUTO 30008KT 7SM 00/M18 A3027 RMK SLP260 T00001180 IEM_DS3505
ZBAA,1996-01-20 11:00,ZBAA 201100Z AUTO 30006KT 7SM M01/M19 A3027 RMK SLP260 T10101190 IEM_DS3505
ZBAA,1996-01-20 12:00,ZBAA 201200Z AUTO 34004KT 19SM 00/M20 A3030 RMK SLP271 T00021200 52014 IEM_DS3505
ZBAA,1996-01-20 13:00,ZBAA 201300Z AUTO 31006KT 7SM M02/M20 A3033 RMK SLP281 T10201200 IEM_DS3505
ZBAA,1996-01-20 14:00,ZBAA 201400Z AUTO ////04KT 7SM M04/M20 A3033 RMK SLP281 T10401200 IEM_DS3505
ZBAA,1996-01-20 15:00,ZBAA 201500Z AUTO 36006KT 16SM M02/M16 A3033 RMK SLP285 T10231165 52014 IEM_DS3505
ZBAA,1996-01-20 18:00,ZBAA 201800Z AUTO 02008KT 19SM M03/M19 A3035 RMK SLP287 T10311193 52002 IEM_DS3505
ZBAA,1996-01-20 20:00,ZBAA 202000Z AUTO 36006KT 7SM M04/M21 A3036 RMK SLP291 T10401210 IEM_DS3505
ZBAA,1996-01-20 21:00,ZBAA 202100Z AUTO 02004KT 16SM M04/M20 A3033 RMK SLP284 T10391195 57003 IEM_DS3505
ZBAA,1996-01-20 22:00,ZBAA 202200Z AUTO 36006KT 7SM M06/M18 A3033 RMK SLP282 T10601180 IEM_DS3505
ZBAA,1996-01-20 23:00,ZBAA 202300Z AUTO ////04KT 7SM M07/M18 A3033 RMK SLP282 T10701180 IEM_DS3505
ZBAA,1996-01-21 00:00,ZBAA 210000Z AUTO 02004KT 12SM M04/M21 A3036 RMK SLP286 T10431206 52001 IEM_DS3505
ZBAA,1996-01-21 01:00,ZBAA 210100Z AUTO 04006KT 6SM M06/M16 A3036 RMK SLP292 T10601160 IEM_DS3505
ZBAA,1996-01-21 02:00,ZBAA 210200Z AUTO ////04KT 6SM M03/M18 A3036 RMK SLP291 T10301180 IEM_DS3505
ZBAA,1996-01-21 03:00,ZBAA 210300Z AUTO 02004KT 12SM M02/M20 A3036 RMK SLP292 T10171195 52006 IEM_DS3505
ZBAA,1996-01-21 04:00,ZBAA 210400Z AUTO ////04KT 6SM 00/M19 A3033 RMK SLP280 T00001190 IEM_DS3505
ZBAA,1996-01-21 05:00,ZBAA 210500Z AUTO 00000KT 6SM 00/M18 A3030 RMK SLP270 T00001180 IEM_DS3505
ZBAA,1996-01-21 06:00,ZBAA 210600Z AUTO 20008KT 12SM 02/M20 A3027 RMK SLP257 T00151200 57034 IEM_DS3505
ZBAA,1996-01-21 07:00,ZBAA 210700Z AUTO 20006KT 6SM 01/M17 A3024 RMK SLP250 T00101170 IEM_DS3505
ZBAA,1996-01-21 08:00,ZBAA 210800Z AUTO 18006KT 6SM 01/M18 A3024 RMK SLP250 T00101180 IEM_DS3505
ZBAA,1996-01-21 09:00,ZBAA 210900Z AUTO 18008KT 12SM 01/M18 A3024 RMK SLP251 T00061178 57006 IEM_DS3505
ZBAA,1996-01-21 10:00,ZBAA 211000Z AUTO ////04KT 7SM M01/M17 A3024 RMK SLP250 T10101170 IEM_DS3505
ZBAA,1996-01-21 11:00,ZBAA 211100Z AUTO 00000KT 7SM M03/M15 A3024 RMK SLP251 T10301150 IEM_DS3505
ZBAA,1996-01-21 12:00,ZBAA 211200Z AUTO 25002KT 11SM M01/M14 A3024 RMK SLP254 T10131144 52002 IEM_DS3505
ZBAA,1996-01-21 13:00,ZBAA 211300Z AUTO ////02KT 7SM M04/M16 A3024 RMK SLP251 T10401160 IEM_DS3505
ZBAA,1996-01-21 14:00,ZBAA 211400Z AUTO 00000KT 7SM M05/M16 A3027 RMK SLP261 T10501160 IEM_DS3505
ZBAA,1996-01-21 15:00,ZBAA 211500Z AUTO 04002KT 9SM M05/M12 A3027 RMK SLP258 T10491125 52004 IEM_DS3505
ZBAA,1996-01-21 16:00,ZBAA 211600Z AUTO 00000KT 7SM M06/M16 A3027 RMK SLP262 T10601160 IEM_DS3505
ZBAA,1996-01-21 18:00,ZBAA 211800Z AUTO 00000KT 5SM M06/M14 A3026 RMK SLP258 T10641143 54000 IEM_DS3505
ZBAA,1996-01-21 20:00,ZBAA 212000Z AUTO ////04KT 4SM M09/M17 A3027 RMK SLP262 T10901170 IEM_DS3505
ZBAA,1996-01-21 21:00,ZBAA 212100Z AUTO 07002KT 4SM M07/M15 A3027 RMK SLP259 T10701147 52001 IEM_DS3505
ZBAA,1996-01-21 22:00,ZBAA 212200Z AUTO 35006KT 5SM M07/M16 A3027 RMK SLP262 T10701160 IEM_DS3505
ZBAA,1996-01-21 23:00,ZBAA 212300Z AUTO ////04KT 5SM M08/M17 A3027 RMK SLP262 T10801170 IEM_DS3505
ZBAA,1996-01-22 00:00,ZBAA 220000Z AUTO 02006KT 4SM M07/M15 A3030 RMK SLP263 T10701154 52004 IEM_DS3505
ZBAA,1996-01-22 01:00,ZBAA 220100Z AUTO 36006KT 6SM M06/M15 A3030 RMK SLP272 T10601150 IEM_DS3505
ZBAA,1996-01-22 02:00,ZBAA 220200Z AUTO 36006KT 6SM M03/M15 A3030 RMK SLP271 T10301150 IEM_DS3505
ZBAA,1996-01-22 03:00,ZBAA 220300Z AUTO 02002KT 5SM M00/M14 A3027 RMK SLP264 T10041140 52001 IEM_DS3505
ZBAA,1996-01-22 04:00,ZBAA 220400Z AUTO ////04KT 7SM 03/M15 A3024 RMK SLP249 T00301150 IEM_DS3505
ZBAA,1996-01-22 05:00,ZBAA 220500Z AUTO ////04KT 7SM 04/M15 A3021 RMK SLP239 T00401150 IEM_DS3505
ZBAA,1996-01-22 06:00,ZBAA 220600Z AUTO 20008KT 5SM 03/M17 A3018 RMK SLP236 T00261174 57027 IEM_DS3505
ZBAA,1996-01-22 07:00,ZBAA 220700Z AUTO ////02KT 7SM 04/M14 A3018 RMK SLP229 T00401140 IEM_DS3505
ZBAA,1996-01-22 08:00,ZBAA 220800Z AUTO 19008KT 7SM 04/M14 A3018 RMK SLP229 T00401140 IEM_DS3505
ZBAA,1996-01-22 09:00,ZBAA 220900Z AUTO 20006KT 5SM 02/M15 A3018 RMK SLP232 T00191151 57004 IEM_DS3505
ZBAA,1996-01-22 10:00,ZBAA 221000Z AUTO ////04KT 7SM 01/M15 A3021 RMK SLP240 T00101150 IEM_DS3505
ZBAA,1996-01-22 11:00,ZBAA 221100Z AUTO ////02KT 5SM 00/M14 A3021 RMK SLP240 T00001140 IEM_DS3505
ZBAA,1996-01-22 12:00,ZBAA 221200Z AUTO 20008KT 4SM 01/M15 A3021 RMK SLP239 T00071150 52006 IEM_DS3505
ZBAA,1996-01-22 13:00,ZBAA 221300Z AUTO 00000KT 4SM M01/M12 A3024 RMK SLP250 T10101120 IEM_DS3505
ZBAA,1996-01-22 14:00,ZBAA 221400Z AUTO ////02KT 4SM M03/M11 A3024 RMK SLP251 T10301110 IEM_DS3505
ZBAA,1996-01-22 15:00,ZBAA 221500Z AUTO 36004KT 2 1/2SM M01/M11 A3024 RMK SLP248 T10121111 52010 IEM_DS3505
ZBAA,1996-01-22 18:00,ZBAA 221800Z AUTO 36010KT 7SM M01/M10 A3028 RMK SLP264 T10061102 52016 IEM_DS3505
ZBAA,1996-01-22 20:00,ZBAA 222000Z AUTO 02006KT 6SM M03/M09 A3033 RMK SLP281 T10301090 IEM_DS3505
ZBAA,1996-01-22 21:00,ZBAA 222100Z AUTO 36006KT 9SM M02/M12 A3033 RMK SLP276 T10181121 52012 IEM_DS3505
ZBAA,1996-01-22 22:00,ZBAA 222200Z AUTO ////04KT 6SM M04/M10 A3033 RMK SLP281 T10401100 IEM_DS3505
ZBAA,1996-01-22 23:00,ZBAA 222300Z AUTO 33006KT 6SM M04/M11 A3036 RMK SLP291 T10401110 IEM_DS3505
ZBAA,1996-01-23 00:00,ZBAA 230000Z AUTO 04006KT 19SM M04/M18 A3039 RMK SLP296 T10401179 52019 IEM_DS3505
ZBAA,1996-01-23 01:00,ZBAA 230100Z AUTO 32010KT 7SM M03/M16 A3039 RMK SLP302 T10301160 IEM_DS3505
ZBAA,1996-01-23 02:00,ZBAA 230200Z AUTO 32014KT 7SM M03/M16 A3039 RMK SLP302 T10301160 IEM_DS3505
ZBAA,1996-01-23 03:00,ZBAA 230300Z AUTO 02008KT 9SM M01/M24 A3039 RMK SLP303 T10121235 52007 IEM_DS3505
ZBAA,1996-01-23 04:00,ZBAA 230400Z AUTO 30014KT 7SM M01/M17 A3036 RMK SLP290 T10101170 IEM_DS3505
ZBAA,1996-01-23 05:00,ZBAA 230500Z AUTO 30014KT 7SM 00/M18 A3036 RMK SLP290 T00001180 IEM_DS3505
ZBAA,1996-01-23 06:00,ZBAA 230600Z AUTO 32008KT 19SM 01/M22 A3033 RMK SLP277 T00131220 57025 IEM_DS3505
ZBAA,1996-01-23 07:00,ZBAA 230700Z AUTO 30014KT 7SM 01/M19 A3030 RMK SLP270 T00101190 IEM_DS3505
ZBAA,1996-01-23 08:00,ZBAA 230800Z AUTO 29014G23KT 7SM 00/M20 A3030 RMK SLP270 T00001200 IEM_DS3505
ZBAA,1996-01-23 09:00,ZBAA 230900Z AUTO 27010KT 19SM 01/M23 A3030 RMK SLP272 T00061234 57005 IEM_DS3505
ZBAA,1996-01-23 10:00,ZBAA 231000Z AUTO 29008KT 7SM M01/M20 A3030 RMK SLP270 T10101200 IEM_DS3505
ZBAA,1996-01-23 11:00,ZBAA 231100Z AUTO 29008KT 7SM M02/M20 A3033 RMK SLP281 T10201200 IEM_DS3505
ZBAA,1996-01-23 12:00,ZBAA 231200Z AUTO 36002KT 16SM M02/M21 A3034 RMK SLP286 T10211207 52013 IEM_DS3505
ZBAA,1996-01-23 13:00,ZBAA 231300Z AUTO 31006KT 7SM M02/M20 A3036 RMK SLP291 T10201200 IEM_DS3505
ZBAA,1996-01-23 14:00,ZBAA 231400Z AUTO 32006KT 7SM M03/M20 A3036 RMK SLP291 T10301200 IEM_DS3505
ZBAA,1996-01-23 15:00,ZBAA 231500Z AUTO 27006KT 16SM M02/M18 A3036 RMK SLP296 T10251177 52010 IEM_DS3505
ZBAA,1996-01-23 16:00,ZBAA 231600Z AUTO ////04KT 7SM M04/M21 A3039 RMK SLP302 T10401210 IEM_DS3505
ZBAA,1996-01-23 18:00,ZBAA 231800Z AUTO 07004KT 9SM M03/M21 A3038 RMK SLP297 T10291209 52002 IEM_DS3505
ZBAA,1996-01-23 20:00,ZBAA 232000Z AUTO 32008KT 7SM M05/M21 A3039 RMK SLP303 T10501210 IEM_DS3505
ZBAA,1996-01-23 21:00,ZBAA 232100Z AUTO 20002KT 9SM M05/M25 A3042 RMK SLP304 T10531252 52006 IEM_DS3505
ZBAA,1996-01-23 22:00,ZBAA 232200Z AUTO ////02KT 7SM M07/M21 A3042 RMK SLP313 T10701210 IEM_DS3505
ZBAA,1996-01-23 23:00,ZBAA 232300Z AUTO ////04KT 7SM M08/M19 A3045 RMK SLP324 T10801190 IEM_DS3505
ZBAA,1996-01-24 00:00,ZBAA 240000Z AUTO 07006KT 7SM M04/M22 A3045 RMK SLP320 T10421215 52016 IEM_DS3505
ZBAA,1996-01-24 01:00,ZBAA 240100Z AUTO ////04KT 7SM M06/M18 A3047 RMK SLP330 T10601180 IEM_DS3505
ZBAA,1996-01-24 02:00,ZBAA 240200Z AUTO ////04KT 7SM M03/M17 A3047 RMK SLP329 T10301170 IEM_DS3505
ZBAA,1996-01-24 03:00,ZBAA 240300Z AUTO 04002KT 4SM 01/M19 A3045 RMK SLP324 T00071189 52004 IEM_DS3505
ZBAA,1996-01-24 04:00,ZBAA 240400Z AUTO 30014KT 6SM 01/M19 A3042 RMK SLP311 T00101190 IEM_DS3505
ZBAA,1996-01-24 05:00,ZBAA 240500Z AUTO 30016KT 6SM 02/M19 A3039 RMK SLP301 T00201190 IEM_DS3505
ZBAA,1996-01-24 06:00,ZBAA 240600Z AUTO 18004KT 6SM 02/M15 A3036 RMK SLP292 T00221146 57031 IEM_DS3505
ZBAA,1996-01-24 07:00,ZBAA 240700Z AUTO 30016KT 6SM 03/M20 A3033 RMK SLP279 T00301200 IEM_DS3505
ZBAA,1996-01-24 08:00,ZBAA 240800Z AUTO 29014KT 6SM 02/M20 A3033 RMK SLP280 T00201200 IEM_DS3505
ZBAA,1996-01-24 09:00,ZBAA 240900Z AUTO 25006KT 7SM 01/M14 A3033 RMK SLP283 T00131137 57010 IEM_DS3505
ZBAA,1996-01-24 10:00,ZBAA 241000Z AUTO 28006KT 6SM 00/M21 A3033 RMK SLP280 T00001210 IEM_DS3505
ZBAA,1996-01-24 11:00,ZBAA 241100Z AUTO 29006KT 7SM 00/M21 A3033 RMK SLP280 T00001210 IEM_DS3505
ZBAA,1996-01-24 12:00,ZBAA 241200Z AUTO 29008KT 9SM M00/M23 A3036 RMK SLP291 T10041234 52008 IEM_DS3505
ZBAA,1996-01-24 13:00,ZBAA 241300Z AUTO 33006KT 7SM M02/M22 A3039 RMK SLP302 T10201220 IEM_DS3505
ZBAA,1996-01-24 14:00,ZBAA 241400Z AUTO 33008KT 7SM M03/M22 A3042 RMK SLP312 T10301220 IEM_DS3505
ZBAA,1996-01-24 15:00,ZBAA 241500Z AUTO 34008KT 12SM M03/M24 A3042 RMK SLP309 T10261236 52018 IEM_DS3505
ZBAA,1996-01-24 16:00,ZBAA 241600Z AUTO 33014KT 7SM M04/M23 A3045 RMK SLP322 T10401230 IEM_DS3505
ZBAA,1996-01-24 18:00,ZBAA 241800Z AUTO 02006KT 16SM M05/M26 A3045 RMK SLP321 T10461256 52012 IEM_DS3505
ZBAA,1996-01-24 20:00,ZBAA 242000Z AUTO 36006KT 7SM M07/M23 A3045 RMK SLP323 T10701230 IEM_DS3505
ZBAA,1996-01-24 21:00,ZBAA 242100Z AUTO 02006KT 16SM M06/M23 A3045 RMK SLP320 T10621228 57001 IEM_DS3505
ZBAA,1996-01-24 22:00,ZBAA 242200Z AUTO ////04KT 7SM M09/M22 A3045 RMK SLP324 T10901220 IEM_DS3505
ZBAA,1996-01-24 23:00,ZBAA 242300Z AUTO ////04KT 7SM M09/M22 A3047 RMK SLP331 T10901220 IEM_DS3505
ZBAA,1996-01-25 00:00,ZBAA 250000Z AUTO 34004KT 12SM M08/M20 A3047 RMK SLP326 T10771201 52006 IEM_DS3505
ZBAA,1996-01-25 01:00,ZBAA 250100Z AUTO 03006KT 7SM M07/M22 A3047 RMK SLP330 T10701220 IEM_DS3505
ZBAA,1996-01-25 02:00,ZBAA 250200Z AUTO ////04KT 7SM M05/M21 A3047 RMK SLP330 T10501210 IEM_DS3505
ZBAA,1996-01-25 03:00,ZBAA 250300Z AUTO 11004KT 11SM M02/M21 A3047 RMK SLP327 T10221209 52001 IEM_DS3505
ZBAA,1996-01-25 04:00,ZBAA 250400Z AUTO ////02KT 7SM M02/M19 A3042 RMK SLP312 T10201190 IEM_DS3505
ZBAA,1996-01-25 05:00,ZBAA 250500Z AUTO ////04KT 7SM 00/M19 A3039 RMK SLP301 T00001190 IEM_DS3505
ZBAA,1996-01-25 06:00,ZBAA 250600Z AUTO 22006KT 9SM M00/M24 A3036 RMK SLP294 T10011236 57033 IEM_DS3505
ZBAA,1996-01-25 07:00,ZBAA 250700Z AUTO 24006KT 6SM 01/M20 A3033 RMK SLP280 T00101200 IEM_DS3505
ZBAA,1996-01-25 08:00,ZBAA 250800Z AUTO 22008KT 6SM 00/M20 A3033 RMK SLP280 T00001200 IEM_DS3505
ZBAA,1996-01-25 09:00,ZBAA 250900Z AUTO 20008KT 12SM M00/M23 A3033 RMK SLP285 T10051233 57009 IEM_DS3505
ZBAA,1996-01-25 10:00,ZBAA 251000Z AUTO 23010KT 6SM M02/M19 A3033 RMK SLP281 T10201190 IEM_DS3505
ZBAA,1996-01-25 11:00,ZBAA 251100Z AUTO 24008KT 7SM M02/M19 A3033 RMK SLP281 T10201190 IEM_DS3505
ZBAA,1996-01-25 12:00,ZBAA 251200Z AUTO 20004KT 12SM M02/M19 A3033 RMK SLP286 T10231192 52001 IEM_DS3505
ZBAA,1996-01-25 13:00,ZBAA 251300Z AUTO 00000KT 7SM M06/M18 A3036 RMK SLP292 T10601180 IEM_DS3505
ZBAA,1996-01-25 14:00,ZBAA 251400Z AUTO 00000KT 7SM M05/M19 A3036 RMK SLP292 T10501190 IEM_DS3505
ZBAA,1996-01-25 15:00,ZBAA 251500Z AUTO 18002KT 9SM M04/M19 A3036 RMK SLP288 T10371190 52002 IEM_DS3505
ZBAA,1996-01-25 16:00,ZBAA 251600Z AUTO 00000KT 7SM M07/M18 A3036 RMK SLP292 T10701180 IEM_DS3505
ZBAA,1996-01-25 18:00,ZBAA 251800Z AUTO 32004KT 7SM M05/M18 A3033 RMK SLP281 T10541185 57007 IEM_DS3505
ZBAA,1996-01-25 20:00,ZBAA 252000Z AUTO ////02KT 7SM M08/M18 A3030 RMK SLP272 T10801180 IEM_DS3505
ZBAA,1996-01-25 21:00,ZBAA 252100Z AUTO 34002KT 6SM M07/M19 A3030 RMK SLP275 T10711187 57006 IEM_DS3505
ZBAA,1996-01-25 22:00,ZBAA 252200Z AUTO ////02KT 7SM M08/M17 A3030 RMK SLP272 T10801170 IEM_DS3505
ZBAA,1996-01-25 23:00,ZBAA 252300Z AUTO ////04KT 7SM M09/M18 A3030 RMK SLP272 T10901180 IEM_DS3505
ZBAA,1996-01-26 00:00,ZBAA 260000Z AUTO 00000KT 6SM M08/M17 A3030 RMK SLP273 T10751170 57002 IEM_DS3505
ZBAA,1996-01-26 01:00,ZBAA 260100Z AUTO ////04KT 5SM M07/M16 A3033 RMK SLP282 T10701160 IEM_DS3505
ZBAA,1996-01-26 02:00,ZBAA 260200Z AUTO ////04KT 5SM M04/M15 A3030 RMK SLP271 T10401150 IEM_DS3505
ZBAA,1996-01-26 03:00,ZBAA 260300Z AUTO 09002KT 5SM M01/M16 A3030 RMK SLP267 T10121161 57006 IEM_DS3505
ZBAA,1996-01-26 04:00,ZBAA 260400Z AUTO ////02KT 5SM 00/M15 A3027 RMK SLP260 T00001150 IEM_DS3505
ZBAA,1996-01-26 05:00,ZBAA 260500Z AUTO ////04KT 5SM 03/M14 A3021 RMK SLP239 T00301140 IEM_DS3505
ZBAA,1996-01-26 06:00,ZBAA 260600Z AUTO 20006KT 4SM 04/M16 A3018 RMK SLP231 T00441165 57035 IEM_DS3505
ZBAA,1996-01-26 07:00,ZBAA 260700Z AUTO 28016KT 7SM 06/M16 A3015 RMK SLP218 T00601160 IEM_DS3505
ZBAA,1996-01-26 08:00,ZBAA 260800Z AUTO 28014KT 7SM 06/M16 A3015 RMK SLP218 T00601160 IEM_DS3505
ZBAA,1996-01-26 09:00,ZBAA 260900Z AUTO 18008KT 4SM 04/M12 A3018 RMK SLP230 T00431116 57001 IEM_DS3505
ZBAA,1996-01-26 10:00,ZBAA 261000Z AUTO 27006KT 7SM 03/M16 A3018 RMK SLP229 T00301160 IEM_DS3505
ZBAA,1996-01-26 11:00,ZBAA 261100Z AUTO 25006KT 7SM 02/M16 A3021 RMK SLP239 T00201160 IEM_DS3505
ZBAA,1996-01-26 12:00,ZBAA 261200Z AUTO 27002KT 6SM 00/M13 A3021 RMK SLP245 T00021133 52014 IEM_DS3505
ZBAA,1996-01-26 13:00,ZBAA 261300Z AUTO ////04KT 5SM 00/M14 A3024 RMK SLP250 T00001140 IEM_DS3505
ZBAA,1996-01-26 14:00,ZBAA 261400Z AUTO 29006KT 5SM M01/M14 A3027 RMK SLP260 T10101140 IEM_DS3505
ZBAA,1996-01-26 15:00,ZBAA 261500Z AUTO 29006KT 6SM M03/M14 A3027 RMK SLP260 T10281139 52016 IEM_DS3505
ZBAA,1996-01-26 18:00,ZBAA 261800Z AUTO 04002KT 6SM M02/M15 A3028 RMK SLP262 T10251147 52002 IEM_DS3505
ZBAA,1996-01-26 20:00,ZBAA 262000Z AUTO 33006KT 7SM M02/M17 A3027 RMK SLP261 T10201170 IEM_DS3505
ZBAA,1996-01-26 21:00,ZBAA 262100Z AUTO 34006KT 7SM M03/M17 A3027 RMK SLP256 T10311166 57006 IEM_DS3505
ZBAA,1996-01-26 22:00,ZBAA 262200Z AUTO ////04KT 7SM M04/M17 A3027 RMK SLP261 T10401170 IEM_DS3505
ZBAA,1996-01-26 23:00,ZBAA 262300Z AUTO 35006KT 6SM M04/M16 A3027 RMK SLP261 T10401160 IEM_DS3505
ZBAA,1996-01-27 00:00,ZBAA 270000Z AUTO 25006KT 5SM M02/M16 A3030 RMK SLP264 T10241158 52008 IEM_DS3505
ZBAA,1996-01-27 01:00,ZBAA 270100Z AUTO ////04KT 7SM M03/M15 A3027 RMK SLP261 T10301150 IEM_DS3505
ZBAA,1996-01-27 02:00,ZBAA 270200Z AUTO ////04KT 7SM M01/M13 A3030 RMK SLP270 T10101130 IEM_DS3505
ZBAA,1996-01-27 03:00,ZBAA 270300Z AUTO 20006KT 4SM 02/M17 A3030 RMK SLP266 T00241171 52002 IEM_DS3505
ZBAA,1996-01-27 04:00,ZBAA 270400Z AUTO 25008KT 7SM 04/M15 A3027 RMK SLP259 T00401150 IEM_DS3505
ZBAA,1996-01-27 05:00,ZBAA 270500Z AUTO 23012KT 7SM 05/M14 A3021 RMK SLP239 T00501140 IEM_DS3505
ZBAA,1996-01-27 06:00,ZBAA 270600Z AUTO 20010KT 6SM 04/M12 A3015 RMK SLP225 T00451118 57040 IEM_DS3505
ZBAA,1996-01-27 07:00,ZBAA 270700Z AUTO 22010KT 7SM 05/M15 A3015 RMK SLP218 T00501150 IEM_DS3505
ZBAA,1996-01-27 08:00,ZBAA 270800Z AUTO 22008KT 7SM 05/M15 A3012 RMK SLP208 T00501150 IEM_DS3505
ZBAA,1996-01-27 09:00,ZBAA 270900Z AUTO 20006KT 5SM 04/M18 A3012 RMK SLP211 T00451180 57014 IEM_DS3505
ZBAA,1996-01-27 10:00,ZBAA 271000Z AUTO 20006KT 7SM 02/M15 A3012 RMK SLP209 T00201150 IEM_DS3505
ZBAA,1996-01-27 11:00,ZBAA 271100Z AUTO 19006KT 7SM 02/M15 A3012 RMK SLP209 T00201150 IEM_DS3505
ZBAA,1996-01-27 12:00,ZBAA 271200Z AUTO 22004KT 7SM 02/M13 A3015 RMK SLP217 T00161130 52005 IEM_DS3505
ZBAA,1996-01-27 13:00,ZBAA 271300Z AUTO ////02KT 7SM 01/M15 A3015 RMK SLP219 T00101150 IEM_DS3505
ZBAA,1996-01-27 14:00,ZBAA 271400Z AUTO ////04KT 7SM M01/M15 A3015 RMK SLP220 T10101150 IEM_DS3505
ZBAA,1996-01-27 15:00,ZBAA 271500Z AUTO 04004KT 6SM M01/M14 A3015 RMK SLP215 T10131136 57002 IEM_DS3505
ZBAA,1996-01-27 18:00,ZBAA 271800Z AUTO 34014KT 11SM 03/M23 A3016 RMK SLP222 T00291230 52008 IEM_DS3505
ZBAA,1996-01-27 20:00,ZBAA 272000Z AUTO 00000KT 7SM 00/M17 A3015 RMK SLP220 T00001170 IEM_DS3505
ZBAA,1996-01-27 21:00,ZBAA 272100Z AUTO 36004KT 12SM 01/M22 A3018 RMK SLP222 T00111216 54000 IEM_DS3505
ZBAA,1996-01-27 22:00,ZBAA 272200Z AUTO 32006KT 7SM M02/M21 A3018 RMK SLP230 T10201210 IEM_DS3505
ZBAA,1996-01-27 23:00,ZBAA 272300Z AUTO 31012KT 7SM 00/M19 A3018 RMK SLP230 T00001190 IEM_DS3505
ZBAA,1996-01-28 00:00,ZBAA 280000Z AUTO 34004KT 9SM M00/M19 A3021 RMK SLP238 T10041187 52015 IEM_DS3505
ZBAA,1996-01-28 01:00,ZBAA 280100Z AUTO ////02KT 7SM 01/M18 A3024 RMK SLP250 T00101180 IEM_DS3505
ZBAA,1996-01-28 02:00,ZBAA 280200Z AUTO ////04KT 7SM 02/M16 A3024 RMK SLP249 T00201160 IEM_DS3505
ZBAA,1996-01-28 03:00,ZBAA 280300Z AUTO 34006KT 7SM 04/M20 A3024 RMK SLP250 T00421203 52012 IEM_DS3505
ZBAA,1996-01-28 04:00,ZBAA 280400Z AUTO 31014KT 7SM 05/M17 A3021 RMK SLP239 T00501170 IEM_DS3505
ZBAA,1996-01-28 05:00,ZBAA 280500Z AUTO 25004KT 6SM A3024 RMK IEM_DS3505
ZBAA,1996-01-28 06:00,ZBAA 280600Z AUTO 25006KT 7SM 07/M22 A3015 RMK SLP220 T00671217 57028 IEM_DS3505
ZBAA,1996-01-28 07:00,ZBAA 280700Z AUTO 28014KT 4SM 07/M17 A3012 RMK SLP208 T00701170 IEM_DS3505
ZBAA,1996-01-28 08:00,ZBAA 280800Z AUTO 25010KT 4SM 06/M17 A3012 RMK SLP208 T00601170 IEM_DS3505
ZBAA,1996-01-28 09:00,ZBAA 280900Z AUTO 20010KT 6SM 05/M20 A3015 RMK SLP219 T00531204 57002 IEM_DS3505
ZBAA,1996-01-28 10:00,ZBAA 281000Z AUTO 25008KT 7SM 04/M17 A3015 RMK SLP219 T00401170 IEM_DS3505
ZBAA,1996-01-28 11:00,ZBAA 281100Z AUTO ////04KT 7SM 02/M17 A3015 RMK SLP219 T00201170 IEM_DS3505
ZBAA,1996-01-28 12:00,ZBAA 281200Z AUTO 20006KT 4SM 02/M16 A3015 RMK SLP227 T00231157 52008 IEM_DS3505
ZBAA,1996-01-28 13:00,ZBAA 281300Z AUTO 24008KT 7SM 01/M15 A3018 RMK SLP230 T00101150 IEM_DS3505
ZBAA,1996-01-28 14:00,ZBAA 281400Z AUTO ////02KT 7SM 00/M15 A3018 RMK SLP230 T00001150 IEM_DS3505
ZBAA,1996-01-28 15:00,ZBAA 281500Z AUTO 32002KT 4SM M01/M13 A3021 RMK SLP237 T10111126 52010 IEM_DS3505
ZBAA,1996-01-28 16:00,ZBAA 281600Z AUTO 30006KT 7SM 01/M17 A3021 RMK SLP240 T00101170 IEM_DS3505
ZBAA,1996-01-28 17:00,ZBAA 281700Z AUTO ////04KT 7SM 00/M18 A3021 RMK SLP240 T00001180 IEM_DS3505
ZBAA,1996-01-28 18:00,ZBAA 281800Z AUTO 34006KT 12SM 02/M22 A3024 RMK SLP243 T00201216 52006 IEM_DS3505
ZBAA,1996-01-28 20:00,ZBAA 282000Z AUTO 00000KT 7SM M02/M20 A3024 RMK SLP250 T10201200 IEM_DS3505
ZBAA,1996-01-28 21:00,ZBAA 282100Z AUTO 02006KT 12SM 01/M21 A3025 RMK SLP255 T00081213 52012 IEM_DS3505
ZBAA,1996-01-28 22:00,ZBAA 282200Z AUTO 32006KT 7SM M03/M19 A3027 RMK SLP261 T10301190 IEM_DS3505
ZBAA,1996-01-28 23:00,ZBAA 282300Z AUTO 34006KT 7SM M02/M19 A3030 RMK SLP271 T10201190 IEM_DS3505
ZBAA,1996-01-29 00:00,ZBAA 290000Z AUTO 36012KT 19SM M00/M20 A3033 RMK SLP272 T10051196 52016 IEM_DS3505
ZBAA,1996-01-29 01:00,ZBAA 290100Z AUTO 33006KT 7SM M02/M18 A3036 RMK SLP291 T10201180 IEM_DS3505
ZBAA,1996-01-29 02:00,ZBAA 290200Z AUTO 33006KT 7SM 01/M19 A3036 RMK SLP290 T00101190 IEM_DS3505
ZBAA,1996-01-29 03:00,ZBAA 290300Z AUTO ////04KT 7SM 02/M18 A3036 RMK SLP290 T00201180 IEM_DS3505
ZBAA,1996-01-29 04:00,ZBAA 290400Z AUTO 31006KT 7SM 03/M18 A3033 RMK SLP279 T00301180 IEM_DS3505
ZBAA,1996-01-29 05:00,ZBAA 290500Z AUTO 30012KT 7SM 04/M19 A3030 RMK SLP269 T00401190 IEM_DS3505
ZBAA,1996-01-29 06:00,ZBAA 290600Z AUTO 32019KT 6SM 04/ A3027 RMK SLP259 57025 IEM_DS3505
ZBAA,1996-01-29 07:00,ZBAA 290700Z AUTO 30019KT 7SM 05/M19 A3027 RMK SLP259 T00501190 IEM_DS3505
ZBAA,1996-01-29 08:00,ZBAA 290800Z AUTO 30014KT 7SM 04/M20 A3027 RMK SLP259 T00401200 IEM_DS3505
ZBAA,1996-01-29 09:00,ZBAA 290900Z AUTO 34012KT 9SM 03/M27 A3030 RMK SLP270 T00311271 52010 IEM_DS3505
ZBAA,1996-01-29 10:00,ZBAA 291000Z AUTO 33014KT 7SM 02/M22 A3033 RMK SLP280 T00201220 IEM_DS3505
ZBAA,1996-01-29 11:00,ZBAA 291100Z AUTO 34016KT 7SM 01/M23 A3036 RMK SLP290 T00101230 IEM_DS3505
ZBAA,1996-01-29 12:00,ZBAA 291200Z AUTO 32016KT 19SM 00/ A3039 RMK SLP304 52034 IEM_DS3505
ZBAA,1996-01-29 13:00,ZBAA 291300Z AUTO 34017KT 7SM M02/M25 A3042 RMK SLP312 T10201250 IEM_DS3505
ZBAA,1996-01-29 14:00,ZBAA 291400Z AUTO 34017KT 7SM M03/M26 A3045 RMK SLP322 T10301260 IEM_DS3505
ZBAA,1996-01-29 15:00,ZBAA 291500Z AUTO 34010KT 19SM M02/M33 A3047 RMK SLP327 T10251330 52023 IEM_DS3505
ZBAA,1996-01-29 16:00,ZBAA 291600Z AUTO 33016KT 7SM M05/M27 A3047 RMK SLP330 T10501270 IEM_DS3505
ZBAA,1996-01-29 18:00,ZBAA 291800Z AUTO 34008KT 19SM M05/M31 A3051 RMK SLP342 T10531311 52014 IEM_DS3505
ZBAA,1996-01-29 20:00,ZBAA 292000Z AUTO ////04KT 7SM M08/M26 A3053 RMK SLP351 T10801260 IEM_DS3505
ZBAA,1996-01-29 21:00,ZBAA 292100Z AUTO 36010KT 19SM M06/M29 A3053 RMK SLP347 T10651286 52005 IEM_DS3505
ZBAA,1996-01-29 22:00,ZBAA 292200Z AUTO ////04KT 7SM M09/M26 A3056 RMK SLP361 T10901260 IEM_DS3505
ZBAA,1996-01-29 23:00,ZBAA 292300Z AUTO ////04KT 7SM M09/M25 A3056 RMK SLP361 T10901250 IEM_DS3505
ZBAA,1996-01-30 00:00,ZBAA 300000Z AUTO 36008KT 12SM M07/M31 A3059 RMK SLP366 T10691306 52018 IEM_DS3505
ZBAA,1996-01-30 01:00,ZBAA 300100Z AUTO 00000KT 7SM M07/M26 A3059 RMK SLP371 T10701260 IEM_DS3505
ZBAA,1996-01-30 02:00,ZBAA 300200Z AUTO 33010KT 7SM M05/M25 A3059 RMK SLP370 T10501250 IEM_DS3505
ZBAA,1996-01-30 03:00,ZBAA 300300Z AUTO 02008KT 12SM M02/M29 A3056 RMK SLP362 T10221287 57003 IEM_DS3505
ZBAA,1996-01-30 04:00,ZBAA 300400Z AUTO 32014KT 7SM M02/M24 A3053 RMK SLP349 T10201240 IEM_DS3505
ZBAA,1996-01-30 05:00,ZBAA 300500Z AUTO 32010KT 7SM M01/M23 A3050 RMK SLP339 T10101230 IEM_DS3505
ZBAA,1996-01-30 06:00,ZBAA 300600Z AUTO 29012KT 12SM 01/ A3047 RMK SLP329 57033 IEM_DS3505
ZBAA,1996-01-30 07:00,ZBAA 300700Z AUTO 29016KT 7SM 00/M23 A3045 RMK SLP321 T00001230 IEM_DS3505
ZBAA,1996-01-30 08:00,ZBAA 300800Z AUTO 29014KT 6SM 00/M23 A3042 RMK SLP311 T00001230 IEM_DS3505
ZBAA,1996-01-30 09:00,ZBAA 300900Z AUTO 20008KT 12SM 00/ A3042 RMK SLP317 57012 IEM_DS3505
ZBAA,1996-01-30 10:00,ZBAA 301000Z AUTO 30006KT 7SM M01/M25 A3045 RMK SLP322 T10101250 IEM_DS3505
ZBAA,1996-01-30 11:00,ZBAA 301100Z AUTO 25006KT 7SM M03/M24 A3045 RMK SLP322 T10301240 IEM_DS3505
ZBAA,1996-01-30 12:00,ZBAA 301200Z AUTO 32006KT 12SM M03/M21 A3047 RMK SLP335 T10281206 52017 IEM_DS3505
ZBAA,1996-01-30 13:00,ZBAA 301300Z AUTO 33008KT 7SM M03/M24 A3050 RMK SLP339 T10301240 IEM_DS3505
ZBAA,1996-01-30 14:00,ZBAA 301400Z AUTO 32010KT 7SM M03/M25 A3050 RMK SLP339 T10301250 IEM_DS3505
ZBAA,1996-01-30 15:00,ZBAA 301500Z AUTO 29014KT 19SM M03/M24 A3053 RMK SLP352 T10331236 52018 IEM_DS3505
ZBAA,1996-01-30 16:00,ZBAA 301600Z AUTO 34016KT 7SM M05/M26 A3053 RMK SLP350 T10501260 IEM_DS3505
ZBAA,1996-01-30 18:00,ZBAA 301800Z AUTO 32010KT 19SM M06/M28 A3057 RMK SLP363 T10551279 52011 IEM_DS3505
ZBAA,1996-01-30 20:00,ZBAA 302000Z AUTO ////04KT 7SM M08/M28 A3056 RMK SLP361 T10801280 IEM_DS3505
ZBAA,1996-01-30 21:00,ZBAA 302100Z AUTO 34004KT 19SM M06/M29 A3053 RMK SLP354 T10651286 57009 IEM_DS3505
ZBAA,1996-01-30 22:00,ZBAA 302200Z AUTO 29006KT 7SM M08/M27 A3053 RMK SLP351 T10801270 IEM_DS3505
ZBAA,1996-01-30 23:00,ZBAA 302300Z AUTO ////04KT 7SM M08/M27 A3053 RMK SLP351 T10801270 IEM_DS3505
ZBAA,1996-01-31 00:00,ZBAA 310000Z AUTO 29006KT 19SM M05/M26 A3053 RMK SLP356 T10541257 52001 IEM_DS3505
ZBAA,1996-01-31 01:00,ZBAA 310100Z AUTO 30008KT 7SM M05/M26 A3056 RMK SLP360 T10501260 IEM_DS3505
ZBAA,1996-01-31 02:00,ZBAA 310200Z AUTO 29016KT 7SM M03/M25 A3056 RMK SLP359 T10301250 IEM_DS3505
ZBAA,1996-01-31 03:00,ZBAA 310300Z AUTO 34014KT 19SM M02/M32 A3053 RMK SLP359 T10241325 52004 IEM_DS3505
ZBAA,1996-01-31 04:00,ZBAA 310400Z AUTO 30016G25KT 7SM M02/M25 A3053 RMK SLP349 T10201250 IEM_DS3505
ZBAA,1996-01-31 05:00,ZBAA 310500Z AUTO 30016KT 7SM M01/M24 A3047 RMK SLP329 T10101240 IEM_DS3505
ZBAA,1996-01-31 06:00,ZBAA 310600Z AUTO 29014G25KT 19SM M01/M32 A3047 RMK SLP332 T10061319 57027 IEM_DS3505
ZBAA,1996-01-31 07:00,ZBAA 310700Z AUTO 30016KT 7SM 00/M23 A3045 RMK SLP321 T00001230 IEM_DS3505
ZBAA,1996-01-31 08:00,ZBAA 310800Z AUTO 33019KT 7SM 00/M23 A3045 RMK SLP321 T00001230 IEM_DS3505
ZBAA,1996-01-31 09:00,ZBAA 310900Z AUTO 32012KT 19SM M01/M23 A3045 RMK SLP327 T10081233 57005 IEM_DS3505
ZBAA,1996-01-31 10:00,ZBAA 311000Z AUTO 33012KT 7SM M02/M24 A3045 RMK SLP322 T10201240 IEM_DS3505
ZBAA,1996-01-31 11:00,ZBAA 311100Z AUTO 36006KT 7SM M03/M24 A3047 RMK SLP329 T10301240 IEM_DS3505
ZBAA,1996-01-31 12:00,ZBAA 311200Z AUTO 32014KT 19SM M02/M32 A3050 RMK SLP340 T10171325 52013 IEM_DS3505
ZBAA,1996-01-31 13:00,ZBAA 311300Z AUTO 33010KT 7SM M04/M25 A3050 RMK SLP340 T10401250 IEM_DS3505
ZBAA,1996-01-31 14:00,ZBAA 311400Z AUTO 36012KT 7SM M03/M25 A3050 RMK SLP339 T10301250 IEM_DS3505
ZBAA,1996-01-31 15:00,ZBAA 311500Z AUTO 32010KT 19SM M03/M30 A3053 RMK SLP348 T10281300 52008 IEM_DS3505
ZBAA,1996-01-31 16:00,ZBAA 311600Z AUTO 35014KT 7SM M04/M25 A3053 RMK SLP350 T10401250 IEM_DS3505
ZBAA,1996-01-31 18:00,ZBAA 311800Z AUTO 34004KT 19SM M04/M27 A3054 RMK SLP353 T10421274 52005 IEM_DS3505
ZBAA,1996-01-31 20:00,ZBAA 312000Z AUTO 00000KT 7SM M07/M25 A3053 RMK SLP350 T10701250 IEM_DS3505
ZBAA,1996-01-31 21:00,ZBAA 312100Z AUTO 32006KT 19SM M05/M28 A3047 RMK SLP348 T10511279 57005 IEM_DS3505
ZBAA,1996-01-31 22:00,ZBAA 312200Z AUTO 29008KT 7SM M06/M25 A3053 RMK SLP350 T10601250 IEM_DS3505
ZBAA,1996-01-31 23:00,ZBAA 312300Z AUTO 31010KT 7SM M06/M25 A3053 RMK SLP350 T10601250 IEM_DS3505
ZBAA,1996-02-01 00:00,ZBAA 010000Z AUTO 34004KT 19SM M06/M28 A3056 RMK SLP358 T10551279 52009 IEM_DS3505
ZBAA,1996-02-01 01:00,ZBAA 010100Z AUTO 32012KT 7SM M05/M24 A3059 RMK SLP370 T10501240 IEM_DS3505
ZBAA,1996-02-01 02:00,ZBAA 010200Z AUTO 31008KT 7SM M03/M23 A3059 RMK SLP370 T10301230 IEM_DS3505
ZBAA,1996-02-01 03:00,ZBAA 010300Z AUTO 34008KT 19SM M01/M30 A3059 RMK SLP367 T10071303 52010 IEM_DS3505
ZBAA,1996-02-01 04:00,ZBAA 010400Z AUTO 30012KT 7SM M01/M22 A3056 RMK SLP359 T10101220 IEM_DS3505
ZBAA,1996-02-01 05:00,ZBAA 010500Z AUTO 31014KT 7SM 01/M21 A3053 RMK SLP348 T00101210 IEM_DS3505
ZBAA,1996-02-01 06:00,ZBAA 010600Z AUTO 34008KT 19SM 02/ A3050 RMK SLP348 57019 IEM_DS3505
ZBAA,1996-02-01 07:00,ZBAA 010700Z AUTO 30014KT 7SM 02/M21 A3050 RMK SLP338 T00201210 IEM_DS3505
ZBAA,1996-02-01 08:00,ZBAA 010800Z AUTO 30012KT 7SM 02/M21 A3050 RMK SLP338 T00201210 IEM_DS3505
ZBAA,1996-02-01 09:00,ZBAA 010900Z AUTO 32012KT 19SM 02/M28 A3050 RMK SLP349 T00171285 52001 IEM_DS3505
ZBAA,1996-02-01 10:00,ZBAA 011000Z AUTO ////04KT 7SM 00/M23 A3053 RMK SLP349 T00001230 IEM_DS3505
ZBAA,1996-02-01 11:00,ZBAA 011100Z AUTO 03006KT 7SM M01/M23 A3059 RMK SLP369 T10101230 IEM_DS3505
ZBAA,1996-02-01 12:00,ZBAA 011200Z AUTO 34008KT 19SM M01/M28 A3059 RMK SLP372 T10071280 52022 IEM_DS3505
ZBAA,1996-02-01 13:00,ZBAA 011300Z AUTO 01008KT 7SM M03/M22 A3062 RMK SLP380 T10301220 IEM_DS3505
ZBAA,1996-02-01 14:00,ZBAA 011400Z AUTO 02006KT 7SM M04/M22 A3065 RMK SLP390 T10401220 IEM_DS3505
ZBAA,1996-02-01 15:00,ZBAA 011500Z AUTO 34006KT 19SM M02/M29 A3065 RMK SLP389 T10221288 52018 IEM_DS3505
ZBAA,1996-02-01 18:00,ZBAA 011800Z AUTO 04006KT 19SM M04/M25 A3066 RMK SLP392 T10431247 52003 IEM_DS3505
ZBAA,1996-02-01 20:00,ZBAA 012000Z AUTO 03006KT 7SM M08/M23 A3065 RMK SLP391 T10801230 IEM_DS3505
ZBAA,1996-02-01 21:00,ZBAA 012100Z AUTO 07004KT 19SM M06/M25 A3065 RMK SLP389 T10571254 57003 IEM_DS3505
ZBAA,1996-02-01 22:00,ZBAA 012200Z AUTO ////04KT 7SM M09/M23 A3065 RMK SLP391 T10901230 IEM_DS3505
ZBAA,1996-02-01 23:00,ZBAA 012300Z AUTO ////04KT 7SM M08/M22 A3065 RMK SLP391 T10801220 IEM_DS3505
ZBAA,1996-02-02 00:00,ZBAA 020000Z AUTO 29002KT 19SM M09/M19 A3065 RMK SLP395 T10871194 52005 IEM_DS3505
ZBAA,1996-02-02 01:00,ZBAA 020100Z AUTO ////04KT 7SM M06/M21 A3065 RMK SLP390 T10601210 IEM_DS3505
ZBAA,1996-02-02 02:00,ZBAA 020200Z AUTO ////04KT 7SM M03/M20 A3065 RMK SLP390 T10301200 IEM_DS3505
ZBAA,1996-02-02 03:00,ZBAA 020300Z AUTO 20006KT 5SM M02/M25 A3062 RMK SLP385 T10221251 57009 IEM_DS3505
ZBAA,1996-02-02 04:00,ZBAA 020400Z AUTO 26006KT 7SM M01/M19 A3059 RMK SLP369 T10101190 IEM_DS3505
ZBAA,1996-02-02 05:00,ZBAA 020500Z AUTO ////04KT 7SM 00/M19 A3053 RMK SLP349 T00001190 IEM_DS3505
ZBAA,1996-02-02 06:00,ZBAA 020600Z AUTO 20006G16KT 7SM 02/M24 A3050 RMK SLP341 T00151241 57044 IEM_DS3505
ZBAA,1996-02-02 07:00,ZBAA 020700Z AUTO 21008KT 7SM 02/M19 A3047 RMK SLP328 T00201190 IEM_DS3505
ZBAA,1996-02-02 08:00,ZBAA 020800Z AUTO 22008KT 7SM 02/M20 A3045 RMK SLP321 T00201200 IEM_DS3505
ZBAA,1996-02-02 09:00,ZBAA 020900Z AUTO 20008KT 9SM 02/M24 A3045 RMK SLP320 T00151240 57021 IEM_DS3505
ZBAA,1996-02-02 10:00,ZBAA 021000Z AUTO ////04KT 7SM M01/M21 A3042 RMK SLP312 T10101210 IEM_DS3505
ZBAA,1996-02-02 11:00,ZBAA 021100Z AUTO ////02KT 7SM M01/M21 A3042 RMK SLP312 T10101210 IEM_DS3505
ZBAA,1996-02-02 12:00,ZBAA 021200Z AUTO 20008KT 12SM M01/M25 A3042 RMK SLP314 T10071247 57007 IEM_DS3505
ZBAA,1996-02-02 13:00,ZBAA 021300Z AUTO 00000KT 7SM M04/M19 A3042 RMK SLP312 T10401190 IEM_DS3505
ZBAA,1996-02-02 14:00,ZBAA 021400Z AUTO 00000KT 7SM M05/M18 A3039 RMK SLP303 T10501180 IEM_DS3505
ZBAA,1996-02-02 15:00,ZBAA 021500Z AUTO 00000KT 9SM M04/M21 A3039 RMK SLP301 T10431214 57012 IEM_DS3505
ZBAA,1996-02-02 18:00,ZBAA 021800Z AUTO 02004KT 4SM M05/M18 A3034 RMK SLP286 T10491183 57015 IEM_DS3505
ZBAA,1996-02-02 20:00,ZBAA 022000Z AUTO 35006KT 4SM M08/M20 A3030 RMK SLP272 T10801200 IEM_DS3505
ZBAA,1996-02-02 21:00,ZBAA 022100Z AUTO 27004KT 3SM M07/M17 A3027 RMK SLP267 T10721172 57019 IEM_DS3505
ZBAA,1996-02-02 22:00,ZBAA 022200Z AUTO ////04KT 5SM M09/M20 A3027 RMK SLP262 T10901200 IEM_DS3505
ZBAA,1996-02-02 23:00,ZBAA 022300Z AUTO 34006KT 5SM M08/M19 A3027 RMK SLP262 T10801190 IEM_DS3505
ZBAA,1996-02-03 00:00,ZBAA 030000Z AUTO 34002KT 2 1/2SM M08/M17 A3027 RMK SLP258 T10771173 57009 IEM_DS3505
ZBAA,1996-02-03 01:00,ZBAA 030100Z AUTO ////04KT 7SM M07/M19 A3024 RMK SLP252 T10701190 IEM_DS3505
ZBAA,1996-02-03 02:00,ZBAA 030200Z AUTO ////04KT 7SM M03/M17 A3024 RMK SLP251 T10301170 IEM_DS3505
ZBAA,1996-02-03 03:00,ZBAA 030300Z AUTO 22002KT 4SM 01/M19 A3021 RMK SLP244 T00121190 57013 IEM_DS3505
ZBAA,1996-02-03 04:00,ZBAA 030400Z AUTO ////02KT 7SM 02/M16 A3018 RMK SLP229 T00201160 IEM_DS3505
ZBAA,1996-02-03 05:00,ZBAA 030500Z AUTO ////04KT 7SM 05/M16 A3012 RMK SLP208 T00501160 IEM_DS3505
ZBAA,1996-02-03 06:00,ZBAA 030600Z AUTO 20006KT 6SM 06/M20 A3009 RMK SLP206 T00631197 57037 IEM_DS3505
ZBAA,1996-02-03 07:00,ZBAA 030700Z AUTO 20010KT 6SM 06/M18 A3006 RMK SLP187 T00601180 IEM_DS3505
ZBAA,1996-02-03 08:00,ZBAA 030800Z AUTO 18010KT 6SM 06/M17 A3006 RMK SLP187 T00601170 IEM_DS3505
ZBAA,1996-02-03 09:00,ZBAA 030900Z AUTO 22004KT 6SM 05/M21 A3003 RMK SLP189 T00511211 57018 IEM_DS3505
ZBAA,1996-02-03 10:00,ZBAA 031000Z AUTO 18006KT 7SM 03/M19 A3006 RMK SLP188 T00301190 IEM_DS3505
ZBAA,1996-02-03 11:00,ZBAA 031100Z AUTO 20006KT 7SM 02/M19 A3006 RMK SLP188 T00201190 IEM_DS3505
ZBAA,1996-02-03 12:00,ZBAA 031200Z AUTO 20006KT 6SM 02/M16 A3006 RMK SLP192 T00201164 52003 IEM_DS3505
ZBAA,1996-02-03 13:00,ZBAA 031300Z AUTO 24006KT 7SM 01/M18 A3006 RMK SLP188 T00101180 IEM_DS3505
ZBAA,1996-02-03 14:00,ZBAA 031400Z AUTO ////04KT 7SM 00/M18 A3006 RMK SLP189 T00001180 IEM_DS3505
ZBAA,1996-02-03 15:00,ZBAA 031500Z AUTO 29008KT 6SM M02/M15 A3006 RMK SLP191 T10171151 57001 IEM_DS3505
ZBAA,1996-02-03 16:00,ZBAA 031600Z AUTO 33006KT 7SM M02/M18 A3006 RMK SLP189 T10201180 IEM_DS3505
ZBAA,1996-02-03 18:00,ZBAA 031800Z AUTO 36014KT 12SM 01/M26 A3011 RMK SLP206 T00061262 52016 IEM_DS3505
ZBAA,1996-02-03 20:00,ZBAA 032000Z AUTO 32016KT 7SM M01/M22 A3012 RMK SLP210 T10101220 IEM_DS3505
ZBAA,1996-02-03 21:00,ZBAA 032100Z AUTO 34012KT 12SM M02/M23 A3015 RMK SLP220 T10181230 52014 IEM_DS3505
ZBAA,1996-02-03 22:00,ZBAA 032200Z AUTO 31016KT 7SM M03/M25 A3018 RMK SLP231 T10301250 IEM_DS3505
ZBAA,1996-02-03 23:00,ZBAA 032300Z AUTO 32017KT 7SM M04/M24 A3021 RMK SLP241 T10401240 IEM_DS3505
ZBAA,1996-02-04 00:00,ZBAA 040000Z AUTO 34012KT 19SM M04/M22 A3024 RMK SLP251 T10401219 52030 IEM_DS3505
ZBAA,1996-02-04 01:00,ZBAA 040100Z AUTO 01010KT 7SM M03/M23 A3027 RMK SLP261 T10301230 IEM_DS3505
ZBAA,1996-02-04 02:00,ZBAA 040200Z AUTO 03010KT 7SM M02/M21 A3027 RMK SLP261 T10201210 IEM_DS3505
ZBAA,1996-02-04 03:00,ZBAA 040300Z AUTO 34012KT 19SM M02/M24 A3030 RMK SLP264 T10171240 52013 IEM_DS3505
ZBAA,1996-02-04 04:00,ZBAA 040400Z AUTO 33010KT 7SM M01/M22 A3027 RMK SLP260 T10101220 IEM_DS3505
ZBAA,1996-02-04 05:00,ZBAA 040500Z AUTO 04008KT 7SM 00/M21 A3027 RMK SLP260 T00001210 IEM_DS3505
ZBAA,1996-02-04 06:00,ZBAA 040600Z AUTO 36010G27KT 16SM 01/M26 A3021 RMK SLP248 T00091256 57016 IEM_DS3505
ZBAA,1996-02-04 07:00,ZBAA 040700Z AUTO 30012KT 7SM 02/M21 A3021 RMK SLP239 T00201210 IEM_DS3505
ZBAA,1996-02-04 08:00,ZBAA 040800Z AUTO 07006KT 7SM 00/M22 A3021 RMK SLP240 T00001220 IEM_DS3505
ZBAA,1996-02-04 09:00,ZBAA 040900Z AUTO 34010KT 19SM 02/M24 A3021 RMK SLP242 T00151237 57006 IEM_DS3505
ZBAA,1996-02-04 10:00,ZBAA 041000Z AUTO ////04KT 7SM M02/M22 A3024 RMK SLP250 T10201220 IEM_DS3505
ZBAA,1996-02-04 11:00,ZBAA 041100Z AUTO ////02KT 7SM M03/M23 A3027 RMK SLP261 T10301230 IEM_DS3505
ZBAA,1996-02-04 12:00,ZBAA 041200Z AUTO 07002KT 19SM M02/M21 A3027 RMK SLP265 T10201213 52022 IEM_DS3505
ZBAA,1996-02-04 13:00,ZBAA 041300Z AUTO ////02KT 7SM M04/M23 A3030 RMK SLP271 T10401230 IEM_DS3505
ZBAA,1996-02-04 14:00,ZBAA 041400Z AUTO ////04KT 7SM M06/M23 A3033 RMK SLP282 T10601230 IEM_DS3505
ZBAA,1996-02-04 15:00,ZBAA 041500Z AUTO 00000KT 16SM M05/M20 A3030 RMK SLP285 T10481199 52020 IEM_DS3505
ZBAA,1996-02-04 16:00,ZBAA 041600Z AUTO ////04KT 7SM M05/M22 A3036 RMK SLP292 T10501220 IEM_DS3505
ZBAA,1996-02-04 18:00,ZBAA 041800Z AUTO 14002KT 19SM M06/M20 A3038 RMK SLP297 T10631197 52012 IEM_DS3505
ZBAA,1996-02-04 21:00,ZBAA 042100Z AUTO 34004KT 12SM M06/M22 A3041 RMK SLP309 T10641221 52012 IEM_DS3505
ZBAA,1996-02-04 22:00,ZBAA 042200Z AUTO 34006KT 7SM M09/M21 A3045 RMK SLP324 T10901210 IEM_DS3505
ZBAA,1996-02-04 23:00,ZBAA 042300Z AUTO ////04KT 7SM M08/M22 A3045 RMK SLP324 T10801220 IEM_DS3505
ZBAA,1996-02-05 00:00,ZBAA 050000Z AUTO 02004KT 12SM M06/M23 A3050 RMK SLP333 T10591232 52024 IEM_DS3505
ZBAA,1996-02-05 01:00,ZBAA 050100Z AUTO 02008KT 7SM M06/M21 A3050 RMK SLP340 T10601210 IEM_DS3505
ZBAA,1996-02-05 02:00,ZBAA 050200Z AUTO 03008KT 7SM M04/M21 A3053 RMK SLP350 T10401210 IEM_DS3505
ZBAA,1996-02-05 03:00,ZBAA 050300Z AUTO 02006KT 19SM M02/M26 A3053 RMK SLP345 T10201257 52012 IEM_DS3505
ZBAA,1996-02-05 04:00,ZBAA 050400Z AUTO 04008KT 7SM M02/M22 A3050 RMK SLP339 T10201220 IEM_DS3505
ZBAA,1996-02-05 05:00,ZBAA 050500Z AUTO 05006KT 7SM M01/M21 A3047 RMK SLP329 T10101210 IEM_DS3505
ZBAA,1996-02-05 06:00,ZBAA 050600Z AUTO 07006KT 19SM 01/ A3045 RMK SLP323 57022 IEM_DS3505
ZBAA,1996-02-05 07:00,ZBAA 050700Z AUTO 05008KT 7SM 01/M21 A3045 RMK SLP321 T00101210 IEM_DS3505
ZBAA,1996-02-05 08:00,ZBAA 050800Z AUTO 08006KT 7SM 00/M21 A3045 RMK SLP321 T00001210 IEM_DS3505
ZBAA,1996-02-05 09:00,ZBAA 050900Z AUTO 11006KT 19SM 01/M23 A3045 RMK SLP318 T00101233 57005 IEM_DS3505
ZBAA,1996-02-05 10:00,ZBAA 051000Z AUTO ////02KT 7SM M02/M25 A3047 RMK SLP329 T10201250 IEM_DS3505
ZBAA,1996-02-05 11:00,ZBAA 051100Z AUTO 00000KT 7SM M03/M24 A3050 RMK SLP339 T10301240 IEM_DS3505
ZBAA,1996-02-05 12:00,ZBAA 051200Z AUTO 09004KT 11SM M01/M26 A3050 RMK SLP338 T10141261 52020 IEM_DS3505
ZBAA,1996-02-05 13:00,ZBAA 051300Z AUTO 00000KT 7SM M03/M24 A3053 RMK SLP349 T10301240 IEM_DS3505
ZBAA,1996-02-05 14:00,ZBAA 051400Z AUTO ////04KT 7SM M04/M24 A3053 RMK SLP350 T10401240 IEM_DS3505
ZBAA,1996-02-05 15:00,ZBAA 051500Z AUTO 00000KT 8SM M05/M18 A3053 RMK SLP351 T10521182 52012 IEM_DS3505
ZBAA,1996-02-05 18:00,ZBAA 051800Z AUTO 22002KT 6SM M07/M17 A3055 RMK SLP356 T10691167 52006 IEM_DS3505
ZBAA,1996-02-05 20:00,ZBAA 052000Z AUTO ////02KT 7SM M09/M20 A3056 RMK SLP361 T10901200 IEM_DS3505
ZBAA,1996-02-05 21:00,ZBAA 052100Z AUTO 32002KT 6SM M08/M20 A3053 RMK SLP354 T10761199 57002 IEM_DS3505
ZBAA,1996-02-05 22:00,ZBAA 052200Z AUTO 00000KT 7SM M10/M19 A3053 RMK SLP351 T11001190 IEM_DS3505
ZBAA,1996-02-06 00:00,ZBAA 060000Z AUTO 00000KT 4SM M08/M18 A3056 RMK SLP357 T10821184 52002 IEM_DS3505
ZBAA,1996-02-06 01:00,ZBAA 060100Z AUTO ////04KT 6SM M08/M20 A3056 RMK SLP361 T10801200 IEM_DS3505
ZBAA,1996-02-06 02:00,ZBAA 060200Z AUTO 11006KT 6SM M06/M18 A3056 RMK SLP360 T10601180 IEM_DS3505
ZBAA,1996-02-06 03:00,ZBAA 060300Z AUTO 36002KT 4SM M03/M19 A3056 RMK SLP360 T10341193 52003 IEM_DS3505
ZBAA,1996-02-06 04:00,ZBAA 060400Z AUTO 18010KT 7SM 00/M17 A3053 RMK SLP349 T00001170 IEM_DS3505
ZBAA,1996-02-06 05:00,ZBAA 060500Z AUTO 17010KT 6SM 01/M18 A3050 RMK SLP338 T00101180 IEM_DS3505
ZBAA,1996-02-06 06:00,ZBAA 060600Z AUTO 16010KT 5SM 02/M25 A3045 RMK SLP321 T00161251 57038 IEM_DS3505
ZBAA,1996-02-06 07:00,ZBAA 060700Z AUTO 16010KT 6SM 02/M18 A3042 RMK SLP311 T00201180 IEM_DS3505
ZBAA,1996-02-06 08:00,ZBAA 060800Z AUTO 16008KT 6SM 02/M18 A3042 RMK SLP311 T00201180 IEM_DS3505
ZBAA,1996-02-06 09:00,ZBAA 060900Z AUTO 16010KT 6SM 01/ A3042 RMK SLP306 57015 IEM_DS3505
ZBAA,1996-02-06 10:00,ZBAA 061000Z AUTO ////04KT 6SM M01/M14 A3042 RMK SLP312 T10101140 IEM_DS3505
ZBAA,1996-02-06 11:00,ZBAA 061100Z AUTO ////04KT 6SM M01/M15 A3042 RMK SLP312 T10101150 IEM_DS3505
ZBAA,1996-02-06 12:00,ZBAA 061200Z AUTO 14006KT 7SM M00/M18 A3042 RMK SLP310 T10051182 52004 IEM_DS3505
ZBAA,1996-02-06 13:00,ZBAA 061300Z AUTO ////04KT 6SM M03/M12 A3045 RMK SLP322 T10301120 IEM_DS3505
ZBAA,1996-02-06 14:00,ZBAA 061400Z AUTO ////04KT 6SM M03/M11 A3045 RMK SLP322 T10301110 IEM_DS3505
ZBAA,1996-02-06 15:00,ZBAA 061500Z AUTO 09002KT 6SM M01/M13 A3042 RMK SLP310 T10131131 54000 IEM_DS3505
ZBAA,1996-02-06 18:00,ZBAA 061800Z AUTO 36002KT 6SM M03/M12 A3040 RMK SLP305 T10291117 57004 IEM_DS3505
ZBAA,1996-02-06 20:00,ZBAA 062000Z AUTO ////04KT 6SM M05/M11 A3036 RMK SLP292 T10501110 IEM_DS3505
ZBAA,1996-02-06 21:00,ZBAA 062100Z AUTO 00000KT 7SM M06/M12 A3036 RMK SLP293 T10551123 57013 IEM_DS3505
ZBAA,1996-02-06 22:00,ZBAA 062200Z AUTO ////02KT 6SM M06/M12 A3036 RMK SLP292 T10601120 IEM_DS3505
ZBAA,1996-02-06 23:00,ZBAA 062300Z AUTO 01006KT 7SM M06/M12 A3036 RMK SLP292 T10601120 IEM_DS3505
ZBAA,1996-02-07 00:00,ZBAA 070000Z AUTO 32002KT 6SM M05/M13 A3039 RMK SLP300 T10511128 52007 IEM_DS3505
ZBAA,1996-02-07 01:00,ZBAA 070100Z AUTO ////04KT 7SM M02/M16 A3039 RMK SLP302 T10201160 IEM_DS3505
ZBAA,1996-02-07 03:00,ZBAA 070300Z AUTO 34012KT 9SM 01/M23 A3039 RMK SLP304 T00121228 52005 IEM_DS3505
ZBAA,1996-02-07 04:00,ZBAA 070400Z AUTO 32014KT 7SM 02/M18 A3036 RMK SLP290 T00201180 IEM_DS3505
ZBAA,1996-02-07 05:00,ZBAA 070500Z AUTO 31012KT 7SM 02/M18 A3036 RMK SLP290 T00201180 IEM_DS3505
ZBAA,1996-02-07 06:00,ZBAA 070600Z AUTO 34016KT 16SM 02/ A3033 RMK SLP283 57021 IEM_DS3505
ZBAA,1996-02-07 07:00,ZBAA 070700Z AUTO 28014G25KT 7SM 03/M19 A3033 RMK SLP279 T00301190 IEM_DS3505
ZBAA,1996-02-07 08:00,ZBAA 070800Z AUTO 29016KT 7SM 03/M19 A3033 RMK SLP279 T00301190 IEM_DS3505
ZBAA,1996-02-07 09:00,ZBAA 070900Z AUTO 34012KT 19SM 02/ A3036 RMK SLP288 52004 IEM_DS3505
ZBAA,1996-02-07 10:00,ZBAA 071000Z AUTO 36008KT 7SM 01/M19 A3036 RMK SLP290 T00101190 IEM_DS3505
ZBAA,1996-02-07 11:00,ZBAA 071100Z AUTO 01008KT 7SM 00/M20 A3039 RMK SLP301 T00001200 IEM_DS3505
ZBAA,1996-02-07 12:00,ZBAA 071200Z AUTO 34006KT 19SM M01/M22 A3042 RMK SLP314 T10081219 52026 IEM_DS3505
ZBAA,1996-02-07 13:00,ZBAA 071300Z AUTO 36010KT 7SM M02/M21 A3045 RMK SLP322 T10201210 IEM_DS3505
ZBAA,1996-02-07 14:00,ZBAA 071400Z AUTO 34014KT 7SM M03/M21 A3047 RMK SLP329 T10301210 IEM_DS3505
ZBAA,1996-02-07 15:00,ZBAA 071500Z AUTO 34010KT 19SM M03/M20 A3047 RMK SLP327 T10341203 52013 IEM_DS3505
ZBAA,1996-02-07 16:00,ZBAA 071600Z AUTO 34014KT 7SM M04/M22 A3047 RMK SLP330 T10401220 IEM_DS3505
ZBAA,1996-02-07 18:00,ZBAA 071800Z AUTO 36006KT 19SM M05/M23 A3049 RMK SLP336 T10471232 52009 IEM_DS3505
ZBAA,1996-02-07 20:00,ZBAA 072000Z AUTO 33016KT 7SM M05/M23 A3047 RMK SLP330 T10501230 IEM_DS3505
ZBAA,1996-02-07 21:00,ZBAA 072100Z AUTO 34008KT 19SM M06/M26 A3050 RMK SLP338 T10621256 52002 IEM_DS3505
ZBAA,1996-02-07 22:00,ZBAA 072200Z AUTO 33014KT 7SM M06/M24 A3050 RMK SLP340 T10601240 IEM_DS3505
ZBAA,1996-02-07 23:00,ZBAA 072300Z AUTO 34010KT 7SM M07/M24 A3050 RMK SLP340 T10701240 IEM_DS3505
ZBAA,1996-02-08 00:00,ZBAA 080000Z AUTO 36006KT 19SM M06/M26 A3050 RMK SLP344 T10631260 52006 IEM_DS3505
ZBAA,1996-02-08 01:00,ZBAA 080100Z AUTO 34008KT 7SM M05/M23 A3053 RMK SLP350 T10501230 IEM_DS3505
ZBAA,1996-02-08 02:00,ZBAA 080200Z AUTO 36006KT 7SM M04/M23 A3050 RMK SLP340 T10401230 IEM_DS3505
ZBAA,1996-02-08 03:00,ZBAA 080300Z AUTO 34012KT 19SM M02/M30 A3052 RMK SLP347 T10251305 52003 IEM_DS3505
ZBAA,1996-02-08 04:00,ZBAA 080400Z AUTO 34021KT 7SM M02/M24 A3050 RMK SLP339 T10201240 IEM_DS3505
ZBAA,1996-02-08 05:00,ZBAA 080500Z AUTO 34017G27KT 7SM M01/M23 A3047 RMK SLP329 T10101230 IEM_DS3505
ZBAA,1996-02-08 06:00,ZBAA 080600Z AUTO 34016KT 19SM M01/M29 A3045 RMK SLP328 T10131294 57019 IEM_DS3505
ZBAA,1996-02-08 07:00,ZBAA 080700Z AUTO 33016KT 7SM 00/M22 A3045 RMK SLP321 T00001220 IEM_DS3505
ZBAA,1996-02-08 08:00,ZBAA 080800Z AUTO 33016KT 6SM 00/M22 A3045 RMK SLP321 T00001220 IEM_DS3505
ZBAA,1996-02-08 09:00,ZBAA 080900Z AUTO 34010KT 19SM M01/M23 A3045 RMK SLP326 T10071227 57002 IEM_DS3505
ZBAA,1996-02-08 10:00,ZBAA 081000Z AUTO 32017KT 7SM M03/M23 A3047 RMK SLP329 T10301230 IEM_DS3505
ZBAA,1996-02-08 11:00,ZBAA 081100Z AUTO 32016KT 7SM M03/M23 A3050 RMK SLP339 T10301230 IEM_DS3505
ZBAA,1996-02-08 12:00,ZBAA 081200Z AUTO 34008KT 19SM M04/M23 A3053 RMK SLP354 T10391231 52027 IEM_DS3505
ZBAA,1996-02-08 13:00,ZBAA 081300Z AUTO 31012KT 7SM M05/M22 A3056 RMK SLP360 T10501220 IEM_DS3505
ZBAA,1996-02-08 14:00,ZBAA 081400Z AUTO 34010KT 7SM M05/M23 A3056 RMK SLP360 T10501230 IEM_DS3505
ZBAA,1996-02-08 15:00,ZBAA 081500Z AUTO 32004KT 12SM M06/M25 A3056 RMK SLP363 T10571253 52009 IEM_DS3505
ZBAA,1996-02-08 16:00,ZBAA 081600Z AUTO 32014KT 7SM M06/M22 A3056 RMK SLP360 T10601220 IEM_DS3505
ZBAA,1996-02-08 18:00,ZBAA 081800Z AUTO 34006KT 11SM M06/M22 A3056 RMK SLP361 T10651225 57002 IEM_DS3505
ZBAA,1996-02-08 20:00,ZBAA 082000Z AUTO 33014KT 7SM M06/M23 A3056 RMK SLP360 T10601230 IEM_DS3505
ZBAA,1996-02-08 21:00,ZBAA 082100Z AUTO 34006KT 12SM M06/M22 A3056 RMK SLP363 T10631220 52002 IEM_DS3505
ZBAA,1996-02-08 22:00,ZBAA 082200Z AUTO 35008KT 7SM M07/M22 A3056 RMK SLP361 T10701220 IEM_DS3505
ZBAA,1996-02-08 23:00,ZBAA 082300Z AUTO 33014KT 6SM M07/M23 A3059 RMK SLP371 T10701230 IEM_DS3505
ZBAA,1996-02-09 00:00,ZBAA 090000Z AUTO 34010KT 12SM M07/M27 A3062 RMK SLP379 T10661272 52016 IEM_DS3505
ZBAA,1996-02-09 01:00,ZBAA 090100Z AUTO 33016KT 7SM M05/M23 A3062 RMK SLP380 T10501230 IEM_DS3505
ZBAA,1996-02-09 02:00,ZBAA 090200Z AUTO 33019KT 7SM M04/M22 A3062 RMK SLP380 T10401220 IEM_DS3505
ZBAA,1996-02-09 03:00,ZBAA 090300Z AUTO 34012KT 19SM M03/M28 A3062 RMK SLP382 T10281281 52003 IEM_DS3505
ZBAA,1996-02-09 05:00,ZBAA 090500Z AUTO 32014KT 7SM M01/M21 A3056 RMK SLP359 T10101210 IEM_DS3505
ZBAA,1996-02-09 06:00,ZBAA 090600Z AUTO 34012KT 19SM M00/M24 A3053 RMK SLP352 T10041236 57029 IEM_DS3505
ZBAA,1996-02-09 07:00,ZBAA 090700Z AUTO 29016KT 7SM 01/M22 A3050 RMK SLP338 T00101220 IEM_DS3505
ZBAA,1996-02-09 08:00,ZBAA 090800Z AUTO 29016KT 7SM 01/M22 A3050 RMK SLP338 T00101220 IEM_DS3505
ZBAA,1996-02-09 09:00,ZBAA 090900Z AUTO 34006KT 19SM 01/M23 A3050 RMK SLP343 T00121226 57009 IEM_DS3505
ZBAA,1996-02-09 10:00,ZBAA 091000Z AUTO 28006KT 7SM 00/M23 A3050 RMK SLP339 T00001230 IEM_DS3505
ZBAA,1996-02-09 11:00,ZBAA 091100Z AUTO ////02KT 7SM M02/M24 A3050 RMK SLP339 T10201240 IEM_DS3505
ZBAA,1996-02-09 12:00,ZBAA 091200Z AUTO 18008KT 19SM M01/M22 A3047 RMK SLP338 T10111222 57005 IEM_DS3505
ZBAA,1996-02-09 13:00,ZBAA 091300Z AUTO ////04KT 7SM M03/M22 A3047 RMK SLP329 T10301220 IEM_DS3505
ZBAA,1996-02-09 14:00,ZBAA 091400Z AUTO 24006KT 7SM M03/M22 A3047 RMK SLP329 T10301220 IEM_DS3505
ZBAA,1996-02-09 15:00,ZBAA 091500Z AUTO 18008KT 19SM M02/M22 A3047 RMK SLP327 T10241223 57011 IEM_DS3505
ZBAA,1996-02-09 18:00,ZBAA 091800Z AUTO 18004KT 12SM M04/M21 A3043 RMK SLP314 T10441210 57013 IEM_DS3505
ZBAA,1996-02-09 20:00,ZBAA 092000Z AUTO ////02KT 7SM M09/M20 A3039 RMK SLP304 T10901200 IEM_DS3505
ZBAA,1996-02-09 21:00,ZBAA 092100Z AUTO 34004KT 12SM M07/M20 A3039 RMK SLP303 T10741203 57011 IEM_DS3505
ZBAA,1996-02-09 22:00,ZBAA 092200Z AUTO 36006KT 7SM M09/M19 A3039 RMK SLP304 T10901190 IEM_DS3505
ZBAA,1996-02-09 23:00,ZBAA 092300Z AUTO ////02KT 7SM M10/M20 A3039 RMK SLP304 T11001200 IEM_DS3505
ZBAA,1996-02-10 00:00,ZBAA 100000Z AUTO 07002KT 12SM M07/M22 A3039 RMK SLP300 T10681221 57003 IEM_DS3505
ZBAA,1996-02-10 01:00,ZBAA 100100Z AUTO 00000KT 7SM M07/M19 A3039 RMK SLP303 T10701190 IEM_DS3505
ZBAA,1996-02-10 02:00,ZBAA 100200Z AUTO ////04KT 7SM M04/M18 A3036 RMK SLP291 T10401180 IEM_DS3505
ZBAA,1996-02-10 03:00,ZBAA 100300Z AUTO 07004KT 6SM M01/M23 A3033 RMK SLP281 T10141231 57019 IEM_DS3505
ZBAA,1996-02-10 04:00,ZBAA 100400Z AUTO ////02KT 7SM 00/M18 A3027 RMK SLP260 T00001180 IEM_DS3505
ZBAA,1996-02-10 05:00,ZBAA 100500Z AUTO ////02KT 7SM 02/M18 A3024 RMK SLP249 T00201180 IEM_DS3505
ZBAA,1996-02-10 06:00,ZBAA 100600Z AUTO 00000KT 6SM 03/M20 A3018 RMK SLP229 T00331202 57051 IEM_DS3505
ZBAA,1996-02-10 07:00,ZBAA 100700Z AUTO ////02KT 7SM 04/M17 A3015 RMK SLP219 T00401170 IEM_DS3505
ZBAA,1996-02-10 08:00,ZBAA 100800Z AUTO ////04KT 4SM 04/M19 A3012 RMK SLP209 T00401190 IEM_DS3505
ZBAA,1996-02-10 09:00,ZBAA 100900Z AUTO 18006KT 6SM 04/M23 A3012 RMK SLP209 T00381230 57020 IEM_DS3505
ZBAA,1996-02-10 10:00,ZBAA 101000Z AUTO 00000KT 4SM 01/M21 A3012 RMK SLP209 T00101210 IEM_DS3505
ZBAA,1996-02-10 11:00,ZBAA 101100Z AUTO ////02KT 4SM 00/M20 A3009 RMK SLP199 T00001200 IEM_DS3505
ZBAA,1996-02-10 12:00,ZBAA 101200Z AUTO 34002KT 5SM M02/M16 A3009 RMK SLP203 T10191155 57007 IEM_DS3505
ZBAA,1996-02-10 13:00,ZBAA 101300Z AUTO ////04KT 4SM M02/M18 A3009 RMK SLP199 T10201180 IEM_DS3505
ZBAA,1996-02-10 14:00,ZBAA 101400Z AUTO ////04KT 5SM M02/M19 A3006 RMK SLP189 T10201190 IEM_DS3505
ZBAA,1996-02-10 15:00,ZBAA 101500Z AUTO 00000KT 4SM M02/M14 A3003 RMK SLP187 T10251139 57015 IEM_DS3505
ZBAA,1996-02-10 18:00,ZBAA 101800Z AUTO 07004KT 5SM M04/M16 A2997 RMK SLP159 T10411163 57027 IEM_DS3505
ZBAA,1996-02-10 20:00,ZBAA 102000Z AUTO ////04KT 7SM M05/M19 A2991 RMK SLP139 T10501190 IEM_DS3505
ZBAA,1996-02-10 21:00,ZBAA 102100Z AUTO 04004KT 6SM M03/M19 A2991 RMK SLP139 T10311190 57020 IEM_DS3505
ZBAA,1996-02-10 22:00,ZBAA 102200Z AUTO ////04KT 7SM M06/M19 A2988 RMK SLP130 T10601190 IEM_DS3505
ZBAA,1996-02-10 23:00,ZBAA 102300Z AUTO ////04KT 7SM M06/M17 A2991 RMK SLP140 T10601170 IEM_DS3505
ZBAA,1996-02-11 00:00,ZBAA 110000Z AUTO 32002KT 2 1/2SM M06/M16 A2988 RMK SLP136 T10601163 57004 IEM_DS3505
ZBAA,1996-02-11 01:00,ZBAA 110100Z AUTO 35006KT 7SM M05/M17 A2988 RMK SLP129 T10501170 IEM_DS3505
ZBAA,1996-02-11 02:00,ZBAA 110200Z AUTO ////04KT 7SM M01/M15 A2988 RMK SLP128 T10101150 IEM_DS3505
ZBAA,1996-02-11 03:00,ZBAA 110300Z AUTO 34002KT 3SM 02/M19 A2988 RMK SLP128 T00241187 57007 IEM_DS3505
ZBAA,1996-02-11 04:00,ZBAA 110400Z AUTO ////02KT 5SM 03/M14 A2985 RMK SLP117 T00301140 IEM_DS3505
ZBAA,1996-02-11 05:00,ZBAA 110500Z AUTO ////02KT 5SM 05/M13 A2980 RMK SLP100 T00501130 IEM_DS3505
ZBAA,1996-02-11 06:00,ZBAA 110600Z AUTO 16002KT 3SM 07/M17 A2977 RMK SLP095 T00731166 57032 IEM_DS3505
ZBAA,1996-02-11 07:00,ZBAA 110700Z AUTO 22006KT 5SM 08/M14 A2974 RMK SLP078 T00801140 IEM_DS3505
ZBAA,1996-02-11 08:00,ZBAA 110800Z AUTO ////04KT 4SM 08/M15 A2974 RMK SLP078 T00801150 IEM_DS3505
ZBAA,1996-02-11 09:00,ZBAA 110900Z AUTO 22004KT 2 1/2SM 09/M15 A2974 RMK SLP080 T00871154 57015 IEM_DS3505
ZBAA,1996-02-11 10:00,ZBAA 111000Z AUTO ////02KT 2 1/2SM 05/M15 A2974 RMK SLP079 T00501150 IEM_DS3505
ZBAA,1996-02-11 11:00,ZBAA 111100Z AUTO 00000KT 3SM 02/M15 A2974 RMK SLP079 T00201150 IEM_DS3505
ZBAA,1996-02-11 12:00,ZBAA 111200Z AUTO 22004KT 5SM 04/M14 A2974 RMK SLP084 T00431140 52003 IEM_DS3505
ZBAA,1996-02-11 13:00,ZBAA 111300Z AUTO 00000KT 2 1/2SM 01/M14 A2977 RMK SLP091 T00101140 IEM_DS3505
ZBAA,1996-02-11 14:00,ZBAA 111400Z AUTO 00000KT 2SM 00/M13 A2977 RMK SLP091 T00001130 IEM_DS3505
ZBAA,1996-02-11 15:00,ZBAA 111500Z AUTO 09004KT 2SM 00/M13 A2974 RMK SLP086 T00051131 52003 IEM_DS3505
ZBAA,1996-02-11 16:00,ZBAA 111600Z AUTO ////04KT 3SM M02/M13 A2974 RMK SLP080 T10201130 IEM_DS3505
ZBAA,1996-02-11 18:00,ZBAA 111800Z AUTO 00000KT 1 1/2SM M01/M13 A2973 RMK SLP077 T10101129 57009 IEM_DS3505
ZBAA,1996-02-11 20:00,ZBAA 112000Z AUTO 00000KT 4SM M04/M14 A2971 RMK SLP071 T10401140 IEM_DS3505
ZBAA,1996-02-11 21:00,ZBAA 112100Z AUTO 27002KT 1 1/2SM M03/M12 A2971 RMK SLP071 T10311118 57006 IEM_DS3505
ZBAA,1996-02-11 22:00,ZBAA 112200Z AUTO 35006KT 5SM M03/M14 A2971 RMK SLP070 T10301140 IEM_DS3505
ZBAA,1996-02-11 23:00,ZBAA 112300Z AUTO 32006KT 5SM M03/M14 A2971 RMK SLP070 T10301140 IEM_DS3505
ZBAA,1996-02-12 00:00,ZBAA 120000Z AUTO 22002KT 1 1/4SM M04/M12 A2971 RMK SLP074 T10381123 52002 IEM_DS3505
ZBAA,1996-02-12 01:00,ZBAA 120100Z AUTO 36006KT 5SM 00/M13 A2971 RMK SLP070 T00001130 IEM_DS3505
ZBAA,1996-02-12 02:00,ZBAA 120200Z AUTO 36006KT 5SM 04/M12 A2968 RMK SLP059 T00401120 IEM_DS3505
ZBAA,1996-02-12 03:00,ZBAA 120300Z AUTO 18004KT 2SM 08/M13 A2968 RMK SLP062 T00791131 57011 IEM_DS3505
ZBAA,1996-02-12 04:00,ZBAA 120400Z AUTO 00000KT 5SM 09/M11 A2965 RMK SLP047 T00901110 IEM_DS3505
ZBAA,1996-02-12 05:00,ZBAA 120500Z AUTO 00000KT 4SM 11/M11 A2959 RMK SLP027 T01101110 IEM_DS3505
ZBAA,1996-02-12 06:00,ZBAA 120600Z AUTO 16010KT 2SM 13/M14 A2956 RMK SLP017 T01291141 57044 IEM_DS3505
ZBAA,1996-02-12 07:00,ZBAA 120700Z AUTO 18006KT 4SM 14/M11 A2953 RMK SLP006 T01401110 IEM_DS3505
ZBAA,1996-02-12 08:00,ZBAA 120800Z AUTO 15006KT 4SM 13/M12 A2950 RMK SLP996 T01301120 IEM_DS3505
ZBAA,1996-02-12 09:00,ZBAA 120900Z AUTO 14002KT 2 1/2SM 12/M12 A2950 RMK SLP996 T01241119 57021 IEM_DS3505
ZBAA,1996-02-12 10:00,ZBAA 121000Z AUTO 00000KT 4SM 09/M11 A2950 RMK SLP997 T00901110 IEM_DS3505
ZBAA,1996-02-12 11:00,ZBAA 121100Z AUTO 00000KT 3SM 08/M10 A2950 RMK SLP997 T00801100 IEM_DS3505
ZBAA,1996-02-12 12:00,ZBAA 121200Z AUTO 02002KT 2SM 04/M10 A2950 RMK SLP998 T00441099 52001 IEM_DS3505
ZBAA,1996-02-12 13:00,ZBAA 121300Z AUTO 00000KT 2 1/2SM 05/M10 A2950 RMK SLP998 T00501100 IEM_DS3505
ZBAA,1996-02-12 14:00,ZBAA 121400Z AUTO 00000KT 2 1/2SM 05/M09 A2950 RMK SLP998 T00501090 IEM_DS3505
ZBAA,1996-02-12 15:00,ZBAA 121500Z AUTO 04006KT 2 1/2SM 06/M12 A2950 RMK SLP991 T00601117 57005 IEM_DS3505
ZBAA,1996-02-12 16:00,ZBAA 121600Z AUTO ////04KT 2 1/2SM 01/M11 A2947 RMK SLP988 T00101110 IEM_DS3505
ZBAA,1996-02-12 18:00,ZBAA 121800Z AUTO 02002KT 2 1/2SM 03/M08 A2947 RMK SLP988 T00271084 57003 IEM_DS3505
ZBAA,1996-02-12 20:00,ZBAA 122000Z AUTO ////04KT 2 1/2SM 00/M11 A2947 RMK SLP988 T00001110 IEM_DS3505
ZBAA,1996-02-12 21:00,ZBAA 122100Z AUTO 07004KT 2SM 01/M09 A2947 RMK SLP989 T00091090 52001 IEM_DS3505
ZBAA,1996-02-12 22:00,ZBAA 122200Z AUTO ////02KT 2 1/2SM M01/M11 A2947 RMK SLP988 T10101110 IEM_DS3505
ZBAA,1996-02-12 23:00,ZBAA 122300Z AUTO 34006KT 2 1/2SM 02/M10 A2950 RMK SLP999 T00201100 IEM_DS3505
ZBAA,1996-02-13 00:00,ZBAA 130000Z AUTO 29002KT 1 1/4SM M00/M08 A2950 RMK SLP004 T10051078 52013 IEM_DS3505
ZBAA,1996-02-13 01:00,ZBAA 130100Z AUTO 00000KT 2 1/2SM 03/M09 A2953 RMK SLP009 T00301090 IEM_DS3505
ZBAA,1996-02-13 03:00,ZBAA 130300Z AUTO 25002KT 2SM 12/M07 A2955 RMK SLP011 T01201070 52009 IEM_DS3505
ZBAA,1996-02-13 04:00,ZBAA 130400Z AUTO ////02KT 2 1/2SM 14/M07 A2950 RMK SLP996 T01401070 IEM_DS3505
ZBAA,1996-02-13 05:00,ZBAA 130500Z AUTO 21008KT 2 1/2SM 17/M07 A2947 RMK SLP984 T01701070 IEM_DS3505
ZBAA,1996-02-13 06:00,ZBAA 130600Z AUTO 16006KT 2 1/2SM 18/M09 A2944 RMK SLP983 T01831092 57028 IEM_DS3505
ZBAA,1996-02-13 07:00,ZBAA 130700Z AUTO ////04KT 4SM 20/M06 A2944 RMK SLP973 T02001060 IEM_DS3505
ZBAA,1996-02-13 08:00,ZBAA 130800Z AUTO 21006KT 4SM 20/M07 A2944 RMK SLP973 T02001070 IEM_DS3505
ZBAA,1996-02-13 09:00,ZBAA 130900Z AUTO 00000KT 3SM 17/M04 A2944 RMK SLP984 T01721036 52001 IEM_DS3505
ZBAA,1996-02-13 10:00,ZBAA 131000Z AUTO 20008KT 2 1/2SM 14/M09 A2947 RMK SLP985 T01401090 IEM_DS3505
ZBAA,1996-02-13 11:00,ZBAA 131100Z AUTO 22008KT 2SM 13/M08 A2953 RMK SLP006 T01301080 IEM_DS3505
ZBAA,1996-02-13 12:00,ZBAA 131200Z AUTO 00000KT 2SM 10/M05 A2956 RMK SLP015 T00971047 52030 IEM_DS3505
ZBAA,1996-02-13 13:00,ZBAA 131300Z AUTO 35008KT 2SM 12/M08 A2962 RMK SLP037 T01201080 IEM_DS3505
ZBAA,1996-02-13 14:00,ZBAA 131400Z AUTO 00000KT 2 1/2SM 14/M08 A2962 RMK SLP036 T01401080 IEM_DS3505
ZBAA,1996-02-13 15:00,ZBAA 131500Z AUTO 34006KT 6SM 14/M08 A2965 RMK SLP048 T01361081 52035 IEM_DS3505
ZBAA,1996-02-13 16:00,ZBAA 131600Z AUTO 35016G25KT 7SM 14/M08 A2968 RMK SLP056 T01401080 IEM_DS3505
ZBAA,1996-02-13 17:00,ZBAA 131700Z AUTO 02014KT 7SM 11/M21 A2974 RMK SLP077 T01111210 IEM_DS3505
ZBAA,1996-02-13 18:00,ZBAA 131800Z AUTO 02014KT 7SM 11/M22 A2979 RMK SLP092 T01101219 52044 IEM_DS3505
ZBAA,1996-02-13 20:00,ZBAA 132000Z AUTO 34012KT 6SM 09/M14 A2985 RMK SLP116 T00901140 IEM_DS3505
ZBAA,1996-02-13 21:00,ZBAA 132100Z AUTO 02014KT 9SM 07/M23 A2988 RMK SLP127 T00741233 52034 IEM_DS3505
ZBAA,1996-02-13 23:00,ZBAA 132300Z AUTO 34006KT 6SM 05/M15 A2997 RMK SLP157 T00501150 IEM_DS3505
ZBAA,1996-02-14 00:00,ZBAA 140000Z AUTO 02010KT 19SM 06/M20 A3003 RMK SLP170 T00611204 52042 IEM_DS3505
ZBAA,1996-02-14 01:00,ZBAA 140100Z AUTO 05010KT 6SM 07/M15 A3003 RMK SLP177 T00701150 IEM_DS3505
ZBAA,1996-02-14 02:00,ZBAA 140200Z AUTO 05012KT 6SM 06/M17 A3009 RMK SLP197 T00601170 IEM_DS3505
ZBAA,1996-02-14 03:00,ZBAA 140300Z AUTO 02010KT 9SM 07/M22 A3009 RMK SLP194 T00721219 52024 IEM_DS3505
ZBAA,1996-02-14 04:00,ZBAA 140400Z AUTO 04010KT 6SM 06/M17 A3009 RMK SLP197 T00601170 IEM_DS3505
ZBAA,1996-02-14 05:00,ZBAA 140500Z AUTO 05012KT 6SM 05/M17 A3009 RMK SLP197 T00501170 IEM_DS3505
ZBAA,1996-02-14 06:00,ZBAA 140600Z AUTO 04010KT 16SM 06/M25 A3006 RMK SLP190 T00551249 57004 IEM_DS3505
ZBAA,1996-02-14 07:00,ZBAA 140700Z AUTO 05012KT 6SM 06/M18 A3006 RMK SLP187 T00601180 IEM_DS3505
ZBAA,1996-02-14 08:00,ZBAA 140800Z AUTO 05010KT 6SM 06/M18 A3009 RMK SLP197 T00601180 IEM_DS3505
ZBAA,1996-02-14 09:00,ZBAA 140900Z AUTO 07008KT 16SM 05/M19 A3012 RMK SLP204 T00501190 IEM_DS3505
ZBAA,1996-02-14 10:00,ZBAA 141000Z AUTO ////04KT 6SM 04/M19 A3015 RMK SLP219 T00401190 IEM_DS3505
ZBAA,1996-02-14 11:00,ZBAA 141100Z AUTO 04006KT 6SM 03/M18 A3018 RMK SLP229 T00301180 IEM_DS3505
ZBAA,1996-02-14 12:00,ZBAA 141200Z AUTO 02004KT 12SM 03/M23 A3018 RMK SLP235 T00331227 52030 IEM_DS3505
ZBAA,1996-02-14 13:00,ZBAA 141300Z AUTO 02006KT 6SM 01/M20 A3021 RMK SLP240 T00101200 IEM_DS3505
ZBAA,1996-02-14 14:00,ZBAA 141400Z AUTO ////04KT 6SM 00/M08 A3024 RMK SLP250 T00001080 IEM_DS3505
ZBAA,1996-02-14 15:00,ZBAA 141500Z AUTO 20006KT 12SM 00/M09 A3027 RMK SLP253 T00051089 52018 IEM_DS3505
ZBAA,1996-02-14 16:00,ZBAA 141600Z AUTO ////02KT 7SM M02/M07 A3027 RMK SLP261 T10201070 IEM_DS3505
ZBAA,1996-02-14 18:00,ZBAA 141800Z AUTO 18004KT 9SM M01/M07 A3031 RMK SLP271 T10071066 52018 IEM_DS3505
ZBAA,1996-02-14 20:00,ZBAA 142000Z AUTO 00000KT 4SM M03/M06 A3033 RMK SLP281 T10301060 IEM_DS3505
ZBAA,1996-02-14 21:00,ZBAA 142100Z AUTO 02004KT 12SM M01/M10 A3033 RMK SLP278 T10131097 52006 IEM_DS3505
ZBAA,1996-02-14 22:00,ZBAA 142200Z AUTO 00000KT 4SM M03/M06 A3033 RMK SLP281 T10301060 IEM_DS3505
ZBAA,1996-02-14 23:00,ZBAA 142300Z AUTO 00000KT 5SM M02/M06 A3036 RMK SLP291 T10201060 IEM_DS3505
ZBAA,1996-02-15 00:00,ZBAA 150000Z AUTO 07004KT 5SM M02/M07 A3039 RMK SLP301 T10171070 52023 IEM_DS3505
ZBAA,1996-02-15 01:00,ZBAA 150100Z AUTO 05006KT 6SM M01/M15 A3042 RMK SLP312 T10101150 IEM_DS3505
ZBAA,1996-02-15 02:00,ZBAA 150200Z AUTO 04010KT 6SM 00/M17 A3045 RMK SLP321 T00001170 IEM_DS3505
ZBAA,1996-02-15 03:00,ZBAA 150300Z AUTO 04006KT 9SM 01/M17 A3045 RMK SLP316 T00101170 52015 IEM_DS3505
ZBAA,1996-02-15 05:00,ZBAA 150500Z AUTO 28008KT 6SM 02/M19 A3039 RMK SLP301 T00201190 IEM_DS3505
ZBAA,1996-02-15 06:00,ZBAA 150600Z AUTO 02010KT 12SM 02/M19 A3036 RMK SLP290 T00251189 57026 IEM_DS3505
ZBAA,1996-02-15 07:00,ZBAA 150700Z AUTO ////02KT 6SM 03/M20 A3036 RMK SLP289 T00301200 IEM_DS3505
ZBAA,1996-02-15 08:00,ZBAA 150800Z AUTO ////04KT 6SM 03/M20 A3033 RMK SLP279 T00301200 IEM_DS3505
ZBAA,1996-02-15 09:00,ZBAA 150900Z AUTO 34006KT 12SM 02/M24 A3036 RMK SLP284 T00241242 57006 IEM_DS3505
ZBAA,1996-02-15 10:00,ZBAA 151000Z AUTO ////02KT 6SM 00/M21 A3036 RMK SLP290 T00001210 IEM_DS3505
ZBAA,1996-02-15 11:00,ZBAA 151100Z AUTO ////04KT 7SM 00/M25 A3039 RMK SLP301 T00001250 IEM_DS3505
ZBAA,1996-02-15 12:00,ZBAA 151200Z AUTO 34004KT 12SM 00/M25 A3042 RMK SLP309 T00001247 52024 IEM_DS3505
ZBAA,1996-02-15 13:00,ZBAA 151300Z AUTO ////02KT 7SM M02/M26 A3045 RMK SLP322 T10201260 IEM_DS3505
ZBAA,1996-02-15 14:00,ZBAA 151400Z AUTO ////02KT 7SM M03/M26 A3047 RMK SLP329 T10301260 IEM_DS3505
ZBAA,1996-02-15 15:00,ZBAA 151500Z AUTO 07006KT 12SM M01/M24 A3047 RMK SLP331 T10081242 52023 IEM_DS3505
ZBAA,1996-02-15 16:00,ZBAA 151600Z AUTO 03006KT 7SM M05/M26 A3050 RMK SLP340 T10501260 IEM_DS3505
ZBAA,1996-02-15 17:00,ZBAA 151700Z AUTO 02008KT 7SM M05/M25 A3050 RMK SLP340 T10501250 IEM_DS3505
ZBAA,1996-02-15 18:00,ZBAA 151800Z AUTO 02008KT 12SM M03/M32 A3050 RMK SLP340 T10341315 52008 IEM_DS3505
ZBAA,1996-02-15 19:00,ZBAA 151900Z AUTO 00000KT 7SM M06/M26 A3053 RMK SLP350 T10601260 IEM_DS3505
ZBAA,1996-02-15 20:00,ZBAA 152000Z AUTO ////02KT 7SM M07/M25 A3053 RMK SLP350 T10701250 IEM_DS3505
ZBAA,1996-02-15 21:00,ZBAA 152100Z AUTO 02010KT 12SM M04/M28 A3056 RMK SLP350 T10441284 52010 IEM_DS3505
ZBAA,1996-02-15 22:00,ZBAA 152200Z AUTO 02008KT 7SM M07/M26 A3056 RMK SLP361 T10701260 IEM_DS3505
ZBAA,1996-02-15 23:00,ZBAA 152300Z AUTO ////04KT 6SM M06/M25 A3056 RMK SLP360 T10601250 IEM_DS3505
ZBAA,1996-02-16 00:00,ZBAA 160000Z AUTO 02014KT 12SM M04/M27 A3062 RMK SLP370 T10451270 52020 IEM_DS3505
ZBAA,1996-02-16 01:00,ZBAA 160100Z AUTO 03008KT 6SM M05/M26 A3065 RMK SLP390 T10501260 IEM_DS3505
ZBAA,1996-02-16 02:00,ZBAA 160200Z AUTO 02012KT 6SM M04/M26 A3062 RMK SLP380 T10401260 IEM_DS3505
ZBAA,1996-02-16 03:00,ZBAA 160300Z AUTO 02016KT 7SM M04/M26 A3062 RMK SLP373 T10351260 52003 IEM_DS3505
ZBAA,1996-02-16 04:00,ZBAA 160400Z AUTO 05008KT 6SM M02/M24 A3059 RMK SLP369 T10201240 IEM_DS3505
ZBAA,1996-02-16 05:00,ZBAA 160500Z AUTO ////04KT 6SM M02/M24 A3059 RMK SLP369 T10201240 IEM_DS3505
ZBAA,1996-02-16 06:00,ZBAA 160600Z AUTO 02012KT 16SM M01/ A3053 RMK SLP353 57020 IEM_DS3505
ZBAA,1996-02-16 07:00,ZBAA 160700Z AUTO 03006KT 6SM M01/M23 A3053 RMK SLP349 T10101230 IEM_DS3505
ZBAA,1996-02-16 08:00,ZBAA 160800Z AUTO 04006KT 6SM M02/M24 A3050 RMK SLP339 T10201240 IEM_DS3505
ZBAA,1996-02-16 09:00,ZBAA 160900Z AUTO 36010KT 16SM M01/M30 A3050 RMK SLP341 T10091296 57012 IEM_DS3505
ZBAA,1996-02-16 10:00,ZBAA 161000Z AUTO 00000KT 6SM M03/M28 A3053 RMK SLP349 T10301280 IEM_DS3505
ZBAA,1996-02-16 11:00,ZBAA 161100Z AUTO ////02KT 7SM M03/M27 A3053 RMK SLP349 T10301270 IEM_DS3505
ZBAA,1996-02-16 12:00,ZBAA 161200Z AUTO 25004KT 12SM M02/M26 A3056 RMK SLP359 T10211262 52018 IEM_DS3505
ZBAA,1996-02-16 13:00,ZBAA 161300Z AUTO 35006KT 7SM M04/M25 A3059 RMK SLP370 T10401250 IEM_DS3505
ZBAA,1996-02-16 14:00,ZBAA 161400Z AUTO ////04KT 7SM M04/M26 A3062 RMK SLP380 T10401260 IEM_DS3505
ZBAA,1996-02-16 15:00,ZBAA 161500Z AUTO 36010KT 12SM M03/M25 A3062 RMK SLP379 T10301253 52019 IEM_DS3505
ZBAA,1996-02-16 16:00,ZBAA 161600Z AUTO 33008KT 7SM M04/M25 A3065 RMK SLP390 T10401250 IEM_DS3505
ZBAA,1996-02-16 18:00,ZBAA 161800Z AUTO 02006KT 19SM M04/M29 A3065 RMK SLP389 T10451291 52010 IEM_DS3505
ZBAA,1996-02-16 21:00,ZBAA 162100Z AUTO 02006KT 16SM M05/M30 A3068 RMK SLP397 T10501296 52008 IEM_DS3505
ZBAA,1996-02-16 22:00,ZBAA 162200Z AUTO ////02KT 6SM M08/M25 A3068 RMK SLP401 T10801250 IEM_DS3505
ZBAA,1996-02-16 23:00,ZBAA 162300Z AUTO 35014KT 6SM M06/M25 A3071 RMK SLP411 T10601250 IEM_DS3505
ZBAA,1996-02-17 00:00,ZBAA 170000Z AUTO 02006KT 12SM M05/M31 A3071 RMK SLP405 T10531314 52008 IEM_DS3505
ZBAA,1996-02-17 01:00,ZBAA 170100Z AUTO 01006KT 6SM M05/M25 A3074 RMK SLP421 T10501250 IEM_DS3505
ZBAA,1996-02-17 02:00,ZBAA 170200Z AUTO 01008KT 6SM M04/M24 A3074 RMK SLP421 T10401240 IEM_DS3505
ZBAA,1996-02-17 03:00,ZBAA 170300Z AUTO 34012KT 12SM M02/ A3074 RMK SLP415 52010 IEM_DS3505
ZBAA,1996-02-17 04:00,ZBAA 170400Z AUTO 34010KT 6SM M01/M23 A3071 RMK SLP409 T10101230 IEM_DS3505
ZBAA,1996-02-17 05:00,ZBAA 170500Z AUTO 34008KT 6SM M01/M23 A3068 RMK SLP399 T10101230 IEM_DS3505
ZBAA,1996-02-17 06:00,ZBAA 170600Z AUTO 02010KT 8SM M00/ A3068 RMK SLP401 57014 IEM_DS3505
ZBAA,1996-02-17 07:00,ZBAA 170700Z AUTO 33008KT 6SM 00/M23 A3068 RMK SLP399 T00001230 IEM_DS3505
ZBAA,1996-02-17 08:00,ZBAA 170800Z AUTO 04006KT 6SM 00/M23 A3065 RMK SLP389 T00001230 IEM_DS3505
ZBAA,1996-02-17 09:00,ZBAA 170900Z AUTO 34008KT 7SM M01/M33 A3065 RMK SLP398 T10091326 57003 IEM_DS3505
ZBAA,1996-02-17 10:00,ZBAA 171000Z AUTO ////02KT 6SM M03/M27 A3068 RMK SLP400 T10301270 IEM_DS3505
ZBAA,1996-02-17 11:00,ZBAA 171100Z AUTO ////04KT 6SM M03/M27 A3071 RMK SLP410 T10301270 IEM_DS3505
ZBAA,1996-02-17 12:00,ZBAA 171200Z AUTO 34004KT 12SM M04/M25 A3071 RMK SLP414 T10351246 52016 IEM_DS3505
ZBAA,1996-02-17 13:00,ZBAA 171300Z AUTO ////04KT 7SM M04/M25 A3074 RMK SLP421 T10401250 IEM_DS3505
ZBAA,1996-02-17 14:00,ZBAA 171400Z AUTO ////02KT 7SM M04/M26 A3074 RMK SLP421 T10401260 IEM_DS3505
ZBAA,1996-02-17 15:00,ZBAA 171500Z AUTO 34006KT 12SM M04/M27 A3074 RMK SLP426 T10371271 52012 IEM_DS3505
ZBAA,1996-02-17 16:00,ZBAA 171600Z AUTO 32006KT 6SM M05/M26 A3077 RMK SLP432 T10501260 IEM_DS3505
ZBAA,1996-02-17 18:00,ZBAA 171800Z AUTO 02008KT 12SM M04/M27 A3077 RMK SLP429 T10451273 52003 IEM_DS3505
ZBAA,1996-02-17 21:00,ZBAA 172100Z AUTO 02008KT 12SM M06/M32 A3080 RMK SLP436 T10571315 52007 IEM_DS3505
ZBAA,1996-02-17 22:00,ZBAA 172200Z AUTO 33008KT 7SM M07/M27 A3080 RMK SLP442 T10701270 IEM_DS3505
ZBAA,1996-02-17 23:00,ZBAA 172300Z AUTO ////04KT 7SM M08/M27 A3080 RMK SLP442 T10801270 IEM_DS3505
ZBAA,1996-02-18 00:00,ZBAA 180000Z AUTO 02006KT 9SM M06/M33 A3083 RMK SLP450 T10631326 52013 IEM_DS3505
ZBAA,1996-02-18 01:00,ZBAA 180100Z AUTO 35008KT 7SM M05/M25 A3083 RMK SLP452 T10501250 IEM_DS3505
ZBAA,1996-02-18 02:00,ZBAA 180200Z AUTO 01006KT 7SM M03/M24 A3083 RMK SLP451 T10301240 IEM_DS3505
ZBAA,1996-02-18 03:00,ZBAA 180300Z AUTO 02012KT 19SM M02/M25 A3083 RMK SLP450 T10211249 52001 IEM_DS3505
ZBAA,1996-02-18 04:00,ZBAA 180400Z AUTO ////04KT 7SM M02/M23 A3080 RMK SLP441 T10201230 IEM_DS3505
ZBAA,1996-02-18 05:00,ZBAA 180500Z AUTO ////04KT 7SM M01/M22 A3077 RMK SLP430 T10101220 IEM_DS3505
ZBAA,1996-02-18 06:00,ZBAA 180600Z AUTO 02010KT 19SM 01/ A3074 RMK SLP424 57026 IEM_DS3505
ZBAA,1996-02-18 07:00,ZBAA 180700Z AUTO 32006KT 7SM 01/M21 A3074 RMK SLP420 T00101210 IEM_DS3505
ZBAA,1996-02-18 08:00,ZBAA 180800Z AUTO 31008KT 7SM 01/M21 A3074 RMK SLP420 T00101210 IEM_DS3505
ZBAA,1996-02-18 09:00,ZBAA 180900Z AUTO 34008KT 16SM 01/M30 A3071 RMK SLP418 T00111296 57006 IEM_DS3505
ZBAA,1996-02-18 10:00,ZBAA 181000Z AUTO ////04KT 7SM 00/M25 A3074 RMK SLP420 T00001250 IEM_DS3505
ZBAA,1996-02-18 11:00,ZBAA 181100Z AUTO 28006KT 7SM M01/M25 A3074 RMK SLP420 T10101250 IEM_DS3505
ZBAA,1996-02-18 12:00,ZBAA 181200Z AUTO 27002KT 12SM M03/M25 A3077 RMK SLP434 T10321249 52016 IEM_DS3505
ZBAA,1996-02-18 13:00,ZBAA 181300Z AUTO 33008KT 7SM M03/M26 A3080 RMK SLP441 T10301260 IEM_DS3505
ZBAA,1996-02-18 14:00,ZBAA 181400Z AUTO 35006KT 7SM M04/M26 A3083 RMK SLP451 T10401260 IEM_DS3505
ZBAA,1996-02-18 15:00,ZBAA 181500Z AUTO 02006KT 19SM M03/M32 A3083 RMK SLP457 T10261319 52023 IEM_DS3505
ZBAA,1996-02-18 18:00,ZBAA 181800Z AUTO 02014KT 16SM M04/M31 A3087 RMK SLP466 T10431306 52009 IEM_DS3505
ZBAA,1996-02-18 20:00,ZBAA 182000Z AUTO 32014KT 7SM M06/M26 A3086 RMK SLP462 T10601260 IEM_DS3505
ZBAA,1996-02-18 21:00,ZBAA 182100Z AUTO 36006KT 19SM M06/M28 A3089 RMK SLP470 T10621277 52004 IEM_DS3505
ZBAA,1996-02-18 22:00,ZBAA 182200Z AUTO 32010KT 7SM M06/M25 A3089 RMK SLP472 T10601250 IEM_DS3505
ZBAA,1996-02-18 23:00,ZBAA 182300Z AUTO 32008KT 7SM M06/M25 A3089 RMK SLP472 T10601250 IEM_DS3505
ZBAA,1996-02-19 00:00,ZBAA 190000Z AUTO 32002KT 19SM M06/M27 A3092 RMK SLP484 T10641268 52013 IEM_DS3505
ZBAA,1996-02-19 01:00,ZBAA 190100Z AUTO 30008KT 7SM M04/M24 A3092 RMK SLP482 T10401240 IEM_DS3505
ZBAA,1996-02-19 02:00,ZBAA 190200Z AUTO 34012KT 7SM M03/M24 A3089 RMK SLP471 T10301240 IEM_DS3505
ZBAA,1996-02-19 03:00,ZBAA 190300Z AUTO 34010KT 19SM M02/ A3089 RMK SLP473 57010 IEM_DS3505
ZBAA,1996-02-19 04:00,ZBAA 190400Z AUTO 34010KT 7SM M01/M23 A3086 RMK SLP461 T10101230 IEM_DS3505
ZBAA,1996-02-19 05:00,ZBAA 190500Z AUTO 35008G17KT 7SM 00/M22 A3083 RMK SLP450 T00001220 IEM_DS3505
ZBAA,1996-02-19 06:00,ZBAA 190600Z AUTO 02010KT 19SM 01/ A3080 RMK SLP441 57032 IEM_DS3505
ZBAA,1996-02-19 07:00,ZBAA 190700Z AUTO 29012KT 7SM 02/M22 A3077 RMK SLP430 T00201220 IEM_DS3505
ZBAA,1996-02-19 08:00,ZBAA 190800Z AUTO 29014KT 7SM 02/M22 A3074 RMK SLP420 T00201220 IEM_DS3505
ZBAA,1996-02-19 09:00,ZBAA 190900Z AUTO 32006KT 19SM 02/M28 A3074 RMK SLP427 T00151282 57014 IEM_DS3505
ZBAA,1996-02-19 10:00,ZBAA 191000Z AUTO 28008KT 7SM 00/M24 A3074 RMK SLP420 T00001240 IEM_DS3505
ZBAA,1996-02-19 11:00,ZBAA 191100Z AUTO 28006KT 7SM M01/M24 A3077 RMK SLP430 T10101240 IEM_DS3505
ZBAA,1996-02-19 12:00,ZBAA 191200Z AUTO 34004KT 19SM M02/M26 A3077 RMK SLP437 T10201261 52010 IEM_DS3505
ZBAA,1996-02-19 13:00,ZBAA 191300Z AUTO 35008KT 7SM M01/M25 A3080 RMK SLP441 T10101250 IEM_DS3505
ZBAA,1996-02-19 14:00,ZBAA 191400Z AUTO 34010KT 7SM M02/M26 A3083 RMK SLP451 T10201260 IEM_DS3505
ZBAA,1996-02-19 15:00,ZBAA 191500Z AUTO 02008KT 19SM M02/M30 A3083 RMK SLP451 T10241305 52014 IEM_DS3505
ZBAA,1996-02-19 18:00,ZBAA 191800Z AUTO 04006KT 16SM M04/M30 A3083 RMK SLP450 T10381298 57001 IEM_DS3505
ZBAA,1996-02-19 20:00,ZBAA 192000Z AUTO 33012KT 7SM M04/M26 A3080 RMK SLP441 T10401260 IEM_DS3505
ZBAA,1996-02-19 21:00,ZBAA 192100Z AUTO 04004KT 12SM M04/M26 A3080 RMK SLP444 T10451256 57006 IEM_DS3505
ZBAA,1996-02-19 22:00,ZBAA 192200Z AUTO 30008KT 7SM M05/M25 A3080 RMK SLP442 T10501250 IEM_DS3505
ZBAA,1996-02-19 23:00,ZBAA 192300Z AUTO 31010KT 7SM M05/M24 A3083 RMK SLP452 T10501240 IEM_DS3505
ZBAA,1996-02-20 00:00,ZBAA 200000Z AUTO 02008KT 19SM M05/M26 A3083 RMK SLP454 T10491257 52010 IEM_DS3505
ZBAA,1996-02-20 01:00,ZBAA 200100Z AUTO 32014KT 7SM M04/M23 A3083 RMK SLP451 T10401230 IEM_DS3505
ZBAA,1996-02-20 02:00,ZBAA 200200Z AUTO 32016KT 7SM M03/M23 A3086 RMK SLP461 T10301230 IEM_DS3505
ZBAA,1996-02-20 03:00,ZBAA 200300Z AUTO 02010KT 16SM M02/M26 A3083 RMK SLP457 T10191257 52003 IEM_DS3505
ZBAA,1996-02-20 04:00,ZBAA 200400Z AUTO 32014KT 7SM M01/M23 A3083 RMK SLP451 T10101230 IEM_DS3505
ZBAA,1996-02-20 05:00,ZBAA 200500Z AUTO 35012G21KT 7SM 00/M22 A3077 RMK SLP430 T00001220 IEM_DS3505
ZBAA,1996-02-20 06:00,ZBAA 200600Z AUTO 32012KT 17SM 00/ A3074 RMK SLP424 57033 IEM_DS3505
ZBAA,1996-02-20 07:00,ZBAA 200700Z AUTO 01010KT 7SM 02/M21 A3071 RMK SLP409 T00201210 IEM_DS3505
ZBAA,1996-02-20 08:00,ZBAA 200800Z AUTO 03008KT 7SM 02/M21 A3068 RMK SLP398 T00201210 IEM_DS3505
ZBAA,1996-02-20 09:00,ZBAA 200900Z AUTO 34008KT 19SM 01/M29 A3068 RMK SLP403 T00131293 57020 IEM_DS3505
ZBAA,1996-02-20 10:00,ZBAA 201000Z AUTO ////02KT 7SM M01/M24 A3068 RMK SLP399 T10101240 IEM_DS3505
ZBAA,1996-02-20 11:00,ZBAA 201100Z AUTO ////02KT 7SM M01/M24 A3071 RMK SLP409 T10101240 IEM_DS3505
ZBAA,1996-02-20 12:00,ZBAA 201200Z AUTO 32004KT 16SM M03/M23 A3071 RMK SLP409 T10271229 52005 IEM_DS3505
ZBAA,1996-02-20 13:00,ZBAA 201300Z AUTO ////02KT 7SM M01/M23 A3074 RMK SLP420 T10101230 IEM_DS3505
ZBAA,1996-02-20 14:00,ZBAA 201400Z AUTO 33006KT 7SM M02/M24 A3074 RMK SLP421 T10201240 IEM_DS3505
ZBAA,1996-02-20 15:00,ZBAA 201500Z AUTO 02006KT 19SM M02/M29 A3074 RMK SLP422 T10221290 52013 IEM_DS3505
ZBAA,1996-02-20 18:00,ZBAA 201800Z AUTO 02004KT 12SM M04/M23 A3075 RMK SLP422 T10381229 52001 IEM_DS3505
ZBAA,1996-02-20 20:00,ZBAA 202000Z AUTO 31010KT 7SM M05/M24 A3071 RMK SLP410 T10501240 IEM_DS3505
ZBAA,1996-02-20 21:00,ZBAA 202100Z AUTO 02004KT 12SM M04/M26 A3071 RMK SLP414 T10431263 57008 IEM_DS3505
ZBAA,1996-02-20 22:00,ZBAA 202200Z AUTO 30006KT 7SM M06/M23 A3071 RMK SLP411 T10601230 IEM_DS3505
ZBAA,1996-02-20 23:00,ZBAA 202300Z AUTO 36006KT 7SM M06/M24 A3071 RMK SLP411 T10601240 IEM_DS3505
ZBAA,1996-02-21 00:00,ZBAA 210000Z AUTO 00000KT 16SM M06/M21 A3071 RMK SLP414 T10551210 57001 IEM_DS3505
ZBAA,1996-02-21 01:00,ZBAA 210100Z AUTO ////02KT 7SM M02/M21 A3071 RMK SLP410 T10201210 IEM_DS3505
ZBAA,1996-02-21 02:00,ZBAA 210200Z AUTO 31010KT 7SM 00/M22 A3071 RMK SLP409 T00001220 IEM_DS3505
ZBAA,1996-02-21 03:00,ZBAA 210300Z AUTO 07004KT 19SM 02/M24 A3068 RMK SLP401 T00191241 57012 IEM_DS3505
ZBAA,1996-02-21 04:00,ZBAA 210400Z AUTO 30012KT 7SM 02/M21 A3062 RMK SLP378 T00201210 IEM_DS3505
ZBAA,1996-02-21 05:00,ZBAA 210500Z AUTO 31012KT 7SM 03/M20 A3059 RMK SLP368 T00301200 IEM_DS3505
ZBAA,1996-02-21 06:00,ZBAA 210600Z AUTO 20006KT 19SM 04/M23 A3056 RMK SLP364 T00431229 57037 IEM_DS3505
ZBAA,1996-02-21 07:00,ZBAA 210700Z AUTO 28014KT 7SM 05/M19 A3053 RMK SLP347 T00501190 IEM_DS3505
ZBAA,1996-02-21 08:00,ZBAA 210800Z AUTO 27010KT 7SM 05/M19 A3050 RMK SLP337 T00501190 IEM_DS3505
ZBAA,1996-02-21 09:00,ZBAA 210900Z AUTO 20008KT 17SM 04/M26 A3050 RMK SLP343 T00371259 57021 IEM_DS3505
ZBAA,1996-02-21 10:00,ZBAA 211000Z AUTO 29008KT 7SM 03/M22 A3050 RMK SLP338 T00301220 IEM_DS3505
ZBAA,1996-02-21 11:00,ZBAA 211100Z AUTO ////04KT 6SM 01/M23 A3050 RMK SLP338 T00101230 IEM_DS3505
ZBAA,1996-02-21 12:00,ZBAA 211200Z AUTO 22006KT 16SM 01/M23 A3050 RMK SLP345 T00111230 52002 IEM_DS3505
ZBAA,1996-02-21 13:00,ZBAA 211300Z AUTO 26006KT 7SM 00/M22 A3050 RMK SLP339 T00001220 IEM_DS3505
ZBAA,1996-02-21 14:00,ZBAA 211400Z AUTO ////04KT 7SM 00/M22 A3050 RMK SLP339 T00001220 IEM_DS3505
ZBAA,1996-02-21 15:00,ZBAA 211500Z AUTO 16004KT 12SM M01/M21 A3050 RMK SLP345 T10091212 52001 IEM_DS3505
ZBAA,1996-02-21 16:00,ZBAA 211600Z AUTO ////02KT 7SM M03/M21 A3050 RMK SLP339 T10301210 IEM_DS3505
ZBAA,1996-02-21 18:00,ZBAA 211800Z AUTO 00000KT 7SM M04/M18 A3051 RMK SLP342 T10431178 57004 IEM_DS3505
ZBAA,1996-02-21 20:00,ZBAA 212000Z AUTO 32008KT 7SM M04/M20 A3047 RMK SLP330 T10401200 IEM_DS3505
ZBAA,1996-02-21 21:00,ZBAA 212100Z AUTO 02002KT 9SM M05/M20 A3047 RMK SLP334 T10491203 57008 IEM_DS3505
ZBAA,1996-02-21 22:00,ZBAA 212200Z AUTO 32010KT 7SM M02/M21 A3047 RMK SLP329 T10201210 IEM_DS3505
ZBAA,1996-02-21 23:00,ZBAA 212300Z AUTO 31012KT 7SM M02/M22 A3050 RMK SLP339 T10201220 IEM_DS3505
ZBAA,1996-02-22 00:00,ZBAA 220000Z AUTO 00000KT 12SM M04/M21 A3050 RMK SLP346 T10371212 52012 IEM_DS3505
ZBAA,1996-02-22 01:00,ZBAA 220100Z AUTO 31014KT 7SM 01/M21 A3050 RMK SLP338 T00101210 IEM_DS3505
ZBAA,1996-02-22 02:00,ZBAA 220200Z AUTO 31014KT 7SM 03/M20 A3050 RMK SLP338 T00301200 IEM_DS3505
ZBAA,1996-02-22 03:00,ZBAA 220300Z AUTO 34004KT 12SM 04/M17 A3050 RMK SLP342 T00381173 57003 IEM_DS3505
ZBAA,1996-02-22 04:00,ZBAA 220400Z AUTO 29012KT 7SM 05/M18 A3047 RMK SLP327 T00501180 IEM_DS3505
ZBAA,1996-02-22 05:00,ZBAA 220500Z AUTO 30012KT 7SM 06/M18 A3045 RMK SLP320 T00601180 IEM_DS3505
ZBAA,1996-02-22 06:00,ZBAA 220600Z AUTO 02010KT 12SM 07/M24 A3042 RMK SLP313 T00671237 57029 IEM_DS3505
ZBAA,1996-02-22 07:00,ZBAA 220700Z AUTO 30012KT 7SM 07/M17 A3039 RMK SLP300 T00701170 IEM_DS3505
ZBAA,1996-02-22 08:00,ZBAA 220800Z AUTO 28010KT 7SM 07/M17 A3039 RMK SLP300 T00701170 IEM_DS3505
ZBAA,1996-02-22 09:00,ZBAA 220900Z AUTO 27006KT 11SM 07/ A3039 RMK SLP307 57006 IEM_DS3505
ZBAA,1996-02-22 10:00,ZBAA 221000Z AUTO 27006KT 7SM 05/M20 A3042 RMK SLP310 T00501200 IEM_DS3505
ZBAA,1996-02-22 11:00,ZBAA 221100Z AUTO 26006KT 7SM 03/M20 A3042 RMK SLP311 T00301200 IEM_DS3505
ZBAA,1996-02-22 12:00,ZBAA 221200Z AUTO 25006KT 12SM 03/M18 A3042 RMK SLP317 T00331184 52010 IEM_DS3505
ZBAA,1996-02-22 13:00,ZBAA 221300Z AUTO ////04KT 7SM 01/M20 A3045 RMK SLP321 T00101200 IEM_DS3505
ZBAA,1996-02-22 14:00,ZBAA 221400Z AUTO 29006KT 7SM 01/M18 A3045 RMK SLP321 T00101180 IEM_DS3505
ZBAA,1996-02-22 15:00,ZBAA 221500Z AUTO 34002KT 12SM M02/M22 A3045 RMK SLP323 T10151221 52006 IEM_DS3505
ZBAA,1996-02-22 18:00,ZBAA 221800Z AUTO 07004KT 16SM 00/M18 A3047 RMK SLP328 T00021182 52005 IEM_DS3505
ZBAA,1996-02-22 20:00,ZBAA 222000Z AUTO ////02KT 7SM M05/M18 A3047 RMK SLP330 T10501180 IEM_DS3505
ZBAA,1996-02-22 21:00,ZBAA 222100Z AUTO 02006KT 11SM M03/M23 A3047 RMK SLP330 T10291227 52002 IEM_DS3505
ZBAA,1996-02-22 22:00,ZBAA 222200Z AUTO ////02KT 7SM M05/M19 A3047 RMK SLP330 T10501190 IEM_DS3505
ZBAA,1996-02-22 23:00,ZBAA 222300Z AUTO ////04KT 7SM M03/M20 A3047 RMK SLP329 T10301200 IEM_DS3505
ZBAA,1996-02-23 00:00,ZBAA 230000Z AUTO 02004KT 11SM M01/M24 A3050 RMK SLP342 T10071244 52012 IEM_DS3505
ZBAA,1996-02-23 01:00,ZBAA 230100Z AUTO ////04KT 7SM 00/M18 A3050 RMK SLP339 T00001180 IEM_DS3505
ZBAA,1996-02-23 02:00,ZBAA 230200Z AUTO ////04KT 7SM 03/M17 A3050 RMK SLP338 T00301170 IEM_DS3505
ZBAA,1996-02-23 03:00,ZBAA 230300Z AUTO 34002KT 12SM 05/M20 A3050 RMK SLP339 T00491202 57003 IEM_DS3505
ZBAA,1996-02-23 04:00,ZBAA 230400Z AUTO 06006KT 7SM 05/M17 A3047 RMK SLP327 T00501170 IEM_DS3505
ZBAA,1996-02-23 05:00,ZBAA 230500Z AUTO ////04KT 7SM 06/M16 A3045 RMK SLP320 T00601160 IEM_DS3505
ZBAA,1996-02-23 06:00,ZBAA 230600Z AUTO 00000KT 16SM 08/ A3042 RMK SLP308 57030 IEM_DS3505
ZBAA,1996-02-23 07:00,ZBAA 230700Z AUTO ////02KT 7SM 08/M15 A3039 RMK SLP299 T00801150 IEM_DS3505
ZBAA,1996-02-23 08:00,ZBAA 230800Z AUTO ////02KT 7SM 08/M16 A3039 RMK SLP299 T00801160 IEM_DS3505
ZBAA,1996-02-23 09:00,ZBAA 230900Z AUTO 18008KT 16SM 07/M25 A3036 RMK SLP298 T00731250 57011 IEM_DS3505
ZBAA,1996-02-23 10:00,ZBAA 231000Z AUTO ////02KT 6SM 05/M21 A3039 RMK SLP300 T00501210 IEM_DS3505
ZBAA,1996-02-23 11:00,ZBAA 231100Z AUTO ////04KT 7SM 04/M22 A3039 RMK SLP300 T00401220 IEM_DS3505
ZBAA,1996-02-23 12:00,ZBAA 231200Z AUTO 20008KT 12SM 05/M25 A3042 RMK SLP305 T00481246 52007 IEM_DS3505
ZBAA,1996-02-23 13:00,ZBAA 231300Z AUTO ////02KT 7SM 03/M22 A3042 RMK SLP311 T00301220 IEM_DS3505
ZBAA,1996-02-23 14:00,ZBAA 231400Z AUTO ////02KT 7SM 00/M19 A3042 RMK SLP311 T00001190 IEM_DS3505
ZBAA,1996-02-23 15:00,ZBAA 231500Z AUTO 20004KT 12SM 02/M16 A3042 RMK SLP305 T00241164 52001 IEM_DS3505
ZBAA,1996-02-23 16:00,ZBAA 231600Z AUTO 00000KT 7SM M01/M18 A3042 RMK SLP312 T10101180 IEM_DS3505
ZBAA,1996-02-23 17:00,ZBAA 231700Z AUTO ////02KT 7SM M02/M19 A3042 RMK SLP312 T10201190 IEM_DS3505
ZBAA,1996-02-23 18:00,ZBAA 231800Z AUTO 02004KT 9SM M01/M15 A3042 RMK SLP303 T10141154 57002 IEM_DS3505
ZBAA,1996-02-23 19:00,ZBAA 231900Z AUTO ////02KT 7SM M06/M15 A3039 RMK SLP303 T10601150 IEM_DS3505
ZBAA,1996-02-23 20:00,ZBAA 232000Z AUTO ////02KT 7SM M05/M12 A3039 RMK SLP303 T10501120 IEM_DS3505
ZBAA,1996-02-23 21:00,ZBAA 232100Z AUTO 09004KT 9SM M03/M18 A3039 RMK SLP299 T10331180 57005 IEM_DS3505
ZBAA,1996-02-23 22:00,ZBAA 232200Z AUTO ////02KT 7SM M06/M11 A3039 RMK SLP303 T10601110 IEM_DS3505
ZBAA,1996-02-23 23:00,ZBAA 232300Z AUTO 00000KT 6SM M05/M10 A3042 RMK SLP313 T10501100 IEM_DS3505
ZBAA,1996-02-24 00:00,ZBAA 240000Z AUTO 07004KT 5SM M04/M13 A3042 RMK SLP312 T10351126 52013 IEM_DS3505
ZBAA,1996-02-24 01:00,ZBAA 240100Z AUTO 00000KT 5SM M02/M09 A3042 RMK SLP312 T10201090 IEM_DS3505
ZBAA,1996-02-24 02:00,ZBAA 240200Z AUTO ////04KT 5SM M01/M09 A3042 RMK SLP312 T10101090 IEM_DS3505
ZBAA,1996-02-24 03:00,ZBAA 240300Z AUTO 36008KT 7SM 01/M11 A3042 RMK SLP309 T00061108 57003 IEM_DS3505
ZBAA,1996-02-24 04:00,ZBAA 240400Z AUTO ////02KT 6SM 02/M10 A3039 RMK SLP301 T00201100 IEM_DS3505
ZBAA,1996-02-24 05:00,ZBAA 240500Z AUTO ////04KT 6SM 04/M09 A3036 RMK SLP289 T00401090 IEM_DS3505
ZBAA,1996-02-24 06:00,ZBAA 240600Z AUTO 11004KT 4SM 05/M13 A3030 RMK SLP277 T00461130 57032 IEM_DS3505
ZBAA,1996-02-24 07:00,ZBAA 240700Z AUTO ////04KT 6SM 05/M10 A3030 RMK SLP269 T00501100 IEM_DS3505
ZBAA,1996-02-24 08:00,ZBAA 240800Z AUTO 18006KT 6SM 06/M09 A3027 RMK SLP259 T00601090 IEM_DS3505
ZBAA,1996-02-24 09:00,ZBAA 240900Z AUTO 20006KT 5SM 05/M12 A3027 RMK SLP266 T00521116 57011 IEM_DS3505
ZBAA,1996-02-24 10:00,ZBAA 241000Z AUTO ////04KT 4SM 04/M08 A3027 RMK SLP259 T00401080 IEM_DS3505
ZBAA,1996-02-24 11:00,ZBAA 241100Z AUTO ////02KT 4SM 02/M08 A3030 RMK SLP270 T00201080 IEM_DS3505
ZBAA,1996-02-24 12:00,ZBAA 241200Z AUTO 20006KT 5SM 03/M09 A3030 RMK SLP274 T00291089 52008 IEM_DS3505
ZBAA,1996-02-24 13:00,ZBAA 241300Z AUTO 00000KT 5SM 02/M08 A3030 RMK SLP270 T00201080 IEM_DS3505
ZBAA,1996-02-24 14:00,ZBAA 241400Z AUTO 00000KT 5SM M01/M09 A3030 RMK SLP270 T10101090 IEM_DS3505
ZBAA,1996-02-24 15:00,ZBAA 241500Z AUTO 00000KT 4SM M01/M09 A3030 RMK SLP274 T10121086 54000 IEM_DS3505
ZBAA,1996-02-24 18:00,ZBAA 241800Z AUTO 04004KT 3SM M01/M10 A3030 RMK SLP269 T10121100 57005 IEM_DS3505
ZBAA,1996-02-24 20:00,ZBAA 242000Z AUTO 00000KT 4SM M05/M11 A3027 RMK SLP261 T10501110 IEM_DS3505
ZBAA,1996-02-24 21:00,ZBAA 242100Z AUTO 02002KT 6SM M05/M12 A3027 RMK SLP259 T10471122 57010 IEM_DS3505
ZBAA,1996-02-24 22:00,ZBAA 242200Z AUTO ////02KT 4SM M05/M11 A3027 RMK SLP261 T10501110 IEM_DS3505
ZBAA,1996-02-24 23:00,ZBAA 242300Z AUTO 00000KT 3SM M05/M10 A3027 RMK SLP261 T10501100 IEM_DS3505
ZBAA,1996-02-25 00:00,ZBAA 250000Z AUTO 00000KT 4SM M05/M10 A3027 RMK SLP264 T10491097 52005 IEM_DS3505
ZBAA,1996-02-25 01:00,ZBAA 250100Z AUTO 35006KT 3SM M02/M09 A3027 RMK SLP261 T10201090 IEM_DS3505
ZBAA,1996-02-25 02:00,ZBAA 250200Z AUTO ////04KT 4SM 02/M09 A3027 RMK SLP260 T00201090 IEM_DS3505
ZBAA,1996-02-25 03:00,ZBAA 250300Z AUTO 02002KT 6SM 07/M17 A3024 RMK SLP254 T00711169 57009 IEM_DS3505
ZBAA,1996-02-25 04:00,ZBAA 250400Z AUTO 29006KT 7SM 08/M15 A3021 RMK SLP238 T00801150 IEM_DS3505
ZBAA,1996-02-25 05:00,ZBAA 250500Z AUTO 28008KT 7SM 10/M15 A3018 RMK SLP227 T01001150 IEM_DS3505
ZBAA,1996-02-25 06:00,ZBAA 250600Z AUTO 22010KT 6SM 10/ A3015 RMK SLP223 57031 IEM_DS3505
ZBAA,1996-02-25 07:00,ZBAA 250700Z AUTO 24010KT 7SM 11/M15 A3012 RMK SLP207 T01101150 IEM_DS3505
ZBAA,1996-02-25 08:00,ZBAA 250800Z AUTO 23010KT 7SM 10/M16 A3009 RMK SLP196 T01001160 IEM_DS3505
ZBAA,1996-02-25 09:00,ZBAA 250900Z AUTO 20006KT 6SM 10/M24 A3009 RMK SLP203 T00971244 57020 IEM_DS3505
ZBAA,1996-02-25 10:00,ZBAA 251000Z AUTO 20006KT 7SM 07/M18 A3009 RMK SLP197 T00701180 IEM_DS3505
ZBAA,1996-02-25 11:00,ZBAA 251100Z AUTO 20006KT 7SM 05/M17 A3006 RMK SLP187 T00501170 IEM_DS3505
ZBAA,1996-02-25 12:00,ZBAA 251200Z AUTO 20008KT 6SM 07/M21 A3006 RMK SLP194 T00661208 57009 IEM_DS3505
ZBAA,1996-02-25 13:00,ZBAA 251300Z AUTO 19008KT 7SM 04/M18 A3006 RMK SLP188 T00401180 IEM_DS3505
ZBAA,1996-02-25 14:00,ZBAA 251400Z AUTO 21008KT 7SM 03/M18 A3006 RMK SLP188 T00301180 IEM_DS3505
ZBAA,1996-02-25 15:00,ZBAA 251500Z AUTO 32017KT 7SM 06/M33 A3009 RMK SLP198 T00621333 52005 IEM_DS3505
ZBAA,1996-02-25 18:00,ZBAA 251800Z AUTO 34016KT 12SM 00/M33 A3024 RMK SLP249 T00001326 40108//// 52050 IEM_DS3505
ZBAA,1996-02-25 20:00,ZBAA 252000Z AUTO 33025G35KT 7SM M05/M27 A3027 RMK SLP261 T10501270 IEM_DS3505
ZBAA,1996-02-25 21:00,ZBAA 252100Z AUTO 36010KT 12SM M05/M30 A3030 RMK SLP270 T10511296 52021 IEM_DS3505
ZBAA,1996-02-25 22:00,ZBAA 252200Z AUTO 34027G39KT 7SM M06/M28 A3030 RMK SLP272 T10601280 IEM_DS3505
ZBAA,1996-02-25 23:00,ZBAA 252300Z AUTO 33021KT 7SM M06/M28 A3033 RMK SLP282 T10601280 IEM_DS3505
ZBAA,1996-02-26 00:00,ZBAA 260000Z AUTO 34012KT 19SM M06/M28 A3036 RMK SLP285 T10571285 52014 IEM_DS3505
ZBAA,1996-02-26 01:00,ZBAA 260100Z AUTO 32023G33KT 7SM M05/M26 A3033 RMK SLP281 T10501260 IEM_DS3505
ZBAA,1996-02-26 02:00,ZBAA 260200Z AUTO 32017KT 7SM M01/M24 A3036 RMK SLP290 T10101240 IEM_DS3505
ZBAA,1996-02-26 03:00,ZBAA 260300Z AUTO 34012KT 19SM M02/ A3036 RMK SLP290 52005 IEM_DS3505
ZBAA,1996-02-26 04:00,ZBAA 260400Z AUTO 30017KT 7SM 01/M22 A3033 RMK SLP280 T00101220 IEM_DS3505
ZBAA,1996-02-26 05:00,ZBAA 260500Z AUTO 31017KT 7SM 03/M22 A3030 RMK SLP269 T00301220 IEM_DS3505
ZBAA,1996-02-26 06:00,ZBAA 260600Z AUTO 32016G27KT 19SM 02/ A3027 RMK SLP275 4////1061 57015 IEM_DS3505
ZBAA,1996-02-26 07:00,ZBAA 260700Z AUTO 29019KT 7SM 05/M21 A3027 RMK SLP259 T00501210 IEM_DS3505
ZBAA,1996-02-26 08:00,ZBAA 260800Z AUTO 29017KT 7SM 05/M21 A3027 RMK SLP259 T00501210 IEM_DS3505
ZBAA,1996-02-26 09:00,ZBAA 260900Z AUTO 34006KT 19SM 03/M29 A3027 RMK SLP267 T00341294 57008 IEM_DS3505
ZBAA,1996-02-26 10:00,ZBAA 261000Z AUTO 30012KT 7SM 03/M23 A3027 RMK SLP259 T00301230 IEM_DS3505
ZBAA,1996-02-26 11:00,ZBAA 261100Z AUTO 33014KT 7SM 02/M24 A3030 RMK SLP270 T00201240 IEM_DS3505
ZBAA,1996-02-26 12:00,ZBAA 261200Z AUTO 34008KT 12SM 00/M29 A3033 RMK SLP288 T00051293 52020 IEM_DS3505
ZBAA,1996-02-26 13:00,ZBAA 261300Z AUTO 33025KT 7SM 01/M25 A3033 RMK SLP280 T00101250 IEM_DS3505
ZBAA,1996-02-26 14:00,ZBAA 261400Z AUTO 32010KT 7SM 00/M26 A3039 RMK SLP301 T00001260 IEM_DS3505
ZBAA,1996-02-26 15:00,ZBAA 261500Z AUTO 34006KT 19SM M01/M29 A3039 RMK SLP302 T10121290 52014 IEM_DS3505
ZBAA,1996-02-26 18:00,ZBAA 261800Z AUTO 02006KT 19SM M03/M27 A3038 RMK SLP298 T10341270 57003 IEM_DS3505
ZBAA,1996-02-26 20:00,ZBAA 262000Z AUTO 31010KT 7SM M02/M25 A3036 RMK SLP291 T10201250 IEM_DS3505
ZBAA,1996-02-26 21:00,ZBAA 262100Z AUTO 04004KT 19SM M04/M26 A3036 RMK SLP288 T10351257 57010 IEM_DS3505
ZBAA,1996-02-26 22:00,ZBAA 262200Z AUTO 32014KT 7SM M01/M23 A3036 RMK SLP290 T10101230 IEM_DS3505
ZBAA,1996-02-26 23:00,ZBAA 262300Z AUTO 03006KT 7SM M01/M23 A3036 RMK SLP290 T10101230 IEM_DS3505
ZBAA,1996-02-27 00:00,ZBAA 270000Z AUTO 22002KT 7SM M03/M21 A3039 RMK SLP302 T10271214 52013 IEM_DS3505
ZBAA,1996-02-27 01:00,ZBAA 270100Z AUTO ////02KT 7SM 00/M19 A3039 RMK SLP301 T00001190 IEM_DS3505
ZBAA,1996-02-27 02:00,ZBAA 270200Z AUTO ////02KT 7SM 02/M18 A3039 RMK SLP301 T00201180 IEM_DS3505
ZBAA,1996-02-27 03:00,ZBAA 270300Z AUTO 20006KT 7SM 02/ A3036 RMK SLP293 57008 IEM_DS3505
ZBAA,1996-02-27 04:00,ZBAA 270400Z AUTO 25006KT 7SM 04/M18 A3033 RMK SLP279 T00401180 IEM_DS3505
ZBAA,1996-02-27 05:00,ZBAA 270500Z AUTO ////04KT 7SM 06/M18 A3030 RMK SLP269 T00601180 IEM_DS3505
ZBAA,1996-02-27 06:00,ZBAA 270600Z AUTO 16008KT 9SM 07/M26 A3024 RMK SLP258 T00661256 57035 IEM_DS3505
ZBAA,1996-02-27 07:00,ZBAA 270700Z AUTO 20006KT 7SM 07/ A3024 RMK SLP248 IEM_DS3505
ZBAA,1996-02-27 08:00,ZBAA 270800Z AUTO 20010KT 7SM 07/M17 A3021 RMK SLP238 T00701170 IEM_DS3505
ZBAA,1996-02-27 09:00,ZBAA 270900Z AUTO 20010KT 9SM 07/M28 A3018 RMK SLP234 T00681280 57023 IEM_DS3505
ZBAA,1996-02-27 10:00,ZBAA 271000Z AUTO 19006KT 7SM 05/M21 A3018 RMK SLP229 T00501210 IEM_DS3505
ZBAA,1996-02-27 11:00,ZBAA 271100Z AUTO ////02KT 7SM 04/M21 A3018 RMK SLP229 T00401210 IEM_DS3505
ZBAA,1996-02-27 12:00,ZBAA 271200Z AUTO 20008KT 12SM 04/M28 A3018 RMK SLP230 T00421277 57005 IEM_DS3505
ZBAA,1996-02-27 13:00,ZBAA 271300Z AUTO 16006KT 7SM 03/M21 A3018 RMK SLP229 T00301210 IEM_DS3505
ZBAA,1996-02-27 14:00,ZBAA 271400Z AUTO 16006KT 7SM 01/M21 A3018 RMK SLP230 T00101210 IEM_DS3505
ZBAA,1996-02-27 15:00,ZBAA 271500Z AUTO 20006KT 12SM 02/M24 A3018 RMK SLP229 T00181237 54000 IEM_DS3505
ZBAA,1996-02-27 16:00,ZBAA 271600Z AUTO 00000KT 7SM M02/M20 A3018 RMK SLP230 T10201200 IEM_DS3505
ZBAA,1996-02-27 18:00,ZBAA 271800Z AUTO 18002KT 7SM M01/M20 A3018 RMK SLP229 T10071195 54000 IEM_DS3505
ZBAA,1996-02-27 20:00,ZBAA 272000Z AUTO 00000KT 7SM M05/M18 A3015 RMK SLP221 T10501180 IEM_DS3505
ZBAA,1996-02-27 21:00,ZBAA 272100Z AUTO 04004KT 6SM M02/M18 A3015 RMK SLP222 T10211185 57007 IEM_DS3505
ZBAA,1996-02-27 22:00,ZBAA 272200Z AUTO ////02KT 7SM M06/M17 A3015 RMK SLP221 T10601170 IEM_DS3505
ZBAA,1996-02-27 23:00,ZBAA 272300Z AUTO ////02KT 7SM M05/M17 A3015 RMK SLP221 T10501170 IEM_DS3505
ZBAA,1996-02-28 00:00,ZBAA 280000Z AUTO 02002KT 4SM M04/M17 A3018 RMK SLP226 T10351167 52003 IEM_DS3505
ZBAA,1996-02-28 01:00,ZBAA 280100Z AUTO ////04KT 5SM M02/M16 A3018 RMK SLP230 T10201160 IEM_DS3505
ZBAA,1996-02-28 02:00,ZBAA 280200Z AUTO ////02KT 6SM 00/M15 A3015 RMK SLP220 T00001150 IEM_DS3505
ZBAA,1996-02-28 03:00,ZBAA 280300Z AUTO 07004KT 4SM 04/M19 A3015 RMK SLP216 T00391186 57009 IEM_DS3505
ZBAA,1996-02-28 04:00,ZBAA 280400Z AUTO ////04KT 6SM 05/M14 A3012 RMK SLP208 T00501140 IEM_DS3505
ZBAA,1996-02-28 05:00,ZBAA 280500Z AUTO ////04KT 6SM 08/M14 A3006 RMK SLP187 T00801140 IEM_DS3505
ZBAA,1996-02-28 06:00,ZBAA 280600Z AUTO 20006KT 5SM 09/M19 A3006 RMK SLP185 T00861191 57030 IEM_DS3505
ZBAA,1996-02-28 07:00,ZBAA 280700Z AUTO 17006KT 6SM 10/M13 A3000 RMK SLP166 T01001130 IEM_DS3505
ZBAA,1996-02-28 08:00,ZBAA 280800Z AUTO ////04KT 6SM 09/M14 A2997 RMK SLP156 T00901140 IEM_DS3505
ZBAA,1996-02-28 09:00,ZBAA 280900Z AUTO 18006KT 5SM 09/M18 A3000 RMK SLP165 T00881182 57020 IEM_DS3505
ZBAA,1996-02-28 10:00,ZBAA 281000Z AUTO ////04KT 5SM 08/M14 A3000 RMK SLP166 T00801140 IEM_DS3505
ZBAA,1996-02-28 11:00,ZBAA 281100Z AUTO 00000KT 5SM 06/M14 A3000 RMK SLP167 T00601140 IEM_DS3505
ZBAA,1996-02-28 12:00,ZBAA 281200Z AUTO 18004KT 6SM 07/M15 A3000 RMK SLP169 T00691147 52003 IEM_DS3505
ZBAA,1996-02-28 13:00,ZBAA 281300Z AUTO 00000KT 5SM 04/M14 A3000 RMK SLP167 T00401140 IEM_DS3505
ZBAA,1996-02-28 14:00,ZBAA 281400Z AUTO 00000KT 5SM 02/M13 A3003 RMK SLP178 T00201130 IEM_DS3505
ZBAA,1996-02-28 15:00,ZBAA 281500Z AUTO 02010KT 6SM 04/M15 A3003 RMK SLP175 T00411148 52007 IEM_DS3505
ZBAA,1996-02-28 16:00,ZBAA 281600Z AUTO ////04KT 5SM 02/M12 A3003 RMK SLP178 T00201120 IEM_DS3505
ZBAA,1996-02-28 18:00,ZBAA 281800Z AUTO 04006KT 6SM 01/M12 A3003 RMK SLP176 T00061124 52001 IEM_DS3505
ZBAA,1996-02-28 20:00,ZBAA 282000Z AUTO ////04KT 5SM 00/M14 A3003 RMK SLP178 T00001140 IEM_DS3505
ZBAA,1996-02-28 21:00,ZBAA 282100Z AUTO 02004KT 6SM 03/M19 A3003 RMK SLP182 T00341193 52006 IEM_DS3505
ZBAA,1996-02-28 22:00,ZBAA 282200Z AUTO 35006KT 7SM 01/M16 A3006 RMK SLP188 T00101160 IEM_DS3505
ZBAA,1996-02-28 23:00,ZBAA 282300Z AUTO 02006KT 7SM 01/M17 A3009 RMK SLP198 T00101170 IEM_DS3505
ZBAA,1996-02-29 00:00,ZBAA 290000Z AUTO 02008KT 19SM 04/M18 A3012 RMK SLP208 T00401177 52026 IEM_DS3505
ZBAA,1996-02-29 01:00,ZBAA 290100Z AUTO 02006KT 7SM 04/M16 A3015 RMK SLP219 T00401160 IEM_DS3505
ZBAA,1996-02-29 02:00,ZBAA 290200Z AUTO 03008KT 7SM 06/M14 A3015 RMK SLP218 T00601140 IEM_DS3505
ZBAA,1996-02-29 03:00,ZBAA 290300Z AUTO 34010KT 19SM 08/M23 A3015 RMK SLP226 T00811230 52018 IEM_DS3505
ZBAA,1996-02-29 04:00,ZBAA 290400Z AUTO 29017KT 6SM 08/M16 A3015 RMK SLP218 T00801160 IEM_DS3505
ZBAA,1996-02-29 05:00,ZBAA 290500Z AUTO 33023KT 6SM 07/M14 A3018 RMK SLP228 T00701140 IEM_DS3505
ZBAA,1996-02-29 06:00,ZBAA 290600Z AUTO 34014G31KT 7SM 07/ A3018 RMK SLP237 52010 IEM_DS3505
ZBAA,1996-02-29 07:00,ZBAA 290700Z AUTO 32025G37KT 6SM 06/M18 A3018 RMK SLP228 T00601180 IEM_DS3505
ZBAA,1996-02-29 08:00,ZBAA 290800Z AUTO 32025KT 6SM 05/M19 A3024 RMK SLP249 T00501190 IEM_DS3505
ZBAA,1996-02-29 09:00,ZBAA 290900Z AUTO 02008G35KT 12SM 04/M23 A3027 RMK SLP262 T00411228 52025 IEM_DS3505
ZBAA,1996-02-29 10:00,ZBAA 291000Z AUTO 32019G29KT 7SM 02/M22 A3033 RMK SLP280 T00201220 IEM_DS3505
ZBAA,1996-02-29 11:00,ZBAA 291100Z AUTO 32017KT 7SM 01/M22 A3036 RMK SLP290 T00101220 IEM_DS3505
ZBAA,1996-02-29 12:00,ZBAA 291200Z AUTO 36010KT 19SM 01/M25 A3039 RMK SLP296 T00101253 52033 IEM_DS3505
ZBAA,1996-02-29 13:00,ZBAA 291300Z AUTO 33014KT 7SM 00/M23 A3042 RMK SLP311 T00001230 IEM_DS3505
ZBAA,1996-02-29 14:00,ZBAA 291400Z AUTO 34021KT 7SM 00/M24 A3042 RMK SLP311 T00001240 IEM_DS3505
ZBAA,1996-02-29 15:00,ZBAA 291500Z AUTO 34008KT 19SM M00/M24 A3042 RMK SLP307 T10031245 52012 IEM_DS3505
ZBAA,1996-02-29 18:00,ZBAA 291800Z AUTO 00000KT 19SM M02/M20 A3039 RMK SLP299 T10161203 57009 IEM_DS3505
ZBAA,1996-02-29 20:00,ZBAA 292000Z AUTO 32010KT 7SM M01/M25 A3033 RMK SLP280 T10101250 IEM_DS3505
ZBAA,1996-02-29 21:00,ZBAA 292100Z AUTO 07004KT 12SM M01/M22 A3033 RMK SLP287 T10131215 57012 IEM_DS3505
ZBAA,1996-02-29 22:00,ZBAA 292200Z AUTO 32010KT 7SM M02/M25 A3033 RMK SLP281 T10201250 IEM_DS3505
ZBAA,1996-02-29 23:00,ZBAA 292300Z AUTO 33010KT 7SM M01/M24 A3033 RMK SLP280 T10101240 IEM_DS3505
ZBAA,1996-03-01 00:00,ZBAA 010000Z AUTO 20006KT 9SM M01/M26 A3033 RMK SLP284 T10131257 57003 IEM_DS3505
ZBAA,1996-03-01 01:00,ZBAA 010100Z AUTO ////02KT 7SM 01/M22 A3033 RMK SLP280 T00101220 IEM_DS3505
ZBAA,1996-03-01 02:00,ZBAA 010200Z AUTO 22008KT 7SM 04/M20 A3030 RMK SLP269 T00401200 IEM_DS3505
ZBAA,1996-03-01 03:00,ZBAA 010300Z AUTO 20006KT 16SM 04/M24 A3027 RMK SLP261 T00411243 57022 IEM_DS3505
ZBAA,1996-03-01 04:00,ZBAA 010400Z AUTO 22008KT 7SM 06/M18 A3021 RMK SLP238 T00601180 IEM_DS3505
ZBAA,1996-03-01 05:00,ZBAA 010500Z AUTO 24010KT 7SM 08/M17 A3018 RMK SLP228 T00801170 IEM_DS3505
ZBAA,1996-03-01 06:00,ZBAA 010600Z AUTO 22010KT 11SM 08/ A3012 RMK SLP217 57044 IEM_DS3505
ZBAA,1996-03-01 07:00,ZBAA 010700Z AUTO 21012KT 7SM 09/M16 A3009 RMK SLP196 T00901160 IEM_DS3505
ZBAA,1996-03-01 08:00,ZBAA 010800Z AUTO 22014KT 7SM 10/M16 A3006 RMK SLP186 T01001160 IEM_DS3505
ZBAA,1996-03-01 09:00,ZBAA 010900Z AUTO 20012KT 11SM 09/ A3003 RMK SLP187 57029 IEM_DS3505
ZBAA,1996-03-01 10:00,ZBAA 011000Z AUTO 23010KT 7SM 08/M19 A3003 RMK SLP176 T00801190 IEM_DS3505
ZBAA,1996-03-01 11:00,ZBAA 011100Z AUTO 23010KT 7SM 07/M19 A3006 RMK SLP187 T00701190 IEM_DS3505
ZBAA,1996-03-01 12:00,ZBAA 011200Z AUTO 25010KT 12SM 08/ A3009 RMK SLP198 52010 IEM_DS3505
ZBAA,1996-03-01 13:00,ZBAA 011300Z AUTO ////04KT 7SM 04/M21 A3012 RMK SLP209 T00401210 IEM_DS3505
ZBAA,1996-03-01 14:00,ZBAA 011400Z AUTO 35006KT 7SM 04/M23 A3012 RMK SLP209 T00401230 IEM_DS3505
ZBAA,1996-03-01 15:00,ZBAA 011500Z AUTO 02006KT 12SM 04/M18 A3015 RMK SLP216 T00431177 52018 IEM_DS3505
ZBAA,1996-03-01 16:00,ZBAA 011600Z AUTO 02006KT 7SM 03/M20 A3015 RMK SLP219 T00301200 IEM_DS3505
ZBAA,1996-03-01 18:00,ZBAA 011800Z AUTO 02008KT 11SM 04/M21 A3019 RMK SLP232 T00411206 52017 IEM_DS3505
ZBAA,1996-03-01 20:00,ZBAA 012000Z AUTO 35008KT 7SM 01/M19 A3021 RMK SLP240 T00101190 IEM_DS3505
ZBAA,1996-03-01 21:00,ZBAA 012100Z AUTO 36006KT 16SM 02/M21 A3021 RMK SLP236 T00251209 52004 IEM_DS3505
ZBAA,1996-03-01 22:00,ZBAA 012200Z AUTO 33010KT 7SM 01/M18 A3021 RMK SLP240 T00101180 IEM_DS3505
ZBAA,1996-03-01 23:00,ZBAA 012300Z AUTO ////04KT 7SM 01/M18 A3024 RMK SLP250 T00101180 IEM_DS3505
ZBAA,1996-03-02 00:00,ZBAA 020000Z AUTO 36006KT 19SM 02/M21 A3027 RMK SLP256 T00211213 52019 IEM_DS3505
ZBAA,1996-03-02 01:00,ZBAA 020100Z AUTO ////04KT 7SM 04/M15 A3027 RMK SLP259 T00401150 IEM_DS3505
ZBAA,1996-03-02 02:00,ZBAA 020200Z AUTO 01006KT 7SM 05/M15 A3027 RMK SLP259 T00501150 IEM_DS3505
ZBAA,1996-03-02 03:00,ZBAA 020300Z AUTO 36014KT 19SM 07/ A3027 RMK SLP257 52001 IEM_DS3505
ZBAA,1996-03-02 04:00,ZBAA 020400Z AUTO ////04KT 7SM 08/M14 A3024 RMK SLP248 T00801140 IEM_DS3505
ZBAA,1996-03-02 05:00,ZBAA 020500Z AUTO ////04KT 7SM 09/M14 A3021 RMK SLP238 T00901140 IEM_DS3505
ZBAA,1996-03-02 06:00,ZBAA 020600Z AUTO 34006KT 19SM 10/M19 A3018 RMK SLP227 T01041193 57029 IEM_DS3505
ZBAA,1996-03-02 07:00,ZBAA 020700Z AUTO ////04KT 7SM 10/M13 A3018 RMK SLP227 T01001130 IEM_DS3505
ZBAA,1996-03-02 08:00,ZBAA 020800Z AUTO ////04KT 7SM 10/M12 A3015 RMK SLP217 T01001120 IEM_DS3505
ZBAA,1996-03-02 09:00,ZBAA 020900Z AUTO 34008KT 19SM 11/M19 A3015 RMK SLP217 T01101188 57010 IEM_DS3505
ZBAA,1996-03-02 10:00,ZBAA 021000Z AUTO 29008KT 7SM 09/M16 A3015 RMK SLP218 T00901160 IEM_DS3505
ZBAA,1996-03-02 11:00,ZBAA 021100Z AUTO 27006KT 7SM 08/M16 A3015 RMK SLP218 T00801160 IEM_DS3505
ZBAA,1996-03-02 12:00,ZBAA 021200Z AUTO 20006KT 12SM 08/M16 A3018 RMK SLP231 T00751164 52013 IEM_DS3505
ZBAA,1996-03-02 13:00,ZBAA 021300Z AUTO 23006KT 7SM 05/M16 A3018 RMK SLP229 T00501160 IEM_DS3505
ZBAA,1996-03-02 14:00,ZBAA 021400Z AUTO 25006KT 7SM 05/M15 A3018 RMK SLP229 T00501150 IEM_DS3505
ZBAA,1996-03-02 15:00,ZBAA 021500Z AUTO 20004KT 12SM 05/M13 A3018 RMK SLP231 T00511131 52001 IEM_DS3505
ZBAA,1996-03-02 16:00,ZBAA 021600Z AUTO ////04KT 7SM 02/M14 A3018 RMK SLP229 T00201140 IEM_DS3505
ZBAA,1996-03-02 17:00,ZBAA 021700Z AUTO ////04KT 7SM 01/M15 A3018 RMK SLP230 T00101150 IEM_DS3505
ZBAA,1996-03-02 18:00,ZBAA 021800Z AUTO 20002KT 6SM 02/M13 A3017 RMK SLP225 T00181132 57006 IEM_DS3505
ZBAA,1996-03-02 21:00,ZBAA 022100Z AUTO 00000KT 6SM M01/M12 A3015 RMK SLP221 T10111120 57004 IEM_DS3505
ZBAA,1996-03-02 22:00,ZBAA 022200Z AUTO 00000KT 7SM M02/M13 A3018 RMK SLP230 T10201130 IEM_DS3505
ZBAA,1996-03-02 23:00,ZBAA 022300Z AUTO 33006KT 7SM M02/M13 A3018 RMK SLP230 T10201130 IEM_DS3505
ZBAA,1996-03-03 00:00,ZBAA 030000Z AUTO 25004KT 5SM 01/M11 A3020 RMK SLP236 T00081110 52014 IEM_DS3505
ZBAA,1996-03-03 01:00,ZBAA 030100Z AUTO 29014KT 12SM A3021 RMK 57018 IEM_DS3505
ZBAA,1996-03-03 02:00,ZBAA 030200Z AUTO 31012KT 7SM 09/M13 A3021 RMK SLP238 T00901130 IEM_DS3505
ZBAA,1996-03-03 03:00,ZBAA 030300Z AUTO 02004KT 12SM 11/M18 A3018 RMK SLP231 T01101178 57004 IEM_DS3505
ZBAA,1996-03-03 04:00,ZBAA 030400Z AUTO 31010KT 7SM 12/M13 A3015 RMK SLP217 T01201130 IEM_DS3505
ZBAA,1996-03-03 05:00,ZBAA 030500Z AUTO 30012KT 7SM 13/M12 A3012 RMK SLP206 T01301120 IEM_DS3505
ZBAA,1996-03-03 06:00,ZBAA 030600Z AUTO 29012KT 9SM 16/M16 A3006 RMK SLP196 T01551164 57034 IEM_DS3505
ZBAA,1996-03-03 07:00,ZBAA 030700Z AUTO 27016KT 7SM 15/M12 A3003 RMK SLP175 T01501120 IEM_DS3505
ZBAA,1996-03-03 08:00,ZBAA 030800Z AUTO 28016KT 7SM 16/M12 A3000 RMK SLP165 T01601120 IEM_DS3505
ZBAA,1996-03-03 09:00,ZBAA 030900Z AUTO 29014KT 12SM 16/ A3000 RMK SLP179 57018 IEM_DS3505
ZBAA,1996-03-03 10:00,ZBAA 031000Z AUTO 27008KT 7SM 14/M15 A3000 RMK SLP165 T01401150 IEM_DS3505
ZBAA,1996-03-03 11:00,ZBAA 031100Z AUTO 30008KT 7SM 13/M16 A3003 RMK SLP175 T01301160 IEM_DS3505
ZBAA,1996-03-03 12:00,ZBAA 031200Z AUTO 34010KT 16SM 13/ A3006 RMK SLP191 52012 IEM_DS3505
ZBAA,1996-03-03 13:00,ZBAA 031300Z AUTO 35008KT 7SM 11/M17 A3009 RMK SLP196 T01101170 IEM_DS3505
ZBAA,1996-03-03 14:00,ZBAA 031400Z AUTO 34010KT 7SM 10/M18 A3012 RMK SLP207 T01001180 IEM_DS3505
ZBAA,1996-03-03 15:00,ZBAA 031500Z AUTO 02004KT 19SM 09/M16 A3012 RMK SLP209 T00931155 52019 IEM_DS3505
ZBAA,1996-03-03 16:00,ZBAA 031600Z AUTO 34008KT 7SM 09/M16 A3012 RMK SLP207 T00901160 IEM_DS3505
ZBAA,1996-03-03 18:00,ZBAA 031800Z AUTO 00000KT 16SM 03/M12 A3015 RMK SLP218 T00331119 52009 IEM_DS3505
ZBAA,1996-03-03 21:00,ZBAA 032100Z AUTO 07006KT 19SM 06/M19 A3024 RMK SLP242 T00631188 52024 IEM_DS3505
ZBAA,1996-03-03 22:00,ZBAA 032200Z AUTO 04008KT 7SM 04/M13 A3027 RMK SLP259 T00401130 IEM_DS3505
ZBAA,1996-03-03 23:00,ZBAA 032300Z AUTO 04008KT 7SM 04/M13 A3027 RMK SLP259 T00401130 IEM_DS3505
ZBAA,1996-03-04 00:00,ZBAA 040000Z AUTO 04008KT 19SM 06/M17 A3030 RMK SLP268 T00601170 52025 IEM_DS3505
ZBAA,1996-03-04 01:00,ZBAA 040100Z AUTO 02012KT 7SM 07/M12 A3033 RMK SLP278 T00701120 IEM_DS3505
ZBAA,1996-03-04 02:00,ZBAA 040200Z AUTO 03016KT 6SM 09/M13 A3033 RMK SLP278 T00901130 IEM_DS3505
ZBAA,1996-03-04 03:00,ZBAA 040300Z AUTO 07010KT 19SM 09/M18 A3033 RMK SLP274 T00921181 52006 IEM_DS3505
ZBAA,1996-03-04 04:00,ZBAA 040400Z AUTO 06010KT 6SM 10/M14 A3033 RMK SLP278 T01001140 IEM_DS3505
ZBAA,1996-03-04 05:00,ZBAA 040500Z AUTO 07008KT 6SM 12/M14 A3027 RMK SLP257 T01201140 IEM_DS3505
ZBAA,1996-03-04 06:00,ZBAA 040600Z AUTO 16002KT 19SM 12/M22 A3027 RMK SLP257 T01171218 57017 IEM_DS3505
ZBAA,1996-03-04 07:00,ZBAA 040700Z AUTO 21006KT 6SM 12/M12 A3024 RMK SLP247 T01201120 IEM_DS3505
ZBAA,1996-03-04 08:00,ZBAA 040800Z AUTO 15012KT 6SM 11/M08 A3024 RMK SLP247 T01101080 IEM_DS3505
ZBAA,1996-03-04 09:00,ZBAA 040900Z AUTO 16010KT 16SM 09/M12 A3024 RMK SLP244 T00881125 57013 IEM_DS3505
ZBAA,1996-03-04 10:00,ZBAA 041000Z AUTO 17012KT 6SM 08/M10 A3027 RMK SLP258 T00801100 IEM_DS3505
ZBAA,1996-03-04 11:00,ZBAA 041100Z AUTO 17014KT 6SM 07/M08 A3030 RMK SLP268 T00701080 IEM_DS3505
ZBAA,1996-03-04 12:00,ZBAA 041200Z AUTO 18010KT 19SM 05/M12 A3033 RMK SLP276 T00521122 52031 IEM_DS3505
ZBAA,1996-03-04 13:00,ZBAA 041300Z AUTO 15006KT 6SM 04/M10 A3036 RMK SLP289 T00401100 IEM_DS3505
ZBAA,1996-03-04 14:00,ZBAA 041400Z AUTO 14006KT 6SM 03/M10 A3036 RMK SLP289 T00301100 IEM_DS3505
ZBAA,1996-03-04 15:00,ZBAA 041500Z AUTO 18008KT 19SM 03/M12 A3036 RMK SLP283 T00321116 52007 IEM_DS3505
ZBAA,1996-03-04 16:00,ZBAA 041600Z AUTO ////02KT 6SM 01/M08 A3036 RMK SLP290 T00101080 IEM_DS3505
ZBAA,1996-03-04 18:00,ZBAA 041800Z AUTO 20004KT 19SM 02/M12 A3032 RMK SLP276 T00241121 57006 IEM_DS3505
ZBAA,1996-03-04 21:00,ZBAA 042100Z AUTO 11002KT 16SM 02/M10 A3028 RMK SLP265 T00181097 57012 IEM_DS3505
ZBAA,1996-03-04 22:00,ZBAA 042200Z AUTO 00000KT 6SM M02/M07 A3030 RMK SLP271 T10201070 IEM_DS3505
ZBAA,1996-03-05 00:00,ZBAA 050000Z AUTO 34002KT 5SM M00/M08 A3027 RMK SLP264 T10021080 57001 IEM_DS3505
ZBAA,1996-03-05 01:00,ZBAA 050100Z AUTO ////04KT 7SM 01/M06 A3030 RMK SLP270 T00101060 IEM_DS3505
ZBAA,1996-03-05 02:00,ZBAA 050200Z AUTO 12006KT 7SM 04/M08 A3030 RMK SLP269 T00401080 IEM_DS3505
ZBAA,1996-03-05 03:00,ZBAA 050300Z AUTO 29004KT 6SM 05/M15 A3024 RMK SLP251 T00531148 57013 IEM_DS3505
ZBAA,1996-03-05 04:00,ZBAA 050400Z AUTO 15006KT 7SM 06/M10 A3021 RMK SLP238 T00601100 IEM_DS3505
ZBAA,1996-03-05 05:00,ZBAA 050500Z AUTO 15006KT 6SM 07/M11 A3018 RMK SLP228 T00701110 IEM_DS3505
ZBAA,1996-03-05 06:00,ZBAA 050600Z AUTO 16006KT 6SM 07/M16 A3012 RMK SLP211 T00721156 57039 IEM_DS3505
ZBAA,1996-03-05 07:00,ZBAA 050700Z AUTO ////04KT 6SM 08/M12 A3009 RMK SLP197 T00801120 IEM_DS3505
ZBAA,1996-03-05 08:00,ZBAA 050800Z AUTO 14006KT 6SM 07/M12 A3006 RMK SLP187 T00701120 IEM_DS3505
ZBAA,1996-03-05 09:00,ZBAA 050900Z AUTO 11008KT 6SM 07/M17 A3006 RMK SLP179 T00711167 57032 IEM_DS3505
ZBAA,1996-03-05 10:00,ZBAA 051000Z AUTO ////04KT 6SM 06/M11 A3003 RMK SLP177 T00601110 IEM_DS3505
ZBAA,1996-03-05 11:00,ZBAA 051100Z AUTO ////04KT 6SM 05/M10 A3003 RMK SLP177 T00501100 IEM_DS3505
ZBAA,1996-03-05 12:00,ZBAA 051200Z AUTO 14006KT 6SM 06/M11 A3003 RMK SLP178 T00611106 57002 IEM_DS3505
ZBAA,1996-03-05 13:00,ZBAA 051300Z AUTO ////02KT 6SM 04/M08 A3003 RMK SLP177 T00401080 IEM_DS3505
ZBAA,1996-03-05 14:00,ZBAA 051400Z AUTO ////04KT 6SM 03/M07 A3003 RMK SLP178 T00301070 IEM_DS3505
ZBAA,1996-03-05 15:00,ZBAA 051500Z AUTO 18006KT 6SM 04/M08 A3000 RMK SLP170 T00371083 57007 IEM_DS3505
ZBAA,1996-03-05 18:00,ZBAA 051800Z AUTO 09002KT 6SM 03/M07 A2996 RMK SLP154 T00261073 57016 IEM_DS3505
ZBAA,1996-03-05 20:00,ZBAA 052000Z AUTO ////02KT 7SM M01/M05 A2991 RMK SLP138 T10101050 IEM_DS3505
ZBAA,1996-03-05 21:00,ZBAA 052100Z AUTO 02002KT 6SM M00/M06 A2991 RMK SLP140 T10031060 57014 IEM_DS3505
ZBAA,1996-03-05 22:00,ZBAA 052200Z AUTO ////04KT 7SM M01/M06 A2991 RMK SLP138 T10101060 IEM_DS3505
ZBAA,1996-03-05 23:00,ZBAA 052300Z AUTO 29006KT 6SM M01/M06 A2991 RMK SLP138 T10101060 IEM_DS3505
ZBAA,1996-03-06 00:00,ZBAA 060000Z AUTO 36002KT 4SM 00/M06 A2991 RMK SLP143 T00041058 52003 IEM_DS3505
ZBAA,1996-03-06 01:00,ZBAA 060100Z AUTO ////02KT 6SM 02/M05 A2991 RMK SLP138 T00201050 IEM_DS3505
ZBAA,1996-03-06 02:00,ZBAA 060200Z AUTO 00000KT 6SM 03/M05 A2991 RMK SLP137 T00301050 IEM_DS3505
ZBAA,1996-03-06 03:00,ZBAA 060300Z AUTO 32002KT 5SM 05/M07 A2991 RMK SLP139 T00501070 57004 IEM_DS3505
ZBAA,1996-03-06 04:00,ZBAA 060400Z AUTO ////02KT 5SM 07/M05 A2991 RMK SLP136 T00701050 IEM_DS3505
ZBAA,1996-03-06 05:00,ZBAA 060500Z AUTO 00000KT 5SM 07/M07 A2985 RMK SLP116 T00701070 IEM_DS3505
ZBAA,1996-03-06 06:00,ZBAA 060600Z AUTO 20006KT 4SM 08/M09 A2983 RMK SLP117 T00751086 57022 IEM_DS3505
ZBAA,1996-03-06 07:00,ZBAA 060700Z AUTO ////04KT 5SM 08/M06 A2983 RMK SLP109 T00801060 IEM_DS3505
ZBAA,1996-03-06 08:00,ZBAA 060800Z AUTO 21006KT 5SM 08/M06 A2983 RMK SLP109 T00801060 IEM_DS3505
ZBAA,1996-03-06 09:00,ZBAA 060900Z AUTO 20004KT 6SM 07/M09 A2983 RMK SLP111 T00691088 57006 IEM_DS3505
ZBAA,1996-03-06 10:00,ZBAA 061000Z AUTO ////04KT 4SM 06/M06 A2983 RMK SLP110 T00601060 IEM_DS3505
ZBAA,1996-03-06 11:00,ZBAA 061100Z AUTO ////02KT 6SM 06/M06 A2985 RMK SLP117 T00601060 IEM_DS3505
ZBAA,1996-03-06 12:00,ZBAA 061200Z AUTO 20002KT 4SM 06/M06 A2988 RMK SLP121 T00591063 52010 IEM_DS3505
ZBAA,1996-03-06 13:00,ZBAA 061300Z AUTO ////04KT 6SM 04/M05 A2988 RMK SLP127 T00401050 IEM_DS3505
ZBAA,1996-03-06 14:00,ZBAA 061400Z AUTO 29006KT 6SM 05/M05 A2991 RMK SLP137 T00501050 IEM_DS3505
ZBAA,1996-03-06 15:00,ZBAA 061500Z AUTO 32016G31KT 6SM 08/ A2991 RMK SLP139 52018 IEM_DS3505
ZBAA,1996-03-06 16:00,ZBAA 061600Z AUTO 33017KT 7SM 06/M17 A2997 RMK SLP157 T00601170 IEM_DS3505
ZBAA,1996-03-06 18:00,ZBAA 061800Z AUTO 34012KT 16SM 04/ A3001 RMK SLP171 52032 IEM_DS3505
ZBAA,1996-03-06 20:00,ZBAA 062000Z AUTO 34019KT 7SM 02/M20 A3000 RMK SLP168 T00201200 IEM_DS3505
ZBAA,1996-03-06 21:00,ZBAA 062100Z AUTO 34016KT 11SM 02/ A3003 RMK SLP174 52003 IEM_DS3505
ZBAA,1996-03-06 22:00,ZBAA 062200Z AUTO 32014KT 7SM 01/M22 A3003 RMK SLP178 T00101220 IEM_DS3505
ZBAA,1996-03-06 23:00,ZBAA 062300Z AUTO 32025G35KT 7SM 01/M23 A3006 RMK SLP188 T00101230 IEM_DS3505
ZBAA,1996-03-07 00:00,ZBAA 070000Z AUTO 34010KT 11SM 00/ A3009 RMK SLP208 52033 IEM_DS3505
ZBAA,1996-03-07 01:00,ZBAA 070100Z AUTO 31016G25KT 7SM 00/M23 A3012 RMK SLP210 T00001230 IEM_DS3505
ZBAA,1996-03-07 02:00,ZBAA 070200Z AUTO 31017G27KT 7SM 01/M22 A3012 RMK SLP209 T00101220 IEM_DS3505
ZBAA,1996-03-07 03:00,ZBAA 070300Z AUTO 34012G31KT 9SM 02/M23 A3009 RMK SLP213 T00171230 52006 IEM_DS3505
ZBAA,1996-03-07 04:00,ZBAA 070400Z AUTO 30021G31KT 7SM 03/M21 A3006 RMK SLP188 T00301210 IEM_DS3505
ZBAA,1996-03-07 05:00,ZBAA 070500Z AUTO 29025G37KT 7SM 03/M20 A3006 RMK SLP188 T00301200 IEM_DS3505
ZBAA,1996-03-07 06:00,ZBAA 070600Z AUTO 34014KT 5SM 04/M27 A3003 RMK SLP191 T00441274 4////0001 57022 IEM_DS3505
ZBAA,1996-03-07 07:00,ZBAA 070700Z AUTO 31019G31KT 7SM 06/M19 A3000 RMK SLP167 T00601190 IEM_DS3505
ZBAA,1996-03-07 08:00,ZBAA 070800Z AUTO 30017G29KT 7SM 06/M19 A3003 RMK SLP177 T00601190 IEM_DS3505
ZBAA,1996-03-07 09:00,ZBAA 070900Z AUTO 32021KT 4SM 06/ A3003 RMK SLP189 57003 IEM_DS3505
ZBAA,1996-03-07 10:00,ZBAA 071000Z AUTO 31017KT 4SM 05/M19 A3006 RMK SLP187 T00501190 IEM_DS3505
ZBAA,1996-03-07 11:00,ZBAA 071100Z AUTO 32017KT 5SM 04/M18 A3009 RMK SLP198 T00401180 IEM_DS3505
ZBAA,1996-03-07 12:00,ZBAA 071200Z AUTO 34006KT 6SM 04/M25 A3012 RMK SLP218 T00381246 52029 IEM_DS3505
ZBAA,1996-03-07 13:00,ZBAA 071300Z AUTO 32019G29KT 7SM 03/M18 A3015 RMK SLP219 T00301180 IEM_DS3505
ZBAA,1996-03-07 14:00,ZBAA 071400Z AUTO 31016KT 7SM 03/M17 A3018 RMK SLP229 T00301170 IEM_DS3505
ZBAA,1996-03-07 15:00,ZBAA 071500Z AUTO 32014KT 9SM 03/ A3018 RMK SLP232 52014 IEM_DS3505
ZBAA,1996-03-07 16:00,ZBAA 071600Z AUTO 29008KT 7SM 01/M17 A3018 RMK SLP230 T00101170 IEM_DS3505
ZBAA,1996-03-07 18:00,ZBAA 071800Z AUTO 32004KT 12SM 02/M19 A3020 RMK SLP237 T00151189 52005 IEM_DS3505
ZBAA,1996-03-07 20:00,ZBAA 072000Z AUTO 30016KT 7SM 02/M13 A3018 RMK SLP229 T00201130 IEM_DS3505
ZBAA,1996-03-07 21:00,ZBAA 072100Z AUTO 34012G23KT 12SM 02/M18 A3021 RMK SLP241 T00221177 52004 IEM_DS3505
ZBAA,1996-03-07 22:00,ZBAA 072200Z AUTO 31019KT 6SM 02/M12 A3024 RMK SLP249 T00201120 IEM_DS3505
ZBAA,1996-03-07 23:00,ZBAA 072300Z AUTO 31017KT 6SM 02/M12 A3027 RMK SLP260 T00201120 IEM_DS3505
ZBAA,1996-03-08 00:00,ZBAA 080000Z AUTO 34012KT 12SM 03/M18 A3030 RMK SLP267 T00291176 52026 IEM_DS3505
ZBAA,1996-03-08 01:00,ZBAA 080100Z AUTO 31017KT 6SM 04/M11 A3030 RMK SLP269 T00401110 IEM_DS3505
ZBAA,1996-03-08 02:00,ZBAA 080200Z AUTO 32017KT 6SM 05/M11 A3030 RMK SLP269 T00501110 IEM_DS3505
ZBAA,1996-03-08 03:00,ZBAA 080300Z AUTO 34014KT 12SM 06/M17 A3027 RMK SLP271 T00641166 52004 IEM_DS3505
ZBAA,1996-03-08 04:00,ZBAA 080400Z AUTO 33019KT 6SM 08/M10 A3030 RMK SLP268 T00801100 IEM_DS3505
ZBAA,1996-03-08 05:00,ZBAA 080500Z AUTO 32016KT 6SM 09/M09 A3027 RMK SLP258 T00901090 IEM_DS3505
ZBAA,1996-03-08 06:00,ZBAA 080600Z AUTO 34012KT 9SM 09/M14 A3027 RMK SLP269 T00871143 57002 IEM_DS3505
ZBAA,1996-03-08 07:00,ZBAA 080700Z AUTO 31016KT 6SM 10/M09 A3027 RMK SLP258 T01001090 IEM_DS3505
ZBAA,1996-03-08 08:00,ZBAA 080800Z AUTO 32019KT 6SM 10/M10 A3027 RMK SLP258 T01001100 IEM_DS3505
ZBAA,1996-03-08 09:00,ZBAA 080900Z AUTO 36016KT 6SM 10/ A3030 RMK SLP272 52003 IEM_DS3505
ZBAA,1996-03-08 10:00,ZBAA 081000Z AUTO 34016KT 6SM 07/M11 A3033 RMK SLP278 T00701110 IEM_DS3505
ZBAA,1996-03-08 11:00,ZBAA 081100Z AUTO 32017KT 6SM 06/M11 A3036 RMK SLP289 T00601110 IEM_DS3505
ZBAA,1996-03-08 12:00,ZBAA 081200Z AUTO 34010KT 9SM 05/M14 A3039 RMK SLP308 T00491145 52036 IEM_DS3505
ZBAA,1996-03-08 13:00,ZBAA 081300Z AUTO 32019KT 7SM 04/M12 A3045 RMK SLP320 T00401120 IEM_DS3505
ZBAA,1996-03-08 14:00,ZBAA 081400Z AUTO 32016KT 7SM 03/M12 A3045 RMK SLP321 T00301120 IEM_DS3505
ZBAA,1996-03-08 15:00,ZBAA 081500Z AUTO 34012KT 19SM 03/M15 A3047 RMK SLP324 T00291149 52016 IEM_DS3505
ZBAA,1996-03-08 16:00,ZBAA 081600Z AUTO 33016KT 7SM 02/M12 A3047 RMK SLP328 T00201120 IEM_DS3505
ZBAA,1996-03-08 18:00,ZBAA 081800Z AUTO 36012KT 12SM 02/M14 A3048 RMK SLP330 T00191138 52006 IEM_DS3505
ZBAA,1996-03-08 20:00,ZBAA 082000Z AUTO 32014KT 7SM 00/M17 A3050 RMK SLP339 T00001170 IEM_DS3505
ZBAA,1996-03-08 21:00,ZBAA 082100Z AUTO 02014KT 12SM M00/M17 A3050 RMK SLP332 T10011166 52002 IEM_DS3505
ZBAA,1996-03-08 22:00,ZBAA 082200Z AUTO 35006KT 7SM M01/M18 A3050 RMK SLP339 T10101180 IEM_DS3505
ZBAA,1996-03-08 23:00,ZBAA 082300Z AUTO 34010KT 7SM M01/M18 A3050 RMK SLP339 T10101180 IEM_DS3505
ZBAA,1996-03-09 00:00,ZBAA 090000Z AUTO 34006KT 9SM 00/M20 A3050 RMK SLP337 T00051203 52004 IEM_DS3505
ZBAA,1996-03-09 01:00,ZBAA 090100Z AUTO 02008KT 7SM 02/M18 A3050 RMK SLP338 T00201180 IEM_DS3505
ZBAA,1996-03-09 02:00,ZBAA 090200Z AUTO 36006KT 7SM 04/M16 A3047 RMK SLP327 T00401160 IEM_DS3505
ZBAA,1996-03-09 03:00,ZBAA 090300Z AUTO 34010KT 19SM 05/M22 A3045 RMK SLP321 T00481218 57015 IEM_DS3505
ZBAA,1996-03-09 04:00,ZBAA 090400Z AUTO 04006KT 7SM 06/M14 A3042 RMK SLP310 T00601140 IEM_DS3505
ZBAA,1996-03-09 05:00,ZBAA 090500Z AUTO 31016KT 7SM 08/M15 A3036 RMK SLP288 T00801150 IEM_DS3505
ZBAA,1996-03-09 06:00,ZBAA 090600Z AUTO 34010KT 19SM 09/M21 A3033 RMK SLP282 T00891206 57039 IEM_DS3505
ZBAA,1996-03-09 07:00,ZBAA 090700Z AUTO 30012G21KT 7SM 10/M14 A3027 RMK SLP258 T01001140 IEM_DS3505
ZBAA,1996-03-09 08:00,ZBAA 090800Z AUTO 29016G25KT 7SM 10/M14 A3024 RMK SLP247 T01001140 IEM_DS3505
ZBAA,1996-03-09 09:00,ZBAA 090900Z AUTO 32010KT 19SM 10/M18 A3024 RMK SLP255 T01041183 57027 IEM_DS3505
ZBAA,1996-03-09 10:00,ZBAA 091000Z AUTO 29012KT 7SM 09/M14 A3024 RMK SLP248 T00901140 IEM_DS3505
ZBAA,1996-03-09 12:00,ZBAA 091200Z AUTO 20004KT 19SM 07/M15 A3025 RMK SLP253 T00741151 57002 IEM_DS3505
ZBAA,1996-03-09 14:00,ZBAA 091400Z AUTO 33012KT 7SM 07/M13 A3024 RMK SLP248 T00701130 IEM_DS3505
ZBAA,1996-03-09 15:00,ZBAA 091500Z AUTO 34004KT 14SM 02/M13 A3024 RMK SLP251 T00241133 57002 IEM_DS3505
ZBAA,1996-03-09 18:00,ZBAA 091800Z AUTO 34004KT 19SM 02/M12 A3020 RMK SLP234 T00191118 57016 IEM_DS3505
ZBAA,1996-03-09 20:00,ZBAA 092000Z AUTO 33006KT 7SM 04/M15 A3015 RMK SLP219 T00401150 IEM_DS3505
ZBAA,1996-03-09 21:00,ZBAA 092100Z AUTO 00000KT 12SM 00/M10 A3012 RMK SLP214 T00001101 57020 IEM_DS3505
ZBAA,1996-03-09 22:00,ZBAA 092200Z AUTO 30008KT 7SM 05/M16 A3012 RMK SLP208 T00501160 IEM_DS3505
ZBAA,1996-03-09 23:00,ZBAA 092300Z AUTO ////02KT 7SM 05/M16 A3009 RMK SLP197 T00501160 IEM_DS3505
ZBAA,1996-03-10 00:00,ZBAA 100000Z AUTO 16004KT 6SM 06/M14 A3009 RMK SLP206 T00571136 57008 IEM_DS3505
ZBAA,1996-03-10 01:00,ZBAA 100100Z AUTO 30008KT 7SM 08/M14 A3009 RMK SLP197 T00801140 IEM_DS3505
ZBAA,1996-03-10 02:00,ZBAA 100200Z AUTO 30016KT 7SM 10/M14 A3009 RMK SLP196 T01001140 IEM_DS3505
ZBAA,1996-03-10 03:00,ZBAA 100300Z AUTO 32008KT 12SM 12/ A3006 RMK SLP190 57016 IEM_DS3505
ZBAA,1996-03-10 04:00,ZBAA 100400Z AUTO 29014KT 7SM 12/M14 A3003 RMK SLP176 T01201140 IEM_DS3505
ZBAA,1996-03-10 05:00,ZBAA 100500Z AUTO 29012KT 7SM 13/M13 A3000 RMK SLP165 T01301130 IEM_DS3505
ZBAA,1996-03-10 06:00,ZBAA 100600Z AUTO 34012KT 12SM 13/ A3000 RMK SLP170 57019 IEM_DS3505
ZBAA,1996-03-10 07:00,ZBAA 100700Z AUTO 03008KT 7SM 13/M11 A3000 RMK SLP165 T01301110 IEM_DS3505
ZBAA,1996-03-10 08:00,ZBAA 100800Z AUTO 06012KT 7SM 13/M11 A3000 RMK SLP165 T01301110 IEM_DS3505
ZBAA,1996-03-10 09:00,ZBAA 100900Z AUTO 36012KT 11SM 12/M20 A3000 RMK SLP180 T01171200 52009 IEM_DS3505
ZBAA,1996-03-10 10:00,ZBAA 101000Z AUTO 01017G27KT 7SM 08/M16 A3009 RMK SLP197 T00801160 IEM_DS3505
ZBAA,1996-03-10 11:00,ZBAA 101100Z AUTO 01014KT 7SM 06/M14 A3015 RMK SLP218 T00601140 IEM_DS3505
ZBAA,1996-03-10 12:00,ZBAA 101200Z AUTO 02014KT 12SM 06/M22 A3021 RMK SLP235 T00591216 52055 IEM_DS3505
ZBAA,1996-03-10 13:00,ZBAA 101300Z AUTO 02016KT 7SM 04/M19 A3024 RMK SLP249 T00401190 IEM_DS3505
ZBAA,1996-03-10 14:00,ZBAA 101400Z AUTO 01014KT 7SM 03/M18 A3030 RMK SLP269 T00301180 IEM_DS3505
ZBAA,1996-03-10 15:00,ZBAA 101500Z AUTO 02012KT 12SM 03/M25 A3033 RMK SLP274 T00281253 52039 IEM_DS3505
ZBAA,1996-03-10 18:00,ZBAA 101800Z AUTO 02012KT 16SM 01/M26 A3036 RMK SLP288 T00101263 52014 IEM_DS3505
ZBAA,1996-03-10 20:00,ZBAA 102000Z AUTO 34006KT 7SM M01/M20 A3039 RMK SLP302 T10101200 IEM_DS3505
ZBAA,1996-03-10 21:00,ZBAA 102100Z AUTO 02004KT 19SM M00/M20 A3039 RMK SLP297 T10031195 52008 IEM_DS3505
ZBAA,1996-03-10 22:00,ZBAA 102200Z AUTO ////02KT 7SM M02/M19 A3039 RMK SLP302 T10201190 IEM_DS3505
ZBAA,1996-03-10 23:00,ZBAA 102300Z AUTO 04006KT 7SM M03/M17 A3042 RMK SLP312 T10301170 IEM_DS3505
ZBAA,1996-03-11 00:00,ZBAA 110000Z AUTO 04004KT 9SM 00/M18 A3041 RMK SLP305 T00051175 52008 IEM_DS3505
ZBAA,1996-03-11 01:00,ZBAA 110100Z AUTO 07006KT 7SM 01/M17 A3042 RMK SLP311 T00101170 IEM_DS3505
ZBAA,1996-03-11 02:00,ZBAA 110200Z AUTO ////04KT 7SM 02/M17 A3042 RMK SLP311 T00201170 IEM_DS3505
ZBAA,1996-03-11 03:00,ZBAA 110300Z AUTO 34006KT 7SM 05/M19 A3039 RMK SLP300 T00481193 57005 IEM_DS3505
ZBAA,1996-03-11 05:00,ZBAA 110500Z AUTO ////04KT 6SM 06/M15 A3033 RMK SLP279 T00601150 IEM_DS3505
ZBAA,1996-03-11 06:00,ZBAA 110600Z AUTO 18010KT 9SM 07/M23 A3030 RMK SLP272 T00681229 57028 IEM_DS3505
ZBAA,1996-03-11 07:00,ZBAA 110700Z AUTO 18006KT 7SM 08/M16 A3027 RMK SLP258 T00801160 IEM_DS3505
ZBAA,1996-03-11 08:00,ZBAA 110800Z AUTO 20010KT 6SM 08/M16 A3024 RMK SLP248 T00801160 IEM_DS3505
ZBAA,1996-03-11 09:00,ZBAA 110900Z AUTO 20008KT 9SM 07/M20 A3024 RMK SLP254 T00721197 57018 IEM_DS3505
ZBAA,1996-03-11 10:00,ZBAA 111000Z AUTO 21006KT 7SM 06/M17 A3024 RMK SLP248 T00601170 IEM_DS3505
ZBAA,1996-03-11 12:00,ZBAA 111200Z AUTO 20008KT 11SM 05/M17 A3025 RMK SLP253 T00511171 57001 IEM_DS3505
ZBAA,1996-03-11 15:00,ZBAA 111500Z AUTO 20008KT 7SM 03/M17 A3024 RMK SLP249 T00281168 57004 IEM_DS3505
ZBAA,1996-03-11 21:00,ZBAA 112100Z AUTO 16004KT 6SM 01/M11 A3013 RMK SLP212 T00101111 57020 IEM_DS3505
ZBAA,1996-03-12 00:00,ZBAA 120000Z AUTO 02004KT 5SM 00/M11 A3009 RMK SLP203 T00031112 57009 IEM_DS3505
ZBAA,1996-03-12 01:00,ZBAA 120100Z AUTO ////04KT 6SM 01/M06 A3009 RMK SLP198 T00101060 IEM_DS3505
ZBAA,1996-03-12 02:00,ZBAA 120200Z AUTO ////02KT 6SM 03/M06 A3009 RMK SLP198 T00301060 IEM_DS3505
ZBAA,1996-03-12 03:00,ZBAA 120300Z AUTO 00000KT 4SM 04/M10 A3006 RMK SLP186 T00451100 57017 IEM_DS3505
ZBAA,1996-03-12 04:00,ZBAA 120400Z AUTO 13006KT 6SM 06/M06 A3000 RMK SLP167 T00601060 IEM_DS3505
ZBAA,1996-03-12 05:00,ZBAA 120500Z AUTO 22006KT 6SM 08/M08 A2997 RMK SLP156 T00801080 IEM_DS3505
ZBAA,1996-03-12 06:00,ZBAA 120600Z AUTO 22010KT 7SM 09/M13 A2992 RMK SLP141 T00911128 57044 IEM_DS3505
ZBAA,1996-03-12 07:00,ZBAA 120700Z AUTO 18006KT 7SM 10/M09 A2988 RMK SLP126 T01001090 IEM_DS3505
ZBAA,1996-03-12 08:00,ZBAA 120800Z AUTO 14006KT 7SM 09/M08 A2985 RMK SLP116 T00901080 IEM_DS3505
ZBAA,1996-03-12 09:00,ZBAA 120900Z AUTO 14006KT 9SM 09/M12 A2985 RMK SLP116 T00911120 57025 IEM_DS3505
ZBAA,1996-03-12 10:00,ZBAA 121000Z AUTO 14006KT 7SM 08/M09 A2985 RMK SLP116 T00801090 IEM_DS3505
ZBAA,1996-03-12 11:00,ZBAA 121100Z AUTO ////02KT 7SM 07/M08 A2985 RMK SLP116 T00701080 IEM_DS3505
ZBAA,1996-03-12 12:00,ZBAA 121200Z AUTO 18008KT 6SM 08/M09 A2985 RMK SLP117 T00801092 52001 IEM_DS3505
ZBAA,1996-03-12 13:00,ZBAA 121300Z AUTO ////02KT 5SM 05/M06 A2985 RMK SLP117 T00501060 IEM_DS3505
ZBAA,1996-03-12 14:00,ZBAA 121400Z AUTO ////04KT 5SM 05/M03 A2985 RMK SLP117 T00501030 IEM_DS3505
ZBAA,1996-03-12 15:00,ZBAA 121500Z AUTO 04004KT 5SM 06/M05 A2985 RMK SLP121 T00631048 52004 IEM_DS3505
ZBAA,1996-03-12 18:00,ZBAA 121800Z AUTO 36006KT 4SM 04/M04 A2981 RMK SLP103 T00441045 57017 IEM_DS3505
ZBAA,1996-03-12 20:00,ZBAA 122000Z AUTO ////02KT 5SM 03/M04 A2980 RMK SLP100 T00301040 IEM_DS3505
ZBAA,1996-03-12 21:00,ZBAA 122100Z AUTO 07002KT 6SM 04/M05 A2980 RMK SLP099 T00391053 57004 IEM_DS3505
ZBAA,1996-03-12 22:00,ZBAA 122200Z AUTO ////04KT 5SM 01/M04 A2980 RMK SLP101 T00101040 IEM_DS3505
ZBAA,1996-03-12 23:00,ZBAA 122300Z AUTO ////02KT 4SM 00/M04 A2983 RMK SLP111 T00001040 IEM_DS3505
ZBAA,1996-03-13 00:00,ZBAA 130000Z AUTO 32002KT 2 1/2SM 04/M04 A2985 RMK SLP116 T00371040 52016 IEM_DS3505
ZBAA,1996-03-13 01:00,ZBAA 130100Z AUTO ////04KT 4SM 05/M03 A2985 RMK SLP117 T00501030 IEM_DS3505
ZBAA,1996-03-13 02:00,ZBAA 130200Z AUTO ////04KT 3SM 08/M02 A2988 RMK SLP126 T00801020 IEM_DS3505
ZBAA,1996-03-13 03:00,ZBAA 130300Z AUTO 20006KT 2 1/2SM 11/M07 A2985 RMK SLP125 T01071066 52010 IEM_DS3505
ZBAA,1996-03-13 04:00,ZBAA 130400Z AUTO 28010KT 5SM 13/M09 A2985 RMK SLP115 T01301090 IEM_DS3505
ZBAA,1996-03-13 05:00,ZBAA 130500Z AUTO 28014G23KT 7SM 14/M12 A2983 RMK SLP108 T01401120 IEM_DS3505
ZBAA,1996-03-13 06:00,ZBAA 130600Z AUTO 25006G23KT 2 1/2SM 15/M13 A2983 RMK SLP111 T01481126 57014 IEM_DS3505
ZBAA,1996-03-13 07:00,ZBAA 130700Z AUTO 29016KT 7SM 16/M11 A2980 RMK SLP097 T01601110 IEM_DS3505
ZBAA,1996-03-13 08:00,ZBAA 130800Z AUTO 28016KT 7SM 16/M11 A2980 RMK SLP097 T01601110 IEM_DS3505
ZBAA,1996-03-13 09:00,ZBAA 130900Z AUTO 18008KT 4SM 15/M11 A2983 RMK SLP110 T01481112 57001 IEM_DS3505
ZBAA,1996-03-13 10:00,ZBAA 131000Z AUTO 20010KT 6SM 13/M09 A2983 RMK SLP108 T01301090 IEM_DS3505
ZBAA,1996-03-13 11:00,ZBAA 131100Z AUTO 20008KT 6SM 12/M09 A2985 RMK SLP115 T01201090 IEM_DS3505
ZBAA,1996-03-13 12:00,ZBAA 131200Z AUTO 18008KT 4SM 12/M14 A2985 RMK SLP121 T01251135 52011 IEM_DS3505
ZBAA,1996-03-13 13:00,ZBAA 131300Z AUTO 19006KT 5SM 11/M09 A2988 RMK SLP125 T01101090 IEM_DS3505
ZBAA,1996-03-13 14:00,ZBAA 131400Z AUTO 19006KT 4SM 10/M08 A2988 RMK SLP126 T01001080 IEM_DS3505
ZBAA,1996-03-13 15:00,ZBAA 131500Z AUTO 18004KT 6SM 10/M11 A2991 RMK SLP134 T01041106 52013 IEM_DS3505
ZBAA,1996-03-13 16:00,ZBAA 131600Z AUTO ////02KT 4SM 06/M07 A2991 RMK SLP137 T00601070 IEM_DS3505
ZBAA,1996-03-13 18:00,ZBAA 131800Z AUTO 34004KT 6SM 10/M12 A2996 RMK SLP151 T00951117 52018 IEM_DS3505
ZBAA,1996-03-13 20:00,ZBAA 132000Z AUTO 33014KT 6SM 09/M15 A3000 RMK SLP166 T00901150 IEM_DS3505
ZBAA,1996-03-13 21:00,ZBAA 132100Z AUTO 34012KT 7SM 09/M17 A3000 RMK SLP164 T00861169 52013 IEM_DS3505
ZBAA,1996-03-13 22:00,ZBAA 132200Z AUTO 32010KT 6SM 07/M14 A3003 RMK SLP177 T00701140 IEM_DS3505
ZBAA,1996-03-13 23:00,ZBAA 132300Z AUTO 34014KT 6SM 07/M14 A3003 RMK SLP177 T00701140 IEM_DS3505
ZBAA,1996-03-14 00:00,ZBAA 140000Z AUTO 34010KT 9SM 08/M22 A3006 RMK SLP188 T00781215 52023 IEM_DS3505
ZBAA,1996-03-14 01:00,ZBAA 140100Z AUTO 33016KT 6SM 09/M15 A3009 RMK SLP196 T00901150 IEM_DS3505
ZBAA,1996-03-14 02:00,ZBAA 140200Z AUTO 34014KT 6SM 11/M15 A3009 RMK SLP196 T01101150 IEM_DS3505
ZBAA,1996-03-14 03:00,ZBAA 140300Z AUTO 02008KT 12SM 11/M20 A3006 RMK SLP192 T01101198 52004 IEM_DS3505
ZBAA,1996-03-14 04:00,ZBAA 140400Z AUTO 34010KT 6SM 13/M13 A3003 RMK SLP175 T01301130 IEM_DS3505
ZBAA,1996-03-14 05:00,ZBAA 140500Z AUTO 35010KT 6SM 14/M12 A3000 RMK SLP165 T01401120 IEM_DS3505
ZBAA,1996-03-14 06:00,ZBAA 140600Z AUTO 04012KT 12SM 14/ A2997 RMK SLP157 57034 IEM_DS3505
ZBAA,1996-03-14 07:00,ZBAA 140700Z AUTO 07008KT 6SM 14/M12 A2994 RMK SLP145 T01401120 IEM_DS3505
ZBAA,1996-03-14 08:00,ZBAA 140800Z AUTO ////04KT 6SM 14/M12 A2994 RMK SLP145 T01401120 IEM_DS3505
ZBAA,1996-03-14 09:00,ZBAA 140900Z AUTO 07008KT 12SM 14/M19 A2991 RMK SLP141 T01361186 57016 IEM_DS3505
ZBAA,1996-03-14 10:00,ZBAA 141000Z AUTO ////02KT 6SM 12/M15 A2991 RMK SLP135 T01201150 IEM_DS3505
ZBAA,1996-03-14 11:00,ZBAA 141100Z AUTO 00000KT 6SM 11/M15 A2991 RMK SLP135 T01101150 IEM_DS3505
ZBAA,1996-03-14 12:00,ZBAA 141200Z AUTO 20004KT 9SM 10/M12 A2994 RMK SLP147 T01031122 52005 IEM_DS3505
ZBAA,1996-03-14 13:00,ZBAA 141300Z AUTO 00000KT 6SM 08/M12 A2994 RMK SLP146 T00801120 IEM_DS3505
ZBAA,1996-03-14 14:00,ZBAA 141400Z AUTO 00000KT 6SM 07/M11 A2994 RMK SLP147 T00701110 IEM_DS3505
ZBAA,1996-03-14 15:00,ZBAA 141500Z AUTO 16004KT 12SM 08/M15 A2994 RMK SLP151 T00821147 52004 IEM_DS3505
ZBAA,1996-03-14 16:00,ZBAA 141600Z AUTO 12006KT 6SM 04/M06 A2994 RMK SLP147 T00401060 IEM_DS3505
ZBAA,1996-03-14 17:00,ZBAA 141700Z AUTO 12006KT 6SM 04/M06 A2997 RMK SLP157 T00401060 IEM_DS3505
ZBAA,1996-03-14 18:00,ZBAA 141800Z AUTO 11004KT 7SM 06/M08 A2995 RMK SLP150 T00551080 57001 IEM_DS3505
ZBAA,1996-03-14 20:00,ZBAA 142000Z AUTO 20006KT 7SM 02/M08 A2994 RMK SLP148 T00201080 IEM_DS3505
ZBAA,1996-03-14 21:00,ZBAA 142100Z AUTO 16006KT 9SM 04/M13 A2994 RMK SLP149 T00381133 57001 IEM_DS3505
ZBAA,1996-03-14 22:00,ZBAA 142200Z AUTO 00000KT 7SM 02/M10 A2994 RMK SLP148 T00201100 IEM_DS3505
ZBAA,1996-03-14 23:00,ZBAA 142300Z AUTO ////02KT 7SM 01/M10 A2994 RMK SLP148 T00101100 IEM_DS3505
ZBAA,1996-03-15 00:00,ZBAA 150000Z AUTO 16004KT 7SM 04/M13 A2991 RMK SLP146 T00411133 57003 IEM_DS3505
ZBAA,1996-03-15 01:00,ZBAA 150100Z AUTO ////04KT 6SM 03/M09 A2994 RMK SLP147 T00301090 IEM_DS3505
ZBAA,1996-03-15 02:00,ZBAA 150200Z AUTO ////02KT 6SM 05/M10 A2994 RMK SLP147 T00501100 IEM_DS3505
ZBAA,1996-03-15 03:00,ZBAA 150300Z AUTO 11008KT 7SM 06/M12 A2991 RMK SLP134 T00581118 57012 IEM_DS3505
ZBAA,1996-03-15 04:00,ZBAA 150400Z AUTO 12006KT 6SM 07/M10 A2985 RMK SLP116 T00701100 IEM_DS3505
ZBAA,1996-03-15 05:00,ZBAA 150500Z AUTO 14010KT 6SM 09/M10 A2983 RMK SLP109 T00901100 IEM_DS3505
ZBAA,1996-03-15 06:00,ZBAA 150600Z AUTO 16008KT 7SM 08/M11 A2980 RMK SLP093 T00811107 57041 IEM_DS3505
ZBAA,1996-03-15 07:00,ZBAA 150700Z AUTO 16008KT 6SM 09/M06 A2974 RMK SLP078 T00901060 IEM_DS3505
ZBAA,1996-03-15 08:00,ZBAA 150800Z AUTO 15008KT 6SM 08/M05 A2971 RMK SLP068 T00801050 IEM_DS3505
ZBAA,1996-03-15 09:00,ZBAA 150900Z AUTO 16006KT 6SM 08/M04 A2971 RMK SLP068 T00801044 57025 IEM_DS3505
ZBAA,1996-03-15 10:00,ZBAA 151000Z AUTO 15008KT 4SM 07/M01 A2974 RMK SLP078 T00701010 IEM_DS3505
ZBAA,1996-03-15 11:00,ZBAA 151100Z AUTO 14006KT 6SM 06/00 A2971 RMK SLP068 T00600000 IEM_DS3505
ZBAA,1996-03-15 12:00,ZBAA 151200Z AUTO 16004KT 8SM 06/M01 A2974 RMK SLP072 T00611014 52004 IEM_DS3505
ZBAA,1996-03-15 13:00,ZBAA 151300Z AUTO 13006KT 6SM 05/01 A2971 RMK SLP068 T00500010 IEM_DS3505
ZBAA,1996-03-15 14:00,ZBAA 151400Z AUTO ////04KT 6SM 05/00 A2971 RMK SLP068 T00500000 IEM_DS3505
ZBAA,1996-03-15 15:00,ZBAA 151500Z AUTO 07002KT 7SM 05/M00 A2968 RMK SLP060 T00511002 57012 IEM_DS3505
ZBAA,1996-03-15 17:00,ZBAA 151700Z AUTO 00000KT 3SM 02/02 A2968 RMK SLP059 T00200020 IEM_DS3505
ZBAA,1996-03-15 18:00,ZBAA 151800Z AUTO 07002KT 1 1/4SM 03/02 A2966 RMK 60002 SLP051 T00320019 57009 IEM_DS3505
ZBAA,1996-03-15 20:00,ZBAA 152000Z AUTO 00000KT 1 1/4SM 02/02 A2962 RMK SLP039 T00200020 IEM_DS3505
ZBAA,1996-03-15 21:00,ZBAA 152100Z AUTO 18002KT 1 1/4SM 03/02 A2959 RMK SLP024 T00340019 57027 IEM_DS3505
ZBAA,1996-03-15 22:00,ZBAA 152200Z AUTO 00000KT 1SM 02/02 A2959 RMK SLP029 T00200020 IEM_DS3505
ZBAA,1996-03-15 23:00,ZBAA 152300Z AUTO ////02KT 50SM RMK IEM_DS3505
ZBAA,1996-03-16 00:00,ZBAA 160000Z AUTO 36006KT 1/4SM 03/02 A2959 RMK 60002 70004 SLP030 T00300022 52006 IEM_DS3505
ZBAA,1996-03-16 01:00,ZBAA 160100Z AUTO ////04KT 3/8SM 03/03 A2959 RMK SLP029 T00300030 IEM_DS3505
ZBAA,1996-03-16 02:00,ZBAA 160200Z AUTO ////04KT 1SM 04/04 A2962 RMK SLP039 T00400040 IEM_DS3505
ZBAA,1996-03-16 03:00,ZBAA 160300Z AUTO 36004KT 2SM 06/03 A2962 RMK SLP042 T00550026 52012 IEM_DS3505
ZBAA,1996-03-16 04:00,ZBAA 160400Z AUTO 32006KT 1 1/2SM 07/07 A2962 RMK SLP038 T00700070 IEM_DS3505
ZBAA,1996-03-16 05:00,ZBAA 160500Z AUTO 30021G31KT 6SM 10/M05 A2962 RMK SLP037 T01001050 IEM_DS3505
ZBAA,1996-03-16 06:00,ZBAA 160600Z AUTO 34012G31KT 7SM 11/M15 A2962 RMK SLP043 T01091146 52001 IEM_DS3505
ZBAA,1996-03-16 08:00,ZBAA 160800Z AUTO 31016KT 6SM 10/M08 A2968 RMK SLP057 T01001080 IEM_DS3505
ZBAA,1996-03-16 09:00,ZBAA 160900Z AUTO 34012KT 7SM 08/M14 A2971 RMK SLP075 T00831142 52032 IEM_DS3505
ZBAA,1996-03-16 10:00,ZBAA 161000Z AUTO 31021G33KT 6SM 06/M10 A2977 RMK SLP089 T00601100 IEM_DS3505
ZBAA,1996-03-16 11:00,ZBAA 161100Z AUTO 31017KT 6SM 05/M10 A2983 RMK SLP110 T00501100 IEM_DS3505
ZBAA,1996-03-16 12:00,ZBAA 161200Z AUTO 34014KT 9SM 05/M17 A2988 RMK SLP119 T00501170 52043 IEM_DS3505
ZBAA,1996-03-16 13:00,ZBAA 161300Z AUTO 32017KT 6SM 04/M13 A2991 RMK SLP137 T00401130 IEM_DS3505
ZBAA,1996-03-16 14:00,ZBAA 161400Z AUTO 31017KT 7SM 03/M13 A2997 RMK SLP158 T00301130 IEM_DS3505
ZBAA,1996-03-16 15:00,ZBAA 161500Z AUTO 02016KT 12SM 03/M18 A2997 RMK SLP170 T00261182 52051 IEM_DS3505
ZBAA,1996-03-16 16:00,ZBAA 161600Z AUTO 32016KT 7SM 01/M13 A3000 RMK SLP168 T00101130 IEM_DS3505
ZBAA,1996-03-16 17:00,ZBAA 161700Z AUTO 31012KT 7SM 01/M14 A3006 RMK SLP188 T00101140 IEM_DS3505
ZBAA,1996-03-16 18:00,ZBAA 161800Z AUTO 34008KT 16SM 01/M18 A3009 RMK SLP198 T00061176 52028 IEM_DS3505
ZBAA,1996-03-16 20:00,ZBAA 162000Z AUTO 33014KT 7SM M01/M13 A3006 RMK SLP189 T10101130 IEM_DS3505
ZBAA,1996-03-16 21:00,ZBAA 162100Z AUTO 34006KT 16SM M01/M17 A3009 RMK SLP199 T10071172 54000 IEM_DS3505
ZBAA,1996-03-16 22:00,ZBAA 162200Z AUTO 05006KT 7SM M03/M12 A3009 RMK SLP199 T10301120 IEM_DS3505
ZBAA,1996-03-16 23:00,ZBAA 162300Z AUTO ////02KT 7SM M02/M11 A3009 RMK SLP199 T10201110 IEM_DS3505
ZBAA,1996-03-17 00:00,ZBAA 170000Z AUTO 04002KT 12SM 01/M17 A3009 RMK SLP201 T00091168 52002 IEM_DS3505
ZBAA,1996-03-17 01:00,ZBAA 170100Z AUTO 03006KT 7SM 01/M11 A3009 RMK SLP198 T00101110 IEM_DS3505
ZBAA,1996-03-17 02:00,ZBAA 170200Z AUTO ////02KT 7SM 02/M11 A3009 RMK SLP198 T00201110 IEM_DS3505
ZBAA,1996-03-17 03:00,ZBAA 170300Z AUTO 16006KT 9SM 05/M14 A3009 RMK SLP197 T00541136 57004 IEM_DS3505
ZBAA,1996-03-17 04:00,ZBAA 170400Z AUTO ////04KT 7SM 06/M11 A3003 RMK SLP177 T00601110 IEM_DS3505
ZBAA,1996-03-17 05:00,ZBAA 170500Z AUTO 22012KT 7SM 08/M12 A3000 RMK SLP166 T00801120 IEM_DS3505
ZBAA,1996-03-17 06:00,ZBAA 170600Z AUTO 22010KT 12SM 07/M14 A2994 RMK SLP161 T00721138 57035 IEM_DS3505
ZBAA,1996-03-17 07:00,ZBAA 170700Z AUTO 23016KT 6SM 10/M10 A2991 RMK SLP136 T01001100 IEM_DS3505
ZBAA,1996-03-17 08:00,ZBAA 170800Z AUTO 24014KT 6SM 09/M10 A2994 RMK SLP146 T00901100 IEM_DS3505
ZBAA,1996-03-17 09:00,ZBAA 170900Z AUTO 20008KT 12SM 08/M14 A2994 RMK SLP153 T00751137 57008 IEM_DS3505
ZBAA,1996-03-17 10:00,ZBAA 171000Z AUTO 22014KT 6SM 07/M10 A2994 RMK SLP147 T00701100 IEM_DS3505
ZBAA,1996-03-17 11:00,ZBAA 171100Z AUTO 23014KT 6SM 06/M10 A3000 RMK SLP167 T00601100 IEM_DS3505
ZBAA,1996-03-17 12:00,ZBAA 171200Z AUTO 29006KT 12SM 06/M12 A3003 RMK SLP183 T00641125 52029 IEM_DS3505
ZBAA,1996-03-17 13:00,ZBAA 171300Z AUTO 32010KT 6SM 06/M15 A3006 RMK SLP187 T00601150 IEM_DS3505
ZBAA,1996-03-17 14:00,ZBAA 171400Z AUTO 31008KT 6SM 06/M17 A3009 RMK SLP197 T00601170 IEM_DS3505
ZBAA,1996-03-17 15:00,ZBAA 171500Z AUTO 32014KT 16SM 05/M24 A3012 RMK SLP209 T00511240 52027 IEM_DS3505
ZBAA,1996-03-17 16:00,ZBAA 171600Z AUTO 33017KT 7SM 04/M18 A3015 RMK SLP219 T00401180 IEM_DS3505
ZBAA,1996-03-17 17:00,ZBAA 171700Z AUTO 33010KT 7SM 02/M17 A3018 RMK SLP229 T00201170 IEM_DS3505
ZBAA,1996-03-17 18:00,ZBAA 171800Z AUTO 29006KT 19SM 02/M24 A3018 RMK SLP229 T00231244 52019 IEM_DS3505
ZBAA,1996-03-17 20:00,ZBAA 172000Z AUTO 32010KT 7SM 01/M17 A3018 RMK SLP230 T00101170 IEM_DS3505
ZBAA,1996-03-17 21:00,ZBAA 172100Z AUTO 34004KT 19SM 00/M18 A3021 RMK SLP235 T00011182 52006 IEM_DS3505
ZBAA,1996-03-17 22:00,ZBAA 172200Z AUTO 31006KT 7SM 00/M17 A3021 RMK SLP240 T00001170 IEM_DS3505
ZBAA,1996-03-17 23:00,ZBAA 172300Z AUTO 32012KT 7SM 01/M15 A3021 RMK SLP240 T00101150 IEM_DS3505
ZBAA,1996-03-18 00:00,ZBAA 180000Z AUTO 34004KT 19SM 02/M20 A3024 RMK SLP252 T00161196 52017 IEM_DS3505
ZBAA,1996-03-18 01:00,ZBAA 180100Z AUTO 32014KT 7SM 03/M16 A3024 RMK SLP249 T00301160 IEM_DS3505
ZBAA,1996-03-18 02:00,ZBAA 180200Z AUTO 33014G23KT 7SM 04/M16 A3024 RMK SLP249 T00401160 IEM_DS3505
ZBAA,1996-03-18 03:00,ZBAA 180300Z AUTO 34010KT 12SM 05/M23 A3021 RMK SLP248 T00501232 57004 IEM_DS3505
ZBAA,1996-03-18 04:00,ZBAA 180400Z AUTO 27010KT 7SM 06/M15 A3018 RMK SLP228 T00601150 IEM_DS3505
ZBAA,1996-03-18 05:00,ZBAA 180500Z AUTO 28008KT 7SM 07/M15 A3015 RMK SLP218 T00701150 IEM_DS3505
ZBAA,1996-03-18 06:00,ZBAA 180600Z AUTO 34014KT 12SM 08/ A3015 RMK SLP222 57025 IEM_DS3505
ZBAA,1996-03-18 07:00,ZBAA 180700Z AUTO 28014KT 7SM 09/M16 A3012 RMK SLP207 T00901160 IEM_DS3505
ZBAA,1996-03-18 08:00,ZBAA 180800Z AUTO 28016KT 7SM 09/M16 A3009 RMK SLP196 T00901160 IEM_DS3505
ZBAA,1996-03-18 09:00,ZBAA 180900Z AUTO 32010G25KT 12SM 09/M25 A3009 RMK SLP206 T00911249 57016 IEM_DS3505
ZBAA,1996-03-18 10:00,ZBAA 181000Z AUTO 29012KT 7SM 08/M17 A3009 RMK SLP197 T00801170 IEM_DS3505
ZBAA,1996-03-18 11:00,ZBAA 181100Z AUTO 20008KT 9SM 03/M16 A3012 RMK SLP224 T00271155 57001 IEM_DS3505
ZBAA,1996-03-18 12:00,ZBAA 181200Z AUTO 25006KT 12SM 06/M16 A3012 RMK SLP216 T00581165 52009 IEM_DS3505
ZBAA,1996-03-18 13:00,ZBAA 181300Z AUTO 30006KT 7SM 05/M16 A3015 RMK SLP218 T00501160 IEM_DS3505
ZBAA,1996-03-18 14:00,ZBAA 181400Z AUTO 00000KT 7SM 04/M16 A3018 RMK SLP229 T00401160 IEM_DS3505
ZBAA,1996-03-18 15:00,ZBAA 181500Z AUTO 20004KT 12SM 04/M16 A3018 RMK SLP226 T00421162 52010 IEM_DS3505
ZBAA,1996-03-18 16:00,ZBAA 181600Z AUTO ////02KT 7SM 03/M14 A3018 RMK SLP229 T00301140 IEM_DS3505
ZBAA,1996-03-18 18:00,ZBAA 181800Z AUTO 20008KT 9SM 03/M16 A3017 RMK SLP224 T00271155 57001 IEM_DS3505
ZBAA,1996-03-18 20:00,ZBAA 182000Z AUTO ////02KT 7SM M02/M09 A3015 RMK SLP220 T10201090 IEM_DS3505
ZBAA,1996-03-18 21:00,ZBAA 182100Z AUTO 18004KT 12SM 02/ A3015 RMK SLP216 57008 IEM_DS3505
ZBAA,1996-03-18 22:00,ZBAA 182200Z AUTO ////02KT 7SM M02/M08 A3015 RMK SLP220 T10201080 IEM_DS3505
ZBAA,1996-03-18 23:00,ZBAA 182300Z AUTO 00000KT 7SM M02/M09 A3015 RMK SLP220 T10201090 IEM_DS3505
ZBAA,1996-03-19 00:00,ZBAA 190000Z AUTO 00000KT 5SM 02/M11 A3018 RMK SLP226 T00161112 52009 IEM_DS3505
ZBAA,1996-03-19 01:00,ZBAA 190100Z AUTO ////02KT 6SM 02/M08 A3018 RMK SLP229 T00201080 IEM_DS3505
ZBAA,1996-03-19 02:00,ZBAA 190200Z AUTO ////04KT 6SM 05/M09 A3015 RMK SLP218 T00501090 IEM_DS3505
ZBAA,1996-03-19 03:00,ZBAA 190300Z AUTO 20016G17KT 4SM 08/M19 A3015 RMK SLP213 T00791188 57012 IEM_DS3505
ZBAA,1996-03-19 04:00,ZBAA 190400Z AUTO 20017KT 6SM 09/M14 A3009 RMK SLP196 T00901140 IEM_DS3505
ZBAA,1996-03-19 05:00,ZBAA 190500Z AUTO 19017KT 6SM 11/M13 A3009 RMK SLP196 T01101130 IEM_DS3505
ZBAA,1996-03-19 06:00,ZBAA 190600Z AUTO 18012G25KT 7SM 10/M19 A3003 RMK SLP179 T01011193 4////0001 57034 IEM_DS3505
ZBAA,1996-03-19 07:00,ZBAA 190700Z AUTO 20016KT 6SM 12/M10 A3000 RMK SLP165 T01201100 IEM_DS3505
ZBAA,1996-03-19 08:00,ZBAA 190800Z AUTO 18016KT 6SM 11/M09 A2997 RMK SLP156 T01101090 IEM_DS3505
ZBAA,1996-03-19 09:00,ZBAA 190900Z AUTO 20014KT 6SM 10/M13 A2997 RMK SLP160 T01011128 57019 IEM_DS3505
ZBAA,1996-03-19 10:00,ZBAA 191000Z AUTO 19010KT 6SM 09/M07 A2997 RMK SLP156 T00901070 IEM_DS3505
ZBAA,1996-03-19 11:00,ZBAA 191100Z AUTO 17006KT 11SM 06/M00 A2997 RMK SLP167 T00611005 52002 IEM_DS3505
ZBAA,1996-03-19 12:00,ZBAA 191200Z AUTO 20010KT 7SM 08/M07 A3000 RMK SLP164 T00821068 52004 IEM_DS3505
ZBAA,1996-03-19 13:00,ZBAA 191300Z AUTO 14006KT 6SM 07/M05 A3000 RMK SLP167 T00701050 IEM_DS3505
ZBAA,1996-03-19 14:00,ZBAA 191400Z AUTO ////02KT 6SM 05/M05 A3000 RMK SLP167 T00501050 IEM_DS3505
ZBAA,1996-03-19 15:00,ZBAA 191500Z AUTO 18008KT 7SM 07/M08 A3000 RMK SLP166 T00681076 52002 IEM_DS3505
ZBAA,1996-03-19 16:00,ZBAA 191600Z AUTO ////04KT 5SM 05/M03 A3000 RMK SLP167 T00501030 IEM_DS3505
ZBAA,1996-03-19 18:00,ZBAA 191800Z AUTO 20008KT 11SM 06/M00 A3000 RMK SLP167 T00611005 52002 IEM_DS3505
ZBAA,1996-03-19 20:00,ZBAA 192000Z AUTO ////04KT 4SM 05/01 A3000 RMK SLP167 T00500010 IEM_DS3505
ZBAA,1996-03-19 21:00,ZBAA 192100Z AUTO 20006KT 11SM 04/M01 A3000 RMK SLP171 T00421007 52003 IEM_DS3505
ZBAA,1996-03-19 22:00,ZBAA 192200Z AUTO ////02KT 4SM 03/00 A3003 RMK SLP178 T00300000 IEM_DS3505
ZBAA,1996-03-19 23:00,ZBAA 192300Z AUTO ////02KT 3SM 02/M01 A3003 RMK SLP178 T00201010 IEM_DS3505
ZBAA,1996-03-20 00:00,ZBAA 200000Z AUTO 34002KT 2 1/2SM 04/M01 A3003 RMK SLP179 T00411008 52008 IEM_DS3505
ZBAA,1996-03-20 01:00,ZBAA 200100Z AUTO ////04KT 3SM 04/00 A3006 RMK SLP188 T00400000 IEM_DS3505
ZBAA,1996-03-20 02:00,ZBAA 200200Z AUTO ////04KT 2 1/2SM 05/01 A3009 RMK SLP197 T00500010 IEM_DS3505
ZBAA,1996-03-20 03:00,ZBAA 200300Z AUTO 09004KT 3SM 07/M06 A3009 RMK SLP195 T00721055 52016 IEM_DS3505
ZBAA,1996-03-20 04:00,ZBAA 200400Z AUTO 10006KT 3SM 08/02 A3009 RMK SLP197 T00800020 IEM_DS3505
ZBAA,1996-03-20 05:00,ZBAA 200500Z AUTO 12008KT 3SM 09/02 A3006 RMK SLP186 T00900020 IEM_DS3505
ZBAA,1996-03-20 06:00,ZBAA 200600Z AUTO 09004KT 3SM 09/00 A3003 RMK SLP182 T00910001 57013 IEM_DS3505
ZBAA,1996-03-20 07:00,ZBAA 200700Z AUTO 11006KT 4SM 10/03 A3003 RMK SLP176 T01000030 IEM_DS3505
ZBAA,1996-03-20 08:00,ZBAA 200800Z AUTO 11006KT 4SM 10/03 A3003 RMK SLP176 T01000030 IEM_DS3505
ZBAA,1996-03-20 09:00,ZBAA 200900Z AUTO 11002KT 2 1/2SM 10/01 A3003 RMK SLP174 T01050008 57008 IEM_DS3505
ZBAA,1996-03-20 10:00,ZBAA 201000Z AUTO ////04KT 3SM 09/03 A3003 RMK SLP176 T00900030 IEM_DS3505
ZBAA,1996-03-20 11:00,ZBAA 201100Z AUTO 00000KT 2 1/2SM 09/02 A3006 RMK SLP186 T00900020 IEM_DS3505
ZBAA,1996-03-20 12:00,ZBAA 201200Z AUTO 02004KT 2SM 08/01 A3009 RMK SLP190 T00850014 52016 IEM_DS3505
ZBAA,1996-03-20 13:00,ZBAA 201300Z AUTO ////04KT 2SM 08/03 A3009 RMK SLP197 T00800030 IEM_DS3505
ZBAA,1996-03-20 14:00,ZBAA 201400Z AUTO ////04KT 2 1/2SM 08/03 A3012 RMK SLP208 T00800030 IEM_DS3505
ZBAA,1996-03-20 15:00,ZBAA 201500Z AUTO 04006KT 3SM 08/02 A3012 RMK SLP208 T00820016 52018 IEM_DS3505
ZBAA,1996-03-20 18:00,ZBAA 201800Z AUTO 04004KT 2SM 07/02 A3014 RMK SLP215 T00710022 52007 IEM_DS3505
ZBAA,1996-03-20 20:00,ZBAA 202000Z AUTO 00000KT 4SM 06/04 A3012 RMK SLP208 T00600040 IEM_DS3505
ZBAA,1996-03-20 21:00,ZBAA 202100Z AUTO 02004KT 1 1/4SM 05/02 A3015 RMK SLP212 T00520025 57003 IEM_DS3505
ZBAA,1996-03-20 22:00,ZBAA 202200Z AUTO ////02KT 5SM 06/02 A3018 RMK SLP228 T00600020 IEM_DS3505
ZBAA,1996-03-20 23:00,ZBAA 202300Z AUTO 12006KT 5SM 05/03 A3018 RMK SLP229 T00500030 IEM_DS3505
ZBAA,1996-03-21 00:00,ZBAA 210000Z AUTO 11002KT 1 1/4SM 04/02 A3021 RMK 60024 70024 SLP240 T00410023 52028 IEM_DS3505
ZBAA,1996-03-21 01:00,ZBAA 210100Z AUTO 11010KT 4SM 05/04 A3024 RMK SLP249 T00500040 IEM_DS3505
ZBAA,1996-03-21 02:00,ZBAA 210200Z AUTO 11008KT 4SM 05/04 A3027 RMK SLP259 T00500040 IEM_DS3505
ZBAA,1996-03-21 03:00,ZBAA 210300Z AUTO 11004KT 2 1/2SM 05/01 A3027 RMK SLP255 T00530006 52015 IEM_DS3505
ZBAA,1996-03-21 04:00,ZBAA 210400Z AUTO 02006KT 4SM 03/03 A3027 RMK SLP259 T00300030 IEM_DS3505
ZBAA,1996-03-21 05:00,ZBAA 210500Z AUTO ////04KT 4SM 03/02 A3027 RMK SLP259 T00300020 IEM_DS3505
ZBAA,1996-03-21 06:00,ZBAA 210600Z AUTO 09006KT 3SM 05/00 A3024 RMK 60000 SLP245 T00470005 57010 IEM_DS3505
ZBAA,1996-03-21 07:00,ZBAA 210700Z AUTO 12006KT 5SM 06/03 A3024 RMK SLP248 T00600030 IEM_DS3505
ZBAA,1996-03-21 08:00,ZBAA 210800Z AUTO ////04KT 7SM 05/02 A3024 RMK SLP249 T00500020 IEM_DS3505
ZBAA,1996-03-21 09:00,ZBAA 210900Z AUTO 11006KT 4SM 05/M01 A3024 RMK SLP251 T00481012 52005 IEM_DS3505
ZBAA,1996-03-21 10:00,ZBAA 211000Z AUTO 04006KT 7SM 04/02 A3027 RMK SLP259 T00400020 IEM_DS3505
ZBAA,1996-03-21 11:00,ZBAA 211100Z AUTO 20008KT 5SM 02/M01 A3027 RMK 60002 SLP301 T00221009 52015 IEM_DS3505
ZBAA,1996-03-21 12:00,ZBAA 211200Z AUTO 04002KT 2 1/2SM 04/01 A3030 RMK SLP268 T00390013 52017 IEM_DS3505
ZBAA,1996-03-21 13:00,ZBAA 211300Z AUTO ////04KT 6SM 03/02 A3030 RMK SLP269 T00300020 IEM_DS3505
ZBAA,1996-03-21 14:00,ZBAA 211400Z AUTO ////04KT 7SM 03/02 A3033 RMK SLP279 T00300020 IEM_DS3505
ZBAA,1996-03-21 15:00,ZBAA 211500Z AUTO 22008KT 4SM 04/01 A3036 RMK SLP286 T00380009 52018 IEM_DS3505
ZBAA,1996-03-21 16:00,ZBAA 211600Z AUTO ////02KT 7SM 03/03 A3036 RMK SLP289 T00300030 IEM_DS3505
ZBAA,1996-03-21 18:00,ZBAA 211800Z AUTO 20008KT 5SM 02/M01 A3042 RMK 60002 SLP301 T00221009 52015 IEM_DS3505
ZBAA,1996-03-21 20:00,ZBAA 212000Z AUTO 00000KT 4SM 02/02 A3039 RMK SLP301 T00200020 IEM_DS3505
ZBAA,1996-03-21 21:00,ZBAA 212100Z AUTO 00000KT 6SM 02/M02 A3042 RMK SLP305 T00231024 52004 IEM_DS3505
ZBAA,1996-03-21 22:00,ZBAA 212200Z AUTO ////02KT 3SM 02/02 A3045 RMK SLP321 T00200020 IEM_DS3505
ZBAA,1996-03-21 23:00,ZBAA 212300Z AUTO ////02KT 3SM 02/02 A3045 RMK SLP321 T00200020 IEM_DS3505
ZBAA,1996-03-22 00:00,ZBAA 220000Z AUTO 20002KT 1SM 02/M01 A3048 RMK 60002 70004 SLP330 T00151008 52024 IEM_DS3505
ZBAA,1996-03-22 01:00,ZBAA 220100Z AUTO 04006KT 6SM 03/03 A3050 RMK SLP338 T00300030 IEM_DS3505
ZBAA,1996-03-22 02:00,ZBAA 220200Z AUTO ////02KT 7SM 04/03 A3050 RMK SLP338 T00400030 IEM_DS3505
ZBAA,1996-03-22 03:00,ZBAA 220300Z AUTO 04002KT 1 1/4SM 02/01 A3050 RMK SLP339 T00170009 52009 IEM_DS3505
ZBAA,1996-03-22 04:00,ZBAA 220400Z AUTO 22008KT 5SM 04/03 A3050 RMK SLP338 T00400030 IEM_DS3505
ZBAA,1996-03-22 05:00,ZBAA 220500Z AUTO 22006KT 5SM 04/02 A3047 RMK SLP327 T00400020 IEM_DS3505
ZBAA,1996-03-22 06:00,ZBAA 220600Z AUTO 25004KT 2 1/2SM 03/M00 A3045 RMK 60004 SLP327 T00301003 57012 IEM_DS3505
ZBAA,1996-03-22 07:00,ZBAA 220700Z AUTO ////04KT 7SM 06/M01 A3045 RMK SLP320 T00601010 IEM_DS3505
ZBAA,1996-03-22 08:00,ZBAA 220800Z AUTO 27008KT 7SM 06/00 A3045 RMK SLP320 T00600000 IEM_DS3505
ZBAA,1996-03-22 09:00,ZBAA 220900Z AUTO 20006KT 4SM 05/M02 A3045 RMK SLP317 T00461015 57009 IEM_DS3505
ZBAA,1996-03-22 10:00,ZBAA 221000Z AUTO ////04KT 7SM 05/00 A3045 RMK SLP320 T00500000 IEM_DS3505
ZBAA,1996-03-22 11:00,ZBAA 221100Z AUTO ////04KT 5SM 05/01 A3045 RMK SLP320 T00500010 IEM_DS3505
ZBAA,1996-03-22 12:00,ZBAA 221200Z AUTO 20004KT 4SM 04/M01 A3047 RMK SLP329 T00431012 52011 IEM_DS3505
ZBAA,1996-03-22 13:00,ZBAA 221300Z AUTO ////02KT 5SM 04/01 A3050 RMK SLP338 T00400010 IEM_DS3505
ZBAA,1996-03-22 14:00,ZBAA 221400Z AUTO ////02KT 5SM 05/00 A3050 RMK SLP337 T00500000 IEM_DS3505
ZBAA,1996-03-22 15:00,ZBAA 221500Z AUTO 20010KT 7SM 03/M01 A3050 RMK SLP343 T00311014 52014 IEM_DS3505
ZBAA,1996-03-22 18:00,ZBAA 221800Z AUTO 20010KT 7SM 02/M01 A3052 RMK SLP345 T00241013 52002 IEM_DS3505
ZBAA,1996-03-22 20:00,ZBAA 222000Z AUTO 12006KT 4SM 00/00 A3056 RMK SLP359 T00000000 IEM_DS3505
ZBAA,1996-03-22 21:00,ZBAA 222100Z AUTO 18004KT 1/8SM 01/M00 A3056 RMK 70008 SLP351 T00091002 52006 IEM_DS3505
ZBAA,1996-03-22 22:00,ZBAA 222200Z AUTO 16010KT 4SM 00/00 A3056 RMK SLP359 T00000000 IEM_DS3505
ZBAA,1996-03-22 23:00,ZBAA 222300Z AUTO 17010KT 5SM M01/M01 A3056 RMK SLP359 T10101010 IEM_DS3505
ZBAA,1996-03-23 00:00,ZBAA 230000Z AUTO 18010KT 1 1/4SM M00/M02 A3059 RMK 60008 70012 SLP364 T10051015 52013 IEM_DS3505
ZBAA,1996-03-23 01:00,ZBAA 230100Z AUTO 17006KT 4SM 00/00 A3059 RMK SLP369 T00000000 IEM_DS3505
ZBAA,1996-03-23 02:00,ZBAA 230200Z AUTO 18006KT 3SM 00/00 A3059 RMK SLP369 T00000000 IEM_DS3505
ZBAA,1996-03-23 03:00,ZBAA 230300Z AUTO 20008KT 4SM 01/M02 A3056 RMK SLP362 T00111025 57002 IEM_DS3505
ZBAA,1996-03-23 04:00,ZBAA 230400Z AUTO 21008KT 4SM 01/01 A3056 RMK SLP358 T00100010 IEM_DS3505
ZBAA,1996-03-23 05:00,ZBAA 230500Z AUTO 20008KT 4SM 02/00 A3053 RMK SLP348 T00200000 IEM_DS3505
ZBAA,1996-03-23 06:00,ZBAA 230600Z AUTO 20008KT 6SM 03/M02 A3050 RMK 60000 SLP341 T00261020 57021 IEM_DS3505
ZBAA,1996-03-23 07:00,ZBAA 230700Z AUTO 20008KT 4SM 04/00 A3047 RMK SLP327 T00400000 IEM_DS3505
ZBAA,1996-03-23 08:00,ZBAA 230800Z AUTO 23006KT 4SM 04/00 A3045 RMK SLP320 T00400000 IEM_DS3505
ZBAA,1996-03-23 09:00,ZBAA 230900Z AUTO 20008KT 5SM 03/M02 A3042 RMK SLP313 T00331025 57028 IEM_DS3505
ZBAA,1996-03-23 10:00,ZBAA 231000Z AUTO 20006KT 4SM 02/01 A3039 RMK SLP301 T00200010 IEM_DS3505
ZBAA,1996-03-23 11:00,ZBAA 231100Z AUTO 00000KT 3SM 02/01 A3042 RMK SLP311 T00200010 IEM_DS3505
ZBAA,1996-03-23 12:00,ZBAA 231200Z AUTO 20008KT 9SM 03/M04 A3042 RMK SLP306 T00291041 57007 IEM_DS3505
ZBAA,1996-03-23 13:00,ZBAA 231300Z AUTO 00000KT 2 1/2SM 01/01 A3042 RMK SLP311 T00100010 IEM_DS3505
ZBAA,1996-03-23 14:00,ZBAA 231400Z AUTO 00000KT 2 1/2SM 01/01 A3042 RMK SLP311 T00100010 IEM_DS3505
ZBAA,1996-03-23 15:00,ZBAA 231500Z AUTO 22008KT 9SM 02/M03 A3042 RMK SLP304 T00221033 57002 IEM_DS3505
ZBAA,1996-03-23 16:00,ZBAA 231600Z AUTO ////04KT 2 1/2SM 02/00 A3039 RMK SLP301 T00200000 IEM_DS3505
ZBAA,1996-03-23 17:00,ZBAA 231700Z AUTO ////04KT 4SM 02/00 A3036 RMK SLP290 T00200000 IEM_DS3505
ZBAA,1996-03-23 18:00,ZBAA 231800Z AUTO 29004KT 6SM 01/M02 A3034 RMK SLP284 T00131019 57020 IEM_DS3505
ZBAA,1996-03-23 20:00,ZBAA 232000Z AUTO 00000KT 1 1/2SM 00/M01 A3027 RMK SLP260 T00001010 IEM_DS3505
ZBAA,1996-03-23 21:00,ZBAA 232100Z AUTO 00000KT 3SM M00/M01 A3027 RMK 70008 SLP262 T10011013 57022 IEM_DS3505
ZBAA,1996-03-23 23:00,ZBAA 232300Z AUTO 00000KT 1 1/4SM 00/00 A3027 RMK SLP260 T00000000 IEM_DS3505
ZBAA,1996-03-24 00:00,ZBAA 240000Z AUTO 20004KT 2 1/2SM 01/M01 A3027 RMK SLP262 T00121014 52001 IEM_DS3505
ZBAA,1996-03-24 01:00,ZBAA 240100Z AUTO ////02KT 2SM 02/01 A3027 RMK SLP260 T00200010 IEM_DS3505
ZBAA,1996-03-24 02:00,ZBAA 240200Z AUTO 00000KT 2SM 03/01 A3027 RMK SLP259 T00300010 IEM_DS3505
ZBAA,1996-03-24 03:00,ZBAA 240300Z AUTO 18006KT 1 1/2SM 04/M01 A3024 RMK SLP255 T00431009 57007 IEM_DS3505
ZBAA,1996-03-24 04:00,ZBAA 240400Z AUTO 22006KT 2SM 08/03 A3021 RMK SLP238 T00800030 IEM_DS3505
ZBAA,1996-03-24 05:00,ZBAA 240500Z AUTO ////04KT 2 1/2SM 09/01 A3018 RMK SLP228 T00900010 IEM_DS3505
ZBAA,1996-03-24 06:00,ZBAA 240600Z AUTO 20006KT 3SM 10/M00 A3015 RMK SLP219 T00991005 57035 IEM_DS3505
ZBAA,1996-03-24 07:00,ZBAA 240700Z AUTO 26006KT 4SM 10/M02 A3015 RMK SLP217 T01001020 IEM_DS3505
ZBAA,1996-03-24 08:00,ZBAA 240800Z AUTO 27006KT 4SM 11/M02 A3012 RMK SLP207 T01101020 IEM_DS3505
ZBAA,1996-03-24 09:00,ZBAA 240900Z AUTO 25008KT 4SM 10/M00 A3012 RMK SLP211 T00991004 57008 IEM_DS3505
ZBAA,1996-03-24 10:00,ZBAA 241000Z AUTO 21008KT 4SM 10/00 A3012 RMK SLP207 T01000000 IEM_DS3505
ZBAA,1996-03-24 11:00,ZBAA 241100Z AUTO ////04KT 5SM 08/01 A3012 RMK SLP208 T00800010 IEM_DS3505
ZBAA,1996-03-24 12:00,ZBAA 241200Z AUTO 18006KT 9SM 08/01 A3015 RMK SLP221 T00810006 52009 IEM_DS3505
ZBAA,1996-03-24 13:00,ZBAA 241300Z AUTO 22006KT 5SM 06/01 A3015 RMK SLP218 T00600010 IEM_DS3505
ZBAA,1996-03-24 14:00,ZBAA 241400Z AUTO 23006KT 5SM 06/02 A3015 RMK SLP218 T00600020 IEM_DS3505
ZBAA,1996-03-24 15:00,ZBAA 241500Z AUTO 00000KT 6SM 05/01 A3015 RMK SLP223 T00490007 52002 IEM_DS3505
ZBAA,1996-03-24 20:00,ZBAA 242000Z AUTO ////02KT 3SM 02/00 A3018 RMK SLP229 T00200000 IEM_DS3505
ZBAA,1996-03-24 21:00,ZBAA 242100Z AUTO 02004KT 1 1/2SM 01/M01 A3019 RMK SLP233 T00121014 52006 IEM_DS3505
ZBAA,1996-03-24 23:00,ZBAA 242300Z AUTO 36006KT 3SM 01/M01 A3024 RMK SLP250 T00101010 IEM_DS3505
ZBAA,1996-03-25 00:00,ZBAA 250000Z AUTO 04004KT 4SM 06/M03 A3024 RMK SLP251 T00551034 52018 IEM_DS3505
ZBAA,1996-03-25 01:00,ZBAA 250100Z AUTO 02006KT 7SM 07/M01 A3027 RMK SLP258 T00701010 IEM_DS3505
ZBAA,1996-03-25 02:00,ZBAA 250200Z AUTO 04008KT 7SM 11/M03 A3027 RMK SLP257 T01101030 IEM_DS3505
ZBAA,1996-03-25 03:00,ZBAA 250300Z AUTO 02008KT 6SM 10/M07 A3024 RMK SLP248 T01021073 57003 IEM_DS3505
ZBAA,1996-03-25 04:00,ZBAA 250400Z AUTO 06006KT 7SM 12/M06 A3021 RMK SLP237 T01201060 IEM_DS3505
ZBAA,1996-03-25 05:00,ZBAA 250500Z AUTO ////02KT 6SM 13/M06 A3018 RMK SLP227 T01301060 IEM_DS3505
ZBAA,1996-03-25 06:00,ZBAA 250600Z AUTO 16004KT 6SM 14/M07 A3015 RMK SLP224 T01391072 57024 IEM_DS3505
ZBAA,1996-03-25 07:00,ZBAA 250700Z AUTO 19008KT 6SM 14/M05 A3015 RMK SLP216 T01401050 IEM_DS3505
ZBAA,1996-03-25 08:00,ZBAA 250800Z AUTO 19008KT 6SM 13/M04 A3012 RMK SLP206 T01301040 IEM_DS3505
ZBAA,1996-03-25 09:00,ZBAA 250900Z AUTO 22006KT 7SM 13/M07 A3012 RMK SLP208 T01281071 57016 IEM_DS3505
ZBAA,1996-03-25 10:00,ZBAA 251000Z AUTO 19006KT 6SM 12/M05 A3012 RMK SLP207 T01201050 IEM_DS3505
ZBAA,1996-03-25 11:00,ZBAA 251100Z AUTO 19006KT 6SM 11/M03 A3012 RMK SLP207 T01101030 IEM_DS3505
ZBAA,1996-03-25 12:00,ZBAA 251200Z AUTO 20006KT 6SM 11/M03 A3012 RMK SLP211 T01091032 52003 IEM_DS3505
ZBAA,1996-03-25 13:00,ZBAA 251300Z AUTO 18006KT 6SM 10/M04 A3015 RMK SLP217 T01001040 IEM_DS3505
ZBAA,1996-03-25 14:00,ZBAA 251400Z AUTO ////02KT 5SM 10/M03 A3015 RMK SLP217 T01001030 IEM_DS3505
ZBAA,1996-03-25 15:00,ZBAA 251500Z AUTO 18004KT 5SM 09/M04 A3015 RMK SLP211 T00921042 52001 IEM_DS3505
ZBAA,1996-03-25 18:00,ZBAA 251800Z AUTO 20008KT 7SM 07/M04 A3012 RMK SLP206 T00711044 57005 IEM_DS3505
ZBAA,1996-03-25 21:00,ZBAA 252100Z AUTO 02002KT 7SM 05/M02 A3015 RMK SLP214 T00491024 52008 IEM_DS3505
ZBAA,1996-03-25 22:00,ZBAA 252200Z AUTO 00000KT 2SM 03/00 A3015 RMK SLP219 T00300000 IEM_DS3505
ZBAA,1996-03-25 23:00,ZBAA 252300Z AUTO ////04KT 2SM 03/00 A3018 RMK SLP229 T00300000 IEM_DS3505
ZBAA,1996-03-26 00:00,ZBAA 260000Z AUTO 07004KT 2SM 06/M02 A3018 RMK SLP233 T00641018 52018 IEM_DS3505
ZBAA,1996-03-26 01:00,ZBAA 260100Z AUTO 00000KT 3SM 06/02 A3021 RMK SLP238 T00600020 IEM_DS3505
ZBAA,1996-03-26 02:00,ZBAA 260200Z AUTO ////02KT 5SM 09/01 A3024 RMK SLP248 T00900010 IEM_DS3505
ZBAA,1996-03-26 03:00,ZBAA 260300Z AUTO 36010KT 6SM 13/M03 A3023 RMK SLP244 T01301027 52012 IEM_DS3505
ZBAA,1996-03-26 04:00,ZBAA 260400Z AUTO 31012KT 6SM 15/M03 A3021 RMK SLP236 T01501030 IEM_DS3505
ZBAA,1996-03-26 06:00,ZBAA 260600Z AUTO 34012KT 9SM 15/M06 A3021 RMK SLP234 T01481057 57010 IEM_DS3505
ZBAA,1996-03-26 07:00,ZBAA 260700Z AUTO 32016G25KT 6SM 15/M07 A3021 RMK SLP236 T01501070 IEM_DS3505
ZBAA,1996-03-26 08:00,ZBAA 260800Z AUTO 33016KT 6SM 15/M07 A3021 RMK SLP236 T01501070 IEM_DS3505
ZBAA,1996-03-26 09:00,ZBAA 260900Z AUTO 34012KT 19SM 14/M09 A3021 RMK SLP240 T01381086 52005 IEM_DS3505
ZBAA,1996-03-26 10:00,ZBAA 261000Z AUTO 33014KT 6SM 13/M08 A3024 RMK SLP247 T01301080 IEM_DS3505
ZBAA,1996-03-26 11:00,ZBAA 261100Z AUTO 32006KT 6SM 12/M09 A3027 RMK SLP257 T01201090 IEM_DS3505
ZBAA,1996-03-26 12:00,ZBAA 261200Z AUTO 02010KT 19SM 11/M11 A3033 RMK SLP271 T01091109 52031 IEM_DS3505
ZBAA,1996-03-26 13:00,ZBAA 261300Z AUTO 36008KT 6SM 10/M07 A3033 RMK SLP278 T01001070 IEM_DS3505
ZBAA,1996-03-26 14:00,ZBAA 261400Z AUTO 36006KT 6SM 09/M07 A3036 RMK SLP288 T00901070 IEM_DS3505
ZBAA,1996-03-26 15:00,ZBAA 261500Z AUTO 36008KT 12SM 09/M09 A3039 RMK SLP298 T00901090 52027 IEM_DS3505
ZBAA,1996-03-26 16:00,ZBAA 261600Z AUTO ////02KT 6SM 08/M08 A3042 RMK SLP309 T00801080 IEM_DS3505
ZBAA,1996-03-26 18:00,ZBAA 261800Z AUTO 14002KT 9SM 07/M06 A3042 RMK SLP310 T00741057 52012 IEM_DS3505
ZBAA,1996-03-26 20:00,ZBAA 262000Z AUTO 00000KT 6SM 06/00 A3047 RMK SLP327 T00600000 IEM_DS3505
ZBAA,1996-03-26 21:00,ZBAA 262100Z AUTO 09004KT 6SM 06/M03 A3047 RMK SLP327 T00641029 52017 IEM_DS3505
ZBAA,1996-03-26 22:00,ZBAA 262200Z AUTO 00000KT 6SM 05/M01 A3050 RMK SLP337 T00501010 IEM_DS3505
ZBAA,1996-03-26 23:00,ZBAA 262300Z AUTO 00000KT 6SM 05/M01 A3050 RMK SLP337 T00501010 IEM_DS3505
ZBAA,1996-03-27 00:00,ZBAA 270000Z AUTO 02002KT 4SM 07/M02 A3053 RMK SLP339 T00671021 52012 IEM_DS3505
ZBAA,1996-03-27 01:00,ZBAA 270100Z AUTO ////04KT 5SM 07/M01 A3053 RMK SLP347 T00701010 IEM_DS3505
ZBAA,1996-03-27 02:00,ZBAA 270200Z AUTO 17006KT 5SM 08/M01 A3053 RMK SLP347 T00801010 IEM_DS3505
ZBAA,1996-03-27 03:00,ZBAA 270300Z AUTO 20006KT 6SM 09/M06 A3050 RMK SLP338 T00881064 57001 IEM_DS3505
ZBAA,1996-03-27 04:00,ZBAA 270400Z AUTO 14006KT 7SM 11/M02 A3047 RMK SLP326 T01101020 IEM_DS3505
ZBAA,1996-03-27 05:00,ZBAA 270500Z AUTO 22006KT 6SM 11/M02 A3045 RMK SLP319 T01101020 IEM_DS3505
ZBAA,1996-03-27 06:00,ZBAA 270600Z AUTO 22008KT 12SM 11/M04 A3042 RMK SLP303 T01141037 57035 IEM_DS3505
ZBAA,1996-03-27 07:00,ZBAA 270700Z AUTO 18008KT 6SM 13/M02 A3036 RMK SLP287 T01301020 IEM_DS3505
ZBAA,1996-03-27 08:00,ZBAA 270800Z AUTO 20010KT 6SM 12/M02 A3036 RMK SLP287 T01201020 IEM_DS3505
ZBAA,1996-03-27 09:00,ZBAA 270900Z AUTO 20008KT 12SM 11/M02 A3033 RMK SLP282 T01141024 57021 IEM_DS3505
ZBAA,1996-03-27 10:00,ZBAA 271000Z AUTO 19010KT 5SM 11/M02 A3033 RMK SLP277 T01101020 IEM_DS3505
ZBAA,1996-03-27 12:00,ZBAA 271200Z AUTO 16008KT 12SM 10/M05 A3036 RMK SLP285 T00991047 52003 IEM_DS3505
ZBAA,1996-03-27 13:00,ZBAA 271300Z AUTO 17006KT 6SM 08/M04 A3036 RMK SLP288 T00801040 IEM_DS3505
ZBAA,1996-03-27 14:00,ZBAA 271400Z AUTO ////02KT 6SM 06/M03 A3036 RMK SLP289 T00601030 IEM_DS3505
ZBAA,1996-03-27 15:00,ZBAA 271500Z AUTO 20008KT 9SM 07/M06 A3036 RMK SLP284 T00671060 57001 IEM_DS3505
ZBAA,1996-03-27 18:00,ZBAA 271800Z AUTO 16006KT 7SM 06/M06 A3033 RMK SLP279 T00571060 57005 IEM_DS3505
ZBAA,1996-03-27 20:00,ZBAA 272000Z AUTO 00000KT 6SM 03/M03 A3030 RMK SLP269 T00301030 IEM_DS3505
ZBAA,1996-03-27 21:00,ZBAA 272100Z AUTO 16006KT 9SM 06/M06 A3030 RMK SLP264 T00571059 57015 IEM_DS3505
ZBAA,1996-03-27 22:00,ZBAA 272200Z AUTO ////04KT 6SM 03/M03 A3030 RMK SLP269 T00301030 IEM_DS3505
ZBAA,1996-03-27 23:00,ZBAA 272300Z AUTO ////04KT 6SM 04/M02 A3030 RMK SLP269 T00401020 IEM_DS3505
ZBAA,1996-03-28 00:00,ZBAA 280000Z AUTO 36004KT 6SM 05/M02 A3030 RMK SLP266 T00521024 52002 IEM_DS3505
ZBAA,1996-03-28 01:00,ZBAA 280100Z AUTO 13006KT 5SM 06/M02 A3030 RMK SLP269 T00601020 IEM_DS3505
ZBAA,1996-03-28 02:00,ZBAA 280200Z AUTO 13006KT 6SM 08/M03 A3027 RMK SLP258 T00801030 IEM_DS3505
ZBAA,1996-03-28 03:00,ZBAA 280300Z AUTO 16004KT 2 1/2SM 10/M05 A3027 RMK SLP253 T01001049 57013 IEM_DS3505
ZBAA,1996-03-28 04:00,ZBAA 280400Z AUTO ////02KT 6SM 12/M04 A3024 RMK SLP247 T01201040 IEM_DS3505
ZBAA,1996-03-28 05:00,ZBAA 280500Z AUTO 12006KT 6SM 12/M04 A3018 RMK SLP227 T01201040 IEM_DS3505
ZBAA,1996-03-28 06:00,ZBAA 280600Z AUTO 20010KT 3SM 13/M04 A3015 RMK SLP216 T01291041 57036 IEM_DS3505
ZBAA,1996-03-28 07:00,ZBAA 280700Z AUTO 18010KT 6SM 14/00 A3012 RMK SLP206 T01400000 IEM_DS3505
ZBAA,1996-03-28 08:00,ZBAA 280800Z AUTO 17012KT 7SM 15/00 A3009 RMK SLP195 T01500000 IEM_DS3505
ZBAA,1996-03-28 09:00,ZBAA 280900Z AUTO 20010KT 3SM 14/M02 A3006 RMK SLP188 T01441020 57028 IEM_DS3505
ZBAA,1996-03-28 10:00,ZBAA 281000Z AUTO 17008KT 4SM 14/02 A3006 RMK SLP185 T01400020 IEM_DS3505
ZBAA,1996-03-28 11:00,ZBAA 281100Z AUTO ////04KT 3SM 13/01 A3006 RMK SLP185 T01300010 IEM_DS3505
ZBAA,1996-03-28 12:00,ZBAA 281200Z AUTO 18008KT 5SM 13/01 A3006 RMK SLP189 T01270008 52001 IEM_DS3505
ZBAA,1996-03-28 13:00,ZBAA 281300Z AUTO 00000KT 3SM 10/03 A3009 RMK SLP196 T01000030 IEM_DS3505
ZBAA,1996-03-28 14:00,ZBAA 281400Z AUTO 20008KT 4SM 11/01 A3009 RMK SLP196 T01100010 IEM_DS3505
ZBAA,1996-03-28 15:00,ZBAA 281500Z AUTO 20010KT 5SM 11/M01 A3006 RMK SLP189 T01091006 54000 IEM_DS3505
ZBAA,1996-03-28 18:00,ZBAA 281800Z AUTO 20008KT 9SM 09/01 A3003 RMK SLP177 T00900006 57012 IEM_DS3505
ZBAA,1996-03-28 20:00,ZBAA 282000Z AUTO 19006KT 4SM 08/03 A3000 RMK SLP166 T00800030 IEM_DS3505
ZBAA,1996-03-29 01:00,ZBAA 290100Z AUTO 00000KT 4SM 09/04 A2997 RMK SLP156 T00900040 IEM_DS3505
ZBAA,1996-03-29 02:00,ZBAA 290200Z AUTO 00000KT 4SM 10/04 A2997 RMK SLP156 T01000040 IEM_DS3505
ZBAA,1996-03-29 03:00,ZBAA 290300Z AUTO 20016KT 5SM 13/01 A2997 RMK SLP155 T01300013 57010 IEM_DS3505
ZBAA,1996-03-29 04:00,ZBAA 290400Z AUTO ////02KT 4SM 15/04 A2994 RMK SLP145 T01500040 IEM_DS3505
ZBAA,1996-03-29 05:00,ZBAA 290500Z AUTO 24004KT 4SM 14/02 A2991 RMK SLP135 T01400020 IEM_DS3505
ZBAA,1996-03-29 06:00,ZBAA 290600Z AUTO 20012KT 6SM 13/00 A2988 RMK SLP128 T01300004 57027 IEM_DS3505
ZBAA,1996-03-29 07:00,ZBAA 290700Z AUTO 21006KT 4SM 13/03 A2985 RMK SLP115 T01300030 IEM_DS3505
ZBAA,1996-03-29 08:00,ZBAA 290800Z AUTO 21012KT 4SM 13/03 A2983 RMK SLP108 T01300030 IEM_DS3505
ZBAA,1996-03-29 09:00,ZBAA 290900Z AUTO 20010KT 9SM 12/01 A2980 RMK SLP101 T01200011 57028 IEM_DS3505
ZBAA,1996-03-29 10:00,ZBAA 291000Z AUTO 22006KT 4SM 12/02 A2980 RMK SLP098 T01200020 IEM_DS3505
ZBAA,1996-03-29 11:00,ZBAA 291100Z AUTO 23008KT 4SM 11/02 A2977 RMK SLP088 T01100020 IEM_DS3505
ZBAA,1996-03-29 12:00,ZBAA 291200Z AUTO 20010KT 9SM 10/01 A2980 RMK SLP096 T01010012 57005 IEM_DS3505
ZBAA,1996-03-29 13:00,ZBAA 291300Z AUTO 22006KT 5SM 09/02 A2980 RMK SLP099 T00900020 IEM_DS3505
ZBAA,1996-03-29 14:00,ZBAA 291400Z AUTO ////02KT 5SM 09/02 A2977 RMK SLP089 T00900020 IEM_DS3505
ZBAA,1996-03-29 15:00,ZBAA 291500Z AUTO ////04KT 5SM 08/03 A2977 RMK SLP089 T00800030 IEM_DS3505
ZBAA,1996-03-29 16:00,ZBAA 291600Z AUTO ////02KT 4SM 07/03 A2974 RMK SLP078 T00700030 IEM_DS3505
ZBAA,1996-03-29 18:00,ZBAA 291800Z AUTO 22004KT 5SM 06/02 A2974 RMK SLP077 T00620017 57015 IEM_DS3505
ZBAA,1996-03-29 20:00,ZBAA 292000Z AUTO 00000KT 2 1/2SM 06/03 A2971 RMK SLP068 T00600030 IEM_DS3505
ZBAA,1996-03-29 21:00,ZBAA 292100Z AUTO 07006KT 6SM 09/M03 A2971 RMK SLP071 T00861027 57006 IEM_DS3505
ZBAA,1996-03-29 22:00,ZBAA 292200Z AUTO 01006KT 2 1/2SM 07/01 A2977 RMK SLP089 T00700010 IEM_DS3505
ZBAA,1996-03-29 23:00,ZBAA 292300Z AUTO 03006KT 4SM 09/02 A2980 RMK SLP099 T00900020 IEM_DS3505
ZBAA,1996-03-30 00:00,ZBAA 300000Z AUTO 34014KT 9SM 11/M09 A2980 RMK SLP096 T01141092 52025 IEM_DS3505
ZBAA,1996-03-30 01:00,ZBAA 300100Z AUTO 01008KT 6SM 11/M05 A2980 RMK SLP098 T01101050 IEM_DS3505
ZBAA,1996-03-30 02:00,ZBAA 300200Z AUTO 34004KT 6SM 11/M05 A2985 RMK SLP115 T01101050 IEM_DS3505
ZBAA,1996-03-30 03:00,ZBAA 300300Z AUTO 04008KT 12SM 12/M10 A2985 RMK SLP122 T01211098 52025 IEM_DS3505
ZBAA,1996-03-30 04:00,ZBAA 300400Z AUTO 08006KT 6SM 15/M06 A2985 RMK SLP114 T01501060 IEM_DS3505
ZBAA,1996-03-30 06:00,ZBAA 300600Z AUTO 02014KT 16SM 15/ A2983 RMK SLP114 57007 IEM_DS3505
ZBAA,1996-03-30 07:00,ZBAA 300700Z AUTO 35006KT 6SM 15/M07 A2983 RMK SLP107 T01501070 IEM_DS3505
ZBAA,1996-03-30 08:00,ZBAA 300800Z AUTO 02006KT 6SM 16/M09 A2983 RMK SLP107 T01601090 IEM_DS3505
ZBAA,1996-03-30 09:00,ZBAA 300900Z AUTO 34012KT 16SM 14/M14 A2985 RMK SLP120 T01431136 52006 IEM_DS3505
ZBAA,1996-03-30 10:00,ZBAA 301000Z AUTO 34010KT 6SM 14/M13 A2988 RMK SLP125 T01401130 IEM_DS3505
ZBAA,1996-03-30 11:00,ZBAA 301100Z AUTO 34008KT 6SM 13/M11 A2991 RMK SLP135 T01301110 IEM_DS3505
ZBAA,1996-03-30 12:00,ZBAA 301200Z AUTO 36008KT 16SM 12/M14 A2994 RMK SLP150 T01221138 52030 IEM_DS3505
ZBAA,1996-03-30 13:00,ZBAA 301300Z AUTO 34010KT 6SM 12/M09 A3000 RMK SLP165 T01201090 IEM_DS3505
ZBAA,1996-03-30 14:00,ZBAA 301400Z AUTO 35012KT 6SM 11/M11 A3003 RMK SLP176 T01101110 IEM_DS3505
ZBAA,1996-03-30 15:00,ZBAA 301500Z AUTO 34010KT 12SM 10/M14 A3006 RMK SLP185 T01041135 52034 IEM_DS3505
ZBAA,1996-03-30 16:00,ZBAA 301600Z AUTO 34014KT 6SM 10/M13 A3009 RMK SLP196 T01001130 IEM_DS3505
ZBAA,1996-03-30 18:00,ZBAA 301800Z AUTO 02008KT 12SM 09/M15 A3011 RMK SLP202 T00911153 52017 IEM_DS3505
ZBAA,1996-03-30 20:00,ZBAA 302000Z AUTO 03006KT 6SM 05/M10 A3018 RMK SLP229 T00501100 IEM_DS3505
ZBAA,1996-03-30 21:00,ZBAA 302100Z AUTO 02006KT 19SM 06/M12 A3021 RMK SLP231 T00631121 52029 IEM_DS3505
ZBAA,1996-03-30 22:00,ZBAA 302200Z AUTO ////02KT 6SM 04/M10 A3024 RMK SLP249 T00401100 IEM_DS3505
ZBAA,1996-03-30 23:00,ZBAA 302300Z AUTO ////02KT 6SM 05/M11 A3024 RMK SLP249 T00501110 IEM_DS3505
ZBAA,1996-03-31 00:00,ZBAA 310000Z AUTO 02012KT 16SM 08/M17 A3027 RMK SLP254 T00761171 52023 IEM_DS3505
ZBAA,1996-03-31 01:00,ZBAA 310100Z AUTO ////04KT 6SM 08/M12 A3027 RMK SLP258 T00801120 IEM_DS3505
ZBAA,1996-03-31 02:00,ZBAA 310200Z AUTO ////04KT 7SM 09/M11 A3027 RMK SLP258 T00901110 IEM_DS3505
ZBAA,1996-03-31 03:00,ZBAA 310300Z AUTO 32010KT 19SM 10/M19 A3024 RMK SLP245 T01001189 57009 IEM_DS3505
ZBAA,1996-03-31 04:00,ZBAA 310400Z AUTO ////02KT 7SM 11/M12 A3021 RMK SLP237 T01101120 IEM_DS3505
ZBAA,1996-03-31 05:00,ZBAA 310500Z AUTO 35006KT 7SM 12/M12 A3015 RMK SLP217 T01201120 IEM_DS3505
ZBAA,1996-03-31 06:00,ZBAA 310600Z AUTO 34012KT 19SM 12/M19 A3012 RMK SLP216 T01241191 57029 IEM_DS3505
ZBAA,1996-03-31 07:00,ZBAA 310700Z AUTO 34017KT 6SM 13/M13 A3012 RMK SLP206 T01301130 IEM_DS3505
ZBAA,1996-03-31 08:00,ZBAA 310800Z AUTO 33012KT 6SM 13/M13 A3012 RMK SLP206 T01301130 IEM_DS3505
ZBAA,1996-03-31 09:00,ZBAA 310900Z AUTO 34006KT 19SM 13/M16 A3012 RMK SLP207 T01271157 57009 IEM_DS3505
ZBAA,1996-03-31 10:00,ZBAA 311000Z AUTO 33010KT 6SM 12/M14 A3012 RMK SLP207 T01201140 IEM_DS3505
ZBAA,1996-03-31 11:00,ZBAA 311100Z AUTO 34010KT 6SM 11/M15 A3015 RMK SLP217 T01101150 IEM_DS3505
ZBAA,1996-03-31 12:00,ZBAA 311200Z AUTO 34006KT 16SM 10/M16 A3018 RMK SLP227 T00981156 52019 IEM_DS3505
ZBAA,1996-03-31 13:00,ZBAA 311300Z AUTO 34010KT 6SM 09/M14 A3021 RMK SLP238 T00901140 IEM_DS3505
ZBAA,1996-03-31 14:00,ZBAA 311400Z AUTO 34008KT 6SM 09/M14 A3024 RMK SLP248 T00901140 IEM_DS3505
ZBAA,1996-03-31 15:00,ZBAA 311500Z AUTO 36006KT 16SM 08/M19 A3027 RMK SLP257 T00851187 52030 IEM_DS3505
ZBAA,1996-03-31 16:00,ZBAA 311600Z AUTO 31008KT 6SM 08/M14 A3027 RMK SLP258 T00801140 IEM_DS3505
ZBAA,1996-03-31 18:00,ZBAA 311800Z AUTO 02008KT 16SM 07/M19 A3030 RMK SLP269 T00681191 52012 IEM_DS3505
ZBAA,1996-03-31 20:00,ZBAA 312000Z AUTO 02006KT 6SM 05/M15 A3033 RMK SLP279 T00501150 IEM_DS3505
ZBAA,1996-03-31 21:00,ZBAA 312100Z AUTO 02014KT 19SM 05/M18 A3033 RMK SLP276 T00501185 52007 IEM_DS3505
ZBAA,1996-03-31 22:00,ZBAA 312200Z AUTO 03006KT 6SM 03/M15 A3033 RMK SLP279 T00301150 IEM_DS3505
ZBAA,1996-03-31 23:00,ZBAA 312300Z AUTO ////02KT 7SM 03/M13 A3036 RMK SLP289 T00301130 IEM_DS3505
ZBAA,1996-04-01 00:00,ZBAA 010000Z AUTO 36012KT 16SM 05/M20 A3039 RMK SLP296 T00511204 52020 IEM_DS3505
ZBAA,1996-04-01 01:00,ZBAA 010100Z AUTO 06008KT 7SM 06/M13 A3039 RMK T00601130 IEM_DS3505
ZBAA,1996-04-01 02:00,ZBAA 010200Z AUTO 04010KT 6SM 07/M13 A3039 RMK T00701130 IEM_DS3505
ZBAA,1996-04-01 03:00,ZBAA 010300Z AUTO 02014KT 16SM 07/M22 A3036 RMK SLP289 T00671221 57007 IEM_DS3505
ZBAA,1996-04-01 04:00,ZBAA 010400Z AUTO 02014KT 6SM 09/M16 A3033 RMK T00901160 IEM_DS3505
ZBAA,1996-04-01 05:00,ZBAA 010500Z AUTO 02014KT 6SM 09/M16 A3030 RMK T00901160 IEM_DS3505
ZBAA,1996-04-01 06:00,ZBAA 010600Z AUTO 02010KT 16SM 09/ A3030 RMK SLP267 57022 IEM_DS3505
ZBAA,1996-04-01 07:00,ZBAA 010700Z AUTO 01016KT 6SM 10/M16 A3030 RMK T01001160 IEM_DS3505
ZBAA,1996-04-01 08:00,ZBAA 010800Z AUTO 35017KT 6SM 10/M16 A3030 RMK T01001160 IEM_DS3505
ZBAA,1996-04-01 09:00,ZBAA 010900Z AUTO 02012KT 16SM 09/ A3027 RMK SLP257 57010 IEM_DS3505
ZBAA,1996-04-01 10:00,ZBAA 011000Z AUTO 35012KT 6SM 09/M18 A3027 RMK T00901180 IEM_DS3505
ZBAA,1996-04-01 11:00,ZBAA 011100Z AUTO 04012KT 6SM 08/M19 A3027 RMK T00801190 IEM_DS3505
ZBAA,1996-04-01 12:00,ZBAA 011200Z AUTO 36010KT 19SM 07/M24 A3030 RMK SLP275 T00691239 52017 IEM_DS3505
ZBAA,1996-04-01 13:00,ZBAA 011300Z AUTO 05006KT 6SM 05/M18 A3033 RMK T00501180 IEM_DS3505
ZBAA,1996-04-01 15:00,ZBAA 011500Z AUTO 34004KT 12SM 04/M14 A3036 RMK SLP287 T00391140 52012 IEM_DS3505
ZBAA,1996-04-01 18:00,ZBAA 011800Z AUTO 02004KT 12SM 03/M14 RMK SLP286 T00291136 57001 IEM_DS3505
ZBAA,1996-04-01 20:00,ZBAA 012000Z AUTO ////04KT 7SM 04/M15 A3033 RMK T00401150 IEM_DS3505
ZBAA,1996-04-01 21:00,ZBAA 012100Z AUTO 00000KT 16SM 10/M11 A3033 RMK SLP279 T01031110 52010 IEM_DS3505
ZBAA,1996-04-01 22:00,ZBAA 012200Z AUTO 35006KT 7SM 03/M15 A3030 RMK SLP269 T00301150 IEM_DS3505
ZBAA,1996-04-02 00:00,ZBAA 020000Z AUTO 02004KT 16SM 05/M15 A3033 RMK SLP280 T00541154 52001 IEM_DS3505
ZBAA,1996-04-02 01:00,ZBAA 020100Z AUTO 32008KT 7SM 07/M13 A3030 RMK SLP268 T00701130 IEM_DS3505
ZBAA,1996-04-02 02:00,ZBAA 020200Z AUTO 30012KT 7SM 08/M13 A3030 RMK SLP268 T00801130 IEM_DS3505
ZBAA,1996-04-02 03:00,ZBAA 020300Z AUTO 34008KT 12SM 10/M20 A3027 RMK SLP263 T00971204 57016 IEM_DS3505
ZBAA,1996-04-02 04:00,ZBAA 020400Z AUTO 28014KT 7SM 11/M13 A3024 RMK SLP247 T01101130 IEM_DS3505
ZBAA,1996-04-02 05:00,ZBAA 020500Z AUTO 29010KT 7SM 11/M13 A3018 RMK SLP227 T01101130 IEM_DS3505
ZBAA,1996-04-02 06:00,ZBAA 020600Z AUTO 34010KT 12SM 12/M19 A3015 RMK SLP225 T01251187 57038 IEM_DS3505
ZBAA,1996-04-02 07:00,ZBAA 020700Z AUTO 28012KT 6SM 14/M12 A3009 RMK SLP195 T01401120 IEM_DS3505
ZBAA,1996-04-02 08:00,ZBAA 020800Z AUTO 32017KT RMK IEM_DS3505
ZBAA,1996-04-02 09:00,ZBAA 020900Z AUTO 27010KT 12SM 14/M20 A3006 RMK SLP198 T01411200 57027 IEM_DS3505
ZBAA,1996-04-02 10:00,ZBAA 021000Z AUTO 35014KT 7SM 13/M14 A3006 RMK SLP185 T01301140 IEM_DS3505
ZBAA,1996-04-02 11:00,ZBAA 021100Z AUTO 36012KT 7SM 12/M15 A3009 RMK SLP196 T01201150 IEM_DS3505
ZBAA,1996-04-02 12:00,ZBAA 021200Z AUTO 00000KT 16SM 10/M11 A3012 RMK SLP208 T01031110 52010 IEM_DS3505
ZBAA,1996-04-02 13:00,ZBAA 021300Z AUTO 02008KT 7SM 11/M15 A3012 RMK SLP207 T01101150 IEM_DS3505
ZBAA,1996-04-02 14:00,ZBAA 021400Z AUTO 03004KT 7SM 10/M15 A3015 RMK SLP217 T01001150 IEM_DS3505
ZBAA,1996-04-02 15:00,ZBAA 021500Z AUTO 02004KT 16SM 07/M09 A3015 RMK SLP222 T00671094 52014 IEM_DS3505
ZBAA,1996-04-02 16:00,ZBAA 021600Z AUTO ////02KT 7SM 07/M13 A3015 RMK SLP218 T00701130 IEM_DS3505
ZBAA,1996-04-02 17:00,ZBAA 021700Z AUTO 00000KT 7SM 06/M13 A3018 RMK SLP228 T00601130 IEM_DS3505
ZBAA,1996-04-02 18:00,ZBAA 021800Z AUTO 36002KT 12SM 06/M12 A3018 RMK SLP226 T00591118 52005 IEM_DS3505
ZBAA,1996-04-02 20:00,ZBAA 022000Z AUTO 06006KT 7SM 04/M10 A3018 RMK SLP229 T00401100 IEM_DS3505
ZBAA,1996-04-02 21:00,ZBAA 022100Z AUTO 07004KT 12SM 06/M14 A3018 RMK SLP229 T00581141 52003 IEM_DS3505
ZBAA,1996-04-02 22:00,ZBAA 022200Z AUTO 07006KT 7SM 04/M11 A3018 RMK SLP229 T00401110 IEM_DS3505
ZBAA,1996-04-02 23:00,ZBAA 022300Z AUTO 07006KT 7SM 04/M10 A3021 RMK SLP239 T00401100 IEM_DS3505
ZBAA,1996-04-03 00:00,ZBAA 030000Z AUTO 07004KT 11SM 08/M12 A3021 RMK SLP243 T00831124 52013 IEM_DS3505
ZBAA,1996-04-03 01:00,ZBAA 030100Z AUTO 05008KT 7SM 09/M12 A3021 RMK SLP238 T00901120 IEM_DS3505
ZBAA,1996-04-03 02:00,ZBAA 030200Z AUTO 05008KT 7SM 11/M12 A3021 RMK SLP237 T01101120 IEM_DS3505
ZBAA,1996-04-03 03:00,ZBAA 030300Z AUTO 36010KT 16SM 11/M19 A3021 RMK SLP237 T01101189 57006 IEM_DS3505
ZBAA,1996-04-03 04:00,ZBAA 030400Z AUTO 02004KT 7SM 12/M11 A3018 RMK SLP227 T01201110 IEM_DS3505
ZBAA,1996-04-03 05:00,ZBAA 030500Z AUTO 03004KT 7SM 14/M10 A3012 RMK SLP206 T01401100 IEM_DS3505
ZBAA,1996-04-03 06:00,ZBAA 030600Z AUTO 34012KT 19SM 14/ A3009 RMK SLP197 57039 IEM_DS3505
ZBAA,1996-04-03 07:00,ZBAA 030700Z AUTO 05004KT 7SM 15/M11 A3006 RMK SLP185 T01501110 IEM_DS3505
ZBAA,1996-04-03 08:00,ZBAA 030800Z AUTO 33004KT 7SM 15/M11 A3003 RMK SLP175 T01501110 IEM_DS3505
ZBAA,1996-04-03 09:00,ZBAA 030900Z AUTO 20008KT 12SM 14/M14 A3003 RMK SLP183 T01411138 57014 IEM_DS3505
ZBAA,1996-04-03 10:00,ZBAA 031000Z AUTO 09002KT 7SM 14/M12 A3003 RMK SLP175 T01401120 IEM_DS3505
ZBAA,1996-04-03 11:00,ZBAA 031100Z AUTO 20008KT 7SM 12/M11 A3006 RMK SLP186 T01201110 IEM_DS3505
ZBAA,1996-04-03 12:00,ZBAA 031200Z AUTO 20006KT 19SM 12/M14 A3006 RMK SLP194 T01161144 52011 IEM_DS3505
ZBAA,1996-04-03 13:00,ZBAA 031300Z AUTO 24004KT 7SM 10/M09 A3009 RMK SLP196 T01001090 IEM_DS3505
ZBAA,1996-04-03 14:00,ZBAA 031400Z AUTO 25004KT 7SM 09/M09 A3012 RMK SLP207 T00901090 IEM_DS3505
ZBAA,1996-04-03 15:00,ZBAA 031500Z AUTO 25004KT 17SM 09/M08 A3012 RMK SLP207 T00901077 52013 IEM_DS3505
ZBAA,1996-04-03 18:00,ZBAA 031800Z AUTO 29002KT 12SM 04/M05 A3013 RMK SLP211 T00391054 52004 IEM_DS3505
ZBAA,1996-04-03 20:00,ZBAA 032000Z AUTO 00000KT 7SM 03/M07 A3012 RMK SLP209 T00301070 IEM_DS3505
ZBAA,1996-04-03 21:00,ZBAA 032100Z AUTO 00000KT 9SM 04/M06 A3012 RMK SLP207 T00351060 57004 IEM_DS3505
ZBAA,1996-04-03 22:00,ZBAA 032200Z AUTO 00000KT 7SM 03/M06 A3012 RMK SLP209 T00301060 IEM_DS3505
ZBAA,1996-04-03 23:00,ZBAA 032300Z AUTO 03004KT 7SM 05/M07 A3012 RMK SLP208 T00501070 IEM_DS3505
ZBAA,1996-04-04 00:00,ZBAA 040000Z AUTO 29002KT 6SM 07/M08 A3015 RMK SLP218 T00701083 52011 IEM_DS3505
ZBAA,1996-04-04 01:00,ZBAA 040100Z AUTO 35002KT 7SM 10/M09 A3015 RMK SLP217 T01001090 IEM_DS3505
ZBAA,1996-04-04 02:00,ZBAA 040200Z AUTO 35002KT 7SM 12/M08 A3015 RMK SLP217 T01201080 IEM_DS3505
ZBAA,1996-04-04 03:00,ZBAA 040300Z AUTO 09002KT 4SM 15/M16 A3015 RMK SLP215 T01511163 57003 IEM_DS3505
ZBAA,1996-04-04 04:00,ZBAA 040400Z AUTO 25002KT 7SM 16/M10 A3012 RMK SLP206 T01601100 IEM_DS3505
ZBAA,1996-04-04 05:00,ZBAA 040500Z AUTO 28004KT 7SM 17/M09 A3009 RMK SLP195 T01701090 IEM_DS3505
ZBAA,1996-04-04 06:00,ZBAA 040600Z AUTO 20006KT 7SM 17/M16 A3006 RMK SLP196 T01691161 57019 IEM_DS3505
ZBAA,1996-04-04 07:00,ZBAA 040700Z AUTO 27006KT 7SM 18/M09 A3006 RMK SLP184 T01801090 IEM_DS3505
ZBAA,1996-04-04 08:00,ZBAA 040800Z AUTO 27008KT 7SM 18/M10 A3003 RMK SLP174 T01801100 IEM_DS3505
ZBAA,1996-04-04 09:00,ZBAA 040900Z AUTO 20004KT 9SM 18/M15 A3003 RMK SLP177 T01761148 57019 IEM_DS3505
ZBAA,1996-04-04 10:00,ZBAA 041000Z AUTO 20008KT 7SM 16/M12 A3003 RMK SLP175 T01601120 IEM_DS3505
ZBAA,1996-04-04 11:00,ZBAA 041100Z AUTO 18004KT 7SM 14/M12 A3003 RMK SLP175 T01401120 IEM_DS3505
ZBAA,1996-04-04 12:00,ZBAA 041200Z AUTO 20006KT 12SM 14/M12 A3006 RMK SLP188 T01431123 52011 IEM_DS3505
ZBAA,1996-04-04 13:00,ZBAA 041300Z AUTO 20008KT 7SM 12/M05 A3006 RMK SLP186 T01201050 IEM_DS3505
ZBAA,1996-04-04 14:00,ZBAA 041400Z AUTO 20008KT 7SM 12/M03 A3006 RMK SLP186 T01201030 IEM_DS3505
ZBAA,1996-04-04 15:00,ZBAA 041500Z AUTO 20006KT 7SM 13/M03 A3009 RMK SLP195 T01271032 52008 IEM_DS3505
ZBAA,1996-04-04 16:00,ZBAA 041600Z AUTO 19006KT 7SM 11/M02 A3009 RMK SLP196 T01101020 IEM_DS3505
ZBAA,1996-04-04 18:00,ZBAA 041800Z AUTO 16004KT 3SM 10/00 A3006 RMK SLP186 T01050005 57009 IEM_DS3505
ZBAA,1996-04-04 20:00,ZBAA 042000Z AUTO 15002KT 5SM 09/04 A3003 RMK SLP176 T00900040 IEM_DS3505
ZBAA,1996-04-04 21:00,ZBAA 042100Z AUTO 18004KT 2SM 09/03 A3006 RMK SLP182 T00870028 57004 IEM_DS3505
ZBAA,1996-04-04 22:00,ZBAA 042200Z AUTO 14004KT 3SM 05/03 A3003 RMK SLP177 T00500030 IEM_DS3505
ZBAA,1996-04-04 23:00,ZBAA 042300Z AUTO 13004KT 2 1/2SM 06/03 A3003 RMK SLP177 T00600030 IEM_DS3505
ZBAA,1996-04-05 00:00,ZBAA 050000Z AUTO 00000KT 1 1/4SM 09/03 A3006 RMK SLP183 T00910033 54000 IEM_DS3505
ZBAA,1996-04-05 01:00,ZBAA 050100Z AUTO 14004KT 2SM 09/05 A3006 RMK SLP186 T00900050 IEM_DS3505
ZBAA,1996-04-05 02:00,ZBAA 050200Z AUTO 15004KT 2SM 10/06 A3003 RMK SLP176 T01000060 IEM_DS3505
ZBAA,1996-04-05 03:00,ZBAA 050300Z AUTO 16004KT 2SM 12/05 A3003 RMK SLP174 T01170049 57008 IEM_DS3505
ZBAA,1996-04-05 04:00,ZBAA 050400Z AUTO 17008KT 2 1/2SM 14/08 A3000 RMK SLP165 T01400080 IEM_DS3505
ZBAA,1996-04-05 05:00,ZBAA 050500Z AUTO 20004KT 2 1/2SM 15/07 A2994 RMK SLP145 T01500070 IEM_DS3505
ZBAA,1996-04-05 06:00,ZBAA 050600Z AUTO 20010KT 3SM 16/04 A2991 RMK SLP140 T01590041 57034 IEM_DS3505
ZBAA,1996-04-05 07:00,ZBAA 050700Z AUTO 26010KT 5SM 17/06 A2988 RMK SLP124 T01700060 IEM_DS3505
ZBAA,1996-04-05 08:00,ZBAA 050800Z AUTO 24006KT 4SM 17/06 A2985 RMK SLP114 T01700060 IEM_DS3505
ZBAA,1996-04-05 09:00,ZBAA 050900Z AUTO 20004KT 3SM 16/05 A2985 RMK SLP116 T01610053 57024 IEM_DS3505
ZBAA,1996-04-05 10:00,ZBAA 051000Z AUTO 35004KT 2SM 16/06 A2985 RMK SLP114 T01600060 IEM_DS3505
ZBAA,1996-04-05 11:00,ZBAA 051100Z AUTO 14004KT 2SM 14/07 A2985 RMK SLP115 T01400070 IEM_DS3505
ZBAA,1996-04-05 12:00,ZBAA 051200Z AUTO 25006KT 4SM 14/03 A2985 RMK SLP123 T01420034 52007 IEM_DS3505
ZBAA,1996-04-05 13:00,ZBAA 051300Z AUTO 27008KT 3SM 14/04 A2988 RMK SLP125 T01400040 IEM_DS3505
ZBAA,1996-04-05 14:00,ZBAA 051400Z AUTO 24006KT 5SM 13/06 A2988 RMK SLP125 T01300060 IEM_DS3505
ZBAA,1996-04-05 15:00,ZBAA 051500Z AUTO 22008KT 4SM 14/03 A2985 RMK SLP122 T01370033 57001 IEM_DS3505
ZBAA,1996-04-05 16:00,ZBAA 051600Z AUTO ////04KT 5SM 12/07 A2985 RMK SLP115 T01200070 IEM_DS3505
ZBAA,1996-04-05 17:00,ZBAA 051700Z AUTO ////04KT 5SM 11/07 A2985 RMK SLP115 T01100070 IEM_DS3505
ZBAA,1996-04-05 18:00,ZBAA 051800Z AUTO 07008KT 5SM 10/06 A2985 RMK 60001 SLP118 T01050065 57004 IEM_DS3505
ZBAA,1996-04-05 20:00,ZBAA 052000Z AUTO ////04KT 5SM 09/06 A2985 RMK SLP116 T00900060 IEM_DS3505
ZBAA,1996-04-05 21:00,ZBAA 052100Z AUTO 02004KT 6SM 10/04 A2985 RMK 70001 SLP123 T00950043 52005 IEM_DS3505
ZBAA,1996-04-05 22:00,ZBAA 052200Z AUTO 00000KT 7SM 07/05 A2988 RMK SLP126 T00700050 IEM_DS3505
ZBAA,1996-04-05 23:00,ZBAA 052300Z AUTO ////02KT 7SM 08/05 A2991 RMK SLP136 T00800050 IEM_DS3505
ZBAA,1996-04-06 00:00,ZBAA 060000Z AUTO 34008KT 12SM 13/M11 A2991 RMK 70001 SLP144 T01311109 52021 IEM_DS3505
ZBAA,1996-04-06 01:00,ZBAA 060100Z AUTO 35010KT 7SM 14/M03 A2994 RMK SLP145 T01401030 IEM_DS3505
ZBAA,1996-04-06 02:00,ZBAA 060200Z AUTO 03006KT 7SM 15/M06 A2994 RMK SLP145 T01501060 IEM_DS3505
ZBAA,1996-04-06 03:00,ZBAA 060300Z AUTO 34016KT 9SM 16/M16 A2994 RMK SLP150 T01631156 52006 IEM_DS3505
ZBAA,1996-04-06 04:00,ZBAA 060400Z AUTO 01008KT 7SM 17/M09 A2991 RMK SLP134 T01701090 IEM_DS3505
ZBAA,1996-04-06 05:00,ZBAA 060500Z AUTO 28017KT 7SM 18/M10 A2991 RMK SLP134 T01801100 IEM_DS3505
ZBAA,1996-04-06 06:00,ZBAA 060600Z AUTO 34016G29KT 9SM 18/M16 A2991 RMK SLP144 T01851164 4////0089 57006 IEM_DS3505
ZBAA,1996-04-06 07:00,ZBAA 060700Z AUTO 30014G23KT 7SM 18/M10 A2991 RMK SLP134 T01801100 IEM_DS3505
ZBAA,1996-04-06 08:00,ZBAA 060800Z AUTO 30017G27KT 6SM 19/M10 A2991 RMK SLP134 T01901100 IEM_DS3505
ZBAA,1996-04-06 09:00,ZBAA 060900Z AUTO 32016KT 11SM 18/ A2991 RMK SLP140 57004 IEM_DS3505
ZBAA,1996-04-06 10:00,ZBAA 061000Z AUTO 32014KT 6SM 17/M11 A2994 RMK SLP144 T01701110 IEM_DS3505
ZBAA,1996-04-06 11:00,ZBAA 061100Z AUTO 32008KT 6SM 16/M11 A2997 RMK SLP154 T01601110 IEM_DS3505
ZBAA,1996-04-06 12:00,ZBAA 061200Z AUTO 36002KT 12SM 15/M08 A3000 RMK SLP165 T01461081 52025 IEM_DS3505
ZBAA,1996-04-06 13:00,ZBAA 061300Z AUTO 29002KT 6SM 14/M11 A3003 RMK SLP175 T01401110 IEM_DS3505
ZBAA,1996-04-06 14:00,ZBAA 061400Z AUTO ////02KT 6SM 12/M09 A3003 RMK SLP176 T01201090 IEM_DS3505
ZBAA,1996-04-06 15:00,ZBAA 061500Z AUTO 00000KT 12SM 09/M03 A3003 RMK SLP178 T00931028 52013 IEM_DS3505
ZBAA,1996-04-06 16:00,ZBAA 061600Z AUTO ////02KT 7SM 11/M08 A3003 RMK SLP176 T01101080 IEM_DS3505
ZBAA,1996-04-06 17:00,ZBAA 061700Z AUTO ////02KT 7SM 11/M09 A3006 RMK SLP186 T01101090 IEM_DS3505
ZBAA,1996-04-06 18:00,ZBAA 061800Z AUTO 02006KT 11SM 10/M07 A3008 RMK SLP192 T00951072 52014 IEM_DS3505
ZBAA,1996-04-06 20:00,ZBAA 062000Z AUTO 36006KT 6SM 09/M08 A3009 RMK SLP196 T00901080 IEM_DS3505
ZBAA,1996-04-06 21:00,ZBAA 062100Z AUTO 02006KT 9SM 10/M09 A3012 RMK SLP200 T01051093 52008 IEM_DS3505
ZBAA,1996-04-06 22:00,ZBAA 062200Z AUTO 03008KT 6SM 08/M06 A3012 RMK SLP208 T00801060 IEM_DS3505
ZBAA,1996-04-06 23:00,ZBAA 062300Z AUTO 03012KT 6SM 09/M05 A3015 RMK SLP218 T00901050 IEM_DS3505
ZBAA,1996-04-07 00:00,ZBAA 070000Z AUTO 02008KT 8SM 10/M07 A3015 RMK SLP224 T00971068 52023 IEM_DS3505
ZBAA,1996-04-07 01:00,ZBAA 070100Z AUTO 03010KT 6SM 12/M04 A3018 RMK SLP227 T01201040 IEM_DS3505
ZBAA,1996-04-07 02:00,ZBAA 070200Z AUTO 04008KT 6SM 14/M04 A3018 RMK SLP226 T01401040 IEM_DS3505
ZBAA,1996-04-07 03:00,ZBAA 070300Z AUTO ////06KT 6SM 15/M06 A3018 RMK SLP226 T01501060 IEM_DS3505
ZBAA,1996-04-07 04:00,ZBAA 070400Z AUTO ////04KT 6SM 16/M05 A3015 RMK SLP216 T01601050 IEM_DS3505
ZBAA,1996-04-07 05:00,ZBAA 070500Z AUTO ////04KT 6SM 17/M06 A3012 RMK SLP206 T01701060 IEM_DS3505
ZBAA,1996-04-07 06:00,ZBAA 070600Z AUTO 16004KT 19SM 18/M06 A3009 RMK SLP198 T01851057 57023 IEM_DS3505
ZBAA,1996-04-07 07:00,ZBAA 070700Z AUTO ////04KT 6SM 18/M07 A3006 RMK SLP184 T01801070 IEM_DS3505
ZBAA,1996-04-07 08:00,ZBAA 070800Z AUTO ////04KT 6SM 19/M06 A3006 RMK SLP184 T01901060 IEM_DS3505
ZBAA,1996-04-07 09:00,ZBAA 070900Z AUTO 20008KT 9SM 18/M10 A3006 RMK SLP185 T01831105 57013 IEM_DS3505
ZBAA,1996-04-07 10:00,ZBAA 071000Z AUTO 17010KT 6SM 17/M09 A3006 RMK SLP184 T01701090 IEM_DS3505
ZBAA,1996-04-07 11:00,ZBAA 071100Z AUTO 17008KT 6SM 16/M09 A3006 RMK SLP185 T01601090 IEM_DS3505
ZBAA,1996-04-07 12:00,ZBAA 071200Z AUTO 20010KT 9SM 16/M09 A3009 RMK SLP193 T01551087 52008 IEM_DS3505
ZBAA,1996-04-07 13:00,ZBAA 071300Z AUTO 18006KT 6SM 14/M06 A3009 RMK SLP195 T01401060 IEM_DS3505
ZBAA,1996-04-07 14:00,ZBAA 071400Z AUTO 18006KT 6SM 13/M06 A3009 RMK SLP195 T01301060 IEM_DS3505
ZBAA,1996-04-07 15:00,ZBAA 071500Z AUTO 20008KT 7SM 13/M06 A3009 RMK SLP198 T01331055 52005 IEM_DS3505
ZBAA,1996-04-07 16:00,ZBAA 071600Z AUTO 35004KT 6SM 12/M05 A3009 RMK SLP196 T01201050 IEM_DS3505
ZBAA,1996-04-07 17:00,ZBAA 071700Z AUTO 11002KT 7SM 10/M04 A3009 RMK SLP196 T01001040 IEM_DS3505
ZBAA,1996-04-07 18:00,ZBAA 071800Z AUTO 00000KT 6SM 09/M02 A3010 RMK SLP199 T00911024 52001 IEM_DS3505
ZBAA,1996-04-07 20:00,ZBAA 072000Z AUTO 33006KT 7SM 08/M04 A3012 RMK SLP208 T00801040 IEM_DS3505
ZBAA,1996-04-07 21:00,ZBAA 072100Z AUTO 02010KT 19SM 10/M10 A3015 RMK SLP209 T00981104 52010 IEM_DS3505
ZBAA,1996-04-07 22:00,ZBAA 072200Z AUTO 01006KT 7SM 07/M06 A3015 RMK SLP218 T00701060 IEM_DS3505
ZBAA,1996-04-07 23:00,ZBAA 072300Z AUTO 35006KT 7SM 09/M07 A3018 RMK SLP228 T00901070 IEM_DS3505
ZBAA,1996-04-08 00:00,ZBAA 080000Z AUTO 02014KT 19SM 12/M15 A3021 RMK SLP230 T01171150 52021 IEM_DS3505
ZBAA,1996-04-08 01:00,ZBAA 080100Z AUTO 04012KT 7SM 13/M11 A3021 RMK SLP237 T01301110 IEM_DS3505
ZBAA,1996-04-08 02:00,ZBAA 080200Z AUTO 34010KT 7SM 14/M11 A3018 RMK SLP226 T01401110 IEM_DS3505
ZBAA,1996-04-08 03:00,ZBAA 080300Z AUTO 02014KT 19SM 15/M18 A3018 RMK SLP231 T01501179 52001 IEM_DS3505
ZBAA,1996-04-08 04:00,ZBAA 080400Z AUTO 32016KT 6SM 17/M11 A3015 RMK SLP216 T01701110 IEM_DS3505
ZBAA,1996-04-08 05:00,ZBAA 080500Z AUTO 30010KT 6SM 17/M10 A3015 RMK SLP216 T01701100 IEM_DS3505
ZBAA,1996-04-08 06:00,ZBAA 080600Z AUTO 34010KT 16SM 17/ A3012 RMK SLP211 57020 IEM_DS3505
ZBAA,1996-04-08 07:00,ZBAA 080700Z AUTO 29008KT 6SM 18/M09 A3012 RMK SLP205 T01801090 IEM_DS3505
ZBAA,1996-04-08 08:00,ZBAA 080800Z AUTO 30016KT 6SM 18/M09 A3009 RMK SLP194 T01801090 IEM_DS3505
ZBAA,1996-04-08 09:00,ZBAA 080900Z AUTO 36010KT 12SM 17/ A3009 RMK SLP197 57014 IEM_DS3505
ZBAA,1996-04-08 10:00,ZBAA 081000Z AUTO 31006KT 6SM 17/M12 A3009 RMK SLP195 T01701120 IEM_DS3505
ZBAA,1996-04-08 11:00,ZBAA 081100Z AUTO 29006KT 6SM 15/M13 A3012 RMK SLP206 T01501130 IEM_DS3505
ZBAA,1996-04-08 12:00,ZBAA 081200Z AUTO 34006KT 12SM 14/M14 A3014 RMK SLP211 T01421135 52014 IEM_DS3505
ZBAA,1996-04-08 13:00,ZBAA 081300Z AUTO 01004KT 7SM 14/M12 A3015 RMK SLP216 T01401120 IEM_DS3505
ZBAA,1996-04-08 14:00,ZBAA 081400Z AUTO 03004KT 7SM 11/M10 A3018 RMK SLP227 T01101100 IEM_DS3505
ZBAA,1996-04-08 15:00,ZBAA 081500Z AUTO 34002KT 9SM 10/M05 A3018 RMK SLP224 T00951049 52012 IEM_DS3505
ZBAA,1996-04-08 16:00,ZBAA 081600Z AUTO 04008KT 6SM 10/M13 A3018 RMK SLP227 T01001130 IEM_DS3505
ZBAA,1996-04-08 18:00,ZBAA 081800Z AUTO 07004KT 9SM 10/M15 A3018 RMK SLP225 T01011154 52002 IEM_DS3505
ZBAA,1996-04-08 20:00,ZBAA 082000Z AUTO 05008KT 7SM 07/M12 A3018 RMK SLP228 T00701120 IEM_DS3505
ZBAA,1996-04-08 21:00,ZBAA 082100Z AUTO 07008KT 9SM 08/M15 A3018 RMK SLP228 T00831147 52002 IEM_DS3505
ZBAA,1996-04-08 22:00,ZBAA 082200Z AUTO 05008KT 6SM 07/M10 A3021 RMK SLP238 T00701100 IEM_DS3505
ZBAA,1996-04-08 23:00,ZBAA 082300Z AUTO 05010KT 6SM 08/M09 A3024 RMK SLP248 T00801090 IEM_DS3505
ZBAA,1996-04-09 00:00,ZBAA 090000Z AUTO 04010KT 11SM 09/M14 A3027 RMK SLP255 T00891137 52027 IEM_DS3505
ZBAA,1996-04-09 01:00,ZBAA 090100Z AUTO 04016KT 6SM 10/M09 A3027 RMK SLP258 T01001090 IEM_DS3505
ZBAA,1996-04-09 02:00,ZBAA 090200Z AUTO 03016KT 6SM 12/M09 A3027 RMK SLP257 T01201090 IEM_DS3505
ZBAA,1996-04-09 03:00,ZBAA 090300Z AUTO 02010KT 16SM 12/M15 A3027 RMK SLP255 T01201149 54000 IEM_DS3505
ZBAA,1996-04-09 04:00,ZBAA 090400Z AUTO 02012KT 6SM 14/M11 A3024 RMK SLP247 T01401110 IEM_DS3505
ZBAA,1996-04-09 05:00,ZBAA 090500Z AUTO 36008KT 6SM 14/M10 A3021 RMK SLP236 T01401100 IEM_DS3505
ZBAA,1996-04-09 06:00,ZBAA 090600Z AUTO 34004KT 16SM 14/M14 A3021 RMK SLP233 T01381142 57022 IEM_DS3505
ZBAA,1996-04-09 07:00,ZBAA 090700Z AUTO ////04KT 6SM 14/M10 A3018 RMK SLP226 T01401100 IEM_DS3505
ZBAA,1996-04-09 08:00,ZBAA 090800Z AUTO ////02KT 6SM 14/M09 A3015 RMK SLP216 T01401090 IEM_DS3505
ZBAA,1996-04-09 09:00,ZBAA 090900Z AUTO 18006KT 12SM 13/M10 A3015 RMK SLP218 T01311105 57015 IEM_DS3505
ZBAA,1996-04-09 10:00,ZBAA 091000Z AUTO 18008KT 6SM 13/M09 A3015 RMK SLP217 T01301090 IEM_DS3505
ZBAA,1996-04-09 11:00,ZBAA 091100Z AUTO 19008KT 6SM 12/M07 A3018 RMK SLP227 T01201070 IEM_DS3505
ZBAA,1996-04-09 12:00,ZBAA 091200Z AUTO 20014KT 19SM 10/M07 A3021 RMK SLP237 T00991074 52019 IEM_DS3505
ZBAA,1996-04-09 13:00,ZBAA 091300Z AUTO 19008KT 6SM 09/M05 A3024 RMK SLP248 T00901050 IEM_DS3505
ZBAA,1996-04-09 14:00,ZBAA 091400Z AUTO 20008KT 6SM 08/M06 A3027 RMK SLP258 T00801060 IEM_DS3505
ZBAA,1996-04-09 15:00,ZBAA 091500Z AUTO 20008KT 19SM 08/M09 A3027 RMK SLP252 T00801094 52015 IEM_DS3505
ZBAA,1996-04-09 16:00,ZBAA 091600Z AUTO 12006KT 6SM 06/M03 A3030 RMK SLP269 T00601030 IEM_DS3505
ZBAA,1996-04-09 17:00,ZBAA 091700Z AUTO 11008KT 7SM 05/M03 A3030 RMK SLP269 T00501030 IEM_DS3505
ZBAA,1996-04-09 18:00,ZBAA 091800Z AUTO 11004KT 19SM 06/M06 A3027 RMK SLP258 T00621064 52006 IEM_DS3505
ZBAA,1996-04-09 20:00,ZBAA 092000Z AUTO 10004KT 7SM 04/M02 A3027 RMK SLP259 T00401020 IEM_DS3505
ZBAA,1996-04-09 21:00,ZBAA 092100Z AUTO 00000KT 16SM 04/M04 A3027 RMK SLP259 T00361035 54000 IEM_DS3505
ZBAA,1996-04-09 22:00,ZBAA 092200Z AUTO 31002KT 6SM 03/M02 A3030 RMK SLP269 T00301020 IEM_DS3505
ZBAA,1996-04-09 23:00,ZBAA 092300Z AUTO 00000KT 6SM 04/M01 A3030 RMK SLP269 T00401010 IEM_DS3505
ZBAA,1996-04-10 00:00,ZBAA 100000Z AUTO 09002KT 7SM 07/M06 A3033 RMK SLP280 T00671056 52021 IEM_DS3505
ZBAA,1996-04-10 01:00,ZBAA 100100Z AUTO 17006KT 7SM 08/M06 A3033 RMK SLP278 T00801060 IEM_DS3505
ZBAA,1996-04-10 02:00,ZBAA 100200Z AUTO 15010KT 7SM 10/M10 A3033 RMK SLP278 T01001100 IEM_DS3505
ZBAA,1996-04-10 03:00,ZBAA 100300Z AUTO 16008KT 7SM 10/M12 A3030 RMK SLP275 T00981119 57005 IEM_DS3505
ZBAA,1996-04-10 04:00,ZBAA 100400Z AUTO 15008KT 7SM 12/M10 A3030 RMK SLP267 T01201100 IEM_DS3505
ZBAA,1996-04-10 05:00,ZBAA 100500Z AUTO 17006KT 7SM 13/M08 A3027 RMK SLP257 T01301080 IEM_DS3505
ZBAA,1996-04-10 06:00,ZBAA 100600Z AUTO 16006KT 7SM 12/M10 A3024 RMK SLP246 T01221105 57029 IEM_DS3505
ZBAA,1996-04-10 07:00,ZBAA 100700Z AUTO 17008KT 7SM 14/M07 A3021 RMK SLP236 T01401070 IEM_DS3505
ZBAA,1996-04-10 08:00,ZBAA 100800Z AUTO 16008KT 7SM 14/M06 A3018 RMK SLP226 T01401060 IEM_DS3505
ZBAA,1996-04-10 09:00,ZBAA 100900Z AUTO 20010KT 7SM 13/M09 A3019 RMK SLP229 T01331093 57017 IEM_DS3505
ZBAA,1996-04-10 10:00,ZBAA 101000Z AUTO 15012KT 6SM 12/M06 A3018 RMK SLP227 T01201060 IEM_DS3505
ZBAA,1996-04-10 11:00,ZBAA 101100Z AUTO 16012KT 6SM 10/M06 A3021 RMK SLP237 T01001060 IEM_DS3505
ZBAA,1996-04-10 12:00,ZBAA 101200Z AUTO 16008KT 7SM 09/M06 A3024 RMK SLP248 T00911057 52019 IEM_DS3505
ZBAA,1996-04-10 13:00,ZBAA 101300Z AUTO 15008KT 6SM 07/M02 A3027 RMK SLP258 T00701020 IEM_DS3505
ZBAA,1996-04-10 14:00,ZBAA 101400Z AUTO 08004KT 6SM 06/M02 A3030 RMK SLP269 T00601020 IEM_DS3505
ZBAA,1996-04-10 15:00,ZBAA 101500Z AUTO 16002KT 6SM 07/M04 A3033 RMK SLP269 T00731041 52021 IEM_DS3505
ZBAA,1996-04-10 16:00,ZBAA 101600Z AUTO 11004KT 6SM 05/M02 A3033 RMK SLP279 T00501020 IEM_DS3505
ZBAA,1996-04-10 18:00,ZBAA 101800Z AUTO 09004KT 6SM 05/M03 A3033 RMK SLP278 T00541028 52009 IEM_DS3505
ZBAA,1996-04-10 20:00,ZBAA 102000Z AUTO ////02KT 6SM 04/M03 A3033 RMK SLP279 T00401030 IEM_DS3505
ZBAA,1996-04-10 21:00,ZBAA 102100Z AUTO 07004KT 6SM 04/M03 A3036 RMK SLP284 T00401033 52006 IEM_DS3505
ZBAA,1996-04-10 22:00,ZBAA 102200Z AUTO ////02KT 6SM 03/M03 A3036 RMK SLP289 T00301030 IEM_DS3505
ZBAA,1996-04-10 23:00,ZBAA 102300Z AUTO 00000KT 7SM 04/M02 A3036 RMK SLP289 T00401020 IEM_DS3505
ZBAA,1996-04-11 00:00,ZBAA 110000Z AUTO 09004KT 6SM 05/M03 A3039 RMK SLP278 T00541028 52009 IEM_DS3505
ZBAA,1996-04-11 01:00,ZBAA 110100Z AUTO ////04KT 7SM 08/M03 A3039 RMK SLP299 T00801030 IEM_DS3505
ZBAA,1996-04-11 02:00,ZBAA 110200Z AUTO ////02KT 7SM 10/M04 A3039 RMK SLP299 T01001040 IEM_DS3505
ZBAA,1996-04-11 03:00,ZBAA 110300Z AUTO 11004KT 7SM 12/M13 A3036 RMK SLP292 T01251133 57003 IEM_DS3505
ZBAA,1996-04-11 04:00,ZBAA 110400Z AUTO ////02KT 6SM 14/M10 A3033 RMK SLP277 T01401100 IEM_DS3505
ZBAA,1996-04-11 05:00,ZBAA 110500Z AUTO 09004KT 6SM 15/M10 A3030 RMK SLP266 T01501100 IEM_DS3505
ZBAA,1996-04-11 06:00,ZBAA 110600Z AUTO 11004KT 9SM 15/M16 A3030 RMK SLP267 T01471163 57025 IEM_DS3505
ZBAA,1996-04-11 07:00,ZBAA 110700Z AUTO 22004KT 6SM 15/M09 A3027 RMK SLP256 T01501090 IEM_DS3505
ZBAA,1996-04-11 08:00,ZBAA 110800Z AUTO 15008KT 6SM 15/M11 A3027 RMK SLP256 T01501110 IEM_DS3505
ZBAA,1996-04-11 09:00,ZBAA 110900Z AUTO 20008KT 7SM 15/M14 A3024 RMK SLP254 T01471144 57013 IEM_DS3505
ZBAA,1996-04-11 10:00,ZBAA 111000Z AUTO 19008KT 6SM 14/M12 A3027 RMK SLP257 T01401120 IEM_DS3505
ZBAA,1996-04-11 11:00,ZBAA 111100Z AUTO 21006KT 6SM 12/M10 A3027 RMK SLP257 T01201100 IEM_DS3505
ZBAA,1996-04-11 12:00,ZBAA 111200Z AUTO 25006KT 7SM 13/M08 A3030 RMK SLP268 T01271081 52014 IEM_DS3505
ZBAA,1996-04-11 13:00,ZBAA 111300Z AUTO 17004KT 6SM 12/M10 A3033 RMK SLP277 T01201100 IEM_DS3505
ZBAA,1996-04-11 14:00,ZBAA 111400Z AUTO 13004KT 6SM 10/M07 A3033 RMK SLP278 T01001070 IEM_DS3505
ZBAA,1996-04-11 15:00,ZBAA 111500Z AUTO 18008KT 6SM 11/M06 A3036 RMK SLP282 T01131065 52015 IEM_DS3505
ZBAA,1996-04-11 16:00,ZBAA 111600Z AUTO 13010KT 6SM 08/00 A3039 RMK SLP299 T00800000 IEM_DS3505
ZBAA,1996-04-11 17:00,ZBAA 111700Z AUTO 12010KT 6SM 06/00 A3039 RMK SLP300 T00600000 IEM_DS3505
ZBAA,1996-04-11 18:00,ZBAA 111800Z AUTO 16004KT 4SM 08/M04 A3039 RMK SLP294 T00811041 52012 IEM_DS3505
ZBAA,1996-04-11 20:00,ZBAA 112000Z AUTO 10004KT 6SM 05/M03 A3039 RMK SLP300 T00501030 IEM_DS3505
ZBAA,1996-04-11 21:00,ZBAA 112100Z AUTO 07004KT 4SM 06/M01 A3039 RMK SLP300 T00591011 52005 IEM_DS3505
ZBAA,1996-04-11 22:00,ZBAA 112200Z AUTO 10002KT 6SM 06/M05 A3042 RMK SLP310 T00601050 IEM_DS3505
ZBAA,1996-04-11 23:00,ZBAA 112300Z AUTO 08002KT 6SM 06/M05 A3042 RMK SLP310 T00601050 IEM_DS3505
ZBAA,1996-04-12 00:00,ZBAA 120000Z AUTO 07004KT 5SM 06/M04 A3045 RMK SLP313 T00631042 52013 IEM_DS3505
ZBAA,1996-04-12 01:00,ZBAA 120100Z AUTO ////04KT 6SM 08/M04 A3045 RMK SLP319 T00801040 IEM_DS3505
ZBAA,1996-04-12 02:00,ZBAA 120200Z AUTO ////04KT 6SM 08/M03 A3045 RMK SLP319 T00801030 IEM_DS3505
ZBAA,1996-04-12 03:00,ZBAA 120300Z AUTO 02006KT 5SM 09/M04 A3042 RMK SLP310 T00881045 57003 IEM_DS3505
ZBAA,1996-04-12 04:00,ZBAA 120400Z AUTO ////02KT 6SM 10/M02 A3039 RMK SLP299 T01001020 IEM_DS3505
ZBAA,1996-04-12 05:00,ZBAA 120500Z AUTO ////04KT 6SM 11/M01 A3039 RMK SLP299 T01101010 IEM_DS3505
ZBAA,1996-04-12 06:00,ZBAA 120600Z AUTO 25006KT 4SM 12/M02 A3036 RMK SLP288 T01151019 57022 IEM_DS3505
ZBAA,1996-04-12 07:00,ZBAA 120700Z AUTO ////02KT 6SM 12/M01 A3033 RMK SLP277 T01201010 IEM_DS3505
ZBAA,1996-04-12 08:00,ZBAA 120800Z AUTO 25008G19KT 6SM 12/02 A3033 RMK SLP277 T01200020 IEM_DS3505
ZBAA,1996-04-12 09:00,ZBAA 120900Z AUTO 25006KT 4SM 08/03 A3033 RMK SLP285 T00790034 57003 IEM_DS3505
ZBAA,1996-04-12 10:00,ZBAA 121000Z AUTO 23012KT 5SM 09/05 A3033 RMK SLP278 T00900050 IEM_DS3505
ZBAA,1996-04-12 11:00,ZBAA 121100Z AUTO 26006KT 4SM 08/06 A3036 RMK SLP288 T00800060 IEM_DS3505
ZBAA,1996-04-12 12:00,ZBAA 121200Z AUTO 34002KT 3SM 07/06 A3036 RMK 60004 SLP285 T00740056 54000 IEM_DS3505
ZBAA,1996-04-12 13:00,ZBAA 121300Z AUTO 26004KT 3SM 07/07 A3036 RMK SLP288 T00700070 IEM_DS3505
ZBAA,1996-04-12 14:00,ZBAA 121400Z AUTO 33006KT 2 1/2SM 07/07 A3036 RMK SLP288 T00700070 IEM_DS3505
ZBAA,1996-04-12 15:00,ZBAA 121500Z AUTO 04002KT 5SM 08/05 A3036 RMK SLP284 T00750052 57001 IEM_DS3505
ZBAA,1996-04-12 18:00,ZBAA 121800Z AUTO 20004KT 4SM 07/05 A3035 RMK 60004 SLP284 T00690053 54000 IEM_DS3505
ZBAA,1996-04-12 20:00,ZBAA 122000Z AUTO 01004KT 2 1/2SM 07/07 A3033 RMK SLP278 T00700070 IEM_DS3505
ZBAA,1996-04-12 21:00,ZBAA 122100Z AUTO 11002KT 2 1/2SM 07/05 A3033 RMK 70012 SLP279 T00680054 57005 IEM_DS3505
ZBAA,1996-04-12 22:00,ZBAA 122200Z AUTO 00000KT 1 1/4SM 07/07 A3033 RMK SLP278 T00700070 IEM_DS3505
ZBAA,1996-04-12 23:00,ZBAA 122300Z AUTO 00000KT 1 1/4SM 07/07 A3036 RMK SLP288 T00700070 IEM_DS3505
ZBAA,1996-04-13 00:00,ZBAA 130000Z AUTO 00000KT 2SM 07/05 A3036 RMK 60004 70012 SLP287 T00740054 52008 IEM_DS3505
ZBAA,1996-04-13 01:00,ZBAA 130100Z AUTO 00000KT 2SM 08/08 A3036 RMK SLP288 T00800080 IEM_DS3505
ZBAA,1996-04-13 02:00,ZBAA 130200Z AUTO 26004KT 3SM 09/09 A3036 RMK SLP288 T00900090 IEM_DS3505
ZBAA,1996-04-13 03:00,ZBAA 130300Z AUTO 20002KT 3SM 10/06 A3036 RMK SLP289 T01030055 52002 IEM_DS3505
ZBAA,1996-04-13 04:00,ZBAA 130400Z AUTO 23004KT 3SM 10/07 A3033 RMK SLP278 T01000070 IEM_DS3505
ZBAA,1996-04-13 05:00,ZBAA 130500Z AUTO 20006KT 3SM 12/08 A3030 RMK SLP267 T01200080 IEM_DS3505
ZBAA,1996-04-13 06:00,ZBAA 130600Z AUTO 20004KT 3SM 13/05 A3027 RMK SLP260 T01310051 57028 IEM_DS3505
ZBAA,1996-04-13 07:00,ZBAA 130700Z AUTO 20006KT 2 1/2SM 14/07 A3024 RMK SLP247 T01400070 IEM_DS3505
ZBAA,1996-04-13 08:00,ZBAA 130800Z AUTO 16008KT 2 1/2SM 14/08 A3021 RMK SLP236 T01400080 IEM_DS3505
ZBAA,1996-04-13 09:00,ZBAA 130900Z AUTO 18010KT 4SM 13/06 A3021 RMK SLP237 T01310061 57023 IEM_DS3505
ZBAA,1996-04-13 10:00,ZBAA 131000Z AUTO 19008KT 3SM 13/08 A3021 RMK SLP237 T01300080 IEM_DS3505
ZBAA,1996-04-13 11:00,ZBAA 131100Z AUTO 19006KT 2 1/2SM 12/08 A3021 RMK SLP237 T01200080 IEM_DS3505
ZBAA,1996-04-13 12:00,ZBAA 131200Z AUTO 20004KT 2SM 11/06 A3021 RMK SLP242 T01110064 52004 IEM_DS3505
ZBAA,1996-04-13 13:00,ZBAA 131300Z AUTO 13002KT 3SM 10/08 A3024 RMK SLP247 T01000080 IEM_DS3505
ZBAA,1996-04-13 14:00,ZBAA 131400Z AUTO 09002KT 2 1/2SM 09/08 A3024 RMK SLP248 T00900080 IEM_DS3505
ZBAA,1996-04-13 15:00,ZBAA 131500Z AUTO 16004KT 2SM 09/06 A3024 RMK SLP245 T00900064 52004 IEM_DS3505
ZBAA,1996-04-13 16:00,ZBAA 131600Z AUTO 13002KT 2SM 08/08 A3024 RMK SLP248 T00800080 IEM_DS3505
ZBAA,1996-04-13 17:00,ZBAA 131700Z AUTO 02002KT 1 1/2SM 07/07 A3024 RMK SLP248 T00700070 IEM_DS3505
ZBAA,1996-04-13 18:00,ZBAA 131800Z AUTO 02002KT 1 1/4SM 07/05 A3022 RMK SLP240 T00720054 57005 IEM_DS3505
ZBAA,1996-04-13 20:00,ZBAA 132000Z AUTO 00000KT 1 1/4SM 05/05 A3018 RMK SLP229 T00500050 IEM_DS3505
ZBAA,1996-04-13 21:00,ZBAA 132100Z AUTO 00000KT 1 1/4SM 06/04 A3018 RMK 70001 SLP229 T00600044 57011 IEM_DS3505
ZBAA,1996-04-13 22:00,ZBAA 132200Z AUTO 00000KT 1/2SM 04/04 A3018 RMK SLP229 T00400040 IEM_DS3505
ZBAA,1996-04-13 23:00,ZBAA 132300Z AUTO 34002KT 1/2SM 06/06 A3021 RMK SLP238 T00600060 IEM_DS3505
ZBAA,1996-04-14 00:00,ZBAA 140000Z AUTO 00000KT 1 1/4SM 08/06 A3021 RMK SLP236 T00850059 52007 IEM_DS3505
ZBAA,1996-04-14 01:00,ZBAA 140100Z AUTO ////04KT 1SM 11/08 A3021 RMK SLP237 T01100080 IEM_DS3505
ZBAA,1996-04-14 02:00,ZBAA 140200Z AUTO 00000KT 1SM 13/09 A3018 RMK SLP227 T01300090 IEM_DS3505
ZBAA,1996-04-14 03:00,ZBAA 140300Z AUTO 14004KT 1SM 16/06 A3018 RMK SLP226 T01560063 57010 IEM_DS3505
ZBAA,1996-04-14 04:00,ZBAA 140400Z AUTO 18008KT 2 1/2SM 17/09 A3015 RMK SLP216 T01700090 IEM_DS3505
ZBAA,1996-04-14 05:00,ZBAA 140500Z AUTO 20010KT 2 1/2SM 20/08 A3012 RMK SLP205 T02000080 IEM_DS3505
ZBAA,1996-04-14 06:00,ZBAA 140600Z AUTO 20010KT 1 1/4SM 20/02 A3006 RMK SLP195 T01970022 57030 IEM_DS3505
ZBAA,1996-04-14 07:00,ZBAA 140700Z AUTO 21008KT 7SM 22/05 A3006 RMK SLP183 T02200050 IEM_DS3505
ZBAA,1996-04-14 08:00,ZBAA 140800Z AUTO 20010KT 7SM 22/04 A3003 RMK SLP173 T02200040 IEM_DS3505
ZBAA,1996-04-14 09:00,ZBAA 140900Z AUTO 20010KT 2 1/2SM 20/02 A3000 RMK SLP169 T01990022 57026 IEM_DS3505
ZBAA,1996-04-14 10:00,ZBAA 141000Z AUTO 19010KT 6SM 19/03 A3000 RMK SLP164 T01900030 IEM_DS3505
ZBAA,1996-04-14 11:00,ZBAA 141100Z AUTO 19008KT 5SM 17/04 A3000 RMK SLP164 T01700040 IEM_DS3505
ZBAA,1996-04-14 12:00,ZBAA 141200Z AUTO 20010KT 3SM 17/04 A3000 RMK SLP169 T01700037 54000 IEM_DS3505
ZBAA,1996-04-14 13:00,ZBAA 141300Z AUTO 18006KT 5SM 16/06 A3000 RMK SLP165 T01600060 IEM_DS3505
ZBAA,1996-04-14 14:00,ZBAA 141400Z AUTO 16006KT 5SM 15/06 A3000 RMK SLP165 T01500060 IEM_DS3505
ZBAA,1996-04-14 15:00,ZBAA 141500Z AUTO 20010KT 2SM 15/06 A3000 RMK SLP162 T01460056 57007 IEM_DS3505
ZBAA,1996-04-14 16:00,ZBAA 141600Z AUTO 17006KT 5SM 14/08 A2997 RMK SLP155 T01400080 IEM_DS3505
ZBAA,1996-04-14 17:00,ZBAA 141700Z AUTO 16010KT 5SM 14/08 A2997 RMK SLP155 T01400080 IEM_DS3505
ZBAA,1996-04-14 18:00,ZBAA 141800Z AUTO 20006KT 6SM 12/07 A2991 RMK SLP134 T01230069 57027 IEM_DS3505
ZBAA,1996-04-14 20:00,ZBAA 142000Z AUTO 14002KT 4SM 11/08 A2985 RMK SLP115 T01100080 IEM_DS3505
ZBAA,1996-04-14 21:00,ZBAA 142100Z AUTO 20006KT 4SM 11/07 A2983 RMK SLP111 T01120073 57023 IEM_DS3505
ZBAA,1996-04-14 22:00,ZBAA 142200Z AUTO 10004KT 3SM 10/09 A2980 RMK SLP098 T01000090 IEM_DS3505
ZBAA,1996-04-14 23:00,ZBAA 142300Z AUTO 09006KT 2 1/2SM 10/09 A2980 RMK SLP098 T01000090 IEM_DS3505
ZBAA,1996-04-15 00:00,ZBAA 150000Z AUTO 20004KT 1 1/4SM 11/08 A2980 RMK SLP096 T01100075 57015 IEM_DS3505
ZBAA,1996-04-15 01:00,ZBAA 150100Z AUTO 09006KT 2SM 11/10 A2977 RMK SLP088 T01100100 IEM_DS3505
ZBAA,1996-04-15 02:00,ZBAA 150200Z AUTO 13006KT 2SM 13/10 A2977 RMK SLP088 T01300100 IEM_DS3505
ZBAA,1996-04-15 03:00,ZBAA 150300Z AUTO 16004KT 2SM 14/08 A2974 RMK SLP075 T01380075 57021 IEM_DS3505
ZBAA,1996-04-15 04:00,ZBAA 150400Z AUTO ////06KT 1 1/4SM 13/10 A2971 RMK SLP067 T01300100 IEM_DS3505
ZBAA,1996-04-15 05:00,ZBAA 150500Z AUTO ////06KT 1 1/4SM 15/11 A2965 RMK SLP046 T01500110 IEM_DS3505
ZBAA,1996-04-15 06:00,ZBAA 150600Z AUTO 14004KT 2SM 16/08 A2962 RMK SLP033 T01640082 57042 IEM_DS3505
ZBAA,1996-04-15 07:00,ZBAA 150700Z AUTO ////06KT 1 1/4SM 17/11 A2956 RMK SLP015 T01700110 IEM_DS3505
ZBAA,1996-04-15 08:00,ZBAA 150800Z AUTO ////04KT 1 1/4SM 17/11 A2956 RMK SLP015 T01700110 IEM_DS3505
ZBAA,1996-04-15 09:00,ZBAA 150900Z AUTO 25002KT 2 1/2SM 18/08 A2956 RMK SLP010 T01750085 57023 IEM_DS3505
ZBAA,1996-04-15 10:00,ZBAA 151000Z AUTO ////02KT 1 1/4SM 13/13 A2956 RMK SLP016 T01300130 IEM_DS3505
ZBAA,1996-04-15 11:00,ZBAA 151100Z AUTO ////06KT 1 1/4SM 13/13 A2953 RMK SLP006 T01300130 IEM_DS3505
ZBAA,1996-04-15 12:00,ZBAA 151200Z AUTO 09004KT 1 1/4SM 13/10 A2953 RMK 60012 SLP004 T01310104 57006 IEM_DS3505
ZBAA,1996-04-15 13:00,ZBAA 151300Z AUTO ////02KT 1SM 12/12 A2953 RMK SLP006 T01200120 IEM_DS3505
ZBAA,1996-04-15 14:00,ZBAA 151400Z AUTO 11004KT 1SM 12/12 A2950 RMK SLP996 T01200120 IEM_DS3505
ZBAA,1996-04-15 15:00,ZBAA 151500Z AUTO 02006KT 1SM 12/10 A2950 RMK SLP001 T01230102 57003 IEM_DS3505
ZBAA,1996-04-15 16:00,ZBAA 151600Z AUTO ////04KT 1 1/4SM 12/11 A2947 RMK SLP985 T01200110 IEM_DS3505
ZBAA,1996-04-15 17:00,ZBAA 151700Z AUTO 35002KT 2SM 11/11 A2944 RMK SLP975 T01100110 IEM_DS3505
ZBAA,1996-04-15 18:00,ZBAA 151800Z AUTO 34002KT 1SM 10/09 A2942 RMK SLP969 T01030091 57032 IEM_DS3505
ZBAA,1996-04-15 20:00,ZBAA 152000Z AUTO 00000KT 1/2SM 09/09 A2935 RMK SLP946 T00900090 IEM_DS3505
ZBAA,1996-04-15 21:00,ZBAA 152100Z AUTO 04004KT 1SM 10/08 A2935 RMK 70012 SLP946 T00970083 57023 IEM_DS3505
ZBAA,1996-04-15 22:00,ZBAA 152200Z AUTO 00000KT 3/8SM 08/08 A2935 RMK SLP946 T00800080 IEM_DS3505
ZBAA,1996-04-15 23:00,ZBAA 152300Z AUTO 36004KT 1/2SM 10/10 A2935 RMK SLP945 T01000100 IEM_DS3505
ZBAA,1996-04-16 00:00,ZBAA 160000Z AUTO 34002KT 1SM 12/09 A2935 RMK SLP948 T01150087 IEM_DS3505
ZBAA,1996-04-16 01:00,ZBAA 160100Z AUTO 14002KT 1SM 13/12 A2935 RMK SLP945 T01300120 IEM_DS3505
ZBAA,1996-04-16 02:00,ZBAA 160200Z AUTO 10004KT 1SM 15/13 A2935 RMK SLP944 T01500130 IEM_DS3505
ZBAA,1996-04-16 03:00,ZBAA 160300Z AUTO 11004KT 1SM 15/10 A2932 RMK SLP937 T01520101 57011 IEM_DS3505
ZBAA,1996-04-16 04:00,ZBAA 160400Z AUTO 20004KT 1 1/4SM 19/13 A2929 RMK SLP923 T01900130 IEM_DS3505
ZBAA,1996-04-16 05:00,ZBAA 160500Z AUTO 21008KT 2SM 19/13 A2929 RMK SLP923 T01900130 IEM_DS3505
ZBAA,1996-04-16 06:00,ZBAA 160600Z AUTO 20008KT 1SM 17/11 A2926 RMK SLP928 T01670108 57009 IEM_DS3505
ZBAA,1996-04-16 07:00,ZBAA 160700Z AUTO 20008KT 4SM 22/12 A2926 RMK SLP913 T02200120 IEM_DS3505
ZBAA,1996-04-16 08:00,ZBAA 160800Z AUTO 15006KT 4SM 20/12 A2926 RMK SLP913 T02000120 IEM_DS3505
ZBAA,1996-04-16 09:00,ZBAA 160900Z AUTO 32014KT 12SM 24/M07 A2929 RMK SLP929 T02361066 52002 IEM_DS3505
ZBAA,1996-04-16 10:00,ZBAA 161000Z AUTO 34017KT 7SM 22/M04 A2932 RMK SLP933 T02201040 IEM_DS3505
ZBAA,1996-04-16 11:00,ZBAA 161100Z AUTO 34017KT 6SM 20/M06 A2938 RMK SLP953 T02001060 IEM_DS3505
ZBAA,1996-04-16 12:00,ZBAA 161200Z AUTO 34010KT 12SM 18/M08 A2944 RMK SLP985 T01851079 52055 IEM_DS3505
ZBAA,1996-04-16 13:00,ZBAA 161300Z AUTO 32014KT 6SM 17/M06 A2950 RMK SLP995 T01701060 IEM_DS3505
ZBAA,1996-04-16 14:00,ZBAA 161400Z AUTO 32016KT 6SM 15/M06 A2956 RMK SLP016 T01501060 IEM_DS3505
ZBAA,1996-04-16 15:00,ZBAA 161500Z AUTO 34016G29KT 12SM 14/M10 A2959 RMK SLP036 T01441095 52051 IEM_DS3505
ZBAA,1996-04-16 18:00,ZBAA 161800Z AUTO 34008KT 19SM 11/M12 A2966 RMK SLP051 T01121121 52015 IEM_DS3505
ZBAA,1996-04-16 20:00,ZBAA 162000Z AUTO 33008KT 7SM 09/M10 A2971 RMK SLP068 T00901100 IEM_DS3505
ZBAA,1996-04-16 21:00,ZBAA 162100Z AUTO 32004KT 19SM 08/M06 A2971 RMK SLP070 T00801061 52019 IEM_DS3505
ZBAA,1996-04-16 22:00,ZBAA 162200Z AUTO 31006KT 7SM 09/M13 A2974 RMK SLP078 T00901130 IEM_DS3505
ZBAA,1996-04-16 23:00,ZBAA 162300Z AUTO 30008KT 7SM 10/M10 A2977 RMK SLP088 T01001100 IEM_DS3505
ZBAA,1996-04-17 00:00,ZBAA 170000Z AUTO 34010KT 16SM 12/M18 A2977 RMK SLP088 T01191185 52018 IEM_DS3505
ZBAA,1996-04-17 01:00,ZBAA 170100Z AUTO 34014KT 7SM 13/M12 A2980 RMK SLP098 T01301120 IEM_DS3505
ZBAA,1996-04-17 02:00,ZBAA 170200Z AUTO 34019KT 7SM 13/M14 A2980 RMK SLP098 T01301140 IEM_DS3505
ZBAA,1996-04-17 03:00,ZBAA 170300Z AUTO 34017KT 6SM 13/M22 A2980 RMK SLP107 T01321219 52018 IEM_DS3505
ZBAA,1996-04-17 04:00,ZBAA 170400Z AUTO 35021G31KT 7SM 14/M13 A2980 RMK SLP098 T01401130 IEM_DS3505
ZBAA,1996-04-17 05:00,ZBAA 170500Z AUTO 34019G29KT 7SM 14/M13 A2980 RMK SLP098 T01401130 IEM_DS3505
ZBAA,1996-04-17 06:00,ZBAA 170600Z AUTO 34016KT 9SM 14/ A2980 RMK SLP107 4////0054 54000 IEM_DS3505
ZBAA,1996-04-17 07:00,ZBAA 170700Z AUTO 32017G29KT 7SM 15/M12 A2980 RMK SLP097 T01501120 IEM_DS3505
ZBAA,1996-04-17 08:00,ZBAA 170800Z AUTO 31017G27KT 7SM 15/M12 A2980 RMK SLP097 T01501120 IEM_DS3505
ZBAA,1996-04-17 09:00,ZBAA 170900Z AUTO 34014KT 9SM 14/ A2980 RMK SLP107 54000 IEM_DS3505
ZBAA,1996-04-17 10:00,ZBAA 171000Z AUTO 35012KT 7SM 14/M14 A2983 RMK SLP108 T01401140 IEM_DS3505
ZBAA,1996-04-17 11:00,ZBAA 171100Z AUTO 35012KT 7SM 13/M15 A2985 RMK SLP115 T01301150 IEM_DS3505
ZBAA,1996-04-17 12:00,ZBAA 171200Z AUTO 34006KT 19SM 12/ A2988 RMK SLP127 52020 IEM_DS3505
ZBAA,1996-04-17 13:00,ZBAA 171300Z AUTO 01006KT 7SM 11/M17 A2991 RMK SLP135 T01101170 IEM_DS3505
ZBAA,1996-04-17 14:00,ZBAA 171400Z AUTO 36008KT 7SM 11/M17 A2994 RMK SLP146 T01101170 IEM_DS3505
ZBAA,1996-04-17 15:00,ZBAA 171500Z AUTO 00000KT 19SM 09/M12 A2994 RMK SLP153 T00861121 52025 IEM_DS3505
ZBAA,1996-04-17 16:00,ZBAA 171600Z AUTO 36010KT 7SM 10/M17 A2997 RMK SLP156 T01001170 IEM_DS3505
ZBAA,1996-04-17 18:00,ZBAA 171800Z AUTO 29002KT 19SM 07/M09 A2997 RMK SLP157 T00721088 52004 IEM_DS3505
ZBAA,1996-04-17 20:00,ZBAA 172000Z AUTO 32004KT 7SM 08/M16 A2997 RMK SLP156 T00801160 IEM_DS3505
ZBAA,1996-04-17 21:00,ZBAA 172100Z AUTO 25002KT 19SM 04/M08 A2997 RMK SLP163 T00401083 52006 IEM_DS3505
ZBAA,1996-04-17 22:00,ZBAA 172200Z AUTO 29006KT 7SM 07/M13 A3000 RMK SLP167 T00701130 IEM_DS3505
ZBAA,1996-04-17 23:00,ZBAA 172300Z AUTO 29006KT 6SM 10/M15 A3000 RMK SLP166 T01001150 IEM_DS3505
ZBAA,1996-04-18 00:00,ZBAA 180000Z AUTO 25002KT 19SM 12/M17 A3003 RMK SLP177 T01221166 52015 IEM_DS3505
ZBAA,1996-04-18 01:00,ZBAA 180100Z AUTO 30008KT 6SM 13/M13 A3003 RMK SLP175 T01301130 IEM_DS3505
ZBAA,1996-04-18 02:00,ZBAA 180200Z AUTO 33010KT 6SM 14/M12 A3000 RMK SLP165 T01401120 IEM_DS3505
ZBAA,1996-04-18 03:00,ZBAA 180300Z AUTO 02010KT 19SM 16/ A3000 RMK SLP176 57001 IEM_DS3505
ZBAA,1996-04-18 04:00,ZBAA 180400Z AUTO 28014KT 6SM 17/M10 A2997 RMK SLP154 T01701100 IEM_DS3505
ZBAA,1996-04-18 05:00,ZBAA 180500Z AUTO 29014KT 7SM 18/M10 A2994 RMK SLP144 T01801100 IEM_DS3505
ZBAA,1996-04-18 06:00,ZBAA 180600Z AUTO 34014KT 19SM 18/ A2994 RMK SLP151 57025 IEM_DS3505
ZBAA,1996-04-18 07:00,ZBAA 180700Z AUTO 33014KT 7SM 20/M09 A2991 RMK SLP133 T02001090 IEM_DS3505
ZBAA,1996-04-18 08:00,ZBAA 180800Z AUTO 33014KT 7SM 19/M09 A2991 RMK SLP134 T01901090 IEM_DS3505
ZBAA,1996-04-18 09:00,ZBAA 180900Z AUTO 29016G23KT 19SM 19/ A2991 RMK SLP143 57008 IEM_DS3505
ZBAA,1996-04-18 10:00,ZBAA 181000Z AUTO 34016KT 7SM 17/M11 A2994 RMK SLP144 T01701110 IEM_DS3505
ZBAA,1996-04-18 11:00,ZBAA 181100Z AUTO 34014KT 7SM 16/M13 A2994 RMK SLP144 T01601130 IEM_DS3505
ZBAA,1996-04-18 12:00,ZBAA 181200Z AUTO 34006KT 19SM 15/M17 A3000 RMK SLP167 T01521166 52024 IEM_DS3505
ZBAA,1996-04-18 13:00,ZBAA 181300Z AUTO 34012KT 7SM 14/M15 A3003 RMK SLP175 T01401150 IEM_DS3505
ZBAA,1996-04-18 14:00,ZBAA 181400Z AUTO 34012KT 7SM 13/M15 A3006 RMK SLP185 T01301150 IEM_DS3505
ZBAA,1996-04-18 15:00,ZBAA 181500Z AUTO 34008KT 19SM 13/M18 A3006 RMK SLP188 T01271176 52021 IEM_DS3505
ZBAA,1996-04-18 16:00,ZBAA 181600Z AUTO 32006KT 7SM 12/M16 A3006 RMK SLP186 T01201160 IEM_DS3505
ZBAA,1996-04-18 17:00,ZBAA 181700Z AUTO 31006KT 7SM 11/M16 A3003 RMK SLP176 T01101160 IEM_DS3505
ZBAA,1996-04-18 18:00,ZBAA 181800Z AUTO 34010KT 19SM 12/M22 A3005 RMK SLP182 T01211218 57006 IEM_DS3505
ZBAA,1996-04-18 20:00,ZBAA 182000Z AUTO 00000KT 7SM 08/M14 A3003 RMK SLP176 T00801140 IEM_DS3505
ZBAA,1996-04-18 21:00,ZBAA 182100Z AUTO 32010KT 19SM 11/M20 A3004 RMK SLP179 T01071200 57003 IEM_DS3505
ZBAA,1996-04-18 22:00,ZBAA 182200Z AUTO 29008KT 6SM 10/M16 A3003 RMK SLP176 T01001160 IEM_DS3505
ZBAA,1996-04-18 23:00,ZBAA 182300Z AUTO 31012KT 6SM 11/M14 A3003 RMK SLP176 T01101140 IEM_DS3505
ZBAA,1996-04-19 00:00,ZBAA 190000Z AUTO 04008G23KT 19SM 12/M21 A3003 RMK SLP188 T01201210 52009 IEM_DS3505
ZBAA,1996-04-19 01:00,ZBAA 190100Z AUTO 32019KT 6SM 13/M10 A3003 RMK SLP175 T01301100 IEM_DS3505
ZBAA,1996-04-19 02:00,ZBAA 190200Z AUTO 32017G27KT 6SM 14/M07 A3006 RMK SLP185 T01401070 IEM_DS3505
ZBAA,1996-04-19 03:00,ZBAA 190300Z AUTO 34014G25KT 16SM 15/M15 A3006 RMK SLP186 T01481146 57002 IEM_DS3505
ZBAA,1996-04-19 04:00,ZBAA 190400Z AUTO 31016G25KT 6SM 15/M05 A3006 RMK SLP185 T01501050 IEM_DS3505
ZBAA,1996-04-19 05:00,ZBAA 190500Z AUTO 33012G21KT 6SM 16/M05 A3006 RMK SLP185 T01601050 IEM_DS3505
ZBAA,1996-04-19 06:00,ZBAA 190600Z AUTO 32014G25KT 19SM 16/M09 A3006 RMK SLP188 T01591088 52002 IEM_DS3505
ZBAA,1996-04-19 07:00,ZBAA 190700Z AUTO 33017KT 6SM 16/M04 A3006 RMK SLP185 T01601040 IEM_DS3505
ZBAA,1996-04-19 08:00,ZBAA 190800Z AUTO 33016KT 6SM 17/M04 A3006 RMK SLP184 T01701040 IEM_DS3505
ZBAA,1996-04-19 09:00,ZBAA 190900Z AUTO 34012KT 17SM 16/M06 A3006 RMK SLP194 T01601063 52006 IEM_DS3505
ZBAA,1996-04-19 10:00,ZBAA 191000Z AUTO 33016KT 6SM 16/M04 A3006 RMK SLP185 T01601040 IEM_DS3505
ZBAA,1996-04-19 11:00,ZBAA 191100Z AUTO 33014KT 6SM 14/M04 A3009 RMK SLP195 T01401040 IEM_DS3505
ZBAA,1996-04-19 12:00,ZBAA 191200Z AUTO 34004KT 19SM 13/M05 A3012 RMK SLP212 T01311046 52017 IEM_DS3505
ZBAA,1996-04-19 13:00,ZBAA 191300Z AUTO 34008KT 6SM 13/M03 A3015 RMK SLP217 T01301030 IEM_DS3505
ZBAA,1996-04-19 14:00,ZBAA 191400Z AUTO 33008KT 6SM 12/M03 A3015 RMK SLP217 T01201030 IEM_DS3505
ZBAA,1996-04-19 15:00,ZBAA 191500Z AUTO 34004KT 19SM 10/M02 A3018 RMK SLP224 T01011015 52012 IEM_DS3505
ZBAA,1996-04-19 18:00,ZBAA 191800Z AUTO 02004KT 19SM 10/M02 A3018 RMK SLP234 T01051020 52010 IEM_DS3505
ZBAA,1996-04-19 20:00,ZBAA 192000Z AUTO 35006KT 7SM 09/M01 A3021 RMK SLP238 T00901010 IEM_DS3505
ZBAA,1996-04-19 21:00,ZBAA 192100Z AUTO 02002KT 19SM 09/M01 A3021 RMK SLP238 T00931007 52004 IEM_DS3505
ZBAA,1996-04-19 22:00,ZBAA 192200Z AUTO 33004KT 6SM 09/M01 A3021 RMK SLP238 T00901010 IEM_DS3505
ZBAA,1996-04-19 23:00,ZBAA 192300Z AUTO 35004KT 6SM 10/00 A3024 RMK SLP247 T01000000 IEM_DS3505
ZBAA,1996-04-20 00:00,ZBAA 200000Z AUTO 02004KT 16SM 12/M02 A3024 RMK SLP252 T01241018 52014 IEM_DS3505
ZBAA,1996-04-20 01:00,ZBAA 200100Z AUTO ////06KT 6SM 14/M01 A3027 RMK SLP257 T01401010 IEM_DS3505
ZBAA,1996-04-20 02:00,ZBAA 200200Z AUTO ////06KT 6SM 14/M01 A3027 RMK SLP257 T01401010 IEM_DS3505
ZBAA,1996-04-20 03:00,ZBAA 200300Z AUTO 29008KT 16SM 16/M06 A3024 RMK SLP252 T01581059 54000 IEM_DS3505
ZBAA,1996-04-20 04:00,ZBAA 200400Z AUTO 32008KT 6SM 17/M01 A3024 RMK SLP246 T01701010 IEM_DS3505
ZBAA,1996-04-20 05:00,ZBAA 200500Z AUTO 04008KT 6SM 18/M01 A3021 RMK SLP236 T01801010 IEM_DS3505
ZBAA,1996-04-20 06:00,ZBAA 200600Z AUTO 36010KT 19SM 18/M07 A3021 RMK SLP232 T01791074 57019 IEM_DS3505
ZBAA,1996-04-20 07:00,ZBAA 200700Z AUTO 00000KT 6SM 19/M03 A3018 RMK SLP225 T01901030 IEM_DS3505
ZBAA,1996-04-20 08:00,ZBAA 200800Z AUTO 07006KT 6SM 19/M04 A3015 RMK SLP215 T01901040 IEM_DS3505
ZBAA,1996-04-20 09:00,ZBAA 200900Z AUTO 02006KT 19SM 20/M06 A3015 RMK SLP214 T01961055 57018 IEM_DS3505
ZBAA,1996-04-20 10:00,ZBAA 201000Z AUTO ////06KT 7SM 18/M04 A3015 RMK SLP215 T01801040 IEM_DS3505
ZBAA,1996-04-20 11:00,ZBAA 201100Z AUTO ////04KT 7SM 17/M05 A3015 RMK SLP216 T01701050 IEM_DS3505
ZBAA,1996-04-20 12:00,ZBAA 201200Z AUTO 16006KT 16SM 16/M04 A3018 RMK SLP225 T01631037 52011 IEM_DS3505
ZBAA,1996-04-20 13:00,ZBAA 201300Z AUTO ////04KT 7SM 14/M03 A3018 RMK SLP226 T01401030 IEM_DS3505
ZBAA,1996-04-20 14:00,ZBAA 201400Z AUTO 21004KT 7SM 13/M02 A3021 RMK SLP237 T01301020 IEM_DS3505
ZBAA,1996-04-20 15:00,ZBAA 201500Z AUTO 20006KT 16SM 14/M03 A3021 RMK SLP235 T01361032 52010 IEM_DS3505
ZBAA,1996-04-20 18:00,ZBAA 201800Z AUTO 20006KT 12SM 11/M06 A3017 RMK SLP221 T01081065 57014 IEM_DS3505
ZBAA,1996-04-20 20:00,ZBAA 202000Z AUTO 00000KT 7SM 08/M05 A3012 RMK SLP208 T00801050 IEM_DS3505
ZBAA,1996-04-20 21:00,ZBAA 202100Z AUTO 00000KT 12SM 06/M03 A3012 RMK SLP207 T00651034 57014 IEM_DS3505
ZBAA,1996-04-20 22:00,ZBAA 202200Z AUTO 07002KT 6SM 06/M02 A3012 RMK SLP208 T00601020 IEM_DS3505
ZBAA,1996-04-20 23:00,ZBAA 202300Z AUTO 06002KT 6SM 07/00 A3012 RMK SLP208 T00700000 IEM_DS3505
ZBAA,1996-04-21 00:00,ZBAA 210000Z AUTO 00000KT 5SM 12/M04 A3009 RMK SLP201 T01151042 57006 IEM_DS3505
ZBAA,1996-04-21 01:00,ZBAA 210100Z AUTO 12002KT 6SM 13/01 A3009 RMK SLP195 T01300010 IEM_DS3505
ZBAA,1996-04-21 02:00,ZBAA 210200Z AUTO 12002KT 6SM 16/00 A3006 RMK SLP185 T01600000 IEM_DS3505
ZBAA,1996-04-21 03:00,ZBAA 210300Z AUTO 22008KT 7SM 20/M07 A3003 RMK SLP177 T02011074 57023 IEM_DS3505
ZBAA,1996-04-21 04:00,ZBAA 210400Z AUTO ////04KT 5SM 21/M02 A3000 RMK SLP163 T02101020 IEM_DS3505
ZBAA,1996-04-21 05:00,ZBAA 210500Z AUTO 23010KT 6SM 24/M05 A2994 RMK SLP143 T02401050 IEM_DS3505
ZBAA,1996-04-21 06:00,ZBAA 210600Z AUTO 20010KT 12SM 24/M04 A2988 RMK SLP136 T02391042 57041 IEM_DS3505
ZBAA,1996-04-21 07:00,ZBAA 210700Z AUTO 21016KT 6SM 25/M04 A2985 RMK SLP112 T02501040 IEM_DS3505
ZBAA,1996-04-21 08:00,ZBAA 210800Z AUTO 21016KT 6SM 25/M01 A2980 RMK SLP095 T02501010 IEM_DS3505
ZBAA,1996-04-21 09:00,ZBAA 210900Z AUTO 25010KT 6SM 25/M06 A2977 RMK SLP097 T02491060 57039 IEM_DS3505
ZBAA,1996-04-21 10:00,ZBAA 211000Z AUTO 22016KT 6SM 24/M02 A2974 RMK SLP074 T02401020 IEM_DS3505
ZBAA,1996-04-21 11:00,ZBAA 211100Z AUTO 23014KT 6SM 23/M01 A2974 RMK SLP074 T02301010 IEM_DS3505
ZBAA,1996-04-21 12:00,ZBAA 211200Z AUTO 20012KT 12SM 22/M04 A2977 RMK SLP095 T02181036 57002 IEM_DS3505
ZBAA,1996-04-21 13:00,ZBAA 211300Z AUTO 24010KT 6SM 21/00 A2980 RMK SLP096 T02100000 IEM_DS3505
ZBAA,1996-04-21 14:00,ZBAA 211400Z AUTO 24006KT 6SM 19/M01 A2980 RMK SLP096 T01901010 IEM_DS3505
ZBAA,1996-04-21 15:00,ZBAA 211500Z AUTO 20008KT 9SM 19/M01 A2980 RMK SLP098 T01861012 52004 IEM_DS3505
ZBAA,1996-04-21 16:00,ZBAA 211600Z AUTO 22006KT 6SM 17/M01 A2980 RMK SLP097 T01701010 IEM_DS3505
ZBAA,1996-04-21 18:00,ZBAA 211800Z AUTO 20006KT 12SM 17/M01 A2977 RMK SLP086 T01671011 57012 IEM_DS3505
ZBAA,1996-04-21 20:00,ZBAA 212000Z AUTO 09006KT 7SM 13/02 A2974 RMK SLP077 T01300020 IEM_DS3505
ZBAA,1996-04-21 21:00,ZBAA 212100Z AUTO 16004KT 9SM 13/02 A2974 RMK SLP076 T01280023 57010 IEM_DS3505
ZBAA,1996-04-21 22:00,ZBAA 212200Z AUTO 12002KT 5SM 12/03 A2974 RMK SLP077 T01200030 IEM_DS3505
ZBAA,1996-04-21 23:00,ZBAA 212300Z AUTO 00000KT 4SM 12/04 A2974 RMK SLP077 T01200040 IEM_DS3505
ZBAA,1996-04-22 00:00,ZBAA 220000Z AUTO 16002KT 5SM 16/03 A2974 RMK SLP074 T01650033 57002 IEM_DS3505
ZBAA,1996-04-22 01:00,ZBAA 220100Z AUTO 10004KT 4SM 16/06 A2974 RMK SLP076 T01600060 IEM_DS3505
ZBAA,1996-04-22 02:00,ZBAA 220200Z AUTO 12006KT 4SM 19/06 A2971 RMK SLP065 T01900060 IEM_DS3505
ZBAA,1996-04-22 03:00,ZBAA 220300Z AUTO 16006KT 3SM 23/01 A2971 RMK SLP065 T02270010 57009 IEM_DS3505
ZBAA,1996-04-22 04:00,ZBAA 220400Z AUTO 15010KT 5SM 24/08 A2968 RMK SLP054 T02400080 IEM_DS3505
ZBAA,1996-04-22 05:00,ZBAA 220500Z AUTO ////06KT 5SM 26/06 A2965 RMK SLP044 T02600060 IEM_DS3505
ZBAA,1996-04-22 06:00,ZBAA 220600Z AUTO 20006KT 4SM 28/M03 A2965 RMK SLP041 T02841029 57023 IEM_DS3505
ZBAA,1996-04-22 07:00,ZBAA 220700Z AUTO 16010KT 4SM 28/05 A2962 RMK SLP033 T02800050 IEM_DS3505
ZBAA,1996-04-22 08:00,ZBAA 220800Z AUTO 16010KT 4SM 29/05 A2959 RMK SLP023 T02900050 IEM_DS3505
ZBAA,1996-04-22 09:00,ZBAA 220900Z AUTO 20012KT 4SM 29/00 A2959 RMK SLP031 T02860004 57011 IEM_DS3505
ZBAA,1996-04-22 10:00,ZBAA 221000Z AUTO 19008KT 4SM 27/03 A2959 RMK SLP023 T02700030 IEM_DS3505
ZBAA,1996-04-22 11:00,ZBAA 221100Z AUTO 17006KT 4SM 25/02 A2962 RMK SLP034 T02500020 IEM_DS3505
ZBAA,1996-04-22 12:00,ZBAA 221200Z AUTO 20010KT 3SM 25/06 A2965 RMK SLP041 T02530056 52010 IEM_DS3505
ZBAA,1996-04-22 13:00,ZBAA 221300Z AUTO 12006KT 5SM 21/06 A2965 RMK SLP045 T02100060 IEM_DS3505
ZBAA,1996-04-22 14:00,ZBAA 221400Z AUTO 12008KT 6SM 20/06 A2968 RMK SLP055 T02000060 IEM_DS3505
ZBAA,1996-04-22 15:00,ZBAA 221500Z AUTO 20008KT 6SM 22/06 A2968 RMK SLP053 T02180064 52013 IEM_DS3505
ZBAA,1996-04-22 16:00,ZBAA 221600Z AUTO 11002KT 6SM 18/08 A2971 RMK SLP065 T01800080 IEM_DS3505
ZBAA,1996-04-22 20:00,ZBAA 222000Z AUTO 11004KT 5SM 14/09 A2971 RMK SLP066 T01400090 IEM_DS3505
ZBAA,1996-04-22 21:00,ZBAA 222100Z AUTO 07002KT 6SM 15/08 A2974 RMK SLP069 T01490084 52009 IEM_DS3505
ZBAA,1996-04-22 22:00,ZBAA 222200Z AUTO 07002KT 5SM 12/10 A2974 RMK SLP077 T01200100 IEM_DS3505
ZBAA,1996-04-22 23:00,ZBAA 222300Z AUTO 08004KT 5SM 13/10 A2977 RMK SLP088 T01300100 IEM_DS3505
ZBAA,1996-04-23 00:00,ZBAA 230000Z AUTO 11004KT 5SM 16/08 A2977 RMK SLP083 T01570085 52014 IEM_DS3505
ZBAA,1996-04-23 01:00,ZBAA 230100Z AUTO 12006KT 4SM 18/11 A2977 RMK SLP087 T01800110 IEM_DS3505
ZBAA,1996-04-23 02:00,ZBAA 230200Z AUTO 11006KT 4SM 19/11 A2977 RMK SLP086 T01900110 IEM_DS3505
ZBAA,1996-04-23 03:00,ZBAA 230300Z AUTO 36004KT 2 1/2SM 20/08 A2977 RMK SLP088 T02040085 52005 IEM_DS3505
ZBAA,1996-04-23 04:00,ZBAA 230400Z AUTO 13008KT 5SM 22/11 A2977 RMK SLP086 T02200110 IEM_DS3505
ZBAA,1996-04-23 05:00,ZBAA 230500Z AUTO 15008KT 6SM 23/11 A2974 RMK SLP074 T02300110 IEM_DS3505
ZBAA,1996-04-23 06:00,ZBAA 230600Z AUTO 20006KT 3SM 23/09 A2971 RMK SLP067 T02270090 57021 IEM_DS3505
ZBAA,1996-04-23 07:00,ZBAA 230700Z AUTO 16006KT 6SM 24/12 A2971 RMK SLP064 T02400120 IEM_DS3505
ZBAA,1996-04-23 08:00,ZBAA 230800Z AUTO 15008KT 5SM 26/12 A2968 RMK SLP054 T02600120 IEM_DS3505
ZBAA,1996-04-23 09:00,ZBAA 230900Z AUTO 18006KT 4SM 25/10 A2968 RMK SLP051 T02520097 57016 IEM_DS3505
ZBAA,1996-04-23 10:00,ZBAA 231000Z AUTO 15006KT 5SM 24/12 A2965 RMK SLP044 T02400120 IEM_DS3505
ZBAA,1996-04-23 11:00,ZBAA 231100Z AUTO 14004KT 4SM 23/12 A2968 RMK SLP054 T02300120 IEM_DS3505
ZBAA,1996-04-23 12:00,ZBAA 231200Z AUTO 18008KT 4SM 24/10 A2968 RMK SLP054 T02350104 52003 IEM_DS3505
ZBAA,1996-04-23 13:00,ZBAA 231300Z AUTO 06006KT 4SM 20/13 A2974 RMK SLP075 T02000130 IEM_DS3505
ZBAA,1996-04-23 14:00,ZBAA 231400Z AUTO ////02KT 4SM 21/12 A2977 RMK SLP086 T02100120 IEM_DS3505
ZBAA,1996-04-23 15:00,ZBAA 231500Z AUTO 04004KT 3SM 21/12 A2977 RMK SLP089 T02130115 52035 IEM_DS3505
ZBAA,1996-04-23 16:00,ZBAA 231600Z AUTO 30008KT 4SM 22/11 A2980 RMK SLP096 T02200110 IEM_DS3505
ZBAA,1996-04-23 18:00,ZBAA 231800Z AUTO 34012KT 4SM 22/M05 A2985 RMK SLP111 T02231048 52022 IEM_DS3505
ZBAA,1996-04-23 20:00,ZBAA 232000Z AUTO 33021KT 6SM 19/M11 A2991 RMK SLP134 T01901110 IEM_DS3505
ZBAA,1996-04-23 21:00,ZBAA 232100Z AUTO 02012KT 5SM 18/M12 A2991 RMK SLP137 T01771117 52026 IEM_DS3505
ZBAA,1996-04-23 22:00,ZBAA 232200Z AUTO 32017KT 6SM 16/M11 A2994 RMK SLP144 T01601110 IEM_DS3505
ZBAA,1996-04-23 23:00,ZBAA 232300Z AUTO 33014KT 6SM 16/M11 A2997 RMK SLP154 T01601110 IEM_DS3505
ZBAA,1996-04-24 00:00,ZBAA 240000Z AUTO 34014KT 6SM 16/M11 A3003 RMK SLP174 T01611107 52036 IEM_DS3505
ZBAA,1996-04-24 01:00,ZBAA 240100Z AUTO 33012KT 6SM 17/M10 A3003 RMK SLP174 T01701100 IEM_DS3505
ZBAA,1996-04-24 02:00,ZBAA 240200Z AUTO 33010KT 6SM 18/M10 A3006 RMK SLP184 T01801100 IEM_DS3505
ZBAA,1996-04-24 03:00,ZBAA 240300Z AUTO 02012KT 7SM 18/M12 A3006 RMK SLP183 T01831120 52009 IEM_DS3505
ZBAA,1996-04-24 04:00,ZBAA 240400Z AUTO ////06KT 6SM 19/M07 A3006 RMK SLP184 T01901070 IEM_DS3505
ZBAA,1996-04-24 05:00,ZBAA 240500Z AUTO ////02KT 6SM 20/M05 A3003 RMK SLP174 T02001050 IEM_DS3505
ZBAA,1996-04-24 06:00,ZBAA 240600Z AUTO 36004KT 7SM 22/M11 A3000 RMK SLP164 T02211106 57018 IEM_DS3505
ZBAA,1996-04-24 07:00,ZBAA 240700Z AUTO ////02KT 6SM 21/M06 A2997 RMK SLP153 T02101060 IEM_DS3505
ZBAA,1996-04-24 08:00,ZBAA 240800Z AUTO 00000KT 6SM 22/M05 A2997 RMK SLP153 T02201050 IEM_DS3505
ZBAA,1996-04-24 09:00,ZBAA 240900Z AUTO 07004KT 9SM 22/M07 A2994 RMK SLP148 T02241069 57016 IEM_DS3505
ZBAA,1996-04-24 10:00,ZBAA 241000Z AUTO 18004KT 6SM 21/M06 A2994 RMK SLP143 T02101060 IEM_DS3505
ZBAA,1996-04-24 11:00,ZBAA 241100Z AUTO 17002KT 6SM 19/M06 A2994 RMK SLP144 T01901060 IEM_DS3505
ZBAA,1996-04-24 12:00,ZBAA 241200Z AUTO 20006KT 6SM 19/M03 A2997 RMK SLP160 T01911028 52011 IEM_DS3505
ZBAA,1996-04-24 13:00,ZBAA 241300Z AUTO 17006KT 7SM 17/M03 A3000 RMK SLP164 T01701030 IEM_DS3505
ZBAA,1996-04-24 14:00,ZBAA 241400Z AUTO ////06KT 7SM 16/M03 A3003 RMK SLP175 T01601030 IEM_DS3505
ZBAA,1996-04-24 15:00,ZBAA 241500Z AUTO 16004KT 5SM 16/M00 A3001 RMK SLP168 T01631004 52008 IEM_DS3505
ZBAA,1996-04-24 18:00,ZBAA 241800Z AUTO 00000KT 3SM 13/01 A3001 RMK SLP167 T01290008 57001 IEM_DS3505
ZBAA,1996-04-24 20:00,ZBAA 242000Z AUTO 00000KT 4SM 09/04 A3000 RMK SLP166 T00900040 IEM_DS3505
ZBAA,1996-04-24 21:00,ZBAA 242100Z AUTO 07004KT 3SM 11/01 A2997 RMK SLP161 T01110013 57006 IEM_DS3505
ZBAA,1996-04-24 22:00,ZBAA 242200Z AUTO ////04KT 3SM 09/04 A2997 RMK SLP156 T00900040 IEM_DS3505
ZBAA,1996-04-24 23:00,ZBAA 242300Z AUTO 34002KT 5SM 10/03 A3000 RMK SLP166 T01000030 IEM_DS3505
ZBAA,1996-04-25 00:00,ZBAA 250000Z AUTO 02004KT 2SM 13/02 A3000 RMK SLP164 T01330021 52003 IEM_DS3505
ZBAA,1996-04-25 01:00,ZBAA 250100Z AUTO ////02KT 4SM 14/03 A3000 RMK SLP165 T01400030 IEM_DS3505
ZBAA,1996-04-25 02:00,ZBAA 250200Z AUTO ////04KT 4SM 17/03 A3000 RMK SLP164 T01700030 IEM_DS3505
ZBAA,1996-04-25 03:00,ZBAA 250300Z AUTO 16004KT 2 1/2SM 20/02 A2997 RMK SLP155 T02000017 57009 IEM_DS3505
ZBAA,1996-04-25 04:00,ZBAA 250400Z AUTO 17006KT 4SM 22/04 A2994 RMK SLP143 T02200040 IEM_DS3505
ZBAA,1996-04-25 05:00,ZBAA 250500Z AUTO 17010KT 4SM 24/02 A2991 RMK SLP133 T02400020 IEM_DS3505
ZBAA,1996-04-25 06:00,ZBAA 250600Z AUTO 20008KT 9SM 24/M03 A2985 RMK SLP121 T02421028 57034 IEM_DS3505
ZBAA,1996-04-25 07:00,ZBAA 250700Z AUTO 19010KT 5SM 26/02 A2985 RMK SLP112 T02600020 IEM_DS3505
ZBAA,1996-04-25 08:00,ZBAA 250800Z AUTO 18010KT 7SM 26/01 A2983 RMK SLP105 T02600010 IEM_DS3505
ZBAA,1996-04-25 09:00,ZBAA 250900Z AUTO 20012KT 12SM 25/M02 A2980 RMK SLP104 T02511015 57017 IEM_DS3505
ZBAA,1996-04-25 10:00,ZBAA 251000Z AUTO 19010KT 7SM 24/02 A2980 RMK SLP095 T02400020 IEM_DS3505
ZBAA,1996-04-25 11:00,ZBAA 251100Z AUTO 17008KT 7SM 22/03 A2983 RMK SLP106 T02200030 IEM_DS3505
ZBAA,1996-04-25 12:00,ZBAA 251200Z AUTO 20010KT 9SM 22/01 A2985 RMK SLP108 T02200013 52004 IEM_DS3505
ZBAA,1996-04-25 13:00,ZBAA 251300Z AUTO 15006KT 7SM 20/05 A2985 RMK SLP113 T02000050 IEM_DS3505
ZBAA,1996-04-25 14:00,ZBAA 251400Z AUTO 15008KT 7SM 19/07 A2985 RMK SLP114 T01900070 IEM_DS3505
ZBAA,1996-04-25 15:00,ZBAA 251500Z AUTO 18006KT 6SM 20/04 A2985 RMK SLP114 T01960040 52007 IEM_DS3505
ZBAA,1996-04-25 18:00,ZBAA 251800Z AUTO 04006KT 6SM 16/05 A2986 RMK SLP116 T01620046 52002 IEM_DS3505
ZBAA,1996-04-25 20:00,ZBAA 252000Z AUTO 00000KT 7SM 13/10 A2988 RMK SLP125 T01300100 IEM_DS3505
ZBAA,1996-04-25 21:00,ZBAA 252100Z AUTO 04004KT 6SM 14/08 A2988 RMK SLP119 T01380084 52003 IEM_DS3505
ZBAA,1996-04-25 22:00,ZBAA 252200Z AUTO 02002KT 5SM 12/10 A2988 RMK SLP125 T01200100 IEM_DS3505
ZBAA,1996-04-25 23:00,ZBAA 252300Z AUTO 00000KT 5SM 13/10 A2991 RMK SLP135 T01300100 IEM_DS3505
ZBAA,1996-04-26 00:00,ZBAA 260000Z AUTO 07006KT 2 1/2SM 16/09 A2991 RMK SLP135 T01580086 52015 IEM_DS3505
ZBAA,1996-04-26 01:00,ZBAA 260100Z AUTO 12002KT 4SM 17/11 A2991 RMK SLP134 T01700110 IEM_DS3505
ZBAA,1996-04-26 02:00,ZBAA 260200Z AUTO 10002KT 4SM 19/12 A2991 RMK SLP134 T01900120 IEM_DS3505
ZBAA,1996-04-26 03:00,ZBAA 260300Z AUTO 07004KT 4SM 20/10 A2991 RMK SLP136 T02030095 52002 IEM_DS3505
ZBAA,1996-04-26 04:00,ZBAA 260400Z AUTO ////06KT 5SM 24/12 A2991 RMK SLP133 T02400120 IEM_DS3505
ZBAA,1996-04-26 05:00,ZBAA 260500Z AUTO ////06KT 4SM 25/12 A2988 RMK SLP122 T02500120 IEM_DS3505
ZBAA,1996-04-26 06:00,ZBAA 260600Z AUTO 16004KT 3SM 26/07 A2985 RMK SLP118 T02560074 57018 IEM_DS3505
ZBAA,1996-04-26 08:00,ZBAA 260800Z AUTO ////06KT 5SM 26/12 A2983 RMK SLP105 T02600120 IEM_DS3505
ZBAA,1996-04-26 09:00,ZBAA 260900Z AUTO 16006KT 4SM 26/09 A2983 RMK SLP102 T02600094 57016 IEM_DS3505
ZBAA,1996-04-26 10:00,ZBAA 261000Z AUTO 20004KT 5SM 25/12 A2983 RMK SLP105 T02500120 IEM_DS3505
ZBAA,1996-04-26 11:00,ZBAA 261100Z AUTO 12004KT 4SM 24/13 A2983 RMK SLP105 T02400130 IEM_DS3505
ZBAA,1996-04-26 12:00,ZBAA 261200Z AUTO 16004KT 6SM 24/12 A2983 RMK SLP107 T02400117 52005 IEM_DS3505
ZBAA,1996-04-26 13:00,ZBAA 261300Z AUTO 08002KT 4SM 22/13 A2985 RMK SLP113 T02200130 IEM_DS3505
ZBAA,1996-04-26 14:00,ZBAA 261400Z AUTO 09002KT 4SM 21/14 A2985 RMK SLP113 T02100140 IEM_DS3505
ZBAA,1996-04-26 15:00,ZBAA 261500Z AUTO 07002KT 4SM 21/13 A2985 RMK SLP115 T02130132 52008 IEM_DS3505
ZBAA,1996-04-26 16:00,ZBAA 261600Z AUTO 08004KT 4SM 19/15 A2985 RMK SLP114 T01900150 IEM_DS3505
ZBAA,1996-04-26 17:00,ZBAA 261700Z AUTO 07004KT 4SM 18/15 A2985 RMK SLP114 T01800150 IEM_DS3505
ZBAA,1996-04-26 18:00,ZBAA 261800Z AUTO 02004KT 2 1/2SM 19/13 A2987 RMK SLP118 T01860128 52003 IEM_DS3505
ZBAA,1996-04-26 20:00,ZBAA 262000Z AUTO 00000KT 4SM 16/13 A2985 RMK SLP114 T01600130 IEM_DS3505
ZBAA,1996-04-26 21:00,ZBAA 262100Z AUTO 02002KT 2 1/2SM 18/13 A2988 RMK SLP120 T01760130 52002 IEM_DS3505
ZBAA,1996-04-26 22:00,ZBAA 262200Z AUTO 00000KT 3SM 16/13 A2988 RMK SLP124 T01600130 IEM_DS3505
ZBAA,1996-04-26 23:00,ZBAA 262300Z AUTO 00000KT 3SM 17/13 A2988 RMK SLP124 T01700130 IEM_DS3505
ZBAA,1996-04-27 00:00,ZBAA 270000Z AUTO 04004KT 1 1/4SM 19/13 A2991 RMK SLP130 T01930130 52010 IEM_DS3505
ZBAA,1996-04-27 01:00,ZBAA 270100Z AUTO ////02KT 3SM 20/14 A2991 RMK SLP133 T02000140 IEM_DS3505
ZBAA,1996-04-27 02:00,ZBAA 270200Z AUTO 31002KT 3SM 22/15 A2991 RMK SLP133 T02200150 IEM_DS3505
ZBAA,1996-04-27 03:00,ZBAA 270300Z AUTO 16004KT 2SM 25/14 A2988 RMK SLP128 T02470137 57002 IEM_DS3505
ZBAA,1996-04-27 04:00,ZBAA 270400Z AUTO ////02KT 3SM 26/16 A2985 RMK SLP112 T02600160 IEM_DS3505
ZBAA,1996-04-27 06:00,ZBAA 270600Z AUTO 16006KT 5SM 28/13 A2983 RMK SLP101 T02820131 57026 IEM_DS3505
ZBAA,1996-04-27 07:00,ZBAA 270700Z AUTO 15008KT 4SM 29/15 A2980 RMK SLP094 T02900150 IEM_DS3505
ZBAA,1996-04-27 08:00,ZBAA 270800Z AUTO 16010KT 4SM 29/15 A2977 RMK SLP084 T02900150 IEM_DS3505
ZBAA,1996-04-27 09:00,ZBAA 270900Z AUTO 20008KT 5SM 28/12 A2977 RMK SLP088 T02780123 57014 IEM_DS3505
ZBAA,1996-04-27 10:00,ZBAA 271000Z AUTO 15008KT 4SM 26/16 A2977 RMK SLP085 T02600160 IEM_DS3505
ZBAA,1996-04-27 11:00,ZBAA 271100Z AUTO 15008KT 4SM 25/16 A2977 RMK SLP085 T02500160 IEM_DS3505
ZBAA,1996-04-27 12:00,ZBAA 271200Z AUTO 14004KT 5SM 25/16 A2980 RMK SLP090 T02490163 52002 IEM_DS3505
ZBAA,1996-04-27 13:00,ZBAA 271300Z AUTO 14008KT 4SM 22/15 A2980 RMK SLP096 T02200150 IEM_DS3505
ZBAA,1996-04-27 14:00,ZBAA 271400Z AUTO 13014KT 4SM 21/16 A2983 RMK SLP106 T02100160 IEM_DS3505
ZBAA,1996-04-27 15:00,ZBAA 271500Z AUTO 14006KT 6SM 22/15 A2983 RMK SLP099 T02170148 52010 IEM_DS3505
ZBAA,1996-04-27 16:00,ZBAA 271600Z AUTO ////04KT 4SM 18/15 A2983 RMK SLP107 T01800150 IEM_DS3505
ZBAA,1996-04-27 18:00,ZBAA 271800Z AUTO 07006KT 6SM 19/14 A2981 RMK SLP097 T01890141 57002 IEM_DS3505
ZBAA,1996-04-27 20:00,ZBAA 272000Z AUTO 07002KT 5SM 15/12 A2980 RMK SLP097 T01500120 IEM_DS3505
ZBAA,1996-04-27 21:00,ZBAA 272100Z AUTO 02004KT 4SM 17/13 A2980 RMK SLP094 T01690128 57004 IEM_DS3505
ZBAA,1996-04-27 22:00,ZBAA 272200Z AUTO 00000KT 4SM 15/12 A2980 RMK SLP097 T01500120 IEM_DS3505
ZBAA,1996-04-27 23:00,ZBAA 272300Z AUTO 20004KT 4SM 16/12 A2980 RMK SLP097 T01600120 IEM_DS3505
ZBAA,1996-04-28 00:00,ZBAA 280000Z AUTO 11006KT 4SM 18/11 A2983 RMK SLP102 T01760110 52008 IEM_DS3505
ZBAA,1996-04-28 01:00,ZBAA 280100Z AUTO 19004KT 5SM 18/12 A2983 RMK SLP107 T01800120 IEM_DS3505
ZBAA,1996-04-28 02:00,ZBAA 280200Z AUTO 11004KT 5SM 19/13 A2983 RMK SLP106 T01900130 IEM_DS3505
ZBAA,1996-04-28 03:00,ZBAA 280300Z AUTO 07004KT 2 1/2SM 22/13 A2980 RMK SLP100 T02150128 57002 IEM_DS3505
ZBAA,1996-04-28 04:00,ZBAA 280400Z AUTO ////02KT 5SM 22/14 A2977 RMK SLP086 T02200140 IEM_DS3505
ZBAA,1996-04-28 05:00,ZBAA 280500Z AUTO ////02KT 5SM 25/16 A2977 RMK SLP085 T02500160 IEM_DS3505
ZBAA,1996-04-28 06:00,ZBAA 280600Z AUTO 14006KT 2 1/2SM 25/13 A2974 RMK SLP074 T02520134 57026 IEM_DS3505
ZBAA,1996-04-28 07:00,ZBAA 280700Z AUTO 14010KT 6SM 25/16 A2971 RMK SLP064 T02500160 IEM_DS3505
ZBAA,1996-04-28 08:00,ZBAA 280800Z AUTO 14012KT 6SM 25/15 A2971 RMK SLP064 T02500150 IEM_DS3505
ZBAA,1996-04-28 09:00,ZBAA 280900Z AUTO 16008KT 3SM 24/14 A2971 RMK SLP062 T02350145 57012 IEM_DS3505
ZBAA,1996-04-28 10:00,ZBAA 281000Z AUTO 13006KT 6SM 22/14 A2971 RMK SLP065 T02200140 IEM_DS3505
ZBAA,1996-04-28 11:00,ZBAA 281100Z AUTO 14006KT 6SM 21/15 A2971 RMK SLP065 T02100150 IEM_DS3505
ZBAA,1996-04-28 12:00,ZBAA 281200Z AUTO 14006KT 2SM 21/15 A2974 RMK SLP073 T02140147 52011 IEM_DS3505
ZBAA,1996-04-28 13:00,ZBAA 281300Z AUTO 12008KT 6SM 18/13 A2977 RMK SLP087 T01800130 IEM_DS3505
ZBAA,1996-04-28 14:00,ZBAA 281400Z AUTO ////06KT 6SM 17/13 A2980 RMK SLP097 T01700130 IEM_DS3505
ZBAA,1996-04-28 15:00,ZBAA 281500Z AUTO 16006KT 2 1/2SM 19/12 A2980 RMK SLP087 T01860116 52014 IEM_DS3505
ZBAA,1996-04-28 16:00,ZBAA 281600Z AUTO 12002KT 6SM 16/12 A2980 RMK SLP097 T01600120 IEM_DS3505
ZBAA,1996-04-28 18:00,ZBAA 281800Z AUTO 11004KT 2 1/2SM 16/11 A2976 RMK SLP083 T01620114 57004 IEM_DS3505
ZBAA,1996-04-28 20:00,ZBAA 282000Z AUTO 15002KT 6SM 14/12 A2974 RMK SLP076 T01400120 IEM_DS3505
ZBAA,1996-04-28 21:00,ZBAA 282100Z AUTO 32002KT 2SM 14/12 A2974 RMK SLP079 T01380116 57004 IEM_DS3505
ZBAA,1996-04-28 22:00,ZBAA 282200Z AUTO 15002KT 6SM 14/11 A2977 RMK SLP087 T01400110 IEM_DS3505
ZBAA,1996-04-28 23:00,ZBAA 282300Z AUTO 00000KT 6SM 14/12 A2980 RMK SLP098 T01400120 IEM_DS3505
ZBAA,1996-04-29 00:00,ZBAA 290000Z AUTO 16004KT 4SM 16/11 A2980 RMK SLP093 T01630109 52014 IEM_DS3505
ZBAA,1996-04-29 01:00,ZBAA 290100Z AUTO 31004KT 4SM 17/12 A2980 RMK SLP097 T01700120 IEM_DS3505
ZBAA,1996-04-29 02:00,ZBAA 290200Z AUTO ////04KT 4SM 18/13 A2980 RMK SLP097 T01800130 IEM_DS3505
ZBAA,1996-04-29 03:00,ZBAA 290300Z AUTO 34004KT 4SM 20/11 A2977 RMK SLP088 T01950110 57005 IEM_DS3505
ZBAA,1996-04-29 04:00,ZBAA 290400Z AUTO 01006KT 6SM 20/13 A2974 RMK SLP075 T02000130 IEM_DS3505
ZBAA,1996-04-29 05:00,ZBAA 290500Z AUTO 08004KT 6SM 21/12 A2971 RMK SLP065 T02100120 IEM_DS3505
ZBAA,1996-04-29 06:00,ZBAA 290600Z AUTO 25002KT 6SM 23/11 A2968 RMK SLP061 T02270111 57027 IEM_DS3505
ZBAA,1996-04-29 07:00,ZBAA 290700Z AUTO 22006KT 6SM 23/13 A2968 RMK SLP054 T02300130 IEM_DS3505
ZBAA,1996-04-29 08:00,ZBAA 290800Z AUTO 18008KT 6SM 24/14 A2965 RMK SLP044 T02400140 IEM_DS3505
ZBAA,1996-04-29 09:00,ZBAA 290900Z AUTO 18010KT 6SM 22/12 A2965 RMK SLP050 T02170120 57011 IEM_DS3505
ZBAA,1996-04-29 10:00,ZBAA 291000Z AUTO 16008KT 7SM 22/13 A2965 RMK SLP044 T02200130 IEM_DS3505
ZBAA,1996-04-29 11:00,ZBAA 291100Z AUTO 17008KT 7SM 20/14 A2965 RMK SLP045 T02000140 IEM_DS3505
ZBAA,1996-04-29 12:00,ZBAA 291200Z AUTO 20006KT 9SM 20/12 A2968 RMK SLP054 T01950124 52004 IEM_DS3505
ZBAA,1996-04-29 13:00,ZBAA 291300Z AUTO 18006KT 7SM 18/13 A2971 RMK SLP065 T01800130 IEM_DS3505
ZBAA,1996-04-29 14:00,ZBAA 291400Z AUTO 16006KT 7SM 18/13 A2971 RMK SLP065 T01800130 IEM_DS3505
ZBAA,1996-04-29 15:00,ZBAA 291500Z AUTO 20008KT 11SM 17/13 A2971 RMK SLP059 T01710126 52005 IEM_DS3505
ZBAA,1996-04-29 16:00,ZBAA 291600Z AUTO 16004KT 7SM 17/13 A2971 RMK SLP066 T01700130 IEM_DS3505
ZBAA,1996-04-29 17:00,ZBAA 291700Z AUTO 13002KT 7SM 15/13 A2971 RMK SLP066 T01500130 IEM_DS3505
ZBAA,1996-04-29 18:00,ZBAA 291800Z AUTO 20002KT 4SM 16/12 A2971 RMK SLP062 T01570125 52003 IEM_DS3505
ZBAA,1996-04-29 20:00,ZBAA 292000Z AUTO 00000KT 4SM 13/13 A2971 RMK SLP067 T01300130 IEM_DS3505
ZBAA,1996-04-29 21:00,ZBAA 292100Z AUTO 34002KT 1 1/4SM 14/12 A2968 RMK SLP062 T01420122 54000 IEM_DS3505
ZBAA,1996-04-29 22:00,ZBAA 292200Z AUTO 00000KT 2 1/2SM 13/13 A2971 RMK SLP067 T01300130 IEM_DS3505
ZBAA,1996-04-29 23:00,ZBAA 292300Z AUTO 00000KT 2 1/2SM 15/14 A2974 RMK SLP076 T01500140 IEM_DS3505
ZBAA,1996-04-30 00:00,ZBAA 300000Z AUTO 02002KT 1 1/4SM 17/13 A2971 RMK SLP069 T01730129 52007 IEM_DS3505
ZBAA,1996-04-30 01:00,ZBAA 300100Z AUTO 07002KT 2 1/2SM 18/15 A2971 RMK SLP065 T01800150 IEM_DS3505
ZBAA,1996-04-30 02:00,ZBAA 300200Z AUTO ////02KT 4SM 20/14 A2971 RMK SLP065 T02000140 IEM_DS3505
ZBAA,1996-04-30 03:00,ZBAA 300300Z AUTO 20012KT 6SM 22/11 A2968 RMK SLP061 T02240114 57008 IEM_DS3505
ZBAA,1996-04-30 04:00,ZBAA 300400Z AUTO 23010KT 4SM 24/13 A2965 RMK SLP044 T02400130 IEM_DS3505
ZBAA,1996-04-30 05:00,ZBAA 300500Z AUTO 19010KT 5SM 25/13 A2962 RMK SLP034 T02500130 IEM_DS3505
ZBAA,1996-04-30 06:00,ZBAA 300600Z AUTO 20010KT 6SM 24/13 A2962 RMK SLP038 T02430128 57023 IEM_DS3505
ZBAA,1996-04-30 07:00,ZBAA 300700Z AUTO 20008KT 5SM 27/14 A2959 RMK SLP023 T02700140 IEM_DS3505
ZBAA,1996-04-30 08:00,ZBAA 300800Z AUTO 22008KT 5SM 26/14 A2959 RMK SLP023 T02600140 IEM_DS3505
ZBAA,1996-04-30 09:00,ZBAA 300900Z AUTO 20006KT 5SM 24/14 A2959 RMK SLP023 T02360142 57015 IEM_DS3505
ZBAA,1996-04-30 10:00,ZBAA 301000Z AUTO 23006KT 4SM 24/14 A2959 RMK SLP024 T02400140 IEM_DS3505
ZBAA,1996-04-30 11:00,ZBAA 301100Z AUTO 23012KT 4SM 23/15 A2959 RMK SLP024 T02300150 IEM_DS3505
ZBAA,1996-04-30 12:00,ZBAA 301200Z AUTO 20010KT 5SM 22/14 A2962 RMK SLP036 T02170143 52013 IEM_DS3505
ZBAA,1996-04-30 13:00,ZBAA 301300Z AUTO 00000KT 4SM 22/15 A2962 RMK SLP034 T02200150 IEM_DS3505
ZBAA,1996-04-30 14:00,ZBAA 301400Z AUTO ////04KT 4SM 21/15 A2962 RMK SLP035 T02100150 IEM_DS3505
ZBAA,1996-04-30 15:00,ZBAA 301500Z AUTO 20004KT 4SM 20/15 A2962 RMK SLP035 T01980147 57001 IEM_DS3505
ZBAA,1996-04-30 16:00,ZBAA 301600Z AUTO ////02KT 6SM 19/15 A2962 RMK SLP035 T01900150 IEM_DS3505
ZBAA,1996-04-30 17:00,ZBAA 301700Z AUTO 00000KT 6SM 18/15 A2962 RMK SLP035 T01800150 IEM_DS3505
ZBAA,1996-04-30 18:00,ZBAA 301800Z AUTO 27002KT 3SM 16/14 A2962 RMK SLP035 T01650141 54000 IEM_DS3505
ZBAA,1996-04-30 20:00,ZBAA 302000Z AUTO 32012KT 6SM 21/M05 A2968 RMK SLP055 T02101050 IEM_DS3505
ZBAA,1996-04-30 21:00,ZBAA 302100Z AUTO 34010KT 6SM 21/M02 A2968 RMK SLP055 T02071025 52021 IEM_DS3505
ZBAA,1996-04-30 22:00,ZBAA 302200Z AUTO 33014KT 7SM 20/M02 A2971 RMK SLP065 T02001020 IEM_DS3505
ZBAA,1996-04-30 23:00,ZBAA 302300Z AUTO 32017KT 4SM 19/00 A2974 RMK SLP075 T01900000 IEM_DS3505
ZBAA,1996-05-01 00:00,ZBAA 010000Z AUTO 32010G29KT 9SM 18/M00 A2977 RMK SLP096 T01771003 52040 IEM_DS3505
ZBAA,1996-05-01 01:00,ZBAA 010100Z AUTO 31017KT 4SM 19/02 A2983 RMK SLP106 T01900020 IEM_DS3505
ZBAA,1996-05-01 02:00,ZBAA 010200Z AUTO 31017G27KT 5SM 20/01 A2983 RMK SLP106 T02000010 IEM_DS3505
ZBAA,1996-05-01 03:00,ZBAA 010300Z AUTO 34010KT 10SM 21/M00 A2985 RMK SLP120 T02061004 52024 IEM_DS3505
ZBAA,1996-05-01 04:00,ZBAA 010400Z AUTO 32017G27KT 7SM 22/M01 A2985 RMK SLP113 T02201010 IEM_DS3505
ZBAA,1996-05-01 05:00,ZBAA 010500Z AUTO 32019G29KT 7SM 22/M03 A2983 RMK SLP106 T02201030 IEM_DS3505
ZBAA,1996-05-01 06:00,ZBAA 010600Z AUTO 34010G29KT 12SM 23/M05 A2983 RMK SLP112 T02321050 57008 IEM_DS3505
ZBAA,1996-05-01 07:00,ZBAA 010700Z AUTO 32019KT 7SM 24/M03 A2983 RMK SLP105 T02401030 IEM_DS3505
ZBAA,1996-05-01 08:00,ZBAA 010800Z AUTO 32019KT 7SM 24/M04 A2983 RMK SLP105 T02401040 IEM_DS3505
ZBAA,1996-05-01 09:00,ZBAA 010900Z AUTO 32014KT 12SM 24/M04 A2983 RMK SLP109 T02451035 57003 IEM_DS3505
ZBAA,1996-05-01 10:00,ZBAA 011000Z AUTO 33016KT 7SM 24/M05 A2985 RMK SLP112 T02401050 IEM_DS3505
ZBAA,1996-05-01 11:00,ZBAA 011100Z AUTO 35012KT 7SM 22/M06 A2985 RMK SLP113 T02201060 IEM_DS3505
ZBAA,1996-05-01 12:00,ZBAA 011200Z AUTO 34002KT 12SM 20/00 A2991 RMK SLP131 T02020000 52021 IEM_DS3505
ZBAA,1996-05-01 13:00,ZBAA 011300Z AUTO 35008KT 7SM 20/M06 A2994 RMK SLP144 T02001060 IEM_DS3505
ZBAA,1996-05-01 14:00,ZBAA 011400Z AUTO 33002KT 7SM 17/M05 A2997 RMK SLP154 T01701050 IEM_DS3505
ZBAA,1996-05-01 15:00,ZBAA 011500Z AUTO 29002KT 19SM 15/01 A3000 RMK SLP162 T01540012 52031 IEM_DS3505
ZBAA,1996-05-01 16:00,ZBAA 011600Z AUTO 00000KT 7SM 15/M03 A3000 RMK SLP165 T01501030 IEM_DS3505
ZBAA,1996-05-01 18:00,ZBAA 011800Z AUTO 00000KT 12SM 12/01 A3001 RMK SLP169 T01230006 52007 IEM_DS3505
ZBAA,1996-05-01 20:00,ZBAA 012000Z AUTO 00000KT 7SM 12/M01 A3003 RMK SLP176 T01201010 IEM_DS3505
ZBAA,1996-05-01 21:00,ZBAA 012100Z AUTO 34002KT 12SM 11/02 A3001 RMK SLP171 T01110016 52002 IEM_DS3505
ZBAA,1996-05-01 22:00,ZBAA 012200Z AUTO 00000KT 6SM 11/00 A3003 RMK SLP176 T01100000 IEM_DS3505
ZBAA,1996-05-01 23:00,ZBAA 012300Z AUTO 00000KT 6SM 13/01 A3006 RMK SLP185 T01300010 IEM_DS3505
ZBAA,1996-05-02 00:00,ZBAA 020000Z AUTO 16004KT 6SM 18/02 A3006 RMK SLP186 T01800019 52015 IEM_DS3505
ZBAA,1996-05-02 01:00,ZBAA 020100Z AUTO ////04KT 7SM 18/02 A3006 RMK SLP184 T01800020 IEM_DS3505
ZBAA,1996-05-02 02:00,ZBAA 020200Z AUTO ////04KT 7SM 21/03 A3006 RMK SLP184 T02100030 IEM_DS3505
ZBAA,1996-05-02 03:00,ZBAA 020300Z AUTO 20014KT 7SM 24/ A3006 RMK SLP180 57006 IEM_DS3505
ZBAA,1996-05-02 04:00,ZBAA 020400Z AUTO 16012KT 6SM 26/02 A3000 RMK SLP162 T02600020 IEM_DS3505
ZBAA,1996-05-02 05:00,ZBAA 020500Z AUTO 20012KT 6SM 28/03 A2997 RMK SLP152 T02800030 IEM_DS3505
ZBAA,1996-05-02 06:00,ZBAA 020600Z AUTO 20014KT 4SM 26/02 A2997 RMK SLP152 T02640022 57028 IEM_DS3505
ZBAA,1996-05-02 07:00,ZBAA 020700Z AUTO 20014KT 6SM 28/01 A2994 RMK SLP142 T02800010 IEM_DS3505
ZBAA,1996-05-02 08:00,ZBAA 020800Z AUTO 21014KT 6SM 27/00 A2991 RMK SLP132 T02700000 IEM_DS3505
ZBAA,1996-05-02 09:00,ZBAA 020900Z AUTO 20016KT 4SM 25/02 A2991 RMK SLP140 T02490020 57012 IEM_DS3505
ZBAA,1996-05-02 10:00,ZBAA 021000Z AUTO 19012KT 6SM 24/06 A2991 RMK SLP133 T02400060 IEM_DS3505
ZBAA,1996-05-02 11:00,ZBAA 021100Z AUTO 20014KT 6SM 23/03 A2994 RMK SLP143 T02300030 IEM_DS3505
ZBAA,1996-05-02 12:00,ZBAA 021200Z AUTO 20012KT 6SM 22/03 A2994 RMK SLP146 T02150031 52006 IEM_DS3505
ZBAA,1996-05-02 13:00,ZBAA 021300Z AUTO 19012KT 6SM 21/04 A2997 RMK SLP153 T02100040 IEM_DS3505
ZBAA,1996-05-02 14:00,ZBAA 021400Z AUTO 17008KT 6SM 20/04 A2994 RMK SLP144 T02000040 IEM_DS3505
ZBAA,1996-05-02 15:00,ZBAA 021500Z AUTO 20008KT 6SM 20/02 A2997 RMK SLP148 T01950025 52003 IEM_DS3505
ZBAA,1996-05-02 18:00,ZBAA 021800Z AUTO 20014KT 7SM 18/02 A2996 RMK SLP150 T01790017 52002 IEM_DS3505
ZBAA,1996-05-02 20:00,ZBAA 022000Z AUTO 19006KT 6SM 17/04 A2994 RMK SLP144 T01700040 IEM_DS3505
ZBAA,1996-05-02 21:00,ZBAA 022100Z AUTO 20006KT 12SM 16/04 A2994 RMK SLP144 T01650039 57006 IEM_DS3505
ZBAA,1996-05-02 22:00,ZBAA 022200Z AUTO 16004KT 6SM 16/06 A2994 RMK SLP144 T01600060 IEM_DS3505
ZBAA,1996-05-02 23:00,ZBAA 022300Z AUTO 16006KT 6SM 17/07 A2994 RMK SLP144 T01700070 IEM_DS3505
ZBAA,1996-05-03 00:00,ZBAA 030000Z AUTO 20012KT 6SM 18/05 A2997 RMK SLP153 T01830054 52008 IEM_DS3505
ZBAA,1996-05-03 01:00,ZBAA 030100Z AUTO 22017KT 6SM 20/09 A2997 RMK SLP154 T02000090 IEM_DS3505
ZBAA,1996-05-03 02:00,ZBAA 030200Z AUTO 21016KT 6SM 21/10 A2997 RMK SLP153 T02100100 IEM_DS3505
ZBAA,1996-05-03 03:00,ZBAA 030300Z AUTO 20012KT 6SM 19/08 A2997 RMK SLP153 T01910076 54000 IEM_DS3505
ZBAA,1996-05-03 04:00,ZBAA 030400Z AUTO 20014KT 6SM 20/10 A2997 RMK SLP154 T02000100 IEM_DS3505
ZBAA,1996-05-03 05:00,ZBAA 030500Z AUTO 21012KT 6SM 19/09 A2997 RMK SLP154 T01900090 IEM_DS3505
ZBAA,1996-05-03 06:00,ZBAA 030600Z AUTO 22010KT 7SM 18/08 A2994 RMK SLP145 T01810077 57008 IEM_DS3505
ZBAA,1996-05-03 07:00,ZBAA 030700Z AUTO 19012KT 7SM 18/09 A2991 RMK SLP134 T01800090 IEM_DS3505
ZBAA,1996-05-03 08:00,ZBAA 030800Z AUTO 19010KT 7SM 18/09 A2991 RMK SLP134 T01800090 IEM_DS3505
ZBAA,1996-05-03 09:00,ZBAA 030900Z AUTO 20010KT 9SM 18/09 A2988 RMK SLP128 T01770087 57017 IEM_DS3505
ZBAA,1996-05-03 10:00,ZBAA 031000Z AUTO 17010KT 7SM 17/10 A2988 RMK SLP124 T01700100 IEM_DS3505
ZBAA,1996-05-03 11:00,ZBAA 031100Z AUTO 18010KT 7SM 16/10 A2988 RMK SLP124 T01600100 IEM_DS3505
ZBAA,1996-05-03 12:00,ZBAA 031200Z AUTO 20008KT 5SM 15/10 A2991 RMK SLP134 T01510095 52006 IEM_DS3505
ZBAA,1996-05-03 13:00,ZBAA 031300Z AUTO 18006KT 6SM 15/11 A2991 RMK SLP135 T01500110 IEM_DS3505
ZBAA,1996-05-03 14:00,ZBAA 031400Z AUTO 18004KT 6SM 14/11 A2988 RMK SLP125 T01400110 IEM_DS3505
ZBAA,1996-05-03 15:00,ZBAA 031500Z AUTO 16004KT 4SM 14/09 A2988 RMK SLP125 T01350094 57009 IEM_DS3505
ZBAA,1996-05-03 16:00,ZBAA 031600Z AUTO 17004KT 6SM 13/11 A2991 RMK SLP135 T01300110 IEM_DS3505
ZBAA,1996-05-03 17:00,ZBAA 031700Z AUTO 16006KT 6SM 13/11 A2988 RMK SLP125 T01300110 IEM_DS3505
ZBAA,1996-05-03 18:00,ZBAA 031800Z AUTO 22004KT 3SM 12/10 A2985 RMK SLP121 T01210098 57004 IEM_DS3505
ZBAA,1996-05-03 20:00,ZBAA 032000Z AUTO 00000KT 6SM 11/10 A2985 RMK SLP115 T01100100 IEM_DS3505
ZBAA,1996-05-03 21:00,ZBAA 032100Z AUTO 20002KT 2 1/2SM 11/10 A2985 RMK SLP120 T01130097 57002 IEM_DS3505
ZBAA,1996-05-03 22:00,ZBAA 032200Z AUTO 26006KT 3SM 12/11 A2988 RMK SLP125 T01200110 IEM_DS3505
ZBAA,1996-05-03 23:00,ZBAA 032300Z AUTO 02006KT 2 1/2SM 12/11 A2991 RMK SLP135 T01200110 IEM_DS3505
ZBAA,1996-05-04 00:00,ZBAA 040000Z AUTO 36010KT 2SM 15/01 A2994 RMK SLP144 T01490014 52024 IEM_DS3505
ZBAA,1996-05-04 01:00,ZBAA 040100Z AUTO ////04KT 4SM 17/08 A2994 RMK SLP144 T01700080 IEM_DS3505
ZBAA,1996-05-04 02:00,ZBAA 040200Z AUTO 32014KT 7SM 18/M03 A2994 RMK SLP144 T01801030 IEM_DS3505
ZBAA,1996-05-04 03:00,ZBAA 040300Z AUTO 36008KT 6SM 19/M07 A2994 RMK SLP151 T01861070 52008 IEM_DS3505
ZBAA,1996-05-04 04:00,ZBAA 040400Z AUTO 09004KT 6SM 20/M01 A2994 RMK SLP144 T02001010 IEM_DS3505
ZBAA,1996-05-04 05:00,ZBAA 040500Z AUTO 12006KT 6SM 21/M01 A2991 RMK SLP133 T02101010 IEM_DS3505
ZBAA,1996-05-04 06:00,ZBAA 040600Z AUTO 34008KT 12SM 22/M06 A2988 RMK SLP130 T02191060 57021 IEM_DS3505
ZBAA,1996-05-04 07:00,ZBAA 040700Z AUTO 12006KT 6SM 20/M02 A2988 RMK SLP123 T02001020 IEM_DS3505
ZBAA,1996-05-04 08:00,ZBAA 040800Z AUTO 11006KT 6SM 22/M01 A2985 RMK SLP113 T02201010 IEM_DS3505
ZBAA,1996-05-04 09:00,ZBAA 040900Z AUTO 16006KT 9SM 23/M03 A2985 RMK SLP115 T02301026 57015 IEM_DS3505
ZBAA,1996-05-04 10:00,ZBAA 041000Z AUTO 12004KT 6SM 20/M02 A2985 RMK SLP113 T02001020 IEM_DS3505
ZBAA,1996-05-04 11:00,ZBAA 041100Z AUTO 21008KT 6SM 19/00 A2985 RMK SLP114 T01900000 IEM_DS3505
ZBAA,1996-05-04 12:00,ZBAA 041200Z AUTO 20006KT 12SM 19/M03 A2988 RMK SLP128 T01871027 52013 IEM_DS3505
ZBAA,1996-05-04 13:00,ZBAA 041300Z AUTO 20004KT 6SM 17/00 A2991 RMK SLP134 T01700000 IEM_DS3505
ZBAA,1996-05-04 14:00,ZBAA 041400Z AUTO 06002KT 6SM 16/01 A2991 RMK SLP134 T01600010 IEM_DS3505
ZBAA,1996-05-04 15:00,ZBAA 041500Z AUTO 20006KT 12SM 17/M00 A2988 RMK SLP128 T01741002 54000 IEM_DS3505
ZBAA,1996-05-04 16:00,ZBAA 041600Z AUTO 12008KT 6SM 14/02 A2991 RMK SLP135 T01400020 IEM_DS3505
ZBAA,1996-05-04 18:00,ZBAA 041800Z AUTO 09004KT 7SM 14/03 A2990 RMK SLP132 T01410030 52004 IEM_DS3505
ZBAA,1996-05-04 20:00,ZBAA 042000Z AUTO 13002KT 7SM 12/05 A2991 RMK SLP135 T01200050 IEM_DS3505
ZBAA,1996-05-04 21:00,ZBAA 042100Z AUTO 04004KT 12SM 12/07 A2993 RMK 70001 SLP142 T01250067 52010 IEM_DS3505
ZBAA,1996-05-04 22:00,ZBAA 042200Z AUTO 09006KT 5SM 10/09 A2991 RMK SLP136 T01000090 IEM_DS3505
ZBAA,1996-05-04 23:00,ZBAA 042300Z AUTO 31004KT 4SM 10/10 A2997 RMK SLP156 T01000100 IEM_DS3505
ZBAA,1996-05-05 00:00,ZBAA 050000Z AUTO 36006KT 4SM 11/07 A2997 RMK 60004 70004 SLP155 T01090074 52012 IEM_DS3505
ZBAA,1996-05-05 01:00,ZBAA 050100Z AUTO ////04KT 4SM 10/10 A2994 RMK SLP146 T01000100 IEM_DS3505
ZBAA,1996-05-05 02:00,ZBAA 050200Z AUTO 06004KT 4SM 10/10 A2994 RMK SLP146 T01000100 IEM_DS3505
ZBAA,1996-05-05 03:00,ZBAA 050300Z AUTO 34004KT 3SM 12/08 A2994 RMK SLP148 T01200084 57007 IEM_DS3505
ZBAA,1996-05-05 04:00,ZBAA 050400Z AUTO ////04KT 4SM 12/12 A2994 RMK SLP145 T01200120 IEM_DS3505
ZBAA,1996-05-05 05:00,ZBAA 050500Z AUTO 11002KT 4SM 13/12 A2991 RMK SLP135 T01300120 IEM_DS3505
ZBAA,1996-05-05 06:00,ZBAA 050600Z AUTO 09004KT 3SM 14/08 A2988 RMK 60000 SLP129 T01380082 57019 IEM_DS3505
ZBAA,1996-05-05 07:00,ZBAA 050700Z AUTO ////02KT 4SM 13/11 A2988 RMK SLP125 T01300110 IEM_DS3505
ZBAA,1996-05-05 08:00,ZBAA 050800Z AUTO 08002KT 4SM 13/10 A2985 RMK SLP115 T01300100 IEM_DS3505
ZBAA,1996-05-05 09:00,ZBAA 050900Z AUTO 04004KT 3SM 14/08 A2983 RMK SLP106 T01380078 57023 IEM_DS3505
ZBAA,1996-05-05 10:00,ZBAA 051000Z AUTO 36006KT 4SM 12/10 A2983 RMK SLP108 T01200100 IEM_DS3505
ZBAA,1996-05-05 11:00,ZBAA 051100Z AUTO 36004KT 4SM 12/10 A2983 RMK SLP108 T01200100 IEM_DS3505
ZBAA,1996-05-05 12:00,ZBAA 051200Z AUTO 34004KT 2 1/2SM 13/08 A2985 RMK SLP110 T01290083 52004 IEM_DS3505
ZBAA,1996-05-05 13:00,ZBAA 051300Z AUTO ////04KT 4SM 13/10 A2985 RMK SLP115 T01300100 IEM_DS3505
ZBAA,1996-05-05 14:00,ZBAA 051400Z AUTO ////02KT 4SM 13/10 A2985 RMK SLP115 T01300100 IEM_DS3505
ZBAA,1996-05-05 15:00,ZBAA 051500Z AUTO 34002KT 2SM 13/08 A2983 RMK SLP109 T01280082 57001 IEM_DS3505
ZBAA,1996-05-05 16:00,ZBAA 051600Z AUTO 36004KT 5SM 12/11 A2983 RMK SLP108 T01200110 IEM_DS3505
ZBAA,1996-05-05 18:00,ZBAA 051800Z AUTO 36004KT 2SM 12/08 A2981 RMK 60000 SLP100 T01230085 57009 IEM_DS3505
ZBAA,1996-05-05 20:00,ZBAA 052000Z AUTO 18004KT 4SM 12/08 A2977 RMK SLP088 T01200080 IEM_DS3505
ZBAA,1996-05-05 21:00,ZBAA 052100Z AUTO 02002KT 2SM 12/08 A2980 RMK 70004 SLP092 T01200075 57008 IEM_DS3505
ZBAA,1996-05-05 22:00,ZBAA 052200Z AUTO 00000KT 4SM 11/09 A2980 RMK SLP098 T01100090 IEM_DS3505
ZBAA,1996-05-05 23:00,ZBAA 052300Z AUTO 00000KT 4SM 12/09 A2977 RMK SLP088 T01200090 IEM_DS3505
ZBAA,1996-05-06 00:00,ZBAA 060000Z AUTO 34002KT 3SM 14/08 A2980 RMK 70002 SLP094 T01380075 52002 IEM_DS3505
ZBAA,1996-05-06 01:00,ZBAA 060100Z AUTO 27002KT 4SM 14/09 A2980 RMK SLP098 T01400090 IEM_DS3505
ZBAA,1996-05-06 02:00,ZBAA 060200Z AUTO ////04KT 5SM 16/08 A2980 RMK SLP097 T01600080 IEM_DS3505
ZBAA,1996-05-06 03:00,ZBAA 060300Z AUTO 04006KT 2 1/2SM 17/08 A2980 RMK SLP092 T01740076 57001 IEM_DS3505
ZBAA,1996-05-06 04:00,ZBAA 060400Z AUTO ////04KT 5SM 19/10 A2977 RMK SLP086 T01900100 IEM_DS3505
ZBAA,1996-05-06 05:00,ZBAA 060500Z AUTO ////04KT 5SM 20/10 A2974 RMK SLP075 T02000100 IEM_DS3505
ZBAA,1996-05-06 06:00,ZBAA 060600Z AUTO 20006KT 4SM 20/06 A2974 RMK SLP074 T02010065 57018 IEM_DS3505
ZBAA,1996-05-06 07:00,ZBAA 060700Z AUTO 17008KT 7SM 22/12 A2971 RMK SLP065 T02200120 IEM_DS3505
ZBAA,1996-05-06 08:00,ZBAA 060800Z AUTO 14008KT 6SM 22/13 A2968 RMK SLP055 T02200130 IEM_DS3505
ZBAA,1996-05-06 09:00,ZBAA 060900Z AUTO 16010KT 5SM 20/11 A2971 RMK SLP064 T02040106 57010 IEM_DS3505
ZBAA,1996-05-06 10:00,ZBAA 061000Z AUTO 13010KT 4SM 19/14 A2971 RMK SLP065 T01900140 IEM_DS3505
ZBAA,1996-05-06 11:00,ZBAA 061100Z AUTO 11010KT 3SM RMK IEM_DS3505
ZBAA,1996-05-06 12:00,ZBAA 061200Z AUTO 11008KT 6SM 19/13 A2974 RMK SLP069 T01920133 52005 IEM_DS3505
ZBAA,1996-05-06 13:00,ZBAA 061300Z AUTO 12008KT 3SM 17/14 A2977 RMK SLP087 T01700140 IEM_DS3505
ZBAA,1996-05-06 14:00,ZBAA 061400Z AUTO 13008KT 3SM 16/14 A2974 RMK SLP076 T01600140 IEM_DS3505
ZBAA,1996-05-06 15:00,ZBAA 061500Z AUTO 11004KT 6SM 18/14 A2974 RMK SLP075 T01750137 52006 IEM_DS3505
ZBAA,1996-05-06 16:00,ZBAA 061600Z AUTO 15010KT 4SM 16/14 A2971 RMK SLP066 T01600140 IEM_DS3505
ZBAA,1996-05-06 17:00,ZBAA 061700Z AUTO ////06KT 4SM 15/13 A2971 RMK SLP066 T01500130 IEM_DS3505
ZBAA,1996-05-06 18:00,ZBAA 061800Z AUTO 09004KT 4SM 16/13 A2971 RMK SLP067 T01580126 57007 IEM_DS3505
ZBAA,1996-05-06 20:00,ZBAA 062000Z AUTO ////04KT 4SM 13/10 A2968 RMK SLP057 T01300100 IEM_DS3505
ZBAA,1996-05-06 21:00,ZBAA 062100Z AUTO 07002KT 4SM 14/09 A2968 RMK SLP060 T01350092 57008 IEM_DS3505
ZBAA,1996-05-06 22:00,ZBAA 062200Z AUTO 34006KT 4SM 13/10 A2968 RMK SLP057 T01300100 IEM_DS3505
ZBAA,1996-05-06 23:00,ZBAA 062300Z AUTO 00000KT 4SM 14/11 A2968 RMK SLP056 T01400110 IEM_DS3505
ZBAA,1996-05-07 00:00,ZBAA 070000Z AUTO 32010KT 1 1/4SM 17/M05 A2971 RMK SLP065 T01711054 52006 IEM_DS3505
ZBAA,1996-05-07 01:00,ZBAA 070100Z AUTO 27010KT 2 1/2SM 17/01 A2971 RMK SLP066 T01700010 IEM_DS3505
ZBAA,1996-05-07 02:00,ZBAA 070200Z AUTO 29016KT 3SM 18/01 A2971 RMK SLP065 T01800010 IEM_DS3505
ZBAA,1996-05-07 03:00,ZBAA 070300Z AUTO 29012G25KT 6SM 20/M02 A2971 RMK SLP065 T01991017 54000 IEM_DS3505
ZBAA,1996-05-07 04:00,ZBAA 070400Z AUTO 31016G27KT 4SM 19/01 A2968 RMK SLP055 T01900010 IEM_DS3505
ZBAA,1996-05-07 05:00,ZBAA 070500Z AUTO 31016G27KT 4SM 20/01 A2968 RMK SLP055 T02000010 IEM_DS3505
ZBAA,1996-05-07 06:00,ZBAA 070600Z AUTO 34010G31KT 7SM 21/M01 A2971 RMK SLP061 T02091012 4////0135 57004 IEM_DS3505
ZBAA,1996-05-07 07:00,ZBAA 070700Z AUTO 31016KT 7SM 20/02 A2968 RMK SLP055 T02000020 IEM_DS3505
ZBAA,1996-05-07 08:00,ZBAA 070800Z AUTO 33019G29KT 7SM 20/02 A2971 RMK SLP065 T02000020 IEM_DS3505
ZBAA,1996-05-07 09:00,ZBAA 070900Z AUTO 36012G25KT 12SM 20/00 A2971 RMK SLP072 T01960004 52010 IEM_DS3505
ZBAA,1996-05-07 10:00,ZBAA 071000Z AUTO 31014G23KT 6SM 18/02 A2971 RMK SLP065 T01800020 IEM_DS3505
ZBAA,1996-05-07 11:00,ZBAA 071100Z AUTO 31012KT 6SM 17/01 A2974 RMK SLP076 T01700010 IEM_DS3505
ZBAA,1996-05-07 12:00,ZBAA 071200Z AUTO 04002G19KT 12SM 17/03 A2974 RMK SLP083 T01660026 52011 IEM_DS3505
ZBAA,1996-05-07 13:00,ZBAA 071300Z AUTO 32014G23KT 7SM 17/M01 A2977 RMK SLP087 T01701010 IEM_DS3505
ZBAA,1996-05-07 14:00,ZBAA 071400Z AUTO 33008KT 7SM 16/00 A2977 RMK SLP087 T01600000 IEM_DS3505
ZBAA,1996-05-07 15:00,ZBAA 071500Z AUTO 34002KT 12SM 14/02 A2977 RMK SLP090 T01380022 52007 IEM_DS3505
ZBAA,1996-05-07 16:00,ZBAA 071600Z AUTO 26004KT 7SM 14/00 A2977 RMK SLP087 T01400000 IEM_DS3505
ZBAA,1996-05-07 17:00,ZBAA 071700Z AUTO 30004KT 7SM 15/M02 A2974 RMK SLP076 T01501020 IEM_DS3505
ZBAA,1996-05-07 18:00,ZBAA 071800Z AUTO 32012KT 16SM 16/M07 A2974 RMK SLP075 T01641066 57014 IEM_DS3505
ZBAA,1996-05-07 20:00,ZBAA 072000Z AUTO 33012KT 7SM 15/M02 A2974 RMK SLP076 T01501020 IEM_DS3505
ZBAA,1996-05-07 21:00,ZBAA 072100Z AUTO 33002KT 7SM 14/M02 A2971 RMK SLP066 T01401020 IEM_DS3505
ZBAA,1996-05-07 22:00,ZBAA 072200Z AUTO 24002KT 7SM 12/00 A2974 RMK SLP077 T01200000 IEM_DS3505
ZBAA,1996-05-07 23:00,ZBAA 072300Z AUTO 00000KT 7SM 15/M01 A2974 RMK SLP076 T01501010 IEM_DS3505
ZBAA,1996-05-08 00:00,ZBAA 080000Z AUTO 32006KT 16SM 18/M06 A2974 RMK SLP076 T01811060 52005 IEM_DS3505
ZBAA,1996-05-08 01:00,ZBAA 080100Z AUTO ////06KT 7SM 19/M02 A2971 RMK SLP065 T01901020 IEM_DS3505
ZBAA,1996-05-08 02:00,ZBAA 080200Z AUTO 31014G23KT 7SM 20/M03 A2971 RMK SLP065 T02001030 IEM_DS3505
ZBAA,1996-05-08 03:00,ZBAA 080300Z AUTO 34012KT 12SM 21/M07 A2968 RMK SLP069 T02101073 57007 IEM_DS3505
ZBAA,1996-05-08 04:00,ZBAA 080400Z AUTO 32021KT 6SM 23/M05 A2965 RMK SLP044 T02301050 IEM_DS3505
ZBAA,1996-05-08 05:00,ZBAA 080500Z AUTO 30016KT 6SM 23/M04 A2965 RMK SLP044 T02301040 IEM_DS3505
ZBAA,1996-05-08 06:00,ZBAA 080600Z AUTO 34010KT 11SM 24/M08 A2962 RMK SLP044 T02391085 57024 IEM_DS3505
ZBAA,1996-05-08 07:00,ZBAA 080700Z AUTO 34012KT 6SM 24/M04 A2959 RMK SLP024 T02401040 IEM_DS3505
ZBAA,1996-05-08 08:00,ZBAA 080800Z AUTO 34008KT 6SM 24/M05 A2959 RMK SLP024 T02401050 IEM_DS3505
ZBAA,1996-05-08 09:00,ZBAA 080900Z AUTO 29010KT 12SM 24/ A2959 RMK SLP033 57011 IEM_DS3505
ZBAA,1996-05-08 10:00,ZBAA 081000Z AUTO 32012KT 6SM 23/M06 A2959 RMK SLP024 T02301060 IEM_DS3505
ZBAA,1996-05-08 11:00,ZBAA 081100Z AUTO 32008KT 7SM 21/M07 A2959 RMK SLP025 T02101070 IEM_DS3505
ZBAA,1996-05-08 12:00,ZBAA 081200Z AUTO 32004KT 12SM 20/M02 A2962 RMK SLP039 T01971021 52006 IEM_DS3505
ZBAA,1996-05-08 13:00,ZBAA 081300Z AUTO 30004KT 7SM 19/M07 A2965 RMK SLP045 T01901070 IEM_DS3505
ZBAA,1996-05-08 14:00,ZBAA 081400Z AUTO 31006KT 7SM 19/M06 A2965 RMK SLP045 T01901060 IEM_DS3505
ZBAA,1996-05-08 15:00,ZBAA 081500Z AUTO 32004KT 16SM 15/M00 A2968 RMK SLP053 T01511002 52014 IEM_DS3505
ZBAA,1996-05-08 16:00,ZBAA 081600Z AUTO 30006KT 7SM 17/M05 A2968 RMK SLP056 T01701050 IEM_DS3505
ZBAA,1996-05-08 17:00,ZBAA 081700Z AUTO 27002KT 7SM 14/M05 A2968 RMK SLP056 T01401050 IEM_DS3505
ZBAA,1996-05-08 18:00,ZBAA 081800Z AUTO 00000KT 12SM 12/03 A2969 RMK SLP057 T01250028 52004 IEM_DS3505
ZBAA,1996-05-08 20:00,ZBAA 082000Z AUTO 00000KT 7SM 11/M01 A2968 RMK SLP057 T01101010 IEM_DS3505
ZBAA,1996-05-08 21:00,ZBAA 082100Z AUTO 34004KT 12SM 12/M03 A2971 RMK SLP060 T01221027 52003 IEM_DS3505
ZBAA,1996-05-08 22:00,ZBAA 082200Z AUTO ////04KT 7SM 11/M02 A2974 RMK SLP077 T01101020 IEM_DS3505
ZBAA,1996-05-08 23:00,ZBAA 082300Z AUTO ////04KT 7SM 15/M01 A2974 RMK SLP076 T01501010 IEM_DS3505
ZBAA,1996-05-09 00:00,ZBAA 090000Z AUTO 36006KT 12SM 18/M04 A2974 RMK SLP071 T01751044 52011 IEM_DS3505
ZBAA,1996-05-09 01:00,ZBAA 090100Z AUTO 11002KT 7SM 18/01 A2974 RMK SLP076 T01800010 IEM_DS3505
ZBAA,1996-05-09 02:00,ZBAA 090200Z AUTO ////04KT 7SM 21/02 A2974 RMK SLP075 T02100020 IEM_DS3505
ZBAA,1996-05-09 03:00,ZBAA 090300Z AUTO 07004KT 12SM 22/M05 A2974 RMK SLP070 T02191048 57001 IEM_DS3505
ZBAA,1996-05-09 04:00,ZBAA 090400Z AUTO 15006KT 6SM 23/01 A2971 RMK SLP064 T02300010 IEM_DS3505
ZBAA,1996-05-09 05:00,ZBAA 090500Z AUTO 23002KT 6SM 24/01 A2968 RMK SLP054 T02400010 IEM_DS3505
ZBAA,1996-05-09 06:00,ZBAA 090600Z AUTO 14010KT 9SM 24/M03 A2968 RMK SLP050 T02451028 57020 IEM_DS3505
ZBAA,1996-05-09 07:00,ZBAA 090700Z AUTO 17008KT 7SM 26/02 A2965 RMK SLP044 T02600020 IEM_DS3505
ZBAA,1996-05-09 08:00,ZBAA 090800Z AUTO 18012KT 6SM 25/02 A2962 RMK SLP034 T02500020 IEM_DS3505
ZBAA,1996-05-09 09:00,ZBAA 090900Z AUTO 22006KT 7SM 24/M01 A2965 RMK SLP041 T02391011 57009 IEM_DS3505
ZBAA,1996-05-09 10:00,ZBAA 091000Z AUTO 20006KT 6SM 24/00 A2965 RMK SLP044 T02400000 IEM_DS3505
ZBAA,1996-05-09 11:00,ZBAA 091100Z AUTO 22006KT 6SM 22/02 A2965 RMK SLP044 T02200020 IEM_DS3505
ZBAA,1996-05-09 12:00,ZBAA 091200Z AUTO 09004KT 9SM 22/04 A2965 RMK SLP041 T02160043 54000 IEM_DS3505
ZBAA,1996-05-09 13:00,ZBAA 091300Z AUTO 17004KT 6SM 21/04 A2968 RMK SLP055 T02100040 IEM_DS3505
ZBAA,1996-05-09 14:00,ZBAA 091400Z AUTO 10004KT 7SM 20/06 A2971 RMK SLP065 T02000060 IEM_DS3505
ZBAA,1996-05-09 15:00,ZBAA 091500Z AUTO 34008KT 7SM 20/M01 A2974 RMK SLP075 T02031013 52034 IEM_DS3505
ZBAA,1996-05-09 16:00,ZBAA 091600Z AUTO 01012KT 6SM 18/06 A2977 RMK SLP087 T01800060 IEM_DS3505
ZBAA,1996-05-09 17:00,ZBAA 091700Z AUTO 02008KT 6SM 16/06 A2977 RMK SLP087 T01600060 IEM_DS3505
ZBAA,1996-05-09 18:00,ZBAA 091800Z AUTO 29002KT 7SM 17/00 A2977 RMK SLP086 T01700002 52011 IEM_DS3505
ZBAA,1996-05-09 20:00,ZBAA 092000Z AUTO 31008KT 7SM 16/M01 A2980 RMK SLP097 T01601010 IEM_DS3505
ZBAA,1996-05-09 21:00,ZBAA 092100Z AUTO 34010KT 9SM 16/M03 A2983 RMK SLP094 T01571034 52008 IEM_DS3505
ZBAA,1996-05-09 23:00,ZBAA 092300Z AUTO ////02KT 7SM 15/06 A2985 RMK SLP114 T01500060 IEM_DS3505
ZBAA,1996-05-10 00:00,ZBAA 100000Z AUTO 34008KT 12SM 18/M02 A2985 RMK SLP119 T01771015 52025 IEM_DS3505
ZBAA,1996-05-10 01:00,ZBAA 100100Z AUTO ////04KT 7SM 18/04 A2988 RMK SLP124 T01800040 IEM_DS3505
ZBAA,1996-05-10 02:00,ZBAA 100200Z AUTO ////08KT 6SM 19/01 A2988 RMK SLP124 T01900010 IEM_DS3505
ZBAA,1996-05-10 03:00,ZBAA 100300Z AUTO 32012KT 9SM 20/M04 A2988 RMK SLP133 T01951036 52014 IEM_DS3505
ZBAA,1996-05-10 04:00,ZBAA 100400Z AUTO 35014KT 6SM 20/01 A2988 RMK SLP123 T02000010 IEM_DS3505
ZBAA,1996-05-10 05:00,ZBAA 100500Z AUTO 33014KT 6SM 21/01 A2988 RMK SLP123 T02100010 IEM_DS3505
ZBAA,1996-05-10 06:00,ZBAA 100600Z AUTO 29012KT 12SM 21/M03 A2988 RMK SLP128 T02071031 57006 IEM_DS3505
ZBAA,1996-05-10 07:00,ZBAA 100700Z AUTO 32014KT 6SM 21/01 A2988 RMK SLP123 T02100010 IEM_DS3505
ZBAA,1996-05-10 08:00,ZBAA 100800Z AUTO 34019KT 6SM 21/02 A2985 RMK SLP113 T02100020 IEM_DS3505
ZBAA,1996-05-10 09:00,ZBAA 100900Z AUTO 34008KT 19SM 20/01 A2985 RMK SLP120 T02040011 57008 IEM_DS3505
ZBAA,1996-05-10 10:00,ZBAA 101000Z AUTO 35016KT 6SM 20/01 A2985 RMK SLP113 T02000010 IEM_DS3505
ZBAA,1996-05-10 11:00,ZBAA 101100Z AUTO 34010KT 6SM 19/00 A2988 RMK SLP124 T01900000 IEM_DS3505
ZBAA,1996-05-10 12:00,ZBAA 101200Z AUTO 34004KT 19SM 18/02 A2991 RMK SLP136 T01790018 52016 IEM_DS3505
ZBAA,1996-05-10 13:00,ZBAA 101300Z AUTO 32006KT 7SM 18/00 A2991 RMK SLP134 T01800000 IEM_DS3505
ZBAA,1996-05-10 14:00,ZBAA 101400Z AUTO 32008KT 7SM 17/00 A2994 RMK SLP144 T01700000 IEM_DS3505
ZBAA,1996-05-10 15:00,ZBAA 101500Z AUTO 32002KT 12SM 15/02 A2994 RMK SLP147 T01510020 52011 IEM_DS3505
ZBAA,1996-05-10 20:00,ZBAA 102000Z AUTO 30004KT 7SM 15/04 A2991 RMK SLP135 T01500040 IEM_DS3505
ZBAA,1996-05-10 21:00,ZBAA 102100Z AUTO 29002KT 12SM 12/04 A2994 RMK SLP145 T01250041 54000 IEM_DS3505
ZBAA,1996-05-10 22:00,ZBAA 102200Z AUTO 30006KT 6SM 15/04 A2994 RMK SLP145 T01500040 IEM_DS3505
ZBAA,1996-05-10 23:00,ZBAA 102300Z AUTO 36006KT 6SM 16/06 A2997 RMK SLP154 T01600060 IEM_DS3505
ZBAA,1996-05-11 00:00,ZBAA 110000Z AUTO 34006KT 9SM 19/05 A2997 RMK SLP156 T01870052 52011 IEM_DS3505
ZBAA,1996-05-11 01:00,ZBAA 110100Z AUTO 33006KT 7SM 20/09 A2997 RMK SLP154 T02000090 IEM_DS3505
ZBAA,1996-05-11 02:00,ZBAA 110200Z AUTO 33008KT 7SM 22/08 A2997 RMK SLP153 T02200080 IEM_DS3505
ZBAA,1996-05-11 03:00,ZBAA 110300Z AUTO 36008KT 16SM 23/03 A2997 RMK SLP158 T02260034 52002 IEM_DS3505
ZBAA,1996-05-11 04:00,ZBAA 110400Z AUTO ////04KT 6SM 24/09 A2997 RMK SLP153 T02400090 IEM_DS3505
ZBAA,1996-05-11 05:00,ZBAA 110500Z AUTO ////06KT 7SM 25/08 A2994 RMK SLP142 T02500080 IEM_DS3505
ZBAA,1996-05-11 06:00,ZBAA 110600Z AUTO 34006KT 12SM 25/04 A2991 RMK SLP140 T02460045 57018 IEM_DS3505
ZBAA,1996-05-11 07:00,ZBAA 110700Z AUTO ////06KT 7SM 24/07 A2991 RMK SLP133 T02400070 IEM_DS3505
ZBAA,1996-05-11 08:00,ZBAA 110800Z AUTO 30014KT 7SM 22/07 A2988 RMK SLP123 T02200070 IEM_DS3505
ZBAA,1996-05-11 09:00,ZBAA 110900Z AUTO 27006KT 16SM 23/07 A2991 RMK SLP136 T02290069 57004 IEM_DS3505
ZBAA,1996-05-11 10:00,ZBAA 111000Z AUTO 28006KT 6SM 23/08 A2991 RMK SLP133 T02300080 IEM_DS3505
ZBAA,1996-05-11 11:00,ZBAA 111100Z AUTO 34006KT 6SM 22/08 A2994 RMK SLP143 T02200080 IEM_DS3505
ZBAA,1996-05-11 12:00,ZBAA 111200Z AUTO 22006KT 16SM 21/07 A2994 RMK SLP145 T02070073 52009 IEM_DS3505
ZBAA,1996-05-11 13:00,ZBAA 111300Z AUTO 21006KT 6SM 19/09 A2994 RMK SLP144 T01900090 IEM_DS3505
ZBAA,1996-05-11 14:00,ZBAA 111400Z AUTO ////04KT 6SM 19/09 A2994 RMK SLP144 T01900090 IEM_DS3505
ZBAA,1996-05-11 15:00,ZBAA 111500Z AUTO 22004KT 16SM 19/08 A2994 RMK SLP146 T01890078 52002 IEM_DS3505
ZBAA,1996-05-11 16:00,ZBAA 111600Z AUTO 00000KT 6SM 16/09 A2994 RMK SLP144 T01600090 IEM_DS3505
ZBAA,1996-05-11 18:00,ZBAA 111800Z AUTO 20002KT 16SM 16/06 A2993 RMK SLP138 T01580056 57008 IEM_DS3505
ZBAA,1996-05-11 20:00,ZBAA 112000Z AUTO 01002KT 6SM 12/10 A2991 RMK SLP135 T01200100 IEM_DS3505
ZBAA,1996-05-11 21:00,ZBAA 112100Z AUTO 00000KT 11SM 13/08 A2991 RMK SLP137 T01290078 57002 IEM_DS3505
ZBAA,1996-05-11 22:00,ZBAA 112200Z AUTO 34002KT 7SM 12/10 A2991 RMK SLP135 T01200100 IEM_DS3505
ZBAA,1996-05-11 23:00,ZBAA 112300Z AUTO 01004KT 7SM 15/11 A2991 RMK SLP135 T01500110 IEM_DS3505
ZBAA,1996-05-12 00:00,ZBAA 120000Z AUTO 16002KT 9SM 21/05 A2991 RMK SLP138 T02120051 52002 IEM_DS3505
ZBAA,1996-05-12 01:00,ZBAA 120100Z AUTO ////06KT 7SM 22/09 A2991 RMK SLP133 T02200090 IEM_DS3505
ZBAA,1996-05-12 02:00,ZBAA 120200Z AUTO 29010KT 7SM 25/07 A2991 RMK SLP132 T02500070 IEM_DS3505
ZBAA,1996-05-12 03:00,ZBAA 120300Z AUTO 34004KT 19SM 27/03 A2988 RMK SLP128 T02660034 57010 IEM_DS3505
ZBAA,1996-05-12 04:00,ZBAA 120400Z AUTO 26010KT 6SM 28/04 A2985 RMK SLP112 T02800040 IEM_DS3505
ZBAA,1996-05-12 05:00,ZBAA 120500Z AUTO 28010KT 6SM 28/03 A2983 RMK SLP105 T02800030 IEM_DS3505
ZBAA,1996-05-12 06:00,ZBAA 120600Z AUTO 27010KT 19SM 29/M03 A2980 RMK SLP097 T02921028 57031 IEM_DS3505
ZBAA,1996-05-12 07:00,ZBAA 120700Z AUTO 25012G23KT 6SM 29/03 A2977 RMK SLP084 T02900030 IEM_DS3505
ZBAA,1996-05-12 08:00,ZBAA 120800Z AUTO 28012KT 7SM 28/01 A2977 RMK SLP084 T02800010 IEM_DS3505
ZBAA,1996-05-12 09:00,ZBAA 120900Z AUTO 25008G25KT 16SM 28/00 A2974 RMK SLP086 T02800005 57011 IEM_DS3505
ZBAA,1996-05-12 10:00,ZBAA 121000Z AUTO 26012KT 6SM 27/03 A2974 RMK SLP074 T02700030 IEM_DS3505
ZBAA,1996-05-12 11:00,ZBAA 121100Z AUTO 23006KT 6SM 25/03 A2974 RMK SLP074 T02500030 IEM_DS3505
ZBAA,1996-05-12 12:00,ZBAA 121200Z AUTO 20008KT 16SM 24/06 A2977 RMK SLP090 T02350057 52004 IEM_DS3505
ZBAA,1996-05-12 13:00,ZBAA 121300Z AUTO ////02KT 6SM 22/06 A2980 RMK SLP096 T02200060 IEM_DS3505
ZBAA,1996-05-12 14:00,ZBAA 121400Z AUTO ////02KT 6SM 22/06 A2983 RMK SLP106 T02200060 IEM_DS3505
ZBAA,1996-05-12 15:00,ZBAA 121500Z AUTO 09004KT 9SM 21/04 A2985 RMK SLP110 T02110043 52021 IEM_DS3505
ZBAA,1996-05-12 16:00,ZBAA 121600Z AUTO 03006KT 6SM 19/06 A2988 RMK SLP124 T01900060 IEM_DS3505
ZBAA,1996-05-12 18:00,ZBAA 121800Z AUTO 09004KT 9SM 20/05 A2990 RMK SLP127 T02030051 52017 IEM_DS3505
ZBAA,1996-05-12 20:00,ZBAA 122000Z AUTO 00000KT 7SM 16/07 A2991 RMK SLP134 T01600070 IEM_DS3505
ZBAA,1996-05-12 21:00,ZBAA 122100Z AUTO 00000KT 12SM 16/08 A2994 RMK SLP144 T01610078 52016 IEM_DS3505
ZBAA,1996-05-12 22:00,ZBAA 122200Z AUTO 35004KT 6SM 16/08 A2997 RMK SLP154 T01600080 IEM_DS3505
ZBAA,1996-05-12 23:00,ZBAA 122300Z AUTO 04006KT 7SM 18/08 A3000 RMK SLP164 T01800080 IEM_DS3505
ZBAA,1996-05-13 00:00,ZBAA 130000Z AUTO 02006KT 6SM 21/05 A3000 RMK SLP167 T02130049 52023 IEM_DS3505
ZBAA,1996-05-13 01:00,ZBAA 130100Z AUTO 05008KT 7SM 22/07 A3000 RMK SLP163 T02200070 IEM_DS3505
ZBAA,1996-05-13 02:00,ZBAA 130200Z AUTO 06006KT 7SM 24/08 A3003 RMK SLP173 T02400080 IEM_DS3505
ZBAA,1996-05-13 03:00,ZBAA 130300Z AUTO 25004KT 12SM 25/05 A3000 RMK SLP169 T02490053 52002 IEM_DS3505
ZBAA,1996-05-13 04:00,ZBAA 130400Z AUTO 08006KT 7SM 27/08 A3000 RMK SLP162 T02700080 IEM_DS3505
ZBAA,1996-05-13 05:00,ZBAA 130500Z AUTO 09006KT 7SM 28/06 A2997 RMK SLP152 T02800060 IEM_DS3505
ZBAA,1996-05-13 06:00,ZBAA 130600Z AUTO 02008KT 16SM 26/02 A2997 RMK SLP153 T02650024 57016 IEM_DS3505
ZBAA,1996-05-13 07:00,ZBAA 130700Z AUTO ////04KT 7SM 27/05 A2994 RMK SLP142 T02700050 IEM_DS3505
ZBAA,1996-05-13 08:00,ZBAA 130800Z AUTO ////04KT 7SM 27/04 A2991 RMK SLP132 T02700040 IEM_DS3505
ZBAA,1996-05-13 09:00,ZBAA 130900Z AUTO 18006KT 16SM 26/05 A2991 RMK SLP143 T02630047 57010 IEM_DS3505
ZBAA,1996-05-13 10:00,ZBAA 131000Z AUTO 19010KT 7SM 27/06 A2994 RMK SLP142 T02700060 IEM_DS3505
ZBAA,1996-05-13 11:00,ZBAA 131100Z AUTO 18008KT 7SM 25/05 A2994 RMK SLP142 T02500050 IEM_DS3505
ZBAA,1996-05-13 12:00,ZBAA 131200Z AUTO 20012KT 9SM 23/08 A2997 RMK SLP158 T02300079 52015 IEM_DS3505
ZBAA,1996-05-13 13:00,ZBAA 131300Z AUTO 20010KT 7SM 21/09 A3000 RMK SLP163 T02100090 IEM_DS3505
ZBAA,1996-05-13 14:00,ZBAA 131400Z AUTO 20008KT 7SM 20/08 A3003 RMK SLP174 T02000080 IEM_DS3505
ZBAA,1996-05-13 15:00,ZBAA 131500Z AUTO 18008KT 9SM 21/08 A3006 RMK SLP178 T02070081 52020 IEM_DS3505
ZBAA,1996-05-13 18:00,ZBAA 131800Z AUTO 36004KT 9SM 17/10 A3008 RMK SLP189 T01740103 52011 IEM_DS3505
ZBAA,1996-05-13 20:00,ZBAA 132000Z AUTO 00000KT 7SM 15/10 A3009 RMK SLP195 T01500100 IEM_DS3505
ZBAA,1996-05-13 21:00,ZBAA 132100Z AUTO 02006KT 7SM 16/09 A3009 RMK SLP195 T01590094 52005 IEM_DS3505
ZBAA,1996-05-13 22:00,ZBAA 132200Z AUTO ////04KT 4SM 15/10 A3012 RMK SLP206 T01500100 IEM_DS3505
ZBAA,1996-05-13 23:00,ZBAA 132300Z AUTO 35006KT 4SM 18/10 A3012 RMK SLP205 T01800100 IEM_DS3505
ZBAA,1996-05-14 00:00,ZBAA 140000Z AUTO 02004KT 6SM 20/09 A3012 RMK SLP209 T02020093 52014 IEM_DS3505
ZBAA,1996-05-14 01:00,ZBAA 140100Z AUTO ////06KT 7SM 21/12 A3015 RMK SLP215 T02100120 IEM_DS3505
ZBAA,1996-05-14 02:00,ZBAA 140200Z AUTO 01004KT 7SM 24/10 A3015 RMK SLP214 T02400100 IEM_DS3505
ZBAA,1996-05-14 03:00,ZBAA 140300Z AUTO 04006KT 12SM 26/07 A3012 RMK SLP203 T02590073 57005 IEM_DS3505
ZBAA,1996-05-14 04:00,ZBAA 140400Z AUTO ////06KT 7SM 28/09 A3009 RMK SLP192 T02800090 IEM_DS3505
ZBAA,1996-05-14 05:00,ZBAA 140500Z AUTO ////04KT 7SM 29/04 A3006 RMK SLP182 T02900040 IEM_DS3505
ZBAA,1996-05-14 06:00,ZBAA 140600Z AUTO 02006KT 12SM 30/02 A3003 RMK SLP182 T02970022 57021 IEM_DS3505
ZBAA,1996-05-14 07:00,ZBAA 140700Z AUTO ////02KT 7SM 31/05 A3003 RMK SLP171 T03100050 IEM_DS3505
ZBAA,1996-05-14 08:00,ZBAA 140800Z AUTO ////06KT 7SM 31/05 A3000 RMK SLP161 T03100050 IEM_DS3505
ZBAA,1996-05-14 09:00,ZBAA 140900Z AUTO 20004KT 11SM 30/04 A3000 RMK SLP171 T03000043 57011 IEM_DS3505
ZBAA,1996-05-14 10:00,ZBAA 141000Z AUTO 17008KT 7SM 29/06 A3000 RMK SLP162 T02900060 IEM_DS3505
ZBAA,1996-05-14 11:00,ZBAA 141100Z AUTO 15008KT 7SM 27/05 A3006 RMK SLP182 T02700050 IEM_DS3505
ZBAA,1996-05-14 12:00,ZBAA 141200Z AUTO 18006KT 9SM 26/07 A3009 RMK SLP185 T02620072 52014 IEM_DS3505
ZBAA,1996-05-14 13:00,ZBAA 141300Z AUTO 11010KT 7SM 20/08 A3015 RMK SLP215 T02000080 IEM_DS3505
ZBAA,1996-05-14 14:00,ZBAA 141400Z AUTO 11010KT 6SM 19/07 A3015 RMK SLP215 T01900070 IEM_DS3505
ZBAA,1996-05-14 15:00,ZBAA 141500Z AUTO 07004KT 12SM 20/09 A3018 RMK SLP221 T02040086 52036 IEM_DS3505
ZBAA,1996-05-14 16:00,ZBAA 141600Z AUTO 06004KT 7SM 18/07 A3021 RMK SLP236 T01800070 IEM_DS3505
ZBAA,1996-05-14 18:00,ZBAA 141800Z AUTO 34002KT 7SM 18/08 A3018 RMK SLP223 T01760080 52002 IEM_DS3505
ZBAA,1996-05-14 20:00,ZBAA 142000Z AUTO 00000KT 7SM 16/07 A3018 RMK SLP226 T01600070 IEM_DS3505
ZBAA,1996-05-14 21:00,ZBAA 142100Z AUTO 00000KT 6SM 15/09 A3018 RMK SLP225 T01480087 52002 IEM_DS3505
ZBAA,1996-05-14 22:00,ZBAA 142200Z AUTO 00000KT 7SM 15/08 A3021 RMK SLP236 T01500080 IEM_DS3505
ZBAA,1996-05-14 23:00,ZBAA 142300Z AUTO 35004KT 7SM 17/07 A3021 RMK SLP236 T01700070 IEM_DS3505
ZBAA,1996-05-15 00:00,ZBAA 150000Z AUTO 00000KT 6SM 20/08 A3024 RMK SLP236 T02050080 52011 IEM_DS3505
ZBAA,1996-05-15 01:00,ZBAA 150100Z AUTO ////02KT 7SM 21/08 A3024 RMK SLP245 T02100080 IEM_DS3505
ZBAA,1996-05-15 02:00,ZBAA 150200Z AUTO ////04KT 7SM 23/06 A3021 RMK SLP234 T02300060 IEM_DS3505
ZBAA,1996-05-15 03:00,ZBAA 150300Z AUTO 20004KT 6SM 25/05 A3021 RMK SLP234 T02490049 57002 IEM_DS3505
ZBAA,1996-05-15 04:00,ZBAA 150400Z AUTO 17008KT 7SM 27/07 A3018 RMK SLP224 T02700070 IEM_DS3505
ZBAA,1996-05-15 05:00,ZBAA 150500Z AUTO 15008KT 7SM 28/07 A3018 RMK SLP223 T02800070 IEM_DS3505
ZBAA,1996-05-15 06:00,ZBAA 150600Z AUTO 20008KT 9SM 27/05 A3015 RMK SLP215 T02700053 57019 IEM_DS3505
ZBAA,1996-05-15 07:00,ZBAA 150700Z AUTO ////06KT 6SM 28/08 A3012 RMK SLP203 T02800080 IEM_DS3505
ZBAA,1996-05-15 08:00,ZBAA 150800Z AUTO 20008KT 6SM 28/08 A3012 RMK SLP203 T02800080 IEM_DS3505
ZBAA,1996-05-15 09:00,ZBAA 150900Z AUTO 22008KT 7SM 26/06 A3009 RMK SLP203 T02610062 57013 IEM_DS3505
ZBAA,1996-05-15 10:00,ZBAA 151000Z AUTO 18008KT 6SM 27/08 A3009 RMK SLP192 T02700080 IEM_DS3505
ZBAA,1996-05-15 11:00,ZBAA 151100Z AUTO 20006KT 6SM 25/08 A3012 RMK SLP204 T02500080 IEM_DS3505
ZBAA,1996-05-15 12:00,ZBAA 151200Z AUTO 20006KT 7SM 24/07 A3012 RMK SLP202 T02410071 54000 IEM_DS3505
ZBAA,1996-05-15 13:00,ZBAA 151300Z AUTO 00000KT 7SM 22/07 A3015 RMK SLP215 T02200070 IEM_DS3505
ZBAA,1996-05-15 14:00,ZBAA 151400Z AUTO 00000KT 7SM 22/08 A3015 RMK SLP215 T02200080 IEM_DS3505
ZBAA,1996-05-15 15:00,ZBAA 151500Z AUTO 18006KT 9SM 22/08 A3015 RMK SLP213 T02170080 52011 IEM_DS3505
ZBAA,1996-05-15 16:00,ZBAA 151600Z AUTO 18006KT 7SM 20/08 A3015 RMK SLP215 T02000080 IEM_DS3505
ZBAA,1996-05-15 18:00,ZBAA 151800Z AUTO 18006KT 7SM 19/08 A3014 RMK SLP211 T01880079 57002 IEM_DS3505
ZBAA,1996-05-15 20:00,ZBAA 152000Z AUTO 07004KT 6SM 15/09 A3012 RMK SLP206 T01500090 IEM_DS3505
ZBAA,1996-05-15 21:00,ZBAA 152100Z AUTO 00000KT 6SM 16/10 A3012 RMK SLP207 T01620097 57005 IEM_DS3505
ZBAA,1996-05-15 22:00,ZBAA 152200Z AUTO 07004KT 5SM 15/09 A3012 RMK SLP206 T01500090 IEM_DS3505
ZBAA,1996-05-15 23:00,ZBAA 152300Z AUTO 07002KT 4SM 17/10 A3015 RMK SLP216 T01700100 IEM_DS3505
ZBAA,1996-05-16 00:00,ZBAA 160000Z AUTO 04004KT 5SM 20/10 A3015 RMK SLP217 T01950096 52010 IEM_DS3505
ZBAA,1996-05-16 01:00,ZBAA 160100Z AUTO ////04KT 4SM 21/11 A3015 RMK SLP215 T02100110 IEM_DS3505
ZBAA,1996-05-16 02:00,ZBAA 160200Z AUTO ////04KT 4SM 23/12 A3015 RMK SLP214 T02300120 IEM_DS3505
ZBAA,1996-05-16 03:00,ZBAA 160300Z AUTO 20010KT 5SM 25/08 A3015 RMK SLP209 T02520080 57007 IEM_DS3505
ZBAA,1996-05-16 04:00,ZBAA 160400Z AUTO ////06KT 4SM 26/09 A3012 RMK SLP204 T02600090 IEM_DS3505
ZBAA,1996-05-16 05:00,ZBAA 160500Z AUTO 16012KT 6SM 28/07 A3009 RMK SLP192 T02800070 IEM_DS3505
ZBAA,1996-05-16 06:00,ZBAA 160600Z AUTO 16008KT 11SM 27/06 A3006 RMK SLP189 T02680056 57020 IEM_DS3505
ZBAA,1996-05-16 07:00,ZBAA 160700Z AUTO 18012KT 6SM 27/08 A3006 RMK SLP182 T02700080 IEM_DS3505
ZBAA,1996-05-16 08:00,ZBAA 160800Z AUTO 18010KT 6SM 26/07 A3003 RMK SLP172 T02600070 IEM_DS3505
ZBAA,1996-05-16 09:00,ZBAA 160900Z AUTO 20006KT 12SM 26/05 A3000 RMK SLP169 T02560053 57020 IEM_DS3505
ZBAA,1996-05-16 10:00,ZBAA 161000Z AUTO 18008KT 6SM 25/08 A3000 RMK SLP163 T02500080 IEM_DS3505
ZBAA,1996-05-16 11:00,ZBAA 161100Z AUTO 19008KT 6SM 24/09 A3000 RMK SLP163 T02400090 IEM_DS3505
ZBAA,1996-05-16 12:00,ZBAA 161200Z AUTO 18008KT 9SM 24/08 A3000 RMK SLP167 T02410082 57002 IEM_DS3505
ZBAA,1996-05-16 13:00,ZBAA 161300Z AUTO 17006KT 6SM 23/09 A3003 RMK SLP173 T02300090 IEM_DS3505
ZBAA,1996-05-16 15:00,ZBAA 161500Z AUTO 20006KT 9SM 22/10 A3003 RMK SLP173 T02160101 52006 IEM_DS3505
ZBAA,1996-05-16 16:00,ZBAA 161600Z AUTO 16008KT 5SM 20/09 A3003 RMK SLP174 T02000090 IEM_DS3505
ZBAA,1996-05-16 17:00,ZBAA 161700Z AUTO 15006KT 5SM 19/10 A3000 RMK SLP164 T01900100 IEM_DS3505
ZBAA,1996-05-16 18:00,ZBAA 161800Z AUTO 18004KT 9SM 19/10 A3001 RMK SLP168 T01920101 57005 IEM_DS3505
ZBAA,1996-05-16 20:00,ZBAA 162000Z AUTO 06002KT 5SM 15/11 A3000 RMK SLP165 T01500110 IEM_DS3505
ZBAA,1996-05-16 21:00,ZBAA 162100Z AUTO 34002KT 5SM 16/11 A3000 RMK SLP162 T01630113 57006 IEM_DS3505
ZBAA,1996-05-16 22:00,ZBAA 162200Z AUTO 07002KT 4SM 15/11 A3000 RMK SLP165 T01500110 IEM_DS3505
ZBAA,1996-05-16 23:00,ZBAA 162300Z AUTO 00000KT 4SM 17/11 A3000 RMK SLP164 T01700110 IEM_DS3505
ZBAA,1996-05-17 00:00,ZBAA 170000Z AUTO 02004KT 5SM 19/10 A3000 RMK SLP164 T01920105 52002 IEM_DS3505
ZBAA,1996-05-17 01:00,ZBAA 170100Z AUTO 12002KT 4SM 21/13 A3000 RMK SLP163 T02100130 IEM_DS3505
ZBAA,1996-05-17 02:00,ZBAA 170200Z AUTO ////04KT 4SM 23/14 A3000 RMK SLP163 T02300140 IEM_DS3505
ZBAA,1996-05-17 03:00,ZBAA 170300Z AUTO 09002KT 2 1/2SM 25/10 A2997 RMK SLP158 T02470104 57006 IEM_DS3505
ZBAA,1996-05-17 04:00,ZBAA 170400Z AUTO 17008KT 4SM 27/13 A2994 RMK SLP142 T02700130 IEM_DS3505
ZBAA,1996-05-17 05:00,ZBAA 170500Z AUTO 18010KT 7SM 28/12 A2991 RMK SLP132 T02800120 IEM_DS3505
ZBAA,1996-05-17 06:00,ZBAA 170600Z AUTO 22008KT 4SM 28/10 A2991 RMK SLP133 T02760096 57025 IEM_DS3505
ZBAA,1996-05-17 07:00,ZBAA 170700Z AUTO 17010KT 6SM 28/12 A2988 RMK SLP122 T02800120 IEM_DS3505
ZBAA,1996-05-17 08:00,ZBAA 170800Z AUTO 16010KT 6SM 27/12 A2985 RMK SLP112 T02700120 IEM_DS3505
ZBAA,1996-05-17 09:00,ZBAA 170900Z AUTO 20010KT 5SM 27/09 A2985 RMK SLP113 T02700089 57020 IEM_DS3505
ZBAA,1996-05-17 10:00,ZBAA 171000Z AUTO 19008KT 7SM 26/11 A2985 RMK SLP112 T02600110 IEM_DS3505
ZBAA,1996-05-17 11:00,ZBAA 171100Z AUTO 19008KT 7SM 26/11 A2985 RMK SLP112 T02600110 IEM_DS3505
ZBAA,1996-05-17 12:00,ZBAA 171200Z AUTO 20006KT 3SM 25/12 A2985 RMK SLP116 T02520120 52003 IEM_DS3505
ZBAA,1996-05-17 13:00,ZBAA 171300Z AUTO 18006KT 7SM 24/12 A2988 RMK SLP123 T02400120 IEM_DS3505
ZBAA,1996-05-17 14:00,ZBAA 171400Z AUTO 18004KT 7SM 23/12 A2988 RMK SLP123 T02300120 IEM_DS3505
ZBAA,1996-05-17 15:00,ZBAA 171500Z AUTO 18004KT 4SM 23/14 A2988 RMK SLP119 T02270141 52003 IEM_DS3505
ZBAA,1996-05-17 16:00,ZBAA 171600Z AUTO 14006KT 7SM 21/13 A2985 RMK SLP113 T02100130 IEM_DS3505
ZBAA,1996-05-17 17:00,ZBAA 171700Z AUTO 13004KT 7SM 20/13 A2985 RMK SLP113 T02000130 IEM_DS3505
ZBAA,1996-05-17 18:00,ZBAA 171800Z AUTO 18004KT 3SM 20/13 A2986 RMK SLP115 T02050134 57003 IEM_DS3505
ZBAA,1996-05-17 20:00,ZBAA 172000Z AUTO 07002KT 6SM 18/14 A2985 RMK SLP114 T01800140 IEM_DS3505
ZBAA,1996-05-17 21:00,ZBAA 172100Z AUTO 00000KT 2SM 19/14 A2985 RMK SLP114 T01930138 57002 IEM_DS3505
ZBAA,1996-05-17 22:00,ZBAA 172200Z AUTO 11004KT 5SM 18/14 A2985 RMK SLP114 T01800140 IEM_DS3505
ZBAA,1996-05-17 23:00,ZBAA 172300Z AUTO 13004KT 5SM 19/15 A2985 RMK SLP114 T01900150 IEM_DS3505
ZBAA,1996-05-18 00:00,ZBAA 180000Z AUTO 32004KT 2 1/2SM 20/14 A2985 RMK SLP117 T01990135 52003 IEM_DS3505
ZBAA,1996-05-18 01:00,ZBAA 180100Z AUTO ////02KT 3SM 21/16 A2985 RMK SLP113 T02100160 IEM_DS3505
ZBAA,1996-05-18 02:00,ZBAA 180200Z AUTO ////04KT 3SM 23/16 A2985 RMK SLP113 T02300160 IEM_DS3505
ZBAA,1996-05-18 03:00,ZBAA 180300Z AUTO 02002KT 2 1/2SM 24/15 A2983 RMK SLP106 T02430146 57010 IEM_DS3505
ZBAA,1996-05-18 04:00,ZBAA 180400Z AUTO 15006KT 3SM 25/16 A2980 RMK SLP095 T02500160 IEM_DS3505
ZBAA,1996-05-18 05:00,ZBAA 180500Z AUTO ////02KT 3SM 25/16 A2980 RMK SLP095 T02500160 IEM_DS3505
ZBAA,1996-05-18 06:00,ZBAA 180600Z AUTO 36006KT 2SM 24/14 A2977 RMK SLP089 T02430138 57018 IEM_DS3505
ZBAA,1996-05-18 07:00,ZBAA 180700Z AUTO 29004KT 3SM 24/14 A2977 RMK SLP085 T02400140 IEM_DS3505
ZBAA,1996-05-18 08:00,ZBAA 180800Z AUTO ////04KT 3SM 24/14 A2974 RMK SLP074 T02400140 IEM_DS3505
ZBAA,1996-05-18 09:00,ZBAA 180900Z AUTO 22006KT 2 1/2SM 23/15 A2974 RMK SLP072 T02320153 57017 IEM_DS3505
ZBAA,1996-05-18 10:00,ZBAA 181000Z AUTO 30006KT 4SM 23/14 A2974 RMK SLP074 T02300140 IEM_DS3505
ZBAA,1996-05-18 11:00,ZBAA 181100Z AUTO 34006KT 5SM 18/18 A2974 RMK SLP076 T01800180 IEM_DS3505
ZBAA,1996-05-18 12:00,ZBAA 181200Z AUTO 25004KT 4SM 19/14 A2974 RMK 60002 SLP082 T01930138 52010 IEM_DS3505
ZBAA,1996-05-18 13:00,ZBAA 181300Z AUTO 36008KT 6SM 17/16 A2977 RMK SLP087 T01700160 IEM_DS3505
ZBAA,1996-05-18 14:00,ZBAA 181400Z AUTO 03008KT 6SM 16/15 A2977 RMK SLP087 T01600150 IEM_DS3505
ZBAA,1996-05-18 15:00,ZBAA 181500Z AUTO 34002KT 5SM 17/13 A2977 RMK SLP088 T01740134 52006 IEM_DS3505
ZBAA,1996-05-18 16:00,ZBAA 181600Z AUTO 31004KT 6SM 15/14 A2977 RMK SLP087 T01500140 IEM_DS3505
ZBAA,1996-05-18 17:00,ZBAA 181700Z AUTO 00000KT 6SM 15/14 A2974 RMK SLP076 T01500140 IEM_DS3505
ZBAA,1996-05-18 18:00,ZBAA 181800Z AUTO 32002KT 4SM 15/13 A2972 RMK SLP069 T01540131 57019 IEM_DS3505
ZBAA,1996-05-18 20:00,ZBAA 182000Z AUTO 01004KT 6SM 14/13 A2968 RMK SLP056 T01400130 IEM_DS3505
ZBAA,1996-05-18 21:00,ZBAA 182100Z AUTO 02002KT 4SM 15/13 A2968 RMK 70002 SLP058 T01500128 57011 IEM_DS3505
ZBAA,1996-05-18 22:00,ZBAA 182200Z AUTO 35004KT 6SM 14/14 A2968 RMK SLP056 T01400140 IEM_DS3505
ZBAA,1996-05-18 23:00,ZBAA 182300Z AUTO 35004KT 4SM 15/14 A2968 RMK SLP056 T01500140 IEM_DS3505
ZBAA,1996-05-19 00:00,ZBAA 190000Z AUTO 34004KT 2 1/2SM 17/13 A2968 RMK 70002 SLP058 T01690128 54000 IEM_DS3505
ZBAA,1996-05-19 01:00,ZBAA 190100Z AUTO ////04KT 4SM 18/16 A2968 RMK SLP055 T01800160 IEM_DS3505
ZBAA,1996-05-19 02:00,ZBAA 190200Z AUTO ////02KT 4SM 20/16 A2968 RMK SLP055 T02000160 IEM_DS3505
ZBAA,1996-05-19 03:00,ZBAA 190300Z AUTO 02004KT 5SM 23/13 A2965 RMK SLP051 T02260130 57007 IEM_DS3505
ZBAA,1996-05-19 04:00,ZBAA 190400Z AUTO 25008KT 4SM 25/14 A2962 RMK SLP034 T02500140 IEM_DS3505
ZBAA,1996-05-19 05:00,ZBAA 190500Z AUTO 30017G29KT 5SM 27/07 A2962 RMK SLP033 T02700070 IEM_DS3505
ZBAA,1996-05-19 06:00,ZBAA 190600Z AUTO 29010G27KT 6SM 28/04 A2959 RMK SLP030 T02820036 57020 IEM_DS3505
ZBAA,1996-05-19 07:00,ZBAA 190700Z AUTO 33012KT 6SM 27/07 A2959 RMK SLP023 T02700070 IEM_DS3505
ZBAA,1996-05-19 08:00,ZBAA 190800Z AUTO 32014KT 6SM 28/04 A2959 RMK SLP023 T02800040 IEM_DS3505
ZBAA,1996-05-19 09:00,ZBAA 190900Z AUTO 32012KT 7SM 28/03 A2959 RMK SLP028 T02800029 57002 IEM_DS3505
ZBAA,1996-05-19 10:00,ZBAA 191000Z AUTO 31016G27KT 6SM 26/06 A2965 RMK SLP044 T02600060 IEM_DS3505
ZBAA,1996-05-19 11:00,ZBAA 191100Z AUTO 33012KT 6SM 24/07 A2968 RMK SLP054 T02400070 IEM_DS3505
ZBAA,1996-05-19 12:00,ZBAA 191200Z AUTO 02006KT 6SM 23/07 A2968 RMK SLP055 T02270067 52026 IEM_DS3505
ZBAA,1996-05-19 13:00,ZBAA 191300Z AUTO 33008KT 6SM 22/07 A2968 RMK SLP055 T02200070 IEM_DS3505
ZBAA,1996-05-19 14:00,ZBAA 191400Z AUTO 03006KT 6SM 21/07 A2971 RMK SLP065 T02100070 IEM_DS3505
ZBAA,1996-05-19 15:00,ZBAA 191500Z AUTO 00000KT 6SM 18/10 A2971 RMK SLP063 T01820096 52008 IEM_DS3505
ZBAA,1996-05-19 16:00,ZBAA 191600Z AUTO 00000KT 6SM 19/08 A2971 RMK SLP065 T01900080 IEM_DS3505
ZBAA,1996-05-19 17:00,ZBAA 191700Z AUTO 00000KT 6SM 17/09 A2968 RMK SLP056 T01700090 IEM_DS3505
ZBAA,1996-05-19 18:00,ZBAA 191800Z AUTO 29002KT 6SM 16/09 A2969 RMK SLP057 T01630092 57005 IEM_DS3505
ZBAA,1996-05-19 20:00,ZBAA 192000Z AUTO 21002KT 6SM 15/09 A2971 RMK SLP066 T01500090 IEM_DS3505
ZBAA,1996-05-19 21:00,ZBAA 192100Z AUTO 00000KT 6SM 17/10 A2974 RMK SLP073 T01680096 52016 IEM_DS3505
ZBAA,1996-05-19 22:00,ZBAA 192200Z AUTO 00000KT 6SM 16/09 A2977 RMK SLP087 T01600090 IEM_DS3505
ZBAA,1996-05-19 23:00,ZBAA 192300Z AUTO 03006KT 7SM 17/10 A2977 RMK SLP087 T01700100 IEM_DS3505
ZBAA,1996-05-20 00:00,ZBAA 200000Z AUTO 32006KT 6SM 22/08 A2980 RMK SLP089 T02220083 52015 IEM_DS3505
ZBAA,1996-05-20 01:00,ZBAA 200100Z AUTO 36012G23KT 7SM 24/06 A2980 RMK SLP095 T02400060 IEM_DS3505
ZBAA,1996-05-20 02:00,ZBAA 200200Z AUTO 33016KT 7SM 25/03 A2977 RMK SLP085 T02500030 IEM_DS3505
ZBAA,1996-05-20 03:00,ZBAA 200300Z AUTO 36012G27KT 9SM 26/01 A2977 RMK SLP088 T02630013 57001 IEM_DS3505
ZBAA,1996-05-20 04:00,ZBAA 200400Z AUTO 33014KT 6SM 27/03 A2977 RMK SLP085 T02700030 IEM_DS3505
ZBAA,1996-05-20 05:00,ZBAA 200500Z AUTO 33016G25KT 6SM 29/01 A2974 RMK SLP073 T02900010 IEM_DS3505
ZBAA,1996-05-20 06:00,ZBAA 200600Z AUTO 29012KT 12SM 28/00 A2971 RMK SLP073 T02840002 57015 IEM_DS3505
ZBAA,1996-05-20 07:00,ZBAA 200700Z AUTO 36021KT 7SM 29/00 A2971 RMK SLP063 T02900000 IEM_DS3505
ZBAA,1996-05-20 08:00,ZBAA 200800Z AUTO 36019G29KT 6SM 28/M01 A2971 RMK SLP063 T02801010 IEM_DS3505
ZBAA,1996-05-20 09:00,ZBAA 200900Z AUTO 36012KT 12SM 28/M03 A2974 RMK SLP074 T02761033 52001 IEM_DS3505
ZBAA,1996-05-20 10:00,ZBAA 201000Z AUTO 36017KT 6SM 27/M02 A2974 RMK SLP074 T02701020 IEM_DS3505
ZBAA,1996-05-20 11:00,ZBAA 201100Z AUTO 35014KT 7SM 25/M03 A2977 RMK SLP085 T02501030 IEM_DS3505
ZBAA,1996-05-20 12:00,ZBAA 201200Z AUTO 29004KT 19SM 24/M01 A2977 RMK SLP090 T02401006 52017 IEM_DS3505
ZBAA,1996-05-20 13:00,ZBAA 201300Z AUTO ////04KT 7SM 21/M01 A2983 RMK SLP106 T02101010 IEM_DS3505
ZBAA,1996-05-20 14:00,ZBAA 201400Z AUTO ////02KT 7SM 21/M01 A2983 RMK SLP106 T02101010 IEM_DS3505
ZBAA,1996-05-20 15:00,ZBAA 201500Z AUTO 29002KT 19SM 19/05 A2984 RMK SLP109 T01890049 52018 IEM_DS3505
ZBAA,1996-05-20 16:00,ZBAA 201600Z AUTO 30004KT 7SM 22/M03 A2985 RMK SLP113 T02201030 IEM_DS3505
ZBAA,1996-05-20 17:00,ZBAA 201700Z AUTO ////06KT 7SM 20/M01 A2985 RMK SLP113 T02001010 IEM_DS3505
ZBAA,1996-05-20 18:00,ZBAA 201800Z AUTO 20002KT 19SM 18/03 A2985 RMK SLP117 T01770034 52008 IEM_DS3505
ZBAA,1996-05-20 19:00,ZBAA 201900Z AUTO ////02KT 7SM 18/M02 A2985 RMK SLP114 T01801020 IEM_DS3505
ZBAA,1996-05-20 20:00,ZBAA 202000Z AUTO 00000KT 7SM 16/00 A2988 RMK SLP124 T01600000 IEM_DS3505
ZBAA,1996-05-20 21:00,ZBAA 202100Z AUTO 29002KT 12SM 14/06 A2988 RMK SLP126 T01450055 52009 IEM_DS3505
ZBAA,1996-05-20 22:00,ZBAA 202200Z AUTO 29002KT 7SM 14/03 A2991 RMK SLP135 T01400030 IEM_DS3505
ZBAA,1996-05-20 23:00,ZBAA 202300Z AUTO ////04KT 7SM 17/04 A2991 RMK SLP134 T01700040 IEM_DS3505
ZBAA,1996-05-21 00:00,ZBAA 210000Z AUTO 09004KT 7SM 22/00 A2994 RMK SLP140 T02170003 52014 IEM_DS3505
ZBAA,1996-05-21 01:00,ZBAA 210100Z AUTO 04008KT 7SM 23/04 A2994 RMK SLP143 T02300040 IEM_DS3505
ZBAA,1996-05-21 02:00,ZBAA 210200Z AUTO 07008KT 7SM 25/05 A2994 RMK SLP142 T02500050 IEM_DS3505
ZBAA,1996-05-21 03:00,ZBAA 210300Z AUTO 16006KT 9SM 25/01 A2991 RMK SLP140 T02530010 54000 IEM_DS3505
ZBAA,1996-05-21 04:00,ZBAA 210400Z AUTO ////04KT 7SM 27/06 A2991 RMK SLP132 T02700060 IEM_DS3505
ZBAA,1996-05-21 05:00,ZBAA 210500Z AUTO ////04KT 7SM 28/06 A2985 RMK SLP112 T02800060 IEM_DS3505
ZBAA,1996-05-21 06:00,ZBAA 210600Z AUTO 20008KT 6SM 29/04 A2985 RMK SLP114 T02880044 57026 IEM_DS3505
ZBAA,1996-05-21 07:00,ZBAA 210700Z AUTO 24008KT 7SM 30/07 A2983 RMK SLP104 T03000070 IEM_DS3505
ZBAA,1996-05-21 08:00,ZBAA 210800Z AUTO 16010KT 7SM 30/08 A2983 RMK SLP104 T03000080 IEM_DS3505
ZBAA,1996-05-21 09:00,ZBAA 210900Z AUTO 20008KT 8SM 29/04 A2980 RMK SLP098 T02920038 57016 IEM_DS3505
ZBAA,1996-05-21 10:00,ZBAA 211000Z AUTO 15010KT 7SM 28/09 A2980 RMK SLP095 T02800090 IEM_DS3505
ZBAA,1996-05-21 11:00,ZBAA 211100Z AUTO 15006KT 7SM 26/09 A2983 RMK SLP105 T02600090 IEM_DS3505
ZBAA,1996-05-21 12:00,ZBAA 211200Z AUTO 16004KT 7SM 27/08 A2985 RMK SLP107 T02680083 52010 IEM_DS3505
ZBAA,1996-05-21 13:00,ZBAA 211300Z AUTO 13008KT 7SM 24/10 A2988 RMK SLP123 T02400100 IEM_DS3505
ZBAA,1996-05-21 14:00,ZBAA 211400Z AUTO 16006KT 7SM 22/10 A2991 RMK SLP133 T02200100 IEM_DS3505
ZBAA,1996-05-21 15:00,ZBAA 211500Z AUTO 20006KT 6SM 22/08 A2994 RMK SLP140 T02230076 52032 IEM_DS3505
ZBAA,1996-05-21 16:00,ZBAA 211600Z AUTO 09006KT 7SM 18/11 A2994 RMK SLP144 T01800110 IEM_DS3505
ZBAA,1996-05-21 18:00,ZBAA 211800Z AUTO 09002KT 7SM 19/09 A2994 RMK SLP144 T01910091 52004 IEM_DS3505
ZBAA,1996-05-21 20:00,ZBAA 212000Z AUTO ////04KT 7SM 16/09 A2994 RMK SLP144 T01600090 IEM_DS3505
ZBAA,1996-05-21 21:00,ZBAA 212100Z AUTO 02004KT 6SM 18/10 A2994 RMK SLP145 T01770104 52001 IEM_DS3505
ZBAA,1996-05-21 22:00,ZBAA 212200Z AUTO 00000KT 5SM 16/10 A2997 RMK SLP154 T01600100 IEM_DS3505
ZBAA,1996-05-21 23:00,ZBAA 212300Z AUTO ////02KT 5SM 17/11 A2997 RMK SLP154 T01700110 IEM_DS3505
ZBAA,1996-05-22 00:00,ZBAA 220000Z AUTO 04004KT 4SM 20/10 A2997 RMK SLP154 T02010097 52009 IEM_DS3505
ZBAA,1996-05-22 01:00,ZBAA 220100Z AUTO ////04KT 4SM 22/12 A2997 RMK SLP153 T02200120 IEM_DS3505
ZBAA,1996-05-22 02:00,ZBAA 220200Z AUTO ////04KT 7SM 23/12 A2997 RMK SLP153 T02300120 IEM_DS3505
ZBAA,1996-05-22 03:00,ZBAA 220300Z AUTO 07002KT 4SM 24/07 A2994 RMK SLP147 T02430072 57007 IEM_DS3505
ZBAA,1996-05-22 04:00,ZBAA 220400Z AUTO ////06KT 7SM 25/11 A2991 RMK SLP132 T02500110 IEM_DS3505
ZBAA,1996-05-22 05:00,ZBAA 220500Z AUTO ////04KT 6SM 28/13 A2988 RMK SLP122 T02800130 IEM_DS3505
ZBAA,1996-05-22 06:00,ZBAA 220600Z AUTO 20004KT 4SM 28/09 A2985 RMK SLP121 T02800092 57026 IEM_DS3505
ZBAA,1996-05-22 07:00,ZBAA 220700Z AUTO 18006KT 6SM 29/13 A2985 RMK SLP111 T02900130 IEM_DS3505
ZBAA,1996-05-22 08:00,ZBAA 220800Z AUTO 18008KT 6SM 29/14 A2983 RMK SLP104 T02900140 IEM_DS3505
ZBAA,1996-05-22 09:00,ZBAA 220900Z AUTO 18008KT 7SM 28/11 A2983 RMK SLP104 T02800114 57017 IEM_DS3505
ZBAA,1996-05-22 10:00,ZBAA 221000Z AUTO 17004KT 6SM 28/14 A2983 RMK SLP105 T02800140 IEM_DS3505
ZBAA,1996-05-22 11:00,ZBAA 221100Z AUTO 11004KT 6SM 26/15 A2983 RMK SLP105 T02600150 IEM_DS3505
ZBAA,1996-05-22 12:00,ZBAA 221200Z AUTO 18004KT 6SM 26/14 A2983 RMK SLP106 T02560139 52002 IEM_DS3505
ZBAA,1996-05-22 13:00,ZBAA 221300Z AUTO 10004KT 6SM 23/15 A2983 RMK SLP106 T02300150 IEM_DS3505
ZBAA,1996-05-22 14:00,ZBAA 221400Z AUTO 11004KT 6SM 23/15 A2985 RMK SLP113 T02300150 IEM_DS3505
ZBAA,1996-05-22 15:00,ZBAA 221500Z AUTO 00000KT 5SM 21/15 A2985 RMK SLP109 T02130147 52003 IEM_DS3505
ZBAA,1996-05-22 16:00,ZBAA 221600Z AUTO 10006KT 6SM 20/15 A2983 RMK SLP106 T02000150 IEM_DS3505
ZBAA,1996-05-22 17:00,ZBAA 221700Z AUTO 09004KT 6SM 19/14 A2983 RMK SLP106 T01900140 IEM_DS3505
ZBAA,1996-05-22 18:00,ZBAA 221800Z AUTO 02002KT 4SM 21/15 A2982 RMK SLP103 T02070154 57005 IEM_DS3505
ZBAA,1996-05-22 20:00,ZBAA 222000Z AUTO 09004KT 6SM 19/14 A2983 RMK SLP106 T01900140 IEM_DS3505
ZBAA,1996-05-22 21:00,ZBAA 222100Z AUTO 02004KT 4SM 20/14 A2983 RMK SLP101 T01980136 57002 IEM_DS3505
ZBAA,1996-05-22 22:00,ZBAA 222200Z AUTO 36004KT 4SM 18/14 A2983 RMK SLP107 T01800140 IEM_DS3505
ZBAA,1996-05-22 23:00,ZBAA 222300Z AUTO ////04KT 4SM 20/15 A2985 RMK SLP113 T02000150 IEM_DS3505
ZBAA,1996-05-23 00:00,ZBAA 230000Z AUTO 02008KT 4SM 22/12 A2985 RMK SLP113 T02190120 52012 IEM_DS3505
ZBAA,1996-05-23 01:00,ZBAA 230100Z AUTO ////04KT 4SM 23/16 A2985 RMK SLP113 T02300160 IEM_DS3505
ZBAA,1996-05-23 02:00,ZBAA 230200Z AUTO ////04KT 4SM 24/16 A2983 RMK SLP105 T02400160 IEM_DS3505
ZBAA,1996-05-23 03:00,ZBAA 230300Z AUTO 02002KT 4SM 26/14 A2983 RMK SLP106 T02620144 57007 IEM_DS3505
ZBAA,1996-05-23 04:00,ZBAA 230400Z AUTO ////04KT 4SM 28/17 A2980 RMK SLP095 T02800170 IEM_DS3505
ZBAA,1996-05-23 05:00,ZBAA 230500Z AUTO ////04KT 5SM 29/17 A2980 RMK SLP094 T02900170 IEM_DS3505
ZBAA,1996-05-23 06:00,ZBAA 230600Z AUTO 16010KT 3SM 30/15 A2977 RMK SLP087 T02970150 57019 IEM_DS3505
ZBAA,1996-05-23 07:00,ZBAA 230700Z AUTO 18006KT 5SM 31/16 A2974 RMK SLP073 T03100160 IEM_DS3505
ZBAA,1996-05-23 08:00,ZBAA 230800Z AUTO 18008KT 5SM 30/15 A2971 RMK SLP063 T03000150 IEM_DS3505
ZBAA,1996-05-23 09:00,ZBAA 230900Z AUTO 20010KT 5SM 30/11 A2971 RMK SLP067 T03030108 57020 IEM_DS3505
ZBAA,1996-05-23 10:00,ZBAA 231000Z AUTO 16006KT 5SM 29/17 A2971 RMK SLP063 T02900170 IEM_DS3505
ZBAA,1996-05-23 11:00,ZBAA 231100Z AUTO 17006KT 5SM 28/16 A2971 RMK SLP063 T02800160 IEM_DS3505
ZBAA,1996-05-23 12:00,ZBAA 231200Z AUTO 20010KT 6SM 27/13 A2974 RMK SLP075 T02670128 52008 IEM_DS3505
ZBAA,1996-05-23 13:00,ZBAA 231300Z AUTO 14002KT 4SM 26/13 A2977 RMK SLP085 T02600130 IEM_DS3505
ZBAA,1996-05-23 14:00,ZBAA 231400Z AUTO 16006KT 4SM 25/14 A2980 RMK SLP095 T02500140 IEM_DS3505
ZBAA,1996-05-23 15:00,ZBAA 231500Z AUTO 20004KT 6SM 24/14 A2977 RMK SLP085 T02370145 52010 IEM_DS3505
ZBAA,1996-05-23 16:00,ZBAA 231600Z AUTO 15004KT 4SM 22/15 A2977 RMK SLP086 T02200150 IEM_DS3505
ZBAA,1996-05-23 17:00,ZBAA 231700Z AUTO 34002KT 4SM 21/15 A2977 RMK SLP086 T02100150 IEM_DS3505
ZBAA,1996-05-23 18:00,ZBAA 231800Z AUTO 00000KT 6SM 22/15 A2977 RMK SLP082 T02180153 57003 IEM_DS3505
ZBAA,1996-05-23 19:00,ZBAA 231900Z AUTO 00000KT 4SM 19/15 A2977 RMK SLP086 T01900150 IEM_DS3505
ZBAA,1996-05-23 20:00,ZBAA 232000Z AUTO 00000KT 4SM 19/15 A2974 RMK SLP075 T01900150 IEM_DS3505
ZBAA,1996-05-23 21:00,ZBAA 232100Z AUTO 20002KT 5SM 20/14 A2977 RMK SLP085 T01990135 52003 IEM_DS3505
ZBAA,1996-05-23 22:00,ZBAA 232200Z AUTO 01002KT 3SM 19/16 A2977 RMK SLP086 T01900160 IEM_DS3505
ZBAA,1996-05-23 23:00,ZBAA 232300Z AUTO 01002KT 3SM 20/16 A2980 RMK SLP096 T02000160 IEM_DS3505
ZBAA,1996-05-24 00:00,ZBAA 240000Z AUTO 00000KT 4SM 23/14 A2980 RMK SLP092 T02290139 52007 IEM_DS3505
ZBAA,1996-05-24 01:00,ZBAA 240100Z AUTO ////02KT 2 1/2SM 25/18 A2980 RMK SLP095 T02500180 IEM_DS3505
ZBAA,1996-05-24 02:00,ZBAA 240200Z AUTO ////02KT 2 1/2SM 27/17 A2980 RMK SLP095 T02700170 IEM_DS3505
ZBAA,1996-05-24 03:00,ZBAA 240300Z AUTO 20008KT 5SM 28/12 A2980 RMK SLP092 T02790124 54000 IEM_DS3505
ZBAA,1996-05-24 04:00,ZBAA 240400Z AUTO 18008KT 2 1/2SM 31/15 A2977 RMK SLP084 T03100150 IEM_DS3505
ZBAA,1996-05-24 05:00,ZBAA 240500Z AUTO 18010KT 5SM 32/17 A2977 RMK SLP084 T03200170 IEM_DS3505
ZBAA,1996-05-24 06:00,ZBAA 240600Z AUTO 18012KT 6SM 30/12 A2974 RMK SLP079 T03020121 57013 IEM_DS3505
ZBAA,1996-05-24 07:00,ZBAA 240700Z AUTO 18012KT 6SM 31/16 A2974 RMK SLP073 T03100160 IEM_DS3505
ZBAA,1996-05-24 08:00,ZBAA 240800Z AUTO 19010KT 6SM 32/16 A2971 RMK SLP062 T03200160 IEM_DS3505
ZBAA,1996-05-24 09:00,ZBAA 240900Z AUTO 20012KT 7SM 30/12 A2971 RMK SLP070 T02980125 57009 IEM_DS3505
ZBAA,1996-05-24 10:00,ZBAA 241000Z AUTO 19010KT 6SM 29/14 A2971 RMK SLP063 T02900140 IEM_DS3505
ZBAA,1996-05-24 11:00,ZBAA 241100Z AUTO 21012KT 6SM 28/13 A2971 RMK SLP063 T02800130 IEM_DS3505
ZBAA,1996-05-24 12:00,ZBAA 241200Z AUTO 18012KT 4SM 27/13 A2974 RMK SLP070 T02660127 54000 IEM_DS3505
ZBAA,1996-05-24 13:00,ZBAA 241300Z AUTO ////04KT 6SM 25/13 A2977 RMK SLP085 T02500130 IEM_DS3505
ZBAA,1996-05-24 14:00,ZBAA 241400Z AUTO 16006KT 6SM 24/14 A2977 RMK SLP085 T02400140 IEM_DS3505
ZBAA,1996-05-24 15:00,ZBAA 241500Z AUTO 20006KT 6SM 24/14 A2977 RMK SLP080 T02390144 52010 IEM_DS3505
ZBAA,1996-05-24 16:00,ZBAA 241600Z AUTO 13006KT 7SM 22/15 A2977 RMK SLP086 T02200150 IEM_DS3505
ZBAA,1996-05-24 18:00,ZBAA 241800Z AUTO 18002KT 6SM 21/15 A2975 RMK SLP078 T02110147 57002 IEM_DS3505
ZBAA,1996-05-24 20:00,ZBAA 242000Z AUTO 09002KT 4SM 18/15 A2977 RMK SLP087 T01800150 IEM_DS3505
ZBAA,1996-05-24 21:00,ZBAA 242100Z AUTO 11002KT 3SM 19/14 A2977 RMK SLP078 T01930142 54000 IEM_DS3505
ZBAA,1996-05-24 22:00,ZBAA 242200Z AUTO 00000KT 3SM 18/15 A2977 RMK SLP087 T01800150 IEM_DS3505
ZBAA,1996-05-24 23:00,ZBAA 242300Z AUTO 12004KT 3SM 19/15 A2980 RMK SLP096 T01900150 IEM_DS3505
ZBAA,1996-05-25 00:00,ZBAA 250000Z AUTO 16002KT 3SM 23/15 A2980 RMK SLP092 T02290147 52014 IEM_DS3505
ZBAA,1996-05-25 01:00,ZBAA 250100Z AUTO ////04KT 2 1/2SM 23/16 A2980 RMK SLP096 T02300160 IEM_DS3505
ZBAA,1996-05-25 02:00,ZBAA 250200Z AUTO ////06KT 2 1/2SM 26/17 A2980 RMK SLP095 T02600170 IEM_DS3505
ZBAA,1996-05-25 03:00,ZBAA 250300Z AUTO 18014KT 4SM 28/14 A2980 RMK SLP090 T02760138 57002 IEM_DS3505
ZBAA,1996-05-25 04:00,ZBAA 250400Z AUTO 19008KT 4SM 29/17 A2977 RMK SLP084 T02900170 IEM_DS3505
ZBAA,1996-05-25 05:00,ZBAA 250500Z AUTO 17012KT 5SM 30/17 A2977 RMK SLP084 T03000170 IEM_DS3505
ZBAA,1996-05-25 06:00,ZBAA 250600Z AUTO 18008KT 5SM 29/14 A2974 RMK SLP078 T02910137 57012 IEM_DS3505
ZBAA,1996-05-25 07:00,ZBAA 250700Z AUTO 16012KT 6SM 30/17 A2971 RMK SLP063 T03000170 IEM_DS3505
ZBAA,1996-05-25 08:00,ZBAA 250800Z AUTO 18010KT 6SM 30/17 A2971 RMK SLP063 T03000170 IEM_DS3505
ZBAA,1996-05-25 09:00,ZBAA 250900Z AUTO 20010KT 5SM 29/15 A2968 RMK SLP063 T02900147 57015 IEM_DS3505
ZBAA,1996-05-25 10:00,ZBAA 251000Z AUTO 19004KT 6SM 28/17 A2971 RMK SLP063 T02800170 IEM_DS3505
ZBAA,1996-05-25 11:00,ZBAA 251100Z AUTO 19006KT 4SM 27/17 A2971 RMK SLP064 T02700170 IEM_DS3505
ZBAA,1996-05-25 12:00,ZBAA 251200Z AUTO 18006KT 5SM 27/16 A2974 RMK SLP067 T02740160 52004 IEM_DS3505
ZBAA,1996-05-25 13:00,ZBAA 251300Z AUTO 15006KT 3SM 26/17 A2974 RMK SLP074 T02600170 IEM_DS3505
ZBAA,1996-05-25 14:00,ZBAA 251400Z AUTO 12006KT 3SM 25/17 A2974 RMK SLP074 T02500170 IEM_DS3505
ZBAA,1996-05-25 15:00,ZBAA 251500Z AUTO 16002KT 6SM 26/17 A2977 RMK SLP073 T02590172 52006 IEM_DS3505
ZBAA,1996-05-25 16:00,ZBAA 251600Z AUTO 09006KT 2 1/2SM 22/16 A2977 RMK SLP086 T02200160 IEM_DS3505
ZBAA,1996-05-25 17:00,ZBAA 251700Z AUTO 10006KT 2 1/2SM 22/16 A2977 RMK SLP086 T02200160 IEM_DS3505
ZBAA,1996-05-25 18:00,ZBAA 251800Z AUTO 00000KT 5SM 24/14 A2978 RMK SLP087 T02410138 52014 IEM_DS3505
ZBAA,1996-05-25 20:00,ZBAA 252000Z AUTO 12006KT 4SM 22/15 A2977 RMK SLP086 T02200150 IEM_DS3505
ZBAA,1996-05-25 21:00,ZBAA 252100Z AUTO 36004KT 3SM 22/16 A2980 RMK SLP088 T02180157 52001 IEM_DS3505
ZBAA,1996-05-25 22:00,ZBAA 252200Z AUTO 08004KT 4SM 21/10 A2980 RMK SLP096 T02100100 IEM_DS3505
ZBAA,1996-05-25 23:00,ZBAA 252300Z AUTO 27002KT 4SM 21/18 A2983 RMK SLP106 T02100180 IEM_DS3505
ZBAA,1996-05-26 00:00,ZBAA 260000Z AUTO 02006KT 4SM 22/16 A2983 RMK 60000 SLP109 T02230155 52021 IEM_DS3505
ZBAA,1996-05-26 01:00,ZBAA 260100Z AUTO ////02KT 4SM 23/18 A2985 RMK SLP113 T02300180 IEM_DS3505
ZBAA,1996-05-26 02:00,ZBAA 260200Z AUTO 07006KT 7SM 24/18 A2985 RMK SLP112 T02400180 IEM_DS3505
ZBAA,1996-05-26 03:00,ZBAA 260300Z AUTO 02008KT 4SM 24/16 A2985 RMK SLP116 T02350156 52007 IEM_DS3505
ZBAA,1996-05-26 04:00,ZBAA 260400Z AUTO 33012KT 6SM 23/17 A2988 RMK SLP123 T02300170 IEM_DS3505
ZBAA,1996-05-26 05:00,ZBAA 260500Z AUTO 34008KT 7SM 22/16 A2988 RMK SLP123 T02200160 IEM_DS3505
ZBAA,1996-05-26 06:00,ZBAA 260600Z AUTO 36008KT 6SM 21/15 A2985 RMK SLP119 T02130147 52002 IEM_DS3505
ZBAA,1996-05-26 07:00,ZBAA 260700Z AUTO 34006KT 7SM 23/16 A2985 RMK SLP113 T02300160 IEM_DS3505
ZBAA,1996-05-26 08:00,ZBAA 260800Z AUTO 30006KT 7SM 22/17 A2985 RMK SLP113 T02200170 IEM_DS3505
ZBAA,1996-05-26 09:00,ZBAA 260900Z AUTO 36006KT 7SM 22/14 A2985 RMK SLP117 T02240143 57002 IEM_DS3505
ZBAA,1996-05-26 10:00,ZBAA 261000Z AUTO 32008KT 6SM 22/16 A2985 RMK SLP113 T02200160 IEM_DS3505
ZBAA,1996-05-26 11:00,ZBAA 261100Z AUTO 02006KT 6SM 22/17 A2985 RMK SLP113 T02200170 IEM_DS3505
ZBAA,1996-05-26 12:00,ZBAA 261200Z AUTO 36006KT 9SM 21/14 A2985 RMK SLP116 T02130143 57001 IEM_DS3505
ZBAA,1996-05-26 13:00,ZBAA 261300Z AUTO 04006KT 6SM 22/17 A2988 RMK SLP123 T02200170 IEM_DS3505
ZBAA,1996-05-26 14:00,ZBAA 261400Z AUTO ////04KT 6SM 22/17 A2988 RMK SLP123 T02200170 IEM_DS3505
ZBAA,1996-05-26 15:00,ZBAA 261500Z AUTO 02004KT 7SM 22/14 A2988 RMK SLP125 T02190139 52009 IEM_DS3505
ZBAA,1996-05-26 16:00,ZBAA 261600Z AUTO ////04KT 6SM 20/17 A2988 RMK SLP123 T02000170 IEM_DS3505
ZBAA,1996-05-26 18:00,ZBAA 261800Z AUTO 02002KT 6SM 20/15 A2989 RMK SLP125 T01970148 54000 IEM_DS3505
ZBAA,1996-05-26 20:00,ZBAA 262000Z AUTO 36004KT 6SM 19/16 A2988 RMK SLP124 T01900160 IEM_DS3505
ZBAA,1996-05-26 21:00,ZBAA 262100Z AUTO 02004KT 6SM 19/14 A2988 RMK 70000 SLP128 T01890143 52003 IEM_DS3505
ZBAA,1996-05-26 22:00,ZBAA 262200Z AUTO 36004KT 5SM 18/17 A2991 RMK SLP134 T01800170 IEM_DS3505
ZBAA,1996-05-26 23:00,ZBAA 262300Z AUTO 05002KT 5SM 19/17 A2991 RMK SLP134 T01900170 IEM_DS3505
ZBAA,1996-05-27 00:00,ZBAA 270000Z AUTO 34002KT 4SM 22/15 A2991 RMK SLP138 T02150146 52010 IEM_DS3505
ZBAA,1996-05-27 01:00,ZBAA 270100Z AUTO ////02KT 4SM 21/17 A2991 RMK SLP133 T02100170 IEM_DS3505
ZBAA,1996-05-27 03:00,ZBAA 270300Z AUTO 34004KT 5SM 25/15 A2991 RMK SLP137 T02470151 57001 IEM_DS3505
ZBAA,1996-05-27 04:00,ZBAA 270400Z AUTO ////04KT 5SM 24/17 A2991 RMK SLP133 T02400170 IEM_DS3505
ZBAA,1996-05-27 05:00,ZBAA 270500Z AUTO ////04KT 5SM 25/16 A2988 RMK SLP122 T02500160 IEM_DS3505
ZBAA,1996-05-27 06:00,ZBAA 270600Z AUTO 09006KT 6SM 27/14 A2988 RMK SLP122 T02710135 57015 IEM_DS3505
ZBAA,1996-05-27 07:00,ZBAA 270700Z AUTO ////04KT 6SM 28/16 A2985 RMK SLP112 T02800160 IEM_DS3505
ZBAA,1996-05-27 08:00,ZBAA 270800Z AUTO 19006KT 6SM 28/16 A2983 RMK SLP105 T02800160 IEM_DS3505
ZBAA,1996-05-27 09:00,ZBAA 270900Z AUTO 16006KT 6SM 27/14 A2983 RMK SLP109 T02720137 57013 IEM_DS3505
ZBAA,1996-05-27 10:00,ZBAA 271000Z AUTO 18010KT 6SM 26/15 A2983 RMK SLP105 T02600150 IEM_DS3505
ZBAA,1996-05-27 12:00,ZBAA 271200Z AUTO 18006KT 9SM 25/09 A2985 RMK SLP112 T02480093 52003 IEM_DS3505
ZBAA,1996-05-27 13:00,ZBAA 271300Z AUTO 16008KT 6SM 23/12 A2985 RMK SLP113 T02300120 IEM_DS3505
ZBAA,1996-05-27 14:00,ZBAA 271400Z AUTO 17006KT 6SM 22/11 A2988 RMK SLP123 T02200110 IEM_DS3505
ZBAA,1996-05-27 15:00,ZBAA 271500Z AUTO 16002KT 7SM 22/11 A2985 RMK SLP115 T02220111 52003 IEM_DS3505
ZBAA,1996-05-27 16:00,ZBAA 271600Z AUTO 08002KT 5SM 19/14 A2985 RMK SLP114 T01900140 IEM_DS3505
ZBAA,1996-05-27 18:00,ZBAA 271800Z AUTO 32004KT 6SM 19/14 A2986 RMK SLP115 T01900138 54000 IEM_DS3505
ZBAA,1996-05-27 20:00,ZBAA 272000Z AUTO 16002KT 4SM 17/16 A2985 RMK SLP114 T01700160 IEM_DS3505
ZBAA,1996-05-27 21:00,ZBAA 272100Z AUTO 00000KT 6SM 17/13 A2985 RMK SLP116 T01720129 52001 IEM_DS3505
ZBAA,1996-05-27 22:00,ZBAA 272200Z AUTO 00000KT 2 1/2SM 16/16 A2988 RMK SLP124 T01600160 IEM_DS3505
ZBAA,1996-05-27 23:00,ZBAA 272300Z AUTO 18004KT 2SM 18/17 A2988 RMK SLP124 T01800170 IEM_DS3505
ZBAA,1996-05-28 00:00,ZBAA 280000Z AUTO 25004KT 4SM 20/15 A2988 RMK SLP122 T02050151 52006 IEM_DS3505
ZBAA,1996-05-28 01:00,ZBAA 280100Z AUTO ////02KT 2SM 21/18 A2988 RMK SLP123 T02100180 IEM_DS3505
ZBAA,1996-05-28 02:00,ZBAA 280200Z AUTO ////06KT 2SM 23/19 A2988 RMK SLP123 T02300190 IEM_DS3505
ZBAA,1996-05-28 03:00,ZBAA 280300Z AUTO 16006KT 5SM 26/14 A2985 RMK SLP116 T02590136 57005 IEM_DS3505
ZBAA,1996-05-28 04:00,ZBAA 280400Z AUTO ////06KT 4SM 26/17 A2985 RMK SLP112 T02600170 IEM_DS3505
ZBAA,1996-05-28 05:00,ZBAA 280500Z AUTO 19008KT 4SM 29/17 A2983 RMK SLP104 T02900170 IEM_DS3505
ZBAA,1996-05-28 06:00,ZBAA 280600Z AUTO 14008KT 6SM 29/09 A2980 RMK SLP095 T02930092 57021 IEM_DS3505
ZBAA,1996-05-28 07:00,ZBAA 280700Z AUTO 17010KT 6SM 30/14 A2980 RMK SLP094 T03000140 IEM_DS3505
ZBAA,1996-05-28 08:00,ZBAA 280800Z AUTO 17010KT 7SM 31/14 A2977 RMK SLP084 T03100140 IEM_DS3505
ZBAA,1996-05-28 09:00,ZBAA 280900Z AUTO 20010KT 7SM 30/08 A2974 RMK SLP080 T03000082 57015 IEM_DS3505
ZBAA,1996-05-28 10:00,ZBAA 281000Z AUTO 17008KT 6SM 29/14 A2974 RMK SLP073 T02900140 IEM_DS3505
ZBAA,1996-05-28 11:00,ZBAA 281100Z AUTO 19006KT 6SM 27/13 A2974 RMK SLP074 T02700130 IEM_DS3505
ZBAA,1996-05-28 12:00,ZBAA 281200Z AUTO 7SM 26/13 A2977 RMK SLP082 T02600130 52002 IEM_DS3505
ZBAA,1996-05-28 13:00,ZBAA 281300Z AUTO 14004KT 7SM 25/13 A2980 RMK SLP095 T02500130 IEM_DS3505
ZBAA,1996-05-28 14:00,ZBAA 281400Z AUTO 15004KT 7SM 24/13 A2980 RMK SLP095 T02400130 IEM_DS3505
ZBAA,1996-05-28 15:00,ZBAA 281500Z AUTO 20006KT 11SM 24/12 A2980 RMK SLP090 T02400122 52008 IEM_DS3505
ZBAA,1996-05-28 16:00,ZBAA 281600Z AUTO 18002KT 7SM 20/14 A2980 RMK SLP096 T02000140 IEM_DS3505
ZBAA,1996-05-28 18:00,ZBAA 281800Z AUTO 00000KT 6SM 20/14 A2980 RMK SLP094 T02010141 52004 IEM_DS3505
ZBAA,1996-05-28 20:00,ZBAA 282000Z AUTO 10004KT 7SM 17/14 A2980 RMK SLP097 T01700140 IEM_DS3505
ZBAA,1996-05-28 21:00,ZBAA 282100Z AUTO 04004KT 6SM 19/13 A2980 RMK SLP096 T01860126 52002 IEM_DS3505
ZBAA,1996-05-28 22:00,ZBAA 282200Z AUTO 03004KT 3SM 17/14 A2983 RMK SLP107 T01700140 IEM_DS3505
ZBAA,1996-05-28 23:00,ZBAA 282300Z AUTO 04002KT 3SM 19/15 A2983 RMK SLP106 T01900150 IEM_DS3505
ZBAA,1996-05-29 00:00,ZBAA 290000Z AUTO 34002KT 5SM 22/14 A2985 RMK SLP110 T02160137 52014 IEM_DS3505
ZBAA,1996-05-29 01:00,ZBAA 290100Z AUTO ////02KT 2 1/2SM 23/17 A2985 RMK SLP113 T02300170 IEM_DS3505
ZBAA,1996-05-29 02:00,ZBAA 290200Z AUTO ////02KT 2 1/2SM 25/18 A2985 RMK SLP112 T02500180 IEM_DS3505
ZBAA,1996-05-29 03:00,ZBAA 290300Z AUTO 32004KT 1 1/4SM 28/14 A2985 RMK SLP107 T02760140 57003 IEM_DS3505
ZBAA,1996-05-29 04:00,ZBAA 290400Z AUTO ////04KT 2 1/2SM 29/16 A2983 RMK SLP104 T02900160 IEM_DS3505
ZBAA,1996-05-29 05:00,ZBAA 290500Z AUTO ////06KT 3SM 30/17 A2980 RMK SLP094 T03000170 IEM_DS3505
ZBAA,1996-05-29 06:00,ZBAA 290600Z AUTO 20008KT 2SM 31/09 A2977 RMK SLP088 T03130091 57019 IEM_DS3505
ZBAA,1996-05-29 07:00,ZBAA 290700Z AUTO 17008KT 5SM 32/16 A2977 RMK SLP084 T03200160 IEM_DS3505
ZBAA,1996-05-29 08:00,ZBAA 290800Z AUTO 16008KT 7SM 32/17 A2977 RMK SLP084 T03200170 IEM_DS3505
ZBAA,1996-05-29 09:00,ZBAA 290900Z AUTO 20010KT 4SM 31/14 A2974 RMK SLP079 T03100136 57009 IEM_DS3505
ZBAA,1996-05-29 10:00,ZBAA 291000Z AUTO 17008KT 7SM 30/17 A2974 RMK SLP073 T03000170 IEM_DS3505
ZBAA,1996-05-29 11:00,ZBAA 291100Z AUTO 17008KT 7SM 29/18 A2977 RMK SLP084 T02900180 IEM_DS3505
ZBAA,1996-05-29 12:00,ZBAA 291200Z AUTO 18008KT 6SM 28/16 A2977 RMK SLP085 T02800158 52006 IEM_DS3505
ZBAA,1996-05-29 13:00,ZBAA 291300Z AUTO 18006KT 5SM 26/17 A2980 RMK SLP095 T02600170 IEM_DS3505
ZBAA,1996-05-29 14:00,ZBAA 291400Z AUTO 17008KT 5SM 26/17 A2983 RMK SLP105 T02600170 IEM_DS3505
ZBAA,1996-05-29 15:00,ZBAA 291500Z AUTO 18008KT 6SM 25/17 A2983 RMK SLP100 T02540171 52015 IEM_DS3505
ZBAA,1996-05-29 18:00,ZBAA 291800Z AUTO 20004KT 6SM 23/18 A2982 RMK SLP102 T02260180 52002 IEM_DS3505
ZBAA,1996-05-29 20:00,ZBAA 292000Z AUTO 10002KT 4SM 19/18 A2983 RMK SLP106 T01900180 IEM_DS3505
ZBAA,1996-05-29 21:00,ZBAA 292100Z AUTO 00000KT 1 1/4SM 20/18 A2985 RMK SLP108 T02040175 52006 IEM_DS3505
ZBAA,1996-05-29 22:00,ZBAA 292200Z AUTO 05002KT 3SM 19/18 A2985 RMK SLP114 T01900180 IEM_DS3505
ZBAA,1996-05-29 23:00,ZBAA 292300Z AUTO 01002KT 3SM 20/19 A2988 RMK SLP123 T02000190 IEM_DS3505
ZBAA,1996-05-30 00:00,ZBAA 300000Z AUTO 00000KT 1 1/4SM 24/18 A2988 RMK SLP123 T02370175 52015 IEM_DS3505
ZBAA,1996-05-30 01:00,ZBAA 300100Z AUTO ////04KT 4SM 24/20 A2988 RMK SLP123 T02400200 IEM_DS3505
ZBAA,1996-05-30 02:00,ZBAA 300200Z AUTO ////04KT 4SM 26/21 A2988 RMK SLP122 T02600210 IEM_DS3505
ZBAA,1996-05-30 03:00,ZBAA 300300Z AUTO 27004KT 2 1/2SM 29/17 A2988 RMK SLP122 T02890171 57001 IEM_DS3505
ZBAA,1996-05-30 04:00,ZBAA 300400Z AUTO ////04KT 4SM 31/20 A2985 RMK SLP111 T03100200 IEM_DS3505
ZBAA,1996-05-30 05:00,ZBAA 300500Z AUTO ////04KT 5SM 31/18 A2985 RMK SLP111 T03100180 IEM_DS3505
ZBAA,1996-05-30 06:00,ZBAA 300600Z AUTO 18010KT 3SM 33/12 A2983 RMK SLP103 T03300124 57019 IEM_DS3505
ZBAA,1996-05-30 07:00,ZBAA 300700Z AUTO 17008KT 7SM 34/17 A2980 RMK SLP093 T03400170 IEM_DS3505
ZBAA,1996-05-30 08:00,ZBAA 300800Z AUTO 17010KT 7SM 34/15 A2980 RMK SLP093 T03400150 IEM_DS3505
ZBAA,1996-05-30 09:00,ZBAA 300900Z AUTO 18010KT 2 1/2SM 33/12 A2980 RMK SLP091 T03260120 57012 IEM_DS3505
ZBAA,1996-05-30 10:00,ZBAA 301000Z AUTO 17010KT 7SM 32/12 A2980 RMK SLP094 T03200120 IEM_DS3505
ZBAA,1996-05-30 11:00,ZBAA 301100Z AUTO 18006KT 7SM 30/13 A2980 RMK SLP094 T03000130 IEM_DS3505
ZBAA,1996-05-30 12:00,ZBAA 301200Z AUTO 18008KT 6SM 30/14 A2983 RMK SLP101 T02970143 52010 IEM_DS3505
ZBAA,1996-05-30 13:00,ZBAA 301300Z AUTO 16006KT 7SM 28/14 A2985 RMK SLP112 T02800140 IEM_DS3505
ZBAA,1996-05-30 14:00,ZBAA 301400Z AUTO ////06KT 7SM 27/16 A2985 RMK SLP112 T02700160 IEM_DS3505
ZBAA,1996-05-30 15:00,ZBAA 301500Z AUTO 18006KT 5SM 26/16 A2985 RMK SLP118 T02640157 52017 IEM_DS3505
ZBAA,1996-05-30 16:00,ZBAA 301600Z AUTO 14006KT 7SM 25/16 A2988 RMK SLP122 T02500160 IEM_DS3505
ZBAA,1996-05-30 18:00,ZBAA 301800Z AUTO 34002KT 6SM 24/16 A2987 RMK SLP117 T02350162 57001 IEM_DS3505
ZBAA,1996-05-30 20:00,ZBAA 302000Z AUTO 04002KT 7SM 19/16 A2988 RMK SLP124 T01900160 IEM_DS3505
ZBAA,1996-05-30 21:00,ZBAA 302100Z AUTO 34004KT 4SM 22/15 A2988 RMK SLP123 T02160153 52006 IEM_DS3505
ZBAA,1996-05-30 22:00,ZBAA 302200Z AUTO 00000KT 5SM 19/16 A2988 RMK SLP124 T01900160 IEM_DS3505
ZBAA,1996-05-30 23:00,ZBAA 302300Z AUTO 06002KT 5SM 20/17 A2991 RMK SLP133 T02000170 IEM_DS3505
ZBAA,1996-05-31 00:00,ZBAA 310000Z AUTO 29002KT 4SM 24/16 A2991 RMK SLP135 T02430156 52012 IEM_DS3505
ZBAA,1996-05-31 01:00,ZBAA 310100Z AUTO ////02KT 4SM 25/18 A2991 RMK SLP132 T02500180 IEM_DS3505
ZBAA,1996-05-31 02:00,ZBAA 310200Z AUTO ////04KT 4SM 28/19 A2991 RMK SLP132 T02800190 IEM_DS3505
ZBAA,1996-05-31 03:00,ZBAA 310300Z AUTO 20012KT 9SM 31/09 A2988 RMK SLP129 T03080087 57006 IEM_DS3505
ZBAA,1996-05-31 04:00,ZBAA 310400Z AUTO 21010KT 4SM 33/12 A2988 RMK SLP121 T03300120 IEM_DS3505
ZBAA,1996-05-31 05:00,ZBAA 310500Z AUTO 20012KT 4SM 33/13 A2988 RMK SLP121 T03300130 IEM_DS3505
ZBAA,1996-05-31 06:00,ZBAA 310600Z AUTO 20012KT 9SM 32/08 A2985 RMK SLP111 T03240076 57018 IEM_DS3505
ZBAA,1996-05-31 07:00,ZBAA 310700Z AUTO 19014G23KT 7SM 33/13 A2983 RMK SLP104 T03300130 IEM_DS3505
ZBAA,1996-05-31 08:00,ZBAA 310800Z AUTO 17012KT 7SM 33/14 A2980 RMK SLP093 T03300140 IEM_DS3505
ZBAA,1996-05-31 09:00,ZBAA 310900Z AUTO 20014KT 12SM 32/10 A2980 RMK SLP096 T03150099 57015 IEM_DS3505
ZBAA,1996-05-31 10:00,ZBAA 311000Z AUTO 19014KT 6SM 31/13 A2980 RMK SLP094 T03100130 IEM_DS3505
ZBAA,1996-05-31 11:00,ZBAA 311100Z AUTO 21008KT 6SM 29/12 A2980 RMK SLP094 T02900120 IEM_DS3505
ZBAA,1996-05-31 12:00,ZBAA 311200Z AUTO 20008KT 7SM 29/13 A2980 RMK SLP096 T02900133 54000 IEM_DS3505
ZBAA,1996-05-31 13:00,ZBAA 311300Z AUTO 15004KT 6SM 27/14 A2983 RMK SLP105 T02700140 IEM_DS3505
ZBAA,1996-05-31 14:00,ZBAA 311400Z AUTO 13004KT 6SM 25/15 A2983 RMK SLP105 T02500150 IEM_DS3505
ZBAA,1996-05-31 15:00,ZBAA 311500Z AUTO 18006KT 7SM 26/14 A2980 RMK SLP096 T02650140 52001 IEM_DS3505
ZBAA,1996-05-31 16:00,ZBAA 311600Z AUTO 14008KT 5SM 24/16 A2980 RMK SLP095 T02400160 IEM_DS3505
ZBAA,1996-05-31 17:00,ZBAA 311700Z AUTO 16008KT 5SM 25/16 A2980 RMK SLP095 T02500160 IEM_DS3505
ZBAA,1996-05-31 18:00,ZBAA 311800Z AUTO 18008KT 7SM 24/15 A2980 RMK SLP094 T02440146 57002 IEM_DS3505
ZBAA,1996-05-31 20:00,ZBAA 312000Z AUTO 27002KT 6SM 23/16 A2980 RMK SLP096 T02300160 IEM_DS3505
ZBAA,1996-05-31 21:00,ZBAA 312100Z AUTO 18006KT 7SM 23/15 A2980 RMK SLP091 T02280148 57004 IEM_DS3505
ZBAA,1996-05-31 22:00,ZBAA 312200Z AUTO 35002KT 4SM 21/17 A2980 RMK SLP096 T02100170 IEM_DS3505
ZBAA,1996-05-31 23:00,ZBAA 312300Z AUTO ////02KT 4SM 22/18 A2980 RMK SLP096 T02200180 IEM_DS3505
ZBAA,1996-06-01 00:00,ZBAA 010000Z AUTO 00000KT 4SM 24/15 A2983 RMK SLP100 T02450149 52009 IEM_DS3505
ZBAA,1996-06-01 01:00,ZBAA 010100Z AUTO ////04KT 3SM 25/17 A2983 RMK SLP105 T02500170 IEM_DS3505
ZBAA,1996-06-01 02:00,ZBAA 010200Z AUTO 00000KT 3SM 27/18 A2980 RMK SLP095 T02700180 IEM_DS3505
ZBAA,1996-06-01 03:00,ZBAA 010300Z AUTO 20004KT 4SM 28/15 A2980 RMK SLP100 T02820148 54000 IEM_DS3505
ZBAA,1996-06-01 04:00,ZBAA 010400Z AUTO ////02KT 3SM 28/20 A2980 RMK SLP095 T02800200 IEM_DS3505
ZBAA,1996-06-01 05:00,ZBAA 010500Z AUTO ////04KT 3SM 30/17 A2980 RMK SLP094 T03000170 IEM_DS3505
ZBAA,1996-06-01 06:00,ZBAA 010600Z AUTO 16006KT 6SM 31/12 A2977 RMK SLP086 T03110121 57013 IEM_DS3505
ZBAA,1996-06-01 07:00,ZBAA 010700Z AUTO 17010KT 6SM 31/14 A2974 RMK SLP073 T03100140 IEM_DS3505
ZBAA,1996-06-01 08:00,ZBAA 010800Z AUTO 17010KT 6SM 31/13 A2974 RMK SLP073 T03100130 IEM_DS3505
ZBAA,1996-06-01 09:00,ZBAA 010900Z AUTO 18008KT 6SM 30/12 A2974 RMK SLP071 T02980122 57016 IEM_DS3505
ZBAA,1996-06-01 10:00,ZBAA 011000Z AUTO 18006KT 6SM 29/13 A2974 RMK SLP073 T02900130 IEM_DS3505
ZBAA,1996-06-01 11:00,ZBAA 011100Z AUTO 16006KT 6SM 28/13 A2974 RMK SLP073 T02800130 IEM_DS3505
ZBAA,1996-06-01 12:00,ZBAA 011200Z AUTO 18006KT 6SM 28/12 A2974 RMK SLP074 T02800124 52003 IEM_DS3505
ZBAA,1996-06-01 13:00,ZBAA 011300Z AUTO 15004KT 6SM 27/14 A2977 RMK SLP085 T02700140 IEM_DS3505
ZBAA,1996-06-01 14:00,ZBAA 011400Z AUTO 15004KT 6SM 26/16 A2977 RMK SLP085 T02600160 IEM_DS3505
ZBAA,1996-06-01 15:00,ZBAA 011500Z AUTO 20002KT 6SM 27/16 A2977 RMK SLP079 T02680160 52006 IEM_DS3505
ZBAA,1996-06-01 16:00,ZBAA 011600Z AUTO ////04KT 5SM 25/17 A2977 RMK SLP085 T02500170 IEM_DS3505
ZBAA,1996-06-01 18:00,ZBAA 011800Z AUTO 04002KT 6SM 24/16 A2974 RMK SLP075 T02440165 57004 IEM_DS3505
ZBAA,1996-06-01 20:00,ZBAA 012000Z AUTO 05004KT 4SM 22/18 A2974 RMK SLP075 T02200180 IEM_DS3505
ZBAA,1996-06-01 21:00,ZBAA 012100Z AUTO 36006KT 5SM 23/16 A2974 RMK SLP076 T02300156 54000 IEM_DS3505
ZBAA,1996-06-01 22:00,ZBAA 012200Z AUTO 03004KT 4SM 22/16 A2974 RMK SLP075 T02200160 IEM_DS3505
ZBAA,1996-06-01 23:00,ZBAA 012300Z AUTO 35004KT 4SM 22/17 A2977 RMK SLP086 T02200170 IEM_DS3505
ZBAA,1996-06-02 00:00,ZBAA 020000Z AUTO 34002KT 5SM 25/17 A2977 RMK SLP082 T02480166 52006 IEM_DS3505
ZBAA,1996-06-02 01:00,ZBAA 020100Z AUTO ////04KT 4SM 25/19 A2977 RMK SLP085 T02500190 IEM_DS3505
ZBAA,1996-06-02 02:00,ZBAA 020200Z AUTO ////02KT 3SM 27/20 A2974 RMK SLP074 T02700200 IEM_DS3505
ZBAA,1996-06-02 03:00,ZBAA 020300Z AUTO 11004KT 5SM 28/16 A2974 RMK SLP077 T02800164 57004 IEM_DS3505
ZBAA,1996-06-02 04:00,ZBAA 020400Z AUTO ////04KT 3SM 29/20 A2974 RMK SLP073 T02900200 IEM_DS3505
ZBAA,1996-06-02 05:00,ZBAA 020500Z AUTO ////04KT 3SM 31/21 A2971 RMK SLP063 T03100210 IEM_DS3505
ZBAA,1996-06-02 06:00,ZBAA 020600Z AUTO 16006KT 4SM 32/19 A2968 RMK SLP052 T03170186 57025 IEM_DS3505
ZBAA,1996-06-02 07:00,ZBAA 020700Z AUTO 20008KT 4SM 32/20 A2965 RMK SLP042 T03200200 IEM_DS3505
ZBAA,1996-06-02 08:00,ZBAA 020800Z AUTO 19010KT 4SM 33/20 A2962 RMK SLP032 T03300200 IEM_DS3505
ZBAA,1996-06-02 09:00,ZBAA 020900Z AUTO 20008KT 5SM 31/18 A2959 RMK SLP039 T03120180 57013 IEM_DS3505
ZBAA,1996-06-02 10:00,ZBAA 021000Z AUTO 19010KT 4SM 31/20 A2962 RMK SLP033 T03100200 IEM_DS3505
ZBAA,1996-06-02 11:00,ZBAA 021100Z AUTO 15006KT 4SM 30/19 A2965 RMK SLP043 T03000190 IEM_DS3505
ZBAA,1996-06-02 12:00,ZBAA 021200Z AUTO 16006KT 5SM 30/18 A2965 RMK SLP046 T02970179 52007 IEM_DS3505
ZBAA,1996-06-02 13:00,ZBAA 021300Z AUTO ////04KT 4SM 27/18 A2971 RMK SLP064 T02700180 IEM_DS3505
ZBAA,1996-06-02 14:00,ZBAA 021400Z AUTO ////04KT 4SM 27/18 A2971 RMK SLP064 T02700180 IEM_DS3505
ZBAA,1996-06-02 15:00,ZBAA 021500Z AUTO 32004KT 4SM 27/18 A2971 RMK SLP064 T02680179 52018 IEM_DS3505
ZBAA,1996-06-02 16:00,ZBAA 021600Z AUTO 01004KT 3SM 25/20 A2974 RMK SLP074 T02500200 IEM_DS3505
ZBAA,1996-06-02 18:00,ZBAA 021800Z AUTO 36008KT 6SM 27/10 A2974 RMK SLP075 T02690100 52011 IEM_DS3505
ZBAA,1996-06-02 20:00,ZBAA 022000Z AUTO 01010KT 6SM 24/04 A2977 RMK SLP085 T02400040 IEM_DS3505
ZBAA,1996-06-02 21:00,ZBAA 022100Z AUTO 34006KT 12SM 25/M03 A2980 RMK SLP094 T02491033 52019 IEM_DS3505
ZBAA,1996-06-02 22:00,ZBAA 022200Z AUTO 01006KT 6SM 23/00 A2983 RMK SLP106 T02300000 IEM_DS3505
ZBAA,1996-06-02 23:00,ZBAA 022300Z AUTO 01006KT 6SM 23/02 A2985 RMK SLP113 T02300020 IEM_DS3505
ZBAA,1996-06-03 00:00,ZBAA 030000Z AUTO 34012KT 16SM 27/M05 A2985 RMK SLP117 T02661054 52022 IEM_DS3505
ZBAA,1996-06-03 01:00,ZBAA 030100Z AUTO 01014KT 6SM 27/01 A2985 RMK SLP112 T02700010 IEM_DS3505
ZBAA,1996-06-03 02:00,ZBAA 030200Z AUTO 04010KT 7SM 27/02 A2988 RMK SLP122 T02700020 IEM_DS3505
ZBAA,1996-06-03 03:00,ZBAA 030300Z AUTO 04008KT 12SM 29/M01 A2985 RMK SLP113 T02901006 57004 IEM_DS3505
ZBAA,1996-06-03 04:00,ZBAA 030400Z AUTO 06010KT 7SM 29/04 A2983 RMK SLP104 T02900040 IEM_DS3505
ZBAA,1996-06-03 05:00,ZBAA 030500Z AUTO 06008KT 6SM 29/05 A2980 RMK SLP094 T02900050 IEM_DS3505
ZBAA,1996-06-03 06:00,ZBAA 030600Z AUTO 04006KT 9SM 31/01 A2977 RMK SLP084 T03060010 57028 IEM_DS3505
ZBAA,1996-06-03 07:00,ZBAA 030700Z AUTO 07006KT 6SM 29/05 A2977 RMK SLP084 T02900050 IEM_DS3505
ZBAA,1996-06-03 08:00,ZBAA 030800Z AUTO ////02KT 6SM 29/06 A2974 RMK SLP073 T02900060 IEM_DS3505
ZBAA,1996-06-03 09:00,ZBAA 030900Z AUTO 16002KT 11SM 29/04 A2974 RMK SLP080 T02900035 57005 IEM_DS3505
ZBAA,1996-06-03 10:00,ZBAA 031000Z AUTO ////06KT 6SM 28/06 A2974 RMK SLP073 T02800060 IEM_DS3505
ZBAA,1996-06-03 11:00,ZBAA 031100Z AUTO ////02KT 6SM 27/05 A2977 RMK SLP085 T02700050 IEM_DS3505
ZBAA,1996-06-03 12:00,ZBAA 031200Z AUTO 25004KT 11SM 27/05 A2978 RMK SLP088 T02740046 52008 IEM_DS3505
ZBAA,1996-06-03 14:00,ZBAA 031400Z AUTO ////06KT 6SM 21/14 A2983 RMK SLP106 T02100140 IEM_DS3505
ZBAA,1996-06-03 15:00,ZBAA 031500Z AUTO 09004KT 11SM 25/07 A2983 RMK SLP100 T02510066 52012 IEM_DS3505
ZBAA,1996-06-03 18:00,ZBAA 031800Z AUTO 34004KT 12SM 21/13 A2983 RMK SLP106 T02060133 52006 IEM_DS3505
ZBAA,1996-06-03 20:00,ZBAA 032000Z AUTO 00000KT 6SM 18/12 A2985 RMK SLP114 T01800120 IEM_DS3505
ZBAA,1996-06-03 21:00,ZBAA 032100Z AUTO 04004KT 7SM 20/12 A2985 RMK SLP113 T01950122 52007 IEM_DS3505
ZBAA,1996-06-03 22:00,ZBAA 032200Z AUTO 00000KT 6SM 18/13 A2985 RMK SLP114 T01800130 IEM_DS3505
ZBAA,1996-06-03 23:00,ZBAA 032300Z AUTO ////02KT 6SM 20/14 A2988 RMK SLP123 T02000140 IEM_DS3505
ZBAA,1996-06-04 00:00,ZBAA 040000Z AUTO 00000KT 4SM 22/13 A2988 RMK SLP123 T02150126 52010 IEM_DS3505
ZBAA,1996-06-04 01:00,ZBAA 040100Z AUTO 32004KT 6SM 22/13 A2988 RMK SLP123 T02200130 IEM_DS3505
ZBAA,1996-06-04 02:00,ZBAA 040200Z AUTO ////06KT 6SM 23/11 A2985 RMK SLP113 T02300110 IEM_DS3505
ZBAA,1996-06-04 03:00,ZBAA 040300Z AUTO 32002KT 5SM 26/09 A2985 RMK SLP119 T02550094 57004 IEM_DS3505
ZBAA,1996-06-04 04:00,ZBAA 040400Z AUTO ////02KT 6SM 26/12 A2985 RMK SLP112 T02600120 IEM_DS3505
ZBAA,1996-06-04 05:00,ZBAA 040500Z AUTO ////02KT 6SM 27/12 A2985 RMK SLP112 T02700120 IEM_DS3505
ZBAA,1996-06-04 06:00,ZBAA 040600Z AUTO 14004KT 6SM 29/08 A2983 RMK SLP105 T02890077 57014 IEM_DS3505
ZBAA,1996-06-04 07:00,ZBAA 040700Z AUTO ////02KT 6SM 29/12 A2980 RMK SLP094 T02900120 IEM_DS3505
ZBAA,1996-06-04 08:00,ZBAA 040800Z AUTO 17006KT 6SM 30/10 A2980 RMK SLP094 T03000100 IEM_DS3505
ZBAA,1996-06-04 09:00,ZBAA 040900Z AUTO 14006KT 6SM 29/07 A2977 RMK SLP084 T02940071 57021 IEM_DS3505
ZBAA,1996-06-04 10:00,ZBAA 041000Z AUTO ////06KT 6SM 29/11 A2977 RMK SLP084 T02900110 IEM_DS3505
ZBAA,1996-06-04 11:00,ZBAA 041100Z AUTO 15004KT 6SM 27/10 A2977 RMK SLP085 T02700100 IEM_DS3505
ZBAA,1996-06-04 12:00,ZBAA 041200Z AUTO 18008KT 6SM 27/12 A2977 RMK SLP084 T02720119 54000 IEM_DS3505
ZBAA,1996-06-04 13:00,ZBAA 041300Z AUTO 16006KT 6SM 25/12 A2980 RMK SLP095 T02500120 IEM_DS3505
ZBAA,1996-06-04 14:00,ZBAA 041400Z AUTO 14006KT 6SM 24/13 A2980 RMK SLP095 T02400130 IEM_DS3505
ZBAA,1996-06-04 15:00,ZBAA 041500Z AUTO 18006KT 7SM 24/13 A2980 RMK SLP090 T02430130 52006 IEM_DS3505
ZBAA,1996-06-04 16:00,ZBAA 041600Z AUTO 10006KT 6SM 20/15 A2980 RMK SLP096 T02000150 IEM_DS3505
ZBAA,1996-06-04 18:00,ZBAA 041800Z AUTO 02004KT 6SM 21/14 A2979 RMK SLP092 T02110141 52002 IEM_DS3505
ZBAA,1996-06-04 20:00,ZBAA 042000Z AUTO 07002KT 6SM 18/13 A2980 RMK SLP097 T01800130 IEM_DS3505
ZBAA,1996-06-04 21:00,ZBAA 042100Z AUTO 36004KT 5SM 20/13 A2983 RMK SLP099 T01950134 52007 IEM_DS3505
ZBAA,1996-06-04 22:00,ZBAA 042200Z AUTO 07004KT 7SM 18/13 A2983 RMK SLP107 T01800130 IEM_DS3505
ZBAA,1996-06-04 23:00,ZBAA 042300Z AUTO 10006KT 7SM 18/13 A2983 RMK SLP107 T01800130 IEM_DS3505
ZBAA,1996-06-05 00:00,ZBAA 050000Z AUTO 36004KT 4SM 22/13 A2983 RMK SLP106 T02150126 52007 IEM_DS3505
ZBAA,1996-06-05 01:00,ZBAA 050100Z AUTO ////04KT 4SM 22/15 A2983 RMK SLP106 T02200150 IEM_DS3505
ZBAA,1996-06-05 02:00,ZBAA 050200Z AUTO ////04KT 4SM 23/15 A2983 RMK SLP106 T02300150 IEM_DS3505
ZBAA,1996-06-05 03:00,ZBAA 050300Z AUTO 09004KT 4SM 27/14 A2983 RMK SLP100 T02740137 57006 IEM_DS3505
ZBAA,1996-06-05 04:00,ZBAA 050400Z AUTO 18006KT 4SM 29/17 A2980 RMK SLP094 T02900170 IEM_DS3505
ZBAA,1996-06-05 05:00,ZBAA 050500Z AUTO 20010G19KT 7SM 32/11 A2977 RMK SLP084 T03200110 IEM_DS3505
ZBAA,1996-06-05 06:00,ZBAA 050600Z AUTO 20012KT 4SM 31/06 A2974 RMK SLP082 T03140057 57018 IEM_DS3505
ZBAA,1996-06-05 07:00,ZBAA 050700Z AUTO 18012KT 7SM 32/10 A2974 RMK SLP073 T03200100 IEM_DS3505
ZBAA,1996-06-05 08:00,ZBAA 050800Z AUTO 18014KT 6SM 32/09 A2971 RMK SLP062 T03200090 IEM_DS3505
ZBAA,1996-06-05 09:00,ZBAA 050900Z AUTO 20012KT 7SM 31/07 A2971 RMK SLP063 T03120066 57019 IEM_DS3505
ZBAA,1996-06-05 10:00,ZBAA 051000Z AUTO 18012KT 6SM 31/09 A2971 RMK SLP063 T03100090 IEM_DS3505
ZBAA,1996-06-05 11:00,ZBAA 051100Z AUTO 18008KT 6SM 29/09 A2971 RMK SLP063 T02900090 IEM_DS3505
ZBAA,1996-06-05 12:00,ZBAA 051200Z AUTO 18010KT 9SM 28/07 A2974 RMK SLP067 T02820074 52004 IEM_DS3505
ZBAA,1996-06-05 13:00,ZBAA 051300Z AUTO 16006KT 6SM 26/09 A2974 RMK SLP074 T02600090 IEM_DS3505
ZBAA,1996-06-05 14:00,ZBAA 051400Z AUTO 15004KT 6SM 25/10 A2977 RMK SLP085 T02500100 IEM_DS3505
ZBAA,1996-06-05 15:00,ZBAA 051500Z AUTO 16008KT 10SM 26/10 A2977 RMK SLP075 T02570097 52008 IEM_DS3505
ZBAA,1996-06-05 16:00,ZBAA 051600Z AUTO 14006KT 6SM 23/13 A2977 RMK SLP085 T02300130 IEM_DS3505
ZBAA,1996-06-05 18:00,ZBAA 051800Z AUTO 20004KT 7SM 24/11 A2974 RMK SLP075 T02360108 52001 IEM_DS3505
ZBAA,1996-06-05 21:00,ZBAA 052100Z AUTO 22004KT 7SM 22/12 A2974 RMK SLP077 T02230124 52001 IEM_DS3505
ZBAA,1996-06-05 22:00,ZBAA 052200Z AUTO 07002KT 6SM 20/14 A2977 RMK SLP086 T02000140 IEM_DS3505
ZBAA,1996-06-05 23:00,ZBAA 052300Z AUTO 00000KT 5SM 20/15 A2980 RMK SLP096 T02000150 IEM_DS3505
ZBAA,1996-06-06 00:00,ZBAA 060000Z AUTO 04008KT 5SM 22/12 A2983 RMK SLP093 T02250124 52016 IEM_DS3505
ZBAA,1996-06-06 01:00,ZBAA 060100Z AUTO 33006KT 4SM 22/15 A2983 RMK SLP106 T02200150 IEM_DS3505
ZBAA,1996-06-06 02:00,ZBAA 060200Z AUTO ////04KT 4SM 22/15 A2983 RMK SLP106 T02200150 IEM_DS3505
ZBAA,1996-06-06 03:00,ZBAA 060300Z AUTO 36006KT 7SM 23/11 A2985 RMK SLP110 T02270111 52017 IEM_DS3505
ZBAA,1996-06-06 04:00,ZBAA 060400Z AUTO 31004KT 7SM 23/14 A2985 RMK SLP113 T02300140 IEM_DS3505
ZBAA,1996-06-06 05:00,ZBAA 060500Z AUTO 30006KT 7SM 22/14 A2985 RMK SLP113 T02200140 IEM_DS3505
ZBAA,1996-06-06 06:00,ZBAA 060600Z AUTO 36008KT 9SM 24/12 A2985 RMK SLP119 T02370116 52008 IEM_DS3505
ZBAA,1996-06-06 07:00,ZBAA 060700Z AUTO 31008KT 7SM 24/13 A2985 RMK SLP112 T02400130 IEM_DS3505
ZBAA,1996-06-06 08:00,ZBAA 060800Z AUTO 32008KT 6SM 23/12 A2985 RMK SLP113 T02300120 IEM_DS3505
ZBAA,1996-06-06 09:00,ZBAA 060900Z AUTO 36006KT 12SM 23/11 A2985 RMK SLP120 T02270107 52001 IEM_DS3505
ZBAA,1996-06-06 10:00,ZBAA 061000Z AUTO ////04KT 7SM 23/13 A2983 RMK SLP106 T02300130 IEM_DS3505
ZBAA,1996-06-06 11:00,ZBAA 061100Z AUTO ////02KT 7SM 22/12 A2985 RMK SLP113 T02200120 IEM_DS3505
ZBAA,1996-06-06 12:00,ZBAA 061200Z AUTO 00000KT 12SM 21/13 A2985 RMK SLP116 T02140127 57004 IEM_DS3505
ZBAA,1996-06-06 13:00,ZBAA 061300Z AUTO 00000KT 7SM 20/12 A2988 RMK SLP123 T02000120 IEM_DS3505
ZBAA,1996-06-06 14:00,ZBAA 061400Z AUTO 00000KT 7SM 19/12 A2988 RMK SLP124 T01900120 IEM_DS3505
ZBAA,1996-06-06 15:00,ZBAA 061500Z AUTO 18004KT 9SM 18/12 A2988 RMK SLP129 T01780120 52013 IEM_DS3505
ZBAA,1996-06-06 16:00,ZBAA 061600Z AUTO ////02KT 7SM 18/13 A2988 RMK SLP124 T01800130 IEM_DS3505
ZBAA,1996-06-06 18:00,ZBAA 061800Z AUTO 02004KT 6SM 16/12 A2990 RMK SLP130 T01650124 52001 IEM_DS3505
ZBAA,1996-06-06 20:00,ZBAA 062000Z AUTO 00000KT 7SM 15/12 A2988 RMK SLP125 T01500120 IEM_DS3505
ZBAA,1996-06-06 21:00,ZBAA 062100Z AUTO 00000KT 6SM 16/12 A2991 RMK SLP133 T01550116 52002 IEM_DS3505
ZBAA,1996-06-06 22:00,ZBAA 062200Z AUTO 00000KT 7SM 15/13 A2991 RMK SLP135 T01500130 IEM_DS3505
ZBAA,1996-06-06 23:00,ZBAA 062300Z AUTO 01006KT 7SM 17/13 A2991 RMK SLP134 T01700130 IEM_DS3505
ZBAA,1996-06-07 00:00,ZBAA 070000Z AUTO 04002KT 6SM 22/12 A2991 RMK SLP133 T02190118 52001 IEM_DS3505
ZBAA,1996-06-07 01:00,ZBAA 070100Z AUTO 33002KT 6SM 22/15 A2991 RMK SLP133 T02200150 IEM_DS3505
ZBAA,1996-06-07 02:00,ZBAA 070200Z AUTO ////04KT 6SM 24/14 A2988 RMK SLP123 T02400140 IEM_DS3505
ZBAA,1996-06-07 03:00,ZBAA 070300Z AUTO 18006KT 6SM 26/13 A2988 RMK SLP124 T02610126 57009 IEM_DS3505
ZBAA,1996-06-07 04:00,ZBAA 070400Z AUTO ////04KT 6SM 26/16 A2985 RMK SLP112 T02600160 IEM_DS3505
ZBAA,1996-06-07 05:00,ZBAA 070500Z AUTO ////06KT 6SM 26/16 A2985 RMK SLP112 T02600160 IEM_DS3505
ZBAA,1996-06-07 06:00,ZBAA 070600Z AUTO 25006KT 6SM 27/13 A2983 RMK SLP108 T02720130 4////0154 57016 IEM_DS3505
ZBAA,1996-06-07 07:00,ZBAA 070700Z AUTO 16010KT 6SM 30/17 A2983 RMK SLP104 T03000170 IEM_DS3505
ZBAA,1996-06-07 08:00,ZBAA 070800Z AUTO 18008KT 6SM 31/17 A2980 RMK SLP094 T03100170 IEM_DS3505
ZBAA,1996-06-07 09:00,ZBAA 070900Z AUTO 18012KT 7SM 30/13 A2977 RMK SLP089 T03010129 57019 IEM_DS3505
ZBAA,1996-06-07 10:00,ZBAA 071000Z AUTO 18008KT 6SM 30/16 A2977 RMK SLP084 T03000160 IEM_DS3505
ZBAA,1996-06-07 11:00,ZBAA 071100Z AUTO 17006KT 6SM 28/15 A2977 RMK SLP084 T02800150 IEM_DS3505
ZBAA,1996-06-07 12:00,ZBAA 071200Z AUTO 18008KT 5SM 28/15 A2980 RMK SLP089 T02790150 52001 IEM_DS3505
ZBAA,1996-06-07 13:00,ZBAA 071300Z AUTO 12006KT 6SM 25/17 A2980 RMK SLP095 T02500170 IEM_DS3505
ZBAA,1996-06-07 14:00,ZBAA 071400Z AUTO 12006KT 6SM 25/17 A2983 RMK SLP105 T02500170 IEM_DS3505
ZBAA,1996-06-07 15:00,ZBAA 071500Z AUTO 18004KT 7SM 25/16 A2980 RMK SLP096 T02500159 52007 IEM_DS3505
ZBAA,1996-06-07 18:00,ZBAA 071800Z AUTO 36004KT 5SM 21/16 A2982 RMK SLP101 T02130164 52005 IEM_DS3505
ZBAA,1996-06-07 20:00,ZBAA 072000Z AUTO 01002KT 7SM 19/18 A2985 RMK SLP114 T01900180 IEM_DS3505
ZBAA,1996-06-07 21:00,ZBAA 072100Z AUTO 02004KT 4SM 20/17 A2988 RMK SLP114 T02000171 52013 IEM_DS3505
ZBAA,1996-06-07 22:00,ZBAA 072200Z AUTO 00000KT 4SM 20/18 A2988 RMK SLP123 T02000180 IEM_DS3505
ZBAA,1996-06-07 23:00,ZBAA 072300Z AUTO 08004KT 4SM 20/18 A2988 RMK SLP123 T02000180 IEM_DS3505
ZBAA,1996-06-08 00:00,ZBAA 080000Z AUTO 04004KT 4SM 23/17 A2988 RMK SLP126 T02300174 52012 IEM_DS3505
ZBAA,1996-06-08 01:00,ZBAA 080100Z AUTO ////04KT 4SM 24/20 A2988 RMK SLP123 T02400200 IEM_DS3505
ZBAA,1996-06-08 02:00,ZBAA 080200Z AUTO ////04KT 4SM 26/19 A2988 RMK SLP122 T02600190 IEM_DS3505
ZBAA,1996-06-08 03:00,ZBAA 080300Z AUTO 09006KT 2 1/2SM 29/17 A2985 RMK SLP120 T02870166 57006 IEM_DS3505
ZBAA,1996-06-08 04:00,ZBAA 080400Z AUTO ////04KT 4SM 30/20 A2985 RMK SLP111 T03000200 IEM_DS3505
ZBAA,1996-06-08 05:00,ZBAA 080500Z AUTO ////06KT 5SM 30/20 A2985 RMK SLP111 T03000200 IEM_DS3505
ZBAA,1996-06-08 06:00,ZBAA 080600Z AUTO 16006KT 4SM 32/16 A2983 RMK SLP108 T03170156 57012 IEM_DS3505
ZBAA,1996-06-08 07:00,ZBAA 080700Z AUTO 16006KT 5SM 32/20 A2983 RMK SLP104 T03200200 IEM_DS3505
ZBAA,1996-06-08 08:00,ZBAA 080800Z AUTO 16008KT 5SM 32/19 A2983 RMK SLP104 T03200190 IEM_DS3505
ZBAA,1996-06-08 09:00,ZBAA 080900Z AUTO 18010KT 6SM 32/13 A2983 RMK SLP099 T03170134 57009 IEM_DS3505
ZBAA,1996-06-08 10:00,ZBAA 081000Z AUTO 17006KT 5SM 30/17 A2980 RMK SLP094 T03000170 IEM_DS3505
ZBAA,1996-06-08 11:00,ZBAA 081100Z AUTO ////02KT 5SM 29/17 A2980 RMK SLP094 T02900170 IEM_DS3505
ZBAA,1996-06-08 12:00,ZBAA 081200Z AUTO 18012KT 4SM 29/15 A2983 RMK SLP099 T02870153 54000 IEM_DS3505
ZBAA,1996-06-08 13:00,ZBAA 081300Z AUTO 18006KT 5SM 28/15 A2983 RMK SLP105 T02800150 IEM_DS3505
ZBAA,1996-06-08 14:00,ZBAA 081400Z AUTO 19008KT 6SM 28/14 A2983 RMK SLP105 T02800140 IEM_DS3505
ZBAA,1996-06-08 15:00,ZBAA 081500Z AUTO 16006KT 6SM 27/15 A2983 RMK SLP106 T02700149 52007 IEM_DS3505
ZBAA,1996-06-08 18:00,ZBAA 081800Z AUTO 20004KT 6SM 25/14 A2983 RMK SLP105 T02500139 54000 IEM_DS3505
ZBAA,1996-06-08 20:00,ZBAA 082000Z AUTO 13006KT 4SM 22/18 A2983 RMK SLP106 T02200180 IEM_DS3505
ZBAA,1996-06-08 21:00,ZBAA 082100Z AUTO 00000KT 4SM 23/16 A2983 RMK SLP104 T02320158 57002 IEM_DS3505
ZBAA,1996-06-08 22:00,ZBAA 082200Z AUTO 14006KT 4SM 22/19 A2983 RMK SLP106 T02200190 IEM_DS3505
ZBAA,1996-06-08 23:00,ZBAA 082300Z AUTO 00000KT 4SM 23/18 A2983 RMK SLP106 T02300180 IEM_DS3505
ZBAA,1996-06-09 00:00,ZBAA 090000Z AUTO 02004KT 2 1/2SM 25/16 A2983 RMK SLP107 T02460164 52003 IEM_DS3505
ZBAA,1996-06-09 01:00,ZBAA 090100Z AUTO ////06KT 3SM 26/20 A2983 RMK SLP105 T02600200 IEM_DS3505
ZBAA,1996-06-09 02:00,ZBAA 090200Z AUTO ////06KT 3SM 28/19 A2983 RMK SLP105 T02800190 IEM_DS3505
ZBAA,1996-06-09 03:00,ZBAA 090300Z AUTO 20008KT 3SM 29/16 A2983 RMK SLP101 T02910160 57005 IEM_DS3505
ZBAA,1996-06-09 04:00,ZBAA 090400Z AUTO 17010KT 4SM 31/18 A2980 RMK SLP094 T03100180 IEM_DS3505
ZBAA,1996-06-09 05:00,ZBAA 090500Z AUTO 19016KT 5SM 32/14 A2977 RMK SLP084 T03200140 IEM_DS3505
ZBAA,1996-06-09 06:00,ZBAA 090600Z AUTO 18012KT 6SM 32/11 A2977 RMK SLP084 T03160106 57017 IEM_DS3505
ZBAA,1996-06-09 07:00,ZBAA 090700Z AUTO 19014KT 6SM 33/12 A2977 RMK SLP083 T03300120 IEM_DS3505
ZBAA,1996-06-09 08:00,ZBAA 090800Z AUTO 21014KT 7SM 33/12 A2974 RMK SLP072 T03300120 IEM_DS3505
ZBAA,1996-06-09 09:00,ZBAA 090900Z AUTO 22010KT 6SM 31/11 A2974 RMK SLP077 T03060111 57008 IEM_DS3505
ZBAA,1996-06-09 10:00,ZBAA 091000Z AUTO 25008KT 7SM 30/13 A2974 RMK SLP073 T03000130 IEM_DS3505
ZBAA,1996-06-09 11:00,ZBAA 091100Z AUTO 19008KT 6SM 29/13 A2971 RMK SLP063 T02900130 IEM_DS3505
ZBAA,1996-06-09 12:00,ZBAA 091200Z AUTO 18008KT 6SM 28/13 A2974 RMK SLP073 T02790129 57004 IEM_DS3505
ZBAA,1996-06-09 13:00,ZBAA 091300Z AUTO 30006KT 6SM 27/14 A2980 RMK SLP095 T02700140 IEM_DS3505
ZBAA,1996-06-09 14:00,ZBAA 091400Z AUTO 26006KT 7SM 27/15 A2983 RMK SLP105 T02700150 IEM_DS3505
ZBAA,1996-06-09 15:00,ZBAA 091500Z AUTO 16008KT 6SM 25/13 A2974 RMK SLP069 T02520129 57003 IEM_DS3505
ZBAA,1996-06-09 16:00,ZBAA 091600Z AUTO 27010KT 6SM 24/15 A2974 RMK SLP074 T02400150 IEM_DS3505
ZBAA,1996-06-09 18:00,ZBAA 091800Z AUTO 32002KT 6SM 22/15 A2972 RMK SLP068 T02200148 57002 IEM_DS3505
ZBAA,1996-06-09 20:00,ZBAA 092000Z AUTO 10002KT 7SM 20/15 A2971 RMK SLP065 T02000150 IEM_DS3505
ZBAA,1996-06-09 21:00,ZBAA 092100Z AUTO 00000KT 6SM 21/15 A2974 RMK SLP070 T02100148 52002 IEM_DS3505
ZBAA,1996-06-09 22:00,ZBAA 092200Z AUTO 00000KT 6SM 21/15 A2977 RMK SLP086 T02100150 IEM_DS3505
ZBAA,1996-06-09 23:00,ZBAA 092300Z AUTO 33004KT 6SM 22/16 A2977 RMK SLP086 T02200160 IEM_DS3505
ZBAA,1996-06-10 00:00,ZBAA 100000Z AUTO 25004KT 3SM 25/15 A2974 RMK SLP078 T02470150 52008 IEM_DS3505
ZBAA,1996-06-10 01:00,ZBAA 100100Z AUTO ////02KT 7SM 26/17 A2974 RMK SLP074 T02600170 IEM_DS3505
ZBAA,1996-06-10 02:00,ZBAA 100200Z AUTO 16006KT 7SM 27/17 A2971 RMK SLP064 T02700170 IEM_DS3505
ZBAA,1996-06-10 03:00,ZBAA 100300Z AUTO 18012KT 5SM 28/15 A2968 RMK SLP055 T02850150 57022 IEM_DS3505
ZBAA,1996-06-10 04:00,ZBAA 100400Z AUTO 18012KT 7SM 30/17 A2965 RMK SLP043 T03000170 IEM_DS3505
ZBAA,1996-06-10 05:00,ZBAA 100500Z AUTO 21012KT 7SM 32/15 A2965 RMK SLP042 T03200150 IEM_DS3505
ZBAA,1996-06-10 06:00,ZBAA 100600Z AUTO 14010KT 6SM 31/14 A2964 RMK SLP039 T03100143 57016 IEM_DS3505
ZBAA,1996-06-10 07:00,ZBAA 100700Z AUTO 20010KT 7SM 29/17 A2965 RMK SLP043 T02900170 IEM_DS3505
ZBAA,1996-06-10 08:00,ZBAA 100800Z AUTO 26010KT 6SM 29/17 A2968 RMK SLP053 T02900170 IEM_DS3505
ZBAA,1996-06-10 09:00,ZBAA 100900Z AUTO 32010KT 12SM 30/02 A2968 RMK SLP056 T03050024 52016 IEM_DS3505
ZBAA,1996-06-10 10:00,ZBAA 101000Z AUTO 35012KT 7SM 30/09 A2968 RMK SLP053 T03000090 IEM_DS3505
ZBAA,1996-06-10 11:00,ZBAA 101100Z AUTO 07004KT 7SM 27/14 A2971 RMK SLP064 T02700140 IEM_DS3505
ZBAA,1996-06-10 12:00,ZBAA 101200Z AUTO 32008KT 9SM 28/ A2974 RMK 60004 SLP071 52015 IEM_DS3505
ZBAA,1996-06-10 13:00,ZBAA 101300Z AUTO ////04KT 7SM 23/14 A2977 RMK SLP085 T02300140 IEM_DS3505
ZBAA,1996-06-10 14:00,ZBAA 101400Z AUTO 04004KT 7SM 22/14 A2980 RMK SLP096 T02200140 IEM_DS3505
ZBAA,1996-06-10 15:00,ZBAA 101500Z AUTO 36002KT 12SM 22/07 A2983 RMK SLP101 T02230066 52030 IEM_DS3505
ZBAA,1996-06-10 16:00,ZBAA 101600Z AUTO ////02KT 7SM 20/09 A2983 RMK SLP106 T02000090 IEM_DS3505
ZBAA,1996-06-10 17:00,ZBAA 101700Z AUTO 03002KT 7SM 20/06 A2983 RMK SLP106 T02000060 IEM_DS3505
ZBAA,1996-06-10 18:00,ZBAA 101800Z AUTO 22004KT 12SM 18/08 A2981 RMK SLP099 T01770075 57002 IEM_DS3505
ZBAA,1996-06-10 21:00,ZBAA 102100Z AUTO 25002KT 12SM 18/04 A2980 RMK 70004 SLP099 T01770045 54000 IEM_DS3505
ZBAA,1996-06-10 22:00,ZBAA 102200Z AUTO 00000KT 7SM 17/08 A2983 RMK SLP107 T01700080 IEM_DS3505
ZBAA,1996-06-10 23:00,ZBAA 102300Z AUTO 33006KT 7SM 20/06 A2980 RMK SLP096 T02000060 IEM_DS3505
ZBAA,1996-06-11 00:00,ZBAA 110000Z AUTO 32002KT 12SM 26/04 A2980 RMK 70004 SLP102 T02570040 52003 IEM_DS3505
ZBAA,1996-06-11 01:00,ZBAA 110100Z AUTO ////06KT 7SM 26/05 A2980 RMK SLP095 T02600050 IEM_DS3505
ZBAA,1996-06-11 02:00,ZBAA 110200Z AUTO ////06KT 7SM 29/05 A2977 RMK SLP084 T02900050 IEM_DS3505
ZBAA,1996-06-11 03:00,ZBAA 110300Z AUTO 27006G23KT 12SM 30/M02 A2977 RMK SLP085 T03021019 57017 IEM_DS3505
ZBAA,1996-06-11 04:00,ZBAA 110400Z AUTO 27014KT 7SM 31/01 A2974 RMK SLP073 T03100010 IEM_DS3505
ZBAA,1996-06-11 05:00,ZBAA 110500Z AUTO 27014KT 7SM 32/02 A2971 RMK SLP062 T03200020 IEM_DS3505
ZBAA,1996-06-11 06:00,ZBAA 110600Z AUTO 22012G23KT 12SM 32/M00 A2965 RMK SLP056 T03181002 57029 IEM_DS3505
ZBAA,1996-06-11 07:00,ZBAA 110700Z AUTO 24010KT 7SM 33/03 A2965 RMK SLP042 T03300030 IEM_DS3505
ZBAA,1996-06-11 08:00,ZBAA 110800Z AUTO 20014KT 7SM 33/04 A2962 RMK SLP032 T03300040 IEM_DS3505
ZBAA,1996-06-11 09:00,ZBAA 110900Z AUTO 18016KT 12SM 32/00 A2959 RMK SLP026 T03220001 57030 IEM_DS3505
ZBAA,1996-06-11 10:00,ZBAA 111000Z AUTO 20017KT 7SM 32/04 A2956 RMK SLP012 T03200040 IEM_DS3505
ZBAA,1996-06-11 11:00,ZBAA 111100Z AUTO 19012KT 7SM 29/05 A2956 RMK SLP013 T02900050 IEM_DS3505
ZBAA,1996-06-11 12:00,ZBAA 111200Z AUTO 18008KT 7SM 29/05 A2956 RMK SLP015 T02880052 57010 IEM_DS3505
ZBAA,1996-06-11 13:00,ZBAA 111300Z AUTO 19008KT 7SM 27/04 A2959 RMK SLP023 T02700040 IEM_DS3505
ZBAA,1996-06-11 14:00,ZBAA 111400Z AUTO 20008KT 7SM 25/06 A2959 RMK SLP024 T02500060 IEM_DS3505
ZBAA,1996-06-11 15:00,ZBAA 111500Z AUTO 25004KT 7SM 27/07 A2959 RMK SLP026 T02730067 52011 IEM_DS3505
ZBAA,1996-06-11 16:00,ZBAA 111600Z AUTO 08006KT 7SM 22/08 A2959 RMK SLP024 T02200080 IEM_DS3505
ZBAA,1996-06-11 18:00,ZBAA 111800Z AUTO 32002KT 6SM 22/08 A2959 RMK SLP024 T02190081 57002 IEM_DS3505
ZBAA,1996-06-11 20:00,ZBAA 112000Z AUTO 08004KT 7SM 18/12 A2959 RMK SLP025 T01800120 IEM_DS3505
ZBAA,1996-06-11 21:00,ZBAA 112100Z AUTO 02006KT 6SM 20/10 A2959 RMK SLP026 T01950097 52002 IEM_DS3505
ZBAA,1996-06-11 22:00,ZBAA 112200Z AUTO 01004KT 7SM 18/11 A2962 RMK SLP035 T01800110 IEM_DS3505
ZBAA,1996-06-11 23:00,ZBAA 112300Z AUTO 36006KT 7SM 20/10 A2962 RMK SLP035 T02000100 IEM_DS3505
ZBAA,1996-06-12 00:00,ZBAA 120000Z AUTO 02008KT 6SM 24/10 A2962 RMK SLP029 T02380104 52003 IEM_DS3505
ZBAA,1996-06-12 01:00,ZBAA 120100Z AUTO ////06KT 7SM 26/11 A2959 RMK SLP023 T02600110 IEM_DS3505
ZBAA,1996-06-12 02:00,ZBAA 120200Z AUTO ////04KT 7SM 28/12 A2959 RMK SLP023 T02800120 IEM_DS3505
ZBAA,1996-06-12 03:00,ZBAA 120300Z AUTO 09004KT 7SM 30/09 A2956 RMK SLP014 T02980093 57015 IEM_DS3505
ZBAA,1996-06-12 04:00,ZBAA 120400Z AUTO 13010KT 7SM 32/14 A2953 RMK SLP002 T03200140 IEM_DS3505
ZBAA,1996-06-12 05:00,ZBAA 120500Z AUTO 17010KT 7SM 34/13 A2950 RMK SLP992 T03400130 IEM_DS3505
ZBAA,1996-06-12 06:00,ZBAA 120600Z AUTO 18008KT 12SM 34/06 A2947 RMK SLP988 T03390060 57026 IEM_DS3505
ZBAA,1996-06-12 07:00,ZBAA 120700Z AUTO 17012KT 6SM 35/10 A2944 RMK SLP970 T03500100 IEM_DS3505
ZBAA,1996-06-12 08:00,ZBAA 120800Z AUTO 20012KT 7SM 34/13 A2944 RMK SLP971 T03400130 IEM_DS3505
ZBAA,1996-06-12 09:00,ZBAA 120900Z AUTO 20008KT 7SM 34/08 A2944 RMK SLP972 T03360076 57016 IEM_DS3505
ZBAA,1996-06-12 10:00,ZBAA 121000Z AUTO 21008KT 6SM 33/10 A2944 RMK SLP971 T03300100 IEM_DS3505
ZBAA,1996-06-12 11:00,ZBAA 121100Z AUTO 18008KT 7SM 32/10 A2944 RMK SLP971 T03200100 IEM_DS3505
ZBAA,1996-06-12 12:00,ZBAA 121200Z AUTO 32004KT 7SM 32/12 A2944 RMK SLP978 T03190117 52006 IEM_DS3505
ZBAA,1996-06-12 13:00,ZBAA 121300Z AUTO 16016KT 6SM 29/15 A2944 RMK SLP972 T02900150 IEM_DS3505
ZBAA,1996-06-12 14:00,ZBAA 121400Z AUTO ////04KT 6SM 27/16 A2947 RMK SLP982 T02700160 IEM_DS3505
ZBAA,1996-06-12 15:00,ZBAA 121500Z AUTO 16004KT 9SM 29/14 A2947 RMK SLP981 T02910142 52004 IEM_DS3505
ZBAA,1996-06-12 16:00,ZBAA 121600Z AUTO 12004KT 6SM 25/16 A2947 RMK SLP982 T02500160 IEM_DS3505
ZBAA,1996-06-12 17:00,ZBAA 121700Z AUTO ////04KT 6SM 24/17 A2950 RMK SLP994 T02400170 IEM_DS3505
ZBAA,1996-06-12 18:00,ZBAA 121800Z AUTO 04004KT 6SM 26/16 A2950 RMK SLP991 T02560163 52010 IEM_DS3505
ZBAA,1996-06-12 19:00,ZBAA 121900Z AUTO 36002KT 6SM 24/18 A2950 RMK SLP994 T02400180 IEM_DS3505
ZBAA,1996-06-12 20:00,ZBAA 122000Z AUTO 33002KT 6SM 24/17 A2950 RMK SLP994 T02400170 IEM_DS3505
ZBAA,1996-06-12 21:00,ZBAA 122100Z AUTO 00000KT 6SM 25/16 A2953 RMK SLP000 T02500163 52008 IEM_DS3505
ZBAA,1996-06-12 22:00,ZBAA 122200Z AUTO ////02KT 6SM 23/18 A2956 RMK SLP014 T02300180 IEM_DS3505
ZBAA,1996-06-12 23:00,ZBAA 122300Z AUTO 19002KT 6SM 24/18 A2956 RMK SLP014 T02400180 IEM_DS3505
ZBAA,1996-06-13 00:00,ZBAA 130000Z AUTO 04006KT 6SM 25/16 A2956 RMK SLP014 T02500160 IEM_DS3505
ZBAA,1996-06-13 01:00,ZBAA 130100Z AUTO 02010KT 6SM 27/08 A2962 RMK SLP033 T02700080 IEM_DS3505
ZBAA,1996-06-13 02:00,ZBAA 130200Z AUTO 04010KT 6SM 30/09 A2962 RMK SLP033 T03000090 IEM_DS3505
ZBAA,1996-06-13 03:00,ZBAA 130300Z AUTO 09004KT 12SM 29/06 A2962 RMK SLP034 T02920056 52017 IEM_DS3505
ZBAA,1996-06-13 04:00,ZBAA 130400Z AUTO ////04KT 6SM 29/08 A2962 RMK SLP033 T02900080 IEM_DS3505
ZBAA,1996-06-13 05:00,ZBAA 130500Z AUTO ////04KT 6SM 31/08 A2959 RMK SLP022 T03100080 IEM_DS3505
ZBAA,1996-06-13 06:00,ZBAA 130600Z AUTO 09006KT 19SM 31/04 A2959 RMK SLP022 T03140037 57012 IEM_DS3505
ZBAA,1996-06-13 07:00,ZBAA 130700Z AUTO ////02KT 6SM 32/08 A2956 RMK SLP012 T03200080 IEM_DS3505
ZBAA,1996-06-13 08:00,ZBAA 130800Z AUTO 14010KT 6SM 32/07 A2953 RMK SLP002 T03200070 IEM_DS3505
ZBAA,1996-06-13 09:00,ZBAA 130900Z AUTO 20004KT 16SM 32/05 A2956 RMK SLP009 T03190052 57013 IEM_DS3505
ZBAA,1996-06-13 10:00,ZBAA 131000Z AUTO 15014KT 7SM 29/17 A2956 RMK SLP013 T02900170 IEM_DS3505
ZBAA,1996-06-13 11:00,ZBAA 131100Z AUTO 13012KT 7SM 27/18 A2959 RMK SLP023 T02700180 IEM_DS3505
ZBAA,1996-06-13 12:00,ZBAA 131200Z AUTO 14006KT 19SM 28/15 A2962 RMK SLP026 T02790149 52017 IEM_DS3505
ZBAA,1996-06-13 13:00,ZBAA 131300Z AUTO 13010KT 7SM 23/20 A2965 RMK SLP044 T02300200 IEM_DS3505
ZBAA,1996-06-13 14:00,ZBAA 131400Z AUTO ////02KT 5SM 22/20 A2968 RMK SLP055 T02200200 IEM_DS3505
ZBAA,1996-06-13 15:00,ZBAA 131500Z AUTO 09004KT 6SM 24/19 A2968 RMK SLP049 T02420191 52023 IEM_DS3505
ZBAA,1996-06-13 16:00,ZBAA 131600Z AUTO 11004KT 5SM 21/20 A2971 RMK SLP065 T02100200 IEM_DS3505
ZBAA,1996-06-13 18:00,ZBAA 131800Z AUTO 04002KT 5SM 22/18 A2969 RMK SLP058 T02200185 52009 IEM_DS3505
ZBAA,1996-06-13 20:00,ZBAA 132000Z AUTO 00000KT 4SM 19/19 A2971 RMK SLP065 T01900190 IEM_DS3505
ZBAA,1996-06-13 21:00,ZBAA 132100Z AUTO 00000KT 4SM 21/18 A2971 RMK SLP062 T02100185 52003 IEM_DS3505
ZBAA,1996-06-13 22:00,ZBAA 132200Z AUTO 00000KT 2 1/2SM 19/19 A2971 RMK SLP065 T01900190 IEM_DS3505
ZBAA,1996-06-13 23:00,ZBAA 132300Z AUTO 00000KT 2 1/2SM 20/20 A2974 RMK SLP075 T02000200 IEM_DS3505
ZBAA,1996-06-14 00:00,ZBAA 140000Z AUTO 27002KT 5SM 23/18 A2974 RMK SLP078 T02340184 52016 IEM_DS3505
ZBAA,1996-06-14 01:00,ZBAA 140100Z AUTO ////06KT 4SM 25/17 A2977 RMK SLP085 T02500170 IEM_DS3505
ZBAA,1996-06-14 02:00,ZBAA 140200Z AUTO ////04KT 6SM 27/16 A2974 RMK SLP074 T02700160 IEM_DS3505
ZBAA,1996-06-14 03:00,ZBAA 140300Z AUTO 16004KT 4SM 28/13 A2974 RMK SLP079 T02800126 52001 IEM_DS3505
ZBAA,1996-06-14 04:00,ZBAA 140400Z AUTO 19006KT 7SM 30/14 A2974 RMK SLP073 T03000140 IEM_DS3505
ZBAA,1996-06-14 05:00,ZBAA 140500Z AUTO ////02KT 6SM 31/16 A2971 RMK SLP063 T03100160 IEM_DS3505
ZBAA,1996-06-14 06:00,ZBAA 140600Z AUTO 18004KT 6SM 30/12 A2968 RMK SLP057 T03050121 57022 IEM_DS3505
ZBAA,1996-06-14 07:00,ZBAA 140700Z AUTO 22006KT 6SM 31/14 A2965 RMK SLP043 T03100140 IEM_DS3505
ZBAA,1996-06-14 09:00,ZBAA 140900Z AUTO 18006KT 6SM 31/11 A2965 RMK SLP042 T03120113 57015 IEM_DS3505
ZBAA,1996-06-14 10:00,ZBAA 141000Z AUTO 17008KT 6SM 30/13 A2962 RMK SLP033 T03000130 IEM_DS3505
ZBAA,1996-06-14 11:00,ZBAA 141100Z AUTO 15006KT 6SM 29/14 A2965 RMK SLP043 T02900140 IEM_DS3505
ZBAA,1996-06-14 12:00,ZBAA 141200Z AUTO 16008KT 6SM 29/13 A2965 RMK SLP044 T02900129 52002 IEM_DS3505
ZBAA,1996-06-14 13:00,ZBAA 141300Z AUTO 15012KT 6SM 26/19 A2968 RMK SLP054 T02600190 IEM_DS3505
ZBAA,1996-06-14 14:00,ZBAA 141400Z AUTO 15012KT 7SM 24/18 A2971 RMK SLP064 T02400180 IEM_DS3505
ZBAA,1996-06-14 15:00,ZBAA 141500Z AUTO 20004KT 6SM 24/17 A2974 RMK SLP068 T02450170 52024 IEM_DS3505
ZBAA,1996-06-14 16:00,ZBAA 141600Z AUTO 08006KT 7SM 22/18 A2974 RMK SLP075 T02200180 IEM_DS3505
ZBAA,1996-06-14 17:00,ZBAA 141700Z AUTO 03006KT 7SM 22/18 A2974 RMK SLP075 T02200180 IEM_DS3505
ZBAA,1996-06-14 18:00,ZBAA 141800Z AUTO 11006KT 6SM 23/17 A2970 RMK SLP060 T02290173 57008 IEM_DS3505
ZBAA,1996-06-14 20:00,ZBAA 142000Z AUTO 01012KT 7SM 19/19 A2974 RMK SLP075 T01900190 IEM_DS3505
ZBAA,1996-06-14 21:00,ZBAA 142100Z AUTO 34006KT 5SM 20/18 A2971 RMK 70008 SLP065 T02010177 52005 IEM_DS3505
ZBAA,1996-06-14 22:00,ZBAA 142200Z AUTO 04010KT 7SM 18/18 A2971 RMK SLP065 T01800180 IEM_DS3505
ZBAA,1996-06-14 23:00,ZBAA 142300Z AUTO 01008KT 7SM 18/18 A2971 RMK SLP065 T01800180 IEM_DS3505
ZBAA,1996-06-15 00:00,ZBAA 150000Z AUTO 02006KT 5SM 20/16 A2974 RMK 60008 70008 SLP072 T01950160 52007 IEM_DS3505
ZBAA,1996-06-15 01:00,ZBAA 150100Z AUTO 36006KT 7SM 20/17 A2974 RMK SLP075 T02000170 IEM_DS3505
ZBAA,1996-06-15 02:00,ZBAA 150200Z AUTO ////06KT 7SM 20/17 A2971 RMK SLP065 T02000170 IEM_DS3505
ZBAA,1996-06-15 03:00,ZBAA 150300Z AUTO 36004KT 5SM 21/15 A2974 RMK SLP072 T02130147 54000 IEM_DS3505
ZBAA,1996-06-15 04:00,ZBAA 150400Z AUTO ////04KT 7SM 21/18 A2974 RMK SLP075 T02100180 IEM_DS3505
ZBAA,1996-06-15 05:00,ZBAA 150500Z AUTO ////02KT 7SM 21/17 A2974 RMK SLP075 T02100170 IEM_DS3505
ZBAA,1996-06-15 06:00,ZBAA 150600Z AUTO 32006KT 4SM 22/16 A2971 RMK SLP070 T02150157 57003 IEM_DS3505
ZBAA,1996-06-15 07:00,ZBAA 150700Z AUTO 28004KT 6SM 23/17 A2971 RMK SLP064 T02300170 IEM_DS3505
ZBAA,1996-06-15 08:00,ZBAA 150800Z AUTO 29006KT 6SM 23/17 A2968 RMK SLP054 T02300170 IEM_DS3505
ZBAA,1996-06-15 09:00,ZBAA 150900Z AUTO 02004KT 4SM 23/16 A2968 RMK SLP058 T02290162 57012 IEM_DS3505
ZBAA,1996-06-15 10:00,ZBAA 151000Z AUTO 27004KT 5SM 23/17 A2971 RMK SLP064 T02300170 IEM_DS3505
ZBAA,1996-06-15 11:00,ZBAA 151100Z AUTO ////06KT 5SM 23/19 A2971 RMK SLP064 T02300190 IEM_DS3505
ZBAA,1996-06-15 12:00,ZBAA 151200Z AUTO 18006KT 2 1/2SM 22/17 A2974 RMK SLP069 T02230173 52011 IEM_DS3505
ZBAA,1996-06-15 13:00,ZBAA 151300Z AUTO 16006KT 4SM 21/18 A2977 RMK SLP086 T02100180 IEM_DS3505
ZBAA,1996-06-15 14:00,ZBAA 151400Z AUTO 13004KT 4SM 20/18 A2977 RMK SLP086 T02000180 IEM_DS3505
ZBAA,1996-06-15 15:00,ZBAA 151500Z AUTO 00000KT 2SM 21/18 A2977 RMK SLP080 T02110179 52011 IEM_DS3505
ZBAA,1996-06-15 16:00,ZBAA 151600Z AUTO 14004KT 3SM 19/18 A2977 RMK SLP086 T01900180 IEM_DS3505
ZBAA,1996-06-15 17:00,ZBAA 151700Z AUTO 00000KT 4SM 19/18 A2977 RMK SLP086 T01900180 IEM_DS3505
ZBAA,1996-06-15 18:00,ZBAA 151800Z AUTO 09004KT 3SM 20/17 A2976 RMK SLP081 T02010170 52001 IEM_DS3505
ZBAA,1996-06-15 20:00,ZBAA 152000Z AUTO 00000KT 3SM 18/18 A2977 RMK SLP087 T01800180 IEM_DS3505
ZBAA,1996-06-15 21:00,ZBAA 152100Z AUTO 00000KT 2SM 19/17 A2977 RMK SLP082 T01930168 52001 IEM_DS3505
ZBAA,1996-06-15 23:00,ZBAA 152300Z AUTO ////04KT 2SM 20/19 A2977 RMK SLP086 T02000190 IEM_DS3505
ZBAA,1996-06-16 00:00,ZBAA 160000Z AUTO 20006KT 1 1/2SM 22/17 A2977 RMK SLP086 T02160173 52004 IEM_DS3505
ZBAA,1996-06-16 01:00,ZBAA 160100Z AUTO ////06KT 2SM 22/19 A2980 RMK SLP096 T02200190 IEM_DS3505
ZBAA,1996-06-16 02:00,ZBAA 160200Z AUTO ////06KT 2SM 23/19 A2977 RMK SLP085 T02300190 IEM_DS3505
ZBAA,1996-06-16 03:00,ZBAA 160300Z AUTO 25004KT 4SM 24/17 A2977 RMK SLP084 T02440170 57001 IEM_DS3505
ZBAA,1996-06-16 04:00,ZBAA 160400Z AUTO ////04KT 3SM 25/20 A2977 RMK SLP085 T02500200 IEM_DS3505
ZBAA,1996-06-16 05:00,ZBAA 160500Z AUTO ////04KT 4SM 26/20 A2974 RMK SLP074 T02600200 IEM_DS3505
ZBAA,1996-06-16 06:00,ZBAA 160600Z AUTO 14004KT 3SM 25/17 A2971 RMK SLP068 T02480168 57016 IEM_DS3505
ZBAA,1996-06-16 07:00,ZBAA 160700Z AUTO 17008KT 4SM 25/19 A2971 RMK SLP064 T02500190 IEM_DS3505
ZBAA,1996-06-16 08:00,ZBAA 160800Z AUTO 20008KT 4SM 24/19 A2971 RMK SLP064 T02400190 IEM_DS3505
ZBAA,1996-06-16 09:00,ZBAA 160900Z AUTO 19010KT 4SM 24/19 A2971 RMK SLP064 T02400190 IEM_DS3505
ZBAA,1996-06-16 10:00,ZBAA 161000Z AUTO 19008KT 3SM 22/19 A2971 RMK SLP065 T02200190 IEM_DS3505
ZBAA,1996-06-16 11:00,ZBAA 161100Z AUTO 20004KT 2 1/2SM 20/20 A2971 RMK SLP065 T02000200 IEM_DS3505
ZBAA,1996-06-16 12:00,ZBAA 161200Z AUTO 18004KT 1 1/4SM 21/19 A2971 RMK 60004 SLP067 T02070190 52001 IEM_DS3505
ZBAA,1996-06-16 13:00,ZBAA 161300Z AUTO 16004KT 2SM 20/20 A2971 RMK SLP065 T02000200 IEM_DS3505
ZBAA,1996-06-16 14:00,ZBAA 161400Z AUTO 34002KT 2SM 20/20 A2974 RMK SLP075 T02000200 IEM_DS3505
ZBAA,1996-06-16 15:00,ZBAA 161500Z AUTO 07002KT 2SM 20/19 A2971 RMK SLP067 T02050188 52001 IEM_DS3505
ZBAA,1996-06-16 16:00,ZBAA 161600Z AUTO 36002KT 1 1/2SM 20/20 A2971 RMK SLP065 T02000200 IEM_DS3505
ZBAA,1996-06-16 17:00,ZBAA 161700Z AUTO 05002KT 2SM 19/19 A2968 RMK SLP055 T01900190 IEM_DS3505
ZBAA,1996-06-16 18:00,ZBAA 161800Z AUTO 02004KT 2SM 20/19 A2966 RMK 60002 SLP046 T02000189 57021 IEM_DS3505
ZBAA,1996-06-16 20:00,ZBAA 162000Z AUTO 35006KT 3/8SM 19/19 A2962 RMK SLP035 T01900190 IEM_DS3505
ZBAA,1996-06-16 21:00,ZBAA 162100Z AUTO 00000KT 1 1/4SM 19/18 A2962 RMK 70008 SLP036 T01930183 57011 IEM_DS3505
ZBAA,1996-06-16 22:00,ZBAA 162200Z AUTO ////02KT 3/8SM 19/19 A2962 RMK SLP035 T01900190 IEM_DS3505
ZBAA,1996-06-16 23:00,ZBAA 162300Z AUTO ////02KT 3/8SM 19/19 A2962 RMK SLP035 T01900190 IEM_DS3505
ZBAA,1996-06-17 00:00,ZBAA 170000Z AUTO 02002KT 1SM 21/19 A2962 RMK 70008 SLP039 T02080191 52003 IEM_DS3505
ZBAA,1996-06-17 01:00,ZBAA 170100Z AUTO 30006KT 2SM 23/21 A2962 RMK SLP034 T02300210 IEM_DS3505
ZBAA,1996-06-17 02:00,ZBAA 170200Z AUTO ////04KT 2 1/2SM 25/20 A2962 RMK SLP034 T02500200 IEM_DS3505
ZBAA,1996-06-17 03:00,ZBAA 170300Z AUTO 22004KT 2SM 26/19 A2959 RMK SLP029 T02610187 57009 IEM_DS3505
ZBAA,1996-06-17 04:00,ZBAA 170400Z AUTO ////06KT 4SM 28/20 A2959 RMK SLP023 T02800200 IEM_DS3505
ZBAA,1996-06-17 05:00,ZBAA 170500Z AUTO ////06KT 4SM 29/20 A2956 RMK SLP013 T02900200 IEM_DS3505
ZBAA,1996-06-17 06:00,ZBAA 170600Z AUTO 20006KT 3SM 29/18 A2956 RMK SLP013 T02940180 57016 IEM_DS3505
ZBAA,1996-06-17 07:00,ZBAA 170700Z AUTO ////06KT 4SM 30/20 A2953 RMK SLP003 T03000200 IEM_DS3505
ZBAA,1996-06-17 08:00,ZBAA 170800Z AUTO 27006KT 4SM 30/19 A2953 RMK SLP003 T03000190 IEM_DS3505
ZBAA,1996-06-17 09:00,ZBAA 170900Z AUTO 22006KT 5SM 29/18 A2950 RMK SLP001 T02920183 57012 IEM_DS3505
ZBAA,1996-06-17 10:00,ZBAA 171000Z AUTO 24006KT 4SM 30/19 A2950 RMK SLP992 T03000190 IEM_DS3505
ZBAA,1996-06-17 11:00,ZBAA 171100Z AUTO 24004KT 4SM 29/20 A2953 RMK SLP003 T02900200 IEM_DS3505
ZBAA,1996-06-17 12:00,ZBAA 171200Z AUTO 11004KT 4SM 28/18 A2956 RMK SLP007 T02780182 52006 IEM_DS3505
ZBAA,1996-06-17 13:00,ZBAA 171300Z AUTO 18002KT 4SM 26/19 A2956 RMK SLP013 T02600190 IEM_DS3505
ZBAA,1996-06-17 14:00,ZBAA 171400Z AUTO 11008KT 7SM 24/17 A2959 RMK SLP024 T02400170 IEM_DS3505
ZBAA,1996-06-17 15:00,ZBAA 171500Z AUTO 00000KT 2 1/2SM 25/20 A2959 RMK SLP023 T02490200 52016 IEM_DS3505
ZBAA,1996-06-17 16:00,ZBAA 171600Z AUTO 22002KT 7SM 22/19 A2959 RMK SLP024 T02200190 IEM_DS3505
ZBAA,1996-06-17 18:00,ZBAA 171800Z AUTO 00000KT 2SM 23/20 A2959 RMK SLP023 T02280197 52001 IEM_DS3505
ZBAA,1996-06-17 20:00,ZBAA 172000Z AUTO 00000KT 6SM 20/19 A2962 RMK SLP035 T02000190 IEM_DS3505
ZBAA,1996-06-17 21:00,ZBAA 172100Z AUTO 34002KT 1SM 21/19 A2962 RMK SLP028 T02140192 52004 IEM_DS3505
ZBAA,1996-06-17 22:00,ZBAA 172200Z AUTO 36004KT 4SM 20/19 A2962 RMK SLP035 T02000190 IEM_DS3505
ZBAA,1996-06-17 23:00,ZBAA 172300Z AUTO 02006KT 4SM 22/19 A2962 RMK SLP034 T02200190 IEM_DS3505
ZBAA,1996-06-18 00:00,ZBAA 180000Z AUTO 34002KT 2 1/2SM 25/18 A2962 RMK SLP034 T02470185 52007 IEM_DS3505
ZBAA,1996-06-18 01:00,ZBAA 180100Z AUTO ////04KT 4SM 26/21 A2962 RMK SLP034 T02600210 IEM_DS3505
ZBAA,1996-06-18 02:00,ZBAA 180200Z AUTO ////02KT 4SM 28/21 A2959 RMK SLP023 T02800210 IEM_DS3505
ZBAA,1996-06-18 03:00,ZBAA 180300Z AUTO 22004KT 2SM 29/19 A2959 RMK SLP021 T02940190 57013 IEM_DS3505
ZBAA,1996-06-18 04:00,ZBAA 180400Z AUTO ////04KT 4SM 30/21 A2956 RMK SLP013 T03000210 IEM_DS3505
ZBAA,1996-06-18 05:00,ZBAA 180500Z AUTO ////04KT 5SM 32/22 A2953 RMK SLP002 T03200220 IEM_DS3505
ZBAA,1996-06-18 06:00,ZBAA 180600Z AUTO 20010KT 4SM 32/20 A2953 RMK SLP002 T03160196 57019 IEM_DS3505
ZBAA,1996-06-18 07:00,ZBAA 180700Z AUTO ////04KT 4SM 32/21 A2950 RMK SLP992 T03200210 IEM_DS3505
ZBAA,1996-06-18 08:00,ZBAA 180800Z AUTO 22010KT 7SM 30/20 A2950 RMK SLP992 T03000200 IEM_DS3505
ZBAA,1996-06-18 09:00,ZBAA 180900Z AUTO 20008KT 3SM 30/19 A2950 RMK SLP994 T02960189 57008 IEM_DS3505
ZBAA,1996-06-18 10:00,ZBAA 181000Z AUTO 20006KT 5SM 29/19 A2950 RMK SLP993 T02900190 IEM_DS3505
ZBAA,1996-06-18 11:00,ZBAA 181100Z AUTO 20006KT 5SM 28/19 A2950 RMK SLP993 T02800190 IEM_DS3505
ZBAA,1996-06-18 12:00,ZBAA 181200Z AUTO 20006KT 4SM 28/19 A2947 RMK SLP990 T02810193 57004 IEM_DS3505
ZBAA,1996-06-18 13:00,ZBAA 181300Z AUTO 20006KT 4SM 27/20 A2947 RMK SLP982 T02700200 IEM_DS3505
ZBAA,1996-06-18 14:00,ZBAA 181400Z AUTO 16002KT 4SM 26/21 A2950 RMK SLP993 T02600210 IEM_DS3505
ZBAA,1996-06-18 15:00,ZBAA 181500Z AUTO 20008KT 4SM 26/20 A2947 RMK SLP983 T02620195 57007 IEM_DS3505
ZBAA,1996-06-18 18:00,ZBAA 181800Z AUTO 18008KT 6SM 25/19 A2942 RMK SLP967 T02500193 57016 IEM_DS3505
ZBAA,1996-06-18 20:00,ZBAA 182000Z AUTO 16008KT 4SM 23/20 A2941 RMK SLP963 T02300200 IEM_DS3505
ZBAA,1996-06-18 21:00,ZBAA 182100Z AUTO 20008KT 5SM 22/20 A2941 RMK 70004 SLP962 T02150198 57005 IEM_DS3505
ZBAA,1996-06-18 22:00,ZBAA 182200Z AUTO 13006KT 4SM 21/21 A2941 RMK SLP963 T02100210 IEM_DS3505
ZBAA,1996-06-18 23:00,ZBAA 182300Z AUTO 16006KT 4SM 20/20 A2938 RMK SLP953 T02000200 IEM_DS3505
ZBAA,1996-06-19 00:00,ZBAA 190000Z AUTO 25006KT 1SM 21/20 A2938 RMK 60028 70028 SLP959 T02090201 57003 IEM_DS3505
ZBAA,1996-06-19 01:00,ZBAA 190100Z AUTO 18010KT 7SM 18/18 A2935 RMK SLP944 T01800180 IEM_DS3505
ZBAA,1996-06-19 02:00,ZBAA 190200Z AUTO 19006KT 7SM 19/19 A2935 RMK SLP943 T01900190 IEM_DS3505
ZBAA,1996-06-19 03:00,ZBAA 190300Z AUTO 18008KT 3SM 23/19 A2935 RMK SLP941 T02300190 57018 IEM_DS3505
ZBAA,1996-06-19 04:00,ZBAA 190400Z AUTO 14008KT 6SM 23/18 A2932 RMK SLP933 T02300180 IEM_DS3505
ZBAA,1996-06-19 05:00,ZBAA 190500Z AUTO 14008KT 7SM 25/21 A2929 RMK SLP922 T02500210 IEM_DS3505
ZBAA,1996-06-19 07:00,ZBAA 190700Z AUTO 16008KT 7SM 18/18 A2929 RMK SLP924 T01800180 IEM_DS3505
ZBAA,1996-06-19 08:00,ZBAA 190800Z AUTO ////04KT 7SM 20/20 A2929 RMK SLP923 T02000200 IEM_DS3505
ZBAA,1996-06-19 09:00,ZBAA 190900Z AUTO 04006KT 5SM 24/17 A2929 RMK SLP922 T02430172 57009 IEM_DS3505
ZBAA,1996-06-19 10:00,ZBAA 191000Z AUTO 12006KT 6SM 23/19 A2929 RMK SLP922 T02300190 IEM_DS3505
ZBAA,1996-06-19 11:00,ZBAA 191100Z AUTO 02004KT 7SM 22/18 A2929 RMK SLP923 T02200180 IEM_DS3505
ZBAA,1996-06-19 12:00,ZBAA 191200Z AUTO 09002KT 4SM 23/18 A2929 RMK 60004 SLP923 T02260175 54000 IEM_DS3505
ZBAA,1996-06-19 13:00,ZBAA 191300Z AUTO 00000KT 7SM 21/19 A2929 RMK SLP923 T02100190 IEM_DS3505
ZBAA,1996-06-19 14:00,ZBAA 191400Z AUTO 13004KT 7SM 21/18 A2929 RMK SLP923 T02100180 IEM_DS3505
ZBAA,1996-06-19 15:00,ZBAA 191500Z AUTO 11004KT 4SM 21/17 A2929 RMK SLP920 T02140169 57003 IEM_DS3505
ZBAA,1996-06-19 16:00,ZBAA 191600Z AUTO ////02KT 7SM 19/19 A2929 RMK SLP923 T01900190 IEM_DS3505
ZBAA,1996-06-19 17:00,ZBAA 191700Z AUTO ////02KT 7SM 19/19 A2929 RMK SLP923 T01900190 IEM_DS3505
ZBAA,1996-06-19 18:00,ZBAA 191800Z AUTO 02002KT 2 1/2SM 19/18 A2923 RMK 60020 SLP906 T01930182 57014 IEM_DS3505
ZBAA,1996-06-19 20:00,ZBAA 192000Z AUTO 05004KT 4SM 18/18 A2923 RMK SLP903 T01800180 IEM_DS3505
ZBAA,1996-06-19 21:00,ZBAA 192100Z AUTO 02006KT 2SM 19/18 A2923 RMK 70106 SLP903 T01900180 57003 IEM_DS3505
ZBAA,1996-06-19 22:00,ZBAA 192200Z AUTO 01004KT 4SM 18/18 A2923 RMK SLP903 T01800180 IEM_DS3505
ZBAA,1996-06-19 23:00,ZBAA 192300Z AUTO ////06KT 7SM 18/18 A2923 RMK SLP903 T01800180 IEM_DS3505
ZBAA,1996-06-20 00:00,ZBAA 200000Z AUTO 02006KT 2SM 20/18 A2923 RMK 60000 70087 SLP907 T02050176 52004 IEM_DS3505
ZBAA,1996-06-20 01:00,ZBAA 200100Z AUTO 01008KT 7SM 20/18 A2923 RMK SLP903 T02000180 IEM_DS3505
ZBAA,1996-06-20 03:00,ZBAA 200300Z AUTO 02010KT 12SM 24/18 A2926 RMK SLP909 T02430179 52003 IEM_DS3505
ZBAA,1996-06-20 04:00,ZBAA 200400Z AUTO 34012KT 7SM 23/17 A2926 RMK SLP912 T02300170 IEM_DS3505
ZBAA,1996-06-20 05:00,ZBAA 200500Z AUTO 36008KT 7SM 24/17 A2926 RMK SLP912 T02400170 IEM_DS3505
ZBAA,1996-06-20 06:00,ZBAA 200600Z AUTO 02008KT 16SM 24/18 A2926 RMK SLP915 T02420176 52005 IEM_DS3505
ZBAA,1996-06-20 07:00,ZBAA 200700Z AUTO 35012KT 7SM 26/16 A2926 RMK SLP912 T02600160 IEM_DS3505
ZBAA,1996-06-20 08:00,ZBAA 200800Z AUTO 34010KT 7SM 25/16 A2926 RMK SLP912 T02500160 IEM_DS3505
ZBAA,1996-06-20 09:00,ZBAA 200900Z AUTO 34006KT 12SM 24/19 A2926 RMK SLP920 T02430186 52005 IEM_DS3505
ZBAA,1996-06-20 10:00,ZBAA 201000Z AUTO ////04KT 7SM 24/17 A2929 RMK SLP922 T02400170 IEM_DS3505
ZBAA,1996-06-20 11:00,ZBAA 201100Z AUTO 15004KT 7SM 23/20 A2932 RMK SLP933 T02300200 IEM_DS3505
ZBAA,1996-06-20 12:00,ZBAA 201200Z AUTO 02006KT 12SM 24/17 A2935 RMK SLP939 T02400173 52019 IEM_DS3505
ZBAA,1996-06-20 13:00,ZBAA 201300Z AUTO ////02KT 7SM 20/20 A2938 RMK SLP953 T02000200 IEM_DS3505
ZBAA,1996-06-20 14:00,ZBAA 201400Z AUTO 34002KT 7SM 20/20 A2938 RMK SLP953 T02000200 IEM_DS3505
ZBAA,1996-06-20 15:00,ZBAA 201500Z AUTO 34004KT 12SM 23/17 A2941 RMK SLP957 T02270167 52018 IEM_DS3505
ZBAA,1996-06-20 16:00,ZBAA 201600Z AUTO 32002KT 7SM 21/20 A2941 RMK SLP963 T02100200 IEM_DS3505
ZBAA,1996-06-20 18:00,ZBAA 201800Z AUTO 02006KT 12SM 22/17 A2941 RMK SLP962 T02210168 52005 IEM_DS3505
ZBAA,1996-06-20 20:00,ZBAA 202000Z AUTO 35002KT 6SM 20/18 A2944 RMK SLP973 T02000180 IEM_DS3505
ZBAA,1996-06-20 21:00,ZBAA 202100Z AUTO 34004KT 19SM 21/16 A2944 RMK SLP976 T02120156 52014 IEM_DS3505
ZBAA,1996-06-20 22:00,ZBAA 202200Z AUTO 35002KT 6SM 20/18 A2947 RMK SLP983 T02000180 IEM_DS3505
ZBAA,1996-06-20 23:00,ZBAA 202300Z AUTO 35004KT 6SM 22/17 A2950 RMK SLP994 T02200170 IEM_DS3505
ZBAA,1996-06-21 00:00,ZBAA 210000Z AUTO 02008KT 12SM 26/18 A2950 RMK SLP990 T02560181 52015 IEM_DS3505
ZBAA,1996-06-21 01:00,ZBAA 210100Z AUTO 34008KT 6SM 27/17 A2950 RMK SLP993 T02700170 IEM_DS3505
ZBAA,1996-06-21 02:00,ZBAA 210200Z AUTO 31008KT 6SM 27/16 A2950 RMK SLP993 T02700160 IEM_DS3505
ZBAA,1996-06-21 03:00,ZBAA 210300Z AUTO 34010KT 19SM 28/14 A2950 RMK SLP992 T02840135 52002 IEM_DS3505
ZBAA,1996-06-21 04:00,ZBAA 210400Z AUTO 33008KT 7SM 30/16 A2950 RMK SLP992 T03000160 IEM_DS3505
ZBAA,1996-06-21 05:00,ZBAA 210500Z AUTO ////04KT 7SM 31/17 A2947 RMK SLP981 T03100170 IEM_DS3505
ZBAA,1996-06-21 06:00,ZBAA 210600Z AUTO 34010KT 19SM 32/15 A2947 RMK SLP988 T03150146 57004 IEM_DS3505
ZBAA,1996-06-21 07:00,ZBAA 210700Z AUTO 30010KT 7SM 31/16 A2947 RMK SLP981 T03100160 IEM_DS3505
ZBAA,1996-06-21 08:00,ZBAA 210800Z AUTO 35012KT 7SM 30/17 A2947 RMK SLP981 T03000170 IEM_DS3505
ZBAA,1996-06-21 09:00,ZBAA 210900Z AUTO 02008KT 19SM 32/14 A2948 RMK SLP984 T03200140 57004 IEM_DS3505
ZBAA,1996-06-21 11:00,ZBAA 211100Z AUTO 29006KT 6SM 30/16 A2947 RMK SLP981 T03000160 IEM_DS3505
ZBAA,1996-06-21 12:00,ZBAA 211200Z AUTO 29002KT 19SM 29/15 A2950 RMK SLP988 T02930151 52004 IEM_DS3505
ZBAA,1996-06-21 13:00,ZBAA 211300Z AUTO ////04KT 6SM 29/16 A2950 RMK SLP993 T02900160 IEM_DS3505
ZBAA,1996-06-21 14:00,ZBAA 211400Z AUTO ////04KT 6SM 28/16 A2953 RMK SLP003 T02800160 IEM_DS3505
ZBAA,1996-06-21 15:00,ZBAA 211500Z AUTO 00000KT 12SM 25/17 A2953 RMK SLP997 T02530170 52009 IEM_DS3505
ZBAA,1996-06-21 16:00,ZBAA 211600Z AUTO 00000KT 6SM 24/20 A2953 RMK SLP004 T02400200 IEM_DS3505
ZBAA,1996-06-21 17:00,ZBAA 211700Z AUTO 14004KT 6SM 23/20 A2953 RMK SLP004 T02300200 IEM_DS3505
ZBAA,1996-06-21 18:00,ZBAA 211800Z AUTO 07004KT 12SM 25/17 A2953 RMK SLP001 T02500169 52004 IEM_DS3505
ZBAA,1996-06-21 20:00,ZBAA 212000Z AUTO 00000KT 5SM 21/20 A2956 RMK SLP014 T02100200 IEM_DS3505
ZBAA,1996-06-21 21:00,ZBAA 212100Z AUTO 02006KT 5SM 22/19 A2959 RMK SLP020 T02180190 52019 IEM_DS3505
ZBAA,1996-06-21 22:00,ZBAA 212200Z AUTO 11004KT 4SM 21/20 A2959 RMK SLP025 T02100200 IEM_DS3505
ZBAA,1996-06-21 23:00,ZBAA 212300Z AUTO 18004KT 4SM 22/20 A2959 RMK SLP024 T02200200 IEM_DS3505
ZBAA,1996-06-22 00:00,ZBAA 220000Z AUTO 04004KT 4SM 24/19 A2959 RMK SLP023 T02390189 52003 IEM_DS3505
ZBAA,1996-06-22 01:00,ZBAA 220100Z AUTO ////02KT 4SM 25/21 A2959 RMK SLP024 T02500210 IEM_DS3505
ZBAA,1996-06-22 02:00,ZBAA 220200Z AUTO ////06KT 4SM 26/21 A2959 RMK SLP023 T02600210 IEM_DS3505
ZBAA,1996-06-22 03:00,ZBAA 220300Z AUTO 04004KT 3SM 28/19 A2959 RMK SLP021 T02840189 57002 IEM_DS3505
ZBAA,1996-06-22 04:00,ZBAA 220400Z AUTO ////04KT 4SM 30/22 A2956 RMK SLP013 T03000220 IEM_DS3505
ZBAA,1996-06-22 05:00,ZBAA 220500Z AUTO ////04KT 4SM 31/20 A2956 RMK SLP012 T03100200 IEM_DS3505
ZBAA,1996-06-22 06:00,ZBAA 220600Z AUTO 34006KT 6SM 32/16 A2953 RMK SLP008 T03220162 57013 IEM_DS3505
ZBAA,1996-06-22 07:00,ZBAA 220700Z AUTO ////06KT 6SM 33/18 A2953 RMK SLP002 T03300180 IEM_DS3505
ZBAA,1996-06-22 08:00,ZBAA 220800Z AUTO 33010KT 6SM 34/16 A2953 RMK SLP002 T03400160 IEM_DS3505
ZBAA,1996-06-22 09:00,ZBAA 220900Z AUTO 29002KT 12SM 32/14 A2953 RMK SLP011 T03150137 52003 IEM_DS3505
ZBAA,1996-06-22 10:00,ZBAA 221000Z AUTO ////06KT 7SM 31/15 A2956 RMK SLP012 T03100150 IEM_DS3505
ZBAA,1996-06-22 11:00,ZBAA 221100Z AUTO 24010KT 7SM 30/16 A2962 RMK SLP033 T03000160 IEM_DS3505
ZBAA,1996-06-22 12:00,ZBAA 221200Z AUTO 07006G31KT 19SM 24/16 A2962 RMK 60008 SLP032 T02360156 52020 IEM_DS3505
ZBAA,1996-06-22 13:00,ZBAA 221300Z AUTO 04008KT 7SM 23/18 A2959 RMK SLP024 T02300180 IEM_DS3505
ZBAA,1996-06-22 14:00,ZBAA 221400Z AUTO 34008KT 7SM 23/20 A2965 RMK SLP044 T02300200 IEM_DS3505
ZBAA,1996-06-22 15:00,ZBAA 221500Z AUTO 04010KT 19SM 22/17 A2968 RMK SLP038 T02230168 52006 IEM_DS3505
ZBAA,1996-06-22 16:00,ZBAA 221600Z AUTO ////04KT 7SM 22/20 A2965 RMK SLP044 T02200200 IEM_DS3505
ZBAA,1996-06-22 17:00,ZBAA 221700Z AUTO 02008KT 7SM 22/19 A2965 RMK SLP044 T02200190 IEM_DS3505
ZBAA,1996-06-22 18:00,ZBAA 221800Z AUTO 02008KT 9SM 23/17 A2968 RMK 60004 SLP046 T02280167 52009 IEM_DS3505
ZBAA,1996-06-22 20:00,ZBAA 222000Z AUTO 03010KT 7SM 22/16 A2971 RMK SLP065 T02200160 IEM_DS3505
ZBAA,1996-06-22 21:00,ZBAA 222100Z AUTO 07004KT 9SM 22/14 A2977 RMK 70012 SLP073 T02230140 52026 IEM_DS3505
ZBAA,1996-06-22 22:00,ZBAA 222200Z AUTO 05006KT 7SM 20/15 A2977 RMK SLP086 T02000150 IEM_DS3505
ZBAA,1996-06-22 23:00,ZBAA 222300Z AUTO 04012KT 7SM 19/14 A2980 RMK SLP096 T01900140 IEM_DS3505
ZBAA,1996-06-23 00:00,ZBAA 230000Z AUTO 07010KT 12SM 20/12 A2983 RMK 60000 70012 SLP102 T02010121 52028 IEM_DS3505
ZBAA,1996-06-23 01:00,ZBAA 230100Z AUTO 05010KT 6SM 20/15 A2983 RMK SLP106 T02000150 IEM_DS3505
ZBAA,1996-06-23 02:00,ZBAA 230200Z AUTO 03008KT 6SM 21/15 A2983 RMK SLP106 T02100150 IEM_DS3505
ZBAA,1996-06-23 03:00,ZBAA 230300Z AUTO 07006KT 7SM 22/13 A2983 RMK SLP103 T02220126 52001 IEM_DS3505
ZBAA,1996-06-23 04:00,ZBAA 230400Z AUTO ////04KT 6SM 23/15 A2980 RMK SLP096 T02300150 IEM_DS3505
ZBAA,1996-06-23 05:00,ZBAA 230500Z AUTO ////02KT 6SM 25/13 A2980 RMK SLP095 T02500130 IEM_DS3505
ZBAA,1996-06-23 06:00,ZBAA 230600Z AUTO 16004KT 7SM 26/11 A2977 RMK SLP088 T02550111 57014 IEM_DS3505
ZBAA,1996-06-23 07:00,ZBAA 230700Z AUTO ////04KT 6SM 27/13 A2977 RMK SLP085 T02700130 IEM_DS3505
ZBAA,1996-06-23 08:00,ZBAA 230800Z AUTO ////04KT 6SM 27/13 A2974 RMK SLP074 T02700130 IEM_DS3505
ZBAA,1996-06-23 09:00,ZBAA 230900Z AUTO 11004KT 6SM 27/09 A2974 RMK SLP076 T02720087 57012 IEM_DS3505
ZBAA,1996-06-23 10:00,ZBAA 231000Z AUTO 19006KT 6SM 27/13 A2974 RMK SLP074 T02700130 IEM_DS3505
ZBAA,1996-06-23 11:00,ZBAA 231100Z AUTO ////04KT 6SM 25/12 A2974 RMK SLP074 T02500120 IEM_DS3505
ZBAA,1996-06-23 12:00,ZBAA 231200Z AUTO 20004KT 6SM 25/10 A2977 RMK SLP079 T02510103 52003 IEM_DS3505
ZBAA,1996-06-23 13:00,ZBAA 231300Z AUTO 15006KT 6SM 24/16 A2977 RMK SLP085 T02400160 IEM_DS3505
ZBAA,1996-06-23 14:00,ZBAA 231400Z AUTO 17008KT 6SM 23/17 A2980 RMK SLP096 T02300170 IEM_DS3505
ZBAA,1996-06-23 15:00,ZBAA 231500Z AUTO 18006KT 7SM 23/16 A2980 RMK SLP093 T02260164 52013 IEM_DS3505
ZBAA,1996-06-23 16:00,ZBAA 231600Z AUTO 17002KT 6SM 21/18 A2980 RMK SLP096 T02100180 IEM_DS3505
ZBAA,1996-06-23 17:00,ZBAA 231700Z AUTO ////02KT 6SM 21/18 A2980 RMK SLP096 T02100180 IEM_DS3505
ZBAA,1996-06-23 18:00,ZBAA 231800Z AUTO 00000KT 6SM 20/17 A2976 RMK SLP082 T02040173 57010 IEM_DS3505
ZBAA,1996-06-23 20:00,ZBAA 232000Z AUTO 35002KT 4SM 19/18 A2974 RMK SLP075 T01900180 IEM_DS3505
ZBAA,1996-06-23 21:00,ZBAA 232100Z AUTO 00000KT 7SM 19/16 A2974 RMK SLP079 T01930156 57003 IEM_DS3505
ZBAA,1996-06-23 22:00,ZBAA 232200Z AUTO 00000KT 2 1/2SM 18/17 A2977 RMK SLP087 T01800170 IEM_DS3505
ZBAA,1996-06-23 23:00,ZBAA 232300Z AUTO 00000KT 2 1/2SM 20/18 A2977 RMK SLP086 T02000180 IEM_DS3505
ZBAA,1996-06-24 00:00,ZBAA 240000Z AUTO 18006KT 5SM 21/18 A2974 RMK SLP079 T02110179 54000 IEM_DS3505
ZBAA,1996-06-24 01:00,ZBAA 240100Z AUTO ////06KT 1SM 22/20 A2974 RMK SLP075 T02200200 IEM_DS3505
ZBAA,1996-06-24 02:00,ZBAA 240200Z AUTO ////06KT 1 1/4SM 23/20 A2974 RMK SLP074 T02300200 IEM_DS3505
ZBAA,1996-06-24 03:00,ZBAA 240300Z AUTO 20008KT 3SM 24/17 A2971 RMK SLP069 T02440174 57010 IEM_DS3505
ZBAA,1996-06-24 04:00,ZBAA 240400Z AUTO 17008KT 1 1/2SM 27/20 A2971 RMK SLP064 T02700200 IEM_DS3505
ZBAA,1996-06-24 05:00,ZBAA 240500Z AUTO ////06KT 2SM 28/20 A2968 RMK SLP053 T02800200 IEM_DS3505
ZBAA,1996-06-24 06:00,ZBAA 240600Z AUTO 20008KT 3SM 28/17 A2968 RMK SLP051 T02790174 57018 IEM_DS3505
ZBAA,1996-06-24 07:00,ZBAA 240700Z AUTO 18008KT 4SM 29/20 A2965 RMK SLP043 T02900200 IEM_DS3505
ZBAA,1996-06-24 08:00,ZBAA 240800Z AUTO 18010KT 7SM 30/19 A2962 RMK SLP033 T03000190 IEM_DS3505
ZBAA,1996-06-24 09:00,ZBAA 240900Z AUTO 20010KT 5SM 30/17 A2959 RMK SLP028 T03020173 57023 IEM_DS3505
ZBAA,1996-06-24 10:00,ZBAA 241000Z AUTO 20010KT 7SM 30/17 A2959 RMK SLP023 T03000170 IEM_DS3505
ZBAA,1996-06-24 11:00,ZBAA 241100Z AUTO 16008KT 6SM 29/16 A2959 RMK SLP023 T02900160 IEM_DS3505
ZBAA,1996-06-24 12:00,ZBAA 241200Z AUTO 16008KT 7SM 29/16 A2959 RMK SLP027 T02880160 57001 IEM_DS3505
ZBAA,1996-06-24 13:00,ZBAA 241300Z AUTO 13010KT 4SM 25/21 A2959 RMK SLP024 T02500210 IEM_DS3505
ZBAA,1996-06-24 14:00,ZBAA 241400Z AUTO 14006KT 3SM 24/22 A2965 RMK SLP044 T02400220 IEM_DS3505
ZBAA,1996-06-24 15:00,ZBAA 241500Z AUTO 18006KT 6SM 27/18 A2962 RMK SLP034 T02690177 52007 IEM_DS3505
ZBAA,1996-06-24 16:00,ZBAA 241600Z AUTO 10006KT 2SM 23/22 A2962 RMK SLP034 T02300220 IEM_DS3505
ZBAA,1996-06-24 17:00,ZBAA 241700Z AUTO 07008KT 1 1/2SM 23/22 A2962 RMK SLP034 T02300220 IEM_DS3505
ZBAA,1996-06-24 18:00,ZBAA 241800Z AUTO 02008KT 4SM 24/21 A2962 RMK SLP030 T02360212 57004 IEM_DS3505
ZBAA,1996-06-24 19:00,ZBAA 241900Z AUTO 06004KT 1 1/4SM 22/21 A2962 RMK SLP034 T02200210 IEM_DS3505
ZBAA,1996-06-24 20:00,ZBAA 242000Z AUTO 02004KT 1 1/4SM 21/21 A2962 RMK SLP035 T02100210 IEM_DS3505
ZBAA,1996-06-24 21:00,ZBAA 242100Z AUTO 34004KT 1 1/4SM 23/20 A2962 RMK SLP033 T02270203 52004 IEM_DS3505
ZBAA,1996-06-24 22:00,ZBAA 242200Z AUTO 08004KT 1SM 22/21 A2965 RMK SLP044 T02200210 IEM_DS3505
ZBAA,1996-06-24 23:00,ZBAA 242300Z AUTO 09004KT 1SM 22/22 A2965 RMK SLP044 T02200220 IEM_DS3505
ZBAA,1996-06-25 00:00,ZBAA 250000Z AUTO 36008KT 1 1/4SM 24/20 A2965 RMK SLP042 T02450201 52009 IEM_DS3505
ZBAA,1996-06-25 01:00,ZBAA 250100Z AUTO ////04KT 2SM 25/22 A2965 RMK SLP044 T02500220 IEM_DS3505
ZBAA,1996-06-25 02:00,ZBAA 250200Z AUTO 11004KT 3SM 27/22 A2965 RMK SLP043 T02700220 IEM_DS3505
ZBAA,1996-06-25 03:00,ZBAA 250300Z AUTO 32004KT 1 1/2SM 28/20 A2965 RMK SLP043 T02800205 52001 IEM_DS3505
ZBAA,1996-06-25 04:00,ZBAA 250400Z AUTO 13006KT 4SM 30/23 A2962 RMK SLP033 T03000230 IEM_DS3505
ZBAA,1996-06-25 05:00,ZBAA 250500Z AUTO 21008KT 4SM 31/22 A2962 RMK SLP033 T03100220 IEM_DS3505
ZBAA,1996-06-25 06:00,ZBAA 250600Z AUTO 18008KT 3SM 32/19 A2962 RMK SLP031 T03160187 57012 IEM_DS3505
ZBAA,1996-06-25 07:00,ZBAA 250700Z AUTO 16006KT 5SM 34/22 A2959 RMK SLP022 T03400220 IEM_DS3505
ZBAA,1996-06-25 08:00,ZBAA 250800Z AUTO 16008KT 7SM 33/22 A2959 RMK SLP022 T03300220 IEM_DS3505
ZBAA,1996-06-25 09:00,ZBAA 250900Z AUTO 20008KT 4SM 33/19 A2959 RMK SLP020 T03280189 57011 IEM_DS3505
ZBAA,1996-06-25 10:00,ZBAA 251000Z AUTO 20006KT 6SM 32/20 A2959 RMK SLP022 T03200200 IEM_DS3505
ZBAA,1996-06-25 11:00,ZBAA 251100Z AUTO 16006KT 6SM 32/19 A2959 RMK SLP022 T03200190 IEM_DS3505
ZBAA,1996-06-25 12:00,ZBAA 251200Z AUTO 16006KT 2 1/2SM 32/18 A2959 RMK SLP024 T03180182 52004 IEM_DS3505
ZBAA,1996-06-25 13:00,ZBAA 251300Z AUTO 16006KT 6SM 30/19 A2962 RMK SLP033 T03000190 IEM_DS3505
ZBAA,1996-06-25 14:00,ZBAA 251400Z AUTO 17008KT 6SM 30/17 A2962 RMK SLP033 T03000170 IEM_DS3505
ZBAA,1996-06-25 15:00,ZBAA 251500Z AUTO 20010KT 6SM 29/16 A2965 RMK SLP039 T02860156 52015 IEM_DS3505
ZBAA,1996-06-25 16:00,ZBAA 251600Z AUTO 18006KT 6SM 27/16 A2965 RMK SLP043 T02700160 IEM_DS3505
ZBAA,1996-06-25 17:00,ZBAA 251700Z AUTO 20010KT 7SM 27/17 A2962 RMK SLP033 T02700170 IEM_DS3505
ZBAA,1996-06-25 18:00,ZBAA 251800Z AUTO 18010KT 11SM 26/16 A2963 RMK SLP036 T02650160 57003 IEM_DS3505
ZBAA,1996-06-25 20:00,ZBAA 252000Z AUTO 21012KT 7SM 25/18 A2965 RMK SLP044 T02500180 IEM_DS3505
ZBAA,1996-06-25 21:00,ZBAA 252100Z AUTO 20010KT 10SM 24/17 A2965 RMK SLP044 T02440169 52008 IEM_DS3505
ZBAA,1996-06-25 22:00,ZBAA 252200Z AUTO 18006KT 7SM 24/19 A2968 RMK SLP054 T02400190 IEM_DS3505
ZBAA,1996-06-25 23:00,ZBAA 252300Z AUTO 19008KT 7SM 25/20 A2971 RMK SLP064 T02500200 IEM_DS3505
ZBAA,1996-06-26 00:00,ZBAA 260000Z AUTO 20006KT 6SM 25/18 A2971 RMK SLP059 T02490182 52015 IEM_DS3505
ZBAA,1996-06-26 01:00,ZBAA 260100Z AUTO 17008KT 6SM 27/21 A2971 RMK SLP064 T02700210 IEM_DS3505
ZBAA,1996-06-26 02:00,ZBAA 260200Z AUTO 18008KT 6SM 29/21 A2971 RMK SLP063 T02900210 IEM_DS3505
ZBAA,1996-06-26 03:00,ZBAA 260300Z AUTO 18010KT 7SM 29/18 A2971 RMK SLP059 T02910185 54000 IEM_DS3505
ZBAA,1996-06-26 04:00,ZBAA 260400Z AUTO 18012KT 6SM 31/20 A2968 RMK SLP053 T03100200 IEM_DS3505
ZBAA,1996-06-26 05:00,ZBAA 260500Z AUTO 19012KT 6SM 30/18 A2968 RMK SLP053 T03000180 IEM_DS3505
ZBAA,1996-06-26 06:00,ZBAA 260600Z AUTO 20008KT 7SM 29/17 A2965 RMK SLP048 T02940172 57011 IEM_DS3505
ZBAA,1996-06-26 07:00,ZBAA 260700Z AUTO 18010KT 6SM 31/20 A2965 RMK SLP043 T03100200 IEM_DS3505
ZBAA,1996-06-26 08:00,ZBAA 260800Z AUTO 17008KT 7SM 31/19 A2962 RMK SLP033 T03100190 IEM_DS3505
ZBAA,1996-06-26 09:00,ZBAA 260900Z AUTO 16006KT 7SM 31/17 A2962 RMK SLP030 T03080167 57018 IEM_DS3505
ZBAA,1996-06-26 10:00,ZBAA 261000Z AUTO 16012KT 7SM 30/18 A2962 RMK SLP033 T03000180 IEM_DS3505
ZBAA,1996-06-26 11:00,ZBAA 261100Z AUTO 15010KT 7SM 30/19 A2962 RMK SLP033 T03000190 IEM_DS3505
ZBAA,1996-06-26 12:00,ZBAA 261200Z AUTO 16002KT 9SM 30/16 A2962 RMK SLP032 T02960159 52002 IEM_DS3505
ZBAA,1996-06-26 13:00,ZBAA 261300Z AUTO 13010KT 6SM 27/20 A2965 RMK SLP043 T02700200 IEM_DS3505
ZBAA,1996-06-26 14:00,ZBAA 261400Z AUTO 14012KT 6SM 26/19 A2962 RMK SLP034 T02600190 IEM_DS3505
ZBAA,1996-06-26 15:00,ZBAA 261500Z AUTO 16008KT 7SM 27/19 A2965 RMK SLP036 T02680190 52004 IEM_DS3505
ZBAA,1996-06-26 16:00,ZBAA 261600Z AUTO 11008KT 7SM 25/21 A2962 RMK SLP034 T02500210 IEM_DS3505
ZBAA,1996-06-26 17:00,ZBAA 261700Z AUTO 12006KT 7SM 25/21 A2962 RMK SLP034 T02500210 IEM_DS3505
ZBAA,1996-06-26 18:00,ZBAA 261800Z AUTO 16004KT 7SM 26/19 A2962 RMK SLP028 T02570189 57008 IEM_DS3505
ZBAA,1996-06-26 21:00,ZBAA 262100Z AUTO 02008KT 7SM 24/20 A2959 RMK SLP025 T02390199 57003 IEM_DS3505
ZBAA,1996-06-26 22:00,ZBAA 262200Z AUTO 09004KT 2 1/2SM 22/22 A2959 RMK SLP024 T02200220 IEM_DS3505
ZBAA,1996-06-26 23:00,ZBAA 262300Z AUTO 11006KT 2 1/2SM 22/22 A2959 RMK SLP024 T02200220 IEM_DS3505
ZBAA,1996-06-27 00:00,ZBAA 270000Z AUTO 04004KT 3SM 22/21 A2962 RMK 60016 70016 SLP027 T02230206 52002 IEM_DS3505
ZBAA,1996-06-27 01:00,ZBAA 270100Z AUTO 09006KT 2SM 21/21 A2962 RMK SLP035 T02100210 IEM_DS3505
ZBAA,1996-06-27 02:00,ZBAA 270200Z AUTO 02006KT 7SM 21/21 A2962 RMK SLP035 T02100210 IEM_DS3505
ZBAA,1996-06-27 03:00,ZBAA 270300Z AUTO 07004KT 2SM 21/20 A2965 RMK SLP039 T02070199 52011 IEM_DS3505
ZBAA,1996-06-27 04:00,ZBAA 270400Z AUTO ////04KT 3SM 21/21 A2965 RMK SLP045 T02100210 IEM_DS3505
ZBAA,1996-06-27 05:00,ZBAA 270500Z AUTO 24004KT 4SM 21/21 A2962 RMK SLP035 T02100210 IEM_DS3505
ZBAA,1996-06-27 06:00,ZBAA 270600Z AUTO 04004KT 2 1/2SM 22/20 A2959 RMK 60059 SLP029 T02180203 57010 IEM_DS3505
ZBAA,1996-06-27 07:00,ZBAA 270700Z AUTO ////04KT 4SM 21/21 A2959 RMK SLP025 T02100210 IEM_DS3505
ZBAA,1996-06-27 08:00,ZBAA 270800Z AUTO ////02KT 4SM 23/23 A2959 RMK SLP024 T02300230 IEM_DS3505
ZBAA,1996-06-27 09:00,ZBAA 270900Z AUTO 18006KT 4SM 24/20 A2959 RMK SLP029 T02390196 54000 IEM_DS3505
ZBAA,1996-06-27 10:00,ZBAA 271000Z AUTO 13008KT 7SM 22/20 A2959 RMK SLP024 T02200200 IEM_DS3505
ZBAA,1996-06-27 11:00,ZBAA 271100Z AUTO 14008KT 7SM 22/20 A2962 RMK SLP034 T02200200 IEM_DS3505
ZBAA,1996-06-27 12:00,ZBAA 271200Z AUTO 16002KT 2SM 22/19 A2965 RMK SLP040 T02210188 52011 IEM_DS3505
ZBAA,1996-06-27 13:00,ZBAA 271300Z AUTO 16008KT 4SM 21/20 A2965 RMK SLP045 T02100200 IEM_DS3505
ZBAA,1996-06-27 14:00,ZBAA 271400Z AUTO 11004KT 4SM 20/20 A2962 RMK SLP035 T02000200 IEM_DS3505
ZBAA,1996-06-27 15:00,ZBAA 271500Z AUTO 16006KT 1 1/2SM 21/19 A2965 RMK SLP044 T02140189 52003 IEM_DS3505
ZBAA,1996-06-27 18:00,ZBAA 271800Z AUTO 14004KT 2 1/2SM 21/19 A2963 RMK 60000 SLP039 T02110187 57004 IEM_DS3505
ZBAA,1996-06-27 20:00,ZBAA 272000Z AUTO 13004KT 3SM 20/19 A2965 RMK SLP045 T02000190 IEM_DS3505
ZBAA,1996-06-27 21:00,ZBAA 272100Z AUTO 09004KT 1 1/4SM 21/19 A2965 RMK 70071 SLP041 T02070190 52002 IEM_DS3505
ZBAA,1996-06-27 22:00,ZBAA 272200Z AUTO 13008KT 4SM 20/19 A2965 RMK SLP045 T02000190 IEM_DS3505
ZBAA,1996-06-27 23:00,ZBAA 272300Z AUTO 13010KT 4SM 20/19 A2968 RMK SLP055 T02000190 IEM_DS3505
ZBAA,1996-06-28 00:00,ZBAA 280000Z AUTO 18006KT 1SM 20/19 A2968 RMK 70059 SLP052 T02050188 52010 IEM_DS3505
ZBAA,1996-06-28 01:00,ZBAA 280100Z AUTO 16004KT 2 1/2SM 20/19 A2968 RMK SLP055 T02000190 IEM_DS3505
ZBAA,1996-06-28 02:00,ZBAA 280200Z AUTO 15002KT 1 1/2SM 19/19 A2968 RMK SLP055 T01900190 IEM_DS3505
ZBAA,1996-06-28 03:00,ZBAA 280300Z AUTO 11004KT 1 1/4SM 22/20 A2968 RMK SLP054 T02190196 52002 IEM_DS3505
ZBAA,1996-06-28 04:00,ZBAA 280400Z AUTO 09004KT 2 1/2SM 22/21 A2968 RMK SLP055 T02200210 IEM_DS3505
ZBAA,1996-06-28 05:00,ZBAA 280500Z AUTO 00000KT 2 1/2SM 22/21 A2965 RMK SLP044 T02200210 IEM_DS3505
ZBAA,1996-06-28 06:00,ZBAA 280600Z AUTO 34004KT 1SM 22/20 A2962 RMK SLP039 T02250202 57014 IEM_DS3505
ZBAA,1996-06-28 07:00,ZBAA 280700Z AUTO ////04KT 1 1/2SM 23/21 A2962 RMK SLP034 T02300210 IEM_DS3505
ZBAA,1996-06-28 08:00,ZBAA 280800Z AUTO 20004KT 1 1/4SM 23/21 A2959 RMK SLP024 T02300210 IEM_DS3505
ZBAA,1996-06-28 09:00,ZBAA 280900Z AUTO 20006KT 1 1/4SM 22/20 A2959 RMK SLP031 T02250205 57008 IEM_DS3505
ZBAA,1996-06-28 10:00,ZBAA 281000Z AUTO 14004KT 1 1/4SM 22/22 A2959 RMK SLP024 T02200220 IEM_DS3505
ZBAA,1996-06-28 11:00,ZBAA 281100Z AUTO 00000KT 1 1/4SM 23/22 A2959 RMK SLP024 T02300220 IEM_DS3505
ZBAA,1996-06-28 12:00,ZBAA 281200Z AUTO 32004KT 1 1/4SM 22/20 A2956 RMK 60000 SLP017 T02250205 57014 IEM_DS3505
ZBAA,1996-06-28 13:00,ZBAA 281300Z AUTO 02006KT 1 1/4SM 22/21 A2956 RMK SLP014 T02200210 IEM_DS3505
ZBAA,1996-06-28 14:00,ZBAA 281400Z AUTO ////04KT 1SM 21/21 A2956 RMK SLP014 T02100210 IEM_DS3505
ZBAA,1996-06-28 15:00,ZBAA 281500Z AUTO 14002KT 1 1/4SM 22/21 A2959 RMK SLP021 T02190207 52004 IEM_DS3505
ZBAA,1996-06-28 18:00,ZBAA 281800Z AUTO 00000KT 1SM 22/21 A2955 RMK SLP010 T02180209 57011 IEM_DS3505
ZBAA,1996-06-28 20:00,ZBAA 282000Z AUTO 03004KT 1SM 21/21 A2950 RMK SLP994 T02100210 IEM_DS3505
ZBAA,1996-06-28 21:00,ZBAA 282100Z AUTO 02004KT 1SM 21/20 A2950 RMK 70001 SLP994 T02110205 57016 IEM_DS3505
ZBAA,1996-06-28 23:00,ZBAA 282300Z AUTO 00000KT 1SM 22/22 A2950 RMK SLP994 T02200220 IEM_DS3505
ZBAA,1996-06-29 00:00,ZBAA 290000Z AUTO 02006KT 1SM 23/21 A2950 RMK 70001 SLP994 T02290206 54000 IEM_DS3505
ZBAA,1996-06-29 01:00,ZBAA 290100Z AUTO ////02KT 1SM 24/22 A2947 RMK SLP983 T02400220 IEM_DS3505
ZBAA,1996-06-29 02:00,ZBAA 290200Z AUTO ////04KT 1 1/4SM 25/23 A2947 RMK SLP982 T02500230 IEM_DS3505
ZBAA,1996-06-29 03:00,ZBAA 290300Z AUTO 00000KT 2SM 26/20 A2944 RMK SLP980 T02640202 57014 IEM_DS3505
ZBAA,1996-06-29 04:00,ZBAA 290400Z AUTO ////04KT 2SM 27/22 A2944 RMK SLP972 T02700220 IEM_DS3505
ZBAA,1996-06-29 05:00,ZBAA 290500Z AUTO ////04KT 1 1/2SM 29/22 A2938 RMK SLP951 T02900220 IEM_DS3505
ZBAA,1996-06-29 06:00,ZBAA 290600Z AUTO 22008KT 3SM 29/20 A2935 RMK SLP951 T02860202 57028 IEM_DS3505
ZBAA,1996-06-29 07:00,ZBAA 290700Z AUTO 22010KT 3SM 29/22 A2935 RMK SLP941 T02900220 IEM_DS3505
ZBAA,1996-06-29 08:00,ZBAA 290800Z AUTO 19006KT 4SM 30/23 A2935 RMK SLP941 T03000230 IEM_DS3505
ZBAA,1996-06-29 09:00,ZBAA 290900Z AUTO 27006KT 7SM 31/18 A2935 RMK SLP941 T03130178 57010 IEM_DS3505
ZBAA,1996-06-29 10:00,ZBAA 291000Z AUTO 15010G19KT 4SM 30/22 A2932 RMK SLP931 T03000220 IEM_DS3505
ZBAA,1996-06-29 11:00,ZBAA 291100Z AUTO 35008KT 7SM 28/21 A2935 RMK SLP942 T02800210 IEM_DS3505
ZBAA,1996-06-29 12:00,ZBAA 291200Z AUTO 25002KT 7SM 29/ A2938 RMK SLP956 52015 IEM_DS3505
ZBAA,1996-06-29 13:00,ZBAA 291300Z AUTO 00000KT 7SM 25/21 A2941 RMK SLP962 T02500210 IEM_DS3505
ZBAA,1996-06-29 14:00,ZBAA 291400Z AUTO 00000KT 5SM 24/21 A2941 RMK SLP963 T02400210 IEM_DS3505
ZBAA,1996-06-29 15:00,ZBAA 291500Z AUTO 25004KT 12SM 25/13 A2941 RMK SLP958 T02490132 52002 IEM_DS3505
ZBAA,1996-06-29 16:00,ZBAA 291600Z AUTO 34004KT 4SM 22/21 A2941 RMK SLP963 T02200210 IEM_DS3505
ZBAA,1996-06-29 17:00,ZBAA 291700Z AUTO 00000KT 2 1/2SM 21/21 A2941 RMK SLP963 T02100210 IEM_DS3505
ZBAA,1996-06-29 18:00,ZBAA 291800Z AUTO 02002KT 12SM 21/15 A2942 RMK SLP965 T02060153 52007 IEM_DS3505
ZBAA,1996-06-29 20:00,ZBAA 292000Z AUTO ////04KT 7SM 20/17 A2944 RMK SLP973 T02000170 IEM_DS3505
ZBAA,1996-06-29 21:00,ZBAA 292100Z AUTO 02006KT 12SM 22/12 A2944 RMK SLP971 T02170119 52006 IEM_DS3505
ZBAA,1996-06-29 22:00,ZBAA 292200Z AUTO ////04KT 5SM 21/19 A2947 RMK SLP983 T02100190 IEM_DS3505
ZBAA,1996-06-29 23:00,ZBAA 292300Z AUTO 03006KT 5SM 22/18 A2947 RMK SLP983 T02200180 IEM_DS3505
ZBAA,1996-06-30 00:00,ZBAA 300000Z AUTO 04006KT 19SM 26/12 A2947 RMK SLP984 T02550121 52013 IEM_DS3505
ZBAA,1996-06-30 01:00,ZBAA 300100Z AUTO 03006KT 7SM 27/18 A2947 RMK SLP982 T02700180 IEM_DS3505
ZBAA,1996-06-30 02:00,ZBAA 300200Z AUTO 05004KT 7SM 29/17 A2947 RMK SLP982 T02900170 IEM_DS3505
ZBAA,1996-06-30 03:00,ZBAA 300300Z AUTO 16004KT 12SM 30/12 A2944 RMK SLP978 T02990118 57006 IEM_DS3505
ZBAA,1996-06-30 04:00,ZBAA 300400Z AUTO ////02KT 6SM 31/14 A2941 RMK SLP961 T03100140 IEM_DS3505
ZBAA,1996-06-30 05:00,ZBAA 300500Z AUTO 21008KT 6SM 33/14 A2941 RMK SLP961 T03300140 IEM_DS3505
ZBAA,1996-06-30 06:00,ZBAA 300600Z AUTO 16010KT 9SM 33/14 A2938 RMK SLP954 T03300139 57024 IEM_DS3505
ZBAA,1996-06-30 07:00,ZBAA 300700Z AUTO 20008KT 6SM 33/17 A2938 RMK SLP951 T03300170 IEM_DS3505
ZBAA,1996-06-30 08:00,ZBAA 300800Z AUTO 18008KT 6SM 34/19 A2935 RMK SLP940 T03400190 IEM_DS3505
ZBAA,1996-06-30 09:00,ZBAA 300900Z AUTO 25002KT 9SM 35/12 A2935 RMK SLP941 T03490124 57012 IEM_DS3505
ZBAA,1996-06-30 10:00,ZBAA 301000Z AUTO 16006KT 7SM 33/17 A2935 RMK SLP941 T03300170 IEM_DS3505
ZBAA,1996-06-30 11:00,ZBAA 301100Z AUTO 13008KT 6SM 33/19 A2935 RMK SLP941 T03300190 IEM_DS3505
ZBAA,1996-06-30 12:00,ZBAA 301200Z AUTO 02004KT 9SM 30/20 A2935 RMK 60001 SLP943 T03040196 52001 IEM_DS3505
ZBAA,1996-06-30 13:00,ZBAA 301300Z AUTO 14010KT 7SM 29/18 A2938 RMK SLP951 T02900180 IEM_DS3505
ZBAA,1996-06-30 14:00,ZBAA 301400Z AUTO 07006KT 6SM 27/19 A2941 RMK SLP962 T02700190 IEM_DS3505
ZBAA,1996-06-30 15:00,ZBAA 301500Z AUTO 02004KT 7SM 27/20 A2944 RMK SLP965 T02680200 52022 IEM_DS3505
ZBAA,1996-06-30 16:00,ZBAA 301600Z AUTO 12006KT 6SM 25/18 A2941 RMK SLP962 T02500180 IEM_DS3505
ZBAA,1996-06-30 17:00,ZBAA 301700Z AUTO 01006KT 6SM 24/19 A2944 RMK SLP973 T02400190 IEM_DS3505
ZBAA,1996-06-30 18:00,ZBAA 301800Z AUTO 04008KT 12SM 25/17 A2944 RMK SLP970 T02490171 52006 IEM_DS3505
ZBAA,1996-06-30 20:00,ZBAA 302000Z AUTO 01004KT 6SM 23/18 A2947 RMK SLP983 T02300180 IEM_DS3505
ZBAA,1996-06-30 21:00,ZBAA 302100Z AUTO 00000KT 7SM 22/18 A2947 RMK 70001 SLP982 T02190184 52011 IEM_DS3505
ZBAA,1996-06-30 22:00,ZBAA 302200Z AUTO 34004KT 6SM 23/19 A2950 RMK SLP994 T02300190 IEM_DS3505
ZBAA,1996-06-30 23:00,ZBAA 302300Z AUTO 01008KT 7SM 24/19 A2950 RMK SLP994 T02400190 IEM_DS3505
ZBAA,1996-07-01 00:00,ZBAA 010000Z AUTO 36006KT 4SM 26/18 A2950 RMK 70001 SLP994 T02630177 52012 IEM_DS3505
ZBAA,1996-07-01 01:00,ZBAA 010100Z AUTO 02006KT 7SM 29/19 A2953 RMK T02900190 IEM_DS3505
ZBAA,1996-07-01 02:00,ZBAA 010200Z AUTO 36008KT 7SM 31/18 A2953 RMK T03100180 IEM_DS3505
ZBAA,1996-07-01 03:00,ZBAA 010300Z AUTO 07008KT 9SM 32/13 A2953 RMK SLP999 T03180128 52005 IEM_DS3505
ZBAA,1996-07-01 04:00,ZBAA 010400Z AUTO 05010KT 6SM 34/15 A2953 RMK T03400150 IEM_DS3505
ZBAA,1996-07-01 05:00,ZBAA 010500Z AUTO 05010KT 6SM 34/15 A2953 RMK T03400150 IEM_DS3505
ZBAA,1996-07-01 06:00,ZBAA 010600Z AUTO 16006KT 16SM 34/12 A2950 RMK SLP991 T03420115 57007 IEM_DS3505
ZBAA,1996-07-01 07:00,ZBAA 010700Z AUTO 08008KT 7SM 36/14 A2950 RMK T03600140 IEM_DS3505
ZBAA,1996-07-01 08:00,ZBAA 010800Z AUTO 07010KT 7SM 36/14 A2950 RMK T03600140 IEM_DS3505
ZBAA,1996-07-01 09:00,ZBAA 010900Z AUTO 07004KT 19SM 35/11 A2950 RMK SLP996 T03540106 52004 IEM_DS3505
ZBAA,1996-07-01 10:00,ZBAA 011000Z AUTO 06006KT 7SM 35/13 A2953 RMK T03500130 IEM_DS3505
ZBAA,1996-07-01 11:00,ZBAA 011100Z AUTO 15014KT 7SM 31/20 A2956 RMK T03100200 IEM_DS3505
ZBAA,1996-07-01 12:00,ZBAA 011200Z AUTO 16008KT 3SM 31/18 A2959 RMK SLP018 T03060183 52022 IEM_DS3505
ZBAA,1996-07-01 13:00,ZBAA 011300Z AUTO 13006KT 7SM 28/19 A2962 RMK T02800190 IEM_DS3505
ZBAA,1996-07-01 14:00,ZBAA 011400Z AUTO 15006KT 7SM 28/19 A2965 RMK T02800190 IEM_DS3505
ZBAA,1996-07-01 15:00,ZBAA 011500Z AUTO 11004KT 7SM 28/19 A2968 RMK SLP050 T02760188 52032 IEM_DS3505
ZBAA,1996-07-01 18:00,ZBAA 011800Z AUTO 00000KT 6SM 25/19 RMK SLP066 T02520190 52016 IEM_DS3505
ZBAA,1996-07-01 20:00,ZBAA 012000Z AUTO 00000KT 6SM 24/20 A2974 RMK T02400200 IEM_DS3505
ZBAA,1996-07-01 21:00,ZBAA 012100Z AUTO 36002KT 6SM 24/19 A2974 RMK SLP071 T02350190 52005 IEM_DS3505
ZBAA,1996-07-01 22:00,ZBAA 012200Z AUTO 09004KT 4SM 23/21 A2977 RMK T02300210 IEM_DS3505
ZBAA,1996-07-01 23:00,ZBAA 012300Z AUTO 00000KT 4SM 24/20 A2980 RMK T02400200 IEM_DS3505
ZBAA,1996-07-02 00:00,ZBAA 020000Z AUTO 07004KT 3SM 27/16 A2980 RMK SLP092 T02690155 52021 IEM_DS3505
ZBAA,1996-07-02 01:00,ZBAA 020100Z AUTO 14006KT 4SM 28/20 A2980 RMK T02800200 IEM_DS3505
ZBAA,1996-07-02 02:00,ZBAA 020200Z AUTO 14006KT 7SM 29/20 A2980 RMK T02900200 IEM_DS3505
ZBAA,1996-07-02 03:00,ZBAA 020300Z AUTO 07002KT 4SM 31/18 A2980 RMK SLP089 T03060181 57003 IEM_DS3505
ZBAA,1996-07-02 04:00,ZBAA 020400Z AUTO 10006KT 6SM 31/18 A2977 RMK T03100180 IEM_DS3505
ZBAA,1996-07-02 05:00,ZBAA 020500Z AUTO 13010KT 6SM 33/18 A2977 RMK T03300180 IEM_DS3505
ZBAA,1996-07-02 06:00,ZBAA 020600Z AUTO 11006KT 6SM 32/15 A2977 RMK SLP082 T03160149 57007 IEM_DS3505
ZBAA,1996-07-02 07:00,ZBAA 020700Z AUTO 14008KT 6SM 33/18 A2977 RMK T03300180 IEM_DS3505
ZBAA,1996-07-02 08:00,ZBAA 020800Z AUTO 14008KT 6SM 32/18 A2974 RMK T03200180 IEM_DS3505
ZBAA,1996-07-02 09:00,ZBAA 020900Z AUTO 16006KT 9SM 31/18 A2974 RMK SLP079 T03090183 57004 IEM_DS3505
ZBAA,1996-07-02 10:00,ZBAA 021000Z AUTO 16010KT 6SM 30/21 A2977 RMK T03000210 IEM_DS3505
ZBAA,1996-07-02 11:00,ZBAA 021100Z AUTO 15012KT 6SM 29/21 A2980 RMK T02900210 IEM_DS3505
ZBAA,1996-07-02 12:00,ZBAA 021200Z AUTO 16006KT 6SM 27/20 A2980 RMK SLP095 T02740198 52016 IEM_DS3505
ZBAA,1996-07-02 13:00,ZBAA 021300Z AUTO 17008KT 6SM 26/21 A2983 RMK T02600210 IEM_DS3505
ZBAA,1996-07-02 14:00,ZBAA 021400Z AUTO 17006KT 6SM 25/18 A2985 RMK T02500180 IEM_DS3505
ZBAA,1996-07-02 15:00,ZBAA 021500Z AUTO 11002KT 9SM 26/17 A2985 RMK SLP107 T02550171 52012 IEM_DS3505
ZBAA,1996-07-02 16:00,ZBAA 021600Z AUTO ////04KT 6SM 24/19 A2985 RMK T02400190 IEM_DS3505
ZBAA,1996-07-02 18:00,ZBAA 021800Z AUTO 09006KT 9SM 24/18 RMK SLP103 T02420179 57004 IEM_DS3505
ZBAA,1996-07-02 20:00,ZBAA 022000Z AUTO 00000KT 6SM 23/19 A2983 RMK T02300190 IEM_DS3505
ZBAA,1996-07-02 21:00,ZBAA 022100Z AUTO 04004KT 7SM 24/16 A2983 RMK SLP105 T02380165 52002 IEM_DS3505
ZBAA,1996-07-02 22:00,ZBAA 022200Z AUTO 00000KT 6SM 23/19 A2983 RMK T02300190 IEM_DS3505
ZBAA,1996-07-02 23:00,ZBAA 022300Z AUTO 00000KT 6SM 24/20 A2985 RMK T02400200 IEM_DS3505
ZBAA,1996-07-03 00:00,ZBAA 030000Z AUTO 09004KT 5SM 25/17 A2985 RMK SLP113 T02490169 52008 IEM_DS3505
ZBAA,1996-07-03 01:00,ZBAA 030100Z AUTO ////04KT 6SM 25/19 A2985 RMK T02500190 IEM_DS3505
ZBAA,1996-07-03 02:00,ZBAA 030200Z AUTO ////04KT 6SM 27/21 A2983 RMK T02700210 IEM_DS3505
ZBAA,1996-07-03 03:00,ZBAA 030300Z AUTO 09002KT 5SM 27/19 A2983 RMK SLP108 T02730192 57005 IEM_DS3505
ZBAA,1996-07-03 04:00,ZBAA 030400Z AUTO 11006KT 6SM 29/22 A2983 RMK T02900220 IEM_DS3505
ZBAA,1996-07-03 05:00,ZBAA 030500Z AUTO 14006KT 6SM 31/22 A2980 RMK T03100220 IEM_DS3505
ZBAA,1996-07-03 06:00,ZBAA 030600Z AUTO 16004KT 5SM 30/20 A2977 RMK SLP089 T03040202 57019 IEM_DS3505
ZBAA,1996-07-03 07:00,ZBAA 030700Z AUTO 12006KT 6SM 31/22 A2977 RMK T03100220 IEM_DS3505
ZBAA,1996-07-03 08:00,ZBAA 030800Z AUTO 11008KT 6SM 31/23 A2974 RMK T03100230 IEM_DS3505
ZBAA,1996-07-03 09:00,ZBAA 030900Z AUTO 14004KT 5SM 30/21 A2974 RMK SLP079 T02990212 57010 IEM_DS3505
ZBAA,1996-07-03 10:00,ZBAA 031000Z AUTO 09006KT 7SM 30/22 A2977 RMK T03000220 IEM_DS3505
ZBAA,1996-07-03 11:00,ZBAA 031100Z AUTO 09006KT 6SM 29/20 A2974 RMK T02900200 IEM_DS3505
ZBAA,1996-07-03 12:00,ZBAA 031200Z AUTO 32002KT 4SM 28/21 A2974 RMK SLP077 T02810209 57002 IEM_DS3505
ZBAA,1996-07-03 13:00,ZBAA 031300Z AUTO 18016KT 7SM 26/21 A2977 RMK T02600210 IEM_DS3505
ZBAA,1996-07-03 14:00,ZBAA 031400Z AUTO 26008KT 4SM 22/22 A2983 RMK T02200220 IEM_DS3505
ZBAA,1996-07-03 15:00,ZBAA 031500Z AUTO 32002KT 5SM 21/20 A2980 RMK SLP088 T02110197 52011 IEM_DS3505
ZBAA,1996-07-03 16:00,ZBAA 031600Z AUTO 02008KT 4SM 22/22 A2980 RMK T02200220 IEM_DS3505
ZBAA,1996-07-03 18:00,ZBAA 031800Z AUTO 34002KT 5SM 21/20 RMK SLP080 T02130202 57008 IEM_DS3505
ZBAA,1996-07-03 21:00,ZBAA 032100Z AUTO 29002KT 5SM 21/20 A2971 RMK 70031 SLP068 T02060197 57012 IEM_DS3505
ZBAA,1996-07-03 22:00,ZBAA 032200Z AUTO 36006KT 7SM 21/21 A2971 RMK T02100210 IEM_DS3505
ZBAA,1996-07-03 23:00,ZBAA 032300Z AUTO 34004KT 7SM 22/21 A2971 RMK T02200210 IEM_DS3505
ZBAA,1996-07-04 00:00,ZBAA 040000Z AUTO 00000KT 5SM 24/20 A2971 RMK 70031 SLP067 T02450196 57001 IEM_DS3505
ZBAA,1996-07-04 01:00,ZBAA 040100Z AUTO 00000KT 5SM 24/20 A2971 RMK 70031 SLP067 T02450196 57001 IEM_DS3505
ZBAA,1996-07-04 03:00,ZBAA 040300Z AUTO 18008KT 4SM 28/19 A2968 RMK SLP053 T02760194 57014 IEM_DS3505
ZBAA,1996-07-04 04:00,ZBAA 040400Z AUTO 19006KT 7SM 29/22 A2965 RMK T02900220 IEM_DS3505
ZBAA,1996-07-04 05:00,ZBAA 040500Z AUTO 19008KT 7SM 30/23 A2962 RMK T03000230 IEM_DS3505
ZBAA,1996-07-04 06:00,ZBAA 040600Z AUTO 20010G17KT 4SM 30/20 A2959 RMK SLP028 T03000205 57025 IEM_DS3505
ZBAA,1996-07-04 07:00,ZBAA 040700Z AUTO 18010KT 7SM 32/24 A2956 RMK T03200240 IEM_DS3505
ZBAA,1996-07-04 08:00,ZBAA 040800Z AUTO 18010KT 7SM 31/24 A2953 RMK T03100240 IEM_DS3505
ZBAA,1996-07-04 09:00,ZBAA 040900Z AUTO 20010KT 5SM 32/21 A2956 RMK SLP004 T03150211 57023 IEM_DS3505
ZBAA,1996-07-04 10:00,ZBAA 041000Z AUTO 36006KT 5SM 30/24 A2959 RMK T03000240 IEM_DS3505
ZBAA,1996-07-04 11:00,ZBAA 041100Z AUTO ////02KT 5SM 26/23 A2959 RMK T02600230 IEM_DS3505
ZBAA,1996-07-04 12:00,ZBAA 041200Z AUTO 32004KT 7SM 22/20 A2962 RMK 60059 SLP042 T02250205 52037 IEM_DS3505
ZBAA,1996-07-04 13:00,ZBAA 041300Z AUTO 34006KT 6SM 25/20 A2962 RMK T02500200 IEM_DS3505
ZBAA,1996-07-04 14:00,ZBAA 041400Z AUTO ////02KT 6SM 24/20 A2959 RMK T02400200 IEM_DS3505
ZBAA,1996-07-04 15:00,ZBAA 041500Z AUTO 11004KT 12SM 23/19 A2959 RMK SLP028 T02340187 57014 IEM_DS3505
ZBAA,1996-07-04 16:00,ZBAA 041600Z AUTO ////02KT 6SM 23/20 A2956 RMK T02300200 IEM_DS3505
ZBAA,1996-07-04 18:00,ZBAA 041800Z AUTO 09004KT 9SM 22/20 RMK SLP000 T02180200 57027 IEM_DS3505
ZBAA,1996-07-04 20:00,ZBAA 042000Z AUTO 01004KT 6SM 21/20 A2950 RMK T02100200 IEM_DS3505
ZBAA,1996-07-04 21:00,ZBAA 042100Z AUTO 11004KT 11SM 22/18 A2953 RMK 70059 SLP002 T02190184 52002 IEM_DS3505
ZBAA,1996-07-04 22:00,ZBAA 042200Z AUTO 34004KT 7SM 22/20 A2953 RMK T02200200 IEM_DS3505
ZBAA,1996-07-04 23:00,ZBAA 042300Z AUTO 26002KT 7SM 22/20 A2956 RMK T02200200 IEM_DS3505
ZBAA,1996-07-05 00:00,ZBAA 050000Z AUTO 00000KT 7SM 23/19 A2953 RMK 60000 70059 SLP010 T02290190 52007 IEM_DS3505
ZBAA,1996-07-05 01:00,ZBAA 050100Z AUTO 33004KT 6SM 23/21 A2956 RMK T02300210 IEM_DS3505
ZBAA,1996-07-05 02:00,ZBAA 050200Z AUTO ////04KT 6SM 23/20 A2953 RMK T02300200 IEM_DS3505
ZBAA,1996-07-05 03:00,ZBAA 050300Z AUTO 00000KT 9SM 26/19 A2956 RMK SLP011 T02640187 52001 IEM_DS3505
ZBAA,1996-07-05 04:00,ZBAA 050400Z AUTO 33006KT 7SM 25/21 A2956 RMK T02500210 IEM_DS3505
ZBAA,1996-07-05 05:00,ZBAA 050500Z AUTO ////04KT 6SM 27/20 A2956 RMK T02700200 IEM_DS3505
ZBAA,1996-07-05 06:00,ZBAA 050600Z AUTO 07004KT 12SM 29/16 A2953 RMK SLP006 T02930161 57004 IEM_DS3505
ZBAA,1996-07-05 07:00,ZBAA 050700Z AUTO ////04KT 6SM 29/18 A2950 RMK T02900180 IEM_DS3505
ZBAA,1996-07-05 08:00,ZBAA 050800Z AUTO 10006KT 6SM 31/18 A2950 RMK T03100180 IEM_DS3505
ZBAA,1996-07-05 09:00,ZBAA 050900Z AUTO 00000KT 9SM 31/16 A2947 RMK SLP989 T03070158 57017 IEM_DS3505
ZBAA,1996-07-05 10:00,ZBAA 051000Z AUTO 05014KT 7SM 23/20 A2956 RMK T02300200 IEM_DS3505
ZBAA,1996-07-05 11:00,ZBAA 051100Z AUTO ////04KT 7SM 21/19 A2956 RMK T02100190 IEM_DS3505
ZBAA,1996-07-05 12:00,ZBAA 051200Z AUTO 22006KT 19SM 23/16 A2953 RMK 60004 SLP005 T02270164 52015 IEM_DS3505
ZBAA,1996-07-05 13:00,ZBAA 051300Z AUTO 22004KT 7SM 22/18 A2953 RMK T02200180 IEM_DS3505
ZBAA,1996-07-05 14:00,ZBAA 051400Z AUTO ////04KT 7SM 22/18 A2953 RMK T02200180 IEM_DS3505
ZBAA,1996-07-05 15:00,ZBAA 051500Z AUTO 29004KT 19SM 22/18 A2953 RMK SLP000 T02250176 57005 IEM_DS3505
ZBAA,1996-07-05 16:00,ZBAA 051600Z AUTO 00000KT 7SM 20/19 A2953 RMK T02000190 IEM_DS3505
ZBAA,1996-07-05 17:00,ZBAA 051700Z AUTO 03004KT 7SM 19/19 A2950 RMK T01900190 IEM_DS3505
ZBAA,1996-07-05 18:00,ZBAA 051800Z AUTO 04006KT 19SM 20/17 RMK SLP994 T02040173 57005 IEM_DS3505
ZBAA,1996-07-05 20:00,ZBAA 052000Z AUTO 33004KT 7SM 19/18 A2950 RMK T01900180 IEM_DS3505
ZBAA,1996-07-05 21:00,ZBAA 052100Z AUTO 02004KT 19SM 19/17 A2950 RMK 70004 SLP993 T01910170 57001 IEM_DS3505
ZBAA,1996-07-05 22:00,ZBAA 052200Z AUTO 34006KT 7SM 19/18 A2950 RMK T01900180 IEM_DS3505
ZBAA,1996-07-05 23:00,ZBAA 052300Z AUTO 36008KT 6SM 21/18 A2950 RMK SLP994 T02100180 IEM_DS3505
ZBAA,1996-07-06 00:00,ZBAA 060000Z AUTO 36006KT 19SM 25/16 A2953 RMK 70004 SLP000 T02490160 52006 IEM_DS3505
ZBAA,1996-07-06 01:00,ZBAA 060100Z AUTO 03010KT 7SM 26/20 A2953 RMK T02600200 IEM_DS3505
ZBAA,1996-07-06 02:00,ZBAA 060200Z AUTO ////04KT 7SM 28/19 A2953 RMK T02800190 IEM_DS3505
ZBAA,1996-07-06 03:00,ZBAA 060300Z AUTO 34006KT 12SM 30/17 A2953 RMK SLP000 T03000172 52001 IEM_DS3505
ZBAA,1996-07-06 04:00,ZBAA 060400Z AUTO 05004KT 7SM 31/20 A2950 RMK T03100200 IEM_DS3505
ZBAA,1996-07-06 05:00,ZBAA 060500Z AUTO 06006KT 7SM 32/19 A2950 RMK T03200190 IEM_DS3505
ZBAA,1996-07-06 06:00,ZBAA 060600Z AUTO 34006KT 12SM 34/16 A2950 RMK SLP990 T03350155 57010 IEM_DS3505
ZBAA,1996-07-06 07:00,ZBAA 060700Z AUTO 34004KT 6SM 34/18 A2947 RMK T03400180 IEM_DS3505
ZBAA,1996-07-06 08:00,ZBAA 060800Z AUTO ////04KT 6SM 35/18 A2947 RMK T03500180 IEM_DS3505
ZBAA,1996-07-06 09:00,ZBAA 060900Z AUTO 02008KT 12SM 35/14 A2947 RMK SLP988 T03460145 57002 IEM_DS3505
ZBAA,1996-07-06 10:00,ZBAA 061000Z AUTO 03008KT 7SM 32/18 A2950 RMK T03200180 IEM_DS3505
ZBAA,1996-07-06 11:00,ZBAA 061100Z AUTO 06008KT 7SM 31/17 A2953 RMK T03100170 IEM_DS3505
ZBAA,1996-07-06 12:00,ZBAA 061200Z AUTO 02006KT 12SM 32/16 A2956 RMK SLP011 T03170163 52023 IEM_DS3505
ZBAA,1996-07-06 13:00,ZBAA 061300Z AUTO 02006KT 6SM 29/17 A2959 RMK T02900170 IEM_DS3505
ZBAA,1996-07-06 14:00,ZBAA 061400Z AUTO 03002KT 6SM 28/17 A2962 RMK T02800170 IEM_DS3505
ZBAA,1996-07-06 15:00,ZBAA 061500Z AUTO 29002KT 9SM 26/20 A2962 RMK SLP034 T02630196 52023 IEM_DS3505
ZBAA,1996-07-06 16:00,ZBAA 061600Z AUTO 14006KT 7SM 26/18 A2965 RMK T02600180 IEM_DS3505
ZBAA,1996-07-06 18:00,ZBAA 061800Z AUTO 07002KT 19SM 26/17 A2968 RMK SLP055 T02560166 52021 IEM_DS3505
ZBAA,1996-07-06 20:00,ZBAA 062000Z AUTO 04002KT 7SM 22/18 A2974 RMK T02200180 IEM_DS3505
ZBAA,1996-07-06 21:00,ZBAA 062100Z AUTO 29002KT 7SM 22/19 A2977 RMK SLP081 T02250186 52026 IEM_DS3505
ZBAA,1996-07-06 22:00,ZBAA 062200Z AUTO 00000KT 6SM 22/19 A2980 RMK T02200190 IEM_DS3505
ZBAA,1996-07-06 23:00,ZBAA 062300Z AUTO ////02KT 6SM 24/18 A2980 RMK T02400180 IEM_DS3505
ZBAA,1996-07-07 00:00,ZBAA 070000Z AUTO 04002KT 5SM 26/17 A2983 RMK SLP100 T02640172 52019 IEM_DS3505
ZBAA,1996-07-07 01:00,ZBAA 070100Z AUTO ////02KT 7SM 27/20 A2983 RMK T02700200 IEM_DS3505
ZBAA,1996-07-07 02:00,ZBAA 070200Z AUTO ////04KT 6SM 28/19 A2983 RMK T02800190 IEM_DS3505
ZBAA,1996-07-07 03:00,ZBAA 070300Z AUTO 20004KT 5SM 29/17 A2983 RMK SLP102 T02920169 52001 IEM_DS3505
ZBAA,1996-07-07 04:00,ZBAA 070400Z AUTO ////02KT 6SM 31/19 A2983 RMK T03100190 IEM_DS3505
ZBAA,1996-07-07 05:00,ZBAA 070500Z AUTO 14006KT 6SM 32/20 A2983 RMK T03200200 IEM_DS3505
ZBAA,1996-07-07 06:00,ZBAA 070600Z AUTO 14006KT 7SM 31/18 A2980 RMK SLP098 T03060176 57003 IEM_DS3505
ZBAA,1996-07-07 07:00,ZBAA 070700Z AUTO ////04KT 6SM 32/20 A2980 RMK T03200200 IEM_DS3505
ZBAA,1996-07-07 08:00,ZBAA 070800Z AUTO 18006KT 6SM 32/19 A2983 RMK T03200190 IEM_DS3505
ZBAA,1996-07-07 09:00,ZBAA 070900Z AUTO 22004KT 9SM 31/17 A2983 RMK SLP101 T03100171 52002 IEM_DS3505
ZBAA,1996-07-07 10:00,ZBAA 071000Z AUTO 16006KT 6SM 31/18 A2983 RMK T03100180 IEM_DS3505
ZBAA,1996-07-07 11:00,ZBAA 071100Z AUTO 17012KT 6SM 29/21 A2983 RMK T02900210 IEM_DS3505
ZBAA,1996-07-07 12:00,ZBAA 071200Z AUTO 18010KT 9SM 28/20 A2985 RMK SLP116 T02810203 52015 IEM_DS3505
ZBAA,1996-07-07 13:00,ZBAA 071300Z AUTO 16010KT 6SM 27/21 A2988 RMK T02700210 IEM_DS3505
ZBAA,1996-07-07 14:00,ZBAA 071400Z AUTO 15012KT 6SM 25/20 A2991 RMK T02500200 IEM_DS3505
ZBAA,1996-07-07 15:00,ZBAA 071500Z AUTO 16006KT 12SM 25/18 A2994 RMK SLP137 T02540185 52021 IEM_DS3505
ZBAA,1996-07-07 16:00,ZBAA 071600Z AUTO 15006KT 7SM 24/21 A2994 RMK T02400210 IEM_DS3505
ZBAA,1996-07-07 18:00,ZBAA 071800Z AUTO 16004KT 7SM 24/20 RMK SLP146 T02390197 52009 IEM_DS3505
ZBAA,1996-07-07 20:00,ZBAA 072000Z AUTO 11004KT 6SM 23/20 A2997 RMK T02300200 IEM_DS3505
ZBAA,1996-07-07 21:00,ZBAA 072100Z AUTO 16004KT 6SM 23/19 A2997 RMK SLP149 T02300193 52003 IEM_DS3505
ZBAA,1996-07-07 22:00,ZBAA 072200Z AUTO 14004KT 7SM 23/21 A3000 RMK T02300210 IEM_DS3505
ZBAA,1996-07-07 23:00,ZBAA 072300Z AUTO 13004KT 7SM 23/21 A3000 RMK T02300210 IEM_DS3505
ZBAA,1996-07-08 00:00,ZBAA 080000Z AUTO 16002KT 5SM 24/19 A3000 RMK SLP160 T02350186 52011 IEM_DS3505
ZBAA,1996-07-08 01:00,ZBAA 080100Z AUTO ////04KT 7SM 24/21 A3000 RMK T02400210 IEM_DS3505
ZBAA,1996-07-08 02:00,ZBAA 080200Z AUTO ////04KT 7SM 24/21 A3000 RMK T02400210 IEM_DS3505
ZBAA,1996-07-08 03:00,ZBAA 080300Z AUTO 11006KT 4SM 25/18 A2997 RMK SLP156 T02480185 57004 IEM_DS3505
ZBAA,1996-07-08 04:00,ZBAA 080400Z AUTO ////04KT 7SM 24/21 A2997 RMK T02400210 IEM_DS3505
ZBAA,1996-07-08 05:00,ZBAA 080500Z AUTO 13004KT 7SM 24/21 A2997 RMK T02400210 IEM_DS3505
ZBAA,1996-07-08 06:00,ZBAA 080600Z AUTO 16006KT 3SM 25/19 A2994 RMK SLP145 T02520193 57011 IEM_DS3505
ZBAA,1996-07-08 07:00,ZBAA 080700Z AUTO 12002KT 5SM 24/21 A2991 RMK T02400210 IEM_DS3505
ZBAA,1996-07-08 08:00,ZBAA 080800Z AUTO 00000KT 5SM 25/21 A2991 RMK T02500210 IEM_DS3505
ZBAA,1996-07-08 09:00,ZBAA 080900Z AUTO 11004KT 4SM 26/20 A2991 RMK SLP130 T02560195 57015 IEM_DS3505
ZBAA,1996-07-08 10:00,ZBAA 081000Z AUTO ////02KT 5SM 25/22 A2991 RMK T02500220 IEM_DS3505
ZBAA,1996-07-08 11:00,ZBAA 081100Z AUTO 02004KT 5SM 24/21 A2991 RMK T02400210 IEM_DS3505
ZBAA,1996-07-08 12:00,ZBAA 081200Z AUTO 34004KT 4SM 24/20 A2991 RMK SLP132 T02410203 52001 IEM_DS3505
ZBAA,1996-07-08 13:00,ZBAA 081300Z AUTO 05004KT 5SM 24/21 A2991 RMK T02400210 IEM_DS3505
ZBAA,1996-07-08 14:00,ZBAA 081400Z AUTO 00000KT 5SM 23/21 A2991 RMK T02300210 IEM_DS3505
ZBAA,1996-07-08 15:00,ZBAA 081500Z AUTO 29002KT 5SM 23/21 A2991 RMK SLP132 T02290209 54000 IEM_DS3505
ZBAA,1996-07-08 16:00,ZBAA 081600Z AUTO ////04KT 6SM 23/21 A2991 RMK T02300210 IEM_DS3505
ZBAA,1996-07-08 17:00,ZBAA 081700Z AUTO 14006KT 6SM 23/21 A2988 RMK T02300210 IEM_DS3505
ZBAA,1996-07-08 18:00,ZBAA 081800Z AUTO 16006KT 4SM 23/20 RMK 60012 SLP120 T02270199 57011 IEM_DS3505
ZBAA,1996-07-08 20:00,ZBAA 082000Z AUTO 13006KT 7SM 22/20 A2985 RMK T02200200 IEM_DS3505
ZBAA,1996-07-08 21:00,ZBAA 082100Z AUTO 11004KT 2 1/2SM 22/20 A2988 RMK 70012 SLP115 T02180198 57005 IEM_DS3505
ZBAA,1996-07-08 22:00,ZBAA 082200Z AUTO 11002KT 7SM 21/20 A2988 RMK T02100200 IEM_DS3505
ZBAA,1996-07-08 23:00,ZBAA 082300Z AUTO 08004KT 4SM 20/20 A2988 RMK T02000200 IEM_DS3505
ZBAA,1996-07-09 00:00,ZBAA 090000Z AUTO 07004KT 2 1/2SM 21/20 A2985 RMK 60012 70024 SLP117 T02090197 52001 IEM_DS3505
ZBAA,1996-07-09 01:00,ZBAA 090100Z AUTO ////04KT 4SM 21/21 A2985 RMK T02100210 IEM_DS3505
ZBAA,1996-07-09 02:00,ZBAA 090200Z AUTO 06004KT 4SM 21/21 A2985 RMK T02100210 IEM_DS3505
ZBAA,1996-07-09 03:00,ZBAA 090300Z AUTO 07006KT 3SM 21/19 A2985 RMK SLP112 T02110189 57005 IEM_DS3505
ZBAA,1996-07-09 04:00,ZBAA 090400Z AUTO ////04KT 4SM 21/21 A2985 RMK T02100210 IEM_DS3505
ZBAA,1996-07-09 05:00,ZBAA 090500Z AUTO 06002KT 4SM 21/21 A2983 RMK T02100210 IEM_DS3505
ZBAA,1996-07-09 06:00,ZBAA 090600Z AUTO 04006KT 3SM 21/19 A2983 RMK 60020 SLP101 T02060193 57011 IEM_DS3505
ZBAA,1996-07-09 07:00,ZBAA 090700Z AUTO 05004KT 4SM 21/21 A2980 RMK T02100210 IEM_DS3505
ZBAA,1996-07-09 08:00,ZBAA 090800Z AUTO 04004KT 4SM 21/21 A2977 RMK T02100210 IEM_DS3505
ZBAA,1996-07-09 09:00,ZBAA 090900Z AUTO 02004KT 2 1/2SM 21/20 A2977 RMK SLP090 T02070196 57011 IEM_DS3505
ZBAA,1996-07-09 10:00,ZBAA 091000Z AUTO 08004KT 4SM 21/20 A2977 RMK T02100200 IEM_DS3505
ZBAA,1996-07-09 11:00,ZBAA 091100Z AUTO 07002KT 4SM 21/21 A2980 RMK T02100210 IEM_DS3505
ZBAA,1996-07-09 12:00,ZBAA 091200Z AUTO 07004KT 1 1/4SM 21/20 A2980 RMK 60012 SLP091 T02070198 52001 IEM_DS3505
ZBAA,1996-07-09 13:00,ZBAA 091300Z AUTO ////04KT 2 1/2SM 20/20 A2980 RMK T02000200 IEM_DS3505
ZBAA,1996-07-09 14:00,ZBAA 091400Z AUTO 09004KT 2 1/2SM 18/18 A2980 RMK T01800180 IEM_DS3505
ZBAA,1996-07-09 15:00,ZBAA 091500Z AUTO 07006KT 1 1/4SM 20/19 A2980 RMK SLP089 T02000194 57002 IEM_DS3505
ZBAA,1996-07-09 18:00,ZBAA 091800Z AUTO 09002KT 1 1/4SM 19/18 RMK 60063 SLP084 T01890179 57005 IEM_DS3505
ZBAA,1996-07-09 20:00,ZBAA 092000Z AUTO 06002KT 2SM 19/19 A2977 RMK T01900190 IEM_DS3505
ZBAA,1996-07-09 21:00,ZBAA 092100Z AUTO 34002KT 2SM 18/18 A2977 RMK 70114 SLP084 T01850179 54000 IEM_DS3505
ZBAA,1996-07-09 23:00,ZBAA 092300Z AUTO 35006KT 2SM 20/18 A2977 RMK T02000180 IEM_DS3505
ZBAA,1996-07-10 00:00,ZBAA 100000Z AUTO 34004KT 2SM 18/18 A2980 RMK 60028 70118 SLP091 T01850177 52007 IEM_DS3505
ZBAA,1996-07-10 01:00,ZBAA 100100Z AUTO 33004KT 2 1/2SM 20/20 A2980 RMK T02000200 IEM_DS3505
ZBAA,1996-07-10 02:00,ZBAA 100200Z AUTO 32004KT 3SM 20/19 A2980 RMK T02000190 IEM_DS3505
ZBAA,1996-07-10 03:00,ZBAA 100300Z AUTO 36004KT 5SM 20/18 A2980 RMK SLP094 T01970176 52003 IEM_DS3505
ZBAA,1996-07-10 04:00,ZBAA 100400Z AUTO 35006KT 6SM 22/20 A2977 RMK T02200200 IEM_DS3505
ZBAA,1996-07-10 05:00,ZBAA 100500Z AUTO 28006KT 5SM 22/20 A2977 RMK T02200200 IEM_DS3505
ZBAA,1996-07-10 06:00,ZBAA 100600Z AUTO 27004KT 2 1/2SM 19/18 A2977 RMK 60031 SLP090 T01940181 57004 IEM_DS3505
ZBAA,1996-07-10 07:00,ZBAA 100700Z AUTO 29008KT 3SM 20/20 A2977 RMK T02000200 IEM_DS3505
ZBAA,1996-07-10 08:00,ZBAA 100800Z AUTO 30008KT 3SM 20/20 A2977 RMK T02000200 IEM_DS3505
ZBAA,1996-07-10 09:00,ZBAA 100900Z AUTO 32002KT 2SM 19/18 A2977 RMK SLP087 T01910176 57003 IEM_DS3505
ZBAA,1996-07-10 10:00,ZBAA 101000Z AUTO 32006KT 3SM 20/20 A2977 RMK T02000200 IEM_DS3505
ZBAA,1996-07-10 11:00,ZBAA 101100Z AUTO 29004KT 3SM 20/20 A2977 RMK T02000200 IEM_DS3505
ZBAA,1996-07-10 12:00,ZBAA 101200Z AUTO 36002KT 3SM 19/18 A2977 RMK 60024 SLP090 T01900182 52003 IEM_DS3505
ZBAA,1996-07-10 13:00,ZBAA 101300Z AUTO 30006KT 3SM 19/19 A2980 RMK T01900190 IEM_DS3505
ZBAA,1996-07-10 14:00,ZBAA 101400Z AUTO 31004KT 3SM 19/19 A2980 RMK T01900190 IEM_DS3505
ZBAA,1996-07-10 15:00,ZBAA 101500Z AUTO 00000KT 2 1/2SM 19/18 A2980 RMK SLP094 T01870176 52004 IEM_DS3505
ZBAA,1996-07-10 16:00,ZBAA 101600Z AUTO 00000KT 3SM 19/19 A2980 RMK T01900190 IEM_DS3505
ZBAA,1996-07-10 17:00,ZBAA 101700Z AUTO 31002KT 3SM 19/19 A2977 RMK T01900190 IEM_DS3505
ZBAA,1996-07-10 18:00,ZBAA 101800Z AUTO 00000KT 4SM 19/18 RMK 60004 SLP085 T01870182 57009 IEM_DS3505
ZBAA,1996-07-10 20:00,ZBAA 102000Z AUTO 00000KT 2 1/2SM 19/19 A2977 RMK T01900190 IEM_DS3505
ZBAA,1996-07-10 21:00,ZBAA 102100Z AUTO 34002KT 4SM 19/16 A2977 RMK 70071 SLP085 T01870164 54000 IEM_DS3505
ZBAA,1996-07-10 22:00,ZBAA 102200Z AUTO 33002KT 1 1/4SM 19/19 A2977 RMK T01900190 IEM_DS3505
ZBAA,1996-07-10 23:00,ZBAA 102300Z AUTO 33004KT 1 1/2SM 20/20 A2980 RMK T02000200 IEM_DS3505
ZBAA,1996-07-11 00:00,ZBAA 110000Z AUTO 34002KT 2 1/2SM 20/18 A2980 RMK 60000 70059 SLP095 T01990175 52010 IEM_DS3505
ZBAA,1996-07-11 01:00,ZBAA 110100Z AUTO 31004KT 2 1/2SM 19/19 A2980 RMK T01900190 IEM_DS3505
ZBAA,1996-07-11 02:00,ZBAA 110200Z AUTO 33006KT 2 1/2SM 21/20 A2980 RMK T02100200 IEM_DS3505
ZBAA,1996-07-11 03:00,ZBAA 110300Z AUTO 02004KT 2 1/2SM 21/18 A2980 RMK SLP097 T02140177 52002 IEM_DS3505
ZBAA,1996-07-11 04:00,ZBAA 110400Z AUTO 01006KT 4SM 23/21 A2980 RMK T02300210 IEM_DS3505
ZBAA,1996-07-11 05:00,ZBAA 110500Z AUTO ////04KT 6SM 24/20 A2977 RMK T02400200 IEM_DS3505
ZBAA,1996-07-11 06:00,ZBAA 110600Z AUTO 34004KT 3SM 23/17 A2977 RMK SLP089 T02260168 57008 IEM_DS3505
ZBAA,1996-07-11 07:00,ZBAA 110700Z AUTO 02006KT 7SM 24/18 A2974 RMK T02400180 IEM_DS3505
ZBAA,1996-07-11 08:00,ZBAA 110800Z AUTO 02006KT 7SM 24/18 A2974 RMK T02400180 IEM_DS3505
ZBAA,1996-07-11 09:00,ZBAA 110900Z AUTO 34004KT 5SM 23/18 A2974 RMK SLP077 T02320178 57012 IEM_DS3505
ZBAA,1996-07-11 10:00,ZBAA 111000Z AUTO 02006KT 6SM 24/18 A2974 RMK T02400180 IEM_DS3505
ZBAA,1996-07-11 11:00,ZBAA 111100Z AUTO 35006KT 6SM 24/18 A2974 RMK T02400180 IEM_DS3505
ZBAA,1996-07-11 12:00,ZBAA 111200Z AUTO 32002KT 6SM 22/17 A2977 RMK SLP083 T02150171 52006 IEM_DS3505
ZBAA,1996-07-11 13:00,ZBAA 111300Z AUTO 31006KT 6SM 23/19 A2977 RMK T02300190 IEM_DS3505
ZBAA,1996-07-11 14:00,ZBAA 111400Z AUTO 31006KT 6SM 22/17 A2977 RMK T02200170 IEM_DS3505
ZBAA,1996-07-11 15:00,ZBAA 111500Z AUTO 00000KT 5SM 20/19 A2977 RMK SLP084 T02040187 52001 IEM_DS3505
ZBAA,1996-07-11 16:00,ZBAA 111600Z AUTO 32004KT 6SM 22/19 A2977 RMK T02200190 IEM_DS3505
ZBAA,1996-07-11 17:00,ZBAA 111700Z AUTO 34002KT 6SM 21/19 A2977 RMK T02100190 IEM_DS3505
ZBAA,1996-07-11 18:00,ZBAA 111800Z AUTO 07002KT 5SM 20/18 RMK 60000 SLP078 T02020175 57006 IEM_DS3505
ZBAA,1996-07-11 20:00,ZBAA 112000Z AUTO 06002KT 4SM 19/19 A2977 RMK T01900190 IEM_DS3505
ZBAA,1996-07-11 21:00,ZBAA 112100Z AUTO 02002KT 5SM 20/17 A2977 RMK 70001 SLP083 T02000174 52005 IEM_DS3505
ZBAA,1996-07-11 22:00,ZBAA 112200Z AUTO 05002KT 4SM 20/19 A2980 RMK T02000190 IEM_DS3505
ZBAA,1996-07-11 23:00,ZBAA 112300Z AUTO 07002KT 4SM 21/19 A2980 RMK T02100190 IEM_DS3505
ZBAA,1996-07-12 00:00,ZBAA 120000Z AUTO 02004KT 5SM 21/19 A2980 RMK SLP095 T02070186 52012 IEM_DS3505
ZBAA,1996-07-12 01:00,ZBAA 120100Z AUTO 07002KT 4SM 23/20 A2980 RMK SLP096 T02300200 IEM_DS3505
ZBAA,1996-07-12 02:00,ZBAA 120200Z AUTO 00000KT 4SM 23/20 A2983 RMK T02300200 IEM_DS3505
ZBAA,1996-07-12 03:00,ZBAA 120300Z AUTO 34002KT 4SM 22/19 A2980 RMK SLP100 T02180188 52005 IEM_DS3505
ZBAA,1996-07-12 04:00,ZBAA 120400Z AUTO 32006KT 4SM 24/20 A2980 RMK T02400200 IEM_DS3505
ZBAA,1996-07-12 05:00,ZBAA 120500Z AUTO 31006KT 6SM 25/20 A2980 RMK T02500200 IEM_DS3505
ZBAA,1996-07-12 06:00,ZBAA 120600Z AUTO 29002KT 4SM 26/17 A2977 RMK SLP088 T02550172 57011 IEM_DS3505
ZBAA,1996-07-12 07:00,ZBAA 120700Z AUTO 26004KT 6SM 26/20 A2974 RMK T02600200 IEM_DS3505
ZBAA,1996-07-12 08:00,ZBAA 120800Z AUTO ////04KT 6SM 26/20 A2974 RMK T02600200 IEM_DS3505
ZBAA,1996-07-12 09:00,ZBAA 120900Z AUTO 18008KT 5SM 26/17 A2974 RMK SLP073 T02590172 57015 IEM_DS3505
ZBAA,1996-07-12 10:00,ZBAA 121000Z AUTO 12004KT 7SM 25/20 A2974 RMK T02500200 IEM_DS3505
ZBAA,1996-07-12 11:00,ZBAA 121100Z AUTO 10002KT 7SM 25/19 A2974 RMK T02500190 IEM_DS3505
ZBAA,1996-07-12 12:00,ZBAA 121200Z AUTO 18006KT 6SM 24/19 A2974 RMK SLP079 T02390188 52005 IEM_DS3505
ZBAA,1996-07-12 13:00,ZBAA 121300Z AUTO ////04KT 4SM 23/21 A2977 RMK T02300210 IEM_DS3505
ZBAA,1996-07-12 14:00,ZBAA 121400Z AUTO 13002KT 5SM 23/20 A2980 RMK T02300200 IEM_DS3505
ZBAA,1996-07-12 15:00,ZBAA 121500Z AUTO 16004KT 6SM 23/19 A2980 RMK SLP093 T02290193 52014 IEM_DS3505
ZBAA,1996-07-12 16:00,ZBAA 121600Z AUTO 13002KT 6SM 22/20 A2980 RMK T02200200 IEM_DS3505
ZBAA,1996-07-12 17:00,ZBAA 121700Z AUTO 13002KT 6SM 21/19 A2980 RMK T02100190 IEM_DS3505
ZBAA,1996-07-12 18:00,ZBAA 121800Z AUTO 20002KT 5SM 22/19 RMK SLP086 T02150192 57006 IEM_DS3505
ZBAA,1996-07-12 20:00,ZBAA 122000Z AUTO ////02KT 3SM 20/20 A2980 RMK T02000200 IEM_DS3505
ZBAA,1996-07-12 21:00,ZBAA 122100Z AUTO 18006KT 4SM 21/19 A2980 RMK SLP091 T02070191 52005 IEM_DS3505
ZBAA,1996-07-12 22:00,ZBAA 122200Z AUTO ////02KT 2SM 20/20 A2980 RMK T02000200 IEM_DS3505
ZBAA,1996-07-12 23:00,ZBAA 122300Z AUTO ////02KT 2 1/2SM 22/21 A2983 RMK T02200210 IEM_DS3505
ZBAA,1996-07-13 00:00,ZBAA 130000Z AUTO 16004KT 3SM 21/20 A2983 RMK SLP104 T02130196 52012 IEM_DS3505
ZBAA,1996-07-13 01:00,ZBAA 130100Z AUTO ////02KT 4SM 23/21 A2983 RMK T02300210 IEM_DS3505
ZBAA,1996-07-13 02:00,ZBAA 130200Z AUTO ////04KT 4SM 25/22 A2983 RMK T02500220 IEM_DS3505
ZBAA,1996-07-13 03:00,ZBAA 130300Z AUTO 16004KT 4SM 25/20 A2983 RMK SLP101 T02520197 57002 IEM_DS3505
ZBAA,1996-07-13 04:00,ZBAA 130400Z AUTO ////04KT 5SM 26/21 A2980 RMK T02600210 IEM_DS3505
ZBAA,1996-07-13 05:00,ZBAA 130500Z AUTO ////04KT 5SM 26/21 A2980 RMK T02600210 IEM_DS3505
ZBAA,1996-07-13 06:00,ZBAA 130600Z AUTO 22006KT 6SM 27/18 A2977 RMK SLP089 T02670185 57012 IEM_DS3505
ZBAA,1996-07-13 07:00,ZBAA 130700Z AUTO 18006KT 7SM 28/21 A2977 RMK T02800210 IEM_DS3505
ZBAA,1996-07-13 08:00,ZBAA 130800Z AUTO 22010KT 7SM 28/21 A2977 RMK T02800210 IEM_DS3505
ZBAA,1996-07-13 09:00,ZBAA 130900Z AUTO 25008KT 6SM 26/20 A2974 RMK SLP077 T02620195 57012 IEM_DS3505
ZBAA,1996-07-13 10:00,ZBAA 131000Z AUTO 19008KT 7SM 26/20 A2974 RMK T02600200 IEM_DS3505
ZBAA,1996-07-13 11:00,ZBAA 131100Z AUTO 20006KT 7SM 25/20 A2977 RMK T02500200 IEM_DS3505
ZBAA,1996-07-13 12:00,ZBAA 131200Z AUTO 18006KT 6SM 25/20 A2977 RMK SLP085 T02480196 52008 IEM_DS3505
ZBAA,1996-07-13 13:00,ZBAA 131300Z AUTO 17004KT 6SM 24/21 A2980 RMK T02400210 IEM_DS3505
ZBAA,1996-07-13 14:00,ZBAA 131400Z AUTO 16002KT 6SM 24/21 A2980 RMK T02400210 IEM_DS3505
ZBAA,1996-07-13 15:00,ZBAA 131500Z AUTO 18004KT 6SM 24/20 A2980 RMK SLP091 T02350198 52006 IEM_DS3505
ZBAA,1996-07-13 16:00,ZBAA 131600Z AUTO 00000KT 6SM 23/21 A2983 RMK T02300210 IEM_DS3505
ZBAA,1996-07-13 18:00,ZBAA 131800Z AUTO 20004KT 2SM 23/19 RMK SLP094 T02270194 52003 IEM_DS3505
ZBAA,1996-07-13 20:00,ZBAA 132000Z AUTO 12004KT 2 1/2SM 21/21 A2980 RMK T02100210 IEM_DS3505
ZBAA,1996-07-13 21:00,ZBAA 132100Z AUTO 11002KT 1 1/4SM 22/20 A2980 RMK SLP095 T02190202 52001 IEM_DS3505
ZBAA,1996-07-13 22:00,ZBAA 132200Z AUTO 12004KT 2SM 21/21 A2980 RMK T02100210 IEM_DS3505
ZBAA,1996-07-13 23:00,ZBAA 132300Z AUTO 14006KT 2SM 21/21 A2983 RMK SLP106 T02100210 IEM_DS3505
ZBAA,1996-07-14 00:00,ZBAA 140000Z AUTO 11004KT 1SM 22/20 A2983 RMK SLP098 T02230203 52003 IEM_DS3505
ZBAA,1996-07-14 01:00,ZBAA 140100Z AUTO ////04KT 2 1/2SM 23/21 A2983 RMK T02300210 IEM_DS3505
ZBAA,1996-07-14 02:00,ZBAA 140200Z AUTO ////04KT 2 1/2SM 25/22 A2983 RMK T02500220 IEM_DS3505
ZBAA,1996-07-14 03:00,ZBAA 140300Z AUTO 00000KT 1 1/4SM 24/20 A2983 RMK SLP099 T02400200 52001 IEM_DS3505
ZBAA,1996-07-14 04:00,ZBAA 140400Z AUTO 16006KT 4SM 26/21 A2980 RMK T02600210 IEM_DS3505
ZBAA,1996-07-14 05:00,ZBAA 140500Z AUTO ////04KT 5SM 27/22 A2980 RMK T02700220 IEM_DS3505
ZBAA,1996-07-14 06:00,ZBAA 140600Z AUTO 18004KT 2 1/2SM 27/20 A2977 RMK SLP085 T02690204 57014 IEM_DS3505
ZBAA,1996-07-14 07:00,ZBAA 140700Z AUTO ////04KT 7SM 28/22 A2974 RMK T02800220 IEM_DS3505
ZBAA,1996-07-14 08:00,ZBAA 140800Z AUTO 23006KT 7SM 30/22 A2974 RMK T03000220 IEM_DS3505
ZBAA,1996-07-14 09:00,ZBAA 140900Z AUTO 20004KT 6SM 28/18 A2971 RMK SLP068 T02820183 57017 IEM_DS3505
ZBAA,1996-07-14 10:00,ZBAA 141000Z AUTO 19006KT 7SM 28/19 A2971 RMK T02800190 IEM_DS3505
ZBAA,1996-07-14 11:00,ZBAA 141100Z AUTO 20004KT 5SM 27/21 A2971 RMK T02700210 IEM_DS3505
ZBAA,1996-07-14 12:00,ZBAA 141200Z AUTO 34002KT 1 1/4SM 26/22 A2971 RMK SLP066 T02550216 57002 IEM_DS3505
ZBAA,1996-07-14 13:00,ZBAA 141300Z AUTO ////02KT 4SM 26/21 A2974 RMK T02600210 IEM_DS3505
ZBAA,1996-07-14 14:00,ZBAA 141400Z AUTO 14004KT 4SM 25/21 A2974 RMK T02500210 IEM_DS3505
ZBAA,1996-07-14 15:00,ZBAA 141500Z AUTO 20006KT 1 1/2SM 25/21 A2974 RMK SLP070 T02480210 52004 IEM_DS3505
ZBAA,1996-07-14 16:00,ZBAA 141600Z AUTO 14008KT 4SM 23/22 A2974 RMK T02300220 IEM_DS3505
ZBAA,1996-07-14 18:00,ZBAA 141800Z AUTO 16006KT 2SM 23/21 RMK SLP063 T02330210 57007 IEM_DS3505
ZBAA,1996-07-14 20:00,ZBAA 142000Z AUTO 11002KT 2 1/2SM 21/21 A2971 RMK T02100210 IEM_DS3505
ZBAA,1996-07-14 21:00,ZBAA 142100Z AUTO 09004KT 1 1/4SM 22/20 A2971 RMK SLP063 T02210201 54000 IEM_DS3505
ZBAA,1996-07-14 22:00,ZBAA 142200Z AUTO 21002KT 3SM 21/20 A2971 RMK T02100200 IEM_DS3505
ZBAA,1996-07-14 23:00,ZBAA 142300Z AUTO ////02KT 3SM 22/21 A2971 RMK T02200210 IEM_DS3505
ZBAA,1996-07-15 00:00,ZBAA 150000Z AUTO 16004KT 2SM 23/19 A2971 RMK SLP065 T02310189 52002 IEM_DS3505
ZBAA,1996-07-15 01:00,ZBAA 150100Z AUTO 00000KT 3SM 24/21 A2971 RMK T02400210 IEM_DS3505
ZBAA,1996-07-15 02:00,ZBAA 150200Z AUTO ////02KT 3SM 25/22 A2968 RMK T02500220 IEM_DS3505
ZBAA,1996-07-15 03:00,ZBAA 150300Z AUTO 34006KT 2 1/2SM 25/20 A2968 RMK SLP056 T02520200 57009 IEM_DS3505
ZBAA,1996-07-15 04:00,ZBAA 150400Z AUTO ////04KT 3SM 27/22 A2965 RMK T02700220 IEM_DS3505
ZBAA,1996-07-15 05:00,ZBAA 150500Z AUTO ////04KT 3SM 28/22 A2962 RMK T02800220 IEM_DS3505
ZBAA,1996-07-15 06:00,ZBAA 150600Z AUTO 18004KT 4SM 29/20 RMK SLP031 T02890204 57024 IEM_DS3505
ZBAA,1996-07-15 07:00,ZBAA 150700Z AUTO ////04KT 4SM 29/21 A2959 RMK T02900210 IEM_DS3505
ZBAA,1996-07-15 09:00,ZBAA 150900Z AUTO 22008KT 5SM 28/20 A2956 RMK SLP020 T02810198 57012 IEM_DS3505
ZBAA,1996-07-15 10:00,ZBAA 151000Z AUTO 12004KT 4SM 26/21 A2956 RMK T02600210 IEM_DS3505
ZBAA,1996-07-15 11:00,ZBAA 151100Z AUTO 06002KT 4SM 25/21 A2956 RMK T02500210 IEM_DS3505
ZBAA,1996-07-15 12:00,ZBAA 151200Z AUTO 20002KT 5SM 26/19 A2959 RMK SLP022 T02650191 52002 IEM_DS3505
ZBAA,1996-07-15 13:00,ZBAA 151300Z AUTO 00000KT 4SM 24/21 A2962 RMK T02400210 IEM_DS3505
ZBAA,1996-07-15 14:00,ZBAA 151400Z AUTO ////02KT 4SM 24/20 A2962 RMK T02400200 IEM_DS3505
ZBAA,1996-07-15 15:00,ZBAA 151500Z AUTO 34002KT 3SM 25/20 A2962 RMK SLP029 T02520202 52007 IEM_DS3505
ZBAA,1996-07-15 16:00,ZBAA 151600Z AUTO 36006KT 5SM 23/21 A2962 RMK T02300210 IEM_DS3505
ZBAA,1996-07-15 18:00,ZBAA 151800Z AUTO 36002KT 2SM 22/20 RMK SLP022 T02250204 57006 IEM_DS3505
ZBAA,1996-07-15 20:00,ZBAA 152000Z AUTO 04004KT 6SM 22/21 A2959 RMK T02200210 IEM_DS3505
ZBAA,1996-07-15 21:00,ZBAA 152100Z AUTO 00000KT 1 1/4SM 22/20 A2959 RMK SLP029 T02230202 52006 IEM_DS3505
ZBAA,1996-07-15 22:00,ZBAA 152200Z AUTO 00000KT 4SM 21/21 A2962 RMK T02100210 IEM_DS3505
ZBAA,1996-07-15 23:00,ZBAA 152300Z AUTO 00000KT 4SM 22/22 A2962 RMK T02200220 IEM_DS3505
ZBAA,1996-07-16 00:00,ZBAA 160000Z AUTO 32002KT 2SM 24/21 A2962 RMK SLP038 T02380209 52009 IEM_DS3505
ZBAA,1996-07-16 01:00,ZBAA 160100Z AUTO ////04KT 4SM 25/22 A2962 RMK T02500220 IEM_DS3505
ZBAA,1996-07-16 02:00,ZBAA 160200Z AUTO ////02KT 4SM 26/23 A2962 RMK T02600230 IEM_DS3505
ZBAA,1996-07-16 03:00,ZBAA 160300Z AUTO 09006KT 2 1/2SM 27/20 A2962 RMK SLP037 T02700204 54000 IEM_DS3505
ZBAA,1996-07-16 04:00,ZBAA 160400Z AUTO ////02KT 6SM 29/23 A2962 RMK T02900230 IEM_DS3505
ZBAA,1996-07-16 05:00,ZBAA 160500Z AUTO ////02KT 6SM 30/23 A2959 RMK T03000230 IEM_DS3505
ZBAA,1996-07-16 06:00,ZBAA 160600Z AUTO 20004KT 3SM 30/20 A2959 RMK SLP022 T03000205 57015 IEM_DS3505
ZBAA,1996-07-16 07:00,ZBAA 160700Z AUTO 21006KT 5SM 31/23 A2956 RMK T03100230 IEM_DS3505
ZBAA,1996-07-16 08:00,ZBAA 160800Z AUTO 20008KT 5SM 31/23 A2956 RMK T03100230 IEM_DS3505
ZBAA,1996-07-16 09:00,ZBAA 160900Z AUTO 18010KT 3SM 29/22 A2956 RMK SLP013 T02940215 57009 IEM_DS3505
ZBAA,1996-07-16 10:00,ZBAA 161000Z AUTO 19008KT 5SM 30/22 A2956 RMK T03000220 IEM_DS3505
ZBAA,1996-07-16 11:00,ZBAA 161100Z AUTO 19006KT 5SM 29/22 A2959 RMK T02900220 IEM_DS3505
ZBAA,1996-07-16 12:00,ZBAA 161200Z AUTO 20006KT 4SM 28/22 A2962 RMK SLP030 T02770215 52016 IEM_DS3505
ZBAA,1996-07-16 13:00,ZBAA 161300Z AUTO ////04KT 4SM 27/22 A2965 RMK T02700220 IEM_DS3505
ZBAA,1996-07-16 14:00,ZBAA 161400Z AUTO 04008KT 4SM 24/21 A2965 RMK T02400210 IEM_DS3505
ZBAA,1996-07-16 15:00,ZBAA 161500Z AUTO 07004KT 3SM 26/22 A2965 RMK SLP042 T02580221 52013 IEM_DS3505
ZBAA,1996-07-16 16:00,ZBAA 161600Z AUTO ////02KT 7SM 23/21 A2965 RMK T02300210 IEM_DS3505
ZBAA,1996-07-16 18:00,ZBAA 161800Z AUTO 04004KT 6SM 24/21 RMK SLP039 T02380208 57003 IEM_DS3505
ZBAA,1996-07-16 20:00,ZBAA 162000Z AUTO ////04KT 6SM 22/21 A2962 RMK T02200210 IEM_DS3505
ZBAA,1996-07-16 21:00,ZBAA 162100Z AUTO 02004KT 4SM 23/20 A2965 RMK SLP044 T02260198 52004 IEM_DS3505
ZBAA,1996-07-16 22:00,ZBAA 162200Z AUTO 00000KT 7SM 22/22 A2965 RMK T02200220 IEM_DS3505
ZBAA,1996-07-16 23:00,ZBAA 162300Z AUTO ////04KT 5SM 23/22 A2965 RMK SLP044 T02300220 IEM_DS3505
ZBAA,1996-07-17 00:00,ZBAA 170000Z AUTO 34004KT 2 1/2SM 24/21 RMK SLP057 T02410209 52013 IEM_DS3505
ZBAA,1996-07-17 01:00,ZBAA 170100Z AUTO ////02KT 5SM 26/23 A2968 RMK T02600230 IEM_DS3505
ZBAA,1996-07-17 02:00,ZBAA 170200Z AUTO ////02KT 4SM 26/23 A2968 RMK T02600230 IEM_DS3505
ZBAA,1996-07-17 03:00,ZBAA 170300Z AUTO 34004KT 1 1/4SM 26/22 A2968 RMK SLP054 T02590221 57003 IEM_DS3505
ZBAA,1996-07-17 04:00,ZBAA 170400Z AUTO 03002KT 3SM 27/24 A2968 RMK T02700240 IEM_DS3505
ZBAA,1996-07-17 05:00,ZBAA 170500Z AUTO 18002KT 2 1/2SM 27/24 A2965 RMK T02700240 IEM_DS3505
ZBAA,1996-07-17 06:00,ZBAA 170600Z AUTO 32002KT 1 1/4SM 28/23 A2965 RMK SLP042 T02850227 57012 IEM_DS3505
ZBAA,1996-07-17 07:00,ZBAA 170700Z AUTO ////02KT 3SM 23/23 A2965 RMK T02300230 IEM_DS3505
ZBAA,1996-07-17 08:00,ZBAA 170800Z AUTO ////02KT 3SM 23/23 A2965 RMK T02300230 IEM_DS3505
ZBAA,1996-07-17 09:00,ZBAA 170900Z AUTO 22002KT 1 1/2SM 23/22 A2965 RMK SLP045 T02300220 52003 IEM_DS3505
ZBAA,1996-07-17 10:00,ZBAA 171000Z AUTO 25004KT 1 1/2SM 23/23 A2965 RMK T02300230 IEM_DS3505
ZBAA,1996-07-17 11:00,ZBAA 171100Z AUTO 00000KT 1 1/2SM 23/23 A2968 RMK T02300230 IEM_DS3505
ZBAA,1996-07-17 12:00,ZBAA 171200Z AUTO 11004KT 1 1/4SM 23/21 A2971 RMK 60110 SLP059 T02290209 52014 IEM_DS3505
ZBAA,1996-07-17 13:00,ZBAA 171300Z AUTO 00000KT 2 1/2SM 23/23 A2968 RMK T02300230 IEM_DS3505
ZBAA,1996-07-17 14:00,ZBAA 171400Z AUTO ////02KT 3SM 23/23 A2968 RMK T02300230 IEM_DS3505
ZBAA,1996-07-17 15:00,ZBAA 171500Z AUTO 04002KT 2SM 22/21 A2968 RMK SLP053 T02250213 57006 IEM_DS3505
ZBAA,1996-07-17 16:00,ZBAA 171600Z AUTO 00000KT 6SM 22/22 A2968 RMK T02200220 IEM_DS3505
ZBAA,1996-07-17 17:00,ZBAA 171700Z AUTO 00000KT 5SM 22/22 A2968 RMK T02200220 IEM_DS3505
ZBAA,1996-07-17 18:00,ZBAA 171800Z AUTO 00000KT 2SM 22/22 RMK 60002 SLP051 T02250218 57002 IEM_DS3505
ZBAA,1996-07-17 20:00,ZBAA 172000Z AUTO 28002KT 2 1/2SM 22/22 A2968 RMK T02200220 IEM_DS3505
ZBAA,1996-07-17 21:00,ZBAA 172100Z AUTO 00000KT 1SM 22/22 A2968 RMK 70110 SLP051 T02250218 54000 IEM_DS3505
ZBAA,1996-07-17 22:00,ZBAA 172200Z AUTO 36002KT 1 1/4SM 23/23 A2968 RMK T02300230 IEM_DS3505
ZBAA,1996-07-17 23:00,ZBAA 172300Z AUTO 00000KT 1SM 23/23 A2968 RMK T02300230 IEM_DS3505
ZBAA,1996-07-18 00:00,ZBAA 180000Z AUTO 29002KT 1SM 24/22 A2968 RMK 70110 SLP049 T02350222 57002 IEM_DS3505
ZBAA,1996-07-18 01:00,ZBAA 180100Z AUTO 00000KT 1 1/4SM 24/24 A2968 RMK T02400240 IEM_DS3505
ZBAA,1996-07-18 02:00,ZBAA 180200Z AUTO 28002KT 1 1/4SM 25/24 A2968 RMK T02500240 IEM_DS3505
ZBAA,1996-07-18 03:00,ZBAA 180300Z AUTO 27002KT 1 1/4SM 27/21 A2965 RMK SLP048 T02740213 57001 IEM_DS3505
ZBAA,1996-07-18 04:00,ZBAA 180400Z AUTO ////02KT 1 1/2SM 28/24 A2965 RMK T02800240 IEM_DS3505
ZBAA,1996-07-18 05:00,ZBAA 180500Z AUTO ////04KT 1 1/2SM 29/25 A2962 RMK T02900250 IEM_DS3505
ZBAA,1996-07-18 06:00,ZBAA 180600Z AUTO 20004KT 2SM 31/22 A2959 RMK SLP030 T03070223 57017 IEM_DS3505
ZBAA,1996-07-18 07:00,ZBAA 180700Z AUTO 17008KT 1SM 31/25 A2959 RMK T03100250 IEM_DS3505
ZBAA,1996-07-18 08:00,ZBAA 180800Z AUTO 19008KT 1 1/2SM 31/24 A2959 RMK T03100240 IEM_DS3505
ZBAA,1996-07-18 09:00,ZBAA 180900Z AUTO 25004KT 5SM 30/21 A2959 RMK SLP024 T02990212 57006 IEM_DS3505
ZBAA,1996-07-18 10:00,ZBAA 181000Z AUTO 22006KT 3SM 30/23 A2959 RMK T03000230 IEM_DS3505
ZBAA,1996-07-18 11:00,ZBAA 181100Z AUTO 04008KT 7SM 26/20 A2962 RMK T02600200 IEM_DS3505
ZBAA,1996-07-18 12:00,ZBAA 181200Z AUTO 04010KT 6SM 28/22 A2965 RMK SLP040 T02830218 52015 IEM_DS3505
ZBAA,1996-07-18 13:00,ZBAA 181300Z AUTO 00000KT 7SM 23/21 A2968 RMK T02300210 IEM_DS3505
ZBAA,1996-07-18 14:00,ZBAA 181400Z AUTO 00000KT 7SM 23/21 A2968 RMK T02300210 IEM_DS3505
ZBAA,1996-07-18 15:00,ZBAA 181500Z AUTO 02004KT 6SM 24/21 A2965 RMK SLP045 T02380208 52005 IEM_DS3505
ZBAA,1996-07-18 16:00,ZBAA 181600Z AUTO 35006KT 7SM 23/22 A2965 RMK T02300220 IEM_DS3505
ZBAA,1996-07-18 17:00,ZBAA 181700Z AUTO 01004KT 7SM 23/22 A2968 RMK T02300220 IEM_DS3505
ZBAA,1996-07-18 18:00,ZBAA 181800Z AUTO 00000KT 5SM 24/20 RMK SLP048 T02370205 52004 IEM_DS3505
ZBAA,1996-07-18 20:00,ZBAA 182000Z AUTO 04004KT 6SM 23/23 A2968 RMK T02300230 IEM_DS3505
ZBAA,1996-07-18 21:00,ZBAA 182100Z AUTO 32002KT 5SM 24/20 A2968 RMK SLP048 T02370205 54000 IEM_DS3505
ZBAA,1996-07-18 22:00,ZBAA 182200Z AUTO 00000KT 4SM 23/23 A2968 RMK T02300230 IEM_DS3505
ZBAA,1996-07-18 23:00,ZBAA 182300Z AUTO 01002KT 2 1/2SM 24/23 A2968 RMK T02400230 IEM_DS3505
ZBAA,1996-07-19 00:00,ZBAA 190000Z AUTO 02004KT 5SM 24/21 A2971 RMK SLP056 T02440213 52007 IEM_DS3505
ZBAA,1996-07-19 01:00,ZBAA 190100Z AUTO 07004KT 2 1/2SM 26/24 A2971 RMK T02600240 IEM_DS3505
ZBAA,1996-07-19 02:00,ZBAA 190200Z AUTO ////02KT 3SM 27/24 A2968 RMK T02700240 IEM_DS3505
ZBAA,1996-07-19 03:00,ZBAA 190300Z AUTO 02004KT 3SM 28/22 A2968 RMK SLP057 T02780216 52001 IEM_DS3505
ZBAA,1996-07-19 04:00,ZBAA 190400Z AUTO ////04KT 3SM 29/25 A2968 RMK T02900250 IEM_DS3505
ZBAA,1996-07-19 05:00,ZBAA 190500Z AUTO ////04KT 3SM 30/25 A2965 RMK T03000250 IEM_DS3505
ZBAA,1996-07-19 06:00,ZBAA 190600Z AUTO 20006KT 2SM 30/22 A2962 RMK SLP036 T02960220 57020 IEM_DS3505
ZBAA,1996-07-19 07:00,ZBAA 190700Z AUTO 20006KT 2 1/2SM 31/25 A2962 RMK T03100250 IEM_DS3505
ZBAA,1996-07-19 09:00,ZBAA 190900Z AUTO 18010KT 4SM 31/22 A2956 RMK SLP019 T03060215 57017 IEM_DS3505
ZBAA,1996-07-19 10:00,ZBAA 191000Z AUTO 16006KT 3SM 30/24 A2959 RMK T03000240 IEM_DS3505
ZBAA,1996-07-19 11:00,ZBAA 191100Z AUTO 14008KT 2SM 29/24 A2959 RMK T02900240 IEM_DS3505
ZBAA,1996-07-19 12:00,ZBAA 191200Z AUTO 18004KT 2 1/2SM 29/22 A2962 RMK SLP022 T02900223 52003 IEM_DS3505
ZBAA,1996-07-19 13:00,ZBAA 191300Z AUTO 12008KT 4SM 26/24 A2965 RMK T02600240 IEM_DS3505
ZBAA,1996-07-19 14:00,ZBAA 191400Z AUTO 08004KT 4SM 24/24 A2965 RMK T02400240 IEM_DS3505
ZBAA,1996-07-19 15:00,ZBAA 191500Z AUTO 11006KT 5SM 25/22 A2965 RMK SLP039 T02470225 52017 IEM_DS3505
ZBAA,1996-07-19 16:00,ZBAA 191600Z AUTO 12004KT 4SM 24/24 A2965 RMK T02400240 IEM_DS3505
ZBAA,1996-07-19 17:00,ZBAA 191700Z AUTO 11002KT 4SM 23/23 A2965 RMK T02300230 IEM_DS3505
ZBAA,1996-07-19 18:00,ZBAA 191800Z AUTO 07004KT 4SM 24/22 RMK 60024 SLP039 T02400225 54000 IEM_DS3505
ZBAA,1996-07-19 20:00,ZBAA 192000Z AUTO ////04KT 4SM 22/22 A2962 RMK T02200220 IEM_DS3505
ZBAA,1996-07-19 21:00,ZBAA 192100Z AUTO 09004KT 7SM 22/21 A2962 RMK 70165 SLP029 T02160208 57010 IEM_DS3505
ZBAA,1996-07-19 22:00,ZBAA 192200Z AUTO 03004KT 3SM 21/21 A2965 RMK T02100210 IEM_DS3505
ZBAA,1996-07-19 23:00,ZBAA 192300Z AUTO 00000KT 3SM 21/21 A2965 RMK T02100210 IEM_DS3505
ZBAA,1996-07-20 00:00,ZBAA 200000Z AUTO 04004KT 2 1/2SM 22/21 A2965 RMK 60146 70169 SLP043 T02180210 52013 IEM_DS3505
ZBAA,1996-07-20 01:00,ZBAA 200100Z AUTO 00000KT 4SM 22/22 A2968 RMK T02200220 IEM_DS3505
ZBAA,1996-07-20 02:00,ZBAA 200200Z AUTO 08002KT 7SM 24/24 A2968 RMK T02400240 IEM_DS3505
ZBAA,1996-07-20 03:00,ZBAA 200300Z AUTO 34004KT 4SM 26/22 A2965 RMK SLP044 T02630219 52001 IEM_DS3505
ZBAA,1996-07-20 04:00,ZBAA 200400Z AUTO ////02KT 7SM 27/24 A2965 RMK T02700240 IEM_DS3505
ZBAA,1996-07-20 05:00,ZBAA 200500Z AUTO ////02KT 7SM 27/24 A2962 RMK T02700240 IEM_DS3505
ZBAA,1996-07-20 06:00,ZBAA 200600Z AUTO 16006KT 4SM 28/22 A2962 RMK SLP036 T02770220 57008 IEM_DS3505
ZBAA,1996-07-20 07:00,ZBAA 200700Z AUTO 14006KT 7SM 27/24 A2962 RMK T02700240 IEM_DS3505
ZBAA,1996-07-20 09:00,ZBAA 200900Z AUTO 11006KT 16SM 22/21 A2959 RMK SLP033 T02250213 57003 IEM_DS3505
ZBAA,1996-07-20 10:00,ZBAA 201000Z AUTO 00000KT 7SM 26/23 A2962 RMK T02600230 IEM_DS3505
ZBAA,1996-07-20 11:00,ZBAA 201100Z AUTO 26002KT 6SM 26/22 A2962 RMK T02600220 IEM_DS3505
ZBAA,1996-07-20 12:00,ZBAA 201200Z AUTO 07002KT 5SM 25/22 A2965 RMK 60098 SLP045 T02470220 52012 IEM_DS3505
ZBAA,1996-07-20 13:00,ZBAA 201300Z AUTO 05002KT 6SM 24/22 A2968 RMK T02400220 IEM_DS3505
ZBAA,1996-07-20 14:00,ZBAA 201400Z AUTO 00000KT 6SM 23/23 A2968 RMK T02300230 IEM_DS3505
ZBAA,1996-07-20 15:00,ZBAA 201500Z AUTO 34002KT 9SM 24/23 A2968 RMK SLP051 T02350228 52006 IEM_DS3505
ZBAA,1996-07-20 16:00,ZBAA 201600Z AUTO 00000KT 7SM 23/23 A2965 RMK T02300230 IEM_DS3505
ZBAA,1996-07-20 18:00,ZBAA 201800Z AUTO 00000KT 2SM 22/22 RMK SLP045 T02230217 57006 IEM_DS3505
ZBAA,1996-07-20 20:00,ZBAA 202000Z AUTO 03002KT 7SM 22/22 A2965 RMK T02200220 IEM_DS3505
ZBAA,1996-07-20 21:00,ZBAA 202100Z AUTO 02006KT 6SM 20/20 A2965 RMK 70102 SLP046 T02050197 54000 IEM_DS3505
ZBAA,1996-07-20 22:00,ZBAA 202200Z AUTO 36004KT 7SM 22/20 A2965 RMK T02200200 IEM_DS3505
ZBAA,1996-07-20 23:00,ZBAA 202300Z AUTO 36002KT 7SM 22/19 A2968 RMK T02200190 IEM_DS3505
ZBAA,1996-07-21 00:00,ZBAA 210000Z AUTO 36004KT 12SM 24/17 A2968 RMK 70094 SLP050 T02440172 52005 IEM_DS3505
ZBAA,1996-07-21 01:00,ZBAA 210100Z AUTO 04004KT 7SM 26/19 A2968 RMK T02600190 IEM_DS3505
ZBAA,1996-07-21 02:00,ZBAA 210200Z AUTO ////04KT 7SM 28/17 A2968 RMK T02800170 IEM_DS3505
ZBAA,1996-07-21 03:00,ZBAA 210300Z AUTO 34004KT 12SM 29/16 A2965 RMK SLP045 T02930159 57004 IEM_DS3505
ZBAA,1996-07-21 04:00,ZBAA 210400Z AUTO ////02KT 7SM 29/17 A2965 RMK T02900170 IEM_DS3505
ZBAA,1996-07-21 06:00,ZBAA 210600Z AUTO 07006KT 11SM 32/13 A2962 RMK SLP030 T03150134 57015 IEM_DS3505
ZBAA,1996-07-21 07:00,ZBAA 210700Z AUTO ////04KT 6SM RMK IEM_DS3505
ZBAA,1996-07-21 08:00,ZBAA 210800Z AUTO ////04KT 6SM 32/20 A2959 RMK T03200200 IEM_DS3505
ZBAA,1996-07-21 09:00,ZBAA 210900Z AUTO 20006KT 9SM 32/16 A2959 RMK SLP021 T03160157 57009 IEM_DS3505
ZBAA,1996-07-21 10:00,ZBAA 211000Z AUTO 20008KT 6SM 30/20 A2959 RMK T03000200 IEM_DS3505
ZBAA,1996-07-21 11:00,ZBAA 211100Z AUTO ////04KT 6SM 29/19 A2959 RMK T02900190 IEM_DS3505
ZBAA,1996-07-21 12:00,ZBAA 211200Z AUTO 20004KT 6SM 29/17 A2959 RMK SLP019 T02900171 57002 IEM_DS3505
ZBAA,1996-07-21 13:00,ZBAA 211300Z AUTO 20006KT 7SM 28/20 A2962 RMK T02800200 IEM_DS3505
ZBAA,1996-07-21 14:00,ZBAA 211400Z AUTO 04006KT 7SM 25/20 A2962 RMK T02500200 IEM_DS3505
ZBAA,1996-07-21 15:00,ZBAA 211500Z AUTO 20006KT 12SM 26/18 A2965 RMK SLP035 T02580176 52016 IEM_DS3505
ZBAA,1996-07-21 16:00,ZBAA 211600Z AUTO ////04KT 7SM 23/20 A2962 RMK T02300200 IEM_DS3505
ZBAA,1996-07-21 18:00,ZBAA 211800Z AUTO 02004KT 7SM 23/19 RMK SLP033 T02340187 57002 IEM_DS3505
ZBAA,1996-07-21 21:00,ZBAA 212100Z AUTO 36002KT 3SM 22/19 A2965 RMK SLP038 T02170189 52005 IEM_DS3505
ZBAA,1996-07-21 22:00,ZBAA 212200Z AUTO 36004KT 6SM 21/19 A2965 RMK T02100190 IEM_DS3505
ZBAA,1996-07-21 23:00,ZBAA 212300Z AUTO 04002KT 6SM 22/21 A2965 RMK T02200210 IEM_DS3505
ZBAA,1996-07-22 00:00,ZBAA 220000Z AUTO 04006KT 4SM 25/19 A2965 RMK SLP042 T02490189 52004 IEM_DS3505
ZBAA,1996-07-22 01:00,ZBAA 220100Z AUTO 02002KT 6SM 25/22 A2965 RMK T02500220 IEM_DS3505
ZBAA,1996-07-22 02:00,ZBAA 220200Z AUTO ////02KT 6SM 26/22 A2965 RMK T02600220 IEM_DS3505
ZBAA,1996-07-22 03:00,ZBAA 220300Z AUTO 27002KT 4SM 27/20 A2965 RMK SLP040 T02740200 57002 IEM_DS3505
ZBAA,1996-07-22 04:00,ZBAA 220400Z AUTO 11004KT 6SM 29/23 A2962 RMK T02900230 IEM_DS3505
ZBAA,1996-07-22 05:00,ZBAA 220500Z AUTO ////04KT 5SM 30/24 A2959 RMK T03000240 IEM_DS3505
ZBAA,1996-07-22 06:00,ZBAA 220600Z AUTO 16008KT 5SM 31/20 A2959 RMK SLP020 T03080195 57020 IEM_DS3505
ZBAA,1996-07-22 07:00,ZBAA 220700Z AUTO 19008KT 5SM 32/23 A2956 RMK T03200230 IEM_DS3505
ZBAA,1996-07-22 08:00,ZBAA 220800Z AUTO 18006KT 5SM 31/24 A2956 RMK T03100240 IEM_DS3505
ZBAA,1996-07-22 09:00,ZBAA 220900Z AUTO 20008KT 2 1/2SM 31/23 A2956 RMK SLP006 T03140231 57014 IEM_DS3505
ZBAA,1996-07-22 10:00,ZBAA 221000Z AUTO 14004KT 4SM 31/25 A2953 RMK T03100250 IEM_DS3505
ZBAA,1996-07-22 11:00,ZBAA 221100Z AUTO 14002KT 4SM 30/25 A2956 RMK T03000250 IEM_DS3505
ZBAA,1996-07-22 12:00,ZBAA 221200Z AUTO 18004KT 1 1/4SM 30/24 A2953 RMK SLP001 T03020241 57005 IEM_DS3505
ZBAA,1996-07-22 13:00,ZBAA 221300Z AUTO 12006KT 2 1/2SM 29/26 A2956 RMK T02900260 IEM_DS3505
ZBAA,1996-07-22 14:00,ZBAA 221400Z AUTO ////02KT 2 1/2SM 28/26 A2953 RMK T02800260 IEM_DS3505
ZBAA,1996-07-22 15:00,ZBAA 221500Z AUTO 00000KT 2SM 28/25 A2953 RMK SLP996 T02830249 57005 IEM_DS3505
ZBAA,1996-07-22 16:00,ZBAA 221600Z AUTO 09004KT 2 1/2SM 27/25 A2950 RMK T02700250 IEM_DS3505
ZBAA,1996-07-22 18:00,ZBAA 221800Z AUTO 00000KT 1 1/4SM 27/25 RMK SLP998 T02700247 52002 IEM_DS3505
ZBAA,1996-07-22 20:00,ZBAA 222000Z AUTO 12004KT 7SM 24/23 A2956 RMK T02400230 IEM_DS3505
ZBAA,1996-07-22 21:00,ZBAA 222100Z AUTO 36004KT 2SM 26/24 A2956 RMK SLP003 T02590239 52005 IEM_DS3505
ZBAA,1996-07-22 22:00,ZBAA 222200Z AUTO 08002KT 7SM 24/23 A2956 RMK T02400230 IEM_DS3505
ZBAA,1996-07-22 23:00,ZBAA 222300Z AUTO 09002KT 7SM 25/23 A2956 RMK T02500230 IEM_DS3505
ZBAA,1996-07-23 00:00,ZBAA 230000Z AUTO 02004KT 1 1/4SM 25/23 A2956 RMK SLP012 T02500227 52009 IEM_DS3505
ZBAA,1996-07-23 01:00,ZBAA 230100Z AUTO 13002KT 5SM 25/23 A2956 RMK T02500230 IEM_DS3505
ZBAA,1996-07-23 02:00,ZBAA 230200Z AUTO 00000KT 4SM 26/25 A2956 RMK T02600250 IEM_DS3505
ZBAA,1996-07-23 03:00,ZBAA 230300Z AUTO 02004KT 2SM 28/24 A2956 RMK SLP005 T02790237 57007 IEM_DS3505
ZBAA,1996-07-23 04:00,ZBAA 230400Z AUTO ////02KT 4SM 26/25 A2953 RMK T02600250 IEM_DS3505
ZBAA,1996-07-23 05:00,ZBAA 230500Z AUTO ////04KT 3SM 27/25 A2953 RMK T02700250 IEM_DS3505
ZBAA,1996-07-23 06:00,ZBAA 230600Z AUTO 00000KT 2SM 30/24 A2950 RMK SLP992 T02950244 57013 IEM_DS3505
ZBAA,1996-07-23 07:00,ZBAA 230700Z AUTO ////04KT 2 1/2SM 29/27 A2950 RMK T02900270 IEM_DS3505
ZBAA,1996-07-23 08:00,ZBAA 230800Z AUTO ////04KT 2 1/2SM 29/27 A2947 RMK T02900270 IEM_DS3505
ZBAA,1996-07-23 09:00,ZBAA 230900Z AUTO 34002KT 2SM 30/26 A2944 RMK SLP979 T03040255 57013 IEM_DS3505
ZBAA,1996-07-23 10:00,ZBAA 231000Z AUTO 36006KT 2SM 29/27 A2947 RMK T02900270 IEM_DS3505
ZBAA,1996-07-23 11:00,ZBAA 231100Z AUTO 35004KT 1 1/2SM 28/26 A2944 RMK T02800260 IEM_DS3505
ZBAA,1996-07-23 12:00,ZBAA 231200Z AUTO 36004KT 1 1/4SM 28/26 A2944 RMK SLP971 T02810256 57008 IEM_DS3505
ZBAA,1996-07-23 13:00,ZBAA 231300Z AUTO 25019G35KT 2SM 23/23 A2947 RMK T02300230 IEM_DS3505
ZBAA,1996-07-23 14:00,ZBAA 231400Z AUTO 02012KT 7SM 22/22 A2950 RMK T02200220 IEM_DS3505
ZBAA,1996-07-23 15:00,ZBAA 231500Z AUTO 02006KT 3SM 22/21 A2947 RMK SLP978 T02200208 52007 IEM_DS3505
ZBAA,1996-07-23 16:00,ZBAA 231600Z AUTO ////02KT 7SM 22/22 A2947 RMK T02200220 IEM_DS3505
ZBAA,1996-07-23 17:00,ZBAA 231700Z AUTO ////04KT 7SM 22/22 A2947 RMK T02200220 IEM_DS3505
ZBAA,1996-07-23 18:00,ZBAA 231800Z AUTO 07002KT 10SM 23/21 A2950 RMK 60094 SLP985 T02280207 52007 IEM_DS3505
ZBAA,1996-07-23 19:00,ZBAA 231900Z AUTO ////04KT 6SM 22/22 A2950 RMK T02200220 IEM_DS3505
ZBAA,1996-07-23 20:00,ZBAA 232000Z AUTO 00000KT 6SM 22/22 A2953 RMK T02200220 IEM_DS3505
ZBAA,1996-07-23 21:00,ZBAA 232100Z AUTO 27002KT 7SM 23/22 A2953 RMK 70094 SLP003 T02280215 52018 IEM_DS3505
ZBAA,1996-07-23 22:00,ZBAA 232200Z AUTO 00000KT 4SM 22/22 A2953 RMK T02200220 IEM_DS3505
ZBAA,1996-07-23 23:00,ZBAA 232300Z AUTO ////04KT 4SM 23/23 A2953 RMK T02300230 IEM_DS3505
ZBAA,1996-07-24 00:00,ZBAA 240000Z AUTO 32004KT 6SM 25/22 A2953 RMK 70094 SLP003 T02500216 54000 IEM_DS3505
ZBAA,1996-07-24 01:00,ZBAA 240100Z AUTO 36006KT 6SM 26/23 A2953 RMK T02600230 IEM_DS3505
ZBAA,1996-07-24 02:00,ZBAA 240200Z AUTO ////04KT 7SM 27/23 A2956 RMK T02700230 IEM_DS3505
ZBAA,1996-07-24 03:00,ZBAA 240300Z AUTO 07002KT 7SM 29/21 A2956 RMK SLP010 T02870211 52007 IEM_DS3505
ZBAA,1996-07-24 04:00,ZBAA 240400Z AUTO ////02KT 6SM 29/24 A2953 RMK T02900240 IEM_DS3505
ZBAA,1996-07-24 05:00,ZBAA 240500Z AUTO ////02KT 6SM 30/23 A2953 RMK T03000230 IEM_DS3505
ZBAA,1996-07-24 06:00,ZBAA 240600Z AUTO 32004KT 6SM 31/21 A2953 RMK SLP004 T03070211 57006 IEM_DS3505
ZBAA,1996-07-24 07:00,ZBAA 240700Z AUTO 14002KT 6SM 31/24 A2953 RMK T03100240 IEM_DS3505
ZBAA,1996-07-24 08:00,ZBAA 240800Z AUTO 20004KT 6SM 31/24 A2953 RMK T03100240 IEM_DS3505
ZBAA,1996-07-24 09:00,ZBAA 240900Z AUTO 20008KT 4SM 30/22 A2953 RMK SLP006 T02980222 52002 IEM_DS3505
ZBAA,1996-07-24 10:00,ZBAA 241000Z AUTO 19008KT 6SM 29/24 A2953 RMK T02900240 IEM_DS3505
ZBAA,1996-07-24 11:00,ZBAA 241100Z AUTO 00000KT 6SM 29/24 A2950 RMK T02900240 IEM_DS3505
ZBAA,1996-07-24 12:00,ZBAA 241200Z AUTO 18006KT 1 1/4SM 28/23 A2953 RMK SLP001 T02810230 57005 IEM_DS3505
ZBAA,1996-07-24 13:00,ZBAA 241300Z AUTO ////04KT 6SM 28/25 A2956 RMK T02800250 IEM_DS3505
ZBAA,1996-07-24 14:00,ZBAA 241400Z AUTO ////04KT 6SM 28/25 A2959 RMK T02800250 IEM_DS3505
ZBAA,1996-07-24 15:00,ZBAA 241500Z AUTO 20004KT 2SM 27/23 A2959 RMK SLP020 T02710232 52019 IEM_DS3505
ZBAA,1996-07-24 16:00,ZBAA 241600Z AUTO ////02KT 5SM 26/26 A2959 RMK T02600260 IEM_DS3505
ZBAA,1996-07-24 17:00,ZBAA 241700Z AUTO ////02KT 4SM 26/26 A2959 RMK T02600260 IEM_DS3505
ZBAA,1996-07-24 18:00,ZBAA 241800Z AUTO 00000KT 2 1/2SM 26/24 A2959 RMK SLP019 T02580236 57001 IEM_DS3505
ZBAA,1996-07-24 19:00,ZBAA 241900Z AUTO ////04KT 4SM 25/25 A2959 RMK T02500250 IEM_DS3505
ZBAA,1996-07-24 20:00,ZBAA 242000Z AUTO 07004KT 4SM 24/24 A2959 RMK T02400240 IEM_DS3505
ZBAA,1996-07-24 21:00,ZBAA 242100Z AUTO 00000KT 2SM 25/24 A2959 RMK SLP018 T02540237 57001 IEM_DS3505
ZBAA,1996-07-24 22:00,ZBAA 242200Z AUTO 05002KT 4SM 24/24 A2959 RMK SLP024 T02400240 IEM_DS3505
ZBAA,1996-07-24 23:00,ZBAA 242300Z AUTO 00000KT 4SM 24/23 A2959 RMK SLP024 T02400230 IEM_DS3505
ZBAA,1996-07-25 00:00,ZBAA 250000Z AUTO 11002KT 4SM 26/23 A2962 RMK SLP028 T02600231 52010 IEM_DS3505
ZBAA,1996-07-25 01:00,ZBAA 250100Z AUTO ////02KT 6SM 27/24 A2962 RMK SLP033 T02700240 IEM_DS3505
ZBAA,1996-07-25 02:00,ZBAA 250200Z AUTO ////02KT 7SM 28/24 A2962 RMK SLP033 T02800240 IEM_DS3505
ZBAA,1996-07-25 03:00,ZBAA 250300Z AUTO 34002KT 2SM 30/23 A2962 RMK SLP032 T02960233 52004 IEM_DS3505
ZBAA,1996-07-25 04:00,ZBAA 250400Z AUTO ////04KT 5SM 31/26 A2962 RMK SLP033 T03100260 IEM_DS3505
ZBAA,1996-07-25 05:00,ZBAA 250500Z AUTO 16006KT 5SM 32/26 A2959 RMK SLP022 T03200260 IEM_DS3505
ZBAA,1996-07-25 06:00,ZBAA 250600Z AUTO 20008KT 2 1/2SM 29/24 A2959 RMK SLP025 T02920235 57007 IEM_DS3505
ZBAA,1996-07-25 07:00,ZBAA 250700Z AUTO 20010KT 5SM 29/25 A2959 RMK SLP023 T02900250 IEM_DS3505
ZBAA,1996-07-25 08:00,ZBAA 250800Z AUTO 32008KT 1 1/4SM 28/28 A2959 RMK SLP023 T02800280 IEM_DS3505
ZBAA,1996-07-25 09:00,ZBAA 250900Z AUTO 34002KT 2SM 27/23 A2959 RMK SLP031 T02720228 52006 IEM_DS3505
ZBAA,1996-07-25 10:00,ZBAA 251000Z AUTO ////04KT 6SM 25/23 A2959 RMK SLP024 T02500230 IEM_DS3505
ZBAA,1996-07-25 11:00,ZBAA 251100Z AUTO 34004KT 6SM 25/23 A2959 RMK SLP024 T02500230 IEM_DS3505
ZBAA,1996-07-25 12:00,ZBAA 251200Z AUTO 07002KT 7SM 26/21 A2962 RMK 60004 SLP029 T02570207 57002 IEM_DS3505
ZBAA,1996-07-25 13:00,ZBAA 251300Z AUTO 00000KT 7SM 24/23 A2965 RMK SLP044 T02400230 IEM_DS3505
ZBAA,1996-07-25 14:00,ZBAA 251400Z AUTO 30004KT 7SM 24/23 A2965 RMK SLP044 T02400230 IEM_DS3505
ZBAA,1996-07-25 15:00,ZBAA 251500Z AUTO 02004KT 7SM 25/21 A2968 RMK SLP046 T02470208 52017 IEM_DS3505
ZBAA,1996-07-25 16:00,ZBAA 251600Z AUTO 01004KT 7SM 23/23 A2968 RMK SLP054 T02300230 IEM_DS3505
ZBAA,1996-07-25 17:00,ZBAA 251700Z AUTO 00000KT 7SM 23/23 A2965 RMK SLP044 T02300230 IEM_DS3505
ZBAA,1996-07-25 18:00,ZBAA 251800Z AUTO 00000KT 4SM 23/22 A2965 RMK SLP044 T02340216 57002 IEM_DS3505
ZBAA,1996-07-25 19:00,ZBAA 251900Z AUTO 36002KT 7SM 23/22 A2965 RMK SLP044 T02300220 IEM_DS3505
ZBAA,1996-07-25 20:00,ZBAA 252000Z AUTO 34004KT 7SM 22/22 A2965 RMK SLP044 T02200220 IEM_DS3505
ZBAA,1996-07-25 21:00,ZBAA 252100Z AUTO 02002KT 3SM 22/21 A2968 RMK 70004 SLP047 T02250211 52002 IEM_DS3505
ZBAA,1996-07-25 22:00,ZBAA 252200Z AUTO 00000KT 6SM 22/22 A2968 RMK SLP055 T02200220 IEM_DS3505
ZBAA,1996-07-25 23:00,ZBAA 252300Z AUTO 00000KT 6SM 23/22 A2971 RMK SLP064 T02300220 IEM_DS3505
ZBAA,1996-07-26 00:00,ZBAA 260000Z AUTO 04004KT 5SM 26/21 A2971 RMK 70004 SLP059 T02580210 52012 IEM_DS3505
ZBAA,1996-07-26 01:00,ZBAA 260100Z AUTO ////02KT 6SM 26/25 A2971 RMK SLP064 T02600250 IEM_DS3505
ZBAA,1996-07-26 02:00,ZBAA 260200Z AUTO ////02KT 7SM 29/26 A2971 RMK SLP063 T02900260 IEM_DS3505
ZBAA,1996-07-26 03:00,ZBAA 260300Z AUTO 34004KT 2 1/2SM 29/22 A2971 RMK SLP062 T02910224 52004 IEM_DS3505
ZBAA,1996-07-26 04:00,ZBAA 260400Z AUTO ////02KT 3SM 30/27 A2971 RMK SLP063 T03000270 IEM_DS3505
ZBAA,1996-07-26 05:00,ZBAA 260500Z AUTO ////04KT 3SM 31/27 A2968 RMK SLP053 T03100270 IEM_DS3505
ZBAA,1996-07-26 06:00,ZBAA 260600Z AUTO 22008KT 3SM 31/23 A2965 RMK SLP046 T03130231 57016 IEM_DS3505
ZBAA,1996-07-26 07:00,ZBAA 260700Z AUTO 22006KT 3SM 32/26 A2962 RMK SLP032 T03200260 IEM_DS3505
ZBAA,1996-07-26 08:00,ZBAA 260800Z AUTO 16006KT 3SM 32/26 A2962 RMK SLP032 T03200260 IEM_DS3505
ZBAA,1996-07-26 09:00,ZBAA 260900Z AUTO 20006KT 4SM 32/23 A2962 RMK SLP031 T03190230 57015 IEM_DS3505
ZBAA,1996-07-26 10:00,ZBAA 261000Z AUTO 15006KT 3SM 31/25 A2962 RMK SLP033 T03100250 IEM_DS3505
ZBAA,1996-07-26 11:00,ZBAA 261100Z AUTO ////04KT 3SM 30/26 A2962 RMK SLP033 T03000260 IEM_DS3505
ZBAA,1996-07-26 12:00,ZBAA 261200Z AUTO 16004KT 2SM 30/24 A2965 RMK SLP038 T03040239 52007 IEM_DS3505
ZBAA,1996-07-26 13:00,ZBAA 261300Z AUTO 15006KT 3SM 29/25 A2968 RMK SLP053 T02900250 IEM_DS3505
ZBAA,1996-07-26 14:00,ZBAA 261400Z AUTO 17004KT 3SM 28/26 A2971 RMK SLP063 T02800260 IEM_DS3505
ZBAA,1996-07-26 15:00,ZBAA 261500Z AUTO 18008KT 2 1/2SM 28/24 A2971 RMK SLP054 T02840241 52016 IEM_DS3505
ZBAA,1996-07-26 16:00,ZBAA 261600Z AUTO 14004KT 2 1/2SM 27/26 A2968 RMK SLP053 T02700260 IEM_DS3505
ZBAA,1996-07-26 17:00,ZBAA 261700Z AUTO 13004KT 2 1/2SM 26/26 A2968 RMK SLP054 T02600260 IEM_DS3505
ZBAA,1996-07-26 18:00,ZBAA 261800Z AUTO 16004KT 2SM 27/25 A2968 RMK SLP050 T02730246 57004 IEM_DS3505
ZBAA,1996-07-26 20:00,ZBAA 262000Z AUTO ////04KT 1 1/4SM 25/25 A2968 RMK SLP054 T02500250 IEM_DS3505
ZBAA,1996-07-26 21:00,ZBAA 262100Z AUTO 14004KT 4SM 25/24 A2962 RMK 70055 SLP048 T02520245 57002 IEM_DS3505
ZBAA,1996-07-26 22:00,ZBAA 262200Z AUTO 02004KT 4SM 23/23 A2968 RMK SLP054 T02300230 IEM_DS3505
ZBAA,1996-07-26 23:00,ZBAA 262300Z AUTO 08004KT 1 1/4SM 24/24 A2968 RMK SLP054 T02400240 IEM_DS3505
ZBAA,1996-07-27 00:00,ZBAA 270000Z AUTO 09004KT 2SM 25/23 A2971 RMK 60059 70059 SLP060 T02480232 52012 IEM_DS3505
ZBAA,1996-07-27 01:00,ZBAA 270100Z AUTO 12002KT 1SM 24/24 A2971 RMK SLP064 T02400240 IEM_DS3505
ZBAA,1996-07-27 02:00,ZBAA 270200Z AUTO 14004KT 1 1/4SM 25/25 A2971 RMK SLP064 T02500250 IEM_DS3505
ZBAA,1996-07-27 03:00,ZBAA 270300Z AUTO 14002KT 1SM 26/25 A2971 RMK SLP062 T02560246 52002 IEM_DS3505
ZBAA,1996-07-27 04:00,ZBAA 270400Z AUTO 11004KT 1 1/4SM 28/27 A2968 RMK SLP053 T02800270 IEM_DS3505
ZBAA,1996-07-27 05:00,ZBAA 270500Z AUTO ////04KT 1 1/2SM 29/27 A2965 RMK SLP043 T02900270 IEM_DS3505
ZBAA,1996-07-27 06:00,ZBAA 270600Z AUTO 34004KT 1 1/4SM 29/26 A2965 RMK 60000 SLP043 T02910256 57019 IEM_DS3505
ZBAA,1996-07-27 07:00,ZBAA 270700Z AUTO 08004KT 1 1/2SM 29/28 A2962 RMK SLP033 T02900280 IEM_DS3505
ZBAA,1996-07-27 08:00,ZBAA 270800Z AUTO 06004KT 1 1/2SM 29/28 A2962 RMK SLP033 T02900280 IEM_DS3505
ZBAA,1996-07-27 09:00,ZBAA 270900Z AUTO 02004KT 2SM 29/26 A2962 RMK SLP031 T02920260 57012 IEM_DS3505
ZBAA,1996-07-27 10:00,ZBAA 271000Z AUTO 12006KT 2 1/2SM 29/26 A2962 RMK SLP033 T02900260 IEM_DS3505
ZBAA,1996-07-27 11:00,ZBAA 271100Z AUTO ////04KT 2 1/2SM 28/27 A2965 RMK SLP043 T02800270 IEM_DS3505
ZBAA,1996-07-27 12:00,ZBAA 271200Z AUTO 16004KT 1 1/4SM 29/26 A2965 RMK SLP041 T02870261 52010 IEM_DS3505
ZBAA,1996-07-27 13:00,ZBAA 271300Z AUTO ////04KT 2 1/2SM 27/26 A2968 RMK SLP053 T02700260 IEM_DS3505
ZBAA,1996-07-27 14:00,ZBAA 271400Z AUTO ////04KT 4SM 26/26 A2968 RMK SLP054 T02600260 IEM_DS3505
ZBAA,1996-07-27 15:00,ZBAA 271500Z AUTO 09006KT 2 1/2SM 27/25 A2968 RMK SLP049 T02740250 52008 IEM_DS3505
ZBAA,1996-07-27 16:00,ZBAA 271600Z AUTO ////04KT 4SM 25/25 A2968 RMK SLP054 T02500250 IEM_DS3505
ZBAA,1996-07-27 18:00,ZBAA 271800Z AUTO 14002KT 1SM 26/25 A2965 RMK SLP041 T02620249 57008 IEM_DS3505
ZBAA,1996-07-27 20:00,ZBAA 272000Z AUTO 13004KT 2 1/2SM 26/26 A2962 RMK SLP034 T02600260 IEM_DS3505
ZBAA,1996-07-27 21:00,ZBAA 272100Z AUTO 25002KT 1 1/4SM 26/26 A2962 RMK 70012 SLP031 T02610255 57010 IEM_DS3505
ZBAA,1996-07-27 22:00,ZBAA 272200Z AUTO 12004KT 1SM 26/26 A2962 RMK SLP034 T02600260 IEM_DS3505
ZBAA,1996-07-27 23:00,ZBAA 272300Z AUTO 12004KT 1 1/4SM 27/27 A2962 RMK SLP033 T02700270 IEM_DS3505
ZBAA,1996-07-28 00:00,ZBAA 280000Z AUTO 20002KT 1SM 26/26 A2962 RMK 60012 70012 SLP033 T02640258 52002 IEM_DS3505
ZBAA,1996-07-28 01:00,ZBAA 280100Z AUTO 13006KT 2SM 28/28 A2962 RMK SLP033 T02800280 IEM_DS3505
ZBAA,1996-07-28 02:00,ZBAA 280200Z AUTO 13006KT 2SM 29/28 A2962 RMK SLP033 T02900280 IEM_DS3505
ZBAA,1996-07-28 03:00,ZBAA 280300Z AUTO 16008KT 2SM 30/26 A2962 RMK SLP027 T03000255 57006 IEM_DS3505
ZBAA,1996-07-28 04:00,ZBAA 280400Z AUTO 13006KT 3SM 31/27 A2959 RMK SLP022 T03100270 IEM_DS3505
ZBAA,1996-07-28 05:00,ZBAA 280500Z AUTO 16008KT 3SM 31/27 A2956 RMK SLP012 T03100270 IEM_DS3505
ZBAA,1996-07-28 06:00,ZBAA 280600Z AUTO 20008KT 3SM 31/25 A2956 RMK SLP011 T03060250 57016 IEM_DS3505
ZBAA,1996-07-28 07:00,ZBAA 280700Z AUTO 15008KT 3SM 29/27 A2953 RMK SLP003 T02900270 IEM_DS3505
ZBAA,1996-07-28 08:00,ZBAA 280800Z AUTO 14008KT 4SM RMK IEM_DS3505
ZBAA,1996-07-28 09:00,ZBAA 280900Z AUTO 22004KT 2 1/2SM 30/26 A2953 RMK SLP002 T02960260 57009 IEM_DS3505
ZBAA,1996-07-28 10:00,ZBAA 281000Z AUTO 13006KT 5SM 28/27 A2953 RMK SLP003 T02800270 IEM_DS3505
ZBAA,1996-07-28 11:00,ZBAA 281100Z AUTO ////02KT 3SM 26/26 A2956 RMK SLP013 T02600260 IEM_DS3505
ZBAA,1996-07-28 12:00,ZBAA 281200Z AUTO 20004KT 2SM 28/26 A2953 RMK 60002 SLP003 T02810263 52001 IEM_DS3505
ZBAA,1996-07-28 13:00,ZBAA 281300Z AUTO ////02KT 1 1/2SM 27/27 A2956 RMK SLP013 T02700270 IEM_DS3505
ZBAA,1996-07-28 14:00,ZBAA 281400Z AUTO ////02KT 1 1/4SM 27/27 A2956 RMK SLP013 T02700270 IEM_DS3505
ZBAA,1996-07-28 15:00,ZBAA 281500Z AUTO 20008KT 1 1/4SM 28/27 A2956 RMK SLP007 T02780267 52004 IEM_DS3505
ZBAA,1996-07-28 16:00,ZBAA 281600Z AUTO 18006KT 1 1/4SM 27/27 A2953 RMK SLP003 T02700270 IEM_DS3505
ZBAA,1996-07-28 17:00,ZBAA 281700Z AUTO 25006KT 2 1/2SM 26/26 A2953 RMK SLP003 T02600260 IEM_DS3505
ZBAA,1996-07-28 18:00,ZBAA 281800Z AUTO 00000KT 5SM 26/25 A2953 RMK 60024 SLP996 T02550251 57011 IEM_DS3505
ZBAA,1996-07-28 20:00,ZBAA 282000Z AUTO 00000KT 2 1/2SM 25/25 A2950 RMK SLP993 T02500250 IEM_DS3505
ZBAA,1996-07-28 21:00,ZBAA 282100Z AUTO 00000KT 1SM 26/25 A2949 RMK 70031 SLP990 T02550251 57006 IEM_DS3505
ZBAA,1996-07-28 22:00,ZBAA 282200Z AUTO ////02KT 1 1/4SM 26/26 A2953 RMK SLP003 T02600260 IEM_DS3505
ZBAA,1996-07-28 23:00,ZBAA 282300Z AUTO ////02KT 1 1/4SM 25/25 A2953 RMK SLP004 T02500250 IEM_DS3505
ZBAA,1996-07-29 00:00,ZBAA 290000Z AUTO 02004KT 1SM 26/25 A2956 RMK 60004 70031 SLP005 T02620254 52015 IEM_DS3505
ZBAA,1996-07-29 01:00,ZBAA 290100Z AUTO 00000KT 1 1/4SM 26/26 A2956 RMK SLP013 T02600260 IEM_DS3505
ZBAA,1996-07-29 02:00,ZBAA 290200Z AUTO ////02KT 1 1/4SM 27/27 A2956 RMK SLP013 T02700270 IEM_DS3505
ZBAA,1996-07-29 03:00,ZBAA 290300Z AUTO 02002KT 1SM 28/25 A2956 RMK SLP011 T02770253 52006 IEM_DS3505
ZBAA,1996-07-29 04:00,ZBAA 290400Z AUTO 13004KT 2SM 29/28 A2956 RMK SLP013 T02900280 IEM_DS3505
ZBAA,1996-07-29 05:00,ZBAA 290500Z AUTO ////04KT 2 1/2SM 30/28 A2953 RMK SLP003 T03000280 IEM_DS3505
ZBAA,1996-07-29 06:00,ZBAA 290600Z AUTO 18006KT 1 1/4SM 31/26 A2953 RMK SLP999 T03130255 57012 IEM_DS3505
ZBAA,1996-07-29 07:00,ZBAA 290700Z AUTO 12004KT 3SM 30/28 A2953 RMK SLP003 T03000280 IEM_DS3505
ZBAA,1996-07-29 09:00,ZBAA 290900Z AUTO 16006KT 1 1/2SM 31/26 A2953 RMK SLP994 T03060257 57005 IEM_DS3505
ZBAA,1996-07-29 10:00,ZBAA 291000Z AUTO 14006KT 4SM 28/27 A2953 RMK SLP003 T02800270 IEM_DS3505
ZBAA,1996-07-29 11:00,ZBAA 291100Z AUTO 13006KT 4SM 27/27 A2953 RMK SLP003 T02700270 IEM_DS3505
ZBAA,1996-07-29 12:00,ZBAA 291200Z AUTO 14006KT 1 1/4SM 28/26 A2956 RMK SLP011 T02850261 52017 IEM_DS3505
ZBAA,1996-07-29 13:00,ZBAA 291300Z AUTO ////02KT 4SM 26/26 A2956 RMK SLP013 T02600260 IEM_DS3505
ZBAA,1996-07-29 14:00,ZBAA 291400Z AUTO 00000KT 4SM 26/26 A2959 RMK SLP023 T02600260 IEM_DS3505
ZBAA,1996-07-29 15:00,ZBAA 291500Z AUTO 32006KT 1 1/4SM 26/23 A2962 RMK SLP034 T02580232 52023 IEM_DS3505
ZBAA,1996-07-29 16:00,ZBAA 291600Z AUTO ////04KT 1 1/2SM 25/25 A2962 RMK SLP034 T02500250 IEM_DS3505
ZBAA,1996-07-29 18:00,ZBAA 291800Z AUTO 04004KT 11SM 25/24 A2961 RMK 60016 SLP029 T02470240 57005 IEM_DS3505
ZBAA,1996-07-29 20:00,ZBAA 292000Z AUTO 00000KT 1 1/4SM 25/25 A2962 RMK SLP034 T02500250 IEM_DS3505
ZBAA,1996-07-29 21:00,ZBAA 292100Z AUTO 02002KT 7SM 24/23 A2965 RMK 70016 SLP037 T02450233 52008 IEM_DS3505
ZBAA,1996-07-29 22:00,ZBAA 292200Z AUTO 00000KT 1SM 25/25 A2965 RMK SLP044 T02500250 IEM_DS3505
ZBAA,1996-07-29 23:00,ZBAA 292300Z AUTO 00000KT 1SM 25/25 A2968 RMK SLP054 T02500250 IEM_DS3505
ZBAA,1996-07-30 00:00,ZBAA 300000Z AUTO 04004KT 6SM 26/24 A2968 RMK 70016 SLP052 T02570243 52015 IEM_DS3505
ZBAA,1996-07-30 01:00,ZBAA 300100Z AUTO 12004KT 1 1/4SM 27/26 A2968 RMK SLP053 T02700260 IEM_DS3505
ZBAA,1996-07-30 02:00,ZBAA 300200Z AUTO 11002KT 1 1/4SM 27/26 A2971 RMK SLP064 T02700260 IEM_DS3505
ZBAA,1996-07-30 03:00,ZBAA 300300Z AUTO 07006KT 2 1/2SM 28/25 A2971 RMK SLP057 T02830249 52005 IEM_DS3505
ZBAA,1996-07-30 04:00,ZBAA 300400Z AUTO 13002KT 2 1/2SM 28/27 A2971 RMK SLP063 T02800270 IEM_DS3505
ZBAA,1996-07-30 05:00,ZBAA 300500Z AUTO ////02KT 4SM 29/26 A2971 RMK SLP063 T02900260 IEM_DS3505
ZBAA,1996-07-30 06:00,ZBAA 300600Z AUTO 04002KT 3SM 29/25 A2971 RMK 60004 SLP057 T02920250 54000 IEM_DS3505
ZBAA,1996-07-30 07:00,ZBAA 300700Z AUTO 14010KT 4SM 25/24 A2971 RMK SLP064 T02500240 IEM_DS3505
ZBAA,1996-07-30 08:00,ZBAA 300800Z AUTO 13008KT 4SM 25/24 A2971 RMK SLP064 T02500240 IEM_DS3505
ZBAA,1996-07-30 09:00,ZBAA 300900Z AUTO 11010KT 3SM 24/22 A2971 RMK SLP061 T02410219 52003 IEM_DS3505
ZBAA,1996-07-30 10:00,ZBAA 301000Z AUTO 04006KT 1SM 22/22 A2974 RMK SLP075 T02200220 IEM_DS3505
ZBAA,1996-07-30 11:00,ZBAA 301100Z AUTO ////04KT 1SM 23/23 A2974 RMK SLP074 T02300230 IEM_DS3505
ZBAA,1996-07-30 12:00,ZBAA 301200Z AUTO 09004KT 2SM 23/22 A2980 RMK 60067 SLP085 T02280221 52024 IEM_DS3505
ZBAA,1996-07-30 13:00,ZBAA 301300Z AUTO 13002KT 1SM 23/23 A2983 RMK SLP106 T02300230 IEM_DS3505
ZBAA,1996-07-30 14:00,ZBAA 301400Z AUTO ////02KT 1SM 22/22 A2983 RMK SLP106 T02200220 IEM_DS3505
ZBAA,1996-07-30 15:00,ZBAA 301500Z AUTO 07008KT 1 1/4SM 21/21 A2983 RMK SLP100 T02140211 52015 IEM_DS3505
ZBAA,1996-07-30 16:00,ZBAA 301600Z AUTO 19004KT 4SM 21/21 A2983 RMK SLP106 T02100210 IEM_DS3505
ZBAA,1996-07-30 17:00,ZBAA 301700Z AUTO 00000KT 5SM 21/21 A2983 RMK SLP106 T02100210 IEM_DS3505
ZBAA,1996-07-30 18:00,ZBAA 301800Z AUTO 00000KT 1SM 21/21 A2980 RMK 60209 SLP097 T02130208 57003 IEM_DS3505
ZBAA,1996-07-30 19:00,ZBAA 301900Z AUTO 33006KT 5SM 21/21 A2980 RMK SLP096 T02100210 IEM_DS3505
ZBAA,1996-07-30 20:00,ZBAA 302000Z AUTO 33006KT 5SM 21/21 A2983 RMK SLP106 T02100210 IEM_DS3505
ZBAA,1996-07-30 21:00,ZBAA 302100Z AUTO 27002KT 1SM 21/20 A2983 RMK 70299 SLP104 T02070202 52006 IEM_DS3505
ZBAA,1996-07-30 22:00,ZBAA 302200Z AUTO 34010KT 2SM 21/21 A2983 RMK SLP106 T02100210 IEM_DS3505
ZBAA,1996-07-30 23:00,ZBAA 302300Z AUTO 33010KT 2SM 21/21 A2985 RMK SLP113 T02100210 IEM_DS3505
ZBAA,1996-07-31 00:00,ZBAA 310000Z AUTO 04004KT 2SM 21/21 A2983 RMK 60043 70323 SLP109 T02110206 52005 IEM_DS3505
ZBAA,1996-07-31 01:00,ZBAA 310100Z AUTO 32006KT 3SM 21/21 A2985 RMK SLP113 T02100210 IEM_DS3505
ZBAA,1996-07-31 02:00,ZBAA 310200Z AUTO 34006KT 4SM 21/21 A2985 RMK SLP113 T02100210 IEM_DS3505
ZBAA,1996-07-31 03:00,ZBAA 310300Z AUTO 02004KT 4SM 22/20 A2985 RMK SLP115 T02190205 52006 IEM_DS3505
ZBAA,1996-07-31 04:00,ZBAA 310400Z AUTO 01010KT 7SM 22/22 A2985 RMK SLP113 T02200220 IEM_DS3505
ZBAA,1996-07-31 05:00,ZBAA 310500Z AUTO 02006KT 7SM 23/23 A2985 RMK SLP113 T02300230 IEM_DS3505
ZBAA,1996-07-31 06:00,ZBAA 310600Z AUTO 02004KT 6SM 24/20 A2983 RMK SLP114 T02350203 57001 IEM_DS3505
ZBAA,1996-07-31 07:00,ZBAA 310700Z AUTO 36004KT 7SM 25/22 A2983 RMK SLP105 T02500220 IEM_DS3505
ZBAA,1996-07-31 08:00,ZBAA 310800Z AUTO 01006KT 6SM 25/22 A2983 RMK SLP105 T02500220 IEM_DS3505
ZBAA,1996-07-31 09:00,ZBAA 310900Z AUTO 04002KT 7SM 24/21 A2983 RMK SLP105 T02430211 57009 IEM_DS3505
ZBAA,1996-07-31 10:00,ZBAA 311000Z AUTO 00000KT 6SM 25/23 A2983 RMK SLP105 T02500230 IEM_DS3505
ZBAA,1996-07-31 11:00,ZBAA 311100Z AUTO 00000KT 6SM 24/23 A2983 RMK SLP105 T02400230 IEM_DS3505
ZBAA,1996-07-31 12:00,ZBAA 311200Z AUTO 00000KT 6SM 24/22 A2985 RMK SLP110 T02390215 52005 IEM_DS3505
ZBAA,1996-07-31 13:00,ZBAA 311300Z AUTO 00000KT 6SM 23/23 A2985 RMK SLP113 T02300230 IEM_DS3505
ZBAA,1996-07-31 14:00,ZBAA 311400Z AUTO 00000KT 6SM 24/23 A2988 RMK SLP123 T02400230 IEM_DS3505
ZBAA,1996-07-31 15:00,ZBAA 311500Z AUTO 00000KT 5SM 24/22 A2988 RMK SLP118 T02350220 52008 IEM_DS3505
ZBAA,1996-07-31 16:00,ZBAA 311600Z AUTO 00000KT 6SM 23/23 A2988 RMK SLP123 T02300230 IEM_DS3505
ZBAA,1996-07-31 18:00,ZBAA 311800Z AUTO 00000KT 5SM 23/22 A2986 RMK SLP117 T02320220 57001 IEM_DS3505
ZBAA,1996-07-31 20:00,ZBAA 312000Z AUTO 14002KT 4SM 23/23 A2985 RMK SLP113 T02300230 IEM_DS3505
ZBAA,1996-07-31 21:00,ZBAA 312100Z AUTO 16004KT 4SM 23/21 A2988 RMK 70028 SLP117 T02260209 54000 IEM_DS3505
ZBAA,1996-07-31 22:00,ZBAA 312200Z AUTO 16002KT 2 1/2SM 22/22 A2988 RMK SLP123 T02200220 IEM_DS3505
ZBAA,1996-07-31 23:00,ZBAA 312300Z AUTO 16002KT 3SM 22/22 A2988 RMK SLP123 T02200220 IEM_DS3505
ZBAA,1996-08-01 00:00,ZBAA 010000Z AUTO 00000KT 1 1/4SM 22/21 A2988 RMK 60008 70008 SLP120 T02210210 52003 IEM_DS3505
ZBAA,1996-08-01 01:00,ZBAA 010100Z AUTO 17002KT 1 1/4SM 22/22 A2988 RMK SLP123 T02200220 IEM_DS3505
ZBAA,1996-08-01 02:00,ZBAA 010200Z AUTO 11002KT 1SM 22/22 A2988 RMK SLP123 T02200220 IEM_DS3505
ZBAA,1996-08-01 03:00,ZBAA 010300Z AUTO 18004KT 1SM 22/21 A2988 RMK SLP124 T02170209 52004 IEM_DS3505
ZBAA,1996-08-01 04:00,ZBAA 010400Z AUTO 15004KT 1 1/2SM 22/22 A2985 RMK SLP113 T02200220 IEM_DS3505
ZBAA,1996-08-01 05:00,ZBAA 010500Z AUTO 00000KT 1SM 22/22 A2985 RMK SLP113 T02200220 IEM_DS3505
ZBAA,1996-08-01 06:00,ZBAA 010600Z AUTO 11004KT 1SM 22/22 A2985 RMK 60020 SLP119 T02210216 57005 IEM_DS3505
ZBAA,1996-08-01 07:00,ZBAA 010700Z AUTO 00000KT 1SM 22/22 A2985 RMK SLP113 T02200220 IEM_DS3505
ZBAA,1996-08-01 08:00,ZBAA 010800Z AUTO ////04KT 1SM 22/22 A2985 RMK SLP113 T02200220 IEM_DS3505
ZBAA,1996-08-01 09:00,ZBAA 010900Z AUTO 02004KT 1SM 22/22 A2985 RMK SLP110 T02250221 57009 IEM_DS3505
ZBAA,1996-08-01 10:00,ZBAA 011000Z AUTO ////04KT 1SM 22/22 A2983 RMK SLP106 T02200220 IEM_DS3505
ZBAA,1996-08-01 11:00,ZBAA 011100Z AUTO 15002KT 1SM 22/22 A2983 RMK SLP106 T02200220 IEM_DS3505
ZBAA,1996-08-01 12:00,ZBAA 011200Z AUTO 29002KT 1SM 22/22 A2983 RMK 60004 SLP109 T02240221 57001 IEM_DS3505
ZBAA,1996-08-01 13:00,ZBAA 011300Z AUTO 04002KT 3/8SM 22/22 A2985 RMK SLP113 T02200220 IEM_DS3505
ZBAA,1996-08-01 14:00,ZBAA 011400Z AUTO 04002KT 1/2SM 22/22 A2985 RMK SLP113 T02200220 IEM_DS3505
ZBAA,1996-08-01 15:00,ZBAA 011500Z AUTO 27002KT 3/8SM 22/22 A2985 RMK SLP111 T02250224 52002 IEM_DS3505
ZBAA,1996-08-01 16:00,ZBAA 011600Z AUTO 00000KT 1/2SM 23/23 A2985 RMK SLP113 T02300230 IEM_DS3505
ZBAA,1996-08-01 17:00,ZBAA 011700Z AUTO 35004KT 1SM 22/22 A2983 RMK SLP106 T02200220 IEM_DS3505
ZBAA,1996-08-01 18:00,ZBAA 011800Z AUTO 36002KT 3/8SM 22/22 A2980 RMK 60000 SLP099 T02240224 57012 IEM_DS3505
ZBAA,1996-08-01 19:00,ZBAA 011900Z AUTO ////02KT 1SM 23/23 A2980 RMK SLP096 T02300230 IEM_DS3505
ZBAA,1996-08-01 20:00,ZBAA 012000Z AUTO 00000KT 1SM 22/22 A2977 RMK SLP086 T02200220 IEM_DS3505
ZBAA,1996-08-01 21:00,ZBAA 012100Z AUTO 32004KT 3/8SM 22/22 A2977 RMK 70031 SLP088 T02230222 57011 IEM_DS3505
ZBAA,1996-08-01 22:00,ZBAA 012200Z AUTO ////02KT 1SM 23/23 A2980 RMK SLP096 T02300230 IEM_DS3505
ZBAA,1996-08-01 23:00,ZBAA 012300Z AUTO ////02KT 1/4SM 23/23 A2980 RMK SLP096 T02300230 IEM_DS3505
ZBAA,1996-08-02 00:00,ZBAA 020000Z AUTO 11002KT 1SM 23/22 A2980 RMK 60002 70024 SLP098 T02270223 52010 IEM_DS3505
ZBAA,1996-08-02 01:00,ZBAA 020100Z AUTO 00000KT 1/2SM 24/24 A2980 RMK SLP095 T02400240 IEM_DS3505
ZBAA,1996-08-02 02:00,ZBAA 020200Z AUTO 32002KT 1/2SM 24/24 A2983 RMK SLP105 T02400240 IEM_DS3505
ZBAA,1996-08-02 03:00,ZBAA 020300Z AUTO 04002KT 1SM 24/23 A2983 RMK SLP102 T02350229 52004 IEM_DS3505
ZBAA,1996-08-02 04:00,ZBAA 020400Z AUTO 13002KT 1SM 26/26 A2983 RMK SLP105 T02600260 IEM_DS3505
ZBAA,1996-08-02 05:00,ZBAA 020500Z AUTO 21002KT 1SM 27/25 A2983 RMK SLP105 T02700250 IEM_DS3505
ZBAA,1996-08-02 06:00,ZBAA 020600Z AUTO 07004KT 1 1/4SM 25/24 A2980 RMK 60012 SLP097 T02490236 57004 IEM_DS3505
ZBAA,1996-08-02 07:00,ZBAA 020700Z AUTO 00000KT 1 1/4SM 28/26 A2980 RMK SLP095 T02800260 IEM_DS3505
ZBAA,1996-08-02 08:00,ZBAA 020800Z AUTO 05002KT 1 1/2SM 28/26 A2977 RMK SLP084 T02800260 IEM_DS3505
ZBAA,1996-08-02 09:00,ZBAA 020900Z AUTO 02004KT 1 1/2SM 26/24 A2977 RMK SLP085 T02580239 57012 IEM_DS3505
ZBAA,1996-08-02 10:00,ZBAA 021000Z AUTO 03004KT 1 1/2SM 28/26 A2977 RMK SLP084 T02800260 IEM_DS3505
ZBAA,1996-08-02 11:00,ZBAA 021100Z AUTO 04002KT 1SM 27/26 A2980 RMK SLP095 T02700260 IEM_DS3505
ZBAA,1996-08-02 12:00,ZBAA 021200Z AUTO 34002KT 1SM 25/24 A2980 RMK SLP094 T02480236 52009 IEM_DS3505
ZBAA,1996-08-02 13:00,ZBAA 021300Z AUTO 13004KT 4SM 26/26 A2983 RMK SLP105 T02600260 IEM_DS3505
ZBAA,1996-08-02 14:00,ZBAA 021400Z AUTO 00000KT 7SM 26/25 A2983 RMK SLP105 T02600250 IEM_DS3505
ZBAA,1996-08-02 15:00,ZBAA 021500Z AUTO 02004KT 1SM 25/24 A2983 RMK SLP102 T02470237 52008 IEM_DS3505
ZBAA,1996-08-02 16:00,ZBAA 021600Z AUTO 04002KT 7SM 25/25 A2983 RMK SLP105 T02500250 IEM_DS3505
ZBAA,1996-08-02 18:00,ZBAA 021800Z AUTO 02004KT 1SM 24/24 A2981 RMK 60016 SLP097 T02420238 57005 IEM_DS3505
ZBAA,1996-08-02 20:00,ZBAA 022000Z AUTO 04002KT 1 1/4SM 24/24 A2983 RMK SLP105 T02400240 IEM_DS3505
ZBAA,1996-08-02 21:00,ZBAA 022100Z AUTO 02004KT 2SM 24/24 A2980 RMK 70047 SLP097 T02370236 54000 IEM_DS3505
ZBAA,1996-08-02 22:00,ZBAA 022200Z AUTO 04006KT 1 1/2SM 24/24 A2983 RMK SLP105 T02400240 IEM_DS3505
ZBAA,1996-08-02 23:00,ZBAA 022300Z AUTO 04006KT 1 1/2SM 25/25 A2983 RMK SLP105 T02500250 IEM_DS3505
ZBAA,1996-08-03 00:00,ZBAA 030000Z AUTO 02008KT 1 1/4SM 24/23 A2983 RMK 60039 70067 SLP106 T02350228 52009 IEM_DS3505
ZBAA,1996-08-03 01:00,ZBAA 030100Z AUTO 03008KT 2 1/2SM 25/25 A2985 RMK SLP112 T02500250 IEM_DS3505
ZBAA,1996-08-03 02:00,ZBAA 030200Z AUTO 04006KT 7SM 25/24 A2985 RMK SLP112 T02500240 IEM_DS3505
ZBAA,1996-08-03 03:00,ZBAA 030300Z AUTO 02006KT 7SM 24/22 A2985 RMK SLP116 T02440220 52010 IEM_DS3505
ZBAA,1996-08-03 04:00,ZBAA 030400Z AUTO 00000KT 7SM 27/24 A2985 RMK SLP112 T02700240 IEM_DS3505
ZBAA,1996-08-03 05:00,ZBAA 030500Z AUTO ////02KT 7SM 27/23 A2985 RMK SLP112 T02700230 IEM_DS3505
ZBAA,1996-08-03 06:00,ZBAA 030600Z AUTO 09002KT 9SM 26/21 A2983 RMK 60002 SLP110 T02610212 57006 IEM_DS3505
ZBAA,1996-08-03 07:00,ZBAA 030700Z AUTO 21002KT 7SM 28/24 A2983 RMK SLP105 T02800240 IEM_DS3505
ZBAA,1996-08-03 08:00,ZBAA 030800Z AUTO 14004KT 6SM 29/25 A2983 RMK SLP104 T02900250 IEM_DS3505
ZBAA,1996-08-03 09:00,ZBAA 030900Z AUTO 16004KT 5SM 26/22 A2983 RMK SLP109 T02620221 57001 IEM_DS3505
ZBAA,1996-08-03 10:00,ZBAA 031000Z AUTO 17004KT 7SM 27/23 A2983 RMK SLP105 T02700230 IEM_DS3505
ZBAA,1996-08-03 12:00,ZBAA 031200Z AUTO 04002KT 12SM 25/21 A2985 RMK SLP114 T02500211 52005 IEM_DS3505
ZBAA,1996-08-03 13:00,ZBAA 031300Z AUTO 17002KT 6SM 24/23 A2988 RMK SLP123 T02400230 IEM_DS3505
ZBAA,1996-08-03 14:00,ZBAA 031400Z AUTO 00000KT 6SM 24/23 A2988 RMK SLP123 T02400230 IEM_DS3505
ZBAA,1996-08-03 15:00,ZBAA 031500Z AUTO 32002KT 12SM 24/22 A2988 RMK SLP121 T02410222 52007 IEM_DS3505
ZBAA,1996-08-03 16:00,ZBAA 031600Z AUTO 00000KT 7SM 24/23 A2988 RMK SLP123 T02400230 IEM_DS3505
ZBAA,1996-08-03 17:00,ZBAA 031700Z AUTO 30002KT 7SM 25/25 A2985 RMK SLP112 T02500250 IEM_DS3505
ZBAA,1996-08-03 18:00,ZBAA 031800Z AUTO 34004KT 9SM 24/22 A2985 RMK SLP115 T02360224 57006 IEM_DS3505
ZBAA,1996-08-03 19:00,ZBAA 031900Z AUTO 35006KT 7SM 26/24 A2985 RMK SLP112 T02600240 IEM_DS3505
ZBAA,1996-08-03 20:00,ZBAA 032000Z AUTO 34006KT 7SM 26/24 A2985 RMK SLP112 T02600240 IEM_DS3505
ZBAA,1996-08-03 21:00,ZBAA 032100Z AUTO 02004KT 12SM 24/22 A2985 RMK 70024 SLP111 T02370218 57004 IEM_DS3505
ZBAA,1996-08-03 22:00,ZBAA 032200Z AUTO 00000KT 5SM 25/24 A2985 RMK SLP112 T02500240 IEM_DS3505
ZBAA,1996-08-03 23:00,ZBAA 032300Z AUTO 36002KT 5SM 25/24 A2985 RMK SLP112 T02500240 IEM_DS3505
ZBAA,1996-08-04 00:00,ZBAA 040000Z AUTO 02004KT 6SM 25/22 A2988 RMK 70002 SLP119 T02530224 52008 IEM_DS3505
ZBAA,1996-08-04 01:00,ZBAA 040100Z AUTO 00000KT 6SM 28/24 A2988 RMK SLP122 T02800240 IEM_DS3505
ZBAA,1996-08-04 02:00,ZBAA 040200Z AUTO 00000KT 7SM 28/24 A2988 RMK SLP122 T02800240 IEM_DS3505
ZBAA,1996-08-04 03:00,ZBAA 040300Z AUTO 32004KT 6SM 25/23 A2988 RMK SLP123 T02470231 52004 IEM_DS3505
ZBAA,1996-08-04 04:00,ZBAA 040400Z AUTO 00000KT 7SM 30/24 A2988 RMK SLP121 T03000240 IEM_DS3505
ZBAA,1996-08-04 05:00,ZBAA 040500Z AUTO 00000KT 7SM 29/24 A2985 RMK SLP111 T02900240 IEM_DS3505
ZBAA,1996-08-04 06:00,ZBAA 040600Z AUTO 07002KT 5SM 24/22 A2988 RMK 60028 SLP126 T02360223 52002 IEM_DS3505
ZBAA,1996-08-04 07:00,ZBAA 040700Z AUTO 30008KT 7SM 24/24 A2985 RMK SLP112 T02400240 IEM_DS3505
ZBAA,1996-08-04 08:00,ZBAA 040800Z AUTO 33006KT 7SM 25/24 A2985 RMK SLP112 T02500240 IEM_DS3505
ZBAA,1996-08-04 09:00,ZBAA 040900Z AUTO 36004KT 6SM 24/21 A2983 RMK SLP106 T02370213 57019 IEM_DS3505
ZBAA,1996-08-04 10:00,ZBAA 041000Z AUTO 31004KT 7SM 25/23 A2983 RMK SLP105 T02500230 IEM_DS3505
ZBAA,1996-08-04 11:00,ZBAA 041100Z AUTO ////04KT 6SM 25/23 A2983 RMK SLP105 T02500230 IEM_DS3505
ZBAA,1996-08-04 12:00,ZBAA 041200Z AUTO 34002KT 5SM 24/22 A2983 RMK 60002 SLP104 T02360217 57002 IEM_DS3505
ZBAA,1996-08-04 13:00,ZBAA 041300Z AUTO 32006KT 6SM 26/22 A2983 RMK SLP105 T02600220 IEM_DS3505
ZBAA,1996-08-04 14:00,ZBAA 041400Z AUTO 33002KT 6SM 25/22 A2985 RMK SLP112 T02500220 IEM_DS3505
ZBAA,1996-08-04 15:00,ZBAA 041500Z AUTO 32004KT 4SM 23/22 A2983 RMK SLP105 T02340222 52001 IEM_DS3505
ZBAA,1996-08-04 16:00,ZBAA 041600Z AUTO 34004KT 7SM 24/23 A2980 RMK SLP095 T02400230 IEM_DS3505
ZBAA,1996-08-04 18:00,ZBAA 041800Z AUTO 04008KT 4SM 22/21 A2980 RMK 60043 SLP089 T02220210 57016 IEM_DS3505
ZBAA,1996-08-04 19:00,ZBAA 041900Z AUTO ////06KT 2SM 22/22 A2977 RMK SLP086 T02200220 IEM_DS3505
ZBAA,1996-08-04 20:00,ZBAA 042000Z AUTO 06002KT 2SM 22/22 A2977 RMK SLP086 T02200220 IEM_DS3505
ZBAA,1996-08-04 21:00,ZBAA 042100Z AUTO 34004KT 3SM 21/20 A2974 RMK 70094 SLP076 T02100204 57014 IEM_DS3505
ZBAA,1996-08-04 22:00,ZBAA 042200Z AUTO 04002KT 1/2SM 22/22 A2974 RMK SLP075 T02200220 IEM_DS3505
ZBAA,1996-08-04 23:00,ZBAA 042300Z AUTO 31002KT 3/8SM 22/22 A2974 RMK SLP075 T02200220 IEM_DS3505
ZBAA,1996-08-05 00:00,ZBAA 050000Z AUTO 04004KT 5SM 21/21 A2971 RMK 60110 70181 SLP069 T02130207 57006 IEM_DS3505
ZBAA,1996-08-05 01:00,ZBAA 050100Z AUTO ////02KT 1SM 23/23 A2971 RMK SLP064 T02300230 IEM_DS3505
ZBAA,1996-08-05 02:00,ZBAA 050200Z AUTO ////04KT 1SM 22/22 A2971 RMK SLP065 T02200220 IEM_DS3505
ZBAA,1996-08-05 03:00,ZBAA 050300Z AUTO 32004KT 2SM 21/21 A2965 RMK SLP056 T02140211 57013 IEM_DS3505
ZBAA,1996-08-05 04:00,ZBAA 050400Z AUTO 26006KT 2SM 23/23 RMK T02300230 IEM_DS3505
ZBAA,1996-08-05 05:00,ZBAA 050500Z AUTO 00000KT 7SM 23/23 A2965 RMK SLP044 T02300230 IEM_DS3505
ZBAA,1996-08-05 06:00,ZBAA 050600Z AUTO 34004KT 5SM 22/22 A2962 RMK 60205 SLP039 T02200215 57017 IEM_DS3505
ZBAA,1996-08-05 07:00,ZBAA 050700Z AUTO 00000KT 7SM 23/23 A2959 RMK SLP024 T02300230 IEM_DS3505
ZBAA,1996-08-05 08:00,ZBAA 050800Z AUTO 10004KT 7SM 23/23 A2959 RMK SLP024 T02300230 IEM_DS3505
ZBAA,1996-08-05 09:00,ZBAA 050900Z AUTO 36006KT 4SM 22/22 A2959 RMK SLP022 T02230220 57017 IEM_DS3505
ZBAA,1996-08-05 10:00,ZBAA 051000Z AUTO ////04KT 3SM 24/24 A2956 RMK SLP014 T02400240 IEM_DS3505
ZBAA,1996-08-05 11:00,ZBAA 051100Z AUTO ////02KT 2SM 24/24 A2956 RMK SLP014 T02400240 IEM_DS3505
ZBAA,1996-08-05 12:00,ZBAA 051200Z AUTO 36004KT 1SM 22/22 A2956 RMK 60004 SLP020 T02220219 57002 IEM_DS3505
ZBAA,1996-08-05 13:00,ZBAA 051300Z AUTO 35002KT 1 1/2SM 24/24 A2956 RMK SLP014 T02400240 IEM_DS3505
ZBAA,1996-08-05 14:00,ZBAA 051400Z AUTO 35004KT 1 1/4SM 24/24 A2956 RMK SLP014 T02400240 IEM_DS3505
ZBAA,1996-08-05 15:00,ZBAA 051500Z AUTO 04002KT 6SM 22/22 A2956 RMK SLP011 T02250222 57009 IEM_DS3505
ZBAA,1996-08-05 16:00,ZBAA 051600Z AUTO 34004KT 1SM 24/24 A2953 RMK SLP004 T02400240 IEM_DS3505
ZBAA,1996-08-05 17:00,ZBAA 051700Z AUTO 34002KT 1SM 24/24 A2950 RMK SLP994 T02400240 IEM_DS3505
ZBAA,1996-08-05 18:00,ZBAA 051800Z AUTO 02004KT 5SM 23/22 A2951 RMK 60016 SLP996 T02270224 57015 IEM_DS3505
ZBAA,1996-08-05 20:00,ZBAA 052000Z AUTO 30002KT 1SM 24/24 A2950 RMK SLP994 T02400240 IEM_DS3505
ZBAA,1996-08-05 21:00,ZBAA 052100Z AUTO 00000KT 5SM 23/23 A2950 RMK 70315 SLP992 T02270226 57004 IEM_DS3505
ZBAA,1996-08-05 22:00,ZBAA 052200Z AUTO ////02KT 1SM 24/24 A2950 RMK SLP994 T02400240 IEM_DS3505
ZBAA,1996-08-05 23:00,ZBAA 052300Z AUTO 30002KT 1SM 24/24 A2950 RMK SLP994 T02400240 IEM_DS3505
ZBAA,1996-08-06 00:00,ZBAA 060000Z AUTO 04002KT 5SM 25/24 A2950 RMK 70224 SLP993 T02530236 52001 IEM_DS3505
ZBAA,1996-08-06 01:00,ZBAA 060100Z AUTO 00000KT 2SM 29/25 A2950 RMK SLP993 T02900250 IEM_DS3505
ZBAA,1996-08-06 02:00,ZBAA 060200Z AUTO 08002KT 4SM 27/24 A2950 RMK SLP993 T02700240 IEM_DS3505
ZBAA,1996-08-06 03:00,ZBAA 060300Z AUTO 02002KT 5SM 29/24 A2947 RMK SLP987 T02890236 57005 IEM_DS3505
ZBAA,1996-08-06 04:00,ZBAA 060400Z AUTO 04004KT 7SM 30/25 A2947 RMK SLP981 T03000250 IEM_DS3505
ZBAA,1996-08-06 05:00,ZBAA 060500Z AUTO 08006KT 7SM 30/25 A2944 RMK SLP971 T03000250 IEM_DS3505
ZBAA,1996-08-06 06:00,ZBAA 060600Z AUTO 25004KT 6SM 32/24 A2944 RMK SLP976 T03200236 57011 IEM_DS3505
ZBAA,1996-08-06 07:00,ZBAA 060700Z AUTO 02004KT 7SM 32/25 A2944 RMK SLP971 T03200250 IEM_DS3505
ZBAA,1996-08-06 08:00,ZBAA 060800Z AUTO 29002KT 7SM 32/27 A2941 RMK SLP961 T03200270 IEM_DS3505
ZBAA,1996-08-06 09:00,ZBAA 060900Z AUTO 18004KT 4SM 32/25 A2941 RMK SLP969 T03160252 57007 IEM_DS3505
ZBAA,1996-08-06 10:00,ZBAA 061000Z AUTO 16004KT 7SM 31/27 A2944 RMK SLP971 T03100270 IEM_DS3505
ZBAA,1996-08-06 11:00,ZBAA 061100Z AUTO 16002KT 6SM 29/26 A2944 RMK SLP972 T02900260 IEM_DS3505
ZBAA,1996-08-06 12:00,ZBAA 061200Z AUTO 20004KT 4SM 30/26 A2947 RMK SLP981 T02950257 52012 IEM_DS3505
ZBAA,1996-08-06 13:00,ZBAA 061300Z AUTO 12002KT 7SM 29/26 A2950 RMK SLP993 T02900260 IEM_DS3505
ZBAA,1996-08-06 14:00,ZBAA 061400Z AUTO 12002KT 5SM 27/27 A2950 RMK SLP993 T02700270 IEM_DS3505
ZBAA,1996-08-06 15:00,ZBAA 061500Z AUTO 20004KT 4SM 28/26 A2950 RMK SLP998 T02820261 52017 IEM_DS3505
ZBAA,1996-08-06 16:00,ZBAA 061600Z AUTO 14002KT 2 1/2SM 26/26 A2953 RMK SLP003 T02600260 IEM_DS3505
ZBAA,1996-08-06 18:00,ZBAA 061800Z AUTO 32002KT 2SM 26/26 A2953 RMK SLP996 T02650258 57002 IEM_DS3505
ZBAA,1996-08-06 19:00,ZBAA 061900Z AUTO 12002KT 1/8SM 25/25 A2953 RMK SLP004 T02500250 IEM_DS3505
ZBAA,1996-08-06 20:00,ZBAA 062000Z AUTO 07002KT 1/8SM 25/25 A2953 RMK SLP004 T02500250 IEM_DS3505
ZBAA,1996-08-06 21:00,ZBAA 062100Z AUTO 02002KT 1SM 25/25 A2956 RMK SLP004 T02530249 52008 IEM_DS3505
ZBAA,1996-08-06 22:00,ZBAA 062200Z AUTO 01002KT 1/8SM 25/25 A2956 RMK SLP014 T02500250 IEM_DS3505
ZBAA,1996-08-06 23:00,ZBAA 062300Z AUTO 35002KT 1/4SM 26/26 A2956 RMK SLP013 T02600260 IEM_DS3505
ZBAA,1996-08-07 00:00,ZBAA 070000Z AUTO 32002KT 1 1/4SM 27/25 A2956 RMK SLP017 T02680254 52013 IEM_DS3505
ZBAA,1996-08-07 01:00,ZBAA 070100Z AUTO 28002KT 1 1/4SM 27/27 A2959 RMK SLP023 T02700270 IEM_DS3505
ZBAA,1996-08-07 02:00,ZBAA 070200Z AUTO 26002KT 1 1/2SM 30/28 A2959 RMK SLP023 T03000280 IEM_DS3505
ZBAA,1996-08-07 03:00,ZBAA 070300Z AUTO 20006KT 1SM 32/26 A2959 RMK SLP025 T03160255 52008 IEM_DS3505
ZBAA,1996-08-07 04:00,ZBAA 070400Z AUTO 30006KT 4SM 32/27 A2959 RMK SLP022 T03200270 IEM_DS3505
ZBAA,1996-08-07 05:00,ZBAA 070500Z AUTO 27006KT 5SM 33/26 A2956 RMK SLP012 T03300260 IEM_DS3505
ZBAA,1996-08-07 06:00,ZBAA 070600Z AUTO 20004KT 6SM 34/24 A2956 RMK SLP010 T03430243 57014 IEM_DS3505
ZBAA,1996-08-07 07:00,ZBAA 070700Z AUTO 16004KT 3SM 34/29 A2953 RMK SLP002 T03400290 IEM_DS3505
ZBAA,1996-08-07 09:00,ZBAA 070900Z AUTO 22002KT 6SM 32/23 A2956 RMK SLP010 T03180229 57001 IEM_DS3505
ZBAA,1996-08-07 10:00,ZBAA 071000Z AUTO 20004KT 4SM 29/29 A2956 RMK SLP013 T02900290 IEM_DS3505
ZBAA,1996-08-07 11:00,ZBAA 071100Z AUTO 19006KT 4SM 29/29 A2959 RMK SLP023 T02900290 IEM_DS3505
ZBAA,1996-08-07 12:00,ZBAA 071200Z AUTO 20004KT 5SM 30/25 A2962 RMK SLP025 T03010253 52015 IEM_DS3505
ZBAA,1996-08-07 13:00,ZBAA 071300Z AUTO 12002KT 2 1/2SM 28/28 A2962 RMK SLP033 T02800280 IEM_DS3505
ZBAA,1996-08-07 14:00,ZBAA 071400Z AUTO 10002KT 2SM 28/28 A2962 RMK SLP033 T02800280 IEM_DS3505
ZBAA,1996-08-07 15:00,ZBAA 071500Z AUTO 00000KT 5SM 28/26 A2962 RMK SLP035 T02810256 52010 IEM_DS3505
ZBAA,1996-08-07 16:00,ZBAA 071600Z AUTO 36002KT 2SM 27/27 A2965 RMK SLP043 T02700270 IEM_DS3505
ZBAA,1996-08-07 17:00,ZBAA 071700Z AUTO 34004KT 3SM 26/26 A2965 RMK SLP044 T02600260 IEM_DS3505
ZBAA,1996-08-07 18:00,ZBAA 071800Z AUTO 02004KT 9SM 27/22 A2965 RMK SLP046 T02660222 52011 IEM_DS3505
ZBAA,1996-08-07 19:00,ZBAA 071900Z AUTO 01006KT 6SM 26/24 A2965 RMK SLP044 T02600240 IEM_DS3505
ZBAA,1996-08-07 20:00,ZBAA 072000Z AUTO 35006KT 6SM 26/23 A2968 RMK SLP054 T02600230 IEM_DS3505
ZBAA,1996-08-07 21:00,ZBAA 072100Z AUTO 04002KT 12SM 26/20 A2968 RMK SLP054 T02650196 52008 IEM_DS3505
ZBAA,1996-08-07 22:00,ZBAA 072200Z AUTO 01006KT 6SM 26/20 A2971 RMK SLP064 T02600200 IEM_DS3505
ZBAA,1996-08-07 23:00,ZBAA 072300Z AUTO 01006KT 6SM 25/20 A2971 RMK SLP064 T02500200 IEM_DS3505
ZBAA,1996-08-08 00:00,ZBAA 080000Z AUTO 02004KT 12SM 27/20 A2974 RMK SLP072 T02660203 52018 IEM_DS3505
ZBAA,1996-08-08 01:00,ZBAA 080100Z AUTO 36006KT 6SM 26/21 A2977 RMK SLP085 T02600210 IEM_DS3505
ZBAA,1996-08-08 02:00,ZBAA 080200Z AUTO 35006KT 6SM 26/21 A2977 RMK SLP085 T02600210 IEM_DS3505
ZBAA,1996-08-08 03:00,ZBAA 080300Z AUTO 02006KT 9SM 28/20 A2977 RMK SLP082 T02770196 52010 IEM_DS3505
ZBAA,1996-08-08 04:00,ZBAA 080400Z AUTO 03006KT 6SM 27/21 A2977 RMK SLP085 T02700210 IEM_DS3505
ZBAA,1996-08-08 05:00,ZBAA 080500Z AUTO 02006KT 6SM 28/22 A2977 RMK SLP084 T02800220 IEM_DS3505
ZBAA,1996-08-08 06:00,ZBAA 080600Z AUTO 04008KT 6SM 29/19 A2977 RMK SLP082 T02920191 54000 IEM_DS3505
ZBAA,1996-08-08 07:00,ZBAA 080700Z AUTO 01008KT 6SM 28/21 A2974 RMK SLP073 T02800210 IEM_DS3505
ZBAA,1996-08-08 08:00,ZBAA 080800Z AUTO 03004KT 7SM 28/22 A2974 RMK SLP073 T02800220 IEM_DS3505
ZBAA,1996-08-08 09:00,ZBAA 080900Z AUTO 02004KT 6SM 28/19 A2974 RMK SLP080 T02840194 57002 IEM_DS3505
ZBAA,1996-08-08 10:00,ZBAA 081000Z AUTO 04002KT 7SM 27/22 A2974 RMK SLP074 T02700220 IEM_DS3505
ZBAA,1996-08-08 11:00,ZBAA 081100Z AUTO 35002KT 7SM 27/22 A2977 RMK SLP085 T02700220 IEM_DS3505
ZBAA,1996-08-08 12:00,ZBAA 081200Z AUTO 00000KT 6SM 26/22 A2977 RMK SLP083 T02640215 52002 IEM_DS3505
ZBAA,1996-08-08 13:00,ZBAA 081300Z AUTO 05002KT 6SM 26/23 A2980 RMK SLP095 T02600230 IEM_DS3505
ZBAA,1996-08-08 14:00,ZBAA 081400Z AUTO 14002KT 6SM 25/23 A2980 RMK SLP095 T02500230 IEM_DS3505
ZBAA,1996-08-08 15:00,ZBAA 081500Z AUTO 00000KT 9SM 26/22 A2980 RMK SLP085 T02590222 52002 IEM_DS3505
ZBAA,1996-08-08 16:00,ZBAA 081600Z AUTO 09002KT 7SM 26/23 A2980 RMK SLP095 T02600230 IEM_DS3505
ZBAA,1996-08-08 17:00,ZBAA 081700Z AUTO 10002KT 7SM 25/22 A2977 RMK SLP085 T02500220 IEM_DS3505
ZBAA,1996-08-08 18:00,ZBAA 081800Z AUTO 00000KT 6SM 25/22 A2978 RMK SLP087 T02520221 52002 IEM_DS3505
ZBAA,1996-08-08 19:00,ZBAA 081900Z AUTO 00000KT 7SM 25/23 A2977 RMK SLP085 T02500230 IEM_DS3505
ZBAA,1996-08-08 20:00,ZBAA 082000Z AUTO 00000KT 7SM 24/23 A2977 RMK SLP085 T02400230 IEM_DS3505
ZBAA,1996-08-08 21:00,ZBAA 082100Z AUTO 00000KT 6SM 24/22 A2977 RMK SLP084 T02420217 57003 IEM_DS3505
ZBAA,1996-08-08 22:00,ZBAA 082200Z AUTO 06002KT 6SM 24/24 A2977 RMK SLP085 T02400240 IEM_DS3505
ZBAA,1996-08-08 23:00,ZBAA 082300Z AUTO 00000KT 6SM 24/23 A2977 RMK SLP085 T02400230 IEM_DS3505
ZBAA,1996-08-09 00:00,ZBAA 090000Z AUTO 32002KT 5SM 24/22 A2980 RMK SLP088 T02450217 52004 IEM_DS3505
ZBAA,1996-08-09 01:00,ZBAA 090100Z AUTO 00000KT 4SM 25/23 A2980 RMK SLP095 T02500230 IEM_DS3505
ZBAA,1996-08-09 02:00,ZBAA 090200Z AUTO 06002KT 4SM 25/24 A2980 RMK SLP095 T02500240 IEM_DS3505
ZBAA,1996-08-09 03:00,ZBAA 090300Z AUTO 34004KT 2SM 26/22 A2977 RMK SLP087 T02590224 57001 IEM_DS3505
ZBAA,1996-08-09 04:00,ZBAA 090400Z AUTO 13002KT 5SM 26/22 A2977 RMK SLP085 T02600220 IEM_DS3505
ZBAA,1996-08-09 05:00,ZBAA 090500Z AUTO 13002KT 7SM 25/22 A2977 RMK SLP085 T02500220 IEM_DS3505
ZBAA,1996-08-09 06:00,ZBAA 090600Z AUTO 36004KT 2 1/2SM 26/23 A2974 RMK SLP079 T02580227 57008 IEM_DS3505
ZBAA,1996-08-09 07:00,ZBAA 090700Z AUTO 01006KT 7SM 25/22 A2974 RMK SLP074 T02500220 IEM_DS3505
ZBAA,1996-08-09 08:00,ZBAA 090800Z AUTO 02004KT 7SM 24/24 A2971 RMK SLP064 T02400240 IEM_DS3505
ZBAA,1996-08-09 09:00,ZBAA 090900Z AUTO 04002KT 3SM 24/22 A2971 RMK SLP068 T02350219 57011 IEM_DS3505
ZBAA,1996-08-09 10:00,ZBAA 091000Z AUTO 02004KT 7SM 24/23 A2971 RMK SLP064 T02400230 IEM_DS3505
ZBAA,1996-08-09 11:00,ZBAA 091100Z AUTO 35004KT 3SM 23/23 A2971 RMK SLP064 T02300230 IEM_DS3505
ZBAA,1996-08-09 12:00,ZBAA 091200Z AUTO 34004KT 5SM 22/20 A2971 RMK 60012 SLP066 T02220205 57002 IEM_DS3505
ZBAA,1996-08-09 13:00,ZBAA 091300Z AUTO 02004KT 3SM 23/23 A2971 RMK SLP064 T02300230 IEM_DS3505
ZBAA,1996-08-09 14:00,ZBAA 091400Z AUTO 02004KT 2SM 23/23 A2971 RMK SLP064 T02300230 IEM_DS3505
ZBAA,1996-08-09 15:00,ZBAA 091500Z AUTO 00000KT 3SM 20/20 A2974 RMK SLP070 T02050202 52004 IEM_DS3505
ZBAA,1996-08-09 17:00,ZBAA 091700Z AUTO 02004KT 1 1/4SM 21/21 A2971 RMK SLP065 T02100210 IEM_DS3505
ZBAA,1996-08-09 18:00,ZBAA 091800Z AUTO 36004KT 3SM 21/20 A2968 RMK 60157 SLP054 T02090201 57016 IEM_DS3505
ZBAA,1996-08-09 20:00,ZBAA 092000Z AUTO 36002KT 3SM 21/21 A2965 RMK SLP045 T02100210 IEM_DS3505
ZBAA,1996-08-09 21:00,ZBAA 092100Z AUTO 34002KT 6SM 21/20 A2965 RMK 70197 SLP044 T02090204 57010 IEM_DS3505
ZBAA,1996-08-09 22:00,ZBAA 092200Z AUTO 33004KT 3SM 21/21 A2965 RMK SLP045 T02100210 IEM_DS3505
ZBAA,1996-08-09 23:00,ZBAA 092300Z AUTO 30004KT 3SM 22/22 A2965 RMK SLP044 T02200220 IEM_DS3505
ZBAA,1996-08-10 00:00,ZBAA 100000Z AUTO 00000KT 6SM 22/21 A2965 RMK 60028 70197 SLP045 T02180209 52001 IEM_DS3505
ZBAA,1996-08-10 01:00,ZBAA 100100Z AUTO 31004KT 4SM 23/23 A2965 RMK SLP044 T02300230 IEM_DS3505
ZBAA,1996-08-10 02:00,ZBAA 100200Z AUTO 35004KT 6SM 24/23 A2965 RMK SLP044 T02400230 IEM_DS3505
ZBAA,1996-08-10 03:00,ZBAA 100300Z AUTO 22002KT 5SM 25/21 A2965 RMK SLP048 T02490208 52003 IEM_DS3505
ZBAA,1996-08-10 04:00,ZBAA 100400Z AUTO 00000KT 6SM 25/23 A2965 RMK SLP044 T02500230 IEM_DS3505
ZBAA,1996-08-10 05:00,ZBAA 100500Z AUTO 35004KT 6SM 26/23 A2965 RMK SLP044 T02600230 IEM_DS3505
ZBAA,1996-08-10 06:00,ZBAA 100600Z AUTO 27004KT 5SM 25/22 A2965 RMK SLP042 T02540218 57006 IEM_DS3505
ZBAA,1996-08-10 07:00,ZBAA 100700Z AUTO 24002KT 6SM 26/23 A2962 RMK SLP034 T02600230 IEM_DS3505
ZBAA,1996-08-10 08:00,ZBAA 100800Z AUTO 26002KT 6SM 26/23 A2962 RMK SLP034 T02600230 IEM_DS3505
ZBAA,1996-08-10 09:00,ZBAA 100900Z AUTO 18004KT 6SM 26/22 A2965 RMK SLP042 T02550221 54000 IEM_DS3505
ZBAA,1996-08-10 10:00,ZBAA 101000Z AUTO 00000KT 5SM 25/23 A2965 RMK SLP044 T02500230 IEM_DS3505
ZBAA,1996-08-10 11:00,ZBAA 101100Z AUTO 00000KT 4SM 25/23 A2968 RMK SLP054 T02500230 IEM_DS3505
ZBAA,1996-08-10 12:00,ZBAA 101200Z AUTO 20004KT 3SM 24/22 A2968 RMK SLP049 T02440222 52007 IEM_DS3505
ZBAA,1996-08-10 13:00,ZBAA 101300Z AUTO 24002KT 2SM 24/23 A2971 RMK SLP064 T02400230 IEM_DS3505
ZBAA,1996-08-10 14:00,ZBAA 101400Z AUTO 24002KT 2SM 24/23 A2971 RMK SLP064 T02400230 IEM_DS3505
ZBAA,1996-08-10 15:00,ZBAA 101500Z AUTO 00000KT 5SM 24/23 A2971 RMK SLP066 T02390227 52017 IEM_DS3505
ZBAA,1996-08-10 16:00,ZBAA 101600Z AUTO 28002KT 1 1/4SM 24/24 A2974 RMK SLP074 T02400240 IEM_DS3505
ZBAA,1996-08-10 18:00,ZBAA 101800Z AUTO 00000KT 2 1/2SM 23/23 A2971 RMK SLP064 T02330226 57002 IEM_DS3505
ZBAA,1996-08-10 20:00,ZBAA 102000Z AUTO 00000KT 1SM 23/23 A2971 RMK SLP064 T02300230 IEM_DS3505
ZBAA,1996-08-10 21:00,ZBAA 102100Z AUTO 00000KT 2SM 23/23 A2971 RMK 70000 SLP067 T02340227 52003 IEM_DS3505
ZBAA,1996-08-10 22:00,ZBAA 102200Z AUTO 36002KT 1 1/4SM 23/23 A2974 RMK SLP074 T02300230 IEM_DS3505
ZBAA,1996-08-10 23:00,ZBAA 102300Z AUTO 30004KT 1 1/2SM 23/23 A2974 RMK SLP074 T02300230 IEM_DS3505
ZBAA,1996-08-11 00:00,ZBAA 110000Z AUTO 32002KT 1SM 24/23 A2974 RMK 60001 70001 SLP078 T02400233 52011 IEM_DS3505
ZBAA,1996-08-11 01:00,ZBAA 110100Z AUTO 13002KT 4SM 24/24 A2977 RMK SLP085 T02400240 IEM_DS3505
ZBAA,1996-08-11 02:00,ZBAA 110200Z AUTO 08004KT 2 1/2SM 24/24 A2980 RMK SLP095 T02400240 IEM_DS3505
ZBAA,1996-08-11 03:00,ZBAA 110300Z AUTO 16006KT 1SM 25/24 A2980 RMK SLP087 T02530237 52009 IEM_DS3505
ZBAA,1996-08-11 05:00,ZBAA 110500Z AUTO 10004KT 2 1/2SM 26/26 A2977 RMK SLP085 T02600260 IEM_DS3505
ZBAA,1996-08-11 06:00,ZBAA 110600Z AUTO 18004KT 4SM 28/23 A2974 RMK 60002 SLP077 T02750230 57010 IEM_DS3505
ZBAA,1996-08-11 07:00,ZBAA 110700Z AUTO 11004KT 5SM 28/26 A2974 RMK SLP073 T02800260 IEM_DS3505
ZBAA,1996-08-11 08:00,ZBAA 110800Z AUTO 11004KT 7SM 27/25 A2971 RMK SLP064 T02700250 IEM_DS3505
ZBAA,1996-08-11 09:00,ZBAA 110900Z AUTO 22006KT 9SM 28/22 A2971 RMK SLP063 T02850225 57014 IEM_DS3505
ZBAA,1996-08-11 10:00,ZBAA 111000Z AUTO 12004KT 7SM 26/24 A2971 RMK SLP064 T02600240 IEM_DS3505
ZBAA,1996-08-11 11:00,ZBAA 111100Z AUTO 24014KT 4SM 22/22 A2974 RMK SLP075 T02200220 IEM_DS3505
ZBAA,1996-08-11 12:00,ZBAA 111200Z AUTO 20004KT 6SM 20/19 A2977 RMK 60118 SLP082 T02050191 52018 IEM_DS3505
ZBAA,1996-08-11 13:00,ZBAA 111300Z AUTO 30010KT 7SM 21/21 A2983 RMK SLP106 T02100210 IEM_DS3505
ZBAA,1996-08-11 14:00,ZBAA 111400Z AUTO 11010KT 7SM 21/21 A2977 RMK SLP086 T02100210 IEM_DS3505
ZBAA,1996-08-11 15:00,ZBAA 111500Z AUTO 09004KT 12SM 20/18 A2980 RMK SLP092 T02030182 52010 IEM_DS3505
ZBAA,1996-08-11 16:00,ZBAA 111600Z AUTO 35006KT 6SM 20/20 A2980 RMK SLP096 T02000200 IEM_DS3505
ZBAA,1996-08-11 18:00,ZBAA 111800Z AUTO 00000KT 7SM 20/19 A2977 RMK 60004 SLP084 T02000189 57007 IEM_DS3505
ZBAA,1996-08-11 19:00,ZBAA 111900Z AUTO 33008KT 7SM 19/19 A2977 RMK SLP086 T01900190 IEM_DS3505
ZBAA,1996-08-11 20:00,ZBAA 112000Z AUTO 34004KT 7SM 20/20 A2977 RMK SLP086 T02000200 IEM_DS3505
ZBAA,1996-08-11 21:00,ZBAA 112100Z AUTO 02004KT 9SM 19/19 A2977 RMK 70122 SLP088 T01940186 52004 IEM_DS3505
ZBAA,1996-08-11 22:00,ZBAA 112200Z AUTO 31008KT 6SM 19/19 A2980 RMK SLP096 T01900190 IEM_DS3505
ZBAA,1996-08-11 23:00,ZBAA 112300Z AUTO 32010KT 6SM 21/20 A2980 RMK SLP096 T02100200 IEM_DS3505
ZBAA,1996-08-12 00:00,ZBAA 120000Z AUTO 34004KT 9SM 23/20 A2983 RMK 70122 SLP102 T02260200 52013 IEM_DS3505
ZBAA,1996-08-12 01:00,ZBAA 120100Z AUTO 34004KT 6SM 24/22 A2983 RMK SLP105 T02400220 IEM_DS3505
ZBAA,1996-08-12 02:00,ZBAA 120200Z AUTO 34004KT 7SM 24/21 A2983 RMK SLP105 T02400210 IEM_DS3505
ZBAA,1996-08-12 03:00,ZBAA 120300Z AUTO 00000KT 9SM 26/20 A2980 RMK SLP099 T02600199 57002 IEM_DS3505
ZBAA,1996-08-12 04:00,ZBAA 120400Z AUTO 26002KT 7SM 27/22 A2977 RMK SLP085 T02700220 IEM_DS3505
ZBAA,1996-08-12 05:00,ZBAA 120500Z AUTO 18004KT 7SM 28/22 A2977 RMK SLP084 T02800220 IEM_DS3505
ZBAA,1996-08-12 06:00,ZBAA 120600Z AUTO 27002KT 7SM 29/19 A2974 RMK SLP076 T02930191 57023 IEM_DS3505
ZBAA,1996-08-12 07:00,ZBAA 120700Z AUTO 16004KT 7SM 29/23 A2971 RMK SLP063 T02900230 IEM_DS3505
ZBAA,1996-08-12 08:00,ZBAA 120800Z AUTO 18006KT 7SM 29/22 A2971 RMK SLP063 T02900220 IEM_DS3505
ZBAA,1996-08-12 09:00,ZBAA 120900Z AUTO 20008KT 7SM 29/20 A2971 RMK SLP064 T02860205 57012 IEM_DS3505
ZBAA,1996-08-12 10:00,ZBAA 121000Z AUTO 18004KT 7SM 27/22 A2971 RMK SLP064 T02700220 IEM_DS3505
ZBAA,1996-08-12 11:00,ZBAA 121100Z AUTO 13002KT 7SM 26/21 A2971 RMK SLP064 T02600210 IEM_DS3505
ZBAA,1996-08-12 12:00,ZBAA 121200Z AUTO 14004KT 7SM 26/21 A2971 RMK SLP063 T02590210 57001 IEM_DS3505
ZBAA,1996-08-12 13:00,ZBAA 121300Z AUTO 15002KT 6SM 25/21 A2974 RMK SLP074 T02500210 IEM_DS3505
ZBAA,1996-08-12 14:00,ZBAA 121400Z AUTO 13002KT 6SM 25/21 A2974 RMK SLP074 T02500210 IEM_DS3505
ZBAA,1996-08-12 15:00,ZBAA 121500Z AUTO 20002KT 6SM 25/22 A2971 RMK SLP064 T02480215 52001 IEM_DS3505
ZBAA,1996-08-12 16:00,ZBAA 121600Z AUTO 00000KT 6SM 23/23 A2971 RMK SLP064 T02300230 IEM_DS3505
ZBAA,1996-08-12 17:00,ZBAA 121700Z AUTO 10002KT 7SM 23/23 A2971 RMK SLP064 T02300230 IEM_DS3505
ZBAA,1996-08-12 18:00,ZBAA 121800Z AUTO 25002KT 7SM 24/20 A2971 RMK SLP060 T02380205 57004 IEM_DS3505
ZBAA,1996-08-12 19:00,ZBAA 121900Z AUTO 08006KT 1SM 19/19 A2971 RMK SLP065 T01900190 IEM_DS3505
ZBAA,1996-08-12 20:00,ZBAA 122000Z AUTO 11004KT 7SM 19/19 A2971 RMK SLP065 T01900190 IEM_DS3505
ZBAA,1996-08-12 21:00,ZBAA 122100Z AUTO 04006KT 6SM 21/20 A2971 RMK 70016 SLP065 T02110197 52005 IEM_DS3505
ZBAA,1996-08-12 22:00,ZBAA 122200Z AUTO 35002KT 7SM 20/20 A2974 RMK SLP075 T02000200 IEM_DS3505
ZBAA,1996-08-12 23:00,ZBAA 122300Z AUTO 00000KT 7SM 20/20 A2974 RMK SLP075 T02000200 IEM_DS3505
ZBAA,1996-08-13 00:00,ZBAA 130000Z AUTO 34004KT 5SM 21/20 A2974 RMK 60067 70067 SLP076 T02130196 52011 IEM_DS3505
ZBAA,1996-08-13 01:00,ZBAA 130100Z AUTO 34004KT 6SM 22/22 A2974 RMK SLP075 T02200220 IEM_DS3505
ZBAA,1996-08-13 02:00,ZBAA 130200Z AUTO 00000KT 7SM 23/23 A2974 RMK SLP074 T02300230 IEM_DS3505
ZBAA,1996-08-13 03:00,ZBAA 130300Z AUTO 04004KT 6SM 26/20 A2974 RMK SLP071 T02580199 57005 IEM_DS3505
ZBAA,1996-08-13 04:00,ZBAA 130400Z AUTO 13004KT 7SM 26/22 A2971 RMK SLP064 T02600220 IEM_DS3505
ZBAA,1996-08-13 05:00,ZBAA 130500Z AUTO 15004KT 7SM 27/23 A2971 RMK SLP064 T02700230 IEM_DS3505
ZBAA,1996-08-13 06:00,ZBAA 130600Z AUTO 14008KT 4SM 27/20 A2968 RMK SLP060 T02700200 57011 IEM_DS3505
ZBAA,1996-08-13 07:00,ZBAA 130700Z AUTO 19006KT 7SM 28/23 A2968 RMK SLP053 T02800230 IEM_DS3505
ZBAA,1996-08-13 08:00,ZBAA 130800Z AUTO 20006KT 7SM 27/22 A2968 RMK SLP053 T02700220 IEM_DS3505
ZBAA,1996-08-13 09:00,ZBAA 130900Z AUTO 25004KT 7SM 26/21 A2968 RMK SLP051 T02580207 57009 IEM_DS3505
ZBAA,1996-08-13 10:00,ZBAA 131000Z AUTO 00000KT 7SM 26/21 A2968 RMK SLP054 T02600210 IEM_DS3505
ZBAA,1996-08-13 11:00,ZBAA 131100Z AUTO 21004KT 7SM 25/22 A2968 RMK SLP054 T02500220 IEM_DS3505
ZBAA,1996-08-13 12:00,ZBAA 131200Z AUTO 00000KT 4SM 24/21 A2968 RMK SLP052 T02450214 52001 IEM_DS3505
ZBAA,1996-08-13 13:00,ZBAA 131300Z AUTO 06004KT 6SM 23/21 A2971 RMK SLP064 T02300210 IEM_DS3505
ZBAA,1996-08-13 14:00,ZBAA 131400Z AUTO 00000KT 6SM 23/21 A2971 RMK SLP064 T02300210 IEM_DS3505
ZBAA,1996-08-13 15:00,ZBAA 131500Z AUTO 25002KT 2 1/2SM 23/21 A2971 RMK SLP058 T02260211 52006 IEM_DS3505
ZBAA,1996-08-13 16:00,ZBAA 131600Z AUTO 00000KT 6SM 22/21 A2971 RMK SLP065 T02200210 IEM_DS3505
ZBAA,1996-08-13 17:00,ZBAA 131700Z AUTO 33004KT 6SM 22/21 A2971 RMK SLP065 T02200210 IEM_DS3505
ZBAA,1996-08-13 18:00,ZBAA 131800Z AUTO 32002KT 2SM 22/21 A2968 RMK SLP058 T02190211 54000 IEM_DS3505
ZBAA,1996-08-13 19:00,ZBAA 131900Z AUTO 33004KT 5SM 22/22 A2968 RMK SLP055 T02200220 IEM_DS3505
ZBAA,1996-08-13 20:00,ZBAA 132000Z AUTO 34002KT 7SM 21/21 A2968 RMK SLP055 T02100210 IEM_DS3505
ZBAA,1996-08-13 21:00,ZBAA 132100Z AUTO 00000KT 1 1/4SM 21/21 A2968 RMK 70051 SLP058 T02120206 54000 IEM_DS3505
ZBAA,1996-08-13 22:00,ZBAA 132200Z AUTO 35004KT 6SM 21/20 A2968 RMK SLP055 T02100200 IEM_DS3505
ZBAA,1996-08-13 23:00,ZBAA 132300Z AUTO 35006KT 6SM 21/20 A2968 RMK SLP055 T02100200 IEM_DS3505
ZBAA,1996-08-14 00:00,ZBAA 140000Z AUTO 34002KT 2 1/2SM 23/20 A2968 RMK SLP059 T02310197 52001 IEM_DS3505
ZBAA,1996-08-14 01:00,ZBAA 140100Z AUTO 35006KT 7SM 24/21 A2971 RMK SLP064 T02400210 IEM_DS3505
ZBAA,1996-08-14 02:00,ZBAA 140200Z AUTO 02004KT 7SM 26/22 A2971 RMK SLP064 T02600220 IEM_DS3505
ZBAA,1996-08-14 03:00,ZBAA 140300Z AUTO 32004KT 6SM 27/20 A2971 RMK SLP062 T02730199 52003 IEM_DS3505
ZBAA,1996-08-14 04:00,ZBAA 140400Z AUTO ////02KT 6SM 29/21 A2968 RMK SLP053 T02900210 IEM_DS3505
ZBAA,1996-08-14 05:00,ZBAA 140500Z AUTO ////02KT 7SM 29/21 A2968 RMK SLP053 T02900210 IEM_DS3505
ZBAA,1996-08-14 06:00,ZBAA 140600Z AUTO 25004KT 9SM 31/17 A2965 RMK SLP050 T03070167 57012 IEM_DS3505
ZBAA,1996-08-14 07:00,ZBAA 140700Z AUTO 18006KT 7SM 31/20 A2965 RMK SLP043 T03100200 IEM_DS3505
ZBAA,1996-08-14 08:00,ZBAA 140800Z AUTO ////02KT 7SM 30/20 A2965 RMK SLP043 T03000200 IEM_DS3505
ZBAA,1996-08-14 09:00,ZBAA 140900Z AUTO 20008KT 9SM 30/19 A2962 RMK SLP038 T03030194 57012 IEM_DS3505
ZBAA,1996-08-14 10:00,ZBAA 141000Z AUTO 15004KT 7SM 29/22 A2965 RMK SLP043 T02900220 IEM_DS3505
ZBAA,1996-08-14 11:00,ZBAA 141100Z AUTO 19006KT 7SM 28/22 A2965 RMK SLP043 T02800220 IEM_DS3505
ZBAA,1996-08-14 12:00,ZBAA 141200Z AUTO 20006KT 7SM 27/22 A2965 RMK SLP044 T02720216 52006 IEM_DS3505
ZBAA,1996-08-14 13:00,ZBAA 141300Z AUTO 18002KT 7SM 26/22 A2968 RMK SLP054 T02600220 IEM_DS3505
ZBAA,1996-08-14 14:00,ZBAA 141400Z AUTO 12002KT 6SM 25/22 A2968 RMK SLP054 T02500220 IEM_DS3505
ZBAA,1996-08-14 15:00,ZBAA 141500Z AUTO 20006KT 6SM 25/22 A2971 RMK SLP057 T02530224 52013 IEM_DS3505
ZBAA,1996-08-14 16:00,ZBAA 141600Z AUTO 10002KT 5SM 24/23 A2971 RMK SLP064 T02400230 IEM_DS3505
ZBAA,1996-08-14 18:00,ZBAA 141800Z AUTO 04004KT 6SM 24/21 A2969 RMK SLP058 T02390207 52002 IEM_DS3505
ZBAA,1996-08-14 20:00,ZBAA 142000Z AUTO ////02KT 4SM 22/22 A2971 RMK SLP065 T02200220 IEM_DS3505
ZBAA,1996-08-14 21:00,ZBAA 142100Z AUTO 02004KT 6SM 23/21 A2971 RMK SLP066 T02260208 52007 IEM_DS3505
ZBAA,1996-08-14 22:00,ZBAA 142200Z AUTO ////02KT 4SM 22/22 A2974 RMK SLP075 T02200220 IEM_DS3505
ZBAA,1996-08-14 23:00,ZBAA 142300Z AUTO ////04KT 4SM 23/22 A2974 RMK SLP074 T02300220 IEM_DS3505
ZBAA,1996-08-15 00:00,ZBAA 150000Z AUTO 02006KT 6SM 25/20 A2977 RMK SLP078 T02500203 52012 IEM_DS3505
ZBAA,1996-08-15 01:00,ZBAA 150100Z AUTO 00000KT 5SM 25/23 A2977 RMK SLP085 T02500230 IEM_DS3505
ZBAA,1996-08-15 02:00,ZBAA 150200Z AUTO ////02KT 5SM 27/23 A2977 RMK SLP085 T02700230 IEM_DS3505
ZBAA,1996-08-15 03:00,ZBAA 150300Z AUTO ////02KT 5SM 28/24 A2977 RMK SLP084 T02800240 IEM_DS3505
ZBAA,1996-08-15 05:00,ZBAA 150500Z AUTO ////02KT 5SM 30/25 A2974 RMK SLP073 T03000250 IEM_DS3505
ZBAA,1996-08-15 06:00,ZBAA 150600Z AUTO 20006KT 2 1/2SM 31/22 A2974 RMK SLP070 T03140221 57008 IEM_DS3505
ZBAA,1996-08-15 07:00,ZBAA 150700Z AUTO 15004KT 2 1/2SM 31/25 A2974 RMK SLP073 T03100250 IEM_DS3505
ZBAA,1996-08-15 08:00,ZBAA 150800Z AUTO 17008KT 4SM 31/25 A2971 RMK SLP063 T03100250 IEM_DS3505
ZBAA,1996-08-15 09:00,ZBAA 150900Z AUTO 20006KT 4SM 31/22 A2971 RMK SLP066 T03110217 57005 IEM_DS3505
ZBAA,1996-08-15 10:00,ZBAA 151000Z AUTO 16006KT 4SM 30/24 A2971 RMK SLP063 T03000240 IEM_DS3505
ZBAA,1996-08-15 11:00,ZBAA 151100Z AUTO 16004KT 3SM 29/24 A2974 RMK SLP073 T02900240 IEM_DS3505
ZBAA,1996-08-15 12:00,ZBAA 151200Z AUTO 16004KT 2 1/2SM 29/24 A2974 RMK SLP073 T02880235 52007 IEM_DS3505
ZBAA,1996-08-15 13:00,ZBAA 151300Z AUTO 17004KT 2 1/2SM 27/24 A2977 RMK SLP085 T02700240 IEM_DS3505
ZBAA,1996-08-15 14:00,ZBAA 151400Z AUTO 18002KT 2 1/2SM 27/24 A2977 RMK SLP085 T02700240 IEM_DS3505
ZBAA,1996-08-15 15:00,ZBAA 151500Z AUTO 20006KT 3SM 27/24 A2977 RMK SLP082 T02690237 52010 IEM_DS3505
ZBAA,1996-08-15 16:00,ZBAA 151600Z AUTO 18002KT 2 1/2SM 26/24 A2977 RMK SLP085 T02600240 IEM_DS3505
ZBAA,1996-08-15 17:00,ZBAA 151700Z AUTO ////02KT 2 1/2SM 26/24 A2977 RMK SLP085 T02600240 IEM_DS3505
ZBAA,1996-08-15 18:00,ZBAA 151800Z AUTO 18006KT 1 1/4SM 26/24 A2976 RMK SLP081 T02550238 57001 IEM_DS3505
ZBAA,1996-08-15 20:00,ZBAA 152000Z AUTO 17002KT 1 1/2SM 25/24 A2977 RMK SLP085 T02500240 IEM_DS3505
ZBAA,1996-08-15 21:00,ZBAA 152100Z AUTO 18004KT 1 1/4SM 25/24 A2980 RMK SLP087 T02470237 52006 IEM_DS3505
ZBAA,1996-08-15 22:00,ZBAA 152200Z AUTO 00000KT 1 1/4SM 24/24 A2980 RMK SLP095 T02400240 IEM_DS3505
ZBAA,1996-08-15 23:00,ZBAA 152300Z AUTO 12002KT 1 1/4SM 24/24 A2980 RMK SLP095 T02400240 IEM_DS3505
ZBAA,1996-08-16 00:00,ZBAA 160000Z AUTO 00000KT 3/8SM 25/24 A2980 RMK SLP095 T02530240 52007 IEM_DS3505
ZBAA,1996-08-16 01:00,ZBAA 160100Z AUTO 18008KT 2SM 31/23 A2977 RMK SLP085 T03100230 57012 IEM_DS3505
ZBAA,1996-08-16 02:00,ZBAA 160200Z AUTO 00000KT 1 1/4SM 28/26 A2983 RMK SLP105 T02800260 IEM_DS3505
ZBAA,1996-08-16 03:00,ZBAA 160300Z AUTO 02002KT 1SM 28/24 A2980 RMK SLP098 T02820245 52003 IEM_DS3505
ZBAA,1996-08-16 04:00,ZBAA 160400Z AUTO 17006KT 1 1/4SM 31/26 A2980 RMK SLP094 T03100260 IEM_DS3505
ZBAA,1996-08-16 05:00,ZBAA 160500Z AUTO 18006KT 2SM 30/25 A2980 RMK SLP094 T03000250 IEM_DS3505
ZBAA,1996-08-16 06:00,ZBAA 160600Z AUTO 18008KT 2SM 31/23 A2977 RMK SLP085 T03100233 57012 IEM_DS3505
ZBAA,1996-08-16 07:00,ZBAA 160700Z AUTO 16008KT 2 1/2SM 31/26 A2977 RMK SLP084 T03100260 IEM_DS3505
ZBAA,1996-08-16 08:00,ZBAA 160800Z AUTO 16006KT 2SM 31/26 A2977 RMK SLP084 T03100260 IEM_DS3505
ZBAA,1996-08-16 09:00,ZBAA 160900Z AUTO 17006KT 2SM 30/25 A2977 RMK SLP084 T03000250 IEM_DS3505
ZBAA,1996-08-16 10:00,ZBAA 161000Z AUTO 18004KT 2SM 30/25 A2977 RMK SLP084 T03000250 IEM_DS3505
ZBAA,1996-08-16 11:00,ZBAA 161100Z AUTO ////02KT 2SM 29/25 A2977 RMK SLP084 T02900250 IEM_DS3505
ZBAA,1996-08-16 12:00,ZBAA 161200Z AUTO 18004KT 1 1/4SM 30/24 A2976 RMK SLP079 T02950242 52001 IEM_DS3505
ZBAA,1996-08-16 14:00,ZBAA 161400Z AUTO 00000KT 1 1/2SM 27/26 A2980 RMK SLP095 T02700260 IEM_DS3505
ZBAA,1996-08-16 15:00,ZBAA 161500Z AUTO 20002KT 1 1/4SM 28/24 A2980 RMK SLP090 T02790245 52011 IEM_DS3505
ZBAA,1996-08-16 16:00,ZBAA 161600Z AUTO ////02KT 1 1/4SM 27/26 A2980 RMK SLP095 T02700260 IEM_DS3505
ZBAA,1996-08-16 17:00,ZBAA 161700Z AUTO 00000KT 1 1/4SM 26/25 A2980 RMK SLP095 T02600250 IEM_DS3505
ZBAA,1996-08-16 18:00,ZBAA 161800Z AUTO 16004KT 2SM 27/24 A2980 RMK SLP089 T02710238 57001 IEM_DS3505
ZBAA,1996-08-16 20:00,ZBAA 162000Z AUTO 09004KT 1SM 25/25 A2980 RMK SLP095 T02500250 IEM_DS3505
ZBAA,1996-08-16 21:00,ZBAA 162100Z AUTO 00000KT 1 1/4SM 25/24 A2980 RMK SLP093 T02520239 52004 IEM_DS3505
ZBAA,1996-08-16 22:00,ZBAA 162200Z AUTO 10002KT 1SM 25/25 A2983 RMK SLP105 T02500250 IEM_DS3505
ZBAA,1996-08-16 23:00,ZBAA 162300Z AUTO 00000KT 1SM 25/25 A2983 RMK SLP105 T02500250 IEM_DS3505
ZBAA,1996-08-17 00:00,ZBAA 170000Z AUTO 34004KT 1SM 26/25 A2985 RMK SLP107 T02620246 52013 IEM_DS3505
ZBAA,1996-08-17 01:00,ZBAA 170100Z AUTO 10002KT 1SM 27/26 A2985 RMK SLP112 T02700260 IEM_DS3505
ZBAA,1996-08-17 02:00,ZBAA 170200Z AUTO 10002KT 1SM 28/26 A2985 RMK SLP112 T02800260 IEM_DS3505
ZBAA,1996-08-17 04:00,ZBAA 170400Z AUTO 10002KT 1 1/4SM 30/26 A2983 RMK SLP104 T03000260 IEM_DS3505
ZBAA,1996-08-17 05:00,ZBAA 170500Z AUTO 10004KT 1 1/4SM 31/27 A2983 RMK SLP104 T03100270 IEM_DS3505
ZBAA,1996-08-17 06:00,ZBAA 170600Z AUTO 16006KT 1 1/2SM 32/24 A2980 RMK SLP093 T03160239 57013 IEM_DS3505
ZBAA,1996-08-17 07:00,ZBAA 170700Z AUTO 13006KT 2 1/2SM 31/26 A2980 RMK SLP094 T03100260 IEM_DS3505
ZBAA,1996-08-17 08:00,ZBAA 170800Z AUTO 16006KT 2 1/2SM 32/26 A2977 RMK SLP084 T03200260 IEM_DS3505
ZBAA,1996-08-17 09:00,ZBAA 170900Z AUTO 18008KT 2 1/2SM 32/24 A2977 RMK SLP089 T03190241 57004 IEM_DS3505
ZBAA,1996-08-17 10:00,ZBAA 171000Z AUTO 15004KT 2 1/2SM 30/26 A2980 RMK SLP094 T03000260 IEM_DS3505
ZBAA,1996-08-17 12:00,ZBAA 171200Z AUTO 20004KT 4SM 30/25 A2983 RMK SLP094 T02970248 52005 IEM_DS3505
ZBAA,1996-08-17 13:00,ZBAA 171300Z AUTO 15004KT 1 1/2SM 28/25 A2983 RMK SLP105 T02800250 IEM_DS3505
ZBAA,1996-08-17 14:00,ZBAA 171400Z AUTO 15002KT 1 1/4SM 27/25 A2983 RMK SLP105 T02700250 IEM_DS3505
ZBAA,1996-08-17 15:00,ZBAA 171500Z AUTO 16004KT 2 1/2SM 28/25 A2983 RMK SLP104 T02850248 52010 IEM_DS3505
ZBAA,1996-08-17 16:00,ZBAA 171600Z AUTO 15002KT 1 1/4SM 26/25 A2983 RMK SLP105 T02600250 IEM_DS3505
ZBAA,1996-08-17 17:00,ZBAA 171700Z AUTO 15002KT 1SM 26/25 A2983 RMK SLP105 T02600250 IEM_DS3505
ZBAA,1996-08-17 18:00,ZBAA 171800Z AUTO 18008KT 2SM 27/25 A2983 RMK SLP103 T02740250 57001 IEM_DS3505
ZBAA,1996-08-17 20:00,ZBAA 172000Z AUTO 00000KT 1SM 26/25 A2983 RMK SLP105 T02600250 IEM_DS3505
ZBAA,1996-08-17 21:00,ZBAA 172100Z AUTO 16004KT 1 1/4SM 27/25 A2983 RMK SLP104 T02660253 52001 IEM_DS3505
ZBAA,1996-08-17 22:00,ZBAA 172200Z AUTO 14002KT 1SM 26/25 A2985 RMK SLP112 T02600250 IEM_DS3505
ZBAA,1996-08-18 00:00,ZBAA 180000Z AUTO 20002KT 1SM 27/25 A2985 RMK SLP113 T02660248 52008 IEM_DS3505
ZBAA,1996-08-18 01:00,ZBAA 180100Z AUTO 14004KT 1SM 26/25 A2985 RMK SLP112 T02600250 IEM_DS3505
ZBAA,1996-08-18 02:00,ZBAA 180200Z AUTO 12004KT 1SM 27/26 A2985 RMK SLP112 T02700260 IEM_DS3505
ZBAA,1996-08-18 03:00,ZBAA 180300Z AUTO 20004KT 2SM 31/24 A2985 RMK SLP114 T03070245 52002 IEM_DS3505
ZBAA,1996-08-18 04:00,ZBAA 180400Z AUTO ////04KT 1SM 30/28 A2985 RMK SLP111 T03000280 IEM_DS3505
ZBAA,1996-08-18 05:00,ZBAA 180500Z AUTO 11006KT 1 1/4SM 30/27 A2983 RMK SLP104 T03000270 IEM_DS3505
ZBAA,1996-08-18 06:00,ZBAA 180600Z AUTO 20010KT 4SM 33/22 A2980 RMK SLP097 T03270219 57017 IEM_DS3505
ZBAA,1996-08-18 07:00,ZBAA 180700Z AUTO 14006KT 2 1/2SM 30/25 A2980 RMK SLP094 T03000250 IEM_DS3505
ZBAA,1996-08-18 08:00,ZBAA 180800Z AUTO 16008KT 3SM 32/26 A2980 RMK SLP094 T03200260 IEM_DS3505
ZBAA,1996-08-18 09:00,ZBAA 180900Z AUTO 18010KT 4SM 32/24 A2980 RMK SLP089 T03180238 57008 IEM_DS3505
ZBAA,1996-08-18 10:00,ZBAA 181000Z AUTO 16006KT 2 1/2SM 30/26 A2977 RMK SLP084 T03000260 IEM_DS3505
ZBAA,1996-08-18 11:00,ZBAA 181100Z AUTO ////04KT 2 1/2SM 29/26 A2980 RMK SLP094 T02900260 IEM_DS3505
ZBAA,1996-08-18 12:00,ZBAA 181200Z AUTO 20008KT 1 1/4SM 30/24 A2983 RMK SLP093 T02990241 52004 IEM_DS3505
ZBAA,1996-08-18 13:00,ZBAA 181300Z AUTO ////04KT 2 1/2SM 28/25 A2983 RMK SLP105 T02800250 IEM_DS3505
ZBAA,1996-08-18 14:00,ZBAA 181400Z AUTO 19006KT 2 1/2SM 28/25 A2983 RMK SLP105 T02800250 IEM_DS3505
ZBAA,1996-08-18 15:00,ZBAA 181500Z AUTO 18006KT 1 1/4SM 28/24 A2983 RMK SLP104 T02780244 52011 IEM_DS3505
ZBAA,1996-08-18 16:00,ZBAA 181600Z AUTO ////04KT 2 1/2SM 27/25 A2985 RMK SLP112 T02700250 IEM_DS3505
ZBAA,1996-08-18 18:00,ZBAA 181800Z AUTO 18006KT 4SM 26/24 A2984 RMK SLP106 T02650241 52002 IEM_DS3505
ZBAA,1996-08-18 20:00,ZBAA 182000Z AUTO ////02KT 2 1/2SM 25/24 A2983 RMK SLP105 T02500240 IEM_DS3505
ZBAA,1996-08-18 21:00,ZBAA 182100Z AUTO 20006KT 3SM 25/24 A2983 RMK SLP106 T02520239 54000 IEM_DS3505
ZBAA,1996-08-18 22:00,ZBAA 182200Z AUTO 00000KT 1SM 24/24 A2985 RMK SLP112 T02400240 IEM_DS3505
ZBAA,1996-08-18 23:00,ZBAA 182300Z AUTO ////02KT 1SM 25/25 A2985 RMK SLP112 T02500250 IEM_DS3505
ZBAA,1996-08-19 00:00,ZBAA 190000Z AUTO 00000KT 1SM 26/24 A2988 RMK SLP119 T02580244 52012 IEM_DS3505
ZBAA,1996-08-19 01:00,ZBAA 190100Z AUTO 00000KT 1 1/4SM 27/25 A2988 RMK SLP122 T02700250 IEM_DS3505
ZBAA,1996-08-19 02:00,ZBAA 190200Z AUTO ////04KT 2SM 28/26 A2988 RMK SLP122 T02800260 IEM_DS3505
ZBAA,1996-08-19 03:00,ZBAA 190300Z AUTO 14002KT 2 1/2SM 29/24 A2988 RMK SLP123 T02910243 52004 IEM_DS3505
ZBAA,1996-08-19 04:00,ZBAA 190400Z AUTO ////04KT 4SM 30/26 A2988 RMK SLP121 T03000260 IEM_DS3505
ZBAA,1996-08-19 05:00,ZBAA 190500Z AUTO 15006KT 4SM 31/25 A2985 RMK SLP111 T03100250 IEM_DS3505
ZBAA,1996-08-19 06:00,ZBAA 190600Z AUTO 20008KT 4SM 32/22 A2985 RMK SLP109 T03160223 57013 IEM_DS3505
ZBAA,1996-08-19 07:00,ZBAA 190700Z AUTO 16008KT 5SM 31/24 A2983 RMK SLP104 T03100240 IEM_DS3505
ZBAA,1996-08-19 08:00,ZBAA 190800Z AUTO 17010KT 7SM 31/25 A2983 RMK SLP104 T03100250 IEM_DS3505
ZBAA,1996-08-19 09:00,ZBAA 190900Z AUTO 16010KT 7SM 31/23 A2983 RMK SLP104 T03120227 57005 IEM_DS3505
ZBAA,1996-08-19 10:00,ZBAA 191000Z AUTO 12010G19KT 7SM 26/23 A2985 RMK SLP112 T02600230 IEM_DS3505
ZBAA,1996-08-19 11:00,ZBAA 191100Z AUTO 12012G21KT 4SM 24/22 A2985 RMK SLP112 T02400220 IEM_DS3505
ZBAA,1996-08-19 12:00,ZBAA 191200Z AUTO 11014KT 2 1/2SM 25/22 A2988 RMK SLP120 T02520219 52015 IEM_DS3505
ZBAA,1996-08-19 13:00,ZBAA 191300Z AUTO 12010KT 4SM 23/21 A2991 RMK SLP133 T02300210 IEM_DS3505
ZBAA,1996-08-19 14:00,ZBAA 191400Z AUTO 14006KT 4SM 23/21 A2991 RMK SLP133 T02300210 IEM_DS3505
ZBAA,1996-08-19 15:00,ZBAA 191500Z AUTO 11004KT 7SM 24/20 A2994 RMK SLP140 T02350196 52020 IEM_DS3505
ZBAA,1996-08-19 16:00,ZBAA 191600Z AUTO ////02KT 4SM 22/20 A2997 RMK SLP153 T02200200 IEM_DS3505
ZBAA,1996-08-19 18:00,ZBAA 191800Z AUTO 09004KT 9SM 22/19 A2994 RMK 60004 SLP143 T02210186 52003 IEM_DS3505
ZBAA,1996-08-19 21:00,ZBAA 192100Z AUTO 29002KT 4SM 21/20 A2994 RMK 70004 SLP149 T02060198 52006 IEM_DS3505
ZBAA,1996-08-19 22:00,ZBAA 192200Z AUTO 00000KT 7SM 20/18 A2997 RMK SLP154 T02000180 IEM_DS3505
ZBAA,1996-08-19 23:00,ZBAA 192300Z AUTO 00000KT 7SM 21/18 A2997 RMK SLP153 T02100180 IEM_DS3505
ZBAA,1996-08-20 00:00,ZBAA 200000Z AUTO 04004KT 2SM 21/19 A2997 RMK 60002 70008 SLP151 T02060187 52001 IEM_DS3505
ZBAA,1996-08-20 01:00,ZBAA 200100Z AUTO 03002KT 7SM 20/18 A2997 RMK SLP154 T02000180 IEM_DS3505
ZBAA,1996-08-20 02:00,ZBAA 200200Z AUTO 06004KT 5SM 20/19 A2997 RMK SLP154 T02000190 IEM_DS3505
ZBAA,1996-08-20 03:00,ZBAA 200300Z AUTO 04004KT 1 1/4SM 19/18 A2997 RMK SLP155 T01930185 52004 IEM_DS3505
ZBAA,1996-08-20 04:00,ZBAA 200400Z AUTO ////04KT 5SM 21/19 A2997 RMK SLP153 T02100190 IEM_DS3505
ZBAA,1996-08-20 05:00,ZBAA 200500Z AUTO ////04KT 4SM 21/19 A2997 RMK SLP153 T02100190 IEM_DS3505
ZBAA,1996-08-20 06:00,ZBAA 200600Z AUTO 02004KT 2 1/2SM 20/19 A2997 RMK 60008 SLP157 T01970187 52002 IEM_DS3505
ZBAA,1996-08-20 07:00,ZBAA 200700Z AUTO 36006KT 4SM 21/19 A2997 RMK SLP153 T02100190 IEM_DS3505
ZBAA,1996-08-20 08:00,ZBAA 200800Z AUTO 01006KT 4SM 21/19 A2997 RMK SLP153 T02100190 IEM_DS3505
ZBAA,1996-08-20 09:00,ZBAA 200900Z AUTO 34004KT 2SM 20/19 A2997 RMK SLP158 T01980190 54000 IEM_DS3505
ZBAA,1996-08-20 10:00,ZBAA 201000Z AUTO 36008KT 2SM 20/20 A2997 RMK SLP154 T02000200 IEM_DS3505
ZBAA,1996-08-20 11:00,ZBAA 201100Z AUTO 01006KT 1 1/4SM 20/20 A3000 RMK SLP164 T02000200 IEM_DS3505
ZBAA,1996-08-20 12:00,ZBAA 201200Z AUTO 34002KT 2SM 20/19 A3000 RMK 60000 SLP162 T02030194 52005 IEM_DS3505
ZBAA,1996-08-20 13:00,ZBAA 201300Z AUTO 35006KT 2 1/2SM 21/21 A3003 RMK SLP173 T02100210 IEM_DS3505
ZBAA,1996-08-20 14:00,ZBAA 201400Z AUTO 34004KT 2SM 21/21 A3003 RMK SLP173 T02100210 IEM_DS3505
ZBAA,1996-08-20 15:00,ZBAA 201500Z AUTO 00000KT 2 1/2SM 21/20 A3003 RMK SLP172 T02070199 52009 IEM_DS3505
ZBAA,1996-08-20 16:00,ZBAA 201600Z AUTO 01006KT 3SM 20/20 A3003 RMK SLP174 T02000200 IEM_DS3505
ZBAA,1996-08-20 17:00,ZBAA 201700Z AUTO 03006KT 3SM 19/19 A3003 RMK SLP174 T01900190 IEM_DS3505
ZBAA,1996-08-20 18:00,ZBAA 201800Z AUTO 04006KT 3SM 19/19 A3004 RMK 60008 SLP177 T01940186 52005 IEM_DS3505
ZBAA,1996-08-20 20:00,ZBAA 202000Z AUTO 33006KT 7SM 19/19 A3003 RMK SLP174 T01900190 IEM_DS3505
ZBAA,1996-08-20 21:00,ZBAA 202100Z AUTO 00000KT 6SM 20/19 A3006 RMK 70024 SLP182 T01960190 52005 IEM_DS3505
ZBAA,1996-08-20 22:00,ZBAA 202200Z AUTO 31006KT 7SM 20/20 A3006 RMK SLP184 T02000200 IEM_DS3505
ZBAA,1996-08-20 23:00,ZBAA 202300Z AUTO 30006KT 7SM 20/20 A3006 RMK SLP184 T02000200 IEM_DS3505
ZBAA,1996-08-21 00:00,ZBAA 210000Z AUTO 34002KT 17SM 20/19 A3006 RMK 60008 70024 SLP186 T02040188 52004 IEM_DS3505
ZBAA,1996-08-21 01:00,ZBAA 210100Z AUTO 31004KT 6SM 22/19 A3006 RMK SLP183 T02200190 IEM_DS3505
ZBAA,1996-08-21 02:00,ZBAA 210200Z AUTO 34006KT 6SM 23/19 A3006 RMK SLP183 T02300190 IEM_DS3505
ZBAA,1996-08-21 03:00,ZBAA 210300Z AUTO 00000KT 9SM 23/19 A3006 RMK SLP186 T02310190 52001 IEM_DS3505
ZBAA,1996-08-21 04:00,ZBAA 210400Z AUTO 00000KT 6SM 24/19 A3006 RMK SLP183 T02400190 IEM_DS3505
ZBAA,1996-08-21 05:00,ZBAA 210500Z AUTO ////02KT 6SM 25/19 A3003 RMK SLP173 T02500190 IEM_DS3505
ZBAA,1996-08-21 06:00,ZBAA 210600Z AUTO 16006KT 7SM 26/15 A3000 RMK SLP169 T02580153 57017 IEM_DS3505
ZBAA,1996-08-21 08:00,ZBAA 210800Z AUTO ////02KT 6SM 26/18 A2997 RMK SLP152 T02600180 IEM_DS3505
ZBAA,1996-08-21 09:00,ZBAA 210900Z AUTO 16004KT 9SM 25/16 A2997 RMK SLP158 T02540156 57011 IEM_DS3505
ZBAA,1996-08-21 10:00,ZBAA 211000Z AUTO 17004KT 6SM 24/16 A2997 RMK SLP153 T02400160 IEM_DS3505
ZBAA,1996-08-21 11:00,ZBAA 211100Z AUTO 15002KT 6SM 24/17 A2997 RMK SLP153 T02400170 IEM_DS3505
ZBAA,1996-08-21 12:00,ZBAA 211200Z AUTO 16004KT 8SM 24/16 A2997 RMK SLP152 T02390157 57006 IEM_DS3505
ZBAA,1996-08-21 13:00,ZBAA 211300Z AUTO 14004KT 6SM 23/17 A2997 RMK SLP153 T02300170 IEM_DS3505
ZBAA,1996-08-21 14:00,ZBAA 211400Z AUTO 14004KT 6SM 22/15 A2994 RMK SLP143 T02200150 IEM_DS3505
ZBAA,1996-08-21 15:00,ZBAA 211500Z AUTO 16004KT 11SM 23/14 A2994 RMK SLP143 T02300144 57009 IEM_DS3505
ZBAA,1996-08-21 16:00,ZBAA 211600Z AUTO 15004KT 6SM 21/13 A2991 RMK SLP133 T02100130 IEM_DS3505
ZBAA,1996-08-21 18:00,ZBAA 211800Z AUTO 14004KT 11SM 19/15 A2991 RMK 60004 SLP138 T01920153 57005 IEM_DS3505
ZBAA,1996-08-21 20:00,ZBAA 212000Z AUTO 05004KT 7SM 16/16 A2991 RMK SLP134 T01600160 IEM_DS3505
ZBAA,1996-08-21 21:00,ZBAA 212100Z AUTO 11004KT 6SM 18/17 A2991 RMK 70024 SLP125 T01760168 57013 IEM_DS3505
ZBAA,1996-08-21 22:00,ZBAA 212200Z AUTO 09006KT 3SM 16/16 A2991 RMK SLP134 T01600160 IEM_DS3505
ZBAA,1996-08-21 23:00,ZBAA 212300Z AUTO ////04KT 2 1/2SM 16/16 A2991 RMK SLP134 T01600160 IEM_DS3505
ZBAA,1996-08-22 00:00,ZBAA 220000Z AUTO 07004KT 4SM 17/16 A2991 RMK 60024 70028 SLP134 T01690162 52009 IEM_DS3505
ZBAA,1996-08-22 01:00,ZBAA 220100Z AUTO 14004KT 7SM 16/16 A2994 RMK SLP144 T01600160 IEM_DS3505
ZBAA,1996-08-22 02:00,ZBAA 220200Z AUTO 10004KT 7SM 16/16 A2994 RMK SLP144 T01600160 IEM_DS3505
ZBAA,1996-08-22 03:00,ZBAA 220300Z AUTO 04004KT 8SM 18/14 A2997 RMK SLP146 T01760145 52012 IEM_DS3505
ZBAA,1996-08-22 04:00,ZBAA 220400Z AUTO 06002KT 7SM 16/16 A2997 RMK SLP154 T01600160 IEM_DS3505
ZBAA,1996-08-22 05:00,ZBAA 220500Z AUTO 07004KT 7SM 18/17 A2994 RMK SLP144 T01800170 IEM_DS3505
ZBAA,1996-08-22 06:00,ZBAA 220600Z AUTO 07004KT 7SM 18/15 A2997 RMK SLP148 T01810152 52001 IEM_DS3505
ZBAA,1996-08-22 07:00,ZBAA 220700Z AUTO 06006KT 7SM 17/16 A2997 RMK SLP154 T01700160 IEM_DS3505
ZBAA,1996-08-22 08:00,ZBAA 220800Z AUTO 04006KT 7SM 18/16 A2997 RMK SLP154 T01800160 IEM_DS3505
ZBAA,1996-08-22 09:00,ZBAA 220900Z AUTO 02004KT 6SM 18/15 A3000 RMK SLP161 T01790150 52013 IEM_DS3505
ZBAA,1996-08-22 10:00,ZBAA 221000Z AUTO 01006KT 7SM 18/15 A3000 RMK SLP164 T01800150 IEM_DS3505
ZBAA,1996-08-22 11:00,ZBAA 221100Z AUTO 01004KT 7SM 18/15 A3003 RMK SLP174 T01800150 IEM_DS3505
ZBAA,1996-08-22 12:00,ZBAA 221200Z AUTO 32002KT 7SM 18/16 A3003 RMK SLP177 T01760156 52016 IEM_DS3505
ZBAA,1996-08-22 13:00,ZBAA 221300Z AUTO 33006KT 7SM 18/16 A3006 RMK SLP184 T01800160 IEM_DS3505
ZBAA,1996-08-22 14:00,ZBAA 221400Z AUTO 33004KT 6SM 17/16 A3006 RMK SLP184 T01700160 IEM_DS3505
ZBAA,1996-08-22 15:00,ZBAA 221500Z AUTO 07002KT 9SM 17/16 A3006 RMK SLP179 T01700156 52002 IEM_DS3505
ZBAA,1996-08-22 16:00,ZBAA 221600Z AUTO 00000KT 7SM 16/16 A3006 RMK SLP185 T01600160 IEM_DS3505
ZBAA,1996-08-22 17:00,ZBAA 221700Z AUTO 28004KT 7SM 16/15 A3006 RMK SLP185 T01600150 IEM_DS3505
ZBAA,1996-08-22 18:00,ZBAA 221800Z AUTO 34002KT 9SM 16/15 A3006 RMK SLP186 T01570148 52007 IEM_DS3505
ZBAA,1996-08-22 21:00,ZBAA 222100Z AUTO 04004KT 7SM 15/14 A3007 RMK 70004 SLP189 T01490140 52002 IEM_DS3505
ZBAA,1996-08-22 22:00,ZBAA 222200Z AUTO 35006KT 6SM 15/14 A3009 RMK SLP195 T01500140 IEM_DS3505
ZBAA,1996-08-22 23:00,ZBAA 222300Z AUTO 36006KT 6SM 16/15 A3009 RMK SLP195 T01600150 IEM_DS3505
ZBAA,1996-08-23 00:00,ZBAA 230000Z AUTO 36006KT 19SM 19/12 A3012 RMK SLP197 T01930124 52009 IEM_DS3505
ZBAA,1996-08-23 01:00,ZBAA 230100Z AUTO 29004KT 19SM 26/09 A3012 RMK SLP171 T02600086 57023 IEM_DS3505
ZBAA,1996-08-23 02:00,ZBAA 230200Z AUTO ////04KT 6SM 22/14 A3009 RMK SLP193 T02200140 IEM_DS3505
ZBAA,1996-08-23 03:00,ZBAA 230300Z AUTO 34006KT 16SM 24/10 A3009 RMK SLP195 T02410104 57002 IEM_DS3505
ZBAA,1996-08-23 04:00,ZBAA 230400Z AUTO ////04KT 6SM 25/14 A3006 RMK SLP183 T02500140 IEM_DS3505
ZBAA,1996-08-23 05:00,ZBAA 230500Z AUTO ////04KT 6SM 25/13 A3003 RMK SLP173 T02500130 IEM_DS3505
ZBAA,1996-08-23 06:00,ZBAA 230600Z AUTO 29004KT 19SM 26/09 A3003 RMK SLP171 T02600086 57023 IEM_DS3505
ZBAA,1996-08-23 07:00,ZBAA 230700Z AUTO ////04KT 6SM 27/13 A3000 RMK SLP162 T02700130 IEM_DS3505
ZBAA,1996-08-23 08:00,ZBAA 230800Z AUTO 17006KT 6SM 27/12 A3000 RMK SLP162 T02700120 IEM_DS3505
ZBAA,1996-08-23 09:00,ZBAA 230900Z AUTO 20006KT 19SM 26/09 A2997 RMK SLP160 T02600093 57011 IEM_DS3505
ZBAA,1996-08-23 10:00,ZBAA 231000Z AUTO 19006KT 6SM 25/13 A2997 RMK SLP152 T02500130 IEM_DS3505
ZBAA,1996-08-23 11:00,ZBAA 231100Z AUTO ////02KT 6SM 23/12 A2997 RMK SLP153 T02300120 IEM_DS3505
ZBAA,1996-08-23 12:00,ZBAA 231200Z AUTO 20004KT 19SM 22/12 A3000 RMK SLP162 T02240118 52002 IEM_DS3505
ZBAA,1996-08-23 13:00,ZBAA 231300Z AUTO 21006KT 6SM 20/14 A3000 RMK SLP164 T02000140 IEM_DS3505
ZBAA,1996-08-23 14:00,ZBAA 231400Z AUTO ////04KT 6SM 20/13 A3000 RMK SLP164 T02000130 IEM_DS3505
ZBAA,1996-08-23 15:00,ZBAA 231500Z AUTO 27004KT 16SM 19/14 A3000 RMK SLP160 T01940135 57002 IEM_DS3505
ZBAA,1996-08-23 16:00,ZBAA 231600Z AUTO 00000KT 6SM 19/14 A3000 RMK SLP164 T01900140 IEM_DS3505
ZBAA,1996-08-23 17:00,ZBAA 231700Z AUTO 00000KT 6SM 18/15 A3000 RMK SLP164 T01800150 IEM_DS3505
ZBAA,1996-08-23 18:00,ZBAA 231800Z AUTO 00000KT 12SM 18/15 A2999 RMK SLP159 T01750146 57001 IEM_DS3505
ZBAA,1996-08-23 20:00,ZBAA 232000Z AUTO ////04KT 6SM 17/15 A2997 RMK SLP154 T01700150 IEM_DS3505
ZBAA,1996-08-23 21:00,ZBAA 232100Z AUTO 29002KT 12SM 18/14 A2997 RMK SLP152 T01750142 57007 IEM_DS3505
ZBAA,1996-08-23 22:00,ZBAA 232200Z AUTO 36006KT 6SM 17/15 A2997 RMK SLP154 T01700150 IEM_DS3505
ZBAA,1996-08-23 23:00,ZBAA 232300Z AUTO 34006KT 6SM 18/14 A2997 RMK SLP154 T01800140 IEM_DS3505
ZBAA,1996-08-24 00:00,ZBAA 240000Z AUTO 00000KT 9SM 18/15 A3000 RMK 60000 SLP162 T01820151 52009 IEM_DS3505
ZBAA,1996-08-24 01:00,ZBAA 240100Z AUTO 30006KT 7SM 18/16 A3003 RMK SLP174 T01800160 IEM_DS3505
ZBAA,1996-08-24 02:00,ZBAA 240200Z AUTO 30008KT 7SM 16/15 A3006 RMK SLP185 T01600150 IEM_DS3505
ZBAA,1996-08-24 03:00,ZBAA 240300Z AUTO 36006KT 9SM 17/14 A3003 RMK SLP175 T01710138 52013 IEM_DS3505
ZBAA,1996-08-24 04:00,ZBAA 240400Z AUTO 34006KT 7SM 16/16 A3003 RMK SLP175 T01600160 IEM_DS3505
ZBAA,1996-08-24 05:00,ZBAA 240500Z AUTO ////04KT 7SM 17/17 A3003 RMK SLP174 T01700170 IEM_DS3505
ZBAA,1996-08-24 06:00,ZBAA 240600Z AUTO 34004KT 7SM 16/14 A3000 RMK 60016 SLP165 T01630140 57010 IEM_DS3505
ZBAA,1996-08-24 07:00,ZBAA 240700Z AUTO 36006KT 7SM 17/17 A2997 RMK SLP154 T01700170 IEM_DS3505
ZBAA,1996-08-24 08:00,ZBAA 240800Z AUTO 31006KT 7SM 17/17 A2997 RMK SLP154 T01700170 IEM_DS3505
ZBAA,1996-08-24 09:00,ZBAA 240900Z AUTO 34002KT 12SM 16/14 A2997 RMK SLP161 T01640139 57004 IEM_DS3505
ZBAA,1996-08-24 10:00,ZBAA 241000Z AUTO ////02KT 7SM 17/17 A2997 RMK SLP154 T01700170 IEM_DS3505
ZBAA,1996-08-24 11:00,ZBAA 241100Z AUTO 00000KT 7SM 16/16 A2997 RMK SLP154 T01600160 IEM_DS3505
ZBAA,1996-08-24 12:00,ZBAA 241200Z AUTO 00000KT 12SM 16/14 A3000 RMK 60008 SLP161 T01570139 54000 IEM_DS3505
ZBAA,1996-08-24 13:00,ZBAA 241300Z AUTO 00000KT 6SM 15/15 A3000 RMK SLP165 T01500150 IEM_DS3505
ZBAA,1996-08-24 14:00,ZBAA 241400Z AUTO 00000KT 6SM 16/16 A3000 RMK SLP165 T01600160 IEM_DS3505
ZBAA,1996-08-24 15:00,ZBAA 241500Z AUTO 29002KT 12SM 16/15 A3000 RMK SLP161 T01600146 54000 IEM_DS3505
ZBAA,1996-08-24 18:00,ZBAA 241800Z AUTO 00000KT 9SM 16/15 A2996 RMK 60001 SLP152 T01580148 57009 IEM_DS3505
ZBAA,1996-08-24 20:00,ZBAA 242000Z AUTO 00000KT 7SM 15/15 A2994 RMK SLP145 T01500150 IEM_DS3505
ZBAA,1996-08-24 21:00,ZBAA 242100Z AUTO 00000KT 6SM 16/14 A2994 RMK 70031 SLP149 T01550143 57003 IEM_DS3505
ZBAA,1996-08-24 22:00,ZBAA 242200Z AUTO ////02KT 6SM 16/16 A2997 RMK SLP154 T01600160 IEM_DS3505
ZBAA,1996-08-24 23:00,ZBAA 242300Z AUTO ////04KT 6SM 16/16 A2997 RMK SLP154 T01600160 IEM_DS3505
ZBAA,1996-08-25 00:00,ZBAA 250000Z AUTO 18004KT 4SM 16/14 A2997 RMK 60004 70031 SLP155 T01640145 52006 IEM_DS3505
ZBAA,1996-08-25 01:00,ZBAA 250100Z AUTO ////02KT 5SM 18/15 A2997 RMK SLP154 T01800150 IEM_DS3505
ZBAA,1996-08-25 02:00,ZBAA 250200Z AUTO 00000KT 7SM 19/15 A2997 RMK SLP154 T01900150 IEM_DS3505
ZBAA,1996-08-25 03:00,ZBAA 250300Z AUTO 27002KT 4SM 20/15 A2997 RMK SLP156 T02030147 52001 IEM_DS3505
ZBAA,1996-08-25 04:00,ZBAA 250400Z AUTO 22002KT 7SM 21/16 A2994 RMK SLP143 T02100160 IEM_DS3505
ZBAA,1996-08-25 05:00,ZBAA 250500Z AUTO ////02KT 7SM 22/16 A2994 RMK SLP143 T02200160 IEM_DS3505
ZBAA,1996-08-25 06:00,ZBAA 250600Z AUTO 32004KT 7SM 23/14 A2991 RMK SLP138 T02290139 57018 IEM_DS3505
ZBAA,1996-08-25 07:00,ZBAA 250700Z AUTO ////04KT 7SM 23/16 A2991 RMK SLP133 T02300160 IEM_DS3505
ZBAA,1996-08-25 08:00,ZBAA 250800Z AUTO 00000KT 6SM 22/16 A2991 RMK SLP133 T02200160 IEM_DS3505
ZBAA,1996-08-25 09:00,ZBAA 250900Z AUTO 04002KT 7SM 23/13 A2991 RMK SLP134 T02270132 57004 IEM_DS3505
ZBAA,1996-08-25 10:00,ZBAA 251000Z AUTO 00000KT 6SM 18/17 A2991 RMK SLP147 T01810169 54000 IEM_DS3505
ZBAA,1996-08-25 11:00,ZBAA 251100Z AUTO ////04KT 6SM 20/16 A2991 RMK SLP133 T02000160 IEM_DS3505
ZBAA,1996-08-25 12:00,ZBAA 251200Z AUTO 20006KT 6SM 20/16 A2994 RMK SLP141 T01980165 52007 IEM_DS3505
ZBAA,1996-08-25 13:00,ZBAA 251300Z AUTO 00000KT 5SM 19/17 A2994 RMK SLP144 T01900170 IEM_DS3505
ZBAA,1996-08-25 14:00,ZBAA 251400Z AUTO ////02KT 3SM 19/17 A2994 RMK SLP144 T01900170 IEM_DS3505
ZBAA,1996-08-25 15:00,ZBAA 251500Z AUTO 20004KT 5SM 19/16 A2994 RMK SLP147 T01860164 52006 IEM_DS3505
ZBAA,1996-08-25 16:00,ZBAA 251600Z AUTO 00000KT 2SM 19/17 A2994 RMK SLP144 T01900170 IEM_DS3505
ZBAA,1996-08-25 17:00,ZBAA 251700Z AUTO 00000KT 1 1/2SM 19/17 A2994 RMK SLP144 T01900170 IEM_DS3505
ZBAA,1996-08-25 18:00,ZBAA 251800Z AUTO 00000KT 2 1/2SM 18/17 A2994 RMK SLP146 T01810169 54000 IEM_DS3505
ZBAA,1996-08-25 19:00,ZBAA 251900Z AUTO 00000KT 1 1/2SM 18/17 A2994 RMK SLP144 T01800170 IEM_DS3505
ZBAA,1996-08-25 20:00,ZBAA 252000Z AUTO 00000KT 1 1/4SM 18/17 A2994 RMK SLP144 T01800170 IEM_DS3505
ZBAA,1996-08-25 21:00,ZBAA 252100Z AUTO 00000KT 4SM 18/16 A2994 RMK 70000 SLP147 T01790164 52001 IEM_DS3505
ZBAA,1996-08-25 22:00,ZBAA 252200Z AUTO 36006KT 3SM 18/17 A2994 RMK SLP144 T01800170 IEM_DS3505
ZBAA,1996-08-25 23:00,ZBAA 252300Z AUTO 36004KT 5SM 18/17 A2994 RMK SLP144 T01800170 IEM_DS3505
ZBAA,1996-08-26 00:00,ZBAA 260000Z AUTO 25002KT 2SM 19/16 A2997 RMK SLP151 T01910165 52003 IEM_DS3505
ZBAA,1996-08-26 01:00,ZBAA 260100Z AUTO 36004KT 6SM 20/17 A2997 RMK SLP154 T02000170 IEM_DS3505
ZBAA,1996-08-26 02:00,ZBAA 260200Z AUTO 36004KT 6SM 21/18 A2997 RMK SLP153 T02100180 IEM_DS3505
ZBAA,1996-08-26 03:00,ZBAA 260300Z AUTO 27002KT 4SM 23/16 A2997 RMK SLP153 T02270163 52003 IEM_DS3505
ZBAA,1996-08-26 04:00,ZBAA 260400Z AUTO 36002KT 6SM 23/18 A2997 RMK SLP153 T02300180 IEM_DS3505
ZBAA,1996-08-26 05:00,ZBAA 260500Z AUTO 00000KT 6SM 24/18 A2994 RMK SLP143 T02400180 IEM_DS3505
ZBAA,1996-08-26 06:00,ZBAA 260600Z AUTO 02004KT 4SM 25/16 A2994 RMK SLP145 T02500161 57008 IEM_DS3505
ZBAA,1996-08-26 07:00,ZBAA 260700Z AUTO 11002KT 6SM 25/19 A2994 RMK SLP142 T02500190 IEM_DS3505
ZBAA,1996-08-26 08:00,ZBAA 260800Z AUTO 16004KT 6SM 25/18 A2991 RMK SLP132 T02500180 IEM_DS3505
ZBAA,1996-08-26 09:00,ZBAA 260900Z AUTO 22006KT 3SM 24/17 A2991 RMK SLP139 T02440172 57006 IEM_DS3505
ZBAA,1996-08-26 10:00,ZBAA 261000Z AUTO 20006KT 4SM 24/18 A2991 RMK SLP133 T02400180 IEM_DS3505
ZBAA,1996-08-26 11:00,ZBAA 261100Z AUTO 02023KT 6SM 22/17 A2994 RMK SLP145 T02210174 52006 IEM_DS3505
ZBAA,1996-08-26 12:00,ZBAA 261200Z AUTO 22004KT 6SM 22/17 A2994 RMK SLP145 T02210174 52006 IEM_DS3505
ZBAA,1996-08-26 13:00,ZBAA 261300Z AUTO 20006KT 4SM 21/18 A2997 RMK SLP153 T02100180 IEM_DS3505
ZBAA,1996-08-26 14:00,ZBAA 261400Z AUTO 23002KT 3SM 20/18 A2997 RMK SLP154 T02000180 IEM_DS3505
ZBAA,1996-08-26 15:00,ZBAA 261500Z AUTO 20004KT 9SM 20/17 A2997 RMK SLP150 T02030172 52005 IEM_DS3505
ZBAA,1996-08-26 16:00,ZBAA 261600Z AUTO 00000KT 2 1/2SM 20/18 A2997 RMK SLP154 T02000180 IEM_DS3505
ZBAA,1996-08-26 17:00,ZBAA 261700Z AUTO 00000KT 2 1/2SM 19/17 A2994 RMK SLP144 T01900170 IEM_DS3505
ZBAA,1996-08-26 18:00,ZBAA 261800Z AUTO 00000KT 6SM 19/18 A2995 RMK SLP147 T01930177 57003 IEM_DS3505
ZBAA,1996-08-26 20:00,ZBAA 262000Z AUTO 00000KT 1 1/4SM 18/18 A2994 RMK SLP144 T01800180 IEM_DS3505
ZBAA,1996-08-26 21:00,ZBAA 262100Z AUTO 32004KT 6SM 18/18 A2994 RMK SLP143 T01850177 57004 IEM_DS3505
ZBAA,1996-08-26 22:00,ZBAA 262200Z AUTO 36004KT 1SM 18/18 A2994 RMK SLP144 T01800180 IEM_DS3505
ZBAA,1996-08-26 23:00,ZBAA 262300Z AUTO 33002KT 2SM 19/18 A2994 RMK SLP144 T01900180 IEM_DS3505
ZBAA,1996-08-27 00:00,ZBAA 270000Z AUTO 36002KT 2SM 20/18 A2994 RMK SLP145 T02040185 52002 IEM_DS3505
ZBAA,1996-08-27 01:00,ZBAA 270100Z AUTO 01004KT 5SM 22/19 A2994 RMK SLP143 T02200190 IEM_DS3505
ZBAA,1996-08-27 02:00,ZBAA 270200Z AUTO 35002KT 6SM 24/20 A2994 RMK SLP143 T02400200 IEM_DS3505
ZBAA,1996-08-27 03:00,ZBAA 270300Z AUTO 27002KT 3SM 25/16 A2994 RMK SLP143 T02470161 57002 IEM_DS3505
ZBAA,1996-08-27 04:00,ZBAA 270400Z AUTO 24006KT 7SM 26/18 A2991 RMK SLP132 T02600180 IEM_DS3505
ZBAA,1996-08-27 05:00,ZBAA 270500Z AUTO ////02KT 7SM 26/18 A2988 RMK SLP122 T02600180 IEM_DS3505
ZBAA,1996-08-27 06:00,ZBAA 270600Z AUTO 20006KT 4SM 27/16 A2985 RMK SLP123 T02740165 57020 IEM_DS3505
ZBAA,1996-08-27 07:00,ZBAA 270700Z AUTO 18006KT 5SM 27/18 A2985 RMK SLP112 T02700180 IEM_DS3505
ZBAA,1996-08-27 08:00,ZBAA 270800Z AUTO ////04KT 6SM 26/17 A2985 RMK SLP112 T02600170 IEM_DS3505
ZBAA,1996-08-27 09:00,ZBAA 270900Z AUTO 22004KT 6SM 27/15 A2985 RMK SLP113 T02720151 57010 IEM_DS3505
ZBAA,1996-08-27 10:00,ZBAA 271000Z AUTO 09006KT 6SM 24/17 A2983 RMK SLP105 T02400170 IEM_DS3505
ZBAA,1996-08-27 11:00,ZBAA 271100Z AUTO 08002KT 6SM 22/17 A2983 RMK SLP106 T02200170 IEM_DS3505
ZBAA,1996-08-27 12:00,ZBAA 271200Z AUTO 20002KT 12SM 24/18 A2985 RMK SLP115 T02410176 52002 IEM_DS3505
ZBAA,1996-08-27 13:00,ZBAA 271300Z AUTO 03002KT 6SM 21/18 A2985 RMK SLP113 T02100180 IEM_DS3505
ZBAA,1996-08-27 14:00,ZBAA 271400Z AUTO 00000KT 6SM 21/18 A2985 RMK SLP113 T02100180 IEM_DS3505
ZBAA,1996-08-27 15:00,ZBAA 271500Z AUTO 04004KT 6SM 21/19 A2985 RMK SLP116 T02110187 52001 IEM_DS3505
ZBAA,1996-08-27 16:00,ZBAA 271600Z AUTO 00000KT 6SM 20/18 A2985 RMK SLP113 T02000180 IEM_DS3505
ZBAA,1996-08-27 18:00,ZBAA 271800Z AUTO 34002KT 6SM 20/18 A2985 RMK SLP110 T02020180 57005 IEM_DS3505
ZBAA,1996-08-27 20:00,ZBAA 272000Z AUTO ////04KT 6SM 19/17 A2983 RMK SLP106 T01900170 IEM_DS3505
ZBAA,1996-08-27 21:00,ZBAA 272100Z AUTO 07002KT 4SM 19/17 A2983 RMK SLP106 T01920172 57005 IEM_DS3505
ZBAA,1996-08-27 22:00,ZBAA 272200Z AUTO ////02KT 5SM 18/17 A2983 RMK SLP107 T01800170 IEM_DS3505
ZBAA,1996-08-27 23:00,ZBAA 272300Z AUTO 00000KT 4SM 19/18 A2983 RMK SLP106 T01900180 IEM_DS3505
ZBAA,1996-08-28 00:00,ZBAA 280000Z AUTO 02006KT 4SM 21/18 A2983 RMK SLP110 T02060175 52004 IEM_DS3505
ZBAA,1996-08-28 01:00,ZBAA 280100Z AUTO ////02KT 7SM 21/19 A2985 RMK SLP113 T02100190 IEM_DS3505
ZBAA,1996-08-28 02:00,ZBAA 280200Z AUTO 00000KT 7SM 23/19 A2985 RMK SLP113 T02300190 IEM_DS3505
ZBAA,1996-08-28 03:00,ZBAA 280300Z AUTO 11004KT 2 1/2SM 25/18 A2983 RMK SLP108 T02510178 57002 IEM_DS3505
ZBAA,1996-08-28 04:00,ZBAA 280400Z AUTO ////04KT 7SM 26/20 A2980 RMK SLP095 T02600200 IEM_DS3505
ZBAA,1996-08-28 05:00,ZBAA 280500Z AUTO ////02KT 7SM 26/20 A2980 RMK SLP095 T02600200 IEM_DS3505
ZBAA,1996-08-28 06:00,ZBAA 280600Z AUTO 18006KT 3SM 28/18 A2977 RMK SLP082 T02750182 57025 IEM_DS3505
ZBAA,1996-08-28 07:00,ZBAA 280700Z AUTO 19006KT 6SM 27/20 A2974 RMK SLP074 T02700200 IEM_DS3505
ZBAA,1996-08-28 08:00,ZBAA 280800Z AUTO 17006KT 6SM 27/21 A2971 RMK SLP064 T02700210 IEM_DS3505
ZBAA,1996-08-28 09:00,ZBAA 280900Z AUTO 22006KT 5SM 26/17 A2971 RMK SLP070 T02550171 57012 IEM_DS3505
ZBAA,1996-08-28 10:00,ZBAA 281000Z AUTO 20002KT 6SM 25/20 A2971 RMK SLP064 T02500200 IEM_DS3505
ZBAA,1996-08-28 11:00,ZBAA 281100Z AUTO 14002KT 6SM 25/20 A2971 RMK SLP064 T02500200 IEM_DS3505
ZBAA,1996-08-28 12:00,ZBAA 281200Z AUTO 18004KT 2 1/2SM 24/18 A2974 RMK SLP068 T02410181 57002 IEM_DS3505
ZBAA,1996-08-28 13:00,ZBAA 281300Z AUTO 00000KT 3SM 24/20 A2977 RMK SLP085 T02400200 IEM_DS3505
ZBAA,1996-08-28 14:00,ZBAA 281400Z AUTO 00000KT 3SM 24/20 A2974 RMK SLP074 T02400200 IEM_DS3505
ZBAA,1996-08-28 15:00,ZBAA 281500Z AUTO 18002KT 5SM 22/19 A2974 RMK SLP076 T02150188 52008 IEM_DS3505
ZBAA,1996-08-28 16:00,ZBAA 281600Z AUTO 12002KT 2 1/2SM 22/20 A2974 RMK SLP075 T02200200 IEM_DS3505
ZBAA,1996-08-28 17:00,ZBAA 281700Z AUTO 23004KT 4SM 22/20 A2974 RMK SLP075 T02200200 IEM_DS3505
ZBAA,1996-08-28 18:00,ZBAA 281800Z AUTO 07002KT 2SM 21/18 A2974 RMK SLP070 T02060185 57006 IEM_DS3505
ZBAA,1996-08-28 20:00,ZBAA 282000Z AUTO 01006KT 4SM 19/18 A2974 RMK SLP075 T01900180 IEM_DS3505
ZBAA,1996-08-28 21:00,ZBAA 282100Z AUTO 36004KT 6SM 19/18 A2974 RMK 70002 SLP069 T01910175 57001 IEM_DS3505
ZBAA,1996-08-28 22:00,ZBAA 282200Z AUTO 05004KT 6SM 18/17 A2974 RMK SLP076 T01800170 IEM_DS3505
ZBAA,1996-08-28 23:00,ZBAA 282300Z AUTO 00000KT 6SM 19/18 A2977 RMK SLP086 T01900180 IEM_DS3505
ZBAA,1996-08-29 00:00,ZBAA 290000Z AUTO 34004KT 5SM 21/17 A2977 RMK 60002 70002 SLP088 T02060169 52018 IEM_DS3505
ZBAA,1996-08-29 01:00,ZBAA 290100Z AUTO ////02KT 7SM 22/17 A2980 RMK SLP096 T02200170 IEM_DS3505
ZBAA,1996-08-29 02:00,ZBAA 290200Z AUTO ////02KT 6SM 24/17 A2980 RMK SLP095 T02400170 IEM_DS3505
ZBAA,1996-08-29 03:00,ZBAA 290300Z AUTO 34004KT 9SM 25/16 A2977 RMK SLP090 T02490156 52003 IEM_DS3505
ZBAA,1996-08-29 04:00,ZBAA 290400Z AUTO ////02KT 6SM 26/18 A2977 RMK SLP085 T02600180 IEM_DS3505
ZBAA,1996-08-29 05:00,ZBAA 290500Z AUTO ////02KT 6SM 27/19 A2977 RMK SLP085 T02700190 IEM_DS3505
ZBAA,1996-08-29 06:00,ZBAA 290600Z AUTO 32002KT 7SM 28/17 A2974 RMK SLP078 T02770168 57012 IEM_DS3505
ZBAA,1996-08-29 08:00,ZBAA 290800Z AUTO 14004KT 6SM 26/19 A2974 RMK SLP074 T02600190 IEM_DS3505
ZBAA,1996-08-29 09:00,ZBAA 290900Z AUTO 11006KT 7SM 27/18 A2974 RMK SLP075 T02700183 57003 IEM_DS3505
ZBAA,1996-08-29 10:00,ZBAA 291000Z AUTO 15006KT 7SM 25/21 A2977 RMK SLP085 T02500210 IEM_DS3505
ZBAA,1996-08-29 11:00,ZBAA 291100Z AUTO ////04KT 7SM 24/20 A2977 RMK SLP085 T02400200 IEM_DS3505
ZBAA,1996-08-29 12:00,ZBAA 291200Z AUTO 16008KT 6SM 24/20 A2980 RMK SLP093 T02400195 52017 IEM_DS3505
ZBAA,1996-08-29 13:00,ZBAA 291300Z AUTO ////02KT 6SM 22/20 A2983 RMK SLP106 T02200200 IEM_DS3505
ZBAA,1996-08-29 14:00,ZBAA 291400Z AUTO ////02KT 6SM 21/20 A2983 RMK SLP106 T02100200 IEM_DS3505
ZBAA,1996-08-29 15:00,ZBAA 291500Z AUTO 18002KT 5SM 22/20 A2983 RMK SLP103 T02230198 52011 IEM_DS3505
ZBAA,1996-08-29 16:00,ZBAA 291600Z AUTO 00000KT 6SM 21/20 A2985 RMK SLP113 T02100200 IEM_DS3505
ZBAA,1996-08-29 18:00,ZBAA 291800Z AUTO 16004KT 5SM 22/19 A2984 RMK 60000 SLP108 T02180193 52005 IEM_DS3505
ZBAA,1996-08-29 20:00,ZBAA 292000Z AUTO 12002KT 1 1/4SM 19/19 A2985 RMK SLP114 T01900190 IEM_DS3505
ZBAA,1996-08-29 21:00,ZBAA 292100Z AUTO 20002KT 4SM 21/19 A2985 RMK 70000 SLP111 T02090192 52003 IEM_DS3505
ZBAA,1996-08-29 22:00,ZBAA 292200Z AUTO 00000KT 1SM 19/19 A2988 RMK SLP124 T01900190 IEM_DS3505
ZBAA,1996-08-29 23:00,ZBAA 292300Z AUTO 12002KT 1SM 20/20 A2988 RMK SLP123 T02000200 IEM_DS3505
ZBAA,1996-08-30 00:00,ZBAA 300000Z AUTO 18004KT 5SM 22/19 A2988 RMK SLP126 T02160191 52014 IEM_DS3505
ZBAA,1996-08-30 01:00,ZBAA 300100Z AUTO ////02KT 1SM 21/20 A2991 RMK SLP133 T02100200 IEM_DS3505
ZBAA,1996-08-30 02:00,ZBAA 300200Z AUTO ////02KT 1 1/4SM 23/22 A2991 RMK SLP133 T02300220 IEM_DS3505
ZBAA,1996-08-30 03:00,ZBAA 300300Z AUTO 14004KT 2 1/2SM 24/18 A2991 RMK SLP131 T02410185 52005 IEM_DS3505
ZBAA,1996-08-30 04:00,ZBAA 300400Z AUTO 13002KT 1 1/2SM 25/20 A2988 RMK SLP122 T02500200 IEM_DS3505
ZBAA,1996-08-30 05:00,ZBAA 300500Z AUTO 12004KT 3SM 25/21 A2988 RMK SLP122 T02500210 IEM_DS3505
ZBAA,1996-08-30 06:00,ZBAA 300600Z AUTO 20006KT 4SM 26/19 A2988 RMK SLP120 T02600191 57010 IEM_DS3505
ZBAA,1996-08-30 07:00,ZBAA 300700Z AUTO 20006KT 5SM 27/21 A2985 RMK SLP112 T02700210 IEM_DS3505
ZBAA,1996-08-30 08:00,ZBAA 300800Z AUTO 16004KT 5SM 27/20 A2985 RMK SLP112 T02700200 IEM_DS3505
ZBAA,1996-08-30 09:00,ZBAA 300900Z AUTO 18006KT 5SM 27/19 A2985 RMK SLP113 T02670192 57007 IEM_DS3505
ZBAA,1996-08-30 11:00,ZBAA 301100Z AUTO ////02KT 5SM 25/19 A2985 RMK SLP112 T02500190 IEM_DS3505
ZBAA,1996-08-30 12:00,ZBAA 301200Z AUTO 18004KT 6SM 24/20 A2988 RMK SLP120 T02450197 52006 IEM_DS3505
ZBAA,1996-08-30 13:00,ZBAA 301300Z AUTO 00000KT 4SM 24/19 A2991 RMK SLP133 T02400190 IEM_DS3505
ZBAA,1996-08-30 14:00,ZBAA 301400Z AUTO ////04KT 4SM 23/20 A2991 RMK SLP133 T02300200 IEM_DS3505
ZBAA,1996-08-30 15:00,ZBAA 301500Z AUTO 16004KT 6SM 23/19 A2994 RMK SLP138 T02330194 52018 IEM_DS3505
ZBAA,1996-08-30 16:00,ZBAA 301600Z AUTO ////02KT 4SM 22/20 A2994 RMK SLP143 T02200200 IEM_DS3505
ZBAA,1996-08-30 18:00,ZBAA 301800Z AUTO 18004KT 5SM 22/20 A2992 RMK SLP137 T02170195 57001 IEM_DS3505
ZBAA,1996-08-30 21:00,ZBAA 302100Z AUTO 18004KT 3SM 22/20 A2994 RMK SLP136 T02190196 54000 IEM_DS3505
ZBAA,1996-08-30 22:00,ZBAA 302200Z AUTO 13002KT 1 1/2SM 21/20 A2994 RMK SLP143 T02100200 IEM_DS3505
ZBAA,1996-08-30 23:00,ZBAA 302300Z AUTO 14004KT 1 1/4SM 21/20 A2997 RMK SLP153 T02100200 IEM_DS3505
ZBAA,1996-08-31 00:00,ZBAA 310000Z AUTO 20004KT 3SM 22/20 A2997 RMK SLP151 T02220199 52014 IEM_DS3505
ZBAA,1996-08-31 01:00,ZBAA 310100Z AUTO 14004KT 1 1/4SM 22/20 A2997 RMK SLP153 T02200200 IEM_DS3505
ZBAA,1996-08-31 02:00,ZBAA 310200Z AUTO 15004KT 2SM 24/21 A3000 RMK SLP163 T02400210 IEM_DS3505
ZBAA,1996-08-31 03:00,ZBAA 310300Z AUTO 16006KT 2 1/2SM 23/20 A2997 RMK SLP156 T02330202 52005 IEM_DS3505
ZBAA,1996-08-31 04:00,ZBAA 310400Z AUTO ////04KT 3SM 25/21 A2997 RMK SLP152 T02500210 IEM_DS3505
ZBAA,1996-08-31 05:00,ZBAA 310500Z AUTO ////04KT 3SM 26/21 A2994 RMK SLP142 T02600210 IEM_DS3505
ZBAA,1996-08-31 06:00,ZBAA 310600Z AUTO 20008KT 4SM 26/20 A2994 RMK SLP141 T02620201 57015 IEM_DS3505
ZBAA,1996-08-31 07:00,ZBAA 310700Z AUTO 16004KT 4SM 27/22 A2991 RMK SLP132 T02700220 IEM_DS3505
ZBAA,1996-08-31 08:00,ZBAA 310800Z AUTO 17004KT 5SM 27/21 A2991 RMK SLP132 T02700210 IEM_DS3505
ZBAA,1996-08-31 09:00,ZBAA 310900Z AUTO 18006KT 4SM 27/20 A2991 RMK SLP133 T02680195 57007 IEM_DS3505
ZBAA,1996-08-31 10:00,ZBAA 311000Z AUTO 16004KT 5SM 26/20 A2991 RMK SLP132 T02600200 IEM_DS3505
ZBAA,1996-08-31 11:00,ZBAA 311100Z AUTO 00000KT 4SM 25/20 A2991 RMK SLP132 T02500200 IEM_DS3505
ZBAA,1996-08-31 12:00,ZBAA 311200Z AUTO 16004KT 4SM 26/19 A2991 RMK SLP135 T02570192 52001 IEM_DS3505
ZBAA,1996-08-31 13:00,ZBAA 311300Z AUTO 00000KT 4SM 25/20 A2994 RMK SLP142 T02500200 IEM_DS3505
ZBAA,1996-08-31 14:00,ZBAA 311400Z AUTO 14002KT 4SM 24/20 A2994 RMK SLP143 T02400200 IEM_DS3505
ZBAA,1996-08-31 15:00,ZBAA 311500Z AUTO 20004KT 4SM 24/20 A2994 RMK SLP141 T02440195 52006 IEM_DS3505
ZBAA,1996-08-31 16:00,ZBAA 311600Z AUTO 17004KT 4SM 24/20 A2994 RMK SLP143 T02400200 IEM_DS3505
ZBAA,1996-08-31 18:00,ZBAA 311800Z AUTO 16008KT 6SM 24/19 A2992 RMK SLP134 T02370194 57006 IEM_DS3505
ZBAA,1996-08-31 20:00,ZBAA 312000Z AUTO 13002KT 4SM 22/21 A2991 RMK SLP133 T02200210 IEM_DS3505
ZBAA,1996-08-31 21:00,ZBAA 312100Z AUTO 20004KT 4SM 22/19 A2991 RMK SLP133 T02210193 57001 IEM_DS3505
ZBAA,1996-08-31 22:00,ZBAA 312200Z AUTO 00000KT 2 1/2SM 22/21 A2991 RMK SLP133 T02200210 IEM_DS3505
ZBAA,1996-08-31 23:00,ZBAA 312300Z AUTO 11002KT 2SM 22/21 A2994 RMK SLP143 T02200210 IEM_DS3505
ZBAA,1996-09-01 00:00,ZBAA 010000Z AUTO 00000KT 1 1/4SM 23/20 A2991 RMK SLP138 T02270204 52004 IEM_DS3505
ZBAA,1996-09-01 01:00,ZBAA 010100Z AUTO ////02KT 1 1/2SM 24/22 A2991 RMK SLP133 T02400220 IEM_DS3505
ZBAA,1996-09-01 02:00,ZBAA 010200Z AUTO ////02KT 1 1/4SM 25/22 A2991 RMK SLP132 T02500220 IEM_DS3505
ZBAA,1996-09-01 03:00,ZBAA 010300Z AUTO 00000KT 2 1/2SM 27/21 A2991 RMK SLP130 T02730207 57007 IEM_DS3505
ZBAA,1996-09-01 04:00,ZBAA 010400Z AUTO ////02KT 2 1/2SM 28/22 A2988 RMK SLP122 T02800220 IEM_DS3505
ZBAA,1996-09-01 05:00,ZBAA 010500Z AUTO ////02KT 3SM 28/22 A2988 RMK SLP122 T02800220 IEM_DS3505
ZBAA,1996-09-01 06:00,ZBAA 010600Z AUTO 20008KT 4SM 30/21 A2985 RMK SLP115 T02960212 57015 IEM_DS3505
ZBAA,1996-09-01 07:00,ZBAA 010700Z AUTO 16006KT 4SM 30/23 A2983 RMK SLP104 T03000230 IEM_DS3505
ZBAA,1996-09-01 08:00,ZBAA 010800Z AUTO ////04KT 4SM 30/23 A2983 RMK SLP104 T03000230 IEM_DS3505
ZBAA,1996-09-01 09:00,ZBAA 010900Z AUTO 20006KT 5SM 29/21 A2983 RMK SLP102 T02910214 57013 IEM_DS3505
ZBAA,1996-09-01 10:00,ZBAA 011000Z AUTO ////02KT 2 1/2SM 28/23 A2983 RMK SLP105 T02800230 IEM_DS3505
ZBAA,1996-09-01 11:00,ZBAA 011100Z AUTO 20006KT 2SM 27/22 A2983 RMK SLP105 T02700220 IEM_DS3505
ZBAA,1996-09-01 12:00,ZBAA 011200Z AUTO 18006KT 2SM 27/22 A2985 RMK SLP114 T02700218 52012 IEM_DS3505
ZBAA,1996-09-01 13:00,ZBAA 011300Z AUTO ////02KT 2SM 25/23 A2988 RMK SLP122 T02500230 IEM_DS3505
ZBAA,1996-09-01 14:00,ZBAA 011400Z AUTO 00000KT 2SM 24/24 A2988 RMK SLP123 T02400240 IEM_DS3505
ZBAA,1996-09-01 15:00,ZBAA 011500Z AUTO 34004KT 5SM 26/20 A2988 RMK SLP119 T02590203 52005 IEM_DS3505
ZBAA,1996-09-01 16:00,ZBAA 011600Z AUTO 00000KT 7SM 22/20 A2988 RMK SLP123 T02200200 IEM_DS3505
ZBAA,1996-09-01 18:00,ZBAA 011800Z AUTO 36006KT 6SM 24/14 A2988 RMK SLP121 T02360140 52002 IEM_DS3505
ZBAA,1996-09-01 20:00,ZBAA 012000Z AUTO ////02KT 6SM 21/20 A2991 RMK SLP133 T02100200 IEM_DS3505
ZBAA,1996-09-01 21:00,ZBAA 012100Z AUTO 34004KT 6SM 22/14 A2994 RMK SLP138 T02180136 52017 IEM_DS3505
ZBAA,1996-09-01 22:00,ZBAA 012200Z AUTO 01010KT 7SM 19/17 A2997 RMK SLP154 T01900170 IEM_DS3505
ZBAA,1996-09-01 23:00,ZBAA 012300Z AUTO 34006KT 7SM 18/17 A3003 RMK SLP174 T01800170 IEM_DS3505
ZBAA,1996-09-02 00:00,ZBAA 020000Z AUTO 36012KT 7SM 18/16 A3003 RMK 60031 70031 SLP169 T01760156 52030 IEM_DS3505
ZBAA,1996-09-02 01:00,ZBAA 020100Z AUTO 35006KT 7SM 17/16 A3006 RMK SLP184 T01700160 IEM_DS3505
ZBAA,1996-09-02 02:00,ZBAA 020200Z AUTO 02008KT 7SM 17/17 A3009 RMK SLP195 T01700170 IEM_DS3505
ZBAA,1996-09-02 03:00,ZBAA 020300Z AUTO 02004KT 6SM 18/16 A3009 RMK SLP193 T01750160 52024 IEM_DS3505
ZBAA,1996-09-02 04:00,ZBAA 020400Z AUTO 01010KT 7SM 17/17 A3009 RMK SLP195 T01700170 IEM_DS3505
ZBAA,1996-09-02 05:00,ZBAA 020500Z AUTO 02008KT 7SM 17/17 A3009 RMK SLP195 T01700170 IEM_DS3505
ZBAA,1996-09-02 06:00,ZBAA 020600Z AUTO 04006KT 19SM 18/15 A3009 RMK 60024 SLP193 T01750146 57001 IEM_DS3505
ZBAA,1996-09-02 08:00,ZBAA 020800Z AUTO ////04KT 6SM 18/14 A3006 RMK SLP184 T01800140 IEM_DS3505
ZBAA,1996-09-02 09:00,ZBAA 020900Z AUTO 07004KT 17SM 18/13 A3006 RMK SLP186 T01850132 57007 IEM_DS3505
ZBAA,1996-09-02 10:00,ZBAA 021000Z AUTO 00000KT 6SM 18/14 A3006 RMK SLP184 T01800140 IEM_DS3505
ZBAA,1996-09-02 11:00,ZBAA 021100Z AUTO ////02KT 6SM 17/14 A3006 RMK SLP184 T01700140 IEM_DS3505
ZBAA,1996-09-02 12:00,ZBAA 021200Z AUTO 29002KT 19SM 17/14 A3009 RMK SLP190 T01740141 52004 IEM_DS3505
ZBAA,1996-09-02 13:00,ZBAA 021300Z AUTO 21004KT 6SM 16/15 A3009 RMK SLP195 T01600150 IEM_DS3505
ZBAA,1996-09-02 14:00,ZBAA 021400Z AUTO ////04KT 6SM 17/16 A3009 RMK SLP195 T01700160 IEM_DS3505
ZBAA,1996-09-02 15:00,ZBAA 021500Z AUTO 16004KT 12SM 17/15 A3009 RMK SLP193 T01670150 52003 IEM_DS3505
ZBAA,1996-09-02 16:00,ZBAA 021600Z AUTO 00000KT 6SM 16/16 A3009 RMK SLP195 T01600160 IEM_DS3505
ZBAA,1996-09-02 17:00,ZBAA 021700Z AUTO 17002KT 2 1/2SM 16/16 A3009 RMK SLP195 T01600160 IEM_DS3505
ZBAA,1996-09-02 18:00,ZBAA 021800Z AUTO 18004KT 2SM 16/15 A3008 RMK SLP191 T01590149 57002 IEM_DS3505
ZBAA,1996-09-02 20:00,ZBAA 022000Z AUTO ////02KT 1 1/4SM 16/16 A3006 RMK SLP185 T01600160 IEM_DS3505
ZBAA,1996-09-02 21:00,ZBAA 022100Z AUTO 18002KT 1SM 16/14 A3006 RMK 70051 SLP189 T01570145 57002 IEM_DS3505
ZBAA,1996-09-02 22:00,ZBAA 022200Z AUTO 00000KT 1 1/4SM 15/15 A3009 RMK SLP195 T01500150 IEM_DS3505
ZBAA,1996-09-02 23:00,ZBAA 022300Z AUTO ////02KT 1SM 15/15 A3009 RMK SLP195 T01500150 IEM_DS3505
ZBAA,1996-09-03 00:00,ZBAA 030000Z AUTO 29002KT 1 1/4SM 17/15 A3009 RMK 70024 SLP195 T01700146 52006 IEM_DS3505
ZBAA,1996-09-03 01:00,ZBAA 030100Z AUTO 00000KT 2 1/2SM 18/15 A3009 RMK SLP194 T01800150 IEM_DS3505
ZBAA,1996-09-03 02:00,ZBAA 030200Z AUTO 17002KT 5SM 20/16 A3009 RMK SLP194 T02000160 IEM_DS3505
ZBAA,1996-09-03 03:00,ZBAA 030300Z AUTO 25002KT 6SM 20/14 A3006 RMK SLP187 T02050140 57008 IEM_DS3505
ZBAA,1996-09-03 04:00,ZBAA 030400Z AUTO ////02KT 7SM 22/16 A3003 RMK SLP173 T02200160 IEM_DS3505
ZBAA,1996-09-03 05:00,ZBAA 030500Z AUTO ////04KT 7SM 22/15 A3003 RMK SLP173 T02200150 IEM_DS3505
ZBAA,1996-09-03 06:00,ZBAA 030600Z AUTO 18010KT 6SM 24/14 A3000 RMK SLP163 T02370143 57024 IEM_DS3505
ZBAA,1996-09-03 07:00,ZBAA 030700Z AUTO 16006KT 7SM 23/16 A2997 RMK SLP153 T02300160 IEM_DS3505
ZBAA,1996-09-03 08:00,ZBAA 030800Z AUTO 19006KT 7SM 23/16 A2994 RMK SLP143 T02300160 IEM_DS3505
ZBAA,1996-09-03 09:00,ZBAA 030900Z AUTO 18010KT 7SM 23/15 A2994 RMK SLP151 T02270148 57012 IEM_DS3505
ZBAA,1996-09-03 10:00,ZBAA 031000Z AUTO 17006KT 7SM 21/15 A2994 RMK SLP143 T02100150 IEM_DS3505
ZBAA,1996-09-03 11:00,ZBAA 031100Z AUTO 18002KT 7SM 21/15 A2994 RMK SLP143 T02100150 IEM_DS3505
ZBAA,1996-09-03 12:00,ZBAA 031200Z AUTO 20006KT 6SM 21/15 A2997 RMK SLP150 T02070150 57001 IEM_DS3505
ZBAA,1996-09-03 13:00,ZBAA 031300Z AUTO 18004KT 7SM 19/16 A3000 RMK SLP164 T01900160 IEM_DS3505
ZBAA,1996-09-03 14:00,ZBAA 031400Z AUTO 20006KT 7SM 19/16 A3000 RMK SLP164 T01900160 IEM_DS3505
ZBAA,1996-09-03 15:00,ZBAA 031500Z AUTO 20004KT 6SM 19/16 A2997 RMK SLP155 T01900156 52005 IEM_DS3505
ZBAA,1996-09-03 16:00,ZBAA 031600Z AUTO 13002KT 7SM 18/16 A3000 RMK SLP164 T01800160 IEM_DS3505
ZBAA,1996-09-03 18:00,ZBAA 031800Z AUTO 18002KT 6SM 17/16 A2998 RMK SLP155 T01730156 52001 IEM_DS3505
ZBAA,1996-09-03 20:00,ZBAA 032000Z AUTO 00000KT 7SM 15/15 A2997 RMK SLP155 T01500150 IEM_DS3505
ZBAA,1996-09-03 21:00,ZBAA 032100Z AUTO 34002KT 5SM 16/15 A2997 RMK SLP155 T01640154 57001 IEM_DS3505
ZBAA,1996-09-03 22:00,ZBAA 032200Z AUTO 00000KT 2SM 16/15 A2997 RMK SLP154 T01600150 IEM_DS3505
ZBAA,1996-09-03 23:00,ZBAA 032300Z AUTO 03002KT 1SM 16/16 A3000 RMK SLP165 T01600160 IEM_DS3505
ZBAA,1996-09-04 00:00,ZBAA 040000Z AUTO 36002KT 3SM 18/16 A3000 RMK SLP161 T01820160 52006 IEM_DS3505
ZBAA,1996-09-04 01:00,ZBAA 040100Z AUTO 33002KT 4SM 19/16 A3000 RMK SLP164 T01900160 IEM_DS3505
ZBAA,1996-09-04 02:00,ZBAA 040200Z AUTO 00000KT 5SM 21/18 A3000 RMK SLP163 T02100180 IEM_DS3505
ZBAA,1996-09-04 03:00,ZBAA 040300Z AUTO 18002KT 3SM 23/16 A2997 RMK SLP159 T02310159 57001 IEM_DS3505
ZBAA,1996-09-04 04:00,ZBAA 040400Z AUTO 18004KT 5SM 23/18 A2997 RMK SLP153 T02300180 IEM_DS3505
ZBAA,1996-09-04 05:00,ZBAA 040500Z AUTO 23004KT 5SM 24/19 A2994 RMK SLP143 T02400190 IEM_DS3505
ZBAA,1996-09-04 06:00,ZBAA 040600Z AUTO 25006KT 4SM 24/16 A2994 RMK SLP144 T02450164 57015 IEM_DS3505
ZBAA,1996-09-04 07:00,ZBAA 040700Z AUTO 18006KT 4SM 25/18 A2991 RMK SLP132 T02500180 IEM_DS3505
ZBAA,1996-09-04 08:00,ZBAA 040800Z AUTO 16006KT 6SM 25/18 A2988 RMK SLP122 T02500180 IEM_DS3505
ZBAA,1996-09-04 09:00,ZBAA 040900Z AUTO 22006KT 4SM 24/17 A2988 RMK SLP130 T02440168 57014 IEM_DS3505
ZBAA,1996-09-04 10:00,ZBAA 041000Z AUTO 16004KT 6SM 24/18 A2991 RMK SLP133 T02400180 IEM_DS3505
ZBAA,1996-09-04 11:00,ZBAA 041100Z AUTO 18004KT 5SM 23/19 A2988 RMK SLP123 T02300190 IEM_DS3505
ZBAA,1996-09-04 12:00,ZBAA 041200Z AUTO 20008KT 5SM 23/18 A2991 RMK SLP134 T02290183 52004 IEM_DS3505
ZBAA,1996-09-04 13:00,ZBAA 041300Z AUTO 19004KT 4SM 22/19 A2991 RMK SLP133 T02200190 IEM_DS3505
ZBAA,1996-09-04 14:00,ZBAA 041400Z AUTO 19002KT 4SM 21/18 A2991 RMK SLP133 T02100180 IEM_DS3505
ZBAA,1996-09-04 15:00,ZBAA 041500Z AUTO 20008KT 7SM 21/18 A2991 RMK SLP132 T02090179 57002 IEM_DS3505
ZBAA,1996-09-04 16:00,ZBAA 041600Z AUTO 16006KT 4SM 20/18 A2988 RMK SLP123 T02000180 IEM_DS3505
ZBAA,1996-09-04 18:00,ZBAA 041800Z AUTO 25002KT 5SM 20/18 A2989 RMK SLP126 T01970178 57006 IEM_DS3505
ZBAA,1996-09-04 20:00,ZBAA 042000Z AUTO 11002KT 6SM 18/17 A2988 RMK SLP124 T01800170 IEM_DS3505
ZBAA,1996-09-04 21:00,ZBAA 042100Z AUTO 00000KT 4SM 19/18 A2988 RMK SLP123 T01940176 57003 IEM_DS3505
ZBAA,1996-09-04 22:00,ZBAA 042200Z AUTO 00000KT 4SM 18/17 A2988 RMK SLP124 T01800170 IEM_DS3505
ZBAA,1996-09-04 23:00,ZBAA 042300Z AUTO 36004KT 4SM 18/17 A2988 RMK SLP124 T01800170 IEM_DS3505
ZBAA,1996-09-05 00:00,ZBAA 050000Z AUTO 00000KT 1 1/4SM 20/18 A2988 RMK SLP128 T01970179 52005 IEM_DS3505
ZBAA,1996-09-05 01:00,ZBAA 050100Z AUTO ////04KT 2SM 19/18 A2991 RMK SLP134 T01900180 IEM_DS3505
ZBAA,1996-09-05 02:00,ZBAA 050200Z AUTO ////04KT 1 1/2SM 20/18 A2991 RMK SLP133 T02000180 IEM_DS3505
ZBAA,1996-09-05 03:00,ZBAA 050300Z AUTO 18008KT 6SM 23/14 A2991 RMK SLP133 T02300138 52005 IEM_DS3505
ZBAA,1996-09-05 04:00,ZBAA 050400Z AUTO 21008KT 6SM 24/16 A2991 RMK SLP133 T02400160 IEM_DS3505
ZBAA,1996-09-05 05:00,ZBAA 050500Z AUTO 19010KT 7SM 26/17 A2988 RMK SLP122 T02600170 IEM_DS3505
ZBAA,1996-09-05 06:00,ZBAA 050600Z AUTO 20012KT 9SM 26/13 A2988 RMK SLP122 T02560134 57011 IEM_DS3505
ZBAA,1996-09-05 07:00,ZBAA 050700Z AUTO 20010KT 7SM 26/15 A2985 RMK SLP112 T02600150 IEM_DS3505
ZBAA,1996-09-05 08:00,ZBAA 050800Z AUTO 18008KT 7SM 26/16 A2985 RMK SLP112 T02600160 IEM_DS3505
ZBAA,1996-09-05 09:00,ZBAA 050900Z AUTO 18008KT 9SM 25/12 A2985 RMK SLP114 T02480122 57008 IEM_DS3505
ZBAA,1996-09-05 10:00,ZBAA 051000Z AUTO ////04KT 6SM 24/16 A2985 RMK SLP112 T02400160 IEM_DS3505
ZBAA,1996-09-05 11:00,ZBAA 051100Z AUTO 19008KT 6SM 22/16 A2985 RMK SLP113 T02200160 IEM_DS3505
ZBAA,1996-09-05 12:00,ZBAA 051200Z AUTO 20008KT 7SM 22/14 A2988 RMK SLP116 T02240143 52002 IEM_DS3505
ZBAA,1996-09-05 13:00,ZBAA 051300Z AUTO ////02KT 6SM 20/17 A2988 RMK SLP123 T02000170 IEM_DS3505
ZBAA,1996-09-05 14:00,ZBAA 051400Z AUTO 00000KT 6SM 20/17 A2988 RMK SLP123 T02000170 IEM_DS3505
ZBAA,1996-09-05 15:00,ZBAA 051500Z AUTO 20004KT 6SM 20/18 A2988 RMK SLP119 T02050176 52003 IEM_DS3505
ZBAA,1996-09-05 18:00,ZBAA 051800Z AUTO 34004KT 6SM 18/16 A2988 RMK SLP124 T01830163 52005 IEM_DS3505
ZBAA,1996-09-05 20:00,ZBAA 052000Z AUTO ////02KT 4SM 17/16 A2988 RMK SLP124 T01700160 IEM_DS3505
ZBAA,1996-09-05 21:00,ZBAA 052100Z AUTO 02004KT 6SM 18/16 A2988 RMK SLP128 T01750160 52004 IEM_DS3505
ZBAA,1996-09-05 22:00,ZBAA 052200Z AUTO 01004KT 2 1/2SM 17/17 A2991 RMK SLP134 T01700170 IEM_DS3505
ZBAA,1996-09-05 23:00,ZBAA 052300Z AUTO 01004KT 2 1/2SM 17/16 A2991 RMK SLP134 T01700160 IEM_DS3505
ZBAA,1996-09-06 00:00,ZBAA 060000Z AUTO 32004KT 4SM 18/16 A2994 RMK SLP138 T01850163 52010 IEM_DS3505
ZBAA,1996-09-06 01:00,ZBAA 060100Z AUTO 36006KT 4SM 20/17 A2994 RMK SLP144 T02000170 IEM_DS3505
ZBAA,1996-09-06 02:00,ZBAA 060200Z AUTO 34004KT 5SM 22/18 A2994 RMK SLP143 T02200180 IEM_DS3505
ZBAA,1996-09-06 03:00,ZBAA 060300Z AUTO 20004KT 5SM 24/16 A2994 RMK SLP142 T02410165 52004 IEM_DS3505
ZBAA,1996-09-06 04:00,ZBAA 060400Z AUTO ////04KT 7SM 25/18 A2994 RMK SLP142 T02500180 IEM_DS3505
ZBAA,1996-09-06 05:00,ZBAA 060500Z AUTO ////02KT 7SM 26/18 A2991 RMK SLP132 T02600180 IEM_DS3505
ZBAA,1996-09-06 06:00,ZBAA 060600Z AUTO 14006KT 5SM 27/17 A2991 RMK SLP132 T02700168 57010 IEM_DS3505
ZBAA,1996-09-06 07:00,ZBAA 060700Z AUTO ////04KT 7SM 27/19 A2988 RMK SLP122 T02700190 IEM_DS3505
ZBAA,1996-09-06 08:00,ZBAA 060800Z AUTO 17006KT 6SM 26/20 A2988 RMK SLP122 T02600200 IEM_DS3505
ZBAA,1996-09-06 09:00,ZBAA 060900Z AUTO 16008KT 5SM 25/19 A2988 RMK SLP126 T02510192 57006 IEM_DS3505
ZBAA,1996-09-06 10:00,ZBAA 061000Z AUTO 17006KT 5SM 24/19 A2991 RMK SLP133 T02400190 IEM_DS3505
ZBAA,1996-09-06 11:00,ZBAA 061100Z AUTO ////04KT 4SM 23/19 A2988 RMK SLP123 T02300190 IEM_DS3505
ZBAA,1996-09-06 12:00,ZBAA 061200Z AUTO 20008KT 3SM 23/19 A2994 RMK SLP141 T02290192 52015 IEM_DS3505
ZBAA,1996-09-06 13:00,ZBAA 061300Z AUTO ////04KT 2SM 22/19 A2997 RMK SLP153 T02200190 IEM_DS3505
ZBAA,1996-09-06 14:00,ZBAA 061400Z AUTO ////02KT 3SM 21/18 A2997 RMK SLP153 T02100180 IEM_DS3505
ZBAA,1996-09-06 15:00,ZBAA 061500Z AUTO 20004KT 6SM 21/19 A2997 RMK SLP149 T02110186 52008 IEM_DS3505
ZBAA,1996-09-06 18:00,ZBAA 061800Z AUTO 18004KT 2SM 20/19 A2995 RMK SLP147 T02040188 57002 IEM_DS3505
ZBAA,1996-09-06 20:00,ZBAA 062000Z AUTO 11002KT 2 1/2SM 18/17 A2997 RMK SLP154 T01800170 IEM_DS3505
ZBAA,1996-09-06 21:00,ZBAA 062100Z AUTO 16004KT 1SM 20/19 A2997 RMK SLP147 T02010187 54000 IEM_DS3505
ZBAA,1996-09-06 22:00,ZBAA 062200Z AUTO 00000KT 1 1/2SM 18/18 A2997 RMK SLP154 T01800180 IEM_DS3505
ZBAA,1996-09-06 23:00,ZBAA 062300Z AUTO ////04KT 1SM 19/18 A2997 RMK SLP154 T01900180 IEM_DS3505
ZBAA,1996-09-07 00:00,ZBAA 070000Z AUTO 18004KT 1SM 20/19 A2997 RMK SLP153 T02020189 52006 IEM_DS3505
ZBAA,1996-09-07 01:00,ZBAA 070100Z AUTO ////02KT 1SM 20/19 A3000 RMK SLP164 T02000190 IEM_DS3505
ZBAA,1996-09-07 02:00,ZBAA 070200Z AUTO ////04KT 1SM 20/19 A3000 RMK SLP164 T02000190 IEM_DS3505
ZBAA,1996-09-07 03:00,ZBAA 070300Z AUTO 00000KT 1 1/2SM 21/19 A3000 RMK SLP163 T02090192 52010 IEM_DS3505
ZBAA,1996-09-07 04:00,ZBAA 070400Z AUTO ////04KT 1SM 21/20 A2997 RMK SLP153 T02100200 IEM_DS3505
ZBAA,1996-09-07 05:00,ZBAA 070500Z AUTO ////04KT 1SM 21/21 A2991 RMK SLP133 T02100210 IEM_DS3505
ZBAA,1996-09-07 06:00,ZBAA 070600Z AUTO 20006KT 2SM 22/19 A2994 RMK SLP143 T02230190 57020 IEM_DS3505
ZBAA,1996-09-07 07:00,ZBAA 070700Z AUTO 22004KT 1 1/4SM 24/20 A2991 RMK SLP133 T02400200 IEM_DS3505
ZBAA,1996-09-07 08:00,ZBAA 070800Z AUTO 18006KT 1 1/4SM 24/20 A2988 RMK SLP123 T02400200 IEM_DS3505
ZBAA,1996-09-07 09:00,ZBAA 070900Z AUTO 20010KT 4SM 24/19 A2985 RMK SLP120 T02390187 57023 IEM_DS3505
ZBAA,1996-09-07 10:00,ZBAA 071000Z AUTO ////04KT 2SM 23/20 A2988 RMK SLP123 T02300200 IEM_DS3505
ZBAA,1996-09-07 11:00,ZBAA 071100Z AUTO ////02KT 2SM 22/19 A2988 RMK SLP123 T02200190 IEM_DS3505
ZBAA,1996-09-07 12:00,ZBAA 071200Z AUTO 20004KT 2SM 22/19 A2991 RMK SLP132 T02230192 52012 IEM_DS3505
ZBAA,1996-09-07 13:00,ZBAA 071300Z AUTO 00000KT 1 1/4SM 21/19 A2994 RMK SLP143 T02100190 IEM_DS3505
ZBAA,1996-09-07 14:00,ZBAA 071400Z AUTO ////02KT 1 1/4SM 21/20 A2994 RMK SLP143 T02100200 IEM_DS3505
ZBAA,1996-09-07 15:00,ZBAA 071500Z AUTO 04006KT 1 1/2SM 21/19 A2991 RMK SLP139 T02090189 52007 IEM_DS3505
ZBAA,1996-09-07 16:00,ZBAA 071600Z AUTO 00000KT 1SM 20/20 A2991 RMK SLP133 T02000200 IEM_DS3505
ZBAA,1996-09-07 17:00,ZBAA 071700Z AUTO 30006KT 1SM 20/20 A2991 RMK SLP133 T02000200 IEM_DS3505
ZBAA,1996-09-07 18:00,ZBAA 071800Z AUTO 29004KT 3SM 21/18 A2990 RMK SLP131 T02060177 57008 IEM_DS3505
ZBAA,1996-09-07 20:00,ZBAA 072000Z AUTO 00000KT 1SM 19/18 A2991 RMK SLP134 T01900180 IEM_DS3505
ZBAA,1996-09-07 21:00,ZBAA 072100Z AUTO 00000KT 4SM 19/17 A2991 RMK SLP132 T01900174 52001 IEM_DS3505
ZBAA,1996-09-07 22:00,ZBAA 072200Z AUTO 29004KT 1 1/4SM 18/17 A2991 RMK SLP134 T01800170 IEM_DS3505
ZBAA,1996-09-07 23:00,ZBAA 072300Z AUTO 33002KT 1 1/4SM 18/17 A2991 RMK SLP134 T01800170 IEM_DS3505
ZBAA,1996-09-08 00:00,ZBAA 080000Z AUTO 04002KT 4SM 20/16 A2994 RMK SLP141 T01970162 52009 IEM_DS3505
ZBAA,1996-09-08 02:00,ZBAA 080200Z AUTO ////02KT 4SM 23/19 A2997 RMK SLP153 T02300190 IEM_DS3505
ZBAA,1996-09-08 03:00,ZBAA 080300Z AUTO 07002KT 4SM 25/16 A2997 RMK SLP149 T02500155 52008 IEM_DS3505
ZBAA,1996-09-08 04:00,ZBAA 080400Z AUTO ////02KT 6SM 25/17 A2994 RMK SLP142 T02500170 IEM_DS3505
ZBAA,1996-09-08 05:00,ZBAA 080500Z AUTO ////02KT 6SM 26/16 A2994 RMK SLP142 T02600160 IEM_DS3505
ZBAA,1996-09-08 06:00,ZBAA 080600Z AUTO 20004KT 6SM 28/15 A2991 RMK SLP130 T02780149 57018 IEM_DS3505
ZBAA,1996-09-08 07:00,ZBAA 080700Z AUTO ////02KT 6SM 27/17 A2988 RMK SLP122 T02700170 IEM_DS3505
ZBAA,1996-09-08 08:00,ZBAA 080800Z AUTO 12004KT 6SM 27/17 A2988 RMK SLP122 T02700170 IEM_DS3505
ZBAA,1996-09-08 09:00,ZBAA 080900Z AUTO 18008KT 7SM 28/14 A2985 RMK SLP121 T02770139 57010 IEM_DS3505
ZBAA,1996-09-08 10:00,ZBAA 081000Z AUTO 00000KT 6SM 25/16 A2988 RMK SLP122 T02500160 IEM_DS3505
ZBAA,1996-09-08 11:00,ZBAA 081100Z AUTO 00000KT 6SM 24/15 A2988 RMK SLP123 T02400150 IEM_DS3505
ZBAA,1996-09-08 12:00,ZBAA 081200Z AUTO 20010KT 9SM 25/17 A2991 RMK SLP137 T02490171 52016 IEM_DS3505
ZBAA,1996-09-08 13:00,ZBAA 081300Z AUTO 27012G31KT 7SM 24/18 A2997 RMK SLP153 T02400180 IEM_DS3505
ZBAA,1996-09-08 14:00,ZBAA 081400Z AUTO 33012G23KT 7SM 18/16 A2997 RMK SLP154 T01800160 IEM_DS3505
ZBAA,1996-09-08 15:00,ZBAA 081500Z AUTO 36008KT 9SM 19/14 A2994 RMK SLP150 T01910137 52013 IEM_DS3505
ZBAA,1996-09-08 16:00,ZBAA 081600Z AUTO ////04KT 6SM 18/14 A2997 RMK SLP154 T01800140 IEM_DS3505
ZBAA,1996-09-08 17:00,ZBAA 081700Z AUTO 34008KT 7SM 17/14 A2994 RMK SLP144 T01700140 IEM_DS3505
ZBAA,1996-09-08 18:00,ZBAA 081800Z AUTO 02004KT 9SM 18/14 A2995 RMK 60000 SLP146 T01770142 57004 IEM_DS3505
ZBAA,1996-09-08 20:00,ZBAA 082000Z AUTO 35004KT 7SM 16/14 A2994 RMK SLP144 T01600140 IEM_DS3505
ZBAA,1996-09-08 21:00,ZBAA 082100Z AUTO 00000KT 9SM 16/14 A2997 RMK 70001 SLP148 T01650142 52002 IEM_DS3505
ZBAA,1996-09-08 22:00,ZBAA 082200Z AUTO 34004KT 7SM 15/14 A2997 RMK SLP155 T01500140 IEM_DS3505
ZBAA,1996-09-08 23:00,ZBAA 082300Z AUTO 35004KT 7SM 17/15 A2997 RMK SLP154 T01700150 IEM_DS3505
ZBAA,1996-09-09 00:00,ZBAA 090000Z AUTO 34002KT 9SM 19/14 A3000 RMK 70001 SLP157 T01930139 52009 IEM_DS3505
ZBAA,1996-09-09 01:00,ZBAA 090100Z AUTO 36006KT 7SM 21/15 A3000 RMK SLP163 T02100150 IEM_DS3505
ZBAA,1996-09-09 02:00,ZBAA 090200Z AUTO 36004KT 7SM 22/15 A3000 RMK SLP163 T02200150 IEM_DS3505
ZBAA,1996-09-09 03:00,ZBAA 090300Z AUTO 11002KT 6SM 25/15 A2997 RMK SLP156 T02470151 57001 IEM_DS3505
ZBAA,1996-09-09 04:00,ZBAA 090400Z AUTO 35002KT 7SM 25/16 A2997 RMK SLP152 T02500160 IEM_DS3505
ZBAA,1996-09-09 05:00,ZBAA 090500Z AUTO ////02KT 7SM 26/16 A2994 RMK SLP142 T02600160 IEM_DS3505
ZBAA,1996-09-09 06:00,ZBAA 090600Z AUTO 22006KT 5SM 28/15 A2991 RMK SLP137 T02830147 57019 IEM_DS3505
ZBAA,1996-09-09 07:00,ZBAA 090700Z AUTO 25006KT 7SM 28/16 A2991 RMK SLP132 T02800160 IEM_DS3505
ZBAA,1996-09-09 08:00,ZBAA 090800Z AUTO 16006KT 7SM 28/17 A2988 RMK SLP122 T02800170 IEM_DS3505
ZBAA,1996-09-09 09:00,ZBAA 090900Z AUTO 20010KT 8SM 27/16 A2988 RMK SLP129 T02720161 57008 IEM_DS3505
ZBAA,1996-09-09 10:00,ZBAA 091000Z AUTO 18006KT 7SM 26/16 A2988 RMK SLP122 T02600160 IEM_DS3505
ZBAA,1996-09-09 11:00,ZBAA 091100Z AUTO 19006KT 7SM 23/17 A2988 RMK SLP123 T02300170 IEM_DS3505
ZBAA,1996-09-09 12:00,ZBAA 091200Z AUTO 20008KT 9SM 24/17 A2991 RMK SLP130 T02420172 52001 IEM_DS3505
ZBAA,1996-09-09 13:00,ZBAA 091300Z AUTO 16002KT 7SM 22/17 A2991 RMK SLP133 T02200170 IEM_DS3505
ZBAA,1996-09-09 14:00,ZBAA 091400Z AUTO 12004KT 7SM 21/18 A2991 RMK SLP133 T02100180 IEM_DS3505
ZBAA,1996-09-09 15:00,ZBAA 091500Z AUTO 20006KT 9SM 22/18 A2991 RMK SLP132 T02190176 52002 IEM_DS3505
ZBAA,1996-09-09 16:00,ZBAA 091600Z AUTO 12002KT 7SM 20/17 A2991 RMK SLP133 T02000170 IEM_DS3505
ZBAA,1996-09-09 17:00,ZBAA 091700Z AUTO 11002KT 7SM 19/17 A2991 RMK SLP134 T01900170 IEM_DS3505
ZBAA,1996-09-09 18:00,ZBAA 091800Z AUTO 02004KT 4SM 20/18 A2988 RMK SLP125 T01960175 57006 IEM_DS3505
ZBAA,1996-09-09 20:00,ZBAA 092000Z AUTO ////04KT 4SM 17/17 A2988 RMK SLP124 T01700170 IEM_DS3505
ZBAA,1996-09-09 21:00,ZBAA 092100Z AUTO 04002KT 4SM 18/17 A2988 RMK SLP124 T01850169 57002 IEM_DS3505
ZBAA,1996-09-09 22:00,ZBAA 092200Z AUTO ////02KT 1 1/4SM 17/17 A2988 RMK SLP124 T01700170 IEM_DS3505
ZBAA,1996-09-09 23:00,ZBAA 092300Z AUTO ////02KT 1SM 17/17 A2988 RMK SLP124 T01700170 IEM_DS3505
ZBAA,1996-09-10 00:00,ZBAA 100000Z AUTO 02004KT 2 1/2SM 21/17 A2991 RMK SLP128 T02060167 52004 IEM_DS3505
ZBAA,1996-09-10 01:00,ZBAA 100100Z AUTO 00000KT 1SM 20/19 A2991 RMK SLP133 T02000190 IEM_DS3505
ZBAA,1996-09-10 02:00,ZBAA 100200Z AUTO ////02KT 1 1/4SM 22/20 A2991 RMK SLP133 T02200200 IEM_DS3505
ZBAA,1996-09-10 03:00,ZBAA 100300Z AUTO 04004KT 3SM 25/17 A2988 RMK SLP125 T02500172 57003 IEM_DS3505
ZBAA,1996-09-10 04:00,ZBAA 100400Z AUTO 11002KT 2SM 26/20 A2985 RMK SLP112 T02600200 IEM_DS3505
ZBAA,1996-09-10 05:00,ZBAA 100500Z AUTO ////04KT 2 1/2SM 27/20 A2985 RMK SLP112 T02700200 IEM_DS3505
ZBAA,1996-09-10 06:00,ZBAA 100600Z AUTO 20008KT 2SM 29/15 A2983 RMK SLP101 T02920149 57023 IEM_DS3505
ZBAA,1996-09-10 07:00,ZBAA 100700Z AUTO 17008KT 4SM 29/19 A2980 RMK SLP094 T02900190 IEM_DS3505
ZBAA,1996-09-10 08:00,ZBAA 100800Z AUTO 16006KT 3SM 29/20 A2977 RMK SLP084 T02900200 IEM_DS3505
ZBAA,1996-09-10 09:00,ZBAA 100900Z AUTO 20008KT 2 1/2SM 28/19 A2980 RMK SLP088 T02800188 57013 IEM_DS3505
ZBAA,1996-09-10 10:00,ZBAA 101000Z AUTO 19006KT 2 1/2SM 26/20 A2980 RMK SLP095 T02600200 IEM_DS3505
ZBAA,1996-09-10 11:00,ZBAA 101100Z AUTO 16002KT 2SM 25/19 A2980 RMK SLP095 T02500190 IEM_DS3505
ZBAA,1996-09-10 12:00,ZBAA 101200Z AUTO 20010KT 6SM 25/19 A2983 RMK SLP099 T02490188 52010 IEM_DS3505
ZBAA,1996-09-10 13:00,ZBAA 101300Z AUTO 14004KT 3SM 23/19 A2983 RMK SLP106 T02300190 IEM_DS3505
ZBAA,1996-09-10 14:00,ZBAA 101400Z AUTO 12004KT 3SM 22/19 A2983 RMK SLP106 T02200190 IEM_DS3505
ZBAA,1996-09-10 15:00,ZBAA 101500Z AUTO 20004KT 5SM 23/20 A2983 RMK SLP101 T02270196 52003 IEM_DS3505
ZBAA,1996-09-10 16:00,ZBAA 101600Z AUTO 11002KT 2 1/2SM 21/20 A2983 RMK SLP106 T02100200 IEM_DS3505
ZBAA,1996-09-10 17:00,ZBAA 101700Z AUTO 11002KT 2SM 20/19 A2980 RMK SLP096 T02000190 IEM_DS3505
ZBAA,1996-09-10 18:00,ZBAA 101800Z AUTO 20002KT 5SM 21/20 A2980 RMK SLP093 T02140195 57008 IEM_DS3505
ZBAA,1996-09-10 19:00,ZBAA 101900Z AUTO 09002KT 1 1/4SM 19/19 A2980 RMK SLP096 T01900190 IEM_DS3505
ZBAA,1996-09-10 20:00,ZBAA 102000Z AUTO 11002KT 1 1/4SM 19/19 A2980 RMK SLP096 T01900190 IEM_DS3505
ZBAA,1996-09-10 21:00,ZBAA 102100Z AUTO 00000KT 3/8SM 21/20 A2980 RMK SLP091 T02070196 57002 IEM_DS3505
ZBAA,1996-09-10 22:00,ZBAA 102200Z AUTO 10002KT 1SM 19/19 A2980 RMK SLP096 T01900190 IEM_DS3505
ZBAA,1996-09-10 23:00,ZBAA 102300Z AUTO 10002KT 1 1/4SM 19/19 A2980 RMK SLP096 T01900190 IEM_DS3505
ZBAA,1996-09-11 00:00,ZBAA 110000Z AUTO 02004KT 1/2SM 21/20 A2980 RMK SLP095 T02130197 52004 IEM_DS3505
ZBAA,1996-09-11 01:00,ZBAA 110100Z AUTO 14004KT 1 1/2SM 20/19 A2983 RMK SLP106 T02000190 IEM_DS3505
ZBAA,1996-09-11 02:00,ZBAA 110200Z AUTO ////04KT 1 1/2SM 21/19 A2983 RMK SLP106 T02100190 IEM_DS3505
ZBAA,1996-09-11 03:00,ZBAA 110300Z AUTO 16004KT 1SM 21/19 A2983 RMK SLP098 T02140192 52002 IEM_DS3505
ZBAA,1996-09-11 04:00,ZBAA 110400Z AUTO 00000KT 1 1/2SM 21/20 A2980 RMK SLP096 T02100200 IEM_DS3505
ZBAA,1996-09-11 05:00,ZBAA 110500Z AUTO 16004KT 1 1/2SM 22/20 A2980 RMK SLP096 T02200200 IEM_DS3505
ZBAA,1996-09-11 06:00,ZBAA 110600Z AUTO 20004KT 1SM 22/20 A2977 RMK SLP083 T02230197 57015 IEM_DS3505
ZBAA,1996-09-11 07:00,ZBAA 110700Z AUTO 19006KT 1 1/4SM 22/20 A2974 RMK SLP075 T02200200 IEM_DS3505
ZBAA,1996-09-11 08:00,ZBAA 110800Z AUTO 00000KT 1 1/4SM 24/21 A2974 RMK SLP074 T02400210 IEM_DS3505
ZBAA,1996-09-11 09:00,ZBAA 110900Z AUTO 16006KT 1 1/2SM 25/20 A2971 RMK SLP065 T02490202 57017 IEM_DS3505
ZBAA,1996-09-11 10:00,ZBAA 111000Z AUTO ////02KT 1 1/4SM 23/20 A2971 RMK SLP064 T02300200 IEM_DS3505
ZBAA,1996-09-11 11:00,ZBAA 111100Z AUTO 02004KT 1 1/4SM 22/20 A2971 RMK SLP065 T02200200 IEM_DS3505
ZBAA,1996-09-11 12:00,ZBAA 111200Z AUTO 11004KT 1SM 22/21 A2974 RMK SLP063 T02230206 57003 IEM_DS3505
ZBAA,1996-09-11 13:00,ZBAA 111300Z AUTO ////02KT 1 1/4SM 21/20 A2974 RMK SLP075 T02100200 IEM_DS3505
ZBAA,1996-09-11 14:00,ZBAA 111400Z AUTO 00000KT 1 1/4SM 22/22 A2977 RMK SLP086 T02200220 IEM_DS3505
ZBAA,1996-09-11 15:00,ZBAA 111500Z AUTO 07004G23KT 1SM 22/20 A2980 RMK SLP089 T02170200 52026 IEM_DS3505
ZBAA,1996-09-11 16:00,ZBAA 111600Z AUTO ////04KT 7SM 19/17 A2980 RMK SLP096 T01900170 IEM_DS3505
ZBAA,1996-09-11 18:00,ZBAA 111800Z AUTO 36006KT 7SM 19/16 A2978 RMK SLP090 T01910156 52001 IEM_DS3505
ZBAA,1996-09-11 20:00,ZBAA 112000Z AUTO ////02KT 7SM 18/17 A2977 RMK SLP087 T01800170 IEM_DS3505
ZBAA,1996-09-11 21:00,ZBAA 112100Z AUTO 04004KT 4SM 18/15 A2977 RMK SLP086 T01810152 57004 IEM_DS3505
ZBAA,1996-09-11 22:00,ZBAA 112200Z AUTO 00000KT 7SM 18/17 A2980 RMK SLP097 T01800170 IEM_DS3505
ZBAA,1996-09-11 23:00,ZBAA 112300Z AUTO 00000KT 7SM 18/18 A2980 RMK SLP097 T01800180 IEM_DS3505
ZBAA,1996-09-12 00:00,ZBAA 120000Z AUTO 00000KT 3SM 19/16 A2980 RMK SLP095 T01910159 52009 IEM_DS3505
ZBAA,1996-09-12 01:00,ZBAA 120100Z AUTO 00000KT 7SM 21/18 A2980 RMK SLP096 T02100180 IEM_DS3505
ZBAA,1996-09-12 02:00,ZBAA 120200Z AUTO ////04KT 7SM 21/18 A2980 RMK SLP096 T02100180 IEM_DS3505
ZBAA,1996-09-12 03:00,ZBAA 120300Z AUTO 11004KT 2SM 22/17 A2980 RMK SLP096 T02170174 52001 IEM_DS3505
ZBAA,1996-09-12 04:00,ZBAA 120400Z AUTO 11002KT 5SM 21/19 A2980 RMK SLP096 T02100190 IEM_DS3505
ZBAA,1996-09-12 05:00,ZBAA 120500Z AUTO ////02KT 2 1/2SM 21/20 A2980 RMK SLP096 T02100200 IEM_DS3505
ZBAA,1996-09-12 06:00,ZBAA 120600Z AUTO 16004KT 2SM 21/19 A2977 RMK SLP084 T02110189 57012 IEM_DS3505
ZBAA,1996-09-12 07:00,ZBAA 120700Z AUTO 18006KT 2 1/2SM 23/20 A2974 RMK SLP074 T02300200 IEM_DS3505
ZBAA,1996-09-12 11:00,ZBAA 121100Z AUTO ////04KT 2 1/2SM 21/21 A2977 RMK SLP086 T02100210 IEM_DS3505
ZBAA,1996-09-12 12:00,ZBAA 121200Z AUTO 16014KT 6SM 21/18 A2974 RMK 60004 SLP055 T02100185 57021 IEM_DS3505
ZBAA,1996-09-12 13:00,ZBAA 121300Z AUTO 04008KT 1 1/4SM 20/20 A2974 RMK SLP075 T02000200 IEM_DS3505
ZBAA,1996-09-12 14:00,ZBAA 121400Z AUTO ////04KT 1 1/4SM 20/20 A2977 RMK SLP086 T02000200 IEM_DS3505
ZBAA,1996-09-12 15:00,ZBAA 121500Z AUTO 00000KT 2SM 20/19 A2977 RMK SLP090 T02010192 52035 IEM_DS3505
ZBAA,1996-09-12 16:00,ZBAA 121600Z AUTO 00000KT 1SM 20/20 A2980 RMK SLP096 T02000200 IEM_DS3505
ZBAA,1996-09-12 17:00,ZBAA 121700Z AUTO 00000KT 1SM 20/20 A2980 RMK SLP096 T02000200 IEM_DS3505
ZBAA,1996-09-12 18:00,ZBAA 121800Z AUTO 00000KT 2SM 19/19 A2977 RMK SLP089 T01930188 57001 IEM_DS3505
ZBAA,1996-09-12 20:00,ZBAA 122000Z AUTO 00000KT 1SM 20/20 A2980 RMK SLP096 T02000200 IEM_DS3505
ZBAA,1996-09-12 21:00,ZBAA 122100Z AUTO 02004KT 2 1/2SM 19/18 A2980 RMK 70004 SLP095 T01940184 52006 IEM_DS3505
ZBAA,1996-09-12 22:00,ZBAA 122200Z AUTO ////02KT 1SM 19/19 A2983 RMK SLP106 T01900190 IEM_DS3505
ZBAA,1996-09-12 23:00,ZBAA 122300Z AUTO ////02KT 1SM 20/20 A2983 RMK SLP106 T02000200 IEM_DS3505
ZBAA,1996-09-13 00:00,ZBAA 130000Z AUTO 02004KT 1 1/4SM 20/19 A2983 RMK 60000 70004 SLP110 T02020191 52015 IEM_DS3505
ZBAA,1996-09-13 01:00,ZBAA 130100Z AUTO 04008KT 6SM 20/16 A2985 RMK SLP113 T02000160 IEM_DS3505
ZBAA,1996-09-13 02:00,ZBAA 130200Z AUTO 04008KT 7SM 21/14 A2988 RMK SLP123 T02100140 IEM_DS3505
ZBAA,1996-09-13 03:00,ZBAA 130300Z AUTO 07006KT 12SM 21/14 A2991 RMK SLP132 T02120138 52022 IEM_DS3505
ZBAA,1996-09-13 04:00,ZBAA 130400Z AUTO 12008KT 7SM 21/17 A2991 RMK SLP133 T02100170 IEM_DS3505
ZBAA,1996-09-13 05:00,ZBAA 130500Z AUTO 14008KT 7SM 19/16 A2991 RMK SLP134 T01900160 IEM_DS3505
ZBAA,1996-09-13 06:00,ZBAA 130600Z AUTO 16008KT 9SM 20/15 A2991 RMK SLP135 T02000153 52003 IEM_DS3505
ZBAA,1996-09-13 07:00,ZBAA 130700Z AUTO 14008KT 6SM 20/16 A2991 RMK SLP133 T02000160 IEM_DS3505
ZBAA,1996-09-13 08:00,ZBAA 130800Z AUTO 16008KT 7SM 19/15 A2991 RMK SLP134 T01900150 IEM_DS3505
ZBAA,1996-09-13 09:00,ZBAA 130900Z AUTO 16006KT 6SM 18/14 A2991 RMK SLP135 T01850140 57001 IEM_DS3505
ZBAA,1996-09-13 10:00,ZBAA 131000Z AUTO 16006KT 7SM 18/14 A2991 RMK SLP134 T01800140 IEM_DS3505
ZBAA,1996-09-13 11:00,ZBAA 131100Z AUTO 20006KT 7SM 17/14 A2991 RMK SLP134 T01700140 IEM_DS3505
ZBAA,1996-09-13 12:00,ZBAA 131200Z AUTO 20006KT 6SM 18/14 A2994 RMK SLP141 T01760139 52006 IEM_DS3505
ZBAA,1996-09-13 13:00,ZBAA 131300Z AUTO ////04KT 5SM 17/14 A2994 RMK SLP144 T01700140 IEM_DS3505
ZBAA,1996-09-13 14:00,ZBAA 131400Z AUTO ////04KT 5SM 17/15 A2994 RMK SLP144 T01700150 IEM_DS3505
ZBAA,1996-09-13 15:00,ZBAA 131500Z AUTO 20002KT 6SM 17/15 A2994 RMK SLP145 T01700148 52004 IEM_DS3505
ZBAA,1996-09-13 16:00,ZBAA 131600Z AUTO 00000KT 5SM 17/15 A2994 RMK SLP144 T01700150 IEM_DS3505
ZBAA,1996-09-13 17:00,ZBAA 131700Z AUTO 00000KT 5SM 17/14 A2994 RMK SLP144 T01700140 IEM_DS3505
ZBAA,1996-09-13 18:00,ZBAA 131800Z AUTO 20006KT 6SM 17/13 A2991 RMK SLP135 T01720129 57010 IEM_DS3505
ZBAA,1996-09-13 20:00,ZBAA 132000Z AUTO 02006KT 7SM 17/15 A2988 RMK SLP124 T01700150 IEM_DS3505
ZBAA,1996-09-13 21:00,ZBAA 132100Z AUTO 32004KT 5SM 15/14 A2985 RMK SLP119 T01540144 57016 IEM_DS3505
ZBAA,1996-09-13 22:00,ZBAA 132200Z AUTO 00000KT 7SM 16/14 A2985 RMK SLP114 T01600140 IEM_DS3505
ZBAA,1996-09-13 23:00,ZBAA 132300Z AUTO ////02KT 2 1/2SM 15/15 A2988 RMK SLP125 T01500150 IEM_DS3505
ZBAA,1996-09-14 00:00,ZBAA 140000Z AUTO ////02KT 1 1/2SM 15/15 A2988 RMK SLP125 T01500150 IEM_DS3505
ZBAA,1996-09-14 01:00,ZBAA 140100Z AUTO ////02KT 1 1/2SM 15/15 A2988 RMK SLP125 T01500150 IEM_DS3505
ZBAA,1996-09-14 02:00,ZBAA 140200Z AUTO ////04KT 1SM 15/15 A2988 RMK SLP125 T01500150 IEM_DS3505
ZBAA,1996-09-14 03:00,ZBAA 140300Z AUTO 04004KT 1SM 15/15 A2988 RMK SLP120 T01530148 54000 IEM_DS3505
ZBAA,1996-09-14 04:00,ZBAA 140400Z AUTO ////04KT 1 1/4SM 15/15 A2985 RMK SLP114 T01500150 IEM_DS3505
ZBAA,1996-09-14 06:00,ZBAA 140600Z AUTO 02006KT 1 1/4SM 16/15 A2983 RMK 60004 SLP109 T01610154 57011 IEM_DS3505
ZBAA,1996-09-14 07:00,ZBAA 140700Z AUTO ////04KT 1 1/2SM 16/16 A2983 RMK SLP107 T01600160 IEM_DS3505
ZBAA,1996-09-14 08:00,ZBAA 140800Z AUTO ////02KT 1 1/4SM 16/16 A2980 RMK SLP097 T01600160 IEM_DS3505
ZBAA,1996-09-14 09:00,ZBAA 140900Z AUTO 34002KT 1SM 16/16 A2980 RMK SLP098 T01600157 57011 IEM_DS3505
ZBAA,1996-09-14 10:00,ZBAA 141000Z AUTO 32004KT 1SM 16/16 A2983 RMK SLP107 T01600160 IEM_DS3505
ZBAA,1996-09-14 11:00,ZBAA 141100Z AUTO ////04KT 1 1/4SM 16/16 A2985 RMK SLP114 T01600160 IEM_DS3505
ZBAA,1996-09-14 12:00,ZBAA 141200Z AUTO 36006KT 6SM 16/16 A2978 RMK 60012 SLP090 T01610156 57008 IEM_DS3505
ZBAA,1996-09-14 13:00,ZBAA 141300Z AUTO 15006KT 3SM 16/16 A2980 RMK SLP097 T01600160 IEM_DS3505
ZBAA,1996-09-14 14:00,ZBAA 141400Z AUTO 16004KT 3SM 16/16 A2985 RMK SLP114 T01600160 IEM_DS3505
ZBAA,1996-09-14 15:00,ZBAA 141500Z AUTO 29004KT 8SM 16/16 A2983 RMK SLP105 T01610156 52015 IEM_DS3505
ZBAA,1996-09-14 16:00,ZBAA 141600Z AUTO ////04KT 2SM 16/16 A2983 RMK SLP107 T01600160 IEM_DS3505
ZBAA,1996-09-14 17:00,ZBAA 141700Z AUTO ////02KT 1 1/4SM 15/15 A2983 RMK SLP107 T01500150 IEM_DS3505
ZBAA,1996-09-14 18:00,ZBAA 141800Z AUTO 16004KT 5SM 15/15 A2983 RMK 60001 SLP105 T01540149 54000 IEM_DS3505
ZBAA,1996-09-14 20:00,ZBAA 142000Z AUTO 00000KT 1SM 15/15 A2983 RMK SLP107 T01500150 IEM_DS3505
ZBAA,1996-09-14 21:00,ZBAA 142100Z AUTO 00000KT 1SM 15/15 A2983 RMK 70028 SLP107 T01540151 52002 IEM_DS3505
ZBAA,1996-09-14 22:00,ZBAA 142200Z AUTO ////04KT 1/8SM 13/13 A2983 RMK SLP108 T01300130 IEM_DS3505
ZBAA,1996-09-14 23:00,ZBAA 142300Z AUTO ////04KT 1/8SM 14/14 A2985 RMK SLP115 T01400140 IEM_DS3505
ZBAA,1996-09-15 00:00,ZBAA 150000Z AUTO 00000KT 1 1/4SM 16/16 A2985 RMK 70020 SLP117 T01620157 52010 IEM_DS3505
ZBAA,1996-09-15 01:00,ZBAA 150100Z AUTO 32002KT 1SM 16/16 A2985 RMK SLP114 T01600160 IEM_DS3505
ZBAA,1996-09-15 02:00,ZBAA 150200Z AUTO 23004KT 1 1/2SM 18/18 A2988 RMK SLP124 T01800180 IEM_DS3505
ZBAA,1996-09-15 03:00,ZBAA 150300Z AUTO 34004KT 4SM 21/16 A2988 RMK SLP123 T02080158 52006 IEM_DS3505
ZBAA,1996-09-15 04:00,ZBAA 150400Z AUTO ////04KT 5SM 22/20 A2985 RMK SLP113 T02200200 IEM_DS3505
ZBAA,1996-09-15 05:00,ZBAA 150500Z AUTO 00000KT 5SM 23/20 A2983 RMK SLP106 T02300200 IEM_DS3505
ZBAA,1996-09-15 06:00,ZBAA 150600Z AUTO 34002KT 5SM 24/17 A2983 RMK SLP107 T02370168 57015 IEM_DS3505
ZBAA,1996-09-15 07:00,ZBAA 150700Z AUTO ////04KT 5SM 24/20 A2983 RMK SLP105 T02400200 IEM_DS3505
ZBAA,1996-09-15 08:00,ZBAA 150800Z AUTO ////04KT 5SM 24/20 A2983 RMK SLP105 T02400200 IEM_DS3505
ZBAA,1996-09-15 09:00,ZBAA 150900Z AUTO 20006KT 6SM 22/18 A2983 RMK SLP105 T02250179 57002 IEM_DS3505
ZBAA,1996-09-15 10:00,ZBAA 151000Z AUTO 17004KT 1 1/2SM 21/19 A2983 RMK SLP106 T02100190 IEM_DS3505
ZBAA,1996-09-15 11:00,ZBAA 151100Z AUTO 00000KT 1 1/4SM 20/19 A2985 RMK SLP113 T02000190 IEM_DS3505
ZBAA,1996-09-15 12:00,ZBAA 151200Z AUTO 14002KT 3SM 20/18 A2985 RMK SLP112 T02020183 52006 IEM_DS3505
ZBAA,1996-09-15 13:00,ZBAA 151300Z AUTO 21004KT 1SM 19/19 A2988 RMK SLP124 T01900190 IEM_DS3505
ZBAA,1996-09-15 14:00,ZBAA 151400Z AUTO 09002KT 1SM 18/18 A2988 RMK SLP124 T01800180 IEM_DS3505
ZBAA,1996-09-15 15:00,ZBAA 151500Z AUTO 04006KT 2 1/2SM 19/18 A2988 RMK SLP122 T01940181 52011 IEM_DS3505
ZBAA,1996-09-15 16:00,ZBAA 151600Z AUTO 00000KT 3/8SM 19/19 A2988 RMK SLP124 T01900190 IEM_DS3505
ZBAA,1996-09-15 17:00,ZBAA 151700Z AUTO 03002KT 1/8SM 18/18 A2988 RMK SLP124 T01800180 IEM_DS3505
ZBAA,1996-09-15 18:00,ZBAA 151800Z AUTO 20004KT 3SM 19/18 A2991 RMK SLP133 T01890178 52011 IEM_DS3505
ZBAA,1996-09-15 19:00,ZBAA 151900Z AUTO ////02KT 1/2SM 18/18 A2991 RMK SLP134 T01800180 IEM_DS3505
ZBAA,1996-09-15 20:00,ZBAA 152000Z AUTO 04004KT 1SM 18/18 A2988 RMK SLP124 T01800180 IEM_DS3505
ZBAA,1996-09-15 21:00,ZBAA 152100Z AUTO 04002KT 1SM 18/18 A2991 RMK SLP131 T01840178 57002 IEM_DS3505
ZBAA,1996-09-15 22:00,ZBAA 152200Z AUTO 31004KT 1SM 17/17 A2991 RMK SLP134 T01700170 IEM_DS3505
ZBAA,1996-09-15 23:00,ZBAA 152300Z AUTO 34006KT 4SM 18/17 A2994 RMK SLP144 T01800170 IEM_DS3505
ZBAA,1996-09-16 00:00,ZBAA 160000Z AUTO 00000KT 1SM 19/18 A2994 RMK SLP149 T01930183 52017 IEM_DS3505
ZBAA,1996-09-16 01:00,ZBAA 160100Z AUTO 34006KT 7SM 19/16 A2997 RMK SLP154 T01900160 IEM_DS3505
ZBAA,1996-09-16 02:00,ZBAA 160200Z AUTO ////04KT 7SM 21/17 A2997 RMK SLP153 T02100170 IEM_DS3505
ZBAA,1996-09-16 03:00,ZBAA 160300Z AUTO 20004KT 3SM 23/17 A2997 RMK SLP151 T02300172 52003 IEM_DS3505
ZBAA,1996-09-16 04:00,ZBAA 160400Z AUTO ////02KT 7SM 24/18 A2997 RMK SLP153 T02400180 IEM_DS3505
ZBAA,1996-09-16 05:00,ZBAA 160500Z AUTO ////02KT 7SM 25/18 A2991 RMK SLP132 T02500180 IEM_DS3505
ZBAA,1996-09-16 06:00,ZBAA 160600Z AUTO 25004KT 7SM 25/16 A2991 RMK SLP132 T02540164 57019 IEM_DS3505
ZBAA,1996-09-16 07:00,ZBAA 160700Z AUTO ////04KT 6SM 26/18 A2988 RMK SLP122 T02600180 IEM_DS3505
ZBAA,1996-09-16 08:00,ZBAA 160800Z AUTO 17006KT 6SM 26/17 A2988 RMK SLP122 T02600170 IEM_DS3505
ZBAA,1996-09-16 09:00,ZBAA 160900Z AUTO 20006KT 6SM 25/16 A2988 RMK SLP124 T02470163 57008 IEM_DS3505
ZBAA,1996-09-16 10:00,ZBAA 161000Z AUTO 16002KT 6SM 23/17 A2988 RMK SLP123 T02300170 IEM_DS3505
ZBAA,1996-09-16 11:00,ZBAA 161100Z AUTO 18004KT 6SM 22/17 A2988 RMK SLP123 T02200170 IEM_DS3505
ZBAA,1996-09-16 12:00,ZBAA 161200Z AUTO 20006KT 6SM 22/17 A2991 RMK SLP127 T02220170 52003 IEM_DS3505
ZBAA,1996-09-16 13:00,ZBAA 161300Z AUTO ////02KT 6SM 21/18 A2988 RMK SLP123 T02100180 IEM_DS3505
ZBAA,1996-09-16 14:00,ZBAA 161400Z AUTO ////02KT 6SM 21/17 A2991 RMK SLP133 T02100170 IEM_DS3505
ZBAA,1996-09-16 15:00,ZBAA 161500Z AUTO 20010KT 7SM 20/17 A2991 RMK SLP134 T02030170 52007 IEM_DS3505
ZBAA,1996-09-16 18:00,ZBAA 161800Z AUTO 20006KT 6SM 19/17 A2990 RMK SLP131 T01910173 57003 IEM_DS3505
ZBAA,1996-09-16 21:00,ZBAA 162100Z AUTO 18004KT 6SM 19/17 A2991 RMK SLP129 T01870169 57002 IEM_DS3505
ZBAA,1996-09-16 22:00,ZBAA 162200Z AUTO ////02KT 2 1/2SM 18/17 A2988 RMK SLP124 T01800170 IEM_DS3505
ZBAA,1996-09-16 23:00,ZBAA 162300Z AUTO 00000KT 3SM 18/17 A2988 RMK SLP124 T01800170 IEM_DS3505
ZBAA,1996-09-17 00:00,ZBAA 170000Z AUTO 20002KT 4SM 19/17 A2988 RMK SLP128 T01900170 57001 IEM_DS3505
ZBAA,1996-09-17 01:00,ZBAA 170100Z AUTO 14006KT 4SM 19/18 A2991 RMK SLP134 T01900180 IEM_DS3505
ZBAA,1996-09-17 02:00,ZBAA 170200Z AUTO ////04KT 5SM 22/18 A2991 RMK SLP133 T02200180 IEM_DS3505
ZBAA,1996-09-17 03:00,ZBAA 170300Z AUTO 20010KT 7SM 24/13 A2988 RMK SLP127 T02370129 57001 IEM_DS3505
ZBAA,1996-09-17 04:00,ZBAA 170400Z AUTO 19008KT 6SM 24/14 A2988 RMK SLP123 T02400140 IEM_DS3505
ZBAA,1996-09-17 05:00,ZBAA 170500Z AUTO 19010KT 6SM 25/14 A2985 RMK SLP112 T02500140 IEM_DS3505
ZBAA,1996-09-17 06:00,ZBAA 170600Z AUTO 20012KT 12SM 26/12 A2983 RMK SLP105 T02550115 57022 IEM_DS3505
ZBAA,1996-09-17 07:00,ZBAA 170700Z AUTO 18010KT 7SM 26/13 A2980 RMK SLP095 T02600130 IEM_DS3505
ZBAA,1996-09-17 08:00,ZBAA 170800Z AUTO 17010KT 7SM 25/14 A2980 RMK SLP095 T02500140 IEM_DS3505
ZBAA,1996-09-17 09:00,ZBAA 170900Z AUTO 18010KT 16SM 25/12 A2977 RMK SLP091 T02480115 57014 IEM_DS3505
ZBAA,1996-09-17 10:00,ZBAA 171000Z AUTO 18006KT 6SM 23/13 A2977 RMK SLP085 T02300130 IEM_DS3505
ZBAA,1996-09-17 11:00,ZBAA 171100Z AUTO ////04KT 6SM 22/14 A2977 RMK SLP086 T02200140 IEM_DS3505
ZBAA,1996-09-17 12:00,ZBAA 171200Z AUTO 20010KT 19SM 22/12 A2977 RMK SLP090 T02160119 57001 IEM_DS3505
ZBAA,1996-09-17 13:00,ZBAA 171300Z AUTO 18006KT 6SM 20/15 A2980 RMK SLP096 T02000150 IEM_DS3505
ZBAA,1996-09-17 14:00,ZBAA 171400Z AUTO ////02KT 5SM 19/15 A2980 RMK SLP096 T01900150 IEM_DS3505
ZBAA,1996-09-17 15:00,ZBAA 171500Z AUTO 20006KT 19SM 19/12 A2980 RMK SLP091 T01930120 52001 IEM_DS3505
ZBAA,1996-09-17 16:00,ZBAA 171600Z AUTO ////02KT 5SM 18/15 A2980 RMK SLP097 T01800150 IEM_DS3505
ZBAA,1996-09-17 18:00,ZBAA 171800Z AUTO 00000KT 6SM 17/14 A2978 RMK SLP089 T01730136 57002 IEM_DS3505
ZBAA,1996-09-17 20:00,ZBAA 172000Z AUTO 10002KT 6SM 16/15 A2977 RMK SLP087 T01600150 IEM_DS3505
ZBAA,1996-09-17 21:00,ZBAA 172100Z AUTO 04004KT 5SM 17/15 A2977 RMK SLP081 T01700148 57008 IEM_DS3505
ZBAA,1996-09-17 22:00,ZBAA 172200Z AUTO 00000KT 5SM 16/15 A2977 RMK SLP087 T01600150 IEM_DS3505
ZBAA,1996-09-17 23:00,ZBAA 172300Z AUTO 00000KT 4SM 16/16 A2980 RMK SLP097 T01600160 IEM_DS3505
ZBAA,1996-09-18 00:00,ZBAA 180000Z AUTO 34002KT 2 1/2SM 18/15 A2980 RMK SLP092 T01780151 52011 IEM_DS3505
ZBAA,1996-09-18 01:00,ZBAA 180100Z AUTO ////04KT 2 1/2SM 18/16 A2980 RMK SLP097 T01800160 IEM_DS3505
ZBAA,1996-09-18 02:00,ZBAA 180200Z AUTO ////02KT 2 1/2SM 19/17 A2980 RMK SLP096 T01900170 IEM_DS3505
ZBAA,1996-09-18 03:00,ZBAA 180300Z AUTO 07002KT 4SM 21/16 A2980 RMK SLP092 T02090156 54000 IEM_DS3505
ZBAA,1996-09-18 04:00,ZBAA 180400Z AUTO ////04KT 3SM 22/18 A2977 RMK SLP086 T02200180 IEM_DS3505
ZBAA,1996-09-18 05:00,ZBAA 180500Z AUTO ////02KT 4SM 22/18 A2977 RMK SLP086 T02200180 IEM_DS3505
ZBAA,1996-09-18 06:00,ZBAA 180600Z AUTO 22004KT 4SM 25/15 A2974 RMK SLP080 T02460154 57012 IEM_DS3505
ZBAA,1996-09-18 07:00,ZBAA 180700Z AUTO 20006KT 5SM 24/18 A2974 RMK SLP074 T02400180 IEM_DS3505
ZBAA,1996-09-18 08:00,ZBAA 180800Z AUTO 17006KT 4SM 23/18 A2971 RMK SLP064 T02300180 IEM_DS3505
ZBAA,1996-09-18 09:00,ZBAA 180900Z AUTO 27004KT 4SM 24/16 A2974 RMK SLP072 T02370164 57008 IEM_DS3505
ZBAA,1996-09-18 10:00,ZBAA 181000Z AUTO 15002KT 4SM 21/20 A2971 RMK SLP065 T02100200 IEM_DS3505
ZBAA,1996-09-18 11:00,ZBAA 181100Z AUTO 32004KT 4SM 21/19 A2974 RMK SLP075 T02100190 IEM_DS3505
ZBAA,1996-09-18 12:00,ZBAA 181200Z AUTO 27002KT 5SM 18/17 A2974 RMK 60028 SLP078 T01840173 52006 IEM_DS3505
ZBAA,1996-09-18 13:00,ZBAA 181300Z AUTO 32004KT 2SM 19/18 A2974 RMK SLP075 T01900180 IEM_DS3505
ZBAA,1996-09-18 14:00,ZBAA 181400Z AUTO 25002KT 1 1/4SM 18/18 A2977 RMK SLP087 T01800180 IEM_DS3505
ZBAA,1996-09-18 15:00,ZBAA 181500Z AUTO 00000KT 2 1/2SM 18/17 A2974 RMK SLP079 T01770170 52001 IEM_DS3505
ZBAA,1996-09-18 16:00,ZBAA 181600Z AUTO ////02KT 1/4SM 18/18 A2974 RMK SLP076 T01800180 IEM_DS3505
ZBAA,1996-09-18 18:00,ZBAA 181800Z AUTO 00000KT 1 1/4SM 17/16 A2974 RMK SLP074 T01700163 57005 IEM_DS3505
ZBAA,1996-09-18 20:00,ZBAA 182000Z AUTO 00000KT 1/8SM 16/16 A2977 RMK SLP087 T01600160 IEM_DS3505
ZBAA,1996-09-18 21:00,ZBAA 182100Z AUTO 32004KT 7SM 16/15 A2980 RMK 70028 SLP099 T01560146 52018 IEM_DS3505
ZBAA,1996-09-18 22:00,ZBAA 182200Z AUTO 00000KT 1/2SM 15/14 A2983 RMK SLP107 T01500140 IEM_DS3505
ZBAA,1996-09-18 23:00,ZBAA 182300Z AUTO 29006KT 7SM 17/09 A2983 RMK SLP107 T01700090 IEM_DS3505
ZBAA,1996-09-19 00:00,ZBAA 190000Z AUTO 32012KT 19SM 20/03 A2985 RMK 70028 SLP120 T01990032 52021 IEM_DS3505
ZBAA,1996-09-19 01:00,ZBAA 190100Z AUTO 32008KT 19SM 20/03 A2988 RMK 70028 SLP120 T01990032 52021 IEM_DS3505
ZBAA,1996-09-19 02:00,ZBAA 190200Z AUTO 33012KT 7SM 22/01 A2988 RMK SLP123 T02200010 IEM_DS3505
ZBAA,1996-09-19 03:00,ZBAA 190300Z AUTO 02010KT 19SM 22/M03 A2988 RMK SLP132 T02221027 52012 IEM_DS3505
ZBAA,1996-09-19 04:00,ZBAA 190400Z AUTO 31012KT 6SM 23/00 A2988 RMK SLP123 T02300000 IEM_DS3505
ZBAA,1996-09-19 05:00,ZBAA 190500Z AUTO 32012KT 6SM 24/02 A2988 RMK SLP123 T02400020 IEM_DS3505
ZBAA,1996-09-19 06:00,ZBAA 190600Z AUTO 29008KT 19SM 24/00 A2988 RMK SLP126 T02400005 57006 IEM_DS3505
ZBAA,1996-09-19 07:00,ZBAA 190700Z AUTO 33010KT 6SM 25/03 A2985 RMK SLP112 T02500030 IEM_DS3505
ZBAA,1996-09-19 08:00,ZBAA 190800Z AUTO 33010KT 6SM 24/03 A2985 RMK SLP112 T02400030 IEM_DS3505
ZBAA,1996-09-19 09:00,ZBAA 190900Z AUTO 32008KT 19SM 24/01 A2985 RMK SLP122 T02350014 57004 IEM_DS3505
ZBAA,1996-09-19 10:00,ZBAA 191000Z AUTO 34006KT 6SM 22/04 A2988 RMK SLP123 T02200040 IEM_DS3505
ZBAA,1996-09-19 11:00,ZBAA 191100Z AUTO 34006KT 6SM 20/03 A2991 RMK SLP133 T02000030 IEM_DS3505
ZBAA,1996-09-19 12:00,ZBAA 191200Z AUTO 04002KT 12SM 20/03 A2991 RMK SLP139 T01950029 52017 IEM_DS3505
ZBAA,1996-09-19 13:00,ZBAA 191300Z AUTO 35006KT 6SM 18/02 A2994 RMK SLP144 T01800020 IEM_DS3505
ZBAA,1996-09-19 14:00,ZBAA 191400Z AUTO 01004KT 6SM 16/03 A2997 RMK SLP154 T01600030 IEM_DS3505
ZBAA,1996-09-19 15:00,ZBAA 191500Z AUTO 36002KT 12SM 14/08 A2997 RMK SLP157 T01360082 52017 IEM_DS3505
ZBAA,1996-09-19 18:00,ZBAA 191800Z AUTO 00000KT 12SM 12/08 A2999 RMK SLP162 T01180084 52005 IEM_DS3505
ZBAA,1996-09-19 21:00,ZBAA 192100Z AUTO 00000KT 6SM 11/08 A3003 RMK SLP169 T01100079 52007 IEM_DS3505
ZBAA,1996-09-19 22:00,ZBAA 192200Z AUTO 00000KT 7SM 11/07 A3003 RMK SLP176 T01100070 IEM_DS3505
ZBAA,1996-09-19 23:00,ZBAA 192300Z AUTO 00000KT 7SM 13/07 A3006 RMK SLP185 T01300070 IEM_DS3505
ZBAA,1996-09-20 00:00,ZBAA 200000Z AUTO 00000KT 11SM 16/08 A3006 RMK SLP181 T01580076 52012 IEM_DS3505
ZBAA,1996-09-20 01:00,ZBAA 200100Z AUTO ////04KT 7SM 16/09 A3006 RMK SLP185 T01600090 IEM_DS3505
ZBAA,1996-09-20 02:00,ZBAA 200200Z AUTO ////02KT 7SM 19/09 A3006 RMK SLP184 T01900090 IEM_DS3505
ZBAA,1996-09-20 03:00,ZBAA 200300Z AUTO 20006KT 7SM 22/04 A3003 RMK SLP176 T02250039 57005 IEM_DS3505
ZBAA,1996-09-20 04:00,ZBAA 200400Z AUTO ////02KT 7SM 22/07 A3000 RMK SLP163 T02200070 IEM_DS3505
ZBAA,1996-09-20 05:00,ZBAA 200500Z AUTO 23006KT 6SM 25/06 A2997 RMK SLP152 T02500060 IEM_DS3505
ZBAA,1996-09-20 06:00,ZBAA 200600Z AUTO 25008KT 12SM 25/06 A2994 RMK SLP148 T02470056 57028 IEM_DS3505
ZBAA,1996-09-20 07:00,ZBAA 200700Z AUTO 23008KT 6SM 26/06 A2991 RMK SLP132 T02600060 IEM_DS3505
ZBAA,1996-09-20 08:00,ZBAA 200800Z AUTO 20010KT 6SM 25/07 A2991 RMK SLP132 T02500070 IEM_DS3505
ZBAA,1996-09-20 09:00,ZBAA 200900Z AUTO 20008KT 11SM 25/06 A2991 RMK SLP134 T02490059 57014 IEM_DS3505
ZBAA,1996-09-20 10:00,ZBAA 201000Z AUTO ////04KT 6SM 22/08 A2991 RMK SLP133 T02200080 IEM_DS3505
ZBAA,1996-09-20 11:00,ZBAA 201100Z AUTO ////04KT 6SM 20/09 A2991 RMK SLP133 T02000090 IEM_DS3505
ZBAA,1996-09-20 12:00,ZBAA 201200Z AUTO 20008KT 12SM 21/08 A2991 RMK SLP135 T02070081 52001 IEM_DS3505
ZBAA,1996-09-20 13:00,ZBAA 201300Z AUTO ////02KT 7SM 18/10 A2991 RMK SLP134 T01800100 IEM_DS3505
ZBAA,1996-09-20 14:00,ZBAA 201400Z AUTO ////02KT 7SM 16/11 A2991 RMK SLP134 T01600110 IEM_DS3505
ZBAA,1996-09-20 15:00,ZBAA 201500Z AUTO 00000KT 12SM 16/12 A2991 RMK SLP137 T01610115 52002 IEM_DS3505
ZBAA,1996-09-20 18:00,ZBAA 201800Z AUTO 00000KT 7SM 14/11 A2993 RMK SLP139 T01450113 52002 IEM_DS3505
ZBAA,1996-09-20 21:00,ZBAA 202100Z AUTO 04004KT 9SM 14/10 A2992 RMK SLP137 T01440104 57001 IEM_DS3505
ZBAA,1996-09-20 22:00,ZBAA 202200Z AUTO 00000KT 4SM 12/11 A2991 RMK SLP135 T01200110 IEM_DS3505
ZBAA,1996-09-20 23:00,ZBAA 202300Z AUTO 00000KT 4SM 13/11 A2991 RMK SLP135 T01300110 IEM_DS3505
ZBAA,1996-09-21 00:00,ZBAA 210000Z AUTO 04006KT 6SM 17/10 A2994 RMK SLP142 T01660100 52004 IEM_DS3505
ZBAA,1996-09-21 01:00,ZBAA 210100Z AUTO ////02KT 5SM 17/12 A2994 RMK SLP144 T01700120 IEM_DS3505
ZBAA,1996-09-21 02:00,ZBAA 210200Z AUTO ////04KT 7SM 20/12 A2991 RMK SLP133 T02000120 IEM_DS3505
ZBAA,1996-09-21 03:00,ZBAA 210300Z AUTO 09004KT 19SM 22/11 A2991 RMK SLP134 T02230108 57008 IEM_DS3505
ZBAA,1996-09-21 04:00,ZBAA 210400Z AUTO ////04KT 7SM 23/13 A2988 RMK SLP123 T02300130 IEM_DS3505
ZBAA,1996-09-21 05:00,ZBAA 210500Z AUTO ////04KT 7SM 24/13 A2985 RMK SLP112 T02400130 IEM_DS3505
ZBAA,1996-09-21 06:00,ZBAA 210600Z AUTO 11002KT 19SM 26/11 A2983 RMK SLP107 T02550113 57026 IEM_DS3505
ZBAA,1996-09-21 07:00,ZBAA 210700Z AUTO 17004KT 6SM 25/13 A2983 RMK SLP105 T02500130 IEM_DS3505
ZBAA,1996-09-21 08:00,ZBAA 210800Z AUTO 18002KT 7SM 26/14 A2980 RMK SLP095 T02600140 IEM_DS3505
ZBAA,1996-09-21 09:00,ZBAA 210900Z AUTO 20006KT 10SM 26/12 A2980 RMK SLP099 T02560117 57008 IEM_DS3505
ZBAA,1996-09-21 10:00,ZBAA 211000Z AUTO 14002KT 7SM 23/14 A2980 RMK SLP096 T02300140 IEM_DS3505
ZBAA,1996-09-21 11:00,ZBAA 211100Z AUTO 10002KT 5SM 21/15 A2983 RMK SLP106 T02100150 IEM_DS3505
ZBAA,1996-09-21 12:00,ZBAA 211200Z AUTO 00000KT 2 1/2SM 20/15 A2983 RMK SLP105 T02010152 52005 IEM_DS3505
ZBAA,1996-09-21 13:00,ZBAA 211300Z AUTO 00000KT 4SM 19/16 A2985 RMK SLP114 T01900160 IEM_DS3505
ZBAA,1996-09-21 14:00,ZBAA 211400Z AUTO 05002KT 2 1/2SM 19/16 A2985 RMK SLP114 T01900160 IEM_DS3505
ZBAA,1996-09-21 15:00,ZBAA 211500Z AUTO 02002KT 4SM 19/15 A2985 RMK SLP113 T01880147 52009 IEM_DS3505
ZBAA,1996-09-21 16:00,ZBAA 211600Z AUTO ////02KT 2 1/2SM 17/15 A2985 RMK SLP114 T01700150 IEM_DS3505
ZBAA,1996-09-21 17:00,ZBAA 211700Z AUTO 01002KT 2 1/2SM 17/14 A2985 RMK SLP114 T01700140 IEM_DS3505
ZBAA,1996-09-21 18:00,ZBAA 211800Z AUTO 00000KT 2 1/2SM 16/14 A2983 RMK SLP108 T01630142 57005 IEM_DS3505
ZBAA,1996-09-21 21:00,ZBAA 212100Z AUTO 04004KT 2SM 15/14 A2983 RMK SLP107 T01500138 57001 IEM_DS3505
ZBAA,1996-09-21 22:00,ZBAA 212200Z AUTO ////04KT 4SM 15/14 A2985 RMK SLP114 T01500140 IEM_DS3505
ZBAA,1996-09-21 23:00,ZBAA 212300Z AUTO ////04KT 4SM 16/14 A2985 RMK SLP114 T01600140 IEM_DS3505
ZBAA,1996-09-22 00:00,ZBAA 220000Z AUTO 00000KT 2 1/2SM 17/14 A2985 RMK SLP117 T01690139 52009 IEM_DS3505
ZBAA,1996-09-22 01:00,ZBAA 220100Z AUTO 34004KT 4SM 20/15 A2988 RMK SLP123 T02000150 IEM_DS3505
ZBAA,1996-09-22 03:00,ZBAA 220300Z AUTO 00000KT 4SM 25/14 A2985 RMK SLP116 T02530139 54000 IEM_DS3505
ZBAA,1996-09-22 04:00,ZBAA 220400Z AUTO ////02KT 7SM 26/16 A2983 RMK SLP105 T02600160 IEM_DS3505
ZBAA,1996-09-22 05:00,ZBAA 220500Z AUTO ////04KT 7SM 28/15 A2980 RMK SLP095 T02800150 IEM_DS3505
ZBAA,1996-09-22 06:00,ZBAA 220600Z AUTO 27004KT 7SM 29/14 A2980 RMK SLP094 T02900140 IEM_DS3505
ZBAA,1996-09-22 07:00,ZBAA 220700Z AUTO 24006KT 7SM 31/12 A2977 RMK SLP084 T03100120 IEM_DS3505
ZBAA,1996-09-22 08:00,ZBAA 220800Z AUTO 22006KT 7SM 31/13 A2977 RMK SLP084 T03100130 IEM_DS3505
ZBAA,1996-09-22 09:00,ZBAA 220900Z AUTO 20008KT 6SM 29/15 A2977 RMK SLP084 T02890149 57008 IEM_DS3505
ZBAA,1996-09-22 10:00,ZBAA 221000Z AUTO 21006KT 4SM 26/17 A2977 RMK SLP085 T02600170 IEM_DS3505
ZBAA,1996-09-22 11:00,ZBAA 221100Z AUTO 22008KT 6SM 25/16 A2977 RMK SLP085 T02500160 IEM_DS3505
ZBAA,1996-09-22 12:00,ZBAA 221200Z AUTO 25004KT 6SM 25/16 A2980 RMK SLP096 T02510158 52012 IEM_DS3505
ZBAA,1996-09-22 13:00,ZBAA 221300Z AUTO 00000KT 5SM 22/18 A2983 RMK SLP106 T02200180 IEM_DS3505
ZBAA,1996-09-22 14:00,ZBAA 221400Z AUTO ////02KT 2 1/2SM 20/18 A2983 RMK SLP106 T02000180 IEM_DS3505
ZBAA,1996-09-22 15:00,ZBAA 221500Z AUTO 04002KT 5SM 20/14 A2983 RMK SLP106 T02030145 52010 IEM_DS3505
ZBAA,1996-09-22 16:00,ZBAA 221600Z AUTO 00000KT 4SM 19/16 A2983 RMK SLP106 T01900160 IEM_DS3505
ZBAA,1996-09-22 17:00,ZBAA 221700Z AUTO ////04KT 4SM 18/16 A2983 RMK SLP107 T01800160 IEM_DS3505
ZBAA,1996-09-22 18:00,ZBAA 221800Z AUTO 36002KT 6SM 17/14 A2983 RMK SLP106 T01720144 52001 IEM_DS3505
ZBAA,1996-09-22 21:00,ZBAA 222100Z AUTO 07004KT 9SM 17/10 A2983 RMK SLP110 T01720099 52003 IEM_DS3505
ZBAA,1996-09-22 22:00,ZBAA 222200Z AUTO 34006KT 7SM 16/13 A2983 RMK SLP107 T01600130 IEM_DS3505
ZBAA,1996-09-22 23:00,ZBAA 222300Z AUTO 35006KT 6SM 16/14 A2985 RMK SLP114 T01600140 IEM_DS3505
ZBAA,1996-09-23 00:00,ZBAA 230000Z AUTO 02004KT 6SM 20/13 A2985 RMK SLP116 T01970131 52006 IEM_DS3505
ZBAA,1996-09-23 01:00,ZBAA 230100Z AUTO 01004KT 6SM 21/14 A2985 RMK SLP113 T02100140 IEM_DS3505
ZBAA,1996-09-23 02:00,ZBAA 230200Z AUTO 03002KT 6SM 23/14 A2985 RMK SLP113 T02300140 IEM_DS3505
ZBAA,1996-09-23 03:00,ZBAA 230300Z AUTO 20004KT 4SM 27/10 A2985 RMK SLP117 T02690100 52001 IEM_DS3505
ZBAA,1996-09-23 04:00,ZBAA 230400Z AUTO ////04KT 6SM 28/14 A2985 RMK SLP112 T02800140 IEM_DS3505
ZBAA,1996-09-23 05:00,ZBAA 230500Z AUTO 20004KT 7SM 29/14 A2983 RMK SLP104 T02900140 IEM_DS3505
ZBAA,1996-09-23 06:00,ZBAA 230600Z AUTO 20006KT 6SM 30/12 A2980 RMK SLP093 T03050119 57023 IEM_DS3505
ZBAA,1996-09-23 07:00,ZBAA 230700Z AUTO 19008KT 4SM 30/14 A2977 RMK SLP084 T03000140 IEM_DS3505
ZBAA,1996-09-23 08:00,ZBAA 230800Z AUTO 17006KT 5SM 30/15 A2977 RMK SLP084 T03000150 IEM_DS3505
ZBAA,1996-09-23 09:00,ZBAA 230900Z AUTO 22008KT 5SM 30/15 A2977 RMK SLP088 T02950151 57005 IEM_DS3505
ZBAA,1996-09-23 10:00,ZBAA 231000Z AUTO 14002KT 6SM 27/16 A2980 RMK SLP095 T02700160 IEM_DS3505
ZBAA,1996-09-23 11:00,ZBAA 231100Z AUTO 11002KT 5SM 24/17 A2980 RMK SLP095 T02400170 IEM_DS3505
ZBAA,1996-09-23 12:00,ZBAA 231200Z AUTO 00000KT 2 1/2SM 24/18 A2983 RMK SLP099 T02350180 52010 IEM_DS3505
ZBAA,1996-09-23 13:00,ZBAA 231300Z AUTO 00000KT 4SM 22/18 A2983 RMK SLP106 T02200180 IEM_DS3505
ZBAA,1996-09-23 14:00,ZBAA 231400Z AUTO 09002KT 4SM 21/18 A2983 RMK SLP106 T02100180 IEM_DS3505
ZBAA,1996-09-23 15:00,ZBAA 231500Z AUTO 07002KT 4SM 22/16 A2983 RMK SLP106 T02220165 52008 IEM_DS3505
ZBAA,1996-09-23 16:00,ZBAA 231600Z AUTO 02002KT 3SM 20/17 A2985 RMK SLP113 T02000170 IEM_DS3505
ZBAA,1996-09-23 18:00,ZBAA 231800Z AUTO 09002KT 3SM 21/16 A2985 RMK SLP113 T02060161 52007 IEM_DS3505
ZBAA,1996-09-23 20:00,ZBAA 232000Z AUTO 00000KT 2SM 17/16 A2985 RMK SLP114 T01700160 IEM_DS3505
ZBAA,1996-09-23 21:00,ZBAA 232100Z AUTO 00000KT 2 1/2SM 18/16 A2988 RMK SLP123 T01750162 52009 IEM_DS3505
ZBAA,1996-09-23 22:00,ZBAA 232200Z AUTO 00000KT 1 1/4SM 17/16 A2988 RMK SLP124 T01700160 IEM_DS3505
ZBAA,1996-09-23 23:00,ZBAA 232300Z AUTO 04002KT 1SM 17/17 A2991 RMK SLP134 T01700170 IEM_DS3505
ZBAA,1996-09-24 00:00,ZBAA 240000Z AUTO 02002KT 2SM 20/16 A2994 RMK SLP140 T01950165 52017 IEM_DS3505
ZBAA,1996-09-24 01:00,ZBAA 240100Z AUTO 02002KT 1SM 20/19 A2997 RMK SLP154 T02000190 IEM_DS3505
ZBAA,1996-09-24 02:00,ZBAA 240200Z AUTO ////04KT 1 1/4SM 21/20 A2997 RMK SLP153 T02100200 IEM_DS3505
ZBAA,1996-09-24 03:00,ZBAA 240300Z AUTO 07006KT 1 1/4SM 22/18 A2997 RMK SLP151 T02180180 52011 IEM_DS3505
ZBAA,1996-09-24 04:00,ZBAA 240400Z AUTO 12006KT 2SM 24/20 A2994 RMK SLP143 T02400200 IEM_DS3505
ZBAA,1996-09-24 05:00,ZBAA 240500Z AUTO 12006KT 2 1/2SM 24/19 A2994 RMK SLP143 T02400190 IEM_DS3505
ZBAA,1996-09-24 06:00,ZBAA 240600Z AUTO 11002KT 1 1/4SM 23/18 A2991 RMK SLP137 T02280180 57014 IEM_DS3505
ZBAA,1996-09-24 07:00,ZBAA 240700Z AUTO 14006KT 3SM 26/19 A2988 RMK SLP122 T02600190 IEM_DS3505
ZBAA,1996-09-24 08:00,ZBAA 240800Z AUTO 11004KT 4SM 26/19 A2988 RMK SLP122 T02600190 IEM_DS3505
ZBAA,1996-09-24 09:00,ZBAA 240900Z AUTO 34004KT 2SM 25/19 A2988 RMK SLP131 T02470186 57006 IEM_DS3505
ZBAA,1996-09-24 10:00,ZBAA 241000Z AUTO ////02KT 4SM 23/19 A2988 RMK SLP123 T02300190 IEM_DS3505
ZBAA,1996-09-24 11:00,ZBAA 241100Z AUTO 30008KT 4SM 23/19 A2997 RMK SLP153 T02300190 IEM_DS3505
ZBAA,1996-09-24 12:00,ZBAA 241200Z AUTO 18002KT 2 1/2SM 23/19 A2994 RMK SLP149 T02270189 52018 IEM_DS3505
ZBAA,1996-09-24 13:00,ZBAA 241300Z AUTO 07006KT 1 1/2SM 22/20 A2994 RMK SLP143 T02200200 IEM_DS3505
ZBAA,1996-09-24 14:00,ZBAA 241400Z AUTO ////04KT 2SM 22/19 A2997 RMK SLP153 T02200190 IEM_DS3505
ZBAA,1996-09-24 15:00,ZBAA 241500Z AUTO 07006KT 2 1/2SM 22/19 A3000 RMK SLP161 T02210188 52012 IEM_DS3505
ZBAA,1996-09-24 16:00,ZBAA 241600Z AUTO 03008KT 6SM 20/13 A3003 RMK SLP174 T02000130 IEM_DS3505
ZBAA,1996-09-24 17:00,ZBAA 241700Z AUTO 02006KT 6SM 19/13 A3003 RMK SLP174 T01900130 IEM_DS3505
ZBAA,1996-09-24 18:00,ZBAA 241800Z AUTO 07002KT 12SM 19/14 A3000 RMK SLP167 T01910135 52006 IEM_DS3505
ZBAA,1996-09-24 20:00,ZBAA 242000Z AUTO 03006KT 7SM 18/13 A3003 RMK SLP174 T01800130 IEM_DS3505
ZBAA,1996-09-24 21:00,ZBAA 242100Z AUTO 02008KT 12SM 18/13 A3006 RMK SLP180 T01810128 52013 IEM_DS3505
ZBAA,1996-09-24 22:00,ZBAA 242200Z AUTO 02006KT 6SM 17/13 A3006 RMK SLP184 T01700130 IEM_DS3505
ZBAA,1996-09-24 23:00,ZBAA 242300Z AUTO 02004KT 6SM 17/14 A3009 RMK SLP195 T01700140 IEM_DS3505
ZBAA,1996-09-25 00:00,ZBAA 250000Z AUTO 07004KT 7SM 20/14 A3012 RMK SLP201 T01960135 52020 IEM_DS3505
ZBAA,1996-09-25 01:00,ZBAA 250100Z AUTO 02006KT 7SM 20/13 A3012 RMK SLP205 T02000130 IEM_DS3505
ZBAA,1996-09-25 02:00,ZBAA 250200Z AUTO 02008KT 7SM 22/14 A3012 RMK SLP204 T02200140 IEM_DS3505
ZBAA,1996-09-25 03:00,ZBAA 250300Z AUTO 07008KT 9SM 24/11 A3012 RMK SLP203 T02410109 52003 IEM_DS3505
ZBAA,1996-09-25 04:00,ZBAA 250400Z AUTO 02008KT 7SM 24/13 A3009 RMK SLP193 T02400130 IEM_DS3505
ZBAA,1996-09-25 05:00,ZBAA 250500Z AUTO 06006KT 7SM 25/13 A3009 RMK SLP193 T02500130 IEM_DS3505
ZBAA,1996-09-25 06:00,ZBAA 250600Z AUTO 07006KT 12SM 26/12 A3006 RMK SLP188 T02600115 57015 IEM_DS3505
ZBAA,1996-09-25 07:00,ZBAA 250700Z AUTO ////04KT 7SM 26/13 A3006 RMK SLP182 T02600130 IEM_DS3505
ZBAA,1996-09-25 08:00,ZBAA 250800Z AUTO 11006KT 7SM 26/14 A3006 RMK SLP182 T02600140 IEM_DS3505
ZBAA,1996-09-25 09:00,ZBAA 250900Z AUTO 11004KT 7SM 26/11 A3006 RMK SLP184 T02590107 57004 IEM_DS3505
ZBAA,1996-09-25 10:00,ZBAA 251000Z AUTO ////02KT 6SM 23/14 A3006 RMK SLP183 T02300140 IEM_DS3505
ZBAA,1996-09-25 11:00,ZBAA 251100Z AUTO ////02KT 7SM 22/14 A3009 RMK SLP193 T02200140 IEM_DS3505
ZBAA,1996-09-25 12:00,ZBAA 251200Z AUTO 16004KT 7SM 23/14 A3009 RMK SLP195 T02280140 52010 IEM_DS3505
ZBAA,1996-09-25 13:00,ZBAA 251300Z AUTO 16002KT 7SM 21/15 A3012 RMK SLP205 T02100150 IEM_DS3505
ZBAA,1996-09-25 14:00,ZBAA 251400Z AUTO 19008KT 7SM 20/15 A3012 RMK SLP205 T02000150 IEM_DS3505
ZBAA,1996-09-25 15:00,ZBAA 251500Z AUTO 20006KT 9SM 20/15 A3015 RMK SLP208 T01970149 52014 IEM_DS3505
ZBAA,1996-09-25 18:00,ZBAA 251800Z AUTO 22004KT 9SM 19/14 A3014 RMK SLP211 T01890144 52003 IEM_DS3505
ZBAA,1996-09-25 20:00,ZBAA 252000Z AUTO ////04KT 6SM 16/15 A3015 RMK SLP216 T01600150 IEM_DS3505
ZBAA,1996-09-25 21:00,ZBAA 252100Z AUTO 11004KT 9SM 19/14 A3018 RMK SLP214 T01890144 52003 IEM_DS3505
ZBAA,1996-09-25 22:00,ZBAA 252200Z AUTO ////02KT 6SM 16/14 A3018 RMK SLP226 T01600140 IEM_DS3505
ZBAA,1996-09-25 23:00,ZBAA 252300Z AUTO 00000KT 6SM 16/15 A3018 RMK SLP226 T01600150 IEM_DS3505
ZBAA,1996-09-26 00:00,ZBAA 260000Z AUTO 34002KT 6SM 18/15 A3021 RMK SLP231 T01810154 52016 IEM_DS3505
ZBAA,1996-09-26 01:00,ZBAA 260100Z AUTO 00000KT 5SM 18/15 A3024 RMK SLP246 T01800150 IEM_DS3505
ZBAA,1996-09-26 02:00,ZBAA 260200Z AUTO ////02KT 5SM 20/16 A3024 RMK SLP245 T02000160 IEM_DS3505
ZBAA,1996-09-26 03:00,ZBAA 260300Z AUTO 20004KT 5SM 23/13 A3021 RMK SLP233 T02270132 52002 IEM_DS3505
ZBAA,1996-09-26 04:00,ZBAA 260400Z AUTO ////04KT 6SM 22/16 A3021 RMK SLP235 T02200160 IEM_DS3505
ZBAA,1996-09-26 05:00,ZBAA 260500Z AUTO ////04KT 6SM 25/15 A3018 RMK SLP224 T02500150 IEM_DS3505
ZBAA,1996-09-26 06:00,ZBAA 260600Z AUTO 20008KT 9SM 25/12 A3015 RMK SLP217 T02470122 57016 IEM_DS3505
ZBAA,1996-09-26 07:00,ZBAA 260700Z AUTO 19006KT 6SM 24/14 A3015 RMK SLP214 T02400140 IEM_DS3505
ZBAA,1996-09-26 08:00,ZBAA 260800Z AUTO ////02KT 6SM 24/14 A3015 RMK SLP214 T02400140 IEM_DS3505
ZBAA,1996-09-26 09:00,ZBAA 260900Z AUTO 20006KT 9SM 24/13 A3015 RMK SLP211 T02370130 57006 IEM_DS3505
ZBAA,1996-09-26 10:00,ZBAA 261000Z AUTO ////02KT 6SM 22/14 A3015 RMK SLP215 T02200140 IEM_DS3505
ZBAA,1996-09-26 11:00,ZBAA 261100Z AUTO ////02KT 6SM 21/15 A3018 RMK SLP225 T02100150 IEM_DS3505
ZBAA,1996-09-26 12:00,ZBAA 261200Z AUTO 20004KT 9SM 22/14 A3021 RMK SLP225 T02200142 52014 IEM_DS3505
ZBAA,1996-09-26 13:00,ZBAA 261300Z AUTO ////02KT 6SM 20/16 A3021 RMK SLP235 T02000160 IEM_DS3505
ZBAA,1996-09-26 14:00,ZBAA 261400Z AUTO ////02KT 7SM 20/15 A3021 RMK SLP235 T02000150 IEM_DS3505
ZBAA,1996-09-26 15:00,ZBAA 261500Z AUTO 22006KT 12SM 21/13 A3024 RMK SLP236 T02110127 52011 IEM_DS3505
ZBAA,1996-09-26 16:00,ZBAA 261600Z AUTO ////02KT 7SM 19/13 A3021 RMK SLP235 T01900130 IEM_DS3505
ZBAA,1996-09-26 17:00,ZBAA 261700Z AUTO 00000KT 5SM 17/14 A3021 RMK SLP236 T01700140 IEM_DS3505
ZBAA,1996-09-26 18:00,ZBAA 261800Z AUTO 18004KT 9SM 20/13 A3024 RMK SLP236 T01970126 54000 IEM_DS3505
ZBAA,1996-09-26 20:00,ZBAA 262000Z AUTO 00000KT 4SM 16/14 A3024 RMK SLP246 T01600140 IEM_DS3505
ZBAA,1996-09-26 21:00,ZBAA 262100Z AUTO 04002KT 7SM 18/14 A3024 RMK SLP238 T01770144 52002 IEM_DS3505
ZBAA,1996-09-26 22:00,ZBAA 262200Z AUTO 00000KT 3SM 15/14 A3024 RMK SLP246 T01500140 IEM_DS3505
ZBAA,1996-09-26 23:00,ZBAA 262300Z AUTO 00000KT 2 1/2SM 16/15 A3027 RMK SLP256 T01600150 IEM_DS3505
ZBAA,1996-09-27 00:00,ZBAA 270000Z AUTO 00000KT 2 1/2SM 18/15 A3027 RMK SLP254 T01800147 52016 IEM_DS3505
ZBAA,1996-09-27 01:00,ZBAA 270100Z AUTO 00000KT 3SM 19/13 A3030 RMK SLP266 T01900130 IEM_DS3505
ZBAA,1996-09-27 02:00,ZBAA 270200Z AUTO 10002KT 4SM 20/15 A3030 RMK SLP265 T02000150 IEM_DS3505
ZBAA,1996-09-27 03:00,ZBAA 270300Z AUTO 22004KT 4SM 23/11 A3027 RMK SLP254 T02330109 54000 IEM_DS3505
ZBAA,1996-09-27 04:00,ZBAA 270400Z AUTO 19006KT 7SM 24/13 A3024 RMK SLP244 T02400130 IEM_DS3505
ZBAA,1996-09-27 05:00,ZBAA 270500Z AUTO 19008KT 6SM 25/11 A3021 RMK SLP234 T02500110 IEM_DS3505
ZBAA,1996-09-27 06:00,ZBAA 270600Z AUTO 20010KT 6SM 26/05 A3021 RMK SLP229 T02580053 57024 IEM_DS3505
ZBAA,1996-09-27 07:00,ZBAA 270700Z AUTO 18006KT 6SM 26/08 A3021 RMK SLP234 T02600080 IEM_DS3505
ZBAA,1996-09-27 08:00,ZBAA 270800Z AUTO 17006KT 6SM 25/07 A3018 RMK SLP224 T02500070 IEM_DS3505
ZBAA,1996-09-27 09:00,ZBAA 270900Z AUTO 20010KT 11SM 25/06 A3018 RMK SLP223 T02490058 57007 IEM_DS3505
ZBAA,1996-09-27 10:00,ZBAA 271000Z AUTO ////02KT 6SM 23/09 A3018 RMK SLP224 T02300090 IEM_DS3505
ZBAA,1996-09-27 11:00,ZBAA 271100Z AUTO 16002KT 6SM 22/09 A3018 RMK SLP225 T02200090 IEM_DS3505
ZBAA,1996-09-27 12:00,ZBAA 271200Z AUTO 20004KT 9SM 21/09 A3018 RMK SLP224 T02080092 52001 IEM_DS3505
ZBAA,1996-09-27 13:00,ZBAA 271300Z AUTO 17002KT 7SM 19/11 A3018 RMK SLP225 T01900110 IEM_DS3505
ZBAA,1996-09-27 14:00,ZBAA 271400Z AUTO 15002KT 7SM 17/12 A3018 RMK SLP226 T01700120 IEM_DS3505
ZBAA,1996-09-27 15:00,ZBAA 271500Z AUTO 18004KT 7SM 19/11 A3018 RMK SLP225 T01870106 52001 IEM_DS3505
ZBAA,1996-09-27 16:00,ZBAA 271600Z AUTO 00000KT 7SM 15/13 A3018 RMK SLP226 T01500130 IEM_DS3505
ZBAA,1996-09-27 18:00,ZBAA 271800Z AUTO 09002KT 7SM 15/12 A3017 RMK SLP222 T01530118 57003 IEM_DS3505
ZBAA,1996-09-27 20:00,ZBAA 272000Z AUTO 36006KT 4SM 14/12 A3015 RMK SLP216 T01400120 IEM_DS3505
ZBAA,1996-09-27 21:00,ZBAA 272100Z AUTO 04002KT 6SM 15/11 A3015 RMK SLP218 T01520113 57004 IEM_DS3505
ZBAA,1996-09-27 22:00,ZBAA 272200Z AUTO 00000KT 4SM 14/12 A3015 RMK SLP216 T01400120 IEM_DS3505
ZBAA,1996-09-27 23:00,ZBAA 272300Z AUTO 36004KT 4SM 14/13 A3015 RMK SLP216 T01400130 IEM_DS3505
ZBAA,1996-09-28 00:00,ZBAA 280000Z AUTO 07004KT 6SM 17/11 A3018 RMK SLP222 T01660112 52004 IEM_DS3505
ZBAA,1996-09-28 01:00,ZBAA 280100Z AUTO ////02KT 4SM 17/13 A3018 RMK SLP226 T01700130 IEM_DS3505
ZBAA,1996-09-28 02:00,ZBAA 280200Z AUTO ////02KT 4SM 19/14 A3018 RMK SLP225 T01900140 IEM_DS3505
ZBAA,1996-09-28 03:00,ZBAA 280300Z AUTO 34004KT 2 1/2SM 21/13 A3015 RMK SLP213 T02120126 57009 IEM_DS3505
ZBAA,1996-09-28 04:00,ZBAA 280400Z AUTO ////02KT 6SM 23/15 A3012 RMK SLP204 T02300150 IEM_DS3505
ZBAA,1996-09-28 05:00,ZBAA 280500Z AUTO 15006KT 6SM 24/14 A3009 RMK SLP193 T02400140 IEM_DS3505
ZBAA,1996-09-28 06:00,ZBAA 280600Z AUTO 18008KT 7SM 25/10 A3006 RMK SLP183 T02500103 57030 IEM_DS3505
ZBAA,1996-09-28 07:00,ZBAA 280700Z AUTO 18006KT 7SM 25/13 A3003 RMK SLP173 T02500130 IEM_DS3505
ZBAA,1996-09-28 08:00,ZBAA 280800Z AUTO 18006KT 7SM 25/12 A3000 RMK SLP163 T02500120 IEM_DS3505
ZBAA,1996-09-28 09:00,ZBAA 280900Z AUTO 20008KT 9SM 24/10 A3000 RMK SLP167 T02430105 57016 IEM_DS3505
ZBAA,1996-09-28 10:00,ZBAA 281000Z AUTO ////04KT 6SM 23/12 A3000 RMK SLP163 T02300120 IEM_DS3505
ZBAA,1996-09-28 11:00,ZBAA 281100Z AUTO 00000KT 6SM 21/13 A3000 RMK SLP163 T02100130 IEM_DS3505
ZBAA,1996-09-28 12:00,ZBAA 281200Z AUTO 18004KT 9SM 21/13 A3003 RMK SLP172 T02100126 52005 IEM_DS3505
ZBAA,1996-09-28 13:00,ZBAA 281300Z AUTO ////02KT 6SM 20/13 A3003 RMK SLP174 T02000130 IEM_DS3505
ZBAA,1996-09-28 14:00,ZBAA 281400Z AUTO ////02KT 7SM 19/13 A3003 RMK SLP174 T01900130 IEM_DS3505
ZBAA,1996-09-28 15:00,ZBAA 281500Z AUTO 16002KT 7SM 18/13 A3003 RMK SLP177 T01810132 52005 IEM_DS3505
ZBAA,1996-09-28 16:00,ZBAA 281600Z AUTO ////02KT 5SM 17/14 A3003 RMK SLP174 T01700140 IEM_DS3505
ZBAA,1996-09-28 18:00,ZBAA 281800Z AUTO 02008KT 7SM 18/13 A3005 RMK SLP179 T01760134 52003 IEM_DS3505
ZBAA,1996-09-28 20:00,ZBAA 282000Z AUTO 00000KT 4SM 16/14 A3003 RMK SLP175 T01600140 IEM_DS3505
ZBAA,1996-09-28 21:00,ZBAA 282100Z AUTO 00000KT 5SM 17/14 A3003 RMK SLP173 T01660138 57007 IEM_DS3505
ZBAA,1996-09-28 22:00,ZBAA 282200Z AUTO 00000KT 4SM 16/14 A3003 RMK SLP175 T01600140 IEM_DS3505
ZBAA,1996-09-28 23:00,ZBAA 282300Z AUTO ////04KT 3SM 16/14 A3003 RMK SLP175 T01600140 IEM_DS3505
ZBAA,1996-09-29 00:00,ZBAA 290000Z AUTO 11004KT 2 1/2SM 18/15 A3003 RMK SLP179 T01770148 52006 IEM_DS3505
ZBAA,1996-09-29 01:00,ZBAA 290100Z AUTO ////04KT 2 1/2SM 18/15 A3006 RMK SLP184 T01800150 IEM_DS3505
ZBAA,1996-09-29 02:00,ZBAA 290200Z AUTO ////02KT 2 1/2SM 20/16 A3006 RMK SLP184 T02000160 IEM_DS3505
ZBAA,1996-09-29 03:00,ZBAA 290300Z AUTO 04002KT 3SM 21/15 A3006 RMK SLP186 T02090148 52007 IEM_DS3505
ZBAA,1996-09-29 04:00,ZBAA 290400Z AUTO 01006KT 5SM 22/16 A3006 RMK SLP183 T02200160 IEM_DS3505
ZBAA,1996-09-29 05:00,ZBAA 290500Z AUTO 01006KT 5SM 23/16 A3003 RMK SLP173 T02300160 IEM_DS3505
ZBAA,1996-09-29 06:00,ZBAA 290600Z AUTO 36004KT 4SM 24/15 A3003 RMK SLP172 T02430146 57013 IEM_DS3505
ZBAA,1996-09-29 07:00,ZBAA 290700Z AUTO ////04KT 6SM 23/16 A3000 RMK SLP163 T02300160 IEM_DS3505
ZBAA,1996-09-29 08:00,ZBAA 290800Z AUTO ////04KT 6SM 24/16 A3000 RMK SLP163 T02400160 IEM_DS3505
ZBAA,1996-09-29 09:00,ZBAA 290900Z AUTO 14006KT 5SM 24/13 A3003 RMK SLP172 T02350128 57001 IEM_DS3505
ZBAA,1996-09-29 10:00,ZBAA 291000Z AUTO 00000KT 6SM 21/16 A3003 RMK SLP173 T02100160 IEM_DS3505
ZBAA,1996-09-29 11:00,ZBAA 291100Z AUTO 00000KT 6SM 21/16 A3006 RMK SLP184 T02100160 IEM_DS3505
ZBAA,1996-09-29 12:00,ZBAA 291200Z AUTO 00000KT 2 1/2SM 20/16 A3006 RMK SLP182 T02010158 52010 IEM_DS3505
ZBAA,1996-09-29 13:00,ZBAA 291300Z AUTO ////02KT 6SM 19/16 A3009 RMK SLP194 T01900160 IEM_DS3505
ZBAA,1996-09-29 15:00,ZBAA 291500Z AUTO 14002KT 4SM 20/14 A3009 RMK SLP195 T02000142 52013 IEM_DS3505
ZBAA,1996-09-29 16:00,ZBAA 291600Z AUTO ////02KT 6SM 18/15 A3009 RMK SLP194 T01800150 IEM_DS3505
ZBAA,1996-09-29 17:00,ZBAA 291700Z AUTO ////04KT 6SM 18/16 A3009 RMK SLP194 T01800160 IEM_DS3505
ZBAA,1996-09-29 18:00,ZBAA 291800Z AUTO 22002KT 6SM 19/15 A3011 RMK SLP200 T01920146 52006 IEM_DS3505
ZBAA,1996-09-29 20:00,ZBAA 292000Z AUTO ////02KT 4SM 17/17 A3012 RMK SLP206 T01700170 IEM_DS3505
ZBAA,1996-09-29 21:00,ZBAA 292100Z AUTO 02002KT 5SM 17/16 A3012 RMK 70008 SLP210 T01680156 52009 IEM_DS3505
ZBAA,1996-09-29 22:00,ZBAA 292200Z AUTO 02006KT 3SM 15/15 A3015 RMK SLP216 T01500150 IEM_DS3505
ZBAA,1996-09-29 23:00,ZBAA 292300Z AUTO ////04KT 5SM 15/15 A3018 RMK SLP226 T01500150 IEM_DS3505
ZBAA,1996-09-30 00:00,ZBAA 300000Z AUTO 04006KT 6SM 15/13 A3021 RMK 60020 70020 SLP230 T01520132 52019 IEM_DS3505
ZBAA,1996-09-30 01:00,ZBAA 300100Z AUTO ////02KT 7SM 15/15 A3021 RMK SLP236 T01500150 IEM_DS3505
ZBAA,1996-09-30 02:00,ZBAA 300200Z AUTO ////04KT 6SM 15/15 A3024 RMK SLP246 T01500150 IEM_DS3505
ZBAA,1996-09-30 03:00,ZBAA 300300Z AUTO 07004KT 11SM 16/13 A3024 RMK SLP240 T01620130 52011 IEM_DS3505
ZBAA,1996-09-30 04:00,ZBAA 300400Z AUTO ////02KT 6SM 16/13 A3021 RMK SLP236 T01600130 IEM_DS3505
ZBAA,1996-09-30 05:00,ZBAA 300500Z AUTO 00000KT 6SM 16/13 A3021 RMK SLP236 T01600130 IEM_DS3505
ZBAA,1996-09-30 06:00,ZBAA 300600Z AUTO 07004KT 12SM 17/10 A3018 RMK 60000 SLP229 T01720098 57011 IEM_DS3505
ZBAA,1996-09-30 07:00,ZBAA 300700Z AUTO ////02KT 6SM 17/12 A3018 RMK SLP226 T01700120 IEM_DS3505
ZBAA,1996-09-30 08:00,ZBAA 300800Z AUTO 29006KT 6SM 17/12 A3018 RMK SLP226 T01700120 IEM_DS3505
ZBAA,1996-09-30 09:00,ZBAA 300900Z AUTO 00000KT 12SM 17/10 A3015 RMK SLP221 T01740105 57009 IEM_DS3505
ZBAA,1996-09-30 10:00,ZBAA 301000Z AUTO ////04KT 6SM 16/12 A3015 RMK SLP216 T01600120 IEM_DS3505
ZBAA,1996-09-30 11:00,ZBAA 301100Z AUTO 00000KT 6SM 16/12 A3015 RMK SLP216 T01600120 IEM_DS3505
ZBAA,1996-09-30 12:00,ZBAA 301200Z AUTO 00000KT 9SM 16/11 A3018 RMK SLP222 T01620112 52001 IEM_DS3505
ZBAA,1996-09-30 13:00,ZBAA 301300Z AUTO ////02KT 6SM 15/13 A3018 RMK SLP226 T01500130 IEM_DS3505
ZBAA,1996-09-30 14:00,ZBAA 301400Z AUTO 00000KT 6SM 16/13 A3018 RMK SLP226 T01600130 IEM_DS3505
ZBAA,1996-09-30 15:00,ZBAA 301500Z AUTO 00000KT 7SM 17/11 A3018 RMK SLP222 T01660112 54000 IEM_DS3505
ZBAA,1996-09-30 16:00,ZBAA 301600Z AUTO ////02KT 6SM 15/14 A3018 RMK SLP226 T01500140 IEM_DS3505
ZBAA,1996-09-30 18:00,ZBAA 301800Z AUTO 34002KT 7SM 16/12 A3017 RMK SLP224 T01560125 52002 IEM_DS3505
ZBAA,1996-09-30 21:00,ZBAA 302100Z AUTO 18002KT 7SM 16/06 A3017 RMK 70008 SLP222 T01580056 57002 IEM_DS3505
ZBAA,1996-09-30 22:00,ZBAA 302200Z AUTO ////02KT 6SM 14/08 A3018 RMK SLP226 T01400080 IEM_DS3505
ZBAA,1996-09-30 23:00,ZBAA 302300Z AUTO 00000KT 6SM 14/07 A3018 RMK SLP226 T01400070 IEM_DS3505
ZBAA,1996-10-01 00:00,ZBAA 010000Z AUTO 16006KT 12SM 15/00 A3018 RMK SLP228 T01540001 52006 IEM_DS3505
ZBAA,1996-10-01 01:00,ZBAA 010100Z AUTO ////02KT 6SM 15/03 A3018 RMK T01500030 IEM_DS3505
ZBAA,1996-10-01 02:00,ZBAA 010200Z AUTO ////04KT 6SM 15/04 A3018 RMK T01500040 IEM_DS3505
ZBAA,1996-10-01 03:00,ZBAA 010300Z AUTO 18008KT 19SM 16/00 A3015 RMK SLP222 T01580001 57006 IEM_DS3505
ZBAA,1996-10-01 04:00,ZBAA 010400Z AUTO 19006KT 6SM 15/03 A3015 RMK T01500030 IEM_DS3505
ZBAA,1996-10-01 05:00,ZBAA 010500Z AUTO ////04KT 7SM 15/03 A3012 RMK T01500030 IEM_DS3505
ZBAA,1996-10-01 06:00,ZBAA 010600Z AUTO 27004KT 6SM 12/06 A3012 RMK 60002 SLP208 T01210062 57014 IEM_DS3505
ZBAA,1996-10-01 07:00,ZBAA 010700Z AUTO ////04KT 7SM 11/10 A3012 RMK T01100100 IEM_DS3505
ZBAA,1996-10-01 08:00,ZBAA 010800Z AUTO ////04KT 7SM 10/10 A3009 RMK T01000100 IEM_DS3505
ZBAA,1996-10-01 09:00,ZBAA 010900Z AUTO 27002KT 6SM 12/06 A3009 RMK SLP196 T01170062 57012 IEM_DS3505
ZBAA,1996-10-01 10:00,ZBAA 011000Z AUTO ////04KT 4SM 09/09 A3009 RMK T00900090 IEM_DS3505
ZBAA,1996-10-01 11:00,ZBAA 011100Z AUTO ////04KT 4SM 09/09 A3009 RMK T00900090 IEM_DS3505
ZBAA,1996-10-01 12:00,ZBAA 011200Z AUTO 00000KT 6SM 10/06 A3009 RMK 60020 SLP197 T00950063 54000 IEM_DS3505
ZBAA,1996-10-01 13:00,ZBAA 011300Z AUTO ////02KT 4SM 09/09 A3009 RMK T00900090 IEM_DS3505
ZBAA,1996-10-01 14:00,ZBAA 011400Z AUTO ////02KT 4SM 09/09 A3009 RMK T00900090 IEM_DS3505
ZBAA,1996-10-01 15:00,ZBAA 011500Z AUTO 34002KT 2 1/2SM 09/08 A3006 RMK SLP192 T00930085 57004 IEM_DS3505
ZBAA,1996-10-01 16:00,ZBAA 011600Z AUTO ////02KT 3SM 09/09 A3003 RMK T00900090 IEM_DS3505
ZBAA,1996-10-01 18:00,ZBAA 011800Z AUTO 36004KT 2SM 09/09 RMK 60012 SLP173 T00930089 57020 IEM_DS3505
ZBAA,1996-10-01 20:00,ZBAA 012000Z AUTO 00000KT 5SM 08/08 A3000 RMK T00800080 IEM_DS3505
ZBAA,1996-10-01 21:00,ZBAA 012100Z AUTO 04004KT 4SM 10/09 A3000 RMK 70035 SLP166 T00950087 57007 IEM_DS3505
ZBAA,1996-10-01 22:00,ZBAA 012200Z AUTO ////04KT 5SM 09/09 A3000 RMK T00900090 IEM_DS3505
ZBAA,1996-10-01 23:00,ZBAA 012300Z AUTO ////04KT 5SM 10/10 A3000 RMK T01000100 IEM_DS3505
ZBAA,1996-10-02 00:00,ZBAA 020000Z AUTO 34004KT 2 1/2SM 09/08 A3000 RMK 60008 70039 SLP169 T00930085 52003 IEM_DS3505
ZBAA,1996-10-02 01:00,ZBAA 020100Z AUTO 33006KT 7SM 10/10 A3000 RMK T01000100 IEM_DS3505
ZBAA,1996-10-02 02:00,ZBAA 020200Z AUTO 36006KT 7SM 12/12 A3000 RMK T01200120 IEM_DS3505
ZBAA,1996-10-02 03:00,ZBAA 020300Z AUTO 02004KT 12SM 12/08 A3000 RMK SLP167 T01210080 57002 IEM_DS3505
ZBAA,1996-10-02 04:00,ZBAA 020400Z AUTO 02008KT 7SM 15/09 A2997 RMK T01500090 IEM_DS3505
ZBAA,1996-10-02 05:00,ZBAA 020500Z AUTO 02008KT 7SM 15/08 A2997 RMK T01500080 IEM_DS3505
ZBAA,1996-10-02 06:00,ZBAA 020600Z AUTO 02006KT 9SM 15/08 A2994 RMK 60000 SLP153 T01490082 57013 IEM_DS3505
ZBAA,1996-10-02 07:00,ZBAA 020700Z AUTO 02008KT 7SM 17/08 A2994 RMK T01700080 IEM_DS3505
ZBAA,1996-10-02 08:00,ZBAA 020800Z AUTO 03008KT 7SM 17/07 A2994 RMK T01700070 IEM_DS3505
ZBAA,1996-10-02 09:00,ZBAA 020900Z AUTO 04006KT 12SM 16/08 A2994 RMK SLP152 T01570077 57001 IEM_DS3505
ZBAA,1996-10-02 10:00,ZBAA 021000Z AUTO 00000KT 6SM 14/08 A2997 RMK T01400080 IEM_DS3505
ZBAA,1996-10-02 11:00,ZBAA 021100Z AUTO 30006KT 6SM 14/08 A2997 RMK T01400080 IEM_DS3505
ZBAA,1996-10-02 12:00,ZBAA 021200Z AUTO 00000KT 6SM 13/09 A3000 RMK SLP165 T01300090 IEM_DS3505
ZBAA,1996-10-02 13:00,ZBAA 021300Z AUTO ////02KT 6SM 12/09 A3000 RMK T01200090 IEM_DS3505
ZBAA,1996-10-02 14:00,ZBAA 021400Z AUTO ////04KT 7SM 12/10 A3000 RMK T01200100 IEM_DS3505
ZBAA,1996-10-02 15:00,ZBAA 021500Z AUTO 34002KT 7SM 12/10 A3000 RMK T01200100 IEM_DS3505
ZBAA,1996-10-02 16:00,ZBAA 021600Z AUTO 00000KT 6SM 11/10 A3000 RMK T01100100 IEM_DS3505
ZBAA,1996-10-02 18:00,ZBAA 021800Z AUTO 34004KT 12SM 10/09 RMK SLP169 T01030091 52001 IEM_DS3505
ZBAA,1996-10-02 20:00,ZBAA 022000Z AUTO 00000KT 7SM 10/08 A3000 RMK T01000080 IEM_DS3505
ZBAA,1996-10-02 21:00,ZBAA 022100Z AUTO 36004KT 9SM 10/07 A3000 RMK 70004 SLP169 T00970069 54000 IEM_DS3505
ZBAA,1996-10-02 22:00,ZBAA 022200Z AUTO 01006KT 7SM 11/07 A3000 RMK T01100070 IEM_DS3505
ZBAA,1996-10-02 23:00,ZBAA 022300Z AUTO ////02KT 7SM 11/06 A3003 RMK T01100060 IEM_DS3505
ZBAA,1996-10-03 00:00,ZBAA 030000Z AUTO 32002KT 12SM 13/08 A3003 RMK 70001 SLP173 T01300075 52004 IEM_DS3505
ZBAA,1996-10-03 01:00,ZBAA 030100Z AUTO ////04KT 7SM 14/07 A3003 RMK T01400070 IEM_DS3505
ZBAA,1996-10-03 02:00,ZBAA 030200Z AUTO ////04KT 7SM 16/09 A3003 RMK T01600090 IEM_DS3505
ZBAA,1996-10-03 03:00,ZBAA 030300Z AUTO 04002KT 19SM 19/06 A3003 RMK SLP177 T01900061 52004 IEM_DS3505
ZBAA,1996-10-03 04:00,ZBAA 030400Z AUTO ////04KT 7SM 20/07 A3000 RMK T02000070 IEM_DS3505
ZBAA,1996-10-03 05:00,ZBAA 030500Z AUTO ////04KT 7SM 22/06 A2997 RMK T02200060 IEM_DS3505
ZBAA,1996-10-03 06:00,ZBAA 030600Z AUTO 16004KT 7SM 22/07 A2994 RMK SLP144 T02180066 57032 IEM_DS3505
ZBAA,1996-10-03 07:00,ZBAA 030700Z AUTO ////04KT 7SM 22/06 A2991 RMK T02200060 IEM_DS3505
ZBAA,1996-10-03 08:00,ZBAA 030800Z AUTO 18004KT 7SM 23/08 A2991 RMK T02300080 IEM_DS3505
ZBAA,1996-10-03 09:00,ZBAA 030900Z AUTO 20008KT 19SM 21/07 A2991 RMK SLP139 T02110069 57005 IEM_DS3505
ZBAA,1996-10-03 10:00,ZBAA 031000Z AUTO 15004KT 7SM 19/10 A2991 RMK T01900100 IEM_DS3505
ZBAA,1996-10-03 11:00,ZBAA 031100Z AUTO ////02KT 7SM 18/10 A2994 RMK T01800100 IEM_DS3505
ZBAA,1996-10-03 12:00,ZBAA 031200Z AUTO 18006KT 19SM 18/09 A2994 RMK SLP147 T01760088 52007 IEM_DS3505
ZBAA,1996-10-03 13:00,ZBAA 031300Z AUTO 00000KT 7SM 15/11 A2994 RMK T01500110 IEM_DS3505
ZBAA,1996-10-03 14:00,ZBAA 031400Z AUTO 00000KT 7SM 14/11 A2994 RMK T01400110 IEM_DS3505
ZBAA,1996-10-03 15:00,ZBAA 031500Z AUTO 34002KT 12SM 14/11 A2994 RMK SLP148 T01360108 52002 IEM_DS3505
ZBAA,1996-10-03 16:00,ZBAA 031600Z AUTO 00000KT 7SM 12/11 A2994 RMK T01200110 IEM_DS3505
ZBAA,1996-10-03 18:00,ZBAA 031800Z AUTO 04004KT 7SM 13/10 RMK SLP147 T01320095 57001 IEM_DS3505
ZBAA,1996-10-03 20:00,ZBAA 032000Z AUTO 00000KT 7SM 11/10 A2994 RMK T01100100 IEM_DS3505
ZBAA,1996-10-03 21:00,ZBAA 032100Z AUTO 00000KT 6SM 11/10 A2994 RMK SLP147 T01060096 54000 IEM_DS3505
ZBAA,1996-10-03 22:00,ZBAA 032200Z AUTO 36006KT 6SM 11/10 A2994 RMK T01100100 IEM_DS3505
ZBAA,1996-10-03 23:00,ZBAA 032300Z AUTO 34002KT 5SM 12/10 A2994 RMK T01200100 IEM_DS3505
ZBAA,1996-10-04 00:00,ZBAA 040000Z AUTO 00000KT 4SM 13/11 A2997 RMK SLP155 T01290108 52007 IEM_DS3505
ZBAA,1996-10-04 01:00,ZBAA 040100Z AUTO ////02KT 4SM 14/11 A2997 RMK T01400110 IEM_DS3505
ZBAA,1996-10-04 02:00,ZBAA 040200Z AUTO ////04KT 5SM 17/11 A2997 RMK T01700110 IEM_DS3505
ZBAA,1996-10-04 03:00,ZBAA 040300Z AUTO 00000KT 3SM 19/10 A2997 RMK SLP153 T01870101 57001 IEM_DS3505
ZBAA,1996-10-04 04:00,ZBAA 040400Z AUTO ////02KT 6SM 19/12 A2994 RMK T01900120 IEM_DS3505
ZBAA,1996-10-04 05:00,ZBAA 040500Z AUTO ////02KT 6SM 21/13 A2991 RMK T02100130 IEM_DS3505
ZBAA,1996-10-04 06:00,ZBAA 040600Z AUTO 00000KT 2 1/2SM 22/11 A2991 RMK SLP136 T02200108 57017 IEM_DS3505
ZBAA,1996-10-04 07:00,ZBAA 040700Z AUTO ////02KT 6SM 21/13 A2988 RMK T02100130 IEM_DS3505
ZBAA,1996-10-04 08:00,ZBAA 040800Z AUTO ////02KT 5SM 21/13 A2988 RMK T02100130 IEM_DS3505
ZBAA,1996-10-04 09:00,ZBAA 040900Z AUTO 25004KT 4SM 22/12 A2988 RMK SLP124 T02170122 57012 IEM_DS3505
ZBAA,1996-10-04 10:00,ZBAA 041000Z AUTO 00000KT 4SM 19/14 A2988 RMK T01900140 IEM_DS3505
ZBAA,1996-10-04 11:00,ZBAA 041100Z AUTO 00000KT 3SM 17/15 A2988 RMK T01700150 IEM_DS3505
ZBAA,1996-10-04 12:00,ZBAA 041200Z AUTO 00000KT 2SM 17/14 A2988 RMK SLP132 T01680140 52007 IEM_DS3505
ZBAA,1996-10-04 13:00,ZBAA 041300Z AUTO ////02KT 2 1/2SM 17/15 A2991 RMK T01700150 IEM_DS3505
ZBAA,1996-10-04 14:00,ZBAA 041400Z AUTO ////02KT 2 1/2SM 16/14 A2991 RMK T01600140 IEM_DS3505
ZBAA,1996-10-04 15:00,ZBAA 041500Z AUTO 34002KT 2 1/2SM 15/14 A2991 RMK SLP136 T01540136 52005 IEM_DS3505
ZBAA,1996-10-04 16:00,ZBAA 041600Z AUTO ////04KT 2SM 15/14 A2991 RMK T01500140 IEM_DS3505
ZBAA,1996-10-04 18:00,ZBAA 041800Z AUTO 34006KT 9SM 16/08 RMK SLP133 T01650076 57003 IEM_DS3505
ZBAA,1996-10-04 20:00,ZBAA 042000Z AUTO 35010KT 6SM 16/07 A2988 RMK T01600070 IEM_DS3505
ZBAA,1996-10-04 21:00,ZBAA 042100Z AUTO 02008KT 7SM 13/09 A2991 RMK 70004 SLP135 T01270089 52002 IEM_DS3505
ZBAA,1996-10-04 22:00,ZBAA 042200Z AUTO 32014KT 7SM 11/10 A2994 RMK T01100100 IEM_DS3505
ZBAA,1996-10-04 23:00,ZBAA 042300Z AUTO 32016KT 5SM 10/09 A2997 RMK T01000090 IEM_DS3505
ZBAA,1996-10-05 00:00,ZBAA 050000Z AUTO 36014KT 7SM 09/07 A3000 RMK 60047 70047 SLP163 T00870068 52027 IEM_DS3505
ZBAA,1996-10-05 01:00,ZBAA 050100Z AUTO 33014KT 5SM 09/09 A3003 RMK T00900090 IEM_DS3505
ZBAA,1996-10-05 02:00,ZBAA 050200Z AUTO 33010KT 7SM 08/08 A3003 RMK T00800080 IEM_DS3505
ZBAA,1996-10-05 03:00,ZBAA 050300Z AUTO 02008KT 6SM 08/06 A3006 RMK SLP179 T00810061 52015 IEM_DS3505
ZBAA,1996-10-05 04:00,ZBAA 050400Z AUTO 36008KT 7SM 09/09 A3003 RMK T00900090 IEM_DS3505
ZBAA,1996-10-05 05:00,ZBAA 050500Z AUTO 02006KT 7SM 09/09 A3000 RMK T00900090 IEM_DS3505
ZBAA,1996-10-05 06:00,ZBAA 050600Z AUTO 02008KT 12SM 11/06 A3000 RMK 60028 SLP157 T01110055 57021 IEM_DS3505
ZBAA,1996-10-05 07:00,ZBAA 050700Z AUTO 05008KT 7SM 10/08 A2997 RMK T01000080 IEM_DS3505
ZBAA,1996-10-05 08:00,ZBAA 050800Z AUTO 04006KT 7SM 11/08 A2997 RMK T01100080 IEM_DS3505
ZBAA,1996-10-05 09:00,ZBAA 050900Z AUTO 07006KT 16SM 12/06 A2997 RMK SLP161 T01170057 52004 IEM_DS3505
ZBAA,1996-10-05 10:00,ZBAA 051000Z AUTO 04004KT 6SM 10/06 A3000 RMK T01000060 IEM_DS3505
ZBAA,1996-10-05 11:00,ZBAA 051100Z AUTO 01004KT 7SM 09/06 A3003 RMK T00900060 IEM_DS3505
ZBAA,1996-10-05 12:00,ZBAA 051200Z AUTO 25004KT 12SM 09/07 A3003 RMK SLP181 T00930067 52019 IEM_DS3505
ZBAA,1996-10-05 13:00,ZBAA 051300Z AUTO 00000KT 7SM 09/04 A3006 RMK T00900040 IEM_DS3505
ZBAA,1996-10-05 14:00,ZBAA 051400Z AUTO 25006KT 7SM 07/05 A3006 RMK T00700050 IEM_DS3505
ZBAA,1996-10-05 15:00,ZBAA 051500Z AUTO 18004KT 9SM 08/06 A3006 RMK SLP187 T00850063 52006 IEM_DS3505
ZBAA,1996-10-05 16:00,ZBAA 051600Z AUTO 00000KT 7SM 07/06 A3006 RMK T00700060 IEM_DS3505
ZBAA,1996-10-05 18:00,ZBAA 051800Z AUTO 00000KT 12SM 06/06 RMK SLP186 T00630056 57001 IEM_DS3505
ZBAA,1996-10-05 20:00,ZBAA 052000Z AUTO 00000KT 5SM 06/05 A3006 RMK T00600050 IEM_DS3505
ZBAA,1996-10-05 21:00,ZBAA 052100Z AUTO 00000KT 9SM 05/04 A3006 RMK 70075 SLP185 T00520045 57001 IEM_DS3505
ZBAA,1996-10-05 22:00,ZBAA 052200Z AUTO ////04KT 7SM 05/04 A3006 RMK T00500040 IEM_DS3505
ZBAA,1996-10-05 23:00,ZBAA 052300Z AUTO ////02KT 7SM 06/05 A3009 RMK T00600050 IEM_DS3505
ZBAA,1996-10-06 00:00,ZBAA 060000Z AUTO 04004KT 7SM 09/05 A3009 RMK 70028 SLP194 T00870049 52009 IEM_DS3505
ZBAA,1996-10-06 01:00,ZBAA 060100Z AUTO 00000KT 6SM 09/07 A3009 RMK T00900070 IEM_DS3505
ZBAA,1996-10-06 02:00,ZBAA 060200Z AUTO ////02KT 6SM 11/07 A3009 RMK T01100070 IEM_DS3505
ZBAA,1996-10-06 03:00,ZBAA 060300Z AUTO 00000KT 5SM 14/04 A3009 RMK SLP197 T01440039 52003 IEM_DS3505
ZBAA,1996-10-06 04:00,ZBAA 060400Z AUTO 20006KT 6SM 15/07 A3006 RMK T01500070 IEM_DS3505
ZBAA,1996-10-06 05:00,ZBAA 060500Z AUTO 20008KT 6SM 16/08 A3003 RMK T01600080 IEM_DS3505
ZBAA,1996-10-06 06:00,ZBAA 060600Z AUTO 20006KT 6SM 17/03 A3003 RMK SLP176 T01660031 57021 IEM_DS3505
ZBAA,1996-10-06 07:00,ZBAA 060700Z AUTO 19010KT 6SM 18/08 A3000 RMK T01800080 IEM_DS3505
ZBAA,1996-10-06 08:00,ZBAA 060800Z AUTO 20008KT 6SM 16/06 A3000 RMK T01600060 IEM_DS3505
ZBAA,1996-10-06 09:00,ZBAA 060900Z AUTO 20006KT 6SM 16/08 A3003 RMK SLP176 T01550075 54000 IEM_DS3505
ZBAA,1996-10-06 10:00,ZBAA 061000Z AUTO 20006KT 6SM 14/08 A3003 RMK T01400080 IEM_DS3505
ZBAA,1996-10-06 11:00,ZBAA 061100Z AUTO ////02KT 6SM 14/09 A3006 RMK T01400090 IEM_DS3505
ZBAA,1996-10-06 12:00,ZBAA 061200Z AUTO 27004KT 9SM 12/09 A3006 RMK SLP191 T01240086 52015 IEM_DS3505
ZBAA,1996-10-06 13:00,ZBAA 061300Z AUTO ////02KT 7SM 11/09 A3009 RMK T01100090 IEM_DS3505
ZBAA,1996-10-06 14:00,ZBAA 061400Z AUTO 00000KT 5SM 11/09 A3012 RMK T01100090 IEM_DS3505
ZBAA,1996-10-06 15:00,ZBAA 061500Z AUTO 00000KT 9SM 10/06 A3015 RMK SLP214 T00950055 52023 IEM_DS3505
ZBAA,1996-10-06 16:00,ZBAA 061600Z AUTO 33006KT 7SM 12/05 A3015 RMK SLP217 T01200050 IEM_DS3505
ZBAA,1996-10-06 18:00,ZBAA 061800Z AUTO 00000KT 12SM 07/05 RMK SLP225 T00680050 52011 IEM_DS3505
ZBAA,1996-10-06 20:00,ZBAA 062000Z AUTO 30008KT 7SM 10/M02 A3018 RMK T01001020 IEM_DS3505
ZBAA,1996-10-06 21:00,ZBAA 062100Z AUTO 02002KT 12SM 05/03 A3021 RMK SLP231 T00540027 52006 IEM_DS3505
ZBAA,1996-10-06 22:00,ZBAA 062200Z AUTO 30004KT 7SM 07/02 A3021 RMK T00700020 IEM_DS3505
ZBAA,1996-10-06 23:00,ZBAA 062300Z AUTO 36002KT 7SM 07/03 A3024 RMK T00700030 IEM_DS3505
ZBAA,1996-10-07 00:00,ZBAA 070000Z AUTO 02004KT 6SM 10/05 A3024 RMK SLP248 T01000046 52017 IEM_DS3505
ZBAA,1996-10-07 01:00,ZBAA 070100Z AUTO 00000KT 7SM 12/02 A3027 RMK T01200020 IEM_DS3505
ZBAA,1996-10-07 02:00,ZBAA 070200Z AUTO ////02KT 7SM 14/03 A3027 RMK T01400030 IEM_DS3505
ZBAA,1996-10-07 03:00,ZBAA 070300Z AUTO 22006KT 9SM 18/M02 A3024 RMK SLP248 T01761023 54000 IEM_DS3505
ZBAA,1996-10-07 04:00,ZBAA 070400Z AUTO 21006KT 7SM 18/01 A3021 RMK T01800010 IEM_DS3505
ZBAA,1996-10-07 05:00,ZBAA 070500Z AUTO 19010KT 7SM 19/01 A3018 RMK T01900010 IEM_DS3505
ZBAA,1996-10-07 06:00,ZBAA 070600Z AUTO 20012KT 12SM 19/M00 A3015 RMK SLP219 T01891001 57029 IEM_DS3505
ZBAA,1996-10-07 07:00,ZBAA 070700Z AUTO 20012KT 6SM 20/02 A3012 RMK T02000020 IEM_DS3505
ZBAA,1996-10-07 08:00,ZBAA 070800Z AUTO 21012KT 6SM 19/02 A3009 RMK T01900020 IEM_DS3505
ZBAA,1996-10-07 09:00,ZBAA 070900Z AUTO 18008KT 12SM 18/03 A3009 RMK SLP199 T01770027 57020 IEM_DS3505
ZBAA,1996-10-07 10:00,ZBAA 071000Z AUTO 20006KT 7SM 15/03 A3009 RMK T01500030 IEM_DS3505
ZBAA,1996-10-07 11:00,ZBAA 071100Z AUTO 20008KT 7SM 15/04 A3009 RMK T01500040 IEM_DS3505
ZBAA,1996-10-07 12:00,ZBAA 071200Z AUTO 20008KT 9SM 14/05 A3009 RMK SLP199 T01430049 54000 IEM_DS3505
ZBAA,1996-10-07 13:00,ZBAA 071300Z AUTO 21006KT 7SM 14/05 A3009 RMK T01400050 IEM_DS3505
ZBAA,1996-10-07 14:00,ZBAA 071400Z AUTO 00000KT 7SM 12/05 A3009 RMK T01200050 IEM_DS3505
ZBAA,1996-10-07 15:00,ZBAA 071500Z AUTO 00000KT 6SM 10/07 A3009 RMK SLP200 T01020066 52002 IEM_DS3505
ZBAA,1996-10-07 17:00,ZBAA 071700Z AUTO 00000KT 6SM 08/07 A3009 RMK T00800070 IEM_DS3505
ZBAA,1996-10-07 18:00,ZBAA 071800Z AUTO 04002KT 6SM 09/07 RMK SLP192 T00860067 57008 IEM_DS3505
ZBAA,1996-10-07 20:00,ZBAA 072000Z AUTO ////02KT 6SM 07/06 A3006 RMK T00700060 IEM_DS3505
ZBAA,1996-10-07 21:00,ZBAA 072100Z AUTO 02004KT 7SM 08/06 A3006 RMK SLP187 T00780056 57005 IEM_DS3505
ZBAA,1996-10-07 22:00,ZBAA 072200Z AUTO ////02KT 4SM 07/06 A3009 RMK SLP197 T00700060 IEM_DS3505
ZBAA,1996-10-07 23:00,ZBAA 072300Z AUTO 00000KT 4SM 07/06 A3009 RMK SLP197 T00700060 IEM_DS3505
ZBAA,1996-10-08 00:00,ZBAA 080000Z AUTO 04002KT 4SM 12/05 A3012 RMK SLP204 T01170054 52017 IEM_DS3505
ZBAA,1996-10-08 01:00,ZBAA 080100Z AUTO 35006KT 5SM 12/08 A3012 RMK SLP207 T01200080 IEM_DS3505
ZBAA,1996-10-08 02:00,ZBAA 080200Z AUTO 02004KT 7SM 15/09 A3015 RMK SLP216 T01500090 IEM_DS3505
ZBAA,1996-10-08 03:00,ZBAA 080300Z AUTO 02008KT 6SM 19/06 A3012 RMK SLP208 T01930057 52004 IEM_DS3505
ZBAA,1996-10-08 04:00,ZBAA 080400Z AUTO 33008KT 7SM 20/07 A3012 RMK SLP205 T02000070 IEM_DS3505
ZBAA,1996-10-08 05:00,ZBAA 080500Z AUTO ////04KT 7SM 21/07 A3009 RMK SLP194 T02100070 IEM_DS3505
ZBAA,1996-10-08 06:00,ZBAA 080600Z AUTO 34004KT 16SM 22/02 A3009 RMK SLP193 T02250015 57015 IEM_DS3505
ZBAA,1996-10-08 07:00,ZBAA 080700Z AUTO ////04KT 7SM 22/06 A3006 RMK SLP183 T02200060 IEM_DS3505
ZBAA,1996-10-08 08:00,ZBAA 080800Z AUTO ////02KT 7SM 21/05 A3006 RMK SLP184 T02100050 IEM_DS3505
ZBAA,1996-10-08 09:00,ZBAA 080900Z AUTO 32004KT 19SM 22/02 A3006 RMK SLP190 T02250022 57003 IEM_DS3505
ZBAA,1996-10-08 10:00,ZBAA 081000Z AUTO 00000KT 7SM 17/06 A3009 RMK SLP195 T01700060 IEM_DS3505
ZBAA,1996-10-08 11:00,ZBAA 081100Z AUTO 00000KT 7SM 16/06 A3009 RMK SLP195 T01600060 IEM_DS3505
ZBAA,1996-10-08 12:00,ZBAA 081200Z AUTO 00000KT 11SM 15/06 A3012 RMK SLP205 T01460063 52015 IEM_DS3505
ZBAA,1996-10-08 13:00,ZBAA 081300Z AUTO ////02KT 7SM 13/08 A3015 RMK SLP217 T01300080 IEM_DS3505
ZBAA,1996-10-08 14:00,ZBAA 081400Z AUTO 00000KT 7SM 13/08 A3015 RMK SLP217 T01300080 IEM_DS3505
ZBAA,1996-10-08 15:00,ZBAA 081500Z AUTO 04002KT 12SM 14/06 A3015 RMK SLP217 T01440055 52012 IEM_DS3505
ZBAA,1996-10-08 16:00,ZBAA 081600Z AUTO 34004KT 7SM 11/08 A3015 RMK SLP217 T01100080 IEM_DS3505
ZBAA,1996-10-08 17:00,ZBAA 081700Z AUTO 34006KT 7SM 10/07 A3018 RMK SLP227 T01000070 IEM_DS3505
ZBAA,1996-10-08 18:00,ZBAA 081800Z AUTO 00000KT 12SM 09/06 A3017 RMK SLP221 T00920064 52004 IEM_DS3505
ZBAA,1996-10-08 20:00,ZBAA 082000Z AUTO ////04KT 7SM 10/06 A3018 RMK SLP227 T01000060 IEM_DS3505
ZBAA,1996-10-08 21:00,ZBAA 082100Z AUTO 00000KT 9SM 08/05 A3018 RMK SLP225 T00750052 52004 IEM_DS3505
ZBAA,1996-10-08 22:00,ZBAA 082200Z AUTO ////02KT 6SM 09/05 A3018 RMK SLP228 T00900050 IEM_DS3505
ZBAA,1996-10-08 23:00,ZBAA 082300Z AUTO 36006KT 7SM 10/05 A3021 RMK SLP237 T01000050 IEM_DS3505
ZBAA,1996-10-09 00:00,ZBAA 090000Z AUTO 02002KT 12SM 12/05 A3021 RMK SLP239 T01240047 52013 IEM_DS3505
ZBAA,1996-10-09 01:00,ZBAA 090100Z AUTO 36006KT 7SM 14/06 A3024 RMK SLP247 T01400060 IEM_DS3505
ZBAA,1996-10-09 02:00,ZBAA 090200Z AUTO 36006KT 7SM 16/07 A3024 RMK SLP246 T01600070 IEM_DS3505
ZBAA,1996-10-09 03:00,ZBAA 090300Z AUTO 07004KT 9SM 19/03 A3021 RMK SLP238 T01870027 54000 IEM_DS3505
ZBAA,1996-10-09 04:00,ZBAA 090400Z AUTO ////02KT 7SM 19/05 A3021 RMK SLP235 T01900050 IEM_DS3505
ZBAA,1996-10-09 05:00,ZBAA 090500Z AUTO 00000KT 7SM 20/04 A3015 RMK SLP215 T02000040 IEM_DS3505
ZBAA,1996-10-09 06:00,ZBAA 090600Z AUTO 14004KT 7SM 22/03 A3012 RMK SLP210 T02180026 57028 IEM_DS3505
ZBAA,1996-10-09 07:00,ZBAA 090700Z AUTO ////02KT 7SM 22/05 A3012 RMK SLP204 T02200050 IEM_DS3505
ZBAA,1996-10-09 08:00,ZBAA 090800Z AUTO ////04KT 7SM 21/05 A3012 RMK SLP205 T02100050 IEM_DS3505
ZBAA,1996-10-09 09:00,ZBAA 090900Z AUTO 20002KT 6SM 20/07 A3009 RMK SLP199 T02010072 57011 IEM_DS3505
ZBAA,1996-10-09 11:00,ZBAA 091100Z AUTO 00000KT 5SM 16/09 A3012 RMK SLP206 T01600090 IEM_DS3505
ZBAA,1996-10-09 12:00,ZBAA 091200Z AUTO 25002KT 4SM 15/11 A3012 RMK SLP208 T01500107 52009 IEM_DS3505
ZBAA,1996-10-09 13:00,ZBAA 091300Z AUTO 00000KT 4SM 15/09 A3015 RMK SLP216 T01500090 IEM_DS3505
ZBAA,1996-10-09 14:00,ZBAA 091400Z AUTO 00000KT 4SM 13/10 A3015 RMK SLP217 T01300100 IEM_DS3505
ZBAA,1996-10-09 15:00,ZBAA 091500Z AUTO 32002KT 4SM 13/10 A3015 RMK SLP212 T01260101 52004 IEM_DS3505
ZBAA,1996-10-09 16:00,ZBAA 091600Z AUTO 00000KT 4SM 12/10 A3015 RMK SLP217 T01200100 IEM_DS3505
ZBAA,1996-10-09 17:00,ZBAA 091700Z AUTO 00000KT 4SM 12/10 A3015 RMK SLP217 T01200100 IEM_DS3505
ZBAA,1996-10-09 18:00,ZBAA 091800Z AUTO 02002KT 4SM 13/08 A3013 RMK SLP209 T01310076 57002 IEM_DS3505
ZBAA,1996-10-09 21:00,ZBAA 092100Z AUTO 00000KT 5SM 10/08 A3012 RMK SLP205 T00990078 57005 IEM_DS3505
ZBAA,1996-10-09 22:00,ZBAA 092200Z AUTO ////04KT 4SM 10/09 A3012 RMK SLP207 T01000090 IEM_DS3505
ZBAA,1996-10-09 23:00,ZBAA 092300Z AUTO ////02KT 4SM 10/09 A3012 RMK SLP207 T01000090 IEM_DS3505
ZBAA,1996-10-10 00:00,ZBAA 100000Z AUTO 07002KT 2 1/2SM 12/08 A3015 RMK SLP211 T01210080 52006 IEM_DS3505
ZBAA,1996-10-10 01:00,ZBAA 100100Z AUTO 00000KT 2 1/2SM 13/10 A3015 RMK SLP217 T01300100 IEM_DS3505
ZBAA,1996-10-10 02:00,ZBAA 100200Z AUTO 00000KT 2 1/2SM 15/11 A3015 RMK SLP216 T01500110 IEM_DS3505
ZBAA,1996-10-10 03:00,ZBAA 100300Z AUTO 02006KT 3SM 16/10 A3015 RMK SLP212 T01620099 52001 IEM_DS3505
ZBAA,1996-10-10 04:00,ZBAA 100400Z AUTO ////02KT 2SM 18/13 A3012 RMK SLP205 T01800130 IEM_DS3505
ZBAA,1996-10-10 05:00,ZBAA 100500Z AUTO 00000KT 1 1/4SM 19/13 A3009 RMK SLP194 T01900130 IEM_DS3505
ZBAA,1996-10-10 06:00,ZBAA 100600Z AUTO 00000KT 2SM 20/11 A3006 RMK SLP192 T01950107 57020 IEM_DS3505
ZBAA,1996-10-10 07:00,ZBAA 100700Z AUTO 20006KT 1SM 19/13 A3006 RMK SLP184 T01900130 IEM_DS3505
ZBAA,1996-10-10 08:00,ZBAA 100800Z AUTO ////04KT 1SM 18/13 A3006 RMK SLP184 T01800130 IEM_DS3505
ZBAA,1996-10-10 09:00,ZBAA 100900Z AUTO 20006KT 1 1/4SM 18/12 A3006 RMK SLP186 T01850120 57006 IEM_DS3505
ZBAA,1996-10-10 10:00,ZBAA 101000Z AUTO 00000KT 1SM 17/12 A3006 RMK SLP184 T01700120 IEM_DS3505
ZBAA,1996-10-10 11:00,ZBAA 101100Z AUTO 00000KT 1SM 15/12 A3009 RMK SLP195 T01500120 IEM_DS3505
ZBAA,1996-10-10 12:00,ZBAA 101200Z AUTO 36006KT 1 1/4SM 14/12 A3012 RMK SLP202 T01440122 52016 IEM_DS3505
ZBAA,1996-10-10 13:00,ZBAA 101300Z AUTO 00000KT 1/2SM 14/13 A3012 RMK SLP206 T01400130 IEM_DS3505
ZBAA,1996-10-10 14:00,ZBAA 101400Z AUTO 00000KT 1/2SM 14/13 A3012 RMK SLP206 T01400130 IEM_DS3505
ZBAA,1996-10-10 15:00,ZBAA 101500Z AUTO 32002KT 1 1/4SM 14/12 A3012 RMK SLP206 T01370120 52004 IEM_DS3505
ZBAA,1996-10-10 16:00,ZBAA 101600Z AUTO 00000KT 1SM 13/12 A3012 RMK SLP206 T01300120 IEM_DS3505
ZBAA,1996-10-10 17:00,ZBAA 101700Z AUTO ////02KT 1SM 13/12 A3012 RMK SLP206 T01300120 IEM_DS3505
ZBAA,1996-10-10 18:00,ZBAA 101800Z AUTO 00000KT 1SM 12/11 A3012 RMK SLP206 T01220111 54000 IEM_DS3505
ZBAA,1996-10-10 20:00,ZBAA 102000Z AUTO 00000KT 3/8SM 11/11 A3012 RMK SLP207 T01100110 IEM_DS3505
ZBAA,1996-10-10 21:00,ZBAA 102100Z AUTO 00000KT 1 1/4SM 12/11 A3012 RMK SLP207 T01190107 52001 IEM_DS3505
ZBAA,1996-10-10 22:00,ZBAA 102200Z AUTO 00000KT 1/2SM 11/11 A3012 RMK SLP207 T01100110 IEM_DS3505
ZBAA,1996-10-10 23:00,ZBAA 102300Z AUTO 00000KT 1/2SM 11/11 A3015 RMK SLP217 T01100110 IEM_DS3505
ZBAA,1996-10-11 00:00,ZBAA 110000Z AUTO 00000KT 1SM 13/11 A3015 RMK SLP218 T01290112 52011 IEM_DS3505
ZBAA,1996-10-11 01:00,ZBAA 110100Z AUTO 00000KT 1/2SM 13/12 A3018 RMK SLP227 T01300120 IEM_DS3505
ZBAA,1996-10-11 02:00,ZBAA 110200Z AUTO ////02KT 1SM 14/13 A3018 RMK SLP226 T01400130 IEM_DS3505
ZBAA,1996-10-11 03:00,ZBAA 110300Z AUTO 09002KT 1SM 18/12 A3015 RMK SLP217 T01750117 57001 IEM_DS3505
ZBAA,1996-10-11 05:00,ZBAA 110500Z AUTO ////02KT 1SM 19/15 A3012 RMK SLP205 T01900150 IEM_DS3505
ZBAA,1996-10-11 06:00,ZBAA 110600Z AUTO 18008KT 1SM 20/12 A3009 RMK SLP197 T02030125 57020 IEM_DS3505
ZBAA,1996-10-11 07:00,ZBAA 110700Z AUTO ////02KT 1SM 21/15 A3009 RMK SLP194 T02100150 IEM_DS3505
ZBAA,1996-10-11 08:00,ZBAA 110800Z AUTO ////02KT 1SM 21/15 A3009 RMK SLP194 T02100150 IEM_DS3505
ZBAA,1996-10-11 09:00,ZBAA 110900Z AUTO 18004KT 1SM 20/13 A3009 RMK SLP194 T02000128 57003 IEM_DS3505
ZBAA,1996-10-11 10:00,ZBAA 111000Z AUTO 06002KT 1SM 18/15 A3012 RMK SLP205 T01800150 IEM_DS3505
ZBAA,1996-10-11 11:00,ZBAA 111100Z AUTO 03004KT 1SM 17/14 A3015 RMK SLP216 T01700140 IEM_DS3505
ZBAA,1996-10-11 12:00,ZBAA 111200Z AUTO 00000KT 1SM 17/14 A3015 RMK SLP218 T01690137 52024 IEM_DS3505
ZBAA,1996-10-11 13:00,ZBAA 111300Z AUTO 26004KT 1SM 16/14 A3015 RMK SLP216 T01600140 IEM_DS3505
ZBAA,1996-10-11 14:00,ZBAA 111400Z AUTO 34006KT 1SM 15/14 A3018 RMK SLP226 T01500140 IEM_DS3505
ZBAA,1996-10-11 15:00,ZBAA 111500Z AUTO 02004KT 1SM 15/13 A3018 RMK SLP220 T01470133 52002 IEM_DS3505
ZBAA,1996-10-11 16:00,ZBAA 111600Z AUTO 00000KT 3/8SM 14/13 A3018 RMK SLP226 T01400130 IEM_DS3505
ZBAA,1996-10-11 17:00,ZBAA 111700Z AUTO 34004KT 3/8SM 14/13 A3018 RMK SLP226 T01400130 IEM_DS3505
ZBAA,1996-10-11 18:00,ZBAA 111800Z AUTO 04002KT 1SM 13/12 A3018 RMK SLP220 T01300123 54000 IEM_DS3505
ZBAA,1996-10-11 19:00,ZBAA 111900Z AUTO 33002KT 3/8SM 12/12 A3018 RMK SLP227 T01200120 IEM_DS3505
ZBAA,1996-10-11 20:00,ZBAA 112000Z AUTO 33002KT 3/8SM 12/12 A3018 RMK SLP227 T01200120 IEM_DS3505
ZBAA,1996-10-11 21:00,ZBAA 112100Z AUTO 00000KT 1SM 12/11 A3018 RMK SLP221 T01190113 52001 IEM_DS3505
ZBAA,1996-10-11 22:00,ZBAA 112200Z AUTO 34004KT 1/2SM 12/12 A3018 RMK SLP227 T01200120 IEM_DS3505
ZBAA,1996-10-11 23:00,ZBAA 112300Z AUTO 00000KT 1/2SM 12/12 A3018 RMK SLP227 T01200120 IEM_DS3505
ZBAA,1996-10-12 00:00,ZBAA 120000Z AUTO 00000KT 1SM 12/12 A3021 RMK SLP231 T01240115 52010 IEM_DS3505
ZBAA,1996-10-12 01:00,ZBAA 120100Z AUTO 02002KT 1SM 14/13 A3021 RMK SLP236 T01400130 IEM_DS3505
ZBAA,1996-10-12 02:00,ZBAA 120200Z AUTO 02004KT 1SM 16/14 A3021 RMK SLP236 T01600140 IEM_DS3505
ZBAA,1996-10-12 03:00,ZBAA 120300Z AUTO 07004KT 1SM 18/12 A3018 RMK SLP228 T01840117 57003 IEM_DS3505
ZBAA,1996-10-12 04:00,ZBAA 120400Z AUTO ////02KT 1SM 19/16 A3018 RMK SLP225 T01900160 IEM_DS3505
ZBAA,1996-10-12 05:00,ZBAA 120500Z AUTO ////02KT 1SM 20/16 A3015 RMK SLP215 T02000160 IEM_DS3505
ZBAA,1996-10-12 06:00,ZBAA 120600Z AUTO 16004KT 1SM 21/14 A3012 RMK SLP207 T02110139 57021 IEM_DS3505
ZBAA,1996-10-12 07:00,ZBAA 120700Z AUTO ////02KT 1SM 20/16 A3012 RMK SLP205 T02000160 IEM_DS3505
ZBAA,1996-10-12 08:00,ZBAA 120800Z AUTO 15002KT 1SM 20/15 A3012 RMK SLP205 T02000150 IEM_DS3505
ZBAA,1996-10-12 09:00,ZBAA 120900Z AUTO 18006KT 1SM 20/15 A3012 RMK SLP202 T02010150 57005 IEM_DS3505
ZBAA,1996-10-12 10:00,ZBAA 121000Z AUTO ////02KT 1SM 18/15 A3012 RMK SLP205 T01800150 IEM_DS3505
ZBAA,1996-10-12 11:00,ZBAA 121100Z AUTO ////02KT 1/2SM 17/15 A3012 RMK SLP206 T01700150 IEM_DS3505
ZBAA,1996-10-12 12:00,ZBAA 121200Z AUTO 00000KT 1SM 17/14 A3012 RMK SLP205 T01680145 52003 IEM_DS3505
ZBAA,1996-10-12 13:00,ZBAA 121300Z AUTO ////02KT 1/2SM 16/15 A3012 RMK SLP206 T01600150 IEM_DS3505
ZBAA,1996-10-12 14:00,ZBAA 121400Z AUTO ////02KT 1/2SM 16/15 A3015 RMK SLP216 T01600150 IEM_DS3505
ZBAA,1996-10-12 15:00,ZBAA 121500Z AUTO 16004KT 1SM 16/14 A3015 RMK SLP206 T01620139 52002 IEM_DS3505
ZBAA,1996-10-12 16:00,ZBAA 121600Z AUTO ////02KT 3/8SM 15/15 A3012 RMK SLP206 T01500150 IEM_DS3505
ZBAA,1996-10-12 17:00,ZBAA 121700Z AUTO ////02KT 3/8SM 15/15 A3012 RMK SLP206 T01500150 IEM_DS3505
ZBAA,1996-10-12 18:00,ZBAA 121800Z AUTO 00000KT 1/4SM 14/14 A3012 RMK SLP201 T01430136 57005 IEM_DS3505
ZBAA,1996-10-12 19:00,ZBAA 121900Z AUTO 00000KT 3/8SM 14/14 A3009 RMK SLP195 T01400140 IEM_DS3505
ZBAA,1996-10-12 20:00,ZBAA 122000Z AUTO ////02KT 3/8SM 14/14 A3009 RMK SLP195 T01400140 IEM_DS3505
ZBAA,1996-10-12 21:00,ZBAA 122100Z AUTO 02006KT 1/8SM 15/14 A3009 RMK SLP192 T01480143 57009 IEM_DS3505
ZBAA,1996-10-12 22:00,ZBAA 122200Z AUTO ////02KT 3/8SM 14/14 A3009 RMK SLP195 T01400140 IEM_DS3505
ZBAA,1996-10-12 23:00,ZBAA 122300Z AUTO 00000KT 3/8SM 15/14 A3009 RMK SLP195 T01500140 IEM_DS3505
ZBAA,1996-10-13 00:00,ZBAA 130000Z AUTO 34002KT 1/8SM 15/14 A3012 RMK SLP199 T01500141 52006 IEM_DS3505
ZBAA,1996-10-13 01:00,ZBAA 130100Z AUTO ////02KT 1SM 16/14 A3012 RMK SLP206 T01600140 IEM_DS3505
ZBAA,1996-10-13 02:00,ZBAA 130200Z AUTO 24006KT 1/2SM 17/15 A3012 RMK SLP206 T01700150 IEM_DS3505
ZBAA,1996-10-13 03:00,ZBAA 130300Z AUTO 36008KT 1SM 19/12 A3009 RMK SLP198 T01940116 54000 IEM_DS3505
ZBAA,1996-10-13 04:00,ZBAA 130400Z AUTO 01010KT 1 1/4SM 20/13 A3009 RMK SLP194 T02000130 IEM_DS3505
ZBAA,1996-10-13 05:00,ZBAA 130500Z AUTO 02010KT 2SM 20/10 A3009 RMK SLP194 T02000100 IEM_DS3505
ZBAA,1996-10-13 06:00,ZBAA 130600Z AUTO 04008KT 2 1/2SM 22/08 A3006 RMK SLP187 T02150085 57011 IEM_DS3505
ZBAA,1996-10-13 07:00,ZBAA 130700Z AUTO 03008KT 6SM 20/05 A3006 RMK SLP184 T02000050 IEM_DS3505
ZBAA,1996-10-13 08:00,ZBAA 130800Z AUTO 02006KT 6SM 19/03 A3009 RMK SLP194 T01900030 IEM_DS3505
ZBAA,1996-10-13 09:00,ZBAA 130900Z AUTO 02006KT 2SM 20/05 A3009 RMK SLP196 T01950052 52009 IEM_DS3505
ZBAA,1996-10-13 10:00,ZBAA 131000Z AUTO ////04KT 6SM 17/02 A3012 RMK SLP206 T01700020 IEM_DS3505
ZBAA,1996-10-13 11:00,ZBAA 131100Z AUTO 01006KT 6SM 17/02 A3012 RMK SLP206 T01700020 IEM_DS3505
ZBAA,1996-10-13 12:00,ZBAA 131200Z AUTO 34004KT 4SM 17/06 A3012 RMK SLP206 T01710061 52009 IEM_DS3505
ZBAA,1996-10-13 13:00,ZBAA 131300Z AUTO ////02KT 6SM 16/04 A3012 RMK SLP206 T01600040 IEM_DS3505
ZBAA,1996-10-13 14:00,ZBAA 131400Z AUTO ////04KT 6SM 16/04 A3015 RMK SLP216 T01600040 IEM_DS3505
ZBAA,1996-10-13 15:00,ZBAA 131500Z AUTO 34004KT 6SM 14/06 A3012 RMK SLP207 T01420065 52001 IEM_DS3505
ZBAA,1996-10-13 16:00,ZBAA 131600Z AUTO ////04KT 6SM 13/06 A3012 RMK SLP206 T01300060 IEM_DS3505
ZBAA,1996-10-13 17:00,ZBAA 131700Z AUTO ////02KT 7SM 11/06 A3012 RMK SLP207 T01100060 IEM_DS3505
ZBAA,1996-10-13 18:00,ZBAA 131800Z AUTO 02004KT 12SM 14/04 A3015 RMK SLP208 T01350043 52002 IEM_DS3505
ZBAA,1996-10-13 19:00,ZBAA 131900Z AUTO 35006KT 7SM 10/04 A3015 RMK SLP217 T01000040 IEM_DS3505
ZBAA,1996-10-13 20:00,ZBAA 132000Z AUTO 01006KT 7SM 11/03 A3012 RMK SLP207 T01100030 IEM_DS3505
ZBAA,1996-10-13 21:00,ZBAA 132100Z AUTO 36004KT 12SM 09/06 A3012 RMK SLP208 T00890056 57001 IEM_DS3505
ZBAA,1996-10-13 22:00,ZBAA 132200Z AUTO 00000KT 7SM 08/03 A3012 RMK SLP208 T00800030 IEM_DS3505
ZBAA,1996-10-13 23:00,ZBAA 132300Z AUTO 01006KT 7SM 09/03 A3015 RMK SLP218 T00900030 IEM_DS3505
ZBAA,1996-10-14 00:00,ZBAA 140000Z AUTO 04004KT 7SM 12/02 A3015 RMK SLP214 T01240016 52006 IEM_DS3505
ZBAA,1996-10-14 01:00,ZBAA 140100Z AUTO 02006KT 7SM 12/02 A3015 RMK SLP217 T01200020 IEM_DS3505
ZBAA,1996-10-14 02:00,ZBAA 140200Z AUTO ////04KT 7SM 15/03 A3012 RMK SLP206 T01500030 IEM_DS3505
ZBAA,1996-10-14 03:00,ZBAA 140300Z AUTO 16004KT 6SM 17/02 A3012 RMK SLP206 T01730016 57008 IEM_DS3505
ZBAA,1996-10-14 04:00,ZBAA 140400Z AUTO ////04KT 7SM 18/05 A3009 RMK SLP194 T01800050 IEM_DS3505
ZBAA,1996-10-14 05:00,ZBAA 140500Z AUTO ////02KT 7SM 18/05 A3006 RMK SLP184 T01800050 IEM_DS3505
ZBAA,1996-10-14 06:00,ZBAA 140600Z AUTO 16008KT 7SM 20/07 A3000 RMK SLP167 T01990067 57038 IEM_DS3505
ZBAA,1996-10-14 07:00,ZBAA 140700Z AUTO 18006KT 7SM 19/08 A2997 RMK SLP154 T01900080 IEM_DS3505
ZBAA,1996-10-14 08:00,ZBAA 140800Z AUTO ////04KT 7SM 19/08 A2997 RMK SLP154 T01900080 IEM_DS3505
ZBAA,1996-10-14 09:00,ZBAA 140900Z AUTO 18008KT 6SM 18/08 A2997 RMK SLP155 T01830078 57013 IEM_DS3505
ZBAA,1996-10-14 10:00,ZBAA 141000Z AUTO 00000KT 5SM 16/09 A2997 RMK SLP154 T01600090 IEM_DS3505
ZBAA,1996-10-14 11:00,ZBAA 141100Z AUTO 00000KT 4SM 15/10 A2997 RMK SLP155 T01500100 IEM_DS3505
ZBAA,1996-10-14 12:00,ZBAA 141200Z AUTO 00000KT 6SM 14/10 A3000 RMK SLP161 T01370103 52006 IEM_DS3505
ZBAA,1996-10-14 13:00,ZBAA 141300Z AUTO ////02KT 4SM 13/10 A3000 RMK SLP165 T01300100 IEM_DS3505
ZBAA,1996-10-14 14:00,ZBAA 141400Z AUTO ////04KT 4SM 12/09 A3003 RMK SLP176 T01200090 IEM_DS3505
ZBAA,1996-10-14 15:00,ZBAA 141500Z AUTO 36006KT 6SM 14/08 A3003 RMK SLP176 T01360080 52015 IEM_DS3505
ZBAA,1996-10-14 16:00,ZBAA 141600Z AUTO ////04KT 4SM 11/08 A3003 RMK SLP176 T01100080 IEM_DS3505
ZBAA,1996-10-14 17:00,ZBAA 141700Z AUTO ////04KT 4SM 11/08 A3006 RMK SLP186 T01100080 IEM_DS3505
ZBAA,1996-10-14 18:00,ZBAA 141800Z AUTO 36004KT 7SM 11/08 A3006 RMK SLP186 T01070080 52010 IEM_DS3505
ZBAA,1996-10-14 19:00,ZBAA 141900Z AUTO 34006KT 4SM 11/07 A3006 RMK SLP186 T01100070 IEM_DS3505
ZBAA,1996-10-14 20:00,ZBAA 142000Z AUTO ////04KT 7SM 10/06 A3006 RMK SLP186 T01000060 IEM_DS3505
ZBAA,1996-10-14 21:00,ZBAA 142100Z AUTO 02008KT 9SM 11/07 A3009 RMK SLP195 T01070069 52009 IEM_DS3505
ZBAA,1996-10-14 22:00,ZBAA 142200Z AUTO ////02KT 6SM 09/05 A3012 RMK SLP207 T00900050 IEM_DS3505
ZBAA,1996-10-14 23:00,ZBAA 142300Z AUTO ////04KT 6SM 10/04 A3012 RMK SLP207 T01000040 IEM_DS3505
ZBAA,1996-10-15 00:00,ZBAA 150000Z AUTO 00000KT 4SM 10/07 A3015 RMK SLP221 T01030071 52025 IEM_DS3505
ZBAA,1996-10-15 01:00,ZBAA 150100Z AUTO 00000KT 7SM 13/03 A3018 RMK SLP227 T01300030 IEM_DS3505
ZBAA,1996-10-15 02:00,ZBAA 150200Z AUTO ////02KT 7SM 14/03 A3021 RMK SLP236 T01400030 IEM_DS3505
ZBAA,1996-10-15 03:00,ZBAA 150300Z AUTO 18002KT 7SM 16/M00 A3018 RMK SLP225 T01631001 52005 IEM_DS3505
ZBAA,1996-10-15 04:00,ZBAA 150400Z AUTO ////02KT 7SM 16/01 A3018 RMK SLP226 T01600010 IEM_DS3505
ZBAA,1996-10-15 05:00,ZBAA 150500Z AUTO ////04KT 7SM 18/01 A3015 RMK SLP215 T01800010 IEM_DS3505
ZBAA,1996-10-15 06:00,ZBAA 150600Z AUTO 20006KT 7SM 18/M00 A3015 RMK SLP213 T01811001 57012 IEM_DS3505
ZBAA,1996-10-15 07:00,ZBAA 150700Z AUTO ////02KT 7SM 18/02 A3012 RMK SLP205 T01800020 IEM_DS3505
ZBAA,1996-10-15 08:00,ZBAA 150800Z AUTO ////04KT 7SM 17/01 A3012 RMK SLP206 T01700010 IEM_DS3505
ZBAA,1996-10-15 09:00,ZBAA 150900Z AUTO 20006KT 8SM 17/03 A3012 RMK SLP205 T01700031 57008 IEM_DS3505
ZBAA,1996-10-15 10:00,ZBAA 151000Z AUTO ////02KT 7SM 14/03 A3015 RMK SLP216 T01400030 IEM_DS3505
ZBAA,1996-10-15 11:00,ZBAA 151100Z AUTO ////04KT 7SM 14/04 A3015 RMK SLP216 T01400040 IEM_DS3505
ZBAA,1996-10-15 12:00,ZBAA 151200Z AUTO 16006KT 7SM 14/05 A3018 RMK SLP218 T01360047 52012 IEM_DS3505
ZBAA,1996-10-15 13:00,ZBAA 151300Z AUTO 22006KT 7SM 12/05 A3018 RMK SLP227 T01200050 IEM_DS3505
ZBAA,1996-10-15 14:00,ZBAA 151400Z AUTO ////02KT 7SM 11/06 A3021 RMK SLP237 T01100060 IEM_DS3505
ZBAA,1996-10-15 15:00,ZBAA 151500Z AUTO 22004KT 6SM 12/08 A3021 RMK SLP231 T01210076 52014 IEM_DS3505
ZBAA,1996-10-15 16:00,ZBAA 151600Z AUTO 00000KT 5SM 09/07 A3021 RMK SLP238 T00900070 IEM_DS3505
ZBAA,1996-10-15 17:00,ZBAA 151700Z AUTO ////02KT 5SM 09/07 A3021 RMK SLP238 T00900070 IEM_DS3505
ZBAA,1996-10-15 18:00,ZBAA 151800Z AUTO 00000KT 6SM 11/08 A3024 RMK SLP233 T01090082 52002 IEM_DS3505
ZBAA,1996-10-15 19:00,ZBAA 151900Z AUTO ////02KT 5SM 09/08 A3021 RMK SLP238 T00900080 IEM_DS3505
ZBAA,1996-10-15 20:00,ZBAA 152000Z AUTO 00000KT 5SM 10/08 A3021 RMK SLP237 T01000080 IEM_DS3505
ZBAA,1996-10-15 21:00,ZBAA 152100Z AUTO 04004KT 6SM 10/06 A3021 RMK SLP234 T01000059 54000 IEM_DS3505
ZBAA,1996-10-15 22:00,ZBAA 152200Z AUTO 00000KT 4SM 10/08 A3021 RMK SLP237 T01000080 IEM_DS3505
ZBAA,1996-10-15 23:00,ZBAA 152300Z AUTO 00000KT 4SM 10/08 A3021 RMK SLP237 T01000080 IEM_DS3505
ZBAA,1996-10-16 00:00,ZBAA 160000Z AUTO 07004KT 2 1/2SM 10/07 A3021 RMK SLP237 T01040068 52003 IEM_DS3505
ZBAA,1996-10-16 01:00,ZBAA 160100Z AUTO ////02KT 4SM 10/09 A3024 RMK SLP247 T01000090 IEM_DS3505
ZBAA,1996-10-16 02:00,ZBAA 160200Z AUTO ////02KT 3SM 11/09 A3021 RMK SLP237 T01100090 IEM_DS3505
ZBAA,1996-10-16 03:00,ZBAA 160300Z AUTO 32004KT 4SM 11/07 A3021 RMK SLP235 T01120070 57002 IEM_DS3505
ZBAA,1996-10-16 04:00,ZBAA 160400Z AUTO ////02KT 2SM 12/10 A3018 RMK SLP227 T01200100 IEM_DS3505
ZBAA,1996-10-16 05:00,ZBAA 160500Z AUTO 00000KT 2SM 12/11 A3018 RMK SLP227 T01200110 IEM_DS3505
ZBAA,1996-10-16 06:00,ZBAA 160600Z AUTO 36004KT 4SM 12/08 A3015 RMK SLP217 T01210082 57018 IEM_DS3505
ZBAA,1996-10-16 07:00,ZBAA 160700Z AUTO 00000KT 2 1/2SM 14/10 A3012 RMK SLP206 T01400100 IEM_DS3505
ZBAA,1996-10-16 08:00,ZBAA 160800Z AUTO 35006KT 4SM 13/09 A3012 RMK SLP206 T01300090 IEM_DS3505
ZBAA,1996-10-16 09:00,ZBAA 160900Z AUTO 36004KT 3SM 12/08 A3012 RMK SLP205 T01180084 57012 IEM_DS3505
ZBAA,1996-10-16 10:00,ZBAA 161000Z AUTO 35004KT 2 1/2SM 11/09 A3012 RMK SLP207 T01100090 IEM_DS3505
ZBAA,1996-10-16 11:00,ZBAA 161100Z AUTO 00000KT 2 1/2SM 11/09 A3009 RMK SLP196 T01100090 IEM_DS3505
ZBAA,1996-10-16 12:00,ZBAA 161200Z AUTO 36004KT 3SM 11/08 A3009 RMK SLP200 T01100084 57005 IEM_DS3505
ZBAA,1996-10-16 13:00,ZBAA 161300Z AUTO ////02KT 1 1/2SM 12/10 A3009 RMK SLP196 T01200100 IEM_DS3505
ZBAA,1996-10-16 14:00,ZBAA 161400Z AUTO 00000KT 2SM 12/08 A3009 RMK SLP196 T01200080 IEM_DS3505
ZBAA,1996-10-16 15:00,ZBAA 161500Z AUTO 00000KT 4SM 11/09 A3006 RMK SLP192 T01130089 57008 IEM_DS3505
ZBAA,1996-10-16 16:00,ZBAA 161600Z AUTO ////04KT 2SM 11/10 A3006 RMK SLP186 T01100100 IEM_DS3505
ZBAA,1996-10-16 17:00,ZBAA 161700Z AUTO 00000KT 1 1/4SM 11/10 A3003 RMK SLP176 T01100100 IEM_DS3505
ZBAA,1996-10-16 18:00,ZBAA 161800Z AUTO 02004KT 4SM 11/09 A3003 RMK SLP176 T01140086 57016 IEM_DS3505
ZBAA,1996-10-16 19:00,ZBAA 161900Z AUTO 00000KT 1 1/2SM 11/09 A3000 RMK SLP166 T01100090 IEM_DS3505
ZBAA,1996-10-16 20:00,ZBAA 162000Z AUTO 00000KT 2SM 11/09 A3000 RMK SLP166 T01100090 IEM_DS3505
ZBAA,1996-10-16 21:00,ZBAA 162100Z AUTO 04002KT 3SM 12/08 A2997 RMK SLP162 T01150080 57013 IEM_DS3505
ZBAA,1996-10-16 22:00,ZBAA 162200Z AUTO 00000KT 1 1/4SM 11/11 A2997 RMK SLP156 T01100110 IEM_DS3505
ZBAA,1996-10-16 23:00,ZBAA 162300Z AUTO ////02KT 1 1/4SM 10/10 A2997 RMK SLP156 T01000100 IEM_DS3505
ZBAA,1996-10-17 00:00,ZBAA 170000Z AUTO 00000KT 3SM 11/09 A2997 RMK 60002 70002 SLP162 T01090089 57001 IEM_DS3505
ZBAA,1996-10-17 01:00,ZBAA 170100Z AUTO ////02KT 1 1/2SM 11/11 A2997 RMK SLP156 T01100110 IEM_DS3505
ZBAA,1996-10-17 02:00,ZBAA 170200Z AUTO ////02KT 1 1/2SM 11/11 A2997 RMK SLP156 T01100110 IEM_DS3505
ZBAA,1996-10-17 03:00,ZBAA 170300Z AUTO 02004KT 2 1/2SM 13/08 A2997 RMK SLP155 T01340077 57006 IEM_DS3505
ZBAA,1996-10-17 04:00,ZBAA 170400Z AUTO ////04KT 2SM 13/11 A2994 RMK SLP145 T01300110 IEM_DS3505
ZBAA,1996-10-17 05:00,ZBAA 170500Z AUTO ////02KT 2SM 14/11 A2991 RMK SLP135 T01400110 IEM_DS3505
ZBAA,1996-10-17 06:00,ZBAA 170600Z AUTO 09004KT 2 1/2SM 16/10 A2988 RMK SLP131 T01620095 57024 IEM_DS3505
ZBAA,1996-10-17 07:00,ZBAA 170700Z AUTO ////02KT 2SM 15/12 A2988 RMK SLP125 T01500120 IEM_DS3505
ZBAA,1996-10-17 08:00,ZBAA 170800Z AUTO ////02KT 1 1/2SM 15/12 A2988 RMK SLP125 T01500120 IEM_DS3505
ZBAA,1996-10-17 09:00,ZBAA 170900Z AUTO 11004KT 1 1/2SM 16/11 A2988 RMK SLP132 T01550110 52001 IEM_DS3505
ZBAA,1996-10-17 10:00,ZBAA 171000Z AUTO ////02KT 1 1/4SM 14/12 A2991 RMK SLP135 T01400120 IEM_DS3505
ZBAA,1996-10-17 11:00,ZBAA 171100Z AUTO ////02KT 1 1/4SM 13/12 A2994 RMK SLP145 T01300120 IEM_DS3505
ZBAA,1996-10-17 12:00,ZBAA 171200Z AUTO 07004KT 1SM 14/12 A2997 RMK SLP152 T01360117 52020 IEM_DS3505
ZBAA,1996-10-17 13:00,ZBAA 171300Z AUTO ////02KT 1SM 12/11 A2997 RMK SLP155 T01200110 IEM_DS3505
ZBAA,1996-10-17 14:00,ZBAA 171400Z AUTO 00000KT 1SM 12/11 A3000 RMK SLP165 T01200110 IEM_DS3505
ZBAA,1996-10-17 15:00,ZBAA 171500Z AUTO 00000KT 1SM 12/11 A3003 RMK SLP172 T01240111 52020 IEM_DS3505
ZBAA,1996-10-17 16:00,ZBAA 171600Z AUTO ////04KT 1SM 11/10 A3003 RMK SLP176 T01100100 IEM_DS3505
ZBAA,1996-10-17 17:00,ZBAA 171700Z AUTO 01004KT 1SM 10/10 A3003 RMK SLP176 T01000100 IEM_DS3505
ZBAA,1996-10-17 18:00,ZBAA 171800Z AUTO 36004KT 1 1/4SM 11/10 A3006 RMK SLP179 T01060096 52007 IEM_DS3505
ZBAA,1996-10-17 19:00,ZBAA 171900Z AUTO ////04KT 1/2SM 09/09 A3006 RMK SLP186 T00900090 IEM_DS3505
ZBAA,1996-10-17 20:00,ZBAA 172000Z AUTO 35006KT 0SM 07/07 A3006 RMK SLP187 T00700070 IEM_DS3505
ZBAA,1996-10-17 21:00,ZBAA 172100Z AUTO 02004KT 1 1/2SM 10/07 A3009 RMK 70002 SLP191 T00990074 52012 IEM_DS3505
ZBAA,1996-10-17 22:00,ZBAA 172200Z AUTO 36006KT 7SM 10/08 A3012 RMK SLP207 T01000080 IEM_DS3505
ZBAA,1996-10-17 23:00,ZBAA 172300Z AUTO 35006KT 7SM 10/06 A3012 RMK SLP207 T01000060 IEM_DS3505
ZBAA,1996-10-18 00:00,ZBAA 180000Z AUTO 02006KT 7SM 13/02 A3015 RMK SLP217 T01270018 52026 IEM_DS3505
ZBAA,1996-10-18 01:00,ZBAA 180100Z AUTO 03006KT 7SM 14/04 A3018 RMK SLP226 T01400040 IEM_DS3505
ZBAA,1996-10-18 02:00,ZBAA 180200Z AUTO 03008KT 7SM 16/03 A3018 RMK SLP226 T01600030 IEM_DS3505
ZBAA,1996-10-18 03:00,ZBAA 180300Z AUTO 04006KT 12SM 18/M02 A3018 RMK SLP227 T01751017 52010 IEM_DS3505
ZBAA,1996-10-18 04:00,ZBAA 180400Z AUTO 06006KT 7SM 18/01 A3018 RMK SLP225 T01800010 IEM_DS3505
ZBAA,1996-10-18 05:00,ZBAA 180500Z AUTO ////04KT 7SM 18/01 A3015 RMK SLP215 T01800010 IEM_DS3505
ZBAA,1996-10-18 06:00,ZBAA 180600Z AUTO 22006KT 16SM 20/01 A3012 RMK SLP212 T01970007 57015 IEM_DS3505
ZBAA,1996-10-18 07:00,ZBAA 180700Z AUTO ////02KT 7SM 20/01 A3012 RMK SLP205 T02000010 IEM_DS3505
ZBAA,1996-10-18 08:00,ZBAA 180800Z AUTO 20006KT 7SM 19/00 A3012 RMK SLP205 T01900000 IEM_DS3505
ZBAA,1996-10-18 09:00,ZBAA 180900Z AUTO 18008KT 12SM 18/01 A3015 RMK SLP213 T01850007 52001 IEM_DS3505
ZBAA,1996-10-18 10:00,ZBAA 181000Z AUTO 16002KT 7SM 16/01 A3015 RMK SLP216 T01600010 IEM_DS3505
ZBAA,1996-10-18 11:00,ZBAA 181100Z AUTO ////02KT 7SM 15/01 A3018 RMK SLP226 T01500010 IEM_DS3505
ZBAA,1996-10-18 12:00,ZBAA 181200Z AUTO 20004KT 12SM 15/05 A3018 RMK SLP224 T01470046 52011 IEM_DS3505
ZBAA,1996-10-18 13:00,ZBAA 181300Z AUTO 00000KT 7SM 14/04 A3021 RMK SLP236 T01400040 IEM_DS3505
ZBAA,1996-10-18 14:00,ZBAA 181400Z AUTO ////02KT 7SM 11/05 A3024 RMK SLP247 T01100050 IEM_DS3505
ZBAA,1996-10-18 15:00,ZBAA 181500Z AUTO 18006KT 12SM 13/05 A3024 RMK SLP243 T01300053 52019 IEM_DS3505
ZBAA,1996-10-18 16:00,ZBAA 181600Z AUTO 00000KT 6SM 09/07 A3024 RMK SLP248 T00900070 IEM_DS3505
ZBAA,1996-10-18 17:00,ZBAA 181700Z AUTO 00000KT 6SM 09/07 A3027 RMK SLP258 T00900070 IEM_DS3505
ZBAA,1996-10-18 18:00,ZBAA 181800Z AUTO 00000KT 6SM 10/07 A3027 RMK SLP252 T01020070 52009 IEM_DS3505
ZBAA,1996-10-18 19:00,ZBAA 181900Z AUTO 00000KT 6SM 08/07 A3027 RMK SLP258 T00800070 IEM_DS3505
ZBAA,1996-10-18 20:00,ZBAA 182000Z AUTO ////02KT 6SM 09/07 A3027 RMK SLP258 T00900070 IEM_DS3505
ZBAA,1996-10-18 21:00,ZBAA 182100Z AUTO 04004KT 6SM 09/05 A3027 RMK SLP258 T00900054 52005 IEM_DS3505
ZBAA,1996-10-18 22:00,ZBAA 182200Z AUTO 00000KT 5SM 08/06 A3030 RMK SLP268 T00800060 IEM_DS3505
ZBAA,1996-10-18 23:00,ZBAA 182300Z AUTO 00000KT 2 1/2SM 09/08 A3030 RMK SLP268 T00900080 IEM_DS3505
ZBAA,1996-10-19 00:00,ZBAA 190000Z AUTO 36004KT 4SM 09/07 A3033 RMK SLP270 T00940066 52012 IEM_DS3505
ZBAA,1996-10-19 01:00,ZBAA 190100Z AUTO 00000KT 2 1/2SM 11/07 A3033 RMK SLP277 T01100070 IEM_DS3505
ZBAA,1996-10-19 02:00,ZBAA 190200Z AUTO ////02KT 2 1/2SM 12/08 A3033 RMK SLP277 T01200080 IEM_DS3505
ZBAA,1996-10-19 03:00,ZBAA 190300Z AUTO 04002KT 5SM 13/07 A3033 RMK SLP274 T01290073 52004 IEM_DS3505
ZBAA,1996-10-19 04:00,ZBAA 190400Z AUTO ////02KT 3SM 13/09 A3033 RMK SLP277 T01300090 IEM_DS3505
ZBAA,1996-10-19 05:00,ZBAA 190500Z AUTO ////02KT 4SM 14/10 A3030 RMK SLP267 T01400100 IEM_DS3505
ZBAA,1996-10-19 06:00,ZBAA 190600Z AUTO 04004KT 5SM 14/08 A3027 RMK SLP254 T01400082 57020 IEM_DS3505
ZBAA,1996-10-19 07:00,ZBAA 190700Z AUTO ////02KT 3SM 15/10 A3027 RMK SLP256 T01500100 IEM_DS3505
ZBAA,1996-10-19 08:00,ZBAA 190800Z AUTO ////02KT 3SM 14/10 A3024 RMK SLP247 T01400100 IEM_DS3505
ZBAA,1996-10-19 09:00,ZBAA 190900Z AUTO 34004KT 3SM 14/09 A3024 RMK SLP250 T01360088 57004 IEM_DS3505
ZBAA,1996-10-19 10:00,ZBAA 191000Z AUTO ////04KT 2 1/2SM 13/09 A3027 RMK SLP257 T01300090 IEM_DS3505
ZBAA,1996-10-19 11:00,ZBAA 191100Z AUTO ////02KT 2 1/2SM 13/09 A3027 RMK SLP257 T01300090 IEM_DS3505
ZBAA,1996-10-19 12:00,ZBAA 191200Z AUTO 36002KT 2 1/2SM 13/09 A3030 RMK SLP260 T01310091 52010 IEM_DS3505
ZBAA,1996-10-19 13:00,ZBAA 191300Z AUTO 00000KT 2 1/2SM 12/10 A3030 RMK SLP267 T01200100 IEM_DS3505
ZBAA,1996-10-19 14:00,ZBAA 191400Z AUTO ////02KT 2 1/2SM 13/10 A3030 RMK SLP267 T01300100 IEM_DS3505
ZBAA,1996-10-19 15:00,ZBAA 191500Z AUTO 07002KT 2 1/2SM 13/09 A3030 RMK SLP267 T01290089 52007 IEM_DS3505
ZBAA,1996-10-19 16:00,ZBAA 191600Z AUTO 00000KT 2 1/2SM 11/09 A3030 RMK SLP267 T01100090 IEM_DS3505
ZBAA,1996-10-19 17:00,ZBAA 191700Z AUTO 00000KT 2 1/2SM 10/09 A3030 RMK SLP268 T01000090 IEM_DS3505
ZBAA,1996-10-19 18:00,ZBAA 191800Z AUTO 16002KT 2 1/2SM 10/08 A3030 RMK SLP266 T00970085 57001 IEM_DS3505
ZBAA,1996-10-19 19:00,ZBAA 191900Z AUTO ////02KT 2 1/2SM 10/09 A3030 RMK SLP268 T01000090 IEM_DS3505
ZBAA,1996-10-19 20:00,ZBAA 192000Z AUTO 00000KT 2 1/2SM 11/09 A3030 RMK SLP267 T01100090 IEM_DS3505
ZBAA,1996-10-19 21:00,ZBAA 192100Z AUTO 00000KT 3SM 12/09 A3030 RMK SLP263 T01240086 57003 IEM_DS3505
ZBAA,1996-10-19 22:00,ZBAA 192200Z AUTO ////02KT 2 1/2SM 11/09 A3030 RMK SLP267 T01100090 IEM_DS3505
ZBAA,1996-10-19 23:00,ZBAA 192300Z AUTO ////02KT 2 1/2SM 11/09 A3030 RMK SLP267 T01100090 IEM_DS3505
ZBAA,1996-10-20 00:00,ZBAA 200000Z AUTO 34002KT 2SM 11/09 A3033 RMK SLP272 T01130091 52009 IEM_DS3505
ZBAA,1996-10-20 01:00,ZBAA 200100Z AUTO ////04KT 2 1/2SM 12/10 A3033 RMK SLP277 T01200100 IEM_DS3505
ZBAA,1996-10-20 02:00,ZBAA 200200Z AUTO ////02KT 2 1/2SM 12/10 A3033 RMK SLP277 T01200100 IEM_DS3505
ZBAA,1996-10-20 03:00,ZBAA 200300Z AUTO 34004KT 1 1/2SM 12/10 A3033 RMK SLP274 T01210097 52002 IEM_DS3505
ZBAA,1996-10-20 04:00,ZBAA 200400Z AUTO 10002KT 3SM 12/10 A3030 RMK SLP267 T01200100 IEM_DS3505
ZBAA,1996-10-20 05:00,ZBAA 200500Z AUTO 10004KT 3SM 13/10 A3027 RMK SLP257 T01300100 IEM_DS3505
ZBAA,1996-10-20 06:00,ZBAA 200600Z AUTO 04002KT 2SM 12/09 A3024 RMK SLP251 T01240094 57023 IEM_DS3505
ZBAA,1996-10-20 07:00,ZBAA 200700Z AUTO 10004KT 2SM 12/10 A3024 RMK SLP247 T01200100 IEM_DS3505
ZBAA,1996-10-20 08:00,ZBAA 200800Z AUTO 00000KT 1 1/2SM 12/10 A3024 RMK SLP247 T01200100 IEM_DS3505
ZBAA,1996-10-20 09:00,ZBAA 200900Z AUTO 00000KT 1 1/2SM 12/10 A3024 RMK SLP247 T01200100 IEM_DS3505
ZBAA,1996-10-20 10:00,ZBAA 201000Z AUTO 00000KT 2 1/2SM 12/10 A3024 RMK SLP247 T01200100 IEM_DS3505
ZBAA,1996-10-20 11:00,ZBAA 201100Z AUTO 00000KT 2 1/2SM 12/10 A3024 RMK SLP247 T01200100 IEM_DS3505
ZBAA,1996-10-20 12:00,ZBAA 201200Z AUTO 36006KT 1 1/4SM 12/10 A3027 RMK 60000 SLP251 T01190099 52002 IEM_DS3505
ZBAA,1996-10-20 13:00,ZBAA 201300Z AUTO ////04KT 2 1/2SM 12/10 A3027 RMK SLP257 T01200100 IEM_DS3505
ZBAA,1996-10-20 14:00,ZBAA 201400Z AUTO ////02KT 2 1/2SM 12/10 A3027 RMK SLP257 T01200100 IEM_DS3505
ZBAA,1996-10-20 15:00,ZBAA 201500Z AUTO 00000KT 3SM 12/10 A3027 RMK SLP253 T01180096 52002 IEM_DS3505
ZBAA,1996-10-20 16:00,ZBAA 201600Z AUTO 00000KT 3SM 11/10 A3024 RMK SLP247 T01100100 IEM_DS3505
ZBAA,1996-10-20 17:00,ZBAA 201700Z AUTO ////04KT 2 1/2SM 11/10 A3024 RMK SLP247 T01100100 IEM_DS3505
ZBAA,1996-10-20 18:00,ZBAA 201800Z AUTO 02004KT 5SM 12/09 A3021 RMK 60000 SLP241 T01180092 57012 IEM_DS3505
ZBAA,1996-10-20 19:00,ZBAA 201900Z AUTO 02002KT 2 1/2SM 11/10 A3021 RMK SLP237 T01100100 IEM_DS3505
ZBAA,1996-10-20 20:00,ZBAA 202000Z AUTO 00000KT 2 1/2SM 11/10 A3021 RMK SLP237 T01100100 IEM_DS3505
ZBAA,1996-10-20 21:00,ZBAA 202100Z AUTO 00000KT 4SM 09/08 A3021 RMK 70002 SLP235 T00930083 57006 IEM_DS3505
ZBAA,1996-10-20 22:00,ZBAA 202200Z AUTO 02002KT 1 1/4SM 10/10 A3021 RMK SLP237 T01000100 IEM_DS3505
ZBAA,1996-10-20 23:00,ZBAA 202300Z AUTO 02002KT 1 1/4SM 11/10 A3021 RMK SLP237 T01100100 IEM_DS3505
ZBAA,1996-10-21 00:00,ZBAA 210000Z AUTO 04002KT 2 1/2SM 12/10 A3024 RMK 60000 70002 SLP245 T01170097 52010 IEM_DS3505
ZBAA,1996-10-21 01:00,ZBAA 210100Z AUTO 00000KT 2SM 13/11 A3024 RMK SLP247 T01300110 IEM_DS3505
ZBAA,1996-10-21 02:00,ZBAA 210200Z AUTO ////02KT 2 1/2SM 14/11 A3024 RMK SLP247 T01400110 IEM_DS3505
ZBAA,1996-10-21 03:00,ZBAA 210300Z AUTO 02004KT 3SM 15/10 A3024 RMK SLP245 T01530095 54000 IEM_DS3505
ZBAA,1996-10-21 04:00,ZBAA 210400Z AUTO ////04KT 2 1/2SM 17/12 A3021 RMK SLP236 T01700120 IEM_DS3505
ZBAA,1996-10-21 05:00,ZBAA 210500Z AUTO 14006KT 2 1/2SM 17/11 A3018 RMK SLP226 T01700110 IEM_DS3505
ZBAA,1996-10-21 06:00,ZBAA 210600Z AUTO 16006KT 4SM 17/08 A3018 RMK SLP225 T01730083 57019 IEM_DS3505
ZBAA,1996-10-21 07:00,ZBAA 210700Z AUTO ////04KT 2 1/2SM 18/10 A3015 RMK SLP215 T01800100 IEM_DS3505
ZBAA,1996-10-21 08:00,ZBAA 210800Z AUTO ////02KT 2 1/2SM 17/11 A3015 RMK SLP216 T01700110 IEM_DS3505
ZBAA,1996-10-21 09:00,ZBAA 210900Z AUTO 20006KT 4SM 17/09 A3015 RMK SLP216 T01700093 57009 IEM_DS3505
ZBAA,1996-10-21 10:00,ZBAA 211000Z AUTO 00000KT 2SM 16/11 A3015 RMK SLP216 T01600110 IEM_DS3505
ZBAA,1996-10-21 11:00,ZBAA 211100Z AUTO 00000KT 1 1/2SM 14/11 A3015 RMK SLP216 T01400110 IEM_DS3505
ZBAA,1996-10-21 12:00,ZBAA 211200Z AUTO 18006KT 3SM 15/10 A3018 RMK SLP221 T01540096 52005 IEM_DS3505
ZBAA,1996-10-21 13:00,ZBAA 211300Z AUTO ////02KT 1 1/2SM 13/11 A3018 RMK SLP227 T01300110 IEM_DS3505
ZBAA,1996-10-21 14:00,ZBAA 211400Z AUTO 00000KT 1 1/2SM 13/11 A3021 RMK SLP237 T01300110 IEM_DS3505
ZBAA,1996-10-21 15:00,ZBAA 211500Z AUTO 11004KT 2 1/2SM 14/10 A3021 RMK SLP229 T01420102 52008 IEM_DS3505
ZBAA,1996-10-21 16:00,ZBAA 211600Z AUTO 00000KT 1 1/4SM 12/11 A3021 RMK SLP237 T01200110 IEM_DS3505
ZBAA,1996-10-21 17:00,ZBAA 211700Z AUTO ////02KT 1 1/4SM 12/11 A3018 RMK SLP227 T01200110 IEM_DS3505
ZBAA,1996-10-21 18:00,ZBAA 211800Z AUTO 29002KT 1 1/4SM 12/10 A3018 RMK SLP227 T01210102 57002 IEM_DS3505
ZBAA,1996-10-21 19:00,ZBAA 211900Z AUTO 00000KT 1 1/4SM 12/11 A3018 RMK SLP227 T01200110 IEM_DS3505
ZBAA,1996-10-21 20:00,ZBAA 212000Z AUTO 00000KT 1 1/4SM 12/11 A3018 RMK SLP227 T01200110 IEM_DS3505
ZBAA,1996-10-21 21:00,ZBAA 212100Z AUTO 00000KT 2SM 12/10 A3018 RMK SLP226 T01190103 57001 IEM_DS3505
ZBAA,1996-10-21 22:00,ZBAA 212200Z AUTO 00000KT 1 1/4SM 12/11 A3018 RMK SLP227 T01200110 IEM_DS3505
ZBAA,1996-10-21 23:00,ZBAA 212300Z AUTO 00000KT 1 1/4SM 12/12 A3015 RMK SLP217 T01200120 IEM_DS3505
ZBAA,1996-10-22 00:00,ZBAA 220000Z AUTO 00000KT 1SM 12/11 A3015 RMK SLP221 T01230108 57005 IEM_DS3505
ZBAA,1996-10-22 01:00,ZBAA 220100Z AUTO ////02KT 1 1/4SM 14/12 A3018 RMK SLP226 T01400120 IEM_DS3505
ZBAA,1996-10-22 02:00,ZBAA 220200Z AUTO ////04KT 1 1/2SM 15/13 A3018 RMK SLP226 T01500130 IEM_DS3505
ZBAA,1996-10-22 03:00,ZBAA 220300Z AUTO 11004KT 1 1/4SM 16/11 A3015 RMK SLP218 T01570110 57003 IEM_DS3505
ZBAA,1996-10-22 04:00,ZBAA 220400Z AUTO ////04KT 2 1/2SM 16/12 A3015 RMK SLP216 T01600120 IEM_DS3505
ZBAA,1996-10-22 05:00,ZBAA 220500Z AUTO ////02KT 2 1/2SM 16/13 A3012 RMK SLP206 T01600130 IEM_DS3505
ZBAA,1996-10-22 06:00,ZBAA 220600Z AUTO 18004KT 1 1/4SM 17/10 A3012 RMK SLP201 T01670105 57017 IEM_DS3505
ZBAA,1996-10-22 08:00,ZBAA 220800Z AUTO 00000KT 3SM 16/12 A3009 RMK SLP195 T01600120 IEM_DS3505
ZBAA,1996-10-22 09:00,ZBAA 220900Z AUTO 34002KT 1SM 15/12 A3009 RMK SLP204 T01470123 52003 IEM_DS3505
ZBAA,1996-10-22 10:00,ZBAA 221000Z AUTO ////04KT 2SM 15/13 A3012 RMK SLP206 T01500130 IEM_DS3505
ZBAA,1996-10-22 11:00,ZBAA 221100Z AUTO ////02KT 1 1/2SM 14/13 A3012 RMK SLP206 T01400130 IEM_DS3505
ZBAA,1996-10-22 12:00,ZBAA 221200Z AUTO 00000KT 1SM 12/12 A3015 RMK 60000 SLP215 T01240115 52010 IEM_DS3505
ZBAA,1996-10-22 13:00,ZBAA 221300Z AUTO 00000KT 1/2SM 12/12 A3018 RMK SLP227 T01200120 IEM_DS3505
ZBAA,1996-10-22 14:00,ZBAA 221400Z AUTO ////02KT 3/8SM 13/12 A3015 RMK SLP217 T01300120 IEM_DS3505
ZBAA,1996-10-22 15:00,ZBAA 221500Z AUTO 00000KT 1SM 12/11 A3018 RMK SLP222 T01170109 52008 IEM_DS3505
ZBAA,1996-10-22 16:00,ZBAA 221600Z AUTO 00000KT 1/4SM 12/12 A3018 RMK SLP227 T01200120 IEM_DS3505
ZBAA,1996-10-22 17:00,ZBAA 221700Z AUTO ////02KT 1/8SM 11/11 A3021 RMK SLP237 T01100110 IEM_DS3505
ZBAA,1996-10-22 18:00,ZBAA 221800Z AUTO 00000KT 1SM 12/11 A3021 RMK SLP232 T01210111 52010 IEM_DS3505
ZBAA,1996-10-22 19:00,ZBAA 221900Z AUTO 00000KT 1SM 12/12 A3018 RMK SLP227 T01200120 IEM_DS3505
ZBAA,1996-10-22 20:00,ZBAA 222000Z AUTO ////04KT 1SM 12/12 A3021 RMK SLP237 T01200120 IEM_DS3505
ZBAA,1996-10-22 21:00,ZBAA 222100Z AUTO 00000KT 1 1/4SM 13/11 A3021 RMK 70002 SLP237 T01280113 52005 IEM_DS3505
ZBAA,1996-10-22 22:00,ZBAA 222200Z AUTO 30008KT 2SM 13/11 A3021 RMK SLP237 T01300110 IEM_DS3505
ZBAA,1996-10-22 23:00,ZBAA 222300Z AUTO 00000KT 1 1/4SM 12/11 A3024 RMK SLP247 T01200110 IEM_DS3505
ZBAA,1996-10-23 00:00,ZBAA 230000Z AUTO 00000KT 1 1/2SM 13/12 A3024 RMK 60002 70002 SLP248 T01310118 52010 IEM_DS3505
ZBAA,1996-10-23 01:00,ZBAA 230100Z AUTO 00000KT 1 1/4SM 14/11 A3024 RMK SLP247 T01400110 IEM_DS3505
ZBAA,1996-10-23 02:00,ZBAA 230200Z AUTO ////02KT 1 1/4SM 16/13 A3024 RMK SLP246 T01600130 IEM_DS3505
ZBAA,1996-10-23 03:00,ZBAA 230300Z AUTO 34006KT 12SM 19/01 A3024 RMK SLP247 T01910010 54000 IEM_DS3505
ZBAA,1996-10-23 04:00,ZBAA 230400Z AUTO 29012KT 7SM 20/03 A3024 RMK SLP245 T02000030 IEM_DS3505
ZBAA,1996-10-23 05:00,ZBAA 230500Z AUTO 28012KT 7SM 20/01 A3021 RMK SLP235 T02000010 IEM_DS3505
ZBAA,1996-10-23 06:00,ZBAA 230600Z AUTO 34010KT 12SM 21/M01 A3021 RMK SLP233 T02061014 57014 IEM_DS3505
ZBAA,1996-10-23 07:00,ZBAA 230700Z AUTO 28012KT 7SM 20/00 A3018 RMK SLP225 T02000000 IEM_DS3505
ZBAA,1996-10-23 08:00,ZBAA 230800Z AUTO 29014KT 7SM 20/00 A3021 RMK SLP235 T02000000 IEM_DS3505
ZBAA,1996-10-23 09:00,ZBAA 230900Z AUTO 32002KT 7SM 18/04 A3021 RMK SLP235 T01850036 52002 IEM_DS3505
ZBAA,1996-10-23 10:00,ZBAA 231000Z AUTO 29008KT 7SM 17/01 A3021 RMK SLP236 T01700010 IEM_DS3505
ZBAA,1996-10-23 11:00,ZBAA 231100Z AUTO 30010KT 7SM 16/01 A3024 RMK SLP246 T01600010 IEM_DS3505
ZBAA,1996-10-23 12:00,ZBAA 231200Z AUTO 27002KT 7SM 13/04 A3024 RMK SLP247 T01330040 52011 IEM_DS3505
ZBAA,1996-10-23 13:00,ZBAA 231300Z AUTO 32008KT 7SM 14/M01 A3027 RMK SLP257 T01401010 IEM_DS3505
ZBAA,1996-10-23 14:00,ZBAA 231400Z AUTO 29006KT 7SM 12/00 A3027 RMK SLP257 T01200000 IEM_DS3505
ZBAA,1996-10-23 15:00,ZBAA 231500Z AUTO 34004KT 12SM 12/01 A3030 RMK SLP263 T01150012 52017 IEM_DS3505
ZBAA,1996-10-23 16:00,ZBAA 231600Z AUTO 30006KT 6SM 10/02 A3030 RMK SLP268 T01000020 IEM_DS3505
ZBAA,1996-10-23 17:00,ZBAA 231700Z AUTO ////02KT 6SM 10/01 A3030 RMK SLP268 T01000010 IEM_DS3505
ZBAA,1996-10-23 18:00,ZBAA 231800Z AUTO 02004KT 12SM 11/01 A3030 RMK SLP262 T01090010 57001 IEM_DS3505
ZBAA,1996-10-23 19:00,ZBAA 231900Z AUTO 00000KT 7SM 08/02 A3030 RMK SLP268 T00800020 IEM_DS3505
ZBAA,1996-10-23 20:00,ZBAA 232000Z AUTO ////02KT 7SM 08/02 A3030 RMK SLP268 T00800020 IEM_DS3505
ZBAA,1996-10-23 21:00,ZBAA 232100Z AUTO 02006KT 12SM 11/M01 A3033 RMK 70000 SLP265 T01091010 52003 IEM_DS3505
ZBAA,1996-10-23 22:00,ZBAA 232200Z AUTO ////04KT 7SM 07/01 A3033 RMK SLP278 T00700010 IEM_DS3505
ZBAA,1996-10-23 23:00,ZBAA 232300Z AUTO 00000KT 7SM 06/03 A3033 RMK SLP279 T00600030 IEM_DS3505
ZBAA,1996-10-24 00:00,ZBAA 240000Z AUTO 02006KT 12SM 12/M00 A3036 RMK SLP284 T01191005 52018 IEM_DS3505
ZBAA,1996-10-24 01:00,ZBAA 240100Z AUTO 02006KT 7SM 12/02 A3036 RMK SLP287 T01200020 IEM_DS3505
ZBAA,1996-10-24 02:00,ZBAA 240200Z AUTO 01008KT 7SM 14/02 A3036 RMK SLP287 T01400020 IEM_DS3505
ZBAA,1996-10-24 03:00,ZBAA 240300Z AUTO 07006KT 9SM 17/M02 A3036 RMK SLP284 T01661019 54000 IEM_DS3505
ZBAA,1996-10-24 04:00,ZBAA 240400Z AUTO ////04KT 6SM 17/00 A3033 RMK SLP276 T01700000 IEM_DS3505
ZBAA,1996-10-24 05:00,ZBAA 240500Z AUTO ////04KT 6SM 18/00 A3030 RMK SLP266 T01800000 IEM_DS3505
ZBAA,1996-10-24 06:00,ZBAA 240600Z AUTO 14004KT 9SM 18/M00 A3027 RMK SLP256 T01831005 57027 IEM_DS3505
ZBAA,1996-10-24 07:00,ZBAA 240700Z AUTO 14006KT 7SM 18/01 A3024 RMK SLP246 T01800010 IEM_DS3505
ZBAA,1996-10-24 08:00,ZBAA 240800Z AUTO 18006KT 7SM 17/01 A3024 RMK SLP246 T01700010 IEM_DS3505
ZBAA,1996-10-24 09:00,ZBAA 240900Z AUTO 16008KT 9SM 17/02 A3024 RMK SLP244 T01700024 57012 IEM_DS3505
ZBAA,1996-10-24 10:00,ZBAA 241000Z AUTO ////02KT 7SM 15/04 A3024 RMK SLP246 T01500040 IEM_DS3505
ZBAA,1996-10-24 11:00,ZBAA 241100Z AUTO ////02KT 7SM 14/05 A3027 RMK SLP257 T01400050 IEM_DS3505
ZBAA,1996-10-24 12:00,ZBAA 241200Z AUTO 16008KT 9SM 14/07 A3027 RMK SLP252 T01450067 52007 IEM_DS3505
ZBAA,1996-10-24 13:00,ZBAA 241300Z AUTO 17006KT 7SM 13/08 A3027 RMK SLP257 T01300080 IEM_DS3505
ZBAA,1996-10-24 14:00,ZBAA 241400Z AUTO ////02KT 7SM 13/08 A3027 RMK SLP257 T01300080 IEM_DS3505
ZBAA,1996-10-24 15:00,ZBAA 241500Z AUTO 20008KT 12SM 13/08 A3027 RMK SLP254 T01280077 52003 IEM_DS3505
ZBAA,1996-10-24 16:00,ZBAA 241600Z AUTO ////04KT 7SM 12/08 A3027 RMK SLP257 T01200080 IEM_DS3505
ZBAA,1996-10-24 17:00,ZBAA 241700Z AUTO ////04KT 7SM 11/08 A3027 RMK SLP257 T01100080 IEM_DS3505
ZBAA,1996-10-24 18:00,ZBAA 241800Z AUTO 34004KT 11SM 12/07 A3030 RMK SLP266 T01200072 52012 IEM_DS3505
ZBAA,1996-10-24 19:00,ZBAA 241900Z AUTO 02006KT 6SM 11/04 A3030 RMK SLP267 T01100040 IEM_DS3505
ZBAA,1996-10-24 20:00,ZBAA 242000Z AUTO ////02KT 6SM 10/04 A3030 RMK SLP268 T01000040 IEM_DS3505
ZBAA,1996-10-24 21:00,ZBAA 242100Z AUTO 34004KT 16SM 10/03 A3030 RMK SLP270 T01020027 52003 IEM_DS3505
ZBAA,1996-10-24 22:00,ZBAA 242200Z AUTO 32016KT 7SM 10/M02 A3033 RMK SLP278 T01001020 IEM_DS3505
ZBAA,1996-10-24 23:00,ZBAA 242300Z AUTO 32021KT 7SM 09/M09 A3036 RMK SLP288 T00901090 IEM_DS3505
ZBAA,1996-10-25 00:00,ZBAA 250000Z AUTO 34010KT 19SM 09/M07 A3042 RMK SLP313 T00901074 52043 IEM_DS3505
ZBAA,1996-10-25 01:00,ZBAA 250100Z AUTO 32019KT 7SM 09/M08 A3045 RMK SLP319 T00901080 IEM_DS3505
ZBAA,1996-10-25 02:00,ZBAA 250200Z AUTO 31019KT 7SM 10/M08 A3047 RMK SLP326 T01001080 IEM_DS3505
ZBAA,1996-10-25 03:00,ZBAA 250300Z AUTO 32019KT 7SM 11/M08 A3050 RMK SLP336 T01101080 IEM_DS3505
ZBAA,1996-10-25 04:00,ZBAA 250400Z AUTO 32014KT 7SM 11/M08 A3047 RMK SLP326 T01101080 IEM_DS3505
ZBAA,1996-10-25 05:00,ZBAA 250500Z AUTO 33014KT 7SM 12/M09 A3047 RMK SLP326 T01201090 IEM_DS3505
ZBAA,1996-10-25 06:00,ZBAA 250600Z AUTO 02014KT 16SM 12/M08 A3045 RMK SLP320 T01211085 57012 IEM_DS3505
ZBAA,1996-10-25 07:00,ZBAA 250700Z AUTO 35012KT 7SM 13/M09 A3045 RMK SLP318 T01301090 IEM_DS3505
ZBAA,1996-10-25 08:00,ZBAA 250800Z AUTO 32014KT 7SM 12/M11 A3045 RMK SLP318 T01201110 IEM_DS3505
ZBAA,1996-10-25 09:00,ZBAA 250900Z AUTO 32006KT 19SM 11/M11 A3045 RMK SLP317 T01121108 57004 IEM_DS3505
ZBAA,1996-10-25 10:00,ZBAA 251000Z AUTO 33010KT 7SM 10/M11 A3045 RMK SLP319 T01001110 IEM_DS3505
ZBAA,1996-10-25 11:00,ZBAA 251100Z AUTO ////02KT 7SM 08/M08 A3047 RMK SLP326 T00801080 IEM_DS3505
ZBAA,1996-10-25 12:00,ZBAA 251200Z AUTO 36002KT 19SM 08/M06 A3047 RMK SLP328 T00761058 52011 IEM_DS3505
ZBAA,1996-10-25 13:00,ZBAA 251300Z AUTO ////04KT 7SM 07/M08 A3050 RMK SLP337 T00701080 IEM_DS3505
ZBAA,1996-10-25 14:00,ZBAA 251400Z AUTO ////04KT 7SM 06/M07 A3050 RMK SLP337 T00601070 IEM_DS3505
ZBAA,1996-10-25 15:00,ZBAA 251500Z AUTO 00000KT 19SM 04/M03 A3050 RMK SLP333 T00411029 52004 IEM_DS3505
ZBAA,1996-10-25 16:00,ZBAA 251600Z AUTO 00000KT 7SM 04/M05 A3047 RMK SLP327 T00401050 IEM_DS3505
ZBAA,1996-10-25 17:00,ZBAA 251700Z AUTO 00000KT 7SM 03/M05 A3047 RMK SLP328 T00301050 IEM_DS3505
ZBAA,1996-10-25 18:00,ZBAA 251800Z AUTO 18004KT 16SM 05/M05 A3045 RMK SLP324 T00461052 57008 IEM_DS3505
ZBAA,1996-10-25 20:00,ZBAA 252000Z AUTO ////04KT 7SM 02/M03 A3042 RMK SLP311 T00201030 IEM_DS3505
ZBAA,1996-10-25 21:00,ZBAA 252100Z AUTO 18006KT 12SM 04/M05 A3042 RMK SLP303 T00441047 57021 IEM_DS3505
ZBAA,1996-10-25 22:00,ZBAA 252200Z AUTO 00000KT 7SM 01/M03 A3039 RMK SLP301 T00101030 IEM_DS3505
ZBAA,1996-10-25 23:00,ZBAA 252300Z AUTO 00000KT 7SM 01/M02 A3039 RMK SLP301 T00101020 IEM_DS3505
ZBAA,1996-10-26 00:00,ZBAA 260000Z AUTO 00000KT 4SM 03/M03 A3039 RMK SLP300 T00341027 57004 IEM_DS3505
ZBAA,1996-10-26 01:00,ZBAA 260100Z AUTO ////02KT 7SM 04/M01 A3039 RMK SLP300 T00401010 IEM_DS3505
ZBAA,1996-10-26 02:00,ZBAA 260200Z AUTO ////02KT 7SM 07/M01 A3036 RMK SLP288 T00701010 IEM_DS3505
ZBAA,1996-10-26 03:00,ZBAA 260300Z AUTO 22010KT 6SM 11/M05 A3033 RMK SLP276 T01091054 57023 IEM_DS3505
ZBAA,1996-10-26 04:00,ZBAA 260400Z AUTO 22014KT 7SM 12/M05 A3030 RMK SLP267 T01201050 IEM_DS3505
ZBAA,1996-10-26 05:00,ZBAA 260500Z AUTO 22012KT 7SM 13/M04 A3024 RMK SLP247 T01301040 IEM_DS3505
ZBAA,1996-10-26 06:00,ZBAA 260600Z AUTO 18014KT 9SM 13/M05 A3018 RMK SLP228 T01311051 57048 IEM_DS3505
ZBAA,1996-10-26 07:00,ZBAA 260700Z AUTO 20010KT 7SM 13/M03 A3015 RMK SLP217 T01301030 IEM_DS3505
ZBAA,1996-10-26 08:00,ZBAA 260800Z AUTO 19010KT 7SM 13/M02 A3012 RMK SLP206 T01301020 IEM_DS3505
ZBAA,1996-10-26 09:00,ZBAA 260900Z AUTO 20008KT 9SM 12/M03 A3009 RMK SLP199 T01231027 57028 IEM_DS3505
ZBAA,1996-10-26 10:00,ZBAA 261000Z AUTO ////04KT 7SM 11/M02 A3009 RMK SLP196 T01101020 IEM_DS3505
ZBAA,1996-10-26 11:00,ZBAA 261100Z AUTO ////04KT 7SM 10/M01 A3006 RMK SLP186 T01001010 IEM_DS3505
ZBAA,1996-10-26 12:00,ZBAA 261200Z AUTO 16008KT 12SM 10/M00 A3006 RMK SLP186 T01031005 57014 IEM_DS3505
ZBAA,1996-10-26 13:00,ZBAA 261300Z AUTO ////02KT 5SM 08/00 A3006 RMK SLP187 T00800000 IEM_DS3505
ZBAA,1996-10-26 14:00,ZBAA 261400Z AUTO ////04KT 5SM 07/01 A3003 RMK SLP177 T00700010 IEM_DS3505
ZBAA,1996-10-26 15:00,ZBAA 261500Z AUTO 20004KT 9SM 07/02 A3003 RMK SLP175 T00720015 57010 IEM_DS3505
ZBAA,1996-10-26 16:00,ZBAA 261600Z AUTO ////04KT 5SM 05/02 A3000 RMK SLP167 T00500020 IEM_DS3505
ZBAA,1996-10-26 17:00,ZBAA 261700Z AUTO ////04KT 5SM 05/02 A3000 RMK SLP167 T00500020 IEM_DS3505
ZBAA,1996-10-26 18:00,ZBAA 261800Z AUTO 02006KT 6SM 06/01 A2997 RMK SLP158 T00630007 57017 IEM_DS3505
ZBAA,1996-10-26 20:00,ZBAA 262000Z AUTO 00000KT 4SM 04/02 A2994 RMK SLP147 T00400020 IEM_DS3505
ZBAA,1996-10-26 21:00,ZBAA 262100Z AUTO 02004KT 4SM 05/01 A2994 RMK SLP146 T00510013 57012 IEM_DS3505
ZBAA,1996-10-26 22:00,ZBAA 262200Z AUTO 00000KT 2 1/2SM 03/02 A2991 RMK SLP137 T00300020 IEM_DS3505
ZBAA,1996-10-26 23:00,ZBAA 262300Z AUTO 00000KT 2 1/2SM 03/03 A2991 RMK SLP137 T00300030 IEM_DS3505
ZBAA,1996-10-27 00:00,ZBAA 270000Z AUTO 02004KT 4SM 05/01 A2994 RMK SLP143 T00530007 57003 IEM_DS3505
ZBAA,1996-10-27 01:00,ZBAA 270100Z AUTO ////02KT 2 1/2SM 06/05 A2994 RMK SLP147 T00600050 IEM_DS3505
ZBAA,1996-10-27 02:00,ZBAA 270200Z AUTO ////02KT 2SM 07/06 A2991 RMK SLP136 T00700060 IEM_DS3505
ZBAA,1996-10-27 03:00,ZBAA 270300Z AUTO 02004KT 2SM 10/04 A2991 RMK SLP135 T00970040 57008 IEM_DS3505
ZBAA,1996-10-27 04:00,ZBAA 270400Z AUTO ////04KT 2 1/2SM 11/07 A2988 RMK SLP125 T01100070 IEM_DS3505
ZBAA,1996-10-27 05:00,ZBAA 270500Z AUTO ////02KT 2 1/2SM 12/07 A2985 RMK SLP115 T01200070 IEM_DS3505
ZBAA,1996-10-27 06:00,ZBAA 270600Z AUTO 11002KT 1 1/4SM 12/04 A2983 RMK SLP108 T01240043 57027 IEM_DS3505
ZBAA,1996-10-27 07:00,ZBAA 270700Z AUTO 15004KT 2 1/2SM 13/06 A2983 RMK SLP108 T01300060 IEM_DS3505
ZBAA,1996-10-27 08:00,ZBAA 270800Z AUTO 19004KT 2 1/2SM 13/07 A2980 RMK SLP098 T01300070 IEM_DS3505
ZBAA,1996-10-27 09:00,ZBAA 270900Z AUTO 00000KT 1 1/2SM 12/05 A2980 RMK SLP099 T01210052 57009 IEM_DS3505
ZBAA,1996-10-27 10:00,ZBAA 271000Z AUTO 00000KT 2SM 12/06 A2980 RMK SLP098 T01200060 IEM_DS3505
ZBAA,1996-10-27 11:00,ZBAA 271100Z AUTO ////02KT 2SM 10/06 A2983 RMK SLP109 T01000060 IEM_DS3505
ZBAA,1996-10-27 12:00,ZBAA 271200Z AUTO 00000KT 1 1/4SM 08/06 A2983 RMK SLP104 T00820058 52005 IEM_DS3505
ZBAA,1996-10-27 13:00,ZBAA 271300Z AUTO 00000KT 1 1/2SM 09/06 A2983 RMK SLP109 T00900060 IEM_DS3505
ZBAA,1996-10-27 14:00,ZBAA 271400Z AUTO ////04KT 1 1/2SM 08/07 A2983 RMK SLP109 T00800070 IEM_DS3505
ZBAA,1996-10-27 15:00,ZBAA 271500Z AUTO 00000KT 2SM 08/05 A2980 RMK SLP096 T00770050 57008 IEM_DS3505
ZBAA,1996-10-27 16:00,ZBAA 271600Z AUTO 32004KT 1 1/2SM 07/06 A2977 RMK SLP089 T00700060 IEM_DS3505
ZBAA,1996-10-27 17:00,ZBAA 271700Z AUTO ////04KT 1 1/2SM 07/06 A2977 RMK SLP089 T00700060 IEM_DS3505
ZBAA,1996-10-27 18:00,ZBAA 271800Z AUTO 00000KT 1 1/4SM 07/05 A2977 RMK SLP084 T00680050 57011 IEM_DS3505
ZBAA,1996-10-27 19:00,ZBAA 271900Z AUTO 33004KT 1 1/4SM 07/06 A2974 RMK SLP078 T00700060 IEM_DS3505
ZBAA,1996-10-27 20:00,ZBAA 272000Z AUTO 32004KT 1SM 07/06 A2974 RMK SLP078 T00700060 IEM_DS3505
ZBAA,1996-10-27 21:00,ZBAA 272100Z AUTO 00000KT 1 1/4SM 06/05 A2974 RMK SLP077 T00640048 57007 IEM_DS3505
ZBAA,1996-10-27 22:00,ZBAA 272200Z AUTO 00000KT 1SM 06/06 A2977 RMK SLP089 T00600060 IEM_DS3505
ZBAA,1996-10-27 23:00,ZBAA 272300Z AUTO 01004KT 1SM 07/06 A2980 RMK SLP099 T00700060 IEM_DS3505
ZBAA,1996-10-28 00:00,ZBAA 280000Z AUTO 07004KT 1SM 08/06 A2983 RMK SLP105 T00780056 52027 IEM_DS3505
ZBAA,1996-10-28 01:00,ZBAA 280100Z AUTO 00000KT 1SM 10/08 A2985 RMK SLP116 T01000080 IEM_DS3505
ZBAA,1996-10-28 02:00,ZBAA 280200Z AUTO 34012KT 4SM 17/05 A2985 RMK SLP114 T01700050 IEM_DS3505
ZBAA,1996-10-28 03:00,ZBAA 280300Z AUTO 32010KT 16SM 18/M07 A2988 RMK SLP123 T01801074 52019 IEM_DS3505
ZBAA,1996-10-28 04:00,ZBAA 280400Z AUTO 32010KT 6SM 17/M02 A2988 RMK SLP124 T01701020 IEM_DS3505
ZBAA,1996-10-28 05:00,ZBAA 280500Z AUTO 32008KT 6SM 19/M02 A2988 RMK SLP124 T01901020 IEM_DS3505
ZBAA,1996-10-28 06:00,ZBAA 280600Z AUTO 34014KT 16SM 18/M06 A2988 RMK SLP125 T01831061 52002 IEM_DS3505
ZBAA,1996-10-28 07:00,ZBAA 280700Z AUTO 29017G27KT 7SM 18/M06 A2988 RMK SLP124 T01801060 IEM_DS3505
ZBAA,1996-10-28 08:00,ZBAA 280800Z AUTO 31014KT 7SM 18/M06 A2988 RMK SLP124 T01801060 IEM_DS3505
ZBAA,1996-10-28 09:00,ZBAA 280900Z AUTO 34008KT 16SM 16/M06 A2988 RMK SLP130 T01601061 52005 IEM_DS3505
ZBAA,1996-10-28 10:00,ZBAA 281000Z AUTO 32006KT 7SM 15/M06 A2991 RMK SLP135 T01501060 IEM_DS3505
ZBAA,1996-10-28 11:00,ZBAA 281100Z AUTO ////02KT 7SM 12/M05 A2991 RMK SLP135 T01201050 IEM_DS3505
ZBAA,1996-10-28 12:00,ZBAA 281200Z AUTO 07006KT 12SM 13/M03 A2991 RMK SLP133 T01301026 52002 IEM_DS3505
ZBAA,1996-10-28 13:00,ZBAA 281300Z AUTO 00000KT 6SM 11/M04 A2991 RMK SLP135 T01101040 IEM_DS3505
ZBAA,1996-10-28 14:00,ZBAA 281400Z AUTO 00000KT 6SM 09/M03 A2991 RMK SLP136 T00901030 IEM_DS3505
ZBAA,1996-10-28 15:00,ZBAA 281500Z AUTO 27002KT 7SM 09/02 A2991 RMK SLP138 T00900015 52006 IEM_DS3505
ZBAA,1996-10-28 16:00,ZBAA 281600Z AUTO 00000KT 6SM 09/M01 A2991 RMK SLP136 T00901010 IEM_DS3505
ZBAA,1996-10-28 17:00,ZBAA 281700Z AUTO 00000KT 6SM 09/M01 A2988 RMK SLP126 T00901010 IEM_DS3505
ZBAA,1996-10-28 18:00,ZBAA 281800Z AUTO 04002KT 5SM 10/02 A2988 RMK SLP123 T00970015 57015 IEM_DS3505
ZBAA,1996-10-28 20:00,ZBAA 282000Z AUTO ////04KT 6SM 11/03 A2983 RMK SLP108 T01100030 IEM_DS3505
ZBAA,1996-10-28 21:00,ZBAA 282100Z AUTO 00000KT 6SM 08/02 A2980 RMK SLP100 T00800017 57023 IEM_DS3505
ZBAA,1996-10-28 22:00,ZBAA 282200Z AUTO 12006KT 7SM 10/05 A2977 RMK SLP088 T01000050 IEM_DS3505
ZBAA,1996-10-28 23:00,ZBAA 282300Z AUTO ////02KT 5SM 09/05 A2977 RMK SLP089 T00900050 IEM_DS3505
ZBAA,1996-10-29 00:00,ZBAA 290000Z AUTO 00000KT 5SM 08/02 A2977 RMK SLP092 T00830015 57008 IEM_DS3505
ZBAA,1996-10-29 01:00,ZBAA 290100Z AUTO 30006KT 4SM 11/06 A2977 RMK SLP088 T01100060 IEM_DS3505
ZBAA,1996-10-29 02:00,ZBAA 290200Z AUTO 29006KT 5SM 14/07 A2980 RMK SLP098 T01400070 IEM_DS3505
ZBAA,1996-10-29 03:00,ZBAA 290300Z AUTO 34006KT 5SM 13/04 A2980 RMK SLP094 T01340037 52002 IEM_DS3505
ZBAA,1996-10-29 04:00,ZBAA 290400Z AUTO ////04KT 7SM 17/09 A2980 RMK SLP097 T01700090 IEM_DS3505
ZBAA,1996-10-29 05:00,ZBAA 290500Z AUTO ////02KT 7SM 20/08 A2977 RMK SLP086 T02000080 IEM_DS3505
ZBAA,1996-10-29 06:00,ZBAA 290600Z AUTO 34006KT 9SM 21/02 A2977 RMK SLP082 T02080023 57011 IEM_DS3505
ZBAA,1996-10-29 07:00,ZBAA 290700Z AUTO ////02KT 6SM 24/04 A2977 RMK SLP085 T02400040 IEM_DS3505
ZBAA,1996-10-29 08:00,ZBAA 290800Z AUTO 33012KT 6SM 22/00 A2980 RMK SLP096 T02200000 IEM_DS3505
ZBAA,1996-10-29 09:00,ZBAA 290900Z AUTO 32012KT 6SM 19/M03 A2983 RMK SLP105 T01891027 52022 IEM_DS3505
ZBAA,1996-10-29 10:00,ZBAA 291000Z AUTO 01008KT 6SM 19/M01 A2988 RMK SLP124 T01901010 IEM_DS3505
ZBAA,1996-10-29 11:00,ZBAA 291100Z AUTO 36014KT 6SM 17/M03 A2991 RMK SLP134 T01701030 IEM_DS3505
ZBAA,1996-10-29 12:00,ZBAA 291200Z AUTO 34008G21KT 12SM 16/M03 A2994 RMK SLP146 T01581029 52041 IEM_DS3505
ZBAA,1996-10-29 13:00,ZBAA 291300Z AUTO 01014KT 7SM 15/M05 A2997 RMK SLP155 T01501050 IEM_DS3505
ZBAA,1996-10-29 14:00,ZBAA 291400Z AUTO 01012KT 7SM 13/M06 A3000 RMK SLP165 T01301060 IEM_DS3505
ZBAA,1996-10-29 15:00,ZBAA 291500Z AUTO 04008KT 7SM 12/M05 A3006 RMK SLP186 T01201050 IEM_DS3505
ZBAA,1996-10-29 16:00,ZBAA 291600Z AUTO 05006KT 6SM 12/M06 A3009 RMK SLP196 T01201060 IEM_DS3505
ZBAA,1996-10-29 17:00,ZBAA 291700Z AUTO 02006KT 6SM 11/M06 A3012 RMK SLP207 T01101060 IEM_DS3505
ZBAA,1996-10-29 18:00,ZBAA 291800Z AUTO 07006KT 19SM 10/M07 A3015 RMK SLP207 T01051071 52025 IEM_DS3505
ZBAA,1996-10-29 19:00,ZBAA 291900Z AUTO 04008KT 6SM 10/M06 A3015 RMK SLP217 T01001060 IEM_DS3505
ZBAA,1996-10-29 20:00,ZBAA 292000Z AUTO 04006KT 7SM 09/M06 A3015 RMK SLP218 T00901060 IEM_DS3505
ZBAA,1996-10-29 21:00,ZBAA 292100Z AUTO 07004KT 19SM 09/M06 A3018 RMK SLP224 T00891060 52017 IEM_DS3505
ZBAA,1996-10-29 23:00,ZBAA 292300Z AUTO ////02KT 6SM 06/M02 A3024 RMK SLP248 T00601020 IEM_DS3505
ZBAA,1996-10-30 00:00,ZBAA 300000Z AUTO 18008KT 6SM 08/01 A3027 RMK SLP256 T00760008 52031 IEM_DS3505
ZBAA,1996-10-30 01:00,ZBAA 300100Z AUTO 19006KT 7SM 08/M02 A3030 RMK SLP268 T00801020 IEM_DS3505
ZBAA,1996-10-30 02:00,ZBAA 300200Z AUTO 19008KT 7SM 09/M02 A3033 RMK SLP278 T00901020 IEM_DS3505
ZBAA,1996-10-30 03:00,ZBAA 300300Z AUTO 16008KT 9SM 09/M04 A3030 RMK SLP269 T00931041 52013 IEM_DS3505
ZBAA,1996-10-30 04:00,ZBAA 300400Z AUTO 17008KT 7SM 13/M02 A3030 RMK SLP267 T01301020 IEM_DS3505
ZBAA,1996-10-30 05:00,ZBAA 300500Z AUTO 17010KT 7SM 13/M03 A3027 RMK SLP257 T01301030 IEM_DS3505
ZBAA,1996-10-30 06:00,ZBAA 300600Z AUTO 11006KT 12SM 10/M04 A3024 RMK SLP248 T01031043 57021 IEM_DS3505
ZBAA,1996-10-30 07:00,ZBAA 300700Z AUTO 14008KT 7SM 14/M04 A3024 RMK SLP247 T01401040 IEM_DS3505
ZBAA,1996-10-30 08:00,ZBAA 300800Z AUTO 14006KT 6SM 12/M05 A3024 RMK SLP247 T01201050 IEM_DS3505
ZBAA,1996-10-30 09:00,ZBAA 300900Z AUTO 16008KT 9SM 09/M05 A3024 RMK SLP246 T00901054 57003 IEM_DS3505
ZBAA,1996-10-30 10:00,ZBAA 301000Z AUTO 16008KT 6SM 09/M04 A3027 RMK SLP258 T00901040 IEM_DS3505
ZBAA,1996-10-30 11:00,ZBAA 301100Z AUTO 16006KT 6SM 09/M04 A3030 RMK SLP268 T00901040 IEM_DS3505
ZBAA,1996-10-30 12:00,ZBAA 301200Z AUTO 16006KT 12SM 07/M04 A3030 RMK SLP266 T00691040 52020 IEM_DS3505
ZBAA,1996-10-30 13:00,ZBAA 301300Z AUTO 17006KT 6SM 08/M03 A3030 RMK SLP268 T00801030 IEM_DS3505
ZBAA,1996-10-30 14:00,ZBAA 301400Z AUTO 15006KT 6SM 08/M03 A3033 RMK SLP278 T00801030 IEM_DS3505
ZBAA,1996-10-30 15:00,ZBAA 301500Z AUTO 16006KT 9SM 06/M04 A3033 RMK SLP277 T00611037 52011 IEM_DS3505
ZBAA,1996-10-30 16:00,ZBAA 301600Z AUTO 16006KT 6SM 07/M04 A3033 RMK SLP278 T00701040 IEM_DS3505
ZBAA,1996-10-30 17:00,ZBAA 301700Z AUTO ////04KT 6SM 06/M04 A3033 RMK SLP279 T00601040 IEM_DS3505
ZBAA,1996-10-30 18:00,ZBAA 301800Z AUTO 20004KT 9SM 06/M05 A3033 RMK SLP280 T00561053 52003 IEM_DS3505
ZBAA,1996-10-30 19:00,ZBAA 301900Z AUTO ////04KT 6SM 06/M06 A3033 RMK SLP279 T00601060 IEM_DS3505
ZBAA,1996-10-30 20:00,ZBAA 302000Z AUTO ////04KT 6SM 05/M07 A3033 RMK SLP279 T00501070 IEM_DS3505
ZBAA,1996-10-30 21:00,ZBAA 302100Z AUTO 11004KT 12SM 05/M09 A3033 RMK SLP277 T00511089 57003 IEM_DS3505
ZBAA,1996-10-30 22:00,ZBAA 302200Z AUTO 00000KT 6SM 05/M07 A3036 RMK SLP289 T00501070 IEM_DS3505
ZBAA,1996-10-30 23:00,ZBAA 302300Z AUTO 00000KT 7SM 05/M08 A3036 RMK SLP289 T00501080 IEM_DS3505
ZBAA,1996-10-31 00:00,ZBAA 310000Z AUTO 00000KT 6SM 05/M08 A3036 RMK SLP289 T00501076 52011 IEM_DS3505
ZBAA,1996-10-31 01:00,ZBAA 310100Z AUTO 20006KT 6SM 08/M07 A3036 RMK SLP261 T00821074 57023 IEM_DS3505
ZBAA,1996-10-31 02:00,ZBAA 310200Z AUTO ////02KT 7SM 07/M08 A3036 RMK SLP288 T00701080 IEM_DS3505
ZBAA,1996-10-31 03:00,ZBAA 310300Z AUTO 25002KT 6SM 07/M09 A3036 RMK SLP284 T00691091 57004 IEM_DS3505
ZBAA,1996-10-31 04:00,ZBAA 310400Z AUTO ////04KT 6SM 10/M06 A3030 RMK SLP268 T01001060 IEM_DS3505
ZBAA,1996-10-31 05:00,ZBAA 310500Z AUTO ////02KT 6SM 11/M06 A3027 RMK SLP257 T01101060 IEM_DS3505
ZBAA,1996-10-31 06:00,ZBAA 310600Z AUTO 20006KT 6SM 08/M07 A3027 RMK SLP261 T00821074 57023 IEM_DS3505
ZBAA,1996-10-31 07:00,ZBAA 310700Z AUTO 19006KT 4SM 11/M06 A3027 RMK SLP257 T01101060 IEM_DS3505
ZBAA,1996-10-31 08:00,ZBAA 310800Z AUTO 22006G16KT 4SM 10/M06 A3024 RMK SLP247 T01001060 IEM_DS3505
ZBAA,1996-10-31 09:00,ZBAA 310900Z AUTO 18004KT 6SM 08/M06 A3024 RMK SLP252 T00771056 57009 IEM_DS3505
ZBAA,1996-10-31 10:00,ZBAA 311000Z AUTO 19006KT 4SM 07/M05 A3027 RMK SLP258 T00701050 IEM_DS3505
ZBAA,1996-10-31 11:00,ZBAA 311100Z AUTO ////04KT 5SM 07/M04 A3027 RMK SLP258 T00701040 IEM_DS3505
ZBAA,1996-10-31 12:00,ZBAA 311200Z AUTO 25006KT 6SM 07/M05 A3027 RMK SLP254 T00661049 52002 IEM_DS3505
ZBAA,1996-10-31 13:00,ZBAA 311300Z AUTO ////02KT 6SM 06/M03 A3027 RMK SLP259 T00601030 IEM_DS3505
ZBAA,1996-10-31 14:00,ZBAA 311400Z AUTO ////02KT 6SM 06/M02 A3027 RMK SLP259 T00601020 IEM_DS3505
ZBAA,1996-10-31 15:00,ZBAA 311500Z AUTO 18004KT 6SM 06/M03 A3025 RMK SLP253 T00581030 57001 IEM_DS3505
ZBAA,1996-10-31 18:00,ZBAA 311800Z AUTO 29002KT 4SM 04/M00 A3024 RMK SLP248 T00381003 57005 IEM_DS3505
ZBAA,1996-10-31 21:00,ZBAA 312100Z AUTO 00000KT 4SM 03/00 A3021 RMK SLP238 T00280001 57010 IEM_DS3505
ZBAA,1996-11-01 00:00,ZBAA 010000Z AUTO 00000KT 2SM 04/00 A3023 RMK SLP247 T00360001 52008 IEM_DS3505
ZBAA,1996-11-01 03:00,ZBAA 010300Z AUTO 04006KT 5SM 11/M03 A3022 RMK SLP240 T01091029 57006 IEM_DS3505
ZBAA,1996-11-01 06:00,ZBAA 010600Z AUTO 18004KT 12SM 14/M06 A3014 RMK SLP213 T01381059 57026 IEM_DS3505
ZBAA,1996-11-01 09:00,ZBAA 010900Z AUTO 22006KT 6SM 12/M00 A3014 RMK SLP212 T01151004 57002 IEM_DS3505
ZBAA,1996-11-01 10:00,ZBAA 011000Z AUTO 22006KT 6SM 10/M06 A3012 RMK SLP207 T01001060 IEM_DS3505
ZBAA,1996-11-01 11:00,ZBAA 011100Z AUTO 00000KT 5SM 09/M01 A3015 RMK SLP218 T00901010 IEM_DS3505
ZBAA,1996-11-01 12:00,ZBAA 011200Z AUTO 20006KT 5SM 10/02 A3018 RMK SLP224 T00950018 52012 IEM_DS3505
ZBAA,1996-11-01 13:00,ZBAA 011300Z AUTO 21002KT 4SM 08/02 A3018 RMK SLP228 T00800020 IEM_DS3505
ZBAA,1996-11-01 14:00,ZBAA 011400Z AUTO 00000KT 3SM 08/02 A3018 RMK SLP228 T00800020 IEM_DS3505
ZBAA,1996-11-01 15:00,ZBAA 011500Z AUTO 22008KT 5SM 08/02 A3018 RMK SLP227 T00800022 52004 IEM_DS3505
ZBAA,1996-11-01 16:00,ZBAA 011600Z AUTO 00000KT 2SM 05/02 A3018 RMK SLP229 T00500020 IEM_DS3505
ZBAA,1996-11-01 17:00,ZBAA 011700Z AUTO 00000KT 1 1/2SM 04/02 A3018 RMK SLP229 T00400020 IEM_DS3505
ZBAA,1996-11-01 18:00,ZBAA 011800Z AUTO 00000KT 4SM 06/02 A3018 RMK SLP223 T00550023 57004 IEM_DS3505
ZBAA,1996-11-01 19:00,ZBAA 011900Z AUTO 00000KT 1 1/2SM 04/01 A3018 RMK SLP229 T00400010 IEM_DS3505
ZBAA,1996-11-01 20:00,ZBAA 012000Z AUTO 00000KT 1 1/2SM 03/01 A3018 RMK SLP229 T00300010 IEM_DS3505
ZBAA,1996-11-01 21:00,ZBAA 012100Z AUTO 00000KT 6SM 03/01 A3018 RMK SLP227 T00320014 52003 IEM_DS3505
ZBAA,1996-11-01 22:00,ZBAA 012200Z AUTO 00000KT 1 1/2SM 03/00 A3018 RMK SLP229 T00300000 IEM_DS3505
ZBAA,1996-11-01 23:00,ZBAA 012300Z AUTO 00000KT 2 1/2SM 02/00 A3021 RMK SLP239 T00200000 IEM_DS3505
ZBAA,1996-11-02 00:00,ZBAA 020000Z AUTO 00000KT 4SM 03/01 A3024 RMK SLP242 T00290008 52015 IEM_DS3505
ZBAA,1996-11-02 01:00,ZBAA 020100Z AUTO 00000KT 2 1/2SM 05/01 A3024 RMK SLP249 T00500010 IEM_DS3505
ZBAA,1996-11-02 03:00,ZBAA 020300Z AUTO 00000KT 2SM 12/02 A3021 RMK SLP239 T01190015 57002 IEM_DS3505
ZBAA,1996-11-02 04:00,ZBAA 020400Z AUTO ////02KT 2 1/2SM 12/03 A3018 RMK SLP227 T01200030 IEM_DS3505
ZBAA,1996-11-02 05:00,ZBAA 020500Z AUTO ////02KT 4SM 13/01 A3018 RMK SLP227 T01300010 IEM_DS3505
ZBAA,1996-11-02 06:00,ZBAA 020600Z AUTO 14006KT 3SM 16/01 A3015 RMK SLP222 T01580008 57017 IEM_DS3505
ZBAA,1996-11-02 07:00,ZBAA 020700Z AUTO 18010KT 4SM 15/02 A3015 RMK SLP216 T01500020 IEM_DS3505
ZBAA,1996-11-02 08:00,ZBAA 020800Z AUTO 19010KT 5SM 14/04 A3015 RMK SLP216 T01400040 IEM_DS3505
ZBAA,1996-11-02 09:00,ZBAA 020900Z AUTO 20008KT 3SM 14/03 A3015 RMK SLP224 T01350026 52001 IEM_DS3505
ZBAA,1996-11-02 10:00,ZBAA 021000Z AUTO 18006KT 7SM 12/04 A3018 RMK SLP227 T01200040 IEM_DS3505
ZBAA,1996-11-02 11:00,ZBAA 021100Z AUTO ////02KT 5SM 10/04 A3021 RMK SLP237 T01000040 IEM_DS3505
ZBAA,1996-11-02 12:00,ZBAA 021200Z AUTO 18006KT 5SM 11/03 A3021 RMK SLP237 T01140034 52013 IEM_DS3505
ZBAA,1996-11-02 13:00,ZBAA 021300Z AUTO 00000KT 2 1/2SM 08/04 A3024 RMK SLP248 T00800040 IEM_DS3505
ZBAA,1996-11-02 14:00,ZBAA 021400Z AUTO 00000KT 2 1/2SM 07/04 A3024 RMK SLP248 T00700040 IEM_DS3505
ZBAA,1996-11-02 15:00,ZBAA 021500Z AUTO 18004KT 4SM 08/05 A3024 RMK SLP243 T00780046 52007 IEM_DS3505
ZBAA,1996-11-02 16:00,ZBAA 021600Z AUTO ////02KT 2 1/2SM 06/05 A3024 RMK SLP248 T00600050 IEM_DS3505
ZBAA,1996-11-02 17:00,ZBAA 021700Z AUTO ////02KT 2 1/2SM 06/04 A3024 RMK SLP248 T00600040 IEM_DS3505
ZBAA,1996-11-02 18:00,ZBAA 021800Z AUTO 00000KT 2 1/2SM 07/03 A3024 RMK SLP246 T00720031 52003 IEM_DS3505
ZBAA,1996-11-02 19:00,ZBAA 021900Z AUTO 00000KT 2SM 05/04 A3024 RMK SLP249 T00500040 IEM_DS3505
ZBAA,1996-11-02 20:00,ZBAA 022000Z AUTO ////02KT 1 1/4SM 05/04 A3024 RMK SLP249 T00500040 IEM_DS3505
ZBAA,1996-11-02 21:00,ZBAA 022100Z AUTO 00000KT 2SM 06/03 A3024 RMK SLP249 T00550031 52002 IEM_DS3505
ZBAA,1996-11-02 22:00,ZBAA 022200Z AUTO 00000KT 1 1/4SM 04/03 A3024 RMK SLP249 T00400030 IEM_DS3505
ZBAA,1996-11-02 23:00,ZBAA 022300Z AUTO 00000KT 1SM 04/03 A3027 RMK SLP259 T00400030 IEM_DS3505
ZBAA,1996-11-03 00:00,ZBAA 030000Z AUTO 00000KT 1SM 05/03 A3030 RMK SLP265 T00470032 52016 IEM_DS3505
ZBAA,1996-11-03 01:00,ZBAA 030100Z AUTO ////02KT 1/8SM 05/05 A3033 RMK SLP279 T00500050 IEM_DS3505
ZBAA,1996-11-03 02:00,ZBAA 030200Z AUTO ////02KT 1/8SM 05/05 A3033 RMK SLP279 T00500050 IEM_DS3505
ZBAA,1996-11-03 03:00,ZBAA 030300Z AUTO 07004KT 1SM 09/05 A3033 RMK SLP272 T00890053 52007 IEM_DS3505
ZBAA,1996-11-03 04:00,ZBAA 030400Z AUTO 00000KT 1/4SM 06/06 A3030 RMK SLP269 T00600060 IEM_DS3505
ZBAA,1996-11-03 05:00,ZBAA 030500Z AUTO ////02KT 1/4SM 07/07 A3030 RMK SLP268 T00700070 IEM_DS3505
ZBAA,1996-11-03 06:00,ZBAA 030600Z AUTO 16004KT 1SM 09/06 A3027 RMK SLP259 T00930063 57013 IEM_DS3505
ZBAA,1996-11-03 07:00,ZBAA 030700Z AUTO ////02KT 1/4SM 08/08 A3027 RMK SLP258 T00800080 IEM_DS3505
ZBAA,1996-11-03 08:00,ZBAA 030800Z AUTO ////04KT 1/4SM 08/08 A3027 RMK SLP258 T00800080 IEM_DS3505
ZBAA,1996-11-03 09:00,ZBAA 030900Z AUTO 00000KT 1SM 09/07 A3027 RMK SLP258 T00910070 57001 IEM_DS3505
ZBAA,1996-11-03 10:00,ZBAA 031000Z AUTO ////02KT 3/8SM 08/08 A3030 RMK SLP268 T00800080 IEM_DS3505
ZBAA,1996-11-03 11:00,ZBAA 031100Z AUTO ////04KT 3/8SM 08/08 A3030 RMK SLP268 T00800080 IEM_DS3505
ZBAA,1996-11-03 12:00,ZBAA 031200Z AUTO 00000KT 1SM 09/07 A3030 RMK SLP262 T00890070 52004 IEM_DS3505
ZBAA,1996-11-03 13:00,ZBAA 031300Z AUTO ////02KT 3/8SM 08/08 A3030 RMK SLP268 T00800080 IEM_DS3505
ZBAA,1996-11-03 14:00,ZBAA 031400Z AUTO 00000KT 3/8SM 08/08 A3030 RMK SLP268 T00800080 IEM_DS3505
ZBAA,1996-11-03 15:00,ZBAA 031500Z AUTO 20002KT 1SM 09/07 A3030 RMK SLP259 T00870074 57003 IEM_DS3505
ZBAA,1996-11-03 16:00,ZBAA 031600Z AUTO ////04KT 3/8SM 08/08 A3027 RMK SLP258 T00800080 IEM_DS3505
ZBAA,1996-11-03 17:00,ZBAA 031700Z AUTO ////02KT 3/8SM 08/08 A3027 RMK SLP258 T00800080 IEM_DS3505
ZBAA,1996-11-03 18:00,ZBAA 031800Z AUTO 16004KT 1SM 09/07 A3024 RMK 60000 SLP249 T00870070 57010 IEM_DS3505
ZBAA,1996-11-03 19:00,ZBAA 031900Z AUTO ////02KT 1/2SM 08/08 A3021 RMK SLP238 T00800080 IEM_DS3505
ZBAA,1996-11-03 20:00,ZBAA 032000Z AUTO ////04KT 1/2SM 08/08 A3018 RMK SLP228 T00800080 IEM_DS3505
ZBAA,1996-11-03 21:00,ZBAA 032100Z AUTO 16004KT 1 1/4SM 08/07 A3018 RMK 70002 SLP223 T00840073 57026 IEM_DS3505
ZBAA,1996-11-03 22:00,ZBAA 032200Z AUTO 00000KT 3/8SM 08/08 A3015 RMK SLP218 T00800080 IEM_DS3505
ZBAA,1996-11-03 23:00,ZBAA 032300Z AUTO 00000KT 1/2SM 08/08 A3015 RMK SLP218 T00800080 IEM_DS3505
ZBAA,1996-11-04 00:00,ZBAA 040000Z AUTO 20004KT 1SM 08/08 A3015 RMK 60008 70008 SLP213 T00840076 57010 IEM_DS3505
ZBAA,1996-11-04 01:00,ZBAA 040100Z AUTO 00000KT 3/8SM 08/08 A3012 RMK SLP208 T00800080 IEM_DS3505
ZBAA,1996-11-04 02:00,ZBAA 040200Z AUTO ////02KT 3/8SM 08/08 A3009 RMK SLP197 T00800080 IEM_DS3505
ZBAA,1996-11-04 03:00,ZBAA 040300Z AUTO 20002KT 1SM 09/08 A3009 RMK SLP198 T00940079 57014 IEM_DS3505
ZBAA,1996-11-04 04:00,ZBAA 040400Z AUTO ////02KT 3/8SM 08/08 A3006 RMK SLP187 T00800080 IEM_DS3505
ZBAA,1996-11-04 05:00,ZBAA 040500Z AUTO ////02KT 1SM 09/09 A3003 RMK SLP176 T00900090 IEM_DS3505
ZBAA,1996-11-04 06:00,ZBAA 040600Z AUTO 04004KT 1SM 10/08 A3000 RMK 60000 SLP170 T00990083 57028 IEM_DS3505
ZBAA,1996-11-04 07:00,ZBAA 040700Z AUTO ////02KT 1SM 10/10 A3000 RMK SLP166 T01000100 IEM_DS3505
ZBAA,1996-11-04 08:00,ZBAA 040800Z AUTO 00000KT 1SM 10/10 A3000 RMK SLP166 T01000100 IEM_DS3505
ZBAA,1996-11-04 09:00,ZBAA 040900Z AUTO 00000KT 1SM 10/08 A3000 RMK SLP168 T01030083 57002 IEM_DS3505
ZBAA,1996-11-04 10:00,ZBAA 041000Z AUTO ////02KT 1SM 09/09 A3000 RMK SLP166 T00900090 IEM_DS3505
ZBAA,1996-11-04 11:00,ZBAA 041100Z AUTO ////02KT 1SM 10/09 A3003 RMK SLP176 T01000090 IEM_DS3505
ZBAA,1996-11-04 12:00,ZBAA 041200Z AUTO 00000KT 1SM 11/08 A3003 RMK SLP176 T01070082 52008 IEM_DS3505
ZBAA,1996-11-04 13:00,ZBAA 041300Z AUTO ////04KT 1SM 09/09 A3006 RMK SLP186 T00900090 IEM_DS3505
ZBAA,1996-11-04 14:00,ZBAA 041400Z AUTO ////04KT 1SM 09/09 A3006 RMK SLP186 T00900090 IEM_DS3505
ZBAA,1996-11-04 15:00,ZBAA 041500Z AUTO 04002KT 1 1/4SM 10/08 A3006 RMK SLP186 T00990080 52010 IEM_DS3505
ZBAA,1996-11-04 16:00,ZBAA 041600Z AUTO ////04KT 1 1/4SM 10/09 A3009 RMK SLP196 T01000090 IEM_DS3505
ZBAA,1996-11-04 17:00,ZBAA 041700Z AUTO ////02KT 1 1/4SM 09/09 A3009 RMK SLP196 T00900090 IEM_DS3505
ZBAA,1996-11-04 18:00,ZBAA 041800Z AUTO 00000KT 1 1/4SM 08/07 A3006 RMK SLP191 T00850070 52005 IEM_DS3505
ZBAA,1996-11-04 19:00,ZBAA 041900Z AUTO 00000KT 1SM 09/09 A3009 RMK SLP196 T00900090 IEM_DS3505
ZBAA,1996-11-04 20:00,ZBAA 042000Z AUTO ////04KT 1SM 08/08 A3006 RMK SLP187 T00800080 IEM_DS3505
ZBAA,1996-11-04 21:00,ZBAA 042100Z AUTO 32004KT 1 1/4SM 06/06 A3009 RMK 70008 SLP198 T00630056 52007 IEM_DS3505
ZBAA,1996-11-04 22:00,ZBAA 042200Z AUTO ////02KT 1/4SM 06/06 A3009 RMK SLP197 T00600060 IEM_DS3505
ZBAA,1996-11-04 23:00,ZBAA 042300Z AUTO 35006KT 1/4SM 06/06 A3012 RMK SLP208 T00600060 IEM_DS3505
ZBAA,1996-11-05 00:00,ZBAA 050000Z AUTO 00000KT 2 1/2SM 07/06 A3015 RMK 70001 SLP218 T00670063 52019 IEM_DS3505
ZBAA,1996-11-05 01:00,ZBAA 050100Z AUTO 00000KT 2SM 09/08 A3018 RMK SLP228 T00900080 IEM_DS3505
ZBAA,1996-11-05 02:00,ZBAA 050200Z AUTO ////02KT 3SM 12/09 A3018 RMK SLP227 T01200090 IEM_DS3505
ZBAA,1996-11-05 03:00,ZBAA 050300Z AUTO 20004KT 1 1/4SM 15/08 A3018 RMK SLP229 T01460080 52012 IEM_DS3505
ZBAA,1996-11-05 04:00,ZBAA 050400Z AUTO 30008KT 7SM 17/03 A3018 RMK SLP226 T01700030 IEM_DS3505
ZBAA,1996-11-05 05:00,ZBAA 050500Z AUTO 30008KT 6SM 18/00 A3015 RMK SLP215 T01800000 IEM_DS3505
ZBAA,1996-11-05 06:00,ZBAA 050600Z AUTO 29016G23KT 19SM 18/M06 A3018 RMK SLP229 T01791063 54000 IEM_DS3505
ZBAA,1996-11-05 07:00,ZBAA 050700Z AUTO 34016KT 6SM 18/01 A3021 RMK SLP236 T01800010 IEM_DS3505
ZBAA,1996-11-05 08:00,ZBAA 050800Z AUTO 33017KT 6SM 16/M03 A3027 RMK SLP256 T01601030 IEM_DS3505
ZBAA,1996-11-05 09:00,ZBAA 050900Z AUTO 34010KT 19SM 14/M07 A3033 RMK SLP276 T01371068 52046 IEM_DS3505
ZBAA,1996-11-05 10:00,ZBAA 051000Z AUTO 33017KT 7SM 11/M09 A3039 RMK SLP299 T01101090 IEM_DS3505
ZBAA,1996-11-05 11:00,ZBAA 051100Z AUTO 34021KT 7SM 09/M09 A3042 RMK SLP309 T00901090 IEM_DS3505
ZBAA,1996-11-05 12:00,ZBAA 051200Z AUTO 36016KT 19SM 08/M11 A3047 RMK SLP330 T00791110 52053 IEM_DS3505
ZBAA,1996-11-05 13:00,ZBAA 051300Z AUTO 01016KT 7SM 06/M08 A3053 RMK SLP347 T00601080 IEM_DS3505
ZBAA,1996-11-05 14:00,ZBAA 051400Z AUTO 03012KT 7SM 05/M08 A3059 RMK SLP367 T00501080 IEM_DS3505
ZBAA,1996-11-05 15:00,ZBAA 051500Z AUTO 04008KT 16SM 06/M12 A3059 RMK SLP361 T00561115 52032 IEM_DS3505
ZBAA,1996-11-05 16:00,ZBAA 051600Z AUTO 03012G23KT 7SM 03/M09 A3059 RMK SLP368 T00301090 IEM_DS3505
ZBAA,1996-11-05 17:00,ZBAA 051700Z AUTO 04010KT 7SM 02/M10 A3062 RMK SLP378 T00201100 IEM_DS3505
ZBAA,1996-11-05 18:00,ZBAA 051800Z AUTO 04006KT 19SM 03/M09 A3065 RMK SLP373 T00271093 52012 IEM_DS3505
ZBAA,1996-11-05 19:00,ZBAA 051900Z AUTO 04006KT 7SM 01/M11 A3065 RMK SLP389 T00101110 IEM_DS3505
ZBAA,1996-11-05 20:00,ZBAA 052000Z AUTO 04008KT 7SM 00/M10 A3062 RMK SLP379 T00001100 IEM_DS3505
ZBAA,1996-11-05 21:00,ZBAA 052100Z AUTO 04010KT 19SM 01/M12 A3065 RMK SLP379 T00091121 52005 IEM_DS3505
ZBAA,1996-11-05 22:00,ZBAA 052200Z AUTO 05006KT 7SM 00/M10 A3065 RMK SLP389 T00001100 IEM_DS3505
ZBAA,1996-11-05 23:00,ZBAA 052300Z AUTO 05006KT 6SM M01/M10 A3065 RMK SLP389 T10101100 IEM_DS3505
ZBAA,1996-11-06 00:00,ZBAA 060000Z AUTO 07002KT 19SM 00/M11 A3068 RMK SLP395 T00041113 52015 IEM_DS3505
ZBAA,1996-11-06 01:00,ZBAA 060100Z AUTO ////04KT 6SM 01/M10 A3068 RMK SLP399 T00101100 IEM_DS3505
ZBAA,1996-11-06 02:00,ZBAA 060200Z AUTO ////04KT 6SM 03/M10 A3068 RMK SLP398 T00301100 IEM_DS3505
ZBAA,1996-11-06 03:00,ZBAA 060300Z AUTO 32004KT 7SM 03/M10 A3065 RMK SLP388 T00341102 57007 IEM_DS3505
ZBAA,1996-11-06 04:00,ZBAA 060400Z AUTO ////04KT 6SM 05/M09 A3062 RMK SLP378 T00501090 IEM_DS3505
ZBAA,1996-11-06 05:00,ZBAA 060500Z AUTO ////04KT 7SM 05/M10 A3056 RMK SLP357 T00501100 IEM_DS3505
ZBAA,1996-11-06 06:00,ZBAA 060600Z AUTO 22008KT 6SM 06/M12 A3053 RMK SLP346 T00601125 57041 IEM_DS3505
ZBAA,1996-11-06 07:00,ZBAA 060700Z AUTO 19006KT 6SM 05/M09 A3050 RMK SLP337 T00501090 IEM_DS3505
ZBAA,1996-11-06 08:00,ZBAA 060800Z AUTO 17008KT 6SM 05/M09 A3047 RMK SLP327 T00501090 IEM_DS3505
ZBAA,1996-11-06 09:00,ZBAA 060900Z AUTO 20008KT 6SM 05/M09 A3047 RMK SLP326 T00501092 57021 IEM_DS3505
ZBAA,1996-11-06 10:00,ZBAA 061000Z AUTO ////02KT 6SM 04/M08 A3047 RMK SLP327 T00401080 IEM_DS3505
ZBAA,1996-11-06 11:00,ZBAA 061100Z AUTO ////02KT 6SM 04/M06 A3045 RMK SLP320 T00401060 IEM_DS3505
ZBAA,1996-11-06 12:00,ZBAA 061200Z AUTO 18004KT 12SM 04/M05 A3045 RMK SLP316 T00411051 57010 IEM_DS3505
ZBAA,1996-11-06 13:00,ZBAA 061300Z AUTO 00000KT 6SM 02/M05 A3045 RMK SLP321 T00201050 IEM_DS3505
ZBAA,1996-11-06 14:00,ZBAA 061400Z AUTO 00000KT 6SM 02/M05 A3042 RMK SLP311 T00201050 IEM_DS3505
ZBAA,1996-11-06 15:00,ZBAA 061500Z AUTO 34004KT 12SM 03/M03 A3042 RMK SLP307 T00261031 57009 IEM_DS3505
ZBAA,1996-11-06 16:00,ZBAA 061600Z AUTO ////02KT 6SM 01/M04 A3039 RMK SLP301 T00101040 IEM_DS3505
ZBAA,1996-11-06 17:00,ZBAA 061700Z AUTO 00000KT 6SM 01/M04 A3039 RMK SLP301 T00101040 IEM_DS3505
ZBAA,1996-11-06 18:00,ZBAA 061800Z AUTO 00000KT 7SM 02/M04 A3038 RMK SLP296 T00191043 57010 IEM_DS3505
ZBAA,1996-11-06 19:00,ZBAA 061900Z AUTO 00000KT 6SM 01/M03 A3039 RMK SLP301 T00101030 IEM_DS3505
ZBAA,1996-11-06 20:00,ZBAA 062000Z AUTO ////02KT 6SM 01/M03 A3036 RMK SLP290 T00101030 IEM_DS3505
ZBAA,1996-11-06 21:00,ZBAA 062100Z AUTO 00000KT 6SM 00/M04 A3036 RMK SLP290 T00001040 IEM_DS3505
ZBAA,1996-11-06 22:00,ZBAA 062200Z AUTO 00000KT 6SM 00/M04 A3036 RMK SLP290 T00001040 IEM_DS3505
ZBAA,1996-11-06 23:00,ZBAA 062300Z AUTO ////02KT 5SM 00/M04 A3033 RMK SLP280 T00001040 IEM_DS3505
ZBAA,1996-11-07 00:00,ZBAA 070000Z AUTO 00000KT 4SM 01/M03 A3036 RMK SLP287 T00111032 52005 IEM_DS3505
ZBAA,1996-11-07 01:00,ZBAA 070100Z AUTO ////04KT 4SM 03/M03 A3036 RMK SLP289 T00301030 IEM_DS3505
ZBAA,1996-11-07 02:00,ZBAA 070200Z AUTO 35006KT 5SM 04/M04 A3036 RMK SLP289 T00401040 IEM_DS3505
ZBAA,1996-11-07 03:00,ZBAA 070300Z AUTO 18004KT 3SM 06/M04 A3036 RMK SLP287 T00641044 54000 IEM_DS3505
ZBAA,1996-11-07 04:00,ZBAA 070400Z AUTO ////04KT 6SM 07/M03 A3033 RMK SLP278 T00701030 IEM_DS3505
ZBAA,1996-11-07 05:00,ZBAA 070500Z AUTO ////04KT 6SM 08/M04 A3030 RMK SLP268 T00801040 IEM_DS3505
ZBAA,1996-11-07 06:00,ZBAA 070600Z AUTO 18006KT 3SM 10/M05 A3027 RMK SLP260 T00991047 57026 IEM_DS3505
ZBAA,1996-11-07 07:00,ZBAA 070700Z AUTO 00000KT 7SM 10/M04 A3024 RMK SLP247 T01001040 IEM_DS3505
ZBAA,1996-11-07 08:00,ZBAA 070800Z AUTO ////02KT 5SM 10/M04 A3024 RMK SLP247 T01001040 IEM_DS3505
ZBAA,1996-11-07 09:00,ZBAA 070900Z AUTO 20004KT 4SM 09/M02 A3024 RMK SLP253 T00901022 57008 IEM_DS3505
ZBAA,1996-11-07 10:00,ZBAA 071000Z AUTO 00000KT 4SM 08/M02 A3027 RMK SLP258 T00801020 IEM_DS3505
ZBAA,1996-11-07 11:00,ZBAA 071100Z AUTO ////02KT 4SM 06/M01 A3027 RMK SLP259 T00601010 IEM_DS3505
ZBAA,1996-11-07 12:00,ZBAA 071200Z AUTO 00000KT 3SM 07/01 A3027 RMK SLP257 T00660007 52004 IEM_DS3505
ZBAA,1996-11-07 13:00,ZBAA 071300Z AUTO 00000KT 3SM 05/M01 A3027 RMK SLP259 T00501010 IEM_DS3505
ZBAA,1996-11-07 14:00,ZBAA 071400Z AUTO 00000KT 2 1/2SM 04/M01 A3030 RMK SLP269 T00401010 IEM_DS3505
ZBAA,1996-11-07 15:00,ZBAA 071500Z AUTO 18004KT 2 1/2SM 06/01 A3030 RMK SLP263 T00560013 52007 IEM_DS3505
ZBAA,1996-11-07 16:00,ZBAA 071600Z AUTO 00000KT 2 1/2SM 03/M01 A3030 RMK SLP269 T00301010 IEM_DS3505
ZBAA,1996-11-07 17:00,ZBAA 071700Z AUTO 00000KT 2 1/2SM 02/00 A3030 RMK SLP270 T00200000 IEM_DS3505
ZBAA,1996-11-07 18:00,ZBAA 071800Z AUTO 09004KT 2SM 02/M01 A3027 RMK SLP259 T00231008 57004 IEM_DS3505
ZBAA,1996-11-07 21:00,ZBAA 072100Z AUTO 00000KT 1 1/4SM 01/M01 A3024 RMK SLP249 T00141006 57011 IEM_DS3505
ZBAA,1996-11-07 22:00,ZBAA 072200Z AUTO ////02KT 2 1/2SM 01/00 A3024 RMK SLP250 T00100000 IEM_DS3505
ZBAA,1996-11-07 23:00,ZBAA 072300Z AUTO ////02KT 1 1/2SM 01/00 A3024 RMK SLP250 T00100000 IEM_DS3505
ZBAA,1996-11-08 00:00,ZBAA 080000Z AUTO 00000KT 1SM 02/M00 A3024 RMK SLP245 T00201002 57004 IEM_DS3505
ZBAA,1996-11-08 01:00,ZBAA 080100Z AUTO 00000KT 1SM 03/01 A3024 RMK SLP249 T00300010 IEM_DS3505
ZBAA,1996-11-08 02:00,ZBAA 080200Z AUTO ////02KT 1SM 04/02 A3024 RMK SLP249 T00400020 IEM_DS3505
ZBAA,1996-11-08 03:00,ZBAA 080300Z AUTO 32004KT 1SM 06/00 A3021 RMK SLP237 T00640005 57007 IEM_DS3505
ZBAA,1996-11-08 04:00,ZBAA 080400Z AUTO ////02KT 1SM 06/05 A3018 RMK SLP228 T00600050 IEM_DS3505
ZBAA,1996-11-08 05:00,ZBAA 080500Z AUTO 18006KT 1SM 07/05 A3015 RMK SLP218 T00700050 IEM_DS3505
ZBAA,1996-11-08 06:00,ZBAA 080600Z AUTO 20004KT 1SM 07/04 A3012 RMK SLP206 T00710038 57031 IEM_DS3505
ZBAA,1996-11-08 07:00,ZBAA 080700Z AUTO ////04KT 1SM 08/05 A3009 RMK SLP197 T00800050 IEM_DS3505
ZBAA,1996-11-08 08:00,ZBAA 080800Z AUTO 19006KT 1SM 07/05 A3009 RMK SLP197 T00700050 IEM_DS3505
ZBAA,1996-11-08 09:00,ZBAA 080900Z AUTO 34004KT 1SM 07/05 A3009 RMK SLP193 T00700047 57013 IEM_DS3505
ZBAA,1996-11-08 10:00,ZBAA 081000Z AUTO ////02KT 1SM 07/07 A3009 RMK SLP197 T00700070 IEM_DS3505
ZBAA,1996-11-08 11:00,ZBAA 081100Z AUTO ////02KT 1SM 07/07 A3009 RMK SLP197 T00700070 IEM_DS3505
ZBAA,1996-11-08 12:00,ZBAA 081200Z AUTO 00000KT 1SM 06/04 A3009 RMK 60002 SLP197 T00610042 52003 IEM_DS3505
ZBAA,1996-11-08 13:00,ZBAA 081300Z AUTO ////04KT 1/2SM 05/05 A3009 RMK SLP197 T00500050 IEM_DS3505
ZBAA,1996-11-08 14:00,ZBAA 081400Z AUTO 00000KT 1/4SM 05/05 A3009 RMK SLP197 T00500050 IEM_DS3505
ZBAA,1996-11-08 15:00,ZBAA 081500Z AUTO 00000KT 1SM 04/03 A3009 RMK SLP194 T00380031 57002 IEM_DS3505
ZBAA,1996-11-08 16:00,ZBAA 081600Z AUTO 00000KT 1/8SM 04/04 A3006 RMK SLP188 T00400040 IEM_DS3505
ZBAA,1996-11-08 17:00,ZBAA 081700Z AUTO ////02KT 1/8SM 04/04 A3006 RMK SLP188 T00400040 IEM_DS3505
ZBAA,1996-11-08 18:00,ZBAA 081800Z AUTO 00000KT 1SM 03/02 A3006 RMK SLP187 T00330025 57007 IEM_DS3505
ZBAA,1996-11-08 19:00,ZBAA 081900Z AUTO 00000KT 1/8SM 04/04 A3006 RMK SLP188 T00400040 IEM_DS3505
ZBAA,1996-11-08 20:00,ZBAA 082000Z AUTO ////02KT 1/8SM 03/03 A3003 RMK SLP178 T00300030 IEM_DS3505
ZBAA,1996-11-08 21:00,ZBAA 082100Z AUTO 32004KT 1/2SM 02/02 A3003 RMK 70002 SLP183 T00240021 57004 IEM_DS3505
ZBAA,1996-11-08 22:00,ZBAA 082200Z AUTO ////04KT 1/8SM 02/02 A3006 RMK SLP188 T00200020 IEM_DS3505
ZBAA,1996-11-08 23:00,ZBAA 082300Z AUTO ////02KT 1/8SM 02/02 A3006 RMK SLP188 T00200020 IEM_DS3505
ZBAA,1996-11-09 00:00,ZBAA 090000Z AUTO 00000KT 0SM 03/02 A3009 RMK 70002 SLP199 T00270022 52016 IEM_DS3505
ZBAA,1996-11-09 01:00,ZBAA 090100Z AUTO ////02KT 0SM 02/02 A3012 RMK SLP209 T00200020 IEM_DS3505
ZBAA,1996-11-09 02:00,ZBAA 090200Z AUTO ////02KT 1/8SM 03/03 A3009 RMK SLP198 T00300030 IEM_DS3505
ZBAA,1996-11-09 03:00,ZBAA 090300Z AUTO 00000KT 1/2SM 06/05 A3009 RMK SLP201 T00640050 52002 IEM_DS3505
ZBAA,1996-11-09 04:00,ZBAA 090400Z AUTO ////02KT 1/2SM 07/07 A3006 RMK SLP187 T00700070 IEM_DS3505
ZBAA,1996-11-09 05:00,ZBAA 090500Z AUTO 18006KT 1SM 09/07 A3006 RMK SLP186 T00900070 IEM_DS3505
ZBAA,1996-11-09 06:00,ZBAA 090600Z AUTO 18006KT 1SM 10/05 A3003 RMK SLP180 T01040051 57021 IEM_DS3505
ZBAA,1996-11-09 07:00,ZBAA 090700Z AUTO 18006KT 1SM 10/07 A3003 RMK SLP176 T01000070 IEM_DS3505
ZBAA,1996-11-09 08:00,ZBAA 090800Z AUTO ////04KT 1SM 10/07 A3003 RMK SLP176 T01000070 IEM_DS3505
ZBAA,1996-11-09 09:00,ZBAA 090900Z AUTO 20002KT 1 1/4SM 10/06 A3006 RMK SLP180 T00950058 54000 IEM_DS3505
ZBAA,1996-11-09 10:00,ZBAA 091000Z AUTO 00000KT 1SM 09/07 A3006 RMK SLP186 T00900070 IEM_DS3505
ZBAA,1996-11-09 11:00,ZBAA 091100Z AUTO 00000KT 1SM 07/06 A3006 RMK SLP187 T00700060 IEM_DS3505
ZBAA,1996-11-09 12:00,ZBAA 091200Z AUTO 00000KT 1SM 06/05 A3009 RMK SLP191 T00600048 52011 IEM_DS3505
ZBAA,1996-11-09 13:00,ZBAA 091300Z AUTO ////02KT 1SM 07/07 A3009 RMK SLP197 T00700070 IEM_DS3505
ZBAA,1996-11-09 14:00,ZBAA 091400Z AUTO ////02KT 1SM A3012 RMK IEM_DS3505
ZBAA,1996-11-09 15:00,ZBAA 091500Z AUTO 02004KT 1SM 08/06 A3009 RMK SLP200 T00820060 52009 IEM_DS3505
ZBAA,1996-11-09 16:00,ZBAA 091600Z AUTO ////02KT 1SM 08/07 A3012 RMK SLP208 T00800070 IEM_DS3505
ZBAA,1996-11-09 17:00,ZBAA 091700Z AUTO 00000KT 1SM 07/07 A3009 RMK SLP197 T00700070 IEM_DS3505
ZBAA,1996-11-09 18:00,ZBAA 091800Z AUTO 02004KT 1SM 08/06 A3010 RMK SLP200 T00780060 52001 IEM_DS3505
ZBAA,1996-11-09 19:00,ZBAA 091900Z AUTO ////02KT 1SM 07/07 A3009 RMK SLP197 T00700070 IEM_DS3505
ZBAA,1996-11-09 20:00,ZBAA 092000Z AUTO 36002KT 1SM 08/07 A3009 RMK SLP197 T00800070 IEM_DS3505
ZBAA,1996-11-09 21:00,ZBAA 092100Z AUTO 36004KT 1SM 08/06 A3009 RMK SLP201 T00780060 52001 IEM_DS3505
ZBAA,1996-11-09 22:00,ZBAA 092200Z AUTO 35002KT 1SM 08/07 A3009 RMK SLP197 T00800070 IEM_DS3505
ZBAA,1996-11-09 23:00,ZBAA 092300Z AUTO 35004KT 1SM 08/07 A3009 RMK SLP197 T00800070 IEM_DS3505
ZBAA,1996-11-10 00:00,ZBAA 100000Z AUTO 02004KT 1SM 08/06 A3012 RMK SLP209 T00830059 52007 IEM_DS3505
ZBAA,1996-11-10 01:00,ZBAA 100100Z AUTO 35004KT 1SM 09/07 A3012 RMK SLP207 T00900070 IEM_DS3505
ZBAA,1996-11-10 02:00,ZBAA 100200Z AUTO ////04KT 1SM 09/07 A3012 RMK SLP207 T00900070 IEM_DS3505
ZBAA,1996-11-10 03:00,ZBAA 100300Z AUTO 36006KT 1SM 10/06 A3012 RMK SLP209 T00950055 52001 IEM_DS3505
ZBAA,1996-11-10 04:00,ZBAA 100400Z AUTO ////02KT 1SM 10/07 A3012 RMK SLP207 T01000070 IEM_DS3505
ZBAA,1996-11-10 05:00,ZBAA 100500Z AUTO ////02KT 1SM 10/07 A3009 RMK SLP196 T01000070 IEM_DS3505
ZBAA,1996-11-10 06:00,ZBAA 100600Z AUTO 07004KT 1SM 10/06 A3006 RMK SLP191 T01050057 57018 IEM_DS3505
ZBAA,1996-11-10 07:00,ZBAA 100700Z AUTO ////02KT 1SM 10/08 A3006 RMK SLP186 T01000080 IEM_DS3505
ZBAA,1996-11-10 08:00,ZBAA 100800Z AUTO ////02KT 1SM 10/08 A3003 RMK SLP176 T01000080 IEM_DS3505
ZBAA,1996-11-10 09:00,ZBAA 100900Z AUTO 09002KT 1SM 10/07 A3003 RMK SLP185 T01000068 57006 IEM_DS3505
ZBAA,1996-11-10 10:00,ZBAA 101000Z AUTO ////02KT 1/2SM 09/08 A3006 RMK SLP186 T00900080 IEM_DS3505
ZBAA,1996-11-10 11:00,ZBAA 101100Z AUTO 00000KT 1/2SM 09/08 A3009 RMK SLP196 T00900080 IEM_DS3505
ZBAA,1996-11-10 12:00,ZBAA 101200Z AUTO 18006KT 1SM 10/07 A3009 RMK SLP198 T00970072 52013 IEM_DS3505
ZBAA,1996-11-10 13:00,ZBAA 101300Z AUTO 00000KT 1/2SM 09/09 A3009 RMK SLP196 T00900090 IEM_DS3505
ZBAA,1996-11-10 15:00,ZBAA 101500Z AUTO 02002KT 1SM 09/08 A3012 RMK SLP213 T00890076 52015 IEM_DS3505
ZBAA,1996-11-10 16:00,ZBAA 101600Z AUTO 00000KT 3/8SM 08/07 A3012 RMK SLP208 T00800070 IEM_DS3505
ZBAA,1996-11-10 17:00,ZBAA 101700Z AUTO 32004KT 1/2SM 08/08 A3012 RMK SLP208 T00800080 IEM_DS3505
ZBAA,1996-11-10 18:00,ZBAA 101800Z AUTO 00000KT 3/8SM 08/07 A3012 RMK SLP212 T00830074 57001 IEM_DS3505
ZBAA,1996-11-10 19:00,ZBAA 101900Z AUTO 33004KT 3/8SM 09/08 A3015 RMK SLP218 T00900080 IEM_DS3505
ZBAA,1996-11-10 20:00,ZBAA 102000Z AUTO 33006KT 1/2SM 08/07 A3015 RMK SLP218 T00800070 IEM_DS3505
ZBAA,1996-11-10 21:00,ZBAA 102100Z AUTO 02004KT 1/2SM 08/06 A3015 RMK SLP218 T00820065 52006 IEM_DS3505
ZBAA,1996-11-10 22:00,ZBAA 102200Z AUTO 00000KT 1SM 07/07 A3015 RMK SLP218 T00700070 IEM_DS3505
ZBAA,1996-11-10 23:00,ZBAA 102300Z AUTO 33006KT 1SM 08/07 A3018 RMK SLP228 T00800070 IEM_DS3505
ZBAA,1996-11-11 00:00,ZBAA 110000Z AUTO 02006KT 3SM 09/06 A3021 RMK SLP242 T00930058 52024 IEM_DS3505
ZBAA,1996-11-11 01:00,ZBAA 110100Z AUTO 33006KT 1 1/4SM 11/07 A3024 RMK SLP247 T01100070 IEM_DS3505
ZBAA,1996-11-11 02:20,ZBAA 110220Z AUTO 33008KT 4SM 12/03 A3024 RMK SLP247 T01200030 IEM_DS3505
ZBAA,1996-11-11 03:00,ZBAA 110300Z AUTO 34012KT 12SM 12/M03 A3027 RMK SLP255 T01231028 52013 IEM_DS3505
ZBAA,1996-11-11 04:00,ZBAA 110400Z AUTO 03008KT 6SM 13/01 A3027 RMK SLP257 T01300010 IEM_DS3505
ZBAA,1996-11-11 05:00,ZBAA 110500Z AUTO 03010KT 7SM 11/M02 A3030 RMK SLP267 T01101020 IEM_DS3505
ZBAA,1996-11-11 06:00,ZBAA 110600Z AUTO 34010KT 12SM 11/M04 A3030 RMK SLP267 T01111042 52011 IEM_DS3505
ZBAA,1996-11-11 07:00,ZBAA 110700Z AUTO 03012KT 6SM 10/M04 A3030 RMK SLP268 T01001040 IEM_DS3505
ZBAA,1996-11-11 08:00,ZBAA 110800Z AUTO 02010KT 6SM 09/M05 A3033 RMK SLP278 T00901050 IEM_DS3505
ZBAA,1996-11-11 09:00,ZBAA 110900Z AUTO 36012KT 11SM 09/M06 A3036 RMK SLP284 T00871065 52017 IEM_DS3505
ZBAA,1996-11-11 10:00,ZBAA 111000Z AUTO 03006KT 6SM 06/M08 A3039 RMK SLP300 T00601080 IEM_DS3505
ZBAA,1996-11-11 11:00,ZBAA 111100Z AUTO 02008KT 6SM 05/M08 A3042 RMK SLP310 T00501080 IEM_DS3505
ZBAA,1996-11-11 12:00,ZBAA 111200Z AUTO 02012KT 7SM 06/M10 A3045 RMK SLP309 T00621095 52025 IEM_DS3505
ZBAA,1996-11-11 13:00,ZBAA 111300Z AUTO 36008KT 6SM 04/M09 A3047 RMK SLP327 T00401090 IEM_DS3505
ZBAA,1996-11-11 14:00,ZBAA 111400Z AUTO 36010KT 6SM 03/M11 A3050 RMK SLP338 T00301110 IEM_DS3505
ZBAA,1996-11-11 15:00,ZBAA 111500Z AUTO 34012KT 7SM 04/M13 A3050 RMK SLP335 T00391127 52026 IEM_DS3505
ZBAA,1996-11-11 16:00,ZBAA 111600Z AUTO 02012KT 6SM 02/M13 A3053 RMK SLP348 T00201130 IEM_DS3505
ZBAA,1996-11-11 17:00,ZBAA 111700Z AUTO 02012KT 6SM 01/M13 A3056 RMK SLP358 T00101130 IEM_DS3505
ZBAA,1996-11-11 18:00,ZBAA 111800Z AUTO 02012KT 19SM 02/M16 A3056 RMK SLP355 T00171159 52019 IEM_DS3505
ZBAA,1996-11-11 19:00,ZBAA 111900Z AUTO 01008KT 7SM M01/M13 A3056 RMK SLP359 T10101130 IEM_DS3505
ZBAA,1996-11-11 21:00,ZBAA 112100Z AUTO 36012KT 19SM 00/M18 A3056 RMK SLP350 T00001182 57001 IEM_DS3505
ZBAA,1996-11-11 22:00,ZBAA 112200Z AUTO 36008KT 7SM M02/M15 A3056 RMK SLP359 T10201150 IEM_DS3505
ZBAA,1996-11-11 23:00,ZBAA 112300Z AUTO 02008KT 7SM M02/M14 A3056 RMK SLP359 T10201140 IEM_DS3505
ZBAA,1996-11-12 00:00,ZBAA 120000Z AUTO 02008KT 19SM M00/M17 A3059 RMK SLP362 T10041167 52007 IEM_DS3505
ZBAA,1996-11-12 01:00,ZBAA 120100Z AUTO 02008KT 7SM 00/M14 A3059 RMK SLP369 T00001140 IEM_DS3505
ZBAA,1996-11-12 02:00,ZBAA 120200Z AUTO 01008KT 7SM 01/M14 A3056 RMK SLP358 T00101140 IEM_DS3505
ZBAA,1996-11-12 03:00,ZBAA 120300Z AUTO 02010KT 19SM 03/M17 A3053 RMK SLP352 T00291169 57010 IEM_DS3505
ZBAA,1996-11-12 04:00,ZBAA 120400Z AUTO 33010KT 7SM 04/M17 A3050 RMK SLP338 T00401170 IEM_DS3505
ZBAA,1996-11-12 05:00,ZBAA 120500Z AUTO 34008KT 7SM 06/M17 A3047 RMK SLP327 T00601170 IEM_DS3505
ZBAA,1996-11-12 06:00,ZBAA 120600Z AUTO 34008G17KT 19SM 06/M15 A3045 RMK SLP319 T00641150 57032 IEM_DS3505
ZBAA,1996-11-12 07:00,ZBAA 120700Z AUTO 32012KT 7SM 06/M16 A3042 RMK SLP310 T00601160 IEM_DS3505
ZBAA,1996-11-12 08:00,ZBAA 120800Z AUTO 29010KT 7SM 06/M15 A3042 RMK SLP310 T00601150 IEM_DS3505
ZBAA,1996-11-12 09:00,ZBAA 120900Z AUTO 34006KT 19SM 05/M14 A3042 RMK SLP309 T00541139 57011 IEM_DS3505
ZBAA,1996-11-12 10:00,ZBAA 121000Z AUTO 31014KT 7SM 04/M14 A3042 RMK SLP310 T00401140 IEM_DS3505
ZBAA,1996-11-12 11:00,ZBAA 121100Z AUTO 30012KT 7SM 04/M13 A3042 RMK SLP310 T00401130 IEM_DS3505
ZBAA,1996-11-12 12:00,ZBAA 121200Z AUTO 34002KT 16SM 02/M15 A3042 RMK SLP317 T00181148 52008 IEM_DS3505
ZBAA,1996-11-12 13:00,ZBAA 121300Z AUTO 33008KT 7SM 01/M11 A3045 RMK SLP321 T00101110 IEM_DS3505
ZBAA,1996-11-12 14:00,ZBAA 121400Z AUTO ////04KT 7SM 01/M10 A3045 RMK SLP321 T00101100 IEM_DS3505
ZBAA,1996-11-12 15:00,ZBAA 121500Z AUTO 34004KT 16SM 02/M13 A3047 RMK SLP325 T00191132 52008 IEM_DS3505
ZBAA,1996-11-12 16:00,ZBAA 121600Z AUTO 34004KT 7SM 00/M12 A3047 RMK SLP328 T00001120 IEM_DS3505
ZBAA,1996-11-12 17:00,ZBAA 121700Z AUTO 01006KT 7SM 00/M11 A3047 RMK SLP328 T00001110 IEM_DS3505
ZBAA,1996-11-12 18:00,ZBAA 121800Z AUTO 36006KT 12SM 00/M11 A3047 RMK SLP327 T00041112 52002 IEM_DS3505
ZBAA,1996-11-12 19:00,ZBAA 121900Z AUTO 35006KT 7SM M02/M12 A3047 RMK SLP329 T10201120 IEM_DS3505
ZBAA,1996-11-12 20:00,ZBAA 122000Z AUTO 35006KT 7SM M02/M13 A3047 RMK SLP329 T10201130 IEM_DS3505
ZBAA,1996-11-12 21:00,ZBAA 122100Z AUTO 34004KT 12SM M00/M12 A3045 RMK SLP324 T10041116 57003 IEM_DS3505
ZBAA,1996-11-12 22:00,ZBAA 122200Z AUTO 03008KT 7SM M01/M12 A3045 RMK SLP322 T10101120 IEM_DS3505
ZBAA,1996-11-13 00:00,ZBAA 130000Z AUTO 36006KT 12SM 00/M15 A3047 RMK SLP329 T00021148 52005 IEM_DS3505
ZBAA,1996-11-13 01:00,ZBAA 130100Z AUTO 35008KT 7SM 02/M13 A3047 RMK SLP328 T00201130 IEM_DS3505
ZBAA,1996-11-13 02:00,ZBAA 130200Z AUTO 33012KT 7SM 03/M15 A3047 RMK SLP328 T00301150 IEM_DS3505
ZBAA,1996-11-13 03:00,ZBAA 130300Z AUTO 34006KT 16SM 05/M15 A3045 RMK SLP320 T00511147 57008 IEM_DS3505
ZBAA,1996-11-13 04:00,ZBAA 130400Z AUTO 36006KT 7SM 05/M15 A3042 RMK SLP310 T00501150 IEM_DS3505
ZBAA,1996-11-13 05:00,ZBAA 130500Z AUTO ////04KT 7SM 06/M15 A3039 RMK SLP300 T00601150 IEM_DS3505
ZBAA,1996-11-13 06:00,ZBAA 130600Z AUTO 02006KT 16SM 07/M14 A3036 RMK SLP295 T00711145 57025 IEM_DS3505
ZBAA,1996-11-13 07:00,ZBAA 130700Z AUTO 33010KT 7SM 07/M16 A3033 RMK SLP278 T00701160 IEM_DS3505
ZBAA,1996-11-13 08:00,ZBAA 130800Z AUTO 33008KT 7SM 07/M16 A3033 RMK SLP278 T00701160 IEM_DS3505
ZBAA,1996-11-13 09:00,ZBAA 130900Z AUTO 22006KT 12SM 05/M10 A3033 RMK SLP290 T00541100 57006 IEM_DS3505
ZBAA,1996-11-13 10:00,ZBAA 131000Z AUTO ////02KT 7SM 05/M15 A3036 RMK SLP289 T00501150 IEM_DS3505
ZBAA,1996-11-13 11:00,ZBAA 131100Z AUTO ////02KT 6SM 04/M12 A3036 RMK SLP289 T00401120 IEM_DS3505
ZBAA,1996-11-13 12:00,ZBAA 131200Z AUTO 22004KT 9SM 03/M06 A3036 RMK SLP294 T00341062 52004 IEM_DS3505
ZBAA,1996-11-13 13:00,ZBAA 131300Z AUTO 28006KT 6SM 03/M09 A3036 RMK SLP289 T00301090 IEM_DS3505
ZBAA,1996-11-13 14:00,ZBAA 131400Z AUTO 28006KT 7SM 01/M08 A3039 RMK SLP301 T00101080 IEM_DS3505
ZBAA,1996-11-13 15:00,ZBAA 131500Z AUTO 00000KT 6SM M00/M05 A3039 RMK SLP300 T10021048 52006 IEM_DS3505
ZBAA,1996-11-13 16:00,ZBAA 131600Z AUTO ////02KT 7SM 00/M08 A3039 RMK SLP301 T00001080 IEM_DS3505
ZBAA,1996-11-13 17:00,ZBAA 131700Z AUTO 35002KT 7SM M02/M05 A3042 RMK SLP312 T10201050 IEM_DS3505
ZBAA,1996-11-13 18:00,ZBAA 131800Z AUTO 36006KT 6SM 01/M11 A3042 RMK SLP309 T00141111 52010 IEM_DS3505
ZBAA,1996-11-13 19:00,ZBAA 131900Z AUTO 35006KT 7SM M03/M09 A3042 RMK SLP312 T10301090 IEM_DS3505
ZBAA,1996-11-13 20:00,ZBAA 132000Z AUTO 01006KT 7SM 00/M10 A3045 RMK SLP321 T00001100 IEM_DS3505
ZBAA,1996-11-13 21:00,ZBAA 132100Z AUTO 07002KT 6SM 02/M12 A3045 RMK SLP317 T00161125 52008 IEM_DS3505
ZBAA,1996-11-13 22:00,ZBAA 132200Z AUTO 31008KT 7SM 01/M15 A3045 RMK SLP321 T00101150 IEM_DS3505
ZBAA,1996-11-13 23:00,ZBAA 132300Z AUTO 28006KT 7SM 01/M15 A3047 RMK SLP328 T00101150 IEM_DS3505
ZBAA,1996-11-14 00:00,ZBAA 140000Z AUTO 02004KT 7SM 02/M14 A3050 RMK SLP340 T00201137 52022 IEM_DS3505
ZBAA,1996-11-14 01:00,ZBAA 140100Z AUTO 30012KT 7SM 03/M15 A3053 RMK SLP348 T00301150 IEM_DS3505
ZBAA,1996-11-14 02:00,ZBAA 140200Z AUTO 31016KT 7SM 04/M18 A3053 RMK SLP348 T00401180 IEM_DS3505
ZBAA,1996-11-14 03:00,ZBAA 140300Z AUTO 34010KT 16SM 05/M15 A3053 RMK SLP352 T00461147 52012 IEM_DS3505
ZBAA,1996-11-14 04:00,ZBAA 140400Z AUTO 32016KT 7SM 06/M17 A3050 RMK SLP337 T00601170 IEM_DS3505
ZBAA,1996-11-14 05:00,ZBAA 140500Z AUTO 29012KT 7SM 06/M16 A3050 RMK SLP337 T00601160 IEM_DS3505
ZBAA,1996-11-14 06:00,ZBAA 140600Z AUTO 36012KT 19SM 06/M18 A3050 RMK SLP339 T00641178 57013 IEM_DS3505
ZBAA,1996-11-14 07:00,ZBAA 140700Z AUTO 28014KT 7SM 06/M16 A3047 RMK SLP327 T00601160 IEM_DS3505
ZBAA,1996-11-14 08:00,ZBAA 140800Z AUTO 29016KT 7SM 06/M16 A3050 RMK SLP337 T00601160 IEM_DS3505
ZBAA,1996-11-14 09:00,ZBAA 140900Z AUTO 34006KT 19SM 06/M16 A3050 RMK SLP344 T00551161 52005 IEM_DS3505
ZBAA,1996-11-14 10:00,ZBAA 141000Z AUTO 29008KT 7SM 04/M13 A3050 RMK SLP338 T00401130 IEM_DS3505
ZBAA,1996-11-14 11:00,ZBAA 141100Z AUTO 29008KT 7SM 03/M13 A3053 RMK SLP348 T00301130 IEM_DS3505
ZBAA,1996-11-14 12:00,ZBAA 141200Z AUTO 25002KT 16SM 02/M17 A3053 RMK SLP354 T00221173 52010 IEM_DS3505
ZBAA,1996-11-14 13:00,ZBAA 141300Z AUTO 29008KT 7SM 03/M14 A3056 RMK SLP358 T00301140 IEM_DS3505
ZBAA,1996-11-14 14:00,ZBAA 141400Z AUTO 30006KT 7SM 02/M15 A3056 RMK SLP358 T00201150 IEM_DS3505
ZBAA,1996-11-14 15:00,ZBAA 141500Z AUTO 27004KT 12SM 01/M10 A3056 RMK SLP362 T00131097 52008 IEM_DS3505
ZBAA,1996-11-14 16:00,ZBAA 141600Z AUTO 28006KT 7SM 01/M13 A3056 RMK SLP358 T00101130 IEM_DS3505
ZBAA,1996-11-14 17:00,ZBAA 141700Z AUTO 28002KT 7SM M01/M12 A3059 RMK SLP369 T10101120 IEM_DS3505
ZBAA,1996-11-14 18:00,ZBAA 141800Z AUTO 00000KT 12SM 01/M10 A3059 RMK SLP368 T00101097 52006 IEM_DS3505
ZBAA,1996-11-14 21:00,ZBAA 142100Z AUTO 36002KT 12SM 02/M13 A3061 RMK SLP374 T00161126 52006 IEM_DS3505
ZBAA,1996-11-15 00:00,ZBAA 150000Z AUTO 34006KT 12SM 02/M12 A3065 RMK SLP390 T00201124 52016 IEM_DS3505
ZBAA,1996-11-15 01:00,ZBAA 150100Z AUTO 01006KT 7SM 03/M10 A3068 RMK SLP398 T00301100 IEM_DS3505
ZBAA,1996-11-15 02:00,ZBAA 150200Z AUTO 03008KT 7SM 04/M13 A3068 RMK SLP398 T00401130 IEM_DS3505
ZBAA,1996-11-15 03:00,ZBAA 150300Z AUTO 02008KT 12SM 07/M15 A3068 RMK SLP394 T00691154 52004 IEM_DS3505
ZBAA,1996-11-15 04:00,ZBAA 150400Z AUTO ////04KT 7SM 06/M14 A3065 RMK SLP387 T00601140 IEM_DS3505
ZBAA,1996-11-15 05:00,ZBAA 150500Z AUTO ////04KT 7SM 07/M14 A3062 RMK SLP377 T00701140 IEM_DS3505
ZBAA,1996-11-15 06:00,ZBAA 150600Z AUTO 02006KT 12SM 08/M11 A3059 RMK SLP372 T00831114 57022 IEM_DS3505
ZBAA,1996-11-15 07:00,ZBAA 150700Z AUTO 06006KT 7SM 07/M14 A3059 RMK SLP367 T00701140 IEM_DS3505
ZBAA,1996-11-15 08:00,ZBAA 150800Z AUTO ////04KT 7SM 07/M14 A3059 RMK SLP367 T00701140 IEM_DS3505
ZBAA,1996-11-15 09:00,ZBAA 150900Z AUTO 22008KT 12SM 07/M10 A3059 RMK SLP366 T00681100 57006 IEM_DS3505
ZBAA,1996-11-15 10:00,ZBAA 151000Z AUTO ////02KT 7SM 04/M11 A3059 RMK SLP368 T00401110 IEM_DS3505
ZBAA,1996-11-15 11:00,ZBAA 151100Z AUTO ////04KT 7SM 04/M11 A3062 RMK SLP378 T00401110 IEM_DS3505
ZBAA,1996-11-15 12:00,ZBAA 151200Z AUTO 18002KT 9SM 04/M08 A3059 RMK SLP372 T00451076 52006 IEM_DS3505
ZBAA,1996-11-15 13:00,ZBAA 151300Z AUTO ////04KT 7SM 02/M11 A3059 RMK SLP368 T00201110 IEM_DS3505
ZBAA,1996-11-15 14:00,ZBAA 151400Z AUTO 20008KT 7SM 04/M11 A3062 RMK SLP378 T00401110 IEM_DS3505
ZBAA,1996-11-15 15:00,ZBAA 151500Z AUTO 20004KT 9SM 03/M07 A3059 RMK SLP371 T00281072 54000 IEM_DS3505
ZBAA,1996-11-15 16:00,ZBAA 151600Z AUTO 00000KT 7SM M01/M05 A3059 RMK SLP369 T10101050 IEM_DS3505
ZBAA,1996-11-15 17:00,ZBAA 151700Z AUTO 00000KT 7SM M02/M05 A3059 RMK SLP369 T10201050 IEM_DS3505
ZBAA,1996-11-15 18:00,ZBAA 151800Z AUTO 00000KT 6SM M00/M05 A3056 RMK SLP361 T10021048 57011 IEM_DS3505
ZBAA,1996-11-15 21:00,ZBAA 152100Z AUTO 34002KT 4SM 00/M06 A3052 RMK SLP346 T00001065 57015 IEM_DS3505
ZBAA,1996-11-15 22:00,ZBAA 152200Z AUTO 00000KT 6SM M01/M06 A3050 RMK SLP339 T10101060 IEM_DS3505
ZBAA,1996-11-15 23:00,ZBAA 152300Z AUTO 02002KT 4SM M01/M06 A3047 RMK SLP329 T10101060 IEM_DS3505
ZBAA,1996-11-16 00:00,ZBAA 160000Z AUTO 36002KT 3SM 01/M06 A3047 RMK SLP332 T00081062 57014 IEM_DS3505
ZBAA,1996-11-16 01:00,ZBAA 160100Z AUTO ////02KT 4SM 00/M05 A3047 RMK SLP328 T00001050 IEM_DS3505
ZBAA,1996-11-16 02:00,ZBAA 160200Z AUTO ////02KT 3SM 00/M05 A3045 RMK SLP321 T00001050 IEM_DS3505
ZBAA,1996-11-16 03:00,ZBAA 160300Z AUTO 04006KT 2SM 03/M06 A3045 RMK SLP317 T00261061 57015 IEM_DS3505
ZBAA,1996-11-16 04:00,ZBAA 160400Z AUTO ////02KT 2 1/2SM 02/M05 A3042 RMK SLP311 T00201050 IEM_DS3505
ZBAA,1996-11-16 05:00,ZBAA 160500Z AUTO ////02KT 2 1/2SM 03/M05 A3036 RMK SLP289 T00301050 IEM_DS3505
ZBAA,1996-11-16 06:00,ZBAA 160600Z AUTO 00000KT 2 1/2SM 05/M07 A3033 RMK SLP279 T00541069 57037 IEM_DS3505
ZBAA,1996-11-16 07:00,ZBAA 160700Z AUTO ////02KT 1 1/2SM 04/M06 A3030 RMK SLP269 T00401060 IEM_DS3505
ZBAA,1996-11-16 08:00,ZBAA 160800Z AUTO ////02KT 1SM 04/M04 A3030 RMK SLP269 T00401040 IEM_DS3505
ZBAA,1996-11-16 09:00,ZBAA 160900Z AUTO 18006KT 2 1/2SM 04/M05 A3030 RMK SLP269 T00381047 57011 IEM_DS3505
ZBAA,1996-11-16 10:00,ZBAA 161000Z AUTO ////04KT 1 1/4SM 03/M03 A3027 RMK SLP259 T00301030 IEM_DS3505
ZBAA,1996-11-16 11:00,ZBAA 161100Z AUTO ////02KT 1SM 02/M03 A3027 RMK SLP260 T00201030 IEM_DS3505
ZBAA,1996-11-16 12:00,ZBAA 161200Z AUTO 22004KT 2SM 02/M02 A3030 RMK SLP267 T00241016 57002 IEM_DS3505
ZBAA,1996-11-16 13:00,ZBAA 161300Z AUTO ////02KT 1SM 00/M02 A3030 RMK SLP270 T00001020 IEM_DS3505
ZBAA,1996-11-16 14:00,ZBAA 161400Z AUTO 01002KT 1SM M01/M02 A3030 RMK SLP270 T10101020 IEM_DS3505
ZBAA,1996-11-16 15:00,ZBAA 161500Z AUTO 00000KT 1 1/4SM 00/M03 A3030 RMK SLP264 T00051028 57003 IEM_DS3505
ZBAA,1996-11-16 16:00,ZBAA 161600Z AUTO ////02KT 1SM M02/M03 A3030 RMK SLP271 T10201030 IEM_DS3505
ZBAA,1996-11-16 17:00,ZBAA 161700Z AUTO ////02KT 1SM M02/M03 A3027 RMK SLP261 T10201030 IEM_DS3505
ZBAA,1996-11-16 18:00,ZBAA 161800Z AUTO 34012KT 9SM 01/M06 A3030 RMK SLP268 T00141062 52005 IEM_DS3505
ZBAA,1996-11-16 21:00,ZBAA 162100Z AUTO 32010KT 19SM 03/M07 A3026 RMK SLP256 T00321074 57012 IEM_DS3505
ZBAA,1996-11-16 22:00,ZBAA 162200Z AUTO 28017G29KT 7SM 03/M13 A3024 RMK SLP249 T00301130 IEM_DS3505
ZBAA,1996-11-16 23:00,ZBAA 162300Z AUTO 31019G31KT 6SM 03/M12 A3027 RMK SLP259 T00301120 IEM_DS3505
ZBAA,1996-11-17 00:00,ZBAA 170000Z AUTO 29012KT 19SM 02/M12 A3030 RMK SLP270 T00241118 52014 IEM_DS3505
ZBAA,1996-11-17 01:00,ZBAA 170100Z AUTO 29012KT 7SM 03/M12 A3030 RMK SLP269 T00301120 IEM_DS3505
ZBAA,1996-11-17 02:00,ZBAA 170200Z AUTO 30016KT 7SM 04/M13 A3030 RMK SLP269 T00401130 IEM_DS3505
ZBAA,1996-11-17 03:00,ZBAA 170300Z AUTO 32017G23KT 19SM 05/M16 A3030 RMK SLP272 T00541162 52002 IEM_DS3505
ZBAA,1996-11-17 04:00,ZBAA 170400Z AUTO 30016KT 7SM 06/M15 A3027 RMK SLP259 T00601150 IEM_DS3505
ZBAA,1996-11-17 05:00,ZBAA 170500Z AUTO 30016KT 7SM 07/M15 A3024 RMK SLP248 T00701150 IEM_DS3505
ZBAA,1996-11-17 06:00,ZBAA 170600Z AUTO 32010KT 19SM 08/M20 A3024 RMK SLP252 T00761203 57020 IEM_DS3505
ZBAA,1996-11-17 07:00,ZBAA 170700Z AUTO 31014G25KT 7SM 08/M16 A3021 RMK SLP238 T00801160 IEM_DS3505
ZBAA,1996-11-17 08:00,ZBAA 170800Z AUTO 31012KT 7SM 08/M16 A3021 RMK SLP238 T00801160 IEM_DS3505
ZBAA,1996-11-17 09:00,ZBAA 170900Z AUTO 22004KT 12SM 07/M10 A3021 RMK SLP247 T00721101 57005 IEM_DS3505
ZBAA,1996-11-17 10:00,ZBAA 171000Z AUTO 27006KT 7SM 06/M15 A3024 RMK SLP248 T00601150 IEM_DS3505
ZBAA,1996-11-17 11:00,ZBAA 171100Z AUTO ////02KT 7SM 06/M14 A3024 RMK SLP248 T00601140 IEM_DS3505
ZBAA,1996-11-17 12:00,ZBAA 171200Z AUTO 18004KT 19SM 04/M16 A3027 RMK SLP258 T00421155 52011 IEM_DS3505
ZBAA,1996-11-17 13:00,ZBAA 171300Z AUTO 00000KT 7SM 02/M11 A3027 RMK SLP260 T00201110 IEM_DS3505
ZBAA,1996-11-17 14:00,ZBAA 171400Z AUTO ////02KT 7SM 00/M07 A3027 RMK SLP260 T00001070 IEM_DS3505
ZBAA,1996-11-17 15:00,ZBAA 171500Z AUTO 32006KT 16SM 07/M15 A3030 RMK SLP265 T00721149 52008 IEM_DS3505
ZBAA,1996-11-17 16:00,ZBAA 171600Z AUTO 28008KT 7SM 04/M12 A3027 RMK SLP259 T00401120 IEM_DS3505
ZBAA,1996-11-17 17:00,ZBAA 171700Z AUTO 29010KT 7SM 05/M12 A3027 RMK SLP259 T00501120 IEM_DS3505
ZBAA,1996-11-17 18:00,ZBAA 171800Z AUTO 29008KT 16SM 04/M12 A3027 RMK SLP265 T00351116 57001 IEM_DS3505
ZBAA,1996-11-17 19:00,ZBAA 171900Z AUTO 29012KT 7SM 05/M14 A3027 RMK SLP259 T00501140 IEM_DS3505
ZBAA,1996-11-17 20:00,ZBAA 172000Z AUTO 28006KT 7SM 05/M13 A3027 RMK SLP259 T00501130 IEM_DS3505
ZBAA,1996-11-17 21:00,ZBAA 172100Z AUTO 32006KT 12SM 05/M14 A3027 RMK SLP262 T00511138 57002 IEM_DS3505
ZBAA,1996-11-17 22:00,ZBAA 172200Z AUTO 30010KT 7SM 05/M13 A3027 RMK SLP259 T00501130 IEM_DS3505
ZBAA,1996-11-17 23:00,ZBAA 172300Z AUTO 30008KT 6SM 05/M13 A3027 RMK SLP259 T00501130 IEM_DS3505
ZBAA,1996-11-18 00:00,ZBAA 180000Z AUTO 27002KT 7SM 04/M10 A3027 RMK SLP264 T00391096 52001 IEM_DS3505
ZBAA,1996-11-18 01:00,ZBAA 180100Z AUTO 29014KT 6SM 07/M14 A3027 RMK SLP258 T00701140 IEM_DS3505
ZBAA,1996-11-18 02:00,ZBAA 180200Z AUTO 30014G27KT 6SM 07/M14 A3030 RMK SLP268 T00701140 IEM_DS3505
ZBAA,1996-11-18 03:00,ZBAA 180300Z AUTO 32008G25KT 11SM 10/M17 A3027 RMK SLP266 T00991173 52003 IEM_DS3505
ZBAA,1996-11-18 04:00,ZBAA 180400Z AUTO 29016KT 6SM 09/M14 A3024 RMK SLP248 T00901140 IEM_DS3505
ZBAA,1996-11-18 05:00,ZBAA 180500Z AUTO 29016G27KT 7SM 10/M15 A3021 RMK SLP237 T01001150 IEM_DS3505
ZBAA,1996-11-18 06:00,ZBAA 180600Z AUTO 32008KT 12SM 12/M13 A3018 RMK SLP241 T01181131 57025 IEM_DS3505
ZBAA,1996-11-18 07:00,ZBAA 180700Z AUTO 27010KT 7SM 12/M13 A3018 RMK SLP227 T01201130 IEM_DS3505
ZBAA,1996-11-18 08:00,ZBAA 180800Z AUTO 27010KT 7SM 11/M13 A3018 RMK SLP227 T01101130 IEM_DS3505
ZBAA,1996-11-18 09:00,ZBAA 180900Z AUTO 20006KT 7SM 10/M11 A3021 RMK SLP245 T00991109 52004 IEM_DS3505
ZBAA,1996-11-18 10:00,ZBAA 181000Z AUTO 29006KT 7SM 09/M11 A3024 RMK SLP248 T00901110 IEM_DS3505
ZBAA,1996-11-18 11:00,ZBAA 181100Z AUTO 25006KT 7SM 07/M10 A3024 RMK SLP248 T00701100 IEM_DS3505
ZBAA,1996-11-18 12:00,ZBAA 181200Z AUTO 22004KT 6SM 08/M10 A3027 RMK SLP264 T00771101 52018 IEM_DS3505
ZBAA,1996-11-18 13:00,ZBAA 181300Z AUTO ////02KT 7SM 04/M08 A3030 RMK SLP269 T00401080 IEM_DS3505
ZBAA,1996-11-18 14:00,ZBAA 181400Z AUTO ////02KT 5SM 04/M09 A3030 RMK SLP269 T00401090 IEM_DS3505
ZBAA,1996-11-18 15:00,ZBAA 181500Z AUTO 00000KT 6SM 03/M09 A3030 RMK SLP270 T00321093 52007 IEM_DS3505
ZBAA,1996-11-18 16:00,ZBAA 181600Z AUTO 34002KT 3SM 01/M06 A3030 RMK SLP270 T00101060 IEM_DS3505
ZBAA,1996-11-18 18:00,ZBAA 181800Z AUTO 00000KT 6SM 01/M05 A3033 RMK SLP274 T00081050 52004 IEM_DS3505
ZBAA,1996-11-18 19:00,ZBAA 181900Z AUTO 36004KT 5SM 00/M06 A3030 RMK SLP270 T00001060 IEM_DS3505
ZBAA,1996-11-18 20:00,ZBAA 182000Z AUTO ////04KT 5SM M01/M07 A3030 RMK SLP270 T10101070 IEM_DS3505
ZBAA,1996-11-18 21:00,ZBAA 182100Z AUTO 00000KT 6SM M01/M05 A3030 RMK SLP266 T10061049 57009 IEM_DS3505
ZBAA,1996-11-18 22:00,ZBAA 182200Z AUTO 34004KT 7SM M01/M06 A3027 RMK SLP260 T10101060 IEM_DS3505
ZBAA,1996-11-18 23:00,ZBAA 182300Z AUTO 34004KT 7SM M03/M07 A3027 RMK SLP261 T10301070 IEM_DS3505
ZBAA,1996-11-19 00:00,ZBAA 190000Z AUTO 00000KT 2SM M00/M04 A3030 RMK SLP268 T10021044 52002 IEM_DS3505
ZBAA,1996-11-19 01:00,ZBAA 190100Z AUTO ////02KT 4SM 02/M04 A3030 RMK SLP270 T00201040 IEM_DS3505
ZBAA,1996-11-19 02:00,ZBAA 190200Z AUTO ////02KT 4SM 04/M06 A3030 RMK SLP269 T00401060 IEM_DS3505
ZBAA,1996-11-19 03:00,ZBAA 190300Z AUTO 07004KT 4SM 08/M08 A3027 RMK SLP253 T00821079 57014 IEM_DS3505
ZBAA,1996-11-19 04:00,ZBAA 190400Z AUTO ////04KT 3SM 07/M05 A3021 RMK SLP238 T00701050 IEM_DS3505
ZBAA,1996-11-19 05:00,ZBAA 190500Z AUTO ////04KT 3SM 09/M06 A3018 RMK SLP228 T00901060 IEM_DS3505
ZBAA,1996-11-19 06:00,ZBAA 190600Z AUTO 18006KT 4SM 10/M07 A3015 RMK SLP219 T01011070 57034 IEM_DS3505
ZBAA,1996-11-19 07:00,ZBAA 190700Z AUTO 15006KT 3SM 10/M06 A3012 RMK SLP207 T01001060 IEM_DS3505
ZBAA,1996-11-19 08:00,ZBAA 190800Z AUTO ////04KT 2 1/2SM 08/M05 A3012 RMK SLP208 T00801050 IEM_DS3505
ZBAA,1996-11-19 09:00,ZBAA 190900Z AUTO 22004KT 4SM 09/M06 A3012 RMK SLP212 T00891060 57008 IEM_DS3505
ZBAA,1996-11-19 10:00,ZBAA 191000Z AUTO 10002KT 2SM 05/M03 A3012 RMK SLP208 T00501030 IEM_DS3505
ZBAA,1996-11-19 11:00,ZBAA 191100Z AUTO ////02KT 2SM 03/M03 A3012 RMK SLP209 T00301030 IEM_DS3505
ZBAA,1996-11-19 12:00,ZBAA 191200Z AUTO 00000KT 4SM 04/M03 A3012 RMK SLP215 T00421027 52003 IEM_DS3505
ZBAA,1996-11-19 13:00,ZBAA 191300Z AUTO ////02KT 1 1/2SM 03/M03 A3012 RMK SLP209 T00301030 IEM_DS3505
ZBAA,1996-11-19 14:00,ZBAA 191400Z AUTO 36004KT 1 1/2SM 03/M02 A3012 RMK SLP209 T00301020 IEM_DS3505
ZBAA,1996-11-19 15:00,ZBAA 191500Z AUTO 02004KT 2 1/2SM 06/M04 A3012 RMK SLP210 T00591035 57004 IEM_DS3505
ZBAA,1996-11-19 16:00,ZBAA 191600Z AUTO 34002KT 1 1/2SM 03/M03 A3009 RMK SLP198 T00301030 IEM_DS3505
ZBAA,1996-11-19 17:00,ZBAA 191700Z AUTO 35002KT 1 1/4SM 03/M02 A3006 RMK SLP188 T00301020 IEM_DS3505
ZBAA,1996-11-19 18:00,ZBAA 191800Z AUTO 07004KT 5SM 05/M04 A3006 RMK SLP189 T00541043 57021 IEM_DS3505
ZBAA,1996-11-19 19:00,ZBAA 191900Z AUTO ////02KT 1 1/2SM 03/M03 A3003 RMK SLP178 T00301030 IEM_DS3505
ZBAA,1996-11-19 20:00,ZBAA 192000Z AUTO 00000KT 1 1/2SM 01/M02 A3003 RMK SLP178 T00101020 IEM_DS3505
ZBAA,1996-11-19 21:00,ZBAA 192100Z AUTO 00000KT 5SM 02/M03 A3000 RMK SLP175 T00241026 57014 IEM_DS3505
ZBAA,1996-11-19 22:00,ZBAA 192200Z AUTO ////04KT 1 1/4SM 01/M03 A3000 RMK SLP168 T00101030 IEM_DS3505
ZBAA,1996-11-19 23:00,ZBAA 192300Z AUTO 29008KT 1 1/4SM 03/M04 A3000 RMK SLP168 T00301040 IEM_DS3505
ZBAA,1996-11-20 00:00,ZBAA 200000Z AUTO 34004KT 1 1/2SM 03/M03 A3003 RMK SLP185 T00261027 52009 IEM_DS3505
ZBAA,1996-11-20 01:00,ZBAA 200100Z AUTO 28010KT 4SM 09/M05 A3003 RMK SLP176 T00901050 IEM_DS3505
ZBAA,1996-11-20 02:00,ZBAA 200200Z AUTO 29017G27KT 7SM 10/M05 A3003 RMK SLP176 T01001050 IEM_DS3505
ZBAA,1996-11-20 03:00,ZBAA 200300Z AUTO 32019G31KT 12SM 12/M09 A3003 RMK SLP190 T01161089 52007 IEM_DS3505
ZBAA,1996-11-20 04:00,ZBAA 200400Z AUTO 29017G27KT 6SM 11/M07 A3003 RMK SLP176 T01101070 IEM_DS3505
ZBAA,1996-11-20 05:00,ZBAA 200500Z AUTO 28019G29KT 6SM 11/M11 A3006 RMK SLP186 T01101110 IEM_DS3505
ZBAA,1996-11-20 06:00,ZBAA 200600Z AUTO 32017KT 12SM 10/M16 A3009 RMK SLP212 T01001157 4////0014 52021 IEM_DS3505
ZBAA,1996-11-20 08:00,ZBAA 200800Z AUTO 32027G39KT 7SM 08/M15 A3018 RMK SLP228 T00801150 IEM_DS3505
ZBAA,1996-11-20 09:00,ZBAA 200900Z AUTO 32012G37KT 12SM 07/M17 A3021 RMK SLP247 T00711169 52034 IEM_DS3505
ZBAA,1996-11-20 10:00,ZBAA 201000Z AUTO 32025G37KT 7SM 06/M16 A3024 RMK SLP248 T00601160 IEM_DS3505
ZBAA,1996-11-20 11:00,ZBAA 201100Z AUTO 32019KT 7SM 05/M16 A3030 RMK SLP269 T00501160 IEM_DS3505
ZBAA,1996-11-20 12:00,ZBAA 201200Z AUTO 34008KT 19SM 05/M15 A3033 RMK SLP274 T00481147 52027 IEM_DS3505
ZBAA,1996-11-20 13:00,ZBAA 201300Z AUTO 32023G33KT 7SM 05/M19 A3033 RMK SLP279 T00501190 IEM_DS3505
ZBAA,1996-11-20 14:00,ZBAA 201400Z AUTO 33017G29KT 7SM 04/M20 A3036 RMK SLP289 T00401200 IEM_DS3505
ZBAA,1996-11-20 15:00,ZBAA 201500Z AUTO 34008G33KT 19SM 04/M17 A3039 RMK SLP292 T00361173 52019 IEM_DS3505
ZBAA,1996-11-20 16:00,ZBAA 201600Z AUTO 32019KT 7SM 03/M19 A3039 RMK SLP301 T00301190 IEM_DS3505
ZBAA,1996-11-20 17:00,ZBAA 201700Z AUTO 33014KT 7SM 03/M20 A3039 RMK SLP301 T00301200 IEM_DS3505
ZBAA,1996-11-20 18:00,ZBAA 201800Z AUTO 34004KT 19SM 02/M15 A3039 RMK SLP303 T00201151 52010 IEM_DS3505
ZBAA,1996-11-20 19:00,ZBAA 201900Z AUTO 34006KT 7SM 01/M18 A3039 RMK SLP301 T00101180 IEM_DS3505
ZBAA,1996-11-20 20:00,ZBAA 202000Z AUTO 31008KT 7SM 01/M18 A3039 RMK SLP301 T00101180 IEM_DS3505
ZBAA,1996-11-20 21:00,ZBAA 202100Z AUTO 02002KT 12SM M01/M11 A3039 RMK SLP298 T10061114 57005 IEM_DS3505
ZBAA,1996-11-20 22:00,ZBAA 202200Z AUTO ////02KT 7SM M01/M15 A3039 RMK SLP302 T10101150 IEM_DS3505
ZBAA,1996-11-20 23:00,ZBAA 202300Z AUTO 00000KT 7SM M02/M14 A3039 RMK SLP302 T10201140 IEM_DS3505
ZBAA,1996-11-21 00:00,ZBAA 210000Z AUTO 29002KT 7SM M02/M11 A3039 RMK SLP306 T10181110 52007 IEM_DS3505
ZBAA,1996-11-21 01:00,ZBAA 210100Z AUTO ////04KT 7SM 02/M14 A3042 RMK SLP311 T00201140 IEM_DS3505
ZBAA,1996-11-21 02:00,ZBAA 210200Z AUTO ////02KT 6SM 04/M15 A3042 RMK SLP310 T00401150 IEM_DS3505
ZBAA,1996-11-21 03:00,ZBAA 210300Z AUTO 18008KT 5SM 06/M19 A3039 RMK SLP302 T00551189 57003 IEM_DS3505
ZBAA,1996-11-21 04:00,ZBAA 210400Z AUTO ////04KT 6SM 05/M15 A3036 RMK SLP289 T00501150 IEM_DS3505
ZBAA,1996-11-21 05:00,ZBAA 210500Z AUTO ////04KT 6SM 06/M15 A3033 RMK SLP279 T00601150 IEM_DS3505
ZBAA,1996-11-21 06:00,ZBAA 210600Z AUTO 22008KT 7SM 07/M18 A3033 RMK SLP277 T00681181 57025 IEM_DS3505
ZBAA,1996-11-21 07:00,ZBAA 210700Z AUTO 19008KT 6SM 07/M16 A3030 RMK SLP268 T00701160 IEM_DS3505
ZBAA,1996-11-21 08:00,ZBAA 210800Z AUTO 21010KT 6SM 07/M16 A3030 RMK SLP268 T00701160 IEM_DS3505
ZBAA,1996-11-21 09:00,ZBAA 210900Z AUTO 22008KT 6SM 05/M15 A3030 RMK SLP269 T00501150 IEM_DS3505
ZBAA,1996-11-21 10:00,ZBAA 211000Z AUTO ////04KT 7SM 05/M13 A3030 RMK SLP269 T00501130 IEM_DS3505
ZBAA,1996-11-21 11:00,ZBAA 211100Z AUTO 10002KT 6SM 02/M11 A3030 RMK SLP270 T00201110 IEM_DS3505
ZBAA,1996-11-21 12:00,ZBAA 211200Z AUTO 22004KT 7SM 04/M10 A3030 RMK SLP275 T00361097 52007 IEM_DS3505
ZBAA,1996-11-21 13:00,ZBAA 211300Z AUTO ////02KT 7SM M01/M08 A3030 RMK SLP270 T10101080 IEM_DS3505
ZBAA,1996-11-21 14:00,ZBAA 211400Z AUTO 11002KT 7SM M02/M07 A3030 RMK SLP271 T10201070 IEM_DS3505
ZBAA,1996-11-21 15:00,ZBAA 211500Z AUTO 29002KT 6SM 00/M08 A3030 RMK SLP275 T00011081 52001 IEM_DS3505
ZBAA,1996-11-21 16:00,ZBAA 211600Z AUTO 00000KT 7SM M02/M07 A3030 RMK SLP271 T10201070 IEM_DS3505
ZBAA,1996-11-21 17:00,ZBAA 211700Z AUTO 36004KT 5SM M03/M06 A3030 RMK SLP271 T10301060 IEM_DS3505
ZBAA,1996-11-21 18:00,ZBAA 211800Z AUTO 00000KT 6SM M01/M08 A3030 RMK SLP273 T10101078 57002 IEM_DS3505
ZBAA,1996-11-21 20:00,ZBAA 212000Z AUTO 32002KT 5SM M02/M08 A3027 RMK SLP261 T10201080 IEM_DS3505
ZBAA,1996-11-21 21:00,ZBAA 212100Z AUTO 00000KT 6SM M02/M08 A3027 RMK SLP260 T10241075 57014 IEM_DS3505
ZBAA,1996-11-21 22:00,ZBAA 212200Z AUTO 34002KT 4SM M03/M08 A3027 RMK SLP261 T10301080 IEM_DS3505
ZBAA,1996-11-21 23:00,ZBAA 212300Z AUTO 36004KT 4SM M03/M07 A3024 RMK SLP251 T10301070 IEM_DS3505
ZBAA,1996-11-22 00:00,ZBAA 220000Z AUTO 29004KT 1 1/2SM M02/M06 A3027 RMK SLP260 T10191065 54000 IEM_DS3505
ZBAA,1996-11-22 01:00,ZBAA 220100Z AUTO ////02KT 2 1/2SM M01/M05 A3027 RMK SLP260 T10101050 IEM_DS3505
ZBAA,1996-11-22 02:00,ZBAA 220200Z AUTO ////02KT 2 1/2SM 01/M06 A3024 RMK SLP250 T00101060 IEM_DS3505
ZBAA,1996-11-22 03:00,ZBAA 220300Z AUTO 02002KT 3SM 05/M06 A3021 RMK SLP244 T00481065 57015 IEM_DS3505
ZBAA,1996-11-22 04:00,ZBAA 220400Z AUTO ////04KT 5SM 04/M08 A3018 RMK SLP229 T00401080 IEM_DS3505
ZBAA,1996-11-22 05:00,ZBAA 220500Z AUTO 12006KT 3SM 05/M07 A3015 RMK SLP218 T00501070 IEM_DS3505
ZBAA,1996-11-22 06:00,ZBAA 220600Z AUTO 16004KT 4SM 08/M08 A3009 RMK SLP207 T00771079 57037 IEM_DS3505
ZBAA,1996-11-22 07:00,ZBAA 220700Z AUTO ////04KT 4SM 07/M08 A3009 RMK SLP197 T00701080 IEM_DS3505
ZBAA,1996-11-22 08:00,ZBAA 220800Z AUTO 15004KT 4SM 06/M07 A3006 RMK SLP187 T00601070 IEM_DS3505
ZBAA,1996-11-22 09:00,ZBAA 220900Z AUTO 32002KT 1 1/4SM 05/M05 A3006 RMK SLP190 T00481048 57017 IEM_DS3505
ZBAA,1996-11-22 10:00,ZBAA 221000Z AUTO 09002KT 3SM 04/M06 A3006 RMK SLP188 T00401060 IEM_DS3505
ZBAA,1996-11-22 11:00,ZBAA 221100Z AUTO ////02KT 3SM 02/M05 A3006 RMK SLP188 T00201050 IEM_DS3505
ZBAA,1996-11-22 12:00,ZBAA 221200Z AUTO 32002KT 1 1/4SM 02/M05 A3009 RMK SLP200 T00191046 52009 IEM_DS3505
ZBAA,1996-11-22 13:00,ZBAA 221300Z AUTO 31004KT 2 1/2SM 02/M05 A3009 RMK SLP198 T00201050 IEM_DS3505
ZBAA,1996-11-22 14:00,ZBAA 221400Z AUTO ////04KT 2 1/2SM 02/M07 A3009 RMK SLP198 T00201070 IEM_DS3505
ZBAA,1996-11-22 15:00,ZBAA 221500Z AUTO 32017KT 6SM 06/M09 A3012 RMK SLP204 T00611090 52006 IEM_DS3505
ZBAA,1996-11-22 16:00,ZBAA 221600Z AUTO 29019G31KT 7SM 06/M12 A3009 RMK SLP197 T00601120 IEM_DS3505
ZBAA,1996-11-22 17:00,ZBAA 221700Z AUTO 30014KT 7SM 04/M11 A3012 RMK SLP209 T00401110 IEM_DS3505
ZBAA,1996-11-22 18:00,ZBAA 221800Z AUTO 32012KT 19SM 04/M09 A3015 RMK SLP218 T00381092 40080//// 52014 IEM_DS3505
ZBAA,1996-11-22 19:00,ZBAA 221900Z AUTO 31012KT 7SM 02/M11 A3015 RMK SLP219 T00201110 IEM_DS3505
ZBAA,1996-11-22 20:00,ZBAA 222000Z AUTO 30008G17KT 7SM 02/M12 A3015 RMK SLP219 T00201120 IEM_DS3505
ZBAA,1996-11-22 21:00,ZBAA 222100Z AUTO 32016KT 19SM 03/M09 A3015 RMK SLP217 T00301087 57002 IEM_DS3505
ZBAA,1996-11-22 22:00,ZBAA 222200Z AUTO ////04KT 7SM 01/M12 A3015 RMK SLP219 T00101120 IEM_DS3505
ZBAA,1996-11-22 23:00,ZBAA 222300Z AUTO 31014KT 7SM 02/M12 A3018 RMK SLP229 T00201120 IEM_DS3505
ZBAA,1996-11-23 00:00,ZBAA 230000Z AUTO 32008KT 19SM 02/M13 A3018 RMK SLP236 T00221131 52019 IEM_DS3505
ZBAA,1996-11-23 01:00,ZBAA 230100Z AUTO 31008KT 7SM 03/M13 A3021 RMK SLP239 T00301130 IEM_DS3505
ZBAA,1996-11-23 02:00,ZBAA 230200Z AUTO 30010KT 7SM 04/M13 A3021 RMK SLP239 T00401130 IEM_DS3505
ZBAA,1996-11-23 03:00,ZBAA 230300Z AUTO 25006KT 19SM 07/M13 A3021 RMK SLP238 T00671132 52003 IEM_DS3505
ZBAA,1996-11-23 04:00,ZBAA 230400Z AUTO 27010KT 7SM 06/M13 A3018 RMK SLP228 T00601130 IEM_DS3505
ZBAA,1996-11-23 05:00,ZBAA 230500Z AUTO 27008KT 7SM 07/M13 A3015 RMK SLP218 T00701130 IEM_DS3505
ZBAA,1996-11-23 06:00,ZBAA 230600Z AUTO 20010KT 19SM 09/M15 A3015 RMK SLP217 T00901149 57021 IEM_DS3505
ZBAA,1996-11-23 07:00,ZBAA 230700Z AUTO ////04KT 6SM 08/M15 A3012 RMK SLP208 T00801150 IEM_DS3505
ZBAA,1996-11-23 08:00,ZBAA 230800Z AUTO ////04KT 6SM 06/M14 A3012 RMK SLP208 T00601140 IEM_DS3505
ZBAA,1996-11-23 09:00,ZBAA 230900Z AUTO 20008KT 19SM 07/M11 A3012 RMK SLP206 T00711114 57011 IEM_DS3505
ZBAA,1996-11-23 10:00,ZBAA 231000Z AUTO 15004KT 6SM 04/M11 A3012 RMK SLP209 T00401110 IEM_DS3505
ZBAA,1996-11-23 11:00,ZBAA 231100Z AUTO 16004KT 7SM 02/M10 A3012 RMK SLP209 T00201100 IEM_DS3505
ZBAA,1996-11-23 12:00,ZBAA 231200Z AUTO 20004KT 16SM 05/M10 A3012 RMK SLP210 T00521097 52003 IEM_DS3505
ZBAA,1996-11-23 13:00,ZBAA 231300Z AUTO ////02KT 6SM 02/M09 A3012 RMK SLP209 T00201090 IEM_DS3505
ZBAA,1996-11-23 14:00,ZBAA 231400Z AUTO ////02KT 6SM 01/M07 A3012 RMK SLP209 T00101070 IEM_DS3505
ZBAA,1996-11-23 15:00,ZBAA 231500Z AUTO 16008KT 19SM 05/M09 A3012 RMK SLP203 T00481094 57006 IEM_DS3505
ZBAA,1996-11-23 16:00,ZBAA 231600Z AUTO ////04KT 6SM 00/M08 A3009 RMK SLP199 T00001080 IEM_DS3505
ZBAA,1996-11-23 17:00,ZBAA 231700Z AUTO 13002KT 6SM 01/M07 A3009 RMK SLP198 T00101070 IEM_DS3505
ZBAA,1996-11-23 18:00,ZBAA 231800Z AUTO 36006KT 12SM 02/M08 A3009 RMK SLP203 T00211082 54000 IEM_DS3505
ZBAA,1996-11-23 19:00,ZBAA 231900Z AUTO ////02KT 6SM M01/M07 A3009 RMK SLP199 T10101070 IEM_DS3505
ZBAA,1996-11-23 20:00,ZBAA 232000Z AUTO ////02KT 7SM M01/M06 A3009 RMK SLP199 T10101060 IEM_DS3505
ZBAA,1996-11-23 21:00,ZBAA 232100Z AUTO 32008KT 19SM 04/M10 A3009 RMK SLP205 T00451095 52002 IEM_DS3505
ZBAA,1996-11-23 22:00,ZBAA 232200Z AUTO ////02KT 6SM M02/M06 A3012 RMK SLP210 T10201060 IEM_DS3505
ZBAA,1996-11-23 23:00,ZBAA 232300Z AUTO 13002KT 6SM M03/M06 A3012 RMK SLP210 T10301060 IEM_DS3505
ZBAA,1996-11-24 00:00,ZBAA 240000Z AUTO 00000KT 12SM 00/M06 A3015 RMK SLP217 T00001060 52011 IEM_DS3505
ZBAA,1996-11-24 01:00,ZBAA 240100Z AUTO 20004KT 2 1/2SM 03/M06 A3015 RMK SLP219 T00301060 IEM_DS3505
ZBAA,1996-11-24 02:00,ZBAA 240200Z AUTO ////04KT 4SM 06/M08 A3015 RMK SLP218 T00601080 IEM_DS3505
ZBAA,1996-11-24 03:00,ZBAA 240300Z AUTO 07004KT 9SM 09/M10 A3015 RMK SLP218 T00861097 52002 IEM_DS3505
ZBAA,1996-11-24 04:00,ZBAA 240400Z AUTO 32008KT 7SM 09/M10 A3012 RMK SLP207 T00901100 IEM_DS3505
ZBAA,1996-11-24 05:00,ZBAA 240500Z AUTO 29010KT 7SM 10/M11 A3009 RMK SLP196 T01001110 IEM_DS3505
ZBAA,1996-11-24 06:00,ZBAA 240600Z AUTO 20008KT 7SM 10/M10 A3006 RMK SLP199 T01011096 57019 IEM_DS3505
ZBAA,1996-11-24 07:00,ZBAA 240700Z AUTO 21008KT 7SM 10/M08 A3006 RMK SLP186 T01001080 IEM_DS3505
ZBAA,1996-11-24 08:00,ZBAA 240800Z AUTO 21008KT 7SM 09/M08 A3006 RMK SLP186 T00901080 IEM_DS3505
ZBAA,1996-11-24 09:00,ZBAA 240900Z AUTO 20006KT 5SM 08/M07 A3006 RMK SLP198 T00811066 57001 IEM_DS3505
ZBAA,1996-11-24 10:00,ZBAA 241000Z AUTO 19006KT 7SM 05/M07 A3009 RMK SLP197 T00501070 IEM_DS3505
ZBAA,1996-11-24 11:00,ZBAA 241100Z AUTO 19008KT 7SM 05/M07 A3009 RMK SLP197 T00501070 IEM_DS3505
ZBAA,1996-11-24 12:00,ZBAA 241200Z AUTO 16006KT 6SM 07/M07 A3012 RMK SLP212 T00711066 52013 IEM_DS3505
ZBAA,1996-11-24 13:00,ZBAA 241300Z AUTO ////02KT 7SM 03/M06 A3012 RMK SLP209 T00301060 IEM_DS3505
ZBAA,1996-11-24 14:00,ZBAA 241400Z AUTO ////02KT 7SM 01/M05 A3015 RMK SLP219 T00101050 IEM_DS3505
ZBAA,1996-11-24 15:00,ZBAA 241500Z AUTO 16008KT 6SM 06/M06 A3018 RMK SLP220 T00601063 52009 IEM_DS3505
ZBAA,1996-11-24 16:00,ZBAA 241600Z AUTO 13004KT 7SM 00/M05 A3018 RMK SLP230 T00001050 IEM_DS3505
ZBAA,1996-11-24 17:00,ZBAA 241700Z AUTO 13004KT 7SM 01/M05 A3018 RMK SLP230 T00101050 IEM_DS3505
ZBAA,1996-11-24 18:00,ZBAA 241800Z AUTO 20004KT 6SM 03/M04 A3018 RMK SLP224 T00291041 52004 IEM_DS3505
ZBAA,1996-11-24 19:00,ZBAA 241900Z AUTO 09004KT 4SM M01/M05 A3018 RMK SLP230 T10101050 IEM_DS3505
ZBAA,1996-11-24 20:00,ZBAA 242000Z AUTO ////02KT 3SM M02/M04 A3018 RMK SLP230 T10201040 IEM_DS3505
ZBAA,1996-11-24 21:00,ZBAA 242100Z AUTO 00000KT 4SM 00/M04 A3018 RMK SLP229 T00011036 52004 IEM_DS3505
ZBAA,1996-11-24 22:00,ZBAA 242200Z AUTO 11002KT 4SM M02/M04 A3018 RMK SLP230 T10201040 IEM_DS3505
ZBAA,1996-11-24 23:00,ZBAA 242300Z AUTO ////02KT 3SM M02/M04 A3018 RMK SLP230 T10201040 IEM_DS3505
ZBAA,1996-11-25 00:00,ZBAA 250000Z AUTO 36006KT 2 1/2SM 01/M04 A3021 RMK SLP241 T00121045 52012 IEM_DS3505
ZBAA,1996-11-25 01:00,ZBAA 250100Z AUTO ////02KT 2 1/2SM 01/M03 A3021 RMK SLP240 T00101030 IEM_DS3505
ZBAA,1996-11-25 02:00,ZBAA 250200Z AUTO ////02KT 2 1/2SM 03/M03 A3024 RMK SLP249 T00301030 IEM_DS3505
ZBAA,1996-11-25 03:00,ZBAA 250300Z AUTO 02006KT 2 1/2SM 04/M04 A3024 RMK SLP243 T00381036 52002 IEM_DS3505
ZBAA,1996-11-25 04:00,ZBAA 250400Z AUTO ////04KT 3SM 06/M03 A3021 RMK SLP238 T00601030 IEM_DS3505
ZBAA,1996-11-25 05:00,ZBAA 250500Z AUTO ////02KT 3SM 07/M03 A3018 RMK SLP228 T00701030 IEM_DS3505
ZBAA,1996-11-25 06:00,ZBAA 250600Z AUTO 09004KT 2 1/2SM 06/M04 A3015 RMK SLP227 T00581037 57016 IEM_DS3505
ZBAA,1996-11-25 07:00,ZBAA 250700Z AUTO ////02KT 2 1/2SM 07/M02 A3015 RMK SLP218 T00701020 IEM_DS3505
ZBAA,1996-11-25 08:00,ZBAA 250800Z AUTO ////02KT 2SM 07/M02 A3012 RMK SLP208 T00701020 IEM_DS3505
ZBAA,1996-11-25 09:00,ZBAA 250900Z AUTO 32002KT 2SM 05/M02 A3012 RMK SLP215 T00531016 57012 IEM_DS3505
ZBAA,1996-11-25 10:00,ZBAA 251000Z AUTO ////02KT 1 1/2SM 04/M02 A3015 RMK SLP219 T00401020 IEM_DS3505
ZBAA,1996-11-25 11:00,ZBAA 251100Z AUTO 03002KT 1 1/4SM 05/M02 A3015 RMK SLP218 T00501020 IEM_DS3505
ZBAA,1996-11-25 12:00,ZBAA 251200Z AUTO 32004KT 2SM 05/M02 A3015 RMK SLP220 T00481022 52005 IEM_DS3505
ZBAA,1996-11-25 13:00,ZBAA 251300Z AUTO ////02KT 1 1/4SM 04/M02 A3015 RMK SLP219 T00401020 IEM_DS3505
ZBAA,1996-11-25 14:00,ZBAA 251400Z AUTO 34002KT 1 1/4SM 03/M01 A3015 RMK SLP219 T00301010 IEM_DS3505
ZBAA,1996-11-25 15:00,ZBAA 251500Z AUTO 02006KT 2 1/2SM 06/M02 A3015 RMK SLP223 T00591021 52004 IEM_DS3505
ZBAA,1996-11-25 16:00,ZBAA 251600Z AUTO ////04G14KT 1 1/4SM 04/00 A3015 RMK SLP219 T00400000 IEM_DS3505
ZBAA,1996-11-25 17:00,ZBAA 251700Z AUTO 00000KT 1 1/4SM 04/00 A3012 RMK SLP209 T00400000 IEM_DS3505
ZBAA,1996-11-25 18:00,ZBAA 251800Z AUTO 36006KT 2 1/2SM 05/M01 A3012 RMK SLP215 T00501010 57008 IEM_DS3505
ZBAA,1996-11-25 19:00,ZBAA 251900Z AUTO ////02KT 1 1/4SM 04/M01 A3012 RMK SLP209 T00401010 IEM_DS3505
ZBAA,1996-11-25 20:00,ZBAA 252000Z AUTO 29004KT 1 1/2SM 04/00 A3012 RMK SLP209 T00400000 IEM_DS3505
ZBAA,1996-11-25 21:00,ZBAA 252100Z AUTO 00000KT 2 1/2SM 03/M01 A3009 RMK SLP208 T00321006 57008 IEM_DS3505
ZBAA,1996-11-25 22:00,ZBAA 252200Z AUTO 32004KT 1 1/4SM 03/M01 A3009 RMK SLP198 T00301010 IEM_DS3505
ZBAA,1996-11-25 23:00,ZBAA 252300Z AUTO 34002KT 1 1/4SM 02/M01 A3009 RMK SLP198 T00201010 IEM_DS3505
ZBAA,1996-11-26 00:00,ZBAA 260000Z AUTO 32004KT 2 1/2SM 04/M02 A3012 RMK SLP205 T00421016 57002 IEM_DS3505
ZBAA,1996-11-26 01:00,ZBAA 260100Z AUTO 35006KT 1 1/4SM 03/00 A3012 RMK SLP209 T00300000 IEM_DS3505
ZBAA,1996-11-26 02:00,ZBAA 260200Z AUTO ////04KT 1 1/4SM 05/00 A3012 RMK SLP208 T00500000 IEM_DS3505
ZBAA,1996-11-26 03:00,ZBAA 260300Z AUTO 34012KT 4SM 07/M05 A3009 RMK SLP207 T00701054 52002 IEM_DS3505
ZBAA,1996-11-26 04:00,ZBAA 260400Z AUTO 32019G35KT 7SM 07/M07 A3012 RMK SLP208 T00701070 IEM_DS3505
ZBAA,1996-11-26 05:00,ZBAA 260500Z AUTO 33021G33KT 6SM 03/M09 A3015 RMK SLP219 T00301090 IEM_DS3505
ZBAA,1996-11-26 06:00,ZBAA 260600Z AUTO 34016G33KT 9SM 04/M17 A3015 RMK SLP235 T00361172 4////0015 52027 IEM_DS3505
ZBAA,1996-11-26 07:00,ZBAA 260700Z AUTO 31025G37KT 6SM 03/M16 A3021 RMK SLP239 T00301160 IEM_DS3505
ZBAA,1996-11-26 08:00,ZBAA 260800Z AUTO 33021G35KT 6SM 02/M18 A3024 RMK SLP249 T00201180 IEM_DS3505
ZBAA,1996-11-26 09:00,ZBAA 260900Z AUTO 29014KT 12SM M01/M29 A3030 RMK SLP277 T10091287 52041 IEM_DS3505
ZBAA,1996-11-26 10:00,ZBAA 261000Z AUTO 33017G27KT 7SM M02/M24 A3033 RMK SLP281 T10201240 IEM_DS3505
ZBAA,1996-11-26 11:00,ZBAA 261100Z AUTO 34014G23KT 7SM M03/M24 A3039 RMK SLP302 T10301240 IEM_DS3505
ZBAA,1996-11-26 12:00,ZBAA 261200Z AUTO 32008KT 12SM M03/M26 A3042 RMK SLP310 T10311256 52033 IEM_DS3505
ZBAA,1996-11-26 13:00,ZBAA 261300Z AUTO 34008KT 7SM M05/M24 A3042 RMK SLP313 T10501240 IEM_DS3505
ZBAA,1996-11-26 14:00,ZBAA 261400Z AUTO 35008KT 7SM M06/M23 A3045 RMK SLP323 T10601230 IEM_DS3505
ZBAA,1996-11-26 15:00,ZBAA 261500Z AUTO 02006KT 12SM M05/M26 A3045 RMK SLP317 T10461256 52007 IEM_DS3505
ZBAA,1996-11-26 16:00,ZBAA 261600Z AUTO 36006KT 7SM M07/M22 A3045 RMK SLP323 T10701220 IEM_DS3505
ZBAA,1996-11-26 17:00,ZBAA 261700Z AUTO 35004KT 7SM M07/M23 A3045 RMK SLP323 T10701230 IEM_DS3505
ZBAA,1996-11-26 18:00,ZBAA 261800Z AUTO 07004KT 16SM M06/M25 A3042 RMK SLP312 T10561248 57006 IEM_DS3505
ZBAA,1996-11-26 19:00,ZBAA 261900Z AUTO 07002KT 7SM M07/M19 A3042 RMK SLP313 T10701190 IEM_DS3505
ZBAA,1996-11-26 20:00,ZBAA 262000Z AUTO 00000KT 7SM M07/M20 A3039 RMK SLP303 T10701200 IEM_DS3505
ZBAA,1996-11-26 21:00,ZBAA 262100Z AUTO 04004KT 16SM M06/M23 A3036 RMK SLP294 T10561234 57018 IEM_DS3505
ZBAA,1996-11-26 22:00,ZBAA 262200Z AUTO 00000KT 7SM M08/M19 A3036 RMK SLP292 T10801190 IEM_DS3505
ZBAA,1996-11-26 23:00,ZBAA 262300Z AUTO ////02KT 7SM M08/M19 A3036 RMK SLP292 T10801190 IEM_DS3505
ZBAA,1996-11-27 00:00,ZBAA 270000Z AUTO 22008KT 9SM M06/M20 A3039 RMK SLP303 T10631197 52009 IEM_DS3505
ZBAA,1996-11-27 01:00,ZBAA 270100Z AUTO 17004KT 7SM M06/M17 A3039 RMK SLP303 T10601170 IEM_DS3505
ZBAA,1996-11-27 02:00,ZBAA 270200Z AUTO 22010KT 7SM M03/M19 A3039 RMK SLP302 T10301190 IEM_DS3505
ZBAA,1996-11-27 03:00,ZBAA 270300Z AUTO 20012KT 7SM M02/M22 A3038 RMK SLP297 T10211217 57006 IEM_DS3505
ZBAA,1996-11-27 04:00,ZBAA 270400Z AUTO 22010KT 7SM M01/M20 A3033 RMK SLP280 T10101200 IEM_DS3505
ZBAA,1996-11-27 05:00,ZBAA 270500Z AUTO 21010KT 7SM 00/M17 A3030 RMK SLP270 T00001170 IEM_DS3505
ZBAA,1996-11-27 06:00,ZBAA 270600Z AUTO 20010KT 11SM 00/M20 A3027 RMK SLP265 T00031201 57032 IEM_DS3505
ZBAA,1996-11-27 07:00,ZBAA 270700Z AUTO 20012KT 7SM 00/M19 A3027 RMK SLP260 T00001190 IEM_DS3505
ZBAA,1996-11-27 08:00,ZBAA 270800Z AUTO 20010KT 7SM 00/M18 A3024 RMK SLP250 T00001180 IEM_DS3505
ZBAA,1996-11-27 09:00,ZBAA 270900Z AUTO 20008KT 7SM M00/M12 A3027 RMK SLP260 T10051121 57005 IEM_DS3505
ZBAA,1996-11-27 10:00,ZBAA 271000Z AUTO 22008KT 7SM M01/M15 A3027 RMK SLP260 T10101150 IEM_DS3505
ZBAA,1996-11-27 11:00,ZBAA 271100Z AUTO 22008KT 7SM M01/M15 A3027 RMK SLP260 T10101150 IEM_DS3505
ZBAA,1996-11-27 12:00,ZBAA 271200Z AUTO 20006KT 6SM M02/M14 A3027 RMK SLP262 T10151141 52002 IEM_DS3505
ZBAA,1996-11-27 13:00,ZBAA 271300Z AUTO ////02KT 7SM M05/M13 A3027 RMK SLP261 T10501130 IEM_DS3505
ZBAA,1996-11-27 14:00,ZBAA 271400Z AUTO ////02KT 7SM M04/M12 A3030 RMK SLP271 T10401120 IEM_DS3505
ZBAA,1996-11-27 15:00,ZBAA 271500Z AUTO 02004KT 6SM M03/M14 A3030 RMK SLP264 T10261135 52002 IEM_DS3505
ZBAA,1996-11-27 16:00,ZBAA 271600Z AUTO ////02KT 7SM M06/M11 A3030 RMK SLP272 T10601110 IEM_DS3505
ZBAA,1996-11-27 17:00,ZBAA 271700Z AUTO ////02KT 7SM M06/M11 A3030 RMK SLP272 T10601110 IEM_DS3505
ZBAA,1996-11-27 18:00,ZBAA 271800Z AUTO 36006KT 6SM M02/M16 A3029 RMK SLP268 T10201164 52005 IEM_DS3505
ZBAA,1996-11-27 19:00,ZBAA 271900Z AUTO 34006KT 7SM M06/M14 A3030 RMK SLP272 T10601140 IEM_DS3505
ZBAA,1996-11-27 20:00,ZBAA 272000Z AUTO 02006KT 7SM M04/M17 A3030 RMK SLP271 T10401170 IEM_DS3505
ZBAA,1996-11-27 21:00,ZBAA 272100Z AUTO 34008KT 7SM M02/M25 A3030 RMK SLP268 T10231251 54000 IEM_DS3505
ZBAA,1996-11-28 00:00,ZBAA 280000Z AUTO 34010KT 12SM M03/M28 A3036 RMK SLP283 T10321278 52014 IEM_DS3505
ZBAA,1996-11-28 01:00,ZBAA 280100Z AUTO 01006KT 6SM M04/M24 A3036 RMK SLP291 T10401240 IEM_DS3505
ZBAA,1996-11-28 02:00,ZBAA 280200Z AUTO 31010KT 6SM M03/M24 A3039 RMK SLP302 T10301240 IEM_DS3505
ZBAA,1996-11-28 03:00,ZBAA 280300Z AUTO 34008KT 19SM M01/M25 A3039 RMK SLP292 T10121249 52009 IEM_DS3505
ZBAA,1996-11-28 04:00,ZBAA 280400Z AUTO ////04G14KT 6SM M02/M24 A3033 RMK SLP281 T10201240 IEM_DS3505
ZBAA,1996-11-28 05:00,ZBAA 280500Z AUTO 28012KT 6SM 00/M24 A3030 RMK SLP270 T00001240 IEM_DS3505
ZBAA,1996-11-28 06:00,ZBAA 280600Z AUTO 34010G25KT 19SM 01/M20 A3027 RMK SLP262 T00101198 57029 IEM_DS3505
ZBAA,1996-11-28 07:00,ZBAA 280700Z AUTO 29016KT 6SM 01/M24 A3027 RMK SLP260 T00101240 IEM_DS3505
ZBAA,1996-11-28 08:00,ZBAA 280800Z AUTO 29016KT 7SM 01/M24 A3027 RMK SLP260 T00101240 IEM_DS3505
ZBAA,1996-11-28 09:00,ZBAA 280900Z AUTO 29012KT 19SM 01/M21 A3027 RMK SLP258 T00061213 57004 IEM_DS3505
ZBAA,1996-11-28 10:00,ZBAA 281000Z AUTO 30016G27KT 7SM 00/M24 A3027 RMK SLP260 T00001240 IEM_DS3505
ZBAA,1996-11-28 11:00,ZBAA 281100Z AUTO 29016G25KT 7SM 00/M24 A3030 RMK SLP270 T00001240 IEM_DS3505
ZBAA,1996-11-28 12:00,ZBAA 281200Z AUTO 27006G27KT 19SM M01/M25 A3030 RMK SLP280 T10061252 52021 IEM_DS3505
ZBAA,1996-11-28 13:00,ZBAA 281300Z AUTO 29012KT 7SM M01/M23 A3033 RMK SLP280 T10101230 IEM_DS3505
ZBAA,1996-11-28 14:00,ZBAA 281400Z AUTO 32012KT 7SM M02/M23 A3036 RMK SLP291 T10201230 IEM_DS3505
ZBAA,1996-11-28 15:00,ZBAA 281500Z AUTO 29004KT 16SM M02/M24 A3036 RMK SLP294 T10231237 52014 IEM_DS3505
ZBAA,1996-11-28 16:00,ZBAA 281600Z AUTO 33006KT 7SM M05/M24 A3036 RMK SLP292 T10501240 IEM_DS3505
ZBAA,1996-11-28 17:00,ZBAA 281700Z AUTO 13004KT 7SM M07/M21 A3036 RMK SLP292 T10701210 IEM_DS3505
ZBAA,1996-11-28 18:00,ZBAA 281800Z AUTO 29008KT 16SM M03/M27 A3033 RMK SLP282 T10271271 57011 IEM_DS3505
ZBAA,1996-11-28 19:00,ZBAA 281900Z AUTO 30010KT 7SM M04/M24 A3033 RMK SLP281 T10401240 IEM_DS3505
ZBAA,1996-11-28 20:00,ZBAA 282000Z AUTO 28008KT 7SM M04/M24 A3030 RMK SLP271 T10401240 IEM_DS3505
ZBAA,1996-11-28 21:00,ZBAA 282100Z AUTO 32006KT 19SM M04/M23 A3030 RMK SLP270 T10401232 57012 IEM_DS3505
ZBAA,1996-11-28 22:00,ZBAA 282200Z AUTO 31016KT 7SM M04/M25 A3030 RMK SLP271 T10401250 IEM_DS3505
ZBAA,1996-11-28 23:00,ZBAA 282300Z AUTO 29012KT 7SM M04/M25 A3030 RMK SLP271 T10401250 IEM_DS3505
ZBAA,1996-11-29 00:00,ZBAA 290000Z AUTO 27008KT 16SM M04/M23 A3030 RMK SLP273 T10421226 52002 IEM_DS3505
ZBAA,1996-11-29 01:00,ZBAA 290100Z AUTO 31016G25KT 7SM M02/M26 A3030 RMK SLP271 T10201260 IEM_DS3505
ZBAA,1996-11-29 02:00,ZBAA 290200Z AUTO 32006KT 7SM M01/M26 A3030 RMK SLP270 T10101260 IEM_DS3505
ZBAA,1996-11-29 03:00,ZBAA 290300Z AUTO 29016G29KT 12SM 00/M30 A3027 RMK SLP265 T00021302 57007 IEM_DS3505
ZBAA,1996-11-29 04:00,ZBAA 290400Z AUTO 28016G29KT 6SM 00/M24 A3024 RMK SLP250 T00001240 IEM_DS3505
ZBAA,1996-11-29 05:00,ZBAA 290500Z AUTO 29021G31KT 6SM M01/M25 A3018 RMK SLP230 T10101250 IEM_DS3505
ZBAA,1996-11-29 06:00,ZBAA 290600Z AUTO 32010G25KT 19SM 02/M28 A3015 RMK SLP229 T00151275 57036 IEM_DS3505
ZBAA,1996-11-29 07:00,ZBAA 290700Z AUTO 29019G31KT 7SM 01/M24 A3015 RMK SLP219 T00101240 IEM_DS3505
ZBAA,1996-11-29 08:00,ZBAA 290800Z AUTO 30019G31KT 6SM 01/M25 A3015 RMK SLP219 T00101250 IEM_DS3505
ZBAA,1996-11-29 09:00,ZBAA 290900Z AUTO 34004G27KT 19SM 00/M21 A3015 RMK SLP227 T00011213 57002 IEM_DS3505
ZBAA,1996-11-29 10:00,ZBAA 291000Z AUTO 29010KT 6SM 00/M20 A3018 RMK SLP230 T00001200 IEM_DS3505
ZBAA,1996-11-29 11:00,ZBAA 291100Z AUTO 28016KT 6SM 00/M22 A3018 RMK SLP230 T00001220 IEM_DS3505
ZBAA,1996-11-29 12:00,ZBAA 291200Z AUTO 34014G27KT 16SM M01/M28 A3021 RMK SLP253 T10121283 52025 IEM_DS3505
ZBAA,1996-11-29 13:00,ZBAA 291300Z AUTO 29014KT 7SM M03/M23 A3027 RMK SLP261 T10301230 IEM_DS3505
ZBAA,1996-11-29 14:00,ZBAA 291400Z AUTO 31016KT 7SM M03/M22 A3027 RMK SLP261 T10301220 IEM_DS3505
ZBAA,1996-11-29 15:00,ZBAA 291500Z AUTO 29017KT 19SM M04/ A3030 RMK SLP272 52020 IEM_DS3505
ZBAA,1996-11-29 16:00,ZBAA 291600Z AUTO 33014KT 7SM M05/M22 A3030 RMK SLP271 T10501220 IEM_DS3505
ZBAA,1996-11-29 17:00,ZBAA 291700Z AUTO 33014KT 7SM M05/M24 A3030 RMK SLP271 T10501240 IEM_DS3505
ZBAA,1996-11-29 18:00,ZBAA 291800Z AUTO 34012G21KT 19SM M05/M28 A3033 RMK SLP278 T10471276 52006 IEM_DS3505
ZBAA,1996-11-29 19:00,ZBAA 291900Z AUTO 32014KT 7SM M05/M24 A3033 RMK SLP281 T10501240 IEM_DS3505
ZBAA,1996-11-29 20:00,ZBAA 292000Z AUTO 29006KT 7SM M06/M24 A3033 RMK SLP282 T10601240 IEM_DS3505
ZBAA,1996-11-29 21:00,ZBAA 292100Z AUTO 29014KT 19SM M06/M26 A3030 RMK SLP274 T10551259 57005 IEM_DS3505
ZBAA,1996-11-29 22:00,ZBAA 292200Z AUTO 28012KT 7SM M06/M22 A3030 RMK SLP272 T10601220 IEM_DS3505
ZBAA,1996-11-29 23:00,ZBAA 292300Z AUTO 31014KT 6SM M06/M21 A3030 RMK SLP272 T10601210 IEM_DS3505
ZBAA,1996-11-30 00:00,ZBAA 300000Z AUTO 34010KT 19SM M05/M25 A3033 RMK SLP286 T10481248 52012 IEM_DS3505
ZBAA,1996-11-30 01:00,ZBAA 300100Z AUTO 32027G39KT 6SM M04/M24 A3036 RMK SLP291 T10401240 IEM_DS3505
ZBAA,1996-11-30 02:00,ZBAA 300200Z AUTO 32027G39KT 6SM M04/M24 A3036 RMK SLP291 T10401240 IEM_DS3505
ZBAA,1996-11-30 03:00,ZBAA 300300Z AUTO 32012G47KT 19SM M03/M24 A3036 RMK SLP296 T10261235 52010 IEM_DS3505
ZBAA,1996-11-30 04:00,ZBAA 300400Z AUTO 32025G41KT 6SM M02/M24 A3036 RMK SLP291 T10201240 IEM_DS3505
ZBAA,1996-11-30 05:00,ZBAA 300500Z AUTO 32029G47KT 6SM M01/M24 A3036 RMK SLP290 T10101240 IEM_DS3505
ZBAA,1996-11-30 06:00,ZBAA 300600Z AUTO 32014G41KT 19SM M01/M20 A3036 RMK SLP291 T10061200 57005 IEM_DS3505
ZBAA,1996-11-30 07:00,ZBAA 300700Z AUTO 32027G41KT 6SM M01/M22 A3036 RMK SLP290 T10101220 IEM_DS3505
ZBAA,1996-11-30 08:00,ZBAA 300800Z AUTO 31023G35KT 7SM M01/M21 A3039 RMK SLP302 T10101210 IEM_DS3505
ZBAA,1996-11-30 09:00,ZBAA 300900Z AUTO 34008KT 17SM M01/M21 A3042 RMK SLP314 T10081207 52023 IEM_DS3505
ZBAA,1996-11-30 10:00,ZBAA 301000Z AUTO 32019G29KT 7SM M02/M21 A3045 RMK SLP322 T10201210 IEM_DS3505
ZBAA,1996-11-30 11:00,ZBAA 301100Z AUTO 32017G29KT 7SM M01/M20 A3047 RMK SLP329 T10101200 IEM_DS3505
ZBAA,1996-11-30 12:00,ZBAA 301200Z AUTO 34006G33KT 19SM M02/M20 A3047 RMK SLP329 T10181197 52015 IEM_DS3505
ZBAA,1996-11-30 13:00,ZBAA 301300Z AUTO 32016KT 7SM M02/M19 A3047 RMK SLP329 T10201190 IEM_DS3505
ZBAA,1996-11-30 14:00,ZBAA 301400Z AUTO 32010G21KT 7SM M03/M20 A3050 RMK SLP339 T10301200 IEM_DS3505
ZBAA,1996-11-30 15:00,ZBAA 301500Z AUTO 36006KT 19SM M03/M19 A3050 RMK SLP341 T10291189 52012 IEM_DS3505
ZBAA,1996-11-30 16:00,ZBAA 301600Z AUTO 32010KT 7SM M03/M19 A3053 RMK SLP349 T10301190 IEM_DS3505
ZBAA,1996-11-30 17:00,ZBAA 301700Z AUTO 32016KT 7SM M03/M19 A3050 RMK SLP339 T10301190 IEM_DS3505
ZBAA,1996-11-30 18:00,ZBAA 301800Z AUTO 02004KT 19SM M05/M16 A3053 RMK SLP343 T10541161 52002 IEM_DS3505
ZBAA,1996-11-30 19:00,ZBAA 301900Z AUTO 32008KT 7SM M04/M20 A3053 RMK SLP350 T10401200 IEM_DS3505
ZBAA,1996-11-30 20:00,ZBAA 302000Z AUTO 34006KT 7SM M06/M19 A3053 RMK SLP350 T10601190 IEM_DS3505
ZBAA,1996-11-30 21:00,ZBAA 302100Z AUTO 29004KT 19SM M04/M18 A3053 RMK SLP349 T10421185 52006 IEM_DS3505
ZBAA,1996-11-30 22:00,ZBAA 302200Z AUTO 05006KT 7SM M06/M17 A3053 RMK SLP350 T10601170 IEM_DS3505
ZBAA,1996-11-30 23:00,ZBAA 302300Z AUTO ////04KT 6SM M08/M16 A3053 RMK SLP351 T10801160 IEM_DS3505
ZBAA,1996-12-01 00:00,ZBAA 010000Z AUTO 02008KT 19SM M04/M20 A3053 RMK SLP347 T10411202 57002 IEM_DS3505
ZBAA,1996-12-01 01:00,ZBAA 010100Z AUTO 03006KT 6SM M04/M16 A3053 RMK SLP350 T10401160 IEM_DS3505
ZBAA,1996-12-01 02:00,ZBAA 010200Z AUTO 01008KT 6SM M03/M16 A3053 RMK SLP349 T10301160 IEM_DS3505
ZBAA,1996-12-01 03:00,ZBAA 010300Z AUTO 29002KT 12SM M01/M18 A3050 RMK SLP348 T10141176 52001 IEM_DS3505
ZBAA,1996-12-01 04:00,ZBAA 010400Z AUTO ////02KT 6SM 01/M20 A3047 RMK SLP328 T00101200 IEM_DS3505
ZBAA,1996-12-01 05:00,ZBAA 010500Z AUTO ////04KT 7SM 01/M20 A3045 RMK SLP321 T00101200 IEM_DS3505
ZBAA,1996-12-01 06:00,ZBAA 010600Z AUTO 20006KT 12SM 02/M17 A3042 RMK SLP318 T00181173 57030 IEM_DS3505
ZBAA,1996-12-01 07:00,ZBAA 010700Z AUTO 20006KT 7SM 01/M19 A3042 RMK SLP311 T00101190 IEM_DS3505
ZBAA,1996-12-01 08:00,ZBAA 010800Z AUTO 19006KT 7SM 01/M18 A3039 RMK SLP301 T00101180 IEM_DS3505
ZBAA,1996-12-01 09:00,ZBAA 010900Z AUTO 20010KT 12SM 00/M16 A3039 RMK SLP307 T00051164 57011 IEM_DS3505
ZBAA,1996-12-01 10:00,ZBAA 011000Z AUTO 19006KT 7SM M01/M17 A3042 RMK SLP312 T10101170 IEM_DS3505
ZBAA,1996-12-01 11:00,ZBAA 011100Z AUTO ////02KT 7SM M01/M16 A3042 RMK SLP312 T10101160 IEM_DS3505
ZBAA,1996-12-01 12:00,ZBAA 011200Z AUTO 18004KT 9SM M01/M16 A3042 RMK SLP306 T10111155 57001 IEM_DS3505
ZBAA,1996-12-01 13:00,ZBAA 011300Z AUTO 00000KT 7SM M05/M13 A3042 RMK SLP313 T10501130 IEM_DS3505
ZBAA,1996-12-01 14:00,ZBAA 011400Z AUTO ////02KT 5SM M06/M12 A3042 RMK SLP313 T10601120 IEM_DS3505
ZBAA,1996-12-01 15:00,ZBAA 011500Z AUTO 25002KT 6SM M04/M13 A3042 RMK SLP305 T10401128 57001 IEM_DS3505
ZBAA,1996-12-01 17:00,ZBAA 011700Z AUTO 06002KT 4SM M06/M13 A3042 RMK SLP313 T10601130 IEM_DS3505
ZBAA,1996-12-01 18:00,ZBAA 011800Z AUTO 04002KT 6SM M05/M13 A3039 RMK SLP303 T10471134 57002 IEM_DS3505
ZBAA,1996-12-01 19:00,ZBAA 011900Z AUTO 03002KT 2 1/2SM M07/M13 A3039 RMK SLP303 T10701130 IEM_DS3505
ZBAA,1996-12-01 20:00,ZBAA 012000Z AUTO ////02KT 2 1/2SM M07/M13 A3039 RMK SLP303 T10701130 IEM_DS3505
ZBAA,1996-12-01 21:00,ZBAA 012100Z AUTO 02006KT 6SM M05/M14 A3036 RMK SLP293 T10491138 57010 IEM_DS3505
ZBAA,1996-12-01 22:00,ZBAA 012200Z AUTO 36002KT 4SM M08/M13 A3036 RMK SLP292 T10801130 IEM_DS3505
ZBAA,1996-12-01 23:00,ZBAA 012300Z AUTO 00000KT 4SM M08/M12 A3036 RMK SLP292 T10801120 IEM_DS3505
ZBAA,1996-12-02 00:00,ZBAA 020000Z AUTO 04004KT 5SM M05/M14 A3036 RMK SLP291 T10481136 57002 IEM_DS3505
ZBAA,1996-12-02 01:00,ZBAA 020100Z AUTO ////02KT 2SM M06/M11 A3036 RMK SLP292 T10601110 IEM_DS3505
ZBAA,1996-12-02 02:00,ZBAA 020200Z AUTO ////02KT 2 1/2SM M04/M12 A3036 RMK SLP291 T10401120 IEM_DS3505
ZBAA,1996-12-02 03:00,ZBAA 020300Z AUTO 04006KT 4SM M02/M15 A3033 RMK SLP283 T10161147 57008 IEM_DS3505
ZBAA,1996-12-02 04:00,ZBAA 020400Z AUTO ////02KT 3SM 00/M12 A3030 RMK SLP270 T00001120 IEM_DS3505
ZBAA,1996-12-02 05:00,ZBAA 020500Z AUTO ////04KT 3SM 01/M11 A3027 RMK SLP260 T00101110 IEM_DS3505
ZBAA,1996-12-02 06:00,ZBAA 020600Z AUTO 07002KT 4SM 01/M12 A3024 RMK SLP249 T00081121 57033 IEM_DS3505
ZBAA,1996-12-02 07:00,ZBAA 020700Z AUTO ////04KT 3SM 01/M11 A3021 RMK SLP240 T00101110 IEM_DS3505
ZBAA,1996-12-02 08:00,ZBAA 020800Z AUTO ////02KT 2 1/2SM 01/M10 A3021 RMK SLP240 T00101100 IEM_DS3505
ZBAA,1996-12-02 09:00,ZBAA 020900Z AUTO 32002KT 2 1/2SM 00/M11 A3021 RMK SLP241 T00021109 57008 IEM_DS3505
ZBAA,1996-12-02 10:00,ZBAA 021000Z AUTO 00000KT 2SM M02/M09 A3024 RMK SLP250 T10201090 IEM_DS3505
ZBAA,1996-12-02 11:00,ZBAA 021100Z AUTO ////02KT 2 1/2SM M02/M09 A3024 RMK SLP250 T10201090 IEM_DS3505
ZBAA,1996-12-02 12:00,ZBAA 021200Z AUTO 32002KT 4SM M02/M09 A3024 RMK SLP254 T10201092 52012 IEM_DS3505
ZBAA,1996-12-02 13:00,ZBAA 021300Z AUTO 00000KT 2SM M04/M08 A3024 RMK SLP251 T10401080 IEM_DS3505
ZBAA,1996-12-02 14:00,ZBAA 021400Z AUTO 00000KT 2SM M03/M09 A3024 RMK SLP251 T10301090 IEM_DS3505
ZBAA,1996-12-02 15:00,ZBAA 021500Z AUTO 02004KT 6SM M02/M10 A3024 RMK SLP254 T10151105 52001 IEM_DS3505
ZBAA,1996-12-02 16:00,ZBAA 021600Z AUTO 33002KT 1 1/2SM M04/M08 A3024 RMK SLP251 T10401080 IEM_DS3505
ZBAA,1996-12-02 17:00,ZBAA 021700Z AUTO ////02KT 1 1/2SM M04/M09 A3024 RMK SLP251 T10401090 IEM_DS3505
ZBAA,1996-12-02 18:00,ZBAA 021800Z AUTO 02002KT 6SM M03/M11 A3025 RMK SLP252 T10301111 57002 IEM_DS3505
ZBAA,1996-12-02 21:00,ZBAA 022100Z AUTO 00000KT 4SM M06/M10 A3021 RMK SLP247 T10551096 57006 IEM_DS3505
ZBAA,1996-12-02 22:00,ZBAA 022200Z AUTO 29004KT 2SM M05/M09 A3024 RMK SLP251 T10501090 IEM_DS3505
ZBAA,1996-12-02 23:00,ZBAA 022300Z AUTO 32006KT 1 1/2SM M06/M09 A3024 RMK SLP252 T10601090 IEM_DS3505
ZBAA,1996-12-03 00:00,ZBAA 030000Z AUTO 02004KT 1 1/4SM M05/M10 A3027 RMK SLP258 T10461099 52011 IEM_DS3505
ZBAA,1996-12-03 01:00,ZBAA 030100Z AUTO 34004KT 1 1/2SM M04/M08 A3027 RMK SLP261 T10401080 IEM_DS3505
ZBAA,1996-12-03 02:00,ZBAA 030200Z AUTO ////04KT 2SM M02/M07 A3027 RMK SLP261 T10201070 IEM_DS3505
ZBAA,1996-12-03 03:00,ZBAA 030300Z AUTO 07004KT 3SM 01/M13 A3027 RMK SLP257 T00061132 54000 IEM_DS3505
ZBAA,1996-12-03 04:00,ZBAA 030400Z AUTO ////02KT 2 1/2SM 02/M07 A3024 RMK SLP249 T00201070 IEM_DS3505
ZBAA,1996-12-03 05:00,ZBAA 030500Z AUTO ////02KT 2 1/2SM 03/M07 A3021 RMK SLP239 T00301070 IEM_DS3505
ZBAA,1996-12-03 06:00,ZBAA 030600Z AUTO 02004KT 4SM 04/M08 A3020 RMK SLP238 T00391081 57019 IEM_DS3505
ZBAA,1996-12-03 07:00,ZBAA 030700Z AUTO 00000KT 2 1/2SM 03/M07 A3018 RMK SLP229 T00301070 IEM_DS3505
ZBAA,1996-12-03 08:00,ZBAA 030800Z AUTO 00000KT 2SM 03/M07 A3018 RMK SLP229 T00301070 IEM_DS3505
ZBAA,1996-12-03 09:00,ZBAA 030900Z AUTO 32002KT 2 1/2SM 02/M07 A3021 RMK SLP243 T00221069 52005 IEM_DS3505
ZBAA,1996-12-03 10:00,ZBAA 031000Z AUTO ////02KT 2SM 01/M06 A3021 RMK SLP240 T00101060 IEM_DS3505
ZBAA,1996-12-03 11:00,ZBAA 031100Z AUTO 00000KT 2SM 00/M07 A3024 RMK SLP250 T00001070 IEM_DS3505
ZBAA,1996-12-03 12:00,ZBAA 031200Z AUTO 00000KT 2SM 01/M06 A3027 RMK SLP257 T00101055 52014 IEM_DS3505
ZBAA,1996-12-03 13:00,ZBAA 031300Z AUTO ////02KT 2SM 00/M07 A3027 RMK SLP260 T00001070 IEM_DS3505
ZBAA,1996-12-03 14:00,ZBAA 031400Z AUTO ////02KT 2SM 00/M07 A3027 RMK SLP260 T00001070 IEM_DS3505
ZBAA,1996-12-03 15:00,ZBAA 031500Z AUTO 00000KT 1 1/4SM 01/M06 A3030 RMK SLP268 T00061065 52011 IEM_DS3505
ZBAA,1996-12-03 18:00,ZBAA 031800Z AUTO 00000KT 1 1/4SM 01/M08 A3024 RMK SLP254 T00081075 57013 IEM_DS3505
ZBAA,1996-12-03 19:00,ZBAA 031900Z AUTO 01004KT 1 1/2SM M01/M07 A3024 RMK SLP250 T10101070 IEM_DS3505
ZBAA,1996-12-03 20:00,ZBAA 032000Z AUTO 32006KT 2 1/2SM M01/M07 A3024 RMK SLP250 T10101070 IEM_DS3505
ZBAA,1996-12-03 21:00,ZBAA 032100Z AUTO 04002KT 1 1/4SM 01/M08 A3024 RMK SLP247 T00101081 57007 IEM_DS3505
ZBAA,1996-12-03 22:00,ZBAA 032200Z AUTO 33010KT 6SM 00/M08 A3024 RMK SLP250 T00001080 IEM_DS3505
ZBAA,1996-12-03 23:00,ZBAA 032300Z AUTO 34008KT 7SM M02/M07 A3027 RMK SLP261 T10201070 IEM_DS3505
ZBAA,1996-12-04 00:00,ZBAA 040000Z AUTO 34006KT 6SM 02/M12 A3030 RMK SLP269 T00171115 52021 IEM_DS3505
ZBAA,1996-12-04 01:00,ZBAA 040100Z AUTO 35006KT 5SM 01/M08 A3030 RMK SLP270 T00101080 IEM_DS3505
ZBAA,1996-12-04 02:00,ZBAA 040200Z AUTO 01008KT 6SM 04/M09 A3033 RMK SLP279 T00401090 IEM_DS3505
ZBAA,1996-12-04 03:00,ZBAA 040300Z AUTO 36016KT 9SM 04/M16 A3033 RMK SLP275 T00451155 52007 IEM_DS3505
ZBAA,1996-12-04 04:00,ZBAA 040400Z AUTO 33019G29KT 6SM 06/M16 A3030 RMK SLP269 T00601160 IEM_DS3505
ZBAA,1996-12-04 05:00,ZBAA 040500Z AUTO 33019KT 6SM 05/M17 A3027 RMK SLP259 T00501170 IEM_DS3505
ZBAA,1996-12-04 06:00,ZBAA 040600Z AUTO 32012KT 12SM 04/M19 A3030 RMK SLP271 T00421192 57004 IEM_DS3505
ZBAA,1996-12-04 07:00,ZBAA 040700Z AUTO 30012KT 6SM 04/M18 A3030 RMK SLP269 T00401180 IEM_DS3505
ZBAA,1996-12-04 08:00,ZBAA 040800Z AUTO 30016G25KT 6SM 03/M20 A3030 RMK SLP269 T00301200 IEM_DS3505
ZBAA,1996-12-04 09:00,ZBAA 040900Z AUTO 29017KT 16SM 02/M27 A3036 RMK SLP291 T00161272 52019 IEM_DS3505
ZBAA,1996-12-04 10:00,ZBAA 041000Z AUTO 35014KT 6SM M01/M23 A3036 RMK SLP290 T10101230 IEM_DS3505
ZBAA,1996-12-04 11:00,ZBAA 041100Z AUTO 33016G27KT 7SM M01/M23 A3042 RMK SLP312 T10101230 IEM_DS3505
ZBAA,1996-12-04 12:00,ZBAA 041200Z AUTO 32012KT 19SM M02/M25 A3045 RMK SLP328 T10191251 52037 IEM_DS3505
ZBAA,1996-12-04 13:00,ZBAA 041300Z AUTO 34016KT 7SM M03/M23 A3047 RMK SLP329 T10301230 IEM_DS3505
ZBAA,1996-12-04 14:00,ZBAA 041400Z AUTO 35016KT 7SM M04/M23 A3050 RMK SLP340 T10401230 IEM_DS3505
ZBAA,1996-12-04 15:00,ZBAA 041500Z AUTO 32012G23KT 19SM M04/M24 A3050 RMK SLP346 T10441235 52017 IEM_DS3505
ZBAA,1996-12-04 17:00,ZBAA 041700Z AUTO 33021G35KT 7SM M06/M27 A3050 RMK SLP340 T10601270 IEM_DS3505
ZBAA,1996-12-04 18:00,ZBAA 041800Z AUTO 32016G33KT 19SM M06/M30 A3047 RMK SLP338 T10631296 57008 IEM_DS3505
ZBAA,1996-12-04 19:00,ZBAA 041900Z AUTO 34010KT 7SM M08/M26 A3047 RMK SLP331 T10801260 IEM_DS3505
ZBAA,1996-12-04 20:00,ZBAA 042000Z AUTO 31014KT 7SM M07/M26 A3047 RMK SLP330 T10701260 IEM_DS3505
ZBAA,1996-12-04 21:00,ZBAA 042100Z AUTO 32017KT 19SM M07/M29 A3045 RMK SLP328 T10711292 57010 IEM_DS3505
ZBAA,1996-12-04 22:00,ZBAA 042200Z AUTO 30014KT 6SM M08/M27 A3045 RMK SLP324 T10801270 IEM_DS3505
ZBAA,1996-12-04 23:00,ZBAA 042300Z AUTO 31012KT 6SM M08/M26 A3047 RMK SLP331 T10801260 IEM_DS3505
ZBAA,1996-12-05 00:00,ZBAA 050000Z AUTO 29016KT 19SM M07/M33 A3047 RMK SLP331 T10731326 52002 IEM_DS3505
ZBAA,1996-12-05 01:00,ZBAA 050100Z AUTO 31008KT 7SM M07/M25 A3047 RMK SLP330 T10701250 IEM_DS3505
ZBAA,1996-12-05 02:00,ZBAA 050200Z AUTO 31014KT 7SM M06/M27 A3045 RMK SLP323 T10601270 IEM_DS3505
ZBAA,1996-12-05 03:00,ZBAA 050300Z AUTO 32008G27KT 19SM M04/ A3042 RMK SLP319 57011 IEM_DS3505
ZBAA,1996-12-05 04:00,ZBAA 050400Z AUTO 30016G27KT 7SM M04/M27 A3039 RMK SLP302 T10401270 IEM_DS3505
ZBAA,1996-12-05 05:00,ZBAA 050500Z AUTO 29014G25KT 7SM M03/M27 A3036 RMK SLP291 T10301270 IEM_DS3505
ZBAA,1996-12-05 06:00,ZBAA 050600Z AUTO 32010G29KT 19SM M01/M32 A3030 RMK SLP273 T10101319 57046 IEM_DS3505
ZBAA,1996-12-05 07:00,ZBAA 050700Z AUTO 29016G25KT 7SM M01/M28 A3027 RMK SLP260 T10101280 IEM_DS3505
ZBAA,1996-12-05 08:00,ZBAA 050800Z AUTO 28016KT 7SM M01/M29 A3024 RMK SLP250 T10101290 IEM_DS3505
ZBAA,1996-12-05 09:00,ZBAA 050900Z AUTO 22008KT 16SM M02/M27 A3021 RMK SLP249 T10231267 57024 IEM_DS3505
ZBAA,1996-12-05 10:00,ZBAA 051000Z AUTO 22006KT 7SM M04/M25 A3021 RMK SLP241 T10401250 IEM_DS3505
ZBAA,1996-12-05 11:00,ZBAA 051100Z AUTO 24010KT 6SM M02/M25 A3021 RMK SLP240 T10201250 IEM_DS3505
ZBAA,1996-12-05 12:00,ZBAA 051200Z AUTO 29016G27KT 11SM M01/M30 A3021 RMK SLP250 T10081301 52001 IEM_DS3505
ZBAA,1996-12-05 13:00,ZBAA 051300Z AUTO 29012KT 6SM M01/M26 A3021 RMK SLP240 T10101260 IEM_DS3505
ZBAA,1996-12-05 14:00,ZBAA 051400Z AUTO 30010KT 6SM M02/M24 A3024 RMK SLP250 T10201240 IEM_DS3505
ZBAA,1996-12-05 15:00,ZBAA 051500Z AUTO 32010KT 12SM M01/M30 A3024 RMK SLP255 T10141296 52005 IEM_DS3505
ZBAA,1996-12-05 16:00,ZBAA 051600Z AUTO 30012G21KT 7SM M02/M24 A3021 RMK SLP240 T10201240 IEM_DS3505
ZBAA,1996-12-05 17:00,ZBAA 051700Z AUTO 31016KT 7SM M03/M24 A3021 RMK SLP241 T10301240 IEM_DS3505
ZBAA,1996-12-05 18:00,ZBAA 051800Z AUTO 32010KT 12SM M02/M28 A3021 RMK SLP239 T10251277 57015 IEM_DS3505
ZBAA,1996-12-05 19:00,ZBAA 051900Z AUTO 32010KT 7SM M03/M23 A3018 RMK SLP231 T10301230 IEM_DS3505
ZBAA,1996-12-05 20:00,ZBAA 052000Z AUTO 28006KT 7SM M03/M23 A3018 RMK SLP231 T10301230 IEM_DS3505
ZBAA,1996-12-05 21:00,ZBAA 052100Z AUTO 34002KT 12SM M04/M24 A3015 RMK SLP224 T10451235 57016 IEM_DS3505
ZBAA,1996-12-05 22:00,ZBAA 052200Z AUTO 27008KT 7SM M02/M23 A3012 RMK SLP210 T10201230 IEM_DS3505
ZBAA,1996-12-05 23:00,ZBAA 052300Z AUTO 28006KT 7SM M03/M22 A3012 RMK SLP210 T10301220 IEM_DS3505
ZBAA,1996-12-06 00:00,ZBAA 060000Z AUTO 29006G21KT 7SM M02/M22 A3015 RMK SLP222 T10241225 57001 IEM_DS3505
ZBAA,1996-12-06 01:00,ZBAA 060100Z AUTO 29008KT 6SM M01/M21 A3018 RMK SLP230 T10101210 IEM_DS3505
ZBAA,1996-12-06 02:00,ZBAA 060200Z AUTO 30021G33KT 6SM 00/M19 A3015 RMK SLP220 T00001190 IEM_DS3505
ZBAA,1996-12-06 03:00,ZBAA 060300Z AUTO 34014G27KT 12SM 01/M21 A3018 RMK SLP236 T00061212 52014 IEM_DS3505
ZBAA,1996-12-06 04:00,ZBAA 060400Z AUTO 31017G27KT 6SM 01/M19 A3018 RMK SLP230 T00101190 IEM_DS3505
ZBAA,1996-12-06 05:00,ZBAA 060500Z AUTO 31019KT 6SM 01/M20 A3015 RMK SLP219 T00101200 IEM_DS3505
ZBAA,1996-12-06 06:00,ZBAA 060600Z AUTO 34012G33KT 12SM 01/M15 A3015 RMK SLP230 T00131152 57006 IEM_DS3505
ZBAA,1996-12-06 07:00,ZBAA 060700Z AUTO 32019G31KT 6SM 01/M21 A3018 RMK SLP230 T00101210 IEM_DS3505
ZBAA,1996-12-06 09:00,ZBAA 060900Z AUTO 34014KT 16SM 00/M20 A3021 RMK SLP242 T00011196 52012 IEM_DS3505
ZBAA,1996-12-06 10:00,ZBAA 061000Z AUTO 34008KT 6SM M02/M21 A3024 RMK SLP250 T10201210 IEM_DS3505
ZBAA,1996-12-06 11:00,ZBAA 061100Z AUTO 36006KT 7SM M03/M19 A3024 RMK SLP251 T10301190 IEM_DS3505
ZBAA,1996-12-06 12:00,ZBAA 061200Z AUTO 32012KT 12SM 00/M21 A3027 RMK SLP265 T00041209 52023 IEM_DS3505
ZBAA,1996-12-06 13:00,ZBAA 061300Z AUTO 34014G23KT 7SM M01/M19 A3030 RMK SLP270 T10101190 IEM_DS3505
ZBAA,1996-12-06 14:00,ZBAA 061400Z AUTO 34012KT 7SM M01/M19 A3030 RMK SLP270 T10101190 IEM_DS3505
ZBAA,1996-12-06 15:00,ZBAA 061500Z AUTO 34006KT 12SM M00/M17 A3033 RMK SLP278 T10041170 52013 IEM_DS3505
ZBAA,1996-12-06 16:00,ZBAA 061600Z AUTO 33010KT 7SM M02/M19 A3033 RMK SLP281 T10201190 IEM_DS3505
ZBAA,1996-12-06 17:00,ZBAA 061700Z AUTO 35004KT 7SM M03/M18 A3033 RMK SLP281 T10301180 IEM_DS3505
ZBAA,1996-12-06 18:00,ZBAA 061800Z AUTO 36004KT 12SM 00/M19 A3030 RMK SLP269 T00001190 57009 IEM_DS3505
ZBAA,1996-12-06 19:00,ZBAA 061900Z AUTO ////02KT 7SM M04/M16 A3030 RMK SLP271 T10401160 IEM_DS3505
ZBAA,1996-12-06 20:00,ZBAA 062000Z AUTO 21008KT 7SM M03/M17 A3030 RMK SLP271 T10301170 IEM_DS3505
ZBAA,1996-12-06 21:00,ZBAA 062100Z AUTO 20010KT 16SM M02/M18 A3027 RMK SLP263 T10181176 57006 IEM_DS3505
ZBAA,1996-12-06 22:00,ZBAA 062200Z AUTO 16006KT 7SM M05/M16 A3027 RMK SLP261 T10501160 IEM_DS3505
ZBAA,1996-12-06 23:00,ZBAA 062300Z AUTO 15004KT 6SM M07/M16 A3027 RMK SLP262 T10701160 IEM_DS3505
ZBAA,1996-12-07 00:00,ZBAA 070000Z AUTO 20010KT 9SM M01/M18 A3028 RMK SLP262 T10081185 57001 IEM_DS3505
ZBAA,1996-12-07 01:00,ZBAA 070100Z AUTO 22006KT 7SM M01/M17 A3027 RMK SLP260 T10101170 IEM_DS3505
ZBAA,1996-12-07 02:00,ZBAA 070200Z AUTO 17004KT 7SM 01/M16 A3027 RMK SLP260 T00101160 IEM_DS3505
ZBAA,1996-12-07 03:00,ZBAA 070300Z AUTO 18006KT 6SM 03/M13 A3027 RMK SLP257 T00261126 57005 IEM_DS3505
ZBAA,1996-12-07 04:00,ZBAA 070400Z AUTO ////04KT 7SM 04/M15 A3024 RMK SLP249 T00401150 IEM_DS3505
ZBAA,1996-12-07 05:00,ZBAA 070500Z AUTO ////04KT 7SM 05/M16 A3018 RMK SLP229 T00501160 IEM_DS3505
ZBAA,1996-12-07 06:00,ZBAA 070600Z AUTO 16006KT 5SM 06/M15 A3015 RMK SLP226 T00591146 57030 IEM_DS3505
ZBAA,1996-12-07 07:00,ZBAA 070700Z AUTO 21010KT 7SM 06/M15 A3015 RMK SLP218 T00601150 IEM_DS3505
ZBAA,1996-12-07 08:00,ZBAA 070800Z AUTO 20008KT 7SM 06/M15 A3012 RMK SLP208 T00601150 IEM_DS3505
ZBAA,1996-12-07 09:00,ZBAA 070900Z AUTO 18008KT 4SM 05/M12 A3012 RMK SLP218 T00481124 57008 IEM_DS3505
ZBAA,1996-12-07 10:00,ZBAA 071000Z AUTO 22008KT 7SM 04/M13 A3012 RMK SLP209 T00401130 IEM_DS3505
ZBAA,1996-12-07 11:00,ZBAA 071100Z AUTO ////04KT 7SM 00/M11 A3015 RMK SLP220 T00001110 IEM_DS3505
ZBAA,1996-12-07 12:00,ZBAA 071200Z AUTO 16006KT 9SM 03/M11 A3015 RMK SLP217 T00311111 57001 IEM_DS3505
ZBAA,1996-12-07 13:00,ZBAA 071300Z AUTO ////02KT 4SM M01/M12 A3015 RMK SLP220 T10101120 IEM_DS3505
ZBAA,1996-12-07 14:00,ZBAA 071400Z AUTO 35004KT 4SM M02/M12 A3015 RMK SLP220 T10201120 IEM_DS3505
ZBAA,1996-12-07 15:00,ZBAA 071500Z AUTO 27002KT 7SM M01/M10 A3015 RMK SLP229 T10141098 52011 IEM_DS3505
ZBAA,1996-12-07 16:00,ZBAA 071600Z AUTO 34004KT 2 1/2SM M03/M12 A3018 RMK SLP231 T10301120 IEM_DS3505
ZBAA,1996-12-07 17:00,ZBAA 071700Z AUTO ////02KT 2 1/2SM M03/M12 A3018 RMK SLP231 T10301120 IEM_DS3505
ZBAA,1996-12-07 18:00,ZBAA 071800Z AUTO 32010KT 12SM A3018 RMK SLP229 52002 IEM_DS3505
ZBAA,1996-12-07 19:00,ZBAA 071900Z AUTO 35006KT 2 1/2SM M04/M11 A3021 RMK SLP241 T10401110 IEM_DS3505
ZBAA,1996-12-07 20:00,ZBAA 072000Z AUTO ////02KT 2 1/2SM M03/M11 A3021 RMK SLP241 T10301110 IEM_DS3505
ZBAA,1996-12-07 21:00,ZBAA 072100Z AUTO 36002KT 12SM 03/M11 A3021 RMK SLP233 T00331113 52003 IEM_DS3505
ZBAA,1996-12-07 22:00,ZBAA 072200Z AUTO 33006KT 7SM M03/M12 A3021 RMK SLP241 T10301120 IEM_DS3505
ZBAA,1996-12-07 23:00,ZBAA 072300Z AUTO 35002KT 7SM M03/M12 A3024 RMK SLP251 T10301120 IEM_DS3505
ZBAA,1996-12-08 00:00,ZBAA 080000Z AUTO 02006KT 9SM 01/M11 A3024 RMK SLP253 T00141110 52020 IEM_DS3505
ZBAA,1996-12-08 01:00,ZBAA 080100Z AUTO ////02KT 6SM 01/M10 A3030 RMK SLP270 T00101100 IEM_DS3505
ZBAA,1996-12-08 02:00,ZBAA 080200Z AUTO 33010KT 6SM 06/M14 A3030 RMK SLP269 T00601140 IEM_DS3505
ZBAA,1996-12-08 03:00,ZBAA 080300Z AUTO 07006KT 9SM 07/M16 A3030 RMK SLP263 T00701155 52010 IEM_DS3505
ZBAA,1996-12-08 04:00,ZBAA 080400Z AUTO 32008KT 7SM 07/M15 A3027 RMK SLP258 T00701150 IEM_DS3505
ZBAA,1996-12-08 05:00,ZBAA 080500Z AUTO 32010KT 7SM 08/M16 A3024 RMK SLP248 T00801160 IEM_DS3505
ZBAA,1996-12-08 06:00,ZBAA 080600Z AUTO 02006KT 9SM 10/M13 A3021 RMK SLP238 T00951134 57024 IEM_DS3505
ZBAA,1996-12-08 07:00,ZBAA 080700Z AUTO 33010KT 7SM 08/M15 A3021 RMK SLP238 T00801150 IEM_DS3505
ZBAA,1996-12-08 08:00,ZBAA 080800Z AUTO 32010KT 6SM 08/M15 A3018 RMK SLP228 T00801150 IEM_DS3505
ZBAA,1996-12-08 09:00,ZBAA 080900Z AUTO 20010KT 6SM 06/M12 A3018 RMK SLP235 T00631115 57004 IEM_DS3505
ZBAA,1996-12-08 10:00,ZBAA 081000Z AUTO 21008KT 6SM 06/M11 A3018 RMK SLP228 T00601110 IEM_DS3505
ZBAA,1996-12-08 11:00,ZBAA 081100Z AUTO 22004KT 6SM 04/M11 A3021 RMK SLP239 T00401110 IEM_DS3505
ZBAA,1996-12-08 12:00,ZBAA 081200Z AUTO 22006KT 6SM 04/M09 A3021 RMK SLP235 T00411087 54000 IEM_DS3505
ZBAA,1996-12-08 13:00,ZBAA 081300Z AUTO 21006KT 6SM 04/M10 A3018 RMK SLP229 T00401100 IEM_DS3505
ZBAA,1996-12-08 14:00,ZBAA 081400Z AUTO 22004KT 6SM 03/M10 A3021 RMK SLP239 T00301100 IEM_DS3505
ZBAA,1996-12-08 15:00,ZBAA 081500Z AUTO 18006KT 6SM 03/M08 A3021 RMK SLP240 T00261079 52005 IEM_DS3505
ZBAA,1996-12-08 16:00,ZBAA 081600Z AUTO 23004KT 6SM M01/M09 A3021 RMK SLP240 T10101090 IEM_DS3505
ZBAA,1996-12-08 17:00,ZBAA 081700Z AUTO ////02KT 6SM M03/M10 A3021 RMK SLP241 T10301100 IEM_DS3505
ZBAA,1996-12-08 18:00,ZBAA 081800Z AUTO 04002KT 6SM 01/M09 A3018 RMK SLP234 T00131090 57005 IEM_DS3505
ZBAA,1996-12-08 19:00,ZBAA 081900Z AUTO 32012KT 7SM 03/M19 A3018 RMK SLP229 T00301190 IEM_DS3505
ZBAA,1996-12-08 20:00,ZBAA 082000Z AUTO 32016KT 7SM 04/M19 A3018 RMK SLP229 T00401190 IEM_DS3505
ZBAA,1996-12-08 21:00,ZBAA 082100Z AUTO 34006KT 6SM 03/M16 A3018 RMK SLP232 T00261157 57003 IEM_DS3505
ZBAA,1996-12-08 22:00,ZBAA 082200Z AUTO 30008KT 7SM 02/M18 A3018 RMK SLP229 T00201180 IEM_DS3505
ZBAA,1996-12-08 23:00,ZBAA 082300Z AUTO 31014KT 7SM 03/M18 A3018 RMK SLP229 T00301180 IEM_DS3505
ZBAA,1996-12-09 00:00,ZBAA 090000Z AUTO 02004G25KT 6SM 02/M15 A3018 RMK SLP231 T00241147 57001 IEM_DS3505
ZBAA,1996-12-09 01:00,ZBAA 090100Z AUTO 30019KT 6SM 04/M18 A3018 RMK SLP229 T00401180 IEM_DS3505
ZBAA,1996-12-09 02:00,ZBAA 090200Z AUTO 30017G29KT 6SM 05/M18 A3021 RMK SLP239 T00501180 IEM_DS3505
ZBAA,1996-12-09 03:00,ZBAA 090300Z AUTO 32016G31KT 6SM 07/M18 A3018 RMK SLP225 T00721184 57005 IEM_DS3505
ZBAA,1996-12-09 04:00,ZBAA 090400Z AUTO 29017KT 6SM 06/M17 A3012 RMK SLP208 T00601170 IEM_DS3505
ZBAA,1996-12-09 06:00,ZBAA 090600Z AUTO 20010G35KT 6SM 08/M16 A3009 RMK SLP205 T00851156 57020 IEM_DS3505
ZBAA,1996-12-09 07:00,ZBAA 090700Z AUTO 31016G25KT 6SM 08/M17 A3009 RMK SLP197 T00801170 IEM_DS3505
ZBAA,1996-12-09 08:00,ZBAA 090800Z AUTO 29008KT 7SM 07/M16 A3009 RMK SLP197 T00701160 IEM_DS3505
ZBAA,1996-12-09 09:00,ZBAA 090900Z AUTO 20008KT 6SM 06/M12 A3009 RMK SLP200 T00591124 57005 IEM_DS3505
ZBAA,1996-12-09 10:00,ZBAA 091000Z AUTO ////04KT 5SM 03/M15 A3009 RMK SLP198 T00301150 IEM_DS3505
ZBAA,1996-12-09 11:00,ZBAA 091100Z AUTO 18006KT 6SM 04/M11 A3009 RMK SLP209 T00401110 52008 IEM_DS3505
ZBAA,1996-12-09 12:00,ZBAA 091200Z AUTO 18006KT 6SM 04/M11 A3009 RMK SLP209 T00401110 52008 IEM_DS3505
ZBAA,1996-12-09 13:00,ZBAA 091300Z AUTO ////04KT 4SM 03/M12 A3012 RMK SLP209 T00301120 IEM_DS3505
ZBAA,1996-12-09 14:00,ZBAA 091400Z AUTO ////04KT 5SM 04/M12 A3012 RMK SLP209 T00401120 IEM_DS3505
ZBAA,1996-12-09 15:00,ZBAA 091500Z AUTO 00000KT 4SM 02/M10 A3012 RMK SLP214 T00191095 52005 IEM_DS3505
ZBAA,1996-12-09 16:00,ZBAA 091600Z AUTO 30008KT 7SM 05/M16 A3012 RMK SLP208 T00501160 IEM_DS3505
ZBAA,1996-12-09 17:00,ZBAA 091700Z AUTO 30010KT 7SM 05/M17 A3009 RMK SLP197 T00501170 IEM_DS3505
ZBAA,1996-12-09 18:00,ZBAA 091800Z AUTO 20002G17KT 4SM M00/ A3009 RMK SLP203 57011 IEM_DS3505
ZBAA,1996-12-09 19:00,ZBAA 091900Z AUTO ////04KT 7SM 04/M17 A3009 RMK SLP198 T00401170 IEM_DS3505
ZBAA,1996-12-09 20:00,ZBAA 092000Z AUTO ////04KT 7SM 01/M15 A3006 RMK SLP188 T00101150 IEM_DS3505
ZBAA,1996-12-09 21:00,ZBAA 092100Z AUTO 00000KT 6SM 02/M13 A3006 RMK SLP192 T00201128 57011 IEM_DS3505
ZBAA,1996-12-09 22:00,ZBAA 092200Z AUTO 31008KT 7SM 03/M16 A3006 RMK SLP188 T00301160 IEM_DS3505
ZBAA,1996-12-09 23:00,ZBAA 092300Z AUTO 28006KT 6SM 04/M16 A3006 RMK SLP188 T00401160 IEM_DS3505
ZBAA,1996-12-10 00:00,ZBAA 100000Z AUTO 07004KT 2 1/2SM 01/M14 A3006 RMK SLP197 T00101136 52005 IEM_DS3505
ZBAA,1996-12-10 01:00,ZBAA 100100Z AUTO ////04KT 7SM 05/M16 A3006 RMK SLP187 T00501160 IEM_DS3505
ZBAA,1996-12-10 02:00,ZBAA 100200Z AUTO 31019KT 7SM 06/M16 A3006 RMK SLP187 T00601160 IEM_DS3505
ZBAA,1996-12-10 03:00,ZBAA 100300Z AUTO 32006G23KT 4SM 08/M12 A3006 RMK SLP195 T00801124 57001 IEM_DS3505
ZBAA,1996-12-10 04:00,ZBAA 100400Z AUTO 31019G29KT 7SM 08/M16 A3006 RMK SLP187 T00801160 IEM_DS3505
ZBAA,1996-12-10 05:00,ZBAA 100500Z AUTO 29012KT 7SM 09/M15 A3003 RMK SLP176 T00901150 IEM_DS3505
ZBAA,1996-12-10 06:00,ZBAA 100600Z AUTO 20008G27KT 4SM 09/M14 A3000 RMK SLP174 T00941142 57021 IEM_DS3505
ZBAA,1996-12-10 07:00,ZBAA 100700Z AUTO 30014KT 7SM 09/M14 A3000 RMK SLP166 T00901140 IEM_DS3505
ZBAA,1996-12-10 08:00,ZBAA 100800Z AUTO 28014G23KT 7SM 09/M15 A3000 RMK SLP166 T00901150 IEM_DS3505
ZBAA,1996-12-10 09:00,ZBAA 100900Z AUTO 20008KT 3SM 08/M12 A3003 RMK SLP184 T00751117 52010 IEM_DS3505
ZBAA,1996-12-10 10:00,ZBAA 101000Z AUTO 29008KT 7SM 07/M14 A3006 RMK SLP187 T00701140 IEM_DS3505
ZBAA,1996-12-10 11:00,ZBAA 101100Z AUTO 27006KT 7SM 07/M13 A3009 RMK SLP197 T00701130 IEM_DS3505
ZBAA,1996-12-10 12:00,ZBAA 101200Z AUTO 32006KT 9SM 08/M12 A3012 RMK SLP213 T00771119 52028 IEM_DS3505
ZBAA,1996-12-10 13:00,ZBAA 101300Z AUTO ////04KT 7SM 04/M12 A3015 RMK SLP219 T00401120 IEM_DS3505
ZBAA,1996-12-10 14:00,ZBAA 101400Z AUTO 33010KT 7SM 04/M13 A3018 RMK SLP229 T00401130 IEM_DS3505
ZBAA,1996-12-10 15:00,ZBAA 101500Z AUTO 32010KT 12SM 06/M10 A3021 RMK SLP236 T00651098 52024 IEM_DS3505
ZBAA,1996-12-10 16:00,ZBAA 101600Z AUTO ////04KT 7SM 01/M12 A3021 RMK SLP240 T00101120 IEM_DS3505
ZBAA,1996-12-10 17:00,ZBAA 101700Z AUTO 00000KT 7SM 02/M12 A3021 RMK SLP239 T00201120 IEM_DS3505
ZBAA,1996-12-10 18:00,ZBAA 101800Z AUTO 22002KT 12SM 04/M11 A3021 RMK SLP242 T00391107 52006 IEM_DS3505
ZBAA,1996-12-10 19:00,ZBAA 101900Z AUTO 17004KT 7SM M04/M11 A3021 RMK SLP241 T10401110 IEM_DS3505
ZBAA,1996-12-10 20:00,ZBAA 102000Z AUTO 12002KT 7SM M03/M10 A3021 RMK SLP241 T10301100 IEM_DS3505
ZBAA,1996-12-10 21:00,ZBAA 102100Z AUTO 02002KT 9SM 00/M10 A3021 RMK SLP233 T00041105 57010 IEM_DS3505
ZBAA,1996-12-10 22:00,ZBAA 102200Z AUTO 02006KT 7SM M04/M11 A3018 RMK SLP231 T10401110 IEM_DS3505
ZBAA,1996-12-10 23:00,ZBAA 102300Z AUTO 02004KT 7SM M03/M10 A3021 RMK SLP241 T10301100 IEM_DS3505
ZBAA,1996-12-11 00:00,ZBAA 110000Z AUTO 20006KT 5SM 02/M10 A3024 RMK SLP242 T00181103 52009 IEM_DS3505
ZBAA,1996-12-11 01:00,ZBAA 110100Z AUTO ////02KT 7SM M02/M08 A3024 RMK SLP250 T10201080 IEM_DS3505
ZBAA,1996-12-11 02:00,ZBAA 110200Z AUTO ////02KT 7SM 01/M09 A3024 RMK SLP250 T00101090 IEM_DS3505
ZBAA,1996-12-11 03:00,ZBAA 110300Z AUTO 22010KT 4SM 07/M12 A3024 RMK SLP247 T00731123 52006 IEM_DS3505
ZBAA,1996-12-11 04:00,ZBAA 110400Z AUTO ////04KT 7SM 07/M10 A3021 RMK SLP238 T00701100 IEM_DS3505
ZBAA,1996-12-11 05:00,ZBAA 110500Z AUTO 19010KT 7SM 08/M13 A3015 RMK SLP218 T00801130 IEM_DS3505
ZBAA,1996-12-11 06:00,ZBAA 110600Z AUTO 20008KT 7SM 09/M13 A3012 RMK SLP215 T00891128 57032 IEM_DS3505
ZBAA,1996-12-11 07:00,ZBAA 110700Z AUTO 20006KT 6SM 09/M12 A3012 RMK SLP207 T00901120 IEM_DS3505
ZBAA,1996-12-11 08:00,ZBAA 110800Z AUTO ////04KT 6SM 07/M11 A3012 RMK SLP208 T00701110 IEM_DS3505
ZBAA,1996-12-11 09:00,ZBAA 110900Z AUTO 20006KT 4SM 07/M11 A3012 RMK SLP209 T00731110 57007 IEM_DS3505
ZBAA,1996-12-11 10:00,ZBAA 111000Z AUTO 20006KT 6SM 04/M11 A3012 RMK SLP209 T00401110 IEM_DS3505
ZBAA,1996-12-11 11:00,ZBAA 111100Z AUTO 20006KT 6SM 04/M11 A3012 RMK SLP209 T00401110 IEM_DS3505
ZBAA,1996-12-11 12:00,ZBAA 111200Z AUTO 18004KT 4SM 06/M08 A3015 RMK SLP216 T00551081 52007 IEM_DS3505
ZBAA,1996-12-11 13:00,ZBAA 111300Z AUTO ////02KT 6SM 01/M09 A3015 RMK SLP219 T00101090 IEM_DS3505
ZBAA,1996-12-11 14:00,ZBAA 111400Z AUTO ////02KT 6SM 01/M09 A3015 RMK SLP219 T00101090 IEM_DS3505
ZBAA,1996-12-11 15:00,ZBAA 111500Z AUTO 16002KT 2 1/2SM 02/M07 A3015 RMK SLP222 T00241068 52007 IEM_DS3505
ZBAA,1996-12-11 17:00,ZBAA 111700Z AUTO 33002KT 6SM 00/M08 A3018 RMK SLP230 T00001080 IEM_DS3505
ZBAA,1996-12-11 18:00,ZBAA 111800Z AUTO 00000KT 6SM 02/M07 A3018 RMK SLP226 T00161067 52004 IEM_DS3505
ZBAA,1996-12-11 19:00,ZBAA 111900Z AUTO ////02KT 6SM M02/M09 A3018 RMK SLP230 T10201090 IEM_DS3505
ZBAA,1996-12-11 20:00,ZBAA 112000Z AUTO 36006KT 6SM M05/M09 A3018 RMK SLP231 T10501090 IEM_DS3505
ZBAA,1996-12-11 21:00,ZBAA 112100Z AUTO 04004KT 6SM A3015 RMK SLP222 57004 IEM_DS3505
ZBAA,1996-12-11 22:00,ZBAA 112200Z AUTO 36006KT 6SM M02/M08 A3018 RMK SLP230 T10201080 IEM_DS3505
ZBAA,1996-12-11 23:00,ZBAA 112300Z AUTO ////04KT 7SM M01/M08 A3018 RMK SLP230 T10101080 IEM_DS3505
ZBAA,1996-12-12 00:00,ZBAA 120000Z AUTO 00000KT 4SM M01/M09 A3018 RMK SLP238 T10091086 52015 IEM_DS3505
ZBAA,1996-12-12 01:00,ZBAA 120100Z AUTO ////02KT 4SM M02/M08 A3021 RMK SLP240 T10201080 IEM_DS3505
ZBAA,1996-12-12 02:00,ZBAA 120200Z AUTO ////02KT 4SM 02/M07 A3021 RMK SLP239 T00201070 IEM_DS3505
ZBAA,1996-12-12 03:00,ZBAA 120300Z AUTO 02002KT 4SM 06/M09 A3021 RMK SLP242 T00591089 52004 IEM_DS3505
ZBAA,1996-12-12 04:00,ZBAA 120400Z AUTO ////02KT 3SM 06/M09 A3018 RMK SLP228 T00601090 IEM_DS3505
ZBAA,1996-12-12 05:00,ZBAA 120500Z AUTO ////02KT 4SM 07/M12 A3015 RMK SLP218 T00701120 IEM_DS3505
ZBAA,1996-12-12 06:00,ZBAA 120600Z AUTO 22004KT 4SM 08/M10 A3012 RMK SLP208 T00831104 57033 IEM_DS3505
ZBAA,1996-12-12 07:00,ZBAA 120700Z AUTO 14006KT 5SM 07/M09 A3009 RMK SLP197 T00701090 IEM_DS3505
ZBAA,1996-12-12 08:00,ZBAA 120800Z AUTO 14006KT 7SM 05/M07 A3009 RMK SLP197 T00501070 IEM_DS3505
ZBAA,1996-12-12 09:00,ZBAA 120900Z AUTO 14006KT 2SM 06/M08 A3009 RMK SLP198 T00651077 57010 IEM_DS3505
ZBAA,1996-12-12 10:00,ZBAA 121000Z AUTO 14004KT 2 1/2SM 02/M04 A3009 RMK SLP198 T00201040 IEM_DS3505
ZBAA,1996-12-12 11:00,ZBAA 121100Z AUTO 12002KT 2 1/2SM 00/M03 A3009 RMK SLP199 T00001030 IEM_DS3505
ZBAA,1996-12-12 12:00,ZBAA 121200Z AUTO 11004KT 2SM 03/M03 A3012 RMK SLP205 T00331032 52006 IEM_DS3505
ZBAA,1996-12-12 13:00,ZBAA 121300Z AUTO ////04KT 2 1/2SM M01/M03 A3009 RMK SLP199 T10101030 IEM_DS3505
ZBAA,1996-12-12 14:00,ZBAA 121400Z AUTO ////02KT 2 1/2SM M01/M03 A3012 RMK SLP210 T10101030 IEM_DS3505
ZBAA,1996-12-12 15:00,ZBAA 121500Z AUTO 07004KT 2SM 02/M00 A3012 RMK SLP207 T00211004 52002 IEM_DS3505
ZBAA,1996-12-12 16:00,ZBAA 121600Z AUTO 00000KT 2 1/2SM M01/M03 A3009 RMK SLP199 T10101030 IEM_DS3505
ZBAA,1996-12-12 17:00,ZBAA 121700Z AUTO ////02KT 2 1/2SM M01/M03 A3009 RMK SLP199 T10101030 IEM_DS3505
ZBAA,1996-12-12 18:00,ZBAA 121800Z AUTO 32002KT 3SM M00/M03 A3009 RMK SLP198 T10021030 57009 IEM_DS3505
ZBAA,1996-12-12 19:00,ZBAA 121900Z AUTO 00000KT 2 1/2SM M01/M03 A3006 RMK SLP189 T10101030 IEM_DS3505
ZBAA,1996-12-12 20:00,ZBAA 122000Z AUTO 30004KT 2 1/2SM M01/M02 A3006 RMK SLP189 T10101020 IEM_DS3505
ZBAA,1996-12-12 21:00,ZBAA 122100Z AUTO 27002KT 2SM M02/M03 A3006 RMK SLP188 T10151034 57010 IEM_DS3505
ZBAA,1996-12-12 22:00,ZBAA 122200Z AUTO 36004KT 2 1/2SM M03/M03 A3006 RMK SLP189 T10301030 IEM_DS3505
ZBAA,1996-12-12 23:00,ZBAA 122300Z AUTO 28002KT 2 1/2SM M02/M03 A3006 RMK SLP189 T10201030 IEM_DS3505
ZBAA,1996-12-13 00:00,ZBAA 130000Z AUTO 00000KT 1SM M02/M04 A3006 RMK SLP189 T10251038 52001 IEM_DS3505
ZBAA,1996-12-13 01:00,ZBAA 130100Z AUTO 36002KT 1 1/4SM M03/M04 A3006 RMK SLP189 T10301040 IEM_DS3505
ZBAA,1996-12-13 02:00,ZBAA 130200Z AUTO ////02KT 1 1/4SM 00/M02 A3009 RMK SLP199 T00001020 IEM_DS3505
ZBAA,1996-12-13 03:00,ZBAA 130300Z AUTO 29002KT 1SM 02/M01 A3006 RMK SLP196 T00211013 52007 IEM_DS3505
ZBAA,1996-12-13 04:00,ZBAA 130400Z AUTO ////02KT 1 1/2SM 04/M02 A3003 RMK SLP177 T00401020 IEM_DS3505
ZBAA,1996-12-13 05:00,ZBAA 130500Z AUTO 00000KT 1 1/2SM 06/M02 A3003 RMK SLP177 T00601020 IEM_DS3505
ZBAA,1996-12-13 06:00,ZBAA 130600Z AUTO 20006KT 2 1/2SM 07/M05 A3000 RMK SLP174 T00691047 57022 IEM_DS3505
ZBAA,1996-12-13 07:00,ZBAA 130700Z AUTO 19006KT 1SM 06/M02 A3000 RMK SLP167 T00601020 IEM_DS3505
ZBAA,1996-12-13 08:00,ZBAA 130800Z AUTO 19008KT 1SM 05/M03 A3000 RMK SLP167 T00501030 IEM_DS3505
ZBAA,1996-12-13 09:00,ZBAA 130900Z AUTO 18008KT 4SM 04/M04 A3000 RMK SLP171 T00381043 57003 IEM_DS3505
ZBAA,1996-12-13 10:00,ZBAA 131000Z AUTO ////02KT 1 1/4SM 02/M04 A3003 RMK SLP178 T00201040 IEM_DS3505
ZBAA,1996-12-13 11:00,ZBAA 131100Z AUTO ////02KT 1 1/4SM 00/M04 A3003 RMK SLP178 T00001040 IEM_DS3505
ZBAA,1996-12-13 12:00,ZBAA 131200Z AUTO 18004KT 1SM 02/M02 A3006 RMK SLP189 T00191015 52017 IEM_DS3505
ZBAA,1996-12-13 13:00,ZBAA 131300Z AUTO 00000KT 1 1/4SM M02/M03 A3006 RMK SLP189 T10201030 IEM_DS3505
ZBAA,1996-12-13 14:00,ZBAA 131400Z AUTO ////02KT 1 1/4SM M03/M04 A3006 RMK SLP189 T10301040 IEM_DS3505
ZBAA,1996-12-13 15:00,ZBAA 131500Z AUTO 36002KT 1SM M01/M02 A3009 RMK SLP199 T10061021 52011 IEM_DS3505
ZBAA,1996-12-13 16:00,ZBAA 131600Z AUTO 00000KT 1SM M03/M03 A3009 RMK SLP199 T10301030 IEM_DS3505
ZBAA,1996-12-13 17:00,ZBAA 131700Z AUTO 00000KT 1SM M03/M03 A3009 RMK SLP199 T10301030 IEM_DS3505
ZBAA,1996-12-13 18:00,ZBAA 131800Z AUTO 04002KT 1SM M02/M04 A3009 RMK SLP201 T10151037 52002 IEM_DS3505
ZBAA,1996-12-13 19:00,ZBAA 131900Z AUTO 34002KT 1SM M03/M04 A3009 RMK SLP199 T10301040 IEM_DS3505
ZBAA,1996-12-13 20:00,ZBAA 132000Z AUTO ////02KT 1SM M03/M04 A3009 RMK SLP199 T10301040 IEM_DS3505
ZBAA,1996-12-13 21:00,ZBAA 132100Z AUTO 32002KT 1SM M02/M04 A3009 RMK SLP203 T10191042 52002 IEM_DS3505
ZBAA,1996-12-13 22:00,ZBAA 132200Z AUTO 34008KT 1SM M02/M05 A3009 RMK SLP199 T10201050 IEM_DS3505
ZBAA,1996-12-13 23:00,ZBAA 132300Z AUTO 36004KT 1 1/2SM M02/M07 A3012 RMK SLP210 T10201070 IEM_DS3505
ZBAA,1996-12-14 00:00,ZBAA 140000Z AUTO 32002KT 1SM M03/M05 A3012 RMK SLP213 T10261050 52009 IEM_DS3505
ZBAA,1996-12-14 01:00,ZBAA 140100Z AUTO ////02KT 1 1/2SM M02/M05 A3015 RMK SLP220 T10201050 IEM_DS3505
ZBAA,1996-12-14 02:00,ZBAA 140200Z AUTO ////02KT 1 1/2SM 00/M05 A3015 RMK SLP220 T00001050 IEM_DS3505
ZBAA,1996-12-14 03:00,ZBAA 140300Z AUTO 04004KT 2SM 03/M06 A3015 RMK SLP221 T00341061 52009 IEM_DS3505
ZBAA,1996-12-14 04:00,ZBAA 140400Z AUTO ////02KT 1 1/4SM 03/M04 A3012 RMK SLP209 T00301040 IEM_DS3505
ZBAA,1996-12-14 05:00,ZBAA 140500Z AUTO ////04KT 1 1/4SM 04/M04 A3009 RMK SLP198 T00401040 IEM_DS3505
ZBAA,1996-12-14 06:00,ZBAA 140600Z AUTO 04002KT 2SM 06/M05 A3009 RMK SLP201 T00651054 57020 IEM_DS3505
ZBAA,1996-12-14 07:00,ZBAA 140700Z AUTO ////02KT 1 1/4SM 05/M05 A3006 RMK SLP187 T00501050 IEM_DS3505
ZBAA,1996-12-14 08:00,ZBAA 140800Z AUTO 10002KT 1 1/4SM 04/M05 A3006 RMK SLP188 T00401050 IEM_DS3505
ZBAA,1996-12-14 09:00,ZBAA 140900Z AUTO 36004KT 1 1/4SM 04/M03 A3009 RMK SLP198 T00451030 57003 IEM_DS3505
ZBAA,1996-12-14 10:00,ZBAA 141000Z AUTO ////02KT 1 1/4SM 03/M04 A3009 RMK SLP198 T00301040 IEM_DS3505
ZBAA,1996-12-14 11:00,ZBAA 141100Z AUTO ////02KT 1 1/4SM 01/M04 A3012 RMK SLP209 T00101040 IEM_DS3505
ZBAA,1996-12-14 12:00,ZBAA 141200Z AUTO 00000KT 1 1/4SM 01/M04 A3012 RMK SLP212 T00101036 52013 IEM_DS3505
ZBAA,1996-12-14 13:00,ZBAA 141300Z AUTO ////04KT 1SM 01/M04 A3012 RMK SLP209 T00101040 IEM_DS3505
ZBAA,1996-12-14 14:00,ZBAA 141400Z AUTO ////02KT 1SM 00/M02 A3015 RMK SLP220 T00001020 IEM_DS3505
ZBAA,1996-12-14 15:00,ZBAA 141500Z AUTO 34004KT 2SM 01/M04 A3015 RMK SLP213 T00061041 52002 IEM_DS3505
ZBAA,1996-12-14 16:00,ZBAA 141600Z AUTO ////02KT 3/8SM M01/M01 A3012 RMK SLP210 T10101010 IEM_DS3505
ZBAA,1996-12-14 17:00,ZBAA 141700Z AUTO ////02KT 3/8SM M01/M01 A3012 RMK SLP210 T10101010 IEM_DS3505
ZBAA,1996-12-14 18:00,ZBAA 141800Z AUTO 07004KT 1 1/4SM M00/M01 A3012 RMK SLP210 T10021014 57003 IEM_DS3505
ZBAA,1996-12-14 19:00,ZBAA 141900Z AUTO ////04KT 1/2SM M02/M02 A3012 RMK SLP210 T10201020 IEM_DS3505
ZBAA,1996-12-14 20:00,ZBAA 142000Z AUTO ////02KT 3/8SM M02/M02 A3012 RMK SLP210 T10201020 IEM_DS3505
ZBAA,1996-12-14 21:00,ZBAA 142100Z AUTO 29006KT 1 1/4SM M01/M02 A3012 RMK SLP209 T10061021 57001 IEM_DS3505
ZBAA,1996-12-14 22:00,ZBAA 142200Z AUTO ////02KT 1/4SM M02/M02 A3012 RMK SLP210 T10201020 IEM_DS3505
ZBAA,1996-12-14 23:00,ZBAA 142300Z AUTO ////02KT 1/4SM M02/M02 A3012 RMK SLP210 T10201020 IEM_DS3505
ZBAA,1996-12-15 00:00,ZBAA 150000Z AUTO 36002KT 1/2SM M01/M02 A3015 RMK SLP215 T10131022 52005 IEM_DS3505
ZBAA,1996-12-15 01:00,ZBAA 150100Z AUTO 14002KT 1/4SM M02/M02 A3015 RMK SLP220 T10201020 IEM_DS3505
ZBAA,1996-12-15 02:00,ZBAA 150200Z AUTO ////02KT 3/8SM M02/M02 A3015 RMK SLP220 T10201020 IEM_DS3505
ZBAA,1996-12-15 03:00,ZBAA 150300Z AUTO 32004KT 1SM 00/M02 A3015 RMK SLP220 T00031018 52005 IEM_DS3505
ZBAA,1996-12-15 04:00,ZBAA 150400Z AUTO ////02KT 1/2SM M01/M01 A3012 RMK SLP210 T10101010 IEM_DS3505
ZBAA,1996-12-15 05:00,ZBAA 150500Z AUTO ////02KT 1/2SM M01/M01 A3009 RMK SLP199 T10101010 IEM_DS3505
ZBAA,1996-12-15 06:00,ZBAA 150600Z AUTO 34004KT 1/2SM 01/M01 A3009 RMK SLP203 T00131013 57016 IEM_DS3505
ZBAA,1996-12-15 07:00,ZBAA 150700Z AUTO 00000KT 1/2SM 00/M01 A3009 RMK SLP199 T00001010 IEM_DS3505
ZBAA,1996-12-15 08:00,ZBAA 150800Z AUTO ////04KT 1/2SM 01/M02 A3009 RMK SLP198 T00101020 IEM_DS3505
ZBAA,1996-12-15 09:00,ZBAA 150900Z AUTO 34004KT 1SM 01/M02 A3012 RMK SLP208 T00121017 52004 IEM_DS3505
ZBAA,1996-12-15 10:00,ZBAA 151000Z AUTO ////02KT 1SM 00/M02 A3012 RMK SLP210 T00001020 IEM_DS3505
ZBAA,1996-12-15 11:00,ZBAA 151100Z AUTO 27004KT 1SM 00/M02 A3015 RMK SLP220 T00001020 IEM_DS3505
ZBAA,1996-12-15 12:00,ZBAA 151200Z AUTO 00000KT 1SM 00/M02 A3018 RMK SLP225 T00001024 52017 IEM_DS3505
ZBAA,1996-12-15 13:00,ZBAA 151300Z AUTO ////02KT 1SM M03/M03 A3018 RMK SLP231 T10301030 IEM_DS3505
ZBAA,1996-12-15 14:00,ZBAA 151400Z AUTO ////02KT 1SM M02/M03 A3021 RMK SLP240 T10201030 IEM_DS3505
ZBAA,1996-12-15 15:00,ZBAA 151500Z AUTO 36002KT 1 1/4SM M01/M03 A3024 RMK SLP250 T10081030 52025 IEM_DS3505
ZBAA,1996-12-15 16:00,ZBAA 151600Z AUTO 34006KT 1 1/4SM M01/M03 A3027 RMK SLP260 T10101030 IEM_DS3505
ZBAA,1996-12-15 17:00,ZBAA 151700Z AUTO 34006KT 3SM M01/M05 A3027 RMK SLP260 T10101050 IEM_DS3505
ZBAA,1996-12-15 18:00,ZBAA 151800Z AUTO 34014G17KT 16SM 02/M16 A3030 RMK SLP269 T00251159 52019 IEM_DS3505
ZBAA,1996-12-15 19:00,ZBAA 151900Z AUTO 34010KT 7SM 00/M10 A3036 RMK SLP290 T00001100 IEM_DS3505
ZBAA,1996-12-15 20:00,ZBAA 152000Z AUTO 33014KT 1 1/4SM 02/M14 A3036 RMK SLP290 T00201140 IEM_DS3505
ZBAA,1996-12-15 21:00,ZBAA 152100Z AUTO 02010KT 16SM 01/M19 A3039 RMK SLP298 T00121190 52029 IEM_DS3505
ZBAA,1996-12-15 22:00,ZBAA 152200Z AUTO 35010KT 7SM 00/M16 A3042 RMK SLP311 T00001160 IEM_DS3505
ZBAA,1996-12-15 23:00,ZBAA 152300Z AUTO 35008KT 6SM M01/M20 A3045 RMK SLP322 T10101200 IEM_DS3505
ZBAA,1996-12-16 00:00,ZBAA 160000Z AUTO 02014KT 16SM M00/M30 A3045 RMK SLP320 T10031295 52022 IEM_DS3505
ZBAA,1996-12-16 01:00,ZBAA 160100Z AUTO 03010KT 6SM M01/M23 A3050 RMK SLP339 T10101230 IEM_DS3505
ZBAA,1996-12-16 02:00,ZBAA 160200Z AUTO 02008KT 6SM M01/M23 A3053 RMK SLP349 T10101230 IEM_DS3505
ZBAA,1996-12-16 03:00,ZBAA 160300Z AUTO 02008KT 7SM 01/M26 A3053 RMK SLP341 T00061260 52020 IEM_DS3505
ZBAA,1996-12-16 04:00,ZBAA 160400Z AUTO 04012KT 6SM 00/M22 A3050 RMK SLP339 T00001220 IEM_DS3505
ZBAA,1996-12-16 06:00,ZBAA 160600Z AUTO 07008KT 12SM 01/M26 A3045 RMK SLP323 T00101262 57017 IEM_DS3505
ZBAA,1996-12-16 07:00,ZBAA 160700Z AUTO 05006KT 6SM 01/M23 A3045 RMK SLP321 T00101230 IEM_DS3505
ZBAA,1996-12-16 09:00,ZBAA 160900Z AUTO 07002KT 12SM 01/M22 A3046 RMK SLP325 T00081220 52002 IEM_DS3505
ZBAA,1996-12-16 10:00,ZBAA 161000Z AUTO 35006KT 7SM M03/M22 A3050 RMK SLP339 T10301220 IEM_DS3505
ZBAA,1996-12-16 11:00,ZBAA 161100Z AUTO 35006KT 6SM M02/M21 A3050 RMK SLP339 T10201210 IEM_DS3505
ZBAA,1996-12-16 12:00,ZBAA 161200Z AUTO 34004KT 16SM 00/M24 A3053 RMK SLP352 T00041238 52026 IEM_DS3505
ZBAA,1996-12-16 13:00,ZBAA 161300Z AUTO ////04KT 6SM M01/M13 A3053 RMK SLP349 T10101130 IEM_DS3505
ZBAA,1996-12-16 14:00,ZBAA 161400Z AUTO 36006KT 6SM M01/M09 A3053 RMK SLP349 T10101090 IEM_DS3505
ZBAA,1996-12-16 15:00,ZBAA 161500Z AUTO 36004KT 12SM M00/M08 A3053 RMK SLP354 T10041075 52002 IEM_DS3505
ZBAA,1996-12-16 16:00,ZBAA 161600Z AUTO 28010KT 6SM M01/M06 A3053 RMK SLP349 T10101060 IEM_DS3505
ZBAA,1996-12-16 17:00,ZBAA 161700Z AUTO 28008KT 6SM M01/M06 A3053 RMK SLP349 T10101060 IEM_DS3505
ZBAA,1996-12-16 18:00,ZBAA 161800Z AUTO 34008KT 12SM M01/M08 A3053 RMK SLP359 T10101075 52005 IEM_DS3505
ZBAA,1996-12-16 19:00,ZBAA 161900Z AUTO 33012KT 6SM M01/M16 A3056 RMK SLP359 T10101160 IEM_DS3505
ZBAA,1996-12-16 20:00,ZBAA 162000Z AUTO 31016KT 6SM M02/M23 A3056 RMK SLP359 T10201230 IEM_DS3505
ZBAA,1996-12-16 21:00,ZBAA 162100Z AUTO 34010KT 12SM M02/M21 A3059 RMK SLP367 T10251209 52008 IEM_DS3505
ZBAA,1996-12-16 22:00,ZBAA 162200Z AUTO 34010KT 6SM M04/M25 A3062 RMK SLP380 T10401250 IEM_DS3505
ZBAA,1996-12-16 23:00,ZBAA 162300Z AUTO 32012KT 7SM M05/M26 A3065 RMK SLP390 T10501260 IEM_DS3505
ZBAA,1996-12-17 00:00,ZBAA 170000Z AUTO 36010KT 16SM M05/M29 A3065 RMK SLP393 T10481286 52026 IEM_DS3505
ZBAA,1996-12-17 01:00,ZBAA 170100Z AUTO 31019KT 7SM M05/M28 A3068 RMK SLP400 T10501280 IEM_DS3505
ZBAA,1996-12-17 02:00,ZBAA 170200Z AUTO 31012KT 7SM M05/M28 A3071 RMK SLP410 T10501280 IEM_DS3505
ZBAA,1996-12-17 03:00,ZBAA 170300Z AUTO 34008KT 19SM M03/M35 A3068 RMK SLP400 T10341350 52007 IEM_DS3505
ZBAA,1996-12-17 04:00,ZBAA 170400Z AUTO 30012KT 7SM M03/M26 A3065 RMK SLP390 T10301260 IEM_DS3505
ZBAA,1996-12-17 05:00,ZBAA 170500Z AUTO 29014KT 7SM M03/M26 A3062 RMK SLP380 T10301260 IEM_DS3505
ZBAA,1996-12-17 06:00,ZBAA 170600Z AUTO 34010KT 19SM M03/M31 A3059 RMK SLP376 T10261314 57024 IEM_DS3505
ZBAA,1996-12-17 07:00,ZBAA 170700Z AUTO 30014G25KT 7SM M03/M27 A3059 RMK SLP370 T10301270 IEM_DS3505
ZBAA,1996-12-17 08:00,ZBAA 170800Z AUTO 28014KT 7SM M03/M27 A3056 RMK SLP359 T10301270 IEM_DS3505
ZBAA,1996-12-17 09:00,ZBAA 170900Z AUTO 32008KT 19SM M03/M29 A3056 RMK SLP370 T10301291 57006 IEM_DS3505
ZBAA,1996-12-17 10:00,ZBAA 171000Z AUTO 28010KT 7SM M04/M26 A3056 RMK SLP360 T10401260 IEM_DS3505
ZBAA,1996-12-17 11:00,ZBAA 171100Z AUTO 28008KT 7SM M04/M26 A3059 RMK SLP370 T10401260 IEM_DS3505
ZBAA,1996-12-17 12:00,ZBAA 171200Z AUTO 29006KT 19SM M04/M24 A3059 RMK SLP371 T10401235 54000 IEM_DS3505
ZBAA,1996-12-17 13:00,ZBAA 171300Z AUTO ////04KT 7SM M05/M25 A3056 RMK SLP360 T10501250 IEM_DS3505
ZBAA,1996-12-17 14:00,ZBAA 171400Z AUTO ////04KT 7SM M06/M24 A3059 RMK SLP370 T10601240 IEM_DS3505
ZBAA,1996-12-17 15:00,ZBAA 171500Z AUTO 29004KT 19SM M06/M19 A3059 RMK SLP370 T10571194 57001 IEM_DS3505
ZBAA,1996-12-17 16:00,ZBAA 171600Z AUTO 00000KT 7SM M07/M22 A3059 RMK SLP371 T10701220 IEM_DS3505
ZBAA,1996-12-17 17:00,ZBAA 171700Z AUTO ////04KT 7SM M07/M24 A3056 RMK SLP361 T10701240 IEM_DS3505
ZBAA,1996-12-17 18:00,ZBAA 171800Z AUTO 34002KT 19SM M06/M23 A3056 RMK SLP365 T10581229 57005 IEM_DS3505
ZBAA,1996-12-17 19:00,ZBAA 171900Z AUTO 00000KT 7SM M08/M22 A3056 RMK SLP361 T10801220 IEM_DS3505
ZBAA,1996-12-17 21:00,ZBAA 172100Z AUTO 18004KT 16SM M06/M20 A3053 RMK SLP349 T10631198 57016 IEM_DS3505
ZBAA,1996-12-17 22:00,ZBAA 172200Z AUTO 28006KT 7SM M06/M24 A3050 RMK SLP340 T10601240 IEM_DS3505
ZBAA,1996-12-17 23:00,ZBAA 172300Z AUTO 31016KT 6SM M05/M25 A3050 RMK SLP340 T10501250 IEM_DS3505
ZBAA,1996-12-18 00:00,ZBAA 180000Z AUTO 34004KT 5SM M08/M18 A3050 RMK SLP344 T10831177 57005 IEM_DS3505
ZBAA,1996-12-18 01:00,ZBAA 180100Z AUTO 29006KT 7SM M05/M24 A3050 RMK SLP340 T10501240 IEM_DS3505
ZBAA,1996-12-18 02:00,ZBAA 180200Z AUTO 29006KT 7SM M03/M24 A3047 RMK SLP329 T10301240 IEM_DS3505
ZBAA,1996-12-18 03:00,ZBAA 180300Z AUTO 25006KT 12SM M00/M25 A3045 RMK SLP328 T10051249 57015 IEM_DS3505
ZBAA,1996-12-18 04:00,ZBAA 180400Z AUTO 26010KT 7SM 00/M27 A3042 RMK SLP311 T00001270 IEM_DS3505
ZBAA,1996-12-18 05:00,ZBAA 180500Z AUTO 30014KT 7SM 01/M27 A3039 RMK SLP301 T00101270 IEM_DS3505
ZBAA,1996-12-18 06:00,ZBAA 180600Z AUTO 18010KT 12SM 01/M27 A3036 RMK SLP294 T00121271 57034 IEM_DS3505
ZBAA,1996-12-18 07:00,ZBAA 180700Z AUTO 29014KT 7SM 02/M25 A3036 RMK SLP290 T00201250 IEM_DS3505
ZBAA,1996-12-18 08:00,ZBAA 180800Z AUTO 19006KT 7SM 00/M25 A3033 RMK SLP280 T00001250 IEM_DS3505
ZBAA,1996-12-18 09:00,ZBAA 180900Z AUTO 20008KT 12SM 00/M24 A3033 RMK SLP285 T00011235 57009 IEM_DS3505
ZBAA,1996-12-18 10:00,ZBAA 181000Z AUTO 22008KT 7SM M01/M22 A3033 RMK SLP280 T10101220 IEM_DS3505
ZBAA,1996-12-18 11:00,ZBAA 181100Z AUTO 22008KT 7SM M02/M22 A3033 RMK SLP281 T10201220 IEM_DS3505
ZBAA,1996-12-18 12:00,ZBAA 181200Z AUTO 18006KT 12SM M01/M26 A3036 RMK SLP288 T10101256 52003 IEM_DS3505
ZBAA,1996-12-18 13:00,ZBAA 181300Z AUTO 22008KT 7SM M01/M21 A3036 RMK SLP290 T10101210 IEM_DS3505
ZBAA,1996-12-18 14:00,ZBAA 181400Z AUTO 22006KT 7SM M02/M21 A3033 RMK SLP281 T10201210 IEM_DS3505
ZBAA,1996-12-18 15:00,ZBAA 181500Z AUTO 16008KT 12SM M02/M20 A3036 RMK SLP286 T10241204 57002 IEM_DS3505
ZBAA,1996-12-18 16:00,ZBAA 181600Z AUTO 26004KT 7SM M02/M19 A3033 RMK SLP281 T10201190 IEM_DS3505
ZBAA,1996-12-18 17:00,ZBAA 181700Z AUTO 25004KT 7SM M03/M18 A3033 RMK SLP281 T10301180 IEM_DS3505
ZBAA,1996-12-18 18:00,ZBAA 181800Z AUTO 18004KT 9SM M04/M18 A3033 RMK SLP283 T10361178 57002 IEM_DS3505
ZBAA,1996-12-18 19:00,ZBAA 181900Z AUTO 09002KT 4SM M08/M16 A3033 RMK SLP282 T10801160 IEM_DS3505
ZBAA,1996-12-18 20:00,ZBAA 182000Z AUTO ////02KT 4SM M07/M16 A3033 RMK SLP282 T10701160 IEM_DS3505
ZBAA,1996-12-18 21:00,ZBAA 182100Z AUTO 11004KT 7SM M04/M14 A3030 RMK SLP277 T10421138 57007 IEM_DS3505
ZBAA,1996-12-18 22:00,ZBAA 182200Z AUTO 35004KT 4SM M07/M16 A3033 RMK SLP282 T10701160 IEM_DS3505
ZBAA,1996-12-18 23:00,ZBAA 182300Z AUTO 30010KT 5SM M01/M09 A3033 RMK SLP280 T10101090 IEM_DS3505
ZBAA,1996-12-19 00:00,ZBAA 190000Z AUTO 09002KT 5SM M02/M15 A3036 RMK SLP291 T10191147 52014 IEM_DS3505
ZBAA,1996-12-19 01:00,ZBAA 190100Z AUTO ////04KT 7SM 01/M17 A3039 RMK SLP301 T00101170 IEM_DS3505
ZBAA,1996-12-19 02:00,ZBAA 190200Z AUTO 33006KT 7SM 03/M18 A3039 RMK SLP301 T00301180 IEM_DS3505
ZBAA,1996-12-19 03:00,ZBAA 190300Z AUTO 07002KT 9SM 05/M15 A3039 RMK SLP297 T00541146 52007 IEM_DS3505
ZBAA,1996-12-19 04:00,ZBAA 190400Z AUTO 31014KT 7SM 05/M19 A3036 RMK SLP289 T00501190 IEM_DS3505
ZBAA,1996-12-19 05:00,ZBAA 190500Z AUTO 31016G25KT 7SM 06/M19 A3033 RMK SLP279 T00601190 IEM_DS3505
ZBAA,1996-12-19 06:00,ZBAA 190600Z AUTO 22008G27KT 6SM 07/M18 A3033 RMK SLP279 T00691177 57018 IEM_DS3505
ZBAA,1996-12-19 07:00,ZBAA 190700Z AUTO 30010KT 7SM 07/M17 A3030 RMK SLP268 T00701170 IEM_DS3505
ZBAA,1996-12-19 09:00,ZBAA 190900Z AUTO 20008KT 7SM 05/M14 A3032 RMK SLP275 T00461144 57004 IEM_DS3505
ZBAA,1996-12-19 12:00,ZBAA 191200Z AUTO 20004KT 9SM 02/M13 A3033 RMK SLP281 T00241127 52006 IEM_DS3505
ZBAA,1996-12-19 15:00,ZBAA 191500Z AUTO 22006KT 9SM 01/M12 A3033 RMK SLP281 T00141122 52001 IEM_DS3505
ZBAA,1996-12-19 18:00,ZBAA 191800Z AUTO 00000KT 7SM M02/M13 A3032 RMK SLP275 T10231126 57006 IEM_DS3505
ZBAA,1996-12-19 20:00,ZBAA 192000Z AUTO ////02KT 2 1/2SM M06/M11 A3033 RMK SLP282 T10601110 IEM_DS3505
ZBAA,1996-12-19 21:00,ZBAA 192100Z AUTO ////02KT 3SM M05/M12 A3030 RMK SLP271 T10501120 IEM_DS3505
ZBAA,1996-12-19 22:00,ZBAA 192200Z AUTO 24004KT 4SM M05/M12 A3030 RMK SLP271 T10501120 IEM_DS3505
ZBAA,1996-12-19 23:00,ZBAA 192300Z AUTO ////04KT 5SM M07/M12 A3030 RMK SLP272 T10701120 IEM_DS3505
ZBAA,1996-12-20 00:00,ZBAA 200000Z AUTO 27002KT 6SM M02/M13 A3033 RMK SLP280 T10241130 52004 IEM_DS3505
ZBAA,1996-12-20 01:00,ZBAA 200100Z AUTO ////04KT 6SM M01/M13 A3033 RMK SLP280 T10101130 IEM_DS3505
ZBAA,1996-12-20 02:00,ZBAA 200200Z AUTO 31008KT 6SM 04/M15 A3033 RMK SLP279 T00401150 IEM_DS3505
ZBAA,1996-12-20 03:00,ZBAA 200300Z AUTO 02004KT 7SM 06/M13 A3033 RMK SLP279 T00551129 54000 IEM_DS3505
ZBAA,1996-12-20 05:00,ZBAA 200500Z AUTO 31014G25KT 6SM 08/M19 A3027 RMK SLP258 T00801190 IEM_DS3505
ZBAA,1996-12-20 06:00,ZBAA 200600Z AUTO 34004KT 9SM 09/M15 A3024 RMK SLP257 T00881148 57022 IEM_DS3505
ZBAA,1996-12-20 07:00,ZBAA 200700Z AUTO 31012KT 7SM 08/M20 A3024 RMK SLP248 T00801200 IEM_DS3505
ZBAA,1996-12-20 08:00,ZBAA 200800Z AUTO 31010KT 7SM 08/M19 A3024 RMK SLP248 T00801190 IEM_DS3505
ZBAA,1996-12-20 09:00,ZBAA 200900Z AUTO 34004KT 11SM 06/M14 A3024 RMK SLP254 T00631136 57004 IEM_DS3505
ZBAA,1996-12-20 10:00,ZBAA 201000Z AUTO 31014KT 7SM 06/M20 A3024 RMK SLP248 T00601200 IEM_DS3505
ZBAA,1996-12-20 11:00,ZBAA 201100Z AUTO 31010KT 7SM 04/M19 A3024 RMK SLP249 T00401190 IEM_DS3505
ZBAA,1996-12-20 12:00,ZBAA 201200Z AUTO 27004KT 9SM 01/M11 A3024 RMK SLP254 T00081110 54000 IEM_DS3505
ZBAA,1996-12-20 13:00,ZBAA 201300Z AUTO 31006KT 7SM 01/M18 A3024 RMK SLP250 T00101180 IEM_DS3505
ZBAA,1996-12-20 14:00,ZBAA 201400Z AUTO 32010KT 7SM 04/M18 A3024 RMK SLP249 T00401180 IEM_DS3505
ZBAA,1996-12-20 15:00,ZBAA 201500Z AUTO 00000KT 6SM M01/M10 A3024 RMK SLP251 T10071098 57002 IEM_DS3505
ZBAA,1996-12-20 16:00,ZBAA 201600Z AUTO ////02KT 7SM M01/M14 A3024 RMK SLP250 T10101140 IEM_DS3505
ZBAA,1996-12-20 17:00,ZBAA 201700Z AUTO ////02KT 7SM M01/M15 A3021 RMK SLP240 T10101150 IEM_DS3505
ZBAA,1996-12-20 18:00,ZBAA 201800Z AUTO 00000KT 4SM M02/M10 A3021 RMK SLP238 T10251105 57013 IEM_DS3505
ZBAA,1996-12-20 19:00,ZBAA 201900Z AUTO ////02KT 7SM M03/M15 A3018 RMK SLP231 T10301150 IEM_DS3505
ZBAA,1996-12-20 20:00,ZBAA 202000Z AUTO ////02KT 7SM M04/M13 A3018 RMK SLP231 T10401130 IEM_DS3505
ZBAA,1996-12-20 21:00,ZBAA 202100Z AUTO 00000KT 3SM M04/M10 A3015 RMK SLP225 T10361105 57013 IEM_DS3505
ZBAA,1996-12-20 22:00,ZBAA 202200Z AUTO 16002KT 7SM M06/M13 A3015 RMK SLP221 T10601130 IEM_DS3505
ZBAA,1996-12-20 23:00,ZBAA 202300Z AUTO 00000KT 7SM M07/M12 A3012 RMK SLP212 T10701120 IEM_DS3505
ZBAA,1996-12-21 00:00,ZBAA 210000Z AUTO 00000KT 2 1/2SM M03/M09 A3012 RMK SLP211 T10341092 57015 IEM_DS3505
ZBAA,1996-12-21 02:00,ZBAA 210200Z AUTO 35002KT 5SM M02/M10 A3012 RMK SLP210 T10201100 IEM_DS3505
ZBAA,1996-12-21 03:00,ZBAA 210300Z AUTO 20002KT 2SM 06/M13 A3009 RMK SLP200 T00581133 57010 IEM_DS3505
ZBAA,1996-12-21 04:00,ZBAA 210400Z AUTO 00000KT 5SM 04/M13 A3003 RMK SLP177 T00401130 IEM_DS3505
ZBAA,1996-12-21 05:00,ZBAA 210500Z AUTO ////04KT 5SM 06/M14 A3000 RMK SLP167 T00601140 IEM_DS3505
ZBAA,1996-12-21 06:00,ZBAA 210600Z AUTO 20006KT 5SM 09/M13 A2997 RMK SLP162 T00861128 57038 IEM_DS3505
ZBAA,1996-12-21 07:00,ZBAA 210700Z AUTO 19008KT 2 1/2SM 07/M13 A2994 RMK SLP147 T00701130 IEM_DS3505
ZBAA,1996-12-21 08:00,ZBAA 210800Z AUTO 22008G17KT 2 1/2SM 06/M13 A2994 RMK SLP147 T00601130 IEM_DS3505
ZBAA,1996-12-21 09:00,ZBAA 210900Z AUTO 22006G17KT 4SM 06/M11 A2994 RMK SLP153 T00591110 57009 IEM_DS3505
ZBAA,1996-12-21 10:00,ZBAA 211000Z AUTO 23008KT 4SM 04/M13 A2991 RMK SLP137 T00401130 IEM_DS3505
ZBAA,1996-12-21 11:00,ZBAA 211100Z AUTO ////04KT 4SM 02/M13 A2994 RMK SLP148 T00201130 IEM_DS3505
ZBAA,1996-12-21 12:00,ZBAA 211200Z AUTO 29014KT 6SM 08/M19 A2997 RMK SLP167 T00791186 52014 IEM_DS3505
ZBAA,1996-12-21 13:00,ZBAA 211300Z AUTO 29019G29KT 4SM 07/M22 A3000 RMK SLP167 T00701220 IEM_DS3505
ZBAA,1996-12-21 14:00,ZBAA 211400Z AUTO 29016G27KT 7SM 05/M21 A3000 RMK SLP167 T00501210 IEM_DS3505
ZBAA,1996-12-21 15:00,ZBAA 211500Z AUTO 32016KT 9SM 05/M19 A3003 RMK SLP191 T00481189 52025 IEM_DS3505
ZBAA,1996-12-21 16:00,ZBAA 211600Z AUTO 29012KT 7SM 03/M18 A3006 RMK SLP188 T00301180 IEM_DS3505
ZBAA,1996-12-21 17:00,ZBAA 211700Z AUTO 30010KT 6SM 03/M17 A3006 RMK SLP188 T00301170 IEM_DS3505
ZBAA,1996-12-21 18:00,ZBAA 211800Z AUTO 29014KT 19SM 02/M18 A3009 RMK SLP202 T00221185 40086//// 52011 IEM_DS3505
ZBAA,1996-12-21 19:00,ZBAA 211900Z AUTO 31012KT 6SM 01/M16 A3009 RMK SLP198 T00101160 IEM_DS3505
ZBAA,1996-12-21 20:00,ZBAA 212000Z AUTO 33019G37KT 7SM 01/M17 A3012 RMK SLP209 T00101170 IEM_DS3505
ZBAA,1996-12-21 21:00,ZBAA 212100Z AUTO 34008G33KT 19SM 01/M17 A3015 RMK SLP224 T00111174 52021 IEM_DS3505
ZBAA,1996-12-21 22:00,ZBAA 212200Z AUTO 31021G31KT 7SM 00/M17 A3018 RMK SLP230 T00001170 IEM_DS3505
ZBAA,1996-12-21 23:00,ZBAA 212300Z AUTO 31021KT 7SM 00/M17 A3024 RMK SLP250 T00001170 IEM_DS3505
ZBAA,1996-12-22 00:00,ZBAA 220000Z AUTO 34010KT 16SM M01/M17 A3027 RMK SLP259 T10081167 52035 IEM_DS3505
ZBAA,1996-12-22 01:00,ZBAA 220100Z AUTO 32025G37KT 7SM 00/M18 A3030 RMK SLP270 T00001180 IEM_DS3505
ZBAA,1996-12-22 02:00,ZBAA 220200Z AUTO 33025G35KT 7SM 02/M17 A3033 RMK SLP280 T00201170 IEM_DS3505
ZBAA,1996-12-22 03:00,ZBAA 220300Z AUTO 34010G39KT 19SM 02/M20 A3033 RMK SLP281 T00191199 52022 IEM_DS3505
ZBAA,1996-12-22 04:00,ZBAA 220400Z AUTO 32025G35KT 7SM 03/M18 A3033 RMK SLP279 T00301180 IEM_DS3505
ZBAA,1996-12-22 05:00,ZBAA 220500Z AUTO 32021G35KT 7SM 04/M19 A3033 RMK SLP279 T00401190 IEM_DS3505
ZBAA,1996-12-22 06:00,ZBAA 220600Z AUTO 29010G33KT 19SM 04/M17 A3033 RMK SLP290 T00371170 52009 IEM_DS3505
ZBAA,1996-12-22 07:00,ZBAA 220700Z AUTO 32019KT 7SM 04/M18 A3033 RMK SLP279 T00401180 IEM_DS3505
ZBAA,1996-12-22 08:00,ZBAA 220800Z AUTO 31012KT 7SM 03/M18 A3033 RMK SLP279 T00301180 IEM_DS3505
ZBAA,1996-12-22 09:00,ZBAA 220900Z AUTO 34006KT 19SM 02/M16 A3036 RMK SLP287 T00231158 57004 IEM_DS3505
ZBAA,1996-12-22 10:00,ZBAA 221000Z AUTO 31008KT 7SM 01/M18 A3036 RMK SLP290 T00101180 IEM_DS3505
ZBAA,1996-12-22 11:00,ZBAA 221100Z AUTO 33008KT 7SM M01/M17 A3036 RMK SLP290 T10101170 IEM_DS3505
ZBAA,1996-12-22 12:00,ZBAA 221200Z AUTO 00000KT 12SM M02/M16 A3033 RMK SLP283 T10171157 57004 IEM_DS3505
ZBAA,1996-12-22 13:00,ZBAA 221300Z AUTO ////04KT 7SM M02/M16 A3033 RMK SLP281 T10201160 IEM_DS3505
ZBAA,1996-12-22 14:00,ZBAA 221400Z AUTO 00000KT 7SM M03/M16 A3033 RMK SLP281 T10301160 IEM_DS3505
ZBAA,1996-12-22 15:00,ZBAA 221500Z AUTO 18008KT 12SM 00/M19 A3033 RMK SLP280 T00011187 57003 IEM_DS3505
ZBAA,1996-12-22 16:00,ZBAA 221600Z AUTO ////02KT 7SM M06/M14 A3030 RMK SLP272 T10601140 IEM_DS3505
ZBAA,1996-12-22 17:00,ZBAA 221700Z AUTO 09002KT 5SM M06/M14 A3030 RMK SLP272 T10601140 IEM_DS3505
ZBAA,1996-12-22 18:00,ZBAA 221800Z AUTO 20006KT 19SM M01/M16 A3027 RMK SLP258 T10131163 57022 IEM_DS3505
ZBAA,1996-12-22 19:00,ZBAA 221900Z AUTO ////02KT 5SM M07/M13 A3027 RMK SLP262 T10701130 IEM_DS3505
ZBAA,1996-12-22 20:00,ZBAA 222000Z AUTO ////02KT 7SM M08/M14 A3024 RMK SLP252 T10801140 IEM_DS3505
ZBAA,1996-12-22 21:00,ZBAA 222100Z AUTO 32002KT 12SM M04/M13 A3021 RMK SLP238 T10351131 57020 IEM_DS3505
ZBAA,1996-12-22 22:00,ZBAA 222200Z AUTO ////02KT 7SM M06/M15 A3018 RMK SLP231 T10601150 IEM_DS3505
ZBAA,1996-12-22 23:00,ZBAA 222300Z AUTO ////02KT 7SM M07/M13 A3015 RMK SLP222 T10701130 IEM_DS3505
ZBAA,1996-12-23 00:00,ZBAA 230000Z AUTO 36004KT 6SM M04/M15 A3015 RMK SLP219 T10421151 57019 IEM_DS3505
ZBAA,1996-12-23 01:00,ZBAA 230100Z AUTO 00000KT 5SM M06/M11 A3015 RMK SLP221 T10601110 IEM_DS3505
ZBAA,1996-12-23 02:00,ZBAA 230200Z AUTO ////02KT 7SM M04/M13 A3012 RMK SLP211 T10401130 IEM_DS3505
ZBAA,1996-12-23 03:00,ZBAA 230300Z AUTO 04006KT 4SM 00/M14 A3012 RMK SLP206 T00011141 57013 IEM_DS3505
ZBAA,1996-12-23 04:00,ZBAA 230400Z AUTO ////02KT 7SM 00/M13 A3006 RMK SLP189 T00001130 IEM_DS3505
ZBAA,1996-12-23 05:00,ZBAA 230500Z AUTO 00000KT 6SM 03/M13 A3003 RMK SLP169 T00291134 57036 IEM_DS3505
ZBAA,1996-12-23 06:00,ZBAA 230600Z AUTO 00000KT 6SM 03/M13 A2997 RMK SLP169 T00291134 57036 IEM_DS3505
ZBAA,1996-12-23 07:00,ZBAA 230700Z AUTO ////02KT 4SM 03/M13 A2997 RMK SLP158 T00301130 IEM_DS3505
ZBAA,1996-12-23 08:00,ZBAA 230800Z AUTO ////02KT 4SM 02/M13 A2997 RMK SLP158 T00201130 IEM_DS3505
ZBAA,1996-12-23 09:00,ZBAA 230900Z AUTO 20004KT 2SM 02/M11 A2997 RMK SLP158 T00251111 57011 IEM_DS3505
ZBAA,1996-12-23 10:00,ZBAA 231000Z AUTO ////02KT 4SM M01/M11 A2997 RMK SLP159 T10101110 IEM_DS3505
ZBAA,1996-12-23 12:00,ZBAA 231200Z AUTO 34002KT 2SM M00/M10 A2997 RMK SLP159 T10041097 54000 IEM_DS3505
ZBAA,1996-12-23 13:00,ZBAA 231300Z AUTO 01004KT 5SM M03/M11 A2997 RMK SLP159 T10301110 IEM_DS3505
ZBAA,1996-12-23 14:00,ZBAA 231400Z AUTO 36002KT 4SM M03/M11 A2994 RMK SLP149 T10301110 IEM_DS3505
ZBAA,1996-12-23 15:00,ZBAA 231500Z AUTO 04002KT 2 1/2SM M01/M12 A2994 RMK SLP149 T10061116 57009 IEM_DS3505
ZBAA,1996-12-23 16:00,ZBAA 231600Z AUTO ////02KT 4SM M03/M11 A2994 RMK SLP149 T10301110 IEM_DS3505
ZBAA,1996-12-23 17:00,ZBAA 231700Z AUTO 33004KT 4SM M04/M12 A2991 RMK SLP139 T10401120 IEM_DS3505
ZBAA,1996-12-23 18:00,ZBAA 231800Z AUTO 29002KT 2 1/2SM M04/M10 A2991 RMK SLP140 T10351102 57009 IEM_DS3505
ZBAA,1996-12-23 19:00,ZBAA 231900Z AUTO 34004KT 4SM M05/M12 A2991 RMK SLP139 T10501120 IEM_DS3505
ZBAA,1996-12-23 20:00,ZBAA 232000Z AUTO ////04KT 4SM M04/M12 A2988 RMK SLP129 T10401120 IEM_DS3505
ZBAA,1996-12-23 21:00,ZBAA 232100Z AUTO 32002KT 2 1/2SM M04/M10 A2988 RMK SLP128 T10421097 57012 IEM_DS3505
ZBAA,1996-12-23 22:00,ZBAA 232200Z AUTO 34002KT 4SM M05/M11 A2988 RMK SLP129 T10501110 IEM_DS3505
ZBAA,1996-12-23 23:00,ZBAA 232300Z AUTO ////04KT 4SM M05/M10 A2988 RMK SLP129 T10501100 IEM_DS3505
ZBAA,1996-12-24 00:00,ZBAA 240000Z AUTO 00000KT 2 1/2SM M04/M10 A2991 RMK SLP139 T10401105 52010 IEM_DS3505
ZBAA,1996-12-24 01:00,ZBAA 240100Z AUTO 34004KT 4SM M03/M09 A2994 RMK SLP149 T10301090 IEM_DS3505
ZBAA,1996-12-24 02:00,ZBAA 240200Z AUTO ////04KT 4SM 01/M10 A2994 RMK SLP148 T00101100 IEM_DS3505
ZBAA,1996-12-24 03:00,ZBAA 240300Z AUTO 00000KT 4SM 08/M08 A2997 RMK SLP157 T00761080 52020 IEM_DS3505
ZBAA,1996-12-24 04:00,ZBAA 240400Z AUTO 33006KT 4SM 05/M09 A2997 RMK SLP157 T00501090 IEM_DS3505
ZBAA,1996-12-24 05:00,ZBAA 240500Z AUTO ////04KT 4SM 09/M09 A2994 RMK SLP146 T00901090 IEM_DS3505
ZBAA,1996-12-24 06:00,ZBAA 240600Z AUTO 27004KT 6SM 15/M11 A2994 RMK SLP152 T01491110 57005 IEM_DS3505
ZBAA,1996-12-24 07:00,ZBAA 240700Z AUTO 28012KT 6SM 13/M11 A2994 RMK SLP145 T01301110 IEM_DS3505
ZBAA,1996-12-24 08:00,ZBAA 240800Z AUTO 27008G17KT 6SM 12/M12 A2997 RMK SLP155 T01201120 IEM_DS3505
ZBAA,1996-12-24 09:00,ZBAA 240900Z AUTO 29012KT 9SM 12/M12 A3000 RMK SLP171 T01251121 52019 IEM_DS3505
ZBAA,1996-12-24 10:00,ZBAA 241000Z AUTO 03006KT 6SM 08/M10 A3003 RMK SLP176 T00801100 IEM_DS3505
ZBAA,1996-12-24 11:00,ZBAA 241100Z AUTO 34014KT 6SM 09/M20 A3009 RMK SLP196 T00901200 IEM_DS3505
ZBAA,1996-12-24 12:00,ZBAA 241200Z AUTO 34004KT 12SM 10/M13 A3012 RMK SLP210 T00971127 52038 IEM_DS3505
ZBAA,1996-12-24 13:00,ZBAA 241300Z AUTO 04006KT 6SM 08/M18 A3018 RMK SLP228 T00801180 IEM_DS3505
ZBAA,1996-12-24 14:00,ZBAA 241400Z AUTO ////04KT 6SM 06/M16 A3021 RMK SLP238 T00601160 IEM_DS3505
ZBAA,1996-12-24 15:00,ZBAA 241500Z AUTO 34002KT 12SM 03/M10 A3024 RMK SLP251 T00281101 52041 IEM_DS3505
ZBAA,1996-12-24 16:00,ZBAA 241600Z AUTO ////02KT 7SM 04/M14 A3027 RMK SLP259 T00401140 IEM_DS3505
ZBAA,1996-12-24 17:00,ZBAA 241700Z AUTO ////04KT 7SM 00/M12 A3027 RMK SLP260 T00001120 IEM_DS3505
ZBAA,1996-12-24 18:00,ZBAA 241800Z AUTO 11008KT 12SM 03/M07 A3030 RMK SLP263 T00321074 52013 IEM_DS3505
ZBAA,1996-12-24 19:00,ZBAA 241900Z AUTO 12002KT 7SM 00/M07 A3030 RMK SLP270 T00001070 IEM_DS3505
ZBAA,1996-12-24 20:00,ZBAA 242000Z AUTO ////02KT 7SM 00/M07 A3033 RMK SLP280 T00001070 IEM_DS3505
ZBAA,1996-12-24 21:00,ZBAA 242100Z AUTO 20006KT 7SM 02/M06 A3033 RMK SLP277 T00171062 52014 IEM_DS3505
ZBAA,1996-12-24 22:00,ZBAA 242200Z AUTO 09002KT 7SM M05/M08 A3036 RMK SLP292 T10501080 IEM_DS3505
ZBAA,1996-12-24 23:00,ZBAA 242300Z AUTO ////02KT 7SM M05/M08 A3036 RMK SLP292 T10501080 IEM_DS3505
ZBAA,1996-12-25 00:00,ZBAA 250000Z AUTO 18006KT 6SM 02/M05 A3036 RMK SLP287 T00221047 52009 IEM_DS3505
ZBAA,1996-12-25 01:00,ZBAA 250100Z AUTO ////04KT 5SM M02/M06 A3039 RMK SLP302 T10201060 IEM_DS3505
ZBAA,1996-12-25 02:00,ZBAA 250200Z AUTO 11006KT 6SM 01/M05 A3039 RMK SLP301 T00101050 IEM_DS3505
ZBAA,1996-12-25 03:00,ZBAA 250300Z AUTO 16008KT 4SM 04/M04 A3036 RMK SLP289 T00441043 52002 IEM_DS3505
ZBAA,1996-12-25 04:00,ZBAA 250400Z AUTO 16006KT 7SM 05/M04 A3033 RMK SLP279 T00501040 IEM_DS3505
ZBAA,1996-12-25 05:00,ZBAA 250500Z AUTO 18010KT 7SM 06/M04 A3030 RMK SLP269 T00601040 IEM_DS3505
ZBAA,1996-12-25 06:00,ZBAA 250600Z AUTO 20010KT 7SM 06/M06 A3027 RMK SLP258 T00611061 57031 IEM_DS3505
ZBAA,1996-12-25 07:00,ZBAA 250700Z AUTO 19010KT 6SM 06/M05 A3027 RMK SLP259 T00601050 IEM_DS3505
ZBAA,1996-12-25 09:00,ZBAA 250900Z AUTO 20010KT 7SM 05/M06 A3024 RMK SLP255 T00481061 57003 IEM_DS3505
ZBAA,1996-12-25 10:00,ZBAA 251000Z AUTO 16004KT 6SM 02/M05 A3027 RMK SLP260 T00201050 IEM_DS3505
ZBAA,1996-12-25 11:00,ZBAA 251100Z AUTO 14002KT 6SM 00/M05 A3027 RMK SLP260 T00001050 IEM_DS3505
ZBAA,1996-12-25 12:00,ZBAA 251200Z AUTO 18006KT 9SM 03/M05 A3027 RMK SLP256 T00271051 52001 IEM_DS3505
ZBAA,1996-12-25 13:00,ZBAA 251300Z AUTO 13004KT 6SM M01/M05 A3027 RMK SLP260 T10101050 IEM_DS3505
ZBAA,1996-12-25 14:00,ZBAA 251400Z AUTO ////02KT 5SM M02/M05 A3027 RMK SLP261 T10201050 IEM_DS3505
ZBAA,1996-12-25 15:00,ZBAA 251500Z AUTO 00000KT 7SM 00/M04 A3027 RMK SLP256 T00041044 54000 IEM_DS3505
ZBAA,1996-12-25 16:00,ZBAA 251600Z AUTO 00000KT 3SM A3027 RMK IEM_DS3505
ZBAA,1996-12-25 18:00,ZBAA 251800Z AUTO 00000KT 4SM M02/M05 A3024 RMK SLP248 T10221053 57008 IEM_DS3505
ZBAA,1996-12-25 20:00,ZBAA 252000Z AUTO 34002KT 3SM M04/M04 A3024 RMK SLP251 T10401040 IEM_DS3505
ZBAA,1996-12-25 21:00,ZBAA 252100Z AUTO 36002KT 2 1/2SM M03/M04 A3021 RMK SLP242 T10281045 57007 IEM_DS3505
ZBAA,1996-12-25 22:00,ZBAA 252200Z AUTO 00000KT 3SM M05/M06 A3021 RMK SLP241 T10501060 IEM_DS3505
ZBAA,1996-12-25 23:00,ZBAA 252300Z AUTO 00000KT 2 1/2SM M05/M06 A3021 RMK SLP241 T10501060 IEM_DS3505
ZBAA,1996-12-26 00:00,ZBAA 260000Z AUTO 00000KT 2SM M03/M05 A3021 RMK SLP240 T10321054 57002 IEM_DS3505
ZBAA,1996-12-26 01:00,ZBAA 260100Z AUTO 00000KT 1SM M05/M05 A3021 RMK SLP241 T10501050 IEM_DS3505
ZBAA,1996-12-26 02:00,ZBAA 260200Z AUTO 00000KT 1 1/4SM M02/M03 A3021 RMK SLP240 T10201030 IEM_DS3505
ZBAA,1996-12-26 03:00,ZBAA 260300Z AUTO 00000KT 2SM 01/M02 A3021 RMK SLP237 T00111025 57003 IEM_DS3505
ZBAA,1996-12-26 04:00,ZBAA 260400Z AUTO ////02KT 2SM 01/M03 A3015 RMK SLP219 T00101030 IEM_DS3505
ZBAA,1996-12-26 05:00,ZBAA 260500Z AUTO ////02KT 2 1/2SM 03/M04 A3012 RMK SLP209 T00301040 IEM_DS3505
ZBAA,1996-12-26 06:00,ZBAA 260600Z AUTO 34002KT 2 1/2SM 04/M04 A3009 RMK SLP203 T00371037 57033 IEM_DS3505
ZBAA,1996-12-26 07:00,ZBAA 260700Z AUTO ////04KT 3SM 04/M04 A3009 RMK SLP198 T00401040 IEM_DS3505
ZBAA,1996-12-26 08:00,ZBAA 260800Z AUTO ////02KT 3SM 04/M04 A3009 RMK SLP198 T00401040 IEM_DS3505
ZBAA,1996-12-26 09:00,ZBAA 260900Z AUTO 00000KT 2SM 03/M03 A3009 RMK SLP200 T00301032 57004 IEM_DS3505
ZBAA,1996-12-26 10:00,ZBAA 261000Z AUTO 03002KT 3SM 00/M04 A3009 RMK SLP199 T00001040 IEM_DS3505
ZBAA,1996-12-26 11:00,ZBAA 261100Z AUTO 02002KT 3SM M01/M04 A3009 RMK SLP199 T10101040 IEM_DS3505
ZBAA,1996-12-26 12:00,ZBAA 261200Z AUTO 36004KT 2SM 00/M03 A3009 RMK SLP206 T00021032 52006 IEM_DS3505
ZBAA,1996-12-26 13:00,ZBAA 261300Z AUTO 33002KT 4SM M01/M04 A3009 RMK SLP199 T10101040 IEM_DS3505
ZBAA,1996-12-26 14:00,ZBAA 261400Z AUTO ////02KT 2 1/2SM M01/M04 A3009 RMK SLP199 T10101040 IEM_DS3505
ZBAA,1996-12-26 15:00,ZBAA 261500Z AUTO 29002KT 2SM M02/M04 A3012 RMK SLP210 T10151044 52004 IEM_DS3505
ZBAA,1996-12-26 17:00,ZBAA 261700Z AUTO 35006KT 2SM M03/M05 A3012 RMK SLP210 T10301050 IEM_DS3505
ZBAA,1996-12-26 18:00,ZBAA 261800Z AUTO 00000KT 1 1/4SM M02/M05 A3015 RMK SLP217 T10251049 52007 IEM_DS3505
ZBAA,1996-12-26 19:00,ZBAA 261900Z AUTO 34004KT 2 1/2SM M04/M05 A3015 RMK SLP221 T10401050 IEM_DS3505
ZBAA,1996-12-26 20:00,ZBAA 262000Z AUTO 35006KT 2SM M03/M05 A3015 RMK SLP221 T10301050 IEM_DS3505
ZBAA,1996-12-26 21:00,ZBAA 262100Z AUTO 34004KT 3SM M03/M05 A3018 RMK SLP231 T10301048 52014 IEM_DS3505
ZBAA,1996-12-26 22:00,ZBAA 262200Z AUTO ////04KT 2SM M05/M06 A3021 RMK SLP241 T10501060 IEM_DS3505
ZBAA,1996-12-26 23:00,ZBAA 262300Z AUTO ////04KT 2 1/2SM M03/M06 A3024 RMK SLP251 T10301060 IEM_DS3505
ZBAA,1996-12-27 00:00,ZBAA 270000Z AUTO 07006KT 6SM 01/M07 A3027 RMK SLP258 T00071072 52027 IEM_DS3505
ZBAA,1996-12-27 01:00,ZBAA 270100Z AUTO 03006KT 6SM 00/M06 A3030 RMK SLP270 T00001060 IEM_DS3505
ZBAA,1996-12-27 02:00,ZBAA 270200Z AUTO ////04KT 7SM 04/M05 A3033 RMK SLP279 T00401050 IEM_DS3505
ZBAA,1996-12-27 03:00,ZBAA 270300Z AUTO 07008KT 9SM 07/M11 A3033 RMK SLP275 T00671107 52018 IEM_DS3505
ZBAA,1996-12-27 04:00,ZBAA 270400Z AUTO ////04KT 7SM 08/M10 A3030 RMK SLP268 T00801100 IEM_DS3505
ZBAA,1996-12-27 05:00,ZBAA 270500Z AUTO ////02KT 7SM 10/M11 A3027 RMK SLP258 T01001110 IEM_DS3505
ZBAA,1996-12-27 06:00,ZBAA 270600Z AUTO 18006KT 7SM 10/M09 A3024 RMK SLP257 T00951094 57018 IEM_DS3505
ZBAA,1996-12-27 07:00,ZBAA 270700Z AUTO 21008KT 7SM 10/M11 A3024 RMK SLP247 T01001110 IEM_DS3505
ZBAA,1996-12-27 08:00,ZBAA 270800Z AUTO 19006KT 7SM 08/M10 A3024 RMK SLP248 T00801100 IEM_DS3505
ZBAA,1996-12-27 09:00,ZBAA 270900Z AUTO 20008KT 7SM 07/M08 A3024 RMK SLP252 T00671079 57005 IEM_DS3505
ZBAA,1996-12-27 10:00,ZBAA 271000Z AUTO 22006KT 4SM 05/M08 A3024 RMK SLP249 T00501080 IEM_DS3505
ZBAA,1996-12-27 11:00,ZBAA 271100Z AUTO ////04KT 4SM 01/M08 A3024 RMK SLP250 T00101080 IEM_DS3505
ZBAA,1996-12-27 12:00,ZBAA 271200Z AUTO 20006KT 7SM 04/M07 A3024 RMK SLP247 T00351073 57005 IEM_DS3505
ZBAA,1996-12-27 13:00,ZBAA 271300Z AUTO 15004KT 4SM M02/M07 A3021 RMK SLP240 T10201070 IEM_DS3505
ZBAA,1996-12-27 14:00,ZBAA 271400Z AUTO 12002KT 4SM M02/M07 A3021 RMK SLP240 T10201070 IEM_DS3505
ZBAA,1996-12-27 15:00,ZBAA 271500Z AUTO 16002KT 6SM 01/M06 A3021 RMK SLP239 T00121064 57008 IEM_DS3505
ZBAA,1996-12-27 16:00,ZBAA 271600Z AUTO 11002KT 4SM M02/M07 A3021 RMK SLP240 T10201070 IEM_DS3505
ZBAA,1996-12-27 17:00,ZBAA 271700Z AUTO ////02KT 3SM M03/M07 A3018 RMK SLP231 T10301070 IEM_DS3505
ZBAA,1996-12-27 18:00,ZBAA 271800Z AUTO 00000KT 6SM M02/M07 A3018 RMK SLP232 T10201066 57007 IEM_DS3505
ZBAA,1996-12-27 20:00,ZBAA 272000Z AUTO 02002KT 2 1/2SM M05/M07 A3015 RMK SLP221 T10501070 IEM_DS3505
ZBAA,1996-12-27 21:00,ZBAA 272100Z AUTO 36002KT 4SM M02/M06 A3015 RMK SLP218 T10181063 57014 IEM_DS3505
ZBAA,1996-12-27 22:00,ZBAA 272200Z AUTO 35002KT 1 1/4SM M05/M06 A3012 RMK SLP211 T10501060 IEM_DS3505
ZBAA,1996-12-27 23:00,ZBAA 272300Z AUTO 01002KT 1SM M05/M06 A3015 RMK SLP221 T10501060 IEM_DS3505
ZBAA,1996-12-28 00:00,ZBAA 280000Z AUTO 32004KT 1 1/4SM M04/M07 A3012 RMK SLP211 T10361069 57008 IEM_DS3505
ZBAA,1996-12-28 01:00,ZBAA 280100Z AUTO 00000KT 1SM M05/M06 A3012 RMK SLP211 T10501060 IEM_DS3505
ZBAA,1996-12-28 02:00,ZBAA 280200Z AUTO 00000KT 1SM M02/M05 A3012 RMK SLP210 T10201050 IEM_DS3505
ZBAA,1996-12-28 03:00,ZBAA 280300Z AUTO 04004KT 2 1/2SM 01/M06 A3009 RMK SLP204 T00131059 57006 IEM_DS3505
ZBAA,1996-12-28 04:00,ZBAA 280400Z AUTO ////02KT 1SM 02/M04 A3006 RMK SLP188 T00201040 IEM_DS3505
ZBAA,1996-12-28 05:00,ZBAA 280500Z AUTO ////02KT 1 1/4SM 03/M04 A3003 RMK SLP178 T00301040 IEM_DS3505
ZBAA,1996-12-28 06:00,ZBAA 280600Z AUTO 00000KT 2SM 06/M04 A3000 RMK SLP170 T00651045 57034 IEM_DS3505
ZBAA,1996-12-28 07:00,ZBAA 280700Z AUTO ////02KT 1 1/4SM 05/M05 A2997 RMK SLP157 T00501050 IEM_DS3505
ZBAA,1996-12-28 08:00,ZBAA 280800Z AUTO ////02KT 1SM 04/M05 A2997 RMK SLP157 T00401050 IEM_DS3505
ZBAA,1996-12-28 09:00,ZBAA 280900Z AUTO 20004KT 1SM 02/M04 A2997 RMK SLP167 T00221039 57003 IEM_DS3505
ZBAA,1996-12-28 10:00,ZBAA 281000Z AUTO ////04KT 1SM M02/M05 A3000 RMK SLP169 T10201050 IEM_DS3505
ZBAA,1996-12-28 11:00,ZBAA 281100Z AUTO 19006KT 1SM M01/M04 A3000 RMK SLP169 T10101040 IEM_DS3505
ZBAA,1996-12-28 12:00,ZBAA 281200Z AUTO 00000KT 1 1/4SM 00/M03 A3003 RMK SLP179 T00021028 52011 IEM_DS3505
ZBAA,1996-12-28 13:00,ZBAA 281300Z AUTO 00000KT 1SM M04/M05 A3003 RMK SLP179 T10401050 IEM_DS3505
ZBAA,1996-12-28 14:00,ZBAA 281400Z AUTO ////02KT 1SM M04/M05 A3006 RMK SLP190 T10401050 IEM_DS3505
ZBAA,1996-12-28 16:00,ZBAA 281600Z AUTO 34004KT 1SM M04/M05 A3006 RMK SLP190 T10401050 IEM_DS3505
ZBAA,1996-12-28 17:00,ZBAA 281700Z AUTO ////02KT 1SM M04/M05 A3006 RMK SLP190 T10401050 IEM_DS3505
ZBAA,1996-12-28 18:00,ZBAA 281800Z AUTO 00000KT 1 1/4SM M02/M05 A3006 RMK SLP193 T10241047 52004 IEM_DS3505
ZBAA,1996-12-28 19:00,ZBAA 281900Z AUTO 31006KT 1SM M03/M05 A3006 RMK SLP189 T10301050 IEM_DS3505
ZBAA,1996-12-28 20:00,ZBAA 282000Z AUTO ////04KT 1SM M03/M07 A3006 RMK SLP189 T10301070 IEM_DS3505
ZBAA,1996-12-28 21:00,ZBAA 282100Z AUTO 09004KT 2SM M02/M05 A3006 RMK SLP192 T10181052 57001 IEM_DS3505
ZBAA,1996-12-28 22:00,ZBAA 282200Z AUTO 13006KT 1 1/4SM M06/M07 A3009 RMK SLP200 T10601070 IEM_DS3505
ZBAA,1996-12-28 23:00,ZBAA 282300Z AUTO ////04KT 1/8SM M07/M08 A3012 RMK SLP212 T10701080 IEM_DS3505
ZBAA,1996-12-29 00:00,ZBAA 290000Z AUTO 20004KT 1SM M02/M05 A3015 RMK SLP227 T10191049 52034 IEM_DS3505
ZBAA,1996-12-29 01:00,ZBAA 290100Z AUTO ////02KT 1/8SM M05/M06 A3021 RMK SLP241 T10501060 IEM_DS3505
ZBAA,1996-12-29 02:00,ZBAA 290200Z AUTO ////04KT 1/4SM M05/M05 A3024 RMK SLP251 T10501050 IEM_DS3505
ZBAA,1996-12-29 03:00,ZBAA 290300Z AUTO 18008KT 2 1/2SM 02/M08 A3024 RMK SLP249 T00241082 52022 IEM_DS3505
ZBAA,1996-12-29 04:00,ZBAA 290400Z AUTO ////04KT 1 1/2SM 02/M06 A3021 RMK SLP239 T00201060 IEM_DS3505
ZBAA,1996-12-29 05:00,ZBAA 290500Z AUTO 18006KT 2 1/2SM 02/M07 A3018 RMK SLP229 T00201070 IEM_DS3505
ZBAA,1996-12-29 06:00,ZBAA 290600Z AUTO 16004KT 4SM 05/M08 A3015 RMK SLP223 T00471081 57025 IEM_DS3505
ZBAA,1996-12-29 07:00,ZBAA 290700Z AUTO ////02KT 2 1/2SM 03/M07 A3015 RMK SLP219 T00301070 IEM_DS3505
ZBAA,1996-12-29 08:00,ZBAA 290800Z AUTO ////02KT 2 1/2SM 03/M06 A3015 RMK SLP219 T00301060 IEM_DS3505
ZBAA,1996-12-29 09:00,ZBAA 290900Z AUTO 20006KT 3SM 03/M04 A3012 RMK SLP216 T00281042 57008 IEM_DS3505
ZBAA,1996-12-29 10:00,ZBAA 291000Z AUTO 12002KT 2 1/2SM M01/M06 A3015 RMK SLP220 T10101060 IEM_DS3505
ZBAA,1996-12-29 11:00,ZBAA 291100Z AUTO ////02KT 2 1/2SM M03/M07 A3012 RMK SLP210 T10301070 IEM_DS3505
ZBAA,1996-12-29 12:00,ZBAA 291200Z AUTO 18004KT 2 1/2SM 01/M02 A3012 RMK SLP211 T00101023 57005 IEM_DS3505
ZBAA,1996-12-29 13:00,ZBAA 291300Z AUTO 00000KT 2SM M02/M07 A3012 RMK SLP210 T10201070 IEM_DS3505
ZBAA,1996-12-29 14:00,ZBAA 291400Z AUTO 15002KT 1 1/2SM M03/M07 A3012 RMK SLP210 T10301070 IEM_DS3505
ZBAA,1996-12-29 15:00,ZBAA 291500Z AUTO 16004KT 2SM 01/M02 A3012 RMK SLP211 T00081025 52001 IEM_DS3505
ZBAA,1996-12-29 16:00,ZBAA 291600Z AUTO 08002KT 1 1/2SM M04/M06 A3012 RMK SLP211 T10401060 IEM_DS3505
ZBAA,1996-12-29 17:00,ZBAA 291700Z AUTO 00000KT 1 1/4SM M03/M05 A3009 RMK SLP199 T10301050 IEM_DS3505
ZBAA,1996-12-29 18:00,ZBAA 291800Z AUTO 32002KT 7SM 00/M06 A3009 RMK SLP204 T00001056 57007 IEM_DS3505
ZBAA,1996-12-29 20:00,ZBAA 292000Z AUTO 36002KT 1 1/4SM M04/M06 A3009 RMK SLP200 T10401060 IEM_DS3505
ZBAA,1996-12-29 21:00,ZBAA 292100Z AUTO 07004KT 4SM M01/M05 A3009 RMK SLP202 T10081051 57002 IEM_DS3505
ZBAA,1996-12-29 22:00,ZBAA 292200Z AUTO 36004KT 1 1/4SM M04/M06 A3009 RMK SLP200 T10401060 IEM_DS3505
ZBAA,1996-12-29 23:00,ZBAA 292300Z AUTO 30002KT 1 1/4SM M04/M06 A3009 RMK SLP200 T10401060 IEM_DS3505
ZBAA,1996-12-30 00:00,ZBAA 300000Z AUTO 32002KT 4SM M00/M05 A3012 RMK SLP208 T10041046 52005 IEM_DS3505
ZBAA,1996-12-30 01:00,ZBAA 300100Z AUTO 36002KT 1SM M04/M07 A3012 RMK SLP211 T10401070 IEM_DS3505
ZBAA,1996-12-30 02:00,ZBAA 300200Z AUTO 00000KT 1SM M02/M05 A3012 RMK SLP210 T10201050 IEM_DS3505
ZBAA,1996-12-30 03:00,ZBAA 300300Z AUTO 32002KT 3SM 01/M05 A3012 RMK SLP212 T00081050 52005 IEM_DS3505
ZBAA,1996-12-30 04:00,ZBAA 300400Z AUTO ////02KT 2SM 01/M05 A3012 RMK SLP209 T00101050 IEM_DS3505
ZBAA,1996-12-30 05:00,ZBAA 300500Z AUTO ////04KT 2 1/2SM 02/M05 A3009 RMK SLP198 T00201050 IEM_DS3505
ZBAA,1996-12-30 06:00,ZBAA 300600Z AUTO 22004KT 3SM 03/M04 A3009 RMK SLP198 T00301043 57014 IEM_DS3505
ZBAA,1996-12-30 07:00,ZBAA 300700Z AUTO ////04KT 3SM 03/M05 A3009 RMK SLP198 T00301050 IEM_DS3505
ZBAA,1996-12-30 08:00,ZBAA 300800Z AUTO ////02KT 2 1/2SM 02/M05 A3009 RMK SLP198 T00201050 IEM_DS3505
ZBAA,1996-12-30 09:00,ZBAA 300900Z AUTO 22004KT 1 1/2SM 02/M04 A3012 RMK SLP208 T00211040 52010 IEM_DS3505
ZBAA,1996-12-30 10:00,ZBAA 301000Z AUTO 13002KT 2SM M01/M05 A3012 RMK SLP210 T10101050 IEM_DS3505
ZBAA,1996-12-30 11:00,ZBAA 301100Z AUTO 11002KT 2SM M02/M05 A3015 RMK SLP220 T10201050 IEM_DS3505
ZBAA,1996-12-30 12:00,ZBAA 301200Z AUTO 20004KT 1 1/4SM 00/M03 A3015 RMK SLP222 T00021032 52013 IEM_DS3505
ZBAA,1996-12-30 13:00,ZBAA 301300Z AUTO 13002KT 1 1/4SM M03/M06 A3015 RMK SLP221 T10301060 IEM_DS3505
ZBAA,1996-12-30 14:00,ZBAA 301400Z AUTO 00000KT 1 1/4SM M03/M05 A3015 RMK SLP221 T10301050 IEM_DS3505
ZBAA,1996-12-30 15:00,ZBAA 301500Z AUTO 29004KT 1 1/4SM M01/M04 A3015 RMK SLP218 T10121038 57004 IEM_DS3505
ZBAA,1996-12-30 16:00,ZBAA 301600Z AUTO 05002KT 1SM M04/M05 A3015 RMK SLP221 T10401050 IEM_DS3505
ZBAA,1996-12-30 17:00,ZBAA 301700Z AUTO ////02KT 1SM M03/M05 A3015 RMK SLP221 T10301050 IEM_DS3505
ZBAA,1996-12-30 18:00,ZBAA 301800Z AUTO 00000KT 1 1/4SM M01/M04 A3012 RMK SLP205 T10091038 57012 IEM_DS3505
ZBAA,1996-12-30 21:00,ZBAA 302100Z AUTO 00000KT 1 1/4SM M01/M04 A3009 RMK SLP196 T10081036 57009 IEM_DS3505
ZBAA,1996-12-30 22:00,ZBAA 302200Z AUTO ////02KT 1SM M03/M04 A3009 RMK SLP199 T10301040 IEM_DS3505
ZBAA,1996-12-30 23:00,ZBAA 302300Z AUTO ////02KT 1 1/4SM M02/M04 A3009 RMK SLP199 T10201040 IEM_DS3505
