station,valid,metar
ZBAA,2001-01-01 00:00,ZBAA 010000Z AUTO 21002KT 5SM M04/M09 A2991 RMK SLP134 T10381092 52007 IEM_DS3505
ZBAA,2001-01-01 01:00,ZBAA 010100Z AUTO 4SM M03/M08 A2991 RMK T10301080 IEM_DS3505
ZBAA,2001-01-01 02:00,ZBAA 010200Z AUTO 24002KT 3SM M02/M08 A2994 RMK T10201080 IEM_DS3505
ZBAA,2001-01-01 03:00,ZBAA 010300Z AUTO 25006G33KT 5SM M01/M09 A2991 RMK SLP137 T10081087 52003 IEM_DS3505
ZBAA,2001-01-01 04:00,ZBAA 010400Z AUTO 30033G51KT 2SM 03/M22 A2991 RMK T00301220 IEM_DS3505
ZBAA,2001-01-01 05:00,ZBAA 010500Z AUTO 30027G43KT 04/M21 A2991 RMK T00401210 IEM_DS3505
ZBAA,2001-01-01 06:00,ZBAA 010600Z AUTO 28006G39KT 5SM 04/M21 A2988 RMK SLP122 T00411209 57015 IEM_DS3505
ZBAA,2001-01-01 07:00,ZBAA 010700Z AUTO 31025G39KT 03/M24 A2991 RMK T00301240 IEM_DS3505
ZBAA,2001-01-01 08:00,ZBAA 010800Z AUTO 29023G37KT 03/M23 A2994 RMK T00301230 IEM_DS3505
ZBAA,2001-01-01 09:00,ZBAA 010900Z AUTO 33008G31KT 6SM 02/M24 A2997 RMK SLP144 T00251239 52022 IEM_DS3505
ZBAA,2001-01-01 10:00,ZBAA 011000Z AUTO 31023G35KT 5SM 01/M25 A3000 RMK T00101250 IEM_DS3505
ZBAA,2001-01-01 11:00,ZBAA 011100Z AUTO 31023G33KT 6SM 00/M25 A3003 RMK T00001250 IEM_DS3505
ZBAA,2001-01-01 12:00,ZBAA 011200Z AUTO 30010G31KT 9SM 01/M25 A3006 RMK SLP181 T00071253 52037 IEM_DS3505
ZBAA,2001-01-01 13:00,ZBAA 011300Z AUTO 30023G33KT 6SM M01/M27 A3009 RMK T10101270 IEM_DS3505
ZBAA,2001-01-01 14:00,ZBAA 011400Z AUTO 30019G29KT 6SM M01/M28 A3009 RMK T10101280 IEM_DS3505
ZBAA,2001-01-01 15:00,ZBAA 011500Z AUTO 31008KT 12SM M01/M28 A3012 RMK SLP197 T10081284 52016 IEM_DS3505
ZBAA,2001-01-01 16:00,ZBAA 011600Z AUTO 30016KT 6SM M02/M29 A3012 RMK T10201290 IEM_DS3505
ZBAA,2001-01-01 17:00,ZBAA 011700Z AUTO 30012G21KT 6SM M03/M29 A3015 RMK T10301290 IEM_DS3505
ZBAA,2001-01-01 18:00,ZBAA 011800Z AUTO 32008KT 12SM M02/M30 A3015 RMK SLP211 T10241297 52013 IEM_DS3505
ZBAA,2001-01-01 19:00,ZBAA 011900Z AUTO 32010KT 6SM M05/M27 A3018 RMK T10501270 IEM_DS3505
ZBAA,2001-01-01 20:00,ZBAA 012000Z AUTO 34004KT 6SM M07/M26 A3018 RMK T10701260 IEM_DS3505
ZBAA,2001-01-01 21:00,ZBAA 012100Z AUTO 31004KT 12SM M04/M29 A3021 RMK SLP225 T10371288 52014 IEM_DS3505
ZBAA,2001-01-01 22:00,ZBAA 012200Z AUTO 30010KT 6SM M06/M26 A3021 RMK T10601260 IEM_DS3505
ZBAA,2001-01-01 23:00,ZBAA 012300Z AUTO 31006KT 6SM M07/M25 A3024 RMK T10701250 IEM_DS3505
ZBAA,2001-01-02 00:00,ZBAA 020000Z AUTO 05002KT 12SM M05/M28 A3027 RMK SLP242 T10461279 52017 IEM_DS3505
ZBAA,2001-01-02 01:00,ZBAA 020100Z AUTO 33010KT 6SM M05/M25 A3027 RMK T10501250 IEM_DS3505
ZBAA,2001-01-02 03:00,ZBAA 020300Z AUTO 34006KT 12SM M02/M27 A3030 RMK SLP257 T10171272 52015 IEM_DS3505
ZBAA,2001-01-02 04:00,ZBAA 020400Z AUTO 34012G21KT 6SM M02/M26 A3027 RMK T10201260 IEM_DS3505
ZBAA,2001-01-02 05:00,ZBAA 020500Z AUTO 32014KT 6SM M01/M27 A3027 RMK T10101270 IEM_DS3505
ZBAA,2001-01-02 06:00,ZBAA 020600Z AUTO 31010G21KT 19SM 00/M27 RMK SLP237 T00031266 57020 IEM_DS3505
ZBAA,2001-01-02 07:00,ZBAA 020700Z AUTO 31017KT 6SM 00/M27 A3024 RMK T00001270 IEM_DS3505
ZBAA,2001-01-02 08:00,ZBAA 020800Z AUTO 30016G25KT 6SM M01/M28 A3027 RMK T10101280 IEM_DS3505
ZBAA,2001-01-02 09:00,ZBAA 020900Z AUTO 33012G29KT 12SM M01/M27 A3027 RMK SLP251 T10131269 52014 IEM_DS3505
ZBAA,2001-01-02 10:00,ZBAA 021000Z AUTO 31019KT 6SM M02/M29 A3030 RMK T10201290 IEM_DS3505
ZBAA,2001-01-02 11:00,ZBAA 021100Z AUTO 30016KT 6SM M02/M28 A3033 RMK T10201280 IEM_DS3505
ZBAA,2001-01-02 12:00,ZBAA 021200Z AUTO 32010KT 12SM M02/M27 A3033 RMK SLP267 T10201274 52016 IEM_DS3505
ZBAA,2001-01-02 13:00,ZBAA 021300Z AUTO 35004KT 6SM M05/M28 A3036 RMK T10501280 IEM_DS3505
ZBAA,2001-01-02 14:00,ZBAA 021400Z AUTO 01004KT 6SM M06/M28 A3036 RMK T10601280 IEM_DS3505
ZBAA,2001-01-02 15:00,ZBAA 021500Z AUTO 34004KT 12SM M03/M28 A3036 RMK SLP277 T10321284 52010 IEM_DS3505
ZBAA,2001-01-02 16:00,ZBAA 021600Z AUTO 35010KT 6SM M07/M27 A3036 RMK T10701270 IEM_DS3505
ZBAA,2001-01-02 17:00,ZBAA 021700Z AUTO 33012KT 6SM M06/M29 A3036 RMK T10601290 IEM_DS3505
ZBAA,2001-01-02 18:00,ZBAA 021800Z AUTO 34006KT 12SM M05/M29 A3039 RMK SLP283 T10501290 52006 IEM_DS3505
ZBAA,2001-01-02 19:00,ZBAA 021900Z AUTO 30008KT 6SM M07/M30 A3042 RMK T10701300 IEM_DS3505
ZBAA,2001-01-02 20:00,ZBAA 022000Z AUTO 32012KT 6SM M07/M30 A3042 RMK T10701300 IEM_DS3505
ZBAA,2001-01-02 21:00,ZBAA 022100Z AUTO 01006KT 19SM M07/M30 A3042 RMK SLP294 T10671296 52010 IEM_DS3505
ZBAA,2001-01-02 22:00,ZBAA 022200Z AUTO 32012KT 6SM M08/M28 A3042 RMK T10801280 IEM_DS3505
ZBAA,2001-01-02 23:00,ZBAA 022300Z AUTO 32014KT 6SM M08/M29 A3045 RMK T10801290 IEM_DS3505
ZBAA,2001-01-03 00:00,ZBAA 030000Z AUTO 22002KT 6SM M08/M28 A3045 RMK SLP310 T10831277 52016 IEM_DS3505
ZBAA,2001-01-03 01:00,ZBAA 030100Z AUTO 34012KT 6SM M08/M28 A3047 RMK T10801280 IEM_DS3505
ZBAA,2001-01-03 02:00,ZBAA 030200Z AUTO 33014KT 6SM M07/M29 A3047 RMK T10701290 IEM_DS3505
ZBAA,2001-01-03 03:00,ZBAA 030300Z AUTO 35004KT 12SM M06/M28 A3047 RMK SLP319 T10551279 52009 IEM_DS3505
ZBAA,2001-01-03 04:00,ZBAA 030400Z AUTO 33016KT 6SM M05/M30 A3045 RMK T10501300 IEM_DS3505
ZBAA,2001-01-03 05:00,ZBAA 030500Z AUTO 31012KT 6SM M05/M30 A3042 RMK T10501300 IEM_DS3505
ZBAA,2001-01-03 06:00,ZBAA 030600Z AUTO 34010KT 16SM M04/M29 A3042 RMK SLP288 T10351286 57030 IEM_DS3505
ZBAA,2001-01-03 07:00,ZBAA 030700Z AUTO 33010KT 6SM M04/M31 A3039 RMK T10401310 IEM_DS3505
ZBAA,2001-01-03 08:00,ZBAA 030800Z AUTO 34008KT 6SM M04/M32 A3042 RMK T10401320 IEM_DS3505
ZBAA,2001-01-03 09:00,ZBAA 030900Z AUTO 35006KT 12SM M04/M29 A3042 RMK SLP292 T10451286 52003 IEM_DS3505
ZBAA,2001-01-03 10:00,ZBAA 031000Z AUTO 36008KT 6SM M06/M30 A3042 RMK T10601300 IEM_DS3505
ZBAA,2001-01-03 11:00,ZBAA 031100Z AUTO 01004KT 6SM M08/M27 A3045 RMK T10801270 IEM_DS3505
ZBAA,2001-01-03 12:00,ZBAA 031200Z AUTO 02004KT 12SM M07/M30 A3045 RMK SLP313 T10661303 52021 IEM_DS3505
ZBAA,2001-01-03 13:00,ZBAA 031300Z AUTO 04004KT 6SM M09/M28 A3047 RMK T10901280 IEM_DS3505
ZBAA,2001-01-03 14:00,ZBAA 031400Z AUTO 03002KT 6SM M10/M26 A3047 RMK T11001260 IEM_DS3505
ZBAA,2001-01-03 15:00,ZBAA 031500Z AUTO 14002KT 9SM M10/M29 A3047 RMK SLP321 T10961288 52008 IEM_DS3505
ZBAA,2001-01-03 16:00,ZBAA 031600Z AUTO 00000KT 6SM M11/M27 A3047 RMK T11101270 IEM_DS3505
ZBAA,2001-01-03 17:00,ZBAA 031700Z AUTO 00000KT 6SM M11/M26 A3047 RMK T11101260 IEM_DS3505
ZBAA,2001-01-03 18:00,ZBAA 031800Z AUTO 00000KT 6SM M11/M26 A3047 RMK SLP322 T11071255 52001 IEM_DS3505
ZBAA,2001-01-03 19:00,ZBAA 031900Z AUTO 6SM M13/M24 A3050 RMK T11301240 IEM_DS3505
ZBAA,2001-01-03 20:00,ZBAA 032000Z AUTO 34002KT 6SM M13/M24 A3047 RMK T11301240 IEM_DS3505
ZBAA,2001-01-03 21:00,ZBAA 032100Z AUTO 04002KT 6SM M10/M27 A3047 RMK SLP317 T10961267 57005 IEM_DS3505
ZBAA,2001-01-03 22:00,ZBAA 032200Z AUTO 06002KT 6SM M12/M24 A3047 RMK T11201240 IEM_DS3505
ZBAA,2001-01-03 23:00,ZBAA 032300Z AUTO 08004KT 6SM M12/M26 A3047 RMK T11201260 IEM_DS3505
ZBAA,2001-01-04 00:00,ZBAA 040000Z AUTO 03002KT 6SM M11/M23 A3050 RMK SLP329 T11121232 52012 IEM_DS3505
ZBAA,2001-01-04 01:00,ZBAA 040100Z AUTO 01002KT 6SM M11/M23 A3053 RMK T11101230 IEM_DS3505
ZBAA,2001-01-04 02:00,ZBAA 040200Z AUTO 03002KT 6SM M09/M23 A3053 RMK T10901230 IEM_DS3505
ZBAA,2001-01-04 03:00,ZBAA 040300Z AUTO 03002KT 5SM A3050 RMK SLP149 52004 IEM_DS3505
ZBAA,2001-01-04 04:00,ZBAA 040400Z AUTO 09004KT 6SM M07/M27 A3047 RMK T10701270 IEM_DS3505
ZBAA,2001-01-04 05:00,ZBAA 040500Z AUTO 11004KT 6SM M06/M26 A3045 RMK T10601260 IEM_DS3505
ZBAA,2001-01-04 06:00,ZBAA 040600Z AUTO 32008KT 7SM A3042 RMK SLP139 57009 IEM_DS3505
ZBAA,2001-01-04 07:00,ZBAA 040700Z AUTO 16002KT 6SM M04/M25 A3042 RMK T10401250 IEM_DS3505
ZBAA,2001-01-04 08:00,ZBAA 040800Z AUTO 06004KT 6SM M04/M24 A3042 RMK T10401240 IEM_DS3505
ZBAA,2001-01-04 09:00,ZBAA 040900Z AUTO 32008KT 9SM A3042 RMK SLP175 52035 IEM_DS3505
ZBAA,2001-01-04 10:00,ZBAA 041000Z AUTO 01006KT 6SM M06/M25 A3045 RMK T10601250 IEM_DS3505
ZBAA,2001-01-04 11:00,ZBAA 041100Z AUTO 35004KT 6SM M08/M23 A3045 RMK T10801230 IEM_DS3505
ZBAA,2001-01-04 12:00,ZBAA 041200Z AUTO 01002KT 10SM M06/M24 A3047 RMK SLP314 T10581245 52017 IEM_DS3505
ZBAA,2001-01-04 13:00,ZBAA 041300Z AUTO 34004KT M09/M24 A3047 RMK T10901240 IEM_DS3505
ZBAA,2001-01-04 14:00,ZBAA 041400Z AUTO M09/M22 A3047 RMK T10901220 IEM_DS3505
ZBAA,2001-01-04 15:00,ZBAA 041500Z AUTO 03002KT 9SM M07/M24 A3047 RMK SLP320 T10701240 52006 IEM_DS3505
ZBAA,2001-01-04 16:00,ZBAA 041600Z AUTO 33004KT 2 1/2SM M10/M23 A3047 RMK T11001230 IEM_DS3505
ZBAA,2001-01-04 17:00,ZBAA 041700Z AUTO 33004KT 3SM M10/M23 A3047 RMK T11001230 IEM_DS3505
ZBAA,2001-01-04 18:00,ZBAA 041800Z AUTO 03002KT 9SM M08/M24 A3050 RMK SLP324 T10791235 52004 IEM_DS3505
ZBAA,2001-01-04 19:00,ZBAA 041900Z AUTO 34004KT 3SM M13/M21 A3050 RMK T11301210 IEM_DS3505
ZBAA,2001-01-04 20:00,ZBAA 042000Z AUTO 35006KT M12/M20 A3050 RMK T11201200 IEM_DS3505
ZBAA,2001-01-04 21:00,ZBAA 042100Z AUTO 03002KT 7SM M09/M22 A3047 RMK SLP323 T10881217 57001 IEM_DS3505
ZBAA,2001-01-04 22:00,ZBAA 042200Z AUTO 35004KT 5SM M13/M20 A3050 RMK T11301200 IEM_DS3505
ZBAA,2001-01-04 23:00,ZBAA 042300Z AUTO 35004KT 6SM M13/M21 A3050 RMK T11301210 IEM_DS3505
ZBAA,2001-01-05 00:00,ZBAA 050000Z AUTO 01004KT 6SM M09/M21 A3053 RMK SLP341 T10911213 52018 IEM_DS3505
ZBAA,2001-01-05 01:00,ZBAA 050100Z AUTO 34004KT 5SM M10/M20 A3056 RMK T11001200 IEM_DS3505
ZBAA,2001-01-05 02:00,ZBAA 050200Z AUTO 35004KT 5SM M08/M20 A3059 RMK T10801200 IEM_DS3505
ZBAA,2001-01-05 03:00,ZBAA 050300Z AUTO 01002KT 9SM M05/M20 A3059 RMK SLP362 T10531201 52021 IEM_DS3505
ZBAA,2001-01-05 04:00,ZBAA 050400Z AUTO 17002KT 6SM M04/M18 A3059 RMK T10401180 IEM_DS3505
ZBAA,2001-01-05 05:00,ZBAA 050500Z AUTO 08002KT 6SM M03/M16 A3053 RMK T10301160 IEM_DS3505
ZBAA,2001-01-05 06:00,ZBAA 050600Z AUTO 15004KT 9SM M02/M18 A3053 RMK SLP336 T10221181 57026 IEM_DS3505
ZBAA,2001-01-05 07:00,ZBAA 050700Z AUTO 14004KT 6SM M02/M16 A3050 RMK T10201160 IEM_DS3505
ZBAA,2001-01-05 08:00,ZBAA 050800Z AUTO 14004KT 6SM M03/M16 A3050 RMK T10301160 IEM_DS3505
ZBAA,2001-01-05 09:00,ZBAA 050900Z AUTO 14004KT 9SM M04/M16 A3053 RMK SLP339 T10371162 52003 IEM_DS3505
ZBAA,2001-01-05 10:00,ZBAA 051000Z AUTO 13002KT M05/M16 A3053 RMK T10501160 IEM_DS3505
ZBAA,2001-01-05 12:00,ZBAA 051200Z AUTO 00000KT 4SM M04/M15 A3056 RMK SLP349 T10381148 52010 IEM_DS3505
ZBAA,2001-01-05 13:00,ZBAA 051300Z AUTO 00000KT 2 1/2SM M04/M14 A3056 RMK T10401140 IEM_DS3505
ZBAA,2001-01-05 14:00,ZBAA 051400Z AUTO 08002KT 2 1/2SM M04/M13 A3056 RMK T10401130 IEM_DS3505
ZBAA,2001-01-05 15:00,ZBAA 051500Z AUTO 07002KT 4SM M03/M13 A3059 RMK SLP353 T10311133 52005 IEM_DS3505
ZBAA,2001-01-05 16:00,ZBAA 051600Z AUTO 11006KT 3SM M04/M09 A3056 RMK T10401090 IEM_DS3505
ZBAA,2001-01-05 17:00,ZBAA 051700Z AUTO 11006KT 3SM M05/M08 A3056 RMK T10501080 IEM_DS3505
ZBAA,2001-01-05 18:00,ZBAA 051800Z AUTO 08008KT 5SM M05/M09 A3056 RMK 60003 SLP347 T10501087 57006 IEM_DS3505
ZBAA,2001-01-05 19:00,ZBAA 051900Z AUTO 13004KT 4SM M06/M07 A3056 RMK T10601070 IEM_DS3505
ZBAA,2001-01-05 20:00,ZBAA 052000Z AUTO 12002KT 3SM M06/M07 A3053 RMK T10601070 IEM_DS3505
ZBAA,2001-01-05 21:00,ZBAA 052100Z AUTO 04004KT 6SM M06/M09 A3053 RMK 70003 SLP331 T10581087 57017 IEM_DS3505
ZBAA,2001-01-05 22:00,ZBAA 052200Z AUTO 00000KT 2SM M06/M06 A3050 RMK T10601060 IEM_DS3505
ZBAA,2001-01-05 23:00,ZBAA 052300Z AUTO 00000KT 1 1/2SM M06/M06 A3050 RMK T10601060 IEM_DS3505
ZBAA,2001-01-06 00:00,ZBAA 060000Z AUTO 06002KT 4SM M06/M08 A3050 RMK 60000 SLP332 T10571081 52001 IEM_DS3505
ZBAA,2001-01-06 01:00,ZBAA 060100Z AUTO 00000KT 1SM M05/M06 A3050 RMK T10501060 IEM_DS3505
ZBAA,2001-01-06 02:00,ZBAA 060200Z AUTO 01004KT 1SM M05/M05 A3050 RMK T10501050 IEM_DS3505
ZBAA,2001-01-06 03:00,ZBAA 060300Z AUTO 03002KT 2 1/2SM M05/M07 A3050 RMK SLP326 T10481068 57006 IEM_DS3505
ZBAA,2001-01-06 04:00,ZBAA 060400Z AUTO 35004KT 1 1/4SM M04/M05 A3047 RMK T10401050 IEM_DS3505
ZBAA,2001-01-06 05:00,ZBAA 060500Z AUTO 35006KT 1 1/4SM M04/M04 A3042 RMK T10401040 IEM_DS3505
ZBAA,2001-01-06 06:00,ZBAA 060600Z AUTO 02004KT 1 1/4SM M04/M06 A3042 RMK 60008 SLP292 T10411059 57033 IEM_DS3505
ZBAA,2001-01-06 07:00,ZBAA 060700Z AUTO 32006KT 1SM M04/M04 A3039 RMK T10401040 IEM_DS3505
ZBAA,2001-01-06 08:00,ZBAA 060800Z AUTO 34004KT 1SM M04/M04 A3039 RMK T10401040 IEM_DS3505
ZBAA,2001-01-06 09:00,ZBAA 060900Z AUTO 01004KT 1 1/4SM M04/M05 A3036 RMK SLP280 T10361054 57012 IEM_DS3505
ZBAA,2001-01-06 10:00,ZBAA 061000Z AUTO 35006KT 1SM M04/M04 A3036 RMK T10401040 IEM_DS3505
ZBAA,2001-01-06 11:00,ZBAA 061100Z AUTO 35004KT 1SM M04/M04 A3036 RMK T10401040 IEM_DS3505
ZBAA,2001-01-06 12:00,ZBAA 061200Z AUTO 01004KT 2SM M03/M05 A3036 RMK 60012 SLP276 T10321049 57004 IEM_DS3505
ZBAA,2001-01-06 13:00,ZBAA 061300Z AUTO 34006KT 1SM M03/M03 A3036 RMK T10301030 IEM_DS3505
ZBAA,2001-01-06 14:00,ZBAA 061400Z AUTO 34006KT 1SM M03/M03 A3033 RMK T10301030 IEM_DS3505
ZBAA,2001-01-06 15:00,ZBAA 061500Z AUTO 01004KT 2SM M03/M04 A3033 RMK SLP264 T10271043 57012 IEM_DS3505
ZBAA,2001-01-06 16:00,ZBAA 061600Z AUTO 34006KT 1SM M03/M03 A3030 RMK T10301030 IEM_DS3505
ZBAA,2001-01-06 17:00,ZBAA 061700Z AUTO 34006KT 1SM M03/M03 A3030 RMK T10301030 IEM_DS3505
ZBAA,2001-01-06 18:00,ZBAA 061800Z AUTO 01004KT 1 1/4SM M02/M04 A3027 RMK 60012 SLP251 T10241040 57013 IEM_DS3505
ZBAA,2001-01-06 19:00,ZBAA 061900Z AUTO 35006KT 1SM M03/M03 A3027 RMK T10301030 IEM_DS3505
ZBAA,2001-01-06 20:00,ZBAA 062000Z AUTO 34006KT 1SM M03/M03 A3024 RMK T10301030 IEM_DS3505
ZBAA,2001-01-06 21:00,ZBAA 062100Z AUTO 00000KT 1 1/4SM M02/M04 A3024 RMK 70039 SLP237 T10231039 57014 IEM_DS3505
ZBAA,2001-01-06 22:00,ZBAA 062200Z AUTO 36006KT 1SM M03/M03 A3024 RMK T10301030 IEM_DS3505
ZBAA,2001-01-06 23:00,ZBAA 062300Z AUTO 35004KT 1SM M03/M03 A3024 RMK T10301030 IEM_DS3505
ZBAA,2001-01-07 00:00,ZBAA 070000Z AUTO 02002KT 2 1/2SM M02/M04 A3024 RMK 60008 SLP243 T10211035 52006 IEM_DS3505
ZBAA,2001-01-07 01:00,ZBAA 070100Z AUTO 33002KT 1SM M03/M03 A3027 RMK T10301030 IEM_DS3505
ZBAA,2001-01-07 02:00,ZBAA 070200Z AUTO 35004KT 1 1/4SM M02/M02 A3027 RMK T10201020 IEM_DS3505
ZBAA,2001-01-07 03:00,ZBAA 070300Z AUTO 07002KT 2SM M00/M02 A3027 RMK SLP250 T10021018 52007 IEM_DS3505
ZBAA,2001-01-07 04:00,ZBAA 070400Z AUTO 06002KT 2 1/2SM 00/00 A3027 RMK T00000000 IEM_DS3505
ZBAA,2001-01-07 05:00,ZBAA 070500Z AUTO 15004KT 2 1/2SM 00/00 A3024 RMK T00000000 IEM_DS3505
ZBAA,2001-01-07 06:00,ZBAA 070600Z AUTO 10002KT 6SM 00/M03 A3021 RMK 60000 SLP233 T00021030 57017 IEM_DS3505
ZBAA,2001-01-07 07:00,ZBAA 070700Z AUTO 4SM 01/M01 A3021 RMK T00101010 IEM_DS3505
ZBAA,2001-01-07 08:00,ZBAA 070800Z AUTO 15004KT 2 1/2SM 00/M01 A3021 RMK T00001010 IEM_DS3505
ZBAA,2001-01-07 09:00,ZBAA 070900Z AUTO 14002KT 5SM 00/M03 A3024 RMK SLP240 T00001030 52007 IEM_DS3505
ZBAA,2001-01-07 10:00,ZBAA 071000Z AUTO 15004KT 2SM 00/M01 A3024 RMK T00001010 IEM_DS3505
ZBAA,2001-01-07 11:00,ZBAA 071100Z AUTO 19008KT 2SM 00/M01 A3027 RMK T00001010 IEM_DS3505
ZBAA,2001-01-07 12:00,ZBAA 071200Z AUTO 11002KT 5SM M00/M03 A3027 RMK SLP249 T10041029 52009 IEM_DS3505
ZBAA,2001-01-07 13:00,ZBAA 071300Z AUTO 14002KT 1 1/2SM 00/M01 A3027 RMK T00001010 IEM_DS3505
ZBAA,2001-01-07 14:00,ZBAA 071400Z AUTO 18004KT 1 1/4SM 00/M01 A3030 RMK T00001010 IEM_DS3505
ZBAA,2001-01-07 15:00,ZBAA 071500Z AUTO 14002KT 2 1/2SM M01/M03 A3033 RMK SLP265 T10071031 52016 IEM_DS3505
ZBAA,2001-01-07 16:00,ZBAA 071600Z AUTO 11002KT 1 1/4SM M01/M01 A3033 RMK T10101010 IEM_DS3505
ZBAA,2001-01-07 17:00,ZBAA 071700Z AUTO 00000KT 1 1/4SM M01/M01 A3030 RMK T10101010 IEM_DS3505
ZBAA,2001-01-07 18:00,ZBAA 071800Z AUTO 19002KT 2 1/2SM M01/M03 A3030 RMK SLP259 T10091032 57006 IEM_DS3505
ZBAA,2001-01-07 19:00,ZBAA 071900Z AUTO 18002KT 1SM M01/M01 A3033 RMK T10101010 IEM_DS3505
ZBAA,2001-01-07 20:00,ZBAA 072000Z AUTO 12002KT 1SM M01/M01 A3030 RMK T10101010 IEM_DS3505
ZBAA,2001-01-07 21:00,ZBAA 072100Z AUTO 18002KT 2SM M01/M03 A3033 RMK 70002 SLP266 T10101030 52007 IEM_DS3505
ZBAA,2001-01-07 22:00,ZBAA 072200Z AUTO 14004KT 1SM M01/M01 A3033 RMK T10101010 IEM_DS3505
ZBAA,2001-01-07 23:00,ZBAA 072300Z AUTO 11002KT 1/2SM M01/M01 A3033 RMK T10101010 IEM_DS3505
ZBAA,2001-01-08 00:00,ZBAA 080000Z AUTO 00000KT 1SM M01/M02 A3033 RMK 60000 SLP274 T10081025 52008 IEM_DS3505
ZBAA,2001-01-08 01:00,ZBAA 080100Z AUTO 00000KT 1/2SM M01/M01 A3036 RMK T10101010 IEM_DS3505
ZBAA,2001-01-08 02:00,ZBAA 080200Z AUTO 03002KT 1/4SM M01/M01 A3036 RMK T10101010 IEM_DS3505
ZBAA,2001-01-08 03:00,ZBAA 080300Z AUTO 28004KT 1SM M00/M02 A3036 RMK SLP280 T10021019 52006 IEM_DS3505
ZBAA,2001-01-08 04:00,ZBAA 080400Z AUTO 32008KT 1/2SM 00/00 A3036 RMK T00000000 IEM_DS3505
ZBAA,2001-01-08 05:00,ZBAA 080500Z AUTO 30010KT 7SM 00/M02 A3033 RMK T00001020 IEM_DS3505
ZBAA,2001-01-08 06:00,ZBAA 080600Z AUTO 35010KT 7SM 01/M08 A3033 RMK 60003 SLP260 T00081084 57020 IEM_DS3505
ZBAA,2001-01-08 07:00,ZBAA 080700Z AUTO 31010KT 7SM 01/M07 A3033 RMK T00101070 IEM_DS3505
ZBAA,2001-01-08 08:00,ZBAA 080800Z AUTO 30006KT 7SM 00/M07 A3036 RMK T00001070 IEM_DS3505
ZBAA,2001-01-08 09:00,ZBAA 080900Z AUTO 35006KT 7SM 00/M12 A3039 RMK SLP281 T00001122 52021 IEM_DS3505
ZBAA,2001-01-08 10:00,ZBAA 081000Z AUTO 32012KT 7SM M01/M09 A3039 RMK T10101090 IEM_DS3505
ZBAA,2001-01-08 11:00,ZBAA 081100Z AUTO 33008KT 6SM M02/M09 A3039 RMK T10201090 IEM_DS3505
ZBAA,2001-01-08 12:00,ZBAA 081200Z AUTO 02008KT 12SM M01/M13 A3042 RMK SLP293 T10111132 52012 IEM_DS3505
ZBAA,2001-01-08 13:00,ZBAA 081300Z AUTO 36010KT 6SM M02/M12 A3042 RMK T10201120 IEM_DS3505
ZBAA,2001-01-08 14:00,ZBAA 081400Z AUTO 01008KT 6SM M03/M12 A3042 RMK T10301120 IEM_DS3505
ZBAA,2001-01-08 15:00,ZBAA 081500Z AUTO 04006KT 12SM M03/M16 A3045 RMK SLP302 T10331155 52009 IEM_DS3505
ZBAA,2001-01-08 16:00,ZBAA 081600Z AUTO 33006KT 6SM M06/M13 A3045 RMK T10601130 IEM_DS3505
ZBAA,2001-01-08 17:00,ZBAA 081700Z AUTO 34008KT 6SM M09/M16 A3045 RMK T10901160 IEM_DS3505
ZBAA,2001-01-08 18:00,ZBAA 081800Z AUTO 04004KT 12SM M06/M17 A3045 RMK SLP303 T10561170 52001 IEM_DS3505
ZBAA,2001-01-08 19:00,ZBAA 081900Z AUTO 34006KT 6SM M11/M17 A3045 RMK T11101170 IEM_DS3505
ZBAA,2001-01-08 20:00,ZBAA 082000Z AUTO 6SM M10/M18 A3042 RMK T11001180 IEM_DS3505
ZBAA,2001-01-08 21:00,ZBAA 082100Z AUTO 04006KT 12SM M08/M19 RMK 70003 SLP289 T10801189 57014 IEM_DS3505
ZBAA,2001-01-08 22:00,ZBAA 082200Z AUTO 36004KT 6SM M12/M19 A3039 RMK T11201190 IEM_DS3505
ZBAA,2001-01-08 23:00,ZBAA 082300Z AUTO 34004KT 6SM M14/M20 A3039 RMK T11401200 IEM_DS3505
ZBAA,2001-01-09 00:00,ZBAA 090000Z AUTO 05004KT 11SM M10/M20 A3039 RMK 70003 SLP292 T10991198 52003 IEM_DS3505
ZBAA,2001-01-09 01:00,ZBAA 090100Z AUTO 00000KT 6SM M10/M17 A3042 RMK T11001170 IEM_DS3505
ZBAA,2001-01-09 02:00,ZBAA 090200Z AUTO 34002KT 6SM M08/M18 A3042 RMK T10801180 IEM_DS3505
ZBAA,2001-01-09 03:00,ZBAA 090300Z AUTO 22004KT 6SM M06/M16 A3039 RMK SLP288 T10551158 57004 IEM_DS3505
ZBAA,2001-01-09 04:00,ZBAA 090400Z AUTO 10002KT 6SM M04/M17 A3036 RMK T10401170 IEM_DS3505
ZBAA,2001-01-09 05:00,ZBAA 090500Z AUTO 13002KT 6SM M04/M16 A3030 RMK T10401160 IEM_DS3505
ZBAA,2001-01-09 06:00,ZBAA 090600Z AUTO 22008KT 9SM M04/M17 A3027 RMK SLP253 T10421166 57035 IEM_DS3505
ZBAA,2001-01-09 07:00,ZBAA 090700Z AUTO 20010KT 6SM M03/M14 A3024 RMK T10301140 IEM_DS3505
ZBAA,2001-01-09 08:00,ZBAA 090800Z AUTO 22010KT 6SM M03/M16 A3024 RMK T10301160 IEM_DS3505
ZBAA,2001-01-09 09:00,ZBAA 090900Z AUTO 20004KT 6SM M06/M17 A3024 RMK SLP241 T10631168 57013 IEM_DS3505
ZBAA,2001-01-09 10:00,ZBAA 091000Z AUTO 19006KT 6SM M08/M15 A3021 RMK T10801150 IEM_DS3505
ZBAA,2001-01-09 11:00,ZBAA 091100Z AUTO 11002KT 6SM M09/M15 A3021 RMK T10901150 IEM_DS3505
ZBAA,2001-01-09 12:00,ZBAA 091200Z AUTO 23002KT 6SM M08/M17 A3021 RMK SLP228 T10751168 57013 IEM_DS3505
ZBAA,2001-01-09 13:00,ZBAA 091300Z AUTO 06002KT 4SM M10/M15 A3021 RMK T11001150 IEM_DS3505
ZBAA,2001-01-09 14:00,ZBAA 091400Z AUTO 08004KT 3SM M10/M15 A3018 RMK T11001150 IEM_DS3505
ZBAA,2001-01-09 15:00,ZBAA 091500Z AUTO 05002KT 6SM M10/M18 A3015 RMK SLP212 T10991176 57016 IEM_DS3505
ZBAA,2001-01-09 16:00,ZBAA 091600Z AUTO 36002KT 2 1/2SM M10/M15 A3015 RMK T11001150 IEM_DS3505
ZBAA,2001-01-09 17:00,ZBAA 091700Z AUTO 07002KT 2SM M09/M12 A3012 RMK T10901120 IEM_DS3505
ZBAA,2001-01-09 18:00,ZBAA 091800Z AUTO 06004KT 6SM M08/M13 A3009 RMK SLP190 T10831129 57021 IEM_DS3505
ZBAA,2001-01-09 19:00,ZBAA 091900Z AUTO 34004KT 2SM M08/M12 A3009 RMK T10801120 IEM_DS3505
ZBAA,2001-01-09 20:00,ZBAA 092000Z AUTO 35004KT 2 1/2SM M08/M13 A3006 RMK T10801130 IEM_DS3505
ZBAA,2001-01-09 21:00,ZBAA 092100Z AUTO 02002KT 6SM M07/M12 A3003 RMK SLP172 T10721117 57018 IEM_DS3505
ZBAA,2001-01-09 22:00,ZBAA 092200Z AUTO 00000KT 4SM M08/M13 A3003 RMK T10801130 IEM_DS3505
ZBAA,2001-01-09 23:00,ZBAA 092300Z AUTO 35004KT 3SM M08/M12 A3006 RMK T10801120 IEM_DS3505
ZBAA,2001-01-10 00:00,ZBAA 100000Z AUTO 04002KT 4SM M08/M13 A3006 RMK SLP173 T10761128 52001 IEM_DS3505
ZBAA,2001-01-10 01:00,ZBAA 100100Z AUTO 03004KT 3SM M09/M13 A3006 RMK T10901130 IEM_DS3505
ZBAA,2001-01-10 02:00,ZBAA 100200Z AUTO 01006KT 12SM M06/M12 A3009 RMK T10601120 IEM_DS3505
ZBAA,2001-01-10 03:00,ZBAA 100300Z AUTO 02004KT 12SM M04/M14 A3009 RMK SLP184 T10381139 52011 IEM_DS3505
ZBAA,2001-01-10 04:00,ZBAA 100400Z AUTO 03004KT 6SM M04/M13 A3006 RMK T10401130 IEM_DS3505
ZBAA,2001-01-10 05:00,ZBAA 100500Z AUTO 05004KT 6SM M03/M15 A3003 RMK T10301150 IEM_DS3505
ZBAA,2001-01-10 06:00,ZBAA 100600Z AUTO 05006KT 12SM M03/M17 A3000 RMK SLP156 T10291168 57028 IEM_DS3505
ZBAA,2001-01-10 07:00,ZBAA 100700Z AUTO 11006KT 6SM M03/M16 A2997 RMK T10301160 IEM_DS3505
ZBAA,2001-01-10 08:00,ZBAA 100800Z AUTO 15006KT 6SM M03/M16 A3000 RMK T10301160 IEM_DS3505
ZBAA,2001-01-10 09:00,ZBAA 100900Z AUTO 23004KT 12SM M04/M15 A3000 RMK SLP166 T10421154 52010 IEM_DS3505
ZBAA,2001-01-10 10:00,ZBAA 101000Z AUTO 17004KT 6SM M06/M15 A3003 RMK T10601150 IEM_DS3505
ZBAA,2001-01-10 11:00,ZBAA 101100Z AUTO 22008KT 3SM M04/M10 A3003 RMK T10401100 IEM_DS3505
ZBAA,2001-01-10 12:00,ZBAA 101200Z AUTO 24006KT 6SM M06/M12 A3006 RMK SLP181 T10631119 52015 IEM_DS3505
ZBAA,2001-01-10 13:00,ZBAA 101300Z AUTO 05002KT 2SM M09/M12 A3006 RMK T10901120 IEM_DS3505
ZBAA,2001-01-10 14:00,ZBAA 101400Z AUTO 07002KT 1 1/4SM M09/M11 A3009 RMK T10901110 IEM_DS3505
ZBAA,2001-01-10 15:00,ZBAA 101500Z AUTO 30006KT 6SM M06/M12 A3009 RMK SLP187 T10551120 52006 IEM_DS3505
ZBAA,2001-01-10 16:00,ZBAA 101600Z AUTO 05002KT 1SM M12/M14 A3012 RMK T11201140 IEM_DS3505
ZBAA,2001-01-10 17:00,ZBAA 101700Z AUTO 08002KT 1SM M11/M12 A3012 RMK T11101120 IEM_DS3505
ZBAA,2001-01-10 18:00,ZBAA 101800Z AUTO 06004KT 9SM M12/M14 A3012 RMK SLP201 T11151141 52014 IEM_DS3505
ZBAA,2001-01-10 19:00,ZBAA 101900Z AUTO 1SM M12/M13 A3015 RMK T11201130 IEM_DS3505
ZBAA,2001-01-10 20:00,ZBAA 102000Z AUTO 1/2SM M13/M14 A3015 RMK T11301140 IEM_DS3505
ZBAA,2001-01-10 21:00,ZBAA 102100Z AUTO 00000KT M10/M12 A3015 RMK SLP204 T10981123 52003 IEM_DS3505
ZBAA,2001-01-10 22:00,ZBAA 102200Z AUTO 35002KT 1SM M15/M16 A3018 RMK T11501160 IEM_DS3505
ZBAA,2001-01-10 23:00,ZBAA 102300Z AUTO 36004KT 1 1/4SM M16/M18 A3018 RMK T11601180 IEM_DS3505
ZBAA,2001-01-11 00:00,ZBAA 110000Z AUTO 09004KT 6SM M13/M18 A3021 RMK SLP229 T11291179 52024 IEM_DS3505
ZBAA,2001-01-11 01:00,ZBAA 110100Z AUTO 02006KT 6SM M11/M17 A3024 RMK T11101170 IEM_DS3505
ZBAA,2001-01-11 02:00,ZBAA 110200Z AUTO 02004KT 6SM M09/M20 A3027 RMK T10901200 IEM_DS3505
ZBAA,2001-01-11 03:00,ZBAA 110300Z AUTO 09004KT 19SM M07/M21 A3027 RMK SLP240 T10691211 52011 IEM_DS3505
ZBAA,2001-01-11 04:00,ZBAA 110400Z AUTO 03004KT 6SM M07/M22 A3024 RMK T10701220 IEM_DS3505
ZBAA,2001-01-11 05:00,ZBAA 110500Z AUTO 02004KT 6SM M06/M22 A3021 RMK T10601220 IEM_DS3505
ZBAA,2001-01-11 06:00,ZBAA 110600Z AUTO 09004KT 19SM M05/M21 A3021 RMK SLP225 T10521208 57015 IEM_DS3505
ZBAA,2001-01-11 07:00,ZBAA 110700Z AUTO 04004KT 6SM M06/M20 A3018 RMK T10601200 IEM_DS3505
ZBAA,2001-01-11 08:00,ZBAA 110800Z AUTO 12004KT 6SM M07/M21 A3021 RMK T10701210 IEM_DS3505
ZBAA,2001-01-11 09:00,ZBAA 110900Z AUTO 20004KT 19SM M07/M20 A3024 RMK SLP243 T10741201 52018 IEM_DS3505
ZBAA,2001-01-11 10:00,ZBAA 111000Z AUTO 19004KT 6SM M09/M21 A3027 RMK T10901210 IEM_DS3505
ZBAA,2001-01-11 11:00,ZBAA 111100Z AUTO 18006KT 6SM M10/M19 A3027 RMK T11001190 IEM_DS3505
ZBAA,2001-01-11 12:00,ZBAA 111200Z AUTO 20002KT 12SM M10/M17 A3030 RMK SLP257 T11021170 52014 IEM_DS3505
ZBAA,2001-01-11 13:00,ZBAA 111300Z AUTO 23004KT 6SM M09/M16 A3030 RMK T10901160 IEM_DS3505
ZBAA,2001-01-11 14:00,ZBAA 111400Z AUTO 00000KT 5SM M11/M17 A3030 RMK T11101170 IEM_DS3505
ZBAA,2001-01-11 15:00,ZBAA 111500Z AUTO 22002KT 10SM M11/M17 A3030 RMK SLP257 T11091167 54000 IEM_DS3505
ZBAA,2001-01-11 16:00,ZBAA 111600Z AUTO 11002KT 3SM M15/M18 A3030 RMK T11501180 IEM_DS3505
ZBAA,2001-01-11 17:00,ZBAA 111700Z AUTO 12002KT 3SM M14/M16 A3030 RMK T11401160 IEM_DS3505
ZBAA,2001-01-11 18:00,ZBAA 111800Z AUTO 13002KT 6SM M12/M17 A3030 RMK SLP253 T11221174 57004 IEM_DS3505
ZBAA,2001-01-11 19:00,ZBAA 111900Z AUTO 10004KT 2 1/2SM M14/M16 A3027 RMK T11401160 IEM_DS3505
ZBAA,2001-01-11 20:00,ZBAA 112000Z AUTO 2 1/2SM M15/M17 A3027 RMK T11501170 IEM_DS3505
ZBAA,2001-01-11 21:00,ZBAA 112100Z AUTO 13002KT 6SM M14/M18 A3027 RMK SLP249 T11421181 57004 IEM_DS3505
ZBAA,2001-01-11 22:00,ZBAA 112200Z AUTO 04002KT 2SM M15/M17 A3027 RMK T11501170 IEM_DS3505
ZBAA,2001-01-11 23:00,ZBAA 112300Z AUTO 05002KT 2SM M16/M18 A3027 RMK T11601180 IEM_DS3505
ZBAA,2001-01-12 00:00,ZBAA 120000Z AUTO 06004KT 4SM M14/M18 A3027 RMK SLP246 T11391181 57003 IEM_DS3505
ZBAA,2001-01-12 01:00,ZBAA 120100Z AUTO 00000KT 1 1/4SM M14/M16 A3027 RMK T11401160 IEM_DS3505
ZBAA,2001-01-12 02:00,ZBAA 120200Z AUTO 14004KT 1 1/2SM M13/M15 A3027 RMK T11301150 IEM_DS3505
ZBAA,2001-01-12 03:00,ZBAA 120300Z AUTO 10004KT 5SM M10/M16 A3027 RMK SLP248 T11001157 52002 IEM_DS3505
ZBAA,2001-01-12 04:00,ZBAA 120400Z AUTO 12002KT 1 1/2SM M10/M14 A3024 RMK T11001140 IEM_DS3505
ZBAA,2001-01-12 05:00,ZBAA 120500Z AUTO 08002KT 1 1/2SM M09/M14 A3021 RMK T10901140 IEM_DS3505
ZBAA,2001-01-12 06:00,ZBAA 120600Z AUTO 10002KT 5SM M07/M14 A3018 RMK 60003 SLP221 T10661143 57027 IEM_DS3505
ZBAA,2001-01-12 07:00,ZBAA 120700Z AUTO 10004KT 2SM M08/M14 A3018 RMK T10801140 IEM_DS3505
ZBAA,2001-01-12 08:00,ZBAA 120800Z AUTO 05002KT 2SM M08/M13 A3018 RMK T10801130 IEM_DS3505
ZBAA,2001-01-12 09:00,ZBAA 120900Z AUTO 03002KT 5SM M08/M14 A3021 RMK SLP229 T10761138 52008 IEM_DS3505
ZBAA,2001-01-12 10:00,ZBAA 121000Z AUTO 01002KT 2 1/2SM M09/M14 A3024 RMK T10901140 IEM_DS3505
ZBAA,2001-01-12 11:00,ZBAA 121100Z AUTO 27004KT 2SM M09/M14 A3027 RMK T10901140 IEM_DS3505
ZBAA,2001-01-12 12:00,ZBAA 121200Z AUTO 07002KT 4SM M11/M16 A3027 RMK SLP254 T11141156 52025 IEM_DS3505
ZBAA,2001-01-12 13:00,ZBAA 121300Z AUTO 10002KT 1 1/2SM M11/M14 A3030 RMK T11101140 IEM_DS3505
ZBAA,2001-01-12 14:00,ZBAA 121400Z AUTO 15002KT 1 1/2SM M12/M14 A3033 RMK T11201140 IEM_DS3505
ZBAA,2001-01-12 15:00,ZBAA 121500Z AUTO 07004KT 2 1/2SM M11/M15 A3033 RMK SLP265 T11091149 52011 IEM_DS3505
ZBAA,2001-01-12 16:00,ZBAA 121600Z AUTO 00000KT 1 1/2SM M13/M15 A3033 RMK T11301150 IEM_DS3505
ZBAA,2001-01-12 17:00,ZBAA 121700Z AUTO 14002KT 1 1/2SM M12/M14 A3033 RMK T11201140 IEM_DS3505
ZBAA,2001-01-12 18:00,ZBAA 121800Z AUTO 13006KT 2 1/2SM M11/M15 A3036 RMK SLP277 T11141152 52012 IEM_DS3505
ZBAA,2001-01-12 19:00,ZBAA 121900Z AUTO 00000KT 1 1/4SM M12/M13 A3036 RMK T11201130 IEM_DS3505
ZBAA,2001-01-12 20:00,ZBAA 122000Z AUTO 19002KT 1SM M13/M14 A3039 RMK T11301140 IEM_DS3505
ZBAA,2001-01-12 21:00,ZBAA 122100Z AUTO 08004KT 6SM M13/M18 A3039 RMK 70003 SLP288 T11291179 52011 IEM_DS3505
ZBAA,2001-01-12 22:00,ZBAA 122200Z AUTO 07002KT 1SM M14/M15 A3042 RMK T11401150 IEM_DS3505
ZBAA,2001-01-12 23:00,ZBAA 122300Z AUTO 00000KT 1SM M15/M16 A3045 RMK T11501160 IEM_DS3505
ZBAA,2001-01-13 00:00,ZBAA 130000Z AUTO 03002KT 4SM M12/M17 A3047 RMK 70003 SLP318 T11251171 52029 IEM_DS3505
ZBAA,2001-01-13 01:00,ZBAA 130100Z AUTO 36006KT 1 1/4SM M12/M15 A3050 RMK T11201150 IEM_DS3505
ZBAA,2001-01-13 02:00,ZBAA 130200Z AUTO 36006KT 5SM M11/M22 A3053 RMK T11101220 IEM_DS3505
ZBAA,2001-01-13 03:00,ZBAA 130300Z AUTO 34006KT 12SM M08/M22 A3053 RMK SLP332 T10791220 52015 IEM_DS3505
ZBAA,2001-01-13 04:00,ZBAA 130400Z AUTO 32016KT 6SM M08/M20 A3050 RMK T10801200 IEM_DS3505
ZBAA,2001-01-13 05:00,ZBAA 130500Z AUTO 31017G29KT 6SM M08/M21 A3047 RMK T10801210 IEM_DS3505
ZBAA,2001-01-13 06:00,ZBAA 130600Z AUTO 32010KT 12SM M06/M24 A3047 RMK SLP319 T10641235 57013 IEM_DS3505
ZBAA,2001-01-13 07:00,ZBAA 130700Z AUTO 30014KT 6SM M07/M21 A3047 RMK T10701210 IEM_DS3505
ZBAA,2001-01-13 08:00,ZBAA 130800Z AUTO 29012KT 6SM M08/M21 A3050 RMK T10801210 IEM_DS3505
ZBAA,2001-01-13 09:00,ZBAA 130900Z AUTO 33008KT 19SM M08/M25 A3050 RMK SLP336 T10751249 52017 IEM_DS3505
ZBAA,2001-01-13 10:00,ZBAA 131000Z AUTO 30008KT 6SM M09/M22 A3053 RMK T10901220 IEM_DS3505
ZBAA,2001-01-13 11:00,ZBAA 131100Z AUTO 30021G35KT 6SM M10/M25 A3056 RMK T11001250 IEM_DS3505
ZBAA,2001-01-13 12:00,ZBAA 131200Z AUTO 33004KT 12SM M09/M25 A3056 RMK SLP352 T10931251 52015 IEM_DS3505
ZBAA,2001-01-13 14:00,ZBAA 131400Z AUTO 35010KT 6SM M13/M24 A3056 RMK T11301240 IEM_DS3505
ZBAA,2001-01-13 15:00,ZBAA 131500Z AUTO 31006KT 9SM M10/M26 A3056 RMK SLP350 T11021263 57001 IEM_DS3505
ZBAA,2001-01-13 16:00,ZBAA 131600Z AUTO 35006KT 6SM M14/M25 A3059 RMK T11401250 IEM_DS3505
ZBAA,2001-01-13 17:00,ZBAA 131700Z AUTO 33008KT 6SM M13/M25 A3056 RMK T11301250 IEM_DS3505
ZBAA,2001-01-13 18:00,ZBAA 131800Z AUTO 32010KT 19SM M10/M26 A3056 RMK SLP347 T11021263 57003 IEM_DS3505
ZBAA,2001-01-13 19:00,ZBAA 131900Z AUTO 31006KT 6SM M14/M25 A3056 RMK T11401250 IEM_DS3505
ZBAA,2001-01-13 20:00,ZBAA 132000Z AUTO 30004KT 6SM M13/M26 A3053 RMK T11301260 IEM_DS3505
ZBAA,2001-01-13 21:00,ZBAA 132100Z AUTO 32006KT 19SM M10/M26 A3053 RMK SLP337 T10991265 57010 IEM_DS3505
ZBAA,2001-01-13 22:00,ZBAA 132200Z AUTO 35008KT 6SM M15/M26 A3056 RMK T11501260 IEM_DS3505
ZBAA,2001-01-13 23:00,ZBAA 132300Z AUTO 34017G27KT 6SM M13/M26 A3056 RMK T11301260 IEM_DS3505
ZBAA,2001-01-14 00:00,ZBAA 140000Z AUTO 01004G33KT 19SM M13/M28 A3059 RMK SLP359 T11301275 52021 IEM_DS3505
ZBAA,2001-01-14 01:00,ZBAA 140100Z AUTO 33014KT 6SM M12/M26 A3062 RMK T11201260 IEM_DS3505
ZBAA,2001-01-14 02:00,ZBAA 140200Z AUTO 31016KT 6SM M12/M27 A3062 RMK T11201270 IEM_DS3505
ZBAA,2001-01-14 03:00,ZBAA 140300Z AUTO 34010KT 19SM M10/M28 A3062 RMK SLP367 T11011276 52008 IEM_DS3505
ZBAA,2001-01-14 04:00,ZBAA 140400Z AUTO 32016KT 6SM M10/M24 A3059 RMK T11001240 IEM_DS3505
ZBAA,2001-01-14 05:00,ZBAA 140500Z AUTO 30014G23KT 6SM M09/M24 A3056 RMK T10901240 IEM_DS3505
ZBAA,2001-01-14 06:00,ZBAA 140600Z AUTO 34006KT 19SM M07/M26 A3053 RMK SLP342 T10731258 57024 IEM_DS3505
ZBAA,2001-01-14 08:00,ZBAA 140800Z AUTO 29014KT 6SM M08/M23 A3053 RMK T10801230 IEM_DS3505
ZBAA,2001-01-14 09:00,ZBAA 140900Z AUTO 33006KT 19SM M08/M27 A3056 RMK SLP349 T10771266 52007 IEM_DS3505
ZBAA,2001-01-14 10:00,ZBAA 141000Z AUTO 31014KT 6SM M09/M23 A3059 RMK T10901230 IEM_DS3505
ZBAA,2001-01-14 11:00,ZBAA 141100Z AUTO 32012KT 6SM M10/M24 A3059 RMK T11001240 IEM_DS3505
ZBAA,2001-01-14 12:00,ZBAA 141200Z AUTO 33004KT 19SM M09/M26 A3059 RMK SLP364 T10941261 52014 IEM_DS3505
ZBAA,2001-01-14 13:00,ZBAA 141300Z AUTO 35010KT 6SM M12/M25 A3062 RMK T11201250 IEM_DS3505
ZBAA,2001-01-14 14:00,ZBAA 141400Z AUTO 36002KT 6SM M13/M25 A3062 RMK T11301250 IEM_DS3505
ZBAA,2001-01-14 15:00,ZBAA 141500Z AUTO 35002KT 19SM M12/M27 A3062 RMK SLP367 T11151266 52003 IEM_DS3505
ZBAA,2001-01-14 16:00,ZBAA 141600Z AUTO 02004KT 6SM M15/M26 A3062 RMK T11501260 IEM_DS3505
ZBAA,2001-01-14 17:00,ZBAA 141700Z AUTO 36008KT 6SM M15/M26 A3062 RMK T11501260 IEM_DS3505
ZBAA,2001-01-14 18:00,ZBAA 141800Z AUTO 31002KT 16SM M12/M26 A3062 RMK SLP365 T11171257 57001 IEM_DS3505
ZBAA,2001-01-14 19:00,ZBAA 141900Z AUTO 24002KT 6SM M16/M25 A3062 RMK T11601250 IEM_DS3505
ZBAA,2001-01-14 20:00,ZBAA 142000Z AUTO 36004KT 6SM M17/M26 A3059 RMK T11701260 IEM_DS3505
ZBAA,2001-01-14 21:00,ZBAA 142100Z AUTO 10002KT 16SM M16/M27 A3059 RMK SLP359 T11591266 57007 IEM_DS3505
ZBAA,2001-01-14 22:00,ZBAA 142200Z AUTO 36004KT 6SM M18/M26 A3059 RMK T11801260 IEM_DS3505
ZBAA,2001-01-14 23:00,ZBAA 142300Z AUTO 35008KT 6SM M19/M26 A3059 RMK T11901260 IEM_DS3505
ZBAA,2001-01-15 00:00,ZBAA 150000Z AUTO 19002KT 6SM M16/M27 RMK SLP366 T11641270 52007 IEM_DS3505
ZBAA,2001-01-15 00:11,ZBAA 150011Z AUTO 35006KT 6SM M18/M26 A3059 RMK T11801260 IEM_DS3505
ZBAA,2001-01-15 01:00,ZBAA 150100Z AUTO 33002KT 6SM M14/M25 A3062 RMK T11401250 IEM_DS3505
ZBAA,2001-01-15 02:00,ZBAA 150200Z AUTO 35004KT 6SM M12/M26 A3062 RMK T11201260 IEM_DS3505
ZBAA,2001-01-15 03:00,ZBAA 150300Z AUTO 11002KT 12SM M09/M24 A3059 RMK SLP363 T10901245 57002 IEM_DS3505
ZBAA,2001-01-15 04:00,ZBAA 150400Z AUTO 01004KT 6SM M10/M24 A3056 RMK T11001240 IEM_DS3505
ZBAA,2001-01-15 05:00,ZBAA 150500Z AUTO 6SM M07/M22 A3053 RMK T10701220 IEM_DS3505
ZBAA,2001-01-15 06:00,ZBAA 150600Z AUTO 21008KT 10SM M08/M19 A3053 RMK SLP337 T10791193 57026 IEM_DS3505
ZBAA,2001-01-15 07:00,ZBAA 150700Z AUTO 11006KT 6SM M07/M20 A3050 RMK T10701200 IEM_DS3505
ZBAA,2001-01-15 08:00,ZBAA 150800Z AUTO 12004KT 6SM M07/M19 A3050 RMK T10701190 IEM_DS3505
ZBAA,2001-01-15 09:00,ZBAA 150900Z AUTO 21004KT 6SM M09/M19 A3050 RMK SLP333 T10881188 57005 IEM_DS3505
ZBAA,2001-01-15 10:00,ZBAA 151000Z AUTO 14002KT 3SM M10/M16 A3050 RMK T11001160 IEM_DS3505
ZBAA,2001-01-15 11:00,ZBAA 151100Z AUTO 13002KT 2 1/2SM M11/M16 A3053 RMK T11101160 IEM_DS3505
ZBAA,2001-01-15 12:00,ZBAA 151200Z AUTO 20004KT 12SM M11/M20 A3053 RMK SLP343 T11121200 52010 IEM_DS3505
ZBAA,2001-01-15 13:00,ZBAA 151300Z AUTO 07002KT 2SM M13/M17 A3053 RMK T11301170 IEM_DS3505
ZBAA,2001-01-15 14:00,ZBAA 151400Z AUTO 14002KT 2SM M12/M18 A3056 RMK T11201180 IEM_DS3505
ZBAA,2001-01-15 15:00,ZBAA 151500Z AUTO 00000KT 12SM M12/M20 A3056 RMK SLP347 T11181198 52004 IEM_DS3505
ZBAA,2001-01-15 16:00,ZBAA 151600Z AUTO 34002KT 1 1/2SM M14/M17 A3053 RMK T11401170 IEM_DS3505
ZBAA,2001-01-15 17:00,ZBAA 151700Z AUTO 36002KT 1 1/4SM M14/M17 A3053 RMK T11401170 IEM_DS3505
ZBAA,2001-01-15 18:00,ZBAA 151800Z AUTO 19002KT 5SM M14/M19 A3053 RMK SLP341 T11421188 57006 IEM_DS3505
ZBAA,2001-01-15 19:00,ZBAA 151900Z AUTO 36004KT 1 1/4SM M15/M20 A3053 RMK T11501200 IEM_DS3505
ZBAA,2001-01-15 20:00,ZBAA 152000Z AUTO 34006KT 1 1/2SM M16/M20 A3053 RMK T11601200 IEM_DS3505
ZBAA,2001-01-15 21:00,ZBAA 152100Z AUTO 22002KT 3SM M15/M19 A3053 RMK SLP335 T11511193 57006 IEM_DS3505
ZBAA,2001-01-15 22:00,ZBAA 152200Z AUTO 35006KT 2 1/2SM M15/M21 A3050 RMK T11501210 IEM_DS3505
ZBAA,2001-01-15 23:00,ZBAA 152300Z AUTO 34006KT 4SM M17/M22 A3053 RMK T11701220 IEM_DS3505
ZBAA,2001-01-16 00:00,ZBAA 160000Z AUTO 31002KT 3SM M15/M18 A3053 RMK SLP337 T11481185 52002 IEM_DS3505
ZBAA,2001-01-16 01:00,ZBAA 160100Z AUTO 35006KT 6SM M13/M20 A3053 RMK T11301200 IEM_DS3505
ZBAA,2001-01-16 02:00,ZBAA 160200Z AUTO 36004KT 6SM M11/M21 A3053 RMK T11101210 IEM_DS3505
ZBAA,2001-01-16 03:00,ZBAA 160300Z AUTO 06004KT 6SM M08/M20 A3053 RMK SLP335 T10831203 57001 IEM_DS3505
ZBAA,2001-01-16 04:00,ZBAA 160400Z AUTO 06002KT 6SM M08/M19 A3050 RMK T10801190 IEM_DS3505
ZBAA,2001-01-16 05:00,ZBAA 160500Z AUTO 6SM M06/M19 A3045 RMK T10601190 IEM_DS3505
ZBAA,2001-01-16 06:00,ZBAA 160600Z AUTO 12002KT 6SM M05/M17 A3042 RMK SLP305 T10531167 57030 IEM_DS3505
ZBAA,2001-01-16 07:00,ZBAA 160700Z AUTO 14002KT 6SM M06/M17 A3045 RMK T10601170 IEM_DS3505
ZBAA,2001-01-16 08:00,ZBAA 160800Z AUTO 11004KT 6SM M07/M16 A3042 RMK T10701160 IEM_DS3505
ZBAA,2001-01-16 09:00,ZBAA 160900Z AUTO 10002KT 6SM M07/M17 A3042 RMK SLP302 T10671171 57003 IEM_DS3505
ZBAA,2001-01-16 10:00,ZBAA 161000Z AUTO 11002KT 3SM M09/M15 A3042 RMK T10901150 IEM_DS3505
ZBAA,2001-01-16 11:00,ZBAA 161100Z AUTO 11002KT 2 1/2SM M10/M15 A3045 RMK T11001150 IEM_DS3505
ZBAA,2001-01-16 12:00,ZBAA 161200Z AUTO 08004KT 5SM M09/M17 A3045 RMK SLP310 T10931166 52007 IEM_DS3505
ZBAA,2001-01-16 13:00,ZBAA 161300Z AUTO 00000KT 1 1/2SM M11/M15 A3045 RMK T11101150 IEM_DS3505
ZBAA,2001-01-16 14:00,ZBAA 161400Z AUTO 00000KT 1 1/4SM M12/M15 A3045 RMK T11201150 IEM_DS3505
ZBAA,2001-01-16 15:00,ZBAA 161500Z AUTO 19002KT 4SM M10/M16 A3045 RMK SLP305 T11051158 57004 IEM_DS3505
ZBAA,2001-01-16 16:00,ZBAA 161600Z AUTO 00000KT 1SM M12/M15 A3045 RMK T11201150 IEM_DS3505
ZBAA,2001-01-16 17:00,ZBAA 161700Z AUTO 00000KT 1SM M13/M16 A3045 RMK T11301160 IEM_DS3505
ZBAA,2001-01-16 18:00,ZBAA 161800Z AUTO 00000KT 4SM M12/M16 A3042 RMK SLP300 T11241157 57005 IEM_DS3505
ZBAA,2001-01-16 19:00,ZBAA 161900Z AUTO 00000KT 1SM M14/M16 A3042 RMK T11401160 IEM_DS3505
ZBAA,2001-01-16 20:00,ZBAA 162000Z AUTO 34004KT 1SM M14/M17 A3039 RMK T11401170 IEM_DS3505
ZBAA,2001-01-16 21:00,ZBAA 162100Z AUTO 00000KT 2 1/2SM M12/M15 A3039 RMK SLP284 T11151147 57016 IEM_DS3505
ZBAA,2001-01-16 22:00,ZBAA 162200Z AUTO 34004KT 1SM M14/M17 A3039 RMK T11401170 IEM_DS3505
ZBAA,2001-01-16 23:00,ZBAA 162300Z AUTO 00000KT 1SM M15/M17 A3039 RMK T11501170 IEM_DS3505
ZBAA,2001-01-17 00:00,ZBAA 170000Z AUTO 09002KT 2SM M13/M18 A3039 RMK SLP286 T11271175 52002 IEM_DS3505
ZBAA,2001-01-17 01:00,ZBAA 170100Z AUTO 7SM M13/M16 A3039 RMK T11301160 IEM_DS3505
ZBAA,2001-01-17 02:00,ZBAA 170200Z AUTO 34004KT 1 1/2SM M11/M15 A3039 RMK T11101150 IEM_DS3505
ZBAA,2001-01-17 03:00,ZBAA 170300Z AUTO 00000KT 2 1/2SM M07/M15 A3039 RMK SLP284 T10681147 57002 IEM_DS3505
ZBAA,2001-01-17 04:00,ZBAA 170400Z AUTO 32002KT 2SM M07/M14 A3033 RMK T10701140 IEM_DS3505
ZBAA,2001-01-17 05:00,ZBAA 170500Z AUTO 34004KT 2SM M06/M15 A3030 RMK T10601150 IEM_DS3505
ZBAA,2001-01-17 06:00,ZBAA 170600Z AUTO 22006KT 2SM M04/M11 A3027 RMK SLP245 T10371109 57039 IEM_DS3505
ZBAA,2001-01-17 07:00,ZBAA 170700Z AUTO 36004KT 2 1/2SM M04/M14 A3024 RMK T10401140 IEM_DS3505
ZBAA,2001-01-17 08:00,ZBAA 170800Z AUTO 00000KT 2 1/2SM M04/M14 A3021 RMK T10401140 IEM_DS3505
ZBAA,2001-01-17 09:00,ZBAA 170900Z AUTO 23002KT 2SM M04/M12 A3021 RMK SLP235 T10451117 57010 IEM_DS3505
ZBAA,2001-01-17 10:00,ZBAA 171000Z AUTO 00000KT 2SM M06/M13 A3024 RMK T10601130 IEM_DS3505
ZBAA,2001-01-17 11:00,ZBAA 171100Z AUTO 00000KT 1 1/2SM M07/M13 A3024 RMK T10701130 IEM_DS3505
ZBAA,2001-01-17 12:00,ZBAA 171200Z AUTO 22002KT 2 1/2SM M06/M12 A3024 RMK SLP237 T10641124 52002 IEM_DS3505
ZBAA,2001-01-17 13:00,ZBAA 171300Z AUTO 13002KT 1SM M09/M12 A3024 RMK T10901120 IEM_DS3505
ZBAA,2001-01-17 14:00,ZBAA 171400Z AUTO 00000KT 1SM M09/M12 A3027 RMK T10901120 IEM_DS3505
ZBAA,2001-01-17 15:00,ZBAA 171500Z AUTO 08002KT 1 1/4SM M09/M13 A3027 RMK SLP253 T10871131 52016 IEM_DS3505
ZBAA,2001-01-17 16:00,ZBAA 171600Z AUTO 34002KT 1SM M09/M13 A3027 RMK T10901130 IEM_DS3505
ZBAA,2001-01-17 17:00,ZBAA 171700Z AUTO 00000KT 1SM M09/M13 A3027 RMK T10901130 IEM_DS3505
ZBAA,2001-01-17 18:00,ZBAA 171800Z AUTO 04002KT 1SM M10/M13 A3030 RMK SLP260 T10981126 52007 IEM_DS3505
ZBAA,2001-01-17 19:00,ZBAA 171900Z AUTO 00000KT 1SM M10/M13 A3030 RMK T11001130 IEM_DS3505
ZBAA,2001-01-17 20:00,ZBAA 172000Z AUTO 16002KT 1SM M12/M14 A3030 RMK T11201140 IEM_DS3505
ZBAA,2001-01-17 21:00,ZBAA 172100Z AUTO 00000KT 1SM M13/M15 A3033 RMK T11301150 IEM_DS3505
ZBAA,2001-01-17 22:00,ZBAA 172200Z AUTO 06002KT 1SM M13/M15 A3036 RMK T11301150 IEM_DS3505
ZBAA,2001-01-17 23:00,ZBAA 172300Z AUTO 17002KT 1SM M12/M13 A3039 RMK T11201130 IEM_DS3505
ZBAA,2001-01-18 00:00,ZBAA 180000Z AUTO 07004KT 1SM M08/M11 A3045 RMK SLP305 T10801108 52042 IEM_DS3505
ZBAA,2001-01-18 01:00,ZBAA 180100Z AUTO 24004KT 1SM M08/M10 A3047 RMK T10801100 IEM_DS3505
ZBAA,2001-01-18 02:00,ZBAA 180200Z AUTO 28004KT 1SM M08/M10 A3050 RMK T10801100 IEM_DS3505
ZBAA,2001-01-18 03:00,ZBAA 180300Z AUTO 09006KT 1SM M07/M10 A3050 RMK SLP326 T10691099 52021 IEM_DS3505
ZBAA,2001-01-18 04:00,ZBAA 180400Z AUTO 29008KT 3/8SM M07/M08 A3050 RMK T10701080 IEM_DS3505
ZBAA,2001-01-18 05:00,ZBAA 180500Z AUTO 29006KT 1/2SM M07/M07 A3047 RMK T10701070 IEM_DS3505
ZBAA,2001-01-18 06:00,ZBAA 180600Z AUTO 11006KT 1 1/4SM M07/M10 A3047 RMK 60000 SLP314 T10661099 57012 IEM_DS3505
ZBAA,2001-01-18 07:00,ZBAA 180700Z AUTO 32004KT 1SM M06/M07 A3047 RMK T10601070 IEM_DS3505
ZBAA,2001-01-18 08:00,ZBAA 180800Z AUTO 28006KT 1SM M06/M08 A3045 RMK T10601080 IEM_DS3505
ZBAA,2001-01-18 09:00,ZBAA 180900Z AUTO 25002KT 4SM M06/M10 A3047 RMK SLP319 T10631098 52005 IEM_DS3505
ZBAA,2001-01-18 10:00,ZBAA 181000Z AUTO 28006KT 1SM M06/M08 A3047 RMK T10601080 IEM_DS3505
ZBAA,2001-01-18 11:00,ZBAA 181100Z AUTO 28006KT 1SM M06/M07 A3050 RMK T10601070 IEM_DS3505
ZBAA,2001-01-18 12:00,ZBAA 181200Z AUTO 00000KT 3SM M06/M10 A3047 RMK 60000 SLP326 T10581098 52007 IEM_DS3505
ZBAA,2001-01-18 13:00,ZBAA 181300Z AUTO 28004KT 1SM M05/M08 A3053 RMK T10501080 IEM_DS3505
ZBAA,2001-01-18 14:00,ZBAA 181400Z AUTO 30004KT 1SM M06/M08 A3053 RMK T10601080 IEM_DS3505
ZBAA,2001-01-18 15:00,ZBAA 181500Z AUTO 16002KT 3SM M05/M07 A3050 RMK T10501070 IEM_DS3505
ZBAA,2001-01-18 16:00,ZBAA 181600Z AUTO 23002KT 1SM M06/M07 A3053 RMK T10601070 IEM_DS3505
ZBAA,2001-01-18 17:00,ZBAA 181700Z AUTO 18004KT 1SM M06/M08 A3050 RMK T10601080 IEM_DS3505
ZBAA,2001-01-18 18:00,ZBAA 181800Z AUTO 19002KT 2 1/2SM M06/M10 A3050 RMK SLP334 T10631105 52001 IEM_DS3505
ZBAA,2001-01-18 19:00,ZBAA 181900Z AUTO 17004KT 1SM M06/M08 A3050 RMK T10601080 IEM_DS3505
ZBAA,2001-01-18 20:00,ZBAA 182000Z AUTO 18004KT 1 1/4SM M06/M09 A3047 RMK T10601090 IEM_DS3505
ZBAA,2001-01-18 21:00,ZBAA 182100Z AUTO 00000KT 3SM M06/M11 A3045 RMK 70002 SLP312 T10631108 57022 IEM_DS3505
ZBAA,2001-01-18 22:00,ZBAA 182200Z AUTO 15002KT 1 1/4SM M07/M09 A3045 RMK T10701090 IEM_DS3505
ZBAA,2001-01-18 23:00,ZBAA 182300Z AUTO 07002KT 1 1/4SM M07/M09 A3047 RMK T10701090 IEM_DS3505
ZBAA,2001-01-19 00:00,ZBAA 190000Z AUTO 00000KT 4SM M08/M13 A3047 RMK 70002 SLP318 T10781126 52006 IEM_DS3505
ZBAA,2001-01-19 01:00,ZBAA 190100Z AUTO 35004KT 1 1/4SM M10/M11 A3047 RMK T11001110 IEM_DS3505
ZBAA,2001-01-19 02:00,ZBAA 190200Z AUTO 36004KT 1SM M07/M08 A3047 RMK T10701080 IEM_DS3505
ZBAA,2001-01-19 03:00,ZBAA 190300Z AUTO 21002KT 6SM M04/M11 A3045 RMK SLP310 T10401108 57008 IEM_DS3505
ZBAA,2001-01-19 04:00,ZBAA 190400Z AUTO 28004KT 2SM M04/M08 A3042 RMK T10401080 IEM_DS3505
ZBAA,2001-01-19 05:00,ZBAA 190500Z AUTO 29004KT 2SM M03/M08 A3036 RMK T10301080 IEM_DS3505
ZBAA,2001-01-19 06:00,ZBAA 190600Z AUTO 24004KT 6SM M02/M10 A3033 RMK SLP273 T10191095 57036 IEM_DS3505
ZBAA,2001-01-19 07:00,ZBAA 190700Z AUTO 27002KT 2 1/2SM M01/M08 A3033 RMK T10101080 IEM_DS3505
ZBAA,2001-01-19 08:00,ZBAA 190800Z AUTO 25004KT 2 1/2SM M01/M08 A3033 RMK T10101080 IEM_DS3505
ZBAA,2001-01-19 09:00,ZBAA 190900Z AUTO 24002KT 1 1/2SM M01/M07 A3033 RMK T10101070 IEM_DS3505
ZBAA,2001-01-19 10:00,ZBAA 191000Z AUTO 00000KT 1 1/4SM M04/M08 A3033 RMK T10401080 IEM_DS3505
ZBAA,2001-01-19 11:00,ZBAA 191100Z AUTO 10002KT 1 1/4SM M06/M08 A3036 RMK T10601080 IEM_DS3505
ZBAA,2001-01-19 12:00,ZBAA 191200Z AUTO 16002KT 4SM M06/M10 A3036 RMK SLP283 T10591105 52008 IEM_DS3505
ZBAA,2001-01-19 13:00,ZBAA 191300Z AUTO 11002KT 1 1/4SM M08/M10 A3039 RMK T10801100 IEM_DS3505
ZBAA,2001-01-19 14:00,ZBAA 191400Z AUTO 11004KT 1SM M08/M10 A3036 RMK T10801100 IEM_DS3505
ZBAA,2001-01-19 15:00,ZBAA 191500Z AUTO 18002KT 2 1/2SM M08/M11 A3036 RMK SLP282 T10841111 57001 IEM_DS3505
ZBAA,2001-01-19 16:00,ZBAA 191600Z AUTO 12006KT 1SM M09/M10 A3036 RMK T10901100 IEM_DS3505
ZBAA,2001-01-19 17:00,ZBAA 191700Z AUTO 11004KT 1SM M10/M11 A3036 RMK T11001110 IEM_DS3505
ZBAA,2001-01-19 18:00,ZBAA 191800Z AUTO 08002KT 1SM M10/M11 A3036 RMK T11001110 IEM_DS3505
ZBAA,2001-01-19 19:00,ZBAA 191900Z AUTO 10004KT 1SM M10/M11 A3033 RMK T11001110 IEM_DS3505
ZBAA,2001-01-19 20:00,ZBAA 192000Z AUTO 10002KT 1/2SM M10/M10 A3033 RMK T11001100 IEM_DS3505
ZBAA,2001-01-19 21:00,ZBAA 192100Z AUTO 23002KT 1 1/4SM M08/M10 A3030 RMK SLP262 T10801099 57012 IEM_DS3505
ZBAA,2001-01-19 22:00,ZBAA 192200Z AUTO 06002KT 3/8SM A3030 RMK IEM_DS3505
ZBAA,2001-01-19 23:00,ZBAA 192300Z AUTO 00000KT 3/8SM M09/M10 A3030 RMK T10901100 IEM_DS3505
ZBAA,2001-01-20 00:00,ZBAA 200000Z AUTO 20002KT 1/8SM M07/M09 A3033 RMK SLP266 T10721090 52003 IEM_DS3505
ZBAA,2001-01-20 01:00,ZBAA 200100Z AUTO 00000KT 3/8SM M09/M09 A3033 RMK T10901090 IEM_DS3505
ZBAA,2001-01-20 02:00,ZBAA 200200Z AUTO 00000KT 1/2SM M08/M09 A3033 RMK T10801090 IEM_DS3505
ZBAA,2001-01-20 03:00,ZBAA 200300Z AUTO 21002KT 3/8SM M07/M09 A3033 RMK SLP263 T10681086 57002 IEM_DS3505
ZBAA,2001-01-20 04:00,ZBAA 200400Z AUTO 00000KT 1SM M07/M07 A3030 RMK T10701070 IEM_DS3505
ZBAA,2001-01-20 05:00,ZBAA 200500Z AUTO 14002KT 1SM M07/M07 A3024 RMK T10701070 IEM_DS3505
ZBAA,2001-01-20 06:00,ZBAA 200600Z AUTO 19002KT 1 1/4SM M05/M07 A3021 RMK 60000 SLP230 T10541071 57033 IEM_DS3505
ZBAA,2001-01-20 07:00,ZBAA 200700Z AUTO 00000KT 1SM M06/M07 A3021 RMK T10601070 IEM_DS3505
ZBAA,2001-01-20 09:00,ZBAA 200900Z AUTO 23002KT 1 1/4SM M06/M07 A3021 RMK SLP229 T10551072 57001 IEM_DS3505
ZBAA,2001-01-20 10:00,ZBAA 201000Z AUTO 1SM M05/M07 A3021 RMK T10501070 IEM_DS3505
ZBAA,2001-01-20 11:00,ZBAA 201100Z AUTO 00000KT 1SM M05/M07 A3024 RMK T10501070 IEM_DS3505
ZBAA,2001-01-20 12:00,ZBAA 201200Z AUTO 24002KT 2 1/2SM M05/M07 A3024 RMK 60003 SLP239 T10541072 52010 IEM_DS3505
ZBAA,2001-01-20 13:00,ZBAA 201300Z AUTO 36002KT 1SM M05/M07 A3024 RMK T10501070 IEM_DS3505
ZBAA,2001-01-20 14:00,ZBAA 201400Z AUTO 36002KT 1SM M05/M07 A3024 RMK T10501070 IEM_DS3505
ZBAA,2001-01-20 15:00,ZBAA 201500Z AUTO 23004KT 1 1/4SM M06/M08 A3024 RMK SLP243 T10571075 52004 IEM_DS3505
ZBAA,2001-01-20 16:00,ZBAA 201600Z AUTO 30002KT 1SM M06/M07 A3027 RMK T10601070 IEM_DS3505
ZBAA,2001-01-20 17:00,ZBAA 201700Z AUTO 28004KT 1SM M06/M07 A3027 RMK T10601070 IEM_DS3505
ZBAA,2001-01-20 18:00,ZBAA 201800Z AUTO 22006KT 1 1/4SM M06/M08 A3024 RMK SLP245 T10621080 52002 IEM_DS3505
ZBAA,2001-01-20 19:00,ZBAA 201900Z AUTO 35004KT 1SM M06/M07 A3027 RMK T10601070 IEM_DS3505
ZBAA,2001-01-20 20:00,ZBAA 202000Z AUTO 33004KT 1SM M07/M07 A3024 RMK T10701070 IEM_DS3505
ZBAA,2001-01-20 21:00,ZBAA 202100Z AUTO 21004KT 1SM M06/M08 A3024 RMK 70001 SLP241 T10611078 57004 IEM_DS3505
ZBAA,2001-01-20 22:00,ZBAA 202200Z AUTO 35004KT 1/2SM M07/M08 A3024 RMK T10701080 IEM_DS3505
ZBAA,2001-01-20 23:00,ZBAA 202300Z AUTO 35002KT 1/2SM M07/M08 A3027 RMK T10701080 IEM_DS3505
ZBAA,2001-01-21 00:00,ZBAA 210000Z AUTO 23004KT 1SM M06/M08 A3027 RMK 70001 SLP250 T10621078 52009 IEM_DS3505
ZBAA,2001-01-21 01:00,ZBAA 210100Z AUTO 00000KT 1SM M08/M08 A3030 RMK T10801080 IEM_DS3505
ZBAA,2001-01-21 02:00,ZBAA 210200Z AUTO 00000KT 1SM M07/M08 A3030 RMK T10701080 IEM_DS3505
ZBAA,2001-01-21 03:00,ZBAA 210300Z AUTO 19004KT 1 1/4SM M06/M07 A3030 RMK SLP256 T10551073 52005 IEM_DS3505
ZBAA,2001-01-21 04:00,ZBAA 210400Z AUTO 00000KT 1SM M06/M07 A3027 RMK T10601070 IEM_DS3505
ZBAA,2001-01-21 05:00,ZBAA 210500Z AUTO 13002KT 1SM M05/M07 A3027 RMK T10501070 IEM_DS3505
ZBAA,2001-01-21 06:00,ZBAA 210600Z AUTO 12002KT 1 1/4SM M05/M07 A3027 RMK SLP244 T10521073 57011 IEM_DS3505
ZBAA,2001-01-21 08:00,ZBAA 210800Z AUTO 14004KT 1SM M05/M06 A3027 RMK T10501060 IEM_DS3505
ZBAA,2001-01-21 09:00,ZBAA 210900Z AUTO 08002KT 2SM M05/M08 A3027 RMK SLP251 T10541078 52007 IEM_DS3505
ZBAA,2001-01-21 10:00,ZBAA 211000Z AUTO 13006KT 1SM M06/M07 A3030 RMK T10601070 IEM_DS3505
ZBAA,2001-01-21 11:00,ZBAA 211100Z AUTO 10008KT 1SM M06/M07 A3033 RMK T10601070 IEM_DS3505
ZBAA,2001-01-21 12:00,ZBAA 211200Z AUTO 11004KT 3SM M06/M08 A3036 RMK SLP275 T10571083 52024 IEM_DS3505
ZBAA,2001-01-21 13:00,ZBAA 211300Z AUTO 00000KT 1SM M06/M07 A3039 RMK T10601070 IEM_DS3505
ZBAA,2001-01-21 14:00,ZBAA 211400Z AUTO 08004KT 1SM M06/M08 A3039 RMK T10601080 IEM_DS3505
ZBAA,2001-01-21 15:00,ZBAA 211500Z AUTO 06004KT 2 1/2SM M06/M08 A3042 RMK SLP293 T10561082 52017 IEM_DS3505
ZBAA,2001-01-21 16:00,ZBAA 211600Z AUTO 05002KT 1SM M06/M08 A3042 RMK T10601080 IEM_DS3505
ZBAA,2001-01-21 17:00,ZBAA 211700Z AUTO 01004KT 1SM M06/M08 A3042 RMK T10601080 IEM_DS3505
ZBAA,2001-01-21 18:00,ZBAA 211800Z AUTO 03002KT 2 1/2SM M06/M08 A3042 RMK 60000 SLP300 T10581085 52007 IEM_DS3505
ZBAA,2001-01-21 19:00,ZBAA 211900Z AUTO 34004KT 1SM M06/M07 A3042 RMK T10601070 IEM_DS3505
ZBAA,2001-01-21 20:00,ZBAA 212000Z AUTO 35004KT 1SM M06/M07 A3042 RMK T10601070 IEM_DS3505
ZBAA,2001-01-21 21:00,ZBAA 212100Z AUTO 01004KT 3SM M06/M08 A3042 RMK 70000 SLP297 T10561083 57003 IEM_DS3505
ZBAA,2001-01-21 22:00,ZBAA 212200Z AUTO 33004KT 1SM M05/M07 RMK T10501070 IEM_DS3505
ZBAA,2001-01-21 23:00,ZBAA 212300Z AUTO 33006KT 1SM M05/M07 A3042 RMK T10501070 IEM_DS3505
ZBAA,2001-01-22 00:00,ZBAA 220000Z AUTO 35002KT 4SM M05/M09 A3045 RMK 60000 SLP305 T10471088 52009 IEM_DS3505
ZBAA,2001-01-22 01:00,ZBAA 220100Z AUTO 33006KT 1SM M05/M07 A3045 RMK T10501070 IEM_DS3505
ZBAA,2001-01-22 02:00,ZBAA 220200Z AUTO 33006KT 1SM M04/M07 A3045 RMK T10401070 IEM_DS3505
ZBAA,2001-01-22 03:00,ZBAA 220300Z AUTO 30004KT 5SM M03/M08 A3045 RMK SLP313 T10331081 52008 IEM_DS3505
ZBAA,2001-01-22 04:00,ZBAA 220400Z AUTO 32008KT 4SM M03/M07 A3045 RMK T10301070 IEM_DS3505
ZBAA,2001-01-22 05:00,ZBAA 220500Z AUTO 30008KT 6SM M02/M08 A3042 RMK T10201080 IEM_DS3505
ZBAA,2001-01-22 06:00,ZBAA 220600Z AUTO 00000KT 6SM M01/M10 A3042 RMK 60000 SLP295 T10101101 57018 IEM_DS3505
ZBAA,2001-01-22 07:00,ZBAA 220700Z AUTO 30004KT 6SM M01/M09 A3039 RMK T10101090 IEM_DS3505
ZBAA,2001-01-22 08:00,ZBAA 220800Z AUTO 28004KT 6SM M01/M11 A3042 RMK T10101110 IEM_DS3505
ZBAA,2001-01-22 09:00,ZBAA 220900Z AUTO 20002KT 6SM M02/M11 A3042 RMK SLP302 T10201107 52007 IEM_DS3505
ZBAA,2001-01-22 10:00,ZBAA 221000Z AUTO 28002KT 6SM M02/M10 A3045 RMK T10201100 IEM_DS3505
ZBAA,2001-01-22 11:00,ZBAA 221100Z AUTO 19004KT 5SM M03/M09 A3047 RMK T10301090 IEM_DS3505
ZBAA,2001-01-22 12:00,ZBAA 221200Z AUTO 25002KT 7SM M04/M11 A3050 RMK SLP327 T10421110 52025 IEM_DS3505
ZBAA,2001-01-22 13:00,ZBAA 221300Z AUTO 15002KT 2 1/2SM M06/M09 A3050 RMK T10601090 IEM_DS3505
ZBAA,2001-01-22 14:00,ZBAA 221400Z AUTO 00000KT 2SM M07/M09 A3053 RMK T10701090 IEM_DS3505
ZBAA,2001-01-22 15:00,ZBAA 221500Z AUTO 20002KT 7SM M07/M11 A3053 RMK SLP344 T10711106 52016 IEM_DS3505
ZBAA,2001-01-22 16:00,ZBAA 221600Z AUTO 10002KT 1 1/4SM M09/M10 A3053 RMK T10901100 IEM_DS3505
ZBAA,2001-01-22 17:00,ZBAA 221700Z AUTO 01002KT 1SM M09/M11 A3053 RMK T10901110 IEM_DS3505
ZBAA,2001-01-22 18:00,ZBAA 221800Z AUTO 00000KT 2SM M09/M11 A3056 RMK SLP346 T10881114 52002 IEM_DS3505
ZBAA,2001-01-22 19:00,ZBAA 221900Z AUTO 03002KT 1SM M11/M12 A3056 RMK T11101120 IEM_DS3505
ZBAA,2001-01-22 20:00,ZBAA 222000Z AUTO 00000KT 1SM M10/M10 A3056 RMK T11001100 IEM_DS3505
ZBAA,2001-01-22 21:00,ZBAA 222100Z AUTO 00000KT 1 1/4SM M11/M13 A3056 RMK 70001 SLP341 T11081131 57005 IEM_DS3505
ZBAA,2001-01-22 22:00,ZBAA 222200Z AUTO 01002KT 1SM M11/M12 A3056 RMK T11101120 IEM_DS3505
ZBAA,2001-01-22 23:00,ZBAA 222300Z AUTO 35004KT 1 1/4SM M12/M13 A3056 RMK T11201130 IEM_DS3505
ZBAA,2001-01-23 00:00,ZBAA 230000Z AUTO 02002KT 1SM M10/M12 A3056 RMK 70000 SLP354 T10961118 52013 IEM_DS3505
ZBAA,2001-01-23 01:00,ZBAA 230100Z AUTO 34004KT 2SM M09/M12 A3059 RMK T10901120 IEM_DS3505
ZBAA,2001-01-23 02:00,ZBAA 230200Z AUTO 34004KT 2SM M08/M11 A3059 RMK T10801110 IEM_DS3505
ZBAA,2001-01-23 03:00,ZBAA 230300Z AUTO 12002KT 4SM M06/M09 A3059 RMK SLP362 T10581093 52008 IEM_DS3505
ZBAA,2001-01-23 04:00,ZBAA 230400Z AUTO 10002KT 2 1/2SM M04/M10 A3056 RMK T10401100 IEM_DS3505
ZBAA,2001-01-23 05:00,ZBAA 230500Z AUTO 10002KT 2SM M04/M08 A3053 RMK T10401080 IEM_DS3505
ZBAA,2001-01-23 06:00,ZBAA 230600Z AUTO 10002KT 4SM M03/M09 A3050 RMK SLP331 T10311093 57031 IEM_DS3505
ZBAA,2001-01-23 07:00,ZBAA 230700Z AUTO 12004KT 1 1/4SM M03/M07 A3050 RMK T10301070 IEM_DS3505
ZBAA,2001-01-23 08:00,ZBAA 230800Z AUTO 14004KT 1 1/4SM M03/M07 A3050 RMK T10301070 IEM_DS3505
ZBAA,2001-01-23 09:00,ZBAA 230900Z AUTO 11002KT 4SM M03/M10 A3047 RMK SLP325 T10281103 57006 IEM_DS3505
ZBAA,2001-01-23 10:00,ZBAA 231000Z AUTO 14002KT 1 1/4SM M03/M08 A3050 RMK T10301080 IEM_DS3505
ZBAA,2001-01-23 11:00,ZBAA 231100Z AUTO 13002KT 1 1/4SM M04/M08 A3050 RMK T10401080 IEM_DS3505
ZBAA,2001-01-23 12:00,ZBAA 231200Z AUTO 14004KT 1 1/2SM M04/M07 A3050 RMK 60000 SLP328 T10421071 52003 IEM_DS3505
ZBAA,2001-01-23 13:00,ZBAA 231300Z AUTO 14002KT 2SM M04/M07 A3050 RMK T10401070 IEM_DS3505
ZBAA,2001-01-23 14:00,ZBAA 231400Z AUTO 00000KT 1 1/4SM M05/M06 A3050 RMK T10501060 IEM_DS3505
ZBAA,2001-01-23 15:00,ZBAA 231500Z AUTO 00000KT 1 1/2SM M05/M07 A3050 RMK SLP322 T10471071 57005 IEM_DS3505
ZBAA,2001-01-23 16:00,ZBAA 231600Z AUTO 06002KT 1SM M05/M05 A3047 RMK T10501050 IEM_DS3505
ZBAA,2001-01-23 17:00,ZBAA 231700Z AUTO 08002KT 1SM M05/M05 A3047 RMK T10501050 IEM_DS3505
ZBAA,2001-01-23 18:00,ZBAA 231800Z AUTO 08002KT 1 1/4SM M05/M07 A3047 RMK 60003 SLP314 T10481074 57008 IEM_DS3505
ZBAA,2001-01-23 19:00,ZBAA 231900Z AUTO 00000KT 1SM M05/M06 A3045 RMK T10501060 IEM_DS3505
ZBAA,2001-01-23 20:00,ZBAA 232000Z AUTO 00000KT 1SM M05/M06 A3045 RMK T10501060 IEM_DS3505
ZBAA,2001-01-23 21:00,ZBAA 232100Z AUTO 06004KT 2 1/2SM M05/M07 A3045 RMK 70001 SLP303 T10491073 57011 IEM_DS3505
ZBAA,2001-01-23 22:00,ZBAA 232200Z AUTO 00000KT 1SM M06/M06 A3042 RMK T10601060 IEM_DS3505
ZBAA,2001-01-23 23:00,ZBAA 232300Z AUTO 36004KT 1SM M06/M06 A3045 RMK T10601060 IEM_DS3505
ZBAA,2001-01-24 00:00,ZBAA 240000Z AUTO 06002KT 2SM M06/M08 A3045 RMK 60000 SLP311 T10551079 52008 IEM_DS3505
ZBAA,2001-01-24 01:00,ZBAA 240100Z AUTO 35004KT 1SM M07/M07 A3045 RMK T10701070 IEM_DS3505
ZBAA,2001-01-24 02:00,ZBAA 240200Z AUTO 36004KT 1SM M06/M06 A3045 RMK T10601060 IEM_DS3505
ZBAA,2001-01-24 03:00,ZBAA 240300Z AUTO 05002KT 4SM M03/M06 A3045 RMK SLP310 T10331064 57002 IEM_DS3505
ZBAA,2001-01-24 04:00,ZBAA 240400Z AUTO 34006KT 1 1/2SM M04/M06 A3042 RMK T10401060 IEM_DS3505
ZBAA,2001-01-24 05:00,ZBAA 240500Z AUTO 33004KT 1 1/2SM M03/M06 A3042 RMK T10301060 IEM_DS3505
ZBAA,2001-01-24 06:00,ZBAA 240600Z AUTO 22004KT 4SM M01/M06 A3039 RMK SLP293 T10101061 57016 IEM_DS3505
ZBAA,2001-01-24 07:00,ZBAA 240700Z AUTO 33004KT 00/M06 A3039 RMK T00001060 IEM_DS3505
ZBAA,2001-01-24 08:00,ZBAA 240800Z AUTO 36004KT 00/M06 A3039 RMK T00001060 IEM_DS3505
ZBAA,2001-01-24 09:00,ZBAA 240900Z AUTO 00000KT 6SM M01/M07 A3036 RMK SLP287 T10141069 57006 IEM_DS3505
ZBAA,2001-01-24 10:00,ZBAA 241000Z AUTO 31002KT 4SM M02/M07 A3039 RMK T10201070 IEM_DS3505
ZBAA,2001-01-24 11:00,ZBAA 241100Z AUTO 30006KT M02/M08 A3039 RMK T10201080 IEM_DS3505
ZBAA,2001-01-24 12:00,ZBAA 241200Z AUTO 35004KT 6SM M01/M14 A3042 RMK SLP298 T10071138 52011 IEM_DS3505
ZBAA,2001-01-24 13:00,ZBAA 241300Z AUTO 33008KT 6SM M03/M11 A3045 RMK T10301110 IEM_DS3505
ZBAA,2001-01-24 14:00,ZBAA 241400Z AUTO 34004KT 6SM M04/M13 A3045 RMK T10401130 IEM_DS3505
ZBAA,2001-01-24 15:00,ZBAA 241500Z AUTO 35006KT 12SM M01/M17 A3047 RMK SLP311 T10091166 52013 IEM_DS3505
ZBAA,2001-01-24 16:00,ZBAA 241600Z AUTO 34010KT 6SM M04/M13 A3047 RMK T10401130 IEM_DS3505
ZBAA,2001-01-24 17:00,ZBAA 241700Z AUTO 35010KT 6SM M04/M13 A3047 RMK T10401130 IEM_DS3505
ZBAA,2001-01-24 18:00,ZBAA 241800Z AUTO 01004KT 7SM M03/M17 A3047 RMK SLP317 T10341166 52006 IEM_DS3505
ZBAA,2001-01-24 19:00,ZBAA 241900Z AUTO 01010KT 6SM M04/M15 A3047 RMK T10401150 IEM_DS3505
ZBAA,2001-01-24 20:00,ZBAA 242000Z AUTO 36006KT 6SM M07/M15 A3047 RMK T10701150 IEM_DS3505
ZBAA,2001-01-24 21:00,ZBAA 242100Z AUTO 02004KT 12SM M05/M17 A3047 RMK 70003 SLP313 T10491166 57004 IEM_DS3505
ZBAA,2001-01-24 22:00,ZBAA 242200Z AUTO 01006KT 6SM M08/M15 A3047 RMK T10801150 IEM_DS3505
ZBAA,2001-01-24 23:00,ZBAA 242300Z AUTO 35006KT 6SM M09/M16 A3047 RMK T10901160 IEM_DS3505
ZBAA,2001-01-25 00:00,ZBAA 250000Z AUTO 04002KT 12SM M06/M18 RMK SLP322 T10581175 52009 IEM_DS3505
ZBAA,2001-01-25 01:00,ZBAA 250100Z AUTO 01006KT 6SM M06/M15 A3050 RMK T10601150 IEM_DS3505
ZBAA,2001-01-25 02:00,ZBAA 250200Z AUTO 36006KT 6SM M04/M14 A3050 RMK T10401140 IEM_DS3505
ZBAA,2001-01-25 03:00,ZBAA 250300Z AUTO 01004KT 9SM M02/M16 A3050 RMK SLP325 T10201157 52003 IEM_DS3505
ZBAA,2001-01-25 04:00,ZBAA 250400Z AUTO 36008KT 6SM M03/M14 A3047 RMK T10301140 IEM_DS3505
ZBAA,2001-01-25 05:00,ZBAA 250500Z AUTO 01006KT 6SM M02/M14 A3045 RMK T10201140 IEM_DS3505
ZBAA,2001-01-25 06:00,ZBAA 250600Z AUTO 00000KT 19SM M01/M15 A3042 RMK SLP299 T10091151 57026 IEM_DS3505
ZBAA,2001-01-25 07:00,ZBAA 250700Z AUTO 33004KT 6SM 00/M13 A3042 RMK T00001130 IEM_DS3505
ZBAA,2001-01-25 08:00,ZBAA 250800Z AUTO 03002KT 6SM M01/M13 A3039 RMK T10101130 IEM_DS3505
ZBAA,2001-01-25 09:00,ZBAA 250900Z AUTO 06004KT 9SM M01/M13 A3039 RMK SLP288 T10131131 57011 IEM_DS3505
ZBAA,2001-01-25 10:00,ZBAA 251000Z AUTO 00000KT 6SM M02/M14 A3039 RMK T10201140 IEM_DS3505
ZBAA,2001-01-25 11:00,ZBAA 251100Z AUTO 28002KT 6SM M03/M13 A3039 RMK T10301130 IEM_DS3505
ZBAA,2001-01-25 12:00,ZBAA 251200Z AUTO 23002KT 7SM M03/M13 A3039 RMK SLP288 T10321128 54000 IEM_DS3505
ZBAA,2001-01-25 13:00,ZBAA 251300Z AUTO 00000KT 7SM M04/M12 A3039 RMK T10401120 IEM_DS3505
ZBAA,2001-01-25 14:00,ZBAA 251400Z AUTO 00000KT 7SM M05/M10 A3036 RMK T10501100 IEM_DS3505
ZBAA,2001-01-25 15:00,ZBAA 251500Z AUTO 25002KT 6SM M04/M10 A3036 RMK SLP282 T10431104 57006 IEM_DS3505
ZBAA,2001-01-25 16:00,ZBAA 251600Z AUTO 00000KT 4SM M07/M10 A3036 RMK T10701100 IEM_DS3505
ZBAA,2001-01-25 17:00,ZBAA 251700Z AUTO 29002KT M05/M11 A3036 RMK T10501110 IEM_DS3505
ZBAA,2001-01-25 18:00,ZBAA 251800Z AUTO 00000KT 6SM M06/M11 A3033 RMK SLP268 T10591106 57014 IEM_DS3505
ZBAA,2001-01-25 19:00,ZBAA 251900Z AUTO 35004KT 4SM M07/M11 A3030 RMK T10701110 IEM_DS3505
ZBAA,2001-01-25 20:00,ZBAA 252000Z AUTO 33004KT 3SM M08/M11 A3027 RMK T10801110 IEM_DS3505
ZBAA,2001-01-25 21:00,ZBAA 252100Z AUTO 03002KT 4SM M06/M11 A3024 RMK SLP237 T10631114 57031 IEM_DS3505
ZBAA,2001-01-25 22:00,ZBAA 252200Z AUTO 32006KT 4SM M07/M12 A3021 RMK T10701120 IEM_DS3505
ZBAA,2001-01-25 23:00,ZBAA 252300Z AUTO 34004KT 6SM M07/M12 A3021 RMK T10701120 IEM_DS3505
ZBAA,2001-01-26 00:00,ZBAA 260000Z AUTO 00000KT 2 1/2SM M06/M11 A3021 RMK SLP230 T10561109 57007 IEM_DS3505
ZBAA,2001-01-26 01:00,ZBAA 260100Z AUTO 35004KT 6SM M05/M12 A3021 RMK T10501120 IEM_DS3505
ZBAA,2001-01-26 02:00,ZBAA 260200Z AUTO 32006KT 6SM M04/M12 A3018 RMK T10401120 IEM_DS3505
ZBAA,2001-01-26 03:00,ZBAA 260300Z AUTO 05002KT 6SM M01/M13 A3018 RMK SLP217 T10091127 57012 IEM_DS3505
ZBAA,2001-01-26 04:00,ZBAA 260400Z AUTO 34002KT 6SM M01/M12 A3015 RMK T10101120 IEM_DS3505
ZBAA,2001-01-26 05:00,ZBAA 260500Z AUTO 28004KT 6SM 00/M12 A3012 RMK T00001120 IEM_DS3505
ZBAA,2001-01-26 06:00,ZBAA 260600Z AUTO 20004G14KT 7SM 00/M11 A3009 RMK SLP188 T00001113 57030 IEM_DS3505
ZBAA,2001-01-26 07:00,ZBAA 260700Z AUTO 28006KT 6SM 00/M07 A3009 RMK T00001070 IEM_DS3505
ZBAA,2001-01-26 08:00,ZBAA 260800Z AUTO 24004KT 6SM 00/M09 A3006 RMK T00001090 IEM_DS3505
ZBAA,2001-01-26 09:00,ZBAA 260900Z AUTO 23004KT 11SM M01/M11 A3009 RMK SLP190 T10061110 52002 IEM_DS3505
ZBAA,2001-01-26 10:00,ZBAA 261000Z AUTO 6SM M01/M09 A3009 RMK T10101090 IEM_DS3505
ZBAA,2001-01-26 11:00,ZBAA 261100Z AUTO 27004KT 6SM M02/M09 A3012 RMK T10201090 IEM_DS3505
ZBAA,2001-01-26 12:00,ZBAA 261200Z AUTO 22002KT 6SM M02/M10 A3012 RMK SLP204 T10251096 52014 IEM_DS3505
ZBAA,2001-01-26 13:00,ZBAA 261300Z AUTO M03/M10 A3012 RMK T10301100 IEM_DS3505
ZBAA,2001-01-26 14:00,ZBAA 261400Z AUTO 02002KT 2 1/2SM M05/M09 A3015 RMK T10501090 IEM_DS3505
ZBAA,2001-01-26 15:00,ZBAA 261500Z AUTO 28004KT 6SM M03/M10 A3015 RMK SLP211 T10301101 52007 IEM_DS3505
ZBAA,2001-01-26 16:00,ZBAA 261600Z AUTO 27002KT 4SM M05/M09 A3015 RMK T10501090 IEM_DS3505
ZBAA,2001-01-26 17:00,ZBAA 261700Z AUTO 35002KT 3SM M09/M11 A3015 RMK T10901110 IEM_DS3505
ZBAA,2001-01-26 18:00,ZBAA 261800Z AUTO 30002KT 6SM M05/M10 A3015 RMK SLP212 T10511099 52001 IEM_DS3505
ZBAA,2001-01-26 19:00,ZBAA 261900Z AUTO 23002KT 2 1/2SM M07/M09 A3015 RMK T10701090 IEM_DS3505
ZBAA,2001-01-26 20:00,ZBAA 262000Z AUTO 17002KT 2 1/2SM M08/M11 A3015 RMK T10801110 IEM_DS3505
ZBAA,2001-01-26 21:00,ZBAA 262100Z AUTO 26004KT 9SM M07/M11 A3015 RMK SLP209 T10711106 57003 IEM_DS3505
ZBAA,2001-01-26 22:00,ZBAA 262200Z AUTO 31002KT 2 1/2SM M09/M12 A3015 RMK T10901120 IEM_DS3505
ZBAA,2001-01-26 23:00,ZBAA 262300Z AUTO 16002KT 2SM M11/M13 A3015 RMK T11101130 IEM_DS3505
ZBAA,2001-01-27 00:00,ZBAA 270000Z AUTO 24004KT 5SM M07/M11 A3018 RMK SLP215 T10681108 52006 IEM_DS3505
ZBAA,2001-01-27 01:00,ZBAA 270100Z AUTO 28008KT 2 1/2SM M03/M11 A3018 RMK T10301110 IEM_DS3505
ZBAA,2001-01-27 02:00,ZBAA 270200Z AUTO 31014KT 9SM 00/M11 A3018 RMK T00001110 IEM_DS3505
ZBAA,2001-01-27 03:00,ZBAA 270300Z AUTO 33008KT 9SM 04/M15 A3018 RMK SLP212 T00401152 57002 IEM_DS3505
ZBAA,2001-01-27 04:00,ZBAA 270400Z AUTO 33008KT 5SM 03/M12 A3015 RMK T00301120 IEM_DS3505
ZBAA,2001-01-27 05:00,ZBAA 270500Z AUTO 29012KT 6SM 04/M14 A3009 RMK T00401140 IEM_DS3505
ZBAA,2001-01-27 06:00,ZBAA 270600Z AUTO 34008KT 12SM 04/M18 A3009 RMK SLP186 T00441184 57026 IEM_DS3505
ZBAA,2001-01-27 07:00,ZBAA 270700Z AUTO 31016KT 6SM 03/M14 A3009 RMK T00301140 IEM_DS3505
ZBAA,2001-01-27 08:00,ZBAA 270800Z AUTO 30016KT 6SM 02/M13 A3012 RMK T00201130 IEM_DS3505
ZBAA,2001-01-27 09:00,ZBAA 270900Z AUTO 32017KT 12SM 01/M17 A3015 RMK SLP210 T00111171 52023 IEM_DS3505
ZBAA,2001-01-27 10:00,ZBAA 271000Z AUTO 31014KT 6SM 00/M15 A3018 RMK T00001150 IEM_DS3505
ZBAA,2001-01-27 11:00,ZBAA 271100Z AUTO 32017KT 6SM M01/M17 A3021 RMK T10101170 IEM_DS3505
ZBAA,2001-01-27 12:00,ZBAA 271200Z AUTO 33004KT 12SM M00/M20 A3021 RMK SLP238 T10041199 52028 IEM_DS3505
ZBAA,2001-01-27 13:00,ZBAA 271300Z AUTO 33008KT 6SM M03/M15 A3024 RMK T10301150 IEM_DS3505
ZBAA,2001-01-27 14:00,ZBAA 271400Z AUTO 34010KT 6SM M03/M15 A3024 RMK T10301150 IEM_DS3505
ZBAA,2001-01-27 15:00,ZBAA 271500Z AUTO 31012KT 12SM M02/M20 A3024 RMK SLP242 T10171200 52004 IEM_DS3505
ZBAA,2001-01-27 16:00,ZBAA 271600Z AUTO 32019KT 6SM M03/M16 A3027 RMK T10301160 IEM_DS3505
ZBAA,2001-01-27 17:00,ZBAA 271700Z AUTO 31014KT 6SM M04/M16 A3027 RMK T10401160 IEM_DS3505
ZBAA,2001-01-27 18:00,ZBAA 271800Z AUTO 34008KT 12SM M03/M19 A3030 RMK SLP257 T10291192 52016 IEM_DS3505
ZBAA,2001-01-27 19:00,ZBAA 271900Z AUTO 32010KT 6SM M05/M18 A3033 RMK T10501180 IEM_DS3505
ZBAA,2001-01-27 20:00,ZBAA 272000Z AUTO 31016KT 6SM M05/M17 A3033 RMK T10501170 IEM_DS3505
ZBAA,2001-01-27 21:00,ZBAA 272100Z AUTO 32012G21KT 19SM M04/M20 A3036 RMK SLP271 T10441205 52013 IEM_DS3505
ZBAA,2001-01-27 22:00,ZBAA 272200Z AUTO 28006KT 6SM M06/M18 A3036 RMK T10601180 IEM_DS3505
ZBAA,2001-01-27 23:00,ZBAA 272300Z AUTO 32008KT 6SM M06/M19 A3039 RMK T10601190 IEM_DS3505
ZBAA,2001-01-28 00:00,ZBAA 280000Z AUTO 33002KT 19SM M06/M19 A3039 RMK SLP286 T10561192 52015 IEM_DS3505
ZBAA,2001-01-28 01:00,ZBAA 280100Z AUTO 35006KT 6SM M05/M18 A3039 RMK T10501180 IEM_DS3505
ZBAA,2001-01-28 02:00,ZBAA 280200Z AUTO 35008KT 6SM M04/M17 A3042 RMK T10401170 IEM_DS3505
ZBAA,2001-01-28 03:00,ZBAA 280300Z AUTO 31008KT 19SM M00/M20 A3039 RMK SLP291 T10051200 52005 IEM_DS3505
ZBAA,2001-01-28 04:00,ZBAA 280400Z AUTO 31016G25KT 6SM 00/M18 A3036 RMK T00001180 IEM_DS3505
ZBAA,2001-01-28 05:00,ZBAA 280500Z AUTO 31019G31KT 6SM 01/M18 A3033 RMK T00101180 IEM_DS3505
ZBAA,2001-01-28 06:00,ZBAA 280600Z AUTO 19006KT 19SM 01/M15 A3030 RMK SLP265 T00111149 57026 IEM_DS3505
ZBAA,2001-01-28 07:00,ZBAA 280700Z AUTO 31021G31KT 6SM 02/M19 A3027 RMK T00201190 IEM_DS3505
ZBAA,2001-01-28 09:00,ZBAA 280900Z AUTO 22006KT 16SM M01/M14 A3024 RMK SLP249 T10061141 57016 IEM_DS3505
ZBAA,2001-01-28 10:00,ZBAA 281000Z AUTO 22010KT 6SM M01/M14 A3024 RMK T10101140 IEM_DS3505
ZBAA,2001-01-28 11:00,ZBAA 281100Z AUTO 15004KT 6SM M04/M12 A3027 RMK T10401120 IEM_DS3505
ZBAA,2001-01-28 12:00,ZBAA 281200Z AUTO 20002KT 12SM M03/M12 A3027 RMK SLP249 T10301122 54000 IEM_DS3505
ZBAA,2001-01-28 13:00,ZBAA 281300Z AUTO 16004KT 6SM M05/M12 A3024 RMK T10501120 IEM_DS3505
ZBAA,2001-01-28 14:00,ZBAA 281400Z AUTO 20006KT 6SM M04/M11 A3024 RMK T10401110 IEM_DS3505
ZBAA,2001-01-28 15:00,ZBAA 281500Z AUTO 19004KT 6SM M05/M11 A3024 RMK SLP238 T10461111 57011 IEM_DS3505
ZBAA,2001-01-28 16:00,ZBAA 281600Z AUTO 26004KT 6SM M04/M10 A3021 RMK T10401100 IEM_DS3505
ZBAA,2001-01-28 17:00,ZBAA 281700Z AUTO 25004KT 6SM M05/M09 A3018 RMK T10501090 IEM_DS3505
ZBAA,2001-01-28 18:00,ZBAA 281800Z AUTO 27006KT 12SM M06/M11 A3018 RMK SLP218 T10581109 57020 IEM_DS3505
ZBAA,2001-01-28 19:00,ZBAA 281900Z AUTO 5SM M10/M12 A3018 RMK T11001120 IEM_DS3505
ZBAA,2001-01-28 20:00,ZBAA 282000Z AUTO 00000KT 4SM M10/M12 A3015 RMK T11001120 IEM_DS3505
ZBAA,2001-01-28 21:00,ZBAA 282100Z AUTO 34002KT 9SM M08/M12 A3012 RMK SLP205 T10781121 57013 IEM_DS3505
ZBAA,2001-01-28 22:00,ZBAA 282200Z AUTO 02002KT 3SM M10/M12 A3012 RMK T11001120 IEM_DS3505
ZBAA,2001-01-28 23:00,ZBAA 282300Z AUTO 00000KT 3SM M11/M12 A3015 RMK T11101120 IEM_DS3505
ZBAA,2001-01-29 00:00,ZBAA 290000Z AUTO 08006KT 4SM M08/M12 A3015 RMK SLP209 T10841122 52004 IEM_DS3505
ZBAA,2001-01-29 01:00,ZBAA 290100Z AUTO 00000KT 2 1/2SM M08/M10 A3015 RMK T10801100 IEM_DS3505
ZBAA,2001-01-29 02:00,ZBAA 290200Z AUTO 28004KT 5SM M01/M14 A3015 RMK T10101140 IEM_DS3505
ZBAA,2001-01-29 03:00,ZBAA 290300Z AUTO 15004KT 5SM 00/M08 A3012 RMK SLP202 T00031079 57006 IEM_DS3505
ZBAA,2001-01-29 04:00,ZBAA 290400Z AUTO 01006KT 5SM 02/M14 A3012 RMK T00201140 IEM_DS3505
ZBAA,2001-01-29 05:00,ZBAA 290500Z AUTO 34008KT 6SM 03/M17 A3009 RMK T00301170 IEM_DS3505
ZBAA,2001-01-29 06:00,ZBAA 290600Z AUTO 19002G21KT 9SM 04/M16 A3009 RMK SLP186 T00431160 57016 IEM_DS3505
ZBAA,2001-01-29 07:00,ZBAA 290700Z AUTO 28012KT 6SM 04/M19 A3009 RMK T00401190 IEM_DS3505
ZBAA,2001-01-29 08:00,ZBAA 290800Z AUTO 31012KT 6SM 04/M18 A3009 RMK T00401180 IEM_DS3505
ZBAA,2001-01-29 09:00,ZBAA 290900Z AUTO 23004KT 9SM 02/M12 A3012 RMK SLP204 T00231115 52017 IEM_DS3505
ZBAA,2001-01-29 12:00,ZBAA 291200Z AUTO 21002KT 7SM M02/M12 A3021 RMK SLP229 T10201117 52025 IEM_DS3505
ZBAA,2001-01-29 13:00,ZBAA 291300Z AUTO 00000KT 6SM M02/M13 A3024 RMK T10201130 IEM_DS3505
ZBAA,2001-01-29 14:00,ZBAA 291400Z AUTO 10002KT 6SM M02/M13 A3024 RMK T10201130 IEM_DS3505
ZBAA,2001-01-29 15:00,ZBAA 291500Z AUTO 32004KT 6SM M02/M10 A3027 RMK SLP247 T10231105 52018 IEM_DS3505
ZBAA,2001-01-29 16:00,ZBAA 291600Z AUTO 20002KT 6SM M03/M14 A3027 RMK T10301140 IEM_DS3505
ZBAA,2001-01-29 17:00,ZBAA 291700Z AUTO 23004KT M03/M11 A3027 RMK T10301110 IEM_DS3505
ZBAA,2001-01-29 18:00,ZBAA 291800Z AUTO 18002KT 6SM M04/M12 A3024 RMK SLP246 T10391118 54000 IEM_DS3505
ZBAA,2001-01-29 19:00,ZBAA 291900Z AUTO 07002KT 4SM M07/M11 A3024 RMK T10701110 IEM_DS3505
ZBAA,2001-01-29 20:00,ZBAA 292000Z AUTO 00000KT M06/M12 A3024 RMK T10601120 IEM_DS3505
ZBAA,2001-01-29 21:00,ZBAA 292100Z AUTO 00000KT 6SM M06/M12 A3021 RMK SLP231 T10651125 57016 IEM_DS3505
ZBAA,2001-01-29 22:00,ZBAA 292200Z AUTO 34006KT 6SM M08/M13 A3021 RMK T10801130 IEM_DS3505
ZBAA,2001-01-29 23:00,ZBAA 292300Z AUTO 01004KT 6SM M08/M15 A3024 RMK T10801150 IEM_DS3505
ZBAA,2001-01-30 00:00,ZBAA 300000Z AUTO 03002KT 5SM M07/M12 A3024 RMK SLP238 T10681122 52007 IEM_DS3505
ZBAA,2001-01-30 01:00,ZBAA 300100Z AUTO 00000KT 6SM M06/M13 A3024 RMK T10601130 IEM_DS3505
ZBAA,2001-01-30 02:00,ZBAA 300200Z AUTO 6SM M04/M12 A3024 RMK T10401120 IEM_DS3505
ZBAA,2001-01-30 03:00,ZBAA 300300Z AUTO 06004KT 6SM M01/M11 A3021 RMK SLP223 T10091110 57015 IEM_DS3505
ZBAA,2001-01-30 04:00,ZBAA 300400Z AUTO 08004KT M01/M09 A3015 RMK T10101090 IEM_DS3505
ZBAA,2001-01-30 05:00,ZBAA 300500Z AUTO 11006KT 00/M07 A3012 RMK T00001070 IEM_DS3505
ZBAA,2001-01-30 06:00,ZBAA 300600Z AUTO 18008KT 6SM 02/M10 A3009 RMK SLP183 T00221103 57039 IEM_DS3505
ZBAA,2001-01-30 07:00,ZBAA 300700Z AUTO 13006KT 3SM 01/M06 A3006 RMK T00101060 IEM_DS3505
ZBAA,2001-01-30 08:00,ZBAA 300800Z AUTO 11006KT 3SM 01/M05 A3003 RMK T00101050 IEM_DS3505
ZBAA,2001-01-30 09:00,ZBAA 300900Z AUTO 19004KT 7SM 02/M09 A3003 RMK SLP167 T00191090 57016 IEM_DS3505
ZBAA,2001-01-30 10:00,ZBAA 301000Z AUTO 05002KT 2 1/2SM M01/M05 A3003 RMK T10101050 IEM_DS3505
ZBAA,2001-01-30 11:00,ZBAA 301100Z AUTO 12004KT 2 1/2SM M01/M04 A3003 RMK T10101040 IEM_DS3505
ZBAA,2001-01-30 12:00,ZBAA 301200Z AUTO 17002KT 7SM 00/M07 RMK SLP166 T00041071 57002 IEM_DS3505
ZBAA,2001-01-30 13:00,ZBAA 301300Z AUTO 09002KT 2 1/2SM M02/M05 A3000 RMK T10201050 IEM_DS3505
ZBAA,2001-01-30 14:00,ZBAA 301400Z AUTO 09002KT 2SM M03/M05 A2997 RMK T10301050 IEM_DS3505
ZBAA,2001-01-30 15:00,ZBAA 301500Z AUTO 00000KT 7SM M01/M06 A2997 RMK SLP155 T10091062 57010 IEM_DS3505
ZBAA,2001-01-30 16:00,ZBAA 301600Z AUTO 00000KT 1 1/2SM M03/M06 A2997 RMK T10301060 IEM_DS3505
ZBAA,2001-01-30 17:00,ZBAA 301700Z AUTO 31004KT 1 1/2SM M03/M05 A3000 RMK T10301050 IEM_DS3505
ZBAA,2001-01-30 18:00,ZBAA 301800Z AUTO 36002KT 5SM M02/M08 A3000 RMK SLP156 T10161075 52001 IEM_DS3505
ZBAA,2001-01-30 19:00,ZBAA 301900Z AUTO 30002KT 1 1/2SM M03/M06 A3000 RMK T10301060 IEM_DS3505
ZBAA,2001-01-30 20:00,ZBAA 302000Z AUTO 33002KT 1 1/2SM M05/M07 A3000 RMK T10501070 IEM_DS3505
ZBAA,2001-01-30 21:00,ZBAA 302100Z AUTO 34004KT 6SM 02/M17 A3000 RMK SLP157 T00231171 52001 IEM_DS3505
ZBAA,2001-01-30 22:00,ZBAA 302200Z AUTO 31008KT 6SM M01/M12 A3000 RMK T10101120 IEM_DS3505
ZBAA,2001-01-30 23:00,ZBAA 302300Z AUTO 29008KT 6SM 00/M14 A3003 RMK T00001140 IEM_DS3505
ZBAA,2001-01-31 00:00,ZBAA 310000Z AUTO 32010G25KT 6SM 02/M21 A3006 RMK SLP182 T00161214 52025 IEM_DS3505
ZBAA,2001-01-31 01:00,ZBAA 310100Z AUTO 28016KT 6SM 01/M17 A3006 RMK T00101170 IEM_DS3505
ZBAA,2001-01-31 02:00,ZBAA 310200Z AUTO 31017G27KT 6SM 02/M18 A3009 RMK T00201180 IEM_DS3505
ZBAA,2001-01-31 03:00,ZBAA 310300Z AUTO 31012KT 9SM 03/M20 A3009 RMK SLP192 T00311202 52010 IEM_DS3505
ZBAA,2001-01-31 04:00,ZBAA 310400Z AUTO 31014KT 6SM 04/M19 A3006 RMK T00401190 IEM_DS3505
ZBAA,2001-01-31 05:00,ZBAA 310500Z AUTO 33016KT 6SM 05/M19 A3006 RMK T00501190 IEM_DS3505
ZBAA,2001-01-31 06:00,ZBAA 310600Z AUTO 32014KT 6SM 04/M22 A3006 RMK SLP178 T00411217 4////1027 57014 IEM_DS3505
ZBAA,2001-01-31 07:00,ZBAA 310700Z AUTO 32016G25KT 6SM 05/M19 A3006 RMK T00501190 IEM_DS3505
ZBAA,2001-01-31 08:00,ZBAA 310800Z AUTO 32016G25KT 6SM 04/M20 A3009 RMK T00401200 IEM_DS3505
ZBAA,2001-01-31 09:00,ZBAA 310900Z AUTO 32008KT 12SM 04/M22 A3012 RMK SLP199 T00351222 52021 IEM_DS3505
ZBAA,2001-01-31 10:00,ZBAA 311000Z AUTO 31012KT 6SM 02/M19 A3015 RMK T00201190 IEM_DS3505
ZBAA,2001-01-31 11:00,ZBAA 311100Z AUTO 31012KT 6SM 01/M20 A3018 RMK T00101200 IEM_DS3505
ZBAA,2001-01-31 12:00,ZBAA 311200Z AUTO 32012G31KT 12SM 02/M27 A3024 RMK SLP237 T00151267 52038 IEM_DS3505
ZBAA,2001-01-31 13:00,ZBAA 311300Z AUTO 31021G31KT 6SM 00/M27 A3027 RMK T00001270 IEM_DS3505
ZBAA,2001-01-31 14:00,ZBAA 311400Z AUTO 30023KT 6SM 00/M26 A3027 RMK T00001260 IEM_DS3505
ZBAA,2001-01-31 15:00,ZBAA 311500Z AUTO 33014KT 9SM M00/M29 A3030 RMK SLP258 T10031292 52020 IEM_DS3505
ZBAA,2001-01-31 16:00,ZBAA 311600Z AUTO 30021KT 6SM M02/M27 A3030 RMK T10201270 IEM_DS3505
ZBAA,2001-01-31 17:00,ZBAA 311700Z AUTO 33014KT 6SM M03/M26 A3030 RMK T10301260 IEM_DS3505
ZBAA,2001-01-31 18:00,ZBAA 311800Z AUTO 34008KT 7SM M02/M30 A3030 RMK SLP263 T10211295 52006 IEM_DS3505
ZBAA,2001-01-31 19:00,ZBAA 311900Z AUTO 14004KT 6SM M06/M21 A3030 RMK T10601210 IEM_DS3505
ZBAA,2001-01-31 20:00,ZBAA 312000Z AUTO 08002KT 6SM M04/M27 A3030 RMK T10401270 IEM_DS3505
ZBAA,2001-01-31 21:00,ZBAA 312100Z AUTO 01002KT 7SM M03/M28 A3030 RMK SLP253 T10321275 57010 IEM_DS3505
ZBAA,2001-01-31 22:00,ZBAA 312200Z AUTO 13002KT 6SM M08/M21 A3030 RMK T10801210 IEM_DS3505
ZBAA,2001-01-31 23:00,ZBAA 312300Z AUTO 07004KT 6SM M08/M20 A3030 RMK T10801200 IEM_DS3505
ZBAA,2001-02-01 00:00,ZBAA 010000Z AUTO 14002KT 6SM M06/M23 A3030 RMK SLP268 T10611228 52014 IEM_DS3505
ZBAA,2001-02-01 01:00,ZBAA 010100Z AUTO 00000KT 6SM M04/M23 A3033 RMK T10401230 IEM_DS3505
ZBAA,2001-02-01 02:00,ZBAA 010200Z AUTO 6SM M02/M23 A3033 RMK T10201230 IEM_DS3505
ZBAA,2001-02-01 03:00,ZBAA 010300Z AUTO 19002KT 7SM M02/M25 A3030 RMK SLP263 T10161247 57005 IEM_DS3505
ZBAA,2001-02-01 04:00,ZBAA 010400Z AUTO 18008KT 6SM M01/M24 A3027 RMK T10101240 IEM_DS3505
ZBAA,2001-02-01 05:00,ZBAA 010500Z AUTO 17010KT 6SM 00/M22 A3024 RMK T00001220 IEM_DS3505
ZBAA,2001-02-01 06:00,ZBAA 010600Z AUTO 20008KT 6SM 01/M20 A3018 RMK SLP219 T00071196 57043 IEM_DS3505
ZBAA,2001-02-01 07:00,ZBAA 010700Z AUTO 19010KT 6SM 01/M19 A3018 RMK T00101190 IEM_DS3505
ZBAA,2001-02-01 08:00,ZBAA 010800Z AUTO 18010KT 6SM 01/M16 A3015 RMK T00101160 IEM_DS3505
ZBAA,2001-02-01 09:00,ZBAA 010900Z AUTO 21006KT 6SM 00/M15 A3015 RMK SLP212 T00041147 57008 IEM_DS3505
ZBAA,2001-02-01 10:00,ZBAA 011000Z AUTO 16004KT 6SM M02/M13 A3018 RMK T10201130 IEM_DS3505
ZBAA,2001-02-01 11:00,ZBAA 011100Z AUTO 17006KT 6SM M03/M12 A3018 RMK T10301120 IEM_DS3505
ZBAA,2001-02-01 12:00,ZBAA 011200Z AUTO 17004KT 7SM M01/M11 A3018 RMK SLP221 T10111109 52009 IEM_DS3505
ZBAA,2001-02-01 13:00,ZBAA 011300Z AUTO 13004KT 6SM M04/M10 A3018 RMK T10401100 IEM_DS3505
ZBAA,2001-02-01 14:00,ZBAA 011400Z AUTO 10002KT 6SM M04/M09 A3018 RMK T10401090 IEM_DS3505
ZBAA,2001-02-01 15:00,ZBAA 011500Z AUTO 11002KT 6SM M04/M09 A3018 RMK SLP217 T10381092 57004 IEM_DS3505
ZBAA,2001-02-01 16:00,ZBAA 011600Z AUTO 12002KT 6SM M06/M09 A3018 RMK T10601090 IEM_DS3505
ZBAA,2001-02-01 17:00,ZBAA 011700Z AUTO 11004KT 6SM M06/M08 A3018 RMK T10601080 IEM_DS3505
ZBAA,2001-02-01 18:00,ZBAA 011800Z AUTO 13002KT 6SM M06/M10 A3018 RMK SLP216 T10621104 57001 IEM_DS3505
ZBAA,2001-02-01 19:00,ZBAA 011900Z AUTO 12002KT 6SM M07/M10 A3018 RMK T10701100 IEM_DS3505
ZBAA,2001-02-01 20:00,ZBAA 012000Z AUTO 35002KT 6SM M08/M10 A3015 RMK T10801100 IEM_DS3505
ZBAA,2001-02-01 21:00,ZBAA 012100Z AUTO 02004KT 4SM M07/M10 A3015 RMK SLP208 T10701103 57008 IEM_DS3505
ZBAA,2001-02-01 22:00,ZBAA 012200Z AUTO 34004KT 5SM M10/M12 A3015 RMK T11001120 IEM_DS3505
ZBAA,2001-02-01 23:00,ZBAA 012300Z AUTO 16004KT 5SM M09/M11 A3018 RMK T10901110 IEM_DS3505
ZBAA,2001-02-02 00:00,ZBAA 020000Z AUTO 01002KT 5SM M08/M11 A3018 RMK SLP219 T10761112 52011 IEM_DS3505
ZBAA,2001-02-02 01:00,ZBAA 020100Z AUTO 01002KT 3SM M06/M09 A3018 RMK T10601090 IEM_DS3505
ZBAA,2001-02-02 02:00,ZBAA 020200Z AUTO 05002KT 3SM M04/M08 A3018 RMK T10401080 IEM_DS3505
ZBAA,2001-02-02 03:00,ZBAA 020300Z AUTO 15002KT 6SM M01/M08 A3018 RMK SLP213 T10061082 57005 IEM_DS3505
ZBAA,2001-02-02 04:00,ZBAA 020400Z AUTO 12004KT 00/M07 A3015 RMK T00001070 IEM_DS3505
ZBAA,2001-02-02 05:00,ZBAA 020500Z AUTO 06004KT 01/M07 A3009 RMK T00101070 IEM_DS3505
ZBAA,2001-02-02 06:00,ZBAA 020600Z AUTO 09004KT 6SM 03/M09 A3006 RMK SLP176 T00311091 57037 IEM_DS3505
ZBAA,2001-02-02 07:00,ZBAA 020700Z AUTO 12006KT 5SM 02/M07 A3003 RMK T00201070 IEM_DS3505
ZBAA,2001-02-02 08:00,ZBAA 020800Z AUTO 13008KT 5SM 02/M07 A3003 RMK T00201070 IEM_DS3505
ZBAA,2001-02-02 09:00,ZBAA 020900Z AUTO 09004KT 7SM 02/M08 A3006 RMK SLP174 T00151077 57003 IEM_DS3505
ZBAA,2001-02-02 10:00,ZBAA 021000Z AUTO 06002KT 3SM 00/M06 A3006 RMK T00001060 IEM_DS3505
ZBAA,2001-02-02 11:00,ZBAA 021100Z AUTO 08002KT 3SM M01/M07 A3009 RMK T10101070 IEM_DS3505
ZBAA,2001-02-02 12:00,ZBAA 021200Z AUTO 10006KT 6SM M01/M06 A3012 RMK SLP194 T10061061 52020 IEM_DS3505
ZBAA,2001-02-02 13:00,ZBAA 021300Z AUTO 13012KT 1 1/2SM 00/M03 A3012 RMK T00001030 IEM_DS3505
ZBAA,2001-02-02 14:00,ZBAA 021400Z AUTO 11012KT 2 1/2SM M04/M07 A3018 RMK T10401070 IEM_DS3505
ZBAA,2001-02-02 15:00,ZBAA 021500Z AUTO 10008KT 6SM M05/M09 A3021 RMK SLP225 T10471086 52031 IEM_DS3505
ZBAA,2001-02-02 16:00,ZBAA 021600Z AUTO 12008KT 4SM M06/M09 A3024 RMK T10601090 IEM_DS3505
ZBAA,2001-02-02 17:00,ZBAA 021700Z AUTO 15010KT 4SM M06/M10 A3024 RMK T10601100 IEM_DS3505
ZBAA,2001-02-02 18:00,ZBAA 021800Z AUTO 10004KT 12SM M07/M12 A3027 RMK 60003 SLP254 T10721122 52029 IEM_DS3505
ZBAA,2001-02-02 19:00,ZBAA 021900Z AUTO 17008KT 4SM M07/M12 A3027 RMK T10701120 IEM_DS3505
ZBAA,2001-02-02 20:00,ZBAA 022000Z AUTO 16008KT 4SM M08/M13 A3027 RMK T10801130 IEM_DS3505
ZBAA,2001-02-02 21:00,ZBAA 022100Z AUTO 14006KT 12SM M09/M16 A3033 RMK 70003 SLP267 T10871161 52013 IEM_DS3505
ZBAA,2001-02-02 22:00,ZBAA 022200Z AUTO 16006KT 4SM M08/M13 A3033 RMK T10801130 IEM_DS3505
ZBAA,2001-02-02 23:00,ZBAA 022300Z AUTO 13004KT 4SM M08/M14 A3036 RMK T10801140 IEM_DS3505
ZBAA,2001-02-03 00:00,ZBAA 030000Z AUTO 20002KT 10SM M09/M16 A3039 RMK 60003 SLP290 T10901165 52023 IEM_DS3505
ZBAA,2001-02-03 01:00,ZBAA 030100Z AUTO 17006KT 4SM M09/M13 A3042 RMK T10901130 IEM_DS3505
ZBAA,2001-02-03 02:00,ZBAA 030200Z AUTO 16006KT 3SM M08/M12 A3045 RMK T10801120 IEM_DS3505
ZBAA,2001-02-03 03:00,ZBAA 030300Z AUTO 17004KT 4SM M08/M12 A3045 RMK SLP309 T10811124 52018 IEM_DS3505
ZBAA,2001-02-03 04:00,ZBAA 030400Z AUTO 19006KT 4SM M07/M11 A3042 RMK T10701110 IEM_DS3505
ZBAA,2001-02-03 05:00,ZBAA 030500Z AUTO 18006KT 4SM M07/M11 A3039 RMK T10701110 IEM_DS3505
ZBAA,2001-02-03 06:00,ZBAA 030600Z AUTO 15006KT 9SM M06/M13 A3036 RMK 60003 SLP283 T10641128 57026 IEM_DS3505
ZBAA,2001-02-03 07:00,ZBAA 030700Z AUTO 11006KT 7SM M06/M11 A3036 RMK T10601110 IEM_DS3505
ZBAA,2001-02-03 08:00,ZBAA 030800Z AUTO 15006KT 7SM M06/M11 A3036 RMK T10601110 IEM_DS3505
ZBAA,2001-02-03 09:00,ZBAA 030900Z AUTO 15004KT 6SM M07/M13 A3036 RMK SLP285 T10701128 52002 IEM_DS3505
ZBAA,2001-02-03 10:00,ZBAA 031000Z AUTO 15006KT 4SM M07/M10 A3039 RMK T10701100 IEM_DS3505
ZBAA,2001-02-03 11:00,ZBAA 031100Z AUTO 16008KT 4SM M08/M11 A3042 RMK T10801110 IEM_DS3505
ZBAA,2001-02-03 12:00,ZBAA 031200Z AUTO 13006KT 6SM M08/M13 A3042 RMK 60003 SLP304 T10791127 52019 IEM_DS3505
ZBAA,2001-02-03 13:00,ZBAA 031300Z AUTO 18008KT 4SM M08/M11 A3045 RMK T10801110 IEM_DS3505
ZBAA,2001-02-03 14:00,ZBAA 031400Z AUTO 17006KT 4SM M08/M10 A3045 RMK T10801100 IEM_DS3505
ZBAA,2001-02-03 15:00,ZBAA 031500Z AUTO 14006KT 6SM M08/M13 A3045 RMK SLP314 T10851126 52010 IEM_DS3505
ZBAA,2001-02-03 16:00,ZBAA 031600Z AUTO 13006KT 4SM M08/M10 A3045 RMK T10801100 IEM_DS3505
ZBAA,2001-02-03 17:00,ZBAA 031700Z AUTO 14006KT 4SM M09/M10 A3045 RMK T10901100 IEM_DS3505
ZBAA,2001-02-03 18:00,ZBAA 031800Z AUTO 13008KT 5SM M09/M12 A3045 RMK 60000 SLP312 T10901124 57002 IEM_DS3505
ZBAA,2001-02-03 19:00,ZBAA 031900Z AUTO 13006KT 3SM M10/M12 A3045 RMK T11001120 IEM_DS3505
ZBAA,2001-02-03 20:00,ZBAA 032000Z AUTO 13006KT 2 1/2SM M10/M12 A3045 RMK T11001120 IEM_DS3505
ZBAA,2001-02-03 21:00,ZBAA 032100Z AUTO 13006KT 4SM M10/M13 A3045 RMK 70000 SLP304 T11011129 57008 IEM_DS3505
ZBAA,2001-02-03 22:00,ZBAA 032200Z AUTO 13006KT 2 1/2SM M11/M12 A3045 RMK T11101120 IEM_DS3505
ZBAA,2001-02-03 23:00,ZBAA 032300Z AUTO 12006KT 2 1/2SM M11/M12 A3045 RMK T11101120 IEM_DS3505
ZBAA,2001-02-04 00:00,ZBAA 040000Z AUTO 14004KT 3SM M11/M14 A3045 RMK 60002 SLP311 T11081135 52007 IEM_DS3505
ZBAA,2001-02-04 01:00,ZBAA 040100Z AUTO 14004KT 1 1/4SM M11/M12 A3047 RMK T11101120 IEM_DS3505
ZBAA,2001-02-04 02:00,ZBAA 040200Z AUTO 12004KT 2 1/2SM M11/M12 A3045 RMK T11101120 IEM_DS3505
ZBAA,2001-02-04 03:00,ZBAA 040300Z AUTO 13006KT 5SM M10/M13 A3045 RMK SLP312 T11001129 52001 IEM_DS3505
ZBAA,2001-02-04 04:00,ZBAA 040400Z AUTO 15004KT 2SM M09/M12 A3045 RMK T10901120 IEM_DS3505
ZBAA,2001-02-04 05:00,ZBAA 040500Z AUTO 13004KT 1 1/2SM M09/M11 A3042 RMK T10901110 IEM_DS3505
ZBAA,2001-02-04 06:00,ZBAA 040600Z AUTO 12006KT 5SM M09/M12 A3039 RMK 60002 SLP285 T10901119 57027 IEM_DS3505
ZBAA,2001-02-04 07:00,ZBAA 040700Z AUTO 14006KT 2SM M07/M10 A3036 RMK T10701100 IEM_DS3505
ZBAA,2001-02-04 08:00,ZBAA 040800Z AUTO 15006KT 2 1/2SM M07/M10 A3036 RMK T10701100 IEM_DS3505
ZBAA,2001-02-04 09:00,ZBAA 040900Z AUTO 14006KT 6SM M09/M13 A3033 RMK SLP275 T10901129 57010 IEM_DS3505
ZBAA,2001-02-04 10:00,ZBAA 041000Z AUTO 14004KT 2 1/2SM M08/M11 A3036 RMK T10801110 IEM_DS3505
ZBAA,2001-02-04 11:00,ZBAA 041100Z AUTO 14004KT 2 1/2SM M08/M11 A3036 RMK T10801110 IEM_DS3505
ZBAA,2001-02-04 12:00,ZBAA 041200Z AUTO 13004KT 5SM M09/M12 A3036 RMK 60000 SLP282 T10881122 52007 IEM_DS3505
ZBAA,2001-02-04 13:00,ZBAA 041300Z AUTO 17002KT 2SM M08/M10 A3039 RMK T10801100 IEM_DS3505
ZBAA,2001-02-04 14:00,ZBAA 041400Z AUTO 16002KT 2SM M08/M10 A3039 RMK T10801100 IEM_DS3505
ZBAA,2001-02-04 15:00,ZBAA 041500Z AUTO 08002KT 6SM M08/M12 A3039 RMK SLP286 T10851116 52004 IEM_DS3505
ZBAA,2001-02-04 16:00,ZBAA 041600Z AUTO 00000KT 2SM M08/M10 A3039 RMK T10801100 IEM_DS3505
ZBAA,2001-02-04 17:00,ZBAA 041700Z AUTO 04002KT 2SM M08/M10 A3039 RMK T10801100 IEM_DS3505
ZBAA,2001-02-04 18:00,ZBAA 041800Z AUTO 08004KT 6SM M08/M11 A3039 RMK 60000 SLP289 T10821112 52003 IEM_DS3505
ZBAA,2001-02-04 19:00,ZBAA 041900Z AUTO 02002KT 2SM M08/M10 A3039 RMK T10801100 IEM_DS3505
ZBAA,2001-02-04 20:00,ZBAA 042000Z AUTO 11002KT 2SM M08/M10 A3036 RMK T10801100 IEM_DS3505
ZBAA,2001-02-04 21:00,ZBAA 042100Z AUTO 09002KT 6SM M08/M12 A3039 RMK 70004 SLP284 T10851118 57005 IEM_DS3505
ZBAA,2001-02-04 22:00,ZBAA 042200Z AUTO 15002KT 2SM M08/M10 A3036 RMK T10801100 IEM_DS3505
ZBAA,2001-02-04 23:00,ZBAA 042300Z AUTO 15004KT 2SM M08/M10 A3039 RMK T10801100 IEM_DS3505
ZBAA,2001-02-05 00:00,ZBAA 050000Z AUTO 10002KT 6SM M09/M12 A3039 RMK 60000 SLP294 T10871123 52010 IEM_DS3505
ZBAA,2001-02-05 01:00,ZBAA 050100Z AUTO 13004KT 2SM M09/M10 A3042 RMK T10901100 IEM_DS3505
ZBAA,2001-02-05 02:00,ZBAA 050200Z AUTO 10004KT 2SM M08/M10 A3039 RMK T10801100 IEM_DS3505
ZBAA,2001-02-05 03:00,ZBAA 050300Z AUTO 08004KT 6SM M08/M11 A3039 RMK SLP293 T10761112 57001 IEM_DS3505
ZBAA,2001-02-05 04:00,ZBAA 050400Z AUTO 2SM M07/M09 A3039 RMK T10701090 IEM_DS3505
ZBAA,2001-02-05 05:00,ZBAA 050500Z AUTO 12002KT 2 1/2SM M06/M09 A3036 RMK T10601090 IEM_DS3505
ZBAA,2001-02-05 06:00,ZBAA 050600Z AUTO 13004KT 6SM M07/M11 A3033 RMK 60003 SLP274 T10671110 57019 IEM_DS3505
ZBAA,2001-02-05 07:00,ZBAA 050700Z AUTO 12004KT 2 1/2SM M06/M09 A3033 RMK T10601090 IEM_DS3505
ZBAA,2001-02-05 08:00,ZBAA 050800Z AUTO 15004KT 2SM M06/M09 A3033 RMK T10601090 IEM_DS3505
ZBAA,2001-02-05 09:00,ZBAA 050900Z AUTO 09004KT 6SM M06/M11 A3033 RMK SLP272 T10651109 57002 IEM_DS3505
ZBAA,2001-02-05 10:00,ZBAA 051000Z AUTO 11002KT 1 1/4SM M07/M09 A3036 RMK T10701090 IEM_DS3505
ZBAA,2001-02-05 11:00,ZBAA 051100Z AUTO 13004KT 1 1/2SM M07/M08 A3039 RMK T10701080 IEM_DS3505
ZBAA,2001-02-05 12:00,ZBAA 051200Z AUTO 11002KT 6SM M08/M10 A3039 RMK 60002 SLP294 T10761098 52022 IEM_DS3505
ZBAA,2001-02-05 13:00,ZBAA 051300Z AUTO 15002KT 1 1/4SM M07/M08 A3042 RMK T10701080 IEM_DS3505
ZBAA,2001-02-05 14:00,ZBAA 051400Z AUTO 14002KT 2SM M08/M09 A3045 RMK T10801090 IEM_DS3505
ZBAA,2001-02-05 15:00,ZBAA 051500Z AUTO 19002KT 7SM M08/M10 A3047 RMK SLP316 T10761098 52022 IEM_DS3505
ZBAA,2001-02-05 16:00,ZBAA 051600Z AUTO 14004KT 1 1/4SM M07/M08 A3045 RMK T10701080 IEM_DS3505
ZBAA,2001-02-05 17:00,ZBAA 051700Z AUTO 14002KT 1 1/2SM M08/M09 A3045 RMK T10801090 IEM_DS3505
ZBAA,2001-02-05 18:00,ZBAA 051800Z AUTO 24002KT 6SM M08/M10 A3045 RMK 60002 SLP306 T10831105 57010 IEM_DS3505
ZBAA,2001-02-05 19:00,ZBAA 051900Z AUTO 00000KT 2SM M08/M09 A3045 RMK T10801090 IEM_DS3505
ZBAA,2001-02-05 20:00,ZBAA 052000Z AUTO 12002KT 2SM M08/M08 A3045 RMK T10801080 IEM_DS3505
ZBAA,2001-02-05 21:00,ZBAA 052100Z AUTO 20002KT 6SM M08/M10 A3045 RMK 70005 SLP309 T10771101 52003 IEM_DS3505
ZBAA,2001-02-05 22:00,ZBAA 052200Z AUTO 09002KT 2SM M08/M09 A3045 RMK T10801090 IEM_DS3505
ZBAA,2001-02-05 23:00,ZBAA 052300Z AUTO 09002KT 1 1/2SM M08/M09 A3045 RMK T10801090 IEM_DS3505
ZBAA,2001-02-06 00:00,ZBAA 060000Z AUTO 14002KT 5SM M08/M10 A3047 RMK 60003 SLP314 T10781102 52005 IEM_DS3505
ZBAA,2001-02-06 01:00,ZBAA 060100Z AUTO 12004KT 1 1/4SM M07/M08 A3047 RMK T10701080 IEM_DS3505
ZBAA,2001-02-06 02:00,ZBAA 060200Z AUTO 11004KT 1SM M07/M08 A3047 RMK T10701080 IEM_DS3505
ZBAA,2001-02-06 03:00,ZBAA 060300Z AUTO 21004KT 3SM M07/M09 A3050 RMK SLP326 T10691094 52012 IEM_DS3505
ZBAA,2001-02-06 04:00,ZBAA 060400Z AUTO 13006KT 2SM M07/M10 A3047 RMK T10701100 IEM_DS3505
ZBAA,2001-02-06 05:00,ZBAA 060500Z AUTO 11004KT 2 1/2SM M07/M10 A3045 RMK T10701100 IEM_DS3505
ZBAA,2001-02-06 06:00,ZBAA 060600Z AUTO 18004KT 4SM M06/M10 A3045 RMK 60001 SLP306 T10631105 57020 IEM_DS3505
ZBAA,2001-02-06 07:00,ZBAA 060700Z AUTO 18006KT 3SM M06/M09 A3042 RMK T10601090 IEM_DS3505
ZBAA,2001-02-06 08:00,ZBAA 060800Z AUTO 17006KT 2SM M06/M09 A3042 RMK T10601090 IEM_DS3505
ZBAA,2001-02-06 09:00,ZBAA 060900Z AUTO 21004KT 3SM M07/M10 A3039 RMK SLP297 T10681105 57009 IEM_DS3505
ZBAA,2001-02-06 10:00,ZBAA 061000Z AUTO 19004KT 2SM M07/M09 A3042 RMK T10701090 IEM_DS3505
ZBAA,2001-02-06 11:00,ZBAA 061100Z AUTO 14002KT 1 1/2SM M08/M10 A3042 RMK T10801100 IEM_DS3505
ZBAA,2001-02-06 12:00,ZBAA 061200Z AUTO 23004KT 6SM M08/M11 A3045 RMK 60003 SLP309 T10811114 52012 IEM_DS3505
ZBAA,2001-02-06 13:00,ZBAA 061300Z AUTO 00000KT 1SM M10/M11 A3047 RMK T11001110 IEM_DS3505
ZBAA,2001-02-06 14:00,ZBAA 061400Z AUTO 00000KT 1SM M11/M11 A3047 RMK T11101110 IEM_DS3505
ZBAA,2001-02-06 15:00,ZBAA 061500Z AUTO 17004KT 4SM M09/M12 A3050 RMK SLP323 T10911120 52014 IEM_DS3505
ZBAA,2001-02-06 16:00,ZBAA 061600Z AUTO 32010KT 1 1/4SM M10/M11 A3050 RMK T11001110 IEM_DS3505
ZBAA,2001-02-06 17:00,ZBAA 061700Z AUTO 30016KT 6SM M08/M19 A3050 RMK T10801190 IEM_DS3505
ZBAA,2001-02-06 18:00,ZBAA 061800Z AUTO 34006KT 12SM M08/M21 A3050 RMK SLP329 T10761213 52006 IEM_DS3505
ZBAA,2001-02-06 19:00,ZBAA 061900Z AUTO 30014KT 6SM M08/M20 A3050 RMK T10801200 IEM_DS3505
ZBAA,2001-02-06 20:00,ZBAA 062000Z AUTO 30010KT 6SM M09/M21 A3047 RMK T10901210 IEM_DS3505
ZBAA,2001-02-06 21:00,ZBAA 062100Z AUTO 25002KT 12SM M11/M21 A3047 RMK 70001 SLP324 T11141214 57005 IEM_DS3505
ZBAA,2001-02-06 22:00,ZBAA 062200Z AUTO 29006KT 6SM M10/M21 A3047 RMK T11001210 IEM_DS3505
ZBAA,2001-02-06 23:00,ZBAA 062300Z AUTO 30012KT 6SM M08/M21 A3047 RMK T10801210 IEM_DS3505
ZBAA,2001-02-07 00:00,ZBAA 070000Z AUTO 00000KT 9SM M11/M21 A3050 RMK 70001 SLP329 T11091209 52005 IEM_DS3505
ZBAA,2001-02-07 01:00,ZBAA 070100Z AUTO 30008KT 6SM M07/M22 A3050 RMK T10701220 IEM_DS3505
ZBAA,2001-02-07 02:00,ZBAA 070200Z AUTO 30008KT 6SM M06/M21 A3050 RMK T10601210 IEM_DS3505
ZBAA,2001-02-07 03:00,ZBAA 070300Z AUTO 24008KT 12SM M05/M15 A3047 RMK SLP327 T10501150 57002 IEM_DS3505
ZBAA,2001-02-07 04:00,ZBAA 070400Z AUTO 29012KT 6SM M03/M19 A3045 RMK T10301190 IEM_DS3505
ZBAA,2001-02-07 05:00,ZBAA 070500Z AUTO 27012KT 6SM M02/M17 A3042 RMK T10201170 IEM_DS3505
ZBAA,2001-02-07 06:00,ZBAA 070600Z AUTO 22012KT 9SM M04/M14 A3039 RMK SLP301 T10351142 57026 IEM_DS3505
ZBAA,2001-02-07 07:00,ZBAA 070700Z AUTO 22008KT 6SM M01/M13 A3039 RMK T10101130 IEM_DS3505
ZBAA,2001-02-07 08:00,ZBAA 070800Z AUTO 21012KT 6SM M02/M14 A3036 RMK T10201140 IEM_DS3505
ZBAA,2001-02-07 09:00,ZBAA 070900Z AUTO 21008KT 9SM M04/M13 A3036 RMK SLP288 T10401131 57013 IEM_DS3505
ZBAA,2001-02-07 10:00,ZBAA 071000Z AUTO 20012KT 6SM M04/M11 A3036 RMK T10401110 IEM_DS3505
ZBAA,2001-02-07 11:00,ZBAA 071100Z AUTO 22012KT 5SM M04/M11 A3036 RMK T10401110 IEM_DS3505
ZBAA,2001-02-07 12:00,ZBAA 071200Z AUTO 23008KT 9SM M06/M12 A3036 RMK SLP288 T10621122 54000 IEM_DS3505
ZBAA,2001-02-07 13:00,ZBAA 071300Z AUTO 21008KT 4SM M05/M10 A3039 RMK T10501100 IEM_DS3505
ZBAA,2001-02-07 14:00,ZBAA 071400Z AUTO 2 1/2SM M06/M10 A3039 RMK T10601100 IEM_DS3505
ZBAA,2001-02-07 15:00,ZBAA 071500Z AUTO 28004KT 9SM M08/M12 A3039 RMK SLP290 T10751122 52002 IEM_DS3505
ZBAA,2001-02-07 16:00,ZBAA 071600Z AUTO 08002KT 1 1/4SM M09/M11 A3039 RMK T10901110 IEM_DS3505
ZBAA,2001-02-07 17:00,ZBAA 071700Z AUTO 00000KT 1 1/4SM M10/M12 A3039 RMK T11001120 IEM_DS3505
ZBAA,2001-02-07 18:00,ZBAA 071800Z AUTO 22004KT 6SM M09/M13 A3036 RMK SLP284 T10911127 57006 IEM_DS3505
ZBAA,2001-02-07 19:00,ZBAA 071900Z AUTO 36004KT 1SM M11/M12 A3036 RMK T11101120 IEM_DS3505
ZBAA,2001-02-07 20:00,ZBAA 072000Z AUTO 36002KT 1SM M11/M12 A3033 RMK T11101120 IEM_DS3505
ZBAA,2001-02-07 21:00,ZBAA 072100Z AUTO 00000KT 6SM M12/M14 A3033 RMK SLP264 T11181145 57020 IEM_DS3505
ZBAA,2001-02-07 22:00,ZBAA 072200Z AUTO 36004KT 1SM M11/M12 A3030 RMK T11101120 IEM_DS3505
ZBAA,2001-02-07 23:00,ZBAA 072300Z AUTO 00000KT 1SM M12/M13 A3030 RMK T11201130 IEM_DS3505
ZBAA,2001-02-08 00:00,ZBAA 080000Z AUTO 00000KT 2SM M11/M14 A3033 RMK SLP264 T11121135 54000 IEM_DS3505
ZBAA,2001-02-08 01:00,ZBAA 080100Z AUTO 00000KT 1SM M10/M11 A3030 RMK T11001110 IEM_DS3505
ZBAA,2001-02-08 02:00,ZBAA 080200Z AUTO 06002KT 1 1/4SM M08/M10 A3030 RMK T10801100 IEM_DS3505
ZBAA,2001-02-08 03:00,ZBAA 080300Z AUTO 12002KT 5SM M05/M10 A3030 RMK SLP257 T10471100 57007 IEM_DS3505
ZBAA,2001-02-08 04:00,ZBAA 080400Z AUTO 1 1/2SM M03/M08 A3027 RMK T10301080 IEM_DS3505
ZBAA,2001-02-08 05:00,ZBAA 080500Z AUTO 18002KT 1 1/2SM 00/M09 A3021 RMK T00001090 IEM_DS3505
ZBAA,2001-02-08 06:00,ZBAA 080600Z AUTO 20004KT 6SM M01/M10 A3018 RMK SLP227 T10071100 57029 IEM_DS3505
ZBAA,2001-02-08 07:00,ZBAA 080700Z AUTO 18010KT 2SM 01/M10 A3018 RMK T00101100 IEM_DS3505
ZBAA,2001-02-08 08:00,ZBAA 080800Z AUTO 18012KT 3SM 01/M10 A3018 RMK T00101100 IEM_DS3505
ZBAA,2001-02-08 09:00,ZBAA 080900Z AUTO 22006KT 6SM M01/M10 A3015 RMK SLP223 T10091097 57004 IEM_DS3505
ZBAA,2001-02-08 10:00,ZBAA 081000Z AUTO 19010KT M02/M09 A3018 RMK T10201090 IEM_DS3505
ZBAA,2001-02-08 11:00,ZBAA 081100Z AUTO 22010KT M01/M11 A3021 RMK T10101110 IEM_DS3505
ZBAA,2001-02-08 12:00,ZBAA 081200Z AUTO 20006KT 6SM M03/M10 A3024 RMK SLP244 T10291102 52020 IEM_DS3505
ZBAA,2001-02-08 13:00,ZBAA 081300Z AUTO 12002KT 2 1/2SM M05/M09 A3027 RMK T10501090 IEM_DS3505
ZBAA,2001-02-08 14:00,ZBAA 081400Z AUTO 04002KT 2SM M06/M10 A3027 RMK T10601100 IEM_DS3505
ZBAA,2001-02-08 15:00,ZBAA 081500Z AUTO 28006KT 6SM M00/M15 A3030 RMK SLP256 T10041154 52013 IEM_DS3505
ZBAA,2001-02-08 16:00,ZBAA 081600Z AUTO 16002KT 1 1/4SM M08/M10 A3030 RMK T10801100 IEM_DS3505
ZBAA,2001-02-08 17:00,ZBAA 081700Z AUTO 18002KT 1 1/4SM M06/M09 A3030 RMK T10601090 IEM_DS3505
ZBAA,2001-02-08 18:00,ZBAA 081800Z AUTO 30006KT 7SM 00/ A3033 RMK SLP267 52011 IEM_DS3505
ZBAA,2001-02-08 19:00,ZBAA 081900Z AUTO 20002KT 1 1/4SM A3033 RMK IEM_DS3505
ZBAA,2001-02-08 20:00,ZBAA 082000Z AUTO 00000KT 1 1/4SM M08/M12 A3030 RMK T10801120 IEM_DS3505
ZBAA,2001-02-08 21:00,ZBAA 082100Z AUTO 31008KT 7SM M00/M22 A3030 RMK SLP260 T10031216 57007 IEM_DS3505
ZBAA,2001-02-08 22:00,ZBAA 082200Z AUTO 18002KT 2SM M07/M15 RMK T10701150 IEM_DS3505
ZBAA,2001-02-08 23:00,ZBAA 082300Z AUTO 19002KT 2SM M08/M15 A3030 RMK T10801150 IEM_DS3505
ZBAA,2001-02-09 00:00,ZBAA 090000Z AUTO 23002KT 4SM M08/M12 A3030 RMK SLP266 T10751118 52006 IEM_DS3505
ZBAA,2001-02-09 01:00,ZBAA 090100Z AUTO 21004KT 5SM M01/M16 A3033 RMK T10101160 IEM_DS3505
ZBAA,2001-02-09 02:00,ZBAA 090200Z AUTO 26006KT 5SM 01/M17 A3033 RMK T00101170 IEM_DS3505
ZBAA,2001-02-09 03:00,ZBAA 090300Z AUTO 22006KT 6SM 01/M12 A3030 RMK SLP265 T00121121 57001 IEM_DS3505
ZBAA,2001-02-09 04:00,ZBAA 090400Z AUTO 22008KT 5SM 04/M13 A3030 RMK T00401130 IEM_DS3505
ZBAA,2001-02-09 05:00,ZBAA 090500Z AUTO 21010KT 04/M13 A3027 RMK T00401130 IEM_DS3505
ZBAA,2001-02-09 06:00,ZBAA 090600Z AUTO 19008KT 6SM 03/M11 A3024 RMK SLP245 T00291113 57019 IEM_DS3505
ZBAA,2001-02-09 07:00,ZBAA 090700Z AUTO 31014G23KT 6SM 06/M20 A3024 RMK T00601200 IEM_DS3505
ZBAA,2001-02-09 08:00,ZBAA 090800Z AUTO 30017KT 6SM 05/M20 A3021 RMK T00501200 IEM_DS3505
ZBAA,2001-02-09 09:00,ZBAA 090900Z AUTO 21006KT 4SM 02/ A3024 RMK SLP243 57002 IEM_DS3505
ZBAA,2001-02-09 10:00,ZBAA 091000Z AUTO 31006KT 6SM 03/M19 A3027 RMK T00301190 IEM_DS3505
ZBAA,2001-02-09 11:00,ZBAA 091100Z AUTO 05004KT 6SM 01/M17 A3030 RMK T00101170 IEM_DS3505
ZBAA,2001-02-09 12:00,ZBAA 091200Z AUTO 35002KT 6SM 00/M08 A3033 RMK SLP269 T00011085 52025 IEM_DS3505
ZBAA,2001-02-09 13:00,ZBAA 091300Z AUTO 08002KT 6SM M01/M16 A3036 RMK T10101160 IEM_DS3505
ZBAA,2001-02-09 14:00,ZBAA 091400Z AUTO 07002KT 6SM M02/M16 A3039 RMK T10201160 IEM_DS3505
ZBAA,2001-02-09 15:00,ZBAA 091500Z AUTO 06002KT 6SM M02/M16 A3039 RMK SLP286 T10211161 52017 IEM_DS3505
ZBAA,2001-02-09 16:00,ZBAA 091600Z AUTO 02004KT 6SM M03/M18 A3039 RMK T10301180 IEM_DS3505
ZBAA,2001-02-09 17:00,ZBAA 091700Z AUTO 13002KT 6SM M05/M17 A3039 RMK T10501170 IEM_DS3505
ZBAA,2001-02-09 18:00,ZBAA 091800Z AUTO 04002KT 6SM M04/M16 A3039 RMK SLP290 T10401155 52004 IEM_DS3505
ZBAA,2001-02-09 19:00,ZBAA 091900Z AUTO 36002KT 6SM M05/M18 A3042 RMK T10501180 IEM_DS3505
ZBAA,2001-02-09 20:00,ZBAA 092000Z AUTO 01004KT 6SM M06/M17 A3042 RMK T10601170 IEM_DS3505
ZBAA,2001-02-09 21:00,ZBAA 092100Z AUTO 09004KT 6SM M05/M16 A3042 RMK SLP295 T10511159 52005 IEM_DS3505
ZBAA,2001-02-09 22:00,ZBAA 092200Z AUTO 01006KT 6SM M07/M17 A3045 RMK T10701170 IEM_DS3505
ZBAA,2001-02-09 23:00,ZBAA 092300Z AUTO 36004KT 6SM M10/M18 A3045 RMK T11001180 IEM_DS3505
ZBAA,2001-02-10 00:00,ZBAA 100000Z AUTO 06004KT 6SM M05/M15 A3047 RMK SLP319 T10531148 52024 IEM_DS3505
ZBAA,2001-02-10 01:00,ZBAA 100100Z AUTO 02008KT 6SM M06/M20 A3050 RMK T10601200 IEM_DS3505
ZBAA,2001-02-10 02:00,ZBAA 100200Z AUTO 02008KT 6SM M04/M21 A3050 RMK T10401210 IEM_DS3505
ZBAA,2001-02-10 03:00,ZBAA 100300Z AUTO 08006KT 9SM M02/M16 A3050 RMK SLP327 T10241160 52008 IEM_DS3505
ZBAA,2001-02-10 04:00,ZBAA 100400Z AUTO 6SM M01/M19 A3047 RMK T10101190 IEM_DS3505
ZBAA,2001-02-10 05:00,ZBAA 100500Z AUTO 6SM 00/M18 A3045 RMK T00001180 IEM_DS3505
ZBAA,2001-02-10 06:00,ZBAA 100600Z AUTO 11004KT 11SM 00/M16 A3045 RMK SLP305 T00001158 57022 IEM_DS3505
ZBAA,2001-02-10 07:00,ZBAA 100700Z AUTO 17006KT 6SM 00/M16 A3042 RMK T00001160 IEM_DS3505
ZBAA,2001-02-10 08:00,ZBAA 100800Z AUTO 14006KT 6SM 00/M16 A3042 RMK T00001160 IEM_DS3505
ZBAA,2001-02-10 09:00,ZBAA 100900Z AUTO 15006KT 9SM M01/M15 A3042 RMK SLP303 T10121153 57002 IEM_DS3505
ZBAA,2001-02-10 10:00,ZBAA 101000Z AUTO 17004KT 6SM M03/M14 A3045 RMK T10301140 IEM_DS3505
ZBAA,2001-02-10 11:00,ZBAA 101100Z AUTO 17006KT 6SM M04/M13 A3047 RMK T10401130 IEM_DS3505
ZBAA,2001-02-10 12:00,ZBAA 101200Z AUTO 15006KT 12SM M04/M12 A3050 RMK SLP328 T10391120 52025 IEM_DS3505
ZBAA,2001-02-10 13:00,ZBAA 101300Z AUTO 14006KT 6SM M05/M11 A3053 RMK T10501110 IEM_DS3505
ZBAA,2001-02-10 14:00,ZBAA 101400Z AUTO 14006KT 6SM M06/M11 A3056 RMK T10601110 IEM_DS3505
ZBAA,2001-02-10 15:00,ZBAA 101500Z AUTO 14006KT 9SM M07/M13 A3059 RMK SLP357 T10671127 52028 IEM_DS3505
ZBAA,2001-02-10 16:00,ZBAA 101600Z AUTO 14004KT 6SM M08/M14 A3059 RMK T10801140 IEM_DS3505
ZBAA,2001-02-10 17:00,ZBAA 101700Z AUTO 15004KT 6SM M09/M14 A3062 RMK T10901140 IEM_DS3505
ZBAA,2001-02-10 18:00,ZBAA 101800Z AUTO 09004KT 9SM M08/M15 A3062 RMK SLP371 T10841151 52014 IEM_DS3505
ZBAA,2001-02-10 19:00,ZBAA 101900Z AUTO 16006KT 7SM M08/M14 A3065 RMK T10801140 IEM_DS3505
ZBAA,2001-02-10 20:00,ZBAA 102000Z AUTO 00000KT 7SM M09/M14 A3065 RMK T10901140 IEM_DS3505
ZBAA,2001-02-10 21:00,ZBAA 102100Z AUTO 10004KT 9SM M09/M16 A3065 RMK SLP380 T10891162 52009 IEM_DS3505
ZBAA,2001-02-10 22:00,ZBAA 102200Z AUTO 00000KT 7SM M11/M15 A3068 RMK T11101150 IEM_DS3505
ZBAA,2001-02-10 23:00,ZBAA 102300Z AUTO 14002KT 6SM M11/M14 A3068 RMK T11101140 IEM_DS3505
ZBAA,2001-02-11 00:00,ZBAA 110000Z AUTO 09002KT 6SM M10/M16 A3071 RMK SLP399 T10961159 52019 IEM_DS3505
ZBAA,2001-02-11 01:00,ZBAA 110100Z AUTO 14002KT 6SM M08/M13 A3074 RMK T10801130 IEM_DS3505
ZBAA,2001-02-11 02:00,ZBAA 110200Z AUTO 00000KT 6SM M07/M14 A3074 RMK T10701140 IEM_DS3505
ZBAA,2001-02-11 03:00,ZBAA 110300Z AUTO 18002KT 9SM M05/M12 A3074 RMK T10501120 IEM_DS3505
ZBAA,2001-02-11 04:00,ZBAA 110400Z AUTO 6SM M05/M13 A3074 RMK T10501130 IEM_DS3505
ZBAA,2001-02-11 05:00,ZBAA 110500Z AUTO 6SM M04/M14 A3071 RMK T10401140 IEM_DS3505
ZBAA,2001-02-11 06:00,ZBAA 110600Z AUTO 29002KT 9SM M04/M14 A3068 RMK SLP390 T10411145 57025 IEM_DS3505
ZBAA,2001-02-11 07:00,ZBAA 110700Z AUTO 10004KT 5SM M03/M13 A3065 RMK T10301130 IEM_DS3505
ZBAA,2001-02-11 08:00,ZBAA 110800Z AUTO 06002KT 5SM M03/M13 A3065 RMK T10301130 IEM_DS3505
ZBAA,2001-02-11 09:00,ZBAA 110900Z AUTO 19004KT 7SM M04/M14 A3065 RMK SLP388 T10381145 57002 IEM_DS3505
ZBAA,2001-02-11 10:00,ZBAA 111000Z AUTO 18008KT M04/M12 A3068 RMK T10401120 IEM_DS3505
ZBAA,2001-02-11 11:00,ZBAA 111100Z AUTO 19006KT 6SM M04/M12 A3068 RMK T10401120 IEM_DS3505
ZBAA,2001-02-11 12:00,ZBAA 111200Z AUTO 21004KT 7SM M04/M13 A3068 RMK SLP394 T10441134 52006 IEM_DS3505
ZBAA,2001-02-11 13:00,ZBAA 111300Z AUTO 19006KT 6SM M04/M12 A3071 RMK T10401120 IEM_DS3505
ZBAA,2001-02-11 14:00,ZBAA 111400Z AUTO 18004KT 6SM M05/M12 A3071 RMK T10501120 IEM_DS3505
ZBAA,2001-02-11 15:00,ZBAA 111500Z AUTO 00000KT 6SM M05/M13 A3071 RMK SLP401 T10501128 52007 IEM_DS3505
ZBAA,2001-02-11 16:00,ZBAA 111600Z AUTO 14002KT 6SM M06/M11 A3071 RMK T10601110 IEM_DS3505
ZBAA,2001-02-11 17:00,ZBAA 111700Z AUTO 11004KT 6SM M06/M10 A3071 RMK T10601100 IEM_DS3505
ZBAA,2001-02-11 18:00,ZBAA 111800Z AUTO 19004KT 7SM M06/M10 A3071 RMK SLP399 T10601104 57002 IEM_DS3505
ZBAA,2001-02-11 19:00,ZBAA 111900Z AUTO 12004KT 6SM M07/M09 A3071 RMK T10701090 IEM_DS3505
ZBAA,2001-02-11 20:00,ZBAA 112000Z AUTO 11004KT 6SM M08/M10 A3071 RMK T10801100 IEM_DS3505
ZBAA,2001-02-11 21:00,ZBAA 112100Z AUTO 13002KT 9SM M08/M11 A3068 RMK SLP394 T10821113 57005 IEM_DS3505
ZBAA,2001-02-11 22:00,ZBAA 112200Z AUTO 12002KT 6SM M09/M11 A3071 RMK T10901110 IEM_DS3505
ZBAA,2001-02-11 23:00,ZBAA 112300Z AUTO 03002KT 5SM M09/M11 A3071 RMK T10901110 IEM_DS3505
ZBAA,2001-02-12 00:00,ZBAA 120000Z AUTO 10002KT 6SM M08/M11 A3074 RMK SLP404 T10761106 52010 IEM_DS3505
ZBAA,2001-02-12 01:00,ZBAA 120100Z AUTO 09004KT 5SM M08/M12 A3071 RMK T10801120 IEM_DS3505
ZBAA,2001-02-12 02:00,ZBAA 120200Z AUTO 14002KT 4SM M06/M11 A3068 RMK T10601110 IEM_DS3505
ZBAA,2001-02-12 03:00,ZBAA 120300Z AUTO 23004KT 6SM M04/M10 A3068 RMK SLP387 T10381098 57017 IEM_DS3505
ZBAA,2001-02-12 04:00,ZBAA 120400Z AUTO 19004KT 2 1/2SM M03/M09 A3065 RMK T10301090 IEM_DS3505
ZBAA,2001-02-12 05:00,ZBAA 120500Z AUTO 17004KT 2SM M02/M09 A3059 RMK T10201090 IEM_DS3505
ZBAA,2001-02-12 06:00,ZBAA 120600Z AUTO 21008KT 6SM M01/M10 A3056 RMK SLP348 T10091102 57038 IEM_DS3505
ZBAA,2001-02-12 07:00,ZBAA 120700Z AUTO 20006KT 3SM M01/M10 A3053 RMK T10101100 IEM_DS3505
ZBAA,2001-02-12 08:00,ZBAA 120800Z AUTO 21006KT 3SM 00/M09 A3053 RMK T00001090 IEM_DS3505
ZBAA,2001-02-12 09:00,ZBAA 120900Z AUTO 21004KT 6SM M01/M10 A3050 RMK SLP335 T10141102 57014 IEM_DS3505
ZBAA,2001-02-12 10:00,ZBAA 121000Z AUTO 16004KT 3SM M03/M08 A3050 RMK T10301080 IEM_DS3505
ZBAA,2001-02-12 11:00,ZBAA 121100Z AUTO 16004KT 3SM M03/M08 A3050 RMK T10301080 IEM_DS3505
ZBAA,2001-02-12 12:00,ZBAA 121200Z AUTO 21002KT 6SM M02/M09 A3050 RMK SLP337 T10231094 52002 IEM_DS3505
ZBAA,2001-02-12 13:00,ZBAA 121300Z AUTO 18004KT 2 1/2SM M03/M08 A3053 RMK T10301080 IEM_DS3505
ZBAA,2001-02-12 14:00,ZBAA 121400Z AUTO 15002KT 2 1/2SM M03/M07 A3053 RMK T10301070 IEM_DS3505
ZBAA,2001-02-12 15:00,ZBAA 121500Z AUTO 21004KT 6SM M03/M09 A3050 RMK SLP334 T10261090 57002 IEM_DS3505
ZBAA,2001-02-12 16:00,ZBAA 121600Z AUTO 12002KT 1 1/2SM M04/M07 A3050 RMK T10401070 IEM_DS3505
ZBAA,2001-02-12 17:00,ZBAA 121700Z AUTO 09002KT 1 1/2SM M05/M08 A3047 RMK T10501080 IEM_DS3505
ZBAA,2001-02-12 18:00,ZBAA 121800Z AUTO 00000KT 6SM M05/M10 A3045 RMK SLP314 T10471095 57020 IEM_DS3505
ZBAA,2001-02-12 19:00,ZBAA 121900Z AUTO 00000KT 1 1/4SM M06/M08 A3045 RMK T10601080 IEM_DS3505
ZBAA,2001-02-12 20:00,ZBAA 122000Z AUTO 00000KT 1 1/4SM M07/M09 A3045 RMK T10701090 IEM_DS3505
ZBAA,2001-02-12 21:00,ZBAA 122100Z AUTO 20002KT 6SM M05/M09 A3042 RMK SLP299 T10531090 57015 IEM_DS3505
ZBAA,2001-02-12 22:00,ZBAA 122200Z AUTO 34002KT 1SM M08/M09 A3042 RMK T10801090 IEM_DS3505
ZBAA,2001-02-12 23:00,ZBAA 122300Z AUTO 35004KT 1 1/4SM M08/M10 A3042 RMK T10801100 IEM_DS3505
ZBAA,2001-02-13 00:00,ZBAA 130000Z AUTO 08002KT 3SM M06/M09 A3042 RMK SLP296 T10631093 57003 IEM_DS3505
ZBAA,2001-02-13 01:00,ZBAA 130100Z AUTO 35004KT 1SM M06/M08 A3042 RMK T10601080 IEM_DS3505
ZBAA,2001-02-13 02:00,ZBAA 130200Z AUTO 34002KT 2SM M03/M08 A3039 RMK T10301080 IEM_DS3505
ZBAA,2001-02-13 03:00,ZBAA 130300Z AUTO 06004KT 2 1/2SM M01/M08 A3039 RMK SLP288 T10071075 57008 IEM_DS3505
ZBAA,2001-02-13 04:00,ZBAA 130400Z AUTO 08004KT 2 1/2SM 00/M07 A3036 RMK T00001070 IEM_DS3505
ZBAA,2001-02-13 05:00,ZBAA 130500Z AUTO 14004KT 2 1/2SM 01/M07 A3033 RMK T00101070 IEM_DS3505
ZBAA,2001-02-13 06:00,ZBAA 130600Z AUTO 12004KT 4SM 03/M09 A3030 RMK SLP260 T00281088 57028 IEM_DS3505
ZBAA,2001-02-13 07:00,ZBAA 130700Z AUTO 2 1/2SM 03/M08 A3030 RMK T00301080 IEM_DS3505
ZBAA,2001-02-13 08:00,ZBAA 130800Z AUTO 09004KT 3SM 04/M08 A3030 RMK T00401080 IEM_DS3505
ZBAA,2001-02-13 09:00,ZBAA 130900Z AUTO 18002KT 4SM 03/M07 A3030 RMK SLP259 T00261073 57001 IEM_DS3505
ZBAA,2001-02-13 10:00,ZBAA 131000Z AUTO 04002KT 2 1/2SM 01/M08 A3030 RMK T00101080 IEM_DS3505
ZBAA,2001-02-13 11:00,ZBAA 131100Z AUTO 06002KT 3SM 00/M08 A3033 RMK T00001080 IEM_DS3505
ZBAA,2001-02-13 12:00,ZBAA 131200Z AUTO 11004KT 2 1/2SM M02/M08 A3036 RMK SLP276 T10211078 52017 IEM_DS3505
ZBAA,2001-02-13 13:00,ZBAA 131300Z AUTO 10002KT 2SM M03/M07 A3036 RMK T10301070 IEM_DS3505
ZBAA,2001-02-13 14:00,ZBAA 131400Z AUTO 13002KT 2 1/2SM M03/M07 A3036 RMK T10301070 IEM_DS3505
ZBAA,2001-02-13 15:00,ZBAA 131500Z AUTO 21002KT 2 1/2SM M02/M08 A3036 RMK SLP277 T10221075 52001 IEM_DS3505
ZBAA,2001-02-13 16:00,ZBAA 131600Z AUTO 12002KT 2 1/2SM M04/M08 A3036 RMK T10401080 IEM_DS3505
ZBAA,2001-02-13 17:00,ZBAA 131700Z AUTO 07002KT 2SM M05/M08 A3036 RMK T10501080 IEM_DS3505
ZBAA,2001-02-13 18:00,ZBAA 131800Z AUTO 09004KT 2SM M05/M08 A3033 RMK SLP268 T10471083 57009 IEM_DS3505
ZBAA,2001-02-13 19:00,ZBAA 131900Z AUTO 07002KT 1 1/4SM M06/M07 A3033 RMK T10601070 IEM_DS3505
ZBAA,2001-02-13 20:00,ZBAA 132000Z AUTO 06004KT 1 1/4SM M07/M07 A3030 RMK T10701070 IEM_DS3505
ZBAA,2001-02-13 21:00,ZBAA 132100Z AUTO 06002KT 2SM M06/M09 A3027 RMK SLP252 T10601086 57016 IEM_DS3505
ZBAA,2001-02-13 22:00,ZBAA 132200Z AUTO 00000KT 1 1/4SM M07/M07 A3027 RMK T10701070 IEM_DS3505
ZBAA,2001-02-13 23:00,ZBAA 132300Z AUTO 08004KT 1 1/4SM M06/M07 A3027 RMK T10601070 IEM_DS3505
ZBAA,2001-02-14 00:00,ZBAA 140000Z AUTO 07004KT 1/4SM M06/M08 A3027 RMK SLP252 T10581077 54000 IEM_DS3505
ZBAA,2001-02-14 01:00,ZBAA 140100Z AUTO 10004KT 1SM M05/M06 A3030 RMK T10501060 IEM_DS3505
ZBAA,2001-02-14 02:00,ZBAA 140200Z AUTO 11006KT 1SM M05/M05 A3027 RMK T10501050 IEM_DS3505
ZBAA,2001-02-14 03:00,ZBAA 140300Z AUTO 09006KT 3/8SM M04/M06 A3027 RMK SLP243 T10451062 57009 IEM_DS3505
ZBAA,2001-02-14 04:00,ZBAA 140400Z AUTO 11006KT 1SM M04/M05 A3024 RMK T10401050 IEM_DS3505
ZBAA,2001-02-14 05:00,ZBAA 140500Z AUTO 13008KT 1SM M04/M04 A3021 RMK T10401040 IEM_DS3505
ZBAA,2001-02-14 06:00,ZBAA 140600Z AUTO 06004KT 1/2SM M04/M05 A3018 RMK 60000 SLP214 T10371054 57029 IEM_DS3505
ZBAA,2001-02-14 07:00,ZBAA 140700Z AUTO 12006KT 1SM M03/M04 A3015 RMK T10301040 IEM_DS3505
ZBAA,2001-02-14 08:00,ZBAA 140800Z AUTO 12006KT 1SM M03/M04 A3015 RMK T10301040 IEM_DS3505
ZBAA,2001-02-14 09:00,ZBAA 140900Z AUTO 06006KT 1SM M04/M05 A3015 RMK SLP209 T10351050 57005 IEM_DS3505
ZBAA,2001-02-14 10:00,ZBAA 141000Z AUTO 00000KT 1SM M03/M05 A3015 RMK T10301050 IEM_DS3505
ZBAA,2001-02-14 11:00,ZBAA 141100Z AUTO 35004KT 1SM M03/M04 A3018 RMK T10301040 IEM_DS3505
ZBAA,2001-02-14 12:00,ZBAA 141200Z AUTO 03004KT 2SM M03/M05 A3018 RMK 60003 SLP221 T10261051 52012 IEM_DS3505
ZBAA,2001-02-14 13:00,ZBAA 141300Z AUTO 32002KT 1SM M03/M04 A3018 RMK T10301040 IEM_DS3505
ZBAA,2001-02-14 14:00,ZBAA 141400Z AUTO 32006KT 1SM M03/M05 A3018 RMK T10301050 IEM_DS3505
ZBAA,2001-02-14 15:00,ZBAA 141500Z AUTO 05002KT 2 1/2SM M03/M06 A3018 RMK SLP223 T10261056 52002 IEM_DS3505
ZBAA,2001-02-14 16:00,ZBAA 141600Z AUTO 27002KT 1SM M03/M05 A3018 RMK T10301050 IEM_DS3505
ZBAA,2001-02-14 17:00,ZBAA 141700Z AUTO 32002KT 1SM M04/M06 A3018 RMK T10401060 IEM_DS3505
ZBAA,2001-02-14 18:00,ZBAA 141800Z AUTO 32002KT 4SM M04/M06 A3018 RMK SLP220 T10361062 57003 IEM_DS3505
ZBAA,2001-02-14 19:00,ZBAA 141900Z AUTO 33004KT 1SM M06/M07 A3018 RMK T10601070 IEM_DS3505
ZBAA,2001-02-14 20:00,ZBAA 142000Z AUTO 33004KT 1SM M07/M07 A3018 RMK T10701070 IEM_DS3505
ZBAA,2001-02-14 21:00,ZBAA 142100Z AUTO 26002KT 2 1/2SM M06/M08 A3018 RMK 70000 SLP224 T10641085 52004 IEM_DS3505
ZBAA,2001-02-14 22:00,ZBAA 142200Z AUTO 29004KT 1SM M07/M08 A3021 RMK T10701080 IEM_DS3505
ZBAA,2001-02-14 23:00,ZBAA 142300Z AUTO 26004KT 1SM M07/M07 A3024 RMK T10701070 IEM_DS3505
ZBAA,2001-02-15 00:00,ZBAA 150000Z AUTO 29017KT 12SM 01/M19 A3027 RMK 70000 SLP247 T00081189 52023 IEM_DS3505
ZBAA,2001-02-15 01:00,ZBAA 150100Z AUTO 29010KT M01/M11 A3030 RMK T10101110 IEM_DS3505
ZBAA,2001-02-15 02:00,ZBAA 150200Z AUTO 31016KT 6SM 01/M15 A3033 RMK T00101150 IEM_DS3505
ZBAA,2001-02-15 03:00,ZBAA 150300Z AUTO 33010KT 11SM 02/M20 A3033 RMK SLP277 T00171200 52030 IEM_DS3505
ZBAA,2001-02-15 04:00,ZBAA 150400Z AUTO 30017KT 6SM 02/M18 A3036 RMK T00201180 IEM_DS3505
ZBAA,2001-02-15 05:00,ZBAA 150500Z AUTO 31023G37KT 6SM 03/M18 A3033 RMK T00301180 IEM_DS3505
ZBAA,2001-02-15 06:00,ZBAA 150600Z AUTO 31014G29KT 12SM 02/M20 A3033 RMK SLP279 T00241200 52002 IEM_DS3505
ZBAA,2001-02-15 07:00,ZBAA 150700Z AUTO 32017G27KT 6SM 03/M19 A3036 RMK T00301190 IEM_DS3505
ZBAA,2001-02-15 08:00,ZBAA 150800Z AUTO 33017G27KT 6SM 03/M19 A3036 RMK T00301190 IEM_DS3505
ZBAA,2001-02-15 09:00,ZBAA 150900Z AUTO 31012KT 12SM 03/M21 A3039 RMK SLP290 T00261206 52011 IEM_DS3505
ZBAA,2001-02-15 10:00,ZBAA 151000Z AUTO 34016G25KT 6SM 00/M19 A3042 RMK T00001190 IEM_DS3505
ZBAA,2001-02-15 11:00,ZBAA 151100Z AUTO 35010KT 6SM M02/M18 A3047 RMK T10201180 IEM_DS3505
ZBAA,2001-02-15 12:00,ZBAA 151200Z AUTO 02002KT 12SM M01/M19 A3047 RMK SLP319 T10071187 52029 IEM_DS3505
ZBAA,2001-02-15 13:00,ZBAA 151300Z AUTO 34014G23KT 6SM M01/M21 A3050 RMK T10101210 IEM_DS3505
ZBAA,2001-02-15 14:00,ZBAA 151400Z AUTO 34014G23KT 6SM M01/M21 A3053 RMK T10101210 IEM_DS3505
ZBAA,2001-02-15 15:00,ZBAA 151500Z AUTO 01004KT 9SM M03/M19 A3053 RMK SLP338 T10271190 52019 IEM_DS3505
ZBAA,2001-02-15 16:00,ZBAA 151600Z AUTO 36008KT 6SM M03/M20 A3053 RMK T10301200 IEM_DS3505
ZBAA,2001-02-15 17:00,ZBAA 151700Z AUTO 36004KT 6SM M04/M20 A3053 RMK T10401200 IEM_DS3505
ZBAA,2001-02-15 18:00,ZBAA 151800Z AUTO 18002KT 11SM M05/M18 A3053 RMK SLP339 T10471184 52001 IEM_DS3505
ZBAA,2001-02-15 19:00,ZBAA 151900Z AUTO 25002KT 6SM M07/M18 A3050 RMK T10701180 IEM_DS3505
ZBAA,2001-02-15 20:00,ZBAA 152000Z AUTO 25002KT 6SM M05/M18 A3050 RMK T10501180 IEM_DS3505
ZBAA,2001-02-15 21:00,ZBAA 152100Z AUTO 25002KT 9SM M06/M18 A3050 RMK SLP329 T10551178 57010 IEM_DS3505
ZBAA,2001-02-15 22:00,ZBAA 152200Z AUTO 6SM M08/M16 A3050 RMK T10801160 IEM_DS3505
ZBAA,2001-02-15 23:00,ZBAA 152300Z AUTO 05002KT 6SM M09/M17 A3050 RMK T10901170 IEM_DS3505
ZBAA,2001-02-16 00:00,ZBAA 160000Z AUTO 24002KT 6SM M05/M18 A3053 RMK SLP341 T10471177 52012 IEM_DS3505
ZBAA,2001-02-16 01:00,ZBAA 160100Z AUTO 02002KT 6SM M05/M16 A3053 RMK T10501160 IEM_DS3505
ZBAA,2001-02-16 03:00,ZBAA 160300Z AUTO 20010KT 11SM 02/M16 A3053 RMK SLP337 T00251164 57004 IEM_DS3505
ZBAA,2001-02-16 04:00,ZBAA 160400Z AUTO 20010KT 6SM 04/M17 A3050 RMK T00401170 IEM_DS3505
ZBAA,2001-02-16 05:00,ZBAA 160500Z AUTO 22008KT 6SM 05/M18 A3045 RMK T00501180 IEM_DS3505
ZBAA,2001-02-16 06:00,ZBAA 160600Z AUTO 21012KT 7SM 05/M15 A3042 RMK SLP300 T00501154 57037 IEM_DS3505
ZBAA,2001-02-16 07:00,ZBAA 160700Z AUTO 20012KT 6SM 06/M16 A3039 RMK T00601160 IEM_DS3505
ZBAA,2001-02-16 08:00,ZBAA 160800Z AUTO 20008KT 6SM 06/M15 A3036 RMK T00601150 IEM_DS3505
ZBAA,2001-02-16 09:00,ZBAA 160900Z AUTO 21012KT 11SM 05/M14 A3033 RMK SLP273 T00461136 57027 IEM_DS3505
ZBAA,2001-02-16 10:00,ZBAA 161000Z AUTO 19008KT 6SM 03/M12 A3033 RMK T00301120 IEM_DS3505
ZBAA,2001-02-16 11:00,ZBAA 161100Z AUTO 18008KT 6SM 01/M10 A3033 RMK T00101100 IEM_DS3505
ZBAA,2001-02-16 12:00,ZBAA 161200Z AUTO 19006KT 7SM 01/M09 A3033 RMK SLP270 T00121091 57003 IEM_DS3505
ZBAA,2001-02-16 13:00,ZBAA 161300Z AUTO 16006KT 6SM 00/M08 A3033 RMK T00001080 IEM_DS3505
ZBAA,2001-02-16 14:00,ZBAA 161400Z AUTO 14004KT 6SM M01/M08 A3033 RMK T10101080 IEM_DS3505
ZBAA,2001-02-16 15:00,ZBAA 161500Z AUTO 18002KT 6SM M01/M08 A3030 RMK SLP262 T10061085 57008 IEM_DS3505
ZBAA,2001-02-16 16:00,ZBAA 161600Z AUTO 16008KT 6SM M01/M05 A3030 RMK T10101050 IEM_DS3505
ZBAA,2001-02-16 17:00,ZBAA 161700Z AUTO 14004KT 6SM M02/M07 A3027 RMK T10201070 IEM_DS3505
ZBAA,2001-02-16 18:00,ZBAA 161800Z AUTO 05002KT 7SM M01/M07 A3027 RMK SLP245 T10081073 57016 IEM_DS3505
ZBAA,2001-02-16 19:00,ZBAA 161900Z AUTO 10002KT 6SM M03/M07 A3024 RMK T10301070 IEM_DS3505
ZBAA,2001-02-16 20:00,ZBAA 162000Z AUTO 00000KT 5SM M04/M07 A3021 RMK T10401070 IEM_DS3505
ZBAA,2001-02-16 21:00,ZBAA 162100Z AUTO 10002KT 6SM M02/M07 A3021 RMK SLP224 T10231074 57021 IEM_DS3505
ZBAA,2001-02-16 22:00,ZBAA 162200Z AUTO 05002KT 4SM M03/M06 A3018 RMK T10301060 IEM_DS3505
ZBAA,2001-02-16 23:00,ZBAA 162300Z AUTO 05002KT 3SM M03/M06 A3018 RMK T10301060 IEM_DS3505
ZBAA,2001-02-17 00:00,ZBAA 170000Z AUTO 03002KT 4SM M02/M07 A3018 RMK SLP219 T10191068 57005 IEM_DS3505
ZBAA,2001-02-17 01:00,ZBAA 170100Z AUTO 02002KT 2 1/2SM M02/M06 A3018 RMK T10201060 IEM_DS3505
ZBAA,2001-02-17 02:00,ZBAA 170200Z AUTO 05002KT 2 1/2SM M01/M06 A3018 RMK T10101060 IEM_DS3505
ZBAA,2001-02-17 03:00,ZBAA 170300Z AUTO 02004KT 4SM 00/M07 A3018 RMK SLP215 T00041071 57004 IEM_DS3505
ZBAA,2001-02-17 04:00,ZBAA 170400Z AUTO 06004KT 3SM 01/M05 A3015 RMK T00101050 IEM_DS3505
ZBAA,2001-02-17 05:00,ZBAA 170500Z AUTO 12004KT 03/M04 A3012 RMK T00301040 IEM_DS3505
ZBAA,2001-02-17 06:00,ZBAA 170600Z AUTO 06002KT 6SM 04/M06 A3009 RMK SLP183 T00371062 57032 IEM_DS3505
ZBAA,2001-02-17 07:00,ZBAA 170700Z AUTO 15004KT 04/M04 A3006 RMK T00401040 IEM_DS3505
ZBAA,2001-02-17 08:00,ZBAA 170800Z AUTO 12004KT 04/M03 A3006 RMK T00401030 IEM_DS3505
ZBAA,2001-02-17 09:00,ZBAA 170900Z AUTO 16002KT 6SM 03/M05 A3003 RMK SLP174 T00311048 57009 IEM_DS3505
ZBAA,2001-02-17 10:00,ZBAA 171000Z AUTO 13002KT 2 1/2SM 02/M04 A3006 RMK T00201040 IEM_DS3505
ZBAA,2001-02-17 11:00,ZBAA 171100Z AUTO 19004KT 2 1/2SM 01/M03 A3006 RMK T00101030 IEM_DS3505
ZBAA,2001-02-17 12:00,ZBAA 171200Z AUTO 00000KT 5SM M00/M05 A3006 RMK SLP185 T10011051 52011 IEM_DS3505
ZBAA,2001-02-17 13:00,ZBAA 171300Z AUTO 00000KT 1 1/2SM M02/M04 A3009 RMK T10201040 IEM_DS3505
ZBAA,2001-02-17 14:00,ZBAA 171400Z AUTO 00000KT 1 1/4SM M02/M04 A3009 RMK T10201040 IEM_DS3505
ZBAA,2001-02-17 15:00,ZBAA 171500Z AUTO 00000KT 3SM M01/M05 A3009 RMK SLP192 T10131046 52007 IEM_DS3505
ZBAA,2001-02-17 16:00,ZBAA 171600Z AUTO 36004KT 1SM M02/M03 A3009 RMK T10201030 IEM_DS3505
ZBAA,2001-02-17 17:00,ZBAA 171700Z AUTO 35002KT 1SM M03/M04 A3009 RMK T10301040 IEM_DS3505
ZBAA,2001-02-17 18:00,ZBAA 171800Z AUTO 36002KT 2 1/2SM M02/M04 A3006 RMK SLP183 T10171043 57009 IEM_DS3505
ZBAA,2001-02-17 19:00,ZBAA 171900Z AUTO 33002KT 1SM M03/M04 A3006 RMK T10301040 IEM_DS3505
ZBAA,2001-02-17 20:00,ZBAA 172000Z AUTO 29002KT 1SM M04/M05 A3006 RMK T10401050 IEM_DS3505
ZBAA,2001-02-17 21:00,ZBAA 172100Z AUTO 00000KT 2SM M03/M05 A3006 RMK SLP170 T10321053 57013 IEM_DS3505
ZBAA,2001-02-17 22:00,ZBAA 172200Z AUTO 34004KT 1 1/4SM M05/M06 A3003 RMK T10501060 IEM_DS3505
ZBAA,2001-02-17 23:00,ZBAA 172300Z AUTO 34004KT 1SM M04/M05 A3006 RMK T10401050 IEM_DS3505
ZBAA,2001-02-18 00:00,ZBAA 180000Z AUTO 24002KT 1 1/4SM M04/M06 A3006 RMK SLP183 T10361056 52013 IEM_DS3505
ZBAA,2001-02-18 01:00,ZBAA 180100Z AUTO 35004KT 1SM M02/M04 A3006 RMK T10201040 IEM_DS3505
ZBAA,2001-02-18 02:00,ZBAA 180200Z AUTO 34006KT 1 1/2SM 01/M03 A3006 RMK T00101030 IEM_DS3505
ZBAA,2001-02-18 03:00,ZBAA 180300Z AUTO 14002KT 2 1/2SM 05/M04 A3009 RMK SLP184 T00461039 52001 IEM_DS3505
ZBAA,2001-02-18 04:00,ZBAA 180400Z AUTO 01004KT 2SM 05/M03 A3006 RMK T00501030 IEM_DS3505
ZBAA,2001-02-18 05:00,ZBAA 180500Z AUTO 30002KT 2SM 06/M03 A3003 RMK T00601030 IEM_DS3505
ZBAA,2001-02-18 06:00,ZBAA 180600Z AUTO 17004KT 3SM 09/M04 A3000 RMK SLP165 T00901038 57019 IEM_DS3505
ZBAA,2001-02-18 07:00,ZBAA 180700Z AUTO 20002KT 2SM 09/M03 A3003 RMK T00901030 IEM_DS3505
ZBAA,2001-02-18 08:00,ZBAA 180800Z AUTO 06002KT 1 1/2SM 09/M03 A3003 RMK T00901030 IEM_DS3505
ZBAA,2001-02-18 09:00,ZBAA 180900Z AUTO 21002KT 5SM 08/M04 A3003 RMK SLP175 T00851039 52010 IEM_DS3505
ZBAA,2001-02-18 10:00,ZBAA 181000Z AUTO 07002KT 1 1/2SM 06/M03 A3006 RMK T00601030 IEM_DS3505
ZBAA,2001-02-18 11:00,ZBAA 181100Z AUTO 00000KT 1 1/2SM 04/M03 A3009 RMK T00401030 IEM_DS3505
ZBAA,2001-02-18 12:00,ZBAA 181200Z AUTO 10002KT 3SM 04/M03 A3012 RMK SLP196 T00411032 52021 IEM_DS3505
ZBAA,2001-02-18 13:00,ZBAA 181300Z AUTO 00000KT 1 1/4SM 02/M03 A3015 RMK T00201030 IEM_DS3505
ZBAA,2001-02-18 14:00,ZBAA 181400Z AUTO 35004KT 1SM 01/M04 A3018 RMK T00101040 IEM_DS3505
ZBAA,2001-02-18 15:00,ZBAA 181500Z AUTO 00000KT 2SM 01/M04 A3018 RMK SLP221 T00131037 52025 IEM_DS3505
ZBAA,2001-02-18 16:00,ZBAA 181600Z AUTO 34006KT 1SM 02/M03 A3021 RMK T00201030 IEM_DS3505
ZBAA,2001-02-18 17:00,ZBAA 181700Z AUTO 33008KT 1SM 01/M04 A3021 RMK T00101040 IEM_DS3505
ZBAA,2001-02-18 18:00,ZBAA 181800Z AUTO 07004KT 2 1/2SM 02/M04 A3027 RMK SLP245 T00151045 52024 IEM_DS3505
ZBAA,2001-02-18 19:00,ZBAA 181900Z AUTO 11002KT 1SM 00/M03 A3030 RMK T00001030 IEM_DS3505
ZBAA,2001-02-18 20:00,ZBAA 182000Z AUTO 06002KT 1SM M02/M05 A3030 RMK T10201050 IEM_DS3505
ZBAA,2001-02-18 21:00,ZBAA 182100Z AUTO 00000KT 2 1/2SM 01/M06 A3033 RMK SLP267 T00111062 52022 IEM_DS3505
ZBAA,2001-02-18 22:00,ZBAA 182200Z AUTO 29006KT 1 1/4SM 00/M04 A3036 RMK T00001040 IEM_DS3505
ZBAA,2001-02-18 23:00,ZBAA 182300Z AUTO 28006KT 1 1/2SM 01/M05 A3036 RMK T00101050 IEM_DS3505
ZBAA,2001-02-19 00:00,ZBAA 190000Z AUTO 00000KT 3SM 00/M07 A3039 RMK SLP288 T00001072 52021 IEM_DS3505
ZBAA,2001-02-19 01:00,ZBAA 190100Z AUTO 27002KT 1SM 03/M04 A3039 RMK T00301040 IEM_DS3505
ZBAA,2001-02-19 02:00,ZBAA 190200Z AUTO 28004KT 1 1/4SM 05/M04 A3039 RMK T00501040 IEM_DS3505
ZBAA,2001-02-19 03:00,ZBAA 190300Z AUTO 10002KT 4SM 07/M08 A3039 RMK SLP293 T00741078 52005 IEM_DS3505
ZBAA,2001-02-19 04:00,ZBAA 190400Z AUTO 2 1/2SM 09/M05 A3039 RMK T00901050 IEM_DS3505
ZBAA,2001-02-19 05:00,ZBAA 190500Z AUTO 20004KT 2 1/2SM 10/M06 A3036 RMK T01001060 IEM_DS3505
ZBAA,2001-02-19 06:00,ZBAA 190600Z AUTO 14006KT 3SM 10/M08 A3033 RMK SLP274 T01041080 57015 IEM_DS3505
ZBAA,2001-02-19 07:00,ZBAA 190700Z AUTO 17008KT 3SM 11/M08 A3030 RMK T01101080 IEM_DS3505
ZBAA,2001-02-19 08:00,ZBAA 190800Z AUTO 14006KT 11/M07 A3030 RMK T01101070 IEM_DS3505
ZBAA,2001-02-19 09:00,ZBAA 190900Z AUTO 16006KT 6SM 10/M10 A3030 RMK SLP256 T00971103 57016 IEM_DS3505
ZBAA,2001-02-19 10:00,ZBAA 191000Z AUTO 15004KT 5SM 07/M08 A3030 RMK T00701080 IEM_DS3505
ZBAA,2001-02-19 11:00,ZBAA 191100Z AUTO 15008KT 6SM 05/M10 A3030 RMK T00501100 IEM_DS3505
ZBAA,2001-02-19 12:00,ZBAA 191200Z AUTO 13006KT 6SM 04/M10 A3030 RMK SLP259 T00441100 52003 IEM_DS3505
ZBAA,2001-02-19 13:00,ZBAA 191300Z AUTO 17006KT 6SM 02/M10 A3030 RMK T00201100 IEM_DS3505
ZBAA,2001-02-19 14:00,ZBAA 191400Z AUTO 14002KT 6SM 01/M10 A3030 RMK T00101100 IEM_DS3505
ZBAA,2001-02-19 15:00,ZBAA 191500Z AUTO 26002KT 6SM 01/M08 A3030 RMK SLP258 T00111084 57001 IEM_DS3505
ZBAA,2001-02-19 16:00,ZBAA 191600Z AUTO 34002KT 6SM M02/M08 A3030 RMK T10201080 IEM_DS3505
ZBAA,2001-02-19 17:00,ZBAA 191700Z AUTO 07002KT 6SM M01/M07 A3027 RMK T10101070 IEM_DS3505
ZBAA,2001-02-19 18:00,ZBAA 191800Z AUTO 08004KT 3SM M01/M08 A3027 RMK SLP244 T10081076 57014 IEM_DS3505
ZBAA,2001-02-19 19:00,ZBAA 191900Z AUTO 10002KT 4SM M03/M07 A3024 RMK T10301070 IEM_DS3505
ZBAA,2001-02-19 20:00,ZBAA 192000Z AUTO 02002KT 3SM M03/M06 A3021 RMK T10301060 IEM_DS3505
ZBAA,2001-02-19 21:00,ZBAA 192100Z AUTO 05002KT 3SM M01/M08 A3018 RMK SLP217 T10081082 57027 IEM_DS3505
ZBAA,2001-02-19 22:00,ZBAA 192200Z AUTO 32002KT 2 1/2SM M01/M07 A3015 RMK T10101070 IEM_DS3505
ZBAA,2001-02-19 23:00,ZBAA 192300Z AUTO 33004KT 2 1/2SM M01/M06 A3015 RMK T10101060 IEM_DS3505
ZBAA,2001-02-20 00:00,ZBAA 200000Z AUTO 00000KT 2 1/2SM M01/M08 A3015 RMK SLP210 T10131080 57007 IEM_DS3505
ZBAA,2001-02-20 01:00,ZBAA 200100Z AUTO 29004KT 2 1/2SM 01/M06 A3015 RMK T00101060 IEM_DS3505
ZBAA,2001-02-20 02:00,ZBAA 200200Z AUTO 29002KT 2 1/2SM 02/M08 A3012 RMK T00201080 IEM_DS3505
ZBAA,2001-02-20 03:00,ZBAA 200300Z AUTO 24002KT 4SM 02/M11 A3012 RMK SLP197 T00221106 57013 IEM_DS3505
ZBAA,2001-02-20 04:00,ZBAA 200400Z AUTO 14002KT 04/M09 A3009 RMK T00401090 IEM_DS3505
ZBAA,2001-02-20 05:00,ZBAA 200500Z AUTO 17002KT 05/M09 A3006 RMK T00501090 IEM_DS3505
ZBAA,2001-02-20 06:00,ZBAA 200600Z AUTO 13002KT 6SM 04/M11 A3000 RMK SLP162 T00391108 57035 IEM_DS3505
ZBAA,2001-02-20 07:00,ZBAA 200700Z AUTO 16004KT 05/M09 A2997 RMK T00501090 IEM_DS3505
ZBAA,2001-02-20 08:00,ZBAA 200800Z AUTO 4SM 04/M09 A2997 RMK T00401090 IEM_DS3505
ZBAA,2001-02-20 09:00,ZBAA 200900Z AUTO 00000KT 6SM 03/M07 A2997 RMK SLP149 T00341074 57013 IEM_DS3505
ZBAA,2001-02-20 10:00,ZBAA 201000Z AUTO 15002KT 3SM 03/M08 A2997 RMK T00301080 IEM_DS3505
ZBAA,2001-02-20 11:00,ZBAA 201100Z AUTO 12002KT 3SM 01/M08 A2997 RMK T00101080 IEM_DS3505
ZBAA,2001-02-20 12:00,ZBAA 201200Z AUTO 16002KT 6SM 00/M07 A2997 RMK 60000 SLP153 T00041069 52004 IEM_DS3505
ZBAA,2001-02-20 14:00,ZBAA 201400Z AUTO 03002KT 2SM M02/M06 A3000 RMK T10201060 IEM_DS3505
ZBAA,2001-02-20 15:00,ZBAA 201500Z AUTO 25002KT 2 1/2SM M00/M05 A2997 RMK SLP151 T10031051 57002 IEM_DS3505
ZBAA,2001-02-20 16:00,ZBAA 201600Z AUTO 00000KT 2SM M02/M06 A2997 RMK T10201060 IEM_DS3505
ZBAA,2001-02-20 17:00,ZBAA 201700Z AUTO 00000KT 1 1/4SM M03/M06 A2997 RMK T10301060 IEM_DS3505
ZBAA,2001-02-20 18:00,ZBAA 201800Z AUTO 00000KT 2SM M01/M04 A2994 RMK SLP144 T10121040 57007 IEM_DS3505
ZBAA,2001-02-20 19:00,ZBAA 201900Z AUTO 33002KT 1 1/4SM M03/M07 A2994 RMK T10301070 IEM_DS3505
ZBAA,2001-02-20 20:00,ZBAA 202000Z AUTO 34004KT 1 1/4SM M03/M07 A2994 RMK T10301070 IEM_DS3505
ZBAA,2001-02-20 21:00,ZBAA 202100Z AUTO 22002KT 1 1/4SM M03/M05 A2994 RMK 70001 SLP140 T10281051 57004 IEM_DS3505
ZBAA,2001-02-20 22:00,ZBAA 202200Z AUTO 33002KT 2SM M03/M07 A2994 RMK T10301070 IEM_DS3505
ZBAA,2001-02-20 23:00,ZBAA 202300Z AUTO 32004KT 2SM M03/M07 A2997 RMK T10301070 IEM_DS3505
ZBAA,2001-02-21 00:00,ZBAA 210000Z AUTO 09002KT 1SM M03/M05 A2997 RMK 70001 SLP153 T10311051 52013 IEM_DS3505
ZBAA,2001-02-21 01:00,ZBAA 210100Z AUTO 33004KT 3SM 01/M07 A3000 RMK T00101070 IEM_DS3505
ZBAA,2001-02-21 02:00,ZBAA 210200Z AUTO 30004KT 3SM 03/M06 A3000 RMK T00301060 IEM_DS3505
ZBAA,2001-02-21 03:00,ZBAA 210300Z AUTO 00000KT 2 1/2SM 07/M06 A3000 RMK SLP155 T00691057 52003 IEM_DS3505
ZBAA,2001-02-21 04:00,ZBAA 210400Z AUTO 28002KT 3SM 09/M06 A2997 RMK T00901060 IEM_DS3505
ZBAA,2001-02-21 05:00,ZBAA 210500Z AUTO 3SM 12/M05 A2994 RMK T01201050 IEM_DS3505
ZBAA,2001-02-21 06:00,ZBAA 210600Z AUTO 15002KT 2 1/2SM 12/M04 A2994 RMK SLP135 T01221044 57020 IEM_DS3505
ZBAA,2001-02-21 07:00,ZBAA 210700Z AUTO 15006KT 3SM 14/M05 A2991 RMK T01401050 IEM_DS3505
ZBAA,2001-02-21 08:00,ZBAA 210800Z AUTO 19008KT 3SM 14/M04 A2991 RMK T01401040 IEM_DS3505
ZBAA,2001-02-21 09:00,ZBAA 210900Z AUTO 21004KT 3SM 12/M02 A2991 RMK SLP129 T01161022 57006 IEM_DS3505
ZBAA,2001-02-21 10:00,ZBAA 211000Z AUTO 19004KT 2SM 09/M02 A2991 RMK T00901020 IEM_DS3505
ZBAA,2001-02-21 11:00,ZBAA 211100Z AUTO 19004KT 2SM 08/M02 A2994 RMK T00801020 IEM_DS3505
ZBAA,2001-02-21 12:00,ZBAA 211200Z AUTO 16002KT 2 1/2SM 07/M01 A2994 RMK SLP140 T00701007 52010 IEM_DS3505
ZBAA,2001-02-21 13:00,ZBAA 211300Z AUTO 12002KT 1 1/2SM 03/M02 A2994 RMK T00301020 IEM_DS3505
ZBAA,2001-02-21 14:00,ZBAA 211400Z AUTO 12002KT 1 1/2SM 00/M03 A2994 RMK T00001030 IEM_DS3505
ZBAA,2001-02-21 15:00,ZBAA 211500Z AUTO 13006KT 2SM 05/M00 A2994 RMK SLP141 T00481004 52002 IEM_DS3505
ZBAA,2001-02-21 16:00,ZBAA 211600Z AUTO 11008KT 1 1/4SM 03/00 A2994 RMK T00300000 IEM_DS3505
ZBAA,2001-02-21 17:00,ZBAA 211700Z AUTO 12002KT 1SM 02/00 A2997 RMK T00200000 IEM_DS3505
ZBAA,2001-02-21 18:00,ZBAA 211800Z AUTO 08006KT 1 1/4SM 02/M01 A2997 RMK SLP143 T00211010 52002 IEM_DS3505
ZBAA,2001-02-21 19:00,ZBAA 211900Z AUTO 13004KT 1SM 02/01 A2994 RMK T00200010 IEM_DS3505
ZBAA,2001-02-21 20:00,ZBAA 212000Z AUTO 13008KT 1/4SM 02/01 A2994 RMK T00200010 IEM_DS3505
ZBAA,2001-02-21 21:00,ZBAA 212100Z AUTO 08004KT 3/8SM 01/M01 A2994 RMK SLP137 T00101009 57006 IEM_DS3505
ZBAA,2001-02-21 22:00,ZBAA 212200Z AUTO 14002KT 1/8SM 01/01 A2994 RMK T00100010 IEM_DS3505
ZBAA,2001-02-21 23:00,ZBAA 212300Z AUTO 00000KT 1/8SM 01/01 A2994 RMK T00100010 IEM_DS3505
ZBAA,2001-02-22 00:00,ZBAA 220000Z AUTO 06004KT 1/8SM 01/M00 A2997 RMK 60000 SLP150 T00121004 52013 IEM_DS3505
ZBAA,2001-02-22 01:00,ZBAA 220100Z AUTO 03002KT 1/8SM 02/02 A3000 RMK T00200020 IEM_DS3505
ZBAA,2001-02-22 02:00,ZBAA 220200Z AUTO 07002KT 1/4SM 02/02 A3000 RMK T00200020 IEM_DS3505
ZBAA,2001-02-22 03:00,ZBAA 220300Z AUTO 07004KT 0SM 02/00 A2997 RMK SLP149 T00200005 57002 IEM_DS3505
ZBAA,2001-02-22 04:00,ZBAA 220400Z AUTO 09004KT 1/2SM 03/03 A2997 RMK T00300030 IEM_DS3505
ZBAA,2001-02-22 05:00,ZBAA 220500Z AUTO 11004KT 1SM 04/04 A2994 RMK T00400040 IEM_DS3505
ZBAA,2001-02-22 06:00,ZBAA 220600Z AUTO 08006KT 1SM 03/02 A2994 RMK 60003 SLP142 T00310016 57007 IEM_DS3505
ZBAA,2001-02-22 07:00,ZBAA 220700Z AUTO 15004KT 1SM 05/04 A2997 RMK T00500040 IEM_DS3505
ZBAA,2001-02-22 08:00,ZBAA 220800Z AUTO 14004KT 1SM 05/03 A2997 RMK T00500030 IEM_DS3505
ZBAA,2001-02-22 09:00,ZBAA 220900Z AUTO 08010KT 1SM 03/01 A3000 RMK SLP163 T00310012 52021 IEM_DS3505
ZBAA,2001-02-22 10:00,ZBAA 221000Z AUTO 14006KT 1SM 04/03 A3006 RMK T00400030 IEM_DS3505
ZBAA,2001-02-22 11:00,ZBAA 221100Z AUTO 15002KT 1SM 03/02 A3009 RMK T00300020 IEM_DS3505
ZBAA,2001-02-22 12:00,ZBAA 221200Z AUTO 00000KT 3SM 02/M00 A3012 RMK 60003 SLP202 T00221005 52039 IEM_DS3505
ZBAA,2001-02-22 13:00,ZBAA 221300Z AUTO 00000KT 1SM 03/01 A3015 RMK T00300010 IEM_DS3505
ZBAA,2001-02-22 14:00,ZBAA 221400Z AUTO 24004KT 1SM 03/01 A3018 RMK T00300010 IEM_DS3505
ZBAA,2001-02-22 15:00,ZBAA 221500Z AUTO 00000KT 4SM 02/M02 A3018 RMK SLP216 T00221017 52014 IEM_DS3505
ZBAA,2001-02-22 16:00,ZBAA 221600Z AUTO 35006KT 1 1/2SM 02/M01 A3018 RMK T00201010 IEM_DS3505
ZBAA,2001-02-22 17:00,ZBAA 221700Z AUTO 04008KT 7SM 03/M08 A3018 RMK T00301080 IEM_DS3505
ZBAA,2001-02-22 18:00,ZBAA 221800Z AUTO 09004KT 5SM 02/M03 A3024 RMK SLP230 T00221033 52014 IEM_DS3505
ZBAA,2001-02-22 19:00,ZBAA 221900Z AUTO 02012KT 4SM 00/M02 A3024 RMK T00001020 IEM_DS3505
ZBAA,2001-02-22 20:00,ZBAA 222000Z AUTO 03010KT 4SM M01/M01 A3024 RMK T10101010 IEM_DS3505
ZBAA,2001-02-22 21:00,ZBAA 222100Z AUTO 04008KT 5SM M01/M03 A3024 RMK 70002 SLP234 T10111028 52004 IEM_DS3505
ZBAA,2001-02-22 22:00,ZBAA 222200Z AUTO 04006KT 7SM M01/M02 A3024 RMK T10101020 IEM_DS3505
ZBAA,2001-02-22 23:00,ZBAA 222300Z AUTO 03010G19KT 7SM M01/M05 A3024 RMK T10101050 IEM_DS3505
ZBAA,2001-02-23 00:00,ZBAA 230000Z AUTO 05004KT 6SM M01/M04 A3027 RMK 60003 SLP248 T10101037 52014 IEM_DS3505
ZBAA,2001-02-23 01:00,ZBAA 230100Z AUTO 03010KT 6SM M01/M06 A3030 RMK T10101060 IEM_DS3505
ZBAA,2001-02-23 02:00,ZBAA 230200Z AUTO 03010KT 6SM 00/M08 A3030 RMK T00001080 IEM_DS3505
ZBAA,2001-02-23 03:00,ZBAA 230300Z AUTO 05006KT 11SM M00/M05 A3027 RMK SLP253 T10041050 52005 IEM_DS3505
ZBAA,2001-02-23 04:00,ZBAA 230400Z AUTO 04008KT 6SM 02/M10 A3027 RMK T00201100 IEM_DS3505
ZBAA,2001-02-23 05:00,ZBAA 230500Z AUTO 02008KT 6SM 03/M10 A3024 RMK T00301100 IEM_DS3505
ZBAA,2001-02-23 06:00,ZBAA 230600Z AUTO 12002KT 19SM 02/M08 A3021 RMK 60003 SLP235 T00251085 57018 IEM_DS3505
ZBAA,2001-02-23 07:00,ZBAA 230700Z AUTO 04008KT 6SM 03/M13 A3021 RMK T00301130 IEM_DS3505
ZBAA,2001-02-23 08:00,ZBAA 230800Z AUTO 05006KT 6SM 04/M14 A3021 RMK T00401140 IEM_DS3505
ZBAA,2001-02-23 09:00,ZBAA 230900Z AUTO 15004KT 12SM 02/M06 A3021 RMK SLP236 T00241062 52001 IEM_DS3505
ZBAA,2001-02-23 10:00,ZBAA 231000Z AUTO 09004KT 6SM 02/M12 A3024 RMK T00201120 IEM_DS3505
ZBAA,2001-02-23 11:00,ZBAA 231100Z AUTO 17004KT 6SM 00/M09 A3027 RMK T00001090 IEM_DS3505
ZBAA,2001-02-23 12:00,ZBAA 231200Z AUTO 28002KT 9SM 01/M07 A3030 RMK SLP259 T00091066 52022 IEM_DS3505
ZBAA,2001-02-23 13:00,ZBAA 231300Z AUTO 26002KT 6SM 01/M05 A3030 RMK T00101050 IEM_DS3505
ZBAA,2001-02-23 14:00,ZBAA 231400Z AUTO 14002KT 5SM M02/M06 A3033 RMK T10201060 IEM_DS3505
ZBAA,2001-02-23 15:00,ZBAA 231500Z AUTO 00000KT 7SM M00/M06 A3036 RMK SLP275 T10051056 52016 IEM_DS3505
ZBAA,2001-02-23 16:00,ZBAA 231600Z AUTO 29006KT 6SM M01/M06 A3036 RMK T10101060 IEM_DS3505
ZBAA,2001-02-23 17:00,ZBAA 231700Z AUTO 35004KT 6SM M03/M06 A3036 RMK T10301060 IEM_DS3505
ZBAA,2001-02-23 18:00,ZBAA 231800Z AUTO 05002KT 3SM M01/M05 A3039 RMK SLP288 T10111048 52013 IEM_DS3505
ZBAA,2001-02-23 19:00,ZBAA 231900Z AUTO 35002KT 6SM M04/M13 A3039 RMK T10401130 IEM_DS3505
ZBAA,2001-02-23 20:00,ZBAA 232000Z AUTO 30004KT 6SM M04/M14 A3042 RMK T10401140 IEM_DS3505
ZBAA,2001-02-23 21:00,ZBAA 232100Z AUTO 34004KT 7SM M01/M20 A3042 RMK 70001 SLP303 T10091198 52015 IEM_DS3505
ZBAA,2001-02-23 22:00,ZBAA 232200Z AUTO 32006KT 6SM M04/M16 A3045 RMK T10401160 IEM_DS3505
ZBAA,2001-02-23 23:00,ZBAA 232300Z AUTO 31008KT 6SM M04/M17 A3045 RMK T10401170 IEM_DS3505
ZBAA,2001-02-24 00:00,ZBAA 240000Z AUTO 33004KT 16SM M01/M19 A3047 RMK 70003 SLP317 T10101189 52014 IEM_DS3505
ZBAA,2001-02-24 01:00,ZBAA 240100Z AUTO 30008KT 6SM 00/M17 A3047 RMK T00001170 IEM_DS3505
ZBAA,2001-02-24 02:00,ZBAA 240200Z AUTO 29012KT 6SM 01/M18 A3047 RMK T00101180 IEM_DS3505
ZBAA,2001-02-24 03:00,ZBAA 240300Z AUTO 28006KT 16SM 03/M19 A3045 RMK SLP309 T00271191 57007 IEM_DS3505
ZBAA,2001-02-24 04:00,ZBAA 240400Z AUTO 27010KT 6SM 04/M18 A3042 RMK T00401180 IEM_DS3505
ZBAA,2001-02-24 05:00,ZBAA 240500Z AUTO 27012KT 6SM 04/M18 A3039 RMK T00401180 IEM_DS3505
ZBAA,2001-02-24 06:00,ZBAA 240600Z AUTO 27016KT 19SM 06/M20 A3036 RMK SLP277 T00551198 57032 IEM_DS3505
ZBAA,2001-02-24 07:00,ZBAA 240700Z AUTO 28017KT 6SM 06/M17 A3033 RMK T00601170 IEM_DS3505
ZBAA,2001-02-24 08:00,ZBAA 240800Z AUTO 28017G27KT 6SM 06/M16 A3033 RMK T00601160 IEM_DS3505
ZBAA,2001-02-24 09:00,ZBAA 240900Z AUTO 27008KT 19SM 06/M18 A3033 RMK SLP273 T00581180 57004 IEM_DS3505
ZBAA,2001-02-24 10:00,ZBAA 241000Z AUTO 26008KT 6SM 05/M15 A3033 RMK T00501150 IEM_DS3505
ZBAA,2001-02-24 11:00,ZBAA 241100Z AUTO 24006KT 6SM 04/M14 A3033 RMK T00401140 IEM_DS3505
ZBAA,2001-02-24 12:00,ZBAA 241200Z AUTO 22008KT 10SM 02/M13 A3036 RMK SLP276 T00251128 52003 IEM_DS3505
ZBAA,2001-02-24 13:00,ZBAA 241300Z AUTO 19006KT 6SM 01/M12 A3036 RMK T00101120 IEM_DS3505
ZBAA,2001-02-24 14:00,ZBAA 241400Z AUTO 20004KT 6SM 01/M12 A3036 RMK T00101120 IEM_DS3505
ZBAA,2001-02-24 15:00,ZBAA 241500Z AUTO 25004KT 6SM 01/M11 A3039 RMK SLP290 T00101110 52014 IEM_DS3505
ZBAA,2001-02-24 16:00,ZBAA 241600Z AUTO 24006KT 6SM 02/M11 A3039 RMK T00201110 IEM_DS3505
ZBAA,2001-02-24 17:00,ZBAA 241700Z AUTO 28002KT 6SM M01/M11 A3039 RMK T10101110 IEM_DS3505
ZBAA,2001-02-24 18:00,ZBAA 241800Z AUTO 19004KT 7SM M02/M09 A3039 RMK SLP291 T10151093 52001 IEM_DS3505
ZBAA,2001-02-24 19:00,ZBAA 241900Z AUTO 6SM M03/M10 A3039 RMK T10301100 IEM_DS3505
ZBAA,2001-02-24 20:00,ZBAA 242000Z AUTO 00000KT 6SM M04/M09 A3039 RMK T10401090 IEM_DS3505
ZBAA,2001-02-24 21:00,ZBAA 242100Z AUTO 00000KT 6SM M04/M10 A3042 RMK SLP297 T10411099 52005 IEM_DS3505
ZBAA,2001-02-24 22:00,ZBAA 242200Z AUTO 36004KT M04/M10 A3042 RMK T10401100 IEM_DS3505
ZBAA,2001-02-24 23:00,ZBAA 242300Z AUTO 33004KT M05/M11 A3045 RMK T10501110 IEM_DS3505
ZBAA,2001-02-25 00:00,ZBAA 250000Z AUTO 00000KT 5SM M03/M07 A3045 RMK SLP312 T10261073 52015 IEM_DS3505
ZBAA,2001-02-25 01:00,ZBAA 250100Z AUTO 01002KT 5SM M01/M11 A3047 RMK T10101110 IEM_DS3505
ZBAA,2001-02-25 02:00,ZBAA 250200Z AUTO 5SM 03/M10 A3045 RMK T00301100 IEM_DS3505
ZBAA,2001-02-25 03:00,ZBAA 250300Z AUTO 10004KT 6SM 06/M10 A3045 RMK SLP308 T00621104 57003 IEM_DS3505
ZBAA,2001-02-25 04:00,ZBAA 250400Z AUTO 6SM 07/M12 A3042 RMK T00701120 IEM_DS3505
ZBAA,2001-02-25 05:00,ZBAA 250500Z AUTO 6SM 09/M14 A3039 RMK T00901140 IEM_DS3505
ZBAA,2001-02-25 06:00,ZBAA 250600Z AUTO 20008KT 12SM 10/M15 A3036 RMK SLP284 T01001146 57024 IEM_DS3505
ZBAA,2001-02-25 07:00,ZBAA 250700Z AUTO 17008KT 6SM 11/M13 A3036 RMK T01101130 IEM_DS3505
ZBAA,2001-02-25 08:00,ZBAA 250800Z AUTO 19010KT 6SM 10/M14 A3033 RMK T01001140 IEM_DS3505
ZBAA,2001-02-25 09:00,ZBAA 250900Z AUTO 22008KT 10SM 09/M12 A3033 RMK SLP268 T00881117 57016 IEM_DS3505
ZBAA,2001-02-25 10:00,ZBAA 251000Z AUTO 19004KT 6SM 06/M12 A3033 RMK T00601120 IEM_DS3505
ZBAA,2001-02-25 11:00,ZBAA 251100Z AUTO 18006KT 6SM 05/M10 A3033 RMK T00501100 IEM_DS3505
ZBAA,2001-02-25 12:00,ZBAA 251200Z AUTO 19004KT 6SM 04/M11 A3036 RMK SLP275 T00431109 52007 IEM_DS3505
ZBAA,2001-02-25 13:00,ZBAA 251300Z AUTO 14006KT 6SM 02/M10 A3036 RMK T00201100 IEM_DS3505
ZBAA,2001-02-25 14:00,ZBAA 251400Z AUTO 18008KT 5SM 02/M07 A3036 RMK T00201070 IEM_DS3505
ZBAA,2001-02-25 15:00,ZBAA 251500Z AUTO 21004KT 6SM 02/M06 A3036 RMK SLP278 T00201060 52003 IEM_DS3505
ZBAA,2001-02-25 16:00,ZBAA 251600Z AUTO 17006KT 01/M05 A3036 RMK T00101050 IEM_DS3505
ZBAA,2001-02-25 17:00,ZBAA 251700Z AUTO 15004KT 4SM 00/M05 A3036 RMK T00001050 IEM_DS3505
ZBAA,2001-02-25 18:00,ZBAA 251800Z AUTO 19004KT 6SM 01/M05 A3036 RMK SLP279 T00081050 52001 IEM_DS3505
ZBAA,2001-02-25 19:00,ZBAA 251900Z AUTO 12004KT 2 1/2SM M02/M05 A3036 RMK T10201050 IEM_DS3505
ZBAA,2001-02-25 20:00,ZBAA 252000Z AUTO 11004KT 3SM M03/M06 A3036 RMK T10301060 IEM_DS3505
ZBAA,2001-02-25 21:00,ZBAA 252100Z AUTO 00000KT 6SM M01/M05 A3036 RMK SLP272 T10081054 57007 IEM_DS3505
ZBAA,2001-02-25 22:00,ZBAA 252200Z AUTO 08002KT 3SM M03/M05 A3036 RMK T10301050 IEM_DS3505
ZBAA,2001-02-25 23:00,ZBAA 252300Z AUTO 08002KT 2 1/2SM M03/M05 A3036 RMK T10301050 IEM_DS3505
ZBAA,2001-02-26 00:00,ZBAA 260000Z AUTO 19002KT 4SM M00/M04 A3039 RMK SLP281 T10031043 52009 IEM_DS3505
ZBAA,2001-02-26 01:00,ZBAA 260100Z AUTO 05002KT 2SM 00/M03 A3039 RMK T00001030 IEM_DS3505
ZBAA,2001-02-26 02:00,ZBAA 260200Z AUTO 12002KT 2 1/2SM 02/M02 A3036 RMK T00201020 IEM_DS3505
ZBAA,2001-02-26 03:00,ZBAA 260300Z AUTO 22006KT 6SM 03/M05 A3036 RMK SLP280 T00291047 57001 IEM_DS3505
ZBAA,2001-02-26 04:00,ZBAA 260400Z AUTO 15002KT 2 1/2SM 04/M02 A3036 RMK T00401020 IEM_DS3505
ZBAA,2001-02-26 05:00,ZBAA 260500Z AUTO 15004KT 2 1/2SM 05/M02 A3033 RMK T00501020 IEM_DS3505
ZBAA,2001-02-26 06:00,ZBAA 260600Z AUTO 22006KT 6SM 06/M04 A3027 RMK SLP251 T00651045 57029 IEM_DS3505
ZBAA,2001-02-26 07:00,ZBAA 260700Z AUTO 17006KT 3SM 07/M02 A3027 RMK T00701020 IEM_DS3505
ZBAA,2001-02-26 08:00,ZBAA 260800Z AUTO 16006KT 07/M02 A3024 RMK T00701020 IEM_DS3505
ZBAA,2001-02-26 09:00,ZBAA 260900Z AUTO 21004KT 6SM 07/M05 A3024 RMK SLP237 T00691048 57014 IEM_DS3505
ZBAA,2001-02-26 10:00,ZBAA 261000Z AUTO 17006KT 05/M03 A3024 RMK T00501030 IEM_DS3505
ZBAA,2001-02-26 11:00,ZBAA 261100Z AUTO 16004KT 3SM 05/M03 A3024 RMK T00501030 IEM_DS3505
ZBAA,2001-02-26 12:00,ZBAA 261200Z AUTO 22004KT 6SM 05/M04 A3027 RMK SLP247 T00491043 52010 IEM_DS3505
ZBAA,2001-02-26 13:00,ZBAA 261300Z AUTO 17004KT 3SM 04/M02 A3027 RMK T00401020 IEM_DS3505
ZBAA,2001-02-26 14:00,ZBAA 261400Z AUTO 18006KT 3SM 04/M02 A3027 RMK T00401020 IEM_DS3505
ZBAA,2001-02-26 15:00,ZBAA 261500Z AUTO 19002KT 6SM 04/M04 A3027 RMK SLP250 T00391040 52003 IEM_DS3505
ZBAA,2001-02-26 16:00,ZBAA 261600Z AUTO 13004KT 3SM 03/M02 A3027 RMK T00301020 IEM_DS3505
ZBAA,2001-02-26 17:00,ZBAA 261700Z AUTO 13004KT 3SM 03/M02 A3024 RMK T00301020 IEM_DS3505
ZBAA,2001-02-26 18:00,ZBAA 261800Z AUTO 21004KT 7SM 03/M02 A3024 RMK SLP238 T00341023 57012 IEM_DS3505
ZBAA,2001-02-26 19:00,ZBAA 261900Z AUTO 13002KT 3SM 02/M02 A3024 RMK T00201020 IEM_DS3505
ZBAA,2001-02-26 20:00,ZBAA 262000Z AUTO 14002KT 3SM 01/M02 A3021 RMK T00101020 IEM_DS3505
ZBAA,2001-02-26 21:00,ZBAA 262100Z AUTO 00000KT 5SM 02/M01 A3021 RMK SLP227 T00231011 57011 IEM_DS3505
ZBAA,2001-02-26 22:00,ZBAA 262200Z AUTO 02002KT 2SM 00/M03 A3021 RMK T00001030 IEM_DS3505
ZBAA,2001-02-26 23:00,ZBAA 262300Z AUTO 00000KT 1 1/2SM 00/M02 A3021 RMK T00001020 IEM_DS3505
ZBAA,2001-02-27 00:00,ZBAA 270000Z AUTO 21002KT 2 1/2SM 02/M00 A3021 RMK SLP232 T00211005 52005 IEM_DS3505
ZBAA,2001-02-27 01:00,ZBAA 270100Z AUTO 14002KT 1 1/4SM 02/00 A3021 RMK T00200000 IEM_DS3505
ZBAA,2001-02-27 02:00,ZBAA 270200Z AUTO 15002KT 1 1/4SM 04/00 A3021 RMK T00400000 IEM_DS3505
ZBAA,2001-02-27 03:00,ZBAA 270300Z AUTO 21006KT 3SM 06/M00 A3021 RMK SLP230 T00561002 57002 IEM_DS3505
ZBAA,2001-02-27 04:00,ZBAA 270400Z AUTO 1 1/4SM 08/00 A3021 RMK T00800000 IEM_DS3505
ZBAA,2001-02-27 05:00,ZBAA 270500Z AUTO 1 1/2SM 09/00 A3018 RMK T00900000 IEM_DS3505
ZBAA,2001-02-27 06:00,ZBAA 270600Z AUTO 23004KT 4SM 10/M00 A3015 RMK SLP212 T00971005 57017 IEM_DS3505
ZBAA,2001-02-27 07:00,ZBAA 270700Z AUTO 08002KT 2SM 12/00 A3015 RMK T01200000 IEM_DS3505
ZBAA,2001-02-27 08:00,ZBAA 270800Z AUTO 13004KT 2SM 11/M01 A3015 RMK T01101010 IEM_DS3505
ZBAA,2001-02-27 09:00,ZBAA 270900Z AUTO 24004KT 5SM 10/M01 A3015 RMK SLP209 T01041007 57003 IEM_DS3505
ZBAA,2001-02-27 10:00,ZBAA 271000Z AUTO 18004KT 1 1/2SM 09/00 A3015 RMK T00900000 IEM_DS3505
ZBAA,2001-02-27 11:00,ZBAA 271100Z AUTO 19004KT 1 1/2SM 08/01 A3018 RMK T00800010 IEM_DS3505
ZBAA,2001-02-27 12:00,ZBAA 271200Z AUTO 23002KT 3SM 06/M01 A3018 RMK SLP224 T00551007 52014 IEM_DS3505
ZBAA,2001-02-27 13:00,ZBAA 271300Z AUTO 1 1/4SM 04/00 A3021 RMK T00400000 IEM_DS3505
ZBAA,2001-02-27 14:00,ZBAA 271400Z AUTO 27002KT 1 1/2SM 05/M01 A3024 RMK T00501010 IEM_DS3505
ZBAA,2001-02-27 15:00,ZBAA 271500Z AUTO 29004KT 3SM 04/M05 A3024 RMK SLP237 T00431049 52013 IEM_DS3505
ZBAA,2001-02-27 16:00,ZBAA 271600Z AUTO 36004KT 3SM 01/M03 A3024 RMK T00101030 IEM_DS3505
ZBAA,2001-02-27 17:00,ZBAA 271700Z AUTO 00000KT 1 1/2SM 00/M03 A3024 RMK T00001030 IEM_DS3505
ZBAA,2001-02-27 18:00,ZBAA 271800Z AUTO 09002KT 2 1/2SM 00/M06 A3024 RMK SLP236 T00051059 57001 IEM_DS3505
ZBAA,2001-02-27 19:00,ZBAA 271900Z AUTO 13002KT 2SM M03/M07 A3024 RMK T10301070 IEM_DS3505
ZBAA,2001-02-27 20:00,ZBAA 272000Z AUTO 20004KT 2SM M02/M05 A3021 RMK T10201050 IEM_DS3505
ZBAA,2001-02-27 21:00,ZBAA 272100Z AUTO 00000KT 2 1/2SM M02/M07 A3021 RMK SLP224 T10201073 57012 IEM_DS3505
ZBAA,2001-02-27 22:00,ZBAA 272200Z AUTO 36004KT 1 1/4SM M01/M07 A3018 RMK T10101070 IEM_DS3505
ZBAA,2001-02-27 23:00,ZBAA 272300Z AUTO 36004KT 2SM M01/M07 A3018 RMK T10101070 IEM_DS3505
ZBAA,2001-02-28 00:00,ZBAA 280000Z AUTO 00000KT 1 1/4SM 01/M05 A3018 RMK SLP220 T00081046 57004 IEM_DS3505
ZBAA,2001-02-28 01:00,ZBAA 280100Z AUTO 03002KT 3SM 02/M06 A3018 RMK T00201060 IEM_DS3505
ZBAA,2001-02-28 02:00,ZBAA 280200Z AUTO 08002KT 2 1/2SM 05/M05 A3015 RMK T00501050 IEM_DS3505
ZBAA,2001-02-28 03:00,ZBAA 280300Z AUTO 14004KT 4SM 08/M08 A3012 RMK SLP197 T00851080 57022 IEM_DS3505
ZBAA,2001-02-28 04:00,ZBAA 280400Z AUTO 12006KT 2SM 08/M04 A3009 RMK T00801040 IEM_DS3505
ZBAA,2001-02-28 05:00,ZBAA 280500Z AUTO 15006KT 2 1/2SM 11/M05 A3003 RMK T01101050 IEM_DS3505
ZBAA,2001-02-28 06:00,ZBAA 280600Z AUTO 20012KT 6SM 13/M09 A2997 RMK SLP151 T01271090 57046 IEM_DS3505
ZBAA,2001-02-28 07:00,ZBAA 280700Z AUTO 18012KT 6SM 14/M09 A2994 RMK T01401090 IEM_DS3505
ZBAA,2001-02-28 08:00,ZBAA 280800Z AUTO 18012KT 6SM 14/M11 A2994 RMK T01401110 IEM_DS3505
ZBAA,2001-02-28 09:00,ZBAA 280900Z AUTO 22010KT 6SM 12/M07 A2991 RMK SLP133 T01241070 57018 IEM_DS3505
ZBAA,2001-02-28 10:00,ZBAA 281000Z AUTO 20006KT 5SM 11/M05 A2994 RMK T01101050 IEM_DS3505
ZBAA,2001-02-28 11:00,ZBAA 281100Z AUTO 27006KT 6SM 11/M03 A2997 RMK T01101030 IEM_DS3505
ZBAA,2001-02-28 12:00,ZBAA 281200Z AUTO 22004KT 6SM 10/M04 A2994 RMK SLP142 T00991041 52009 IEM_DS3505
ZBAA,2001-02-28 13:00,ZBAA 281300Z AUTO 19002KT 6SM 09/M03 A2994 RMK T00901030 IEM_DS3505
ZBAA,2001-02-28 14:00,ZBAA 281400Z AUTO 06/M03 A2994 RMK T00601030 IEM_DS3505
ZBAA,2001-02-28 15:00,ZBAA 281500Z AUTO 29006KT 6SM 09/M05 A2994 RMK SLP141 T00881047 57001 IEM_DS3505
ZBAA,2001-02-28 16:00,ZBAA 281600Z AUTO 26006KT 3SM 09/M06 A2994 RMK T00901060 IEM_DS3505
ZBAA,2001-02-28 17:00,ZBAA 281700Z AUTO 30008KT 2SM 09/M11 A2994 RMK T00901110 IEM_DS3505
ZBAA,2001-02-28 18:00,ZBAA 281800Z AUTO 33008KT 4SM 10/M16 A2994 RMK SLP142 T01051158 52002 IEM_DS3505
ZBAA,2001-02-28 19:00,ZBAA 281900Z AUTO 32014KT 2 1/2SM 08/M13 A2994 RMK T00801130 IEM_DS3505
ZBAA,2001-02-28 20:00,ZBAA 282000Z AUTO 32017G27KT 6SM 08/M12 A2997 RMK T00801120 IEM_DS3505
ZBAA,2001-02-28 21:00,ZBAA 282100Z AUTO 34004KT 6SM 08/M13 A3000 RMK SLP153 T00781131 52010 IEM_DS3505
ZBAA,2001-02-28 22:00,ZBAA 282200Z AUTO 32016KT 6SM 06/M10 A3000 RMK T00601100 IEM_DS3505
ZBAA,2001-02-28 23:00,ZBAA 282300Z AUTO 31014KT 6SM 06/M10 A3003 RMK T00601100 IEM_DS3505
ZBAA,2001-03-01 00:00,ZBAA 010000Z AUTO 34002KT 6SM 07/M11 A3009 RMK SLP189 T00681113 52036 IEM_DS3505
ZBAA,2001-03-01 01:00,ZBAA 010100Z AUTO 33016G25KT 6SM 08/M09 A3012 RMK T00801090 IEM_DS3505
ZBAA,2001-03-01 02:00,ZBAA 010200Z AUTO 33008KT 6SM 09/M09 A3012 RMK T00901090 IEM_DS3505
ZBAA,2001-03-01 03:00,ZBAA 010300Z AUTO 32006KT 7SM 10/M12 A3012 RMK SLP202 T01021117 52013 IEM_DS3505
ZBAA,2001-03-01 04:00,ZBAA 010400Z AUTO 31008KT 16SM RMK IEM_DS3505
ZBAA,2001-03-01 05:00,ZBAA 010500Z AUTO 6SM 12/M10 A3012 RMK T01201100 IEM_DS3505
ZBAA,2001-03-01 06:00,ZBAA 010600Z AUTO 35004G16KT 12SM 14/M15 A3009 RMK SLP190 T01361152 57011 IEM_DS3505
ZBAA,2001-03-01 07:00,ZBAA 010700Z AUTO 32006KT 6SM 14/M14 A3009 RMK T01401140 IEM_DS3505
ZBAA,2001-03-01 08:00,ZBAA 010800Z AUTO 30006KT 6SM 14/M17 A3006 RMK T01401170 IEM_DS3505
ZBAA,2001-03-01 09:00,ZBAA 010900Z AUTO 18004KT 11SM 14/M14 A3006 RMK SLP182 T01351143 57009 IEM_DS3505
ZBAA,2001-03-01 10:00,ZBAA 011000Z AUTO 17006KT 6SM 10/M13 A3006 RMK T01001130 IEM_DS3505
ZBAA,2001-03-01 11:00,ZBAA 011100Z AUTO 16004KT 6SM 09/M13 A3009 RMK T00901130 IEM_DS3505
ZBAA,2001-03-01 12:00,ZBAA 011200Z AUTO 15006KT 12SM 10/M12 A3012 RMK SLP197 T00991125 52015 IEM_DS3505
ZBAA,2001-03-01 13:00,ZBAA 011300Z AUTO 17006KT 6SM 06/M11 A3012 RMK T00601110 IEM_DS3505
ZBAA,2001-03-01 14:00,ZBAA 011400Z AUTO 13002KT 6SM 06/M10 A3012 RMK T00601100 IEM_DS3505
ZBAA,2001-03-01 15:00,ZBAA 011500Z AUTO 14006KT 9SM 06/M10 A3015 RMK SLP203 T00631095 52006 IEM_DS3505
ZBAA,2001-03-01 16:00,ZBAA 011600Z AUTO 12004KT 6SM 04/M07 A3015 RMK T00401070 IEM_DS3505
ZBAA,2001-03-01 17:00,ZBAA 011700Z AUTO 11006KT 6SM 03/M05 A3012 RMK T00301050 IEM_DS3505
ZBAA,2001-03-01 18:00,ZBAA 011800Z AUTO 11008KT 6SM 03/M05 A3012 RMK SLP199 T00301051 57004 IEM_DS3505
ZBAA,2001-03-01 19:00,ZBAA 011900Z AUTO 10006KT 6SM 02/M03 A3012 RMK T00201030 IEM_DS3505
ZBAA,2001-03-01 20:00,ZBAA 012000Z AUTO 11002KT 5SM 02/M03 A3012 RMK T00201030 IEM_DS3505
ZBAA,2001-03-01 21:00,ZBAA 012100Z AUTO 06006KT 3SM 01/M04 A3009 RMK SLP189 T00101035 57010 IEM_DS3505
ZBAA,2001-03-01 22:00,ZBAA 012200Z AUTO 05002KT 3SM 01/M02 A3009 RMK T00101020 IEM_DS3505
ZBAA,2001-03-01 23:00,ZBAA 012300Z AUTO 25002KT 2 1/2SM 01/M02 A3009 RMK T00101020 IEM_DS3505
ZBAA,2001-03-02 00:00,ZBAA 020000Z AUTO 06004KT 4SM 02/M04 A3009 RMK SLP184 T00151043 57005 IEM_DS3505
ZBAA,2001-03-02 01:00,ZBAA 020100Z AUTO 2 1/2SM 03/M03 A3009 RMK T00301030 IEM_DS3505
ZBAA,2001-03-02 02:00,ZBAA 020200Z AUTO 2 1/2SM 03/M03 A3009 RMK T00301030 IEM_DS3505
ZBAA,2001-03-02 03:00,ZBAA 020300Z AUTO 04006KT 4SM 04/M04 A3006 RMK SLP178 T00431044 57006 IEM_DS3505
ZBAA,2001-03-02 05:00,ZBAA 020500Z AUTO 3SM 07/M03 A3000 RMK T00701030 IEM_DS3505
ZBAA,2001-03-02 06:00,ZBAA 020600Z AUTO 05004KT 6SM 08/M04 A2997 RMK SLP148 T00851043 57030 IEM_DS3505
ZBAA,2001-03-02 07:00,ZBAA 020700Z AUTO 07002KT 2 1/2SM 09/M03 A2994 RMK T00901030 IEM_DS3505
ZBAA,2001-03-02 08:00,ZBAA 020800Z AUTO 06002KT 3SM 10/M03 A2994 RMK T01001030 IEM_DS3505
ZBAA,2001-03-02 09:00,ZBAA 020900Z AUTO 22004KT 6SM 09/M04 A2994 RMK SLP142 T00891042 57006 IEM_DS3505
ZBAA,2001-03-02 10:00,ZBAA 021000Z AUTO 28002KT 2 1/2SM 09/M03 A2997 RMK T00901030 IEM_DS3505
ZBAA,2001-03-02 11:00,ZBAA 021100Z AUTO 28004KT 2SM 08/M03 A3000 RMK T00801030 IEM_DS3505
ZBAA,2001-03-02 12:00,ZBAA 021200Z AUTO 28004KT 5SM 08/M04 A3003 RMK SLP169 T00801038 52027 IEM_DS3505
ZBAA,2001-03-02 13:00,ZBAA 021300Z AUTO 31012G21KT 4SM 09/M16 A3006 RMK T00901160 IEM_DS3505
ZBAA,2001-03-02 14:00,ZBAA 021400Z AUTO 32021G31KT 5SM 08/M21 A3009 RMK T00801210 IEM_DS3505
ZBAA,2001-03-02 15:00,ZBAA 021500Z AUTO 31019KT 6SM 07/M22 A3015 RMK SLP202 T00721222 52033 IEM_DS3505
ZBAA,2001-03-02 16:00,ZBAA 021600Z AUTO 33016G25KT 6SM 06/M21 A3018 RMK T00601210 IEM_DS3505
ZBAA,2001-03-02 17:00,ZBAA 021700Z AUTO 31012KT 6SM 04/M21 A3018 RMK T00401210 IEM_DS3505
ZBAA,2001-03-02 18:00,ZBAA 021800Z AUTO 32008G35KT 9SM 04/M22 A3018 RMK SLP223 T00381220 40107//// 52021 IEM_DS3505
ZBAA,2001-03-02 19:00,ZBAA 021900Z AUTO 30025G35KT 6SM 03/M23 A3018 RMK T00301230 IEM_DS3505
ZBAA,2001-03-02 20:00,ZBAA 022000Z AUTO 30016G27KT 5SM 02/M21 A3015 RMK T00201210 IEM_DS3505
ZBAA,2001-03-02 21:00,ZBAA 022100Z AUTO 32014G27KT 7SM 02/M25 A3015 RMK SLP209 T00231250 57014 IEM_DS3505
ZBAA,2001-03-02 22:00,ZBAA 022200Z AUTO 29012KT 6SM 01/M23 A3015 RMK T00101230 IEM_DS3505
ZBAA,2001-03-02 23:00,ZBAA 022300Z AUTO 31012G21KT 6SM 01/M25 A3012 RMK T00101250 IEM_DS3505
ZBAA,2001-03-03 00:00,ZBAA 030000Z AUTO 33002G27KT 12SM 02/M24 A3012 RMK SLP201 T00221241 57009 IEM_DS3505
ZBAA,2001-03-03 01:00,ZBAA 030100Z AUTO 31014G25KT 6SM 02/M23 A3012 RMK T00201230 IEM_DS3505
ZBAA,2001-03-03 02:00,ZBAA 030200Z AUTO 30019G33KT 6SM 03/M24 A3009 RMK T00301240 IEM_DS3505
ZBAA,2001-03-03 03:00,ZBAA 030300Z AUTO 33012KT 4SM 04/M24 A3006 RMK SLP180 T00371239 57020 IEM_DS3505
ZBAA,2001-03-03 04:00,ZBAA 030400Z AUTO 29021G37KT 6SM 03/M23 A3003 RMK T00301230 IEM_DS3505
ZBAA,2001-03-03 05:00,ZBAA 030500Z AUTO 29021KT 6SM 03/M23 A3003 RMK T00301230 IEM_DS3505
ZBAA,2001-03-03 06:00,ZBAA 030600Z AUTO 31017G39KT 5SM 03/M23 A3003 RMK SLP165 T00341232 4////0016 57016 IEM_DS3505
ZBAA,2001-03-03 07:00,ZBAA 030700Z AUTO 30023G37KT 5SM 03/M20 A3000 RMK T00301200 IEM_DS3505
ZBAA,2001-03-03 08:00,ZBAA 030800Z AUTO 31023G35KT 03/M20 A3000 RMK T00301200 IEM_DS3505
ZBAA,2001-03-03 09:00,ZBAA 030900Z AUTO 31017G27KT 2 1/2SM 03/M21 A3003 RMK SLP168 T00341214 52003 IEM_DS3505
ZBAA,2001-03-03 10:00,ZBAA 031000Z AUTO 32016G25KT 02/M19 A3003 RMK T00201190 IEM_DS3505
ZBAA,2001-03-03 11:00,ZBAA 031100Z AUTO 33017G29KT 02/M19 A3006 RMK T00201190 IEM_DS3505
ZBAA,2001-03-03 12:00,ZBAA 031200Z AUTO 32014G31KT 5SM 03/M20 A3009 RMK SLP191 T00261199 52023 IEM_DS3505
ZBAA,2001-03-03 13:00,ZBAA 031300Z AUTO 33021G35KT 6SM 01/M19 A3012 RMK T00101190 IEM_DS3505
ZBAA,2001-03-03 14:00,ZBAA 031400Z AUTO 32029G47KT 6SM 01/M19 A3012 RMK T00101190 IEM_DS3505
ZBAA,2001-03-03 15:00,ZBAA 031500Z AUTO 34006G39KT 6SM 01/M19 A3012 RMK SLP203 T00121192 52012 IEM_DS3505
ZBAA,2001-03-03 16:00,ZBAA 031600Z AUTO 33025G41KT 6SM 00/M18 A3012 RMK T00001180 IEM_DS3505
ZBAA,2001-03-03 17:00,ZBAA 031700Z AUTO 33023G41KT 6SM 00/M18 A3012 RMK T00001180 IEM_DS3505
ZBAA,2001-03-03 18:00,ZBAA 031800Z AUTO 05002G27KT 12SM M01/M18 A3012 RMK SLP203 T10111181 54000 IEM_DS3505
ZBAA,2001-03-03 19:00,ZBAA 031900Z AUTO 33016G27KT 6SM 00/M18 A3012 RMK T00001180 IEM_DS3505
ZBAA,2001-03-03 20:00,ZBAA 032000Z AUTO 32016KT 6SM M01/M17 A3009 RMK T10101170 IEM_DS3505
ZBAA,2001-03-03 21:00,ZBAA 032100Z AUTO 32006G23KT 19SM M00/M18 A3012 RMK SLP197 T10011181 57006 IEM_DS3505
ZBAA,2001-03-03 22:00,ZBAA 032200Z AUTO 34012KT 6SM M02/M17 A3012 RMK T10201170 IEM_DS3505
ZBAA,2001-03-03 23:00,ZBAA 032300Z AUTO 34012G21KT 6SM M01/M18 A3015 RMK T10101180 IEM_DS3505
ZBAA,2001-03-04 00:00,ZBAA 040000Z AUTO 35006KT 19SM 00/M18 A3018 RMK SLP212 T00031183 52015 IEM_DS3505
ZBAA,2001-03-04 01:00,ZBAA 040100Z AUTO 33016G25KT 6SM 01/M18 A3015 RMK T00101180 IEM_DS3505
ZBAA,2001-03-04 02:00,ZBAA 040200Z AUTO 34016KT 6SM 03/M18 A3015 RMK T00301180 IEM_DS3505
ZBAA,2001-03-04 03:00,ZBAA 040300Z AUTO 00000KT 19SM 04/M19 A3012 RMK SLP203 T00391188 57008 IEM_DS3505
ZBAA,2001-03-04 04:00,ZBAA 040400Z AUTO 33012G21KT 6SM 05/M18 A3009 RMK T00501180 IEM_DS3505
ZBAA,2001-03-04 05:00,ZBAA 040500Z AUTO 06006KT 6SM 05/M17 A3006 RMK T00501170 IEM_DS3505
ZBAA,2001-03-04 06:00,ZBAA 040600Z AUTO 21008KT 19SM 08/M19 A3006 RMK SLP178 T00801186 57026 IEM_DS3505
ZBAA,2001-03-04 07:00,ZBAA 040700Z AUTO 10008KT 6SM 07/M17 A3003 RMK T00701170 IEM_DS3505
ZBAA,2001-03-04 08:00,ZBAA 040800Z AUTO 12008KT 6SM 08/M16 A3000 RMK T00801160 IEM_DS3505
ZBAA,2001-03-04 09:00,ZBAA 040900Z AUTO 22008KT 16SM 08/M16 A3000 RMK SLP155 T00751159 57023 IEM_DS3505
ZBAA,2001-03-04 10:00,ZBAA 041000Z AUTO 20006KT 6SM 06/M16 A2997 RMK T00601160 IEM_DS3505
ZBAA,2001-03-04 11:00,ZBAA 041100Z AUTO 12002KT 6SM 05/M14 A2997 RMK T00501140 IEM_DS3505
ZBAA,2001-03-04 12:00,ZBAA 041200Z AUTO 13002KT 6SM 04/M14 A3000 RMK SLP157 T00381143 52002 IEM_DS3505
ZBAA,2001-03-04 13:00,ZBAA 041300Z AUTO 10004KT 6SM 02/M14 A3000 RMK T00201140 IEM_DS3505
ZBAA,2001-03-04 14:00,ZBAA 041400Z AUTO 11004KT 6SM 02/M14 A3000 RMK T00201140 IEM_DS3505
ZBAA,2001-03-04 15:00,ZBAA 041500Z AUTO 05004KT 6SM 02/M13 A3000 RMK SLP151 T00191134 57006 IEM_DS3505
ZBAA,2001-03-04 16:00,ZBAA 041600Z AUTO 04002KT 6SM M01/M13 A2997 RMK T10101130 IEM_DS3505
ZBAA,2001-03-04 17:00,ZBAA 041700Z AUTO 03002KT 6SM M01/M14 A2997 RMK T10101140 IEM_DS3505
ZBAA,2001-03-04 18:00,ZBAA 041800Z AUTO 05004KT 7SM 00/M14 A2997 RMK SLP147 T00011135 57003 IEM_DS3505
ZBAA,2001-03-04 19:00,ZBAA 041900Z AUTO 36004KT 6SM M02/M12 A2997 RMK T10201120 IEM_DS3505
ZBAA,2001-03-04 20:00,ZBAA 042000Z AUTO 34004KT 6SM M03/M12 A2994 RMK T10301120 IEM_DS3505
ZBAA,2001-03-04 21:00,ZBAA 042100Z AUTO 36004KT 7SM M00/M12 A2994 RMK SLP139 T10051118 57008 IEM_DS3505
ZBAA,2001-03-04 22:00,ZBAA 042200Z AUTO 35004KT 6SM M02/M12 A2994 RMK T10201120 IEM_DS3505
ZBAA,2001-03-04 23:00,ZBAA 042300Z AUTO 00000KT 5SM M02/M11 A2997 RMK T10201110 IEM_DS3505
ZBAA,2001-03-05 00:00,ZBAA 050000Z AUTO 08002KT 6SM 00/M12 A2997 RMK SLP150 T00021117 52010 IEM_DS3505
ZBAA,2001-03-05 01:00,ZBAA 050100Z AUTO 30004KT 01/M12 A3000 RMK T00101120 IEM_DS3505
ZBAA,2001-03-05 02:00,ZBAA 050200Z AUTO 11004KT 5SM 03/M11 A2997 RMK T00301110 IEM_DS3505
ZBAA,2001-03-05 03:00,ZBAA 050300Z AUTO 09006KT 9SM 04/M08 A2994 RMK SLP135 T00421081 57015 IEM_DS3505
ZBAA,2001-03-05 04:00,ZBAA 050400Z AUTO 14006KT 5SM 06/M10 A2991 RMK T00601100 IEM_DS3505
ZBAA,2001-03-05 05:00,ZBAA 050500Z AUTO 11006KT 6SM 07/M08 A2985 RMK T00701080 IEM_DS3505
ZBAA,2001-03-05 06:00,ZBAA 050600Z AUTO 10004KT 7SM 08/M07 A2983 RMK SLP092 T00791073 57042 IEM_DS3505
ZBAA,2001-03-05 07:00,ZBAA 050700Z AUTO 14006KT 6SM 08/M07 A2980 RMK T00801070 IEM_DS3505
ZBAA,2001-03-05 08:00,ZBAA 050800Z AUTO 13006KT 6SM 08/M06 A2980 RMK T00801060 IEM_DS3505
ZBAA,2001-03-05 09:00,ZBAA 050900Z AUTO 11002KT 6SM 08/M06 A2977 RMK SLP079 T00781059 57013 IEM_DS3505
ZBAA,2001-03-05 10:00,ZBAA 051000Z AUTO 13002KT 4SM 07/M04 A2977 RMK T00701040 IEM_DS3505
ZBAA,2001-03-05 11:00,ZBAA 051100Z AUTO 01004KT 06/M05 A2980 RMK T00601050 IEM_DS3505
ZBAA,2001-03-05 12:00,ZBAA 051200Z AUTO 03002KT 6SM 07/M04 A2985 RMK SLP099 T00691045 52020 IEM_DS3505
ZBAA,2001-03-05 13:00,ZBAA 051300Z AUTO 00000KT 04/M04 A2983 RMK T00401040 IEM_DS3505
ZBAA,2001-03-05 14:00,ZBAA 051400Z AUTO 34012G21KT 1 1/2SM 06/M11 A2988 RMK T00601110 IEM_DS3505
ZBAA,2001-03-05 15:00,ZBAA 051500Z AUTO 33014KT 3SM 07/M19 A2991 RMK SLP122 T00681187 52023 IEM_DS3505
ZBAA,2001-03-05 16:00,ZBAA 051600Z AUTO 30019G31KT 3SM 06/M23 A2991 RMK T00601230 IEM_DS3505
ZBAA,2001-03-05 17:00,ZBAA 051700Z AUTO 31017KT 3SM 05/M22 A2994 RMK T00501220 IEM_DS3505
ZBAA,2001-03-05 18:00,ZBAA 051800Z AUTO 31016KT 2 1/2SM 06/M24 A2994 RMK SLP144 T00551236 40087//// 52022 IEM_DS3505
ZBAA,2001-03-05 19:00,ZBAA 051900Z AUTO 29019G33KT 3SM 04/M21 A2994 RMK T00401210 IEM_DS3505
ZBAA,2001-03-05 20:00,ZBAA 052000Z AUTO 30019G33KT 04/M21 A2994 RMK T00401210 IEM_DS3505
ZBAA,2001-03-05 21:00,ZBAA 052100Z AUTO 30014KT 6SM 04/M21 A3000 RMK SLP149 T00361213 52005 IEM_DS3505
ZBAA,2001-03-05 22:00,ZBAA 052200Z AUTO 30019G33KT 01/M19 A3000 RMK T00101190 IEM_DS3505
ZBAA,2001-03-05 23:00,ZBAA 052300Z AUTO 30019G33KT 6SM 00/M19 A3006 RMK T00001190 IEM_DS3505
ZBAA,2001-03-06 00:00,ZBAA 060000Z AUTO 31012KT 4SM 00/M20 A3012 RMK SLP196 T00001202 52046 IEM_DS3505
ZBAA,2001-03-06 01:00,ZBAA 060100Z AUTO 30021G31KT 6SM 00/M19 A3015 RMK T00001190 IEM_DS3505
ZBAA,2001-03-06 02:00,ZBAA 060200Z AUTO 30019G29KT 6SM 01/M19 A3018 RMK T00101190 IEM_DS3505
ZBAA,2001-03-06 03:00,ZBAA 060300Z AUTO 31017G43KT 5SM 01/M21 A3021 RMK SLP222 T00061209 52026 IEM_DS3505
ZBAA,2001-03-06 04:00,ZBAA 060400Z AUTO 32031G43KT 6SM 02/M21 A3021 RMK T00201210 IEM_DS3505
ZBAA,2001-03-06 05:00,ZBAA 060500Z AUTO 32027G37KT 6SM 02/M21 A3021 RMK T00201210 IEM_DS3505
ZBAA,2001-03-06 06:00,ZBAA 060600Z AUTO 30017G33KT 6SM 02/M22 A3021 RMK SLP230 T00231223 4////0000 52008 IEM_DS3505
ZBAA,2001-03-06 07:00,ZBAA 060700Z AUTO 32027G41KT 6SM 03/M22 A3021 RMK T00301220 IEM_DS3505
ZBAA,2001-03-06 08:00,ZBAA 060800Z AUTO 32023G35KT 6SM 03/M21 A3024 RMK T00301210 IEM_DS3505
ZBAA,2001-03-06 09:00,ZBAA 060900Z AUTO 32010G37KT 6SM 02/M22 A3027 RMK SLP248 T00241215 52018 IEM_DS3505
ZBAA,2001-03-06 10:00,ZBAA 061000Z AUTO 31017KT 6SM 01/M21 A3030 RMK T00101210 IEM_DS3505
ZBAA,2001-03-06 11:00,ZBAA 061100Z AUTO 31017KT 6SM 00/M20 A3036 RMK T00001200 IEM_DS3505
ZBAA,2001-03-06 12:00,ZBAA 061200Z AUTO 35004KT 12SM 00/M22 A3039 RMK SLP283 T00011219 52034 IEM_DS3505
ZBAA,2001-03-06 13:00,ZBAA 061300Z AUTO 32014KT 6SM M01/M20 A3039 RMK T10101200 IEM_DS3505
ZBAA,2001-03-06 14:00,ZBAA 061400Z AUTO 32016KT 6SM M01/M21 A3042 RMK T10101210 IEM_DS3505
ZBAA,2001-03-06 15:00,ZBAA 061500Z AUTO 33004KT 19SM M01/M21 A3042 RMK SLP298 T10081214 52015 IEM_DS3505
ZBAA,2001-03-06 16:00,ZBAA 061600Z AUTO 31012KT 6SM M02/M20 A3042 RMK T10201200 IEM_DS3505
ZBAA,2001-03-06 17:00,ZBAA 061700Z AUTO 31016KT 6SM M02/M20 A3042 RMK T10201200 IEM_DS3505
ZBAA,2001-03-06 18:00,ZBAA 061800Z AUTO 33006KT 12SM M01/M20 A3042 RMK SLP299 T10111200 52001 IEM_DS3505
ZBAA,2001-03-06 19:00,ZBAA 061900Z AUTO 31017G29KT 6SM M02/M21 A3042 RMK T10201210 IEM_DS3505
ZBAA,2001-03-06 20:00,ZBAA 062000Z AUTO 31019G29KT 6SM M03/M21 A3042 RMK T10301210 IEM_DS3505
ZBAA,2001-03-06 21:00,ZBAA 062100Z AUTO 32012KT 12SM M02/M20 A3042 RMK SLP297 T10211203 57002 IEM_DS3505
ZBAA,2001-03-06 22:00,ZBAA 062200Z AUTO 31016G25KT 6SM M04/M21 A3042 RMK T10401210 IEM_DS3505
ZBAA,2001-03-06 23:00,ZBAA 062300Z AUTO 31014KT 6SM M04/M23 A3047 RMK T10401230 IEM_DS3505
ZBAA,2001-03-07 00:00,ZBAA 070000Z AUTO 33012KT 6SM M02/M22 A3047 RMK SLP323 T10251217 52026 IEM_DS3505
ZBAA,2001-03-07 01:00,ZBAA 070100Z AUTO 32019KT 6SM M02/M23 A3050 RMK T10201230 IEM_DS3505
ZBAA,2001-03-07 02:00,ZBAA 070200Z AUTO 32019G31KT 6SM M01/M22 A3047 RMK T10101220 IEM_DS3505
ZBAA,2001-03-07 03:00,ZBAA 070300Z AUTO 33019G31KT 6SM 01/M22 A3045 RMK T00101220 IEM_DS3505
ZBAA,2001-03-07 04:00,ZBAA 070400Z AUTO 32016G27KT 6SM 01/M23 A3045 RMK T00101230 IEM_DS3505
ZBAA,2001-03-07 05:00,ZBAA 070500Z AUTO 30012G21KT 6SM 02/M22 A3042 RMK T00201220 IEM_DS3505
ZBAA,2001-03-07 06:00,ZBAA 070600Z AUTO 31014KT 9SM 02/M23 A3039 RMK SLP289 T00211233 57025 IEM_DS3505
ZBAA,2001-03-07 07:00,ZBAA 070700Z AUTO 30017G27KT 6SM 03/M24 A3039 RMK T00301240 IEM_DS3505
ZBAA,2001-03-07 08:00,ZBAA 070800Z AUTO 31019KT 6SM 03/M22 A3036 RMK T00301220 IEM_DS3505
ZBAA,2001-03-07 09:00,ZBAA 070900Z AUTO 31012KT 11SM 02/M22 A3039 RMK SLP288 T00221224 57001 IEM_DS3505
ZBAA,2001-03-07 10:00,ZBAA 071000Z AUTO 32021G31KT 6SM 00/M21 A3039 RMK T00001210 IEM_DS3505
ZBAA,2001-03-07 11:00,ZBAA 071100Z AUTO 33017G27KT 6SM 00/M22 A3042 RMK T00001220 IEM_DS3505
ZBAA,2001-03-07 12:00,ZBAA 071200Z AUTO 33008KT 12SM M00/M22 A3045 RMK SLP307 T10041223 52019 IEM_DS3505
ZBAA,2001-03-07 13:00,ZBAA 071300Z AUTO 31016KT 6SM M02/M19 A3045 RMK T10201190 IEM_DS3505
ZBAA,2001-03-07 14:00,ZBAA 071400Z AUTO 31016KT 6SM M02/M19 A3047 RMK T10201190 IEM_DS3505
ZBAA,2001-03-07 15:00,ZBAA 071500Z AUTO 35006KT 12SM M02/M22 A3047 RMK SLP315 T10171222 52008 IEM_DS3505
ZBAA,2001-03-07 16:00,ZBAA 071600Z AUTO 32016KT 6SM M02/M20 A3047 RMK T10201200 IEM_DS3505
ZBAA,2001-03-07 17:00,ZBAA 071700Z AUTO 32014G23KT 6SM M02/M20 A3045 RMK T10201200 IEM_DS3505
ZBAA,2001-03-07 18:00,ZBAA 071800Z AUTO 32006KT 12SM M02/M20 A3045 RMK SLP309 T10221204 57006 IEM_DS3505
ZBAA,2001-03-07 19:00,ZBAA 071900Z AUTO 30008KT 6SM M03/M20 A3042 RMK T10301200 IEM_DS3505
ZBAA,2001-03-07 20:00,ZBAA 072000Z AUTO 30010KT 6SM M04/M20 A3042 RMK T10401200 IEM_DS3505
ZBAA,2001-03-07 21:00,ZBAA 072100Z AUTO 33004KT 12SM M03/M24 A3042 RMK SLP301 T10301245 57008 IEM_DS3505
ZBAA,2001-03-07 22:00,ZBAA 072200Z AUTO 30012KT 6SM M04/M22 A3042 RMK T10401220 IEM_DS3505
ZBAA,2001-03-07 23:00,ZBAA 072300Z AUTO 30004KT 6SM M05/M22 A3045 RMK T10501220 IEM_DS3505
ZBAA,2001-03-08 00:00,ZBAA 080000Z AUTO 33004KT 16SM M02/M25 A3045 RMK SLP304 T10251254 52003 IEM_DS3505
ZBAA,2001-03-08 01:00,ZBAA 080100Z AUTO 31010KT 6SM M02/M25 A3042 RMK T10201250 IEM_DS3505
ZBAA,2001-03-08 02:00,ZBAA 080200Z AUTO 32006KT 6SM M01/M25 A3039 RMK T10101250 IEM_DS3505
ZBAA,2001-03-08 03:00,ZBAA 080300Z AUTO 32004KT 12SM 01/M23 A3036 RMK SLP280 T00101234 57024 IEM_DS3505
ZBAA,2001-03-08 04:00,ZBAA 080400Z AUTO 29016G25KT 6SM 01/M22 A3033 RMK T00101220 IEM_DS3505
ZBAA,2001-03-08 05:00,ZBAA 080500Z AUTO 31019G29KT 6SM 03/M22 A3030 RMK T00301220 IEM_DS3505
ZBAA,2001-03-08 06:00,ZBAA 080600Z AUTO 21008G39KT 12SM 04/M23 A3024 RMK SLP244 T00401227 57035 IEM_DS3505
ZBAA,2001-03-08 07:00,ZBAA 080700Z AUTO 31021G31KT 6SM 05/M20 A3021 RMK T00501200 IEM_DS3505
ZBAA,2001-03-08 08:00,ZBAA 080800Z AUTO 30014KT 6SM 05/M18 A3018 RMK T00501180 IEM_DS3505
ZBAA,2001-03-08 09:00,ZBAA 080900Z AUTO 22008KT 12SM 05/M21 A3018 RMK SLP219 T00471212 57025 IEM_DS3505
ZBAA,2001-03-08 10:00,ZBAA 081000Z AUTO 04004KT 6SM 04/M16 A3018 RMK T00401160 IEM_DS3505
ZBAA,2001-03-08 11:00,ZBAA 081100Z AUTO 11004KT 6SM 03/M15 A3018 RMK T00301150 IEM_DS3505
ZBAA,2001-03-08 12:00,ZBAA 081200Z AUTO 05002KT 12SM 02/M18 A3021 RMK SLP227 T00221183 52008 IEM_DS3505
ZBAA,2001-03-08 13:00,ZBAA 081300Z AUTO 16004KT 6SM 02/M17 A3021 RMK T00201170 IEM_DS3505
ZBAA,2001-03-08 14:00,ZBAA 081400Z AUTO 06002KT 6SM 00/M13 A3021 RMK T00001130 IEM_DS3505
ZBAA,2001-03-08 15:00,ZBAA 081500Z AUTO 06002KT 9SM M00/M16 A3018 RMK SLP221 T10031165 57006 IEM_DS3505
ZBAA,2001-03-08 16:00,ZBAA 081600Z AUTO 02004KT 6SM M01/M13 A3018 RMK T10101130 IEM_DS3505
ZBAA,2001-03-08 17:00,ZBAA 081700Z AUTO 02004KT 6SM M01/M13 A3018 RMK T10101130 IEM_DS3505
ZBAA,2001-03-08 18:00,ZBAA 081800Z AUTO 02004KT 12SM M00/M17 A3018 RMK SLP211 T10031169 57010 IEM_DS3505
ZBAA,2001-03-08 19:00,ZBAA 081900Z AUTO 00000KT 6SM M03/M12 A3015 RMK T10301120 IEM_DS3505
ZBAA,2001-03-08 20:00,ZBAA 082000Z AUTO 36002KT 6SM M04/M13 A3012 RMK T10401130 IEM_DS3505
ZBAA,2001-03-08 21:00,ZBAA 082100Z AUTO 01002KT 9SM M02/M15 A3009 RMK SLP186 T10211151 57025 IEM_DS3505
ZBAA,2001-03-08 22:00,ZBAA 082200Z AUTO 36002KT 6SM M04/M13 A3006 RMK T10401130 IEM_DS3505
ZBAA,2001-03-08 23:00,ZBAA 082300Z AUTO 35002KT 6SM M03/M13 A3006 RMK T10301130 IEM_DS3505
ZBAA,2001-03-09 00:00,ZBAA 090000Z AUTO 00000KT 6SM M01/M14 A3003 RMK SLP172 T10111142 57014 IEM_DS3505
ZBAA,2001-03-09 01:00,ZBAA 090100Z AUTO 13002KT 6SM 01/M14 A3003 RMK T00101140 IEM_DS3505
ZBAA,2001-03-09 02:00,ZBAA 090200Z AUTO 6SM 03/M13 A3000 RMK T00301130 IEM_DS3505
ZBAA,2001-03-09 03:00,ZBAA 090300Z AUTO 22004KT 6SM 06/M15 A2997 RMK SLP149 T00651147 57023 IEM_DS3505
ZBAA,2001-03-09 04:00,ZBAA 090400Z AUTO 20006KT 6SM 07/M14 A2994 RMK T00701140 IEM_DS3505
ZBAA,2001-03-09 05:00,ZBAA 090500Z AUTO 20010KT 5SM 12/M14 A2988 RMK T01201140 IEM_DS3505
ZBAA,2001-03-09 06:00,ZBAA 090600Z AUTO 24006KT 9SM 13/M16 A2985 RMK SLP112 T01271159 57036 IEM_DS3505
ZBAA,2001-03-09 07:00,ZBAA 090700Z AUTO 23008KT 6SM 14/M15 A2983 RMK T01401150 IEM_DS3505
ZBAA,2001-03-09 08:00,ZBAA 090800Z AUTO 03008KT 6SM 15/M14 A2983 RMK T01501140 IEM_DS3505
ZBAA,2001-03-09 09:00,ZBAA 090900Z AUTO 05006KT 6SM 13/M13 A2985 RMK T01301130 IEM_DS3505
ZBAA,2001-03-09 10:00,ZBAA 091000Z AUTO 05002KT 6SM 12/M13 A2988 RMK T01201130 IEM_DS3505
ZBAA,2001-03-09 11:00,ZBAA 091100Z AUTO 04004KT 6SM 10/M12 A2994 RMK T01001120 IEM_DS3505
ZBAA,2001-03-09 12:00,ZBAA 091200Z AUTO 06006KT 6SM 10/M13 A2997 RMK SLP149 T00971134 52041 IEM_DS3505
ZBAA,2001-03-09 13:00,ZBAA 091300Z AUTO 07004KT 6SM 08/M10 A3000 RMK T00801100 IEM_DS3505
ZBAA,2001-03-09 14:00,ZBAA 091400Z AUTO 11002KT 6SM 06/M10 A3006 RMK T00601100 IEM_DS3505
ZBAA,2001-03-09 15:00,ZBAA 091500Z AUTO 12012KT 6SM 02/M08 A3009 RMK SLP192 T00241080 52042 IEM_DS3505
ZBAA,2001-03-09 16:00,ZBAA 091600Z AUTO 14008KT 6SM 00/M06 RMK T00001060 IEM_DS3505
ZBAA,2001-03-09 17:00,ZBAA 091700Z AUTO 15006KT 6SM M01/M06 A3018 RMK T10101060 IEM_DS3505
ZBAA,2001-03-09 18:00,ZBAA 091800Z AUTO 00000KT 6SM M01/M08 A3024 RMK SLP236 T10071081 52044 IEM_DS3505
ZBAA,2001-03-09 19:00,ZBAA 091900Z AUTO 20002KT 6SM M02/M07 A3024 RMK T10201070 IEM_DS3505
ZBAA,2001-03-09 20:00,ZBAA 092000Z AUTO 11002KT 6SM M02/M06 A3027 RMK T10201060 IEM_DS3505
ZBAA,2001-03-09 21:00,ZBAA 092100Z AUTO 10002KT 6SM M02/M08 A3030 RMK SLP257 T10241080 52021 IEM_DS3505
ZBAA,2001-03-09 22:00,ZBAA 092200Z AUTO 13004KT 4SM M04/M07 A3033 RMK T10401070 IEM_DS3505
ZBAA,2001-03-09 23:00,ZBAA 092300Z AUTO 11002KT 4SM M04/M07 A3036 RMK T10401070 IEM_DS3505
ZBAA,2001-03-10 00:00,ZBAA 100000Z AUTO 11002KT 6SM M01/M07 A3036 RMK SLP284 T10141071 52027 IEM_DS3505
ZBAA,2001-03-10 01:00,ZBAA 100100Z AUTO 14004KT 4SM 00/M05 A3039 RMK T00001050 IEM_DS3505
ZBAA,2001-03-10 02:00,ZBAA 100200Z AUTO 16006KT 6SM 01/M06 A3039 RMK T00101060 IEM_DS3505
ZBAA,2001-03-10 03:00,ZBAA 100300Z AUTO 19004KT 6SM 03/M08 A3039 RMK SLP286 T00291075 52002 IEM_DS3505
ZBAA,2001-03-10 04:00,ZBAA 100400Z AUTO 17006KT 04/M06 A3036 RMK T00401060 IEM_DS3505
ZBAA,2001-03-10 05:00,ZBAA 100500Z AUTO 17006KT 5SM 05/M07 A3033 RMK T00501070 IEM_DS3505
ZBAA,2001-03-10 06:00,ZBAA 100600Z AUTO 18008KT 7SM 07/M08 A3030 RMK SLP262 T00661085 57024 IEM_DS3505
ZBAA,2001-03-10 07:00,ZBAA 100700Z AUTO 16006KT 5SM 07/M08 A3030 RMK T00701080 IEM_DS3505
ZBAA,2001-03-10 08:00,ZBAA 100800Z AUTO 18006KT 6SM 07/M08 A3027 RMK T00701080 IEM_DS3505
ZBAA,2001-03-10 09:00,ZBAA 100900Z AUTO 19004KT 7SM 07/M09 A3027 RMK SLP254 T00661088 57008 IEM_DS3505
ZBAA,2001-03-10 10:00,ZBAA 101000Z AUTO 16008KT 6SM 05/M08 A3027 RMK T00501080 IEM_DS3505
ZBAA,2001-03-10 11:00,ZBAA 101100Z AUTO 16010KT 5SM 04/M08 A3030 RMK T00401080 IEM_DS3505
ZBAA,2001-03-10 12:00,ZBAA 101200Z AUTO 16008KT 12SM 02/M09 A3033 RMK SLP271 T00161093 52016 IEM_DS3505
ZBAA,2001-03-10 13:00,ZBAA 101300Z AUTO 15008KT 6SM 01/M07 A3033 RMK T00101070 IEM_DS3505
ZBAA,2001-03-10 14:00,ZBAA 101400Z AUTO 13008KT 6SM M01/M06 A3036 RMK T10101060 IEM_DS3505
ZBAA,2001-03-10 15:00,ZBAA 101500Z AUTO 18002KT 12SM M01/M10 A3036 RMK SLP278 T10071095 52007 IEM_DS3505
ZBAA,2001-03-10 16:00,ZBAA 101600Z AUTO 09004KT 6SM M02/M07 A3036 RMK T10201070 IEM_DS3505
ZBAA,2001-03-10 17:00,ZBAA 101700Z AUTO 10004KT 6SM M03/M07 A3036 RMK T10301070 IEM_DS3505
ZBAA,2001-03-10 18:00,ZBAA 101800Z AUTO 07004KT 6SM M03/M08 A3036 RMK SLP275 T10271081 57002 IEM_DS3505
ZBAA,2001-03-10 19:00,ZBAA 101900Z AUTO 13002KT 6SM M03/M07 A3033 RMK T10301070 IEM_DS3505
ZBAA,2001-03-10 20:00,ZBAA 102000Z AUTO 14002KT 6SM M04/M07 A3033 RMK T10401070 IEM_DS3505
ZBAA,2001-03-10 21:00,ZBAA 102100Z AUTO 02002KT 6SM M03/M08 A3033 RMK SLP263 T10341084 57012 IEM_DS3505
ZBAA,2001-03-10 22:00,ZBAA 102200Z AUTO 18002KT 6SM M04/M07 A3030 RMK T10401070 IEM_DS3505
ZBAA,2001-03-10 23:00,ZBAA 102300Z AUTO 17002KT 6SM M04/M07 A3030 RMK T10401070 IEM_DS3505
ZBAA,2001-03-11 00:00,ZBAA 110000Z AUTO 05002KT 5SM M02/M08 A3030 RMK SLP261 T10231076 57003 IEM_DS3505
ZBAA,2001-03-11 01:00,ZBAA 110100Z AUTO 08002KT 6SM M01/M06 A3030 RMK T10101060 IEM_DS3505
ZBAA,2001-03-11 02:00,ZBAA 110200Z AUTO 02002KT 6SM 00/M06 A3030 RMK T00001060 IEM_DS3505
ZBAA,2001-03-11 03:00,ZBAA 110300Z AUTO 09002KT 6SM 02/M08 A3027 RMK SLP246 T00201075 57014 IEM_DS3505
ZBAA,2001-03-11 04:00,ZBAA 110400Z AUTO 6SM 03/M06 A3024 RMK T00301060 IEM_DS3505
ZBAA,2001-03-11 05:00,ZBAA 110500Z AUTO 21004KT 6SM 04/M06 A3021 RMK T00401060 IEM_DS3505
ZBAA,2001-03-11 06:00,ZBAA 110600Z AUTO 21004KT 10SM 06/M09 A3015 RMK SLP211 T00631087 57035 IEM_DS3505
ZBAA,2001-03-11 07:00,ZBAA 110700Z AUTO 12002KT 2 1/2SM 07/M06 A3015 RMK T00701060 IEM_DS3505
ZBAA,2001-03-11 08:30,ZBAA 110830Z AUTO 10002KT 2 1/2SM 07/M06 A3012 RMK T00701060 IEM_DS3505
ZBAA,2001-03-11 09:00,ZBAA 110900Z AUTO 09004KT 10SM 07/M09 A3012 RMK SLP197 T00741086 57014 IEM_DS3505
ZBAA,2001-03-11 10:00,ZBAA 111000Z AUTO 06002KT 06/M05 A3012 RMK T00601050 IEM_DS3505
ZBAA,2001-03-11 11:00,ZBAA 111100Z AUTO 03002KT 3SM 04/M05 A3015 RMK T00401050 IEM_DS3505
ZBAA,2001-03-11 12:00,ZBAA 111200Z AUTO 02002KT 6SM 04/M08 A3018 RMK SLP222 T00351085 52025 IEM_DS3505
ZBAA,2001-03-11 13:00,ZBAA 111300Z AUTO 24002KT 2 1/2SM 04/M05 A3021 RMK T00401050 IEM_DS3505
ZBAA,2001-03-11 14:00,ZBAA 111400Z AUTO 33002KT 2 1/2SM 02/M05 A3021 RMK T00201050 IEM_DS3505
ZBAA,2001-03-11 15:00,ZBAA 111500Z AUTO 10002KT 6SM 02/M06 A3021 RMK SLP234 T00181065 52012 IEM_DS3505
ZBAA,2001-03-11 16:00,ZBAA 111600Z AUTO 00000KT 2SM 00/M04 A3021 RMK T00001040 IEM_DS3505
ZBAA,2001-03-11 17:00,ZBAA 111700Z AUTO 00000KT 1 1/2SM M01/M05 A3024 RMK T10101050 IEM_DS3505
ZBAA,2001-03-11 18:00,ZBAA 111800Z AUTO 24002KT 5SM 00/M06 A3024 RMK SLP236 T00041060 52002 IEM_DS3505
ZBAA,2001-03-11 19:00,ZBAA 111900Z AUTO 34004KT 1 1/2SM M01/M05 A3024 RMK T10101050 IEM_DS3505
ZBAA,2001-03-11 20:00,ZBAA 112000Z AUTO 36002KT 1 1/2SM M02/M06 A3021 RMK T10201060 IEM_DS3505
ZBAA,2001-03-11 21:00,ZBAA 112100Z AUTO 30002KT 4SM M01/M06 A3021 RMK SLP231 T10111058 57005 IEM_DS3505
ZBAA,2001-03-11 22:00,ZBAA 112200Z AUTO 00000KT 1 1/2SM M02/M05 A3024 RMK T10201050 IEM_DS3505
ZBAA,2001-03-11 23:00,ZBAA 112300Z AUTO 35004KT 1 1/2SM M02/M05 A3024 RMK T10201050 IEM_DS3505
ZBAA,2001-03-12 00:00,ZBAA 120000Z AUTO 05002KT 4SM 01/M05 A3024 RMK SLP239 T00081050 52008 IEM_DS3505
ZBAA,2001-03-12 01:00,ZBAA 120100Z AUTO 00000KT 2 1/2SM 01/M04 A3024 RMK T00101040 IEM_DS3505
ZBAA,2001-03-12 02:00,ZBAA 120200Z AUTO 11004KT 2SM 04/M03 A3024 RMK T00401030 IEM_DS3505
ZBAA,2001-03-12 03:00,ZBAA 120300Z AUTO 12004KT 4SM 08/M06 A3021 RMK SLP230 T00821059 57009 IEM_DS3505
ZBAA,2001-03-12 04:00,ZBAA 120400Z AUTO 15006KT 3SM 10/M04 A3018 RMK T01001040 IEM_DS3505
ZBAA,2001-03-12 05:00,ZBAA 120500Z AUTO 18006KT 3SM 12/M04 A3012 RMK T01201040 IEM_DS3505
ZBAA,2001-03-12 06:00,ZBAA 120600Z AUTO 21010KT 6SM 14/M05 A3009 RMK SLP181 T01421050 57048 IEM_DS3505
ZBAA,2001-03-12 07:00,ZBAA 120700Z AUTO 18006KT 15/M03 A3003 RMK T01501030 IEM_DS3505
ZBAA,2001-03-12 08:00,ZBAA 120800Z AUTO 19010KT 15/M04 A3000 RMK T01501040 IEM_DS3505
ZBAA,2001-03-12 09:00,ZBAA 120900Z AUTO 22008KT 6SM 15/M05 A2997 RMK SLP148 T01541050 57033 IEM_DS3505
ZBAA,2001-03-12 10:00,ZBAA 121000Z AUTO 20004KT 14/M03 A2997 RMK T01401030 IEM_DS3505
ZBAA,2001-03-12 11:00,ZBAA 121100Z AUTO 00000KT 3SM 10/M02 A2997 RMK T01001020 IEM_DS3505
ZBAA,2001-03-12 12:00,ZBAA 121200Z AUTO 17004KT 6SM 12/M03 A2997 RMK SLP148 T01171032 54000 IEM_DS3505
ZBAA,2001-03-12 13:00,ZBAA 121300Z AUTO 11004KT 2 1/2SM 06/M02 A2997 RMK T00601020 IEM_DS3505
ZBAA,2001-03-12 14:00,ZBAA 121400Z AUTO 12004KT 2 1/2SM 06/00 A2997 RMK T00600000 IEM_DS3505
ZBAA,2001-03-12 15:00,ZBAA 121500Z AUTO 16002KT 6SM 09/M04 A2994 RMK SLP138 T00901038 57010 IEM_DS3505
ZBAA,2001-03-12 16:00,ZBAA 121600Z AUTO 36002KT 2SM 03/M02 A2994 RMK T00301020 IEM_DS3505
ZBAA,2001-03-12 17:00,ZBAA 121700Z AUTO 08002KT 2SM 03/M01 A2991 RMK T00301010 IEM_DS3505
ZBAA,2001-03-12 18:00,ZBAA 121800Z AUTO 02002KT 6SM 04/M03 RMK SLP121 T00381032 57017 IEM_DS3505
ZBAA,2001-03-12 19:00,ZBAA 121900Z AUTO 34002KT 2SM 01/M01 A2988 RMK T00101010 IEM_DS3505
ZBAA,2001-03-12 20:00,ZBAA 122000Z AUTO 00000KT 1 1/2SM 01/M02 A2985 RMK T00101020 IEM_DS3505
ZBAA,2001-03-12 21:00,ZBAA 122100Z AUTO 04002KT 5SM 03/M03 A2985 RMK SLP106 T00321027 57015 IEM_DS3505
ZBAA,2001-03-12 22:00,ZBAA 122200Z AUTO 00000KT 1 1/4SM 01/M01 A2985 RMK T00101010 IEM_DS3505
ZBAA,2001-03-12 23:00,ZBAA 122300Z AUTO 00000KT 1 1/4SM 01/M01 A2985 RMK T00101010 IEM_DS3505
ZBAA,2001-03-13 00:00,ZBAA 130000Z AUTO 04004KT 2 1/2SM 03/M02 A2985 RMK SLP104 T00331016 57002 IEM_DS3505
ZBAA,2001-03-13 01:00,ZBAA 130100Z AUTO 09002KT 1 1/4SM 05/01 A2985 RMK T00500010 IEM_DS3505
ZBAA,2001-03-13 02:00,ZBAA 130200Z AUTO 12002KT 1 1/2SM 07/01 A2983 RMK T00700010 IEM_DS3505
ZBAA,2001-03-13 03:00,ZBAA 130300Z AUTO 05004KT 4SM 09/M01 A2983 RMK SLP092 T00901008 57012 IEM_DS3505
ZBAA,2001-03-13 04:00,ZBAA 130400Z AUTO 12004KT 1 1/2SM 11/03 A2980 RMK T01100030 IEM_DS3505
ZBAA,2001-03-13 05:00,ZBAA 130500Z AUTO 14006KT 2SM 13/04 A2974 RMK T01300040 IEM_DS3505
ZBAA,2001-03-13 06:00,ZBAA 130600Z AUTO 15002KT 6SM 15/02 A2974 RMK SLP061 T01460015 57030 IEM_DS3505
ZBAA,2001-03-13 07:00,ZBAA 130700Z AUTO 13006KT 2SM 16/04 A2971 RMK T01600040 IEM_DS3505
ZBAA,2001-03-13 08:00,ZBAA 130800Z AUTO 21002KT 2SM 16/04 A2968 RMK T01600040 IEM_DS3505
ZBAA,2001-03-13 09:00,ZBAA 130900Z AUTO 06002KT 4SM 16/01 A2965 RMK SLP040 T01590013 57021 IEM_DS3505
ZBAA,2001-03-13 10:00,ZBAA 131000Z AUTO 29002KT 1 1/2SM 15/04 A2968 RMK T01500040 IEM_DS3505
ZBAA,2001-03-13 11:00,ZBAA 131100Z AUTO 02002KT 1 1/4SM 11/04 A2968 RMK T01100040 IEM_DS3505
ZBAA,2001-03-13 12:00,ZBAA 131200Z AUTO 03002KT 2 1/2SM 10/02 A2968 RMK SLP049 T01020016 52008 IEM_DS3505
ZBAA,2001-03-13 13:00,ZBAA 131300Z AUTO 00000KT 1 1/4SM 10/03 A2968 RMK T01000030 IEM_DS3505
ZBAA,2001-03-13 14:00,ZBAA 131400Z AUTO 32008KT 1SM 10/04 A2974 RMK T01000040 IEM_DS3505
ZBAA,2001-03-13 15:00,ZBAA 131500Z AUTO 33002KT 3SM 11/02 A2974 RMK SLP063 T01130018 52015 IEM_DS3505
ZBAA,2001-03-13 16:00,ZBAA 131600Z AUTO 30008KT 1 1/4SM 09/03 A2974 RMK T00900030 IEM_DS3505
ZBAA,2001-03-13 17:00,ZBAA 131700Z AUTO 33006KT 1 1/4SM 07/02 A2974 RMK T00700020 IEM_DS3505
ZBAA,2001-03-13 18:00,ZBAA 131800Z AUTO 04002KT 2 1/2SM 09/00 A2974 RMK SLP065 T00900005 52002 IEM_DS3505
ZBAA,2001-03-13 19:00,ZBAA 131900Z AUTO 35008KT 1 1/2SM 07/02 A2980 RMK T00700020 IEM_DS3505
ZBAA,2001-03-13 20:00,ZBAA 132000Z AUTO 35010KT 2 1/2SM 08/03 A2983 RMK T00800030 IEM_DS3505
ZBAA,2001-03-13 21:00,ZBAA 132100Z AUTO 33012KT 5SM 10/M08 A2991 RMK SLP122 T01021079 52057 IEM_DS3505
ZBAA,2001-03-13 22:00,ZBAA 132200Z AUTO 35008KT 6SM 07/M05 A3000 RMK T00701050 IEM_DS3505
ZBAA,2001-03-13 23:00,ZBAA 132300Z AUTO 34008KT 6SM 06/M07 A3006 RMK T00601070 IEM_DS3505
ZBAA,2001-03-14 00:00,ZBAA 140000Z AUTO 34012KT 7SM 07/M14 A3015 RMK SLP200 T00711137 52077 IEM_DS3505
ZBAA,2001-03-14 01:00,ZBAA 140100Z AUTO 01014KT 6SM 07/M14 A3018 RMK T00701140 IEM_DS3505
ZBAA,2001-03-14 02:00,ZBAA 140200Z AUTO 02016KT 6SM 08/M16 A3021 RMK T00801160 IEM_DS3505
ZBAA,2001-03-14 03:00,ZBAA 140300Z AUTO 34010KT 10SM 09/M16 A3024 RMK SLP238 T00911161 52038 IEM_DS3505
ZBAA,2001-03-14 04:00,ZBAA 140400Z AUTO 32010G19KT 6SM 10/M17 A3024 RMK T01001170 IEM_DS3505
ZBAA,2001-03-14 05:00,ZBAA 140500Z AUTO 35012KT 6SM 10/M19 A3024 RMK T01001190 IEM_DS3505
ZBAA,2001-03-14 06:00,ZBAA 140600Z AUTO 31014KT 12SM 11/M19 A3024 RMK SLP231 T01091194 57007 IEM_DS3505
ZBAA,2001-03-14 07:00,ZBAA 140700Z AUTO 29012KT 6SM 11/M19 A3021 RMK T01101190 IEM_DS3505
ZBAA,2001-03-14 08:00,ZBAA 140800Z AUTO 36006G16KT 6SM 12/M19 A3021 RMK T01201190 IEM_DS3505
ZBAA,2001-03-14 09:00,ZBAA 140900Z AUTO 33008KT 19SM 11/M19 A3021 RMK SLP230 T01131191 57001 IEM_DS3505
ZBAA,2001-03-14 10:00,ZBAA 141000Z AUTO 31014KT 6SM 10/M20 A3021 RMK T01001200 IEM_DS3505
ZBAA,2001-03-14 11:00,ZBAA 141100Z AUTO 31012KT 6SM 09/M18 A3024 RMK T00901180 IEM_DS3505
ZBAA,2001-03-14 12:00,ZBAA 141200Z AUTO 28004KT 9SM 08/M17 A3027 RMK SLP245 T00851174 52015 IEM_DS3505
ZBAA,2001-03-14 13:00,ZBAA 141300Z AUTO 30006KT 6SM 07/M16 A3027 RMK T00701160 IEM_DS3505
ZBAA,2001-03-14 14:00,ZBAA 141400Z AUTO 32010KT 6SM 07/M15 A3027 RMK T00701150 IEM_DS3505
ZBAA,2001-03-14 15:00,ZBAA 141500Z AUTO 00000KT 11SM 06/M16 A3027 RMK SLP253 T00561161 52007 IEM_DS3505
ZBAA,2001-03-14 16:00,ZBAA 141600Z AUTO 35006KT 6SM 03/M14 A3027 RMK T00301140 IEM_DS3505
ZBAA,2001-03-14 17:00,ZBAA 141700Z AUTO 33004KT 6SM 04/M14 A3030 RMK T00401140 IEM_DS3505
ZBAA,2001-03-14 18:00,ZBAA 141800Z AUTO 34002KT 12SM 06/M15 A3030 RMK SLP259 T00571148 52007 IEM_DS3505
ZBAA,2001-03-14 19:00,ZBAA 141900Z AUTO 6SM 03/M12 A3030 RMK T00301120 IEM_DS3505
ZBAA,2001-03-14 20:00,ZBAA 142000Z AUTO 6SM 00/M10 A3030 RMK T00001100 IEM_DS3505
ZBAA,2001-03-14 21:00,ZBAA 142100Z AUTO 23002KT 12SM 02/M14 A3030 RMK SLP259 T00181143 57001 IEM_DS3505
ZBAA,2001-03-14 22:00,ZBAA 142200Z AUTO 19002KT 6SM 00/M10 A3030 RMK T00001100 IEM_DS3505
ZBAA,2001-03-14 23:00,ZBAA 142300Z AUTO 00000KT 6SM M01/M10 A3033 RMK T10101100 IEM_DS3505
ZBAA,2001-03-15 00:00,ZBAA 150000Z AUTO 06002KT 6SM 04/M12 A3033 RMK SLP267 T00431121 52008 IEM_DS3505
ZBAA,2001-03-15 01:00,ZBAA 150100Z AUTO 12002KT 6SM 05/M09 A3033 RMK T00501090 IEM_DS3505
ZBAA,2001-03-15 02:00,ZBAA 150200Z AUTO 25006KT 6SM 10/M13 A3030 RMK T01001130 IEM_DS3505
ZBAA,2001-03-15 03:00,ZBAA 150300Z AUTO 27004KT 12SM 12/M16 A3030 RMK SLP256 T01161158 57010 IEM_DS3505
ZBAA,2001-03-15 04:00,ZBAA 150400Z AUTO 25006KT 6SM 13/M14 A3024 RMK T01301140 IEM_DS3505
ZBAA,2001-03-15 05:00,ZBAA 150500Z AUTO 24008KT 6SM 13/M15 A3021 RMK T01301150 IEM_DS3505
ZBAA,2001-03-15 06:00,ZBAA 150600Z AUTO 14002KT 12SM 14/M17 A3018 RMK SLP218 T01411169 57038 IEM_DS3505
ZBAA,2001-03-15 07:00,ZBAA 150700Z AUTO 20008KT 6SM 15/M16 A3015 RMK T01501160 IEM_DS3505
ZBAA,2001-03-15 08:00,ZBAA 150800Z AUTO 18010KT 6SM 15/M15 A3012 RMK T01501150 IEM_DS3505
ZBAA,2001-03-15 09:00,ZBAA 150900Z AUTO 21006KT 12SM 14/M14 RMK SLP194 T01441136 57024 IEM_DS3505
ZBAA,2001-03-15 10:00,ZBAA 151000Z AUTO 18006KT 6SM 12/M14 A3009 RMK T01201140 IEM_DS3505
ZBAA,2001-03-15 11:00,ZBAA 151100Z AUTO 18004KT 6SM 11/M12 A3012 RMK T01101120 IEM_DS3505
ZBAA,2001-03-15 12:00,ZBAA 151200Z AUTO 20002KT 7SM 11/M11 A3012 RMK SLP201 T01071106 52007 IEM_DS3505
ZBAA,2001-03-15 13:00,ZBAA 151300Z AUTO 14004KT 6SM 07/M07 A3012 RMK T00701070 IEM_DS3505
ZBAA,2001-03-15 14:00,ZBAA 151400Z AUTO 16004KT 6SM 07/M08 A3012 RMK T00701080 IEM_DS3505
ZBAA,2001-03-15 15:00,ZBAA 151500Z AUTO 23006KT 6SM 09/M09 A3012 RMK SLP202 T00871092 52001 IEM_DS3505
ZBAA,2001-03-15 16:00,ZBAA 151600Z AUTO 03002KT 6SM 05/M05 A3012 RMK T00501050 IEM_DS3505
ZBAA,2001-03-15 17:00,ZBAA 151700Z AUTO 00000KT 6SM 05/M06 A3012 RMK T00501060 IEM_DS3505
ZBAA,2001-03-15 18:00,ZBAA 151800Z AUTO 25002KT 6SM 08/M08 A3009 RMK SLP194 T00751081 57008 IEM_DS3505
ZBAA,2001-03-15 19:00,ZBAA 151900Z AUTO 01004KT 6SM 02/M05 A3009 RMK T00201050 IEM_DS3505
ZBAA,2001-03-15 20:00,ZBAA 152000Z AUTO 35002KT 6SM 02/M07 A3009 RMK T00201070 IEM_DS3505
ZBAA,2001-03-15 21:00,ZBAA 152100Z AUTO 18002KT 6SM 04/M06 A3009 RMK SLP191 T00451064 57003 IEM_DS3505
ZBAA,2001-03-15 22:00,ZBAA 152200Z AUTO 17002KT 6SM 01/M07 A3009 RMK T00101070 IEM_DS3505
ZBAA,2001-03-15 23:00,ZBAA 152300Z AUTO 35002KT 6SM 03/M08 A3009 RMK T00301080 IEM_DS3505
ZBAA,2001-03-16 00:00,ZBAA 160000Z AUTO 07002KT 4SM 05/M05 A3009 RMK SLP191 T00541050 54000 IEM_DS3505
ZBAA,2001-03-16 01:00,ZBAA 160100Z AUTO 02004KT 05/M06 A3009 RMK T00501060 IEM_DS3505
ZBAA,2001-03-16 02:00,ZBAA 160200Z AUTO 5SM 07/M06 A3009 RMK T00701060 IEM_DS3505
ZBAA,2001-03-16 03:00,ZBAA 160300Z AUTO 00000KT 5SM 10/M07 A3006 RMK SLP182 T01001067 57009 IEM_DS3505
ZBAA,2001-03-16 04:00,ZBAA 160400Z AUTO 09/M06 A3006 RMK T00901060 IEM_DS3505
ZBAA,2001-03-16 05:00,ZBAA 160500Z AUTO 10/M05 A3000 RMK T01001050 IEM_DS3505
ZBAA,2001-03-16 06:00,ZBAA 160600Z AUTO 21008KT 9SM 13/M08 A2997 RMK SLP147 T01311081 57035 IEM_DS3505
ZBAA,2001-03-16 07:00,ZBAA 160700Z AUTO 18006KT 3SM 13/M06 A2994 RMK T01301060 IEM_DS3505
ZBAA,2001-03-16 08:00,ZBAA 160800Z AUTO 20010KT 5SM 14/M08 A2991 RMK T01401080 IEM_DS3505
ZBAA,2001-03-16 09:00,ZBAA 160900Z AUTO 20010G21KT 9SM 13/M09 A2991 RMK SLP129 T01331091 57018 IEM_DS3505
ZBAA,2001-03-16 10:00,ZBAA 161000Z AUTO 19010KT 6SM 12/M06 A2991 RMK T01201060 IEM_DS3505
ZBAA,2001-03-16 11:00,ZBAA 161100Z AUTO 18006KT 6SM 10/M06 A2991 RMK T01001060 IEM_DS3505
ZBAA,2001-03-16 12:00,ZBAA 161200Z AUTO 22010KT 9SM 09/M02 A2991 RMK SLP138 T00931020 52009 IEM_DS3505
ZBAA,2001-03-16 13:00,ZBAA 161300Z AUTO 18006KT 5SM 09/01 A2994 RMK T00900010 IEM_DS3505
ZBAA,2001-03-16 14:00,ZBAA 161400Z AUTO 18008KT 6SM 08/01 A2994 RMK T00800010 IEM_DS3505
ZBAA,2001-03-16 15:00,ZBAA 161500Z AUTO 22010KT 7SM 08/M01 A2994 RMK SLP136 T00751012 57002 IEM_DS3505
ZBAA,2001-03-16 16:00,ZBAA 161600Z AUTO 18006KT 6SM 07/01 A2991 RMK T00700010 IEM_DS3505
ZBAA,2001-03-16 17:00,ZBAA 161700Z AUTO 16004KT 6SM 07/01 A2991 RMK T00700010 IEM_DS3505
ZBAA,2001-03-16 18:00,ZBAA 161800Z AUTO 21006KT 11SM 07/M03 A2988 RMK SLP123 T00671027 57013 IEM_DS3505
ZBAA,2001-03-16 19:00,ZBAA 161900Z AUTO 15004KT 6SM 05/00 A2988 RMK T00500000 IEM_DS3505
ZBAA,2001-03-16 20:00,ZBAA 162000Z AUTO 14004KT 6SM 04/M01 A2985 RMK T00401010 IEM_DS3505
ZBAA,2001-03-16 21:00,ZBAA 162100Z AUTO 20004KT 9SM 04/M03 A2985 RMK SLP110 T00441033 57013 IEM_DS3505
ZBAA,2001-03-16 22:00,ZBAA 162200Z AUTO 16002KT 6SM 02/00 A2985 RMK T00200000 IEM_DS3505
ZBAA,2001-03-16 23:00,ZBAA 162300Z AUTO 01004KT 6SM 03/00 A2985 RMK T00300000 IEM_DS3505
ZBAA,2001-03-17 00:00,ZBAA 170000Z AUTO 20004KT 7SM 05/M03 A2985 RMK SLP110 T00541034 54000 IEM_DS3505
ZBAA,2001-03-17 01:00,ZBAA 170100Z AUTO 02002KT 4SM 05/00 A2985 RMK T00500000 IEM_DS3505
ZBAA,2001-03-17 02:00,ZBAA 170200Z AUTO 02002KT 9SM 07/00 A2985 RMK T00700000 IEM_DS3505
ZBAA,2001-03-17 03:00,ZBAA 170300Z AUTO 21002KT 9SM 11/M02 A2985 RMK SLP106 T01071016 57003 IEM_DS3505
ZBAA,2001-03-17 04:00,ZBAA 170400Z AUTO 19006KT 5SM 10/00 A2983 RMK T01000000 IEM_DS3505
ZBAA,2001-03-17 05:00,ZBAA 170500Z AUTO 21008KT 5SM 14/M02 A2980 RMK T01401020 IEM_DS3505
ZBAA,2001-03-17 06:00,ZBAA 170600Z AUTO 22010KT 6SM 16/M04 A2974 RMK SLP076 T01611039 57030 IEM_DS3505
ZBAA,2001-03-17 07:00,ZBAA 170700Z AUTO 24010KT 6SM 18/M07 A2974 RMK T01801070 IEM_DS3505
ZBAA,2001-03-17 08:00,ZBAA 170800Z AUTO 25006KT 6SM 19/M07 A2971 RMK T01901070 IEM_DS3505
ZBAA,2001-03-17 09:00,ZBAA 170900Z AUTO 23008KT 9SM 18/M10 A2971 RMK SLP062 T01811097 57014 IEM_DS3505
ZBAA,2001-03-17 10:00,ZBAA 171000Z AUTO 20008KT 6SM 17/M05 A2971 RMK T01701050 IEM_DS3505
ZBAA,2001-03-17 11:00,ZBAA 171100Z AUTO 23004KT 6SM 16/M07 A2977 RMK T01601070 IEM_DS3505
ZBAA,2001-03-17 12:00,ZBAA 171200Z AUTO 32004KT 7SM 15/M09 A2980 RMK SLP086 T01511090 52024 IEM_DS3505
ZBAA,2001-03-17 13:00,ZBAA 171300Z AUTO 00000KT 10/M03 A2983 RMK T01001030 IEM_DS3505
ZBAA,2001-03-17 14:00,ZBAA 171400Z AUTO 35004KT 09/M03 A2985 RMK T00901030 IEM_DS3505
ZBAA,2001-03-17 15:00,ZBAA 171500Z AUTO 32004KT 2 1/2SM 13/M08 A2985 RMK SLP110 T01331079 52024 IEM_DS3505
ZBAA,2001-03-17 16:00,ZBAA 171600Z AUTO 33008KT 12/M07 A2988 RMK T01201070 IEM_DS3505
ZBAA,2001-03-17 17:00,ZBAA 171700Z AUTO 32008KT 10/M07 A2988 RMK T01001070 IEM_DS3505
ZBAA,2001-03-17 18:00,ZBAA 171800Z AUTO 29002KT 6SM 08/M06 A2988 RMK SLP123 T00811060 52013 IEM_DS3505
ZBAA,2001-03-17 19:00,ZBAA 171900Z AUTO 5SM 07/M05 A2988 RMK T00701050 IEM_DS3505
ZBAA,2001-03-17 20:00,ZBAA 172000Z AUTO 32008KT 5SM 05/M08 A2988 RMK T00501080 IEM_DS3505
ZBAA,2001-03-17 21:00,ZBAA 172100Z AUTO 31006KT 12SM A2991 RMK SLP131 52008 IEM_DS3505
ZBAA,2001-03-17 22:00,ZBAA 172200Z AUTO 28006KT 6SM 08/M10 A2994 RMK T00801100 IEM_DS3505
ZBAA,2001-03-17 23:00,ZBAA 172300Z AUTO 28006KT 6SM 10/M11 A2994 RMK T01001110 IEM_DS3505
ZBAA,2001-03-18 00:00,ZBAA 180000Z AUTO 31002KT 6SM 13/M11 A2997 RMK SLP151 T01341111 52020 IEM_DS3505
ZBAA,2001-03-18 01:00,ZBAA 180100Z AUTO 27006KT 6SM 15/M11 A3000 RMK T01501110 IEM_DS3505
ZBAA,2001-03-18 02:00,ZBAA 180200Z AUTO 29008KT 6SM 17/M11 A3000 RMK T01701110 IEM_DS3505
ZBAA,2001-03-18 03:00,ZBAA 180300Z AUTO 26004KT 19SM 18/M13 A2997 RMK SLP149 T01831126 57002 IEM_DS3505
ZBAA,2001-03-18 04:00,ZBAA 180400Z AUTO 26012KT 6SM 19/M11 A2994 RMK T01901110 IEM_DS3505
ZBAA,2001-03-18 05:00,ZBAA 180500Z AUTO 29010G19KT 6SM 20/M11 A2991 RMK T02001110 IEM_DS3505
ZBAA,2001-03-18 06:00,ZBAA 180600Z AUTO 22008KT 19SM 20/M13 A2988 RMK SLP116 T01971127 57033 IEM_DS3505
ZBAA,2001-03-18 07:00,ZBAA 180700Z AUTO 20010KT 6SM 20/M11 A2983 RMK T02001110 IEM_DS3505
ZBAA,2001-03-18 08:00,ZBAA 180800Z AUTO 19010KT 6SM 20/M11 A2983 RMK T02001110 IEM_DS3505
ZBAA,2001-03-18 09:00,ZBAA 180900Z AUTO 22006KT 19SM 20/M12 A2980 RMK SLP091 T01971115 57024 IEM_DS3505
ZBAA,2001-03-18 10:00,ZBAA 181000Z AUTO 19008KT 6SM 18/M10 A2980 RMK T01801100 IEM_DS3505
ZBAA,2001-03-18 11:00,ZBAA 181100Z AUTO 17006KT 6SM 15/M09 A2980 RMK T01501090 IEM_DS3505
ZBAA,2001-03-18 12:00,ZBAA 181200Z AUTO 19004KT 9SM 16/M11 A2980 RMK SLP094 T01581107 52002 IEM_DS3505
ZBAA,2001-03-18 13:00,ZBAA 181300Z AUTO 18006KT 6SM 13/M07 A2980 RMK T01301070 IEM_DS3505
ZBAA,2001-03-18 14:00,ZBAA 181400Z AUTO 21008KT 6SM 14/M08 A2980 RMK T01401080 IEM_DS3505
ZBAA,2001-03-18 15:00,ZBAA 181500Z AUTO 21008KT 6SM 12/M09 A2980 RMK SLP087 T01241092 57007 IEM_DS3505
ZBAA,2001-03-18 16:00,ZBAA 181600Z AUTO 22004KT 6SM 13/M08 A2977 RMK T01301080 IEM_DS3505
ZBAA,2001-03-18 17:00,ZBAA 181700Z AUTO 00000KT 5SM 09/M06 A2977 RMK T00901060 IEM_DS3505
ZBAA,2001-03-18 18:00,ZBAA 181800Z AUTO 25004KT 7SM 11/M08 A2977 RMK SLP078 T01071084 57009 IEM_DS3505
ZBAA,2001-03-18 19:00,ZBAA 181900Z AUTO 02002KT 06/M05 A2974 RMK T00601050 IEM_DS3505
ZBAA,2001-03-18 20:00,ZBAA 182000Z AUTO 15002KT 04/M03 A2974 RMK T00401030 IEM_DS3505
ZBAA,2001-03-18 21:00,ZBAA 182100Z AUTO 27004KT 6SM 08/M08 A2974 RMK SLP061 T00811084 57017 IEM_DS3505
ZBAA,2001-03-18 22:00,ZBAA 182200Z AUTO 05/M05 A2974 RMK T00501050 IEM_DS3505
ZBAA,2001-03-18 23:00,ZBAA 182300Z AUTO 35002KT 04/M04 A2974 RMK T00401040 IEM_DS3505
ZBAA,2001-03-19 00:00,ZBAA 190000Z AUTO 00000KT 2 1/2SM 11/M08 A2974 RMK SLP068 T01071075 52007 IEM_DS3505
ZBAA,2001-03-19 01:00,ZBAA 190100Z AUTO 29006KT 5SM 16/M09 A2974 RMK T01601090 IEM_DS3505
ZBAA,2001-03-19 02:00,ZBAA 190200Z AUTO 29008KT 6SM 19/M10 A2974 RMK T01901100 IEM_DS3505
ZBAA,2001-03-19 03:00,ZBAA 190300Z AUTO 25006G21KT 10SM 21/M10 A2971 RMK SLP056 T02101105 57011 IEM_DS3505
ZBAA,2001-03-19 04:00,ZBAA 190400Z AUTO 28019G29KT 6SM 22/M11 A2968 RMK T02201110 IEM_DS3505
ZBAA,2001-03-19 05:00,ZBAA 190500Z AUTO 29017G29KT 6SM 22/M11 A2965 RMK T02201110 IEM_DS3505
ZBAA,2001-03-19 06:00,ZBAA 190600Z AUTO 30014G35KT 12SM 23/M13 A2959 RMK SLP025 T02261132 57031 IEM_DS3505
ZBAA,2001-03-19 07:00,ZBAA 190700Z AUTO 28017G27KT 6SM 23/M11 A2959 RMK T02301110 IEM_DS3505
ZBAA,2001-03-19 08:00,ZBAA 190800Z AUTO 28017KT 6SM 23/M11 A2956 RMK T02301110 IEM_DS3505
ZBAA,2001-03-19 09:00,ZBAA 190900Z AUTO 26006KT 12SM 23/M13 A2956 RMK SLP007 T02291130 57018 IEM_DS3505
ZBAA,2001-03-19 10:00,ZBAA 191000Z AUTO 30014G23KT 6SM 22/M11 A2956 RMK T02201110 IEM_DS3505
ZBAA,2001-03-19 11:00,ZBAA 191100Z AUTO 29010KT 6SM 21/M10 A2959 RMK T02101100 IEM_DS3505
ZBAA,2001-03-19 12:00,ZBAA 191200Z AUTO 26004KT 12SM 19/M11 A2962 RMK SLP025 T01921108 52018 IEM_DS3505
ZBAA,2001-03-19 13:00,ZBAA 191300Z AUTO 30008KT 6SM 20/M09 A2962 RMK T02001090 IEM_DS3505
ZBAA,2001-03-19 14:00,ZBAA 191400Z AUTO 30016G25KT 6SM 21/M12 A2965 RMK T02101120 IEM_DS3505
ZBAA,2001-03-19 15:00,ZBAA 191500Z AUTO 30014KT 12SM 20/M14 A2965 RMK SLP045 T02011136 52020 IEM_DS3505
ZBAA,2001-03-19 16:00,ZBAA 191600Z AUTO 31010KT 18/M12 A2968 RMK T01801120 IEM_DS3505
ZBAA,2001-03-19 17:00,ZBAA 191700Z AUTO 24004KT 17/M11 A2968 RMK T01701110 IEM_DS3505
ZBAA,2001-03-19 18:00,ZBAA 191800Z AUTO 30008KT 7SM 18/M13 A2968 RMK SLP052 T01781129 IEM_DS3505
ZBAA,2001-03-19 19:00,ZBAA 191900Z AUTO 28006KT 6SM 15/M10 A2968 RMK T01501100 IEM_DS3505
ZBAA,2001-03-19 20:00,ZBAA 192000Z AUTO 29006KT 6SM 15/M11 A2968 RMK T01501110 IEM_DS3505
ZBAA,2001-03-19 21:00,ZBAA 192100Z AUTO 32006KT 10SM 16/M13 A2971 RMK SLP056 T01601133 52004 IEM_DS3505
ZBAA,2001-03-19 22:00,ZBAA 192200Z AUTO 32006KT 6SM 13/M10 A2971 RMK T01301100 IEM_DS3505
ZBAA,2001-03-19 23:00,ZBAA 192300Z AUTO 21002KT 6SM 12/M10 A2971 RMK T01201100 IEM_DS3505
ZBAA,2001-03-20 00:00,ZBAA 200000Z AUTO 30004KT 6SM 16/M12 A2974 RMK SLP063 T01651119 52007 IEM_DS3505
ZBAA,2001-03-20 01:00,ZBAA 200100Z AUTO 30006KT 6SM 17/M10 A2974 RMK T01701100 IEM_DS3505
ZBAA,2001-03-20 02:00,ZBAA 200200Z AUTO 31010KT 6SM 19/M10 A2974 RMK T01901100 IEM_DS3505
ZBAA,2001-03-20 03:00,ZBAA 200300Z AUTO 18008KT 12SM 21/M12 A2971 RMK SLP058 T02091117 57005 IEM_DS3505
ZBAA,2001-03-20 04:00,ZBAA 200400Z AUTO 16006KT 6SM 21/M11 A2968 RMK T02101110 IEM_DS3505
ZBAA,2001-03-20 05:00,ZBAA 200500Z AUTO 20014KT 6SM 23/M11 A2965 RMK T02301110 IEM_DS3505
ZBAA,2001-03-20 06:00,ZBAA 200600Z AUTO 24012KT 12SM 24/M10 A2962 RMK SLP023 T02351098 4////0123 57035 IEM_DS3505
ZBAA,2001-03-20 07:00,ZBAA 200700Z AUTO 20012KT 6SM 24/M10 A2959 RMK T02401100 IEM_DS3505
ZBAA,2001-03-20 08:00,ZBAA 200800Z AUTO 18010KT 6SM 24/M09 A2956 RMK T02401090 IEM_DS3505
ZBAA,2001-03-20 09:00,ZBAA 200900Z AUTO 21010KT 11SM 23/M10 A2956 RMK SLP001 T02321100 57022 IEM_DS3505
ZBAA,2001-03-20 10:00,ZBAA 201000Z AUTO 11012KT 5SM 14/M02 A2956 RMK T01401020 IEM_DS3505
ZBAA,2001-03-20 11:00,ZBAA 201100Z AUTO 12012KT 6SM 12/M04 A2959 RMK T01201040 IEM_DS3505
ZBAA,2001-03-20 12:00,ZBAA 201200Z AUTO 09010KT 9SM 12/M05 A2959 RMK SLP015 T01151050 52013 IEM_DS3505
ZBAA,2001-03-20 13:00,ZBAA 201300Z AUTO 04002KT 6SM 11/M03 A2962 RMK T01101030 IEM_DS3505
ZBAA,2001-03-20 14:00,ZBAA 201400Z AUTO 00000KT 6SM 09/M04 A2962 RMK T00901040 IEM_DS3505
ZBAA,2001-03-20 15:00,ZBAA 201500Z AUTO 04004KT 6SM 10/M06 A2959 RMK SLP018 T00991056 52003 IEM_DS3505
ZBAA,2001-03-20 16:00,ZBAA 201600Z AUTO 15002KT 6SM 08/M04 A2959 RMK T00801040 IEM_DS3505
ZBAA,2001-03-20 17:00,ZBAA 201700Z AUTO 19002KT 6SM 08/M04 A2956 RMK T00801040 IEM_DS3505
ZBAA,2001-03-20 18:00,ZBAA 201800Z AUTO 04004KT 9SM 08/M06 A2956 RMK SLP006 T00821056 57011 IEM_DS3505
ZBAA,2001-03-20 19:00,ZBAA 201900Z AUTO 00000KT 6SM 08/M04 A2953 RMK T00801040 IEM_DS3505
ZBAA,2001-03-20 20:00,ZBAA 202000Z AUTO 19002KT 6SM 06/M03 A2953 RMK T00601030 IEM_DS3505
ZBAA,2001-03-20 21:00,ZBAA 202100Z AUTO 01004KT 9SM 07/M05 A2953 RMK SLP994 T00721054 57012 IEM_DS3505
ZBAA,2001-03-20 22:00,ZBAA 202200Z AUTO 00000KT 6SM 04/M01 A2953 RMK T00401010 IEM_DS3505
ZBAA,2001-03-20 23:00,ZBAA 202300Z AUTO 00000KT 05/M01 A2953 RMK T00501010 IEM_DS3505
ZBAA,2001-03-21 00:00,ZBAA 210000Z AUTO 07008KT 6SM 08/M06 A2953 RMK SLP000 T00851057 52005 IEM_DS3505
ZBAA,2001-03-21 01:00,ZBAA 210100Z AUTO 11008KT 10/M03 A2953 RMK T01001030 IEM_DS3505
ZBAA,2001-03-21 02:00,ZBAA 210200Z AUTO 12010KT 6SM 11/M02 A2953 RMK T01101020 IEM_DS3505
ZBAA,2001-03-21 03:00,ZBAA 210300Z AUTO 11008KT 6SM 12/M02 A2953 RMK SLP988 T01231016 57011 IEM_DS3505
ZBAA,2001-03-21 04:00,ZBAA 210400Z AUTO 12006KT 5SM 15/00 A2950 RMK T01500000 IEM_DS3505
ZBAA,2001-03-21 05:00,ZBAA 210500Z AUTO 13006KT 16/00 A2947 RMK T01600000 IEM_DS3505
ZBAA,2001-03-21 06:00,ZBAA 210600Z AUTO 02004KT 6SM 17/M01 A2944 RMK SLP970 T01731013 57019 IEM_DS3505
ZBAA,2001-03-21 07:00,ZBAA 210700Z AUTO 24004KT 18/00 A2947 RMK T01800000 IEM_DS3505
ZBAA,2001-03-21 08:00,ZBAA 210800Z AUTO 31016G27KT 3SM 22/M07 A2947 RMK T02201070 IEM_DS3505
ZBAA,2001-03-21 09:00,ZBAA 210900Z AUTO 32021G35KT 2 1/2SM 20/M13 A2956 RMK SLP000 T01981126 52030 IEM_DS3505
ZBAA,2001-03-21 10:00,ZBAA 211000Z AUTO 34021G31KT 1SM 17/M19 A2965 RMK T01701190 IEM_DS3505
ZBAA,2001-03-21 11:00,ZBAA 211100Z AUTO 34025G37KT 1 1/2SM 15/M19 A2971 RMK T01501190 IEM_DS3505
ZBAA,2001-03-21 12:00,ZBAA 211200Z AUTO 34012G43KT 6SM 15/M19 A2977 RMK SLP071 T01471191 52071 IEM_DS3505
ZBAA,2001-03-21 13:00,ZBAA 211300Z AUTO 33025G41KT 3SM 12/M21 A2983 RMK T01201210 IEM_DS3505
ZBAA,2001-03-21 14:00,ZBAA 211400Z AUTO 33017G29KT 3SM 11/M21 A2985 RMK T01101210 IEM_DS3505
ZBAA,2001-03-21 15:00,ZBAA 211500Z AUTO 02004G33KT 9SM 10/M21 A2988 RMK SLP118 T01051209 52047 IEM_DS3505
ZBAA,2001-03-21 16:00,ZBAA 211600Z AUTO 33014G23KT 5SM 09/M20 A2991 RMK T00901200 IEM_DS3505
ZBAA,2001-03-21 17:00,ZBAA 211700Z AUTO 35012KT 6SM 07/M19 A2991 RMK T00701190 IEM_DS3505
ZBAA,2001-03-21 18:00,ZBAA 211800Z AUTO 04006KT 9SM 08/M20 A2991 RMK SLP129 T00811195 52011 IEM_DS3505
ZBAA,2001-03-21 19:00,ZBAA 211900Z AUTO 03002KT 6SM 05/M14 A2991 RMK T00501140 IEM_DS3505
ZBAA,2001-03-21 20:00,ZBAA 212000Z AUTO 00000KT 6SM 04/M14 A2994 RMK T00401140 IEM_DS3505
ZBAA,2001-03-21 21:00,ZBAA 212100Z AUTO 13004KT 9SM 04/M16 A2994 RMK SLP139 T00371165 52010 IEM_DS3505
ZBAA,2001-03-21 22:00,ZBAA 212200Z AUTO 29002KT 6SM 03/M12 A2997 RMK T00301120 IEM_DS3505
ZBAA,2001-03-21 23:00,ZBAA 212300Z AUTO 34002KT 6SM 03/M12 A2997 RMK T00301120 IEM_DS3505
ZBAA,2001-03-22 00:00,ZBAA 220000Z AUTO 24006KT 6SM 07/M18 A3000 RMK SLP155 T00701177 52015 IEM_DS3505
ZBAA,2001-03-22 01:00,ZBAA 220100Z AUTO 07002KT 08/M12 A3000 RMK T00801120 IEM_DS3505
ZBAA,2001-03-22 02:00,ZBAA 220200Z AUTO 17006KT 11/M14 A2997 RMK T01101140 IEM_DS3505
ZBAA,2001-03-22 03:00,ZBAA 220300Z AUTO 20012KT 6SM 12/M17 A2994 RMK SLP139 T01221173 57015 IEM_DS3505
ZBAA,2001-03-22 04:00,ZBAA 220400Z AUTO 19014G23KT 6SM 14/M16 A2991 RMK T01401160 IEM_DS3505
ZBAA,2001-03-22 05:00,ZBAA 220500Z AUTO 19012KT 6SM 15/M15 A2988 RMK T01501150 IEM_DS3505
ZBAA,2001-03-22 06:00,ZBAA 220600Z AUTO 22014KT 5SM 16/M15 A2985 RMK SLP106 T01551147 57033 IEM_DS3505
ZBAA,2001-03-22 07:00,ZBAA 220700Z AUTO 21016KT 17/M14 A2983 RMK T01701140 IEM_DS3505
ZBAA,2001-03-22 08:00,ZBAA 220800Z AUTO 20014KT 1SM RMK IEM_DS3505
ZBAA,2001-03-22 09:00,ZBAA 220900Z AUTO 21010KT 5SM 16/M12 A2977 RMK SLP084 T01641120 57022 IEM_DS3505
ZBAA,2001-03-22 11:00,ZBAA 221100Z AUTO 20006KT 15/M10 A2980 RMK T01501100 IEM_DS3505
ZBAA,2001-03-22 12:00,ZBAA 221200Z AUTO 22012KT 6SM 14/M12 A2983 RMK SLP093 T01381123 52009 IEM_DS3505
ZBAA,2001-03-22 13:00,ZBAA 221300Z AUTO 20010KT 14/M10 A2983 RMK T01401100 IEM_DS3505
ZBAA,2001-03-22 14:00,ZBAA 221400Z AUTO 18006KT 12/M08 A2985 RMK T01201080 IEM_DS3505
ZBAA,2001-03-22 15:00,ZBAA 221500Z AUTO 21002KT 6SM 12/M09 A2985 RMK SLP105 T01151088 52012 IEM_DS3505
ZBAA,2001-03-22 16:00,ZBAA 221600Z AUTO 13002KT 10/M06 A2985 RMK T01001060 IEM_DS3505
ZBAA,2001-03-22 17:00,ZBAA 221700Z AUTO 10004KT 09/M06 A2985 RMK T00901060 IEM_DS3505
ZBAA,2001-03-22 18:00,ZBAA 221800Z AUTO 14004KT 6SM 09/M06 A2985 RMK SLP108 T00861063 52003 IEM_DS3505
ZBAA,2001-03-22 19:00,ZBAA 221900Z AUTO 10002KT 08/M07 A2985 RMK T00801070 IEM_DS3505
ZBAA,2001-03-22 20:00,ZBAA 222000Z AUTO 09002KT 07/M06 A2985 RMK T00701060 IEM_DS3505
ZBAA,2001-03-22 21:00,ZBAA 222100Z AUTO 00000KT 6SM 08/M07 A2985 RMK SLP106 T00811068 57002 IEM_DS3505
ZBAA,2001-03-22 22:00,ZBAA 222200Z AUTO 03002KT 07/M03 A2985 RMK T00701030 IEM_DS3505
ZBAA,2001-03-22 23:00,ZBAA 222300Z AUTO 06002KT 07/M03 A2985 RMK T00701030 IEM_DS3505
ZBAA,2001-03-23 00:00,ZBAA 230000Z AUTO 06002KT 5SM 07/M05 A2985 RMK SLP105 T00731047 57001 IEM_DS3505
ZBAA,2001-03-23 01:00,ZBAA 230100Z AUTO 11004KT 09/M04 A2985 RMK T00901040 IEM_DS3505
ZBAA,2001-03-23 02:00,ZBAA 230200Z AUTO 12006KT 6SM 12/M03 A2983 RMK T01201030 IEM_DS3505
ZBAA,2001-03-23 03:00,ZBAA 230300Z AUTO 13004KT 6SM 14/M06 A2983 RMK SLP097 T01381058 57008 IEM_DS3505
ZBAA,2001-03-23 04:00,ZBAA 230400Z AUTO 14006KT 3SM 15/M03 A2980 RMK T01501030 IEM_DS3505
ZBAA,2001-03-23 05:00,ZBAA 230500Z AUTO 15008KT 3SM 17/M03 A2980 RMK T01701030 IEM_DS3505
ZBAA,2001-03-23 06:00,ZBAA 230600Z AUTO 17006KT 6SM 18/M05 A2974 RMK SLP067 T01811051 57030 IEM_DS3505
ZBAA,2001-03-23 07:00,ZBAA 230700Z AUTO 16010KT 3SM 19/M04 A2971 RMK T01901040 IEM_DS3505
ZBAA,2001-03-23 08:00,ZBAA 230800Z AUTO 17008KT 20/M05 A2971 RMK T02001050 IEM_DS3505
ZBAA,2001-03-23 09:00,ZBAA 230900Z AUTO 19004KT 6SM 20/M07 A2971 RMK SLP050 T02031071 57017 IEM_DS3505
ZBAA,2001-03-23 10:00,ZBAA 231000Z AUTO 13004KT 18/M02 A2971 RMK T01801020 IEM_DS3505
ZBAA,2001-03-23 11:00,ZBAA 231100Z AUTO 11008KT 15/01 A2971 RMK T01500010 IEM_DS3505
ZBAA,2001-03-23 12:00,ZBAA 231200Z AUTO 07004KT 6SM 14/01 A2974 RMK SLP063 T01350009 52013 IEM_DS3505
ZBAA,2001-03-23 13:00,ZBAA 231300Z AUTO 13008KT 6SM 11/00 A2974 RMK T01100000 IEM_DS3505
ZBAA,2001-03-23 14:00,ZBAA 231400Z AUTO 12004KT 6SM 10/00 A2977 RMK T01000000 IEM_DS3505
ZBAA,2001-03-23 15:00,ZBAA 231500Z AUTO 09004KT 6SM 11/01 A2977 RMK SLP072 T01080006 52009 IEM_DS3505
ZBAA,2001-03-23 16:00,ZBAA 231600Z AUTO 08004KT 6SM 10/00 A2977 RMK T01000000 IEM_DS3505
ZBAA,2001-03-23 17:00,ZBAA 231700Z AUTO 03002KT 6SM 10/01 A2977 RMK T01000010 IEM_DS3505
ZBAA,2001-03-23 18:00,ZBAA 231800Z AUTO 05004KT 6SM 10/M01 A2977 RMK SLP076 T00961014 52004 IEM_DS3505
ZBAA,2001-03-23 19:00,ZBAA 231900Z AUTO 6SM 10/00 A2977 RMK T01000000 IEM_DS3505
ZBAA,2001-03-23 20:00,ZBAA 232000Z AUTO 00000KT 6SM 09/00 A2974 RMK T00900000 IEM_DS3505
ZBAA,2001-03-23 21:00,ZBAA 232100Z AUTO 02002KT 6SM 09/M02 A2974 RMK SLP069 T00891023 57007 IEM_DS3505
ZBAA,2001-03-23 22:00,ZBAA 232200Z AUTO 13002KT 08/M01 A2977 RMK T00801010 IEM_DS3505
ZBAA,2001-03-23 23:00,ZBAA 232300Z AUTO 16002KT 08/M01 A2977 RMK T00801010 IEM_DS3505
ZBAA,2001-03-24 00:00,ZBAA 240000Z AUTO 09004KT 6SM 09/M02 A2977 RMK SLP080 T00871017 52011 IEM_DS3505
ZBAA,2001-03-24 01:00,ZBAA 240100Z AUTO 14004KT 3SM 11/00 A2980 RMK T01100000 IEM_DS3505
ZBAA,2001-03-24 02:00,ZBAA 240200Z AUTO 12004KT 3SM 12/M01 A2977 RMK T01201010 IEM_DS3505
ZBAA,2001-03-24 03:00,ZBAA 240300Z AUTO 16002KT 6SM 14/M00 A2974 RMK SLP068 T01441004 57012 IEM_DS3505
ZBAA,2001-03-24 04:00,ZBAA 240400Z AUTO 14006KT 3SM 16/01 A2971 RMK T01600010 IEM_DS3505
ZBAA,2001-03-24 05:00,ZBAA 240500Z AUTO 13008KT 3SM 18/02 A2968 RMK T01800020 IEM_DS3505
ZBAA,2001-03-24 06:00,ZBAA 240600Z AUTO 16004KT 6SM 20/M00 A2965 RMK SLP033 T02041002 57034 IEM_DS3505
ZBAA,2001-03-24 07:00,ZBAA 240700Z AUTO 17008KT 3SM 20/02 A2962 RMK T02000020 IEM_DS3505
ZBAA,2001-03-24 08:00,ZBAA 240800Z AUTO 19002KT 3SM 21/02 A2965 RMK T02100020 IEM_DS3505
ZBAA,2001-03-24 09:00,ZBAA 240900Z AUTO 32010KT 6SM 21/M09 A2965 RMK SLP038 T02111093 52005 IEM_DS3505
ZBAA,2001-03-24 10:00,ZBAA 241000Z AUTO 33017G29KT 19/M06 A2971 RMK T01901060 IEM_DS3505
ZBAA,2001-03-24 11:00,ZBAA 241100Z AUTO 34012KT 6SM 16/M07 A2980 RMK T01601070 IEM_DS3505
ZBAA,2001-03-24 12:00,ZBAA 241200Z AUTO 35010KT 12SM 16/M09 A2985 RMK SLP105 T01571092 52066 IEM_DS3505
ZBAA,2001-03-24 13:00,ZBAA 241300Z AUTO 01010KT 6SM 14/M05 A2991 RMK T01401050 IEM_DS3505
ZBAA,2001-03-24 14:00,ZBAA 241400Z AUTO 01012G21KT 6SM 11/M06 A2997 RMK T01101060 IEM_DS3505
ZBAA,2001-03-24 15:00,ZBAA 241500Z AUTO 33012KT 19SM 11/M15 A3000 RMK SLP156 T01061149 52050 IEM_DS3505
ZBAA,2001-03-24 16:00,ZBAA 241600Z AUTO 36008KT 6SM 08/M09 A3003 RMK T00801090 IEM_DS3505
ZBAA,2001-03-24 17:00,ZBAA 241700Z AUTO 36012KT 6SM 07/M09 A3006 RMK T00701090 IEM_DS3505
ZBAA,2001-03-24 18:00,ZBAA 241800Z AUTO 32008KT 19SM 07/M15 A3009 RMK SLP180 T00731147 52025 IEM_DS3505
ZBAA,2001-03-24 19:00,ZBAA 241900Z AUTO 34006KT 6SM 02/M10 A3009 RMK T00201100 IEM_DS3505
ZBAA,2001-03-24 20:00,ZBAA 242000Z AUTO 01004KT 6SM 04/M11 A3009 RMK T00401110 IEM_DS3505
ZBAA,2001-03-24 21:00,ZBAA 242100Z AUTO 04004KT 19SM 04/M14 A3009 RMK SLP179 T00421135 57001 IEM_DS3505
ZBAA,2001-03-24 22:00,ZBAA 242200Z AUTO 02004KT 6SM 02/M11 A3006 RMK T00201110 IEM_DS3505
ZBAA,2001-03-24 23:00,ZBAA 242300Z AUTO 02006KT 6SM 02/M11 A3009 RMK T00201110 IEM_DS3505
ZBAA,2001-03-25 00:00,ZBAA 250000Z AUTO 04008KT 19SM 04/M13 A3009 RMK SLP183 T00381134 52003 IEM_DS3505
ZBAA,2001-03-25 01:00,ZBAA 250100Z AUTO 03006KT 6SM 05/M12 A3006 RMK T00501120 IEM_DS3505
ZBAA,2001-03-25 02:00,ZBAA 250200Z AUTO 05006KT 6SM 06/M12 A3006 RMK T00601120 IEM_DS3505
ZBAA,2001-03-25 03:00,ZBAA 250300Z AUTO 10004KT 12SM 08/M12 A3000 RMK SLP162 T00851125 57021 IEM_DS3505
ZBAA,2001-03-25 04:00,ZBAA 250400Z AUTO 6SM 09/M13 A3000 RMK T00901130 IEM_DS3505
ZBAA,2001-03-25 05:00,ZBAA 250500Z AUTO 04004KT 6SM 10/M13 A3000 RMK T01001130 IEM_DS3505
ZBAA,2001-03-25 06:00,ZBAA 250600Z AUTO 07004KT 12SM 10/M14 A3000 RMK SLP150 T00951142 57012 IEM_DS3505
ZBAA,2001-03-25 07:00,ZBAA 250700Z AUTO 33008KT 7SM 08/M07 A2997 RMK T00801070 IEM_DS3505
ZBAA,2001-03-25 08:00,ZBAA 250800Z AUTO 33008KT 7SM 09/M07 A2997 RMK T00901070 IEM_DS3505
ZBAA,2001-03-25 09:00,ZBAA 250900Z AUTO 29008KT 12SM 09/M10 A2997 RMK SLP143 T00941096 57007 IEM_DS3505
ZBAA,2001-03-25 10:00,ZBAA 251000Z AUTO 33006KT 7SM 08/M06 A2997 RMK T00801060 IEM_DS3505
ZBAA,2001-03-25 11:00,ZBAA 251100Z AUTO 35010KT 7SM 07/M10 A3000 RMK T00701100 IEM_DS3505
ZBAA,2001-03-25 12:00,ZBAA 251200Z AUTO 36008KT 12SM 07/M12 A3003 RMK SLP162 T00741118 52019 IEM_DS3505
ZBAA,2001-03-25 13:00,ZBAA 251300Z AUTO 35012KT 6SM 05/M13 A3006 RMK T00501130 IEM_DS3505
ZBAA,2001-03-25 14:00,ZBAA 251400Z AUTO 34010KT 6SM 04/M14 A3006 RMK T00401140 IEM_DS3505
ZBAA,2001-03-25 15:00,ZBAA 251500Z AUTO 00000KT 16SM 05/M15 A3006 RMK SLP180 T00531152 52018 IEM_DS3505
ZBAA,2001-03-25 16:00,ZBAA 251600Z AUTO 34008KT 6SM 02/M15 A3006 RMK T00201150 IEM_DS3505
ZBAA,2001-03-25 17:00,ZBAA 251700Z AUTO 34004KT 6SM 02/M15 A3006 RMK T00201150 IEM_DS3505
ZBAA,2001-03-25 18:00,ZBAA 251800Z AUTO 08002KT 12SM 02/M17 A3006 RMK SLP179 T00201169 57001 IEM_DS3505
ZBAA,2001-03-25 19:00,ZBAA 251900Z AUTO 03002KT 6SM 00/M11 A3006 RMK T00001110 IEM_DS3505
ZBAA,2001-03-25 20:00,ZBAA 252000Z AUTO 08004KT 12SM 00/M15 A3003 RMK T00051146 57013 IEM_DS3505
ZBAA,2001-03-25 21:00,ZBAA 252100Z AUTO 08004KT 12SM 00/M15 A3003 RMK SLP166 T00051146 57013 IEM_DS3505
ZBAA,2001-03-25 22:00,ZBAA 252200Z AUTO 00000KT 6SM M01/M08 A3003 RMK T10101080 IEM_DS3505
ZBAA,2001-03-25 23:00,ZBAA 252300Z AUTO 00000KT 6SM M01/M10 A3003 RMK T10101100 IEM_DS3505
ZBAA,2001-03-26 00:00,ZBAA 260000Z AUTO 23004KT 12SM 03/M14 A3003 RMK SLP171 T00321144 52005 IEM_DS3505
ZBAA,2001-03-26 01:00,ZBAA 260100Z AUTO 18006KT 6SM 05/M14 A3003 RMK T00501140 IEM_DS3505
ZBAA,2001-03-26 02:00,ZBAA 260200Z AUTO 19008G29KT 6SM 06/M15 A3000 RMK T00601150 IEM_DS3505
ZBAA,2001-03-26 03:00,ZBAA 260300Z AUTO 21008G21KT 12SM 07/M15 A2997 RMK SLP150 T00731153 57021 IEM_DS3505
ZBAA,2001-03-26 04:00,ZBAA 260400Z AUTO 20012G23KT 6SM 08/M15 A2994 RMK T00801150 IEM_DS3505
ZBAA,2001-03-26 05:00,ZBAA 260500Z AUTO 20010KT 6SM 09/M14 A2991 RMK T00901140 IEM_DS3505
ZBAA,2001-03-26 06:00,ZBAA 260600Z AUTO 27008KT 12SM 11/M14 A2988 RMK SLP116 T01101145 57034 IEM_DS3505
ZBAA,2001-03-26 07:00,ZBAA 260700Z AUTO 6SM 11/M13 A2985 RMK T01101130 IEM_DS3505
ZBAA,2001-03-26 08:00,ZBAA 260800Z AUTO 33006KT 6SM 11/M13 A2985 RMK T01101130 IEM_DS3505
ZBAA,2001-03-26 09:00,ZBAA 260900Z AUTO 33012G27KT 12SM 10/M18 A2988 RMK SLP119 T01031177 52003 IEM_DS3505
ZBAA,2001-03-26 10:00,ZBAA 261000Z AUTO 01010G19KT 6SM 09/M11 A2991 RMK T00901110 IEM_DS3505
ZBAA,2001-03-26 11:00,ZBAA 261100Z AUTO 03012KT 6SM 06/M14 A2997 RMK T00601140 IEM_DS3505
ZBAA,2001-03-26 12:00,ZBAA 261200Z AUTO 35010G23KT 12SM 06/M18 A3003 RMK SLP167 T00631176 52048 IEM_DS3505
ZBAA,2001-03-26 13:00,ZBAA 261300Z AUTO 35014KT 6SM 03/M20 A3009 RMK T00301200 IEM_DS3505
ZBAA,2001-03-26 14:00,ZBAA 261400Z AUTO 36012KT 6SM 02/M18 A3012 RMK T00201180 IEM_DS3505
ZBAA,2001-03-26 15:00,ZBAA 261500Z AUTO 00000KT 12SM 02/M23 A3015 RMK SLP201 T00231232 52033 IEM_DS3505
ZBAA,2001-03-26 16:00,ZBAA 261600Z AUTO 01010KT 6SM 01/M19 A3015 RMK T00101190 IEM_DS3505
ZBAA,2001-03-26 17:00,ZBAA 261700Z AUTO 04006KT 6SM 00/M20 A3018 RMK T00001200 IEM_DS3505
ZBAA,2001-03-26 18:00,ZBAA 261800Z AUTO 03008KT 9SM 00/M22 A3018 RMK SLP212 T00051223 52012 IEM_DS3505
ZBAA,2001-03-26 19:00,ZBAA 261900Z AUTO 35008KT 6SM M01/M19 A3015 RMK T10101190 IEM_DS3505
ZBAA,2001-03-26 20:00,ZBAA 262000Z AUTO 36004KT 6SM M01/M19 A3015 RMK T10101190 IEM_DS3505
ZBAA,2001-03-26 21:00,ZBAA 262100Z AUTO 35008KT 9SM 01/M24 A3015 RMK SLP198 T00071244 57014 IEM_DS3505
ZBAA,2001-03-26 22:00,ZBAA 262200Z AUTO 36004KT 6SM M01/M18 A3012 RMK T10101180 IEM_DS3505
ZBAA,2001-03-26 23:00,ZBAA 262300Z AUTO 02002KT 6SM 00/M18 A3015 RMK T00001180 IEM_DS3505
ZBAA,2001-03-27 00:00,ZBAA 270000Z AUTO 34010KT 12SM 01/M25 A3015 RMK SLP208 T00141247 52009 IEM_DS3505
ZBAA,2001-03-27 01:00,ZBAA 270100Z AUTO 34006KT 6SM 02/M23 A3015 RMK T00201230 IEM_DS3505
ZBAA,2001-03-27 02:00,ZBAA 270200Z AUTO 32010G21KT 6SM 03/M23 A3015 RMK T00301230 IEM_DS3505
ZBAA,2001-03-27 03:00,ZBAA 270300Z AUTO 33010G19KT 19SM 04/M24 A3012 RMK SLP202 T00421235 57006 IEM_DS3505
ZBAA,2001-03-27 04:00,ZBAA 270400Z AUTO 35010KT 6SM RMK IEM_DS3505
ZBAA,2001-03-27 05:00,ZBAA 270500Z AUTO 35014G23KT 6SM 07/M23 A3009 RMK T00701230 IEM_DS3505
ZBAA,2001-03-27 06:00,ZBAA 270600Z AUTO 30016KT 19SM 06/M23 A3006 RMK SLP178 T00651228 57024 IEM_DS3505
ZBAA,2001-03-27 07:00,ZBAA 270700Z AUTO 32016G25KT 6SM 08/M23 A3003 RMK T00801230 IEM_DS3505
ZBAA,2001-03-27 08:00,ZBAA 270800Z AUTO 31019KT 6SM 08/M23 A3000 RMK T00801230 IEM_DS3505
ZBAA,2001-03-27 09:00,ZBAA 270900Z AUTO 30010KT 19SM 08/M23 A3003 RMK SLP168 T00751232 57010 IEM_DS3505
ZBAA,2001-03-27 10:00,ZBAA 271000Z AUTO 32014KT 6SM 07/M22 A3003 RMK T00701220 IEM_DS3505
ZBAA,2001-03-27 11:00,ZBAA 271100Z AUTO 31010KT 6SM 06/M22 A3003 RMK T00601220 IEM_DS3505
ZBAA,2001-03-27 12:00,ZBAA 271200Z AUTO 29006KT 12SM 06/M22 A3006 RMK SLP182 T00561224 52014 IEM_DS3505
ZBAA,2001-03-27 13:00,ZBAA 271300Z AUTO 30006KT 6SM 05/M22 A3009 RMK T00501220 IEM_DS3505
ZBAA,2001-03-27 14:00,ZBAA 271400Z AUTO 33008KT 6SM 05/M22 A3009 RMK T00501220 IEM_DS3505
ZBAA,2001-03-27 15:00,ZBAA 271500Z AUTO 34002KT 9SM 04/M23 A3012 RMK SLP194 T00451233 52012 IEM_DS3505
ZBAA,2001-03-27 16:00,ZBAA 271600Z AUTO 32010KT 6SM 03/M22 A3012 RMK T00301220 IEM_DS3505
ZBAA,2001-03-27 17:00,ZBAA 271700Z AUTO 35004KT 6SM 01/M19 A3012 RMK T00101190 IEM_DS3505
ZBAA,2001-03-27 18:00,ZBAA 271800Z AUTO 34002KT 12SM 03/M22 A3009 RMK SLP192 T00341223 57001 IEM_DS3505
ZBAA,2001-03-27 19:00,ZBAA 271900Z AUTO 31006KT 6SM 02/M20 A3009 RMK T00201200 IEM_DS3505
ZBAA,2001-03-27 20:00,ZBAA 272000Z AUTO 22002KT 6SM M01/M14 A3009 RMK T10101140 IEM_DS3505
ZBAA,2001-03-27 21:00,ZBAA 272100Z AUTO 01002KT 9SM 01/M20 A3009 RMK SLP184 T00091200 57009 IEM_DS3505
ZBAA,2001-03-27 22:00,ZBAA 272200Z AUTO 31006KT 6SM 00/M18 A3009 RMK T00001180 IEM_DS3505
ZBAA,2001-03-27 23:00,ZBAA 272300Z AUTO 31004KT 6SM M01/M16 A3009 RMK T10101160 IEM_DS3505
ZBAA,2001-03-28 00:00,ZBAA 280000Z AUTO 34006KT 12SM 04/M22 A3009 RMK SLP183 T00421225 54000 IEM_DS3505
ZBAA,2001-03-28 01:00,ZBAA 280100Z AUTO 01004KT 6SM 05/M19 A3009 RMK T00501190 IEM_DS3505
ZBAA,2001-03-28 02:00,ZBAA 280200Z AUTO 6SM 06/M19 A3006 RMK T00601190 IEM_DS3505
ZBAA,2001-03-28 03:00,ZBAA 280300Z AUTO 30004KT 12SM 08/M23 A3006 RMK SLP176 T00771230 57007 IEM_DS3505
ZBAA,2001-03-28 04:00,ZBAA 280400Z AUTO 34008KT 6SM 08/M22 A3003 RMK T00801220 IEM_DS3505
ZBAA,2001-03-28 05:00,ZBAA 280500Z AUTO 31014KT 6SM 08/M23 A3000 RMK T00801230 IEM_DS3505
ZBAA,2001-03-28 06:00,ZBAA 280600Z AUTO 17004G19KT 19SM 08/M23 A3000 RMK SLP156 T00821227 57020 IEM_DS3505
ZBAA,2001-03-28 07:00,ZBAA 280700Z AUTO 31012G23KT 6SM 09/M20 A2997 RMK T00901200 IEM_DS3505
ZBAA,2001-03-28 08:00,ZBAA 280800Z AUTO 26010KT 6SM 09/M19 A2997 RMK T00901190 IEM_DS3505
ZBAA,2001-03-28 09:00,ZBAA 280900Z AUTO 31006KT 16SM 08/M20 A2997 RMK SLP153 T00821204 57003 IEM_DS3505
ZBAA,2001-03-28 10:00,ZBAA 281000Z AUTO 30012KT 6SM 08/M18 A3000 RMK T00801180 IEM_DS3505
ZBAA,2001-03-28 11:00,ZBAA 281100Z AUTO 28008KT 6SM 07/M17 A3000 RMK T00701170 IEM_DS3505
ZBAA,2001-03-28 12:00,ZBAA 281200Z AUTO 34002G21KT 7SM 07/M19 A3003 RMK SLP171 T00711193 52018 IEM_DS3505
ZBAA,2001-03-28 13:00,ZBAA 281300Z AUTO 35008KT 6SM 05/M20 A3006 RMK T00501200 IEM_DS3505
ZBAA,2001-03-28 14:00,ZBAA 281400Z AUTO 34004KT 6SM 03/M18 A3006 RMK T00301180 IEM_DS3505
ZBAA,2001-03-28 15:00,ZBAA 281500Z AUTO 00000KT 6SM 03/M20 A3003 RMK SLP174 T00341199 52002 IEM_DS3505
ZBAA,2001-03-28 16:00,ZBAA 281600Z AUTO 20002KT 6SM 02/M17 A3000 RMK T00201170 IEM_DS3505
ZBAA,2001-03-28 17:00,ZBAA 281700Z AUTO 21004KT 6SM 02/M17 A3000 RMK T00201170 IEM_DS3505
ZBAA,2001-03-28 18:00,ZBAA 281800Z AUTO 21004KT 6SM 01/M14 A2997 RMK SLP146 T00071140 57027 IEM_DS3505
ZBAA,2001-03-28 19:00,ZBAA 281900Z AUTO 01002KT 6SM M01/M11 A2994 RMK T10101110 IEM_DS3505
ZBAA,2001-03-28 20:00,ZBAA 282000Z AUTO 11002KT 6SM M02/M10 A2991 RMK T10201100 IEM_DS3505
ZBAA,2001-03-28 21:00,ZBAA 282100Z AUTO 18002KT 6SM 01/M17 A2988 RMK SLP114 T00071170 57032 IEM_DS3505
ZBAA,2001-03-28 22:00,ZBAA 282200Z AUTO 00000KT 6SM M02/M08 A2985 RMK T10201080 IEM_DS3505
ZBAA,2001-03-28 23:00,ZBAA 282300Z AUTO 01002KT 5SM M01/M09 A2985 RMK T10101090 IEM_DS3505
ZBAA,2001-03-29 00:00,ZBAA 290000Z AUTO 27002KT 6SM 03/M16 A2983 RMK SLP098 T00341157 57016 IEM_DS3505
ZBAA,2001-03-29 01:00,ZBAA 290100Z AUTO 6SM 04/M12 A2983 RMK T00401120 IEM_DS3505
ZBAA,2001-03-29 02:00,ZBAA 290200Z AUTO 6SM 07/M13 A2983 RMK T00701130 IEM_DS3505
ZBAA,2001-03-29 03:00,ZBAA 290300Z AUTO 01004KT 12SM 11/M18 A2980 RMK SLP087 T01141179 57011 IEM_DS3505
ZBAA,2001-03-29 04:00,ZBAA 290400Z AUTO 31008KT 6SM 12/M17 A2977 RMK T01201170 IEM_DS3505
ZBAA,2001-03-29 05:00,ZBAA 290500Z AUTO 02008KT 6SM 13/M15 A2977 RMK T01301150 IEM_DS3505
ZBAA,2001-03-29 06:00,ZBAA 290600Z AUTO 34006KT 12SM 13/M19 A2977 RMK SLP072 T01301190 57015 IEM_DS3505
ZBAA,2001-03-29 07:00,ZBAA 290700Z AUTO 05006KT 6SM 13/M16 A2977 RMK T01301160 IEM_DS3505
ZBAA,2001-03-29 08:00,ZBAA 290800Z AUTO 03010KT 6SM 11/M19 A2977 RMK T01101190 IEM_DS3505
ZBAA,2001-03-29 09:00,ZBAA 290900Z AUTO 05008KT 12SM 11/M21 A2980 RMK SLP090 T01061208 52018 IEM_DS3505
ZBAA,2001-03-29 10:00,ZBAA 291000Z AUTO 03008KT 6SM 10/M18 A2983 RMK T01001180 IEM_DS3505
ZBAA,2001-03-29 11:00,ZBAA 291100Z AUTO 04006KT 6SM 08/M18 A2985 RMK T00801180 IEM_DS3505
ZBAA,2001-03-29 12:00,ZBAA 291200Z AUTO 07006KT 12SM 08/M21 A2988 RMK SLP123 T00771208 52033 IEM_DS3505
ZBAA,2001-03-29 13:00,ZBAA 291300Z AUTO 02004KT 6SM 06/M14 A2994 RMK T00601140 IEM_DS3505
ZBAA,2001-03-29 14:00,ZBAA 291400Z AUTO 05004KT 7SM 05/M11 A2997 RMK T00501110 IEM_DS3505
ZBAA,2001-03-29 15:00,ZBAA 291500Z AUTO 11004KT 12SM 04/M12 A3003 RMK SLP165 T00371122 52041 IEM_DS3505
ZBAA,2001-03-29 16:00,ZBAA 291600Z AUTO 07002KT 6SM 03/M09 A3003 RMK T00301090 IEM_DS3505
ZBAA,2001-03-29 17:00,ZBAA 291700Z AUTO 27002KT 6SM 03/M09 A3006 RMK T00301090 IEM_DS3505
ZBAA,2001-03-29 18:00,ZBAA 291800Z AUTO 00000KT 6SM 02/M11 A3006 RMK SLP177 T00161111 52013 IEM_DS3505
ZBAA,2001-03-29 19:00,ZBAA 291900Z AUTO 35002KT 6SM 02/M09 A3006 RMK T00201090 IEM_DS3505
ZBAA,2001-03-29 20:00,ZBAA 292000Z AUTO 36002KT 6SM 02/M09 A3006 RMK T00201090 IEM_DS3505
ZBAA,2001-03-29 21:00,ZBAA 292100Z AUTO 02002KT 7SM 02/M11 A3009 RMK SLP183 T00251110 52006 IEM_DS3505
ZBAA,2001-03-29 22:00,ZBAA 292200Z AUTO 36004KT 6SM 01/M09 A3009 RMK T00101090 IEM_DS3505
ZBAA,2001-03-29 23:00,ZBAA 292300Z AUTO 35006KT 6SM 01/M08 A3012 RMK T00101080 IEM_DS3505
ZBAA,2001-03-30 00:00,ZBAA 300000Z AUTO 03006KT 19SM 05/M13 A3012 RMK SLP200 T00531126 52017 IEM_DS3505
ZBAA,2001-03-30 01:00,ZBAA 300100Z AUTO 02006KT 6SM 06/M11 A3015 RMK T00601110 IEM_DS3505
ZBAA,2001-03-30 02:00,ZBAA 300200Z AUTO 6SM 07/M12 A3015 RMK T00701120 IEM_DS3505
ZBAA,2001-03-30 03:00,ZBAA 300300Z AUTO 06008KT 19SM 08/M15 A3015 RMK SLP205 T00841151 52005 IEM_DS3505
ZBAA,2001-03-30 04:00,ZBAA 300400Z AUTO 6SM 09/M14 A3012 RMK T00901140 IEM_DS3505
ZBAA,2001-03-30 05:00,ZBAA 300500Z AUTO 6SM 10/M15 A3012 RMK T01001150 IEM_DS3505
ZBAA,2001-03-30 06:00,ZBAA 300600Z AUTO 07008KT 19SM 10/M17 A3009 RMK SLP186 T01051166 57019 IEM_DS3505
ZBAA,2001-03-30 07:00,ZBAA 300700Z AUTO 11006KT 6SM 11/M17 A3009 RMK T01101170 IEM_DS3505
ZBAA,2001-03-30 08:00,ZBAA 300800Z AUTO 10004KT 6SM 11/M18 A3006 RMK T01101180 IEM_DS3505
ZBAA,2001-03-30 09:00,ZBAA 300900Z AUTO 10002KT 19SM 10/M17 A3009 RMK SLP188 T01051166 52002 IEM_DS3505
ZBAA,2001-03-30 10:00,ZBAA 301000Z AUTO 09002KT 6SM 10/M18 A3009 RMK T01001180 IEM_DS3505
ZBAA,2001-03-30 11:00,ZBAA 301100Z AUTO 15002KT 6SM 08/M17 A3012 RMK T00801170 IEM_DS3505
ZBAA,2001-03-30 12:00,ZBAA 301200Z AUTO 16002KT 12SM 08/M15 A3015 RMK SLP213 T00801148 52025 IEM_DS3505
ZBAA,2001-03-30 14:00,ZBAA 301400Z AUTO 13002KT 6SM 06/M13 A3021 RMK T00601130 IEM_DS3505
ZBAA,2001-03-30 15:00,ZBAA 301500Z AUTO 16004KT 11SM 05/M12 A3024 RMK SLP238 T00521122 52024 IEM_DS3505
ZBAA,2001-03-30 16:00,ZBAA 301600Z AUTO 14004KT 6SM 02/M12 A3024 RMK T00201120 IEM_DS3505
ZBAA,2001-03-30 17:00,ZBAA 301700Z AUTO 09002KT 6SM 02/M10 A3027 RMK T00201100 IEM_DS3505
ZBAA,2001-03-30 18:00,ZBAA 301800Z AUTO 30002KT 9SM 04/M10 A3027 RMK SLP250 T00401097 52013 IEM_DS3505
ZBAA,2001-03-30 19:00,ZBAA 301900Z AUTO 04002KT 6SM 01/M07 A3030 RMK T00101070 IEM_DS3505
ZBAA,2001-03-30 20:00,ZBAA 302000Z AUTO 35004KT 6SM 00/M11 A3030 RMK T00001110 IEM_DS3505
ZBAA,2001-03-30 21:00,ZBAA 302100Z AUTO 03002KT 6SM 00/M08 A3030 RMK SLP253 T00031081 52002 IEM_DS3505
ZBAA,2001-03-30 22:00,ZBAA 302200Z AUTO 33008KT 6SM 00/M13 A3030 RMK T00001130 IEM_DS3505
ZBAA,2001-03-30 23:00,ZBAA 302300Z AUTO 33006KT 6SM 03/M14 A3033 RMK T00301140 IEM_DS3505
ZBAA,2001-03-31 00:00,ZBAA 310000Z AUTO 01002KT 16SM 06/M16 A3033 RMK SLP269 T00601158 52016 IEM_DS3505
ZBAA,2001-03-31 01:00,ZBAA 310100Z AUTO 01004KT 6SM 07/M16 A3033 RMK T00701160 IEM_DS3505
ZBAA,2001-03-31 02:00,ZBAA 310200Z AUTO 31006KT 6SM 09/M16 A3033 RMK T00901160 IEM_DS3505
ZBAA,2001-03-31 03:00,ZBAA 310300Z AUTO 33006KT 12SM 10/M18 A3030 RMK SLP258 T01031177 57010 IEM_DS3505
ZBAA,2001-03-31 04:00,ZBAA 310400Z AUTO 33006KT 6SM 11/M17 A3027 RMK T01101170 IEM_DS3505
ZBAA,2001-03-31 05:00,ZBAA 310500Z AUTO 32010KT 6SM 13/M19 A3021 RMK T01301190 IEM_DS3505
ZBAA,2001-03-31 06:00,ZBAA 310600Z AUTO 28004KT 16SM 13/M16 A3018 RMK SLP225 T01341163 57033 IEM_DS3505
ZBAA,2001-03-31 07:00,ZBAA 310700Z AUTO 22010KT 6SM 15/M18 A3015 RMK T01501180 IEM_DS3505
ZBAA,2001-03-31 08:00,ZBAA 310800Z AUTO 22010KT 6SM 15/M18 A3012 RMK T01501180 IEM_DS3505
ZBAA,2001-03-31 09:00,ZBAA 310900Z AUTO 22006KT 16SM 14/M14 A3012 RMK SLP200 T01441136 57025 IEM_DS3505
ZBAA,2001-03-31 10:00,ZBAA 311000Z AUTO 20010KT 6SM 14/M11 A3012 RMK T01401110 IEM_DS3505
ZBAA,2001-03-31 11:00,ZBAA 311100Z AUTO 20008G21KT 6SM 13/M09 A3012 RMK T01301090 IEM_DS3505
ZBAA,2001-03-31 12:00,ZBAA 311200Z AUTO 21004KT 7SM 12/M07 A3012 RMK SLP198 T01151073 57002 IEM_DS3505
ZBAA,2001-03-31 13:00,ZBAA 311300Z AUTO 19006KT 6SM 10/M05 A3009 RMK T01001050 IEM_DS3505
ZBAA,2001-03-31 14:00,ZBAA 311400Z AUTO 19006KT 6SM 11/M04 A3009 RMK T01101040 IEM_DS3505
ZBAA,2001-03-31 15:00,ZBAA 311500Z AUTO 22008KT 6SM 10/M05 A3009 RMK SLP189 T00971053 57009 IEM_DS3505
ZBAA,2001-03-31 16:00,ZBAA 311600Z AUTO 20006KT 6SM 10/M04 A3006 RMK T01001040 IEM_DS3505
ZBAA,2001-03-31 18:00,ZBAA 311800Z AUTO 22008KT 9SM 10/M02 A3003 RMK SLP171 T00961017 57017 IEM_DS3505
ZBAA,2001-03-31 19:00,ZBAA 311900Z AUTO 04002KT 6SM 05/M01 A3003 RMK T00501010 IEM_DS3505
ZBAA,2001-03-31 20:00,ZBAA 312000Z AUTO 05002KT 04/M02 A3000 RMK T00401020 IEM_DS3505
ZBAA,2001-03-31 21:00,ZBAA 312100Z AUTO 20004KT 6SM 06/M01 A3000 RMK SLP154 T00601014 57018 IEM_DS3505
ZBAA,2001-03-31 22:00,ZBAA 312200Z AUTO 00000KT 4SM 02/M02 A2997 RMK T00201020 IEM_DS3505
ZBAA,2001-03-31 23:00,ZBAA 312300Z AUTO 36004KT 4SM 03/M01 A2997 RMK T00301010 IEM_DS3505
ZBAA,2001-04-01 00:00,ZBAA 010000Z AUTO 20004KT 5SM 07/M00 A2997 RMK SLP149 T00701004 57005 IEM_DS3505
ZBAA,2001-04-01 01:00,ZBAA 010100Z AUTO 00000KT 2 1/2SM 08/02 A2997 RMK T00800020 IEM_DS3505
ZBAA,2001-04-01 02:00,ZBAA 010200Z AUTO 14004KT 2 1/2SM 11/01 A2994 RMK T01100010 IEM_DS3505
ZBAA,2001-04-01 03:00,ZBAA 010300Z AUTO 20006KT 6SM 14/M00 A2991 RMK SLP129 T01351005 57020 IEM_DS3505
ZBAA,2001-04-01 04:00,ZBAA 010400Z AUTO 19008KT 2 1/2SM 16/00 A2985 RMK T01600000 IEM_DS3505
ZBAA,2001-04-01 05:00,ZBAA 010500Z AUTO 21006KT 3SM 18/00 A2983 RMK T01800000 IEM_DS3505
ZBAA,2001-04-01 06:00,ZBAA 010600Z AUTO 20008KT 6SM 20/M01 A2977 RMK SLP080 T02031009 57048 IEM_DS3505
ZBAA,2001-04-01 07:00,ZBAA 010700Z AUTO 22006KT 3SM 21/01 A2974 RMK T02100010 IEM_DS3505
ZBAA,2001-04-01 08:00,ZBAA 010800Z AUTO 22008KT 3SM 22/01 A2971 RMK T02200010 IEM_DS3505
ZBAA,2001-04-01 09:00,ZBAA 010900Z AUTO 22012KT 6SM 21/M01 A2968 RMK SLP048 T02141011 57032 IEM_DS3505
ZBAA,2001-04-01 10:00,ZBAA 011000Z AUTO 20006KT 3SM 21/02 A2968 RMK T02100020 IEM_DS3505
ZBAA,2001-04-01 11:00,ZBAA 011100Z AUTO 17002KT 2 1/2SM 18/02 A2968 RMK T01800020 IEM_DS3505
ZBAA,2001-04-01 12:00,ZBAA 011200Z AUTO 21004KT 6SM 18/02 A2968 RMK SLP046 T01760020 57002 IEM_DS3505
ZBAA,2001-04-01 13:00,ZBAA 011300Z AUTO 08002KT 2 1/2SM 15/05 A2968 RMK T01500050 IEM_DS3505
ZBAA,2001-04-01 14:00,ZBAA 011400Z AUTO 13004KT 2 1/2SM 12/04 A2968 RMK T01200040 IEM_DS3505
ZBAA,2001-04-01 15:00,ZBAA 011500Z AUTO 14002KT 6SM 13/04 A2971 RMK SLP056 T01330037 52010 IEM_DS3505
ZBAA,2001-04-01 16:00,ZBAA 011600Z AUTO 35004KT 2 1/2SM 10/03 A2971 RMK T01000030 IEM_DS3505
ZBAA,2001-04-01 17:00,ZBAA 011700Z AUTO 36006KT 2SM 10/03 A2974 RMK T01000030 IEM_DS3505
ZBAA,2001-04-01 18:00,ZBAA 011800Z AUTO 00000KT 4SM 12/02 A2974 RMK SLP068 T01170025 52013 IEM_DS3505
ZBAA,2001-04-01 19:00,ZBAA 011900Z AUTO 35008KT 2 1/2SM 09/01 A2977 RMK T00900010 IEM_DS3505
ZBAA,2001-04-01 20:00,ZBAA 012000Z AUTO 36004KT 2 1/2SM 11/01 A2977 RMK T01100010 IEM_DS3505
ZBAA,2001-04-01 21:00,ZBAA 012100Z AUTO 04006KT 7SM 11/02 A2983 RMK SLP090 T01100016 52021 IEM_DS3505
ZBAA,2001-04-01 22:00,ZBAA 012200Z AUTO 05004KT 2 1/2SM 09/03 A2988 RMK T00900030 IEM_DS3505
ZBAA,2001-04-01 23:00,ZBAA 012300Z AUTO 11008KT 11/00 A2994 RMK T01100000 IEM_DS3505
ZBAA,2001-04-02 00:00,ZBAA 020000Z AUTO 12008KT 12SM 10/M03 A2997 RMK SLP149 T01031030 52059 IEM_DS3505
ZBAA,2001-04-02 01:00,ZBAA 020100Z AUTO 17006KT 13/M01 A3000 RMK T01301010 IEM_DS3505
ZBAA,2001-04-02 02:00,ZBAA 020200Z AUTO 22004KT 5SM 14/M01 A3003 RMK T01401010 IEM_DS3505
ZBAA,2001-04-02 03:00,ZBAA 020300Z AUTO 17004KT 9SM 15/M03 A3000 RMK SLP163 T01501028 52014 IEM_DS3505
ZBAA,2001-04-02 04:00,ZBAA 020400Z AUTO 6SM 17/M03 A3000 RMK T01701030 IEM_DS3505
ZBAA,2001-04-02 05:00,ZBAA 020500Z AUTO 08004KT 6SM 19/M03 A2997 RMK T01901030 IEM_DS3505
ZBAA,2001-04-02 06:00,ZBAA 020600Z AUTO 22006KT 12SM 18/M03 A2994 RMK SLP144 T01811033 57019 IEM_DS3505
ZBAA,2001-04-02 07:00,ZBAA 020700Z AUTO 6SM 19/M03 A2994 RMK T01901030 IEM_DS3505
ZBAA,2001-04-02 08:00,ZBAA 020800Z AUTO 19006KT 6SM 19/M01 A2994 RMK T01901010 IEM_DS3505
ZBAA,2001-04-02 09:00,ZBAA 020900Z AUTO 21006KT 12SM 18/M04 A2994 RMK SLP138 T01801040 57006 IEM_DS3505
ZBAA,2001-04-02 10:00,ZBAA 021000Z AUTO 21006KT 6SM 18/M01 A2994 RMK T01801010 IEM_DS3505
ZBAA,2001-04-02 11:00,ZBAA 021100Z AUTO 17012KT 6SM 14/M02 A3000 RMK T01401020 IEM_DS3505
ZBAA,2001-04-02 12:00,ZBAA 021200Z AUTO 14008G19KT 9SM 10/M06 A3006 RMK SLP181 T01001063 52042 IEM_DS3505
ZBAA,2001-04-02 13:00,ZBAA 021300Z AUTO 12008KT 6SM 09/M05 A3012 RMK T00901050 IEM_DS3505
ZBAA,2001-04-02 14:00,ZBAA 021400Z AUTO 09004KT 6SM 08/M05 A3018 RMK T00801050 IEM_DS3505
ZBAA,2001-04-02 15:00,ZBAA 021500Z AUTO 07004KT 6SM 07/M07 A3018 RMK SLP220 T00701074 52039 IEM_DS3505
ZBAA,2001-04-02 16:00,ZBAA 021600Z AUTO 00000KT 6SM 06/M04 A3021 RMK T00601040 IEM_DS3505
ZBAA,2001-04-02 17:00,ZBAA 021700Z AUTO 00000KT 6SM 04/M04 A3021 RMK T00401040 IEM_DS3505
ZBAA,2001-04-02 18:00,ZBAA 021800Z AUTO 00000KT 12SM 05/M06 A3021 RMK SLP231 T00471065 52011 IEM_DS3505
ZBAA,2001-04-02 19:00,ZBAA 021900Z AUTO 00000KT 6SM 04/M07 A3024 RMK T00401070 IEM_DS3505
ZBAA,2001-04-02 20:00,ZBAA 022000Z AUTO 6SM 04/M06 A3024 RMK T00401060 IEM_DS3505
ZBAA,2001-04-02 21:00,ZBAA 022100Z AUTO 00000KT 7SM 04/M07 A3024 RMK SLP239 T00391066 52008 IEM_DS3505
ZBAA,2001-04-02 22:00,ZBAA 022200Z AUTO 36004KT 6SM 03/M05 A3024 RMK T00301050 IEM_DS3505
ZBAA,2001-04-02 23:00,ZBAA 022300Z AUTO 32004KT 6SM 04/M04 A3027 RMK T00401040 IEM_DS3505
ZBAA,2001-04-03 00:00,ZBAA 030000Z AUTO 04002KT 5SM 08/M07 A3030 RMK SLP257 T00771067 52018 IEM_DS3505
ZBAA,2001-04-03 01:00,ZBAA 030100Z AUTO 6SM 10/M05 A3030 RMK T01001050 IEM_DS3505
ZBAA,2001-04-03 02:00,ZBAA 030200Z AUTO 6SM 12/M07 A3030 RMK T01201070 IEM_DS3505
ZBAA,2001-04-03 03:00,ZBAA 030300Z AUTO 22008KT 12SM 13/M10 A3030 RMK SLP253 T01321098 57004 IEM_DS3505
ZBAA,2001-04-03 04:00,ZBAA 030400Z AUTO 22008KT 6SM 14/M09 A3024 RMK T01401090 IEM_DS3505
ZBAA,2001-04-03 05:00,ZBAA 030500Z AUTO 20010KT 6SM 15/M10 A3021 RMK T01501100 IEM_DS3505
ZBAA,2001-04-03 06:00,ZBAA 030600Z AUTO 20010KT 9SM 16/M12 A3018 RMK SLP220 T01591115 57033 IEM_DS3505
ZBAA,2001-04-03 07:00,ZBAA 030700Z AUTO 21012KT 6SM 16/M10 A3015 RMK T01601100 IEM_DS3505
ZBAA,2001-04-03 08:00,ZBAA 030800Z AUTO 21010KT 6SM 17/M08 A3012 RMK T01701080 IEM_DS3505
ZBAA,2001-04-03 09:00,ZBAA 030900Z AUTO 22008KT 9SM 16/M09 A3012 RMK SLP199 T01571092 57021 IEM_DS3505
ZBAA,2001-04-03 10:00,ZBAA 031000Z AUTO 18008KT 6SM 15/M07 A3012 RMK T01501070 IEM_DS3505
ZBAA,2001-04-03 11:00,ZBAA 031100Z AUTO 18008KT 6SM 13/M06 A3012 RMK T01301060 IEM_DS3505
ZBAA,2001-04-03 12:00,ZBAA 031200Z AUTO 18004KT 7SM 13/M07 A3015 RMK SLP211 T01281072 52012 IEM_DS3505
ZBAA,2001-04-03 13:00,ZBAA 031300Z AUTO 13004KT 6SM 11/M04 A3015 RMK T01101040 IEM_DS3505
ZBAA,2001-04-03 15:00,ZBAA 031500Z AUTO 14006KT 7SM 09/M06 A3015 RMK SLP209 T00901060 57002 IEM_DS3505
ZBAA,2001-04-03 16:00,ZBAA 031600Z AUTO 13004KT 6SM 08/M02 A3015 RMK T00801020 IEM_DS3505
ZBAA,2001-04-03 17:00,ZBAA 031700Z AUTO 13004KT 6SM 07/M01 A3015 RMK T00701010 IEM_DS3505
ZBAA,2001-04-03 18:00,ZBAA 031800Z AUTO 16004KT 7SM 07/M06 A3012 RMK SLP198 T00741059 57011 IEM_DS3505
ZBAA,2001-04-03 19:00,ZBAA 031900Z AUTO 11004KT 6SM 06/M01 A3009 RMK T00601010 IEM_DS3505
ZBAA,2001-04-03 20:00,ZBAA 032000Z AUTO 09002KT 6SM 06/M02 A3009 RMK T00601020 IEM_DS3505
ZBAA,2001-04-03 21:00,ZBAA 032100Z AUTO 14006KT 7SM 06/M05 A3006 RMK SLP181 T00581049 57017 IEM_DS3505
ZBAA,2001-04-03 22:00,ZBAA 032200Z AUTO 12002KT 6SM 03/M02 A3009 RMK T00301020 IEM_DS3505
ZBAA,2001-04-03 23:00,ZBAA 032300Z AUTO 13004KT 5SM 05/M01 A3009 RMK T00501010 IEM_DS3505
ZBAA,2001-04-04 00:00,ZBAA 040000Z AUTO 10002KT 5SM 08/M04 A3006 RMK SLP180 T00751045 57001 IEM_DS3505
ZBAA,2001-04-04 01:00,ZBAA 040100Z AUTO 01004KT 09/M02 A3006 RMK T00901020 IEM_DS3505
ZBAA,2001-04-04 02:00,ZBAA 040200Z AUTO 06002KT 6SM 10/M02 A3006 RMK T01001020 IEM_DS3505
ZBAA,2001-04-04 03:00,ZBAA 040300Z AUTO 12004KT 6SM 12/M04 A3003 RMK SLP164 T01151038 57016 IEM_DS3505
ZBAA,2001-04-04 04:00,ZBAA 040400Z AUTO 15004KT 13/M02 A3000 RMK T01301020 IEM_DS3505
ZBAA,2001-04-04 05:00,ZBAA 040500Z AUTO 14/M01 A2997 RMK T01401010 IEM_DS3505
ZBAA,2001-04-04 06:00,ZBAA 040600Z AUTO 26004KT 6SM 15/M02 A2991 RMK SLP131 T01531017 57032 IEM_DS3505
ZBAA,2001-04-04 07:00,ZBAA 040700Z AUTO 18004KT 15/M01 A2988 RMK T01501010 IEM_DS3505
ZBAA,2001-04-04 08:00,ZBAA 040800Z AUTO 19002KT 16/00 A2991 RMK T01600000 IEM_DS3505
ZBAA,2001-04-04 09:00,ZBAA 040900Z AUTO 32002KT 6SM 17/M02 A2988 RMK SLP121 T01681018 57010 IEM_DS3505
ZBAA,2001-04-04 10:00,ZBAA 041000Z AUTO 16002KT 3SM 15/00 A2988 RMK T01500000 IEM_DS3505
ZBAA,2001-04-04 11:00,ZBAA 041100Z AUTO 00000KT 2 1/2SM 14/01 A2991 RMK T01400010 IEM_DS3505
ZBAA,2001-04-04 12:00,ZBAA 041200Z AUTO 04002KT 5SM 14/M01 A2994 RMK SLP136 T01431009 52015 IEM_DS3505
ZBAA,2001-04-04 13:00,ZBAA 041300Z AUTO 02002KT 2 1/2SM 14/01 A2997 RMK T01400010 IEM_DS3505
ZBAA,2001-04-04 14:00,ZBAA 041400Z AUTO 00000KT 2 1/2SM 13/01 A2997 RMK T01300010 IEM_DS3505
ZBAA,2001-04-04 15:00,ZBAA 041500Z AUTO 35002KT 5SM 14/00 A3000 RMK SLP156 T01380001 52020 IEM_DS3505
ZBAA,2001-04-04 16:00,ZBAA 041600Z AUTO 35006KT 3SM 11/00 A3000 RMK T01100000 IEM_DS3505
ZBAA,2001-04-04 17:00,ZBAA 041700Z AUTO 34002KT 3SM 11/00 A3000 RMK T01100000 IEM_DS3505
ZBAA,2001-04-04 18:00,ZBAA 041800Z AUTO 00000KT 5SM 11/M01 A3000 RMK 60003 SLP160 T01081009 52004 IEM_DS3505
ZBAA,2001-04-04 19:00,ZBAA 041900Z AUTO 03004KT 11/02 A3003 RMK T01100020 IEM_DS3505
ZBAA,2001-04-04 20:00,ZBAA 042000Z AUTO 06002KT 11/02 A3006 RMK T01100020 IEM_DS3505
ZBAA,2001-04-04 21:00,ZBAA 042100Z AUTO 05004KT 6SM 12/M01 A3009 RMK 70003 SLP186 T01191006 52026 IEM_DS3505
ZBAA,2001-04-04 22:00,ZBAA 042200Z AUTO 02004KT 6SM 13/M01 A3012 RMK T01301010 IEM_DS3505
ZBAA,2001-04-04 23:00,ZBAA 042300Z AUTO 04006KT 6SM 14/M03 A3018 RMK T01401030 IEM_DS3505
ZBAA,2001-04-05 00:00,ZBAA 050000Z AUTO 12008KT 6SM 12/M02 A3021 RMK 70003 SLP229 T01231016 52043 IEM_DS3505
ZBAA,2001-04-05 01:00,ZBAA 050100Z AUTO 16008KT 5SM 14/02 A3024 RMK T01400020 IEM_DS3505
ZBAA,2001-04-05 02:00,ZBAA 050200Z AUTO 13006KT 5SM 14/00 A3024 RMK T01400000 IEM_DS3505
ZBAA,2001-04-05 03:00,ZBAA 050300Z AUTO 13006KT 6SM 13/M03 A3024 RMK SLP245 T01281034 52015 IEM_DS3505
ZBAA,2001-04-05 04:00,ZBAA 050400Z AUTO 16008KT 6SM 14/M02 A3024 RMK T01401020 IEM_DS3505
ZBAA,2001-04-05 05:00,ZBAA 050500Z AUTO 19006KT 6SM 15/M05 A3024 RMK T01501050 IEM_DS3505
ZBAA,2001-04-05 06:00,ZBAA 050600Z AUTO 22004KT 9SM 14/M02 A3021 RMK SLP228 T01451023 57015 IEM_DS3505
ZBAA,2001-04-05 07:00,ZBAA 050700Z AUTO 19010KT 6SM 15/M05 A3018 RMK T01501050 IEM_DS3505
ZBAA,2001-04-05 08:00,ZBAA 050800Z AUTO 20010KT 6SM 14/M04 A3018 RMK T01401040 IEM_DS3505
ZBAA,2001-04-05 09:00,ZBAA 050900Z AUTO 22012KT 7SM 13/M05 A3015 RMK SLP222 T01261047 57006 IEM_DS3505
ZBAA,2001-04-05 10:00,ZBAA 051000Z AUTO 21012KT 6SM 12/M06 A3018 RMK T01201060 IEM_DS3505
ZBAA,2001-04-05 11:00,ZBAA 051100Z AUTO 21016KT 6SM 10/M01 A3021 RMK T01001010 IEM_DS3505
ZBAA,2001-04-05 12:00,ZBAA 051200Z AUTO 22012G23KT 9SM 07/02 A3024 RMK 60000 SLP244 T00670020 52022 IEM_DS3505
ZBAA,2001-04-05 13:00,ZBAA 051300Z AUTO 23010KT 7SM 06/03 A3030 RMK T00600030 IEM_DS3505
ZBAA,2001-04-05 14:00,ZBAA 051400Z AUTO 22012KT 4SM 05/03 A3030 RMK T00500030 IEM_DS3505
ZBAA,2001-04-05 15:00,ZBAA 051500Z AUTO 25008KT 7SM 04/03 A3030 RMK SLP257 T00430028 52013 IEM_DS3505
ZBAA,2001-04-05 16:00,ZBAA 051600Z AUTO 23006KT 2 1/2SM 04/04 A3030 RMK T00400040 IEM_DS3505
ZBAA,2001-04-05 17:00,ZBAA 051700Z AUTO 21004KT 4SM 04/04 A3027 RMK T00400040 IEM_DS3505
ZBAA,2001-04-05 18:00,ZBAA 051800Z AUTO 07004KT 9SM 04/03 A3024 RMK 60020 SLP238 T00450030 57019 IEM_DS3505
ZBAA,2001-04-05 19:00,ZBAA 051900Z AUTO 07002KT 4SM 05/04 A3021 RMK T00500040 IEM_DS3505
ZBAA,2001-04-05 20:00,ZBAA 052000Z AUTO 07002KT 4SM 04/04 A3021 RMK T00400040 IEM_DS3505
ZBAA,2001-04-05 21:00,ZBAA 052100Z AUTO 08002KT 2 1/2SM 04/04 A3018 RMK T00400040 IEM_DS3505
ZBAA,2001-04-05 22:00,ZBAA 052200Z AUTO 13002KT 2SM 04/04 A3018 RMK T00400040 IEM_DS3505
ZBAA,2001-04-05 23:00,ZBAA 052300Z AUTO 00000KT 2 1/2SM 05/04 A3018 RMK T00500040 IEM_DS3505
ZBAA,2001-04-06 00:00,ZBAA 060000Z AUTO 00000KT 6SM 06/03 A3018 RMK 70019 SLP216 T00630034 57001 IEM_DS3505
ZBAA,2001-04-06 01:00,ZBAA 060100Z AUTO 4SM 07/05 A3018 RMK T00700050 IEM_DS3505
ZBAA,2001-04-06 02:00,ZBAA 060200Z AUTO 5SM 09/05 A3015 RMK T00900050 IEM_DS3505
ZBAA,2001-04-06 03:00,ZBAA 060300Z AUTO 22006G16KT 9SM 10/02 A3015 RMK SLP214 T01010017 57002 IEM_DS3505
ZBAA,2001-04-06 04:00,ZBAA 060400Z AUTO 15006KT 7SM 12/03 A3012 RMK T01200030 IEM_DS3505
ZBAA,2001-04-06 05:00,ZBAA 060500Z AUTO 19008KT 7SM 13/02 A3009 RMK T01300020 IEM_DS3505
ZBAA,2001-04-06 06:00,ZBAA 060600Z AUTO 20006KT 12SM 12/03 A3006 RMK SLP180 T01200031 57034 IEM_DS3505
ZBAA,2001-04-06 07:00,ZBAA 060700Z AUTO 19006KT 7SM 13/03 A3003 RMK T01300030 IEM_DS3505
ZBAA,2001-04-06 08:00,ZBAA 060800Z AUTO 20006KT 7SM 13/03 A3000 RMK T01300030 IEM_DS3505
ZBAA,2001-04-06 09:00,ZBAA 060900Z AUTO 20008KT 12SM 14/02 A2997 RMK SLP151 T01360022 57029 IEM_DS3505
ZBAA,2001-04-06 10:00,ZBAA 061000Z AUTO 18008KT 6SM 13/04 A2997 RMK T01300040 IEM_DS3505
ZBAA,2001-04-06 11:00,ZBAA 061100Z AUTO 18004KT 6SM 11/03 A2997 RMK T01100030 IEM_DS3505
ZBAA,2001-04-06 12:00,ZBAA 061200Z AUTO 15004KT 6SM 11/04 A2997 RMK T01100040 IEM_DS3505
ZBAA,2001-04-06 13:00,ZBAA 061300Z AUTO 18006KT 6SM 12/04 A2997 RMK T01200040 IEM_DS3505
ZBAA,2001-04-06 14:00,ZBAA 061400Z AUTO 13002KT 6SM 09/05 A2997 RMK T00900050 IEM_DS3505
ZBAA,2001-04-06 15:00,ZBAA 061500Z AUTO 16006KT 9SM 10/04 A2997 RMK SLP147 T01020038 54000 IEM_DS3505
ZBAA,2001-04-06 16:00,ZBAA 061600Z AUTO 12004KT 6SM 08/05 A2994 RMK T00800050 IEM_DS3505
ZBAA,2001-04-06 17:00,ZBAA 061700Z AUTO 13004KT 6SM 09/05 A2997 RMK T00900050 IEM_DS3505
ZBAA,2001-04-06 18:00,ZBAA 061800Z AUTO 14004KT 6SM 08/04 A2994 RMK SLP140 T00830044 57007 IEM_DS3505
ZBAA,2001-04-06 19:00,ZBAA 061900Z AUTO 10002KT 6SM 08/05 A2994 RMK T00800050 IEM_DS3505
ZBAA,2001-04-06 20:00,ZBAA 062000Z AUTO 03002KT 5SM 07/05 A2994 RMK T00700050 IEM_DS3505
ZBAA,2001-04-06 21:00,ZBAA 062100Z AUTO 00000KT 6SM 08/05 A2994 RMK SLP135 T00750052 57005 IEM_DS3505
ZBAA,2001-04-06 22:00,ZBAA 062200Z AUTO 07002KT 4SM 07/04 A2991 RMK T00700040 IEM_DS3505
ZBAA,2001-04-06 23:00,ZBAA 062300Z AUTO 11002KT 4SM 08/04 A2994 RMK T00800040 IEM_DS3505
ZBAA,2001-04-07 00:00,ZBAA 070000Z AUTO 09002KT 4SM 08/05 A2994 RMK SLP136 T00850054 52001 IEM_DS3505
ZBAA,2001-04-07 01:00,ZBAA 070100Z AUTO 11002KT 3SM 09/05 A2994 RMK T00900050 IEM_DS3505
ZBAA,2001-04-07 02:00,ZBAA 070200Z AUTO 03002KT 3SM 10/05 A2994 RMK T01000050 IEM_DS3505
ZBAA,2001-04-07 03:00,ZBAA 070300Z AUTO 09004KT 5SM 12/06 A2991 RMK SLP133 T01190059 57003 IEM_DS3505
ZBAA,2001-04-07 04:00,ZBAA 070400Z AUTO 3SM 13/06 A2991 RMK T01300060 IEM_DS3505
ZBAA,2001-04-07 05:00,ZBAA 070500Z AUTO 15002KT 3SM 13/06 A2988 RMK T01300060 IEM_DS3505
ZBAA,2001-04-07 06:00,ZBAA 070600Z AUTO 22004KT 5SM 14/06 A2985 RMK SLP111 T01360063 57021 IEM_DS3505
ZBAA,2001-04-07 07:00,ZBAA 070700Z AUTO 11002KT 2 1/2SM 14/07 A2985 RMK T01400070 IEM_DS3505
ZBAA,2001-04-07 08:00,ZBAA 070800Z AUTO 2 1/2SM 15/06 A2983 RMK T01500060 IEM_DS3505
ZBAA,2001-04-07 09:00,ZBAA 070900Z AUTO 22004KT 5SM 14/06 A2983 RMK SLP111 T01360063 57021 IEM_DS3505
ZBAA,2001-04-07 10:00,ZBAA 071000Z AUTO 19004KT 2SM 14/08 A2983 RMK T01400080 IEM_DS3505
ZBAA,2001-04-07 11:00,ZBAA 071100Z AUTO 08002KT 2SM 13/08 A2983 RMK T01300080 IEM_DS3505
ZBAA,2001-04-07 12:00,ZBAA 071200Z AUTO 00000KT 5SM 13/08 A2985 RMK SLP102 T01320082 52004 IEM_DS3505
ZBAA,2001-04-07 13:00,ZBAA 071300Z AUTO 00000KT 1 1/2SM 12/08 A2985 RMK T01200080 IEM_DS3505
ZBAA,2001-04-07 14:00,ZBAA 071400Z AUTO 08002KT 1 1/2SM 12/08 A2988 RMK T01200080 IEM_DS3505
ZBAA,2001-04-07 15:00,ZBAA 071500Z AUTO 00000KT 2SM 12/08 A2985 RMK SLP106 T01180084 52004 IEM_DS3505
ZBAA,2001-04-07 16:00,ZBAA 071600Z AUTO 00000KT 1 1/2SM 11/07 A2988 RMK T01100070 IEM_DS3505
ZBAA,2001-04-07 17:00,ZBAA 071700Z AUTO 35004KT 1 1/2SM 10/07 A2988 RMK T01000070 IEM_DS3505
ZBAA,2001-04-07 18:00,ZBAA 071800Z AUTO 04004KT 3SM 11/08 A2988 RMK SLP111 T01120081 52005 IEM_DS3505
ZBAA,2001-04-07 19:00,ZBAA 071900Z AUTO 34004KT 1 1/4SM 10/07 A2985 RMK T01000070 IEM_DS3505
ZBAA,2001-04-07 20:00,ZBAA 072000Z AUTO 36004KT 1 1/4SM 10/07 A2985 RMK T01000070 IEM_DS3505
ZBAA,2001-04-07 21:00,ZBAA 072100Z AUTO 02004KT 2 1/2SM 10/07 A2985 RMK SLP103 T01050072 57008 IEM_DS3505
ZBAA,2001-04-07 22:00,ZBAA 072200Z AUTO 34002KT 1 1/4SM 08/06 A2985 RMK T00800060 IEM_DS3505
ZBAA,2001-04-07 23:00,ZBAA 072300Z AUTO 34004KT 1 1/4SM 09/07 A2988 RMK T00900070 IEM_DS3505
ZBAA,2001-04-08 00:00,ZBAA 080000Z AUTO 04006KT 2 1/2SM 12/08 A2988 RMK SLP114 T01150076 52011 IEM_DS3505
ZBAA,2001-04-08 01:00,ZBAA 080100Z AUTO 36004KT 1 1/4SM 13/07 A2988 RMK T01300070 IEM_DS3505
ZBAA,2001-04-08 02:00,ZBAA 080200Z AUTO 02004KT 1 1/2SM 15/08 A2988 RMK T01500080 IEM_DS3505
ZBAA,2001-04-08 03:00,ZBAA 080300Z AUTO 04008KT 2 1/2SM 16/07 A2988 RMK SLP116 T01580069 52002 IEM_DS3505
ZBAA,2001-04-08 04:00,ZBAA 080400Z AUTO 1 1/2SM 19/09 A2988 RMK T01900090 IEM_DS3505
ZBAA,2001-04-08 05:00,ZBAA 080500Z AUTO 15006KT 1 1/2SM 20/09 A2988 RMK T02000090 IEM_DS3505
ZBAA,2001-04-08 06:00,ZBAA 080600Z AUTO 11004KT 2 1/2SM 20/10 A2985 RMK SLP106 T01980102 57010 IEM_DS3505
ZBAA,2001-04-08 07:00,ZBAA 080700Z AUTO 13006KT 1 1/2SM 20/11 A2983 RMK T02000110 IEM_DS3505
ZBAA,2001-04-08 08:00,ZBAA 080800Z AUTO 13006KT 2SM 20/12 A2983 RMK T02000120 IEM_DS3505
ZBAA,2001-04-08 09:00,ZBAA 080900Z AUTO 16006KT 2 1/2SM 20/12 A2983 RMK SLP100 T02030119 57006 IEM_DS3505
ZBAA,2001-04-08 10:00,ZBAA 081000Z AUTO 12004KT 2SM 19/13 A2985 RMK T01900130 IEM_DS3505
ZBAA,2001-04-08 11:00,ZBAA 081100Z AUTO 13004KT 1 1/2SM 19/13 A2988 RMK T01900130 IEM_DS3505
ZBAA,2001-04-08 12:00,ZBAA 081200Z AUTO 14010KT 6SM 17/11 A2988 RMK SLP115 T01730112 52015 IEM_DS3505
ZBAA,2001-04-08 13:00,ZBAA 081300Z AUTO 13010KT 1 1/2SM 16/12 A2994 RMK T01600120 IEM_DS3505
ZBAA,2001-04-08 14:00,ZBAA 081400Z AUTO 13008KT 1 1/2SM 14/11 A2994 RMK T01400110 IEM_DS3505
ZBAA,2001-04-08 15:00,ZBAA 081500Z AUTO 11006KT 5SM 13/10 A2994 RMK SLP138 T01320097 52023 IEM_DS3505
ZBAA,2001-04-08 16:00,ZBAA 081600Z AUTO 14004KT 1 1/2SM 13/10 A2994 RMK T01300100 IEM_DS3505
ZBAA,2001-04-08 17:00,ZBAA 081700Z AUTO 16004KT 1 1/2SM 12/10 A2997 RMK T01200100 IEM_DS3505
ZBAA,2001-04-08 18:00,ZBAA 081800Z AUTO 09008KT 5SM 11/09 A2997 RMK SLP146 T01090087 52008 IEM_DS3505
ZBAA,2001-04-08 19:00,ZBAA 081900Z AUTO 13006KT 1 1/2SM 11/08 A2997 RMK T01100080 IEM_DS3505
ZBAA,2001-04-08 20:00,ZBAA 082000Z AUTO 13004KT 2SM 11/08 A3000 RMK T01100080 IEM_DS3505
ZBAA,2001-04-08 21:00,ZBAA 082100Z AUTO 11006KT 4SM 10/08 A2997 RMK SLP146 T01010076 54000 IEM_DS3505
ZBAA,2001-04-08 22:00,ZBAA 082200Z AUTO 15002KT 2SM 11/09 A2997 RMK T01100090 IEM_DS3505
ZBAA,2001-04-08 23:00,ZBAA 082300Z AUTO 17004KT 2SM 12/09 A3000 RMK T01200090 IEM_DS3505
ZBAA,2001-04-09 00:00,ZBAA 090000Z AUTO 14006KT 2 1/2SM 10/09 A3000 RMK SLP159 T01010087 52013 IEM_DS3505
ZBAA,2001-04-09 01:00,ZBAA 090100Z AUTO 14002KT 1 1/4SM 11/09 A3006 RMK T01100090 IEM_DS3505
ZBAA,2001-04-09 02:00,ZBAA 090200Z AUTO 36004KT 1SM 11/10 A3006 RMK T01100100 IEM_DS3505
ZBAA,2001-04-09 03:00,ZBAA 090300Z AUTO 07002G23KT 1 1/4SM 10/10 A3009 RMK SLP187 T01030095 52027 IEM_DS3505
ZBAA,2001-04-09 04:00,ZBAA 090400Z AUTO 30019KT 7SM 08/04 A3012 RMK T00800040 IEM_DS3505
ZBAA,2001-04-09 05:00,ZBAA 090500Z AUTO 31021KT 5SM 07/05 A3018 RMK T00700050 IEM_DS3505
ZBAA,2001-04-09 06:00,ZBAA 090600Z AUTO 36016KT 6SM 07/03 A3018 RMK 60008 SLP209 T00730033 52022 IEM_DS3505
ZBAA,2001-04-09 07:00,ZBAA 090700Z AUTO 35014KT 7SM 07/04 A3018 RMK T00700040 IEM_DS3505
ZBAA,2001-04-09 08:00,ZBAA 090800Z AUTO 36010KT 7SM 08/05 A3018 RMK T00800050 IEM_DS3505
ZBAA,2001-04-09 09:00,ZBAA 090900Z AUTO 34012G29KT 7SM 07/02 A3021 RMK SLP221 T00700024 52012 IEM_DS3505
ZBAA,2001-04-09 10:00,ZBAA 091000Z AUTO 31016KT 7SM 07/04 A3024 RMK T00700040 IEM_DS3505
ZBAA,2001-04-09 11:00,ZBAA 091100Z AUTO 32014KT 7SM 07/04 A3024 RMK T00700040 IEM_DS3505
ZBAA,2001-04-09 12:00,ZBAA 091200Z AUTO 34008KT 6SM 08/00 A3024 RMK 60012 SLP230 T00770003 52009 IEM_DS3505
ZBAA,2001-04-09 13:00,ZBAA 091300Z AUTO 35006KT 6SM 06/04 A3024 RMK T00600040 IEM_DS3505
ZBAA,2001-04-09 14:00,ZBAA 091400Z AUTO 34006KT 6SM 06/04 A3024 RMK T00600040 IEM_DS3505
ZBAA,2001-04-09 15:00,ZBAA 091500Z AUTO 34008KT 6SM 09/M04 A3027 RMK SLP240 T00921042 52010 IEM_DS3505
ZBAA,2001-04-09 16:00,ZBAA 091600Z AUTO 29002KT 6SM 07/02 A3030 RMK T00700020 IEM_DS3505
ZBAA,2001-04-09 17:00,ZBAA 091700Z AUTO 29006KT 6SM 08/00 A3030 RMK T00800000 IEM_DS3505
ZBAA,2001-04-09 18:00,ZBAA 091800Z AUTO 29004KT 7SM 07/04 A3030 RMK 60003 SLP258 T00710041 52017 IEM_DS3505
ZBAA,2001-04-09 19:00,ZBAA 091900Z AUTO 29008KT 6SM 09/M04 A3027 RMK T00901040 IEM_DS3505
ZBAA,2001-04-09 20:00,ZBAA 092000Z AUTO 28006KT 6SM 08/M04 A3024 RMK T00801040 IEM_DS3505
ZBAA,2001-04-09 21:00,ZBAA 092100Z AUTO 25006KT 6SM 07/04 A3027 RMK 70018 SLP251 T00670039 57007 IEM_DS3505
ZBAA,2001-04-09 22:00,ZBAA 092200Z AUTO 29008KT 09/M08 A3027 RMK T00901080 IEM_DS3505
ZBAA,2001-04-09 23:00,ZBAA 092300Z AUTO 28016G25KT 09/M08 A3030 RMK T00901080 IEM_DS3505
ZBAA,2001-04-10 00:00,ZBAA 100000Z AUTO 32002G29KT 5SM 08/ A3030 RMK 70018 SLP266 52016 IEM_DS3505
ZBAA,2001-04-10 01:00,ZBAA 100100Z AUTO 29016G25KT 2 1/2SM 11/M10 A3033 RMK T01101100 IEM_DS3505
ZBAA,2001-04-10 02:00,ZBAA 100200Z AUTO 29017G31KT 2 1/2SM 12/M11 A3033 RMK T01201110 IEM_DS3505
ZBAA,2001-04-10 03:00,ZBAA 100300Z AUTO 32012G33KT 3SM 12/M11 A3027 RMK SLP260 T01241114 57006 IEM_DS3505
ZBAA,2001-04-10 04:00,ZBAA 100400Z AUTO 31019G29KT 3SM 13/M10 A3024 RMK T01301100 IEM_DS3505
ZBAA,2001-04-10 05:00,ZBAA 100500Z AUTO 29017KT 3SM 13/M10 A3021 RMK T01301100 IEM_DS3505
ZBAA,2001-04-10 06:00,ZBAA 100600Z AUTO 32014G27KT 6SM 14/M12 A3021 RMK SLP237 T01371116 57023 IEM_DS3505
ZBAA,2001-04-10 07:00,ZBAA 100700Z AUTO 28021G33KT 14/M08 A3018 RMK T01401080 IEM_DS3505
ZBAA,2001-04-10 08:00,ZBAA 100800Z AUTO 31021G31KT 6SM 14/M10 A3021 RMK T01401100 IEM_DS3505
ZBAA,2001-04-10 09:00,ZBAA 100900Z AUTO 34010G29KT 6SM 13/M09 A3021 RMK SLP228 T01261094 57009 IEM_DS3505
ZBAA,2001-04-10 10:00,ZBAA 101000Z AUTO 33014KT 6SM 11/M09 A3021 RMK T01101090 IEM_DS3505
ZBAA,2001-04-10 11:00,ZBAA 101100Z AUTO 33010KT 6SM 11/M08 A3024 RMK T01101080 IEM_DS3505
ZBAA,2001-04-10 12:00,ZBAA 101200Z AUTO 32004KT 9SM 11/M06 A3024 RMK SLP234 T01091064 52006 IEM_DS3505
ZBAA,2001-04-10 13:00,ZBAA 101300Z AUTO 36002KT 6SM 09/M06 A3024 RMK T00901060 IEM_DS3505
ZBAA,2001-04-10 14:00,ZBAA 101400Z AUTO 36004KT 6SM 09/M06 A3024 RMK T00901060 IEM_DS3505
ZBAA,2001-04-10 15:00,ZBAA 101500Z AUTO 22004KT 7SM 08/M02 A3021 RMK SLP232 T00821020 57002 IEM_DS3505
ZBAA,2001-04-10 16:00,ZBAA 101600Z AUTO 27004KT 6SM 07/M04 A3021 RMK T00701040 IEM_DS3505
ZBAA,2001-04-10 17:00,ZBAA 101700Z AUTO 01002KT 6SM 07/M03 A3021 RMK T00701030 IEM_DS3505
ZBAA,2001-04-10 18:00,ZBAA 101800Z AUTO 34004KT 7SM 10/M09 A3015 RMK SLP217 T01001088 57015 IEM_DS3505
ZBAA,2001-04-10 19:00,ZBAA 101900Z AUTO 27004KT 6SM 07/M06 A3015 RMK T00701060 IEM_DS3505
ZBAA,2001-04-10 20:00,ZBAA 102000Z AUTO 28004KT 6SM 07/M07 A3012 RMK T00701070 IEM_DS3505
ZBAA,2001-04-10 21:00,ZBAA 102100Z AUTO 32004KT 6SM 07/M08 A3012 RMK SLP200 T00691075 57017 IEM_DS3505
ZBAA,2001-04-10 22:00,ZBAA 102200Z AUTO 25004KT 6SM 04/M04 A3009 RMK T00401040 IEM_DS3505
ZBAA,2001-04-10 23:00,ZBAA 102300Z AUTO 27004KT 6SM 07/M07 A3009 RMK T00701070 IEM_DS3505
ZBAA,2001-04-11 00:00,ZBAA 110000Z AUTO 25006KT 6SM 10/M06 A3009 RMK SLP192 T00981061 57008 IEM_DS3505
ZBAA,2001-04-11 01:00,ZBAA 110100Z AUTO 29008KT 6SM 12/M08 A3006 RMK T01201080 IEM_DS3505
ZBAA,2001-04-11 02:00,ZBAA 110200Z AUTO 29008KT 6SM 12/M10 A3006 RMK T01201100 IEM_DS3505
ZBAA,2001-04-11 03:00,ZBAA 110300Z AUTO 32014KT 12SM 14/M16 A3003 RMK SLP166 T01381159 57026 IEM_DS3505
ZBAA,2001-04-11 04:00,ZBAA 110400Z AUTO 26012KT 6SM 15/M12 A2997 RMK T01501120 IEM_DS3505
ZBAA,2001-04-11 05:00,ZBAA 110500Z AUTO 27010KT 6SM 16/M11 A2994 RMK T01601110 IEM_DS3505
ZBAA,2001-04-11 06:00,ZBAA 110600Z AUTO 32010KT 12SM 16/M15 A2991 RMK SLP134 T01651148 57031 IEM_DS3505
ZBAA,2001-04-11 07:00,ZBAA 110700Z AUTO 28016KT 6SM 18/M10 A2988 RMK T01801100 IEM_DS3505
ZBAA,2001-04-11 08:00,ZBAA 110800Z AUTO 28017G29KT 6SM 17/M09 A2985 RMK T01701090 IEM_DS3505
ZBAA,2001-04-11 09:00,ZBAA 110900Z AUTO 29014KT 12SM 17/M10 A2985 RMK SLP115 T01691101 57019 IEM_DS3505
ZBAA,2001-04-11 10:00,ZBAA 111000Z AUTO 30014KT 6SM 16/M10 A2985 RMK T01601100 IEM_DS3505
ZBAA,2001-04-11 11:00,ZBAA 111100Z AUTO 33010KT 6SM 15/M10 A2988 RMK T01501100 IEM_DS3505
ZBAA,2001-04-11 12:00,ZBAA 111200Z AUTO 34008KT 19SM 15/M08 A2991 RMK SLP124 T01491079 52009 IEM_DS3505
ZBAA,2001-04-11 13:00,ZBAA 111300Z AUTO 32010KT 6SM 14/M09 A2991 RMK T01401090 IEM_DS3505
ZBAA,2001-04-11 14:00,ZBAA 111400Z AUTO 33008KT 6SM 13/M09 A2991 RMK T01301090 IEM_DS3505
ZBAA,2001-04-11 15:00,ZBAA 111500Z AUTO 00000KT 12SM 09/M02 A2991 RMK SLP130 T00911016 52006 IEM_DS3505
ZBAA,2001-04-11 16:00,ZBAA 111600Z AUTO 32008KT 6SM 10/M09 A2991 RMK T01001090 IEM_DS3505
ZBAA,2001-04-11 17:00,ZBAA 111700Z AUTO 35006KT 6SM 09/M08 A2991 RMK T00901080 IEM_DS3505
ZBAA,2001-04-11 18:00,ZBAA 111800Z AUTO 00000KT 12SM 10/M04 A2988 RMK SLP124 T00961038 57006 IEM_DS3505
ZBAA,2001-04-11 19:00,ZBAA 111900Z AUTO 29008KT 6SM 09/M07 A2988 RMK T00901070 IEM_DS3505
ZBAA,2001-04-11 20:00,ZBAA 112000Z AUTO 27008KT 6SM 07/M06 A2988 RMK T00701060 IEM_DS3505
ZBAA,2001-04-11 21:00,ZBAA 112100Z AUTO 32004KT 17SM 07/M03 A2988 RMK SLP119 T00741031 57005 IEM_DS3505
ZBAA,2001-04-11 22:00,ZBAA 112200Z AUTO 34004KT 6SM 05/M05 A2988 RMK T00501050 IEM_DS3505
ZBAA,2001-04-11 23:00,ZBAA 112300Z AUTO 33004KT 6SM 08/M05 A2988 RMK T00801050 IEM_DS3505
ZBAA,2001-04-12 00:00,ZBAA 120000Z AUTO 34006KT 16SM 13/M06 A2991 RMK SLP125 T01261065 52006 IEM_DS3505
ZBAA,2001-04-12 01:00,ZBAA 120100Z AUTO 34006KT 6SM 13/M05 A2991 RMK T01301050 IEM_DS3505
ZBAA,2001-04-12 02:00,ZBAA 120200Z AUTO 03004KT 6SM 16/M07 A2991 RMK T01601070 IEM_DS3505
ZBAA,2001-04-12 03:00,ZBAA 120300Z AUTO 32008KT 19SM 16/M08 A2988 RMK SLP122 T01611081 57003 IEM_DS3505
ZBAA,2001-04-12 04:00,ZBAA 120400Z AUTO 6SM 17/M08 A2985 RMK T01701080 IEM_DS3505
ZBAA,2001-04-12 06:00,ZBAA 120600Z AUTO 14004KT 19SM 19/M06 A2983 RMK SLP100 T01881064 57022 IEM_DS3505
ZBAA,2001-04-12 07:00,ZBAA 120700Z AUTO 15006KT 6SM 19/M07 A2980 RMK T01901070 IEM_DS3505
ZBAA,2001-04-12 08:00,ZBAA 120800Z AUTO 25006KT 6SM 20/M08 A2977 RMK T02001080 IEM_DS3505
ZBAA,2001-04-12 09:00,ZBAA 120900Z AUTO 22008KT 19SM 19/M04 A2977 RMK SLP081 T01891041 57019 IEM_DS3505
ZBAA,2001-04-12 10:00,ZBAA 121000Z AUTO 24004KT 6SM 19/M07 A2977 RMK T01901070 IEM_DS3505
ZBAA,2001-04-12 11:00,ZBAA 121100Z AUTO 10006KT 6SM 16/M04 A2977 RMK T01601040 IEM_DS3505
ZBAA,2001-04-12 12:00,ZBAA 121200Z AUTO 20002KT 9SM 15/01 A2977 RMK SLP083 T01530014 52002 IEM_DS3505
ZBAA,2001-04-12 13:00,ZBAA 121300Z AUTO 11002KT 6SM 13/M02 A2980 RMK T01301020 IEM_DS3505
ZBAA,2001-04-12 14:00,ZBAA 121400Z AUTO 35004KT 6SM 12/M01 A2983 RMK T01201010 IEM_DS3505
ZBAA,2001-04-12 15:00,ZBAA 121500Z AUTO 32002KT 6SM 16/M01 A2983 RMK SLP094 T01571007 52011 IEM_DS3505
ZBAA,2001-04-12 16:00,ZBAA 121600Z AUTO 02004KT 6SM 14/M01 A2983 RMK T01401010 IEM_DS3505
ZBAA,2001-04-12 17:00,ZBAA 121700Z AUTO 03008KT 6SM 13/01 A2985 RMK T01300010 IEM_DS3505
ZBAA,2001-04-12 18:00,ZBAA 121800Z AUTO 04008KT 6SM 13/00 A2988 RMK SLP104 T01310002 52010 IEM_DS3505
ZBAA,2001-04-12 19:00,ZBAA 121900Z AUTO 01010KT 6SM 10/04 A2988 RMK T01000040 IEM_DS3505
ZBAA,2001-04-12 20:00,ZBAA 122000Z AUTO 02006KT 6SM 10/04 A2991 RMK T01000040 IEM_DS3505
ZBAA,2001-04-12 21:00,ZBAA 122100Z AUTO 02006KT 6SM 11/02 A2994 RMK SLP127 T01090020 52023 IEM_DS3505
ZBAA,2001-04-12 22:00,ZBAA 122200Z AUTO 01008KT 6SM 09/02 A2997 RMK T00900020 IEM_DS3505
ZBAA,2001-04-12 23:00,ZBAA 122300Z AUTO 01012KT 6SM 11/M03 A3000 RMK T01101030 IEM_DS3505
ZBAA,2001-04-13 00:00,ZBAA 130000Z AUTO 34012KT 16SM 12/M03 A3000 RMK SLP155 T01241029 52028 IEM_DS3505
ZBAA,2001-04-13 01:00,ZBAA 130100Z AUTO 36012KT 7SM 14/M06 A3003 RMK T01401060 IEM_DS3505
ZBAA,2001-04-13 02:00,ZBAA 130200Z AUTO 02012G25KT 7SM 14/M08 A3003 RMK T01401080 IEM_DS3505
ZBAA,2001-04-13 03:00,ZBAA 130300Z AUTO 32016G21KT 19SM 14/M07 A3006 RMK SLP173 T01421070 52018 IEM_DS3505
ZBAA,2001-04-13 04:00,ZBAA 130400Z AUTO 01012G23KT 6SM 15/M09 A3003 RMK T01501090 IEM_DS3505
ZBAA,2001-04-13 05:00,ZBAA 130500Z AUTO 04006KT 6SM 16/M09 A3003 RMK T01601090 IEM_DS3505
ZBAA,2001-04-13 06:00,ZBAA 130600Z AUTO 34010KT 19SM 17/M10 A3003 RMK SLP167 T01661099 57006 IEM_DS3505
ZBAA,2001-04-13 07:00,ZBAA 130700Z AUTO 32016G27KT 6SM 18/M09 A3000 RMK T01801090 IEM_DS3505
ZBAA,2001-04-13 08:00,ZBAA 130800Z AUTO 30016KT 6SM 18/M09 A3000 RMK T01801090 IEM_DS3505
ZBAA,2001-04-13 09:00,ZBAA 130900Z AUTO 34008KT 19SM 18/M08 A2997 RMK SLP157 T01801076 57010 IEM_DS3505
ZBAA,2001-04-13 10:00,ZBAA 131000Z AUTO 32012KT 6SM 18/M10 A3000 RMK T01801100 IEM_DS3505
ZBAA,2001-04-13 11:00,ZBAA 131100Z AUTO 32016KT 6SM 17/M11 A3000 RMK T01701110 IEM_DS3505
ZBAA,2001-04-13 12:00,ZBAA 131200Z AUTO 29004KT 19SM 16/M06 A3003 RMK SLP166 T01601063 52009 IEM_DS3505
ZBAA,2001-04-13 13:00,ZBAA 131300Z AUTO 29004KT 6SM 15/M09 A3006 RMK T01501090 IEM_DS3505
ZBAA,2001-04-13 14:00,ZBAA 131400Z AUTO 30004KT 6SM 15/M09 A3006 RMK T01501090 IEM_DS3505
ZBAA,2001-04-13 15:00,ZBAA 131500Z AUTO 22004KT 16SM 12/M03 A3006 RMK SLP176 T01221033 52010 IEM_DS3505
ZBAA,2001-04-13 16:00,ZBAA 131600Z AUTO 23004KT 6SM 10/M05 A3003 RMK T01001050 IEM_DS3505
ZBAA,2001-04-13 17:00,ZBAA 131700Z AUTO 22004KT 6SM 11/M05 A3003 RMK T01101050 IEM_DS3505
ZBAA,2001-04-13 18:00,ZBAA 131800Z AUTO 22004KT 12SM 10/M02 A3003 RMK SLP172 T00971018 57004 IEM_DS3505
ZBAA,2001-04-13 19:00,ZBAA 131900Z AUTO 27006KT 6SM 11/M05 A3000 RMK T01101050 IEM_DS3505
ZBAA,2001-04-13 20:00,ZBAA 132000Z AUTO 27006KT 6SM 11/M06 A3000 RMK T01101060 IEM_DS3505
ZBAA,2001-04-13 21:00,ZBAA 132100Z AUTO 25006KT 12SM 11/M05 A3000 RMK SLP164 T01111049 57008 IEM_DS3505
ZBAA,2001-04-13 22:00,ZBAA 132200Z AUTO 26002KT 6SM 07/M02 A3000 RMK T00701020 IEM_DS3505
ZBAA,2001-04-13 23:00,ZBAA 132300Z AUTO 29002KT 6SM 14/M07 A3000 RMK T01401070 IEM_DS3505
ZBAA,2001-04-14 00:00,ZBAA 140000Z AUTO 25008KT 9SM 14/M05 A3000 RMK SLP160 T01431052 57004 IEM_DS3505
ZBAA,2001-04-14 01:00,ZBAA 140100Z AUTO 28008KT 6SM 18/M08 A2997 RMK T01801080 IEM_DS3505
ZBAA,2001-04-14 02:00,ZBAA 140200Z AUTO 28014KT 6SM 21/M11 A2997 RMK T02101110 IEM_DS3505
ZBAA,2001-04-14 03:00,ZBAA 140300Z AUTO 20012G27KT 12SM 21/M07 A2997 RMK SLP149 T02071068 57011 IEM_DS3505
ZBAA,2001-04-14 04:00,ZBAA 140400Z AUTO 29016G25KT 6SM 23/M12 A2994 RMK T02301120 IEM_DS3505
ZBAA,2001-04-14 05:00,ZBAA 140500Z AUTO 28016KT 6SM 24/M10 A2991 RMK T02401100 IEM_DS3505
ZBAA,2001-04-14 06:00,ZBAA 140600Z AUTO 27008G27KT 12SM 25/M10 A2988 RMK SLP124 T02471102 57025 IEM_DS3505
ZBAA,2001-04-14 07:00,ZBAA 140700Z AUTO 27016G29KT 6SM 26/M12 A2985 RMK T02601120 IEM_DS3505
ZBAA,2001-04-14 08:00,ZBAA 140800Z AUTO 27012KT 6SM 26/M12 A2983 RMK T02601120 IEM_DS3505
ZBAA,2001-04-14 09:00,ZBAA 140900Z AUTO 32012KT 19SM 26/M17 A2983 RMK SLP098 T02631174 57025 IEM_DS3505
ZBAA,2001-04-14 10:00,ZBAA 141000Z AUTO 33008KT 6SM 26/M13 A2983 RMK T02601130 IEM_DS3505
ZBAA,2001-04-14 11:00,ZBAA 141100Z AUTO 36004KT 6SM 22/M10 A2985 RMK T02201100 IEM_DS3505
ZBAA,2001-04-14 12:00,ZBAA 141200Z AUTO 32006KT 17SM 23/M12 A2988 RMK SLP109 T02341116 52011 IEM_DS3505
ZBAA,2001-04-14 13:00,ZBAA 141300Z AUTO 34004KT 6SM 19/M12 A2988 RMK T01901120 IEM_DS3505
ZBAA,2001-04-14 14:00,ZBAA 141400Z AUTO 33006KT 6SM 17/M12 A2991 RMK T01701120 IEM_DS3505
ZBAA,2001-04-14 15:00,ZBAA 141500Z AUTO 00000KT 11SM 15/M01 A2991 RMK SLP126 T01541009 52016 IEM_DS3505
ZBAA,2001-04-14 16:00,ZBAA 141600Z AUTO 31002KT 6SM 15/M06 A2991 RMK T01501060 IEM_DS3505
ZBAA,2001-04-14 17:00,ZBAA 141700Z AUTO 16002KT 6SM 11/M04 A2991 RMK T01101040 IEM_DS3505
ZBAA,2001-04-14 18:00,ZBAA 141800Z AUTO 00000KT 9SM 11/01 A2991 RMK SLP128 T01090007 52002 IEM_DS3505
ZBAA,2001-04-14 19:00,ZBAA 141900Z AUTO 34004KT 6SM 12/M06 A2991 RMK T01201060 IEM_DS3505
ZBAA,2001-04-14 20:00,ZBAA 142000Z AUTO 31002KT 6SM 10/M02 A2991 RMK T01001020 IEM_DS3505
ZBAA,2001-04-14 21:00,ZBAA 142100Z AUTO 07004KT 9SM 10/M01 A2991 RMK SLP130 T01051012 52002 IEM_DS3505
ZBAA,2001-04-14 22:00,ZBAA 142200Z AUTO 32002KT 6SM 09/M02 A2994 RMK T00901020 IEM_DS3505
ZBAA,2001-04-15 00:00,ZBAA 150000Z AUTO 07006KT 6SM 15/M05 A2994 RMK SLP136 T01511053 52007 IEM_DS3505
ZBAA,2001-04-15 01:00,ZBAA 150100Z AUTO 10006KT 6SM 18/M02 A2994 RMK T01801020 IEM_DS3505
ZBAA,2001-04-15 02:00,ZBAA 150200Z AUTO 12006KT 6SM 19/M03 A2994 RMK T01901030 IEM_DS3505
ZBAA,2001-04-15 03:00,ZBAA 150300Z AUTO 07006KT 6SM 15/M05 A2991 RMK SLP136 T01511053 52007 IEM_DS3505
ZBAA,2001-04-15 04:00,ZBAA 150400Z AUTO 16006KT 6SM 23/M03 A2988 RMK T02301030 IEM_DS3505
ZBAA,2001-04-15 05:00,ZBAA 150500Z AUTO 18008KT 6SM 25/M04 A2983 RMK T02501040 IEM_DS3505
ZBAA,2001-04-15 06:00,ZBAA 150600Z AUTO 22006KT 12SM 25/M02 A2980 RMK SLP085 T02511024 57042 IEM_DS3505
ZBAA,2001-04-15 07:00,ZBAA 150700Z AUTO 18010KT 6SM 25/M02 A2974 RMK T02501020 IEM_DS3505
ZBAA,2001-04-15 08:00,ZBAA 150800Z AUTO 18008KT 6SM 26/M03 A2971 RMK T02601030 IEM_DS3505
ZBAA,2001-04-15 09:00,ZBAA 150900Z AUTO 22008KT 12SM 26/M07 A2968 RMK SLP055 T02631068 57030 IEM_DS3505
ZBAA,2001-04-15 10:00,ZBAA 151000Z AUTO 21008KT 6SM 26/M08 A2968 RMK T02601080 IEM_DS3505
ZBAA,2001-04-15 11:00,ZBAA 151100Z AUTO 19006KT 6SM 22/M05 A2968 RMK T02201050 IEM_DS3505
ZBAA,2001-04-15 12:00,ZBAA 151200Z AUTO 22008KT 9SM 22/M00 A2971 RMK SLP059 T02181005 52004 IEM_DS3505
ZBAA,2001-04-15 13:00,ZBAA 151300Z AUTO 20010KT 6SM 22/M01 A2971 RMK T02201010 IEM_DS3505
ZBAA,2001-04-15 14:00,ZBAA 151400Z AUTO 23004KT 6SM 20/00 A2971 RMK T02000000 IEM_DS3505
ZBAA,2001-04-15 15:00,ZBAA 151500Z AUTO 22006KT 6SM 18/02 A2971 RMK SLP060 T01820020 52001 IEM_DS3505
ZBAA,2001-04-15 16:00,ZBAA 151600Z AUTO 00000KT 6SM 17/02 A2971 RMK T01700020 IEM_DS3505
ZBAA,2001-04-15 17:00,ZBAA 151700Z AUTO 00000KT 6SM 15/02 A2971 RMK T01500020 IEM_DS3505
ZBAA,2001-04-15 18:00,ZBAA 151800Z AUTO 22004KT 6SM 16/03 A2971 RMK SLP052 T01560028 57008 IEM_DS3505
ZBAA,2001-04-15 19:00,ZBAA 151900Z AUTO 36002KT 6SM 12/04 A2971 RMK T01200040 IEM_DS3505
ZBAA,2001-04-15 20:00,ZBAA 152000Z AUTO 36002KT 6SM 11/03 A2971 RMK T01100030 IEM_DS3505
ZBAA,2001-04-15 21:00,ZBAA 152100Z AUTO 09002KT 7SM 11/04 A2971 RMK SLP055 T01110045 52003 IEM_DS3505
ZBAA,2001-04-15 22:00,ZBAA 152200Z AUTO 04002KT 10/03 A2974 RMK T01000030 IEM_DS3505
ZBAA,2001-04-15 23:00,ZBAA 152300Z AUTO 36002KT 12/03 A2974 RMK T01200030 IEM_DS3505
ZBAA,2001-04-16 00:00,ZBAA 160000Z AUTO 04004KT 6SM 15/03 A2977 RMK SLP078 T01490033 52023 IEM_DS3505
ZBAA,2001-04-16 01:00,ZBAA 160100Z AUTO 6SM 19/03 A2977 RMK T01900030 IEM_DS3505
ZBAA,2001-04-16 02:00,ZBAA 160200Z AUTO 6SM 22/03 A2977 RMK T02200030 IEM_DS3505
ZBAA,2001-04-16 03:00,ZBAA 160300Z AUTO 09006KT 6SM 24/02 A2977 RMK SLP081 T02410019 52003 IEM_DS3505
ZBAA,2001-04-16 04:00,ZBAA 160400Z AUTO 6SM 28/M07 A2977 RMK T02801070 IEM_DS3505
ZBAA,2001-04-16 05:00,ZBAA 160500Z AUTO 6SM 29/M06 A2977 RMK T02901060 IEM_DS3505
ZBAA,2001-04-16 06:00,ZBAA 160600Z AUTO 14006KT 7SM 29/M02 A2974 RMK SLP072 T02901019 57009 IEM_DS3505
ZBAA,2001-04-16 07:00,ZBAA 160700Z AUTO 6SM 30/M08 A2971 RMK T03001080 IEM_DS3505
ZBAA,2001-04-16 08:00,ZBAA 160800Z AUTO 11004KT 6SM 30/M05 A2971 RMK T03001050 IEM_DS3505
ZBAA,2001-04-16 09:00,ZBAA 160900Z AUTO 16010KT 9SM 28/M01 A2971 RMK SLP064 T02761014 IEM_DS3505
ZBAA,2001-04-16 10:00,ZBAA 161000Z AUTO 18010KT 6SM 27/M03 A2971 RMK T02701030 IEM_DS3505
ZBAA,2001-04-16 11:00,ZBAA 161100Z AUTO 17006KT 6SM 24/M01 A2974 RMK T02401010 IEM_DS3505
ZBAA,2001-04-16 12:00,ZBAA 161200Z AUTO 22004KT 12SM 22/05 A2977 RMK SLP076 T02240050 52012 IEM_DS3505
ZBAA,2001-04-16 13:00,ZBAA 161300Z AUTO 12004KT 6SM 20/02 A2980 RMK T02000020 IEM_DS3505
ZBAA,2001-04-16 14:00,ZBAA 161400Z AUTO 11006KT 6SM 20/03 A2980 RMK T02000030 IEM_DS3505
ZBAA,2001-04-16 15:00,ZBAA 161500Z AUTO 09004KT 12SM 16/06 A2980 RMK SLP085 T01620057 52009 IEM_DS3505
ZBAA,2001-04-16 16:00,ZBAA 161600Z AUTO 12008KT 16/08 A2983 RMK T01600080 IEM_DS3505
ZBAA,2001-04-16 17:00,ZBAA 161700Z AUTO 12008KT 15/09 A2983 RMK T01500090 IEM_DS3505
ZBAA,2001-04-16 18:00,ZBAA 161800Z AUTO 11006KT 10SM 13/09 A2983 RMK SLP092 T01290092 52007 IEM_DS3505
ZBAA,2001-04-16 19:00,ZBAA 161900Z AUTO 00000KT 4SM 13/09 A2983 RMK T01300090 IEM_DS3505
ZBAA,2001-04-16 20:00,ZBAA 162000Z AUTO 00000KT 4SM 13/09 A2983 RMK T01300090 IEM_DS3505
ZBAA,2001-04-16 21:00,ZBAA 162100Z AUTO 07004KT 7SM 12/09 A2983 RMK SLP096 T01230087 52004 IEM_DS3505
ZBAA,2001-04-16 22:00,ZBAA 162200Z AUTO 25002KT 2 1/2SM 12/09 A2983 RMK T01200090 IEM_DS3505
ZBAA,2001-04-16 23:00,ZBAA 162300Z AUTO 00000KT 2 1/2SM 13/10 A2985 RMK T01300100 IEM_DS3505
ZBAA,2001-04-17 00:00,ZBAA 170000Z AUTO 09004KT 4SM 15/08 A2985 RMK SLP104 T01480085 52008 IEM_DS3505
ZBAA,2001-04-17 01:00,ZBAA 170100Z AUTO 13004KT 2 1/2SM 17/08 A2985 RMK T01700080 IEM_DS3505
ZBAA,2001-04-17 02:00,ZBAA 170200Z AUTO 10004KT 2 1/2SM 19/08 A2983 RMK T01900080 IEM_DS3505
ZBAA,2001-04-17 03:00,ZBAA 170300Z AUTO 16006KT 5SM 20/10 RMK SLP096 T01990097 57008 IEM_DS3505
ZBAA,2001-04-17 04:00,ZBAA 170400Z AUTO 14008KT 3SM 23/08 A2977 RMK T02300080 IEM_DS3505
ZBAA,2001-04-17 05:00,ZBAA 170500Z AUTO 18008KT 3SM 26/08 A2974 RMK T02600080 IEM_DS3505
ZBAA,2001-04-17 06:00,ZBAA 170600Z AUTO 20012KT 6SM 27/06 A2971 RMK SLP056 T02720059 57040 IEM_DS3505
ZBAA,2001-04-17 07:00,ZBAA 170700Z AUTO 7SM RMK IEM_DS3505
ZBAA,2001-04-17 08:00,ZBAA 170800Z AUTO 18012KT 29/07 A2962 RMK T02900070 IEM_DS3505
ZBAA,2001-04-17 09:00,ZBAA 170900Z AUTO 22008KT 6SM 29/08 A2959 RMK SLP026 T02860083 57030 IEM_DS3505
ZBAA,2001-04-17 10:00,ZBAA 171000Z AUTO 19008KT 28/06 A2959 RMK T02800060 IEM_DS3505
ZBAA,2001-04-17 11:00,ZBAA 171100Z AUTO 15004KT 25/07 A2959 RMK T02500070 IEM_DS3505
ZBAA,2001-04-17 12:00,ZBAA 171200Z AUTO 16004KT 6SM 25/08 A2962 RMK SLP034 T02480078 52008 IEM_DS3505
ZBAA,2001-04-17 13:00,ZBAA 171300Z AUTO 18008KT 6SM 24/07 A2965 RMK T02400070 IEM_DS3505
ZBAA,2001-04-17 14:00,ZBAA 171400Z AUTO 17010KT 6SM 23/06 A2965 RMK T02300060 IEM_DS3505
ZBAA,2001-04-17 15:00,ZBAA 171500Z AUTO 20010KT 7SM 22/08 A2965 RMK SLP035 T02220081 52001 IEM_DS3505
ZBAA,2001-04-17 16:00,ZBAA 171600Z AUTO 15006KT 6SM 21/09 A2962 RMK T02100090 IEM_DS3505
ZBAA,2001-04-17 17:00,ZBAA 171700Z AUTO 13004KT 6SM 20/10 A2962 RMK T02000100 IEM_DS3505
ZBAA,2001-04-17 18:00,ZBAA 171800Z AUTO 18008KT 6SM 19/10 A2959 RMK SLP018 T01930101 57016 IEM_DS3505
ZBAA,2001-04-17 19:00,ZBAA 171900Z AUTO 13006KT 6SM 18/10 A2959 RMK T01800100 IEM_DS3505
ZBAA,2001-04-17 20:00,ZBAA 172000Z AUTO 11006KT 6SM 18/11 A2956 RMK T01800110 IEM_DS3505
ZBAA,2001-04-17 21:00,ZBAA 172100Z AUTO 16004KT 6SM 18/12 A2956 RMK SLP011 T01810118 57007 IEM_DS3505
ZBAA,2001-04-17 22:00,ZBAA 172200Z AUTO 12006KT 5SM 17/11 A2959 RMK T01700110 IEM_DS3505
ZBAA,2001-04-17 23:00,ZBAA 172300Z AUTO 11004KT 4SM 17/12 A2959 RMK T01700120 IEM_DS3505
ZBAA,2001-04-18 00:00,ZBAA 180000Z AUTO 00000KT 6SM 18/13 A2959 RMK SLP019 T01780130 52007 IEM_DS3505
ZBAA,2001-04-18 01:00,ZBAA 180100Z AUTO 11004KT 19/13 A2962 RMK T01900130 IEM_DS3505
ZBAA,2001-04-18 02:00,ZBAA 180200Z AUTO 6SM 21/14 A2962 RMK T02100140 IEM_DS3505
ZBAA,2001-04-18 03:00,ZBAA 180300Z AUTO 11006KT 6SM 22/14 A2959 RMK SLP020 T02200136 52001 IEM_DS3505
ZBAA,2001-04-18 04:00,ZBAA 180400Z AUTO 15004KT 24/15 A2959 RMK T02400150 IEM_DS3505
ZBAA,2001-04-18 05:00,ZBAA 180500Z AUTO 14004KT 25/15 A2956 RMK T02500150 IEM_DS3505
ZBAA,2001-04-18 06:00,ZBAA 180600Z AUTO 14004KT 6SM 26/15 A2956 RMK SLP004 T02600152 57015 IEM_DS3505
ZBAA,2001-04-18 07:00,ZBAA 180700Z AUTO 18006KT 27/15 A2953 RMK T02700150 IEM_DS3505
ZBAA,2001-04-18 08:00,ZBAA 180800Z AUTO 19008KT 27/13 A2950 RMK T02700130 IEM_DS3505
ZBAA,2001-04-18 09:00,ZBAA 180900Z AUTO 22006KT 6SM 28/13 A2950 RMK SLP989 T02780128 57015 IEM_DS3505
ZBAA,2001-04-18 10:00,ZBAA 181000Z AUTO 20004KT 27/13 A2950 RMK T02700130 IEM_DS3505
ZBAA,2001-04-18 11:00,ZBAA 181100Z AUTO 14002KT 25/14 A2950 RMK T02500140 IEM_DS3505
ZBAA,2001-04-18 12:00,ZBAA 181200Z AUTO 00000KT 7SM 23/15 A2953 RMK SLP999 T02290151 52009 IEM_DS3505
ZBAA,2001-04-18 13:00,ZBAA 181300Z AUTO 35006KT 3SM 21/15 A2959 RMK T02100150 IEM_DS3505
ZBAA,2001-04-18 14:00,ZBAA 181400Z AUTO 03004KT 3SM 23/15 A2962 RMK T02300150 IEM_DS3505
ZBAA,2001-04-18 15:00,ZBAA 181500Z AUTO 04004KT 6SM 22/13 A2965 RMK SLP031 T02250134 52032 IEM_DS3505
ZBAA,2001-04-18 16:00,ZBAA 181600Z AUTO 01010KT 5SM 23/11 A2968 RMK T02300110 IEM_DS3505
ZBAA,2001-04-18 17:00,ZBAA 181700Z AUTO 01017G27KT 6SM 23/01 A2971 RMK T02300010 IEM_DS3505
ZBAA,2001-04-18 18:00,ZBAA 181800Z AUTO 02012KT 12SM 23/M01 A2977 RMK SLP064 T02281012 52034 IEM_DS3505
ZBAA,2001-04-18 19:00,ZBAA 181900Z AUTO 36014KT 6SM 20/01 A2983 RMK T02000010 IEM_DS3505
ZBAA,2001-04-18 20:00,ZBAA 182000Z AUTO 36016KT 6SM 18/M01 A2985 RMK T01801010 IEM_DS3505
ZBAA,2001-04-18 21:00,ZBAA 182100Z AUTO 02008G19KT 12SM 19/M03 A2991 RMK SLP121 T01891028 52056 IEM_DS3505
ZBAA,2001-04-18 22:00,ZBAA 182200Z AUTO 01010KT 6SM 17/M02 A2997 RMK T01701020 IEM_DS3505
ZBAA,2001-04-18 23:00,ZBAA 182300Z AUTO 02012KT 6SM 16/M03 A3003 RMK T01601030 IEM_DS3505
ZBAA,2001-04-19 00:00,ZBAA 190000Z AUTO 04010KT 19SM 17/M05 A3006 RMK SLP174 T01701049 52053 IEM_DS3505
ZBAA,2001-04-19 01:00,ZBAA 190100Z AUTO 01012G21KT 6SM 16/M04 A3009 RMK T01601040 IEM_DS3505
ZBAA,2001-04-19 02:00,ZBAA 190200Z AUTO 36016KT 6SM 16/M07 A3012 RMK T01601070 IEM_DS3505
ZBAA,2001-04-19 03:00,ZBAA 190300Z AUTO 07010KT 12SM 17/M08 A3012 RMK SLP196 T01731085 52021 IEM_DS3505
ZBAA,2001-04-19 04:00,ZBAA 190400Z AUTO 03008KT 6SM 17/M06 A3012 RMK T01701060 IEM_DS3505
ZBAA,2001-04-19 05:00,ZBAA 190500Z AUTO 06006KT 6SM 18/M07 A3009 RMK T01801070 IEM_DS3505
ZBAA,2001-04-19 06:00,ZBAA 190600Z AUTO 09008KT 12SM 17/M05 A3006 RMK SLP179 T01741054 57016 IEM_DS3505
ZBAA,2001-04-19 07:00,ZBAA 190700Z AUTO 6SM 19/M08 A3003 RMK T01901080 IEM_DS3505
ZBAA,2001-04-19 08:00,ZBAA 190800Z AUTO 13004KT 6SM 19/M07 A3003 RMK T01901070 IEM_DS3505
ZBAA,2001-04-19 09:00,ZBAA 190900Z AUTO 18008KT 12SM 15/M04 A3003 RMK SLP175 T01511045 57005 IEM_DS3505
ZBAA,2001-04-19 10:00,ZBAA 191000Z AUTO 17012KT 6SM 15/M06 A3006 RMK T01501060 IEM_DS3505
ZBAA,2001-04-19 11:00,ZBAA 191100Z AUTO 16008KT 6SM 14/M06 A3006 RMK T01401060 IEM_DS3505
ZBAA,2001-04-19 12:00,ZBAA 191200Z AUTO 18008KT 12SM 13/M04 A3012 RMK SLP195 T01271045 52020 IEM_DS3505
ZBAA,2001-04-19 13:00,ZBAA 191300Z AUTO 16008KT 6SM 12/M03 A3015 RMK T01201030 IEM_DS3505
ZBAA,2001-04-19 14:00,ZBAA 191400Z AUTO 15008KT 6SM 11/M05 A3015 RMK T01101050 IEM_DS3505
ZBAA,2001-04-19 15:00,ZBAA 191500Z AUTO 18006KT 9SM 10/M04 A3018 RMK SLP213 T01021041 52018 IEM_DS3505
ZBAA,2001-04-19 16:00,ZBAA 191600Z AUTO 13004KT 6SM 09/M03 A3018 RMK T00901030 IEM_DS3505
ZBAA,2001-04-19 17:00,ZBAA 191700Z AUTO 12004KT 6SM 08/M02 A3018 RMK T00801020 IEM_DS3505
ZBAA,2001-04-19 18:00,ZBAA 191800Z AUTO 18002KT 12SM 08/M03 A3018 RMK SLP218 T00811029 52004 IEM_DS3505
ZBAA,2001-04-19 19:00,ZBAA 191900Z AUTO 09002KT 6SM 07/M01 A3018 RMK T00701010 IEM_DS3505
ZBAA,2001-04-19 20:00,ZBAA 192000Z AUTO 09002KT 6SM 06/M01 A3018 RMK T00601010 IEM_DS3505
ZBAA,2001-04-19 21:00,ZBAA 192100Z AUTO 09002KT 6SM 05/M02 A3021 RMK T00501020 IEM_DS3505
ZBAA,2001-04-19 22:00,ZBAA 192200Z AUTO 15002KT 6SM 04/M01 A3021 RMK T00401010 IEM_DS3505
ZBAA,2001-04-19 23:00,ZBAA 192300Z AUTO 11004KT 6SM 07/M01 A3021 RMK T00701010 IEM_DS3505
ZBAA,2001-04-20 00:00,ZBAA 200000Z AUTO 18004KT 12SM 09/M01 RMK SLP229 T00921012 52008 IEM_DS3505
ZBAA,2001-04-20 01:00,ZBAA 200100Z AUTO 17004KT 6SM 11/M06 A3021 RMK T01101060 IEM_DS3505
ZBAA,2001-04-20 02:00,ZBAA 200200Z AUTO 19004KT 6SM 13/M09 A3018 RMK T01301090 IEM_DS3505
ZBAA,2001-04-20 03:00,ZBAA 200300Z AUTO 25006G23KT 12SM 14/M08 A3018 RMK SLP218 T01361075 57011 IEM_DS3505
ZBAA,2001-04-20 04:00,ZBAA 200400Z AUTO 23004KT 6SM 14/M06 A3015 RMK T01401060 IEM_DS3505
ZBAA,2001-04-20 06:00,ZBAA 200600Z AUTO 25010KT 12SM 15/M05 A3006 RMK SLP187 T01501047 57031 IEM_DS3505
ZBAA,2001-04-20 07:00,ZBAA 200700Z AUTO 18008KT 6SM 17/M05 A3003 RMK T01701050 IEM_DS3505
ZBAA,2001-04-20 08:00,ZBAA 200800Z AUTO 18008KT 6SM 16/M04 A3000 RMK T01601040 IEM_DS3505
ZBAA,2001-04-20 09:00,ZBAA 200900Z AUTO 22010KT 9SM 15/M03 A3000 RMK SLP158 T01501029 57029 IEM_DS3505
ZBAA,2001-04-20 10:00,ZBAA 201000Z AUTO 18010KT 6SM 15/M03 A3000 RMK T01501030 IEM_DS3505
ZBAA,2001-04-20 11:00,ZBAA 201100Z AUTO 16006KT 6SM 13/M02 A3000 RMK T01301020 IEM_DS3505
ZBAA,2001-04-20 12:00,ZBAA 201200Z AUTO 22004KT 11SM 12/M02 A3003 RMK SLP163 T01251023 52005 IEM_DS3505
ZBAA,2001-04-20 13:00,ZBAA 201300Z AUTO 15004KT 6SM 12/M02 A3006 RMK T01201020 IEM_DS3505
ZBAA,2001-04-20 14:00,ZBAA 201400Z AUTO 18004KT 6SM 11/M02 A3006 RMK T01101020 IEM_DS3505
ZBAA,2001-04-20 15:00,ZBAA 201500Z AUTO 00000KT 12SM 09/02 A3006 RMK SLP176 T00890016 52013 IEM_DS3505
ZBAA,2001-04-20 16:00,ZBAA 201600Z AUTO 11002KT 6SM 08/00 A3006 RMK T00800000 IEM_DS3505
ZBAA,2001-04-20 17:00,ZBAA 201700Z AUTO 00000KT 6SM 07/00 A3006 RMK T00700000 IEM_DS3505
ZBAA,2001-04-20 18:00,ZBAA 201800Z AUTO 25002KT 9SM 08/00 A3006 RMK SLP176 T00780005 54000 IEM_DS3505
ZBAA,2001-04-20 19:00,ZBAA 201900Z AUTO 29002KT 6SM 07/00 A3006 RMK T00700000 IEM_DS3505
ZBAA,2001-04-20 20:00,ZBAA 202000Z AUTO 36006KT 6SM 07/00 A3006 RMK T00700000 IEM_DS3505
ZBAA,2001-04-20 21:00,ZBAA 202100Z AUTO 00000KT 7SM 05/M00 A3006 RMK SLP182 T00541001 52006 IEM_DS3505
ZBAA,2001-04-20 22:00,ZBAA 202200Z AUTO 31004KT 6SM 06/01 A3009 RMK T00600010 IEM_DS3505
ZBAA,2001-04-20 23:00,ZBAA 202300Z AUTO 34004KT 6SM 08/01 A3012 RMK T00800010 IEM_DS3505
ZBAA,2001-04-21 00:00,ZBAA 210000Z AUTO 09008KT 6SM 11/01 A3015 RMK SLP210 T01120011 52028 IEM_DS3505
ZBAA,2001-04-21 01:00,ZBAA 210100Z AUTO 11008KT 6SM 15/00 A3018 RMK T01500000 IEM_DS3505
ZBAA,2001-04-21 02:00,ZBAA 210200Z AUTO 10012KT 6SM 16/M01 A3018 RMK T01601010 IEM_DS3505
ZBAA,2001-04-21 03:00,ZBAA 210300Z AUTO 11006KT 7SM 17/00 A3018 RMK SLP220 T01670002 52010 IEM_DS3505
ZBAA,2001-04-21 04:00,ZBAA 210400Z AUTO 14008KT 6SM 19/00 A3015 RMK T01900000 IEM_DS3505
ZBAA,2001-04-21 05:00,ZBAA 210500Z AUTO 16008KT 6SM 19/00 A3012 RMK T01900000 IEM_DS3505
ZBAA,2001-04-21 06:00,ZBAA 210600Z AUTO 18008KT 9SM 21/M02 A3009 RMK SLP191 T02091015 57028 IEM_DS3505
ZBAA,2001-04-21 07:00,ZBAA 210700Z AUTO 18008KT 6SM 21/M02 A3006 RMK T02101020 IEM_DS3505
ZBAA,2001-04-21 08:00,ZBAA 210800Z AUTO 16014KT 6SM 21/00 A3003 RMK T02100000 IEM_DS3505
ZBAA,2001-04-21 09:00,ZBAA 210900Z AUTO 16014KT 9SM 18/M06 A3006 RMK SLP176 T01821060 57016 IEM_DS3505
ZBAA,2001-04-21 10:00,ZBAA 211000Z AUTO 16012KT 6SM 17/M03 A3006 RMK T01701030 IEM_DS3505
ZBAA,2001-04-21 11:00,ZBAA 211100Z AUTO 14010KT 6SM 15/M04 A3006 RMK T01501040 IEM_DS3505
ZBAA,2001-04-21 12:00,ZBAA 211200Z AUTO 14004KT 6SM 14/M01 A3009 RMK SLP184 T01411011 52009 IEM_DS3505
ZBAA,2001-04-21 13:00,ZBAA 211300Z AUTO 12006KT 6SM 13/M03 A3012 RMK T01301030 IEM_DS3505
ZBAA,2001-04-21 14:00,ZBAA 211400Z AUTO 11006KT 6SM 11/M02 A3012 RMK T01101020 IEM_DS3505
ZBAA,2001-04-21 15:00,ZBAA 211500Z AUTO 09004KT 6SM 10/M01 A3012 RMK SLP195 T00971008 52011 IEM_DS3505
ZBAA,2001-04-21 16:00,ZBAA 211600Z AUTO 10004KT 6SM 10/M02 A3012 RMK T01001020 IEM_DS3505
ZBAA,2001-04-21 17:00,ZBAA 211700Z AUTO 10004KT 6SM 09/M02 A3012 RMK T00901020 IEM_DS3505
ZBAA,2001-04-21 18:00,ZBAA 211800Z AUTO 04002KT 7SM 08/01 A3012 RMK SLP196 T00790006 52001 IEM_DS3505
ZBAA,2001-04-21 19:00,ZBAA 211900Z AUTO 00000KT 6SM 07/M01 A3012 RMK T00701010 IEM_DS3505
ZBAA,2001-04-21 20:00,ZBAA 212000Z AUTO 00000KT 6SM 07/00 A3009 RMK T00700000 IEM_DS3505
ZBAA,2001-04-21 21:00,ZBAA 212100Z AUTO 04002KT 6SM 07/01 A3012 RMK SLP193 T00670006 57004 IEM_DS3505
ZBAA,2001-04-21 22:00,ZBAA 212200Z AUTO 00000KT 6SM 06/M01 A3012 RMK T00601010 IEM_DS3505
ZBAA,2001-04-21 23:00,ZBAA 212300Z AUTO 00000KT 6SM 08/00 A3012 RMK T00800000 IEM_DS3505
ZBAA,2001-04-22 00:00,ZBAA 220000Z AUTO 07002KT 6SM 09/00 A3012 RMK SLP199 T00930000 52006 IEM_DS3505
ZBAA,2001-04-22 01:00,ZBAA 220100Z AUTO 6SM 12/00 A3012 RMK T01200000 IEM_DS3505
ZBAA,2001-04-22 02:00,ZBAA 220200Z AUTO 6SM 14/01 A3012 RMK T01400010 IEM_DS3505
ZBAA,2001-04-22 03:00,ZBAA 220300Z AUTO 09/00 A3009 RMK SLP199 T00930000 52006 IEM_DS3505
ZBAA,2001-04-22 04:00,ZBAA 220400Z AUTO 6SM 17/02 A3003 RMK T01700020 IEM_DS3505
ZBAA,2001-04-22 05:00,ZBAA 220500Z AUTO 19012KT 6SM 20/04 A2997 RMK T02000040 IEM_DS3505
ZBAA,2001-04-22 06:00,ZBAA 220600Z AUTO 22010KT 9SM 22/04 A2994 RMK SLP136 T02240040 57050 IEM_DS3505
ZBAA,2001-04-22 07:00,ZBAA 220700Z AUTO 21010KT 6SM 24/04 A2988 RMK T02400040 IEM_DS3505
ZBAA,2001-04-22 08:00,ZBAA 220800Z AUTO 21012KT 6SM 24/M01 A2985 RMK T02401010 IEM_DS3505
ZBAA,2001-04-22 09:00,ZBAA 220900Z AUTO 22010KT 12SM 23/M03 A2985 RMK SLP107 T02331033 57029 IEM_DS3505
ZBAA,2001-04-22 10:00,ZBAA 221000Z AUTO 21016KT 6SM 23/M03 A2983 RMK T02301030 IEM_DS3505
ZBAA,2001-04-22 11:00,ZBAA 221100Z AUTO 20010KT 6SM 22/M05 A2983 RMK T02201050 IEM_DS3505
ZBAA,2001-04-22 12:00,ZBAA 221200Z AUTO 22008KT 12SM 20/M01 A2985 RMK SLP107 T02011006 54000 IEM_DS3505
ZBAA,2001-04-22 13:00,ZBAA 221300Z AUTO 19012KT 6SM 20/00 A2985 RMK T02000000 IEM_DS3505
ZBAA,2001-04-22 14:00,ZBAA 221400Z AUTO 20010KT 6SM 19/01 A2985 RMK T01900010 IEM_DS3505
ZBAA,2001-04-22 15:00,ZBAA 221500Z AUTO 22010KT 9SM 18/02 A2988 RMK SLP122 T01800019 52015 IEM_DS3505
ZBAA,2001-04-22 16:00,ZBAA 221600Z AUTO 25006KT 6SM 19/03 A2991 RMK T01900030 IEM_DS3505
ZBAA,2001-04-22 17:00,ZBAA 221700Z AUTO 33002KT 6SM 15/03 A2991 RMK T01500030 IEM_DS3505
ZBAA,2001-04-22 18:00,ZBAA 221800Z AUTO 34002KT 12SM 17/05 A2994 RMK SLP125 T01660051 52004 IEM_DS3505
ZBAA,2001-04-22 19:00,ZBAA 221900Z AUTO 01008KT 6SM 17/M01 A2994 RMK T01701010 IEM_DS3505
ZBAA,2001-04-22 20:00,ZBAA 222000Z AUTO 01016KT 6SM 17/M05 A2997 RMK T01701050 IEM_DS3505
ZBAA,2001-04-22 21:00,ZBAA 222100Z AUTO 02010KT 12SM 17/M05 A3000 RMK SLP153 T01721049 52028 IEM_DS3505
ZBAA,2001-04-22 22:00,ZBAA 222200Z AUTO 01014G23KT 7SM 15/M11 A3006 RMK T01501110 IEM_DS3505
ZBAA,2001-04-22 23:00,ZBAA 222300Z AUTO 01016G29KT 7SM 14/M14 A3009 RMK T01401140 IEM_DS3505
ZBAA,2001-04-23 00:00,ZBAA 230000Z AUTO 04008KT 12SM 14/M16 A3012 RMK SLP197 T01381160 52043 IEM_DS3505
ZBAA,2001-04-23 01:00,ZBAA 230100Z AUTO 03006KT 7SM 13/M13 A3015 RMK T01301130 IEM_DS3505
ZBAA,2001-04-23 02:00,ZBAA 230200Z AUTO 03006KT 17SM RMK IEM_DS3505
ZBAA,2001-04-23 03:00,ZBAA 230300Z AUTO 02008KT 16SM 15/M16 A3018 RMK SLP211 T01471162 52014 IEM_DS3505
ZBAA,2001-04-23 04:00,ZBAA 230400Z AUTO 01006KT 6SM 15/M16 A3015 RMK T01501160 IEM_DS3505
ZBAA,2001-04-23 05:00,ZBAA 230500Z AUTO 02006KT 6SM 17/M16 A3012 RMK T01701160 IEM_DS3505
ZBAA,2001-04-23 06:00,ZBAA 230600Z AUTO 07010KT 11SM 17/M17 A3012 RMK SLP197 T01701168 57014 IEM_DS3505
ZBAA,2001-04-23 07:00,ZBAA 230700Z AUTO 6SM 18/M14 A3009 RMK T01801140 IEM_DS3505
ZBAA,2001-04-23 08:00,ZBAA 230800Z AUTO 6SM 18/M14 A3006 RMK T01801140 IEM_DS3505
ZBAA,2001-04-23 09:00,ZBAA 230900Z AUTO 07006KT 11SM 17/M15 A3009 RMK SLP184 T01731153 57013 IEM_DS3505
ZBAA,2001-04-23 10:00,ZBAA 231000Z AUTO 6SM 17/M14 A3009 RMK T01701140 IEM_DS3505
ZBAA,2001-04-23 11:00,ZBAA 231100Z AUTO 03002KT 6SM 16/M13 A3009 RMK T01601130 IEM_DS3505
ZBAA,2001-04-23 12:00,ZBAA 231200Z AUTO 29004KT 9SM 15/M09 A3012 RMK SLP199 T01521090 52015 IEM_DS3505
ZBAA,2001-04-23 13:00,ZBAA 231300Z AUTO 00000KT 6SM 13/M11 A3015 RMK T01301110 IEM_DS3505
ZBAA,2001-04-23 14:00,ZBAA 231400Z AUTO 02004KT 6SM 11/M06 A3018 RMK T01101060 IEM_DS3505
ZBAA,2001-04-23 15:00,ZBAA 231500Z AUTO 34006KT 6SM 15/M16 A3018 RMK SLP211 T01491163 52012 IEM_DS3505
ZBAA,2001-04-23 16:00,ZBAA 231600Z AUTO 29008KT 6SM 12/M15 A3018 RMK T01201150 IEM_DS3505
ZBAA,2001-04-23 17:00,ZBAA 231700Z AUTO 31010KT 6SM 12/M15 A3018 RMK T01201150 IEM_DS3505
ZBAA,2001-04-23 18:00,ZBAA 231800Z AUTO 00000KT 11SM 12/M09 A3018 RMK SLP212 T01151087 52001 IEM_DS3505
ZBAA,2001-04-23 19:00,ZBAA 231900Z AUTO 35006KT 6SM 09/M14 A3018 RMK T00901140 IEM_DS3505
ZBAA,2001-04-23 20:00,ZBAA 232000Z AUTO 34002KT 6SM 07/M12 A3018 RMK T00701120 IEM_DS3505
ZBAA,2001-04-23 21:00,ZBAA 232100Z AUTO 34004KT 12SM 11/M09 A3021 RMK SLP218 T01071089 52006 IEM_DS3505
ZBAA,2001-04-23 22:00,ZBAA 232200Z AUTO 02002KT 6SM 06/M10 A3021 RMK T00601100 IEM_DS3505
ZBAA,2001-04-23 23:00,ZBAA 232300Z AUTO 02002KT 6SM 10/M11 A3024 RMK T01001110 IEM_DS3505
ZBAA,2001-04-24 00:00,ZBAA 240000Z AUTO 04008KT 7SM 14/M16 A3024 RMK SLP231 T01441156 52013 IEM_DS3505
ZBAA,2001-04-24 01:00,ZBAA 240100Z AUTO 6SM 14/M11 A3024 RMK T01401110 IEM_DS3505
ZBAA,2001-04-24 02:00,ZBAA 240200Z AUTO 02004KT 6SM 16/M12 A3024 RMK T01601120 IEM_DS3505
ZBAA,2001-04-24 03:00,ZBAA 240300Z AUTO 36008KT 10SM 17/M18 A3024 RMK SLP232 T01721183 52001 IEM_DS3505
ZBAA,2001-04-24 04:00,ZBAA 240400Z AUTO 6SM 18/M12 A3021 RMK T01801120 IEM_DS3505
ZBAA,2001-04-24 05:00,ZBAA 240500Z AUTO 6SM 19/M13 A3015 RMK T01901130 IEM_DS3505
ZBAA,2001-04-24 06:00,ZBAA 240600Z AUTO 04006KT 7SM 19/M10 A3012 RMK SLP203 T01921098 57029 IEM_DS3505
ZBAA,2001-04-24 07:00,ZBAA 240700Z AUTO 20006KT 6SM 20/M11 A3009 RMK T02001110 IEM_DS3505
ZBAA,2001-04-24 08:00,ZBAA 240800Z AUTO 6SM 21/M10 A3006 RMK T02101100 IEM_DS3505
ZBAA,2001-04-24 09:00,ZBAA 240900Z AUTO 18006KT 7SM 20/M10 A3006 RMK SLP186 T01961097 57017 IEM_DS3505
ZBAA,2001-04-24 10:00,ZBAA 241000Z AUTO 21010KT 6SM 20/M10 A3006 RMK T02001100 IEM_DS3505
ZBAA,2001-04-24 11:00,ZBAA 241100Z AUTO 21008KT 6SM 18/M10 A3009 RMK T01801100 IEM_DS3505
ZBAA,2001-04-24 12:00,ZBAA 241200Z AUTO 25006KT 9SM 16/M07 A3009 RMK SLP196 T01651067 52010 IEM_DS3505
ZBAA,2001-04-24 13:00,ZBAA 241300Z AUTO 22008KT 6SM 17/M09 A3012 RMK T01701090 IEM_DS3505
ZBAA,2001-04-24 14:00,ZBAA 241400Z AUTO 22008KT 6SM 17/M07 A3012 RMK T01701070 IEM_DS3505
ZBAA,2001-04-24 15:00,ZBAA 241500Z AUTO 25004KT 7SM 14/M04 A3012 RMK SLP199 T01451035 52003 IEM_DS3505
ZBAA,2001-04-24 16:00,ZBAA 241600Z AUTO 04002KT 6SM 14/M04 A3012 RMK T01401040 IEM_DS3505
ZBAA,2001-04-24 17:00,ZBAA 241700Z AUTO 00000KT 6SM 12/M03 A3012 RMK T01201030 IEM_DS3505
ZBAA,2001-04-24 18:00,ZBAA 241800Z AUTO 20002KT 7SM 10/M00 A3009 RMK SLP196 T01051002 57003 IEM_DS3505
ZBAA,2001-04-24 19:00,ZBAA 241900Z AUTO 36002KT 6SM 09/M01 A3009 RMK T00901010 IEM_DS3505
ZBAA,2001-04-24 20:00,ZBAA 242000Z AUTO 01002KT 6SM 08/M01 A3009 RMK T00801010 IEM_DS3505
ZBAA,2001-04-24 21:00,ZBAA 242100Z AUTO 00000KT 6SM 09/01 A3009 RMK SLP194 T00860012 57002 IEM_DS3505
ZBAA,2001-04-24 22:00,ZBAA 242200Z AUTO 00000KT 6SM 08/M01 A3012 RMK T00801010 IEM_DS3505
ZBAA,2001-04-24 23:00,ZBAA 242300Z AUTO 00000KT 5SM 11/M02 A3012 RMK T01101020 IEM_DS3505
ZBAA,2001-04-25 00:00,ZBAA 250000Z AUTO 09002KT 5SM 13/04 A3012 RMK SLP194 T01280045 54000 IEM_DS3505
ZBAA,2001-04-25 01:00,ZBAA 250100Z AUTO 5SM 15/M02 A3012 RMK T01501020 IEM_DS3505
ZBAA,2001-04-25 02:00,ZBAA 250200Z AUTO 5SM 17/M04 A3012 RMK T01701040 IEM_DS3505
ZBAA,2001-04-25 03:00,ZBAA 250300Z AUTO 14006KT 5SM 18/02 A3009 RMK SLP194 T01840015 54000 IEM_DS3505
ZBAA,2001-04-25 04:00,ZBAA 250400Z AUTO 17004KT 6SM 21/M04 A3006 RMK T02101040 IEM_DS3505
ZBAA,2001-04-25 05:00,ZBAA 250500Z AUTO 16006KT 6SM 21/M04 A3003 RMK T02101040 IEM_DS3505
ZBAA,2001-04-25 06:00,ZBAA 250600Z AUTO 22008KT 6SM 22/M02 A3003 RMK SLP168 T02181016 57026 IEM_DS3505
ZBAA,2001-04-25 07:00,ZBAA 250700Z AUTO 21010KT 6SM 22/M06 A3000 RMK T02201060 IEM_DS3505
ZBAA,2001-04-25 08:00,ZBAA 250800Z AUTO 20008KT 6SM 22/M09 A2997 RMK T02201090 IEM_DS3505
ZBAA,2001-04-25 09:00,ZBAA 250900Z AUTO 22010KT 9SM 23/M06 A2994 RMK SLP147 T02261058 57021 IEM_DS3505
ZBAA,2001-04-25 10:00,ZBAA 251000Z AUTO 17006KT 6SM 22/M04 A2994 RMK T02201040 IEM_DS3505
ZBAA,2001-04-25 11:00,ZBAA 251100Z AUTO 20008KT 6SM 20/M05 A2997 RMK T02001050 IEM_DS3505
ZBAA,2001-04-25 12:00,ZBAA 251200Z AUTO 22006KT 19SM 18/M01 A2997 RMK SLP152 T01761010 52005 IEM_DS3505
ZBAA,2001-04-25 13:00,ZBAA 251300Z AUTO 20006KT 6SM 18/M02 A3000 RMK T01801020 IEM_DS3505
ZBAA,2001-04-25 14:00,ZBAA 251400Z AUTO 20004KT 6SM 16/M02 A2997 RMK T01601020 IEM_DS3505
ZBAA,2001-04-25 15:00,ZBAA 251500Z AUTO 20004KT 9SM 14/00 RMK SLP154 T01410004 52002 IEM_DS3505
ZBAA,2001-04-25 16:00,ZBAA 251600Z AUTO 14004KT 6SM 12/00 A3000 RMK T01200000 IEM_DS3505
ZBAA,2001-04-25 17:00,ZBAA 251700Z AUTO 14004KT 6SM 12/00 A2997 RMK T01200000 IEM_DS3505
ZBAA,2001-04-25 18:00,ZBAA 251800Z AUTO 18004KT 9SM 12/01 A2997 RMK SLP148 T01220010 57006 IEM_DS3505
ZBAA,2001-04-25 19:00,ZBAA 251900Z AUTO 36002KT 6SM 11/01 A2997 RMK T01100010 IEM_DS3505
ZBAA,2001-04-25 20:00,ZBAA 252000Z AUTO 00000KT 6SM 11/01 A2997 RMK T01100010 IEM_DS3505
ZBAA,2001-04-25 21:00,ZBAA 252100Z AUTO 00000KT 9SM 11/02 A2997 RMK SLP148 T01100024 54000 IEM_DS3505
ZBAA,2001-04-25 22:00,ZBAA 252200Z AUTO 6SM 11/01 A2997 RMK T01100010 IEM_DS3505
ZBAA,2001-04-25 23:00,ZBAA 252300Z AUTO 13002KT 6SM 11/01 A3000 RMK T01100010 IEM_DS3505
ZBAA,2001-04-26 00:00,ZBAA 260000Z AUTO 22006KT 9SM 13/01 A3000 RMK SLP165 T01290011 52017 IEM_DS3505
ZBAA,2001-04-26 01:00,ZBAA 260100Z AUTO 20008G17KT 6SM 16/02 A3003 RMK T01600020 IEM_DS3505
ZBAA,2001-04-26 02:00,ZBAA 260200Z AUTO 20014KT 6SM 17/05 A3003 RMK T01700050 IEM_DS3505
ZBAA,2001-04-26 03:00,ZBAA 260300Z AUTO 20010KT 9SM 18/06 A3000 RMK SLP165 T01750058 54000 IEM_DS3505
ZBAA,2001-04-26 04:00,ZBAA 260400Z AUTO 18014KT 6SM 19/06 A3000 RMK T01900060 IEM_DS3505
ZBAA,2001-04-26 05:00,ZBAA 260500Z AUTO 17010KT 6SM 20/05 A2997 RMK T02000050 IEM_DS3505
ZBAA,2001-04-26 06:00,ZBAA 260600Z AUTO 20010KT 12SM 20/05 A2994 RMK SLP145 T01970053 57020 IEM_DS3505
ZBAA,2001-04-26 07:00,ZBAA 260700Z AUTO 14008KT 6SM 20/04 A2991 RMK T02000040 IEM_DS3505
ZBAA,2001-04-26 08:00,ZBAA 260800Z AUTO 15008KT 6SM 20/06 A2991 RMK T02000060 IEM_DS3505
ZBAA,2001-04-26 09:00,ZBAA 260900Z AUTO 14008KT 12SM 18/06 A2988 RMK SLP127 T01840055 57018 IEM_DS3505
ZBAA,2001-04-26 10:00,ZBAA 261000Z AUTO 13006KT 6SM 19/06 A2991 RMK T01900060 IEM_DS3505
ZBAA,2001-04-26 11:00,ZBAA 261100Z AUTO 13006KT 6SM 17/06 A2991 RMK T01700060 IEM_DS3505
ZBAA,2001-04-26 12:00,ZBAA 261200Z AUTO 11006KT 12SM 15/07 A2994 RMK SLP133 T01530067 52006 IEM_DS3505
ZBAA,2001-04-26 13:00,ZBAA 261300Z AUTO 13004KT 6SM 15/07 A2994 RMK T01500070 IEM_DS3505
ZBAA,2001-04-26 14:00,ZBAA 261400Z AUTO 14002KT 6SM 14/07 A2994 RMK T01400070 IEM_DS3505
ZBAA,2001-04-26 15:00,ZBAA 261500Z AUTO 14004KT 9SM 13/07 A2994 RMK SLP136 T01290071 52003 IEM_DS3505
ZBAA,2001-04-26 16:00,ZBAA 261600Z AUTO 06002KT 6SM 13/08 A2994 RMK T01300080 IEM_DS3505
ZBAA,2001-04-26 17:00,ZBAA 261700Z AUTO 00000KT 6SM 12/07 A2994 RMK T01200070 IEM_DS3505
ZBAA,2001-04-26 18:00,ZBAA 261800Z AUTO 07002KT 6SM 12/08 A2991 RMK SLP128 T01240077 57008 IEM_DS3505
ZBAA,2001-04-26 19:00,ZBAA 261900Z AUTO 00000KT 6SM 11/07 A2991 RMK T01100070 IEM_DS3505
ZBAA,2001-04-26 20:00,ZBAA 262000Z AUTO 00000KT 6SM 11/07 A2988 RMK T01100070 IEM_DS3505
ZBAA,2001-04-26 21:00,ZBAA 262100Z AUTO 07006KT 6SM 12/08 A2988 RMK SLP115 T01220075 57013 IEM_DS3505
ZBAA,2001-04-26 22:00,ZBAA 262200Z AUTO 00000KT 5SM 12/08 A2985 RMK T01200080 IEM_DS3505
ZBAA,2001-04-26 23:00,ZBAA 262300Z AUTO 11002KT 4SM 12/08 A2988 RMK T01200080 IEM_DS3505
ZBAA,2001-04-27 00:00,ZBAA 270000Z AUTO 04002KT 6SM 12/09 A2988 RMK 60000 SLP117 T01160090 52002 IEM_DS3505
ZBAA,2001-04-27 01:00,ZBAA 270100Z AUTO 34006KT 1 1/4SM 10/10 A2991 RMK T01000100 IEM_DS3505
ZBAA,2001-04-27 02:00,ZBAA 270200Z AUTO 11004KT 1SM 10/10 A2988 RMK T01000100 IEM_DS3505
ZBAA,2001-04-27 03:00,ZBAA 270300Z AUTO 11006KT 5SM 12/10 A2988 RMK SLP113 T01150099 57004 IEM_DS3505
ZBAA,2001-04-27 04:00,ZBAA 270400Z AUTO 35004KT 1 1/4SM 11/11 A2988 RMK T01100110 IEM_DS3505
ZBAA,2001-04-27 05:00,ZBAA 270500Z AUTO 01002KT 1 1/4SM 12/12 A2985 RMK T01200120 IEM_DS3505
ZBAA,2001-04-27 06:00,ZBAA 270600Z AUTO 07004KT 5SM 15/11 A2983 RMK 60008 SLP102 T01480113 57011 IEM_DS3505
ZBAA,2001-04-27 07:00,ZBAA 270700Z AUTO 1 1/2SM 14/12 A2983 RMK T01400120 IEM_DS3505
ZBAA,2001-04-27 08:00,ZBAA 270800Z AUTO 1 1/2SM 15/12 A2980 RMK T01500120 IEM_DS3505
ZBAA,2001-04-27 09:00,ZBAA 270900Z AUTO 07004KT 4SM 16/12 A2980 RMK SLP088 T01640118 57014 IEM_DS3505
ZBAA,2001-04-27 10:00,ZBAA 271000Z AUTO 02002KT 1 1/4SM 15/13 A2980 RMK T01500130 IEM_DS3505
ZBAA,2001-04-27 11:00,ZBAA 271100Z AUTO 00000KT 1 1/4SM 14/13 A2980 RMK T01400130 IEM_DS3505
ZBAA,2001-04-27 12:00,ZBAA 271200Z AUTO 07004KT 4SM 14/11 A2983 RMK SLP091 T01440112 52003 IEM_DS3505
ZBAA,2001-04-27 13:00,ZBAA 271300Z AUTO 30002KT 1SM 13/12 A2985 RMK T01300120 IEM_DS3505
ZBAA,2001-04-27 14:00,ZBAA 271400Z AUTO 32006KT 1SM 13/12 A2988 RMK T01300120 IEM_DS3505
ZBAA,2001-04-27 15:00,ZBAA 271500Z AUTO 02004KT 3SM 14/10 A2988 RMK SLP114 T01420102 52023 IEM_DS3505
ZBAA,2001-04-27 16:00,ZBAA 271600Z AUTO 17004KT 1SM 12/12 A2985 RMK T01200120 IEM_DS3505
ZBAA,2001-04-27 17:00,ZBAA 271700Z AUTO 32002KT 1SM 12/12 A2985 RMK T01200120 IEM_DS3505
ZBAA,2001-04-27 18:00,ZBAA 271800Z AUTO 36002KT 1SM 13/12 A2985 RMK T01300120 IEM_DS3505
ZBAA,2001-04-27 20:00,ZBAA 272000Z AUTO 00000KT 1SM 11/11 A2985 RMK T01100110 IEM_DS3505
ZBAA,2001-04-27 21:00,ZBAA 272100Z AUTO 09002KT 2SM 12/10 A2988 RMK 70009 SLP113 T01160102 52003 IEM_DS3505
ZBAA,2001-04-27 22:00,ZBAA 272200Z AUTO 00000KT 1SM 11/11 A2988 RMK T01100110 IEM_DS3505
ZBAA,2001-04-27 23:00,ZBAA 272300Z AUTO 00000KT 1SM 12/12 A2991 RMK T01200120 IEM_DS3505
ZBAA,2001-04-28 00:00,ZBAA 280000Z AUTO 09006KT 6SM 14/08 A2991 RMK 70009 SLP130 T01370081 52017 IEM_DS3505
ZBAA,2001-04-28 01:00,ZBAA 280100Z AUTO 26002KT 1SM 15/12 A2994 RMK T01500120 IEM_DS3505
ZBAA,2001-04-28 02:00,ZBAA 280200Z AUTO 1 1/2SM 17/12 A2994 RMK T01700120 IEM_DS3505
ZBAA,2001-04-28 03:00,ZBAA 280300Z AUTO 09006KT 6SM 18/08 A2991 RMK SLP130 T01770082 54000 IEM_DS3505
ZBAA,2001-04-28 04:00,ZBAA 280400Z AUTO 11002KT 1 1/2SM 17/12 A2991 RMK T01700120 IEM_DS3505
ZBAA,2001-04-28 05:00,ZBAA 280500Z AUTO 14004KT 1 1/2SM 18/12 A2991 RMK T01800120 IEM_DS3505
ZBAA,2001-04-28 06:00,ZBAA 280600Z AUTO 09004KT 7SM 21/10 A2991 RMK SLP123 T02090101 57007 IEM_DS3505
ZBAA,2001-04-28 07:00,ZBAA 280700Z AUTO 11004KT 3SM 20/11 A2988 RMK T02000110 IEM_DS3505
ZBAA,2001-04-28 08:00,ZBAA 280800Z AUTO 07002KT 3SM 21/12 A2985 RMK T02100120 IEM_DS3505
ZBAA,2001-04-28 09:00,ZBAA 280900Z AUTO 09006KT 7SM 22/10 A2985 RMK SLP111 T02220102 57012 IEM_DS3505
ZBAA,2001-04-28 10:00,ZBAA 281000Z AUTO 14006KT 5SM 21/11 A2988 RMK T02100110 IEM_DS3505
ZBAA,2001-04-28 11:00,ZBAA 281100Z AUTO 13006KT 6SM 19/08 A2988 RMK T01900080 IEM_DS3505
ZBAA,2001-04-28 12:00,ZBAA 281200Z AUTO 14008KT 9SM 17/08 RMK SLP131 T01710076 52020 IEM_DS3505
ZBAA,2001-04-28 13:00,ZBAA 281300Z AUTO 14004KT 6SM 16/08 A2997 RMK T01600080 IEM_DS3505
ZBAA,2001-04-28 14:00,ZBAA 281400Z AUTO 01002KT 6SM 15/09 A2997 RMK T01500090 IEM_DS3505
ZBAA,2001-04-28 15:00,ZBAA 281500Z AUTO 04004KT 6SM 15/09 A2997 RMK SLP145 T01470090 52014 IEM_DS3505
ZBAA,2001-04-28 16:00,ZBAA 281600Z AUTO 15002KT 6SM 14/08 A2997 RMK T01400080 IEM_DS3505
ZBAA,2001-04-28 17:00,ZBAA 281700Z AUTO 00000KT 6SM 13/10 A2997 RMK T01300100 IEM_DS3505
ZBAA,2001-04-28 18:00,ZBAA 281800Z AUTO 09004KT 6SM 13/09 A2994 RMK SLP141 T01280093 57004 IEM_DS3505
ZBAA,2001-04-28 19:00,ZBAA 281900Z AUTO 16004KT 4SM 12/09 A2994 RMK T01200090 IEM_DS3505
ZBAA,2001-04-28 21:00,ZBAA 282100Z AUTO 04004KT 4SM 13/10 A2994 RMK SLP138 T01270100 57003 IEM_DS3505
ZBAA,2001-04-28 22:00,ZBAA 282200Z AUTO 33004KT 4SM 13/10 A2997 RMK T01300100 IEM_DS3505
ZBAA,2001-04-28 23:00,ZBAA 282300Z AUTO 29006KT 4SM 14/10 A2997 RMK T01400100 IEM_DS3505
ZBAA,2001-04-29 00:00,ZBAA 290000Z AUTO 07008KT 6SM 15/10 A2997 RMK SLP148 T01480096 52010 IEM_DS3505
ZBAA,2001-04-29 01:00,ZBAA 290100Z AUTO 05002KT 5SM 16/10 A2997 RMK T01600100 IEM_DS3505
ZBAA,2001-04-29 02:00,ZBAA 290200Z AUTO 7SM 16/10 A2997 RMK T01600100 IEM_DS3505
ZBAA,2001-04-29 03:00,ZBAA 290300Z AUTO 00000KT 6SM 15/12 A3000 RMK SLP157 T01460122 52009 IEM_DS3505
ZBAA,2001-04-29 04:00,ZBAA 290400Z AUTO 26004KT 7SM 16/11 A3000 RMK T01600110 IEM_DS3505
ZBAA,2001-04-29 05:00,ZBAA 290500Z AUTO 26006KT 2 1/2SM 14/13 A2997 RMK T01400130 IEM_DS3505
ZBAA,2001-04-29 06:00,ZBAA 290600Z AUTO 32006KT 5SM 14/13 A2997 RMK 60012 SLP149 T01430127 57008 IEM_DS3505
ZBAA,2001-04-29 07:00,ZBAA 290700Z AUTO 28006KT 4SM 14/13 A2994 RMK T01400130 IEM_DS3505
ZBAA,2001-04-29 08:00,ZBAA 290800Z AUTO 28006KT 5SM 15/14 A2994 RMK T01500140 IEM_DS3505
ZBAA,2001-04-29 09:00,ZBAA 290900Z AUTO 00000KT 7SM 17/12 A2994 RMK SLP143 T01660121 57006 IEM_DS3505
ZBAA,2001-04-29 10:00,ZBAA 291000Z AUTO 26004KT 6SM 16/14 A2997 RMK T01600140 IEM_DS3505
ZBAA,2001-04-29 11:00,ZBAA 291100Z AUTO 5SM 16/14 A2997 RMK T01600140 IEM_DS3505
ZBAA,2001-04-29 12:00,ZBAA 291200Z AUTO 00000KT 5SM 15/13 A2997 RMK 60000 SLP149 T01500130 52006 IEM_DS3505
ZBAA,2001-04-29 13:00,ZBAA 291300Z AUTO 23004KT 3SM 15/14 A3000 RMK T01500140 IEM_DS3505
ZBAA,2001-04-29 14:00,ZBAA 291400Z AUTO 16002KT 3SM 16/13 A3000 RMK T01600130 IEM_DS3505
ZBAA,2001-04-29 15:00,ZBAA 291500Z AUTO 22004KT 4SM 15/14 A3000 RMK SLP155 T01480136 52006 IEM_DS3505
ZBAA,2001-04-29 16:00,ZBAA 291600Z AUTO 22002KT 1 1/2SM 15/14 A3000 RMK T01500140 IEM_DS3505
ZBAA,2001-04-29 17:00,ZBAA 291700Z AUTO 28004KT 2 1/2SM 15/14 A2997 RMK T01500140 IEM_DS3505
ZBAA,2001-04-29 18:00,ZBAA 291800Z AUTO 32004KT 4SM 14/13 A3000 RMK SLP157 T01450132 52002 IEM_DS3505
ZBAA,2001-04-29 19:00,ZBAA 291900Z AUTO 29006KT 3SM 15/12 A3000 RMK T01500120 IEM_DS3505
ZBAA,2001-04-29 20:00,ZBAA 292000Z AUTO 30010KT 4SM 16/10 A3000 RMK T01600100 IEM_DS3505
ZBAA,2001-04-29 21:00,ZBAA 292100Z AUTO 02002KT 5SM 14/12 A3000 RMK 70011 SLP157 T01440124 54000 IEM_DS3505
ZBAA,2001-04-29 22:00,ZBAA 292200Z AUTO 32010KT 2 1/2SM 15/07 A3000 RMK T01500070 IEM_DS3505
ZBAA,2001-04-29 23:00,ZBAA 292300Z AUTO 31012KT 2SM 16/03 A3003 RMK T01600030 IEM_DS3505
ZBAA,2001-04-30 00:00,ZBAA 300000Z AUTO 36006KT 5SM 16/05 A3003 RMK 70011 SLP169 T01640048 52012 IEM_DS3505
ZBAA,2001-04-30 01:00,ZBAA 300100Z AUTO 03004KT 2 1/2SM 16/10 A3006 RMK T01600100 IEM_DS3505
ZBAA,2001-04-30 02:00,ZBAA 300200Z AUTO 2 1/2SM 17/09 A3003 RMK T01700090 IEM_DS3505
ZBAA,2001-04-30 03:00,ZBAA 300300Z AUTO 34008KT 5SM 20/M02 A3000 RMK SLP164 T01991020 57005 IEM_DS3505
ZBAA,2001-04-30 04:00,ZBAA 300400Z AUTO 28008KT 21/01 A3000 RMK T02100010 IEM_DS3505
ZBAA,2001-04-30 05:00,ZBAA 300500Z AUTO 26010G19KT 22/M03 A2997 RMK T02201030 IEM_DS3505
ZBAA,2001-04-30 06:00,ZBAA 300600Z AUTO 22008KT 6SM 22/04 A2994 RMK SLP143 T02230045 57021 IEM_DS3505
ZBAA,2001-04-30 07:00,ZBAA 300700Z AUTO 28014KT 5SM 24/M04 A2991 RMK T02401040 IEM_DS3505
ZBAA,2001-04-30 08:00,ZBAA 300800Z AUTO 25010KT 5SM 23/M03 A2991 RMK T02301030 IEM_DS3505
ZBAA,2001-04-30 09:00,ZBAA 300900Z AUTO 22008KT 6SM 21/07 A2991 RMK SLP137 T02110074 57006 IEM_DS3505
ZBAA,2001-04-30 10:00,ZBAA 301000Z AUTO 20012KT 21/06 A2991 RMK T02100060 IEM_DS3505
ZBAA,2001-04-30 11:00,ZBAA 301100Z AUTO 20008KT 20/06 A2994 RMK T02000060 IEM_DS3505
ZBAA,2001-04-30 12:00,ZBAA 301200Z AUTO 22004KT 6SM 18/09 A2997 RMK SLP141 T01840086 52004 IEM_DS3505
ZBAA,2001-04-30 13:00,ZBAA 301300Z AUTO 14004KT 18/08 A2997 RMK T01800080 IEM_DS3505
ZBAA,2001-04-30 14:00,ZBAA 301400Z AUTO 12004KT 17/09 A2997 RMK T01700090 IEM_DS3505
ZBAA,2001-04-30 15:00,ZBAA 301500Z AUTO 20002KT 6SM 17/10 A2997 RMK SLP147 T01660098 52006 IEM_DS3505
ZBAA,2001-04-30 16:00,ZBAA 301600Z AUTO 12008KT 4SM 15/11 A2997 RMK T01500110 IEM_DS3505
ZBAA,2001-04-30 17:00,ZBAA 301700Z AUTO 12008KT 2 1/2SM 14/12 A2997 RMK T01400120 IEM_DS3505
ZBAA,2001-04-30 18:00,ZBAA 301800Z AUTO 11006KT 6SM 14/10 A2997 RMK SLP144 T01450101 57003 IEM_DS3505
ZBAA,2001-04-30 19:00,ZBAA 301900Z AUTO 12004KT 1 1/4SM 12/12 A2997 RMK T01200120 IEM_DS3505
ZBAA,2001-04-30 20:00,ZBAA 302000Z AUTO 10004KT 2SM 12/12 A2997 RMK T01200120 IEM_DS3505
ZBAA,2001-04-30 21:00,ZBAA 302100Z AUTO 07004KT 4SM 12/11 A2997 RMK SLP145 T01220114 52001 IEM_DS3505
ZBAA,2001-04-30 22:00,ZBAA 302200Z AUTO 10004KT 1 1/2SM 12/12 A2997 RMK T01200120 IEM_DS3505
ZBAA,2001-04-30 23:00,ZBAA 302300Z AUTO 12004KT 1 1/2SM 12/12 A2997 RMK T01200120 IEM_DS3505
ZBAA,2001-05-01 00:00,ZBAA 010000Z AUTO 11002KT 2SM 13/12 A2997 RMK SLP147 T01290118 52002 IEM_DS3505
ZBAA,2001-05-01 01:00,ZBAA 010100Z AUTO 13004KT 1 1/4SM 13/12 A2997 RMK T01300120 IEM_DS3505
ZBAA,2001-05-01 02:00,ZBAA 010200Z AUTO 10004KT 1 1/4SM 14/13 A2994 RMK T01400130 IEM_DS3505
ZBAA,2001-05-01 03:00,ZBAA 010300Z AUTO 09006KT 2SM 16/12 A2991 RMK SLP133 T01600122 57014 IEM_DS3505
ZBAA,2001-05-01 04:00,ZBAA 010400Z AUTO 12004KT 1 1/4SM 17/13 A2988 RMK T01700130 IEM_DS3505
ZBAA,2001-05-01 05:00,ZBAA 010500Z AUTO 12006KT 1 1/2SM 19/14 A2985 RMK T01900140 IEM_DS3505
ZBAA,2001-05-01 06:00,ZBAA 010600Z AUTO 22010KT 3SM 22/13 RMK SLP095 T02220132 57037 IEM_DS3505
ZBAA,2001-05-01 07:00,ZBAA 010700Z AUTO 10006KT 2SM 22/14 A2977 RMK T02200140 IEM_DS3505
ZBAA,2001-05-01 08:00,ZBAA 010800Z AUTO 17008KT 2 1/2SM 23/12 A2974 RMK T02300120 IEM_DS3505
ZBAA,2001-05-01 09:00,ZBAA 010900Z AUTO 20006KT 2 1/2SM 23/11 A2974 RMK SLP072 T02320111 57023 IEM_DS3505
ZBAA,2001-05-01 10:00,ZBAA 011000Z AUTO 18008KT 2 1/2SM 22/12 A2974 RMK T02200120 IEM_DS3505
ZBAA,2001-05-01 11:00,ZBAA 011100Z AUTO 2 1/2SM 21/13 A2974 RMK T02100130 IEM_DS3505
ZBAA,2001-05-01 12:00,ZBAA 011200Z AUTO 16006KT 6SM 21/13 A2974 RMK SLP066 T02100128 57006 IEM_DS3505
ZBAA,2001-05-01 13:00,ZBAA 011300Z AUTO 15006KT 3SM 21/13 A2974 RMK T02100130 IEM_DS3505
ZBAA,2001-05-01 14:00,ZBAA 011400Z AUTO 14008KT 3SM 20/13 A2974 RMK T02000130 IEM_DS3505
ZBAA,2001-05-01 15:00,ZBAA 011500Z AUTO 16006KT 6SM 19/12 A2974 RMK SLP064 T01910124 57002 IEM_DS3505
ZBAA,2001-05-01 16:00,ZBAA 011600Z AUTO 13006KT 3SM 18/13 A2974 RMK T01800130 IEM_DS3505
ZBAA,2001-05-01 17:00,ZBAA 011700Z AUTO 13006KT 3SM 17/13 A2971 RMK T01700130 IEM_DS3505
ZBAA,2001-05-01 18:00,ZBAA 011800Z AUTO 14006KT 6SM 17/12 A2968 RMK SLP050 T01730123 57014 IEM_DS3505
ZBAA,2001-05-01 19:00,ZBAA 011900Z AUTO 12004KT 2 1/2SM 16/12 A2968 RMK T01600120 IEM_DS3505
ZBAA,2001-05-01 20:00,ZBAA 012000Z AUTO 13006KT 2 1/2SM 16/12 A2968 RMK T01600120 IEM_DS3505
ZBAA,2001-05-01 21:00,ZBAA 012100Z AUTO 11002KT 6SM 15/12 A2965 RMK SLP041 T01480119 57009 IEM_DS3505
ZBAA,2001-05-01 22:00,ZBAA 012200Z AUTO 10002KT 2SM 15/12 A2968 RMK T01500120 IEM_DS3505
ZBAA,2001-05-01 23:00,ZBAA 012300Z AUTO 07002KT 2SM 15/13 A2971 RMK T01500130 IEM_DS3505
ZBAA,2001-05-02 00:00,ZBAA 020000Z AUTO 09002KT 2 1/2SM 16/12 A2971 RMK SLP054 T01580124 52013 IEM_DS3505
ZBAA,2001-05-02 01:00,ZBAA 020100Z AUTO 07002KT 2SM 17/13 A2974 RMK T01700130 IEM_DS3505
ZBAA,2001-05-02 02:00,ZBAA 020200Z AUTO 14002KT 2SM 17/13 A2974 RMK T01700130 IEM_DS3505
ZBAA,2001-05-02 03:00,ZBAA 020300Z AUTO 07008KT 4SM 18/12 A2974 RMK SLP061 T01850123 52007 IEM_DS3505
ZBAA,2001-05-02 04:00,ZBAA 020400Z AUTO 2 1/2SM 21/14 A2971 RMK T02100140 IEM_DS3505
ZBAA,2001-05-02 05:00,ZBAA 020500Z AUTO 2 1/2SM 22/14 A2971 RMK T02200140 IEM_DS3505
ZBAA,2001-05-02 06:00,ZBAA 020600Z AUTO 16004KT 5SM 23/14 A2968 RMK SLP056 T02260136 57005 IEM_DS3505
ZBAA,2001-05-02 07:00,ZBAA 020700Z AUTO 26008KT 5SM 28/00 A2968 RMK T02800000 IEM_DS3505
ZBAA,2001-05-02 08:00,ZBAA 020800Z AUTO 30010KT 6SM 28/M04 A2965 RMK T02801040 IEM_DS3505
ZBAA,2001-05-02 09:00,ZBAA 020900Z AUTO 18006KT 6SM 25/ A2965 RMK SLP046 57010 IEM_DS3505
ZBAA,2001-05-02 10:00,ZBAA 021000Z AUTO 29010KT 6SM 27/M04 A2968 RMK T02701040 IEM_DS3505
ZBAA,2001-05-02 11:00,ZBAA 021100Z AUTO 18004KT 6SM 22/12 A2971 RMK T02200120 IEM_DS3505
ZBAA,2001-05-02 12:00,ZBAA 021200Z AUTO 27004KT 6SM 21/14 A2974 RMK SLP068 T02140145 52022 IEM_DS3505
ZBAA,2001-05-02 13:00,ZBAA 021300Z AUTO 16004KT 20/13 A2977 RMK T02000130 IEM_DS3505
ZBAA,2001-05-02 14:00,ZBAA 021400Z AUTO 09004KT 2 1/2SM 19/14 A2977 RMK T01900140 IEM_DS3505
ZBAA,2001-05-02 15:00,ZBAA 021500Z AUTO 25004KT 6SM 18/14 A2980 RMK SLP081 T01840145 52013 IEM_DS3505
ZBAA,2001-05-02 16:00,ZBAA 021600Z AUTO 11002KT 1 1/2SM 17/14 A2980 RMK T01700140 IEM_DS3505
ZBAA,2001-05-02 17:00,ZBAA 021700Z AUTO 03002KT 1 1/2SM 16/14 A2983 RMK T01600140 IEM_DS3505
ZBAA,2001-05-02 18:00,ZBAA 021800Z AUTO 02006KT 6SM 17/13 A2983 RMK SLP088 T01700133 52007 IEM_DS3505
ZBAA,2001-05-02 19:00,ZBAA 021900Z AUTO 35004KT 1 1/2SM 15/14 A2983 RMK T01500140 IEM_DS3505
ZBAA,2001-05-02 20:00,ZBAA 022000Z AUTO 1 1/2SM 16/14 A2983 RMK T01600140 IEM_DS3505
ZBAA,2001-05-02 21:00,ZBAA 022100Z AUTO 09006KT 6SM 16/13 A2985 RMK 70003 SLP095 T01610133 52007 IEM_DS3505
ZBAA,2001-05-02 22:00,ZBAA 022200Z AUTO 06002KT 1 1/4SM 15/14 A2985 RMK T01500140 IEM_DS3505
ZBAA,2001-05-02 23:00,ZBAA 022300Z AUTO 12004KT 1 1/2SM 15/13 A2985 RMK T01500130 IEM_DS3505
ZBAA,2001-05-03 00:00,ZBAA 030000Z AUTO 11004KT 4SM 16/12 A2985 RMK 60003 SLP107 T01590121 52012 IEM_DS3505
ZBAA,2001-05-03 01:00,ZBAA 030100Z AUTO 16006KT 1 1/4SM 17/13 A2988 RMK T01700130 IEM_DS3505
ZBAA,2001-05-03 02:00,ZBAA 030200Z AUTO 14010KT 1 1/2SM 17/12 A2988 RMK T01700120 IEM_DS3505
ZBAA,2001-05-03 03:00,ZBAA 030300Z AUTO 14006KT 4SM 19/12 A2985 RMK SLP118 T01890123 52011 IEM_DS3505
ZBAA,2001-05-03 04:00,ZBAA 030400Z AUTO 14006KT 2SM 20/13 A2985 RMK T02000130 IEM_DS3505
ZBAA,2001-05-03 05:00,ZBAA 030500Z AUTO 13010KT 2 1/2SM 21/13 A2983 RMK T02100130 IEM_DS3505
ZBAA,2001-05-03 06:00,ZBAA 030600Z AUTO 18006KT 4SM 20/13 A2983 RMK SLP096 T02000128 57022 IEM_DS3505
ZBAA,2001-05-03 07:00,ZBAA 030700Z AUTO 14006KT 2 1/2SM 19/14 A2983 RMK T01900140 IEM_DS3505
ZBAA,2001-05-03 08:00,ZBAA 030800Z AUTO 11006KT 3SM 22/13 A2977 RMK T02200130 IEM_DS3505
ZBAA,2001-05-03 09:00,ZBAA 030900Z AUTO 04004G19KT 9SM 21/09 A2983 RMK SLP102 T02060092 52006 IEM_DS3505
ZBAA,2001-05-03 10:00,ZBAA 031000Z AUTO 12006KT 6SM 18/14 A2977 RMK T01800140 IEM_DS3505
ZBAA,2001-05-03 11:00,ZBAA 031100Z AUTO 27006KT 6SM 18/12 A2980 RMK T01800120 IEM_DS3505
ZBAA,2001-05-03 12:00,ZBAA 031200Z AUTO 00000KT 12SM 18/11 A2985 RMK 60003 SLP103 T01820113 54000 IEM_DS3505
ZBAA,2001-05-03 13:00,ZBAA 031300Z AUTO 00000KT 6SM 16/14 A2991 RMK T01600140 IEM_DS3505
ZBAA,2001-05-03 14:00,ZBAA 031400Z AUTO 00000KT 6SM 16/14 A2991 RMK T01600140 IEM_DS3505
ZBAA,2001-05-03 15:00,ZBAA 031500Z AUTO 00000KT 5SM 16/12 A2994 RMK SLP136 T01570122 52033 IEM_DS3505
ZBAA,2001-05-03 16:00,ZBAA 031600Z AUTO 00000KT 6SM 16/14 A2994 RMK T01600140 IEM_DS3505
ZBAA,2001-05-03 17:00,ZBAA 031700Z AUTO 00000KT 5SM 15/14 A2994 RMK T01500140 IEM_DS3505
ZBAA,2001-05-03 18:00,ZBAA 031800Z AUTO 00000KT 9SM 15/12 A2994 RMK SLP137 T01520123 52001 IEM_DS3505
ZBAA,2001-05-03 19:00,ZBAA 031900Z AUTO 00000KT 4SM 14/14 A2991 RMK T01400140 IEM_DS3505
ZBAA,2001-05-03 20:00,ZBAA 032000Z AUTO 02002KT 2 1/2SM 14/14 A2994 RMK T01400140 IEM_DS3505
ZBAA,2001-05-03 21:00,ZBAA 032100Z AUTO 00000KT 5SM 15/12 A2994 RMK 70003 SLP135 T01470119 57002 IEM_DS3505
ZBAA,2001-05-03 22:00,ZBAA 032200Z AUTO 34002KT 2SM 13/09 A2997 RMK T01300090 IEM_DS3505
ZBAA,2001-05-03 23:00,ZBAA 032300Z AUTO 01006KT 2SM 14/04 A2997 RMK T01400040 IEM_DS3505
ZBAA,2001-05-04 00:00,ZBAA 040000Z AUTO 04006KT 4SM 16/04 A2997 RMK 70003 SLP147 T01640037 52012 IEM_DS3505
ZBAA,2001-05-04 01:00,ZBAA 040100Z AUTO 02008KT 2SM 15/M01 A3000 RMK T01501010 IEM_DS3505
ZBAA,2001-05-04 02:00,ZBAA 040200Z AUTO 02008KT 1 1/2SM 16/M02 A3003 RMK T01601020 IEM_DS3505
ZBAA,2001-05-04 03:00,ZBAA 040300Z AUTO 04006KT 4SM 18/M04 A3000 RMK SLP155 T01801044 52008 IEM_DS3505
ZBAA,2001-05-04 06:00,ZBAA 040600Z AUTO 02006KT 6SM 21/M03 A2991 RMK SLP126 T02061029 57029 IEM_DS3505
ZBAA,2001-05-04 07:00,ZBAA 040700Z AUTO 2SM 21/01 A2985 RMK T02100010 IEM_DS3505
ZBAA,2001-05-04 08:00,ZBAA 040800Z AUTO 14004KT 2SM 21/02 A2983 RMK T02100020 IEM_DS3505
ZBAA,2001-05-04 09:00,ZBAA 040900Z AUTO 14002KT 6SM 21/04 A2983 RMK SLP098 T02140036 57027 IEM_DS3505
ZBAA,2001-05-04 10:00,ZBAA 041000Z AUTO 15002KT 2 1/2SM 20/04 A2980 RMK T02000040 IEM_DS3505
ZBAA,2001-05-04 11:00,ZBAA 041100Z AUTO 00000KT 2 1/2SM 20/06 A2983 RMK T02000060 IEM_DS3505
ZBAA,2001-05-04 12:00,ZBAA 041200Z AUTO 00000KT 6SM 18/08 A2983 RMK SLP100 T01810075 52001 IEM_DS3505
ZBAA,2001-05-04 13:00,ZBAA 041300Z AUTO 34002KT 2 1/2SM 18/07 A2985 RMK T01800070 IEM_DS3505
ZBAA,2001-05-04 14:00,ZBAA 041400Z AUTO 00000KT 2 1/2SM 17/10 A2985 RMK T01700100 IEM_DS3505
ZBAA,2001-05-04 15:00,ZBAA 041500Z AUTO 00000KT 5SM 17/06 A2985 RMK SLP106 T01660059 52006 IEM_DS3505
ZBAA,2001-05-04 16:00,ZBAA 041600Z AUTO 35004KT 2 1/2SM 17/06 A2985 RMK T01700060 IEM_DS3505
ZBAA,2001-05-04 17:00,ZBAA 041700Z AUTO 36004KT 2 1/2SM 14/05 A2985 RMK T01400050 IEM_DS3505
ZBAA,2001-05-04 18:00,ZBAA 041800Z AUTO 02002KT 6SM 17/04 A2985 RMK SLP105 T01660040 54000 IEM_DS3505
ZBAA,2001-05-04 19:00,ZBAA 041900Z AUTO 01006KT 3SM 14/03 A2985 RMK T01400030 IEM_DS3505
ZBAA,2001-05-04 20:00,ZBAA 042000Z AUTO 36004KT 3SM 13/01 A2985 RMK T01300010 IEM_DS3505
ZBAA,2001-05-04 21:00,ZBAA 042100Z AUTO 07006KT 6SM 15/M00 A2988 RMK SLP109 T01461005 52004 IEM_DS3505
ZBAA,2001-05-04 22:00,ZBAA 042200Z AUTO 36006KT 6SM 14/M05 A2988 RMK T01401050 IEM_DS3505
ZBAA,2001-05-04 23:00,ZBAA 042300Z AUTO 36004KT 6SM 15/M03 A2988 RMK T01501030 IEM_DS3505
ZBAA,2001-05-05 00:00,ZBAA 050000Z AUTO 07006KT 9SM 18/M05 A2991 RMK SLP121 T01791046 52011 IEM_DS3505
ZBAA,2001-05-05 01:00,ZBAA 050100Z AUTO 6SM 20/M05 A2991 RMK T02001050 IEM_DS3505
ZBAA,2001-05-05 02:00,ZBAA 050200Z AUTO 6SM 21/M06 A2991 RMK T02101060 IEM_DS3505
ZBAA,2001-05-05 03:00,ZBAA 050300Z AUTO 09006KT 7SM 22/M08 A2988 RMK SLP119 T02171079 57001 IEM_DS3505
ZBAA,2001-05-05 04:00,ZBAA 050400Z AUTO 6SM 22/M06 A2985 RMK T02201060 IEM_DS3505
ZBAA,2001-05-05 05:00,ZBAA 050500Z AUTO 6SM 22/M05 A2983 RMK T02201050 IEM_DS3505
ZBAA,2001-05-05 06:00,ZBAA 050600Z AUTO 14006KT 9SM 24/M04 A2983 RMK SLP096 T02371037 57023 IEM_DS3505
ZBAA,2001-05-05 07:00,ZBAA 050700Z AUTO 14004KT 6SM 24/M09 A2980 RMK T02401090 IEM_DS3505
ZBAA,2001-05-05 08:00,ZBAA 050800Z AUTO 6SM 24/M07 A2977 RMK T02401070 IEM_DS3505
ZBAA,2001-05-05 09:00,ZBAA 050900Z AUTO 11004KT 12SM 23/03 A2977 RMK SLP077 T02330031 57019 IEM_DS3505
ZBAA,2001-05-05 10:00,ZBAA 051000Z AUTO 00000KT 6SM 23/M04 A2980 RMK T02301040 IEM_DS3505
ZBAA,2001-05-05 11:00,ZBAA 051100Z AUTO 6SM 22/M06 A2983 RMK T02201060 IEM_DS3505
ZBAA,2001-05-05 12:00,ZBAA 051200Z AUTO 09006KT 6SM 20/04 A2980 RMK SLP089 T02020044 52012 IEM_DS3505
ZBAA,2001-05-05 13:00,ZBAA 051300Z AUTO 6SM 20/02 A2985 RMK T02000020 IEM_DS3505
ZBAA,2001-05-05 14:00,ZBAA 051400Z AUTO 03002KT 6SM 19/03 A2985 RMK T01900030 IEM_DS3505
ZBAA,2001-05-05 15:00,ZBAA 051500Z AUTO 14004KT 6SM 19/09 A2988 RMK SLP107 T01890086 52018 IEM_DS3505
ZBAA,2001-05-05 16:00,ZBAA 051600Z AUTO 02002KT 7SM 18/05 A2988 RMK T01800050 IEM_DS3505
ZBAA,2001-05-05 17:00,ZBAA 051700Z AUTO 7SM 17/07 A2985 RMK T01700070 IEM_DS3505
ZBAA,2001-05-05 18:00,ZBAA 051800Z AUTO 04006KT 6SM 18/05 A2985 RMK SLP106 T01770051 57001 IEM_DS3505
ZBAA,2001-05-05 19:00,ZBAA 051900Z AUTO 36004KT 7SM 15/11 A2985 RMK T01500110 IEM_DS3505
ZBAA,2001-05-05 20:00,ZBAA 052000Z AUTO 01010KT 6SM 16/11 A2988 RMK T01600110 IEM_DS3505
ZBAA,2001-05-05 21:00,ZBAA 052100Z AUTO 07008KT 7SM 16/09 A2985 RMK SLP107 T01640086 52001 IEM_DS3505
ZBAA,2001-05-05 22:00,ZBAA 052200Z AUTO 01008KT 6SM 15/09 A2988 RMK T01500090 IEM_DS3505
ZBAA,2001-05-05 23:00,ZBAA 052300Z AUTO 02006KT 6SM 14/10 A2988 RMK T01400100 IEM_DS3505
ZBAA,2001-05-06 00:00,ZBAA 060000Z AUTO 02006KT 7SM 16/08 A2991 RMK SLP122 T01550080 52014 IEM_DS3505
ZBAA,2001-05-06 01:00,ZBAA 060100Z AUTO 36006KT 4SM 13/11 A2994 RMK T01300110 IEM_DS3505
ZBAA,2001-05-06 02:00,ZBAA 060200Z AUTO 34002KT 3SM 12/12 A2997 RMK T01200120 IEM_DS3505
ZBAA,2001-05-06 03:00,ZBAA 060300Z AUTO 36004KT 7SM 14/12 A2994 RMK SLP138 T01360115 52016 IEM_DS3505
ZBAA,2001-05-06 04:00,ZBAA 060400Z AUTO 00000KT 4SM 13/13 A2994 RMK T01300130 IEM_DS3505
ZBAA,2001-05-06 05:00,ZBAA 060500Z AUTO 5SM 14/13 A2994 RMK T01400130 IEM_DS3505
ZBAA,2001-05-06 06:00,ZBAA 060600Z AUTO 09004KT 9SM 14/12 A2991 RMK 60020 SLP135 T01390117 57003 IEM_DS3505
ZBAA,2001-05-06 07:00,ZBAA 060700Z AUTO 15004KT 6SM 16/12 A2988 RMK T01600120 IEM_DS3505
ZBAA,2001-05-06 08:00,ZBAA 060800Z AUTO 19006KT 6SM 16/12 A2988 RMK T01600120 IEM_DS3505
ZBAA,2001-05-06 09:00,ZBAA 060900Z AUTO 20004KT 9SM 16/12 A2988 RMK SLP117 T01620122 57018 IEM_DS3505
ZBAA,2001-05-06 10:00,ZBAA 061000Z AUTO 16004KT 4SM 16/13 A2988 RMK T01600130 IEM_DS3505
ZBAA,2001-05-06 11:00,ZBAA 061100Z AUTO 17006KT 4SM 15/13 A2988 RMK T01500130 IEM_DS3505
ZBAA,2001-05-06 12:00,ZBAA 061200Z AUTO 22004KT 7SM 15/13 A2991 RMK SLP122 T01480126 52005 IEM_DS3505
ZBAA,2001-05-06 13:00,ZBAA 061300Z AUTO 16006KT 4SM 15/13 A2991 RMK T01500130 IEM_DS3505
ZBAA,2001-05-06 14:00,ZBAA 061400Z AUTO 17004KT 3SM 14/13 A2988 RMK T01400130 IEM_DS3505
ZBAA,2001-05-06 15:00,ZBAA 061500Z AUTO 00000KT 6SM 14/12 A2988 RMK SLP121 T01350122 57001 IEM_DS3505
ZBAA,2001-05-06 16:00,ZBAA 061600Z AUTO 20004KT 3SM 14/13 A2988 RMK T01400130 IEM_DS3505
ZBAA,2001-05-06 17:00,ZBAA 061700Z AUTO 16002KT 2 1/2SM 13/13 A2988 RMK T01300130 IEM_DS3505
ZBAA,2001-05-06 18:00,ZBAA 061800Z AUTO 00000KT 5SM 12/11 A2988 RMK SLP117 T01180112 57004 IEM_DS3505
ZBAA,2001-05-06 19:00,ZBAA 061900Z AUTO 15002KT 2SM 13/13 A2988 RMK T01300130 IEM_DS3505
ZBAA,2001-05-06 20:00,ZBAA 062000Z AUTO 13002KT 1 1/2SM 12/12 A2985 RMK T01200120 IEM_DS3505
ZBAA,2001-05-06 21:00,ZBAA 062100Z AUTO 18002KT 2 1/2SM 12/11 A2985 RMK 70019 SLP106 T01160110 57011 IEM_DS3505
ZBAA,2001-05-06 22:00,ZBAA 062200Z AUTO 17004KT 1SM 13/13 A2985 RMK T01300130 IEM_DS3505
ZBAA,2001-05-06 23:00,ZBAA 062300Z AUTO 18004KT 1SM 13/13 A2985 RMK T01300130 IEM_DS3505
ZBAA,2001-05-07 00:00,ZBAA 070000Z AUTO 29004KT 1/2SM 12/12 A2983 RMK 70019 SLP103 T01230121 57003 IEM_DS3505
ZBAA,2001-05-07 01:00,ZBAA 070100Z AUTO 2SM 16/14 A2983 RMK T01600140 IEM_DS3505
ZBAA,2001-05-07 02:00,ZBAA 070200Z AUTO 13004KT 2SM 17/14 A2983 RMK T01700140 IEM_DS3505
ZBAA,2001-05-07 03:00,ZBAA 070300Z AUTO 18006KT 3SM 18/13 A2980 RMK SLP090 T01840129 57013 IEM_DS3505
ZBAA,2001-05-07 04:00,ZBAA 070400Z AUTO 1 1/2SM 19/15 A2977 RMK T01900150 IEM_DS3505
ZBAA,2001-05-07 05:00,ZBAA 070500Z AUTO 2SM 21/15 A2974 RMK T02100150 IEM_DS3505
ZBAA,2001-05-07 06:00,ZBAA 070600Z AUTO 25004KT 7SM 24/13 A2971 RMK SLP056 T02370133 57033 IEM_DS3505
ZBAA,2001-05-07 07:00,ZBAA 070700Z AUTO 17010KT 25/14 A2968 RMK T02500140 IEM_DS3505
ZBAA,2001-05-07 08:00,ZBAA 070800Z AUTO 18006KT 5SM 25/13 A2965 RMK T02500130 IEM_DS3505
ZBAA,2001-05-07 09:00,ZBAA 070900Z AUTO 25006KT 9SM 24/10 A2968 RMK SLP042 T02390103 57014 IEM_DS3505
ZBAA,2001-05-07 10:00,ZBAA 071000Z AUTO 12004KT 23/15 RMK T02300150 IEM_DS3505
ZBAA,2001-05-07 11:00,ZBAA 071100Z AUTO 17006KT 2 1/2SM 21/15 A2965 RMK T02100150 IEM_DS3505
ZBAA,2001-05-07 12:00,ZBAA 071200Z AUTO 20004KT 6SM 22/10 A2965 RMK 60003 SLP038 T02160101 57004 IEM_DS3505
ZBAA,2001-05-07 13:00,ZBAA 071300Z AUTO 09002KT 3SM 20/15 A2968 RMK T02000150 IEM_DS3505
ZBAA,2001-05-07 14:00,ZBAA 071400Z AUTO 16004KT 12SM 19/15 A2968 RMK T01900150 IEM_DS3505
ZBAA,2001-05-07 15:00,ZBAA 071500Z AUTO 00000KT 9SM 18/13 A2965 RMK SLP040 T01780126 52002 IEM_DS3505
ZBAA,2001-05-07 16:00,ZBAA 071600Z AUTO 06002KT 6SM 17/14 A2965 RMK T01700140 IEM_DS3505
ZBAA,2001-05-07 17:00,ZBAA 071700Z AUTO 34002KT 6SM 16/14 A2965 RMK T01600140 IEM_DS3505
ZBAA,2001-05-07 18:00,ZBAA 071800Z AUTO 27008KT 6SM 19/13 A2965 RMK SLP032 T01910128 57008 IEM_DS3505
ZBAA,2001-05-07 19:00,ZBAA 071900Z AUTO 02004KT 6SM 17/14 A2965 RMK T01700140 IEM_DS3505
ZBAA,2001-05-07 20:00,ZBAA 072000Z AUTO 30014KT 40SM 20/06 A2965 RMK T02000060 IEM_DS3505
ZBAA,2001-05-07 21:00,ZBAA 072100Z AUTO 34006KT 12SM 20/05 A2962 RMK 70003 SLP026 T01980047 57006 IEM_DS3505
ZBAA,2001-05-07 22:00,ZBAA 072200Z AUTO 30012KT 6SM 19/06 A2962 RMK T01900060 IEM_DS3505
ZBAA,2001-05-07 23:00,ZBAA 072300Z AUTO 30010KT 6SM 19/06 A2965 RMK T01900060 IEM_DS3505
ZBAA,2001-05-08 00:00,ZBAA 080000Z AUTO 32010KT 19SM 21/04 A2965 RMK 70003 SLP042 T02090037 52016 IEM_DS3505
ZBAA,2001-05-08 01:00,ZBAA 080100Z AUTO 30016KT 16SM 21/04 A2968 RMK T02100040 IEM_DS3505
ZBAA,2001-05-08 02:00,ZBAA 080200Z AUTO 28010KT 6SM RMK IEM_DS3505
ZBAA,2001-05-08 03:00,ZBAA 080300Z AUTO 32012G25KT 19SM 21/M04 RMK SLP052 T02141041 52010 IEM_DS3505
ZBAA,2001-05-08 04:00,ZBAA 080400Z AUTO 27016KT RMK IEM_DS3505
ZBAA,2001-05-08 05:00,ZBAA 080500Z AUTO 30016KT 6SM 22/02 A2968 RMK T02200020 IEM_DS3505
ZBAA,2001-05-08 06:00,ZBAA 080600Z AUTO 29012G25KT 19SM 23/M05 RMK SLP049 T02271052 57003 IEM_DS3505
ZBAA,2001-05-08 07:00,ZBAA 080700Z AUTO 30021G33KT 6SM 21/02 A2968 RMK T02100020 IEM_DS3505
ZBAA,2001-05-08 08:00,ZBAA 080800Z AUTO 31017G29KT 6SM 21/02 A2968 RMK T02100020 IEM_DS3505
ZBAA,2001-05-08 09:00,ZBAA 080900Z AUTO 32017G35KT 19SM 21/M02 A2968 RMK SLP051 T02111025 52002 IEM_DS3505
ZBAA,2001-05-08 10:00,ZBAA 081000Z AUTO 31023KT 6SM 19/02 A2971 RMK T01900020 IEM_DS3505
ZBAA,2001-05-08 11:00,ZBAA 081100Z AUTO 31012KT 6SM 19/03 A2974 RMK T01900030 IEM_DS3505
ZBAA,2001-05-08 12:00,ZBAA 081200Z AUTO 32006KT 19SM 19/M00 A2977 RMK SLP074 T01931002 52023 IEM_DS3505
ZBAA,2001-05-08 13:00,ZBAA 081300Z AUTO 32014KT 6SM 18/01 A2980 RMK T01800010 IEM_DS3505
ZBAA,2001-05-08 14:00,ZBAA 081400Z AUTO 6SM 16/01 A2980 RMK T01600010 IEM_DS3505
ZBAA,2001-05-08 15:00,ZBAA 081500Z AUTO 02004KT 19SM 18/01 A2983 RMK SLP091 T01820009 52017 IEM_DS3505
ZBAA,2001-05-08 16:00,ZBAA 081600Z AUTO 34004KT 6SM 16/02 A2980 RMK T01600020 IEM_DS3505
ZBAA,2001-05-08 17:00,ZBAA 081700Z AUTO 21002KT 6SM 12/04 A2980 RMK T01200040 IEM_DS3505
ZBAA,2001-05-08 18:00,ZBAA 081800Z AUTO 34002KT 19SM 12/04 A2980 RMK SLP088 T01150044 57004 IEM_DS3505
ZBAA,2001-05-08 19:16,ZBAA 081916Z AUTO 01004KT 6SM 13/03 A2980 RMK T01300030 IEM_DS3505
ZBAA,2001-05-08 20:00,ZBAA 082000Z AUTO 6SM 11/03 A2980 RMK T01100030 IEM_DS3505
ZBAA,2001-05-08 21:00,ZBAA 082100Z AUTO 00000KT 12SM 10/04 A2980 RMK SLP091 T00990043 52003 IEM_DS3505
ZBAA,2001-05-08 22:00,ZBAA 082200Z AUTO 35004KT 6SM 12/04 A2983 RMK T01200040 IEM_DS3505
ZBAA,2001-05-08 23:00,ZBAA 082300Z AUTO 32004KT 6SM 14/05 A2985 RMK T01400050 IEM_DS3505
ZBAA,2001-05-09 00:00,ZBAA 090000Z AUTO 27002KT 12SM 17/04 A2985 RMK SLP105 T01690042 52015 IEM_DS3505
ZBAA,2001-05-09 01:00,ZBAA 090100Z AUTO 34002KT 6SM 19/04 A2985 RMK T01900040 IEM_DS3505
ZBAA,2001-05-09 02:00,ZBAA 090200Z AUTO 30008KT 6SM 21/M04 A2985 RMK T02101040 IEM_DS3505
ZBAA,2001-05-09 03:00,ZBAA 090300Z AUTO 27010KT 19SM 23/M06 A2983 RMK SLP103 T02341056 57002 IEM_DS3505
ZBAA,2001-05-09 04:00,ZBAA 090400Z AUTO 31008KT 6SM 24/M03 A2980 RMK T02401030 IEM_DS3505
ZBAA,2001-05-09 05:00,ZBAA 090500Z AUTO 28014KT 6SM 26/M04 A2977 RMK T02601040 IEM_DS3505
ZBAA,2001-05-09 06:00,ZBAA 090600Z AUTO 36008KT 19SM 26/M04 A2977 RMK SLP080 T02621043 57023 IEM_DS3505
ZBAA,2001-05-09 07:00,ZBAA 090700Z AUTO 31012G23KT 6SM 27/M07 A2974 RMK T02701070 IEM_DS3505
ZBAA,2001-05-09 08:00,ZBAA 090800Z AUTO 24008KT 6SM 27/M06 A2974 RMK T02701060 IEM_DS3505
ZBAA,2001-05-09 09:00,ZBAA 090900Z AUTO 00000KT 19SM 27/M04 A2971 RMK SLP066 T02721035 57014 IEM_DS3505
ZBAA,2001-05-09 10:00,ZBAA 091000Z AUTO 34008KT 6SM 27/M06 A2974 RMK T02701060 IEM_DS3505
ZBAA,2001-05-09 11:00,ZBAA 091100Z AUTO 12004KT 6SM 24/00 A2974 RMK T02400000 IEM_DS3505
ZBAA,2001-05-09 12:00,ZBAA 091200Z AUTO 25004KT 12SM 22/04 A2977 RMK SLP080 T02240044 52014 IEM_DS3505
ZBAA,2001-05-09 13:00,ZBAA 091300Z AUTO 6SM 23/00 A2980 RMK T02300000 IEM_DS3505
ZBAA,2001-05-09 14:00,ZBAA 091400Z AUTO 16002KT 6SM 22/02 A2983 RMK T02200020 IEM_DS3505
ZBAA,2001-05-09 15:00,ZBAA 091500Z AUTO 22006KT 12SM 20/04 A2983 RMK SLP095 T02050039 52015 IEM_DS3505
ZBAA,2001-05-09 16:00,ZBAA 091600Z AUTO 6SM 20/02 A2983 RMK T02000020 IEM_DS3505
ZBAA,2001-05-09 17:00,ZBAA 091700Z AUTO 36002KT 6SM 18/02 A2985 RMK T01800020 IEM_DS3505
ZBAA,2001-05-09 18:00,ZBAA 091800Z AUTO 02004KT 12SM 20/04 A2983 RMK SLP099 T01980037 52004 IEM_DS3505
ZBAA,2001-05-09 19:00,ZBAA 091900Z AUTO 32004KT 6SM 17/01 A2985 RMK T01700010 IEM_DS3505
ZBAA,2001-05-09 20:00,ZBAA 092000Z AUTO 36006KT 6SM 17/01 A2985 RMK T01700010 IEM_DS3505
ZBAA,2001-05-09 21:00,ZBAA 092100Z AUTO 04004KT 12SM 17/02 A2988 RMK SLP104 T01740016 52005 IEM_DS3505
ZBAA,2001-05-09 22:00,ZBAA 092200Z AUTO 02006KT 6SM 16/01 A2988 RMK T01600010 IEM_DS3505
ZBAA,2001-05-09 23:00,ZBAA 092300Z AUTO 02006KT 6SM 18/02 A2991 RMK T01800020 IEM_DS3505
ZBAA,2001-05-10 00:00,ZBAA 100000Z AUTO 04008KT 19SM 20/M01 A2994 RMK SLP125 T02031006 52021 IEM_DS3505
ZBAA,2001-05-10 01:00,ZBAA 100100Z AUTO 03006KT 12SM RMK IEM_DS3505
ZBAA,2001-05-10 02:00,ZBAA 100200Z AUTO 6SM 23/01 A2994 RMK T02300010 IEM_DS3505
ZBAA,2001-05-10 03:00,ZBAA 100300Z AUTO 04008KT 19SM 24/M02 A2994 RMK SLP132 T02351019 52007 IEM_DS3505
ZBAA,2001-05-10 04:00,ZBAA 100400Z AUTO 03006KT 6SM 25/00 A2991 RMK T02500000 IEM_DS3505
ZBAA,2001-05-10 05:00,ZBAA 100500Z AUTO 6SM 26/00 A2991 RMK T02600000 IEM_DS3505
ZBAA,2001-05-10 06:00,ZBAA 100600Z AUTO 09006KT 19SM 26/M00 A2988 RMK SLP121 T02561004 57011 IEM_DS3505
ZBAA,2001-05-10 07:00,ZBAA 100700Z AUTO 6SM 27/M03 A2985 RMK T02701030 IEM_DS3505
ZBAA,2001-05-10 08:00,ZBAA 100800Z AUTO 6SM 27/M03 A2985 RMK T02701030 IEM_DS3505
ZBAA,2001-05-10 09:00,ZBAA 100900Z AUTO 16008KT 19SM 26/M01 A2985 RMK SLP113 T02591009 57008 IEM_DS3505
ZBAA,2001-05-10 10:00,ZBAA 101000Z AUTO 13004KT 6SM 26/M03 A2985 RMK T02601030 IEM_DS3505
ZBAA,2001-05-10 11:00,ZBAA 101100Z AUTO 15006KT 6SM 24/M01 A2988 RMK T02401010 IEM_DS3505
ZBAA,2001-05-10 12:00,ZBAA 101200Z AUTO 18006KT 19SM 22/04 A2991 RMK SLP129 T02190044 52016 IEM_DS3505
ZBAA,2001-05-10 13:00,ZBAA 101300Z AUTO 17010KT 6SM 20/05 A2994 RMK T02000050 IEM_DS3505
ZBAA,2001-05-10 14:00,ZBAA 101400Z AUTO 12004KT 6SM 18/06 A2997 RMK T01800060 IEM_DS3505
ZBAA,2001-05-10 15:00,ZBAA 101500Z AUTO 25006KT 19SM 18/04 A3000 RMK SLP151 T01810039 52022 IEM_DS3505
ZBAA,2001-05-10 16:00,ZBAA 101600Z AUTO 09004KT 6SM 16/08 A3000 RMK T01600080 IEM_DS3505
ZBAA,2001-05-10 17:00,ZBAA 101700Z AUTO 12004KT 6SM 15/08 A3000 RMK T01500080 IEM_DS3505
ZBAA,2001-05-10 18:00,ZBAA 101800Z AUTO 14004KT 17SM 15/07 A3000 RMK SLP154 T01460066 52003 IEM_DS3505
ZBAA,2001-05-10 19:00,ZBAA 101900Z AUTO 6SM 12/07 A3000 RMK T01200070 IEM_DS3505
ZBAA,2001-05-10 20:00,ZBAA 102000Z AUTO 05002KT 6SM 12/07 A3003 RMK T01200070 IEM_DS3505
ZBAA,2001-05-10 21:00,ZBAA 102100Z AUTO 00000KT 16SM 13/06 A3003 RMK SLP164 T01290059 52009 IEM_DS3505
ZBAA,2001-05-10 22:00,ZBAA 102200Z AUTO 6SM 12/07 A3006 RMK T01200070 IEM_DS3505
ZBAA,2001-05-10 23:00,ZBAA 102300Z AUTO 05002KT 6SM 14/08 A3006 RMK T01400080 IEM_DS3505
ZBAA,2001-05-11 00:00,ZBAA 110000Z AUTO 04006KT 6SM 17/08 A3006 RMK SLP174 T01690076 52010 IEM_DS3505
ZBAA,2001-05-11 01:00,ZBAA 110100Z AUTO 6SM 19/08 A3006 RMK T01900080 IEM_DS3505
ZBAA,2001-05-11 02:00,ZBAA 110200Z AUTO 6SM 21/08 A3003 RMK T02100080 IEM_DS3505
ZBAA,2001-05-11 03:00,ZBAA 110300Z AUTO 14004KT 6SM 23/07 A3003 RMK SLP167 T02340074 57006 IEM_DS3505
ZBAA,2001-05-11 04:00,ZBAA 110400Z AUTO 19006KT 6SM 25/05 A3000 RMK T02500050 IEM_DS3505
ZBAA,2001-05-11 05:00,ZBAA 110500Z AUTO 17008KT 6SM 27/06 A2997 RMK T02700060 IEM_DS3505
ZBAA,2001-05-11 06:00,ZBAA 110600Z AUTO 22006KT 9SM 28/03 A2994 RMK SLP144 T02760029 57023 IEM_DS3505
ZBAA,2001-05-11 07:00,ZBAA 110700Z AUTO 17012KT 6SM 29/01 A2991 RMK T02900010 IEM_DS3505
ZBAA,2001-05-11 08:00,ZBAA 110800Z AUTO 18012KT 6SM 29/02 RMK T02900020 IEM_DS3505
ZBAA,2001-05-11 09:00,ZBAA 110900Z AUTO 22010KT 9SM 28/02 A2988 RMK SLP121 T02840024 57023 IEM_DS3505
ZBAA,2001-05-11 10:00,ZBAA 111000Z AUTO 19010KT 6SM 28/00 A2988 RMK T02800000 IEM_DS3505
ZBAA,2001-05-11 11:00,ZBAA 111100Z AUTO 20006KT 6SM 26/03 A2988 RMK T02600030 IEM_DS3505
ZBAA,2001-05-11 12:00,ZBAA 111200Z AUTO 22006KT 12SM 23/07 A2988 RMK SLP121 T02330067 54000 IEM_DS3505
ZBAA,2001-05-11 13:00,ZBAA 111300Z AUTO 20008KT 6SM 24/04 A2991 RMK T02400040 IEM_DS3505
ZBAA,2001-05-11 14:00,ZBAA 111400Z AUTO 20008KT 6SM 23/04 A2991 RMK T02300040 IEM_DS3505
ZBAA,2001-05-11 15:00,ZBAA 111500Z AUTO 22008KT 12SM 21/06 A2991 RMK SLP125 T02100059 52004 IEM_DS3505
ZBAA,2001-05-11 16:00,ZBAA 111600Z AUTO 19004KT 6SM 20/05 A2991 RMK T02000050 IEM_DS3505
ZBAA,2001-05-11 17:00,ZBAA 111700Z AUTO 14002KT 6SM 19/06 A2988 RMK T01900060 IEM_DS3505
ZBAA,2001-05-11 18:00,ZBAA 111800Z AUTO 00000KT 12SM 18/08 A2988 RMK SLP122 T01750077 57003 IEM_DS3505
ZBAA,2001-05-11 19:00,ZBAA 111900Z AUTO 6SM 14/07 A2988 RMK T01400070 IEM_DS3505
ZBAA,2001-05-11 20:00,ZBAA 112000Z AUTO 14002KT 6SM 13/08 A2988 RMK T01300080 IEM_DS3505
ZBAA,2001-05-11 21:00,ZBAA 112100Z AUTO 00000KT 12SM 14/07 A2988 RMK SLP115 T01350069 57007 IEM_DS3505
ZBAA,2001-05-11 22:00,ZBAA 112200Z AUTO 6SM 13/08 A2988 RMK T01300080 IEM_DS3505
ZBAA,2001-05-11 23:00,ZBAA 112300Z AUTO 10002KT 6SM 16/08 A2988 RMK T01600080 IEM_DS3505
ZBAA,2001-05-12 00:00,ZBAA 120000Z AUTO 22006KT 6SM 19/08 A2988 RMK SLP119 T01870083 52004 IEM_DS3505
ZBAA,2001-05-12 01:00,ZBAA 120100Z AUTO 12002KT 21/09 A2988 RMK T02100090 IEM_DS3505
ZBAA,2001-05-12 02:00,ZBAA 120200Z AUTO 15004KT 23/08 A2985 RMK T02300080 IEM_DS3505
ZBAA,2001-05-12 03:00,ZBAA 120300Z AUTO 22006KT 7SM 26/10 A2985 RMK SLP104 T02560100 57015 IEM_DS3505
ZBAA,2001-05-12 04:00,ZBAA 120400Z AUTO 18006KT 27/09 A2983 RMK T02700090 IEM_DS3505
ZBAA,2001-05-12 05:00,ZBAA 120500Z AUTO 16008KT 6SM 29/10 A2977 RMK T02900100 IEM_DS3505
ZBAA,2001-05-12 06:00,ZBAA 120600Z AUTO 20006KT 12SM 30/12 A2974 RMK SLP072 T02980120 57032 IEM_DS3505
ZBAA,2001-05-12 07:00,ZBAA 120700Z AUTO 18008KT 6SM 31/12 A2971 RMK T03100120 IEM_DS3505
ZBAA,2001-05-12 08:00,ZBAA 120800Z AUTO 18010KT 6SM 30/12 A2971 RMK T03000120 IEM_DS3505
ZBAA,2001-05-12 09:00,ZBAA 120900Z AUTO 22008KT 12SM 30/14 A2968 RMK SLP054 T03020144 57018 IEM_DS3505
ZBAA,2001-05-12 10:00,ZBAA 121000Z AUTO 19010KT 6SM 30/12 A2968 RMK T03000120 IEM_DS3505
ZBAA,2001-05-12 11:00,ZBAA 121100Z AUTO 17006KT 6SM 27/14 A2971 RMK T02700140 IEM_DS3505
ZBAA,2001-05-12 12:00,ZBAA 121200Z AUTO 20004KT 9SM 27/17 A2971 RMK SLP056 T02710166 52002 IEM_DS3505
ZBAA,2001-05-12 13:00,ZBAA 121300Z AUTO 17004KT 6SM 25/17 A2971 RMK T02500170 IEM_DS3505
ZBAA,2001-05-12 14:00,ZBAA 121400Z AUTO 16006KT 6SM 25/18 A2971 RMK T02500180 IEM_DS3505
ZBAA,2001-05-12 15:00,ZBAA 121500Z AUTO 20008KT 7SM 25/18 A2971 RMK SLP057 T02470181 52002 IEM_DS3505
ZBAA,2001-05-12 16:00,ZBAA 121600Z AUTO 13004KT 6SM 23/19 A2971 RMK T02300190 IEM_DS3505
ZBAA,2001-05-12 17:00,ZBAA 121700Z AUTO 12004KT 23/19 A2971 RMK T02300190 IEM_DS3505
ZBAA,2001-05-12 18:00,ZBAA 121800Z AUTO 18004KT 7SM 22/18 A2968 RMK SLP049 T02210180 57008 IEM_DS3505
ZBAA,2001-05-12 19:00,ZBAA 121900Z AUTO 12004KT 6SM 21/18 A2968 RMK T02100180 IEM_DS3505
ZBAA,2001-05-12 20:00,ZBAA 122000Z AUTO 12004KT 1/8SM 20/18 A2971 RMK T02000180 IEM_DS3505
ZBAA,2001-05-12 21:00,ZBAA 122100Z AUTO 11002KT 5SM 18/17 A2971 RMK SLP055 T01790167 52005 IEM_DS3505
ZBAA,2001-05-12 22:00,ZBAA 122200Z AUTO 12004KT 6SM 19/18 A2971 RMK T01900180 IEM_DS3505
ZBAA,2001-05-12 23:00,ZBAA 122300Z AUTO 12004KT 6SM 20/18 A2974 RMK T02000180 IEM_DS3505
ZBAA,2001-05-13 00:00,ZBAA 130000Z AUTO 22004KT 4SM 21/17 A2974 RMK SLP063 T02120170 52008 IEM_DS3505
ZBAA,2001-05-13 01:00,ZBAA 130100Z AUTO 16004KT 6SM 23/18 A2974 RMK T02300180 IEM_DS3505
ZBAA,2001-05-13 02:00,ZBAA 130200Z AUTO 15004KT 24/19 A2971 RMK T02400190 IEM_DS3505
ZBAA,2001-05-13 03:00,ZBAA 130300Z AUTO 16008KT 6SM 26/16 A2971 RMK SLP059 T02640165 57003 IEM_DS3505
ZBAA,2001-05-13 04:00,ZBAA 130400Z AUTO 15008KT 6SM 28/18 A2971 RMK T02800180 IEM_DS3505
ZBAA,2001-05-13 05:00,ZBAA 130500Z AUTO 17010KT 15SM 29/16 A2968 RMK T02900160 IEM_DS3505
ZBAA,2001-05-13 06:00,ZBAA 130600Z AUTO 20010KT 7SM 31/14 A2968 RMK SLP044 T03120145 57015 IEM_DS3505
ZBAA,2001-05-13 07:00,ZBAA 130700Z AUTO 17012KT 6SM 32/14 A2965 RMK T03200140 IEM_DS3505
ZBAA,2001-05-13 08:00,ZBAA 130800Z AUTO 18012KT 6SM 32/14 A2962 RMK T03200140 IEM_DS3505
ZBAA,2001-05-13 09:00,ZBAA 130900Z AUTO 22008KT 12SM 32/14 A2962 RMK SLP028 T03150139 57016 IEM_DS3505
ZBAA,2001-05-13 10:00,ZBAA 131000Z AUTO 21014KT 6SM 31/11 A2962 RMK T03100110 IEM_DS3505
ZBAA,2001-05-13 11:00,ZBAA 131100Z AUTO 18008KT 6SM 29/12 A2965 RMK T02900120 IEM_DS3505
ZBAA,2001-05-13 12:00,ZBAA 131200Z AUTO 20006KT 12SM 28/14 A2968 RMK SLP043 T02790140 52015 IEM_DS3505
ZBAA,2001-05-13 13:00,ZBAA 131300Z AUTO 16008KT 6SM 26/13 A2968 RMK T02600130 IEM_DS3505
ZBAA,2001-05-13 14:00,ZBAA 131400Z AUTO 17008KT 6SM 25/13 A2971 RMK T02500130 IEM_DS3505
ZBAA,2001-05-13 15:00,ZBAA 131500Z AUTO 20006KT 11SM 25/15 RMK SLP048 T02460146 52005 IEM_DS3505
ZBAA,2001-05-13 16:00,ZBAA 131600Z AUTO 17006KT 80SM 23/15 A2968 RMK T02300150 IEM_DS3505
ZBAA,2001-05-13 17:00,ZBAA 131700Z AUTO 18006KT 6SM 23/16 A2968 RMK T02300160 IEM_DS3505
ZBAA,2001-05-13 18:00,ZBAA 131800Z AUTO 20004KT 9SM 23/15 RMK SLP045 T02310153 57003 IEM_DS3505
ZBAA,2001-05-13 19:00,ZBAA 131900Z AUTO 14006KT 6SM RMK IEM_DS3505
ZBAA,2001-05-13 20:00,ZBAA 132000Z AUTO 16006KT 6SM RMK IEM_DS3505
ZBAA,2001-05-14 00:00,ZBAA 140000Z AUTO 18004KT 5SM 21/16 RMK 60003 SLP058 T02060156 52013 IEM_DS3505
ZBAA,2001-05-14 01:00,ZBAA 140100Z AUTO 12004KT 6SM 21/16 A2974 RMK T02100160 IEM_DS3505
ZBAA,2001-05-14 02:00,ZBAA 140200Z AUTO 11002KT 6SM 22/16 A2974 RMK T02200160 IEM_DS3505
ZBAA,2001-05-14 03:00,ZBAA 140300Z AUTO 18002KT 6SM 23/16 A2977 RMK SLP069 T02270158 52010 IEM_DS3505
ZBAA,2001-05-14 04:00,ZBAA 140400Z AUTO 02004KT 19SM 23/16 A2974 RMK T02300160 IEM_DS3505
ZBAA,2001-05-14 05:00,ZBAA 140500Z AUTO 6SM 23/16 A2977 RMK T02300160 IEM_DS3505
ZBAA,2001-05-14 06:00,ZBAA 140600Z AUTO 34004KT 6SM 25/16 A2974 RMK 60003 SLP070 T02510156 52001 IEM_DS3505
ZBAA,2001-05-14 07:00,ZBAA 140700Z AUTO 29014KT 28/07 A2974 RMK T02800070 IEM_DS3505
ZBAA,2001-05-14 08:00,ZBAA 140800Z AUTO 27014G23KT 29/03 A2971 RMK T02900030 IEM_DS3505
ZBAA,2001-05-14 09:00,ZBAA 140900Z AUTO 32008KT 9SM 29/00 A2971 RMK SLP060 T02890001 57009 IEM_DS3505
ZBAA,2001-05-14 10:00,ZBAA 141000Z AUTO 29012KT 6SM 28/01 A2974 RMK T02800010 IEM_DS3505
ZBAA,2001-05-14 11:00,ZBAA 141100Z AUTO 31014KT 6SM 26/M01 A2977 RMK T02601010 IEM_DS3505
ZBAA,2001-05-14 12:00,ZBAA 141200Z AUTO 32014KT 6SM 26/M02 A2983 RMK SLP096 T02561021 52035 IEM_DS3505
ZBAA,2001-05-14 13:00,ZBAA 141300Z AUTO 31014KT 6SM 25/M04 A2985 RMK T02501040 IEM_DS3505
ZBAA,2001-05-14 14:00,ZBAA 141400Z AUTO 33016G25KT 6SM 23/M10 A2991 RMK T02301100 IEM_DS3505
ZBAA,2001-05-14 15:00,ZBAA 141500Z AUTO 32021KT 6SM 22/M15 A2994 RMK SLP126 T02221154 52030 IEM_DS3505
ZBAA,2001-05-14 16:00,ZBAA 141600Z AUTO 31014KT 6SM 21/M11 A2994 RMK T02101110 IEM_DS3505
ZBAA,2001-05-14 18:00,ZBAA 141800Z AUTO 00000KT 7SM 17/M00 RMK SLP130 T01741002 52004 IEM_DS3505
ZBAA,2001-05-14 19:00,ZBAA 141900Z AUTO 31006KT 6SM 18/M09 A2991 RMK T01801090 IEM_DS3505
ZBAA,2001-05-14 21:00,ZBAA 142100Z AUTO 29004KT 7SM 16/M02 A2988 RMK 70003 SLP123 T01581025 57007 IEM_DS3505
ZBAA,2001-05-14 22:00,ZBAA 142200Z AUTO 26006KT 12SM 18/M05 A2988 RMK T01801050 IEM_DS3505
ZBAA,2001-05-14 23:00,ZBAA 142300Z AUTO 30012KT 6SM 22/M03 A2988 RMK T02201030 IEM_DS3505
ZBAA,2001-05-15 00:00,ZBAA 150000Z AUTO 30012KT 6SM 23/00 A2985 RMK T02300000 IEM_DS3505
ZBAA,2001-05-15 01:00,ZBAA 150100Z AUTO 31021G35KT 6SM 24/M01 A2985 RMK T02401010 IEM_DS3505
ZBAA,2001-05-15 02:00,ZBAA 150200Z AUTO 31027G47KT 6SM 25/M01 A2985 RMK T02501010 IEM_DS3505
ZBAA,2001-05-15 03:00,ZBAA 150300Z AUTO 32023G39KT 12SM 26/M05 A2985 RMK SLP111 T02611053 57005 IEM_DS3505
ZBAA,2001-05-15 04:00,ZBAA 150400Z AUTO 31019G29KT 6SM 26/00 A2983 RMK T02600000 IEM_DS3505
ZBAA,2001-05-15 05:00,ZBAA 150500Z AUTO 32021G31KT 6SM 28/M01 A2980 RMK T02801010 IEM_DS3505
ZBAA,2001-05-15 06:00,ZBAA 150600Z AUTO 29019G35KT 6SM 29/M07 A2977 RMK SLP077 T02931071 4////0132 57034 IEM_DS3505
ZBAA,2001-05-15 07:00,ZBAA 150700Z AUTO 02008KT 6SM 27/01 A2974 RMK T02700010 IEM_DS3505
ZBAA,2001-05-15 08:00,ZBAA 150800Z AUTO 26/03 A2974 RMK T02600030 IEM_DS3505
ZBAA,2001-05-15 09:00,ZBAA 150900Z AUTO 29016KT 5SM 30/ A2977 RMK SLP069 57008 IEM_DS3505
ZBAA,2001-05-15 10:00,ZBAA 151000Z AUTO 07002KT 25/04 A2977 RMK T02500040 IEM_DS3505
ZBAA,2001-05-15 11:00,ZBAA 151100Z AUTO 13002KT 6SM 24/05 A2980 RMK T02400050 IEM_DS3505
ZBAA,2001-05-15 12:00,ZBAA 151200Z AUTO 14006KT 6SM 23/06 A2983 RMK SLP092 T02260059 52023 IEM_DS3505
ZBAA,2001-05-15 13:00,ZBAA 151300Z AUTO 6SM 23/04 A2985 RMK T02300040 IEM_DS3505
ZBAA,2001-05-15 14:00,ZBAA 151400Z AUTO 17002KT 6SM 22/03 A2988 RMK T02200030 IEM_DS3505
ZBAA,2001-05-15 15:00,ZBAA 151500Z AUTO 14002KT 9SM 21/06 A2988 RMK SLP117 T02080056 52025 IEM_DS3505
ZBAA,2001-05-15 16:00,ZBAA 151600Z AUTO 15004KT 12SM 20/05 A2988 RMK T02000050 IEM_DS3505
ZBAA,2001-05-15 17:00,ZBAA 151700Z AUTO 17006KT 6SM 18/06 A2988 RMK T01800060 IEM_DS3505
ZBAA,2001-05-15 20:00,ZBAA 152000Z AUTO 6SM 15/07 A2988 RMK T01500070 IEM_DS3505
ZBAA,2001-05-15 21:00,ZBAA 152100Z AUTO 00000KT 6SM 14/07 A2988 RMK SLP112 T01440073 54000 IEM_DS3505
ZBAA,2001-05-15 22:00,ZBAA 152200Z AUTO 6SM 14/07 A2988 RMK T01400070 IEM_DS3505
ZBAA,2001-05-15 23:00,ZBAA 152300Z AUTO 07002KT 6SM 18/08 A2988 RMK T01800080 IEM_DS3505
ZBAA,2001-05-16 00:00,ZBAA 160000Z AUTO 11004KT 7SM 20/07 A2988 RMK SLP115 T02040074 52003 IEM_DS3505
ZBAA,2001-05-16 01:00,ZBAA 160100Z AUTO 6SM 22/08 A2985 RMK T02200080 IEM_DS3505
ZBAA,2001-05-16 02:00,ZBAA 160200Z AUTO 16002KT 6SM 24/08 A2985 RMK T02400080 IEM_DS3505
ZBAA,2001-05-16 03:00,ZBAA 160300Z AUTO 16006KT 7SM 26/08 A2980 RMK SLP094 T02590076 57021 IEM_DS3505
ZBAA,2001-05-16 04:00,ZBAA 160400Z AUTO 18010KT 6SM 29/07 A2977 RMK T02900070 IEM_DS3505
ZBAA,2001-05-16 05:00,ZBAA 160500Z AUTO 21012KT 6SM 31/04 A2971 RMK T03100040 IEM_DS3505
ZBAA,2001-05-16 06:00,ZBAA 160600Z AUTO 22014KT 7SM 32/M01 A2965 RMK SLP048 T03201006 57045 IEM_DS3505
ZBAA,2001-05-16 07:00,ZBAA 160700Z AUTO 19014G25KT 6SM 32/02 A2965 RMK T03200020 IEM_DS3505
ZBAA,2001-05-16 08:00,ZBAA 160800Z AUTO 20014KT 6SM 32/03 A2962 RMK T03200030 IEM_DS3505
ZBAA,2001-05-16 09:00,ZBAA 160900Z AUTO 22016G21KT 6SM 30/01 A2959 RMK SLP024 T03050008 57025 IEM_DS3505
ZBAA,2001-05-16 10:00,ZBAA 161000Z AUTO 22012KT 6SM 30/03 A2959 RMK T03000030 IEM_DS3505
ZBAA,2001-05-16 11:00,ZBAA 161100Z AUTO 20014G23KT 6SM 29/02 A2959 RMK T02900020 IEM_DS3505
ZBAA,2001-05-16 12:00,ZBAA 161200Z AUTO 22014KT 9SM 28/04 A2959 RMK SLP024 T02760038 52001 IEM_DS3505
ZBAA,2001-05-16 13:00,ZBAA 161300Z AUTO 21016G25KT 6SM 28/05 A2962 RMK T02800050 IEM_DS3505
ZBAA,2001-05-16 14:00,ZBAA 161400Z AUTO 21010KT 6SM 26/05 A2962 RMK T02600050 IEM_DS3505
ZBAA,2001-05-16 15:00,ZBAA 161500Z AUTO 22010KT 7SM 24/06 A2959 RMK SLP028 T02380056 52004 IEM_DS3505
ZBAA,2001-05-16 16:00,ZBAA 161600Z AUTO 25002KT 6SM 24/06 A2962 RMK T02400060 IEM_DS3505
ZBAA,2001-05-16 17:00,ZBAA 161700Z AUTO 15002KT 6SM 21/06 A2959 RMK T02100060 IEM_DS3505
ZBAA,2001-05-16 18:00,ZBAA 161800Z AUTO 25006KT 9SM 20/08 A2959 RMK SLP015 T01950085 57013 IEM_DS3505
ZBAA,2001-05-16 19:00,ZBAA 161900Z AUTO 01002KT 6SM 18/09 A2956 RMK T01800090 IEM_DS3505
ZBAA,2001-05-16 20:15,ZBAA 162015Z AUTO 6SM 16/09 A2956 RMK T01600090 IEM_DS3505
ZBAA,2001-05-16 21:00,ZBAA 162100Z AUTO 20002KT 9SM 16/09 A2956 RMK SLP011 T01580093 57004 IEM_DS3505
ZBAA,2001-05-16 22:00,ZBAA 162200Z AUTO 6SM 15/09 A2956 RMK T01500090 IEM_DS3505
ZBAA,2001-05-16 23:00,ZBAA 162300Z AUTO 36002KT 6SM 18/10 A2956 RMK T01800100 IEM_DS3505
ZBAA,2001-05-17 00:00,ZBAA 170000Z AUTO 20004KT 6SM 21/10 A2956 RMK SLP007 T02110102 57004 IEM_DS3505
ZBAA,2001-05-17 01:00,ZBAA 170100Z AUTO 24/12 A2953 RMK T02400120 IEM_DS3505
ZBAA,2001-05-17 02:00,ZBAA 170200Z AUTO 19004KT 6SM 27/11 A2953 RMK T02700110 IEM_DS3505
ZBAA,2001-05-17 03:00,ZBAA 170300Z AUTO 22004KT 7SM 29/10 A2950 RMK SLP992 T02930098 57015 IEM_DS3505
ZBAA,2001-05-17 04:00,ZBAA 170400Z AUTO 18008KT 7SM 33/05 A2947 RMK T03300050 IEM_DS3505
ZBAA,2001-05-17 05:00,ZBAA 170500Z AUTO 19008KT 6SM RMK IEM_DS3505
ZBAA,2001-05-17 06:00,ZBAA 170600Z AUTO 04006G29KT 6SM 35/03 A2944 RMK SLP968 T03490032 57024 IEM_DS3505
ZBAA,2001-05-17 07:00,ZBAA 170700Z AUTO 28019G29KT 6SM 36/M05 A2944 RMK T03601050 IEM_DS3505
ZBAA,2001-05-17 08:00,ZBAA 170800Z AUTO 30025G41KT 6SM 34/M03 A2947 RMK T03401030 IEM_DS3505
ZBAA,2001-05-17 09:00,ZBAA 170900Z AUTO 32023G27KT 6SM 33/M07 A2947 RMK SLP977 T03281072 52009 IEM_DS3505
ZBAA,2001-05-17 10:00,ZBAA 171000Z AUTO 30012KT 6SM 32/M03 A2950 RMK T03201030 IEM_DS3505
ZBAA,2001-05-17 11:00,ZBAA 171100Z AUTO 32021G33KT 6SM 31/M02 A2953 RMK T03101020 IEM_DS3505
ZBAA,2001-05-17 12:00,ZBAA 171200Z AUTO 34008KT 9SM 30/M04 A2959 RMK SLP010 T03021038 52033 IEM_DS3505
ZBAA,2001-05-17 13:00,ZBAA 171300Z AUTO 32012KT 6SM 28/M01 A2962 RMK T02801010 IEM_DS3505
ZBAA,2001-05-17 14:00,ZBAA 171400Z AUTO 31010KT 6SM 28/M01 A2965 RMK T02801010 IEM_DS3505
ZBAA,2001-05-17 15:00,ZBAA 171500Z AUTO 32004KT 7SM 25/02 A2965 RMK SLP037 T02470021 52027 IEM_DS3505
ZBAA,2001-05-17 16:00,ZBAA 171600Z AUTO 32010KT 6SM 26/M01 A2968 RMK T02601010 IEM_DS3505
ZBAA,2001-05-17 17:00,ZBAA 171700Z AUTO 27004KT 6SM 23/M01 A2968 RMK T02301010 IEM_DS3505
ZBAA,2001-05-17 18:00,ZBAA 171800Z AUTO 00000KT 10SM 20/05 A2968 RMK SLP042 T02040053 52005 IEM_DS3505
ZBAA,2001-05-17 19:00,ZBAA 171900Z AUTO 24006KT 6SM 24/M01 A2968 RMK T02401010 IEM_DS3505
ZBAA,2001-05-17 20:00,ZBAA 172000Z AUTO 28002KT 6SM 23/M01 A2965 RMK T02301010 IEM_DS3505
ZBAA,2001-05-17 21:00,ZBAA 172100Z AUTO 29004KT 12SM 21/02 A2968 RMK SLP043 T02060019 52001 IEM_DS3505
ZBAA,2001-05-17 22:00,ZBAA 172200Z AUTO 6SM 21/01 A2968 RMK T02100010 IEM_DS3505
ZBAA,2001-05-18 00:00,ZBAA 180000Z AUTO 22006KT 12SM 26/05 A2965 RMK SLP043 T02550046 54000 IEM_DS3505
ZBAA,2001-05-18 01:00,ZBAA 180100Z AUTO 29008KT 6SM 28/02 A2965 RMK T02800020 IEM_DS3505
ZBAA,2001-05-18 02:00,ZBAA 180200Z AUTO 26008KT 6SM 30/00 A2965 RMK T03000000 IEM_DS3505
ZBAA,2001-05-18 03:00,ZBAA 180300Z AUTO 22008KT 12SM 32/02 A2962 RMK SLP032 T03170025 57011 IEM_DS3505
ZBAA,2001-05-18 04:00,ZBAA 180400Z AUTO 29010KT 6SM 33/M02 A2959 RMK T03301020 IEM_DS3505
ZBAA,2001-05-18 05:00,ZBAA 180500Z AUTO 26008KT 6SM 35/00 A2956 RMK T03500000 IEM_DS3505
ZBAA,2001-05-18 06:00,ZBAA 180600Z AUTO 18010KT 19SM 34/02 A2953 RMK SLP998 T03420018 57034 IEM_DS3505
ZBAA,2001-05-18 07:00,ZBAA 180700Z AUTO 19014G23KT 6SM 35/03 A2947 RMK T03500030 IEM_DS3505
ZBAA,2001-05-18 08:00,ZBAA 180800Z AUTO 18016KT 6SM 35/05 A2947 RMK T03500050 IEM_DS3505
ZBAA,2001-05-18 09:00,ZBAA 180900Z AUTO 22010KT 19SM 33/05 A2947 RMK SLP981 T03330047 57017 IEM_DS3505
ZBAA,2001-05-18 10:00,ZBAA 181000Z AUTO 19010G19KT 6SM 33/04 A2947 RMK T03300040 IEM_DS3505
ZBAA,2001-05-18 11:00,ZBAA 181100Z AUTO 20010KT 6SM 32/05 A2947 RMK T03200050 IEM_DS3505
ZBAA,2001-05-18 12:00,ZBAA 181200Z AUTO 20006KT 19SM 30/08 A2950 RMK SLP986 T02950077 52005 IEM_DS3505
ZBAA,2001-05-18 13:00,ZBAA 181300Z AUTO 14004KT 6SM 28/08 A2953 RMK T02800080 IEM_DS3505
ZBAA,2001-05-18 14:00,ZBAA 181400Z AUTO 12004KT 6SM 26/09 A2953 RMK T02600090 IEM_DS3505
ZBAA,2001-05-18 15:00,ZBAA 181500Z AUTO 20004KT 12SM 25/11 A2953 RMK SLP991 T02530106 52005 IEM_DS3505
ZBAA,2001-05-18 16:00,ZBAA 181600Z AUTO 6SM 22/10 A2953 RMK T02200100 IEM_DS3505
ZBAA,2001-05-18 17:00,ZBAA 181700Z AUTO 6SM 21/10 A2953 RMK T02100100 IEM_DS3505
ZBAA,2001-05-18 18:00,ZBAA 181800Z AUTO 07004KT 6SM 20/11 A2953 RMK SLP992 T02020112 52001 IEM_DS3505
ZBAA,2001-05-18 19:00,ZBAA 181900Z AUTO 6SM 20/10 A2953 RMK T02000100 IEM_DS3505
ZBAA,2001-05-18 20:00,ZBAA 182000Z AUTO 6SM 19/11 A2953 RMK T01900110 IEM_DS3505
ZBAA,2001-05-18 21:00,ZBAA 182100Z AUTO 00000KT 6SM 18/11 A2953 RMK SLP992 T01760112 54000 IEM_DS3505
ZBAA,2001-05-18 22:00,ZBAA 182200Z AUTO 6SM 18/10 A2953 RMK T01800100 IEM_DS3505
ZBAA,2001-05-18 23:00,ZBAA 182300Z AUTO 16002KT 6SM 21/11 A2956 RMK T02100110 IEM_DS3505
ZBAA,2001-05-19 00:00,ZBAA 190000Z AUTO 14004KT 5SM 23/12 A2956 RMK SLP002 T02300120 52010 IEM_DS3505
ZBAA,2001-05-19 01:00,ZBAA 190100Z AUTO 10004KT 6SM 25/12 A2956 RMK T02500120 IEM_DS3505
ZBAA,2001-05-19 02:00,ZBAA 190200Z AUTO 6SM 28/12 A2956 RMK T02800120 IEM_DS3505
ZBAA,2001-05-19 03:00,ZBAA 190300Z AUTO 18004KT 9SM 31/13 A2953 RMK SLP999 T03070129 57003 IEM_DS3505
ZBAA,2001-05-19 04:00,ZBAA 190400Z AUTO 18006KT 6SM 33/11 A2950 RMK T03300110 IEM_DS3505
ZBAA,2001-05-19 05:00,ZBAA 190500Z AUTO 18008KT 6SM 35/13 A2947 RMK T03500130 IEM_DS3505
ZBAA,2001-05-19 06:00,ZBAA 190600Z AUTO 22008KT 9SM 36/11 A2944 RMK SLP975 T03650110 57024 IEM_DS3505
ZBAA,2001-05-19 07:00,ZBAA 190700Z AUTO 19010KT 6SM 38/10 A2941 RMK T03800100 IEM_DS3505
ZBAA,2001-05-19 08:00,ZBAA 190800Z AUTO 18012KT 6SM 38/08 A2938 RMK T03800080 IEM_DS3505
ZBAA,2001-05-19 09:00,ZBAA 190900Z AUTO 22010KT 12SM 37/04 A2938 RMK SLP954 T03670042 57021 IEM_DS3505
ZBAA,2001-05-19 10:00,ZBAA 191000Z AUTO 20012KT 6SM 36/06 A2935 RMK T03600060 IEM_DS3505
ZBAA,2001-05-19 11:30,ZBAA 191130Z AUTO 20012KT 6SM 34/09 A2938 RMK T03400090 IEM_DS3505
ZBAA,2001-05-19 12:00,ZBAA 191200Z AUTO 22008KT 9SM 32/11 A2938 RMK SLP954 T03150111 54000 IEM_DS3505
ZBAA,2001-05-19 13:00,ZBAA 191300Z AUTO 20012KT 6SM 32/12 A2941 RMK T03200120 IEM_DS3505
ZBAA,2001-05-19 14:00,ZBAA 191400Z AUTO 21010KT 6SM 32/11 A2941 RMK T03200110 IEM_DS3505
ZBAA,2001-05-19 15:00,ZBAA 191500Z AUTO 22008KT 7SM 28/12 A2944 RMK SLP962 T02840123 52009 IEM_DS3505
ZBAA,2001-05-19 16:00,ZBAA 191600Z AUTO 20008KT 6SM 29/11 A2944 RMK T02900110 IEM_DS3505
ZBAA,2001-05-19 17:00,ZBAA 191700Z AUTO 6SM 26/14 A2944 RMK T02600140 IEM_DS3505
ZBAA,2001-05-19 18:00,ZBAA 191800Z AUTO 22006KT 9SM 26/16 A2944 RMK SLP960 T02600162 57002 IEM_DS3505
ZBAA,2001-05-19 19:00,ZBAA 191900Z AUTO 11002KT 6SM 22/15 A2944 RMK T02200150 IEM_DS3505
ZBAA,2001-05-19 20:00,ZBAA 192000Z AUTO 10002KT 6SM 22/17 A2944 RMK T02200170 IEM_DS3505
ZBAA,2001-05-19 21:00,ZBAA 192100Z AUTO 00000KT 9SM 22/16 A2947 RMK SLP971 T02220165 52010 IEM_DS3505
ZBAA,2001-05-19 22:00,ZBAA 192200Z AUTO 6SM 20/17 A2947 RMK T02000170 IEM_DS3505
ZBAA,2001-05-19 23:00,ZBAA 192300Z AUTO 09002KT 6SM 23/18 A2950 RMK T02300180 IEM_DS3505
ZBAA,2001-05-20 00:00,ZBAA 200000Z AUTO 25002KT 6SM 24/18 A2950 RMK SLP989 T02440176 52018 IEM_DS3505
ZBAA,2001-05-20 01:00,ZBAA 200100Z AUTO 6SM 27/19 A2950 RMK T02700190 IEM_DS3505
ZBAA,2001-05-20 02:00,ZBAA 200200Z AUTO 29/20 A2950 RMK T02900200 IEM_DS3505
ZBAA,2001-05-20 03:00,ZBAA 200300Z AUTO 11004KT 6SM 29/19 A2950 RMK SLP988 T02870189 57001 IEM_DS3505
ZBAA,2001-05-20 04:00,ZBAA 200400Z AUTO 11006KT 6SM 32/20 A2950 RMK T03200200 IEM_DS3505
ZBAA,2001-05-20 05:00,ZBAA 200500Z AUTO 13006KT 6SM 33/19 A2947 RMK T03300190 IEM_DS3505
ZBAA,2001-05-20 06:00,ZBAA 200600Z AUTO 18006KT 7SM 34/14 A2947 RMK SLP977 T03410137 57010 IEM_DS3505
ZBAA,2001-05-20 07:00,ZBAA 200700Z AUTO 12008KT 35/17 A2947 RMK T03500170 IEM_DS3505
ZBAA,2001-05-20 08:00,ZBAA 200800Z AUTO 16008KT 6SM 35/14 A2944 RMK T03500140 IEM_DS3505
ZBAA,2001-05-20 09:00,ZBAA 200900Z AUTO 16006KT 7SM 34/18 A2944 RMK SLP968 T03400180 57010 IEM_DS3505
ZBAA,2001-05-20 10:00,ZBAA 201000Z AUTO 12006KT 6SM 34/15 A2944 RMK T03400150 IEM_DS3505
ZBAA,2001-05-20 11:00,ZBAA 201100Z AUTO 12002KT 6SM RMK IEM_DS3505
ZBAA,2001-05-20 12:00,ZBAA 201200Z AUTO 18002KT 6SM 30/18 A2950 RMK SLP983 T02950175 52015 IEM_DS3505
ZBAA,2001-05-20 13:00,ZBAA 201300Z AUTO 15002KT 6SM 28/16 A2953 RMK T02800160 IEM_DS3505
ZBAA,2001-05-20 14:00,ZBAA 201400Z AUTO 18006KT 6SM 28/15 A2956 RMK T02800150 IEM_DS3505
ZBAA,2001-05-20 15:00,ZBAA 201500Z AUTO 18004KT 6SM 27/14 A2956 RMK SLP001 T02730136 52018 IEM_DS3505
ZBAA,2001-05-20 16:00,ZBAA 201600Z AUTO 11004KT 6SM 25/15 A2956 RMK T02500150 IEM_DS3505
ZBAA,2001-05-20 17:00,ZBAA 201700Z AUTO 11004KT 6SM 24/15 A2956 RMK T02400150 IEM_DS3505
ZBAA,2001-05-20 18:00,ZBAA 201800Z AUTO 11002KT 6SM 23/15 A2959 RMK SLP011 T02280146 52010 IEM_DS3505
ZBAA,2001-05-20 19:00,ZBAA 201900Z AUTO 12004KT 6SM 22/14 A2959 RMK T02200140 IEM_DS3505
ZBAA,2001-05-20 20:00,ZBAA 202000Z AUTO 12004KT 6SM 22/16 A2959 RMK T02200160 IEM_DS3505
ZBAA,2001-05-20 21:00,ZBAA 202100Z AUTO 09002KT 6SM 21/15 A2959 RMK SLP018 T02090150 52007 IEM_DS3505
ZBAA,2001-05-20 22:00,ZBAA 202200Z AUTO 12002KT 6SM 21/17 A2962 RMK T02100170 IEM_DS3505
ZBAA,2001-05-20 23:00,ZBAA 202300Z AUTO 13004KT 6SM 22/18 A2962 RMK T02200180 IEM_DS3505
ZBAA,2001-05-21 00:00,ZBAA 210000Z AUTO 22002KT 5SM 25/17 A2965 RMK SLP032 T02480173 52014 IEM_DS3505
ZBAA,2001-05-21 01:00,ZBAA 210100Z AUTO 13004KT 6SM 26/19 A2965 RMK T02600190 IEM_DS3505
ZBAA,2001-05-21 02:00,ZBAA 210200Z AUTO 12004KT 28/19 A2965 RMK T02800190 IEM_DS3505
ZBAA,2001-05-21 03:00,ZBAA 210300Z AUTO 18008KT 6SM 30/19 A2965 RMK SLP035 T02990186 52003 IEM_DS3505
ZBAA,2001-05-21 04:00,ZBAA 210400Z AUTO 16006KT 31/18 A2962 RMK T03100180 IEM_DS3505
ZBAA,2001-05-21 05:00,ZBAA 210500Z AUTO 16006KT 9SM 33/18 A2962 RMK T03300180 IEM_DS3505
ZBAA,2001-05-21 06:00,ZBAA 210600Z AUTO 18008KT 7SM 34/15 A2959 RMK SLP022 T03400153 57013 IEM_DS3505
ZBAA,2001-05-21 07:00,ZBAA 210700Z AUTO 16012KT 12SM 35/14 A2959 RMK T03500140 IEM_DS3505
ZBAA,2001-05-21 08:00,ZBAA 210800Z AUTO 17012KT 6SM 35/14 A2956 RMK T03500140 IEM_DS3505
ZBAA,2001-05-21 09:00,ZBAA 210900Z AUTO 20008KT 7SM 34/13 A2959 RMK SLP015 T03350132 57007 IEM_DS3505
ZBAA,2001-05-21 10:00,ZBAA 211000Z AUTO 17010KT 6SM 33/14 A2959 RMK T03300140 IEM_DS3505
ZBAA,2001-05-21 11:00,ZBAA 211100Z AUTO 18008KT 6SM 31/16 A2959 RMK T03100160 IEM_DS3505
ZBAA,2001-05-21 12:00,ZBAA 211200Z AUTO 18006KT 6SM 30/16 A2962 RMK SLP022 T02970164 52007 IEM_DS3505
ZBAA,2001-05-21 13:00,ZBAA 211300Z AUTO 12006KT 6SM 27/18 A2965 RMK T02700180 IEM_DS3505
ZBAA,2001-05-21 14:00,ZBAA 211400Z AUTO 12006KT 6SM 26/16 A2965 RMK T02600160 IEM_DS3505
ZBAA,2001-05-21 15:00,ZBAA 211500Z AUTO 14004KT 6SM 25/15 A2965 RMK SLP032 T02490152 52010 IEM_DS3505
ZBAA,2001-05-21 16:00,ZBAA 211600Z AUTO 13006KT 6SM 23/18 A2965 RMK T02300180 IEM_DS3505
ZBAA,2001-05-21 17:00,ZBAA 211700Z AUTO 13006KT 6SM 22/19 A2965 RMK T02200190 IEM_DS3505
ZBAA,2001-05-21 18:00,ZBAA 211800Z AUTO 14006KT 7SM 22/17 A2965 RMK SLP033 T02150168 52001 IEM_DS3505
ZBAA,2001-05-21 19:00,ZBAA 211900Z AUTO 6SM 21/18 A2965 RMK T02100180 IEM_DS3505
ZBAA,2001-05-21 20:00,ZBAA 212000Z AUTO 08002KT 12SM 20/18 A2965 RMK T02000180 IEM_DS3505
ZBAA,2001-05-21 21:00,ZBAA 212100Z AUTO 09004KT 4SM 19/17 A2968 RMK SLP037 T01930170 52004 IEM_DS3505
ZBAA,2001-05-21 22:00,ZBAA 212200Z AUTO 16SM 19/18 A2968 RMK T01900180 IEM_DS3505
ZBAA,2001-05-21 23:00,ZBAA 212300Z AUTO 12004KT 6SM 21/19 A2968 RMK T02100190 IEM_DS3505
ZBAA,2001-05-22 00:00,ZBAA 220000Z AUTO 14004KT 4SM 22/17 A2971 RMK SLP052 T02210171 52015 IEM_DS3505
ZBAA,2001-05-22 01:00,ZBAA 220100Z AUTO 13004KT 6SM 24/19 A2971 RMK T02400190 IEM_DS3505
ZBAA,2001-05-22 02:00,ZBAA 220200Z AUTO 7SM 26/19 A2968 RMK T02600190 IEM_DS3505
ZBAA,2001-05-22 03:00,ZBAA 220300Z AUTO 14002KT 4SM 28/18 A2968 RMK SLP048 T02750185 57004 IEM_DS3505
ZBAA,2001-05-22 04:00,ZBAA 220400Z AUTO 15006KT 30/20 A2965 RMK T03000200 IEM_DS3505
ZBAA,2001-05-22 05:00,ZBAA 220500Z AUTO 18006KT 6SM 32/18 A2965 RMK T03200180 IEM_DS3505
ZBAA,2001-05-22 06:00,ZBAA 220600Z AUTO 22008KT 7SM 33/16 A2962 RMK SLP027 T03330164 57021 IEM_DS3505
ZBAA,2001-05-22 07:00,ZBAA 220700Z AUTO 16010KT 11SM 34/15 A2962 RMK T03400150 IEM_DS3505
ZBAA,2001-05-22 08:00,ZBAA 220800Z AUTO 18010KT 6SM 34/14 A2959 RMK T03400140 IEM_DS3505
ZBAA,2001-05-22 09:00,ZBAA 220900Z AUTO 18006KT 12SM 34/12 A2959 RMK SLP021 T03380122 57006 IEM_DS3505
ZBAA,2001-05-22 10:00,ZBAA 221000Z AUTO 17008KT 6SM 33/14 A2959 RMK T03300140 IEM_DS3505
ZBAA,2001-05-22 11:00,ZBAA 221100Z AUTO 18006KT 6SM 30/14 A2959 RMK T03000140 IEM_DS3505
ZBAA,2001-05-22 12:00,ZBAA 221200Z AUTO 22004KT 9SM 30/15 A2965 RMK SLP031 T02960148 52010 IEM_DS3505
ZBAA,2001-05-22 13:00,ZBAA 221300Z AUTO 19006KT 6SM 30/14 A2965 RMK T03000140 IEM_DS3505
ZBAA,2001-05-22 14:00,ZBAA 221400Z AUTO 11004KT 6SM 26/15 A2968 RMK T02600150 IEM_DS3505
ZBAA,2001-05-22 15:00,ZBAA 221500Z AUTO 18004KT 9SM 25/14 A2968 RMK SLP042 T02540144 52011 IEM_DS3505
ZBAA,2001-05-22 16:00,ZBAA 221600Z AUTO 13004KT 6SM 24/17 A2968 RMK T02400170 IEM_DS3505
ZBAA,2001-05-22 17:00,ZBAA 221700Z AUTO 12004KT 6SM 23/16 A2968 RMK T02300160 IEM_DS3505
ZBAA,2001-05-22 18:00,ZBAA 221800Z AUTO 20002KT 9SM 24/14 A2968 RMK SLP044 T02370135 52002 IEM_DS3505
ZBAA,2001-05-22 19:00,ZBAA 221900Z AUTO 12004KT 6SM 21/15 A2968 RMK T02100150 IEM_DS3505
ZBAA,2001-05-22 20:00,ZBAA 222000Z AUTO 12006KT 6SM 21/15 A2968 RMK T02100150 IEM_DS3505
ZBAA,2001-05-22 21:00,ZBAA 222100Z AUTO 00000KT 7SM 21/15 A2968 RMK SLP041 T02120150 57003 IEM_DS3505
ZBAA,2001-05-22 22:00,ZBAA 222200Z AUTO 10004KT RMK IEM_DS3505
ZBAA,2001-05-22 23:00,ZBAA 222300Z AUTO 10002KT 22/18 A2968 RMK T02200180 IEM_DS3505
ZBAA,2001-05-23 00:00,ZBAA 230000Z AUTO 14002KT 6SM 24/17 A2968 RMK SLP049 T02420166 52008 IEM_DS3505
ZBAA,2001-05-23 01:00,ZBAA 230100Z AUTO 13006KT 26/19 A2968 RMK T02600190 IEM_DS3505
ZBAA,2001-05-23 03:00,ZBAA 230300Z AUTO 18010KT 12SM 31/15 A2965 RMK SLP035 T03070149 57014 IEM_DS3505
ZBAA,2001-05-23 04:00,ZBAA 230400Z AUTO 17008KT 9SM 33/15 A2962 RMK T03300150 IEM_DS3505
ZBAA,2001-05-23 05:00,ZBAA 230500Z AUTO 19010KT 6SM 34/11 A2962 RMK T03400110 IEM_DS3505
ZBAA,2001-05-23 06:00,ZBAA 230600Z AUTO 20010KT 19SM 33/08 A2959 RMK SLP017 T03300076 57018 IEM_DS3505
ZBAA,2001-05-23 07:00,ZBAA 230700Z AUTO 19012KT 6SM 35/05 A2956 RMK T03500050 IEM_DS3505
ZBAA,2001-05-23 08:00,ZBAA 230800Z AUTO 16012KT 6SM 35/05 A2953 RMK T03500050 IEM_DS3505
ZBAA,2001-05-23 09:00,ZBAA 230900Z AUTO 18008KT 19SM 34/09 A2953 RMK SLP998 T03350094 57019 IEM_DS3505
ZBAA,2001-05-23 10:00,ZBAA 231000Z AUTO 18010KT 6SM 32/09 A2953 RMK T03200090 IEM_DS3505
ZBAA,2001-05-23 12:00,ZBAA 231200Z AUTO 00000KT 12SM 29/14 A2956 RMK SLP005 T02890145 52007 IEM_DS3505
ZBAA,2001-05-23 13:00,ZBAA 231300Z AUTO 11002KT 6SM 27/13 A2956 RMK T02700130 IEM_DS3505
ZBAA,2001-05-23 14:00,ZBAA 231400Z AUTO 12004KT 6SM 27/18 A2959 RMK T02700180 IEM_DS3505
ZBAA,2001-05-23 15:00,ZBAA 231500Z AUTO 14006KT 9SM 25/16 RMK SLP014 T02520158 52009 IEM_DS3505
ZBAA,2001-05-23 18:00,ZBAA 231800Z AUTO 14006KT 9SM 24/17 RMK SLP009 T02370170 57005 IEM_DS3505
ZBAA,2001-05-23 21:00,ZBAA 232100Z AUTO 36004KT 6SM 23/17 RMK SLP008 T02320166 57001 IEM_DS3505
ZBAA,2001-05-24 00:00,ZBAA 240000Z AUTO 07006KT 5SM 24/17 RMK SLP012 T02370171 52004 IEM_DS3505
ZBAA,2001-05-24 03:00,ZBAA 240300Z AUTO 04006KT 6SM 25/16 A2962 RMK SLP022 T02510155 52010 IEM_DS3505
ZBAA,2001-05-24 04:00,ZBAA 240400Z AUTO 31017KT 6SM 23/16 A2962 RMK T02300160 IEM_DS3505
ZBAA,2001-05-24 05:00,ZBAA 240500Z AUTO 30006KT 6SM 23/17 A2962 RMK T02300170 IEM_DS3505
ZBAA,2001-05-24 06:00,ZBAA 240600Z AUTO 34004KT 6SM 26/15 A2962 RMK 60003 SLP026 T02550148 52004 IEM_DS3505
ZBAA,2001-05-24 07:00,ZBAA 240700Z AUTO 33008KT 6SM 25/13 A2965 RMK T02500130 IEM_DS3505
ZBAA,2001-05-24 08:00,ZBAA 240800Z AUTO 6SM 25/17 A2965 RMK T02500170 IEM_DS3505
ZBAA,2001-05-24 09:00,ZBAA 240900Z AUTO 09006KT 9SM 26/12 A2965 RMK SLP031 T02590117 52005 IEM_DS3505
ZBAA,2001-05-24 10:00,ZBAA 241000Z AUTO 03004KT 6SM 25/18 A2965 RMK T02500180 IEM_DS3505
ZBAA,2001-05-24 11:00,ZBAA 241100Z AUTO 04002KT 6SM 24/17 A2968 RMK T02400170 IEM_DS3505
ZBAA,2001-05-24 12:00,ZBAA 241200Z AUTO 14004KT 11SM 22/15 A2968 RMK SLP047 T02250154 52015 IEM_DS3505
ZBAA,2001-05-24 13:00,ZBAA 241300Z AUTO 6SM 20/16 A2971 RMK T02000160 IEM_DS3505
ZBAA,2001-05-24 14:00,ZBAA 241400Z AUTO 02002KT 6SM 20/16 A2971 RMK T02000160 IEM_DS3505
ZBAA,2001-05-24 15:00,ZBAA 241500Z AUTO 25002KT 7SM 20/15 A2974 RMK SLP063 T01980154 52016 IEM_DS3505
ZBAA,2001-05-24 16:00,ZBAA 241600Z AUTO 15002KT 6SM 19/17 A2974 RMK T01900170 IEM_DS3505
ZBAA,2001-05-24 17:12,ZBAA 241712Z AUTO 12002KT 6SM 18/17 A2974 RMK T01800170 IEM_DS3505
ZBAA,2001-05-24 18:00,ZBAA 241800Z AUTO 00000KT 6SM 19/15 A2974 RMK SLP062 T01870150 57001 IEM_DS3505
ZBAA,2001-05-24 19:00,ZBAA 241900Z AUTO 08002KT 6SM 17/16 A2971 RMK T01700160 IEM_DS3505
ZBAA,2001-05-24 20:00,ZBAA 242000Z AUTO 6SM 16/16 A2971 RMK T01600160 IEM_DS3505
ZBAA,2001-05-24 21:00,ZBAA 242100Z AUTO 00000KT 6SM 17/14 A2974 RMK 70003 SLP057 T01680140 57005 IEM_DS3505
ZBAA,2001-05-24 22:00,ZBAA 242200Z AUTO 16/15 A2977 RMK T01600150 IEM_DS3505
ZBAA,2001-05-24 23:00,ZBAA 242300Z AUTO 3SM 19/16 A2977 RMK T01900160 IEM_DS3505
ZBAA,2001-05-25 00:00,ZBAA 250000Z AUTO 36002KT 5SM 21/16 A2977 RMK 70003 SLP074 T02090163 52017 IEM_DS3505
ZBAA,2001-05-25 01:00,ZBAA 250100Z AUTO 22004KT 6SM 23/15 A2977 RMK T02300150 IEM_DS3505
ZBAA,2001-05-25 02:00,ZBAA 250200Z AUTO 28012KT 6SM 26/10 A2974 RMK T02600100 IEM_DS3505
ZBAA,2001-05-25 03:00,ZBAA 250300Z AUTO 32012KT 9SM 29/05 A2974 RMK SLP073 T02900051 57001 IEM_DS3505
ZBAA,2001-05-25 04:00,ZBAA 250400Z AUTO 28016KT 6SM 29/05 A2974 RMK T02900050 IEM_DS3505
ZBAA,2001-05-25 05:00,ZBAA 250500Z AUTO 29016G25KT 6SM 29/03 A2974 RMK T02900030 IEM_DS3505
ZBAA,2001-05-25 06:00,ZBAA 250600Z AUTO 32014G25KT 12SM 30/03 A2974 RMK SLP063 T03000027 57009 IEM_DS3505
ZBAA,2001-05-25 07:00,ZBAA 250700Z AUTO 28016G25KT 6SM 31/03 A2974 RMK T03100030 IEM_DS3505
ZBAA,2001-05-25 08:00,ZBAA 250800Z AUTO 30014KT 6SM 31/02 A2974 RMK T03100020 IEM_DS3505
ZBAA,2001-05-25 09:00,ZBAA 250900Z AUTO 34012G23KT 12SM 30/00 A2974 RMK SLP066 T02970004 52002 IEM_DS3505
ZBAA,2001-05-25 10:00,ZBAA 251000Z AUTO 33010KT 6SM 28/03 A2977 RMK T02800030 IEM_DS3505
ZBAA,2001-05-25 11:00,ZBAA 251100Z AUTO 34017KT 6SM 26/05 A2980 RMK T02600050 IEM_DS3505
ZBAA,2001-05-25 12:00,ZBAA 251200Z AUTO 02008KT 9SM 26/02 A2980 RMK SLP095 T02610020 52029 IEM_DS3505
ZBAA,2001-05-25 13:00,ZBAA 251300Z AUTO 36008KT 6SM 24/05 A2985 RMK T02400050 IEM_DS3505
ZBAA,2001-05-25 14:00,ZBAA 251400Z AUTO 35004KT 6SM 22/05 A2988 RMK T02200050 IEM_DS3505
ZBAA,2001-05-25 15:00,ZBAA 251500Z AUTO 04006KT 12SM 23/06 A2988 RMK SLP114 T02320057 52020 IEM_DS3505
ZBAA,2001-05-25 16:00,ZBAA 251600Z AUTO 33008KT 6SM 22/05 A2991 RMK T02200050 IEM_DS3505
ZBAA,2001-05-25 17:00,ZBAA 251700Z AUTO 34008KT 6SM 22/05 A2991 RMK T02200050 IEM_DS3505
ZBAA,2001-05-25 18:00,ZBAA 251800Z AUTO 36008KT 6SM 23/04 A2991 RMK SLP121 T02260041 52007 IEM_DS3505
ZBAA,2001-05-25 19:00,ZBAA 251900Z AUTO 33008KT 6SM 19/06 A2991 RMK T01900060 IEM_DS3505
ZBAA,2001-05-25 20:00,ZBAA 252000Z AUTO 31010KT 6SM 19/06 A2994 RMK T01900060 IEM_DS3505
ZBAA,2001-05-25 21:00,ZBAA 252100Z AUTO 34006KT 9SM 20/05 A2994 RMK SLP134 T02050054 52012 IEM_DS3505
ZBAA,2001-05-25 22:00,ZBAA 252200Z AUTO 02002KT 6SM 18/08 A2997 RMK T01800080 IEM_DS3505
ZBAA,2001-05-25 23:00,ZBAA 252300Z AUTO 35006KT 6SM 21/08 A2997 RMK T02100080 IEM_DS3505
ZBAA,2001-05-26 00:00,ZBAA 260000Z AUTO 32006KT 12SM 23/05 A2997 RMK SLP144 T02270051 52010 IEM_DS3505
ZBAA,2001-05-26 01:00,ZBAA 260100Z AUTO 35006KT 6SM 24/08 A2997 RMK T02400080 IEM_DS3505
ZBAA,2001-05-26 02:00,ZBAA 260200Z AUTO 33006KT 6SM 25/08 A2997 RMK T02500080 IEM_DS3505
ZBAA,2001-05-26 03:00,ZBAA 260300Z AUTO 04006KT 19SM 26/04 A2994 RMK SLP142 T02610040 57002 IEM_DS3505
ZBAA,2001-05-26 04:00,ZBAA 260400Z AUTO 28006KT 6SM 27/04 A2994 RMK T02700040 IEM_DS3505
ZBAA,2001-05-26 05:00,ZBAA 260500Z AUTO 6SM 29/04 A2991 RMK T02900040 IEM_DS3505
ZBAA,2001-05-26 06:00,ZBAA 260600Z AUTO 14004KT 19SM 27/04 A2991 RMK SLP125 T02740042 57017 IEM_DS3505
ZBAA,2001-05-26 07:00,ZBAA 260700Z AUTO 32010KT 6SM 28/03 A2988 RMK T02800030 IEM_DS3505
ZBAA,2001-05-26 08:00,ZBAA 260800Z AUTO 31014KT 6SM 29/03 A2988 RMK T02900030 IEM_DS3505
ZBAA,2001-05-26 09:00,ZBAA 260900Z AUTO 34008G31KT 19SM 29/02 A2988 RMK SLP119 T02860017 57006 IEM_DS3505
ZBAA,2001-05-26 10:00,ZBAA 261000Z AUTO 35008KT 6SM 28/04 A2988 RMK T02800040 IEM_DS3505
ZBAA,2001-05-26 11:00,ZBAA 261100Z AUTO 28008KT 6SM 27/05 A2988 RMK T02700050 IEM_DS3505
ZBAA,2001-05-26 12:00,ZBAA 261200Z AUTO 29006KT 19SM 27/03 RMK SLP121 T02680034 52002 IEM_DS3505
ZBAA,2001-05-26 13:00,ZBAA 261300Z AUTO 29008KT 6SM 25/06 A2991 RMK T02500060 IEM_DS3505
ZBAA,2001-05-26 14:00,ZBAA 261400Z AUTO 29008G17KT 6SM 24/05 A2994 RMK T02400050 IEM_DS3505
ZBAA,2001-05-26 15:00,ZBAA 261500Z AUTO 29004KT 19SM 24/04 A2994 RMK SLP133 T02390045 52012 IEM_DS3505
ZBAA,2001-05-26 16:00,ZBAA 261600Z AUTO 28010KT 6SM 22/06 A2994 RMK T02200060 IEM_DS3505
ZBAA,2001-05-26 17:00,ZBAA 261700Z AUTO 29008KT 6SM 22/06 A2991 RMK T02200060 IEM_DS3505
ZBAA,2001-05-26 18:00,ZBAA 261800Z AUTO 32004KT 19SM 22/05 A2991 RMK SLP132 T02160054 57001 IEM_DS3505
ZBAA,2001-05-26 19:00,ZBAA 261900Z AUTO 28006KT 6SM 20/04 A2991 RMK T02000040 IEM_DS3505
ZBAA,2001-05-26 20:00,ZBAA 262000Z AUTO 29004KT 6SM 19/05 A2991 RMK T01900050 IEM_DS3505
ZBAA,2001-05-26 21:00,ZBAA 262100Z AUTO 00000KT 12SM 17/07 RMK SLP130 T01660072 57002 IEM_DS3505
ZBAA,2001-05-26 22:00,ZBAA 262200Z AUTO 6SM 18/07 A2991 RMK T01800070 IEM_DS3505
ZBAA,2001-05-26 23:00,ZBAA 262300Z AUTO 34004KT 6SM 22/07 A2991 RMK T02200070 IEM_DS3505
ZBAA,2001-05-27 00:00,ZBAA 270000Z AUTO 32004KT 19SM 25/05 A2991 RMK SLP126 T02530051 57004 IEM_DS3505
ZBAA,2001-05-27 01:00,ZBAA 270100Z AUTO 31008KT 6SM 28/05 A2988 RMK T02800050 IEM_DS3505
ZBAA,2001-05-27 02:00,ZBAA 270200Z AUTO 30012KT 6SM 30/03 A2988 RMK T03000030 IEM_DS3505
ZBAA,2001-05-27 03:00,ZBAA 270300Z AUTO 36012G23KT 19SM 31/00 A2985 RMK SLP106 T03100001 57019 IEM_DS3505
ZBAA,2001-05-27 04:00,ZBAA 270400Z AUTO 34012KT 6SM 33/02 A2980 RMK T03300020 IEM_DS3505
ZBAA,2001-05-27 05:00,ZBAA 270500Z AUTO 27010G21KT 6SM 32/02 A2977 RMK T03200020 IEM_DS3505
ZBAA,2001-05-27 06:00,ZBAA 270600Z AUTO 27006G21KT 19SM 33/M01 A2974 RMK SLP069 T03301012 57037 IEM_DS3505
ZBAA,2001-05-27 07:00,ZBAA 270700Z AUTO 26012KT 6SM 34/01 A2971 RMK T03400010 IEM_DS3505
ZBAA,2001-05-27 08:00,ZBAA 270800Z AUTO 28012KT 6SM 34/02 A2968 RMK T03400020 IEM_DS3505
ZBAA,2001-05-27 09:00,ZBAA 270900Z AUTO 22014KT 19SM 31/02 A2968 RMK SLP050 T03110018 57020 IEM_DS3505
ZBAA,2001-05-27 10:00,ZBAA 271000Z AUTO 01008KT 31/02 A2968 RMK T03100020 IEM_DS3505
ZBAA,2001-05-27 11:00,ZBAA 271100Z AUTO 20008KT 6SM 29/02 A2971 RMK T02900020 IEM_DS3505
ZBAA,2001-05-27 12:00,ZBAA 271200Z AUTO 16008KT 12SM 27/04 A2968 RMK SLP051 T02720043 52002 IEM_DS3505
ZBAA,2001-05-27 13:00,ZBAA 271300Z AUTO 22006KT 6SM 27/04 A2968 RMK T02700040 IEM_DS3505
ZBAA,2001-05-27 14:00,ZBAA 271400Z AUTO 24004KT 6SM 26/05 A2968 RMK T02600050 IEM_DS3505
ZBAA,2001-05-27 15:00,ZBAA 271500Z AUTO 25004KT 12SM 25/05 A2968 RMK SLP048 T02470048 57003 IEM_DS3505
ZBAA,2001-05-27 16:00,ZBAA 271600Z AUTO 27006KT 6SM 25/04 A2965 RMK T02500040 IEM_DS3505
ZBAA,2001-05-27 17:00,ZBAA 271700Z AUTO 29006KT 6SM 25/02 A2965 RMK T02500020 IEM_DS3505
ZBAA,2001-05-27 18:00,ZBAA 271800Z AUTO 20004KT 12SM 21/06 A2965 RMK SLP041 T02080059 57007 IEM_DS3505
ZBAA,2001-05-27 19:00,ZBAA 271900Z AUTO 36002KT 6SM 21/04 A2965 RMK T02100040 IEM_DS3505
ZBAA,2001-05-27 20:00,ZBAA 272000Z AUTO 6SM 19/04 A2965 RMK T01900040 IEM_DS3505
ZBAA,2001-05-27 21:00,ZBAA 272100Z AUTO 00000KT 7SM 17/07 A2965 RMK SLP036 T01740068 57005 IEM_DS3505
ZBAA,2001-05-27 22:00,ZBAA 272200Z AUTO 6SM 19/07 A2965 RMK T01900070 IEM_DS3505
ZBAA,2001-05-27 23:00,ZBAA 272300Z AUTO 07002KT 6SM 24/09 A2965 RMK T02400090 IEM_DS3505
ZBAA,2001-05-28 00:00,ZBAA 280000Z AUTO 20004KT 6SM 26/09 A2962 RMK SLP033 T02580089 57003 IEM_DS3505
ZBAA,2001-05-28 01:00,ZBAA 280100Z AUTO 30010KT 6SM 30/02 A2962 RMK T03000020 IEM_DS3505
ZBAA,2001-05-28 02:00,ZBAA 280200Z AUTO 30012KT 6SM 31/02 A2959 RMK T03100020 IEM_DS3505
ZBAA,2001-05-28 03:00,ZBAA 280300Z AUTO 22006G17KT 12SM 32/04 A2959 RMK SLP017 T03210045 57016 IEM_DS3505
ZBAA,2001-05-28 04:00,ZBAA 280400Z AUTO 28010KT 6SM 33/03 A2956 RMK T03300030 IEM_DS3505
ZBAA,2001-05-28 05:00,ZBAA 280500Z AUTO 27008KT 6SM 35/04 A2953 RMK T03500040 IEM_DS3505
ZBAA,2001-05-28 06:00,ZBAA 280600Z AUTO 25008KT 16SM 34/04 A2950 RMK SLP991 T03410036 57026 IEM_DS3505
ZBAA,2001-05-28 07:00,ZBAA 280700Z AUTO 27010G19KT 12SM 34/02 A2947 RMK T03400020 IEM_DS3505
ZBAA,2001-05-28 08:00,ZBAA 280800Z AUTO 31021G31KT 33/03 A2947 RMK T03300030 IEM_DS3505
ZBAA,2001-05-28 09:00,ZBAA 280900Z AUTO 34004KT 19SM 33/05 A2947 RMK SLP983 T03340046 57008 IEM_DS3505
ZBAA,2001-05-28 10:00,ZBAA 281000Z AUTO 28006KT 6SM 34/03 A2947 RMK T03400030 IEM_DS3505
ZBAA,2001-05-28 11:00,ZBAA 281100Z AUTO 24002KT 6SM 32/04 A2947 RMK T03200040 IEM_DS3505
ZBAA,2001-05-28 12:00,ZBAA 281200Z AUTO 22006KT 19SM 30/08 A2950 RMK SLP984 T02950085 52001 IEM_DS3505
ZBAA,2001-05-28 13:00,ZBAA 281300Z AUTO 21006KT 6SM 29/09 A2953 RMK T02900090 IEM_DS3505
ZBAA,2001-05-28 14:00,ZBAA 281400Z AUTO 22008KT 6SM 29/08 A2953 RMK T02900080 IEM_DS3505
ZBAA,2001-05-28 15:00,ZBAA 281500Z AUTO 25006KT 19SM 26/09 A2953 RMK SLP996 T02650090 52012 IEM_DS3505
ZBAA,2001-05-28 16:00,ZBAA 281600Z AUTO 29002KT 6SM 27/08 A2953 RMK T02700080 IEM_DS3505
ZBAA,2001-05-28 17:00,ZBAA 281700Z AUTO 02002KT 6SM 23/10 A2953 RMK T02300100 IEM_DS3505
ZBAA,2001-05-28 18:00,ZBAA 281800Z AUTO 00000KT 16SM 24/11 A2953 RMK SLP996 T02380108 54000 IEM_DS3505
ZBAA,2001-05-28 19:00,ZBAA 281900Z AUTO 02008KT 6SM 24/07 A2956 RMK T02400070 IEM_DS3505
ZBAA,2001-05-28 20:00,ZBAA 282000Z AUTO 02008KT 6SM 24/07 A2956 RMK T02400070 IEM_DS3505
ZBAA,2001-05-28 21:00,ZBAA 282100Z AUTO 04004KT 16SM 24/06 A2959 RMK SLP007 T02400063 52011 IEM_DS3505
ZBAA,2001-05-28 22:00,ZBAA 282200Z AUTO 02008KT 6SM 23/07 A2959 RMK T02300070 IEM_DS3505
ZBAA,2001-05-28 23:00,ZBAA 282300Z AUTO 03008G17KT 6SM 24/07 A2962 RMK T02400070 IEM_DS3505
ZBAA,2001-05-29 00:00,ZBAA 290000Z AUTO 07008KT 16SM 25/06 A2968 RMK SLP038 T02520057 52031 IEM_DS3505
ZBAA,2001-05-29 01:00,ZBAA 290100Z AUTO 03008KT 6SM 26/08 A2968 RMK T02600080 IEM_DS3505
ZBAA,2001-05-29 02:00,ZBAA 290200Z AUTO 03006KT 6SM 28/09 A2968 RMK T02800090 IEM_DS3505
ZBAA,2001-05-29 03:00,ZBAA 290300Z AUTO 16010KT 12SM 26/11 A2971 RMK SLP052 T02650111 52014 IEM_DS3505
ZBAA,2001-05-29 04:00,ZBAA 290400Z AUTO 03008KT 6SM 27/07 A2968 RMK T02700070 IEM_DS3505
ZBAA,2001-05-29 05:00,ZBAA 290500Z AUTO 04006G16KT 6SM 28/07 A2968 RMK T02800070 IEM_DS3505
ZBAA,2001-05-29 06:00,ZBAA 290600Z AUTO 14008KT 19SM 28/10 A2968 RMK SLP042 T02780099 57010 IEM_DS3505
ZBAA,2001-05-29 07:00,ZBAA 290700Z AUTO 03006KT 6SM RMK IEM_DS3505
ZBAA,2001-05-29 08:00,ZBAA 290800Z AUTO 03012G25KT 6SM 27/06 A2971 RMK T02700060 IEM_DS3505
ZBAA,2001-05-29 09:00,ZBAA 290900Z AUTO 04012G23KT 9SM 25/03 A2974 RMK SLP060 T02500030 52018 IEM_DS3505
ZBAA,2001-05-29 10:00,ZBAA 291000Z AUTO 02010KT 6SM 23/06 A2977 RMK T02300060 IEM_DS3505
ZBAA,2001-05-29 11:00,ZBAA 291100Z AUTO 6SM 22/07 A2980 RMK T02200070 IEM_DS3505
ZBAA,2001-05-29 12:00,ZBAA 291200Z AUTO 09006KT 9SM 20/10 A2980 RMK 60000 SLP088 T01980098 52027 IEM_DS3505
ZBAA,2001-05-29 13:00,ZBAA 291300Z AUTO 6SM 21/06 A2983 RMK T02100060 IEM_DS3505
ZBAA,2001-05-29 14:00,ZBAA 291400Z AUTO 26004KT 6SM 21/07 A2985 RMK T02100070 IEM_DS3505
ZBAA,2001-05-29 15:00,ZBAA 291500Z AUTO 09002KT 6SM 19/08 A2985 RMK SLP104 T01910084 52016 IEM_DS3505
ZBAA,2001-05-29 16:00,ZBAA 291600Z AUTO 01002KT 6SM 19/07 A2985 RMK T01900070 IEM_DS3505
ZBAA,2001-05-29 17:00,ZBAA 291700Z AUTO 01004KT 6SM 19/06 A2985 RMK T01900060 IEM_DS3505
ZBAA,2001-05-29 18:00,ZBAA 291800Z AUTO 00000KT 9SM 19/10 A2985 RMK 60003 SLP107 T01940095 52003 IEM_DS3505
ZBAA,2001-05-29 19:00,ZBAA 291900Z AUTO 34004KT 6SM 16/06 A2985 RMK T01600060 IEM_DS3505
ZBAA,2001-05-29 20:00,ZBAA 292000Z AUTO 35006KT 6SM 16/05 A2988 RMK T01600050 IEM_DS3505
ZBAA,2001-05-29 21:00,ZBAA 292100Z AUTO 34002KT 19SM 18/03 A2988 RMK 70000 SLP117 T01810034 52010 IEM_DS3505
ZBAA,2001-05-29 22:00,ZBAA 292200Z AUTO 35006KT 6SM 15/06 A2991 RMK T01500060 IEM_DS3505
ZBAA,2001-05-29 23:00,ZBAA 292300Z AUTO 01006KT 6SM 18/05 A2991 RMK T01800050 IEM_DS3505
ZBAA,2001-05-30 00:00,ZBAA 300000Z AUTO 11004KT 16SM 22/01 A2991 RMK 70000 SLP128 T02190014 52011 IEM_DS3505
ZBAA,2001-05-30 01:00,ZBAA 300100Z AUTO 6SM 23/02 A2991 RMK T02300020 IEM_DS3505
ZBAA,2001-05-30 02:00,ZBAA 300200Z AUTO 35006KT 6SM 24/M02 A2991 RMK T02401020 IEM_DS3505
ZBAA,2001-05-30 03:00,ZBAA 300300Z AUTO 07008KT 12SM 25/M07 A2991 RMK SLP126 T02461072 57002 IEM_DS3505
ZBAA,2001-05-30 04:00,ZBAA 300400Z AUTO 33006KT 6SM 25/M02 A2988 RMK T02501020 IEM_DS3505
ZBAA,2001-05-30 05:00,ZBAA 300500Z AUTO 24008KT 6SM 26/M03 A2985 RMK T02601030 IEM_DS3505
ZBAA,2001-05-30 06:00,ZBAA 300600Z AUTO 18008KT 12SM 26/M02 A2983 RMK SLP104 T02571018 57022 IEM_DS3505
ZBAA,2001-05-30 07:00,ZBAA 300700Z AUTO 6SM 27/M05 A2980 RMK T02701050 IEM_DS3505
ZBAA,2001-05-30 08:00,ZBAA 300800Z AUTO 18010KT 6SM 26/M01 A2980 RMK T02601010 IEM_DS3505
ZBAA,2001-05-30 09:00,ZBAA 300900Z AUTO 22010G19KT 12SM 25/05 A2980 RMK SLP090 T02470047 57014 IEM_DS3505
ZBAA,2001-05-30 10:00,ZBAA 301000Z AUTO 21010KT 6SM 25/05 A2977 RMK T02500050 IEM_DS3505
ZBAA,2001-05-30 11:00,ZBAA 301100Z AUTO 22010KT 6SM 24/04 A2980 RMK T02400040 IEM_DS3505
ZBAA,2001-05-30 12:00,ZBAA 301200Z AUTO 22006KT 12SM 21/04 A2980 RMK SLP092 T02120042 52002 IEM_DS3505
ZBAA,2001-05-30 13:00,ZBAA 301300Z AUTO 23006KT 6SM 22/03 A2983 RMK T02200030 IEM_DS3505
ZBAA,2001-05-30 14:00,ZBAA 301400Z AUTO 23006KT 6SM 21/03 A2983 RMK T02100030 IEM_DS3505
ZBAA,2001-05-30 15:00,ZBAA 301500Z AUTO 22006KT 6SM 18/08 A2985 RMK SLP103 T01810082 52011 IEM_DS3505
ZBAA,2001-05-30 16:00,ZBAA 301600Z AUTO 09002KT 6SM 17/06 A2985 RMK T01700060 IEM_DS3505
ZBAA,2001-05-30 18:00,ZBAA 301800Z AUTO 22004KT 12SM 16/10 A2983 RMK SLP101 T01580099 57002 IEM_DS3505
ZBAA,2001-05-30 19:00,ZBAA 301900Z AUTO 36002KT 6SM 14/08 A2983 RMK T01400080 IEM_DS3505
ZBAA,2001-05-30 20:00,ZBAA 302000Z AUTO 6SM 13/08 A2985 RMK T01300080 IEM_DS3505
ZBAA,2001-05-30 21:00,ZBAA 302100Z AUTO 22002KT 6SM 13/10 A2985 RMK SLP103 T01340105 52002 IEM_DS3505
ZBAA,2001-05-30 22:00,ZBAA 302200Z AUTO 36004KT 6SM 15/08 A2985 RMK T01500080 IEM_DS3505
ZBAA,2001-05-30 23:00,ZBAA 302300Z AUTO 34006KT 6SM 18/06 A2985 RMK T01800060 IEM_DS3505
ZBAA,2001-05-31 00:00,ZBAA 310000Z AUTO 00000KT 6SM 20/09 A2985 RMK SLP106 T02010087 52003 IEM_DS3505
ZBAA,2001-05-31 01:00,ZBAA 310100Z AUTO 31002KT 6SM 23/05 A2983 RMK T02300050 IEM_DS3505
ZBAA,2001-05-31 02:00,ZBAA 310200Z AUTO 27004KT 6SM 26/02 A2983 RMK T02600020 IEM_DS3505
ZBAA,2001-05-31 03:00,ZBAA 310300Z AUTO 22006KT 7SM 28/07 A2980 RMK SLP091 T02750069 57015 IEM_DS3505
ZBAA,2001-05-31 04:00,ZBAA 310400Z AUTO 24006KT 6SM 30/M01 A2977 RMK T03001010 IEM_DS3505
ZBAA,2001-05-31 05:00,ZBAA 310500Z AUTO 29008KT 6SM 32/M02 A2974 RMK T03201020 IEM_DS3505
ZBAA,2001-05-31 06:00,ZBAA 310600Z AUTO 22012KT 12SM 31/04 A2971 RMK SLP063 T03110040 57028 IEM_DS3505
ZBAA,2001-05-31 07:00,ZBAA 310700Z AUTO 20010KT 6SM 33/02 A2968 RMK T03300020 IEM_DS3505
ZBAA,2001-05-31 08:00,ZBAA 310800Z AUTO 20010KT 6SM 32/01 A2968 RMK T03200010 IEM_DS3505
ZBAA,2001-05-31 09:00,ZBAA 310900Z AUTO 22012KT 19SM 31/01 A2968 RMK SLP046 T03110014 57017 IEM_DS3505
ZBAA,2001-05-31 10:00,ZBAA 311000Z AUTO 20010KT 6SM 31/03 A2968 RMK T03100030 IEM_DS3505
ZBAA,2001-05-31 11:00,ZBAA 311100Z AUTO 21010KT 6SM 29/03 A2968 RMK T02900030 IEM_DS3505
ZBAA,2001-05-31 12:00,ZBAA 311200Z AUTO 22006KT 12SM 27/03 A2971 RMK SLP058 T02720029 52012 IEM_DS3505
ZBAA,2001-05-31 13:00,ZBAA 311300Z AUTO 22008KT 6SM 27/04 A2971 RMK T02700040 IEM_DS3505
ZBAA,2001-05-31 14:00,ZBAA 311400Z AUTO 22008KT 6SM 26/05 A2971 RMK T02600050 IEM_DS3505
ZBAA,2001-05-31 15:00,ZBAA 311500Z AUTO 25006KT 12SM 24/05 A2974 RMK SLP062 T02380053 52005 IEM_DS3505
ZBAA,2001-05-31 16:00,ZBAA 311600Z AUTO 08002KT 6SM 21/07 A2971 RMK T02100070 IEM_DS3505
ZBAA,2001-05-31 17:00,ZBAA 311700Z AUTO 6SM 20/08 A2971 RMK T02000080 IEM_DS3505
ZBAA,2001-05-31 18:00,ZBAA 311800Z AUTO 25006KT 12SM 20/07 A2971 RMK SLP057 T02030073 57005 IEM_DS3505
ZBAA,2001-05-31 19:00,ZBAA 311900Z AUTO 35002KT 6SM 17/08 A2971 RMK T01700080 IEM_DS3505
ZBAA,2001-05-31 20:00,ZBAA 312000Z AUTO 34002KT 6SM 16/07 A2971 RMK T01600070 IEM_DS3505
ZBAA,2001-05-31 21:00,ZBAA 312100Z AUTO 00000KT 12SM 16/09 A2974 RMK SLP064 T01600091 52006 IEM_DS3505
ZBAA,2001-05-31 22:00,ZBAA 312200Z AUTO 33004KT 6SM 17/08 A2974 RMK T01700080 IEM_DS3505
ZBAA,2001-05-31 23:00,ZBAA 312300Z AUTO 35002KT 6SM 22/08 A2974 RMK T02200080 IEM_DS3505
ZBAA,2001-06-01 00:00,ZBAA 010000Z AUTO 02004KT 19SM 26/07 A2977 RMK SLP070 T02580066 52007 IEM_DS3505
ZBAA,2001-06-01 01:00,ZBAA 010100Z AUTO 02004KT 6SM 28/07 A2977 RMK T02800070 IEM_DS3505
ZBAA,2001-06-01 02:00,ZBAA 010200Z AUTO 03002KT 6SM 30/09 A2977 RMK T03000090 IEM_DS3505
ZBAA,2001-06-01 03:00,ZBAA 010300Z AUTO 34004KT 19SM 34/M04 A2974 RMK SLP070 T03391036 54000 IEM_DS3505
ZBAA,2001-06-01 04:00,ZBAA 010400Z AUTO 6SM 35/03 A2974 RMK T03500030 IEM_DS3505
ZBAA,2001-06-01 05:00,ZBAA 010500Z AUTO 13006KT 6SM 35/02 A2971 RMK T03500020 IEM_DS3505
ZBAA,2001-06-01 06:00,ZBAA 010600Z AUTO 18006KT 19SM 35/02 A2968 RMK SLP054 T03530020 57016 IEM_DS3505
ZBAA,2001-06-01 07:00,ZBAA 010700Z AUTO 13006KT 6SM 37/00 A2968 RMK T03700000 IEM_DS3505
ZBAA,2001-06-01 08:00,ZBAA 010800Z AUTO 16008KT 6SM 37/03 A2965 RMK T03700030 IEM_DS3505
ZBAA,2001-06-01 09:00,ZBAA 010900Z AUTO 20006KT 19SM 36/04 A2965 RMK SLP044 T03590039 57010 IEM_DS3505
ZBAA,2001-06-01 10:00,ZBAA 011000Z AUTO 17008KT 6SM 35/03 A2968 RMK T03500030 IEM_DS3505
ZBAA,2001-06-01 11:00,ZBAA 011100Z AUTO 16006KT 6SM 33/04 A2968 RMK T03300040 IEM_DS3505
ZBAA,2001-06-01 12:00,ZBAA 011200Z AUTO 18002KT 16SM 30/08 A2974 RMK SLP056 T03050082 52012 IEM_DS3505
ZBAA,2001-06-01 13:00,ZBAA 011300Z AUTO 11010KT 6SM 26/09 A2977 RMK T02600090 IEM_DS3505
ZBAA,2001-06-01 14:00,ZBAA 011400Z AUTO 11008KT 6SM 25/09 A2980 RMK T02500090 IEM_DS3505
ZBAA,2001-06-01 15:00,ZBAA 011500Z AUTO 14008KT 12SM 22/11 A2980 RMK SLP085 T02230106 52029 IEM_DS3505
ZBAA,2001-06-01 16:00,ZBAA 011600Z AUTO 36002KT 6SM 22/08 A2983 RMK T02200080 IEM_DS3505
ZBAA,2001-06-01 17:00,ZBAA 011700Z AUTO 35002KT 6SM 22/08 A2983 RMK T02200080 IEM_DS3505
ZBAA,2001-06-01 18:00,ZBAA 011800Z AUTO 04004KT 12SM 21/10 A2983 RMK SLP093 T02140100 52008 IEM_DS3505
ZBAA,2001-06-01 19:00,ZBAA 011900Z AUTO 35004KT 6SM 20/09 A2983 RMK T02000090 IEM_DS3505
ZBAA,2001-06-01 20:00,ZBAA 012000Z AUTO 35002KT 6SM 20/09 A2983 RMK T02000090 IEM_DS3505
ZBAA,2001-06-01 21:00,ZBAA 012100Z AUTO 02004KT 12SM 21/08 A2983 RMK SLP098 T02130085 52005 IEM_DS3505
ZBAA,2001-06-01 22:00,ZBAA 012200Z AUTO 02002KT 6SM 19/11 A2985 RMK T01900110 IEM_DS3505
ZBAA,2001-06-01 23:00,ZBAA 012300Z AUTO 35006KT 6SM 22/09 A2985 RMK T02200090 IEM_DS3505
ZBAA,2001-06-02 00:00,ZBAA 020000Z AUTO 04004KT 12SM 26/08 A2985 RMK SLP105 T02600078 52007 IEM_DS3505
ZBAA,2001-06-02 01:00,ZBAA 020100Z AUTO 01004KT 6SM 27/09 A2985 RMK T02700090 IEM_DS3505
ZBAA,2001-06-02 02:00,ZBAA 020200Z AUTO 6SM 30/09 A2985 RMK T03000090 IEM_DS3505
ZBAA,2001-06-02 04:00,ZBAA 020400Z AUTO 14004KT 6SM 32/08 A2983 RMK T03200080 IEM_DS3505
ZBAA,2001-06-02 05:00,ZBAA 020500Z AUTO 21008KT 6SM 33/07 A2980 RMK T03300070 IEM_DS3505
ZBAA,2001-06-02 06:00,ZBAA 020600Z AUTO 18008KT 6SM 35/08 A2977 RMK T03500080 IEM_DS3505
ZBAA,2001-06-02 07:00,ZBAA 020700Z AUTO 17010KT 6SM 35/08 A2974 RMK T03500080 IEM_DS3505
ZBAA,2001-06-02 08:00,ZBAA 020800Z AUTO 20010KT 6SM 37/07 A2971 RMK T03700070 IEM_DS3505
ZBAA,2001-06-02 09:00,ZBAA 020900Z AUTO 22010G19KT 19SM 35/07 A2971 RMK SLP058 T03520069 57022 IEM_DS3505
ZBAA,2001-06-02 10:00,ZBAA 021000Z AUTO 22008KT 6SM 35/05 A2971 RMK T03500050 IEM_DS3505
ZBAA,2001-06-02 11:00,ZBAA 021100Z AUTO 20008KT 6SM 33/07 A2971 RMK T03300070 IEM_DS3505
ZBAA,2001-06-02 12:00,ZBAA 021200Z AUTO 22004KT 16SM 30/11 RMK SLP064 T03020114 52006 IEM_DS3505
ZBAA,2001-06-02 13:00,ZBAA 021300Z AUTO 19008KT 6SM 30/09 A2974 RMK T03000090 IEM_DS3505
ZBAA,2001-06-02 14:00,ZBAA 021400Z AUTO 19006KT 6SM 30/10 A2974 RMK T03000100 IEM_DS3505
ZBAA,2001-06-02 15:00,ZBAA 021500Z AUTO 20006KT 12SM 26/13 A2974 RMK SLP071 T02650129 52007 IEM_DS3505
ZBAA,2001-06-02 16:00,ZBAA 021600Z AUTO 14004KT 6SM 25/13 A2974 RMK T02500130 IEM_DS3505
ZBAA,2001-06-02 17:00,ZBAA 021700Z AUTO 09002KT 6SM 24/14 A2974 RMK T02400140 IEM_DS3505
ZBAA,2001-06-02 18:00,ZBAA 021800Z AUTO 22006KT 12SM 26/10 A2974 RMK SLP068 T02550099 57003 IEM_DS3505
ZBAA,2001-06-02 19:00,ZBAA 021900Z AUTO 6SM 21/14 A2974 RMK T02100140 IEM_DS3505
ZBAA,2001-06-02 20:00,ZBAA 022000Z AUTO 18/14 A2974 RMK T01800140 IEM_DS3505
ZBAA,2001-06-02 21:00,ZBAA 022100Z AUTO 00000KT 9SM 20/11 A2977 RMK SLP073 T01990110 52005 IEM_DS3505
ZBAA,2001-06-02 22:00,ZBAA 022200Z AUTO 6SM 19/14 A2977 RMK T01900140 IEM_DS3505
ZBAA,2001-06-02 23:00,ZBAA 022300Z AUTO 22/15 A2977 RMK T02200150 IEM_DS3505
ZBAA,2001-06-03 00:00,ZBAA 030000Z AUTO 25006KT 9SM 25/12 A2977 RMK SLP081 T02530117 52008 IEM_DS3505
ZBAA,2001-06-03 01:00,ZBAA 030100Z AUTO 27/16 A2977 RMK T02700160 IEM_DS3505
ZBAA,2001-06-03 02:00,ZBAA 030200Z AUTO 30/14 A2977 RMK T03000140 IEM_DS3505
ZBAA,2001-06-03 03:00,ZBAA 030300Z AUTO 22012KT 7SM 33/11 A2977 RMK SLP079 T03300106 57002 IEM_DS3505
ZBAA,2001-06-03 04:00,ZBAA 030400Z AUTO 20012KT 15SM 35/08 A2974 RMK T03500080 IEM_DS3505
ZBAA,2001-06-03 05:00,ZBAA 030500Z AUTO 21014KT 6SM 36/05 A2971 RMK T03600050 IEM_DS3505
ZBAA,2001-06-03 06:00,ZBAA 030600Z AUTO 22010KT 7SM 35/08 A2968 RMK SLP054 T03510085 57025 IEM_DS3505
ZBAA,2001-06-03 07:00,ZBAA 030700Z AUTO 19016KT 6SM 36/08 A2968 RMK T03600080 IEM_DS3505
ZBAA,2001-06-03 08:00,ZBAA 030800Z AUTO 18014KT 6SM 36/08 A2965 RMK T03600080 IEM_DS3505
ZBAA,2001-06-03 09:00,ZBAA 030900Z AUTO 22010KT 11SM 35/10 A2965 RMK SLP041 T03510103 57013 IEM_DS3505
ZBAA,2001-06-03 10:00,ZBAA 031000Z AUTO 19012G21KT 6SM 35/10 A2965 RMK T03500100 IEM_DS3505
ZBAA,2001-06-03 11:00,ZBAA 031100Z AUTO 19010KT 6SM 33/11 A2965 RMK T03300110 IEM_DS3505
ZBAA,2001-06-03 12:00,ZBAA 031200Z AUTO 22004KT 9SM 31/13 A2968 RMK SLP043 T03100129 52002 IEM_DS3505
ZBAA,2001-06-03 13:00,ZBAA 031300Z AUTO 16004KT 6SM 28/13 A2968 RMK T02800130 IEM_DS3505
ZBAA,2001-06-03 14:00,ZBAA 031400Z AUTO 17008KT 6SM 29/13 A2968 RMK T02900130 IEM_DS3505
ZBAA,2001-06-03 15:00,ZBAA 031500Z AUTO 22006KT 9SM 28/12 A2968 RMK SLP052 T02760123 52009 IEM_DS3505
ZBAA,2001-06-03 16:00,ZBAA 031600Z AUTO 17010KT 6SM 27/12 A2968 RMK T02700120 IEM_DS3505
ZBAA,2001-06-03 17:00,ZBAA 031700Z AUTO 17008KT 6SM 26/13 A2968 RMK T02600130 IEM_DS3505
ZBAA,2001-06-03 18:00,ZBAA 031800Z AUTO 22008KT 9SM 26/13 A2968 RMK SLP051 T02580127 57001 IEM_DS3505
ZBAA,2001-06-03 19:00,ZBAA 031900Z AUTO 20008KT 6SM 26/13 A2968 RMK T02600130 IEM_DS3505
ZBAA,2001-06-03 20:00,ZBAA 032000Z AUTO 17004KT 6SM 25/13 A2968 RMK T02500130 IEM_DS3505
ZBAA,2001-06-03 21:00,ZBAA 032100Z AUTO 22004KT 7SM 23/14 A2965 RMK SLP046 T02320141 57005 IEM_DS3505
ZBAA,2001-06-03 22:00,ZBAA 032200Z AUTO 12004KT 6SM 22/16 A2968 RMK T02200160 IEM_DS3505
ZBAA,2001-06-03 23:00,ZBAA 032300Z AUTO 12004KT 24/17 A2968 RMK T02400170 IEM_DS3505
ZBAA,2001-06-04 00:00,ZBAA 040000Z AUTO 22008KT 7SM 25/16 A2968 RMK SLP047 T02510162 52001 IEM_DS3505
ZBAA,2001-06-04 01:00,ZBAA 040100Z AUTO 16006KT 35SM 28/17 A2968 RMK T02800170 IEM_DS3505
ZBAA,2001-06-04 02:00,ZBAA 040200Z AUTO 15006KT 6SM 29/18 A2968 RMK T02900180 IEM_DS3505
ZBAA,2001-06-04 03:00,ZBAA 040300Z AUTO 22010KT 7SM 32/14 A2965 RMK SLP040 T03180141 57007 IEM_DS3505
ZBAA,2001-06-04 04:00,ZBAA 040400Z AUTO 19014KT 6SM 34/12 A2962 RMK T03400120 IEM_DS3505
ZBAA,2001-06-04 06:00,ZBAA 040600Z AUTO 22012KT 12SM 35/06 A2959 RMK SLP017 T03460060 57023 IEM_DS3505
ZBAA,2001-06-04 07:00,ZBAA 040700Z AUTO 19017KT 6SM 36/01 A2956 RMK T03600010 IEM_DS3505
ZBAA,2001-06-04 08:00,ZBAA 040800Z AUTO 18014KT 6SM 35/07 A2953 RMK T03500070 IEM_DS3505
ZBAA,2001-06-04 09:00,ZBAA 040900Z AUTO 22012KT 12SM 34/09 A2953 RMK SLP999 T03400089 57018 IEM_DS3505
ZBAA,2001-06-04 10:00,ZBAA 041000Z AUTO 19014KT 6SM 34/09 A2953 RMK T03400090 IEM_DS3505
ZBAA,2001-06-04 11:00,ZBAA 041100Z AUTO 20010KT 6SM 33/08 A2953 RMK T03300080 IEM_DS3505
ZBAA,2001-06-04 12:00,ZBAA 041200Z AUTO 22006KT 12SM 30/08 A2953 RMK SLP001 T02980085 52002 IEM_DS3505
ZBAA,2001-06-04 13:00,ZBAA 041300Z AUTO 16006KT 6SM 28/09 A2956 RMK T02800090 IEM_DS3505
ZBAA,2001-06-04 14:00,ZBAA 041400Z AUTO 17006KT 6SM 27/09 A2956 RMK T02700090 IEM_DS3505
ZBAA,2001-06-04 15:00,ZBAA 041500Z AUTO 22008KT 6SM 28/10 A2959 RMK SLP014 T02810099 52013 IEM_DS3505
ZBAA,2001-06-04 16:00,ZBAA 041600Z AUTO 20012KT 6SM 29/11 A2959 RMK T02900110 IEM_DS3505
ZBAA,2001-06-04 17:00,ZBAA 041700Z AUTO 19012KT 6SM 27/11 A2956 RMK T02700110 IEM_DS3505
ZBAA,2001-06-04 18:00,ZBAA 041800Z AUTO 22010KT 6SM 25/12 A2956 RMK SLP008 T02520123 57006 IEM_DS3505
ZBAA,2001-06-04 19:00,ZBAA 041900Z AUTO 18006KT 6SM 25/12 A2956 RMK T02500120 IEM_DS3505
ZBAA,2001-06-04 20:00,ZBAA 042000Z AUTO 16004KT 6SM 24/14 A2953 RMK T02400140 IEM_DS3505
ZBAA,2001-06-04 21:00,ZBAA 042100Z AUTO 22010KT 7SM 23/13 A2956 RMK SLP005 T02310130 57003 IEM_DS3505
ZBAA,2001-06-04 22:00,ZBAA 042200Z AUTO 16004KT 6SM 23/15 A2956 RMK T02300150 IEM_DS3505
ZBAA,2001-06-04 23:00,ZBAA 042300Z AUTO 19006KT 6SM 24/15 A2956 RMK T02400150 IEM_DS3505
ZBAA,2001-06-05 00:00,ZBAA 050000Z AUTO 22008KT 7SM 24/14 A2959 RMK SLP013 T02380145 52008 IEM_DS3505
ZBAA,2001-06-05 01:00,ZBAA 050100Z AUTO 22004KT 6SM 26/15 A2959 RMK T02600150 IEM_DS3505
ZBAA,2001-06-05 02:00,ZBAA 050200Z AUTO 6SM 28/15 A2956 RMK T02800150 IEM_DS3505
ZBAA,2001-06-05 03:00,ZBAA 050300Z AUTO 22006KT 6SM 28/16 A2956 RMK SLP007 T02820155 57006 IEM_DS3505
ZBAA,2001-06-05 04:00,ZBAA 050400Z AUTO 18006KT 6SM 30/16 A2953 RMK T03000160 IEM_DS3505
ZBAA,2001-06-05 05:00,ZBAA 050500Z AUTO 18008KT 6SM 32/16 A2950 RMK T03200160 IEM_DS3505
ZBAA,2001-06-05 06:00,ZBAA 050600Z AUTO 22010KT 6SM 34/13 A2947 RMK SLP981 T03360129 57026 IEM_DS3505
ZBAA,2001-06-05 07:00,ZBAA 050700Z AUTO 19008KT 9SM 35/13 A2944 RMK T03500130 IEM_DS3505
ZBAA,2001-06-05 08:00,ZBAA 050800Z AUTO 19010KT 6SM 35/12 A2944 RMK T03500120 IEM_DS3505
ZBAA,2001-06-05 09:00,ZBAA 050900Z AUTO 22010KT 6SM 34/12 RMK SLP967 T03430116 57014 IEM_DS3505
ZBAA,2001-06-05 10:00,ZBAA 051000Z AUTO 21006KT 6SM RMK IEM_DS3505
ZBAA,2001-06-05 11:00,ZBAA 051100Z AUTO 21004KT 6SM 32/13 A2947 RMK T03200130 IEM_DS3505
ZBAA,2001-06-05 12:00,ZBAA 051200Z AUTO 20008KT 6SM 31/13 A2944 RMK SLP977 T03100134 52010 IEM_DS3505
ZBAA,2001-06-05 13:00,ZBAA 051300Z AUTO 17006KT 47SM 30/13 A2950 RMK T03000130 IEM_DS3505
ZBAA,2001-06-05 14:00,ZBAA 051400Z AUTO 13004KT 6SM RMK IEM_DS3505
ZBAA,2001-06-05 15:00,ZBAA 051500Z AUTO 22002KT 6SM 29/12 A2953 RMK SLP988 T02900118 52011 IEM_DS3505
ZBAA,2001-06-05 16:00,ZBAA 051600Z AUTO 14006KT 6SM 27/12 A2950 RMK T02700120 IEM_DS3505
ZBAA,2001-06-05 18:00,ZBAA 051800Z AUTO 20006KT 6SM 26/14 A2956 RMK SLP997 T02580138 52009 IEM_DS3505
ZBAA,2001-06-05 19:00,ZBAA 051900Z AUTO 13006KT 6SM 25/14 A2956 RMK T02500140 IEM_DS3505
ZBAA,2001-06-05 20:00,ZBAA 052000Z AUTO 10004KT 6SM 23/15 A2956 RMK T02300150 IEM_DS3505
ZBAA,2001-06-05 21:00,ZBAA 052100Z AUTO 22004KT 7SM 23/15 A2959 RMK SLP013 T02340149 52016 IEM_DS3505
ZBAA,2001-06-05 22:00,ZBAA 052200Z AUTO 11004KT 6SM 22/16 A2959 RMK T02200160 IEM_DS3505
ZBAA,2001-06-05 23:00,ZBAA 052300Z AUTO 08002KT 6SM 23/16 A2962 RMK T02300160 IEM_DS3505
ZBAA,2001-06-06 00:00,ZBAA 060000Z AUTO 18004KT 6SM 24/16 A2962 RMK SLP026 T02450157 52013 IEM_DS3505
ZBAA,2001-06-06 01:00,ZBAA 060100Z AUTO 09004KT 6SM 26/17 A2962 RMK T02600170 IEM_DS3505
ZBAA,2001-06-06 02:00,ZBAA 060200Z AUTO 08004KT 6SM 28/17 A2962 RMK T02800170 IEM_DS3505
ZBAA,2001-06-06 03:00,ZBAA 060300Z AUTO 16006KT 7SM 28/17 A2962 RMK SLP028 T02800166 52002 IEM_DS3505
ZBAA,2001-06-06 04:00,ZBAA 060400Z AUTO 14006KT 6SM 30/17 A2962 RMK SLP028 T03000170 IEM_DS3505
ZBAA,2001-06-06 05:00,ZBAA 060500Z AUTO 13006KT 8SM 31/17 A2962 RMK SLP028 T03100170 IEM_DS3505
ZBAA,2001-06-06 06:00,ZBAA 060600Z AUTO 22006KT 7SM 31/17 A2959 RMK SLP017 T03140171 57011 IEM_DS3505
ZBAA,2001-06-06 07:00,ZBAA 060700Z AUTO 15006KT 33/17 A2956 RMK SLP007 T03300170 IEM_DS3505
ZBAA,2001-06-06 08:00,ZBAA 060800Z AUTO 13006KT 9SM 33/17 A2956 RMK SLP007 T03300170 IEM_DS3505
ZBAA,2001-06-06 09:00,ZBAA 060900Z AUTO 22004KT 9SM 33/16 A2955 RMK SLP003 T03270164 57014 IEM_DS3505
ZBAA,2001-06-06 10:00,ZBAA 061000Z AUTO 18006KT 6SM RMK IEM_DS3505
ZBAA,2001-06-06 11:00,ZBAA 061100Z AUTO 24002KT 32/16 A2959 RMK SLP017 T03200160 IEM_DS3505
ZBAA,2001-06-06 12:00,ZBAA 061200Z AUTO 34002KT 6SM 31/18 A2962 RMK SLP024 T03070175 52021 IEM_DS3505
ZBAA,2001-06-06 13:00,ZBAA 061300Z AUTO 10SM 29/18 A2965 RMK SLP038 T02900180 IEM_DS3505
ZBAA,2001-06-06 14:00,ZBAA 061400Z AUTO 12006KT RMK IEM_DS3505
ZBAA,2001-06-06 15:00,ZBAA 061500Z AUTO 09002KT 6SM 27/19 A2965 RMK SLP039 T02740186 52015 IEM_DS3505
ZBAA,2001-06-06 16:00,ZBAA 061600Z AUTO 11004KT 31SM RMK IEM_DS3505
ZBAA,2001-06-06 17:00,ZBAA 061700Z AUTO 12004KT 6SM RMK IEM_DS3505
ZBAA,2001-06-06 18:00,ZBAA 061800Z AUTO 32008KT 9SM 27/14 A2964 RMK SLP035 T02690137 57004 IEM_DS3505
ZBAA,2001-06-06 19:00,ZBAA 061900Z AUTO 10004KT 12SM RMK IEM_DS3505
ZBAA,2001-06-06 20:00,ZBAA 062000Z AUTO 10002KT RMK IEM_DS3505
ZBAA,2001-06-06 21:00,ZBAA 062100Z AUTO 00000KT 9SM 25/15 A2965 RMK SLP037 T02480147 52002 IEM_DS3505
ZBAA,2001-06-06 22:00,ZBAA 062200Z AUTO 36004KT 6SM 24/17 A2968 RMK SLP048 T02400170 IEM_DS3505
ZBAA,2001-06-06 23:00,ZBAA 062300Z AUTO 12004KT 6SM 24/17 A2968 RMK SLP048 T02400170 IEM_DS3505
ZBAA,2001-06-07 00:00,ZBAA 070000Z AUTO 22004KT 9SM 26/16 A2971 RMK SLP049 T02580159 52012 IEM_DS3505
ZBAA,2001-06-07 01:00,ZBAA 070100Z AUTO 12008KT 12SM RMK IEM_DS3505
ZBAA,2001-06-07 02:00,ZBAA 070200Z AUTO 20004KT 6SM RMK IEM_DS3505
ZBAA,2001-06-07 03:00,ZBAA 070300Z AUTO 11004KT 6SM 28/17 A2971 RMK SLP054 T02780167 52005 IEM_DS3505
ZBAA,2001-06-07 04:00,ZBAA 070400Z AUTO 12004KT 6SM RMK IEM_DS3505
ZBAA,2001-06-07 05:00,ZBAA 070500Z AUTO 13006KT 6SM 29/17 A2968 RMK SLP047 T02900170 IEM_DS3505
ZBAA,2001-06-07 06:00,ZBAA 070600Z AUTO 14006KT 6SM 29/16 A2965 RMK 60003 SLP037 T02940162 57017 IEM_DS3505
ZBAA,2001-06-07 07:00,ZBAA 070700Z AUTO 12006KT 31/16 A2962 RMK SLP028 T03100160 IEM_DS3505
ZBAA,2001-06-07 08:00,ZBAA 070800Z AUTO 18008KT 6SM 30/17 A2965 RMK SLP038 T03000170 IEM_DS3505
ZBAA,2001-06-07 09:00,ZBAA 070900Z AUTO 18008KT 6SM 30/16 A2959 RMK SLP016 T03050161 57021 IEM_DS3505
ZBAA,2001-06-07 09:15,ZBAA 070915Z AUTO 31SM 30/18 A2962 RMK SLP028 T03000180 IEM_DS3505
ZBAA,2001-06-07 10:00,ZBAA 071000Z AUTO 07002KT 6SM 30/18 A2962 RMK SLP028 T03000180 IEM_DS3505
ZBAA,2001-06-07 11:00,ZBAA 071100Z AUTO 05002KT 29/18 A2965 RMK SLP038 T02900180 IEM_DS3505
ZBAA,2001-06-07 12:00,ZBAA 071200Z AUTO 00000KT 6SM 30/17 A2968 RMK SLP038 T02960169 52022 IEM_DS3505
ZBAA,2001-06-07 13:00,ZBAA 071300Z AUTO 31SM 28/18 A2965 RMK SLP038 T02800180 IEM_DS3505
ZBAA,2001-06-07 14:00,ZBAA 071400Z AUTO 03002KT 6SM 26/17 A2968 RMK SLP048 T02600170 IEM_DS3505
ZBAA,2001-06-07 15:00,ZBAA 071500Z AUTO 09002KT 9SM 26/18 A2968 RMK SLP040 T02580176 52002 IEM_DS3505
ZBAA,2001-06-07 16:00,ZBAA 071600Z AUTO 6SM 23/18 A2968 RMK SLP048 T02300180 IEM_DS3505
ZBAA,2001-06-07 17:00,ZBAA 071700Z AUTO 36004KT 6SM 22/17 A2968 RMK SLP048 T02200170 IEM_DS3505
ZBAA,2001-06-07 18:00,ZBAA 071800Z AUTO 07002KT 8SM 24/17 A2971 RMK SLP046 T02360167 52006 IEM_DS3505
ZBAA,2001-06-07 19:00,ZBAA 071900Z AUTO 6SM 21/17 A2971 RMK SLP058 T02100170 IEM_DS3505
ZBAA,2001-06-07 20:00,ZBAA 072000Z AUTO 01006KT 6SM 21/17 A2971 RMK SLP058 T02100170 IEM_DS3505
ZBAA,2001-06-07 21:00,ZBAA 072100Z AUTO 04006KT 6SM 23/17 A2974 RMK 70003 SLP055 T02260166 52009 IEM_DS3505
ZBAA,2001-06-07 22:00,ZBAA 072200Z AUTO 01004KT 6SM 22/17 A2974 RMK SLP068 T02200170 IEM_DS3505
ZBAA,2001-06-07 23:00,ZBAA 072300Z AUTO 34004KT 6SM 23/17 A2974 RMK SLP068 T02300170 IEM_DS3505
ZBAA,2001-06-08 00:00,ZBAA 080000Z AUTO 04004KT 6SM 25/15 A2974 RMK 70003 SLP064 T02500153 52009 IEM_DS3505
ZBAA,2001-06-08 01:00,ZBAA 080100Z AUTO 6SM 26/17 A2971 RMK SLP058 T02600170 IEM_DS3505
ZBAA,2001-06-08 02:00,ZBAA 080200Z AUTO 6SM 28/17 A2974 RMK SLP067 T02800170 IEM_DS3505
ZBAA,2001-06-08 03:00,ZBAA 080300Z AUTO 09004KT 7SM 29/17 A2971 RMK SLP060 T02910172 57004 IEM_DS3505
ZBAA,2001-06-08 04:00,ZBAA 080400Z AUTO 6SM 29/17 A2971 RMK SLP057 T02900170 IEM_DS3505
ZBAA,2001-06-08 05:00,ZBAA 080500Z AUTO 18002KT 6SM 31/17 A2971 RMK SLP057 T03100170 IEM_DS3505
ZBAA,2001-06-08 06:00,ZBAA 080600Z AUTO 18004KT 7SM 32/16 A2967 RMK SLP044 T03240160 57016 IEM_DS3505
ZBAA,2001-06-08 07:00,ZBAA 080700Z AUTO 13004KT 33/17 A2965 RMK SLP038 T03300170 IEM_DS3505
ZBAA,2001-06-08 08:00,ZBAA 080800Z AUTO 17004KT 6SM 34/17 A2965 RMK SLP038 T03400170 IEM_DS3505
ZBAA,2001-06-08 09:00,ZBAA 080900Z AUTO 22004KT 6SM 34/16 A2965 RMK SLP034 T03370164 57010 IEM_DS3505
ZBAA,2001-06-08 10:00,ZBAA 081000Z AUTO 17006KT 12SM 33/17 A2965 RMK SLP038 T03300170 IEM_DS3505
ZBAA,2001-06-08 11:00,ZBAA 081100Z AUTO 14002KT 31/18 A2968 RMK SLP047 T03100180 IEM_DS3505
ZBAA,2001-06-08 12:00,ZBAA 081200Z AUTO 00000KT 6SM 29/19 A2971 RMK SLP048 T02940188 52014 IEM_DS3505
ZBAA,2001-06-08 13:00,ZBAA 081300Z AUTO 15002KT 6SM 28/20 A2971 RMK SLP057 T02800200 IEM_DS3505
ZBAA,2001-06-08 14:00,ZBAA 081400Z AUTO 14004KT 19SM 29/20 A2971 RMK SLP057 T02900200 IEM_DS3505
ZBAA,2001-06-08 15:00,ZBAA 081500Z AUTO 18004KT 6SM 28/19 A2971 RMK SLP054 T02770189 52006 IEM_DS3505
ZBAA,2001-06-08 16:00,ZBAA 081600Z AUTO 04002KT 6SM 26/20 A2974 RMK SLP068 T02600200 IEM_DS3505
ZBAA,2001-06-08 17:00,ZBAA 081700Z AUTO 11002KT 9SM 25/20 A2974 RMK SLP068 T02500200 IEM_DS3505
ZBAA,2001-06-08 18:00,ZBAA 081800Z AUTO 22004KT 6SM 27/17 A2974 RMK SLP062 T02660171 52008 IEM_DS3505
ZBAA,2001-06-08 19:00,ZBAA 081900Z AUTO 13002KT 6SM 24/19 A2974 RMK SLP068 T02400190 IEM_DS3505
ZBAA,2001-06-08 20:00,ZBAA 082000Z AUTO 9SM 24/19 A2974 RMK SLP068 T02400190 IEM_DS3505
ZBAA,2001-06-08 21:00,ZBAA 082100Z AUTO 00000KT 5SM 23/17 A2974 RMK SLP070 T02340166 52008 IEM_DS3505
ZBAA,2001-06-08 22:00,ZBAA 082200Z AUTO 6SM 23/19 A2977 RMK SLP078 T02300190 IEM_DS3505
ZBAA,2001-06-08 23:00,ZBAA 082300Z AUTO 11002KT 6SM 24/19 A2977 RMK SLP078 T02400190 IEM_DS3505
ZBAA,2001-06-09 00:00,ZBAA 090000Z AUTO 00000KT 6SM 27/18 A2977 RMK SLP075 T02670179 52005 IEM_DS3505
ZBAA,2001-06-09 03:00,ZBAA 090300Z AUTO 22004KT 5SM 31/18 A2977 RMK SLP076 T03080176 52001 IEM_DS3505
ZBAA,2001-06-09 04:00,ZBAA 090400Z AUTO 16006KT 6SM 32/20 A2977 RMK SLP077 T03200200 IEM_DS3505
ZBAA,2001-06-09 05:00,ZBAA 090500Z AUTO 15006KT 6SM 32/20 A2977 RMK SLP077 T03200200 IEM_DS3505
ZBAA,2001-06-09 06:00,ZBAA 090600Z AUTO 20006KT 5SM 32/18 A2974 RMK SLP076 T03210180 54000 IEM_DS3505
ZBAA,2001-06-09 07:00,ZBAA 090700Z AUTO 18012KT 6SM 34/17 A2974 RMK SLP067 T03400170 IEM_DS3505
ZBAA,2001-06-09 08:00,ZBAA 090800Z AUTO 17012KT 34/16 A2974 RMK SLP067 T03400160 IEM_DS3505
ZBAA,2001-06-09 09:00,ZBAA 090900Z AUTO 22006KT 5SM 33/17 A2973 RMK SLP064 T03320167 57012 IEM_DS3505
ZBAA,2001-06-09 10:00,ZBAA 091000Z AUTO 18008KT 3SM RMK IEM_DS3505
ZBAA,2001-06-09 11:00,ZBAA 091100Z AUTO 15004KT 3SM RMK IEM_DS3505
ZBAA,2001-06-09 12:00,ZBAA 091200Z AUTO 16006KT 4SM 30/18 A2975 RMK SLP071 T02980177 52007 IEM_DS3505
ZBAA,2001-06-09 13:00,ZBAA 091300Z AUTO 17002KT 5SM RMK IEM_DS3505
ZBAA,2001-06-09 14:00,ZBAA 091400Z AUTO 6SM 26/18 A2980 RMK SLP088 T02600180 IEM_DS3505
ZBAA,2001-06-09 15:00,ZBAA 091500Z AUTO 16004KT 6SM 27/17 A2977 RMK SLP082 T02700170 52011 IEM_DS3505
ZBAA,2001-06-09 16:00,ZBAA 091600Z AUTO 18004KT 25/18 A2980 RMK SLP088 T02500180 IEM_DS3505
ZBAA,2001-06-09 17:00,ZBAA 091700Z AUTO 09002KT 6SM 25/19 A2980 RMK SLP088 T02500190 IEM_DS3505
ZBAA,2001-06-09 18:00,ZBAA 091800Z AUTO 22002KT 6SM 25/18 A2980 RMK SLP082 T02510175 54000 IEM_DS3505
ZBAA,2001-06-09 19:00,ZBAA 091900Z AUTO 6SM 23/19 A2980 RMK SLP088 T02300190 IEM_DS3505
ZBAA,2001-06-09 20:00,ZBAA 092000Z AUTO 6SM 23/19 A2980 RMK SLP088 T02300190 IEM_DS3505
ZBAA,2001-06-09 21:00,ZBAA 092100Z AUTO 00000KT 5SM 24/17 A2980 RMK SLP085 T02410170 52003 IEM_DS3505
ZBAA,2001-06-09 22:00,ZBAA 092200Z AUTO 6SM 22/19 A2983 RMK SLP099 T02200190 IEM_DS3505
ZBAA,2001-06-09 23:00,ZBAA 092300Z AUTO 08002KT 6SM 24/18 A2983 RMK SLP099 T02400180 IEM_DS3505
ZBAA,2001-06-10 00:00,ZBAA 100000Z AUTO 09004KT 5SM 26/17 A2983 RMK SLP089 T02610170 52004 IEM_DS3505
ZBAA,2001-06-10 01:00,ZBAA 100100Z AUTO 19SM 28/19 A2983 RMK SLP099 T02800190 IEM_DS3505
ZBAA,2001-06-10 02:00,ZBAA 100200Z AUTO 6SM 30/19 A2983 RMK SLP098 T03000190 IEM_DS3505
ZBAA,2001-06-10 03:00,ZBAA 100300Z AUTO 04004KT 5SM 32/18 A2980 RMK SLP092 T03200176 52003 IEM_DS3505
ZBAA,2001-06-10 04:00,ZBAA 100400Z AUTO 6SM 34/18 A2980 RMK SLP087 T03400180 IEM_DS3505
ZBAA,2001-06-10 05:00,ZBAA 100500Z AUTO 35/16 A2977 RMK SLP077 T03500160 IEM_DS3505
ZBAA,2001-06-10 06:00,ZBAA 100600Z AUTO 18008KT 6SM 35/16 A2974 RMK SLP075 T03530159 57017 IEM_DS3505
ZBAA,2001-06-10 07:00,ZBAA 100700Z AUTO 16008KT 6SM 36/16 A2974 RMK SLP066 T03600160 IEM_DS3505
ZBAA,2001-06-10 08:00,ZBAA 100800Z AUTO 18008KT 6SM RMK IEM_DS3505
ZBAA,2001-06-10 09:00,ZBAA 100900Z AUTO 18006G21KT 6SM 35/15 A2972 RMK SLP059 T03530148 57016 IEM_DS3505
ZBAA,2001-06-10 10:00,ZBAA 101000Z AUTO 19004KT RMK IEM_DS3505
ZBAA,2001-06-10 11:00,ZBAA 101100Z AUTO 16002KT 6SM RMK IEM_DS3505
ZBAA,2001-06-10 12:00,ZBAA 101200Z AUTO 14004KT 7SM 30/17 A2972 RMK SLP060 T03020170 52001 IEM_DS3505
ZBAA,2001-06-10 13:00,ZBAA 101300Z AUTO 12006KT 6SM 30/17 A2974 RMK SLP067 T03000170 IEM_DS3505
ZBAA,2001-06-10 14:00,ZBAA 101400Z AUTO 11006KT 6SM 28/16 A2977 RMK SLP077 T02800160 IEM_DS3505
ZBAA,2001-06-10 15:00,ZBAA 101500Z AUTO 14004KT 7SM 27/18 A2977 RMK SLP073 T02680181 52013 IEM_DS3505
ZBAA,2001-06-10 16:00,ZBAA 101600Z AUTO 13004KT 6SM 26/19 A2977 RMK SLP078 T02600190 IEM_DS3505
ZBAA,2001-06-10 17:00,ZBAA 101700Z AUTO 36002KT 7SM 24/19 A2977 RMK SLP078 T02400190 IEM_DS3505
ZBAA,2001-06-10 18:00,ZBAA 101800Z AUTO 04004KT 6SM 23/18 A2977 RMK SLP073 T02340175 54000 IEM_DS3505
ZBAA,2001-06-10 19:00,ZBAA 101900Z AUTO 13002KT 6SM 23/20 A2977 RMK SLP078 T02300200 IEM_DS3505
ZBAA,2001-06-10 20:00,ZBAA 102000Z AUTO 11002KT 6SM 23/20 A2977 RMK SLP078 T02300200 IEM_DS3505
ZBAA,2001-06-10 21:00,ZBAA 102100Z AUTO 09002KT 4SM 22/19 A2977 RMK SLP073 T02180187 54000 IEM_DS3505
ZBAA,2001-06-10 22:00,ZBAA 102200Z AUTO 23/20 A2977 RMK SLP078 T02300200 IEM_DS3505
ZBAA,2001-06-10 23:00,ZBAA 102300Z AUTO 6SM 23/19 A2977 RMK SLP078 T02300190 IEM_DS3505
ZBAA,2001-06-11 00:00,ZBAA 110000Z AUTO 09004KT 5SM 24/18 A2977 RMK SLP074 T02370182 52001 IEM_DS3505
ZBAA,2001-06-11 01:00,ZBAA 110100Z AUTO 12002KT 6SM 25/19 A2977 RMK SLP078 T02500190 IEM_DS3505
ZBAA,2001-06-11 02:00,ZBAA 110200Z AUTO 12SM 25/18 A2977 RMK SLP078 T02500180 IEM_DS3505
ZBAA,2001-06-11 03:00,ZBAA 110300Z AUTO 09006KT 6SM 26/18 A2977 RMK SLP075 T02550180 52001 IEM_DS3505
ZBAA,2001-06-11 04:00,ZBAA 110400Z AUTO 6SM 26/19 A2977 RMK SLP078 T02600190 IEM_DS3505
ZBAA,2001-06-11 06:00,ZBAA 110600Z AUTO 04004KT 6SM 27/18 A2974 RMK SLP067 T02660182 57008 IEM_DS3505
ZBAA,2001-06-11 07:00,ZBAA 110700Z AUTO 25002KT 6SM 27/19 A2971 RMK SLP058 T02700190 IEM_DS3505
ZBAA,2001-06-11 08:00,ZBAA 110800Z AUTO 24006KT 27/18 A2971 RMK SLP058 T02700180 IEM_DS3505
ZBAA,2001-06-11 09:00,ZBAA 110900Z AUTO 14004KT 5SM 26/19 A2968 RMK SLP047 T02600189 57020 IEM_DS3505
ZBAA,2001-06-11 10:00,ZBAA 111000Z AUTO 6SM 26/20 A2968 RMK SLP048 T02600200 IEM_DS3505
ZBAA,2001-06-11 11:00,ZBAA 111100Z AUTO 16002KT 26/19 A2968 RMK SLP048 T02600190 IEM_DS3505
ZBAA,2001-06-11 12:00,ZBAA 111200Z AUTO 34006KT 5SM 26/18 A2968 RMK 60003 SLP046 T02560184 57001 IEM_DS3505
ZBAA,2001-06-11 13:00,ZBAA 111300Z AUTO 6SM 24/19 A2971 RMK SLP058 T02400190 IEM_DS3505
ZBAA,2001-06-11 14:00,ZBAA 111400Z AUTO 6SM 26/18 A2971 RMK SLP058 T02600180 IEM_DS3505
ZBAA,2001-06-11 15:00,ZBAA 111500Z AUTO 18004KT 6SM 24/18 A2971 RMK SLP055 T02440176 52009 IEM_DS3505
ZBAA,2001-06-11 16:00,ZBAA 111600Z AUTO 11004KT 6SM 24/19 A2971 RMK SLP058 T02400190 IEM_DS3505
ZBAA,2001-06-11 17:00,ZBAA 111700Z AUTO 13004KT 15SM 24/19 A2971 RMK SLP058 T02400190 IEM_DS3505
ZBAA,2001-06-11 18:00,ZBAA 111800Z AUTO 00000KT 6SM 24/17 A2971 RMK SLP054 T02380174 57001 IEM_DS3505
ZBAA,2001-06-11 19:00,ZBAA 111900Z AUTO 10004KT 6SM 22/19 A2968 RMK SLP048 T02200190 IEM_DS3505
ZBAA,2001-06-11 20:00,ZBAA 112000Z AUTO 36002KT 21/18 A2971 RMK SLP058 T02100180 IEM_DS3505
ZBAA,2001-06-11 21:00,ZBAA 112100Z AUTO 11002KT 5SM 21/18 A2971 RMK 70003 SLP055 T02100175 54000 IEM_DS3505
ZBAA,2001-06-11 22:00,ZBAA 112200Z AUTO 10002KT 15SM 22/17 A2971 RMK SLP058 T02200170 IEM_DS3505
ZBAA,2001-06-11 23:00,ZBAA 112300Z AUTO 13002KT 6SM 23/16 A2971 RMK SLP058 T02300160 IEM_DS3505
ZBAA,2001-06-12 00:00,ZBAA 120000Z AUTO 09004KT 6SM 23/16 A2974 RMK 70003 SLP057 T02320162 52003 IEM_DS3505
ZBAA,2001-06-12 01:00,ZBAA 120100Z AUTO 14006KT 6SM 25/18 A2971 RMK SLP058 T02500180 IEM_DS3505
ZBAA,2001-06-12 02:00,ZBAA 120200Z AUTO 16004KT 6SM 27/18 A2968 RMK SLP048 T02700180 IEM_DS3505
ZBAA,2001-06-12 03:00,ZBAA 120300Z AUTO 16006KT 6SM 29/17 A2968 RMK SLP046 T02860169 57011 IEM_DS3505
ZBAA,2001-06-12 04:00,ZBAA 120400Z AUTO 16006KT 6SM 30/17 A2965 RMK SLP038 T03000170 IEM_DS3505
ZBAA,2001-06-12 05:00,ZBAA 120500Z AUTO 18008KT 12SM 31/18 A2962 RMK SLP028 T03100180 IEM_DS3505
ZBAA,2001-06-12 06:00,ZBAA 120600Z AUTO 20008KT 7SM 32/16 A2959 RMK SLP018 T03210160 57028 IEM_DS3505
ZBAA,2001-06-12 07:00,ZBAA 120700Z AUTO 18012KT 6SM 33/16 A2956 RMK SLP007 T03300160 IEM_DS3505
ZBAA,2001-06-12 08:00,ZBAA 120800Z AUTO 18010KT 6SM 33/16 A2956 RMK SLP007 T03300160 IEM_DS3505
ZBAA,2001-06-12 09:00,ZBAA 120900Z AUTO 18008KT 6SM 31/16 A2953 RMK SLP000 T03140159 57018 IEM_DS3505
ZBAA,2001-06-12 10:00,ZBAA 121000Z AUTO 16008KT 6SM 31/18 A2953 RMK SLP997 T03100180 IEM_DS3505
ZBAA,2001-06-12 11:00,ZBAA 121100Z AUTO 14006KT 6SM 29/19 A2956 RMK SLP007 T02900190 IEM_DS3505
ZBAA,2001-06-12 12:00,ZBAA 121200Z AUTO 14008KT 6SM 28/18 A2959 RMK SLP011 T02790178 52011 IEM_DS3505
ZBAA,2001-06-12 13:00,ZBAA 121300Z AUTO 12008KT 27/20 A2959 RMK SLP017 T02700200 IEM_DS3505
ZBAA,2001-06-12 14:00,ZBAA 121400Z AUTO 13006KT 6SM 26/20 A2959 RMK SLP018 T02600200 IEM_DS3505
ZBAA,2001-06-12 15:00,ZBAA 121500Z AUTO 14006KT 5SM 25/18 A2959 RMK SLP012 T02530179 52001 IEM_DS3505
ZBAA,2001-06-12 16:00,ZBAA 121600Z AUTO 11006KT 6SM 24/20 A2959 RMK SLP018 T02400200 IEM_DS3505
ZBAA,2001-06-12 17:00,ZBAA 121700Z AUTO 11010KT 6SM 23/20 A2962 RMK SLP029 T02300200 IEM_DS3505
ZBAA,2001-06-12 18:00,ZBAA 121800Z AUTO 11008G25KT 5SM 22/20 A2962 RMK SLP023 T02240195 52011 IEM_DS3505
ZBAA,2001-06-12 19:00,ZBAA 121900Z AUTO 12008KT 6SM 21/16 A2962 RMK SLP029 T02100160 IEM_DS3505
ZBAA,2001-06-12 20:00,ZBAA 122000Z AUTO 12008KT 6SM 21/16 A2965 RMK SLP039 T02100160 IEM_DS3505
ZBAA,2001-06-12 21:00,ZBAA 122100Z AUTO 00000KT 5SM 21/17 A2965 RMK SLP030 T02130168 52007 IEM_DS3505
ZBAA,2001-06-12 22:00,ZBAA 122200Z AUTO 32006KT 6SM 21/17 A2962 RMK SLP029 T02100170 IEM_DS3505
ZBAA,2001-06-12 23:00,ZBAA 122300Z AUTO 35006KT 6SM 21/17 A2965 RMK SLP039 T02100170 IEM_DS3505
ZBAA,2001-06-13 00:00,ZBAA 130000Z AUTO 04006KT 5SM 23/16 A2965 RMK SLP032 T02270162 52002 IEM_DS3505
ZBAA,2001-06-13 01:00,ZBAA 130100Z AUTO 6SM 24/17 A2965 RMK SLP039 T02400170 IEM_DS3505
ZBAA,2001-06-13 02:00,ZBAA 130200Z AUTO 03004KT 6SM 25/17 A2965 RMK SLP039 T02500170 IEM_DS3505
ZBAA,2001-06-13 03:00,ZBAA 130300Z AUTO 09010KT 6SM 26/15 A2965 RMK SLP032 T02640151 54000 IEM_DS3505
ZBAA,2001-06-13 04:00,ZBAA 130400Z AUTO 13006KT 6SM 26/16 A2962 RMK SLP029 T02600160 IEM_DS3505
ZBAA,2001-06-13 05:00,ZBAA 130500Z AUTO 10006KT 6SM 27/15 A2959 RMK SLP017 T02700150 IEM_DS3505
ZBAA,2001-06-13 06:00,ZBAA 130600Z AUTO 09006KT 6SM 28/16 A2958 RMK SLP013 T02780159 57019 IEM_DS3505
ZBAA,2001-06-13 07:00,ZBAA 130700Z AUTO 10006KT 6SM 28/16 A2956 RMK SLP007 T02800160 IEM_DS3505
ZBAA,2001-06-13 08:00,ZBAA 130800Z AUTO 12SM 27/16 A2956 RMK SLP007 T02700160 IEM_DS3505
ZBAA,2001-06-13 09:00,ZBAA 130900Z AUTO 04008KT 4SM 27/17 A2959 RMK SLP005 T02710170 57008 IEM_DS3505
ZBAA,2001-06-13 10:00,ZBAA 131000Z AUTO 10008KT 6SM 21/19 A2962 RMK SLP029 T02100190 IEM_DS3505
ZBAA,2001-06-13 11:00,ZBAA 131100Z AUTO 12002KT 8SM 20/18 A2962 RMK SLP029 T02000180 IEM_DS3505
ZBAA,2001-06-13 12:00,ZBAA 131200Z AUTO 00000KT 4SM 20/18 A2962 RMK 60008 SLP030 T02030176 52024 IEM_DS3505
ZBAA,2001-06-13 13:00,ZBAA 131300Z AUTO 6SM 20/18 A2965 RMK SLP039 T02000180 IEM_DS3505
ZBAA,2001-06-13 14:00,ZBAA 131400Z AUTO 36004KT 15SM 20/18 A2965 RMK SLP039 T02000180 IEM_DS3505
ZBAA,2001-06-13 15:00,ZBAA 131500Z AUTO 04004KT 4SM 21/18 A2965 RMK SLP037 T02060177 52007 IEM_DS3505
ZBAA,2001-06-13 16:00,ZBAA 131600Z AUTO 01002KT 20/19 A2965 RMK SLP039 T02000190 IEM_DS3505
ZBAA,2001-06-13 17:00,ZBAA 131700Z AUTO 9SM 20/19 A2965 RMK SLP039 T02000190 IEM_DS3505
ZBAA,2001-06-13 18:00,ZBAA 131800Z AUTO 09004KT 4SM 20/18 A2965 RMK SLP035 T02030181 57001 IEM_DS3505
ZBAA,2001-06-13 19:00,ZBAA 131900Z AUTO 09004KT 6SM 20/19 A2962 RMK SLP029 T02000190 IEM_DS3505
ZBAA,2001-06-13 20:00,ZBAA 132000Z AUTO 07002KT 10SM 20/19 A2962 RMK SLP029 T02000190 IEM_DS3505
ZBAA,2001-06-13 21:00,ZBAA 132100Z AUTO 09002KT 3SM 20/18 A2962 RMK 70006 SLP028 T01960183 57007 IEM_DS3505
ZBAA,2001-06-13 22:00,ZBAA 132200Z AUTO 15SM RMK IEM_DS3505
ZBAA,2001-06-13 23:00,ZBAA 132300Z AUTO 11004KT 20/19 A2965 RMK SLP039 T02000190 IEM_DS3505
ZBAA,2001-06-14 00:00,ZBAA 140000Z AUTO 14004KT 2 1/2SM 20/18 A2965 RMK 70006 SLP038 T01980182 52009 IEM_DS3505
ZBAA,2001-06-14 01:00,ZBAA 140100Z AUTO 09004KT 19/19 A2968 RMK SLP049 T01900190 IEM_DS3505
ZBAA,2001-06-14 02:00,ZBAA 140200Z AUTO 09004KT 6SM 19/19 A2965 RMK SLP039 T01900190 IEM_DS3505
ZBAA,2001-06-14 03:00,ZBAA 140300Z AUTO 09006KT 2 1/2SM 20/18 A2965 RMK SLP040 T01970184 52002 IEM_DS3505
ZBAA,2001-06-14 04:00,ZBAA 140400Z AUTO 10004KT 20/19 A2965 RMK SLP039 T02000190 IEM_DS3505
ZBAA,2001-06-14 05:00,ZBAA 140500Z AUTO 09004KT 20/19 A2965 RMK SLP039 T02000190 IEM_DS3505
ZBAA,2001-06-14 06:00,ZBAA 140600Z AUTO 11004KT 4SM 19/18 A2965 RMK 60016 SLP033 T01900177 57007 IEM_DS3505
ZBAA,2001-06-14 07:00,ZBAA 140700Z AUTO 08004KT 20/19 A2962 RMK SLP029 T02000190 IEM_DS3505
ZBAA,2001-06-14 08:00,ZBAA 140800Z AUTO 10004KT 6SM 19/19 A2962 RMK SLP029 T01900190 IEM_DS3505
ZBAA,2001-06-14 09:00,ZBAA 140900Z AUTO 02002KT 2 1/2SM 21/19 A2962 RMK SLP023 T02060189 57010 IEM_DS3505
ZBAA,2001-06-14 10:00,ZBAA 141000Z AUTO 09006KT 6SM 20/20 A2959 RMK SLP018 T02000200 IEM_DS3505
ZBAA,2001-06-14 11:00,ZBAA 141100Z AUTO 6SM 19/19 A2962 RMK SLP029 T01900190 IEM_DS3505
ZBAA,2001-06-14 12:00,ZBAA 141200Z AUTO 11004KT 5SM 20/18 A2962 RMK 60003 SLP023 T01960185 54000 IEM_DS3505
ZBAA,2001-06-14 13:00,ZBAA 141300Z AUTO 11006KT 6SM 19/19 A2962 RMK SLP029 T01900190 IEM_DS3505
ZBAA,2001-06-14 14:00,ZBAA 141400Z AUTO 12008KT 6SM 19/19 A2962 RMK SLP029 T01900190 IEM_DS3505
ZBAA,2001-06-14 15:00,ZBAA 141500Z AUTO 14004KT 5SM 19/18 A2962 RMK SLP023 T01940180 54000 IEM_DS3505
ZBAA,2001-06-14 16:00,ZBAA 141600Z AUTO 12008KT 6SM 18/18 A2959 RMK SLP019 T01800180 IEM_DS3505
ZBAA,2001-06-14 17:00,ZBAA 141700Z AUTO 01006KT 9SM 18/18 A2959 RMK SLP019 T01800180 IEM_DS3505
ZBAA,2001-06-14 18:00,ZBAA 141800Z AUTO 36006KT 4SM 19/18 A2959 RMK 60016 SLP014 T01870179 57009 IEM_DS3505
ZBAA,2001-06-14 19:00,ZBAA 141900Z AUTO 05008G21KT 6SM 16/16 A2950 RMK SLP989 T01600160 IEM_DS3505
ZBAA,2001-06-14 20:00,ZBAA 142000Z AUTO 24002KT 6SM 17/17 A2959 RMK SLP019 T01700170 IEM_DS3505
ZBAA,2001-06-14 21:00,ZBAA 142100Z AUTO 09004KT 7SM 17/16 A2956 RMK 70074 SLP004 T01730161 57010 IEM_DS3505
ZBAA,2001-06-14 22:00,ZBAA 142200Z AUTO 08006KT 17/17 A2956 RMK SLP009 T01700170 IEM_DS3505
ZBAA,2001-06-14 23:00,ZBAA 142300Z AUTO 07004KT 6SM 17/17 A2956 RMK SLP009 T01700170 IEM_DS3505
ZBAA,2001-06-15 00:00,ZBAA 150000Z AUTO 07006KT 7SM 18/16 A2959 RMK 60055 SLP018 T01790162 52014 IEM_DS3505
ZBAA,2001-06-15 01:00,ZBAA 150100Z AUTO 14004KT 6SM 18/17 A2959 RMK SLP019 T01800170 IEM_DS3505
ZBAA,2001-06-15 02:00,ZBAA 150200Z AUTO 13004KT 10SM 18/17 A2959 RMK SLP019 T01800170 IEM_DS3505
ZBAA,2001-06-15 03:00,ZBAA 150300Z AUTO 14008KT 7SM 20/16 A2959 RMK SLP014 T02000159 57004 IEM_DS3505
ZBAA,2001-06-15 04:00,ZBAA 150400Z AUTO 14002KT 25SM 19/18 A2956 RMK SLP008 T01900180 IEM_DS3505
ZBAA,2001-06-15 05:00,ZBAA 150500Z AUTO 10SM 20/17 A2956 RMK SLP008 T02000170 IEM_DS3505
ZBAA,2001-06-15 06:00,ZBAA 150600Z AUTO 18006KT 4SM 20/18 A2950 RMK 60024 SLP997 T01980182 4////0169 57017 IEM_DS3505
ZBAA,2001-06-15 07:00,ZBAA 150700Z AUTO 13002KT 6SM 20/17 A2953 RMK SLP998 T02000170 IEM_DS3505
ZBAA,2001-06-15 08:00,ZBAA 150800Z AUTO 6SM 22/18 A2953 RMK SLP998 T02200180 IEM_DS3505
ZBAA,2001-06-15 09:00,ZBAA 150900Z AUTO 00000KT 4SM 22/19 A2950 RMK SLP989 T02160189 57008 IEM_DS3505
ZBAA,2001-06-15 10:00,ZBAA 151000Z AUTO 09004KT 6SM 20/18 A2953 RMK SLP998 T02000180 IEM_DS3505
ZBAA,2001-06-15 11:00,ZBAA 151100Z AUTO 11006KT 6SM 19/18 A2953 RMK SLP998 T01900180 IEM_DS3505
ZBAA,2001-06-15 12:00,ZBAA 151200Z AUTO 09006KT 4SM 19/17 A2953 RMK 60002 SLP999 T01920174 52010 IEM_DS3505
ZBAA,2001-06-15 14:00,ZBAA 151400Z AUTO 03002KT 6SM 19/19 A2956 RMK SLP008 T01900190 IEM_DS3505
ZBAA,2001-06-15 15:00,ZBAA 151500Z AUTO 02004KT 5SM 19/18 A2953 RMK SLP992 T01940181 57007 IEM_DS3505
ZBAA,2001-06-15 16:00,ZBAA 151600Z AUTO 02004KT 6SM 19/19 A2950 RMK SLP988 T01900190 IEM_DS3505
ZBAA,2001-06-15 17:00,ZBAA 151700Z AUTO 36004KT 19/18 A2953 RMK SLP998 T01900180 IEM_DS3505
ZBAA,2001-06-15 18:00,ZBAA 151800Z AUTO 07006KT 5SM 19/18 A2953 RMK 60024 SLP991 T01930179 57001 IEM_DS3505
ZBAA,2001-06-15 19:00,ZBAA 151900Z AUTO 3/8SM 19/18 A2953 RMK SLP998 T01900180 IEM_DS3505
ZBAA,2001-06-15 20:00,ZBAA 152000Z AUTO 19/18 A2953 RMK SLP998 T01900180 IEM_DS3505
ZBAA,2001-06-15 21:00,ZBAA 152100Z AUTO 04004KT 4SM 18/16 A2956 RMK 70064 SLP001 T01770157 52010 IEM_DS3505
ZBAA,2001-06-15 22:00,ZBAA 152200Z AUTO 19/18 A2956 RMK SLP008 T01900180 IEM_DS3505
ZBAA,2001-06-15 23:00,ZBAA 152300Z AUTO 6SM 20/19 A2959 RMK SLP018 T02000190 IEM_DS3505
ZBAA,2001-06-16 00:00,ZBAA 160000Z AUTO 09006KT 9SM 21/16 A2959 RMK 70052 SLP015 T02140165 52014 IEM_DS3505
ZBAA,2001-06-16 01:00,ZBAA 160100Z AUTO 10006KT 6SM 22/19 A2962 RMK SLP029 T02200190 IEM_DS3505
ZBAA,2001-06-16 02:00,ZBAA 160200Z AUTO 10006KT 6SM 23/19 A2962 RMK SLP029 T02300190 IEM_DS3505
ZBAA,2001-06-16 03:00,ZBAA 160300Z AUTO 11008KT 6SM 21/17 A2962 RMK SLP031 T02080172 52016 IEM_DS3505
ZBAA,2001-06-16 04:00,ZBAA 160400Z AUTO 11010KT 6SM 22/18 A2962 RMK SLP029 T02200180 IEM_DS3505
ZBAA,2001-06-16 05:00,ZBAA 160500Z AUTO 12010KT 2 1/2SM 22/18 A2959 RMK SLP018 T02200180 IEM_DS3505
ZBAA,2001-06-16 06:00,ZBAA 160600Z AUTO 14006KT 12SM 23/18 A2959 RMK SLP017 T02280175 57014 IEM_DS3505
ZBAA,2001-06-16 07:00,ZBAA 160700Z AUTO 15006KT 6SM RMK IEM_DS3505
ZBAA,2001-06-16 08:00,ZBAA 160800Z AUTO 16008KT 6SM 25/20 A2959 RMK SLP018 T02500200 IEM_DS3505
ZBAA,2001-06-16 09:00,ZBAA 160900Z AUTO 04006KT 12SM 24/18 A2956 RMK SLP008 T02390183 57009 IEM_DS3505
ZBAA,2001-06-16 10:00,ZBAA 161000Z AUTO 17004KT 6SM 23/19 A2956 RMK SLP008 T02300190 IEM_DS3505
ZBAA,2001-06-16 11:00,ZBAA 161100Z AUTO 18004KT 6SM RMK IEM_DS3505
ZBAA,2001-06-16 12:00,ZBAA 161200Z AUTO 20002KT 9SM 22/19 A2962 RMK 60003 SLP028 T02220186 52020 IEM_DS3505
ZBAA,2001-06-16 13:00,ZBAA 161300Z AUTO 21006KT 6SM RMK IEM_DS3505
ZBAA,2001-06-16 14:00,ZBAA 161400Z AUTO 15006KT 6SM RMK IEM_DS3505
ZBAA,2001-06-16 15:00,ZBAA 161500Z AUTO 32006KT 9SM 21/19 A2965 RMK SLP037 T02080192 52009 IEM_DS3505
ZBAA,2001-06-16 16:00,ZBAA 161600Z AUTO 10002KT 14SM 20/20 A2962 RMK SLP029 T02000200 IEM_DS3505
ZBAA,2001-06-16 17:00,ZBAA 161700Z AUTO 35004KT 6SM 19/19 A2962 RMK SLP029 T01900190 IEM_DS3505
ZBAA,2001-06-16 18:00,ZBAA 161800Z AUTO 00000KT 5SM 19/18 A2962 RMK 60001 SLP029 T01900184 57008 IEM_DS3505
ZBAA,2001-06-16 19:00,ZBAA 161900Z AUTO 6SM 19/19 A2962 RMK SLP029 T01900190 IEM_DS3505
ZBAA,2001-06-16 20:00,ZBAA 162000Z AUTO 13002KT 6SM 19/19 A2965 RMK SLP039 T01900190 IEM_DS3505
ZBAA,2001-06-16 21:00,ZBAA 162100Z AUTO 25004KT 3/8SM 19/19 A2965 RMK 70001 SLP038 T01890187 52009 IEM_DS3505
ZBAA,2001-06-16 22:00,ZBAA 162200Z AUTO 17002KT 19/19 A2965 RMK SLP039 T01900190 IEM_DS3505
ZBAA,2001-06-16 23:00,ZBAA 162300Z AUTO 6SM 19/19 A2965 RMK SLP039 T01900190 IEM_DS3505
ZBAA,2001-06-17 00:00,ZBAA 170000Z AUTO 36002KT 5SM 21/18 A2965 RMK 70001 SLP039 T02110177 52001 IEM_DS3505
ZBAA,2001-06-17 01:00,ZBAA 170100Z AUTO 31004KT 6SM 23/19 A2965 RMK SLP039 T02300190 IEM_DS3505
ZBAA,2001-06-17 02:00,ZBAA 170200Z AUTO 08002KT 25/20 A2965 RMK SLP039 T02500200 IEM_DS3505
ZBAA,2001-06-17 03:00,ZBAA 170300Z AUTO 22002KT 4SM 26/18 A2962 RMK SLP033 T02580176 57006 IEM_DS3505
ZBAA,2001-06-17 04:00,ZBAA 170400Z AUTO 15006KT 12SM 28/21 A2962 RMK SLP028 T02800210 IEM_DS3505
ZBAA,2001-06-17 05:00,ZBAA 170500Z AUTO 17006KT 15SM 29/19 A2962 RMK SLP028 T02900190 IEM_DS3505
ZBAA,2001-06-17 06:00,ZBAA 170600Z AUTO 20006KT 6SM 30/18 A2959 RMK SLP020 T02950175 57012 IEM_DS3505
ZBAA,2001-06-17 07:00,ZBAA 170700Z AUTO 17008KT 6SM 30/19 A2959 RMK SLP017 T03000190 IEM_DS3505
ZBAA,2001-06-17 08:00,ZBAA 170800Z AUTO 21008KT 6SM 30/17 A2959 RMK SLP017 T03000170 IEM_DS3505
ZBAA,2001-06-17 09:00,ZBAA 170900Z AUTO 18006KT 10SM 30/17 A2956 RMK SLP009 T03000170 57011 IEM_DS3505
ZBAA,2001-06-17 10:00,ZBAA 171000Z AUTO 19008KT 6SM 29/18 A2956 RMK SLP007 T02900180 IEM_DS3505
ZBAA,2001-06-17 11:00,ZBAA 171100Z AUTO 20006KT 6SM 29/17 A2956 RMK SLP007 T02900170 IEM_DS3505
ZBAA,2001-06-17 12:00,ZBAA 171200Z AUTO 20004KT 7SM 27/18 A2959 RMK SLP013 T02740177 52004 IEM_DS3505
ZBAA,2001-06-17 13:00,ZBAA 171300Z AUTO 14004KT 6SM 26/19 A2959 RMK SLP018 T02600190 IEM_DS3505
ZBAA,2001-06-17 14:00,ZBAA 171400Z AUTO 14004KT 6SM 24/19 A2962 RMK SLP029 T02400190 IEM_DS3505
ZBAA,2001-06-17 15:00,ZBAA 171500Z AUTO 22004KT 9SM 25/18 A2960 RMK SLP023 T02480177 52010 IEM_DS3505
ZBAA,2001-06-17 15:11,ZBAA 171511Z AUTO 11004KT 6SM 24/19 A2962 RMK SLP029 T02400190 IEM_DS3505
ZBAA,2001-06-17 16:00,ZBAA 171600Z AUTO 12006KT 6SM 23/19 A2959 RMK SLP018 T02300190 IEM_DS3505
ZBAA,2001-06-17 17:00,ZBAA 171700Z AUTO 13004KT 6SM 23/19 A2959 RMK SLP018 T02300190 IEM_DS3505
ZBAA,2001-06-17 18:00,ZBAA 171800Z AUTO 14004KT 7SM 22/18 A2959 RMK SLP020 T02220184 57003 IEM_DS3505
ZBAA,2001-06-17 19:00,ZBAA 171900Z AUTO 11004KT RMK IEM_DS3505
ZBAA,2001-06-17 20:00,ZBAA 172000Z AUTO 10004KT 6SM 21/20 A2959 RMK SLP018 T02100200 IEM_DS3505
ZBAA,2001-06-17 21:00,ZBAA 172100Z AUTO 00000KT 6SM 21/18 A2959 RMK SLP013 T02060184 57007 IEM_DS3505
ZBAA,2001-06-17 22:00,ZBAA 172200Z AUTO 6SM 21/21 A2959 RMK SLP018 T02100210 IEM_DS3505
ZBAA,2001-06-17 23:00,ZBAA 172300Z AUTO 10002KT 20SM 22/22 A2959 RMK SLP018 T02200220 IEM_DS3505
ZBAA,2001-06-18 00:00,ZBAA 180000Z AUTO 07004KT 4SM 22/20 A2959 RMK 60003 SLP014 T02220196 52001 IEM_DS3505
ZBAA,2001-06-18 01:00,ZBAA 180100Z AUTO 10004KT 6SM 24/22 A2959 RMK SLP018 T02400220 IEM_DS3505
ZBAA,2001-06-18 02:00,ZBAA 180200Z AUTO 12006KT 6SM 26/22 A2959 RMK SLP018 T02600220 IEM_DS3505
ZBAA,2001-06-18 03:00,ZBAA 180300Z AUTO 22004KT 4SM 27/21 A2959 RMK SLP014 T02710208 54000 IEM_DS3505
ZBAA,2001-06-18 04:00,ZBAA 180400Z AUTO 19006KT 27/23 A2956 RMK SLP007 T02700230 IEM_DS3505
ZBAA,2001-06-18 06:00,ZBAA 180600Z AUTO 27010KT 6SM 29/15 A2950 RMK 60003 SLP990 T02930147 57024 IEM_DS3505
ZBAA,2001-06-18 07:00,ZBAA 180700Z AUTO 18006KT 6SM 30/15 A2950 RMK SLP987 T03000150 IEM_DS3505
ZBAA,2001-06-18 08:00,ZBAA 180800Z AUTO 20008KT 6SM 30/19 A2947 RMK SLP977 T03000190 IEM_DS3505
ZBAA,2001-06-18 09:00,ZBAA 180900Z AUTO 22010KT 6SM 30/14 A2944 RMK SLP968 T02950143 57022 IEM_DS3505
ZBAA,2001-06-18 10:00,ZBAA 181000Z AUTO 22006KT 29/17 A2944 RMK SLP967 T02900170 IEM_DS3505
ZBAA,2001-06-18 11:00,ZBAA 181100Z AUTO 35008KT 9SM 26/21 A2950 RMK SLP987 T02600210 IEM_DS3505
ZBAA,2001-06-18 12:00,ZBAA 181200Z AUTO 36006KT 6SM 28/17 A2953 RMK SLP978 T02770170 52010 IEM_DS3505
ZBAA,2001-06-18 13:00,ZBAA 181300Z AUTO 08002KT 6SM 22/19 A2953 RMK SLP998 T02200190 IEM_DS3505
ZBAA,2001-06-18 14:00,ZBAA 181400Z AUTO 16002KT 6SM 21/19 A2953 RMK SLP998 T02100190 IEM_DS3505
ZBAA,2001-06-18 15:00,ZBAA 181500Z AUTO 34004KT 5SM 22/18 A2956 RMK SLP001 T02200175 52023 IEM_DS3505
ZBAA,2001-06-18 16:00,ZBAA 181600Z AUTO 13002KT 6SM 20/18 A2956 RMK SLP008 T02000180 IEM_DS3505
ZBAA,2001-06-18 17:00,ZBAA 181700Z AUTO 04002KT 6SM 20/17 A2956 RMK SLP008 T02000170 IEM_DS3505
ZBAA,2001-06-18 18:00,ZBAA 181800Z AUTO 09006KT 5SM 21/18 A2953 RMK SLP997 T02120175 57004 IEM_DS3505
ZBAA,2001-06-18 19:00,ZBAA 181900Z AUTO 08002KT 19/17 A2953 RMK SLP998 T01900170 IEM_DS3505
ZBAA,2001-06-18 20:00,ZBAA 182000Z AUTO 35002KT RMK IEM_DS3505
ZBAA,2001-06-18 21:00,ZBAA 182100Z AUTO 07002KT 5SM 20/16 A2956 RMK 70003 SLP001 T01950165 52004 IEM_DS3505
ZBAA,2001-06-18 22:00,ZBAA 182200Z AUTO 35004KT 19/18 A2956 RMK SLP008 T01900180 IEM_DS3505
ZBAA,2001-06-18 23:00,ZBAA 182300Z AUTO 35004KT 4SM 19/19 A2956 RMK SLP008 T01900190 IEM_DS3505
ZBAA,2001-06-19 00:00,ZBAA 190000Z AUTO 09004KT 5SM 22/17 A2959 RMK 70003 SLP012 T02190174 52011 IEM_DS3505
ZBAA,2001-06-19 01:00,ZBAA 190100Z AUTO 6SM 24/19 A2959 RMK SLP018 T02400190 IEM_DS3505
ZBAA,2001-06-19 02:00,ZBAA 190200Z AUTO 25/20 A2959 RMK SLP018 T02500200 IEM_DS3505
ZBAA,2001-06-19 03:00,ZBAA 190300Z AUTO 09008KT 6SM 26/17 A2959 RMK SLP012 T02640174 54000 IEM_DS3505
ZBAA,2001-06-19 04:00,ZBAA 190400Z AUTO 6SM 28/19 A2956 RMK SLP007 T02800190 IEM_DS3505
ZBAA,2001-06-19 05:00,ZBAA 190500Z AUTO 6SM 28/19 A2956 RMK SLP007 T02800190 IEM_DS3505
ZBAA,2001-06-19 06:00,ZBAA 190600Z AUTO 09008KT 9SM 30/17 A2956 RMK SLP003 T03030170 57009 IEM_DS3505
ZBAA,2001-06-19 07:00,ZBAA 190700Z AUTO 14004KT 6SM 29/18 A2953 RMK SLP997 T02900180 IEM_DS3505
ZBAA,2001-06-19 08:00,ZBAA 190800Z AUTO 27006KT 6SM 30/17 A2953 RMK SLP997 T03000170 IEM_DS3505
ZBAA,2001-06-19 09:00,ZBAA 190900Z AUTO 16004KT 11SM 29/16 A2953 RMK SLP999 T02910160 57004 IEM_DS3505
ZBAA,2001-06-19 10:00,ZBAA 191000Z AUTO 11008KT 6SM 25/18 A2956 RMK SLP008 T02500180 IEM_DS3505
ZBAA,2001-06-19 11:00,ZBAA 191100Z AUTO 6SM 25/20 A2959 RMK SLP018 T02500200 IEM_DS3505
ZBAA,2001-06-19 12:00,ZBAA 191200Z AUTO 09004KT 11SM 25/16 A2959 RMK SLP016 T02480157 52017 IEM_DS3505
ZBAA,2001-06-19 13:00,ZBAA 191300Z AUTO 19004KT 6SM 22/18 A2962 RMK SLP029 T02200180 IEM_DS3505
ZBAA,2001-06-19 14:00,ZBAA 191400Z AUTO 19004KT 6SM 22/19 A2965 RMK SLP039 T02200190 IEM_DS3505
ZBAA,2001-06-19 15:00,ZBAA 191500Z AUTO 00000KT 9SM 22/17 A2965 RMK SLP035 T02220167 52019 IEM_DS3505
ZBAA,2001-06-19 16:00,ZBAA 191600Z AUTO 13002KT 6SM 21/19 A2968 RMK SLP048 T02100190 IEM_DS3505
ZBAA,2001-06-19 17:00,ZBAA 191700Z AUTO 21002KT 6SM 21/18 A2968 RMK SLP048 T02100180 IEM_DS3505
ZBAA,2001-06-19 18:00,ZBAA 191800Z AUTO 00000KT 6SM 20/17 A2968 RMK SLP046 T02040166 52011 IEM_DS3505
ZBAA,2001-06-19 19:00,ZBAA 191900Z AUTO 6SM RMK IEM_DS3505
ZBAA,2001-06-19 20:00,ZBAA 192000Z AUTO 07002KT 6SM RMK IEM_DS3505
ZBAA,2001-06-19 21:00,ZBAA 192100Z AUTO 00000KT 4SM 20/17 A2971 RMK SLP052 T01950171 52006 IEM_DS3505
ZBAA,2001-06-19 22:00,ZBAA 192200Z AUTO 06002KT 6SM 20/19 A2971 RMK SLP058 T02000190 IEM_DS3505
ZBAA,2001-06-19 23:00,ZBAA 192300Z AUTO 02002KT 6SM 22/20 A2974 RMK SLP068 T02200200 IEM_DS3505
ZBAA,2001-06-20 00:00,ZBAA 200000Z AUTO 04006KT 4SM 24/17 A2974 RMK SLP063 T02350174 52010 IEM_DS3505
ZBAA,2001-06-20 01:00,ZBAA 200100Z AUTO 36004KT 6SM 25/20 A2974 RMK SLP068 T02500200 IEM_DS3505
ZBAA,2001-06-20 02:00,ZBAA 200200Z AUTO 6SM 27/19 A2974 RMK SLP068 T02700190 IEM_DS3505
ZBAA,2001-06-20 03:00,ZBAA 200300Z AUTO 09006KT 6SM 28/16 A2974 RMK SLP063 T02760164 52001 IEM_DS3505
ZBAA,2001-06-20 04:00,ZBAA 200400Z AUTO 6SM 29/19 A2971 RMK SLP057 T02900190 IEM_DS3505
ZBAA,2001-06-20 05:00,ZBAA 200500Z AUTO 13004KT 6SM 30/19 A2968 RMK SLP047 T03000190 IEM_DS3505
ZBAA,2001-06-20 06:00,ZBAA 200600Z AUTO 20006KT 7SM 28/16 A2968 RMK SLP052 T02840161 57011 IEM_DS3505
ZBAA,2001-06-20 07:00,ZBAA 200700Z AUTO 28016KT 6SM 27/16 A2971 RMK SLP058 T02700160 IEM_DS3505
ZBAA,2001-06-20 08:00,ZBAA 200800Z AUTO 32004KT 6SM 22/16 A2974 RMK SLP068 T02200160 IEM_DS3505
ZBAA,2001-06-20 09:00,ZBAA 200900Z AUTO 07002KT 9SM 23/17 A2971 RMK SLP053 T02340172 54000 IEM_DS3505
ZBAA,2001-06-20 10:00,ZBAA 201000Z AUTO 29004KT 6SM 22/19 A2968 RMK SLP048 T02200190 IEM_DS3505
ZBAA,2001-06-20 11:00,ZBAA 201100Z AUTO 6SM 23/19 A2971 RMK SLP058 T02300190 IEM_DS3505
ZBAA,2001-06-20 12:00,ZBAA 201200Z AUTO 00000KT 7SM 22/18 A2971 RMK 60003 SLP062 T02220176 52009 IEM_DS3505
ZBAA,2001-06-20 13:00,ZBAA 201300Z AUTO 6SM 21/20 A2974 RMK SLP068 T02100200 IEM_DS3505
ZBAA,2001-06-20 14:00,ZBAA 201400Z AUTO 17002KT 6SM 21/20 A2977 RMK SLP078 T02100200 IEM_DS3505
ZBAA,2001-06-20 15:00,ZBAA 201500Z AUTO 34004KT 6SM 22/18 A2977 RMK SLP070 T02230175 52009 IEM_DS3505
ZBAA,2001-06-20 16:00,ZBAA 201600Z AUTO 29004KT 21/19 A2974 RMK SLP068 T02100190 IEM_DS3505
ZBAA,2001-06-20 17:00,ZBAA 201700Z AUTO 6SM 20/19 A2974 RMK SLP068 T02000190 IEM_DS3505
ZBAA,2001-06-20 18:00,ZBAA 201800Z AUTO 07004KT 5SM 20/18 A2974 RMK SLP068 T02040183 57003 IEM_DS3505
ZBAA,2001-06-20 19:00,ZBAA 201900Z AUTO 6SM 19/19 A2974 RMK SLP069 T01900190 IEM_DS3505
ZBAA,2001-06-20 20:00,ZBAA 202000Z AUTO 36002KT 6SM 19/19 A2974 RMK SLP069 T01900190 IEM_DS3505
ZBAA,2001-06-20 21:00,ZBAA 202100Z AUTO 02002KT 5SM 20/18 A2975 RMK 70003 SLP073 T02020183 52005 IEM_DS3505
ZBAA,2001-06-20 22:00,ZBAA 202200Z AUTO 34002KT 19SM 20/20 A2977 RMK SLP079 T02000200 IEM_DS3505
ZBAA,2001-06-20 23:00,ZBAA 202300Z AUTO 35004KT 6SM RMK IEM_DS3505
ZBAA,2001-06-21 00:00,ZBAA 210000Z AUTO 02004KT 5SM 23/19 A2977 RMK 70003 SLP079 T02290188 52006 IEM_DS3505
ZBAA,2001-06-21 01:00,ZBAA 210100Z AUTO 35004KT 6SM 23/21 A2977 RMK SLP078 T02300210 IEM_DS3505
ZBAA,2001-06-21 02:00,ZBAA 210200Z AUTO 6SM 25/21 A2977 RMK SLP078 T02500210 IEM_DS3505
ZBAA,2001-06-21 03:00,ZBAA 210300Z AUTO 02004KT 4SM 26/19 A2977 RMK SLP074 T02620186 57005 IEM_DS3505
ZBAA,2001-06-21 04:00,ZBAA 210400Z AUTO 6SM 27/20 A2974 RMK SLP068 T02700200 IEM_DS3505
ZBAA,2001-06-21 05:00,ZBAA 210500Z AUTO 18004KT 6SM 29/20 A2971 RMK SLP057 T02900200 IEM_DS3505
ZBAA,2001-06-21 06:00,ZBAA 210600Z AUTO 25008KT 7SM 29/18 A2968 RMK SLP055 T02910177 57018 IEM_DS3505
ZBAA,2001-06-21 07:00,ZBAA 210700Z AUTO 26006KT 6SM RMK IEM_DS3505
ZBAA,2001-06-21 08:00,ZBAA 210800Z AUTO 21008KT 6SM 29/19 A2965 RMK SLP038 T02900190 IEM_DS3505
ZBAA,2001-06-21 09:00,ZBAA 210900Z AUTO 25006KT 6SM 29/18 A2965 RMK SLP039 T02870176 57016 IEM_DS3505
ZBAA,2001-06-21 10:00,ZBAA 211000Z AUTO 28006KT 6SM 29/20 A2965 RMK SLP038 T02900200 IEM_DS3505
ZBAA,2001-06-21 11:00,ZBAA 211100Z AUTO 27004KT 28/20 A2968 RMK SLP047 T02800200 IEM_DS3505
ZBAA,2001-06-21 12:00,ZBAA 211200Z AUTO 00000KT 6SM 26/19 A2971 RMK SLP051 T02630194 52012 IEM_DS3505
ZBAA,2001-06-21 13:00,ZBAA 211300Z AUTO 12006KT 22/19 A2974 RMK SLP068 T02200190 IEM_DS3505
ZBAA,2001-06-21 14:00,ZBAA 211400Z AUTO 6SM 21/18 A2974 RMK SLP068 T02100180 IEM_DS3505
ZBAA,2001-06-21 15:00,ZBAA 211500Z AUTO 07004KT 10SM 22/17 A2974 RMK SLP061 T02220170 52009 IEM_DS3505
ZBAA,2001-06-21 16:00,ZBAA 211600Z AUTO 6SM 20/19 A2974 RMK SLP068 T02000190 IEM_DS3505
ZBAA,2001-06-21 17:00,ZBAA 211700Z AUTO 13002KT 6SM 20/19 A2974 RMK SLP068 T02000190 IEM_DS3505
ZBAA,2001-06-21 18:00,ZBAA 211800Z AUTO 14004KT 7SM 21/18 A2977 RMK SLP070 T02100180 52010 IEM_DS3505
ZBAA,2001-06-21 19:00,ZBAA 211900Z AUTO 6SM 21/19 A2977 RMK SLP078 T02100190 IEM_DS3505
ZBAA,2001-06-21 20:00,ZBAA 212000Z AUTO 03002KT 6SM 20/19 A2974 RMK SLP068 T02000190 IEM_DS3505
ZBAA,2001-06-21 21:00,ZBAA 212100Z AUTO 00000KT 4SM 21/18 A2974 RMK SLP069 T02070185 57001 IEM_DS3505
ZBAA,2001-06-21 22:00,ZBAA 212200Z AUTO 35002KT 6SM 20/20 A2974 RMK SLP068 T02000200 IEM_DS3505
ZBAA,2001-06-21 23:00,ZBAA 212300Z AUTO 6SM 21/20 A2977 RMK SLP078 T02100200 IEM_DS3505
ZBAA,2001-06-22 00:00,ZBAA 220000Z AUTO 09004KT 5SM 22/19 A2977 RMK SLP074 T02190188 52004 IEM_DS3505
ZBAA,2001-06-22 01:00,ZBAA 220100Z AUTO 13002KT 6SM 23/20 A2977 RMK SLP078 T02300200 IEM_DS3505
ZBAA,2001-06-22 02:00,ZBAA 220200Z AUTO 23/20 A2977 RMK SLP078 T02300200 IEM_DS3505
ZBAA,2001-06-22 04:00,ZBAA 220400Z AUTO 13004KT 6SM 25/21 A2977 RMK SLP078 T02500210 IEM_DS3505
ZBAA,2001-06-22 05:00,ZBAA 220500Z AUTO 12006KT 25/21 A2974 RMK SLP068 T02500210 IEM_DS3505
ZBAA,2001-06-22 06:00,ZBAA 220600Z AUTO 14006KT 7SM 26/19 A2972 RMK 60003 SLP062 T02580187 57014 IEM_DS3505
ZBAA,2001-06-22 07:00,ZBAA 220700Z AUTO 13006KT 6SM RMK IEM_DS3505
ZBAA,2001-06-22 08:00,ZBAA 220800Z AUTO 12004KT 6SM 27/19 A2968 RMK SLP048 T02700190 IEM_DS3505
ZBAA,2001-06-22 09:00,ZBAA 220900Z AUTO 16002KT 9SM 28/18 A2968 RMK SLP045 T02750176 57016 IEM_DS3505
ZBAA,2001-06-22 10:00,ZBAA 221000Z AUTO 12004KT 6SM 26/20 A2968 RMK SLP048 T02600200 IEM_DS3505
ZBAA,2001-06-22 11:00,ZBAA 221100Z AUTO 11004KT 6SM 26/20 A2971 RMK SLP058 T02600200 IEM_DS3505
ZBAA,2001-06-22 12:00,ZBAA 221200Z AUTO 09002KT 6SM 25/18 A2974 RMK SLP058 T02490183 52012 IEM_DS3505
ZBAA,2001-06-22 13:00,ZBAA 221300Z AUTO 6SM 24/20 A2974 RMK SLP068 T02400200 IEM_DS3505
ZBAA,2001-06-22 14:00,ZBAA 221400Z AUTO 12002KT 6SM 22/20 A2974 RMK SLP068 T02200200 IEM_DS3505
ZBAA,2001-06-22 15:00,ZBAA 221500Z AUTO 14004KT 6SM 23/19 A2974 RMK SLP066 T02270191 52008 IEM_DS3505
ZBAA,2001-06-22 16:00,ZBAA 221600Z AUTO 6SM 22/21 A2974 RMK SLP068 T02200210 IEM_DS3505
ZBAA,2001-06-22 18:00,ZBAA 221800Z AUTO 14004KT 5SM 21/20 A2977 RMK SLP074 T02140197 52008 IEM_DS3505
ZBAA,2001-06-22 19:00,ZBAA 221900Z AUTO 12002KT 6SM 21/21 A2977 RMK SLP078 T02100210 IEM_DS3505
ZBAA,2001-06-22 20:00,ZBAA 222000Z AUTO 12004KT 6SM 21/21 A2977 RMK SLP078 T02100210 IEM_DS3505
ZBAA,2001-06-22 21:00,ZBAA 222100Z AUTO 14004KT 4SM 21/20 A2980 RMK 70002 SLP083 T02130196 52009 IEM_DS3505
ZBAA,2001-06-22 22:00,ZBAA 222200Z AUTO 6SM 21/21 A2980 RMK SLP088 T02100210 IEM_DS3505
ZBAA,2001-06-22 23:00,ZBAA 222300Z AUTO 6SM 21/21 A2980 RMK SLP088 T02100210 IEM_DS3505
ZBAA,2001-06-23 00:00,ZBAA 230000Z AUTO 09004KT 4SM 22/20 A2983 RMK 60002 SLP091 T02240195 52008 IEM_DS3505
ZBAA,2001-06-23 01:00,ZBAA 230100Z AUTO 13006KT 6SM 24/21 A2983 RMK SLP099 T02400210 IEM_DS3505
ZBAA,2001-06-23 02:00,ZBAA 230200Z AUTO 13006KT 24/20 A2983 RMK SLP099 T02400200 IEM_DS3505
ZBAA,2001-06-23 03:00,ZBAA 230300Z AUTO 09004KT 5SM 25/19 A2983 RMK SLP092 T02540194 52001 IEM_DS3505
ZBAA,2001-06-23 04:00,ZBAA 230400Z AUTO 12004KT 6SM 27/21 A2980 RMK SLP088 T02700210 IEM_DS3505
ZBAA,2001-06-23 05:00,ZBAA 230500Z AUTO 15006KT 6SM 27/21 A2980 RMK SLP088 T02700210 IEM_DS3505
ZBAA,2001-06-23 06:00,ZBAA 230600Z AUTO 16006KT 5SM 27/18 A2977 RMK SLP084 T02690182 57008 IEM_DS3505
ZBAA,2001-06-23 07:00,ZBAA 230700Z AUTO 14006KT 6SM 27/21 A2977 RMK SLP078 T02700210 IEM_DS3505
ZBAA,2001-06-23 08:00,ZBAA 230800Z AUTO 15004KT 6SM 27/20 A2977 RMK SLP078 T02700200 IEM_DS3505
ZBAA,2001-06-23 09:00,ZBAA 230900Z AUTO 16006KT 5SM 27/18 A2975 RMK SLP072 T02740180 57012 IEM_DS3505
ZBAA,2001-06-23 10:00,ZBAA 231000Z AUTO 14002KT 6SM 27/19 A2974 RMK SLP068 T02700190 IEM_DS3505
ZBAA,2001-06-23 11:00,ZBAA 231100Z AUTO 14004KT 6SM 26/21 A2977 RMK SLP078 T02600210 IEM_DS3505
ZBAA,2001-06-23 12:00,ZBAA 231200Z AUTO 16006KT 4SM 25/20 A2977 RMK SLP074 T02500196 52002 IEM_DS3505
ZBAA,2001-06-23 13:00,ZBAA 231300Z AUTO 12002KT 6SM 24/20 A2980 RMK SLP088 T02400200 IEM_DS3505
ZBAA,2001-06-23 14:00,ZBAA 231400Z AUTO 12004KT 6SM 23/21 A2980 RMK SLP088 T02300210 IEM_DS3505
ZBAA,2001-06-23 15:00,ZBAA 231500Z AUTO 16004KT 4SM 23/20 A2980 RMK SLP087 T02260197 52013 IEM_DS3505
ZBAA,2001-06-23 16:00,ZBAA 231600Z AUTO 13002KT 6SM 22/21 A2980 RMK SLP088 T02200210 IEM_DS3505
ZBAA,2001-06-23 17:00,ZBAA 231700Z AUTO 9SM 22/21 A2983 RMK SLP099 T02200210 IEM_DS3505
ZBAA,2001-06-23 18:00,ZBAA 231800Z AUTO 07002KT 3SM 21/20 A2983 RMK SLP088 T02100199 52001 IEM_DS3505
ZBAA,2001-06-23 19:00,ZBAA 231900Z AUTO 07002KT 6SM 21/21 A2980 RMK SLP088 T02100210 IEM_DS3505
ZBAA,2001-06-23 20:00,ZBAA 232000Z AUTO 11002KT 6SM 21/21 A2983 RMK SLP099 T02100210 IEM_DS3505
ZBAA,2001-06-23 21:00,ZBAA 232100Z AUTO 07004KT 2SM 21/20 A2983 RMK SLP090 T02080199 52002 IEM_DS3505
ZBAA,2001-06-23 22:00,ZBAA 232200Z AUTO 6SM 20/20 A2983 RMK SLP100 T02000200 IEM_DS3505
ZBAA,2001-06-23 23:00,ZBAA 232300Z AUTO 12002KT 6SM 21/21 A2983 RMK SLP099 T02100210 IEM_DS3505
ZBAA,2001-06-24 00:00,ZBAA 240000Z AUTO 09004KT 1SM 22/20 A2983 RMK SLP091 T02160205 52001 IEM_DS3505
ZBAA,2001-06-24 01:00,ZBAA 240100Z AUTO 9SM 24/22 A2980 RMK SLP088 T02400220 IEM_DS3505
ZBAA,2001-06-24 02:00,ZBAA 240200Z AUTO 6SM 26/22 A2980 RMK SLP088 T02600220 IEM_DS3505
ZBAA,2001-06-24 03:00,ZBAA 240300Z AUTO 07004KT 6SM 27/19 A2980 RMK SLP087 T02680188 57004 IEM_DS3505
ZBAA,2001-06-24 04:00,ZBAA 240400Z AUTO 6SM 28/21 A2980 RMK SLP088 T02800210 IEM_DS3505
ZBAA,2001-06-24 05:00,ZBAA 240500Z AUTO 16004KT 19SM 29/21 A2977 RMK SLP077 T02900210 IEM_DS3505
ZBAA,2001-06-24 06:00,ZBAA 240600Z AUTO 22004KT 7SM 30/18 A2974 RMK SLP068 T02950179 57018 IEM_DS3505
ZBAA,2001-06-24 08:00,ZBAA 240800Z AUTO 14002KT 6SM 30/19 A2974 RMK SLP067 T03000190 IEM_DS3505
ZBAA,2001-06-24 09:00,ZBAA 240900Z AUTO 09004KT 7SM 31/17 A2971 RMK SLP056 T03070173 57012 IEM_DS3505
ZBAA,2001-06-24 10:00,ZBAA 241000Z AUTO 15002KT 6SM 30/19 A2971 RMK SLP057 T03000190 IEM_DS3505
ZBAA,2001-06-24 11:00,ZBAA 241100Z AUTO 13002KT 6SM 29/19 A2971 RMK SLP057 T02900190 IEM_DS3505
ZBAA,2001-06-24 12:00,ZBAA 241200Z AUTO 16006KT 7SM 28/18 A2971 RMK SLP060 T02780184 52004 IEM_DS3505
ZBAA,2001-06-24 13:00,ZBAA 241300Z AUTO 14008KT 6SM 26/22 A2974 RMK SLP068 T02600220 IEM_DS3505
ZBAA,2001-06-24 14:00,ZBAA 241400Z AUTO 13004KT 16SM 25/22 A2974 RMK SLP068 T02500220 IEM_DS3505
ZBAA,2001-06-24 15:00,ZBAA 241500Z AUTO 16006KT 5SM 25/20 A2977 RMK SLP068 T02490200 52008 IEM_DS3505
ZBAA,2001-06-24 16:00,ZBAA 241600Z AUTO 10004KT 6SM 23/22 A2977 RMK SLP078 T02300220 IEM_DS3505
ZBAA,2001-06-24 17:00,ZBAA 241700Z AUTO 11004KT 6SM 23/22 A2977 RMK SLP078 T02300220 IEM_DS3505
ZBAA,2001-06-24 18:00,ZBAA 241800Z AUTO 09002KT 5SM 23/21 A2974 RMK SLP068 T02310211 54000 IEM_DS3505
ZBAA,2001-06-24 19:00,ZBAA 241900Z AUTO 11002KT 22/21 A2974 RMK SLP068 T02200210 IEM_DS3505
ZBAA,2001-06-24 20:00,ZBAA 242000Z AUTO 14004KT 22/21 A2974 RMK SLP068 T02200210 IEM_DS3505
ZBAA,2001-06-24 21:00,ZBAA 242100Z AUTO 07002KT 5SM 21/19 A2975 RMK SLP070 T02140194 52002 IEM_DS3505
ZBAA,2001-06-24 22:00,ZBAA 242200Z AUTO 12002KT 6SM RMK IEM_DS3505
ZBAA,2001-06-24 23:00,ZBAA 242300Z AUTO 6SM 22/21 A2974 RMK SLP068 T02200210 IEM_DS3505
ZBAA,2001-06-25 00:00,ZBAA 250000Z AUTO 07002KT 4SM 23/21 A2977 RMK SLP072 T02290206 52002 IEM_DS3505
ZBAA,2001-06-25 01:00,ZBAA 250100Z AUTO 13002KT 6SM 24/22 A2977 RMK SLP078 T02400220 IEM_DS3505
ZBAA,2001-06-25 02:00,ZBAA 250200Z AUTO 6SM 25/22 A2974 RMK SLP068 T02500220 IEM_DS3505
ZBAA,2001-06-25 03:00,ZBAA 250300Z AUTO 32002KT 5SM 27/21 A2971 RMK SLP060 T02730212 57012 IEM_DS3505
ZBAA,2001-06-25 04:00,ZBAA 250400Z AUTO 13004KT 6SM 28/23 A2968 RMK SLP047 T02800230 IEM_DS3505
ZBAA,2001-06-25 05:00,ZBAA 250500Z AUTO 17006KT 7SM 30/23 A2965 RMK SLP038 T03000230 IEM_DS3505
ZBAA,2001-06-25 06:00,ZBAA 250600Z AUTO 22006KT 6SM 31/21 A2965 RMK SLP031 T03140207 57029 IEM_DS3505
ZBAA,2001-06-25 07:00,ZBAA 250700Z AUTO 16006KT 6SM 32/23 A2962 RMK SLP028 T03200230 IEM_DS3505
ZBAA,2001-06-25 08:00,ZBAA 250800Z AUTO 16006KT 6SM 32/22 A2959 RMK SLP017 T03200220 IEM_DS3505
ZBAA,2001-06-25 09:00,ZBAA 250900Z AUTO 22004KT 6SM 32/20 A2959 RMK SLP015 T03230203 57016 IEM_DS3505
ZBAA,2001-06-25 10:00,ZBAA 251000Z AUTO 15006KT 6SM 31/22 A2959 RMK SLP017 T03100220 IEM_DS3505
ZBAA,2001-06-25 11:00,ZBAA 251100Z AUTO 15006KT 30/22 A2959 RMK SLP017 T03000220 IEM_DS3505
ZBAA,2001-06-25 12:00,ZBAA 251200Z AUTO 20004KT 4SM 30/20 A2959 RMK SLP015 T03040195 54000 IEM_DS3505
ZBAA,2001-06-25 13:00,ZBAA 251300Z AUTO 14002KT 6SM 28/21 A2959 RMK SLP017 T02800210 IEM_DS3505
ZBAA,2001-06-25 14:00,ZBAA 251400Z AUTO 13004KT 15SM 27/22 A2959 RMK SLP017 T02700220 IEM_DS3505
ZBAA,2001-06-25 15:00,ZBAA 251500Z AUTO 16004KT 6SM 26/21 A2959 RMK SLP017 T02640207 52002 IEM_DS3505
ZBAA,2001-06-25 16:00,ZBAA 251600Z AUTO 13004KT 6SM 26/23 A2959 RMK SLP018 T02600230 IEM_DS3505
ZBAA,2001-06-25 17:00,ZBAA 251700Z AUTO 11004KT 6SM 25/23 A2959 RMK SLP018 T02500230 IEM_DS3505
ZBAA,2001-06-25 18:00,ZBAA 251800Z AUTO 14004KT 6SM 25/21 A2956 RMK SLP008 T02470209 57009 IEM_DS3505
ZBAA,2001-06-25 19:00,ZBAA 251900Z AUTO 11004KT 6SM 24/23 A2956 RMK SLP008 T02400230 IEM_DS3505
ZBAA,2001-06-25 20:00,ZBAA 252000Z AUTO 10002KT 6SM 23/23 A2956 RMK SLP008 T02300230 IEM_DS3505
ZBAA,2001-06-25 21:00,ZBAA 252100Z AUTO 14002KT 3SM 23/21 A2956 RMK SLP007 T02310207 57001 IEM_DS3505
ZBAA,2001-06-25 22:00,ZBAA 252200Z AUTO 10002KT 6SM 23/23 A2956 RMK SLP008 T02300230 IEM_DS3505
ZBAA,2001-06-25 23:00,ZBAA 252300Z AUTO 11002KT 6SM 24/23 A2956 RMK SLP008 T02400230 IEM_DS3505
ZBAA,2001-06-26 00:00,ZBAA 260000Z AUTO 00000KT 3SM 26/22 A2956 RMK SLP006 T02560216 57001 IEM_DS3505
ZBAA,2001-06-26 01:00,ZBAA 260100Z AUTO 12002KT 6SM 26/23 A2956 RMK SLP007 T02600230 IEM_DS3505
ZBAA,2001-06-26 02:00,ZBAA 260200Z AUTO 6SM 28/24 A2956 RMK SLP007 T02800240 IEM_DS3505
ZBAA,2001-06-26 03:00,ZBAA 260300Z AUTO 32002KT 4SM 30/22 A2953 RMK SLP996 T03040221 57010 IEM_DS3505
ZBAA,2001-06-26 04:00,ZBAA 260400Z AUTO 12002KT 6SM 31/24 A2950 RMK SLP987 T03100240 IEM_DS3505
ZBAA,2001-06-26 06:00,ZBAA 260600Z AUTO 20008KT 6SM 34/20 A2947 RMK SLP978 T03400204 57018 IEM_DS3505
ZBAA,2001-06-26 07:00,ZBAA 260700Z AUTO 19008KT 6SM 34/21 A2947 RMK SLP976 T03400210 IEM_DS3505
ZBAA,2001-06-26 08:00,ZBAA 260800Z AUTO 17006KT 6SM 34/21 A2944 RMK SLP966 T03400210 IEM_DS3505
ZBAA,2001-06-26 09:00,ZBAA 260900Z AUTO 22008KT 6SM 34/20 A2944 RMK SLP965 T03430203 57013 IEM_DS3505
ZBAA,2001-06-26 10:00,ZBAA 261000Z AUTO 18008KT 9SM 34/22 A2944 RMK SLP966 T03400220 IEM_DS3505
ZBAA,2001-06-26 11:00,ZBAA 261100Z AUTO 24002KT 6SM 33/22 A2947 RMK SLP977 T03300220 IEM_DS3505
ZBAA,2001-06-26 12:00,ZBAA 261200Z AUTO 36012G21KT 10SM 32/23 A2950 RMK SLP987 T03200230 IEM_DS3505
ZBAA,2001-06-26 13:00,ZBAA 261300Z AUTO 09012KT 6SM 26/20 A2953 RMK SLP997 T02600200 IEM_DS3505
ZBAA,2001-06-26 14:00,ZBAA 261400Z AUTO 12004KT 6SM 26/19 A2956 RMK SLP007 T02600190 IEM_DS3505
ZBAA,2001-06-26 15:00,ZBAA 261500Z AUTO 11004KT 9SM 26/20 A2956 RMK SLP007 T02570203 52027 IEM_DS3505
ZBAA,2001-06-26 16:00,ZBAA 261600Z AUTO 6SM 25/21 A2956 RMK SLP008 T02500210 IEM_DS3505
ZBAA,2001-06-26 17:00,ZBAA 261700Z AUTO 6SM 25/21 A2956 RMK SLP008 T02500210 IEM_DS3505
ZBAA,2001-06-26 18:00,ZBAA 261800Z AUTO 00000KT 6SM 25/20 A2956 RMK 60003 SLP007 T02510202 54000 IEM_DS3505
ZBAA,2001-06-26 19:00,ZBAA 261900Z AUTO 30004KT 6SM 25/21 A2953 RMK SLP998 T02500210 IEM_DS3505
ZBAA,2001-06-26 20:00,ZBAA 262000Z AUTO 05002KT 6SM 25/21 A2956 RMK SLP008 T02500210 IEM_DS3505
ZBAA,2001-06-26 21:00,ZBAA 262100Z AUTO 07004KT 6SM 25/21 A2956 RMK 70003 SLP002 T02530208 57005 IEM_DS3505
ZBAA,2001-06-26 22:00,ZBAA 262200Z AUTO 6SM RMK IEM_DS3505
ZBAA,2001-06-26 23:00,ZBAA 262300Z AUTO 6SM 24/21 A2959 RMK SLP018 T02400210 IEM_DS3505
ZBAA,2001-06-27 00:00,ZBAA 270000Z AUTO 29004KT 5SM 25/21 A2959 RMK 60004 SLP022 T02500206 52020 IEM_DS3505
ZBAA,2001-06-27 01:00,ZBAA 270100Z AUTO 08004KT 7SM 24/22 A2959 RMK SLP018 T02400220 IEM_DS3505
ZBAA,2001-06-27 02:00,ZBAA 270200Z AUTO 03002KT 6SM RMK IEM_DS3505
ZBAA,2001-06-27 03:00,ZBAA 270300Z AUTO 07004KT 4SM 26/23 A2960 RMK SLP023 T02600226 52001 IEM_DS3505
ZBAA,2001-06-27 04:00,ZBAA 270400Z AUTO 6SM RMK IEM_DS3505
ZBAA,2001-06-27 05:00,ZBAA 270500Z AUTO 36004KT 6SM 27/23 A2956 RMK SLP007 T02700230 IEM_DS3505
ZBAA,2001-06-27 06:00,ZBAA 270600Z AUTO 07004KT 5SM 29/22 A2953 RMK 60008 SLP999 T02860217 57024 IEM_DS3505
ZBAA,2001-06-27 07:00,ZBAA 270700Z AUTO 6SM 29/23 A2956 RMK SLP007 T02900230 IEM_DS3505
ZBAA,2001-06-27 08:00,ZBAA 270800Z AUTO 14004KT 6SM 28/23 A2953 RMK SLP997 T02800230 IEM_DS3505
ZBAA,2001-06-27 09:00,ZBAA 270900Z AUTO 11004KT 5SM 26/22 A2956 RMK SLP001 T02620219 52002 IEM_DS3505
ZBAA,2001-06-27 10:00,ZBAA 271000Z AUTO 19004KT 15SM 27/23 A2959 RMK SLP017 T02700230 IEM_DS3505
ZBAA,2001-06-27 11:00,ZBAA 271100Z AUTO 07002KT 6SM 25/24 A2953 RMK SLP998 T02500240 IEM_DS3505
ZBAA,2001-06-27 12:00,ZBAA 271200Z AUTO 09006KT 5SM 26/21 A2956 RMK 60000 SLP003 T02570207 52002 IEM_DS3505
ZBAA,2001-06-27 13:00,ZBAA 271300Z AUTO 15008KT 6SM 25/23 A2959 RMK SLP018 T02500230 IEM_DS3505
ZBAA,2001-06-27 14:00,ZBAA 271400Z AUTO 07004KT 6SM 23/23 A2962 RMK SLP029 T02300230 IEM_DS3505
ZBAA,2001-06-27 15:00,ZBAA 271500Z AUTO 07006KT 5SM 24/22 A2959 RMK SLP014 T02380219 52011 IEM_DS3505
ZBAA,2001-06-27 16:00,ZBAA 271600Z AUTO 09006KT 6SM 23/22 A2959 RMK SLP018 T02300220 IEM_DS3505
ZBAA,2001-06-27 17:00,ZBAA 271700Z AUTO 12006KT 12SM RMK IEM_DS3505
ZBAA,2001-06-27 18:00,ZBAA 271800Z AUTO 14004KT 5SM 22/21 A2962 RMK 60020 SLP021 T02220208 52007 IEM_DS3505
ZBAA,2001-06-27 19:00,ZBAA 271900Z AUTO 6SM 22/22 A2959 RMK SLP018 T02200220 IEM_DS3505
ZBAA,2001-06-27 20:00,ZBAA 272000Z AUTO 08002KT 10SM 22/22 A2959 RMK SLP018 T02200220 IEM_DS3505
ZBAA,2001-06-27 21:00,ZBAA 272100Z AUTO 09004KT 6SM 22/21 A2962 RMK 70030 SLP020 T02240210 57001 IEM_DS3505
ZBAA,2001-06-27 22:00,ZBAA 272200Z AUTO 6SM 22/22 A2962 RMK SLP029 T02200220 IEM_DS3505
ZBAA,2001-06-27 23:00,ZBAA 272300Z AUTO 02002KT 6SM 23/23 A2962 RMK SLP029 T02300230 IEM_DS3505
ZBAA,2001-06-28 00:00,ZBAA 280000Z AUTO 09006KT 4SM 23/21 A2962 RMK 60002 SLP026 T02330209 52006 IEM_DS3505
ZBAA,2001-06-28 01:00,ZBAA 280100Z AUTO 35004KT 6SM 24/22 A2962 RMK SLP029 T02400220 IEM_DS3505
ZBAA,2001-06-28 02:00,ZBAA 280200Z AUTO 6SM 26/22 A2962 RMK SLP029 T02600220 IEM_DS3505
ZBAA,2001-06-28 03:00,ZBAA 280300Z AUTO 07004KT 4SM 27/22 A2959 RMK SLP017 T02730215 57009 IEM_DS3505
ZBAA,2001-06-28 04:00,ZBAA 280400Z AUTO 02004KT 6SM RMK IEM_DS3505
ZBAA,2001-06-28 05:00,ZBAA 280500Z AUTO 6SM RMK IEM_DS3505
ZBAA,2001-06-28 06:00,ZBAA 280600Z AUTO 09004KT 6SM 28/21 A2957 RMK SLP010 T02820214 57007 IEM_DS3505
ZBAA,2001-06-28 08:00,ZBAA 280800Z AUTO 14006KT 6SM 29/24 A2956 RMK SLP007 T02900240 IEM_DS3505
ZBAA,2001-06-28 09:00,ZBAA 280900Z AUTO 18006KT 7SM 28/22 A2956 RMK SLP007 T02810218 57003 IEM_DS3505
ZBAA,2001-06-28 10:00,ZBAA 281000Z AUTO 15004KT 6SM RMK IEM_DS3505
ZBAA,2001-06-28 11:00,ZBAA 281100Z AUTO 15004KT 6SM RMK IEM_DS3505
ZBAA,2001-06-28 12:00,ZBAA 281200Z AUTO 18004KT 5SM 26/23 A2959 RMK SLP016 T02640226 52009 IEM_DS3505
ZBAA,2001-06-28 13:00,ZBAA 281300Z AUTO 13004KT 26/24 A2959 RMK SLP018 T02600240 IEM_DS3505
ZBAA,2001-06-28 14:00,ZBAA 281400Z AUTO 15002KT 6SM 25/24 A2962 RMK SLP029 T02500240 IEM_DS3505
ZBAA,2001-06-28 15:00,ZBAA 281500Z AUTO 00000KT 6SM 25/23 A2962 RMK SLP020 T02540228 52004 IEM_DS3505
ZBAA,2001-06-28 16:00,ZBAA 281600Z AUTO 25/24 A2959 RMK SLP018 T02500240 IEM_DS3505
ZBAA,2001-06-28 17:00,ZBAA 281700Z AUTO 10002KT 6SM 25/24 A2959 RMK SLP018 T02500240 IEM_DS3505
ZBAA,2001-06-28 18:00,ZBAA 281800Z AUTO 00000KT 5SM 24/22 A2956 RMK 60003 SLP011 T02430225 57009 IEM_DS3505
ZBAA,2001-06-28 19:00,ZBAA 281900Z AUTO 13002KT 6SM 24/24 A2956 RMK SLP008 T02400240 IEM_DS3505
ZBAA,2001-06-28 20:00,ZBAA 282000Z AUTO 14002KT 6SM 24/24 A2956 RMK SLP008 T02400240 IEM_DS3505
ZBAA,2001-06-28 21:00,ZBAA 282100Z AUTO 00000KT 4SM 24/22 A2956 RMK 70001 SLP005 T02390218 57006 IEM_DS3505
ZBAA,2001-06-28 22:00,ZBAA 282200Z AUTO 6SM 24/23 A2956 RMK SLP008 T02400230 IEM_DS3505
ZBAA,2001-06-28 23:00,ZBAA 282300Z AUTO 12004KT 6SM 24/22 A2956 RMK SLP008 T02400220 IEM_DS3505
ZBAA,2001-06-29 00:00,ZBAA 290000Z AUTO 09006KT 3SM 23/21 A2956 RMK 60002 SLP008 T02330213 52003 IEM_DS3505
ZBAA,2001-06-29 01:00,ZBAA 290100Z AUTO 09004KT 6SM 24/22 A2956 RMK SLP008 T02400220 IEM_DS3505
ZBAA,2001-06-29 02:00,ZBAA 290200Z AUTO 13004KT 16SM 24/22 A2956 RMK SLP008 T02400220 IEM_DS3505
ZBAA,2001-06-29 03:00,ZBAA 290300Z AUTO 09006KT 3SM 24/21 A2956 RMK SLP004 T02370211 57004 IEM_DS3505
ZBAA,2001-06-29 04:00,ZBAA 290400Z AUTO 15006KT 6SM 23/22 A2953 RMK SLP998 T02300220 IEM_DS3505
ZBAA,2001-06-29 05:00,ZBAA 290500Z AUTO 14004KT 12SM 24/22 A2953 RMK SLP998 T02400220 IEM_DS3505
ZBAA,2001-06-29 06:00,ZBAA 290600Z AUTO 16006KT 4SM 25/21 A2950 RMK 60003 SLP989 T02490213 57015 IEM_DS3505
ZBAA,2001-06-29 07:00,ZBAA 290700Z AUTO 13006KT 6SM 26/23 A2950 RMK SLP987 T02600230 IEM_DS3505
ZBAA,2001-06-29 08:00,ZBAA 290800Z AUTO 16006KT 9SM RMK IEM_DS3505
ZBAA,2001-06-29 09:00,ZBAA 290900Z AUTO 18006KT 5SM 26/21 A2946 RMK SLP975 T02630209 57014 IEM_DS3505
ZBAA,2001-06-29 10:00,ZBAA 291000Z AUTO 13004KT 6SM RMK IEM_DS3505
ZBAA,2001-06-29 11:00,ZBAA 291100Z AUTO 14004KT 6SM 25/23 A2950 RMK SLP988 T02500230 IEM_DS3505
ZBAA,2001-06-29 12:00,ZBAA 291200Z AUTO 14006KT 6SM 25/23 A2947 RMK SLP977 T02500230 IEM_DS3505
ZBAA,2001-06-29 13:00,ZBAA 291300Z AUTO 7SM 24/22 A2953 RMK SLP998 T02400220 IEM_DS3505
ZBAA,2001-06-29 14:00,ZBAA 291400Z AUTO 16012KT 6SM 24/23 A2950 RMK SLP988 T02400230 IEM_DS3505
ZBAA,2001-06-29 15:00,ZBAA 291500Z AUTO 22006KT 6SM 23/22 A2947 RMK SLP975 T02310215 57005 IEM_DS3505
ZBAA,2001-06-29 16:00,ZBAA 291600Z AUTO 31010KT 6SM 22/20 A2950 RMK SLP988 T02200200 IEM_DS3505
ZBAA,2001-06-29 17:00,ZBAA 291700Z AUTO 17004KT 6SM 22/20 A2947 RMK SLP978 T02200200 IEM_DS3505
ZBAA,2001-06-29 18:00,ZBAA 291800Z AUTO 11004KT 6SM 23/22 A2947 RMK 60002 SLP972 T02320217 57003 IEM_DS3505
ZBAA,2001-06-29 19:00,ZBAA 291900Z AUTO 19006KT 6SM 22/22 A2944 RMK SLP968 T02200220 IEM_DS3505
ZBAA,2001-06-29 20:00,ZBAA 292000Z AUTO 18006KT 6SM 23/22 A2941 RMK SLP957 T02300220 IEM_DS3505
ZBAA,2001-06-29 21:00,ZBAA 292100Z AUTO 20004KT 4SM 23/22 A2941 RMK 70002 SLP958 T02280215 57014 IEM_DS3505
ZBAA,2001-06-29 22:00,ZBAA 292200Z AUTO 15002KT 6SM 23/22 A2941 RMK SLP957 T02300220 IEM_DS3505
ZBAA,2001-06-29 23:00,ZBAA 292300Z AUTO 14004KT 6SM 23/23 A2941 RMK SLP957 T02300230 IEM_DS3505
ZBAA,2001-06-30 00:00,ZBAA 300000Z AUTO 22004KT 3SM 24/22 A2941 RMK 70002 SLP955 T02400221 57003 IEM_DS3505
ZBAA,2001-06-30 01:00,ZBAA 300100Z AUTO 12006KT 6SM 24/23 A2938 RMK SLP947 T02400230 IEM_DS3505
ZBAA,2001-06-30 02:00,ZBAA 300200Z AUTO 11004KT 6SM 25/24 A2938 RMK SLP946 T02500240 IEM_DS3505
ZBAA,2001-06-30 03:00,ZBAA 300300Z AUTO 09004KT 5SM 26/23 A2938 RMK SLP950 T02610229 57005 IEM_DS3505
ZBAA,2001-06-30 04:00,ZBAA 300400Z AUTO 09004KT 6SM 25/24 A2938 RMK SLP946 T02500240 IEM_DS3505
ZBAA,2001-06-30 06:00,ZBAA 300600Z AUTO 09006KT 5SM 29/23 A2935 RMK SLP943 T02870234 57007 IEM_DS3505
ZBAA,2001-06-30 07:00,ZBAA 300700Z AUTO 13004KT 7SM 28/25 A2935 RMK SLP936 T02800250 IEM_DS3505
ZBAA,2001-06-30 08:00,ZBAA 300800Z AUTO 11002KT 9SM 28/25 A2935 RMK SLP936 T02800250 IEM_DS3505
ZBAA,2001-06-30 09:00,ZBAA 300900Z AUTO 09006KT 5SM 30/24 A2935 RMK SLP935 T02960239 57008 IEM_DS3505
ZBAA,2001-06-30 10:00,ZBAA 301000Z AUTO 10002KT 28/25 A2935 RMK SLP936 T02800250 IEM_DS3505
ZBAA,2001-06-30 11:00,ZBAA 301100Z AUTO 6SM 28/25 A2935 RMK SLP936 T02800250 IEM_DS3505
ZBAA,2001-06-30 12:00,ZBAA 301200Z AUTO 04004KT 4SM 28/24 A2938 RMK SLP943 T02850245 52008 IEM_DS3505
ZBAA,2001-06-30 13:00,ZBAA 301300Z AUTO 24004KT 6SM 27/26 A2944 RMK SLP967 T02700260 IEM_DS3505
ZBAA,2001-06-30 14:00,ZBAA 301400Z AUTO 17023G37KT 6SM 26/23 A2941 RMK SLP956 T02600230 IEM_DS3505
ZBAA,2001-06-30 15:00,ZBAA 301500Z AUTO 14006KT 6SM 26/17 A2944 RMK SLP967 T02600166 52024 IEM_DS3505
ZBAA,2001-06-30 16:00,ZBAA 301600Z AUTO 6SM RMK IEM_DS3505
ZBAA,2001-06-30 17:00,ZBAA 301700Z AUTO 35006KT 6SM 23/21 A2941 RMK SLP957 T02300210 IEM_DS3505
ZBAA,2001-06-30 18:00,ZBAA 301800Z AUTO 22002KT 6SM 23/18 A2941 RMK 60012 SLP956 T02260184 57011 IEM_DS3505
ZBAA,2001-06-30 19:00,ZBAA 301900Z AUTO 6SM 24/23 A2944 RMK SLP968 T02400230 IEM_DS3505
ZBAA,2001-06-30 20:00,ZBAA 302000Z AUTO 34002KT 24/23 A2947 RMK SLP978 T02400230 IEM_DS3505
ZBAA,2001-06-30 21:00,ZBAA 302100Z AUTO 00000KT 5SM 22/20 A2947 RMK 70010 SLP972 T02240195 52016 IEM_DS3505
ZBAA,2001-06-30 22:00,ZBAA 302200Z AUTO 22002KT 6SM 23/23 A2947 RMK SLP978 T02300230 IEM_DS3505
ZBAA,2001-06-30 23:00,ZBAA 302300Z AUTO 09006KT 13SM 24/23 A2947 RMK SLP978 T02400230 IEM_DS3505
ZBAA,2001-07-01 00:00,ZBAA 010000Z AUTO 14002KT 6SM 25/19 A2950 RMK 70010 SLP985 T02470188 52013 IEM_DS3505
ZBAA,2001-07-01 01:00,ZBAA 010100Z AUTO 6SM 25/21 A2950 RMK T02500210 IEM_DS3505
ZBAA,2001-07-01 02:00,ZBAA 010200Z AUTO 12004KT 6SM 26/21 A2950 RMK T02600210 IEM_DS3505
ZBAA,2001-07-01 03:00,ZBAA 010300Z AUTO 09004KT 6SM 28/21 A2950 RMK SLP987 T02830209 52002 IEM_DS3505
ZBAA,2001-07-01 04:00,ZBAA 010400Z AUTO 6SM 30/23 A2950 RMK T03000230 IEM_DS3505
ZBAA,2001-07-01 05:00,ZBAA 010500Z AUTO 14006KT 6SM 31/24 A2950 RMK T03100240 IEM_DS3505
ZBAA,2001-07-01 06:00,ZBAA 010600Z AUTO 11004KT 6SM 31/23 A2950 RMK SLP984 T03130231 57003 IEM_DS3505
ZBAA,2001-07-01 07:00,ZBAA 010700Z AUTO 12006KT 6SM 31/24 A2950 RMK T03100240 IEM_DS3505
ZBAA,2001-07-01 08:00,ZBAA 010800Z AUTO 13004KT 6SM 32/25 A2950 RMK T03200250 IEM_DS3505
ZBAA,2001-07-01 09:00,ZBAA 010900Z AUTO 14006KT 6SM 32/24 A2947 RMK SLP976 T03180237 57008 IEM_DS3505
ZBAA,2001-07-01 10:00,ZBAA 011000Z AUTO 15004KT 6SM RMK IEM_DS3505
ZBAA,2001-07-01 11:00,ZBAA 011100Z AUTO 12004KT 6SM 30/25 A2950 RMK T03000250 IEM_DS3505
ZBAA,2001-07-01 12:00,ZBAA 011200Z AUTO 00000KT 6SM 30/24 A2950 RMK SLP984 T02980241 52008 IEM_DS3505
ZBAA,2001-07-01 13:00,ZBAA 011300Z AUTO 6SM 28/25 A2953 RMK T02800250 IEM_DS3505
ZBAA,2001-07-01 14:00,ZBAA 011400Z AUTO 9SM 27/25 A2956 RMK T02700250 IEM_DS3505
ZBAA,2001-07-01 15:00,ZBAA 011500Z AUTO 04002KT 5SM 27/25 A2956 RMK SLP002 T02720246 52018 IEM_DS3505
ZBAA,2001-07-01 16:00,ZBAA 011600Z AUTO 26/26 A2956 RMK T02600260 IEM_DS3505
ZBAA,2001-07-01 17:00,ZBAA 011700Z AUTO 01002KT 6SM 26/25 A2956 RMK T02600250 IEM_DS3505
ZBAA,2001-07-01 18:00,ZBAA 011800Z AUTO 02004KT 4SM 27/25 A2956 RMK SLP005 T02740249 52003 IEM_DS3505
ZBAA,2001-07-01 19:00,ZBAA 011900Z AUTO 35002KT 6SM 25/25 A2956 RMK T02500250 IEM_DS3505
ZBAA,2001-07-01 20:00,ZBAA 012000Z AUTO 01002KT 26/25 A2956 RMK T02600250 IEM_DS3505
ZBAA,2001-07-01 21:00,ZBAA 012100Z AUTO 36002KT 2 1/2SM 27/24 A2959 RMK SLP014 T02660242 52009 IEM_DS3505
ZBAA,2001-07-01 22:00,ZBAA 012200Z AUTO 6SM 26/25 A2962 RMK T02600250 IEM_DS3505
ZBAA,2001-07-01 23:00,ZBAA 012300Z AUTO 32004KT 6SM 26/25 A2962 RMK T02600250 IEM_DS3505
ZBAA,2001-07-02 00:00,ZBAA 020000Z AUTO 07006KT 2SM 27/25 A2962 RMK SLP025 T02740249 52011 IEM_DS3505
ZBAA,2001-07-02 01:00,ZBAA 020100Z AUTO 27/26 A2962 RMK T02700260 IEM_DS3505
ZBAA,2001-07-02 02:00,ZBAA 020200Z AUTO 6SM 28/25 A2965 RMK T02800250 IEM_DS3505
ZBAA,2001-07-02 03:00,ZBAA 020300Z AUTO 32004KT 4SM 29/25 A2965 RMK SLP030 T02900246 52005 IEM_DS3505
ZBAA,2001-07-02 04:00,ZBAA 020400Z AUTO 12SM 29/26 A2962 RMK T02900260 IEM_DS3505
ZBAA,2001-07-02 05:00,ZBAA 020500Z AUTO 10004KT 30/26 A2962 RMK T03000260 IEM_DS3505
ZBAA,2001-07-02 06:00,ZBAA 020600Z AUTO 09010KT 6SM 31/24 A2962 RMK 60003 SLP020 T03090244 57010 IEM_DS3505
ZBAA,2001-07-02 07:00,ZBAA 020700Z AUTO 10006KT 31/26 A2962 RMK T03100260 IEM_DS3505
ZBAA,2001-07-02 08:00,ZBAA 020800Z AUTO 11004KT 6SM 31/27 A2962 RMK T03100270 IEM_DS3505
ZBAA,2001-07-02 09:00,ZBAA 020900Z AUTO 09006KT 7SM 31/18 A2959 RMK SLP020 T03070183 54000 IEM_DS3505
ZBAA,2001-07-02 10:00,ZBAA 021000Z AUTO 14004KT 6SM 29/22 A2962 RMK T02900220 IEM_DS3505
ZBAA,2001-07-02 11:00,ZBAA 021100Z AUTO 14004KT 6SM 28/23 A2962 RMK T02800230 IEM_DS3505
ZBAA,2001-07-02 12:00,ZBAA 021200Z AUTO 14004KT 9SM 28/21 A2965 RMK SLP035 T02770208 52015 IEM_DS3505
ZBAA,2001-07-02 13:00,ZBAA 021300Z AUTO 15004KT 6SM 26/22 A2968 RMK T02600220 IEM_DS3505
ZBAA,2001-07-02 14:00,ZBAA 021400Z AUTO 10002KT 6SM 25/23 A2968 RMK T02500230 IEM_DS3505
ZBAA,2001-07-02 15:00,ZBAA 021500Z AUTO 07004KT 7SM 26/22 A2968 RMK SLP037 T02570217 52002 IEM_DS3505
ZBAA,2001-07-02 16:00,ZBAA 021600Z AUTO 12004KT 6SM 24/23 A2971 RMK T02400230 IEM_DS3505
ZBAA,2001-07-02 17:00,ZBAA 021700Z AUTO 11002KT 31SM 24/22 A2971 RMK T02400220 IEM_DS3505
ZBAA,2001-07-02 18:00,ZBAA 021800Z AUTO 18002KT 6SM 24/21 RMK SLP054 T02440209 52017 IEM_DS3505
ZBAA,2001-07-02 19:00,ZBAA 021900Z AUTO 08002KT 6SM RMK IEM_DS3505
ZBAA,2001-07-02 20:00,ZBAA 022000Z AUTO 10002KT 10SM 23/21 A2968 RMK T02300210 IEM_DS3505
ZBAA,2001-07-02 21:00,ZBAA 022100Z AUTO 00000KT 6SM 24/20 RMK 70003 SLP048 T02370205 57006 IEM_DS3505
ZBAA,2001-07-02 22:00,ZBAA 022200Z AUTO 14002KT 6SM 23/22 A2968 RMK T02300220 IEM_DS3505
ZBAA,2001-07-02 23:00,ZBAA 022300Z AUTO 27002KT 45SM 25/22 A2968 RMK T02500220 IEM_DS3505
ZBAA,2001-07-03 00:00,ZBAA 030000Z AUTO 14004KT 5SM 24/21 A2968 RMK 70003 SLP047 T02450210 57001 IEM_DS3505
ZBAA,2001-07-03 01:00,ZBAA 030100Z AUTO 26/22 A2968 RMK T02600220 IEM_DS3505
ZBAA,2001-07-03 02:00,ZBAA 030200Z AUTO 20004KT 6SM 27/23 A2968 RMK T02700230 IEM_DS3505
ZBAA,2001-07-03 03:00,ZBAA 030300Z AUTO 25002KT 5SM 26/22 A2968 RMK SLP048 T02550215 52001 IEM_DS3505
ZBAA,2001-07-03 04:00,ZBAA 030400Z AUTO 6SM 27/23 A2968 RMK T02700230 IEM_DS3505
ZBAA,2001-07-03 05:00,ZBAA 030500Z AUTO 14002KT 27/22 A2968 RMK T02700220 IEM_DS3505
ZBAA,2001-07-03 06:00,ZBAA 030600Z AUTO 09004KT 4SM 26/22 A2965 RMK 60003 SLP040 T02650216 57008 IEM_DS3505
ZBAA,2001-07-03 07:00,ZBAA 030700Z AUTO 15002KT 6SM 27/24 A2965 RMK T02700240 IEM_DS3505
ZBAA,2001-07-03 08:00,ZBAA 030800Z AUTO 15002KT 6SM 26/24 A2965 RMK T02600240 IEM_DS3505
ZBAA,2001-07-03 09:00,ZBAA 030900Z AUTO 20004KT 4SM 26/23 A2962 RMK SLP034 T02580233 57006 IEM_DS3505
ZBAA,2001-07-03 10:00,ZBAA 031000Z AUTO 18004KT 6SM 26/24 A2962 RMK T02600240 IEM_DS3505
ZBAA,2001-07-03 11:00,ZBAA 031100Z AUTO 13002KT 6SM 25/24 A2962 RMK T02500240 IEM_DS3505
ZBAA,2001-07-03 12:00,ZBAA 031200Z AUTO 25002KT 2 1/2SM 25/23 A2965 RMK 60002 SLP028 T02480233 57006 IEM_DS3505
ZBAA,2001-07-03 13:00,ZBAA 031300Z AUTO 10SM 24/24 A2962 RMK T02400240 IEM_DS3505
ZBAA,2001-07-03 14:00,ZBAA 031400Z AUTO 29004KT 6SM 24/24 A2962 RMK T02400240 IEM_DS3505
ZBAA,2001-07-03 15:00,ZBAA 031500Z AUTO 29006KT 2SM 24/23 A2962 RMK SLP031 T02450233 52003 IEM_DS3505
ZBAA,2001-07-03 16:00,ZBAA 031600Z AUTO 33008KT 5SM 23/23 A2962 RMK T02300230 IEM_DS3505
ZBAA,2001-07-03 17:00,ZBAA 031700Z AUTO 30010KT 6SM 22/22 A2959 RMK T02200220 IEM_DS3505
ZBAA,2001-07-03 18:00,ZBAA 031800Z AUTO 04002KT 5SM 23/20 A2959 RMK 60002 SLP018 T02290205 57013 IEM_DS3505
ZBAA,2001-07-03 19:00,ZBAA 031900Z AUTO 01006KT 6SM 22/21 A2959 RMK T02200210 IEM_DS3505
ZBAA,2001-07-03 20:00,ZBAA 032000Z AUTO 36006KT 6SM 22/21 A2956 RMK T02200210 IEM_DS3505
ZBAA,2001-07-03 21:00,ZBAA 032100Z AUTO 36006KT 6SM 22/21 A2956 RMK 70012 SLP008 T02210206 57010 IEM_DS3505
ZBAA,2001-07-03 22:00,ZBAA 032200Z AUTO 32006KT 6SM 22/21 A2956 RMK T02200210 IEM_DS3505
ZBAA,2001-07-03 23:00,ZBAA 032300Z AUTO 32006KT 10SM 23/22 A2956 RMK T02300220 IEM_DS3505
ZBAA,2001-07-04 00:00,ZBAA 040000Z AUTO 34006KT 6SM 24/19 A2959 RMK 60008 SLP008 T02380188 54000 IEM_DS3505
ZBAA,2001-07-04 01:00,ZBAA 040100Z AUTO 31006KT 6SM 23/22 A2956 RMK T02300220 IEM_DS3505
ZBAA,2001-07-04 02:00,ZBAA 040200Z AUTO 36010KT 6SM 25/21 A2959 RMK T02500210 IEM_DS3505
ZBAA,2001-07-04 03:00,ZBAA 040300Z AUTO 04008KT 12SM 26/18 A2959 RMK SLP010 T02650179 52002 IEM_DS3505
ZBAA,2001-07-04 04:00,ZBAA 040400Z AUTO 01010KT 6SM 28/19 A2956 RMK T02800190 IEM_DS3505
ZBAA,2001-07-04 05:00,ZBAA 040500Z AUTO 35010KT 6SM 29/20 A2956 RMK T02900200 IEM_DS3505
ZBAA,2001-07-04 06:00,ZBAA 040600Z AUTO 02008KT 12SM 30/15 A2956 RMK 60003 SLP007 T02970154 57003 IEM_DS3505
ZBAA,2001-07-04 07:00,ZBAA 040700Z AUTO 11006KT 6SM 31/19 A2956 RMK T03100190 IEM_DS3505
ZBAA,2001-07-04 08:00,ZBAA 040800Z AUTO 6SM 31/17 A2956 RMK T03100170 IEM_DS3505
ZBAA,2001-07-04 09:00,ZBAA 040900Z AUTO 14008KT 12SM 31/16 A2953 RMK SLP004 T03090156 57003 IEM_DS3505
ZBAA,2001-07-04 10:00,ZBAA 041000Z AUTO 12004KT 6SM 30/19 A2959 RMK T03000190 IEM_DS3505
ZBAA,2001-07-04 11:00,ZBAA 041100Z AUTO 10002KT 6SM 28/21 A2962 RMK T02800210 IEM_DS3505
ZBAA,2001-07-04 12:00,ZBAA 041200Z AUTO 16006KT 16SM 28/18 A2962 RMK SLP020 T02790183 52016 IEM_DS3505
ZBAA,2001-07-04 13:00,ZBAA 041300Z AUTO 02004KT 6SM 26/21 A2965 RMK T02600210 IEM_DS3505
ZBAA,2001-07-04 14:00,ZBAA 041400Z AUTO 01002KT 6SM 24/21 A2965 RMK T02400210 IEM_DS3505
ZBAA,2001-07-04 15:00,ZBAA 041500Z AUTO 09004KT 6SM 24/22 A2968 RMK SLP040 T02450223 52020 IEM_DS3505
ZBAA,2001-07-04 16:00,ZBAA 041600Z AUTO 35006KT 6SM 23/20 A2971 RMK T02300200 IEM_DS3505
ZBAA,2001-07-04 17:00,ZBAA 041700Z AUTO 28004KT 6SM 23/21 A2968 RMK T02300210 IEM_DS3505
ZBAA,2001-07-04 18:00,ZBAA 041800Z AUTO 18004KT 6SM 24/20 A2968 RMK 60002 SLP045 T02360199 52005 IEM_DS3505
ZBAA,2001-07-04 19:00,ZBAA 041900Z AUTO 6SM 22/20 A2968 RMK T02200200 IEM_DS3505
ZBAA,2001-07-04 20:00,ZBAA 042000Z AUTO 6SM 22/20 A2968 RMK T02200200 IEM_DS3505
ZBAA,2001-07-04 21:00,ZBAA 042100Z AUTO 04002KT 6SM 22/19 A2971 RMK 70002 SLP048 T02240191 52003 IEM_DS3505
ZBAA,2001-07-04 22:00,ZBAA 042200Z AUTO 6SM 21/21 A2971 RMK T02100210 IEM_DS3505
ZBAA,2001-07-04 23:00,ZBAA 042300Z AUTO 6SM 22/21 A2974 RMK T02200210 IEM_DS3505
ZBAA,2001-07-05 00:00,ZBAA 050000Z AUTO 20002KT 6SM 24/20 A2974 RMK 60000 SLP064 T02390198 52016 IEM_DS3505
ZBAA,2001-07-05 01:00,ZBAA 050100Z AUTO 6SM 24/22 A2974 RMK T02400220 IEM_DS3505
ZBAA,2001-07-05 02:00,ZBAA 050200Z AUTO 6SM 26/21 A2977 RMK T02600210 IEM_DS3505
ZBAA,2001-07-05 03:00,ZBAA 050300Z AUTO 14006KT 9SM 28/19 A2977 RMK SLP069 T02790194 52005 IEM_DS3505
ZBAA,2001-07-05 04:00,ZBAA 050400Z AUTO 6SM 29/22 A2974 RMK T02900220 IEM_DS3505
ZBAA,2001-07-05 05:00,ZBAA 050500Z AUTO 13004KT 6SM 30/20 A2974 RMK T03000200 IEM_DS3505
ZBAA,2001-07-05 06:00,ZBAA 050600Z AUTO 22004KT 12SM 31/18 A2974 RMK SLP064 T03120179 57005 IEM_DS3505
ZBAA,2001-07-05 07:00,ZBAA 050700Z AUTO 19006KT 6SM 31/20 A2971 RMK T03100200 IEM_DS3505
ZBAA,2001-07-05 08:00,ZBAA 050800Z AUTO 18006KT 6SM 32/21 A2971 RMK T03200210 IEM_DS3505
ZBAA,2001-07-05 09:00,ZBAA 050900Z AUTO 20006KT 12SM 31/18 A2971 RMK SLP055 T03120176 57009 IEM_DS3505
ZBAA,2001-07-05 10:00,ZBAA 051000Z AUTO 17004KT 6SM 31/19 A2971 RMK T03100190 IEM_DS3505
ZBAA,2001-07-05 11:00,ZBAA 051100Z AUTO 16002KT 6SM 29/21 A2971 RMK T02900210 IEM_DS3505
ZBAA,2001-07-05 12:00,ZBAA 051200Z AUTO 20004KT 12SM 29/19 A2974 RMK SLP061 T02930187 52006 IEM_DS3505
ZBAA,2001-07-05 13:00,ZBAA 051300Z AUTO 16002KT 6SM 27/21 A2974 RMK T02700210 IEM_DS3505
ZBAA,2001-07-05 14:00,ZBAA 051400Z AUTO 16002KT 6SM 25/21 A2977 RMK T02500210 IEM_DS3505
ZBAA,2001-07-05 15:00,ZBAA 051500Z AUTO 20004KT 12SM 27/19 A2977 RMK SLP077 T02680193 52016 IEM_DS3505
ZBAA,2001-07-05 16:00,ZBAA 051600Z AUTO 18006KT 6SM 25/21 A2980 RMK T02500210 IEM_DS3505
ZBAA,2001-07-05 17:00,ZBAA 051700Z AUTO 20004KT 6SM 24/20 A2980 RMK T02400200 IEM_DS3505
ZBAA,2001-07-05 18:00,ZBAA 051800Z AUTO 00000KT 12SM 25/19 A2980 RMK SLP082 T02460188 52005 IEM_DS3505
ZBAA,2001-07-05 19:00,ZBAA 051900Z AUTO 6SM 22/21 A2980 RMK T02200210 IEM_DS3505
ZBAA,2001-07-05 20:00,ZBAA 052000Z AUTO 6SM 21/20 A2980 RMK T02100200 IEM_DS3505
ZBAA,2001-07-05 21:00,ZBAA 052100Z AUTO 35002KT 22/21 A2980 RMK T02200210 IEM_DS3505
ZBAA,2001-07-05 23:00,ZBAA 052300Z AUTO 34002KT 6SM 24/22 A2983 RMK T02400220 IEM_DS3505
ZBAA,2001-07-06 00:00,ZBAA 060000Z AUTO 00000KT 9SM 27/19 A2985 RMK SLP099 T02740191 52013 IEM_DS3505
ZBAA,2001-07-06 01:00,ZBAA 060100Z AUTO 6SM 28/22 A2983 RMK T02800220 IEM_DS3505
ZBAA,2001-07-06 02:00,ZBAA 060200Z AUTO 10002KT 10SM 30/22 A2983 RMK T03000220 IEM_DS3505
ZBAA,2001-07-06 03:00,ZBAA 060300Z AUTO 29004KT 16SM 32/19 A2983 RMK SLP097 T03160186 57002 IEM_DS3505
ZBAA,2001-07-06 04:00,ZBAA 060400Z AUTO 16006KT 6SM 32/22 A2983 RMK T03200220 IEM_DS3505
ZBAA,2001-07-06 05:00,ZBAA 060500Z AUTO 6SM 33/21 A2980 RMK T03300210 IEM_DS3505
ZBAA,2001-07-06 06:00,ZBAA 060600Z AUTO 20006KT 16SM 34/18 A2980 RMK SLP086 T03380181 57011 IEM_DS3505
ZBAA,2001-07-06 07:00,ZBAA 060700Z AUTO 16006KT 6SM 34/18 A2980 RMK T03400180 IEM_DS3505
ZBAA,2001-07-06 08:00,ZBAA 060800Z AUTO 18008KT 6SM 34/19 A2977 RMK T03400190 IEM_DS3505
ZBAA,2001-07-06 09:00,ZBAA 060900Z AUTO 20006KT 19SM 34/15 A2977 RMK SLP079 T03420151 57007 IEM_DS3505
ZBAA,2001-07-06 10:00,ZBAA 061000Z AUTO 17006KT 6SM 33/19 A2977 RMK T03300190 IEM_DS3505
ZBAA,2001-07-06 11:00,ZBAA 061100Z AUTO 16004KT 6SM 31/18 A2977 RMK T03100180 IEM_DS3505
ZBAA,2001-07-06 12:00,ZBAA 061200Z AUTO 18004KT 12SM 31/18 A2980 RMK SLP083 T03120179 52004 IEM_DS3505
ZBAA,2001-07-06 13:00,ZBAA 061300Z AUTO 11002KT 6SM 28/19 A2983 RMK T02800190 IEM_DS3505
ZBAA,2001-07-06 14:00,ZBAA 061400Z AUTO 15004KT 6SM 27/19 A2983 RMK T02700190 IEM_DS3505
ZBAA,2001-07-06 15:00,ZBAA 061500Z AUTO 18004KT 12SM 28/19 A2983 RMK SLP097 T02800186 52014 IEM_DS3505
ZBAA,2001-07-06 16:00,ZBAA 061600Z AUTO 18008KT 6SM 27/20 A2983 RMK T02700200 IEM_DS3505
ZBAA,2001-07-06 18:00,ZBAA 061800Z AUTO 22004KT 12SM 26/18 A2983 RMK SLP097 T02620184 54000 IEM_DS3505
ZBAA,2001-07-06 19:00,ZBAA 061900Z AUTO 12006KT 6SM 25/20 A2983 RMK T02500200 IEM_DS3505
ZBAA,2001-07-06 20:00,ZBAA 062000Z AUTO 11004KT 6SM 24/21 A2983 RMK T02400210 IEM_DS3505
ZBAA,2001-07-06 21:00,ZBAA 062100Z AUTO 22002KT 12SM 24/19 A2983 RMK SLP092 T02440186 57005 IEM_DS3505
ZBAA,2001-07-06 22:00,ZBAA 062200Z AUTO 11004KT 6SM 23/21 A2983 RMK T02300210 IEM_DS3505
ZBAA,2001-07-06 23:00,ZBAA 062300Z AUTO 12004KT 6SM 25/22 A2983 RMK T02500220 IEM_DS3505
ZBAA,2001-07-07 00:00,ZBAA 070000Z AUTO 22004KT 9SM 27/20 A2983 RMK SLP091 T02740201 57001 IEM_DS3505
ZBAA,2001-07-07 01:00,ZBAA 070100Z AUTO 14004KT 6SM 29/22 A2980 RMK T02900220 IEM_DS3505
ZBAA,2001-07-07 02:00,ZBAA 070200Z AUTO 09004KT 6SM 30/22 A2980 RMK T03000220 IEM_DS3505
ZBAA,2001-07-07 03:00,ZBAA 070300Z AUTO 22010KT 11SM 32/19 A2980 RMK SLP084 T03250189 57007 IEM_DS3505
ZBAA,2001-07-07 04:00,ZBAA 070400Z AUTO 19010KT 6SM 34/21 A2977 RMK T03400210 IEM_DS3505
ZBAA,2001-07-07 05:00,ZBAA 070500Z AUTO 20010KT 6SM 34/21 A2974 RMK T03400210 IEM_DS3505
ZBAA,2001-07-07 06:00,ZBAA 070600Z AUTO 22008KT 12SM 34/18 A2974 RMK SLP066 T03400178 57018 IEM_DS3505
ZBAA,2001-07-07 07:00,ZBAA 070700Z AUTO 17010KT 6SM 33/20 A2971 RMK T03300200 IEM_DS3505
ZBAA,2001-07-07 08:00,ZBAA 070800Z AUTO 20010KT 6SM 34/20 A2971 RMK T03400200 IEM_DS3505
ZBAA,2001-07-07 09:00,ZBAA 070900Z AUTO 22008KT 12SM 34/19 A2968 RMK SLP050 T03430193 57016 IEM_DS3505
ZBAA,2001-07-07 10:00,ZBAA 071000Z AUTO 18010KT 6SM 33/19 A2968 RMK T03300190 IEM_DS3505
ZBAA,2001-07-07 11:00,ZBAA 071100Z AUTO 16006KT 6SM 32/20 A2968 RMK T03200200 IEM_DS3505
ZBAA,2001-07-07 12:00,ZBAA 071200Z AUTO 18002KT 12SM 32/18 A2968 RMK SLP046 T03170175 57004 IEM_DS3505
ZBAA,2001-07-07 13:00,ZBAA 071300Z AUTO 12004KT 6SM 29/20 A2971 RMK T02900200 IEM_DS3505
ZBAA,2001-07-07 14:00,ZBAA 071400Z AUTO 12004KT 6SM 28/20 A2971 RMK T02800200 IEM_DS3505
ZBAA,2001-07-07 15:00,ZBAA 071500Z AUTO 16006KT 11SM 28/19 A2971 RMK SLP049 T02790187 52003 IEM_DS3505
ZBAA,2001-07-07 16:00,ZBAA 071600Z AUTO 12004KT 6SM 26/23 A2971 RMK T02600230 IEM_DS3505
ZBAA,2001-07-07 17:00,ZBAA 071700Z AUTO 12004KT 6SM 26/23 A2971 RMK T02600230 IEM_DS3505
ZBAA,2001-07-07 18:00,ZBAA 071800Z AUTO 14006KT 9SM 26/20 A2971 RMK SLP048 T02630204 57001 IEM_DS3505
ZBAA,2001-07-07 19:00,ZBAA 071900Z AUTO 6SM RMK IEM_DS3505
ZBAA,2001-07-07 20:00,ZBAA 072000Z AUTO 09002KT 6SM 25/23 A2968 RMK T02500230 IEM_DS3505
ZBAA,2001-07-07 21:00,ZBAA 072100Z AUTO 00000KT 9SM 26/20 A2968 RMK SLP047 T02560205 57001 IEM_DS3505
ZBAA,2001-07-07 22:00,ZBAA 072200Z AUTO 11002KT 6SM 25/23 A2968 RMK T02500230 IEM_DS3505
ZBAA,2001-07-07 23:00,ZBAA 072300Z AUTO 02002KT 37SM 25/23 A2971 RMK T02500230 IEM_DS3505
ZBAA,2001-07-08 00:00,ZBAA 080000Z AUTO 20002KT 6SM 28/20 A2971 RMK SLP052 T02750201 52005 IEM_DS3505
ZBAA,2001-07-08 01:00,ZBAA 080100Z AUTO 6SM 28/23 A2971 RMK T02800230 IEM_DS3505
ZBAA,2001-07-08 02:00,ZBAA 080200Z AUTO 09004KT 6SM 29/24 A2968 RMK T02900240 IEM_DS3505
ZBAA,2001-07-08 03:00,ZBAA 080300Z AUTO 09006KT 4SM 30/21 A2968 RMK SLP046 T03010211 57006 IEM_DS3505
ZBAA,2001-07-08 04:00,ZBAA 080400Z AUTO 12004KT 6SM RMK IEM_DS3505
ZBAA,2001-07-08 05:00,ZBAA 080500Z AUTO 13004KT 6SM 32/23 A2965 RMK T03200230 IEM_DS3505
ZBAA,2001-07-08 06:00,ZBAA 080600Z AUTO 20004KT 9SM 32/20 A2962 RMK SLP031 T03180202 57015 IEM_DS3505
ZBAA,2001-07-08 07:00,ZBAA 080700Z AUTO 19008KT 6SM 33/22 A2962 RMK T03300220 IEM_DS3505
ZBAA,2001-07-08 08:00,ZBAA 080800Z AUTO 16006KT 6SM 33/22 A2962 RMK T03300220 IEM_DS3505
ZBAA,2001-07-08 09:00,ZBAA 080900Z AUTO 18004KT 9SM 34/21 A2959 RMK SLP016 T03360208 57015 IEM_DS3505
ZBAA,2001-07-08 10:00,ZBAA 081000Z AUTO 15002KT 6SM 32/23 A2959 RMK T03200230 IEM_DS3505
ZBAA,2001-07-08 11:00,ZBAA 081100Z AUTO 12002KT 6SM 31/24 A2959 RMK T03100240 IEM_DS3505
ZBAA,2001-07-08 12:00,ZBAA 081200Z AUTO 22002KT 6SM 31/22 RMK SLP015 T03120222 57001 IEM_DS3505
ZBAA,2001-07-08 13:00,ZBAA 081300Z AUTO 6SM RMK IEM_DS3505
ZBAA,2001-07-08 14:00,ZBAA 081400Z AUTO 10004KT 6SM 29/24 A2959 RMK T02900240 IEM_DS3505
ZBAA,2001-07-08 15:00,ZBAA 081500Z AUTO 00000KT 6SM 29/23 A2959 RMK SLP016 T02940227 52001 IEM_DS3505
ZBAA,2001-07-08 16:00,ZBAA 081600Z AUTO 12004KT 10SM 29/25 A2959 RMK T02900250 IEM_DS3505
ZBAA,2001-07-08 17:00,ZBAA 081700Z AUTO 04002KT 6SM 28/24 A2959 RMK T02800240 IEM_DS3505
ZBAA,2001-07-08 18:00,ZBAA 081800Z AUTO 04002KT 5SM 28/24 A2959 RMK SLP011 T02810243 57005 IEM_DS3505
ZBAA,2001-07-08 19:00,ZBAA 081900Z AUTO 02004KT 6SM 28/24 A2959 RMK T02800240 IEM_DS3505
ZBAA,2001-07-08 20:00,ZBAA 082000Z AUTO 34006KT 10SM 27/24 A2962 RMK T02700240 IEM_DS3505
ZBAA,2001-07-08 21:00,ZBAA 082100Z AUTO 34006KT 5SM 27/23 A2962 RMK 70006 SLP028 T02660231 52017 IEM_DS3505
ZBAA,2001-07-08 22:00,ZBAA 082200Z AUTO 02006KT 6SM 27/20 A2968 RMK T02700200 IEM_DS3505
ZBAA,2001-07-08 23:00,ZBAA 082300Z AUTO 02004KT 6SM 26/19 A2968 RMK T02600190 IEM_DS3505
ZBAA,2001-07-09 00:00,ZBAA 090000Z AUTO 07008KT 6SM 26/21 A2968 RMK 60008 SLP042 T02600209 52014 IEM_DS3505
ZBAA,2001-07-09 01:00,ZBAA 090100Z AUTO 02006KT 6SM 26/18 A2968 RMK T02600180 IEM_DS3505
ZBAA,2001-07-09 02:00,ZBAA 090200Z AUTO 01004KT 6SM 26/18 A2968 RMK T02600180 IEM_DS3505
ZBAA,2001-07-09 03:00,ZBAA 090300Z AUTO 07008KT 9SM 27/17 A2968 RMK SLP045 T02740168 52003 IEM_DS3505
ZBAA,2001-07-09 04:00,ZBAA 090400Z AUTO 02002KT 6SM 26/19 A2968 RMK T02600190 IEM_DS3505
ZBAA,2001-07-09 05:00,ZBAA 090500Z AUTO 6SM 25/19 A2968 RMK T02500190 IEM_DS3505
ZBAA,2001-07-09 06:00,ZBAA 090600Z AUTO 00000KT 9SM 27/17 A2965 RMK SLP043 T02680172 57002 IEM_DS3505
ZBAA,2001-07-09 07:00,ZBAA 090700Z AUTO 02006KT 6SM 25/19 A2968 RMK T02500190 IEM_DS3505
ZBAA,2001-07-09 08:00,ZBAA 090800Z AUTO 36002KT 6SM 24/20 A2965 RMK T02400200 IEM_DS3505
ZBAA,2001-07-09 09:00,ZBAA 090900Z AUTO 07002KT 9SM 26/18 A2962 RMK SLP030 T02580178 57013 IEM_DS3505
ZBAA,2001-07-09 10:00,ZBAA 091000Z AUTO 12002KT 6SM 24/21 A2962 RMK T02400210 IEM_DS3505
ZBAA,2001-07-09 11:00,ZBAA 091100Z AUTO 10002KT 6SM 24/20 A2965 RMK T02400200 IEM_DS3505
ZBAA,2001-07-09 12:00,ZBAA 091200Z AUTO 00000KT 6SM 25/20 A2965 RMK SLP036 T02520199 52006 IEM_DS3505
ZBAA,2001-07-09 13:00,ZBAA 091300Z AUTO 6SM 23/20 A2965 RMK T02300200 IEM_DS3505
ZBAA,2001-07-09 14:00,ZBAA 091400Z AUTO 04002KT 6SM 22/20 A2965 RMK T02200200 IEM_DS3505
ZBAA,2001-07-09 15:00,ZBAA 091500Z AUTO 00000KT 9SM 23/19 RMK SLP030 T02260192 57006 IEM_DS3505
ZBAA,2001-07-09 16:00,ZBAA 091600Z AUTO 01002KT 12SM RMK IEM_DS3505
ZBAA,2001-07-09 17:00,ZBAA 091700Z AUTO 6SM RMK IEM_DS3505
ZBAA,2001-07-09 18:00,ZBAA 091800Z AUTO 02004KT 7SM 22/20 A2959 RMK SLP022 T02220205 57008 IEM_DS3505
ZBAA,2001-07-09 19:00,ZBAA 091900Z AUTO 35004KT 4SM RMK IEM_DS3505
ZBAA,2001-07-09 20:00,ZBAA 092000Z AUTO 34004KT 6SM 19/19 A2959 RMK T01900190 IEM_DS3505
ZBAA,2001-07-09 21:00,ZBAA 092100Z AUTO 04004KT 5SM 21/20 A2959 RMK 70003 SLP018 T02100199 57004 IEM_DS3505
ZBAA,2001-07-09 22:00,ZBAA 092200Z AUTO 35004KT 6SM 20/19 A2959 RMK T02000190 IEM_DS3505
ZBAA,2001-07-09 23:00,ZBAA 092300Z AUTO 34004KT 6SM 22/20 A2959 RMK T02200200 IEM_DS3505
ZBAA,2001-07-10 00:00,ZBAA 100000Z AUTO 00000KT 5SM 25/19 A2959 RMK SLP018 T02480186 54000 IEM_DS3505
ZBAA,2001-07-10 01:00,ZBAA 100100Z AUTO 6SM 26/21 A2956 RMK T02600210 IEM_DS3505
ZBAA,2001-07-10 02:00,ZBAA 100200Z AUTO 34004KT 6SM 28/19 A2956 RMK T02800190 IEM_DS3505
ZBAA,2001-07-10 03:00,ZBAA 100300Z AUTO 27004KT 7SM 31/17 A2956 RMK SLP004 T03060170 57014 IEM_DS3505
ZBAA,2001-07-10 04:00,ZBAA 100400Z AUTO 20006KT 6SM 33/20 A2953 RMK T03300200 IEM_DS3505
ZBAA,2001-07-10 06:00,ZBAA 100600Z AUTO 22006KT 9SM 35/19 A2950 RMK SLP987 T03500188 57017 IEM_DS3505
ZBAA,2001-07-10 07:00,ZBAA 100700Z AUTO 18012KT 6SM 36/18 A2947 RMK T03600180 IEM_DS3505
ZBAA,2001-07-10 08:00,ZBAA 100800Z AUTO 18012KT 6SM 35/19 A2947 RMK T03500190 IEM_DS3505
ZBAA,2001-07-10 09:00,ZBAA 100900Z AUTO 22008KT 12SM 36/17 A2947 RMK SLP977 T03570172 57010 IEM_DS3505
ZBAA,2001-07-10 10:00,ZBAA 101000Z AUTO 02004KT 6SM 33/20 A2950 RMK T03300200 IEM_DS3505
ZBAA,2001-07-10 11:00,ZBAA 101100Z AUTO 26012KT 6SM 31/19 A2956 RMK T03100190 IEM_DS3505
ZBAA,2001-07-10 12:00,ZBAA 101200Z AUTO 09002KT 12SM 29/19 A2953 RMK 60003 SLP999 T02910187 52022 IEM_DS3505
ZBAA,2001-07-10 13:00,ZBAA 101300Z AUTO 27006KT 6SM 31/15 A2950 RMK T03100150 IEM_DS3505
ZBAA,2001-07-10 14:00,ZBAA 101400Z AUTO 27008KT 6SM 29/18 A2953 RMK T02900180 IEM_DS3505
ZBAA,2001-07-10 15:00,ZBAA 101500Z AUTO 29004KT 9SM 29/16 A2953 RMK SLP992 T02910164 57007 IEM_DS3505
ZBAA,2001-07-10 16:00,ZBAA 101600Z AUTO 02002KT 6SM 27/18 A2953 RMK T02700180 IEM_DS3505
ZBAA,2001-07-10 17:00,ZBAA 101700Z AUTO 6SM 26/19 A2953 RMK T02600190 IEM_DS3505
ZBAA,2001-07-10 18:00,ZBAA 101800Z AUTO 00000KT 7SM 27/19 A2953 RMK 60003 SLP993 T02680190 52002 IEM_DS3505
ZBAA,2001-07-10 19:00,ZBAA 101900Z AUTO 32002KT 6SM 25/19 A2953 RMK T02500190 IEM_DS3505
ZBAA,2001-07-10 20:00,ZBAA 102000Z AUTO 34004KT 6SM 24/18 A2953 RMK T02400180 IEM_DS3505
ZBAA,2001-07-10 21:00,ZBAA 102100Z AUTO 04004KT 7SM 25/20 RMK 70003 SLP993 T02510198 54000 IEM_DS3505
ZBAA,2001-07-10 22:00,ZBAA 102200Z AUTO 32004KT 6SM 22/19 A2953 RMK T02200190 IEM_DS3505
ZBAA,2001-07-10 23:00,ZBAA 102300Z AUTO 35004KT 6SM 25/20 A2953 RMK T02500200 IEM_DS3505
ZBAA,2001-07-11 00:00,ZBAA 110000Z AUTO 04004KT 12SM 30/17 A2953 RMK 70003 SLP999 T02990167 52005 IEM_DS3505
ZBAA,2001-07-11 01:00,ZBAA 110100Z AUTO 36004KT 6SM 30/18 A2953 RMK T03000180 IEM_DS3505
ZBAA,2001-07-11 02:00,ZBAA 110200Z AUTO 6SM 34/17 A2953 RMK T03400170 IEM_DS3505
ZBAA,2001-07-11 03:00,ZBAA 110300Z AUTO 07004KT 11SM 36/13 A2950 RMK SLP990 T03610133 57008 IEM_DS3505
ZBAA,2001-07-11 04:00,ZBAA 110400Z AUTO 14006KT 6SM 37/15 A2947 RMK T03700150 IEM_DS3505
ZBAA,2001-07-11 05:00,ZBAA 110500Z AUTO 15006KT 6SM 38/14 A2947 RMK T03800140 IEM_DS3505
ZBAA,2001-07-11 06:00,ZBAA 110600Z AUTO 18006KT 12SM 39/10 A2944 RMK SLP966 T03920101 57024 IEM_DS3505
ZBAA,2001-07-11 07:00,ZBAA 110700Z AUTO 13006KT 6SM 39/13 A2941 RMK T03900130 IEM_DS3505
ZBAA,2001-07-11 08:00,ZBAA 110800Z AUTO 16010KT 6SM 38/11 A2938 RMK T03800110 IEM_DS3505
ZBAA,2001-07-11 09:00,ZBAA 110900Z AUTO 36010G21KT 12SM 37/12 A2941 RMK SLP965 T03660122 57001 IEM_DS3505
ZBAA,2001-07-11 10:00,ZBAA 111000Z AUTO 32008KT 6SM A2953 RMK IEM_DS3505
ZBAA,2001-07-11 11:00,ZBAA 111100Z AUTO 04002KT 6SM 26/19 A2944 RMK T02600190 IEM_DS3505
ZBAA,2001-07-11 12:00,ZBAA 111200Z AUTO 29006KT 16SM 27/18 A2950 RMK 60008 SLP987 T02730185 52021 IEM_DS3505
ZBAA,2001-07-11 13:00,ZBAA 111300Z AUTO 32004KT 6SM 25/19 A2953 RMK T02500190 IEM_DS3505
ZBAA,2001-07-11 14:00,ZBAA 111400Z AUTO 6SM 25/19 A2953 RMK T02500190 IEM_DS3505
ZBAA,2001-07-11 15:00,ZBAA 111500Z AUTO 27004KT 11SM 26/19 A2953 RMK SLP992 T02590188 52006 IEM_DS3505
ZBAA,2001-07-11 16:00,ZBAA 111600Z AUTO 34004KT 6SM 23/20 A2953 RMK T02300200 IEM_DS3505
ZBAA,2001-07-11 17:00,ZBAA 111700Z AUTO 36002KT 6SM 23/20 A2950 RMK T02300200 IEM_DS3505
ZBAA,2001-07-11 18:00,ZBAA 111800Z AUTO 36002KT 12SM 23/20 A2950 RMK SLP984 T02330201 57008 IEM_DS3505
ZBAA,2001-07-11 19:00,ZBAA 111900Z AUTO 35006KT 6SM 21/18 A2950 RMK T02100180 IEM_DS3505
ZBAA,2001-07-11 20:00,ZBAA 112000Z AUTO 34004KT 6SM 20/18 A2950 RMK T02000180 IEM_DS3505
ZBAA,2001-07-11 21:00,ZBAA 112100Z AUTO 04004KT 7SM 21/19 A2950 RMK 70006 SLP985 T02110187 54000 IEM_DS3505
ZBAA,2001-07-11 22:00,ZBAA 112200Z AUTO 33004KT 6SM 22/18 A2950 RMK T02200180 IEM_DS3505
ZBAA,2001-07-11 23:00,ZBAA 112300Z AUTO 35006KT 6SM 23/19 A2950 RMK T02300190 IEM_DS3505
ZBAA,2001-07-12 00:00,ZBAA 120000Z AUTO 04002KT 6SM 28/19 A2950 RMK 70006 SLP986 T02810187 52001 IEM_DS3505
ZBAA,2001-07-12 01:00,ZBAA 120100Z AUTO 36006KT 6SM 29/18 A2950 RMK T02900180 IEM_DS3505
ZBAA,2001-07-12 02:00,ZBAA 120200Z AUTO 36006KT 6SM 32/19 A2950 RMK T03200190 IEM_DS3505
ZBAA,2001-07-12 03:00,ZBAA 120300Z AUTO 04004KT 19SM 34/15 A2950 RMK SLP985 T03410153 57001 IEM_DS3505
ZBAA,2001-07-12 04:00,ZBAA 120400Z AUTO 35006KT 6SM 36/17 A2947 RMK T03600170 IEM_DS3505
ZBAA,2001-07-12 05:00,ZBAA 120500Z AUTO 6SM 37/12 A2947 RMK T03700120 IEM_DS3505
ZBAA,2001-07-12 06:00,ZBAA 120600Z AUTO 18002KT 19SM 37/14 A2944 RMK SLP969 T03730136 57015 IEM_DS3505
ZBAA,2001-07-12 07:00,ZBAA 120700Z AUTO 27006KT 6SM 39/10 A2944 RMK T03900100 IEM_DS3505
ZBAA,2001-07-12 08:00,ZBAA 120800Z AUTO 6SM 40/11 A2941 RMK T04000110 IEM_DS3505
ZBAA,2001-07-12 09:00,ZBAA 120900Z AUTO 16008KT 19SM 38/12 A2941 RMK SLP957 T03770125 57012 IEM_DS3505
ZBAA,2001-07-12 10:00,ZBAA 121000Z AUTO 18008KT 6SM 36/15 A2941 RMK T03600150 IEM_DS3505
ZBAA,2001-07-12 11:00,ZBAA 121100Z AUTO 18008KT 6SM 35/15 A2944 RMK T03500150 IEM_DS3505
ZBAA,2001-07-12 12:00,ZBAA 121200Z AUTO 20004KT 19SM 33/18 A2947 RMK SLP973 T03330175 52016 IEM_DS3505
ZBAA,2001-07-12 13:00,ZBAA 121300Z AUTO 13004KT 6SM 30/16 A2950 RMK T03000160 IEM_DS3505
ZBAA,2001-07-12 14:00,ZBAA 121400Z AUTO 05004KT 6SM 30/16 A2950 RMK T03000160 IEM_DS3505
ZBAA,2001-07-12 15:00,ZBAA 121500Z AUTO 25002KT 12SM 30/18 A2953 RMK SLP985 T02990182 52012 IEM_DS3505
ZBAA,2001-07-12 16:00,ZBAA 121600Z AUTO 10006KT 6SM 29/16 A2953 RMK T02900160 IEM_DS3505
ZBAA,2001-07-12 17:00,ZBAA 121700Z AUTO 08002KT 6SM 28/17 A2953 RMK T02800170 IEM_DS3505
ZBAA,2001-07-12 18:00,ZBAA 121800Z AUTO 09006KT 6SM 28/17 A2956 RMK SLP997 T02760168 52012 IEM_DS3505
ZBAA,2001-07-12 19:00,ZBAA 121900Z AUTO 6SM 26/18 A2959 RMK T02600180 IEM_DS3505
ZBAA,2001-07-12 20:00,ZBAA 122000Z AUTO 6SM 26/18 A2959 RMK T02600180 IEM_DS3505
ZBAA,2001-07-12 21:00,ZBAA 122100Z AUTO 07006KT 6SM 26/17 A2962 RMK SLP017 T02620172 52020 IEM_DS3505
ZBAA,2001-07-12 22:00,ZBAA 122200Z AUTO 35006KT 6SM 24/19 A2962 RMK T02400190 IEM_DS3505
ZBAA,2001-07-12 23:00,ZBAA 122300Z AUTO 35004KT 6SM 26/18 A2965 RMK T02600180 IEM_DS3505
ZBAA,2001-07-13 00:00,ZBAA 130000Z AUTO 07008KT 9SM 28/16 A2968 RMK SLP035 T02790164 52017 IEM_DS3505
ZBAA,2001-07-13 01:00,ZBAA 130100Z AUTO 6SM 28/19 A2968 RMK T02800190 IEM_DS3505
ZBAA,2001-07-13 02:00,ZBAA 130200Z AUTO 08004KT 6SM 29/18 A2968 RMK T02900180 IEM_DS3505
ZBAA,2001-07-13 03:00,ZBAA 130300Z AUTO 07008KT 6SM 29/17 RMK SLP040 T02870167 52005 IEM_DS3505
ZBAA,2001-07-13 04:00,ZBAA 130400Z AUTO 6SM 32/18 A2968 RMK T03200180 IEM_DS3505
ZBAA,2001-07-13 05:00,ZBAA 130500Z AUTO 13006KT 6SM 32/18 A2965 RMK T03200180 IEM_DS3505
ZBAA,2001-07-13 06:00,ZBAA 130600Z AUTO 09008KT 6SM 31/18 A2965 RMK SLP036 T03100181 57004 IEM_DS3505
ZBAA,2001-07-13 07:00,ZBAA 130700Z AUTO 12004KT 6SM 31/19 A2965 RMK T03100190 IEM_DS3505
ZBAA,2001-07-13 08:00,ZBAA 130800Z AUTO 10004KT 6SM 30/19 A2965 RMK T03000190 IEM_DS3505
ZBAA,2001-07-13 09:00,ZBAA 130900Z AUTO 14006KT 9SM 30/19 A2962 RMK SLP034 T03000192 57002 IEM_DS3505
ZBAA,2001-07-13 10:00,ZBAA 131000Z AUTO 08004KT 6SM 30/19 A2962 RMK T03000190 IEM_DS3505
ZBAA,2001-07-13 11:00,ZBAA 131100Z AUTO 11004KT 6SM 29/19 A2968 RMK T02900190 IEM_DS3505
ZBAA,2001-07-13 12:00,ZBAA 131200Z AUTO 11002KT 9SM 29/20 A2971 RMK 60003 SLP055 T02880199 52021 IEM_DS3505
ZBAA,2001-07-13 13:00,ZBAA 131300Z AUTO 07006KT 6SM 27/15 A2974 RMK T02700150 IEM_DS3505
ZBAA,2001-07-13 14:00,ZBAA 131400Z AUTO 10006KT 6SM 23/20 A2971 RMK T02300200 IEM_DS3505
ZBAA,2001-07-13 15:00,ZBAA 131500Z AUTO 09004KT 7SM 24/18 A2974 RMK SLP059 T02420184 52004 IEM_DS3505
ZBAA,2001-07-13 16:00,ZBAA 131600Z AUTO 26004KT 6SM 23/19 A2974 RMK T02300190 IEM_DS3505
ZBAA,2001-07-13 17:00,ZBAA 131700Z AUTO 23004KT 6SM 22/19 A2974 RMK T02200190 IEM_DS3505
ZBAA,2001-07-13 18:00,ZBAA 131800Z AUTO 04002KT 6SM 22/18 A2974 RMK SLP064 T02240178 52005 IEM_DS3505
ZBAA,2001-07-13 19:00,ZBAA 131900Z AUTO 6SM 22/19 A2974 RMK T02200190 IEM_DS3505
ZBAA,2001-07-13 20:00,ZBAA 132000Z AUTO 36004KT 6SM 21/19 A2974 RMK T02100190 IEM_DS3505
ZBAA,2001-07-13 21:00,ZBAA 132100Z AUTO 07004KT 9SM 23/18 A2971 RMK 70003 SLP060 T02260180 57004 IEM_DS3505
ZBAA,2001-07-13 22:00,ZBAA 132200Z AUTO 01006KT 6SM 22/18 A2971 RMK T02200180 IEM_DS3505
ZBAA,2001-07-13 23:00,ZBAA 132300Z AUTO 35004KT 6SM 23/18 A2974 RMK T02300180 IEM_DS3505
ZBAA,2001-07-14 00:00,ZBAA 140000Z AUTO 07004KT 9SM 24/17 A2974 RMK 70003 SLP064 T02440172 52004 IEM_DS3505
ZBAA,2001-07-14 01:00,ZBAA 140100Z AUTO 34006KT 6SM 25/18 A2974 RMK T02500180 IEM_DS3505
ZBAA,2001-07-14 02:00,ZBAA 140200Z AUTO 02004KT 6SM 27/18 A2974 RMK T02700180 IEM_DS3505
ZBAA,2001-07-14 03:00,ZBAA 140300Z AUTO 07006KT 12SM 29/15 A2971 RMK SLP061 T02880152 57003 IEM_DS3505
ZBAA,2001-07-14 04:00,ZBAA 140400Z AUTO 6SM 30/17 A2971 RMK T03000170 IEM_DS3505
ZBAA,2001-07-14 05:00,ZBAA 140500Z AUTO 14006KT 6SM 32/17 A2971 RMK T03200170 IEM_DS3505
ZBAA,2001-07-14 06:00,ZBAA 140600Z AUTO 09006KT 16SM 31/18 A2971 RMK SLP056 T03120183 57005 IEM_DS3505
ZBAA,2001-07-14 07:00,ZBAA 140700Z AUTO 12006KT 6SM 32/19 A2971 RMK T03200190 IEM_DS3505
ZBAA,2001-07-14 08:00,ZBAA 140800Z AUTO 13006KT 6SM 32/19 A2971 RMK T03200190 IEM_DS3505
ZBAA,2001-07-14 09:00,ZBAA 140900Z AUTO 09006KT 19SM 32/18 A2971 RMK SLP050 T03180180 57006 IEM_DS3505
ZBAA,2001-07-14 10:00,ZBAA 141000Z AUTO 11006KT 6SM 30/22 A2971 RMK T03000220 IEM_DS3505
ZBAA,2001-07-14 11:00,ZBAA 141100Z AUTO 12006KT 6SM 29/22 A2971 RMK T02900220 IEM_DS3505
ZBAA,2001-07-14 12:00,ZBAA 141200Z AUTO 14008KT 19SM 28/21 A2971 RMK SLP059 T02840214 52009 IEM_DS3505
ZBAA,2001-07-14 13:00,ZBAA 141300Z AUTO 11002KT 6SM 26/22 A2974 RMK T02600220 IEM_DS3505
ZBAA,2001-07-14 14:00,ZBAA 141400Z AUTO 13004KT 6SM 26/22 A2974 RMK T02600220 IEM_DS3505
ZBAA,2001-07-14 15:00,ZBAA 141500Z AUTO 16004KT 19SM 25/20 A2974 RMK SLP069 T02520197 52010 IEM_DS3505
ZBAA,2001-07-14 16:00,ZBAA 141600Z AUTO 6SM 25/21 A2977 RMK T02500210 IEM_DS3505
ZBAA,2001-07-14 17:00,ZBAA 141700Z AUTO 10002KT 6SM 24/21 A2977 RMK T02400210 IEM_DS3505
ZBAA,2001-07-14 18:00,ZBAA 141800Z AUTO 14004KT 12SM 23/20 A2977 RMK SLP068 T02340197 57001 IEM_DS3505
ZBAA,2001-07-14 19:00,ZBAA 141900Z AUTO 08002KT 6SM 22/20 A2977 RMK T02200200 IEM_DS3505
ZBAA,2001-07-14 20:00,ZBAA 142000Z AUTO 10002KT 6SM 21/20 A2974 RMK T02100200 IEM_DS3505
ZBAA,2001-07-14 21:00,ZBAA 142100Z AUTO 00000KT 9SM 23/20 A2977 RMK SLP072 T02270196 52004 IEM_DS3505
ZBAA,2001-07-14 22:00,ZBAA 142200Z AUTO 6SM 22/20 A2977 RMK T02200200 IEM_DS3505
ZBAA,2001-07-14 23:00,ZBAA 142300Z AUTO 24/22 A2977 RMK T02400220 IEM_DS3505
ZBAA,2001-07-15 00:00,ZBAA 150000Z AUTO 25004KT 5SM 25/21 A2980 RMK SLP084 T02540207 52012 IEM_DS3505
ZBAA,2001-07-15 01:00,ZBAA 150100Z AUTO 14002KT 6SM 27/22 A2980 RMK T02700220 IEM_DS3505
ZBAA,2001-07-15 02:00,ZBAA 150200Z AUTO 17002KT 6SM 29/22 A2977 RMK T02900220 IEM_DS3505
ZBAA,2001-07-15 03:00,ZBAA 150300Z AUTO 20006KT 7SM 30/22 A2977 RMK SLP075 T03010217 57009 IEM_DS3505
ZBAA,2001-07-15 04:00,ZBAA 150400Z AUTO 6SM 32/23 A2974 RMK T03200230 IEM_DS3505
ZBAA,2001-07-15 05:00,ZBAA 150500Z AUTO 6SM 33/23 A2974 RMK T03300230 IEM_DS3505
ZBAA,2001-07-15 06:00,ZBAA 150600Z AUTO 22006KT 7SM 33/19 A2971 RMK SLP060 T03340193 57015 IEM_DS3505
ZBAA,2001-07-15 07:00,ZBAA 150700Z AUTO 17006KT 6SM RMK IEM_DS3505
ZBAA,2001-07-15 08:00,ZBAA 150800Z AUTO 15006KT RMK IEM_DS3505
ZBAA,2001-07-15 09:00,ZBAA 150900Z AUTO 22006KT 11SM 34/20 A2968 RMK SLP051 T03420196 57009 IEM_DS3505
ZBAA,2001-07-15 10:00,ZBAA 151000Z AUTO 14004KT 6SM 33/20 A2968 RMK T03300200 IEM_DS3505
ZBAA,2001-07-15 11:00,ZBAA 151100Z AUTO 15004KT 6SM 32/21 A2968 RMK T03200210 IEM_DS3505
ZBAA,2001-07-15 12:00,ZBAA 151200Z AUTO 20004KT 12SM 31/20 A2971 RMK SLP054 T03110197 52003 IEM_DS3505
ZBAA,2001-07-15 13:00,ZBAA 151300Z AUTO 18006KT RMK IEM_DS3505
ZBAA,2001-07-15 14:00,ZBAA 151400Z AUTO 18004KT 6SM 28/21 A2971 RMK T02800210 IEM_DS3505
ZBAA,2001-07-15 15:00,ZBAA 151500Z AUTO 22004KT 10SM 28/19 A2974 RMK SLP061 T02820192 52007 IEM_DS3505
ZBAA,2001-07-15 16:00,ZBAA 151600Z AUTO 19004KT 6SM 26/20 A2974 RMK T02600200 IEM_DS3505
ZBAA,2001-07-15 17:00,ZBAA 151700Z AUTO 19004KT 8SM 26/20 A2974 RMK T02600200 IEM_DS3505
ZBAA,2001-07-15 18:00,ZBAA 151800Z AUTO 18004KT 9SM 26/20 A2974 RMK SLP063 T02590198 52002 IEM_DS3505
ZBAA,2001-07-15 19:00,ZBAA 151900Z AUTO 6SM 24/21 A2974 RMK T02400210 IEM_DS3505
ZBAA,2001-07-15 20:00,ZBAA 152000Z AUTO 15002KT 6SM 23/21 A2974 RMK T02300210 IEM_DS3505
ZBAA,2001-07-15 21:00,ZBAA 152100Z AUTO 00000KT 5SM 24/20 A2974 RMK SLP066 T02440196 52003 IEM_DS3505
ZBAA,2001-07-15 22:00,ZBAA 152200Z AUTO 36002KT 6SM 23/22 A2974 RMK T02300220 IEM_DS3505
ZBAA,2001-07-15 23:00,ZBAA 152300Z AUTO 08002KT 6SM 25/22 A2974 RMK T02500220 IEM_DS3505
ZBAA,2001-07-16 00:00,ZBAA 160000Z AUTO 00000KT 4SM 27/21 A2974 RMK SLP069 T02710211 52003 IEM_DS3505
ZBAA,2001-07-16 01:00,ZBAA 160100Z AUTO 6SM 29/23 A2974 RMK T02900230 IEM_DS3505
ZBAA,2001-07-16 02:00,ZBAA 160200Z AUTO 14004KT 6SM 31/23 A2974 RMK T03100230 IEM_DS3505
ZBAA,2001-07-16 03:00,ZBAA 160300Z AUTO 22004KT 6SM 33/21 A2974 RMK SLP062 T03260208 57007 IEM_DS3505
ZBAA,2001-07-16 04:00,ZBAA 160400Z AUTO 15006KT 6SM 34/22 A2971 RMK T03400220 IEM_DS3505
ZBAA,2001-07-16 05:00,ZBAA 160500Z AUTO 16008KT 6SM RMK IEM_DS3505
ZBAA,2001-07-16 06:00,ZBAA 160600Z AUTO 22008KT 9SM 35/20 A2968 RMK SLP044 T03510200 57018 IEM_DS3505
ZBAA,2001-07-16 07:00,ZBAA 160700Z AUTO 15008KT 6SM 36/21 A2965 RMK T03600210 IEM_DS3505
ZBAA,2001-07-16 08:00,ZBAA 160800Z AUTO 15010KT 6SM 35/20 A2965 RMK T03500200 IEM_DS3505
ZBAA,2001-07-16 09:00,ZBAA 160900Z AUTO 22006KT 12SM 36/18 A2965 RMK SLP033 T03570181 57011 IEM_DS3505
ZBAA,2001-07-16 10:00,ZBAA 161000Z AUTO 15008KT 6SM 34/19 A2965 RMK T03400190 IEM_DS3505
ZBAA,2001-07-16 11:00,ZBAA 161100Z AUTO 15006KT 6SM 33/20 A2965 RMK T03300200 IEM_DS3505
ZBAA,2001-07-16 12:00,ZBAA 161200Z AUTO 20006KT 6SM 32/20 A2965 RMK SLP035 T03220201 52002 IEM_DS3505
ZBAA,2001-07-16 13:00,ZBAA 161300Z AUTO 18006KT 6SM 31/21 A2968 RMK T03100210 IEM_DS3505
ZBAA,2001-07-16 14:00,ZBAA 161400Z AUTO 18004KT 6SM 29/21 A2968 RMK T02900210 IEM_DS3505
ZBAA,2001-07-16 15:00,ZBAA 161500Z AUTO 22006KT 6SM 29/21 A2968 RMK SLP039 T02920210 52004 IEM_DS3505
ZBAA,2001-07-16 16:00,ZBAA 161600Z AUTO 15004KT 6SM 27/22 A2968 RMK T02700220 IEM_DS3505
ZBAA,2001-07-16 17:00,ZBAA 161700Z AUTO 14002KT 6SM RMK IEM_DS3505
ZBAA,2001-07-16 18:00,ZBAA 161800Z AUTO 18004KT 6SM 27/21 RMK SLP038 T02720213 57001 IEM_DS3505
ZBAA,2001-07-16 19:00,ZBAA 161900Z AUTO 12006KT 10SM 26/22 A2965 RMK T02600220 IEM_DS3505
ZBAA,2001-07-16 20:00,ZBAA 162000Z AUTO 11004KT 6SM 25/22 A2965 RMK T02500220 IEM_DS3505
ZBAA,2001-07-16 21:00,ZBAA 162100Z AUTO 18004KT 5SM 26/21 A2965 RMK SLP042 T02610208 52004 IEM_DS3505
ZBAA,2001-07-16 22:00,ZBAA 162200Z AUTO 25SM 24/23 A2968 RMK T02400230 IEM_DS3505
ZBAA,2001-07-16 23:00,ZBAA 162300Z AUTO 6SM 25/23 A2968 RMK T02500230 IEM_DS3505
ZBAA,2001-07-17 00:00,ZBAA 170000Z AUTO 22006KT 4SM 28/22 A2968 RMK SLP048 T02770218 52006 IEM_DS3505
ZBAA,2001-07-17 01:00,ZBAA 170100Z AUTO 15004KT 6SM 30/24 A2968 RMK T03000240 IEM_DS3505
ZBAA,2001-07-17 02:00,ZBAA 170200Z AUTO 16006KT 6SM 32/24 A2968 RMK T03200240 IEM_DS3505
ZBAA,2001-07-17 03:00,ZBAA 170300Z AUTO 22010KT 6SM 34/19 A2968 RMK SLP047 T03360192 57001 IEM_DS3505
ZBAA,2001-07-17 04:00,ZBAA 170400Z AUTO 17010KT 6SM 35/20 A2965 RMK T03500200 IEM_DS3505
ZBAA,2001-07-17 05:00,ZBAA 170500Z AUTO 20010KT 6SM 36/18 A2965 RMK T03600180 IEM_DS3505
ZBAA,2001-07-17 06:00,ZBAA 170600Z AUTO 20010KT 9SM 36/18 A2962 RMK SLP034 T03560184 57013 IEM_DS3505
ZBAA,2001-07-17 07:00,ZBAA 170700Z AUTO 16012KT 6SM 35/19 A2962 RMK T03500190 IEM_DS3505
ZBAA,2001-07-17 08:00,ZBAA 170800Z AUTO 16014KT 6SM 35/18 A2959 RMK T03500180 IEM_DS3505
ZBAA,2001-07-17 09:00,ZBAA 170900Z AUTO 22010KT 9SM 35/16 A2959 RMK SLP021 T03510163 57013 IEM_DS3505
ZBAA,2001-07-17 10:00,ZBAA 171000Z AUTO 20014KT 6SM 34/16 A2959 RMK T03400160 IEM_DS3505
ZBAA,2001-07-17 11:00,ZBAA 171100Z AUTO 16006KT 6SM 32/19 A2959 RMK T03200190 IEM_DS3505
ZBAA,2001-07-17 12:00,ZBAA 171200Z AUTO 22006KT 6SM 32/18 A2962 RMK SLP024 T03200179 52003 IEM_DS3505
ZBAA,2001-07-17 13:00,ZBAA 171300Z AUTO 18008KT 6SM 30/17 A2962 RMK T03000170 IEM_DS3505
ZBAA,2001-07-17 14:00,ZBAA 171400Z AUTO 15004KT 6SM 28/19 A2962 RMK T02800190 IEM_DS3505
ZBAA,2001-07-17 15:00,ZBAA 171500Z AUTO 18004KT 9SM 29/19 A2962 RMK SLP025 T02920190 52002 IEM_DS3505
ZBAA,2001-07-17 16:00,ZBAA 171600Z AUTO 15004KT 6SM 27/20 A2962 RMK T02700200 IEM_DS3505
ZBAA,2001-07-17 17:00,ZBAA 171700Z AUTO 16004KT 6SM 27/20 A2962 RMK T02700200 IEM_DS3505
ZBAA,2001-07-17 18:00,ZBAA 171800Z AUTO 22004KT 9SM 27/20 A2962 RMK SLP026 T02700199 54000 IEM_DS3505
ZBAA,2001-07-17 19:00,ZBAA 171900Z AUTO 15004KT 6SM 26/21 A2962 RMK T02600210 IEM_DS3505
ZBAA,2001-07-17 20:00,ZBAA 172000Z AUTO 15004KT 6SM 25/21 A2962 RMK T02500210 IEM_DS3505
ZBAA,2001-07-17 21:00,ZBAA 172100Z AUTO 18004KT 5SM 26/20 A2962 RMK SLP024 T02560198 57002 IEM_DS3505
ZBAA,2001-07-17 22:00,ZBAA 172200Z AUTO 14004KT 20SM 25/21 A2962 RMK T02500210 IEM_DS3505
ZBAA,2001-07-17 23:00,ZBAA 172300Z AUTO 13004KT 6SM 26/22 A2962 RMK T02600220 IEM_DS3505
ZBAA,2001-07-18 00:00,ZBAA 180000Z AUTO 22006KT 5SM 28/20 A2962 RMK SLP026 T02770202 52002 IEM_DS3505
ZBAA,2001-07-18 01:00,ZBAA 180100Z AUTO 15006KT 10SM 30/21 A2962 RMK T03000210 IEM_DS3505
ZBAA,2001-07-18 02:00,ZBAA 180200Z AUTO 20012KT 6SM 32/19 A2962 RMK T03200190 IEM_DS3505
ZBAA,2001-07-18 03:00,ZBAA 180300Z AUTO 25012KT 12SM 31/19 A2962 RMK SLP031 T03130187 52005 IEM_DS3505
ZBAA,2001-07-18 04:00,ZBAA 180400Z AUTO 18014KT 6SM 34/18 A2962 RMK T03400180 IEM_DS3505
ZBAA,2001-07-18 05:00,ZBAA 180500Z AUTO 17010KT 6SM 34/19 A2962 RMK T03400190 IEM_DS3505
ZBAA,2001-07-18 06:00,ZBAA 180600Z AUTO 18010KT 19SM 33/19 A2959 RMK SLP021 T03310187 57010 IEM_DS3505
ZBAA,2001-07-18 07:00,ZBAA 180700Z AUTO 19012KT 6SM 34/19 A2959 RMK T03400190 IEM_DS3505
ZBAA,2001-07-18 08:00,ZBAA 180800Z AUTO 17010KT 6SM 33/18 A2959 RMK T03300180 IEM_DS3505
ZBAA,2001-07-18 09:00,ZBAA 180900Z AUTO 20010KT 19SM 33/18 A2959 RMK SLP014 T03290179 57007 IEM_DS3505
ZBAA,2001-07-18 10:00,ZBAA 181000Z AUTO 18008KT 6SM 32/18 A2959 RMK T03200180 IEM_DS3505
ZBAA,2001-07-18 11:00,ZBAA 181100Z AUTO 18008KT 6SM 32/18 A2959 RMK T03200180 IEM_DS3505
ZBAA,2001-07-18 12:00,ZBAA 181200Z AUTO 20004KT 12SM 31/19 A2959 RMK SLP016 T03110186 52002 IEM_DS3505
ZBAA,2001-07-18 13:00,ZBAA 181300Z AUTO 14006KT 6SM 30/22 A2962 RMK T03000220 IEM_DS3505
ZBAA,2001-07-18 14:00,ZBAA 181400Z AUTO 14006KT 10SM 29/22 A2962 RMK T02900220 IEM_DS3505
ZBAA,2001-07-18 15:00,ZBAA 181500Z AUTO 16006KT 11SM 28/20 A2962 RMK SLP025 T02800203 52009 IEM_DS3505
ZBAA,2001-07-18 16:00,ZBAA 181600Z AUTO 14004KT 6SM 27/21 A2962 RMK T02700210 IEM_DS3505
ZBAA,2001-07-18 17:00,ZBAA 181700Z AUTO 12004KT 6SM 27/21 A2962 RMK T02700210 IEM_DS3505
ZBAA,2001-07-18 18:00,ZBAA 181800Z AUTO 13004KT 6SM 26/21 A2962 RMK T02600210 IEM_DS3505
ZBAA,2001-07-18 20:00,ZBAA 182000Z AUTO 16004KT 6SM 26/21 A2959 RMK T02600210 IEM_DS3505
ZBAA,2001-07-18 21:00,ZBAA 182100Z AUTO 20004KT 6SM 26/20 RMK SLP021 T02630196 57002 IEM_DS3505
ZBAA,2001-07-18 22:00,ZBAA 182200Z AUTO 35004KT 6SM 26/22 A2962 RMK T02600220 IEM_DS3505
ZBAA,2001-07-18 23:00,ZBAA 182300Z AUTO 34006KT 6SM 23/23 A2965 RMK T02300230 IEM_DS3505
ZBAA,2001-07-19 00:00,ZBAA 190000Z AUTO 36002KT 4SM 24/22 A2965 RMK 60004 SLP038 T02390221 52017 IEM_DS3505
ZBAA,2001-07-19 01:00,ZBAA 190100Z AUTO 05002KT 6SM 23/23 A2968 RMK T02300230 IEM_DS3505
ZBAA,2001-07-19 02:00,ZBAA 190200Z AUTO 01002KT 6SM 22/22 A2968 RMK T02200220 IEM_DS3505
ZBAA,2001-07-19 03:00,ZBAA 190300Z AUTO 04004KT 4SM 23/22 A2968 RMK SLP044 T02320222 52006 IEM_DS3505
ZBAA,2001-07-19 04:00,ZBAA 190400Z AUTO 6SM 24/23 A2968 RMK T02400230 IEM_DS3505
ZBAA,2001-07-19 05:00,ZBAA 190500Z AUTO 04002KT 6SM 26/24 A2968 RMK T02600240 IEM_DS3505
ZBAA,2001-07-19 06:00,ZBAA 190600Z AUTO 11002KT 6SM 28/23 A2965 RMK 60020 SLP036 T02800228 57008 IEM_DS3505
ZBAA,2001-07-19 07:00,ZBAA 190700Z AUTO 6SM 29/23 A2962 RMK T02900230 IEM_DS3505
ZBAA,2001-07-19 08:00,ZBAA 190800Z AUTO 15004KT 6SM 29/23 A2962 RMK T02900230 IEM_DS3505
ZBAA,2001-07-19 09:00,ZBAA 190900Z AUTO 18004KT 7SM 30/21 A2962 RMK SLP024 T02970213 57012 IEM_DS3505
ZBAA,2001-07-19 10:00,ZBAA 191000Z AUTO 14004KT 6SM 29/23 A2962 RMK T02900230 IEM_DS3505
ZBAA,2001-07-19 11:00,ZBAA 191100Z AUTO 13004KT 6SM 27/23 A2962 RMK T02700230 IEM_DS3505
ZBAA,2001-07-19 12:00,ZBAA 191200Z AUTO 20004KT 4SM 28/22 A2965 RMK SLP034 T02750224 52010 IEM_DS3505
ZBAA,2001-07-19 13:00,ZBAA 191300Z AUTO 13004KT 6SM 26/23 A2965 RMK T02600230 IEM_DS3505
ZBAA,2001-07-19 14:00,ZBAA 191400Z AUTO 14004KT 6SM 25/23 A2968 RMK T02500230 IEM_DS3505
ZBAA,2001-07-19 15:00,ZBAA 191500Z AUTO 14004KT 3SM 25/22 A2968 RMK SLP045 T02470222 52011 IEM_DS3505
ZBAA,2001-07-19 16:00,ZBAA 191600Z AUTO 13004KT 6SM 24/23 A2968 RMK T02400230 IEM_DS3505
ZBAA,2001-07-19 17:00,ZBAA 191700Z AUTO 12002KT 6SM 24/23 A2968 RMK T02400230 IEM_DS3505
ZBAA,2001-07-19 18:00,ZBAA 191800Z AUTO 00000KT 2 1/2SM 24/22 A2968 RMK SLP043 T02420220 57002 IEM_DS3505
ZBAA,2001-07-19 20:00,ZBAA 192000Z AUTO 6SM 24/23 A2968 RMK T02400230 IEM_DS3505
ZBAA,2001-07-19 21:00,ZBAA 192100Z AUTO 00000KT 2 1/2SM 23/22 A2968 RMK 70026 SLP043 T02320220 54000 IEM_DS3505
ZBAA,2001-07-19 22:00,ZBAA 192200Z AUTO 17002KT 6SM 23/23 A2968 RMK T02300230 IEM_DS3505
ZBAA,2001-07-19 23:00,ZBAA 192300Z AUTO 6SM 24/23 A2968 RMK T02400230 IEM_DS3505
ZBAA,2001-07-20 00:00,ZBAA 200000Z AUTO 00000KT 2 1/2SM 26/23 A2968 RMK 70021 SLP046 T02550229 52003 IEM_DS3505
ZBAA,2001-07-20 01:00,ZBAA 200100Z AUTO 07002KT 6SM 26/24 A2968 RMK T02600240 IEM_DS3505
ZBAA,2001-07-20 02:00,ZBAA 200200Z AUTO 03002KT 6SM 27/24 A2971 RMK T02700240 IEM_DS3505
ZBAA,2001-07-20 03:00,ZBAA 200300Z AUTO 04004KT 4SM 28/23 A2968 RMK SLP046 T02820228 54000 IEM_DS3505
ZBAA,2001-07-20 04:00,ZBAA 200400Z AUTO 11002KT 6SM 29/25 A2968 RMK T02900250 IEM_DS3505
ZBAA,2001-07-20 05:00,ZBAA 200500Z AUTO 6SM 31/25 A2965 RMK T03100250 IEM_DS3505
ZBAA,2001-07-20 06:00,ZBAA 200600Z AUTO 22004KT 5SM 31/22 A2965 RMK SLP039 T03060223 57007 IEM_DS3505
ZBAA,2001-07-20 07:00,ZBAA 200700Z AUTO 17004KT 6SM 32/25 A2965 RMK T03200250 IEM_DS3505
ZBAA,2001-07-20 08:00,ZBAA 200800Z AUTO 17008KT 6SM 30/24 A2965 RMK T03000240 IEM_DS3505
ZBAA,2001-07-20 09:00,ZBAA 200900Z AUTO 22006KT 5SM 29/22 A2962 RMK SLP032 T02930221 57007 IEM_DS3505
ZBAA,2001-07-20 10:00,ZBAA 201000Z AUTO 15004KT 12SM 29/25 A2962 RMK T02900250 IEM_DS3505
ZBAA,2001-07-20 11:00,ZBAA 201100Z AUTO 06002KT 6SM 29/24 A2962 RMK T02900240 IEM_DS3505
ZBAA,2001-07-20 12:00,ZBAA 201200Z AUTO 22004KT 4SM 28/23 A2965 RMK SLP031 T02790234 57001 IEM_DS3505
ZBAA,2001-07-20 13:00,ZBAA 201300Z AUTO 13004KT 6SM 26/25 A2965 RMK T02600250 IEM_DS3505
ZBAA,2001-07-20 14:00,ZBAA 201400Z AUTO 14002KT 26/24 A2965 RMK T02600240 IEM_DS3505
ZBAA,2001-07-20 15:00,ZBAA 201500Z AUTO 18004KT 3SM 26/24 A2968 RMK SLP042 T02630239 52011 IEM_DS3505
ZBAA,2001-07-20 16:00,ZBAA 201600Z AUTO 22006KT 6SM 27/24 A2965 RMK T02700240 IEM_DS3505
ZBAA,2001-07-20 17:00,ZBAA 201700Z AUTO 16010KT 6SM 23/21 A2968 RMK T02300210 IEM_DS3505
ZBAA,2001-07-20 18:00,ZBAA 201800Z AUTO 29006KT 6SM 24/21 A2965 RMK 60004 SLP037 T02350208 57005 IEM_DS3505
ZBAA,2001-07-20 19:00,ZBAA 201900Z AUTO 23/21 A2965 RMK T02300210 IEM_DS3505
ZBAA,2001-07-20 20:00,ZBAA 202000Z AUTO 16004KT 6SM 22/21 A2968 RMK T02200210 IEM_DS3505
ZBAA,2001-07-20 21:00,ZBAA 202100Z AUTO 04004KT 6SM 22/20 A2965 RMK 70014 SLP036 T02160196 57001 IEM_DS3505
ZBAA,2001-07-20 22:00,ZBAA 202200Z AUTO 36004KT 6SM 21/21 A2968 RMK T02100210 IEM_DS3505
ZBAA,2001-07-20 23:00,ZBAA 202300Z AUTO 1SM 21/21 A2968 RMK T02100210 IEM_DS3505
ZBAA,2001-07-21 00:00,ZBAA 210000Z AUTO 02004KT 4SM 20/20 A2968 RMK 60071 SLP039 T02040195 52003 IEM_DS3505
ZBAA,2001-07-21 01:00,ZBAA 210100Z AUTO 02002KT 6SM 20/20 A2968 RMK T02000200 IEM_DS3505
ZBAA,2001-07-21 02:00,ZBAA 210200Z AUTO 35008KT 6SM 21/21 A2965 RMK T02100210 IEM_DS3505
ZBAA,2001-07-21 03:00,ZBAA 210300Z AUTO 36008KT 4SM 21/20 A2965 RMK SLP038 T02080200 57002 IEM_DS3505
ZBAA,2001-07-21 04:00,ZBAA 210400Z AUTO 35008KT 6SM 21/21 A2965 RMK T02100210 IEM_DS3505
ZBAA,2001-07-21 05:00,ZBAA 210500Z AUTO 02006KT 6SM 22/22 A2965 RMK T02200220 IEM_DS3505
ZBAA,2001-07-21 06:00,ZBAA 210600Z AUTO 04004KT 5SM 22/20 A2962 RMK 60106 SLP029 T02190204 57009 IEM_DS3505
ZBAA,2001-07-21 07:00,ZBAA 210700Z 01003MPS 330V060 4000 -RA BR SCT010 OVC030 22/22 Q1003 NOSIG
ZBAA,2001-07-21 08:00,ZBAA 210800Z 01003MPS 340V050 4000 -RA BR SCT010 OVC030 22/22 Q1003 NOSIG
ZBAA,2001-07-21 08:30,ZBAA 210830Z 01003MPS 330V080 4000 -RA BR SCT010 OVC030 21/21 Q1003 NOSIG
ZBAA,2001-07-21 09:00,ZBAA 210900Z 01003MPS 300V080 5000 -RA BR SCT010 OVC030 21/21 Q1003 NOSIG
ZBAA,2001-07-21 09:38,ZBAA 210938Z 02002MPS 5000 -RA BR BKN010 OVC030 21/21 Q1003 NOSIG
ZBAA,2001-07-21 10:00,ZBAA 211000Z 02002MPS 4000 -RA BR BKN010 OVC030 21/21 Q1003 NOSIG
ZBAA,2001-07-21 10:30,ZBAA 211030Z VRB01MPS 2500 -RA BR BKN010 OVC030 21/21 Q1003 NOSIG
ZBAA,2001-07-21 11:00,ZBAA 211100Z 03001MPS 5000 -RA BR BKN010 OVC030 21/21 Q1003 NOSIG
ZBAA,2001-07-21 12:00,ZBAA 211200Z 01002MPS 4000 -RA BR BKN010 OVC040 21/21 Q1004 NOSIG
ZBAA,2001-07-21 13:00,ZBAA 211300Z AUTO 02004KT 6SM 21/21 A2968 RMK T02100210 IEM_DS3505
ZBAA,2001-07-21 14:00,ZBAA 211400Z AUTO 36004KT 6SM 21/21 A2968 RMK T02100210 IEM_DS3505
ZBAA,2001-07-21 15:00,ZBAA 211500Z AUTO 00000KT 6SM 21/20 A2968 RMK SLP042 T02120204 52011 IEM_DS3505
ZBAA,2001-07-21 16:00,ZBAA 211600Z AUTO 36002KT 6SM 21/21 A2968 RMK T02100210 IEM_DS3505
ZBAA,2001-07-21 17:00,ZBAA 211700Z AUTO 30004KT 6SM 21/21 A2965 RMK T02100210 IEM_DS3505
ZBAA,2001-07-21 18:00,ZBAA 211800Z AUTO 00000KT 5SM 21/20 A2965 RMK 60002 SLP037 T02080200 57005 IEM_DS3505
ZBAA,2001-07-21 19:00,ZBAA 211900Z AUTO 6SM 20/20 A2965 RMK T02000200 IEM_DS3505
ZBAA,2001-07-21 20:00,ZBAA 212000Z AUTO 12SM 20/20 A2965 RMK T02000200 IEM_DS3505
ZBAA,2001-07-21 21:00,ZBAA 212100Z AUTO 14002KT 4SM 21/20 A2968 RMK 70183 SLP039 T02100204 52002 IEM_DS3505
ZBAA,2001-07-21 22:00,ZBAA 212200Z AUTO 26002KT 6SM 21/21 A2968 RMK T02100210 IEM_DS3505
ZBAA,2001-07-21 23:00,ZBAA 212300Z AUTO 6SM 21/21 A2968 RMK T02100210 IEM_DS3505
ZBAA,2001-07-22 00:00,ZBAA 220000Z AUTO 27004KT 5SM 22/20 A2971 RMK 70120 SLP051 T02200203 52012 IEM_DS3505
ZBAA,2001-07-22 01:00,ZBAA 220100Z AUTO 25004KT 6SM 23/22 A2971 RMK T02300220 IEM_DS3505
ZBAA,2001-07-22 02:00,ZBAA 220200Z AUTO 26004KT RMK IEM_DS3505
ZBAA,2001-07-22 03:00,ZBAA 220300Z AUTO 22006KT 5SM 25/21 RMK SLP056 T02470209 52005 IEM_DS3505
ZBAA,2001-07-22 04:00,ZBAA 220400Z AUTO 6SM RMK IEM_DS3505
ZBAA,2001-07-22 05:00,ZBAA 220500Z AUTO 6SM RMK IEM_DS3505
ZBAA,2001-07-22 06:00,ZBAA 220600Z AUTO 18004KT 6SM 28/22 RMK SLP046 T02820216 57009 IEM_DS3505
ZBAA,2001-07-22 07:00,ZBAA 220700Z AUTO 18010KT 6SM 29/24 A2968 RMK T02900240 IEM_DS3505
ZBAA,2001-07-22 08:00,ZBAA 220800Z AUTO 17008KT 6SM 29/23 A2968 RMK T02900230 IEM_DS3505
ZBAA,2001-07-22 09:00,ZBAA 220900Z AUTO 22006KT 6SM 28/22 A2968 RMK SLP044 T02820216 57002 IEM_DS3505
ZBAA,2001-07-22 10:00,ZBAA 221000Z AUTO 20006KT 9SM RMK IEM_DS3505
ZBAA,2001-07-22 11:00,ZBAA 221100Z AUTO 18004KT 6SM 27/23 A2968 RMK T02700230 IEM_DS3505
ZBAA,2001-07-22 12:00,ZBAA 221200Z AUTO 16004KT 5SM 26/22 A2968 RMK SLP048 T02610224 52004 IEM_DS3505
ZBAA,2001-07-22 13:00,ZBAA 221300Z AUTO 15004KT 6SM 25/23 A2971 RMK T02500230 IEM_DS3505
ZBAA,2001-07-22 14:00,ZBAA 221400Z AUTO 6SM 24/23 A2974 RMK T02400230 IEM_DS3505
ZBAA,2001-07-22 15:00,ZBAA 221500Z AUTO 11004KT 4SM 24/22 A2974 RMK SLP066 T02440225 52018 IEM_DS3505
ZBAA,2001-07-22 16:00,ZBAA 221600Z AUTO 13002KT 24/23 A2974 RMK T02400230 IEM_DS3505
ZBAA,2001-07-22 17:00,ZBAA 221700Z AUTO 6SM 23/23 A2974 RMK T02300230 IEM_DS3505
ZBAA,2001-07-22 18:00,ZBAA 221800Z AUTO 11002KT 4SM 24/23 A2974 RMK SLP061 T02400227 57005 IEM_DS3505
ZBAA,2001-07-22 19:00,ZBAA 221900Z AUTO 10002KT 6SM 23/23 A2971 RMK T02300230 IEM_DS3505
ZBAA,2001-07-22 20:00,ZBAA 222000Z AUTO 23/23 A2971 RMK T02300230 IEM_DS3505
ZBAA,2001-07-22 21:00,ZBAA 222100Z AUTO 00000KT 2 1/2SM 24/23 A2974 RMK SLP061 T02370227 54000 IEM_DS3505
ZBAA,2001-07-22 22:00,ZBAA 222200Z AUTO 6SM 23/23 A2974 RMK T02300230 IEM_DS3505
ZBAA,2001-07-22 23:00,ZBAA 222300Z AUTO 6SM 24/23 A2974 RMK T02400230 IEM_DS3505
ZBAA,2001-07-23 00:00,ZBAA 230000Z AUTO 09002KT 2SM 25/23 A2977 RMK SLP070 T02480232 52009 IEM_DS3505
ZBAA,2001-07-23 01:00,ZBAA 230100Z AUTO 10002KT 6SM 25/24 A2977 RMK T02500240 IEM_DS3505
ZBAA,2001-07-23 02:00,ZBAA 230200Z AUTO 07002KT 6SM 26/25 A2974 RMK T02600250 IEM_DS3505
ZBAA,2001-07-23 03:00,ZBAA 230300Z AUTO 14002KT 1 1/4SM 26/24 A2974 RMK SLP068 T02650235 57002 IEM_DS3505
ZBAA,2001-07-23 04:00,ZBAA 230400Z AUTO 6SM 26/25 A2974 RMK T02600250 IEM_DS3505
ZBAA,2001-07-23 05:00,ZBAA 230500Z AUTO 06002KT 6SM 27/26 A2974 RMK T02700260 IEM_DS3505
ZBAA,2001-07-23 06:00,ZBAA 230600Z AUTO 27004KT 2 1/2SM 29/24 A2971 RMK SLP060 T02870241 57008 IEM_DS3505
ZBAA,2001-07-23 07:00,ZBAA 230700Z AUTO 6SM 28/26 A2971 RMK T02800260 IEM_DS3505
ZBAA,2001-07-23 08:00,ZBAA 230800Z AUTO 01004KT 6SM 28/26 A2971 RMK T02800260 IEM_DS3505
ZBAA,2001-07-23 09:00,ZBAA 230900Z AUTO 09004KT 1 1/4SM 30/25 A2968 RMK SLP047 T02960248 57013 IEM_DS3505
ZBAA,2001-07-23 10:00,ZBAA 231000Z AUTO 36004KT 6SM 27/25 A2968 RMK T02700250 IEM_DS3505
ZBAA,2001-07-23 11:00,ZBAA 231100Z AUTO 6SM 27/25 A2968 RMK T02700250 IEM_DS3505
ZBAA,2001-07-23 12:00,ZBAA 231200Z AUTO 00000KT 2 1/2SM 28/25 A2968 RMK SLP044 T02810253 57003 IEM_DS3505
ZBAA,2001-07-23 13:00,ZBAA 231300Z AUTO 6SM 26/25 A2971 RMK T02600250 IEM_DS3505
ZBAA,2001-07-23 14:00,ZBAA 231400Z AUTO 6SM 26/25 A2971 RMK T02600250 IEM_DS3505
ZBAA,2001-07-23 15:00,ZBAA 231500Z AUTO 16004KT 2SM 27/25 A2971 RMK SLP051 T02690246 52007 IEM_DS3505
ZBAA,2001-07-23 16:00,ZBAA 231600Z AUTO 12002KT 6SM 26/25 A2971 RMK T02600250 IEM_DS3505
ZBAA,2001-07-23 17:00,ZBAA 231700Z AUTO 10002KT 31SM 26/25 A2971 RMK T02600250 IEM_DS3505
ZBAA,2001-07-23 18:00,ZBAA 231800Z AUTO 09002KT 2 1/2SM 26/24 A2971 RMK SLP052 T02570244 52001 IEM_DS3505
ZBAA,2001-07-23 19:00,ZBAA 231900Z AUTO 08002KT 6SM 25/25 A2968 RMK T02500250 IEM_DS3505
ZBAA,2001-07-23 20:00,ZBAA 232000Z AUTO 08002KT 6SM 25/25 A2968 RMK T02500250 IEM_DS3505
ZBAA,2001-07-23 21:00,ZBAA 232100Z AUTO 09004KT 2SM 25/24 A2968 RMK SLP048 T02540244 57004 IEM_DS3505
ZBAA,2001-07-23 22:00,ZBAA 232200Z AUTO 08002KT 6SM 25/25 A2968 RMK T02500250 IEM_DS3505
ZBAA,2001-07-23 23:00,ZBAA 232300Z AUTO 12004KT 6SM 25/25 A2968 RMK T02500250 IEM_DS3505
ZBAA,2001-07-24 00:00,ZBAA 240000Z AUTO 11002KT 2SM 26/24 A2971 RMK SLP052 T02560243 52004 IEM_DS3505
ZBAA,2001-07-24 01:00,ZBAA 240100Z AUTO 12006KT 26/25 A2971 RMK T02600250 IEM_DS3505
ZBAA,2001-07-24 02:00,ZBAA 240200Z AUTO 11004KT 6SM 26/26 A2968 RMK T02600260 IEM_DS3505
ZBAA,2001-07-24 03:00,ZBAA 240300Z AUTO 09004KT 3SM 28/25 A2968 RMK SLP046 T02830251 57006 IEM_DS3505
ZBAA,2001-07-24 04:00,ZBAA 240400Z AUTO 10006KT 6SM 28/27 A2968 RMK T02800270 IEM_DS3505
ZBAA,2001-07-24 05:00,ZBAA 240500Z AUTO 10008KT 11SM 30/26 A2965 RMK T03000260 IEM_DS3505
ZBAA,2001-07-24 06:00,ZBAA 240600Z AUTO 14008KT 6SM 31/26 A2962 RMK SLP027 T03080258 57019 IEM_DS3505
ZBAA,2001-07-24 07:00,ZBAA 240700Z AUTO 12008KT 7SM 29/26 A2962 RMK T02900260 IEM_DS3505
ZBAA,2001-07-24 08:00,ZBAA 240800Z AUTO 10014G29KT 6SM 24/23 A2962 RMK T02400230 IEM_DS3505
ZBAA,2001-07-24 09:00,ZBAA 240900Z AUTO 29008KT 7SM 24/23 A2962 RMK SLP030 T02430231 52003 IEM_DS3505
ZBAA,2001-07-24 10:00,ZBAA 241000Z AUTO 32010KT 6SM 23/23 A2962 RMK T02300230 IEM_DS3505
ZBAA,2001-07-24 11:00,ZBAA 241100Z AUTO 07002KT 6SM 23/23 A2965 RMK T02300230 IEM_DS3505
ZBAA,2001-07-24 12:00,ZBAA 241200Z AUTO 04008KT 2SM 24/23 A2962 RMK 60055 SLP024 T02360229 57006 IEM_DS3505
ZBAA,2001-07-24 13:00,ZBAA 241300Z AUTO 03002KT 6SM 23/23 A2962 RMK T02300230 IEM_DS3505
ZBAA,2001-07-24 14:00,ZBAA 241400Z AUTO 01004KT 6SM 23/23 A2959 RMK T02300230 IEM_DS3505
ZBAA,2001-07-24 15:00,ZBAA 241500Z AUTO 32004KT 4SM 23/23 A2959 RMK SLP019 T02340230 57005 IEM_DS3505
ZBAA,2001-07-24 16:00,ZBAA 241600Z AUTO 29008KT 15SM 23/23 A2959 RMK T02300230 IEM_DS3505
ZBAA,2001-07-24 17:00,ZBAA 241700Z AUTO 26004KT 6SM 23/23 A2959 RMK T02300230 IEM_DS3505
ZBAA,2001-07-24 18:00,ZBAA 241800Z AUTO 00000KT 3SM 23/22 A2959 RMK 60185 SLP018 T02320225 57001 IEM_DS3505
ZBAA,2001-07-24 19:00,ZBAA 241900Z AUTO 11002KT 6SM 23/23 A2959 RMK T02300230 IEM_DS3505
ZBAA,2001-07-24 20:00,ZBAA 242000Z AUTO 15002KT 6SM 23/23 A2959 RMK T02300230 IEM_DS3505
ZBAA,2001-07-24 21:00,ZBAA 242100Z AUTO 22004KT 2SM 23/22 A2962 RMK 70238 SLP028 T02280224 52010 IEM_DS3505
ZBAA,2001-07-24 22:00,ZBAA 242200Z AUTO 18004KT 6SM 23/23 A2965 RMK T02300230 IEM_DS3505
ZBAA,2001-07-24 23:00,ZBAA 242300Z AUTO 22002KT 10SM 23/23 A2965 RMK T02300230 IEM_DS3505
ZBAA,2001-07-25 00:00,ZBAA 250000Z AUTO 27004KT 2SM 24/22 A2965 RMK 70238 SLP039 T02350223 52010 IEM_DS3505
ZBAA,2001-07-25 01:00,ZBAA 250100Z AUTO 16002KT 6SM 26/24 A2965 RMK T02600240 IEM_DS3505
ZBAA,2001-07-25 02:00,ZBAA 250200Z AUTO 14002KT 27/24 A2965 RMK T02700240 IEM_DS3505
ZBAA,2001-07-25 03:00,ZBAA 250300Z AUTO 18004KT 3SM 28/23 A2965 RMK SLP039 T02800232 52001 IEM_DS3505
ZBAA,2001-07-25 05:00,ZBAA 250500Z AUTO 14004KT 6SM 30/23 A2965 RMK T03000230 IEM_DS3505
ZBAA,2001-07-25 06:00,ZBAA 250600Z AUTO 18002KT 6SM 30/23 A2965 RMK SLP038 T02980227 57001 IEM_DS3505
ZBAA,2001-07-25 07:00,ZBAA 250700Z AUTO 18006KT 6SM 31/24 A2962 RMK T03100240 IEM_DS3505
ZBAA,2001-07-25 08:00,ZBAA 250800Z AUTO 18006KT 6SM 31/25 A2962 RMK T03100250 IEM_DS3505
ZBAA,2001-07-25 09:00,ZBAA 250900Z AUTO 22008KT 9SM 31/23 RMK SLP028 T03100229 57010 IEM_DS3505
ZBAA,2001-07-25 10:00,ZBAA 251000Z AUTO 18008KT 6SM 30/25 A2962 RMK T03000250 IEM_DS3505
ZBAA,2001-07-25 11:00,ZBAA 251100Z AUTO 18006KT 6SM 29/25 A2962 RMK T02900250 IEM_DS3505
ZBAA,2001-07-25 12:00,ZBAA 251200Z AUTO 22004KT 9SM 29/24 A2965 RMK SLP035 T02860245 52007 IEM_DS3505
ZBAA,2001-07-25 13:00,ZBAA 251300Z AUTO 31021G37KT 6SM A2974 RMK IEM_DS3505
ZBAA,2001-07-25 14:00,ZBAA 251400Z AUTO 26002KT 21/20 A2974 RMK T02100200 IEM_DS3505
ZBAA,2001-07-25 15:00,ZBAA 251500Z AUTO 04004KT 12SM 24/17 A2977 RMK SLP064 T02450173 52029 IEM_DS3505
ZBAA,2001-07-25 16:00,ZBAA 251600Z AUTO 6SM 21/19 A2977 RMK T02100190 IEM_DS3505
ZBAA,2001-07-25 17:00,ZBAA 251700Z AUTO 01006KT 6SM 21/19 A2977 RMK T02100190 IEM_DS3505
ZBAA,2001-07-25 18:00,ZBAA 251800Z AUTO 04006KT 12SM 23/17 A2977 RMK SLP074 T02260166 52010 IEM_DS3505
ZBAA,2001-07-25 19:00,ZBAA 251900Z AUTO 34004KT 6SM 19/18 A2980 RMK T01900180 IEM_DS3505
ZBAA,2001-07-25 20:00,ZBAA 252000Z AUTO 34006KT 6SM 19/18 A2980 RMK T01900180 IEM_DS3505
ZBAA,2001-07-25 21:00,ZBAA 252100Z AUTO 02006KT 11SM 21/16 A2980 RMK SLP080 T02130164 52006 IEM_DS3505
ZBAA,2001-07-25 22:00,ZBAA 252200Z AUTO 34006KT 6SM 20/19 A2980 RMK T02000190 IEM_DS3505
ZBAA,2001-07-25 23:00,ZBAA 252300Z AUTO 34004KT 6SM 21/19 A2980 RMK T02100190 IEM_DS3505
ZBAA,2001-07-26 00:00,ZBAA 260000Z AUTO 07004KT 11SM 24/17 A2980 RMK SLP083 T02430173 52003 IEM_DS3505
ZBAA,2001-07-26 02:00,ZBAA 260200Z AUTO 01004KT 6SM 27/19 A2983 RMK T02700190 IEM_DS3505
ZBAA,2001-07-26 03:00,ZBAA 260300Z AUTO 09004KT 16SM 30/16 A2983 RMK SLP086 T02960162 52003 IEM_DS3505
ZBAA,2001-07-26 04:00,ZBAA 260400Z AUTO 01002KT 6SM 29/21 A2980 RMK T02900210 IEM_DS3505
ZBAA,2001-07-26 05:00,ZBAA 260500Z AUTO 6SM 31/18 A2980 RMK T03100180 IEM_DS3505
ZBAA,2001-07-26 06:00,ZBAA 260600Z AUTO 09006KT 16SM 31/13 A2980 RMK SLP082 T03120129 57004 IEM_DS3505
ZBAA,2001-07-26 07:00,ZBAA 260700Z AUTO 09004KT 6SM 31/17 A2977 RMK T03100170 IEM_DS3505
ZBAA,2001-07-26 08:00,ZBAA 260800Z AUTO 10002KT 6SM 30/22 A2977 RMK T03000220 IEM_DS3505
ZBAA,2001-07-26 09:00,ZBAA 260900Z AUTO 16004KT 12SM 29/19 A2977 RMK SLP080 T02920186 57002 IEM_DS3505
ZBAA,2001-07-26 10:00,ZBAA 261000Z AUTO 16002KT 6SM 26/21 A2977 RMK T02600210 IEM_DS3505
ZBAA,2001-07-26 11:00,ZBAA 261100Z AUTO 17002KT 6SM 26/18 A2977 RMK T02600180 IEM_DS3505
ZBAA,2001-07-26 12:00,ZBAA 261200Z AUTO 14004KT 11SM 27/18 A2977 RMK SLP076 T02660176 57004 IEM_DS3505
ZBAA,2001-07-26 13:00,ZBAA 261300Z AUTO 16002KT 6SM 25/23 A2977 RMK T02500230 IEM_DS3505
ZBAA,2001-07-26 14:00,ZBAA 261400Z AUTO 01006KT 6SM 25/21 A2977 RMK T02500210 IEM_DS3505
ZBAA,2001-07-26 15:00,ZBAA 261500Z AUTO 00000KT 9SM 25/20 A2977 RMK SLP073 T02460199 57003 IEM_DS3505
ZBAA,2001-07-26 16:00,ZBAA 261600Z AUTO 17002KT 6SM 24/21 A2977 RMK T02400210 IEM_DS3505
ZBAA,2001-07-26 17:00,ZBAA 261700Z AUTO 01002KT 6SM 24/22 A2977 RMK T02400220 IEM_DS3505
ZBAA,2001-07-26 18:00,ZBAA 261800Z AUTO 22002KT 6SM 25/20 A2977 RMK SLP073 T02460202 54000 IEM_DS3505
ZBAA,2001-07-26 19:00,ZBAA 261900Z AUTO 09002KT 6SM 23/22 A2974 RMK T02300220 IEM_DS3505
ZBAA,2001-07-26 20:00,ZBAA 262000Z AUTO 6SM 23/21 A2974 RMK T02300210 IEM_DS3505
ZBAA,2001-07-26 21:00,ZBAA 262100Z AUTO 18004KT 6SM 24/21 A2974 RMK SLP066 T02450209 57007 IEM_DS3505
ZBAA,2001-07-26 22:00,ZBAA 262200Z AUTO 07002KT 6SM 22/21 A2974 RMK T02200210 IEM_DS3505
ZBAA,2001-07-26 23:00,ZBAA 262300Z AUTO 6SM 22/21 A2971 RMK T02200210 IEM_DS3505
ZBAA,2001-07-27 00:00,ZBAA 270000Z AUTO 20006KT 5SM 22/19 A2974 RMK 60002 SLP071 T02220194 52004 IEM_DS3505
ZBAA,2001-07-27 01:00,ZBAA 270100Z AUTO 21012KT 6SM 24/20 A2974 RMK T02400200 IEM_DS3505
ZBAA,2001-07-27 02:00,ZBAA 270200Z AUTO 21010KT 6SM 24/19 A2977 RMK T02400190 IEM_DS3505
ZBAA,2001-07-27 03:00,ZBAA 270300Z AUTO 25010KT 6SM 22/19 A2977 RMK SLP080 T02170187 52009 IEM_DS3505
ZBAA,2001-07-27 04:00,ZBAA 270400Z AUTO 24008KT 6SM 23/19 A2977 RMK T02300190 IEM_DS3505
ZBAA,2001-07-27 05:00,ZBAA 270500Z AUTO 22008KT 6SM 24/18 A2977 RMK T02400180 IEM_DS3505
ZBAA,2001-07-27 06:00,ZBAA 270600Z AUTO 32004KT 10SM 25/20 A2974 RMK 60004 SLP069 T02470198 57010 IEM_DS3505
ZBAA,2001-07-27 07:00,ZBAA 270700Z AUTO 20004KT 6SM 25/18 A2974 RMK T02500180 IEM_DS3505
ZBAA,2001-07-27 08:00,ZBAA 270800Z AUTO 6SM 26/18 A2971 RMK T02600180 IEM_DS3505
ZBAA,2001-07-27 09:00,ZBAA 270900Z AUTO 11004KT 12SM 24/17 A2971 RMK SLP055 T02430167 57014 IEM_DS3505
ZBAA,2001-07-27 10:00,ZBAA 271000Z AUTO 13002KT 6SM 25/19 A2971 RMK T02500190 IEM_DS3505
ZBAA,2001-07-27 11:00,ZBAA 271100Z AUTO 14002KT 6SM 24/18 A2968 RMK T02400180 IEM_DS3505
ZBAA,2001-07-27 12:00,ZBAA 271200Z AUTO 22002KT 9SM 23/17 A2971 RMK SLP052 T02290168 57004 IEM_DS3505
ZBAA,2001-07-27 13:00,ZBAA 271300Z AUTO 6SM 21/18 A2968 RMK T02100180 IEM_DS3505
ZBAA,2001-07-27 14:00,ZBAA 271400Z AUTO 6SM 21/19 A2968 RMK T02100190 IEM_DS3505
ZBAA,2001-07-27 15:00,ZBAA 271500Z AUTO 00000KT 7SM 20/18 A2968 RMK SLP044 T02000182 57008 IEM_DS3505
ZBAA,2001-07-27 16:00,ZBAA 271600Z AUTO 36002KT 6SM 20/19 A2965 RMK T02000190 IEM_DS3505
ZBAA,2001-07-27 17:00,ZBAA 271700Z AUTO 01002KT 6SM 20/20 A2965 RMK T02000200 IEM_DS3505
ZBAA,2001-07-27 18:00,ZBAA 271800Z AUTO 00000KT 6SM 20/18 A2965 RMK SLP037 T02000184 57007 IEM_DS3505
ZBAA,2001-07-27 19:00,ZBAA 271900Z AUTO 35004KT 6SM 20/19 A2965 RMK T02000190 IEM_DS3505
ZBAA,2001-07-27 20:00,ZBAA 272000Z AUTO 36002KT 6SM 20/19 A2962 RMK T02000190 IEM_DS3505
ZBAA,2001-07-27 21:00,ZBAA 272100Z AUTO 00000KT 6SM 21/19 A2962 RMK 70007 SLP026 T02070186 57011 IEM_DS3505
ZBAA,2001-07-27 22:00,ZBAA 272200Z AUTO 31004KT 6SM 20/19 A2962 RMK T02000190 IEM_DS3505
ZBAA,2001-07-27 23:00,ZBAA 272300Z AUTO 6SM 20/19 A2962 RMK T02000190 IEM_DS3505
ZBAA,2001-07-28 00:00,ZBAA 280000Z AUTO 29002KT 4SM 22/19 A2962 RMK 70005 SLP026 T02230194 54000 IEM_DS3505
ZBAA,2001-07-28 01:00,ZBAA 280100Z AUTO 35004KT 6SM 23/20 A2962 RMK T02300200 IEM_DS3505
ZBAA,2001-07-28 02:00,ZBAA 280200Z AUTO 6SM 26/20 A2962 RMK T02600200 IEM_DS3505
ZBAA,2001-07-28 03:00,ZBAA 280300Z AUTO 27004KT 6SM 27/17 A2962 RMK SLP025 T02730174 54000 IEM_DS3505
ZBAA,2001-07-28 04:00,ZBAA 280400Z AUTO 23004KT 6SM 28/20 A2959 RMK T02800200 IEM_DS3505
ZBAA,2001-07-28 05:00,ZBAA 280500Z AUTO 14004KT 6SM 29/21 A2959 RMK T02900210 IEM_DS3505
ZBAA,2001-07-28 06:00,ZBAA 280600Z AUTO 18004KT 12SM 30/18 A2956 RMK SLP013 T02980175 57012 IEM_DS3505
ZBAA,2001-07-28 07:00,ZBAA 280700Z AUTO 15006KT 6SM 30/22 A2956 RMK T03000220 IEM_DS3505
ZBAA,2001-07-28 08:00,ZBAA 280800Z AUTO 15006KT 6SM 30/23 A2956 RMK T03000230 IEM_DS3505
ZBAA,2001-07-28 09:00,ZBAA 280900Z AUTO 22006KT 12SM 30/20 A2953 RMK SLP006 T03020202 57007 IEM_DS3505
ZBAA,2001-07-28 10:00,ZBAA 281000Z AUTO 15004KT 6SM 29/23 A2956 RMK T02900230 IEM_DS3505
ZBAA,2001-07-28 11:00,ZBAA 281100Z AUTO 15004KT 6SM 28/23 A2956 RMK T02800230 IEM_DS3505
ZBAA,2001-07-28 12:00,ZBAA 281200Z AUTO 20004KT 12SM 28/21 A2956 RMK SLP010 T02760214 52004 IEM_DS3505
ZBAA,2001-07-28 13:00,ZBAA 281300Z AUTO 15004KT 6SM 25/23 A2959 RMK T02500230 IEM_DS3505
ZBAA,2001-07-28 14:00,ZBAA 281400Z AUTO 13004KT 6SM 25/23 A2959 RMK T02500230 IEM_DS3505
ZBAA,2001-07-28 15:00,ZBAA 281500Z AUTO 16004KT 6SM 25/22 A2962 RMK SLP021 T02480215 52011 IEM_DS3505
ZBAA,2001-07-28 16:00,ZBAA 281600Z AUTO 13002KT 6SM 24/23 A2962 RMK T02400230 IEM_DS3505
ZBAA,2001-07-28 17:00,ZBAA 281700Z AUTO 11004KT 6SM 23/22 A2959 RMK T02300220 IEM_DS3505
ZBAA,2001-07-28 18:00,ZBAA 281800Z AUTO 18002KT 9SM 24/21 A2959 RMK SLP020 T02350214 57001 IEM_DS3505
ZBAA,2001-07-28 19:00,ZBAA 281900Z AUTO 10004KT 16SM 22/22 A2959 RMK T02200220 IEM_DS3505
ZBAA,2001-07-28 20:00,ZBAA 282000Z AUTO 10002KT 22/21 A2959 RMK T02200210 IEM_DS3505
ZBAA,2001-07-28 21:00,ZBAA 282100Z AUTO 00000KT 5SM 22/21 A2959 RMK SLP019 T02160208 57001 IEM_DS3505
ZBAA,2001-07-28 22:00,ZBAA 282200Z AUTO 3SM 22/22 A2962 RMK T02200220 IEM_DS3505
ZBAA,2001-07-28 23:00,ZBAA 282300Z AUTO 15002KT 6SM 22/22 A2965 RMK T02200220 IEM_DS3505
ZBAA,2001-07-29 00:00,ZBAA 290000Z AUTO 22004KT 5SM 24/22 A2965 RMK SLP032 T02400222 52013 IEM_DS3505
ZBAA,2001-07-29 01:00,ZBAA 290100Z AUTO 07002KT 6SM 24/23 A2968 RMK T02400230 IEM_DS3505
ZBAA,2001-07-29 02:00,ZBAA 290200Z AUTO 12002KT 6SM 25/24 A2965 RMK T02500240 IEM_DS3505
ZBAA,2001-07-29 03:00,ZBAA 290300Z AUTO 18004KT 6SM 27/23 A2965 RMK SLP037 T02710229 52005 IEM_DS3505
ZBAA,2001-07-29 04:00,ZBAA 290400Z AUTO 6SM 27/24 A2965 RMK T02700240 IEM_DS3505
ZBAA,2001-07-29 05:00,ZBAA 290500Z AUTO 4SM 28/25 A2965 RMK T02800250 IEM_DS3505
ZBAA,2001-07-29 06:00,ZBAA 290600Z AUTO 20006KT 6SM 30/23 A2962 RMK SLP033 T02970231 57004 IEM_DS3505
ZBAA,2001-07-29 07:00,ZBAA 290700Z AUTO 15006KT 6SM 30/24 A2962 RMK T03000240 IEM_DS3505
ZBAA,2001-07-29 08:00,ZBAA 290800Z AUTO 15006KT 6SM 29/24 A2962 RMK T02900240 IEM_DS3505
ZBAA,2001-07-29 09:00,ZBAA 290900Z AUTO 22004KT 7SM 30/23 A2962 RMK SLP029 T02960230 57004 IEM_DS3505
ZBAA,2001-07-29 10:00,ZBAA 291000Z AUTO 16002KT 6SM RMK IEM_DS3505
ZBAA,2001-07-29 11:00,ZBAA 291100Z AUTO 12002KT 6SM RMK IEM_DS3505
ZBAA,2001-07-29 12:00,ZBAA 291200Z AUTO 14002KT 4SM 27/23 RMK SLP032 T02700234 52003 IEM_DS3505
ZBAA,2001-07-29 13:00,ZBAA 291300Z AUTO 6SM 26/24 A2965 RMK T02600240 IEM_DS3505
ZBAA,2001-07-29 14:00,ZBAA 291400Z AUTO 12002KT 6SM 25/25 A2968 RMK T02500250 IEM_DS3505
ZBAA,2001-07-29 15:00,ZBAA 291500Z AUTO 18004KT 5SM 26/23 A2968 RMK SLP042 T02600228 52010 IEM_DS3505
ZBAA,2001-07-29 16:00,ZBAA 291600Z AUTO 09002KT 6SM 26/24 A2968 RMK T02600240 IEM_DS3505
ZBAA,2001-07-29 17:00,ZBAA 291700Z AUTO 09004KT 6SM 25/24 A2968 RMK T02500240 IEM_DS3505
ZBAA,2001-07-29 18:00,ZBAA 291800Z AUTO 14002KT 5SM 25/23 A2965 RMK SLP039 T02500231 57003 IEM_DS3505
ZBAA,2001-07-29 19:00,ZBAA 291900Z AUTO 10002KT 6SM 24/24 A2965 RMK T02400240 IEM_DS3505
ZBAA,2001-07-29 20:00,ZBAA 292000Z AUTO 6SM 24/24 A2965 RMK T02400240 IEM_DS3505
ZBAA,2001-07-29 21:00,ZBAA 292100Z AUTO 00000KT 4SM 23/23 A2968 RMK T02300230 IEM_DS3505
ZBAA,2001-07-29 22:00,ZBAA 292200Z AUTO 09002KT 6SM 24/24 A2968 RMK T02400240 IEM_DS3505
ZBAA,2001-07-29 23:00,ZBAA 292300Z AUTO 31SM 24/24 A2968 RMK T02400240 IEM_DS3505
ZBAA,2001-07-30 00:00,ZBAA 300000Z AUTO 02002KT 4SM 26/24 A2971 RMK SLP048 T02620236 52008 IEM_DS3505
ZBAA,2001-07-30 01:00,ZBAA 300100Z AUTO 01004KT 6SM 26/25 A2971 RMK T02600250 IEM_DS3505
ZBAA,2001-07-30 02:00,ZBAA 300200Z AUTO 34004KT 6SM 28/25 A2971 RMK T02800250 IEM_DS3505
ZBAA,2001-07-30 03:00,ZBAA 300300Z AUTO 07004KT 5SM 29/23 A2968 RMK SLP049 T02900234 52001 IEM_DS3505
ZBAA,2001-07-30 04:00,ZBAA 300400Z AUTO 6SM 31/25 A2968 RMK T03100250 IEM_DS3505
ZBAA,2001-07-30 05:00,ZBAA 300500Z AUTO 7SM RMK IEM_DS3505
ZBAA,2001-07-30 06:00,ZBAA 300600Z AUTO 09006KT 6SM 31/21 RMK SLP036 T03100211 57013 IEM_DS3505
ZBAA,2001-07-30 07:00,ZBAA 300700Z AUTO 12004KT 6SM 31/23 A2965 RMK T03100230 IEM_DS3505
ZBAA,2001-07-30 08:00,ZBAA 300800Z AUTO 16002KT 6SM 31/25 A2965 RMK T03100250 IEM_DS3505
ZBAA,2001-07-30 09:00,ZBAA 300900Z AUTO 14004KT 6SM 31/23 A2965 RMK SLP033 T03120230 57003 IEM_DS3505
ZBAA,2001-07-30 10:00,ZBAA 301000Z AUTO 6SM 31/25 A2962 RMK T03100250 IEM_DS3505
ZBAA,2001-07-30 11:00,ZBAA 301100Z AUTO 6SM 29/26 A2965 RMK T02900260 IEM_DS3505
ZBAA,2001-07-30 12:00,ZBAA 301200Z AUTO 18002KT 7SM 28/23 A2965 RMK SLP037 T02800229 52004 IEM_DS3505
ZBAA,2001-07-30 13:00,ZBAA 301300Z AUTO 13014G23KT 6SM 25/21 A2971 RMK T02500210 IEM_DS3505
ZBAA,2001-07-30 14:00,ZBAA 301400Z AUTO 17004KT 6SM 23/22 A2971 RMK T02300220 IEM_DS3505
ZBAA,2001-07-30 15:00,ZBAA 301500Z AUTO 04002KT 9SM 24/19 A2971 RMK SLP050 T02400187 52013 IEM_DS3505
ZBAA,2001-07-30 16:00,ZBAA 301600Z AUTO 36006KT 6SM 23/21 A2968 RMK T02300210 IEM_DS3505
ZBAA,2001-07-30 17:00,ZBAA 301700Z AUTO 35002KT 6SM 23/21 A2968 RMK T02300210 IEM_DS3505
ZBAA,2001-07-30 18:00,ZBAA 301800Z AUTO 09004KT 7SM 23/21 A2968 RMK SLP046 T02330206 57004 IEM_DS3505
ZBAA,2001-07-30 19:00,ZBAA 301900Z AUTO 35002KT 5SM 23/22 A2968 RMK T02300220 IEM_DS3505
ZBAA,2001-07-30 20:00,ZBAA 302000Z AUTO 35004KT 5SM 23/22 A2965 RMK T02300220 IEM_DS3505
ZBAA,2001-07-30 21:00,ZBAA 302100Z AUTO 00000KT 6SM 23/20 A2968 RMK SLP044 T02280204 57002 IEM_DS3505
ZBAA,2001-07-30 23:00,ZBAA 302300Z AUTO 02002KT 6SM 24/22 A2971 RMK T02400220 IEM_DS3505
ZBAA,2001-07-31 00:00,ZBAA 310000Z AUTO 04004KT 6SM 26/21 A2971 RMK SLP060 T02640209 52016 IEM_DS3505
ZBAA,2001-07-31 01:00,ZBAA 310100Z AUTO 01002KT 6SM 27/23 A2971 RMK T02700230 IEM_DS3505
ZBAA,2001-07-31 02:00,ZBAA 310200Z AUTO 35004KT 6SM 29/23 A2971 RMK T02900230 IEM_DS3505
ZBAA,2001-07-31 03:00,ZBAA 310300Z AUTO 04006KT 6SM 30/22 A2971 RMK SLP058 T03040218 57002 IEM_DS3505
ZBAA,2001-07-31 04:00,ZBAA 310400Z AUTO 7SM 31/23 A2971 RMK T03100230 IEM_DS3505
ZBAA,2001-07-31 05:00,ZBAA 310500Z AUTO 7SM 33/22 A2968 RMK T03300220 IEM_DS3505
ZBAA,2001-07-31 06:00,ZBAA 310600Z AUTO 14006KT 7SM 32/21 A2965 RMK SLP042 T03180214 57016 IEM_DS3505
ZBAA,2001-07-31 07:00,ZBAA 310700Z AUTO 17002KT 7SM 30/22 A2965 RMK T03000220 IEM_DS3505
ZBAA,2001-07-31 08:00,ZBAA 310800Z AUTO 7SM 32/23 A2965 RMK T03200230 IEM_DS3505
ZBAA,2001-07-31 09:00,ZBAA 310900Z AUTO 22004KT 7SM 31/22 A2962 RMK SLP031 T03090218 57011 IEM_DS3505
ZBAA,2001-07-31 10:00,ZBAA 311000Z AUTO 02002KT 7SM 30/25 A2965 RMK T03000250 IEM_DS3505
ZBAA,2001-07-31 11:00,ZBAA 311100Z AUTO 35006KT 7SM 27/20 A2965 RMK T02700200 IEM_DS3505
ZBAA,2001-07-31 12:00,ZBAA 311200Z AUTO 11004KT 6SM 29/22 A2968 RMK SLP038 T02910222 52007 IEM_DS3505
ZBAA,2001-07-31 13:00,ZBAA 311300Z AUTO 35006KT 6SM 24/21 A2971 RMK T02400210 IEM_DS3505
ZBAA,2001-07-31 14:00,ZBAA 311400Z AUTO 6SM 23/21 A2974 RMK T02300210 IEM_DS3505
ZBAA,2001-07-31 15:00,ZBAA 311500Z AUTO 04004KT 6SM 25/19 A2974 RMK SLP062 T02510194 52024 IEM_DS3505
ZBAA,2001-07-31 16:00,ZBAA 311600Z AUTO 04002KT 6SM 23/21 A2974 RMK T02300210 IEM_DS3505
ZBAA,2001-07-31 17:00,ZBAA 311700Z AUTO 33004KT 6SM 22/21 A2974 RMK T02200210 IEM_DS3505
ZBAA,2001-07-31 18:00,ZBAA 311800Z AUTO 02002KT 6SM 24/20 A2974 RMK SLP063 T02420199 52001 IEM_DS3505
ZBAA,2001-07-31 19:00,ZBAA 311900Z AUTO 35006KT 6SM 22/20 A2974 RMK T02200200 IEM_DS3505
ZBAA,2001-07-31 20:00,ZBAA 312000Z AUTO 35006KT 6SM 21/20 A2974 RMK T02100200 IEM_DS3505
ZBAA,2001-07-31 21:00,ZBAA 312100Z AUTO 02004KT 7SM 23/19 A2974 RMK SLP066 T02330188 52003 IEM_DS3505
ZBAA,2001-07-31 22:00,ZBAA 312200Z AUTO 01004KT 6SM 22/20 A2977 RMK T02200200 IEM_DS3505
ZBAA,2001-07-31 23:00,ZBAA 312300Z AUTO 36006KT 6SM 24/20 A2977 RMK T02400200 IEM_DS3505
ZBAA,2001-08-01 00:00,ZBAA 010000Z AUTO 04006KT 11SM 26/18 A2977 RMK SLP074 T02630182 52008 IEM_DS3505
ZBAA,2001-08-01 01:00,ZBAA 010100Z AUTO 02006KT 6SM 27/21 A2977 RMK T02700210 IEM_DS3505
ZBAA,2001-08-01 02:00,ZBAA 010200Z AUTO 03006KT 6SM 29/21 A2980 RMK T02900210 IEM_DS3505
ZBAA,2001-08-01 03:00,ZBAA 010300Z AUTO 14004KT 12SM 29/20 A2980 RMK SLP084 T02930201 52010 IEM_DS3505
ZBAA,2001-08-01 04:00,ZBAA 010400Z AUTO 6SM 30/21 A2980 RMK T03000210 IEM_DS3505
ZBAA,2001-08-01 05:00,ZBAA 010500Z AUTO 6SM 30/22 A2980 RMK T03000220 IEM_DS3505
ZBAA,2001-08-01 06:00,ZBAA 010600Z AUTO 09006KT 19SM 30/18 A2977 RMK SLP076 T02960184 57008 IEM_DS3505
ZBAA,2001-08-01 07:00,ZBAA 010700Z AUTO 6SM 31/22 A2974 RMK T03100220 IEM_DS3505
ZBAA,2001-08-01 08:00,ZBAA 010800Z AUTO 04004KT 6SM 31/20 A2974 RMK T03100200 IEM_DS3505
ZBAA,2001-08-01 09:00,ZBAA 010900Z AUTO 09004KT 19SM 30/20 A2974 RMK SLP064 T02990203 57012 IEM_DS3505
ZBAA,2001-08-01 10:00,ZBAA 011000Z AUTO 11002KT 6SM 30/23 A2974 RMK T03000230 IEM_DS3505
ZBAA,2001-08-01 11:00,ZBAA 011100Z AUTO 6SM 29/23 A2971 RMK T02900230 IEM_DS3505
ZBAA,2001-08-01 12:00,ZBAA 011200Z AUTO 14004KT 12SM 27/21 A2971 RMK SLP059 T02730210 57005 IEM_DS3505
ZBAA,2001-08-01 13:00,ZBAA 011300Z AUTO 17002KT 6SM 26/23 A2974 RMK T02600230 IEM_DS3505
ZBAA,2001-08-01 14:00,ZBAA 011400Z AUTO 6SM 26/22 A2974 RMK T02600220 IEM_DS3505
ZBAA,2001-08-01 15:00,ZBAA 011500Z AUTO 34002KT 9SM 28/20 A2974 RMK SLP063 T02760202 52004 IEM_DS3505
ZBAA,2001-08-01 16:00,ZBAA 011600Z AUTO 35006KT 6SM 24/22 A2974 RMK T02400220 IEM_DS3505
ZBAA,2001-08-01 17:00,ZBAA 011700Z AUTO 01006KT 6SM 25/21 A2971 RMK T02500210 IEM_DS3505
ZBAA,2001-08-01 18:00,ZBAA 011800Z AUTO 04006KT 12SM 27/18 A2971 RMK SLP056 T02680179 57007 IEM_DS3505
ZBAA,2001-08-01 19:00,ZBAA 011900Z AUTO 34006KT 6SM 23/20 A2971 RMK T02300200 IEM_DS3505
ZBAA,2001-08-01 20:00,ZBAA 012000Z AUTO 35002KT 6SM 23/20 A2971 RMK T02300200 IEM_DS3505
ZBAA,2001-08-01 21:00,ZBAA 012100Z AUTO 36004KT 12SM 26/17 A2971 RMK SLP058 T02640170 52002 IEM_DS3505
ZBAA,2001-08-01 22:00,ZBAA 012200Z AUTO 35006KT 6SM 23/20 A2971 RMK T02300200 IEM_DS3505
ZBAA,2001-08-01 23:00,ZBAA 012300Z AUTO 29004KT 7SM 25/20 A2974 RMK T02500200 IEM_DS3505
ZBAA,2001-08-02 00:00,ZBAA 020000Z AUTO 02004KT 12SM 27/17 A2974 RMK SLP067 T02670172 52009 IEM_DS3505
ZBAA,2001-08-02 01:00,ZBAA 020100Z AUTO 28004KT 6SM 26/21 A2974 RMK T02600210 IEM_DS3505
ZBAA,2001-08-02 02:00,ZBAA 020200Z AUTO 30006KT 6SM 27/20 A2977 RMK T02700200 IEM_DS3505
ZBAA,2001-08-02 03:00,ZBAA 020300Z AUTO 32004KT 11SM 27/18 A2977 RMK SLP077 T02710184 52010 IEM_DS3505
ZBAA,2001-08-02 04:00,ZBAA 020400Z AUTO 24002KT 7SM 27/21 A2980 RMK T02700210 IEM_DS3505
ZBAA,2001-08-02 05:00,ZBAA 020500Z AUTO 01004KT 6SM 27/21 A2980 RMK T02700210 IEM_DS3505
ZBAA,2001-08-02 06:00,ZBAA 020600Z AUTO 14004KT 12SM 26/20 A2980 RMK 60000 SLP082 T02560200 52005 IEM_DS3505
ZBAA,2001-08-02 07:00,ZBAA 020700Z AUTO 01004KT 6SM 26/22 A2980 RMK T02600220 IEM_DS3505
ZBAA,2001-08-02 08:00,ZBAA 020800Z AUTO 35006KT 7SM 26/21 A2980 RMK T02600210 IEM_DS3505
ZBAA,2001-08-02 09:00,ZBAA 020900Z AUTO 04006KT 12SM 26/20 A2980 RMK SLP085 T02620196 52003 IEM_DS3505
ZBAA,2001-08-02 10:00,ZBAA 021000Z AUTO 7SM 24/21 A2983 RMK T02400210 IEM_DS3505
ZBAA,2001-08-02 11:00,ZBAA 021100Z AUTO 36006KT 6SM 23/21 A2983 RMK T02300210 IEM_DS3505
ZBAA,2001-08-02 12:00,ZBAA 021200Z AUTO 04008KT 12SM 24/20 A2985 RMK 60003 SLP096 T02420197 52011 IEM_DS3505
ZBAA,2001-08-02 13:00,ZBAA 021300Z AUTO 31006KT 7SM 22/22 A2988 RMK T02200220 IEM_DS3505
ZBAA,2001-08-02 14:00,ZBAA 021400Z AUTO 28008KT 7SM 22/22 A2988 RMK T02200220 IEM_DS3505
ZBAA,2001-08-02 15:00,ZBAA 021500Z AUTO 32004KT 9SM 22/21 A2988 RMK T02200210 IEM_DS3505
ZBAA,2001-08-02 16:00,ZBAA 021600Z AUTO 29008KT 4SM 22/22 A2988 RMK T02200220 IEM_DS3505
ZBAA,2001-08-02 17:00,ZBAA 021700Z AUTO 28006KT 3SM 21/21 A2991 RMK T02100210 IEM_DS3505
ZBAA,2001-08-02 18:00,ZBAA 021800Z AUTO 29004KT 7SM 22/21 A2991 RMK 60008 SLP124 T02160210 52004 IEM_DS3505
ZBAA,2001-08-02 19:00,ZBAA 021900Z AUTO 28004KT 2SM 21/21 A2991 RMK T02100210 IEM_DS3505
ZBAA,2001-08-02 20:00,ZBAA 022000Z AUTO 28004KT 2SM 21/21 A2994 RMK T02100210 IEM_DS3505
ZBAA,2001-08-02 21:00,ZBAA 022100Z AUTO 00000KT 6SM 22/21 A2994 RMK 70011 SLP131 T02160208 52007 IEM_DS3505
ZBAA,2001-08-02 22:00,ZBAA 022200Z AUTO 27002KT 2SM 21/21 A2994 RMK T02100210 IEM_DS3505
ZBAA,2001-08-02 23:00,ZBAA 022300Z AUTO 4SM 21/21 A2997 RMK T02100210 IEM_DS3505
ZBAA,2001-08-03 00:00,ZBAA 030000Z AUTO 14004KT 5SM 23/22 A2997 RMK 60003 SLP146 T02270215 52015 IEM_DS3505
ZBAA,2001-08-03 01:00,ZBAA 030100Z AUTO 17002KT 5SM 23/23 A2997 RMK T02300230 IEM_DS3505
ZBAA,2001-08-03 02:00,ZBAA 030200Z AUTO 5SM 24/23 A3000 RMK T02400230 IEM_DS3505
ZBAA,2001-08-03 03:00,ZBAA 030300Z AUTO 18004KT 6SM 26/21 A3000 RMK SLP155 T02590209 52009 IEM_DS3505
ZBAA,2001-08-03 04:00,ZBAA 030400Z AUTO 11002KT 3SM 25/23 A3000 RMK T02500230 IEM_DS3505
ZBAA,2001-08-03 05:00,ZBAA 030500Z AUTO 11002KT 4SM 27/23 A3000 RMK T02700230 IEM_DS3505
ZBAA,2001-08-03 06:00,ZBAA 030600Z AUTO 14006KT 7SM 28/22 A2997 RMK SLP151 T02790218 57004 IEM_DS3505
ZBAA,2001-08-03 07:00,ZBAA 030700Z AUTO 12004KT 7SM 28/23 A2997 RMK T02800230 IEM_DS3505
ZBAA,2001-08-03 08:00,ZBAA 030800Z AUTO 12006KT 5SM 28/24 A2997 RMK T02800240 IEM_DS3505
ZBAA,2001-08-03 09:00,ZBAA 030900Z AUTO 14006KT 9SM 29/22 A2997 RMK SLP143 T02930220 57008 IEM_DS3505
ZBAA,2001-08-03 10:00,ZBAA 031000Z AUTO 10004KT 7SM 28/24 A2997 RMK T02800240 IEM_DS3505
ZBAA,2001-08-03 11:00,ZBAA 031100Z AUTO 5SM 27/24 A2997 RMK T02700240 IEM_DS3505
ZBAA,2001-08-03 12:00,ZBAA 031200Z AUTO 14006KT 7SM 26/22 A3000 RMK SLP151 T02600220 52008 IEM_DS3505
ZBAA,2001-08-03 13:00,ZBAA 031300Z AUTO 09002KT 4SM 25/24 A3000 RMK T02500240 IEM_DS3505
ZBAA,2001-08-03 15:00,ZBAA 031500Z AUTO 14008KT 9SM 24/23 A3003 RMK SLP159 T02450226 52008 IEM_DS3505
ZBAA,2001-08-03 16:00,ZBAA 031600Z AUTO 13004KT 4SM 24/23 A3003 RMK T02400230 IEM_DS3505
ZBAA,2001-08-03 17:00,ZBAA 031700Z AUTO 10002KT 4SM 24/23 A3003 RMK T02400230 IEM_DS3505
ZBAA,2001-08-03 18:00,ZBAA 031800Z AUTO 00000KT 7SM 24/22 A3003 RMK SLP161 T02400224 52002 IEM_DS3505
ZBAA,2001-08-03 19:00,ZBAA 031900Z AUTO 13002KT 2 1/2SM 23/23 A3000 RMK T02300230 IEM_DS3505
ZBAA,2001-08-03 20:00,ZBAA 032000Z AUTO 34002KT 2 1/2SM 23/23 A3000 RMK T02300230 IEM_DS3505
ZBAA,2001-08-03 21:00,ZBAA 032100Z AUTO 11002KT 4SM 24/23 A3000 RMK 70001 T02360226 57008 IEM_DS3505
ZBAA,2001-08-03 22:00,ZBAA 032200Z AUTO 36002KT 1 1/2SM 23/23 A3000 RMK T02300230 IEM_DS3505
ZBAA,2001-08-03 23:00,ZBAA 032300Z AUTO 1 1/2SM 23/23 A3000 RMK T02300230 IEM_DS3505
ZBAA,2001-08-04 00:00,ZBAA 040000Z AUTO 00000KT 4SM 24/23 A2997 RMK 60002 SLP152 T02410228 57001 IEM_DS3505
ZBAA,2001-08-04 01:00,ZBAA 040100Z AUTO 33002KT 2SM 25/24 A2997 RMK T02500240 IEM_DS3505
ZBAA,2001-08-04 02:00,ZBAA 040200Z AUTO 14002KT 2SM 25/24 A3000 RMK T02500240 IEM_DS3505
ZBAA,2001-08-04 03:00,ZBAA 040300Z AUTO 14004KT 5SM 27/23 A3000 RMK SLP152 T02680233 54000 IEM_DS3505
ZBAA,2001-08-04 04:00,ZBAA 040400Z AUTO 2SM 27/25 A3000 RMK T02700250 IEM_DS3505
ZBAA,2001-08-04 05:00,ZBAA 040500Z AUTO 14004KT 2SM 28/24 A2994 RMK T02800240 IEM_DS3505
ZBAA,2001-08-04 06:00,ZBAA 040600Z AUTO 27004KT 5SM 29/23 A2994 RMK SLP135 T02900227 57016 IEM_DS3505
ZBAA,2001-08-04 08:00,ZBAA 040800Z AUTO 23004KT 2SM 29/24 A2988 RMK T02900240 IEM_DS3505
ZBAA,2001-08-04 09:00,ZBAA 040900Z AUTO 27006KT 5SM 30/23 A2988 RMK SLP117 T02980227 57018 IEM_DS3505
ZBAA,2001-08-04 10:00,ZBAA 041000Z AUTO 10002KT 2 1/2SM 29/25 A2988 RMK T02900250 IEM_DS3505
ZBAA,2001-08-04 11:00,ZBAA 041100Z AUTO 2 1/2SM 28/25 A2985 RMK T02800250 IEM_DS3505
ZBAA,2001-08-04 12:00,ZBAA 041200Z AUTO 00000KT 4SM 28/24 A2985 RMK SLP109 T02780236 57008 IEM_DS3505
ZBAA,2001-08-04 13:00,ZBAA 041300Z AUTO 13002KT 2SM 26/25 A2988 RMK T02600250 IEM_DS3505
ZBAA,2001-08-04 14:00,ZBAA 041400Z AUTO 14002KT 2SM 26/25 A2988 RMK T02600250 IEM_DS3505
ZBAA,2001-08-04 15:00,ZBAA 041500Z AUTO 00000KT 4SM 26/24 A2988 RMK SLP112 T02610242 52003 IEM_DS3505
ZBAA,2001-08-04 16:00,ZBAA 041600Z AUTO 13004KT 2SM 24/24 A2988 RMK T02400240 IEM_DS3505
ZBAA,2001-08-04 17:00,ZBAA 041700Z AUTO 13004KT 2SM 24/24 A2985 RMK T02400240 IEM_DS3505
ZBAA,2001-08-04 18:00,ZBAA 041800Z AUTO 11002KT 4SM 25/23 A2985 RMK SLP103 T02470234 57009 IEM_DS3505
ZBAA,2001-08-04 19:00,ZBAA 041900Z AUTO 12004KT 1SM 24/24 A2983 RMK T02400240 IEM_DS3505
ZBAA,2001-08-04 20:00,ZBAA 042000Z AUTO 10002KT 1SM 24/24 A2983 RMK T02400240 IEM_DS3505
ZBAA,2001-08-04 21:00,ZBAA 042100Z AUTO 14004KT 1/2SM 24/24 A2980 RMK 70000 SLP090 T02430239 57013 IEM_DS3505
ZBAA,2001-08-04 22:00,ZBAA 042200Z AUTO 13004KT 1SM 24/24 A2980 RMK T02400240 IEM_DS3505
ZBAA,2001-08-04 23:00,ZBAA 042300Z AUTO 12004KT 1/2SM 25/25 A2980 RMK T02500250 IEM_DS3505
ZBAA,2001-08-05 00:00,ZBAA 050000Z AUTO 18004KT 1SM 25/24 A2980 RMK SLP083 T02530243 57007 IEM_DS3505
ZBAA,2001-08-05 01:00,ZBAA 050100Z AUTO 12002KT 1/2SM 25/25 A2977 RMK T02500250 IEM_DS3505
ZBAA,2001-08-05 02:00,ZBAA 050200Z AUTO 13002KT 1SM 26/26 A2977 RMK T02600260 IEM_DS3505
ZBAA,2001-08-05 03:00,ZBAA 050300Z AUTO 20004KT 4SM 28/25 A2977 RMK SLP074 T02820248 57009 IEM_DS3505
ZBAA,2001-08-05 04:00,ZBAA 050400Z AUTO 11002KT 1SM 27/27 A2974 RMK T02700270 IEM_DS3505
ZBAA,2001-08-05 05:00,ZBAA 050500Z AUTO 10004KT 1SM 28/27 A2974 RMK T02800270 IEM_DS3505
ZBAA,2001-08-05 06:00,ZBAA 050600Z AUTO 22008KT 5SM 31/26 A2971 RMK SLP053 T03090255 57021 IEM_DS3505
ZBAA,2001-08-05 07:00,ZBAA 050700Z AUTO 1SM 31/28 A2968 RMK T03100280 IEM_DS3505
ZBAA,2001-08-05 08:00,ZBAA 050800Z AUTO 15004KT 2SM 31/28 A2965 RMK T03100280 IEM_DS3505
ZBAA,2001-08-05 09:00,ZBAA 050900Z AUTO 22008KT 6SM 31/25 A2965 RMK SLP036 T03120253 57017 IEM_DS3505
ZBAA,2001-08-05 10:00,ZBAA 051000Z AUTO 1SM 30/27 A2965 RMK T03000270 IEM_DS3505
ZBAA,2001-08-05 11:00,ZBAA 051100Z AUTO 1SM 28/27 A2965 RMK T02800270 IEM_DS3505
ZBAA,2001-08-05 12:00,ZBAA 051200Z AUTO 00000KT 3SM 30/25 A2965 RMK SLP040 T02990254 52004 IEM_DS3505
ZBAA,2001-08-05 13:00,ZBAA 051300Z AUTO 16004KT 1SM 27/26 A2965 RMK T02700260 IEM_DS3505
ZBAA,2001-08-05 14:00,ZBAA 051400Z AUTO 31006KT 3SM 26/24 A2965 RMK T02600240 IEM_DS3505
ZBAA,2001-08-05 15:00,ZBAA 051500Z AUTO 16004KT 3SM 28/26 A2965 RMK SLP031 T02790259 57009 IEM_DS3505
ZBAA,2001-08-05 16:00,ZBAA 051600Z AUTO 34002KT 2 1/2SM 26/25 A2965 RMK T02600250 IEM_DS3505
ZBAA,2001-08-05 17:00,ZBAA 051700Z AUTO 2 1/2SM 26/25 A2962 RMK T02600250 IEM_DS3505
ZBAA,2001-08-05 18:00,ZBAA 051800Z AUTO 00000KT 5SM 27/24 A2962 RMK 60000 SLP026 T02660239 57005 IEM_DS3505
ZBAA,2001-08-05 19:00,ZBAA 051900Z AUTO 30006KT 2 1/2SM 25/24 A2962 RMK T02500240 IEM_DS3505
ZBAA,2001-08-05 20:00,ZBAA 052000Z AUTO 21002KT 2SM 25/24 A2959 RMK T02500240 IEM_DS3505
ZBAA,2001-08-05 21:00,ZBAA 052100Z AUTO 00000KT 5SM 26/24 A2959 RMK 70001 SLP017 T02580239 57009 IEM_DS3505
ZBAA,2001-08-05 22:00,ZBAA 052200Z AUTO 2SM 25/24 A2959 RMK T02500240 IEM_DS3505
ZBAA,2001-08-05 23:00,ZBAA 052300Z AUTO 2SM 26/25 A2959 RMK T02600250 IEM_DS3505
ZBAA,2001-08-06 00:00,ZBAA 060000Z AUTO 02002KT 4SM 27/23 A2959 RMK 60003 SLP018 T02690234 52001 IEM_DS3505
ZBAA,2001-08-06 01:00,ZBAA 060100Z AUTO 12002KT 1SM 27/26 A2959 RMK T02700260 IEM_DS3505
ZBAA,2001-08-06 02:00,ZBAA 060200Z AUTO 11006KT 2SM 26/25 A2962 RMK T02600250 IEM_DS3505
ZBAA,2001-08-06 03:00,ZBAA 060300Z AUTO 09006KT 5SM 27/24 A2959 RMK SLP019 T02680238 52001 IEM_DS3505
ZBAA,2001-08-06 05:00,ZBAA 060500Z AUTO 13004KT 2 1/2SM 30/27 A2956 RMK T03000270 IEM_DS3505
ZBAA,2001-08-06 06:00,ZBAA 060600Z AUTO 18006KT 6SM 32/25 A2956 RMK SLP001 T03170254 57018 IEM_DS3505
ZBAA,2001-08-06 07:00,ZBAA 060700Z AUTO 18004KT 2 1/2SM 32/26 A2953 RMK T03200260 IEM_DS3505
ZBAA,2001-08-06 08:00,ZBAA 060800Z AUTO 10004KT 2 1/2SM 32/27 A2950 RMK T03200270 IEM_DS3505
ZBAA,2001-08-06 09:00,ZBAA 060900Z AUTO 22004KT 5SM 33/26 A2950 RMK SLP988 T03290263 57013 IEM_DS3505
ZBAA,2001-08-06 10:00,ZBAA 061000Z AUTO 11002KT 2 1/2SM 31/28 A2950 RMK T03100280 IEM_DS3505
ZBAA,2001-08-06 11:00,ZBAA 061100Z AUTO 05002KT 2SM 30/28 A2950 RMK T03000280 IEM_DS3505
ZBAA,2001-08-06 12:00,ZBAA 061200Z AUTO 22002KT 2SM 31/26 A2953 RMK SLP988 T03120262 54000 IEM_DS3505
ZBAA,2001-08-06 13:00,ZBAA 061300Z AUTO 1 1/2SM 28/27 A2953 RMK T02800270 IEM_DS3505
ZBAA,2001-08-06 14:00,ZBAA 061400Z AUTO 09002KT 1 1/4SM 28/27 A2953 RMK T02800270 IEM_DS3505
ZBAA,2001-08-06 15:00,ZBAA 061500Z AUTO 25002KT 2SM 29/27 A2953 RMK SLP997 T02940266 52009 IEM_DS3505
ZBAA,2001-08-06 16:00,ZBAA 061600Z AUTO 1SM 27/27 A2956 RMK T02700270 IEM_DS3505
ZBAA,2001-08-06 17:00,ZBAA 061700Z AUTO 1SM 27/27 A2956 RMK T02700270 IEM_DS3505
ZBAA,2001-08-06 18:00,ZBAA 061800Z AUTO 04002KT 4SM 28/26 A2956 RMK SLP006 T02800258 52009 IEM_DS3505
ZBAA,2001-08-06 19:00,ZBAA 061900Z AUTO 01004KT 1SM 26/26 A2959 RMK T02600260 IEM_DS3505
ZBAA,2001-08-06 20:00,ZBAA 062000Z AUTO 01004KT 1SM 26/26 A2959 RMK T02600260 IEM_DS3505
ZBAA,2001-08-06 21:00,ZBAA 062100Z AUTO 04006KT 5SM 27/25 A2962 RMK SLP016 T02720252 52010 IEM_DS3505
ZBAA,2001-08-06 22:00,ZBAA 062200Z AUTO 36006KT 6SM 26/21 A2962 RMK T02600210 IEM_DS3505
ZBAA,2001-08-06 23:00,ZBAA 062300Z AUTO 02004KT 6SM 26/20 A2965 RMK T02600200 IEM_DS3505
ZBAA,2001-08-07 00:00,ZBAA 070000Z AUTO 04006KT 12SM 29/17 A2965 RMK SLP035 T02870167 52019 IEM_DS3505
ZBAA,2001-08-07 01:00,ZBAA 070100Z AUTO 02006KT 6SM 29/20 A2968 RMK T02900200 IEM_DS3505
ZBAA,2001-08-07 02:00,ZBAA 070200Z AUTO 02010KT 6SM 29/19 A2968 RMK T02900190 IEM_DS3505
ZBAA,2001-08-07 03:00,ZBAA 070300Z AUTO 04008G21KT 19SM 31/15 A2971 RMK SLP049 T03080154 52014 IEM_DS3505
ZBAA,2001-08-07 04:00,ZBAA 070400Z AUTO 36012KT 6SM 30/18 A2971 RMK T03000180 IEM_DS3505
ZBAA,2001-08-07 05:00,ZBAA 070500Z AUTO 36010KT 6SM 29/19 A2971 RMK T02900190 IEM_DS3505
ZBAA,2001-08-07 06:00,ZBAA 070600Z AUTO 04008KT 19SM 30/16 A2971 RMK 60003 SLP053 T03040159 52004 IEM_DS3505
ZBAA,2001-08-07 07:00,ZBAA 070700Z AUTO 36008KT 6SM 29/18 A2971 RMK T02900180 IEM_DS3505
ZBAA,2001-08-07 08:00,ZBAA 070800Z AUTO 02002KT 7SM 31/18 A2971 RMK T03100180 IEM_DS3505
ZBAA,2001-08-07 09:00,ZBAA 070900Z AUTO 04006KT 19SM 31/15 A2968 RMK SLP051 T03080146 57002 IEM_DS3505
ZBAA,2001-08-07 10:00,ZBAA 071000Z AUTO 12004KT 7SM 30/20 A2971 RMK T03000200 IEM_DS3505
ZBAA,2001-08-07 11:00,ZBAA 071100Z AUTO 13002KT 6SM 28/21 A2971 RMK T02800210 IEM_DS3505
ZBAA,2001-08-07 12:00,ZBAA 071200Z AUTO 16006KT 16SM 26/21 A2974 RMK SLP066 T02600209 52015 IEM_DS3505
ZBAA,2001-08-07 13:00,ZBAA 071300Z AUTO 17006KT 6SM 24/22 A2977 RMK T02400220 IEM_DS3505
ZBAA,2001-08-07 14:00,ZBAA 071400Z AUTO 13004KT 6SM 24/22 A2980 RMK T02400220 IEM_DS3505
ZBAA,2001-08-07 15:00,ZBAA 071500Z AUTO 22002KT 9SM 25/21 A2980 RMK SLP085 T02490213 52019 IEM_DS3505
ZBAA,2001-08-07 16:00,ZBAA 071600Z AUTO 15002KT 6SM 24/22 A2980 RMK T02400220 IEM_DS3505
ZBAA,2001-08-07 17:00,ZBAA 071700Z AUTO 13002KT 6SM 24/23 A2980 RMK T02400230 IEM_DS3505
ZBAA,2001-08-07 18:00,ZBAA 071800Z AUTO 22002KT 7SM 23/21 A2980 RMK SLP086 T02320209 52001 IEM_DS3505
ZBAA,2001-08-07 19:00,ZBAA 071900Z AUTO 6SM 22/22 A2980 RMK T02200220 IEM_DS3505
ZBAA,2001-08-07 20:00,ZBAA 072000Z AUTO 5SM 22/22 A2980 RMK T02200220 IEM_DS3505
ZBAA,2001-08-07 21:00,ZBAA 072100Z AUTO 22002KT 5SM 22/21 A2980 RMK 70003 SLP088 T02200206 52002 IEM_DS3505
ZBAA,2001-08-07 22:00,ZBAA 072200Z AUTO 01004KT 6SM 20/20 A2983 RMK T02000200 IEM_DS3505
ZBAA,2001-08-07 23:00,ZBAA 072300Z AUTO 36004KT 6SM 22/21 A2983 RMK T02200210 IEM_DS3505
ZBAA,2001-08-08 00:00,ZBAA 080000Z AUTO 09004KT 4SM 25/21 A2985 RMK 70003 SLP103 T02480210 52014 IEM_DS3505
ZBAA,2001-08-08 01:00,ZBAA 080100Z AUTO 6SM 26/23 A2985 RMK T02600230 IEM_DS3505
ZBAA,2001-08-08 02:00,ZBAA 080200Z AUTO 6SM 27/23 A2985 RMK T02700230 IEM_DS3505
ZBAA,2001-08-08 03:00,ZBAA 080300Z AUTO 16002KT 3SM 29/22 A2985 RMK SLP103 T02890220 52001 IEM_DS3505
ZBAA,2001-08-08 04:00,ZBAA 080400Z AUTO 6SM 30/22 A2983 RMK T03000220 IEM_DS3505
ZBAA,2001-08-08 05:00,ZBAA 080500Z AUTO 7SM 30/23 A2983 RMK T03000230 IEM_DS3505
ZBAA,2001-08-08 06:00,ZBAA 080600Z AUTO 22008KT 11SM 32/20 A2980 RMK SLP090 T03190201 57013 IEM_DS3505
ZBAA,2001-08-08 07:00,ZBAA 080700Z AUTO 7SM 32/21 A2980 RMK T03200210 IEM_DS3505
ZBAA,2001-08-08 08:00,ZBAA 080800Z AUTO 17010KT 7SM 28/21 A2980 RMK T02800210 IEM_DS3505
ZBAA,2001-08-08 09:00,ZBAA 080900Z AUTO 09008KT 12SM 26/17 A2980 RMK SLP091 T02580172 54000 IEM_DS3505
ZBAA,2001-08-08 10:00,ZBAA 081000Z AUTO 19008KT 7SM 27/19 A2980 RMK T02700190 IEM_DS3505
ZBAA,2001-08-08 11:00,ZBAA 081100Z AUTO 6SM 26/20 A2983 RMK T02600200 IEM_DS3505
ZBAA,2001-08-08 12:00,ZBAA 081200Z AUTO 14002KT 16SM 25/18 A2983 RMK SLP097 T02480179 52006 IEM_DS3505
ZBAA,2001-08-08 13:00,ZBAA 081300Z AUTO 12002KT 6SM 24/20 A2985 RMK T02400200 IEM_DS3505
ZBAA,2001-08-08 14:00,ZBAA 081400Z AUTO 12004KT 6SM 23/21 A2988 RMK T02300210 IEM_DS3505
ZBAA,2001-08-08 15:00,ZBAA 081500Z AUTO 11004KT 6SM 24/21 A2988 RMK SLP112 T02370210 52016 IEM_DS3505
ZBAA,2001-08-08 16:00,ZBAA 081600Z AUTO 6SM 22/21 A2991 RMK T02200210 IEM_DS3505
ZBAA,2001-08-08 17:00,ZBAA 081700Z AUTO 01002KT 6SM 21/20 A2991 RMK T02100200 IEM_DS3505
ZBAA,2001-08-08 18:00,ZBAA 081800Z AUTO 04002KT 7SM 22/21 A2991 RMK SLP122 T02230206 52010 IEM_DS3505
ZBAA,2001-08-08 19:00,ZBAA 081900Z AUTO 35002KT 4SM 21/20 A2991 RMK T02100200 IEM_DS3505
ZBAA,2001-08-08 20:00,ZBAA 082000Z AUTO 4SM 21/20 A2991 RMK T02100200 IEM_DS3505
ZBAA,2001-08-08 21:00,ZBAA 082100Z AUTO 04002KT 4SM 22/20 A2991 RMK SLP125 T02150196 52002 IEM_DS3505
ZBAA,2001-08-08 22:00,ZBAA 082200Z AUTO 34004KT 4SM 20/20 A2991 RMK T02000200 IEM_DS3505
ZBAA,2001-08-08 23:00,ZBAA 082300Z AUTO 34004KT 4SM 22/21 A2994 RMK T02200210 IEM_DS3505
ZBAA,2001-08-09 00:00,ZBAA 090000Z AUTO 07004KT 4SM 24/20 A2994 RMK SLP133 T02370197 52008 IEM_DS3505
ZBAA,2001-08-09 01:00,ZBAA 090100Z AUTO 5SM 25/22 A2994 RMK T02500220 IEM_DS3505
ZBAA,2001-08-09 02:00,ZBAA 090200Z AUTO 6SM 27/22 A2994 RMK T02700220 IEM_DS3505
ZBAA,2001-08-09 03:00,ZBAA 090300Z AUTO 07004KT 5SM 28/21 A2994 RMK SLP131 T02810211 57002 IEM_DS3505
ZBAA,2001-08-09 04:00,ZBAA 090400Z AUTO 6SM 29/23 A2991 RMK T02900230 IEM_DS3505
ZBAA,2001-08-09 05:00,ZBAA 090500Z AUTO 11004KT 6SM 30/23 A2991 RMK T03000230 IEM_DS3505
ZBAA,2001-08-09 06:00,ZBAA 090600Z AUTO 18006KT 7SM 31/22 A2988 RMK SLP117 T03120220 57013 IEM_DS3505
ZBAA,2001-08-09 08:00,ZBAA 090800Z AUTO 6SM 32/21 A2988 RMK T03200210 IEM_DS3505
ZBAA,2001-08-09 09:00,ZBAA 090900Z AUTO 22006KT 9SM 32/21 A2988 RMK SLP111 T03210209 57006 IEM_DS3505
ZBAA,2001-08-09 10:00,ZBAA 091000Z AUTO 18004KT 7SM 31/20 A2985 RMK T03100200 IEM_DS3505
ZBAA,2001-08-09 11:00,ZBAA 091100Z AUTO 14002KT 7SM 28/22 A2988 RMK T02800220 IEM_DS3505
ZBAA,2001-08-09 12:00,ZBAA 091200Z AUTO 22002KT 7SM 29/20 A2991 RMK SLP118 T02860205 52007 IEM_DS3505
ZBAA,2001-08-09 13:00,ZBAA 091300Z AUTO 13002KT 6SM 26/23 A2991 RMK T02600230 IEM_DS3505
ZBAA,2001-08-09 14:00,ZBAA 091400Z AUTO 6SM 25/23 A2994 RMK T02500230 IEM_DS3505
ZBAA,2001-08-09 15:00,ZBAA 091500Z AUTO 00000KT 6SM 24/21 A2994 RMK SLP129 T02420209 52010 IEM_DS3505
ZBAA,2001-08-09 16:00,ZBAA 091600Z AUTO 08002KT 4SM 23/22 A2994 RMK T02300220 IEM_DS3505
ZBAA,2001-08-09 17:00,ZBAA 091700Z AUTO 3SM 23/23 A2994 RMK T02300230 IEM_DS3505
ZBAA,2001-08-09 18:00,ZBAA 091800Z AUTO 00000KT 6SM 23/21 A2994 RMK SLP132 T02320208 52004 IEM_DS3505
ZBAA,2001-08-09 19:00,ZBAA 091900Z AUTO 3SM 23/22 A2994 RMK T02300220 IEM_DS3505
ZBAA,2001-08-09 20:00,ZBAA 092000Z AUTO 35002KT 3SM 22/22 A2994 RMK T02200220 IEM_DS3505
ZBAA,2001-08-09 21:00,ZBAA 092100Z AUTO 04004KT 3SM 23/21 A2997 RMK SLP137 T02290208 52005 IEM_DS3505
ZBAA,2001-08-09 22:00,ZBAA 092200Z AUTO 36004KT 1 1/2SM 22/22 A2997 RMK T02200220 IEM_DS3505
ZBAA,2001-08-09 23:00,ZBAA 092300Z AUTO 35004KT 2 1/2SM 23/22 A2997 RMK T02300220 IEM_DS3505
ZBAA,2001-08-10 00:00,ZBAA 100000Z AUTO 09006KT 2 1/2SM 25/22 A2997 RMK SLP145 T02510220 52008 IEM_DS3505
ZBAA,2001-08-10 01:00,ZBAA 100100Z AUTO 4SM 27/23 A2997 RMK T02700230 IEM_DS3505
ZBAA,2001-08-10 02:00,ZBAA 100200Z AUTO 5SM 29/23 A2997 RMK T02900230 IEM_DS3505
ZBAA,2001-08-10 03:00,ZBAA 100300Z AUTO 07006KT 5SM 30/23 A2997 RMK SLP147 T02980228 52002 IEM_DS3505
ZBAA,2001-08-10 04:00,ZBAA 100400Z AUTO 6SM 31/24 A2997 RMK T03100240 IEM_DS3505
ZBAA,2001-08-10 05:00,ZBAA 100500Z AUTO 17004KT 6SM 32/22 A2994 RMK T03200220 IEM_DS3505
ZBAA,2001-08-10 06:00,ZBAA 100600Z AUTO 20006KT 9SM 33/20 A2994 RMK SLP136 T03260197 57011 IEM_DS3505
ZBAA,2001-08-10 07:00,ZBAA 100700Z AUTO 15006KT 6SM 32/22 A2991 RMK T03200220 IEM_DS3505
ZBAA,2001-08-10 08:00,ZBAA 100800Z AUTO 14004KT 6SM 32/22 A2991 RMK T03200220 IEM_DS3505
ZBAA,2001-08-10 09:00,ZBAA 100900Z AUTO 18006KT 12SM 32/19 A2991 RMK SLP127 T03240194 57009 IEM_DS3505
ZBAA,2001-08-10 10:00,ZBAA 101000Z AUTO 15004KT 6SM 30/23 A2991 RMK T03000230 IEM_DS3505
ZBAA,2001-08-10 11:00,ZBAA 101100Z AUTO 16004KT 6SM 29/23 A2994 RMK T02900230 IEM_DS3505
ZBAA,2001-08-10 12:00,ZBAA 101200Z AUTO 22004KT 6SM 30/21 A2994 RMK SLP136 T02950214 52009 IEM_DS3505
ZBAA,2001-08-10 13:00,ZBAA 101300Z AUTO 15002KT 4SM 27/23 A2994 RMK T02700230 IEM_DS3505
ZBAA,2001-08-10 14:00,ZBAA 101400Z AUTO 10002KT 4SM 26/23 A2997 RMK T02600230 IEM_DS3505
ZBAA,2001-08-10 15:00,ZBAA 101500Z AUTO 00000KT 12SM 26/22 A2997 RMK SLP144 T02580215 52008 IEM_DS3505
ZBAA,2001-08-10 16:00,ZBAA 101600Z AUTO 3SM 25/23 A2997 RMK T02500230 IEM_DS3505
ZBAA,2001-08-10 17:00,ZBAA 101700Z AUTO 3SM 24/23 A2997 RMK T02400230 IEM_DS3505
ZBAA,2001-08-10 18:00,ZBAA 101800Z AUTO 25002KT 6SM 24/21 A2997 RMK SLP143 T02420210 57001 IEM_DS3505
ZBAA,2001-08-10 19:00,ZBAA 101900Z AUTO 36004KT 2 1/2SM 24/22 A2997 RMK T02400220 IEM_DS3505
ZBAA,2001-08-10 20:00,ZBAA 102000Z AUTO 34004KT 2SM 22/21 A2997 RMK T02200210 IEM_DS3505
ZBAA,2001-08-10 21:00,ZBAA 102100Z AUTO 00000KT 4SM 22/21 A2997 RMK SLP143 T02230206 54000 IEM_DS3505
ZBAA,2001-08-10 22:00,ZBAA 102200Z AUTO 35004KT 2SM 22/21 A2997 RMK T02200210 IEM_DS3505
ZBAA,2001-08-10 23:00,ZBAA 102300Z AUTO 35006KT 2 1/2SM 23/22 A3000 RMK T02300220 IEM_DS3505
ZBAA,2001-08-11 00:00,ZBAA 110000Z AUTO 07004KT 5SM 26/21 A3000 RMK SLP148 T02620206 52005 IEM_DS3505
ZBAA,2001-08-11 01:00,ZBAA 110100Z AUTO 01004KT 4SM 27/23 A3000 RMK T02700230 IEM_DS3505
ZBAA,2001-08-11 02:00,ZBAA 110200Z AUTO 5SM 29/24 A3000 RMK T02900240 IEM_DS3505
ZBAA,2001-08-11 03:00,ZBAA 110300Z AUTO 22006KT 9SM 32/19 A3000 RMK SLP151 T03170191 52003 IEM_DS3505
ZBAA,2001-08-11 04:00,ZBAA 110400Z AUTO 6SM 31/21 A2997 RMK T03100210 IEM_DS3505
ZBAA,2001-08-11 05:00,ZBAA 110500Z AUTO 14004KT 6SM 32/20 A2997 RMK T03200200 IEM_DS3505
ZBAA,2001-08-11 06:00,ZBAA 110600Z AUTO 22008KT 16SM 33/15 A2994 RMK SLP137 T03320154 57014 IEM_DS3505
ZBAA,2001-08-11 07:00,ZBAA 110700Z AUTO 14004KT 6SM 33/21 A2991 RMK T03300210 IEM_DS3505
ZBAA,2001-08-11 12:00,ZBAA 111200Z AUTO 22002KT 7SM 28/18 A2991 RMK SLP125 T02850183 52002 IEM_DS3505
ZBAA,2001-08-11 13:00,ZBAA 111300Z AUTO 17004KT 6SM 26/20 A2991 RMK T02600200 IEM_DS3505
ZBAA,2001-08-11 15:00,ZBAA 111500Z AUTO 00000KT 6SM 25/19 A2994 RMK SLP133 T02470191 52008 IEM_DS3505
ZBAA,2001-08-11 16:00,ZBAA 111600Z AUTO 6SM 23/21 A2994 RMK T02300210 IEM_DS3505
ZBAA,2001-08-11 17:00,ZBAA 111700Z AUTO 5SM 22/20 A2994 RMK T02200200 IEM_DS3505
ZBAA,2001-08-11 18:00,ZBAA 111800Z AUTO 22008KT 16SM A2991 RMK SLP137 57014 IEM_DS3505
ZBAA,2001-08-11 19:00,ZBAA 111900Z AUTO 34002KT 5SM 21/21 A2991 RMK T02100210 IEM_DS3505
ZBAA,2001-08-11 20:00,ZBAA 112000Z AUTO 02002KT 4SM 21/21 A2991 RMK T02100210 IEM_DS3505
ZBAA,2001-08-11 21:00,ZBAA 112100Z AUTO 04004KT 4SM 21/19 A2994 RMK SLP130 T02090193 57001 IEM_DS3505
ZBAA,2001-08-11 22:00,ZBAA 112200Z AUTO 36002KT 2 1/2SM 20/19 A2994 RMK T02000190 IEM_DS3505
ZBAA,2001-08-11 23:00,ZBAA 112300Z AUTO 35004KT 2 1/2SM 22/21 A2994 RMK T02200210 IEM_DS3505
ZBAA,2001-08-12 00:00,ZBAA 120000Z AUTO 11006KT 1 1/4SM 24/22 A2994 RMK SLP140 T02380223 52009 IEM_DS3505
ZBAA,2001-08-12 01:00,ZBAA 120100Z AUTO 36004KT 4SM 26/22 A2994 RMK T02600220 IEM_DS3505
ZBAA,2001-08-12 02:00,ZBAA 120200Z AUTO 4SM 27/23 A2994 RMK T02700230 IEM_DS3505
ZBAA,2001-08-12 03:00,ZBAA 120300Z AUTO 14006KT 2 1/2SM 28/23 A2994 RMK SLP138 T02810230 57002 IEM_DS3505
ZBAA,2001-08-12 04:00,ZBAA 120400Z AUTO 11004KT 4SM 29/25 A2991 RMK T02900250 IEM_DS3505
ZBAA,2001-08-12 05:00,ZBAA 120500Z AUTO 13004KT 30/24 A2991 RMK T03000240 IEM_DS3505
ZBAA,2001-08-12 06:00,ZBAA 120600Z AUTO 16006KT 5SM 32/20 A2988 RMK SLP118 T03180198 57019 IEM_DS3505
ZBAA,2001-08-12 07:00,ZBAA 120700Z AUTO 18006KT 6SM 33/15 A2988 RMK T03300150 IEM_DS3505
ZBAA,2001-08-12 08:00,ZBAA 120800Z AUTO 14004KT 6SM 32/19 A2985 RMK T03200190 IEM_DS3505
ZBAA,2001-08-12 09:00,ZBAA 120900Z AUTO 16008KT 10SM 31/19 A2985 RMK SLP107 T03060192 57011 IEM_DS3505
ZBAA,2001-08-12 10:00,ZBAA 121000Z AUTO 14006KT 6SM 29/23 A2985 RMK T02900230 IEM_DS3505
ZBAA,2001-08-12 11:00,ZBAA 121100Z AUTO 13006KT 5SM 28/24 A2985 RMK T02800240 IEM_DS3505
ZBAA,2001-08-12 13:00,ZBAA 121300Z AUTO 12004KT 6SM 25/21 A2991 RMK T02500210 IEM_DS3505
ZBAA,2001-08-12 14:00,ZBAA 121400Z AUTO 12004KT 6SM 24/21 A2991 RMK T02400210 IEM_DS3505
ZBAA,2001-08-12 15:00,ZBAA 121500Z AUTO 01002KT 6SM 22/20 A2991 RMK T02200200 IEM_DS3505
ZBAA,2001-08-12 16:00,ZBAA 121600Z AUTO 6SM 23/20 A2994 RMK T02300200 IEM_DS3505
ZBAA,2001-08-12 17:00,ZBAA 121700Z AUTO 09002KT 6SM 23/21 A2991 RMK T02300210 IEM_DS3505
ZBAA,2001-08-12 18:00,ZBAA 121800Z AUTO 07002KT 6SM 22/19 A2991 RMK SLP126 T02230193 57002 IEM_DS3505
ZBAA,2001-08-12 19:00,ZBAA 121900Z AUTO 10004KT 6SM 22/20 A2991 RMK T02200200 IEM_DS3505
ZBAA,2001-08-12 20:00,ZBAA 122000Z AUTO 6SM 21/20 A2991 RMK T02100200 IEM_DS3505
ZBAA,2001-08-12 21:00,ZBAA 122100Z AUTO 09004KT 6SM 21/19 A2988 RMK SLP125 T02090192 57002 IEM_DS3505
ZBAA,2001-08-12 22:00,ZBAA 122200Z AUTO 6SM 21/20 A2991 RMK T02100200 IEM_DS3505
ZBAA,2001-08-12 23:00,ZBAA 122300Z AUTO 6SM 22/21 A2991 RMK T02200210 IEM_DS3505
ZBAA,2001-08-13 00:00,ZBAA 130000Z AUTO 14004KT 5SM 24/21 A2991 RMK SLP125 T02370207 54000 IEM_DS3505
ZBAA,2001-08-13 01:00,ZBAA 130100Z AUTO 14002KT 4SM 25/22 A2991 RMK T02500220 IEM_DS3505
ZBAA,2001-08-13 02:00,ZBAA 130200Z AUTO 4SM 26/22 A2988 RMK T02600220 IEM_DS3505
ZBAA,2001-08-13 03:00,ZBAA 130300Z AUTO 18004KT 5SM 27/20 A2988 RMK SLP124 T02730204 57001 IEM_DS3505
ZBAA,2001-08-13 04:00,ZBAA 130400Z AUTO 15004KT 7SM 28/21 A2988 RMK T02800210 IEM_DS3505
ZBAA,2001-08-13 05:00,ZBAA 130500Z AUTO 14004KT 7SM 29/21 A2985 RMK T02900210 IEM_DS3505
ZBAA,2001-08-13 06:00,ZBAA 130600Z AUTO 14004KT 6SM 30/20 A2983 RMK SLP101 T02960198 57022 IEM_DS3505
ZBAA,2001-08-13 07:00,ZBAA 130700Z AUTO 15006KT 6SM 30/21 A2980 RMK T03000210 IEM_DS3505
ZBAA,2001-08-13 08:00,ZBAA 130800Z AUTO 6SM 30/23 A2980 RMK T03000230 IEM_DS3505
ZBAA,2001-08-13 09:00,ZBAA 130900Z AUTO 16008KT 6SM 30/19 A2977 RMK SLP084 T02980191 57017 IEM_DS3505
ZBAA,2001-08-13 10:00,ZBAA 131000Z AUTO 15004KT 6SM 29/22 A2977 RMK T02900220 IEM_DS3505
ZBAA,2001-08-13 11:00,ZBAA 131100Z AUTO 14002KT 6SM 27/22 A2977 RMK T02700220 IEM_DS3505
ZBAA,2001-08-13 12:00,ZBAA 131200Z AUTO 18004KT 7SM 28/20 A2980 RMK SLP086 T02750201 52002 IEM_DS3505
ZBAA,2001-08-13 13:00,ZBAA 131300Z AUTO 15004KT 6SM 25/22 A2983 RMK T02500220 IEM_DS3505
ZBAA,2001-08-13 14:00,ZBAA 131400Z AUTO 12002KT 6SM 24/22 A2983 RMK T02400220 IEM_DS3505
ZBAA,2001-08-13 15:00,ZBAA 131500Z AUTO 14004KT 7SM 24/19 A2983 RMK SLP092 T02410191 52006 IEM_DS3505
ZBAA,2001-08-13 16:00,ZBAA 131600Z AUTO 13004KT 7SM 23/21 A2983 RMK T02300210 IEM_DS3505
ZBAA,2001-08-13 17:00,ZBAA 131700Z AUTO 11004KT 6SM 22/20 A2983 RMK T02200200 IEM_DS3505
ZBAA,2001-08-13 18:00,ZBAA 131800Z AUTO 16004KT 7SM 22/18 A2983 RMK SLP093 T02250181 52001 IEM_DS3505
ZBAA,2001-08-13 19:00,ZBAA 131900Z AUTO 4SM 21/20 A2980 RMK T02100200 IEM_DS3505
ZBAA,2001-08-13 20:00,ZBAA 132000Z AUTO 12004KT 4SM 21/20 A2980 RMK T02100200 IEM_DS3505
ZBAA,2001-08-13 21:00,ZBAA 132100Z AUTO 09002KT 4SM 21/20 A2980 RMK T02100200 IEM_DS3505
ZBAA,2001-08-13 22:00,ZBAA 132200Z AUTO 12004KT 4SM 21/20 A2983 RMK T02100200 IEM_DS3505
ZBAA,2001-08-13 23:00,ZBAA 132300Z AUTO 10002KT 4SM 22/21 A2983 RMK T02200210 IEM_DS3505
ZBAA,2001-08-14 00:00,ZBAA 140000Z AUTO 09002KT 5SM 23/20 A2985 RMK SLP098 T02340195 52008 IEM_DS3505
ZBAA,2001-08-14 01:00,ZBAA 140100Z AUTO 11002KT 4SM 24/21 A2985 RMK T02400210 IEM_DS3505
ZBAA,2001-08-14 02:00,ZBAA 140200Z AUTO 4SM 25/21 A2985 RMK T02500210 IEM_DS3505
ZBAA,2001-08-14 03:00,ZBAA 140300Z AUTO 11004KT 6SM 27/21 A2985 RMK SLP103 T02660209 52004 IEM_DS3505
ZBAA,2001-08-14 04:00,ZBAA 140400Z AUTO 13004KT 3SM 27/23 A2983 RMK T02700230 IEM_DS3505
ZBAA,2001-08-14 05:00,ZBAA 140500Z AUTO 18002KT 3SM 28/22 A2983 RMK T02800220 IEM_DS3505
ZBAA,2001-08-14 06:00,ZBAA 140600Z AUTO 22008KT 6SM 30/20 A2980 RMK SLP091 T02960196 57011 IEM_DS3505
ZBAA,2001-08-14 07:00,ZBAA 140700Z AUTO 18008KT 30/22 A2977 RMK T03000220 IEM_DS3505
ZBAA,2001-08-14 08:00,ZBAA 140800Z AUTO 18008KT 6SM 31/21 A2977 RMK T03100210 IEM_DS3505
ZBAA,2001-08-14 09:00,ZBAA 140900Z AUTO 22006KT 6SM 31/19 A2977 RMK SLP083 T03070193 57008 IEM_DS3505
ZBAA,2001-08-14 10:00,ZBAA 141000Z AUTO 15004KT 6SM 29/22 A2980 RMK T02900220 IEM_DS3505
ZBAA,2001-08-14 11:00,ZBAA 141100Z AUTO 15004KT 5SM 28/21 A2980 RMK T02800210 IEM_DS3505
ZBAA,2001-08-14 12:00,ZBAA 141200Z AUTO 20004KT 9SM 28/20 A2983 RMK SLP090 T02830195 52007 IEM_DS3505
ZBAA,2001-08-14 13:00,ZBAA 141300Z AUTO 15002KT 4SM 26/21 A2983 RMK T02600210 IEM_DS3505
ZBAA,2001-08-14 14:00,ZBAA 141400Z AUTO 16004KT 4SM 26/21 A2985 RMK T02600210 IEM_DS3505
ZBAA,2001-08-14 15:00,ZBAA 141500Z AUTO 20002KT 7SM 27/20 A2985 RMK SLP100 T02660202 52010 IEM_DS3505
ZBAA,2001-08-14 16:00,ZBAA 141600Z AUTO 14004KT 4SM 25/22 A2985 RMK T02500220 IEM_DS3505
ZBAA,2001-08-14 17:00,ZBAA 141700Z AUTO 13004KT 4SM 25/22 A2985 RMK T02500220 IEM_DS3505
ZBAA,2001-08-14 18:00,ZBAA 141800Z AUTO 00000KT 6SM 24/20 A2983 RMK SLP099 T02380203 57001 IEM_DS3505
ZBAA,2001-08-14 19:00,ZBAA 141900Z AUTO 12004KT 4SM 23/22 A2983 RMK T02300220 IEM_DS3505
ZBAA,2001-08-14 20:00,ZBAA 142000Z AUTO 12006KT 4SM 23/21 A2983 RMK T02300210 IEM_DS3505
ZBAA,2001-08-14 21:00,ZBAA 142100Z AUTO 12004KT 2 1/2SM 22/21 A2983 RMK T02200210 IEM_DS3505
ZBAA,2001-08-14 22:00,ZBAA 142200Z AUTO 08002KT 2SM 22/21 A2985 RMK T02200210 IEM_DS3505
ZBAA,2001-08-14 23:00,ZBAA 142300Z AUTO 09004KT 2SM 22/21 A2985 RMK T02200210 IEM_DS3505
ZBAA,2001-08-15 00:00,ZBAA 150000Z AUTO 00000KT 4SM 24/20 A2988 RMK SLP112 T02440200 52013 IEM_DS3505
ZBAA,2001-08-15 01:00,ZBAA 150100Z AUTO 12004KT 2 1/2SM 25/21 A2988 RMK T02500210 IEM_DS3505
ZBAA,2001-08-15 02:00,ZBAA 150200Z AUTO 11004KT 2 1/2SM 27/22 A2988 RMK T02700220 IEM_DS3505
ZBAA,2001-08-15 03:00,ZBAA 150300Z AUTO 18006KT 3SM 28/21 A2988 RMK SLP114 T02830213 52002 IEM_DS3505
ZBAA,2001-08-15 04:00,ZBAA 150400Z AUTO 11004KT 3SM 29/23 A2985 RMK T02900230 IEM_DS3505
ZBAA,2001-08-15 05:00,ZBAA 150500Z AUTO 14006KT 30/23 A2985 RMK T03000230 IEM_DS3505
ZBAA,2001-08-15 06:00,ZBAA 150600Z AUTO 14010KT 5SM 31/20 A2983 RMK SLP100 T03060198 57014 IEM_DS3505
ZBAA,2001-08-15 07:00,ZBAA 150700Z AUTO 13006KT 6SM 30/21 A2983 RMK T03000210 IEM_DS3505
ZBAA,2001-08-15 08:00,ZBAA 150800Z AUTO 13006KT 7SM 30/20 A2980 RMK T03000200 IEM_DS3505
ZBAA,2001-08-15 09:00,ZBAA 150900Z AUTO 14008KT 7SM 30/19 A2980 RMK SLP084 T03040186 57016 IEM_DS3505
ZBAA,2001-08-15 10:00,ZBAA 151000Z AUTO 13004KT 6SM 28/20 A2980 RMK T02800200 IEM_DS3505
ZBAA,2001-08-15 11:00,ZBAA 151100Z AUTO 12006KT 6SM 28/22 A2980 RMK T02800220 IEM_DS3505
ZBAA,2001-08-15 12:00,ZBAA 151200Z AUTO 14008KT 6SM 27/21 A2983 RMK SLP092 T02680214 52008 IEM_DS3505
ZBAA,2001-08-15 13:00,ZBAA 151300Z AUTO 11006KT 4SM 25/22 A2985 RMK T02500220 IEM_DS3505
ZBAA,2001-08-15 14:00,ZBAA 151400Z AUTO 12004KT 4SM 25/21 A2985 RMK T02500210 IEM_DS3505
ZBAA,2001-08-15 15:00,ZBAA 151500Z AUTO 18004KT 4SM 25/22 A2985 RMK SLP104 T02490225 52012 IEM_DS3505
ZBAA,2001-08-15 16:00,ZBAA 151600Z AUTO 13002KT 4SM 24/22 A2985 RMK T02400220 IEM_DS3505
ZBAA,2001-08-15 17:00,ZBAA 151700Z AUTO 10004KT 3SM 24/22 A2983 RMK T02400220 IEM_DS3505
ZBAA,2001-08-15 18:00,ZBAA 151800Z AUTO 09002KT 2 1/2SM 23/22 A2980 RMK SLP088 T02320215 57016 IEM_DS3505
ZBAA,2001-08-15 19:00,ZBAA 151900Z AUTO 10002KT 2SM 23/23 A2980 RMK T02300230 IEM_DS3505
ZBAA,2001-08-15 20:00,ZBAA 152000Z AUTO 05002KT 2SM 24/23 A2980 RMK T02400230 IEM_DS3505
ZBAA,2001-08-15 21:00,ZBAA 152100Z AUTO 09004KT 2SM 24/22 A2980 RMK 70003 SLP088 T02360221 54000 IEM_DS3505
ZBAA,2001-08-15 22:00,ZBAA 152200Z AUTO 10004KT 1 1/2SM 23/23 A2980 RMK T02300230 IEM_DS3505
ZBAA,2001-08-15 23:00,ZBAA 152300Z AUTO 1 1/2SM 24/23 A2983 RMK T02400230 IEM_DS3505
ZBAA,2001-08-16 00:00,ZBAA 160000Z AUTO 11004KT 2SM 24/22 A2983 RMK 60003 SLP095 T02430225 52007 IEM_DS3505
ZBAA,2001-08-16 01:00,ZBAA 160100Z AUTO 10004KT 1 1/4SM 25/24 A2983 RMK T02500240 IEM_DS3505
ZBAA,2001-08-16 02:00,ZBAA 160200Z AUTO 11004KT 1 1/4SM 25/24 A2983 RMK T02500240 IEM_DS3505
ZBAA,2001-08-16 03:00,ZBAA 160300Z AUTO 00000KT 2SM 27/23 A2983 RMK SLP094 T02660231 57001 IEM_DS3505
ZBAA,2001-08-16 04:00,ZBAA 160400Z AUTO 14004KT 1 1/4SM 26/24 A2980 RMK T02600240 IEM_DS3505
ZBAA,2001-08-16 05:00,ZBAA 160500Z AUTO 28006KT 1 1/4SM 25/24 A2980 RMK T02500240 IEM_DS3505
ZBAA,2001-08-16 06:00,ZBAA 160600Z AUTO 22010KT 5SM 28/21 A2977 RMK SLP080 T02780209 57014 IEM_DS3505
ZBAA,2001-08-16 07:00,ZBAA 160700Z AUTO 2SM 25/24 A2977 RMK T02500240 IEM_DS3505
ZBAA,2001-08-16 08:00,ZBAA 160800Z AUTO 2SM 25/24 A2977 RMK T02500240 IEM_DS3505
ZBAA,2001-08-16 09:00,ZBAA 160900Z AUTO 22004KT 4SM 27/21 A2977 RMK SLP076 T02670210 57004 IEM_DS3505
ZBAA,2001-08-16 10:00,ZBAA 161000Z AUTO 2SM 24/23 A2977 RMK T02400230 IEM_DS3505
ZBAA,2001-08-16 11:00,ZBAA 161100Z AUTO 1 1/2SM 23/23 A2977 RMK T02300230 IEM_DS3505
ZBAA,2001-08-16 12:00,ZBAA 161200Z AUTO 00000KT 3SM 26/21 A2980 RMK SLP083 T02570212 52007 IEM_DS3505
ZBAA,2001-08-16 13:00,ZBAA 161300Z AUTO 09004KT 1 1/2SM 23/22 A2983 RMK T02300220 IEM_DS3505
ZBAA,2001-08-16 14:00,ZBAA 161400Z AUTO 12004KT 2SM 23/22 A2983 RMK T02300220 IEM_DS3505
ZBAA,2001-08-16 15:00,ZBAA 161500Z AUTO 09004KT 4SM 24/22 A2983 RMK SLP091 T02400215 52008 IEM_DS3505
ZBAA,2001-08-16 16:00,ZBAA 161600Z AUTO 10002KT 2SM 23/22 A2983 RMK T02300220 IEM_DS3505
ZBAA,2001-08-16 17:00,ZBAA 161700Z AUTO 35004KT 2SM 22/22 A2983 RMK T02200220 IEM_DS3505
ZBAA,2001-08-16 18:00,ZBAA 161800Z AUTO 36004KT 5SM 23/22 A2983 RMK 60002 SLP091 T02320217 54000 IEM_DS3505
ZBAA,2001-08-16 19:00,ZBAA 161900Z AUTO 1 1/4SM 23/22 A2983 RMK T02300220 IEM_DS3505
ZBAA,2001-08-16 20:00,ZBAA 162000Z AUTO 1 1/4SM 23/22 A2980 RMK T02300220 IEM_DS3505
ZBAA,2001-08-16 21:00,ZBAA 162100Z AUTO 09004KT 2 1/2SM 23/22 A2983 RMK 70002 SLP092 T02320220 54000 IEM_DS3505
ZBAA,2001-08-16 22:00,ZBAA 162200Z AUTO 1SM 23/23 A2983 RMK T02300230 IEM_DS3505
ZBAA,2001-08-16 23:00,ZBAA 162300Z AUTO 11002KT 1SM 23/23 A2983 RMK T02300230 IEM_DS3505
ZBAA,2001-08-17 00:00,ZBAA 170000Z AUTO 09002KT 1SM 23/23 A2983 RMK T02300230 IEM_DS3505
ZBAA,2001-08-17 01:00,ZBAA 170100Z AUTO 12002KT 1SM 23/23 A2983 RMK T02300230 IEM_DS3505
ZBAA,2001-08-17 02:00,ZBAA 170200Z AUTO 10004KT 1SM 25/24 A2983 RMK T02500240 IEM_DS3505
ZBAA,2001-08-17 03:00,ZBAA 170300Z AUTO 11006KT 4SM 27/22 A2983 RMK SLP099 T02690220 52003 IEM_DS3505
ZBAA,2001-08-17 04:00,ZBAA 170400Z AUTO 10004KT 1 1/2SM 27/24 A2983 RMK T02700240 IEM_DS3505
ZBAA,2001-08-17 05:00,ZBAA 170500Z AUTO 1 1/2SM 28/23 A2983 RMK T02800230 IEM_DS3505
ZBAA,2001-08-17 06:00,ZBAA 170600Z AUTO 16008KT 6SM 29/22 A2980 RMK SLP087 T02930215 57012 IEM_DS3505
ZBAA,2001-08-17 07:00,ZBAA 170700Z AUTO 13004KT 2 1/2SM 29/24 A2980 RMK T02900240 IEM_DS3505
ZBAA,2001-08-17 08:00,ZBAA 170800Z AUTO 11006KT 2 1/2SM 29/24 A2980 RMK T02900240 IEM_DS3505
ZBAA,2001-08-17 09:00,ZBAA 170900Z AUTO 16006KT 9SM 30/21 A2980 RMK SLP080 T02970206 57007 IEM_DS3505
ZBAA,2001-08-17 10:00,ZBAA 171000Z AUTO 09004KT 2 1/2SM 28/25 A2980 RMK T02800250 IEM_DS3505
ZBAA,2001-08-17 11:00,ZBAA 171100Z AUTO 10002KT 2 1/2SM 27/25 A2980 RMK T02700250 IEM_DS3505
ZBAA,2001-08-17 12:00,ZBAA 171200Z AUTO 14006KT 6SM 27/23 A2983 RMK SLP093 T02720227 52013 IEM_DS3505
ZBAA,2001-08-17 13:00,ZBAA 171300Z AUTO 13004KT 1 1/4SM 26/24 A2985 RMK T02600240 IEM_DS3505
ZBAA,2001-08-17 14:00,ZBAA 171400Z AUTO 14002KT 1 1/4SM 25/23 A2985 RMK T02500230 IEM_DS3505
ZBAA,2001-08-17 15:00,ZBAA 171500Z AUTO 18004KT 6SM 25/23 A2985 RMK SLP102 T02520226 52009 IEM_DS3505
ZBAA,2001-08-17 16:00,ZBAA 171600Z AUTO 1 1/4SM 24/23 A2985 RMK T02400230 IEM_DS3505
ZBAA,2001-08-17 17:00,ZBAA 171700Z AUTO 2SM 23/22 A2985 RMK T02300220 IEM_DS3505
ZBAA,2001-08-17 18:00,ZBAA 171800Z AUTO 00000KT 4SM 24/22 A2985 RMK 60000 SLP101 T02420224 57001 IEM_DS3505
ZBAA,2001-08-17 19:00,ZBAA 171900Z AUTO 34004KT 2 1/2SM 21/21 A2985 RMK T02100210 IEM_DS3505
ZBAA,2001-08-17 20:00,ZBAA 172000Z AUTO 01002KT 2 1/2SM 22/21 A2985 RMK T02200210 IEM_DS3505
ZBAA,2001-08-17 21:00,ZBAA 172100Z AUTO 09004KT 2 1/2SM 23/22 A2988 RMK 70000 SLP111 T02310221 52010 IEM_DS3505
ZBAA,2001-08-17 22:00,ZBAA 172200Z AUTO 35002KT 2SM 22/22 A2988 RMK T02200220 IEM_DS3505
ZBAA,2001-08-17 23:00,ZBAA 172300Z AUTO 36002KT 1 1/2SM 23/22 A2988 RMK T02300220 IEM_DS3505
ZBAA,2001-08-18 00:00,ZBAA 180000Z AUTO 07002KT 2 1/2SM 24/22 A2991 RMK 70000 SLP122 T02430222 52010 IEM_DS3505
ZBAA,2001-08-18 01:00,ZBAA 180100Z AUTO 14004KT 1 1/2SM 25/24 A2991 RMK T02500240 IEM_DS3505
ZBAA,2001-08-18 02:00,ZBAA 180200Z AUTO 11002KT 2SM 26/24 A2991 RMK T02600240 IEM_DS3505
ZBAA,2001-08-18 03:00,ZBAA 180300Z AUTO 11002KT 4SM 27/23 RMK SLP126 T02660226 52004 IEM_DS3505
ZBAA,2001-08-18 04:00,ZBAA 180400Z AUTO 3SM 27/24 A2991 RMK T02700240 IEM_DS3505
ZBAA,2001-08-18 05:00,ZBAA 180500Z AUTO 08002KT 4SM 28/23 A2988 RMK T02800230 IEM_DS3505
ZBAA,2001-08-18 06:00,ZBAA 180600Z AUTO 09006KT 4SM 29/23 A2985 RMK SLP108 T02860233 57017 IEM_DS3505
ZBAA,2001-08-18 07:00,ZBAA 180700Z AUTO 12004KT 4SM 28/24 A2985 RMK T02800240 IEM_DS3505
ZBAA,2001-08-18 08:00,ZBAA 180800Z AUTO 08002KT 4SM 28/24 A2983 RMK T02800240 IEM_DS3505
ZBAA,2001-08-18 09:00,ZBAA 180900Z AUTO 11002KT 4SM 27/23 A2983 RMK SLP101 T02730232 57008 IEM_DS3505
ZBAA,2001-08-18 10:00,ZBAA 181000Z AUTO 2 1/2SM 27/25 A2983 RMK T02700250 IEM_DS3505
ZBAA,2001-08-18 11:00,ZBAA 181100Z AUTO 2SM 26/25 A2985 RMK T02600250 IEM_DS3505
ZBAA,2001-08-18 12:00,ZBAA 181200Z AUTO 09004KT 2 1/2SM 24/22 A2985 RMK 60001 SLP102 T02440217 52001 IEM_DS3505
ZBAA,2001-08-18 13:00,ZBAA 181300Z AUTO 35006KT 1 1/4SM 24/23 A2985 RMK T02400230 IEM_DS3505
ZBAA,2001-08-18 14:00,ZBAA 181400Z AUTO 1 1/4SM 23/23 A2985 RMK T02300230 IEM_DS3505
ZBAA,2001-08-18 15:00,ZBAA 181500Z AUTO 32002KT 5SM 24/23 A2985 RMK SLP105 T02400230 52003 IEM_DS3505
ZBAA,2001-08-18 16:00,ZBAA 181600Z AUTO 03004KT 2SM 22/22 A2985 RMK T02200220 IEM_DS3505
ZBAA,2001-08-18 17:00,ZBAA 181700Z AUTO 01004KT 2SM 22/22 A2983 RMK T02200220 IEM_DS3505
ZBAA,2001-08-18 18:00,ZBAA 181800Z AUTO 02002KT 6SM 23/22 A2983 RMK 60028 SLP094 T02280219 57010 IEM_DS3505
ZBAA,2001-08-18 19:00,ZBAA 181900Z AUTO 34004KT 3SM 22/22 A2980 RMK T02200220 IEM_DS3505
ZBAA,2001-08-18 20:00,ZBAA 182000Z AUTO 36004KT 7SM 22/22 A2980 RMK T02200220 IEM_DS3505
ZBAA,2001-08-18 21:00,ZBAA 182100Z AUTO 04002KT 6SM 23/22 A2980 RMK 70030 SLP085 T02270215 57009 IEM_DS3505
ZBAA,2001-08-18 22:00,ZBAA 182200Z AUTO 01004KT 7SM 22/22 A2980 RMK T02200220 IEM_DS3505
ZBAA,2001-08-18 23:00,ZBAA 182300Z AUTO 02002KT 7SM 22/22 A2977 RMK T02200220 IEM_DS3505
ZBAA,2001-08-19 00:00,ZBAA 190000Z AUTO 16006KT 2 1/2SM 23/22 A2977 RMK 60004 SLP085 T02290223 57001 IEM_DS3505
ZBAA,2001-08-19 01:00,ZBAA 190100Z AUTO 19006KT 1SM 23/23 A2980 RMK T02300230 IEM_DS3505
ZBAA,2001-08-19 02:00,ZBAA 190200Z AUTO 36002KT 4SM 23/23 A2980 RMK T02300230 IEM_DS3505
ZBAA,2001-08-19 03:00,ZBAA 190300Z AUTO 22006KT 2SM 24/23 A2980 RMK SLP084 T02430234 57001 IEM_DS3505
ZBAA,2001-08-19 04:00,ZBAA 190400Z AUTO 28016KT 4SM 21/21 A2980 RMK T02100210 IEM_DS3505
ZBAA,2001-08-19 05:00,ZBAA 190500Z AUTO 31008KT 7SM 21/20 A2980 RMK T02100200 IEM_DS3505
ZBAA,2001-08-19 06:00,ZBAA 190600Z AUTO 02006G21KT 2 1/2SM 20/19 A2980 RMK 60087 SLP087 T01960188 52003 IEM_DS3505
ZBAA,2001-08-19 07:00,ZBAA 190700Z AUTO 30016KT 7SM 20/19 A2980 RMK T02000190 IEM_DS3505
ZBAA,2001-08-19 08:00,ZBAA 190800Z AUTO 31010KT 7SM 20/19 A2980 RMK T02000190 IEM_DS3505
ZBAA,2001-08-19 09:00,ZBAA 190900Z AUTO 04006KT 12SM 20/17 A2980 RMK SLP090 T02050169 52003 IEM_DS3505
ZBAA,2001-08-19 10:00,ZBAA 191000Z AUTO 36004KT 7SM 20/19 A2983 RMK T02000190 IEM_DS3505
ZBAA,2001-08-19 11:00,ZBAA 191100Z AUTO 01004KT 6SM 20/19 A2983 RMK T02000190 IEM_DS3505
ZBAA,2001-08-19 12:00,ZBAA 191200Z AUTO 02006KT 12SM 22/17 A2983 RMK 60043 SLP092 T02170168 52002 IEM_DS3505
ZBAA,2001-08-19 13:00,ZBAA 191300Z AUTO 36004KT 6SM 20/19 A2983 RMK T02000190 IEM_DS3505
ZBAA,2001-08-19 14:00,ZBAA 191400Z AUTO 36006KT 6SM 19/19 A2983 RMK T01900190 IEM_DS3505
ZBAA,2001-08-19 15:00,ZBAA 191500Z AUTO 02002KT 16SM 20/17 A2983 RMK SLP094 T02030172 52002 IEM_DS3505
ZBAA,2001-08-19 16:00,ZBAA 191600Z AUTO 35006KT 6SM 19/18 A2983 RMK T01900180 IEM_DS3505
ZBAA,2001-08-19 17:00,ZBAA 191700Z AUTO 36004KT 6SM 18/18 A2983 RMK T01800180 IEM_DS3505
ZBAA,2001-08-19 18:00,ZBAA 191800Z AUTO 32004KT 9SM 20/18 A2980 RMK SLP092 T01950179 57002 IEM_DS3505
ZBAA,2001-08-19 19:00,ZBAA 191900Z AUTO 32004KT 6SM 19/18 A2980 RMK T01900180 IEM_DS3505
ZBAA,2001-08-19 20:00,ZBAA 192000Z AUTO 28004KT 6SM 18/18 A2980 RMK T01800180 IEM_DS3505
ZBAA,2001-08-19 21:00,ZBAA 192100Z AUTO 02002KT 7SM 18/17 A2980 RMK 70137 SLP087 T01820174 57005 IEM_DS3505
ZBAA,2001-08-19 22:00,ZBAA 192200Z AUTO 29002KT 6SM 18/18 A2980 RMK T01800180 IEM_DS3505
ZBAA,2001-08-19 23:00,ZBAA 192300Z AUTO 33004KT 6SM 20/18 A2980 RMK T02000180 IEM_DS3505
ZBAA,2001-08-20 00:00,ZBAA 200000Z AUTO 07004KT 6SM 22/18 A2980 RMK 70131 SLP090 T02200177 52003 IEM_DS3505
ZBAA,2001-08-20 01:00,ZBAA 200100Z AUTO 36004KT 6SM 24/19 A2980 RMK T02400190 IEM_DS3505
ZBAA,2001-08-20 02:00,ZBAA 200200Z AUTO 6SM 26/19 A2980 RMK T02600190 IEM_DS3505
ZBAA,2001-08-20 03:00,ZBAA 200300Z AUTO 00000KT 12SM 26/18 A2980 RMK SLP089 T02610183 57001 IEM_DS3505
ZBAA,2001-08-20 04:00,ZBAA 200400Z AUTO 14002KT 6SM 29/21 A2977 RMK T02900210 IEM_DS3505
ZBAA,2001-08-20 05:00,ZBAA 200500Z AUTO 13004KT 6SM 29/21 A2977 RMK T02900210 IEM_DS3505
ZBAA,2001-08-20 06:00,ZBAA 200600Z AUTO 18004KT 17SM 30/19 A2974 RMK SLP068 T02970188 57020 IEM_DS3505
ZBAA,2001-08-20 07:00,ZBAA 200700Z AUTO 14004KT 6SM 31/20 A2971 RMK T03100200 IEM_DS3505
ZBAA,2001-08-20 08:00,ZBAA 200800Z AUTO 16006KT 6SM 30/22 A2971 RMK T03000220 IEM_DS3505
ZBAA,2001-08-20 09:00,ZBAA 200900Z AUTO 18006KT 19SM 30/20 A2971 RMK SLP058 T02990205 57011 IEM_DS3505
ZBAA,2001-08-20 10:00,ZBAA 201000Z AUTO 16004KT 6SM 28/23 A2971 RMK T02800230 IEM_DS3505
ZBAA,2001-08-20 11:00,ZBAA 201100Z AUTO 15004KT 6SM 26/22 A2971 RMK T02600220 IEM_DS3505
ZBAA,2001-08-20 12:00,ZBAA 201200Z AUTO 20004KT 9SM 26/22 A2971 RMK SLP055 T02620216 57002 IEM_DS3505
ZBAA,2001-08-20 13:00,ZBAA 201300Z AUTO 14002KT 6SM 24/23 A2971 RMK T02400230 IEM_DS3505
ZBAA,2001-08-20 14:00,ZBAA 201400Z AUTO 11002KT 6SM 24/23 A2971 RMK T02400230 IEM_DS3505
ZBAA,2001-08-20 15:00,ZBAA 201500Z AUTO 20002KT 7SM 24/22 A2971 RMK SLP055 T02430215 54000 IEM_DS3505
ZBAA,2001-08-20 16:00,ZBAA 201600Z AUTO 12004KT 6SM 23/22 A2968 RMK T02300220 IEM_DS3505
ZBAA,2001-08-20 17:00,ZBAA 201700Z AUTO 10004KT 5SM 23/22 A2968 RMK T02300220 IEM_DS3505
ZBAA,2001-08-20 18:00,ZBAA 201800Z AUTO 14002KT 5SM 22/21 A2968 RMK SLP046 T02190208 57009 IEM_DS3505
ZBAA,2001-08-20 19:00,ZBAA 201900Z AUTO 2SM 22/22 A2965 RMK T02200220 IEM_DS3505
ZBAA,2001-08-20 20:00,ZBAA 202000Z AUTO 1 1/4SM 21/21 A2965 RMK T02100210 IEM_DS3505
ZBAA,2001-08-20 21:00,ZBAA 202100Z AUTO 20004KT 9SM 26/22 A2965 RMK SLP055 T02620216 57002 IEM_DS3505
ZBAA,2001-08-20 22:00,ZBAA 202200Z AUTO 36002KT 1 1/4SM 21/21 A2965 RMK T02100210 IEM_DS3505
ZBAA,2001-08-20 23:00,ZBAA 202300Z AUTO 35002KT 1 1/4SM 21/21 A2965 RMK T02100210 IEM_DS3505
ZBAA,2001-08-21 00:00,ZBAA 210000Z AUTO 04004KT 2SM 24/22 A2965 RMK SLP037 T02370219 57001 IEM_DS3505
ZBAA,2001-08-21 01:00,ZBAA 210100Z AUTO 34006KT 3SM 26/23 A2965 RMK T02600230 IEM_DS3505
ZBAA,2001-08-21 02:00,ZBAA 210200Z AUTO 31008KT 4SM 28/23 A2965 RMK T02800230 IEM_DS3505
ZBAA,2001-08-21 03:00,ZBAA 210300Z AUTO 36006KT 9SM 32/16 A2962 RMK SLP025 T03200159 57012 IEM_DS3505
ZBAA,2001-08-21 04:00,ZBAA 210400Z AUTO 30008KT 6SM 33/17 A2959 RMK T03300170 IEM_DS3505
ZBAA,2001-08-21 05:00,ZBAA 210500Z AUTO 28008KT 6SM 33/16 A2959 RMK T03300160 IEM_DS3505
ZBAA,2001-08-21 06:00,ZBAA 210600Z AUTO 02006KT 19SM 34/12 A2956 RMK SLP007 T03450117 57018 IEM_DS3505
ZBAA,2001-08-21 07:00,ZBAA 210700Z AUTO 34006KT 6SM 34/18 A2953 RMK T03400180 IEM_DS3505
ZBAA,2001-08-21 08:00,ZBAA 210800Z AUTO 07002KT 6SM 33/21 A2953 RMK T03300210 IEM_DS3505
ZBAA,2001-08-21 09:00,ZBAA 210900Z AUTO 36008KT 19SM 35/ A2953 RMK SLP995 57012 IEM_DS3505
ZBAA,2001-08-21 10:00,ZBAA 211000Z AUTO 06002KT 6SM 32/21 A2953 RMK T03200210 IEM_DS3505
ZBAA,2001-08-21 11:00,ZBAA 211100Z AUTO 10002KT 6SM 29/21 A2953 RMK T02900210 IEM_DS3505
ZBAA,2001-08-21 12:00,ZBAA 211200Z AUTO 16004KT 19SM 27/20 A2956 RMK SLP003 T02710203 52008 IEM_DS3505
ZBAA,2001-08-21 13:00,ZBAA 211300Z AUTO 19002KT 6SM 27/20 A2956 RMK T02700200 IEM_DS3505
ZBAA,2001-08-21 14:00,ZBAA 211400Z AUTO 6SM 26/21 A2956 RMK T02600210 IEM_DS3505
ZBAA,2001-08-21 15:00,ZBAA 211500Z AUTO 22004KT 12SM 26/20 A2956 RMK SLP009 T02620200 52006 IEM_DS3505
ZBAA,2001-08-21 16:00,ZBAA 211600Z AUTO 6SM 23/21 A2956 RMK T02300210 IEM_DS3505
ZBAA,2001-08-21 17:00,ZBAA 211700Z AUTO 36002KT 6SM 21/21 A2956 RMK T02100210 IEM_DS3505
ZBAA,2001-08-21 18:00,ZBAA 211800Z AUTO 00000KT 6SM 24/20 A2956 RMK SLP006 T02450202 57003 IEM_DS3505
ZBAA,2001-08-21 19:00,ZBAA 211900Z AUTO 36004KT 6SM 20/19 A2956 RMK T02000190 IEM_DS3505
ZBAA,2001-08-21 20:00,ZBAA 212000Z AUTO 35006KT 6SM 19/18 A2953 RMK T01900180 IEM_DS3505
ZBAA,2001-08-21 21:00,ZBAA 212100Z AUTO 04006KT 6SM 22/18 A2953 RMK SLP000 T02240185 57006 IEM_DS3505
ZBAA,2001-08-21 22:00,ZBAA 212200Z AUTO 34006KT 6SM 20/18 A2953 RMK T02000180 IEM_DS3505
ZBAA,2001-08-21 23:00,ZBAA 212300Z AUTO 36006KT 6SM 21/18 A2953 RMK T02100180 IEM_DS3505
ZBAA,2001-08-22 00:00,ZBAA 220000Z AUTO 04006KT 12SM 25/16 A2953 RMK SLP003 T02530155 52003 IEM_DS3505
ZBAA,2001-08-22 01:00,ZBAA 220100Z AUTO 36010KT 6SM 26/18 A2956 RMK T02600180 IEM_DS3505
ZBAA,2001-08-22 02:00,ZBAA 220200Z AUTO 01008KT 6SM 27/18 A2956 RMK T02700180 IEM_DS3505
ZBAA,2001-08-22 03:00,ZBAA 220300Z AUTO 04006KT 19SM 30/16 A2956 RMK SLP005 T03000156 52002 IEM_DS3505
ZBAA,2001-08-22 04:00,ZBAA 220400Z AUTO 03006KT 6SM 30/18 A2956 RMK T03000180 IEM_DS3505
ZBAA,2001-08-22 05:00,ZBAA 220500Z AUTO 6SM 31/18 A2953 RMK T03100180 IEM_DS3505
ZBAA,2001-08-22 06:00,ZBAA 220600Z AUTO 04010KT 19SM 32/14 A2953 RMK SLP998 T03170137 57007 IEM_DS3505
ZBAA,2001-08-22 07:00,ZBAA 220700Z AUTO 6SM 32/20 A2950 RMK T03200200 IEM_DS3505
ZBAA,2001-08-22 08:00,ZBAA 220800Z AUTO 08006KT 6SM 31/18 A2950 RMK T03100180 IEM_DS3505
ZBAA,2001-08-22 09:00,ZBAA 220900Z AUTO 09006KT 19SM 31/17 A2950 RMK SLP991 T03140169 57007 IEM_DS3505
ZBAA,2001-08-22 10:00,ZBAA 221000Z AUTO 08002KT 6SM 30/19 A2953 RMK T03000190 IEM_DS3505
ZBAA,2001-08-22 11:00,ZBAA 221100Z AUTO 02002KT 6SM 28/19 A2953 RMK T02800190 IEM_DS3505
ZBAA,2001-08-22 12:00,ZBAA 221200Z AUTO 09002KT 19SM 27/17 A2956 RMK SLP001 T02710168 52010 IEM_DS3505
ZBAA,2001-08-22 13:00,ZBAA 221300Z AUTO 03002KT 6SM 25/18 A2956 RMK T02500180 IEM_DS3505
ZBAA,2001-08-22 14:00,ZBAA 221400Z AUTO 6SM 23/20 A2959 RMK T02300200 IEM_DS3505
ZBAA,2001-08-22 15:00,ZBAA 221500Z AUTO 00000KT 19SM 24/19 A2959 RMK SLP008 T02380190 52007 IEM_DS3505
ZBAA,2001-08-22 16:00,ZBAA 221600Z AUTO 6SM 22/19 A2959 RMK T02200190 IEM_DS3505
ZBAA,2001-08-22 17:00,ZBAA 221700Z AUTO 7SM 24/20 A2962 RMK T02400200 IEM_DS3505
ZBAA,2001-08-22 18:00,ZBAA 221800Z AUTO 22006KT 11SM 25/19 A2959 RMK 60000 SLP023 T02480191 52015 IEM_DS3505
ZBAA,2001-08-22 19:00,ZBAA 221900Z AUTO 6SM 22/20 A2959 RMK T02200200 IEM_DS3505
ZBAA,2001-08-22 20:00,ZBAA 222000Z AUTO 6SM 22/20 A2959 RMK T02200200 IEM_DS3505
ZBAA,2001-08-22 21:00,ZBAA 222100Z AUTO 25004KT 9SM 22/18 A2959 RMK 70004 SLP020 T02210180 57003 IEM_DS3505
ZBAA,2001-08-22 22:00,ZBAA 222200Z AUTO 35004KT 6SM 20/19 A2959 RMK T02000190 IEM_DS3505
ZBAA,2001-08-22 23:00,ZBAA 222300Z AUTO 36004KT 6SM 22/20 A2959 RMK T02200200 IEM_DS3505
ZBAA,2001-08-23 00:00,ZBAA 230000Z AUTO 22006KT 9SM 23/19 A2962 RMK 60004 SLP029 T02280189 52009 IEM_DS3505
ZBAA,2001-08-23 01:00,ZBAA 230100Z AUTO 21006KT 6SM 25/21 A2962 RMK T02500210 IEM_DS3505
ZBAA,2001-08-23 02:00,ZBAA 230200Z AUTO 21004KT 5SM 26/22 A2962 RMK T02600220 IEM_DS3505
ZBAA,2001-08-23 03:00,ZBAA 230300Z AUTO 25006KT 11SM 27/18 A2959 RMK SLP023 T02720185 57006 IEM_DS3505
ZBAA,2001-08-23 04:00,ZBAA 230400Z AUTO 6SM 29/20 A2959 RMK T02900200 IEM_DS3505
ZBAA,2001-08-23 05:00,ZBAA 230500Z AUTO 6SM 30/20 A2956 RMK T03000200 IEM_DS3505
ZBAA,2001-08-23 06:00,ZBAA 230600Z AUTO 16004KT 19SM 30/19 A2956 RMK SLP008 T02950190 57015 IEM_DS3505
ZBAA,2001-08-23 07:00,ZBAA 230700Z AUTO 16004KT 6SM 31/19 A2953 RMK T03100190 IEM_DS3505
ZBAA,2001-08-23 08:00,ZBAA 230800Z AUTO 14004KT 6SM 30/21 A2953 RMK T03000210 IEM_DS3505
ZBAA,2001-08-23 09:00,ZBAA 230900Z AUTO 18008KT 19SM 30/19 A2950 RMK SLP993 T02980194 57015 IEM_DS3505
ZBAA,2001-08-23 10:00,ZBAA 231000Z AUTO 15006KT 6SM 28/22 A2950 RMK T02800220 IEM_DS3505
ZBAA,2001-08-23 11:00,ZBAA 231100Z AUTO 15004KT 6SM 27/22 A2953 RMK T02700220 IEM_DS3505
ZBAA,2001-08-23 12:00,ZBAA 231200Z AUTO 09002G43KT 9SM 27/21 A2959 RMK SLP011 T02730214 52018 IEM_DS3505
ZBAA,2001-08-23 13:00,ZBAA 231300Z AUTO 34008KT 7SM 22/18 A2962 RMK T02200180 IEM_DS3505
ZBAA,2001-08-23 14:00,ZBAA 231400Z AUTO 11006KT 6SM 20/18 A2962 RMK T02000180 IEM_DS3505
ZBAA,2001-08-23 15:00,ZBAA 231500Z AUTO 25004KT 6SM 20/19 A2965 RMK SLP032 T01970188 52021 IEM_DS3505
ZBAA,2001-08-23 16:00,ZBAA 231600Z AUTO 33004KT 6SM 20/18 A2962 RMK T02000180 IEM_DS3505
ZBAA,2001-08-23 17:00,ZBAA 231700Z AUTO 6SM 19/18 A2965 RMK T01900180 IEM_DS3505
ZBAA,2001-08-23 18:00,ZBAA 231800Z AUTO 07006KT 6SM 20/19 A2962 RMK 60012 SLP029 T02010193 57003 IEM_DS3505
ZBAA,2001-08-23 19:00,ZBAA 231900Z AUTO 7SM 19/18 A2965 RMK T01900180 IEM_DS3505
ZBAA,2001-08-23 20:00,ZBAA 232000Z AUTO 35004KT 7SM 20/19 A2965 RMK T02000190 IEM_DS3505
ZBAA,2001-08-23 21:00,ZBAA 232100Z AUTO 04002KT 9SM 21/19 A2965 RMK 70010 SLP038 T02080192 52009 IEM_DS3505
ZBAA,2001-08-23 22:00,ZBAA 232200Z AUTO 35006KT 6SM 19/18 A2968 RMK T01900180 IEM_DS3505
ZBAA,2001-08-23 23:00,ZBAA 232300Z AUTO 35006KT 6SM 19/18 A2968 RMK T01900180 IEM_DS3505
ZBAA,2001-08-24 00:00,ZBAA 240000Z AUTO 04006KT 12SM 22/17 A2968 RMK 70010 SLP048 T02200170 52010 IEM_DS3505
ZBAA,2001-08-24 01:00,ZBAA 240100Z AUTO 01006KT 6SM 23/18 A2968 RMK T02300180 IEM_DS3505
ZBAA,2001-08-24 02:00,ZBAA 240200Z AUTO 01006KT 6SM 24/19 A2971 RMK T02400190 IEM_DS3505
ZBAA,2001-08-24 03:00,ZBAA 240300Z AUTO 04006KT 12SM 26/16 A2971 RMK SLP053 T02610163 52004 IEM_DS3505
ZBAA,2001-08-24 04:00,ZBAA 240400Z AUTO 6SM 28/20 A2971 RMK T02800200 IEM_DS3505
ZBAA,2001-08-24 05:30,ZBAA 240530Z AUTO 03004KT 6SM 29/19 A2968 RMK T02900190 IEM_DS3505
ZBAA,2001-08-24 06:00,ZBAA 240600Z AUTO 09006KT 12SM 29/18 A2968 RMK SLP049 T02900182 57003 IEM_DS3505
ZBAA,2001-08-24 07:00,ZBAA 240700Z AUTO 6SM 30/18 A2968 RMK T03000180 IEM_DS3505
ZBAA,2001-08-24 08:00,ZBAA 240800Z AUTO 6SM 31/17 A2968 RMK T03100170 IEM_DS3505
ZBAA,2001-08-24 09:00,ZBAA 240900Z AUTO 11004KT 12SM 29/19 A2968 RMK SLP045 T02910190 57004 IEM_DS3505
ZBAA,2001-08-24 10:00,ZBAA 241000Z AUTO 11002KT 7SM 27/21 A2968 RMK T02700210 IEM_DS3505
ZBAA,2001-08-24 11:00,ZBAA 241100Z AUTO 7SM 27/22 A2971 RMK T02700220 IEM_DS3505
ZBAA,2001-08-24 12:00,ZBAA 241200Z AUTO 09004KT 6SM 25/21 A2974 RMK SLP068 T02530206 52022 IEM_DS3505
ZBAA,2001-08-24 13:00,ZBAA 241300Z AUTO 22004KT 6SM 25/20 A2977 RMK T02500200 IEM_DS3505
ZBAA,2001-08-24 14:00,ZBAA 241400Z AUTO 03002KT 6SM 23/21 A2980 RMK T02300210 IEM_DS3505
ZBAA,2001-08-24 15:00,ZBAA 241500Z AUTO 09006KT 5SM 23/21 A2980 RMK SLP086 T02290206 52018 IEM_DS3505
ZBAA,2001-08-24 16:00,ZBAA 241600Z AUTO 6SM 21/19 A2983 RMK T02100190 IEM_DS3505
ZBAA,2001-08-24 17:00,ZBAA 241700Z AUTO 02002KT 6SM 21/19 A2983 RMK T02100190 IEM_DS3505
ZBAA,2001-08-24 18:00,ZBAA 241800Z AUTO 07004KT 6SM 21/18 A2983 RMK SLP095 T02110184 52009 IEM_DS3505
ZBAA,2001-08-24 19:00,ZBAA 241900Z AUTO 36004KT 6SM 20/19 A2985 RMK T02000190 IEM_DS3505
ZBAA,2001-08-24 20:00,ZBAA 242000Z AUTO 01004KT 6SM 20/18 A2985 RMK T02000180 IEM_DS3505
ZBAA,2001-08-24 21:00,ZBAA 242100Z AUTO 02004KT 5SM 22/18 A2985 RMK SLP105 T02160183 52010 IEM_DS3505
ZBAA,2001-08-24 22:00,ZBAA 242200Z AUTO 36004KT 6SM 19/17 A2988 RMK T01900170 IEM_DS3505
ZBAA,2001-08-24 23:00,ZBAA 242300Z AUTO 34006KT 6SM 20/18 A2988 RMK T02000180 IEM_DS3505
ZBAA,2001-08-25 00:00,ZBAA 250000Z AUTO 09002KT 6SM 21/18 A2988 RMK SLP095 T02110184 52009 IEM_DS3505
ZBAA,2001-08-25 01:00,ZBAA 250100Z AUTO 01006KT 6SM 24/18 A2988 RMK T02400180 IEM_DS3505
ZBAA,2001-08-25 02:00,ZBAA 250200Z AUTO 01004KT 6SM 26/19 A2991 RMK T02600190 IEM_DS3505
ZBAA,2001-08-25 03:00,ZBAA 250300Z AUTO 09004KT 12SM 27/17 A2991 RMK SLP126 T02710167 52011 IEM_DS3505
ZBAA,2001-08-25 04:00,ZBAA 250400Z AUTO 7SM 28/20 A2988 RMK T02800200 IEM_DS3505
ZBAA,2001-08-25 05:00,ZBAA 250500Z AUTO 12004KT 7SM 29/20 A2988 RMK T02900200 IEM_DS3505
ZBAA,2001-08-25 06:00,ZBAA 250600Z AUTO 27004KT 12SM 28/19 A2988 RMK SLP120 T02780194 57006 IEM_DS3505
ZBAA,2001-08-25 07:00,ZBAA 250700Z AUTO 19004KT 7SM 28/20 A2988 RMK T02800200 IEM_DS3505
ZBAA,2001-08-25 08:00,ZBAA 250800Z AUTO 28008KT 6SM 28/19 A2991 RMK T02800190 IEM_DS3505
ZBAA,2001-08-25 09:00,ZBAA 250900Z AUTO 29004KT 16SM 24/14 A2991 RMK SLP124 T02370137 52004 IEM_DS3505
ZBAA,2001-08-25 10:00,ZBAA 251000Z AUTO 28006KT 6SM 24/16 A2991 RMK T02400160 IEM_DS3505
ZBAA,2001-08-25 11:00,ZBAA 251100Z AUTO 36004KT 6SM 23/18 A2991 RMK T02300180 IEM_DS3505
ZBAA,2001-08-25 12:00,ZBAA 251200Z AUTO 18002KT 9SM 22/17 A2991 RMK 60003 SLP126 T02200173 52002 IEM_DS3505
ZBAA,2001-08-25 13:00,ZBAA 251300Z AUTO 28004KT 6SM 22/17 A2994 RMK T02200170 IEM_DS3505
ZBAA,2001-08-25 14:00,ZBAA 251400Z AUTO 29004KT 6SM 22/18 A2997 RMK T02200180 IEM_DS3505
ZBAA,2001-08-25 15:00,ZBAA 251500Z AUTO 22004KT 9SM 21/17 A2994 RMK SLP138 T02100173 52012 IEM_DS3505
ZBAA,2001-08-25 16:00,ZBAA 251600Z AUTO 01004KT 6SM 20/19 A2997 RMK T02000190 IEM_DS3505
ZBAA,2001-08-25 17:00,ZBAA 251700Z AUTO 6SM 20/18 A2997 RMK T02000180 IEM_DS3505
ZBAA,2001-08-25 18:00,ZBAA 251800Z AUTO 04002KT 12SM 21/17 A2997 RMK SLP143 T02120168 52005 IEM_DS3505
ZBAA,2001-08-25 19:00,ZBAA 251900Z AUTO 34004KT 6SM 18/18 A2997 RMK T01800180 IEM_DS3505
ZBAA,2001-08-25 20:00,ZBAA 252000Z AUTO 34006KT 6SM 19/18 A2997 RMK T01900180 IEM_DS3505
ZBAA,2001-08-25 21:00,ZBAA 252100Z AUTO 00000KT 6SM 20/17 A2997 RMK 70003 SLP149 T02050174 52006 IEM_DS3505
ZBAA,2001-08-25 22:00,ZBAA 252200Z AUTO 34006KT 6SM 19/18 A3000 RMK T01900180 IEM_DS3505
ZBAA,2001-08-25 23:00,ZBAA 252300Z AUTO 34006KT 6SM 20/18 A3000 RMK T02000180 IEM_DS3505
ZBAA,2001-08-26 00:00,ZBAA 260000Z AUTO 02006KT 12SM 23/15 A3000 RMK 70003 SLP156 T02270154 52007 IEM_DS3505
ZBAA,2001-08-26 01:00,ZBAA 260100Z AUTO 35004KT 6SM 24/20 A3000 RMK T02400200 IEM_DS3505
ZBAA,2001-08-26 02:00,ZBAA 260200Z AUTO 35004KT 6SM 26/20 A3000 RMK T02600200 IEM_DS3505
ZBAA,2001-08-26 03:00,ZBAA 260300Z AUTO 11004KT 12SM 27/16 A3000 RMK SLP157 T02740163 52001 IEM_DS3505
ZBAA,2001-08-26 04:00,ZBAA 260400Z AUTO 6SM 28/21 A2997 RMK T02800210 IEM_DS3505
ZBAA,2001-08-26 05:00,ZBAA 260500Z AUTO 6SM 29/21 A2994 RMK T02900210 IEM_DS3505
ZBAA,2001-08-26 06:00,ZBAA 260600Z AUTO 22006KT 12SM 30/18 A2994 RMK SLP140 T02970179 57017 IEM_DS3505
ZBAA,2001-08-26 07:00,ZBAA 260700Z AUTO 6SM 30/18 A2991 RMK T03000180 IEM_DS3505
ZBAA,2001-08-26 08:00,ZBAA 260800Z AUTO 17004KT 6SM 30/17 A2991 RMK T03000170 IEM_DS3505
ZBAA,2001-08-26 09:00,ZBAA 260900Z AUTO 22006KT 12SM 29/17 A2991 RMK SLP128 T02930172 57012 IEM_DS3505
ZBAA,2001-08-26 10:00,ZBAA 261000Z AUTO 17006KT 6SM 27/20 A2991 RMK T02700200 IEM_DS3505
ZBAA,2001-08-26 11:00,ZBAA 261100Z AUTO 17004KT 6SM 25/20 A2991 RMK T02500200 IEM_DS3505
ZBAA,2001-08-26 12:00,ZBAA 261200Z AUTO 22004KT 9SM 26/19 A2994 RMK SLP134 T02560189 52006 IEM_DS3505
ZBAA,2001-08-26 13:00,ZBAA 261300Z AUTO 19006KT 6SM 26/19 A2994 RMK T02600190 IEM_DS3505
ZBAA,2001-08-26 14:00,ZBAA 261400Z AUTO 21004KT 6SM 25/19 A2994 RMK T02500190 IEM_DS3505
ZBAA,2001-08-26 15:00,ZBAA 261500Z AUTO 00000KT 12SM 22/19 A2994 RMK SLP138 T02240186 52004 IEM_DS3505
ZBAA,2001-08-26 16:00,ZBAA 261600Z AUTO 5SM 21/20 A2994 RMK T02100200 IEM_DS3505
ZBAA,2001-08-26 17:00,ZBAA 261700Z AUTO 36004KT 4SM 21/20 A2994 RMK T02100200 IEM_DS3505
ZBAA,2001-08-26 18:00,ZBAA 261800Z AUTO 00000KT 11SM 21/18 A2994 RMK SLP136 T02100185 57002 IEM_DS3505
ZBAA,2001-08-26 19:00,ZBAA 261900Z AUTO 34002KT 4SM 19/18 A2994 RMK T01900180 IEM_DS3505
ZBAA,2001-08-26 20:00,ZBAA 262000Z AUTO 35006KT 4SM 19/18 A2994 RMK T01900180 IEM_DS3505
ZBAA,2001-08-26 21:00,ZBAA 262100Z AUTO 00000KT 9SM 20/18 A2994 RMK SLP138 T01980184 52002 IEM_DS3505
ZBAA,2001-08-26 22:00,ZBAA 262200Z AUTO 34004KT 6SM 18/18 A2994 RMK T01800180 IEM_DS3505
ZBAA,2001-08-26 23:00,ZBAA 262300Z AUTO 35006KT 6SM 19/19 A2994 RMK T01900190 IEM_DS3505
ZBAA,2001-08-27 00:00,ZBAA 270000Z AUTO 02004KT 6SM 23/18 A2994 RMK SLP140 T02330179 52002 IEM_DS3505
ZBAA,2001-08-27 01:00,ZBAA 270100Z AUTO 35004KT 6SM 24/20 A2997 RMK T02400200 IEM_DS3505
ZBAA,2001-08-27 02:00,ZBAA 270200Z AUTO 6SM 26/20 A2997 RMK T02600200 IEM_DS3505
ZBAA,2001-08-27 03:00,ZBAA 270300Z AUTO 14004KT 9SM 28/18 A2994 RMK SLP141 T02760179 52001 IEM_DS3505
ZBAA,2001-08-27 04:00,ZBAA 270400Z AUTO 17002KT 6SM 29/20 A2994 RMK T02900200 IEM_DS3505
ZBAA,2001-08-27 05:00,ZBAA 270500Z AUTO 16004KT 6SM 29/18 A2991 RMK T02900180 IEM_DS3505
ZBAA,2001-08-27 06:00,ZBAA 270600Z AUTO 18004KT 19SM 30/14 A2988 RMK SLP122 T03050143 57019 IEM_DS3505
ZBAA,2001-08-27 07:00,ZBAA 270700Z AUTO 6SM 31/16 A2988 RMK T03100160 IEM_DS3505
ZBAA,2001-08-27 08:00,ZBAA 270800Z AUTO 6SM 31/17 A2985 RMK T03100170 IEM_DS3505
ZBAA,2001-08-27 09:00,ZBAA 270900Z AUTO 14004KT 19SM 30/16 A2988 RMK SLP115 T02970156 57007 IEM_DS3505
ZBAA,2001-08-27 10:00,ZBAA 271000Z AUTO 18006KT 6SM 28/16 A2988 RMK T02800160 IEM_DS3505
ZBAA,2001-08-27 11:00,ZBAA 271100Z AUTO 16002KT 6SM 26/17 A2988 RMK T02600170 IEM_DS3505
ZBAA,2001-08-27 12:00,ZBAA 271200Z AUTO 00000KT 11SM 26/18 A2988 RMK SLP121 T02600180 52006 IEM_DS3505
ZBAA,2001-08-27 13:00,ZBAA 271300Z AUTO 14002KT 6SM 25/19 A2991 RMK T02500190 IEM_DS3505
ZBAA,2001-08-27 14:00,ZBAA 271400Z AUTO 13004KT 6SM 23/19 A2991 RMK T02300190 IEM_DS3505
ZBAA,2001-08-27 15:00,ZBAA 271500Z AUTO 20002KT 11SM 23/17 A2991 RMK SLP131 T02340173 52010 IEM_DS3505
ZBAA,2001-08-27 16:00,ZBAA 271600Z AUTO 6SM 22/19 A2991 RMK T02200190 IEM_DS3505
ZBAA,2001-08-27 17:00,ZBAA 271700Z AUTO 10004KT 6SM 21/19 A2994 RMK T02100190 IEM_DS3505
ZBAA,2001-08-27 18:00,ZBAA 271800Z AUTO 07004KT 6SM 22/17 A2991 RMK SLP130 T02240169 54000 IEM_DS3505
ZBAA,2001-08-27 19:00,ZBAA 271900Z AUTO 10002KT 5SM 21/19 A2994 RMK T02100190 IEM_DS3505
ZBAA,2001-08-27 20:00,ZBAA 272000Z AUTO 4SM 20/19 A2994 RMK T02000190 IEM_DS3505
ZBAA,2001-08-27 21:00,ZBAA 272100Z AUTO 09002KT 6SM 20/18 A2994 RMK SLP132 T02010185 52001 IEM_DS3505
ZBAA,2001-08-27 22:00,ZBAA 272200Z AUTO 35004KT 2 1/2SM 19/19 A2994 RMK T01900190 IEM_DS3505
ZBAA,2001-08-27 23:00,ZBAA 272300Z AUTO 01002KT 2 1/2SM 20/20 A2997 RMK T02000200 IEM_DS3505
ZBAA,2001-08-28 00:00,ZBAA 280000Z AUTO 09004KT 5SM 22/18 A2997 RMK SLP143 T02210180 52011 IEM_DS3505
ZBAA,2001-08-28 01:00,ZBAA 280100Z AUTO 12002KT 5SM 24/20 A2997 RMK T02400200 IEM_DS3505
ZBAA,2001-08-28 02:00,ZBAA 280200Z AUTO 12004KT 6SM 25/19 A2997 RMK T02500190 IEM_DS3505
ZBAA,2001-08-28 03:00,ZBAA 280300Z AUTO 14004KT 6SM 25/19 A2997 RMK SLP147 T02540189 52004 IEM_DS3505
ZBAA,2001-08-28 04:00,ZBAA 280400Z AUTO 17004KT 6SM 26/19 A2997 RMK T02600190 IEM_DS3505
ZBAA,2001-08-28 05:00,ZBAA 280500Z AUTO 16004KT 6SM 27/18 A2994 RMK T02700180 IEM_DS3505
ZBAA,2001-08-28 06:00,ZBAA 280600Z AUTO 11004KT 6SM 27/17 A2991 RMK SLP133 T02670170 57014 IEM_DS3505
ZBAA,2001-08-28 07:00,ZBAA 280700Z AUTO 6SM 27/20 A2991 RMK T02700200 IEM_DS3505
ZBAA,2001-08-28 08:00,ZBAA 280800Z AUTO 12004KT 6SM 28/18 A2991 RMK T02800180 IEM_DS3505
ZBAA,2001-08-28 09:00,ZBAA 280900Z AUTO 07004KT 10SM 27/18 A2991 RMK SLP124 T02710175 57009 IEM_DS3505
ZBAA,2001-08-28 10:00,ZBAA 281000Z AUTO 15004KT 6SM 26/17 A2991 RMK T02600170 IEM_DS3505
ZBAA,2001-08-28 11:00,ZBAA 281100Z AUTO 12002KT 6SM 24/18 A2991 RMK T02400180 IEM_DS3505
ZBAA,2001-08-28 12:00,ZBAA 281200Z AUTO 04004KT 12SM 24/17 A2994 RMK SLP131 T02420166 52007 IEM_DS3505
ZBAA,2001-08-28 13:00,ZBAA 281300Z AUTO 6SM 22/19 A2994 RMK T02200190 IEM_DS3505
ZBAA,2001-08-28 14:00,ZBAA 281400Z AUTO 6SM 22/19 A2994 RMK T02200190 IEM_DS3505
ZBAA,2001-08-28 15:00,ZBAA 281500Z AUTO 00000KT 10SM 23/18 A2994 RMK SLP134 T02300177 52003 IEM_DS3505
ZBAA,2001-08-28 16:00,ZBAA 281600Z AUTO 6SM 21/19 A2994 RMK T02100190 IEM_DS3505
ZBAA,2001-08-28 17:00,ZBAA 281700Z AUTO 31002KT 6SM 21/19 A2994 RMK T02100190 IEM_DS3505
ZBAA,2001-08-28 18:00,ZBAA 281800Z AUTO 04004KT 6SM 21/18 A2994 RMK SLP134 T02080179 54000 IEM_DS3505
ZBAA,2001-08-28 19:00,ZBAA 281900Z AUTO 35004KT 6SM 20/19 A2994 RMK T02000190 IEM_DS3505
ZBAA,2001-08-28 20:00,ZBAA 282000Z AUTO 01002KT 6SM 20/19 A2991 RMK T02000190 IEM_DS3505
ZBAA,2001-08-28 21:00,ZBAA 282100Z AUTO 04004KT 6SM 21/17 A2994 RMK SLP132 T02110174 57002 IEM_DS3505
ZBAA,2001-08-28 22:00,ZBAA 282200Z AUTO 35004KT 6SM 19/18 A2994 RMK T01900180 IEM_DS3505
ZBAA,2001-08-28 23:00,ZBAA 282300Z AUTO 34004KT 6SM 20/19 A2994 RMK T02000190 IEM_DS3505
ZBAA,2001-08-29 00:00,ZBAA 290000Z AUTO 02004KT 7SM 23/17 A2994 RMK SLP135 T02300174 52003 IEM_DS3505
ZBAA,2001-08-29 01:00,ZBAA 290100Z AUTO 35004KT 6SM 24/19 A2994 RMK T02400190 IEM_DS3505
ZBAA,2001-08-29 02:00,ZBAA 290200Z AUTO 07002KT 6SM 26/19 A2994 RMK T02600190 IEM_DS3505
ZBAA,2001-08-29 03:00,ZBAA 290300Z AUTO 32004KT 6SM 27/17 A2994 RMK SLP139 T02690174 52004 IEM_DS3505
ZBAA,2001-08-29 04:00,ZBAA 290400Z AUTO 6SM 28/19 A2994 RMK T02800190 IEM_DS3505
ZBAA,2001-08-29 05:00,ZBAA 290500Z AUTO 16004KT 6SM 29/19 A2991 RMK T02900190 IEM_DS3505
ZBAA,2001-08-29 06:00,ZBAA 290600Z AUTO 14008KT 12SM 28/17 A2991 RMK SLP126 T02840166 57013 IEM_DS3505
ZBAA,2001-08-29 07:00,ZBAA 290700Z AUTO 13002KT 6SM 29/19 A2988 RMK T02900190 IEM_DS3505
ZBAA,2001-08-29 08:00,ZBAA 290800Z AUTO 10002KT 6SM 28/20 A2988 RMK T02800200 IEM_DS3505
ZBAA,2001-08-29 09:00,ZBAA 290900Z AUTO 16004KT 12SM 28/18 A2988 RMK SLP117 T02820179 57009 IEM_DS3505
ZBAA,2001-08-29 10:00,ZBAA 291000Z AUTO 6SM 27/20 A2988 RMK T02700200 IEM_DS3505
ZBAA,2001-08-29 11:00,ZBAA 291100Z AUTO 6SM 25/21 A2988 RMK T02500210 IEM_DS3505
ZBAA,2001-08-29 12:00,ZBAA 291200Z AUTO 16004KT 9SM 25/18 A2988 RMK SLP121 T02460178 52004 IEM_DS3505
ZBAA,2001-08-29 13:00,ZBAA 291300Z AUTO 5SM 23/21 A2991 RMK T02300210 IEM_DS3505
ZBAA,2001-08-29 14:00,ZBAA 291400Z AUTO 4SM 22/21 A2991 RMK T02200210 IEM_DS3505
ZBAA,2001-08-29 15:00,ZBAA 291500Z AUTO 25002KT 7SM 23/18 A2991 RMK SLP128 T02300183 52007 IEM_DS3505
ZBAA,2001-08-29 16:00,ZBAA 291600Z AUTO 2 1/2SM 21/20 A2991 RMK T02100200 IEM_DS3505
ZBAA,2001-08-29 17:00,ZBAA 291700Z AUTO 2 1/2SM 20/20 A2991 RMK T02000200 IEM_DS3505
ZBAA,2001-08-29 18:00,ZBAA 291800Z AUTO 00000KT 6SM 21/19 A2991 RMK SLP126 T02110186 57002 IEM_DS3505
ZBAA,2001-08-29 19:00,ZBAA 291900Z AUTO 34004KT 2 1/2SM 19/19 A2991 RMK T01900190 IEM_DS3505
ZBAA,2001-08-29 20:00,ZBAA 292000Z AUTO 34004KT 2 1/2SM 18/18 A2991 RMK T01800180 IEM_DS3505
ZBAA,2001-08-29 21:00,ZBAA 292100Z AUTO 00000KT 6SM 20/18 A2991 RMK SLP127 T02040180 52001 IEM_DS3505
ZBAA,2001-08-29 22:00,ZBAA 292200Z AUTO 33006KT 3SM 19/18 A2994 RMK T01900180 IEM_DS3505
ZBAA,2001-08-29 23:00,ZBAA 292300Z AUTO 36004KT 4SM 19/19 A2994 RMK T01900190 IEM_DS3505
ZBAA,2001-08-30 00:00,ZBAA 300000Z AUTO 04004KT 5SM 23/18 A2994 RMK SLP134 T02320178 52007 IEM_DS3505
ZBAA,2001-08-30 01:00,ZBAA 300100Z AUTO 35006KT 6SM 24/20 A2994 RMK T02400200 IEM_DS3505
ZBAA,2001-08-30 02:00,ZBAA 300200Z AUTO 36004KT 6SM 26/20 A2994 RMK T02600200 IEM_DS3505
ZBAA,2001-08-30 03:00,ZBAA 300300Z AUTO 02004KT 6SM 28/17 A2994 RMK SLP138 T02760170 52004 IEM_DS3505
ZBAA,2001-08-30 04:00,ZBAA 300400Z AUTO 6SM 28/19 A2991 RMK T02800190 IEM_DS3505
ZBAA,2001-08-30 05:00,ZBAA 300500Z AUTO 6SM 30/19 A2991 RMK T03000190 IEM_DS3505
ZBAA,2001-08-30 06:00,ZBAA 300600Z AUTO 22006KT 6SM 30/16 A2988 RMK SLP119 T03020158 57019 IEM_DS3505
ZBAA,2001-08-30 07:00,ZBAA 300700Z AUTO 6SM 31/16 A2985 RMK T03100160 IEM_DS3505
ZBAA,2001-08-30 08:00,ZBAA 300800Z AUTO 6SM 31/16 A2985 RMK T03100160 IEM_DS3505
ZBAA,2001-08-30 09:00,ZBAA 300900Z AUTO 22006KT 9SM 30/16 A2985 RMK SLP110 T03010161 57009 IEM_DS3505
ZBAA,2001-08-30 10:00,ZBAA 301000Z AUTO 17004KT 6SM 28/20 A2985 RMK T02800200 IEM_DS3505
ZBAA,2001-08-30 11:00,ZBAA 301100Z AUTO 17006KT 6SM 26/19 A2985 RMK T02600190 IEM_DS3505
ZBAA,2001-08-30 12:00,ZBAA 301200Z AUTO 22004KT 9SM 26/18 A2988 RMK SLP116 T02600180 52006 IEM_DS3505
ZBAA,2001-08-30 13:00,ZBAA 301300Z AUTO 21004KT 6SM 26/18 A2988 RMK T02600180 IEM_DS3505
ZBAA,2001-08-30 14:00,ZBAA 301400Z AUTO 20002KT 6SM 25/18 A2988 RMK T02500180 IEM_DS3505
ZBAA,2001-08-30 15:00,ZBAA 301500Z AUTO 22002KT 7SM 23/18 A2988 RMK SLP118 T02270179 52002 IEM_DS3505
ZBAA,2001-08-30 16:00,ZBAA 301600Z AUTO 6SM 21/19 A2988 RMK T02100190 IEM_DS3505
ZBAA,2001-08-30 17:00,ZBAA 301700Z AUTO 34004KT 6SM 20/18 A2988 RMK T02000180 IEM_DS3505
ZBAA,2001-08-30 18:00,ZBAA 301800Z AUTO 25002KT 6SM 20/18 A2988 RMK SLP120 T02040177 52002 IEM_DS3505
ZBAA,2001-08-30 19:00,ZBAA 301900Z AUTO 34002KT 6SM 17/16 A2988 RMK T01700160 IEM_DS3505
ZBAA,2001-08-30 20:00,ZBAA 302000Z AUTO 35004KT 4SM 17/16 A2988 RMK T01700160 IEM_DS3505
ZBAA,2001-08-30 21:00,ZBAA 302100Z AUTO 32002KT 5SM 19/17 A2988 RMK SLP119 T01880167 57001 IEM_DS3505
ZBAA,2001-08-30 22:00,ZBAA 302200Z AUTO 33006KT 5SM 18/16 A2988 RMK T01800160 IEM_DS3505
ZBAA,2001-08-30 23:00,ZBAA 302300Z AUTO 35006KT 6SM 19/17 A2991 RMK T01900170 IEM_DS3505
ZBAA,2001-08-31 00:00,ZBAA 310000Z AUTO 02002KT 6SM 23/16 A2991 RMK SLP125 T02320164 52006 IEM_DS3505
ZBAA,2001-08-31 01:00,ZBAA 310100Z AUTO 35004KT 6SM 24/18 A2991 RMK T02400180 IEM_DS3505
ZBAA,2001-08-31 02:00,ZBAA 310200Z AUTO 31002KT 6SM 26/18 A2991 RMK T02600180 IEM_DS3505
ZBAA,2001-08-31 03:00,ZBAA 310300Z AUTO 29004KT 6SM 29/15 A2988 RMK SLP120 T02920151 57005 IEM_DS3505
ZBAA,2001-08-31 04:00,ZBAA 310400Z AUTO 6SM 30/20 A2988 RMK T03000200 IEM_DS3505
ZBAA,2001-08-31 05:00,ZBAA 310500Z AUTO 23002KT 6SM 32/16 A2985 RMK T03200160 IEM_DS3505
ZBAA,2001-08-31 06:00,ZBAA 310600Z AUTO 29006KT 12SM 31/14 A2983 RMK SLP104 T03130135 57015 IEM_DS3505
ZBAA,2001-08-31 07:00,ZBAA 310700Z AUTO 24004KT 6SM 32/14 A2983 RMK T03200140 IEM_DS3505
ZBAA,2001-08-31 08:00,ZBAA 310800Z AUTO 14004KT 6SM 32/16 A2980 RMK T03200160 IEM_DS3505
ZBAA,2001-08-31 09:00,ZBAA 310900Z AUTO 22006KT 12SM 31/12 A2980 RMK SLP095 T03070121 57010 IEM_DS3505
ZBAA,2001-08-31 10:00,ZBAA 311000Z AUTO 18006KT 6SM 28/18 A2980 RMK T02800180 IEM_DS3505
ZBAA,2001-08-31 11:00,ZBAA 311100Z AUTO 18006KT 6SM 25/18 A2980 RMK T02500180 IEM_DS3505
ZBAA,2001-08-31 12:00,ZBAA 311200Z AUTO 22004KT 11SM 26/16 A2983 RMK SLP097 T02600162 52002 IEM_DS3505
ZBAA,2001-08-31 13:00,ZBAA 311300Z AUTO 19004KT 6SM 25/18 A2983 RMK T02500180 IEM_DS3505
ZBAA,2001-08-31 14:00,ZBAA 311400Z AUTO 03002KT 6SM 23/19 A2985 RMK T02300190 IEM_DS3505
ZBAA,2001-08-31 15:00,ZBAA 311500Z AUTO 22004KT 6SM 24/15 A2985 RMK SLP102 T02350154 52006 IEM_DS3505
ZBAA,2001-08-31 16:00,ZBAA 311600Z AUTO 36002KT 5SM 21/19 A2985 RMK T02100190 IEM_DS3505
ZBAA,2001-08-31 17:00,ZBAA 311700Z AUTO 36002KT 4SM 20/19 A2985 RMK T02000190 IEM_DS3505
ZBAA,2001-08-31 18:00,ZBAA 311800Z AUTO 20002KT 6SM 20/16 A2985 RMK SLP102 T02020164 54000 IEM_DS3505
ZBAA,2001-08-31 19:00,ZBAA 311900Z AUTO 35004KT 5SM 19/18 A2985 RMK T01900180 IEM_DS3505
ZBAA,2001-08-31 20:00,ZBAA 312000Z AUTO 34004KT 5SM 18/17 A2985 RMK T01800170 IEM_DS3505
ZBAA,2001-08-31 21:00,ZBAA 312100Z AUTO 00000KT 5SM 18/16 A2985 RMK SLP105 T01820165 52002 IEM_DS3505
ZBAA,2001-08-31 22:00,ZBAA 312200Z AUTO 35006KT 6SM 18/17 A2985 RMK T01800170 IEM_DS3505
ZBAA,2001-08-31 23:00,ZBAA 312300Z AUTO 34006KT 6SM 20/18 A2988 RMK T02000180 IEM_DS3505
ZBAA,2001-09-01 00:00,ZBAA 010000Z AUTO 04004KT 6SM 23/16 A2988 RMK SLP114 T02330163 52009 IEM_DS3505
ZBAA,2001-09-01 01:00,ZBAA 010100Z AUTO 01004KT 6SM 25/18 A2988 RMK T02500180 IEM_DS3505
ZBAA,2001-09-01 02:00,ZBAA 010200Z AUTO 36004KT 6SM 27/18 A2988 RMK T02700180 IEM_DS3505
ZBAA,2001-09-01 03:00,ZBAA 010300Z AUTO 00000KT 9SM 30/14 A2988 RMK SLP114 T02960137 52001 IEM_DS3505
ZBAA,2001-09-01 04:00,ZBAA 010400Z AUTO 6SM 30/18 A2985 RMK T03000180 IEM_DS3505
ZBAA,2001-09-01 05:00,ZBAA 010500Z AUTO 24004KT 6SM 31/16 A2985 RMK T03100160 IEM_DS3505
ZBAA,2001-09-01 06:00,ZBAA 010600Z AUTO 22006KT 12SM 32/13 A2983 RMK SLP100 T03240131 57014 IEM_DS3505
ZBAA,2001-09-01 07:00,ZBAA 010700Z AUTO 16004KT 6SM 33/17 A2983 RMK T03300170 IEM_DS3505
ZBAA,2001-09-01 08:00,ZBAA 010800Z AUTO 14004KT 6SM 32/16 A2980 RMK T03200160 IEM_DS3505
ZBAA,2001-09-01 09:00,ZBAA 010900Z AUTO 18006KT 12SM 32/13 A2980 RMK SLP094 T03190130 57007 IEM_DS3505
ZBAA,2001-09-01 10:00,ZBAA 011000Z AUTO 16006KT 6SM 29/17 A2983 RMK T02900170 IEM_DS3505
ZBAA,2001-09-01 11:00,ZBAA 011100Z AUTO 17004KT 6SM 26/18 A2983 RMK T02600180 IEM_DS3505
ZBAA,2001-09-01 12:00,ZBAA 011200Z AUTO 16002KT 6SM 25/18 A2985 RMK SLP105 T02530175 52011 IEM_DS3505
ZBAA,2001-09-01 13:00,ZBAA 011300Z AUTO 16004KT 6SM 24/18 A2985 RMK T02400180 IEM_DS3505
ZBAA,2001-09-01 14:00,ZBAA 011400Z AUTO 6SM 23/19 A2988 RMK T02300190 IEM_DS3505
ZBAA,2001-09-01 15:00,ZBAA 011500Z AUTO 00000KT 6SM 24/18 A2988 RMK SLP116 T02380178 52012 IEM_DS3505
ZBAA,2001-09-01 16:00,ZBAA 011600Z AUTO 6SM 22/19 A2991 RMK T02200190 IEM_DS3505
ZBAA,2001-09-01 17:00,ZBAA 011700Z AUTO 6SM 21/19 A2991 RMK T02100190 IEM_DS3505
ZBAA,2001-09-01 18:00,ZBAA 011800Z AUTO 09004KT 6SM 21/18 A2991 RMK SLP122 T02060175 52006 IEM_DS3505
ZBAA,2001-09-01 19:00,ZBAA 011900Z AUTO 10002KT 3SM 22/22 A2991 RMK T02200220 IEM_DS3505
ZBAA,2001-09-01 20:00,ZBAA 012000Z AUTO 34002KT 3SM 20/20 A2994 RMK T02000200 IEM_DS3505
ZBAA,2001-09-01 21:00,ZBAA 012100Z AUTO 07004KT 2SM 22/21 A2994 RMK SLP131 T02220213 52009 IEM_DS3505
ZBAA,2001-09-01 22:00,ZBAA 012200Z AUTO 35004KT 5SM 21/20 A2994 RMK T02100200 IEM_DS3505
ZBAA,2001-09-01 23:00,ZBAA 012300Z AUTO 35004KT 5SM 21/20 A2997 RMK T02100200 IEM_DS3505
ZBAA,2001-09-02 00:00,ZBAA 020000Z AUTO 04006KT 3SM 24/20 A3000 RMK SLP150 T02380203 52018 IEM_DS3505
ZBAA,2001-09-02 01:00,ZBAA 020100Z AUTO 6SM 23/20 A3000 RMK T02300200 IEM_DS3505
ZBAA,2001-09-02 02:00,ZBAA 020200Z AUTO 35002KT 6SM 25/20 A3000 RMK T02500200 IEM_DS3505
ZBAA,2001-09-02 03:00,ZBAA 020300Z AUTO 09004KT 4SM 27/21 A3000 RMK SLP152 T02710213 52002 IEM_DS3505
ZBAA,2001-09-02 04:00,ZBAA 020400Z AUTO 15004KT 4SM 28/23 A2997 RMK T02800230 IEM_DS3505
ZBAA,2001-09-02 05:00,ZBAA 020500Z AUTO 4SM 29/24 A2997 RMK T02900240 IEM_DS3505
ZBAA,2001-09-02 06:00,ZBAA 020600Z AUTO 16006KT 6SM 30/22 A2994 RMK SLP139 T03000221 57013 IEM_DS3505
ZBAA,2001-09-02 07:00,ZBAA 020700Z AUTO 13004KT 30/23 A2994 RMK T03000230 IEM_DS3505
ZBAA,2001-09-02 08:00,ZBAA 020800Z AUTO 12004KT 5SM 30/22 A2994 RMK T03000220 IEM_DS3505
ZBAA,2001-09-02 09:00,ZBAA 020900Z AUTO 14008KT 6SM 30/20 A2994 RMK SLP137 T02960203 57002 IEM_DS3505
ZBAA,2001-09-02 10:00,ZBAA 021000Z AUTO 12006KT 4SM 28/23 A2994 RMK T02800230 IEM_DS3505
ZBAA,2001-09-02 11:00,ZBAA 021100Z AUTO 12004KT 4SM 26/22 A2994 RMK T02600220 IEM_DS3505
ZBAA,2001-09-02 12:00,ZBAA 021200Z AUTO 14006KT 7SM 26/18 A2997 RMK SLP148 T02600183 52011 IEM_DS3505
ZBAA,2001-09-02 13:00,ZBAA 021300Z AUTO 13002KT 5SM 24/20 A3000 RMK T02400200 IEM_DS3505
ZBAA,2001-09-02 14:00,ZBAA 021400Z AUTO 18002KT 4SM 24/20 A3000 RMK T02400200 IEM_DS3505
ZBAA,2001-09-02 15:00,ZBAA 021500Z AUTO 27004KT 6SM 24/18 A3003 RMK SLP161 T02420179 52013 IEM_DS3505
ZBAA,2001-09-02 16:00,ZBAA 021600Z AUTO 4SM 22/20 A3000 RMK T02200200 IEM_DS3505
ZBAA,2001-09-02 17:00,ZBAA 021700Z AUTO 3SM 21/20 A3003 RMK T02100200 IEM_DS3505
ZBAA,2001-09-02 18:00,ZBAA 021800Z AUTO 00000KT 9SM 22/18 A3000 RMK SLP159 T02190179 57002 IEM_DS3505
ZBAA,2001-09-02 19:00,ZBAA 021900Z AUTO 11002KT 3SM 21/20 A3000 RMK T02100200 IEM_DS3505
ZBAA,2001-09-02 20:00,ZBAA 022000Z AUTO 13002KT 2 1/2SM 20/19 A3000 RMK T02000190 IEM_DS3505
ZBAA,2001-09-02 21:00,ZBAA 022100Z AUTO 14004KT 6SM 21/19 A3000 RMK SLP159 T02100186 54000 IEM_DS3505
ZBAA,2001-09-02 22:00,ZBAA 022200Z AUTO 2 1/2SM 20/20 A3003 RMK T02000200 IEM_DS3505
ZBAA,2001-09-03 00:00,ZBAA 030000Z AUTO 14002KT 3SM 23/20 A3003 RMK SLP166 T02260197 52007 IEM_DS3505
ZBAA,2001-09-03 01:00,ZBAA 030100Z AUTO 12002KT 2 1/2SM 23/21 A3003 RMK T02300210 IEM_DS3505
ZBAA,2001-09-03 02:00,ZBAA 030200Z AUTO 12002KT 2 1/2SM 25/22 A3003 RMK T02500220 IEM_DS3505
ZBAA,2001-09-03 03:00,ZBAA 030300Z AUTO 18006KT 6SM 26/20 A3003 RMK SLP167 T02580203 52001 IEM_DS3505
ZBAA,2001-09-03 04:00,ZBAA 030400Z AUTO 17006KT 3SM 27/21 A3000 RMK T02700210 IEM_DS3505
ZBAA,2001-09-03 05:00,ZBAA 030500Z AUTO 15006KT 3SM 27/20 A3000 RMK T02700200 IEM_DS3505
ZBAA,2001-09-03 06:00,ZBAA 030600Z AUTO 22006KT 6SM 27/19 A2997 RMK SLP150 T02720194 57017 IEM_DS3505
ZBAA,2001-09-03 07:00,ZBAA 030700Z AUTO 17006KT 27/21 A2997 RMK T02700210 IEM_DS3505
ZBAA,2001-09-03 08:00,ZBAA 030800Z AUTO 17006KT 27/21 A2994 RMK T02700210 IEM_DS3505
ZBAA,2001-09-03 09:00,ZBAA 030900Z AUTO 25006KT 7SM 27/18 A2994 RMK SLP140 T02700184 57010 IEM_DS3505
ZBAA,2001-09-03 10:00,ZBAA 031000Z AUTO 15002KT 4SM 26/22 A2994 RMK T02600220 IEM_DS3505
ZBAA,2001-09-03 11:00,ZBAA 031100Z AUTO 16002KT 3SM 25/21 A2994 RMK T02500210 IEM_DS3505
ZBAA,2001-09-03 12:00,ZBAA 031200Z AUTO 22004KT 6SM 25/18 A2994 RMK SLP140 T02520181 54000 IEM_DS3505
ZBAA,2001-09-03 13:00,ZBAA 031300Z AUTO 16004KT 2 1/2SM 23/21 A2994 RMK T02300210 IEM_DS3505
ZBAA,2001-09-03 14:00,ZBAA 031400Z AUTO 2 1/2SM 23/21 A2994 RMK T02300210 IEM_DS3505
ZBAA,2001-09-03 15:00,ZBAA 031500Z AUTO 22002KT 6SM 22/19 A2994 RMK SLP134 T02240194 57006 IEM_DS3505
ZBAA,2001-09-03 16:00,ZBAA 031600Z AUTO 2SM 21/21 A2991 RMK T02100210 IEM_DS3505
ZBAA,2001-09-03 17:00,ZBAA 031700Z AUTO 13002KT 2SM 21/20 A2991 RMK T02100200 IEM_DS3505
ZBAA,2001-09-03 18:00,ZBAA 031800Z AUTO 16002KT 6SM 21/19 A2991 RMK SLP126 T02060192 57008 IEM_DS3505
ZBAA,2001-09-03 19:00,ZBAA 031900Z AUTO 12002KT 1 1/2SM 20/20 A2988 RMK T02000200 IEM_DS3505
ZBAA,2001-09-03 20:00,ZBAA 032000Z AUTO 1 1/2SM 20/20 A2988 RMK T02000200 IEM_DS3505
ZBAA,2001-09-03 21:00,ZBAA 032100Z AUTO 20002KT 6SM 21/19 A2988 RMK SLP117 T02080189 57009 IEM_DS3505
ZBAA,2001-09-03 22:00,ZBAA 032200Z AUTO 10002KT 1SM 20/20 A2988 RMK T02000200 IEM_DS3505
ZBAA,2001-09-03 23:00,ZBAA 032300Z AUTO 1SM 20/20 A2988 RMK T02000200 IEM_DS3505
ZBAA,2001-09-04 00:00,ZBAA 040000Z AUTO 12004KT 1 1/4SM 21/21 A2988 RMK T02100210 IEM_DS3505
ZBAA,2001-09-04 01:00,ZBAA 040100Z AUTO 12004KT 1 1/2SM 23/21 A2988 RMK T02300210 IEM_DS3505
ZBAA,2001-09-04 02:00,ZBAA 040200Z AUTO 17002KT 1 1/2SM 24/21 A2988 RMK T02400210 IEM_DS3505
ZBAA,2001-09-04 03:00,ZBAA 040300Z AUTO 22004KT 5SM 26/19 A2985 RMK SLP109 T02610188 57006 IEM_DS3505
ZBAA,2001-09-04 04:00,ZBAA 040400Z AUTO 36002KT 1 1/2SM 26/21 A2983 RMK T02600210 IEM_DS3505
ZBAA,2001-09-04 05:00,ZBAA 040500Z AUTO 22006KT 2SM 27/21 A2980 RMK T02700210 IEM_DS3505
ZBAA,2001-09-04 06:00,ZBAA 040600Z AUTO 22008KT 6SM 29/19 A2980 RMK SLP085 T02870191 57024 IEM_DS3505
ZBAA,2001-09-04 07:00,ZBAA 040700Z AUTO 17006KT 28/22 A2977 RMK T02800220 IEM_DS3505
ZBAA,2001-09-04 08:00,ZBAA 040800Z AUTO 17006KT 28/21 A2974 RMK T02800210 IEM_DS3505
ZBAA,2001-09-04 09:00,ZBAA 040900Z AUTO 18004KT 6SM 28/19 A2974 RMK SLP070 T02820192 57015 IEM_DS3505
ZBAA,2001-09-04 10:00,ZBAA 041000Z AUTO 17004KT 4SM 26/21 A2974 RMK T02600210 IEM_DS3505
ZBAA,2001-09-04 11:00,ZBAA 041100Z AUTO 17004KT 3SM 25/21 A2971 RMK T02500210 IEM_DS3505
ZBAA,2001-09-04 12:00,ZBAA 041200Z AUTO 20004KT 6SM 26/20 A2974 RMK SLP065 T02640195 57005 IEM_DS3505
ZBAA,2001-09-04 13:00,ZBAA 041300Z AUTO 08002KT 3SM 24/21 A2974 RMK T02400210 IEM_DS3505
ZBAA,2001-09-04 14:00,ZBAA 041400Z AUTO 13002KT 2 1/2SM 23/22 A2974 RMK T02300220 IEM_DS3505
ZBAA,2001-09-04 15:00,ZBAA 041500Z AUTO 22006KT 3SM 25/21 A2974 RMK SLP069 T02480207 52005 IEM_DS3505
ZBAA,2001-09-04 16:00,ZBAA 041600Z AUTO 26002KT 2 1/2SM 23/20 A2974 RMK T02300200 IEM_DS3505
ZBAA,2001-09-04 17:00,ZBAA 041700Z AUTO 36004KT 2 1/2SM 21/20 A2977 RMK T02100200 IEM_DS3505
ZBAA,2001-09-04 18:00,ZBAA 041800Z AUTO 04008KT 6SM 24/17 A2974 RMK 60000 SLP070 T02420168 52001 IEM_DS3505
ZBAA,2001-09-04 19:00,ZBAA 041900Z AUTO 35004KT 5SM 20/18 A2974 RMK T02000180 IEM_DS3505
ZBAA,2001-09-04 20:00,ZBAA 042000Z AUTO 6SM 19/18 A2977 RMK T01900180 IEM_DS3505
ZBAA,2001-09-04 21:00,ZBAA 042100Z AUTO 04004KT 6SM 21/18 A2977 RMK 70001 SLP075 T02080176 52004 IEM_DS3505
ZBAA,2001-09-04 22:00,ZBAA 042200Z AUTO 10006KT 5SM 20/18 A2980 RMK T02000180 IEM_DS3505
ZBAA,2001-09-05 00:00,ZBAA 050000Z AUTO 09004KT 5SM 20/18 A2983 RMK 70001 SLP094 T02030177 52019 IEM_DS3505
ZBAA,2001-09-05 01:00,ZBAA 050100Z AUTO 35002KT 5SM 22/19 A2983 RMK T02200190 IEM_DS3505
ZBAA,2001-09-05 02:00,ZBAA 050200Z AUTO 5SM 24/19 A2983 RMK T02400190 IEM_DS3505
ZBAA,2001-09-05 03:00,ZBAA 050300Z AUTO 04004KT 6SM 25/17 A2980 RMK SLP093 T02540167 57001 IEM_DS3505
ZBAA,2001-09-05 04:00,ZBAA 050400Z AUTO 02006KT 6SM 28/17 A2980 RMK T02800170 IEM_DS3505
ZBAA,2001-09-05 05:00,ZBAA 050500Z AUTO 6SM 30/13 A2980 RMK T03000130 IEM_DS3505
ZBAA,2001-09-05 06:00,ZBAA 050600Z AUTO 09008KT 19SM 30/09 A2977 RMK SLP079 T02970093 57013 IEM_DS3505
ZBAA,2001-09-05 07:00,ZBAA 050700Z AUTO 05004KT 6SM 30/12 A2977 RMK T03000120 IEM_DS3505
ZBAA,2001-09-05 08:00,ZBAA 050800Z AUTO 6SM 30/12 A2977 RMK T03000120 IEM_DS3505
ZBAA,2001-09-05 09:00,ZBAA 050900Z AUTO 14004KT 19SM 29/11 A2977 RMK SLP075 T02930107 57004 IEM_DS3505
ZBAA,2001-09-05 10:00,ZBAA 051000Z AUTO 11004KT 6SM 28/15 A2977 RMK T02800150 IEM_DS3505
ZBAA,2001-09-05 11:00,ZBAA 051100Z AUTO 16004KT 6SM 24/18 A2980 RMK T02400180 IEM_DS3505
ZBAA,2001-09-05 12:00,ZBAA 051200Z AUTO 14006KT 16SM 24/17 A2983 RMK SLP096 T02370173 52020 IEM_DS3505
ZBAA,2001-09-05 13:00,ZBAA 051300Z AUTO 17004KT 6SM 22/19 A2985 RMK T02200190 IEM_DS3505
ZBAA,2001-09-05 15:00,ZBAA 051500Z AUTO 20002KT 9SM 21/18 A2985 RMK SLP105 T02140179 52009 IEM_DS3505
ZBAA,2001-09-05 16:00,ZBAA 051600Z AUTO 6SM 20/19 A2988 RMK T02000190 IEM_DS3505
ZBAA,2001-09-05 17:00,ZBAA 051700Z AUTO 6SM 20/19 A2988 RMK T02000190 IEM_DS3505
ZBAA,2001-09-05 18:00,ZBAA 051800Z AUTO 25002KT 6SM 20/18 A2988 RMK SLP117 T02010180 52012 IEM_DS3505
ZBAA,2001-09-05 19:00,ZBAA 051900Z AUTO 4SM 18/18 A2988 RMK T01800180 IEM_DS3505
ZBAA,2001-09-05 20:00,ZBAA 052000Z AUTO 01002KT 3SM 18/18 A2991 RMK T01800180 IEM_DS3505
ZBAA,2001-09-05 21:00,ZBAA 052100Z AUTO 00000KT 3SM 18/18 A2991 RMK SLP120 T01840176 52003 IEM_DS3505
ZBAA,2001-09-05 22:00,ZBAA 052200Z AUTO 34004KT 4SM 16/16 A2991 RMK T01600160 IEM_DS3505
ZBAA,2001-09-05 23:00,ZBAA 052300Z AUTO 01006KT 6SM 17/17 A2994 RMK T01700170 IEM_DS3505
ZBAA,2001-09-06 00:00,ZBAA 060000Z AUTO 02006KT 6SM 21/16 A2994 RMK SLP130 T02140165 52010 IEM_DS3505
ZBAA,2001-09-06 01:00,ZBAA 060100Z AUTO 03006KT 6SM 23/15 A2994 RMK T02300150 IEM_DS3505
ZBAA,2001-09-06 02:00,ZBAA 060200Z AUTO 03004KT 6SM 25/16 A2994 RMK T02500160 IEM_DS3505
ZBAA,2001-09-06 03:00,ZBAA 060300Z AUTO 09006KT 16SM 27/12 A2994 RMK SLP135 T02720125 52005 IEM_DS3505
ZBAA,2001-09-06 04:00,ZBAA 060400Z AUTO 36004KT 6SM 29/12 A2991 RMK T02900120 IEM_DS3505
ZBAA,2001-09-06 05:00,ZBAA 060500Z AUTO 6SM 30/10 A2991 RMK T03000100 IEM_DS3505
ZBAA,2001-09-06 06:00,ZBAA 060600Z AUTO 11006KT 19SM 30/06 A2988 RMK SLP117 T03010059 57018 IEM_DS3505
ZBAA,2001-09-06 07:00,ZBAA 060700Z AUTO 6SM 31/02 A2988 RMK T03100020 IEM_DS3505
ZBAA,2001-09-06 08:00,ZBAA 060800Z AUTO 08002KT 6SM 31/03 A2988 RMK T03100030 IEM_DS3505
ZBAA,2001-09-06 09:00,ZBAA 060900Z AUTO 16004KT 19SM 29/06 A2988 RMK SLP113 T02930056 57004 IEM_DS3505
ZBAA,2001-09-06 10:00,ZBAA 061000Z AUTO 15002KT 6SM 28/10 A2988 RMK T02800100 IEM_DS3505
ZBAA,2001-09-06 11:00,ZBAA 061100Z AUTO 13002KT 6SM 24/10 A2988 RMK T02400100 IEM_DS3505
ZBAA,2001-09-06 12:00,ZBAA 061200Z AUTO 00000KT 16SM 21/12 A2991 RMK SLP121 T02120118 52008 IEM_DS3505
ZBAA,2001-09-06 13:00,ZBAA 061300Z AUTO 16002KT 6SM 22/11 A2991 RMK T02200110 IEM_DS3505
ZBAA,2001-09-06 14:00,ZBAA 061400Z AUTO 6SM 19/12 A2994 RMK T01900120 IEM_DS3505
ZBAA,2001-09-06 15:00,ZBAA 061500Z AUTO 27004KT 12SM 21/12 A2994 RMK SLP127 T02070120 52006 IEM_DS3505
ZBAA,2001-09-06 16:00,ZBAA 061600Z AUTO 36002KT 6SM 18/13 A2994 RMK T01800130 IEM_DS3505
ZBAA,2001-09-06 17:00,ZBAA 061700Z AUTO 01002KT 6SM 17/13 A2994 RMK T01700130 IEM_DS3505
ZBAA,2001-09-06 18:00,ZBAA 061800Z AUTO 04004KT 7SM 19/14 A2997 RMK SLP140 T01910137 52013 IEM_DS3505
ZBAA,2001-09-06 19:00,ZBAA 061900Z AUTO 01004KT 6SM 17/13 A2997 RMK T01700130 IEM_DS3505
ZBAA,2001-09-06 20:00,ZBAA 062000Z AUTO 6SM 17/14 A2997 RMK T01700140 IEM_DS3505
ZBAA,2001-09-06 21:00,ZBAA 062100Z AUTO 04004KT 7SM 18/14 A2997 RMK SLP141 T01840137 52001 IEM_DS3505
ZBAA,2001-09-06 22:00,ZBAA 062200Z AUTO 36004KT 6SM 17/14 A2997 RMK T01700140 IEM_DS3505
ZBAA,2001-09-06 23:00,ZBAA 062300Z AUTO 34004KT 6SM 17/15 A3000 RMK T01700150 IEM_DS3505
ZBAA,2001-09-07 00:00,ZBAA 070000Z AUTO 07006KT 5SM 20/15 A3000 RMK SLP149 T02000153 52008 IEM_DS3505
ZBAA,2001-09-07 01:00,ZBAA 070100Z AUTO 36002KT 6SM 21/16 A3000 RMK T02100160 IEM_DS3505
ZBAA,2001-09-07 02:00,ZBAA 070200Z AUTO 6SM 23/18 A3000 RMK T02300180 IEM_DS3505
ZBAA,2001-09-07 03:00,ZBAA 070300Z AUTO 09002KT 4SM 24/18 A3000 RMK SLP152 T02350185 52003 IEM_DS3505
ZBAA,2001-09-07 04:00,ZBAA 070400Z AUTO 4SM 25/20 A2997 RMK T02500200 IEM_DS3505
ZBAA,2001-09-07 05:00,ZBAA 070500Z AUTO 26/20 A2997 RMK T02600200 IEM_DS3505
ZBAA,2001-09-07 06:00,ZBAA 070600Z AUTO 14004KT 4SM 27/19 A2994 RMK SLP137 T02660190 57015 IEM_DS3505
ZBAA,2001-09-07 07:00,ZBAA 070700Z AUTO 14004KT 27/19 A2994 RMK T02700190 IEM_DS3505
ZBAA,2001-09-07 08:00,ZBAA 070800Z AUTO 14004KT 27/19 A2991 RMK T02700190 IEM_DS3505
ZBAA,2001-09-07 09:00,ZBAA 070900Z AUTO 18006KT 6SM 26/17 A2991 RMK SLP130 T02590173 57007 IEM_DS3505
ZBAA,2001-09-07 10:00,ZBAA 071000Z AUTO 16002KT 24/18 A2991 RMK T02400180 IEM_DS3505
ZBAA,2001-09-07 11:00,ZBAA 071100Z AUTO 18006KT 4SM 24/19 A2991 RMK T02400190 IEM_DS3505
ZBAA,2001-09-07 12:00,ZBAA 071200Z AUTO 00000KT 6SM 24/18 A2994 RMK SLP134 T02380181 52004 IEM_DS3505
ZBAA,2001-09-07 13:00,ZBAA 071300Z AUTO 16002KT 4SM 23/20 A2994 RMK T02300200 IEM_DS3505
ZBAA,2001-09-07 14:00,ZBAA 071400Z AUTO 23004KT 4SM 23/19 A2994 RMK T02300190 IEM_DS3505
ZBAA,2001-09-07 15:00,ZBAA 071500Z AUTO 29008KT 6SM 22/15 A2994 RMK SLP137 T02230149 52003 IEM_DS3505
ZBAA,2001-09-07 16:00,ZBAA 071600Z AUTO 27006KT 6SM 21/16 A2994 RMK T02100160 IEM_DS3505
ZBAA,2001-09-07 17:00,ZBAA 071700Z AUTO 31010KT 6SM 22/15 A2994 RMK T02200150 IEM_DS3505
ZBAA,2001-09-07 18:00,ZBAA 071800Z AUTO 29004KT 9SM 21/14 A2991 RMK 60000 SLP131 T02110145 57006 IEM_DS3505
ZBAA,2001-09-07 19:00,ZBAA 071900Z AUTO 30006KT 6SM 21/15 A2991 RMK T02100150 IEM_DS3505
ZBAA,2001-09-07 20:00,ZBAA 072000Z AUTO 28008KT 6SM 21/15 A2991 RMK T02100150 IEM_DS3505
ZBAA,2001-09-07 21:00,ZBAA 072100Z AUTO 27006KT 7SM 20/15 A2991 RMK 70000 SLP130 T02030153 57001 IEM_DS3505
ZBAA,2001-09-07 22:00,ZBAA 072200Z AUTO 29008KT 6SM 20/15 A2994 RMK T02000150 IEM_DS3505
ZBAA,2001-09-07 23:00,ZBAA 072300Z AUTO 30006KT 6SM 20/16 A2994 RMK T02000160 IEM_DS3505
ZBAA,2001-09-08 00:00,ZBAA 080000Z AUTO 34002KT 6SM 21/14 A2994 RMK 60003 SLP138 T02100144 52008 IEM_DS3505
ZBAA,2001-09-08 01:00,ZBAA 080100Z AUTO 29006KT 6SM 21/16 A2994 RMK T02100160 IEM_DS3505
ZBAA,2001-09-08 02:00,ZBAA 080200Z AUTO 31010KT 7SM 21/16 A2997 RMK T02100160 IEM_DS3505
ZBAA,2001-09-08 03:00,ZBAA 080300Z AUTO 32006KT 9SM 22/14 A2997 RMK SLP141 T02250142 52003 IEM_DS3505
ZBAA,2001-09-08 04:00,ZBAA 080400Z AUTO 30006KT 6SM 23/16 A2994 RMK T02300160 IEM_DS3505
ZBAA,2001-09-08 05:00,ZBAA 080500Z AUTO 28008KT 6SM 24/17 A2994 RMK T02400170 IEM_DS3505
ZBAA,2001-09-08 06:00,ZBAA 080600Z AUTO 29008KT 12SM 24/12 A2994 RMK 60003 SLP138 T02410118 57003 IEM_DS3505
ZBAA,2001-09-08 07:00,ZBAA 080700Z AUTO 28010KT 6SM 24/17 A2994 RMK T02400170 IEM_DS3505
ZBAA,2001-09-08 08:00,ZBAA 080800Z AUTO 27008KT 6SM 25/17 A2991 RMK T02500170 IEM_DS3505
ZBAA,2001-09-08 09:00,ZBAA 080900Z AUTO 25008KT 16SM 24/13 A2991 RMK SLP132 T02380128 57006 IEM_DS3505
ZBAA,2001-09-08 10:00,ZBAA 081000Z AUTO 26004KT 6SM 25/15 A2991 RMK T02500150 IEM_DS3505
ZBAA,2001-09-08 11:00,ZBAA 081100Z AUTO 26004KT 6SM 23/15 A2991 RMK T02300150 IEM_DS3505
ZBAA,2001-09-08 12:00,ZBAA 081200Z AUTO 25004KT 6SM 21/15 A2994 RMK SLP136 T02110149 52004 IEM_DS3505
ZBAA,2001-09-08 13:00,ZBAA 081300Z AUTO 28006KT 6SM 21/14 A2994 RMK T02100140 IEM_DS3505
ZBAA,2001-09-08 14:00,ZBAA 081400Z AUTO 29006KT 6SM 20/13 A2994 RMK T02000130 IEM_DS3505
ZBAA,2001-09-08 15:00,ZBAA 081500Z AUTO 27004KT 6SM 19/15 A2994 RMK SLP136 T01890148 54000 IEM_DS3505
ZBAA,2001-09-08 16:00,ZBAA 081600Z AUTO 01004KT 6SM 18/14 A2997 RMK T01800140 IEM_DS3505
ZBAA,2001-09-08 17:00,ZBAA 081700Z AUTO 34004KT 6SM 17/13 A2994 RMK T01700130 IEM_DS3505
ZBAA,2001-09-08 18:00,ZBAA 081800Z AUTO 29002KT 6SM 17/14 A2994 RMK SLP142 T01700140 52006 IEM_DS3505
ZBAA,2001-09-08 19:00,ZBAA 081900Z AUTO 36006KT 6SM 17/14 A2994 RMK T01700140 IEM_DS3505
ZBAA,2001-09-08 20:00,ZBAA 082000Z AUTO 34004KT 6SM 15/13 A2997 RMK T01500130 IEM_DS3505
ZBAA,2001-09-08 21:00,ZBAA 082100Z AUTO 04002KT 9SM 18/13 A2997 RMK 70003 SLP147 T01800127 52005 IEM_DS3505
ZBAA,2001-09-08 22:00,ZBAA 082200Z AUTO 35006KT 6SM 16/14 A3000 RMK T01600140 IEM_DS3505
ZBAA,2001-09-08 23:00,ZBAA 082300Z AUTO 35006KT 6SM 17/15 A3000 RMK T01700150 IEM_DS3505
ZBAA,2001-09-09 00:00,ZBAA 090000Z AUTO 02006KT 9SM 21/14 A3000 RMK 70003 SLP158 T02130135 52011 IEM_DS3505
ZBAA,2001-09-09 01:00,ZBAA 090100Z AUTO 35008KT 6SM 24/15 A3003 RMK T02400150 IEM_DS3505
ZBAA,2001-09-09 02:00,ZBAA 090200Z AUTO 34008KT 6SM 25/16 A3003 RMK T02500160 IEM_DS3505
ZBAA,2001-09-09 03:00,ZBAA 090300Z AUTO 07008KT 12SM 26/12 A3003 RMK SLP164 T02640121 52006 IEM_DS3505
ZBAA,2001-09-09 04:00,ZBAA 090400Z AUTO 6SM 29/15 A3003 RMK T02900150 IEM_DS3505
ZBAA,2001-09-09 05:00,ZBAA 090500Z AUTO 01004KT 6SM 29/14 A3000 RMK T02900140 IEM_DS3505
ZBAA,2001-09-09 06:00,ZBAA 090600Z AUTO 07006KT 12SM 29/10 A3000 RMK SLP158 T02920105 57006 IEM_DS3505
ZBAA,2001-09-09 07:00,ZBAA 090700Z AUTO 6SM 30/13 A3000 RMK T03000130 IEM_DS3505
ZBAA,2001-09-09 08:00,ZBAA 090800Z AUTO 6SM 30/14 A2997 RMK T03000140 IEM_DS3505
ZBAA,2001-09-09 09:00,ZBAA 090900Z AUTO 16008KT 19SM 29/12 A3000 RMK SLP154 T02860118 57004 IEM_DS3505
ZBAA,2001-09-09 10:00,ZBAA 091000Z AUTO 18008KT 6SM 27/15 A3000 RMK T02700150 IEM_DS3505
ZBAA,2001-09-09 11:00,ZBAA 091100Z AUTO 17004KT 6SM 25/15 A3000 RMK T02500150 IEM_DS3505
ZBAA,2001-09-09 12:00,ZBAA 091200Z AUTO 00000KT 9SM 23/16 A3003 RMK SLP160 T02300156 52006 IEM_DS3505
ZBAA,2001-09-09 13:00,ZBAA 091300Z AUTO 13002KT 6SM 21/17 A3003 RMK T02100170 IEM_DS3505
ZBAA,2001-09-09 14:00,ZBAA 091400Z AUTO 6SM 20/17 A3003 RMK T02000170 IEM_DS3505
ZBAA,2001-09-09 15:00,ZBAA 091500Z AUTO 22004KT 6SM 21/16 A3006 RMK SLP168 T02120157 52008 IEM_DS3505
ZBAA,2001-09-09 16:00,ZBAA 091600Z AUTO 6SM 19/17 A3006 RMK T01900170 IEM_DS3505
ZBAA,2001-09-09 17:00,ZBAA 091700Z AUTO 01002KT 6SM 19/17 A3006 RMK T01900170 IEM_DS3505
ZBAA,2001-09-09 18:00,ZBAA 091800Z AUTO 11002KT 6SM 19/15 A3006 RMK SLP170 T01880152 52002 IEM_DS3505
ZBAA,2001-09-09 19:00,ZBAA 091900Z AUTO 34004KT 6SM 17/16 A3006 RMK T01700160 IEM_DS3505
ZBAA,2001-09-09 20:00,ZBAA 092000Z AUTO 36004KT 6SM 18/16 A3006 RMK T01800160 IEM_DS3505
ZBAA,2001-09-09 21:00,ZBAA 092100Z AUTO 00000KT 6SM 18/13 A3009 RMK SLP178 T01840127 52008 IEM_DS3505
ZBAA,2001-09-09 22:00,ZBAA 092200Z AUTO 34004KT 6SM 15/14 A3009 RMK T01500140 IEM_DS3505
ZBAA,2001-09-09 23:00,ZBAA 092300Z AUTO 35004KT 6SM 16/15 A3012 RMK T01600150 IEM_DS3505
ZBAA,2001-09-10 00:00,ZBAA 100000Z AUTO 04004KT 5SM 21/13 A3012 RMK SLP189 T02090128 52011 IEM_DS3505
ZBAA,2001-09-10 01:00,ZBAA 100100Z AUTO 36004KT 6SM 22/15 A3012 RMK T02200150 IEM_DS3505
ZBAA,2001-09-10 02:00,ZBAA 100200Z AUTO 27004KT 6SM 24/12 A3012 RMK T02400120 IEM_DS3505
ZBAA,2001-09-10 03:00,ZBAA 100300Z AUTO 04002KT 19SM 25/10 A3009 RMK SLP190 T02530095 52001 IEM_DS3505
ZBAA,2001-09-10 04:00,ZBAA 100400Z AUTO 6SM 26/11 A3006 RMK T02600110 IEM_DS3505
ZBAA,2001-09-10 05:00,ZBAA 100500Z AUTO 6SM 27/10 A3006 RMK T02700100 IEM_DS3505
ZBAA,2001-09-10 06:00,ZBAA 100600Z AUTO 20006KT 19SM 27/10 A3003 RMK SLP166 T02740104 57024 IEM_DS3505
ZBAA,2001-09-10 07:00,ZBAA 100700Z AUTO 19004KT 6SM 28/11 A3000 RMK T02800110 IEM_DS3505
ZBAA,2001-09-10 08:00,ZBAA 100800Z AUTO 16004KT 6SM 28/12 A2997 RMK T02800120 IEM_DS3505
ZBAA,2001-09-10 09:00,ZBAA 100900Z AUTO 22006KT 19SM 27/10 A2997 RMK SLP153 T02690104 57013 IEM_DS3505
ZBAA,2001-09-10 10:00,ZBAA 101000Z AUTO 16004KT 6SM 25/14 A2997 RMK T02500140 IEM_DS3505
ZBAA,2001-09-10 11:00,ZBAA 101100Z AUTO 19006KT 6SM 23/13 A2997 RMK T02300130 IEM_DS3505
ZBAA,2001-09-10 12:00,ZBAA 101200Z AUTO 00000KT 6SM 23/12 A3000 RMK SLP159 T02270117 52006 IEM_DS3505
ZBAA,2001-09-10 13:00,ZBAA 101300Z AUTO 21004KT 6SM 23/12 A3003 RMK T02300120 IEM_DS3505
ZBAA,2001-09-10 14:00,ZBAA 101400Z AUTO 6SM 19/14 A3003 RMK T01900140 IEM_DS3505
ZBAA,2001-09-10 15:00,ZBAA 101500Z AUTO 27002KT 6SM 20/13 A3003 RMK SLP162 T01980129 52003 IEM_DS3505
ZBAA,2001-09-10 16:00,ZBAA 101600Z AUTO 13002KT 6SM 16/14 A3003 RMK T01600140 IEM_DS3505
ZBAA,2001-09-10 17:00,ZBAA 101700Z AUTO 11002KT 4SM 16/15 A3003 RMK T01600150 IEM_DS3505
ZBAA,2001-09-10 18:00,ZBAA 101800Z AUTO 00000KT 6SM 17/13 A3000 RMK SLP161 T01700133 57001 IEM_DS3505
ZBAA,2001-09-10 19:00,ZBAA 101900Z AUTO 4SM 16/15 A3003 RMK T01600150 IEM_DS3505
ZBAA,2001-09-10 20:00,ZBAA 102000Z AUTO 4SM 15/14 A3000 RMK T01500140 IEM_DS3505
ZBAA,2001-09-10 21:00,ZBAA 102100Z AUTO 00000KT 6SM 16/13 A3003 RMK SLP164 T01580129 52003 IEM_DS3505
ZBAA,2001-09-10 22:00,ZBAA 102200Z AUTO 03002KT 3SM 14/14 A3003 RMK T01400140 IEM_DS3505
ZBAA,2001-09-10 23:00,ZBAA 102300Z AUTO 3SM 16/15 A3006 RMK T01600150 IEM_DS3505
ZBAA,2001-09-11 00:00,ZBAA 110000Z AUTO 07004KT 5SM 18/14 A3006 RMK SLP179 T01850145 52015 IEM_DS3505
ZBAA,2001-09-11 01:00,ZBAA 110100Z AUTO 12002KT 4SM 21/16 A3006 RMK T02100160 IEM_DS3505
ZBAA,2001-09-11 02:00,ZBAA 110200Z AUTO 5SM 23/16 A3006 RMK T02300160 IEM_DS3505
ZBAA,2001-09-11 03:00,ZBAA 110300Z AUTO 16004KT 6SM 25/13 A3006 RMK SLP175 T02460133 57004 IEM_DS3505
ZBAA,2001-09-11 04:00,ZBAA 110400Z AUTO 6SM 26/14 A3003 RMK T02600140 IEM_DS3505
ZBAA,2001-09-11 05:00,ZBAA 110500Z AUTO 6SM 27/14 A3000 RMK T02700140 IEM_DS3505
ZBAA,2001-09-11 06:00,ZBAA 110600Z AUTO 18004KT 10SM 28/13 A2997 RMK SLP154 T02790126 57021 IEM_DS3505
ZBAA,2001-09-11 07:00,ZBAA 110700Z AUTO 17004KT 6SM 28/14 A2997 RMK T02800140 IEM_DS3505
ZBAA,2001-09-11 08:00,ZBAA 110800Z AUTO 17004KT 6SM 28/13 A2997 RMK T02800130 IEM_DS3505
ZBAA,2001-09-11 09:00,ZBAA 110900Z AUTO 18004KT 19SM 28/12 A2997 RMK SLP145 T02760122 57009 IEM_DS3505
ZBAA,2001-09-11 10:00,ZBAA 111000Z AUTO 15002KT 6SM 25/15 A2997 RMK T02500150 IEM_DS3505
ZBAA,2001-09-11 11:00,ZBAA 111100Z AUTO 16002KT 6SM 23/15 A2997 RMK T02300150 IEM_DS3505
ZBAA,2001-09-11 12:00,ZBAA 111200Z AUTO 14004KT 12SM 22/14 A3000 RMK SLP156 T02160145 52011 IEM_DS3505
ZBAA,2001-09-11 13:00,ZBAA 111300Z AUTO 12002KT 6SM 20/15 A3003 RMK T02000150 IEM_DS3505
ZBAA,2001-09-11 14:00,ZBAA 111400Z AUTO 11002KT 6SM 19/15 A3003 RMK T01900150 IEM_DS3505
ZBAA,2001-09-11 15:00,ZBAA 111500Z AUTO 22004KT 9SM 20/12 A3003 RMK SLP163 T02030121 52007 IEM_DS3505
ZBAA,2001-09-11 16:00,ZBAA 111600Z AUTO 6SM 17/16 A3003 RMK T01700160 IEM_DS3505
ZBAA,2001-09-11 17:00,ZBAA 111700Z AUTO 10002KT 5SM 16/15 A3003 RMK T01600150 IEM_DS3505
ZBAA,2001-09-11 18:00,ZBAA 111800Z AUTO 00000KT 6SM 16/12 A3003 RMK SLP162 T01560125 57001 IEM_DS3505
ZBAA,2001-09-11 19:00,ZBAA 111900Z AUTO 4SM 14/13 A3003 RMK T01400130 IEM_DS3505
ZBAA,2001-09-11 20:00,ZBAA 112000Z AUTO 4SM 15/15 A3003 RMK T01500150 IEM_DS3505
ZBAA,2001-09-11 21:00,ZBAA 112100Z AUTO 00000KT 6SM 14/13 A3003 RMK SLP163 T01450127 52001 IEM_DS3505
ZBAA,2001-09-11 22:00,ZBAA 112200Z AUTO 36002KT 3SM 15/14 A3003 RMK T01500140 IEM_DS3505
ZBAA,2001-09-11 23:00,ZBAA 112300Z AUTO 35004KT 3SM 16/15 A3006 RMK T01600150 IEM_DS3505
ZBAA,2001-09-12 00:00,ZBAA 120000Z AUTO 07002KT 5SM 19/15 A3006 RMK SLP171 T01910147 52008 IEM_DS3505
ZBAA,2001-09-12 01:00,ZBAA 120100Z AUTO 5SM 20/17 A3006 RMK T02000170 IEM_DS3505
ZBAA,2001-09-12 02:00,ZBAA 120200Z AUTO 5SM 23/16 A3003 RMK T02300160 IEM_DS3505
ZBAA,2001-09-12 03:00,ZBAA 120300Z AUTO 11004KT 6SM 25/12 A3003 RMK SLP165 T02480117 57006 IEM_DS3505
ZBAA,2001-09-12 04:00,ZBAA 120400Z AUTO 26/14 A3000 RMK T02600140 IEM_DS3505
ZBAA,2001-09-12 06:00,ZBAA 120600Z AUTO 22004KT 16SM 28/11 A2997 RMK SLP144 T02800109 57021 IEM_DS3505
ZBAA,2001-09-12 07:00,ZBAA 120700Z AUTO 17006KT 6SM 28/12 A2994 RMK T02800120 IEM_DS3505
ZBAA,2001-09-12 08:00,ZBAA 120800Z AUTO 16006KT 6SM 28/13 A2994 RMK T02800130 IEM_DS3505
ZBAA,2001-09-12 09:00,ZBAA 120900Z AUTO 20008KT 16SM 27/10 A2994 RMK SLP133 T02720099 57011 IEM_DS3505
ZBAA,2001-09-12 10:00,ZBAA 121000Z AUTO 15004KT 6SM 25/14 A2994 RMK T02500140 IEM_DS3505
ZBAA,2001-09-12 11:00,ZBAA 121100Z AUTO 12002KT 6SM 22/15 A2994 RMK T02200150 IEM_DS3505
ZBAA,2001-09-12 12:00,ZBAA 121200Z AUTO 18002KT 12SM 22/13 A2994 RMK SLP135 T02220126 52002 IEM_DS3505
ZBAA,2001-09-12 13:00,ZBAA 121300Z AUTO 13002KT 6SM 19/15 A2994 RMK T01900150 IEM_DS3505
ZBAA,2001-09-12 14:00,ZBAA 121400Z AUTO 5SM 18/16 A2994 RMK T01800160 IEM_DS3505
ZBAA,2001-09-12 15:00,ZBAA 121500Z AUTO 20004KT 11SM 21/17 A2994 RMK SLP138 T02080167 52003 IEM_DS3505
ZBAA,2001-09-12 16:00,ZBAA 121600Z AUTO 13002KT 5SM 19/16 A2994 RMK T01900160 IEM_DS3505
ZBAA,2001-09-12 17:00,ZBAA 121700Z AUTO 09002KT 4SM 18/17 A2994 RMK T01800170 IEM_DS3505
ZBAA,2001-09-12 18:00,ZBAA 121800Z AUTO 00000KT 6SM 20/17 A2994 RMK SLP134 T01960173 57004 IEM_DS3505
ZBAA,2001-09-12 19:00,ZBAA 121900Z AUTO 36002KT 4SM 16/16 A2994 RMK T01600160 IEM_DS3505
ZBAA,2001-09-12 20:00,ZBAA 122000Z AUTO 36002KT 4SM 17/17 A2994 RMK T01700170 IEM_DS3505
ZBAA,2001-09-12 21:00,ZBAA 122100Z AUTO 07004KT 4SM 19/18 A2994 RMK SLP133 T01880177 57001 IEM_DS3505
ZBAA,2001-09-12 22:00,ZBAA 122200Z AUTO 02002KT 2 1/2SM 17/17 A2994 RMK T01700170 IEM_DS3505
ZBAA,2001-09-12 23:00,ZBAA 122300Z AUTO 2 1/2SM 18/17 A2994 RMK T01800170 IEM_DS3505
ZBAA,2001-09-13 00:00,ZBAA 130000Z AUTO 14004KT 3SM 21/19 A2994 RMK SLP137 T02060190 52004 IEM_DS3505
ZBAA,2001-09-13 01:00,ZBAA 130100Z AUTO 3SM 21/18 A2994 RMK T02100180 IEM_DS3505
ZBAA,2001-09-13 02:00,ZBAA 130200Z AUTO 10004KT 3SM 23/20 A2994 RMK T02300200 IEM_DS3505
ZBAA,2001-09-13 03:00,ZBAA 130300Z AUTO 16006KT 4SM 24/18 A2994 RMK SLP136 T02420184 57001 IEM_DS3505
ZBAA,2001-09-13 04:00,ZBAA 130400Z AUTO 3SM 26/21 A2991 RMK T02600210 IEM_DS3505
ZBAA,2001-09-13 05:00,ZBAA 130500Z AUTO 27/21 A2991 RMK T02700210 IEM_DS3505
ZBAA,2001-09-13 06:00,ZBAA 130600Z AUTO 27004KT 6SM 28/17 A2988 RMK SLP117 T02820166 57019 IEM_DS3505
ZBAA,2001-09-13 07:00,ZBAA 130700Z AUTO 19006KT 7SM 28/18 A2988 RMK T02800180 IEM_DS3505
ZBAA,2001-09-13 08:00,ZBAA 130800Z AUTO 16004KT 7SM 28/18 A2985 RMK T02800180 IEM_DS3505
ZBAA,2001-09-13 09:00,ZBAA 130900Z AUTO 22004KT 12SM 28/15 A2985 RMK SLP111 T02780151 57006 IEM_DS3505
ZBAA,2001-09-13 10:00,ZBAA 131000Z AUTO 10002KT 6SM 26/19 A2988 RMK T02600190 IEM_DS3505
ZBAA,2001-09-13 11:00,ZBAA 131100Z AUTO 11002KT 6SM 24/19 A2988 RMK T02400190 IEM_DS3505
ZBAA,2001-09-13 12:00,ZBAA 131200Z AUTO 00000KT 6SM 22/15 A2991 RMK SLP124 T02250152 52013 IEM_DS3505
ZBAA,2001-09-13 13:00,ZBAA 131300Z AUTO 4SM 22/20 A2991 RMK T02200200 IEM_DS3505
ZBAA,2001-09-13 14:00,ZBAA 131400Z AUTO 11002KT 3SM 21/20 A2991 RMK T02100200 IEM_DS3505
ZBAA,2001-09-13 15:00,ZBAA 131500Z AUTO 20004KT 6SM 22/18 A2994 RMK SLP134 T02240178 52010 IEM_DS3505
ZBAA,2001-09-13 16:00,ZBAA 131600Z AUTO 05002KT 3SM 20/20 A2994 RMK T02000200 IEM_DS3505
ZBAA,2001-09-13 17:00,ZBAA 131700Z AUTO 3SM 19/19 A2994 RMK T01900190 IEM_DS3505
ZBAA,2001-09-13 18:00,ZBAA 131800Z AUTO 00000KT 2 1/2SM 19/17 A2994 RMK SLP137 T01860173 52003 IEM_DS3505
ZBAA,2001-09-13 19:00,ZBAA 131900Z AUTO 1 1/4SM 19/19 A2994 RMK T01900190 IEM_DS3505
ZBAA,2001-09-13 20:00,ZBAA 132000Z AUTO 35004KT 1 1/4SM 18/18 A2997 RMK T01800180 IEM_DS3505
ZBAA,2001-09-13 21:00,ZBAA 132100Z AUTO 07004KT 2SM 18/17 A2997 RMK SLP143 T01810173 52006 IEM_DS3505
ZBAA,2001-09-13 22:00,ZBAA 132200Z AUTO 34004KT 1 1/2SM 17/17 A2997 RMK T01700170 IEM_DS3505
ZBAA,2001-09-14 00:00,ZBAA 140000Z AUTO 04002KT 2 1/2SM 21/18 A3000 RMK SLP154 T02080184 52011 IEM_DS3505
ZBAA,2001-09-14 01:00,ZBAA 140100Z AUTO 2 1/2SM 22/20 A3000 RMK T02200200 IEM_DS3505
ZBAA,2001-09-14 02:00,ZBAA 140200Z AUTO 3SM 24/20 A3000 RMK T02400200 IEM_DS3505
ZBAA,2001-09-14 03:00,ZBAA 140300Z AUTO 14006KT 4SM 26/18 A3000 RMK SLP155 T02570183 52001 IEM_DS3505
ZBAA,2001-09-14 04:00,ZBAA 140400Z AUTO 27/20 A2997 RMK T02700200 IEM_DS3505
ZBAA,2001-09-14 05:00,ZBAA 140500Z AUTO 20006KT 29/20 A2997 RMK T02900200 IEM_DS3505
ZBAA,2001-09-14 06:00,ZBAA 140600Z AUTO 18002KT 7SM 29/17 A2997 RMK SLP141 T02890167 57014 IEM_DS3505
ZBAA,2001-09-14 07:00,ZBAA 140700Z AUTO 12004KT 29/20 A2994 RMK T02900200 IEM_DS3505
ZBAA,2001-09-14 08:00,ZBAA 140800Z AUTO 12006KT 5SM 29/19 A2994 RMK T02900190 IEM_DS3505
ZBAA,2001-09-14 09:00,ZBAA 140900Z AUTO 14006KT 9SM 28/18 A2994 RMK SLP135 T02810180 57006 IEM_DS3505
ZBAA,2001-09-14 10:00,ZBAA 141000Z AUTO 13004KT 5SM 26/20 A2994 RMK T02600200 IEM_DS3505
ZBAA,2001-09-14 11:00,ZBAA 141100Z AUTO 13004KT 5SM 25/20 A2994 RMK T02500200 IEM_DS3505
ZBAA,2001-09-14 12:00,ZBAA 141200Z AUTO 18006KT 6SM 24/18 A2997 RMK SLP146 T02430185 52011 IEM_DS3505
ZBAA,2001-09-14 13:00,ZBAA 141300Z AUTO 13004KT 4SM 23/20 A3000 RMK T02300200 IEM_DS3505
ZBAA,2001-09-14 14:00,ZBAA 141400Z AUTO 15002KT 5SM 21/19 A3000 RMK T02100190 IEM_DS3505
ZBAA,2001-09-14 15:00,ZBAA 141500Z AUTO 29004KT 7SM 22/17 A3000 RMK SLP152 T02200173 52006 IEM_DS3505
ZBAA,2001-09-14 16:00,ZBAA 141600Z AUTO 09002KT 4SM 21/19 A3000 RMK T02100190 IEM_DS3505
ZBAA,2001-09-14 17:00,ZBAA 141700Z AUTO 09002KT 4SM 21/19 A3000 RMK T02100190 IEM_DS3505
ZBAA,2001-09-14 18:00,ZBAA 141800Z AUTO 00000KT 6SM 21/18 A3000 RMK SLP156 T02070180 52004 IEM_DS3505
ZBAA,2001-09-14 19:00,ZBAA 141900Z AUTO 4SM 20/18 A3000 RMK T02000180 IEM_DS3505
ZBAA,2001-09-14 20:00,ZBAA 142000Z AUTO 12002KT 4SM 19/18 A2997 RMK T01900180 IEM_DS3505
ZBAA,2001-09-14 21:00,ZBAA 142100Z AUTO 09002KT 6SM 20/18 A2997 RMK SLP151 T02000177 57005 IEM_DS3505
ZBAA,2001-09-14 22:00,ZBAA 142200Z AUTO 3SM 19/18 A3000 RMK T01900180 IEM_DS3505
ZBAA,2001-09-14 23:00,ZBAA 142300Z AUTO 2 1/2SM 19/19 A3000 RMK T01900190 IEM_DS3505
ZBAA,2001-09-15 00:00,ZBAA 150000Z AUTO 00000KT 5SM 21/18 A3000 RMK SLP156 T02080179 52005 IEM_DS3505
ZBAA,2001-09-15 01:00,ZBAA 150100Z AUTO 14002KT 3SM 23/20 A3000 RMK T02300200 IEM_DS3505
ZBAA,2001-09-15 02:00,ZBAA 150200Z AUTO 12004KT 4SM 24/20 A3003 RMK T02400200 IEM_DS3505
ZBAA,2001-09-15 03:00,ZBAA 150300Z AUTO 22004KT 6SM 25/17 A3000 RMK SLP157 T02530166 52001 IEM_DS3505
ZBAA,2001-09-15 04:00,ZBAA 150400Z AUTO 17004KT 26/19 A2997 RMK T02600190 IEM_DS3505
ZBAA,2001-09-15 05:00,ZBAA 150500Z AUTO 16006KT RMK IEM_DS3505
ZBAA,2001-09-15 06:00,ZBAA 150600Z AUTO 20006KT 7SM 28/16 A2991 RMK SLP131 T02770157 57026 IEM_DS3505
ZBAA,2001-09-15 07:00,ZBAA 150700Z AUTO 15006KT 6SM 28/18 A2991 RMK T02800180 IEM_DS3505
ZBAA,2001-09-15 08:00,ZBAA 150800Z AUTO 16006KT 6SM 28/18 A2988 RMK T02800180 IEM_DS3505
ZBAA,2001-09-15 09:00,ZBAA 150900Z AUTO 20006KT 7SM 28/18 A2988 RMK SLP120 T02770175 57011 IEM_DS3505
ZBAA,2001-09-15 10:00,ZBAA 151000Z AUTO 14004KT 5SM 26/19 A2988 RMK T02600190 IEM_DS3505
ZBAA,2001-09-15 11:00,ZBAA 151100Z AUTO 14002KT 5SM 24/19 A2988 RMK T02400190 IEM_DS3505
ZBAA,2001-09-15 12:00,ZBAA 151200Z AUTO 16004KT 6SM 24/18 A2988 RMK SLP120 T02360184 54000 IEM_DS3505
ZBAA,2001-09-15 13:00,ZBAA 151300Z AUTO 12002KT 4SM 22/20 A2991 RMK T02200200 IEM_DS3505
ZBAA,2001-09-15 14:00,ZBAA 151400Z AUTO 12004KT 3SM 22/20 A2991 RMK T02200200 IEM_DS3505
ZBAA,2001-09-15 15:00,ZBAA 151500Z AUTO 18006KT 7SM 23/15 A2988 RMK SLP121 T02300154 52001 IEM_DS3505
ZBAA,2001-09-15 16:18,ZBAA 151618Z AUTO 16004KT 3SM 22/19 A2988 RMK T02200190 IEM_DS3505
ZBAA,2001-09-15 17:00,ZBAA 151700Z AUTO 13004KT 6SM 22/18 A2988 RMK T02200180 IEM_DS3505
ZBAA,2001-09-15 18:00,ZBAA 151800Z AUTO 18004KT 7SM 22/14 A2988 RMK SLP115 T02150144 57006 IEM_DS3505
ZBAA,2001-09-15 19:00,ZBAA 151900Z AUTO 10002KT 4SM 19/18 A2985 RMK T01900180 IEM_DS3505
ZBAA,2001-09-15 20:00,ZBAA 152000Z AUTO 09002KT 4SM 19/18 A2985 RMK T01900180 IEM_DS3505
ZBAA,2001-09-15 21:00,ZBAA 152100Z AUTO 00000KT 6SM 20/16 A2985 RMK SLP108 T02020164 57007 IEM_DS3505
ZBAA,2001-09-15 22:00,ZBAA 152200Z AUTO 09002KT 4SM 19/18 A2985 RMK T01900180 IEM_DS3505
ZBAA,2001-09-15 23:00,ZBAA 152300Z AUTO 3SM 20/18 A2985 RMK T02000180 IEM_DS3505
ZBAA,2001-09-16 00:00,ZBAA 160000Z AUTO 07002KT 5SM 21/17 A2988 RMK SLP109 T02090170 52001 IEM_DS3505
ZBAA,2001-09-16 01:00,ZBAA 160100Z AUTO 11002KT 1 1/2SM 20/19 A2985 RMK T02000190 IEM_DS3505
ZBAA,2001-09-16 02:00,ZBAA 160200Z AUTO 35002KT 1 1/2SM 20/20 A2988 RMK T02000200 IEM_DS3505
ZBAA,2001-09-16 03:00,ZBAA 160300Z AUTO 07004KT 4SM 22/18 A2985 RMK SLP105 T02210180 57004 IEM_DS3505
ZBAA,2001-09-16 04:00,ZBAA 160400Z AUTO 1 1/2SM 21/20 A2985 RMK T02100200 IEM_DS3505
ZBAA,2001-09-16 05:00,ZBAA 160500Z AUTO 35004KT 1 1/2SM 21/20 A2985 RMK T02100200 IEM_DS3505
ZBAA,2001-09-16 06:00,ZBAA 160600Z AUTO 04004KT 4SM 22/18 A2983 RMK 60003 SLP099 T02230178 57006 IEM_DS3505
ZBAA,2001-09-16 07:00,ZBAA 160700Z AUTO 01002KT 2SM 23/21 A2983 RMK T02300210 IEM_DS3505
ZBAA,2001-09-16 08:00,ZBAA 160800Z AUTO 2SM 23/21 A2983 RMK T02300210 IEM_DS3505
ZBAA,2001-09-16 09:00,ZBAA 160900Z AUTO 09004KT 5SM 23/19 A2983 RMK SLP097 T02330186 57002 IEM_DS3505
ZBAA,2001-09-16 10:00,ZBAA 161000Z AUTO 36002KT 2 1/2SM 23/20 A2983 RMK T02300200 IEM_DS3505
ZBAA,2001-09-16 11:00,ZBAA 161100Z AUTO 02002KT 2SM 22/20 A2985 RMK T02200200 IEM_DS3505
ZBAA,2001-09-16 12:00,ZBAA 161200Z AUTO 00000KT 2 1/2SM 21/19 A2988 RMK SLP114 T02100193 52017 IEM_DS3505
ZBAA,2001-09-16 13:00,ZBAA 161300Z AUTO 36006KT 2SM 22/19 A2988 RMK T02200190 IEM_DS3505
ZBAA,2001-09-16 14:00,ZBAA 161400Z AUTO 6SM 22/18 A2988 RMK T02200180 IEM_DS3505
ZBAA,2001-09-16 15:00,ZBAA 161500Z AUTO 07006KT 6SM 22/18 A2991 RMK SLP125 T02210181 52011 IEM_DS3505
ZBAA,2001-09-16 16:00,ZBAA 161600Z AUTO 14002KT 6SM 20/17 A2991 RMK T02000170 IEM_DS3505
ZBAA,2001-09-16 17:00,ZBAA 161700Z AUTO 19002KT 5SM 20/19 A2991 RMK T02000190 IEM_DS3505
ZBAA,2001-09-16 18:00,ZBAA 161800Z AUTO 00000KT 2 1/2SM 20/18 A2991 RMK SLP127 T01970181 52002 IEM_DS3505
ZBAA,2001-09-16 19:00,ZBAA 161900Z AUTO 14002KT 2 1/2SM 19/18 A2991 RMK T01900180 IEM_DS3505
ZBAA,2001-09-16 20:00,ZBAA 162000Z AUTO 2SM 18/18 A2988 RMK T01800180 IEM_DS3505
ZBAA,2001-09-16 21:00,ZBAA 162100Z AUTO 29002KT 4SM 18/16 A2988 RMK 70003 SLP123 T01830165 57004 IEM_DS3505
ZBAA,2001-09-16 22:00,ZBAA 162200Z AUTO 08002KT 1SM 17/17 A2991 RMK T01700170 IEM_DS3505
ZBAA,2001-09-16 23:00,ZBAA 162300Z AUTO 1SM 17/17 A2991 RMK T01700170 IEM_DS3505
ZBAA,2001-09-17 00:00,ZBAA 170000Z AUTO 22004KT 5SM 21/17 A2991 RMK 70003 SLP127 T02090168 52004 IEM_DS3505
ZBAA,2001-09-17 01:00,ZBAA 170100Z AUTO 2 1/2SM 22/19 A2991 RMK T02200190 IEM_DS3505
ZBAA,2001-09-17 02:00,ZBAA 170200Z AUTO 28006KT 5SM 25/17 A2991 RMK T02500170 IEM_DS3505
ZBAA,2001-09-17 03:00,ZBAA 170300Z AUTO 32012KT 6SM 28/14 A2991 RMK SLP125 T02770135 57002 IEM_DS3505
ZBAA,2001-09-17 04:00,ZBAA 170400Z AUTO 31012KT 6SM 29/11 A2988 RMK T02900110 IEM_DS3505
ZBAA,2001-09-17 05:00,ZBAA 170500Z AUTO 29012KT 6SM 30/08 A2985 RMK T03000080 IEM_DS3505
ZBAA,2001-09-17 06:00,ZBAA 170600Z AUTO 34006G25KT 19SM 30/05 A2985 RMK SLP108 T03050047 57017 IEM_DS3505
ZBAA,2001-09-17 07:00,ZBAA 170700Z AUTO 31016KT 6SM 29/M02 A2985 RMK T02901020 IEM_DS3505
ZBAA,2001-09-17 08:00,ZBAA 170800Z AUTO 31014KT 6SM 28/00 A2985 RMK T02800000 IEM_DS3505
ZBAA,2001-09-17 09:00,ZBAA 170900Z AUTO 28010KT 6SM 27/05 A2985 RMK T02700050 IEM_DS3505
ZBAA,2001-09-17 10:00,ZBAA 171000Z AUTO 30014KT 6SM 27/M01 A2988 RMK T02701010 IEM_DS3505
ZBAA,2001-09-17 11:00,ZBAA 171100Z AUTO 28010KT 6SM 25/00 A2988 RMK T02500000 IEM_DS3505
ZBAA,2001-09-17 12:00,ZBAA 171200Z AUTO 32010KT 19SM 26/00 A2994 RMK SLP136 T02600001 52028 IEM_DS3505
ZBAA,2001-09-17 13:00,ZBAA 171300Z AUTO 31010KT 6SM 23/M04 A2997 RMK T02301040 IEM_DS3505
ZBAA,2001-09-17 14:00,ZBAA 171400Z AUTO 35010KT 6SM 22/M02 A3000 RMK T02201020 IEM_DS3505
ZBAA,2001-09-17 15:00,ZBAA 171500Z AUTO 36012KT 19SM 23/M06 A3000 RMK SLP153 T02311060 52017 IEM_DS3505
ZBAA,2001-09-17 16:00,ZBAA 171600Z AUTO 31010KT 6SM 20/M03 A3003 RMK T02001030 IEM_DS3505
ZBAA,2001-09-17 17:00,ZBAA 171700Z AUTO 32008KT 6SM 19/M02 A3003 RMK T01901020 IEM_DS3505
ZBAA,2001-09-17 18:00,ZBAA 171800Z AUTO 36012KT 19SM 22/M08 A3003 RMK SLP162 T02191080 52009 IEM_DS3505
ZBAA,2001-09-17 19:00,ZBAA 171900Z AUTO 33016KT 6SM 19/M03 A3003 RMK T01901030 IEM_DS3505
ZBAA,2001-09-17 20:00,ZBAA 172000Z AUTO 32012KT 6SM 19/M04 A3006 RMK T01901040 IEM_DS3505
ZBAA,2001-09-17 21:00,ZBAA 172100Z AUTO 34006KT 19SM 20/M07 A3006 RMK SLP176 T02021072 52014 IEM_DS3505
ZBAA,2001-09-17 22:00,ZBAA 172200Z AUTO 35008KT 6SM 13/00 A3009 RMK T01300000 IEM_DS3505
ZBAA,2001-09-17 23:00,ZBAA 172300Z AUTO 35006KT 6SM 16/00 A3012 RMK T01600000 IEM_DS3505
ZBAA,2001-09-18 00:00,ZBAA 180000Z AUTO 34006KT 19SM 21/M04 A3012 RMK SLP196 T02061035 52020 IEM_DS3505
ZBAA,2001-09-18 01:00,ZBAA 180100Z AUTO 01006KT 6SM 21/M01 A3012 RMK T02101010 IEM_DS3505
ZBAA,2001-09-18 02:00,ZBAA 180200Z AUTO 6SM 22/M01 A3012 RMK T02201010 IEM_DS3505
ZBAA,2001-09-18 03:00,ZBAA 180300Z AUTO 04008KT 19SM 23/M01 A3012 RMK SLP195 T02301010 57001 IEM_DS3505
ZBAA,2001-09-18 04:00,ZBAA 180400Z AUTO 6SM 24/01 A3009 RMK T02400010 IEM_DS3505
ZBAA,2001-09-18 05:00,ZBAA 180500Z AUTO 6SM 24/01 A3006 RMK T02400010 IEM_DS3505
ZBAA,2001-09-18 06:00,ZBAA 180600Z AUTO 25008KT 19SM 25/M03 A3003 RMK SLP174 T02491031 57021 IEM_DS3505
ZBAA,2001-09-18 07:00,ZBAA 180700Z AUTO 27004KT 6SM 25/M01 A3003 RMK T02501010 IEM_DS3505
ZBAA,2001-09-18 08:00,ZBAA 180800Z AUTO 12004KT 6SM 24/05 A3000 RMK T02400050 IEM_DS3505
ZBAA,2001-09-18 09:00,ZBAA 180900Z AUTO 22006KT 19SM 24/02 A3000 RMK SLP164 T02370020 57010 IEM_DS3505
ZBAA,2001-09-18 10:00,ZBAA 181000Z AUTO 16004KT 6SM 21/06 A3000 RMK T02100060 IEM_DS3505
ZBAA,2001-09-18 11:00,ZBAA 181100Z AUTO 20006KT 6SM 22/04 A3003 RMK T02200040 IEM_DS3505
ZBAA,2001-09-18 12:00,ZBAA 181200Z AUTO 22006KT 12SM 21/04 A3003 RMK SLP171 T02120035 52007 IEM_DS3505
ZBAA,2001-09-18 13:00,ZBAA 181300Z AUTO 08002KT 6SM 19/08 A3006 RMK T01900080 IEM_DS3505
ZBAA,2001-09-18 14:00,ZBAA 181400Z AUTO 6SM 18/09 A3006 RMK T01800090 IEM_DS3505
ZBAA,2001-09-18 15:00,ZBAA 181500Z AUTO 25004KT 11SM 18/07 A3009 RMK SLP182 T01840068 52011 IEM_DS3505
ZBAA,2001-09-18 16:00,ZBAA 181600Z AUTO 07002KT 6SM 17/10 A3006 RMK T01700100 IEM_DS3505
ZBAA,2001-09-18 17:00,ZBAA 181700Z AUTO 34004KT 6SM 17/10 A3009 RMK T01700100 IEM_DS3505
ZBAA,2001-09-18 18:00,ZBAA 181800Z AUTO 34002KT 9SM 19/08 A3009 RMK SLP188 T01880084 52006 IEM_DS3505
ZBAA,2001-09-18 19:00,ZBAA 181900Z AUTO 35006KT 6SM 15/10 A3012 RMK T01500100 IEM_DS3505
ZBAA,2001-09-18 20:00,ZBAA 182000Z AUTO 35006KT 6SM 16/10 A3012 RMK T01600100 IEM_DS3505
ZBAA,2001-09-18 21:00,ZBAA 182100Z AUTO 29004KT 7SM 18/08 A3012 RMK SLP202 T01760080 52014 IEM_DS3505
ZBAA,2001-09-18 22:00,ZBAA 182200Z AUTO 30004KT 6SM 16/09 A3015 RMK T01600090 IEM_DS3505
ZBAA,2001-09-18 23:00,ZBAA 182300Z AUTO 33004KT 6SM 17/08 A3018 RMK T01700080 IEM_DS3505
ZBAA,2001-09-19 00:00,ZBAA 190000Z AUTO 27004KT 6SM 19/08 A3015 RMK SLP208 T01880084 52005 IEM_DS3505
ZBAA,2001-09-19 01:00,ZBAA 190100Z AUTO 01002KT 6SM 19/07 A3018 RMK T01900070 IEM_DS3505
ZBAA,2001-09-19 02:00,ZBAA 190200Z AUTO 04002KT 6SM 21/05 A3018 RMK T02100050 IEM_DS3505
ZBAA,2001-09-19 03:00,ZBAA 190300Z AUTO 27006KT 12SM 21/08 A3018 RMK SLP212 T02100082 52004 IEM_DS3505
ZBAA,2001-09-19 04:00,ZBAA 190400Z AUTO 24004KT 6SM 23/05 A3015 RMK T02300050 IEM_DS3505
ZBAA,2001-09-19 05:00,ZBAA 190500Z AUTO 19010KT 6SM 23/07 A3012 RMK T02300070 IEM_DS3505
ZBAA,2001-09-19 06:00,ZBAA 190600Z AUTO 22008KT 19SM 23/08 A3009 RMK SLP197 T02330080 57014 IEM_DS3505
ZBAA,2001-09-19 07:00,ZBAA 190700Z AUTO 18008KT 6SM 25/04 A3009 RMK T02500040 IEM_DS3505
ZBAA,2001-09-19 08:00,ZBAA 190800Z AUTO 18008KT 6SM 24/06 A3009 RMK T02400060 IEM_DS3505
ZBAA,2001-09-19 09:00,ZBAA 190900Z AUTO 22008KT 19SM 21/10 A3009 RMK SLP193 T02120104 57005 IEM_DS3505
ZBAA,2001-09-19 10:00,ZBAA 191000Z AUTO 19008KT 6SM 21/12 A3009 RMK T02100120 IEM_DS3505
ZBAA,2001-09-19 11:00,ZBAA 191100Z AUTO 19006KT 6SM 18/12 A3009 RMK T01800120 IEM_DS3505
ZBAA,2001-09-19 12:00,ZBAA 191200Z AUTO 22006G25KT 12SM 17/11 A3012 RMK SLP197 T01720109 52004 IEM_DS3505
ZBAA,2001-09-19 13:00,ZBAA 191300Z AUTO 21006KT 6SM 18/09 A3012 RMK T01800090 IEM_DS3505
ZBAA,2001-09-19 14:00,ZBAA 191400Z AUTO 11002KT 6SM 17/10 A3015 RMK T01700100 IEM_DS3505
ZBAA,2001-09-19 15:00,ZBAA 191500Z AUTO 22006KT 6SM 15/12 A3015 RMK SLP206 T01510120 52009 IEM_DS3505
ZBAA,2001-09-19 16:00,ZBAA 191600Z AUTO 10004KT 6SM 14/12 A3015 RMK T01400120 IEM_DS3505
ZBAA,2001-09-19 17:00,ZBAA 191700Z AUTO 13004KT 6SM 13/12 A3015 RMK T01300120 IEM_DS3505
ZBAA,2001-09-19 18:00,ZBAA 191800Z AUTO 22002KT 4SM 14/13 A3015 RMK SLP206 T01370126 54000 IEM_DS3505
ZBAA,2001-09-19 19:00,ZBAA 191900Z AUTO 6SM 12/12 A3015 RMK T01200120 IEM_DS3505
ZBAA,2001-09-19 21:00,ZBAA 192100Z AUTO 25004KT 1/4SM 12/12 A3015 RMK SLP211 T01170115 52005 IEM_DS3505
ZBAA,2001-09-19 22:00,ZBAA 192200Z AUTO 5SM 11/11 A3018 RMK T01100110 IEM_DS3505
ZBAA,2001-09-19 23:00,ZBAA 192300Z AUTO 34002KT 4SM 12/12 A3018 RMK T01200120 IEM_DS3505
ZBAA,2001-09-20 00:00,ZBAA 200000Z AUTO 00000KT 3/8SM 13/13 A3018 RMK SLP220 T01290127 52009 IEM_DS3505
ZBAA,2001-09-20 01:00,ZBAA 200100Z AUTO 6SM 18/11 A3018 RMK T01800110 IEM_DS3505
ZBAA,2001-09-20 02:00,ZBAA 200200Z AUTO 36004KT 6SM 20/11 A3018 RMK T02000110 IEM_DS3505
ZBAA,2001-09-20 03:00,ZBAA 200300Z AUTO 22006KT 6SM 21/11 A3018 RMK SLP221 T02130114 52001 IEM_DS3505
ZBAA,2001-09-20 04:00,ZBAA 200400Z AUTO 6SM 24/10 A3018 RMK T02400100 IEM_DS3505
ZBAA,2001-09-20 05:00,ZBAA 200500Z AUTO 6SM 25/10 A3015 RMK T02500100 IEM_DS3505
ZBAA,2001-09-20 06:00,ZBAA 200600Z AUTO 16004KT 7SM 25/08 A3015 RMK SLP207 T02510081 57014 IEM_DS3505
ZBAA,2001-09-20 07:00,ZBAA 200700Z AUTO 6SM 27/09 A3012 RMK T02700090 IEM_DS3505
ZBAA,2001-09-20 08:00,ZBAA 200800Z AUTO 16004KT 6SM 27/08 A3015 RMK T02700080 IEM_DS3505
ZBAA,2001-09-20 09:00,ZBAA 200900Z AUTO 22006KT 16SM 26/11 A3015 RMK SLP206 T02570106 57001 IEM_DS3505
ZBAA,2001-09-20 10:00,ZBAA 201000Z AUTO 16004KT 6SM 23/12 A3015 RMK T02300120 IEM_DS3505
ZBAA,2001-09-20 11:00,ZBAA 201100Z AUTO 15002KT 6SM 20/12 A3018 RMK T02000120 IEM_DS3505
ZBAA,2001-09-20 12:00,ZBAA 201200Z AUTO 20002KT 6SM 20/13 A3018 RMK SLP219 T01990128 52013 IEM_DS3505
ZBAA,2001-09-20 13:00,ZBAA 201300Z AUTO 17004KT 6SM 19/13 A3021 RMK T01900130 IEM_DS3505
ZBAA,2001-09-20 14:00,ZBAA 201400Z AUTO 14002KT 6SM 17/13 A3024 RMK T01700130 IEM_DS3505
ZBAA,2001-09-20 15:00,ZBAA 201500Z AUTO 00000KT 6SM 17/12 A3024 RMK SLP237 T01710124 52018 IEM_DS3505
ZBAA,2001-09-20 16:00,ZBAA 201600Z AUTO 11002KT 4SM 14/13 A3027 RMK T01400130 IEM_DS3505
ZBAA,2001-09-20 17:00,ZBAA 201700Z AUTO 3SM 14/13 A3027 RMK T01400130 IEM_DS3505
ZBAA,2001-09-20 18:00,ZBAA 201800Z AUTO 07004KT 7SM 14/12 A3030 RMK SLP254 T01430117 52017 IEM_DS3505
ZBAA,2001-09-20 19:00,ZBAA 201900Z AUTO 12002KT 4SM 14/12 A3033 RMK T01400120 IEM_DS3505
ZBAA,2001-09-20 20:00,ZBAA 202000Z AUTO 10006KT 4SM 16/13 A3033 RMK T01600130 IEM_DS3505
ZBAA,2001-09-20 21:00,ZBAA 202100Z AUTO 11008KT 7SM 15/12 A3036 RMK SLP275 T01470115 52021 IEM_DS3505
ZBAA,2001-09-20 22:00,ZBAA 202200Z AUTO 13004KT 4SM 15/11 A3039 RMK T01500110 IEM_DS3505
ZBAA,2001-09-20 23:00,ZBAA 202300Z AUTO 24002KT 4SM 15/11 A3045 RMK T01500110 IEM_DS3505
ZBAA,2001-09-21 00:00,ZBAA 210000Z AUTO 16010KT 19SM 16/05 A3045 RMK SLP308 T01630048 52033 IEM_DS3505
ZBAA,2001-09-21 01:00,ZBAA 210100Z AUTO 17006KT 6SM 18/06 A3047 RMK T01800060 IEM_DS3505
ZBAA,2001-09-21 02:00,ZBAA 210200Z AUTO 18006KT 6SM 19/05 A3047 RMK T01900050 IEM_DS3505
ZBAA,2001-09-21 03:00,ZBAA 210300Z AUTO 16008KT 19SM 19/03 A3047 RMK SLP314 T01940031 52006 IEM_DS3505
ZBAA,2001-09-21 04:00,ZBAA 210400Z AUTO 6SM 20/05 A3045 RMK T02000050 IEM_DS3505
ZBAA,2001-09-21 05:00,ZBAA 210500Z AUTO 17008KT 6SM 22/04 A3042 RMK T02200040 IEM_DS3505
ZBAA,2001-09-21 06:00,ZBAA 210600Z AUTO 16008KT 19SM 22/05 A3042 RMK SLP294 T02200047 57020 IEM_DS3505
ZBAA,2001-09-21 07:00,ZBAA 210700Z AUTO 19006KT 6SM 23/06 A3039 RMK T02300060 IEM_DS3505
ZBAA,2001-09-21 08:00,ZBAA 210800Z AUTO 17008KT 6SM 23/07 A3036 RMK T02300070 IEM_DS3505
ZBAA,2001-09-21 09:00,ZBAA 210900Z AUTO 18006KT 19SM 22/08 A3036 RMK SLP278 T02180078 57016 IEM_DS3505
ZBAA,2001-09-21 10:00,ZBAA 211000Z AUTO 16004KT 6SM 20/09 A3036 RMK T02000090 IEM_DS3505
ZBAA,2001-09-21 11:00,ZBAA 211100Z AUTO 15004KT 6SM 18/09 A3036 RMK T01800090 IEM_DS3505
ZBAA,2001-09-21 12:00,ZBAA 211200Z AUTO 18004KT 12SM 18/09 A3036 RMK SLP281 T01810088 52003 IEM_DS3505
ZBAA,2001-09-21 13:00,ZBAA 211300Z AUTO 17004KT 6SM 15/10 A3039 RMK T01500100 IEM_DS3505
ZBAA,2001-09-21 14:00,ZBAA 211400Z AUTO 17004KT 6SM 15/10 A3039 RMK T01500100 IEM_DS3505
ZBAA,2001-09-21 15:00,ZBAA 211500Z AUTO 00000KT 11SM 15/10 A3039 RMK SLP281 T01470105 54000 IEM_DS3505
ZBAA,2001-09-21 16:00,ZBAA 211600Z AUTO 6SM 14/11 A3036 RMK T01400110 IEM_DS3505
ZBAA,2001-09-21 18:00,ZBAA 211800Z AUTO 22002KT 11SM 13/11 A3036 RMK SLP274 T01340107 57007 IEM_DS3505
ZBAA,2001-09-21 19:00,ZBAA 211900Z AUTO 6SM 11/10 A3033 RMK T01100100 IEM_DS3505
ZBAA,2001-09-21 20:00,ZBAA 212000Z AUTO 12002KT 6SM 11/10 A3033 RMK T01100100 IEM_DS3505
ZBAA,2001-09-21 21:00,ZBAA 212100Z AUTO 00000KT 9SM 11/10 A3033 RMK SLP267 T01130101 57007 IEM_DS3505
ZBAA,2001-09-21 22:00,ZBAA 212200Z AUTO 6SM 10/10 A3033 RMK T01000100 IEM_DS3505
ZBAA,2001-09-21 23:00,ZBAA 212300Z AUTO 6SM 11/11 A3033 RMK T01100110 IEM_DS3505
ZBAA,2001-09-22 00:00,ZBAA 220000Z AUTO 16004KT 6SM 14/10 A3033 RMK SLP266 T01440097 57001 IEM_DS3505
ZBAA,2001-09-22 01:00,ZBAA 220100Z AUTO 12004KT 6SM 17/12 A3033 RMK T01700120 IEM_DS3505
ZBAA,2001-09-22 02:00,ZBAA 220200Z AUTO 6SM 19/12 A3030 RMK T01900120 IEM_DS3505
ZBAA,2001-09-22 03:00,ZBAA 220300Z AUTO 22006KT 16SM 21/10 A3027 RMK SLP253 T02080101 57013 IEM_DS3505
ZBAA,2001-09-22 04:00,ZBAA 220400Z AUTO 18008KT 6SM 21/10 A3024 RMK T02100100 IEM_DS3505
ZBAA,2001-09-22 05:00,ZBAA 220500Z AUTO 18008KT 6SM 23/10 A3021 RMK T02300100 IEM_DS3505
ZBAA,2001-09-22 06:00,ZBAA 220600Z AUTO 18008KT 19SM 23/08 A3018 RMK SLP217 T02330085 57036 IEM_DS3505
ZBAA,2001-09-22 07:00,ZBAA 220700Z AUTO 19010KT 6SM 23/10 A3015 RMK T02300100 IEM_DS3505
ZBAA,2001-09-22 08:30,ZBAA 220830Z AUTO 18010KT 6SM 23/10 A3012 RMK T02300100 IEM_DS3505
ZBAA,2001-09-22 09:00,ZBAA 220900Z AUTO 22008KT 12SM 22/10 A3012 RMK SLP203 T02240097 57014 IEM_DS3505
ZBAA,2001-09-22 10:00,ZBAA 221000Z AUTO 18008KT 6SM 22/11 A3012 RMK T02200110 IEM_DS3505
ZBAA,2001-09-22 11:00,ZBAA 221100Z AUTO 19006KT 6SM 21/11 A3012 RMK T02100110 IEM_DS3505
ZBAA,2001-09-22 12:00,ZBAA 221200Z AUTO 22004KT 9SM 21/11 A3012 RMK SLP199 T02060108 57004 IEM_DS3505
ZBAA,2001-09-22 13:00,ZBAA 221300Z AUTO 16006KT 6SM 20/12 A3009 RMK T02000120 IEM_DS3505
ZBAA,2001-09-22 14:00,ZBAA 221400Z AUTO 16004KT 6SM 20/13 A3009 RMK T02000130 IEM_DS3505
ZBAA,2001-09-22 15:00,ZBAA 221500Z AUTO 18004KT 9SM 20/12 A3009 RMK SLP185 T01960115 57013 IEM_DS3505
ZBAA,2001-09-22 16:00,ZBAA 221600Z AUTO 16004KT 7SM 19/13 A3006 RMK T01900130 IEM_DS3505
ZBAA,2001-09-22 17:00,ZBAA 221700Z AUTO 11002KT 7SM 17/15 A3006 RMK T01700150 IEM_DS3505
ZBAA,2001-09-22 18:00,ZBAA 221800Z AUTO 20004KT 7SM 19/12 A3003 RMK SLP174 T01870116 57011 IEM_DS3505
ZBAA,2001-09-22 19:00,ZBAA 221900Z AUTO 11002KT 4SM 17/15 A3003 RMK T01700150 IEM_DS3505
ZBAA,2001-09-22 20:00,ZBAA 222000Z AUTO 07002KT 4SM 16/16 A3003 RMK T01600160 IEM_DS3505
ZBAA,2001-09-22 21:00,ZBAA 222100Z AUTO 00000KT 5SM 16/14 A3003 RMK 70006 SLP171 T01590136 57004 IEM_DS3505
ZBAA,2001-09-22 22:00,ZBAA 222200Z AUTO 13002KT 2 1/2SM 15/15 A3003 RMK T01500150 IEM_DS3505
ZBAA,2001-09-22 23:00,ZBAA 222300Z AUTO 17004KT 2 1/2SM 15/15 A3006 RMK T01500150 IEM_DS3505
ZBAA,2001-09-23 00:00,ZBAA 230000Z AUTO 00000KT 4SM 16/14 A3006 RMK 60008 SLP173 T01610138 52002 IEM_DS3505
ZBAA,2001-09-23 01:00,ZBAA 230100Z AUTO 2SM 16/16 A3006 RMK T01600160 IEM_DS3505
ZBAA,2001-09-23 02:00,ZBAA 230200Z AUTO 18002KT 2 1/2SM 17/15 A3006 RMK T01700150 IEM_DS3505
ZBAA,2001-09-23 03:00,ZBAA 230300Z AUTO 34002KT 5SM 18/14 A3006 RMK SLP173 T01790144 54000 IEM_DS3505
ZBAA,2001-09-23 04:00,ZBAA 230400Z AUTO 2 1/2SM 19/16 A3003 RMK T01900160 IEM_DS3505
ZBAA,2001-09-23 05:00,ZBAA 230500Z AUTO 14004KT 2 1/2SM 20/16 A3000 RMK T02000160 IEM_DS3505
ZBAA,2001-09-23 06:00,ZBAA 230600Z AUTO 18004KT 5SM 22/14 A2997 RMK 60003 SLP145 T02210137 57027 IEM_DS3505
ZBAA,2001-09-23 07:00,ZBAA 230700Z AUTO 2 1/2SM 23/16 A2997 RMK T02300160 IEM_DS3505
ZBAA,2001-09-23 08:00,ZBAA 230800Z AUTO 13002KT 3SM 23/15 A2994 RMK T02300150 IEM_DS3505
ZBAA,2001-09-23 09:00,ZBAA 230900Z AUTO 18002KT 6SM 24/14 A2994 RMK SLP140 T02390141 57005 IEM_DS3505
ZBAA,2001-09-23 10:00,ZBAA 231000Z AUTO 2 1/2SM 21/16 A2994 RMK T02100160 IEM_DS3505
ZBAA,2001-09-23 11:00,ZBAA 231100Z AUTO 2SM 20/16 A2997 RMK T02000160 IEM_DS3505
ZBAA,2001-09-23 12:00,ZBAA 231200Z AUTO 09004KT 6SM 20/16 A3000 RMK SLP150 T02050157 52009 IEM_DS3505
ZBAA,2001-09-23 13:00,ZBAA 231300Z AUTO 2SM 19/16 A3000 RMK T01900160 IEM_DS3505
ZBAA,2001-09-23 14:00,ZBAA 231400Z AUTO 1 1/2SM 18/16 A3000 RMK T01800160 IEM_DS3505
ZBAA,2001-09-23 15:00,ZBAA 231500Z AUTO 00000KT 5SM 19/15 A3000 RMK SLP158 T01900153 52008 IEM_DS3505
ZBAA,2001-09-23 16:00,ZBAA 231600Z AUTO 34002KT 1 1/4SM 18/16 A3000 RMK T01800160 IEM_DS3505
ZBAA,2001-09-23 17:00,ZBAA 231700Z AUTO 1 1/4SM 18/16 A3000 RMK T01800160 IEM_DS3505
ZBAA,2001-09-23 18:00,ZBAA 231800Z AUTO 36006KT 4SM 18/15 A3003 RMK SLP158 T01830154 52001 IEM_DS3505
ZBAA,2001-09-23 19:00,ZBAA 231900Z AUTO 33008KT 1SM 17/17 A3006 RMK T01700170 IEM_DS3505
ZBAA,2001-09-23 20:00,ZBAA 232000Z AUTO 36004KT 1SM 17/17 A3006 RMK T01700170 IEM_DS3505
ZBAA,2001-09-23 21:00,ZBAA 232100Z AUTO 04006KT 2SM 17/16 A3006 RMK 70028 SLP171 T01730165 52013 IEM_DS3505
ZBAA,2001-09-23 22:00,ZBAA 232200Z AUTO 03008KT 6SM 16/14 A3009 RMK T01600140 IEM_DS3505
ZBAA,2001-09-23 23:00,ZBAA 232300Z AUTO 35004KT 6SM 16/13 A3012 RMK T01600130 IEM_DS3505
ZBAA,2001-09-24 00:00,ZBAA 240000Z AUTO 04006KT 19SM 18/12 A3012 RMK 60028 SLP194 T01750117 52022 IEM_DS3505
ZBAA,2001-09-24 01:00,ZBAA 240100Z AUTO 02006KT 6SM 20/12 A3015 RMK T02000120 IEM_DS3505
ZBAA,2001-09-24 02:00,ZBAA 240200Z AUTO 02006KT 6SM 21/12 A3015 RMK T02100120 IEM_DS3505
ZBAA,2001-09-24 03:00,ZBAA 240300Z AUTO 04010KT 19SM 22/09 A3015 RMK SLP207 T02210093 52013 IEM_DS3505
ZBAA,2001-09-24 04:00,ZBAA 240400Z AUTO 04004KT 6SM 23/11 A3015 RMK T02300110 IEM_DS3505
ZBAA,2001-09-24 05:00,ZBAA 240500Z AUTO 08006KT 6SM 24/11 A3012 RMK T02400110 IEM_DS3505
ZBAA,2001-09-24 06:00,ZBAA 240600Z AUTO 07006KT 19SM 24/06 A3009 RMK SLP193 T02410062 57013 IEM_DS3505
ZBAA,2001-09-24 07:00,ZBAA 240700Z AUTO 6SM 25/08 A3006 RMK T02500080 IEM_DS3505
ZBAA,2001-09-24 08:00,ZBAA 240800Z AUTO 6SM 26/08 A3009 RMK T02600080 IEM_DS3505
ZBAA,2001-09-24 09:00,ZBAA 240900Z AUTO 14004KT 19SM 24/08 A3006 RMK SLP184 T02420075 57009 IEM_DS3505
ZBAA,2001-09-24 10:00,ZBAA 241000Z AUTO 6SM 22/10 A3009 RMK T02200100 IEM_DS3505
ZBAA,2001-09-24 11:00,ZBAA 241100Z AUTO 23004KT 6SM 21/10 A3012 RMK T02100100 IEM_DS3505
ZBAA,2001-09-24 12:00,ZBAA 241200Z AUTO 22004KT 19SM 20/11 A3012 RMK SLP200 T01980108 52015 IEM_DS3505
ZBAA,2001-09-24 13:00,ZBAA 241300Z AUTO 6SM 19/12 A3015 RMK T01900120 IEM_DS3505
ZBAA,2001-09-24 14:00,ZBAA 241400Z AUTO 20004KT 6SM 18/12 A3015 RMK T01800120 IEM_DS3505
ZBAA,2001-09-24 15:00,ZBAA 241500Z AUTO 22004KT 16SM 17/11 A3015 RMK SLP210 T01730110 52010 IEM_DS3505
ZBAA,2001-09-24 16:00,ZBAA 241600Z AUTO 12002KT 6SM 14/12 A3018 RMK T01400120 IEM_DS3505
ZBAA,2001-09-24 17:00,ZBAA 241700Z AUTO 35006KT 6SM 14/13 A3015 RMK T01400130 IEM_DS3505
ZBAA,2001-09-24 18:00,ZBAA 241800Z AUTO 29004KT 9SM 16/10 A3018 RMK SLP212 T01580101 52002 IEM_DS3505
ZBAA,2001-09-24 19:00,ZBAA 241900Z AUTO 35004KT 5SM 12/12 A3018 RMK T01200120 IEM_DS3505
ZBAA,2001-09-24 20:00,ZBAA 242000Z AUTO 36004KT 5SM 13/11 A3015 RMK T01300110 IEM_DS3505
ZBAA,2001-09-24 21:00,ZBAA 242100Z AUTO 02002KT 6SM 13/10 A3018 RMK 70000 SLP212 T01320103 54000 IEM_DS3505
ZBAA,2001-09-24 22:00,ZBAA 242200Z AUTO 35006KT 6SM 11/10 A3018 RMK T01100100 IEM_DS3505
ZBAA,2001-09-24 23:00,ZBAA 242300Z AUTO 34004KT 6SM 11/ A3018 RMK IEM_DS3505
ZBAA,2001-09-25 00:00,ZBAA 250000Z AUTO 02004KT 6SM 16/09 A3018 RMK SLP222 T01630089 52010 IEM_DS3505
ZBAA,2001-09-25 01:00,ZBAA 250100Z AUTO 01006KT 6SM 17/10 A3018 RMK T01700100 IEM_DS3505
ZBAA,2001-09-25 02:00,ZBAA 250200Z AUTO 36006KT 6SM 21/06 A3018 RMK T02100060 IEM_DS3505
ZBAA,2001-09-25 03:00,ZBAA 250300Z AUTO 29004KT 17SM 23/05 A3015 RMK SLP213 T02290051 57009 IEM_DS3505
ZBAA,2001-09-25 04:00,ZBAA 250400Z AUTO 6SM 24/06 A3012 RMK T02400060 IEM_DS3505
ZBAA,2001-09-25 05:00,ZBAA 250500Z AUTO 6SM 26/04 A3009 RMK T02600040 IEM_DS3505
ZBAA,2001-09-25 06:00,ZBAA 250600Z AUTO 16006KT 7SM 26/M01 A3006 RMK SLP181 T02641012 57031 IEM_DS3505
ZBAA,2001-09-25 07:00,ZBAA 250700Z AUTO 6SM 27/M02 A3003 RMK T02701020 IEM_DS3505
ZBAA,2001-09-25 08:00,ZBAA 250800Z AUTO 17004KT 6SM 26/M01 A3003 RMK T02601010 IEM_DS3505
ZBAA,2001-09-25 09:00,ZBAA 250900Z AUTO 18006KT 19SM 25/01 A3000 RMK SLP164 T02540007 57018 IEM_DS3505
ZBAA,2001-09-25 10:00,ZBAA 251000Z AUTO 16004KT 6SM 22/05 A3000 RMK T02200050 IEM_DS3505
ZBAA,2001-09-25 11:00,ZBAA 251100Z AUTO 14004KT 6SM 20/06 A3000 RMK T02000060 IEM_DS3505
ZBAA,2001-09-25 12:00,ZBAA 251200Z AUTO 16004KT 12SM 20/05 A3003 RMK SLP168 T02000048 52004 IEM_DS3505
ZBAA,2001-09-25 13:00,ZBAA 251300Z AUTO 14002KT 6SM 16/10 A3003 RMK T01600100 IEM_DS3505
ZBAA,2001-09-25 14:00,ZBAA 251400Z AUTO 6SM 15/11 A3003 RMK T01500110 IEM_DS3505
ZBAA,2001-09-25 15:00,ZBAA 251500Z AUTO 00000KT 9SM 16/08 A3003 RMK SLP168 T01590082 54000 IEM_DS3505
ZBAA,2001-09-25 16:00,ZBAA 251600Z AUTO 09002KT 6SM 13/10 A3000 RMK T01300100 IEM_DS3505
ZBAA,2001-09-25 17:00,ZBAA 251700Z AUTO 35002KT 6SM 12/09 A3000 RMK T01200090 IEM_DS3505
ZBAA,2001-09-25 18:00,ZBAA 251800Z AUTO 22002KT 7SM 14/09 RMK SLP154 T01390088 57013 IEM_DS3505
ZBAA,2001-09-25 20:00,ZBAA 252000Z AUTO 35002KT 6SM 13/10 A2997 RMK T01300100 IEM_DS3505
ZBAA,2001-09-25 21:00,ZBAA 252100Z AUTO 00000KT 4SM 14/10 A2997 RMK SLP152 T01420100 57002 IEM_DS3505
ZBAA,2001-09-25 22:00,ZBAA 252200Z AUTO 6SM 12/10 A3000 RMK T01200100 IEM_DS3505
ZBAA,2001-09-25 23:00,ZBAA 252300Z AUTO 34002KT 6SM 12/10 A3000 RMK T01200100 IEM_DS3505
ZBAA,2001-09-26 00:00,ZBAA 260000Z AUTO 11002KT 4SM 15/11 A3000 RMK SLP156 T01510112 52003 IEM_DS3505
ZBAA,2001-09-26 01:00,ZBAA 260100Z AUTO 17/11 A3000 RMK T01700110 IEM_DS3505
ZBAA,2001-09-26 02:00,ZBAA 260200Z AUTO 35002KT 6SM 18/12 A3000 RMK T01800120 IEM_DS3505
ZBAA,2001-09-26 03:00,ZBAA 260300Z AUTO 22004KT 6SM 22/10 A2997 RMK SLP152 T02200104 57004 IEM_DS3505
ZBAA,2001-09-26 04:00,ZBAA 260400Z AUTO 3SM 22/11 A2997 RMK T02200110 IEM_DS3505
ZBAA,2001-09-26 05:00,ZBAA 260500Z AUTO 24/11 A2994 RMK T02400110 IEM_DS3505
ZBAA,2001-09-26 06:00,ZBAA 260600Z AUTO 18004KT 9SM 25/09 A2991 RMK SLP132 T02520091 57019 IEM_DS3505
ZBAA,2001-09-26 07:00,ZBAA 260700Z AUTO 17004KT 6SM 26/12 A2991 RMK T02600120 IEM_DS3505
ZBAA,2001-09-26 08:00,ZBAA 260800Z AUTO 20004KT 6SM 25/11 A2991 RMK T02500110 IEM_DS3505
ZBAA,2001-09-26 09:00,ZBAA 260900Z AUTO 20002KT 7SM 25/12 A2991 RMK SLP127 T02500115 57005 IEM_DS3505
ZBAA,2001-09-26 10:00,ZBAA 261000Z AUTO 35002KT 3SM 22/15 A2991 RMK T02200150 IEM_DS3505
ZBAA,2001-09-26 11:00,ZBAA 261100Z AUTO 35002KT 2SM 21/15 A2994 RMK T02100150 IEM_DS3505
ZBAA,2001-09-26 12:00,ZBAA 261200Z AUTO 00000KT 6SM 22/14 A2997 RMK 60003 SLP144 T02150142 52016 IEM_DS3505
ZBAA,2001-09-26 13:00,ZBAA 261300Z AUTO 1 1/2SM 19/14 A2997 RMK T01900140 IEM_DS3505
ZBAA,2001-09-26 14:00,ZBAA 261400Z AUTO 35004KT 1 1/4SM 19/15 A3000 RMK T01900150 IEM_DS3505
ZBAA,2001-09-26 15:00,ZBAA 261500Z AUTO 04004KT 4SM 19/14 A3000 RMK SLP157 T01860141 52014 IEM_DS3505
ZBAA,2001-09-26 16:00,ZBAA 261600Z AUTO 35004KT 1 1/4SM 16/14 A3003 RMK T01600140 IEM_DS3505
ZBAA,2001-09-26 17:00,ZBAA 261700Z AUTO 35002KT 1 1/4SM 16/14 A3003 RMK T01600140 IEM_DS3505
ZBAA,2001-09-26 18:00,ZBAA 261800Z AUTO 04002KT 6SM 18/13 A3003 RMK SLP163 T01810130 52006 IEM_DS3505
ZBAA,2001-09-26 19:00,ZBAA 261900Z AUTO 35004KT 2SM 15/13 A3003 RMK T01500130 IEM_DS3505
ZBAA,2001-09-26 20:00,ZBAA 262000Z AUTO 01006KT 3SM 15/13 A3006 RMK T01500130 IEM_DS3505
ZBAA,2001-09-26 21:00,ZBAA 262100Z AUTO 02004KT 12SM 18/11 A3009 RMK 70003 SLP180 T01780110 52017 IEM_DS3505
ZBAA,2001-09-26 22:00,ZBAA 262200Z AUTO 36008KT 6SM 16/11 A3012 RMK T01600110 IEM_DS3505
ZBAA,2001-09-26 23:00,ZBAA 262300Z AUTO 01008KT 6SM 17/10 A3015 RMK T01700100 IEM_DS3505
ZBAA,2001-09-27 00:00,ZBAA 270000Z AUTO 04006G16KT 6SM 19/10 A3018 RMK 70003 SLP218 T01880098 52037 IEM_DS3505
ZBAA,2001-09-27 02:00,ZBAA 270200Z AUTO 03008KT 6SM 21/07 A3024 RMK T02100070 IEM_DS3505
ZBAA,2001-09-27 03:00,ZBAA 270300Z AUTO 09006KT 11SM 23/06 A3024 RMK SLP234 T02260061 52016 IEM_DS3505
ZBAA,2001-09-27 04:00,ZBAA 270400Z AUTO 6SM 23/05 A3024 RMK T02300050 IEM_DS3505
ZBAA,2001-09-27 05:00,ZBAA 270500Z AUTO 19006KT 6SM 24/07 A3021 RMK T02400070 IEM_DS3505
ZBAA,2001-09-27 06:00,ZBAA 270600Z AUTO 14008KT 12SM 24/04 A3018 RMK SLP225 T02400039 57009 IEM_DS3505
ZBAA,2001-09-27 07:00,ZBAA 270700Z AUTO 14006KT 6SM 24/07 A3018 RMK T02400070 IEM_DS3505
ZBAA,2001-09-27 08:00,ZBAA 270800Z AUTO 14006KT 6SM 24/05 A3018 RMK T02400050 IEM_DS3505
ZBAA,2001-09-27 09:00,ZBAA 270900Z AUTO 14008KT 19SM 24/04 A3018 RMK SLP225 T02400039 57009 IEM_DS3505
ZBAA,2001-09-27 10:00,ZBAA 271000Z AUTO 18004KT 6SM 19/07 A3018 RMK T01900070 IEM_DS3505
ZBAA,2001-09-27 11:00,ZBAA 271100Z AUTO 12002KT 6SM 19/08 A3021 RMK T01900080 IEM_DS3505
ZBAA,2001-09-27 12:00,ZBAA 271200Z AUTO 16006KT 10SM 18/08 A3024 RMK SLP231 T01800080 52011 IEM_DS3505
ZBAA,2001-09-27 13:00,ZBAA 271300Z AUTO 15004KT 6SM 15/11 A3024 RMK T01500110 IEM_DS3505
ZBAA,2001-09-27 14:00,ZBAA 271400Z AUTO 18006KT 6SM 16/10 A3027 RMK T01600100 IEM_DS3505
ZBAA,2001-09-27 15:00,ZBAA 271500Z AUTO 22004KT 10SM 16/09 A3027 RMK SLP247 T01630089 52016 IEM_DS3505
ZBAA,2001-09-27 16:00,ZBAA 271600Z AUTO 10004KT 6SM 15/10 A3030 RMK T01500100 IEM_DS3505
ZBAA,2001-09-27 17:00,ZBAA 271700Z AUTO 6SM RMK IEM_DS3505
ZBAA,2001-09-27 18:00,ZBAA 271800Z AUTO 11002KT 8SM 14/10 A3030 RMK SLP254 T01390096 52007 IEM_DS3505
ZBAA,2001-09-27 19:00,ZBAA 271900Z AUTO 6SM 13/11 A3030 RMK T01300110 IEM_DS3505
ZBAA,2001-09-27 20:00,ZBAA 272000Z AUTO 4SM 12/11 A3030 RMK T01200110 IEM_DS3505
ZBAA,2001-09-27 21:00,ZBAA 272100Z AUTO 09002KT 7SM 13/10 A3030 RMK SLP254 T01280103 54000 IEM_DS3505
ZBAA,2001-09-27 22:00,ZBAA 272200Z AUTO 3SM 12/11 A3030 RMK T01200110 IEM_DS3505
ZBAA,2001-09-27 23:00,ZBAA 272300Z AUTO 4SM 13/11 A3030 RMK T01300110 IEM_DS3505
ZBAA,2001-09-28 00:00,ZBAA 280000Z AUTO 16002KT 5SM 16/11 A3030 RMK SLP256 T01590106 52002 IEM_DS3505
ZBAA,2001-09-28 01:00,ZBAA 280100Z AUTO 5SM 16/11 A3030 RMK T01600110 IEM_DS3505
ZBAA,2001-09-28 02:00,ZBAA 280200Z AUTO 6SM 18/12 A3030 RMK T01800120 IEM_DS3505
ZBAA,2001-09-28 03:00,ZBAA 280300Z AUTO 14006KT 9SM 20/10 A3030 RMK SLP256 T01970098 54000 IEM_DS3505
ZBAA,2001-09-28 04:00,ZBAA 280400Z AUTO 15006KT 6SM 21/10 A3027 RMK T02100100 IEM_DS3505
ZBAA,2001-09-28 05:00,ZBAA 280500Z AUTO 16006KT 6SM 21/10 A3024 RMK T02100100 IEM_DS3505
ZBAA,2001-09-28 06:00,ZBAA 280600Z AUTO 18008KT 16SM 21/09 A3021 RMK SLP230 T02130094 57026 IEM_DS3505
ZBAA,2001-09-28 07:00,ZBAA 280700Z AUTO 15004KT 6SM 21/09 A3021 RMK T02100090 IEM_DS3505
ZBAA,2001-09-28 08:00,ZBAA 280800Z AUTO 16006KT 6SM 21/10 A3018 RMK T02100100 IEM_DS3505
ZBAA,2001-09-28 09:00,ZBAA 280900Z AUTO 20002KT 12SM 21/11 A3018 RMK SLP217 T02070106 57013 IEM_DS3505
ZBAA,2001-09-28 10:00,ZBAA 281000Z AUTO 14002KT 6SM 19/11 A3018 RMK T01900110 IEM_DS3505
ZBAA,2001-09-28 11:00,ZBAA 281100Z AUTO 12004KT 6SM 18/12 A3018 RMK T01800120 IEM_DS3505
ZBAA,2001-09-28 12:00,ZBAA 281200Z AUTO 14004KT 6SM 18/11 A3018 RMK SLP223 T01780114 52006 IEM_DS3505
ZBAA,2001-09-28 13:00,ZBAA 281300Z AUTO 15002KT 6SM 17/12 A3021 RMK T01700120 IEM_DS3505
ZBAA,2001-09-28 14:00,ZBAA 281400Z AUTO 15004KT 6SM 17/12 A3021 RMK T01700120 IEM_DS3505
ZBAA,2001-09-28 15:00,ZBAA 281500Z AUTO 20002KT 12SM 18/09 A3018 RMK SLP221 T01770093 57002 IEM_DS3505
ZBAA,2001-09-28 16:00,ZBAA 281600Z AUTO 13002KT 6SM 16/11 A3018 RMK T01600110 IEM_DS3505
ZBAA,2001-09-28 17:00,ZBAA 281700Z AUTO 6SM 16/11 A3015 RMK T01600110 IEM_DS3505
ZBAA,2001-09-28 18:00,ZBAA 281800Z AUTO 00000KT 9SM 16/11 A3018 RMK SLP214 T01630107 57007 IEM_DS3505
ZBAA,2001-09-28 19:00,ZBAA 281900Z AUTO 6SM 16/11 A3015 RMK T01600110 IEM_DS3505
ZBAA,2001-09-28 20:00,ZBAA 282000Z AUTO 6SM 15/12 A3012 RMK T01500120 IEM_DS3505
ZBAA,2001-09-28 21:00,ZBAA 282100Z AUTO 04004KT 7SM 16/11 A3012 RMK SLP196 T01570108 57018 IEM_DS3505
ZBAA,2001-09-28 22:00,ZBAA 282200Z AUTO 15002KT 4SM 14/12 A3012 RMK T01400120 IEM_DS3505
ZBAA,2001-09-28 23:00,ZBAA 282300Z AUTO 3SM 14/12 A3012 RMK T01400120 IEM_DS3505
ZBAA,2001-09-29 00:00,ZBAA 290000Z AUTO 16002KT 5SM 15/12 A3012 RMK 60003 SLP195 T01530122 57001 IEM_DS3505
ZBAA,2001-09-29 01:00,ZBAA 290100Z AUTO 2 1/2SM 15/12 A3012 RMK T01500120 IEM_DS3505
ZBAA,2001-09-29 02:00,ZBAA 290200Z AUTO 2 1/2SM 16/13 A3012 RMK T01600130 IEM_DS3505
ZBAA,2001-09-29 03:00,ZBAA 290300Z AUTO 20004KT 4SM 16/13 A3012 RMK SLP197 T01640134 52002 IEM_DS3505
ZBAA,2001-09-29 04:00,ZBAA 290400Z AUTO 18002KT 2SM 16/14 A3009 RMK T01600140 IEM_DS3505
ZBAA,2001-09-29 05:00,ZBAA 290500Z AUTO 09002KT 1 1/2SM 16/15 A3009 RMK T01600150 IEM_DS3505
ZBAA,2001-09-29 06:00,ZBAA 290600Z AUTO 20004KT 4SM 17/14 A3006 RMK 60000 SLP178 T01700135 57019 IEM_DS3505
ZBAA,2001-09-29 07:00,ZBAA 290700Z AUTO 09002KT 1 1/2SM 17/15 A3006 RMK T01700150 IEM_DS3505
ZBAA,2001-09-29 08:00,ZBAA 290800Z AUTO 16004KT 2SM 17/15 A3003 RMK T01700150 IEM_DS3505
ZBAA,2001-09-29 09:00,ZBAA 290900Z AUTO 22006KT 5SM 17/13 A3003 RMK SLP168 T01710126 57010 IEM_DS3505
ZBAA,2001-09-29 10:00,ZBAA 291000Z AUTO 10002KT 1 1/2SM 16/15 A3003 RMK T01600150 IEM_DS3505
ZBAA,2001-09-29 11:00,ZBAA 291100Z AUTO 12002KT 1 1/2SM 16/15 A3003 RMK T01600150 IEM_DS3505
ZBAA,2001-09-29 12:00,ZBAA 291200Z AUTO 20004KT 5SM 16/13 A3003 RMK 60003 SLP171 T01570126 52003 IEM_DS3505
ZBAA,2001-09-29 13:00,ZBAA 291300Z AUTO 18006KT 2SM 16/14 A3003 RMK T01600140 IEM_DS3505
ZBAA,2001-09-29 14:00,ZBAA 291400Z AUTO 1 1/2SM 16/15 A3003 RMK T01600150 IEM_DS3505
ZBAA,2001-09-29 15:00,ZBAA 291500Z AUTO 22002KT 2 1/2SM 15/13 A3003 RMK SLP171 T01460126 54000 IEM_DS3505
ZBAA,2001-09-29 16:00,ZBAA 291600Z AUTO 28004KT 1SM 15/15 A3003 RMK T01500150 IEM_DS3505
ZBAA,2001-09-29 17:00,ZBAA 291700Z AUTO 32004KT 1SM 14/14 A3003 RMK T01400140 IEM_DS3505
ZBAA,2001-09-29 18:00,ZBAA 291800Z AUTO 09002KT 2 1/2SM 12/12 A3003 RMK SLP169 T01210115 57002 IEM_DS3505
ZBAA,2001-09-29 19:00,ZBAA 291900Z AUTO 1SM 13/13 A3000 RMK T01300130 IEM_DS3505
ZBAA,2001-09-29 20:00,ZBAA 292000Z AUTO 02002KT 3/8SM 12/12 A3000 RMK T01200120 IEM_DS3505
ZBAA,2001-09-29 21:00,ZBAA 292100Z AUTO 25004KT 1 1/4SM 11/11 A3000 RMK 70001 SLP159 T01120110 57010 IEM_DS3505
ZBAA,2001-09-29 22:00,ZBAA 292200Z AUTO 1SM 12/12 A3000 RMK T01200120 IEM_DS3505
ZBAA,2001-09-29 23:00,ZBAA 292300Z AUTO 34002KT 1 1/2SM 12/12 A3000 RMK T01200120 IEM_DS3505
ZBAA,2001-09-30 00:00,ZBAA 300000Z AUTO 00000KT 1SM 12/11 A3003 RMK 70001 SLP166 T01180114 52007 IEM_DS3505
ZBAA,2001-09-30 01:00,ZBAA 300100Z AUTO 32008KT 6SM 18/11 A3003 RMK T01800110 IEM_DS3505
ZBAA,2001-09-30 02:00,ZBAA 300200Z AUTO 35004KT 6SM 20/12 A3003 RMK T02000120 IEM_DS3505
ZBAA,2001-09-30 03:00,ZBAA 300300Z AUTO 36012KT 16SM 22/05 A3000 RMK SLP165 T02190047 57001 IEM_DS3505
ZBAA,2001-09-30 04:00,ZBAA 300400Z AUTO 31006KT 6SM 23/08 A3000 RMK T02300080 IEM_DS3505
ZBAA,2001-09-30 05:00,ZBAA 300500Z AUTO 6SM 25/07 A2994 RMK T02500070 IEM_DS3505
ZBAA,2001-09-30 06:00,ZBAA 300600Z AUTO 34006KT 19SM 25/01 A2991 RMK SLP139 T02470012 57026 IEM_DS3505
ZBAA,2001-09-30 07:00,ZBAA 300700Z AUTO 30014KT 6SM 25/03 A2988 RMK T02500030 IEM_DS3505
ZBAA,2001-09-30 08:00,ZBAA 300800Z AUTO 31016KT 6SM 26/01 A2988 RMK T02600010 IEM_DS3505
ZBAA,2001-09-30 09:00,ZBAA 300900Z AUTO 32008KT 19SM 25/01 A2988 RMK SLP125 T02520011 57014 IEM_DS3505
ZBAA,2001-09-30 10:00,ZBAA 301000Z AUTO 32012KT 6SM 23/01 A2991 RMK T02300010 IEM_DS3505
ZBAA,2001-09-30 11:00,ZBAA 301100Z AUTO 32008KT 6SM 22/02 A2994 RMK T02200020 IEM_DS3505
ZBAA,2001-09-30 12:00,ZBAA 301200Z AUTO 04004KT 16SM 22/03 A2994 RMK SLP140 T02180030 52015 IEM_DS3505
ZBAA,2001-09-30 13:00,ZBAA 301300Z AUTO 16006KT 6SM 16/10 A2997 RMK T01600100 IEM_DS3505
ZBAA,2001-09-30 14:00,ZBAA 301400Z AUTO 12004KT 6SM 15/10 A3000 RMK T01500100 IEM_DS3505
ZBAA,2001-09-30 15:00,ZBAA 301500Z AUTO 09004KT 19SM 14/09 A3000 RMK SLP154 T01420089 52014 IEM_DS3505
ZBAA,2001-09-30 16:00,ZBAA 301600Z AUTO 6SM 13/11 A3000 RMK T01300110 IEM_DS3505
ZBAA,2001-09-30 17:00,ZBAA 301700Z AUTO 6SM 13/11 A3000 RMK T01300110 IEM_DS3505
ZBAA,2001-09-30 18:00,ZBAA 301800Z AUTO 00000KT 6SM 12/09 A3000 RMK SLP155 T01150091 52001 IEM_DS3505
ZBAA,2001-09-30 19:00,ZBAA 301900Z AUTO 6SM 11/10 A3000 RMK T01100100 IEM_DS3505
ZBAA,2001-09-30 20:00,ZBAA 302000Z AUTO 31004KT 6SM 12/10 A3000 RMK T01200100 IEM_DS3505
ZBAA,2001-09-30 21:00,ZBAA 302100Z AUTO 09002KT 6SM 10/09 A3000 RMK SLP156 T01030089 52001 IEM_DS3505
ZBAA,2001-09-30 22:00,ZBAA 302200Z AUTO 34002KT 6SM 10/09 A3000 RMK T01000090 IEM_DS3505
ZBAA,2001-09-30 23:00,ZBAA 302300Z AUTO 33002KT 6SM 10/08 A3003 RMK T01000080 IEM_DS3505
ZBAA,2001-10-01 00:00,ZBAA 010000Z AUTO 00000KT 6SM 15/10 A3003 RMK SLP166 T01520105 52010 IEM_DS3505
ZBAA,2001-10-01 01:00,ZBAA 010100Z AUTO 35002KT 6SM 16/11 A3003 RMK T01600110 IEM_DS3505
ZBAA,2001-10-01 02:00,ZBAA 010200Z AUTO 32002KT 6SM 19/10 A3003 RMK T01900100 IEM_DS3505
ZBAA,2001-10-01 03:00,ZBAA 010300Z AUTO 22004KT 11SM 21/10 A3003 RMK SLP167 T02130101 52001 IEM_DS3505
ZBAA,2001-10-01 04:00,ZBAA 010400Z AUTO 6SM 22/08 A3000 RMK T02200080 IEM_DS3505
ZBAA,2001-10-01 05:00,ZBAA 010500Z AUTO 6SM 23/09 A2997 RMK T02300090 IEM_DS3505
ZBAA,2001-10-01 06:00,ZBAA 010600Z AUTO 22008KT 12SM 25/08 A2994 RMK SLP145 T02490076 57022 IEM_DS3505
ZBAA,2001-10-01 07:00,ZBAA 010700Z AUTO 17006KT 6SM 25/10 A2994 RMK T02500100 IEM_DS3505
ZBAA,2001-10-01 08:00,ZBAA 010800Z AUTO 18006KT 6SM 25/09 A2994 RMK T02500090 IEM_DS3505
ZBAA,2001-10-01 09:00,ZBAA 010900Z AUTO 20004KT 12SM 25/09 A2994 RMK SLP139 T02500086 57006 IEM_DS3505
ZBAA,2001-10-01 10:00,ZBAA 011000Z AUTO 13002KT 6SM 22/11 A2994 RMK T02200110 IEM_DS3505
ZBAA,2001-10-01 11:00,ZBAA 011100Z AUTO 11002KT 6SM 18/12 A2994 RMK T01800120 IEM_DS3505
ZBAA,2001-10-01 12:00,ZBAA 011200Z AUTO 18004KT 11SM 21/12 A2997 RMK SLP143 T02100115 52004 IEM_DS3505
ZBAA,2001-10-01 13:00,ZBAA 011300Z AUTO 11004KT 4SM 16/12 A2997 RMK T01600120 IEM_DS3505
ZBAA,2001-10-01 14:00,ZBAA 011400Z AUTO 12004KT 4SM 17/12 A2997 RMK T01700120 IEM_DS3505
ZBAA,2001-10-01 15:00,ZBAA 011500Z AUTO 11002KT 9SM 17/10 A2997 RMK SLP146 T01680096 52004 IEM_DS3505
ZBAA,2001-10-01 16:00,ZBAA 011600Z AUTO 08002KT 1 1/2SM 15/12 A2997 RMK T01500120 IEM_DS3505
ZBAA,2001-10-01 17:00,ZBAA 011700Z AUTO 36002KT 1 1/2SM 14/12 A2997 RMK T01400120 IEM_DS3505
ZBAA,2001-10-01 18:00,ZBAA 011800Z AUTO 00000KT 6SM 14/11 A2997 RMK SLP148 T01370111 52002 IEM_DS3505
ZBAA,2001-10-01 19:00,ZBAA 011900Z AUTO 08002KT 2SM 13/12 A2997 RMK T01300120 IEM_DS3505
ZBAA,2001-10-01 20:00,ZBAA 012000Z AUTO 2SM 13/12 A2997 RMK T01300120 IEM_DS3505
ZBAA,2001-10-01 21:00,ZBAA 012100Z AUTO 36004KT 5SM 14/11 A2997 RMK SLP148 T01380114 54000 IEM_DS3505
ZBAA,2001-10-01 22:00,ZBAA 012200Z AUTO 36002KT 2SM 12/11 A2997 RMK T01200110 IEM_DS3505
ZBAA,2001-10-01 23:00,ZBAA 012300Z AUTO 36002KT 2SM 13/12 A3000 RMK T01300120 IEM_DS3505
ZBAA,2001-10-02 00:00,ZBAA 020000Z AUTO 07004KT 4SM 15/12 A3000 RMK SLP155 T01520119 52006 IEM_DS3505
ZBAA,2001-10-02 01:00,ZBAA 020100Z AUTO 02002KT 3SM 17/14 A3000 RMK T01700140 IEM_DS3505
ZBAA,2001-10-02 02:00,ZBAA 020200Z AUTO 6SM 19/13 A3000 RMK T01900130 IEM_DS3505
ZBAA,2001-10-02 03:00,ZBAA 020300Z AUTO 09008KT 6SM 20/11 A2997 RMK SLP153 T02040107 57002 IEM_DS3505
ZBAA,2001-10-02 04:00,ZBAA 020400Z AUTO 5SM 22/13 A2997 RMK T02200130 IEM_DS3505
ZBAA,2001-10-02 05:00,ZBAA 020500Z AUTO 12004KT 5SM 23/13 A2994 RMK T02300130 IEM_DS3505
ZBAA,2001-10-02 06:00,ZBAA 020600Z AUTO 09006KT 6SM 23/12 A2994 RMK SLP135 T02340122 57018 IEM_DS3505
ZBAA,2001-10-02 07:00,ZBAA 020700Z AUTO 12004KT 5SM 24/13 A2991 RMK T02400130 IEM_DS3505
ZBAA,2001-10-02 08:00,ZBAA 020800Z AUTO 09002KT 24/14 A2991 RMK T02400140 IEM_DS3505
ZBAA,2001-10-02 09:00,ZBAA 020900Z AUTO 09002KT 4SM 24/13 A2991 RMK SLP127 T02370126 57007 IEM_DS3505
ZBAA,2001-10-02 10:00,ZBAA 021000Z AUTO 10002KT 22/15 A2994 RMK T02200150 IEM_DS3505
ZBAA,2001-10-02 11:00,ZBAA 021100Z AUTO 35006KT 3SM 19/15 A2994 RMK T01900150 IEM_DS3505
ZBAA,2001-10-02 12:00,ZBAA 021200Z AUTO 04002KT 6SM 22/15 RMK SLP142 T02160149 52014 IEM_DS3505
ZBAA,2001-10-02 13:00,ZBAA 021300Z AUTO 02002KT 3SM 21/15 A2997 RMK T02100150 IEM_DS3505
ZBAA,2001-10-02 14:00,ZBAA 021400Z AUTO 36004KT 3SM 20/14 A3000 RMK T02000140 IEM_DS3505
ZBAA,2001-10-02 15:00,ZBAA 021500Z AUTO 02008KT 12SM 19/09 A3003 RMK SLP162 T01930088 52021 IEM_DS3505
ZBAA,2001-10-02 16:00,ZBAA 021600Z AUTO 01010KT 7SM 16/11 A3006 RMK T01600110 IEM_DS3505
ZBAA,2001-10-02 17:00,ZBAA 021700Z AUTO 36014KT 7SM 15/11 A3009 RMK T01500110 IEM_DS3505
ZBAA,2001-10-02 18:00,ZBAA 021800Z AUTO 02008KT 12SM 15/08 A3009 RMK 60000 SLP176 T01460085 52013 IEM_DS3505
ZBAA,2001-10-02 19:00,ZBAA 021900Z AUTO 36014KT 7SM 11/10 A3009 RMK T01100100 IEM_DS3505
ZBAA,2001-10-02 20:00,ZBAA 022000Z AUTO 36010KT 7SM 10/09 A3012 RMK T01000090 IEM_DS3505
ZBAA,2001-10-02 21:00,ZBAA 022100Z AUTO 02010KT 11SM 10/08 A3015 RMK 70006 SLP194 T01050080 52018 IEM_DS3505
ZBAA,2001-10-03 00:00,ZBAA 030000Z AUTO 34010KT 5SM 08/06 A3021 RMK 60028 SLP217 T00830063 52023 IEM_DS3505
ZBAA,2001-10-03 01:00,ZBAA 030100Z AUTO 34008KT 7SM 08/06 A3021 RMK T00800060 IEM_DS3505
ZBAA,2001-10-03 03:00,ZBAA 030300Z AUTO 36006KT 5SM 08/05 A3021 RMK SLP226 T00760051 52008 IEM_DS3505
ZBAA,2001-10-03 04:00,ZBAA 030400Z AUTO 36008KT 7SM 08/07 A3021 RMK T00800070 IEM_DS3505
ZBAA,2001-10-03 05:00,ZBAA 030500Z AUTO 01006KT 7SM 08/07 A3018 RMK T00800070 IEM_DS3505
ZBAA,2001-10-03 06:00,ZBAA 030600Z AUTO 07008KT 7SM 09/06 A3015 RMK 60071 SLP208 T00880062 57018 IEM_DS3505
ZBAA,2001-10-03 07:00,ZBAA 030700Z AUTO 05006KT 6SM 11/07 A3012 RMK T01100070 IEM_DS3505
ZBAA,2001-10-03 08:00,ZBAA 030800Z AUTO 08006KT 6SM 11/05 A3012 RMK T01100050 IEM_DS3505
ZBAA,2001-10-03 09:00,ZBAA 030900Z AUTO 14004KT 12SM 10/05 A3012 RMK SLP205 T01050047 57003 IEM_DS3505
ZBAA,2001-10-03 10:00,ZBAA 031000Z AUTO 17004KT 6SM 09/06 A3015 RMK T00900060 IEM_DS3505
ZBAA,2001-10-03 11:00,ZBAA 031100Z AUTO 16002KT 6SM 08/06 A3018 RMK T00800060 IEM_DS3505
ZBAA,2001-10-03 12:00,ZBAA 031200Z AUTO 18002KT 19SM 07/05 A3018 RMK 60003 SLP219 T00730053 52014 IEM_DS3505
ZBAA,2001-10-03 13:00,ZBAA 031300Z AUTO 20006KT 6SM 08/06 A3018 RMK T00800060 IEM_DS3505
ZBAA,2001-10-03 14:00,ZBAA 031400Z AUTO 21004KT 6SM 08/06 A3018 RMK T00800060 IEM_DS3505
ZBAA,2001-10-03 15:00,ZBAA 031500Z AUTO 22006KT 12SM 07/05 A3018 RMK SLP224 T00660052 52005 IEM_DS3505
ZBAA,2001-10-03 16:00,ZBAA 031600Z AUTO 17002KT 6SM 05/05 A3018 RMK T00500050 IEM_DS3505
ZBAA,2001-10-03 17:00,ZBAA 031700Z AUTO 6SM 05/05 A3018 RMK T00500050 IEM_DS3505
ZBAA,2001-10-03 18:00,ZBAA 031800Z AUTO 32004KT 12SM 06/05 A3018 RMK SLP223 T00580049 57001 IEM_DS3505
ZBAA,2001-10-03 19:00,ZBAA 031900Z AUTO 6SM 04/04 A3018 RMK T00400040 IEM_DS3505
ZBAA,2001-10-03 20:00,ZBAA 032000Z AUTO 36002KT 7SM 03/03 A3018 RMK T00300030 IEM_DS3505
ZBAA,2001-10-03 21:00,ZBAA 032100Z AUTO 32004KT 9SM 05/04 A3018 RMK 70091 SLP219 T00500045 57004 IEM_DS3505
ZBAA,2001-10-03 22:00,ZBAA 032200Z AUTO 35004KT 4SM 04/04 A3018 RMK T00400040 IEM_DS3505
ZBAA,2001-10-03 23:00,ZBAA 032300Z AUTO 35004KT 6SM 04/04 A3018 RMK T00400040 IEM_DS3505
ZBAA,2001-10-04 00:00,ZBAA 040000Z AUTO 00000KT 5SM 08/06 A3021 RMK 70069 SLP223 T00760060 52004 IEM_DS3505
ZBAA,2001-10-04 01:00,ZBAA 040100Z AUTO 33002KT 6SM 09/08 A3018 RMK T00900080 IEM_DS3505
ZBAA,2001-10-04 02:00,ZBAA 040200Z AUTO 35004KT 6SM 12/05 A3018 RMK T01200050 IEM_DS3505
ZBAA,2001-10-04 03:00,ZBAA 040300Z AUTO 22004KT 9SM 15/04 A3018 RMK SLP221 T01480036 57002 IEM_DS3505
ZBAA,2001-10-04 04:00,ZBAA 040400Z AUTO 6SM 16/03 A3015 RMK T01600030 IEM_DS3505
ZBAA,2001-10-04 05:00,ZBAA 040500Z AUTO 18008KT 6SM 17/02 A3012 RMK T01700020 IEM_DS3505
ZBAA,2001-10-04 06:00,ZBAA 040600Z AUTO 19006KT 6SM 18/03 A3009 RMK T01800030 IEM_DS3505
ZBAA,2001-10-04 07:00,ZBAA 040700Z AUTO 21006KT 6SM 18/03 A3009 RMK T01800030 IEM_DS3505
ZBAA,2001-10-04 08:00,ZBAA 040800Z AUTO 18008KT 6SM 18/03 A3009 RMK T01800030 IEM_DS3505
ZBAA,2001-10-04 09:00,ZBAA 040900Z AUTO 22002KT 19SM 17/04 A3009 RMK SLP192 T01710038 57009 IEM_DS3505
ZBAA,2001-10-04 10:00,ZBAA 041000Z AUTO 15002KT 6SM 14/06 A3009 RMK T01400060 IEM_DS3505
ZBAA,2001-10-04 11:00,ZBAA 041100Z AUTO 14002KT 6SM 12/07 A3012 RMK T01200070 IEM_DS3505
ZBAA,2001-10-04 12:00,ZBAA 041200Z AUTO 20004KT 12SM 13/06 A3012 RMK SLP198 T01260058 52006 IEM_DS3505
ZBAA,2001-10-04 13:00,ZBAA 041300Z AUTO 12002KT 6SM 10/07 A3012 RMK T01000070 IEM_DS3505
ZBAA,2001-10-04 14:00,ZBAA 041400Z AUTO 12002KT 6SM 09/07 A3015 RMK T00900070 IEM_DS3505
ZBAA,2001-10-04 15:00,ZBAA 041500Z AUTO 22002KT 12SM 10/06 A3015 RMK SLP209 T01030062 52011 IEM_DS3505
ZBAA,2001-10-04 16:00,ZBAA 041600Z AUTO 08002KT 4SM 08/07 A3015 RMK T00800070 IEM_DS3505
ZBAA,2001-10-04 17:00,ZBAA 041700Z AUTO 4SM 07/07 A3018 RMK T00700070 IEM_DS3505
ZBAA,2001-10-04 18:00,ZBAA 041800Z AUTO 18004KT 9SM 10/05 A3018 RMK SLP209 T00960052 52001 IEM_DS3505
ZBAA,2001-10-04 19:00,ZBAA 041900Z AUTO 4SM 07/06 A3015 RMK T00700060 IEM_DS3505
ZBAA,2001-10-04 20:00,ZBAA 042000Z AUTO 35002KT 3SM 06/06 A3015 RMK T00600060 IEM_DS3505
ZBAA,2001-10-04 21:00,ZBAA 042100Z AUTO 00000KT 6SM 07/05 A3015 RMK SLP209 T00660052 57001 IEM_DS3505
ZBAA,2001-10-04 22:00,ZBAA 042200Z AUTO 02002KT 3SM 06/06 A3015 RMK T00600060 IEM_DS3505
ZBAA,2001-10-04 23:00,ZBAA 042300Z AUTO 02002KT 3SM 06/06 A3018 RMK T00600060 IEM_DS3505
ZBAA,2001-10-05 00:00,ZBAA 050000Z AUTO 11002KT 1 1/2SM 08/07 A3018 RMK SLP216 T00820069 52007 IEM_DS3505
ZBAA,2001-10-05 01:00,ZBAA 050100Z AUTO 11002KT 4SM 10/07 A3021 RMK T01000070 IEM_DS3505
ZBAA,2001-10-05 02:00,ZBAA 050200Z AUTO 4SM 12/07 A3021 RMK T01200070 IEM_DS3505
ZBAA,2001-10-05 03:00,ZBAA 050300Z AUTO 16004KT 5SM 14/07 A3018 RMK SLP221 T01390071 52005 IEM_DS3505
ZBAA,2001-10-05 04:00,ZBAA 050400Z AUTO 3SM 15/09 A3015 RMK T01500090 IEM_DS3505
ZBAA,2001-10-05 05:00,ZBAA 050500Z AUTO 18004KT 2 1/2SM 17/10 A3015 RMK T01700100 IEM_DS3505
ZBAA,2001-10-05 06:00,ZBAA 050600Z AUTO 22010KT 6SM 18/08 A3012 RMK SLP199 T01840081 57021 IEM_DS3505
ZBAA,2001-10-05 07:00,ZBAA 050700Z AUTO 18010G19KT 3SM 19/09 A3009 RMK T01900090 IEM_DS3505
ZBAA,2001-10-05 08:00,ZBAA 050800Z AUTO 17008KT 18/09 A3009 RMK T01800090 IEM_DS3505
ZBAA,2001-10-05 09:00,ZBAA 050900Z AUTO 18004KT 6SM 18/08 A3009 RMK SLP193 T01780080 57007 IEM_DS3505
ZBAA,2001-10-05 10:00,ZBAA 051000Z AUTO 12002KT 4SM 15/10 A3012 RMK T01500100 IEM_DS3505
ZBAA,2001-10-05 11:00,ZBAA 051100Z AUTO 3SM 13/10 A3012 RMK T01300100 IEM_DS3505
ZBAA,2001-10-05 12:00,ZBAA 051200Z AUTO 14002KT 6SM 13/09 A3015 RMK SLP204 T01280090 52011 IEM_DS3505
ZBAA,2001-10-05 13:00,ZBAA 051300Z AUTO 3SM 12/10 A3015 RMK T01200100 IEM_DS3505
ZBAA,2001-10-05 14:00,ZBAA 051400Z AUTO 12002KT 3SM 12/10 A3015 RMK T01200100 IEM_DS3505
ZBAA,2001-10-05 15:00,ZBAA 051500Z AUTO 00000KT 6SM 12/08 A3015 RMK SLP212 T01150078 52008 IEM_DS3505
ZBAA,2001-10-05 16:00,ZBAA 051600Z AUTO 36004KT 2SM 10/10 A3018 RMK T01000100 IEM_DS3505
ZBAA,2001-10-05 17:00,ZBAA 051700Z AUTO 35002KT 2 1/2SM 10/09 A3018 RMK T01000090 IEM_DS3505
ZBAA,2001-10-05 18:00,ZBAA 051800Z AUTO 00000KT 4SM 10/08 A3018 RMK SLP211 T01010078 54000 IEM_DS3505
ZBAA,2001-10-05 19:00,ZBAA 051900Z AUTO 2 1/2SM 10/10 A3015 RMK T01000100 IEM_DS3505
ZBAA,2001-10-05 20:00,ZBAA 052000Z AUTO 2 1/2SM 09/09 A3015 RMK T00900090 IEM_DS3505
ZBAA,2001-10-05 21:00,ZBAA 052100Z AUTO 09004KT 2 1/2SM 10/09 A3018 RMK SLP211 T00960086 54000 IEM_DS3505
ZBAA,2001-10-05 22:00,ZBAA 052200Z AUTO 34002KT 1 1/4SM 10/10 A3018 RMK T01000100 IEM_DS3505
ZBAA,2001-10-05 23:00,ZBAA 052300Z AUTO 01002KT 1 1/4SM 10/10 A3018 RMK T01000100 IEM_DS3505
ZBAA,2001-10-06 00:00,ZBAA 060000Z AUTO 07004KT 5SM 11/09 A3018 RMK SLP219 T01110087 52007 IEM_DS3505
ZBAA,2001-10-06 01:00,ZBAA 060100Z AUTO 1 1/2SM 12/10 A3018 RMK T01200100 IEM_DS3505
ZBAA,2001-10-06 02:00,ZBAA 060200Z AUTO 2SM 13/09 A3018 RMK T01300090 IEM_DS3505
ZBAA,2001-10-06 03:00,ZBAA 060300Z AUTO 07004KT 3SM 14/09 A3018 RMK SLP215 T01400093 57004 IEM_DS3505
ZBAA,2001-10-06 04:00,ZBAA 060400Z AUTO 36002KT 2 1/2SM 15/11 A3018 RMK T01500110 IEM_DS3505
ZBAA,2001-10-06 05:00,ZBAA 060500Z AUTO 2 1/2SM 16/10 A3015 RMK T01600100 IEM_DS3505
ZBAA,2001-10-06 06:00,ZBAA 060600Z AUTO 04004KT 5SM 15/10 A3015 RMK 60003 SLP207 T01540098 57008 IEM_DS3505
ZBAA,2001-10-06 07:00,ZBAA 060700Z AUTO 01002KT 2 1/2SM 17/11 A3012 RMK T01700110 IEM_DS3505
ZBAA,2001-10-06 08:00,ZBAA 060800Z AUTO 36002KT 2 1/2SM 16/11 A3012 RMK T01600110 IEM_DS3505
ZBAA,2001-10-06 09:00,ZBAA 060900Z AUTO 02004KT 5SM 16/10 A3012 RMK SLP200 T01590104 57007 IEM_DS3505
ZBAA,2001-10-06 10:00,ZBAA 061000Z AUTO 36002KT 2 1/2SM 15/11 A3012 RMK T01500110 IEM_DS3505
ZBAA,2001-10-06 11:00,ZBAA 061100Z AUTO 36004KT 2 1/2SM 14/11 A3012 RMK T01400110 IEM_DS3505
ZBAA,2001-10-06 12:00,ZBAA 061200Z AUTO 04002KT 3SM 14/11 A3012 RMK SLP203 T01430107 52003 IEM_DS3505
ZBAA,2001-10-06 13:00,ZBAA 061300Z AUTO 32004KT 2 1/2SM 14/11 A3015 RMK T01400110 IEM_DS3505
ZBAA,2001-10-06 14:00,ZBAA 061400Z AUTO 01002KT 2SM 13/11 A3015 RMK T01300110 IEM_DS3505
ZBAA,2001-10-06 15:00,ZBAA 061500Z AUTO 36002KT 3SM 14/10 A3015 RMK SLP203 T01350096 52001 IEM_DS3505
ZBAA,2001-10-06 16:00,ZBAA 061600Z AUTO 35004KT 1 1/2SM 13/11 A3015 RMK T01300110 IEM_DS3505
ZBAA,2001-10-06 17:00,ZBAA 061700Z AUTO 35004KT 1 1/2SM 13/11 A3015 RMK T01300110 IEM_DS3505
ZBAA,2001-10-06 18:00,ZBAA 061800Z AUTO 02004KT 3SM 13/10 A3015 RMK SLP203 T01310100 54000 IEM_DS3505
ZBAA,2001-10-06 19:00,ZBAA 061900Z AUTO 35002KT 1 1/2SM 12/11 A3012 RMK T01200110 IEM_DS3505
ZBAA,2001-10-06 20:00,ZBAA 062000Z AUTO 35004KT 1 1/4SM 12/12 A3012 RMK T01200120 IEM_DS3505
ZBAA,2001-10-06 21:00,ZBAA 062100Z AUTO 34004KT 2 1/2SM 12/10 A3012 RMK 70003 SLP200 T01240103 57003 IEM_DS3505
ZBAA,2001-10-06 22:00,ZBAA 062200Z AUTO 36004KT 2SM 12/11 A3012 RMK T01200110 IEM_DS3505
ZBAA,2001-10-06 23:00,ZBAA 062300Z AUTO 35004KT 1 1/2SM 12/12 A3015 RMK T01200120 IEM_DS3505
ZBAA,2001-10-07 00:00,ZBAA 070000Z AUTO 04004KT 3SM 13/10 A3018 RMK 60003 SLP211 T01340105 52011 IEM_DS3505
ZBAA,2001-10-07 01:00,ZBAA 070100Z AUTO 36004KT 1 1/2SM 13/12 A3018 RMK T01300120 IEM_DS3505
ZBAA,2001-10-07 02:00,ZBAA 070200Z AUTO 36006KT 2SM 14/13 A3018 RMK T01400130 IEM_DS3505
ZBAA,2001-10-07 03:00,ZBAA 070300Z AUTO 04006KT 5SM 16/11 A3018 RMK SLP211 T01590113 54000 IEM_DS3505
ZBAA,2001-10-07 04:00,ZBAA 070400Z AUTO 35006KT 2 1/2SM 16/13 A3015 RMK T01600130 IEM_DS3505
ZBAA,2001-10-07 05:00,ZBAA 070500Z AUTO 36004KT 2 1/2SM 17/13 A3012 RMK T01700130 IEM_DS3505
ZBAA,2001-10-07 06:00,ZBAA 070600Z AUTO 02004KT 5SM 16/12 A3012 RMK SLP201 T01640120 57010 IEM_DS3505
ZBAA,2001-10-07 07:00,ZBAA 070700Z AUTO 34004KT 2 1/2SM 16/13 A3012 RMK T01600130 IEM_DS3505
ZBAA,2001-10-07 08:00,ZBAA 070800Z AUTO 33004KT 2SM 16/14 A3012 RMK T01600140 IEM_DS3505
ZBAA,2001-10-07 09:00,ZBAA 070900Z AUTO 36002KT 2 1/2SM 16/12 A3009 RMK SLP193 T01630125 57008 IEM_DS3505
ZBAA,2001-10-07 10:00,ZBAA 071000Z AUTO 30006KT 1 1/4SM 15/14 A3009 RMK T01500140 IEM_DS3505
ZBAA,2001-10-07 11:00,ZBAA 071100Z AUTO 31004KT 1 1/4SM 15/13 A3012 RMK T01500130 IEM_DS3505
ZBAA,2001-10-07 12:00,ZBAA 071200Z AUTO 00000KT 5SM 15/12 A3012 RMK SLP194 T01470125 52001 IEM_DS3505
ZBAA,2001-10-07 13:00,ZBAA 071300Z AUTO 29004KT 1SM 14/13 A3012 RMK T01400130 IEM_DS3505
ZBAA,2001-10-07 14:00,ZBAA 071400Z AUTO 29004KT 1SM 14/13 A3012 RMK T01400130 IEM_DS3505
ZBAA,2001-10-07 15:00,ZBAA 071500Z AUTO 00000KT 4SM 12/11 A3012 RMK SLP196 T01240111 52002 IEM_DS3505
ZBAA,2001-10-07 16:00,ZBAA 071600Z AUTO 36004KT 1SM 12/12 A3012 RMK T01200120 IEM_DS3505
ZBAA,2001-10-07 17:00,ZBAA 071700Z AUTO 34002KT 1 1/4SM 11/11 A3012 RMK T01100110 IEM_DS3505
ZBAA,2001-10-07 18:00,ZBAA 071800Z AUTO 00000KT 1SM 11/10 A3009 RMK SLP195 T01070105 57001 IEM_DS3505
ZBAA,2001-10-07 19:00,ZBAA 071900Z AUTO 35002KT 1SM 11/11 A3009 RMK T01100110 IEM_DS3505
ZBAA,2001-10-07 20:00,ZBAA 072000Z AUTO 32004KT 1SM 11/11 A3009 RMK T01100110 IEM_DS3505
ZBAA,2001-10-07 21:00,ZBAA 072100Z AUTO 00000KT 1/2SM 10/10 A3006 RMK SLP184 T00970095 57011 IEM_DS3505
ZBAA,2001-10-07 22:00,ZBAA 072200Z AUTO 10004KT 1SM 10/10 A3006 RMK T01000100 IEM_DS3505
ZBAA,2001-10-07 23:00,ZBAA 072300Z AUTO 1/8SM 11/11 A3006 RMK T01100110 IEM_DS3505
ZBAA,2001-10-08 00:00,ZBAA 080000Z AUTO 00000KT 1/8SM 11/10 A3006 RMK SLP183 T01060104 57001 IEM_DS3505
ZBAA,2001-10-08 01:00,ZBAA 080100Z AUTO 13002KT 1/8SM 11/11 A3006 RMK T01100110 IEM_DS3505
ZBAA,2001-10-08 02:00,ZBAA 080200Z AUTO 15002KT 1/8SM 12/12 A3006 RMK T01200120 IEM_DS3505
ZBAA,2001-10-08 03:00,ZBAA 080300Z AUTO 09004KT 3/8SM 13/12 A3003 RMK SLP167 T01260122 57016 IEM_DS3505
ZBAA,2001-10-08 04:00,ZBAA 080400Z AUTO 14002KT 1/2SM 14/14 A3000 RMK T01400140 IEM_DS3505
ZBAA,2001-10-08 05:00,ZBAA 080500Z AUTO 1SM 16/16 A2997 RMK T01600160 IEM_DS3505
ZBAA,2001-10-08 06:00,ZBAA 080600Z AUTO 00000KT 4SM 18/13 A2991 RMK SLP132 T01780132 57035 IEM_DS3505
ZBAA,2001-10-08 07:00,ZBAA 080700Z AUTO 28008KT 1SM 16/14 A2991 RMK T01600140 IEM_DS3505
ZBAA,2001-10-08 09:00,ZBAA 080900Z AUTO 29010KT 5SM 13/11 A2994 RMK SLP134 T01260107 52001 IEM_DS3505
ZBAA,2001-10-08 10:00,ZBAA 081000Z AUTO 28010KT 7SM 12/11 A2994 RMK T01200110 IEM_DS3505
ZBAA,2001-10-08 11:00,ZBAA 081100Z AUTO 29012KT 7SM 11/11 A2991 RMK T01100110 IEM_DS3505
ZBAA,2001-10-08 12:00,ZBAA 081200Z AUTO 02008KT 9SM 12/10 A2991 RMK 60031 SLP133 T01150101 57001 IEM_DS3505
ZBAA,2001-10-08 13:00,ZBAA 081300Z AUTO 36008KT 7SM RMK IEM_DS3505
ZBAA,2001-10-08 14:00,ZBAA 081400Z AUTO 33006KT 7SM 11/11 A2991 RMK T01100110 IEM_DS3505
ZBAA,2001-10-08 15:00,ZBAA 081500Z AUTO 32004KT 11SM 12/10 A2991 RMK SLP130 T01180096 57002 IEM_DS3505
ZBAA,2001-10-08 16:00,ZBAA 081600Z AUTO 01002KT 7SM 11/11 A2991 RMK T01100110 IEM_DS3505
ZBAA,2001-10-08 17:00,ZBAA 081700Z AUTO 02004KT 7SM 11/11 RMK T01100110 IEM_DS3505
ZBAA,2001-10-08 18:00,ZBAA 081800Z AUTO 00000KT 5SM 11/10 A2985 RMK 60003 SLP109 T01090101 57021 IEM_DS3505
ZBAA,2001-10-08 19:00,ZBAA 081900Z AUTO 02002KT 6SM 11/11 A2983 RMK T01100110 IEM_DS3505
ZBAA,2001-10-08 20:00,ZBAA 082000Z AUTO 35002KT 7SM 11/11 A2983 RMK T01100110 IEM_DS3505
ZBAA,2001-10-08 21:00,ZBAA 082100Z AUTO 27004KT 6SM 11/10 A2983 RMK 70033 SLP097 T01060100 57012 IEM_DS3505
ZBAA,2001-10-08 22:00,ZBAA 082200Z AUTO 32006KT 7SM 11/11 A2980 RMK T01100110 IEM_DS3505
ZBAA,2001-10-08 23:00,ZBAA 082300Z AUTO 35004KT 7SM 11/10 A2983 RMK T01100100 IEM_DS3505
ZBAA,2001-10-09 00:00,ZBAA 090000Z AUTO 36002KT 7SM 12/10 A2983 RMK 60000 SLP101 T01160102 52004 IEM_DS3505
ZBAA,2001-10-09 01:00,ZBAA 090100Z AUTO 32010KT 7SM 12/10 A2985 RMK T01200100 IEM_DS3505
ZBAA,2001-10-09 02:00,ZBAA 090200Z AUTO 32008KT 7SM 13/10 A2988 RMK T01300100 IEM_DS3505
ZBAA,2001-10-09 03:00,ZBAA 090300Z AUTO 34006KT 6SM 13/09 A2985 RMK SLP112 T01310087 52011 IEM_DS3505
ZBAA,2001-10-09 04:00,ZBAA 090400Z AUTO 32010KT 6SM 16/10 A2985 RMK T01600100 IEM_DS3505
ZBAA,2001-10-09 05:00,ZBAA 090500Z AUTO 34010KT 7SM 17/10 A2985 RMK T01700100 IEM_DS3505
ZBAA,2001-10-09 06:00,ZBAA 090600Z AUTO 34008KT 16SM 18/06 A2985 RMK 60004 SLP113 T01810062 52001 IEM_DS3505
ZBAA,2001-10-09 07:00,ZBAA 090700Z AUTO 32008KT 6SM 17/09 A2988 RMK T01700090 IEM_DS3505
ZBAA,2001-10-09 08:13,ZBAA 090813Z AUTO 31010G19KT 6SM 18/08 A2988 RMK T01800080 IEM_DS3505
ZBAA,2001-10-09 09:00,ZBAA 090900Z AUTO 34010KT 12SM 18/05 A2991 RMK SLP126 T01830054 52013 IEM_DS3505
ZBAA,2001-10-09 10:00,ZBAA 091000Z AUTO 31014KT 6SM 17/08 A2991 RMK T01700080 IEM_DS3505
ZBAA,2001-10-09 11:00,ZBAA 091100Z AUTO 32014KT 6SM 16/07 A2997 RMK T01600070 IEM_DS3505
ZBAA,2001-10-09 12:00,ZBAA 091200Z AUTO 34010KT 16SM 17/05 A3000 RMK SLP152 T01670047 52026 IEM_DS3505
ZBAA,2001-10-09 13:00,ZBAA 091300Z AUTO 32017KT 6SM 16/07 A3000 RMK T01600070 IEM_DS3505
ZBAA,2001-10-09 14:00,ZBAA 091400Z AUTO 30004KT 6SM 15/06 A3003 RMK T01500060 IEM_DS3505
ZBAA,2001-10-09 15:00,ZBAA 091500Z AUTO 36010KT 16SM 16/04 A3003 RMK SLP168 T01570044 52016 IEM_DS3505
ZBAA,2001-10-09 16:00,ZBAA 091600Z AUTO 32016KT 6SM 14/06 A3003 RMK T01400060 IEM_DS3505
ZBAA,2001-10-09 17:00,ZBAA 091700Z AUTO 31012KT 6SM 14/05 A3006 RMK T01400050 IEM_DS3505
ZBAA,2001-10-09 18:00,ZBAA 091800Z AUTO 02006KT 19SM 15/04 A3006 RMK SLP174 T01470038 52006 IEM_DS3505
ZBAA,2001-10-09 19:00,ZBAA 091900Z AUTO 01006KT 6SM 12/06 A3009 RMK T01200060 IEM_DS3505
ZBAA,2001-10-09 20:00,ZBAA 092000Z AUTO 35004KT 6SM 10/06 A3009 RMK T01000060 IEM_DS3505
ZBAA,2001-10-09 21:00,ZBAA 092100Z AUTO 34006KT 19SM 14/03 A3009 RMK 70004 SLP185 T01420033 52011 IEM_DS3505
ZBAA,2001-10-09 22:00,ZBAA 092200Z AUTO 35006KT 6SM 09/06 A3012 RMK T00900060 IEM_DS3505
ZBAA,2001-10-09 23:00,ZBAA 092300Z AUTO 35006KT 6SM 09/06 A3012 RMK T00900060 IEM_DS3505
ZBAA,2001-10-10 00:00,ZBAA 100000Z AUTO 36008KT 19SM 14/02 A3015 RMK 70004 SLP202 T01450023 52017 IEM_DS3505
ZBAA,2001-10-10 01:00,ZBAA 100100Z AUTO 36008KT 6SM 15/06 A3015 RMK T01500060 IEM_DS3505
ZBAA,2001-10-10 02:00,ZBAA 100200Z AUTO 02004KT 6SM 17/08 A3015 RMK T01700080 IEM_DS3505
ZBAA,2001-10-10 03:00,ZBAA 100300Z AUTO 34008KT 12SM 19/03 A3015 RMK SLP205 T01860028 52003 IEM_DS3505
ZBAA,2001-10-10 04:00,ZBAA 100400Z AUTO 36006KT 6SM 19/07 A3012 RMK T01900070 IEM_DS3505
ZBAA,2001-10-10 05:00,ZBAA 100500Z AUTO 33006KT 6SM 21/06 A3012 RMK T02100060 IEM_DS3505
ZBAA,2001-10-10 06:00,ZBAA 100600Z AUTO 34006KT 12SM 21/04 A3009 RMK SLP191 T02120041 57014 IEM_DS3505
ZBAA,2001-10-10 07:00,ZBAA 100700Z AUTO 31008KT 6SM 22/06 A3006 RMK T02200060 IEM_DS3505
ZBAA,2001-10-10 08:00,ZBAA 100800Z AUTO 32008KT 6SM 22/07 A3006 RMK T02200070 IEM_DS3505
ZBAA,2001-10-10 09:00,ZBAA 100900Z AUTO 02002KT 12SM 21/05 A3006 RMK SLP183 T02140050 57008 IEM_DS3505
ZBAA,2001-10-10 10:00,ZBAA 101000Z AUTO 29002KT 6SM 18/07 A3006 RMK T01800070 IEM_DS3505
ZBAA,2001-10-10 11:00,ZBAA 101100Z AUTO 6SM 15/10 A3009 RMK T01500100 IEM_DS3505
ZBAA,2001-10-10 12:00,ZBAA 101200Z AUTO 00000KT 7SM 15/09 A3009 RMK SLP189 T01480091 52006 IEM_DS3505
ZBAA,2001-10-10 13:00,ZBAA 101300Z AUTO 6SM 14/09 A3012 RMK T01400090 IEM_DS3505
ZBAA,2001-10-10 14:00,ZBAA 101400Z AUTO 6SM 13/10 A3012 RMK T01300100 IEM_DS3505
ZBAA,2001-10-10 15:00,ZBAA 101500Z AUTO 36004KT 6SM 12/09 A3015 RMK SLP201 T01200088 52012 IEM_DS3505
ZBAA,2001-10-10 16:00,ZBAA 101600Z AUTO 35002KT 6SM 11/10 A3015 RMK T01100100 IEM_DS3505
ZBAA,2001-10-10 17:00,ZBAA 101700Z AUTO 36002KT 6SM 11/09 A3015 RMK T01100090 IEM_DS3505
ZBAA,2001-10-10 18:00,ZBAA 101800Z AUTO 04004KT 12SM 12/07 A3018 RMK SLP209 T01230073 52008 IEM_DS3505
ZBAA,2001-10-10 19:00,ZBAA 101900Z AUTO 34002KT 6SM 09/09 A3018 RMK T00900090 IEM_DS3505
ZBAA,2001-10-10 20:00,ZBAA 102000Z AUTO 34006KT 6SM 09/08 A3018 RMK T00900080 IEM_DS3505
ZBAA,2001-10-10 21:00,ZBAA 102100Z AUTO 04002KT 12SM 12/08 A3018 RMK SLP218 T01180079 52009 IEM_DS3505
ZBAA,2001-10-10 22:00,ZBAA 102200Z AUTO 32006KT 6SM 09/07 A3021 RMK T00900070 IEM_DS3505
ZBAA,2001-10-10 23:00,ZBAA 102300Z AUTO 35006KT 6SM 08/07 A3021 RMK T00800070 IEM_DS3505
ZBAA,2001-10-11 00:00,ZBAA 110000Z AUTO 04002KT 9SM 13/07 A3024 RMK SLP234 T01340070 52016 IEM_DS3505
ZBAA,2001-10-11 01:00,ZBAA 110100Z AUTO 01006KT 6SM 15/07 A3024 RMK T01500070 IEM_DS3505
ZBAA,2001-10-11 02:00,ZBAA 110200Z AUTO 01002KT 6SM 18/05 A3024 RMK T01800050 IEM_DS3505
ZBAA,2001-10-11 03:00,ZBAA 110300Z AUTO 02004KT 12SM 19/07 A3024 RMK SLP236 T01920072 52002 IEM_DS3505
ZBAA,2001-10-11 04:00,ZBAA 110400Z AUTO 02002KT 6SM 21/02 A3021 RMK T02100020 IEM_DS3505
ZBAA,2001-10-11 05:00,ZBAA 110500Z AUTO 6SM 23/02 A3018 RMK T02300020 IEM_DS3505
ZBAA,2001-10-11 06:00,ZBAA 110600Z AUTO 18004KT 16SM 22/04 A3015 RMK SLP214 T02150036 57022 IEM_DS3505
ZBAA,2001-10-11 07:00,ZBAA 110700Z AUTO 19004KT 6SM 22/04 A3015 RMK T02200040 IEM_DS3505
ZBAA,2001-10-11 08:00,ZBAA 110800Z AUTO 17004KT 6SM 22/04 A3015 RMK T02200040 IEM_DS3505
ZBAA,2001-10-11 09:00,ZBAA 110900Z AUTO 22004KT 19SM 21/06 A3015 RMK SLP208 T02120064 57006 IEM_DS3505
ZBAA,2001-10-11 10:00,ZBAA 111000Z AUTO 17002KT 6SM 17/08 A3015 RMK T01700080 IEM_DS3505
ZBAA,2001-10-11 11:00,ZBAA 111100Z AUTO 17004KT 6SM 17/08 A3015 RMK T01700080 IEM_DS3505
ZBAA,2001-10-11 12:00,ZBAA 111200Z AUTO 22002KT 6SM 14/10 A3018 RMK SLP215 T01430099 52007 IEM_DS3505
ZBAA,2001-10-11 13:00,ZBAA 111300Z AUTO 18002KT 6SM 15/09 A3018 RMK T01500090 IEM_DS3505
ZBAA,2001-10-11 14:00,ZBAA 111400Z AUTO 4SM 12/11 A3021 RMK T01200110 IEM_DS3505
ZBAA,2001-10-11 15:00,ZBAA 111500Z AUTO 00000KT 3SM 12/10 A3021 RMK SLP227 T01230100 52012 IEM_DS3505
ZBAA,2001-10-11 16:00,ZBAA 111600Z AUTO 4SM 11/10 A3024 RMK T01100100 IEM_DS3505
ZBAA,2001-10-11 17:00,ZBAA 111700Z AUTO 34002KT 4SM 10/09 A3024 RMK T01000090 IEM_DS3505
ZBAA,2001-10-11 18:00,ZBAA 111800Z AUTO 00000KT 3SM 11/09 A3024 RMK SLP231 T01100092 52004 IEM_DS3505
ZBAA,2001-10-11 19:00,ZBAA 111900Z AUTO 35004KT 5SM 10/08 A3024 RMK T01000080 IEM_DS3505
ZBAA,2001-10-11 20:00,ZBAA 112000Z AUTO 35006KT 6SM 10/08 A3024 RMK T01000080 IEM_DS3505
ZBAA,2001-10-11 21:00,ZBAA 112100Z AUTO 04004KT 3SM 10/08 A3024 RMK SLP235 T00960081 52004 IEM_DS3505
ZBAA,2001-10-11 22:00,ZBAA 112200Z AUTO 34004KT 6SM 09/07 A3024 RMK T00900070 IEM_DS3505
ZBAA,2001-10-11 23:00,ZBAA 112300Z AUTO 34004KT 6SM 08/07 A3024 RMK T00800070 IEM_DS3505
ZBAA,2001-10-12 00:00,ZBAA 120000Z AUTO 04004KT 2SM 12/08 A3027 RMK SLP242 T01200077 52006 IEM_DS3505
ZBAA,2001-10-12 01:00,ZBAA 120100Z AUTO 35004KT 6SM 13/09 A3027 RMK T01300090 IEM_DS3505
ZBAA,2001-10-12 02:00,ZBAA 120200Z AUTO 02004KT 6SM 16/09 A3027 RMK T01600090 IEM_DS3505
ZBAA,2001-10-12 03:00,ZBAA 120300Z AUTO 04004KT 9SM 17/08 A3027 RMK SLP246 T01720077 52005 IEM_DS3505
ZBAA,2001-10-12 04:00,ZBAA 120400Z AUTO 6SM 20/10 A3024 RMK T02000100 IEM_DS3505
ZBAA,2001-10-12 05:00,ZBAA 120500Z AUTO 6SM 21/10 A3021 RMK T02100100 IEM_DS3505
ZBAA,2001-10-12 06:00,ZBAA 120600Z AUTO 20004KT 6SM 21/11 A3018 RMK T02100110 IEM_DS3505
ZBAA,2001-10-12 07:00,ZBAA 120700Z AUTO 19004KT 6SM 21/10 A3018 RMK T02100100 IEM_DS3505
ZBAA,2001-10-12 08:00,ZBAA 120800Z AUTO 18006KT 5SM 21/11 A3015 RMK T02100110 IEM_DS3505
ZBAA,2001-10-12 09:00,ZBAA 120900Z AUTO 20002KT 6SM 20/11 A3015 RMK SLP212 T01980111 57010 IEM_DS3505
ZBAA,2001-10-12 10:00,ZBAA 121000Z AUTO 18002KT 18/12 A3015 RMK T01800120 IEM_DS3505
ZBAA,2001-10-12 11:00,ZBAA 121100Z AUTO 17004KT 2 1/2SM 16/12 A3018 RMK T01600120 IEM_DS3505
ZBAA,2001-10-12 12:00,ZBAA 121200Z AUTO 18002KT 5SM 15/12 A3018 RMK SLP218 T01500119 52005 IEM_DS3505
ZBAA,2001-10-12 13:00,ZBAA 121300Z AUTO 11002KT 2SM 13/12 A3018 RMK T01300120 IEM_DS3505
ZBAA,2001-10-12 14:00,ZBAA 121400Z AUTO 1 1/4SM 13/12 A3018 RMK T01300120 IEM_DS3505
ZBAA,2001-10-12 15:00,ZBAA 121500Z AUTO 00000KT 2SM 13/12 A3018 RMK SLP219 T01270116 52002 IEM_DS3505
ZBAA,2001-10-12 16:00,ZBAA 121600Z AUTO 01002KT 1SM 12/12 A3018 RMK T01200120 IEM_DS3505
ZBAA,2001-10-12 17:00,ZBAA 121700Z AUTO 35002KT 1SM 11/11 A3018 RMK T01100110 IEM_DS3505
ZBAA,2001-10-12 18:00,ZBAA 121800Z AUTO 02002KT 1SM 11/10 A3018 RMK SLP216 T01110105 57003 IEM_DS3505
ZBAA,2001-10-12 19:00,ZBAA 121900Z AUTO 34004KT 1 1/4SM 10/10 A3015 RMK T01000100 IEM_DS3505
ZBAA,2001-10-12 20:00,ZBAA 122000Z AUTO 34004KT 1 1/4SM 10/10 A3015 RMK T01000100 IEM_DS3505
ZBAA,2001-10-12 21:00,ZBAA 122100Z AUTO 02002KT 1/2SM 09/09 A3015 RMK SLP209 T00900088 57007 IEM_DS3505
ZBAA,2001-10-12 22:00,ZBAA 122200Z AUTO 34004KT 1 1/4SM 10/09 A3015 RMK T01000090 IEM_DS3505
ZBAA,2001-10-12 23:00,ZBAA 122300Z AUTO 34004KT 1 1/2SM 09/09 A3015 RMK T00900090 IEM_DS3505
ZBAA,2001-10-13 00:00,ZBAA 130000Z AUTO 04002KT 4SM 13/10 A3018 RMK SLP216 T01260099 52007 IEM_DS3505
ZBAA,2001-10-13 01:00,ZBAA 130100Z AUTO 35004KT 3SM 15/12 A3018 RMK T01500120 IEM_DS3505
ZBAA,2001-10-13 02:00,ZBAA 130200Z AUTO 02004KT 6SM 18/11 A3018 RMK T01800110 IEM_DS3505
ZBAA,2001-10-13 03:00,ZBAA 130300Z AUTO 07008KT 6SM 19/09 A3018 RMK SLP216 T01910090 54000 IEM_DS3505
ZBAA,2001-10-13 04:00,ZBAA 130400Z AUTO 10004KT 5SM 21/11 A3015 RMK T02100110 IEM_DS3505
ZBAA,2001-10-13 05:00,ZBAA 130500Z AUTO 10004KT 5SM 22/11 A3012 RMK T02200110 IEM_DS3505
ZBAA,2001-10-13 06:00,ZBAA 130600Z AUTO 14002KT 6SM 22/10 A3009 RMK SLP193 T02160105 57023 IEM_DS3505
ZBAA,2001-10-13 07:00,ZBAA 130700Z AUTO 13004KT 5SM 22/12 A3009 RMK T02200120 IEM_DS3505
ZBAA,2001-10-13 08:00,ZBAA 130800Z AUTO 15004KT 5SM 22/11 A3009 RMK T02200110 IEM_DS3505
ZBAA,2001-10-13 09:00,ZBAA 130900Z AUTO 00000KT 5SM 21/13 A3009 RMK SLP192 T02080127 57001 IEM_DS3505
ZBAA,2001-10-13 10:00,ZBAA 131000Z AUTO 16002KT 3SM 19/13 A3012 RMK T01900130 IEM_DS3505
ZBAA,2001-10-13 11:00,ZBAA 131100Z AUTO 16002KT 2SM 18/13 A3012 RMK T01800130 IEM_DS3505
ZBAA,2001-10-13 12:00,ZBAA 131200Z AUTO 00000KT 2 1/2SM 15/12 A3015 RMK SLP204 T01540123 52012 IEM_DS3505
ZBAA,2001-10-13 13:00,ZBAA 131300Z AUTO 06002KT 1 1/4SM 15/14 A3018 RMK T01500140 IEM_DS3505
ZBAA,2001-10-13 14:00,ZBAA 131400Z AUTO 10004KT 1SM 15/13 A3018 RMK T01500130 IEM_DS3505
ZBAA,2001-10-13 15:00,ZBAA 131500Z AUTO 14004KT 1 1/4SM 15/13 A3018 RMK SLP216 T01500130 52012 IEM_DS3505
ZBAA,2001-10-13 16:00,ZBAA 131600Z AUTO 1SM 14/13 A3021 RMK T01400130 IEM_DS3505
ZBAA,2001-10-13 17:00,ZBAA 131700Z AUTO 1 1/4SM 13/12 A3021 RMK T01300120 IEM_DS3505
ZBAA,2001-10-13 18:00,ZBAA 131800Z AUTO 04004KT 2SM 13/12 A3021 RMK SLP220 T01330120 52004 IEM_DS3505
ZBAA,2001-10-13 19:00,ZBAA 131900Z AUTO 35002KT 1 1/4SM 13/12 A3018 RMK T01300120 IEM_DS3505
ZBAA,2001-10-13 20:00,ZBAA 132000Z AUTO 35002KT 2SM 13/12 A3018 RMK T01300120 IEM_DS3505
ZBAA,2001-10-13 21:00,ZBAA 132100Z AUTO 00000KT 3SM 13/11 A3018 RMK SLP218 T01290108 57002 IEM_DS3505
ZBAA,2001-10-13 22:00,ZBAA 132200Z AUTO 35002KT 1 1/2SM 14/12 A3018 RMK T01400120 IEM_DS3505
ZBAA,2001-10-13 23:00,ZBAA 132300Z AUTO 35002KT 1 1/4SM 14/12 A3018 RMK T01400120 IEM_DS3505
ZBAA,2001-10-14 00:00,ZBAA 140000Z AUTO 02004KT 5SM 14/09 A3021 RMK SLP229 T01410094 52011 IEM_DS3505
ZBAA,2001-10-14 01:00,ZBAA 140100Z AUTO 03002KT 2 1/2SM 14/13 A3021 RMK T01400130 IEM_DS3505
ZBAA,2001-10-14 02:00,ZBAA 140200Z AUTO 12002KT 4SM 17/13 A3021 RMK T01700130 IEM_DS3505
ZBAA,2001-10-14 03:00,ZBAA 140300Z AUTO 14006KT 7SM 17/09 A3018 RMK SLP220 T01700093 57009 IEM_DS3505
ZBAA,2001-10-14 04:00,ZBAA 140400Z AUTO 15004KT 6SM 18/11 A3018 RMK T01800110 IEM_DS3505
ZBAA,2001-10-14 05:00,ZBAA 140500Z AUTO 15002KT 6SM 18/11 A3015 RMK T01800110 IEM_DS3505
ZBAA,2001-10-14 06:00,ZBAA 140600Z AUTO 00000KT 9SM 18/11 A3012 RMK SLP197 T01780108 57023 IEM_DS3505
ZBAA,2001-10-14 07:00,ZBAA 140700Z AUTO 12002KT 6SM 18/11 A3012 RMK T01800110 IEM_DS3505
ZBAA,2001-10-14 08:00,ZBAA 140800Z AUTO 12004KT 6SM 17/10 A3009 RMK T01700100 IEM_DS3505
ZBAA,2001-10-14 09:00,ZBAA 140900Z AUTO 11002KT 7SM 16/13 A3009 RMK SLP190 T01620126 57007 IEM_DS3505
ZBAA,2001-10-14 10:00,ZBAA 141000Z AUTO 5SM 15/12 A3009 RMK T01500120 IEM_DS3505
ZBAA,2001-10-14 11:00,ZBAA 141100Z AUTO 27004KT 4SM 14/13 A3012 RMK T01400130 IEM_DS3505
ZBAA,2001-10-14 12:00,ZBAA 141200Z AUTO 00000KT 6SM 14/13 A3012 RMK 60020 SLP193 T01400131 52003 IEM_DS3505
ZBAA,2001-10-14 13:00,ZBAA 141300Z AUTO 36002KT 2 1/2SM 13/13 A3012 RMK T01300130 IEM_DS3505
ZBAA,2001-10-14 14:00,ZBAA 141400Z AUTO 03002KT 3SM 13/13 A3012 RMK T01300130 IEM_DS3505
ZBAA,2001-10-14 15:00,ZBAA 141500Z AUTO 16006KT 6SM 14/13 A3009 RMK SLP193 T01420133 54000 IEM_DS3505
ZBAA,2001-10-14 16:00,ZBAA 141600Z AUTO 3SM 13/13 A3009 RMK T01300130 IEM_DS3505
ZBAA,2001-10-14 17:00,ZBAA 141700Z AUTO 12004KT 3SM 13/13 A3009 RMK T01300130 IEM_DS3505
ZBAA,2001-10-14 18:00,ZBAA 141800Z AUTO 18004KT 6SM 14/13 A3009 RMK 60004 SLP185 T01400133 57008 IEM_DS3505
ZBAA,2001-10-14 19:00,ZBAA 141900Z AUTO 3SM 13/13 A3009 RMK T01300130 IEM_DS3505
ZBAA,2001-10-14 20:00,ZBAA 142000Z AUTO 11004KT 2 1/2SM 13/13 A3009 RMK T01300130 IEM_DS3505
ZBAA,2001-10-14 21:00,ZBAA 142100Z AUTO 00000KT 1SM 13/12 A3009 RMK 70024 SLP186 T01260122 52001 IEM_DS3505
ZBAA,2001-10-14 22:00,ZBAA 142200Z AUTO 2 1/2SM 12/12 A3009 RMK T01200120 IEM_DS3505
ZBAA,2001-10-14 23:00,ZBAA 142300Z AUTO 12004KT 2 1/2SM 12/12 A3009 RMK T01200120 IEM_DS3505
ZBAA,2001-10-15 00:00,ZBAA 150000Z AUTO 25004KT 1 1/2SM 13/12 A3012 RMK 70024 SLP198 T01320125 52012 IEM_DS3505
ZBAA,2001-10-15 01:00,ZBAA 150100Z AUTO 14002KT 2 1/2SM 14/13 A3012 RMK T01400130 IEM_DS3505
ZBAA,2001-10-15 02:00,ZBAA 150200Z AUTO 18002KT 1 1/2SM 15/14 A3012 RMK T01500140 IEM_DS3505
ZBAA,2001-10-15 03:00,ZBAA 150300Z AUTO 18004KT 2 1/2SM 15/13 A3012 RMK SLP201 T01500126 52003 IEM_DS3505
ZBAA,2001-10-15 04:00,ZBAA 150400Z AUTO 1 1/2SM 17/14 A3012 RMK T01700140 IEM_DS3505
ZBAA,2001-10-15 05:00,ZBAA 150500Z AUTO 16004KT 1 1/4SM 18/14 A3009 RMK T01800140 IEM_DS3505
ZBAA,2001-10-15 06:00,ZBAA 150600Z AUTO 18004KT 3SM 17/14 A3006 RMK SLP187 T01720135 57014 IEM_DS3505
ZBAA,2001-10-15 07:00,ZBAA 150700Z AUTO 20006KT 1 1/4SM 20/15 A3006 RMK T02000150 IEM_DS3505
ZBAA,2001-10-15 08:00,ZBAA 150800Z AUTO 18006KT 1 1/4SM 19/15 A3006 RMK T01900150 IEM_DS3505
ZBAA,2001-10-15 09:00,ZBAA 150900Z AUTO 27004KT 3SM 17/13 A3006 RMK SLP187 T01660134 54000 IEM_DS3505
ZBAA,2001-10-15 10:00,ZBAA 151000Z AUTO 09002KT 1 1/4SM 16/15 A3009 RMK T01600150 IEM_DS3505
ZBAA,2001-10-15 11:00,ZBAA 151100Z AUTO 4SM 16/11 A3012 RMK T01600110 IEM_DS3505
ZBAA,2001-10-15 12:00,ZBAA 151200Z AUTO 22002KT 3SM 15/13 A3015 RMK SLP204 T01490127 52017 IEM_DS3505
ZBAA,2001-10-15 13:00,ZBAA 151300Z AUTO 34008KT 6SM 14/06 A3018 RMK T01400060 IEM_DS3505
ZBAA,2001-10-15 14:00,ZBAA 151400Z AUTO 35010KT 6SM 15/03 A3021 RMK T01500030 IEM_DS3505
ZBAA,2001-10-15 15:00,ZBAA 151500Z AUTO 36006KT 6SM 14/01 A3024 RMK T01400010 IEM_DS3505
ZBAA,2001-10-15 16:00,ZBAA 151600Z AUTO 35010KT 6SM 11/01 A3024 RMK T01100010 IEM_DS3505
ZBAA,2001-10-15 17:00,ZBAA 151700Z AUTO 35008KT 6SM 12/00 A3027 RMK T01200000 IEM_DS3505
ZBAA,2001-10-15 18:00,ZBAA 151800Z AUTO 07004KT 19SM 15/M03 A3027 RMK SLP243 T01471032 52013 IEM_DS3505
ZBAA,2001-10-15 19:00,ZBAA 151900Z AUTO 32004KT 6SM 11/M02 A3027 RMK T01101020 IEM_DS3505
ZBAA,2001-10-15 20:00,ZBAA 152000Z AUTO 6SM 10/00 A3027 RMK T01000000 IEM_DS3505
ZBAA,2001-10-15 21:00,ZBAA 152100Z AUTO 09004KT 19SM 10/01 A3027 RMK SLP246 T01000009 52002 IEM_DS3505
ZBAA,2001-10-15 22:00,ZBAA 152200Z AUTO 35006KT 6SM 08/00 A3030 RMK T00800000 IEM_DS3505
ZBAA,2001-10-15 23:00,ZBAA 152300Z AUTO 36002KT 6SM 09/M01 A3030 RMK T00901010 IEM_DS3505
ZBAA,2001-10-16 00:00,ZBAA 160000Z AUTO 00000KT 12SM 12/00 A3030 RMK SLP261 T01220003 52015 IEM_DS3505
ZBAA,2001-10-16 01:00,ZBAA 160100Z AUTO 34004KT 6SM 15/M02 A3033 RMK T01501020 IEM_DS3505
ZBAA,2001-10-16 02:00,ZBAA 160200Z AUTO 28004KT 6SM 16/M02 A3033 RMK T01601020 IEM_DS3505
ZBAA,2001-10-16 03:00,ZBAA 160300Z AUTO 04004KT 17SM 17/M00 A3030 RMK SLP255 T01711002 57005 IEM_DS3505
ZBAA,2001-10-16 04:00,ZBAA 160400Z AUTO 29004KT 6SM 18/M04 A3027 RMK T01801040 IEM_DS3505
ZBAA,2001-10-16 05:00,ZBAA 160500Z AUTO 26004KT 6SM 19/M03 A3024 RMK T01901030 IEM_DS3505
ZBAA,2001-10-16 06:00,ZBAA 160600Z AUTO 09004KT 16SM 19/M02 A3021 RMK SLP228 T01931025 57027 IEM_DS3505
ZBAA,2001-10-16 07:00,ZBAA 160700Z AUTO 30008KT 6SM 21/M02 A3018 RMK T02101020 IEM_DS3505
ZBAA,2001-10-16 08:00,ZBAA 160800Z AUTO 19008KT 6SM 20/00 A3018 RMK T02000000 IEM_DS3505
ZBAA,2001-10-16 09:00,ZBAA 160900Z AUTO 25006KT 12SM 18/02 A3018 RMK SLP222 T01800021 57006 IEM_DS3505
ZBAA,2001-10-16 10:00,ZBAA 161000Z AUTO 13004KT 6SM 15/04 A3021 RMK T01500040 IEM_DS3505
ZBAA,2001-10-16 11:00,ZBAA 161100Z AUTO 07002KT 6SM 13/06 A3021 RMK T01300060 IEM_DS3505
ZBAA,2001-10-16 12:00,ZBAA 161200Z AUTO 25004KT 6SM 14/05 A3024 RMK SLP232 T01450048 52009 IEM_DS3505
ZBAA,2001-10-16 13:00,ZBAA 161300Z AUTO 10004KT 6SM 12/05 A3024 RMK T01200050 IEM_DS3505
ZBAA,2001-10-16 14:00,ZBAA 161400Z AUTO 36004KT 6SM 11/06 A3027 RMK T01100060 IEM_DS3505
ZBAA,2001-10-16 15:00,ZBAA 161500Z AUTO 07004KT 6SM 10/07 A3027 RMK SLP243 T00960066 52011 IEM_DS3505
ZBAA,2001-10-16 16:00,ZBAA 161600Z AUTO 6SM 09/05 A3027 RMK T00900050 IEM_DS3505
ZBAA,2001-10-16 17:00,ZBAA 161700Z AUTO 01004KT 6SM 10/03 A3027 RMK T01000030 IEM_DS3505
ZBAA,2001-10-16 18:00,ZBAA 161800Z AUTO 00000KT 4SM 08/05 A3030 RMK SLP251 T00850054 52008 IEM_DS3505
ZBAA,2001-10-16 19:00,ZBAA 161900Z AUTO 6SM 08/02 A3030 RMK T00800020 IEM_DS3505
ZBAA,2001-10-16 20:00,ZBAA 162000Z AUTO 34004KT 6SM 07/02 A3030 RMK T00700020 IEM_DS3505
ZBAA,2001-10-16 21:00,ZBAA 162100Z AUTO 04006KT 9SM 09/02 A3030 RMK SLP251 T00860018 54000 IEM_DS3505
ZBAA,2001-10-16 22:00,ZBAA 162200Z AUTO 35004KT 6SM 06/01 A3030 RMK T00600010 IEM_DS3505
ZBAA,2001-10-16 23:00,ZBAA 162300Z AUTO 35004KT 6SM 05/01 A3030 RMK T00500010 IEM_DS3505
ZBAA,2001-10-17 00:00,ZBAA 170000Z AUTO 02004KT 7SM 10/02 A3030 RMK SLP260 T00960019 52009 IEM_DS3505
ZBAA,2001-10-17 01:00,ZBAA 170100Z AUTO 02002KT 6SM 13/01 A3033 RMK T01300010 IEM_DS3505
ZBAA,2001-10-17 02:00,ZBAA 170200Z AUTO 13004KT 6SM 15/M02 A3030 RMK T01501020 IEM_DS3505
ZBAA,2001-10-17 03:00,ZBAA 170300Z AUTO 09008KT 9SM 15/00 A3030 RMK SLP260 T01460001 54000 IEM_DS3505
ZBAA,2001-10-17 04:00,ZBAA 170400Z AUTO 12006KT 6SM 16/M01 A3027 RMK T01601010 IEM_DS3505
ZBAA,2001-10-17 05:00,ZBAA 170500Z AUTO 14006KT 6SM 17/00 A3024 RMK T01700000 IEM_DS3505
ZBAA,2001-10-17 06:00,ZBAA 170600Z AUTO 16006KT 9SM 17/01 A3021 RMK SLP226 T01710006 57034 IEM_DS3505
ZBAA,2001-10-17 07:00,ZBAA 170700Z AUTO 14006KT 6SM 17/01 A3018 RMK T01700010 IEM_DS3505
ZBAA,2001-10-17 08:00,ZBAA 170800Z AUTO 12004KT 6SM 17/02 A3015 RMK T01700020 IEM_DS3505
ZBAA,2001-10-17 09:00,ZBAA 170900Z AUTO 04004KT 9SM 16/04 A3015 RMK SLP207 T01620039 57019 IEM_DS3505
ZBAA,2001-10-17 10:00,ZBAA 171000Z AUTO 6SM 13/05 A3015 RMK T01300050 IEM_DS3505
ZBAA,2001-10-17 11:00,ZBAA 171100Z AUTO 12002KT 6SM 13/07 A3018 RMK T01300070 IEM_DS3505
ZBAA,2001-10-17 12:00,ZBAA 171200Z AUTO 04004KT 9SM 12/08 A3018 RMK SLP211 T01210085 52004 IEM_DS3505
ZBAA,2001-10-17 13:00,ZBAA 171300Z AUTO 10002KT 6SM 12/09 A3018 RMK T01200090 IEM_DS3505
ZBAA,2001-10-17 14:00,ZBAA 171400Z AUTO 11002KT 6SM 11/09 A3018 RMK T01100090 IEM_DS3505
ZBAA,2001-10-17 15:00,ZBAA 171500Z AUTO 09002KT 6SM 10/08 A3018 RMK SLP216 T00980081 52005 IEM_DS3505
ZBAA,2001-10-17 16:00,ZBAA 171600Z AUTO 6SM 09/08 A3018 RMK T00900080 IEM_DS3505
ZBAA,2001-10-17 17:00,ZBAA 171700Z AUTO 6SM 09/08 A3018 RMK T00900080 IEM_DS3505
ZBAA,2001-10-17 18:00,ZBAA 171800Z AUTO 09004KT 7SM 08/08 A3018 RMK SLP218 T00840078 52002 IEM_DS3505
ZBAA,2001-10-17 19:00,ZBAA 171900Z AUTO 6SM 07/07 A3018 RMK T00700070 IEM_DS3505
ZBAA,2001-10-17 20:00,ZBAA 172000Z AUTO 35002KT 4SM 07/07 A3015 RMK T00700070 IEM_DS3505
ZBAA,2001-10-17 21:00,ZBAA 172100Z AUTO 02002KT 6SM 08/08 A3015 RMK SLP210 T00820076 57008 IEM_DS3505
ZBAA,2001-10-17 22:00,ZBAA 172200Z AUTO 3SM 07/07 A3015 RMK T00700070 IEM_DS3505
ZBAA,2001-10-17 23:00,ZBAA 172300Z AUTO 2 1/2SM 07/07 A3015 RMK T00700070 IEM_DS3505
ZBAA,2001-10-18 00:00,ZBAA 180000Z AUTO 07002KT 3SM 08/08 A3015 RMK SLP212 T00820076 52002 IEM_DS3505
ZBAA,2001-10-18 01:00,ZBAA 180100Z AUTO 2 1/2SM 10/10 A3018 RMK T01000100 IEM_DS3505
ZBAA,2001-10-18 02:00,ZBAA 180200Z AUTO 3SM 12/10 A3015 RMK T01200100 IEM_DS3505
ZBAA,2001-10-18 03:00,ZBAA 180300Z AUTO 04006KT 5SM 13/09 A3015 RMK SLP211 T01320088 57001 IEM_DS3505
ZBAA,2001-10-18 04:00,ZBAA 180400Z AUTO 10004KT 4SM 14/10 A3012 RMK T01400100 IEM_DS3505
ZBAA,2001-10-18 05:00,ZBAA 180500Z AUTO 5SM 16/10 A3009 RMK T01600100 IEM_DS3505
ZBAA,2001-10-18 06:00,ZBAA 180600Z AUTO 09002KT 5SM 16/10 A3006 RMK SLP188 T01640095 57023 IEM_DS3505
ZBAA,2001-10-18 07:00,ZBAA 180700Z AUTO 16004KT 6SM 17/10 A3006 RMK T01700100 IEM_DS3505
ZBAA,2001-10-18 08:00,ZBAA 180800Z AUTO 14002KT 6SM 17/10 A3006 RMK T01700100 IEM_DS3505
ZBAA,2001-10-18 09:00,ZBAA 180900Z AUTO 00000KT 5SM 16/10 A3006 RMK SLP183 T01640104 57005 IEM_DS3505
ZBAA,2001-10-18 10:00,ZBAA 181000Z AUTO 4SM 14/10 A3009 RMK T01400100 IEM_DS3505
ZBAA,2001-10-18 11:00,ZBAA 181100Z AUTO 2 1/2SM 13/10 A3012 RMK T01300100 IEM_DS3505
ZBAA,2001-10-18 12:00,ZBAA 181200Z AUTO 22002KT 2SM 12/10 A3012 RMK SLP194 T01220101 52011 IEM_DS3505
ZBAA,2001-10-18 13:00,ZBAA 181300Z AUTO 01002KT 2SM 12/11 A3012 RMK T01200110 IEM_DS3505
ZBAA,2001-10-18 14:00,ZBAA 181400Z AUTO 1 1/2SM 11/10 A3015 RMK T01100100 IEM_DS3505
ZBAA,2001-10-18 15:00,ZBAA 181500Z AUTO 02002KT 1 1/4SM 11/09 A3015 RMK SLP206 T01060094 52012 IEM_DS3505
ZBAA,2001-10-18 16:00,ZBAA 181600Z AUTO 35002KT 1 1/2SM 11/10 A3015 RMK T01100100 IEM_DS3505
ZBAA,2001-10-18 17:00,ZBAA 181700Z AUTO 33002KT 1 1/4SM 10/09 A3018 RMK T01000090 IEM_DS3505
ZBAA,2001-10-18 18:00,ZBAA 181800Z AUTO 00000KT 1SM 09/09 A3018 RMK SLP215 T00920088 52009 IEM_DS3505
ZBAA,2001-10-18 19:00,ZBAA 181900Z AUTO 34004KT 1 1/4SM 10/09 A3018 RMK T01000090 IEM_DS3505
ZBAA,2001-10-18 20:00,ZBAA 182000Z AUTO 35004KT 1 1/4SM 10/09 A3018 RMK T01000090 IEM_DS3505
ZBAA,2001-10-18 21:00,ZBAA 182100Z AUTO 04002KT 1SM 08/08 A3021 RMK SLP224 T00830079 52009 IEM_DS3505
ZBAA,2001-10-18 22:00,ZBAA 182200Z AUTO 35004KT 2SM 09/08 A3021 RMK T00900080 IEM_DS3505
ZBAA,2001-10-18 23:00,ZBAA 182300Z AUTO 34004KT 1 1/2SM 08/08 A3024 RMK T00800080 IEM_DS3505
ZBAA,2001-10-19 00:00,ZBAA 190000Z AUTO 04004KT 1 1/2SM 10/09 A3027 RMK SLP240 T01050089 52016 IEM_DS3505
ZBAA,2001-10-19 01:00,ZBAA 190100Z AUTO 2SM 12/10 A3027 RMK T01200100 IEM_DS3505
ZBAA,2001-10-19 02:00,ZBAA 190200Z AUTO 36002KT 2 1/2SM 14/11 A3027 RMK T01400110 IEM_DS3505
ZBAA,2001-10-19 03:00,ZBAA 190300Z AUTO 02004KT 3SM 15/09 A3027 RMK SLP248 T01500094 52008 IEM_DS3505
ZBAA,2001-10-19 04:00,ZBAA 190400Z AUTO 2 1/2SM 17/11 A3027 RMK T01700110 IEM_DS3505
ZBAA,2001-10-19 05:00,ZBAA 190500Z AUTO 10002KT 2 1/2SM 18/11 A3024 RMK T01800110 IEM_DS3505
ZBAA,2001-10-19 06:00,ZBAA 190600Z AUTO 02002KT 5SM 18/10 A3021 RMK SLP233 T01750099 57015 IEM_DS3505
ZBAA,2001-10-19 07:00,ZBAA 190700Z AUTO 2SM 18/10 A3024 RMK T01800100 IEM_DS3505
ZBAA,2001-10-19 08:00,ZBAA 190800Z AUTO 2SM 17/12 A3024 RMK T01700120 IEM_DS3505
ZBAA,2001-10-19 09:00,ZBAA 190900Z AUTO 00000KT 2SM 16/12 A3021 RMK SLP232 T01560117 57001 IEM_DS3505
ZBAA,2001-10-19 10:00,ZBAA 191000Z AUTO 1 1/4SM 15/12 A3021 RMK T01500120 IEM_DS3505
ZBAA,2001-10-19 11:00,ZBAA 191100Z AUTO 1SM 14/12 A3024 RMK T01400120 IEM_DS3505
ZBAA,2001-10-19 12:00,ZBAA 191200Z AUTO 00000KT 1 1/4SM 14/12 A3024 RMK SLP239 T01400118 52007 IEM_DS3505
ZBAA,2001-10-19 13:00,ZBAA 191300Z AUTO 1SM 14/12 A3027 RMK T01400120 IEM_DS3505
ZBAA,2001-10-19 14:00,ZBAA 191400Z AUTO 1SM 14/13 A3027 RMK T01400130 IEM_DS3505
ZBAA,2001-10-19 15:00,ZBAA 191500Z AUTO 00000KT 1SM 14/12 A3027 RMK SLP242 T01360119 52004 IEM_DS3505
ZBAA,2001-10-19 16:00,ZBAA 191600Z AUTO 1SM 14/13 A3024 RMK T01400130 IEM_DS3505
ZBAA,2001-10-19 17:00,ZBAA 191700Z AUTO 11002KT 1SM 13/13 A3024 RMK T01300130 IEM_DS3505
ZBAA,2001-10-19 18:00,ZBAA 191800Z AUTO 07004KT 1SM 13/12 A3024 RMK SLP231 T01340119 57011 IEM_DS3505
ZBAA,2001-10-19 19:00,ZBAA 191900Z AUTO 14004KT 1SM 13/13 A3021 RMK T01300130 IEM_DS3505
ZBAA,2001-10-19 20:00,ZBAA 192000Z AUTO 12002KT 1SM 14/13 A3021 RMK T01400130 IEM_DS3505
ZBAA,2001-10-19 21:00,ZBAA 192100Z AUTO 36002KT 1 1/4SM 13/12 RMK SLP229 T01320119 57002 IEM_DS3505
ZBAA,2001-10-19 22:00,ZBAA 192200Z AUTO 12002KT 1SM 13/13 A3021 RMK T01300130 IEM_DS3505
ZBAA,2001-10-19 23:00,ZBAA 192300Z AUTO 1SM 13/13 A3021 RMK T01300130 IEM_DS3505
ZBAA,2001-10-20 00:00,ZBAA 200000Z AUTO 00000KT 1SM 13/12 A3024 RMK SLP239 T01320119 52009 IEM_DS3505
ZBAA,2001-10-20 01:00,ZBAA 200100Z AUTO 11002KT 1SM 14/13 A3024 RMK T01400130 IEM_DS3505
ZBAA,2001-10-20 02:00,ZBAA 200200Z AUTO 11002KT 1SM 15/14 A3024 RMK T01500140 IEM_DS3505
ZBAA,2001-10-20 03:00,ZBAA 200300Z AUTO 22004KT 2SM 19/11 A3024 RMK SLP231 T01870108 57007 IEM_DS3505
ZBAA,2001-10-20 04:00,ZBAA 200400Z AUTO 1SM 19/13 A3021 RMK T01900130 IEM_DS3505
ZBAA,2001-10-20 05:00,ZBAA 200500Z AUTO 11002KT 1SM 20/13 A3018 RMK T02000130 IEM_DS3505
ZBAA,2001-10-20 06:00,ZBAA 200600Z AUTO 18008KT 4SM 22/09 A3015 RMK SLP208 T02190090 57023 IEM_DS3505
ZBAA,2001-10-20 07:00,ZBAA 200700Z AUTO 15006KT 2SM 22/11 A3015 RMK T02200110 IEM_DS3505
ZBAA,2001-10-20 08:00,ZBAA 200800Z AUTO 19006KT 3SM 21/09 A3015 RMK T02100090 IEM_DS3505
ZBAA,2001-10-20 09:00,ZBAA 200900Z AUTO 18004KT 6SM 21/09 A3012 RMK SLP202 T02060091 57006 IEM_DS3505
ZBAA,2001-10-20 10:00,ZBAA 201000Z AUTO 13002KT 3SM 17/11 A3012 RMK T01700110 IEM_DS3505
ZBAA,2001-10-20 11:00,ZBAA 201100Z AUTO 13002KT 2 1/2SM 15/12 A3015 RMK T01500120 IEM_DS3505
ZBAA,2001-10-20 12:00,ZBAA 201200Z AUTO 00000KT 5SM 15/10 A3018 RMK SLP212 T01490103 52010 IEM_DS3505
ZBAA,2001-10-20 13:00,ZBAA 201300Z AUTO 09002KT 1 1/2SM 13/11 A3018 RMK T01300110 IEM_DS3505
ZBAA,2001-10-20 14:00,ZBAA 201400Z AUTO 1 1/4SM 13/12 A3018 RMK T01300120 IEM_DS3505
ZBAA,2001-10-20 15:00,ZBAA 201500Z AUTO 16004KT 4SM 12/10 A3018 RMK SLP215 T01200096 52003 IEM_DS3505
ZBAA,2001-10-20 16:00,ZBAA 201600Z AUTO 08002KT 1SM 12/11 A3018 RMK T01200110 IEM_DS3505
ZBAA,2001-10-20 17:00,ZBAA 201700Z AUTO 1SM 11/10 A3018 RMK T01100100 IEM_DS3505
ZBAA,2001-10-20 18:00,ZBAA 201800Z AUTO 00000KT 3SM 12/10 A3015 RMK SLP210 T01190101 57005 IEM_DS3505
ZBAA,2001-10-20 19:00,ZBAA 201900Z AUTO 1SM 10/10 A3015 RMK T01000100 IEM_DS3505
ZBAA,2001-10-20 20:00,ZBAA 202000Z AUTO 35002KT 1SM 10/10 A3015 RMK T01000100 IEM_DS3505
ZBAA,2001-10-20 21:00,ZBAA 202100Z AUTO 00000KT 1 1/2SM 10/09 A3015 RMK SLP209 T01000092 57001 IEM_DS3505
ZBAA,2001-10-20 22:00,ZBAA 202200Z AUTO 1SM 10/10 A3015 RMK T01000100 IEM_DS3505
ZBAA,2001-10-20 23:00,ZBAA 202300Z AUTO 1SM 10/10 A3015 RMK T01000100 IEM_DS3505
ZBAA,2001-10-21 00:00,ZBAA 210000Z AUTO 00000KT 1SM 10/10 A3018 RMK SLP212 T01030099 52002 IEM_DS3505
ZBAA,2001-10-21 01:00,ZBAA 210100Z AUTO 1SM 13/12 A3018 RMK T01300120 IEM_DS3505
ZBAA,2001-10-21 02:00,ZBAA 210200Z AUTO 1SM 15/12 A3015 RMK T01500120 IEM_DS3505
ZBAA,2001-10-21 03:00,ZBAA 210300Z AUTO 09002KT 1 1/4SM 16/11 A3015 RMK SLP211 T01570112 54000 IEM_DS3505
ZBAA,2001-10-21 04:00,ZBAA 210400Z AUTO 1SM 17/12 A3012 RMK T01700120 IEM_DS3505
ZBAA,2001-10-21 05:00,ZBAA 210500Z AUTO 14004KT 1SM 18/13 A3009 RMK T01800130 IEM_DS3505
ZBAA,2001-10-21 06:00,ZBAA 210600Z AUTO 20004KT 2SM 20/12 A3009 RMK SLP184 T02050117 57027 IEM_DS3505
ZBAA,2001-10-21 07:00,ZBAA 210700Z AUTO 1SM 20/14 A3006 RMK T02000140 IEM_DS3505
ZBAA,2001-10-21 08:00,ZBAA 210800Z AUTO 1SM 20/14 A3006 RMK T02000140 IEM_DS3505
ZBAA,2001-10-21 09:00,ZBAA 210900Z AUTO 20002KT 2 1/2SM 20/12 A3006 RMK SLP179 T01990118 57005 IEM_DS3505
ZBAA,2001-10-21 10:00,ZBAA 211000Z AUTO 12002KT 1SM 16/13 A3009 RMK T01600130 IEM_DS3505
ZBAA,2001-10-21 11:00,ZBAA 211100Z AUTO 09002KT 1SM 15/14 A3009 RMK T01500140 IEM_DS3505
ZBAA,2001-10-21 12:00,ZBAA 211200Z AUTO 00000KT 4SM 16/11 A3009 RMK SLP188 T01580111 52009 IEM_DS3505
ZBAA,2001-10-21 13:00,ZBAA 211300Z AUTO 1SM 13/13 A3009 RMK T01300130 IEM_DS3505
ZBAA,2001-10-21 14:00,ZBAA 211400Z AUTO 1SM 13/12 A3009 RMK T01300120 IEM_DS3505
ZBAA,2001-10-21 15:00,ZBAA 211500Z AUTO 00000KT 1 1/4SM 13/11 A3009 RMK SLP189 T01260109 52001 IEM_DS3505
ZBAA,2001-10-21 16:00,ZBAA 211600Z AUTO 1SM 11/11 A3009 RMK T01100110 IEM_DS3505
ZBAA,2001-10-21 17:00,ZBAA 211700Z AUTO 34002KT 1SM 11/11 A3009 RMK T01100110 IEM_DS3505
ZBAA,2001-10-21 18:00,ZBAA 211800Z AUTO 00000KT 1 1/4SM 11/10 A3009 RMK SLP189 T01090101 54000 IEM_DS3505
ZBAA,2001-10-21 19:00,ZBAA 211900Z AUTO 35002KT 1/2SM 11/11 A3009 RMK T01100110 IEM_DS3505
ZBAA,2001-10-21 20:00,ZBAA 212000Z AUTO 34004KT 3/8SM 09/09 A3009 RMK T00900090 IEM_DS3505
ZBAA,2001-10-21 21:00,ZBAA 212100Z AUTO 00000KT 1SM 10/10 A3009 RMK SLP191 T01030101 52002 IEM_DS3505
ZBAA,2001-10-21 22:00,ZBAA 212200Z AUTO 35004KT 3/8SM 10/10 A3012 RMK T01000100 IEM_DS3505
ZBAA,2001-10-21 23:00,ZBAA 212300Z AUTO 34004KT 1SM 10/10 A3012 RMK T01000100 IEM_DS3505
ZBAA,2001-10-22 00:00,ZBAA 220000Z AUTO 22002KT 1/2SM 10/10 A3015 RMK SLP209 T01040102 52017 IEM_DS3505
ZBAA,2001-10-22 01:00,ZBAA 220100Z AUTO 35004KT 1SM 14/12 A3015 RMK T01400120 IEM_DS3505
ZBAA,2001-10-22 02:00,ZBAA 220200Z AUTO 02002KT 1SM 16/13 A3015 RMK T01600130 IEM_DS3505
ZBAA,2001-10-22 03:00,ZBAA 220300Z AUTO 22004KT 2SM 19/13 A3015 RMK SLP211 T01860127 52003 IEM_DS3505
ZBAA,2001-10-22 04:00,ZBAA 220400Z AUTO 1 1/2SM 21/13 A3015 RMK T02100130 IEM_DS3505
ZBAA,2001-10-22 05:00,ZBAA 220500Z AUTO 06002KT 2 1/2SM 24/12 A3012 RMK T02400120 IEM_DS3505
ZBAA,2001-10-22 06:00,ZBAA 220600Z AUTO 18004KT 2 1/2SM 23/11 A3009 RMK SLP194 T02310111 57017 IEM_DS3505
ZBAA,2001-10-22 07:00,ZBAA 220700Z AUTO 19006KT 2SM 23/12 A3009 RMK T02300120 IEM_DS3505
ZBAA,2001-10-22 08:00,ZBAA 220800Z AUTO 22004KT 2SM 23/11 A3009 RMK T02300110 IEM_DS3505
ZBAA,2001-10-22 09:00,ZBAA 220900Z AUTO 00000KT 3SM 21/11 A3009 RMK SLP192 T02100110 57002 IEM_DS3505
ZBAA,2001-10-22 10:00,ZBAA 221000Z AUTO 14002KT 1 1/4SM 18/13 A3012 RMK T01800130 IEM_DS3505
ZBAA,2001-10-22 11:00,ZBAA 221100Z AUTO 1 1/4SM 16/13 A3012 RMK T01600130 IEM_DS3505
ZBAA,2001-10-22 12:00,ZBAA 221200Z AUTO 00000KT 2 1/2SM 15/13 A3015 RMK SLP202 T01500126 52009 IEM_DS3505
ZBAA,2001-10-22 13:00,ZBAA 221300Z AUTO 1SM 14/13 A3015 RMK T01400130 IEM_DS3505
ZBAA,2001-10-22 14:00,ZBAA 221400Z AUTO 09002KT 1SM 13/12 A3015 RMK T01300120 IEM_DS3505
ZBAA,2001-10-22 15:00,ZBAA 221500Z AUTO 00000KT 1 1/4SM 13/12 A3015 RMK SLP207 T01340121 52006 IEM_DS3505
ZBAA,2001-10-22 16:00,ZBAA 221600Z AUTO 1SM 13/12 A3015 RMK T01300120 IEM_DS3505
ZBAA,2001-10-22 17:00,ZBAA 221700Z AUTO 1SM 12/12 A3015 RMK T01200120 IEM_DS3505
ZBAA,2001-10-22 18:00,ZBAA 221800Z AUTO 09002KT 3SM 12/11 A3015 RMK SLP206 T01210113 57001 IEM_DS3505
ZBAA,2001-10-22 19:00,ZBAA 221900Z AUTO 1 1/2SM 12/09 A3015 RMK T01200090 IEM_DS3505
ZBAA,2001-10-22 20:00,ZBAA 222000Z AUTO 35004KT 1 1/2SM 11/09 A3015 RMK T01100090 IEM_DS3505
ZBAA,2001-10-22 21:00,ZBAA 222100Z AUTO 00000KT 2 1/2SM 11/10 A3015 RMK SLP206 T01060102 54000 IEM_DS3505
ZBAA,2001-10-22 22:00,ZBAA 222200Z AUTO 1 1/2SM 11/09 A3015 RMK T01100090 IEM_DS3505
ZBAA,2001-10-22 23:00,ZBAA 222300Z AUTO 1SM 11/10 A3015 RMK T01100100 IEM_DS3505
ZBAA,2001-10-23 00:00,ZBAA 230000Z AUTO 04004KT 1SM 12/11 A3018 RMK SLP216 T01160106 52009 IEM_DS3505
ZBAA,2001-10-23 01:00,ZBAA 230100Z AUTO 12002KT 2SM 13/11 A3018 RMK T01300110 IEM_DS3505
ZBAA,2001-10-23 02:00,ZBAA 230200Z AUTO 12004KT 2 1/2SM 14/12 A3018 RMK T01400120 IEM_DS3505
ZBAA,2001-10-23 03:00,ZBAA 230300Z AUTO 07006KT 1SM 15/12 A3018 RMK SLP216 T01480116 52001 IEM_DS3505
ZBAA,2001-10-23 04:00,ZBAA 230400Z AUTO 2 1/2SM 17/13 A3015 RMK T01700130 IEM_DS3505
ZBAA,2001-10-23 05:00,ZBAA 230500Z AUTO 2SM 18/13 A3012 RMK T01800130 IEM_DS3505
ZBAA,2001-10-23 06:00,ZBAA 230600Z AUTO 02004KT 2 1/2SM 18/13 A3012 RMK SLP193 T01800128 57023 IEM_DS3505
ZBAA,2001-10-23 07:00,ZBAA 230700Z AUTO 10002KT 2SM 19/14 A3009 RMK T01900140 IEM_DS3505
ZBAA,2001-10-23 08:00,ZBAA 230800Z AUTO 2SM 19/14 A3009 RMK T01900140 IEM_DS3505
ZBAA,2001-10-23 09:00,ZBAA 230900Z AUTO 34004KT 2SM 18/13 A3009 RMK SLP184 T01800134 57009 IEM_DS3505
ZBAA,2001-10-23 10:00,ZBAA 231000Z AUTO 36004KT 1 1/4SM 16/14 A3009 RMK T01600140 IEM_DS3505
ZBAA,2001-10-23 11:00,ZBAA 231100Z AUTO 32002KT 1 1/4SM 16/14 A3009 RMK T01600140 IEM_DS3505
ZBAA,2001-10-23 12:00,ZBAA 231200Z AUTO 02004KT 2SM 15/13 A3012 RMK SLP192 T01500128 52008 IEM_DS3505
ZBAA,2001-10-23 13:00,ZBAA 231300Z AUTO 1 1/4SM 14/13 A3012 RMK T01400130 IEM_DS3505
ZBAA,2001-10-23 14:00,ZBAA 231400Z AUTO 1SM 14/13 A3012 RMK T01400130 IEM_DS3505
ZBAA,2001-10-23 15:00,ZBAA 231500Z AUTO 02004KT 2SM 14/12 A3012 RMK SLP196 T01360121 52004 IEM_DS3505
ZBAA,2001-10-23 16:00,ZBAA 231600Z AUTO 33002KT 1SM 13/12 A3012 RMK T01300120 IEM_DS3505
ZBAA,2001-10-23 17:00,ZBAA 231700Z AUTO 35004KT 1SM 13/12 A3012 RMK T01300120 IEM_DS3505
ZBAA,2001-10-23 18:00,ZBAA 231800Z AUTO 34004KT 1SM 12/12 A3012 RMK T01200120 IEM_DS3505
ZBAA,2001-10-23 19:00,ZBAA 231900Z AUTO 1SM 12/12 A3012 RMK T01200120 IEM_DS3505
ZBAA,2001-10-23 20:00,ZBAA 232000Z AUTO 1SM 12/12 A3012 RMK T01200120 IEM_DS3505
ZBAA,2001-10-23 21:00,ZBAA 232100Z AUTO 36002KT 1 1/4SM 14/12 A3012 RMK SLP198 T01360117 54000 IEM_DS3505
ZBAA,2001-10-23 22:00,ZBAA 232200Z AUTO 1SM 12/12 A3015 RMK T01200120 IEM_DS3505
ZBAA,2001-10-23 23:00,ZBAA 232300Z AUTO 1SM 13/12 A3015 RMK T01300120 IEM_DS3505
ZBAA,2001-10-24 00:00,ZBAA 240000Z AUTO 00000KT 1 1/4SM 13/12 A3018 RMK SLP217 T01280115 52019 IEM_DS3505
ZBAA,2001-10-24 01:00,ZBAA 240100Z AUTO 1SM 14/14 A3021 RMK T01400140 IEM_DS3505
ZBAA,2001-10-24 02:00,ZBAA 240200Z AUTO 1SM 15/14 A3021 RMK T01500140 IEM_DS3505
ZBAA,2001-10-24 03:00,ZBAA 240300Z AUTO 07006KT 2 1/2SM 18/12 A3021 RMK SLP223 T01780122 52006 IEM_DS3505
ZBAA,2001-10-24 04:00,ZBAA 240400Z AUTO 10002KT 1SM 17/14 A3021 RMK T01700140 IEM_DS3505
ZBAA,2001-10-24 05:00,ZBAA 240500Z AUTO 10004KT 1SM 18/14 A3018 RMK T01800140 IEM_DS3505
ZBAA,2001-10-24 06:00,ZBAA 240600Z AUTO 08004KT 1 1/2SM 18/13 A3018 RMK T01800130 IEM_DS3505
ZBAA,2001-10-24 07:00,ZBAA 240700Z AUTO 08004KT 2SM 18/13 A3018 RMK T01800130 IEM_DS3505
ZBAA,2001-10-24 08:00,ZBAA 240800Z AUTO 2SM 17/13 A3018 RMK T01700130 IEM_DS3505
ZBAA,2001-10-24 09:00,ZBAA 240900Z AUTO 14004KT 4SM 18/12 A3021 RMK SLP220 T01750119 52003 IEM_DS3505
ZBAA,2001-10-24 10:00,ZBAA 241000Z AUTO 10004KT 17/09 A3021 RMK T01700090 IEM_DS3505
ZBAA,2001-10-24 11:00,ZBAA 241100Z AUTO 11004KT 16/08 A3024 RMK T01600080 IEM_DS3505
ZBAA,2001-10-24 12:00,ZBAA 241200Z AUTO 07004KT 7SM 16/09 A3027 RMK 60003 SLP242 T01590091 52022 IEM_DS3505
ZBAA,2001-10-24 13:00,ZBAA 241300Z AUTO 17004KT 5SM 15/08 A3027 RMK T01500080 IEM_DS3505
ZBAA,2001-10-24 14:00,ZBAA 241400Z AUTO 21004KT 5SM 16/08 A3027 RMK T01600080 IEM_DS3505
ZBAA,2001-10-24 15:00,ZBAA 241500Z AUTO 00000KT 9SM 15/09 A3027 RMK SLP248 T01490088 52006 IEM_DS3505
ZBAA,2001-10-24 16:00,ZBAA 241600Z AUTO 23004KT 15/09 A3027 RMK T01500090 IEM_DS3505
ZBAA,2001-10-24 17:00,ZBAA 241700Z AUTO 02002KT 4SM 14/09 A3027 RMK T01400090 IEM_DS3505
ZBAA,2001-10-24 18:00,ZBAA 241800Z AUTO 36002KT 7SM 14/09 A3027 RMK 60003 SLP246 T01400089 57002 IEM_DS3505
ZBAA,2001-10-24 19:00,ZBAA 241900Z AUTO 4SM 13/10 A3027 RMK T01300100 IEM_DS3505
ZBAA,2001-10-24 20:00,ZBAA 242000Z AUTO 4SM 13/11 A3024 RMK T01300110 IEM_DS3505
ZBAA,2001-10-24 21:00,ZBAA 242100Z AUTO 00000KT 9SM 14/11 A3024 RMK 70003 SLP242 T01410107 57004 IEM_DS3505
ZBAA,2001-10-24 22:00,ZBAA 242200Z AUTO 33002KT 3SM 13/10 A3024 RMK T01300100 IEM_DS3505
ZBAA,2001-10-24 23:00,ZBAA 242300Z AUTO 33004KT 3SM 13/10 A3024 RMK T01300100 IEM_DS3505
ZBAA,2001-10-25 00:00,ZBAA 250000Z AUTO 22004KT 6SM 14/08 A3027 RMK 70003 SLP247 T01400077 52005 IEM_DS3505
ZBAA,2001-10-25 01:00,ZBAA 250100Z AUTO 2 1/2SM 14/11 A3030 RMK T01400110 IEM_DS3505
ZBAA,2001-10-25 02:00,ZBAA 250200Z AUTO 12002KT 2SM 15/12 A3030 RMK T01500120 IEM_DS3505
ZBAA,2001-10-25 03:00,ZBAA 250300Z AUTO 00000KT 7SM 14/07 A3027 RMK SLP256 T01430074 52008 IEM_DS3505
ZBAA,2001-10-25 04:00,ZBAA 250400Z AUTO 20004KT 2 1/2SM 16/10 A3027 RMK T01600100 IEM_DS3505
ZBAA,2001-10-25 05:00,ZBAA 250500Z AUTO 2 1/2SM 16/09 A3024 RMK T01600090 IEM_DS3505
ZBAA,2001-10-25 06:00,ZBAA 250600Z AUTO 00000KT 7SM 16/07 A3021 RMK SLP235 T01580071 57020 IEM_DS3505
ZBAA,2001-10-25 07:00,ZBAA 250700Z AUTO 19002KT 2 1/2SM 17/09 A3021 RMK T01700090 IEM_DS3505
ZBAA,2001-10-25 08:00,ZBAA 250800Z AUTO 19004KT 3SM 17/09 A3021 RMK T01700090 IEM_DS3505
ZBAA,2001-10-25 09:00,ZBAA 250900Z AUTO 20002KT 6SM 15/08 A3021 RMK SLP229 T01540085 57006 IEM_DS3505
ZBAA,2001-10-25 10:00,ZBAA 251000Z AUTO 19006KT 2 1/2SM 15/08 A3021 RMK T01500080 IEM_DS3505
ZBAA,2001-10-25 11:00,ZBAA 251100Z AUTO 21002KT 2 1/2SM 15/08 A3024 RMK T01500080 IEM_DS3505
ZBAA,2001-10-25 12:00,ZBAA 251200Z AUTO 00000KT 4SM 11/09 A3024 RMK SLP237 T01130087 52007 IEM_DS3505
ZBAA,2001-10-25 13:00,ZBAA 251300Z AUTO 2SM 11/09 A3027 RMK T01100090 IEM_DS3505
ZBAA,2001-10-25 14:00,ZBAA 251400Z AUTO 1 1/4SM 10/09 A3027 RMK T01000090 IEM_DS3505
ZBAA,2001-10-25 15:00,ZBAA 251500Z AUTO 00000KT 2 1/2SM 10/08 A3027 RMK SLP240 T01010085 52003 IEM_DS3505
ZBAA,2001-10-25 16:00,ZBAA 251600Z AUTO 1 1/4SM 10/09 A3024 RMK T01000090 IEM_DS3505
ZBAA,2001-10-25 17:00,ZBAA 251700Z AUTO 1 1/4SM 10/10 A3024 RMK T01000100 IEM_DS3505
ZBAA,2001-10-25 18:00,ZBAA 251800Z AUTO 00000KT 2 1/2SM 12/10 A3024 RMK SLP239 T01200098 57001 IEM_DS3505
ZBAA,2001-10-25 19:00,ZBAA 251900Z AUTO 02002KT 1SM 11/10 A3024 RMK T01100100 IEM_DS3505
ZBAA,2001-10-25 20:00,ZBAA 252000Z AUTO 33002KT 1 1/4SM 11/10 A3024 RMK T01100100 IEM_DS3505
ZBAA,2001-10-25 21:00,ZBAA 252100Z AUTO 07002KT 4SM 12/09 A3024 RMK SLP242 T01150093 52003 IEM_DS3505
ZBAA,2001-10-25 22:00,ZBAA 252200Z AUTO 34002KT 2SM 11/10 A3024 RMK T01100100 IEM_DS3505
ZBAA,2001-10-25 23:00,ZBAA 252300Z AUTO 30002KT 2SM 12/09 A3027 RMK T01200090 IEM_DS3505
ZBAA,2001-10-26 00:00,ZBAA 260000Z AUTO 04002KT 3SM 12/10 A3027 RMK SLP249 T01240103 52007 IEM_DS3505
ZBAA,2001-10-26 01:00,ZBAA 260100Z AUTO 33004KT 2 1/2SM 13/09 A3030 RMK T01300090 IEM_DS3505
ZBAA,2001-10-26 02:00,ZBAA 260200Z AUTO 34002KT 2 1/2SM 14/10 A3030 RMK T01400100 IEM_DS3505
ZBAA,2001-10-26 03:00,ZBAA 260300Z AUTO 00000KT 4SM 17/09 A3027 RMK SLP252 T01660086 52003 IEM_DS3505
ZBAA,2001-10-26 04:00,ZBAA 260400Z AUTO 2 1/2SM 18/10 A3027 RMK T01800100 IEM_DS3505
ZBAA,2001-10-26 05:00,ZBAA 260500Z AUTO 20004KT 3SM 18/11 A3024 RMK T01800110 IEM_DS3505
ZBAA,2001-10-26 06:00,ZBAA 260600Z AUTO 25006KT 6SM 18/10 A3024 RMK SLP237 T01820104 57014 IEM_DS3505
ZBAA,2001-10-26 07:00,ZBAA 260700Z AUTO 19006KT 3SM 18/11 A3021 RMK T01800110 IEM_DS3505
ZBAA,2001-10-26 08:00,ZBAA 260800Z AUTO 18004KT 2 1/2SM 18/11 A3021 RMK T01800110 IEM_DS3505
ZBAA,2001-10-26 09:00,ZBAA 260900Z AUTO 00000KT 6SM 17/11 A3021 RMK SLP228 T01700109 57009 IEM_DS3505
ZBAA,2001-10-26 10:00,ZBAA 261000Z AUTO 17002KT 2SM 15/12 A3021 RMK T01500120 IEM_DS3505
ZBAA,2001-10-26 11:00,ZBAA 261100Z AUTO 2SM 14/12 A3024 RMK T01400120 IEM_DS3505
ZBAA,2001-10-26 12:00,ZBAA 261200Z AUTO 00000KT 3SM 12/11 A3024 RMK SLP241 T01190107 52012 IEM_DS3505
ZBAA,2001-10-26 13:00,ZBAA 261300Z AUTO 1 1/2SM 12/11 A3024 RMK T01200110 IEM_DS3505
ZBAA,2001-10-26 14:00,ZBAA 261400Z AUTO 1 1/4SM 12/11 A3027 RMK T01200110 IEM_DS3505
ZBAA,2001-10-26 15:00,ZBAA 261500Z AUTO 32004KT 4SM 14/11 A3027 RMK SLP241 T01380112 52001 IEM_DS3505
ZBAA,2001-10-26 16:00,ZBAA 261600Z AUTO 1 1/2SM 13/12 A3024 RMK T01300120 IEM_DS3505
ZBAA,2001-10-26 17:00,ZBAA 261700Z AUTO 1 1/2SM 13/12 A3024 RMK T01300120 IEM_DS3505
ZBAA,2001-10-26 18:00,ZBAA 261800Z AUTO 00000KT 4SM 13/11 A3021 RMK SLP232 T01340111 57009 IEM_DS3505
ZBAA,2001-10-26 19:00,ZBAA 261900Z AUTO 11002KT 1 1/2SM 13/12 A3021 RMK T01300120 IEM_DS3505
ZBAA,2001-10-26 20:00,ZBAA 262000Z AUTO 14004KT 1 1/2SM 13/12 A3018 RMK T01300120 IEM_DS3505
ZBAA,2001-10-26 21:00,ZBAA 262100Z AUTO 14004KT 1 1/2SM 12/12 A3015 RMK T01200120 IEM_DS3505
ZBAA,2001-10-27 00:00,ZBAA 270000Z AUTO 16002KT 1/4SM 12/12 A3015 RMK SLP209 T01240122 57007 IEM_DS3505
ZBAA,2001-10-27 01:00,ZBAA 270100Z AUTO 14002KT 1SM 13/12 A3015 RMK T01300120 IEM_DS3505
ZBAA,2001-10-27 02:00,ZBAA 270200Z AUTO 14004KT 3/8SM 13/13 A3012 RMK T01300130 IEM_DS3505
ZBAA,2001-10-27 03:00,ZBAA 270300Z AUTO 18002KT 1/2SM 13/13 A3012 RMK SLP196 T01310129 57012 IEM_DS3505
ZBAA,2001-10-27 04:00,ZBAA 270400Z AUTO 09004KT 1SM 13/13 A3009 RMK T01300130 IEM_DS3505
ZBAA,2001-10-27 05:00,ZBAA 270500Z AUTO 1/2SM 13/13 A3006 RMK T01300130 IEM_DS3505
ZBAA,2001-10-27 06:00,ZBAA 270600Z AUTO 00000KT 1 1/4SM 14/13 A3006 RMK 60003 SLP177 T01380127 57019 IEM_DS3505
ZBAA,2001-10-27 07:00,ZBAA 270700Z AUTO 28006KT 3/8SM 13/13 A3006 RMK T01300130 IEM_DS3505
ZBAA,2001-10-27 08:00,ZBAA 270800Z AUTO 29004KT 3/8SM 13/13 A3006 RMK T01300130 IEM_DS3505
ZBAA,2001-10-27 09:00,ZBAA 270900Z AUTO 00000KT 1SM 14/13 A3003 RMK SLP176 T01360127 57001 IEM_DS3505
ZBAA,2001-10-27 10:00,ZBAA 271000Z AUTO 1SM 13/13 A3006 RMK T01300130 IEM_DS3505
ZBAA,2001-10-27 11:00,ZBAA 271100Z AUTO 28006KT 1SM 13/12 A3006 RMK T01300120 IEM_DS3505
ZBAA,2001-10-27 12:00,ZBAA 271200Z AUTO 29006KT 1SM 12/12 A3006 RMK 60024 SLP182 T01250121 52005 IEM_DS3505
ZBAA,2001-10-27 13:00,ZBAA 271300Z AUTO 01004KT 1SM 12/12 A3009 RMK T01200120 IEM_DS3505
ZBAA,2001-10-27 14:00,ZBAA 271400Z AUTO 35004KT 1 1/2SM 11/11 A3009 RMK T01100110 IEM_DS3505
ZBAA,2001-10-27 15:00,ZBAA 271500Z AUTO 34008KT 11SM 14/05 A3012 RMK SLP194 T01440047 52013 IEM_DS3505
ZBAA,2001-10-27 16:00,ZBAA 271600Z AUTO 35010KT 6SM 12/09 A3015 RMK T01200090 IEM_DS3505
ZBAA,2001-10-27 17:00,ZBAA 271700Z AUTO 35006KT 6SM 11/07 A3015 RMK T01100070 IEM_DS3505
ZBAA,2001-10-27 18:00,ZBAA 271800Z AUTO 36006KT 19SM 14/03 A3018 RMK SLP213 T01350032 52019 IEM_DS3505
ZBAA,2001-10-27 19:00,ZBAA 271900Z AUTO 35004KT 6SM 12/06 A3018 RMK T01200060 IEM_DS3505
ZBAA,2001-10-27 20:00,ZBAA 272000Z AUTO 35004KT 6SM 10/05 A3021 RMK T01000050 IEM_DS3505
ZBAA,2001-10-27 21:00,ZBAA 272100Z AUTO 36006KT 12SM 13/01 A3021 RMK 70022 SLP230 T01260009 52016 IEM_DS3505
ZBAA,2001-10-27 22:00,ZBAA 272200Z AUTO 32010KT 6SM 12/02 A3024 RMK T01200020 IEM_DS3505
ZBAA,2001-10-27 23:00,ZBAA 272300Z AUTO 31008KT 6SM 11/01 A3027 RMK T01100010 IEM_DS3505
ZBAA,2001-10-28 00:00,ZBAA 280000Z AUTO 34006KT 16SM 14/00 A3027 RMK 70022 SLP249 T01360002 52019 IEM_DS3505
ZBAA,2001-10-28 01:00,ZBAA 280100Z AUTO 36006KT 6SM 15/00 A3030 RMK T01500000 IEM_DS3505
ZBAA,2001-10-28 02:00,ZBAA 280200Z AUTO 03006KT 6SM 16/00 A3030 RMK T01600000 IEM_DS3505
ZBAA,2001-10-28 03:00,ZBAA 280300Z AUTO 04010G17KT 19SM 16/M07 A3030 RMK SLP255 T01631068 52007 IEM_DS3505
ZBAA,2001-10-28 04:00,ZBAA 280400Z AUTO 05008KT 6SM 17/M03 A3027 RMK T01701030 IEM_DS3505
ZBAA,2001-10-28 05:00,ZBAA 280500Z AUTO 05006KT 6SM 18/M04 A3027 RMK T01801040 IEM_DS3505
ZBAA,2001-10-28 06:00,ZBAA 280600Z AUTO 09006KT 19SM 18/M06 A3024 RMK SLP241 T01781056 57014 IEM_DS3505
ZBAA,2001-10-28 07:00,ZBAA 280700Z AUTO 6SM 19/M04 A3024 RMK T01901040 IEM_DS3505
ZBAA,2001-10-28 08:00,ZBAA 280800Z AUTO 12004KT 6SM 18/M03 A3024 RMK T01801030 IEM_DS3505
ZBAA,2001-10-28 09:00,ZBAA 280900Z AUTO 14002KT 19SM 17/M01 A3027 RMK SLP241 T01661011 54000 IEM_DS3505
ZBAA,2001-10-28 10:00,ZBAA 281000Z AUTO 15002KT 6SM 14/00 A3027 RMK T01400000 IEM_DS3505
ZBAA,2001-10-28 11:00,ZBAA 281100Z AUTO 15004KT 6SM 11/02 A3030 RMK T01100020 IEM_DS3505
ZBAA,2001-10-28 12:00,ZBAA 281200Z AUTO 20002KT 19SM 12/02 A3030 RMK SLP257 T01210018 52015 IEM_DS3505
ZBAA,2001-10-28 13:00,ZBAA 281300Z AUTO 10002KT 6SM 08/05 A3033 RMK T00800050 IEM_DS3505
ZBAA,2001-10-28 14:00,ZBAA 281400Z AUTO 09002KT 5SM 07/05 A3033 RMK T00700050 IEM_DS3505
ZBAA,2001-10-28 15:00,ZBAA 281500Z AUTO 00000KT 19SM 09/03 A3033 RMK SLP267 T00900026 52010 IEM_DS3505
ZBAA,2001-10-28 16:00,ZBAA 281600Z AUTO 12002KT 4SM 06/04 A3033 RMK T00600040 IEM_DS3505
ZBAA,2001-10-28 17:00,ZBAA 281700Z AUTO 11004KT 4SM 07/04 A3033 RMK T00700040 IEM_DS3505
ZBAA,2001-10-28 18:00,ZBAA 281800Z AUTO 00000KT 12SM 06/03 A3033 RMK SLP265 T00610032 57002 IEM_DS3505
ZBAA,2001-10-28 19:00,ZBAA 281900Z AUTO 03002KT 4SM 05/04 A3030 RMK T00500040 IEM_DS3505
ZBAA,2001-10-28 20:00,ZBAA 282000Z AUTO 4SM 05/04 A3030 RMK T00500040 IEM_DS3505
ZBAA,2001-10-28 21:00,ZBAA 282100Z AUTO 00000KT 6SM 05/03 A3030 RMK SLP254 T00480033 57011 IEM_DS3505
ZBAA,2001-10-28 22:00,ZBAA 282200Z AUTO 35002KT 4SM 04/03 A3030 RMK T00400030 IEM_DS3505
ZBAA,2001-10-28 23:00,ZBAA 282300Z AUTO 34002KT 4SM 04/03 A3027 RMK T00400030 IEM_DS3505
ZBAA,2001-10-29 00:00,ZBAA 290000Z AUTO 00000KT 2 1/2SM 06/04 A3030 RMK SLP256 T00610040 52002 IEM_DS3505
ZBAA,2001-10-29 01:00,ZBAA 290100Z AUTO 34004KT 6SM 09/05 A3030 RMK T00900050 IEM_DS3505
ZBAA,2001-10-29 02:00,ZBAA 290200Z AUTO 01002KT 6SM 11/04 A3030 RMK T01100040 IEM_DS3505
ZBAA,2001-10-29 03:00,ZBAA 290300Z AUTO 11004KT 7SM 14/04 A3027 RMK SLP250 T01400039 57006 IEM_DS3505
ZBAA,2001-10-29 04:00,ZBAA 290400Z AUTO 19002KT 6SM 16/04 A3024 RMK T01600040 IEM_DS3505
ZBAA,2001-10-29 05:00,ZBAA 290500Z AUTO 14002KT 6SM 16/03 A3021 RMK T01600030 IEM_DS3505
ZBAA,2001-10-29 06:00,ZBAA 290600Z AUTO 22006KT 6SM 18/05 A3018 RMK SLP217 T01750047 57033 IEM_DS3505
ZBAA,2001-10-29 07:00,ZBAA 290700Z AUTO 18006KT 6SM 18/04 A3015 RMK T01800040 IEM_DS3505
ZBAA,2001-10-29 08:00,ZBAA 290800Z AUTO 17004KT 6SM 17/05 A3015 RMK T01700050 IEM_DS3505
ZBAA,2001-10-29 09:00,ZBAA 290900Z AUTO 20002KT 4SM 17/06 A3012 RMK SLP204 T01660064 57013 IEM_DS3505
ZBAA,2001-10-29 10:00,ZBAA 291000Z AUTO 13/07 A3015 RMK T01300070 IEM_DS3505
ZBAA,2001-10-29 11:00,ZBAA 291100Z AUTO 3SM 12/08 A3015 RMK T01200080 IEM_DS3505
ZBAA,2001-10-29 12:00,ZBAA 291200Z AUTO 14002KT 4SM 11/06 A3015 RMK SLP206 T01120061 52002 IEM_DS3505
ZBAA,2001-10-29 13:00,ZBAA 291300Z AUTO 2 1/2SM 09/07 A3012 RMK T00900070 IEM_DS3505
ZBAA,2001-10-29 14:00,ZBAA 291400Z AUTO 2SM 08/07 A3012 RMK T00800070 IEM_DS3505
ZBAA,2001-10-29 15:00,ZBAA 291500Z AUTO 00000KT 3SM 09/05 A3012 RMK SLP202 T00940049 57004 IEM_DS3505
ZBAA,2001-10-29 16:00,ZBAA 291600Z AUTO 12002KT 1 1/2SM 08/06 A3012 RMK T00800060 IEM_DS3505
ZBAA,2001-10-29 17:00,ZBAA 291700Z AUTO 1 1/2SM 07/06 A3012 RMK T00700060 IEM_DS3505
ZBAA,2001-10-29 18:00,ZBAA 291800Z AUTO 00000KT 6SM 08/04 RMK SLP197 T00750040 57005 IEM_DS3505
ZBAA,2001-10-29 19:00,ZBAA 291900Z AUTO 1 1/4SM 05/05 A3009 RMK T00500050 IEM_DS3505
ZBAA,2001-10-29 20:00,ZBAA 292000Z AUTO 1 1/4SM 04/04 A3009 RMK T00400040 IEM_DS3505
ZBAA,2001-10-29 21:00,ZBAA 292100Z AUTO 00000KT 2 1/2SM 04/03 A3009 RMK SLP190 T00430033 57007 IEM_DS3505
ZBAA,2001-10-29 22:00,ZBAA 292200Z AUTO 1 1/4SM 05/05 A3009 RMK T00500050 IEM_DS3505
ZBAA,2001-10-29 23:00,ZBAA 292300Z AUTO 1 1/4SM 04/04 A3009 RMK T00400040 IEM_DS3505
ZBAA,2001-10-30 00:00,ZBAA 300000Z AUTO 07002KT 3SM 06/04 A3012 RMK SLP194 T00590035 52004 IEM_DS3505
ZBAA,2001-10-30 01:00,ZBAA 300100Z AUTO 13002KT 2 1/2SM 08/05 A3012 RMK T00800050 IEM_DS3505
ZBAA,2001-10-30 02:00,ZBAA 300200Z AUTO 3SM 09/06 A3012 RMK T00900060 IEM_DS3505
ZBAA,2001-10-30 03:00,ZBAA 300300Z AUTO 18002KT 6SM 12/03 A3009 RMK SLP192 T01150033 57002 IEM_DS3505
ZBAA,2001-10-30 04:00,ZBAA 300400Z AUTO 13002KT 13/05 A3006 RMK T01300050 IEM_DS3505
ZBAA,2001-10-30 05:00,ZBAA 300500Z AUTO 15004KT 14/06 A3003 RMK T01400060 IEM_DS3505
ZBAA,2001-10-30 06:00,ZBAA 300600Z AUTO 18006KT 6SM 15/05 A3000 RMK SLP166 T01490046 57026 IEM_DS3505
ZBAA,2001-10-30 07:00,ZBAA 300700Z AUTO 15002KT 15/06 A3000 RMK T01500060 IEM_DS3505
ZBAA,2001-10-30 08:00,ZBAA 300800Z AUTO 19002KT 15/06 A3000 RMK T01500060 IEM_DS3505
ZBAA,2001-10-30 09:00,ZBAA 300900Z AUTO 22002KT 5SM 15/07 A3000 RMK SLP162 T01460066 57004 IEM_DS3505
ZBAA,2001-10-30 10:00,ZBAA 301000Z AUTO 3SM 13/07 A3000 RMK T01300070 IEM_DS3505
ZBAA,2001-10-30 11:00,ZBAA 301100Z AUTO 36004KT 3SM 12/08 A3003 RMK T01200080 IEM_DS3505
ZBAA,2001-10-30 12:00,ZBAA 301200Z AUTO 00000KT 4SM 12/08 A3003 RMK SLP168 T01200077 52006 IEM_DS3505
ZBAA,2001-10-30 13:00,ZBAA 301300Z AUTO 2 1/2SM 12/08 A3003 RMK T01200080 IEM_DS3505
ZBAA,2001-10-30 14:00,ZBAA 301400Z AUTO 2SM 11/08 A3003 RMK T01100080 IEM_DS3505
ZBAA,2001-10-30 15:00,ZBAA 301500Z AUTO 34004KT 4SM 12/07 A3006 RMK SLP175 T01170071 52007 IEM_DS3505
ZBAA,2001-10-30 16:00,ZBAA 301600Z AUTO 2 1/2SM 11/08 A3006 RMK T01100080 IEM_DS3505
ZBAA,2001-10-30 17:00,ZBAA 301700Z AUTO 2SM 10/08 A3003 RMK T01000080 IEM_DS3505
ZBAA,2001-10-30 18:00,ZBAA 301800Z AUTO 36002KT 4SM 12/06 A3003 RMK SLP173 T01180063 57001 IEM_DS3505
ZBAA,2001-10-30 19:00,ZBAA 301900Z AUTO 26002KT 1 1/2SM 10/08 A3003 RMK T01000080 IEM_DS3505
ZBAA,2001-10-30 20:00,ZBAA 302000Z AUTO 1 1/2SM 11/08 A3003 RMK T01100080 IEM_DS3505
ZBAA,2001-10-30 21:00,ZBAA 302100Z AUTO 00000KT 1 1/4SM 10/08 A3003 RMK SLP172 T01020077 57001 IEM_DS3505
ZBAA,2001-10-30 22:00,ZBAA 302200Z AUTO 32002KT 1 1/4SM 10/07 A3006 RMK T01000070 IEM_DS3505
ZBAA,2001-10-30 23:00,ZBAA 302300Z AUTO 35006KT 1 1/4SM 08/07 A3009 RMK T00800070 IEM_DS3505
ZBAA,2001-10-31 00:00,ZBAA 310000Z AUTO 34006KT 3SM 13/05 A3012 RMK SLP192 T01310054 52019 IEM_DS3505
ZBAA,2001-10-31 01:00,ZBAA 310100Z AUTO 33010KT 6SM 14/04 A3012 RMK T01400040 IEM_DS3505
ZBAA,2001-10-31 02:00,ZBAA 310200Z AUTO 29008KT 6SM 15/04 A3012 RMK T01500040 IEM_DS3505
ZBAA,2001-10-31 03:00,ZBAA 310300Z AUTO 32012KT 12SM 17/M01 A3012 RMK SLP200 T01691013 52009 IEM_DS3505
ZBAA,2001-10-31 04:00,ZBAA 310400Z AUTO 32014KT 6SM 17/M02 A3015 RMK T01701020 IEM_DS3505
ZBAA,2001-10-31 05:00,ZBAA 310500Z AUTO 33014KT 6SM 17/M07 A3012 RMK T01701070 IEM_DS3505
ZBAA,2001-10-31 06:00,ZBAA 310600Z AUTO 32017KT 19SM 16/M13 A3015 RMK SLP207 T01641129 52007 IEM_DS3505
ZBAA,2001-10-31 08:00,ZBAA 310800Z AUTO 33019G29KT 6SM 14/M13 A3018 RMK T01401130 IEM_DS3505
ZBAA,2001-10-31 09:00,ZBAA 310900Z AUTO 32010G25KT 19SM 13/M12 A3021 RMK SLP227 T01341118 52019 IEM_DS3505
ZBAA,2001-10-31 10:00,ZBAA 311000Z AUTO 32019G31KT 6SM 11/M12 A3024 RMK T01101120 IEM_DS3505
ZBAA,2001-10-31 11:00,ZBAA 311100Z AUTO 34014KT 6SM 11/M12 A3027 RMK T01101120 IEM_DS3505
ZBAA,2001-10-31 12:00,ZBAA 311200Z AUTO 34008G31KT 19SM 11/M13 A3030 RMK SLP257 T01061132 52030 IEM_DS3505
ZBAA,2001-10-31 13:00,ZBAA 311300Z AUTO 32016KT 6SM 09/M13 A3033 RMK T00901130 IEM_DS3505
ZBAA,2001-10-31 14:00,ZBAA 311400Z AUTO 32019KT 6SM 08/M13 A3036 RMK T00801130 IEM_DS3505
ZBAA,2001-10-31 15:00,ZBAA 311500Z AUTO 36010KT 19SM 09/M14 A3039 RMK SLP284 T00871145 52027 IEM_DS3505
ZBAA,2001-10-31 16:00,ZBAA 311600Z AUTO 32010KT 6SM 07/M12 A3039 RMK T00701120 IEM_DS3505
ZBAA,2001-10-31 17:00,ZBAA 311700Z AUTO 34008KT 6SM 06/M10 A3042 RMK T00601100 IEM_DS3505
ZBAA,2001-10-31 18:00,ZBAA 311800Z AUTO 04006KT 19SM 07/M12 A3045 RMK SLP299 T00661123 52015 IEM_DS3505
ZBAA,2001-10-31 19:00,ZBAA 311900Z AUTO 01002KT 6SM 04/M08 A3045 RMK T00401080 IEM_DS3505
ZBAA,2001-10-31 20:00,ZBAA 312000Z AUTO 35004KT 6SM 02/M08 A3045 RMK T00201080 IEM_DS3505
ZBAA,2001-10-31 21:00,ZBAA 312100Z AUTO 02004KT 19SM 04/M08 A3045 RMK SLP302 T00401085 52002 IEM_DS3505
ZBAA,2001-10-31 22:00,ZBAA 312200Z AUTO 35006KT 6SM 00/M07 A3045 RMK T00001070 IEM_DS3505
ZBAA,2001-10-31 23:00,ZBAA 312300Z AUTO 35002KT 6SM 01/M08 A3045 RMK T00101080 IEM_DS3505
ZBAA,2001-11-01 00:00,ZBAA 010000Z AUTO 07002KT 12SM 05/M08 A3047 RMK SLP312 T00461079 52010 IEM_DS3505
ZBAA,2001-11-01 01:00,ZBAA 010100Z AUTO 6SM 06/M08 A3047 RMK T00601080 IEM_DS3505
ZBAA,2001-11-01 02:00,ZBAA 010200Z AUTO 6SM 08/M08 A3047 RMK T00801080 IEM_DS3505
ZBAA,2001-11-01 03:00,ZBAA 010300Z AUTO 00000KT 12SM 10/M07 A3045 RMK SLP308 T01031073 57003 IEM_DS3505
ZBAA,2001-11-01 04:00,ZBAA 010400Z AUTO 6SM 11/M11 A3042 RMK T01101110 IEM_DS3505
ZBAA,2001-11-01 05:00,ZBAA 010500Z AUTO 19006KT 6SM 12/M09 A3039 RMK T01201090 IEM_DS3505
ZBAA,2001-11-01 06:00,ZBAA 010600Z AUTO 22010KT 19SM 12/M09 A3033 RMK SLP278 T01191090 57030 IEM_DS3505
ZBAA,2001-11-01 07:00,ZBAA 010700Z AUTO 22008KT 6SM 12/M10 A3033 RMK T01201100 IEM_DS3505
ZBAA,2001-11-01 08:00,ZBAA 010800Z AUTO 20008KT 6SM 11/M07 A3030 RMK T01101070 IEM_DS3505
ZBAA,2001-11-01 09:00,ZBAA 010900Z AUTO 22006KT 12SM 10/M08 A3030 RMK SLP262 T00991080 57017 IEM_DS3505
ZBAA,2001-11-01 10:00,ZBAA 011000Z AUTO 20004KT 6SM 08/M07 A3030 RMK T00801070 IEM_DS3505
ZBAA,2001-11-01 11:00,ZBAA 011100Z AUTO 17002KT 6SM 07/M05 A3030 RMK T00701050 IEM_DS3505
ZBAA,2001-11-01 12:00,ZBAA 011200Z AUTO 14004KT 6SM 05/M04 A3033 RMK SLP265 T00461044 52003 IEM_DS3505
ZBAA,2001-11-01 13:00,ZBAA 011300Z AUTO 6SM 04/M02 A3030 RMK T00401020 IEM_DS3505
ZBAA,2001-11-01 14:00,ZBAA 011400Z AUTO 5SM 03/M01 A3030 RMK T00301010 IEM_DS3505
ZBAA,2001-11-01 15:00,ZBAA 011500Z AUTO 00000KT 6SM 04/M04 A3030 RMK SLP258 T00401037 57007 IEM_DS3505
ZBAA,2001-11-01 16:00,ZBAA 011600Z AUTO 5SM 03/M01 A3030 RMK T00301010 IEM_DS3505
ZBAA,2001-11-01 17:00,ZBAA 011700Z AUTO 5SM 03/M02 A3027 RMK T00301020 IEM_DS3505
ZBAA,2001-11-01 18:00,ZBAA 011800Z AUTO 00000KT 6SM 04/M02 A3027 RMK SLP249 T00401023 57008 IEM_DS3505
ZBAA,2001-11-01 19:00,ZBAA 011900Z AUTO 5SM 03/M01 A3027 RMK T00301010 IEM_DS3505
ZBAA,2001-11-01 20:00,ZBAA 012000Z AUTO 4SM 04/M01 A3027 RMK T00401010 IEM_DS3505
ZBAA,2001-11-01 21:00,ZBAA 012100Z AUTO 00000KT 6SM 04/M02 A3024 RMK SLP240 T00411015 57010 IEM_DS3505
ZBAA,2001-11-01 22:00,ZBAA 012200Z AUTO 4SM 04/M01 A3024 RMK T00401010 IEM_DS3505
ZBAA,2001-11-01 23:00,ZBAA 012300Z AUTO 4SM 04/M01 A3024 RMK T00401010 IEM_DS3505
ZBAA,2001-11-02 00:00,ZBAA 020000Z AUTO 09002KT 5SM 05/M00 A3024 RMK SLP241 T00471001 52001 IEM_DS3505
ZBAA,2001-11-02 01:00,ZBAA 020100Z AUTO 3SM 05/M01 A3027 RMK T00501010 IEM_DS3505
ZBAA,2001-11-02 02:00,ZBAA 020200Z AUTO 3SM 07/M01 A3024 RMK T00701010 IEM_DS3505
ZBAA,2001-11-02 03:00,ZBAA 020300Z AUTO 14002KT 5SM 09/00 A3024 RMK SLP238 T00910003 57003 IEM_DS3505
ZBAA,2001-11-02 04:00,ZBAA 020400Z AUTO 2 1/2SM 09/M01 A3021 RMK T00901010 IEM_DS3505
ZBAA,2001-11-02 05:00,ZBAA 020500Z AUTO 2 1/2SM 10/M02 A3018 RMK T01001020 IEM_DS3505
ZBAA,2001-11-02 06:00,ZBAA 020600Z AUTO 22004KT 6SM 10/M02 A3015 RMK SLP215 T01051024 57022 IEM_DS3505
ZBAA,2001-11-02 07:00,ZBAA 020700Z AUTO 2 1/2SM 10/M04 A3015 RMK T01001040 IEM_DS3505
ZBAA,2001-11-02 08:00,ZBAA 020800Z AUTO 3SM 11/M03 A3015 RMK T01101030 IEM_DS3505
ZBAA,2001-11-02 09:00,ZBAA 020900Z AUTO 18004KT 6SM 10/M01 A3015 RMK SLP213 T00981010 57002 IEM_DS3505
ZBAA,2001-11-02 10:00,ZBAA 021000Z AUTO 2 1/2SM 07/00 A3018 RMK T00700000 IEM_DS3505
ZBAA,2001-11-02 11:00,ZBAA 021100Z AUTO 2SM 06/00 A3021 RMK T00600000 IEM_DS3505
ZBAA,2001-11-02 12:00,ZBAA 021200Z AUTO 00000KT 4SM 05/01 A3021 RMK SLP231 T00520014 52017 IEM_DS3505
ZBAA,2001-11-02 13:00,ZBAA 021300Z AUTO 1 1/2SM 04/01 A3021 RMK T00400010 IEM_DS3505
ZBAA,2001-11-02 14:00,ZBAA 021400Z AUTO 1 1/4SM 05/00 A3024 RMK T00500000 IEM_DS3505
ZBAA,2001-11-02 15:00,ZBAA 021500Z AUTO 00000KT 2 1/2SM 03/01 A3024 RMK SLP235 T00320008 52004 IEM_DS3505
ZBAA,2001-11-02 16:00,ZBAA 021600Z AUTO 1 1/4SM 03/M01 A3024 RMK T00301010 IEM_DS3505
ZBAA,2001-11-02 17:00,ZBAA 021700Z AUTO 1 1/4SM 03/M01 A3024 RMK T00301010 IEM_DS3505
ZBAA,2001-11-02 18:00,ZBAA 021800Z AUTO 07002KT 2SM 02/01 A3024 RMK SLP242 T00210008 52007 IEM_DS3505
ZBAA,2001-11-02 19:00,ZBAA 021900Z AUTO 35002KT 2 1/2SM 03/M01 A3027 RMK T00301010 IEM_DS3505
ZBAA,2001-11-02 20:00,ZBAA 022000Z AUTO 2 1/2SM 01/M01 A3027 RMK T00101010 IEM_DS3505
ZBAA,2001-11-02 21:00,ZBAA 022100Z AUTO 04004KT 6SM 03/M01 A3030 RMK SLP256 T00341011 52014 IEM_DS3505
ZBAA,2001-11-02 22:00,ZBAA 022200Z AUTO 3SM 01/M01 A3033 RMK T00101010 IEM_DS3505
ZBAA,2001-11-02 23:00,ZBAA 022300Z AUTO 2 1/2SM 03/00 A3036 RMK T00300000 IEM_DS3505
ZBAA,2001-11-03 00:00,ZBAA 030000Z AUTO 09004KT 5SM 03/M00 A3042 RMK SLP291 T00331003 52035 IEM_DS3505
ZBAA,2001-11-03 01:00,ZBAA 030100Z AUTO 20004KT 05/M01 A3042 RMK T00501010 IEM_DS3505
ZBAA,2001-11-03 02:00,ZBAA 030200Z AUTO 16002KT 5SM 06/M01 A3042 RMK T00601010 IEM_DS3505
ZBAA,2001-11-03 03:00,ZBAA 030300Z AUTO 09006KT 12SM 07/M04 A3042 RMK SLP299 T00731038 52008 IEM_DS3505
ZBAA,2001-11-03 04:00,ZBAA 030400Z AUTO 6SM 08/M02 A3042 RMK T00801020 IEM_DS3505
ZBAA,2001-11-03 05:00,ZBAA 030500Z AUTO 21002KT 6SM 09/M02 A3039 RMK T00901020 IEM_DS3505
ZBAA,2001-11-03 06:00,ZBAA 030600Z AUTO 16004KT 12SM 08/M03 A3036 RMK SLP281 T00831030 57018 IEM_DS3505
ZBAA,2001-11-03 07:00,ZBAA 030700Z AUTO 17006KT 6SM 09/M02 A3036 RMK T00901020 IEM_DS3505
ZBAA,2001-11-03 08:00,ZBAA 030800Z AUTO 19008KT 6SM 09/M02 A3036 RMK T00901020 IEM_DS3505
ZBAA,2001-11-03 09:00,ZBAA 030900Z AUTO 20006KT 9SM 07/M03 A3036 RMK SLP280 T00701027 57001 IEM_DS3505
ZBAA,2001-11-03 10:00,ZBAA 031000Z AUTO 19006KT 7SM 07/M01 A3039 RMK T00701010 IEM_DS3505
ZBAA,2001-11-03 11:00,ZBAA 031100Z AUTO 16004KT 7SM 07/M02 A3039 RMK T00701020 IEM_DS3505
ZBAA,2001-11-03 12:00,ZBAA 031200Z AUTO 22002KT 12SM 07/M02 A3039 RMK SLP288 T00691018 52008 IEM_DS3505
ZBAA,2001-11-03 13:00,ZBAA 031300Z AUTO 16004KT 7SM 07/M01 A3042 RMK T00701010 IEM_DS3505
ZBAA,2001-11-03 14:00,ZBAA 031400Z AUTO 17002KT 7SM 07/M01 A3042 RMK T00701010 IEM_DS3505
ZBAA,2001-11-03 15:00,ZBAA 031500Z AUTO 20002KT 12SM 07/M00 A3042 RMK SLP294 T00661005 52006 IEM_DS3505
ZBAA,2001-11-03 16:00,ZBAA 031600Z AUTO 7SM 07/M01 A3039 RMK T00701010 IEM_DS3505
ZBAA,2001-11-03 17:00,ZBAA 031700Z AUTO 19002KT 7SM 06/02 A3039 RMK T00600020 IEM_DS3505
ZBAA,2001-11-03 18:00,ZBAA 031800Z AUTO 04004KT 6SM 05/03 A3039 RMK 60008 SLP282 T00510029 57012 IEM_DS3505
ZBAA,2001-11-03 19:00,ZBAA 031900Z AUTO 4SM 04/03 A3036 RMK T00400030 IEM_DS3505
ZBAA,2001-11-03 20:00,ZBAA 032000Z AUTO 03002KT 4SM 03/02 A3033 RMK T00300020 IEM_DS3505
ZBAA,2001-11-03 21:00,ZBAA 032100Z AUTO 07006KT 7SM 04/03 A3033 RMK 70017 SLP267 T00390026 57015 IEM_DS3505
ZBAA,2001-11-03 22:00,ZBAA 032200Z AUTO 4SM 03/02 A3033 RMK T00300020 IEM_DS3505
ZBAA,2001-11-03 23:00,ZBAA 032300Z AUTO 2 1/2SM 03/02 A3030 RMK T00300020 IEM_DS3505
ZBAA,2001-11-04 00:00,ZBAA 040000Z AUTO 04004KT 4SM 03/02 A3033 RMK 60024 SLP261 T00310023 57006 IEM_DS3505
ZBAA,2001-11-04 01:00,ZBAA 040100Z AUTO 36004KT 1 1/4SM 02/02 A3033 RMK T00200020 IEM_DS3505
ZBAA,2001-11-04 02:00,ZBAA 040200Z AUTO 02002KT 1SM 02/01 A3030 RMK T00200010 IEM_DS3505
ZBAA,2001-11-04 03:00,ZBAA 040300Z AUTO 02004KT 5SM 04/03 A3030 RMK SLP256 T00360028 57005 IEM_DS3505
ZBAA,2001-11-04 04:00,ZBAA 040400Z AUTO 36004KT 1 1/4SM 02/02 A3027 RMK T00200020 IEM_DS3505
ZBAA,2001-11-04 05:00,ZBAA 040500Z AUTO 35004KT 1 1/2SM 03/03 A3024 RMK T00300030 IEM_DS3505
ZBAA,2001-11-04 06:00,ZBAA 040600Z AUTO 02006KT 5SM 04/03 A3021 RMK 60020 SLP232 T00400030 57024 IEM_DS3505
ZBAA,2001-11-04 07:00,ZBAA 040700Z AUTO 2 1/2SM 05/04 A3021 RMK T00500040 IEM_DS3505
ZBAA,2001-11-04 08:00,ZBAA 040800Z AUTO 2 1/2SM 05/04 A3018 RMK T00500040 IEM_DS3505
ZBAA,2001-11-04 09:00,ZBAA 040900Z AUTO 00000KT 4SM 05/03 A3021 RMK SLP230 T00470032 57002 IEM_DS3505
ZBAA,2001-11-04 10:00,ZBAA 041000Z AUTO 28004KT 3SM 05/04 A3021 RMK T00500040 IEM_DS3505
ZBAA,2001-11-04 11:00,ZBAA 041100Z AUTO 32002KT 3SM 04/03 A3021 RMK T00400030 IEM_DS3505
ZBAA,2001-11-04 12:00,ZBAA 041200Z AUTO 11002KT 4SM 05/03 A3024 RMK SLP237 T00470032 52007 IEM_DS3505
ZBAA,2001-11-04 13:00,ZBAA 041300Z AUTO 27004KT 4SM 04/03 A3024 RMK T00400030 IEM_DS3505
ZBAA,2001-11-04 14:00,ZBAA 041400Z AUTO 29006KT 4SM 04/03 A3027 RMK T00400030 IEM_DS3505
ZBAA,2001-11-04 15:00,ZBAA 041500Z AUTO 22004KT 2 1/2SM 04/03 A3027 RMK SLP250 T00360028 52013 IEM_DS3505
ZBAA,2001-11-04 16:00,ZBAA 041600Z AUTO 25006KT 3SM 03/03 A3027 RMK T00300030 IEM_DS3505
ZBAA,2001-11-04 17:00,ZBAA 041700Z AUTO 08004KT 3SM 03/02 A3030 RMK T00300020 IEM_DS3505
ZBAA,2001-11-04 18:00,ZBAA 041800Z AUTO 32006KT 19SM 07/ A3030 RMK SLP256 52006 IEM_DS3505
ZBAA,2001-11-04 19:00,ZBAA 041900Z AUTO 34006KT 3SM 00/00 A3027 RMK T00000000 IEM_DS3505
ZBAA,2001-11-04 20:00,ZBAA 042000Z AUTO 31010KT 6SM 04/M03 A3027 RMK T00401030 IEM_DS3505
ZBAA,2001-11-04 21:00,ZBAA 042100Z AUTO 34006KT 19SM 06/M08 A3030 RMK 70032 SLP255 T00641080 57001 IEM_DS3505
ZBAA,2001-11-04 22:00,ZBAA 042200Z AUTO 31014KT 6SM 05/M05 A3030 RMK T00501050 IEM_DS3505
ZBAA,2001-11-04 23:00,ZBAA 042300Z AUTO 31014KT 6SM 05/M06 A3033 RMK T00501060 IEM_DS3505
ZBAA,2001-11-05 00:00,ZBAA 050000Z AUTO 32010KT 12SM 06/M07 A3036 RMK 70020 SLP283 T00641070 52028 IEM_DS3505
ZBAA,2001-11-05 01:00,ZBAA 050100Z AUTO 31016G25KT 6SM 07/M05 A3039 RMK T00701050 IEM_DS3505
ZBAA,2001-11-05 02:00,ZBAA 050200Z AUTO 32019KT 6SM 09/M06 A3039 RMK T00901060 IEM_DS3505
ZBAA,2001-11-05 03:00,ZBAA 050300Z AUTO 32010KT 16SM 09/M09 A3042 RMK SLP294 T00921086 52011 IEM_DS3505
ZBAA,2001-11-05 04:00,ZBAA 050400Z AUTO 32021G31KT 6SM 10/M07 A3039 RMK T01001070 IEM_DS3505
ZBAA,2001-11-05 05:00,ZBAA 050500Z AUTO 34010KT 12SM 10/M09 A3039 RMK SLP293 T01001090 52003 IEM_DS3505
ZBAA,2001-11-05 06:00,ZBAA 050600Z AUTO 32012G35KT 19SM 10/M09 A3039 RMK SLP289 T01021091 57004 IEM_DS3505
ZBAA,2001-11-05 07:00,ZBAA 050700Z AUTO 32023G35KT 6SM 11/M07 A3039 RMK T01101070 IEM_DS3505
ZBAA,2001-11-05 08:00,ZBAA 050800Z AUTO 33016KT 6SM 10/M07 A3039 RMK T01001070 IEM_DS3505
ZBAA,2001-11-05 09:00,ZBAA 050900Z AUTO 34010KT 12SM 10/M09 A3042 RMK SLP293 T01001090 52003 IEM_DS3505
ZBAA,2001-11-05 10:00,ZBAA 051000Z AUTO 35012KT 6SM 07/M06 A3042 RMK T00701060 IEM_DS3505
ZBAA,2001-11-05 11:00,ZBAA 051100Z AUTO 01004KT 6SM 07/M05 A3045 RMK T00701050 IEM_DS3505
ZBAA,2001-11-05 12:00,ZBAA 051200Z AUTO 04004KT 12SM 07/M05 A3047 RMK SLP312 T00671048 52019 IEM_DS3505
ZBAA,2001-11-05 13:00,ZBAA 051300Z AUTO 05002KT 6SM 04/M05 A3047 RMK T00401050 IEM_DS3505
ZBAA,2001-11-05 14:00,ZBAA 051400Z AUTO 6SM 05/M06 A3050 RMK T00501060 IEM_DS3505
ZBAA,2001-11-05 15:00,ZBAA 051500Z AUTO 34002KT 6SM 02/M05 A3050 RMK T00201050 IEM_DS3505
ZBAA,2001-11-05 16:00,ZBAA 051600Z AUTO 34004KT 6SM 02/M04 A3047 RMK T00201040 IEM_DS3505
ZBAA,2001-11-05 17:00,ZBAA 051700Z AUTO 34004KT 6SM 01/M04 A3047 RMK T00101040 IEM_DS3505
ZBAA,2001-11-05 18:00,ZBAA 051800Z AUTO 32002KT 6SM 01/M03 A3050 RMK SLP325 T00131029 52009 IEM_DS3505
ZBAA,2001-11-05 19:00,ZBAA 051900Z AUTO 28004KT 6SM 01/M03 A3050 RMK T00101030 IEM_DS3505
ZBAA,2001-11-05 20:00,ZBAA 052000Z AUTO 26002KT 6SM 01/M03 A3050 RMK T00101030 IEM_DS3505
ZBAA,2001-11-05 21:00,ZBAA 052100Z AUTO 00000KT 6SM M00/M03 A3047 RMK SLP321 T10041029 57004 IEM_DS3505
ZBAA,2001-11-05 22:00,ZBAA 052200Z AUTO 01002KT 6SM 00/M02 A3047 RMK T00001020 IEM_DS3505
ZBAA,2001-11-05 23:00,ZBAA 052300Z AUTO 34002KT 6SM M01/M03 A3047 RMK T10101030 IEM_DS3505
ZBAA,2001-11-06 00:00,ZBAA 060000Z AUTO 00000KT 4SM 01/M02 A3050 RMK SLP324 T00091024 52003 IEM_DS3505
ZBAA,2001-11-06 01:00,ZBAA 060100Z AUTO 6SM 04/M01 A3050 RMK T00401010 IEM_DS3505
ZBAA,2001-11-06 02:00,ZBAA 060200Z AUTO 6SM 06/M01 A3047 RMK T00601010 IEM_DS3505
ZBAA,2001-11-06 03:00,ZBAA 060300Z AUTO 18006KT 9SM 09/M04 A3047 RMK SLP315 T00901038 57009 IEM_DS3505
ZBAA,2001-11-06 04:00,ZBAA 060400Z AUTO 15002KT 6SM 09/M03 A3042 RMK T00901030 IEM_DS3505
ZBAA,2001-11-06 05:00,ZBAA 060500Z AUTO 6SM 11/M02 A3039 RMK T01101020 IEM_DS3505
ZBAA,2001-11-06 06:00,ZBAA 060600Z AUTO 22004KT 9SM 11/M04 A3036 RMK SLP283 T01141037 57032 IEM_DS3505
ZBAA,2001-11-06 07:00,ZBAA 060700Z AUTO 19006KT 6SM 11/M03 A3036 RMK T01101030 IEM_DS3505
ZBAA,2001-11-06 08:00,ZBAA 060800Z AUTO 18006KT 6SM 11/M02 A3036 RMK T01101020 IEM_DS3505
ZBAA,2001-11-06 09:00,ZBAA 060900Z AUTO 16004KT 7SM 10/00 A3033 RMK SLP272 T00990005 57011 IEM_DS3505
ZBAA,2001-11-06 10:00,ZBAA 061000Z AUTO 6SM 07/00 A3033 RMK T00700000 IEM_DS3505
ZBAA,2001-11-06 11:00,ZBAA 061100Z AUTO 6SM 06/01 A3036 RMK T00600010 IEM_DS3505
ZBAA,2001-11-06 12:00,ZBAA 061200Z AUTO 00000KT 4SM 05/02 A3036 RMK SLP274 T00460018 52002 IEM_DS3505
ZBAA,2001-11-06 13:00,ZBAA 061300Z AUTO 36002KT 5SM 04/00 A3036 RMK T00400000 IEM_DS3505
ZBAA,2001-11-06 14:00,ZBAA 061400Z AUTO 36002KT 4SM 04/00 A3036 RMK T00400000 IEM_DS3505
ZBAA,2001-11-06 15:00,ZBAA 061500Z AUTO 36002KT 2 1/2SM 03/01 A3033 RMK SLP270 T00310007 57004 IEM_DS3505
ZBAA,2001-11-06 16:00,ZBAA 061600Z AUTO 36002KT 3SM 03/00 A3033 RMK T00300000 IEM_DS3505
ZBAA,2001-11-06 17:00,ZBAA 061700Z AUTO 35002KT 2 1/2SM 02/00 A3033 RMK T00200000 IEM_DS3505
ZBAA,2001-11-06 18:00,ZBAA 061800Z AUTO 04004KT 5SM 03/M01 A3030 RMK SLP262 T00301006 57008 IEM_DS3505
ZBAA,2001-11-06 19:00,ZBAA 061900Z AUTO 36004KT 2 1/2SM 02/00 A3030 RMK T00200000 IEM_DS3505
ZBAA,2001-11-06 20:00,ZBAA 062000Z AUTO 35004KT 2 1/2SM 01/00 A3027 RMK T00100000 IEM_DS3505
ZBAA,2001-11-06 21:00,ZBAA 062100Z AUTO 02004KT 5SM 02/M01 A3027 RMK SLP253 T00161010 57009 IEM_DS3505
ZBAA,2001-11-06 22:00,ZBAA 062200Z AUTO 2 1/2SM 00/00 A3027 RMK T00000000 IEM_DS3505
ZBAA,2001-11-06 23:00,ZBAA 062300Z AUTO 35004KT 2 1/2SM 01/00 A3027 RMK T00100000 IEM_DS3505
ZBAA,2001-11-07 00:00,ZBAA 070000Z AUTO 04002KT 2SM 02/M00 A3027 RMK SLP251 T00181004 57002 IEM_DS3505
ZBAA,2001-11-07 01:00,ZBAA 070100Z AUTO 34004KT 3SM 04/02 A3027 RMK T00400020 IEM_DS3505
ZBAA,2001-11-07 02:00,ZBAA 070200Z AUTO 36004KT 4SM 06/02 A3027 RMK T00600020 IEM_DS3505
ZBAA,2001-11-07 03:00,ZBAA 070300Z AUTO 09002KT 6SM 08/01 A3024 RMK SLP246 T00840012 57005 IEM_DS3505
ZBAA,2001-11-07 04:00,ZBAA 070400Z AUTO 10/01 A3024 RMK T01000010 IEM_DS3505
ZBAA,2001-11-07 05:00,ZBAA 070500Z AUTO 27002KT 11/01 A3021 RMK T01100010 IEM_DS3505
ZBAA,2001-11-07 06:00,ZBAA 070600Z AUTO 18004KT 5SM 12/02 A3018 RMK SLP221 T01200019 57024 IEM_DS3505
ZBAA,2001-11-07 07:00,ZBAA 070700Z AUTO 14004KT 3SM 12/02 A3015 RMK T01200020 IEM_DS3505
ZBAA,2001-11-07 08:00,ZBAA 070800Z AUTO 14002KT 2 1/2SM 11/03 A3015 RMK T01100030 IEM_DS3505
ZBAA,2001-11-07 09:00,ZBAA 070900Z AUTO 22004KT 4SM 10/03 A3018 RMK SLP216 T01040033 57006 IEM_DS3505
ZBAA,2001-11-07 10:00,ZBAA 071000Z AUTO 08002KT 2 1/2SM 08/04 A3018 RMK T00800040 IEM_DS3505
ZBAA,2001-11-07 11:00,ZBAA 071100Z AUTO 12002KT 2 1/2SM 08/05 A3018 RMK T00800050 IEM_DS3505
ZBAA,2001-11-07 12:00,ZBAA 071200Z AUTO 00000KT 3SM 07/03 A3018 RMK SLP224 T00690033 52008 IEM_DS3505
ZBAA,2001-11-07 13:00,ZBAA 071300Z AUTO 2SM 06/04 A3021 RMK T00600040 IEM_DS3505
ZBAA,2001-11-07 14:00,ZBAA 071400Z AUTO 1 1/4SM 05/04 A3021 RMK T00500040 IEM_DS3505
ZBAA,2001-11-07 15:00,ZBAA 071500Z AUTO 07002KT 2 1/2SM 05/03 A3021 RMK SLP232 T00510031 52008 IEM_DS3505
ZBAA,2001-11-07 16:00,ZBAA 071600Z AUTO 35002KT 1SM 04/03 A3024 RMK T00400030 IEM_DS3505
ZBAA,2001-11-07 17:00,ZBAA 071700Z AUTO 1SM 03/03 A3024 RMK T00300030 IEM_DS3505
ZBAA,2001-11-07 18:00,ZBAA 071800Z AUTO 00000KT 1SM 02/02 A3024 RMK SLP235 T00250022 52004 IEM_DS3505
ZBAA,2001-11-07 19:00,ZBAA 071900Z AUTO 34004KT 1SM 03/02 A3024 RMK T00300020 IEM_DS3505
ZBAA,2001-11-07 20:00,ZBAA 072000Z AUTO 34004KT 1SM 01/01 A3024 RMK T00100010 IEM_DS3505
ZBAA,2001-11-07 21:00,ZBAA 072100Z AUTO 04002KT 1SM 03/02 A3027 RMK SLP244 T00260018 52008 IEM_DS3505
ZBAA,2001-11-07 22:00,ZBAA 072200Z AUTO 34008KT 1 1/4SM 03/02 A3027 RMK T00300020 IEM_DS3505
ZBAA,2001-11-07 23:00,ZBAA 072300Z AUTO 36006KT 2SM 04/02 A3030 RMK T00400020 IEM_DS3505
ZBAA,2001-11-08 00:00,ZBAA 080000Z AUTO 04004KT 4SM 05/01 A3033 RMK SLP269 T00530009 52025 IEM_DS3505
ZBAA,2001-11-08 01:00,ZBAA 080100Z AUTO 6SM 08/02 A3039 RMK T00800020 IEM_DS3505
ZBAA,2001-11-08 02:00,ZBAA 080200Z AUTO 01010KT 6SM 11/M01 A3039 RMK T01101010 IEM_DS3505
ZBAA,2001-11-08 03:00,ZBAA 080300Z AUTO 04010KT 14SM 12/M03 A3042 RMK SLP289 T01171027 52020 IEM_DS3505
ZBAA,2001-11-08 04:00,ZBAA 080400Z AUTO 01012KT 6SM 13/M04 A3042 RMK T01301040 IEM_DS3505
ZBAA,2001-11-08 05:00,ZBAA 080500Z AUTO 01010KT 6SM 13/M04 A3039 RMK T01301040 IEM_DS3505
ZBAA,2001-11-08 06:00,ZBAA 080600Z AUTO 07006KT 19SM 13/M04 A3039 RMK SLP287 T01321045 57002 IEM_DS3505
ZBAA,2001-11-08 07:00,ZBAA 080700Z AUTO 02004KT 6SM 14/M04 A3039 RMK T01401040 IEM_DS3505
ZBAA,2001-11-08 08:00,ZBAA 080800Z AUTO 04004KT 6SM 14/M05 A3039 RMK T01401050 IEM_DS3505
ZBAA,2001-11-08 09:00,ZBAA 080900Z AUTO 00000KT 12SM 11/01 A3039 RMK SLP290 T01140007 52003 IEM_DS3505
ZBAA,2001-11-08 10:00,ZBAA 081000Z AUTO 05002KT 6SM 10/M04 A3042 RMK T01001040 IEM_DS3505
ZBAA,2001-11-08 11:00,ZBAA 081100Z AUTO 35004KT 6SM 08/M06 A3045 RMK T00801060 IEM_DS3505
ZBAA,2001-11-08 12:00,ZBAA 081200Z AUTO 32004KT 5SM 08/M00 A3045 RMK SLP312 T00781002 52022 IEM_DS3505
ZBAA,2001-11-08 13:00,ZBAA 081300Z AUTO 01002KT 6SM 05/M03 A3047 RMK T00501030 IEM_DS3505
ZBAA,2001-11-08 14:00,ZBAA 081400Z AUTO 03002KT 6SM 05/M03 A3050 RMK T00501030 IEM_DS3505
ZBAA,2001-11-08 15:00,ZBAA 081500Z AUTO 00000KT 5SM 04/M00 A3050 RMK SLP325 T00401001 52013 IEM_DS3505
ZBAA,2001-11-08 16:00,ZBAA 081600Z AUTO 30002KT 6SM 03/M05 A3050 RMK T00301050 IEM_DS3505
ZBAA,2001-11-08 17:00,ZBAA 081700Z AUTO 6SM 02/M04 A3050 RMK T00201040 IEM_DS3505
ZBAA,2001-11-08 18:00,ZBAA 081800Z AUTO 36004KT 3SM 02/M01 A3050 RMK SLP328 T00241010 52003 IEM_DS3505
ZBAA,2001-11-08 19:00,ZBAA 081900Z AUTO 30002KT 6SM 02/M05 A3050 RMK T00201050 IEM_DS3505
ZBAA,2001-11-08 20:00,ZBAA 082000Z AUTO 34002KT 6SM 03/M05 A3050 RMK T00301050 IEM_DS3505
ZBAA,2001-11-08 21:00,ZBAA 082100Z AUTO 36002KT 3SM M00/M03 A3050 RMK SLP326 T10031031 57002 IEM_DS3505
ZBAA,2001-11-08 22:00,ZBAA 082200Z AUTO 35002KT 6SM 00/M06 A3050 RMK T00001060 IEM_DS3505
ZBAA,2001-11-08 23:00,ZBAA 082300Z AUTO 35004KT 6SM 00/M05 A3050 RMK T00001050 IEM_DS3505
ZBAA,2001-11-09 00:00,ZBAA 090000Z AUTO 04002KT 5SM 03/M04 A3053 RMK SLP332 T00271040 52006 IEM_DS3505
ZBAA,2001-11-09 01:00,ZBAA 090100Z AUTO 01004KT 6SM 06/M05 A3053 RMK T00601050 IEM_DS3505
ZBAA,2001-11-09 02:00,ZBAA 090200Z AUTO 36004KT 6SM 08/M06 A3053 RMK T00801060 IEM_DS3505
ZBAA,2001-11-09 03:00,ZBAA 090300Z AUTO 00000KT 16SM 10/M07 A3050 RMK SLP330 T01031068 57002 IEM_DS3505
ZBAA,2001-11-09 04:00,ZBAA 090400Z AUTO 29004KT 6SM 11/M07 A3047 RMK T01101070 IEM_DS3505
ZBAA,2001-11-09 05:00,ZBAA 090500Z AUTO 23006KT 6SM 13/M08 A3045 RMK T01301080 IEM_DS3505
ZBAA,2001-11-09 06:00,ZBAA 090600Z AUTO 27006KT 19SM 13/M10 A3042 RMK SLP296 T01311095 57034 IEM_DS3505
ZBAA,2001-11-09 07:00,ZBAA 090700Z AUTO 20004KT 6SM 13/M08 A3039 RMK T01301080 IEM_DS3505
ZBAA,2001-11-09 08:00,ZBAA 090800Z AUTO 19006KT 6SM 13/M08 A3036 RMK T01301080 IEM_DS3505
ZBAA,2001-11-09 09:00,ZBAA 090900Z AUTO 22004KT 12SM 11/M04 A3036 RMK SLP280 T01091037 57016 IEM_DS3505
ZBAA,2001-11-09 10:00,ZBAA 091000Z AUTO 19008KT 6SM 10/M05 A3036 RMK T01001050 IEM_DS3505
ZBAA,2001-11-09 11:00,ZBAA 091100Z AUTO 20004KT 6SM 10/M05 A3036 RMK T01001050 IEM_DS3505
ZBAA,2001-11-09 12:00,ZBAA 091200Z AUTO 00000KT 4SM 06/M02 A3036 RMK SLP276 T00611022 57004 IEM_DS3505
ZBAA,2001-11-09 13:00,ZBAA 091300Z AUTO 6SM 05/M02 A3033 RMK T00501020 IEM_DS3505
ZBAA,2001-11-09 14:00,ZBAA 091400Z AUTO 4SM 03/M02 A3033 RMK T00301020 IEM_DS3505
ZBAA,2001-11-09 15:00,ZBAA 091500Z AUTO 00000KT 4SM 03/M01 A3033 RMK SLP267 T00301012 57009 IEM_DS3505
ZBAA,2001-11-09 16:00,ZBAA 091600Z AUTO 31002KT 3SM 02/M02 A3030 RMK T00201020 IEM_DS3505
ZBAA,2001-11-09 17:00,ZBAA 091700Z AUTO 09002KT 3SM 01/M02 A3030 RMK T00101020 IEM_DS3505
ZBAA,2001-11-09 18:00,ZBAA 091800Z AUTO 25002KT 4SM 01/M01 A3027 RMK SLP255 T00111012 57012 IEM_DS3505
ZBAA,2001-11-09 19:00,ZBAA 091900Z AUTO 34002KT 2 1/2SM 00/M02 A3027 RMK T00001020 IEM_DS3505
ZBAA,2001-11-09 20:00,ZBAA 092000Z AUTO 33004KT 2 1/2SM 01/M02 A3024 RMK T00101020 IEM_DS3505
ZBAA,2001-11-09 21:00,ZBAA 092100Z AUTO 00000KT 2 1/2SM M00/M02 A3024 RMK SLP245 T10011016 57010 IEM_DS3505
ZBAA,2001-11-09 22:00,ZBAA 092200Z AUTO 30002KT 2 1/2SM 00/M02 A3024 RMK T00001020 IEM_DS3505
ZBAA,2001-11-09 23:00,ZBAA 092300Z AUTO 32004KT 3SM 00/M03 A3024 RMK T00001030 IEM_DS3505
ZBAA,2001-11-10 00:00,ZBAA 100000Z AUTO 00000KT 2SM M01/M02 A3024 RMK SLP242 T10061021 57003 IEM_DS3505
ZBAA,2001-11-10 01:00,ZBAA 100100Z AUTO 36002KT 4SM 04/M01 A3024 RMK T00401010 IEM_DS3505
ZBAA,2001-11-10 02:00,ZBAA 100200Z AUTO 36002KT 4SM 06/M01 A3021 RMK T00601010 IEM_DS3505
ZBAA,2001-11-10 03:00,ZBAA 100300Z AUTO 00000KT 2 1/2SM 08/M01 A3018 RMK SLP225 T00831008 57017 IEM_DS3505
ZBAA,2001-11-10 04:00,ZBAA 100400Z AUTO 5SM 10/M02 A3015 RMK T01001020 IEM_DS3505
ZBAA,2001-11-10 05:00,ZBAA 100500Z AUTO 14002KT 5SM 11/M02 A3012 RMK T01101020 IEM_DS3505
ZBAA,2001-11-10 06:00,ZBAA 100600Z AUTO 16004KT 3SM 11/00 A3009 RMK SLP195 T01130000 57029 IEM_DS3505
ZBAA,2001-11-10 07:00,ZBAA 100700Z AUTO 14004KT 13/M01 A3009 RMK T01301010 IEM_DS3505
ZBAA,2001-11-10 08:00,ZBAA 100800Z AUTO 19008KT 2 1/2SM 12/00 A3006 RMK T01200000 IEM_DS3505
ZBAA,2001-11-10 09:00,ZBAA 100900Z AUTO 20002KT 3SM 10/03 A3009 RMK SLP186 T00990032 57010 IEM_DS3505
ZBAA,2001-11-10 10:00,ZBAA 101000Z AUTO 20004KT 1 1/4SM 08/02 A3009 RMK T00800020 IEM_DS3505
ZBAA,2001-11-10 11:00,ZBAA 101100Z AUTO 10002KT 1 1/4SM 06/02 A3009 RMK T00600020 IEM_DS3505
ZBAA,2001-11-10 12:00,ZBAA 101200Z AUTO 00000KT 3SM 06/02 A3009 RMK SLP192 T00560024 52006 IEM_DS3505
ZBAA,2001-11-10 13:00,ZBAA 101300Z AUTO 12002KT 1SM 03/02 A3012 RMK T00300020 IEM_DS3505
ZBAA,2001-11-10 14:00,ZBAA 101400Z AUTO 1SM 03/03 A3012 RMK T00300030 IEM_DS3505
ZBAA,2001-11-10 15:00,ZBAA 101500Z AUTO 36002KT 3SM 03/01 A3012 RMK SLP195 T00260013 52003 IEM_DS3505
ZBAA,2001-11-10 16:00,ZBAA 101600Z AUTO 36002KT 1SM 02/01 A3009 RMK T00200010 IEM_DS3505
ZBAA,2001-11-10 17:00,ZBAA 101700Z AUTO 35006KT 1SM 02/00 A3012 RMK T00200000 IEM_DS3505
ZBAA,2001-11-10 18:00,ZBAA 101800Z AUTO 04004KT 2SM 04/02 A3012 RMK SLP195 T00370019 52001 IEM_DS3505
ZBAA,2001-11-10 19:00,ZBAA 101900Z AUTO 35006KT 1 1/4SM 03/01 A3012 RMK T00300010 IEM_DS3505
ZBAA,2001-11-10 20:00,ZBAA 102000Z AUTO 35006KT 1 1/4SM 03/00 A3012 RMK T00300000 IEM_DS3505
ZBAA,2001-11-10 21:00,ZBAA 102100Z AUTO 02004KT 4SM 04/00 A3012 RMK SLP198 T00440005 52003 IEM_DS3505
ZBAA,2001-11-10 22:00,ZBAA 102200Z AUTO 35002KT 2 1/2SM 01/M02 A3015 RMK T00101020 IEM_DS3505
ZBAA,2001-11-10 23:00,ZBAA 102300Z AUTO 34006KT 4SM 03/M02 A3018 RMK T00301020 IEM_DS3505
ZBAA,2001-11-11 00:00,ZBAA 110000Z AUTO 07004KT 5SM 05/M01 A3021 RMK SLP235 T00481012 52036 IEM_DS3505
ZBAA,2001-11-11 01:00,ZBAA 110100Z AUTO 35006KT 6SM 07/00 A3024 RMK T00700000 IEM_DS3505
ZBAA,2001-11-11 02:00,ZBAA 110200Z AUTO 35008KT 6SM 10/M02 A3024 RMK T01001020 IEM_DS3505
ZBAA,2001-11-11 03:00,ZBAA 110300Z AUTO 04008KT 16SM 12/M04 A3024 RMK SLP247 T01161041 52012 IEM_DS3505
ZBAA,2001-11-11 04:00,ZBAA 110400Z AUTO 05006KT 6SM 13/M04 A3024 RMK T01301040 IEM_DS3505
ZBAA,2001-11-11 05:00,ZBAA 110500Z AUTO 6SM 14/M04 A3021 RMK T01401040 IEM_DS3505
ZBAA,2001-11-11 06:00,ZBAA 110600Z AUTO 6SM 14/M04 A3021 RMK T01401040 IEM_DS3505
ZBAA,2001-11-11 07:00,ZBAA 110700Z AUTO 18004KT 6SM 15/M04 A3018 RMK T01501040 IEM_DS3505
ZBAA,2001-11-11 08:00,ZBAA 110800Z AUTO 18006KT 6SM 14/M04 A3021 RMK T01401040 IEM_DS3505
ZBAA,2001-11-11 09:00,ZBAA 110900Z AUTO 20004KT 12SM 11/M01 A3021 RMK SLP228 T01131014 57002 IEM_DS3505
ZBAA,2001-11-11 10:00,ZBAA 111000Z AUTO 17004KT 6SM 09/M02 A3021 RMK T00901020 IEM_DS3505
ZBAA,2001-11-11 11:00,ZBAA 111100Z AUTO 18006KT 6SM 08/M01 A3024 RMK T00801010 IEM_DS3505
ZBAA,2001-11-11 12:00,ZBAA 111200Z AUTO 20004KT 9SM 08/M01 A3024 RMK SLP243 T00781008 52014 IEM_DS3505
ZBAA,2001-11-11 13:00,ZBAA 111300Z AUTO 18008KT 6SM 07/M01 A3027 RMK T00701010 IEM_DS3505
ZBAA,2001-11-11 14:00,ZBAA 111400Z AUTO 15004KT 6SM 06/M01 A3030 RMK T00601010 IEM_DS3505
ZBAA,2001-11-11 15:00,ZBAA 111500Z AUTO 20004KT 7SM 05/M02 A3030 RMK SLP256 T00511015 52014 IEM_DS3505
ZBAA,2001-11-11 16:00,ZBAA 111600Z AUTO 12004KT 6SM 04/M01 A3030 RMK T00401010 IEM_DS3505
ZBAA,2001-11-11 17:00,ZBAA 111700Z AUTO 11004KT 6SM 03/M01 A3030 RMK T00301010 IEM_DS3505
ZBAA,2001-11-11 18:00,ZBAA 111800Z AUTO 11004KT 9SM 01/M02 A3030 RMK SLP256 T00141015 54000 IEM_DS3505
ZBAA,2001-11-11 19:00,ZBAA 111900Z AUTO 12002KT 6SM 03/M01 A3030 RMK T00301010 IEM_DS3505
ZBAA,2001-11-11 20:00,ZBAA 112000Z AUTO 09002KT 6SM 03/M01 A3030 RMK T00301010 IEM_DS3505
ZBAA,2001-11-11 21:00,ZBAA 112100Z AUTO 14004KT 7SM 01/M01 RMK SLP261 T00141009 52004 IEM_DS3505
ZBAA,2001-11-11 21:11,ZBAA 112111Z AUTO 02002KT 6SM 01/M01 A3033 RMK T00101010 IEM_DS3505
ZBAA,2001-11-11 22:00,ZBAA 112200Z AUTO 03002KT 5SM 01/00 A3033 RMK T00100000 IEM_DS3505
ZBAA,2001-11-11 23:00,ZBAA 112300Z AUTO 3SM 01/00 A3033 RMK T00100000 IEM_DS3505
ZBAA,2001-11-12 00:00,ZBAA 120000Z AUTO 00000KT 4SM 02/00 A3036 RMK SLP275 T00170000 52014 IEM_DS3505
ZBAA,2001-11-12 01:00,ZBAA 120100Z AUTO 3SM 03/00 A3036 RMK T00300000 IEM_DS3505
ZBAA,2001-11-12 02:00,ZBAA 120200Z AUTO 17002KT 4SM 04/M01 A3036 RMK T00401010 IEM_DS3505
ZBAA,2001-11-12 03:00,ZBAA 120300Z AUTO 14004KT 6SM 06/01 A3036 RMK SLP276 T00590010 52001 IEM_DS3505
ZBAA,2001-11-12 04:00,ZBAA 120400Z AUTO 14006KT 5SM 07/M01 A3033 RMK T00701010 IEM_DS3505
ZBAA,2001-11-12 05:00,ZBAA 120500Z AUTO 13006KT 5SM 07/00 A3030 RMK T00700000 IEM_DS3505
ZBAA,2001-11-12 06:00,ZBAA 120600Z AUTO 14008KT 6SM 08/02 A3027 RMK SLP250 T00840018 57026 IEM_DS3505
ZBAA,2001-11-12 07:00,ZBAA 120700Z AUTO 11008KT 07/M01 A3027 RMK T00701010 IEM_DS3505
ZBAA,2001-11-12 08:00,ZBAA 120800Z AUTO 11006KT 5SM 07/M01 A3027 RMK T00701010 IEM_DS3505
ZBAA,2001-11-12 09:00,ZBAA 120900Z AUTO 09006KT 11SM 07/M00 A3024 RMK SLP242 T00691004 57008 IEM_DS3505
ZBAA,2001-11-12 10:00,ZBAA 121000Z AUTO 12008KT 7SM 05/M02 A3024 RMK T00501020 IEM_DS3505
ZBAA,2001-11-12 11:00,ZBAA 121100Z AUTO 12006KT 7SM 05/M02 A3027 RMK T00501020 IEM_DS3505
ZBAA,2001-11-12 12:00,ZBAA 121200Z AUTO 11006KT 7SM 05/M02 A3027 RMK 60003 SLP243 T00491021 52001 IEM_DS3505
ZBAA,2001-11-12 13:00,ZBAA 121300Z AUTO 01002KT 4SM 02/01 A3030 RMK T00200010 IEM_DS3505
ZBAA,2001-11-12 14:00,ZBAA 121400Z AUTO 09002KT 3SM 01/01 A3027 RMK T00100010 IEM_DS3505
ZBAA,2001-11-12 15:00,ZBAA 121500Z AUTO 09008KT 6SM 02/01 A3027 RMK SLP244 T00230010 52001 IEM_DS3505
ZBAA,2001-11-12 16:00,ZBAA 121600Z AUTO 06002KT 2 1/2SM 01/01 A3027 RMK T00100010 IEM_DS3505
ZBAA,2001-11-12 17:00,ZBAA 121700Z AUTO 2SM 01/01 A3024 RMK T00100010 IEM_DS3505
ZBAA,2001-11-12 18:00,ZBAA 121800Z AUTO 07008KT 4SM 01/00 A3024 RMK 60004 SLP241 T00120004 57003 IEM_DS3505
ZBAA,2001-11-12 19:00,ZBAA 121900Z AUTO 33004KT 1SM 00/00 A3024 RMK T00000000 IEM_DS3505
ZBAA,2001-11-12 20:00,ZBAA 122000Z AUTO 29004KT 1SM 00/00 A3027 RMK T00000000 IEM_DS3505
ZBAA,2001-11-12 21:00,ZBAA 122100Z AUTO 34004KT 2SM 00/00 A3030 RMK 70027 SLP255 T00040001 52014 IEM_DS3505
ZBAA,2001-11-12 22:00,ZBAA 122200Z AUTO 31010KT 2SM 01/01 A3033 RMK T00100010 IEM_DS3505
ZBAA,2001-11-12 23:00,ZBAA 122300Z AUTO 32006KT 5SM 01/01 A3036 RMK T00100010 IEM_DS3505
ZBAA,2001-11-13 00:00,ZBAA 130000Z AUTO 04006KT 9SM 02/00 A3039 RMK 60031 SLP284 T00190005 52029 IEM_DS3505
ZBAA,2001-11-13 01:00,ZBAA 130100Z AUTO 35004KT 6SM 01/01 A3042 RMK T00100010 IEM_DS3505
ZBAA,2001-11-13 02:00,ZBAA 130200Z AUTO 36006KT 6SM 02/01 A3042 RMK T00200010 IEM_DS3505
ZBAA,2001-11-13 03:00,ZBAA 130300Z AUTO 36008KT 9SM 05/M03 A3045 RMK SLP301 T00471031 52017 IEM_DS3505
ZBAA,2001-11-13 04:00,ZBAA 130400Z AUTO 33010KT 6SM 05/M02 A3045 RMK T00501020 IEM_DS3505
ZBAA,2001-11-13 05:00,ZBAA 130500Z AUTO 32016KT 6SM 06/M04 A3042 RMK T00601040 IEM_DS3505
ZBAA,2001-11-13 06:00,ZBAA 130600Z AUTO 34010G27KT 19SM 07/M09 A3042 RMK 60003 SLP295 T00681088 57006 IEM_DS3505
ZBAA,2001-11-13 07:00,ZBAA 130700Z AUTO 30019G29KT 6SM 06/M09 A3042 RMK T00601090 IEM_DS3505
ZBAA,2001-11-13 08:00,ZBAA 130800Z AUTO 30012G23KT 6SM 05/M09 A3045 RMK T00501090 IEM_DS3505
ZBAA,2001-11-13 09:00,ZBAA 130900Z AUTO 32012KT 19SM 05/M11 A3045 RMK SLP304 T00471110 52009 IEM_DS3505
ZBAA,2001-11-13 10:00,ZBAA 131000Z AUTO 32016KT 6SM 03/M14 A3045 RMK T00301140 IEM_DS3505
ZBAA,2001-11-13 11:00,ZBAA 131100Z AUTO 32014G25KT 6SM 03/M15 A3047 RMK T00301150 IEM_DS3505
ZBAA,2001-11-13 12:00,ZBAA 131200Z AUTO 34006KT 16SM 03/M11 A3047 RMK SLP315 T00291111 52011 IEM_DS3505
ZBAA,2001-11-13 13:00,ZBAA 131300Z AUTO 35008KT 6SM 01/M12 A3050 RMK T00101120 IEM_DS3505
ZBAA,2001-11-13 14:00,ZBAA 131400Z AUTO 36006KT 6SM 00/M11 A3050 RMK T00001110 IEM_DS3505
ZBAA,2001-11-13 15:00,ZBAA 131500Z AUTO 07004KT 19SM 01/M14 A3047 RMK SLP314 T00141143 57001 IEM_DS3505
ZBAA,2001-11-13 16:00,ZBAA 131600Z AUTO 05004KT 6SM M01/M09 A3045 RMK T10101090 IEM_DS3505
ZBAA,2001-11-13 17:00,ZBAA 131700Z AUTO 04002KT 6SM M01/M10 A3045 RMK T10101100 IEM_DS3505
ZBAA,2001-11-13 18:00,ZBAA 131800Z AUTO 00000KT 19SM M01/M10 A3042 RMK SLP301 T10061102 57013 IEM_DS3505
ZBAA,2001-11-13 19:00,ZBAA 131900Z AUTO 35006KT 6SM M02/M09 A3042 RMK T10201090 IEM_DS3505
ZBAA,2001-11-13 20:00,ZBAA 132000Z AUTO 33004KT 6SM M03/M09 A3039 RMK T10301090 IEM_DS3505
ZBAA,2001-11-13 21:00,ZBAA 132100Z AUTO 00000KT 19SM M02/M08 A3036 RMK 70008 SLP281 T10161078 57020 IEM_DS3505
ZBAA,2001-11-13 22:00,ZBAA 132200Z AUTO 36004KT 6SM M03/M07 A3036 RMK T10301070 IEM_DS3505
ZBAA,2001-11-13 23:00,ZBAA 132300Z AUTO 33004KT 6SM M02/M07 A3033 RMK T10201070 IEM_DS3505
ZBAA,2001-11-14 00:00,ZBAA 140000Z AUTO 36002KT 5SM M02/M06 A3033 RMK 70003 SLP274 T10151060 57008 IEM_DS3505
ZBAA,2001-11-14 01:00,ZBAA 140100Z AUTO 35002KT 6SM 00/M06 A3033 RMK T00001060 IEM_DS3505
ZBAA,2001-11-14 02:00,ZBAA 140200Z AUTO 6SM 01/M05 A3033 RMK T00101050 IEM_DS3505
ZBAA,2001-11-14 03:00,ZBAA 140300Z AUTO 11004KT 6SM 03/M03 A3030 RMK SLP260 T00261034 57013 IEM_DS3505
ZBAA,2001-11-14 04:00,ZBAA 140400Z AUTO 01004KT 6SM 02/M05 A3027 RMK T00201050 IEM_DS3505
ZBAA,2001-11-14 05:00,ZBAA 140500Z AUTO 01004KT 6SM 03/M07 A3024 RMK T00301070 IEM_DS3505
ZBAA,2001-11-14 06:00,ZBAA 140600Z AUTO 04006KT 7SM 06/M04 A3024 RMK SLP237 T00591044 57023 IEM_DS3505
ZBAA,2001-11-14 07:00,ZBAA 140700Z AUTO 03004KT 6SM 06/M07 A3021 RMK T00601070 IEM_DS3505
ZBAA,2001-11-14 08:00,ZBAA 140800Z AUTO 02006KT 6SM 06/M06 A3024 RMK T00601060 IEM_DS3505
ZBAA,2001-11-14 09:00,ZBAA 140900Z AUTO 02002KT 9SM 04/M04 A3024 RMK SLP241 T00451037 52004 IEM_DS3505
ZBAA,2001-11-14 10:00,ZBAA 141000Z AUTO 35006KT 6SM 01/M05 A3027 RMK T00101050 IEM_DS3505
ZBAA,2001-11-14 11:00,ZBAA 141100Z AUTO 6SM 05/M08 A3027 RMK T00501080 IEM_DS3505
ZBAA,2001-11-14 12:00,ZBAA 141200Z AUTO 34006KT 6SM 03/M04 A3030 RMK SLP257 T00331036 52016 IEM_DS3505
ZBAA,2001-11-14 13:00,ZBAA 141300Z AUTO 32012KT 6SM 05/M08 A3033 RMK T00501080 IEM_DS3505
ZBAA,2001-11-14 14:00,ZBAA 141400Z AUTO 33012KT 6SM 05/M09 A3033 RMK T00501090 IEM_DS3505
ZBAA,2001-11-14 15:00,ZBAA 141500Z AUTO 34004KT 12SM 04/M08 A3033 RMK SLP265 T00421076 52008 IEM_DS3505
ZBAA,2001-11-14 16:00,ZBAA 141600Z AUTO 33010KT 6SM 04/M10 A3033 RMK T00401100 IEM_DS3505
ZBAA,2001-11-14 17:00,ZBAA 141700Z AUTO 32010KT 6SM 03/M10 A3033 RMK T00301100 IEM_DS3505
ZBAA,2001-11-14 18:00,ZBAA 141800Z AUTO 22004KT 6SM 02/M06 A3033 RMK SLP265 T00181065 54000 IEM_DS3505
ZBAA,2001-11-14 19:00,ZBAA 141900Z AUTO 33016KT 6SM 04/M09 A3030 RMK T00401090 IEM_DS3505
ZBAA,2001-11-14 20:00,ZBAA 142000Z AUTO 32006KT 6SM 03/M09 A3030 RMK T00301090 IEM_DS3505
ZBAA,2001-11-14 21:00,ZBAA 142100Z AUTO 34004KT 7SM 02/M06 A3030 RMK SLP261 T00201062 57004 IEM_DS3505
ZBAA,2001-11-14 22:00,ZBAA 142200Z AUTO 32014KT 6SM 04/M09 A3030 RMK T00401090 IEM_DS3505
ZBAA,2001-11-14 23:00,ZBAA 142300Z AUTO 35008KT 6SM 01/M08 A3030 RMK T00101080 IEM_DS3505
ZBAA,2001-11-15 00:00,ZBAA 150000Z AUTO 32004KT 5SM 01/M05 A3033 RMK SLP263 T00141046 52002 IEM_DS3505
ZBAA,2001-11-15 01:00,ZBAA 150100Z AUTO 32010KT 6SM 06/M08 A3033 RMK T00601080 IEM_DS3505
ZBAA,2001-11-15 02:00,ZBAA 150200Z AUTO 31012KT 6SM 07/M08 A3033 RMK T00701080 IEM_DS3505
ZBAA,2001-11-15 03:00,ZBAA 150300Z AUTO 22004KT 6SM 07/M05 A3033 RMK SLP265 T00731054 52002 IEM_DS3505
ZBAA,2001-11-15 04:00,ZBAA 150400Z AUTO 31019KT 6SM 09/M10 A3027 RMK T00901100 IEM_DS3505
ZBAA,2001-11-15 05:00,ZBAA 150500Z AUTO 31016KT 6SM 10/M10 A3024 RMK T01001100 IEM_DS3505
ZBAA,2001-11-15 06:00,ZBAA 150600Z AUTO 22004KT 9SM 10/M06 A3021 RMK SLP237 T00971064 57028 IEM_DS3505
ZBAA,2001-11-15 07:00,ZBAA 150700Z AUTO 31017KT 6SM 11/M10 A3021 RMK T01101100 IEM_DS3505
ZBAA,2001-11-15 08:00,ZBAA 150800Z AUTO 29010KT 6SM 10/M08 A3021 RMK T01001080 IEM_DS3505
ZBAA,2001-11-15 09:00,ZBAA 150900Z AUTO 22006KT 6SM 08/M06 A3021 RMK SLP231 T00811057 57006 IEM_DS3505
ZBAA,2001-11-15 10:00,ZBAA 151000Z AUTO 28006KT 6SM 08/M07 A3021 RMK T00801070 IEM_DS3505
ZBAA,2001-11-15 11:00,ZBAA 151100Z AUTO 29006KT 6SM 07/M07 A3021 RMK T00701070 IEM_DS3505
ZBAA,2001-11-15 12:00,ZBAA 151200Z AUTO 21006KT 6SM 07/M06 A3021 RMK T00701060 IEM_DS3505
ZBAA,2001-11-15 13:00,ZBAA 151300Z AUTO 23004KT 6SM 06/M05 A3021 RMK T00601050 IEM_DS3505
ZBAA,2001-11-15 14:00,ZBAA 151400Z AUTO 33004KT 6SM 03/M05 A3021 RMK T00301050 IEM_DS3505
ZBAA,2001-11-15 15:00,ZBAA 151500Z AUTO 32004KT 4SM 02/M03 A3021 RMK SLP233 T00231034 57001 IEM_DS3505
ZBAA,2001-11-15 16:00,ZBAA 151600Z AUTO 36004KT 6SM 01/M03 A3024 RMK T00101030 IEM_DS3505
ZBAA,2001-11-15 17:00,ZBAA 151700Z AUTO 6SM 02/M03 A3024 RMK T00201030 IEM_DS3505
ZBAA,2001-11-15 18:00,ZBAA 151800Z AUTO 09004KT 2 1/2SM 01/M03 A3024 RMK SLP237 T00101033 52004 IEM_DS3505
ZBAA,2001-11-15 19:00,ZBAA 151900Z AUTO 6SM 01/M03 A3024 RMK T00101030 IEM_DS3505
ZBAA,2001-11-15 20:00,ZBAA 152000Z AUTO 33008KT 6SM 01/M03 A3024 RMK T00101030 IEM_DS3505
ZBAA,2001-11-15 21:00,ZBAA 152100Z AUTO 34006KT 3SM 01/M03 A3024 RMK SLP236 T00111032 57001 IEM_DS3505
ZBAA,2001-11-15 22:00,ZBAA 152200Z AUTO 34008KT 6SM 00/M03 A3024 RMK T00001030 IEM_DS3505
ZBAA,2001-11-15 23:00,ZBAA 152300Z AUTO 01006KT 6SM 02/M03 A3027 RMK T00201030 IEM_DS3505
ZBAA,2001-11-16 00:00,ZBAA 160000Z AUTO 34002KT 6SM 03/M03 RMK SLP250 T00301032 52014 IEM_DS3505
ZBAA,2001-11-16 01:00,ZBAA 160100Z AUTO 01004KT 6SM 06/M02 A3030 RMK T00601020 IEM_DS3505
ZBAA,2001-11-16 02:00,ZBAA 160200Z AUTO 35006KT 6SM 08/M03 A3030 RMK T00801030 IEM_DS3505
ZBAA,2001-11-16 03:00,ZBAA 160300Z AUTO 36008KT 12SM 12/M04 A3030 RMK SLP258 T01171039 52008 IEM_DS3505
ZBAA,2001-11-16 04:00,ZBAA 160400Z AUTO 30012KT 6SM 13/M04 A3030 RMK T01301040 IEM_DS3505
ZBAA,2001-11-16 05:00,ZBAA 160500Z AUTO 33010KT 6SM 14/M04 A3027 RMK T01401040 IEM_DS3505
ZBAA,2001-11-16 06:00,ZBAA 160600Z AUTO 36010KT 19SM 14/M07 A3024 RMK SLP242 T01421066 57015 IEM_DS3505
ZBAA,2001-11-16 07:00,ZBAA 160700Z AUTO 31012KT 6SM 14/M04 A3024 RMK T01401040 IEM_DS3505
ZBAA,2001-11-16 08:00,ZBAA 160800Z AUTO 6SM 13/M01 A3024 RMK T01301010 IEM_DS3505
ZBAA,2001-11-16 09:00,ZBAA 160900Z AUTO 34004KT 12SM 13/M04 A3027 RMK SLP243 T01301036 54000 IEM_DS3505
ZBAA,2001-11-16 10:00,ZBAA 161000Z AUTO 32006KT 6SM 10/M03 A3027 RMK T01001030 IEM_DS3505
ZBAA,2001-11-16 11:00,ZBAA 161100Z AUTO 33008KT 6SM 09/M03 A3030 RMK T00901030 IEM_DS3505
ZBAA,2001-11-16 12:00,ZBAA 161200Z AUTO 29004KT 6SM 09/M01 A3033 RMK SLP263 T00911010 52020 IEM_DS3505
ZBAA,2001-11-16 13:00,ZBAA 161300Z AUTO 35004KT 6SM 07/M02 A3036 RMK T00701020 IEM_DS3505
ZBAA,2001-11-16 14:00,ZBAA 161400Z AUTO 36006KT 6SM 05/M02 A3036 RMK T00501020 IEM_DS3505
ZBAA,2001-11-16 15:00,ZBAA 161500Z AUTO 02004KT 12SM 08/M04 A3036 RMK SLP276 T00851038 52014 IEM_DS3505
ZBAA,2001-11-16 16:00,ZBAA 161600Z AUTO 35008KT 6SM 05/M02 A3036 RMK T00501020 IEM_DS3505
ZBAA,2001-11-16 17:00,ZBAA 161700Z AUTO 36004KT 6SM 03/M03 A3036 RMK T00301030 IEM_DS3505
ZBAA,2001-11-16 18:00,ZBAA 161800Z AUTO 04004KT 11SM 06/M03 A3039 RMK SLP283 T00561026 52007 IEM_DS3505
ZBAA,2001-11-16 19:00,ZBAA 161900Z AUTO 34004KT 6SM 01/M03 A3039 RMK T00101030 IEM_DS3505
ZBAA,2001-11-16 20:00,ZBAA 162000Z AUTO 01006KT 6SM 02/M03 A3039 RMK T00201030 IEM_DS3505
ZBAA,2001-11-16 21:00,ZBAA 162100Z AUTO 02002KT 9SM 05/M03 A3039 RMK SLP284 T00511029 52001 IEM_DS3505
ZBAA,2001-11-16 22:00,ZBAA 162200Z AUTO 36004KT 6SM 01/M02 A3039 RMK T00101020 IEM_DS3505
ZBAA,2001-11-16 23:00,ZBAA 162300Z AUTO 35004KT 6SM 01/M03 A3039 RMK T00101030 IEM_DS3505
ZBAA,2001-11-17 00:00,ZBAA 170000Z AUTO 04004KT 6SM 05/M03 A3042 RMK SLP294 T00521028 52009 IEM_DS3505
ZBAA,2001-11-17 01:00,ZBAA 170100Z AUTO 02004KT 6SM 07/M01 A3042 RMK T00701010 IEM_DS3505
ZBAA,2001-11-17 02:00,ZBAA 170200Z AUTO 02004KT 6SM 09/M02 A3042 RMK T00901020 IEM_DS3505
ZBAA,2001-11-17 03:00,ZBAA 170300Z AUTO 34006KT 12SM 12/M05 A3042 RMK SLP294 T01151048 52001 IEM_DS3505
ZBAA,2001-11-17 04:00,ZBAA 170400Z AUTO 34004KT 6SM 13/M02 A3039 RMK T01301020 IEM_DS3505
ZBAA,2001-11-17 05:00,ZBAA 170500Z AUTO 6SM 14/M03 A3036 RMK T01401030 IEM_DS3505
ZBAA,2001-11-17 06:00,ZBAA 170600Z AUTO 34004KT 19SM 15/M05 A3033 RMK SLP272 T01481053 57022 IEM_DS3505
ZBAA,2001-11-17 07:00,ZBAA 170700Z AUTO 6SM 15/M01 A3033 RMK T01501010 IEM_DS3505
ZBAA,2001-11-17 08:00,ZBAA 170800Z AUTO 06002KT 6SM 14/M01 A3033 RMK T01401010 IEM_DS3505
ZBAA,2001-11-17 09:00,ZBAA 170900Z AUTO 22004KT 6SM 12/M01 A3033 RMK SLP271 T01211009 57001 IEM_DS3505
ZBAA,2001-11-17 10:00,ZBAA 171000Z AUTO 18002KT 6SM 10/M01 A3036 RMK T01001010 IEM_DS3505
ZBAA,2001-11-17 11:00,ZBAA 171100Z AUTO 23002KT 6SM 11/M01 A3036 RMK T01101010 IEM_DS3505
ZBAA,2001-11-17 12:00,ZBAA 171200Z AUTO 22004KT 6SM 09/M01 A3036 RMK SLP278 T00911007 52006 IEM_DS3505
ZBAA,2001-11-17 13:00,ZBAA 171300Z AUTO 06/00 A3036 RMK T00600000 IEM_DS3505
ZBAA,2001-11-17 14:00,ZBAA 171400Z AUTO 35004KT 4SM 05/00 A3036 RMK T00500000 IEM_DS3505
ZBAA,2001-11-17 15:00,ZBAA 171500Z AUTO 22002KT 5SM 06/01 A3036 RMK SLP275 T00610007 57002 IEM_DS3505
ZBAA,2001-11-17 16:00,ZBAA 171600Z AUTO 34006KT 6SM 03/M01 A3036 RMK T00301010 IEM_DS3505
ZBAA,2001-11-17 17:00,ZBAA 171700Z AUTO 35002KT 6SM 03/M01 A3036 RMK T00301010 IEM_DS3505
ZBAA,2001-11-17 18:00,ZBAA 171800Z AUTO 32004KT 4SM 04/M00 A3036 RMK SLP273 T00411002 57002 IEM_DS3505
ZBAA,2001-11-17 19:00,ZBAA 171900Z AUTO 31002KT 6SM 03/M01 A3033 RMK T00301010 IEM_DS3505
ZBAA,2001-11-17 20:00,ZBAA 172000Z AUTO 6SM 02/M01 A3033 RMK T00201010 IEM_DS3505
ZBAA,2001-11-17 21:00,ZBAA 172100Z AUTO 00000KT 3SM 02/M00 A3033 RMK SLP268 T00241001 57006 IEM_DS3505
ZBAA,2001-11-17 22:00,ZBAA 172200Z AUTO 6SM 02/M01 A3033 RMK T00201010 IEM_DS3505
ZBAA,2001-11-17 23:00,ZBAA 172300Z AUTO 36006KT 6SM 01/M02 A3033 RMK T00101020 IEM_DS3505
ZBAA,2001-11-18 00:00,ZBAA 180000Z AUTO 00000KT 1 1/4SM 02/M01 A3033 RMK SLP266 T00161007 57002 IEM_DS3505
ZBAA,2001-11-18 01:00,ZBAA 180100Z AUTO 36006KT 6SM 06/M01 A3033 RMK T00601010 IEM_DS3505
ZBAA,2001-11-18 02:00,ZBAA 180200Z AUTO 36006KT 6SM 09/M02 A3033 RMK T00901020 IEM_DS3505
ZBAA,2001-11-18 03:00,ZBAA 180300Z AUTO 36006KT 9SM 13/M04 A3030 RMK SLP258 T01301036 57007 IEM_DS3505
ZBAA,2001-11-18 04:00,ZBAA 180400Z AUTO 33006KT 6SM 13/M02 A3027 RMK T01301020 IEM_DS3505
ZBAA,2001-11-18 05:00,ZBAA 180500Z AUTO 32008KT 6SM 16/M04 A3024 RMK T01601040 IEM_DS3505
ZBAA,2001-11-18 06:00,ZBAA 180600Z AUTO 22004KT 6SM 16/M04 A3021 RMK SLP235 T01581040 57023 IEM_DS3505
ZBAA,2001-11-18 07:00,ZBAA 180700Z AUTO 31010KT 6SM 17/M07 A3021 RMK T01701070 IEM_DS3505
ZBAA,2001-11-18 08:00,ZBAA 180800Z AUTO 30012KT 6SM 16/M07 A3021 RMK T01601070 IEM_DS3505
ZBAA,2001-11-18 09:00,ZBAA 180900Z AUTO 22006KT 5SM 14/M02 A3021 RMK SLP230 T01361016 57005 IEM_DS3505
ZBAA,2001-11-18 10:00,ZBAA 181000Z AUTO 29004KT 6SM 14/M05 A3021 RMK T01401050 IEM_DS3505
ZBAA,2001-11-18 11:00,ZBAA 181100Z AUTO 11002KT 6SM 09/M03 A3024 RMK T00901030 IEM_DS3505
ZBAA,2001-11-18 12:00,ZBAA 181200Z AUTO 32004KT 4SM 08/00 A3024 RMK SLP235 T00750004 52004 IEM_DS3505
ZBAA,2001-11-18 13:00,ZBAA 181300Z AUTO 36006KT 6SM 06/M02 A3024 RMK T00601020 IEM_DS3505
ZBAA,2001-11-18 14:00,ZBAA 181400Z AUTO 34006KT 6SM 07/M03 A3024 RMK T00701030 IEM_DS3505
ZBAA,2001-11-18 15:00,ZBAA 181500Z AUTO 04004KT 5SM 06/M01 A3027 RMK SLP240 T00601010 52006 IEM_DS3505
ZBAA,2001-11-18 16:00,ZBAA 181600Z AUTO 35004KT 6SM 04/M02 A3027 RMK T00401020 IEM_DS3505
ZBAA,2001-11-18 17:00,ZBAA 181700Z AUTO 01002KT 6SM 05/M02 A3027 RMK T00501020 IEM_DS3505
ZBAA,2001-11-18 18:00,ZBAA 181800Z AUTO 36004KT 7SM 07/M02 A3027 RMK SLP242 T00661022 52002 IEM_DS3505
ZBAA,2001-11-18 19:00,ZBAA 181900Z AUTO 34006KT 6SM 03/M03 A3027 RMK T00301030 IEM_DS3505
ZBAA,2001-11-18 20:00,ZBAA 182000Z AUTO 36006KT 6SM 04/M03 A3027 RMK T00401030 IEM_DS3505
ZBAA,2001-11-18 21:00,ZBAA 182100Z AUTO 36004KT 6SM 06/M04 RMK SLP242 T00641036 54000 IEM_DS3505
ZBAA,2001-11-18 23:00,ZBAA 182300Z AUTO 36004KT 6SM 02/M03 A3027 RMK T00201030 IEM_DS3505
ZBAA,2001-11-19 00:00,ZBAA 190000Z AUTO 04004KT 6SM 07/M03 RMK SLP254 T00681030 52011 IEM_DS3505
ZBAA,2001-11-19 01:00,ZBAA 190100Z AUTO 01006KT 6SM 10/M02 A3030 RMK T01001020 IEM_DS3505
ZBAA,2001-11-19 02:00,ZBAA 190200Z AUTO 03006KT 6SM 12/M02 A3030 RMK T01201020 IEM_DS3505
ZBAA,2001-11-19 03:00,ZBAA 190300Z AUTO 02008KT 12SM 14/M01 RMK SLP248 T01391011 57005 IEM_DS3505
ZBAA,2001-11-19 04:00,ZBAA 190400Z AUTO 02006KT 6SM 14/M02 A3024 RMK T01401020 IEM_DS3505
ZBAA,2001-11-19 05:00,ZBAA 190500Z AUTO 02004KT 6SM 15/M02 A3024 RMK T01501020 IEM_DS3505
ZBAA,2001-11-19 06:00,ZBAA 190600Z AUTO 04004KT 6SM 16/M02 A3021 RMK T01601020 IEM_DS3505
ZBAA,2001-11-19 07:00,ZBAA 190700Z AUTO 03004KT 6SM 16/M01 A3021 RMK T01601010 IEM_DS3505
ZBAA,2001-11-19 08:00,ZBAA 190800Z AUTO 06002KT 6SM 16/M01 A3021 RMK T01601010 IEM_DS3505
ZBAA,2001-11-19 09:00,ZBAA 190900Z AUTO 36002KT 9SM 15/M02 A3021 RMK SLP233 T01521022 54000 IEM_DS3505
ZBAA,2001-11-19 10:00,ZBAA 191000Z AUTO 30006KT 6SM 14/M02 A3024 RMK T01401020 IEM_DS3505
ZBAA,2001-11-19 11:00,ZBAA 191100Z AUTO 28006KT 6SM 12/M02 A3024 RMK T01201020 IEM_DS3505
ZBAA,2001-11-19 12:00,ZBAA 191200Z AUTO 22004KT 6SM 09/01 A3024 RMK SLP238 T00940011 52005 IEM_DS3505
ZBAA,2001-11-19 13:00,ZBAA 191300Z AUTO 32006KT 6SM 09/M01 A3024 RMK T00901010 IEM_DS3505
ZBAA,2001-11-19 14:00,ZBAA 191400Z AUTO 35004KT 6SM 09/M01 A3024 RMK T00901010 IEM_DS3505
ZBAA,2001-11-19 15:00,ZBAA 191500Z AUTO 29004KT 3SM 08/01 A3024 RMK SLP239 T00840009 52001 IEM_DS3505
ZBAA,2001-11-19 16:00,ZBAA 191600Z AUTO 34002KT 6SM 07/00 A3024 RMK T00700000 IEM_DS3505
ZBAA,2001-11-19 17:00,ZBAA 191700Z AUTO 34004KT 6SM 06/00 A3024 RMK T00600000 IEM_DS3505
ZBAA,2001-11-19 18:00,ZBAA 191800Z AUTO 00000KT 2 1/2SM 04/00 A3024 RMK SLP238 T00390004 57001 IEM_DS3505
ZBAA,2001-11-19 19:00,ZBAA 191900Z AUTO 35002KT 6SM 05/01 A3024 RMK T00500010 IEM_DS3505
ZBAA,2001-11-19 20:00,ZBAA 192000Z AUTO 36004KT 6SM 04/00 A3021 RMK T00400000 IEM_DS3505
ZBAA,2001-11-19 21:00,ZBAA 192100Z AUTO 00000KT 2SM 04/01 A3021 RMK SLP232 T00430012 57006 IEM_DS3505
ZBAA,2001-11-19 22:00,ZBAA 192200Z AUTO 35006KT 6SM 03/00 A3021 RMK T00300000 IEM_DS3505
ZBAA,2001-11-19 23:00,ZBAA 192300Z AUTO 32004KT 6SM 05/00 A3024 RMK T00500000 IEM_DS3505
ZBAA,2001-11-20 00:00,ZBAA 200000Z AUTO 00000KT 2SM 05/01 A3024 RMK SLP242 T00470014 52009 IEM_DS3505
ZBAA,2001-11-20 01:00,ZBAA 200100Z AUTO 36004KT 6SM 09/01 A3024 RMK T00900010 IEM_DS3505
ZBAA,2001-11-20 02:00,ZBAA 200200Z AUTO 36004KT 6SM 12/01 A3024 RMK T01200010 IEM_DS3505
ZBAA,2001-11-20 03:00,ZBAA 200300Z AUTO 02004KT 9SM 14/M01 A3024 RMK SLP241 T01411008 54000 IEM_DS3505
ZBAA,2001-11-20 04:00,ZBAA 200400Z AUTO 36004KT 6SM 15/00 A3021 RMK T01500000 IEM_DS3505
ZBAA,2001-11-20 05:00,ZBAA 200500Z AUTO 33004KT 6SM 17/00 A3018 RMK T01700000 IEM_DS3505
ZBAA,2001-11-20 06:00,ZBAA 200600Z AUTO 25004KT 12SM 17/M01 A3015 RMK SLP216 T01731009 57025 IEM_DS3505
ZBAA,2001-11-20 07:00,ZBAA 200700Z AUTO 16002KT 6SM 18/00 A3015 RMK T01800000 IEM_DS3505
ZBAA,2001-11-20 08:00,ZBAA 200800Z AUTO 09002KT 6SM 17/00 A3015 RMK T01700000 IEM_DS3505
ZBAA,2001-11-20 09:00,ZBAA 200900Z AUTO 00000KT 6SM 15/02 A3018 RMK SLP218 T01460021 52002 IEM_DS3505
ZBAA,2001-11-20 10:00,ZBAA 201000Z AUTO 6SM 12/00 A3018 RMK T01200000 IEM_DS3505
ZBAA,2001-11-20 11:00,ZBAA 201100Z AUTO 5SM 10/01 A3018 RMK T01000010 IEM_DS3505
ZBAA,2001-11-20 12:00,ZBAA 201200Z AUTO 22004KT 5SM 10/02 A3021 RMK SLP222 T00980025 52004 IEM_DS3505
ZBAA,2001-11-20 13:00,ZBAA 201300Z AUTO 4SM 07/02 A3021 RMK T00700020 IEM_DS3505
ZBAA,2001-11-20 14:00,ZBAA 201400Z AUTO 36002KT 3SM 07/01 A3021 RMK T00700010 IEM_DS3505
ZBAA,2001-11-20 15:00,ZBAA 201500Z AUTO 29002KT 4SM 06/02 A3021 RMK SLP226 T00620020 52004 IEM_DS3505
ZBAA,2001-11-20 16:00,ZBAA 201600Z AUTO 34004KT 06/00 A3021 RMK T00600000 IEM_DS3505
ZBAA,2001-11-20 17:00,ZBAA 201700Z AUTO 33002KT 4SM 04/01 A3021 RMK T00400010 IEM_DS3505
ZBAA,2001-11-20 18:00,ZBAA 201800Z AUTO 00000KT 2 1/2SM 04/02 A3021 RMK SLP226 T00390016 54000 IEM_DS3505
ZBAA,2001-11-20 19:00,ZBAA 201900Z AUTO 33006KT 6SM 03/00 A3021 RMK T00300000 IEM_DS3505
ZBAA,2001-11-20 20:00,ZBAA 202000Z AUTO 34006KT 6SM 04/00 A3021 RMK T00400000 IEM_DS3505
ZBAA,2001-11-20 21:00,ZBAA 202100Z AUTO 00000KT 2SM 03/01 A3021 RMK SLP226 T00260007 54000 IEM_DS3505
ZBAA,2001-11-20 22:00,ZBAA 202200Z AUTO 34006KT 6SM 02/00 A3021 RMK T00200000 IEM_DS3505
ZBAA,2001-11-20 23:00,ZBAA 202300Z AUTO 34006KT 6SM 01/M01 A3021 RMK T00101010 IEM_DS3505
ZBAA,2001-11-21 00:00,ZBAA 210000Z AUTO 00000KT 2SM 04/01 A3021 RMK SLP235 T00350011 52008 IEM_DS3505
ZBAA,2001-11-21 01:00,ZBAA 210100Z AUTO 34004KT 6SM 06/02 A3021 RMK T00600020 IEM_DS3505
ZBAA,2001-11-21 02:00,ZBAA 210200Z AUTO 36004KT 6SM 09/01 A3024 RMK T00900010 IEM_DS3505
ZBAA,2001-11-21 03:00,ZBAA 210300Z AUTO 04004KT 9SM 13/M00 A3021 RMK SLP231 T01281004 57003 IEM_DS3505
ZBAA,2001-11-21 04:00,ZBAA 210400Z AUTO 01002KT 6SM 14/00 A3018 RMK T01400000 IEM_DS3505
ZBAA,2001-11-21 05:00,ZBAA 210500Z AUTO 30002KT 6SM 16/M01 A3015 RMK T01601010 IEM_DS3505
ZBAA,2001-11-21 06:00,ZBAA 210600Z AUTO 32002KT 7SM 18/M01 A3015 RMK SLP210 T01751013 57021 IEM_DS3505
ZBAA,2001-11-21 07:00,ZBAA 210700Z AUTO 21002KT 6SM 17/M01 A3012 RMK T01701010 IEM_DS3505
ZBAA,2001-11-21 08:00,ZBAA 210800Z AUTO 21002KT 6SM 17/M02 A3012 RMK T01701020 IEM_DS3505
ZBAA,2001-11-21 09:00,ZBAA 210900Z AUTO 20002KT 6SM 13/02 A3015 RMK SLP209 T01330023 57001 IEM_DS3505
ZBAA,2001-11-21 10:00,ZBAA 211000Z AUTO 20006KT 6SM 13/M01 A3015 RMK T01301010 IEM_DS3505
ZBAA,2001-11-21 11:00,ZBAA 211100Z AUTO 19002KT 5SM 11/00 A3018 RMK T01100000 IEM_DS3505
ZBAA,2001-11-21 12:00,ZBAA 211200Z AUTO 00000KT 2 1/2SM 08/04 A3018 RMK SLP218 T00800038 52008 IEM_DS3505
ZBAA,2001-11-21 13:00,ZBAA 211300Z AUTO 07/01 A3018 RMK T00700010 IEM_DS3505
ZBAA,2001-11-21 14:00,ZBAA 211400Z AUTO 4SM 06/01 A3021 RMK T00600010 IEM_DS3505
ZBAA,2001-11-21 15:00,ZBAA 211500Z AUTO 00000KT 1 1/4SM 06/02 A3021 RMK SLP222 T00550023 52005 IEM_DS3505
ZBAA,2001-11-21 18:00,ZBAA 211800Z AUTO 04004KT 3SM 02/00 A3021 RMK SLP222 T00240005 54000 IEM_DS3505
ZBAA,2001-11-21 19:00,ZBAA 211900Z AUTO 34004KT 6SM 02/M01 A3018 RMK T00201010 IEM_DS3505
ZBAA,2001-11-21 20:00,ZBAA 212000Z AUTO 34004KT 6SM 02/M01 A3018 RMK T00201010 IEM_DS3505
ZBAA,2001-11-21 21:00,ZBAA 212100Z AUTO 04004KT 3SM 03/M00 A3018 RMK SLP221 T00331005 57001 IEM_DS3505
ZBAA,2001-11-21 22:00,ZBAA 212200Z AUTO 34006KT 6SM 02/M01 A3018 RMK T00201010 IEM_DS3505
ZBAA,2001-11-21 23:00,ZBAA 212300Z AUTO 6SM 02/M01 A3018 RMK T00201010 IEM_DS3505
ZBAA,2001-11-22 00:00,ZBAA 220000Z AUTO 04004KT 5SM 02/M01 A3021 RMK SLP223 T00241013 52001 IEM_DS3505
ZBAA,2001-11-22 01:00,ZBAA 220100Z AUTO 36002KT 5SM 04/01 A3021 RMK T00400010 IEM_DS3505
ZBAA,2001-11-22 02:00,ZBAA 220200Z AUTO 35004KT 5SM 07/00 A3021 RMK T00700000 IEM_DS3505
ZBAA,2001-11-22 03:00,ZBAA 220300Z AUTO 04006KT 2 1/2SM 09/02 RMK SLP220 T00880021 57002 IEM_DS3505
ZBAA,2001-11-22 04:00,ZBAA 220400Z AUTO 02004KT 6SM 11/00 A3015 RMK T01100000 IEM_DS3505
ZBAA,2001-11-22 05:00,ZBAA 220500Z AUTO 01004KT 6SM 13/M01 A3012 RMK T01301010 IEM_DS3505
ZBAA,2001-11-22 06:00,ZBAA 220600Z AUTO 09004KT 3SM 13/01 A3009 RMK SLP194 T01290008 57026 IEM_DS3505
ZBAA,2001-11-22 07:00,ZBAA 220700Z AUTO 15002KT 5SM 14/01 A3009 RMK T01400010 IEM_DS3505
ZBAA,2001-11-22 08:00,ZBAA 220800Z AUTO 16004KT 3SM 12/03 A3009 RMK T01200030 IEM_DS3505
ZBAA,2001-11-22 09:00,ZBAA 220900Z AUTO 14004KT 2 1/2SM 09/03 A3009 RMK SLP193 T00920034 57001 IEM_DS3505
ZBAA,2001-11-22 10:00,ZBAA 221000Z AUTO 15002KT 1 1/2SM 08/03 A3012 RMK T00800030 IEM_DS3505
ZBAA,2001-11-22 11:00,ZBAA 221100Z AUTO 12002KT 1 1/2SM 06/03 A3012 RMK T00600030 IEM_DS3505
ZBAA,2001-11-22 12:00,ZBAA 221200Z AUTO 00000KT 2SM 06/04 A3012 RMK SLP202 T00590035 52008 IEM_DS3505
ZBAA,2001-11-22 13:00,ZBAA 221300Z AUTO 1SM 05/03 A3012 RMK T00500030 IEM_DS3505
ZBAA,2001-11-22 14:00,ZBAA 221400Z AUTO 1SM 04/03 A3015 RMK T00400030 IEM_DS3505
ZBAA,2001-11-22 15:00,ZBAA 221500Z AUTO 07002KT 1SM 04/02 A3012 RMK SLP200 T00370024 57001 IEM_DS3505
ZBAA,2001-11-22 16:00,ZBAA 221600Z AUTO 1SM 03/02 A3012 RMK T00300020 IEM_DS3505
ZBAA,2001-11-22 17:00,ZBAA 221700Z AUTO 34002KT 1SM 03/02 A3012 RMK T00300020 IEM_DS3505
ZBAA,2001-11-22 18:00,ZBAA 221800Z AUTO 04004KT 1/4SM 02/02 A3012 RMK SLP197 T00250020 57003 IEM_DS3505
ZBAA,2001-11-22 19:00,ZBAA 221900Z AUTO 34004KT 1SM 03/01 A3012 RMK T00300010 IEM_DS3505
ZBAA,2001-11-22 20:00,ZBAA 222000Z AUTO 35004KT 1SM 03/01 A3009 RMK T00300010 IEM_DS3505
ZBAA,2001-11-22 21:00,ZBAA 222100Z AUTO 04004KT 3/8SM 00/M00 A3009 RMK SLP190 T00021001 57008 IEM_DS3505
ZBAA,2001-11-22 22:00,ZBAA 222200Z AUTO 35004KT 1 1/2SM 01/00 A3009 RMK T00100000 IEM_DS3505
ZBAA,2001-11-22 23:00,ZBAA 222300Z AUTO 34004KT 1 1/4SM 01/M01 A3009 RMK T00101010 IEM_DS3505
ZBAA,2001-11-23 00:00,ZBAA 230000Z AUTO 07004KT 1 1/2SM 02/00 A3009 RMK SLP187 T00190000 57003 IEM_DS3505
ZBAA,2001-11-23 01:00,ZBAA 230100Z AUTO 35004KT 1 1/2SM 02/01 A3009 RMK T00200010 IEM_DS3505
ZBAA,2001-11-23 02:00,ZBAA 230200Z AUTO 35004KT 1 1/2SM 05/02 A3009 RMK T00500020 IEM_DS3505
ZBAA,2001-11-23 03:00,ZBAA 230300Z AUTO 09002KT 2SM 08/04 A3006 RMK SLP179 T00790037 57007 IEM_DS3505
ZBAA,2001-11-23 04:00,ZBAA 230400Z AUTO 2SM 09/02 A3003 RMK T00900020 IEM_DS3505
ZBAA,2001-11-23 05:00,ZBAA 230500Z AUTO 09002KT 2 1/2SM 10/03 A3000 RMK T01000030 IEM_DS3505
ZBAA,2001-11-23 06:00,ZBAA 230600Z AUTO 18004KT 2SM 11/05 A2997 RMK SLP148 T01120048 57031 IEM_DS3505
ZBAA,2001-11-23 07:00,ZBAA 230700Z AUTO 20002KT 2SM 12/03 A2994 RMK T01200030 IEM_DS3505
ZBAA,2001-11-23 08:00,ZBAA 230800Z AUTO 21002KT 2SM 11/03 A2994 RMK T01100030 IEM_DS3505
ZBAA,2001-11-23 09:00,ZBAA 230900Z AUTO 20002KT 1 1/4SM 09/05 A2994 RMK SLP148 T00880050 57001 IEM_DS3505
ZBAA,2001-11-23 10:00,ZBAA 231000Z AUTO 15002KT 1 1/4SM 06/03 A2997 RMK T00600030 IEM_DS3505
ZBAA,2001-11-23 11:00,ZBAA 231100Z AUTO 1SM 05/03 A2997 RMK T00500030 IEM_DS3505
ZBAA,2001-11-23 12:00,ZBAA 231200Z AUTO 22004KT 1SM 06/03 A3000 RMK SLP157 T00590030 52009 IEM_DS3505
ZBAA,2001-11-23 13:00,ZBAA 231300Z AUTO 36002KT 1SM 03/02 A3000 RMK T00300020 IEM_DS3505
ZBAA,2001-11-23 14:00,ZBAA 231400Z AUTO 1SM 04/03 A3000 RMK T00400030 IEM_DS3505
ZBAA,2001-11-23 15:00,ZBAA 231500Z AUTO 18006KT 1 1/4SM 06/02 A3003 RMK SLP162 T00580024 52006 IEM_DS3505
ZBAA,2001-11-23 16:00,ZBAA 231600Z AUTO 27006KT 1 1/2SM 09/M01 A3000 RMK T00901010 IEM_DS3505
ZBAA,2001-11-23 17:00,ZBAA 231700Z AUTO 6SM 08/M02 A3003 RMK T00801020 IEM_DS3505
ZBAA,2001-11-23 18:00,ZBAA 231800Z AUTO 32017KT 6SM 11/M08 A3006 RMK SLP163 T01061079 52001 IEM_DS3505
ZBAA,2001-11-23 19:00,ZBAA 231900Z AUTO 30016G25KT 6SM 09/M05 A3009 RMK T00901050 IEM_DS3505
ZBAA,2001-11-23 20:00,ZBAA 232000Z AUTO 31014KT 6SM 08/M05 A3009 RMK T00801050 IEM_DS3505
ZBAA,2001-11-23 21:00,ZBAA 232100Z AUTO 34008KT 12SM 09/M08 A3006 RMK SLP181 T00861076 52018 IEM_DS3505
ZBAA,2001-11-23 22:00,ZBAA 232200Z AUTO 30010KT 6SM 07/M06 A3006 RMK T00701060 IEM_DS3505
ZBAA,2001-11-23 23:00,ZBAA 232300Z AUTO 32016KT 6SM 07/M06 A3006 RMK T00701060 IEM_DS3505
ZBAA,2001-11-24 00:00,ZBAA 240000Z AUTO 32006KT 9SM 08/M08 A3009 RMK SLP185 T00821084 52004 IEM_DS3505
ZBAA,2001-11-24 01:00,ZBAA 240100Z AUTO 33012KT 6SM 09/M07 A3009 RMK T00901070 IEM_DS3505
ZBAA,2001-11-24 02:00,ZBAA 240200Z AUTO 34012G21KT 6SM 09/M07 A3012 RMK T00901070 IEM_DS3505
ZBAA,2001-11-24 03:00,ZBAA 240300Z AUTO 34012KT 19SM 10/M12 A3012 RMK SLP194 T00981124 52009 IEM_DS3505
ZBAA,2001-11-24 04:00,ZBAA 240400Z AUTO 34012KT 6SM 10/M08 A3009 RMK T01001080 IEM_DS3505
ZBAA,2001-11-24 05:00,ZBAA 240500Z AUTO 30014G25KT 6SM 10/M08 A3009 RMK T01001080 IEM_DS3505
ZBAA,2001-11-24 06:00,ZBAA 240600Z AUTO 32016KT 19SM 10/M13 A3009 RMK SLP190 T00991129 57004 IEM_DS3505
ZBAA,2001-11-24 07:00,ZBAA 240700Z AUTO 31017G27KT 6SM 09/M09 A3009 RMK T00901090 IEM_DS3505
ZBAA,2001-11-24 08:00,ZBAA 240800Z AUTO 31017KT 6SM 08/M10 A3012 RMK T00801100 IEM_DS3505
ZBAA,2001-11-24 09:00,ZBAA 240900Z AUTO 32012G25KT 16SM 07/M12 A3015 RMK SLP208 T00741121 52018 IEM_DS3505
ZBAA,2001-11-24 10:00,ZBAA 241000Z AUTO 32014KT 6SM 06/M11 A3018 RMK T00601110 IEM_DS3505
ZBAA,2001-11-24 11:00,ZBAA 241100Z AUTO 32012KT 6SM 05/M11 A3021 RMK T00501110 IEM_DS3505
ZBAA,2001-11-24 12:00,ZBAA 241200Z AUTO 36010KT 16SM 05/M13 A3024 RMK SLP233 T00511131 52024 IEM_DS3505
ZBAA,2001-11-24 13:00,ZBAA 241300Z AUTO 34014KT 6SM 03/M12 A3024 RMK T00301120 IEM_DS3505
ZBAA,2001-11-24 14:00,ZBAA 241400Z AUTO 34010KT 6SM 02/M12 A3027 RMK T00201120 IEM_DS3505
ZBAA,2001-11-24 15:00,ZBAA 241500Z AUTO 34012KT 12SM 03/M16 A3027 RMK SLP244 T00271164 52011 IEM_DS3505
ZBAA,2001-11-24 16:00,ZBAA 241600Z AUTO 32019KT 6SM 01/M17 A3030 RMK T00101170 IEM_DS3505
ZBAA,2001-11-24 17:00,ZBAA 241700Z AUTO 34012KT 6SM 00/M16 A3033 RMK T00001160 IEM_DS3505
ZBAA,2001-11-24 18:00,ZBAA 241800Z AUTO 34008KT 19SM 00/M16 A3033 RMK SLP264 T00031155 52020 IEM_DS3505
ZBAA,2001-11-24 19:00,ZBAA 241900Z AUTO 33016G25KT 6SM M01/M18 A3033 RMK T10101180 IEM_DS3505
ZBAA,2001-11-24 20:00,ZBAA 242000Z AUTO 33016KT 6SM M01/M18 A3036 RMK T10101180 IEM_DS3505
ZBAA,2001-11-24 21:00,ZBAA 242100Z AUTO 04006KT 19SM M01/M21 A3036 RMK SLP279 T10091211 52015 IEM_DS3505
ZBAA,2001-11-24 22:00,ZBAA 242200Z AUTO 31010KT 6SM M02/M17 A3039 RMK T10201170 IEM_DS3505
ZBAA,2001-11-24 23:00,ZBAA 242300Z AUTO 29006KT 6SM M03/M16 A3039 RMK T10301160 IEM_DS3505
ZBAA,2001-11-25 00:00,ZBAA 250000Z AUTO 34010KT 19SM M01/M19 A3042 RMK SLP292 T10061190 52013 IEM_DS3505
ZBAA,2001-11-25 01:00,ZBAA 250100Z AUTO 31006KT 6SM M01/M16 A3042 RMK T10101160 IEM_DS3505
ZBAA,2001-11-25 02:00,ZBAA 250200Z AUTO 30010KT 6SM 01/M17 A3042 RMK T00101170 IEM_DS3505
ZBAA,2001-11-25 03:00,ZBAA 250300Z AUTO 32012KT 19SM 03/M16 A3039 RMK SLP287 T00261157 57005 IEM_DS3505
ZBAA,2001-11-25 04:00,ZBAA 250400Z AUTO 29012KT 6SM 03/M17 A3036 RMK T00301170 IEM_DS3505
ZBAA,2001-11-25 05:00,ZBAA 250500Z AUTO 30016G25KT 6SM 04/M17 A3033 RMK T00401170 IEM_DS3505
ZBAA,2001-11-25 06:00,ZBAA 250600Z AUTO 32010KT 19SM 05/M24 A3030 RMK SLP265 T00511245 57022 IEM_DS3505
ZBAA,2001-11-25 07:00,ZBAA 250700Z AUTO 28016G25KT 6SM 05/M18 A3027 RMK T00501180 IEM_DS3505
ZBAA,2001-11-25 08:00,ZBAA 250800Z AUTO 28016KT 6SM 04/M17 A3030 RMK T00401170 IEM_DS3505
ZBAA,2001-11-25 09:00,ZBAA 250900Z AUTO 22006KT 19SM 03/M15 A3027 RMK SLP256 T00281153 57009 IEM_DS3505
ZBAA,2001-11-25 10:00,ZBAA 251000Z AUTO 29004KT 6SM 03/M15 A3030 RMK T00301150 IEM_DS3505
ZBAA,2001-11-25 11:00,ZBAA 251100Z AUTO 25004KT 6SM 03/M16 A3030 RMK T00301160 IEM_DS3505
ZBAA,2001-11-25 12:00,ZBAA 251200Z AUTO 22004KT 19SM 01/M14 A3030 RMK SLP259 T00101144 52002 IEM_DS3505
ZBAA,2001-11-25 13:00,ZBAA 251300Z AUTO 26004KT 6SM 01/M13 A3030 RMK T00101130 IEM_DS3505
ZBAA,2001-11-25 14:00,ZBAA 251400Z AUTO 29006KT 6SM 03/M13 A3030 RMK T00301130 IEM_DS3505
ZBAA,2001-11-25 15:00,ZBAA 251500Z AUTO 00000KT 19SM M00/M12 A3030 RMK SLP261 T10041120 52003 IEM_DS3505
ZBAA,2001-11-25 16:00,ZBAA 251600Z AUTO 30006KT 6SM 02/M15 A3030 RMK T00201150 IEM_DS3505
ZBAA,2001-11-25 17:00,ZBAA 251700Z AUTO 30002KT 6SM 02/M15 A3030 RMK T00201150 IEM_DS3505
ZBAA,2001-11-25 18:00,ZBAA 251800Z AUTO 32012KT 19SM 03/M16 A3030 RMK SLP264 T00301162 52003 IEM_DS3505
ZBAA,2001-11-25 19:00,ZBAA 251900Z AUTO 27006KT 6SM 00/M13 A3030 RMK T00001130 IEM_DS3505
ZBAA,2001-11-25 20:00,ZBAA 252000Z AUTO 32002KT 6SM M02/M13 A3033 RMK T10201130 IEM_DS3505
ZBAA,2001-11-25 21:00,ZBAA 252100Z AUTO 34008KT 19SM 02/M17 A3036 RMK SLP275 T00181172 52011 IEM_DS3505
ZBAA,2001-11-25 22:00,ZBAA 252200Z AUTO 34016KT 6SM 00/M17 A3039 RMK T00001170 IEM_DS3505
ZBAA,2001-11-25 23:00,ZBAA 252300Z AUTO 32012KT 6SM M01/M17 A3042 RMK T10101170 IEM_DS3505
ZBAA,2001-11-26 00:00,ZBAA 260000Z AUTO 36006KT 19SM 00/M17 A3045 RMK SLP305 T00011170 52029 IEM_DS3505
ZBAA,2001-11-26 01:00,ZBAA 260100Z AUTO 33008KT 6SM 01/M16 A3045 RMK T00101160 IEM_DS3505
ZBAA,2001-11-26 02:00,ZBAA 260200Z AUTO 33014KT 6SM 01/M17 A3047 RMK T00101170 IEM_DS3505
ZBAA,2001-11-26 03:00,ZBAA 260300Z AUTO 36008KT 12SM 02/M18 A3047 RMK SLP311 T00191180 52006 IEM_DS3505
ZBAA,2001-11-26 04:00,ZBAA 260400Z AUTO 33008KT 6SM 02/M16 A3045 RMK T00201160 IEM_DS3505
ZBAA,2001-11-26 05:00,ZBAA 260500Z AUTO 31012KT 6SM 03/M16 A3042 RMK T00301160 IEM_DS3505
ZBAA,2001-11-26 06:00,ZBAA 260600Z AUTO 32008G17KT 12SM 04/M13 A3039 RMK SLP284 T00381129 57026 IEM_DS3505
ZBAA,2001-11-26 07:00,ZBAA 260700Z AUTO 30014KT 6SM 03/M16 A3036 RMK T00301160 IEM_DS3505
ZBAA,2001-11-26 08:00,ZBAA 260800Z AUTO 32017KT 6SM 03/M17 A3036 RMK T00301170 IEM_DS3505
ZBAA,2001-11-26 09:00,ZBAA 260900Z AUTO 34004KT 7SM 03/M18 A3036 RMK SLP279 T00301183 57005 IEM_DS3505
ZBAA,2001-11-26 10:00,ZBAA 261000Z AUTO 32012KT 6SM 02/M16 A3036 RMK T00201160 IEM_DS3505
ZBAA,2001-11-26 11:00,ZBAA 261100Z AUTO 33008KT 6SM 01/M16 A3036 RMK T00101160 IEM_DS3505
ZBAA,2001-11-26 12:00,ZBAA 261200Z AUTO 22004KT 6SM 00/M12 A3036 RMK SLP282 T00011123 52002 IEM_DS3505
ZBAA,2001-11-26 13:00,ZBAA 261300Z AUTO 31004KT 6SM 01/M14 A3039 RMK T00101140 IEM_DS3505
ZBAA,2001-11-26 14:00,ZBAA 261400Z 36002MPS CAVOK M02/M14 Q1029 NOSIG
ZBAA,2001-11-26 15:00,ZBAA 261500Z 34002MPS CAVOK M04/M13 Q1029 NOSIG
ZBAA,2001-11-26 16:00,ZBAA 261600Z AUTO 35006KT 6SM M03/M13 A3039 RMK T10301130 IEM_DS3505
ZBAA,2001-11-26 17:00,ZBAA 261700Z AUTO 34004KT 6SM M04/M12 A3036 RMK T10401120 IEM_DS3505
ZBAA,2001-11-26 18:00,ZBAA 261800Z AUTO 22004KT 7SM M01/M14 A3036 RMK T10131141 IEM_DS3505
ZBAA,2001-11-26 19:00,ZBAA 261900Z AUTO 34002KT 6SM M04/M12 A3036 RMK T10401120 IEM_DS3505
ZBAA,2001-11-26 20:00,ZBAA 262000Z AUTO 28002KT 6SM M04/M12 A3033 RMK T10401120 IEM_DS3505
ZBAA,2001-11-26 21:00,ZBAA 262100Z AUTO 00000KT 9SM M05/M12 A3030 RMK SLP259 T10491119 57021 IEM_DS3505
ZBAA,2001-11-26 22:00,ZBAA 262200Z AUTO 03002KT 6SM M06/M10 A3030 RMK T10601100 IEM_DS3505
ZBAA,2001-11-26 23:00,ZBAA 262300Z AUTO 36006KT 6SM M06/M10 A3030 RMK T10601100 IEM_DS3505
ZBAA,2001-11-27 00:00,ZBAA 270000Z AUTO 20002KT 6SM M05/M10 A3030 RMK SLP259 T10481102 54000 IEM_DS3505
ZBAA,2001-11-27 01:00,ZBAA 270100Z AUTO 27002KT 6SM M02/M10 A3030 RMK T10201100 IEM_DS3505
ZBAA,2001-11-27 02:00,ZBAA 270200Z AUTO 6SM M01/M12 A3030 RMK T10101120 IEM_DS3505
ZBAA,2001-11-27 03:00,ZBAA 270300Z AUTO 11004KT 9SM 02/M14 A3027 RMK SLP251 T00241138 57007 IEM_DS3505
ZBAA,2001-11-27 04:00,ZBAA 270400Z AUTO 6SM 03/M12 A3024 RMK T00301120 IEM_DS3505
ZBAA,2001-11-27 05:00,ZBAA 270500Z AUTO 20004KT 6SM 04/M12 A3018 RMK T00401120 IEM_DS3505
ZBAA,2001-11-27 06:00,ZBAA 270600Z AUTO 20004KT 12SM 05/M13 A3015 RMK SLP215 T00531126 57036 IEM_DS3505
ZBAA,2001-11-27 07:00,ZBAA 270700Z AUTO 16006KT 6SM 05/M12 A3012 RMK T00501120 IEM_DS3505
ZBAA,2001-11-27 08:00,ZBAA 270800Z AUTO 16006KT 6SM 04/M11 A3012 RMK T00401110 IEM_DS3505
ZBAA,2001-11-27 09:00,ZBAA 270900Z AUTO 22004KT 6SM 03/M11 A3012 RMK SLP201 T00311106 57015 IEM_DS3505
ZBAA,2001-11-27 10:00,ZBAA 271000Z AUTO 16004KT 6SM 01/M11 A3012 RMK T00101110 IEM_DS3505
ZBAA,2001-11-27 11:00,ZBAA 271100Z AUTO 19006KT 6SM 02/M12 A3012 RMK T00201120 IEM_DS3505
ZBAA,2001-11-27 12:00,ZBAA 271200Z AUTO 14004KT 6SM 00/M10 A3012 RMK SLP198 T00021103 57003 IEM_DS3505
ZBAA,2001-11-27 13:00,ZBAA 271300Z AUTO 3SM M02/M08 A3012 RMK T10201080 IEM_DS3505
ZBAA,2001-11-27 14:00,ZBAA 271400Z AUTO 03002KT 3SM M02/M10 A3012 RMK T10201100 IEM_DS3505
ZBAA,2001-11-27 15:00,ZBAA 271500Z AUTO 14002KT 6SM M04/M08 A3009 RMK SLP190 T10361081 57007 IEM_DS3505
ZBAA,2001-11-27 16:00,ZBAA 271600Z AUTO 35002KT 2 1/2SM M02/M11 A3009 RMK T10201110 IEM_DS3505
ZBAA,2001-11-27 17:00,ZBAA 271700Z AUTO 35002KT 2 1/2SM M05/M09 A3006 RMK T10501090 IEM_DS3505
ZBAA,2001-11-27 18:00,ZBAA 271800Z AUTO 02004KT 5SM M02/M10 A3006 RMK SLP181 T10191095 57009 IEM_DS3505
ZBAA,2001-11-27 19:00,ZBAA 271900Z AUTO 2 1/2SM M03/M08 A3003 RMK T10301080 IEM_DS3505
ZBAA,2001-11-27 20:00,ZBAA 272000Z AUTO 34004KT 2 1/2SM M04/M08 A3003 RMK T10401080 IEM_DS3505
ZBAA,2001-11-27 21:00,ZBAA 272100Z AUTO 04004KT 6SM M02/M10 A3000 RMK SLP159 T10191095 57022 IEM_DS3505
ZBAA,2001-11-27 22:00,ZBAA 272200Z AUTO 2 1/2SM M03/M08 A2997 RMK T10301080 IEM_DS3505
ZBAA,2001-11-27 23:00,ZBAA 272300Z AUTO 35004KT 2 1/2SM M03/M06 A2997 RMK T10301060 IEM_DS3505
ZBAA,2001-11-28 00:00,ZBAA 280000Z AUTO 04002KT 4SM M01/M10 A2997 RMK SLP154 T10121095 57005 IEM_DS3505
ZBAA,2001-11-28 01:00,ZBAA 280100Z AUTO 35006KT 3SM 00/M06 A3000 RMK T00001060 IEM_DS3505
ZBAA,2001-11-28 02:00,ZBAA 280200Z AUTO 02004KT 4SM 01/M06 A3000 RMK T00101060 IEM_DS3505
ZBAA,2001-11-28 03:00,ZBAA 280300Z AUTO 04006KT 4SM 03/M10 A2997 RMK SLP156 T00291098 52002 IEM_DS3505
ZBAA,2001-11-28 04:00,ZBAA 280400Z AUTO 02002KT 5SM 05/M09 A2997 RMK T00501090 IEM_DS3505
ZBAA,2001-11-28 05:00,ZBAA 280500Z AUTO 5SM 06/M09 A2994 RMK T00601090 IEM_DS3505
ZBAA,2001-11-28 06:00,ZBAA 280600Z AUTO 07004KT 5SM 06/M09 A2991 RMK SLP137 T00571087 57019 IEM_DS3505
ZBAA,2001-11-28 07:00,ZBAA 280700Z AUTO 35002KT 3SM 07/M09 A2991 RMK T00701090 IEM_DS3505
ZBAA,2001-11-28 08:00,ZBAA 280800Z AUTO 3SM 06/M08 A2994 RMK T00601080 IEM_DS3505
ZBAA,2001-11-28 09:00,ZBAA 280900Z AUTO 00000KT 4SM 04/M06 A2994 RMK SLP141 T00391057 52004 IEM_DS3505
ZBAA,2001-11-28 10:00,ZBAA 281000Z AUTO 34002KT 2 1/2SM 04/M08 A2997 RMK T00401080 IEM_DS3505
ZBAA,2001-11-28 11:00,ZBAA 281100Z AUTO 32002KT 3SM 04/M08 A3000 RMK T00401080 IEM_DS3505
ZBAA,2001-11-28 12:00,ZBAA 281200Z AUTO 00000KT 4SM 02/M06 A3003 RMK SLP169 T00161058 52028 IEM_DS3505
ZBAA,2001-11-28 13:00,ZBAA 281300Z AUTO 28002KT 3SM 03/M08 A3003 RMK T00301080 IEM_DS3505
ZBAA,2001-11-28 14:00,ZBAA 281400Z AUTO 2 1/2SM 01/M06 A3006 RMK T00101060 IEM_DS3505
ZBAA,2001-11-28 15:00,ZBAA 281500Z AUTO 32004KT 3SM 02/M05 A3009 RMK SLP185 T00151052 52016 IEM_DS3505
ZBAA,2001-11-28 16:00,ZBAA 281600Z AUTO 33002KT 2 1/2SM 01/M06 A3009 RMK T00101060 IEM_DS3505
ZBAA,2001-11-28 17:00,ZBAA 281700Z AUTO 35006KT 2 1/2SM 00/M06 A3006 RMK T00001060 IEM_DS3505
ZBAA,2001-11-28 18:00,ZBAA 281800Z AUTO 02002KT 4SM 02/M05 A3009 RMK SLP184 T00221054 57001 IEM_DS3505
ZBAA,2001-11-28 19:00,ZBAA 281900Z AUTO 35008KT 6SM 02/M06 A3009 RMK T00201060 IEM_DS3505
ZBAA,2001-11-28 20:00,ZBAA 282000Z AUTO 35006KT 6SM 03/M07 A3009 RMK T00301070 IEM_DS3505
ZBAA,2001-11-28 21:00,ZBAA 282100Z AUTO 04004KT 6SM 03/M04 A3012 RMK SLP192 T00341045 52008 IEM_DS3505
ZBAA,2001-11-28 22:00,ZBAA 282200Z AUTO 35004KT 6SM 01/M08 A3012 RMK T00101080 IEM_DS3505
ZBAA,2001-11-28 23:00,ZBAA 282300Z AUTO 35004KT 6SM 02/M10 A3015 RMK T00201100 IEM_DS3505
ZBAA,2001-11-29 00:00,ZBAA 290000Z AUTO 04004KT 9SM 02/M06 A3018 RMK SLP213 T00241064 52021 IEM_DS3505
ZBAA,2001-11-29 01:00,ZBAA 290100Z AUTO 01006KT 6SM 04/M09 A3018 RMK T00401090 IEM_DS3505
ZBAA,2001-11-29 02:00,ZBAA 290200Z AUTO 02006KT 6SM 06/M10 A3018 RMK T00601100 IEM_DS3505
ZBAA,2001-11-29 03:00,ZBAA 290300Z AUTO 04008KT 12SM 07/M12 A3018 RMK SLP216 T00671118 52003 IEM_DS3505
ZBAA,2001-11-29 04:00,ZBAA 290400Z AUTO 01006KT 6SM 08/M12 A3015 RMK T00801120 IEM_DS3505
ZBAA,2001-11-29 05:00,ZBAA 290500Z AUTO 02004KT 6SM 09/M12 A3012 RMK T00901120 IEM_DS3505
ZBAA,2001-11-29 06:00,ZBAA 290600Z AUTO 32004KT 9SM 09/M12 A3009 RMK SLP198 T00921120 57018 IEM_DS3505
ZBAA,2001-11-29 07:00,ZBAA 290700Z AUTO 31014KT 6SM 10/M15 A3009 RMK T01001150 IEM_DS3505
ZBAA,2001-11-29 08:00,ZBAA 290800Z AUTO 29008G17KT 6SM 09/M15 A3009 RMK T00901150 IEM_DS3505
ZBAA,2001-11-29 09:00,ZBAA 290900Z AUTO 20004KT 6SM 07/M09 A3012 RMK SLP199 T00671094 52001 IEM_DS3505
ZBAA,2001-11-29 10:00,ZBAA 291000Z AUTO 6SM 05/M12 A3015 RMK T00501120 IEM_DS3505
ZBAA,2001-11-29 11:00,ZBAA 291100Z AUTO 28002KT 6SM 04/M11 A3015 RMK T00401110 IEM_DS3505
ZBAA,2001-11-29 12:00,ZBAA 291200Z AUTO 22004KT 6SM 02/M07 A3018 RMK SLP217 T00221067 52018 IEM_DS3505
ZBAA,2001-11-29 13:00,ZBAA 291300Z AUTO 35006KT 6SM 03/M11 A3021 RMK T00301110 IEM_DS3505
ZBAA,2001-11-29 14:00,ZBAA 291400Z AUTO 6SM 01/M11 A3024 RMK T00101110 IEM_DS3505
ZBAA,2001-11-29 15:00,ZBAA 291500Z AUTO 00000KT 7SM 02/M10 A3024 RMK SLP236 T00181103 52019 IEM_DS3505
ZBAA,2001-11-29 16:00,ZBAA 291600Z AUTO 35008KT 6SM 01/M14 A3024 RMK T00101140 IEM_DS3505
ZBAA,2001-11-29 17:00,ZBAA 291700Z AUTO 36006KT 6SM 00/M14 A3024 RMK T00001140 IEM_DS3505
ZBAA,2001-11-29 18:00,ZBAA 291800Z AUTO 36008KT 19SM 03/M15 A3027 RMK SLP240 T00281153 52004 IEM_DS3505
ZBAA,2001-11-29 19:00,ZBAA 291900Z AUTO 09002KT 6SM M01/M13 A3027 RMK T10101130 IEM_DS3505
ZBAA,2001-11-29 20:00,ZBAA 292000Z AUTO 36006KT 6SM M01/M14 A3027 RMK T10101140 IEM_DS3505
ZBAA,2001-11-29 21:00,ZBAA 292100Z AUTO 07004KT 10SM M02/M12 A3027 RMK SLP242 T10171120 52002 IEM_DS3505
ZBAA,2001-11-29 22:00,ZBAA 292200Z AUTO 6SM M01/M14 A3027 RMK T10101140 IEM_DS3505
ZBAA,2001-11-29 23:00,ZBAA 292300Z AUTO 6SM M03/M14 A3027 RMK T10301140 IEM_DS3505
ZBAA,2001-11-30 00:00,ZBAA 300000Z AUTO 00000KT 6SM M02/M12 A3030 RMK SLP254 T10211115 52011 IEM_DS3505
ZBAA,2001-11-30 01:00,ZBAA 300100Z AUTO 02004KT 6SM 00/M14 A3030 RMK T00001140 IEM_DS3505
ZBAA,2001-11-30 02:00,ZBAA 300200Z AUTO 02004KT 6SM 02/M14 A3030 RMK T00201140 IEM_DS3505
ZBAA,2001-11-30 03:00,ZBAA 300300Z AUTO 07004KT 7SM 03/M14 A3027 RMK SLP257 T00341138 52004 IEM_DS3505
ZBAA,2001-11-30 04:00,ZBAA 300400Z AUTO 09002KT 6SM 04/M15 A3024 RMK T00401150 IEM_DS3505
ZBAA,2001-11-30 05:00,ZBAA 300500Z AUTO 19006KT 6SM 05/M14 A3021 RMK T00501140 IEM_DS3505
ZBAA,2001-11-30 06:00,ZBAA 300600Z AUTO 22006KT 9SM 06/M15 A3018 RMK SLP222 T00561147 57035 IEM_DS3505
ZBAA,2001-11-30 07:00,ZBAA 300700Z AUTO 19008KT 6SM 06/M12 A3015 RMK T00601120 IEM_DS3505
ZBAA,2001-11-30 08:00,ZBAA 300800Z AUTO 18006KT 6SM 05/M11 A3015 RMK T00501110 IEM_DS3505
ZBAA,2001-11-30 09:00,ZBAA 300900Z AUTO 22004KT 6SM 04/M10 A3015 RMK SLP208 T00361102 57014 IEM_DS3505
ZBAA,2001-11-30 10:00,ZBAA 301000Z AUTO 15002KT 6SM 02/M11 A3012 RMK T00201110 IEM_DS3505
ZBAA,2001-11-30 11:00,ZBAA 301100Z AUTO 00/M10 A3015 RMK T00001100 IEM_DS3505
ZBAA,2001-11-30 12:00,ZBAA 301200Z AUTO 00000KT 6SM M00/M11 A3015 RMK SLP207 T10021106 57002 IEM_DS3505
ZBAA,2001-11-30 13:00,ZBAA 301300Z AUTO M01/M08 A3012 RMK T10101080 IEM_DS3505
ZBAA,2001-11-30 14:00,ZBAA 301400Z AUTO 35004KT 3SM M03/M09 A3015 RMK T10301090 IEM_DS3505
ZBAA,2001-11-30 15:00,ZBAA 301500Z AUTO 07002KT 6SM M02/M08 A3012 RMK SLP204 T10191078 57002 IEM_DS3505
ZBAA,2001-11-30 16:00,ZBAA 301600Z AUTO 35002KT 2 1/2SM M02/M09 A3015 RMK T10201090 IEM_DS3505
ZBAA,2001-11-30 17:00,ZBAA 301700Z AUTO 31004KT 2SM M01/M08 A3012 RMK T10101080 IEM_DS3505
ZBAA,2001-11-30 18:00,ZBAA 301800Z AUTO 02004KT 6SM M01/M09 A3012 RMK SLP200 T10101087 57004 IEM_DS3505
ZBAA,2001-11-30 19:00,ZBAA 301900Z AUTO 34006KT 4SM M01/M06 A3015 RMK T10101060 IEM_DS3505
ZBAA,2001-11-30 20:00,ZBAA 302000Z AUTO 34008KT 6SM 01/M08 A3018 RMK T00101080 IEM_DS3505
ZBAA,2001-11-30 21:00,ZBAA 302100Z AUTO 36014KT 9SM 02/M07 A3018 RMK SLP212 T00251067 52012 IEM_DS3505
ZBAA,2001-11-30 22:00,ZBAA 302200Z AUTO 32017KT 6SM 02/M13 A3021 RMK T00201130 IEM_DS3505
ZBAA,2001-11-30 23:00,ZBAA 302300Z AUTO 32019G29KT 6SM 02/M18 A3024 RMK T00201180 IEM_DS3505
ZBAA,2001-12-01 00:00,ZBAA 010000Z AUTO 34010KT 9SM 02/M15 A3027 RMK SLP252 T00161152 52040 IEM_DS3505
ZBAA,2001-12-01 01:00,ZBAA 010100Z AUTO 32014G23KT 6SM 01/M18 A3033 RMK T00101180 IEM_DS3505
ZBAA,2001-12-01 02:00,ZBAA 010200Z AUTO 32016KT 6SM 02/M18 A3033 RMK T00201180 IEM_DS3505
ZBAA,2001-12-01 03:00,ZBAA 010300Z AUTO 36012KT 19SM 02/M18 A3033 RMK SLP268 T00171175 52015 IEM_DS3505
ZBAA,2001-12-01 04:00,ZBAA 010400Z AUTO 32012KT 6SM 03/M18 A3033 RMK T00301180 IEM_DS3505
ZBAA,2001-12-01 05:00,ZBAA 010500Z AUTO 04006KT 6SM 03/M17 A3033 RMK T00301170 IEM_DS3505
ZBAA,2001-12-01 06:00,ZBAA 010600Z AUTO 32008KT 19SM 04/M19 A3030 RMK SLP260 T00381186 57007 IEM_DS3505
ZBAA,2001-12-01 07:00,ZBAA 010700Z AUTO 05004KT 6SM 03/M17 A3030 RMK T00301170 IEM_DS3505
ZBAA,2001-12-01 08:00,ZBAA 010800Z AUTO 05004KT 6SM 03/M18 A3030 RMK T00301180 IEM_DS3505
ZBAA,2001-12-01 09:00,ZBAA 010900Z AUTO 09004KT 16SM 01/M16 A3030 RMK SLP262 T00111157 52002 IEM_DS3505
ZBAA,2001-12-01 10:00,ZBAA 011000Z AUTO 6SM 00/M17 A3033 RMK T00001170 IEM_DS3505
ZBAA,2001-12-01 11:00,ZBAA 011100Z AUTO 08002KT 6SM M01/M14 A3033 RMK T10101140 IEM_DS3505
ZBAA,2001-12-01 12:00,ZBAA 011200Z AUTO 00000KT 7SM M02/M14 A3036 RMK SLP274 T10171136 52011 IEM_DS3505
ZBAA,2001-12-01 13:00,ZBAA 011300Z AUTO 5SM M02/M14 A3036 RMK T10201140 IEM_DS3505
ZBAA,2001-12-01 14:00,ZBAA 011400Z AUTO M04/M10 A3036 RMK T10401100 IEM_DS3505
ZBAA,2001-12-01 15:00,ZBAA 011500Z AUTO 00000KT 6SM M04/M12 A3036 RMK SLP277 T10361116 52003 IEM_DS3505
ZBAA,2001-12-01 16:00,ZBAA 011600Z AUTO 24002KT 2 1/2SM M03/M13 A3036 RMK T10301130 IEM_DS3505
ZBAA,2001-12-01 17:00,ZBAA 011700Z AUTO 2 1/2SM M06/M09 A3036 RMK T10601090 IEM_DS3505
ZBAA,2001-12-01 18:00,ZBAA 011800Z AUTO 09004KT 6SM M06/M09 A3033 RMK SLP269 T10571090 57008 IEM_DS3505
ZBAA,2001-12-01 19:00,ZBAA 011900Z AUTO 36002KT 2 1/2SM M06/M10 A3033 RMK T10601100 IEM_DS3505
ZBAA,2001-12-01 20:00,ZBAA 012000Z AUTO 33002KT 2 1/2SM M06/M11 A3030 RMK T10601110 IEM_DS3505
ZBAA,2001-12-01 21:00,ZBAA 012100Z AUTO 00000KT 6SM M06/M11 A3030 RMK SLP258 T10551107 57011 IEM_DS3505
ZBAA,2001-12-01 22:00,ZBAA 012200Z AUTO 35002KT 3SM M07/M12 A3030 RMK T10701120 IEM_DS3505
ZBAA,2001-12-01 23:00,ZBAA 012300Z AUTO 35002KT 3SM M06/M12 A3033 RMK T10601120 IEM_DS3505
ZBAA,2001-12-02 00:00,ZBAA 020000Z AUTO 00000KT 2 1/2SM M05/M09 A3033 RMK SLP267 T10541086 52009 IEM_DS3505
ZBAA,2001-12-02 01:00,ZBAA 020100Z AUTO 02002KT 3SM M05/M09 A3033 RMK T10501090 IEM_DS3505
ZBAA,2001-12-02 02:00,ZBAA 020200Z AUTO 36004KT 3SM M03/M09 A3036 RMK T10301090 IEM_DS3505
ZBAA,2001-12-02 03:00,ZBAA 020300Z AUTO 04004KT 2 1/2SM M01/M10 A3036 RMK SLP273 T10071099 52006 IEM_DS3505
ZBAA,2001-12-02 04:00,ZBAA 020400Z AUTO 26002KT 5SM 00/M13 A3030 RMK T00001130 IEM_DS3505
ZBAA,2001-12-02 05:00,ZBAA 020500Z AUTO 19004KT 6SM 01/M12 A3030 RMK T00101120 IEM_DS3505
ZBAA,2001-12-02 06:00,ZBAA 020600Z AUTO 22004KT 9SM 02/M15 A3030 RMK SLP259 T00231149 57014 IEM_DS3505
ZBAA,2001-12-02 07:00,ZBAA 020700Z AUTO 19004KT 5SM 02/M11 A3027 RMK T00201110 IEM_DS3505
ZBAA,2001-12-02 08:00,ZBAA 020800Z AUTO 17006KT 3SM 02/M09 A3027 RMK T00201090 IEM_DS3505
ZBAA,2001-12-02 09:00,ZBAA 020900Z AUTO 22006KT 6SM 01/M12 A3030 RMK SLP261 T00141122 52002 IEM_DS3505
ZBAA,2001-12-02 10:00,ZBAA 021000Z AUTO 24006KT 5SM 01/M12 A3033 RMK T00101120 IEM_DS3505
ZBAA,2001-12-02 11:00,ZBAA 021100Z AUTO 02002KT M01/M10 A3033 RMK T10101100 IEM_DS3505
ZBAA,2001-12-02 12:00,ZBAA 021200Z AUTO 32004KT 6SM 01/M12 A3036 RMK SLP277 T00081116 52016 IEM_DS3505
ZBAA,2001-12-02 13:00,ZBAA 021300Z AUTO 3SM M02/M07 A3039 RMK T10201070 IEM_DS3505
ZBAA,2001-12-02 14:00,ZBAA 021400Z AUTO 07002KT M01/M11 A3042 RMK T10101110 IEM_DS3505
ZBAA,2001-12-02 15:00,ZBAA 021500Z AUTO 02002KT 9SM 00/M11 A3045 RMK SLP299 T00041112 52022 IEM_DS3505
ZBAA,2001-12-02 16:00,ZBAA 021600Z AUTO 03006KT 00/M13 A3045 RMK T00001130 IEM_DS3505
ZBAA,2001-12-02 17:00,ZBAA 021700Z AUTO 02006KT 6SM 00/M14 A3045 RMK T00001140 IEM_DS3505
ZBAA,2001-12-02 18:00,ZBAA 021800Z AUTO 04004KT 7SM 00/M16 A3045 RMK SLP304 T00001161 52005 IEM_DS3505
ZBAA,2001-12-02 19:00,ZBAA 021900Z AUTO 02010KT 6SM M02/M14 A3045 RMK T10201140 IEM_DS3505
ZBAA,2001-12-02 20:00,ZBAA 022000Z AUTO 01008KT 6SM M02/M15 A3045 RMK T10201150 IEM_DS3505
ZBAA,2001-12-02 21:00,ZBAA 022100Z AUTO 04006KT 9SM M01/M17 A3042 RMK SLP300 T10141167 57004 IEM_DS3505
ZBAA,2001-12-02 22:00,ZBAA 022200Z AUTO 01008KT 6SM M03/M15 A3042 RMK T10301150 IEM_DS3505
ZBAA,2001-12-02 23:00,ZBAA 022300Z AUTO 02002KT 6SM M03/M15 A3045 RMK T10301150 IEM_DS3505
ZBAA,2001-12-03 00:00,ZBAA 030000Z AUTO 02006KT 11SM M02/M18 A3045 RMK SLP303 T10241175 52003 IEM_DS3505
ZBAA,2001-12-03 01:00,ZBAA 030100Z AUTO 01006KT 6SM M02/M15 A3045 RMK T10201150 IEM_DS3505
ZBAA,2001-12-03 02:00,ZBAA 030200Z AUTO 02006KT 6SM M01/M15 A3045 RMK T10101150 IEM_DS3505
ZBAA,2001-12-03 03:00,ZBAA 030300Z AUTO 04004KT 9SM 00/M21 A3045 RMK SLP307 T00051207 52004 IEM_DS3505
ZBAA,2001-12-03 04:00,ZBAA 030400Z AUTO 03004KT 6SM 02/M17 A3042 RMK T00201170 IEM_DS3505
ZBAA,2001-12-03 05:00,ZBAA 030500Z AUTO 01002KT 6SM 03/M17 A3039 RMK T00301170 IEM_DS3505
ZBAA,2001-12-03 06:00,ZBAA 030600Z AUTO 00000KT 16SM 03/M15 A3036 RMK SLP284 T00271149 57023 IEM_DS3505
ZBAA,2001-12-03 07:00,ZBAA 030700Z AUTO 11002KT 6SM 04/M17 A3033 RMK T00401170 IEM_DS3505
ZBAA,2001-12-03 08:00,ZBAA 030800Z AUTO 17004KT 6SM 03/M17 A3033 RMK T00301170 IEM_DS3505
ZBAA,2001-12-03 09:00,ZBAA 030900Z AUTO 20004KT 9SM 01/M15 A3036 RMK SLP277 T00121147 57007 IEM_DS3505
ZBAA,2001-12-03 10:00,ZBAA 031000Z AUTO 19006KT 6SM 01/M15 A3036 RMK T00101150 IEM_DS3505
ZBAA,2001-12-03 11:00,ZBAA 031100Z AUTO 20004KT 6SM 01/M15 A3036 RMK T00101150 IEM_DS3505
ZBAA,2001-12-03 12:00,ZBAA 031200Z AUTO 22002KT 6SM M02/M11 RMK SLP282 T10171114 52005 IEM_DS3505
ZBAA,2001-12-03 13:00,ZBAA 031300Z AUTO 6SM M02/M13 A3039 RMK T10201130 IEM_DS3505
ZBAA,2001-12-03 14:00,ZBAA 031400Z AUTO 10002KT M03/M10 A3042 RMK T10301100 IEM_DS3505
ZBAA,2001-12-03 15:00,ZBAA 031500Z AUTO 00000KT 3SM M03/M08 A3042 RMK SLP293 T10331085 52011 IEM_DS3505
ZBAA,2001-12-03 16:00,ZBAA 031600Z AUTO 3SM M03/M10 A3042 RMK T10301100 IEM_DS3505
ZBAA,2001-12-03 17:00,ZBAA 031700Z AUTO 3SM M03/M11 A3039 RMK T10301110 IEM_DS3505
ZBAA,2001-12-03 18:00,ZBAA 031800Z AUTO 00000KT 6SM M02/M10 A3039 RMK SLP285 T10251105 57008 IEM_DS3505
ZBAA,2001-12-03 19:00,ZBAA 031900Z AUTO 34004KT 3SM M04/M09 A3039 RMK T10401090 IEM_DS3505
ZBAA,2001-12-03 20:00,ZBAA 032000Z AUTO 33002KT 3SM M03/M09 A3039 RMK T10301090 IEM_DS3505
ZBAA,2001-12-03 21:00,ZBAA 032100Z AUTO 00000KT 6SM M02/M11 A3039 RMK SLP291 T10241107 52006 IEM_DS3505
ZBAA,2001-12-03 22:00,ZBAA 032200Z AUTO 36006KT 5SM M02/M10 A3039 RMK T10201100 IEM_DS3505
ZBAA,2001-12-03 23:00,ZBAA 032300Z AUTO 34004KT 6SM M02/M10 A3042 RMK T10201100 IEM_DS3505
ZBAA,2001-12-04 00:00,ZBAA 040000Z AUTO 02002KT 6SM M01/M08 A3042 RMK SLP303 T10131079 52012 IEM_DS3505
ZBAA,2001-12-04 01:00,ZBAA 040100Z AUTO 34002KT 6SM M01/M10 A3045 RMK T10101100 IEM_DS3505
ZBAA,2001-12-04 02:00,ZBAA 040200Z AUTO 29004KT 6SM M01/M10 A3045 RMK T10101100 IEM_DS3505
ZBAA,2001-12-04 03:00,ZBAA 040300Z AUTO 34006KT 6SM 01/M10 A3045 RMK SLP309 T00071101 52006 IEM_DS3505
ZBAA,2001-12-04 04:00,ZBAA 040400Z AUTO 32008G19KT 6SM 01/M12 A3045 RMK T00101120 IEM_DS3505
ZBAA,2001-12-04 05:00,ZBAA 040500Z AUTO 33006KT 6SM 01/M10 A3045 RMK T00101100 IEM_DS3505
ZBAA,2001-12-04 06:00,ZBAA 040600Z AUTO 02004KT 5SM M01/M04 A3045 RMK 60001 SLP307 T10131035 57002 IEM_DS3505
ZBAA,2001-12-04 07:00,ZBAA 040700Z AUTO 6SM 00/M05 A3042 RMK T00001050 IEM_DS3505
ZBAA,2001-12-04 08:00,ZBAA 040800Z AUTO 24002KT 6SM 00/M06 A3042 RMK T00001060 IEM_DS3505
ZBAA,2001-12-04 09:00,ZBAA 040900Z AUTO 00000KT 7SM M02/M05 A3042 RMK SLP301 T10171051 57006 IEM_DS3505
ZBAA,2001-12-04 10:00,ZBAA 041000Z AUTO 24002KT 6SM M01/M05 A3042 RMK T10101050 IEM_DS3505
ZBAA,2001-12-04 11:00,ZBAA 041100Z AUTO 24002KT 4SM M01/M05 A3045 RMK T10101050 IEM_DS3505
ZBAA,2001-12-04 12:00,ZBAA 041200Z AUTO 22004KT 6SM M03/M04 A3045 RMK 60003 SLP312 T10271039 52011 IEM_DS3505
ZBAA,2001-12-04 13:00,ZBAA 041300Z AUTO 27002G12KT 3SM M04/M05 A3047 RMK T10401050 IEM_DS3505
ZBAA,2001-12-04 14:00,ZBAA 041400Z AUTO 09002KT 2 1/2SM M05/M06 A3045 RMK T10501060 IEM_DS3505
ZBAA,2001-12-04 16:00,ZBAA 041600Z AUTO 2SM M05/M06 A3047 RMK T10501060 IEM_DS3505
ZBAA,2001-12-04 17:00,ZBAA 041700Z AUTO 03002KT 2SM M06/M06 A3047 RMK T10601060 IEM_DS3505
ZBAA,2001-12-04 18:00,ZBAA 041800Z AUTO 27004KT 4SM M05/M06 A3045 RMK SLP312 T10471057 54000 IEM_DS3505
ZBAA,2001-12-04 19:00,ZBAA 041900Z AUTO 1 1/4SM M06/M07 A3047 RMK T10601070 IEM_DS3505
ZBAA,2001-12-04 20:00,ZBAA 042000Z AUTO 34004KT 1 1/4SM M07/M08 A3045 RMK T10701080 IEM_DS3505
ZBAA,2001-12-04 21:00,ZBAA 042100Z AUTO 00000KT 1/8SM M09/M11 A3045 RMK 70001 SLP308 T10931109 57005 IEM_DS3505
ZBAA,2001-12-04 22:00,ZBAA 042200Z AUTO 15002KT 2 1/2SM M08/M10 A3045 RMK T10801100 IEM_DS3505
ZBAA,2001-12-04 23:00,ZBAA 042300Z AUTO 3SM M07/M10 A3045 RMK T10701100 IEM_DS3505
ZBAA,2001-12-05 00:00,ZBAA 050000Z AUTO 20002KT 2 1/2SM M08/M09 A3045 RMK 70001 SLP315 T10781092 52007 IEM_DS3505
ZBAA,2001-12-05 01:00,ZBAA 050100Z AUTO 34004KT 6SM M04/M09 A3047 RMK T10401090 IEM_DS3505
ZBAA,2001-12-05 02:00,ZBAA 050200Z AUTO 5SM M03/M08 A3047 RMK T10301080 IEM_DS3505
ZBAA,2001-12-05 03:00,ZBAA 050300Z AUTO 20004KT 4SM M00/M05 A3045 RMK SLP312 T10051054 57002 IEM_DS3505
ZBAA,2001-12-05 04:00,ZBAA 050400Z AUTO 28010KT 6SM 01/M13 A3042 RMK T00101130 IEM_DS3505
ZBAA,2001-12-05 05:00,ZBAA 050500Z AUTO 29016G29KT 6SM 02/M17 A3039 RMK T00201170 IEM_DS3505
ZBAA,2001-12-05 06:00,ZBAA 050600Z AUTO 22006G23KT 6SM 01/ A3036 RMK SLP285 57027 IEM_DS3505
ZBAA,2001-12-05 07:00,ZBAA 050700Z AUTO 28016KT 6SM 02/M19 A3036 RMK T00201190 IEM_DS3505
ZBAA,2001-12-05 08:00,ZBAA 050800Z AUTO 28012KT 6SM 02/M19 A3036 RMK T00201190 IEM_DS3505
ZBAA,2001-12-05 09:00,ZBAA 050900Z AUTO 22006KT 4SM M00/ A3039 RMK SLP293 52007 IEM_DS3505
ZBAA,2001-12-05 10:00,ZBAA 051000Z AUTO 29006KT 6SM 01/M18 A3039 RMK T00101180 IEM_DS3505
ZBAA,2001-12-05 11:00,ZBAA 051100Z AUTO 28006KT 6SM 01/M19 A3039 RMK T00101190 IEM_DS3505
ZBAA,2001-12-05 12:00,ZBAA 051200Z AUTO 22004KT 5SM M02/ A3042 RMK SLP302 52009 IEM_DS3505
ZBAA,2001-12-05 13:00,ZBAA 051300Z AUTO 30004KT 6SM 00/M19 A3045 RMK T00001190 IEM_DS3505
ZBAA,2001-12-05 14:00,ZBAA 051400Z AUTO 35006KT 6SM M02/M19 A3045 RMK T10201190 IEM_DS3505
ZBAA,2001-12-05 15:00,ZBAA 051500Z AUTO 00000KT 6SM M03/ A3045 RMK SLP313 52012 IEM_DS3505
ZBAA,2001-12-05 16:00,ZBAA 051600Z AUTO 31010KT 6SM M01/M21 A3045 RMK T10101210 IEM_DS3505
ZBAA,2001-12-05 17:00,ZBAA 051700Z AUTO 6SM M02/M21 A3047 RMK T10201210 IEM_DS3505
ZBAA,2001-12-05 18:00,ZBAA 051800Z AUTO 32014KT 19SM M00/M24 A3047 RMK SLP312 T10041245 57001 IEM_DS3505
ZBAA,2001-12-05 19:00,ZBAA 051900Z AUTO 26006KT 6SM M03/M20 A3047 RMK T10301200 IEM_DS3505
ZBAA,2001-12-05 20:00,ZBAA 052000Z AUTO 32004KT 6SM M04/M20 A3047 RMK T10401200 IEM_DS3505
ZBAA,2001-12-05 21:00,ZBAA 052100Z AUTO 32002KT 19SM M02/M20 A3050 RMK SLP321 T10181197 52009 IEM_DS3505
ZBAA,2001-12-05 22:00,ZBAA 052200Z AUTO 29008KT 6SM M04/M20 A3050 RMK T10401200 IEM_DS3505
ZBAA,2001-12-05 23:00,ZBAA 052300Z AUTO 28006KT 6SM M04/M20 A3050 RMK T10401200 IEM_DS3505
ZBAA,2001-12-06 00:00,ZBAA 060000Z AUTO 34002KT 19SM M03/M22 A3053 RMK SLP337 T10271215 52016 IEM_DS3505
ZBAA,2001-12-06 01:00,ZBAA 060100Z AUTO 32014KT 6SM M02/M22 A3053 RMK T10201220 IEM_DS3505
ZBAA,2001-12-06 02:00,ZBAA 060200Z AUTO 31010KT 6SM M01/M21 A3056 RMK T10101210 IEM_DS3505
ZBAA,2001-12-06 03:00,ZBAA 060300Z AUTO 32006KT 19SM M00/M24 A3053 RMK SLP341 T10021237 52004 IEM_DS3505
ZBAA,2001-12-06 04:00,ZBAA 060400Z AUTO 29008KT 6SM 00/M22 A3050 RMK T00001220 IEM_DS3505
ZBAA,2001-12-06 05:00,ZBAA 060500Z AUTO 29010KT 6SM 01/M22 A3047 RMK T00101220 IEM_DS3505
ZBAA,2001-12-06 06:00,ZBAA 060600Z AUTO 32012KT 19SM 02/M24 A3045 RMK SLP310 T00191240 57031 IEM_DS3505
ZBAA,2001-12-06 07:00,ZBAA 060700Z AUTO 29008KT 6SM 02/M22 A3042 RMK T00201220 IEM_DS3505
ZBAA,2001-12-06 08:00,ZBAA 060800Z AUTO 29010KT 6SM 02/M22 A3042 RMK T00201220 IEM_DS3505
ZBAA,2001-12-06 09:00,ZBAA 060900Z AUTO 22004KT 19SM 00/M19 A3042 RMK SLP307 T00041189 57003 IEM_DS3505
ZBAA,2001-12-06 10:00,ZBAA 061000Z AUTO 00000KT 16SM 00/M20 A3045 RMK SLP310 T00001200 52004 IEM_DS3505
ZBAA,2001-12-06 11:00,ZBAA 061100Z AUTO 27004KT 6SM M01/M17 A3045 RMK T10101170 IEM_DS3505
ZBAA,2001-12-06 12:00,ZBAA 061200Z AUTO 00000KT 16SM M02/M15 A3045 RMK SLP311 T10251146 52004 IEM_DS3505
ZBAA,2001-12-06 13:00,ZBAA 061300Z AUTO 06002KT 6SM M04/M15 A3045 RMK T10401150 IEM_DS3505
ZBAA,2001-12-06 14:00,ZBAA 061400Z AUTO 12002KT 6SM M05/M14 A3045 RMK T10501140 IEM_DS3505
ZBAA,2001-12-06 15:00,ZBAA 061500Z AUTO 22004KT 19SM M04/M14 A3045 RMK SLP313 T10421138 52002 IEM_DS3505
ZBAA,2001-12-06 16:00,ZBAA 061600Z AUTO 13002KT 6SM M07/M13 A3047 RMK T10701130 IEM_DS3505
ZBAA,2001-12-06 17:00,ZBAA 061700Z AUTO 6SM M07/M13 A3045 RMK T10701130 IEM_DS3505
ZBAA,2001-12-06 18:00,ZBAA 061800Z AUTO 00000KT 9SM M06/M12 A3045 RMK SLP314 T10601123 52001 IEM_DS3505
ZBAA,2001-12-06 19:00,ZBAA 061900Z AUTO 05002KT 4SM M09/M13 A3045 RMK T10901130 IEM_DS3505
ZBAA,2001-12-06 20:00,ZBAA 062000Z AUTO 01002KT 4SM M09/M14 A3042 RMK T10901140 IEM_DS3505
ZBAA,2001-12-06 21:00,ZBAA 062100Z AUTO 00000KT 9SM M08/M12 A3045 RMK SLP307 T10821117 57007 IEM_DS3505
ZBAA,2001-12-06 22:00,ZBAA 062200Z AUTO 36004KT M08/M14 A3045 RMK T10801140 IEM_DS3505
ZBAA,2001-12-06 23:00,ZBAA 062300Z AUTO 4SM M08/M13 A3045 RMK T10801130 IEM_DS3505
ZBAA,2001-12-07 00:00,ZBAA 070000Z AUTO 07002KT 2 1/2SM M08/M10 A3047 RMK SLP317 T10781102 52009 IEM_DS3505
ZBAA,2001-12-07 01:00,ZBAA 070100Z AUTO M06/M12 A3047 RMK T10601120 IEM_DS3505
ZBAA,2001-12-07 02:00,ZBAA 070200Z AUTO 10002KT 3SM M05/M11 A3047 RMK T10501110 IEM_DS3505
ZBAA,2001-12-07 03:00,ZBAA 070300Z AUTO 07006KT 4SM M04/M10 A3045 RMK SLP306 T10401095 57010 IEM_DS3505
ZBAA,2001-12-07 04:00,ZBAA 070400Z AUTO 10004KT 3SM M04/M12 A3042 RMK T10401120 IEM_DS3505
ZBAA,2001-12-07 05:00,ZBAA 070500Z AUTO 3SM M03/M12 A3039 RMK T10301120 IEM_DS3505
ZBAA,2001-12-07 06:00,ZBAA 070600Z AUTO 18004KT 4SM M03/M12 A3039 RMK 60003 SLP296 T10281125 57010 IEM_DS3505
ZBAA,2001-12-07 07:00,ZBAA 070700Z AUTO 16004KT 1SM M05/M06 A3039 RMK T10501060 IEM_DS3505
ZBAA,2001-12-07 08:00,ZBAA 070800Z AUTO 1SM M05/M05 A3042 RMK T10501050 IEM_DS3505
ZBAA,2001-12-07 09:00,ZBAA 070900Z AUTO 09002KT 1 1/4SM M04/M06 A3042 RMK SLP298 T10421055 52001 IEM_DS3505
ZBAA,2001-12-07 10:00,ZBAA 071000Z AUTO 1SM M05/M05 A3045 RMK T10501050 IEM_DS3505
ZBAA,2001-12-07 11:00,ZBAA 071100Z AUTO 35002KT 1SM M05/M06 A3045 RMK T10501060 IEM_DS3505
ZBAA,2001-12-07 12:00,ZBAA 071200Z AUTO 07002KT 1SM M05/M06 A3045 RMK 60008 SLP308 T10511061 52010 IEM_DS3505
ZBAA,2001-12-07 13:00,ZBAA 071300Z AUTO 03002KT 1SM M05/M05 A3045 RMK T10501050 IEM_DS3505
ZBAA,2001-12-07 14:00,ZBAA 071400Z AUTO 1SM M05/M05 A3045 RMK T10501050 IEM_DS3505
ZBAA,2001-12-07 15:00,ZBAA 071500Z AUTO 07002KT 1 1/4SM M04/M06 A3045 RMK SLP308 T10451058 52001 IEM_DS3505
ZBAA,2001-12-07 16:00,ZBAA 071600Z AUTO 32004KT 1SM M06/M06 A3047 RMK T10601060 IEM_DS3505
ZBAA,2001-12-07 17:00,ZBAA 071700Z AUTO 30004KT 1SM M06/M07 A3047 RMK T10601070 IEM_DS3505
ZBAA,2001-12-07 18:00,ZBAA 071800Z AUTO 00000KT 1/8SM M09/M10 A3047 RMK 60003 SLP314 T10941099 52005 IEM_DS3505
ZBAA,2001-12-07 19:00,ZBAA 071900Z AUTO 36004KT 1SM M08/M08 A3047 RMK T10801080 IEM_DS3505
ZBAA,2001-12-07 20:00,ZBAA 072000Z AUTO 29002KT 1SM M09/M09 A3047 RMK T10901090 IEM_DS3505
ZBAA,2001-12-07 21:00,ZBAA 072100Z AUTO 00000KT 1/8SM M10/M12 A3047 RMK 70007 SLP321 T11021125 52007 IEM_DS3505
ZBAA,2001-12-07 22:00,ZBAA 072200Z AUTO 24002KT 1SM M11/M11 A3050 RMK T11101110 IEM_DS3505
ZBAA,2001-12-07 23:00,ZBAA 072300Z AUTO 29002KT 1SM M08/M08 A3053 RMK T10801080 IEM_DS3505
ZBAA,2001-12-08 00:00,ZBAA 080000Z AUTO 00000KT 1/8SM M10/M11 A3053 RMK 70007 SLP344 T11021112 52023 IEM_DS3505
ZBAA,2001-12-08 01:00,ZBAA 080100Z AUTO 35002KT 1SM M07/M07 A3056 RMK T10701070 IEM_DS3505
ZBAA,2001-12-08 02:00,ZBAA 080200Z AUTO 33008KT 2SM M04/M06 A3056 RMK T10401060 IEM_DS3505
ZBAA,2001-12-08 03:00,ZBAA 080300Z AUTO 00000KT 1SM M05/M06 A3056 RMK SLP353 T10531064 52009 IEM_DS3505
ZBAA,2001-12-08 04:00,ZBAA 080400Z AUTO 01002KT 2 1/2SM M02/M06 A3056 RMK T10201060 IEM_DS3505
ZBAA,2001-12-08 05:00,ZBAA 080500Z AUTO 33004KT 3SM 00/M05 A3053 RMK T00001050 IEM_DS3505
ZBAA,2001-12-08 06:00,ZBAA 080600Z AUTO 20004KT 2SM 01/M05 A3053 RMK SLP339 T00071049 57014 IEM_DS3505
ZBAA,2001-12-08 07:00,ZBAA 080700Z AUTO 18006KT 2 1/2SM 00/M04 A3053 RMK T00001040 IEM_DS3505
ZBAA,2001-12-08 08:00,ZBAA 080800Z AUTO 17002KT 2 1/2SM 00/M05 A3053 RMK T00001050 IEM_DS3505
ZBAA,2001-12-08 09:00,ZBAA 080900Z AUTO 22004KT 2 1/2SM M00/M05 A3056 RMK SLP345 T10031053 52006 IEM_DS3505
ZBAA,2001-12-08 10:00,ZBAA 081000Z AUTO 1 1/4SM M03/M05 A3056 RMK T10301050 IEM_DS3505
ZBAA,2001-12-08 11:00,ZBAA 081100Z AUTO 1 1/4SM M03/M05 A3059 RMK T10301050 IEM_DS3505
ZBAA,2001-12-08 12:00,ZBAA 081200Z AUTO 32004KT 2SM M01/M05 A3062 RMK SLP366 T10111048 52021 IEM_DS3505
ZBAA,2001-12-08 13:00,ZBAA 081300Z AUTO 1 1/4SM M03/M04 A3062 RMK T10301040 IEM_DS3505
ZBAA,2001-12-08 14:00,ZBAA 081400Z AUTO 1SM M04/M05 A3065 RMK T10401050 IEM_DS3505
ZBAA,2001-12-08 15:00,ZBAA 081500Z AUTO 32002KT 2SM M01/M04 A3065 RMK SLP378 T10131036 52012 IEM_DS3505
ZBAA,2001-12-08 16:00,ZBAA 081600Z AUTO 1SM M03/M05 A3065 RMK T10301050 IEM_DS3505
ZBAA,2001-12-08 17:00,ZBAA 081700Z AUTO 35002KT 1SM M03/M05 A3065 RMK T10301050 IEM_DS3505
ZBAA,2001-12-08 18:00,ZBAA 081800Z AUTO 00000KT 1 1/4SM M04/M05 A3065 RMK SLP377 T10371051 54000 IEM_DS3505
ZBAA,2001-12-08 19:00,ZBAA 081900Z AUTO 33004KT 1 1/4SM M05/M07 A3065 RMK T10501070 IEM_DS3505
ZBAA,2001-12-08 20:00,ZBAA 082000Z AUTO 34006KT 2SM M05/M07 A3065 RMK T10501070 IEM_DS3505
ZBAA,2001-12-08 21:00,ZBAA 082100Z AUTO 00000KT 2SM M04/M07 A3065 RMK SLP379 T10451070 52002 IEM_DS3505
ZBAA,2001-12-08 22:00,ZBAA 082200Z AUTO 35004KT 4SM M06/M08 A3068 RMK T10601080 IEM_DS3505
ZBAA,2001-12-08 23:00,ZBAA 082300Z AUTO 34004KT 4SM M04/M08 A3068 RMK T10401080 IEM_DS3505
ZBAA,2001-12-09 00:00,ZBAA 090000Z AUTO 09002KT 5SM M03/M08 A3071 RMK SLP396 T10261085 52017 IEM_DS3505
ZBAA,2001-12-09 01:00,ZBAA 090100Z AUTO 35008KT 5SM M03/M06 A3074 RMK T10301060 IEM_DS3505
ZBAA,2001-12-09 02:00,ZBAA 090200Z AUTO 36002KT 5SM M01/M07 A3077 RMK T10101070 IEM_DS3505
ZBAA,2001-12-09 03:00,ZBAA 090300Z AUTO 02006KT 6SM 01/M10 A3077 RMK SLP411 T00071096 52015 IEM_DS3505
ZBAA,2001-12-09 04:00,ZBAA 090400Z AUTO 02004KT 6SM 02/M08 A3074 RMK T00201080 IEM_DS3505
ZBAA,2001-12-09 05:00,ZBAA 090500Z AUTO 02006KT 6SM 03/M09 A3071 RMK T00301090 IEM_DS3505
ZBAA,2001-12-09 06:00,ZBAA 090600Z AUTO 07004KT 9SM 03/M08 A3071 RMK SLP398 T00311082 57013 IEM_DS3505
ZBAA,2001-12-09 07:00,ZBAA 090700Z AUTO 06002KT 6SM 04/M11 A3068 RMK T00401110 IEM_DS3505
ZBAA,2001-12-09 08:00,ZBAA 090800Z AUTO 6SM 04/M11 A3068 RMK T00401110 IEM_DS3505
ZBAA,2001-12-09 09:00,ZBAA 090900Z AUTO 00000KT 9SM 00/M07 A3071 RMK SLP394 T00051067 57004 IEM_DS3505
ZBAA,2001-12-09 10:00,ZBAA 091000Z AUTO 18002KT 6SM 00/M08 A3071 RMK T00001080 IEM_DS3505
ZBAA,2001-12-09 11:00,ZBAA 091100Z AUTO 6SM M02/M07 A3071 RMK T10201070 IEM_DS3505
ZBAA,2001-12-09 12:00,ZBAA 091200Z AUTO 00000KT 12SM M03/M07 A3074 RMK SLP404 T10291067 52009 IEM_DS3505
ZBAA,2001-12-09 13:00,ZBAA 091300Z AUTO 6SM M03/M08 A3074 RMK T10301080 IEM_DS3505
ZBAA,2001-12-09 14:00,ZBAA 091400Z AUTO 10002KT 6SM M04/M07 A3074 RMK T10401070 IEM_DS3505
ZBAA,2001-12-09 15:00,ZBAA 091500Z AUTO 00000KT 5SM M03/M06 A3074 RMK SLP404 T10311057 52001 IEM_DS3505
ZBAA,2001-12-09 16:00,ZBAA 091600Z AUTO 4SM M04/M07 A3074 RMK T10401070 IEM_DS3505
ZBAA,2001-12-09 17:00,ZBAA 091700Z AUTO 4SM M06/M07 A3074 RMK T10601070 IEM_DS3505
ZBAA,2001-12-09 18:00,ZBAA 091800Z AUTO 07004KT 5SM M04/M07 A3077 RMK SLP409 T10441074 52005 IEM_DS3505
ZBAA,2001-12-09 19:00,ZBAA 091900Z AUTO 01002KT 3SM M07/M09 A3077 RMK T10701090 IEM_DS3505
ZBAA,2001-12-09 20:00,ZBAA 092000Z AUTO 01002KT 2SM M08/M10 A3074 RMK T10801100 IEM_DS3505
ZBAA,2001-12-09 21:00,ZBAA 092100Z AUTO 36002KT 5SM M05/M09 A3074 RMK SLP409 T10491089 57001 IEM_DS3505
ZBAA,2001-12-09 22:00,ZBAA 092200Z AUTO 33004KT 4SM M07/M10 A3074 RMK T10701100 IEM_DS3505
ZBAA,2001-12-10 00:00,ZBAA 100000Z AUTO 09002KT 2 1/2SM M05/M11 A3077 RMK SLP413 T10541106 52004 IEM_DS3505
ZBAA,2001-12-10 01:00,ZBAA 100100Z AUTO 35002KT 4SM M06/M08 A3077 RMK T10601080 IEM_DS3505
ZBAA,2001-12-10 02:00,ZBAA 100200Z AUTO 15004KT 6SM M03/M09 A3077 RMK T10301090 IEM_DS3505
ZBAA,2001-12-10 03:00,ZBAA 100300Z AUTO 09004KT 6SM M03/M10 A3077 RMK SLP413 T10271097 54000 IEM_DS3505
ZBAA,2001-12-10 04:00,ZBAA 100400Z AUTO 15004KT M02/M09 A3074 RMK T10201090 IEM_DS3505
ZBAA,2001-12-10 05:00,ZBAA 100500Z AUTO 14004KT M01/M09 A3071 RMK T10101090 IEM_DS3505
ZBAA,2001-12-10 06:00,ZBAA 100600Z AUTO 16004KT 9SM M01/M08 A3068 RMK SLP389 T10101080 57024 IEM_DS3505
ZBAA,2001-12-10 07:00,ZBAA 100700Z AUTO 13004KT 3SM M01/M07 A3065 RMK T10101070 IEM_DS3505
ZBAA,2001-12-10 08:00,ZBAA 100800Z AUTO 16004KT 4SM M01/M06 A3065 RMK T10101060 IEM_DS3505
ZBAA,2001-12-10 09:00,ZBAA 100900Z AUTO 07004KT 7SM M02/M06 A3065 RMK SLP377 T10151060 57012 IEM_DS3505
ZBAA,2001-12-10 10:00,ZBAA 101000Z AUTO 4SM M02/M05 A3065 RMK T10201050 IEM_DS3505
ZBAA,2001-12-10 11:00,ZBAA 101100Z AUTO 4SM M02/M06 A3065 RMK T10201060 IEM_DS3505
ZBAA,2001-12-10 12:00,ZBAA 101200Z AUTO 07004KT 6SM M02/M07 A3065 RMK SLP377 T10241071 54000 IEM_DS3505
ZBAA,2001-12-10 13:00,ZBAA 101300Z AUTO 06002KT 4SM M02/M06 A3065 RMK T10201060 IEM_DS3505
ZBAA,2001-12-10 14:00,ZBAA 101400Z AUTO 07002KT 3SM M01/M07 A3062 RMK T10101070 IEM_DS3505
ZBAA,2001-12-10 15:00,ZBAA 101500Z AUTO 07004KT 6SM M03/M07 A3062 RMK SLP368 T10341069 57009 IEM_DS3505
ZBAA,2001-12-10 16:00,ZBAA 101600Z AUTO 07002KT 3SM M02/M07 A3062 RMK T10201070 IEM_DS3505
ZBAA,2001-12-10 17:00,ZBAA 101700Z AUTO 36002KT 3SM M02/M07 A3059 RMK T10201070 IEM_DS3505
ZBAA,2001-12-10 18:00,ZBAA 101800Z AUTO 00000KT 4SM M02/M06 A3059 RMK SLP363 T10251062 57004 IEM_DS3505
ZBAA,2001-12-10 19:00,ZBAA 101900Z AUTO 15002KT 3SM M02/M07 A3062 RMK T10201070 IEM_DS3505
ZBAA,2001-12-10 20:00,ZBAA 102000Z AUTO 15002KT 3SM M02/M07 A3059 RMK T10201070 IEM_DS3505
ZBAA,2001-12-10 21:00,ZBAA 102100Z AUTO 00000KT 4SM M03/M06 A3056 RMK SLP352 T10261063 57011 IEM_DS3505
ZBAA,2001-12-10 22:00,ZBAA 102200Z AUTO 3SM M02/M07 A3056 RMK T10201070 IEM_DS3505
ZBAA,2001-12-10 23:00,ZBAA 102300Z AUTO 11002KT 3SM M02/M07 A3056 RMK T10201070 IEM_DS3505
ZBAA,2001-12-11 00:00,ZBAA 110000Z AUTO 09004KT 4SM M03/M06 A3053 RMK SLP340 T10271059 57012 IEM_DS3505
ZBAA,2001-12-11 01:00,ZBAA 110100Z AUTO 2 1/2SM M02/M06 A3056 RMK T10201060 IEM_DS3505
ZBAA,2001-12-11 02:00,ZBAA 110200Z AUTO 2 1/2SM M02/M06 A3056 RMK T10201060 IEM_DS3505
ZBAA,2001-12-11 03:00,ZBAA 110300Z AUTO 00000KT 3SM M01/M06 A3056 RMK SLP347 T10081055 52007 IEM_DS3505
ZBAA,2001-12-11 04:00,ZBAA 110400Z AUTO 08002KT 2 1/2SM M01/M06 A3053 RMK T10101060 IEM_DS3505
ZBAA,2001-12-11 05:00,ZBAA 110500Z AUTO 2 1/2SM M01/M06 A3050 RMK T10101060 IEM_DS3505
ZBAA,2001-12-11 06:00,ZBAA 110600Z AUTO 00000KT 3SM 00/M05 A3047 RMK SLP321 T00001049 57026 IEM_DS3505
ZBAA,2001-12-11 07:00,ZBAA 110700Z AUTO 13004KT 2 1/2SM M01/M05 A3047 RMK T10101050 IEM_DS3505
ZBAA,2001-12-11 08:00,ZBAA 110800Z AUTO 10002KT 2 1/2SM M01/M04 A3045 RMK T10101040 IEM_DS3505
ZBAA,2001-12-11 09:00,ZBAA 110900Z AUTO 18002KT 2 1/2SM M00/M04 A3045 RMK SLP313 T10021040 57008 IEM_DS3505
ZBAA,2001-12-11 10:00,ZBAA 111000Z AUTO 03002KT 2SM M01/M04 A3047 RMK T10101040 IEM_DS3505
ZBAA,2001-12-11 11:00,ZBAA 111100Z AUTO 00000KT 3SM M01/M03 A3047 RMK SLP312 T10101030 57001 IEM_DS3505
ZBAA,2001-12-11 12:00,ZBAA 111200Z AUTO 00000KT 3SM M00/M03 A3045 RMK SLP312 T10031028 57001 IEM_DS3505
ZBAA,2001-12-11 13:00,ZBAA 111300Z AUTO 1 1/4SM M01/M03 A3047 RMK T10101030 IEM_DS3505
ZBAA,2001-12-11 14:00,ZBAA 111400Z AUTO 1 1/4SM M01/M03 A3047 RMK T10101030 IEM_DS3505
ZBAA,2001-12-11 15:00,ZBAA 111500Z AUTO 20002KT 2 1/2SM M00/M03 A3047 RMK SLP313 T10041032 52001 IEM_DS3505
ZBAA,2001-12-11 16:00,ZBAA 111600Z AUTO 01002KT 1 1/4SM M01/M03 A3045 RMK T10101030 IEM_DS3505
ZBAA,2001-12-11 17:00,ZBAA 111700Z AUTO 36002KT 1 1/4SM M02/M03 A3045 RMK T10201030 IEM_DS3505
ZBAA,2001-12-11 18:00,ZBAA 111800Z AUTO 00000KT 2SM M01/M02 A3045 RMK 60000 SLP309 T10091024 57004 IEM_DS3505
ZBAA,2001-12-11 19:00,ZBAA 111900Z AUTO 36002KT 1SM M02/M03 A3045 RMK T10201030 IEM_DS3505
ZBAA,2001-12-11 20:00,ZBAA 112000Z AUTO 28002KT 1SM M02/M03 A3042 RMK T10201030 IEM_DS3505
ZBAA,2001-12-11 21:00,ZBAA 112100Z AUTO 00000KT 1SM M01/M02 A3042 RMK 70003 SLP296 T10131019 57013 IEM_DS3505
ZBAA,2001-12-11 22:00,ZBAA 112200Z AUTO 01004KT 1SM M03/M03 A3039 RMK T10301030 IEM_DS3505
ZBAA,2001-12-11 23:00,ZBAA 112300Z AUTO 36002KT 1SM M03/M03 A3042 RMK T10301030 IEM_DS3505
ZBAA,2001-12-12 00:00,ZBAA 120000Z AUTO 00000KT 1SM M01/M02 A3042 RMK 60003 SLP297 T10101022 52001 IEM_DS3505
ZBAA,2001-12-12 01:00,ZBAA 120100Z AUTO 32017KT 3SM M01/M12 A3045 RMK T10101120 IEM_DS3505
ZBAA,2001-12-12 02:00,ZBAA 120200Z AUTO 33019G29KT 3SM M01/M14 A3047 RMK T10101140 IEM_DS3505
ZBAA,2001-12-12 03:00,ZBAA 120300Z AUTO 34016G31KT 2 1/2SM M00/M17 A3047 RMK SLP314 T10051169 52017 IEM_DS3505
ZBAA,2001-12-12 04:00,ZBAA 120400Z AUTO 33017KT M01/M16 A3047 RMK T10101160 IEM_DS3505
ZBAA,2001-12-12 05:00,ZBAA 120500Z AUTO 31019G31KT M01/M19 A3047 RMK T10101190 IEM_DS3505
ZBAA,2001-12-12 06:00,ZBAA 120600Z AUTO 34016G27KT 6SM M01/M23 A3047 RMK SLP317 T10111232 52003 IEM_DS3505
ZBAA,2001-12-12 07:00,ZBAA 120700Z AUTO 29016G27KT 5SM M02/M22 A3050 RMK T10201220 IEM_DS3505
ZBAA,2001-12-12 08:00,ZBAA 120800Z AUTO 31019KT 5SM M02/M22 A3050 RMK T10201220 IEM_DS3505
ZBAA,2001-12-12 09:00,ZBAA 120900Z AUTO 34010KT 6SM M02/M26 A3053 RMK SLP335 T10201258 52018 IEM_DS3505
ZBAA,2001-12-12 10:00,ZBAA 121000Z AUTO 33012G21KT 6SM M03/M22 A3053 RMK T10301220 IEM_DS3505
ZBAA,2001-12-12 11:00,ZBAA 121100Z AUTO 33010KT M03/M22 A3056 RMK T10301220 IEM_DS3505
ZBAA,2001-12-12 12:00,ZBAA 121200Z AUTO 32021KT 2 1/2SM M03/M26 A3059 RMK SLP354 T10321264 52019 IEM_DS3505
ZBAA,2001-12-12 13:00,ZBAA 121300Z AUTO 33016G25KT 3SM M04/M22 A3059 RMK T10401220 IEM_DS3505
ZBAA,2001-12-12 14:00,ZBAA 121400Z AUTO 32016KT 3SM M04/M22 A3062 RMK T10401220 IEM_DS3505
ZBAA,2001-12-12 15:00,ZBAA 121500Z AUTO 34016KT 7SM M05/M26 A3065 RMK SLP382 T10501259 52027 IEM_DS3505
ZBAA,2001-12-12 16:00,ZBAA 121600Z AUTO 30016KT M06/M22 A3068 RMK T10601220 IEM_DS3505
ZBAA,2001-12-12 17:00,ZBAA 121700Z AUTO 31012KT 5SM M06/M22 A3065 RMK T10601220 IEM_DS3505
ZBAA,2001-12-12 18:00,ZBAA 121800Z AUTO 32014KT 9SM M06/M27 A3065 RMK SLP381 T10561267 57001 IEM_DS3505
ZBAA,2001-12-12 19:00,ZBAA 121900Z AUTO 27006KT 6SM M07/M22 A3065 RMK T10701220 IEM_DS3505
ZBAA,2001-12-12 20:00,ZBAA 122000Z AUTO 28010KT 6SM M07/M22 A3068 RMK T10701220 IEM_DS3505
ZBAA,2001-12-12 21:00,ZBAA 122100Z AUTO 34010G27KT 9SM M06/M24 A3065 RMK 70000 SLP379 T10561243 57002 IEM_DS3505
ZBAA,2001-12-12 22:00,ZBAA 122200Z AUTO 31019G29KT 6SM M07/M24 A3065 RMK T10701240 IEM_DS3505
ZBAA,2001-12-12 23:00,ZBAA 122300Z AUTO 31017G27KT 6SM M07/M24 A3065 RMK T10701240 IEM_DS3505
ZBAA,2001-12-13 00:00,ZBAA 130000Z AUTO 32016G27KT 6SM M06/M28 A3068 RMK SLP374 T10561285 57005 IEM_DS3505
ZBAA,2001-12-13 01:00,ZBAA 130100Z AUTO 31014G25KT 6SM M06/M25 A3065 RMK T10601250 IEM_DS3505
ZBAA,2001-12-13 02:00,ZBAA 130200Z AUTO 30014G23KT 6SM M05/M25 A3068 RMK T10501250 IEM_DS3505
ZBAA,2001-12-13 03:00,ZBAA 130300Z AUTO 32014G23KT 19SM M03/M32 A3062 RMK SLP375 T10341319 52001 IEM_DS3505
ZBAA,2001-12-13 04:00,ZBAA 130400Z AUTO 28016KT 6SM M03/M24 A3059 RMK T10301240 IEM_DS3505
ZBAA,2001-12-13 05:00,ZBAA 130500Z AUTO 28021G35KT 6SM M03/M25 A3056 RMK T10301250 IEM_DS3505
ZBAA,2001-12-13 06:00,ZBAA 130600Z AUTO 32012G35KT 19SM M02/M24 A3053 RMK SLP345 T10171244 57030 IEM_DS3505
ZBAA,2001-12-13 07:00,ZBAA 130700Z AUTO 28017G29KT 6SM M02/M25 A3050 RMK T10201250 IEM_DS3505
ZBAA,2001-12-13 08:00,ZBAA 130800Z AUTO 28014G23KT 6SM M02/M23 A3050 RMK T10201230 IEM_DS3505
ZBAA,2001-12-13 09:00,ZBAA 130900Z AUTO 32010KT 16SM M02/M23 A3053 RMK SLP337 T10231226 57008 IEM_DS3505
ZBAA,2001-12-13 10:00,ZBAA 131000Z AUTO 30008KT 6SM M03/M22 A3053 RMK T10301220 IEM_DS3505
ZBAA,2001-12-13 11:00,ZBAA 131100Z AUTO 29006KT 6SM M03/M21 A3053 RMK T10301210 IEM_DS3505
ZBAA,2001-12-13 12:00,ZBAA 131200Z AUTO 00000KT 9SM M04/M20 A3056 RMK SLP349 T10371202 52012 IEM_DS3505
ZBAA,2001-12-13 13:00,ZBAA 131300Z AUTO 30006KT 6SM M03/M21 A3056 RMK T10301210 IEM_DS3505
ZBAA,2001-12-13 14:00,ZBAA 131400Z AUTO 31012KT 6SM M03/M22 A3056 RMK T10301220 IEM_DS3505
ZBAA,2001-12-13 15:00,ZBAA 131500Z AUTO 22004KT 7SM M04/M22 A3056 RMK SLP349 T10421217 54000 IEM_DS3505
ZBAA,2001-12-13 16:00,ZBAA 131600Z AUTO 29010KT 6SM M04/M22 A3053 RMK T10401220 IEM_DS3505
ZBAA,2001-12-13 17:00,ZBAA 131700Z AUTO 28012KT 6SM M03/M23 A3053 RMK T10301230 IEM_DS3505
ZBAA,2001-12-13 18:00,ZBAA 131800Z AUTO 32006KT 9SM M05/M21 A3053 RMK SLP339 T10541206 57010 IEM_DS3505
ZBAA,2001-12-13 19:00,ZBAA 131900Z AUTO 29010KT 6SM M04/M24 A3050 RMK T10401240 IEM_DS3505
ZBAA,2001-12-13 20:00,ZBAA 132000Z AUTO 31008KT 6SM M04/M23 A3050 RMK T10401230 IEM_DS3505
ZBAA,2001-12-13 21:00,ZBAA 132100Z AUTO 34004KT 9SM M09/M21 A3047 RMK SLP326 T10891207 57013 IEM_DS3505
ZBAA,2001-12-13 22:00,ZBAA 132200Z AUTO 28006KT 6SM M04/M24 A3047 RMK T10401240 IEM_DS3505
ZBAA,2001-12-13 23:00,ZBAA 132300Z AUTO 29010KT 6SM M03/M23 A3050 RMK T10301230 IEM_DS3505
ZBAA,2001-12-14 00:00,ZBAA 140000Z AUTO 00000KT 6SM M10/M18 A3050 RMK SLP333 T10971178 52007 IEM_DS3505
ZBAA,2001-12-14 01:00,ZBAA 140100Z AUTO 30010KT 6SM M02/M24 A3053 RMK T10201240 IEM_DS3505
ZBAA,2001-12-14 02:00,ZBAA 140200Z AUTO 30012KT 6SM M01/M24 A3053 RMK T10101240 IEM_DS3505
ZBAA,2001-12-14 03:00,ZBAA 140300Z AUTO 32008KT 7SM 00/M27 A3053 RMK SLP336 T00051267 52004 IEM_DS3505
ZBAA,2001-12-14 04:00,ZBAA 140400Z AUTO 30012G23KT 6SM 00/M24 A3050 RMK T00001240 IEM_DS3505
ZBAA,2001-12-14 05:00,ZBAA 140500Z AUTO 29017KT 6SM 01/M24 A3047 RMK T00101240 IEM_DS3505
ZBAA,2001-12-14 06:00,ZBAA 140600Z AUTO 32014G25KT 7SM 02/M20 A3047 RMK SLP317 T00191205 57019 IEM_DS3505
ZBAA,2001-12-14 07:00,ZBAA 140700Z AUTO 28014KT 6SM 01/M23 A3045 RMK T00101230 IEM_DS3505
ZBAA,2001-12-14 08:00,ZBAA 140800Z AUTO 28012KT 6SM 01/M22 A3047 RMK T00101220 IEM_DS3505
ZBAA,2001-12-14 09:00,ZBAA 140900Z AUTO 32004KT 9SM 01/M22 A3047 RMK SLP321 T00111221 52004 IEM_DS3505
ZBAA,2001-12-14 10:00,ZBAA 141000Z AUTO 29006KT 6SM M01/M21 A3047 RMK T10101210 IEM_DS3505
ZBAA,2001-12-14 11:00,ZBAA 141100Z AUTO 6SM M01/M21 A3050 RMK T10101210 IEM_DS3505
ZBAA,2001-12-14 12:00,ZBAA 141200Z AUTO 16004KT 6SM M04/M18 A3050 RMK SLP333 T10361179 52011 IEM_DS3505
ZBAA,2001-12-14 13:00,ZBAA 141300Z AUTO 6SM M04/M19 A3053 RMK T10401190 IEM_DS3505
ZBAA,2001-12-14 14:00,ZBAA 141400Z AUTO 5SM M07/M16 A3056 RMK T10701160 IEM_DS3505
ZBAA,2001-12-14 15:00,ZBAA 141500Z AUTO 09006KT 6SM M05/M16 A3056 RMK SLP348 T10501161 52016 IEM_DS3505
ZBAA,2001-12-14 16:00,ZBAA 141600Z AUTO 36004KT 5SM M08/M18 A3059 RMK T10801180 IEM_DS3505
ZBAA,2001-12-14 17:00,ZBAA 141700Z AUTO 36004KT 5SM M09/M17 A3059 RMK T10901170 IEM_DS3505
ZBAA,2001-12-14 18:00,ZBAA 141800Z AUTO 04004KT 7SM M08/M15 A3059 RMK SLP356 T10801150 52008 IEM_DS3505
ZBAA,2001-12-14 19:00,ZBAA 141900Z AUTO 34002KT 6SM M09/M17 A3059 RMK T10901170 IEM_DS3505
ZBAA,2001-12-14 20:00,ZBAA 142000Z AUTO 36002KT 6SM M09/M18 A3059 RMK T10901180 IEM_DS3505
ZBAA,2001-12-14 21:00,ZBAA 142100Z AUTO 02004KT 12SM M08/M17 A3059 RMK SLP357 T10811166 54000 IEM_DS3505
ZBAA,2001-12-14 22:00,ZBAA 142200Z AUTO 34004KT 6SM M09/M18 A3062 RMK T10901180 IEM_DS3505
ZBAA,2001-12-14 23:00,ZBAA 142300Z AUTO 35004KT 6SM M10/M18 A3062 RMK T11001180 IEM_DS3505
ZBAA,2001-12-15 00:00,ZBAA 150000Z AUTO 02004KT 6SM M07/M17 A3062 RMK SLP365 T10711171 52008 IEM_DS3505
ZBAA,2001-12-15 01:00,ZBAA 150100Z AUTO 35002KT 6SM M08/M13 A3065 RMK T10801130 IEM_DS3505
ZBAA,2001-12-15 02:00,ZBAA 150200Z AUTO 02002KT 6SM M05/M16 A3065 RMK T10501160 IEM_DS3505
ZBAA,2001-12-15 03:00,ZBAA 150300Z AUTO 07006KT 7SM M04/M18 A3062 RMK SLP366 T10451184 52001 IEM_DS3505
ZBAA,2001-12-15 04:00,ZBAA 150400Z AUTO 6SM M03/M17 A3059 RMK T10301170 IEM_DS3505
ZBAA,2001-12-15 05:00,ZBAA 150500Z AUTO 6SM M02/M18 A3056 RMK T10201180 IEM_DS3505
ZBAA,2001-12-15 06:00,ZBAA 150600Z AUTO 11004KT 9SM M02/M19 A3053 RMK SLP337 T10181187 57029 IEM_DS3505
ZBAA,2001-12-15 07:00,ZBAA 150700Z AUTO 10002KT 6SM M01/M18 A3050 RMK T10101180 IEM_DS3505
ZBAA,2001-12-15 08:00,ZBAA 150800Z AUTO 15002KT 6SM M01/M17 A3050 RMK T10101170 IEM_DS3505
ZBAA,2001-12-15 09:00,ZBAA 150900Z AUTO 02002KT 6SM M03/M16 A3050 RMK SLP329 T10261164 57008 IEM_DS3505
ZBAA,2001-12-15 10:00,ZBAA 151000Z AUTO 35006KT 6SM M05/M16 A3050 RMK T10501160 IEM_DS3505
ZBAA,2001-12-15 11:00,ZBAA 151100Z AUTO 34004KT M05/M17 A3050 RMK T10501170 IEM_DS3505
ZBAA,2001-12-15 12:00,ZBAA 151200Z AUTO 01002KT M06/M17 A3050 RMK T10601170 IEM_DS3505
ZBAA,2001-12-15 13:00,ZBAA 151300Z AUTO 35004KT 3SM M04/M15 A3050 RMK T10401150 IEM_DS3505
ZBAA,2001-12-15 14:00,ZBAA 151400Z AUTO 34004KT 2SM M05/M15 A3050 RMK T10501150 IEM_DS3505
ZBAA,2001-12-15 15:00,ZBAA 151500Z AUTO 04002KT 7SM M03/M17 A3050 RMK SLP325 T10281168 57005 IEM_DS3505
ZBAA,2001-12-15 16:00,ZBAA 151600Z AUTO 30004KT 2SM M05/M14 A3047 RMK T10501140 IEM_DS3505
ZBAA,2001-12-15 17:00,ZBAA 151700Z AUTO 31006KT 2SM M06/M15 A3047 RMK T10601150 IEM_DS3505
ZBAA,2001-12-15 18:00,ZBAA 151800Z AUTO 00000KT 7SM M04/M16 A3047 RMK SLP314 T10411158 57011 IEM_DS3505
ZBAA,2001-12-15 19:00,ZBAA 151900Z AUTO 32006KT 2 1/2SM M07/M15 A3047 RMK T10701150 IEM_DS3505
ZBAA,2001-12-15 20:00,ZBAA 152000Z AUTO 32002KT 2 1/2SM M07/M15 A3045 RMK T10701150 IEM_DS3505
ZBAA,2001-12-15 21:00,ZBAA 152100Z AUTO 00000KT 6SM M06/M14 A3045 RMK SLP305 T10621141 57009 IEM_DS3505
ZBAA,2001-12-15 22:00,ZBAA 152200Z AUTO 34004KT 3SM M08/M14 A3045 RMK T10801140 IEM_DS3505
ZBAA,2001-12-15 23:00,ZBAA 152300Z AUTO 36006KT 3SM M07/M13 A3045 RMK T10701130 IEM_DS3505
ZBAA,2001-12-16 00:00,ZBAA 160000Z AUTO 34002KT 6SM M05/M15 A3047 RMK SLP318 T10501146 52012 IEM_DS3505
ZBAA,2001-12-16 01:00,ZBAA 160100Z AUTO 33006KT 3SM M06/M13 A3050 RMK T10601130 IEM_DS3505
ZBAA,2001-12-16 02:00,ZBAA 160200Z AUTO 36006KT 3SM M04/M13 A3050 RMK T10401130 IEM_DS3505
ZBAA,2001-12-16 03:00,ZBAA 160300Z AUTO 02006KT 5SM M01/M16 A3050 RMK SLP326 T10091163 52009 IEM_DS3505
ZBAA,2001-12-16 04:00,ZBAA 160400Z AUTO 01006KT 5SM 00/M14 A3047 RMK T00001140 IEM_DS3505
ZBAA,2001-12-16 05:00,ZBAA 160500Z AUTO 02006KT 6SM 01/M15 A3047 RMK T00101150 IEM_DS3505
ZBAA,2001-12-16 06:00,ZBAA 160600Z AUTO 04004KT 6SM 02/M14 A3045 RMK SLP307 T00221137 57019 IEM_DS3505
ZBAA,2001-12-16 07:00,ZBAA 160700Z AUTO 03004KT 6SM 02/M16 A3045 RMK T00201160 IEM_DS3505
ZBAA,2001-12-16 08:00,ZBAA 160800Z AUTO 05004KT 6SM 02/M16 A3045 RMK T00201160 IEM_DS3505
ZBAA,2001-12-16 09:00,ZBAA 160900Z AUTO 02004KT 5SM 00/M15 A3047 RMK SLP317 T00021149 52010 IEM_DS3505
ZBAA,2001-12-16 10:00,ZBAA 161000Z AUTO 01004KT M02/M16 A3050 RMK T10201160 IEM_DS3505
ZBAA,2001-12-16 11:00,ZBAA 161100Z AUTO 36004KT M01/M17 A3053 RMK T10101170 IEM_DS3505
ZBAA,2001-12-16 12:00,ZBAA 161200Z AUTO 32004KT 6SM M02/M12 A3056 RMK SLP342 T10171124 52025 IEM_DS3505
ZBAA,2001-12-16 13:00,ZBAA 161300Z AUTO 33002KT M04/M16 A3056 RMK T10401160 IEM_DS3505
ZBAA,2001-12-16 14:00,ZBAA 161400Z AUTO 34004KT M04/M15 A3059 RMK T10401150 IEM_DS3505
ZBAA,2001-12-16 15:00,ZBAA 161500Z AUTO 00000KT 3SM M04/M13 A3062 RMK SLP361 T10451131 52019 IEM_DS3505
ZBAA,2001-12-16 16:00,ZBAA 161600Z AUTO 34004KT M06/M15 A3062 RMK T10601150 IEM_DS3505
ZBAA,2001-12-16 17:00,ZBAA 161700Z AUTO 33006KT M08/M15 A3065 RMK T10801150 IEM_DS3505
ZBAA,2001-12-16 18:00,ZBAA 161800Z AUTO 04004KT 6SM M04/M14 A3065 RMK SLP373 T10421139 52012 IEM_DS3505
ZBAA,2001-12-16 19:00,ZBAA 161900Z AUTO 32004KT 5SM M06/M15 A3068 RMK T10601150 IEM_DS3505
ZBAA,2001-12-16 20:00,ZBAA 162000Z AUTO 35004KT 5SM M06/M16 A3068 RMK T10601160 IEM_DS3505
ZBAA,2001-12-16 21:00,ZBAA 162100Z AUTO 00000KT 6SM M08/M13 A3068 RMK SLP386 T10781134 52012 IEM_DS3505
ZBAA,2001-12-16 22:00,ZBAA 162200Z AUTO 34004KT 6SM M08/M17 A3068 RMK T10801170 IEM_DS3505
ZBAA,2001-12-16 23:00,ZBAA 162300Z AUTO 02002KT 6SM M08/M17 A3071 RMK T10801170 IEM_DS3505
ZBAA,2001-12-17 00:00,ZBAA 170000Z AUTO 04004KT 6SM M06/M18 A3074 RMK SLP397 T10581179 52011 IEM_DS3505
ZBAA,2001-12-17 01:00,ZBAA 170100Z AUTO 02008KT 6SM M05/M20 A3074 RMK T10501200 IEM_DS3505
ZBAA,2001-12-17 02:00,ZBAA 170200Z AUTO 02008KT 6SM M04/M21 A3077 RMK T10401210 IEM_DS3505
ZBAA,2001-12-17 03:00,ZBAA 170300Z AUTO 36008KT 11SM M03/M23 A3074 RMK SLP407 T10261226 52010 IEM_DS3505
ZBAA,2001-12-17 04:00,ZBAA 170400Z AUTO 01008KT 6SM M02/M20 A3071 RMK T10201200 IEM_DS3505
ZBAA,2001-12-17 05:00,ZBAA 170500Z AUTO 01006KT 6SM M01/M21 A3068 RMK T10101210 IEM_DS3505
ZBAA,2001-12-17 06:00,ZBAA 170600Z AUTO 04006KT 9SM M00/M18 A3068 RMK SLP386 T10031183 57020 IEM_DS3505
ZBAA,2001-12-17 07:00,ZBAA 170700Z AUTO 03004KT 6SM 00/M21 A3065 RMK T00001210 IEM_DS3505
ZBAA,2001-12-17 08:00,ZBAA 170800Z AUTO 04004KT 6SM M01/M22 A3065 RMK T10101220 IEM_DS3505
ZBAA,2001-12-17 09:00,ZBAA 170900Z AUTO 00000KT 9SM M02/M18 A3068 RMK SLP387 T10241177 54000 IEM_DS3505
ZBAA,2001-12-17 10:00,ZBAA 171000Z AUTO 6SM M04/M20 A3068 RMK T10401200 IEM_DS3505
ZBAA,2001-12-17 11:00,ZBAA 171100Z AUTO 6SM M03/M20 A3068 RMK T10301200 IEM_DS3505
ZBAA,2001-12-17 12:00,ZBAA 171200Z AUTO 00000KT 6SM M04/M17 A3071 RMK SLP394 T10371166 52007 IEM_DS3505
ZBAA,2001-12-17 13:00,ZBAA 171300Z AUTO 01004KT 6SM M06/M19 A3071 RMK T10601190 IEM_DS3505
ZBAA,2001-12-17 14:00,ZBAA 171400Z AUTO 35004KT 6SM M06/M20 A3074 RMK T10601200 IEM_DS3505
ZBAA,2001-12-17 15:00,ZBAA 171500Z AUTO 02004KT 1 1/4SM M06/M16 A3074 RMK SLP406 T10591157 52012 IEM_DS3505
ZBAA,2001-12-17 16:00,ZBAA 171600Z AUTO 01006KT 6SM M05/M19 A3074 RMK T10501190 IEM_DS3505
ZBAA,2001-12-17 17:00,ZBAA 171700Z AUTO 02004KT 6SM M05/M20 A3074 RMK T10501200 IEM_DS3505
ZBAA,2001-12-17 18:00,ZBAA 171800Z AUTO 04004KT 6SM M05/M21 A3074 RMK SLP407 T10541208 52001 IEM_DS3505
ZBAA,2001-12-17 19:00,ZBAA 171900Z AUTO 02008KT 6SM M06/M20 A3074 RMK T10601200 IEM_DS3505
ZBAA,2001-12-17 20:00,ZBAA 172000Z AUTO 02008KT 6SM M06/M20 A3074 RMK T10601200 IEM_DS3505
ZBAA,2001-12-17 21:00,ZBAA 172100Z AUTO 02004KT 9SM M06/M22 A3074 RMK SLP405 T10611215 57002 IEM_DS3505
ZBAA,2001-12-17 22:00,ZBAA 172200Z AUTO 03006KT 6SM M07/M22 A3074 RMK T10701220 IEM_DS3505
ZBAA,2001-12-17 23:00,ZBAA 172300Z AUTO 02008KT 6SM M07/M22 A3074 RMK T10701220 IEM_DS3505
ZBAA,2001-12-18 00:00,ZBAA 180000Z AUTO 02006KT 9SM M07/M22 A3077 RMK SLP412 T10671220 52007 IEM_DS3505
ZBAA,2001-12-18 01:00,ZBAA 180100Z AUTO 03008KT 6SM M05/M22 A3077 RMK T10501220 IEM_DS3505
ZBAA,2001-12-18 02:00,ZBAA 180200Z AUTO 03010KT 6SM M04/M22 A3077 RMK T10401220 IEM_DS3505
ZBAA,2001-12-18 03:00,ZBAA 180300Z AUTO 02006KT 9SM M03/M24 A3077 RMK SLP416 T10291238 52004 IEM_DS3505
ZBAA,2001-12-18 04:00,ZBAA 180400Z AUTO 01008KT 6SM M02/M22 A3074 RMK T10201220 IEM_DS3505
ZBAA,2001-12-18 05:00,ZBAA 180500Z AUTO 02006KT 6SM M02/M23 A3071 RMK T10201230 IEM_DS3505
ZBAA,2001-12-18 06:00,ZBAA 180600Z AUTO 04004KT 12SM M01/M24 A3065 RMK SLP384 T10071237 57032 IEM_DS3505
ZBAA,2001-12-18 07:00,ZBAA 180700Z AUTO 36004KT 6SM M01/M23 A3065 RMK T10101230 IEM_DS3505
ZBAA,2001-12-18 08:00,ZBAA 180800Z AUTO 36002KT 6SM M01/M23 A3065 RMK T10101230 IEM_DS3505
ZBAA,2001-12-18 09:00,ZBAA 180900Z AUTO 20002KT 7SM M02/M22 A3065 RMK SLP386 T10211220 52002 IEM_DS3505
ZBAA,2001-12-18 10:00,ZBAA 181000Z AUTO 25002KT 6SM M02/M21 A3068 RMK T10201210 IEM_DS3505
ZBAA,2001-12-18 11:00,ZBAA 181100Z AUTO 28002KT 6SM M02/M22 A3071 RMK T10201220 IEM_DS3505
ZBAA,2001-12-18 12:00,ZBAA 181200Z AUTO 22004KT 7SM M03/M16 A3071 RMK SLP396 T10281161 52010 IEM_DS3505
ZBAA,2001-12-18 13:00,ZBAA 181300Z AUTO 30004KT 6SM M02/M21 A3071 RMK T10201210 IEM_DS3505
ZBAA,2001-12-18 14:00,ZBAA 181400Z AUTO 04002KT 6SM M04/M17 A3074 RMK T10401170 IEM_DS3505
ZBAA,2001-12-18 15:00,ZBAA 181500Z AUTO 22004KT 6SM M03/M16 A3074 RMK SLP405 T10311160 52009 IEM_DS3505
ZBAA,2001-12-18 16:00,ZBAA 181600Z AUTO 36002KT M04/M17 A3074 RMK T10401170 IEM_DS3505
ZBAA,2001-12-18 17:00,ZBAA 181700Z AUTO M05/M16 A3074 RMK T10501160 IEM_DS3505
ZBAA,2001-12-18 18:00,ZBAA 181800Z AUTO 00000KT 6SM M04/M14 A3074 RMK SLP403 T10401136 57002 IEM_DS3505
ZBAA,2001-12-18 19:00,ZBAA 181900Z AUTO 35004KT M06/M16 A3074 RMK T10601160 IEM_DS3505
ZBAA,2001-12-18 20:00,ZBAA 182000Z AUTO 35002KT M07/M14 A3071 RMK T10701140 IEM_DS3505
ZBAA,2001-12-18 21:00,ZBAA 182100Z AUTO 04004KT 7SM M04/M16 A3071 RMK SLP398 T10441157 57005 IEM_DS3505
ZBAA,2001-12-18 22:00,ZBAA 182200Z AUTO 01004KT 6SM M06/M15 A3071 RMK T10601150 IEM_DS3505
ZBAA,2001-12-18 23:00,ZBAA 182300Z AUTO 6SM M06/M15 A3074 RMK T10601150 IEM_DS3505
ZBAA,2001-12-19 00:00,ZBAA 190000Z AUTO 00000KT 4SM M06/M15 A3074 RMK SLP407 T10581148 52009 IEM_DS3505
ZBAA,2001-12-19 01:00,ZBAA 190100Z AUTO 35002KT 6SM M05/M14 A3074 RMK T10501140 IEM_DS3505
ZBAA,2001-12-19 02:00,ZBAA 190200Z AUTO 01004KT 6SM M03/M17 A3077 RMK T10301170 IEM_DS3505
ZBAA,2001-12-19 03:00,ZBAA 190300Z AUTO 07002KT 6SM M02/M19 A3077 RMK SLP414 T10161193 52007 IEM_DS3505
ZBAA,2001-12-19 04:00,ZBAA 190400Z AUTO 05004KT 6SM M01/M18 A3074 RMK T10101180 IEM_DS3505
ZBAA,2001-12-19 05:00,ZBAA 190500Z AUTO 06002KT 6SM M01/M19 A3071 RMK T10101190 IEM_DS3505
ZBAA,2001-12-19 06:00,ZBAA 190600Z AUTO 07002KT 7SM M01/M20 A3071 RMK SLP403 T10061204 57011 IEM_DS3505
ZBAA,2001-12-19 07:00,ZBAA 190700Z AUTO 14002KT 6SM M01/M19 A3071 RMK T10101190 IEM_DS3505
ZBAA,2001-12-19 08:00,ZBAA 190800Z AUTO 14002KT 6SM M01/M19 A3068 RMK T10101190 IEM_DS3505
ZBAA,2001-12-19 09:00,ZBAA 190900Z AUTO 14002KT 6SM M02/M17 RMK SLP394 T10161174 57009 IEM_DS3505
ZBAA,2001-12-19 10:00,ZBAA 191000Z AUTO 6SM M02/M18 A3071 RMK T10201180 IEM_DS3505
ZBAA,2001-12-19 11:00,ZBAA 191100Z AUTO 19004KT 6SM M02/M18 A3071 RMK T10201180 IEM_DS3505
ZBAA,2001-12-19 12:00,ZBAA 191200Z AUTO 14002KT 9SM M03/M16 A3071 RMK SLP401 T10321155 52007 IEM_DS3505
ZBAA,2001-12-19 13:00,ZBAA 191300Z AUTO 15002KT 5SM M04/M16 A3074 RMK T10401160 IEM_DS3505
ZBAA,2001-12-19 14:00,ZBAA 191400Z AUTO M03/M17 A3074 RMK T10301170 IEM_DS3505
ZBAA,2001-12-19 15:00,ZBAA 191500Z AUTO 00000KT 3SM M05/M13 A3074 RMK SLP404 T10501128 52003 IEM_DS3505
ZBAA,2001-12-19 16:00,ZBAA 191600Z AUTO 3SM M06/M13 A3074 RMK T10601130 IEM_DS3505
ZBAA,2001-12-19 17:00,ZBAA 191700Z AUTO 2 1/2SM M07/M13 A3071 RMK T10701130 IEM_DS3505
ZBAA,2001-12-19 18:00,ZBAA 191800Z AUTO 00000KT 2 1/2SM M04/M11 A3071 RMK SLP401 T10441107 57003 IEM_DS3505
ZBAA,2001-12-19 19:00,ZBAA 191900Z AUTO 36002KT 2SM M06/M12 A3071 RMK T10601120 IEM_DS3505
ZBAA,2001-12-19 20:00,ZBAA 192000Z AUTO 2SM M05/M13 A3068 RMK T10501130 IEM_DS3505
ZBAA,2001-12-19 21:00,ZBAA 192100Z AUTO 00000KT 5SM M05/M12 A3068 RMK SLP384 T10471117 57017 IEM_DS3505
ZBAA,2001-12-19 22:00,ZBAA 192200Z AUTO 2SM M05/M13 A3065 RMK T10501130 IEM_DS3505
ZBAA,2001-12-19 23:00,ZBAA 192300Z AUTO 27002KT 2SM M04/M14 A3068 RMK T10401140 IEM_DS3505
ZBAA,2001-12-20 00:00,ZBAA 200000Z AUTO 00000KT 4SM M03/M11 A3071 RMK 60003 SLP391 T10281114 52007 IEM_DS3505
ZBAA,2001-12-20 01:00,ZBAA 200100Z AUTO 35002KT 2 1/2SM M04/M13 A3071 RMK T10401130 IEM_DS3505
ZBAA,2001-12-20 02:00,ZBAA 200200Z AUTO 31004KT 2 1/2SM M03/M12 A3068 RMK T10301120 IEM_DS3505
ZBAA,2001-12-20 03:00,ZBAA 200300Z AUTO 00000KT 6SM M02/M11 A3068 RMK SLP392 T10211108 52001 IEM_DS3505
ZBAA,2001-12-20 04:00,ZBAA 200400Z AUTO 33006KT 5SM M02/M10 A3068 RMK T10201100 IEM_DS3505
ZBAA,2001-12-20 05:00,ZBAA 200500Z AUTO 31012KT 5SM M01/M13 A3065 RMK T10101130 IEM_DS3505
ZBAA,2001-12-20 06:00,ZBAA 200600Z AUTO 34010KT 11SM 00/M13 A3062 RMK SLP372 T00001128 57019 IEM_DS3505
ZBAA,2001-12-20 07:00,ZBAA 200700Z AUTO 30016G27KT 6SM M01/M15 A3062 RMK T10101150 IEM_DS3505
ZBAA,2001-12-20 08:00,ZBAA 200800Z AUTO 29016G25KT 6SM M02/M16 A3065 RMK T10201160 IEM_DS3505
ZBAA,2001-12-20 09:00,ZBAA 200900Z AUTO 34008G29KT 19SM M02/M19 A3065 RMK SLP376 T10181188 52003 IEM_DS3505
ZBAA,2001-12-20 10:00,ZBAA 201000Z AUTO 30016KT 6SM M03/M18 A3065 RMK T10301180 IEM_DS3505
ZBAA,2001-12-20 11:00,ZBAA 201100Z AUTO 31014KT 6SM M03/M20 A3068 RMK T10301200 IEM_DS3505
ZBAA,2001-12-20 12:00,ZBAA 201200Z AUTO 32010KT 12SM M02/M18 A3068 RMK SLP382 T10221181 52006 IEM_DS3505
ZBAA,2001-12-20 13:00,ZBAA 201300Z AUTO 31016KT 6SM M03/M21 A3068 RMK T10301210 IEM_DS3505
ZBAA,2001-12-20 14:00,ZBAA 201400Z AUTO 31017KT 6SM M04/M22 A3068 RMK T10401220 IEM_DS3505
ZBAA,2001-12-20 15:00,ZBAA 201500Z AUTO 32008KT 16SM M03/M21 A3068 RMK SLP387 T10321209 52005 IEM_DS3505
ZBAA,2001-12-20 16:00,ZBAA 201600Z AUTO 31019KT 6SM M04/M23 A3068 RMK T10401230 IEM_DS3505
ZBAA,2001-12-20 17:00,ZBAA 201700Z AUTO 31019G29KT 6SM M05/M23 A3065 RMK T10501230 IEM_DS3505
ZBAA,2001-12-20 18:00,ZBAA 201800Z AUTO 32006G27KT 19SM M04/M23 A3065 RMK SLP382 T10421230 57004 IEM_DS3505
ZBAA,2001-12-20 19:00,ZBAA 201900Z AUTO 31021KT 6SM M05/M23 A3065 RMK T10501230 IEM_DS3505
ZBAA,2001-12-20 20:00,ZBAA 202000Z AUTO 31017KT 6SM M05/M22 A3065 RMK T10501220 IEM_DS3505
ZBAA,2001-12-20 21:00,ZBAA 202100Z AUTO 34008KT 19SM M04/M25 A3065 RMK 70003 SLP376 T10411254 57007 IEM_DS3505
ZBAA,2001-12-20 22:00,ZBAA 202200Z AUTO 31012KT 6SM M06/M22 A3065 RMK T10601220 IEM_DS3505
ZBAA,2001-12-20 23:00,ZBAA 202300Z AUTO 33008KT 6SM M07/M23 A3065 RMK T10701230 IEM_DS3505
ZBAA,2001-12-21 00:00,ZBAA 210000Z AUTO 34008KT 19SM M04/M24 A3065 RMK SLP375 T10421243 57001 IEM_DS3505
ZBAA,2001-12-21 01:00,ZBAA 210100Z AUTO 31012KT 6SM M04/M21 A3065 RMK T10401210 IEM_DS3505
ZBAA,2001-12-21 02:00,ZBAA 210200Z AUTO 30014KT 6SM M02/M22 A3065 RMK T10201220 IEM_DS3505
ZBAA,2001-12-21 03:00,ZBAA 210300Z AUTO 32008G23KT 19SM M01/M22 A3062 RMK SLP373 T10081222 57001 IEM_DS3505
ZBAA,2001-12-21 04:00,ZBAA 210400Z AUTO 31017G29KT 6SM 00/M22 A3059 RMK T00001220 IEM_DS3505
ZBAA,2001-12-21 05:00,ZBAA 210500Z AUTO 30016KT 6SM 01/M22 A3056 RMK T00101220 IEM_DS3505
ZBAA,2001-12-21 06:00,ZBAA 210600Z AUTO 32006KT 19SM 02/M17 A3053 RMK SLP343 T00211174 57030 IEM_DS3505
ZBAA,2001-12-21 07:00,ZBAA 210700Z AUTO 30012KT 6SM 01/M21 A3053 RMK T00101210 IEM_DS3505
ZBAA,2001-12-21 08:00,ZBAA 210800Z AUTO 29012KT 6SM 01/M20 A3053 RMK T00101200 IEM_DS3505
ZBAA,2001-12-21 09:00,ZBAA 210900Z AUTO 34002KT 12SM 01/M21 A3053 RMK SLP341 T00101210 57002 IEM_DS3505
ZBAA,2001-12-21 10:00,ZBAA 211000Z AUTO 30016KT 6SM M01/M19 A3053 RMK T10101190 IEM_DS3505
ZBAA,2001-12-21 11:00,ZBAA 211100Z AUTO 30016KT 6SM M01/M18 A3053 RMK T10101180 IEM_DS3505
ZBAA,2001-12-21 12:00,ZBAA 211200Z AUTO 32004KT 11SM M02/M16 A3053 RMK SLP341 T10191158 54000 IEM_DS3505
ZBAA,2001-12-21 13:00,ZBAA 211300Z AUTO 30016KT 6SM M02/M19 A3053 RMK T10201190 IEM_DS3505
ZBAA,2001-12-21 14:00,ZBAA 211400Z AUTO 32010KT 6SM M02/M18 A3053 RMK T10201180 IEM_DS3505
ZBAA,2001-12-21 15:00,ZBAA 211500Z AUTO 36004KT 12SM M03/M18 A3053 RMK SLP336 T10321178 57005 IEM_DS3505
ZBAA,2001-12-21 16:00,ZBAA 211600Z AUTO 36006KT 6SM M03/M18 A3050 RMK T10301180 IEM_DS3505
ZBAA,2001-12-21 17:00,ZBAA 211700Z AUTO 35008KT 6SM M06/M18 A3050 RMK T10601180 IEM_DS3505
ZBAA,2001-12-21 18:00,ZBAA 211800Z AUTO 00000KT 9SM M05/M14 A3047 RMK SLP324 T10511142 57012 IEM_DS3505
ZBAA,2001-12-21 19:00,ZBAA 211900Z AUTO 33006KT 6SM M06/M18 A3047 RMK T10601180 IEM_DS3505
ZBAA,2001-12-21 20:00,ZBAA 212000Z AUTO 34006KT 6SM M07/M18 A3047 RMK T10701180 IEM_DS3505
ZBAA,2001-12-21 21:00,ZBAA 212100Z AUTO 34004KT 12SM M04/M17 A3045 RMK SLP313 T10371173 57011 IEM_DS3505
ZBAA,2001-12-21 22:00,ZBAA 212200Z AUTO 31012KT 6SM M03/M18 A3045 RMK T10301180 IEM_DS3505
ZBAA,2001-12-21 23:00,ZBAA 212300Z AUTO 32010KT 6SM M04/M18 A3045 RMK T10401180 IEM_DS3505
ZBAA,2001-12-22 00:00,ZBAA 220000Z AUTO 34004KT 7SM M03/M14 A3045 RMK SLP308 T10261136 57005 IEM_DS3505
ZBAA,2001-12-22 01:00,ZBAA 220100Z AUTO 33010G19KT 6SM M03/M18 A3045 RMK T10301180 IEM_DS3505
ZBAA,2001-12-22 02:00,ZBAA 220200Z AUTO 33012KT 6SM M01/M18 A3045 RMK T10101180 IEM_DS3505
ZBAA,2001-12-22 03:00,ZBAA 220300Z AUTO 34008KT 12SM 00/M21 A3042 RMK SLP300 T00031209 57008 IEM_DS3505
ZBAA,2001-12-22 04:00,ZBAA 220400Z AUTO 31014KT 6SM 01/M19 A3039 RMK T00101190 IEM_DS3505
ZBAA,2001-12-22 05:00,ZBAA 220500Z AUTO 31016KT 6SM 02/M19 A3036 RMK T00201190 IEM_DS3505
ZBAA,2001-12-22 06:00,ZBAA 220600Z AUTO 32010KT 12SM 02/M23 A3033 RMK SLP273 T00181229 57027 IEM_DS3505
ZBAA,2001-12-22 07:00,ZBAA 220700Z AUTO 31014KT 6SM 02/M19 A3033 RMK T00201190 IEM_DS3505
ZBAA,2001-12-22 08:00,ZBAA 220800Z AUTO 31012KT 6SM 01/M19 A3033 RMK T00101190 IEM_DS3505
ZBAA,2001-12-22 09:00,ZBAA 220900Z AUTO 32010KT 16SM 01/M23 A3036 RMK SLP279 T00061228 52006 IEM_DS3505
ZBAA,2001-12-22 10:00,ZBAA 221000Z AUTO 30012KT 6SM M01/M20 A3039 RMK T10101200 IEM_DS3505
ZBAA,2001-12-22 11:00,ZBAA 221100Z AUTO 30014KT 6SM M02/M20 A3039 RMK T10201200 IEM_DS3505
ZBAA,2001-12-22 12:00,ZBAA 221200Z AUTO 34012KT 12SM M01/M25 A3039 RMK SLP290 T10111246 52011 IEM_DS3505
ZBAA,2001-12-22 13:00,ZBAA 221300Z AUTO 30014KT 6SM M03/M19 A3042 RMK T10301190 IEM_DS3505
ZBAA,2001-12-22 14:00,ZBAA 221400Z AUTO 31012KT 6SM M04/M19 A3042 RMK T10401190 IEM_DS3505
ZBAA,2001-12-22 15:00,ZBAA 221500Z AUTO 34008KT 12SM M02/M21 A3042 RMK SLP300 T10251208 52010 IEM_DS3505
ZBAA,2001-12-22 17:00,ZBAA 221700Z AUTO 31008KT 6SM M06/M20 A3042 RMK T10601200 IEM_DS3505
ZBAA,2001-12-22 18:00,ZBAA 221800Z AUTO 34006KT 9SM M04/M24 A3042 RMK SLP296 T10371236 57004 IEM_DS3505
ZBAA,2001-12-22 19:00,ZBAA 221900Z AUTO 32010KT 6SM M07/M20 A3042 RMK T10701200 IEM_DS3505
ZBAA,2001-12-22 20:00,ZBAA 222000Z AUTO 32008KT 6SM M07/M21 A3042 RMK T10701210 IEM_DS3505
ZBAA,2001-12-22 21:00,ZBAA 222100Z AUTO 34004KT 9SM M05/M23 A3039 RMK SLP291 T10501228 57005 IEM_DS3505
ZBAA,2001-12-22 22:00,ZBAA 222200Z AUTO 36006KT 6SM M07/M20 A3042 RMK T10701200 IEM_DS3505
ZBAA,2001-12-22 23:00,ZBAA 222300Z AUTO 03004KT 6SM M08/M20 A3042 RMK T10801200 IEM_DS3505
ZBAA,2001-12-23 00:00,ZBAA 230000Z AUTO 36006KT 19SM M05/M25 A3042 RMK SLP293 T10491252 52002 IEM_DS3505
ZBAA,2001-12-23 01:00,ZBAA 230100Z AUTO 36006KT 6SM M06/M19 A3042 RMK T10601190 IEM_DS3505
ZBAA,2001-12-23 02:00,ZBAA 230200Z AUTO 36008KT 6SM M03/M21 A3042 RMK T10301210 IEM_DS3505
ZBAA,2001-12-23 03:00,ZBAA 230300Z AUTO 36008KT 12SM M01/M18 A3042 RMK SLP297 T10141185 52004 IEM_DS3505
ZBAA,2001-12-23 04:00,ZBAA 230400Z AUTO 33012KT 6SM 00/M23 A3039 RMK T00001230 IEM_DS3505
ZBAA,2001-12-23 05:00,ZBAA 230500Z AUTO 32014KT 6SM 01/M23 A3036 RMK T00101230 IEM_DS3505
ZBAA,2001-12-23 06:00,ZBAA 230600Z AUTO 36006KT 16SM 01/M20 A3036 RMK SLP274 T00141196 57023 IEM_DS3505
ZBAA,2001-12-23 07:00,ZBAA 230700Z AUTO 32014KT 6SM 01/M24 A3033 RMK T00101240 IEM_DS3505
ZBAA,2001-12-23 08:00,ZBAA 230800Z AUTO 30012KT 6SM 00/M23 A3036 RMK T00001230 IEM_DS3505
ZBAA,2001-12-23 09:00,ZBAA 230900Z AUTO 34004KT 12SM 00/M22 A3036 RMK SLP277 T00021218 52003 IEM_DS3505
ZBAA,2001-12-23 10:00,ZBAA 231000Z AUTO 31014KT 6SM M01/M21 A3036 RMK T10101210 IEM_DS3505
ZBAA,2001-12-23 11:00,ZBAA 231100Z AUTO 30019KT 6SM M01/M21 A3039 RMK T10101210 IEM_DS3505
ZBAA,2001-12-23 12:00,ZBAA 231200Z AUTO 34006KT 12SM M01/M20 A3042 RMK SLP293 T10101203 52016 IEM_DS3505
ZBAA,2001-12-23 13:00,ZBAA 231300Z AUTO 32019KT 6SM M03/M24 A3045 RMK T10301240 IEM_DS3505
ZBAA,2001-12-23 14:00,ZBAA 231400Z AUTO 32021KT 6SM M03/M24 A3045 RMK T10301240 IEM_DS3505
ZBAA,2001-12-23 15:00,ZBAA 231500Z AUTO 34012G27KT 12SM M03/M21 A3047 RMK SLP316 T10281207 52023 IEM_DS3505
ZBAA,2001-12-23 16:00,ZBAA 231600Z AUTO 32016KT 6SM M05/M22 A3050 RMK T10501220 IEM_DS3505
ZBAA,2001-12-23 18:00,ZBAA 231800Z AUTO 34012KT 12SM M05/M25 A3053 RMK SLP330 T10481250 52014 IEM_DS3505
ZBAA,2001-12-23 19:00,ZBAA 231900Z AUTO 34006KT 6SM M09/M21 A3056 RMK T10901210 IEM_DS3505
ZBAA,2001-12-23 20:00,ZBAA 232000Z AUTO 35012KT 6SM M08/M21 A3053 RMK T10801210 IEM_DS3505
ZBAA,2001-12-23 21:00,ZBAA 232100Z AUTO 34008G27KT 12SM M06/M23 A3056 RMK SLP342 T10581229 52012 IEM_DS3505
ZBAA,2001-12-23 22:00,ZBAA 232200Z AUTO 32017KT 6SM M08/M24 A3059 RMK T10801240 IEM_DS3505
ZBAA,2001-12-23 23:00,ZBAA 232300Z AUTO 31017KT 6SM M08/M24 A3062 RMK T10801240 IEM_DS3505
ZBAA,2001-12-24 00:00,ZBAA 240000Z AUTO 34014G27KT 12SM M08/M25 A3065 RMK SLP374 T10771249 52031 IEM_DS3505
ZBAA,2001-12-24 01:00,ZBAA 240100Z AUTO 34010KT 6SM M08/M24 A3071 RMK T10801240 IEM_DS3505
ZBAA,2001-12-24 02:00,ZBAA 240200Z AUTO 35010KT 6SM M07/M25 A3071 RMK T10701250 IEM_DS3505
ZBAA,2001-12-24 03:00,ZBAA 240300Z AUTO 34016KT 11SM M07/M26 A3071 RMK SLP398 T10671261 52024 IEM_DS3505
ZBAA,2001-12-24 04:00,ZBAA 240400Z AUTO 36014KT 6SM M05/M25 A3071 RMK T10501250 IEM_DS3505
ZBAA,2001-12-24 05:00,ZBAA 240500Z AUTO 32012G21KT 6SM M04/M25 A3068 RMK T10401250 IEM_DS3505
ZBAA,2001-12-24 06:00,ZBAA 240600Z AUTO 34014KT 16SM M04/M27 A3068 RMK SLP390 T10361266 57008 IEM_DS3505
ZBAA,2001-12-24 07:00,ZBAA 240700Z AUTO 32017KT 6SM M03/M24 A3068 RMK T10301240 IEM_DS3505
ZBAA,2001-12-24 08:00,ZBAA 240800Z AUTO 30016KT 6SM M03/M24 A3068 RMK T10301240 IEM_DS3505
ZBAA,2001-12-24 09:00,ZBAA 240900Z AUTO 34010KT 19SM M03/M26 A3071 RMK SLP397 T10341258 52007 IEM_DS3505
ZBAA,2001-12-24 10:00,ZBAA 241000Z AUTO 31012KT 6SM M05/M23 A3071 RMK T10501230 IEM_DS3505
ZBAA,2001-12-24 11:00,ZBAA 241100Z AUTO 32014KT 6SM M05/M22 A3074 RMK T10501220 IEM_DS3505
ZBAA,2001-12-24 12:00,ZBAA 241200Z AUTO 34008KT 19SM M04/M26 A3074 RMK SLP406 T10411255 52009 IEM_DS3505
ZBAA,2001-12-24 13:00,ZBAA 241300Z AUTO 32014KT 6SM M05/M22 A3077 RMK T10501220 IEM_DS3505
ZBAA,2001-12-24 14:00,ZBAA 241400Z AUTO 32012KT 6SM M05/M22 A3077 RMK T10501220 IEM_DS3505
ZBAA,2001-12-24 15:00,ZBAA 241500Z AUTO 36008KT 19SM M04/M26 A3077 RMK SLP408 T10421260 52002 IEM_DS3505
ZBAA,2001-12-24 16:00,ZBAA 241600Z AUTO 34010KT 6SM M08/M22 A3077 RMK T10801220 IEM_DS3505
ZBAA,2001-12-24 17:00,ZBAA 241700Z AUTO 34010KT 6SM M07/M22 A3077 RMK T10701220 IEM_DS3505
ZBAA,2001-12-24 18:00,ZBAA 241800Z AUTO 34006KT 19SM M05/M25 A3077 RMK SLP413 T10511249 52005 IEM_DS3505
ZBAA,2001-12-24 19:00,ZBAA 241900Z AUTO 01006KT 6SM M08/M21 A3077 RMK T10801210 IEM_DS3505
ZBAA,2001-12-24 20:00,ZBAA 242000Z AUTO 36006KT 6SM M09/M21 A3077 RMK T10901210 IEM_DS3505
ZBAA,2001-12-24 21:00,ZBAA 242100Z AUTO 36010KT 19SM M05/M23 A3074 RMK SLP409 T10541231 57004 IEM_DS3505
ZBAA,2001-12-24 22:00,ZBAA 242200Z AUTO 36006KT 6SM M10/M21 A3077 RMK T11001210 IEM_DS3505
ZBAA,2001-12-24 23:00,ZBAA 242300Z AUTO 01008KT 6SM M07/M21 A3077 RMK T10701210 IEM_DS3505
ZBAA,2001-12-25 00:00,ZBAA 250000Z AUTO 04004KT 19SM M07/M25 A3077 RMK SLP414 T10731252 52005 IEM_DS3505
ZBAA,2001-12-25 01:00,ZBAA 250100Z AUTO 01010KT 6SM M06/M21 A3077 RMK T10601210 IEM_DS3505
ZBAA,2001-12-25 02:00,ZBAA 250200Z AUTO 01008KT 6SM M05/M21 A3074 RMK T10501210 IEM_DS3505
ZBAA,2001-12-25 03:00,ZBAA 250300Z AUTO 34008KT 12SM M03/M22 A3074 RMK SLP407 T10281221 57007 IEM_DS3505
ZBAA,2001-12-25 04:00,ZBAA 250400Z AUTO 34006KT 6SM M02/M21 A3071 RMK T10201210 IEM_DS3505
ZBAA,2001-12-25 05:00,ZBAA 250500Z AUTO 32004KT 6SM M01/M22 A3065 RMK T10101220 IEM_DS3505
ZBAA,2001-12-25 06:00,ZBAA 250600Z AUTO 20002KT 16SM 00/M22 A3062 RMK SLP372 T00031224 57034 IEM_DS3505
ZBAA,2001-12-25 07:00,ZBAA 250700Z AUTO 32006KT 6SM 01/M22 A3059 RMK T00101220 IEM_DS3505
ZBAA,2001-12-25 08:00,ZBAA 250800Z AUTO 32006KT 6SM 00/M22 A3059 RMK T00001220 IEM_DS3505
ZBAA,2001-12-25 09:00,ZBAA 250900Z AUTO 22004KT 12SM M01/M20 A3059 RMK SLP364 T10091195 57009 IEM_DS3505
ZBAA,2001-12-25 10:00,ZBAA 251000Z AUTO 28006KT 6SM M01/M21 A3059 RMK T10101210 IEM_DS3505
ZBAA,2001-12-25 11:00,ZBAA 251100Z AUTO 27004KT 6SM M02/M21 A3062 RMK T10201210 IEM_DS3505
ZBAA,2001-12-25 12:00,ZBAA 251200Z AUTO 29004KT 9SM M02/M18 A3059 RMK SLP364 T10171185 54000 IEM_DS3505
ZBAA,2001-12-25 13:00,ZBAA 251300Z AUTO 27004KT 6SM M02/M20 A3059 RMK T10201200 IEM_DS3505
ZBAA,2001-12-25 14:00,ZBAA 251400Z AUTO 27004KT M02/M20 A3059 RMK T10201200 IEM_DS3505
ZBAA,2001-12-25 15:00,ZBAA 251500Z AUTO 00000KT 6SM M03/M16 A3059 RMK SLP362 T10261164 57001 IEM_DS3505
ZBAA,2001-12-25 16:00,ZBAA 251600Z AUTO 30004KT 5SM M03/M19 A3059 RMK T10301190 IEM_DS3505
ZBAA,2001-12-25 17:00,ZBAA 251700Z AUTO 34004KT 5SM M04/M18 A3056 RMK T10401180 IEM_DS3505
ZBAA,2001-12-25 18:00,ZBAA 251800Z AUTO 00000KT 6SM M05/M14 A3056 RMK SLP352 T10481136 57010 IEM_DS3505
ZBAA,2001-12-25 19:00,ZBAA 251900Z AUTO 35004KT M07/M18 A3056 RMK T10701180 IEM_DS3505
ZBAA,2001-12-25 20:00,ZBAA 252000Z AUTO 34004KT M07/M17 A3056 RMK T10701170 IEM_DS3505
ZBAA,2001-12-25 21:00,ZBAA 252100Z AUTO 04002KT 6SM M06/M16 A3056 RMK SLP347 T10591156 57006 IEM_DS3505
ZBAA,2001-12-25 22:00,ZBAA 252200Z AUTO 34006KT 6SM M08/M17 A3056 RMK T10801170 IEM_DS3505
ZBAA,2001-12-25 23:00,ZBAA 252300Z AUTO 35006KT 6SM M08/M17 A3056 RMK T10801170 IEM_DS3505
ZBAA,2001-12-26 00:00,ZBAA 260000Z AUTO 00000KT 4SM M06/M18 A3059 RMK SLP356 T10571176 52009 IEM_DS3505
ZBAA,2001-12-26 01:00,ZBAA 260100Z AUTO 35008KT 6SM M05/M16 A3059 RMK T10501160 IEM_DS3505
ZBAA,2001-12-26 02:00,ZBAA 260200Z AUTO 03004KT 6SM M02/M17 A3059 RMK T10201170 IEM_DS3505
ZBAA,2001-12-26 03:00,ZBAA 260300Z AUTO 04006KT 6SM M00/M21 A3059 RMK SLP362 T10011208 52007 IEM_DS3505
ZBAA,2001-12-26 04:00,ZBAA 260400Z AUTO 6SM 01/M20 A3059 RMK T00101200 IEM_DS3505
ZBAA,2001-12-26 05:00,ZBAA 260500Z AUTO 6SM 01/M19 A3053 RMK T00101190 IEM_DS3505
ZBAA,2001-12-26 06:00,ZBAA 260600Z AUTO 07006KT 7SM 02/M16 A3053 RMK SLP340 T00221162 57022 IEM_DS3505
ZBAA,2001-12-26 07:00,ZBAA 260700Z AUTO 14002KT 6SM 02/M20 A3053 RMK T00201200 IEM_DS3505
ZBAA,2001-12-26 08:00,ZBAA 260800Z AUTO 16002KT 6SM 01/M20 A3053 RMK T00101200 IEM_DS3505
ZBAA,2001-12-26 09:00,ZBAA 260900Z AUTO 11004KT 9SM M00/M20 A3053 RMK SLP339 T10041195 57001 IEM_DS3505
ZBAA,2001-12-26 10:00,ZBAA 261000Z AUTO 18002KT 6SM M01/M19 A3053 RMK T10101190 IEM_DS3505
ZBAA,2001-12-26 11:00,ZBAA 261100Z AUTO 24002KT 5SM M01/M20 A3056 RMK T10101200 IEM_DS3505
ZBAA,2001-12-26 12:00,ZBAA 261200Z AUTO 25002KT 6SM M03/M17 A3056 RMK SLP363 T10331173 52023 IEM_DS3505
ZBAA,2001-12-26 13:00,ZBAA 261300Z AUTO M04/M15 A3056 RMK T10401150 IEM_DS3505
ZBAA,2001-12-26 14:00,ZBAA 261400Z AUTO 28004KT 3SM M03/M17 A3056 RMK T10301170 IEM_DS3505
ZBAA,2001-12-26 15:00,ZBAA 261500Z AUTO 27004KT 6SM M02/M18 A3056 RMK SLP350 T10221180 52004 IEM_DS3505
ZBAA,2001-12-26 16:00,ZBAA 261600Z AUTO 32008KT M03/M16 A3056 RMK T10301160 IEM_DS3505
ZBAA,2001-12-26 17:00,ZBAA 261700Z AUTO 30006KT M03/M16 A3056 RMK T10301160 IEM_DS3505
ZBAA,2001-12-26 18:00,ZBAA 261800Z AUTO 34004KT 12SM M01/M16 A3056 RMK SLP347 T10061156 57003 IEM_DS3505
ZBAA,2001-12-26 19:00,ZBAA 261900Z AUTO 05004KT 6SM M06/M16 A3056 RMK T10601160 IEM_DS3505
ZBAA,2001-12-26 20:00,ZBAA 262000Z AUTO 34004KT 6SM M05/M17 A3056 RMK T10501170 IEM_DS3505
ZBAA,2001-12-26 21:00,ZBAA 262100Z AUTO 34004KT 12SM M01/M15 A3053 RMK SLP340 T10121147 57007 IEM_DS3505
ZBAA,2001-12-26 22:00,ZBAA 262200Z AUTO 32010KT 6SM M03/M16 A3056 RMK T10301160 IEM_DS3505
ZBAA,2001-12-26 23:00,ZBAA 262300Z AUTO 32012KT 6SM M03/M16 A3056 RMK T10301160 IEM_DS3505
ZBAA,2001-12-27 00:00,ZBAA 270000Z AUTO 34008KT 12SM M02/M18 A3056 RMK SLP346 T10161182 52006 IEM_DS3505
ZBAA,2001-12-27 01:00,ZBAA 270100Z AUTO 31014KT 6SM M01/M15 A3056 RMK T10101150 IEM_DS3505
ZBAA,2001-12-27 02:00,ZBAA 270200Z AUTO 31014KT 6SM 00/M14 A3059 RMK T00001140 IEM_DS3505
ZBAA,2001-12-27 03:00,ZBAA 270300Z AUTO 34006KT 19SM 02/M14 RMK SLP352 T00151143 52006 IEM_DS3505
ZBAA,2001-12-27 04:00,ZBAA 270400Z AUTO 31016KT 6SM 02/M15 A3056 RMK T00201150 IEM_DS3505
ZBAA,2001-12-27 05:00,ZBAA 270500Z AUTO 33010KT 6SM 03/M15 A3053 RMK T00301150 IEM_DS3505
ZBAA,2001-12-27 06:00,ZBAA 270600Z AUTO 36012KT 19SM 03/M18 A3050 RMK SLP333 T00341182 57019 IEM_DS3505
ZBAA,2001-12-27 07:00,ZBAA 270700Z AUTO 30014KT 6SM 03/M15 A3050 RMK T00301150 IEM_DS3505
ZBAA,2001-12-27 08:00,ZBAA 270800Z AUTO 31014G23KT 6SM 03/M15 A3050 RMK T00301150 IEM_DS3505
ZBAA,2001-12-27 09:00,ZBAA 270900Z AUTO 34004KT 6SM 03/M16 A3053 RMK SLP337 T00261160 52004 IEM_DS3505
ZBAA,2001-12-27 10:00,ZBAA 271000Z AUTO 30012KT 6SM 01/M14 A3053 RMK T00101140 IEM_DS3505
ZBAA,2001-12-27 11:00,ZBAA 271100Z AUTO 30008KT 6SM 00/M14 A3053 RMK T00001140 IEM_DS3505
ZBAA,2001-12-27 12:00,ZBAA 271200Z AUTO 27006KT 12SM 00/M14 A3053 RMK SLP343 T00021135 52006 IEM_DS3505
ZBAA,2001-12-27 13:00,ZBAA 271300Z AUTO 31014KT 6SM 00/M15 A3053 RMK T00001150 IEM_DS3505
ZBAA,2001-12-27 14:00,ZBAA 271400Z AUTO 32010KT 6SM M01/M15 A3053 RMK T10101150 IEM_DS3505
ZBAA,2001-12-27 15:00,ZBAA 271500Z AUTO 00000KT 9SM M02/M16 A3053 RMK SLP343 T10191164 54000 IEM_DS3505
ZBAA,2001-12-27 16:00,ZBAA 271600Z AUTO 33014KT 6SM M01/M16 A3053 RMK T10101160 IEM_DS3505
ZBAA,2001-12-27 17:00,ZBAA 271700Z AUTO 34012KT 6SM M01/M16 A3053 RMK T10101160 IEM_DS3505
ZBAA,2001-12-27 18:00,ZBAA 271800Z AUTO 34004KT 9SM M01/M16 A3050 RMK SLP334 T10121162 57009 IEM_DS3505
ZBAA,2001-12-27 19:00,ZBAA 271900Z AUTO 33010KT 6SM M02/M16 A3050 RMK T10201160 IEM_DS3505
ZBAA,2001-12-27 20:00,ZBAA 272000Z AUTO 33008KT 6SM M03/M16 A3047 RMK T10301160 IEM_DS3505
ZBAA,2001-12-27 21:00,ZBAA 272100Z AUTO 00000KT 9SM M06/M14 A3047 RMK SLP315 T10581140 57019 IEM_DS3505
ZBAA,2001-12-27 22:00,ZBAA 272200Z AUTO 33010KT 6SM M04/M16 A3045 RMK T10401160 IEM_DS3505
ZBAA,2001-12-27 23:00,ZBAA 272300Z AUTO 33010KT 6SM M04/M16 A3045 RMK T10401160 IEM_DS3505
ZBAA,2001-12-28 00:00,ZBAA 280000Z AUTO 34004KT 6SM M07/M14 A3045 RMK SLP313 T10721144 57002 IEM_DS3505
ZBAA,2001-12-28 01:00,ZBAA 280100Z AUTO 33014KT 6SM M02/M16 A3045 RMK T10201160 IEM_DS3505
ZBAA,2001-12-28 02:00,ZBAA 280200Z AUTO 32012KT 6SM 00/M16 A3045 RMK T00001160 IEM_DS3505
ZBAA,2001-12-28 03:00,ZBAA 280300Z AUTO 32004KT 7SM 00/M17 A3042 RMK SLP299 T00031173 57014 IEM_DS3505
ZBAA,2001-12-28 04:00,ZBAA 280400Z AUTO 31016KT 6SM 02/M16 A3036 RMK T00201160 IEM_DS3505
ZBAA,2001-12-28 05:00,ZBAA 280500Z AUTO 30014KT 6SM 03/M16 A3030 RMK T00301160 IEM_DS3505
ZBAA,2001-12-28 06:00,ZBAA 280600Z AUTO 22004KT 9SM 03/M18 A3024 RMK SLP250 T00311176 57048 IEM_DS3505
ZBAA,2001-12-28 07:00,ZBAA 280700Z AUTO 28008KT 6SM 03/M16 A3024 RMK T00301160 IEM_DS3505
ZBAA,2001-12-28 08:00,ZBAA 280800Z AUTO 24006KT 6SM 03/M14 A3024 RMK T00301140 IEM_DS3505
ZBAA,2001-12-28 09:00,ZBAA 280900Z AUTO 22006KT 7SM 01/M14 A3021 RMK SLP234 T00101144 57017 IEM_DS3505
ZBAA,2001-12-28 10:00,ZBAA 281000Z AUTO 01/M14 A3021 RMK T00101140 IEM_DS3505
ZBAA,2001-12-28 11:00,ZBAA 281100Z AUTO 21004KT 01/M14 A3018 RMK T00101140 IEM_DS3505
ZBAA,2001-12-28 12:00,ZBAA 281200Z AUTO 22006KT 9SM M00/M13 A3018 RMK SLP223 T10051134 57011 IEM_DS3505
ZBAA,2001-12-28 13:00,ZBAA 281300Z AUTO 28019G31KT 6SM 03/M14 A3015 RMK T00301140 IEM_DS3505
ZBAA,2001-12-28 14:00,ZBAA 281400Z AUTO 28016KT 6SM 02/M14 A3015 RMK T00201140 IEM_DS3505
ZBAA,2001-12-28 15:00,ZBAA 281500Z AUTO 32008KT 12SM 03/M18 RMK SLP220 T00281176 57002 IEM_DS3505
ZBAA,2001-12-28 16:00,ZBAA 281600Z AUTO 29010KT 6SM 01/M15 A3018 RMK T00101150 IEM_DS3505
ZBAA,2001-12-28 17:00,ZBAA 281700Z AUTO 29006KT 6SM 00/M16 A3018 RMK T00001160 IEM_DS3505
ZBAA,2001-12-28 18:00,ZBAA 281800Z AUTO 34006KT 12SM 02/M19 A3018 RMK SLP224 T00201194 52004 IEM_DS3505
ZBAA,2001-12-28 19:00,ZBAA 281900Z AUTO 30008KT 6SM M01/M17 A3018 RMK T10101170 IEM_DS3505
ZBAA,2001-12-28 20:00,ZBAA 282000Z AUTO 31014KT 6SM 00/M17 A3018 RMK T00001170 IEM_DS3505
ZBAA,2001-12-28 21:00,ZBAA 282100Z AUTO 32006KT 19SM 01/M20 A3015 RMK SLP215 T00141205 57009 IEM_DS3505
ZBAA,2001-12-28 22:00,ZBAA 282200Z AUTO 31016KT 6SM 00/M17 A3015 RMK T00001170 IEM_DS3505
ZBAA,2001-12-28 23:00,ZBAA 282300Z AUTO 31016KT 6SM 00/M17 A3018 RMK T00001170 IEM_DS3505
ZBAA,2001-12-29 00:00,ZBAA 290000Z AUTO 29006KT 12SM 01/M21 A3018 RMK SLP225 T00121213 52010 IEM_DS3505
ZBAA,2001-12-29 01:00,ZBAA 290100Z AUTO 30006G16KT 6SM 00/M17 A3021 RMK T00001170 IEM_DS3505
ZBAA,2001-12-29 02:00,ZBAA 290200Z AUTO 34008KT 6SM 02/M18 A3021 RMK T00201180 IEM_DS3505
ZBAA,2001-12-29 03:00,ZBAA 290300Z AUTO 32012G19KT 19SM 04/M22 A3021 RMK SLP228 T00351219 52003 IEM_DS3505
ZBAA,2001-12-29 04:00,ZBAA 290400Z AUTO 32016G25KT 6SM 03/M19 A3018 RMK T00301190 IEM_DS3505
ZBAA,2001-12-29 05:00,ZBAA 290500Z AUTO 29016G27KT 6SM 04/M19 A3015 RMK T00401190 IEM_DS3505
ZBAA,2001-12-29 06:00,ZBAA 290600Z AUTO 29014G23KT 19SM 05/M25 A3015 RMK SLP209 T00491253 57019 IEM_DS3505
ZBAA,2001-12-29 07:00,ZBAA 290700Z AUTO 34010KT 6SM 04/M21 A3015 RMK T00401210 IEM_DS3505
ZBAA,2001-12-29 08:00,ZBAA 290800Z AUTO 35012KT 6SM 03/M20 A3015 RMK T00301200 IEM_DS3505
ZBAA,2001-12-29 09:00,ZBAA 290900Z AUTO 34008KT 19SM 04/M18 A3018 RMK SLP215 T00411179 52006 IEM_DS3505
ZBAA,2001-12-29 10:00,ZBAA 291000Z AUTO 33010KT 6SM 01/M19 A3018 RMK T00101190 IEM_DS3505
ZBAA,2001-12-29 11:00,ZBAA 291100Z AUTO 34008KT 6SM 00/M19 A3021 RMK T00001190 IEM_DS3505
ZBAA,2001-12-29 12:00,ZBAA 291200Z AUTO 02004KT 12SM 01/M18 A3021 RMK SLP231 T00091179 52016 IEM_DS3505
ZBAA,2001-12-29 13:00,ZBAA 291300Z AUTO 34008KT 6SM M03/M19 A3024 RMK T10301190 IEM_DS3505
ZBAA,2001-12-29 14:00,ZBAA 291400Z AUTO 35008KT 6SM M03/M19 A3024 RMK T10301190 IEM_DS3505
ZBAA,2001-12-29 15:00,ZBAA 291500Z AUTO 11002KT 12SM M02/M22 A3024 RMK SLP237 T10181218 52006 IEM_DS3505
ZBAA,2001-12-29 16:00,ZBAA 291600Z AUTO 03004KT 6SM M04/M18 A3024 RMK T10401180 IEM_DS3505
ZBAA,2001-12-29 17:00,ZBAA 291700Z AUTO 30002KT 6SM M03/M19 A3024 RMK T10301190 IEM_DS3505
ZBAA,2001-12-29 18:00,ZBAA 291800Z AUTO 25004KT 11SM M04/M16 A3024 RMK SLP243 T10441156 52005 IEM_DS3505
ZBAA,2001-12-29 19:00,ZBAA 291900Z AUTO 31002KT 6SM M05/M18 A3024 RMK T10501180 IEM_DS3505
ZBAA,2001-12-29 20:00,ZBAA 292000Z AUTO 34002KT 6SM M05/M19 A3024 RMK T10501190 IEM_DS3505
ZBAA,2001-12-29 21:00,ZBAA 292100Z AUTO 00000KT 9SM M06/M14 A3021 RMK SLP236 T10651145 57007 IEM_DS3505
ZBAA,2001-12-29 22:00,ZBAA 292200Z AUTO 14002KT 6SM M09/M16 A3024 RMK T10901160 IEM_DS3505
ZBAA,2001-12-29 23:00,ZBAA 292300Z AUTO 6SM M08/M16 A3024 RMK T10801160 IEM_DS3505
ZBAA,2001-12-30 00:00,ZBAA 300000Z AUTO 00000KT 5SM M07/M15 A3024 RMK SLP238 T10721150 52002 IEM_DS3505
ZBAA,2001-12-30 01:00,ZBAA 300100Z AUTO 06002KT M07/M17 A3024 RMK T10701170 IEM_DS3505
ZBAA,2001-12-30 03:00,ZBAA 300300Z AUTO 11004KT 5SM M02/M17 A3021 RMK T10201170 IEM_DS3505
ZBAA,2001-12-30 04:00,ZBAA 300400Z AUTO 11002KT 5SM 00/M17 A3018 RMK T00001170 IEM_DS3505
ZBAA,2001-12-30 05:00,ZBAA 300500Z AUTO 15002KT 5SM 02/M18 A3015 RMK T00201180 IEM_DS3505
ZBAA,2001-12-30 05:30,ZBAA 300530Z AUTO 5SM 02/M18 A3012 RMK T00201180 IEM_DS3505
ZBAA,2001-12-30 06:00,ZBAA 300600Z AUTO 16004KT 10SM 04/M18 A3012 RMK SLP198 T00361181 57036 IEM_DS3505
ZBAA,2001-12-30 07:00,ZBAA 300700Z AUTO 13002KT 6SM 03/M18 A3009 RMK T00301180 IEM_DS3505
ZBAA,2001-12-30 08:00,ZBAA 300800Z AUTO 10004KT 6SM 02/M17 A3009 RMK T00201170 IEM_DS3505
ZBAA,2001-12-30 09:00,ZBAA 300900Z AUTO 00000KT 10SM 01/M14 A3009 RMK SLP191 T00081140 57008 IEM_DS3505
ZBAA,2001-12-30 10:00,ZBAA 301000Z AUTO 5SM M01/M16 A3009 RMK T10101160 IEM_DS3505
ZBAA,2001-12-30 11:00,ZBAA 301100Z AUTO 35002KT 5SM M03/M17 A3009 RMK T10301170 IEM_DS3505
ZBAA,2001-12-30 12:00,ZBAA 301200Z AUTO 00000KT 3SM M02/M13 A3009 RMK SLP191 T10191128 54000 IEM_DS3505
ZBAA,2001-12-30 13:00,ZBAA 301300Z AUTO 32002KT M03/M14 A3009 RMK T10301140 IEM_DS3505
ZBAA,2001-12-30 14:00,ZBAA 301400Z AUTO 35004KT 3SM M04/M15 A3009 RMK T10401150 IEM_DS3505
ZBAA,2001-12-30 15:00,ZBAA 301500Z AUTO 00000KT 3SM M02/M14 A3009 RMK SLP191 T10201143 54000 IEM_DS3505
ZBAA,2001-12-30 16:00,ZBAA 301600Z AUTO 2 1/2SM M05/M15 A3009 RMK T10501150 IEM_DS3505
ZBAA,2001-12-30 17:00,ZBAA 301700Z AUTO 35004KT 2 1/2SM M06/M15 A3009 RMK T10601150 IEM_DS3505
ZBAA,2001-12-30 18:00,ZBAA 301800Z AUTO 02004KT 2 1/2SM M05/M12 A3009 RMK SLP189 T10491125 57001 IEM_DS3505
ZBAA,2001-12-30 19:00,ZBAA 301900Z AUTO 35004KT 2 1/2SM M08/M15 A3009 RMK T10801150 IEM_DS3505
ZBAA,2001-12-30 20:00,ZBAA 302000Z AUTO 32002KT 2 1/2SM M06/M15 A3009 RMK T10601150 IEM_DS3505
ZBAA,2001-12-30 21:00,ZBAA 302100Z AUTO 02004KT 6SM M05/M14 A3009 RMK SLP183 T10521142 57007 IEM_DS3505
ZBAA,2001-12-30 22:00,ZBAA 302200Z AUTO 33006KT 5SM M06/M15 A3009 RMK T10601150 IEM_DS3505
ZBAA,2001-12-30 23:00,ZBAA 302300Z AUTO 34006KT 5SM M06/M14 A3012 RMK T10601140 IEM_DS3505
