station,valid,metar
ZBAA,2025-01-01 00:00,ZBAA 010000Z 02003MPS 330V060 CAVOK M02/M12 Q1024 NOSIG
ZBAA,2025-01-01 00:30,ZBAA 010030Z 02002MPS CAVOK M02/M12 Q1024 NOSIG
ZBAA,2025-01-01 01:00,ZBAA 010100Z 01002MPS CAVOK 00/M13 Q1025 NOSIG
ZBAA,2025-01-01 01:30,ZBAA 010130Z 36003MPS CAVOK 01/M13 Q1025 NOSIG
ZBAA,2025-01-01 02:00,ZBAA 010200Z 36003MPS CAVOK 02/M15 Q1026 NOSIG
ZBAA,2025-01-01 02:30,ZBAA 010230Z 01003MPS 340V040 CAVOK 03/M15 Q1026 NOSIG
ZBAA,2025-01-01 03:00,ZBAA 010300Z 01002MPS 340V070 CAVOK 04/M15 Q1026 NOSIG
ZBAA,2025-01-01 03:30,ZBAA 010330Z 02004MPS 350V060 CAVOK 04/M16 Q1026 NOSIG
ZBAA,2025-01-01 04:00,ZBAA 010400Z 03003MPS 360V060 CAVOK 04/M16 Q1025 NOSIG
ZBAA,2025-01-01 04:30,ZBAA 010430Z VRB01MPS CAVOK 04/M16 Q1025 NOSIG
ZBAA,2025-01-01 05:00,ZBAA 010500Z 25002MPS 170V290 CAVOK 05/M16 Q1025 NOSIG
ZBAA,2025-01-01 05:30,ZBAA 010530Z VRB01MPS CAVOK 05/M16 Q1024 NOSIG
ZBAA,2025-01-01 06:00,ZBAA 010600Z VRB01MPS CAVOK 05/M17 Q1024 NOSIG
ZBAA,2025-01-01 06:30,ZBAA 010630Z VRB01MPS CAVOK 06/M17 Q1024 NOSIG
ZBAA,2025-01-01 07:00,ZBAA 010700Z VRB01MPS CAVOK 06/M17 Q1024 NOSIG
ZBAA,2025-01-01 07:30,ZBAA 010730Z VRB01MPS CAVOK 06/M17 Q1024 NOSIG
ZBAA,2025-01-01 08:00,ZBAA 010800Z VRB01MPS CAVOK 05/M17 Q1024 NOSIG
ZBAA,2025-01-01 08:30,ZBAA 010830Z 00000MPS CAVOK 05/M17 Q1024 NOSIG
ZBAA,2025-01-01 09:00,ZBAA 010900Z VRB01MPS CAVOK 02/M17 Q1024 NOSIG
ZBAA,2025-01-01 09:30,ZBAA 010930Z VRB01MPS CAVOK M02/M16 Q1024 NOSIG
ZBAA,2025-01-01 10:00,ZBAA 011000Z 00000MPS CAVOK M03/M15 Q1025 NOSIG
ZBAA,2025-01-01 10:30,ZBAA 011030Z 00000MPS CAVOK M04/M14 Q1026 NOSIG
ZBAA,2025-01-01 11:00,ZBAA 011100Z 06001MPS CAVOK M05/M13 Q1026 NOSIG
ZBAA,2025-01-01 11:30,ZBAA 011130Z VRB01MPS CAVOK M05/M14 Q1026 NOSIG
ZBAA,2025-01-01 12:00,ZBAA 011200Z VRB01MPS CAVOK M04/M13 Q1027 NOSIG
ZBAA,2025-01-01 12:30,ZBAA 011230Z VRB01MPS CAVOK M05/M13 Q1027 NOSIG
ZBAA,2025-01-01 13:00,ZBAA 011300Z 35002MPS CAVOK M06/M13 Q1028 NOSIG
ZBAA,2025-01-01 13:30,ZBAA 011330Z 35002MPS 310V010 CAVOK M03/M13 Q1028 NOSIG
ZBAA,2025-01-01 14:00,ZBAA 011400Z 36002MPS 300V030 CAVOK M05/M14 Q1028 NOSIG
ZBAA,2025-01-01 14:30,ZBAA 011430Z 36003MPS CAVOK M06/M13 Q1029 NOSIG
ZBAA,2025-01-01 15:00,ZBAA 011500Z VRB01MPS CAVOK M03/M13 Q1029 NOSIG
ZBAA,2025-01-01 15:30,ZBAA 011530Z 33002MPS CAVOK M03/M13 Q1029 NOSIG
ZBAA,2025-01-01 16:00,ZBAA 011600Z 35003MPS CAVOK M06/M14 Q1030 NOSIG
ZBAA,2025-01-01 16:30,ZBAA 011630Z 34002MPS CAVOK M05/M13 Q1030 NOSIG
ZBAA,2025-01-01 17:00,ZBAA 011700Z 34002MPS CAVOK M06/M13 Q1030 NOSIG
ZBAA,2025-01-01 17:30,ZBAA 011730Z 34002MPS CAVOK M06/M13 Q1030 NOSIG
ZBAA,2025-01-01 18:00,ZBAA 011800Z 34001MPS CAVOK M05/M13 Q1031 NOSIG
ZBAA,2025-01-01 18:30,ZBAA 011830Z 33001MPS CAVOK M07/M14 Q1031 NOSIG
ZBAA,2025-01-01 19:00,ZBAA 011900Z 01002MPS 320V030 CAVOK M09/M14 Q1031 NOSIG
ZBAA,2025-01-01 19:30,ZBAA 011930Z 36002MPS 330V030 CAVOK M08/M14 Q1031 NOSIG
ZBAA,2025-01-01 20:00,ZBAA 012000Z 34002MPS CAVOK M07/M14 Q1031 NOSIG
ZBAA,2025-01-01 20:30,ZBAA 012030Z 35002MPS CAVOK M07/M13 Q1031 NOSIG
ZBAA,2025-01-01 21:00,ZBAA 012100Z 32002MPS CAVOK M06/M13 Q1031 NOSIG
ZBAA,2025-01-01 21:30,ZBAA 012130Z VRB01MPS CAVOK M09/M14 Q1031 NOSIG
ZBAA,2025-01-01 22:00,ZBAA 012200Z VRB01MPS CAVOK M08/M15 Q1032 NOSIG
ZBAA,2025-01-01 22:30,ZBAA 012230Z 01002MPS CAVOK M08/M12 Q1032 NOSIG
ZBAA,2025-01-01 23:00,ZBAA 012300Z 34001MPS CAVOK M08/M14 Q1032 NOSIG
ZBAA,2025-01-01 23:30,ZBAA 012330Z VRB01MPS CAVOK M11/M15 Q1032 NOSIG
ZBAA,2025-01-02 00:00,ZBAA 020000Z 01002MPS CAVOK M09/M14 Q1032 NOSIG
ZBAA,2025-01-02 00:30,ZBAA 020030Z 36003MPS CAVOK M06/M12 Q1033 NOSIG
ZBAA,2025-01-02 01:00,ZBAA 020100Z 36003MPS CAVOK M00/M09 Q1033 NOSIG
ZBAA,2025-01-02 01:30,ZBAA 020130Z 01003MPS CAVOK 00/M15 Q1033 NOSIG
ZBAA,2025-01-02 02:00,ZBAA 020200Z 02003MPS CAVOK 01/M18 Q1033 NOSIG
ZBAA,2025-01-02 02:30,ZBAA 020230Z 36003MPS 330V030 CAVOK 02/M19 Q1033 NOSIG
ZBAA,2025-01-02 03:00,ZBAA 020300Z VRB01MPS CAVOK 02/M18 Q1033 BECMG TL0440 30005MPS
ZBAA,2025-01-02 03:30,ZBAA 020330Z 32002MPS 250V010 CAVOK 02/M17 Q1032 NOSIG
ZBAA,2025-01-02 04:00,ZBAA 020400Z VRB02MPS CAVOK 03/M16 Q1032 NOSIG
ZBAA,2025-01-02 04:30,ZBAA 020430Z 33003MPS 280V010 CAVOK 05/M16 Q1031 NOSIG
ZBAA,2025-01-02 05:00,ZBAA 020500Z 36002MPS 300V050 CAVOK 04/M16 Q1030 NOSIG
ZBAA,2025-01-02 05:23,ZBAA 020523Z 30005MPS 250V360 CAVOK 05/M17 Q1030 NOSIG
ZBAA,2025-01-02 05:30,ZBAA 020530Z 30007MPS 250V330 CAVOK 04/M18 Q1029 NOSIG
ZBAA,2025-01-02 06:00,ZBAA 020600Z 30010MPS CAVOK 04/M19 Q1029 NOSIG
ZBAA,2025-01-02 06:30,ZBAA 020630Z 29009MPS CAVOK 05/M19 Q1029 NOSIG
ZBAA,2025-01-02 07:00,ZBAA 020700Z 29010MPS CAVOK 05/M20 Q1029 NOSIG
ZBAA,2025-01-02 07:30,ZBAA 020730Z 29010MPS CAVOK 05/M20 Q1029 NOSIG
ZBAA,2025-01-02 08:00,ZBAA 020800Z 28009MPS CAVOK 04/M20 Q1029 NOSIG
ZBAA,2025-01-02 08:30,ZBAA 020830Z 29008MPS CAVOK 04/M21 Q1029 NOSIG
ZBAA,2025-01-02 09:00,ZBAA 020900Z 28007G12MPS CAVOK 03/M20 Q1029 NOSIG
ZBAA,2025-01-02 09:30,ZBAA 020930Z 28005MPS 260V320 CAVOK 03/M20 Q1029 NOSIG
ZBAA,2025-01-02 10:00,ZBAA 021000Z 29005MPS CAVOK 03/M20 Q1029 NOSIG
ZBAA,2025-01-02 10:30,ZBAA 021030Z 29004MPS 260V340 CAVOK 03/M20 Q1029 NOSIG
ZBAA,2025-01-02 11:00,ZBAA 021100Z 27003MPS 250V310 CAVOK 01/M20 Q1029 NOSIG
ZBAA,2025-01-02 11:30,ZBAA 021130Z 33003MPS 300V010 CAVOK 01/M20 Q1030 NOSIG
ZBAA,2025-01-02 12:00,ZBAA 021200Z 32004MPS CAVOK 01/M21 Q1030 NOSIG
ZBAA,2025-01-02 12:30,ZBAA 021230Z 33003MPS 290V360 CAVOK M01/M19 Q1030 NOSIG
ZBAA,2025-01-02 13:00,ZBAA 021300Z 36002MPS 310V020 CAVOK M03/M18 Q1030 NOSIG
ZBAA,2025-01-02 13:30,ZBAA 021330Z 32003MPS 280V340 CAVOK 00/M21 Q1030 NOSIG
ZBAA,2025-01-02 14:00,ZBAA 021400Z 32003MPS CAVOK M03/M19 Q1030 NOSIG
ZBAA,2025-01-02 14:30,ZBAA 021430Z VRB01MPS CAVOK M03/M19 Q1030 NOSIG
ZBAA,2025-01-02 15:00,ZBAA 021500Z VRB01MPS CAVOK M04/M20 Q1030 NOSIG
ZBAA,2025-01-02 15:30,ZBAA 021530Z 31003MPS CAVOK M04/M20 Q1030 NOSIG
ZBAA,2025-01-02 16:00,ZBAA 021600Z 35004MPS CAVOK M06/M18 Q1030 NOSIG
ZBAA,2025-01-02 16:30,ZBAA 021630Z 36003MPS CAVOK M06/M19 Q1030 NOSIG
ZBAA,2025-01-02 17:00,ZBAA 021700Z 35002MPS CAVOK M05/M19 Q1030 NOSIG
ZBAA,2025-01-02 17:30,ZBAA 021730Z 36002MPS CAVOK M06/M19 Q1030 NOSIG
ZBAA,2025-01-02 18:00,ZBAA 021800Z 00000MPS CAVOK M07/M19 Q1030 NOSIG
ZBAA,2025-01-02 18:30,ZBAA 021830Z 03002MPS 010V070 CAVOK M10/M19 Q1030 NOSIG
ZBAA,2025-01-02 19:00,ZBAA 021900Z VRB01MPS CAVOK M08/M19 Q1030 NOSIG
ZBAA,2025-01-02 19:30,ZBAA 021930Z VRB01MPS CAVOK M09/M18 Q1030 NOSIG
ZBAA,2025-01-02 20:00,ZBAA 022000Z 33001MPS CAVOK M10/M18 Q1029 NOSIG
ZBAA,2025-01-02 20:30,ZBAA 022030Z 14001MPS CAVOK M11/M18 Q1029 NOSIG
ZBAA,2025-01-02 21:00,ZBAA 022100Z VRB01MPS CAVOK M09/M18 Q1029 NOSIG
ZBAA,2025-01-02 21:30,ZBAA 022130Z 07001MPS CAVOK M11/M17 Q1029 NOSIG
ZBAA,2025-01-02 22:00,ZBAA 022200Z 00000MPS CAVOK M10/M18 Q1029 NOSIG
ZBAA,2025-01-02 22:30,ZBAA 022230Z 00000MPS CAVOK M10/M16 Q1029 NOSIG
ZBAA,2025-01-02 23:00,ZBAA 022300Z 01001MPS CAVOK M12/M17 Q1029 NOSIG
ZBAA,2025-01-02 23:30,ZBAA 022330Z VRB01MPS CAVOK M11/M18 Q1029 NOSIG
ZBAA,2025-01-03 00:00,ZBAA 030000Z 28002MPS 250V340 CAVOK M08/M17 Q1030 NOSIG
ZBAA,2025-01-03 00:30,ZBAA 030030Z 07001MPS CAVOK M08/M14 Q1030 NOSIG
ZBAA,2025-01-03 01:00,ZBAA 030100Z 03001MPS CAVOK M04/M12 Q1030 NOSIG
ZBAA,2025-01-03 01:30,ZBAA 030130Z VRB01MPS CAVOK M02/M15 Q1030 NOSIG
ZBAA,2025-01-03 02:00,ZBAA 030200Z VRB01MPS CAVOK 01/M16 Q1030 NOSIG
ZBAA,2025-01-03 02:30,ZBAA 030230Z VRB01MPS CAVOK 00/M17 Q1030 NOSIG
ZBAA,2025-01-03 03:00,ZBAA 030300Z VRB01MPS CAVOK 02/M16 Q1029 NOSIG
ZBAA,2025-01-03 03:30,ZBAA 030330Z VRB01MPS CAVOK 03/M16 Q1029 NOSIG
ZBAA,2025-01-03 04:00,ZBAA 030400Z 20002MPS 160V270 CAVOK 04/M17 Q1028 NOSIG
ZBAA,2025-01-03 04:30,ZBAA 030430Z 21002MPS 150V270 CAVOK 05/M17 Q1028 NOSIG
ZBAA,2025-01-03 05:00,ZBAA 030500Z 21004MPS 170V260 CAVOK 05/M19 Q1027 NOSIG
ZBAA,2025-01-03 05:30,ZBAA 030530Z 20003MPS 180V260 CAVOK 05/M19 Q1027 NOSIG
ZBAA,2025-01-03 06:00,ZBAA 030600Z 23003MPS 180V270 CAVOK 06/M20 Q1026 NOSIG
ZBAA,2025-01-03 06:30,ZBAA 030630Z 22003MPS 170V250 CAVOK 06/M19 Q1026 NOSIG
ZBAA,2025-01-03 07:00,ZBAA 030700Z VRB03MPS CAVOK 06/M19 Q1026 NOSIG
ZBAA,2025-01-03 07:30,ZBAA 030730Z 21003MPS CAVOK 06/M19 Q1025 NOSIG
ZBAA,2025-01-03 08:00,ZBAA 030800Z 19003MPS CAVOK 05/M19 Q1025 NOSIG
ZBAA,2025-01-03 08:30,ZBAA 030830Z 18004MPS CAVOK 04/M18 Q1025 NOSIG
ZBAA,2025-01-03 09:00,ZBAA 030900Z 18003MPS CAVOK 02/M18 Q1025 NOSIG
ZBAA,2025-01-03 09:30,ZBAA 030930Z 18004MPS CAVOK 02/M18 Q1026 NOSIG
ZBAA,2025-01-03 10:00,ZBAA 031000Z 20004MPS CAVOK 03/M18 Q1026 NOSIG
ZBAA,2025-01-03 10:30,ZBAA 031030Z 20004MPS 170V230 CAVOK 03/M17 Q1026 NOSIG
ZBAA,2025-01-03 11:00,ZBAA 031100Z 18003MPS 160V220 CAVOK 00/M18 Q1026 NOSIG
ZBAA,2025-01-03 11:30,ZBAA 031130Z 08002MPS CAVOK M03/M16 Q1026 NOSIG
ZBAA,2025-01-03 12:00,ZBAA 031200Z VRB01MPS CAVOK M03/M15 Q1026 NOSIG
ZBAA,2025-01-03 12:30,ZBAA 031230Z VRB01MPS CAVOK M04/M16 Q1026 NOSIG
ZBAA,2025-01-03 13:00,ZBAA 031300Z 00000MPS CAVOK M06/M16 Q1026 NOSIG
ZBAA,2025-01-03 13:30,ZBAA 031330Z 06001MPS CAVOK M05/M15 Q1026 NOSIG
ZBAA,2025-01-03 14:00,ZBAA 031400Z 08002MPS CAVOK M08/M16 Q1026 NOSIG
ZBAA,2025-01-03 14:30,ZBAA 031430Z VRB01MPS CAVOK M07/M14 Q1026 NOSIG
ZBAA,2025-01-03 15:00,ZBAA 031500Z VRB01MPS CAVOK M07/M15 Q1026 NOSIG
ZBAA,2025-01-03 15:30,ZBAA 031530Z 05001MPS CAVOK M08/M15 Q1026 NOSIG
ZBAA,2025-01-03 16:00,ZBAA 031600Z 02001MPS CAVOK M08/M15 Q1025 NOSIG
ZBAA,2025-01-03 16:30,ZBAA 031630Z 36002MPS CAVOK M09/M15 Q1025 NOSIG
ZBAA,2025-01-03 17:00,ZBAA 031700Z 00000MPS CAVOK M07/M14 Q1025 NOSIG
ZBAA,2025-01-03 17:30,ZBAA 031730Z 36002MPS CAVOK M08/M15 Q1025 NOSIG
ZBAA,2025-01-03 18:00,ZBAA 031800Z 02002MPS CAVOK M09/M14 Q1025 NOSIG
ZBAA,2025-01-03 18:30,ZBAA 031830Z 35002MPS CAVOK M09/M15 Q1025 NOSIG
ZBAA,2025-01-03 19:00,ZBAA 031900Z 01001MPS CAVOK M09/M14 Q1025 NOSIG
ZBAA,2025-01-03 19:30,ZBAA 031930Z 36001MPS CAVOK M07/M13 Q1025 NOSIG
ZBAA,2025-01-03 20:00,ZBAA 032000Z 32001MPS CAVOK M07/M13 Q1024 NOSIG
ZBAA,2025-01-03 20:30,ZBAA 032030Z 34002MPS CAVOK M07/M13 Q1024 NOSIG
ZBAA,2025-01-03 21:00,ZBAA 032100Z 31002MPS CAVOK M07/M14 Q1024 NOSIG
ZBAA,2025-01-03 21:30,ZBAA 032130Z 02001MPS CAVOK M07/M14 Q1024 NOSIG
ZBAA,2025-01-03 22:00,ZBAA 032200Z 36001MPS CAVOK M09/M15 Q1024 NOSIG
ZBAA,2025-01-03 22:30,ZBAA 032230Z 34001MPS CAVOK M08/M14 Q1024 NOSIG
ZBAA,2025-01-03 23:00,ZBAA 032300Z 34002MPS 290V010 CAVOK M09/M14 Q1024 NOSIG
ZBAA,2025-01-03 23:30,ZBAA 032330Z 34002MPS CAVOK M08/M14 Q1024 NOSIG
ZBAA,2025-01-04 00:00,ZBAA 040000Z 35002MPS CAVOK M08/M14 Q1024 NOSIG
ZBAA,2025-01-04 00:30,ZBAA 040030Z VRB01MPS CAVOK M06/M13 Q1024 NOSIG
ZBAA,2025-01-04 01:00,ZBAA 040100Z VRB01MPS CAVOK M03/M11 Q1024 NOSIG
ZBAA,2025-01-04 01:30,ZBAA 040130Z VRB01MPS CAVOK M01/M12 Q1025 NOSIG
ZBAA,2025-01-04 02:00,ZBAA 040200Z VRB01MPS CAVOK 00/M14 Q1025 NOSIG
ZBAA,2025-01-04 02:30,ZBAA 040230Z 28002MPS 240V330 CAVOK M00/M15 Q1024 NOSIG
ZBAA,2025-01-04 03:00,ZBAA 040300Z 27002MPS 250V360 CAVOK 01/M15 Q1024 NOSIG
ZBAA,2025-01-04 03:30,ZBAA 040330Z 31002MPS 280V350 CAVOK 03/M15 Q1024 NOSIG
ZBAA,2025-01-04 04:00,ZBAA 040400Z 33002MPS 280V030 CAVOK 03/M15 Q1023 NOSIG
ZBAA,2025-01-04 04:30,ZBAA 040430Z VRB01MPS CAVOK 03/M15 Q1023 NOSIG
ZBAA,2025-01-04 05:00,ZBAA 040500Z VRB01MPS CAVOK 05/M15 Q1022 NOSIG
ZBAA,2025-01-04 05:30,ZBAA 040530Z 20002MPS 160V290 CAVOK 06/M15 Q1021 NOSIG
ZBAA,2025-01-04 06:00,ZBAA 040600Z 20002MPS 150V230 CAVOK 07/M15 Q1021 NOSIG
ZBAA,2025-01-04 06:30,ZBAA 040630Z 24002G07MPS 170V330 CAVOK 07/M16 Q1021 NOSIG
ZBAA,2025-01-04 07:00,ZBAA 040700Z 26003G08MPS 200V310 CAVOK 07/M16 Q1021 NOSIG
ZBAA,2025-01-04 07:30,ZBAA 040730Z VRB02MPS CAVOK 08/M16 Q1021 NOSIG
ZBAA,2025-01-04 08:00,ZBAA 040800Z 20003MPS 170V240 CAVOK 07/M16 Q1021 NOSIG
ZBAA,2025-01-04 08:30,ZBAA 040830Z 24004MPS 170V300 CAVOK 07/M17 Q1020 NOSIG
ZBAA,2025-01-04 09:00,ZBAA 040900Z 19005MPS CAVOK 05/M16 Q1020 NOSIG
ZBAA,2025-01-04 09:30,ZBAA 040930Z 20004MPS 160V230 CAVOK 05/M16 Q1020 NOSIG
ZBAA,2025-01-04 10:00,ZBAA 041000Z 20003MPS CAVOK 03/M16 Q1020 NOSIG
ZBAA,2025-01-04 10:30,ZBAA 041030Z 20004MPS 160V240 CAVOK 05/M16 Q1020 NOSIG
ZBAA,2025-01-04 11:00,ZBAA 041100Z 21003MPS 180V260 CAVOK 04/M16 Q1020 NOSIG
ZBAA,2025-01-04 11:30,ZBAA 041130Z 20004MPS CAVOK 03/M16 Q1020 NOSIG
ZBAA,2025-01-04 12:00,ZBAA 041200Z 22004MPS CAVOK 03/M15 Q1020 NOSIG
ZBAA,2025-01-04 12:30,ZBAA 041230Z 20004MPS 170V240 CAVOK 04/M15 Q1019 NOSIG
ZBAA,2025-01-04 13:00,ZBAA 041300Z VRB01MPS CAVOK M02/M14 Q1019 NOSIG
ZBAA,2025-01-04 13:30,ZBAA 041330Z 09002MPS 050V140 CAVOK M02/M13 Q1020 NOSIG
ZBAA,2025-01-04 14:00,ZBAA 041400Z VRB01MPS CAVOK M03/M14 Q1019 NOSIG
ZBAA,2025-01-04 14:30,ZBAA 041430Z VRB01MPS CAVOK M05/M14 Q1019 NOSIG
ZBAA,2025-01-04 15:00,ZBAA 041500Z VRB01MPS CAVOK M05/M14 Q1019 NOSIG
ZBAA,2025-01-04 15:30,ZBAA 041530Z 00000MPS CAVOK M05/M13 Q1019 NOSIG
ZBAA,2025-01-04 16:00,ZBAA 041600Z VRB01MPS CAVOK M07/M13 Q1019 NOSIG
ZBAA,2025-01-04 16:30,ZBAA 041630Z VRB01MPS CAVOK M06/M12 Q1018 NOSIG
ZBAA,2025-01-04 17:00,ZBAA 041700Z 00000MPS CAVOK M07/M13 Q1018 NOSIG
ZBAA,2025-01-04 17:30,ZBAA 041730Z VRB01MPS CAVOK M07/M13 Q1018 NOSIG
ZBAA,2025-01-04 18:00,ZBAA 041800Z 35003MPS CAVOK M07/M12 Q1018 NOSIG
ZBAA,2025-01-04 18:30,ZBAA 041830Z 13002MPS 010V180 CAVOK M06/M12 Q1018 NOSIG
ZBAA,2025-01-04 19:00,ZBAA 041900Z VRB01MPS CAVOK M05/M12 Q1018 NOSIG
ZBAA,2025-01-04 19:30,ZBAA 041930Z 35002MPS CAVOK M07/M12 Q1018 NOSIG
ZBAA,2025-01-04 20:00,ZBAA 042000Z VRB01MPS CAVOK M07/M13 Q1017 NOSIG
ZBAA,2025-01-04 20:30,ZBAA 042030Z VRB01MPS CAVOK M07/M13 Q1017 NOSIG
ZBAA,2025-01-04 21:00,ZBAA 042100Z VRB01MPS CAVOK M07/M12 Q1017 NOSIG
ZBAA,2025-01-04 21:30,ZBAA 042130Z 04001MPS CAVOK M08/M13 Q1017 NOSIG
ZBAA,2025-01-04 22:00,ZBAA 042200Z 00000MPS CAVOK M07/M12 Q1017 NOSIG
ZBAA,2025-01-04 22:30,ZBAA 042230Z 35003MPS CAVOK M06/M11 Q1017 NOSIG
ZBAA,2025-01-04 23:00,ZBAA 042300Z 33003MPS CAVOK M04/M10 Q1017 NOSIG
ZBAA,2025-01-04 23:30,ZBAA 042330Z 35002MPS CAVOK M06/M12 Q1017 NOSIG
ZBAA,2025-01-05 00:00,ZBAA 050000Z VRB01MPS CAVOK M05/M10 Q1017 NOSIG
ZBAA,2025-01-05 00:30,ZBAA 050030Z VRB01MPS CAVOK M02/M09 Q1017 NOSIG
ZBAA,2025-01-05 01:00,ZBAA 050100Z 33001MPS CAVOK 01/M10 Q1018 NOSIG
ZBAA,2025-01-05 01:30,ZBAA 050130Z 28002MPS 240V340 CAVOK 00/M11 Q1018 NOSIG
ZBAA,2025-01-05 02:00,ZBAA 050200Z VRB01MPS CAVOK 01/M11 Q1018 NOSIG
ZBAA,2025-01-05 02:30,ZBAA 050230Z 34002MPS 300V020 CAVOK 04/M10 Q1018 NOSIG
ZBAA,2025-01-05 03:00,ZBAA 050300Z 30002MPS 260V360 CAVOK 04/M11 Q1018 BECMG TL0450 30007MPS
ZBAA,2025-01-05 03:30,ZBAA 050330Z 34002MPS 280V030 CAVOK 06/M10 Q1018 NOSIG
ZBAA,2025-01-05 04:00,ZBAA 050400Z 35002MPS 270V060 CAVOK 07/M10 Q1017 BECMG TL0520 30007MPS
ZBAA,2025-01-05 04:30,ZBAA 050430Z 33004MPS 280V030 CAVOK 07/M10 Q1017 NOSIG
ZBAA,2025-01-05 05:00,ZBAA 050500Z 36003MPS 330V030 CAVOK 08/M09 Q1016 BECMG TL0620 30007MPS
ZBAA,2025-01-05 05:30,ZBAA 050530Z 31005MPS 280V360 CAVOK 08/M11 Q1016 NOSIG
ZBAA,2025-01-05 06:00,ZBAA 050600Z 30008MPS CAVOK 08/M11 Q1016 NOSIG
ZBAA,2025-01-05 06:30,ZBAA 050630Z 30008G14MPS CAVOK 08/M12 Q1017 NOSIG
ZBAA,2025-01-05 07:00,ZBAA 050700Z 29008MPS CAVOK 08/M12 Q1017 NOSIG
ZBAA,2025-01-05 07:30,ZBAA 050730Z 29011MPS 250V310 CAVOK 07/M13 Q1017 NOSIG
ZBAA,2025-01-05 08:00,ZBAA 050800Z 30008MPS CAVOK 07/M14 Q1018 NOSIG
ZBAA,2025-01-05 08:30,ZBAA 050830Z 32007MPS CAVOK 07/M14 Q1019 NOSIG
ZBAA,2025-01-05 09:00,ZBAA 050900Z 30007MPS CAVOK 06/M14 Q1019 NOSIG
ZBAA,2025-01-05 09:30,ZBAA 050930Z 31006G11MPS 280V340 CAVOK 05/M15 Q1020 NOSIG
ZBAA,2025-01-05 10:00,ZBAA 051000Z 32009MPS CAVOK 04/M16 Q1021 NOSIG
ZBAA,2025-01-05 10:30,ZBAA 051030Z 32010MPS CAVOK 04/M16 Q1021 NOSIG
ZBAA,2025-01-05 11:00,ZBAA 051100Z 32010MPS CAVOK 03/M15 Q1022 NOSIG
ZBAA,2025-01-05 11:30,ZBAA 051130Z 32009MPS CAVOK 03/M16 Q1023 NOSIG
ZBAA,2025-01-05 12:00,ZBAA 051200Z 32008MPS CAVOK 02/M16 Q1024 NOSIG
ZBAA,2025-01-05 12:30,ZBAA 051230Z 32008MPS CAVOK 02/M16 Q1024 NOSIG
ZBAA,2025-01-05 13:00,ZBAA 051300Z 32008G14MPS CAVOK 02/M16 Q1025 NOSIG
ZBAA,2025-01-05 13:30,ZBAA 051330Z 31006MPS CAVOK 01/M16 Q1025 NOSIG
ZBAA,2025-01-05 14:00,ZBAA 051400Z 33007MPS CAVOK 01/M16 Q1025 NOSIG
ZBAA,2025-01-05 14:30,ZBAA 051430Z 33006MPS CAVOK 00/M16 Q1026 NOSIG
ZBAA,2025-01-05 15:00,ZBAA 051500Z 33004MPS 300V360 CAVOK 00/M16 Q1026 NOSIG
ZBAA,2025-01-05 15:30,ZBAA 051530Z 33005MPS CAVOK M00/M16 Q1026 NOSIG
ZBAA,2025-01-05 16:00,ZBAA 051600Z 35004MPS CAVOK M01/M14 Q1027 NOSIG
ZBAA,2025-01-05 16:30,ZBAA 051630Z 36004MPS CAVOK M02/M15 Q1027 NOSIG
ZBAA,2025-01-05 17:00,ZBAA 051700Z 04002MPS 340V090 CAVOK M02/M15 Q1027 NOSIG
ZBAA,2025-01-05 17:30,ZBAA 051730Z 35005MPS 310V030 CAVOK M00/M14 Q1027 NOSIG
ZBAA,2025-01-05 18:00,ZBAA 051800Z 32008MPS CAVOK 00/M16 Q1027 NOSIG
ZBAA,2025-01-05 18:30,ZBAA 051830Z 31005MPS CAVOK M01/M15 Q1027 NOSIG
ZBAA,2025-01-05 19:00,ZBAA 051900Z 32005MPS CAVOK M01/M14 Q1027 NOSIG
ZBAA,2025-01-05 19:30,ZBAA 051930Z 32006MPS CAVOK M00/M14 Q1027 NOSIG
ZBAA,2025-01-05 20:00,ZBAA 052000Z 30005MPS CAVOK M01/M14 Q1027 NOSIG
ZBAA,2025-01-05 20:30,ZBAA 052030Z 31007MPS CAVOK M00/M14 Q1027 NOSIG
ZBAA,2025-01-05 21:00,ZBAA 052100Z 29004MPS CAVOK M01/M14 Q1027 NOSIG
ZBAA,2025-01-05 21:30,ZBAA 052130Z 32006MPS CAVOK M01/M14 Q1027 NOSIG
ZBAA,2025-01-05 22:00,ZBAA 052200Z 32007MPS CAVOK M01/M14 Q1028 NOSIG
ZBAA,2025-01-05 22:30,ZBAA 052230Z 31006MPS CAVOK M01/M14 Q1028 NOSIG
ZBAA,2025-01-05 23:00,ZBAA 052300Z 30008MPS CAVOK M01/M14 Q1028 NOSIG
ZBAA,2025-01-05 23:30,ZBAA 052330Z 29007MPS CAVOK M01/M14 Q1028 NOSIG
ZBAA,2025-01-06 00:00,ZBAA 060000Z 29006MPS CAVOK M01/M14 Q1028 NOSIG
ZBAA,2025-01-06 00:30,ZBAA 060030Z 29007MPS CAVOK M00/M14 Q1028 NOSIG
ZBAA,2025-01-06 01:00,ZBAA 060100Z 29005MPS CAVOK 00/M16 Q1029 NOSIG
ZBAA,2025-01-06 01:30,ZBAA 060130Z 30007MPS CAVOK 01/M17 Q1029 NOSIG
ZBAA,2025-01-06 02:00,ZBAA 060200Z 30006MPS CAVOK 01/M17 Q1029 NOSIG
ZBAA,2025-01-06 02:30,ZBAA 060230Z 30006MPS CAVOK 03/M17 Q1028 NOSIG
ZBAA,2025-01-06 03:00,ZBAA 060300Z 31005G11MPS 280V340 CAVOK 03/M17 Q1028 BECMG TL0440 30010MPS
ZBAA,2025-01-06 03:30,ZBAA 060330Z 29006MPS CAVOK 04/M18 Q1027 NOSIG
ZBAA,2025-01-06 04:00,ZBAA 060400Z 29006MPS CAVOK 04/M18 Q1027 NOSIG
ZBAA,2025-01-06 04:30,ZBAA 060430Z 30007MPS CAVOK 05/M18 Q1026 NOSIG
ZBAA,2025-01-06 05:00,ZBAA 060500Z 28009MPS CAVOK 05/M18 Q1025 NOSIG
ZBAA,2025-01-06 05:30,ZBAA 060530Z 28009MPS CAVOK 05/M18 Q1025 NOSIG
ZBAA,2025-01-06 06:00,ZBAA 060600Z 29009MPS CAVOK 06/M18 Q1025 NOSIG
ZBAA,2025-01-06 06:30,ZBAA 060630Z 28009MPS CAVOK 06/M18 Q1025 NOSIG
ZBAA,2025-01-06 07:00,ZBAA 060700Z 29008G13MPS CAVOK 06/M17 Q1024 NOSIG
ZBAA,2025-01-06 07:30,ZBAA 060730Z 28007MPS CAVOK 06/M18 Q1024 NOSIG
ZBAA,2025-01-06 08:00,ZBAA 060800Z 29007MPS CAVOK 06/M18 Q1024 NOSIG
ZBAA,2025-01-06 08:30,ZBAA 060830Z 28006MPS CAVOK 06/M18 Q1024 NOSIG
ZBAA,2025-01-06 09:00,ZBAA 060900Z 29004G09MPS 260V020 CAVOK 05/M18 Q1025 NOSIG
ZBAA,2025-01-06 09:30,ZBAA 060930Z 32004MPS CAVOK 04/M18 Q1025 NOSIG
ZBAA,2025-01-06 10:00,ZBAA 061000Z 33003MPS CAVOK 03/M18 Q1025 NOSIG
ZBAA,2025-01-06 10:30,ZBAA 061030Z 36003MPS CAVOK M00/M17 Q1025 NOSIG
ZBAA,2025-01-06 11:00,ZBAA 061100Z VRB01MPS CAVOK M01/M16 Q1025 NOSIG
ZBAA,2025-01-06 11:30,ZBAA 061130Z 36002MPS CAVOK M02/M17 Q1025 NOSIG
ZBAA,2025-01-06 12:00,ZBAA 061200Z 36002MPS CAVOK M01/M16 Q1025 NOSIG
ZBAA,2025-01-06 12:30,ZBAA 061230Z 35002MPS CAVOK M02/M15 Q1025 NOSIG
ZBAA,2025-01-06 13:00,ZBAA 061300Z 32003MPS CAVOK 02/M17 Q1025 NOSIG
ZBAA,2025-01-06 13:30,ZBAA 061330Z 30003MPS 260V330 CAVOK 02/M17 Q1025 NOSIG
ZBAA,2025-01-06 14:00,ZBAA 061400Z 30002MPS 260V340 CAVOK 03/M17 Q1025 NOSIG
ZBAA,2025-01-06 14:30,ZBAA 061430Z 28004MPS CAVOK 01/M17 Q1025 NOSIG
ZBAA,2025-01-06 15:00,ZBAA 061500Z 32002MPS 280V050 CAVOK M02/M15 Q1025 NOSIG
ZBAA,2025-01-06 15:30,ZBAA 061530Z 30004MPS CAVOK 02/M16 Q1025 NOSIG
ZBAA,2025-01-06 16:00,ZBAA 061600Z 33004MPS 310V010 CAVOK M02/M15 Q1025 NOSIG
ZBAA,2025-01-06 16:30,ZBAA 061630Z 34004MPS CAVOK M03/M15 Q1025 NOSIG
ZBAA,2025-01-06 17:00,ZBAA 061700Z 32005MPS CAVOK 00/M16 Q1025 NOSIG
ZBAA,2025-01-06 17:30,ZBAA 061730Z 31003MPS CAVOK 00/M16 Q1025 NOSIG
ZBAA,2025-01-06 18:00,ZBAA 061800Z 31004MPS CAVOK 01/M16 Q1025 NOSIG
ZBAA,2025-01-06 18:30,ZBAA 061830Z 31006MPS CAVOK 01/M16 Q1025 NOSIG
ZBAA,2025-01-06 19:00,ZBAA 061900Z 30005MPS CAVOK 01/M15 Q1025 NOSIG
ZBAA,2025-01-06 19:30,ZBAA 061930Z 29004MPS CAVOK 00/M16 Q1025 NOSIG
ZBAA,2025-01-06 20:00,ZBAA 062000Z 29004MPS CAVOK 00/M15 Q1024 NOSIG
ZBAA,2025-01-06 20:30,ZBAA 062030Z 29004MPS CAVOK 00/M15 Q1024 NOSIG
ZBAA,2025-01-06 21:00,ZBAA 062100Z 29004MPS CAVOK M00/M16 Q1024 NOSIG
ZBAA,2025-01-06 21:30,ZBAA 062130Z 29003MPS CAVOK M01/M14 Q1023 NOSIG
ZBAA,2025-01-06 22:00,ZBAA 062200Z 30004MPS CAVOK 00/M15 Q1023 NOSIG
ZBAA,2025-01-06 22:30,ZBAA 062230Z 28004MPS CAVOK 00/M15 Q1023 NOSIG
ZBAA,2025-01-06 23:00,ZBAA 062300Z 29004MPS 260V320 CAVOK 00/M15 Q1023 NOSIG
ZBAA,2025-01-06 23:30,ZBAA 062330Z 28003MPS 260V320 CAVOK M00/M14 Q1023 NOSIG
ZBAA,2025-01-07 00:00,ZBAA 070000Z 28004MPS CAVOK 00/M14 Q1023 NOSIG
ZBAA,2025-01-07 00:30,ZBAA 070030Z 29005MPS CAVOK 02/M15 Q1023 NOSIG
ZBAA,2025-01-07 01:00,ZBAA 070100Z 29007MPS CAVOK 03/M15 Q1024 NOSIG
ZBAA,2025-01-07 01:30,ZBAA 070130Z 29008MPS CAVOK 03/M15 Q1024 NOSIG
ZBAA,2025-01-07 02:00,ZBAA 070200Z 29009MPS CAVOK 04/M15 Q1023 NOSIG
ZBAA,2025-01-07 02:30,ZBAA 070230Z 29010MPS CAVOK 04/M15 Q1023 NOSIG
ZBAA,2025-01-07 03:00,ZBAA 070300Z 29010G15MPS CAVOK 04/M16 Q1023 NOSIG
ZBAA,2025-01-07 03:30,ZBAA 070330Z 28010G15MPS CAVOK 05/M16 Q1022 NOSIG
ZBAA,2025-01-07 04:00,ZBAA 070400Z 29009MPS CAVOK 05/M17 Q1022 NOSIG
ZBAA,2025-01-07 04:30,ZBAA 070430Z 28009G14MPS CAVOK 05/M16 Q1021 NOSIG
ZBAA,2025-01-07 05:00,ZBAA 070500Z 28009MPS CAVOK 05/M17 Q1021 NOSIG
ZBAA,2025-01-07 05:30,ZBAA 070530Z 29006MPS CAVOK 05/M17 Q1021 NOSIG
ZBAA,2025-01-07 06:00,ZBAA 070600Z 28008MPS 260V320 CAVOK 06/M17 Q1020 NOSIG
ZBAA,2025-01-07 06:30,ZBAA 070630Z 29008MPS 260V320 CAVOK 06/M17 Q1020 NOSIG
ZBAA,2025-01-07 07:00,ZBAA 070700Z 31007MPS CAVOK 06/M17 Q1020 NOSIG
ZBAA,2025-01-07 07:30,ZBAA 070730Z 30008MPS 270V330 CAVOK 06/M17 Q1020 NOSIG
ZBAA,2025-01-07 08:00,ZBAA 070800Z 35005MPS CAVOK 06/M17 Q1020 NOSIG
ZBAA,2025-01-07 08:30,ZBAA 070830Z 30005G11MPS CAVOK 05/M16 Q1020 NOSIG
ZBAA,2025-01-07 09:00,ZBAA 070900Z 31006G11MPS 280V340 CAVOK 05/M16 Q1020 NOSIG
ZBAA,2025-01-07 09:30,ZBAA 070930Z 30004MPS 260V360 CAVOK 04/M16 Q1020 NOSIG
ZBAA,2025-01-07 10:00,ZBAA 071000Z 30004MPS CAVOK 04/M15 Q1020 NOSIG
ZBAA,2025-01-07 10:30,ZBAA 071030Z 02002MPS CAVOK 01/M15 Q1020 NOSIG
ZBAA,2025-01-07 11:00,ZBAA 071100Z 04003MPS 010V070 CAVOK 03/M15 Q1021 NOSIG
ZBAA,2025-01-07 11:30,ZBAA 071130Z 03006G11MPS CAVOK 03/M14 Q1022 NOSIG
ZBAA,2025-01-07 12:00,ZBAA 071200Z 36008MPS CAVOK 02/M11 Q1023 NOSIG
ZBAA,2025-01-07 12:30,ZBAA 071230Z 36004MPS CAVOK 02/M11 Q1023 NOSIG
ZBAA,2025-01-07 13:00,ZBAA 071300Z 35004MPS CAVOK 01/M10 Q1023 NOSIG
ZBAA,2025-01-07 13:30,ZBAA 071330Z 36002MPS CAVOK M00/M10 Q1024 NOSIG
ZBAA,2025-01-07 14:00,ZBAA 071400Z 36003MPS CAVOK M01/M10 Q1024 NOSIG
ZBAA,2025-01-07 14:30,ZBAA 071430Z 33005MPS CAVOK 01/M15 Q1024 NOSIG
ZBAA,2025-01-07 15:00,ZBAA 071500Z 33005MPS CAVOK 00/M16 Q1025 NOSIG
ZBAA,2025-01-07 15:30,ZBAA 071530Z 34007MPS CAVOK M00/M17 Q1025 NOSIG
ZBAA,2025-01-07 16:00,ZBAA 071600Z 33008MPS CAVOK 00/M17 Q1025 NOSIG
ZBAA,2025-01-07 16:30,ZBAA 071630Z 32008MPS CAVOK M00/M16 Q1025 NOSIG
ZBAA,2025-01-07 17:00,ZBAA 071700Z 34010MPS CAVOK M00/M17 Q1025 NOSIG
ZBAA,2025-01-07 17:30,ZBAA 071730Z 33011G16MPS CAVOK M01/M18 Q1025 NOSIG
ZBAA,2025-01-07 18:00,ZBAA 071800Z 32012G17MPS CAVOK M01/M19 Q1026 NOSIG
ZBAA,2025-01-07 18:30,ZBAA 071830Z 32011MPS CAVOK M02/M19 Q1026 NOSIG
ZBAA,2025-01-07 19:00,ZBAA 071900Z 32011MPS CAVOK M02/M19 Q1026 NOSIG
ZBAA,2025-01-07 19:30,ZBAA 071930Z 32011MPS CAVOK M03/M20 Q1027 NOSIG
ZBAA,2025-01-07 20:00,ZBAA 072000Z 33011MPS CAVOK M03/M20 Q1027 NOSIG
ZBAA,2025-01-07 20:30,ZBAA 072030Z 33010MPS CAVOK M04/M20 Q1028 NOSIG
ZBAA,2025-01-07 21:00,ZBAA 072100Z 32010MPS CAVOK M04/M20 Q1028 NOSIG
ZBAA,2025-01-07 21:30,ZBAA 072130Z 33012MPS CAVOK M04/M20 Q1028 NOSIG
ZBAA,2025-01-07 22:00,ZBAA 072200Z 34010MPS CAVOK M04/M20 Q1029 NOSIG
ZBAA,2025-01-07 22:30,ZBAA 072230Z 33007MPS CAVOK M04/M20 Q1029 NOSIG
ZBAA,2025-01-07 23:00,ZBAA 072300Z 33010G15MPS CAVOK M04/M20 Q1029 NOSIG
ZBAA,2025-01-07 23:30,ZBAA 072330Z 33010MPS CAVOK M04/M20 Q1030 NOSIG
ZBAA,2025-01-08 00:00,ZBAA 080000Z 33010MPS CAVOK M04/M20 Q1031 NOSIG
ZBAA,2025-01-08 00:30,ZBAA 080030Z 32011MPS CAVOK M04/M20 Q1031 NOSIG
ZBAA,2025-01-08 01:00,ZBAA 080100Z 32010MPS CAVOK M03/M20 Q1032 NOSIG
ZBAA,2025-01-08 01:30,ZBAA 080130Z 33009MPS CAVOK M03/M21 Q1032 NOSIG
ZBAA,2025-01-08 02:00,ZBAA 080200Z 33010MPS CAVOK M03/M21 Q1033 NOSIG
ZBAA,2025-01-08 02:30,ZBAA 080230Z 32010MPS CAVOK M02/M21 Q1032 NOSIG
ZBAA,2025-01-08 03:00,ZBAA 080300Z 33010MPS CAVOK M02/M21 Q1032 NOSIG
ZBAA,2025-01-08 03:30,ZBAA 080330Z 32009G14MPS CAVOK M01/M21 Q1032 NOSIG
ZBAA,2025-01-08 04:00,ZBAA 080400Z 33010MPS CAVOK M01/M21 Q1032 NOSIG
ZBAA,2025-01-08 04:30,ZBAA 080430Z 32009MPS 290V350 CAVOK M01/M21 Q1031 NOSIG
ZBAA,2025-01-08 05:00,ZBAA 080500Z 33010MPS CAVOK M00/M21 Q1031 NOSIG
ZBAA,2025-01-08 05:30,ZBAA 080530Z 33010MPS CAVOK 01/M22 Q1030 NOSIG
ZBAA,2025-01-08 06:00,ZBAA 080600Z 32010G17MPS CAVOK 00/M22 Q1030 NOSIG
ZBAA,2025-01-08 06:30,ZBAA 080630Z 33012G17MPS CAVOK 00/M22 Q1030 NOSIG
ZBAA,2025-01-08 07:00,ZBAA 080700Z 33010G15MPS CAVOK 00/M23 Q1030 NOSIG
ZBAA,2025-01-08 07:30,ZBAA 080730Z 32011MPS CAVOK 00/M23 Q1030 NOSIG
ZBAA,2025-01-08 08:00,ZBAA 080800Z 33010MPS CAVOK M00/M20 Q1030 NOSIG
ZBAA,2025-01-08 08:30,ZBAA 080830Z 32011MPS CAVOK M01/M20 Q1030 NOSIG
ZBAA,2025-01-08 09:00,ZBAA 080900Z 33009MPS CAVOK M01/M21 Q1030 NOSIG
ZBAA,2025-01-08 09:30,ZBAA 080930Z 33007MPS CAVOK M02/M20 Q1030 NOSIG
ZBAA,2025-01-08 10:00,ZBAA 081000Z 33007MPS CAVOK M02/M20 Q1031 NOSIG
ZBAA,2025-01-08 10:30,ZBAA 081030Z 33008MPS CAVOK M02/M20 Q1031 NOSIG
ZBAA,2025-01-08 11:00,ZBAA 081100Z 33008MPS CAVOK M02/M20 Q1031 NOSIG
ZBAA,2025-01-08 11:30,ZBAA 081130Z 32008G13MPS CAVOK M03/M20 Q1032 NOSIG
ZBAA,2025-01-08 12:00,ZBAA 081200Z 32009MPS CAVOK M03/M20 Q1032 NOSIG
ZBAA,2025-01-08 12:30,ZBAA 081230Z 34010MPS CAVOK M03/M20 Q1032 NOSIG
ZBAA,2025-01-08 13:00,ZBAA 081300Z 34010MPS CAVOK M03/M20 Q1032 NOSIG
ZBAA,2025-01-08 13:30,ZBAA 081330Z 35009MPS CAVOK M03/M19 Q1033 NOSIG
ZBAA,2025-01-08 14:00,ZBAA 081400Z 34009MPS CAVOK M03/M19 Q1033 NOSIG
ZBAA,2025-01-08 14:30,ZBAA 081430Z 34008G13MPS CAVOK M03/M20 Q1033 NOSIG
ZBAA,2025-01-08 15:00,ZBAA 081500Z 33008MPS CAVOK M03/M20 Q1033 NOSIG
ZBAA,2025-01-08 15:30,ZBAA 081530Z 33006MPS CAVOK M03/M19 Q1033 NOSIG
ZBAA,2025-01-08 16:00,ZBAA 081600Z 33005MPS CAVOK M04/M20 Q1033 NOSIG
ZBAA,2025-01-08 16:30,ZBAA 081630Z 32005MPS 280V360 CAVOK M04/M20 Q1033 NOSIG
ZBAA,2025-01-08 17:00,ZBAA 081700Z 32005MPS 290V350 CAVOK M04/M19 Q1033 NOSIG
ZBAA,2025-01-08 17:30,ZBAA 081730Z 32008G14MPS CAVOK M03/M20 Q1033 NOSIG
ZBAA,2025-01-08 18:00,ZBAA 081800Z 32008MPS CAVOK M03/M20 Q1033 NOSIG
ZBAA,2025-01-08 18:30,ZBAA 081830Z 32010MPS CAVOK M03/M21 Q1033 NOSIG
ZBAA,2025-01-08 19:00,ZBAA 081900Z 32009MPS CAVOK M04/M21 Q1034 NOSIG
ZBAA,2025-01-08 19:30,ZBAA 081930Z 32009MPS CAVOK M04/M21 Q1034 NOSIG
ZBAA,2025-01-08 20:00,ZBAA 082000Z 33008MPS CAVOK M04/M21 Q1034 NOSIG
ZBAA,2025-01-08 20:30,ZBAA 082030Z 33009MPS CAVOK M04/M21 Q1034 NOSIG
ZBAA,2025-01-08 21:00,ZBAA 082100Z 32007MPS CAVOK M05/M21 Q1035 NOSIG
ZBAA,2025-01-08 21:30,ZBAA 082130Z 33007MPS CAVOK M05/M21 Q1035 NOSIG
ZBAA,2025-01-08 22:00,ZBAA 082200Z 36004MPS CAVOK M08/M21 Q1035 NOSIG
ZBAA,2025-01-08 22:30,ZBAA 082230Z 36004MPS CAVOK M09/M21 Q1036 NOSIG
ZBAA,2025-01-08 23:00,ZBAA 082300Z 36003MPS CAVOK M10/M21 Q1036 NOSIG
ZBAA,2025-01-08 23:30,ZBAA 082330Z 36003MPS CAVOK M09/M21 Q1037 NOSIG
ZBAA,2025-01-09 00:00,ZBAA 090000Z 02002MPS CAVOK M08/M21 Q1037 NOSIG
ZBAA,2025-01-09 00:30,ZBAA 090030Z 36002MPS CAVOK M05/M19 Q1038 NOSIG
ZBAA,2025-01-09 01:00,ZBAA 090100Z 35003MPS 310V020 CAVOK M03/M19 Q1038 NOSIG
ZBAA,2025-01-09 01:30,ZBAA 090130Z 35005MPS CAVOK M03/M20 Q1039 NOSIG
ZBAA,2025-01-09 02:00,ZBAA 090200Z 34004MPS CAVOK M02/M20 Q1039 NOSIG
ZBAA,2025-01-09 02:30,ZBAA 090230Z 34004MPS CAVOK M01/M20 Q1039 NOSIG
ZBAA,2025-01-09 03:00,ZBAA 090300Z 34005MPS CAVOK M01/M21 Q1039 NOSIG
ZBAA,2025-01-09 03:30,ZBAA 090330Z 34005MPS 300V020 CAVOK M00/M21 Q1039 NOSIG
ZBAA,2025-01-09 04:00,ZBAA 090400Z 34005MPS CAVOK 00/M23 Q1038 NOSIG
ZBAA,2025-01-09 04:30,ZBAA 090430Z 35003MPS 290V080 CAVOK M00/M23 Q1038 NOSIG
ZBAA,2025-01-09 05:00,ZBAA 090500Z 01002MPS 310V110 CAVOK 01/M22 Q1037 NOSIG
ZBAA,2025-01-09 05:30,ZBAA 090530Z 31005MPS 270V340 CAVOK 01/M23 Q1037 NOSIG
ZBAA,2025-01-09 06:00,ZBAA 090600Z 30004MPS 260V360 CAVOK 01/M23 Q1037 NOSIG
ZBAA,2025-01-09 06:30,ZBAA 090630Z 29006MPS 270V330 CAVOK 01/M22 Q1036 NOSIG
ZBAA,2025-01-09 07:00,ZBAA 090700Z 30006MPS CAVOK 01/M23 Q1036 NOSIG
ZBAA,2025-01-09 07:30,ZBAA 090730Z 30007G13MPS CAVOK 01/M22 Q1036 NOSIG
ZBAA,2025-01-09 08:00,ZBAA 090800Z 30007MPS CAVOK 01/M23 Q1036 NOSIG
ZBAA,2025-01-09 08:30,ZBAA 090830Z 30006G11MPS 280V340 CAVOK 01/M22 Q1036 NOSIG
ZBAA,2025-01-09 09:00,ZBAA 090900Z 29007MPS CAVOK 01/M22 Q1036 NOSIG
ZBAA,2025-01-09 09:30,ZBAA 090930Z 29006G11MPS CAVOK 00/M22 Q1037 NOSIG
ZBAA,2025-01-09 10:00,ZBAA 091000Z 29006G11MPS CAVOK M00/M22 Q1037 BECMG TL1140 35004MPS
ZBAA,2025-01-09 10:30,ZBAA 091030Z 30007MPS CAVOK 00/M21 Q1037 NOSIG
ZBAA,2025-01-09 11:00,ZBAA 091100Z 32006MPS CAVOK M01/M19 Q1038 NOSIG
ZBAA,2025-01-09 11:30,ZBAA 091130Z 32007MPS CAVOK M01/M19 Q1038 NOSIG
ZBAA,2025-01-09 12:00,ZBAA 091200Z 32007MPS CAVOK M01/M19 Q1038 NOSIG
ZBAA,2025-01-09 12:30,ZBAA 091230Z 33006MPS CAVOK M01/M20 Q1038 NOSIG
ZBAA,2025-01-09 13:00,ZBAA 091300Z 32005MPS CAVOK M02/M20 Q1039 NOSIG
ZBAA,2025-01-09 13:30,ZBAA 091330Z 34006MPS CAVOK M02/M21 Q1038 NOSIG
ZBAA,2025-01-09 14:00,ZBAA 091400Z 33006MPS CAVOK M02/M21 Q1039 NOSIG
ZBAA,2025-01-09 14:30,ZBAA 091430Z 33006MPS CAVOK M02/M22 Q1039 NOSIG
ZBAA,2025-01-09 15:00,ZBAA 091500Z 34005MPS CAVOK M03/M22 Q1038 NOSIG
ZBAA,2025-01-09 15:30,ZBAA 091530Z 34005MPS CAVOK M03/M21 Q1038 NOSIG
ZBAA,2025-01-09 16:00,ZBAA 091600Z 34005MPS CAVOK M03/M21 Q1038 NOSIG
ZBAA,2025-01-09 16:30,ZBAA 091630Z 34005MPS CAVOK M04/M21 Q1038 NOSIG
ZBAA,2025-01-09 17:00,ZBAA 091700Z 34005MPS CAVOK M04/M21 Q1038 NOSIG
ZBAA,2025-01-09 17:30,ZBAA 091730Z 01003MPS CAVOK M06/M21 Q1038 NOSIG
ZBAA,2025-01-09 18:00,ZBAA 091800Z 03002MPS CAVOK M08/M21 Q1038 NOSIG
ZBAA,2025-01-09 18:30,ZBAA 091830Z 02002MPS 350V050 CAVOK M05/M18 Q1038 NOSIG
ZBAA,2025-01-09 19:00,ZBAA 091900Z 05002MPS CAVOK M06/M19 Q1038 NOSIG
ZBAA,2025-01-09 19:30,ZBAA 091930Z 02003MPS CAVOK M06/M18 Q1038 NOSIG
ZBAA,2025-01-09 20:00,ZBAA 092000Z 02003MPS CAVOK M08/M19 Q1037 NOSIG
ZBAA,2025-01-09 20:30,ZBAA 092030Z 01003MPS CAVOK M09/M19 Q1037 NOSIG
ZBAA,2025-01-09 21:00,ZBAA 092100Z 36003MPS CAVOK M08/M18 Q1037 NOSIG
ZBAA,2025-01-09 21:30,ZBAA 092130Z 35002MPS CAVOK M11/M19 Q1037 NOSIG
ZBAA,2025-01-09 22:00,ZBAA 092200Z 34004MPS CAVOK M10/M18 Q1037 NOSIG
ZBAA,2025-01-09 22:30,ZBAA 092230Z 01002MPS CAVOK M10/M18 Q1037 NOSIG
ZBAA,2025-01-09 23:00,ZBAA 092300Z 03003MPS 350V060 CAVOK M06/M18 Q1038 NOSIG
ZBAA,2025-01-09 23:30,ZBAA 092330Z 03002MPS CAVOK M06/M19 Q1038 NOSIG
ZBAA,2025-01-10 00:00,ZBAA 100000Z 04002MPS CAVOK M06/M18 Q1038 NOSIG
ZBAA,2025-01-10 00:30,ZBAA 100030Z 03003MPS CAVOK M04/M19 Q1038 NOSIG
ZBAA,2025-01-10 01:00,ZBAA 100100Z 02003MPS 350V050 CAVOK M03/M19 Q1038 NOSIG
ZBAA,2025-01-10 01:30,ZBAA 100130Z 03004MPS CAVOK M02/M19 Q1038 NOSIG
ZBAA,2025-01-10 02:00,ZBAA 100200Z 03004MPS 360V070 CAVOK M01/M19 Q1038 NOSIG
ZBAA,2025-01-10 02:30,ZBAA 100230Z 03004MPS CAVOK M01/M19 Q1038 NOSIG
ZBAA,2025-01-10 03:00,ZBAA 100300Z 02003MPS 350V070 CAVOK M00/M21 Q1038 NOSIG
ZBAA,2025-01-10 03:30,ZBAA 100330Z 34003MPS 290V060 CAVOK 01/M22 Q1037 NOSIG
ZBAA,2025-01-10 04:00,ZBAA 100400Z 34003MPS 300V020 CAVOK 02/M22 Q1037 NOSIG
ZBAA,2025-01-10 04:30,ZBAA 100430Z 34002MPS 280V020 CAVOK 03/M22 Q1036 NOSIG
ZBAA,2025-01-10 05:00,ZBAA 100500Z VRB02MPS CAVOK 03/M22 Q1035 NOSIG
ZBAA,2025-01-10 05:30,ZBAA 100530Z 34003MPS 270V030 CAVOK 03/M23 Q1035 NOSIG
ZBAA,2025-01-10 06:00,ZBAA 100600Z 33002MPS 290V040 CAVOK 04/M23 Q1035 NOSIG
ZBAA,2025-01-10 06:30,ZBAA 100630Z 36002MPS 320V050 CAVOK 05/M24 Q1035 NOSIG
ZBAA,2025-01-10 07:00,ZBAA 100700Z VRB03MPS CAVOK 05/M24 Q1035 NOSIG
ZBAA,2025-01-10 07:30,ZBAA 100730Z 01003MPS 340V040 CAVOK 05/M25 Q1034 NOSIG
ZBAA,2025-01-10 08:00,ZBAA 100800Z 02003MPS 350V050 CAVOK 04/M25 Q1034 NOSIG
ZBAA,2025-01-10 08:30,ZBAA 100830Z VRB01MPS CAVOK 04/M27 Q1034 NOSIG
ZBAA,2025-01-10 09:00,ZBAA 100900Z VRB01MPS CAVOK 02/M24 Q1034 NOSIG
ZBAA,2025-01-10 09:30,ZBAA 100930Z 30003MPS 280V340 CAVOK 03/M26 Q1035 NOSIG
ZBAA,2025-01-10 10:00,ZBAA 101000Z VRB01MPS CAVOK M04/M22 Q1035 NOSIG
ZBAA,2025-01-10 10:30,ZBAA 101030Z 29003MPS 270V330 CAVOK 02/M25 Q1035 NOSIG
ZBAA,2025-01-10 11:00,ZBAA 101100Z 28004MPS CAVOK 01/M24 Q1035 NOSIG
ZBAA,2025-01-10 11:30,ZBAA 101130Z 26004MPS 250V310 CAVOK 01/M24 Q1035 NOSIG
ZBAA,2025-01-10 12:00,ZBAA 101200Z 28004MPS CAVOK 00/M24 Q1035 NOSIG
ZBAA,2025-01-10 12:30,ZBAA 101230Z 29005MPS 270V340 CAVOK 01/M27 Q1035 NOSIG
ZBAA,2025-01-10 13:00,ZBAA 101300Z 29004MPS 270V330 CAVOK 00/M26 Q1035 NOSIG
ZBAA,2025-01-10 13:30,ZBAA 101330Z 31005MPS CAVOK 01/M27 Q1036 NOSIG
ZBAA,2025-01-10 13:52,ZBAA 101352Z 01004MPS CAVOK M02/M25 Q1036 NOSIG
ZBAA,2025-01-10 14:00,ZBAA 101400Z 01003MPS CAVOK M03/M25 Q1036 NOSIG
ZBAA,2025-01-10 14:30,ZBAA 101430Z 02002MPS CAVOK M03/M24 Q1036 NOSIG
ZBAA,2025-01-10 15:00,ZBAA 101500Z 01003MPS CAVOK M05/M22 Q1036 NOSIG
ZBAA,2025-01-10 15:30,ZBAA 101530Z 34004MPS CAVOK M03/M20 Q1035 NOSIG
ZBAA,2025-01-10 16:00,ZBAA 101600Z 01004MPS CAVOK M04/M21 Q1035 NOSIG
ZBAA,2025-01-10 16:30,ZBAA 101630Z 01002MPS CAVOK M04/M20 Q1035 NOSIG
ZBAA,2025-01-10 17:00,ZBAA 101700Z 02003MPS CAVOK M03/M20 Q1035 NOSIG
ZBAA,2025-01-10 17:30,ZBAA 101730Z 35003MPS CAVOK M06/M19 Q1034 NOSIG
ZBAA,2025-01-10 18:00,ZBAA 101800Z 05002MPS CAVOK M09/M19 Q1034 NOSIG
ZBAA,2025-01-10 18:30,ZBAA 101830Z VRB01MPS CAVOK M10/M20 Q1034 NOSIG
ZBAA,2025-01-10 19:00,ZBAA 101900Z VRB01MPS CAVOK M11/M19 Q1034 NOSIG
ZBAA,2025-01-10 19:30,ZBAA 101930Z VRB01MPS CAVOK M10/M20 Q1033 NOSIG
ZBAA,2025-01-10 20:00,ZBAA 102000Z 34002MPS CAVOK M09/M19 Q1033 NOSIG
ZBAA,2025-01-10 20:30,ZBAA 102030Z 01003MPS CAVOK M10/M18 Q1033 NOSIG
ZBAA,2025-01-10 21:00,ZBAA 102100Z 01003MPS CAVOK M08/M18 Q1032 NOSIG
ZBAA,2025-01-10 21:30,ZBAA 102130Z VRB01MPS CAVOK M08/M19 Q1032 NOSIG
ZBAA,2025-01-10 22:00,ZBAA 102200Z 01002MPS 340V040 CAVOK M05/M19 Q1032 NOSIG
ZBAA,2025-01-10 22:30,ZBAA 102230Z 01002MPS 300V070 CAVOK M05/M19 Q1032 NOSIG
ZBAA,2025-01-10 23:00,ZBAA 102300Z 02002MPS 340V050 CAVOK M05/M19 Q1032 NOSIG
ZBAA,2025-01-10 23:30,ZBAA 102330Z 01002MPS 340V050 CAVOK M06/M19 Q1032 NOSIG
ZBAA,2025-01-11 00:00,ZBAA 110000Z 36002MPS CAVOK M05/M18 Q1032 NOSIG
ZBAA,2025-01-11 00:30,ZBAA 110030Z 02002MPS CAVOK M03/M19 Q1032 NOSIG
ZBAA,2025-01-11 01:00,ZBAA 110100Z 02003MPS CAVOK M03/M19 Q1032 NOSIG
ZBAA,2025-01-11 01:30,ZBAA 110130Z 36002MPS 310V030 CAVOK M02/M18 Q1032 NOSIG
ZBAA,2025-01-11 02:00,ZBAA 110200Z 01003MPS CAVOK M01/M19 Q1032 NOSIG
ZBAA,2025-01-11 02:30,ZBAA 110230Z 36003MPS 330V030 CAVOK M00/M20 Q1032 NOSIG
ZBAA,2025-01-11 03:00,ZBAA 110300Z 36003MPS 320V050 CAVOK M00/M21 Q1031 NOSIG
ZBAA,2025-01-11 03:30,ZBAA 110330Z 33003MPS 290V360 CAVOK 01/M20 Q1030 NOSIG
ZBAA,2025-01-11 04:00,ZBAA 110400Z 33004MPS 290V350 CAVOK 01/M19 Q1029 NOSIG
ZBAA,2025-01-11 04:30,ZBAA 110430Z 31002MPS 270V360 CAVOK 01/M19 Q1029 NOSIG
ZBAA,2025-01-11 05:00,ZBAA 110500Z 32002MPS 270V360 CAVOK 02/M18 Q1028 NOSIG
ZBAA,2025-01-11 05:30,ZBAA 110530Z VRB01MPS CAVOK 02/M18 Q1027 NOSIG
ZBAA,2025-01-11 06:00,ZBAA 110600Z VRB01MPS CAVOK 03/M18 Q1027 NOSIG
ZBAA,2025-01-11 06:30,ZBAA 110630Z VRB01MPS CAVOK 03/M17 Q1027 NOSIG
ZBAA,2025-01-11 07:00,ZBAA 110700Z VRB01MPS CAVOK 03/M16 Q1027 NOSIG
ZBAA,2025-01-11 07:30,ZBAA 110730Z 25002MPS 190V320 CAVOK 03/M15 Q1027 NOSIG
ZBAA,2025-01-11 08:00,ZBAA 110800Z 27002MPS 230V340 CAVOK 03/M15 Q1027 NOSIG
ZBAA,2025-01-11 08:30,ZBAA 110830Z VRB02MPS CAVOK 03/M15 Q1027 NOSIG
ZBAA,2025-01-11 09:00,ZBAA 110900Z VRB02MPS CAVOK 03/M15 Q1027 NOSIG
ZBAA,2025-01-11 09:30,ZBAA 110930Z VRB01MPS CAVOK 01/M15 Q1027 NOSIG
ZBAA,2025-01-11 10:00,ZBAA 111000Z 07002MPS 050V110 CAVOK M01/M14 Q1027 NOSIG
ZBAA,2025-01-11 10:30,ZBAA 111030Z VRB01MPS CAVOK M01/M14 Q1027 NOSIG
ZBAA,2025-01-11 11:00,ZBAA 111100Z 05001MPS CAVOK M04/M14 Q1027 NOSIG
ZBAA,2025-01-11 11:30,ZBAA 111130Z VRB01MPS CAVOK M02/M14 Q1027 NOSIG
ZBAA,2025-01-11 12:00,ZBAA 111200Z 00000MPS CAVOK M04/M14 Q1027 NOSIG
ZBAA,2025-01-11 12:30,ZBAA 111230Z 00000MPS CAVOK M04/M14 Q1027 NOSIG
ZBAA,2025-01-11 13:00,ZBAA 111300Z 00000MPS CAVOK M04/M14 Q1028 NOSIG
ZBAA,2025-01-11 13:30,ZBAA 111330Z 36001MPS CAVOK M04/M14 Q1027 NOSIG
ZBAA,2025-01-11 14:00,ZBAA 111400Z 34002MPS 300V360 CAVOK M04/M14 Q1028 NOSIG
ZBAA,2025-01-11 14:30,ZBAA 111430Z 34002MPS 290V360 CAVOK M04/M15 Q1028 NOSIG
ZBAA,2025-01-11 15:00,ZBAA 111500Z 34002MPS 300V010 CAVOK M03/M14 Q1028 NOSIG
ZBAA,2025-01-11 15:30,ZBAA 111530Z 30004MPS 270V340 CAVOK M01/M13 Q1028 NOSIG
ZBAA,2025-01-11 16:00,ZBAA 111600Z 31007MPS CAVOK 00/M15 Q1028 NOSIG
ZBAA,2025-01-11 16:30,ZBAA 111630Z 31007MPS CAVOK M00/M15 Q1028 NOSIG
ZBAA,2025-01-11 17:00,ZBAA 111700Z 30006MPS CAVOK M01/M13 Q1028 NOSIG
ZBAA,2025-01-11 17:30,ZBAA 111730Z 32005MPS CAVOK M01/M14 Q1028 NOSIG
ZBAA,2025-01-11 18:00,ZBAA 111800Z 31006MPS CAVOK M01/M15 Q1028 NOSIG
ZBAA,2025-01-11 18:30,ZBAA 111830Z 30005MPS CAVOK M02/M14 Q1028 NOSIG
ZBAA,2025-01-11 19:00,ZBAA 111900Z 30005MPS CAVOK M02/M14 Q1029 NOSIG
ZBAA,2025-01-11 19:30,ZBAA 111930Z 30005MPS CAVOK M02/M15 Q1028 NOSIG
ZBAA,2025-01-11 20:00,ZBAA 112000Z 31005MPS CAVOK M02/M15 Q1028 NOSIG
ZBAA,2025-01-11 20:30,ZBAA 112030Z 31006MPS CAVOK M02/M15 Q1028 NOSIG
ZBAA,2025-01-11 21:00,ZBAA 112100Z 30005MPS CAVOK M02/M15 Q1028 NOSIG
ZBAA,2025-01-11 21:30,ZBAA 112130Z 31004MPS CAVOK M03/M15 Q1028 NOSIG
ZBAA,2025-01-11 22:00,ZBAA 112200Z 31005MPS CAVOK M03/M16 Q1028 NOSIG
ZBAA,2025-01-11 22:30,ZBAA 112230Z 32004MPS CAVOK M03/M15 Q1028 NOSIG
ZBAA,2025-01-11 23:00,ZBAA 112300Z 32006MPS CAVOK M03/M16 Q1028 NOSIG
ZBAA,2025-01-11 23:30,ZBAA 112330Z 33006MPS CAVOK M02/M16 Q1029 NOSIG
ZBAA,2025-01-12 00:00,ZBAA 120000Z 33005MPS CAVOK M03/M16 Q1029 NOSIG
ZBAA,2025-01-12 00:30,ZBAA 120030Z 33005MPS CAVOK M02/M16 Q1029 NOSIG
ZBAA,2025-01-12 01:00,ZBAA 120100Z 33005MPS CAVOK M01/M16 Q1029 NOSIG
ZBAA,2025-01-12 01:30,ZBAA 120130Z 33007MPS CAVOK M00/M15 Q1029 NOSIG
ZBAA,2025-01-12 02:00,ZBAA 120200Z 32008MPS CAVOK 00/M18 Q1029 NOSIG
ZBAA,2025-01-12 02:30,ZBAA 120230Z 32008MPS CAVOK 00/M18 Q1029 NOSIG
ZBAA,2025-01-12 03:00,ZBAA 120300Z 33007MPS CAVOK 02/M18 Q1029 NOSIG
ZBAA,2025-01-12 03:30,ZBAA 120330Z 33005MPS CAVOK 02/M18 Q1028 NOSIG
ZBAA,2025-01-12 04:00,ZBAA 120400Z 33005MPS 300V010 CAVOK 03/M18 Q1027 NOSIG
ZBAA,2025-01-12 04:30,ZBAA 120430Z 29006G11MPS 260V350 CAVOK 02/M18 Q1026 NOSIG
ZBAA,2025-01-12 05:00,ZBAA 120500Z 31006MPS CAVOK 03/M18 Q1026 NOSIG
ZBAA,2025-01-12 05:30,ZBAA 120530Z 30007MPS CAVOK 03/M19 Q1025 NOSIG
ZBAA,2025-01-12 06:00,ZBAA 120600Z 31006MPS 280V340 CAVOK 04/M18 Q1025 NOSIG
ZBAA,2025-01-12 06:30,ZBAA 120630Z 31005MPS 270V350 CAVOK 03/M18 Q1024 NOSIG
ZBAA,2025-01-12 07:00,ZBAA 120700Z 30004MPS 270V330 CAVOK 03/M18 Q1024 NOSIG
ZBAA,2025-01-12 07:30,ZBAA 120730Z 30005MPS CAVOK 03/M18 Q1024 NOSIG
ZBAA,2025-01-12 08:00,ZBAA 120800Z 27004MPS CAVOK 03/M19 Q1024 NOSIG
ZBAA,2025-01-12 08:30,ZBAA 120830Z 22003MPS 200V260 CAVOK 02/M19 Q1024 NOSIG
ZBAA,2025-01-12 09:00,ZBAA 120900Z 20003MPS 160V240 CAVOK 02/M18 Q1024 NOSIG
ZBAA,2025-01-12 09:30,ZBAA 120930Z 21002MPS 100V260 CAVOK 02/M19 Q1024 NOSIG
ZBAA,2025-01-12 10:00,ZBAA 121000Z 20003MPS CAVOK 01/M18 Q1024 NOSIG
ZBAA,2025-01-12 10:30,ZBAA 121030Z 19003MPS 170V260 CAVOK 01/M18 Q1024 NOSIG
ZBAA,2025-01-12 11:00,ZBAA 121100Z 21003MPS CAVOK 01/M17 Q1024 NOSIG
ZBAA,2025-01-12 11:30,ZBAA 121130Z 20003MPS 180V240 CAVOK 01/M17 Q1024 NOSIG
ZBAA,2025-01-12 12:00,ZBAA 121200Z 19003MPS 170V230 CAVOK 01/M16 Q1024 NOSIG
ZBAA,2025-01-12 12:30,ZBAA 121230Z VRB03G08MPS CAVOK 01/M15 Q1024 NOSIG
ZBAA,2025-01-12 13:00,ZBAA 121300Z 19002MPS 150V230 CAVOK M00/M14 Q1024 NOSIG
ZBAA,2025-01-12 13:30,ZBAA 121330Z 17002MPS 140V220 CAVOK M02/M14 Q1024 NOSIG
ZBAA,2025-01-12 14:00,ZBAA 121400Z VRB01MPS CAVOK M02/M15 Q1024 NOSIG
ZBAA,2025-01-12 14:30,ZBAA 121430Z VRB01MPS CAVOK M05/M15 Q1024 NOSIG
ZBAA,2025-01-12 15:00,ZBAA 121500Z VRB01MPS CAVOK M04/M13 Q1024 NOSIG
ZBAA,2025-01-12 15:30,ZBAA 121530Z VRB01MPS CAVOK M04/M14 Q1023 NOSIG
ZBAA,2025-01-12 16:00,ZBAA 121600Z 13001MPS CAVOK M05/M13 Q1023 NOSIG
ZBAA,2025-01-12 16:30,ZBAA 121630Z VRB01MPS CAVOK M04/M13 Q1023 NOSIG
ZBAA,2025-01-12 17:00,ZBAA 121700Z VRB01MPS CAVOK M05/M13 Q1022 NOSIG
ZBAA,2025-01-12 17:30,ZBAA 121730Z 07002MPS CAVOK M07/M14 Q1022 NOSIG
ZBAA,2025-01-12 18:00,ZBAA 121800Z 06001MPS CAVOK M07/M14 Q1022 NOSIG
ZBAA,2025-01-12 18:30,ZBAA 121830Z 06001MPS CAVOK M07/M14 Q1022 NOSIG
ZBAA,2025-01-12 19:00,ZBAA 121900Z VRB01MPS CAVOK M06/M13 Q1022 NOSIG
ZBAA,2025-01-12 19:30,ZBAA 121930Z 09001MPS CAVOK M06/M13 Q1022 NOSIG
ZBAA,2025-01-12 20:00,ZBAA 122000Z VRB01MPS CAVOK M05/M11 Q1022 NOSIG
ZBAA,2025-01-12 20:30,ZBAA 122030Z VRB01MPS CAVOK M05/M12 Q1021 NOSIG
ZBAA,2025-01-12 21:00,ZBAA 122100Z VRB01MPS CAVOK M05/M12 Q1021 NOSIG
ZBAA,2025-01-12 21:30,ZBAA 122130Z VRB01MPS CAVOK M06/M13 Q1021 NOSIG
ZBAA,2025-01-12 22:00,ZBAA 122200Z 05001MPS CAVOK M07/M13 Q1021 NOSIG
ZBAA,2025-01-12 22:30,ZBAA 122230Z VRB01MPS CAVOK M06/M14 Q1021 NOSIG
ZBAA,2025-01-12 23:00,ZBAA 122300Z VRB01MPS CAVOK M08/M14 Q1022 NOSIG
ZBAA,2025-01-12 23:30,ZBAA 122330Z VRB01MPS CAVOK M09/M15 Q1022 NOSIG
ZBAA,2025-01-13 00:00,ZBAA 130000Z 36001MPS CAVOK M09/M14 Q1022 NOSIG
ZBAA,2025-01-13 00:30,ZBAA 130030Z VRB01MPS CAVOK M07/M12 Q1022 NOSIG
ZBAA,2025-01-13 01:00,ZBAA 130100Z 06002MPS CAVOK M03/M11 Q1023 NOSIG
ZBAA,2025-01-13 01:30,ZBAA 130130Z 35002MPS 310V010 CAVOK M00/M11 Q1023 NOSIG
ZBAA,2025-01-13 02:00,ZBAA 130200Z 36002MPS 260V040 CAVOK 01/M13 Q1023 NOSIG
ZBAA,2025-01-13 02:30,ZBAA 130230Z VRB01MPS CAVOK 02/M13 Q1023 NOSIG
ZBAA,2025-01-13 03:00,ZBAA 130300Z 34002MPS 300V010 CAVOK 03/M14 Q1023 BECMG TL0440 32007MPS
ZBAA,2025-01-13 03:30,ZBAA 130330Z VRB01MPS CAVOK 04/M14 Q1022 NOSIG
ZBAA,2025-01-13 04:00,ZBAA 130400Z 30003MPS 270V330 CAVOK 05/M14 Q1022 BECMG TL0540 31008MPS
ZBAA,2025-01-13 04:30,ZBAA 130430Z 32003MPS 290V360 CAVOK 06/M13 Q1021 NOSIG
ZBAA,2025-01-13 05:00,ZBAA 130500Z 33003MPS 270V020 CAVOK 08/M13 Q1021 BECMG TL0640 31008MPS
ZBAA,2025-01-13 05:30,ZBAA 130530Z 33003G08MPS 260V070 CAVOK 08/M13 Q1020 NOSIG
ZBAA,2025-01-13 05:32,ZBAA 130532Z 28008G14MPS CAVOK 08/M13 Q1020 NOSIG
ZBAA,2025-01-13 06:00,ZBAA 130600Z 29008G13MPS CAVOK 07/M14 Q1020 NOSIG
ZBAA,2025-01-13 06:30,ZBAA 130630Z 28009MPS CAVOK 07/M14 Q1020 NOSIG
ZBAA,2025-01-13 07:00,COR ZBAA 130700Z 28009MPS CAVOK 07/M15 Q1020 BECMG TL0840 29004MPS
ZBAA,2025-01-13 07:30,ZBAA 130730Z 28008MPS CAVOK 08/M15 Q1020 NOSIG
ZBAA,2025-01-13 08:00,ZBAA 130800Z 29007MPS CAVOK 08/M15 Q1020 NOSIG
ZBAA,2025-01-13 08:30,ZBAA 130830Z 29006MPS 240V310 CAVOK 07/M16 Q1021 NOSIG
ZBAA,2025-01-13 09:00,ZBAA 130900Z 29006G13MPS CAVOK 07/M15 Q1021 NOSIG
ZBAA,2025-01-13 09:30,ZBAA 130930Z 29007MPS 270V330 CAVOK 06/M15 Q1021 NOSIG
ZBAA,2025-01-13 10:00,ZBAA 131000Z 29005MPS CAVOK 06/M15 Q1022 NOSIG
ZBAA,2025-01-13 10:30,ZBAA 131030Z 29005MPS CAVOK 05/M15 Q1022 NOSIG
ZBAA,2025-01-13 11:00,ZBAA 131100Z 30004MPS CAVOK 05/M15 Q1023 NOSIG
ZBAA,2025-01-13 11:30,ZBAA 131130Z 03002MPS CAVOK 01/M16 Q1023 NOSIG
ZBAA,2025-01-13 12:00,ZBAA 131200Z 35002MPS 310V010 CAVOK 01/M15 Q1023 NOSIG
ZBAA,2025-01-13 12:30,ZBAA 131230Z 01002MPS CAVOK M03/M15 Q1024 NOSIG
ZBAA,2025-01-13 13:00,ZBAA 131300Z 01003MPS CAVOK M05/M15 Q1024 NOSIG
ZBAA,2025-01-13 13:30,ZBAA 131330Z 02003MPS CAVOK M02/M14 Q1024 NOSIG
ZBAA,2025-01-13 14:00,ZBAA 131400Z 35002MPS CAVOK M01/M14 Q1024 NOSIG
ZBAA,2025-01-13 14:30,ZBAA 131430Z 35003MPS CAVOK M01/M13 Q1025 NOSIG
ZBAA,2025-01-13 15:00,ZBAA 131500Z VRB01MPS CAVOK M03/M14 Q1025 NOSIG
ZBAA,2025-01-13 15:30,ZBAA 131530Z 33002MPS CAVOK 01/M15 Q1026 NOSIG
ZBAA,2025-01-13 16:00,ZBAA 131600Z 33002MPS CAVOK M02/M13 Q1026 NOSIG
ZBAA,2025-01-13 16:30,ZBAA 131630Z 33002MPS CAVOK M01/M13 Q1026 NOSIG
ZBAA,2025-01-13 17:00,ZBAA 131700Z VRB01MPS CAVOK M00/M12 Q1026 NOSIG
ZBAA,2025-01-13 17:30,ZBAA 131730Z 02001MPS CAVOK M01/M12 Q1026 NOSIG
ZBAA,2025-01-13 18:00,ZBAA 131800Z 36001MPS CAVOK M00/M12 Q1026 NOSIG
ZBAA,2025-01-13 18:30,ZBAA 131830Z 35002MPS CAVOK M01/M11 Q1026 NOSIG
ZBAA,2025-01-13 19:00,ZBAA 131900Z 35003MPS CAVOK M01/M12 Q1026 NOSIG
ZBAA,2025-01-13 19:30,ZBAA 131930Z 35002MPS CAVOK M01/M12 Q1027 NOSIG
ZBAA,2025-01-13 20:00,ZBAA 132000Z 33004MPS CAVOK 00/M14 Q1027 NOSIG
ZBAA,2025-01-13 20:30,ZBAA 132030Z 33004MPS CAVOK 00/M13 Q1027 NOSIG
ZBAA,2025-01-13 21:00,ZBAA 132100Z 31004MPS CAVOK 00/M12 Q1028 NOSIG
ZBAA,2025-01-13 21:30,ZBAA 132130Z 30004MPS CAVOK 01/M13 Q1028 NOSIG
ZBAA,2025-01-13 22:00,ZBAA 132200Z 30008MPS CAVOK 01/M15 Q1029 NOSIG
ZBAA,2025-01-13 22:30,ZBAA 132230Z 30010MPS CAVOK 00/M15 Q1029 NOSIG
ZBAA,2025-01-13 23:00,ZBAA 132300Z 32008MPS CAVOK M00/M15 Q1030 NOSIG
ZBAA,2025-01-13 23:30,ZBAA 132330Z 32007MPS CAVOK M01/M15 Q1031 NOSIG
ZBAA,2025-01-14 00:00,ZBAA 140000Z 33011MPS CAVOK M00/M16 Q1032 NOSIG
ZBAA,2025-01-14 00:30,ZBAA 140030Z 32010MPS CAVOK 00/M19 Q1032 NOSIG
ZBAA,2025-01-14 01:00,ZBAA 140100Z 32009MPS CAVOK 00/M18 Q1033 NOSIG
ZBAA,2025-01-14 01:30,ZBAA 140130Z 32010G15MPS CAVOK 01/M20 Q1034 NOSIG
ZBAA,2025-01-14 02:00,ZBAA 140200Z 32009MPS CAVOK 01/M21 Q1034 NOSIG
ZBAA,2025-01-14 02:30,ZBAA 140230Z 32011MPS CAVOK 02/M22 Q1034 NOSIG
ZBAA,2025-01-14 03:00,ZBAA 140300Z 33010MPS CAVOK 02/M24 Q1034 NOSIG
ZBAA,2025-01-14 03:30,ZBAA 140330Z 32011MPS CAVOK 02/M25 Q1035 NOSIG
ZBAA,2025-01-14 04:00,ZBAA 140400Z 32011MPS CAVOK 02/M24 Q1035 NOSIG
ZBAA,2025-01-14 04:30,ZBAA 140430Z 32012G17MPS CAVOK 02/M26 Q1035 NOSIG
ZBAA,2025-01-14 05:00,ZBAA 140500Z 32013MPS CAVOK 03/M25 Q1034 NOSIG
ZBAA,2025-01-14 05:30,ZBAA 140530Z 32011G16MPS CAVOK 02/M26 Q1034 NOSIG
ZBAA,2025-01-14 06:00,ZBAA 140600Z 32010G15MPS CAVOK 02/M25 Q1034 NOSIG
ZBAA,2025-01-14 06:30,ZBAA 140630Z 30012MPS CAVOK 01/M24 Q1035 NOSIG
ZBAA,2025-01-14 07:00,ZBAA 140700Z 32011MPS CAVOK 01/M25 Q1035 NOSIG
ZBAA,2025-01-14 07:30,ZBAA 140730Z 32011MPS CAVOK 01/M24 Q1036 NOSIG
ZBAA,2025-01-14 08:00,ZBAA 140800Z 32011G16MPS CAVOK M00/M22 Q1036 NOSIG
ZBAA,2025-01-14 08:30,ZBAA 140830Z 31011MPS CAVOK M01/M22 Q1037 NOSIG
ZBAA,2025-01-14 09:00,ZBAA 140900Z 32011MPS CAVOK M02/M23 Q1037 NOSIG
ZBAA,2025-01-14 09:30,ZBAA 140930Z 32012MPS CAVOK M02/M23 Q1037 NOSIG
ZBAA,2025-01-14 10:00,ZBAA 141000Z 33011MPS CAVOK M02/M24 Q1038 BECMG TL1140 31006MPS
ZBAA,2025-01-14 10:30,ZBAA 141030Z 34011MPS CAVOK M03/M24 Q1039 NOSIG
ZBAA,2025-01-14 11:00,ZBAA 141100Z 34011MPS CAVOK M03/M24 Q1039 BECMG TL1240 31006MPS
ZBAA,2025-01-14 11:30,ZBAA 141130Z 34011MPS CAVOK M03/M24 Q1039 NOSIG
ZBAA,2025-01-14 12:00,ZBAA 141200Z 34011G17MPS CAVOK M04/M24 Q1039 BECMG TL1340 35005MPS
ZBAA,2025-01-14 12:30,ZBAA 141230Z 34009MPS CAVOK M04/M24 Q1039 NOSIG
ZBAA,2025-01-14 13:00,ZBAA 141300Z 34009MPS CAVOK M04/M24 Q1039 BECMG TL1440 35004MPS
ZBAA,2025-01-14 13:30,ZBAA 141330Z 33007MPS CAVOK M04/M24 Q1040 NOSIG
ZBAA,2025-01-14 14:00,ZBAA 141400Z 34007MPS CAVOK M05/M24 Q1040 NOSIG
ZBAA,2025-01-14 14:30,ZBAA 141430Z 34006MPS CAVOK M05/M24 Q1040 NOSIG
ZBAA,2025-01-14 15:00,ZBAA 141500Z 32006MPS CAVOK M05/M23 Q1040 NOSIG
ZBAA,2025-01-14 15:30,ZBAA 141530Z 34004MPS CAVOK M05/M23 Q1040 NOSIG
ZBAA,2025-01-14 16:00,ZBAA 141600Z 32003MPS CAVOK M06/M23 Q1040 NOSIG
ZBAA,2025-01-14 16:30,ZBAA 141630Z 31003MPS CAVOK M06/M23 Q1039 NOSIG
ZBAA,2025-01-14 17:00,ZBAA 141700Z 30004MPS CAVOK M05/M22 Q1039 NOSIG
ZBAA,2025-01-14 17:30,ZBAA 141730Z 30004MPS CAVOK M05/M22 Q1039 NOSIG
ZBAA,2025-01-14 18:00,ZBAA 141800Z 27003MPS CAVOK M05/M21 Q1039 NOSIG
ZBAA,2025-01-14 18:30,ZBAA 141830Z 28004MPS CAVOK M05/M20 Q1039 NOSIG
ZBAA,2025-01-14 19:00,ZBAA 141900Z 29004MPS CAVOK M05/M19 Q1038 NOSIG
ZBAA,2025-01-14 19:30,ZBAA 141930Z 30004MPS CAVOK M05/M19 Q1038 NOSIG
ZBAA,2025-01-14 20:00,ZBAA 142000Z 30004MPS CAVOK M05/M19 Q1038 NOSIG
ZBAA,2025-01-14 20:30,ZBAA 142030Z 27002MPS 240V300 CAVOK M05/M20 Q1037 NOSIG
ZBAA,2025-01-14 21:00,ZBAA 142100Z 28003MPS CAVOK M05/M19 Q1037 NOSIG
ZBAA,2025-01-14 21:30,ZBAA 142130Z 27004MPS CAVOK M04/M19 Q1036 NOSIG
ZBAA,2025-01-14 22:00,ZBAA 142200Z 29007MPS CAVOK M04/M20 Q1036 NOSIG
ZBAA,2025-01-14 22:30,ZBAA 142230Z 29003MPS CAVOK M04/M20 Q1036 NOSIG
ZBAA,2025-01-14 23:00,ZBAA 142300Z 29003MPS 260V330 CAVOK M04/M20 Q1036 NOSIG
ZBAA,2025-01-14 23:30,ZBAA 142330Z 30004MPS CAVOK M04/M20 Q1036 NOSIG
ZBAA,2025-01-15 00:00,ZBAA 150000Z 28003MPS CAVOK M04/M20 Q1035 NOSIG
ZBAA,2025-01-15 00:30,ZBAA 150030Z 25004MPS CAVOK M03/M20 Q1035 NOSIG
ZBAA,2025-01-15 01:00,ZBAA 150100Z 22003MPS 170V320 CAVOK M02/M19 Q1035 NOSIG
ZBAA,2025-01-15 01:30,ZBAA 150130Z 25003MPS 200V320 CAVOK M01/M20 Q1035 NOSIG
ZBAA,2025-01-15 02:00,COR ZBAA 150200Z VRB02MPS CAVOK M00/M21 Q1035 BECMG TL0340 29005MPS
ZBAA,2025-01-15 02:30,ZBAA 150230Z 25003MPS 220V350 CAVOK M00/M21 Q1035 NOSIG
ZBAA,2025-01-15 03:00,ZBAA 150300Z 26004MPS 180V300 CAVOK 01/M23 Q1035 NOSIG
ZBAA,2025-01-15 03:30,ZBAA 150330Z VRB03MPS CAVOK 01/M24 Q1034 NOSIG
ZBAA,2025-01-15 04:00,ZBAA 150400Z 25004G09MPS 230V290 CAVOK 02/M23 Q1033 NOSIG
ZBAA,2025-01-15 04:30,ZBAA 150430Z 26003MPS 200V300 CAVOK 02/M24 Q1032 NOSIG
ZBAA,2025-01-15 05:00,ZBAA 150500Z 24005MPS 220V290 CAVOK 03/M24 Q1031 NOSIG
ZBAA,2025-01-15 05:30,ZBAA 150530Z 25004G09MPS 200V320 CAVOK 04/M24 Q1031 NOSIG
ZBAA,2025-01-15 05:32,ZBAA 150532Z 29008G16MPS 240V320 CAVOK 04/M25 Q1031 NOSIG
ZBAA,2025-01-15 05:41,ZBAA 150541Z 26006G11MPS 230V330 CAVOK 04/M25 Q1030 NOSIG
ZBAA,2025-01-15 06:00,ZBAA 150600Z 29007MPS CAVOK 04/M25 Q1030 NOSIG
ZBAA,2025-01-15 06:30,ZBAA 150630Z 29008G13MPS CAVOK 04/M25 Q1030 NOSIG
ZBAA,2025-01-15 07:00,ZBAA 150700Z 28008MPS 260V320 CAVOK 05/M25 Q1030 NOSIG
ZBAA,2025-01-15 07:30,ZBAA 150730Z 29008MPS CAVOK 05/M25 Q1030 NOSIG
ZBAA,2025-01-15 08:00,ZBAA 150800Z 29007MPS CAVOK 05/M25 Q1029 BECMG TL0940 23005MPS
ZBAA,2025-01-15 08:30,ZBAA 150830Z 29005G11MPS CAVOK 04/M24 Q1029 NOSIG
ZBAA,2025-01-15 09:00,ZBAA 150900Z 28005MPS 250V310 CAVOK 04/M24 Q1029 BECMG TL1040 22004MPS
ZBAA,2025-01-15 09:30,ZBAA 150930Z 28004MPS 260V320 CAVOK 04/M24 Q1029 NOSIG
ZBAA,2025-01-15 10:00,ZBAA 151000Z 28004G09MPS 260V360 CAVOK 03/M23 Q1029 NOSIG
ZBAA,2025-01-15 10:30,ZBAA 151030Z VRB03MPS CAVOK 03/M23 Q1029 NOSIG
ZBAA,2025-01-15 11:00,ZBAA 151100Z 29003MPS 260V330 CAVOK 03/M23 Q1029 NOSIG
ZBAA,2025-01-15 11:30,ZBAA 151130Z 24003MPS CAVOK 02/M22 Q1029 NOSIG
ZBAA,2025-01-15 12:00,ZBAA 151200Z 24003MPS 210V300 CAVOK 02/M21 Q1029 NOSIG
ZBAA,2025-01-15 12:30,ZBAA 151230Z 23003MPS 200V270 CAVOK 02/M22 Q1028 NOSIG
ZBAA,2025-01-15 13:00,ZBAA 151300Z 23003MPS 170V270 CAVOK 02/M22 Q1028 NOSIG
ZBAA,2025-01-15 13:30,ZBAA 151330Z 23002MPS 160V290 CAVOK 01/M22 Q1028 NOSIG
ZBAA,2025-01-15 14:00,ZBAA 151400Z 21003MPS 180V250 CAVOK 00/M21 Q1028 NOSIG
ZBAA,2025-01-15 14:30,ZBAA 151430Z 22003MPS 180V260 CAVOK 01/M21 Q1028 NOSIG
ZBAA,2025-01-15 15:00,ZBAA 151500Z 28002MPS 240V350 CAVOK 01/M22 Q1028 BECMG TL1640 34006MPS
ZBAA,2025-01-15 15:30,ZBAA 151530Z VRB01MPS CAVOK M03/M20 Q1027 NOSIG
ZBAA,2025-01-15 16:00,ZBAA 151600Z 32003MPS 290V010 CAVOK M03/M19 Q1027 NOSIG
ZBAA,2025-01-15 16:30,ZBAA 151630Z 34004MPS CAVOK M06/M19 Q1027 NOSIG
ZBAA,2025-01-15 17:00,ZBAA 151700Z 01003MPS CAVOK M05/M17 Q1027 NOSIG
ZBAA,2025-01-15 17:30,ZBAA 151730Z 33003MPS CAVOK M05/M17 Q1027 NOSIG
ZBAA,2025-01-15 18:00,ZBAA 151800Z 31003MPS CAVOK M04/M18 Q1027 NOSIG
ZBAA,2025-01-15 18:30,ZBAA 151830Z 29005MPS CAVOK 01/M22 Q1027 NOSIG
ZBAA,2025-01-15 19:00,ZBAA 151900Z 29006MPS CAVOK 02/M22 Q1027 NOSIG
ZBAA,2025-01-15 19:30,ZBAA 151930Z 29005MPS CAVOK 01/M22 Q1027 NOSIG
ZBAA,2025-01-15 20:00,ZBAA 152000Z 30006MPS CAVOK 01/M22 Q1027 NOSIG
ZBAA,2025-01-15 20:30,ZBAA 152030Z 31007MPS CAVOK 02/M23 Q1027 NOSIG
ZBAA,2025-01-15 21:00,ZBAA 152100Z 32007MPS CAVOK 01/M22 Q1027 NOSIG
ZBAA,2025-01-15 21:30,ZBAA 152130Z 31006MPS CAVOK 01/M23 Q1027 NOSIG
ZBAA,2025-01-15 22:00,ZBAA 152200Z 30007G12MPS CAVOK 02/M22 Q1027 NOSIG
ZBAA,2025-01-15 22:30,ZBAA 152230Z 32007MPS CAVOK 02/M22 Q1028 NOSIG
ZBAA,2025-01-15 23:00,ZBAA 152300Z 35006MPS 290V020 CAVOK 02/M22 Q1028 NOSIG
ZBAA,2025-01-15 23:30,ZBAA 152330Z 33008MPS CAVOK 02/M22 Q1029 NOSIG
ZBAA,2025-01-16 00:00,ZBAA 160000Z 34008MPS CAVOK 02/M21 Q1029 NOSIG
ZBAA,2025-01-16 00:19,ZBAA 160019Z 02003MPS 350V050 CAVOK 01/M21 Q1030 NOSIG
ZBAA,2025-01-16 00:30,ZBAA 160030Z 03003MPS CAVOK 01/M20 Q1030 NOSIG
ZBAA,2025-01-16 01:00,ZBAA 160100Z 03004MPS CAVOK 02/M19 Q1030 NOSIG
ZBAA,2025-01-16 01:30,ZBAA 160130Z 02003MPS 350V070 CAVOK 03/M19 Q1031 NOSIG
ZBAA,2025-01-16 02:00,ZBAA 160200Z 03003MPS 360V080 CAVOK 04/M19 Q1031 NOSIG
ZBAA,2025-01-16 02:30,ZBAA 160230Z 03003MPS 340V070 CAVOK 04/M19 Q1031 NOSIG
ZBAA,2025-01-16 03:00,ZBAA 160300Z 04003MPS 350V070 CAVOK 05/M19 Q1031 NOSIG
ZBAA,2025-01-16 03:30,ZBAA 160330Z 03003MPS 360V100 CAVOK 06/M18 Q1031 NOSIG
ZBAA,2025-01-16 04:00,ZBAA 160400Z VRB02MPS CAVOK 06/M18 Q1030 NOSIG
ZBAA,2025-01-16 04:30,ZBAA 160430Z 02003MPS 290V070 CAVOK 06/M19 Q1030 NOSIG
ZBAA,2025-01-16 05:00,ZBAA 160500Z 04002MPS 360V100 CAVOK 06/M19 Q1030 NOSIG
ZBAA,2025-01-16 05:30,ZBAA 160530Z 36002MPS 300V080 CAVOK 08/M18 Q1029 NOSIG
ZBAA,2025-01-16 06:00,ZBAA 160600Z 25002MPS 210V290 CAVOK 07/M18 Q1029 NOSIG
ZBAA,2025-01-16 06:30,ZBAA 160630Z VRB01MPS CAVOK 08/M18 Q1029 NOSIG
ZBAA,2025-01-16 07:00,ZBAA 160700Z VRB01MPS CAVOK 08/M18 Q1029 NOSIG
ZBAA,2025-01-16 07:30,ZBAA 160730Z VRB01MPS CAVOK 08/M18 Q1028 NOSIG
ZBAA,2025-01-16 08:00,ZBAA 160800Z 07002MPS 020V110 CAVOK 07/M17 Q1028 NOSIG
ZBAA,2025-01-16 08:30,ZBAA 160830Z VRB01MPS CAVOK 06/M18 Q1028 NOSIG
ZBAA,2025-01-16 09:00,ZBAA 160900Z 07002MPS CAVOK 04/M17 Q1029 NOSIG
ZBAA,2025-01-16 09:30,ZBAA 160930Z 08001MPS CAVOK 01/M17 Q1029 NOSIG
ZBAA,2025-01-16 10:00,ZBAA 161000Z VRB01MPS CAVOK 01/M17 Q1029 NOSIG
ZBAA,2025-01-16 10:30,ZBAA 161030Z VRB01MPS CAVOK M03/M16 Q1029 NOSIG
ZBAA,2025-01-16 11:00,ZBAA 161100Z 00000MPS CAVOK M03/M16 Q1029 NOSIG
ZBAA,2025-01-16 11:30,ZBAA 161130Z 00000MPS CAVOK M03/M15 Q1029 NOSIG
ZBAA,2025-01-16 12:00,ZBAA 161200Z 00000MPS CAVOK M03/M15 Q1029 NOSIG
ZBAA,2025-01-16 12:30,ZBAA 161230Z 00000MPS CAVOK M04/M14 Q1029 NOSIG
ZBAA,2025-01-16 13:00,ZBAA 161300Z VRB01MPS CAVOK M05/M14 Q1029 NOSIG
ZBAA,2025-01-16 13:30,ZBAA 161330Z VRB01MPS CAVOK M03/M14 Q1029 NOSIG
ZBAA,2025-01-16 14:00,ZBAA 161400Z VRB01MPS CAVOK M06/M15 Q1029 NOSIG
ZBAA,2025-01-16 14:30,ZBAA 161430Z VRB01MPS CAVOK M05/M14 Q1029 NOSIG
ZBAA,2025-01-16 15:00,ZBAA 161500Z 06001MPS CAVOK M06/M13 Q1029 NOSIG
ZBAA,2025-01-16 15:30,ZBAA 161530Z 00000MPS CAVOK M06/M14 Q1029 NOSIG
ZBAA,2025-01-16 16:00,ZBAA 161600Z 00000MPS CAVOK M08/M14 Q1029 NOSIG
ZBAA,2025-01-16 16:30,ZBAA 161630Z VRB01MPS CAVOK M08/M14 Q1029 NOSIG
ZBAA,2025-01-16 17:00,ZBAA 161700Z 36002MPS CAVOK M08/M14 Q1029 NOSIG
ZBAA,2025-01-16 17:30,ZBAA 161730Z 36001MPS CAVOK M08/M14 Q1028 NOSIG
ZBAA,2025-01-16 18:00,ZBAA 161800Z 01001MPS CAVOK M09/M14 Q1028 NOSIG
ZBAA,2025-01-16 18:30,ZBAA 161830Z 02001MPS CAVOK M09/M14 Q1028 NOSIG
ZBAA,2025-01-16 19:00,ZBAA 161900Z 36001MPS CAVOK M09/M14 Q1028 NOSIG
ZBAA,2025-01-16 19:30,ZBAA 161930Z 01001MPS CAVOK M08/M13 Q1028 NOSIG
ZBAA,2025-01-16 20:00,ZBAA 162000Z 01002MPS CAVOK M09/M14 Q1027 NOSIG
ZBAA,2025-01-16 20:30,ZBAA 162030Z 02001MPS CAVOK M09/M14 Q1027 NOSIG
ZBAA,2025-01-16 21:00,ZBAA 162100Z 34002MPS CAVOK M09/M13 Q1027 NOSIG
ZBAA,2025-01-16 21:30,ZBAA 162130Z 35002MPS CAVOK M10/M14 Q1027 NOSIG
ZBAA,2025-01-16 22:00,ZBAA 162200Z 34002MPS CAVOK M10/M14 Q1027 NOSIG
ZBAA,2025-01-16 22:30,ZBAA 162230Z 35002MPS 310V020 CAVOK M08/M12 Q1027 NOSIG
ZBAA,2025-01-16 23:00,ZBAA 162300Z 35002MPS CAVOK M10/M13 Q1027 NOSIG
ZBAA,2025-01-16 23:30,ZBAA 162330Z 01002MPS CAVOK M10/M14 Q1027 NOSIG
ZBAA,2025-01-17 00:00,ZBAA 170000Z 02001MPS CAVOK M10/M13 Q1027 NOSIG
ZBAA,2025-01-17 00:30,ZBAA 170030Z 03001MPS CAVOK M08/M11 Q1027 NOSIG
ZBAA,2025-01-17 01:00,ZBAA 170100Z 36001MPS CAVOK M03/M09 Q1027 NOSIG
ZBAA,2025-01-17 01:30,ZBAA 170130Z 35002MPS 290V030 CAVOK M01/M09 Q1027 NOSIG
ZBAA,2025-01-17 02:00,ZBAA 170200Z VRB01MPS CAVOK 00/M11 Q1027 NOSIG
ZBAA,2025-01-17 02:30,ZBAA 170230Z 31002MPS 270V340 CAVOK 01/M12 Q1027 NOSIG
ZBAA,2025-01-17 03:00,ZBAA 170300Z VRB01MPS CAVOK 02/M14 Q1027 NOSIG
ZBAA,2025-01-17 03:30,ZBAA 170330Z VRB01MPS CAVOK 03/M13 Q1027 NOSIG
ZBAA,2025-01-17 04:00,ZBAA 170400Z VRB01MPS CAVOK 05/M12 Q1026 NOSIG
ZBAA,2025-01-17 04:30,ZBAA 170430Z 22002MPS 180V280 CAVOK 05/M14 Q1026 NOSIG
ZBAA,2025-01-17 05:00,ZBAA 170500Z 19003MPS 170V240 CAVOK 06/M15 Q1025 NOSIG
ZBAA,2025-01-17 05:30,ZBAA 170530Z 19002MPS 140V270 CAVOK 07/M14 Q1024 NOSIG
ZBAA,2025-01-17 06:00,ZBAA 170600Z VRB02MPS CAVOK 08/M15 Q1024 NOSIG
ZBAA,2025-01-17 06:30,ZBAA 170630Z 21002MPS 180V280 CAVOK 08/M16 Q1023 NOSIG
ZBAA,2025-01-17 07:00,ZBAA 170700Z VRB03MPS CAVOK 08/M17 Q1023 NOSIG
ZBAA,2025-01-17 07:30,ZBAA 170730Z 20002MPS 170V270 CAVOK 08/M18 Q1023 NOSIG
ZBAA,2025-01-17 08:00,ZBAA 170800Z 20002MPS 150V280 CAVOK 08/M18 Q1023 NOSIG
ZBAA,2025-01-17 08:30,ZBAA 170830Z 19002MPS 160V230 CAVOK 07/M19 Q1023 NOSIG
ZBAA,2025-01-17 09:00,ZBAA 170900Z 19002MPS 160V230 CAVOK 05/M18 Q1022 NOSIG
ZBAA,2025-01-17 09:30,ZBAA 170930Z 17001MPS CAVOK 02/M19 Q1023 NOSIG
ZBAA,2025-01-17 10:00,ZBAA 171000Z 18002MPS 150V220 CAVOK 00/M18 Q1023 NOSIG
ZBAA,2025-01-17 10:30,ZBAA 171030Z 19003MPS 170V230 CAVOK 01/M18 Q1023 NOSIG
ZBAA,2025-01-17 11:00,ZBAA 171100Z 19002MPS 160V260 CAVOK M01/M17 Q1024 NOSIG
ZBAA,2025-01-17 11:30,ZBAA 171130Z VRB01MPS CAVOK M00/M15 Q1023 NOSIG
ZBAA,2025-01-17 12:00,ZBAA 171200Z VRB01MPS CAVOK M02/M15 Q1024 NOSIG
ZBAA,2025-01-17 12:30,ZBAA 171230Z 00000MPS CAVOK M02/M15 Q1024 NOSIG
ZBAA,2025-01-17 13:00,ZBAA 171300Z VRB01MPS CAVOK M04/M15 Q1024 NOSIG
ZBAA,2025-01-17 13:30,ZBAA 171330Z 04001MPS CAVOK M04/M15 Q1024 NOSIG
ZBAA,2025-01-17 14:00,ZBAA 171400Z 03001MPS CAVOK M06/M13 Q1023 NOSIG
ZBAA,2025-01-17 14:30,ZBAA 171430Z VRB01MPS CAVOK M05/M14 Q1023 NOSIG
ZBAA,2025-01-17 15:00,ZBAA 171500Z 05001MPS CAVOK M06/M14 Q1023 NOSIG
ZBAA,2025-01-17 15:30,ZBAA 171530Z 00000MPS CAVOK M06/M14 Q1023 NOSIG
ZBAA,2025-01-17 16:00,ZBAA 171600Z 35001MPS CAVOK M07/M14 Q1023 NOSIG
ZBAA,2025-01-17 16:30,ZBAA 171630Z 35002MPS CAVOK M07/M13 Q1023 NOSIG
ZBAA,2025-01-17 17:00,ZBAA 171700Z 36002MPS CAVOK M07/M14 Q1022 NOSIG
ZBAA,2025-01-17 17:30,ZBAA 171730Z 35003MPS CAVOK M07/M13 Q1022 NOSIG
ZBAA,2025-01-17 18:00,ZBAA 171800Z 00000MPS CAVOK M08/M14 Q1022 NOSIG
ZBAA,2025-01-17 18:30,ZBAA 171830Z 00000MPS CAVOK M08/M14 Q1022 NOSIG
ZBAA,2025-01-17 19:00,ZBAA 171900Z 36002MPS CAVOK M08/M13 Q1022 NOSIG
ZBAA,2025-01-17 19:30,ZBAA 171930Z 01002MPS 340V040 CAVOK M07/M13 Q1022 NOSIG
ZBAA,2025-01-17 20:00,ZBAA 172000Z 36002MPS 310V030 CAVOK M08/M14 Q1021 NOSIG
ZBAA,2025-01-17 20:30,ZBAA 172030Z 36002MPS CAVOK M08/M13 Q1021 NOSIG
ZBAA,2025-01-17 21:00,ZBAA 172100Z 35002MPS CAVOK M09/M13 Q1021 NOSIG
ZBAA,2025-01-17 21:30,ZBAA 172130Z 36001MPS CAVOK M10/M13 Q1021 NOSIG
ZBAA,2025-01-17 22:00,ZBAA 172200Z 36001MPS CAVOK M09/M13 Q1021 NOSIG
ZBAA,2025-01-17 22:30,ZBAA 172230Z 33002MPS 280V020 CAVOK M07/M12 Q1021 NOSIG
ZBAA,2025-01-17 23:00,ZBAA 172300Z 35003MPS CAVOK M09/M13 Q1021 NOSIG
ZBAA,2025-01-17 23:30,ZBAA 172330Z 36002MPS CAVOK M09/M14 Q1021 NOSIG
ZBAA,2025-01-18 00:00,ZBAA 180000Z 36002MPS CAVOK M08/M13 Q1021 NOSIG
ZBAA,2025-01-18 00:30,ZBAA 180030Z 34002MPS CAVOK M05/M11 Q1021 NOSIG
ZBAA,2025-01-18 01:00,ZBAA 180100Z 34002MPS 300V360 CAVOK M02/M10 Q1021 NOSIG
ZBAA,2025-01-18 01:30,ZBAA 180130Z 34003MPS CAVOK M01/M11 Q1020 NOSIG
ZBAA,2025-01-18 02:00,ZBAA 180200Z 34003MPS 300V030 CAVOK 01/M12 Q1020 NOSIG
ZBAA,2025-01-18 02:30,ZBAA 180230Z 31003MPS CAVOK 02/M13 Q1020 NOSIG
ZBAA,2025-01-18 03:00,ZBAA 180300Z 29002MPS 260V330 CAVOK 03/M14 Q1020 NOSIG
ZBAA,2025-01-18 03:30,ZBAA 180330Z 23002MPS 160V280 CAVOK 04/M14 Q1020 NOSIG
ZBAA,2025-01-18 04:00,COR ZBAA 180400Z VRB01MPS CAVOK 05/M14 Q1019 BECMG TL0540 32005MPS
ZBAA,2025-01-18 04:30,ZBAA 180430Z VRB01MPS CAVOK 06/M14 Q1018 NOSIG
ZBAA,2025-01-18 05:00,ZBAA 180500Z VRB02MPS CAVOK 07/M15 Q1018 NOSIG
ZBAA,2025-01-18 05:30,ZBAA 180530Z VRB01MPS CAVOK 09/M15 Q1017 NOSIG
ZBAA,2025-01-18 06:00,ZBAA 180600Z 29002MPS 230V330 CAVOK 09/M15 Q1017 NOSIG
ZBAA,2025-01-18 06:30,ZBAA 180630Z VRB01MPS CAVOK 10/M15 Q1016 NOSIG
ZBAA,2025-01-18 07:00,ZBAA 180700Z VRB01MPS CAVOK 10/M15 Q1016 NOSIG
ZBAA,2025-01-18 07:30,ZBAA 180730Z 21002MPS 160V290 CAVOK 09/M15 Q1016 NOSIG
ZBAA,2025-01-18 08:00,ZBAA 180800Z 20003MPS 180V240 CAVOK 09/M16 Q1016 NOSIG
ZBAA,2025-01-18 08:30,ZBAA 180830Z 19004MPS 150V230 CAVOK 08/M15 Q1016 NOSIG
ZBAA,2025-01-18 09:00,ZBAA 180900Z 19004MPS 160V240 CAVOK 07/M15 Q1016 NOSIG
ZBAA,2025-01-18 09:30,ZBAA 180930Z 22004MPS 190V260 CAVOK 07/M14 Q1016 NOSIG
ZBAA,2025-01-18 10:00,ZBAA 181000Z 20004MPS 170V290 CAVOK 06/M14 Q1017 NOSIG
ZBAA,2025-01-18 10:30,ZBAA 181030Z 22003MPS 170V260 CAVOK 06/M14 Q1017 NOSIG
ZBAA,2025-01-18 11:00,ZBAA 181100Z 19002MPS 160V250 CAVOK 02/M15 Q1017 NOSIG
ZBAA,2025-01-18 11:30,ZBAA 181130Z 24003MPS 190V290 CAVOK 06/M15 Q1017 NOSIG
ZBAA,2025-01-18 12:00,ZBAA 181200Z VRB01MPS CAVOK 01/M15 Q1017 NOSIG
ZBAA,2025-01-18 12:30,ZBAA 181230Z 36002MPS 320V030 CAVOK M03/M14 Q1017 NOSIG
ZBAA,2025-01-18 13:00,ZBAA 181300Z 00000MPS CAVOK M01/M12 Q1017 NOSIG
ZBAA,2025-01-18 13:30,ZBAA 181330Z VRB01MPS CAVOK M04/M13 Q1018 NOSIG
ZBAA,2025-01-18 14:00,ZBAA 181400Z VRB01MPS CAVOK M02/M12 Q1018 NOSIG
ZBAA,2025-01-18 14:30,ZBAA 181430Z VRB01MPS CAVOK M03/M13 Q1018 NOSIG
ZBAA,2025-01-18 15:00,ZBAA 181500Z 34003MPS CAVOK M03/M13 Q1018 NOSIG
ZBAA,2025-01-18 15:30,ZBAA 181530Z 35002MPS CAVOK M05/M13 Q1018 NOSIG
ZBAA,2025-01-18 16:00,ZBAA 181600Z 34002MPS CAVOK M03/M13 Q1019 NOSIG
ZBAA,2025-01-18 16:30,ZBAA 181630Z 34002MPS 320V020 CAVOK M04/M13 Q1019 NOSIG
ZBAA,2025-01-18 17:00,ZBAA 181700Z 33003MPS CAVOK M03/M13 Q1019 NOSIG
ZBAA,2025-01-18 17:30,ZBAA 181730Z 34002MPS CAVOK M05/M13 Q1019 NOSIG
ZBAA,2025-01-18 18:00,ZBAA 181800Z 34003MPS CAVOK M04/M14 Q1019 NOSIG
ZBAA,2025-01-18 18:30,ZBAA 181830Z 34002MPS CAVOK M04/M14 Q1019 NOSIG
ZBAA,2025-01-18 19:00,ZBAA 181900Z 01003MPS 340V040 CAVOK M06/M14 Q1019 NOSIG
ZBAA,2025-01-18 19:30,ZBAA 181930Z 33003MPS CAVOK M04/M13 Q1019 NOSIG
ZBAA,2025-01-18 20:00,ZBAA 182000Z 02003MPS 350V070 CAVOK M05/M14 Q1019 NOSIG
ZBAA,2025-01-18 20:30,ZBAA 182030Z 01002MPS 320V060 CAVOK M03/M14 Q1019 NOSIG
ZBAA,2025-01-18 21:00,ZBAA 182100Z 02002MPS CAVOK M07/M14 Q1019 NOSIG
ZBAA,2025-01-18 21:30,ZBAA 182130Z 36003MPS CAVOK M04/M13 Q1019 NOSIG
ZBAA,2025-01-18 22:00,ZBAA 182200Z VRB01MPS CAVOK M07/M13 Q1019 NOSIG
ZBAA,2025-01-18 22:30,ZBAA 182230Z 34002MPS 300V360 CAVOK M06/M14 Q1019 NOSIG
ZBAA,2025-01-18 23:00,ZBAA 182300Z 35003MPS CAVOK M08/M14 Q1020 NOSIG
ZBAA,2025-01-18 23:30,ZBAA 182330Z 03002MPS 350V060 CAVOK M09/M14 Q1020 NOSIG
ZBAA,2025-01-19 00:00,ZBAA 190000Z 01002MPS CAVOK M07/M12 Q1020 NOSIG
ZBAA,2025-01-19 00:30,ZBAA 190030Z 35004MPS CAVOK M04/M11 Q1020 NOSIG
ZBAA,2025-01-19 01:00,ZBAA 190100Z 02003MPS 360V060 CAVOK 01/M12 Q1021 NOSIG
ZBAA,2025-01-19 01:30,ZBAA 190130Z 02004MPS CAVOK 03/M15 Q1021 NOSIG
ZBAA,2025-01-19 02:00,ZBAA 190200Z 01004MPS CAVOK 05/M15 Q1021 NOSIG
ZBAA,2025-01-19 02:30,ZBAA 190230Z 36005MPS CAVOK 06/M16 Q1021 NOSIG
ZBAA,2025-01-19 03:00,ZBAA 190300Z 36004MPS 320V040 CAVOK 07/M16 Q1021 NOSIG
ZBAA,2025-01-19 03:30,ZBAA 190330Z 34004MPS 310V030 CAVOK 07/M16 Q1021 NOSIG
ZBAA,2025-01-19 04:00,ZBAA 190400Z 34003MPS 300V010 CAVOK 08/M16 Q1020 NOSIG
ZBAA,2025-01-19 04:30,ZBAA 190430Z 33003MPS 300V010 CAVOK 09/M17 Q1020 NOSIG
ZBAA,2025-01-19 05:00,ZBAA 190500Z 33003MPS CAVOK 10/M16 Q1020 NOSIG
ZBAA,2025-01-19 05:30,ZBAA 190530Z 33003MPS 290V010 CAVOK 10/M16 Q1019 NOSIG
ZBAA,2025-01-19 06:00,ZBAA 190600Z VRB02MPS CAVOK 09/M16 Q1019 NOSIG
ZBAA,2025-01-19 06:30,ZBAA 190630Z VRB01MPS CAVOK 10/M16 Q1019 NOSIG
ZBAA,2025-01-19 07:00,ZBAA 190700Z VRB01MPS CAVOK 10/M17 Q1018 NOSIG
ZBAA,2025-01-19 07:30,ZBAA 190730Z VRB01MPS CAVOK 10/M17 Q1018 NOSIG
ZBAA,2025-01-19 08:00,ZBAA 190800Z VRB01MPS CAVOK 09/M16 Q1018 NOSIG
ZBAA,2025-01-19 08:30,ZBAA 190830Z VRB01MPS CAVOK 09/M16 Q1018 NOSIG
ZBAA,2025-01-19 09:00,ZBAA 190900Z VRB01MPS CAVOK 08/M16 Q1018 NOSIG
ZBAA,2025-01-19 09:30,ZBAA 190930Z VRB01MPS CAVOK 04/M16 Q1018 NOSIG
ZBAA,2025-01-19 10:00,ZBAA 191000Z VRB01MPS CAVOK M00/M14 Q1019 NOSIG
ZBAA,2025-01-19 10:30,ZBAA 191030Z VRB01MPS CAVOK 00/M15 Q1019 NOSIG
ZBAA,2025-01-19 11:00,ZBAA 191100Z 18003MPS 160V220 CAVOK M00/M14 Q1019 NOSIG
ZBAA,2025-01-19 11:30,ZBAA 191130Z 17002MPS CAVOK M01/M14 Q1019 NOSIG
ZBAA,2025-01-19 12:00,ZBAA 191200Z 17002MPS 160V220 CAVOK M01/M14 Q1020 NOSIG
ZBAA,2025-01-19 12:30,ZBAA 191230Z 17002MPS CAVOK M03/M14 Q1020 NOSIG
ZBAA,2025-01-19 13:00,ZBAA 191300Z VRB01MPS CAVOK M03/M13 Q1020 NOSIG
ZBAA,2025-01-19 13:30,ZBAA 191330Z VRB01MPS CAVOK M02/M13 Q1020 NOSIG
ZBAA,2025-01-19 14:00,ZBAA 191400Z VRB01MPS CAVOK M03/M12 Q1020 NOSIG
ZBAA,2025-01-19 14:30,ZBAA 191430Z VRB01MPS CAVOK M03/M12 Q1020 NOSIG
ZBAA,2025-01-19 15:00,ZBAA 191500Z 03001MPS CAVOK M05/M13 Q1020 NOSIG
ZBAA,2025-01-19 15:30,ZBAA 191530Z 03001MPS CAVOK M06/M13 Q1020 NOSIG
ZBAA,2025-01-19 16:00,ZBAA 191600Z 06001MPS CAVOK M05/M13 Q1020 NOSIG
ZBAA,2025-01-19 16:30,ZBAA 191630Z VRB01MPS CAVOK M06/M12 Q1020 NOSIG
ZBAA,2025-01-19 17:00,ZBAA 191700Z 36001MPS CAVOK M06/M12 Q1020 NOSIG
ZBAA,2025-01-19 17:30,ZBAA 191730Z VRB01MPS CAVOK M07/M12 Q1020 NOSIG
ZBAA,2025-01-19 18:00,ZBAA 191800Z VRB01MPS CAVOK M08/M13 Q1020 NOSIG
ZBAA,2025-01-19 18:30,ZBAA 191830Z 35001MPS CAVOK M08/M13 Q1020 NOSIG
ZBAA,2025-01-19 19:00,ZBAA 191900Z 36001MPS CAVOK M08/M13 Q1019 NOSIG
ZBAA,2025-01-19 19:30,ZBAA 191930Z 35001MPS CAVOK M08/M13 Q1019 NOSIG
ZBAA,2025-01-19 20:00,ZBAA 192000Z 35002MPS CAVOK M07/M12 Q1019 NOSIG
ZBAA,2025-01-19 20:30,ZBAA 192030Z 35002MPS CAVOK M08/M13 Q1019 NOSIG
ZBAA,2025-01-19 21:00,ZBAA 192100Z 36001MPS CAVOK M09/M13 Q1019 NOSIG
ZBAA,2025-01-19 21:30,ZBAA 192130Z 33001MPS CAVOK M08/M13 Q1019 NOSIG
ZBAA,2025-01-19 22:00,ZBAA 192200Z 35002MPS CAVOK M09/M13 Q1018 NOSIG
ZBAA,2025-01-19 22:30,ZBAA 192230Z 35002MPS 270V010 CAVOK M07/M12 Q1019 NOSIG
ZBAA,2025-01-19 23:00,ZBAA 192300Z 01001MPS CAVOK M09/M13 Q1019 NOSIG
ZBAA,2025-01-19 23:30,ZBAA 192330Z VRB01MPS CAVOK M08/M12 Q1019 NOSIG
ZBAA,2025-01-20 00:00,ZBAA 200000Z VRB01MPS CAVOK M09/M12 Q1019 NOSIG
ZBAA,2025-01-20 00:30,ZBAA 200030Z 00000MPS CAVOK M04/M08 Q1019 NOSIG
ZBAA,2025-01-20 01:00,ZBAA 200100Z VRB01MPS CAVOK M02/M08 Q1019 NOSIG
ZBAA,2025-01-20 01:30,ZBAA 200130Z VRB01MPS CAVOK M01/M09 Q1019 NOSIG
ZBAA,2025-01-20 02:00,ZBAA 200200Z VRB01MPS CAVOK 01/M11 Q1019 NOSIG
ZBAA,2025-01-20 02:30,ZBAA 200230Z 30002MPS 250V340 CAVOK 01/M11 Q1019 NOSIG
ZBAA,2025-01-20 03:00,ZBAA 200300Z 29002MPS 230V340 CAVOK 02/M12 Q1019 NOSIG
ZBAA,2025-01-20 03:30,ZBAA 200330Z VRB01MPS CAVOK 03/M12 Q1018 NOSIG
ZBAA,2025-01-20 04:00,ZBAA 200400Z VRB01MPS CAVOK 05/M12 Q1018 NOSIG
ZBAA,2025-01-20 04:30,ZBAA 200430Z 22002MPS 190V270 CAVOK 06/M13 Q1017 NOSIG
ZBAA,2025-01-20 05:00,ZBAA 200500Z 24002MPS 190V290 CAVOK 07/M13 Q1016 NOSIG
ZBAA,2025-01-20 05:30,ZBAA 200530Z 22002MPS 190V270 CAVOK 07/M13 Q1016 NOSIG
ZBAA,2025-01-20 06:00,ZBAA 200600Z 23002MPS 190V350 CAVOK 08/M13 Q1016 NOSIG
ZBAA,2025-01-20 06:30,ZBAA 200630Z 21002MPS 170V290 CAVOK 08/M12 Q1015 NOSIG
ZBAA,2025-01-20 07:00,ZBAA 200700Z 17002MPS 100V230 CAVOK 08/M12 Q1015 NOSIG
ZBAA,2025-01-20 07:30,ZBAA 200730Z 20002MPS 130V260 CAVOK 09/M12 Q1015 NOSIG
ZBAA,2025-01-20 08:00,ZBAA 200800Z 20002MPS 170V280 CAVOK 08/M13 Q1015 NOSIG
ZBAA,2025-01-20 08:30,ZBAA 200830Z VRB01MPS CAVOK 08/M13 Q1015 NOSIG
ZBAA,2025-01-20 09:00,ZBAA 200900Z VRB01MPS CAVOK 06/M13 Q1015 NOSIG
ZBAA,2025-01-20 09:30,ZBAA 200930Z VRB01MPS CAVOK 05/M13 Q1016 NOSIG
ZBAA,2025-01-20 10:00,ZBAA 201000Z 16001MPS CAVOK 01/M13 Q1016 NOSIG
ZBAA,2025-01-20 10:30,ZBAA 201030Z VRB01MPS CAVOK M02/M13 Q1016 NOSIG
ZBAA,2025-01-20 11:00,ZBAA 201100Z 04001MPS CAVOK M03/M13 Q1017 NOSIG
ZBAA,2025-01-20 11:30,ZBAA 201130Z 07001MPS CAVOK M03/M11 Q1017 NOSIG
ZBAA,2025-01-20 12:00,ZBAA 201200Z 08001MPS CAVOK M03/M11 Q1017 NOSIG
ZBAA,2025-01-20 12:30,ZBAA 201230Z 07001MPS CAVOK M03/M11 Q1017 NOSIG
ZBAA,2025-01-20 13:00,ZBAA 201300Z 08001MPS CAVOK M04/M10 Q1017 NOSIG
ZBAA,2025-01-20 13:30,ZBAA 201330Z 35002MPS CAVOK M03/M10 Q1018 NOSIG
ZBAA,2025-01-20 14:00,ZBAA 201400Z 01002MPS CAVOK M04/M11 Q1018 NOSIG
ZBAA,2025-01-20 14:30,ZBAA 201430Z VRB01MPS CAVOK M04/M11 Q1018 NOSIG
ZBAA,2025-01-20 15:00,ZBAA 201500Z 34001MPS CAVOK M04/M10 Q1018 NOSIG
ZBAA,2025-01-20 15:30,ZBAA 201530Z 33002MPS 300V360 CAVOK M03/M11 Q1019 NOSIG
ZBAA,2025-01-20 16:00,ZBAA 201600Z 34002MPS CAVOK M05/M11 Q1019 NOSIG
ZBAA,2025-01-20 16:30,ZBAA 201630Z 34002MPS CAVOK M04/M11 Q1019 NOSIG
ZBAA,2025-01-20 17:00,ZBAA 201700Z 34002MPS CAVOK M04/M11 Q1019 NOSIG
ZBAA,2025-01-20 17:30,ZBAA 201730Z 36002MPS CAVOK M04/M11 Q1019 NOSIG
ZBAA,2025-01-20 18:00,ZBAA 201800Z 35002MPS CAVOK M04/M11 Q1019 NOSIG
ZBAA,2025-01-20 18:30,ZBAA 201830Z 34002MPS CAVOK M04/M11 Q1019 NOSIG
ZBAA,2025-01-20 19:00,ZBAA 201900Z 36004MPS CAVOK M04/M12 Q1019 NOSIG
ZBAA,2025-01-20 19:30,ZBAA 201930Z 34002MPS CAVOK M05/M11 Q1019 NOSIG
ZBAA,2025-01-20 20:00,ZBAA 202000Z 35004MPS CAVOK M04/M11 Q1019 NOSIG
ZBAA,2025-01-20 20:30,ZBAA 202030Z 35004MPS CAVOK M03/M10 Q1019 NOSIG
ZBAA,2025-01-20 21:00,ZBAA 202100Z 34003MPS CAVOK M05/M12 Q1020 NOSIG
ZBAA,2025-01-20 21:30,ZBAA 202130Z 34004MPS CAVOK M05/M11 Q1020 NOSIG
ZBAA,2025-01-20 22:00,ZBAA 202200Z 35004MPS CAVOK M04/M11 Q1020 NOSIG
ZBAA,2025-01-20 22:30,ZBAA 202230Z 35004MPS CAVOK M05/M11 Q1021 NOSIG
ZBAA,2025-01-20 23:00,ZBAA 202300Z 36002MPS CAVOK M04/M11 Q1021 NOSIG
ZBAA,2025-01-20 23:30,ZBAA 202330Z 02003MPS CAVOK 00/M11 Q1022 NOSIG
ZBAA,2025-01-21 00:00,ZBAA 210000Z 02004MPS CAVOK 02/M11 Q1023 NOSIG
ZBAA,2025-01-21 00:30,ZBAA 210030Z 02003MPS 350V050 CAVOK 03/M11 Q1023 NOSIG
ZBAA,2025-01-21 01:00,ZBAA 210100Z 02003MPS 360V060 CAVOK 04/M11 Q1024 NOSIG
ZBAA,2025-01-21 01:30,ZBAA 210130Z 03004MPS 010V070 CAVOK 05/M12 Q1024 NOSIG
ZBAA,2025-01-21 02:00,ZBAA 210200Z 03004MPS 360V070 CAVOK 06/M12 Q1024 NOSIG
ZBAA,2025-01-21 02:30,ZBAA 210230Z 04004MPS 350V070 CAVOK 05/M12 Q1024 NOSIG
ZBAA,2025-01-21 03:00,ZBAA 210300Z 04004MPS 360V070 CAVOK 07/M12 Q1024 NOSIG
ZBAA,2025-01-21 03:30,ZBAA 210330Z 04004MPS 360V060 CAVOK 07/M12 Q1024 NOSIG
ZBAA,2025-01-21 04:00,ZBAA 210400Z 02003MPS 340V060 CAVOK 08/M13 Q1024 NOSIG
ZBAA,2025-01-21 04:30,ZBAA 210430Z 02003MPS 340V060 CAVOK 08/M12 Q1024 NOSIG
ZBAA,2025-01-21 05:00,ZBAA 210500Z 04003MPS 300V090 CAVOK 09/M13 Q1023 NOSIG
ZBAA,2025-01-21 05:30,ZBAA 210530Z 05003MPS 360V080 CAVOK 09/M13 Q1023 NOSIG
ZBAA,2025-01-21 06:00,ZBAA 210600Z 05003MPS 010V120 CAVOK 09/M13 Q1022 NOSIG
ZBAA,2025-01-21 06:30,ZBAA 210630Z 06003MPS 020V120 CAVOK 10/M13 Q1022 NOSIG
ZBAA,2025-01-21 07:00,ZBAA 210700Z 06003MPS 020V100 CAVOK 09/M14 Q1022 NOSIG
ZBAA,2025-01-21 07:30,ZBAA 210730Z 05002MPS 020V080 CAVOK 08/M14 Q1022 NOSIG
ZBAA,2025-01-21 08:00,ZBAA 210800Z 03002MPS CAVOK 09/M14 Q1022 NOSIG
ZBAA,2025-01-21 08:30,ZBAA 210830Z VRB01MPS CAVOK 08/M14 Q1022 NOSIG
ZBAA,2025-01-21 09:00,ZBAA 210900Z 04001MPS CAVOK 07/M14 Q1023 NOSIG
ZBAA,2025-01-21 09:30,ZBAA 210930Z 35001MPS CAVOK 04/M14 Q1023 NOSIG
ZBAA,2025-01-21 10:00,ZBAA 211000Z VRB01MPS CAVOK 01/M15 Q1023 NOSIG
ZBAA,2025-01-21 10:30,ZBAA 211030Z 35002MPS 310V010 CAVOK 02/M14 Q1024 NOSIG
ZBAA,2025-01-21 11:00,ZBAA 211100Z 36002MPS CAVOK 00/M14 Q1024 NOSIG
ZBAA,2025-01-21 11:30,ZBAA 211130Z 18003MPS 140V220 CAVOK 01/M13 Q1025 NOSIG
ZBAA,2025-01-21 12:00,ZBAA 211200Z 35002MPS CAVOK M01/M12 Q1025 NOSIG
ZBAA,2025-01-21 12:30,ZBAA 211230Z 02002MPS 350V050 CAVOK M03/M12 Q1025 NOSIG
ZBAA,2025-01-21 13:00,ZBAA 211300Z 07002MPS CAVOK M05/M13 Q1025 NOSIG
ZBAA,2025-01-21 13:30,ZBAA 211330Z 03002MPS CAVOK 02/M13 Q1025 NOSIG
ZBAA,2025-01-21 14:00,ZBAA 211400Z VRB01MPS CAVOK M01/M13 Q1025 NOSIG
ZBAA,2025-01-21 14:30,ZBAA 211430Z VRB01MPS CAVOK M02/M12 Q1026 NOSIG
ZBAA,2025-01-21 15:00,ZBAA 211500Z 06002MPS CAVOK M02/M12 Q1026 NOSIG
ZBAA,2025-01-21 15:30,ZBAA 211530Z 10002MPS CAVOK M00/M10 Q1026 NOSIG
ZBAA,2025-01-21 16:00,ZBAA 211600Z 09002MPS CAVOK M00/M08 Q1027 NOSIG
ZBAA,2025-01-21 16:30,ZBAA 211630Z 09002MPS CAVOK M01/M07 Q1027 NOSIG
ZBAA,2025-01-21 17:00,ZBAA 211700Z 09002MPS CAVOK M01/M07 Q1027 NOSIG
ZBAA,2025-01-21 17:30,ZBAA 211730Z 10002MPS CAVOK M02/M06 Q1027 NOSIG
ZBAA,2025-01-21 18:00,ZBAA 211800Z VRB01MPS CAVOK M02/M06 Q1027 NOSIG
ZBAA,2025-01-21 18:30,ZBAA 211830Z VRB01MPS CAVOK M04/M07 Q1027 NOSIG
ZBAA,2025-01-21 19:00,ZBAA 211900Z 08002MPS CAVOK M05/M08 Q1027 NOSIG
ZBAA,2025-01-21 19:30,ZBAA 211930Z VRB01MPS CAVOK M06/M08 Q1027 NOSIG
ZBAA,2025-01-21 20:00,ZBAA 212000Z 00000MPS CAVOK M05/M07 Q1027 NOSIG
ZBAA,2025-01-21 20:30,ZBAA 212030Z 00000MPS CAVOK M06/M07 Q1027 NOSIG
ZBAA,2025-01-21 21:00,ZBAA 212100Z 36001MPS CAVOK M07/M08 Q1027 NOSIG
ZBAA,2025-01-21 21:30,ZBAA 212130Z VRB01MPS CAVOK M05/M07 Q1027 NOSIG
ZBAA,2025-01-21 22:00,ZBAA 212200Z 35002MPS 310V010 CAVOK M06/M08 Q1027 NOSIG
ZBAA,2025-01-21 22:30,ZBAA 212230Z 34002MPS 290V350 CAVOK M05/M07 Q1028 NOSIG
ZBAA,2025-01-21 23:00,ZBAA 212300Z VRB01MPS CAVOK M05/M09 Q1028 NOSIG
ZBAA,2025-01-21 23:30,ZBAA 212330Z 35002MPS CAVOK M06/M11 Q1028 NOSIG
ZBAA,2025-01-22 00:00,ZBAA 220000Z 36002MPS CAVOK M07/M11 Q1029 NOSIG
ZBAA,2025-01-22 00:30,ZBAA 220030Z 36002MPS CAVOK M05/M09 Q1029 NOSIG
ZBAA,2025-01-22 01:00,ZBAA 220100Z 36002MPS CAVOK M01/M08 Q1029 NOSIG
ZBAA,2025-01-22 01:30,ZBAA 220130Z 34002MPS 310V010 CAVOK 01/M11 Q1029 NOSIG
ZBAA,2025-01-22 02:00,ZBAA 220200Z 33002MPS 280V360 CAVOK 02/M12 Q1029 NOSIG
ZBAA,2025-01-22 02:30,ZBAA 220230Z VRB01MPS CAVOK 02/M12 Q1029 NOSIG
ZBAA,2025-01-22 03:00,ZBAA 220300Z VRB01MPS CAVOK 03/M11 Q1029 NOSIG
ZBAA,2025-01-22 03:30,ZBAA 220330Z VRB01MPS CAVOK 04/M09 Q1029 NOSIG
ZBAA,2025-01-22 04:00,ZBAA 220400Z VRB01MPS CAVOK 04/M08 Q1028 NOSIG
ZBAA,2025-01-22 04:30,ZBAA 220430Z VRB01MPS CAVOK 05/M08 Q1028 NOSIG
ZBAA,2025-01-22 05:00,ZBAA 220500Z VRB01MPS CAVOK 05/M08 Q1027 NOSIG
ZBAA,2025-01-22 05:30,ZBAA 220530Z VRB02MPS CAVOK 05/M08 Q1027 NOSIG
ZBAA,2025-01-22 06:00,ZBAA 220600Z 21002MPS 160V290 CAVOK 06/M09 Q1026 NOSIG
ZBAA,2025-01-22 06:30,ZBAA 220630Z 20002MPS 130V240 CAVOK 06/M08 Q1026 NOSIG
ZBAA,2025-01-22 07:00,ZBAA 220700Z 18002MPS 140V230 CAVOK 06/M08 Q1026 NOSIG
ZBAA,2025-01-22 07:30,ZBAA 220730Z 19002MPS 160V260 CAVOK 06/M08 Q1026 NOSIG
ZBAA,2025-01-22 08:00,ZBAA 220800Z 21002MPS 170V240 CAVOK 06/M08 Q1026 NOSIG
ZBAA,2025-01-22 08:30,ZBAA 220830Z 18002MPS 150V220 CAVOK 05/M09 Q1026 NOSIG
ZBAA,2025-01-22 09:00,ZBAA 220900Z 19003MPS 170V240 CAVOK 04/M09 Q1026 NOSIG
ZBAA,2025-01-22 09:30,ZBAA 220930Z 17002MPS 130V230 CAVOK 02/M10 Q1026 NOSIG
ZBAA,2025-01-22 10:00,ZBAA 221000Z VRB01MPS CAVOK 00/M10 Q1026 NOSIG
ZBAA,2025-01-22 10:30,ZBAA 221030Z 17001MPS CAVOK M02/M09 Q1026 NOSIG
ZBAA,2025-01-22 11:00,ZBAA 221100Z 17001MPS CAVOK M02/M09 Q1027 NOSIG
ZBAA,2025-01-22 11:30,ZBAA 221130Z 18002MPS CAVOK M01/M09 Q1027 NOSIG
ZBAA,2025-01-22 12:00,ZBAA 221200Z 18002MPS CAVOK M02/M09 Q1027 NOSIG
ZBAA,2025-01-22 12:30,ZBAA 221230Z 18002MPS CAVOK M03/M09 Q1027 NOSIG
ZBAA,2025-01-22 13:00,ZBAA 221300Z 17002MPS CAVOK M04/M09 Q1028 NOSIG
ZBAA,2025-01-22 13:30,ZBAA 221330Z VRB01MPS CAVOK M04/M09 Q1028 NOSIG
ZBAA,2025-01-22 14:00,ZBAA 221400Z VRB01MPS CAVOK M04/M08 Q1028 NOSIG
ZBAA,2025-01-22 14:30,ZBAA 221430Z 17002MPS CAVOK M04/M09 Q1028 NOSIG
ZBAA,2025-01-22 15:00,ZBAA 221500Z VRB01MPS CAVOK M05/M09 Q1028 NOSIG
ZBAA,2025-01-22 15:30,ZBAA 221530Z 15002MPS CAVOK M05/M09 Q1028 NOSIG
ZBAA,2025-01-22 16:00,ZBAA 221600Z 13001MPS CAVOK M05/M09 Q1028 NOSIG
ZBAA,2025-01-22 16:30,ZBAA 221630Z VRB01MPS CAVOK M06/M10 Q1028 NOSIG
ZBAA,2025-01-22 17:00,ZBAA 221700Z 08002MPS CAVOK M06/M09 Q1028 NOSIG
ZBAA,2025-01-22 17:30,ZBAA 221730Z 07001MPS CAVOK M06/M09 Q1028 NOSIG
ZBAA,2025-01-22 18:00,ZBAA 221800Z VRB01MPS CAVOK M06/M09 Q1028 NOSIG
ZBAA,2025-01-22 18:30,ZBAA 221830Z 07001MPS CAVOK M07/M10 Q1028 NOSIG
ZBAA,2025-01-22 19:00,ZBAA 221900Z VRB01MPS CAVOK M08/M10 Q1028 NOSIG
ZBAA,2025-01-22 19:30,ZBAA 221930Z 04001MPS CAVOK M07/M09 Q1028 NOSIG
ZBAA,2025-01-22 20:00,ZBAA 222000Z 06001MPS CAVOK M07/M10 Q1028 NOSIG
ZBAA,2025-01-22 20:30,ZBAA 222030Z 03001MPS CAVOK M08/M10 Q1027 NOSIG
ZBAA,2025-01-22 21:00,ZBAA 222100Z 05001MPS CAVOK M07/M09 Q1027 NOSIG
ZBAA,2025-01-22 21:30,ZBAA 222130Z 05001MPS CAVOK M09/M11 Q1027 NOSIG
ZBAA,2025-01-22 22:00,ZBAA 222200Z VRB01MPS CAVOK M09/M11 Q1027 NOSIG
ZBAA,2025-01-22 22:30,ZBAA 222230Z 00000MPS CAVOK M08/M10 Q1027 NOSIG
ZBAA,2025-01-22 23:00,ZBAA 222300Z 00000MPS CAVOK M09/M10 Q1027 NOSIG
ZBAA,2025-01-22 23:30,ZBAA 222330Z 02001MPS 7000 NSC M08/M10 Q1028 NOSIG
ZBAA,2025-01-23 00:00,ZBAA 230000Z VRB01MPS 7000 NSC M08/M10 Q1028 NOSIG
ZBAA,2025-01-23 00:30,ZBAA 230030Z 00000MPS CAVOK M07/M09 Q1028 NOSIG
ZBAA,2025-01-23 01:00,ZBAA 230100Z 04001MPS CAVOK M04/M06 Q1028 NOSIG
ZBAA,2025-01-23 01:30,ZBAA 230130Z VRB01MPS CAVOK M01/M06 Q1028 NOSIG
ZBAA,2025-01-23 02:00,ZBAA 230200Z 00000MPS CAVOK 00/M06 Q1028 NOSIG
ZBAA,2025-01-23 02:30,ZBAA 230230Z VRB01MPS CAVOK 01/M06 Q1028 NOSIG
ZBAA,2025-01-23 03:00,ZBAA 230300Z VRB01MPS CAVOK 01/M06 Q1028 NOSIG
ZBAA,2025-01-23 03:30,ZBAA 230330Z VRB01MPS CAVOK 02/M06 Q1027 NOSIG
ZBAA,2025-01-23 04:00,ZBAA 230400Z VRB01MPS CAVOK 03/M06 Q1027 NOSIG
ZBAA,2025-01-23 04:30,ZBAA 230430Z VRB01MPS CAVOK 03/M06 Q1026 NOSIG
ZBAA,2025-01-23 05:00,ZBAA 230500Z VRB01MPS CAVOK 04/M06 Q1026 NOSIG
ZBAA,2025-01-23 05:30,ZBAA 230530Z VRB01MPS CAVOK 04/M06 Q1026 NOSIG
ZBAA,2025-01-23 06:00,ZBAA 230600Z 16002MPS 080V200 CAVOK 05/M07 Q1025 NOSIG
ZBAA,2025-01-23 06:30,ZBAA 230630Z VRB01MPS CAVOK 05/M07 Q1025 NOSIG
ZBAA,2025-01-23 07:00,ZBAA 230700Z VRB02G07MPS CAVOK 05/M07 Q1024 NOSIG
ZBAA,2025-01-23 07:30,ZBAA 230730Z VRB01MPS CAVOK 05/M07 Q1024 NOSIG
ZBAA,2025-01-23 08:00,ZBAA 230800Z VRB01MPS CAVOK 05/M07 Q1024 NOSIG
ZBAA,2025-01-23 08:30,ZBAA 230830Z VRB01MPS CAVOK 04/M07 Q1024 NOSIG
ZBAA,2025-01-23 09:00,ZBAA 230900Z 08001MPS CAVOK 04/M07 Q1024 NOSIG
ZBAA,2025-01-23 09:30,ZBAA 230930Z 08001MPS CAVOK 00/M08 Q1024 NOSIG
ZBAA,2025-01-23 10:00,ZBAA 231000Z 08001MPS CAVOK M03/M09 Q1025 NOSIG
ZBAA,2025-01-23 10:30,ZBAA 231030Z 09001MPS CAVOK M04/M09 Q1025 NOSIG
ZBAA,2025-01-23 11:00,ZBAA 231100Z 08001MPS CAVOK M03/M07 Q1025 NOSIG
ZBAA,2025-01-23 11:30,ZBAA 231130Z 06001MPS CAVOK M04/M08 Q1026 NOSIG
ZBAA,2025-01-23 12:00,ZBAA 231200Z 09001MPS 8000 NSC M04/M07 Q1026 NOSIG
ZBAA,2025-01-23 12:30,ZBAA 231230Z VRB01MPS 8000 NSC M04/M07 Q1026 NOSIG
ZBAA,2025-01-23 13:00,ZBAA 231300Z VRB01MPS 8000 NSC M05/M09 Q1027 NOSIG
ZBAA,2025-01-23 13:30,ZBAA 231330Z 03001MPS 8000 NSC M05/M08 Q1027 NOSIG
ZBAA,2025-01-23 14:00,ZBAA 231400Z 02001MPS 7000 NSC M05/M08 Q1027 NOSIG
ZBAA,2025-01-23 14:30,ZBAA 231430Z 00000MPS 7000 NSC M05/M07 Q1027 NOSIG
ZBAA,2025-01-23 15:00,ZBAA 231500Z 34001MPS 7000 NSC M05/M07 Q1027 NOSIG
ZBAA,2025-01-23 15:30,ZBAA 231530Z VRB01MPS 7000 NSC M05/M07 Q1027 NOSIG
ZBAA,2025-01-23 16:00,ZBAA 231600Z 35001MPS 7000 NSC M07/M09 Q1027 NOSIG
ZBAA,2025-01-23 16:30,ZBAA 231630Z 35002MPS 7000 NSC M07/M09 Q1027 NOSIG
ZBAA,2025-01-23 17:00,ZBAA 231700Z 35002MPS 7000 NSC M07/M09 Q1027 NOSIG
ZBAA,2025-01-23 17:30,ZBAA 231730Z 35002MPS 7000 NSC M05/M07 Q1027 NOSIG
ZBAA,2025-01-23 18:00,ZBAA 231800Z 34002MPS 7000 NSC M05/M08 Q1027 NOSIG
ZBAA,2025-01-23 18:30,ZBAA 231830Z 34002MPS 7000 NSC M05/M08 Q1028 NOSIG
ZBAA,2025-01-23 19:00,ZBAA 231900Z 35002MPS 7000 NSC M04/M08 Q1027 NOSIG
ZBAA,2025-01-23 19:30,ZBAA 231930Z 34002MPS 7000 NSC M05/M08 Q1027 NOSIG
ZBAA,2025-01-23 20:00,ZBAA 232000Z 33002MPS 7000 NSC M05/M08 Q1027 NOSIG
ZBAA,2025-01-23 20:30,ZBAA 232030Z 33002MPS 7000 NSC M05/M08 Q1027 NOSIG
ZBAA,2025-01-23 21:00,ZBAA 232100Z 33001MPS 7000 NSC M04/M07 Q1027 NOSIG
ZBAA,2025-01-23 21:30,ZBAA 232130Z 32002MPS 7000 NSC M04/M07 Q1028 NOSIG
ZBAA,2025-01-23 22:00,ZBAA 232200Z 31002MPS 7000 NSC M04/M07 Q1028 NOSIG
ZBAA,2025-01-23 22:30,ZBAA 232230Z 33002MPS 290V010 7000 NSC M05/M09 Q1028 NOSIG
ZBAA,2025-01-23 23:00,ZBAA 232300Z VRB01MPS 7000 NSC M05/M08 Q1029 NOSIG
ZBAA,2025-01-23 23:30,ZBAA 232330Z 34002MPS 7000 NSC M06/M09 Q1029 NOSIG
ZBAA,2025-01-24 00:00,ZBAA 240000Z 36003MPS CAVOK M06/M09 Q1030 NOSIG
ZBAA,2025-01-24 00:30,ZBAA 240030Z 36002MPS CAVOK M05/M07 Q1031 NOSIG
ZBAA,2025-01-24 01:00,ZBAA 240100Z 02002MPS 8000 NSC M02/M06 Q1031 NOSIG
ZBAA,2025-01-24 01:30,ZBAA 240130Z 01002MPS 340V040 8000 NSC M00/M05 Q1031 NOSIG
ZBAA,2025-01-24 02:00,ZBAA 240200Z VRB01MPS 8000 NSC 01/M06 Q1031 NOSIG
ZBAA,2025-01-24 02:30,ZBAA 240230Z 32002MPS 290V010 8000 NSC 02/M06 Q1032 NOSIG
ZBAA,2025-01-24 03:00,ZBAA 240300Z VRB01MPS CAVOK 02/M07 Q1032 NOSIG
ZBAA,2025-01-24 03:30,ZBAA 240330Z 32002MPS 280V010 CAVOK 03/M07 Q1031 NOSIG
ZBAA,2025-01-24 04:00,ZBAA 240400Z 29002MPS 250V320 CAVOK 04/M07 Q1031 NOSIG
ZBAA,2025-01-24 04:30,ZBAA 240430Z VRB01MPS CAVOK 05/M07 Q1031 NOSIG
ZBAA,2025-01-24 05:00,ZBAA 240500Z VRB02MPS CAVOK 06/M07 Q1030 NOSIG
ZBAA,2025-01-24 05:30,ZBAA 240530Z VRB01MPS CAVOK 07/M08 Q1030 NOSIG
ZBAA,2025-01-24 06:00,ZBAA 240600Z 13002MPS 020V190 CAVOK 07/M08 Q1030 NOSIG
ZBAA,2025-01-24 06:30,ZBAA 240630Z 13002MPS 030V180 CAVOK 07/M08 Q1030 NOSIG
ZBAA,2025-01-24 07:00,ZBAA 240700Z VRB02MPS CAVOK 07/M08 Q1030 NOSIG
ZBAA,2025-01-24 07:30,ZBAA 240730Z 16002MPS 090V240 CAVOK 07/M07 Q1030 NOSIG
ZBAA,2025-01-24 08:00,ZBAA 240800Z 19003MPS 140V240 CAVOK 06/M08 Q1030 NOSIG
ZBAA,2025-01-24 08:30,ZBAA 240830Z 17003MPS 7000 NSC 05/M08 Q1030 NOSIG
ZBAA,2025-01-24 09:00,ZBAA 240900Z 16002MPS 7000 NSC 04/M09 Q1031 NOSIG
ZBAA,2025-01-24 09:30,ZBAA 240930Z 16002MPS 7000 NSC 03/M09 Q1031 NOSIG
ZBAA,2025-01-24 10:00,ZBAA 241000Z 18002MPS 140V210 7000 NSC 01/M08 Q1031 NOSIG
ZBAA,2025-01-24 10:30,ZBAA 241030Z VRB01MPS 7000 NSC M01/M08 Q1032 NOSIG
ZBAA,2025-01-24 11:00,ZBAA 241100Z VRB01MPS 7000 NSC M02/M08 Q1032 NOSIG
ZBAA,2025-01-24 11:30,ZBAA 241130Z VRB01MPS 7000 NSC M03/M08 Q1033 NOSIG
ZBAA,2025-01-24 12:00,ZBAA 241200Z VRB01MPS 7000 NSC M03/M08 Q1033 NOSIG
ZBAA,2025-01-24 12:30,ZBAA 241230Z 00000MPS 7000 NSC M03/M08 Q1033 NOSIG
ZBAA,2025-01-24 13:00,ZBAA 241300Z VRB01MPS 7000 NSC M04/M08 Q1034 NOSIG
ZBAA,2025-01-24 13:30,ZBAA 241330Z 07001MPS 7000 NSC M05/M09 Q1034 NOSIG
ZBAA,2025-01-24 14:00,ZBAA 241400Z 11001MPS 7000 NSC M04/M08 Q1034 NOSIG
ZBAA,2025-01-24 14:30,ZBAA 241430Z 13002MPS 7000 NSC M04/M08 Q1034 NOSIG
ZBAA,2025-01-24 15:00,ZBAA 241500Z 09001MPS 6000 NSC M05/M09 Q1034 NOSIG
ZBAA,2025-01-24 15:30,ZBAA 241530Z 12002MPS 6000 NSC M05/M08 Q1034 NOSIG
ZBAA,2025-01-24 16:00,ZBAA 241600Z VRB01MPS 6000 NSC M02/M05 Q1035 NOSIG
ZBAA,2025-01-24 16:30,ZBAA 241630Z 15001MPS 6000 NSC M05/M07 Q1035 NOSIG
ZBAA,2025-01-24 17:00,ZBAA 241700Z VRB01MPS 6000 NSC M06/M08 Q1035 NOSIG
ZBAA,2025-01-24 17:30,ZBAA 241730Z 12001MPS 6000 NSC M06/M08 Q1035 NOSIG
ZBAA,2025-01-24 18:00,ZBAA 241800Z 08001MPS 6000 NSC M06/M07 Q1036 NOSIG
ZBAA,2025-01-24 18:30,ZBAA 241830Z 00000MPS 6000 NSC M06/M08 Q1036 NOSIG
ZBAA,2025-01-24 19:00,ZBAA 241900Z 08001MPS 6000 NSC M06/M08 Q1036 NOSIG
ZBAA,2025-01-24 19:30,ZBAA 241930Z 07001MPS 6000 NSC M07/M08 Q1036 NOSIG
ZBAA,2025-01-24 20:00,ZBAA 242000Z 09001MPS 6000 NSC M07/M09 Q1035 NOSIG
ZBAA,2025-01-24 20:30,ZBAA 242030Z VRB01MPS 6000 NSC M07/M09 Q1035 NOSIG
ZBAA,2025-01-24 21:00,ZBAA 242100Z 04001MPS 6000 NSC M07/M08 Q1035 NOSIG
ZBAA,2025-01-24 21:30,ZBAA 242130Z 00000MPS 6000 NSC M07/M08 Q1035 NOSIG
ZBAA,2025-01-24 22:00,ZBAA 242200Z 00000MPS 6000 NSC M07/M09 Q1035 NOSIG
ZBAA,2025-01-24 22:30,ZBAA 242230Z 00000MPS 6000 NSC M08/M09 Q1035 NOSIG
ZBAA,2025-01-24 23:00,ZBAA 242300Z 36001MPS 6000 NSC M08/M09 Q1035 NOSIG
ZBAA,2025-01-24 23:30,ZBAA 242330Z VRB01MPS 5000 BR NSC M08/M09 Q1035 NOSIG
ZBAA,2025-01-25 00:00,ZBAA 250000Z 34002MPS 4000 BR NSC M06/M07 Q1036 NOSIG
ZBAA,2025-01-25 00:30,ZBAA 250030Z 36002MPS 4000 BR NSC M04/M06 Q1036 NOSIG
ZBAA,2025-01-25 01:00,ZBAA 250100Z 35002MPS 4000 BR NSC M02/M05 Q1036 NOSIG
ZBAA,2025-01-25 01:30,ZBAA 250130Z 36002MPS 4000 BR NSC M01/M05 Q1036 NOSIG
ZBAA,2025-01-25 02:00,ZBAA 250200Z 32002MPS 290V360 4500 BR NSC M00/M05 Q1036 NOSIG
ZBAA,2025-01-25 02:30,ZBAA 250230Z VRB01MPS 4500 BR NSC 00/M06 Q1036 NOSIG
ZBAA,2025-01-25 03:00,ZBAA 250300Z VRB01MPS 4500 BR NSC 01/M06 Q1036 NOSIG
ZBAA,2025-01-25 03:30,ZBAA 250330Z VRB01MPS 5000 HZ NSC 01/M06 Q1035 NOSIG
ZBAA,2025-01-25 04:00,ZBAA 250400Z VRB01MPS 5000 HZ NSC 02/M06 Q1035 NOSIG
ZBAA,2025-01-25 04:30,ZBAA 250430Z VRB01MPS 5000 HZ NSC 02/M05 Q1034 NOSIG
ZBAA,2025-01-25 05:00,ZBAA 250500Z VRB01MPS 5000 HZ NSC 03/M05 Q1033 NOSIG
ZBAA,2025-01-25 05:30,ZBAA 250530Z 21002MPS 150V280 5000 HZ NSC 03/M05 Q1033 NOSIG
ZBAA,2025-01-25 06:00,ZBAA 250600Z VRB01MPS 5000 HZ NSC 03/M04 Q1033 NOSIG
ZBAA,2025-01-25 06:30,ZBAA 250630Z VRB01MPS 5000 HZ NSC 03/M05 Q1033 NOSIG
ZBAA,2025-01-25 07:00,ZBAA 250700Z VRB01MPS 5000 HZ NSC 03/M05 Q1033 NOSIG
ZBAA,2025-01-25 07:30,ZBAA 250730Z VRB01MPS 5000 HZ NSC 03/M05 Q1033 NOSIG
ZBAA,2025-01-25 08:00,ZBAA 250800Z 05002MPS 020V080 5000 HZ NSC 03/M05 Q1032 NOSIG
ZBAA,2025-01-25 08:30,ZBAA 250830Z 21002MPS 130V270 5000 HZ NSC 03/M06 Q1032 NOSIG
ZBAA,2025-01-25 09:00,ZBAA 250900Z 16001MPS 5000 HZ NSC 02/M07 Q1032 NOSIG
ZBAA,2025-01-25 09:30,ZBAA 250930Z 16002MPS 5000 HZ NSC 02/M07 Q1032 NOSIG
ZBAA,2025-01-25 10:00,ZBAA 251000Z VRB01MPS 6000 NSC 01/M07 Q1033 NOSIG
ZBAA,2025-01-25 10:30,ZBAA 251030Z 08001MPS 6000 NSC 01/M07 Q1033 NOSIG
ZBAA,2025-01-25 11:00,ZBAA 251100Z 07001MPS 6000 NSC M00/M06 Q1033 NOSIG
ZBAA,2025-01-25 11:30,ZBAA 251130Z 07001MPS 6000 NSC 00/M06 Q1033 NOSIG
ZBAA,2025-01-25 12:00,ZBAA 251200Z 12001MPS 6000 NSC M00/M06 Q1033 NOSIG
ZBAA,2025-01-25 12:30,ZBAA 251230Z 08001MPS 5000 HZ NSC M00/M05 Q1033 NOSIG
ZBAA,2025-01-25 13:00,ZBAA 251300Z 08001MPS 5000 HZ NSC M00/M05 Q1033 NOSIG
ZBAA,2025-01-25 13:30,ZBAA 251330Z 00000MPS 5000 HZ NSC M00/M05 Q1033 NOSIG
ZBAA,2025-01-25 14:00,ZBAA 251400Z VRB01MPS 5000 HZ NSC 00/M05 Q1033 NOSIG
ZBAA,2025-01-25 14:30,ZBAA 251430Z 28003G09MPS 240V360 4000 -SN HZ NSC 02/M04 Q1033 NOSIG
ZBAA,2025-01-25 15:00,ZBAA 251500Z VRB01MPS 4000 -SN HZ NSC 01/M04 Q1033 NOSIG
ZBAA,2025-01-25 15:30,ZBAA 251530Z VRB01MPS 4000 BR NSC 00/M04 Q1033 NOSIG
ZBAA,2025-01-25 16:00,ZBAA 251600Z 00000MPS 4000 BR NSC 00/M04 Q1032 NOSIG
ZBAA,2025-01-25 16:30,ZBAA 251630Z 10001MPS 4000 BR NSC M00/M04 Q1032 NOSIG
ZBAA,2025-01-25 17:00,ZBAA 251700Z 26003MPS 220V280 5000 -SN BR NSC 02/M04 Q1032 NOSIG
ZBAA,2025-01-25 17:30,ZBAA 251730Z 28004MPS 5000 HZ NSC 02/M04 Q1032 NOSIG
ZBAA,2025-01-25 18:00,ZBAA 251800Z 29005MPS CAVOK 03/M05 Q1032 NOSIG
ZBAA,2025-01-25 18:30,ZBAA 251830Z 30007MPS 9999 -SNRA NSC 02/M05 Q1031 NOSIG
ZBAA,2025-01-25 19:00,ZBAA 251900Z 32005MPS CAVOK 02/M05 Q1031 NOSIG
ZBAA,2025-01-25 19:30,ZBAA 251930Z 31005MPS CAVOK 02/M06 Q1030 NOSIG
ZBAA,2025-01-25 20:00,ZBAA 252000Z 30006MPS CAVOK 02/M07 Q1030 NOSIG
ZBAA,2025-01-25 20:30,ZBAA 252030Z 30008MPS CAVOK 02/M08 Q1030 NOSIG
ZBAA,2025-01-25 21:00,ZBAA 252100Z 30009MPS CAVOK 02/M09 Q1030 NOSIG
ZBAA,2025-01-25 21:30,ZBAA 252130Z 30009MPS CAVOK 02/M10 Q1030 NOSIG
ZBAA,2025-01-25 22:00,ZBAA 252200Z 30008MPS CAVOK 02/M11 Q1030 NOSIG
ZBAA,2025-01-25 22:30,ZBAA 252230Z 31007MPS CAVOK 02/M12 Q1030 NOSIG
ZBAA,2025-01-25 23:00,ZBAA 252300Z 31007MPS CAVOK 02/M13 Q1030 NOSIG
ZBAA,2025-01-25 23:30,ZBAA 252330Z 32008MPS CAVOK 02/M15 Q1030 NOSIG
ZBAA,2025-01-26 00:00,ZBAA 260000Z 32009MPS CAVOK 02/M18 Q1030 NOSIG
ZBAA,2025-01-26 00:30,ZBAA 260030Z 32009G15MPS CAVOK 02/M18 Q1030 NOSIG
ZBAA,2025-01-26 01:00,ZBAA 260100Z 29007MPS CAVOK 01/M17 Q1030 NOSIG
ZBAA,2025-01-26 01:30,ZBAA 260130Z 30008MPS CAVOK 01/M18 Q1030 NOSIG
ZBAA,2025-01-26 02:00,ZBAA 260200Z 30007MPS CAVOK 01/M18 Q1029 NOSIG
ZBAA,2025-01-26 02:30,ZBAA 260230Z 34009MPS CAVOK 01/M20 Q1029 NOSIG
ZBAA,2025-01-26 03:00,ZBAA 260300Z 34010MPS CAVOK 01/M20 Q1028 NOSIG
ZBAA,2025-01-26 03:30,ZBAA 260330Z 33009MPS CAVOK 01/M20 Q1028 NOSIG
ZBAA,2025-01-26 04:00,ZBAA 260400Z 32010MPS CAVOK 01/M22 Q1027 NOSIG
ZBAA,2025-01-26 04:30,ZBAA 260430Z 33009MPS 300V360 8000 NSC 01/M22 Q1026 NOSIG
ZBAA,2025-01-26 05:00,ZBAA 260500Z 33008MPS 8000 NSC 01/M23 Q1026 NOSIG
ZBAA,2025-01-26 05:30,ZBAA 260530Z 33009MPS CAVOK 02/M23 Q1025 NOSIG
ZBAA,2025-01-26 06:00,ZBAA 260600Z 34008G13MPS CAVOK 02/M24 Q1025 NOSIG
ZBAA,2025-01-26 06:30,ZBAA 260630Z 33009G14MPS 8000 NSC 01/M25 Q1024 NOSIG
ZBAA,2025-01-26 07:00,ZBAA 260700Z 33009MPS 290V360 8000 NSC 01/M27 Q1024 NOSIG
ZBAA,2025-01-26 07:30,ZBAA 260730Z 33009MPS 300V360 8000 NSC 00/M27 Q1024 NOSIG
ZBAA,2025-01-26 08:00,ZBAA 260800Z 33009MPS CAVOK 00/M26 Q1024 NOSIG
ZBAA,2025-01-26 08:30,ZBAA 260830Z 33010G15MPS CAVOK M01/M24 Q1025 NOSIG
ZBAA,2025-01-26 09:00,ZBAA 260900Z 33010MPS CAVOK M01/M23 Q1025 NOSIG
ZBAA,2025-01-26 09:30,ZBAA 260930Z 32010MPS CAVOK M01/M23 Q1025 NOSIG
ZBAA,2025-01-26 10:00,ZBAA 261000Z 32011MPS CAVOK M02/M22 Q1025 NOSIG
ZBAA,2025-01-26 10:30,ZBAA 261030Z 32012MPS CAVOK M02/M21 Q1025 NOSIG
ZBAA,2025-01-26 11:00,ZBAA 261100Z 32011MPS CAVOK M02/M21 Q1025 NOSIG
ZBAA,2025-01-26 11:30,ZBAA 261130Z 32011G16MPS CAVOK M03/M21 Q1025 WS R36R NOSIG
ZBAA,2025-01-26 12:00,ZBAA 261200Z 32012MPS CAVOK M03/M21 Q1025 NOSIG
ZBAA,2025-01-26 12:30,ZBAA 261230Z 32013MPS CAVOK M04/M21 Q1025 NOSIG
ZBAA,2025-01-26 13:00,ZBAA 261300Z 31011MPS CAVOK M04/M20 Q1025 NOSIG
ZBAA,2025-01-26 13:30,ZBAA 261330Z 31010MPS CAVOK M04/M20 Q1025 NOSIG
ZBAA,2025-01-26 14:00,ZBAA 261400Z 31009MPS CAVOK M04/M21 Q1025 NOSIG
ZBAA,2025-01-26 14:30,ZBAA 261430Z 31010MPS CAVOK M05/M21 Q1025 NOSIG
ZBAA,2025-01-26 15:00,ZBAA 261500Z 31010G15MPS CAVOK M05/M21 Q1025 NOSIG
ZBAA,2025-01-26 15:30,ZBAA 261530Z 31010MPS CAVOK M05/M21 Q1025 NOSIG
ZBAA,2025-01-26 16:00,ZBAA 261600Z 31010MPS CAVOK M05/M22 Q1025 NOSIG
ZBAA,2025-01-26 16:30,ZBAA 261630Z 31010G15MPS CAVOK M05/M22 Q1025 NOSIG
ZBAA,2025-01-26 17:00,ZBAA 261700Z 32012G17MPS CAVOK M06/M22 Q1025 NOSIG
ZBAA,2025-01-26 17:30,ZBAA 261730Z 33012MPS CAVOK M06/M21 Q1025 NOSIG
ZBAA,2025-01-26 18:00,ZBAA 261800Z 32011G16MPS CAVOK M06/M22 Q1025 NOSIG
ZBAA,2025-01-26 18:30,ZBAA 261830Z 33012MPS CAVOK M06/M23 Q1025 NOSIG
ZBAA,2025-01-26 19:00,ZBAA 261900Z 32010MPS CAVOK M06/M23 Q1025 NOSIG
ZBAA,2025-01-26 19:30,ZBAA 261930Z 33010G16MPS CAVOK M06/M23 Q1025 NOSIG
ZBAA,2025-01-26 20:00,ZBAA 262000Z 33008G14MPS CAVOK M06/M23 Q1025 NOSIG
ZBAA,2025-01-26 20:30,ZBAA 262030Z 34010G15MPS CAVOK M07/M23 Q1025 NOSIG
ZBAA,2025-01-26 21:00,ZBAA 262100Z 33011MPS CAVOK M07/M23 Q1024 NOSIG
ZBAA,2025-01-26 21:22,ZBAA 262122Z 31006MPS CAVOK M07/M23 Q1024 NOSIG
ZBAA,2025-01-26 21:30,ZBAA 262130Z 31006MPS CAVOK M07/M23 Q1025 NOSIG
ZBAA,2025-01-26 22:00,ZBAA 262200Z 32008MPS CAVOK M07/M22 Q1025 NOSIG
ZBAA,2025-01-26 22:30,ZBAA 262230Z 31009G15MPS CAVOK M07/M23 Q1025 NOSIG
ZBAA,2025-01-26 23:00,ZBAA 262300Z 32008MPS CAVOK M07/M23 Q1025 NOSIG
ZBAA,2025-01-26 23:30,ZBAA 262330Z 31009MPS CAVOK M07/M23 Q1025 NOSIG
ZBAA,2025-01-27 00:00,ZBAA 270000Z 31012MPS CAVOK M07/M23 Q1025 NOSIG
ZBAA,2025-01-27 00:30,ZBAA 270030Z 32014MPS CAVOK M07/M24 Q1026 NOSIG
ZBAA,2025-01-27 01:00,ZBAA 270100Z 32013MPS CAVOK M06/M24 Q1026 NOSIG
ZBAA,2025-01-27 01:30,ZBAA 270130Z 32012MPS CAVOK M05/M24 Q1026 NOSIG
ZBAA,2025-01-27 02:00,ZBAA 270200Z 32012MPS CAVOK M05/M25 Q1026 NOSIG
ZBAA,2025-01-27 02:30,ZBAA 270230Z 33011MPS CAVOK M04/M24 Q1027 NOSIG
ZBAA,2025-01-27 03:00,ZBAA 270300Z 32010MPS 290V350 CAVOK M04/M24 Q1026 NOSIG
ZBAA,2025-01-27 03:30,ZBAA 270330Z 32010G16MPS 290V350 CAVOK M03/M24 Q1026 NOSIG
ZBAA,2025-01-27 04:00,ZBAA 270400Z 30010MPS CAVOK M03/M24 Q1025 NOSIG
ZBAA,2025-01-27 04:30,ZBAA 270430Z 31010MPS 270V330 CAVOK M03/M23 Q1025 NOSIG
ZBAA,2025-01-27 05:00,ZBAA 270500Z 31011G16MPS CAVOK M02/M25 Q1025 NOSIG
ZBAA,2025-01-27 05:30,ZBAA 270530Z 33011G16MPS CAVOK M02/M24 Q1024 NOSIG
ZBAA,2025-01-27 06:00,ZBAA 270600Z 33012G17MPS 290V350 CAVOK M02/M25 Q1024 NOSIG
ZBAA,2025-01-27 06:30,ZBAA 270630Z 32011MPS CAVOK M01/M26 Q1024 NOSIG
ZBAA,2025-01-27 07:00,ZBAA 270700Z 32011G16MPS CAVOK M01/M26 Q1024 WS R01 NOSIG
ZBAA,2025-01-27 07:30,ZBAA 270730Z 32013MPS CAVOK M02/M26 Q1024 NOSIG
ZBAA,2025-01-27 08:00,ZBAA 270800Z 32012MPS CAVOK M02/M26 Q1024 NOSIG
ZBAA,2025-01-27 08:30,ZBAA 270830Z 32012MPS CAVOK M03/M26 Q1025 NOSIG
ZBAA,2025-01-27 09:00,ZBAA 270900Z 32011G16MPS CAVOK M03/M26 Q1025 NOSIG
ZBAA,2025-01-27 09:30,ZBAA 270930Z 32011MPS CAVOK M04/M25 Q1025 NOSIG
ZBAA,2025-01-27 10:00,ZBAA 271000Z 33012MPS CAVOK M04/M26 Q1026 NOSIG
ZBAA,2025-01-27 10:30,ZBAA 271030Z 34010MPS CAVOK M05/M26 Q1027 NOSIG
ZBAA,2025-01-27 11:00,ZBAA 271100Z 34009MPS CAVOK M05/M26 Q1027 NOSIG
ZBAA,2025-01-27 11:30,ZBAA 271130Z 34011G16MPS CAVOK M05/M25 Q1027 NOSIG
ZBAA,2025-01-27 12:00,ZBAA 271200Z 34011MPS CAVOK M06/M26 Q1028 NOSIG
ZBAA,2025-01-27 12:30,ZBAA 271230Z 34012MPS CAVOK M06/M26 Q1028 NOSIG
ZBAA,2025-01-27 13:00,ZBAA 271300Z 35010MPS CAVOK M06/M26 Q1028 NOSIG
ZBAA,2025-01-27 13:30,ZBAA 271330Z 34010MPS CAVOK M06/M26 Q1028 NOSIG
ZBAA,2025-01-27 14:00,ZBAA 271400Z 34010MPS CAVOK M07/M26 Q1028 NOSIG
ZBAA,2025-01-27 14:30,ZBAA 271430Z 34008MPS CAVOK M07/M26 Q1029 NOSIG
ZBAA,2025-01-27 15:00,ZBAA 271500Z 33009MPS CAVOK M07/M26 Q1029 NOSIG
ZBAA,2025-01-27 15:30,ZBAA 271530Z 33007MPS CAVOK M07/M26 Q1029 NOSIG
ZBAA,2025-01-27 16:00,ZBAA 271600Z 33006MPS CAVOK M08/M26 Q1029 NOSIG
ZBAA,2025-01-27 16:30,ZBAA 271630Z 33007MPS CAVOK M08/M26 Q1028 NOSIG
ZBAA,2025-01-27 17:00,ZBAA 271700Z 32008MPS CAVOK M07/M26 Q1028 NOSIG
ZBAA,2025-01-27 17:30,ZBAA 271730Z 32008MPS CAVOK M08/M26 Q1029 NOSIG
ZBAA,2025-01-27 18:00,ZBAA 271800Z 34005MPS CAVOK M09/M26 Q1029 NOSIG
ZBAA,2025-01-27 18:30,ZBAA 271830Z 32008MPS CAVOK M08/M25 Q1028 NOSIG
ZBAA,2025-01-27 19:00,ZBAA 271900Z 32008MPS CAVOK M08/M25 Q1028 NOSIG
ZBAA,2025-01-27 19:30,ZBAA 271930Z 32007MPS CAVOK M08/M26 Q1028 NOSIG
ZBAA,2025-01-27 20:00,ZBAA 272000Z 32007MPS CAVOK M08/M26 Q1028 NOSIG
ZBAA,2025-01-27 20:30,ZBAA 272030Z 32007MPS CAVOK M08/M26 Q1028 NOSIG
ZBAA,2025-01-27 21:00,ZBAA 272100Z 32006MPS CAVOK M09/M25 Q1028 NOSIG
ZBAA,2025-01-27 21:30,ZBAA 272130Z 33007MPS CAVOK M09/M25 Q1028 NOSIG
ZBAA,2025-01-27 22:00,ZBAA 272200Z 32007MPS CAVOK M08/M25 Q1028 NOSIG
ZBAA,2025-01-27 22:30,ZBAA 272230Z 32007MPS CAVOK M08/M25 Q1028 NOSIG
ZBAA,2025-01-27 23:00,ZBAA 272300Z 35005MPS CAVOK M10/M26 Q1028 NOSIG
ZBAA,2025-01-27 23:30,ZBAA 272330Z 35005MPS CAVOK M10/M25 Q1028 NOSIG
ZBAA,2025-01-28 00:00,ZBAA 280000Z 34005MPS 310V010 CAVOK M08/M24 Q1029 NOSIG
ZBAA,2025-01-28 00:30,ZBAA 280030Z 36004MPS 330V040 CAVOK M07/M24 Q1029 NOSIG
ZBAA,2025-01-28 01:00,ZBAA 280100Z 36006MPS CAVOK M06/M24 Q1029 NOSIG
ZBAA,2025-01-28 01:30,ZBAA 280130Z 36005MPS CAVOK M05/M24 Q1029 NOSIG
ZBAA,2025-01-28 02:00,ZBAA 280200Z 34007MPS 310V010 CAVOK M05/M24 Q1029 NOSIG
ZBAA,2025-01-28 02:30,ZBAA 280230Z 35006MPS CAVOK M04/M23 Q1029 NOSIG
ZBAA,2025-01-28 03:00,ZBAA 280300Z 32009MPS CAVOK M03/M24 Q1028 NOSIG
ZBAA,2025-01-28 03:30,ZBAA 280330Z 31007MPS CAVOK M03/M24 Q1028 NOSIG
ZBAA,2025-01-28 04:00,ZBAA 280400Z 32007MPS CAVOK M02/M23 Q1028 NOSIG
ZBAA,2025-01-28 04:30,ZBAA 280430Z 33005MPS 280V350 CAVOK M01/M23 Q1027 NOSIG
ZBAA,2025-01-28 05:00,ZBAA 280500Z 32006MPS 280V360 CAVOK M01/M24 Q1026 NOSIG
ZBAA,2025-01-28 05:30,ZBAA 280530Z 31005MPS 260V360 CAVOK M01/M23 Q1026 NOSIG
ZBAA,2025-01-28 05:41,ZBAA 280541Z 01004MPS 320V050 CAVOK M00/M26 Q1026 NOSIG
ZBAA,2025-01-28 06:00,ZBAA 280600Z 36003MPS 330V030 CAVOK M00/M23 Q1026 NOSIG
ZBAA,2025-01-28 06:30,ZBAA 280630Z 02002MPS 320V110 CAVOK 00/M25 Q1025 NOSIG
ZBAA,2025-01-28 07:00,ZBAA 280700Z VRB02MPS CAVOK M00/M23 Q1025 NOSIG
ZBAA,2025-01-28 07:30,ZBAA 280730Z VRB02MPS CAVOK 00/M25 Q1026 NOSIG
ZBAA,2025-01-28 08:00,ZBAA 280800Z VRB05G10MPS CAVOK 01/M24 Q1025 NOSIG
ZBAA,2025-01-28 08:30,ZBAA 280830Z 33004MPS 280V360 CAVOK 00/M24 Q1026 NOSIG
ZBAA,2025-01-28 09:00,ZBAA 280900Z 31003MPS 290V350 CAVOK M00/M22 Q1026 NOSIG
ZBAA,2025-01-28 09:30,ZBAA 280930Z 30004MPS 260V340 CAVOK M00/M21 Q1026 NOSIG
ZBAA,2025-01-28 10:00,ZBAA 281000Z 01003MPS 310V060 CAVOK M03/M22 Q1026 NOSIG
ZBAA,2025-01-28 10:30,ZBAA 281030Z VRB01MPS CAVOK M04/M23 Q1027 NOSIG
ZBAA,2025-01-28 11:00,ZBAA 281100Z VRB01MPS CAVOK M05/M23 Q1027 NOSIG
ZBAA,2025-01-28 11:30,ZBAA 281130Z 07001MPS CAVOK M07/M23 Q1027 NOSIG
ZBAA,2025-01-28 12:00,ZBAA 281200Z 17001MPS CAVOK M08/M23 Q1027 NOSIG
ZBAA,2025-01-28 12:30,ZBAA 281230Z VRB01MPS CAVOK M07/M22 Q1027 NOSIG
ZBAA,2025-01-28 13:00,ZBAA 281300Z VRB01MPS CAVOK M08/M22 Q1027 NOSIG
ZBAA,2025-01-28 13:30,ZBAA 281330Z VRB01MPS CAVOK M09/M20 Q1027 NOSIG
ZBAA,2025-01-28 14:00,ZBAA 281400Z 02001MPS CAVOK M09/M20 Q1027 NOSIG
ZBAA,2025-01-28 14:30,ZBAA 281430Z 08001MPS CAVOK M11/M20 Q1027 NOSIG
ZBAA,2025-01-28 15:00,ZBAA 281500Z VRB01MPS CAVOK M11/M20 Q1027 NOSIG
ZBAA,2025-01-28 15:30,ZBAA 281530Z 35001MPS CAVOK M12/M20 Q1027 NOSIG
ZBAA,2025-01-28 16:00,ZBAA 281600Z VRB01MPS CAVOK M12/M21 Q1027 NOSIG
ZBAA,2025-01-28 16:30,ZBAA 281630Z 35001MPS CAVOK M12/M21 Q1027 NOSIG
ZBAA,2025-01-28 17:00,ZBAA 281700Z 07001MPS CAVOK M13/M21 Q1027 NOSIG
ZBAA,2025-01-28 17:30,ZBAA 281730Z 07001MPS CAVOK M13/M20 Q1027 NOSIG
ZBAA,2025-01-28 18:00,ZBAA 281800Z VRB01MPS CAVOK M12/M20 Q1027 NOSIG
ZBAA,2025-01-28 18:30,ZBAA 281830Z 00000MPS CAVOK M13/M21 Q1027 NOSIG
ZBAA,2025-01-28 19:00,ZBAA 281900Z 04001MPS CAVOK M13/M21 Q1027 NOSIG
ZBAA,2025-01-28 19:30,ZBAA 281930Z VRB01MPS CAVOK M13/M19 Q1026 NOSIG
ZBAA,2025-01-28 20:00,ZBAA 282000Z VRB01MPS CAVOK M13/M20 Q1026 NOSIG
ZBAA,2025-01-28 20:30,ZBAA 282030Z 35001MPS CAVOK M14/M20 Q1026 NOSIG
ZBAA,2025-01-28 21:00,ZBAA 282100Z 35003MPS CAVOK M14/M20 Q1026 NOSIG
ZBAA,2025-01-28 21:30,ZBAA 282130Z 36002MPS CAVOK M12/M19 Q1026 NOSIG
ZBAA,2025-01-28 22:00,ZBAA 282200Z VRB01MPS CAVOK M14/M20 Q1026 NOSIG
ZBAA,2025-01-28 22:30,ZBAA 282230Z 35003MPS CAVOK M14/M20 Q1026 NOSIG
ZBAA,2025-01-28 23:00,ZBAA 282300Z 01002MPS CAVOK M14/M19 Q1026 NOSIG
ZBAA,2025-01-28 23:30,ZBAA 282330Z VRB01MPS CAVOK M14/M19 Q1027 NOSIG
ZBAA,2025-01-29 00:00,ZBAA 290000Z 36001MPS CAVOK M14/M19 Q1027 NOSIG
ZBAA,2025-01-29 00:30,ZBAA 290030Z 02002MPS CAVOK M11/M15 Q1027 NOSIG
ZBAA,2025-01-29 01:00,ZBAA 290100Z 03002MPS CAVOK M07/M16 Q1028 NOSIG
ZBAA,2025-01-29 01:30,ZBAA 290130Z VRB01MPS CAVOK M04/M17 Q1028 NOSIG
ZBAA,2025-01-29 02:00,ZBAA 290200Z 06002MPS 010V120 CAVOK M04/M18 Q1028 NOSIG
ZBAA,2025-01-29 02:30,ZBAA 290230Z 03002MPS 330V100 CAVOK M03/M18 Q1028 NOSIG
ZBAA,2025-01-29 03:00,ZBAA 290300Z VRB02MPS CAVOK M02/M19 Q1028 NOSIG
ZBAA,2025-01-29 03:30,ZBAA 290330Z VRB01MPS CAVOK M00/M18 Q1027 NOSIG
ZBAA,2025-01-29 04:00,ZBAA 290400Z VRB03MPS CAVOK M00/M18 Q1027 NOSIG
ZBAA,2025-01-29 04:30,ZBAA 290430Z 05002MPS 330V100 CAVOK M00/M18 Q1026 NOSIG
ZBAA,2025-01-29 05:00,ZBAA 290500Z VRB02MPS CAVOK 00/M20 Q1025 NOSIG
ZBAA,2025-01-29 05:30,ZBAA 290530Z 08002MPS 030V160 CAVOK 01/M20 Q1025 NOSIG
ZBAA,2025-01-29 06:00,ZBAA 290600Z VRB02MPS CAVOK 02/M19 Q1024 NOSIG
ZBAA,2025-01-29 06:30,ZBAA 290630Z 12002MPS 040V210 CAVOK 02/M19 Q1024 NOSIG
ZBAA,2025-01-29 07:00,ZBAA 290700Z VRB01MPS CAVOK 03/M19 Q1024 NOSIG
ZBAA,2025-01-29 07:30,ZBAA 290730Z VRB01MPS CAVOK 03/M19 Q1024 NOSIG
ZBAA,2025-01-29 08:00,ZBAA 290800Z 15002MPS 080V190 CAVOK 02/M19 Q1024 NOSIG
ZBAA,2025-01-29 08:30,ZBAA 290830Z 17002MPS 100V220 CAVOK 01/M19 Q1024 NOSIG
ZBAA,2025-01-29 09:00,ZBAA 290900Z VRB01MPS CAVOK M00/M18 Q1024 NOSIG
ZBAA,2025-01-29 09:30,ZBAA 290930Z 00000MPS CAVOK M02/M18 Q1024 NOSIG
ZBAA,2025-01-29 10:00,ZBAA 291000Z 18002MPS CAVOK M02/M18 Q1025 NOSIG
ZBAA,2025-01-29 10:30,ZBAA 291030Z 00000MPS CAVOK M04/M17 Q1025 NOSIG
ZBAA,2025-01-29 11:00,ZBAA 291100Z 06002MPS CAVOK M05/M18 Q1025 NOSIG
ZBAA,2025-01-29 11:30,ZBAA 291130Z 04001MPS CAVOK M06/M17 Q1026 NOSIG
ZBAA,2025-01-29 12:00,ZBAA 291200Z 09001MPS CAVOK M07/M18 Q1026 NOSIG
ZBAA,2025-01-29 12:30,ZBAA 291230Z VRB01MPS CAVOK M07/M18 Q1026 NOSIG
ZBAA,2025-01-29 13:00,ZBAA 291300Z 09002MPS CAVOK M08/M17 Q1027 NOSIG
ZBAA,2025-01-29 13:30,ZBAA 291330Z 09002MPS CAVOK M04/M16 Q1027 NOSIG
ZBAA,2025-01-29 14:00,ZBAA 291400Z 08002MPS CAVOK M04/M16 Q1027 NOSIG
ZBAA,2025-01-29 14:30,ZBAA 291430Z VRB01MPS CAVOK M05/M16 Q1027 NOSIG
ZBAA,2025-01-29 15:00,ZBAA 291500Z 07002MPS CAVOK M06/M16 Q1027 NOSIG
ZBAA,2025-01-29 15:30,ZBAA 291530Z 06002MPS CAVOK M06/M16 Q1028 NOSIG
ZBAA,2025-01-29 16:00,ZBAA 291600Z 05002MPS CAVOK M06/M15 Q1028 NOSIG
ZBAA,2025-01-29 16:30,ZBAA 291630Z 07001MPS CAVOK M05/M14 Q1028 NOSIG
ZBAA,2025-01-29 17:00,ZBAA 291700Z VRB01MPS CAVOK M07/M14 Q1028 NOSIG
ZBAA,2025-01-29 17:30,ZBAA 291730Z VRB01MPS CAVOK M09/M15 Q1028 NOSIG
ZBAA,2025-01-29 18:00,ZBAA 291800Z 35001MPS CAVOK M09/M15 Q1028 NOSIG
ZBAA,2025-01-29 18:30,ZBAA 291830Z VRB01MPS CAVOK M10/M17 Q1028 NOSIG
ZBAA,2025-01-29 19:00,ZBAA 291900Z VRB01MPS CAVOK M10/M18 Q1028 NOSIG
ZBAA,2025-01-29 19:30,ZBAA 291930Z 02002MPS CAVOK M10/M18 Q1028 NOSIG
ZBAA,2025-01-29 20:00,ZBAA 292000Z VRB01MPS CAVOK M11/M19 Q1028 NOSIG
ZBAA,2025-01-29 20:30,ZBAA 292030Z 36002MPS CAVOK M11/M20 Q1027 NOSIG
ZBAA,2025-01-29 21:00,ZBAA 292100Z 36002MPS CAVOK M11/M20 Q1027 NOSIG
ZBAA,2025-01-29 21:30,ZBAA 292130Z VRB01MPS CAVOK M10/M21 Q1028 NOSIG
ZBAA,2025-01-29 22:00,ZBAA 292200Z 36001MPS CAVOK M12/M21 Q1028 NOSIG
ZBAA,2025-01-29 22:30,ZBAA 292230Z 01001MPS CAVOK M11/M20 Q1028 NOSIG
ZBAA,2025-01-29 23:00,ZBAA 292300Z VRB01MPS CAVOK M11/M21 Q1028 NOSIG
ZBAA,2025-01-29 23:30,ZBAA 292330Z 01001MPS CAVOK M11/M21 Q1029 NOSIG
ZBAA,2025-01-30 00:00,ZBAA 300000Z 01002MPS CAVOK M11/M20 Q1029 NOSIG
ZBAA,2025-01-30 00:30,ZBAA 300030Z 01002MPS 9999 FEW033 M08/M17 Q1029 NOSIG
ZBAA,2025-01-30 01:00,ZBAA 300100Z 02002MPS CAVOK M06/M19 Q1029 NOSIG
ZBAA,2025-01-30 01:30,ZBAA 300130Z 36003MPS CAVOK M04/M19 Q1029 NOSIG
ZBAA,2025-01-30 02:00,ZBAA 300200Z 36003MPS 330V040 CAVOK M03/M20 Q1030 NOSIG
ZBAA,2025-01-30 02:30,ZBAA 300230Z 36002MPS CAVOK M03/M20 Q1030 NOSIG
ZBAA,2025-01-30 03:00,ZBAA 300300Z 04002MPS 360V110 CAVOK M03/M19 Q1030 NOSIG
ZBAA,2025-01-30 03:30,ZBAA 300330Z VRB01MPS CAVOK M02/M18 Q1029 NOSIG
ZBAA,2025-01-30 04:00,ZBAA 300400Z VRB01MPS CAVOK M02/M17 Q1029 NOSIG
ZBAA,2025-01-30 04:30,ZBAA 300430Z VRB02MPS 9999 FEW040 M02/M15 Q1028 NOSIG
ZBAA,2025-01-30 05:00,ZBAA 300500Z VRB02MPS CAVOK M02/M14 Q1028 NOSIG
ZBAA,2025-01-30 05:30,ZBAA 300530Z 07002MPS 020V180 CAVOK M02/M14 Q1027 NOSIG
ZBAA,2025-01-30 06:00,ZBAA 300600Z VRB01MPS CAVOK M01/M13 Q1027 NOSIG
ZBAA,2025-01-30 06:30,ZBAA 300630Z 15002MPS 100V240 CAVOK M01/M13 Q1027 NOSIG
ZBAA,2025-01-30 07:00,ZBAA 300700Z 18002MPS 150V270 CAVOK M01/M13 Q1027 NOSIG
ZBAA,2025-01-30 07:30,ZBAA 300730Z 22002MPS 140V270 CAVOK M02/M13 Q1027 NOSIG
ZBAA,2025-01-30 08:00,ZBAA 300800Z VRB02MPS CAVOK M02/M13 Q1027 NOSIG
ZBAA,2025-01-30 08:30,ZBAA 300830Z 14002MPS 110V170 CAVOK M02/M13 Q1027 NOSIG
ZBAA,2025-01-30 09:00,ZBAA 300900Z 13002MPS 060V170 CAVOK M03/M12 Q1027 NOSIG
ZBAA,2025-01-30 09:30,ZBAA 300930Z VRB01MPS CAVOK M04/M12 Q1027 NOSIG
ZBAA,2025-01-30 10:00,ZBAA 301000Z VRB01MPS CAVOK M05/M13 Q1027 NOSIG
ZBAA,2025-01-30 10:30,ZBAA 301030Z VRB01MPS CAVOK M05/M12 Q1027 NOSIG
ZBAA,2025-01-30 11:00,ZBAA 301100Z 16002MPS CAVOK M05/M12 Q1028 NOSIG
ZBAA,2025-01-30 11:30,ZBAA 301130Z 16002MPS CAVOK M05/M11 Q1028 NOSIG
ZBAA,2025-01-30 12:00,ZBAA 301200Z 19003MPS 170V230 9999 BKN040 M04/M10 Q1028 NOSIG
ZBAA,2025-01-30 12:30,ZBAA 301230Z 20003MPS 9999 BKN040 M05/M10 Q1028 NOSIG
ZBAA,2025-01-30 13:00,ZBAA 301300Z 20002MPS 170V260 CAVOK M05/M10 Q1029 NOSIG
ZBAA,2025-01-30 13:30,ZBAA 301330Z 24002MPS 170V310 CAVOK M04/M09 Q1029 NOSIG
ZBAA,2025-01-30 14:00,ZBAA 301400Z VRB01MPS 9999 FEW040 M07/M10 Q1029 NOSIG
ZBAA,2025-01-30 14:30,ZBAA 301430Z VRB01MPS 9999 SCT040 M08/M11 Q1029 NOSIG
ZBAA,2025-01-30 15:00,ZBAA 301500Z VRB01MPS 9999 BKN033 M08/M11 Q1029 NOSIG
ZBAA,2025-01-30 15:30,ZBAA 301530Z VRB01MPS 9999 OVC033 M06/M11 Q1029 NOSIG
ZBAA,2025-01-30 16:00,ZBAA 301600Z 13001MPS 9999 OVC033 M07/M10 Q1029 NOSIG
ZBAA,2025-01-30 16:30,ZBAA 301630Z VRB01MPS 9999 OVC033 M06/M10 Q1029 NOSIG
ZBAA,2025-01-30 17:00,ZBAA 301700Z 17002MPS 9999 OVC033 M05/M09 Q1029 NOSIG
ZBAA,2025-01-30 17:30,ZBAA 301730Z 13001MPS 9999 OVC033 M05/M10 Q1029 NOSIG
ZBAA,2025-01-30 18:00,ZBAA 301800Z 36001MPS 9999 OVC033 M05/M09 Q1029 NOSIG
ZBAA,2025-01-30 18:30,ZBAA 301830Z 14001MPS 9999 OVC033 M05/M09 Q1029 NOSIG
ZBAA,2025-01-30 19:00,ZBAA 301900Z 00000MPS 9999 OVC033 M05/M10 Q1029 NOSIG
ZBAA,2025-01-30 19:30,ZBAA 301930Z VRB01MPS 9999 OVC033 M05/M10 Q1029 NOSIG
ZBAA,2025-01-30 20:00,ZBAA 302000Z 03001MPS 9999 OVC033 M05/M10 Q1029 NOSIG
ZBAA,2025-01-30 20:30,ZBAA 302030Z VRB01MPS 9999 OVC033 M05/M10 Q1029 NOSIG
ZBAA,2025-01-30 21:00,ZBAA 302100Z 00000MPS 9999 OVC033 M05/M09 Q1029 NOSIG
ZBAA,2025-01-30 21:30,ZBAA 302130Z 03001MPS 9999 OVC033 M05/M09 Q1029 NOSIG
ZBAA,2025-01-30 22:00,ZBAA 302200Z 36002MPS 9999 OVC033 M05/M10 Q1029 NOSIG
ZBAA,2025-01-30 22:30,ZBAA 302230Z 01001MPS 9999 OVC033 M05/M10 Q1029 NOSIG
ZBAA,2025-01-30 23:00,ZBAA 302300Z 35002MPS 310V010 9999 OVC033 M05/M11 Q1029 NOSIG
ZBAA,2025-01-30 23:30,ZBAA 302330Z 01001MPS 9999 OVC033 M05/M11 Q1029 NOSIG
ZBAA,2025-01-31 00:00,ZBAA 310000Z 01001MPS 9999 OVC033 M05/M11 Q1030 NOSIG
ZBAA,2025-01-31 00:30,ZBAA 310030Z 35002MPS 9999 OVC033 M04/M11 Q1030 NOSIG
ZBAA,2025-01-31 01:00,ZBAA 310100Z 35002MPS 9999 OVC040 M04/M10 Q1030 NOSIG
ZBAA,2025-01-31 01:30,ZBAA 310130Z 33003MPS 300V360 9999 OVC040 M03/M10 Q1030 NOSIG
ZBAA,2025-01-31 02:00,ZBAA 310200Z 33003MPS 290V350 CAVOK M03/M10 Q1030 NOSIG
ZBAA,2025-01-31 02:30,ZBAA 310230Z 33003MPS CAVOK M03/M10 Q1030 NOSIG
ZBAA,2025-01-31 03:00,ZBAA 310300Z 32002MPS 280V350 CAVOK M02/M10 Q1030 NOSIG
ZBAA,2025-01-31 03:30,ZBAA 310330Z 33002MPS 290V020 CAVOK M01/M10 Q1030 NOSIG
ZBAA,2025-01-31 04:00,ZBAA 310400Z 31002MPS 270V350 CAVOK M00/M10 Q1030 NOSIG
ZBAA,2025-01-31 04:30,ZBAA 310430Z 26002MPS 200V320 CAVOK M00/M09 Q1029 NOSIG
ZBAA,2025-01-31 05:00,ZBAA 310500Z 32002MPS 240V010 CAVOK 01/M10 Q1029 NOSIG
ZBAA,2025-01-31 05:30,ZBAA 310530Z VRB02MPS CAVOK 01/M11 Q1028 NOSIG
ZBAA,2025-01-31 06:00,ZBAA 310600Z VRB02MPS CAVOK 01/M11 Q1028 NOSIG
ZBAA,2025-01-31 06:30,ZBAA 310630Z VRB03MPS CAVOK 01/M10 Q1028 NOSIG
ZBAA,2025-01-31 07:00,ZBAA 310700Z 24003MPS 200V280 CAVOK 01/M11 Q1028 NOSIG
ZBAA,2025-01-31 07:30,ZBAA 310730Z 16002MPS 100V230 CAVOK 01/M11 Q1028 NOSIG
ZBAA,2025-01-31 08:00,ZBAA 310800Z 21003MPS 160V240 CAVOK 00/M11 Q1028 NOSIG
ZBAA,2025-01-31 08:30,ZBAA 310830Z 15003MPS 110V190 CAVOK 00/M10 Q1028 NOSIG
ZBAA,2025-01-31 09:00,ZBAA 310900Z 15003MPS CAVOK M01/M09 Q1028 NOSIG
ZBAA,2025-01-31 09:30,ZBAA 310930Z 16003MPS CAVOK M03/M09 Q1028 NOSIG
ZBAA,2025-01-31 10:00,ZBAA 311000Z 16003MPS CAVOK M03/M09 Q1028 NOSIG
ZBAA,2025-01-31 10:30,ZBAA 311030Z 16003MPS CAVOK M04/M09 Q1029 NOSIG
ZBAA,2025-01-31 11:00,ZBAA 311100Z 16003MPS CAVOK M04/M09 Q1029 NOSIG
ZBAA,2025-01-31 11:30,ZBAA 311130Z 16002MPS CAVOK M05/M09 Q1029 NOSIG
ZBAA,2025-01-31 12:00,ZBAA 311200Z 17002MPS 130V200 CAVOK M04/M08 Q1030 NOSIG
ZBAA,2025-01-31 12:30,ZBAA 311230Z 17002MPS CAVOK M04/M09 Q1030 NOSIG
ZBAA,2025-01-31 13:00,ZBAA 311300Z 17001MPS CAVOK M05/M09 Q1030 NOSIG
ZBAA,2025-01-31 13:30,ZBAA 311330Z VRB01MPS CAVOK M06/M09 Q1030 NOSIG
ZBAA,2025-01-31 14:00,ZBAA 311400Z 00000MPS CAVOK M06/M09 Q1030 NOSIG
ZBAA,2025-01-31 14:30,ZBAA 311430Z 00000MPS CAVOK M06/M09 Q1030 NOSIG
ZBAA,2025-01-31 15:00,ZBAA 311500Z VRB01MPS CAVOK M05/M08 Q1030 NOSIG
ZBAA,2025-01-31 15:30,ZBAA 311530Z VRB01MPS CAVOK M05/M08 Q1030 NOSIG
ZBAA,2025-01-31 16:00,ZBAA 311600Z 15002MPS CAVOK M03/M08 Q1030 NOSIG
ZBAA,2025-01-31 16:30,ZBAA 311630Z 13002MPS CAVOK M03/M08 Q1030 NOSIG
ZBAA,2025-01-31 17:00,ZBAA 311700Z 15002MPS CAVOK M03/M09 Q1030 NOSIG
ZBAA,2025-01-31 17:30,ZBAA 311730Z 15002MPS 110V170 CAVOK M03/M09 Q1030 NOSIG
ZBAA,2025-01-31 18:00,ZBAA 311800Z 15002MPS CAVOK M03/M09 Q1030 NOSIG
ZBAA,2025-01-31 18:30,ZBAA 311830Z 15003MPS CAVOK M03/M09 Q1030 NOSIG
ZBAA,2025-01-31 19:00,ZBAA 311900Z 16004MPS CAVOK M03/M10 Q1030 NOSIG
ZBAA,2025-01-31 19:30,ZBAA 311930Z 15003MPS 120V180 CAVOK M03/M11 Q1029 NOSIG
ZBAA,2025-01-31 20:00,ZBAA 312000Z 14003MPS CAVOK M03/M11 Q1029 NOSIG
ZBAA,2025-01-31 20:30,ZBAA 312030Z 14003MPS CAVOK M04/M11 Q1029 NOSIG
ZBAA,2025-01-31 21:00,ZBAA 312100Z 14002MPS 110V170 CAVOK M04/M11 Q1029 NOSIG
ZBAA,2025-01-31 21:30,ZBAA 312130Z 14002MPS CAVOK M03/M10 Q1029 NOSIG
ZBAA,2025-01-31 22:00,ZBAA 312200Z 16002MPS CAVOK M04/M10 Q1029 NOSIG
ZBAA,2025-01-31 22:30,ZBAA 312230Z 14002MPS 9999 -SN NSC M04/M10 Q1028 NOSIG
ZBAA,2025-01-31 23:00,ZBAA 312300Z 14002MPS 9999 -SN NSC M04/M10 Q1029 NOSIG
ZBAA,2025-01-31 23:30,ZBAA 312330Z VRB01MPS 9999 -SN NSC M04/M10 Q1029 NOSIG
ZBAA,2025-02-01 00:00,ZBAA 010000Z 14001MPS 9999 -SN NSC M04/M10 Q1029 NOSIG
ZBAA,2025-02-01 00:30,ZBAA 010030Z VRB01MPS 9999 -SN NSC M03/M09 Q1029 NOSIG
ZBAA,2025-02-01 01:00,ZBAA 010100Z 13002MPS 9999 -SN NSC M03/M09 Q1029 NOSIG
ZBAA,2025-02-01 01:30,ZBAA 010130Z 13002MPS 090V160 9999 -SN NSC M03/M08 Q1029 NOSIG
ZBAA,2025-02-01 02:00,ZBAA 010200Z VRB01MPS 9999 -SN NSC M03/M08 Q1029 NOSIG
ZBAA,2025-02-01 02:30,ZBAA 010230Z VRB01MPS 9999 -SN NSC M03/M08 Q1029 NOSIG
ZBAA,2025-02-01 03:00,ZBAA 010300Z 24002MPS 190V290 9999 -SN NSC M03/M08 Q1029 NOSIG
ZBAA,2025-02-01 03:30,ZBAA 010330Z VRB01MPS 9999 SCT015 M02/M07 Q1028 NOSIG
ZBAA,2025-02-01 04:00,ZBAA 010400Z VRB01MPS 9999 SCT015 M02/M07 Q1028 NOSIG
ZBAA,2025-02-01 04:30,ZBAA 010430Z 21002MPS 140V310 9999 FEW015 M01/M07 Q1027 NOSIG
ZBAA,2025-02-01 05:00,ZBAA 010500Z VRB01G06MPS 9999 FEW018 M01/M07 Q1027 NOSIG
ZBAA,2025-02-01 05:30,ZBAA 010530Z 20003MPS 170V250 9999 FEW018 M01/M07 Q1026 NOSIG
ZBAA,2025-02-01 06:00,ZBAA 010600Z VRB01MPS 9999 FEW018 M01/M07 Q1026 NOSIG
ZBAA,2025-02-01 06:30,ZBAA 010630Z VRB01MPS 8000 FEW018 M01/M07 Q1025 NOSIG
ZBAA,2025-02-01 07:00,ZBAA 010700Z VRB01MPS 8000 FEW018 00/M08 Q1025 NOSIG
ZBAA,2025-02-01 07:30,ZBAA 010730Z 01003MPS 340V050 8000 FEW033 00/M07 Q1025 NOSIG
ZBAA,2025-02-01 08:00,ZBAA 010800Z 03003MPS 8000 FEW033 M00/M07 Q1024 NOSIG
ZBAA,2025-02-01 08:30,ZBAA 010830Z 03002MPS 360V070 8000 FEW033 M00/M07 Q1024 NOSIG
ZBAA,2025-02-01 09:00,ZBAA 010900Z 04003MPS 010V070 8000 FEW033 M01/M07 Q1024 NOSIG
ZBAA,2025-02-01 09:30,ZBAA 010930Z 04002MPS 8000 FEW033 M01/M07 Q1024 NOSIG
ZBAA,2025-02-01 10:00,ZBAA 011000Z 05002MPS 8000 FEW033 M01/M07 Q1024 NOSIG
ZBAA,2025-02-01 10:30,ZBAA 011030Z 06002MPS 8000 FEW033 M01/M07 Q1024 NOSIG
ZBAA,2025-02-01 11:00,ZBAA 011100Z VRB01MPS 8000 FEW033 M01/M07 Q1024 NOSIG
ZBAA,2025-02-01 11:30,ZBAA 011130Z VRB01MPS 8000 FEW033 M02/M08 Q1025 NOSIG
ZBAA,2025-02-01 12:00,ZBAA 011200Z 07001MPS 8000 FEW033 M03/M08 Q1025 NOSIG
ZBAA,2025-02-01 12:30,ZBAA 011230Z 05001MPS 8000 FEW033 M04/M08 Q1025 NOSIG
ZBAA,2025-02-01 13:00,ZBAA 011300Z 06001MPS 8000 FEW033 M03/M08 Q1025 NOSIG
ZBAA,2025-02-01 13:30,ZBAA 011330Z VRB01MPS 8000 FEW033 M03/M07 Q1025 NOSIG
ZBAA,2025-02-01 14:00,ZBAA 011400Z VRB01MPS 8000 FEW033 M02/M07 Q1025 NOSIG
ZBAA,2025-02-01 14:30,ZBAA 011430Z 06001MPS 8000 FEW033 M02/M07 Q1025 NOSIG
ZBAA,2025-02-01 15:00,ZBAA 011500Z VRB01MPS 8000 FEW033 M02/M07 Q1025 NOSIG
ZBAA,2025-02-01 15:30,ZBAA 011530Z 01002MPS 8000 FEW033 M02/M07 Q1025 NOSIG
ZBAA,2025-02-01 16:00,ZBAA 011600Z VRB01MPS 7000 FEW033 M02/M07 Q1025 NOSIG
ZBAA,2025-02-01 16:30,ZBAA 011630Z 35002MPS 7000 FEW033 M02/M07 Q1025 NOSIG
ZBAA,2025-02-01 17:00,ZBAA 011700Z 35002MPS 7000 FEW033 M02/M07 Q1025 NOSIG
ZBAA,2025-02-01 17:30,ZBAA 011730Z 36003MPS 7000 FEW026 M03/M08 Q1025 NOSIG
ZBAA,2025-02-01 18:00,ZBAA 011800Z 36003MPS 7000 FEW026 M03/M08 Q1024 NOSIG
ZBAA,2025-02-01 18:30,ZBAA 011830Z 35003MPS 7000 FEW026 M04/M09 Q1024 NOSIG
ZBAA,2025-02-01 19:00,ZBAA 011900Z 36003MPS 7000 FEW026 M06/M09 Q1024 NOSIG
ZBAA,2025-02-01 19:30,ZBAA 011930Z 35003MPS 7000 NSC M07/M10 Q1024 NOSIG
ZBAA,2025-02-01 20:00,ZBAA 012000Z 34003MPS 7000 NSC M06/M09 Q1023 NOSIG
ZBAA,2025-02-01 20:30,ZBAA 012030Z 34002MPS 7000 NSC M05/M08 Q1023 NOSIG
ZBAA,2025-02-01 21:00,ZBAA 012100Z 34003MPS 7000 NSC M05/M09 Q1023 NOSIG
ZBAA,2025-02-01 21:30,ZBAA 012130Z 35003MPS 7000 NSC M07/M10 Q1023 NOSIG
ZBAA,2025-02-01 22:00,ZBAA 012200Z 35003MPS 7000 NSC M06/M09 Q1023 NOSIG
ZBAA,2025-02-01 22:30,ZBAA 012230Z 34003MPS 7000 NSC M07/M10 Q1024 NOSIG
ZBAA,2025-02-01 23:00,ZBAA 012300Z 35002MPS 7000 NSC M07/M09 Q1024 NOSIG
ZBAA,2025-02-01 23:30,ZBAA 012330Z VRB01MPS 5000 BR NSC M08/M10 Q1024 NOSIG
ZBAA,2025-02-02 00:00,ZBAA 020000Z 00000MPS 5000 BR NSC M06/M09 Q1025 BECMG TL0140 34006MPS
ZBAA,2025-02-02 00:30,ZBAA 020030Z 35002MPS 320V020 5000 BR NSC M04/M07 Q1025 NOSIG
ZBAA,2025-02-02 01:00,ZBAA 020100Z 34003MPS 7000 NSC M01/M07 Q1025 NOSIG
ZBAA,2025-02-02 01:30,ZBAA 020130Z 36003MPS 7000 NSC 00/M08 Q1026 NOSIG
ZBAA,2025-02-02 02:00,ZBAA 020200Z 33003MPS 290V020 8000 NSC 00/M09 Q1026 NOSIG
ZBAA,2025-02-02 02:30,ZBAA 020230Z 33002MPS 290V020 CAVOK 02/M09 Q1026 NOSIG
ZBAA,2025-02-02 03:00,ZBAA 020300Z VRB01MPS CAVOK 03/M10 Q1026 BECMG TL0420 34008MPS
ZBAA,2025-02-02 03:30,ZBAA 020330Z 32004MPS 280V010 CAVOK 05/M13 Q1025 NOSIG
ZBAA,2025-02-02 04:00,ZBAA 020400Z 31007G12MPS CAVOK 05/M15 Q1025 NOSIG
ZBAA,2025-02-02 04:30,ZBAA 020430Z 33007MPS CAVOK 05/M15 Q1025 NOSIG
ZBAA,2025-02-02 05:00,ZBAA 020500Z 33007MPS 290V010 CAVOK 05/M15 Q1024 NOSIG
ZBAA,2025-02-02 05:30,ZBAA 020530Z 30007MPS 270V340 CAVOK 06/M16 Q1024 NOSIG
ZBAA,2025-02-02 06:00,ZBAA 020600Z 29008MPS CAVOK 05/M18 Q1024 NOSIG
ZBAA,2025-02-02 06:30,ZBAA 020630Z 32007MPS CAVOK 04/M18 Q1024 NOSIG
ZBAA,2025-02-02 07:00,ZBAA 020700Z 32005MPS 290V350 CAVOK 04/M19 Q1024 NOSIG
ZBAA,2025-02-02 07:30,ZBAA 020730Z 34008MPS CAVOK 05/M20 Q1025 NOSIG
ZBAA,2025-02-02 08:00,ZBAA 020800Z 34008MPS CAVOK 04/M21 Q1025 NOSIG
ZBAA,2025-02-02 08:30,ZBAA 020830Z 36008MPS CAVOK 03/M21 Q1025 NOSIG
ZBAA,2025-02-02 09:00,ZBAA 020900Z 36007MPS CAVOK 02/M21 Q1026 NOSIG
ZBAA,2025-02-02 09:30,ZBAA 020930Z 36007MPS CAVOK 01/M22 Q1026 NOSIG
ZBAA,2025-02-02 10:00,ZBAA 021000Z 36006MPS CAVOK 00/M24 Q1027 NOSIG
ZBAA,2025-02-02 10:30,ZBAA 021030Z 35006MPS CAVOK M01/M22 Q1028 NOSIG
ZBAA,2025-02-02 11:00,ZBAA 021100Z 35008MPS CAVOK M01/M22 Q1028 NOSIG
ZBAA,2025-02-02 11:30,ZBAA 021130Z 36007MPS CAVOK M02/M22 Q1029 NOSIG
ZBAA,2025-02-02 12:00,ZBAA 021200Z 34006MPS CAVOK M01/M22 Q1029 NOSIG
ZBAA,2025-02-02 12:30,ZBAA 021230Z 35007MPS CAVOK M01/M22 Q1030 NOSIG
ZBAA,2025-02-02 13:00,ZBAA 021300Z 36006MPS CAVOK M03/M22 Q1030 NOSIG
ZBAA,2025-02-02 13:30,ZBAA 021330Z 36007MPS CAVOK M03/M22 Q1031 NOSIG
ZBAA,2025-02-02 14:00,ZBAA 021400Z 35008MPS CAVOK M03/M22 Q1031 NOSIG
ZBAA,2025-02-02 14:30,ZBAA 021430Z 35008MPS CAVOK M03/M22 Q1031 NOSIG
ZBAA,2025-02-02 15:00,ZBAA 021500Z 35006MPS CAVOK M04/M21 Q1032 NOSIG
ZBAA,2025-02-02 15:30,ZBAA 021530Z 34004MPS CAVOK M04/M22 Q1032 NOSIG
ZBAA,2025-02-02 16:00,ZBAA 021600Z 33004MPS CAVOK M05/M22 Q1032 NOSIG
ZBAA,2025-02-02 16:30,ZBAA 021630Z 32005MPS CAVOK M04/M21 Q1032 NOSIG
ZBAA,2025-02-02 17:00,ZBAA 021700Z 32005MPS CAVOK M05/M21 Q1032 NOSIG
ZBAA,2025-02-02 17:30,ZBAA 021730Z 32004MPS CAVOK M05/M22 Q1031 NOSIG
ZBAA,2025-02-02 18:00,ZBAA 021800Z 33003MPS CAVOK M06/M21 Q1031 NOSIG
ZBAA,2025-02-02 18:30,ZBAA 021830Z 34002MPS 310V010 CAVOK M09/M22 Q1031 NOSIG
ZBAA,2025-02-02 19:00,ZBAA 021900Z 32005MPS CAVOK M05/M20 Q1031 NOSIG
ZBAA,2025-02-02 19:30,ZBAA 021930Z 31005MPS CAVOK M05/M20 Q1030 NOSIG
ZBAA,2025-02-02 20:00,ZBAA 022000Z 30006MPS CAVOK M05/M20 Q1030 NOSIG
ZBAA,2025-02-02 20:30,ZBAA 022030Z 33003MPS 310V020 CAVOK M06/M21 Q1030 NOSIG
ZBAA,2025-02-02 21:00,ZBAA 022100Z VRB01MPS CAVOK M09/M21 Q1029 NOSIG
ZBAA,2025-02-02 21:30,ZBAA 022130Z 11001MPS CAVOK M10/M21 Q1029 NOSIG
ZBAA,2025-02-02 22:00,ZBAA 022200Z 00000MPS CAVOK M10/M21 Q1029 NOSIG
ZBAA,2025-02-02 22:30,ZBAA 022230Z VRB01MPS CAVOK M07/M20 Q1029 NOSIG
ZBAA,2025-02-02 23:00,ZBAA 022300Z VRB01MPS CAVOK M11/M21 Q1029 NOSIG
ZBAA,2025-02-02 23:30,ZBAA 022330Z VRB01MPS CAVOK M12/M20 Q1030 NOSIG
ZBAA,2025-02-03 00:00,ZBAA 030000Z 36002MPS 270V050 CAVOK M09/M19 Q1030 NOSIG
ZBAA,2025-02-03 00:30,ZBAA 030030Z VRB01MPS CAVOK M05/M18 Q1030 NOSIG
ZBAA,2025-02-03 01:00,ZBAA 030100Z VRB01MPS CAVOK M03/M20 Q1030 NOSIG
ZBAA,2025-02-03 01:30,ZBAA 030130Z 34004MPS CAVOK M01/M20 Q1030 NOSIG
ZBAA,2025-02-03 02:00,ZBAA 030200Z 34005MPS CAVOK M01/M20 Q1030 NOSIG
ZBAA,2025-02-03 02:30,ZBAA 030230Z 32005MPS 280V350 CAVOK M01/M20 Q1030 NOSIG
ZBAA,2025-02-03 03:00,ZBAA 030300Z 31005MPS CAVOK M01/M20 Q1030 NOSIG
ZBAA,2025-02-03 03:30,ZBAA 030330Z 33005MPS 280V010 CAVOK 00/M22 Q1030 NOSIG
ZBAA,2025-02-03 04:00,ZBAA 030400Z 32006MPS 290V350 CAVOK 01/M23 Q1029 NOSIG
ZBAA,2025-02-03 04:30,ZBAA 030430Z 33006G13MPS 300V360 CAVOK 01/M23 Q1029 NOSIG
ZBAA,2025-02-03 05:00,ZBAA 030500Z 31007G12MPS 280V360 CAVOK 01/M23 Q1028 NOSIG
ZBAA,2025-02-03 05:30,ZBAA 030530Z 30006G12MPS 240V350 CAVOK 01/M23 Q1028 NOSIG
ZBAA,2025-02-03 06:00,ZBAA 030600Z 30008MPS 270V360 CAVOK 02/M23 Q1028 NOSIG
ZBAA,2025-02-03 06:01,ZBAA 030601Z 36004MPS 320V020 CAVOK 02/M23 Q1028 NOSIG
ZBAA,2025-02-03 06:05,ZBAA 030605Z 30007MPS CAVOK 02/M23 Q1028 NOSIG
ZBAA,2025-02-03 06:30,ZBAA 030630Z 32007MPS 290V350 CAVOK 02/M23 Q1027 NOSIG
ZBAA,2025-02-03 07:00,ZBAA 030700Z 30008MPS CAVOK 02/M24 Q1027 NOSIG
ZBAA,2025-02-03 07:30,ZBAA 030730Z 32008MPS CAVOK 02/M24 Q1028 NOSIG
ZBAA,2025-02-03 08:00,ZBAA 030800Z 34008MPS CAVOK 01/M23 Q1028 NOSIG
ZBAA,2025-02-03 08:30,ZBAA 030830Z 33009MPS CAVOK 01/M24 Q1028 NOSIG
ZBAA,2025-02-03 09:00,ZBAA 030900Z 34009MPS CAVOK M00/M24 Q1028 NOSIG
ZBAA,2025-02-03 09:30,ZBAA 030930Z 35007MPS CAVOK M01/M21 Q1029 NOSIG
ZBAA,2025-02-03 10:00,ZBAA 031000Z 36007MPS CAVOK M03/M21 Q1029 NOSIG
ZBAA,2025-02-03 10:30,ZBAA 031030Z 35005MPS CAVOK M03/M21 Q1030 NOSIG
ZBAA,2025-02-03 11:00,ZBAA 031100Z 01005MPS CAVOK M03/M21 Q1030 NOSIG
ZBAA,2025-02-03 11:30,ZBAA 031130Z 36006MPS CAVOK M04/M22 Q1031 NOSIG
ZBAA,2025-02-03 12:00,ZBAA 031200Z 36004MPS 340V040 CAVOK M05/M22 Q1031 NOSIG
ZBAA,2025-02-03 12:30,ZBAA 031230Z 36006MPS CAVOK M05/M22 Q1031 NOSIG
ZBAA,2025-02-03 13:00,ZBAA 031300Z 01007MPS 330V030 CAVOK M04/M22 Q1032 NOSIG
ZBAA,2025-02-03 13:30,ZBAA 031330Z 36008MPS CAVOK M05/M22 Q1032 NOSIG
ZBAA,2025-02-03 14:00,ZBAA 031400Z 35007MPS CAVOK M06/M23 Q1032 NOSIG
ZBAA,2025-02-03 14:30,ZBAA 031430Z 35007MPS CAVOK M05/M22 Q1032 NOSIG
ZBAA,2025-02-03 15:00,ZBAA 031500Z 34007MPS CAVOK M05/M22 Q1032 NOSIG
ZBAA,2025-02-03 15:30,ZBAA 031530Z 33007MPS CAVOK M05/M22 Q1032 NOSIG
ZBAA,2025-02-03 16:00,ZBAA 031600Z 34005MPS CAVOK M06/M23 Q1032 NOSIG
ZBAA,2025-02-03 16:30,ZBAA 031630Z 35004MPS CAVOK M07/M23 Q1032 NOSIG
ZBAA,2025-02-03 17:00,ZBAA 031700Z 01003MPS CAVOK M09/M23 Q1031 NOSIG
ZBAA,2025-02-03 17:30,ZBAA 031730Z 36003MPS CAVOK M09/M23 Q1031 NOSIG
ZBAA,2025-02-03 18:00,ZBAA 031800Z 36003MPS 340V040 CAVOK M09/M22 Q1031 NOSIG
ZBAA,2025-02-03 18:30,ZBAA 031830Z 33003MPS CAVOK M08/M22 Q1031 NOSIG
ZBAA,2025-02-03 19:00,ZBAA 031900Z 32004MPS CAVOK M07/M22 Q1030 NOSIG
ZBAA,2025-02-03 19:30,ZBAA 031930Z 32004MPS CAVOK M07/M22 Q1030 NOSIG
ZBAA,2025-02-03 20:00,ZBAA 032000Z 34004MPS CAVOK M08/M22 Q1029 NOSIG
ZBAA,2025-02-03 20:30,ZBAA 032030Z 33006MPS CAVOK M07/M22 Q1029 NOSIG
ZBAA,2025-02-03 21:00,ZBAA 032100Z 33006MPS CAVOK M07/M22 Q1029 NOSIG
ZBAA,2025-02-03 21:30,ZBAA 032130Z 35005MPS CAVOK M08/M22 Q1028 NOSIG
ZBAA,2025-02-03 22:00,ZBAA 032200Z 02002MPS 350V060 CAVOK M08/M22 Q1028 NOSIG
ZBAA,2025-02-03 22:30,ZBAA 032230Z 01004MPS 330V040 CAVOK M08/M22 Q1028 NOSIG
ZBAA,2025-02-03 23:00,ZBAA 032300Z 02003MPS CAVOK M08/M22 Q1028 NOSIG
ZBAA,2025-02-03 23:30,ZBAA 032330Z 34003MPS CAVOK M10/M21 Q1028 NOSIG
ZBAA,2025-02-04 00:00,ZBAA 040000Z 01003MPS CAVOK M09/M20 Q1028 NOSIG
ZBAA,2025-02-04 00:30,ZBAA 040030Z 36003MPS CAVOK M07/M20 Q1028 NOSIG
ZBAA,2025-02-04 01:00,ZBAA 040100Z 02002MPS CAVOK M06/M19 Q1028 NOSIG
ZBAA,2025-02-04 01:30,ZBAA 040130Z 03002MPS 290V070 CAVOK M06/M19 Q1028 NOSIG
ZBAA,2025-02-04 02:00,ZBAA 040200Z VRB01MPS CAVOK M05/M20 Q1028 NOSIG
ZBAA,2025-02-04 02:30,ZBAA 040230Z 04002MPS 300V100 CAVOK M04/M20 Q1027 NOSIG
ZBAA,2025-02-04 03:00,ZBAA 040300Z 29002MPS 220V350 CAVOK M03/M20 Q1027 NOSIG
ZBAA,2025-02-04 03:30,ZBAA 040330Z 29002MPS 220V360 CAVOK M03/M21 Q1026 NOSIG
ZBAA,2025-02-04 04:00,ZBAA 040400Z VRB01MPS CAVOK M01/M20 Q1025 NOSIG
ZBAA,2025-02-04 04:30,ZBAA 040430Z VRB01G08MPS CAVOK M01/M20 Q1024 NOSIG
ZBAA,2025-02-04 05:00,ZBAA 040500Z 16002MPS 070V200 CAVOK M00/M20 Q1023 NOSIG
ZBAA,2025-02-04 05:30,ZBAA 040530Z VRB01MPS CAVOK 00/M22 Q1022 NOSIG
ZBAA,2025-02-04 06:00,ZBAA 040600Z 29005MPS 260V350 CAVOK 02/M23 Q1021 NOSIG
ZBAA,2025-02-04 06:30,ZBAA 040630Z 28006G11MPS 240V320 CAVOK 02/M23 Q1021 NOSIG
ZBAA,2025-02-04 07:00,ZBAA 040700Z 30007G12MPS 270V330 CAVOK 02/M22 Q1020 NOSIG
ZBAA,2025-02-04 07:14,ZBAA 040714Z 36003MPS 290V030 CAVOK 02/M23 Q1020 NOSIG
ZBAA,2025-02-04 07:30,ZBAA 040730Z 03004MPS 350V090 CAVOK 01/M23 Q1020 NOSIG
ZBAA,2025-02-04 08:00,ZBAA 040800Z 35004MPS 320V020 CAVOK 02/M23 Q1020 NOSIG
ZBAA,2025-02-04 08:30,ZBAA 040830Z 31006MPS 280V340 CAVOK 02/M20 Q1020 NOSIG
ZBAA,2025-02-04 09:00,ZBAA 040900Z 31006MPS 280V340 CAVOK 02/M20 Q1020 NOSIG
ZBAA,2025-02-04 09:30,ZBAA 040930Z 31007MPS CAVOK 02/M19 Q1020 NOSIG
ZBAA,2025-02-04 10:00,ZBAA 041000Z 30008G13MPS 270V330 CAVOK 01/M18 Q1021 NOSIG
ZBAA,2025-02-04 10:30,ZBAA 041030Z 34005MPS CAVOK M00/M17 Q1021 NOSIG
ZBAA,2025-02-04 11:00,ZBAA 041100Z 33007MPS CAVOK 00/M21 Q1022 NOSIG
ZBAA,2025-02-04 11:30,ZBAA 041130Z 34009MPS CAVOK M01/M20 Q1023 NOSIG
ZBAA,2025-02-04 12:00,ZBAA 041200Z 36011G16MPS CAVOK M02/M22 Q1024 NOSIG
ZBAA,2025-02-04 12:30,ZBAA 041230Z 34011MPS CAVOK M03/M23 Q1025 NOSIG
ZBAA,2025-02-04 13:00,ZBAA 041300Z 34013MPS CAVOK M04/M24 Q1025 NOSIG
ZBAA,2025-02-04 13:30,ZBAA 041330Z 34012MPS CAVOK M04/M25 Q1026 NOSIG
ZBAA,2025-02-04 14:00,ZBAA 041400Z 34010MPS CAVOK M05/M25 Q1026 NOSIG
ZBAA,2025-02-04 14:30,ZBAA 041430Z 35011G16MPS CAVOK M05/M24 Q1026 NOSIG
ZBAA,2025-02-04 15:00,ZBAA 041500Z 35009MPS CAVOK M05/M25 Q1026 NOSIG
ZBAA,2025-02-04 15:30,ZBAA 041530Z 35009G15MPS CAVOK M06/M24 Q1026 NOSIG
ZBAA,2025-02-04 16:00,ZBAA 041600Z 35009MPS CAVOK M06/M24 Q1026 NOSIG
ZBAA,2025-02-04 16:30,ZBAA 041630Z 36007MPS CAVOK M06/M24 Q1026 NOSIG
ZBAA,2025-02-04 17:00,ZBAA 041700Z 35009MPS CAVOK M06/M25 Q1026 NOSIG
ZBAA,2025-02-04 17:30,ZBAA 041730Z 35007MPS CAVOK M07/M24 Q1026 NOSIG
ZBAA,2025-02-04 18:00,ZBAA 041800Z 35008MPS CAVOK M07/M24 Q1026 NOSIG
ZBAA,2025-02-04 18:30,ZBAA 041830Z 35009MPS CAVOK M07/M24 Q1026 NOSIG
ZBAA,2025-02-04 19:00,ZBAA 041900Z 35009MPS CAVOK M07/M25 Q1026 NOSIG
ZBAA,2025-02-04 19:30,ZBAA 041930Z 34010MPS CAVOK M07/M25 Q1025 NOSIG
ZBAA,2025-02-04 20:00,ZBAA 042000Z 34008MPS CAVOK M08/M25 Q1025 NOSIG
ZBAA,2025-02-04 20:30,ZBAA 042030Z 33007MPS CAVOK M08/M25 Q1025 NOSIG
ZBAA,2025-02-04 21:00,ZBAA 042100Z 33005MPS CAVOK M08/M25 Q1025 NOSIG
ZBAA,2025-02-04 21:30,ZBAA 042130Z 32003MPS CAVOK M09/M25 Q1025 NOSIG
ZBAA,2025-02-04 22:00,ZBAA 042200Z 32003MPS 300V360 CAVOK M10/M25 Q1025 NOSIG
ZBAA,2025-02-04 22:30,ZBAA 042230Z 36002MPS 260V040 CAVOK M12/M25 Q1026 NOSIG
ZBAA,2025-02-04 23:00,ZBAA 042300Z 01002MPS 270V040 CAVOK M10/M24 Q1026 NOSIG
ZBAA,2025-02-04 23:30,ZBAA 042330Z VRB01MPS CAVOK M13/M25 Q1026 NOSIG
ZBAA,2025-02-05 00:00,ZBAA 050000Z VRB01MPS CAVOK M11/M23 Q1026 BECMG TL0140 31006MPS
ZBAA,2025-02-05 00:30,ZBAA 050030Z VRB01MPS CAVOK M07/M22 Q1027 NOSIG
ZBAA,2025-02-05 01:00,ZBAA 050100Z 36002MPS CAVOK M05/M23 Q1027 NOSIG
ZBAA,2025-02-05 01:30,ZBAA 050130Z 30002MPS 250V360 CAVOK M06/M24 Q1026 NOSIG
ZBAA,2025-02-05 02:00,ZBAA 050200Z 35003MPS 290V030 CAVOK M05/M24 Q1026 NOSIG
ZBAA,2025-02-05 02:30,ZBAA 050230Z 32003MPS 270V010 CAVOK M04/M24 Q1026 NOSIG
ZBAA,2025-02-05 03:00,ZBAA 050300Z 32003MPS 260V360 CAVOK M03/M24 Q1026 NOSIG
ZBAA,2025-02-05 03:30,ZBAA 050330Z 32004MPS 250V020 CAVOK M02/M24 Q1025 NOSIG
ZBAA,2025-02-05 04:00,ZBAA 050400Z 31008G13MPS 270V340 CAVOK M02/M25 Q1024 NOSIG
ZBAA,2025-02-05 04:30,ZBAA 050430Z 30008MPS CAVOK M02/M25 Q1023 NOSIG
ZBAA,2025-02-05 05:00,ZBAA 050500Z 29007G12MPS 260V340 CAVOK M01/M26 Q1023 NOSIG
ZBAA,2025-02-05 05:30,ZBAA 050530Z 29009MPS CAVOK M01/M25 Q1022 NOSIG
ZBAA,2025-02-05 06:00,ZBAA 050600Z 28010MPS CAVOK M00/M26 Q1022 NOSIG
ZBAA,2025-02-05 06:30,ZBAA 050630Z 31008MPS 270V340 CAVOK 00/M29 Q1021 NOSIG
ZBAA,2025-02-05 07:00,ZBAA 050700Z 30010MPS CAVOK 01/M29 Q1021 BECMG TL0850 23005MPS
ZBAA,2025-02-05 07:30,ZBAA 050730Z 30009G14MPS CAVOK 01/M29 Q1021 NOSIG
ZBAA,2025-02-05 08:00,ZBAA 050800Z 29008G14MPS CAVOK 01/M29 Q1020 NOSIG
ZBAA,2025-02-05 08:30,ZBAA 050830Z 28008MPS CAVOK 01/M28 Q1020 NOSIG
ZBAA,2025-02-05 08:40,ZBAA 050840Z 20004MPS 170V230 CAVOK 01/M28 Q1020 NOSIG
ZBAA,2025-02-05 09:00,ZBAA 050900Z 22005MPS 180V250 CAVOK M00/M24 Q1020 NOSIG
ZBAA,2025-02-05 09:30,ZBAA 050930Z 22004G09MPS 170V260 CAVOK M01/M24 Q1020 NOSIG
ZBAA,2025-02-05 10:00,ZBAA 051000Z 21004MPS 170V230 CAVOK M02/M24 Q1020 NOSIG
ZBAA,2025-02-05 10:30,ZBAA 051030Z 19005MPS CAVOK M02/M24 Q1020 NOSIG
ZBAA,2025-02-05 11:00,ZBAA 051100Z 20005MPS 160V240 CAVOK M02/M24 Q1020 NOSIG
ZBAA,2025-02-05 11:30,ZBAA 051130Z 19004MPS 170V230 CAVOK M02/M24 Q1020 NOSIG
ZBAA,2025-02-05 12:00,ZBAA 051200Z 20004MPS 180V240 CAVOK M02/M24 Q1020 NOSIG
ZBAA,2025-02-05 12:30,ZBAA 051230Z 19005MPS CAVOK M03/M24 Q1020 NOSIG
ZBAA,2025-02-05 13:00,ZBAA 051300Z 19005MPS 160V240 CAVOK M02/M23 Q1020 BECMG TL1450 29003MPS
ZBAA,2025-02-05 13:30,ZBAA 051330Z 20005MPS 180V250 CAVOK M03/M24 Q1020 NOSIG
ZBAA,2025-02-05 14:00,ZBAA 051400Z 21006MPS 180V240 CAVOK M02/M23 Q1020 BECMG TL1550 29003MPS
ZBAA,2025-02-05 14:30,ZBAA 051430Z VRB03MPS CAVOK M02/M23 Q1020 NOSIG
ZBAA,2025-02-05 15:00,ZBAA 051500Z 24003MPS 170V310 CAVOK M02/M23 Q1020 NOSIG
ZBAA,2025-02-05 15:30,ZBAA 051530Z 27003MPS 220V310 CAVOK M02/M22 Q1020 NOSIG
ZBAA,2025-02-05 16:00,ZBAA 051600Z 26004MPS CAVOK M01/M19 Q1020 NOSIG
ZBAA,2025-02-05 16:30,ZBAA 051630Z 22003MPS CAVOK M03/M18 Q1020 NOSIG
ZBAA,2025-02-05 17:00,ZBAA 051700Z 04003MPS 360V070 CAVOK M04/M21 Q1021 NOSIG
ZBAA,2025-02-05 17:30,ZBAA 051730Z VRB01MPS CAVOK M04/M21 Q1021 NOSIG
ZBAA,2025-02-05 18:00,ZBAA 051800Z VRB01MPS CAVOK M06/M22 Q1020 NOSIG
ZBAA,2025-02-05 18:30,ZBAA 051830Z 26001MPS CAVOK M09/M22 Q1020 NOSIG
ZBAA,2025-02-05 19:00,ZBAA 051900Z 25003MPS CAVOK M09/M20 Q1020 NOSIG
ZBAA,2025-02-05 19:30,ZBAA 051930Z 26004MPS CAVOK M03/M18 Q1020 NOSIG
ZBAA,2025-02-05 20:00,ZBAA 052000Z 24003MPS CAVOK M03/M19 Q1020 NOSIG
ZBAA,2025-02-05 20:30,ZBAA 052030Z 25003MPS 210V270 CAVOK M03/M18 Q1020 NOSIG
ZBAA,2025-02-05 21:00,ZBAA 052100Z 27003MPS CAVOK M03/M18 Q1020 NOSIG
ZBAA,2025-02-05 21:30,ZBAA 052130Z 31002MPS CAVOK M04/M18 Q1021 NOSIG
ZBAA,2025-02-05 22:00,ZBAA 052200Z 30004MPS 270V330 CAVOK M03/M17 Q1021 NOSIG
ZBAA,2025-02-05 22:30,ZBAA 052230Z 01002MPS CAVOK M05/M17 Q1021 NOSIG
ZBAA,2025-02-05 23:00,ZBAA 052300Z 06002MPS CAVOK M08/M19 Q1022 NOSIG
ZBAA,2025-02-05 23:30,ZBAA 052330Z 07002MPS CAVOK M10/M18 Q1022 NOSIG
ZBAA,2025-02-06 00:00,ZBAA 060000Z 06002MPS CAVOK M09/M17 Q1022 NOSIG
ZBAA,2025-02-06 00:30,ZBAA 060030Z 01002MPS CAVOK M04/M16 Q1023 NOSIG
ZBAA,2025-02-06 01:00,ZBAA 060100Z 35003MPS CAVOK M02/M17 Q1023 BECMG TL0250 34008MPS
ZBAA,2025-02-06 01:30,ZBAA 060130Z 34004MPS 290V360 CAVOK M00/M18 Q1023 NOSIG
ZBAA,2025-02-06 02:00,ZBAA 060200Z 35008MPS CAVOK 01/M21 Q1022 NOSIG
ZBAA,2025-02-06 02:30,ZBAA 060230Z 34005MPS 300V010 CAVOK 01/M21 Q1022 NOSIG
ZBAA,2025-02-06 03:00,ZBAA 060300Z 35007MPS CAVOK 02/M23 Q1022 BECMG TL0450 33012MPS
ZBAA,2025-02-06 03:30,ZBAA 060330Z 35007MPS CAVOK 02/M22 Q1022 NOSIG
ZBAA,2025-02-06 04:00,ZBAA 060400Z 35007MPS 320V020 CAVOK 01/M23 Q1022 BECMG TL0540 33012G18MPS
ZBAA,2025-02-06 04:30,ZBAA 060430Z 34006G12MPS 310V010 CAVOK M00/M19 Q1022 NOSIG
ZBAA,2025-02-06 05:00,ZBAA 060500Z 36007MPS CAVOK M01/M18 Q1022 BECMG TL0640 33012G18MPS
ZBAA,2025-02-06 05:30,ZBAA 060530Z 35008MPS 330V030 CAVOK M01/M19 Q1022 NOSIG
ZBAA,2025-02-06 06:00,ZBAA 060600Z 34008G13MPS CAVOK M01/M20 Q1023 NOSIG
ZBAA,2025-02-06 06:30,ZBAA 060630Z 33007MPS CAVOK M01/M21 Q1024 NOSIG
ZBAA,2025-02-06 07:00,ZBAA 060700Z 34009G14MPS CAVOK M01/M22 Q1024 NOSIG
ZBAA,2025-02-06 07:30,ZBAA 060730Z 35010MPS CAVOK M02/M22 Q1024 NOSIG
ZBAA,2025-02-06 08:00,ZBAA 060800Z 34011MPS 310V010 CAVOK M02/M21 Q1025 NOSIG
ZBAA,2025-02-06 08:30,ZBAA 060830Z 34013MPS CAVOK M03/M23 Q1026 NOSIG
ZBAA,2025-02-06 09:00,ZBAA 060900Z 34012MPS CAVOK M04/M26 Q1027 NOSIG
ZBAA,2025-02-06 09:30,ZBAA 060930Z 33010MPS CAVOK M05/M26 Q1028 NOSIG
ZBAA,2025-02-06 10:00,ZBAA 061000Z 35012G17MPS CAVOK M06/M28 Q1030 NOSIG
ZBAA,2025-02-06 10:30,ZBAA 061030Z 34013MPS CAVOK M07/M30 Q1031 NOSIG
ZBAA,2025-02-06 11:00,ZBAA 061100Z 34009MPS CAVOK M08/M30 Q1032 NOSIG
ZBAA,2025-02-06 11:30,ZBAA 061130Z 33010G17MPS CAVOK M08/M31 Q1033 NOSIG
ZBAA,2025-02-06 11:48,ZBAA 061148Z 32015MPS CAVOK M09/M31 Q1034 NOSIG
ZBAA,2025-02-06 12:00,ZBAA 061200Z 32014G19MPS CAVOK M09/M32 Q1034 NOSIG
ZBAA,2025-02-06 12:30,ZBAA 061230Z 33013G18MPS CAVOK M09/M33 Q1034 NOSIG
ZBAA,2025-02-06 13:00,ZBAA 061300Z 32014MPS CAVOK M10/M33 Q1035 NOSIG
ZBAA,2025-02-06 13:30,ZBAA 061330Z 32011MPS CAVOK M10/M30 Q1036 NOSIG
ZBAA,2025-02-06 14:00,ZBAA 061400Z 32008G13MPS CAVOK M10/M31 Q1036 NOSIG
ZBAA,2025-02-06 14:30,ZBAA 061430Z 32011MPS CAVOK M10/M32 Q1036 NOSIG
ZBAA,2025-02-06 15:00,ZBAA 061500Z 31011MPS CAVOK M11/M31 Q1037 NOSIG
ZBAA,2025-02-06 15:30,ZBAA 061530Z 31009MPS CAVOK M11/M30 Q1037 NOSIG
ZBAA,2025-02-06 16:00,ZBAA 061600Z 31010MPS CAVOK M11/M30 Q1037 NOSIG
ZBAA,2025-02-06 16:30,ZBAA 061630Z 31008MPS CAVOK M11/M30 Q1038 NOSIG
ZBAA,2025-02-06 17:00,ZBAA 061700Z 32007MPS CAVOK M12/M30 Q1038 NOSIG
ZBAA,2025-02-06 17:30,ZBAA 061730Z 32007MPS CAVOK M12/M30 Q1038 NOSIG
ZBAA,2025-02-06 18:00,ZBAA 061800Z 31009MPS CAVOK M12/M30 Q1038 NOSIG
ZBAA,2025-02-06 18:30,ZBAA 061830Z 32011G16MPS CAVOK M12/M31 Q1038 NOSIG
ZBAA,2025-02-06 19:00,ZBAA 061900Z 32012MPS CAVOK M12/M31 Q1037 NOSIG
ZBAA,2025-02-06 19:30,ZBAA 061930Z 33013G18MPS CAVOK M12/M31 Q1037 NOSIG
ZBAA,2025-02-06 20:00,ZBAA 062000Z 33011G16MPS CAVOK M12/M31 Q1038 NOSIG
ZBAA,2025-02-06 20:30,ZBAA 062030Z 32012G18MPS CAVOK M12/M31 Q1038 NOSIG
ZBAA,2025-02-06 21:00,ZBAA 062100Z 33012G19MPS CAVOK M12/M31 Q1038 NOSIG
ZBAA,2025-02-06 21:30,ZBAA 062130Z 33011G16MPS CAVOK M12/M31 Q1038 NOSIG
ZBAA,2025-02-06 22:00,ZBAA 062200Z 33010MPS CAVOK M12/M31 Q1038 NOSIG
ZBAA,2025-02-06 22:30,ZBAA 062230Z 32011MPS CAVOK M12/M31 Q1038 NOSIG
ZBAA,2025-02-06 23:00,ZBAA 062300Z 32012G17MPS CAVOK M12/M31 Q1038 NOSIG
ZBAA,2025-02-06 23:30,ZBAA 062330Z 33011G17MPS CAVOK M12/M31 Q1038 NOSIG
ZBAA,2025-02-07 00:00,ZBAA 070000Z 33012MPS CAVOK M12/M31 Q1039 NOSIG
ZBAA,2025-02-07 00:30,ZBAA 070030Z 33010G16MPS CAVOK M11/M32 Q1039 NOSIG
ZBAA,2025-02-07 01:00,ZBAA 070100Z 31011G17MPS CAVOK M10/M30 Q1039 NOSIG
ZBAA,2025-02-07 01:30,ZBAA 070130Z 31010MPS CAVOK M10/M30 Q1040 NOSIG
ZBAA,2025-02-07 02:00,ZBAA 070200Z 32010G15MPS CAVOK M09/M30 Q1040 NOSIG
ZBAA,2025-02-07 02:30,ZBAA 070230Z 32009MPS 290V350 CAVOK M08/M30 Q1040 NOSIG
ZBAA,2025-02-07 03:00,ZBAA 070300Z 31009MPS CAVOK M08/M30 Q1040 NOSIG
ZBAA,2025-02-07 03:30,ZBAA 070330Z 31009MPS CAVOK M07/M29 Q1040 NOSIG
ZBAA,2025-02-07 04:00,ZBAA 070400Z 30011MPS CAVOK M07/M29 Q1039 NOSIG
ZBAA,2025-02-07 04:30,ZBAA 070430Z 30011MPS CAVOK M06/M28 Q1039 NOSIG
ZBAA,2025-02-07 05:00,ZBAA 070500Z 31010MPS CAVOK M05/M28 Q1038 NOSIG
ZBAA,2025-02-07 05:30,ZBAA 070530Z 31010MPS 280V340 CAVOK M05/M28 Q1038 NOSIG
ZBAA,2025-02-07 06:00,ZBAA 070600Z 32013G18MPS CAVOK M04/M28 Q1037 NOSIG
ZBAA,2025-02-07 06:30,ZBAA 070630Z 33011MPS CAVOK M04/M27 Q1037 NOSIG
ZBAA,2025-02-07 07:00,ZBAA 070700Z 33011G17MPS CAVOK M04/M27 Q1037 NOSIG
ZBAA,2025-02-07 07:30,ZBAA 070730Z 33013MPS CAVOK M04/M27 Q1037 NOSIG
ZBAA,2025-02-07 08:00,ZBAA 070800Z 33014MPS CAVOK M04/M27 Q1037 NOSIG
ZBAA,2025-02-07 08:30,ZBAA 070830Z 33013G18MPS CAVOK M04/M27 Q1037 NOSIG
ZBAA,2025-02-07 09:00,ZBAA 070900Z 33014G19MPS CAVOK M05/M27 Q1037 BECMG TL1040 33009MPS
ZBAA,2025-02-07 09:30,ZBAA 070930Z 33013MPS CAVOK M06/M27 Q1038 NOSIG
ZBAA,2025-02-07 10:00,ZBAA 071000Z 33011MPS CAVOK M06/M27 Q1038 NOSIG
ZBAA,2025-02-07 10:30,ZBAA 071030Z 33010MPS CAVOK M07/M27 Q1039 NOSIG
ZBAA,2025-02-07 11:00,ZBAA 071100Z 33010G15MPS CAVOK M07/M27 Q1039 NOSIG
ZBAA,2025-02-07 11:30,ZBAA 071130Z 33009MPS CAVOK M07/M27 Q1040 NOSIG
ZBAA,2025-02-07 12:00,ZBAA 071200Z 32010MPS CAVOK M08/M27 Q1040 NOSIG
ZBAA,2025-02-07 12:30,ZBAA 071230Z 32009MPS CAVOK M08/M27 Q1040 NOSIG
ZBAA,2025-02-07 13:00,ZBAA 071300Z 32009MPS CAVOK M08/M27 Q1041 NOSIG
ZBAA,2025-02-07 13:30,ZBAA 071330Z 32008MPS CAVOK M09/M27 Q1041 NOSIG
ZBAA,2025-02-07 14:00,ZBAA 071400Z 33010MPS CAVOK M09/M27 Q1041 NOSIG
ZBAA,2025-02-07 14:30,ZBAA 071430Z 32009MPS CAVOK M09/M27 Q1041 NOSIG
ZBAA,2025-02-07 15:00,ZBAA 071500Z 32009MPS CAVOK M08/M27 Q1040 NOSIG
ZBAA,2025-02-07 15:30,ZBAA 071530Z 31006MPS CAVOK M09/M27 Q1040 NOSIG
ZBAA,2025-02-07 16:00,ZBAA 071600Z 32007MPS CAVOK M09/M27 Q1040 NOSIG
ZBAA,2025-02-07 16:30,ZBAA 071630Z 32007MPS CAVOK M09/M27 Q1040 NOSIG
ZBAA,2025-02-07 17:00,ZBAA 071700Z 33007MPS CAVOK M09/M27 Q1040 NOSIG
ZBAA,2025-02-07 17:30,ZBAA 071730Z 32007MPS CAVOK M09/M27 Q1039 NOSIG
ZBAA,2025-02-07 18:00,ZBAA 071800Z 32006MPS CAVOK M09/M27 Q1040 NOSIG
ZBAA,2025-02-07 18:30,ZBAA 071830Z 32006MPS CAVOK M09/M27 Q1040 NOSIG
ZBAA,2025-02-07 19:00,ZBAA 071900Z 32005MPS CAVOK M09/M27 Q1040 NOSIG
ZBAA,2025-02-07 19:30,ZBAA 071930Z 32005MPS CAVOK M09/M27 Q1040 NOSIG
ZBAA,2025-02-07 20:00,ZBAA 072000Z 32005MPS CAVOK M10/M27 Q1040 NOSIG
ZBAA,2025-02-07 20:30,ZBAA 072030Z 32005MPS CAVOK M10/M27 Q1040 NOSIG
ZBAA,2025-02-07 21:00,ZBAA 072100Z 32005MPS CAVOK M10/M26 Q1040 NOSIG
ZBAA,2025-02-07 21:30,ZBAA 072130Z 32006MPS CAVOK M10/M27 Q1040 NOSIG
ZBAA,2025-02-07 22:00,ZBAA 072200Z 33006MPS CAVOK M09/M27 Q1040 NOSIG
ZBAA,2025-02-07 22:30,ZBAA 072230Z 33006MPS CAVOK M09/M26 Q1040 NOSIG
ZBAA,2025-02-07 23:00,ZBAA 072300Z 33006MPS CAVOK M10/M27 Q1040 NOSIG
ZBAA,2025-02-07 23:30,ZBAA 072330Z 33007MPS CAVOK M09/M27 Q1040 NOSIG
ZBAA,2025-02-08 00:00,ZBAA 080000Z 33007MPS CAVOK M08/M26 Q1040 NOSIG
ZBAA,2025-02-08 00:30,ZBAA 080030Z 33007MPS CAVOK M08/M26 Q1040 NOSIG
ZBAA,2025-02-08 01:00,ZBAA 080100Z 33007MPS CAVOK M07/M26 Q1040 NOSIG
ZBAA,2025-02-08 01:30,ZBAA 080130Z 32007MPS CAVOK M06/M26 Q1040 NOSIG
ZBAA,2025-02-08 02:00,ZBAA 080200Z 34006MPS 320V020 CAVOK M05/M26 Q1040 NOSIG
ZBAA,2025-02-08 02:30,ZBAA 080230Z 32006MPS CAVOK M05/M26 Q1039 NOSIG
ZBAA,2025-02-08 03:00,ZBAA 080300Z 34005MPS 300V010 CAVOK M03/M26 Q1039 NOSIG
ZBAA,2025-02-08 03:30,ZBAA 080330Z 34005MPS 280V010 CAVOK M03/M26 Q1038 NOSIG
ZBAA,2025-02-08 04:00,ZBAA 080400Z 35005MPS 300V020 CAVOK M02/M26 Q1038 NOSIG
ZBAA,2025-02-08 04:30,ZBAA 080430Z 33005MPS 290V360 CAVOK M01/M26 Q1037 NOSIG
ZBAA,2025-02-08 05:00,ZBAA 080500Z 31004G09MPS 270V350 CAVOK M01/M26 Q1036 NOSIG
ZBAA,2025-02-08 05:30,ZBAA 080530Z 30005G11MPS 260V340 CAVOK M02/M26 Q1036 NOSIG
ZBAA,2025-02-08 06:00,ZBAA 080600Z 28005MPS 250V320 CAVOK M01/M25 Q1035 BECMG TL0740 35004MPS
ZBAA,2025-02-08 06:30,ZBAA 080630Z 29006MPS 260V040 CAVOK M01/M26 Q1035 NOSIG
ZBAA,2025-02-08 07:00,ZBAA 080700Z 30005G11MPS CAVOK M00/M26 Q1034 NOSIG
ZBAA,2025-02-08 07:30,ZBAA 080730Z 32005MPS 250V360 CAVOK 00/M29 Q1034 NOSIG
ZBAA,2025-02-08 08:00,ZBAA 080800Z 31006MPS CAVOK M00/M27 Q1034 NOSIG
ZBAA,2025-02-08 08:30,ZBAA 080830Z 30006G11MPS 270V330 CAVOK M00/M27 Q1034 NOSIG
ZBAA,2025-02-08 09:00,ZBAA 080900Z 29006G13MPS CAVOK M01/M26 Q1033 NOSIG
ZBAA,2025-02-08 09:30,ZBAA 080930Z 29006MPS 270V330 CAVOK M01/M27 Q1034 NOSIG
ZBAA,2025-02-08 10:00,ZBAA 081000Z 29005MPS CAVOK M02/M26 Q1034 NOSIG
ZBAA,2025-02-08 10:30,ZBAA 081030Z 29005MPS CAVOK M02/M26 Q1034 NOSIG
ZBAA,2025-02-08 11:00,ZBAA 081100Z 29005MPS 270V340 CAVOK M02/M27 Q1034 NOSIG
ZBAA,2025-02-08 11:30,ZBAA 081130Z 30005MPS CAVOK M03/M27 Q1034 NOSIG
ZBAA,2025-02-08 12:00,ZBAA 081200Z 30006MPS CAVOK M03/M27 Q1034 NOSIG
ZBAA,2025-02-08 12:30,ZBAA 081230Z 31004MPS CAVOK M03/M26 Q1034 NOSIG
ZBAA,2025-02-08 13:00,ZBAA 081300Z 31006MPS CAVOK M03/M26 Q1034 NOSIG
ZBAA,2025-02-08 13:30,ZBAA 081330Z 33005MPS CAVOK M04/M26 Q1034 NOSIG
ZBAA,2025-02-08 14:00,ZBAA 081400Z 31005MPS CAVOK M04/M26 Q1035 NOSIG
ZBAA,2025-02-08 14:30,ZBAA 081430Z 32005MPS CAVOK M04/M26 Q1034 NOSIG
ZBAA,2025-02-08 15:00,ZBAA 081500Z 01002MPS CAVOK M09/M27 Q1034 NOSIG
ZBAA,2025-02-08 15:30,ZBAA 081530Z 35003MPS CAVOK M07/M26 Q1034 NOSIG
ZBAA,2025-02-08 16:00,ZBAA 081600Z 34003MPS CAVOK M09/M26 Q1034 NOSIG
ZBAA,2025-02-08 16:30,ZBAA 081630Z 36003MPS CAVOK M09/M26 Q1034 NOSIG
ZBAA,2025-02-08 17:00,ZBAA 081700Z 02002MPS CAVOK M13/M26 Q1034 NOSIG
ZBAA,2025-02-08 17:30,ZBAA 081730Z 02003MPS CAVOK M10/M24 Q1034 NOSIG
ZBAA,2025-02-08 18:00,ZBAA 081800Z 02002MPS CAVOK M10/M24 Q1033 NOSIG
ZBAA,2025-02-08 18:30,ZBAA 081830Z 02002MPS CAVOK M09/M24 Q1033 NOSIG
ZBAA,2025-02-08 19:00,ZBAA 081900Z 04002MPS 350V080 CAVOK M09/M24 Q1033 NOSIG
ZBAA,2025-02-08 19:30,ZBAA 081930Z 03003MPS 360V060 CAVOK M08/M23 Q1032 NOSIG
ZBAA,2025-02-08 20:00,ZBAA 082000Z 03003MPS 360V060 CAVOK M08/M23 Q1032 NOSIG
ZBAA,2025-02-08 20:30,ZBAA 082030Z 03004MPS 360V060 CAVOK M08/M24 Q1032 NOSIG
ZBAA,2025-02-08 21:00,ZBAA 082100Z 03003MPS 360V060 CAVOK M09/M24 Q1033 NOSIG
ZBAA,2025-02-08 21:30,ZBAA 082130Z 03003MPS CAVOK M08/M24 Q1032 NOSIG
ZBAA,2025-02-08 22:00,ZBAA 082200Z 02003MPS 350V050 CAVOK M09/M25 Q1032 NOSIG
ZBAA,2025-02-08 22:30,ZBAA 082230Z 02003MPS CAVOK M09/M25 Q1032 NOSIG
ZBAA,2025-02-08 23:00,ZBAA 082300Z 02004MPS CAVOK M09/M25 Q1032 NOSIG
ZBAA,2025-02-08 23:30,ZBAA 082330Z 02004MPS CAVOK M09/M25 Q1032 NOSIG
ZBAA,2025-02-09 00:00,ZBAA 090000Z 02003MPS 350V050 CAVOK M08/M25 Q1032 NOSIG
ZBAA,2025-02-09 00:30,ZBAA 090030Z 02003MPS CAVOK M07/M24 Q1032 NOSIG
ZBAA,2025-02-09 01:00,ZBAA 090100Z VRB01MPS CAVOK M06/M23 Q1032 NOSIG
ZBAA,2025-02-09 01:30,ZBAA 090130Z 01005MPS CAVOK M06/M24 Q1032 NOSIG
ZBAA,2025-02-09 02:00,ZBAA 090200Z 01003MPS 340V040 CAVOK M04/M23 Q1032 NOSIG
ZBAA,2025-02-09 02:30,ZBAA 090230Z 02002MPS 330V080 CAVOK M03/M23 Q1032 NOSIG
ZBAA,2025-02-09 03:00,ZBAA 090300Z VRB02MPS CAVOK M03/M22 Q1032 NOSIG
ZBAA,2025-02-09 03:30,ZBAA 090330Z 33003MPS 290V360 CAVOK M01/M22 Q1031 NOSIG
ZBAA,2025-02-09 04:00,ZBAA 090400Z VRB02MPS CAVOK M02/M22 Q1030 NOSIG
ZBAA,2025-02-09 04:30,ZBAA 090430Z 27002MPS 180V340 CAVOK M01/M22 Q1029 NOSIG
ZBAA,2025-02-09 05:00,ZBAA 090500Z VRB01MPS CAVOK M00/M22 Q1029 NOSIG
ZBAA,2025-02-09 05:30,ZBAA 090530Z 28002MPS 230V330 CAVOK 00/M24 Q1028 NOSIG
ZBAA,2025-02-09 06:00,ZBAA 090600Z VRB01MPS CAVOK 01/M24 Q1028 NOSIG
ZBAA,2025-02-09 06:30,ZBAA 090630Z 19002MPS 140V260 CAVOK 01/M24 Q1027 NOSIG
ZBAA,2025-02-09 07:00,ZBAA 090700Z VRB02MPS CAVOK 01/M24 Q1026 NOSIG
ZBAA,2025-02-09 07:30,ZBAA 090730Z 20002MPS 140V290 CAVOK 01/M23 Q1026 NOSIG
ZBAA,2025-02-09 08:00,ZBAA 090800Z 21003MPS 160V250 CAVOK 01/M24 Q1026 NOSIG
ZBAA,2025-02-09 08:30,ZBAA 090830Z 20003MPS 170V260 CAVOK 01/M24 Q1026 NOSIG
ZBAA,2025-02-09 09:00,ZBAA 090900Z 20004MPS 170V230 CAVOK 01/M24 Q1026 NOSIG
ZBAA,2025-02-09 09:30,ZBAA 090930Z 19004MPS CAVOK M00/M22 Q1026 NOSIG
ZBAA,2025-02-09 10:00,ZBAA 091000Z 19003MPS 170V230 CAVOK M01/M22 Q1026 NOSIG
ZBAA,2025-02-09 10:30,ZBAA 091030Z 19003MPS CAVOK M01/M22 Q1026 NOSIG
ZBAA,2025-02-09 11:00,ZBAA 091100Z 18004MPS CAVOK M02/M22 Q1026 NOSIG
ZBAA,2025-02-09 11:30,ZBAA 091130Z 19003MPS 170V230 CAVOK M02/M23 Q1026 NOSIG
ZBAA,2025-02-09 12:00,ZBAA 091200Z VRB01MPS CAVOK M05/M23 Q1026 NOSIG
ZBAA,2025-02-09 12:30,ZBAA 091230Z VRB01MPS CAVOK M06/M22 Q1026 NOSIG
ZBAA,2025-02-09 13:00,ZBAA 091300Z 09001MPS CAVOK M08/M22 Q1026 NOSIG
ZBAA,2025-02-09 13:30,ZBAA 091330Z VRB01MPS CAVOK M08/M21 Q1026 NOSIG
ZBAA,2025-02-09 14:00,ZBAA 091400Z 00000MPS CAVOK M07/M21 Q1026 NOSIG
ZBAA,2025-02-09 14:30,ZBAA 091430Z VRB01MPS CAVOK M09/M21 Q1026 NOSIG
ZBAA,2025-02-09 15:00,ZBAA 091500Z 07001MPS CAVOK M09/M21 Q1026 NOSIG
ZBAA,2025-02-09 15:30,ZBAA 091530Z 07002MPS CAVOK M09/M21 Q1026 NOSIG
ZBAA,2025-02-09 16:00,ZBAA 091600Z 09002MPS CAVOK M08/M21 Q1026 NOSIG
ZBAA,2025-02-09 16:30,ZBAA 091630Z 08002MPS CAVOK M07/M21 Q1025 NOSIG
ZBAA,2025-02-09 17:00,ZBAA 091700Z VRB01MPS CAVOK M08/M21 Q1025 NOSIG
ZBAA,2025-02-09 17:30,ZBAA 091730Z 03001MPS CAVOK M10/M21 Q1025 NOSIG
ZBAA,2025-02-09 18:00,ZBAA 091800Z VRB01MPS CAVOK M11/M21 Q1025 NOSIG
ZBAA,2025-02-09 18:30,ZBAA 091830Z VRB01MPS CAVOK M12/M20 Q1025 NOSIG
ZBAA,2025-02-09 19:00,ZBAA 091900Z VRB01MPS CAVOK M12/M20 Q1025 NOSIG
ZBAA,2025-02-09 19:30,ZBAA 091930Z VRB01MPS CAVOK M11/M20 Q1025 NOSIG
ZBAA,2025-02-09 20:00,ZBAA 092000Z 36003MPS CAVOK M12/M20 Q1025 NOSIG
ZBAA,2025-02-09 20:30,ZBAA 092030Z 36001MPS CAVOK M13/M21 Q1024 NOSIG
ZBAA,2025-02-09 21:00,ZBAA 092100Z VRB01MPS CAVOK M13/M20 Q1025 NOSIG
ZBAA,2025-02-09 21:30,ZBAA 092130Z 00000MPS CAVOK M12/M21 Q1024 NOSIG
ZBAA,2025-02-09 22:00,ZBAA 092200Z VRB01MPS CAVOK M14/M21 Q1024 NOSIG
ZBAA,2025-02-09 22:30,ZBAA 092230Z 35002MPS CAVOK M14/M20 Q1025 NOSIG
ZBAA,2025-02-09 23:00,ZBAA 092300Z 35003MPS CAVOK M14/M20 Q1025 NOSIG
ZBAA,2025-02-09 23:30,ZBAA 092330Z 36002MPS CAVOK M11/M18 Q1025 NOSIG
ZBAA,2025-02-10 00:00,ZBAA 100000Z 34002MPS CAVOK M10/M17 Q1025 NOSIG
ZBAA,2025-02-10 00:30,ZBAA 100030Z 36003MPS CAVOK M07/M16 Q1026 NOSIG
ZBAA,2025-02-10 01:00,ZBAA 100100Z VRB01MPS CAVOK M05/M16 Q1025 NOSIG
ZBAA,2025-02-10 01:30,ZBAA 100130Z 01002MPS 330V060 CAVOK M02/M17 Q1025 NOSIG
ZBAA,2025-02-10 02:00,ZBAA 100200Z 03002MPS 330V070 CAVOK M01/M18 Q1025 NOSIG
ZBAA,2025-02-10 02:30,ZBAA 100230Z 05002MPS 360V090 CAVOK M01/M19 Q1025 NOSIG
ZBAA,2025-02-10 03:00,ZBAA 100300Z VRB02MPS CAVOK 01/M21 Q1025 NOSIG
ZBAA,2025-02-10 03:30,ZBAA 100330Z 25002MPS 200V360 CAVOK 01/M21 Q1024 NOSIG
ZBAA,2025-02-10 04:00,ZBAA 100400Z 22002MPS 180V270 CAVOK 01/M21 Q1024 NOSIG
ZBAA,2025-02-10 04:30,ZBAA 100430Z VRB02MPS CAVOK 03/M20 Q1023 NOSIG
ZBAA,2025-02-10 05:00,ZBAA 100500Z VRB01MPS CAVOK 03/M21 Q1023 NOSIG
ZBAA,2025-02-10 05:30,ZBAA 100530Z 14002MPS 070V230 CAVOK 04/M20 Q1022 NOSIG
ZBAA,2025-02-10 06:00,ZBAA 100600Z 18003MPS 110V280 CAVOK 04/M20 Q1022 NOSIG
ZBAA,2025-02-10 06:30,ZBAA 100630Z 20002MPS 120V280 CAVOK 05/M21 Q1021 NOSIG
ZBAA,2025-02-10 07:00,ZBAA 100700Z 19003MPS 160V220 CAVOK 05/M21 Q1021 NOSIG
ZBAA,2025-02-10 07:30,ZBAA 100730Z 19003MPS 130V260 CAVOK 05/M20 Q1021 NOSIG
ZBAA,2025-02-10 08:00,ZBAA 100800Z 19003MPS 160V240 CAVOK 05/M20 Q1021 NOSIG
ZBAA,2025-02-10 08:30,ZBAA 100830Z 20004MPS 170V240 CAVOK 04/M19 Q1021 NOSIG
ZBAA,2025-02-10 09:00,ZBAA 100900Z 17002MPS 150V210 CAVOK 04/M19 Q1021 NOSIG
ZBAA,2025-02-10 09:30,ZBAA 100930Z VRB01MPS CAVOK 03/M20 Q1021 NOSIG
ZBAA,2025-02-10 10:00,ZBAA 101000Z VRB01MPS CAVOK M01/M19 Q1021 NOSIG
ZBAA,2025-02-10 10:30,ZBAA 101030Z 00000MPS CAVOK M02/M18 Q1021 NOSIG
ZBAA,2025-02-10 11:00,ZBAA 101100Z 00000MPS CAVOK M02/M17 Q1021 NOSIG
ZBAA,2025-02-10 11:30,ZBAA 101130Z 00000MPS CAVOK M05/M18 Q1021 NOSIG
ZBAA,2025-02-10 12:00,ZBAA 101200Z 00000MPS CAVOK M05/M18 Q1021 NOSIG
ZBAA,2025-02-10 12:30,ZBAA 101230Z VRB01MPS CAVOK M05/M18 Q1022 NOSIG
ZBAA,2025-02-10 13:00,ZBAA 101300Z VRB01MPS CAVOK M06/M17 Q1022 NOSIG
ZBAA,2025-02-10 13:30,ZBAA 101330Z 07001MPS CAVOK M06/M18 Q1022 NOSIG
ZBAA,2025-02-10 14:00,ZBAA 101400Z VRB01MPS CAVOK M07/M16 Q1022 NOSIG
ZBAA,2025-02-10 14:30,ZBAA 101430Z 04001MPS CAVOK M07/M17 Q1022 NOSIG
ZBAA,2025-02-10 15:00,ZBAA 101500Z 07001MPS CAVOK M07/M16 Q1022 NOSIG
ZBAA,2025-02-10 15:30,ZBAA 101530Z VRB01MPS CAVOK M07/M16 Q1022 NOSIG
ZBAA,2025-02-10 16:00,ZBAA 101600Z 08002MPS CAVOK M06/M16 Q1022 NOSIG
ZBAA,2025-02-10 16:30,ZBAA 101630Z 09002MPS CAVOK M07/M16 Q1022 NOSIG
ZBAA,2025-02-10 17:00,ZBAA 101700Z 09001MPS CAVOK M05/M16 Q1022 NOSIG
ZBAA,2025-02-10 17:30,ZBAA 101730Z 08001MPS CAVOK M07/M15 Q1021 NOSIG
ZBAA,2025-02-10 18:00,ZBAA 101800Z VRB01MPS CAVOK M06/M14 Q1021 NOSIG
ZBAA,2025-02-10 18:30,ZBAA 101830Z 01002MPS 340V050 CAVOK M08/M15 Q1021 NOSIG
ZBAA,2025-02-10 19:00,ZBAA 101900Z 35003MPS CAVOK M08/M15 Q1021 NOSIG
ZBAA,2025-02-10 19:30,ZBAA 101930Z 35002MPS CAVOK M07/M15 Q1021 NOSIG
ZBAA,2025-02-10 20:00,ZBAA 102000Z 05001MPS CAVOK M09/M16 Q1021 NOSIG
ZBAA,2025-02-10 20:30,ZBAA 102030Z 35001MPS CAVOK M09/M14 Q1021 NOSIG
ZBAA,2025-02-10 21:00,ZBAA 102100Z 36001MPS CAVOK M10/M15 Q1021 NOSIG
ZBAA,2025-02-10 21:30,ZBAA 102130Z VRB01MPS CAVOK M09/M14 Q1020 NOSIG
ZBAA,2025-02-10 22:00,ZBAA 102200Z 00000MPS CAVOK M10/M16 Q1020 NOSIG
ZBAA,2025-02-10 22:30,ZBAA 102230Z 35001MPS CAVOK M09/M15 Q1020 NOSIG
ZBAA,2025-02-10 23:00,ZBAA 102300Z 01002MPS CAVOK M10/M14 Q1020 NOSIG
ZBAA,2025-02-10 23:30,ZBAA 102330Z VRB01MPS 8000 NSC M10/M14 Q1020 NOSIG
ZBAA,2025-02-11 00:00,ZBAA 110000Z 34002MPS 8000 NSC M08/M13 Q1021 NOSIG
ZBAA,2025-02-11 00:30,ZBAA 110030Z 36002MPS 8000 NSC M04/M12 Q1021 NOSIG
ZBAA,2025-02-11 01:00,ZBAA 110100Z 36001MPS 8000 NSC M02/M13 Q1021 NOSIG
ZBAA,2025-02-11 01:30,ZBAA 110130Z 35002MPS 310V010 8000 NSC M01/M13 Q1022 NOSIG
ZBAA,2025-02-11 02:00,ZBAA 110200Z 34002MPS 300V010 8000 NSC 01/M14 Q1022 NOSIG
ZBAA,2025-02-11 02:30,ZBAA 110230Z 33003MPS 8000 NSC 01/M14 Q1022 NOSIG
ZBAA,2025-02-11 03:00,ZBAA 110300Z VRB01MPS 8000 NSC 01/M14 Q1021 NOSIG
ZBAA,2025-02-11 03:30,ZBAA 110330Z 02002MPS 330V080 8000 NSC 02/M13 Q1021 NOSIG
ZBAA,2025-02-11 04:00,ZBAA 110400Z 35002MPS 300V040 8000 NSC 03/M13 Q1021 NOSIG
ZBAA,2025-02-11 04:30,ZBAA 110430Z VRB01MPS 8000 NSC 04/M12 Q1020 NOSIG
ZBAA,2025-02-11 05:00,ZBAA 110500Z 33002MPS 300V360 8000 NSC 04/M13 Q1020 NOSIG
ZBAA,2025-02-11 05:30,ZBAA 110530Z VRB01MPS 8000 NSC 04/M12 Q1020 NOSIG
ZBAA,2025-02-11 06:00,ZBAA 110600Z 32002MPS 290V350 8000 NSC 04/M12 Q1020 NOSIG
ZBAA,2025-02-11 06:30,ZBAA 110630Z 02002MPS 340V070 8000 NSC 04/M13 Q1019 NOSIG
ZBAA,2025-02-11 07:00,ZBAA 110700Z VRB01MPS 8000 NSC 04/M13 Q1019 NOSIG
ZBAA,2025-02-11 07:30,ZBAA 110730Z 05002MPS 020V090 8000 NSC 04/M13 Q1018 NOSIG
ZBAA,2025-02-11 08:00,ZBAA 110800Z VRB01MPS 8000 NSC 04/M13 Q1019 NOSIG
ZBAA,2025-02-11 08:30,ZBAA 110830Z 02001MPS 8000 NSC 04/M13 Q1018 NOSIG
ZBAA,2025-02-11 09:00,ZBAA 110900Z VRB01MPS 8000 NSC 03/M13 Q1019 NOSIG
ZBAA,2025-02-11 09:30,ZBAA 110930Z 05001MPS 8000 NSC 02/M13 Q1020 NOSIG
ZBAA,2025-02-11 10:00,ZBAA 111000Z VRB01MPS 8000 NSC 03/M13 Q1021 NOSIG
ZBAA,2025-02-11 10:30,ZBAA 111030Z VRB01MPS 8000 NSC 01/M13 Q1021 NOSIG
ZBAA,2025-02-11 11:00,ZBAA 111100Z 01002MPS 8000 NSC M01/M12 Q1021 NOSIG
ZBAA,2025-02-11 11:30,ZBAA 111130Z 35004MPS 300V010 8000 NSC 01/M13 Q1021 NOSIG
ZBAA,2025-02-11 12:00,ZBAA 111200Z 01003MPS CAVOK 02/M13 Q1021 NOSIG
ZBAA,2025-02-11 12:30,ZBAA 111230Z 35004MPS 320V020 CAVOK 02/M14 Q1022 NOSIG
ZBAA,2025-02-11 13:00,ZBAA 111300Z 36003MPS 310V050 CAVOK 02/M14 Q1022 NOSIG
ZBAA,2025-02-11 13:30,ZBAA 111330Z VRB01MPS CAVOK 02/M14 Q1022 NOSIG
ZBAA,2025-02-11 14:00,ZBAA 111400Z 01003MPS 300V060 CAVOK 03/M14 Q1022 NOSIG
ZBAA,2025-02-11 14:30,ZBAA 111430Z 34004MPS CAVOK 02/M14 Q1022 NOSIG
ZBAA,2025-02-11 15:00,ZBAA 111500Z 33003MPS CAVOK 02/M15 Q1023 NOSIG
ZBAA,2025-02-11 15:30,ZBAA 111530Z 33003MPS 290V360 CAVOK 02/M15 Q1023 NOSIG
ZBAA,2025-02-11 16:00,ZBAA 111600Z 36003MPS CAVOK 00/M14 Q1023 NOSIG
ZBAA,2025-02-11 16:30,ZBAA 111630Z 35004MPS CAVOK 01/M15 Q1023 NOSIG
ZBAA,2025-02-11 17:00,ZBAA 111700Z 34007MPS CAVOK 03/M15 Q1024 NOSIG
ZBAA,2025-02-11 17:30,ZBAA 111730Z 33005MPS CAVOK 02/M15 Q1024 NOSIG
ZBAA,2025-02-11 18:00,ZBAA 111800Z 32005MPS CAVOK 01/M15 Q1024 NOSIG
ZBAA,2025-02-11 18:30,ZBAA 111830Z 33004MPS CAVOK 00/M16 Q1025 NOSIG
ZBAA,2025-02-11 19:00,ZBAA 111900Z 31008MPS CAVOK 01/M17 Q1025 NOSIG
ZBAA,2025-02-11 19:30,ZBAA 111930Z 30008MPS CAVOK 01/M18 Q1025 NOSIG
ZBAA,2025-02-11 20:00,ZBAA 112000Z 30008MPS CAVOK 01/M18 Q1026 NOSIG
ZBAA,2025-02-11 20:30,ZBAA 112030Z 30007MPS CAVOK 00/M18 Q1026 NOSIG
ZBAA,2025-02-11 21:00,ZBAA 112100Z 31008MPS CAVOK 00/M19 Q1026 NOSIG
ZBAA,2025-02-11 21:30,ZBAA 112130Z 32008MPS CAVOK 00/M20 Q1026 NOSIG
ZBAA,2025-02-11 22:00,ZBAA 112200Z 32008MPS CAVOK M00/M18 Q1026 NOSIG
ZBAA,2025-02-11 22:30,ZBAA 112230Z 31004MPS CAVOK M01/M18 Q1027 NOSIG
ZBAA,2025-02-11 23:00,ZBAA 112300Z 33005MPS CAVOK M01/M17 Q1027 NOSIG
ZBAA,2025-02-11 23:30,ZBAA 112330Z 01003MPS CAVOK M03/M17 Q1027 NOSIG
ZBAA,2025-02-12 00:00,ZBAA 120000Z 31004MPS CAVOK M00/M17 Q1028 NOSIG
ZBAA,2025-02-12 00:30,ZBAA 120030Z 29005MPS CAVOK 00/M19 Q1028 NOSIG
ZBAA,2025-02-12 01:00,ZBAA 120100Z 30006MPS CAVOK 01/M20 Q1028 NOSIG
ZBAA,2025-02-12 01:30,ZBAA 120130Z 30006MPS CAVOK 02/M20 Q1028 NOSIG
ZBAA,2025-02-12 02:00,ZBAA 120200Z 30007MPS CAVOK 02/M21 Q1028 NOSIG
ZBAA,2025-02-12 02:30,ZBAA 120230Z 30007G12MPS 260V320 CAVOK 03/M22 Q1028 NOSIG
ZBAA,2025-02-12 03:00,ZBAA 120300Z 30005G11MPS 260V330 CAVOK 04/M22 Q1028 NOSIG
ZBAA,2025-02-12 03:30,ZBAA 120330Z 31005MPS 280V340 CAVOK 04/M21 Q1027 NOSIG
ZBAA,2025-02-12 04:00,ZBAA 120400Z 28005MPS 240V310 CAVOK 05/M21 Q1026 NOSIG
ZBAA,2025-02-12 04:30,ZBAA 120430Z 28006G11MPS 250V310 CAVOK 05/M22 Q1026 NOSIG
ZBAA,2025-02-12 05:00,ZBAA 120500Z 32009G14MPS 290V350 CAVOK 07/M22 Q1025 NOSIG
ZBAA,2025-02-12 05:30,ZBAA 120530Z 31010MPS CAVOK 06/M23 Q1025 NOSIG
ZBAA,2025-02-12 06:00,ZBAA 120600Z 32009G14MPS 280V360 CAVOK 07/M22 Q1024 NOSIG
ZBAA,2025-02-12 06:30,ZBAA 120630Z 34009MPS CAVOK 07/M24 Q1024 NOSIG
ZBAA,2025-02-12 07:00,ZBAA 120700Z 33006MPS CAVOK 07/M23 Q1024 NOSIG
ZBAA,2025-02-12 07:30,ZBAA 120730Z 32006MPS 260V010 CAVOK 07/M23 Q1024 NOSIG
ZBAA,2025-02-12 08:00,ZBAA 120800Z 34006MPS 300V010 CAVOK 07/M23 Q1024 NOSIG
ZBAA,2025-02-12 08:30,ZBAA 120830Z 33006MPS 290V350 CAVOK 06/M23 Q1024 NOSIG
ZBAA,2025-02-12 09:00,ZBAA 120900Z 31005MPS 280V340 CAVOK 06/M23 Q1024 NOSIG
ZBAA,2025-02-12 09:30,ZBAA 120930Z 29004G10MPS CAVOK 05/M22 Q1024 NOSIG
ZBAA,2025-02-12 10:00,ZBAA 121000Z 29004MPS 260V010 CAVOK 05/M22 Q1025 NOSIG
ZBAA,2025-02-12 10:30,ZBAA 121030Z 29003MPS 270V340 CAVOK 04/M21 Q1025 NOSIG
ZBAA,2025-02-12 11:00,ZBAA 121100Z 29002MPS 230V320 CAVOK 04/M21 Q1025 NOSIG
ZBAA,2025-02-12 11:30,ZBAA 121130Z 29003MPS 250V340 CAVOK 04/M21 Q1025 NOSIG
ZBAA,2025-02-12 12:00,ZBAA 121200Z 29003MPS 270V330 CAVOK 03/M22 Q1025 NOSIG
ZBAA,2025-02-12 12:30,ZBAA 121230Z 27003MPS 220V320 CAVOK 03/M22 Q1025 NOSIG
ZBAA,2025-02-12 13:00,ZBAA 121300Z VRB01MPS CAVOK M03/M19 Q1025 NOSIG
ZBAA,2025-02-12 13:30,ZBAA 121330Z VRB01MPS CAVOK M05/M19 Q1025 NOSIG
ZBAA,2025-02-12 14:00,ZBAA 121400Z VRB01MPS CAVOK M04/M18 Q1025 NOSIG
ZBAA,2025-02-12 14:30,ZBAA 121430Z VRB01MPS CAVOK M06/M18 Q1025 NOSIG
ZBAA,2025-02-12 15:00,ZBAA 121500Z VRB01MPS CAVOK M05/M18 Q1025 NOSIG
ZBAA,2025-02-12 15:30,ZBAA 121530Z VRB01MPS CAVOK M06/M18 Q1025 NOSIG
ZBAA,2025-02-12 16:00,ZBAA 121600Z VRB01MPS CAVOK M07/M17 Q1025 NOSIG
ZBAA,2025-02-12 16:30,ZBAA 121630Z 01002MPS 320V070 CAVOK M07/M17 Q1024 NOSIG
ZBAA,2025-02-12 17:00,ZBAA 121700Z VRB01MPS CAVOK M07/M18 Q1024 NOSIG
ZBAA,2025-02-12 17:30,ZBAA 121730Z VRB01MPS CAVOK M08/M18 Q1024 NOSIG
ZBAA,2025-02-12 18:00,ZBAA 121800Z VRB01MPS CAVOK M08/M16 Q1024 NOSIG
ZBAA,2025-02-12 18:30,ZBAA 121830Z VRB01MPS CAVOK M08/M17 Q1024 NOSIG
ZBAA,2025-02-12 19:00,ZBAA 121900Z VRB01MPS CAVOK M08/M17 Q1023 NOSIG
ZBAA,2025-02-12 19:30,ZBAA 121930Z VRB01MPS CAVOK M09/M17 Q1023 NOSIG
ZBAA,2025-02-12 20:00,ZBAA 122000Z VRB01MPS CAVOK M10/M18 Q1023 NOSIG
ZBAA,2025-02-12 20:30,ZBAA 122030Z VRB01MPS CAVOK M10/M17 Q1023 NOSIG
ZBAA,2025-02-12 21:00,ZBAA 122100Z 00000MPS CAVOK M11/M18 Q1023 NOSIG
ZBAA,2025-02-12 21:30,ZBAA 122130Z 03001MPS CAVOK M11/M18 Q1022 NOSIG
ZBAA,2025-02-12 22:00,ZBAA 122200Z VRB01MPS CAVOK M10/M18 Q1022 NOSIG
ZBAA,2025-02-12 22:30,ZBAA 122230Z VRB01MPS CAVOK M10/M18 Q1022 NOSIG
ZBAA,2025-02-12 23:00,ZBAA 122300Z VRB01MPS CAVOK M07/M16 Q1022 NOSIG
ZBAA,2025-02-12 23:30,ZBAA 122330Z 21002MPS 170V290 CAVOK M07/M16 Q1023 NOSIG
ZBAA,2025-02-13 00:00,ZBAA 130000Z 07002MPS 050V110 CAVOK M07/M15 Q1023 NOSIG
ZBAA,2025-02-13 00:30,ZBAA 130030Z VRB01MPS CAVOK M03/M14 Q1023 NOSIG
ZBAA,2025-02-13 01:00,ZBAA 130100Z 13002MPS 090V180 CAVOK M00/M13 Q1023 NOSIG
ZBAA,2025-02-13 01:30,ZBAA 130130Z 16002MPS CAVOK 02/M15 Q1023 NOSIG
ZBAA,2025-02-13 02:00,ZBAA 130200Z VRB01MPS CAVOK 05/M16 Q1022 NOSIG
ZBAA,2025-02-13 02:30,ZBAA 130230Z 24003MPS 200V310 CAVOK 06/M18 Q1022 NOSIG
ZBAA,2025-02-13 03:00,ZBAA 130300Z 27002MPS 220V330 CAVOK 08/M19 Q1022 NOSIG
ZBAA,2025-02-13 03:30,ZBAA 130330Z 27004MPS 200V330 CAVOK 09/M21 Q1021 NOSIG
ZBAA,2025-02-13 04:00,ZBAA 130400Z 27005MPS 240V320 CAVOK 10/M21 Q1021 NOSIG
ZBAA,2025-02-13 04:30,ZBAA 130430Z 28007G12MPS 240V340 CAVOK 11/M22 Q1020 NOSIG
ZBAA,2025-02-13 05:00,ZBAA 130500Z 29009G14MPS CAVOK 12/M23 Q1020 NOSIG
ZBAA,2025-02-13 05:30,ZBAA 130530Z 29009MPS CAVOK 12/M23 Q1019 NOSIG
ZBAA,2025-02-13 06:00,ZBAA 130600Z 28009MPS CAVOK 12/M23 Q1018 NOSIG
ZBAA,2025-02-13 06:30,ZBAA 130630Z 30008MPS CAVOK 12/M23 Q1018 NOSIG
ZBAA,2025-02-13 07:00,ZBAA 130700Z 29006G15MPS 250V330 CAVOK 13/M22 Q1018 BECMG TL0840 23004MPS
ZBAA,2025-02-13 07:02,ZBAA 130702Z 23008G14MPS CAVOK 12/M23 Q1018 NOSIG
ZBAA,2025-02-13 07:30,ZBAA 130730Z 20005MPS 140V240 CAVOK 12/M21 Q1018 NOSIG
ZBAA,2025-02-13 08:00,ZBAA 130800Z 22004MPS 180V250 CAVOK 12/M21 Q1018 NOSIG
ZBAA,2025-02-13 08:30,ZBAA 130830Z 20005MPS 180V240 CAVOK 11/M22 Q1018 NOSIG
ZBAA,2025-02-13 09:00,ZBAA 130900Z 20005MPS CAVOK 10/M23 Q1018 NOSIG
ZBAA,2025-02-13 09:30,ZBAA 130930Z 20004MPS 160V230 CAVOK 10/M23 Q1018 NOSIG
ZBAA,2025-02-13 10:00,ZBAA 131000Z 20005MPS 170V230 CAVOK 09/M22 Q1018 NOSIG
ZBAA,2025-02-13 10:30,ZBAA 131030Z 20004MPS 170V240 CAVOK 09/M21 Q1019 NOSIG
ZBAA,2025-02-13 11:00,ZBAA 131100Z 20004MPS CAVOK 08/M22 Q1019 NOSIG
ZBAA,2025-02-13 11:30,ZBAA 131130Z 20004MPS 170V250 CAVOK 08/M22 Q1019 NOSIG
ZBAA,2025-02-13 12:00,ZBAA 131200Z 18003MPS 150V210 CAVOK 07/M22 Q1020 NOSIG
ZBAA,2025-02-13 12:30,ZBAA 131230Z 19003MPS 170V250 CAVOK 03/M22 Q1020 NOSIG
ZBAA,2025-02-13 13:00,ZBAA 131300Z 16002MPS CAVOK 01/M21 Q1020 NOSIG
ZBAA,2025-02-13 13:30,ZBAA 131330Z VRB01MPS CAVOK 03/M21 Q1020 NOSIG
ZBAA,2025-02-13 14:00,ZBAA 131400Z VRB01MPS CAVOK M02/M18 Q1020 NOSIG
ZBAA,2025-02-13 14:30,ZBAA 131430Z VRB01MPS CAVOK M02/M18 Q1020 NOSIG
ZBAA,2025-02-13 15:00,ZBAA 131500Z 07002MPS CAVOK M04/M17 Q1020 NOSIG
ZBAA,2025-02-13 15:30,ZBAA 131530Z VRB01MPS CAVOK M03/M17 Q1020 NOSIG
ZBAA,2025-02-13 16:00,ZBAA 131600Z VRB01MPS CAVOK M05/M18 Q1020 NOSIG
ZBAA,2025-02-13 16:30,ZBAA 131630Z 04001MPS CAVOK M04/M18 Q1020 NOSIG
ZBAA,2025-02-13 17:00,ZBAA 131700Z 01002MPS 340V040 CAVOK M06/M18 Q1020 NOSIG
ZBAA,2025-02-13 17:30,ZBAA 131730Z VRB01MPS CAVOK M06/M17 Q1020 NOSIG
ZBAA,2025-02-13 18:00,ZBAA 131800Z VRB01MPS CAVOK M06/M16 Q1020 NOSIG
ZBAA,2025-02-13 18:30,ZBAA 131830Z 00000MPS CAVOK M07/M17 Q1020 NOSIG
ZBAA,2025-02-13 19:00,ZBAA 131900Z VRB01MPS CAVOK M07/M17 Q1020 NOSIG
ZBAA,2025-02-13 19:30,ZBAA 131930Z VRB01MPS CAVOK M07/M17 Q1020 NOSIG
ZBAA,2025-02-13 20:00,ZBAA 132000Z VRB01MPS CAVOK M07/M16 Q1020 NOSIG
ZBAA,2025-02-13 20:30,ZBAA 132030Z VRB01MPS CAVOK M08/M16 Q1020 NOSIG
ZBAA,2025-02-13 21:00,ZBAA 132100Z 35001MPS CAVOK M08/M17 Q1020 NOSIG
ZBAA,2025-02-13 21:30,ZBAA 132130Z 34002MPS CAVOK M08/M15 Q1019 NOSIG
ZBAA,2025-02-13 22:00,ZBAA 132200Z 35002MPS CAVOK M09/M15 Q1020 NOSIG
ZBAA,2025-02-13 22:30,ZBAA 132230Z 02002MPS CAVOK M08/M16 Q1020 NOSIG
ZBAA,2025-02-13 23:00,ZBAA 132300Z VRB01MPS CAVOK M07/M16 Q1020 NOSIG
ZBAA,2025-02-13 23:30,ZBAA 132330Z 33002MPS 300V020 CAVOK M07/M15 Q1020 NOSIG
ZBAA,2025-02-14 00:00,ZBAA 140000Z 32002MPS 230V350 CAVOK M03/M15 Q1020 NOSIG
ZBAA,2025-02-14 00:30,ZBAA 140030Z 23002MPS 170V290 CAVOK M00/M17 Q1020 NOSIG
ZBAA,2025-02-14 01:00,ZBAA 140100Z VRB01MPS CAVOK 01/M18 Q1020 NOSIG
ZBAA,2025-02-14 01:30,ZBAA 140130Z VRB01MPS CAVOK 03/M18 Q1020 NOSIG
ZBAA,2025-02-14 02:00,ZBAA 140200Z VRB01MPS CAVOK 05/M17 Q1020 NOSIG
ZBAA,2025-02-14 02:30,ZBAA 140230Z 30002MPS 240V360 CAVOK 06/M17 Q1019 NOSIG
ZBAA,2025-02-14 03:00,ZBAA 140300Z VRB01MPS CAVOK 09/M17 Q1019 NOSIG
ZBAA,2025-02-14 03:30,ZBAA 140330Z VRB01MPS CAVOK 10/M18 Q1018 NOSIG
ZBAA,2025-02-14 04:00,ZBAA 140400Z 23002MPS 180V280 CAVOK 10/M17 Q1018 NOSIG
ZBAA,2025-02-14 04:30,ZBAA 140430Z 24002MPS 200V280 CAVOK 11/M17 Q1017 NOSIG
ZBAA,2025-02-14 05:00,ZBAA 140500Z VRB02MPS CAVOK 12/M18 Q1017 NOSIG
ZBAA,2025-02-14 05:30,ZBAA 140530Z VRB01MPS CAVOK 13/M18 Q1016 NOSIG
ZBAA,2025-02-14 06:00,ZBAA 140600Z 20002MPS 140V250 CAVOK 13/M19 Q1015 NOSIG
ZBAA,2025-02-14 06:30,ZBAA 140630Z 21002MPS 180V270 CAVOK 14/M20 Q1015 NOSIG
ZBAA,2025-02-14 07:00,ZBAA 140700Z 19004MPS CAVOK 13/M20 Q1015 NOSIG
ZBAA,2025-02-14 07:30,ZBAA 140730Z 22004MPS 180V250 CAVOK 13/M21 Q1015 NOSIG
ZBAA,2025-02-14 08:00,ZBAA 140800Z 20004MPS 160V230 CAVOK 13/M20 Q1014 NOSIG
ZBAA,2025-02-14 08:30,ZBAA 140830Z 20004MPS 170V230 CAVOK 12/M20 Q1014 NOSIG
ZBAA,2025-02-14 09:00,ZBAA 140900Z 20004MPS CAVOK 11/M21 Q1014 NOSIG
ZBAA,2025-02-14 09:30,ZBAA 140930Z 20003MPS 180V250 CAVOK 11/M21 Q1014 NOSIG
ZBAA,2025-02-14 10:00,ZBAA 141000Z 19003MPS 160V220 CAVOK 10/M21 Q1014 NOSIG
ZBAA,2025-02-14 10:30,ZBAA 141030Z 19003MPS CAVOK 10/M21 Q1015 NOSIG
ZBAA,2025-02-14 11:00,ZBAA 141100Z 19004MPS 170V230 CAVOK 09/M20 Q1015 NOSIG
ZBAA,2025-02-14 11:30,ZBAA 141130Z 19003MPS CAVOK 09/M20 Q1015 NOSIG
ZBAA,2025-02-14 12:00,ZBAA 141200Z VRB01MPS CAVOK 03/M19 Q1015 NOSIG
ZBAA,2025-02-14 12:30,ZBAA 141230Z 17002MPS CAVOK 01/M19 Q1014 NOSIG
ZBAA,2025-02-14 13:00,ZBAA 141300Z VRB01MPS CAVOK 00/M19 Q1014 NOSIG
ZBAA,2025-02-14 13:30,ZBAA 141330Z VRB01MPS CAVOK M01/M16 Q1014 NOSIG
ZBAA,2025-02-14 14:00,ZBAA 141400Z VRB01MPS CAVOK M02/M16 Q1014 NOSIG
ZBAA,2025-02-14 14:30,ZBAA 141430Z VRB01MPS CAVOK M02/M15 Q1014 NOSIG
ZBAA,2025-02-14 15:00,ZBAA 141500Z VRB01MPS CAVOK M02/M16 Q1014 NOSIG
ZBAA,2025-02-14 15:30,ZBAA 141530Z VRB01MPS CAVOK M03/M16 Q1014 NOSIG
ZBAA,2025-02-14 16:00,ZBAA 141600Z 06002MPS CAVOK M05/M16 Q1014 NOSIG
ZBAA,2025-02-14 16:30,ZBAA 141630Z 00000MPS CAVOK M03/M16 Q1014 NOSIG
ZBAA,2025-02-14 17:00,ZBAA 141700Z 10001MPS CAVOK M05/M16 Q1014 NOSIG
ZBAA,2025-02-14 17:30,ZBAA 141730Z VRB01MPS CAVOK M05/M15 Q1014 NOSIG
ZBAA,2025-02-14 18:00,ZBAA 141800Z VRB01MPS CAVOK M06/M15 Q1014 NOSIG
ZBAA,2025-02-14 18:30,ZBAA 141830Z 36002MPS CAVOK M04/M15 Q1014 NOSIG
ZBAA,2025-02-14 19:00,ZBAA 141900Z VRB01MPS CAVOK M06/M15 Q1013 NOSIG
ZBAA,2025-02-14 19:30,ZBAA 141930Z VRB01MPS CAVOK M06/M15 Q1013 NOSIG
ZBAA,2025-02-14 20:00,ZBAA 142000Z VRB01MPS CAVOK M07/M15 Q1013 NOSIG
ZBAA,2025-02-14 20:30,ZBAA 142030Z 36002MPS CAVOK M06/M14 Q1013 NOSIG
ZBAA,2025-02-14 21:00,ZBAA 142100Z 35003MPS CAVOK M06/M14 Q1013 NOSIG
ZBAA,2025-02-14 21:30,ZBAA 142130Z 01003MPS CAVOK M08/M15 Q1013 NOSIG
ZBAA,2025-02-14 22:00,ZBAA 142200Z 33002MPS 280V360 CAVOK M06/M15 Q1012 NOSIG
ZBAA,2025-02-14 22:30,ZBAA 142230Z 34003MPS CAVOK M04/M15 Q1012 NOSIG
ZBAA,2025-02-14 23:00,ZBAA 142300Z 35003MPS CAVOK M06/M15 Q1012 NOSIG
ZBAA,2025-02-14 23:30,ZBAA 142330Z 33002MPS CAVOK M05/M14 Q1012 NOSIG
ZBAA,2025-02-15 00:00,ZBAA 150000Z 30002MPS 270V330 CAVOK M00/M14 Q1013 NOSIG
ZBAA,2025-02-15 00:30,ZBAA 150030Z 35002MPS CAVOK 01/M15 Q1013 NOSIG
ZBAA,2025-02-15 01:00,ZBAA 150100Z 34003MPS CAVOK 03/M15 Q1013 NOSIG
ZBAA,2025-02-15 01:30,ZBAA 150130Z 35003MPS 310V010 CAVOK 05/M16 Q1013 NOSIG
ZBAA,2025-02-15 02:00,ZBAA 150200Z 31003MPS CAVOK 07/M17 Q1013 NOSIG
ZBAA,2025-02-15 02:30,ZBAA 150230Z 30006MPS CAVOK 09/M17 Q1013 NOSIG
ZBAA,2025-02-15 03:00,ZBAA 150300Z 31007MPS CAVOK 11/M17 Q1012 NOSIG
ZBAA,2025-02-15 03:30,ZBAA 150330Z 30007MPS CAVOK 12/M18 Q1012 NOSIG
ZBAA,2025-02-15 04:00,ZBAA 150400Z 31008MPS CAVOK 13/M17 Q1012 NOSIG
ZBAA,2025-02-15 04:30,ZBAA 150430Z 31009MPS CAVOK 13/M17 Q1012 NOSIG
ZBAA,2025-02-15 05:00,ZBAA 150500Z 29010MPS CAVOK 13/M17 Q1011 NOSIG
ZBAA,2025-02-15 05:30,ZBAA 150530Z 29009G14MPS CAVOK 13/M18 Q1011 NOSIG
ZBAA,2025-02-15 06:00,ZBAA 150600Z 29009MPS CAVOK 14/M18 Q1011 NOSIG
ZBAA,2025-02-15 06:30,ZBAA 150630Z 29009G14MPS CAVOK 14/M18 Q1010 NOSIG
ZBAA,2025-02-15 07:00,ZBAA 150700Z 30010MPS CAVOK 14/M17 Q1010 NOSIG
ZBAA,2025-02-15 07:30,ZBAA 150730Z 29009G14MPS CAVOK 14/M17 Q1010 NOSIG
ZBAA,2025-02-15 08:00,ZBAA 150800Z 28010MPS CAVOK 14/M17 Q1011 NOSIG
ZBAA,2025-02-15 08:30,ZBAA 150830Z 29009G16MPS CAVOK 14/M18 Q1011 NOSIG
ZBAA,2025-02-15 09:00,ZBAA 150900Z 30008MPS CAVOK 13/M18 Q1011 NOSIG
ZBAA,2025-02-15 09:30,ZBAA 150930Z 28008G13MPS CAVOK 13/M17 Q1011 NOSIG
ZBAA,2025-02-15 10:00,ZBAA 151000Z 28006G12MPS CAVOK 12/M17 Q1011 NOSIG
ZBAA,2025-02-15 10:30,ZBAA 151030Z 27005MPS 250V310 CAVOK 11/M17 Q1012 NOSIG
ZBAA,2025-02-15 11:00,ZBAA 151100Z 28003MPS 270V330 CAVOK 11/M16 Q1012 NOSIG
ZBAA,2025-02-15 11:30,ZBAA 151130Z 28003MPS 230V300 CAVOK 11/M17 Q1013 NOSIG
ZBAA,2025-02-15 12:00,ZBAA 151200Z 28003MPS 260V330 CAVOK 11/M17 Q1013 NOSIG
ZBAA,2025-02-15 12:30,ZBAA 151230Z 30004MPS 280V340 CAVOK 10/M16 Q1014 NOSIG
ZBAA,2025-02-15 13:00,ZBAA 151300Z 31005MPS CAVOK 09/M16 Q1015 NOSIG
ZBAA,2025-02-15 13:30,ZBAA 151330Z 32007MPS CAVOK 09/M14 Q1015 NOSIG
ZBAA,2025-02-15 14:00,ZBAA 151400Z 31007MPS CAVOK 09/M14 Q1016 NOSIG
ZBAA,2025-02-15 14:30,ZBAA 151430Z 32008MPS CAVOK 08/M14 Q1017 NOSIG
ZBAA,2025-02-15 15:00,ZBAA 151500Z 34006MPS CAVOK 07/M14 Q1017 NOSIG
ZBAA,2025-02-15 15:30,ZBAA 151530Z 32005MPS CAVOK 07/M14 Q1017 NOSIG
ZBAA,2025-02-15 15:42,ZBAA 151542Z 33010MPS CAVOK 08/M14 Q1018 NOSIG
ZBAA,2025-02-15 16:00,ZBAA 151600Z 32008MPS CAVOK 07/M15 Q1018 NOSIG
ZBAA,2025-02-15 16:30,ZBAA 151630Z 32007MPS CAVOK 07/M15 Q1018 NOSIG
ZBAA,2025-02-15 17:00,ZBAA 151700Z 32007MPS CAVOK 06/M14 Q1019 NOSIG
ZBAA,2025-02-15 17:30,ZBAA 151730Z 31007MPS CAVOK 06/M13 Q1019 NOSIG
ZBAA,2025-02-15 18:00,ZBAA 151800Z 32007MPS CAVOK 06/M14 Q1020 NOSIG
ZBAA,2025-02-15 18:30,ZBAA 151830Z 31005MPS CAVOK 05/M14 Q1020 NOSIG
ZBAA,2025-02-15 19:00,ZBAA 151900Z 32007MPS CAVOK 05/M14 Q1020 NOSIG
ZBAA,2025-02-15 19:30,ZBAA 151930Z 32006MPS CAVOK 04/M13 Q1020 NOSIG
ZBAA,2025-02-15 20:00,ZBAA 152000Z 33005MPS CAVOK 03/M13 Q1021 NOSIG
ZBAA,2025-02-15 20:30,ZBAA 152030Z 35004MPS CAVOK M00/M12 Q1021 NOSIG
ZBAA,2025-02-15 21:00,ZBAA 152100Z 33005MPS CAVOK 03/M13 Q1022 NOSIG
ZBAA,2025-02-15 21:15,ZBAA 152115Z 03002MPS CAVOK 01/M13 Q1022 NOSIG
ZBAA,2025-02-15 21:30,ZBAA 152130Z 01002MPS CAVOK 01/M13 Q1022 NOSIG
ZBAA,2025-02-15 22:00,ZBAA 152200Z 35004MPS CAVOK M01/M12 Q1023 NOSIG
ZBAA,2025-02-15 22:30,ZBAA 152230Z 36003MPS CAVOK M01/M12 Q1023 NOSIG
ZBAA,2025-02-15 23:00,ZBAA 152300Z 35003MPS CAVOK M01/M13 Q1024 NOSIG
ZBAA,2025-02-15 23:30,ZBAA 152330Z 35004MPS CAVOK 00/M14 Q1025 NOSIG
ZBAA,2025-02-16 00:00,ZBAA 160000Z 36004MPS CAVOK 02/M16 Q1026 NOSIG
ZBAA,2025-02-16 00:30,ZBAA 160030Z 36004MPS CAVOK 03/M16 Q1026 NOSIG
ZBAA,2025-02-16 01:00,ZBAA 160100Z 01005MPS 350V060 CAVOK 04/M17 Q1026 NOSIG
ZBAA,2025-02-16 01:30,ZBAA 160130Z 02004MPS 330V070 CAVOK 05/M17 Q1027 NOSIG
ZBAA,2025-02-16 02:00,ZBAA 160200Z 02004MPS 340V060 CAVOK 04/M17 Q1027 NOSIG
ZBAA,2025-02-16 02:30,ZBAA 160230Z 35005MPS 300V020 CAVOK 06/M16 Q1027 NOSIG
ZBAA,2025-02-16 03:00,ZBAA 160300Z VRB03MPS CAVOK 06/M16 Q1027 BECMG TL0440 33006MPS
ZBAA,2025-02-16 03:30,ZBAA 160330Z 35006MPS 310V010 CAVOK 08/M19 Q1027 NOSIG
ZBAA,2025-02-16 04:00,ZBAA 160400Z 30006G12MPS 260V360 CAVOK 07/M16 Q1026 NOSIG
ZBAA,2025-02-16 04:30,ZBAA 160430Z 32006MPS 270V350 CAVOK 08/M18 Q1026 NOSIG
ZBAA,2025-02-16 05:00,ZBAA 160500Z 31006G12MPS 270V340 CAVOK 08/M20 Q1025 NOSIG
ZBAA,2025-02-16 05:30,ZBAA 160530Z 29007G12MPS CAVOK 08/M16 Q1025 NOSIG
ZBAA,2025-02-16 06:00,ZBAA 160600Z 34007MPS CAVOK 07/M16 Q1025 NOSIG
ZBAA,2025-02-16 06:30,ZBAA 160630Z 34005MPS CAVOK 07/M16 Q1025 NOSIG
ZBAA,2025-02-16 07:00,ZBAA 160700Z 33004MPS 290V350 CAVOK 07/M17 Q1025 NOSIG
ZBAA,2025-02-16 07:30,ZBAA 160730Z 32003MPS 270V340 CAVOK 07/M17 Q1025 NOSIG
ZBAA,2025-02-16 08:00,ZBAA 160800Z 34004G09MPS 290V020 CAVOK 09/M19 Q1024 NOSIG
ZBAA,2025-02-16 08:30,ZBAA 160830Z 31003MPS 230V350 CAVOK 09/M19 Q1024 NOSIG
ZBAA,2025-02-16 09:00,ZBAA 160900Z 33005MPS CAVOK 08/M21 Q1024 NOSIG
ZBAA,2025-02-16 09:30,ZBAA 160930Z 34004MPS CAVOK 06/M21 Q1024 NOSIG
ZBAA,2025-02-16 10:00,ZBAA 161000Z 34003MPS CAVOK 04/M21 Q1025 NOSIG
ZBAA,2025-02-16 10:30,ZBAA 161030Z 01003MPS 340V040 CAVOK 03/M20 Q1025 NOSIG
ZBAA,2025-02-16 11:00,ZBAA 161100Z 34005MPS CAVOK 05/M18 Q1025 NOSIG
ZBAA,2025-02-16 11:30,ZBAA 161130Z 34004MPS CAVOK 03/M18 Q1026 NOSIG
ZBAA,2025-02-16 12:00,ZBAA 161200Z 34007MPS CAVOK 05/M21 Q1026 NOSIG
ZBAA,2025-02-16 12:30,ZBAA 161230Z 36004MPS CAVOK 02/M20 Q1027 NOSIG
ZBAA,2025-02-16 13:00,ZBAA 161300Z 35007MPS CAVOK 04/M21 Q1027 NOSIG
ZBAA,2025-02-16 13:30,ZBAA 161330Z 36006MPS CAVOK 02/M21 Q1028 NOSIG
ZBAA,2025-02-16 14:00,ZBAA 161400Z 36007MPS CAVOK 02/M21 Q1028 NOSIG
ZBAA,2025-02-16 14:30,ZBAA 161430Z 35009MPS CAVOK 02/M23 Q1029 NOSIG
ZBAA,2025-02-16 15:00,ZBAA 161500Z 35007MPS CAVOK 02/M23 Q1029 NOSIG
ZBAA,2025-02-16 15:30,ZBAA 161530Z 35007MPS CAVOK 02/M23 Q1030 NOSIG
ZBAA,2025-02-16 16:00,ZBAA 161600Z 34007MPS CAVOK 02/M24 Q1030 NOSIG
ZBAA,2025-02-16 16:30,ZBAA 161630Z 34005MPS CAVOK 01/M23 Q1030 NOSIG
ZBAA,2025-02-16 17:00,ZBAA 161700Z 34005MPS CAVOK 01/M23 Q1031 NOSIG
ZBAA,2025-02-16 17:30,ZBAA 161730Z 33007MPS CAVOK 01/M24 Q1031 NOSIG
ZBAA,2025-02-16 18:00,ZBAA 161800Z 33006MPS CAVOK M00/M25 Q1032 NOSIG
ZBAA,2025-02-16 18:30,ZBAA 161830Z 32006MPS CAVOK M00/M22 Q1032 NOSIG
ZBAA,2025-02-16 19:00,ZBAA 161900Z 32006MPS CAVOK M00/M23 Q1032 NOSIG
ZBAA,2025-02-16 19:30,ZBAA 161930Z 35005MPS 330V030 CAVOK M02/M23 Q1032 NOSIG
ZBAA,2025-02-16 20:00,ZBAA 162000Z 34005MPS CAVOK M03/M23 Q1032 NOSIG
ZBAA,2025-02-16 20:30,ZBAA 162030Z 01003MPS CAVOK M03/M23 Q1033 NOSIG
ZBAA,2025-02-16 21:00,ZBAA 162100Z 01003MPS CAVOK M05/M23 Q1033 NOSIG
ZBAA,2025-02-16 21:30,ZBAA 162130Z 36003MPS CAVOK M06/M22 Q1033 NOSIG
ZBAA,2025-02-16 22:00,ZBAA 162200Z 01004MPS CAVOK M06/M21 Q1033 NOSIG
ZBAA,2025-02-16 22:30,ZBAA 162230Z 36003MPS CAVOK M05/M21 Q1034 NOSIG
ZBAA,2025-02-16 23:00,ZBAA 162300Z 36002MPS CAVOK M06/M21 Q1034 NOSIG
ZBAA,2025-02-16 23:30,ZBAA 162330Z 36004MPS CAVOK M05/M19 Q1034 NOSIG
ZBAA,2025-02-17 00:00,ZBAA 170000Z 02002MPS CAVOK M02/M19 Q1035 NOSIG
ZBAA,2025-02-17 00:30,ZBAA 170030Z 02003MPS 350V050 CAVOK M01/M20 Q1035 NOSIG
ZBAA,2025-02-17 01:00,ZBAA 170100Z 03005MPS 360V060 CAVOK M01/M20 Q1035 NOSIG
ZBAA,2025-02-17 01:30,ZBAA 170130Z 03005MPS 360V070 CAVOK 01/M23 Q1035 NOSIG
ZBAA,2025-02-17 02:00,ZBAA 170200Z 03004MPS 340V080 CAVOK 02/M23 Q1035 NOSIG
ZBAA,2025-02-17 02:30,ZBAA 170230Z 02003MPS 330V060 CAVOK 02/M23 Q1035 NOSIG
ZBAA,2025-02-17 03:00,ZBAA 170300Z 02004MPS 350V050 CAVOK 03/M24 Q1035 NOSIG
ZBAA,2025-02-17 03:30,ZBAA 170330Z 04003MPS 350V100 CAVOK 03/M24 Q1034 NOSIG
ZBAA,2025-02-17 04:00,ZBAA 170400Z 06003MPS 020V090 CAVOK 03/M25 Q1034 NOSIG
ZBAA,2025-02-17 04:30,ZBAA 170430Z 04003MPS 340V120 CAVOK 04/M24 Q1033 NOSIG
ZBAA,2025-02-17 05:00,ZBAA 170500Z 05003MPS 360V090 CAVOK 04/M25 Q1032 NOSIG
ZBAA,2025-02-17 05:30,ZBAA 170530Z VRB03MPS CAVOK 05/M25 Q1032 NOSIG
ZBAA,2025-02-17 06:00,ZBAA 170600Z VRB03MPS CAVOK 06/M24 Q1031 NOSIG
ZBAA,2025-02-17 06:30,ZBAA 170630Z VRB01MPS CAVOK 05/M24 Q1030 NOSIG
ZBAA,2025-02-17 07:00,ZBAA 170700Z VRB01MPS CAVOK 06/M24 Q1030 NOSIG
ZBAA,2025-02-17 07:30,ZBAA 170730Z 27002MPS 230V320 CAVOK 05/M25 Q1030 NOSIG
ZBAA,2025-02-17 08:00,ZBAA 170800Z 29002MPS 250V340 CAVOK 05/M24 Q1029 NOSIG
ZBAA,2025-02-17 08:30,ZBAA 170830Z VRB02MPS CAVOK 05/M24 Q1029 NOSIG
ZBAA,2025-02-17 09:00,ZBAA 170900Z 22002MPS 190V260 CAVOK 04/M25 Q1029 NOSIG
ZBAA,2025-02-17 09:30,ZBAA 170930Z 20002MPS 170V260 CAVOK 04/M24 Q1029 NOSIG
ZBAA,2025-02-17 10:00,ZBAA 171000Z 17002MPS 130V220 CAVOK 02/M24 Q1029 NOSIG
ZBAA,2025-02-17 10:30,ZBAA 171030Z 17001MPS CAVOK M01/M22 Q1029 NOSIG
ZBAA,2025-02-17 11:00,ZBAA 171100Z 17001MPS CAVOK M02/M21 Q1030 NOSIG
ZBAA,2025-02-17 11:30,ZBAA 171130Z 17001MPS CAVOK M03/M21 Q1030 NOSIG
ZBAA,2025-02-17 12:00,ZBAA 171200Z 18001MPS CAVOK M03/M21 Q1030 NOSIG
ZBAA,2025-02-17 12:30,ZBAA 171230Z VRB01MPS CAVOK M04/M20 Q1030 NOSIG
ZBAA,2025-02-17 13:00,ZBAA 171300Z 00000MPS CAVOK M05/M19 Q1030 NOSIG
ZBAA,2025-02-17 13:30,ZBAA 171330Z VRB01MPS CAVOK M05/M19 Q1030 NOSIG
ZBAA,2025-02-17 14:00,ZBAA 171400Z 11001MPS CAVOK M05/M19 Q1030 NOSIG
ZBAA,2025-02-17 14:30,ZBAA 171430Z 10001MPS CAVOK M07/M19 Q1030 NOSIG
ZBAA,2025-02-17 15:00,ZBAA 171500Z 00000MPS CAVOK M06/M18 Q1030 NOSIG
ZBAA,2025-02-17 15:30,ZBAA 171530Z 07001MPS CAVOK M07/M18 Q1030 NOSIG
ZBAA,2025-02-17 16:00,ZBAA 171600Z 00000MPS CAVOK M07/M18 Q1030 NOSIG
ZBAA,2025-02-17 16:30,ZBAA 171630Z VRB01MPS CAVOK M07/M18 Q1030 NOSIG
ZBAA,2025-02-17 17:00,ZBAA 171700Z 10001MPS CAVOK M07/M18 Q1030 NOSIG
ZBAA,2025-02-17 17:30,ZBAA 171730Z 16002MPS CAVOK M07/M18 Q1030 NOSIG
ZBAA,2025-02-17 18:00,ZBAA 171800Z 16002MPS CAVOK M07/M18 Q1030 NOSIG
ZBAA,2025-02-17 18:30,ZBAA 171830Z VRB01MPS CAVOK M08/M17 Q1030 NOSIG
ZBAA,2025-02-17 19:00,ZBAA 171900Z 02001MPS CAVOK M08/M16 Q1030 NOSIG
ZBAA,2025-02-17 19:30,ZBAA 171930Z 35002MPS CAVOK M06/M17 Q1030 NOSIG
ZBAA,2025-02-17 20:00,ZBAA 172000Z 36001MPS CAVOK M08/M17 Q1030 NOSIG
ZBAA,2025-02-17 20:30,ZBAA 172030Z 01002MPS CAVOK M09/M17 Q1030 NOSIG
ZBAA,2025-02-17 21:00,ZBAA 172100Z 10001MPS CAVOK M09/M17 Q1030 NOSIG
ZBAA,2025-02-17 21:30,ZBAA 172130Z 02001MPS CAVOK M09/M17 Q1030 NOSIG
ZBAA,2025-02-17 22:00,ZBAA 172200Z 35002MPS CAVOK M09/M17 Q1030 NOSIG
ZBAA,2025-02-17 22:30,ZBAA 172230Z 34002MPS 310V010 CAVOK M08/M17 Q1030 NOSIG
ZBAA,2025-02-17 23:00,ZBAA 172300Z 01001MPS CAVOK M10/M18 Q1030 NOSIG
ZBAA,2025-02-17 23:30,ZBAA 172330Z 36002MPS CAVOK M09/M17 Q1031 NOSIG
ZBAA,2025-02-18 00:00,ZBAA 180000Z 36002MPS CAVOK M05/M13 Q1032 NOSIG
ZBAA,2025-02-18 00:30,ZBAA 180030Z 02002MPS 350V070 CAVOK M03/M15 Q1032 NOSIG
ZBAA,2025-02-18 01:00,ZBAA 180100Z 06002MPS 360V100 CAVOK M01/M15 Q1032 NOSIG
ZBAA,2025-02-18 01:30,ZBAA 180130Z 05002MPS 010V100 CAVOK 01/M18 Q1032 NOSIG
ZBAA,2025-02-18 02:00,ZBAA 180200Z 02003MPS 350V050 CAVOK 01/M19 Q1032 NOSIG
ZBAA,2025-02-18 02:30,ZBAA 180230Z 04004MPS 320V070 CAVOK 03/M21 Q1032 NOSIG
ZBAA,2025-02-18 03:00,ZBAA 180300Z 35005MPS 320V020 CAVOK 05/M21 Q1032 NOSIG
ZBAA,2025-02-18 03:30,ZBAA 180330Z 03003MPS 350V100 CAVOK 05/M20 Q1032 NOSIG
ZBAA,2025-02-18 04:00,ZBAA 180400Z 02004MPS 340V100 CAVOK 06/M21 Q1031 NOSIG
ZBAA,2025-02-18 04:30,ZBAA 180430Z 07002MPS 350V150 CAVOK 05/M21 Q1031 NOSIG
ZBAA,2025-02-18 05:00,ZBAA 180500Z 06003MPS 340V140 CAVOK 05/M22 Q1030 NOSIG
ZBAA,2025-02-18 05:30,ZBAA 180530Z VRB02MPS CAVOK 07/M21 Q1030 NOSIG
ZBAA,2025-02-18 06:00,ZBAA 180600Z VRB02MPS CAVOK 06/M22 Q1030 NOSIG
ZBAA,2025-02-18 06:30,ZBAA 180630Z VRB02MPS CAVOK 07/M21 Q1029 NOSIG
ZBAA,2025-02-18 07:00,ZBAA 180700Z 02002MPS 330V080 CAVOK 06/M22 Q1029 NOSIG
ZBAA,2025-02-18 07:30,ZBAA 180730Z 01003MPS 320V090 CAVOK 07/M22 Q1029 NOSIG
ZBAA,2025-02-18 08:00,ZBAA 180800Z 05003MPS 360V150 CAVOK 07/M21 Q1029 NOSIG
ZBAA,2025-02-18 08:30,ZBAA 180830Z 04002MPS 010V080 CAVOK 07/M21 Q1029 NOSIG
ZBAA,2025-02-18 09:00,ZBAA 180900Z 01002MPS 310V070 CAVOK 06/M22 Q1029 NOSIG
ZBAA,2025-02-18 09:30,ZBAA 180930Z 02002MPS 360V060 CAVOK 05/M22 Q1029 NOSIG
ZBAA,2025-02-18 10:00,ZBAA 181000Z 04002MPS CAVOK 02/M21 Q1030 NOSIG
ZBAA,2025-02-18 10:30,ZBAA 181030Z 01002MPS CAVOK M01/M20 Q1031 NOSIG
ZBAA,2025-02-18 11:00,ZBAA 181100Z 36003MPS CAVOK M03/M19 Q1031 NOSIG
ZBAA,2025-02-18 11:30,ZBAA 181130Z 01002MPS CAVOK M02/M19 Q1032 NOSIG
ZBAA,2025-02-18 12:00,ZBAA 181200Z 02003MPS CAVOK 00/M22 Q1032 NOSIG
ZBAA,2025-02-18 12:30,ZBAA 181230Z 02004MPS CAVOK 02/M25 Q1032 NOSIG
ZBAA,2025-02-18 13:00,ZBAA 181300Z 02003MPS 340V040 CAVOK 01/M24 Q1033 NOSIG
ZBAA,2025-02-18 13:30,ZBAA 181330Z 03003MPS CAVOK 02/M24 Q1033 NOSIG
ZBAA,2025-02-18 14:00,ZBAA 181400Z 02003MPS CAVOK 00/M24 Q1033 NOSIG
ZBAA,2025-02-18 14:30,ZBAA 181430Z 01003MPS CAVOK M02/M22 Q1033 NOSIG
ZBAA,2025-02-18 15:00,ZBAA 181500Z 02003MPS 350V050 CAVOK 01/M24 Q1034 NOSIG
ZBAA,2025-02-18 15:30,ZBAA 181530Z 04003MPS CAVOK 00/M24 Q1034 NOSIG
ZBAA,2025-02-18 16:00,ZBAA 181600Z 04003MPS CAVOK M00/M21 Q1034 NOSIG
ZBAA,2025-02-18 16:30,ZBAA 181630Z 02003MPS 360V060 CAVOK M01/M21 Q1034 NOSIG
ZBAA,2025-02-18 17:00,ZBAA 181700Z VRB01MPS CAVOK M02/M20 Q1035 NOSIG
ZBAA,2025-02-18 17:30,ZBAA 181730Z 05003MPS 010V070 CAVOK M02/M20 Q1035 NOSIG
ZBAA,2025-02-18 18:00,ZBAA 181800Z 05002MPS CAVOK M02/M20 Q1035 NOSIG
ZBAA,2025-02-18 18:30,ZBAA 181830Z 07002MPS CAVOK M04/M19 Q1035 NOSIG
ZBAA,2025-02-18 19:00,ZBAA 181900Z VRB02MPS CAVOK M01/M19 Q1035 NOSIG
ZBAA,2025-02-18 19:30,ZBAA 181930Z VRB01MPS CAVOK M04/M20 Q1034 NOSIG
ZBAA,2025-02-18 20:00,ZBAA 182000Z VRB01MPS CAVOK M06/M20 Q1034 NOSIG
ZBAA,2025-02-18 20:30,ZBAA 182030Z 00000MPS CAVOK M07/M19 Q1034 NOSIG
ZBAA,2025-02-18 21:00,ZBAA 182100Z 21001MPS CAVOK M08/M19 Q1034 NOSIG
ZBAA,2025-02-18 21:30,ZBAA 182130Z 00000MPS CAVOK M09/M19 Q1034 NOSIG
ZBAA,2025-02-18 22:00,ZBAA 182200Z 00000MPS CAVOK M08/M19 Q1034 NOSIG
ZBAA,2025-02-18 22:30,ZBAA 182230Z VRB01MPS CAVOK M08/M18 Q1035 NOSIG
ZBAA,2025-02-18 23:00,ZBAA 182300Z 07002MPS CAVOK M08/M16 Q1035 NOSIG
ZBAA,2025-02-18 23:30,ZBAA 182330Z 07001MPS CAVOK M08/M16 Q1035 NOSIG
ZBAA,2025-02-19 00:00,ZBAA 190000Z VRB01MPS CAVOK M05/M15 Q1035 NOSIG
ZBAA,2025-02-19 00:30,ZBAA 190030Z 34002MPS CAVOK M02/M15 Q1036 NOSIG
ZBAA,2025-02-19 01:00,ZBAA 190100Z 01003MPS CAVOK M01/M16 Q1036 NOSIG
ZBAA,2025-02-19 01:30,ZBAA 190130Z VRB01MPS CAVOK 01/M19 Q1036 NOSIG
ZBAA,2025-02-19 02:00,ZBAA 190200Z VRB01MPS CAVOK 02/M19 Q1035 NOSIG
ZBAA,2025-02-19 02:30,ZBAA 190230Z VRB01MPS CAVOK 03/M19 Q1035 NOSIG
ZBAA,2025-02-19 03:00,ZBAA 190300Z 34003MPS 290V040 CAVOK 04/M21 Q1035 NOSIG
ZBAA,2025-02-19 03:30,ZBAA 190330Z 02003MPS 300V080 CAVOK 04/M20 Q1034 NOSIG
ZBAA,2025-02-19 04:00,ZBAA 190400Z VRB02MPS CAVOK 05/M19 Q1034 NOSIG
ZBAA,2025-02-19 04:30,ZBAA 190430Z VRB02MPS CAVOK 06/M21 Q1033 NOSIG
ZBAA,2025-02-19 05:00,ZBAA 190500Z VRB01MPS CAVOK 06/M21 Q1033 NOSIG
ZBAA,2025-02-19 05:30,ZBAA 190530Z VRB02MPS CAVOK 06/M21 Q1032 NOSIG
ZBAA,2025-02-19 06:00,ZBAA 190600Z VRB02MPS CAVOK 06/M21 Q1031 NOSIG
ZBAA,2025-02-19 06:30,ZBAA 190630Z VRB02MPS CAVOK 07/M20 Q1031 NOSIG
ZBAA,2025-02-19 07:00,ZBAA 190700Z VRB01MPS CAVOK 07/M21 Q1031 NOSIG
ZBAA,2025-02-19 07:30,ZBAA 190730Z VRB02MPS CAVOK 07/M21 Q1031 NOSIG
ZBAA,2025-02-19 08:00,ZBAA 190800Z 35002MPS 290V070 CAVOK 07/M22 Q1031 NOSIG
ZBAA,2025-02-19 08:30,ZBAA 190830Z VRB02MPS CAVOK 07/M21 Q1030 NOSIG
ZBAA,2025-02-19 09:00,ZBAA 190900Z VRB01MPS CAVOK 06/M21 Q1031 NOSIG
ZBAA,2025-02-19 09:30,ZBAA 190930Z VRB01MPS CAVOK 04/M21 Q1031 NOSIG
ZBAA,2025-02-19 10:00,ZBAA 191000Z 08001MPS CAVOK 02/M21 Q1031 NOSIG
ZBAA,2025-02-19 10:30,ZBAA 191030Z VRB01MPS CAVOK M01/M18 Q1032 NOSIG
ZBAA,2025-02-19 11:00,ZBAA 191100Z 06001MPS CAVOK M02/M19 Q1032 NOSIG
ZBAA,2025-02-19 11:30,ZBAA 191130Z 00000MPS CAVOK M01/M18 Q1032 NOSIG
ZBAA,2025-02-19 12:00,ZBAA 191200Z VRB01MPS CAVOK M04/M18 Q1032 NOSIG
ZBAA,2025-02-19 12:30,ZBAA 191230Z 04001MPS CAVOK M04/M16 Q1033 NOSIG
ZBAA,2025-02-19 13:00,ZBAA 191300Z 04003MPS CAVOK M05/M16 Q1033 NOSIG
ZBAA,2025-02-19 13:30,ZBAA 191330Z 05003MPS CAVOK 00/M20 Q1033 NOSIG
ZBAA,2025-02-19 14:00,ZBAA 191400Z 04002MPS CAVOK M02/M18 Q1034 NOSIG
ZBAA,2025-02-19 14:30,ZBAA 191430Z 04002MPS CAVOK M02/M18 Q1034 NOSIG
ZBAA,2025-02-19 15:00,ZBAA 191500Z 04002MPS CAVOK M02/M19 Q1034 NOSIG
ZBAA,2025-02-19 15:30,ZBAA 191530Z 04003MPS 360V060 CAVOK 01/M22 Q1034 NOSIG
ZBAA,2025-02-19 16:00,ZBAA 191600Z 04002MPS 010V070 CAVOK 00/M22 Q1034 NOSIG
ZBAA,2025-02-19 16:30,ZBAA 191630Z 05002MPS CAVOK M00/M20 Q1034 NOSIG
ZBAA,2025-02-19 17:00,ZBAA 191700Z 03002MPS CAVOK M01/M20 Q1034 NOSIG
ZBAA,2025-02-19 17:30,ZBAA 191730Z 01003MPS CAVOK M03/M19 Q1034 NOSIG
ZBAA,2025-02-19 18:00,ZBAA 191800Z 05003MPS 020V080 CAVOK M01/M19 Q1035 NOSIG
ZBAA,2025-02-19 18:30,ZBAA 191830Z 04002MPS CAVOK M01/M19 Q1035 NOSIG
ZBAA,2025-02-19 19:00,ZBAA 191900Z VRB01MPS CAVOK M02/M19 Q1035 NOSIG
ZBAA,2025-02-19 19:30,ZBAA 191930Z VRB01MPS CAVOK M03/M20 Q1035 NOSIG
ZBAA,2025-02-19 20:00,ZBAA 192000Z VRB01MPS CAVOK M05/M19 Q1035 NOSIG
ZBAA,2025-02-19 20:30,ZBAA 192030Z 04001MPS CAVOK M07/M19 Q1035 NOSIG
ZBAA,2025-02-19 21:00,ZBAA 192100Z VRB01MPS CAVOK M07/M19 Q1035 NOSIG
ZBAA,2025-02-19 21:30,ZBAA 192130Z 05001MPS CAVOK M08/M19 Q1036 NOSIG
ZBAA,2025-02-19 22:00,ZBAA 192200Z 00000MPS CAVOK M07/M18 Q1036 NOSIG
ZBAA,2025-02-19 22:30,ZBAA 192230Z 02001MPS CAVOK M09/M19 Q1036 NOSIG
ZBAA,2025-02-19 23:00,ZBAA 192300Z VRB01MPS CAVOK M10/M19 Q1036 NOSIG
ZBAA,2025-02-19 23:30,ZBAA 192330Z 36002MPS CAVOK M08/M17 Q1036 NOSIG
ZBAA,2025-02-20 00:00,ZBAA 200000Z 01002MPS 330V030 CAVOK M03/M17 Q1037 NOSIG
ZBAA,2025-02-20 00:30,ZBAA 200030Z 34002MPS CAVOK M00/M17 Q1037 NOSIG
ZBAA,2025-02-20 01:00,ZBAA 200100Z 36002MPS CAVOK 00/M20 Q1037 NOSIG
ZBAA,2025-02-20 01:30,ZBAA 200130Z 36002MPS 310V040 CAVOK 01/M20 Q1037 NOSIG
ZBAA,2025-02-20 02:00,ZBAA 200200Z 32002MPS 290V030 CAVOK 01/M20 Q1036 NOSIG
ZBAA,2025-02-20 02:30,ZBAA 200230Z VRB02MPS CAVOK 02/M20 Q1036 NOSIG
ZBAA,2025-02-20 03:00,ZBAA 200300Z VRB02MPS CAVOK 03/M20 Q1036 NOSIG
ZBAA,2025-02-20 03:30,ZBAA 200330Z 31003MPS 260V350 CAVOK 03/M20 Q1036 NOSIG
ZBAA,2025-02-20 04:00,ZBAA 200400Z 32003MPS 280V020 CAVOK 04/M20 Q1035 NOSIG
ZBAA,2025-02-20 04:30,ZBAA 200430Z 31003MPS 260V360 CAVOK 05/M19 Q1035 NOSIG
ZBAA,2025-02-20 05:00,ZBAA 200500Z 35002MPS 250V030 CAVOK 05/M19 Q1034 NOSIG
ZBAA,2025-02-20 05:30,ZBAA 200530Z 29004MPS 260V340 CAVOK 05/M20 Q1034 NOSIG
ZBAA,2025-02-20 06:00,ZBAA 200600Z 31006MPS CAVOK 06/M21 Q1033 NOSIG
ZBAA,2025-02-20 06:30,ZBAA 200630Z 27004MPS 180V330 CAVOK 05/M20 Q1033 NOSIG
ZBAA,2025-02-20 07:00,ZBAA 200700Z 31006G11MPS 270V330 CAVOK 06/M21 Q1032 NOSIG
ZBAA,2025-02-20 07:30,ZBAA 200730Z 28004MPS 250V310 CAVOK 06/M21 Q1032 NOSIG
ZBAA,2025-02-20 08:00,ZBAA 200800Z 30007MPS CAVOK 06/M22 Q1032 BECMG TL0940 36002MPS
ZBAA,2025-02-20 08:30,ZBAA 200830Z 29006MPS CAVOK 06/M22 Q1032 NOSIG
ZBAA,2025-02-20 09:00,COR ZBAA 200900Z 30006MPS 260V330 CAVOK 06/M22 Q1032 BECMG TL1040 36002MPS
ZBAA,2025-02-20 09:30,ZBAA 200930Z 31006MPS CAVOK 05/M22 Q1032 NOSIG
ZBAA,2025-02-20 10:00,ZBAA 201000Z 33006MPS CAVOK 04/M23 Q1032 BECMG TL1140 03002MPS
ZBAA,2025-02-20 10:30,ZBAA 201030Z 01003MPS CAVOK 00/M23 Q1033 NOSIG
ZBAA,2025-02-20 11:00,ZBAA 201100Z 36003MPS CAVOK M00/M21 Q1033 NOSIG
ZBAA,2025-02-20 11:30,ZBAA 201130Z 35003MPS CAVOK M02/M21 Q1034 NOSIG
ZBAA,2025-02-20 12:00,ZBAA 201200Z 01003MPS CAVOK M01/M19 Q1034 NOSIG
ZBAA,2025-02-20 12:30,ZBAA 201230Z 02003MPS CAVOK M01/M20 Q1034 NOSIG
ZBAA,2025-02-20 13:00,ZBAA 201300Z 05002MPS CAVOK M01/M20 Q1035 NOSIG
ZBAA,2025-02-20 13:30,ZBAA 201330Z 05002MPS CAVOK 01/M23 Q1035 NOSIG
ZBAA,2025-02-20 14:00,ZBAA 201400Z 06002MPS 030V090 CAVOK M01/M21 Q1035 NOSIG
ZBAA,2025-02-20 14:30,ZBAA 201430Z 02002MPS CAVOK M01/M21 Q1035 NOSIG
ZBAA,2025-02-20 15:00,ZBAA 201500Z 01003MPS CAVOK M04/M21 Q1035 NOSIG
ZBAA,2025-02-20 15:30,ZBAA 201530Z 03004MPS CAVOK M01/M20 Q1035 NOSIG
ZBAA,2025-02-20 16:00,ZBAA 201600Z 03003MPS 360V060 CAVOK M01/M20 Q1035 NOSIG
ZBAA,2025-02-20 16:30,ZBAA 201630Z 05003MPS 020V080 CAVOK M01/M20 Q1035 NOSIG
ZBAA,2025-02-20 17:00,ZBAA 201700Z 05003MPS CAVOK M02/M20 Q1035 NOSIG
ZBAA,2025-02-20 17:30,ZBAA 201730Z 04003MPS 010V070 CAVOK M02/M21 Q1035 NOSIG
ZBAA,2025-02-20 18:00,ZBAA 201800Z 03004MPS CAVOK M02/M20 Q1035 NOSIG
ZBAA,2025-02-20 18:30,ZBAA 201830Z 04004MPS CAVOK M02/M20 Q1035 NOSIG
ZBAA,2025-02-20 19:00,ZBAA 201900Z 04004MPS CAVOK M02/M21 Q1035 NOSIG
ZBAA,2025-02-20 19:30,ZBAA 201930Z 04003MPS 010V070 CAVOK M02/M21 Q1035 NOSIG
ZBAA,2025-02-20 20:00,ZBAA 202000Z 04004MPS CAVOK M03/M20 Q1035 NOSIG
ZBAA,2025-02-20 20:30,ZBAA 202030Z 04003MPS 010V070 CAVOK M03/M20 Q1035 NOSIG
ZBAA,2025-02-20 21:00,ZBAA 202100Z 04003MPS CAVOK M03/M20 Q1035 NOSIG
ZBAA,2025-02-20 21:30,ZBAA 202130Z 03002MPS 360V070 CAVOK M04/M20 Q1035 NOSIG
ZBAA,2025-02-20 22:00,ZBAA 202200Z 04004MPS 010V070 CAVOK M03/M20 Q1035 NOSIG
ZBAA,2025-02-20 22:30,ZBAA 202230Z 03004MPS 010V070 CAVOK M03/M20 Q1035 NOSIG
ZBAA,2025-02-20 23:00,ZBAA 202300Z 04005MPS CAVOK M03/M20 Q1036 NOSIG
ZBAA,2025-02-20 23:30,ZBAA 202330Z 03003MPS CAVOK M03/M20 Q1037 NOSIG
ZBAA,2025-02-21 00:00,ZBAA 210000Z 03004MPS 360V070 CAVOK M03/M19 Q1037 NOSIG
ZBAA,2025-02-21 00:30,ZBAA 210030Z 03004MPS 360V060 CAVOK M03/M20 Q1037 NOSIG
ZBAA,2025-02-21 01:00,ZBAA 210100Z 03004MPS 340V070 CAVOK M02/M20 Q1037 NOSIG
ZBAA,2025-02-21 01:30,ZBAA 210130Z 02004MPS CAVOK M02/M19 Q1037 NOSIG
ZBAA,2025-02-21 02:00,ZBAA 210200Z 03004MPS 360V070 CAVOK M01/M20 Q1037 NOSIG
ZBAA,2025-02-21 02:30,ZBAA 210230Z 05004MPS 010V080 CAVOK M00/M19 Q1037 NOSIG
ZBAA,2025-02-21 03:00,ZBAA 210300Z 02003MPS 360V060 CAVOK 01/M21 Q1037 NOSIG
ZBAA,2025-02-21 03:30,ZBAA 210330Z 01002MPS 300V110 CAVOK 02/M20 Q1036 NOSIG
ZBAA,2025-02-21 04:00,ZBAA 210400Z 31002MPS 260V350 CAVOK 01/M20 Q1036 NOSIG
ZBAA,2025-02-21 04:30,ZBAA 210430Z 29003MPS 250V360 CAVOK 02/M19 Q1035 NOSIG
ZBAA,2025-02-21 05:00,ZBAA 210500Z VRB02MPS CAVOK 03/M19 Q1035 NOSIG
ZBAA,2025-02-21 05:30,ZBAA 210530Z 29002MPS 220V020 CAVOK 02/M18 Q1034 NOSIG
ZBAA,2025-02-21 06:00,ZBAA 210600Z 03002MPS 320V130 CAVOK 04/M18 Q1034 NOSIG
ZBAA,2025-02-21 06:30,ZBAA 210630Z VRB01MPS CAVOK 04/M17 Q1033 NOSIG
ZBAA,2025-02-21 07:00,ZBAA 210700Z 19002MPS 090V240 CAVOK 04/M17 Q1033 NOSIG
ZBAA,2025-02-21 07:30,ZBAA 210730Z 05003MPS 330V120 CAVOK 04/M17 Q1033 NOSIG
ZBAA,2025-02-21 08:00,ZBAA 210800Z 06003MPS 040V100 CAVOK 04/M17 Q1033 NOSIG
ZBAA,2025-02-21 08:30,ZBAA 210830Z 07002MPS 020V100 CAVOK 04/M17 Q1033 NOSIG
ZBAA,2025-02-21 09:00,ZBAA 210900Z 08002MPS CAVOK 03/M18 Q1033 NOSIG
ZBAA,2025-02-21 09:30,ZBAA 210930Z 07003MPS 020V100 CAVOK 02/M18 Q1033 NOSIG
ZBAA,2025-02-21 10:00,ZBAA 211000Z 09002MPS 060V120 CAVOK 02/M19 Q1034 NOSIG
ZBAA,2025-02-21 10:30,ZBAA 211030Z VRB01MPS CAVOK 00/M19 Q1034 NOSIG
ZBAA,2025-02-21 11:00,ZBAA 211100Z 08001MPS CAVOK M03/M18 Q1035 NOSIG
ZBAA,2025-02-21 11:30,ZBAA 211130Z 05001MPS CAVOK M04/M16 Q1035 NOSIG
ZBAA,2025-02-21 12:00,ZBAA 211200Z 01001MPS CAVOK M05/M16 Q1035 NOSIG
ZBAA,2025-02-21 12:30,ZBAA 211230Z VRB01MPS CAVOK M04/M16 Q1036 NOSIG
ZBAA,2025-02-21 13:00,ZBAA 211300Z 05002MPS 020V090 CAVOK M04/M18 Q1037 NOSIG
ZBAA,2025-02-21 13:30,ZBAA 211330Z 04002MPS CAVOK M02/M19 Q1037 NOSIG
ZBAA,2025-02-21 14:00,ZBAA 211400Z 04003MPS CAVOK M01/M19 Q1037 NOSIG
ZBAA,2025-02-21 14:30,ZBAA 211430Z 05003MPS CAVOK M01/M19 Q1038 NOSIG
ZBAA,2025-02-21 15:00,ZBAA 211500Z 04004MPS 010V070 CAVOK M01/M19 Q1038 NOSIG
ZBAA,2025-02-21 15:30,ZBAA 211530Z 03003MPS 360V060 CAVOK M02/M19 Q1038 NOSIG
ZBAA,2025-02-21 16:00,ZBAA 211600Z 02004MPS CAVOK M02/M19 Q1038 NOSIG
ZBAA,2025-02-21 16:30,ZBAA 211630Z 03004MPS 360V060 CAVOK M02/M19 Q1039 NOSIG
ZBAA,2025-02-21 17:00,ZBAA 211700Z 03004MPS 010V070 CAVOK M03/M19 Q1039 NOSIG
ZBAA,2025-02-21 17:30,ZBAA 211730Z 04004MPS 010V070 CAVOK M03/M19 Q1039 NOSIG
ZBAA,2025-02-21 18:00,ZBAA 211800Z 04004MPS 360V060 CAVOK M03/M19 Q1039 NOSIG
ZBAA,2025-02-21 18:30,ZBAA 211830Z 03004MPS 360V060 CAVOK M03/M19 Q1039 NOSIG
ZBAA,2025-02-21 19:00,ZBAA 211900Z 02004MPS CAVOK M04/M19 Q1039 NOSIG
ZBAA,2025-02-21 19:30,ZBAA 211930Z 03002MPS 360V060 CAVOK M04/M19 Q1039 NOSIG
ZBAA,2025-02-21 20:00,ZBAA 212000Z 03003MPS 360V070 CAVOK M04/M19 Q1039 NOSIG
ZBAA,2025-02-21 20:30,ZBAA 212030Z 03002MPS CAVOK M05/M19 Q1039 NOSIG
ZBAA,2025-02-21 21:00,ZBAA 212100Z 01002MPS CAVOK M08/M20 Q1039 NOSIG
ZBAA,2025-02-21 21:30,ZBAA 212130Z 36003MPS CAVOK M08/M19 Q1039 NOSIG
ZBAA,2025-02-21 22:00,ZBAA 212200Z 34003MPS CAVOK M08/M19 Q1039 NOSIG
ZBAA,2025-02-21 22:30,ZBAA 212230Z 31002MPS CAVOK M08/M19 Q1039 NOSIG
ZBAA,2025-02-21 23:00,ZBAA 212300Z 35003MPS CAVOK M09/M19 Q1039 NOSIG
ZBAA,2025-02-21 23:30,ZBAA 212330Z 01003MPS CAVOK M09/M19 Q1039 NOSIG
ZBAA,2025-02-22 00:00,ZBAA 220000Z 01002MPS CAVOK M04/M17 Q1040 NOSIG
ZBAA,2025-02-22 00:30,ZBAA 220030Z 36002MPS CAVOK M02/M17 Q1040 NOSIG
ZBAA,2025-02-22 01:00,ZBAA 220100Z 36002MPS 320V020 CAVOK M01/M18 Q1040 NOSIG
ZBAA,2025-02-22 01:30,ZBAA 220130Z 34003MPS 290V010 CAVOK M01/M19 Q1040 NOSIG
ZBAA,2025-02-22 02:00,ZBAA 220200Z 35003MPS CAVOK 01/M21 Q1040 NOSIG
ZBAA,2025-02-22 02:30,ZBAA 220230Z 35002MPS 230V020 CAVOK 01/M22 Q1040 NOSIG
ZBAA,2025-02-22 03:00,ZBAA 220300Z 33003MPS 270V020 CAVOK 02/M22 Q1039 NOSIG
ZBAA,2025-02-22 03:30,ZBAA 220330Z 28002MPS 170V330 CAVOK 01/M22 Q1039 NOSIG
ZBAA,2025-02-22 04:00,ZBAA 220400Z 25002MPS 170V320 CAVOK 02/M22 Q1038 NOSIG
ZBAA,2025-02-22 04:30,ZBAA 220430Z 30004G09MPS 240V030 CAVOK 03/M23 Q1038 NOSIG
ZBAA,2025-02-22 05:00,ZBAA 220500Z 30003G08MPS 270V350 CAVOK 03/M23 Q1037 NOSIG
ZBAA,2025-02-22 05:30,ZBAA 220530Z 30005MPS 260V360 CAVOK 03/M24 Q1036 NOSIG
ZBAA,2025-02-22 06:00,ZBAA 220600Z 28004MPS 230V030 CAVOK 03/M24 Q1036 NOSIG
ZBAA,2025-02-22 06:30,ZBAA 220630Z 28007G12MPS 260V320 CAVOK 04/M23 Q1035 NOSIG
ZBAA,2025-02-22 07:00,ZBAA 220700Z 28007MPS 270V330 CAVOK 04/M23 Q1035 NOSIG
ZBAA,2025-02-22 07:30,ZBAA 220730Z 28006G11MPS 260V320 CAVOK 04/M23 Q1035 NOSIG
ZBAA,2025-02-22 08:00,ZBAA 220800Z 27006G11MPS CAVOK 04/M24 Q1034 NOSIG
ZBAA,2025-02-22 08:30,ZBAA 220830Z 30005MPS 270V330 CAVOK 04/M24 Q1034 NOSIG
ZBAA,2025-02-22 09:00,ZBAA 220900Z 29005MPS CAVOK 03/M24 Q1034 NOSIG
ZBAA,2025-02-22 09:30,ZBAA 220930Z 33005MPS CAVOK 03/M23 Q1035 NOSIG
ZBAA,2025-02-22 10:00,ZBAA 221000Z 33003MPS 290V350 CAVOK 02/M23 Q1035 NOSIG
ZBAA,2025-02-22 10:30,ZBAA 221030Z 33004MPS 300V020 CAVOK 02/M24 Q1035 NOSIG
ZBAA,2025-02-22 11:00,ZBAA 221100Z 00000MPS CAVOK 01/M23 Q1036 BECMG TL1240 33006MPS
ZBAA,2025-02-22 11:30,ZBAA 221130Z 08001MPS CAVOK M02/M20 Q1036 NOSIG
ZBAA,2025-02-22 12:00,ZBAA 221200Z 05002MPS 030V090 CAVOK M02/M19 Q1036 BECMG TL1340 33006MPS
ZBAA,2025-02-22 12:30,ZBAA 221230Z 35002MPS CAVOK M02/M19 Q1037 NOSIG
ZBAA,2025-02-22 13:00,ZBAA 221300Z 34005MPS CAVOK 01/M22 Q1037 NOSIG
ZBAA,2025-02-22 13:30,ZBAA 221330Z 30007MPS CAVOK 00/M23 Q1038 NOSIG
ZBAA,2025-02-22 14:00,ZBAA 221400Z 30009MPS CAVOK M01/M21 Q1039 NOSIG
ZBAA,2025-02-22 14:30,ZBAA 221430Z 30009MPS CAVOK M01/M21 Q1039 NOSIG
ZBAA,2025-02-22 15:00,ZBAA 221500Z 30009MPS CAVOK M02/M19 Q1040 NOSIG
ZBAA,2025-02-22 15:30,ZBAA 221530Z 31009MPS CAVOK M02/M20 Q1040 NOSIG
ZBAA,2025-02-22 16:00,ZBAA 221600Z 32007MPS CAVOK M03/M21 Q1040 NOSIG
ZBAA,2025-02-22 16:30,ZBAA 221630Z 34005MPS CAVOK M04/M21 Q1041 NOSIG
ZBAA,2025-02-22 17:00,ZBAA 221700Z 34005MPS CAVOK M04/M21 Q1041 NOSIG
ZBAA,2025-02-22 17:30,ZBAA 221730Z 34005MPS CAVOK M05/M21 Q1041 NOSIG
ZBAA,2025-02-22 18:00,ZBAA 221800Z 33004MPS CAVOK M05/M20 Q1041 NOSIG
ZBAA,2025-02-22 18:30,ZBAA 221830Z 34004MPS CAVOK M05/M21 Q1041 NOSIG
ZBAA,2025-02-22 19:00,ZBAA 221900Z 32006MPS CAVOK M05/M21 Q1041 NOSIG
ZBAA,2025-02-22 19:30,ZBAA 221930Z 32005MPS CAVOK M05/M21 Q1041 NOSIG
ZBAA,2025-02-22 20:00,ZBAA 222000Z 34003MPS CAVOK M06/M21 Q1041 NOSIG
ZBAA,2025-02-22 20:30,ZBAA 222030Z 34004MPS CAVOK M06/M21 Q1041 NOSIG
ZBAA,2025-02-22 21:00,ZBAA 222100Z 35004MPS CAVOK M08/M21 Q1041 NOSIG
ZBAA,2025-02-22 21:30,ZBAA 222130Z 01003MPS CAVOK M08/M21 Q1041 NOSIG
ZBAA,2025-02-22 22:00,ZBAA 222200Z 02002MPS CAVOK M07/M21 Q1041 NOSIG
ZBAA,2025-02-22 22:30,ZBAA 222230Z VRB01MPS CAVOK M08/M21 Q1041 NOSIG
ZBAA,2025-02-22 23:00,ZBAA 222300Z 31003MPS 280V360 CAVOK M05/M20 Q1041 NOSIG
ZBAA,2025-02-22 23:30,ZBAA 222330Z 32005MPS CAVOK M05/M21 Q1041 NOSIG
ZBAA,2025-02-23 00:00,ZBAA 230000Z 32005MPS CAVOK M04/M21 Q1042 NOSIG
ZBAA,2025-02-23 00:30,ZBAA 230030Z 33007MPS CAVOK M02/M21 Q1042 NOSIG
ZBAA,2025-02-23 01:00,ZBAA 230100Z 34008MPS CAVOK M02/M22 Q1042 NOSIG
ZBAA,2025-02-23 01:30,ZBAA 230130Z 34009MPS CAVOK M01/M21 Q1042 NOSIG
ZBAA,2025-02-23 02:00,ZBAA 230200Z 34008MPS CAVOK M00/M21 Q1042 NOSIG
ZBAA,2025-02-23 02:30,ZBAA 230230Z 34009MPS CAVOK 00/M23 Q1042 NOSIG
ZBAA,2025-02-23 03:00,ZBAA 230300Z 34008MPS CAVOK 01/M23 Q1041 NOSIG
ZBAA,2025-02-23 03:30,ZBAA 230330Z 33008MPS CAVOK 02/M23 Q1041 NOSIG
ZBAA,2025-02-23 04:00,ZBAA 230400Z 30006G11MPS 270V330 CAVOK 01/M23 Q1040 NOSIG
ZBAA,2025-02-23 04:30,ZBAA 230430Z 29007G12MPS 250V320 CAVOK 02/M22 Q1039 NOSIG
ZBAA,2025-02-23 05:00,ZBAA 230500Z 30006G11MPS CAVOK 03/M22 Q1039 NOSIG
ZBAA,2025-02-23 05:30,ZBAA 230530Z 31005MPS 270V360 CAVOK 03/M23 Q1038 NOSIG
ZBAA,2025-02-23 06:00,ZBAA 230600Z 29006G11MPS 260V330 CAVOK 04/M22 Q1038 NOSIG
ZBAA,2025-02-23 06:30,ZBAA 230630Z 30008MPS CAVOK 04/M22 Q1037 NOSIG
ZBAA,2025-02-23 07:00,ZBAA 230700Z 29007MPS 260V330 CAVOK 04/M23 Q1037 NOSIG
ZBAA,2025-02-23 07:30,ZBAA 230730Z 31007MPS 280V340 CAVOK 05/M22 Q1037 NOSIG
ZBAA,2025-02-23 08:00,ZBAA 230800Z 29007MPS CAVOK 05/M22 Q1036 NOSIG
ZBAA,2025-02-23 08:30,ZBAA 230830Z 31006MPS CAVOK 05/M22 Q1036 NOSIG
ZBAA,2025-02-23 09:00,ZBAA 230900Z 31006MPS 280V350 CAVOK 05/M22 Q1036 NOSIG
ZBAA,2025-02-23 09:30,ZBAA 230930Z 29006MPS CAVOK 05/M23 Q1036 NOSIG
ZBAA,2025-02-23 10:00,ZBAA 231000Z 29005MPS CAVOK 04/M23 Q1036 NOSIG
ZBAA,2025-02-23 10:30,ZBAA 231030Z 28005MPS CAVOK 04/M22 Q1036 NOSIG
ZBAA,2025-02-23 11:00,ZBAA 231100Z 28006MPS CAVOK 03/M22 Q1036 NOSIG
ZBAA,2025-02-23 11:30,ZBAA 231130Z 27005MPS 250V320 CAVOK 03/M22 Q1036 NOSIG
ZBAA,2025-02-23 12:00,ZBAA 231200Z 28005MPS CAVOK 03/M22 Q1036 NOSIG
ZBAA,2025-02-23 12:30,ZBAA 231230Z 28004MPS CAVOK 02/M22 Q1037 NOSIG
ZBAA,2025-02-23 13:00,ZBAA 231300Z 29003MPS 260V330 CAVOK 02/M22 Q1037 NOSIG
ZBAA,2025-02-23 13:30,ZBAA 231330Z 31005MPS CAVOK 03/M22 Q1037 NOSIG
ZBAA,2025-02-23 14:00,ZBAA 231400Z 34004MPS 310V020 CAVOK 01/M22 Q1037 NOSIG
ZBAA,2025-02-23 14:30,ZBAA 231430Z 35003MPS 310V020 CAVOK M02/M20 Q1037 NOSIG
ZBAA,2025-02-23 15:00,ZBAA 231500Z VRB01MPS CAVOK M02/M20 Q1037 NOSIG
ZBAA,2025-02-23 15:30,ZBAA 231530Z 33003MPS 300V020 CAVOK M00/M20 Q1037 NOSIG
ZBAA,2025-02-23 16:00,ZBAA 231600Z VRB02MPS CAVOK M03/M19 Q1037 NOSIG
ZBAA,2025-02-23 16:30,ZBAA 231630Z 19002MPS CAVOK M05/M19 Q1037 NOSIG
ZBAA,2025-02-23 17:00,ZBAA 231700Z VRB01MPS CAVOK M05/M19 Q1037 NOSIG
ZBAA,2025-02-23 17:30,ZBAA 231730Z 36002MPS 340V060 CAVOK M06/M17 Q1036 NOSIG
ZBAA,2025-02-23 18:00,ZBAA 231800Z VRB01MPS CAVOK M08/M18 Q1036 NOSIG
ZBAA,2025-02-23 18:30,ZBAA 231830Z 00000MPS CAVOK M08/M18 Q1036 NOSIG
ZBAA,2025-02-23 19:00,ZBAA 231900Z VRB01MPS CAVOK M09/M18 Q1035 NOSIG
ZBAA,2025-02-23 19:30,ZBAA 231930Z 36001MPS CAVOK M09/M18 Q1035 NOSIG
ZBAA,2025-02-23 20:00,ZBAA 232000Z 17001MPS CAVOK M10/M18 Q1035 NOSIG
ZBAA,2025-02-23 20:30,ZBAA 232030Z 00000MPS CAVOK M08/M16 Q1035 NOSIG
ZBAA,2025-02-23 21:00,ZBAA 232100Z 34001MPS CAVOK M10/M17 Q1035 NOSIG
ZBAA,2025-02-23 21:30,ZBAA 232130Z VRB01MPS CAVOK M10/M17 Q1035 NOSIG
ZBAA,2025-02-23 22:00,ZBAA 232200Z VRB01MPS CAVOK M08/M18 Q1034 NOSIG
ZBAA,2025-02-23 22:30,ZBAA 232230Z VRB01MPS CAVOK M11/M18 Q1034 NOSIG
ZBAA,2025-02-23 23:00,ZBAA 232300Z 02002MPS CAVOK M10/M17 Q1034 NOSIG
ZBAA,2025-02-23 23:30,ZBAA 232330Z VRB01MPS CAVOK M10/M17 Q1035 NOSIG
ZBAA,2025-02-24 00:00,ZBAA 240000Z 00000MPS CAVOK M03/M14 Q1035 NOSIG
ZBAA,2025-02-24 00:30,ZBAA 240030Z 34003MPS CAVOK 00/M18 Q1035 NOSIG
ZBAA,2025-02-24 01:00,ZBAA 240100Z 35003MPS 320V020 CAVOK 02/M19 Q1035 NOSIG
ZBAA,2025-02-24 01:30,ZBAA 240130Z VRB01MPS CAVOK 02/M20 Q1034 NOSIG
ZBAA,2025-02-24 02:00,ZBAA 240200Z VRB01MPS CAVOK 03/M19 Q1034 NOSIG
ZBAA,2025-02-24 02:30,ZBAA 240230Z VRB01MPS CAVOK 04/M19 Q1034 NOSIG
ZBAA,2025-02-24 03:00,ZBAA 240300Z VRB01MPS CAVOK 05/M19 Q1033 NOSIG
ZBAA,2025-02-24 03:30,ZBAA 240330Z VRB01MPS CAVOK 07/M19 Q1033 NOSIG
ZBAA,2025-02-24 04:00,ZBAA 240400Z VRB02MPS CAVOK 07/M21 Q1032 BECMG TL0540 19005MPS
ZBAA,2025-02-24 04:30,ZBAA 240430Z VRB01MPS CAVOK 08/M20 Q1031 NOSIG
ZBAA,2025-02-24 05:00,ZBAA 240500Z 21002MPS 160V290 CAVOK 08/M21 Q1030 NOSIG
ZBAA,2025-02-24 05:30,ZBAA 240530Z 21003MPS 150V280 CAVOK 09/M21 Q1029 NOSIG
ZBAA,2025-02-24 06:00,ZBAA 240600Z 21003MPS 160V280 CAVOK 10/M22 Q1028 NOSIG
ZBAA,2025-02-24 06:30,ZBAA 240630Z 23005MPS 160V270 CAVOK 09/M22 Q1028 NOSIG
ZBAA,2025-02-24 07:00,ZBAA 240700Z 19004MPS 140V250 CAVOK 10/M23 Q1027 NOSIG
ZBAA,2025-02-24 07:30,ZBAA 240730Z 19006MPS CAVOK 09/M23 Q1027 NOSIG
ZBAA,2025-02-24 08:00,ZBAA 240800Z 21006MPS CAVOK 09/M24 Q1027 NOSIG
ZBAA,2025-02-24 08:30,ZBAA 240830Z 20004MPS 170V240 CAVOK 09/M23 Q1026 NOSIG
ZBAA,2025-02-24 09:00,ZBAA 240900Z 22003MPS 190V250 CAVOK 09/M24 Q1026 NOSIG
ZBAA,2025-02-24 09:30,ZBAA 240930Z 21003MPS CAVOK 08/M23 Q1026 NOSIG
ZBAA,2025-02-24 10:00,ZBAA 241000Z 17002MPS CAVOK 06/M23 Q1026 NOSIG
ZBAA,2025-02-24 10:30,ZBAA 241030Z 16002MPS CAVOK 03/M23 Q1026 NOSIG
ZBAA,2025-02-24 11:00,ZBAA 241100Z 16003MPS CAVOK 05/M22 Q1026 NOSIG
ZBAA,2025-02-24 11:30,ZBAA 241130Z 18003MPS CAVOK 04/M21 Q1026 NOSIG
ZBAA,2025-02-24 12:00,ZBAA 241200Z 16003MPS CAVOK 05/M21 Q1025 NOSIG
ZBAA,2025-02-24 12:30,ZBAA 241230Z 19005MPS CAVOK 07/M20 Q1025 NOSIG
ZBAA,2025-02-24 13:00,ZBAA 241300Z 17003MPS 130V200 CAVOK 04/M20 Q1025 NOSIG
ZBAA,2025-02-24 13:30,ZBAA 241330Z 17003MPS CAVOK 04/M19 Q1025 NOSIG
ZBAA,2025-02-24 14:00,ZBAA 241400Z 16002MPS 130V190 CAVOK 04/M19 Q1025 NOSIG
ZBAA,2025-02-24 14:30,ZBAA 241430Z 17003MPS 140V230 CAVOK 03/M19 Q1025 NOSIG
ZBAA,2025-02-24 15:00,ZBAA 241500Z 16002MPS CAVOK M01/M16 Q1025 NOSIG
ZBAA,2025-02-24 15:30,ZBAA 241530Z VRB01MPS CAVOK M01/M16 Q1025 NOSIG
ZBAA,2025-02-24 16:00,ZBAA 241600Z VRB01MPS CAVOK M01/M15 Q1025 NOSIG
ZBAA,2025-02-24 16:30,ZBAA 241630Z VRB01MPS CAVOK M01/M15 Q1024 NOSIG
ZBAA,2025-02-24 17:00,ZBAA 241700Z 36002MPS CAVOK M03/M15 Q1024 NOSIG
ZBAA,2025-02-24 17:30,ZBAA 241730Z VRB01MPS CAVOK M04/M15 Q1024 NOSIG
ZBAA,2025-02-24 18:00,ZBAA 241800Z 35002MPS CAVOK M03/M15 Q1024 NOSIG
ZBAA,2025-02-24 18:30,ZBAA 241830Z 33002MPS CAVOK M03/M16 Q1024 NOSIG
ZBAA,2025-02-24 19:00,ZBAA 241900Z 31002MPS CAVOK M03/M16 Q1023 NOSIG
ZBAA,2025-02-24 19:30,ZBAA 241930Z 36002MPS CAVOK M04/M16 Q1023 NOSIG
ZBAA,2025-02-24 20:00,ZBAA 242000Z 01002MPS CAVOK M04/M16 Q1022 NOSIG
ZBAA,2025-02-24 20:30,ZBAA 242030Z VRB01MPS CAVOK M05/M15 Q1022 NOSIG
ZBAA,2025-02-24 21:00,ZBAA 242100Z 00000MPS CAVOK M06/M16 Q1022 BECMG TL2240 32006MPS
ZBAA,2025-02-24 21:30,ZBAA 242130Z 00000MPS CAVOK M06/M16 Q1023 NOSIG
ZBAA,2025-02-24 22:00,ZBAA 242200Z VRB01MPS CAVOK M06/M17 Q1023 BECMG TL2340 32006MPS
ZBAA,2025-02-24 22:30,ZBAA 242230Z 01001MPS CAVOK M07/M16 Q1023 NOSIG
ZBAA,2025-02-24 23:00,ZBAA 242300Z VRB01MPS CAVOK M06/M13 Q1023 BECMG TL0040 32007MPS
ZBAA,2025-02-24 23:30,ZBAA 242330Z VRB01MPS CAVOK M07/M15 Q1023 NOSIG
ZBAA,2025-02-25 00:00,ZBAA 250000Z 35002MPS CAVOK M03/M12 Q1024 BECMG TL0140 29007MPS
ZBAA,2025-02-25 00:30,ZBAA 250030Z VRB01MPS CAVOK 01/M15 Q1024 NOSIG
ZBAA,2025-02-25 01:00,ZBAA 250100Z 35003MPS 320V030 CAVOK 04/M16 Q1025 NOSIG
ZBAA,2025-02-25 01:30,ZBAA 250130Z 32005MPS CAVOK 07/M19 Q1025 NOSIG
ZBAA,2025-02-25 02:00,ZBAA 250200Z 33006MPS CAVOK 09/M19 Q1025 NOSIG
ZBAA,2025-02-25 02:30,ZBAA 250230Z 32009MPS 290V010 CAVOK 10/M20 Q1025 NOSIG
ZBAA,2025-02-25 03:00,ZBAA 250300Z 34011MPS CAVOK 10/M20 Q1025 NOSIG
ZBAA,2025-02-25 03:30,ZBAA 250330Z 33009MPS CAVOK 10/M19 Q1026 NOSIG
ZBAA,2025-02-25 04:00,ZBAA 250400Z 33010MPS CAVOK 11/M20 Q1026 NOSIG
ZBAA,2025-02-25 04:30,ZBAA 250430Z 33008MPS 290V350 CAVOK 11/M20 Q1025 NOSIG
ZBAA,2025-02-25 05:00,ZBAA 250500Z 33009MPS 300V360 CAVOK 11/M20 Q1025 NOSIG
ZBAA,2025-02-25 05:30,ZBAA 250530Z 32007MPS 280V350 CAVOK 11/M20 Q1024 NOSIG
ZBAA,2025-02-25 06:00,ZBAA 250600Z 28006MPS CAVOK 10/M18 Q1024 NOSIG
ZBAA,2025-02-25 06:30,ZBAA 250630Z 29008MPS 260V320 CAVOK 11/M19 Q1024 NOSIG
ZBAA,2025-02-25 07:00,ZBAA 250700Z 29007MPS CAVOK 11/M18 Q1024 NOSIG
ZBAA,2025-02-25 07:30,ZBAA 250730Z 30007MPS CAVOK 11/M19 Q1024 NOSIG
ZBAA,2025-02-25 08:00,ZBAA 250800Z 29007MPS 270V330 CAVOK 11/M19 Q1024 NOSIG
ZBAA,2025-02-25 08:30,ZBAA 250830Z 30007MPS CAVOK 10/M19 Q1024 NOSIG
ZBAA,2025-02-25 09:00,ZBAA 250900Z 29006MPS CAVOK 10/M18 Q1024 BECMG TL1040 35004MPS
ZBAA,2025-02-25 09:30,ZBAA 250930Z 30006G11MPS 270V330 CAVOK 09/M19 Q1024 NOSIG
ZBAA,2025-02-25 10:00,ZBAA 251000Z 30006MPS CAVOK 09/M19 Q1025 BECMG TL1040 36004MPS
ZBAA,2025-02-25 10:30,ZBAA 251030Z 30005G10MPS CAVOK 08/M20 Q1025 NOSIG
ZBAA,2025-02-25 11:00,ZBAA 251100Z 30004MPS CAVOK 08/M19 Q1025 NOSIG
ZBAA,2025-02-25 11:30,ZBAA 251130Z 30005MPS CAVOK 08/M20 Q1025 NOSIG
ZBAA,2025-02-25 12:00,ZBAA 251200Z 31003MPS 300V040 CAVOK 06/M20 Q1025 NOSIG
ZBAA,2025-02-25 12:30,ZBAA 251230Z 36002MPS CAVOK 02/M19 Q1026 NOSIG
ZBAA,2025-02-25 13:00,ZBAA 251300Z 03002MPS CAVOK M02/M18 Q1026 NOSIG
ZBAA,2025-02-25 13:30,ZBAA 251330Z 05002MPS CAVOK M04/M17 Q1026 NOSIG
ZBAA,2025-02-25 14:00,ZBAA 251400Z 15001MPS CAVOK M02/M17 Q1026 NOSIG
ZBAA,2025-02-25 14:30,ZBAA 251430Z 34002MPS CAVOK M02/M16 Q1026 NOSIG
ZBAA,2025-02-25 15:00,ZBAA 251500Z 34002MPS CAVOK M03/M17 Q1026 NOSIG
ZBAA,2025-02-25 15:30,ZBAA 251530Z 01002MPS CAVOK M04/M16 Q1026 NOSIG
ZBAA,2025-02-25 16:00,ZBAA 251600Z 36002MPS CAVOK M03/M16 Q1026 NOSIG
ZBAA,2025-02-25 16:30,ZBAA 251630Z 00000MPS CAVOK M04/M17 Q1026 NOSIG
ZBAA,2025-02-25 17:00,ZBAA 251700Z 02002MPS CAVOK M06/M16 Q1026 NOSIG
ZBAA,2025-02-25 17:30,ZBAA 251730Z 00000MPS CAVOK M04/M15 Q1026 NOSIG
ZBAA,2025-02-25 18:00,ZBAA 251800Z 00000MPS CAVOK M05/M17 Q1026 NOSIG
ZBAA,2025-02-25 18:30,ZBAA 251830Z 34001MPS CAVOK M07/M16 Q1025 NOSIG
ZBAA,2025-02-25 19:00,ZBAA 251900Z VRB01MPS CAVOK M07/M17 Q1025 NOSIG
ZBAA,2025-02-25 19:30,ZBAA 251930Z 36002MPS CAVOK M07/M16 Q1025 NOSIG
ZBAA,2025-02-25 20:00,ZBAA 252000Z 07001MPS CAVOK M08/M15 Q1025 NOSIG
ZBAA,2025-02-25 20:30,ZBAA 252030Z VRB01MPS CAVOK M07/M14 Q1025 NOSIG
ZBAA,2025-02-25 21:00,ZBAA 252100Z 36001MPS CAVOK M08/M15 Q1025 NOSIG
ZBAA,2025-02-25 21:30,ZBAA 252130Z VRB01MPS CAVOK M09/M16 Q1025 NOSIG
ZBAA,2025-02-25 22:00,ZBAA 252200Z VRB01MPS CAVOK M08/M14 Q1025 NOSIG
ZBAA,2025-02-25 22:30,ZBAA 252230Z VRB01MPS CAVOK M08/M15 Q1025 NOSIG
ZBAA,2025-02-25 23:00,ZBAA 252300Z 36003MPS CAVOK M08/M15 Q1025 NOSIG
ZBAA,2025-02-25 23:30,ZBAA 252330Z 01002MPS CAVOK M07/M14 Q1026 NOSIG
ZBAA,2025-02-26 00:00,ZBAA 260000Z 35001MPS CAVOK M02/M12 Q1026 NOSIG
ZBAA,2025-02-26 00:30,ZBAA 260030Z VRB01MPS CAVOK 00/M16 Q1026 NOSIG
ZBAA,2025-02-26 01:00,ZBAA 260100Z 01002MPS 330V060 CAVOK 02/M16 Q1026 NOSIG
ZBAA,2025-02-26 01:30,ZBAA 260130Z VRB01MPS CAVOK 04/M17 Q1026 NOSIG
ZBAA,2025-02-26 02:00,ZBAA 260200Z 10002MPS 020V180 CAVOK 04/M16 Q1025 NOSIG
ZBAA,2025-02-26 02:30,ZBAA 260230Z VRB01MPS CAVOK 05/M15 Q1025 NOSIG
ZBAA,2025-02-26 03:00,ZBAA 260300Z VRB01MPS CAVOK 06/M15 Q1024 NOSIG
ZBAA,2025-02-26 03:30,ZBAA 260330Z 26002MPS 200V300 CAVOK 06/M15 Q1023 NOSIG
ZBAA,2025-02-26 04:00,ZBAA 260400Z 25002MPS 170V310 CAVOK 07/M16 Q1023 NOSIG
ZBAA,2025-02-26 04:30,ZBAA 260430Z VRB01MPS CAVOK 08/M16 Q1022 NOSIG
ZBAA,2025-02-26 05:00,ZBAA 260500Z VRB01MPS CAVOK 10/M16 Q1021 NOSIG
ZBAA,2025-02-26 05:30,ZBAA 260530Z 22003MPS 160V270 CAVOK 10/M18 Q1020 NOSIG
ZBAA,2025-02-26 06:00,ZBAA 260600Z 26002MPS 190V320 CAVOK 10/M17 Q1020 NOSIG
ZBAA,2025-02-26 06:30,ZBAA 260630Z 21003MPS 170V260 CAVOK 11/M17 Q1019 NOSIG
ZBAA,2025-02-26 07:00,ZBAA 260700Z VRB02MPS CAVOK 12/M16 Q1019 NOSIG
ZBAA,2025-02-26 07:30,ZBAA 260730Z 18003MPS 130V200 CAVOK 12/M16 Q1018 NOSIG
ZBAA,2025-02-26 08:00,ZBAA 260800Z 19004MPS 150V230 CAVOK 12/M17 Q1018 NOSIG
ZBAA,2025-02-26 08:30,ZBAA 260830Z 18003MPS 130V230 CAVOK 12/M16 Q1017 NOSIG
ZBAA,2025-02-26 09:00,ZBAA 260900Z 19004MPS 160V220 CAVOK 11/M16 Q1017 NOSIG
ZBAA,2025-02-26 09:30,ZBAA 260930Z 20003MPS 170V240 CAVOK 10/M16 Q1017 NOSIG
ZBAA,2025-02-26 10:00,ZBAA 261000Z VRB01MPS CAVOK 08/M16 Q1017 NOSIG
ZBAA,2025-02-26 10:30,ZBAA 261030Z 18002MPS 150V220 CAVOK 06/M16 Q1018 NOSIG
ZBAA,2025-02-26 11:00,ZBAA 261100Z VRB01MPS CAVOK 04/M15 Q1018 NOSIG
ZBAA,2025-02-26 11:30,ZBAA 261130Z VRB01MPS CAVOK 01/M16 Q1018 NOSIG
ZBAA,2025-02-26 12:00,ZBAA 261200Z 07001MPS CAVOK 00/M15 Q1018 NOSIG
ZBAA,2025-02-26 12:30,ZBAA 261230Z VRB01MPS CAVOK 00/M15 Q1017 NOSIG
ZBAA,2025-02-26 13:00,ZBAA 261300Z 00000MPS CAVOK M01/M14 Q1017 NOSIG
ZBAA,2025-02-26 13:30,ZBAA 261330Z VRB01MPS CAVOK M01/M13 Q1018 NOSIG
ZBAA,2025-02-26 14:00,ZBAA 261400Z 02001MPS CAVOK M01/M12 Q1018 NOSIG
ZBAA,2025-02-26 14:30,ZBAA 261430Z 06001MPS CAVOK M02/M12 Q1018 NOSIG
ZBAA,2025-02-26 15:00,ZBAA 261500Z 05002MPS CAVOK M03/M12 Q1017 NOSIG
ZBAA,2025-02-26 15:30,ZBAA 261530Z 06001MPS CAVOK M03/M12 Q1017 NOSIG
ZBAA,2025-02-26 16:00,ZBAA 261600Z VRB01MPS CAVOK M03/M12 Q1017 NOSIG
ZBAA,2025-02-26 16:30,ZBAA 261630Z 00000MPS CAVOK M03/M12 Q1017 NOSIG
ZBAA,2025-02-26 17:00,ZBAA 261700Z 00000MPS CAVOK M03/M13 Q1017 NOSIG
ZBAA,2025-02-26 17:30,ZBAA 261730Z 36001MPS CAVOK M03/M10 Q1017 NOSIG
ZBAA,2025-02-26 18:00,ZBAA 261800Z 06001MPS CAVOK M04/M11 Q1017 NOSIG
ZBAA,2025-02-26 18:30,ZBAA 261830Z VRB01MPS CAVOK M04/M11 Q1016 NOSIG
ZBAA,2025-02-26 19:00,ZBAA 261900Z 06001MPS CAVOK M04/M11 Q1016 NOSIG
ZBAA,2025-02-26 19:30,ZBAA 261930Z VRB01MPS CAVOK M05/M11 Q1016 NOSIG
ZBAA,2025-02-26 20:00,ZBAA 262000Z 36003MPS CAVOK M04/M12 Q1015 NOSIG
ZBAA,2025-02-26 20:30,ZBAA 262030Z 36002MPS CAVOK M04/M11 Q1015 NOSIG
ZBAA,2025-02-26 21:00,ZBAA 262100Z 35002MPS CAVOK M04/M11 Q1015 NOSIG
ZBAA,2025-02-26 21:30,ZBAA 262130Z 35002MPS CAVOK M04/M12 Q1015 NOSIG
ZBAA,2025-02-26 22:00,ZBAA 262200Z 34002MPS CAVOK M04/M12 Q1015 NOSIG
ZBAA,2025-02-26 22:30,ZBAA 262230Z 33002MPS 300V360 CAVOK M03/M12 Q1015 NOSIG
ZBAA,2025-02-26 23:00,ZBAA 262300Z 33002MPS CAVOK M02/M12 Q1015 NOSIG
ZBAA,2025-02-26 23:30,ZBAA 262330Z 34002MPS CAVOK M02/M12 Q1015 NOSIG
ZBAA,2025-02-27 00:00,ZBAA 270000Z 33002MPS 290V360 CAVOK 00/M13 Q1016 NOSIG
ZBAA,2025-02-27 00:30,ZBAA 270030Z 36002MPS CAVOK 02/M13 Q1016 NOSIG
ZBAA,2025-02-27 01:00,ZBAA 270100Z 33002MPS 310V010 CAVOK 04/M13 Q1016 NOSIG
ZBAA,2025-02-27 01:30,ZBAA 270130Z 33002MPS 290V350 CAVOK 05/M14 Q1016 NOSIG
ZBAA,2025-02-27 02:00,ZBAA 270200Z 35002MPS CAVOK 07/M14 Q1016 NOSIG
ZBAA,2025-02-27 02:30,ZBAA 270230Z 29002MPS 250V360 CAVOK 08/M13 Q1016 NOSIG
ZBAA,2025-02-27 03:00,ZBAA 270300Z VRB01MPS CAVOK 09/M12 Q1015 NOSIG
ZBAA,2025-02-27 03:30,ZBAA 270330Z VRB02MPS CAVOK 10/M11 Q1015 NOSIG
ZBAA,2025-02-27 04:00,ZBAA 270400Z 11002MPS 050V210 CAVOK 10/M09 Q1014 NOSIG
ZBAA,2025-02-27 04:30,ZBAA 270430Z VRB01MPS CAVOK 12/M08 Q1014 NOSIG
ZBAA,2025-02-27 05:00,ZBAA 270500Z VRB01MPS CAVOK 12/M08 Q1013 NOSIG
ZBAA,2025-02-27 05:30,ZBAA 270530Z 15002MPS 080V230 8000 NSC 12/M08 Q1013 NOSIG
ZBAA,2025-02-27 06:00,ZBAA 270600Z 16002MPS 120V220 8000 NSC 13/M08 Q1012 NOSIG
ZBAA,2025-02-27 06:30,ZBAA 270630Z VRB02MPS 8000 NSC 14/M07 Q1012 NOSIG
ZBAA,2025-02-27 07:00,ZBAA 270700Z 20002MPS 130V260 8000 NSC 14/M07 Q1012 NOSIG
ZBAA,2025-02-27 07:30,ZBAA 270730Z 18002MPS 100V260 8000 NSC 14/M07 Q1011 NOSIG
ZBAA,2025-02-27 08:00,ZBAA 270800Z 20002MPS 160V310 8000 NSC 14/M06 Q1011 NOSIG
ZBAA,2025-02-27 08:30,ZBAA 270830Z 19002MPS 160V250 8000 NSC 14/M06 Q1011 NOSIG
ZBAA,2025-02-27 09:00,ZBAA 270900Z 20002MPS 170V270 8000 NSC 13/M05 Q1011 NOSIG
ZBAA,2025-02-27 09:30,ZBAA 270930Z 19002MPS 150V240 8000 NSC 12/M06 Q1011 NOSIG
ZBAA,2025-02-27 10:00,ZBAA 271000Z VRB01MPS 6000 NSC 09/M07 Q1011 NOSIG
ZBAA,2025-02-27 10:30,ZBAA 271030Z VRB01MPS 6000 NSC 07/M06 Q1012 NOSIG
ZBAA,2025-02-27 11:00,ZBAA 271100Z VRB01MPS 6000 NSC 04/M07 Q1012 NOSIG
ZBAA,2025-02-27 11:30,ZBAA 271130Z VRB01MPS 6000 NSC 03/M07 Q1012 NOSIG
ZBAA,2025-02-27 12:00,ZBAA 271200Z 13001MPS 6000 NSC 03/M06 Q1013 NOSIG
ZBAA,2025-02-27 12:30,ZBAA 271230Z 00000MPS 6000 NSC 02/M07 Q1013 NOSIG
ZBAA,2025-02-27 13:00,ZBAA 271300Z VRB01MPS 6000 NSC 03/M06 Q1013 NOSIG
ZBAA,2025-02-27 13:30,ZBAA 271330Z VRB01MPS 6000 NSC 01/M08 Q1013 NOSIG
ZBAA,2025-02-27 14:00,ZBAA 271400Z 00000MPS 6000 NSC 01/M06 Q1014 NOSIG
ZBAA,2025-02-27 14:30,ZBAA 271430Z VRB01MPS 6000 NSC 00/M05 Q1014 NOSIG
ZBAA,2025-02-27 15:00,ZBAA 271500Z VRB01MPS 6000 NSC M00/M07 Q1014 NOSIG
ZBAA,2025-02-27 15:30,ZBAA 271530Z 35002MPS 6000 NSC 00/M05 Q1014 NOSIG
ZBAA,2025-02-27 16:00,ZBAA 271600Z 03001MPS 6000 NSC M01/M06 Q1014 NOSIG
ZBAA,2025-02-27 16:30,ZBAA 271630Z 35001MPS 6000 NSC M01/M05 Q1014 NOSIG
ZBAA,2025-02-27 17:00,ZBAA 271700Z 36002MPS 6000 NSC M02/M06 Q1014 NOSIG
ZBAA,2025-02-27 17:30,ZBAA 271730Z 36003MPS 6000 NSC M02/M06 Q1014 NOSIG
ZBAA,2025-02-27 18:00,ZBAA 271800Z 36001MPS 6000 NSC M02/M06 Q1014 NOSIG
ZBAA,2025-02-27 18:30,ZBAA 271830Z 00000MPS 6000 NSC M02/M06 Q1014 NOSIG
ZBAA,2025-02-27 19:00,ZBAA 271900Z 36002MPS 6000 NSC M03/M07 Q1014 NOSIG
ZBAA,2025-02-27 19:30,ZBAA 271930Z 36002MPS 6000 NSC M04/M07 Q1014 NOSIG
ZBAA,2025-02-27 20:00,ZBAA 272000Z 36002MPS 6000 NSC M04/M08 Q1014 NOSIG
ZBAA,2025-02-27 20:30,ZBAA 272030Z 01001MPS 6000 NSC M04/M08 Q1014 NOSIG
ZBAA,2025-02-27 21:00,ZBAA 272100Z 35001MPS 6000 NSC M03/M08 Q1014 NOSIG
ZBAA,2025-02-27 21:30,ZBAA 272130Z 35001MPS 6000 NSC M05/M08 Q1015 NOSIG
ZBAA,2025-02-27 22:00,ZBAA 272200Z VRB01MPS 6000 NSC M05/M09 Q1015 NOSIG
ZBAA,2025-02-27 22:30,ZBAA 272230Z VRB01MPS 6000 NSC M05/M09 Q1015 NOSIG
ZBAA,2025-02-27 23:00,ZBAA 272300Z 36002MPS 5000 BR NSC M06/M09 Q1015 NOSIG
ZBAA,2025-02-27 23:30,ZBAA 272330Z VRB01MPS 5000 HZ NSC M03/M07 Q1016 NOSIG
ZBAA,2025-02-28 00:00,ZBAA 280000Z VRB01MPS 5000 HZ NSC 01/M05 Q1016 NOSIG
ZBAA,2025-02-28 00:30,ZBAA 280030Z VRB01MPS 5000 HZ NSC 04/M05 Q1016 NOSIG
ZBAA,2025-02-28 01:00,ZBAA 280100Z VRB01MPS 5000 HZ NSC 07/M05 Q1016 NOSIG
ZBAA,2025-02-28 01:30,ZBAA 280130Z VRB01MPS 5000 HZ NSC 07/M05 Q1016 NOSIG
ZBAA,2025-02-28 02:00,ZBAA 280200Z 29002MPS 250V340 5000 HZ NSC 08/M04 Q1016 NOSIG
ZBAA,2025-02-28 02:30,ZBAA 280230Z 24002MPS 210V270 5000 HZ NSC 10/M05 Q1016 NOSIG
ZBAA,2025-02-28 03:00,ZBAA 280300Z VRB03MPS 4000 HZ NSC 11/M04 Q1016 NOSIG
ZBAA,2025-02-28 03:30,ZBAA 280330Z VRB01MPS 5000 HZ NSC 12/M06 Q1016 NOSIG
ZBAA,2025-02-28 04:00,ZBAA 280400Z VRB01MPS 5000 HZ NSC 14/M08 Q1016 NOSIG
ZBAA,2025-02-28 04:30,ZBAA 280430Z VRB02MPS 5000 HZ NSC 15/M07 Q1015 NOSIG
ZBAA,2025-02-28 05:00,ZBAA 280500Z 22002MPS 140V290 7000 NSC 16/M09 Q1015 NOSIG
ZBAA,2025-02-28 05:30,ZBAA 280530Z VRB02MPS 8000 NSC 17/M11 Q1015 NOSIG
ZBAA,2025-02-28 06:00,ZBAA 280600Z VRB02MPS 8000 NSC 18/M12 Q1014 NOSIG
ZBAA,2025-02-28 06:30,ZBAA 280630Z 18004MPS 150V240 CAVOK 19/M12 Q1014 NOSIG
ZBAA,2025-02-28 07:00,ZBAA 280700Z 14003MPS 100V180 CAVOK 19/M11 Q1013 NOSIG
ZBAA,2025-02-28 07:30,ZBAA 280730Z 18004MPS 130V220 CAVOK 19/M13 Q1013 NOSIG
ZBAA,2025-02-28 08:00,ZBAA 280800Z 14003MPS 110V170 CAVOK 18/M14 Q1013 NOSIG
ZBAA,2025-02-28 08:30,ZBAA 280830Z 17004MPS 130V210 CAVOK 18/M14 Q1012 NOSIG
ZBAA,2025-02-28 09:00,ZBAA 280900Z 15003MPS CAVOK 18/M12 Q1012 NOSIG
ZBAA,2025-02-28 09:30,ZBAA 280930Z 17003MPS 140V200 CAVOK 15/M13 Q1012 NOSIG
ZBAA,2025-02-28 10:00,ZBAA 281000Z 16002MPS CAVOK 14/M13 Q1013 NOSIG
ZBAA,2025-02-28 10:30,ZBAA 281030Z 14002MPS 110V170 CAVOK 13/M12 Q1013 NOSIG
ZBAA,2025-02-28 11:00,ZBAA 281100Z 09002MPS CAVOK 10/M12 Q1013 NOSIG
ZBAA,2025-02-28 11:30,ZBAA 281130Z 12002MPS CAVOK 10/M12 Q1013 NOSIG
ZBAA,2025-02-28 12:00,ZBAA 281200Z VRB01MPS CAVOK 08/M12 Q1013 NOSIG
ZBAA,2025-02-28 12:30,ZBAA 281230Z VRB01MPS CAVOK 08/M12 Q1013 NOSIG
ZBAA,2025-02-28 13:00,ZBAA 281300Z 13002MPS CAVOK 07/M11 Q1013 NOSIG
ZBAA,2025-02-28 13:30,ZBAA 281330Z 12001MPS CAVOK 06/M11 Q1013 NOSIG
ZBAA,2025-02-28 14:00,ZBAA 281400Z 07001MPS CAVOK 05/M11 Q1014 NOSIG
ZBAA,2025-02-28 14:30,ZBAA 281430Z VRB01MPS CAVOK 05/M10 Q1014 NOSIG
ZBAA,2025-02-28 15:00,ZBAA 281500Z 09002MPS CAVOK 04/M10 Q1014 NOSIG
ZBAA,2025-02-28 15:30,ZBAA 281530Z 11002MPS CAVOK 08/M08 Q1014 NOSIG
ZBAA,2025-02-28 16:00,ZBAA 281600Z 07002MPS 040V100 7000 NSC 08/M07 Q1014 NOSIG
ZBAA,2025-02-28 16:30,ZBAA 281630Z 10002MPS 7000 NSC 08/M04 Q1013 NOSIG
ZBAA,2025-02-28 17:00,ZBAA 281700Z 09002MPS 070V130 7000 NSC 08/M03 Q1013 NOSIG
ZBAA,2025-02-28 17:30,ZBAA 281730Z 08002MPS 6000 NSC 07/M02 Q1013 NOSIG
ZBAA,2025-02-28 18:00,ZBAA 281800Z VRB01MPS 6000 NSC 07/M01 Q1013 NOSIG
ZBAA,2025-02-28 18:30,ZBAA 281830Z VRB01MPS 6000 NSC 06/M02 Q1013 NOSIG
ZBAA,2025-02-28 19:00,ZBAA 281900Z 35001MPS 5000 HZ NSC 04/M03 Q1013 NOSIG
ZBAA,2025-02-28 19:30,ZBAA 281930Z 02001MPS 5000 HZ NSC 03/M03 Q1013 NOSIG
ZBAA,2025-02-28 20:00,ZBAA 282000Z 36002MPS 5000 HZ NSC 04/M02 Q1013 NOSIG
ZBAA,2025-02-28 20:30,ZBAA 282030Z VRB01MPS 5000 HZ NSC 03/M02 Q1012 NOSIG
ZBAA,2025-02-28 21:00,ZBAA 282100Z 36002MPS 5000 HZ NSC 03/M02 Q1013 NOSIG
ZBAA,2025-02-28 21:30,ZBAA 282130Z VRB01MPS 6000 NSC 01/M03 Q1012 NOSIG
ZBAA,2025-02-28 22:00,ZBAA 282200Z 00000MPS 6000 NSC 01/M03 Q1012 NOSIG
ZBAA,2025-02-28 22:30,ZBAA 282230Z 35002MPS 6000 NSC 00/M03 Q1012 NOSIG
ZBAA,2025-02-28 23:00,ZBAA 282300Z 36002MPS 6000 NSC 00/M04 Q1013 NOSIG
ZBAA,2025-02-28 23:30,ZBAA 282330Z 12001MPS 7000 NSC 01/M04 Q1013 NOSIG
ZBAA,2025-03-01 00:00,ZBAA 010000Z 08001MPS 7000 NSC 02/M03 Q1014 NOSIG
ZBAA,2025-03-01 00:30,ZBAA 010030Z VRB01MPS 7000 NSC 07/M03 Q1014 NOSIG
ZBAA,2025-03-01 01:00,ZBAA 010100Z VRB01MPS 4000 HZ NSC 09/01 Q1013 NOSIG
ZBAA,2025-03-01 01:30,ZBAA 010130Z 09002MPS 050V150 4000 HZ NSC 09/01 Q1013 NOSIG
ZBAA,2025-03-01 02:00,ZBAA 010200Z 11002MPS 030V150 3500 HZ NSC 10/01 Q1014 NOSIG
ZBAA,2025-03-01 02:30,ZBAA 010230Z 10003MPS 050V140 3500 HZ NSC 11/00 Q1014 NOSIG
ZBAA,2025-03-01 03:00,ZBAA 010300Z 09002MPS 010V160 3500 HZ NSC 12/00 Q1014 NOSIG
ZBAA,2025-03-01 03:30,ZBAA 010330Z VRB01MPS 3500 HZ NSC 13/M00 Q1014 NOSIG
ZBAA,2025-03-01 04:00,ZBAA 010400Z VRB01MPS 4000 HZ NSC 13/M01 Q1014 NOSIG
ZBAA,2025-03-01 04:30,ZBAA 010430Z VRB01MPS 4000 HZ NSC 14/M00 Q1014 NOSIG
ZBAA,2025-03-01 05:00,ZBAA 010500Z VRB02MPS 4000 HZ NSC 14/M00 Q1013 NOSIG
ZBAA,2025-03-01 05:30,ZBAA 010530Z 14002MPS 100V210 4000 HZ NSC 15/00 Q1013 NOSIG
ZBAA,2025-03-01 06:00,ZBAA 010600Z 12002MPS 050V170 4000 HZ NSC 15/00 Q1013 NOSIG
ZBAA,2025-03-01 06:30,ZBAA 010630Z VRB02MPS 4000 HZ NSC 16/02 Q1012 NOSIG
ZBAA,2025-03-01 07:00,ZBAA 010700Z 12003MPS 070V160 3500 HZ NSC 16/03 Q1012 NOSIG
ZBAA,2025-03-01 07:30,ZBAA 010730Z 16002MPS 090V260 3500 HZ NSC 16/02 Q1012 NOSIG
ZBAA,2025-03-01 08:00,ZBAA 010800Z 09002MPS 040V130 3000 HZ NSC 16/03 Q1012 BECMG TL0920 2700
ZBAA,2025-03-01 08:30,ZBAA 010830Z 16002MPS 080V220 3000 HZ NSC 15/04 Q1012 NOSIG
ZBAA,2025-03-01 09:00,ZBAA 010900Z 16003MPS 3000 HZ NSC 15/04 Q1012 BECMG TL0920 2700
ZBAA,2025-03-01 09:30,ZBAA 010930Z 14003MPS 2700 HZ NSC 14/04 Q1012 NOSIG
ZBAA,2025-03-01 10:00,ZBAA 011000Z 11002MPS 080V140 2700 HZ NSC 13/04 Q1013 NOSIG
ZBAA,2025-03-01 10:30,ZBAA 011030Z 12001MPS 2700 HZ NSC 11/04 Q1013 NOSIG
ZBAA,2025-03-01 11:00,ZBAA 011100Z 15003MPS 2400 HZ NSC 11/04 Q1014 NOSIG
ZBAA,2025-03-01 11:30,ZBAA 011130Z 13004MPS 110V170 2400 HZ NSC 11/04 Q1015 NOSIG
ZBAA,2025-03-01 12:00,ZBAA 011200Z 15002MPS 120V190 2400 HZ NSC 10/04 Q1015 BECMG TL1340 3100
ZBAA,2025-03-01 12:30,ZBAA 011230Z 14004MPS 100V170 2700 HZ NSC 10/04 Q1016 NOSIG
ZBAA,2025-03-01 13:00,ZBAA 011300Z 12004MPS 2700 HZ NSC 09/04 Q1017 BECMG TL1340 3100
ZBAA,2025-03-01 13:30,ZBAA 011330Z 13004MPS 070V170 3200 HZ NSC 08/03 Q1018 NOSIG
ZBAA,2025-03-01 14:00,ZBAA 011400Z 14004MPS 3200 BR NSC 07/03 Q1019 BECMG TL1540 2700
ZBAA,2025-03-01 14:30,ZBAA 011430Z 15005MPS 100V180 3200 BR NSC 06/03 Q1020 NOSIG
ZBAA,2025-03-01 15:00,ZBAA 011500Z 17004MPS 3200 BR NSC 06/03 Q1020 BECMG TL1540 2700
ZBAA,2025-03-01 15:30,ZBAA 011530Z 15002MPS 090V210 2900 BR NSC 06/03 Q1021 NOSIG
ZBAA,2025-03-01 16:00,ZBAA 011600Z 14002MPS 100V200 2900 BR NSC 07/03 Q1021 BECMG TL1750 3200
ZBAA,2025-03-01 16:30,ZBAA 011630Z 14002MPS 110V180 2900 BR NSC 07/03 Q1021 NOSIG
ZBAA,2025-03-01 17:00,ZBAA 011700Z VRB01MPS 2900 BR NSC 06/03 Q1021 BECMG TL1750 3200
ZBAA,2025-03-01 17:30,ZBAA 011730Z VRB01MPS 3400 BR NSC 07/03 Q1022 NOSIG
ZBAA,2025-03-01 18:00,ZBAA 011800Z VRB01MPS 4000 BR NSC 07/03 Q1022 NOSIG
ZBAA,2025-03-01 18:30,ZBAA 011830Z VRB01MPS 4000 BR NSC 06/03 Q1022 NOSIG
ZBAA,2025-03-01 19:00,ZBAA 011900Z 07002MPS 040V120 4000 BR NSC 06/03 Q1022 NOSIG
ZBAA,2025-03-01 19:30,ZBAA 011930Z VRB01MPS 4000 BR NSC 06/02 Q1022 NOSIG
ZBAA,2025-03-01 20:00,ZBAA 012000Z 11002MPS 080V140 4000 BR NSC 06/02 Q1022 NOSIG
ZBAA,2025-03-01 20:30,ZBAA 012030Z VRB01MPS 4000 BR NSC 06/02 Q1021 NOSIG
ZBAA,2025-03-01 21:00,ZBAA 012100Z 08001MPS 3600 BR NSC 05/02 Q1021 NOSIG
ZBAA,2025-03-01 21:30,ZBAA 012130Z VRB01MPS 3600 BR NSC 05/03 Q1022 NOSIG
ZBAA,2025-03-01 22:00,ZBAA 012200Z 15001MPS 3200 BR NSC 05/03 Q1022 BECMG TL2320 2800
ZBAA,2025-03-01 22:30,ZBAA 012230Z 21002G07MPS 180V250 3200 BR NSC 05/04 Q1023 NOSIG
ZBAA,2025-03-01 23:00,ZBAA 012300Z VRB02MPS 3000 BR NSC 05/03 Q1023 BECMG TL2320 2800
ZBAA,2025-03-01 23:30,ZBAA 012330Z 17003MPS 2800 BR NSC 05/03 Q1024 NOSIG
ZBAA,2025-03-02 00:00,ZBAA 020000Z 16003MPS 2800 BR NSC 05/M02 Q1025 BECMG TL0020 3200
ZBAA,2025-03-02 00:30,ZBAA 020030Z 15002MPS 3200 HZ NSC 06/M05 Q1026 NOSIG
ZBAA,2025-03-02 01:00,ZBAA 020100Z 16004MPS 5000 HZ NSC 06/M10 Q1026 NOSIG
ZBAA,2025-03-02 01:30,ZBAA 020130Z VRB01MPS CAVOK 06/M11 Q1026 NOSIG
ZBAA,2025-03-02 02:00,ZBAA 020200Z 15002MPS 100V180 CAVOK 06/M13 Q1026 NOSIG
ZBAA,2025-03-02 02:30,ZBAA 020230Z 04003MPS 010V090 CAVOK 06/M09 Q1026 NOSIG
ZBAA,2025-03-02 03:00,ZBAA 020300Z 06003MPS 020V090 CAVOK 07/M10 Q1026 NOSIG
ZBAA,2025-03-02 03:30,ZBAA 020330Z 04004MPS 340V080 CAVOK 07/M10 Q1026 NOSIG
ZBAA,2025-03-02 04:00,ZBAA 020400Z 05003MPS 010V100 CAVOK 08/M10 Q1026 NOSIG
ZBAA,2025-03-02 04:30,ZBAA 020430Z 07004MPS 050V110 CAVOK 08/M10 Q1025 NOSIG
ZBAA,2025-03-02 05:00,ZBAA 020500Z 10003MPS 010V160 CAVOK 08/M11 Q1025 NOSIG
ZBAA,2025-03-02 05:30,ZBAA 020530Z VRB03MPS CAVOK 09/M12 Q1024 NOSIG
ZBAA,2025-03-02 06:00,ZBAA 020600Z 04003MPS 010V080 CAVOK 09/M13 Q1024 NOSIG
ZBAA,2025-03-02 06:30,ZBAA 020630Z 05003MPS 010V090 CAVOK 09/M16 Q1024 NOSIG
ZBAA,2025-03-02 07:00,ZBAA 020700Z 05004MPS 020V100 CAVOK 10/M17 Q1023 NOSIG
ZBAA,2025-03-02 07:30,ZBAA 020730Z 07003MPS 360V110 CAVOK 10/M17 Q1023 NOSIG
ZBAA,2025-03-02 08:00,ZBAA 020800Z 07003MPS 030V120 CAVOK 10/M18 Q1023 NOSIG
ZBAA,2025-03-02 08:30,ZBAA 020830Z 07003MPS 360V140 CAVOK 10/M17 Q1023 NOSIG
ZBAA,2025-03-02 09:00,ZBAA 020900Z 08002MPS 030V150 CAVOK 10/M17 Q1024 NOSIG
ZBAA,2025-03-02 09:30,ZBAA 020930Z 13002MPS 090V160 CAVOK 09/M18 Q1024 NOSIG
ZBAA,2025-03-02 10:00,ZBAA 021000Z 14004MPS 110V170 CAVOK 08/M13 Q1024 NOSIG
ZBAA,2025-03-02 10:30,ZBAA 021030Z 14003MPS 110V170 CAVOK 07/M15 Q1025 NOSIG
ZBAA,2025-03-02 11:00,ZBAA 021100Z 15003MPS 110V170 CAVOK 06/M16 Q1026 NOSIG
ZBAA,2025-03-02 11:30,ZBAA 021130Z 14002MPS CAVOK 04/M17 Q1026 NOSIG
ZBAA,2025-03-02 12:00,ZBAA 021200Z 17002MPS CAVOK 04/M17 Q1027 NOSIG
ZBAA,2025-03-02 12:30,ZBAA 021230Z 17002MPS 140V210 CAVOK 02/M18 Q1027 NOSIG
ZBAA,2025-03-02 13:00,ZBAA 021300Z VRB01MPS CAVOK M01/M16 Q1028 NOSIG
ZBAA,2025-03-02 13:30,ZBAA 021330Z VRB01MPS CAVOK M01/M15 Q1029 NOSIG
ZBAA,2025-03-02 14:00,ZBAA 021400Z 00000MPS CAVOK M02/M14 Q1029 NOSIG
ZBAA,2025-03-02 14:30,ZBAA 021430Z 17001MPS CAVOK M02/M14 Q1030 NOSIG
ZBAA,2025-03-02 15:00,ZBAA 021500Z 16002MPS 140V210 CAVOK M02/M14 Q1029 NOSIG
ZBAA,2025-03-02 15:30,ZBAA 021530Z 17001MPS CAVOK 01/M16 Q1029 NOSIG
ZBAA,2025-03-02 16:00,ZBAA 021600Z 00000MPS CAVOK M01/M13 Q1030 NOSIG
ZBAA,2025-03-02 16:30,ZBAA 021630Z 05001MPS CAVOK M03/M14 Q1030 NOSIG
ZBAA,2025-03-02 17:00,ZBAA 021700Z 35001MPS CAVOK M02/M13 Q1030 NOSIG
ZBAA,2025-03-02 17:30,ZBAA 021730Z 07001MPS CAVOK M04/M12 Q1030 NOSIG
ZBAA,2025-03-02 18:00,ZBAA 021800Z VRB01MPS CAVOK M04/M13 Q1030 NOSIG
ZBAA,2025-03-02 18:30,ZBAA 021830Z VRB01MPS CAVOK M04/M14 Q1030 NOSIG
ZBAA,2025-03-02 19:00,ZBAA 021900Z VRB01MPS CAVOK M05/M13 Q1029 NOSIG
ZBAA,2025-03-02 19:30,ZBAA 021930Z VRB01MPS CAVOK M04/M14 Q1029 NOSIG
ZBAA,2025-03-02 20:00,ZBAA 022000Z VRB01MPS CAVOK M04/M14 Q1030 NOSIG
ZBAA,2025-03-02 20:30,ZBAA 022030Z VRB01MPS CAVOK M05/M14 Q1030 NOSIG
ZBAA,2025-03-02 21:00,ZBAA 022100Z VRB01MPS CAVOK M05/M11 Q1030 NOSIG
ZBAA,2025-03-02 21:30,ZBAA 022130Z VRB01MPS CAVOK M06/M13 Q1030 NOSIG
ZBAA,2025-03-02 22:00,ZBAA 022200Z VRB01MPS CAVOK M06/M13 Q1031 NOSIG
ZBAA,2025-03-02 22:30,ZBAA 022230Z VRB01MPS CAVOK M05/M12 Q1031 NOSIG
ZBAA,2025-03-02 23:00,ZBAA 022300Z VRB01MPS CAVOK M05/M11 Q1031 NOSIG
ZBAA,2025-03-02 23:30,ZBAA 022330Z 04001MPS CAVOK M04/M09 Q1031 NOSIG
ZBAA,2025-03-03 00:00,ZBAA 030000Z VRB01MPS CAVOK 01/M09 Q1032 NOSIG
ZBAA,2025-03-03 00:30,ZBAA 030030Z 09002MPS 060V120 CAVOK 03/M16 Q1032 NOSIG
ZBAA,2025-03-03 01:00,ZBAA 030100Z 09002MPS 030V160 CAVOK 03/M18 Q1032 NOSIG
ZBAA,2025-03-03 01:30,ZBAA 030130Z VRB02MPS CAVOK 04/M17 Q1032 NOSIG
ZBAA,2025-03-03 02:00,ZBAA 030200Z 17002MPS 100V270 CAVOK 05/M19 Q1032 NOSIG
ZBAA,2025-03-03 02:30,ZBAA 030230Z VRB01MPS CAVOK 05/M19 Q1032 NOSIG
ZBAA,2025-03-03 03:00,ZBAA 030300Z VRB02MPS CAVOK 06/M18 Q1032 NOSIG
ZBAA,2025-03-03 03:30,ZBAA 030330Z VRB01MPS CAVOK 07/M18 Q1032 NOSIG
ZBAA,2025-03-03 04:00,ZBAA 030400Z VRB02MPS CAVOK 08/M18 Q1031 NOSIG
ZBAA,2025-03-03 04:30,ZBAA 030430Z VRB02MPS CAVOK 08/M19 Q1030 NOSIG
ZBAA,2025-03-03 05:00,ZBAA 030500Z 16003MPS 110V200 CAVOK 08/M19 Q1030 NOSIG
ZBAA,2025-03-03 05:30,ZBAA 030530Z VRB02G07MPS CAVOK 08/M19 Q1029 NOSIG
ZBAA,2025-03-03 06:00,ZBAA 030600Z VRB02MPS CAVOK 09/M19 Q1028 NOSIG
ZBAA,2025-03-03 06:30,ZBAA 030630Z 15003MPS 070V190 CAVOK 08/M20 Q1028 NOSIG
ZBAA,2025-03-03 07:00,ZBAA 030700Z VRB02MPS CAVOK 08/M20 Q1028 NOSIG
ZBAA,2025-03-03 07:30,ZBAA 030730Z 18004MPS 130V230 CAVOK 08/M21 Q1028 NOSIG
ZBAA,2025-03-03 08:00,ZBAA 030800Z 18002MPS 140V200 CAVOK 08/M21 Q1027 NOSIG
ZBAA,2025-03-03 08:30,ZBAA 030830Z 17002MPS 140V200 CAVOK 07/M20 Q1027 NOSIG
ZBAA,2025-03-03 09:00,ZBAA 030900Z 17002MPS 140V200 CAVOK 07/M20 Q1027 NOSIG
ZBAA,2025-03-03 09:30,ZBAA 030930Z 19002MPS CAVOK 06/M20 Q1027 NOSIG
ZBAA,2025-03-03 10:00,ZBAA 031000Z 16002MPS 140V200 CAVOK 06/M20 Q1027 NOSIG
ZBAA,2025-03-03 10:30,ZBAA 031030Z 15001MPS CAVOK 04/M19 Q1027 NOSIG
ZBAA,2025-03-03 11:00,ZBAA 031100Z 19002MPS 160V240 CAVOK 06/M20 Q1026 NOSIG
ZBAA,2025-03-03 11:30,ZBAA 031130Z 17002MPS 140V210 CAVOK 05/M19 Q1027 NOSIG
ZBAA,2025-03-03 12:00,ZBAA 031200Z 18002MPS CAVOK 05/M18 Q1026 NOSIG
ZBAA,2025-03-03 12:30,ZBAA 031230Z 19004MPS 160V220 CAVOK 06/M18 Q1026 NOSIG
ZBAA,2025-03-03 13:00,ZBAA 031300Z 19004MPS CAVOK 06/M18 Q1026 NOSIG
ZBAA,2025-03-03 13:30,ZBAA 031330Z 19004MPS CAVOK 06/M18 Q1026 NOSIG
ZBAA,2025-03-03 14:00,ZBAA 031400Z 18004MPS CAVOK 06/M18 Q1026 NOSIG
ZBAA,2025-03-03 14:30,ZBAA 031430Z 19004MPS CAVOK 06/M18 Q1026 NOSIG
ZBAA,2025-03-03 15:00,ZBAA 031500Z 19003MPS CAVOK 05/M17 Q1026 NOSIG
ZBAA,2025-03-03 15:30,ZBAA 031530Z 18004MPS CAVOK 05/M17 Q1026 NOSIG
ZBAA,2025-03-03 16:00,ZBAA 031600Z 19003MPS CAVOK 05/M17 Q1026 NOSIG
ZBAA,2025-03-03 16:30,ZBAA 031630Z 19003MPS CAVOK 04/M16 Q1026 NOSIG
ZBAA,2025-03-03 17:00,ZBAA 031700Z 17002MPS CAVOK 04/M16 Q1026 NOSIG
ZBAA,2025-03-03 17:30,ZBAA 031730Z 17003MPS CAVOK 04/M16 Q1026 NOSIG
ZBAA,2025-03-03 18:00,ZBAA 031800Z 18004MPS CAVOK 04/M17 Q1026 NOSIG
ZBAA,2025-03-03 18:30,ZBAA 031830Z 16003MPS CAVOK 04/M15 Q1025 NOSIG
ZBAA,2025-03-03 19:00,ZBAA 031900Z 16004MPS CAVOK 04/M15 Q1025 NOSIG
ZBAA,2025-03-03 19:30,ZBAA 031930Z 17005MPS CAVOK 03/M13 Q1025 NOSIG
ZBAA,2025-03-03 20:00,ZBAA 032000Z 16004MPS CAVOK 03/M12 Q1025 NOSIG
ZBAA,2025-03-03 20:30,ZBAA 032030Z 16003MPS CAVOK 02/M11 Q1025 NOSIG
ZBAA,2025-03-03 21:00,ZBAA 032100Z 15003MPS CAVOK 02/M10 Q1025 NOSIG
ZBAA,2025-03-03 21:30,ZBAA 032130Z 14003MPS CAVOK 02/M10 Q1025 NOSIG
ZBAA,2025-03-03 22:00,ZBAA 032200Z 15003MPS CAVOK 02/M10 Q1025 NOSIG
ZBAA,2025-03-03 22:30,ZBAA 032230Z 12002MPS 060V160 CAVOK 02/M10 Q1025 NOSIG
ZBAA,2025-03-03 23:00,ZBAA 032300Z VRB01MPS CAVOK 02/M10 Q1025 NOSIG
ZBAA,2025-03-03 23:30,ZBAA 032330Z 10002MPS CAVOK 02/M09 Q1025 NOSIG
ZBAA,2025-03-04 00:00,ZBAA 040000Z 09001MPS CAVOK 02/M09 Q1025 NOSIG
ZBAA,2025-03-04 00:30,ZBAA 040030Z 07002MPS CAVOK 03/M09 Q1025 NOSIG
ZBAA,2025-03-04 01:00,ZBAA 040100Z 13002MPS 080V190 CAVOK 04/M09 Q1025 NOSIG
ZBAA,2025-03-04 01:30,ZBAA 040130Z 15002MPS 100V270 CAVOK 05/M10 Q1025 NOSIG
ZBAA,2025-03-04 02:00,ZBAA 040200Z VRB02MPS CAVOK 05/M11 Q1024 NOSIG
ZBAA,2025-03-04 02:30,ZBAA 040230Z VRB02MPS CAVOK 05/M12 Q1024 NOSIG
ZBAA,2025-03-04 03:00,ZBAA 040300Z 21003MPS 170V270 CAVOK 06/M12 Q1024 NOSIG
ZBAA,2025-03-04 03:30,ZBAA 040330Z VRB02MPS CAVOK 07/M11 Q1024 NOSIG
ZBAA,2025-03-04 04:00,ZBAA 040400Z 23002MPS 150V290 CAVOK 07/M12 Q1023 NOSIG
ZBAA,2025-03-04 04:30,ZBAA 040430Z VRB03MPS CAVOK 08/M12 Q1023 NOSIG
ZBAA,2025-03-04 05:00,ZBAA 040500Z VRB03G09MPS CAVOK 08/M12 Q1022 BECMG TL0640 18005MPS
ZBAA,2025-03-04 05:30,ZBAA 040530Z 20003MPS 150V270 CAVOK 09/M13 Q1022 NOSIG
ZBAA,2025-03-04 06:00,ZBAA 040600Z 21004MPS 180V250 CAVOK 08/M12 Q1021 NOSIG
ZBAA,2025-03-04 06:30,ZBAA 040630Z 18004MPS 140V210 CAVOK 09/M12 Q1021 NOSIG
ZBAA,2025-03-04 07:00,ZBAA 040700Z VRB03MPS CAVOK 10/M11 Q1021 BECMG TL0840 18005MPS
ZBAA,2025-03-04 07:30,ZBAA 040730Z 22003MPS 180V270 CAVOK 09/M12 Q1020 NOSIG
ZBAA,2025-03-04 08:00,ZBAA 040800Z 20003MPS 170V250 CAVOK 09/M12 Q1020 NOSIG
ZBAA,2025-03-04 08:30,ZBAA 040830Z 19004MPS 160V220 CAVOK 09/M11 Q1020 NOSIG
ZBAA,2025-03-04 09:00,ZBAA 040900Z 17003MPS CAVOK 09/M11 Q1020 NOSIG
ZBAA,2025-03-04 09:30,ZBAA 040930Z 17003MPS 130V200 CAVOK 08/M11 Q1020 NOSIG
ZBAA,2025-03-04 10:00,ZBAA 041000Z 19004MPS CAVOK 07/M11 Q1020 NOSIG
ZBAA,2025-03-04 10:30,ZBAA 041030Z 17003MPS CAVOK 05/M11 Q1021 NOSIG
ZBAA,2025-03-04 11:00,ZBAA 041100Z 16002MPS CAVOK 05/M11 Q1021 NOSIG
ZBAA,2025-03-04 11:30,ZBAA 041130Z 17003MPS CAVOK 04/M10 Q1021 NOSIG
ZBAA,2025-03-04 12:00,ZBAA 041200Z 20003MPS CAVOK 05/M10 Q1022 NOSIG
ZBAA,2025-03-04 12:30,ZBAA 041230Z 20004MPS CAVOK 06/M10 Q1022 NOSIG
ZBAA,2025-03-04 13:00,ZBAA 041300Z 20004MPS CAVOK 06/M11 Q1023 NOSIG
ZBAA,2025-03-04 13:30,ZBAA 041330Z 18004MPS CAVOK 05/M11 Q1023 NOSIG
ZBAA,2025-03-04 14:00,ZBAA 041400Z 19004MPS 160V240 CAVOK 05/M11 Q1023 NOSIG
ZBAA,2025-03-04 14:30,ZBAA 041430Z 17002MPS CAVOK 05/M11 Q1023 NOSIG
ZBAA,2025-03-04 15:00,ZBAA 041500Z 17001MPS CAVOK 03/M11 Q1023 NOSIG
ZBAA,2025-03-04 15:30,ZBAA 041530Z 16002MPS CAVOK 03/M10 Q1024 NOSIG
ZBAA,2025-03-04 16:00,ZBAA 041600Z 15003MPS CAVOK 03/M11 Q1024 NOSIG
ZBAA,2025-03-04 16:30,ZBAA 041630Z 16005MPS CAVOK 03/M11 Q1024 NOSIG
ZBAA,2025-03-04 17:00,ZBAA 041700Z 15003MPS CAVOK 03/M11 Q1024 NOSIG
ZBAA,2025-03-04 17:30,ZBAA 041730Z 12002MPS CAVOK 02/M10 Q1024 NOSIG
ZBAA,2025-03-04 18:00,ZBAA 041800Z 13002MPS 090V150 CAVOK 02/M10 Q1024 NOSIG
ZBAA,2025-03-04 18:30,ZBAA 041830Z 10002MPS 070V130 CAVOK 01/M08 Q1024 NOSIG
ZBAA,2025-03-04 19:00,ZBAA 041900Z 10002MPS 070V130 CAVOK 00/M07 Q1025 NOSIG
ZBAA,2025-03-04 19:30,ZBAA 041930Z 09002MPS 050V120 CAVOK M00/M06 Q1025 NOSIG
ZBAA,2025-03-04 20:00,ZBAA 042000Z 12002MPS 090V150 CAVOK M01/M05 Q1025 NOSIG
ZBAA,2025-03-04 20:30,ZBAA 042030Z 12003MPS 070V150 CAVOK M00/M04 Q1025 NOSIG
ZBAA,2025-03-04 21:00,ZBAA 042100Z 10002MPS 070V150 CAVOK M00/M04 Q1025 NOSIG
ZBAA,2025-03-04 21:30,ZBAA 042130Z VRB01MPS CAVOK M01/M04 Q1025 NOSIG
ZBAA,2025-03-04 22:00,ZBAA 042200Z 04001MPS CAVOK M03/M06 Q1026 NOSIG
ZBAA,2025-03-04 22:30,ZBAA 042230Z 09001MPS 8000 NSC M03/M05 Q1026 NOSIG
ZBAA,2025-03-04 23:00,ZBAA 042300Z 00000MPS 6000 NSC M02/M04 Q1027 NOSIG
ZBAA,2025-03-04 23:30,ZBAA 042330Z 06001MPS 6000 NSC M03/M05 Q1027 NOSIG
ZBAA,2025-03-05 00:00,ZBAA 050000Z VRB01MPS 5000 BR NSC 00/M02 Q1028 NOSIG
ZBAA,2025-03-05 00:30,ZBAA 050030Z VRB01MPS 5000 BR NSC 01/M02 Q1028 NOSIG
ZBAA,2025-03-05 01:00,ZBAA 050100Z VRB01MPS 5000 BR NSC 02/M02 Q1028 NOSIG
ZBAA,2025-03-05 01:30,ZBAA 050130Z VRB01MPS 5000 BR NSC 03/M02 Q1028 NOSIG
ZBAA,2025-03-05 02:00,ZBAA 050200Z 31002MPS 240V010 7000 NSC 04/M04 Q1028 NOSIG
ZBAA,2025-03-05 02:30,ZBAA 050230Z VRB01MPS 7000 NSC 04/M04 Q1028 NOSIG
ZBAA,2025-03-05 03:00,ZBAA 050300Z VRB02MPS 7000 NSC 06/M04 Q1028 NOSIG
ZBAA,2025-03-05 03:30,ZBAA 050330Z VRB02MPS 7000 NSC 07/M04 Q1028 NOSIG
ZBAA,2025-03-05 04:00,ZBAA 050400Z 22002MPS 170V260 7000 NSC 08/M05 Q1028 NOSIG
ZBAA,2025-03-05 04:30,ZBAA 050430Z VRB02MPS 7000 NSC 09/M06 Q1027 NOSIG
ZBAA,2025-03-05 05:00,ZBAA 050500Z VRB01MPS CAVOK 11/M06 Q1027 NOSIG
ZBAA,2025-03-05 05:30,ZBAA 050530Z VRB01MPS CAVOK 11/M06 Q1026 NOSIG
ZBAA,2025-03-05 06:00,ZBAA 050600Z 26002MPS 180V310 CAVOK 12/M06 Q1026 NOSIG
ZBAA,2025-03-05 06:30,ZBAA 050630Z VRB02MPS CAVOK 12/M07 Q1026 NOSIG
ZBAA,2025-03-05 07:00,ZBAA 050700Z VRB01MPS CAVOK 13/M07 Q1026 NOSIG
ZBAA,2025-03-05 07:30,ZBAA 050730Z 23002MPS 180V310 CAVOK 13/M07 Q1026 NOSIG
ZBAA,2025-03-05 08:00,ZBAA 050800Z VRB01MPS CAVOK 13/M07 Q1026 NOSIG
ZBAA,2025-03-05 08:30,ZBAA 050830Z 31002MPS 260V360 CAVOK 13/M07 Q1026 NOSIG
ZBAA,2025-03-05 09:00,ZBAA 050900Z VRB01MPS CAVOK 12/M07 Q1026 NOSIG
ZBAA,2025-03-05 09:30,ZBAA 050930Z VRB01MPS CAVOK 12/M08 Q1027 NOSIG
ZBAA,2025-03-05 10:00,ZBAA 051000Z VRB01MPS CAVOK 11/M07 Q1027 NOSIG
ZBAA,2025-03-05 10:30,ZBAA 051030Z VRB01MPS CAVOK 09/M07 Q1027 NOSIG
ZBAA,2025-03-05 11:00,ZBAA 051100Z 01002MPS CAVOK 08/M07 Q1028 NOSIG
ZBAA,2025-03-05 11:30,ZBAA 051130Z 36004MPS 330V030 CAVOK 11/M10 Q1028 NOSIG
ZBAA,2025-03-05 12:00,ZBAA 051200Z 05002MPS CAVOK 10/M09 Q1029 NOSIG
ZBAA,2025-03-05 12:30,ZBAA 051230Z 08002MPS 040V130 CAVOK 09/M06 Q1030 NOSIG
ZBAA,2025-03-05 13:00,ZBAA 051300Z 07001MPS CAVOK 08/M06 Q1030 NOSIG
ZBAA,2025-03-05 13:30,ZBAA 051330Z 03003MPS CAVOK 09/M08 Q1031 NOSIG
ZBAA,2025-03-05 14:00,ZBAA 051400Z 03003MPS 350V070 CAVOK 09/M09 Q1031 NOSIG
ZBAA,2025-03-05 14:30,ZBAA 051430Z 05002MPS CAVOK 08/M09 Q1032 NOSIG
ZBAA,2025-03-05 15:00,ZBAA 051500Z 03003MPS 350V060 CAVOK 07/M09 Q1032 NOSIG
ZBAA,2025-03-05 15:30,ZBAA 051530Z 02005MPS CAVOK 07/M08 Q1032 NOSIG
ZBAA,2025-03-05 16:00,ZBAA 051600Z 02004MPS CAVOK 07/M09 Q1032 NOSIG
ZBAA,2025-03-05 16:30,ZBAA 051630Z 02004MPS CAVOK 07/M09 Q1033 NOSIG
ZBAA,2025-03-05 17:00,ZBAA 051700Z 02004MPS CAVOK 06/M09 Q1033 NOSIG
ZBAA,2025-03-05 17:30,ZBAA 051730Z 03003MPS CAVOK 06/M09 Q1033 NOSIG
ZBAA,2025-03-05 18:00,ZBAA 051800Z 02003MPS 350V050 CAVOK 05/M09 Q1034 NOSIG
ZBAA,2025-03-05 18:30,ZBAA 051830Z 36002MPS CAVOK 01/M09 Q1034 NOSIG
ZBAA,2025-03-05 19:00,ZBAA 051900Z 35003MPS CAVOK 02/M09 Q1034 NOSIG
ZBAA,2025-03-05 19:30,ZBAA 051930Z 36002MPS CAVOK M01/M09 Q1034 NOSIG
ZBAA,2025-03-05 20:00,ZBAA 052000Z 35003MPS CAVOK M01/M09 Q1034 NOSIG
ZBAA,2025-03-05 20:30,ZBAA 052030Z 34002MPS CAVOK M01/M09 Q1034 NOSIG
ZBAA,2025-03-05 21:00,ZBAA 052100Z 35003MPS CAVOK M01/M09 Q1034 NOSIG
ZBAA,2025-03-05 21:30,ZBAA 052130Z 01002MPS CAVOK M03/M09 Q1034 NOSIG
ZBAA,2025-03-05 22:00,ZBAA 052200Z 01002MPS 350V050 CAVOK M02/M09 Q1035 NOSIG
ZBAA,2025-03-05 22:30,ZBAA 052230Z 06001MPS CAVOK M04/M09 Q1035 NOSIG
ZBAA,2025-03-05 23:00,ZBAA 052300Z 35002MPS CAVOK M02/M08 Q1035 NOSIG
ZBAA,2025-03-05 23:30,ZBAA 052330Z 35002MPS CAVOK M01/M08 Q1036 NOSIG
ZBAA,2025-03-06 00:00,ZBAA 060000Z 35002MPS CAVOK 04/M07 Q1036 NOSIG
ZBAA,2025-03-06 00:30,ZBAA 060030Z 33003MPS 290V350 CAVOK 06/M09 Q1036 NOSIG
ZBAA,2025-03-06 01:00,ZBAA 060100Z 35002MPS 310V040 CAVOK 08/M09 Q1036 NOSIG
ZBAA,2025-03-06 01:30,ZBAA 060130Z 35003MPS 310V020 CAVOK 09/M09 Q1036 NOSIG
ZBAA,2025-03-06 02:00,ZBAA 060200Z 32004MPS 290V350 CAVOK 09/M10 Q1036 NOSIG
ZBAA,2025-03-06 02:30,ZBAA 060230Z 34003MPS 300V010 CAVOK 11/M10 Q1036 NOSIG
ZBAA,2025-03-06 03:00,ZBAA 060300Z VRB02MPS CAVOK 10/M10 Q1035 NOSIG
ZBAA,2025-03-06 03:30,ZBAA 060330Z 34003MPS 280V030 CAVOK 11/M11 Q1035 NOSIG
ZBAA,2025-03-06 04:00,ZBAA 060400Z 35003G08MPS 280V050 CAVOK 11/M13 Q1034 NOSIG
ZBAA,2025-03-06 04:30,ZBAA 060430Z VRB02MPS CAVOK 13/M13 Q1034 NOSIG
ZBAA,2025-03-06 05:00,ZBAA 060500Z 32004MPS 280V360 CAVOK 13/M13 Q1033 NOSIG
ZBAA,2025-03-06 05:30,ZBAA 060530Z VRB02MPS CAVOK 12/M13 Q1032 NOSIG
ZBAA,2025-03-06 06:00,ZBAA 060600Z 21003MPS 150V270 CAVOK 12/M14 Q1032 NOSIG
ZBAA,2025-03-06 06:30,ZBAA 060630Z VRB02MPS CAVOK 13/M13 Q1031 NOSIG
ZBAA,2025-03-06 07:00,ZBAA 060700Z VRB02MPS CAVOK 12/M14 Q1031 NOSIG
ZBAA,2025-03-06 07:30,ZBAA 060730Z VRB01MPS CAVOK 12/M14 Q1030 NOSIG
ZBAA,2025-03-06 08:00,ZBAA 060800Z VRB02MPS CAVOK 13/M14 Q1030 NOSIG
ZBAA,2025-03-06 08:30,ZBAA 060830Z 18002MPS 120V260 CAVOK 12/M15 Q1030 NOSIG
ZBAA,2025-03-06 09:00,ZBAA 060900Z 18003MPS 150V220 CAVOK 11/M14 Q1030 NOSIG
ZBAA,2025-03-06 09:30,ZBAA 060930Z 17004MPS CAVOK 11/M13 Q1029 NOSIG
ZBAA,2025-03-06 10:00,ZBAA 061000Z 15003MPS CAVOK 10/M14 Q1030 NOSIG
ZBAA,2025-03-06 10:30,ZBAA 061030Z 17002MPS CAVOK 09/M13 Q1030 NOSIG
ZBAA,2025-03-06 11:00,ZBAA 061100Z 16002MPS CAVOK 07/M13 Q1030 NOSIG
ZBAA,2025-03-06 11:30,ZBAA 061130Z 17002MPS CAVOK 07/M13 Q1030 NOSIG
ZBAA,2025-03-06 12:00,ZBAA 061200Z 16002MPS CAVOK 07/M13 Q1030 NOSIG
ZBAA,2025-03-06 12:30,ZBAA 061230Z 16002MPS 140V200 CAVOK 06/M13 Q1030 NOSIG
ZBAA,2025-03-06 13:00,ZBAA 061300Z 14002MPS CAVOK 04/M13 Q1030 NOSIG
ZBAA,2025-03-06 13:30,ZBAA 061330Z 17002MPS 150V230 CAVOK 05/M11 Q1030 NOSIG
ZBAA,2025-03-06 14:00,ZBAA 061400Z 15002MPS CAVOK 04/M12 Q1031 NOSIG
ZBAA,2025-03-06 14:30,ZBAA 061430Z 15002MPS CAVOK 04/M12 Q1030 NOSIG
ZBAA,2025-03-06 15:00,ZBAA 061500Z 14002MPS CAVOK 04/M12 Q1030 NOSIG
ZBAA,2025-03-06 15:30,ZBAA 061530Z 14003MPS CAVOK 05/M11 Q1029 NOSIG
ZBAA,2025-03-06 16:00,ZBAA 061600Z 15003MPS CAVOK 07/M11 Q1029 NOSIG
ZBAA,2025-03-06 16:30,ZBAA 061630Z 16003MPS CAVOK 04/M11 Q1029 NOSIG
ZBAA,2025-03-06 17:00,ZBAA 061700Z 14002MPS 110V170 CAVOK 05/M11 Q1029 NOSIG
ZBAA,2025-03-06 17:30,ZBAA 061730Z 10001MPS CAVOK 02/M11 Q1029 NOSIG
ZBAA,2025-03-06 18:00,ZBAA 061800Z 11002MPS CAVOK 04/M10 Q1029 NOSIG
ZBAA,2025-03-06 18:30,ZBAA 061830Z 13003MPS CAVOK 04/M09 Q1028 NOSIG
ZBAA,2025-03-06 19:00,ZBAA 061900Z 13003MPS CAVOK 05/M08 Q1028 NOSIG
ZBAA,2025-03-06 19:30,ZBAA 061930Z 12002MPS 070V140 CAVOK 04/M07 Q1028 NOSIG
ZBAA,2025-03-06 20:00,ZBAA 062000Z 09002MPS 060V120 CAVOK 03/M07 Q1028 NOSIG
ZBAA,2025-03-06 20:30,ZBAA 062030Z VRB01MPS CAVOK 02/M06 Q1027 NOSIG
ZBAA,2025-03-06 21:00,ZBAA 062100Z 07001MPS CAVOK 01/M07 Q1027 NOSIG
ZBAA,2025-03-06 21:30,ZBAA 062130Z 07001MPS CAVOK 01/M07 Q1027 NOSIG
ZBAA,2025-03-06 22:00,ZBAA 062200Z 09001MPS CAVOK 00/M07 Q1027 NOSIG
ZBAA,2025-03-06 22:30,ZBAA 062230Z 10002MPS CAVOK 00/M07 Q1027 NOSIG
ZBAA,2025-03-06 23:00,ZBAA 062300Z VRB01MPS CAVOK 01/M06 Q1027 NOSIG
ZBAA,2025-03-06 23:30,ZBAA 062330Z VRB01MPS CAVOK 02/M06 Q1027 NOSIG
ZBAA,2025-03-07 00:00,ZBAA 070000Z 08002MPS CAVOK 03/M05 Q1027 NOSIG
ZBAA,2025-03-07 00:30,ZBAA 070030Z 11002MPS 070V140 CAVOK 04/M05 Q1027 NOSIG
ZBAA,2025-03-07 01:00,ZBAA 070100Z 14003MPS 110V170 CAVOK 05/M05 Q1027 NOSIG
ZBAA,2025-03-07 01:30,ZBAA 070130Z 15003MPS CAVOK 05/M05 Q1027 NOSIG
ZBAA,2025-03-07 02:00,ZBAA 070200Z 13002MPS 090V180 CAVOK 05/M05 Q1027 NOSIG
ZBAA,2025-03-07 02:30,ZBAA 070230Z 16002MPS 120V210 CAVOK 06/M05 Q1027 NOSIG
ZBAA,2025-03-07 03:00,ZBAA 070300Z VRB02MPS CAVOK 07/M05 Q1027 NOSIG
ZBAA,2025-03-07 03:30,ZBAA 070330Z 15003MPS 090V190 CAVOK 08/M05 Q1026 NOSIG
ZBAA,2025-03-07 04:00,ZBAA 070400Z VRB02MPS CAVOK 09/M05 Q1026 BECMG TL0550 19005MPS
ZBAA,2025-03-07 04:30,ZBAA 070430Z 14002MPS 060V190 CAVOK 09/M05 Q1025 NOSIG
ZBAA,2025-03-07 05:00,ZBAA 070500Z 17003MPS 120V230 CAVOK 09/M06 Q1024 NOSIG
ZBAA,2025-03-07 05:30,ZBAA 070530Z 20005MPS 170V240 CAVOK 10/M07 Q1024 NOSIG
ZBAA,2025-03-07 06:00,ZBAA 070600Z 21004MPS 170V230 CAVOK 11/M08 Q1023 NOSIG
ZBAA,2025-03-07 06:30,ZBAA 070630Z 23004MPS 190V250 CAVOK 11/M07 Q1023 NOSIG
ZBAA,2025-03-07 07:00,ZBAA 070700Z 21005MPS 180V250 CAVOK 11/M07 Q1022 NOSIG
ZBAA,2025-03-07 07:30,ZBAA 070730Z 26005MPS CAVOK 10/M06 Q1022 NOSIG
ZBAA,2025-03-07 07:51,ZBAA 070751Z 20004MPS 170V250 CAVOK 10/M06 Q1022 NOSIG
ZBAA,2025-03-07 08:00,ZBAA 070800Z 20005G11MPS 170V240 CAVOK 10/M06 Q1022 NOSIG
ZBAA,2025-03-07 08:30,ZBAA 070830Z 22003MPS 170V270 9999 -RA NSC 09/M04 Q1022 NOSIG
ZBAA,2025-03-07 09:00,ZBAA 070900Z VRB02MPS 9999 -RA NSC 08/M03 Q1022 NOSIG
ZBAA,2025-03-07 09:30,ZBAA 070930Z VRB01MPS 9999 -RA NSC 07/M01 Q1022 NOSIG
ZBAA,2025-03-07 10:00,ZBAA 071000Z 23003MPS 200V280 9999 -RA NSC 07/M02 Q1022 NOSIG
ZBAA,2025-03-07 10:30,ZBAA 071030Z 17003MPS 9999 -RA NSC 06/M01 Q1022 NOSIG
ZBAA,2025-03-07 11:00,ZBAA 071100Z VRB01MPS CAVOK 07/M01 Q1022 NOSIG
ZBAA,2025-03-07 11:30,ZBAA 071130Z VRB01MPS CAVOK 07/M01 Q1023 NOSIG
ZBAA,2025-03-07 12:00,ZBAA 071200Z 12001MPS CAVOK 05/M01 Q1023 NOSIG
ZBAA,2025-03-07 12:30,ZBAA 071230Z 13001MPS CAVOK 05/M01 Q1023 NOSIG
ZBAA,2025-03-07 13:00,ZBAA 071300Z 16001MPS CAVOK 05/M01 Q1023 NOSIG
ZBAA,2025-03-07 13:30,ZBAA 071330Z VRB01MPS CAVOK 04/M02 Q1023 NOSIG
ZBAA,2025-03-07 14:00,ZBAA 071400Z 00000MPS CAVOK 04/M02 Q1023 NOSIG
ZBAA,2025-03-07 14:30,ZBAA 071430Z VRB01MPS CAVOK 02/M03 Q1023 NOSIG
ZBAA,2025-03-07 15:00,ZBAA 071500Z 00000MPS CAVOK 02/M02 Q1022 NOSIG
ZBAA,2025-03-07 15:30,ZBAA 071530Z 00000MPS CAVOK 01/M02 Q1022 NOSIG
ZBAA,2025-03-07 16:00,ZBAA 071600Z 00000MPS CAVOK 00/M03 Q1022 NOSIG
ZBAA,2025-03-07 16:30,ZBAA 071630Z VRB01MPS CAVOK 01/M02 Q1022 NOSIG
ZBAA,2025-03-07 17:00,ZBAA 071700Z VRB01MPS CAVOK M01/M03 Q1022 NOSIG
ZBAA,2025-03-07 17:30,ZBAA 071730Z 00000MPS 8000 NSC M02/M04 Q1022 NOSIG
ZBAA,2025-03-07 18:00,ZBAA 071800Z 00000MPS 8000 NSC M01/M03 Q1022 NOSIG
ZBAA,2025-03-07 18:30,ZBAA 071830Z 05001MPS 8000 NSC M02/M04 Q1022 NOSIG
ZBAA,2025-03-07 19:00,ZBAA 071900Z 05001MPS 7000 NSC M02/M04 Q1022 NOSIG
ZBAA,2025-03-07 19:30,ZBAA 071930Z VRB01MPS 7000 NSC M02/M04 Q1022 NOSIG
ZBAA,2025-03-07 20:00,ZBAA 072000Z 02001MPS 7000 NSC M03/M04 Q1022 NOSIG
ZBAA,2025-03-07 20:30,ZBAA 072030Z 03001MPS 7000 NSC M03/M04 Q1022 NOSIG
ZBAA,2025-03-07 21:00,ZBAA 072100Z 36002MPS 7000 NSC M03/M04 Q1022 NOSIG
ZBAA,2025-03-07 21:30,ZBAA 072130Z VRB01MPS 7000 NSC M03/M04 Q1022 NOSIG
ZBAA,2025-03-07 22:00,ZBAA 072200Z VRB01MPS 7000 NSC M03/M04 Q1022 NOSIG
ZBAA,2025-03-07 22:30,ZBAA 072230Z 00000MPS 6000 NSC M03/M04 Q1023 NOSIG
ZBAA,2025-03-07 23:00,ZBAA 072300Z VRB01MPS 6000 NSC M04/M05 Q1023 NOSIG
ZBAA,2025-03-07 23:30,ZBAA 072330Z 09001MPS 6000 NSC M03/M04 Q1023 NOSIG
ZBAA,2025-03-08 00:00,ZBAA 080000Z 04001MPS 6000 NSC M00/M01 Q1024 NOSIG
ZBAA,2025-03-08 00:30,ZBAA 080030Z 02002MPS 6000 NSC 03/M01 Q1024 NOSIG
ZBAA,2025-03-08 01:00,ZBAA 080100Z VRB01MPS 6000 NSC 05/M01 Q1024 NOSIG
ZBAA,2025-03-08 01:30,ZBAA 080130Z VRB01MPS 6000 NSC 06/M01 Q1024 NOSIG
ZBAA,2025-03-08 02:00,ZBAA 080200Z 28002MPS 210V340 6000 NSC 07/M01 Q1024 NOSIG
ZBAA,2025-03-08 02:30,ZBAA 080230Z VRB01MPS 6000 NSC 08/M02 Q1024 NOSIG
ZBAA,2025-03-08 03:00,ZBAA 080300Z VRB01MPS 7000 NSC 09/M01 Q1024 NOSIG
ZBAA,2025-03-08 03:30,ZBAA 080330Z 29002MPS 220V330 7000 NSC 10/M02 Q1024 NOSIG
ZBAA,2025-03-08 04:00,ZBAA 080400Z VRB01MPS 7000 NSC 11/M01 Q1024 NOSIG
ZBAA,2025-03-08 04:30,ZBAA 080430Z 23003MPS 160V330 7000 NSC 11/M01 Q1023 NOSIG
ZBAA,2025-03-08 05:00,ZBAA 080500Z 23003MPS 160V280 7000 NSC 12/M02 Q1023 NOSIG
ZBAA,2025-03-08 05:30,ZBAA 080530Z 21003MPS 150V290 7000 NSC 13/M02 Q1023 NOSIG
ZBAA,2025-03-08 06:00,ZBAA 080600Z 18003MPS 130V220 7000 NSC 14/M01 Q1022 NOSIG
ZBAA,2025-03-08 06:30,ZBAA 080630Z 19004MPS 160V240 7000 NSC 15/M02 Q1022 NOSIG
ZBAA,2025-03-08 07:00,ZBAA 080700Z 21004G09MPS 180V250 CAVOK 15/M02 Q1021 NOSIG
ZBAA,2025-03-08 07:30,ZBAA 080730Z 21004MPS 180V250 CAVOK 15/M02 Q1021 NOSIG
ZBAA,2025-03-08 08:00,ZBAA 080800Z 20004MPS CAVOK 15/M03 Q1021 NOSIG
ZBAA,2025-03-08 08:30,ZBAA 080830Z 21004MPS 170V240 CAVOK 15/M03 Q1021 NOSIG
ZBAA,2025-03-08 09:00,ZBAA 080900Z 22004MPS CAVOK 15/M04 Q1021 NOSIG
ZBAA,2025-03-08 09:30,ZBAA 080930Z 21004MPS CAVOK 14/M03 Q1021 NOSIG
ZBAA,2025-03-08 10:00,ZBAA 081000Z 20003MPS CAVOK 12/M04 Q1022 NOSIG
ZBAA,2025-03-08 10:30,ZBAA 081030Z 20003MPS CAVOK 11/M04 Q1022 NOSIG
ZBAA,2025-03-08 11:00,ZBAA 081100Z 17002MPS CAVOK 09/M04 Q1022 NOSIG
ZBAA,2025-03-08 11:30,ZBAA 081130Z 14002MPS CAVOK 08/M03 Q1023 NOSIG
ZBAA,2025-03-08 12:00,ZBAA 081200Z 15002MPS CAVOK 07/M03 Q1023 NOSIG
ZBAA,2025-03-08 12:30,ZBAA 081230Z 14002MPS CAVOK 06/M03 Q1023 NOSIG
ZBAA,2025-03-08 13:00,ZBAA 081300Z 13001MPS 8000 NSC 05/M02 Q1024 NOSIG
ZBAA,2025-03-08 13:30,ZBAA 081330Z 15001MPS 8000 NSC 05/M03 Q1024 NOSIG
ZBAA,2025-03-08 14:00,ZBAA 081400Z 14002MPS 8000 NSC 06/M01 Q1024 NOSIG
ZBAA,2025-03-08 14:30,ZBAA 081430Z VRB01MPS 7000 NSC 05/M01 Q1024 NOSIG
ZBAA,2025-03-08 15:00,ZBAA 081500Z 08002MPS 5000 HZ NSC 03/M02 Q1024 NOSIG
ZBAA,2025-03-08 15:30,ZBAA 081530Z 10002MPS 5000 HZ NSC 03/M02 Q1024 NOSIG
ZBAA,2025-03-08 16:00,ZBAA 081600Z 10001MPS 4500 HZ NSC 03/M01 Q1024 NOSIG
ZBAA,2025-03-08 16:30,ZBAA 081630Z 12002MPS 4500 BR NSC 02/M02 Q1024 NOSIG
ZBAA,2025-03-08 17:00,ZBAA 081700Z 13002MPS 4500 BR NSC 02/M01 Q1024 NOSIG
ZBAA,2025-03-08 17:30,ZBAA 081730Z 12002MPS 4000 BR NSC 02/M01 Q1024 NOSIG
ZBAA,2025-03-08 18:00,ZBAA 081800Z 12002MPS 080V140 4000 BR NSC 04/01 Q1024 NOSIG
ZBAA,2025-03-08 18:30,ZBAA 081830Z 13002MPS 4000 BR NSC 05/01 Q1024 NOSIG
ZBAA,2025-03-08 19:00,ZBAA 081900Z 07002MPS 4000 BR NSC 04/00 Q1024 NOSIG
ZBAA,2025-03-08 19:30,ZBAA 081930Z 05002MPS 4000 BR NSC 02/M01 Q1024 NOSIG
ZBAA,2025-03-08 20:00,ZBAA 082000Z 07002MPS 3500 BR NSC 01/M02 Q1024 BECMG TL2140 2700
ZBAA,2025-03-08 20:30,ZBAA 082030Z 06001MPS 3500 BR NSC 00/M02 Q1025 NOSIG
ZBAA,2025-03-08 21:00,ZBAA 082100Z 02001MPS 3000 BR NSC M01/M03 Q1025 BECMG TL2140 2700
ZBAA,2025-03-08 21:30,ZBAA 082130Z 04001MPS 3000 BR NSC M01/M02 Q1025 NOSIG
ZBAA,2025-03-08 22:00,ZBAA 082200Z 07001MPS 2700 BR NSC M02/M03 Q1025 NOSIG
ZBAA,2025-03-08 22:30,ZBAA 082230Z VRB01MPS 2000 BR NSC M01/M03 Q1025 NOSIG
ZBAA,2025-03-08 23:00,ZBAA 082300Z 08001MPS 1700 BR NSC 01/00 Q1026 NOSIG
ZBAA,2025-03-08 23:30,ZBAA 082330Z 07001MPS 1700 R36L/1800N R36R/1700N R01/1200N BR NSC 00/M01 Q1026 NOSIG
ZBAA,2025-03-09 00:00,ZBAA 090000Z 07001MPS 1700 R36L/1600N R36R/1600N R01/1400N BR NSC 03/02 Q1026 NOSIG
ZBAA,2025-03-09 00:30,ZBAA 090030Z 13002MPS 1700 BR NSC 05/02 Q1026 NOSIG
ZBAA,2025-03-09 01:00,ZBAA 090100Z 14002MPS 070V180 2200 BR NSC 06/02 Q1026 BECMG TL0140 3200
ZBAA,2025-03-09 01:30,ZBAA 090130Z VRB01MPS 2600 HZ NSC 08/02 Q1027 NOSIG
ZBAA,2025-03-09 02:00,ZBAA 090200Z 11002MPS 060V210 2800 HZ NSC 08/02 Q1026 BECMG TL0240 3200
ZBAA,2025-03-09 02:30,ZBAA 090230Z VRB01MPS 2800 HZ NSC 10/02 Q1026 NOSIG
ZBAA,2025-03-09 03:00,ZBAA 090300Z 17002MPS 130V210 3000 HZ NSC 11/02 Q1026 NOSIG
ZBAA,2025-03-09 03:30,ZBAA 090330Z 11002MPS 040V180 3200 HZ NSC 12/02 Q1025 NOSIG
ZBAA,2025-03-09 04:00,ZBAA 090400Z 17004MPS 100V220 3500 HZ NSC 13/02 Q1025 NOSIG
ZBAA,2025-03-09 04:30,ZBAA 090430Z 17004MPS 140V220 4000 HZ NSC 14/02 Q1024 NOSIG
ZBAA,2025-03-09 05:00,ZBAA 090500Z 20004MPS 180V240 4000 HZ NSC 15/02 Q1024 NOSIG
ZBAA,2025-03-09 05:30,ZBAA 090530Z 18004MPS 130V220 5000 HZ NSC 15/01 Q1023 NOSIG
ZBAA,2025-03-09 06:00,ZBAA 090600Z 19005MPS 5000 HZ NSC 16/01 Q1022 NOSIG
ZBAA,2025-03-09 06:30,ZBAA 090630Z 18007MPS 150V230 6000 NSC 17/01 Q1022 NOSIG
ZBAA,2025-03-09 07:00,ZBAA 090700Z 21008MPS 180V240 7000 NSC 16/00 Q1021 NOSIG
ZBAA,2025-03-09 07:30,ZBAA 090730Z 22007MPS 7000 NSC 17/01 Q1021 NOSIG
ZBAA,2025-03-09 08:00,ZBAA 090800Z 20007MPS 7000 NSC 16/01 Q1020 NOSIG
ZBAA,2025-03-09 08:30,ZBAA 090830Z 21007MPS 7000 NSC 16/01 Q1020 NOSIG
ZBAA,2025-03-09 09:00,ZBAA 090900Z 19005MPS 7000 NSC 16/01 Q1020 NOSIG
ZBAA,2025-03-09 09:30,ZBAA 090930Z 20005MPS 7000 NSC 15/01 Q1020 NOSIG
ZBAA,2025-03-09 10:00,ZBAA 091000Z 19004MPS 7000 NSC 15/02 Q1020 NOSIG
ZBAA,2025-03-09 10:30,ZBAA 091030Z 19005MPS 7000 NSC 14/01 Q1020 NOSIG
ZBAA,2025-03-09 11:00,ZBAA 091100Z 18003MPS CAVOK 14/01 Q1020 NOSIG
ZBAA,2025-03-09 11:30,ZBAA 091130Z 18004MPS CAVOK 13/01 Q1020 NOSIG
ZBAA,2025-03-09 12:00,ZBAA 091200Z 18005MPS CAVOK 14/01 Q1020 NOSIG
ZBAA,2025-03-09 12:30,ZBAA 091230Z 17005MPS CAVOK 14/01 Q1020 NOSIG
ZBAA,2025-03-09 13:00,ZBAA 091300Z 18006MPS CAVOK 14/01 Q1020 NOSIG
ZBAA,2025-03-09 13:30,ZBAA 091330Z 18005MPS CAVOK 14/01 Q1020 NOSIG
ZBAA,2025-03-09 14:00,ZBAA 091400Z 18005MPS CAVOK 14/01 Q1020 NOSIG
ZBAA,2025-03-09 14:30,ZBAA 091430Z 18006MPS CAVOK 14/01 Q1020 NOSIG
ZBAA,2025-03-09 15:00,ZBAA 091500Z 18007MPS CAVOK 13/01 Q1020 NOSIG
ZBAA,2025-03-09 15:30,ZBAA 091530Z 18006MPS CAVOK 13/01 Q1020 NOSIG
ZBAA,2025-03-09 16:00,ZBAA 091600Z 18005MPS CAVOK 12/01 Q1020 NOSIG
ZBAA,2025-03-09 16:30,ZBAA 091630Z 18006MPS CAVOK 11/00 Q1020 NOSIG
ZBAA,2025-03-09 17:00,ZBAA 091700Z 18006MPS CAVOK 11/01 Q1019 NOSIG
ZBAA,2025-03-09 17:30,ZBAA 091730Z 17005MPS CAVOK 10/00 Q1019 NOSIG
ZBAA,2025-03-09 18:00,ZBAA 091800Z 17005MPS CAVOK 10/00 Q1019 NOSIG
ZBAA,2025-03-09 18:30,ZBAA 091830Z 17005MPS CAVOK 10/01 Q1019 NOSIG
ZBAA,2025-03-09 19:00,ZBAA 091900Z 16004MPS CAVOK 09/00 Q1018 NOSIG
ZBAA,2025-03-09 19:30,ZBAA 091930Z 16004MPS 8000 NSC 09/00 Q1018 NOSIG
ZBAA,2025-03-09 20:00,ZBAA 092000Z 16004MPS 8000 NSC 09/M00 Q1018 NOSIG
ZBAA,2025-03-09 20:30,ZBAA 092030Z 16003MPS 8000 NSC 08/M00 Q1018 NOSIG
ZBAA,2025-03-09 21:00,ZBAA 092100Z 15002MPS 8000 NSC 08/00 Q1018 NOSIG
ZBAA,2025-03-09 21:30,ZBAA 092130Z 14002MPS 8000 NSC 07/M00 Q1018 NOSIG
ZBAA,2025-03-09 22:00,ZBAA 092200Z 13002MPS 8000 NSC 07/M00 Q1019 NOSIG
ZBAA,2025-03-09 22:30,ZBAA 092230Z 10002MPS 6000 NSC 05/M00 Q1019 NOSIG
ZBAA,2025-03-09 23:00,ZBAA 092300Z 13001MPS 6000 NSC 04/M01 Q1019 NOSIG
ZBAA,2025-03-09 23:30,ZBAA 092330Z 09001MPS 6000 NSC 05/M00 Q1019 NOSIG
ZBAA,2025-03-10 00:00,ZBAA 100000Z 12002MPS 080V150 6000 NSC 08/01 Q1019 NOSIG
ZBAA,2025-03-10 00:30,ZBAA 100030Z 13002MPS 090V160 6000 NSC 09/00 Q1019 NOSIG
ZBAA,2025-03-10 01:00,ZBAA 100100Z 14003MPS 110V180 6000 NSC 09/00 Q1019 NOSIG
ZBAA,2025-03-10 01:30,ZBAA 100130Z 17003MPS 130V200 6000 NSC 10/01 Q1019 NOSIG
ZBAA,2025-03-10 02:00,ZBAA 100200Z 13002MPS 070V200 6000 NSC 11/01 Q1019 NOSIG
ZBAA,2025-03-10 02:30,ZBAA 100230Z 08002MPS 030V140 6000 NSC 11/01 Q1019 NOSIG
ZBAA,2025-03-10 03:00,ZBAA 100300Z VRB02MPS 6000 NSC 12/01 Q1019 NOSIG
ZBAA,2025-03-10 03:30,ZBAA 100330Z VRB02MPS 5000 HZ NSC 12/01 Q1019 NOSIG
ZBAA,2025-03-10 04:00,ZBAA 100400Z VRB02MPS 5000 HZ NSC 13/01 Q1018 NOSIG
ZBAA,2025-03-10 04:30,ZBAA 100430Z 16003MPS 060V220 5000 HZ NSC 14/01 Q1018 NOSIG
ZBAA,2025-03-10 05:00,ZBAA 100500Z 16003MPS 120V210 5000 HZ NSC 14/02 Q1017 NOSIG
ZBAA,2025-03-10 05:30,ZBAA 100530Z 15003MPS 090V190 5000 HZ NSC 14/01 Q1017 NOSIG
ZBAA,2025-03-10 06:00,ZBAA 100600Z 16004MPS 110V200 5000 HZ NSC 15/02 Q1016 NOSIG
ZBAA,2025-03-10 06:30,ZBAA 100630Z 17003MPS 120V230 5000 HZ NSC 15/01 Q1016 NOSIG
ZBAA,2025-03-10 07:00,ZBAA 100700Z 15004MPS 100V180 5000 HZ NSC 15/02 Q1016 NOSIG
ZBAA,2025-03-10 07:30,ZBAA 100730Z 16004MPS 100V190 5000 HZ NSC 16/02 Q1015 NOSIG
ZBAA,2025-03-10 08:00,ZBAA 100800Z 16004MPS 110V200 5000 HZ NSC 15/02 Q1015 NOSIG
ZBAA,2025-03-10 08:30,ZBAA 100830Z 17003MPS 140V200 5000 HZ NSC 16/02 Q1015 NOSIG
ZBAA,2025-03-10 09:00,ZBAA 100900Z 15004MPS 110V170 5000 HZ NSC 15/02 Q1015 NOSIG
ZBAA,2025-03-10 09:30,ZBAA 100930Z 16003MPS 120V180 5000 HZ NSC 15/02 Q1015 NOSIG
ZBAA,2025-03-10 10:00,ZBAA 101000Z 14002MPS 5000 HZ NSC 14/02 Q1015 NOSIG
ZBAA,2025-03-10 10:30,ZBAA 101030Z VRB01MPS 5000 HZ NSC 14/02 Q1015 NOSIG
ZBAA,2025-03-10 11:00,ZBAA 101100Z VRB01MPS 5000 HZ NSC 12/02 Q1015 NOSIG
ZBAA,2025-03-10 11:30,ZBAA 101130Z 09002MPS 060V120 5000 HZ NSC 12/02 Q1015 NOSIG
ZBAA,2025-03-10 12:00,ZBAA 101200Z 10002MPS 060V140 5000 HZ NSC 12/02 Q1016 NOSIG
ZBAA,2025-03-10 12:30,ZBAA 101230Z 10002MPS 070V130 5000 HZ NSC 12/03 Q1016 NOSIG
ZBAA,2025-03-10 13:00,ZBAA 101300Z 12002MPS 080V150 5000 HZ NSC 11/02 Q1016 NOSIG
ZBAA,2025-03-10 13:30,ZBAA 101330Z 11002MPS 050V150 5000 HZ NSC 11/02 Q1017 NOSIG
ZBAA,2025-03-10 14:00,ZBAA 101400Z 12002MPS 090V150 5000 HZ NSC 11/02 Q1017 NOSIG
ZBAA,2025-03-10 14:30,ZBAA 101430Z 12002MPS 080V160 5000 HZ NSC 10/02 Q1017 NOSIG
ZBAA,2025-03-10 15:00,ZBAA 101500Z 13002MPS 5000 HZ NSC 10/02 Q1016 NOSIG
ZBAA,2025-03-10 15:30,ZBAA 101530Z 12002MPS 080V160 5000 HZ NSC 10/02 Q1016 NOSIG
ZBAA,2025-03-10 16:00,ZBAA 101600Z 12002MPS 090V150 5000 HZ NSC 10/02 Q1016 NOSIG
ZBAA,2025-03-10 16:30,ZBAA 101630Z VRB01MPS 5000 HZ NSC 09/02 Q1016 NOSIG
ZBAA,2025-03-10 17:00,ZBAA 101700Z 00000MPS 5000 HZ NSC 07/01 Q1016 NOSIG
ZBAA,2025-03-10 17:30,ZBAA 101730Z VRB01MPS 5000 BR NSC 05/01 Q1016 NOSIG
ZBAA,2025-03-10 18:00,ZBAA 101800Z VRB01MPS 5000 BR NSC 05/02 Q1016 NOSIG
ZBAA,2025-03-10 18:30,ZBAA 101830Z VRB01MPS 5000 BR NSC 04/00 Q1015 NOSIG
ZBAA,2025-03-10 19:00,ZBAA 101900Z 08001MPS 5000 BR NSC 04/01 Q1015 NOSIG
ZBAA,2025-03-10 19:30,ZBAA 101930Z 08001MPS 4000 BR NSC 03/00 Q1015 NOSIG
ZBAA,2025-03-10 20:00,ZBAA 102000Z VRB01MPS 4000 BR NSC 05/02 Q1014 NOSIG
ZBAA,2025-03-10 20:30,ZBAA 102030Z 00000MPS 4000 BR NSC 04/01 Q1014 NOSIG
ZBAA,2025-03-10 21:00,ZBAA 102100Z 08001MPS 4000 BR NSC 02/M00 Q1014 BECMG TL2220 2800
ZBAA,2025-03-10 21:30,ZBAA 102130Z 01001MPS 3500 BR NSC 03/01 Q1014 NOSIG
ZBAA,2025-03-10 22:00,ZBAA 102200Z 01002MPS 3500 BR NSC 02/01 Q1014 BECMG TL2220 2800
ZBAA,2025-03-10 22:30,ZBAA 102230Z VRB01MPS 2800 BR NSC 03/01 Q1015 NOSIG
ZBAA,2025-03-10 23:00,ZBAA 102300Z VRB01MPS 2500 BR NSC 03/02 Q1015 BECMG TL0050 3200
ZBAA,2025-03-10 23:30,ZBAA 102330Z 09001MPS 2000 BR NSC 03/01 Q1015 NOSIG
ZBAA,2025-03-11 00:00,ZBAA 110000Z 06001MPS 2000 BR NSC 06/04 Q1015 BECMG TL0050 3000
ZBAA,2025-03-11 00:30,ZBAA 110030Z VRB01MPS 2500 BR NSC 08/04 Q1015 NOSIG
ZBAA,2025-03-11 01:00,ZBAA 110100Z VRB01MPS 3000 BR NSC 09/04 Q1015 BECMG TL0240 2800
ZBAA,2025-03-11 01:30,ZBAA 110130Z 14002MPS 110V180 3000 HZ NSC 10/04 Q1015 NOSIG
ZBAA,2025-03-11 02:00,ZBAA 110200Z 16003MPS 3000 HZ NSC 11/04 Q1015 BECMG TL0240 2800
ZBAA,2025-03-11 02:30,ZBAA 110230Z 18003MPS 150V230 2800 HZ NSC 11/04 Q1015 NOSIG
ZBAA,2025-03-11 03:00,ZBAA 110300Z VRB01MPS 2800 HZ NSC 12/04 Q1015 BECMG TL0440 3200
ZBAA,2025-03-11 03:30,ZBAA 110330Z 21002MPS 150V270 2800 HZ NSC 12/04 Q1014 NOSIG
ZBAA,2025-03-11 04:00,ZBAA 110400Z 32004MPS 2800 HZ NSC 13/04 Q1015 BECMG TL0440 3200
ZBAA,2025-03-11 04:30,ZBAA 110430Z 32003G08MPS 270V350 3200 -RA HZ NSC 12/05 Q1015 NOSIG
ZBAA,2025-03-11 05:00,ZBAA 110500Z 33004MPS 3000 -RA BR NSC 11/07 Q1016 BECMG TL0540 2800
ZBAA,2025-03-11 05:30,ZBAA 110530Z 08002MPS 020V130 2800 BR NSC 11/06 Q1015 NOSIG
ZBAA,2025-03-11 06:00,ZBAA 110600Z 16002MPS 120V260 2800 DU NSC 11/06 Q1014 BECMG TL0740 3000
ZBAA,2025-03-11 06:30,ZBAA 110630Z 14003MPS 2800 DU NSC 11/06 Q1012 NOSIG
ZBAA,2025-03-11 07:00,ZBAA 110700Z 19003MPS 160V230 2800 DU NSC 12/06 Q1013 BECMG TL0740 3000
ZBAA,2025-03-11 07:30,ZBAA 110730Z 23002MPS 190V280 3000 HZ NSC 12/06 Q1013 NOSIG
ZBAA,2025-03-11 08:00,ZBAA 110800Z 28002MPS 250V330 3000 HZ NSC 12/06 Q1013 BECMG TL0920 2800
ZBAA,2025-03-11 08:30,ZBAA 110830Z VRB01MPS 3000 HZ NSC 12/05 Q1013 NOSIG
ZBAA,2025-03-11 09:00,ZBAA 110900Z VRB01MPS 3000 HZ NSC 13/06 Q1013 BECMG TL0920 2800
ZBAA,2025-03-11 09:30,ZBAA 110930Z VRB01MPS 2800 HZ NSC 12/06 Q1013 NOSIG
ZBAA,2025-03-11 10:00,ZBAA 111000Z 02001MPS 2800 HZ NSC 11/06 Q1013 BECMG TL1140 3200
ZBAA,2025-03-11 10:30,ZBAA 111030Z VRB01MPS 2800 BR NSC 08/05 Q1013 NOSIG
ZBAA,2025-03-11 11:00,ZBAA 111100Z 01002MPS 320V060 2800 BR NSC 09/06 Q1014 BECMG TL1140 3200
ZBAA,2025-03-11 11:30,ZBAA 111130Z VRB01MPS 3000 BR NSC 08/06 Q1014 NOSIG
ZBAA,2025-03-11 12:00,ZBAA 111200Z 05001MPS 3000 BR NSC 05/03 Q1014 BECMG TL1340 2800
ZBAA,2025-03-11 12:30,ZBAA 111230Z VRB01MPS 3000 BR NSC 07/05 Q1014 NOSIG
ZBAA,2025-03-11 13:00,ZBAA 111300Z 00000MPS 3000 BR NSC 06/04 Q1014 BECMG TL1340 2800
ZBAA,2025-03-11 13:30,ZBAA 111330Z 34001MPS 2800 BR NSC 06/04 Q1014 NOSIG
ZBAA,2025-03-11 14:00,ZBAA 111400Z 34002MPS 290V010 2800 BR NSC 06/04 Q1015 BECMG TL1540 3000
ZBAA,2025-03-11 14:30,ZBAA 111430Z 34004MPS 2800 BR NSC 07/06 Q1015 NOSIG
ZBAA,2025-03-11 15:00,ZBAA 111500Z 34004MPS 2800 BR NSC 08/05 Q1015 BECMG TL1540 3000
ZBAA,2025-03-11 15:30,ZBAA 111530Z 35002MPS 3000 BR NSC 06/04 Q1015 NOSIG
ZBAA,2025-03-11 16:00,ZBAA 111600Z 34002MPS 300V360 3000 BR NSC 05/04 Q1015 BECMG TL1740 2800
ZBAA,2025-03-11 16:30,ZBAA 111630Z 30002MPS 3000 BR NSC 06/05 Q1016 NOSIG
ZBAA,2025-03-11 17:00,ZBAA 111700Z VRB01MPS 3000 BR NSC 06/04 Q1015 BECMG TL1740 2800
ZBAA,2025-03-11 17:30,ZBAA 111730Z 32002MPS 270V350 2800 BR NSC 03/02 Q1016 NOSIG
ZBAA,2025-03-11 18:00,ZBAA 111800Z VRB01MPS 2800 BR NSC 02/01 Q1016 BECMG TL1940 3000
ZBAA,2025-03-11 18:30,ZBAA 111830Z 04001MPS 2800 BR NSC 01/00 Q1015 NOSIG
ZBAA,2025-03-11 19:00,ZBAA 111900Z VRB01MPS 2800 BR NSC 02/01 Q1015 BECMG TL1940 3000
ZBAA,2025-03-11 19:30,ZBAA 111930Z 29002MPS 3500 BR NSC 01/00 Q1015 NOSIG
ZBAA,2025-03-11 20:00,ZBAA 112000Z 35002MPS 280V030 5000 BR NSC 01/M02 Q1015 NOSIG
ZBAA,2025-03-11 20:30,ZBAA 112030Z VRB01MPS 7000 NSC M00/M02 Q1015 NOSIG
ZBAA,2025-03-11 21:00,ZBAA 112100Z VRB01MPS CAVOK M01/M02 Q1016 BECMG TL2240 30006MPS
ZBAA,2025-03-11 21:30,ZBAA 112130Z VRB01MPS CAVOK M00/M02 Q1016 NOSIG
ZBAA,2025-03-11 22:00,ZBAA 112200Z 24002MPS 210V300 CAVOK 09/M08 Q1017 NOSIG
ZBAA,2025-03-11 22:30,ZBAA 112230Z VRB01MPS CAVOK 01/M06 Q1017 NOSIG
ZBAA,2025-03-11 23:00,ZBAA 112300Z VRB01MPS CAVOK M01/M04 Q1018 BECMG TL0050 30005MPS
ZBAA,2025-03-11 23:30,ZBAA 112330Z 33002MPS 300V360 CAVOK 03/M05 Q1018 NOSIG
ZBAA,2025-03-12 00:00,ZBAA 120000Z 31002MPS CAVOK 09/M03 Q1019 BECMG TL0150 31007MPS
ZBAA,2025-03-12 00:30,ZBAA 120030Z 27004MPS 250V340 CAVOK 11/M09 Q1019 NOSIG
ZBAA,2025-03-12 01:00,ZBAA 120100Z 28004MPS 260V350 CAVOK 12/M10 Q1019 NOSIG
ZBAA,2025-03-12 01:30,ZBAA 120130Z 31005MPS 280V340 CAVOK 14/M11 Q1020 NOSIG
ZBAA,2025-03-12 02:00,ZBAA 120200Z 31004G09MPS 250V340 CAVOK 15/M14 Q1020 NOSIG
ZBAA,2025-03-12 02:30,ZBAA 120230Z 30005MPS CAVOK 15/M14 Q1020 NOSIG
ZBAA,2025-03-12 03:00,ZBAA 120300Z 30003MPS 190V360 CAVOK 15/M15 Q1019 NOSIG
ZBAA,2025-03-12 03:30,ZBAA 120330Z 32004MPS 280V010 CAVOK 17/M15 Q1019 NOSIG
ZBAA,2025-03-12 04:00,ZBAA 120400Z 30007G13MPS 270V330 CAVOK 17/M17 Q1019 NOSIG
ZBAA,2025-03-12 04:30,ZBAA 120430Z 31006MPS 280V360 CAVOK 18/M17 Q1018 NOSIG
ZBAA,2025-03-12 05:00,ZBAA 120500Z 29006G11MPS 240V320 CAVOK 18/M17 Q1018 NOSIG
ZBAA,2025-03-12 05:30,ZBAA 120530Z 28008G13MPS CAVOK 18/M18 Q1017 NOSIG
ZBAA,2025-03-12 06:00,ZBAA 120600Z 29007G12MPS 260V330 CAVOK 19/M18 Q1016 NOSIG
ZBAA,2025-03-12 06:30,ZBAA 120630Z 29008G13MPS 270V330 CAVOK 19/M17 Q1016 NOSIG
ZBAA,2025-03-12 07:00,ZBAA 120700Z 30008MPS CAVOK 19/M18 Q1016 NOSIG
ZBAA,2025-03-12 07:30,ZBAA 120730Z 30008MPS CAVOK 19/M19 Q1016 NOSIG
ZBAA,2025-03-12 08:00,ZBAA 120800Z 31007G13MPS CAVOK 20/M19 Q1016 NOSIG
ZBAA,2025-03-12 08:30,ZBAA 120830Z 33007G12MPS CAVOK 20/M19 Q1015 NOSIG
ZBAA,2025-03-12 09:00,ZBAA 120900Z 33006MPS CAVOK 20/M19 Q1015 NOSIG
ZBAA,2025-03-12 09:30,ZBAA 120930Z 32005MPS 290V350 CAVOK 19/M18 Q1015 NOSIG
ZBAA,2025-03-12 10:00,ZBAA 121000Z 32004G10MPS 280V340 CAVOK 18/M19 Q1015 NOSIG
ZBAA,2025-03-12 10:30,ZBAA 121030Z VRB02MPS CAVOK 17/M18 Q1016 NOSIG
ZBAA,2025-03-12 11:00,ZBAA 121100Z 18004MPS CAVOK 16/M16 Q1016 NOSIG
ZBAA,2025-03-12 11:30,ZBAA 121130Z 11002MPS CAVOK 11/M15 Q1017 NOSIG
ZBAA,2025-03-12 12:00,ZBAA 121200Z 16002MPS CAVOK 11/M13 Q1017 NOSIG
ZBAA,2025-03-12 12:30,ZBAA 121230Z 16003MPS CAVOK 12/M14 Q1018 NOSIG
ZBAA,2025-03-12 13:00,ZBAA 121300Z 15002MPS CAVOK 10/M14 Q1018 NOSIG
ZBAA,2025-03-12 13:30,ZBAA 121330Z 14002MPS CAVOK 10/M13 Q1018 NOSIG
ZBAA,2025-03-12 14:00,ZBAA 121400Z 13003MPS CAVOK 10/M13 Q1019 NOSIG
ZBAA,2025-03-12 14:30,ZBAA 121430Z 13002MPS CAVOK 07/M12 Q1019 NOSIG
ZBAA,2025-03-12 15:00,ZBAA 121500Z 13003MPS CAVOK 10/M12 Q1019 NOSIG
ZBAA,2025-03-12 15:30,ZBAA 121530Z VRB01MPS CAVOK 07/M11 Q1019 NOSIG
ZBAA,2025-03-12 16:00,ZBAA 121600Z 10002MPS 070V130 CAVOK 08/M11 Q1019 NOSIG
ZBAA,2025-03-12 16:30,ZBAA 121630Z 11002MPS CAVOK 09/M10 Q1019 NOSIG
ZBAA,2025-03-12 17:00,ZBAA 121700Z 10002MPS CAVOK 07/M10 Q1019 NOSIG
ZBAA,2025-03-12 17:30,ZBAA 121730Z 08003MPS CAVOK 07/M09 Q1019 NOSIG
ZBAA,2025-03-12 18:00,ZBAA 121800Z 08003MPS CAVOK 08/M09 Q1019 NOSIG
ZBAA,2025-03-12 18:30,ZBAA 121830Z 09002MPS 060V120 CAVOK 08/M09 Q1019 NOSIG
ZBAA,2025-03-12 19:00,ZBAA 121900Z VRB01MPS CAVOK 07/M08 Q1019 NOSIG
ZBAA,2025-03-12 19:30,ZBAA 121930Z VRB01MPS CAVOK 05/M08 Q1020 NOSIG
ZBAA,2025-03-12 20:00,ZBAA 122000Z 10002MPS 060V120 CAVOK 06/M08 Q1020 NOSIG
ZBAA,2025-03-12 20:30,ZBAA 122030Z 09002MPS 060V130 CAVOK 06/M08 Q1020 NOSIG
ZBAA,2025-03-12 21:00,ZBAA 122100Z VRB01MPS CAVOK 05/M08 Q1020 NOSIG
ZBAA,2025-03-12 21:30,ZBAA 122130Z VRB01MPS CAVOK 05/M08 Q1020 NOSIG
ZBAA,2025-03-12 22:00,ZBAA 122200Z VRB01MPS CAVOK 01/M08 Q1020 NOSIG
ZBAA,2025-03-12 22:30,ZBAA 122230Z 35003MPS CAVOK 02/M08 Q1021 NOSIG
ZBAA,2025-03-12 23:00,ZBAA 122300Z 36002MPS CAVOK 02/M07 Q1021 NOSIG
ZBAA,2025-03-12 23:30,ZBAA 122330Z 03001MPS CAVOK 04/M05 Q1021 NOSIG
ZBAA,2025-03-13 00:00,ZBAA 130000Z 00000MPS CAVOK 08/M06 Q1022 NOSIG
ZBAA,2025-03-13 00:30,ZBAA 130030Z 09002MPS 040V130 CAVOK 09/M08 Q1022 NOSIG
ZBAA,2025-03-13 01:00,ZBAA 130100Z 11002MPS 060V140 CAVOK 10/M07 Q1022 NOSIG
ZBAA,2025-03-13 01:30,ZBAA 130130Z 10003MPS 060V140 CAVOK 12/M06 Q1022 NOSIG
ZBAA,2025-03-13 02:00,ZBAA 130200Z 13003MPS 060V180 CAVOK 13/M06 Q1022 NOSIG
ZBAA,2025-03-13 02:30,ZBAA 130230Z 12003MPS 080V150 CAVOK 14/M06 Q1021 NOSIG
ZBAA,2025-03-13 03:00,ZBAA 130300Z 12003MPS 070V160 CAVOK 15/M06 Q1021 NOSIG
ZBAA,2025-03-13 03:30,ZBAA 130330Z 13003MPS 080V190 CAVOK 15/M06 Q1021 NOSIG
ZBAA,2025-03-13 04:00,ZBAA 130400Z 13003MPS 060V190 CAVOK 16/M05 Q1020 NOSIG
ZBAA,2025-03-13 04:30,ZBAA 130430Z 11004MPS 050V160 CAVOK 15/M06 Q1020 NOSIG
ZBAA,2025-03-13 05:00,ZBAA 130500Z 13003MPS 070V170 CAVOK 16/M05 Q1019 NOSIG
ZBAA,2025-03-13 05:30,ZBAA 130530Z 14004MPS 090V180 CAVOK 17/M05 Q1019 NOSIG
ZBAA,2025-03-13 06:00,ZBAA 130600Z 13004MPS CAVOK 16/M04 Q1019 NOSIG
ZBAA,2025-03-13 06:30,ZBAA 130630Z 15004MPS 110V190 CAVOK 17/M04 Q1018 NOSIG
ZBAA,2025-03-13 07:00,ZBAA 130700Z 13004MPS 100V180 CAVOK 17/M04 Q1018 NOSIG
ZBAA,2025-03-13 07:30,ZBAA 130730Z 14003MPS 100V170 CAVOK 17/M03 Q1018 NOSIG
ZBAA,2025-03-13 08:00,ZBAA 130800Z 12002MPS 070V150 CAVOK 17/M02 Q1018 NOSIG
ZBAA,2025-03-13 08:30,ZBAA 130830Z 11002MPS 070V140 CAVOK 17/M01 Q1018 NOSIG
ZBAA,2025-03-13 09:00,ZBAA 130900Z 09003MPS 050V140 8000 NSC 16/00 Q1018 NOSIG
ZBAA,2025-03-13 09:30,ZBAA 130930Z 10003MPS 060V150 8000 NSC 16/M01 Q1019 NOSIG
ZBAA,2025-03-13 10:00,ZBAA 131000Z 11004MPS 060V140 8000 NSC 15/M03 Q1019 NOSIG
ZBAA,2025-03-13 10:30,ZBAA 131030Z 12004G09MPS 070V150 CAVOK 14/M04 Q1020 NOSIG
ZBAA,2025-03-13 11:00,ZBAA 131100Z 11004G09MPS 070V140 CAVOK 13/M05 Q1020 NOSIG
ZBAA,2025-03-13 11:30,ZBAA 131130Z 12004MPS 080V160 CAVOK 12/M05 Q1021 NOSIG
ZBAA,2025-03-13 12:00,ZBAA 131200Z 12003MPS 080V160 CAVOK 12/M06 Q1022 NOSIG
ZBAA,2025-03-13 12:30,ZBAA 131230Z 13003MPS 100V170 CAVOK 11/M07 Q1022 NOSIG
ZBAA,2025-03-13 13:00,ZBAA 131300Z 13005G10MPS 090V160 CAVOK 10/M09 Q1023 BECMG TL1440 03003MPS
ZBAA,2025-03-13 13:30,ZBAA 131330Z VRB01MPS CAVOK 10/M09 Q1024 NOSIG
ZBAA,2025-03-13 14:00,ZBAA 131400Z 14004MPS 090V170 CAVOK 10/M10 Q1024 NOSIG
ZBAA,2025-03-13 14:30,ZBAA 131430Z 13003MPS 090V160 CAVOK 10/M10 Q1025 NOSIG
ZBAA,2025-03-13 15:00,ZBAA 131500Z 13003MPS 080V170 CAVOK 09/M10 Q1025 NOSIG
ZBAA,2025-03-13 15:30,ZBAA 131530Z 13003MPS 060V160 CAVOK 09/M10 Q1026 NOSIG
ZBAA,2025-03-13 16:00,ZBAA 131600Z 14002MPS 090V170 CAVOK 09/M11 Q1026 NOSIG
ZBAA,2025-03-13 16:30,ZBAA 131630Z 14003MPS 110V170 CAVOK 08/M12 Q1026 NOSIG
ZBAA,2025-03-13 17:00,ZBAA 131700Z 14003MPS 120V180 CAVOK 08/M11 Q1026 NOSIG
ZBAA,2025-03-13 17:30,ZBAA 131730Z 15002MPS 130V190 CAVOK 08/M11 Q1026 NOSIG
ZBAA,2025-03-13 18:00,ZBAA 131800Z 18002MPS CAVOK 07/M11 Q1026 NOSIG
ZBAA,2025-03-13 18:30,ZBAA 131830Z 18002MPS CAVOK 07/M10 Q1026 NOSIG
ZBAA,2025-03-13 19:00,ZBAA 131900Z 20001MPS CAVOK 06/M09 Q1026 NOSIG
ZBAA,2025-03-13 19:30,ZBAA 131930Z VRB01MPS CAVOK 04/M09 Q1027 NOSIG
ZBAA,2025-03-13 20:00,ZBAA 132000Z 33002MPS CAVOK 05/M09 Q1027 NOSIG
ZBAA,2025-03-13 20:30,ZBAA 132030Z 30003MPS CAVOK 07/M10 Q1028 NOSIG
ZBAA,2025-03-13 21:00,ZBAA 132100Z VRB01MPS CAVOK 06/M10 Q1028 NOSIG
ZBAA,2025-03-13 21:30,ZBAA 132130Z 31002MPS CAVOK 06/M09 Q1028 NOSIG
ZBAA,2025-03-13 22:00,ZBAA 132200Z VRB01MPS CAVOK 07/M10 Q1028 NOSIG
ZBAA,2025-03-13 22:30,ZBAA 132230Z VRB01MPS CAVOK 07/M10 Q1028 NOSIG
ZBAA,2025-03-13 23:00,ZBAA 132300Z 32002MPS 270V360 CAVOK 08/M10 Q1029 NOSIG
ZBAA,2025-03-13 23:30,ZBAA 132330Z VRB01MPS CAVOK 06/M08 Q1029 NOSIG
ZBAA,2025-03-14 00:00,ZBAA 140000Z VRB01MPS CAVOK 08/M09 Q1029 NOSIG
ZBAA,2025-03-14 00:30,ZBAA 140030Z 07001MPS CAVOK 09/M08 Q1030 NOSIG
ZBAA,2025-03-14 01:00,ZBAA 140100Z VRB01MPS CAVOK 09/M09 Q1030 NOSIG
ZBAA,2025-03-14 01:30,ZBAA 140130Z VRB01MPS CAVOK 10/M09 Q1031 NOSIG
ZBAA,2025-03-14 02:00,ZBAA 140200Z 15002MPS 110V190 CAVOK 10/M11 Q1031 NOSIG
ZBAA,2025-03-14 02:30,ZBAA 140230Z VRB02MPS CAVOK 11/M11 Q1031 NOSIG
ZBAA,2025-03-14 03:00,ZBAA 140300Z 11004MPS 040V160 CAVOK 11/M11 Q1031 NOSIG
ZBAA,2025-03-14 03:30,ZBAA 140330Z 13004MPS 100V170 CAVOK 11/M10 Q1031 NOSIG
ZBAA,2025-03-14 04:00,ZBAA 140400Z 13004MPS CAVOK 11/M10 Q1031 NOSIG
ZBAA,2025-03-14 04:30,ZBAA 140430Z 15004MPS 100V180 CAVOK 11/M10 Q1031 NOSIG
ZBAA,2025-03-14 05:00,ZBAA 140500Z 16004MPS 110V190 CAVOK 12/M10 Q1031 NOSIG
ZBAA,2025-03-14 05:30,ZBAA 140530Z 14004MPS CAVOK 11/M10 Q1030 NOSIG
ZBAA,2025-03-14 06:00,ZBAA 140600Z 14004MPS 110V180 CAVOK 11/M10 Q1030 NOSIG
ZBAA,2025-03-14 06:30,ZBAA 140630Z 13003MPS 080V180 CAVOK 11/M10 Q1030 NOSIG
ZBAA,2025-03-14 07:00,ZBAA 140700Z 15003MPS 070V190 CAVOK 11/M09 Q1030 NOSIG
ZBAA,2025-03-14 07:30,ZBAA 140730Z 12003MPS 080V150 CAVOK 11/M09 Q1030 NOSIG
ZBAA,2025-03-14 08:00,ZBAA 140800Z 16003MPS CAVOK 11/M08 Q1030 NOSIG
ZBAA,2025-03-14 08:30,ZBAA 140830Z 14003MPS CAVOK 11/M08 Q1030 NOSIG
ZBAA,2025-03-14 09:00,ZBAA 140900Z 14003MPS 110V170 CAVOK 11/M07 Q1030 NOSIG
ZBAA,2025-03-14 09:30,ZBAA 140930Z 12003MPS 090V150 CAVOK 10/M06 Q1030 NOSIG
ZBAA,2025-03-14 10:00,ZBAA 141000Z 12002MPS 090V150 CAVOK 10/M06 Q1030 NOSIG
ZBAA,2025-03-14 10:30,ZBAA 141030Z 17003MPS CAVOK 09/M09 Q1030 NOSIG
ZBAA,2025-03-14 11:00,ZBAA 141100Z 17002MPS 150V220 CAVOK 09/M09 Q1030 NOSIG
ZBAA,2025-03-14 11:30,ZBAA 141130Z 16002MPS CAVOK 08/M10 Q1030 NOSIG
ZBAA,2025-03-14 12:00,ZBAA 141200Z 18003MPS 150V220 CAVOK 08/M09 Q1031 NOSIG
ZBAA,2025-03-14 12:30,ZBAA 141230Z 16002MPS CAVOK 07/M09 Q1031 NOSIG
ZBAA,2025-03-14 13:00,ZBAA 141300Z 16002MPS 140V240 CAVOK 08/M08 Q1031 NOSIG
ZBAA,2025-03-14 13:30,ZBAA 141330Z 18003MPS 150V220 CAVOK 08/M08 Q1031 NOSIG
ZBAA,2025-03-14 14:00,ZBAA 141400Z 15002MPS CAVOK 07/M08 Q1032 NOSIG
ZBAA,2025-03-14 14:30,ZBAA 141430Z 16002MPS CAVOK 07/M07 Q1032 NOSIG
ZBAA,2025-03-14 15:00,ZBAA 141500Z 16002MPS 130V200 CAVOK 07/M07 Q1032 NOSIG
ZBAA,2025-03-14 15:30,ZBAA 141530Z 18002MPS 150V230 CAVOK 07/M07 Q1032 NOSIG
ZBAA,2025-03-14 16:00,ZBAA 141600Z 14002MPS CAVOK 05/M07 Q1031 NOSIG
ZBAA,2025-03-14 16:30,ZBAA 141630Z 13001MPS CAVOK 05/M06 Q1031 NOSIG
ZBAA,2025-03-14 17:00,ZBAA 141700Z 13001MPS CAVOK 06/M06 Q1031 NOSIG
ZBAA,2025-03-14 17:30,ZBAA 141730Z 13001MPS CAVOK 05/M06 Q1031 NOSIG
ZBAA,2025-03-14 18:00,ZBAA 141800Z VRB01MPS CAVOK 06/M06 Q1031 NOSIG
ZBAA,2025-03-14 18:30,ZBAA 141830Z 17002MPS CAVOK 06/M05 Q1031 NOSIG
ZBAA,2025-03-14 19:00,ZBAA 141900Z 16002MPS CAVOK 06/M05 Q1031 NOSIG
ZBAA,2025-03-14 19:30,ZBAA 141930Z 14002MPS CAVOK 06/M04 Q1030 NOSIG
ZBAA,2025-03-14 20:00,ZBAA 142000Z 13002MPS CAVOK 06/M04 Q1030 NOSIG
ZBAA,2025-03-14 20:30,ZBAA 142030Z 13002MPS CAVOK 05/M04 Q1030 NOSIG
ZBAA,2025-03-14 21:00,ZBAA 142100Z 14001MPS CAVOK 05/M04 Q1030 NOSIG
ZBAA,2025-03-14 21:30,ZBAA 142130Z 17002MPS CAVOK 04/M04 Q1030 NOSIG
ZBAA,2025-03-14 22:00,ZBAA 142200Z 17002MPS CAVOK 05/M04 Q1030 NOSIG
ZBAA,2025-03-14 22:30,ZBAA 142230Z 16002MPS CAVOK 05/M05 Q1030 NOSIG
ZBAA,2025-03-14 23:00,ZBAA 142300Z 18003MPS CAVOK 05/M05 Q1030 NOSIG
ZBAA,2025-03-14 23:30,ZBAA 142330Z 18004MPS CAVOK 06/M06 Q1030 NOSIG
ZBAA,2025-03-15 00:00,ZBAA 150000Z 18004MPS CAVOK 06/M06 Q1031 NOSIG
ZBAA,2025-03-15 00:30,ZBAA 150030Z 17004MPS 140V200 CAVOK 06/M07 Q1031 NOSIG
ZBAA,2025-03-15 01:00,ZBAA 150100Z 17004MPS CAVOK 07/M07 Q1032 NOSIG
ZBAA,2025-03-15 01:30,ZBAA 150130Z 15004MPS 120V180 CAVOK 07/M07 Q1032 NOSIG
ZBAA,2025-03-15 02:00,ZBAA 150200Z 17004MPS 130V200 CAVOK 08/M07 Q1032 NOSIG
ZBAA,2025-03-15 02:30,ZBAA 150230Z 17005MPS 120V200 CAVOK 07/M07 Q1032 NOSIG
ZBAA,2025-03-15 03:00,ZBAA 150300Z 15003MPS 110V190 CAVOK 07/M07 Q1032 NOSIG
ZBAA,2025-03-15 03:10,ZBAA 150310Z 21005MPS CAVOK 07/M07 Q1032 NOSIG
ZBAA,2025-03-15 03:30,ZBAA 150330Z 18006MPS 150V230 9999 -RA NSC 06/M06 Q1032 NOSIG
ZBAA,2025-03-15 03:32,ZBAA 150332Z VRB01MPS 9999 -RA NSC 06/M06 Q1032 NOSIG
ZBAA,2025-03-15 04:00,ZBAA 150400Z 18005MPS 9999 -RA NSC 06/M04 Q1031 NOSIG
ZBAA,2025-03-15 04:30,ZBAA 150430Z 20003MPS 160V220 9999 -RA NSC 06/M04 Q1031 NOSIG
ZBAA,2025-03-15 05:00,ZBAA 150500Z 17002MPS 050V220 CAVOK 07/M04 Q1030 NOSIG
ZBAA,2025-03-15 05:30,ZBAA 150530Z VRB02MPS CAVOK 07/M05 Q1030 NOSIG
ZBAA,2025-03-15 06:00,ZBAA 150600Z 12003MPS 070V150 9999 SCT040 06/M03 Q1030 NOSIG
ZBAA,2025-03-15 06:30,ZBAA 150630Z 10003MPS 040V160 9999 -RA SCT040 04/M01 Q1030 NOSIG
ZBAA,2025-03-15 07:00,ZBAA 150700Z 09003MPS 9999 -RA FEW040 04/00 Q1030 NOSIG
ZBAA,2025-03-15 07:30,ZBAA 150730Z 06003MPS 9999 -RA FEW040 04/01 Q1030 NOSIG
ZBAA,2025-03-15 08:00,ZBAA 150800Z 01007MPS 1800 R36L/1300D R36R/P2000N R01/P2000N -SN FEW015 02/M01 Q1031 BECMG TL0840 1400
ZBAA,2025-03-15 08:10,ZBAA 150810Z 02007MPS 0900 R36L/0900U R36R/0650D R01/1100D SN NSC 01/M01 Q1031 NOSIG
ZBAA,2025-03-15 08:30,ZBAA 150830Z 02006MPS 350V050 0900 R36L/1500U R36R/0650N R01/1500U SN NSC 00/M01 Q1031 NOSIG
ZBAA,2025-03-15 09:00,ZBAA 150900Z 02005MPS 350V050 0900 R36L/1400U R36R/1000U R01/1700D SN NSC 00/M00 Q1032 BECMG TL0940 1500 -SN
ZBAA,2025-03-15 09:30,ZBAA 150930Z 03003MPS 360V060 9999 -SN NSC 01/M00 Q1032 RESN NOSIG
ZBAA,2025-03-15 10:00,ZBAA 151000Z 03003MPS 9999 -SN NSC 01/M00 Q1032 NOSIG
ZBAA,2025-03-15 10:30,ZBAA 151030Z VRB01MPS 9999 -SN NSC 01/M01 Q1033 NOSIG
ZBAA,2025-03-15 11:00,ZBAA 151100Z 36003MPS CAVOK 01/M01 Q1033 NOSIG
ZBAA,2025-03-15 11:30,ZBAA 151130Z 01003MPS CAVOK 01/M02 Q1033 NOSIG
ZBAA,2025-03-15 12:00,ZBAA 151200Z 02003MPS CAVOK 01/M02 Q1033 NOSIG
ZBAA,2025-03-15 12:30,ZBAA 151230Z 01003MPS CAVOK 00/M04 Q1034 NOSIG
ZBAA,2025-03-15 13:00,ZBAA 151300Z 01003MPS CAVOK M01/M04 Q1034 NOSIG
ZBAA,2025-03-15 13:30,ZBAA 151330Z 02002MPS CAVOK 00/M04 Q1034 NOSIG
ZBAA,2025-03-15 14:00,ZBAA 151400Z VRB01MPS CAVOK M01/M04 Q1034 NOSIG
ZBAA,2025-03-15 14:30,ZBAA 151430Z 33002MPS CAVOK M01/M05 Q1034 NOSIG
ZBAA,2025-03-15 15:00,ZBAA 151500Z 36003MPS CAVOK M03/M06 Q1033 NOSIG
ZBAA,2025-03-15 15:30,ZBAA 151530Z 36001MPS CAVOK M03/M05 Q1033 NOSIG
ZBAA,2025-03-15 16:00,ZBAA 151600Z 19002MPS CAVOK M02/M03 Q1033 NOSIG
ZBAA,2025-03-15 16:30,ZBAA 151630Z 18001MPS CAVOK M02/M04 Q1033 NOSIG
ZBAA,2025-03-15 17:00,ZBAA 151700Z 28002MPS CAVOK M01/M03 Q1032 NOSIG
ZBAA,2025-03-15 17:30,ZBAA 151730Z VRB01MPS CAVOK M05/M06 Q1032 NOSIG
ZBAA,2025-03-15 18:00,ZBAA 151800Z VRB01MPS CAVOK M05/M06 Q1032 NOSIG
ZBAA,2025-03-15 18:30,ZBAA 151830Z 34002MPS CAVOK M04/M05 Q1031 NOSIG
ZBAA,2025-03-15 19:00,ZBAA 151900Z 01002MPS CAVOK M05/M06 Q1031 NOSIG
ZBAA,2025-03-15 19:30,ZBAA 151930Z 36002MPS CAVOK M05/M06 Q1031 NOSIG
ZBAA,2025-03-15 20:00,ZBAA 152000Z 33002MPS CAVOK M05/M06 Q1030 NOSIG
ZBAA,2025-03-15 20:30,ZBAA 152030Z 34002MPS CAVOK M04/M06 Q1030 NOSIG
ZBAA,2025-03-15 21:00,ZBAA 152100Z 03002MPS CAVOK M05/M07 Q1030 NOSIG
ZBAA,2025-03-15 21:30,ZBAA 152130Z 34003MPS CAVOK M06/M08 Q1030 NOSIG
ZBAA,2025-03-15 22:00,ZBAA 152200Z 35003MPS 290V010 CAVOK M05/M07 Q1030 NOSIG
ZBAA,2025-03-15 22:30,ZBAA 152230Z 34003MPS CAVOK M05/M07 Q1030 NOSIG
ZBAA,2025-03-15 23:00,ZBAA 152300Z 34004MPS CAVOK M03/M06 Q1030 NOSIG
ZBAA,2025-03-15 23:30,ZBAA 152330Z 02003MPS CAVOK M02/M06 Q1030 NOSIG
ZBAA,2025-03-16 00:00,ZBAA 160000Z 35004MPS CAVOK M01/M05 Q1031 NOSIG
ZBAA,2025-03-16 00:30,ZBAA 160030Z 36004MPS CAVOK 00/M05 Q1031 NOSIG
ZBAA,2025-03-16 01:00,ZBAA 160100Z 36003MPS CAVOK 01/M05 Q1031 NOSIG
ZBAA,2025-03-16 01:30,ZBAA 160130Z 34004MPS CAVOK 03/M06 Q1031 NOSIG
ZBAA,2025-03-16 02:00,ZBAA 160200Z 34006MPS CAVOK 04/M07 Q1030 NOSIG
ZBAA,2025-03-16 02:30,ZBAA 160230Z 32006MPS CAVOK 05/M09 Q1030 NOSIG
ZBAA,2025-03-16 02:52,ZBAA 160252Z 02006MPS CAVOK 05/M10 Q1030 NOSIG
ZBAA,2025-03-16 03:00,ZBAA 160300Z 36005MPS 290V040 CAVOK 06/M11 Q1030 NOSIG
ZBAA,2025-03-16 03:30,ZBAA 160330Z 36005MPS 320V030 CAVOK 07/M11 Q1029 NOSIG
ZBAA,2025-03-16 04:00,ZBAA 160400Z VRB04MPS CAVOK 07/M12 Q1028 BECMG TL0540 35005MPS
ZBAA,2025-03-16 04:30,ZBAA 160430Z 04003MPS 340V100 CAVOK 07/M12 Q1027 NOSIG
ZBAA,2025-03-16 05:00,ZBAA 160500Z 04003MPS 330V130 CAVOK 07/M12 Q1027 BECMG TL0640 33005MPS
ZBAA,2025-03-16 05:30,ZBAA 160530Z 04003MPS 340V130 CAVOK 07/M12 Q1026 NOSIG
ZBAA,2025-03-16 06:00,ZBAA 160600Z VRB02MPS CAVOK 09/M14 Q1025 NOSIG
ZBAA,2025-03-16 06:30,ZBAA 160630Z VRB03MPS CAVOK 08/M15 Q1025 NOSIG
ZBAA,2025-03-16 07:00,ZBAA 160700Z 33004G10MPS 260V360 CAVOK 10/M19 Q1024 NOSIG
ZBAA,2025-03-16 07:05,ZBAA 160705Z 34009G14MPS 290V010 CAVOK 10/M20 Q1024 NOSIG
ZBAA,2025-03-16 07:30,ZBAA 160730Z 35009MPS CAVOK 11/M19 Q1024 NOSIG
ZBAA,2025-03-16 08:00,ZBAA 160800Z 36009MPS CAVOK 10/M19 Q1024 NOSIG
ZBAA,2025-03-16 08:30,ZBAA 160830Z 35008MPS CAVOK 10/M19 Q1024 NOSIG
ZBAA,2025-03-16 09:00,ZBAA 160900Z 01005MPS 340V050 CAVOK 10/M19 Q1023 NOSIG
ZBAA,2025-03-16 09:30,ZBAA 160930Z 35005MPS 320V020 CAVOK 09/M18 Q1023 NOSIG
ZBAA,2025-03-16 10:00,ZBAA 161000Z 02002MPS 350V050 CAVOK 08/M18 Q1023 NOSIG
ZBAA,2025-03-16 10:30,ZBAA 161030Z 09001MPS CAVOK 05/M13 Q1023 NOSIG
ZBAA,2025-03-16 11:00,ZBAA 161100Z 13002MPS CAVOK 06/M16 Q1023 NOSIG
ZBAA,2025-03-16 11:30,ZBAA 161130Z 13002MPS CAVOK 04/M15 Q1022 NOSIG
ZBAA,2025-03-16 12:00,ZBAA 161200Z 17003MPS CAVOK 02/M13 Q1022 NOSIG
ZBAA,2025-03-16 12:30,ZBAA 161230Z 17002MPS CAVOK 03/M13 Q1022 NOSIG
ZBAA,2025-03-16 13:00,ZBAA 161300Z 18003MPS CAVOK 04/M14 Q1022 NOSIG
ZBAA,2025-03-16 13:30,ZBAA 161330Z 17002MPS CAVOK 02/M13 Q1022 NOSIG
ZBAA,2025-03-16 14:00,ZBAA 161400Z VRB01MPS CAVOK 02/M13 Q1021 NOSIG
ZBAA,2025-03-16 14:30,ZBAA 161430Z VRB01MPS CAVOK M01/M11 Q1021 NOSIG
ZBAA,2025-03-16 15:00,ZBAA 161500Z 05002MPS CAVOK M02/M10 Q1020 NOSIG
ZBAA,2025-03-16 15:30,ZBAA 161530Z 05003MPS CAVOK M02/M09 Q1020 NOSIG
ZBAA,2025-03-16 16:00,ZBAA 161600Z 07002MPS CAVOK M01/M10 Q1020 NOSIG
ZBAA,2025-03-16 16:30,ZBAA 161630Z 06002MPS 030V090 CAVOK M00/M10 Q1019 NOSIG
ZBAA,2025-03-16 17:00,ZBAA 161700Z VRB01MPS CAVOK M01/M10 Q1019 NOSIG
ZBAA,2025-03-16 17:30,ZBAA 161730Z 01002MPS CAVOK M02/M09 Q1019 NOSIG
ZBAA,2025-03-16 18:00,ZBAA 161800Z 34002MPS CAVOK M03/M10 Q1019 NOSIG
ZBAA,2025-03-16 18:30,ZBAA 161830Z 35001MPS CAVOK M02/M10 Q1018 NOSIG
ZBAA,2025-03-16 19:00,ZBAA 161900Z 36002MPS CAVOK M04/M10 Q1018 NOSIG
ZBAA,2025-03-16 19:30,ZBAA 161930Z 35003MPS CAVOK M03/M08 Q1018 NOSIG
ZBAA,2025-03-16 20:00,ZBAA 162000Z 34004MPS CAVOK M01/M07 Q1018 NOSIG
ZBAA,2025-03-16 20:30,ZBAA 162030Z 36004MPS CAVOK M01/M07 Q1018 NOSIG
ZBAA,2025-03-16 21:00,ZBAA 162100Z 35003MPS CAVOK M01/M07 Q1018 NOSIG
ZBAA,2025-03-16 21:30,ZBAA 162130Z 35004MPS CAVOK M01/M08 Q1019 NOSIG
ZBAA,2025-03-16 22:00,ZBAA 162200Z 33004MPS CAVOK 01/M10 Q1019 BECMG TL2340 33009MPS
ZBAA,2025-03-16 22:30,ZBAA 162230Z 35003MPS 320V020 CAVOK 00/M10 Q1019 NOSIG
ZBAA,2025-03-16 23:00,ZBAA 162300Z 36003MPS CAVOK M00/M08 Q1020 BECMG TL0040 33009MPS
ZBAA,2025-03-16 23:30,ZBAA 162330Z 36004MPS CAVOK 03/M08 Q1020 NOSIG
ZBAA,2025-03-17 00:00,ZBAA 170000Z 32010MPS CAVOK 06/M11 Q1020 NOSIG
ZBAA,2025-03-17 00:30,ZBAA 170030Z 33012MPS CAVOK 07/M12 Q1021 NOSIG
ZBAA,2025-03-17 01:00,ZBAA 170100Z 32011MPS CAVOK 07/M13 Q1021 NOSIG
ZBAA,2025-03-17 01:30,ZBAA 170130Z 33011MPS CAVOK 08/M14 Q1021 NOSIG
ZBAA,2025-03-17 02:00,ZBAA 170200Z 33011MPS CAVOK 08/M15 Q1021 NOSIG
ZBAA,2025-03-17 02:30,ZBAA 170230Z 32011MPS CAVOK 08/M16 Q1021 NOSIG
ZBAA,2025-03-17 03:00,ZBAA 170300Z 34009MPS 310V010 CAVOK 10/M17 Q1022 NOSIG
ZBAA,2025-03-17 03:30,ZBAA 170330Z 34008MPS CAVOK 09/M17 Q1022 NOSIG
ZBAA,2025-03-17 04:00,ZBAA 170400Z 34010G15MPS CAVOK 10/M17 Q1022 NOSIG
ZBAA,2025-03-17 04:30,ZBAA 170430Z 33011MPS 300V360 CAVOK 09/M18 Q1022 NOSIG
ZBAA,2025-03-17 05:00,ZBAA 170500Z 34010MPS 310V010 CAVOK 10/M17 Q1022 NOSIG
ZBAA,2025-03-17 05:30,ZBAA 170530Z 35012MPS CAVOK 10/M17 Q1022 NOSIG
ZBAA,2025-03-17 06:00,ZBAA 170600Z 34009MPS CAVOK 10/M16 Q1021 NOSIG
ZBAA,2025-03-17 06:30,ZBAA 170630Z 35010MPS 320V020 CAVOK 08/M17 Q1021 NOSIG
ZBAA,2025-03-17 07:00,ZBAA 170700Z 33009G14MPS 300V360 CAVOK 09/M18 Q1021 NOSIG
ZBAA,2025-03-17 07:30,ZBAA 170730Z 33009MPS CAVOK 10/M17 Q1021 NOSIG
ZBAA,2025-03-17 08:00,ZBAA 170800Z 33010MPS CAVOK 10/M16 Q1021 NOSIG
ZBAA,2025-03-17 08:30,ZBAA 170830Z 33012G17MPS CAVOK 09/M15 Q1021 NOSIG
ZBAA,2025-03-17 09:00,ZBAA 170900Z 34010MPS CAVOK 08/M14 Q1021 BECMG TL1050 36005MPS
ZBAA,2025-03-17 09:30,ZBAA 170930Z 33010G15MPS 300V360 CAVOK 07/M12 Q1021 NOSIG
ZBAA,2025-03-17 10:00,ZBAA 171000Z 33009MPS CAVOK 07/M12 Q1021 BECMG TL1120 36004MPS
ZBAA,2025-03-17 10:30,ZBAA 171030Z 33010MPS CAVOK 06/M11 Q1022 NOSIG
ZBAA,2025-03-17 11:00,ZBAA 171100Z 32007MPS CAVOK 06/M11 Q1022 BECMG TL1250 02002MPS
ZBAA,2025-03-17 11:30,ZBAA 171130Z 33007MPS CAVOK 06/M11 Q1023 NOSIG
ZBAA,2025-03-17 12:00,ZBAA 171200Z 33007MPS CAVOK 06/M11 Q1024 BECMG TL1350 03002MPS
ZBAA,2025-03-17 12:30,ZBAA 171230Z 01004MPS CAVOK 04/M12 Q1024 NOSIG
ZBAA,2025-03-17 13:00,ZBAA 171300Z 03002MPS CAVOK 04/M11 Q1025 NOSIG
ZBAA,2025-03-17 13:30,ZBAA 171330Z 01003MPS CAVOK 04/M12 Q1025 NOSIG
ZBAA,2025-03-17 14:00,ZBAA 171400Z 01003MPS CAVOK 03/M12 Q1026 NOSIG
ZBAA,2025-03-17 14:30,ZBAA 171430Z 02005MPS CAVOK 04/M13 Q1026 NOSIG
ZBAA,2025-03-17 15:00,ZBAA 171500Z 03004MPS CAVOK 03/M13 Q1026 NOSIG
ZBAA,2025-03-17 15:30,ZBAA 171530Z 03004MPS CAVOK 02/M13 Q1026 NOSIG
ZBAA,2025-03-17 16:00,ZBAA 171600Z 04004MPS 010V070 CAVOK 03/M14 Q1026 NOSIG
ZBAA,2025-03-17 16:30,ZBAA 171630Z 05003MPS 010V080 CAVOK 02/M14 Q1027 NOSIG
ZBAA,2025-03-17 17:00,ZBAA 171700Z 04003MPS CAVOK 02/M14 Q1027 NOSIG
ZBAA,2025-03-17 17:30,ZBAA 171730Z 04003MPS 010V070 CAVOK 02/M14 Q1027 NOSIG
ZBAA,2025-03-17 18:00,ZBAA 171800Z 07002MPS CAVOK 01/M14 Q1027 NOSIG
ZBAA,2025-03-17 18:30,ZBAA 171830Z 05003MPS CAVOK 01/M14 Q1027 NOSIG
ZBAA,2025-03-17 19:00,ZBAA 171900Z 07002MPS CAVOK M00/M13 Q1027 NOSIG
ZBAA,2025-03-17 19:30,ZBAA 171930Z 05003MPS CAVOK M00/M14 Q1027 NOSIG
ZBAA,2025-03-17 20:00,ZBAA 172000Z 06003MPS CAVOK M00/M13 Q1027 NOSIG
ZBAA,2025-03-17 20:30,ZBAA 172030Z 05003MPS CAVOK M00/M14 Q1027 NOSIG
ZBAA,2025-03-17 21:00,ZBAA 172100Z 05003MPS CAVOK M00/M13 Q1027 NOSIG
ZBAA,2025-03-17 21:30,ZBAA 172130Z 06002MPS 010V090 CAVOK M01/M13 Q1027 NOSIG
ZBAA,2025-03-17 22:00,ZBAA 172200Z VRB01MPS CAVOK M01/M13 Q1027 NOSIG
ZBAA,2025-03-17 22:30,ZBAA 172230Z VRB01MPS CAVOK M01/M13 Q1027 NOSIG
ZBAA,2025-03-17 23:00,ZBAA 172300Z 29003MPS 270V330 CAVOK 01/M13 Q1027 NOSIG
ZBAA,2025-03-17 23:30,ZBAA 172330Z 30003MPS CAVOK 01/M12 Q1028 NOSIG
ZBAA,2025-03-18 00:00,ZBAA 180000Z 29003MPS CAVOK 02/M13 Q1028 NOSIG
ZBAA,2025-03-18 00:30,ZBAA 180030Z 29003MPS 260V320 CAVOK 03/M13 Q1028 NOSIG
ZBAA,2025-03-18 01:00,ZBAA 180100Z VRB01MPS CAVOK 05/M14 Q1028 NOSIG
ZBAA,2025-03-18 01:30,ZBAA 180130Z VRB01MPS CAVOK 05/M14 Q1028 NOSIG
ZBAA,2025-03-18 02:00,ZBAA 180200Z VRB02MPS CAVOK 06/M13 Q1028 NOSIG
ZBAA,2025-03-18 02:30,ZBAA 180230Z VRB01MPS CAVOK 08/M13 Q1027 NOSIG
ZBAA,2025-03-18 03:00,ZBAA 180300Z 25002MPS 190V320 CAVOK 09/M13 Q1027 BECMG TL0450 31005MPS
ZBAA,2025-03-18 03:30,ZBAA 180330Z VRB02G08MPS CAVOK 09/M13 Q1026 NOSIG
ZBAA,2025-03-18 04:00,ZBAA 180400Z VRB01MPS CAVOK 10/M13 Q1026 BECMG TL0540 32005MPS
ZBAA,2025-03-18 04:30,ZBAA 180430Z VRB02MPS CAVOK 10/M13 Q1026 NOSIG
ZBAA,2025-03-18 05:00,COR ZBAA 180500Z 22002MPS 170V310 CAVOK 11/M13 Q1025 BECMG TL0650 32005MPS
ZBAA,2025-03-18 05:30,ZBAA 180530Z VRB01MPS CAVOK 12/M12 Q1024 NOSIG
ZBAA,2025-03-18 06:00,ZBAA 180600Z 27002G07MPS 220V020 CAVOK 12/M12 Q1024 NOSIG
ZBAA,2025-03-18 06:30,ZBAA 180630Z VRB03MPS CAVOK 13/M12 Q1023 NOSIG
ZBAA,2025-03-18 07:00,ZBAA 180700Z 21003MPS 150V300 CAVOK 14/M12 Q1023 BECMG TL0850 32005MPS
ZBAA,2025-03-18 07:30,ZBAA 180730Z VRB02MPS CAVOK 14/M12 Q1023 NOSIG
ZBAA,2025-03-18 08:00,ZBAA 180800Z VRB02MPS CAVOK 13/M12 Q1022 BECMG TL0940 32005MPS
ZBAA,2025-03-18 08:30,ZBAA 180830Z 21003MPS 180V300 CAVOK 14/M12 Q1022 NOSIG
ZBAA,2025-03-18 09:00,ZBAA 180900Z 20003MPS 160V260 CAVOK 12/M12 Q1022 BECMG TL1040 32005MPS
ZBAA,2025-03-18 09:30,ZBAA 180930Z 18005MPS 170V240 CAVOK 12/M12 Q1022 NOSIG
ZBAA,2025-03-18 10:00,ZBAA 181000Z 19004MPS CAVOK 11/M11 Q1023 NOSIG
ZBAA,2025-03-18 10:30,ZBAA 181030Z 19004MPS 170V230 CAVOK 11/M11 Q1023 NOSIG
ZBAA,2025-03-18 11:00,ZBAA 181100Z 11002MPS 070V140 CAVOK 10/M11 Q1023 NOSIG
ZBAA,2025-03-18 11:30,ZBAA 181130Z 19005MPS CAVOK 11/M11 Q1023 NOSIG
ZBAA,2025-03-18 12:00,ZBAA 181200Z 21003MPS 170V240 CAVOK 11/M11 Q1023 NOSIG
ZBAA,2025-03-18 12:30,ZBAA 181230Z 18003MPS 120V290 CAVOK 09/M10 Q1023 NOSIG
ZBAA,2025-03-18 13:00,ZBAA 181300Z 22003MPS 170V260 CAVOK 10/M10 Q1023 NOSIG
ZBAA,2025-03-18 13:30,ZBAA 181330Z 21004MPS 170V270 CAVOK 11/M10 Q1023 NOSIG
ZBAA,2025-03-18 14:00,ZBAA 181400Z 21003MPS 180V320 CAVOK 09/M10 Q1023 NOSIG
ZBAA,2025-03-18 14:30,ZBAA 181430Z 21003MPS 180V250 CAVOK 10/M09 Q1023 NOSIG
ZBAA,2025-03-18 15:00,ZBAA 181500Z 22003MPS 180V250 CAVOK 09/M10 Q1023 NOSIG
ZBAA,2025-03-18 15:30,ZBAA 181530Z 21002MPS 170V260 CAVOK 09/M10 Q1023 NOSIG
ZBAA,2025-03-18 16:00,ZBAA 181600Z 25002MPS CAVOK 09/M09 Q1023 NOSIG
ZBAA,2025-03-18 16:30,ZBAA 181630Z 07002MPS CAVOK 02/M07 Q1023 NOSIG
ZBAA,2025-03-18 17:00,ZBAA 181700Z VRB01MPS CAVOK 02/M08 Q1024 NOSIG
ZBAA,2025-03-18 17:30,ZBAA 181730Z VRB01MPS CAVOK 01/M09 Q1024 NOSIG
ZBAA,2025-03-18 18:00,ZBAA 181800Z VRB01MPS CAVOK 00/M08 Q1024 NOSIG
ZBAA,2025-03-18 18:30,ZBAA 181830Z VRB01MPS CAVOK M01/M07 Q1024 NOSIG
ZBAA,2025-03-18 19:00,ZBAA 181900Z 36002MPS CAVOK M01/M06 Q1023 NOSIG
ZBAA,2025-03-18 19:30,ZBAA 181930Z 02001MPS CAVOK M01/M07 Q1023 NOSIG
ZBAA,2025-03-18 20:00,ZBAA 182000Z VRB01MPS CAVOK M01/M06 Q1023 NOSIG
ZBAA,2025-03-18 20:30,ZBAA 182030Z 29001MPS CAVOK M01/M07 Q1023 NOSIG
ZBAA,2025-03-18 21:00,ZBAA 182100Z 36001MPS CAVOK M02/M07 Q1023 NOSIG
ZBAA,2025-03-18 21:30,ZBAA 182130Z 34002MPS CAVOK M03/M07 Q1023 NOSIG
ZBAA,2025-03-18 22:00,ZBAA 182200Z 36002MPS CAVOK M03/M07 Q1023 NOSIG
ZBAA,2025-03-18 22:30,ZBAA 182230Z 35002MPS CAVOK M01/M05 Q1023 NOSIG
ZBAA,2025-03-18 23:00,ZBAA 182300Z 33002MPS 290V010 CAVOK 02/M05 Q1023 NOSIG
ZBAA,2025-03-18 23:30,ZBAA 182330Z 34002MPS 300V010 CAVOK 04/M04 Q1023 NOSIG
ZBAA,2025-03-19 00:00,ZBAA 190000Z 32002MPS CAVOK 06/M06 Q1023 NOSIG
ZBAA,2025-03-19 00:30,ZBAA 190030Z 34002MPS CAVOK 09/M06 Q1023 NOSIG
ZBAA,2025-03-19 01:00,ZBAA 190100Z VRB01MPS CAVOK 09/M06 Q1023 NOSIG
ZBAA,2025-03-19 01:30,ZBAA 190130Z VRB01MPS CAVOK 12/M06 Q1023 NOSIG
ZBAA,2025-03-19 02:00,ZBAA 190200Z VRB01MPS CAVOK 13/M06 Q1023 NOSIG
ZBAA,2025-03-19 02:30,ZBAA 190230Z 29003MPS 250V030 CAVOK 15/M07 Q1023 NOSIG
ZBAA,2025-03-19 03:00,ZBAA 190300Z 28004G09MPS 250V320 CAVOK 16/M08 Q1022 NOSIG
ZBAA,2025-03-19 03:30,ZBAA 190330Z 28005MPS 250V320 CAVOK 17/M09 Q1022 NOSIG
ZBAA,2025-03-19 04:00,ZBAA 190400Z 28006MPS CAVOK 18/M10 Q1021 NOSIG
ZBAA,2025-03-19 04:30,ZBAA 190430Z 24005MPS CAVOK 19/M09 Q1021 NOSIG
ZBAA,2025-03-19 05:00,ZBAA 190500Z 27004MPS 200V320 CAVOK 20/M09 Q1020 NOSIG
ZBAA,2025-03-19 05:30,ZBAA 190530Z 29005G10MPS 220V340 CAVOK 20/M10 Q1019 NOSIG
ZBAA,2025-03-19 06:00,ZBAA 190600Z 28004MPS 250V350 CAVOK 20/M11 Q1019 NOSIG
ZBAA,2025-03-19 06:30,ZBAA 190630Z 29006G12MPS 240V330 CAVOK 21/M11 Q1018 NOSIG
ZBAA,2025-03-19 07:00,ZBAA 190700Z 29006MPS CAVOK 22/M11 Q1018 NOSIG
ZBAA,2025-03-19 07:30,ZBAA 190730Z 28008MPS CAVOK 21/M12 Q1018 NOSIG
ZBAA,2025-03-19 08:00,ZBAA 190800Z 27007MPS 250V310 CAVOK 22/M13 Q1017 NOSIG
ZBAA,2025-03-19 08:30,ZBAA 190830Z 26007MPS 220V310 CAVOK 21/M13 Q1017 NOSIG
ZBAA,2025-03-19 09:00,ZBAA 190900Z 25005MPS 230V310 CAVOK 21/M12 Q1016 NOSIG
ZBAA,2025-03-19 09:30,ZBAA 190930Z 27005MPS 240V300 CAVOK 21/M12 Q1016 NOSIG
ZBAA,2025-03-19 10:00,ZBAA 191000Z 28004MPS 230V300 CAVOK 21/M12 Q1016 NOSIG
ZBAA,2025-03-19 10:30,ZBAA 191030Z 27003MPS 220V020 CAVOK 20/M11 Q1016 NOSIG
ZBAA,2025-03-19 11:00,ZBAA 191100Z 23004MPS 210V290 CAVOK 20/M11 Q1016 NOSIG
ZBAA,2025-03-19 11:30,ZBAA 191130Z 29003MPS 240V350 CAVOK 19/M10 Q1017 NOSIG
ZBAA,2025-03-19 12:00,ZBAA 191200Z 23003MPS 200V260 CAVOK 17/M10 Q1017 NOSIG
ZBAA,2025-03-19 12:30,ZBAA 191230Z VRB03G08MPS CAVOK 18/M10 Q1017 NOSIG
ZBAA,2025-03-19 13:00,ZBAA 191300Z VRB01MPS CAVOK 15/M10 Q1018 NOSIG
ZBAA,2025-03-19 13:20,ZBAA 191320Z 34006MPS CAVOK 17/M12 Q1018 NOSIG
ZBAA,2025-03-19 13:30,ZBAA 191330Z 33006MPS CAVOK 18/M13 Q1018 NOSIG
ZBAA,2025-03-19 14:00,ZBAA 191400Z 36002MPS CAVOK 13/M12 Q1018 NOSIG
ZBAA,2025-03-19 14:30,ZBAA 191430Z 36002MPS 300V010 CAVOK 10/M11 Q1018 NOSIG
ZBAA,2025-03-19 15:00,ZBAA 191500Z VRB01MPS CAVOK 06/M11 Q1018 NOSIG
ZBAA,2025-03-19 15:30,ZBAA 191530Z VRB01MPS CAVOK 08/M11 Q1018 NOSIG
ZBAA,2025-03-19 16:00,ZBAA 191600Z 31002MPS 260V340 CAVOK 05/M10 Q1018 NOSIG
ZBAA,2025-03-19 16:30,ZBAA 191630Z 32004MPS CAVOK 14/M12 Q1018 NOSIG
ZBAA,2025-03-19 17:00,ZBAA 191700Z 29003MPS CAVOK 13/M13 Q1018 NOSIG
ZBAA,2025-03-19 17:30,ZBAA 191730Z 24003MPS CAVOK 11/M12 Q1018 NOSIG
ZBAA,2025-03-19 18:00,ZBAA 191800Z 28003MPS CAVOK 09/M12 Q1018 NOSIG
ZBAA,2025-03-19 18:30,ZBAA 191830Z VRB01MPS CAVOK 05/M11 Q1018 NOSIG
ZBAA,2025-03-19 19:00,ZBAA 191900Z 27002MPS 240V010 CAVOK 08/M12 Q1017 NOSIG
ZBAA,2025-03-19 19:30,ZBAA 191930Z 36002MPS 330V030 CAVOK 03/M10 Q1017 NOSIG
ZBAA,2025-03-19 20:00,ZBAA 192000Z 33002MPS CAVOK 07/M10 Q1017 NOSIG
ZBAA,2025-03-19 20:30,ZBAA 192030Z 35003MPS CAVOK 02/M10 Q1017 NOSIG
ZBAA,2025-03-19 21:00,ZBAA 192100Z 34003MPS CAVOK 02/M08 Q1017 NOSIG
ZBAA,2025-03-19 21:30,ZBAA 192130Z 35003MPS CAVOK 04/M08 Q1017 NOSIG
ZBAA,2025-03-19 22:00,ZBAA 192200Z 35001MPS CAVOK 01/M09 Q1017 NOSIG
ZBAA,2025-03-19 22:30,ZBAA 192230Z VRB01MPS CAVOK 00/M09 Q1017 NOSIG
ZBAA,2025-03-19 23:00,ZBAA 192300Z 34002MPS 290V020 CAVOK 04/M09 Q1017 NOSIG
ZBAA,2025-03-19 23:30,ZBAA 192330Z 35002MPS 310V010 CAVOK 09/M06 Q1017 NOSIG
ZBAA,2025-03-20 00:00,ZBAA 200000Z VRB01MPS CAVOK 15/M12 Q1017 BECMG TL0140 31007MPS
ZBAA,2025-03-20 00:30,ZBAA 200030Z 31004MPS CAVOK 17/M15 Q1018 NOSIG
ZBAA,2025-03-20 01:00,ZBAA 200100Z 31004MPS 290V350 CAVOK 18/M14 Q1018 NOSIG
ZBAA,2025-03-20 01:30,ZBAA 200130Z 31005MPS 270V330 CAVOK 19/M16 Q1018 NOSIG
ZBAA,2025-03-20 02:00,ZBAA 200200Z 30005G10MPS CAVOK 19/M16 Q1018 NOSIG
ZBAA,2025-03-20 02:30,ZBAA 200230Z 30003MPS 260V360 CAVOK 20/M15 Q1017 NOSIG
ZBAA,2025-03-20 03:00,ZBAA 200300Z 31005MPS 280V350 CAVOK 22/M17 Q1017 NOSIG
ZBAA,2025-03-20 03:30,ZBAA 200330Z 31005MPS 280V340 CAVOK 21/M16 Q1016 NOSIG
ZBAA,2025-03-20 04:00,ZBAA 200400Z 29006MPS 260V320 CAVOK 22/M17 Q1016 NOSIG
ZBAA,2025-03-20 04:30,ZBAA 200430Z 29008G14MPS 260V320 CAVOK 23/M17 Q1015 NOSIG
ZBAA,2025-03-20 05:00,ZBAA 200500Z 27009G14MPS CAVOK 23/M16 Q1014 NOSIG
ZBAA,2025-03-20 05:30,ZBAA 200530Z 29009MPS CAVOK 24/M16 Q1014 NOSIG
ZBAA,2025-03-20 06:00,ZBAA 200600Z 29010MPS CAVOK 24/M18 Q1013 NOSIG
ZBAA,2025-03-20 06:30,ZBAA 200630Z 28011MPS CAVOK 24/M18 Q1013 NOSIG
ZBAA,2025-03-20 07:00,ZBAA 200700Z 29009G17MPS 260V320 CAVOK 25/M18 Q1013 NOSIG
ZBAA,2025-03-20 07:30,ZBAA 200730Z 29009MPS 260V320 CAVOK 25/M15 Q1012 NOSIG
ZBAA,2025-03-20 07:34,ZBAA 200734Z 34004MPS CAVOK 25/M15 Q1012 NOSIG
ZBAA,2025-03-20 07:46,ZBAA 200746Z 33009MPS CAVOK 26/M13 Q1012 NOSIG
ZBAA,2025-03-20 08:00,ZBAA 200800Z 33008MPS CAVOK 25/M13 Q1012 NOSIG
ZBAA,2025-03-20 08:30,ZBAA 200830Z 36009MPS CAVOK 25/M12 Q1012 NOSIG
ZBAA,2025-03-20 09:00,ZBAA 200900Z 35008G13MPS CAVOK 24/M12 Q1012 NOSIG
ZBAA,2025-03-20 09:30,ZBAA 200930Z 36008MPS CAVOK 23/M11 Q1012 NOSIG
ZBAA,2025-03-20 10:00,ZBAA 201000Z 36007MPS CAVOK 22/M10 Q1013 BECMG TL1150 01002MPS
ZBAA,2025-03-20 10:30,ZBAA 201030Z 36007MPS CAVOK 20/M10 Q1013 NOSIG
ZBAA,2025-03-20 11:00,ZBAA 201100Z 36006MPS CAVOK 19/M09 Q1013 BECMG TL1250 VRB01MPS
ZBAA,2025-03-20 11:30,ZBAA 201130Z 35004MPS CAVOK 17/M09 Q1013 NOSIG
ZBAA,2025-03-20 12:00,ZBAA 201200Z 34007MPS CAVOK 20/M09 Q1014 BECMG TL1350 01002MPS
ZBAA,2025-03-20 12:30,ZBAA 201230Z 34006MPS CAVOK 19/M09 Q1014 NOSIG
ZBAA,2025-03-20 13:00,ZBAA 201300Z 35006MPS CAVOK 19/M08 Q1015 BECMG TL1450 VRB01MPS
ZBAA,2025-03-20 13:30,ZBAA 201330Z 34005MPS CAVOK 18/M08 Q1015 NOSIG
ZBAA,2025-03-20 14:00,ZBAA 201400Z 33005MPS CAVOK 19/M08 Q1015 NOSIG
ZBAA,2025-03-20 14:30,ZBAA 201430Z 31005MPS CAVOK 18/M09 Q1015 NOSIG
ZBAA,2025-03-20 15:00,ZBAA 201500Z 31004MPS 280V340 CAVOK 18/M08 Q1015 NOSIG
ZBAA,2025-03-20 15:30,ZBAA 201530Z 30005MPS CAVOK 18/M08 Q1015 NOSIG
ZBAA,2025-03-20 16:00,ZBAA 201600Z 29003MPS CAVOK 16/M09 Q1015 NOSIG
ZBAA,2025-03-20 16:30,ZBAA 201630Z 29003MPS CAVOK 17/M08 Q1015 NOSIG
ZBAA,2025-03-20 17:00,ZBAA 201700Z 29004MPS CAVOK 17/M07 Q1015 NOSIG
ZBAA,2025-03-20 17:30,ZBAA 201730Z 31005MPS CAVOK 16/M08 Q1015 NOSIG
ZBAA,2025-03-20 18:00,ZBAA 201800Z 30006MPS CAVOK 17/M07 Q1014 NOSIG
ZBAA,2025-03-20 18:30,ZBAA 201830Z 30007MPS CAVOK 18/M07 Q1014 NOSIG
ZBAA,2025-03-20 19:00,ZBAA 201900Z 28004MPS CAVOK 16/M07 Q1014 NOSIG
ZBAA,2025-03-20 19:30,ZBAA 201930Z 27005MPS CAVOK 15/M07 Q1014 NOSIG
ZBAA,2025-03-20 20:00,ZBAA 202000Z 28005MPS CAVOK 16/M07 Q1014 NOSIG
ZBAA,2025-03-20 20:30,ZBAA 202030Z 30006MPS CAVOK 17/M07 Q1014 NOSIG
ZBAA,2025-03-20 21:00,ZBAA 202100Z 29005MPS CAVOK 17/M07 Q1014 NOSIG
ZBAA,2025-03-20 21:30,ZBAA 202130Z 27003MPS CAVOK 15/M06 Q1014 NOSIG
ZBAA,2025-03-20 22:00,ZBAA 202200Z 30006G13MPS 280V350 CAVOK 17/M06 Q1014 NOSIG
ZBAA,2025-03-20 22:30,ZBAA 202230Z 29005MPS CAVOK 16/M06 Q1014 NOSIG
ZBAA,2025-03-20 23:00,ZBAA 202300Z 28004G09MPS 250V320 CAVOK 17/M06 Q1014 NOSIG
ZBAA,2025-03-20 23:30,ZBAA 202330Z 29006MPS 260V320 CAVOK 18/M06 Q1014 NOSIG
ZBAA,2025-03-21 00:00,ZBAA 210000Z 30007MPS CAVOK 19/M06 Q1015 NOSIG
ZBAA,2025-03-21 00:30,ZBAA 210030Z 29007G12MPS 250V320 CAVOK 20/M06 Q1015 NOSIG
ZBAA,2025-03-21 01:00,ZBAA 210100Z 29007MPS CAVOK 21/M06 Q1015 NOSIG
ZBAA,2025-03-21 01:30,ZBAA 210130Z 29009MPS CAVOK 21/M06 Q1015 NOSIG
ZBAA,2025-03-21 02:00,ZBAA 210200Z 29009MPS CAVOK 22/M06 Q1014 NOSIG
ZBAA,2025-03-21 02:30,ZBAA 210230Z 29008MPS CAVOK 23/M06 Q1014 NOSIG
ZBAA,2025-03-21 03:00,ZBAA 210300Z 28007MPS CAVOK 24/M06 Q1014 NOSIG
ZBAA,2025-03-21 03:30,ZBAA 210330Z 29008MPS 260V320 CAVOK 24/M06 Q1013 NOSIG
ZBAA,2025-03-21 04:00,ZBAA 210400Z 27009MPS CAVOK 25/M06 Q1013 NOSIG
ZBAA,2025-03-21 04:30,ZBAA 210430Z 27008MPS 250V310 CAVOK 25/M06 Q1012 NOSIG
ZBAA,2025-03-21 05:00,ZBAA 210500Z 28008MPS 260V320 CAVOK 25/M06 Q1012 NOSIG
ZBAA,2025-03-21 05:30,ZBAA 210530Z 28008G14MPS CAVOK 26/M06 Q1011 NOSIG
ZBAA,2025-03-21 06:00,ZBAA 210600Z 29008MPS 260V320 CAVOK 26/M06 Q1010 NOSIG
ZBAA,2025-03-21 06:30,ZBAA 210630Z 28009G15MPS CAVOK 27/M06 Q1010 NOSIG
ZBAA,2025-03-21 07:00,ZBAA 210700Z 28009MPS CAVOK 27/M07 Q1009 NOSIG
ZBAA,2025-03-21 07:30,ZBAA 210730Z 29010MPS 260V320 CAVOK 27/M07 Q1009 NOSIG
ZBAA,2025-03-21 08:00,ZBAA 210800Z 28008G15MPS 250V310 CAVOK 27/M07 Q1009 NOSIG
ZBAA,2025-03-21 08:30,ZBAA 210830Z 27009G14MPS CAVOK 27/M07 Q1009 NOSIG
ZBAA,2025-03-21 09:00,ZBAA 210900Z 28009MPS 250V310 CAVOK 27/M07 Q1008 NOSIG
ZBAA,2025-03-21 09:30,ZBAA 210930Z 28010MPS CAVOK 26/M08 Q1008 NOSIG
ZBAA,2025-03-21 10:00,ZBAA 211000Z 28007G14MPS 250V310 CAVOK 25/M08 Q1008 NOSIG
ZBAA,2025-03-21 10:30,ZBAA 211030Z 28006MPS CAVOK 25/M08 Q1009 NOSIG
ZBAA,2025-03-21 11:00,ZBAA 211100Z 27006MPS 250V310 CAVOK 24/M09 Q1009 NOSIG
ZBAA,2025-03-21 11:30,ZBAA 211130Z 28005MPS 230V320 CAVOK 24/M09 Q1009 NOSIG
ZBAA,2025-03-21 12:00,ZBAA 211200Z 30005MPS 260V330 CAVOK 23/M09 Q1009 NOSIG
ZBAA,2025-03-21 12:30,ZBAA 211230Z 30004MPS CAVOK 23/M09 Q1010 NOSIG
ZBAA,2025-03-21 13:00,ZBAA 211300Z 31004MPS 280V360 CAVOK 22/M08 Q1010 NOSIG
ZBAA,2025-03-21 13:30,ZBAA 211330Z 31004MPS 280V340 CAVOK 21/M08 Q1010 NOSIG
ZBAA,2025-03-21 14:00,ZBAA 211400Z 28004MPS 260V320 CAVOK 21/M09 Q1010 NOSIG
ZBAA,2025-03-21 14:30,ZBAA 211430Z 27003MPS 220V300 CAVOK 22/M09 Q1010 NOSIG
ZBAA,2025-03-21 15:00,ZBAA 211500Z 27003MPS 220V350 CAVOK 21/M09 Q1010 NOSIG
ZBAA,2025-03-21 15:30,ZBAA 211530Z 28003MPS 240V350 CAVOK 20/M10 Q1010 NOSIG
ZBAA,2025-03-21 16:00,ZBAA 211600Z 30002MPS 270V340 CAVOK 13/M08 Q1010 NOSIG
ZBAA,2025-03-21 16:30,ZBAA 211630Z 36001MPS CAVOK 09/M06 Q1010 NOSIG
ZBAA,2025-03-21 17:00,ZBAA 211700Z 30004MPS CAVOK 16/M10 Q1010 NOSIG
ZBAA,2025-03-21 17:30,ZBAA 211730Z 29005MPS CAVOK 20/M12 Q1010 NOSIG
ZBAA,2025-03-21 18:00,ZBAA 211800Z 30006MPS CAVOK 19/M13 Q1010 NOSIG
ZBAA,2025-03-21 18:30,ZBAA 211830Z 29005MPS CAVOK 19/M13 Q1010 NOSIG
ZBAA,2025-03-21 19:00,ZBAA 211900Z 30005MPS CAVOK 19/M14 Q1010 NOSIG
ZBAA,2025-03-21 19:30,ZBAA 211930Z 30007MPS CAVOK 20/M16 Q1010 NOSIG
ZBAA,2025-03-21 20:00,ZBAA 212000Z 31005MPS CAVOK 18/M15 Q1010 NOSIG
ZBAA,2025-03-21 20:30,ZBAA 212030Z 30007MPS CAVOK 19/M16 Q1010 NOSIG
ZBAA,2025-03-21 21:00,ZBAA 212100Z 30004MPS CAVOK 18/M17 Q1010 NOSIG
ZBAA,2025-03-21 21:30,ZBAA 212130Z 30005MPS CAVOK 18/M17 Q1010 NOSIG
ZBAA,2025-03-21 22:00,ZBAA 212200Z 30004MPS 280V340 CAVOK 17/M16 Q1010 NOSIG
ZBAA,2025-03-21 22:30,ZBAA 212230Z 30005MPS CAVOK 18/M17 Q1010 NOSIG
ZBAA,2025-03-21 23:00,ZBAA 212300Z 29005G10MPS 190V350 CAVOK 19/M18 Q1011 NOSIG
ZBAA,2025-03-21 23:30,ZBAA 212330Z 29006MPS CAVOK 20/M17 Q1011 NOSIG
ZBAA,2025-03-22 00:00,ZBAA 220000Z 30004MPS CAVOK 20/M17 Q1011 NOSIG
ZBAA,2025-03-22 00:30,ZBAA 220030Z 30007MPS CAVOK 21/M16 Q1011 NOSIG
ZBAA,2025-03-22 01:00,ZBAA 220100Z 30005MPS CAVOK 22/M17 Q1011 NOSIG
ZBAA,2025-03-22 01:30,ZBAA 220130Z 31007MPS CAVOK 23/M16 Q1011 NOSIG
ZBAA,2025-03-22 02:00,ZBAA 220200Z 30010MPS CAVOK 24/M16 Q1011 NOSIG
ZBAA,2025-03-22 02:30,ZBAA 220230Z 31009MPS CAVOK 24/M18 Q1011 NOSIG
ZBAA,2025-03-22 03:00,ZBAA 220300Z 30006G11MPS 270V330 CAVOK 25/M17 Q1010 NOSIG
ZBAA,2025-03-22 03:30,ZBAA 220330Z 29007MPS 260V320 CAVOK 26/M17 Q1010 NOSIG
ZBAA,2025-03-22 04:00,ZBAA 220400Z 30008MPS CAVOK 27/M16 Q1009 NOSIG
ZBAA,2025-03-22 04:30,ZBAA 220430Z 28008G15MPS 250V320 CAVOK 27/M16 Q1009 NOSIG
ZBAA,2025-03-22 05:00,ZBAA 220500Z 28008MPS 250V320 CAVOK 27/M16 Q1008 NOSIG
ZBAA,2025-03-22 05:30,ZBAA 220530Z 28008MPS 250V310 CAVOK 28/M15 Q1008 NOSIG
ZBAA,2025-03-22 06:00,ZBAA 220600Z 27009MPS CAVOK 28/M15 Q1007 NOSIG
ZBAA,2025-03-22 06:30,ZBAA 220630Z 29008MPS CAVOK 28/M15 Q1007 NOSIG
ZBAA,2025-03-22 07:00,ZBAA 220700Z 27008G13MPS CAVOK 29/M12 Q1006 NOSIG
ZBAA,2025-03-22 07:30,ZBAA 220730Z 27009MPS CAVOK 29/M12 Q1006 NOSIG
ZBAA,2025-03-22 08:00,ZBAA 220800Z 26008G13MPS CAVOK 29/M14 Q1006 NOSIG
ZBAA,2025-03-22 08:30,ZBAA 220830Z 28008MPS 260V320 CAVOK 29/M14 Q1006 NOSIG
ZBAA,2025-03-22 09:00,ZBAA 220900Z 27008G14MPS CAVOK 29/M17 Q1005 NOSIG
ZBAA,2025-03-22 09:30,ZBAA 220930Z 27007G13MPS CAVOK 28/M18 Q1005 NOSIG
ZBAA,2025-03-22 10:00,ZBAA 221000Z 28007G13MPS CAVOK 27/M15 Q1006 NOSIG
ZBAA,2025-03-22 10:30,ZBAA 221030Z 28005MPS CAVOK 27/M16 Q1006 NOSIG
ZBAA,2025-03-22 11:00,ZBAA 221100Z 28005MPS 250V310 CAVOK 26/M17 Q1006 NOSIG
ZBAA,2025-03-22 11:30,ZBAA 221130Z 27004MPS CAVOK 26/M17 Q1006 NOSIG
ZBAA,2025-03-22 12:00,ZBAA 221200Z 27004MPS 250V320 CAVOK 24/M18 Q1007 NOSIG
ZBAA,2025-03-22 12:30,ZBAA 221230Z 28003MPS 250V320 CAVOK 24/M16 Q1007 NOSIG
ZBAA,2025-03-22 13:00,ZBAA 221300Z 28004MPS CAVOK 23/M16 Q1007 NOSIG
ZBAA,2025-03-22 13:30,ZBAA 221330Z 29004G09MPS 270V350 CAVOK 23/M17 Q1007 NOSIG
ZBAA,2025-03-22 14:00,ZBAA 221400Z 29005MPS 270V340 CAVOK 23/M17 Q1007 NOSIG
ZBAA,2025-03-22 14:30,ZBAA 221430Z 29006MPS CAVOK 23/M19 Q1007 NOSIG
ZBAA,2025-03-22 15:00,ZBAA 221500Z 29006G11MPS CAVOK 22/M19 Q1007 NOSIG
ZBAA,2025-03-22 15:30,ZBAA 221530Z 28006MPS CAVOK 21/M18 Q1007 NOSIG
ZBAA,2025-03-22 16:00,ZBAA 221600Z 29008MPS CAVOK 22/M17 Q1007 NOSIG
ZBAA,2025-03-22 16:30,ZBAA 221630Z 29008MPS CAVOK 22/M17 Q1008 NOSIG
ZBAA,2025-03-22 17:00,ZBAA 221700Z 29007MPS CAVOK 22/M17 Q1008 NOSIG
ZBAA,2025-03-22 17:30,ZBAA 221730Z 30006MPS CAVOK 21/M18 Q1008 NOSIG
ZBAA,2025-03-22 18:00,ZBAA 221800Z 29005MPS CAVOK 21/M16 Q1008 NOSIG
ZBAA,2025-03-22 18:30,ZBAA 221830Z 31004MPS CAVOK 20/M17 Q1008 NOSIG
ZBAA,2025-03-22 19:00,ZBAA 221900Z 31005MPS CAVOK 20/M17 Q1008 NOSIG
ZBAA,2025-03-22 19:30,ZBAA 221930Z 31004MPS CAVOK 20/M17 Q1008 NOSIG
ZBAA,2025-03-22 20:00,ZBAA 222000Z 30004MPS CAVOK 19/M17 Q1008 NOSIG
ZBAA,2025-03-22 20:30,ZBAA 222030Z 31004MPS CAVOK 18/M16 Q1008 NOSIG
ZBAA,2025-03-22 21:00,ZBAA 222100Z 32005MPS CAVOK 19/M16 Q1007 NOSIG
ZBAA,2025-03-22 21:30,ZBAA 222130Z 31004MPS CAVOK 18/M17 Q1007 NOSIG
ZBAA,2025-03-22 22:00,ZBAA 222200Z 04002MPS 010V070 CAVOK 15/M15 Q1007 NOSIG
ZBAA,2025-03-22 22:30,ZBAA 222230Z 34002MPS 290V360 CAVOK 14/M15 Q1007 NOSIG
ZBAA,2025-03-22 23:00,ZBAA 222300Z 34002MPS CAVOK 14/M13 Q1008 NOSIG
ZBAA,2025-03-22 23:30,ZBAA 222330Z VRB01MPS CAVOK 15/M11 Q1008 NOSIG
ZBAA,2025-03-23 00:00,ZBAA 230000Z VRB01MPS CAVOK 18/M11 Q1008 NOSIG
ZBAA,2025-03-23 00:30,ZBAA 230030Z 32004MPS CAVOK 21/M16 Q1007 NOSIG
ZBAA,2025-03-23 01:00,ZBAA 230100Z 33003MPS 290V010 CAVOK 23/M15 Q1007 NOSIG
ZBAA,2025-03-23 01:30,ZBAA 230130Z 34002MPS 290V020 CAVOK 23/M14 Q1007 NOSIG
ZBAA,2025-03-23 02:00,ZBAA 230200Z 32004MPS CAVOK 24/M16 Q1007 NOSIG
ZBAA,2025-03-23 02:30,ZBAA 230230Z 30006MPS 260V330 CAVOK 25/M17 Q1006 NOSIG
ZBAA,2025-03-23 03:00,ZBAA 230300Z 30005G10MPS 270V350 CAVOK 24/M18 Q1006 NOSIG
ZBAA,2025-03-23 03:30,ZBAA 230330Z 30006MPS CAVOK 26/M19 Q1005 NOSIG
ZBAA,2025-03-23 04:00,ZBAA 230400Z 30008MPS CAVOK 26/M19 Q1005 NOSIG
ZBAA,2025-03-23 04:30,ZBAA 230430Z 30006G11MPS CAVOK 26/M19 Q1004 NOSIG
ZBAA,2025-03-23 05:00,ZBAA 230500Z 30006G11MPS 260V340 CAVOK 26/M17 Q1003 NOSIG
ZBAA,2025-03-23 05:30,ZBAA 230530Z 32006G12MPS 280V350 CAVOK 27/M18 Q1002 NOSIG
ZBAA,2025-03-23 05:36,ZBAA 230536Z 25006G11MPS 180V290 CAVOK 27/M19 Q1002 NOSIG
ZBAA,2025-03-23 06:00,ZBAA 230600Z 24003MPS 180V310 CAVOK 26/M19 Q1002 NOSIG
ZBAA,2025-03-23 06:30,ZBAA 230630Z 26006MPS 220V280 CAVOK 26/M19 Q1001 NOSIG
ZBAA,2025-03-23 07:00,ZBAA 230700Z 26006MPS 200V310 CAVOK 27/M22 Q1001 NOSIG
ZBAA,2025-03-23 07:30,ZBAA 230730Z VRB05G10MPS CAVOK 26/M19 Q1001 NOSIG
ZBAA,2025-03-23 08:00,ZBAA 230800Z 24005G10MPS 210V320 8000 NSC 26/M19 Q1000 NOSIG
ZBAA,2025-03-23 08:30,ZBAA 230830Z VRB05MPS 8000 NSC 26/M19 Q1000 NOSIG
ZBAA,2025-03-23 09:00,ZBAA 230900Z 26004G09MPS 230V010 8000 NSC 26/M19 Q1000 NOSIG
ZBAA,2025-03-23 09:30,ZBAA 230930Z 22004MPS 160V320 CAVOK 25/M17 Q1000 NOSIG
ZBAA,2025-03-23 10:00,ZBAA 231000Z 20003MPS 180V240 CAVOK 24/M16 Q1000 NOSIG
ZBAA,2025-03-23 10:30,ZBAA 231030Z 20003MPS 170V270 CAVOK 23/M16 Q1000 NOSIG
ZBAA,2025-03-23 11:00,ZBAA 231100Z 22004MPS 190V250 CAVOK 23/M15 Q1000 NOSIG
ZBAA,2025-03-23 11:30,ZBAA 231130Z 20005MPS CAVOK 22/M13 Q1000 NOSIG
ZBAA,2025-03-23 12:00,ZBAA 231200Z 20004MPS CAVOK 22/M10 Q1000 NOSIG
ZBAA,2025-03-23 12:30,ZBAA 231230Z 21004MPS 170V250 CAVOK 21/M10 Q1000 NOSIG
ZBAA,2025-03-23 13:00,ZBAA 231300Z 21004MPS 160V240 CAVOK 21/M09 Q1000 NOSIG
ZBAA,2025-03-23 13:30,ZBAA 231330Z 20004MPS CAVOK 20/M10 Q0999 NOSIG
ZBAA,2025-03-23 14:00,ZBAA 231400Z 20003MPS 170V290 CAVOK 20/M09 Q0999 NOSIG
ZBAA,2025-03-23 14:30,ZBAA 231430Z 23003MPS 170V270 CAVOK 20/M09 Q0999 NOSIG
ZBAA,2025-03-23 15:00,ZBAA 231500Z 23003MPS 170V320 CAVOK 20/M10 Q0999 NOSIG
ZBAA,2025-03-23 15:30,ZBAA 231530Z 24002MPS 210V300 CAVOK 20/M09 Q0999 NOSIG
ZBAA,2025-03-23 16:00,ZBAA 231600Z VRB01MPS CAVOK 15/M08 Q0999 NOSIG
ZBAA,2025-03-23 16:30,ZBAA 231630Z 27002MPS CAVOK 17/M08 Q0999 NOSIG
ZBAA,2025-03-23 17:00,ZBAA 231700Z 27003MPS CAVOK 19/M10 Q0999 NOSIG
ZBAA,2025-03-23 17:30,ZBAA 231730Z 29005MPS CAVOK 20/M13 Q0999 NOSIG
ZBAA,2025-03-23 18:00,ZBAA 231800Z 31005MPS CAVOK 19/M12 Q0999 NOSIG
ZBAA,2025-03-23 18:30,ZBAA 231830Z 33008MPS CAVOK 20/M11 Q0999 NOSIG
ZBAA,2025-03-23 19:00,ZBAA 231900Z 33007MPS CAVOK 20/M09 Q1000 NOSIG
ZBAA,2025-03-23 19:30,ZBAA 231930Z 34008MPS CAVOK 20/M07 Q1000 NOSIG
ZBAA,2025-03-23 20:00,ZBAA 232000Z 32008MPS CAVOK 19/M06 Q1001 NOSIG
ZBAA,2025-03-23 20:30,ZBAA 232030Z 32007MPS CAVOK 19/M06 Q1002 NOSIG
ZBAA,2025-03-23 21:00,ZBAA 232100Z 36005MPS CAVOK 16/M07 Q1002 NOSIG
ZBAA,2025-03-23 21:30,ZBAA 232130Z 35007MPS CAVOK 15/M04 Q1004 NOSIG
ZBAA,2025-03-23 22:00,ZBAA 232200Z 36006MPS 330V040 CAVOK 15/M02 Q1005 NOSIG
ZBAA,2025-03-23 22:30,ZBAA 232230Z 36008MPS CAVOK 15/M05 Q1005 NOSIG
ZBAA,2025-03-23 23:00,ZBAA 232300Z 02007MPS CAVOK 15/M07 Q1006 NOSIG
ZBAA,2025-03-23 23:30,ZBAA 232330Z 02007MPS 350V050 CAVOK 15/M08 Q1007 NOSIG
ZBAA,2025-03-24 00:00,ZBAA 240000Z 01007MPS CAVOK 16/M07 Q1007 NOSIG
ZBAA,2025-03-24 00:30,ZBAA 240030Z 02006MPS 350V050 CAVOK 16/M07 Q1008 NOSIG
ZBAA,2025-03-24 01:00,ZBAA 240100Z 01005MPS 340V040 CAVOK 17/M08 Q1008 NOSIG
ZBAA,2025-03-24 01:30,ZBAA 240130Z 04005MPS 360V060 CAVOK 17/M07 Q1008 NOSIG
ZBAA,2025-03-24 02:00,COR ZBAA 240200Z 03006MPS CAVOK 17/M09 Q1008 BECMG TL0240 09003MPS
ZBAA,2025-03-24 02:30,ZBAA 240230Z 04005MPS CAVOK 17/M09 Q1008 NOSIG
ZBAA,2025-03-24 03:00,ZBAA 240300Z 05004MPS 360V110 CAVOK 18/M10 Q1008 NOSIG
ZBAA,2025-03-24 03:30,ZBAA 240330Z 06004MPS 010V120 CAVOK 19/M09 Q1008 NOSIG
ZBAA,2025-03-24 04:00,ZBAA 240400Z VRB02MPS CAVOK 19/M09 Q1007 NOSIG
ZBAA,2025-03-24 04:30,ZBAA 240430Z 09003MPS 360V170 CAVOK 19/M09 Q1007 NOSIG
ZBAA,2025-03-24 05:00,ZBAA 240500Z 03002MPS 310V120 CAVOK 20/M09 Q1006 NOSIG
ZBAA,2025-03-24 05:30,ZBAA 240530Z VRB03MPS CAVOK 20/M09 Q1005 NOSIG
ZBAA,2025-03-24 06:00,ZBAA 240600Z 08002MPS 030V150 CAVOK 20/M09 Q1005 NOSIG
ZBAA,2025-03-24 06:30,ZBAA 240630Z 15002MPS 100V170 CAVOK 20/M09 Q1004 NOSIG
ZBAA,2025-03-24 07:00,ZBAA 240700Z 16002MPS 080V220 CAVOK 21/M09 Q1004 NOSIG
ZBAA,2025-03-24 07:30,ZBAA 240730Z 17003MPS 090V240 CAVOK 22/M09 Q1003 NOSIG
ZBAA,2025-03-24 08:00,ZBAA 240800Z 15003MPS 110V180 CAVOK 21/M10 Q1003 NOSIG
ZBAA,2025-03-24 08:30,ZBAA 240830Z 15004MPS 100V190 CAVOK 20/M10 Q1003 NOSIG
ZBAA,2025-03-24 09:00,ZBAA 240900Z 14003MPS 090V180 CAVOK 21/M10 Q1002 NOSIG
ZBAA,2025-03-24 09:30,ZBAA 240930Z 19005MPS 160V220 CAVOK 20/M10 Q1002 NOSIG
ZBAA,2025-03-24 10:00,ZBAA 241000Z 15003MPS CAVOK 19/M09 Q1001 NOSIG
ZBAA,2025-03-24 10:30,ZBAA 241030Z 15006G11MPS CAVOK 18/M01 Q1001 NOSIG
ZBAA,2025-03-24 11:00,ZBAA 241100Z 16006MPS CAVOK 17/M01 Q1001 NOSIG
ZBAA,2025-03-24 11:30,ZBAA 241130Z 16006MPS CAVOK 16/M02 Q1001 NOSIG
ZBAA,2025-03-24 12:00,ZBAA 241200Z 15006MPS 120V180 CAVOK 16/M02 Q1001 NOSIG
ZBAA,2025-03-24 12:30,ZBAA 241230Z 16006MPS CAVOK 15/M03 Q1001 NOSIG
ZBAA,2025-03-24 13:00,ZBAA 241300Z 17007MPS CAVOK 14/M03 Q1001 NOSIG
ZBAA,2025-03-24 13:30,ZBAA 241330Z 15005MPS 110V180 CAVOK 14/M03 Q1002 NOSIG
ZBAA,2025-03-24 14:00,ZBAA 241400Z 14005MPS CAVOK 12/M04 Q1001 NOSIG
ZBAA,2025-03-24 14:30,ZBAA 241430Z 13005MPS CAVOK 12/M04 Q1001 NOSIG
ZBAA,2025-03-24 15:00,ZBAA 241500Z 11004MPS 080V150 CAVOK 11/M04 Q1000 NOSIG
ZBAA,2025-03-24 15:30,ZBAA 241530Z 11004MPS 080V150 CAVOK 10/M06 Q0999 NOSIG
ZBAA,2025-03-24 16:00,ZBAA 241600Z 12004MPS 070V150 CAVOK 09/M06 Q0998 NOSIG
ZBAA,2025-03-24 16:30,ZBAA 241630Z 11003MPS 070V140 CAVOK 09/M06 Q0998 NOSIG
ZBAA,2025-03-24 17:00,ZBAA 241700Z 12004MPS 090V160 CAVOK 09/M06 Q0998 NOSIG
ZBAA,2025-03-24 17:30,ZBAA 241730Z 10004MPS 050V140 CAVOK 09/M06 Q0998 NOSIG
ZBAA,2025-03-24 18:00,ZBAA 241800Z 36004MPS CAVOK 09/M06 Q0999 NOSIG
ZBAA,2025-03-24 18:30,ZBAA 241830Z 05002MPS 010V080 CAVOK 09/M06 Q0998 NOSIG
ZBAA,2025-03-24 19:00,ZBAA 241900Z 13002MPS 090V160 CAVOK 09/M04 Q0997 NOSIG
ZBAA,2025-03-24 19:30,ZBAA 241930Z 31002MPS 250V360 CAVOK 08/M04 Q0997 NOSIG
ZBAA,2025-03-24 20:00,ZBAA 242000Z 33003MPS 290V350 CAVOK 08/M05 Q0997 NOSIG
ZBAA,2025-03-24 20:30,ZBAA 242030Z 25004G13MPS 200V300 CAVOK 09/M05 Q0996 NOSIG
ZBAA,2025-03-24 20:53,ZBAA 242053Z 30009G19MPS CAVOK 13/M05 Q0995 NOSIG
ZBAA,2025-03-24 21:00,ZBAA 242100Z 29012G19MPS CAVOK 14/M05 Q0995 NOSIG
ZBAA,2025-03-24 21:30,ZBAA 242130Z 29015G21MPS CAVOK 15/M05 Q0996 NOSIG
ZBAA,2025-03-24 22:00,COR ZBAA 242200Z 30014G22MPS CAVOK 14/M06 Q0997 WS R36L NOSIG
ZBAA,2025-03-24 22:30,ZBAA 242230Z 30012G19MPS CAVOK 14/M06 Q0997 NOSIG
ZBAA,2025-03-24 23:00,ZBAA 242300Z 30014G21MPS CAVOK 13/M06 Q0997 NOSIG
ZBAA,2025-03-24 23:30,ZBAA 242330Z 30015G21MPS CAVOK 13/M06 Q0998 NOSIG
ZBAA,2025-03-25 00:00,ZBAA 250000Z 32014G20MPS CAVOK 14/M07 Q0998 NOSIG
ZBAA,2025-03-25 00:30,ZBAA 250030Z 31010G16MPS CAVOK 14/M07 Q0999 NOSIG
ZBAA,2025-03-25 01:00,ZBAA 250100Z 31009MPS CAVOK 15/M07 Q1000 NOSIG
ZBAA,2025-03-25 01:30,ZBAA 250130Z 31011MPS CAVOK 16/M07 Q1000 NOSIG
ZBAA,2025-03-25 02:00,ZBAA 250200Z 31012MPS CAVOK 16/M08 Q1000 NOSIG
ZBAA,2025-03-25 02:30,ZBAA 250230Z 31008MPS CAVOK 17/M08 Q1000 NOSIG
ZBAA,2025-03-25 03:00,ZBAA 250300Z 32009MPS 290V360 CAVOK 18/M08 Q1001 NOSIG
ZBAA,2025-03-25 03:30,ZBAA 250330Z 30011MPS CAVOK 18/M07 Q1000 NOSIG
ZBAA,2025-03-25 04:00,ZBAA 250400Z 31007MPS 280V340 CAVOK 19/M07 Q1000 NOSIG
ZBAA,2025-03-25 04:30,ZBAA 250430Z 31007G13MPS 280V350 CAVOK 20/M09 Q1000 NOSIG
ZBAA,2025-03-25 05:00,ZBAA 250500Z 29008MPS 260V320 CAVOK 19/M07 Q1000 NOSIG
ZBAA,2025-03-25 05:30,ZBAA 250530Z 27008MPS 250V310 CAVOK 20/M07 Q1000 NOSIG
ZBAA,2025-03-25 06:00,ZBAA 250600Z 28007G13MPS CAVOK 20/M08 Q1000 NOSIG
ZBAA,2025-03-25 06:30,ZBAA 250630Z 29005G11MPS 260V340 CAVOK 20/M08 Q1000 NOSIG
ZBAA,2025-03-25 07:00,ZBAA 250700Z 28005G10MPS 250V330 CAVOK 21/M08 Q1000 NOSIG
ZBAA,2025-03-25 07:30,ZBAA 250730Z 29004G09MPS 240V330 CAVOK 20/M08 Q1000 NOSIG
ZBAA,2025-03-25 08:00,ZBAA 250800Z 33003MPS 270V040 CAVOK 20/M09 Q1000 NOSIG
ZBAA,2025-03-25 08:30,ZBAA 250830Z 36002MPS 280V060 CAVOK 20/M09 Q1000 NOSIG
ZBAA,2025-03-25 09:00,ZBAA 250900Z VRB02MPS CAVOK 20/M09 Q1000 NOSIG
ZBAA,2025-03-25 09:30,ZBAA 250930Z 14002MPS 100V170 CAVOK 19/M09 Q1000 NOSIG
ZBAA,2025-03-25 10:00,ZBAA 251000Z 15002MPS CAVOK 19/M08 Q1000 NOSIG
ZBAA,2025-03-25 10:30,ZBAA 251030Z 17002MPS CAVOK 17/M07 Q1000 NOSIG
ZBAA,2025-03-25 11:00,ZBAA 251100Z 12001MPS CAVOK 13/M06 Q1000 NOSIG
ZBAA,2025-03-25 11:30,ZBAA 251130Z 13002MPS CAVOK 13/M06 Q1000 NOSIG
ZBAA,2025-03-25 12:00,ZBAA 251200Z 13002MPS CAVOK 13/M07 Q1000 NOSIG
ZBAA,2025-03-25 12:30,ZBAA 251230Z VRB01MPS CAVOK 11/M05 Q1001 NOSIG
ZBAA,2025-03-25 13:00,ZBAA 251300Z VRB01MPS CAVOK 10/M06 Q1001 NOSIG
ZBAA,2025-03-25 13:30,ZBAA 251330Z 18002MPS 140V200 CAVOK 09/M06 Q1001 NOSIG
ZBAA,2025-03-25 14:00,ZBAA 251400Z VRB01MPS CAVOK 10/M06 Q1002 NOSIG
ZBAA,2025-03-25 14:30,ZBAA 251430Z 18002MPS CAVOK 10/M04 Q1002 NOSIG
ZBAA,2025-03-25 14:54,ZBAA 251454Z 10005MPS 060V150 CAVOK 13/M05 Q1002 NOSIG
ZBAA,2025-03-25 15:00,ZBAA 251500Z 10004G09MPS 060V140 CAVOK 13/M05 Q1003 NOSIG
ZBAA,2025-03-25 15:30,ZBAA 251530Z 13005MPS 100V160 CAVOK 12/M04 Q1004 NOSIG
ZBAA,2025-03-25 16:00,ZBAA 251600Z 13005G10MPS 100V170 CAVOK 11/M04 Q1004 NOSIG
ZBAA,2025-03-25 16:30,ZBAA 251630Z 13006G11MPS 090V160 CAVOK 10/M03 Q1004 NOSIG
ZBAA,2025-03-25 17:00,ZBAA 251700Z 14005G10MPS 110V170 CAVOK 10/M04 Q1004 NOSIG
ZBAA,2025-03-25 17:30,ZBAA 251730Z 14004MPS 090V180 CAVOK 09/M04 Q1004 NOSIG
ZBAA,2025-03-25 18:00,ZBAA 251800Z 11002MPS 060V140 CAVOK 09/M04 Q1004 NOSIG
ZBAA,2025-03-25 18:30,ZBAA 251830Z 13005MPS CAVOK 09/M05 Q1004 NOSIG
ZBAA,2025-03-25 19:00,ZBAA 251900Z 14005MPS 110V200 CAVOK 08/M05 Q1004 NOSIG
ZBAA,2025-03-25 19:30,ZBAA 251930Z 16006MPS CAVOK 08/M04 Q1003 NOSIG
ZBAA,2025-03-25 20:00,ZBAA 252000Z 16003MPS CAVOK 07/M04 Q1004 NOSIG
ZBAA,2025-03-25 20:30,ZBAA 252030Z 16004MPS CAVOK 07/M04 Q1004 NOSIG
ZBAA,2025-03-25 21:00,ZBAA 252100Z 13002MPS 090V160 CAVOK 06/M03 Q1004 NOSIG
ZBAA,2025-03-25 21:30,ZBAA 252130Z 08002MPS 040V120 CAVOK 06/M04 Q1004 NOSIG
ZBAA,2025-03-25 22:00,ZBAA 252200Z VRB01MPS CAVOK 06/M04 Q1004 NOSIG
ZBAA,2025-03-25 22:30,ZBAA 252230Z 10002MPS 060V200 CAVOK 06/M04 Q1004 NOSIG
ZBAA,2025-03-25 23:00,ZBAA 252300Z VRB01MPS CAVOK 06/M04 Q1003 NOSIG
ZBAA,2025-03-25 23:30,ZBAA 252330Z VRB01MPS CAVOK 07/M03 Q1003 NOSIG
ZBAA,2025-03-26 00:00,ZBAA 260000Z 01002MPS 330V040 CAVOK 08/M03 Q1002 NOSIG
ZBAA,2025-03-26 00:30,ZBAA 260030Z VRB01MPS CAVOK 09/M03 Q1003 NOSIG
ZBAA,2025-03-26 01:00,ZBAA 260100Z 01002MPS 290V060 CAVOK 09/M04 Q1002 NOSIG
ZBAA,2025-03-26 01:30,ZBAA 260130Z VRB01MPS CAVOK 10/M04 Q1002 NOSIG
ZBAA,2025-03-26 02:00,ZBAA 260200Z VRB01MPS CAVOK 11/M04 Q1002 NOSIG
ZBAA,2025-03-26 02:30,ZBAA 260230Z VRB02MPS CAVOK 11/M04 Q1001 NOSIG
ZBAA,2025-03-26 03:00,ZBAA 260300Z 17002MPS 100V230 CAVOK 11/M04 Q1000 NOSIG
ZBAA,2025-03-26 03:30,ZBAA 260330Z VRB01MPS CAVOK 12/M04 Q1000 NOSIG
ZBAA,2025-03-26 04:00,ZBAA 260400Z VRB02MPS CAVOK 13/M04 Q0999 NOSIG
ZBAA,2025-03-26 04:30,ZBAA 260430Z 20002MPS 130V260 CAVOK 13/M04 Q0999 NOSIG
ZBAA,2025-03-26 05:00,ZBAA 260500Z VRB01MPS CAVOK 14/M04 Q0998 NOSIG
ZBAA,2025-03-26 05:30,ZBAA 260530Z VRB02G07MPS CAVOK 16/M04 Q0998 NOSIG
ZBAA,2025-03-26 06:00,ZBAA 260600Z 25002MPS 170V320 CAVOK 15/M04 Q0998 NOSIG
ZBAA,2025-03-26 06:30,ZBAA 260630Z 22002MPS 170V270 CAVOK 16/M04 Q0998 NOSIG
ZBAA,2025-03-26 07:00,ZBAA 260700Z VRB01MPS CAVOK 17/M04 Q0998 BECMG TL0850 32005MPS
ZBAA,2025-03-26 07:30,ZBAA 260730Z 01002MPS 300V110 CAVOK 18/M04 Q0998 NOSIG
ZBAA,2025-03-26 08:00,ZBAA 260800Z 01003MPS 320V050 CAVOK 18/M04 Q0998 NOSIG
ZBAA,2025-03-26 08:30,ZBAA 260830Z VRB01MPS CAVOK 18/M05 Q0998 NOSIG
ZBAA,2025-03-26 09:00,ZBAA 260900Z VRB01MPS CAVOK 18/M05 Q0999 BECMG TL1050 33006MPS
ZBAA,2025-03-26 09:30,ZBAA 260930Z VRB01MPS CAVOK 17/M04 Q0999 NOSIG
ZBAA,2025-03-26 10:00,ZBAA 261000Z VRB01MPS CAVOK 17/M04 Q1000 BECMG TL1120 33007MPS
ZBAA,2025-03-26 10:30,ZBAA 261030Z 01004MPS CAVOK 15/M04 Q1001 NOSIG
ZBAA,2025-03-26 11:00,ZBAA 261100Z 33006MPS CAVOK 17/M10 Q1002 NOSIG
ZBAA,2025-03-26 11:30,ZBAA 261130Z 36006MPS CAVOK 15/M15 Q1003 NOSIG
ZBAA,2025-03-26 12:00,ZBAA 261200Z 35006MPS CAVOK 14/M16 Q1004 NOSIG
ZBAA,2025-03-26 12:30,ZBAA 261230Z 34007MPS CAVOK 15/M19 Q1004 NOSIG
ZBAA,2025-03-26 13:00,ZBAA 261300Z 35007MPS CAVOK 14/M18 Q1005 NOSIG
ZBAA,2025-03-26 13:30,ZBAA 261330Z 34009MPS CAVOK 14/M17 Q1005 NOSIG
ZBAA,2025-03-26 14:00,ZBAA 261400Z 35010MPS CAVOK 14/M17 Q1006 NOSIG
ZBAA,2025-03-26 14:30,ZBAA 261430Z 34010MPS CAVOK 13/M18 Q1007 NOSIG
ZBAA,2025-03-26 15:00,ZBAA 261500Z 34009MPS CAVOK 13/M19 Q1007 NOSIG
ZBAA,2025-03-26 15:30,ZBAA 261530Z 34009MPS CAVOK 13/M19 Q1007 NOSIG
ZBAA,2025-03-26 16:00,ZBAA 261600Z 34007MPS CAVOK 13/M19 Q1008 NOSIG
ZBAA,2025-03-26 16:30,ZBAA 261630Z 34007MPS CAVOK 13/M19 Q1008 NOSIG
ZBAA,2025-03-26 17:00,ZBAA 261700Z 34006MPS CAVOK 13/M20 Q1009 NOSIG
ZBAA,2025-03-26 17:30,ZBAA 261730Z 34008MPS CAVOK 13/M21 Q1009 NOSIG
ZBAA,2025-03-26 18:00,ZBAA 261800Z 33009MPS CAVOK 13/M23 Q1010 NOSIG
ZBAA,2025-03-26 18:30,ZBAA 261830Z 33008MPS CAVOK 12/M21 Q1010 NOSIG
ZBAA,2025-03-26 19:00,ZBAA 261900Z 34008MPS CAVOK 12/M20 Q1010 NOSIG
ZBAA,2025-03-26 19:30,ZBAA 261930Z 34008MPS CAVOK 12/M19 Q1010 NOSIG
ZBAA,2025-03-26 20:00,ZBAA 262000Z 33009MPS CAVOK 12/M18 Q1011 NOSIG
ZBAA,2025-03-26 20:30,ZBAA 262030Z 33010MPS CAVOK 11/M16 Q1011 NOSIG
ZBAA,2025-03-26 21:00,ZBAA 262100Z 33007MPS CAVOK 11/M17 Q1011 NOSIG
ZBAA,2025-03-26 21:30,ZBAA 262130Z 32006MPS CAVOK 11/M16 Q1012 NOSIG
ZBAA,2025-03-26 22:00,ZBAA 262200Z 32007MPS CAVOK 11/M15 Q1013 NOSIG
ZBAA,2025-03-26 22:30,ZBAA 262230Z 33007MPS CAVOK 10/M14 Q1012 NOSIG
ZBAA,2025-03-26 23:00,ZBAA 262300Z 32009MPS CAVOK 10/M12 Q1013 NOSIG
ZBAA,2025-03-26 23:30,ZBAA 262330Z 32009MPS CAVOK 10/M11 Q1014 NOSIG
ZBAA,2025-03-27 00:00,ZBAA 270000Z 32008MPS CAVOK 10/M10 Q1014 NOSIG
ZBAA,2025-03-27 00:30,ZBAA 270030Z 34007MPS 310V030 CAVOK 10/M10 Q1015 NOSIG
ZBAA,2025-03-27 01:00,ZBAA 270100Z 02005MPS 350V050 CAVOK 09/M09 Q1016 BECMG TL0240 32005MPS
ZBAA,2025-03-27 01:30,ZBAA 270130Z 03004MPS 360V060 CAVOK 09/M09 Q1017 NOSIG
ZBAA,2025-03-27 02:00,ZBAA 270200Z 02004MPS CAVOK 09/M10 Q1017 BECMG TL0340 32005MPS
ZBAA,2025-03-27 02:30,ZBAA 270230Z 02004MPS 360V070 CAVOK 09/M11 Q1017 NOSIG
ZBAA,2025-03-27 03:00,ZBAA 270300Z 02005MPS 350V050 CAVOK 09/M13 Q1017 BECMG TL0440 32004MPS
ZBAA,2025-03-27 03:30,ZBAA 270330Z 36004MPS 320V040 CAVOK 11/M12 Q1018 NOSIG
ZBAA,2025-03-27 04:00,ZBAA 270400Z 03003MPS 360V070 CAVOK 10/M12 Q1017 BECMG TL0540 32005MPS
ZBAA,2025-03-27 04:30,ZBAA 270430Z 03003MPS 340V100 CAVOK 12/M12 Q1016 NOSIG
ZBAA,2025-03-27 05:00,ZBAA 270500Z VRB03MPS CAVOK 13/M12 Q1016 BECMG TL0640 33005MPS
ZBAA,2025-03-27 05:30,ZBAA 270530Z VRB03G08MPS CAVOK 12/M13 Q1016 NOSIG
ZBAA,2025-03-27 06:00,ZBAA 270600Z 36004MPS 310V060 CAVOK 12/M12 Q1016 NOSIG
ZBAA,2025-03-27 06:30,ZBAA 270630Z VRB03MPS CAVOK 12/M13 Q1015 NOSIG
ZBAA,2025-03-27 07:00,ZBAA 270700Z 32004MPS 290V010 CAVOK 12/M13 Q1015 NOSIG
ZBAA,2025-03-27 07:30,ZBAA 270730Z 32007MPS 9999 SCT040 12/M13 Q1015 NOSIG
ZBAA,2025-03-27 08:00,ZBAA 270800Z 35004MPS 310V020 9999 SCT040 12/M13 Q1015 NOSIG
ZBAA,2025-03-27 08:30,ZBAA 270830Z 36002MPS 320V030 9999 FEW040 12/M13 Q1015 NOSIG
ZBAA,2025-03-27 09:00,ZBAA 270900Z 36003MPS 330V100 CAVOK 12/M14 Q1016 NOSIG
ZBAA,2025-03-27 09:30,ZBAA 270930Z 35004MPS CAVOK 12/M15 Q1016 NOSIG
ZBAA,2025-03-27 10:00,ZBAA 271000Z 01004MPS 340V050 CAVOK 12/M17 Q1016 NOSIG
ZBAA,2025-03-27 10:30,ZBAA 271030Z 01005MPS CAVOK 12/M18 Q1017 NOSIG
ZBAA,2025-03-27 11:00,ZBAA 271100Z 01006MPS CAVOK 11/M19 Q1018 NOSIG
ZBAA,2025-03-27 11:30,ZBAA 271130Z 36003MPS CAVOK 10/M18 Q1018 NOSIG
ZBAA,2025-03-27 12:00,ZBAA 271200Z 36003MPS CAVOK 09/M19 Q1019 NOSIG
ZBAA,2025-03-27 12:30,ZBAA 271230Z 01004MPS CAVOK 09/M19 Q1020 NOSIG
ZBAA,2025-03-27 13:00,ZBAA 271300Z 01006G11MPS CAVOK 09/M19 Q1020 NOSIG
ZBAA,2025-03-27 13:30,ZBAA 271330Z 01007MPS 340V040 CAVOK 09/M18 Q1021 NOSIG
ZBAA,2025-03-27 14:00,ZBAA 271400Z 01005MPS CAVOK 08/M18 Q1021 NOSIG
ZBAA,2025-03-27 14:30,ZBAA 271430Z 36003MPS CAVOK 06/M17 Q1021 NOSIG
ZBAA,2025-03-27 15:00,ZBAA 271500Z 36004MPS CAVOK 05/M17 Q1022 NOSIG
ZBAA,2025-03-27 15:30,ZBAA 271530Z 02002MPS 350V070 CAVOK 07/M16 Q1022 NOSIG
ZBAA,2025-03-27 16:00,ZBAA 271600Z 02003MPS 350V050 CAVOK 06/M16 Q1022 NOSIG
ZBAA,2025-03-27 16:30,ZBAA 271630Z 02003MPS CAVOK 07/M16 Q1022 NOSIG
ZBAA,2025-03-27 17:00,ZBAA 271700Z 02003MPS 340V060 CAVOK 06/M16 Q1022 NOSIG
ZBAA,2025-03-27 17:30,ZBAA 271730Z 02003MPS CAVOK 06/M16 Q1023 NOSIG
ZBAA,2025-03-27 18:00,ZBAA 271800Z 02003MPS CAVOK 06/M17 Q1023 NOSIG
ZBAA,2025-03-27 18:30,ZBAA 271830Z 03003MPS 350V050 CAVOK 06/M17 Q1023 NOSIG
ZBAA,2025-03-27 19:00,ZBAA 271900Z 02003MPS CAVOK 06/M17 Q1023 NOSIG
ZBAA,2025-03-27 19:30,ZBAA 271930Z 02004MPS 340V050 CAVOK 06/M17 Q1023 NOSIG
ZBAA,2025-03-27 20:00,ZBAA 272000Z 01004MPS CAVOK 05/M17 Q1023 NOSIG
ZBAA,2025-03-27 20:30,ZBAA 272030Z 01003MPS CAVOK 04/M16 Q1022 NOSIG
ZBAA,2025-03-27 21:00,ZBAA 272100Z 36003MPS CAVOK 03/M16 Q1023 NOSIG
ZBAA,2025-03-27 21:30,ZBAA 272130Z 36003MPS CAVOK 03/M15 Q1023 NOSIG
ZBAA,2025-03-27 22:00,ZBAA 272200Z 36003MPS CAVOK 03/M15 Q1023 NOSIG
ZBAA,2025-03-27 22:30,ZBAA 272230Z 36002MPS CAVOK 04/M15 Q1023 NOSIG
ZBAA,2025-03-27 23:00,ZBAA 272300Z 03002MPS 360V080 CAVOK 04/M15 Q1024 NOSIG
ZBAA,2025-03-27 23:30,ZBAA 272330Z 13003MPS 090V160 CAVOK 05/M08 Q1024 NOSIG
ZBAA,2025-03-28 00:00,ZBAA 280000Z 12004MPS 090V150 CAVOK 05/M07 Q1024 NOSIG
ZBAA,2025-03-28 00:30,ZBAA 280030Z 15003MPS 070V190 CAVOK 06/M08 Q1024 NOSIG
ZBAA,2025-03-28 01:00,ZBAA 280100Z 17003MPS 130V220 CAVOK 06/M08 Q1024 NOSIG
ZBAA,2025-03-28 01:30,ZBAA 280130Z VRB01MPS CAVOK 08/M08 Q1025 NOSIG
ZBAA,2025-03-28 02:00,ZBAA 280200Z VRB03G09MPS CAVOK 08/M09 Q1024 NOSIG
ZBAA,2025-03-28 02:30,ZBAA 280230Z 32004MPS 290V050 CAVOK 07/M10 Q1024 NOSIG
ZBAA,2025-03-28 03:00,ZBAA 280300Z 33002MPS 270V010 CAVOK 08/M11 Q1024 NOSIG
ZBAA,2025-03-28 03:30,ZBAA 280330Z VRB02G07MPS CAVOK 08/M13 Q1024 NOSIG
ZBAA,2025-03-28 03:54,ZBAA 280354Z 29007MPS 250V330 9999 SCT040 08/M15 Q1024 NOSIG
ZBAA,2025-03-28 04:00,ZBAA 280400Z 30006G11MPS 260V330 9999 SCT040 08/M15 Q1024 NOSIG
ZBAA,2025-03-28 04:30,ZBAA 280430Z 30005G10MPS 260V350 9999 SCT040 09/M13 Q1024 NOSIG
ZBAA,2025-03-28 05:00,ZBAA 280500Z 32005MPS 260V350 9999 FEW040 09/M12 Q1023 NOSIG
ZBAA,2025-03-28 05:30,ZBAA 280530Z 31004MPS 230V340 9999 FEW040 09/M12 Q1022 NOSIG
ZBAA,2025-03-28 05:33,ZBAA 280533Z 24005MPS 9999 FEW040 09/M13 Q1022 NOSIG
ZBAA,2025-03-28 05:37,ZBAA 280537Z 30006MPS 9999 FEW040 09/M12 Q1022 NOSIG
ZBAA,2025-03-28 06:00,ZBAA 280600Z 27004MPS 240V340 9999 SCT040 10/M13 Q1022 BECMG TL0740 32009G15MPS
ZBAA,2025-03-28 06:22,ZBAA 280622Z 32009G16MPS 260V350 9999 BKN040 09/M10 Q1022 NOSIG
ZBAA,2025-03-28 06:30,ZBAA 280630Z 34011G16MPS 9999 BKN040 10/M09 Q1022 NOSIG
ZBAA,2025-03-28 07:00,ZBAA 280700Z 34008MPS 9999 BKN040 09/M11 Q1022 NOSIG
ZBAA,2025-03-28 07:30,ZBAA 280730Z 34009MPS 9999 BKN040 08/M10 Q1022 NOSIG
ZBAA,2025-03-28 08:00,ZBAA 280800Z 32007G14MPS 290V350 9999 BKN040 07/M12 Q1022 NOSIG
ZBAA,2025-03-28 08:30,ZBAA 280830Z 29008G14MPS 9999 SCT040 09/M14 Q1021 NOSIG
ZBAA,2025-03-28 09:00,ZBAA 280900Z 30009MPS 9999 SCT040 08/M17 Q1021 NOSIG
ZBAA,2025-03-28 09:30,ZBAA 280930Z 29009MPS 9999 BKN040 09/M19 Q1021 NOSIG
ZBAA,2025-03-28 10:00,ZBAA 281000Z 30010G16MPS 9999 BKN040 07/M19 Q1022 NOSIG
ZBAA,2025-03-28 10:30,ZBAA 281030Z 31008MPS 9999 FEW040 07/M20 Q1023 NOSIG
ZBAA,2025-03-28 11:00,ZBAA 281100Z 31007MPS CAVOK 06/M22 Q1023 NOSIG
ZBAA,2025-03-28 11:30,ZBAA 281130Z 33008MPS CAVOK 05/M21 Q1024 NOSIG
ZBAA,2025-03-28 12:00,ZBAA 281200Z 34007MPS 310V030 CAVOK 05/M20 Q1025 NOSIG
ZBAA,2025-03-28 12:30,ZBAA 281230Z 33009MPS CAVOK 05/M21 Q1026 NOSIG
ZBAA,2025-03-28 13:00,ZBAA 281300Z 34009MPS CAVOK 04/M21 Q1026 BECMG TL1440 32004MPS
ZBAA,2025-03-28 13:30,ZBAA 281330Z 34008MPS CAVOK 04/M21 Q1026 NOSIG
ZBAA,2025-03-28 14:00,ZBAA 281400Z 34006MPS CAVOK 03/M20 Q1027 NOSIG
ZBAA,2025-03-28 14:30,ZBAA 281430Z 34004MPS CAVOK 02/M21 Q1027 NOSIG
ZBAA,2025-03-28 15:00,ZBAA 281500Z 34003MPS 300V010 CAVOK 01/M21 Q1027 NOSIG
ZBAA,2025-03-28 15:30,ZBAA 281530Z 28004MPS CAVOK 03/M22 Q1027 NOSIG
ZBAA,2025-03-28 16:00,ZBAA 281600Z 30003MPS CAVOK 03/M22 Q1026 NOSIG
ZBAA,2025-03-28 16:30,ZBAA 281630Z 30004MPS CAVOK 03/M22 Q1026 NOSIG
ZBAA,2025-03-28 17:00,ZBAA 281700Z 29004MPS 260V320 CAVOK 03/M21 Q1026 NOSIG
ZBAA,2025-03-28 17:30,ZBAA 281730Z 28004MPS CAVOK 02/M21 Q1026 NOSIG
ZBAA,2025-03-28 18:00,ZBAA 281800Z 28004MPS CAVOK 02/M21 Q1026 NOSIG
ZBAA,2025-03-28 18:30,ZBAA 281830Z 28005MPS CAVOK 03/M20 Q1026 NOSIG
ZBAA,2025-03-28 19:00,ZBAA 281900Z 28004MPS CAVOK 02/M19 Q1026 NOSIG
ZBAA,2025-03-28 19:30,ZBAA 281930Z 29004MPS CAVOK 02/M19 Q1026 NOSIG
ZBAA,2025-03-28 20:00,ZBAA 282000Z 28005MPS CAVOK 02/M18 Q1026 NOSIG
ZBAA,2025-03-28 20:30,ZBAA 282030Z 28004MPS CAVOK 02/M17 Q1026 NOSIG
ZBAA,2025-03-28 21:00,ZBAA 282100Z 27003MPS CAVOK 02/M17 Q1026 NOSIG
ZBAA,2025-03-28 21:30,ZBAA 282130Z 27004MPS CAVOK 02/M17 Q1026 NOSIG
ZBAA,2025-03-28 22:00,ZBAA 282200Z 27004MPS CAVOK 02/M16 Q1026 NOSIG
ZBAA,2025-03-28 22:30,ZBAA 282230Z 28005MPS CAVOK 02/M16 Q1026 NOSIG
ZBAA,2025-03-28 23:00,ZBAA 282300Z 29005MPS 270V330 CAVOK 03/M16 Q1026 NOSIG
ZBAA,2025-03-28 23:30,ZBAA 282330Z 29007G12MPS 260V320 CAVOK 04/M17 Q1026 NOSIG
ZBAA,2025-03-29 00:00,ZBAA 290000Z 28008MPS CAVOK 04/M17 Q1026 NOSIG
ZBAA,2025-03-29 00:30,ZBAA 290030Z 29008MPS 260V320 CAVOK 05/M17 Q1026 NOSIG
ZBAA,2025-03-29 01:00,ZBAA 290100Z 30008MPS CAVOK 06/M18 Q1026 NOSIG
ZBAA,2025-03-29 01:30,ZBAA 290130Z 28010MPS 250V310 CAVOK 06/M18 Q1027 NOSIG
ZBAA,2025-03-29 02:00,ZBAA 290200Z 29009G14MPS CAVOK 07/M18 Q1026 NOSIG
ZBAA,2025-03-29 02:30,ZBAA 290230Z 29009MPS 250V310 CAVOK 08/M17 Q1026 NOSIG
ZBAA,2025-03-29 03:00,ZBAA 290300Z 30007G12MPS 270V340 CAVOK 08/M18 Q1026 NOSIG
ZBAA,2025-03-29 03:30,ZBAA 290330Z 31006MPS 270V330 CAVOK 08/M18 Q1026 NOSIG
ZBAA,2025-03-29 04:00,ZBAA 290400Z 34007MPS CAVOK 09/M18 Q1026 NOSIG
ZBAA,2025-03-29 04:30,ZBAA 290430Z 31008G14MPS 270V360 CAVOK 10/M19 Q1025 NOSIG
ZBAA,2025-03-29 05:00,ZBAA 290500Z 31008G13MPS 260V330 CAVOK 10/M18 Q1025 NOSIG
ZBAA,2025-03-29 05:30,ZBAA 290530Z 33008MPS 250V010 CAVOK 10/M18 Q1025 NOSIG
ZBAA,2025-03-29 06:00,ZBAA 290600Z 31006MPS 270V340 CAVOK 10/M20 Q1024 NOSIG
ZBAA,2025-03-29 06:30,ZBAA 290630Z 29008G15MPS 260V330 CAVOK 11/M20 Q1024 NOSIG
ZBAA,2025-03-29 07:00,ZBAA 290700Z 31010G15MPS CAVOK 11/M20 Q1023 NOSIG
ZBAA,2025-03-29 07:30,ZBAA 290730Z 33006G11MPS CAVOK 11/M21 Q1023 NOSIG
ZBAA,2025-03-29 08:00,ZBAA 290800Z 30008MPS CAVOK 11/M21 Q1023 NOSIG
ZBAA,2025-03-29 08:30,ZBAA 290830Z 29009MPS 270V330 CAVOK 11/M21 Q1023 NOSIG
ZBAA,2025-03-29 09:00,ZBAA 290900Z 30008G13MPS 260V330 CAVOK 11/M21 Q1022 BECMG TL1050 35003MPS
ZBAA,2025-03-29 09:30,ZBAA 290930Z 35009G14MPS CAVOK 11/M21 Q1023 NOSIG
ZBAA,2025-03-29 10:00,ZBAA 291000Z 32008MPS CAVOK 10/M22 Q1023 BECMG TL1150 02003MPS
ZBAA,2025-03-29 10:30,ZBAA 291030Z 33008MPS CAVOK 09/M20 Q1023 NOSIG
ZBAA,2025-03-29 11:00,ZBAA 291100Z 33004MPS 300V360 CAVOK 09/M20 Q1024 NOSIG
ZBAA,2025-03-29 11:30,ZBAA 291130Z 00000MPS CAVOK 07/M19 Q1024 NOSIG
ZBAA,2025-03-29 12:00,ZBAA 291200Z VRB01MPS CAVOK 05/M18 Q1025 NOSIG
ZBAA,2025-03-29 12:30,ZBAA 291230Z VRB01MPS CAVOK 04/M17 Q1025 NOSIG
ZBAA,2025-03-29 13:00,ZBAA 291300Z 11001MPS CAVOK 02/M17 Q1025 NOSIG
ZBAA,2025-03-29 13:30,ZBAA 291330Z 11002MPS CAVOK 03/M16 Q1026 NOSIG
ZBAA,2025-03-29 14:00,ZBAA 291400Z 09002MPS 070V130 CAVOK 01/M15 Q1026 NOSIG
ZBAA,2025-03-29 14:30,ZBAA 291430Z VRB01MPS CAVOK 04/M17 Q1026 NOSIG
ZBAA,2025-03-29 15:00,ZBAA 291500Z VRB01MPS CAVOK 01/M15 Q1026 NOSIG
ZBAA,2025-03-29 15:30,ZBAA 291530Z 14001MPS CAVOK 01/M15 Q1026 NOSIG
ZBAA,2025-03-29 16:00,ZBAA 291600Z 06002MPS CAVOK M02/M12 Q1026 NOSIG
ZBAA,2025-03-29 16:30,ZBAA 291630Z VRB01MPS CAVOK M01/M11 Q1026 NOSIG
ZBAA,2025-03-29 17:00,ZBAA 291700Z 04001MPS CAVOK M02/M11 Q1027 NOSIG
ZBAA,2025-03-29 17:30,ZBAA 291730Z VRB01MPS CAVOK M01/M12 Q1027 NOSIG
ZBAA,2025-03-29 18:00,ZBAA 291800Z VRB01MPS CAVOK M02/M12 Q1027 NOSIG
ZBAA,2025-03-29 18:30,ZBAA 291830Z VRB01MPS CAVOK M02/M12 Q1027 NOSIG
ZBAA,2025-03-29 19:00,ZBAA 291900Z 00000MPS CAVOK M02/M13 Q1027 NOSIG
ZBAA,2025-03-29 19:30,ZBAA 291930Z VRB01MPS CAVOK M03/M13 Q1028 NOSIG
ZBAA,2025-03-29 20:00,ZBAA 292000Z VRB01MPS CAVOK M04/M12 Q1028 NOSIG
ZBAA,2025-03-29 20:30,ZBAA 292030Z 02001MPS CAVOK M03/M10 Q1028 NOSIG
ZBAA,2025-03-29 21:00,ZBAA 292100Z 36002MPS CAVOK M03/M11 Q1028 NOSIG
ZBAA,2025-03-29 21:30,ZBAA 292130Z 35002MPS CAVOK M03/M11 Q1028 NOSIG
ZBAA,2025-03-29 22:00,ZBAA 292200Z 04001MPS CAVOK M04/M11 Q1028 NOSIG
ZBAA,2025-03-29 22:30,ZBAA 292230Z 00000MPS CAVOK M03/M11 Q1029 NOSIG
ZBAA,2025-03-29 23:00,ZBAA 292300Z VRB01MPS CAVOK M01/M08 Q1029 NOSIG
ZBAA,2025-03-29 23:30,ZBAA 292330Z 03002MPS CAVOK 03/M10 Q1029 NOSIG
ZBAA,2025-03-30 00:00,ZBAA 300000Z VRB01MPS CAVOK 05/M12 Q1029 NOSIG
ZBAA,2025-03-30 00:30,ZBAA 300030Z VRB01MPS CAVOK 06/M12 Q1029 NOSIG
ZBAA,2025-03-30 01:00,ZBAA 300100Z 13002MPS 080V180 CAVOK 07/M13 Q1029 NOSIG
ZBAA,2025-03-30 01:30,ZBAA 300130Z 16003MPS 110V220 CAVOK 08/M12 Q1029 NOSIG
ZBAA,2025-03-30 02:00,ZBAA 300200Z 17002MPS 060V230 CAVOK 10/M12 Q1029 NOSIG
ZBAA,2025-03-30 02:30,ZBAA 300230Z 24002MPS 140V280 CAVOK 10/M13 Q1028 NOSIG
ZBAA,2025-03-30 03:00,ZBAA 300300Z VRB01MPS CAVOK 11/M13 Q1027 NOSIG
ZBAA,2025-03-30 03:30,ZBAA 300330Z 18002MPS 120V260 CAVOK 12/M13 Q1027 NOSIG
ZBAA,2025-03-30 04:00,ZBAA 300400Z 21004G09MPS 160V260 CAVOK 13/M13 Q1026 NOSIG
ZBAA,2025-03-30 04:30,ZBAA 300430Z 24003MPS 190V350 CAVOK 14/M12 Q1025 NOSIG
ZBAA,2025-03-30 05:00,ZBAA 300500Z 22005G10MPS 180V260 CAVOK 13/M14 Q1025 NOSIG
ZBAA,2025-03-30 05:30,ZBAA 300530Z 19005MPS 160V230 CAVOK 14/M14 Q1024 NOSIG
ZBAA,2025-03-30 05:52,ZBAA 300552Z 25006MPS CAVOK 15/M14 Q1024 NOSIG
ZBAA,2025-03-30 06:00,ZBAA 300600Z 22005MPS 170V260 CAVOK 15/M14 Q1024 NOSIG
ZBAA,2025-03-30 06:30,ZBAA 300630Z 22007MPS 180V250 CAVOK 15/M14 Q1023 NOSIG
ZBAA,2025-03-30 07:00,ZBAA 300700Z 22005MPS 170V260 CAVOK 15/M14 Q1022 NOSIG
ZBAA,2025-03-30 07:30,ZBAA 300730Z 21006MPS 120V240 CAVOK 15/M14 Q1022 NOSIG
ZBAA,2025-03-30 08:00,ZBAA 300800Z 21006MPS CAVOK 15/M14 Q1022 NOSIG
ZBAA,2025-03-30 08:30,ZBAA 300830Z 19006MPS 160V230 CAVOK 15/M14 Q1021 NOSIG
ZBAA,2025-03-30 09:00,ZBAA 300900Z 20006MPS CAVOK 15/M14 Q1021 NOSIG
ZBAA,2025-03-30 09:30,ZBAA 300930Z 20005MPS CAVOK 14/M14 Q1021 NOSIG
ZBAA,2025-03-30 10:00,ZBAA 301000Z 21005MPS CAVOK 14/M13 Q1021 NOSIG
ZBAA,2025-03-30 10:30,ZBAA 301030Z 18005MPS CAVOK 12/M13 Q1020 NOSIG
ZBAA,2025-03-30 11:00,ZBAA 301100Z 19004MPS CAVOK 11/M12 Q1020 NOSIG
ZBAA,2025-03-30 11:30,ZBAA 301130Z 19004MPS CAVOK 11/M11 Q1021 NOSIG
ZBAA,2025-03-30 12:00,ZBAA 301200Z 20005MPS CAVOK 12/M12 Q1021 NOSIG
ZBAA,2025-03-30 12:30,ZBAA 301230Z 18003MPS CAVOK 09/M11 Q1021 NOSIG
ZBAA,2025-03-30 13:00,ZBAA 301300Z 19004MPS CAVOK 11/M11 Q1021 NOSIG
ZBAA,2025-03-30 13:30,ZBAA 301330Z 19004MPS CAVOK 10/M11 Q1021 NOSIG
ZBAA,2025-03-30 14:00,ZBAA 301400Z 19003MPS CAVOK 10/M11 Q1022 NOSIG
ZBAA,2025-03-30 14:30,ZBAA 301430Z 16002MPS CAVOK 07/M10 Q1022 NOSIG
ZBAA,2025-03-30 15:00,ZBAA 301500Z VRB01MPS CAVOK 05/M10 Q1022 NOSIG
ZBAA,2025-03-30 15:30,ZBAA 301530Z 10003MPS 060V130 CAVOK 08/M10 Q1022 NOSIG
ZBAA,2025-03-30 16:00,ZBAA 301600Z 09003MPS 060V130 CAVOK 07/M09 Q1022 NOSIG
ZBAA,2025-03-30 16:30,ZBAA 301630Z VRB01MPS CAVOK 06/M09 Q1021 NOSIG
ZBAA,2025-03-30 17:00,ZBAA 301700Z 12002MPS 090V160 CAVOK 06/M07 Q1021 NOSIG
ZBAA,2025-03-30 17:30,ZBAA 301730Z 11002MPS 080V140 CAVOK 05/M06 Q1021 NOSIG
ZBAA,2025-03-30 18:00,ZBAA 301800Z 08002MPS 050V110 CAVOK 05/M05 Q1021 NOSIG
ZBAA,2025-03-30 18:30,ZBAA 301830Z VRB01MPS CAVOK 04/M06 Q1020 NOSIG
ZBAA,2025-03-30 19:00,ZBAA 301900Z VRB01MPS CAVOK 04/M05 Q1020 NOSIG
ZBAA,2025-03-30 19:30,ZBAA 301930Z VRB01MPS CAVOK 03/M05 Q1020 NOSIG
ZBAA,2025-03-30 20:00,ZBAA 302000Z 01002MPS CAVOK M00/M06 Q1020 NOSIG
ZBAA,2025-03-30 20:30,ZBAA 302030Z 04002MPS CAVOK M01/M05 Q1020 NOSIG
ZBAA,2025-03-30 21:00,ZBAA 302100Z 04001MPS CAVOK M01/M05 Q1020 NOSIG
ZBAA,2025-03-30 21:30,ZBAA 302130Z 00000MPS CAVOK M01/M05 Q1020 NOSIG
ZBAA,2025-03-30 22:00,ZBAA 302200Z 02001MPS CAVOK M02/M05 Q1020 NOSIG
ZBAA,2025-03-30 22:30,ZBAA 302230Z 06001MPS CAVOK M01/M05 Q1020 NOSIG
ZBAA,2025-03-30 23:00,ZBAA 302300Z 06001MPS CAVOK 02/M02 Q1020 NOSIG
ZBAA,2025-03-30 23:30,ZBAA 302330Z VRB01MPS CAVOK 06/M03 Q1020 NOSIG
ZBAA,2025-03-31 00:00,ZBAA 310000Z 11002MPS 030V170 CAVOK 07/M03 Q1021 NOSIG
ZBAA,2025-03-31 00:30,ZBAA 310030Z 11002MPS 060V160 CAVOK 08/M04 Q1020 NOSIG
ZBAA,2025-03-31 01:00,ZBAA 310100Z VRB01MPS CAVOK 09/M03 Q1020 NOSIG
ZBAA,2025-03-31 01:30,ZBAA 310130Z VRB02MPS CAVOK 10/M04 Q1020 NOSIG
ZBAA,2025-03-31 02:00,ZBAA 310200Z VRB02MPS CAVOK 12/M04 Q1020 NOSIG
ZBAA,2025-03-31 02:30,ZBAA 310230Z 19002MPS 110V250 CAVOK 13/M04 Q1019 NOSIG
ZBAA,2025-03-31 03:00,ZBAA 310300Z 21003MPS 150V250 CAVOK 13/M05 Q1019 NOSIG
ZBAA,2025-03-31 03:30,ZBAA 310330Z 19002MPS 100V220 CAVOK 14/M05 Q1019 NOSIG
ZBAA,2025-03-31 04:00,ZBAA 310400Z 20002MPS 160V260 CAVOK 14/M05 Q1018 NOSIG
ZBAA,2025-03-31 04:30,ZBAA 310430Z VRB03MPS CAVOK 15/M06 Q1018 NOSIG
ZBAA,2025-03-31 05:00,ZBAA 310500Z 21003MPS 140V250 CAVOK 16/M06 Q1017 NOSIG
ZBAA,2025-03-31 05:30,ZBAA 310530Z 18003MPS 140V250 CAVOK 18/M05 Q1016 NOSIG
ZBAA,2025-03-31 06:00,ZBAA 310600Z 18003MPS 100V220 CAVOK 19/M07 Q1016 NOSIG
ZBAA,2025-03-31 06:30,ZBAA 310630Z 19004MPS 150V230 CAVOK 20/M08 Q1015 NOSIG
ZBAA,2025-03-31 07:00,ZBAA 310700Z 20004MPS 150V250 CAVOK 20/M10 Q1014 NOSIG
ZBAA,2025-03-31 07:30,ZBAA 310730Z 19005MPS 160V240 CAVOK 20/M11 Q1014 NOSIG
ZBAA,2025-03-31 08:00,ZBAA 310800Z 20005MPS CAVOK 20/M11 Q1014 NOSIG
ZBAA,2025-03-31 08:30,ZBAA 310830Z 21005MPS 180V250 CAVOK 21/M12 Q1013 NOSIG
ZBAA,2025-03-31 09:00,COR ZBAA 310900Z 23005MPS 180V260 CAVOK 20/M12 Q1013 BECMG TL0950 29005MPS
ZBAA,2025-03-31 09:30,ZBAA 310930Z 24005MPS CAVOK 20/M11 Q1013 NOSIG
ZBAA,2025-03-31 10:00,ZBAA 311000Z 25005MPS CAVOK 20/M12 Q1013 NOSIG
ZBAA,2025-03-31 10:30,ZBAA 311030Z 24004MPS CAVOK 19/M11 Q1013 NOSIG
ZBAA,2025-03-31 11:00,ZBAA 311100Z 24004MPS 210V270 CAVOK 18/M12 Q1014 NOSIG
ZBAA,2025-03-31 11:30,ZBAA 311130Z 22003MPS CAVOK 17/M12 Q1014 NOSIG
ZBAA,2025-03-31 12:00,ZBAA 311200Z 20004MPS 180V270 CAVOK 17/M10 Q1014 NOSIG
ZBAA,2025-03-31 12:30,ZBAA 311230Z 21005MPS CAVOK 17/M09 Q1015 NOSIG
ZBAA,2025-03-31 13:00,ZBAA 311300Z 20004MPS CAVOK 16/M08 Q1015 NOSIG
ZBAA,2025-03-31 13:30,ZBAA 311330Z 22004MPS 190V250 CAVOK 16/M07 Q1015 NOSIG
ZBAA,2025-03-31 14:00,ZBAA 311400Z 20005MPS CAVOK 15/M07 Q1014 NOSIG
ZBAA,2025-03-31 14:30,ZBAA 311430Z 22004MPS 180V250 CAVOK 15/M06 Q1015 NOSIG
ZBAA,2025-03-31 15:00,ZBAA 311500Z 20004MPS CAVOK 13/M06 Q1014 NOSIG
ZBAA,2025-03-31 15:30,ZBAA 311530Z 20004MPS CAVOK 13/M06 Q1014 NOSIG
ZBAA,2025-03-31 16:00,ZBAA 311600Z 18004MPS CAVOK 09/M06 Q1014 NOSIG
ZBAA,2025-03-31 16:30,ZBAA 311630Z 19004MPS CAVOK 11/M05 Q1014 NOSIG
ZBAA,2025-03-31 17:00,ZBAA 311700Z 20004MPS CAVOK 12/M05 Q1014 NOSIG
ZBAA,2025-03-31 17:30,ZBAA 311730Z VRB01MPS CAVOK 09/M06 Q1013 NOSIG
ZBAA,2025-03-31 18:00,ZBAA 311800Z VRB01MPS CAVOK 07/M05 Q1013 NOSIG
ZBAA,2025-03-31 18:30,ZBAA 311830Z VRB01MPS CAVOK 05/M05 Q1013 NOSIG
ZBAA,2025-03-31 19:00,ZBAA 311900Z VRB01MPS CAVOK 04/M05 Q1013 NOSIG
ZBAA,2025-03-31 19:30,ZBAA 311930Z VRB01MPS CAVOK 03/M05 Q1012 NOSIG
ZBAA,2025-03-31 20:00,ZBAA 312000Z 15002MPS CAVOK 04/M04 Q1012 NOSIG
ZBAA,2025-03-31 20:30,ZBAA 312030Z 00000MPS CAVOK 03/M04 Q1012 NOSIG
ZBAA,2025-03-31 21:00,ZBAA 312100Z 36004MPS CAVOK 03/M04 Q1012 NOSIG
ZBAA,2025-03-31 21:30,ZBAA 312130Z 35003MPS CAVOK 03/M05 Q1012 NOSIG
ZBAA,2025-03-31 22:00,ZBAA 312200Z 00000MPS CAVOK 02/M05 Q1012 NOSIG
ZBAA,2025-03-31 22:30,ZBAA 312230Z VRB01MPS CAVOK 02/M05 Q1012 NOSIG
ZBAA,2025-03-31 23:00,ZBAA 312300Z VRB01MPS CAVOK 05/M02 Q1013 NOSIG
ZBAA,2025-03-31 23:30,ZBAA 312330Z VRB01MPS CAVOK 09/M03 Q1013 NOSIG
ZBAA,2025-04-01 00:00,ZBAA 010000Z VRB01MPS CAVOK 11/M03 Q1013 BECMG TL0150 32007MPS
ZBAA,2025-04-01 00:30,ZBAA 010030Z VRB01MPS CAVOK 13/M04 Q1013 NOSIG
ZBAA,2025-04-01 01:00,ZBAA 010100Z 32002MPS 280V360 CAVOK 14/M04 Q1013 NOSIG
ZBAA,2025-04-01 01:30,ZBAA 010130Z 34002MPS 290V020 CAVOK 17/M06 Q1013 NOSIG
ZBAA,2025-04-01 02:00,ZBAA 010200Z 31003MPS 260V320 CAVOK 18/M08 Q1013 BECMG TL0340 32008MPS
ZBAA,2025-04-01 02:30,ZBAA 010230Z 30005MPS 270V340 CAVOK 19/M10 Q1013 NOSIG
ZBAA,2025-04-01 03:00,ZBAA 010300Z 32005MPS 280V350 CAVOK 21/M12 Q1013 NOSIG
ZBAA,2025-04-01 03:30,ZBAA 010330Z 27005G10MPS 240V330 CAVOK 21/M12 Q1012 NOSIG
ZBAA,2025-04-01 04:00,ZBAA 010400Z 27007G12MPS 250V310 CAVOK 21/M13 Q1012 NOSIG
ZBAA,2025-04-01 04:30,ZBAA 010430Z 29010MPS CAVOK 22/M14 Q1011 NOSIG
ZBAA,2025-04-01 05:00,ZBAA 010500Z 28009G15MPS 250V320 CAVOK 21/M13 Q1011 NOSIG
ZBAA,2025-04-01 05:13,ZBAA 010513Z 36008G13MPS 330V030 CAVOK 20/M12 Q1011 NOSIG
ZBAA,2025-04-01 05:30,ZBAA 010530Z 35006MPS 310V020 CAVOK 21/M12 Q1010 NOSIG
ZBAA,2025-04-01 06:00,ZBAA 010600Z 31009G14MPS 280V350 CAVOK 22/M13 Q1010 NOSIG
ZBAA,2025-04-01 06:30,ZBAA 010630Z 29009G15MPS 270V330 CAVOK 21/M13 Q1011 NOSIG
ZBAA,2025-04-01 07:00,ZBAA 010700Z 31011G17MPS CAVOK 21/M13 Q1011 NOSIG
ZBAA,2025-04-01 07:30,ZBAA 010730Z 31011MPS CAVOK 21/M13 Q1012 NOSIG
ZBAA,2025-04-01 08:00,ZBAA 010800Z 32009G14MPS 290V360 CAVOK 21/M11 Q1012 NOSIG
ZBAA,2025-04-01 08:30,ZBAA 010830Z 33010G15MPS CAVOK 20/M12 Q1013 NOSIG
ZBAA,2025-04-01 09:00,ZBAA 010900Z 33010MPS CAVOK 19/M11 Q1014 NOSIG
ZBAA,2025-04-01 09:30,ZBAA 010930Z 33010MPS CAVOK 18/M11 Q1014 NOSIG
ZBAA,2025-04-01 10:00,ZBAA 011000Z 34010MPS CAVOK 17/M11 Q1015 BECMG TL1150 33005MPS
ZBAA,2025-04-01 10:30,ZBAA 011030Z 35008MPS CAVOK 16/M12 Q1016 NOSIG
ZBAA,2025-04-01 11:00,ZBAA 011100Z 02004MPS CAVOK 15/M07 Q1017 NOSIG
ZBAA,2025-04-01 11:30,ZBAA 011130Z 36006MPS CAVOK 14/M10 Q1018 NOSIG
ZBAA,2025-04-01 12:00,ZBAA 011200Z 34008G13MPS CAVOK 14/M11 Q1018 NOSIG
ZBAA,2025-04-01 12:30,ZBAA 011230Z 36007MPS CAVOK 13/M12 Q1019 NOSIG
ZBAA,2025-04-01 13:00,ZBAA 011300Z 34011MPS CAVOK 14/M10 Q1020 NOSIG
ZBAA,2025-04-01 13:30,ZBAA 011330Z 33009MPS CAVOK 13/M09 Q1020 NOSIG
ZBAA,2025-04-01 14:00,ZBAA 011400Z 35008MPS 320V030 CAVOK 12/M09 Q1021 NOSIG
ZBAA,2025-04-01 14:30,ZBAA 011430Z 36004MPS CAVOK 10/M08 Q1021 NOSIG
ZBAA,2025-04-01 15:00,ZBAA 011500Z 36003MPS CAVOK 08/M08 Q1022 NOSIG
ZBAA,2025-04-01 15:30,ZBAA 011530Z 35003MPS CAVOK 08/M08 Q1022 NOSIG
ZBAA,2025-04-01 16:00,ZBAA 011600Z 36003MPS CAVOK 08/M07 Q1022 NOSIG
ZBAA,2025-04-01 16:30,ZBAA 011630Z 02002MPS 350V050 CAVOK 08/M07 Q1022 NOSIG
ZBAA,2025-04-01 17:00,ZBAA 011700Z 35003MPS CAVOK 05/M07 Q1023 NOSIG
ZBAA,2025-04-01 17:30,ZBAA 011730Z 35003MPS CAVOK 06/M07 Q1023 NOSIG
ZBAA,2025-04-01 18:00,ZBAA 011800Z 35003MPS CAVOK 06/M07 Q1023 NOSIG
ZBAA,2025-04-01 18:30,ZBAA 011830Z 36002MPS CAVOK 07/M07 Q1023 NOSIG
ZBAA,2025-04-01 19:00,ZBAA 011900Z 36004MPS CAVOK 04/M07 Q1023 NOSIG
ZBAA,2025-04-01 19:30,ZBAA 011930Z 36003MPS CAVOK 04/M06 Q1023 NOSIG
ZBAA,2025-04-01 20:00,ZBAA 012000Z 36003MPS CAVOK 04/M06 Q1023 NOSIG
ZBAA,2025-04-01 20:30,ZBAA 012030Z 36002MPS CAVOK 06/M07 Q1023 NOSIG
ZBAA,2025-04-01 21:00,ZBAA 012100Z 34002MPS CAVOK 05/M07 Q1023 NOSIG
ZBAA,2025-04-01 21:30,ZBAA 012130Z VRB01MPS CAVOK 03/M06 Q1024 NOSIG
ZBAA,2025-04-01 22:00,ZBAA 012200Z 04002MPS CAVOK 01/M06 Q1024 NOSIG
ZBAA,2025-04-01 22:30,ZBAA 012230Z VRB01MPS CAVOK 03/M05 Q1024 NOSIG
ZBAA,2025-04-01 23:00,ZBAA 012300Z 33002MPS 280V360 CAVOK 08/M05 Q1024 NOSIG
ZBAA,2025-04-01 23:30,ZBAA 012330Z 35003MPS CAVOK 10/M06 Q1025 NOSIG
ZBAA,2025-04-02 00:00,ZBAA 020000Z 34003MPS 300V010 CAVOK 12/M06 Q1025 NOSIG
ZBAA,2025-04-02 00:30,ZBAA 020030Z 33004MPS 290V030 CAVOK 14/M07 Q1025 NOSIG
ZBAA,2025-04-02 01:00,ZBAA 020100Z 32004MPS CAVOK 13/M08 Q1025 NOSIG
ZBAA,2025-04-02 01:30,ZBAA 020130Z 33004MPS 290V010 CAVOK 15/M08 Q1025 NOSIG
ZBAA,2025-04-02 02:00,ZBAA 020200Z 01005MPS 300V040 CAVOK 15/M08 Q1025 NOSIG
ZBAA,2025-04-02 02:30,ZBAA 020230Z 35005MPS 320V030 CAVOK 16/M08 Q1025 NOSIG
ZBAA,2025-04-02 03:00,ZBAA 020300Z 31005G11MPS 280V350 CAVOK 16/M08 Q1025 NOSIG
ZBAA,2025-04-02 03:30,ZBAA 020330Z 35004MPS 320V050 CAVOK 17/M09 Q1024 NOSIG
ZBAA,2025-04-02 04:00,ZBAA 020400Z VRB02MPS CAVOK 17/M09 Q1024 NOSIG
ZBAA,2025-04-02 04:30,ZBAA 020430Z 01003MPS 330V100 CAVOK 17/M09 Q1024 NOSIG
ZBAA,2025-04-02 05:00,ZBAA 020500Z VRB02MPS CAVOK 17/M10 Q1023 NOSIG
ZBAA,2025-04-02 05:30,ZBAA 020530Z VRB02G07MPS CAVOK 18/M11 Q1022 NOSIG
ZBAA,2025-04-02 06:00,ZBAA 020600Z VRB02MPS CAVOK 18/M12 Q1021 NOSIG
ZBAA,2025-04-02 06:30,ZBAA 020630Z VRB02MPS CAVOK 19/M10 Q1021 NOSIG
ZBAA,2025-04-02 07:00,ZBAA 020700Z VRB01MPS CAVOK 19/M11 Q1020 NOSIG
ZBAA,2025-04-02 07:30,ZBAA 020730Z 13003MPS 080V150 CAVOK 19/M11 Q1020 NOSIG
ZBAA,2025-04-02 08:00,ZBAA 020800Z VRB02MPS CAVOK 19/M12 Q1019 BECMG TL0950 18005MPS
ZBAA,2025-04-02 08:30,ZBAA 020830Z 12002MPS 070V230 CAVOK 19/M12 Q1019 NOSIG
ZBAA,2025-04-02 09:00,ZBAA 020900Z 13003MPS 040V160 CAVOK 19/M11 Q1019 BECMG TL1040 19005MPS
ZBAA,2025-04-02 09:30,ZBAA 020930Z 12003MPS 060V180 CAVOK 18/M12 Q1019 NOSIG
ZBAA,2025-04-02 10:00,ZBAA 021000Z 15002MPS 120V190 CAVOK 17/M12 Q1019 NOSIG
ZBAA,2025-04-02 10:30,ZBAA 021030Z 16003MPS 140V200 CAVOK 16/M12 Q1019 NOSIG
ZBAA,2025-04-02 11:00,ZBAA 021100Z 16002MPS CAVOK 15/M11 Q1019 NOSIG
ZBAA,2025-04-02 11:30,ZBAA 021130Z 19003MPS CAVOK 14/M12 Q1020 NOSIG
ZBAA,2025-04-02 12:00,ZBAA 021200Z 19003MPS CAVOK 14/M11 Q1020 NOSIG
ZBAA,2025-04-02 12:30,ZBAA 021230Z 21004MPS CAVOK 15/M10 Q1021 NOSIG
ZBAA,2025-04-02 13:00,ZBAA 021300Z 21004MPS CAVOK 14/M10 Q1021 NOSIG
ZBAA,2025-04-02 13:30,ZBAA 021330Z 17003MPS 150V210 CAVOK 12/M09 Q1021 NOSIG
ZBAA,2025-04-02 14:00,ZBAA 021400Z 21003MPS CAVOK 13/M09 Q1021 NOSIG
ZBAA,2025-04-02 14:30,ZBAA 021430Z 18003MPS CAVOK 11/M08 Q1021 NOSIG
ZBAA,2025-04-02 15:00,ZBAA 021500Z 18003MPS CAVOK 11/M08 Q1021 NOSIG
ZBAA,2025-04-02 15:30,ZBAA 021530Z 17003MPS CAVOK 10/M08 Q1021 NOSIG
ZBAA,2025-04-02 16:00,ZBAA 021600Z 16002MPS CAVOK 07/M08 Q1021 NOSIG
ZBAA,2025-04-02 16:30,ZBAA 021630Z 14002MPS CAVOK 06/M07 Q1021 NOSIG
ZBAA,2025-04-02 17:00,ZBAA 021700Z 16002MPS CAVOK 07/M07 Q1021 NOSIG
ZBAA,2025-04-02 17:30,ZBAA 021730Z 15002MPS CAVOK 09/M07 Q1020 NOSIG
ZBAA,2025-04-02 18:00,ZBAA 021800Z 14002MPS CAVOK 08/M07 Q1020 NOSIG
ZBAA,2025-04-02 18:30,ZBAA 021830Z VRB01MPS CAVOK 07/M07 Q1020 NOSIG
ZBAA,2025-04-02 19:00,ZBAA 021900Z VRB01MPS CAVOK 04/M06 Q1020 NOSIG
ZBAA,2025-04-02 19:30,ZBAA 021930Z 12001MPS CAVOK 05/M06 Q1020 NOSIG
ZBAA,2025-04-02 20:00,ZBAA 022000Z 06001MPS CAVOK 03/M06 Q1020 NOSIG
ZBAA,2025-04-02 20:30,ZBAA 022030Z 05001MPS CAVOK 04/M05 Q1020 NOSIG
ZBAA,2025-04-02 21:00,ZBAA 022100Z VRB01MPS CAVOK 03/M06 Q1020 NOSIG
ZBAA,2025-04-02 21:30,ZBAA 022130Z VRB01MPS CAVOK 03/M05 Q1020 NOSIG
ZBAA,2025-04-02 22:00,ZBAA 022200Z VRB01MPS CAVOK 03/M05 Q1020 NOSIG
ZBAA,2025-04-02 22:30,ZBAA 022230Z 09001MPS CAVOK 03/M05 Q1020 NOSIG
ZBAA,2025-04-02 23:00,ZBAA 022300Z 09002MPS CAVOK 05/M04 Q1020 NOSIG
ZBAA,2025-04-02 23:30,ZBAA 022330Z VRB01MPS CAVOK 09/M04 Q1020 NOSIG
ZBAA,2025-04-03 00:00,ZBAA 030000Z 12002MPS 090V160 CAVOK 10/M05 Q1020 NOSIG
ZBAA,2025-04-03 00:30,ZBAA 030030Z 13002MPS 090V170 CAVOK 12/M04 Q1020 NOSIG
ZBAA,2025-04-03 01:00,ZBAA 030100Z 14002MPS 100V190 CAVOK 13/M04 Q1020 BECMG TL0250 20005MPS
ZBAA,2025-04-03 01:30,ZBAA 030130Z 17003MPS 120V210 CAVOK 15/M04 Q1020 NOSIG
ZBAA,2025-04-03 02:00,ZBAA 030200Z 18005MPS 150V220 CAVOK 16/M05 Q1020 NOSIG
ZBAA,2025-04-03 02:30,ZBAA 030230Z 18005MPS 160V230 CAVOK 18/M05 Q1019 NOSIG
ZBAA,2025-04-03 03:00,ZBAA 030300Z 16006MPS 140V200 CAVOK 18/M04 Q1019 NOSIG
ZBAA,2025-04-03 03:30,ZBAA 030330Z 19005MPS 170V230 CAVOK 18/M05 Q1018 NOSIG
ZBAA,2025-04-03 04:00,ZBAA 030400Z 20006MPS CAVOK 19/M05 Q1018 NOSIG
ZBAA,2025-04-03 04:30,ZBAA 030430Z 18007MPS 160V230 CAVOK 20/M05 Q1017 NOSIG
ZBAA,2025-04-03 05:00,ZBAA 030500Z 17006MPS 140V200 CAVOK 19/M05 Q1017 NOSIG
ZBAA,2025-04-03 05:30,ZBAA 030530Z 18006MPS CAVOK 19/M07 Q1016 NOSIG
ZBAA,2025-04-03 06:00,ZBAA 030600Z 18006MPS 140V260 CAVOK 19/M06 Q1016 NOSIG
ZBAA,2025-04-03 06:30,ZBAA 030630Z 21006MPS CAVOK 19/M07 Q1015 NOSIG
ZBAA,2025-04-03 07:00,ZBAA 030700Z 18007MPS 150V220 CAVOK 19/M05 Q1014 NOSIG
ZBAA,2025-04-03 07:30,ZBAA 030730Z 20006MPS 160V220 CAVOK 20/M06 Q1014 NOSIG
ZBAA,2025-04-03 08:00,ZBAA 030800Z 20005MPS CAVOK 20/M05 Q1014 NOSIG
ZBAA,2025-04-03 08:30,ZBAA 030830Z 21006MPS 170V240 CAVOK 19/M05 Q1013 NOSIG
ZBAA,2025-04-03 09:00,ZBAA 030900Z 21006MPS 170V230 CAVOK 19/M04 Q1013 NOSIG
ZBAA,2025-04-03 09:30,ZBAA 030930Z 21005MPS CAVOK 18/M04 Q1013 NOSIG
ZBAA,2025-04-03 10:00,ZBAA 031000Z 19006MPS 160V220 CAVOK 18/M03 Q1013 NOSIG
ZBAA,2025-04-03 10:30,ZBAA 031030Z 21005MPS CAVOK 18/M03 Q1013 NOSIG
ZBAA,2025-04-03 11:00,ZBAA 031100Z 21004MPS CAVOK 17/M02 Q1014 NOSIG
ZBAA,2025-04-03 11:30,ZBAA 031130Z 20003MPS CAVOK 15/M02 Q1014 NOSIG
ZBAA,2025-04-03 12:00,ZBAA 031200Z 17003MPS CAVOK 14/M02 Q1014 NOSIG
ZBAA,2025-04-03 12:30,ZBAA 031230Z 16002MPS CAVOK 14/M01 Q1014 NOSIG
ZBAA,2025-04-03 13:00,ZBAA 031300Z VRB01MPS CAVOK 13/M01 Q1014 NOSIG
ZBAA,2025-04-03 13:30,ZBAA 031330Z 17001MPS CAVOK 11/M02 Q1014 NOSIG
ZBAA,2025-04-03 14:00,ZBAA 031400Z 10001MPS CAVOK 09/M01 Q1014 NOSIG
ZBAA,2025-04-03 14:30,ZBAA 031430Z 10002MPS CAVOK 13/M01 Q1014 NOSIG
ZBAA,2025-04-03 15:00,ZBAA 031500Z 10002MPS 070V130 CAVOK 12/M00 Q1014 NOSIG
ZBAA,2025-04-03 15:30,ZBAA 031530Z VRB01MPS CAVOK 11/00 Q1015 NOSIG
ZBAA,2025-04-03 16:00,ZBAA 031600Z 10002MPS CAVOK 11/01 Q1014 NOSIG
ZBAA,2025-04-03 16:30,ZBAA 031630Z 11002MPS 070V140 CAVOK 11/01 Q1014 NOSIG
ZBAA,2025-04-03 17:00,ZBAA 031700Z 10002MPS CAVOK 11/01 Q1014 NOSIG
ZBAA,2025-04-03 17:30,ZBAA 031730Z 10002MPS 070V130 CAVOK 11/01 Q1014 NOSIG
ZBAA,2025-04-03 18:00,ZBAA 031800Z VRB01MPS CAVOK 10/00 Q1013 NOSIG
ZBAA,2025-04-03 18:30,ZBAA 031830Z 35001MPS CAVOK 08/00 Q1013 NOSIG
ZBAA,2025-04-03 19:00,ZBAA 031900Z 03001MPS CAVOK 06/00 Q1013 NOSIG
ZBAA,2025-04-03 19:30,ZBAA 031930Z 36002MPS CAVOK 06/01 Q1013 NOSIG
ZBAA,2025-04-03 20:00,ZBAA 032000Z 02001MPS CAVOK 06/01 Q1012 NOSIG
ZBAA,2025-04-03 20:30,ZBAA 032030Z 10002MPS 040V130 CAVOK 06/01 Q1012 NOSIG
ZBAA,2025-04-03 21:00,ZBAA 032100Z 36002MPS CAVOK 07/01 Q1012 NOSIG
ZBAA,2025-04-03 21:30,ZBAA 032130Z 13001MPS CAVOK 05/01 Q1012 NOSIG
ZBAA,2025-04-03 22:00,ZBAA 032200Z 13001MPS CAVOK 05/00 Q1012 NOSIG
ZBAA,2025-04-03 22:30,ZBAA 032230Z 07001MPS CAVOK 06/02 Q1012 NOSIG
ZBAA,2025-04-03 23:00,ZBAA 032300Z 35001MPS CAVOK 08/02 Q1012 NOSIG
ZBAA,2025-04-03 23:30,ZBAA 032330Z VRB01MPS CAVOK 11/02 Q1012 NOSIG
ZBAA,2025-04-04 00:00,ZBAA 040000Z 07002MPS 030V130 CAVOK 12/01 Q1012 NOSIG
ZBAA,2025-04-04 00:30,ZBAA 040030Z 12002MPS 090V160 CAVOK 12/01 Q1012 NOSIG
ZBAA,2025-04-04 01:00,ZBAA 040100Z 14002MPS 070V170 CAVOK 13/01 Q1012 NOSIG
ZBAA,2025-04-04 01:30,ZBAA 040130Z VRB01MPS CAVOK 15/02 Q1012 NOSIG
ZBAA,2025-04-04 02:00,ZBAA 040200Z 15002MPS 120V190 8000 NSC 16/02 Q1011 NOSIG
ZBAA,2025-04-04 02:30,ZBAA 040230Z VRB02MPS 8000 NSC 17/02 Q1011 NOSIG
ZBAA,2025-04-04 03:00,ZBAA 040300Z 29002MPS 190V360 8000 NSC 17/01 Q1011 BECMG TL0420 29008MPS
ZBAA,2025-04-04 03:30,ZBAA 040330Z VRB02MPS 8000 NSC 19/01 Q1010 NOSIG
ZBAA,2025-04-04 04:00,ZBAA 040400Z VRB02MPS 8000 NSC 20/00 Q1010 BECMG TL0440 28008MPS
ZBAA,2025-04-04 04:30,ZBAA 040430Z 27004G12MPS 160V330 8000 NSC 22/M06 Q1009 NOSIG
ZBAA,2025-04-04 04:36,ZBAA 040436Z 28010G17MPS 220V340 CAVOK 23/M11 Q1009 NOSIG
ZBAA,2025-04-04 05:00,ZBAA 040500Z 30013G18MPS CAVOK 23/M13 Q1009 NOSIG
ZBAA,2025-04-04 05:30,ZBAA 040530Z 30012G18MPS CAVOK 23/M14 Q1009 NOSIG
ZBAA,2025-04-04 06:00,ZBAA 040600Z 31014MPS CAVOK 23/M21 Q1009 NOSIG
ZBAA,2025-04-04 06:30,ZBAA 040630Z 30013G19MPS 270V330 CAVOK 23/M17 Q1009 NOSIG
ZBAA,2025-04-04 07:00,ZBAA 040700Z 30013G19MPS CAVOK 22/M17 Q1009 NOSIG
ZBAA,2025-04-04 07:30,ZBAA 040730Z 30012G17MPS CAVOK 22/M18 Q1009 NOSIG
ZBAA,2025-04-04 08:00,ZBAA 040800Z 29013MPS CAVOK 21/M18 Q1009 NOSIG
ZBAA,2025-04-04 08:30,ZBAA 040830Z 29011G16MPS CAVOK 21/M16 Q1009 NOSIG
ZBAA,2025-04-04 09:00,ZBAA 040900Z 31011MPS CAVOK 21/M16 Q1010 NOSIG
ZBAA,2025-04-04 09:30,ZBAA 040930Z 31011MPS CAVOK 20/M17 Q1010 NOSIG
ZBAA,2025-04-04 10:00,ZBAA 041000Z 30008MPS 270V340 CAVOK 20/M16 Q1011 NOSIG
ZBAA,2025-04-04 10:30,ZBAA 041030Z 33009MPS CAVOK 18/M10 Q1011 NOSIG
ZBAA,2025-04-04 11:00,ZBAA 041100Z 34009MPS CAVOK 17/M10 Q1012 NOSIG
ZBAA,2025-04-04 11:30,ZBAA 041130Z 34008MPS CAVOK 16/M09 Q1013 NOSIG
ZBAA,2025-04-04 12:00,ZBAA 041200Z 36008MPS CAVOK 15/M08 Q1013 NOSIG
ZBAA,2025-04-04 12:30,ZBAA 041230Z 34009MPS CAVOK 15/M08 Q1014 NOSIG
ZBAA,2025-04-04 13:00,ZBAA 041300Z 35009MPS CAVOK 14/M08 Q1014 NOSIG
ZBAA,2025-04-04 13:30,ZBAA 041330Z 34010MPS CAVOK 14/M07 Q1014 NOSIG
ZBAA,2025-04-04 14:00,ZBAA 041400Z 33009MPS CAVOK 13/M07 Q1015 NOSIG
ZBAA,2025-04-04 14:30,ZBAA 041430Z 32008MPS CAVOK 13/M07 Q1015 NOSIG
ZBAA,2025-04-04 15:00,ZBAA 041500Z 32008MPS CAVOK 12/M07 Q1015 NOSIG
ZBAA,2025-04-04 15:30,ZBAA 041530Z 34008MPS CAVOK 12/M06 Q1016 NOSIG
ZBAA,2025-04-04 16:00,ZBAA 041600Z 33007MPS CAVOK 12/M06 Q1016 NOSIG
ZBAA,2025-04-04 16:30,ZBAA 041630Z 01007MPS CAVOK 11/M07 Q1017 NOSIG
ZBAA,2025-04-04 17:00,ZBAA 041700Z 33008MPS CAVOK 11/M08 Q1017 NOSIG
ZBAA,2025-04-04 17:30,ZBAA 041730Z 33007MPS CAVOK 11/M08 Q1017 NOSIG
ZBAA,2025-04-04 18:00,ZBAA 041800Z 32008MPS CAVOK 11/M09 Q1017 NOSIG
ZBAA,2025-04-04 18:30,ZBAA 041830Z 31006MPS CAVOK 11/M09 Q1016 NOSIG
ZBAA,2025-04-04 19:00,ZBAA 041900Z 31006MPS CAVOK 11/M09 Q1016 NOSIG
ZBAA,2025-04-04 19:30,ZBAA 041930Z 31005MPS CAVOK 10/M10 Q1016 NOSIG
ZBAA,2025-04-04 20:00,ZBAA 042000Z 31006MPS CAVOK 10/M11 Q1016 NOSIG
ZBAA,2025-04-04 20:30,ZBAA 042030Z 32006MPS CAVOK 10/M11 Q1016 NOSIG
ZBAA,2025-04-04 21:00,ZBAA 042100Z 31004MPS CAVOK 09/M11 Q1016 NOSIG
ZBAA,2025-04-04 21:30,ZBAA 042130Z 31006MPS CAVOK 10/M11 Q1016 NOSIG
ZBAA,2025-04-04 22:00,ZBAA 042200Z 30006MPS CAVOK 09/M11 Q1016 NOSIG
ZBAA,2025-04-04 22:30,ZBAA 042230Z 31006MPS CAVOK 10/M12 Q1016 NOSIG
ZBAA,2025-04-04 23:00,ZBAA 042300Z 32007MPS CAVOK 11/M13 Q1016 NOSIG
ZBAA,2025-04-04 23:30,ZBAA 042330Z 32008MPS CAVOK 12/M14 Q1016 NOSIG
ZBAA,2025-04-05 00:00,ZBAA 050000Z 31008MPS CAVOK 13/M15 Q1016 NOSIG
ZBAA,2025-04-05 00:30,ZBAA 050030Z 29006MPS 260V320 CAVOK 14/M15 Q1016 NOSIG
ZBAA,2025-04-05 01:00,ZBAA 050100Z 28007MPS 250V320 CAVOK 15/M14 Q1016 NOSIG
ZBAA,2025-04-05 01:30,ZBAA 050130Z 29008MPS CAVOK 15/M16 Q1016 NOSIG
ZBAA,2025-04-05 02:00,ZBAA 050200Z 28005MPS 240V310 CAVOK 16/M17 Q1016 NOSIG
ZBAA,2025-04-05 02:30,ZBAA 050230Z 29006MPS 250V320 CAVOK 18/M16 Q1016 NOSIG
ZBAA,2025-04-05 03:00,ZBAA 050300Z 28007G12MPS 250V310 CAVOK 18/M19 Q1015 NOSIG
ZBAA,2025-04-05 03:30,ZBAA 050330Z 28006MPS 220V320 CAVOK 18/M18 Q1014 NOSIG
ZBAA,2025-04-05 04:00,ZBAA 050400Z 28005G11MPS 240V310 CAVOK 19/M17 Q1014 NOSIG
ZBAA,2025-04-05 04:30,ZBAA 050430Z 26006MPS 230V300 CAVOK 20/M19 Q1013 NOSIG
ZBAA,2025-04-05 05:00,ZBAA 050500Z 28005G10MPS 240V330 CAVOK 21/M18 Q1012 NOSIG
ZBAA,2025-04-05 05:30,ZBAA 050530Z 28006G11MPS 260V330 CAVOK 22/M18 Q1012 NOSIG
ZBAA,2025-04-05 06:00,ZBAA 050600Z 24005MPS 200V290 CAVOK 22/M17 Q1011 NOSIG
ZBAA,2025-04-05 06:30,ZBAA 050630Z 25007G12MPS CAVOK 22/M17 Q1011 NOSIG
ZBAA,2025-04-05 07:00,ZBAA 050700Z 28007MPS CAVOK 23/M19 Q1010 NOSIG
ZBAA,2025-04-05 07:30,ZBAA 050730Z 28008G13MPS 240V300 CAVOK 23/M19 Q1010 NOSIG
ZBAA,2025-04-05 08:00,ZBAA 050800Z 28008MPS CAVOK 22/M19 Q1009 NOSIG
ZBAA,2025-04-05 08:30,ZBAA 050830Z 26007MPS CAVOK 22/M19 Q1009 NOSIG
ZBAA,2025-04-05 09:00,ZBAA 050900Z 26006MPS 230V290 CAVOK 22/M19 Q1009 NOSIG
ZBAA,2025-04-05 09:30,ZBAA 050930Z 28004MPS 250V310 CAVOK 22/M17 Q1008 NOSIG
ZBAA,2025-04-05 09:44,ZBAA 050944Z 22006MPS 180V260 CAVOK 21/M15 Q1008 NOSIG
ZBAA,2025-04-05 10:00,ZBAA 051000Z 22007MPS CAVOK 20/M14 Q1009 NOSIG
ZBAA,2025-04-05 10:30,ZBAA 051030Z 22007MPS CAVOK 19/M12 Q1009 NOSIG
ZBAA,2025-04-05 11:00,ZBAA 051100Z 21006MPS CAVOK 18/M12 Q1009 NOSIG
ZBAA,2025-04-05 11:30,ZBAA 051130Z 20005MPS CAVOK 18/M12 Q1009 NOSIG
ZBAA,2025-04-05 12:00,ZBAA 051200Z 21005MPS CAVOK 17/M12 Q1009 NOSIG
ZBAA,2025-04-05 12:30,ZBAA 051230Z 20004MPS CAVOK 16/M12 Q1010 NOSIG
ZBAA,2025-04-05 13:00,ZBAA 051300Z 20004MPS CAVOK 16/M11 Q1010 NOSIG
ZBAA,2025-04-05 13:30,ZBAA 051330Z 21006MPS CAVOK 17/M11 Q1010 NOSIG
ZBAA,2025-04-05 14:00,ZBAA 051400Z 20004MPS 160V230 CAVOK 16/M11 Q1010 NOSIG
ZBAA,2025-04-05 14:30,ZBAA 051430Z 07003MPS 030V120 CAVOK 15/M10 Q1010 NOSIG
ZBAA,2025-04-05 15:00,ZBAA 051500Z 18002MPS 120V240 CAVOK 13/M10 Q1010 NOSIG
ZBAA,2025-04-05 15:30,ZBAA 051530Z VRB01MPS CAVOK 11/M09 Q1010 NOSIG
ZBAA,2025-04-05 16:00,ZBAA 051600Z VRB02MPS CAVOK 10/M08 Q1010 NOSIG
ZBAA,2025-04-05 16:30,ZBAA 051630Z VRB01MPS CAVOK 09/M08 Q1010 NOSIG
ZBAA,2025-04-05 17:00,ZBAA 051700Z 07001MPS CAVOK 09/M08 Q1010 NOSIG
ZBAA,2025-04-05 17:30,ZBAA 051730Z 08002MPS CAVOK 06/M07 Q1010 NOSIG
ZBAA,2025-04-05 18:00,ZBAA 051800Z VRB01MPS CAVOK 08/M07 Q1010 NOSIG
ZBAA,2025-04-05 18:30,ZBAA 051830Z 09002MPS 070V130 CAVOK 07/M07 Q1010 NOSIG
ZBAA,2025-04-05 19:00,ZBAA 051900Z 04002MPS 010V070 CAVOK 06/M07 Q1010 NOSIG
ZBAA,2025-04-05 19:30,ZBAA 051930Z 01001MPS CAVOK 04/M06 Q1010 NOSIG
ZBAA,2025-04-05 20:00,ZBAA 052000Z VRB01MPS CAVOK 04/M07 Q1010 NOSIG
ZBAA,2025-04-05 20:30,ZBAA 052030Z 06001MPS CAVOK 04/M06 Q1010 NOSIG
ZBAA,2025-04-05 21:00,ZBAA 052100Z 03001MPS CAVOK 03/M06 Q1010 NOSIG
ZBAA,2025-04-05 21:30,ZBAA 052130Z VRB01MPS CAVOK 03/M06 Q1011 NOSIG
ZBAA,2025-04-05 22:00,ZBAA 052200Z 06001MPS CAVOK 03/M06 Q1011 NOSIG
ZBAA,2025-04-05 22:30,ZBAA 052230Z 36002MPS CAVOK 03/M05 Q1011 NOSIG
ZBAA,2025-04-05 23:00,ZBAA 052300Z 36002MPS CAVOK 07/M04 Q1012 NOSIG
ZBAA,2025-04-05 23:30,ZBAA 052330Z VRB01MPS CAVOK 12/M05 Q1012 NOSIG
ZBAA,2025-04-06 00:00,ZBAA 060000Z 08002MPS 020V130 CAVOK 13/M07 Q1012 NOSIG
ZBAA,2025-04-06 00:30,ZBAA 060030Z 08002MPS 040V120 CAVOK 14/M06 Q1012 NOSIG
ZBAA,2025-04-06 01:00,ZBAA 060100Z VRB02MPS CAVOK 15/M06 Q1013 NOSIG
ZBAA,2025-04-06 01:30,ZBAA 060130Z 07003MPS 030V130 CAVOK 16/M06 Q1012 NOSIG
ZBAA,2025-04-06 02:00,ZBAA 060200Z 08002MPS 010V160 CAVOK 17/M05 Q1013 NOSIG
ZBAA,2025-04-06 02:30,ZBAA 060230Z 09003MPS 050V140 CAVOK 18/M05 Q1012 NOSIG
ZBAA,2025-04-06 03:00,ZBAA 060300Z 10002MPS 030V180 CAVOK 19/M05 Q1012 NOSIG
ZBAA,2025-04-06 03:30,ZBAA 060330Z VRB02MPS CAVOK 19/M06 Q1011 NOSIG
ZBAA,2025-04-06 04:00,ZBAA 060400Z VRB02MPS CAVOK 21/M05 Q1011 NOSIG
ZBAA,2025-04-06 04:30,ZBAA 060430Z 13004MPS 070V180 CAVOK 20/M05 Q1011 NOSIG
ZBAA,2025-04-06 05:00,ZBAA 060500Z VRB03MPS CAVOK 21/M05 Q1011 NOSIG
ZBAA,2025-04-06 05:30,ZBAA 060530Z 13003MPS 060V200 CAVOK 23/M04 Q1010 NOSIG
ZBAA,2025-04-06 06:00,ZBAA 060600Z 16003MPS 080V220 CAVOK 22/M05 Q1010 NOSIG
ZBAA,2025-04-06 06:30,ZBAA 060630Z 14004MPS 080V210 CAVOK 22/M05 Q1009 NOSIG
ZBAA,2025-04-06 07:00,ZBAA 060700Z 12004MPS 080V180 CAVOK 23/M03 Q1009 NOSIG
ZBAA,2025-04-06 07:30,ZBAA 060730Z 15004MPS CAVOK 23/M04 Q1009 NOSIG
ZBAA,2025-04-06 08:00,ZBAA 060800Z 13004MPS 090V170 CAVOK 22/M04 Q1009 NOSIG
ZBAA,2025-04-06 08:30,ZBAA 060830Z 13003MPS 090V180 CAVOK 22/M04 Q1009 NOSIG
ZBAA,2025-04-06 09:00,ZBAA 060900Z 16004MPS 130V190 CAVOK 22/M03 Q1009 NOSIG
ZBAA,2025-04-06 09:30,ZBAA 060930Z 16004MPS 120V180 CAVOK 22/M04 Q1009 NOSIG
ZBAA,2025-04-06 10:00,ZBAA 061000Z 16004MPS CAVOK 21/M02 Q1009 NOSIG
ZBAA,2025-04-06 10:30,ZBAA 061030Z 15003MPS CAVOK 20/M01 Q1009 NOSIG
ZBAA,2025-04-06 11:00,ZBAA 061100Z 15003MPS 110V170 CAVOK 19/M00 Q1009 NOSIG
ZBAA,2025-04-06 11:30,ZBAA 061130Z 14003MPS 100V160 CAVOK 18/M01 Q1010 NOSIG
ZBAA,2025-04-06 12:00,ZBAA 061200Z 13002MPS CAVOK 17/M01 Q1010 NOSIG
ZBAA,2025-04-06 12:30,ZBAA 061230Z 13002MPS CAVOK 17/M00 Q1011 NOSIG
ZBAA,2025-04-06 13:00,ZBAA 061300Z 09002MPS 070V140 CAVOK 15/M00 Q1011 NOSIG
ZBAA,2025-04-06 13:30,ZBAA 061330Z 14004MPS CAVOK 16/M01 Q1011 NOSIG
ZBAA,2025-04-06 14:00,ZBAA 061400Z 14004MPS CAVOK 16/M01 Q1011 NOSIG
ZBAA,2025-04-06 14:30,ZBAA 061430Z 14003MPS CAVOK 15/M01 Q1011 NOSIG
ZBAA,2025-04-06 15:00,ZBAA 061500Z 14002MPS 100V180 CAVOK 14/M02 Q1011 NOSIG
ZBAA,2025-04-06 15:30,ZBAA 061530Z 12002MPS 080V150 CAVOK 13/M03 Q1011 NOSIG
ZBAA,2025-04-06 16:00,ZBAA 061600Z 12002MPS 060V170 CAVOK 13/M04 Q1011 NOSIG
ZBAA,2025-04-06 16:30,ZBAA 061630Z 13002MPS 090V160 CAVOK 13/M04 Q1011 NOSIG
ZBAA,2025-04-06 17:00,ZBAA 061700Z 11002MPS 060V140 CAVOK 13/M04 Q1011 NOSIG
ZBAA,2025-04-06 17:30,ZBAA 061730Z VRB01MPS CAVOK 09/M03 Q1011 NOSIG
ZBAA,2025-04-06 18:00,ZBAA 061800Z 00000MPS CAVOK 08/M03 Q1010 NOSIG
ZBAA,2025-04-06 18:30,ZBAA 061830Z VRB01MPS CAVOK 07/M03 Q1010 NOSIG
ZBAA,2025-04-06 19:00,ZBAA 061900Z 00000MPS CAVOK 07/M03 Q1010 NOSIG
ZBAA,2025-04-06 19:30,ZBAA 061930Z VRB01MPS CAVOK 05/M02 Q1010 NOSIG
ZBAA,2025-04-06 20:00,ZBAA 062000Z VRB01MPS CAVOK 06/M01 Q1009 NOSIG
ZBAA,2025-04-06 20:30,ZBAA 062030Z 33001MPS CAVOK 06/M02 Q1009 NOSIG
ZBAA,2025-04-06 21:00,ZBAA 062100Z 35002MPS CAVOK 06/M01 Q1009 NOSIG
ZBAA,2025-04-06 21:30,ZBAA 062130Z 34002MPS CAVOK 05/M02 Q1009 NOSIG
ZBAA,2025-04-06 22:00,ZBAA 062200Z 34002MPS CAVOK 05/M02 Q1010 NOSIG
ZBAA,2025-04-06 22:30,ZBAA 062230Z 36003MPS CAVOK 08/M01 Q1010 NOSIG
ZBAA,2025-04-06 23:00,ZBAA 062300Z 35002MPS 330V030 CAVOK 10/M01 Q1010 NOSIG
ZBAA,2025-04-06 23:30,ZBAA 062330Z 36002MPS CAVOK 12/M01 Q1010 NOSIG
ZBAA,2025-04-07 00:00,ZBAA 070000Z 35003MPS 320V030 CAVOK 14/M02 Q1010 NOSIG
ZBAA,2025-04-07 00:30,ZBAA 070030Z 35003MPS CAVOK 15/M02 Q1011 NOSIG
ZBAA,2025-04-07 01:00,ZBAA 070100Z 33004MPS CAVOK 17/M02 Q1011 NOSIG
ZBAA,2025-04-07 01:30,ZBAA 070130Z 34003MPS CAVOK 19/M02 Q1011 NOSIG
ZBAA,2025-04-07 02:00,ZBAA 070200Z 01003MPS 320V040 CAVOK 19/M02 Q1011 NOSIG
ZBAA,2025-04-07 02:30,ZBAA 070230Z 35004MPS 330V030 CAVOK 21/M01 Q1011 NOSIG
ZBAA,2025-04-07 03:00,ZBAA 070300Z 35004MPS 320V020 CAVOK 22/M01 Q1011 BECMG TL0440 35009MPS
ZBAA,2025-04-07 03:30,ZBAA 070330Z 35004MPS 320V020 CAVOK 22/M02 Q1011 NOSIG
ZBAA,2025-04-07 04:00,ZBAA 070400Z 35004MPS 310V020 CAVOK 24/M02 Q1011 BECMG TL0540 35009MPS
ZBAA,2025-04-07 04:30,ZBAA 070430Z 01003MPS 340V040 CAVOK 24/M02 Q1011 NOSIG
ZBAA,2025-04-07 05:00,ZBAA 070500Z 01003MPS 270V070 CAVOK 24/M03 Q1011 NOSIG
ZBAA,2025-04-07 05:30,ZBAA 070530Z 36003MPS 310V050 CAVOK 24/M03 Q1011 NOSIG
ZBAA,2025-04-07 06:00,ZBAA 070600Z 34003MPS 300V010 CAVOK 25/M04 Q1010 NOSIG
ZBAA,2025-04-07 06:30,ZBAA 070630Z 05002MPS 320V110 CAVOK 24/M04 Q1010 NOSIG
ZBAA,2025-04-07 07:00,ZBAA 070700Z 04003MPS 330V090 CAVOK 25/M05 Q1010 NOSIG
ZBAA,2025-04-07 07:30,ZBAA 070730Z 04003MPS 320V090 CAVOK 25/M06 Q1010 NOSIG
ZBAA,2025-04-07 08:00,ZBAA 070800Z 35003MPS 240V040 CAVOK 26/M08 Q1010 NOSIG
ZBAA,2025-04-07 08:30,ZBAA 070830Z 33006MPS CAVOK 27/M12 Q1010 NOSIG
ZBAA,2025-04-07 09:00,ZBAA 070900Z 01004MPS 340V060 CAVOK 26/M12 Q1010 NOSIG
ZBAA,2025-04-07 09:30,ZBAA 070930Z 02004MPS 340V070 CAVOK 25/M11 Q1011 NOSIG
ZBAA,2025-04-07 10:00,ZBAA 071000Z 03003MPS 350V080 CAVOK 24/M12 Q1011 NOSIG
ZBAA,2025-04-07 10:30,ZBAA 071030Z 03004MPS 360V070 CAVOK 23/M13 Q1012 NOSIG
ZBAA,2025-04-07 11:00,ZBAA 071100Z 04003MPS 010V070 CAVOK 22/M11 Q1013 NOSIG
ZBAA,2025-04-07 11:30,ZBAA 071130Z 02003MPS CAVOK 20/M11 Q1013 NOSIG
ZBAA,2025-04-07 12:00,ZBAA 071200Z 03003MPS CAVOK 20/M14 Q1014 NOSIG
ZBAA,2025-04-07 12:30,ZBAA 071230Z 02003MPS CAVOK 19/M12 Q1015 NOSIG
ZBAA,2025-04-07 13:00,ZBAA 071300Z 01003MPS CAVOK 17/M12 Q1016 NOSIG
ZBAA,2025-04-07 13:30,ZBAA 071330Z 01003MPS CAVOK 15/M12 Q1016 NOSIG
ZBAA,2025-04-07 14:00,ZBAA 071400Z 01003MPS CAVOK 15/M11 Q1017 NOSIG
ZBAA,2025-04-07 14:30,ZBAA 071430Z 01004MPS CAVOK 16/M12 Q1017 NOSIG
ZBAA,2025-04-07 15:00,ZBAA 071500Z 02005MPS CAVOK 17/M12 Q1017 NOSIG
ZBAA,2025-04-07 15:30,ZBAA 071530Z 02004MPS 360V070 CAVOK 18/M13 Q1018 NOSIG
ZBAA,2025-04-07 16:00,ZBAA 071600Z 02004MPS CAVOK 17/M13 Q1018 NOSIG
ZBAA,2025-04-07 16:30,ZBAA 071630Z 03002MPS 360V060 CAVOK 16/M12 Q1019 NOSIG
ZBAA,2025-04-07 17:00,ZBAA 071700Z 04003MPS CAVOK 15/M12 Q1018 NOSIG
ZBAA,2025-04-07 17:30,ZBAA 071730Z 03004MPS CAVOK 16/M12 Q1018 NOSIG
ZBAA,2025-04-07 18:00,ZBAA 071800Z 03004MPS CAVOK 16/M13 Q1018 NOSIG
ZBAA,2025-04-07 18:30,ZBAA 071830Z 04002MPS CAVOK 14/M12 Q1018 NOSIG
ZBAA,2025-04-07 19:00,ZBAA 071900Z 04002MPS CAVOK 12/M11 Q1018 NOSIG
ZBAA,2025-04-07 19:30,ZBAA 071930Z 02003MPS CAVOK 13/M12 Q1018 NOSIG
ZBAA,2025-04-07 20:00,ZBAA 072000Z 01002MPS 340V070 CAVOK 10/M12 Q1018 NOSIG
ZBAA,2025-04-07 20:30,ZBAA 072030Z 35002MPS CAVOK 08/M10 Q1018 NOSIG
ZBAA,2025-04-07 21:00,ZBAA 072100Z 01002MPS CAVOK 05/M09 Q1018 NOSIG
ZBAA,2025-04-07 21:30,ZBAA 072130Z 32002MPS CAVOK 06/M08 Q1019 NOSIG
ZBAA,2025-04-07 22:00,ZBAA 072200Z 01003MPS CAVOK 08/M09 Q1019 NOSIG
ZBAA,2025-04-07 22:30,ZBAA 072230Z 36002MPS CAVOK 10/M09 Q1019 NOSIG
ZBAA,2025-04-07 23:00,ZBAA 072300Z VRB01MPS CAVOK 10/M05 Q1019 NOSIG
ZBAA,2025-04-07 23:30,ZBAA 072330Z 01002MPS CAVOK 15/M08 Q1019 NOSIG
ZBAA,2025-04-08 00:00,ZBAA 080000Z 03003MPS 350V060 CAVOK 17/M10 Q1019 NOSIG
ZBAA,2025-04-08 00:30,ZBAA 080030Z 03003MPS 350V070 CAVOK 18/M11 Q1020 NOSIG
ZBAA,2025-04-08 01:00,ZBAA 080100Z 06003MPS 010V120 CAVOK 19/M11 Q1020 NOSIG
ZBAA,2025-04-08 01:30,ZBAA 080130Z VRB02MPS CAVOK 19/M12 Q1020 NOSIG
ZBAA,2025-04-08 02:00,ZBAA 080200Z 16002MPS 100V260 CAVOK 20/M12 Q1020 NOSIG
ZBAA,2025-04-08 02:30,ZBAA 080230Z 15003MPS 100V210 CAVOK 20/M11 Q1019 NOSIG
ZBAA,2025-04-08 03:00,ZBAA 080300Z 16004MPS 110V200 CAVOK 21/M12 Q1019 NOSIG
ZBAA,2025-04-08 03:30,ZBAA 080330Z VRB04MPS CAVOK 21/M13 Q1018 NOSIG
ZBAA,2025-04-08 04:00,ZBAA 080400Z 16004MPS 110V220 CAVOK 21/M13 Q1018 NOSIG
ZBAA,2025-04-08 04:30,ZBAA 080430Z 19003MPS 140V240 CAVOK 22/M11 Q1017 NOSIG
ZBAA,2025-04-08 05:00,ZBAA 080500Z VRB03G08MPS CAVOK 21/M08 Q1017 NOSIG
ZBAA,2025-04-08 05:30,ZBAA 080530Z 21003MPS 170V270 CAVOK 22/M07 Q1016 NOSIG
ZBAA,2025-04-08 06:00,ZBAA 080600Z 19005MPS 150V210 CAVOK 22/M07 Q1015 NOSIG
ZBAA,2025-04-08 06:30,ZBAA 080630Z 19004MPS 140V250 CAVOK 23/M06 Q1015 NOSIG
ZBAA,2025-04-08 07:00,ZBAA 080700Z 15005MPS 110V190 CAVOK 23/M06 Q1014 NOSIG
ZBAA,2025-04-08 07:30,ZBAA 080730Z 16005MPS 130V190 CAVOK 22/M05 Q1014 NOSIG
ZBAA,2025-04-08 08:00,ZBAA 080800Z 18005MPS 150V220 CAVOK 22/M05 Q1013 NOSIG
ZBAA,2025-04-08 08:30,ZBAA 080830Z 18005MPS 150V220 CAVOK 21/M05 Q1013 NOSIG
ZBAA,2025-04-08 09:00,ZBAA 080900Z 18006MPS CAVOK 21/M05 Q1013 NOSIG
ZBAA,2025-04-08 09:30,ZBAA 080930Z 17004MPS CAVOK 20/M06 Q1013 NOSIG
ZBAA,2025-04-08 10:00,ZBAA 081000Z 16006MPS CAVOK 19/M06 Q1013 NOSIG
ZBAA,2025-04-08 10:30,ZBAA 081030Z 17004MPS CAVOK 19/M06 Q1014 NOSIG
ZBAA,2025-04-08 11:00,ZBAA 081100Z 15004MPS CAVOK 18/M07 Q1014 NOSIG
ZBAA,2025-04-08 11:30,ZBAA 081130Z 15003MPS 120V180 CAVOK 18/M07 Q1014 NOSIG
ZBAA,2025-04-08 12:00,ZBAA 081200Z VRB01MPS CAVOK 17/M03 Q1014 NOSIG
ZBAA,2025-04-08 12:30,ZBAA 081230Z VRB02MPS CAVOK 17/M03 Q1014 NOSIG
ZBAA,2025-04-08 13:00,ZBAA 081300Z 15002MPS CAVOK 17/M04 Q1014 NOSIG
ZBAA,2025-04-08 13:30,ZBAA 081330Z 16002MPS CAVOK 16/M04 Q1014 NOSIG
ZBAA,2025-04-08 14:00,ZBAA 081400Z 16002MPS CAVOK 15/M04 Q1014 NOSIG
ZBAA,2025-04-08 14:30,ZBAA 081430Z VRB01MPS CAVOK 14/M04 Q1014 NOSIG
ZBAA,2025-04-08 15:00,ZBAA 081500Z 04002MPS 010V070 CAVOK 15/M07 Q1014 NOSIG
ZBAA,2025-04-08 15:30,ZBAA 081530Z 09002MPS CAVOK 15/M08 Q1014 NOSIG
ZBAA,2025-04-08 16:00,ZBAA 081600Z 05002MPS 020V090 CAVOK 14/M06 Q1014 NOSIG
ZBAA,2025-04-08 16:30,ZBAA 081630Z 05002MPS CAVOK 14/M05 Q1014 NOSIG
ZBAA,2025-04-08 17:00,ZBAA 081700Z 04002MPS 010V070 CAVOK 14/M05 Q1013 NOSIG
ZBAA,2025-04-08 17:30,ZBAA 081730Z 04002MPS 360V080 CAVOK 14/M01 Q1013 NOSIG
ZBAA,2025-04-08 18:00,ZBAA 081800Z 36002MPS CAVOK 13/03 Q1013 NOSIG
ZBAA,2025-04-08 18:30,ZBAA 081830Z 01002MPS CAVOK 13/03 Q1012 NOSIG
ZBAA,2025-04-08 19:00,ZBAA 081900Z VRB01MPS CAVOK 12/04 Q1012 NOSIG
ZBAA,2025-04-08 19:30,ZBAA 081930Z 36003MPS CAVOK 13/04 Q1012 NOSIG
ZBAA,2025-04-08 20:00,ZBAA 082000Z 35003MPS CAVOK 13/05 Q1011 NOSIG
ZBAA,2025-04-08 20:30,ZBAA 082030Z 01002MPS CAVOK 12/04 Q1011 NOSIG
ZBAA,2025-04-08 21:00,ZBAA 082100Z 01003MPS CAVOK 11/04 Q1011 NOSIG
ZBAA,2025-04-08 21:30,ZBAA 082130Z 36002MPS CAVOK 11/05 Q1011 NOSIG
ZBAA,2025-04-08 22:00,ZBAA 082200Z 36002MPS CAVOK 11/05 Q1011 NOSIG
ZBAA,2025-04-08 22:30,ZBAA 082230Z VRB01MPS CAVOK 11/05 Q1011 NOSIG
ZBAA,2025-04-08 23:00,ZBAA 082300Z 36001MPS CAVOK 12/05 Q1011 NOSIG
ZBAA,2025-04-08 23:30,ZBAA 082330Z 02002MPS 340V050 CAVOK 13/06 Q1011 NOSIG
ZBAA,2025-04-09 00:00,ZBAA 090000Z 34002MPS 290V040 CAVOK 14/05 Q1011 NOSIG
ZBAA,2025-04-09 00:30,ZBAA 090030Z 30003MPS 280V340 CAVOK 14/05 Q1011 NOSIG
ZBAA,2025-04-09 01:00,ZBAA 090100Z 33003MPS 280V360 CAVOK 15/05 Q1011 NOSIG
ZBAA,2025-04-09 01:30,ZBAA 090130Z 32003MPS 280V010 CAVOK 16/05 Q1011 NOSIG
ZBAA,2025-04-09 02:00,ZBAA 090200Z 34002MPS 300V040 CAVOK 18/05 Q1011 NOSIG
ZBAA,2025-04-09 02:30,ZBAA 090230Z 22002MPS 160V300 CAVOK 18/05 Q1010 NOSIG
ZBAA,2025-04-09 03:00,ZBAA 090300Z 27002MPS 190V350 CAVOK 18/05 Q1010 NOSIG
ZBAA,2025-04-09 03:30,ZBAA 090330Z 30002MPS 220V010 CAVOK 19/05 Q1010 NOSIG
ZBAA,2025-04-09 04:00,ZBAA 090400Z VRB02MPS CAVOK 19/05 Q1009 NOSIG
ZBAA,2025-04-09 04:30,ZBAA 090430Z VRB02MPS CAVOK 20/04 Q1009 NOSIG
ZBAA,2025-04-09 05:00,ZBAA 090500Z 25002MPS 200V280 CAVOK 20/05 Q1009 NOSIG
ZBAA,2025-04-09 05:30,ZBAA 090530Z VRB02MPS CAVOK 21/05 Q1008 NOSIG
ZBAA,2025-04-09 06:00,ZBAA 090600Z VRB02MPS CAVOK 21/05 Q1008 NOSIG
ZBAA,2025-04-09 06:30,ZBAA 090630Z 19003MPS 130V260 CAVOK 22/04 Q1007 NOSIG
ZBAA,2025-04-09 07:00,ZBAA 090700Z VRB01MPS CAVOK 22/04 Q1007 NOSIG
ZBAA,2025-04-09 07:30,ZBAA 090730Z 19003MPS 090V260 CAVOK 23/04 Q1007 NOSIG
ZBAA,2025-04-09 08:00,ZBAA 090800Z 22003MPS 180V270 CAVOK 23/04 Q1006 NOSIG
ZBAA,2025-04-09 08:30,ZBAA 090830Z 24003MPS 210V290 CAVOK 22/04 Q1006 NOSIG
ZBAA,2025-04-09 09:00,ZBAA 090900Z 26004MPS 220V320 CAVOK 22/03 Q1006 NOSIG
ZBAA,2025-04-09 09:30,ZBAA 090930Z 22004MPS 180V280 CAVOK 22/03 Q1006 NOSIG
ZBAA,2025-04-09 10:00,ZBAA 091000Z VRB03MPS CAVOK 21/03 Q1007 NOSIG
ZBAA,2025-04-09 10:30,ZBAA 091030Z 20003MPS CAVOK 20/03 Q1007 NOSIG
ZBAA,2025-04-09 11:00,ZBAA 091100Z 20003MPS 170V260 CAVOK 20/04 Q1007 NOSIG
ZBAA,2025-04-09 11:30,ZBAA 091130Z 19003MPS CAVOK 19/04 Q1007 NOSIG
ZBAA,2025-04-09 12:00,ZBAA 091200Z 20003MPS 180V250 CAVOK 19/03 Q1008 NOSIG
ZBAA,2025-04-09 12:30,ZBAA 091230Z 17003MPS 150V220 CAVOK 17/04 Q1008 NOSIG
ZBAA,2025-04-09 13:00,ZBAA 091300Z 16002MPS CAVOK 15/04 Q1008 NOSIG
ZBAA,2025-04-09 13:30,ZBAA 091330Z 18003MPS CAVOK 17/04 Q1008 NOSIG
ZBAA,2025-04-09 14:00,ZBAA 091400Z 18004MPS CAVOK 17/05 Q1008 NOSIG
ZBAA,2025-04-09 14:30,ZBAA 091430Z VRB01MPS CAVOK 13/05 Q1008 NOSIG
ZBAA,2025-04-09 15:00,ZBAA 091500Z 15001MPS CAVOK 13/05 Q1008 NOSIG
ZBAA,2025-04-09 15:30,ZBAA 091530Z VRB01MPS CAVOK 11/05 Q1008 NOSIG
ZBAA,2025-04-09 16:00,ZBAA 091600Z VRB01MPS CAVOK 10/05 Q1008 NOSIG
ZBAA,2025-04-09 16:30,ZBAA 091630Z 08002MPS CAVOK 09/05 Q1008 NOSIG
ZBAA,2025-04-09 17:00,ZBAA 091700Z VRB01MPS CAVOK 10/05 Q1008 NOSIG
ZBAA,2025-04-09 17:30,ZBAA 091730Z VRB01MPS CAVOK 08/04 Q1008 NOSIG
ZBAA,2025-04-09 18:00,ZBAA 091800Z 06001MPS CAVOK 07/04 Q1007 NOSIG
ZBAA,2025-04-09 18:30,ZBAA 091830Z 10002MPS 070V130 CAVOK 08/05 Q1007 NOSIG
ZBAA,2025-04-09 19:00,ZBAA 091900Z 09002MPS 060V130 CAVOK 11/06 Q1007 NOSIG
ZBAA,2025-04-09 19:30,ZBAA 091930Z VRB01MPS CAVOK 11/06 Q1007 NOSIG
ZBAA,2025-04-09 20:00,ZBAA 092000Z VRB01MPS CAVOK 09/05 Q1007 NOSIG
ZBAA,2025-04-09 20:30,ZBAA 092030Z VRB01MPS CAVOK 08/05 Q1007 NOSIG
ZBAA,2025-04-09 21:00,ZBAA 092100Z VRB01MPS CAVOK 08/06 Q1007 NOSIG
ZBAA,2025-04-09 21:30,ZBAA 092130Z 10001MPS 7000 NSC 06/04 Q1007 NOSIG
ZBAA,2025-04-09 22:00,ZBAA 092200Z VRB01MPS 5000 BR NSC 06/04 Q1007 NOSIG
ZBAA,2025-04-09 22:30,ZBAA 092230Z VRB01MPS 4000 BR NSC 07/05 Q1008 NOSIG
ZBAA,2025-04-09 23:00,ZBAA 092300Z VRB01MPS 4000 BR NSC 11/07 Q1008 NOSIG
ZBAA,2025-04-09 23:30,ZBAA 092330Z 12002MPS 070V170 4000 BR NSC 12/06 Q1008 NOSIG
ZBAA,2025-04-10 00:00,ZBAA 100000Z 10002MPS 050V170 4000 HZ NSC 13/07 Q1008 NOSIG
ZBAA,2025-04-10 00:30,ZBAA 100030Z 15003MPS 130V190 4000 HZ NSC 14/07 Q1008 NOSIG
ZBAA,2025-04-10 01:00,ZBAA 100100Z VRB01MPS 5000 HZ NSC 15/07 Q1008 NOSIG
ZBAA,2025-04-10 01:30,ZBAA 100130Z VRB02MPS 5000 HZ NSC 16/07 Q1008 NOSIG
ZBAA,2025-04-10 02:00,ZBAA 100200Z VRB01MPS 5000 HZ NSC 18/07 Q1008 NOSIG
ZBAA,2025-04-10 02:30,ZBAA 100230Z VRB01MPS 5000 HZ NSC 19/07 Q1007 NOSIG
ZBAA,2025-04-10 03:00,ZBAA 100300Z VRB02MPS 5000 HZ NSC 20/06 Q1007 NOSIG
ZBAA,2025-04-10 03:30,ZBAA 100330Z 17002MPS 110V240 7000 NSC 22/06 Q1006 NOSIG
ZBAA,2025-04-10 04:00,ZBAA 100400Z 20005MPS 170V230 7000 NSC 23/05 Q1005 NOSIG
ZBAA,2025-04-10 04:30,ZBAA 100430Z 18005MPS 120V270 CAVOK 24/05 Q1005 NOSIG
ZBAA,2025-04-10 05:00,ZBAA 100500Z 17005MPS 120V210 CAVOK 25/05 Q1004 NOSIG
ZBAA,2025-04-10 05:30,ZBAA 100530Z 18007MPS CAVOK 25/05 Q1004 NOSIG
ZBAA,2025-04-10 06:00,ZBAA 100600Z 17006MPS 140V210 CAVOK 26/04 Q1003 NOSIG
ZBAA,2025-04-10 06:30,ZBAA 100630Z 18007MPS 150V210 CAVOK 26/03 Q1002 NOSIG
ZBAA,2025-04-10 07:00,ZBAA 100700Z 18006MPS CAVOK 27/03 Q1001 NOSIG
ZBAA,2025-04-10 07:30,ZBAA 100730Z 19007MPS CAVOK 27/02 Q1001 NOSIG
ZBAA,2025-04-10 08:00,ZBAA 100800Z 19007MPS 160V230 CAVOK 26/02 Q1001 NOSIG
ZBAA,2025-04-10 08:30,ZBAA 100830Z 20006MPS CAVOK 25/02 Q1001 NOSIG
ZBAA,2025-04-10 09:00,ZBAA 100900Z 20006MPS CAVOK 25/03 Q1000 NOSIG
ZBAA,2025-04-10 09:30,ZBAA 100930Z 21006MPS CAVOK 24/02 Q1000 NOSIG
ZBAA,2025-04-10 10:00,ZBAA 101000Z 21007MPS CAVOK 24/03 Q1001 NOSIG
ZBAA,2025-04-10 10:30,ZBAA 101030Z 21007MPS CAVOK 24/04 Q1001 NOSIG
ZBAA,2025-04-10 11:00,ZBAA 101100Z 20005MPS 160V230 CAVOK 23/05 Q1001 NOSIG
ZBAA,2025-04-10 11:30,ZBAA 101130Z 18004MPS CAVOK 21/05 Q1001 NOSIG
ZBAA,2025-04-10 12:00,ZBAA 101200Z 19004MPS CAVOK 21/05 Q1002 NOSIG
ZBAA,2025-04-10 12:30,ZBAA 101230Z 18004MPS CAVOK 19/05 Q1002 NOSIG
ZBAA,2025-04-10 13:00,ZBAA 101300Z 16002MPS CAVOK 20/05 Q1002 NOSIG
ZBAA,2025-04-10 13:30,ZBAA 101330Z 17003MPS CAVOK 18/06 Q1002 NOSIG
ZBAA,2025-04-10 14:00,ZBAA 101400Z 17003MPS CAVOK 18/06 Q1002 NOSIG
ZBAA,2025-04-10 14:30,ZBAA 101430Z 17004MPS CAVOK 18/07 Q1002 NOSIG
ZBAA,2025-04-10 15:00,ZBAA 101500Z 17003MPS CAVOK 18/08 Q1002 NOSIG
ZBAA,2025-04-10 15:30,ZBAA 101530Z 15002MPS CAVOK 17/08 Q1002 NOSIG
ZBAA,2025-04-10 16:00,ZBAA 101600Z 15003MPS CAVOK 18/08 Q1002 NOSIG
ZBAA,2025-04-10 16:30,ZBAA 101630Z 13002MPS 090V150 CAVOK 17/08 Q1002 NOSIG
ZBAA,2025-04-10 17:00,ZBAA 101700Z 16004MPS CAVOK 18/09 Q1002 NOSIG
ZBAA,2025-04-10 17:30,ZBAA 101730Z VRB01MPS CAVOK 18/09 Q1002 NOSIG
ZBAA,2025-04-10 18:00,ZBAA 101800Z 14002MPS 110V170 CAVOK 17/08 Q1001 NOSIG
ZBAA,2025-04-10 18:30,ZBAA 101830Z 14003MPS 100V160 CAVOK 18/08 Q1001 NOSIG
ZBAA,2025-04-10 19:00,ZBAA 101900Z 14003MPS CAVOK 17/08 Q1001 NOSIG
ZBAA,2025-04-10 19:30,ZBAA 101930Z 13003MPS CAVOK 17/08 Q1001 NOSIG
ZBAA,2025-04-10 20:00,ZBAA 102000Z 12003MPS 090V150 CAVOK 17/08 Q1001 NOSIG
ZBAA,2025-04-10 20:30,ZBAA 102030Z 12002MPS 090V160 CAVOK 16/08 Q1001 NOSIG
ZBAA,2025-04-10 21:00,ZBAA 102100Z 12002MPS 090V150 CAVOK 16/08 Q1000 NOSIG
ZBAA,2025-04-10 21:30,ZBAA 102130Z 07002MPS CAVOK 15/08 Q1000 NOSIG
ZBAA,2025-04-10 22:00,ZBAA 102200Z 09002MPS 8000 NSC 14/08 Q1001 NOSIG
ZBAA,2025-04-10 22:30,ZBAA 102230Z VRB01MPS 8000 NSC 14/08 Q1001 NOSIG
ZBAA,2025-04-10 23:00,ZBAA 102300Z 11002MPS 080V150 8000 NSC 15/08 Q1001 NOSIG
ZBAA,2025-04-10 23:30,ZBAA 102330Z 13003MPS 8000 NSC 16/09 Q1001 NOSIG
ZBAA,2025-04-11 00:00,ZBAA 110000Z 13004MPS 8000 NSC 17/09 Q1001 NOSIG
ZBAA,2025-04-11 00:30,ZBAA 110030Z 13003MPS 110V170 8000 NSC 18/09 Q1001 NOSIG
ZBAA,2025-04-11 01:00,ZBAA 110100Z 16003MPS 110V200 8000 NSC 19/09 Q1001 NOSIG
ZBAA,2025-04-11 01:30,ZBAA 110130Z 14002MPS 080V180 6000 NSC 19/09 Q1001 NOSIG
ZBAA,2025-04-11 02:00,ZBAA 110200Z VRB02MPS 6000 NSC 20/10 Q1000 NOSIG
ZBAA,2025-04-11 02:30,ZBAA 110230Z 15003MPS 110V200 6000 NSC 21/10 Q1000 NOSIG
ZBAA,2025-04-11 03:00,ZBAA 110300Z 17003MPS 100V230 6000 NSC 22/10 Q1000 NOSIG
ZBAA,2025-04-11 03:30,ZBAA 110330Z 15003MPS 070V210 6000 NSC 22/10 Q0999 NOSIG
ZBAA,2025-04-11 04:00,ZBAA 110400Z 10003MPS 040V140 6000 NSC 23/11 Q0999 NOSIG
ZBAA,2025-04-11 04:30,ZBAA 110430Z 13003MPS 050V210 6000 NSC 24/11 Q0999 NOSIG
ZBAA,2025-04-11 05:00,ZBAA 110500Z 17004MPS 130V250 6000 NSC 24/10 Q0998 NOSIG
ZBAA,2025-04-11 05:30,ZBAA 110530Z 14003MPS 090V180 6000 NSC 24/11 Q0998 NOSIG
ZBAA,2025-04-11 06:00,ZBAA 110600Z 16004MPS 050V210 7000 NSC 25/11 Q0997 NOSIG
ZBAA,2025-04-11 06:30,ZBAA 110630Z 16004MPS 120V210 7000 NSC 25/10 Q0997 NOSIG
ZBAA,2025-04-11 07:00,ZBAA 110700Z 16004MPS 120V190 7000 NSC 24/11 Q0997 NOSIG
ZBAA,2025-04-11 07:30,ZBAA 110730Z 17005MPS 7000 NSC 25/10 Q0997 NOSIG
ZBAA,2025-04-11 08:00,ZBAA 110800Z 14002MPS 090V170 7000 NSC 24/11 Q0997 NOSIG
ZBAA,2025-04-11 08:30,ZBAA 110830Z 13002MPS 090V160 7000 NSC 24/11 Q0997 NOSIG
ZBAA,2025-04-11 09:00,ZBAA 110900Z 05002MPS 7000 NSC 23/11 Q0997 NOSIG
ZBAA,2025-04-11 09:30,ZBAA 110930Z 09002MPS 050V120 6000 -SHRA NSC 23/12 Q0997 NOSIG
ZBAA,2025-04-11 10:00,ZBAA 111000Z 10002MPS 070V150 6000 NSC 22/12 Q0997 NOSIG
ZBAA,2025-04-11 10:21,ZBAA 111021Z 01002MPS 310V100 6000 TS FEW040CB 22/12 Q0998 NOSIG
ZBAA,2025-04-11 10:30,ZBAA 111030Z 32005MPS 6000 TS FEW040CB 23/12 Q0998 NOSIG
ZBAA,2025-04-11 11:00,ZBAA 111100Z 04002MPS 330V070 6000 -TSRA FEW040CB 22/12 Q0998 NOSIG
ZBAA,2025-04-11 11:30,ZBAA 111130Z 31004MPS 280V350 8000 NSC 23/11 Q0999 RETS NOSIG
ZBAA,2025-04-11 12:00,ZBAA 111200Z 31008MPS 8000 NSC 23/07 Q0999 NOSIG
ZBAA,2025-04-11 12:30,ZBAA 111230Z 32007MPS CAVOK 22/06 Q1000 NOSIG
ZBAA,2025-04-11 13:00,ZBAA 111300Z 32008MPS CAVOK 22/M00 Q1000 NOSIG
ZBAA,2025-04-11 13:30,ZBAA 111330Z 32010MPS CAVOK 21/M03 Q1001 NOSIG
ZBAA,2025-04-11 14:00,ZBAA 111400Z 31007MPS 280V350 CAVOK 21/M03 Q1001 NOSIG
ZBAA,2025-04-11 14:30,COR ZBAA 111430Z 30012G18MPS 7000 NSC 19/M07 Q1002 WS R36L NOSIG
ZBAA,2025-04-11 14:43,ZBAA 111443Z 30017G22MPS 6000 NSC 18/M11 Q1003 NOSIG
ZBAA,2025-04-11 15:00,ZBAA 111500Z 30016G22MPS 6000 NSC 17/M11 Q1004 BECMG TL1610 31010MPS BLSA
ZBAA,2025-04-11 15:30,ZBAA 111530Z 30013G18MPS 6000 NSC 15/M10 Q1005 NOSIG
ZBAA,2025-04-11 16:00,ZBAA 111600Z 30015G21MPS 7000 NSC 14/M10 Q1006 BECMG TL1610 BLSA
ZBAA,2025-04-11 16:30,COR ZBAA 111630Z 31014G21MPS 8000 BLSA NSC 13/M11 Q1006 WS R36R NOSIG
ZBAA,2025-04-11 17:00,ZBAA 111700Z 29012G18MPS 8000 BLSA NSC 11/M11 Q1007 BECMG TL1720 NSW
ZBAA,2025-04-11 17:30,ZBAA 111730Z 29012MPS CAVOK 10/M11 Q1006 NOSIG
ZBAA,2025-04-11 18:00,ZBAA 111800Z 31009G14MPS CAVOK 10/M12 Q1006 NOSIG
ZBAA,2025-04-11 18:30,ZBAA 111830Z 31011MPS CAVOK 10/M12 Q1007 NOSIG
ZBAA,2025-04-11 19:00,ZBAA 111900Z 31010MPS CAVOK 09/M12 Q1007 NOSIG
ZBAA,2025-04-11 19:30,ZBAA 111930Z 30011MPS CAVOK 09/M12 Q1006 NOSIG
ZBAA,2025-04-11 20:00,ZBAA 112000Z 30009G17MPS 270V330 CAVOK 08/M11 Q1006 NOSIG
ZBAA,2025-04-11 20:17,ZBAA 112017Z 30007G12MPS CAVOK 08/M11 Q1006 NOSIG
ZBAA,2025-04-11 20:30,ZBAA 112030Z 29009MPS CAVOK 08/M11 Q1006 NOSIG
ZBAA,2025-04-11 21:00,ZBAA 112100Z 29008MPS CAVOK 07/M10 Q1006 NOSIG
ZBAA,2025-04-11 21:30,ZBAA 112130Z 29009MPS CAVOK 07/M10 Q1006 NOSIG
ZBAA,2025-04-11 22:00,ZBAA 112200Z 30008MPS CAVOK 07/M09 Q1006 NOSIG
ZBAA,2025-04-11 22:30,ZBAA 112230Z 31009G16MPS 9999 SCT040 08/M10 Q1006 NOSIG
ZBAA,2025-04-11 23:00,ZBAA 112300Z 32014G19MPS 9999 SCT040 09/M10 Q1007 NOSIG
ZBAA,2025-04-11 23:30,ZBAA 112330Z 32012G19MPS 9999 SCT040 09/M10 Q1007 NOSIG
ZBAA,2025-04-12 00:00,ZBAA 120000Z 32012G17MPS 9999 SCT040 09/M11 Q1007 NOSIG
ZBAA,2025-04-12 00:30,ZBAA 120030Z 32013G19MPS 9999 SCT040 10/M12 Q1007 NOSIG
ZBAA,2025-04-12 01:00,ZBAA 120100Z 32014G19MPS 9999 SCT040 11/M12 Q1007 NOSIG
ZBAA,2025-04-12 01:30,ZBAA 120130Z 33014G21MPS 9999 SCT040 11/M12 Q1007 NOSIG
ZBAA,2025-04-12 02:00,ZBAA 120200Z 32014G19MPS 9999 SCT040 11/M13 Q1008 NOSIG
ZBAA,2025-04-12 02:30,ZBAA 120230Z 33015G21MPS 9999 SCT040 12/M13 Q1008 NOSIG
ZBAA,2025-04-12 03:00,ZBAA 120300Z 33016G23MPS 300V360 9999 SCT040 12/M14 Q1008 NOSIG
ZBAA,2025-04-12 03:30,ZBAA 120330Z 32017G23MPS 9999 SCT040 12/M15 Q1008 NOSIG
ZBAA,2025-04-12 04:00,ZBAA 120400Z 32020G27MPS CAVOK 11/M15 Q1008 NOSIG
ZBAA,2025-04-12 04:24,ZBAA 120424Z 33017G22MPS CAVOK 12/M15 Q1008 WS R36R NOSIG
ZBAA,2025-04-12 04:30,COR ZBAA 120430Z 33018G24MPS CAVOK 12/M16 Q1008 WS R36R NOSIG
ZBAA,2025-04-12 05:00,ZBAA 120500Z 33017G26MPS CAVOK 12/M16 Q1008 NOSIG
ZBAA,2025-04-12 05:06,ZBAA 120506Z 33015G21MPS CAVOK 12/M15 Q1008 NOSIG
ZBAA,2025-04-12 05:30,ZBAA 120530Z 33015G22MPS 300V360 CAVOK 13/M14 Q1009 NOSIG
ZBAA,2025-04-12 06:00,ZBAA 120600Z 31016G22MPS CAVOK 12/M15 Q1009 NOSIG
ZBAA,2025-04-12 06:30,ZBAA 120630Z 32013G19MPS CAVOK 13/M15 Q1008 NOSIG
ZBAA,2025-04-12 07:00,ZBAA 120700Z 31013G19MPS 290V350 CAVOK 11/M15 Q1008 NOSIG
ZBAA,2025-04-12 07:30,ZBAA 120730Z 31013G20MPS CAVOK 11/M14 Q1009 NOSIG
ZBAA,2025-04-12 08:00,ZBAA 120800Z 32013MPS CAVOK 11/M14 Q1009 NOSIG
ZBAA,2025-04-12 08:30,ZBAA 120830Z 32014G20MPS CAVOK 11/M13 Q1009 NOSIG
ZBAA,2025-04-12 08:39,ZBAA 120839Z 32014G27MPS CAVOK 10/M13 Q1009 NOSIG
ZBAA,2025-04-12 08:49,ZBAA 120849Z 31015G21MPS CAVOK 10/M13 Q1009 NOSIG
ZBAA,2025-04-12 09:00,ZBAA 120900Z 31015G21MPS CAVOK 10/M12 Q1009 NOSIG
ZBAA,2025-04-12 09:30,ZBAA 120930Z 32012G18MPS 9999 SCT040 10/M12 Q1009 WS R01 NOSIG
ZBAA,2025-04-12 09:53,ZBAA 120953Z 32015G23MPS 290V350 9999 FEW040 10/M13 Q1009 NOSIG
ZBAA,2025-04-12 10:00,ZBAA 121000Z 32015G23MPS 290V350 9999 FEW040 10/M12 Q1009 NOSIG
ZBAA,2025-04-12 10:08,ZBAA 121008Z 32012G17MPS 9999 FEW040 10/M12 Q1009 NOSIG
ZBAA,2025-04-12 10:30,ZBAA 121030Z 32012G17MPS 9999 SCT040 09/M12 Q1009 NOSIG
ZBAA,2025-04-12 11:00,ZBAA 121100Z 32011G16MPS 9999 BKN040 09/M12 Q1010 WS R36L NOSIG
ZBAA,2025-04-12 11:30,ZBAA 121130Z 32012G17MPS 9999 SCT040 09/M13 Q1010 NOSIG
ZBAA,2025-04-12 12:00,ZBAA 121200Z 32013G18MPS 9999 SCT040 09/M12 Q1010 WS R36R NOSIG
ZBAA,2025-04-12 12:30,ZBAA 121230Z 32011G16MPS 9999 SCT040 09/M13 Q1010 NOSIG
ZBAA,2025-04-12 13:00,ZBAA 121300Z 31011G16MPS 9999 SCT040 09/M14 Q1010 NOSIG
ZBAA,2025-04-12 13:30,ZBAA 121330Z 32011G17MPS 280V340 9999 SCT040 09/M14 Q1010 NOSIG
ZBAA,2025-04-12 14:00,ZBAA 121400Z 32013MPS CAVOK 08/M15 Q1009 NOSIG
ZBAA,2025-04-12 14:30,ZBAA 121430Z 32013MPS CAVOK 08/M15 Q1009 NOSIG
ZBAA,2025-04-12 15:00,ZBAA 121500Z 32013G19MPS CAVOK 08/M16 Q1008 NOSIG
ZBAA,2025-04-12 15:30,ZBAA 121530Z 32011G16MPS CAVOK 08/M16 Q1008 NOSIG
ZBAA,2025-04-12 16:00,ZBAA 121600Z 32010G15MPS CAVOK 08/M16 Q1008 NOSIG
ZBAA,2025-04-12 16:30,ZBAA 121630Z 31011MPS CAVOK 08/M16 Q1008 NOSIG
ZBAA,2025-04-12 17:00,ZBAA 121700Z 32011MPS CAVOK 08/M16 Q1007 NOSIG
ZBAA,2025-04-12 17:30,ZBAA 121730Z 32012MPS CAVOK 08/M16 Q1007 NOSIG
ZBAA,2025-04-12 18:00,ZBAA 121800Z 32010MPS CAVOK 08/M16 Q1006 NOSIG
ZBAA,2025-04-12 18:30,ZBAA 121830Z 32010G16MPS CAVOK 08/M16 Q1006 NOSIG
ZBAA,2025-04-12 19:00,ZBAA 121900Z 32011G16MPS 300V360 CAVOK 08/M17 Q1006 NOSIG
ZBAA,2025-04-12 19:30,ZBAA 121930Z 32014G20MPS CAVOK 08/M18 Q1005 NOSIG
ZBAA,2025-04-12 20:00,ZBAA 122000Z 33012MPS CAVOK 07/M19 Q1005 NOSIG
ZBAA,2025-04-12 20:30,ZBAA 122030Z 33011MPS CAVOK 07/M18 Q1005 NOSIG
ZBAA,2025-04-12 21:00,ZBAA 122100Z 32008MPS CAVOK 07/M18 Q1004 NOSIG
ZBAA,2025-04-12 21:30,ZBAA 122130Z 31008MPS 280V340 CAVOK 07/M18 Q1004 NOSIG
ZBAA,2025-04-12 22:00,ZBAA 122200Z 30005MPS CAVOK 07/M15 Q1004 BECMG TL2350 32010G15MPS
ZBAA,2025-04-12 22:30,ZBAA 122230Z 31005MPS CAVOK 07/M15 Q1004 NOSIG
ZBAA,2025-04-12 23:00,ZBAA 122300Z 31008MPS CAVOK 08/M15 Q1003 NOSIG
ZBAA,2025-04-12 23:30,ZBAA 122330Z 32012G18MPS CAVOK 09/M16 Q1003 NOSIG
ZBAA,2025-04-13 00:00,ZBAA 130000Z 32014G19MPS CAVOK 09/M15 Q1003 NOSIG
ZBAA,2025-04-13 00:30,COR ZBAA 130030Z 32016G21MPS CAVOK 10/M16 Q1003 WS R01 NOSIG
ZBAA,2025-04-13 01:00,ZBAA 130100Z 33015G20MPS CAVOK 11/M16 Q1003 NOSIG
ZBAA,2025-04-13 01:30,ZBAA 130130Z 32012G18MPS CAVOK 11/M17 Q1002 NOSIG
ZBAA,2025-04-13 02:00,ZBAA 130200Z 32012G19MPS CAVOK 12/M17 Q1002 NOSIG
ZBAA,2025-04-13 02:30,ZBAA 130230Z 32012MPS CAVOK 13/M16 Q1001 NOSIG
ZBAA,2025-04-13 03:00,ZBAA 130300Z 31013G18MPS CAVOK 13/M16 Q1001 NOSIG
ZBAA,2025-04-13 03:30,ZBAA 130330Z 33010G15MPS CAVOK 12/M15 Q1001 NOSIG
ZBAA,2025-04-13 04:00,ZBAA 130400Z 35011G18MPS CAVOK 12/M13 Q1001 NOSIG
ZBAA,2025-04-13 04:30,ZBAA 130430Z 35012G18MPS CAVOK 14/M12 Q1001 NOSIG
ZBAA,2025-04-13 05:00,ZBAA 130500Z 35012G18MPS CAVOK 14/M11 Q1001 NOSIG
ZBAA,2025-04-13 05:30,ZBAA 130530Z 34011MPS CAVOK 15/M11 Q1001 NOSIG
ZBAA,2025-04-13 06:00,ZBAA 130600Z 32012MPS CAVOK 14/M11 Q1001 NOSIG
ZBAA,2025-04-13 06:30,ZBAA 130630Z 31011MPS CAVOK 15/M11 Q1001 NOSIG
ZBAA,2025-04-13 07:00,ZBAA 130700Z 33012MPS CAVOK 14/M11 Q1001 NOSIG
ZBAA,2025-04-13 07:30,ZBAA 130730Z 32014G19MPS CAVOK 13/M10 Q1002 NOSIG
ZBAA,2025-04-13 08:00,ZBAA 130800Z 31013MPS CAVOK 11/M10 Q1002 NOSIG
ZBAA,2025-04-13 08:30,ZBAA 130830Z 32014MPS CAVOK 11/M09 Q1003 NOSIG
ZBAA,2025-04-13 09:00,ZBAA 130900Z 32014G19MPS CAVOK 11/M09 Q1004 NOSIG
ZBAA,2025-04-13 09:30,COR ZBAA 130930Z 32015G20MPS CAVOK 11/M09 Q1004 WS R01 NOSIG
ZBAA,2025-04-13 10:00,ZBAA 131000Z 32013G20MPS CAVOK 10/M09 Q1005 NOSIG
ZBAA,2025-04-13 10:30,ZBAA 131030Z 32014G19MPS CAVOK 10/M09 Q1005 NOSIG
ZBAA,2025-04-13 11:00,ZBAA 131100Z 31012G17MPS CAVOK 10/M08 Q1005 NOSIG
ZBAA,2025-04-13 11:30,ZBAA 131130Z 32012MPS CAVOK 10/M08 Q1006 NOSIG
ZBAA,2025-04-13 12:00,ZBAA 131200Z 32012G17MPS CAVOK 10/M08 Q1006 NOSIG
ZBAA,2025-04-13 12:30,ZBAA 131230Z 32012MPS CAVOK 10/M08 Q1006 NOSIG
ZBAA,2025-04-13 13:00,ZBAA 131300Z 32012MPS CAVOK 10/M07 Q1007 NOSIG
ZBAA,2025-04-13 13:30,ZBAA 131330Z 32012MPS CAVOK 10/M07 Q1006 NOSIG
ZBAA,2025-04-13 14:00,ZBAA 131400Z 32012G17MPS CAVOK 10/M07 Q1006 NOSIG
ZBAA,2025-04-13 14:30,COR ZBAA 131430Z 32010G15MPS CAVOK 10/M07 Q1006 WS R36R NOSIG
ZBAA,2025-04-13 15:00,ZBAA 131500Z 32010MPS CAVOK 10/M07 Q1006 NOSIG
ZBAA,2025-04-13 15:30,ZBAA 131530Z 31010G16MPS CAVOK 10/M07 Q1006 NOSIG
ZBAA,2025-04-13 16:00,ZBAA 131600Z 31011MPS CAVOK 10/M07 Q1006 NOSIG
ZBAA,2025-04-13 16:30,ZBAA 131630Z 32009G14MPS CAVOK 10/M07 Q1005 NOSIG
ZBAA,2025-04-13 17:00,ZBAA 131700Z 32011MPS CAVOK 11/M07 Q1005 NOSIG
ZBAA,2025-04-13 17:30,ZBAA 131730Z 31010G15MPS CAVOK 11/M07 Q1005 NOSIG
ZBAA,2025-04-13 18:00,ZBAA 131800Z 32009MPS CAVOK 11/M07 Q1005 NOSIG
ZBAA,2025-04-13 18:30,ZBAA 131830Z 32008G13MPS CAVOK 11/M08 Q1005 NOSIG
ZBAA,2025-04-13 19:00,ZBAA 131900Z 32005MPS 290V350 CAVOK 11/M08 Q1005 NOSIG
ZBAA,2025-04-13 19:30,ZBAA 131930Z 31008MPS CAVOK 12/M08 Q1005 NOSIG
ZBAA,2025-04-13 20:00,ZBAA 132000Z 31009MPS CAVOK 12/M08 Q1005 NOSIG
ZBAA,2025-04-13 20:30,ZBAA 132030Z 31009MPS CAVOK 12/M08 Q1005 NOSIG
ZBAA,2025-04-13 21:00,ZBAA 132100Z 31009MPS CAVOK 12/M08 Q1005 NOSIG
ZBAA,2025-04-13 21:30,ZBAA 132130Z 31008MPS CAVOK 11/M07 Q1005 NOSIG
ZBAA,2025-04-13 22:00,ZBAA 132200Z 32009MPS CAVOK 12/M07 Q1005 NOSIG
ZBAA,2025-04-13 22:30,ZBAA 132230Z 32010MPS CAVOK 12/M07 Q1005 NOSIG
ZBAA,2025-04-13 23:00,ZBAA 132300Z 32010MPS CAVOK 14/M07 Q1006 NOSIG
ZBAA,2025-04-13 23:30,ZBAA 132330Z 32012MPS CAVOK 15/M06 Q1006 NOSIG
ZBAA,2025-04-14 00:00,ZBAA 140000Z 32011MPS CAVOK 15/M06 Q1007 NOSIG
ZBAA,2025-04-14 00:30,ZBAA 140030Z 31010MPS CAVOK 16/M05 Q1007 NOSIG
ZBAA,2025-04-14 01:00,ZBAA 140100Z 32008MPS CAVOK 17/M05 Q1007 NOSIG
ZBAA,2025-04-14 01:30,ZBAA 140130Z 33010MPS CAVOK 19/M05 Q1007 NOSIG
ZBAA,2025-04-14 02:00,ZBAA 140200Z 33010MPS CAVOK 19/M05 Q1008 NOSIG
ZBAA,2025-04-14 02:30,ZBAA 140230Z 33009MPS CAVOK 20/M05 Q1007 NOSIG
ZBAA,2025-04-14 03:00,ZBAA 140300Z 32010MPS CAVOK 21/M04 Q1007 NOSIG
ZBAA,2025-04-14 03:30,ZBAA 140330Z 31011MPS CAVOK 21/M04 Q1007 NOSIG
ZBAA,2025-04-14 04:00,ZBAA 140400Z 30011MPS CAVOK 21/M05 Q1007 NOSIG
ZBAA,2025-04-14 04:30,ZBAA 140430Z 31011G16MPS CAVOK 22/M06 Q1007 NOSIG
ZBAA,2025-04-14 05:00,ZBAA 140500Z 31009MPS CAVOK 23/M06 Q1007 NOSIG
ZBAA,2025-04-14 05:30,ZBAA 140530Z 32008G19MPS 280V350 CAVOK 24/M07 Q1007 NOSIG
ZBAA,2025-04-14 05:35,ZBAA 140535Z 31008G13MPS 290V350 CAVOK 23/M08 Q1006 NOSIG
ZBAA,2025-04-14 06:00,ZBAA 140600Z 31008G13MPS 280V340 CAVOK 24/M09 Q1006 NOSIG
ZBAA,2025-04-14 06:30,ZBAA 140630Z 32009G14MPS 280V350 CAVOK 25/M10 Q1006 NOSIG
ZBAA,2025-04-14 07:00,ZBAA 140700Z 34010MPS CAVOK 25/M10 Q1006 NOSIG
ZBAA,2025-04-14 07:30,ZBAA 140730Z 35009G14MPS CAVOK 26/M06 Q1005 NOSIG
ZBAA,2025-04-14 08:00,ZBAA 140800Z 02005G10MPS 330V050 CAVOK 25/M04 Q1005 NOSIG
ZBAA,2025-04-14 08:30,ZBAA 140830Z 05004MPS 020V100 CAVOK 25/M05 Q1005 NOSIG
ZBAA,2025-04-14 09:00,ZBAA 140900Z 06003MPS 030V100 CAVOK 24/M07 Q1005 NOSIG
ZBAA,2025-04-14 09:30,ZBAA 140930Z 05002MPS 010V090 CAVOK 24/M06 Q1005 NOSIG
ZBAA,2025-04-14 10:00,ZBAA 141000Z VRB01MPS CAVOK 23/M04 Q1005 NOSIG
ZBAA,2025-04-14 10:30,ZBAA 141030Z VRB01MPS CAVOK 21/M02 Q1005 NOSIG
ZBAA,2025-04-14 11:00,ZBAA 141100Z 15001MPS CAVOK 17/M00 Q1006 NOSIG
ZBAA,2025-04-14 11:30,ZBAA 141130Z VRB01MPS CAVOK 15/M02 Q1006 NOSIG
ZBAA,2025-04-14 12:00,ZBAA 141200Z VRB01MPS CAVOK 15/M00 Q1006 NOSIG
ZBAA,2025-04-14 12:30,ZBAA 141230Z 18003MPS CAVOK 15/M00 Q1006 NOSIG
ZBAA,2025-04-14 13:00,ZBAA 141300Z 18002MPS 130V220 CAVOK 17/M02 Q1007 NOSIG
ZBAA,2025-04-14 13:30,ZBAA 141330Z 18002MPS 150V220 CAVOK 18/M02 Q1007 NOSIG
ZBAA,2025-04-14 14:00,ZBAA 141400Z 17002MPS 110V250 CAVOK 16/M02 Q1007 NOSIG
ZBAA,2025-04-14 14:30,ZBAA 141430Z 20003MPS 140V250 CAVOK 19/M04 Q1007 NOSIG
ZBAA,2025-04-14 15:00,ZBAA 141500Z 18002MPS 130V240 CAVOK 15/M03 Q1007 NOSIG
ZBAA,2025-04-14 15:30,ZBAA 141530Z 16001MPS CAVOK 12/M01 Q1007 NOSIG
ZBAA,2025-04-14 16:00,ZBAA 141600Z 09003MPS CAVOK 14/M02 Q1007 NOSIG
ZBAA,2025-04-14 16:30,ZBAA 141630Z 10003MPS CAVOK 14/M01 Q1007 NOSIG
ZBAA,2025-04-14 17:00,ZBAA 141700Z 10002MPS 070V130 CAVOK 12/02 Q1007 NOSIG
ZBAA,2025-04-14 17:30,ZBAA 141730Z 10002MPS 060V130 CAVOK 11/04 Q1007 NOSIG
ZBAA,2025-04-14 18:00,ZBAA 141800Z 10002MPS 050V130 CAVOK 10/04 Q1007 NOSIG
ZBAA,2025-04-14 18:30,ZBAA 141830Z 08002MPS CAVOK 09/04 Q1007 NOSIG
ZBAA,2025-04-14 19:00,ZBAA 141900Z VRB01MPS CAVOK 09/04 Q1007 NOSIG
ZBAA,2025-04-14 19:30,ZBAA 141930Z VRB01MPS CAVOK 08/04 Q1007 NOSIG
ZBAA,2025-04-14 20:00,ZBAA 142000Z 09002MPS 050V130 CAVOK 08/04 Q1007 NOSIG
ZBAA,2025-04-14 20:30,ZBAA 142030Z VRB01MPS CAVOK 07/04 Q1006 NOSIG
ZBAA,2025-04-14 21:00,ZBAA 142100Z VRB01MPS CAVOK 06/04 Q1006 NOSIG
ZBAA,2025-04-14 21:30,ZBAA 142130Z 00000MPS 8000 NSC 05/03 Q1006 NOSIG
ZBAA,2025-04-14 22:00,ZBAA 142200Z 18001MPS 8000 NSC 05/03 Q1006 NOSIG
ZBAA,2025-04-14 22:30,ZBAA 142230Z 14001MPS CAVOK 06/04 Q1006 NOSIG
ZBAA,2025-04-14 23:00,ZBAA 142300Z 00000MPS CAVOK 10/06 Q1006 NOSIG
ZBAA,2025-04-14 23:30,ZBAA 142330Z VRB01MPS CAVOK 12/05 Q1006 NOSIG
ZBAA,2025-04-15 00:00,ZBAA 150000Z VRB01MPS CAVOK 13/05 Q1006 NOSIG
ZBAA,2025-04-15 00:30,ZBAA 150030Z VRB01MPS CAVOK 14/05 Q1006 NOSIG
ZBAA,2025-04-15 01:00,ZBAA 150100Z VRB01MPS CAVOK 16/05 Q1006 NOSIG
ZBAA,2025-04-15 01:30,ZBAA 150130Z VRB02MPS CAVOK 17/05 Q1006 NOSIG
ZBAA,2025-04-15 02:00,ZBAA 150200Z VRB02MPS CAVOK 19/05 Q1005 NOSIG
ZBAA,2025-04-15 02:30,ZBAA 150230Z VRB01MPS CAVOK 21/06 Q1005 NOSIG
ZBAA,2025-04-15 03:00,ZBAA 150300Z VRB02MPS CAVOK 22/05 Q1004 NOSIG
ZBAA,2025-04-15 03:30,ZBAA 150330Z 21003MPS 140V270 CAVOK 24/06 Q1003 NOSIG
ZBAA,2025-04-15 04:00,ZBAA 150400Z 19003MPS 150V230 CAVOK 26/05 Q1002 NOSIG
ZBAA,2025-04-15 04:30,ZBAA 150430Z 18003MPS 110V230 CAVOK 28/04 Q1002 NOSIG
ZBAA,2025-04-15 05:00,ZBAA 150500Z 20004MPS CAVOK 29/03 Q1001 NOSIG
ZBAA,2025-04-15 05:30,ZBAA 150530Z 20004MPS 180V240 CAVOK 31/04 Q1000 NOSIG
ZBAA,2025-04-15 06:00,ZBAA 150600Z 21007MPS CAVOK 32/M03 Q0999 NOSIG
ZBAA,2025-04-15 06:30,ZBAA 150630Z 23007MPS 200V260 CAVOK 33/M01 Q0999 NOSIG
ZBAA,2025-04-15 07:00,ZBAA 150700Z 21008MPS CAVOK 33/M01 Q0998 NOSIG
ZBAA,2025-04-15 07:30,ZBAA 150730Z 21007MPS CAVOK 32/00 Q0998 NOSIG
ZBAA,2025-04-15 08:00,ZBAA 150800Z 22008MPS CAVOK 32/00 Q0998 NOSIG
ZBAA,2025-04-15 08:30,ZBAA 150830Z 22007G12MPS CAVOK 32/M01 Q0997 NOSIG
ZBAA,2025-04-15 09:00,ZBAA 150900Z 22009MPS CAVOK 30/00 Q0997 NOSIG
ZBAA,2025-04-15 09:30,ZBAA 150930Z 22007MPS CAVOK 29/01 Q0997 NOSIG
ZBAA,2025-04-15 10:00,ZBAA 151000Z 22008MPS CAVOK 29/01 Q0997 NOSIG
ZBAA,2025-04-15 10:30,ZBAA 151030Z 22006MPS CAVOK 28/02 Q0997 NOSIG
ZBAA,2025-04-15 11:00,ZBAA 151100Z 21006MPS CAVOK 27/03 Q0997 NOSIG
ZBAA,2025-04-15 11:30,ZBAA 151130Z 21006MPS CAVOK 26/03 Q0998 NOSIG
ZBAA,2025-04-15 12:00,ZBAA 151200Z 20006MPS CAVOK 26/03 Q0998 NOSIG
ZBAA,2025-04-15 12:30,ZBAA 151230Z 21006MPS CAVOK 25/03 Q0998 NOSIG
ZBAA,2025-04-15 13:00,ZBAA 151300Z 21006MPS CAVOK 25/03 Q0998 NOSIG
ZBAA,2025-04-15 13:30,ZBAA 151330Z 22006MPS CAVOK 25/03 Q0998 NOSIG
ZBAA,2025-04-15 14:00,ZBAA 151400Z 21004MPS 170V230 CAVOK 24/04 Q0998 NOSIG
ZBAA,2025-04-15 14:30,ZBAA 151430Z VRB02MPS CAVOK 23/05 Q0998 NOSIG
ZBAA,2025-04-15 15:00,ZBAA 151500Z 23003MPS CAVOK 23/05 Q0998 NOSIG
ZBAA,2025-04-15 15:30,ZBAA 151530Z 20002MPS 170V240 CAVOK 22/06 Q0998 NOSIG
ZBAA,2025-04-15 16:00,ZBAA 151600Z 12002MPS CAVOK 17/05 Q0998 NOSIG
ZBAA,2025-04-15 16:30,ZBAA 151630Z 11002MPS 050V170 CAVOK 19/06 Q0998 NOSIG
ZBAA,2025-04-15 17:00,ZBAA 151700Z VRB01MPS CAVOK 17/06 Q0998 NOSIG
ZBAA,2025-04-15 17:30,ZBAA 151730Z 11002MPS 060V140 CAVOK 17/06 Q0998 NOSIG
ZBAA,2025-04-15 18:00,ZBAA 151800Z 10003MPS CAVOK 18/06 Q0998 NOSIG
ZBAA,2025-04-15 18:30,ZBAA 151830Z 12004MPS 080V150 CAVOK 16/06 Q0998 NOSIG
ZBAA,2025-04-15 19:00,ZBAA 151900Z 10002MPS 050V160 CAVOK 14/05 Q0998 NOSIG
ZBAA,2025-04-15 19:30,ZBAA 151930Z 11002MPS 020V150 CAVOK 14/05 Q0998 NOSIG
ZBAA,2025-04-15 20:00,ZBAA 152000Z 16003MPS 080V200 CAVOK 14/06 Q0999 NOSIG
ZBAA,2025-04-15 20:30,ZBAA 152030Z 14002MPS 060V190 CAVOK 14/06 Q0998 NOSIG
ZBAA,2025-04-15 21:00,ZBAA 152100Z VRB01MPS CAVOK 13/05 Q0998 NOSIG
ZBAA,2025-04-15 21:30,ZBAA 152130Z VRB01MPS 8000 NSC 14/06 Q0998 NOSIG
ZBAA,2025-04-15 22:00,ZBAA 152200Z VRB01MPS 8000 NSC 13/06 Q0998 NOSIG
ZBAA,2025-04-15 22:30,ZBAA 152230Z 15003MPS 110V180 8000 NSC 14/06 Q0999 NOSIG
ZBAA,2025-04-15 23:00,ZBAA 152300Z 19002MPS 150V240 8000 NSC 14/06 Q0999 NOSIG
ZBAA,2025-04-15 23:30,ZBAA 152330Z 12003MPS 070V160 8000 NSC 15/06 Q0998 NOSIG
ZBAA,2025-04-16 00:00,ZBAA 160000Z 10003MPS 040V140 8000 NSC 15/06 Q0998 NOSIG
ZBAA,2025-04-16 00:30,ZBAA 160030Z 10003MPS 070V150 8000 NSC 16/06 Q0998 NOSIG
ZBAA,2025-04-16 01:00,ZBAA 160100Z 10002MPS 050V140 8000 NSC 16/06 Q0998 NOSIG
ZBAA,2025-04-16 01:30,ZBAA 160130Z 14003MPS 050V190 8000 NSC 17/06 Q0998 NOSIG
ZBAA,2025-04-16 02:00,ZBAA 160200Z VRB03MPS 8000 NSC 18/07 Q0998 NOSIG
ZBAA,2025-04-16 02:30,ZBAA 160230Z 20003MPS 140V260 8000 NSC 19/07 Q0998 NOSIG
ZBAA,2025-04-16 03:00,ZBAA 160300Z VRB02MPS 8000 NSC 21/07 Q0997 NOSIG
ZBAA,2025-04-16 03:30,ZBAA 160330Z 19002MPS 130V280 8000 NSC 21/07 Q0997 NOSIG
ZBAA,2025-04-16 04:00,ZBAA 160400Z 15003MPS 120V210 8000 NSC 22/08 Q0996 NOSIG
ZBAA,2025-04-16 04:30,ZBAA 160430Z 17004MPS 130V210 8000 NSC 23/07 Q0996 NOSIG
ZBAA,2025-04-16 05:00,ZBAA 160500Z 16004MPS 120V200 8000 NSC 24/08 Q0996 NOSIG
ZBAA,2025-04-16 05:30,ZBAA 160530Z 18005MPS 8000 NSC 24/08 Q0995 NOSIG
ZBAA,2025-04-16 06:00,ZBAA 160600Z 16004MPS 100V190 8000 NSC 25/08 Q0995 NOSIG
ZBAA,2025-04-16 06:30,ZBAA 160630Z 17004MPS 140V200 8000 NSC 26/08 Q0995 NOSIG
ZBAA,2025-04-16 07:00,ZBAA 160700Z 15004MPS 100V180 8000 NSC 26/08 Q0994 NOSIG
ZBAA,2025-04-16 07:30,ZBAA 160730Z 16004MPS 100V260 8000 NSC 25/08 Q0994 NOSIG
ZBAA,2025-04-16 08:00,ZBAA 160800Z 16004MPS 120V200 8000 NSC 25/09 Q0995 NOSIG
ZBAA,2025-04-16 08:30,ZBAA 160830Z 14004MPS 8000 NSC 25/09 Q0995 NOSIG
ZBAA,2025-04-16 09:00,ZBAA 160900Z 13004MPS 050V170 8000 NSC 25/09 Q0994 NOSIG
ZBAA,2025-04-16 09:30,ZBAA 160930Z 06003MPS 020V130 8000 NSC 24/09 Q0996 NOSIG
ZBAA,2025-04-16 10:00,ZBAA 161000Z 11004MPS 080V140 8000 NSC 24/10 Q0995 NOSIG
ZBAA,2025-04-16 10:30,ZBAA 161030Z 12004MPS 070V160 8000 NSC 23/10 Q0995 NOSIG
ZBAA,2025-04-16 11:00,ZBAA 161100Z 07002MPS 020V130 8000 NSC 22/10 Q0996 NOSIG
ZBAA,2025-04-16 11:30,ZBAA 161130Z 11002MPS 070V160 8000 NSC 22/10 Q0997 NOSIG
ZBAA,2025-04-16 12:00,ZBAA 161200Z VRB01MPS 8000 NSC 21/10 Q0998 NOSIG
ZBAA,2025-04-16 12:30,ZBAA 161230Z 14004G09MPS 110V170 8000 NSC 21/10 Q0997 NOSIG
ZBAA,2025-04-16 13:00,ZBAA 161300Z 15004MPS 8000 NSC 21/10 Q0998 NOSIG
ZBAA,2025-04-16 13:30,ZBAA 161330Z 11002MPS 040V200 8000 NSC 20/09 Q0999 NOSIG
ZBAA,2025-04-16 14:00,ZBAA 161400Z 14003MPS 8000 NSC 19/08 Q0998 NOSIG
ZBAA,2025-04-16 14:30,ZBAA 161430Z 16003MPS 8000 NSC 19/08 Q0999 NOSIG
ZBAA,2025-04-16 15:00,ZBAA 161500Z 10003MPS 060V130 8000 NSC 18/08 Q0998 NOSIG
ZBAA,2025-04-16 15:30,ZBAA 161530Z 11003MPS 060V160 8000 NSC 17/08 Q0999 NOSIG
ZBAA,2025-04-16 16:00,ZBAA 161600Z 12002MPS 8000 NSC 16/07 Q0999 NOSIG
ZBAA,2025-04-16 16:30,ZBAA 161630Z 16002MPS 120V180 8000 NSC 16/07 Q0999 NOSIG
ZBAA,2025-04-16 17:00,ZBAA 161700Z 15002MPS 8000 NSC 15/06 Q0999 NOSIG
ZBAA,2025-04-16 17:30,ZBAA 161730Z 17002MPS 8000 NSC 15/06 Q0999 NOSIG
ZBAA,2025-04-16 18:00,ZBAA 161800Z 17003MPS 8000 NSC 14/07 Q0999 NOSIG
ZBAA,2025-04-16 18:30,ZBAA 161830Z 18003MPS 8000 NSC 15/06 Q0999 NOSIG
ZBAA,2025-04-16 19:00,ZBAA 161900Z 16002MPS 110V240 8000 NSC 14/07 Q0999 NOSIG
ZBAA,2025-04-16 19:30,ZBAA 161930Z 21002MPS 180V240 8000 NSC 15/06 Q0999 NOSIG
ZBAA,2025-04-16 20:00,ZBAA 162000Z 14002MPS 110V190 8000 NSC 13/06 Q0999 NOSIG
ZBAA,2025-04-16 20:30,ZBAA 162030Z VRB01MPS 8000 NSC 12/06 Q0999 NOSIG
ZBAA,2025-04-16 21:00,ZBAA 162100Z VRB01MPS 8000 NSC 11/06 Q0999 NOSIG
ZBAA,2025-04-16 21:30,ZBAA 162130Z VRB01MPS 7000 NSC 11/07 Q0999 NOSIG
ZBAA,2025-04-16 22:00,ZBAA 162200Z 11001MPS 7000 NSC 10/07 Q0999 NOSIG
ZBAA,2025-04-16 22:30,ZBAA 162230Z 04001MPS 7000 NSC 11/07 Q1000 NOSIG
ZBAA,2025-04-16 23:00,ZBAA 162300Z VRB01MPS 7000 NSC 14/08 Q1000 NOSIG
ZBAA,2025-04-16 23:30,ZBAA 162330Z VRB01MPS 7000 NSC 16/07 Q1000 NOSIG
ZBAA,2025-04-17 00:00,ZBAA 170000Z VRB01MPS 8000 NSC 18/07 Q1000 NOSIG
ZBAA,2025-04-17 00:30,ZBAA 170030Z 27002MPS 170V340 8000 NSC 18/07 Q1001 NOSIG
ZBAA,2025-04-17 01:00,ZBAA 170100Z VRB01MPS 7000 NSC 19/07 Q1001 NOSIG
ZBAA,2025-04-17 01:30,ZBAA 170130Z VRB01MPS 7000 NSC 20/07 Q1001 NOSIG
ZBAA,2025-04-17 02:00,ZBAA 170200Z VRB01MPS 7000 NSC 22/07 Q1001 BECMG TL0340 34005MPS
ZBAA,2025-04-17 02:30,ZBAA 170230Z 32002MPS 270V060 7000 NSC 25/08 Q1001 NOSIG
ZBAA,2025-04-17 03:00,ZBAA 170300Z 30002MPS 240V050 CAVOK 25/07 Q1000 NOSIG
ZBAA,2025-04-17 03:30,ZBAA 170330Z 33003MPS 270V040 CAVOK 28/05 Q1000 NOSIG
ZBAA,2025-04-17 04:00,ZBAA 170400Z 31005MPS 240V010 CAVOK 28/04 Q1000 NOSIG
ZBAA,2025-04-17 04:30,ZBAA 170430Z 30004MPS 220V340 CAVOK 29/03 Q0999 NOSIG
ZBAA,2025-04-17 04:44,ZBAA 170444Z 01005MPS 310V030 CAVOK 30/03 Q0999 NOSIG
ZBAA,2025-04-17 04:47,ZBAA 170447Z 30004MPS CAVOK 30/03 Q0999 NOSIG
ZBAA,2025-04-17 05:00,ZBAA 170500Z 33006MPS 300V010 CAVOK 31/03 Q0999 NOSIG
ZBAA,2025-04-17 05:30,ZBAA 170530Z 32007G13MPS 280V020 CAVOK 30/03 Q0999 NOSIG
ZBAA,2025-04-17 06:00,ZBAA 170600Z 36008MPS 320V040 CAVOK 30/03 Q0999 NOSIG
ZBAA,2025-04-17 06:18,ZBAA 170618Z 02003MPS 340V070 CAVOK 29/03 Q0999 NOSIG
ZBAA,2025-04-17 06:30,ZBAA 170630Z 05002MPS 010V100 CAVOK 29/02 Q0999 NOSIG
ZBAA,2025-04-17 07:00,ZBAA 170700Z 04004MPS 360V090 9999 -SHRA NSC 28/06 Q0999 NOSIG
ZBAA,2025-04-17 07:30,ZBAA 170730Z 03003MPS 360V080 9999 -SHRA NSC 28/04 Q0999 NOSIG
ZBAA,2025-04-17 08:00,ZBAA 170800Z 01005MPS 350V060 CAVOK 29/03 Q0999 NOSIG
ZBAA,2025-04-17 08:30,ZBAA 170830Z 35007MPS CAVOK 29/02 Q0999 NOSIG
ZBAA,2025-04-17 09:00,ZBAA 170900Z 03005MPS CAVOK 28/03 Q1000 NOSIG
ZBAA,2025-04-17 09:30,ZBAA 170930Z 03006MPS 360V060 CAVOK 27/02 Q1000 NOSIG
ZBAA,2025-04-17 10:00,ZBAA 171000Z 02005MPS 350V050 CAVOK 27/01 Q1001 NOSIG
ZBAA,2025-04-17 10:30,ZBAA 171030Z 04003MPS 360V070 CAVOK 26/01 Q1002 NOSIG
ZBAA,2025-04-17 11:00,ZBAA 171100Z 03004MPS 360V070 CAVOK 25/01 Q1002 NOSIG
ZBAA,2025-04-17 11:30,ZBAA 171130Z 02006MPS CAVOK 24/01 Q1004 NOSIG
ZBAA,2025-04-17 12:00,ZBAA 171200Z 02007MPS 350V050 CAVOK 23/01 Q1004 NOSIG
ZBAA,2025-04-17 12:30,ZBAA 171230Z 03006MPS 350V060 CAVOK 22/02 Q1006 NOSIG
ZBAA,2025-04-17 13:00,ZBAA 171300Z 03007G12MPS 360V070 CAVOK 21/01 Q1006 NOSIG
ZBAA,2025-04-17 13:30,ZBAA 171330Z 05005G10MPS 010V090 CAVOK 21/01 Q1007 NOSIG
ZBAA,2025-04-17 14:00,ZBAA 171400Z 04006MPS 020V080 CAVOK 20/01 Q1008 BECMG TL1540 10004MPS
ZBAA,2025-04-17 14:30,ZBAA 171430Z 05004MPS CAVOK 20/M00 Q1008 NOSIG
ZBAA,2025-04-17 15:00,ZBAA 171500Z 06004MPS 020V100 CAVOK 20/M01 Q1009 NOSIG
ZBAA,2025-04-17 15:30,ZBAA 171530Z 05003MPS CAVOK 19/M00 Q1009 NOSIG
ZBAA,2025-04-17 16:00,ZBAA 171600Z 05002MPS 010V070 CAVOK 19/M01 Q1009 NOSIG
ZBAA,2025-04-17 16:30,ZBAA 171630Z 07002MPS CAVOK 19/M01 Q1010 NOSIG
ZBAA,2025-04-17 17:00,ZBAA 171700Z 06002MPS 040V100 CAVOK 19/M01 Q1010 NOSIG
ZBAA,2025-04-17 17:30,ZBAA 171730Z 07002MPS 040V100 CAVOK 19/M01 Q1010 NOSIG
ZBAA,2025-04-17 18:00,ZBAA 171800Z 04002MPS CAVOK 17/M00 Q1010 NOSIG
ZBAA,2025-04-17 18:30,ZBAA 171830Z VRB01MPS CAVOK 17/M00 Q1011 NOSIG
ZBAA,2025-04-17 19:00,ZBAA 171900Z 02002MPS CAVOK 17/00 Q1011 NOSIG
ZBAA,2025-04-17 19:30,ZBAA 171930Z 04002MPS 360V070 CAVOK 18/M01 Q1011 NOSIG
ZBAA,2025-04-17 20:00,ZBAA 172000Z 04002MPS 360V080 CAVOK 18/M02 Q1011 NOSIG
ZBAA,2025-04-17 20:30,ZBAA 172030Z 02003MPS CAVOK 18/M02 Q1011 NOSIG
ZBAA,2025-04-17 21:00,ZBAA 172100Z 01002MPS 350V060 CAVOK 17/M02 Q1012 NOSIG
ZBAA,2025-04-17 21:30,ZBAA 172130Z 04003MPS CAVOK 18/M02 Q1012 NOSIG
ZBAA,2025-04-17 22:00,ZBAA 172200Z 02003MPS 330V070 CAVOK 17/01 Q1013 NOSIG
ZBAA,2025-04-17 22:30,ZBAA 172230Z 02002MPS 350V050 CAVOK 17/02 Q1013 NOSIG
ZBAA,2025-04-17 23:00,ZBAA 172300Z 34003MPS 310V020 CAVOK 18/00 Q1013 NOSIG
ZBAA,2025-04-17 23:30,ZBAA 172330Z 35003MPS CAVOK 18/M00 Q1013 NOSIG
ZBAA,2025-04-18 00:00,ZBAA 180000Z 01003MPS CAVOK 17/00 Q1013 NOSIG
ZBAA,2025-04-18 00:30,ZBAA 180030Z 33003MPS 9999 -SHRA NSC 17/M00 Q1013 NOSIG
ZBAA,2025-04-18 01:00,ZBAA 180100Z 10002MPS 9999 -SHRA NSC 16/05 Q1014 NOSIG
ZBAA,2025-04-18 01:30,ZBAA 180130Z VRB01MPS 9999 -RA NSC 15/09 Q1015 NOSIG
ZBAA,2025-04-18 02:00,ZBAA 180200Z 15003MPS 9999 -RA NSC 15/05 Q1015 NOSIG
ZBAA,2025-04-18 02:30,ZBAA 180230Z VRB01MPS 9999 -RA NSC 15/09 Q1015 NOSIG
ZBAA,2025-04-18 03:00,ZBAA 180300Z VRB01MPS 9999 -RA NSC 15/04 Q1015 NOSIG
ZBAA,2025-04-18 03:30,ZBAA 180330Z VRB02MPS 9999 -RA NSC 15/04 Q1015 NOSIG
ZBAA,2025-04-18 04:00,ZBAA 180400Z 24003MPS 190V300 9999 -RA NSC 14/06 Q1015 NOSIG
ZBAA,2025-04-18 04:30,ZBAA 180430Z 30003MPS 260V350 9999 -RA NSC 13/07 Q1015 NOSIG
ZBAA,2025-04-18 05:00,ZBAA 180500Z 31002MPS 280V350 8000 -RA NSC 12/08 Q1015 NOSIG
ZBAA,2025-04-18 05:30,ZBAA 180530Z 28002MPS 240V340 8000 -RA NSC 12/08 Q1015 NOSIG
ZBAA,2025-04-18 06:00,ZBAA 180600Z 02002MPS 8000 -RA NSC 11/09 Q1014 NOSIG
ZBAA,2025-04-18 06:30,ZBAA 180630Z 03002MPS 8000 -RA FEW015 11/09 Q1014 NOSIG
ZBAA,2025-04-18 07:00,ZBAA 180700Z 35002MPS 310V030 8000 -RA FEW015 11/09 Q1014 NOSIG
ZBAA,2025-04-18 07:30,ZBAA 180730Z 02002MPS 8000 -RA SCT015 10/09 Q1014 NOSIG
ZBAA,2025-04-18 08:00,ZBAA 180800Z 01003MPS 340V050 9999 -RA SCT020 10/09 Q1014 NOSIG
ZBAA,2025-04-18 08:30,ZBAA 180830Z 01002MPS 9999 -RA FEW020 10/09 Q1013 NOSIG
ZBAA,2025-04-18 09:00,ZBAA 180900Z 02002MPS 9999 -RA NSC 10/09 Q1014 NOSIG
ZBAA,2025-04-18 09:30,ZBAA 180930Z 02002MPS 9999 -RA NSC 10/09 Q1014 NOSIG
ZBAA,2025-04-18 10:00,ZBAA 181000Z VRB01MPS 9999 -RA NSC 10/09 Q1013 NOSIG
ZBAA,2025-04-18 10:30,ZBAA 181030Z VRB01MPS 9999 -RA FEW020 10/09 Q1013 NOSIG
ZBAA,2025-04-18 11:00,ZBAA 181100Z VRB01MPS 9999 -RA FEW020 10/09 Q1013 NOSIG
ZBAA,2025-04-18 11:30,ZBAA 181130Z VRB01MPS 9999 -RA FEW020 10/09 Q1013 NOSIG
ZBAA,2025-04-18 12:00,ZBAA 181200Z 00000MPS 9999 FEW008 10/09 Q1013 NOSIG
ZBAA,2025-04-18 12:30,ZBAA 181230Z 00000MPS 9999 SCT006 10/09 Q1013 NOSIG
ZBAA,2025-04-18 13:00,ZBAA 181300Z VRB01MPS 9999 SCT006 10/09 Q1013 NOSIG
ZBAA,2025-04-18 13:30,ZBAA 181330Z VRB01MPS 9999 SCT006 10/09 Q1012 NOSIG
ZBAA,2025-04-18 14:00,ZBAA 181400Z VRB01MPS 9999 SCT009 10/09 Q1012 NOSIG
ZBAA,2025-04-18 14:30,ZBAA 181430Z VRB01MPS 9999 FEW009 10/09 Q1012 NOSIG
ZBAA,2025-04-18 15:00,ZBAA 181500Z 00000MPS 9999 SCT040 10/09 Q1012 NOSIG
ZBAA,2025-04-18 15:30,ZBAA 181530Z 00000MPS 9999 SCT040 10/09 Q1012 NOSIG
ZBAA,2025-04-18 16:00,ZBAA 181600Z VRB01MPS 9999 SCT033 10/09 Q1012 NOSIG
ZBAA,2025-04-18 16:30,ZBAA 181630Z 16001MPS 9999 SCT033 10/09 Q1011 NOSIG
ZBAA,2025-04-18 17:00,ZBAA 181700Z 11001MPS 8000 FEW015 SCT033 10/09 Q1011 NOSIG
ZBAA,2025-04-18 17:30,ZBAA 181730Z 01001MPS 8000 FEW015 SCT033 10/09 Q1011 NOSIG
ZBAA,2025-04-18 18:00,ZBAA 181800Z 03002MPS 360V060 8000 -SHRA FEW008 10/09 Q1011 NOSIG
ZBAA,2025-04-18 18:30,ZBAA 181830Z 17003MPS 8000 -SHRA FEW008 10/09 Q1010 NOSIG
ZBAA,2025-04-18 19:00,ZBAA 181900Z VRB01MPS 8000 SCT008 10/09 Q1010 NOSIG
ZBAA,2025-04-18 19:30,ZBAA 181930Z 14001MPS 6000 SCT008 10/09 Q1010 NOSIG
ZBAA,2025-04-18 20:00,ZBAA 182000Z VRB01MPS 6000 SCT008 10/10 Q1010 NOSIG
ZBAA,2025-04-18 20:30,ZBAA 182030Z 00000MPS 6000 SCT008 10/10 Q1009 NOSIG
ZBAA,2025-04-18 21:00,ZBAA 182100Z VRB01MPS 6000 SCT010 10/10 Q1009 NOSIG
ZBAA,2025-04-18 21:30,ZBAA 182130Z VRB01MPS 5000 BR SCT010 10/10 Q1010 NOSIG
ZBAA,2025-04-18 22:00,ZBAA 182200Z VRB01MPS 5000 BR FEW010 10/10 Q1010 NOSIG
ZBAA,2025-04-18 22:30,ZBAA 182230Z 00000MPS 5000 BR FEW010 11/10 Q1009 NOSIG
ZBAA,2025-04-18 23:00,ZBAA 182300Z VRB01MPS 5000 BR FEW026 11/10 Q1009 NOSIG
ZBAA,2025-04-18 23:30,ZBAA 182330Z VRB01MPS 5000 BR FEW026 12/10 Q1010 NOSIG
ZBAA,2025-04-19 00:00,ZBAA 190000Z VRB02MPS 5000 BR FEW016 12/10 Q1010 NOSIG
ZBAA,2025-04-19 00:30,ZBAA 190030Z 31002MPS 260V030 8000 FEW016 13/09 Q1010 NOSIG
ZBAA,2025-04-19 01:00,ZBAA 190100Z 02002MPS 310V050 CAVOK 14/09 Q1011 NOSIG
ZBAA,2025-04-19 01:30,ZBAA 190130Z VRB01MPS CAVOK 14/09 Q1011 NOSIG
ZBAA,2025-04-19 02:00,ZBAA 190200Z 07002MPS 010V120 CAVOK 15/09 Q1011 NOSIG
ZBAA,2025-04-19 02:30,ZBAA 190230Z VRB01MPS CAVOK 15/09 Q1011 NOSIG
ZBAA,2025-04-19 03:00,ZBAA 190300Z VRB01MPS CAVOK 16/09 Q1011 NOSIG
ZBAA,2025-04-19 03:30,ZBAA 190330Z 30002MPS 220V020 CAVOK 17/08 Q1011 NOSIG
ZBAA,2025-04-19 04:00,ZBAA 190400Z VRB02MPS CAVOK 18/09 Q1010 NOSIG
ZBAA,2025-04-19 04:30,ZBAA 190430Z 22002MPS 140V310 CAVOK 18/08 Q1010 NOSIG
ZBAA,2025-04-19 05:00,ZBAA 190500Z VRB02MPS CAVOK 19/08 Q1009 NOSIG
ZBAA,2025-04-19 05:30,ZBAA 190530Z 25002MPS 180V310 CAVOK 20/08 Q1009 NOSIG
ZBAA,2025-04-19 06:00,ZBAA 190600Z VRB01MPS CAVOK 21/09 Q1008 NOSIG
ZBAA,2025-04-19 06:30,ZBAA 190630Z VRB02MPS CAVOK 22/09 Q1008 NOSIG
ZBAA,2025-04-19 07:00,ZBAA 190700Z VRB02MPS CAVOK 22/08 Q1008 NOSIG
ZBAA,2025-04-19 07:30,ZBAA 190730Z 19003MPS 150V290 CAVOK 22/08 Q1008 NOSIG
ZBAA,2025-04-19 08:00,ZBAA 190800Z 18004MPS 140V230 CAVOK 23/07 Q1007 NOSIG
ZBAA,2025-04-19 08:30,ZBAA 190830Z 19002MPS 110V240 CAVOK 23/06 Q1007 NOSIG
ZBAA,2025-04-19 09:00,ZBAA 190900Z 20003MPS 170V250 CAVOK 23/06 Q1008 NOSIG
ZBAA,2025-04-19 09:30,ZBAA 190930Z 21005MPS 180V240 CAVOK 22/08 Q1008 NOSIG
ZBAA,2025-04-19 10:00,ZBAA 191000Z 19004MPS 170V230 CAVOK 21/08 Q1008 NOSIG
ZBAA,2025-04-19 10:30,ZBAA 191030Z 19004MPS 170V230 CAVOK 21/08 Q1008 NOSIG
ZBAA,2025-04-19 11:00,ZBAA 191100Z 19003MPS CAVOK 20/08 Q1009 NOSIG
ZBAA,2025-04-19 11:30,ZBAA 191130Z 20003MPS CAVOK 20/08 Q1009 NOSIG
ZBAA,2025-04-19 12:00,ZBAA 191200Z 21004MPS 180V250 CAVOK 20/08 Q1010 NOSIG
ZBAA,2025-04-19 12:30,ZBAA 191230Z 19002MPS 160V230 CAVOK 19/09 Q1010 NOSIG
ZBAA,2025-04-19 13:00,ZBAA 191300Z 18003MPS CAVOK 17/09 Q1010 NOSIG
ZBAA,2025-04-19 13:30,ZBAA 191330Z 16002MPS CAVOK 15/10 Q1010 NOSIG
ZBAA,2025-04-19 14:00,ZBAA 191400Z 18003MPS 150V220 CAVOK 17/10 Q1010 NOSIG
ZBAA,2025-04-19 14:30,ZBAA 191430Z 19002MPS 160V230 CAVOK 16/10 Q1010 NOSIG
ZBAA,2025-04-19 15:00,ZBAA 191500Z VRB01MPS CAVOK 14/09 Q1010 NOSIG
ZBAA,2025-04-19 15:30,ZBAA 191530Z VRB01MPS CAVOK 13/10 Q1010 NOSIG
ZBAA,2025-04-19 16:00,ZBAA 191600Z 07001MPS CAVOK 12/10 Q1011 NOSIG
ZBAA,2025-04-19 16:30,ZBAA 191630Z VRB01MPS CAVOK 12/10 Q1011 NOSIG
ZBAA,2025-04-19 17:00,ZBAA 191700Z VRB01MPS CAVOK 12/11 Q1011 NOSIG
ZBAA,2025-04-19 17:30,ZBAA 191730Z VRB01MPS CAVOK 11/10 Q1011 NOSIG
ZBAA,2025-04-19 18:00,ZBAA 191800Z VRB01MPS CAVOK 11/10 Q1011 NOSIG
ZBAA,2025-04-19 18:30,ZBAA 191830Z VRB01MPS CAVOK 13/11 Q1011 NOSIG
ZBAA,2025-04-19 19:00,ZBAA 191900Z VRB01MPS CAVOK 13/10 Q1011 NOSIG
ZBAA,2025-04-19 19:30,ZBAA 191930Z 09002MPS 060V130 CAVOK 13/11 Q1011 NOSIG
ZBAA,2025-04-19 20:00,ZBAA 192000Z 10002MPS 050V130 CAVOK 12/10 Q1012 NOSIG
ZBAA,2025-04-19 20:30,ZBAA 192030Z 10002MPS 080V140 CAVOK 13/10 Q1012 NOSIG
ZBAA,2025-04-19 21:00,ZBAA 192100Z 10002MPS 7000 NSC 12/10 Q1012 NOSIG
ZBAA,2025-04-19 21:30,ZBAA 192130Z 08002MPS 050V110 5000 BR NSC 12/10 Q1012 NOSIG
ZBAA,2025-04-19 22:00,ZBAA 192200Z 08001MPS 4000 BR NSC 11/10 Q1012 NOSIG
ZBAA,2025-04-19 22:30,ZBAA 192230Z VRB01MPS 4000 BR NSC 13/11 Q1013 NOSIG
ZBAA,2025-04-19 23:00,ZBAA 192300Z VRB01MPS 4000 BR NSC 13/11 Q1013 NOSIG
ZBAA,2025-04-19 23:30,ZBAA 192330Z 14001MPS 4000 BR NSC 14/11 Q1014 NOSIG
ZBAA,2025-04-20 00:00,ZBAA 200000Z 14002MPS 100V190 4000 BR NSC 15/12 Q1014 NOSIG
ZBAA,2025-04-20 00:30,ZBAA 200030Z 13002MPS 090V160 4000 BR NSC 16/12 Q1014 NOSIG
ZBAA,2025-04-20 01:00,ZBAA 200100Z VRB01MPS 4000 BR NSC 17/12 Q1014 NOSIG
ZBAA,2025-04-20 01:30,ZBAA 200130Z 13002MPS 050V180 5000 BR NSC 17/12 Q1014 NOSIG
ZBAA,2025-04-20 02:00,ZBAA 200200Z 15002MPS 120V190 5000 BR NSC 18/12 Q1014 NOSIG
ZBAA,2025-04-20 02:30,ZBAA 200230Z 12002MPS 030V190 5000 HZ NSC 19/13 Q1014 NOSIG
ZBAA,2025-04-20 03:00,ZBAA 200300Z 21002G07MPS 170V270 5000 HZ NSC 20/12 Q1014 NOSIG
ZBAA,2025-04-20 03:30,ZBAA 200330Z VRB02MPS 5000 HZ SCT040 21/12 Q1013 NOSIG
ZBAA,2025-04-20 04:00,ZBAA 200400Z 20003MPS 150V250 6000 FEW040 21/12 Q1013 NOSIG
ZBAA,2025-04-20 04:30,ZBAA 200430Z 16003MPS 140V210 6000 FEW040 21/11 Q1012 NOSIG
ZBAA,2025-04-20 05:00,ZBAA 200500Z VRB02MPS 8000 NSC 22/12 Q1013 NOSIG
ZBAA,2025-04-20 05:30,ZBAA 200530Z 15003MPS 100V240 8000 NSC 23/11 Q1012 NOSIG
ZBAA,2025-04-20 06:00,ZBAA 200600Z 13003MPS 070V180 CAVOK 24/11 Q1012 NOSIG
ZBAA,2025-04-20 06:30,ZBAA 200630Z 14004MPS 110V200 CAVOK 24/09 Q1011 NOSIG
ZBAA,2025-04-20 07:00,ZBAA 200700Z 16004MPS 100V200 CAVOK 24/09 Q1010 NOSIG
ZBAA,2025-04-20 07:30,ZBAA 200730Z 12003MPS 070V200 CAVOK 23/09 Q1010 NOSIG
ZBAA,2025-04-20 08:00,ZBAA 200800Z 15004MPS 110V180 CAVOK 24/07 Q1009 NOSIG
ZBAA,2025-04-20 08:30,ZBAA 200830Z 16004MPS 120V180 CAVOK 24/07 Q1009 NOSIG
ZBAA,2025-04-20 09:00,ZBAA 200900Z 15004MPS CAVOK 24/07 Q1009 NOSIG
ZBAA,2025-04-20 09:30,ZBAA 200930Z 14003MPS 100V170 CAVOK 23/07 Q1009 NOSIG
ZBAA,2025-04-20 10:00,ZBAA 201000Z 12004MPS 080V160 CAVOK 22/11 Q1009 NOSIG
ZBAA,2025-04-20 10:30,ZBAA 201030Z 11004MPS 080V140 CAVOK 21/10 Q1009 NOSIG
ZBAA,2025-04-20 11:00,ZBAA 201100Z 12004MPS 080V140 CAVOK 21/09 Q1009 NOSIG
ZBAA,2025-04-20 11:30,ZBAA 201130Z 11003MPS 070V150 CAVOK 20/08 Q1010 NOSIG
ZBAA,2025-04-20 12:00,ZBAA 201200Z 13004MPS CAVOK 20/07 Q1010 NOSIG
ZBAA,2025-04-20 12:30,ZBAA 201230Z 13003MPS 100V160 CAVOK 19/07 Q1011 NOSIG
ZBAA,2025-04-20 13:00,ZBAA 201300Z 14004MPS CAVOK 19/07 Q1011 NOSIG
ZBAA,2025-04-20 13:30,ZBAA 201330Z 12003MPS 080V160 CAVOK 19/07 Q1011 NOSIG
ZBAA,2025-04-20 14:00,ZBAA 201400Z 13003MPS 090V160 CAVOK 18/07 Q1011 NOSIG
ZBAA,2025-04-20 14:30,ZBAA 201430Z 13003MPS 100V160 CAVOK 18/07 Q1011 NOSIG
ZBAA,2025-04-20 15:00,ZBAA 201500Z 13002MPS 090V150 CAVOK 17/06 Q1010 NOSIG
ZBAA,2025-04-20 15:30,ZBAA 201530Z 13002MPS 080V160 CAVOK 17/05 Q1010 NOSIG
ZBAA,2025-04-20 16:00,ZBAA 201600Z VRB01MPS CAVOK 16/06 Q1010 NOSIG
ZBAA,2025-04-20 16:30,ZBAA 201630Z 13002MPS 070V150 CAVOK 15/06 Q1010 NOSIG
ZBAA,2025-04-20 17:00,ZBAA 201700Z VRB01MPS CAVOK 14/08 Q1010 NOSIG
ZBAA,2025-04-20 17:30,ZBAA 201730Z 03001MPS CAVOK 13/07 Q1009 NOSIG
ZBAA,2025-04-20 18:00,ZBAA 201800Z 03002MPS 010V090 CAVOK 12/08 Q1009 NOSIG
ZBAA,2025-04-20 18:30,ZBAA 201830Z VRB01MPS CAVOK 13/08 Q1009 NOSIG
ZBAA,2025-04-20 19:00,ZBAA 201900Z VRB01MPS CAVOK 12/08 Q1009 NOSIG
ZBAA,2025-04-20 19:30,ZBAA 201930Z 10002MPS 070V130 CAVOK 13/07 Q1009 NOSIG
ZBAA,2025-04-20 20:00,ZBAA 202000Z VRB01MPS CAVOK 14/08 Q1008 NOSIG
ZBAA,2025-04-20 20:30,ZBAA 202030Z VRB01MPS CAVOK 15/07 Q1008 NOSIG
ZBAA,2025-04-20 21:00,ZBAA 202100Z 14003MPS CAVOK 15/07 Q1008 NOSIG
ZBAA,2025-04-20 21:30,ZBAA 202130Z 11002MPS 080V160 CAVOK 15/07 Q1008 NOSIG
ZBAA,2025-04-20 22:00,ZBAA 202200Z 13002MPS 050V170 8000 NSC 15/07 Q1008 NOSIG
ZBAA,2025-04-20 22:30,ZBAA 202230Z 11002MPS 060V150 8000 NSC 15/08 Q1008 NOSIG
ZBAA,2025-04-20 23:00,ZBAA 202300Z 12002MPS 080V160 8000 NSC 16/08 Q1008 NOSIG
ZBAA,2025-04-20 23:30,ZBAA 202330Z 14002MPS 110V200 7000 NSC 16/09 Q1008 NOSIG
ZBAA,2025-04-21 00:00,ZBAA 210000Z VRB01MPS 7000 NSC 16/09 Q1008 NOSIG
ZBAA,2025-04-21 00:30,ZBAA 210030Z VRB01MPS 6000 NSC 16/10 Q1008 NOSIG
ZBAA,2025-04-21 01:00,ZBAA 210100Z VRB01MPS 6000 NSC 16/10 Q1008 NOSIG
ZBAA,2025-04-21 01:30,ZBAA 210130Z 16002MPS 6000 NSC 16/10 Q1008 NOSIG
ZBAA,2025-04-21 02:00,ZBAA 210200Z VRB01MPS 6000 NSC 16/10 Q1008 NOSIG
ZBAA,2025-04-21 02:30,ZBAA 210230Z VRB01MPS 5000 HZ NSC 16/10 Q1008 NOSIG
ZBAA,2025-04-21 03:00,ZBAA 210300Z 02001MPS 5000 HZ NSC 16/11 Q1008 NOSIG
ZBAA,2025-04-21 03:30,ZBAA 210330Z 02002MPS 4000 -SHRA BR NSC 15/11 Q1008 NOSIG
ZBAA,2025-04-21 04:00,ZBAA 210400Z 01002MPS 3500 -SHRA BR OVC040 15/12 Q1008 BECMG TL0540 2800
ZBAA,2025-04-21 04:30,ZBAA 210430Z 02001MPS 3500 -SHRA BR OVC040 15/13 Q1008 NOSIG
ZBAA,2025-04-21 05:00,ZBAA 210500Z VRB01MPS 3500 -SHRA BR OVC040 15/13 Q1008 BECMG TL0540 2800
ZBAA,2025-04-21 05:30,ZBAA 210530Z 10002MPS 050V150 2800 -SHRA BR NSC 15/13 Q1008 NOSIG
ZBAA,2025-04-21 06:00,ZBAA 210600Z VRB01MPS 2800 -SHRA BR NSC 15/13 Q1008 BECMG TL0740 3200
ZBAA,2025-04-21 06:30,ZBAA 210630Z 02002MPS 2800 -RA BR NSC 15/13 Q1008 NOSIG
ZBAA,2025-04-21 07:00,ZBAA 210700Z 06002MPS 010V110 2800 -RA BR NSC 14/13 Q1008 BECMG TL0740 3200
ZBAA,2025-04-21 07:30,ZBAA 210730Z VRB01MPS 2800 -RA BR NSC 14/13 Q1008 NOSIG
ZBAA,2025-04-21 08:00,ZBAA 210800Z VRB01MPS 3200 -RA BR NSC 14/13 Q1008 BECMG TL0910 2800
ZBAA,2025-04-21 08:30,ZBAA 210830Z 10002MPS 070V130 3200 -RA BR NSC 14/13 Q1008 NOSIG
ZBAA,2025-04-21 09:00,COR ZBAA 210900Z 08002MPS 030V130 2800 BR NSC 14/13 Q1008 BECMG TL1010 3200
ZBAA,2025-04-21 09:30,ZBAA 210930Z VRB01MPS 2800 BR NSC 14/13 Q1008 NOSIG
ZBAA,2025-04-21 10:00,ZBAA 211000Z 33002MPS 290V030 3200 -RA BR NSC 14/13 Q1008 NOSIG
ZBAA,2025-04-21 10:30,ZBAA 211030Z 32003MPS 3200 BR NSC 15/13 Q1009 NOSIG
ZBAA,2025-04-21 11:00,ZBAA 211100Z 33003MPS 3200 BR NSC 14/13 Q1010 NOSIG
ZBAA,2025-04-21 11:30,ZBAA 211130Z 33004MPS 3500 BR NSC 14/13 Q1010 NOSIG
ZBAA,2025-04-21 12:00,ZBAA 211200Z VRB01MPS 3500 BR NSC 13/12 Q1010 NOSIG
ZBAA,2025-04-21 12:30,ZBAA 211230Z 33002MPS 300V050 3500 BR NSC 13/12 Q1011 NOSIG
ZBAA,2025-04-21 13:00,ZBAA 211300Z VRB01MPS 2500 R36L/1600D R36R/P2000N R01/1200D BR NSC 12/11 Q1011 NOSIG
ZBAA,2025-04-21 13:12,ZBAA 211312Z 03001MPS 2500 R36L/P2000N R36R/P2000N R01/0450D BR NSC 11/11 Q1011 NOSIG
ZBAA,2025-04-21 13:30,ZBAA 211330Z 36002MPS 320V110 2500 R36L/1300U R36R/P2000N R01/1000U BR NSC 10/10 Q1012 NOSIG
ZBAA,2025-04-21 14:00,ZBAA 211400Z VRB01MPS 2800 BR NSC 11/11 Q1012 BECMG TL1440 34005MPS 3200
ZBAA,2025-04-21 14:30,ZBAA 211430Z 34004MPS 3200 BR NSC 13/13 Q1012 NOSIG
ZBAA,2025-04-21 15:00,ZBAA 211500Z 01004MPS 4500 BR NSC 12/12 Q1013 NOSIG
ZBAA,2025-04-21 15:30,ZBAA 211530Z 34004MPS 320V020 8000 NSC 12/11 Q1013 NOSIG
ZBAA,2025-04-21 16:00,ZBAA 211600Z 35004MPS 320V040 CAVOK 12/04 Q1013 NOSIG
ZBAA,2025-04-21 16:30,ZBAA 211630Z 35002MPS 310V020 CAVOK 12/01 Q1014 NOSIG
ZBAA,2025-04-21 17:00,ZBAA 211700Z 31005MPS CAVOK 14/M02 Q1013 NOSIG
ZBAA,2025-04-21 17:30,ZBAA 211730Z 31006MPS CAVOK 15/M04 Q1014 NOSIG
ZBAA,2025-04-21 18:00,ZBAA 211800Z 31005MPS CAVOK 15/M04 Q1014 NOSIG
ZBAA,2025-04-21 18:30,ZBAA 211830Z 35002MPS 310V020 CAVOK 12/M02 Q1014 NOSIG
ZBAA,2025-04-21 19:00,ZBAA 211900Z 33004MPS CAVOK 12/M03 Q1014 NOSIG
ZBAA,2025-04-21 19:30,ZBAA 211930Z 04002MPS CAVOK 09/01 Q1014 NOSIG
ZBAA,2025-04-21 20:00,ZBAA 212000Z 36003MPS CAVOK 08/M00 Q1014 NOSIG
ZBAA,2025-04-21 20:30,ZBAA 212030Z VRB01MPS CAVOK 06/02 Q1015 NOSIG
ZBAA,2025-04-21 21:00,ZBAA 212100Z 00000MPS CAVOK 05/01 Q1015 NOSIG
ZBAA,2025-04-21 21:30,ZBAA 212130Z VRB01MPS CAVOK 05/02 Q1015 NOSIG
ZBAA,2025-04-21 22:00,ZBAA 212200Z VRB01MPS CAVOK 05/02 Q1016 NOSIG
ZBAA,2025-04-21 22:30,ZBAA 212230Z 35003MPS CAVOK 09/05 Q1016 NOSIG
ZBAA,2025-04-21 23:00,ZBAA 212300Z VRB01MPS CAVOK 12/05 Q1016 NOSIG
ZBAA,2025-04-21 23:30,ZBAA 212330Z 00000MPS CAVOK 17/03 Q1016 NOSIG
ZBAA,2025-04-22 00:00,ZBAA 220000Z 31002MPS 280V350 CAVOK 17/M00 Q1016 NOSIG
ZBAA,2025-04-22 00:30,ZBAA 220030Z VRB01MPS CAVOK 18/M01 Q1016 NOSIG
ZBAA,2025-04-22 01:00,ZBAA 220100Z 32002MPS 290V360 CAVOK 19/M03 Q1016 NOSIG
ZBAA,2025-04-22 01:30,ZBAA 220130Z VRB01MPS CAVOK 21/M04 Q1016 NOSIG
ZBAA,2025-04-22 02:00,ZBAA 220200Z 30002MPS 250V020 CAVOK 20/M04 Q1015 NOSIG
ZBAA,2025-04-22 02:30,ZBAA 220230Z 28002MPS 210V360 CAVOK 21/M04 Q1016 NOSIG
ZBAA,2025-04-22 03:00,ZBAA 220300Z VRB01MPS CAVOK 22/M04 Q1015 NOSIG
ZBAA,2025-04-22 03:30,ZBAA 220330Z 25002MPS 160V330 CAVOK 22/M04 Q1014 NOSIG
ZBAA,2025-04-22 04:00,ZBAA 220400Z VRB03MPS CAVOK 23/M03 Q1014 NOSIG
ZBAA,2025-04-22 04:30,ZBAA 220430Z VRB03MPS CAVOK 24/M02 Q1013 NOSIG
ZBAA,2025-04-22 05:00,ZBAA 220500Z 21003MPS 160V320 CAVOK 24/M04 Q1012 NOSIG
ZBAA,2025-04-22 05:30,ZBAA 220530Z VRB02MPS CAVOK 24/M03 Q1011 NOSIG
ZBAA,2025-04-22 06:00,ZBAA 220600Z 17004MPS CAVOK 24/M03 Q1011 NOSIG
ZBAA,2025-04-22 06:30,ZBAA 220630Z 21004MPS 170V250 CAVOK 25/M02 Q1010 NOSIG
ZBAA,2025-04-22 07:00,ZBAA 220700Z 18005MPS CAVOK 25/M03 Q1009 NOSIG
ZBAA,2025-04-22 07:30,ZBAA 220730Z 21005MPS CAVOK 25/M03 Q1009 NOSIG
ZBAA,2025-04-22 08:00,ZBAA 220800Z 19005MPS CAVOK 25/M03 Q1008 NOSIG
ZBAA,2025-04-22 08:30,ZBAA 220830Z 19006MPS CAVOK 24/M02 Q1008 NOSIG
ZBAA,2025-04-22 09:00,ZBAA 220900Z 19005MPS CAVOK 24/M02 Q1008 NOSIG
ZBAA,2025-04-22 09:30,ZBAA 220930Z 20005MPS 160V220 CAVOK 24/M02 Q1008 NOSIG
ZBAA,2025-04-22 10:00,ZBAA 221000Z 21006MPS CAVOK 23/M01 Q1008 NOSIG
ZBAA,2025-04-22 10:30,ZBAA 221030Z 20006MPS CAVOK 22/M02 Q1008 NOSIG
ZBAA,2025-04-22 11:00,ZBAA 221100Z 19004MPS CAVOK 20/M01 Q1008 NOSIG
ZBAA,2025-04-22 11:30,ZBAA 221130Z 18004MPS CAVOK 19/01 Q1008 NOSIG
ZBAA,2025-04-22 12:00,ZBAA 221200Z 17003MPS CAVOK 19/01 Q1008 NOSIG
ZBAA,2025-04-22 12:30,ZBAA 221230Z 18004MPS CAVOK 18/01 Q1008 NOSIG
ZBAA,2025-04-22 13:00,ZBAA 221300Z 18003MPS CAVOK 18/01 Q1009 NOSIG
ZBAA,2025-04-22 13:30,ZBAA 221330Z 15003MPS CAVOK 18/01 Q1008 NOSIG
ZBAA,2025-04-22 14:00,ZBAA 221400Z 15003MPS CAVOK 18/01 Q1008 NOSIG
ZBAA,2025-04-22 14:30,ZBAA 221430Z 16003MPS CAVOK 18/01 Q1008 NOSIG
ZBAA,2025-04-22 15:00,ZBAA 221500Z 15003MPS CAVOK 17/02 Q1008 NOSIG
ZBAA,2025-04-22 15:30,ZBAA 221530Z 15002MPS CAVOK 16/02 Q1008 NOSIG
ZBAA,2025-04-22 16:00,ZBAA 221600Z 15002MPS CAVOK 15/03 Q1008 NOSIG
ZBAA,2025-04-22 16:30,ZBAA 221630Z 15002MPS CAVOK 12/04 Q1007 NOSIG
ZBAA,2025-04-22 17:00,ZBAA 221700Z 14002MPS CAVOK 12/05 Q1007 NOSIG
ZBAA,2025-04-22 17:30,ZBAA 221730Z 08002MPS CAVOK 11/05 Q1007 NOSIG
ZBAA,2025-04-22 18:00,ZBAA 221800Z 10002MPS 080V150 CAVOK 11/05 Q1006 NOSIG
ZBAA,2025-04-22 18:30,ZBAA 221830Z 09002MPS CAVOK 10/05 Q1006 NOSIG
ZBAA,2025-04-22 19:00,ZBAA 221900Z 08002MPS CAVOK 10/05 Q1006 NOSIG
ZBAA,2025-04-22 19:30,ZBAA 221930Z 09002MPS 060V120 CAVOK 12/05 Q1006 NOSIG
ZBAA,2025-04-22 20:00,ZBAA 222000Z 10002MPS CAVOK 10/05 Q1006 NOSIG
ZBAA,2025-04-22 20:30,ZBAA 222030Z 03002MPS 360V060 CAVOK 08/05 Q1005 NOSIG
ZBAA,2025-04-22 21:00,ZBAA 222100Z 01002MPS CAVOK 08/05 Q1005 NOSIG
ZBAA,2025-04-22 21:30,ZBAA 222130Z VRB01MPS CAVOK 08/06 Q1005 NOSIG
ZBAA,2025-04-22 22:00,ZBAA 222200Z 36001MPS CAVOK 08/06 Q1005 NOSIG
ZBAA,2025-04-22 22:30,ZBAA 222230Z 36003MPS CAVOK 10/08 Q1006 NOSIG
ZBAA,2025-04-22 23:00,ZBAA 222300Z VRB01MPS CAVOK 12/08 Q1006 NOSIG
ZBAA,2025-04-22 23:30,ZBAA 222330Z VRB01MPS CAVOK 14/07 Q1006 NOSIG
ZBAA,2025-04-23 00:00,ZBAA 230000Z 00000MPS CAVOK 16/07 Q1006 NOSIG
ZBAA,2025-04-23 00:30,ZBAA 230030Z VRB01MPS CAVOK 18/07 Q1006 NOSIG
ZBAA,2025-04-23 01:00,ZBAA 230100Z VRB02MPS CAVOK 18/07 Q1006 BECMG TL0240 33008MPS
ZBAA,2025-04-23 01:30,ZBAA 230130Z 32002MPS 270V050 CAVOK 19/07 Q1006 NOSIG
ZBAA,2025-04-23 02:00,ZBAA 230200Z VRB02MPS CAVOK 20/08 Q1006 BECMG TL0340 33008MPS
ZBAA,2025-04-23 02:30,ZBAA 230230Z VRB02MPS CAVOK 21/07 Q1006 NOSIG
ZBAA,2025-04-23 03:00,ZBAA 230300Z 35002MPS 290V040 CAVOK 23/06 Q1006 BECMG TL0440 33009MPS
ZBAA,2025-04-23 03:30,ZBAA 230330Z 31004MPS 260V010 CAVOK 26/04 Q1005 NOSIG
ZBAA,2025-04-23 04:00,ZBAA 230400Z 31006G13MPS 260V360 CAVOK 28/03 Q1005 NOSIG
ZBAA,2025-04-23 04:30,ZBAA 230430Z 33008MPS CAVOK 27/M00 Q1005 NOSIG
ZBAA,2025-04-23 05:00,ZBAA 230500Z 32009MPS CAVOK 28/00 Q1005 NOSIG
ZBAA,2025-04-23 05:30,ZBAA 230530Z 31008G13MPS CAVOK 27/M00 Q1005 NOSIG
ZBAA,2025-04-23 06:00,ZBAA 230600Z 29007G13MPS 260V320 CAVOK 27/M00 Q1005 NOSIG
ZBAA,2025-04-23 06:30,ZBAA 230630Z 29010G17MPS CAVOK 28/M02 Q1005 NOSIG
ZBAA,2025-04-23 07:00,ZBAA 230700Z 28013G18MPS CAVOK 28/M05 Q1005 NOSIG
ZBAA,2025-04-23 07:30,ZBAA 230730Z 28012G17MPS CAVOK 27/M05 Q1005 NOSIG
ZBAA,2025-04-23 08:00,ZBAA 230800Z 29013MPS CAVOK 27/M09 Q1006 NOSIG
ZBAA,2025-04-23 08:30,ZBAA 230830Z 29011MPS CAVOK 26/M08 Q1006 NOSIG
ZBAA,2025-04-23 09:00,ZBAA 230900Z 28011MPS CAVOK 26/M08 Q1007 BECMG TL1050 34008G14MPS
ZBAA,2025-04-23 09:30,ZBAA 230930Z 29011G17MPS CAVOK 25/M09 Q1007 NOSIG
ZBAA,2025-04-23 10:00,ZBAA 231000Z 32008G14MPS 290V350 CAVOK 24/M09 Q1008 NOSIG
ZBAA,2025-04-23 10:30,ZBAA 231030Z 35010MPS CAVOK 22/M08 Q1009 NOSIG
ZBAA,2025-04-23 11:00,ZBAA 231100Z 36010MPS CAVOK 20/M08 Q1009 NOSIG
ZBAA,2025-04-23 11:30,ZBAA 231130Z 35012MPS CAVOK 20/M09 Q1010 NOSIG
ZBAA,2025-04-23 12:00,ZBAA 231200Z 34011MPS CAVOK 20/M10 Q1011 BECMG TL1350 34006MPS
ZBAA,2025-04-23 12:30,ZBAA 231230Z 35011MPS CAVOK 19/M11 Q1012 NOSIG
ZBAA,2025-04-23 13:00,ZBAA 231300Z 35009MPS CAVOK 18/M12 Q1013 NOSIG
ZBAA,2025-04-23 13:30,ZBAA 231330Z 35010MPS CAVOK 17/M11 Q1014 NOSIG
ZBAA,2025-04-23 14:00,ZBAA 231400Z 36008MPS CAVOK 16/M11 Q1014 NOSIG
ZBAA,2025-04-23 14:30,ZBAA 231430Z 35009MPS CAVOK 16/M14 Q1015 NOSIG
ZBAA,2025-04-23 15:00,ZBAA 231500Z 35010MPS CAVOK 16/M14 Q1015 NOSIG
ZBAA,2025-04-23 15:30,ZBAA 231530Z 35011MPS CAVOK 15/M15 Q1015 NOSIG
ZBAA,2025-04-23 16:00,ZBAA 231600Z 35009MPS CAVOK 15/M15 Q1016 NOSIG
ZBAA,2025-04-23 16:30,ZBAA 231630Z 34011MPS CAVOK 15/M18 Q1016 NOSIG
ZBAA,2025-04-23 17:00,ZBAA 231700Z 34010MPS CAVOK 14/M17 Q1016 NOSIG
ZBAA,2025-04-23 17:30,ZBAA 231730Z 34008MPS CAVOK 14/M17 Q1016 NOSIG
ZBAA,2025-04-23 18:00,ZBAA 231800Z 34006MPS CAVOK 13/M17 Q1017 NOSIG
ZBAA,2025-04-23 18:30,ZBAA 231830Z 01003MPS CAVOK 11/M13 Q1017 NOSIG
ZBAA,2025-04-23 19:00,ZBAA 231900Z 01003MPS CAVOK 09/M12 Q1017 NOSIG
ZBAA,2025-04-23 19:30,ZBAA 231930Z 35002MPS CAVOK 07/M09 Q1017 NOSIG
ZBAA,2025-04-23 20:00,ZBAA 232000Z 36003MPS CAVOK 08/M11 Q1017 NOSIG
ZBAA,2025-04-23 20:30,ZBAA 232030Z 36002MPS CAVOK 08/M11 Q1016 NOSIG
ZBAA,2025-04-23 21:00,ZBAA 232100Z 35002MPS 320V030 CAVOK 07/M10 Q1017 NOSIG
ZBAA,2025-04-23 21:30,ZBAA 232130Z VRB01MPS CAVOK 06/M08 Q1017 NOSIG
ZBAA,2025-04-23 22:00,ZBAA 232200Z VRB01MPS CAVOK 05/M06 Q1017 NOSIG
ZBAA,2025-04-23 22:30,ZBAA 232230Z VRB01MPS CAVOK 09/M05 Q1017 NOSIG
ZBAA,2025-04-23 23:00,ZBAA 232300Z VRB01MPS CAVOK 13/M07 Q1018 NOSIG
ZBAA,2025-04-23 23:30,ZBAA 232330Z 32003MPS 280V350 CAVOK 15/M14 Q1018 NOSIG
ZBAA,2025-04-24 00:00,ZBAA 240000Z 31002MPS 280V350 CAVOK 15/M15 Q1018 NOSIG
ZBAA,2025-04-24 00:30,ZBAA 240030Z 30004MPS 260V340 CAVOK 15/M15 Q1017 NOSIG
ZBAA,2025-04-24 01:00,ZBAA 240100Z 28006MPS CAVOK 16/M15 Q1017 NOSIG
ZBAA,2025-04-24 01:30,ZBAA 240130Z 27004MPS 240V330 CAVOK 17/M14 Q1017 NOSIG
ZBAA,2025-04-24 02:00,ZBAA 240200Z 33003MPS 300V360 CAVOK 18/M14 Q1017 NOSIG
ZBAA,2025-04-24 02:30,ZBAA 240230Z 33006MPS 300V360 CAVOK 19/M13 Q1016 NOSIG
ZBAA,2025-04-24 03:00,ZBAA 240300Z 30006MPS 270V340 CAVOK 19/M15 Q1016 NOSIG
ZBAA,2025-04-24 03:30,ZBAA 240330Z 29007G13MPS 240V330 CAVOK 20/M14 Q1015 NOSIG
ZBAA,2025-04-24 04:00,ZBAA 240400Z 29008G15MPS 260V350 CAVOK 20/M14 Q1015 NOSIG
ZBAA,2025-04-24 04:30,ZBAA 240430Z 29008G13MPS 240V310 CAVOK 20/M13 Q1014 NOSIG
ZBAA,2025-04-24 05:00,ZBAA 240500Z 30008G13MPS CAVOK 21/M13 Q1014 NOSIG
ZBAA,2025-04-24 05:30,ZBAA 240530Z 31007MPS CAVOK 22/M12 Q1013 NOSIG
ZBAA,2025-04-24 06:00,ZBAA 240600Z 28009MPS 220V320 CAVOK 23/M13 Q1012 NOSIG
ZBAA,2025-04-24 06:30,ZBAA 240630Z 29009G14MPS 250V330 CAVOK 23/M15 Q1012 NOSIG
ZBAA,2025-04-24 07:00,ZBAA 240700Z 31008MPS 270V360 CAVOK 23/M14 Q1012 NOSIG
ZBAA,2025-04-24 07:30,ZBAA 240730Z 32008MPS 270V010 CAVOK 24/M14 Q1011 NOSIG
ZBAA,2025-04-24 08:00,ZBAA 240800Z 35009MPS CAVOK 24/M14 Q1011 NOSIG
ZBAA,2025-04-24 08:30,ZBAA 240830Z 34008MPS CAVOK 23/M13 Q1011 NOSIG
ZBAA,2025-04-24 09:00,ZBAA 240900Z 36007MPS 320V030 CAVOK 22/M12 Q1011 NOSIG
ZBAA,2025-04-24 09:30,ZBAA 240930Z 36008MPS CAVOK 21/M13 Q1012 NOSIG
ZBAA,2025-04-24 10:00,ZBAA 241000Z 36007MPS CAVOK 21/M13 Q1012 NOSIG
ZBAA,2025-04-24 10:30,ZBAA 241030Z 36006MPS CAVOK 19/M12 Q1012 NOSIG
ZBAA,2025-04-24 11:00,ZBAA 241100Z 01004MPS CAVOK 18/M13 Q1013 NOSIG
ZBAA,2025-04-24 11:30,ZBAA 241130Z 01003MPS CAVOK 17/M12 Q1013 NOSIG
ZBAA,2025-04-24 12:00,ZBAA 241200Z 02004MPS CAVOK 16/M11 Q1014 NOSIG
ZBAA,2025-04-24 12:30,ZBAA 241230Z 02003MPS CAVOK 16/M12 Q1015 NOSIG
ZBAA,2025-04-24 13:00,ZBAA 241300Z 08002MPS 040V130 CAVOK 15/M12 Q1015 NOSIG
ZBAA,2025-04-24 13:30,ZBAA 241330Z 05002MPS CAVOK 14/M11 Q1016 NOSIG
ZBAA,2025-04-24 14:00,ZBAA 241400Z 03003MPS CAVOK 14/M10 Q1016 NOSIG
ZBAA,2025-04-24 14:30,ZBAA 241430Z 16002MPS 130V190 CAVOK 11/M08 Q1016 NOSIG
ZBAA,2025-04-24 15:00,ZBAA 241500Z VRB01MPS CAVOK 08/M07 Q1017 NOSIG
ZBAA,2025-04-24 15:30,ZBAA 241530Z VRB01MPS CAVOK 07/M06 Q1017 NOSIG
ZBAA,2025-04-24 16:00,ZBAA 241600Z VRB01MPS CAVOK 07/M05 Q1017 NOSIG
ZBAA,2025-04-24 16:30,ZBAA 241630Z 00000MPS CAVOK 06/M03 Q1017 NOSIG
ZBAA,2025-04-24 17:00,ZBAA 241700Z 06001MPS CAVOK 05/M03 Q1017 NOSIG
ZBAA,2025-04-24 17:30,ZBAA 241730Z 08001MPS CAVOK 05/M01 Q1017 NOSIG
ZBAA,2025-04-24 18:00,ZBAA 241800Z 36001MPS CAVOK 05/M01 Q1017 NOSIG
ZBAA,2025-04-24 18:30,ZBAA 241830Z 01001MPS CAVOK 04/M02 Q1017 NOSIG
ZBAA,2025-04-24 19:00,ZBAA 241900Z VRB01MPS CAVOK 05/M02 Q1017 NOSIG
ZBAA,2025-04-24 19:30,ZBAA 241930Z 01002MPS CAVOK 04/M03 Q1017 NOSIG
ZBAA,2025-04-24 20:00,ZBAA 242000Z VRB01MPS CAVOK 04/M02 Q1017 NOSIG
ZBAA,2025-04-24 20:30,ZBAA 242030Z 36001MPS CAVOK 04/M01 Q1017 NOSIG
ZBAA,2025-04-24 21:00,ZBAA 242100Z 03001MPS CAVOK 04/M01 Q1017 NOSIG
ZBAA,2025-04-24 21:30,ZBAA 242130Z 02002MPS CAVOK 04/M01 Q1017 NOSIG
ZBAA,2025-04-24 22:00,ZBAA 242200Z VRB01MPS CAVOK 04/M00 Q1017 NOSIG
ZBAA,2025-04-24 22:30,ZBAA 242230Z 01002MPS CAVOK 07/01 Q1018 NOSIG
ZBAA,2025-04-24 23:00,ZBAA 242300Z 01002MPS CAVOK 08/00 Q1018 NOSIG
ZBAA,2025-04-24 23:30,ZBAA 242330Z 03001MPS CAVOK 10/M01 Q1018 NOSIG
ZBAA,2025-04-25 00:00,ZBAA 250000Z VRB01MPS CAVOK 13/M01 Q1018 NOSIG
ZBAA,2025-04-25 00:30,ZBAA 250030Z VRB01MPS CAVOK 14/M03 Q1018 NOSIG
ZBAA,2025-04-25 01:00,ZBAA 250100Z 06002MPS 010V130 CAVOK 16/M05 Q1018 NOSIG
ZBAA,2025-04-25 01:30,ZBAA 250130Z VRB01MPS CAVOK 17/M07 Q1018 NOSIG
ZBAA,2025-04-25 02:00,ZBAA 250200Z VRB02MPS CAVOK 17/M07 Q1018 NOSIG
ZBAA,2025-04-25 02:30,ZBAA 250230Z 20003MPS 150V260 CAVOK 18/M07 Q1017 NOSIG
ZBAA,2025-04-25 03:00,ZBAA 250300Z 17004MPS 100V230 CAVOK 19/M07 Q1017 NOSIG
ZBAA,2025-04-25 03:30,ZBAA 250330Z 18003MPS 120V260 CAVOK 20/M07 Q1016 NOSIG
ZBAA,2025-04-25 04:00,ZBAA 250400Z 18005MPS 150V250 CAVOK 21/M07 Q1015 NOSIG
ZBAA,2025-04-25 04:16,ZBAA 250416Z 24005MPS 220V310 CAVOK 22/M08 Q1015 NOSIG
ZBAA,2025-04-25 04:30,ZBAA 250430Z 20004MPS 150V260 CAVOK 22/M06 Q1015 NOSIG
ZBAA,2025-04-25 05:00,ZBAA 250500Z 23005MPS 200V260 CAVOK 22/M05 Q1014 BECMG TL0640 17004MPS
ZBAA,2025-04-25 05:30,ZBAA 250530Z 18006G11MPS 160V220 CAVOK 23/M05 Q1013 NOSIG
ZBAA,2025-04-25 06:00,ZBAA 250600Z 19005MPS 140V270 CAVOK 24/M05 Q1013 NOSIG
ZBAA,2025-04-25 06:30,ZBAA 250630Z 18006MPS 150V230 CAVOK 24/M03 Q1012 NOSIG
ZBAA,2025-04-25 07:00,ZBAA 250700Z 19005MPS 130V230 CAVOK 24/M03 Q1012 NOSIG
ZBAA,2025-04-25 07:30,ZBAA 250730Z 22007G13MPS 140V230 CAVOK 23/M02 Q1011 NOSIG
ZBAA,2025-04-25 08:00,ZBAA 250800Z 20005MPS 170V230 CAVOK 24/M01 Q1011 NOSIG
ZBAA,2025-04-25 08:30,ZBAA 250830Z 21005MPS CAVOK 24/M00 Q1011 NOSIG
ZBAA,2025-04-25 09:00,ZBAA 250900Z 19004MPS 150V220 CAVOK 23/00 Q1011 NOSIG
ZBAA,2025-04-25 09:30,ZBAA 250930Z 21004MPS 170V240 CAVOK 23/M00 Q1010 NOSIG
ZBAA,2025-04-25 10:00,ZBAA 251000Z 21004MPS CAVOK 23/M00 Q1010 NOSIG
ZBAA,2025-04-25 10:30,ZBAA 251030Z 21004MPS CAVOK 22/01 Q1010 NOSIG
ZBAA,2025-04-25 11:00,ZBAA 251100Z 20003MPS CAVOK 21/01 Q1011 NOSIG
ZBAA,2025-04-25 11:30,ZBAA 251130Z 19002MPS CAVOK 19/02 Q1011 NOSIG
ZBAA,2025-04-25 12:00,ZBAA 251200Z 17002MPS CAVOK 15/04 Q1011 NOSIG
ZBAA,2025-04-25 12:30,ZBAA 251230Z 15002MPS CAVOK 14/04 Q1012 NOSIG
ZBAA,2025-04-25 13:00,ZBAA 251300Z 14001MPS CAVOK 14/04 Q1012 NOSIG
ZBAA,2025-04-25 13:30,ZBAA 251330Z 11001MPS CAVOK 13/05 Q1012 NOSIG
ZBAA,2025-04-25 14:00,ZBAA 251400Z 09002MPS CAVOK 12/06 Q1012 NOSIG
ZBAA,2025-04-25 14:30,ZBAA 251430Z 09002MPS CAVOK 15/04 Q1012 NOSIG
ZBAA,2025-04-25 15:00,ZBAA 251500Z 10002MPS 060V130 CAVOK 15/04 Q1012 NOSIG
ZBAA,2025-04-25 15:30,ZBAA 251530Z 08002MPS 050V110 CAVOK 15/04 Q1012 NOSIG
ZBAA,2025-04-25 16:00,ZBAA 251600Z VRB01MPS CAVOK 15/04 Q1012 NOSIG
ZBAA,2025-04-25 16:30,ZBAA 251630Z 10002MPS 060V140 CAVOK 15/04 Q1012 NOSIG
ZBAA,2025-04-25 17:00,ZBAA 251700Z VRB01MPS CAVOK 12/04 Q1012 NOSIG
ZBAA,2025-04-25 17:30,ZBAA 251730Z 35001MPS CAVOK 10/04 Q1012 NOSIG
ZBAA,2025-04-25 18:00,ZBAA 251800Z 36001MPS CAVOK 09/04 Q1012 NOSIG
ZBAA,2025-04-25 18:30,ZBAA 251830Z 01001MPS CAVOK 09/04 Q1012 NOSIG
ZBAA,2025-04-25 19:00,ZBAA 251900Z 00000MPS CAVOK 09/04 Q1012 NOSIG
ZBAA,2025-04-25 19:30,ZBAA 251930Z 04001MPS CAVOK 08/05 Q1012 NOSIG
ZBAA,2025-04-25 20:00,ZBAA 252000Z VRB01MPS CAVOK 08/05 Q1012 NOSIG
ZBAA,2025-04-25 20:30,ZBAA 252030Z 00000MPS CAVOK 08/04 Q1012 NOSIG
ZBAA,2025-04-25 21:00,ZBAA 252100Z 01002MPS CAVOK 08/04 Q1012 NOSIG
ZBAA,2025-04-25 21:30,ZBAA 252130Z 36002MPS CAVOK 08/04 Q1012 NOSIG
ZBAA,2025-04-25 22:00,ZBAA 252200Z 35002MPS CAVOK 09/05 Q1012 NOSIG
ZBAA,2025-04-25 22:30,ZBAA 252230Z 36002MPS CAVOK 11/05 Q1012 NOSIG
ZBAA,2025-04-25 23:00,ZBAA 252300Z 36002MPS 330V030 CAVOK 13/06 Q1013 NOSIG
ZBAA,2025-04-25 23:30,ZBAA 252330Z 01002MPS CAVOK 15/05 Q1012 NOSIG
ZBAA,2025-04-26 00:00,ZBAA 260000Z VRB01MPS CAVOK 17/05 Q1012 NOSIG
ZBAA,2025-04-26 00:30,ZBAA 260030Z 12003MPS 060V150 CAVOK 18/04 Q1013 NOSIG
ZBAA,2025-04-26 01:00,ZBAA 260100Z 09002MPS 040V140 CAVOK 18/04 Q1013 NOSIG
ZBAA,2025-04-26 01:30,ZBAA 260130Z 07002MPS 020V130 CAVOK 19/05 Q1012 NOSIG
ZBAA,2025-04-26 02:00,ZBAA 260200Z 05002MPS 010V130 CAVOK 19/07 Q1012 NOSIG
ZBAA,2025-04-26 02:30,ZBAA 260230Z VRB02MPS CAVOK 20/07 Q1012 NOSIG
ZBAA,2025-04-26 03:00,ZBAA 260300Z 11002MPS 050V160 CAVOK 20/08 Q1012 NOSIG
ZBAA,2025-04-26 03:30,ZBAA 260330Z VRB02MPS CAVOK 22/08 Q1011 NOSIG
ZBAA,2025-04-26 04:00,ZBAA 260400Z VRB02MPS CAVOK 22/08 Q1010 NOSIG
ZBAA,2025-04-26 04:30,ZBAA 260430Z 16002MPS 060V210 CAVOK 22/09 Q1010 NOSIG
ZBAA,2025-04-26 05:00,ZBAA 260500Z VRB01MPS CAVOK 23/10 Q1010 NOSIG
ZBAA,2025-04-26 05:30,ZBAA 260530Z 17002MPS 090V250 CAVOK 24/11 Q1009 NOSIG
ZBAA,2025-04-26 06:00,ZBAA 260600Z 13002MPS 050V210 CAVOK 24/11 Q1009 NOSIG
ZBAA,2025-04-26 06:30,ZBAA 260630Z VRB02MPS CAVOK 24/11 Q1008 NOSIG
ZBAA,2025-04-26 07:00,ZBAA 260700Z 18004MPS 120V230 CAVOK 25/11 Q1008 NOSIG
ZBAA,2025-04-26 07:30,ZBAA 260730Z 18004MPS 150V210 CAVOK 25/11 Q1008 NOSIG
ZBAA,2025-04-26 08:00,ZBAA 260800Z 18004MPS 130V220 CAVOK 25/11 Q1007 NOSIG
ZBAA,2025-04-26 08:30,ZBAA 260830Z 18005G10MPS 160V230 CAVOK 25/10 Q1007 NOSIG
ZBAA,2025-04-26 09:00,ZBAA 260900Z 20004MPS 170V240 CAVOK 25/10 Q1007 NOSIG
ZBAA,2025-04-26 09:30,ZBAA 260930Z 19005MPS CAVOK 24/11 Q1007 NOSIG
ZBAA,2025-04-26 10:00,ZBAA 261000Z 19005MPS 8000 NSC 24/11 Q1007 NOSIG
ZBAA,2025-04-26 10:30,ZBAA 261030Z 25002MPS 180V300 8000 NSC 24/10 Q1008 NOSIG
ZBAA,2025-04-26 11:00,ZBAA 261100Z 16005MPS 8000 NSC 23/11 Q1007 BECMG TL1240 36004MPS
ZBAA,2025-04-26 11:09,ZBAA 261109Z 22002MPS 160V290 8000 NSC 23/11 Q1008 NOSIG
ZBAA,2025-04-26 11:30,ZBAA 261130Z 28002MPS 220V340 8000 NSC 23/11 Q1008 NOSIG
ZBAA,2025-04-26 12:00,ZBAA 261200Z VRB01MPS 8000 NSC 19/11 Q1008 NOSIG
ZBAA,2025-04-26 12:30,ZBAA 261230Z VRB01MPS 8000 NSC 18/12 Q1009 NOSIG
ZBAA,2025-04-26 13:00,ZBAA 261300Z VRB01MPS 8000 NSC 17/12 Q1009 BECMG TL1440 34005MPS
ZBAA,2025-04-26 13:30,ZBAA 261330Z 01002MPS 7000 NSC 16/12 Q1010 NOSIG
ZBAA,2025-04-26 14:00,ZBAA 261400Z 35003MPS 7000 NSC 17/12 Q1010 NOSIG
ZBAA,2025-04-26 14:30,ZBAA 261430Z 35002MPS 7000 NSC 18/11 Q1010 NOSIG
ZBAA,2025-04-26 15:00,ZBAA 261500Z 35003MPS 7000 NSC 17/11 Q1010 NOSIG
ZBAA,2025-04-26 15:30,ZBAA 261530Z 01003MPS 7000 NSC 17/11 Q1010 NOSIG
ZBAA,2025-04-26 16:00,ZBAA 261600Z 35003MPS 7000 NSC 16/11 Q1011 NOSIG
ZBAA,2025-04-26 16:30,ZBAA 261630Z 35003MPS 7000 NSC 17/11 Q1011 NOSIG
ZBAA,2025-04-26 17:00,ZBAA 261700Z 01003MPS 7000 NSC 17/10 Q1011 NOSIG
ZBAA,2025-04-26 17:30,ZBAA 261730Z 02003MPS CAVOK 18/09 Q1011 NOSIG
ZBAA,2025-04-26 17:41,ZBAA 261741Z 03002MPS 350V070 9999 -TSRA FEW050CB 18/09 Q1012 NOSIG
ZBAA,2025-04-26 17:52,ZBAA 261752Z 33003MPS 240V360 9999 -SHRA FEW050CB 18/07 Q1012 RETS NOSIG
ZBAA,2025-04-26 18:00,ZBAA 261800Z 35004MPS 9999 FEW050CB 18/07 Q1012 RETS NOSIG
ZBAA,2025-04-26 18:30,ZBAA 261830Z 01004MPS 340V040 CAVOK 18/04 Q1013 NOSIG
ZBAA,2025-04-26 19:00,ZBAA 261900Z 02005MPS 350V050 CAVOK 19/00 Q1013 NOSIG
ZBAA,2025-04-26 19:30,ZBAA 261930Z 01006MPS CAVOK 18/M00 Q1014 NOSIG
ZBAA,2025-04-26 20:00,ZBAA 262000Z 01005G11MPS 340V050 CAVOK 17/M01 Q1014 NOSIG
ZBAA,2025-04-26 20:30,ZBAA 262030Z 02005MPS 350V050 CAVOK 16/M01 Q1015 NOSIG
ZBAA,2025-04-26 21:00,ZBAA 262100Z 03005MPS 360V060 CAVOK 16/M01 Q1016 NOSIG
ZBAA,2025-04-26 21:30,ZBAA 262130Z 03006G11MPS 360V060 CAVOK 15/M04 Q1016 NOSIG
ZBAA,2025-04-26 22:00,ZBAA 262200Z 03007G12MPS 360V060 CAVOK 14/M06 Q1017 NOSIG
ZBAA,2025-04-26 22:30,ZBAA 262230Z 03006G12MPS 360V060 CAVOK 14/M07 Q1017 NOSIG
ZBAA,2025-04-26 23:00,ZBAA 262300Z 03004MPS 360V070 CAVOK 15/M05 Q1018 NOSIG
ZBAA,2025-04-26 23:30,ZBAA 262330Z 04005MPS 010V070 CAVOK 15/M07 Q1018 NOSIG
ZBAA,2025-04-27 00:00,ZBAA 270000Z 03006MPS 350V060 CAVOK 16/M07 Q1019 NOSIG
ZBAA,2025-04-27 00:30,ZBAA 270030Z 02005MPS 350V050 CAVOK 16/M07 Q1019 NOSIG
ZBAA,2025-04-27 01:00,ZBAA 270100Z 04004MPS 340V090 CAVOK 17/M08 Q1019 NOSIG
ZBAA,2025-04-27 01:30,ZBAA 270130Z 05004MPS 010V100 CAVOK 17/M08 Q1019 NOSIG
ZBAA,2025-04-27 02:00,ZBAA 270200Z 04004MPS 340V090 CAVOK 18/M08 Q1019 NOSIG
ZBAA,2025-04-27 02:30,ZBAA 270230Z 06004MPS 010V100 CAVOK 18/M08 Q1019 NOSIG
ZBAA,2025-04-27 03:00,ZBAA 270300Z VRB03MPS CAVOK 19/M07 Q1019 NOSIG
ZBAA,2025-04-27 03:30,ZBAA 270330Z 36003MPS 300V050 CAVOK 21/M06 Q1018 NOSIG
ZBAA,2025-04-27 04:00,ZBAA 270400Z VRB03MPS CAVOK 20/M08 Q1017 NOSIG
ZBAA,2025-04-27 04:30,ZBAA 270430Z VRB02MPS CAVOK 21/M06 Q1017 NOSIG
ZBAA,2025-04-27 05:00,ZBAA 270500Z VRB02MPS CAVOK 21/M07 Q1017 NOSIG
ZBAA,2025-04-27 05:30,ZBAA 270530Z 01002MPS 300V110 CAVOK 22/M07 Q1016 NOSIG
ZBAA,2025-04-27 06:00,ZBAA 270600Z VRB01MPS CAVOK 22/M06 Q1015 NOSIG
ZBAA,2025-04-27 06:30,ZBAA 270630Z 16003MPS 090V230 CAVOK 23/M06 Q1015 NOSIG
ZBAA,2025-04-27 07:00,ZBAA 270700Z 15003MPS 090V240 CAVOK 23/M06 Q1014 NOSIG
ZBAA,2025-04-27 07:30,ZBAA 270730Z 14003MPS 100V190 CAVOK 24/M03 Q1013 NOSIG
ZBAA,2025-04-27 08:00,ZBAA 270800Z 17004MPS 130V200 CAVOK 24/M05 Q1012 NOSIG
ZBAA,2025-04-27 08:30,ZBAA 270830Z 16006MPS CAVOK 24/M05 Q1012 NOSIG
ZBAA,2025-04-27 09:00,ZBAA 270900Z 16005MPS CAVOK 24/M05 Q1012 NOSIG
ZBAA,2025-04-27 09:30,ZBAA 270930Z 19007MPS CAVOK 24/M04 Q1012 NOSIG
ZBAA,2025-04-27 10:00,ZBAA 271000Z 20005MPS CAVOK 23/M04 Q1012 NOSIG
ZBAA,2025-04-27 10:30,ZBAA 271030Z 21006MPS CAVOK 22/M04 Q1012 NOSIG
ZBAA,2025-04-27 11:00,ZBAA 271100Z 22005MPS CAVOK 22/M04 Q1012 NOSIG
ZBAA,2025-04-27 11:30,ZBAA 271130Z 21004MPS CAVOK 21/M03 Q1013 NOSIG
ZBAA,2025-04-27 12:00,ZBAA 271200Z 22005MPS CAVOK 21/M04 Q1013 NOSIG
ZBAA,2025-04-27 12:30,ZBAA 271230Z 20003MPS 100V230 CAVOK 20/M04 Q1013 NOSIG
ZBAA,2025-04-27 13:00,ZBAA 271300Z 14002MPS 100V190 CAVOK 15/00 Q1014 NOSIG
ZBAA,2025-04-27 13:30,ZBAA 271330Z VRB01MPS CAVOK 13/01 Q1014 NOSIG
ZBAA,2025-04-27 14:00,ZBAA 271400Z VRB01MPS CAVOK 13/00 Q1014 NOSIG
ZBAA,2025-04-27 14:30,ZBAA 271430Z 25003MPS CAVOK 17/M02 Q1014 NOSIG
ZBAA,2025-04-27 15:00,ZBAA 271500Z VRB01MPS CAVOK 12/01 Q1014 NOSIG
ZBAA,2025-04-27 15:30,ZBAA 271530Z VRB01MPS CAVOK 11/02 Q1014 NOSIG
ZBAA,2025-04-27 16:00,ZBAA 271600Z 17002MPS 150V210 CAVOK 10/02 Q1014 NOSIG
ZBAA,2025-04-27 16:30,ZBAA 271630Z VRB01MPS CAVOK 09/02 Q1014 NOSIG
ZBAA,2025-04-27 17:00,ZBAA 271700Z 16002MPS 110V220 CAVOK 09/03 Q1013 NOSIG
ZBAA,2025-04-27 17:30,ZBAA 271730Z VRB01MPS CAVOK 09/03 Q1013 NOSIG
ZBAA,2025-04-27 18:00,ZBAA 271800Z 07002MPS 040V140 CAVOK 08/03 Q1013 NOSIG
ZBAA,2025-04-27 18:30,ZBAA 271830Z 08002MPS CAVOK 09/04 Q1013 NOSIG
ZBAA,2025-04-27 19:00,ZBAA 271900Z 07001MPS CAVOK 08/03 Q1013 NOSIG
ZBAA,2025-04-27 19:30,ZBAA 271930Z 02002MPS 350V050 CAVOK 08/04 Q1014 NOSIG
ZBAA,2025-04-27 20:00,ZBAA 272000Z 04002MPS CAVOK 08/04 Q1014 NOSIG
ZBAA,2025-04-27 20:30,ZBAA 272030Z VRB01MPS CAVOK 07/03 Q1014 NOSIG
ZBAA,2025-04-27 21:00,ZBAA 272100Z 01001MPS CAVOK 07/03 Q1014 NOSIG
ZBAA,2025-04-27 21:30,ZBAA 272130Z 35003MPS CAVOK 07/03 Q1014 NOSIG
ZBAA,2025-04-27 22:00,ZBAA 272200Z 36002MPS CAVOK 10/03 Q1015 NOSIG
ZBAA,2025-04-27 22:30,ZBAA 272230Z 35004MPS CAVOK 13/02 Q1015 NOSIG
ZBAA,2025-04-27 23:00,ZBAA 272300Z 36003MPS CAVOK 15/02 Q1015 NOSIG
ZBAA,2025-04-27 23:30,ZBAA 272330Z 35003MPS CAVOK 17/02 Q1016 NOSIG
ZBAA,2025-04-28 00:00,ZBAA 280000Z 35003MPS 320V020 CAVOK 19/02 Q1016 NOSIG
ZBAA,2025-04-28 00:30,ZBAA 280030Z 03004MPS CAVOK 20/01 Q1016 NOSIG
ZBAA,2025-04-28 01:00,ZBAA 280100Z 07003MPS 030V120 CAVOK 21/02 Q1016 NOSIG
ZBAA,2025-04-28 01:30,ZBAA 280130Z 14003MPS 090V190 CAVOK 21/03 Q1016 NOSIG
ZBAA,2025-04-28 02:00,ZBAA 280200Z 13003MPS 080V170 CAVOK 22/02 Q1016 NOSIG
ZBAA,2025-04-28 02:30,ZBAA 280230Z 13004MPS 090V180 CAVOK 22/03 Q1016 NOSIG
ZBAA,2025-04-28 03:00,ZBAA 280300Z 16005MPS 120V200 CAVOK 23/03 Q1015 NOSIG
ZBAA,2025-04-28 03:30,ZBAA 280330Z 15004MPS 110V190 CAVOK 23/03 Q1015 NOSIG
ZBAA,2025-04-28 04:00,ZBAA 280400Z 14004MPS 090V210 CAVOK 23/02 Q1015 NOSIG
ZBAA,2025-04-28 04:30,ZBAA 280430Z 17005MPS 110V220 CAVOK 24/04 Q1014 NOSIG
ZBAA,2025-04-28 05:00,ZBAA 280500Z 20006MPS CAVOK 25/04 Q1014 NOSIG
ZBAA,2025-04-28 05:30,ZBAA 280530Z 19005MPS 150V210 CAVOK 25/04 Q1013 NOSIG
ZBAA,2025-04-28 06:00,ZBAA 280600Z 18005MPS 150V210 CAVOK 25/05 Q1013 NOSIG
ZBAA,2025-04-28 06:30,ZBAA 280630Z 15005MPS CAVOK 24/04 Q1012 NOSIG
ZBAA,2025-04-28 07:00,ZBAA 280700Z 17005MPS 100V210 CAVOK 25/04 Q1012 NOSIG
ZBAA,2025-04-28 07:30,ZBAA 280730Z 16004MPS 120V190 CAVOK 25/03 Q1011 NOSIG
ZBAA,2025-04-28 08:00,ZBAA 280800Z 14005MPS 100V170 CAVOK 25/03 Q1011 NOSIG
ZBAA,2025-04-28 08:30,ZBAA 280830Z 15005MPS 090V190 CAVOK 25/04 Q1011 NOSIG
ZBAA,2025-04-28 09:00,ZBAA 280900Z 15005MPS CAVOK 24/02 Q1010 NOSIG
ZBAA,2025-04-28 09:30,ZBAA 280930Z 13005MPS 100V160 CAVOK 23/01 Q1010 NOSIG
ZBAA,2025-04-28 10:00,ZBAA 281000Z 13005MPS 100V170 CAVOK 22/01 Q1010 NOSIG
ZBAA,2025-04-28 10:30,ZBAA 281030Z 14005MPS 110V170 CAVOK 21/00 Q1010 NOSIG
ZBAA,2025-04-28 11:00,ZBAA 281100Z 14005MPS 100V160 CAVOK 20/00 Q1010 NOSIG
ZBAA,2025-04-28 11:30,ZBAA 281130Z 13003MPS 090V170 CAVOK 19/M00 Q1010 NOSIG
ZBAA,2025-04-28 12:00,ZBAA 281200Z 13003MPS 080V170 CAVOK 18/01 Q1011 NOSIG
ZBAA,2025-04-28 12:30,ZBAA 281230Z 10002MPS 060V130 CAVOK 16/01 Q1011 NOSIG
ZBAA,2025-04-28 13:00,ZBAA 281300Z 09002MPS 050V120 CAVOK 15/01 Q1012 NOSIG
ZBAA,2025-04-28 13:30,ZBAA 281330Z 09002MPS 050V120 CAVOK 15/01 Q1012 NOSIG
ZBAA,2025-04-28 14:00,ZBAA 281400Z 09002MPS 060V130 CAVOK 14/00 Q1012 NOSIG
ZBAA,2025-04-28 14:30,ZBAA 281430Z 10002MPS 050V150 CAVOK 14/M00 Q1012 NOSIG
ZBAA,2025-04-28 15:00,ZBAA 281500Z 10002MPS 060V140 CAVOK 13/00 Q1012 NOSIG
ZBAA,2025-04-28 15:30,ZBAA 281530Z VRB01MPS CAVOK 12/00 Q1012 NOSIG
ZBAA,2025-04-28 16:00,ZBAA 281600Z 11002MPS 090V150 CAVOK 12/00 Q1011 NOSIG
ZBAA,2025-04-28 16:30,ZBAA 281630Z VRB01MPS CAVOK 12/M01 Q1011 NOSIG
ZBAA,2025-04-28 17:00,ZBAA 281700Z VRB01MPS CAVOK 09/01 Q1011 NOSIG
ZBAA,2025-04-28 17:30,ZBAA 281730Z 05001MPS CAVOK 08/01 Q1010 NOSIG
ZBAA,2025-04-28 18:00,ZBAA 281800Z 01001MPS CAVOK 08/01 Q1010 NOSIG
ZBAA,2025-04-28 18:30,ZBAA 281830Z 01001MPS CAVOK 08/02 Q1010 NOSIG
ZBAA,2025-04-28 19:00,ZBAA 281900Z 36001MPS CAVOK 07/02 Q1009 NOSIG
ZBAA,2025-04-28 19:30,ZBAA 281930Z 01001MPS CAVOK 07/03 Q1009 NOSIG
ZBAA,2025-04-28 20:00,ZBAA 282000Z 00000MPS CAVOK 07/03 Q1009 NOSIG
ZBAA,2025-04-28 20:30,ZBAA 282030Z 03001MPS CAVOK 06/03 Q1008 NOSIG
ZBAA,2025-04-28 21:00,ZBAA 282100Z VRB01MPS CAVOK 06/03 Q1008 NOSIG
ZBAA,2025-04-28 21:30,ZBAA 282130Z VRB01MPS CAVOK 06/02 Q1008 NOSIG
ZBAA,2025-04-28 22:00,ZBAA 282200Z 36002MPS CAVOK 06/03 Q1008 NOSIG
ZBAA,2025-04-28 22:30,ZBAA 282230Z 01001MPS CAVOK 11/06 Q1007 NOSIG
ZBAA,2025-04-28 23:00,ZBAA 282300Z 01002MPS CAVOK 13/04 Q1007 NOSIG
ZBAA,2025-04-28 23:30,ZBAA 282330Z 28002MPS 240V320 CAVOK 14/01 Q1007 NOSIG
ZBAA,2025-04-29 00:00,ZBAA 290000Z VRB01MPS CAVOK 17/02 Q1007 NOSIG
ZBAA,2025-04-29 00:30,ZBAA 290030Z VRB01MPS CAVOK 16/00 Q1007 NOSIG
ZBAA,2025-04-29 01:00,ZBAA 290100Z VRB01MPS CAVOK 17/00 Q1006 NOSIG
ZBAA,2025-04-29 01:30,ZBAA 290130Z VRB01MPS CAVOK 19/02 Q1006 NOSIG
ZBAA,2025-04-29 02:00,ZBAA 290200Z 16002MPS 120V190 CAVOK 19/02 Q1005 NOSIG
ZBAA,2025-04-29 02:30,ZBAA 290230Z VRB03MPS CAVOK 20/03 Q1005 NOSIG
ZBAA,2025-04-29 03:00,ZBAA 290300Z 16003MPS 100V200 CAVOK 21/04 Q1005 NOSIG
ZBAA,2025-04-29 03:30,ZBAA 290330Z 24003MPS 140V290 CAVOK 22/03 Q1004 NOSIG
ZBAA,2025-04-29 04:00,ZBAA 290400Z 19004MPS 150V250 CAVOK 23/03 Q1003 NOSIG
ZBAA,2025-04-29 04:30,ZBAA 290430Z 15004MPS 080V200 CAVOK 24/05 Q1002 NOSIG
ZBAA,2025-04-29 05:00,ZBAA 290500Z 19003MPS 120V240 CAVOK 25/05 Q1002 NOSIG
ZBAA,2025-04-29 05:30,ZBAA 290530Z 19003MPS 130V220 CAVOK 26/05 Q1001 NOSIG
ZBAA,2025-04-29 06:00,ZBAA 290600Z 22004MPS 190V260 CAVOK 27/04 Q1001 NOSIG
ZBAA,2025-04-29 06:30,ZBAA 290630Z VRB03MPS CAVOK 27/04 Q1000 NOSIG
ZBAA,2025-04-29 07:00,ZBAA 290700Z VRB02MPS CAVOK 29/04 Q1000 NOSIG
ZBAA,2025-04-29 07:30,ZBAA 290730Z 16003MPS 130V220 CAVOK 29/03 Q1000 NOSIG
ZBAA,2025-04-29 08:00,ZBAA 290800Z 19006MPS CAVOK 30/04 Q0999 NOSIG
ZBAA,2025-04-29 08:30,ZBAA 290830Z 19006MPS CAVOK 29/03 Q0999 NOSIG
ZBAA,2025-04-29 09:00,ZBAA 290900Z 22004MPS 170V260 CAVOK 29/03 Q0999 NOSIG
ZBAA,2025-04-29 09:30,ZBAA 290930Z 21004G09MPS 160V240 CAVOK 29/03 Q0999 NOSIG
ZBAA,2025-04-29 10:00,ZBAA 291000Z 21002MPS CAVOK 29/04 Q0999 NOSIG
ZBAA,2025-04-29 10:30,ZBAA 291030Z VRB01MPS CAVOK 27/08 Q0999 NOSIG
ZBAA,2025-04-29 11:00,ZBAA 291100Z VRB01MPS CAVOK 23/09 Q1000 NOSIG
ZBAA,2025-04-29 11:30,ZBAA 291130Z 10001MPS CAVOK 20/09 Q1000 NOSIG
ZBAA,2025-04-29 12:00,ZBAA 291200Z VRB01MPS CAVOK 19/10 Q1000 BECMG TL1340 02005MPS
ZBAA,2025-04-29 12:30,ZBAA 291230Z 01002MPS CAVOK 17/09 Q1001 NOSIG
ZBAA,2025-04-29 13:00,ZBAA 291300Z 35002MPS CAVOK 17/09 Q1001 NOSIG
ZBAA,2025-04-29 13:30,ZBAA 291330Z VRB01MPS CAVOK 17/09 Q1002 NOSIG
ZBAA,2025-04-29 14:00,ZBAA 291400Z 01002MPS CAVOK 15/09 Q1002 NOSIG
ZBAA,2025-04-29 14:30,ZBAA 291430Z 01002MPS CAVOK 15/10 Q1002 NOSIG
ZBAA,2025-04-29 15:00,ZBAA 291500Z 36003MPS CAVOK 16/09 Q1002 NOSIG
ZBAA,2025-04-29 15:30,ZBAA 291530Z VRB01MPS CAVOK 14/09 Q1002 NOSIG
ZBAA,2025-04-29 16:00,ZBAA 291600Z VRB01MPS CAVOK 15/10 Q1002 NOSIG
ZBAA,2025-04-29 16:30,ZBAA 291630Z VRB01MPS CAVOK 14/09 Q1002 NOSIG
ZBAA,2025-04-29 17:00,ZBAA 291700Z 02002MPS 360V070 CAVOK 14/09 Q1002 NOSIG
ZBAA,2025-04-29 17:30,ZBAA 291730Z 33002MPS CAVOK 15/09 Q1002 NOSIG
ZBAA,2025-04-29 18:00,ZBAA 291800Z 01004MPS 340V060 CAVOK 17/08 Q1002 NOSIG
ZBAA,2025-04-29 18:30,ZBAA 291830Z 00000MPS CAVOK 16/08 Q1002 NOSIG
ZBAA,2025-04-29 19:00,ZBAA 291900Z 36003MPS CAVOK 16/08 Q1002 NOSIG
ZBAA,2025-04-29 19:30,ZBAA 291930Z 36003MPS CAVOK 15/07 Q1002 NOSIG
ZBAA,2025-04-29 20:00,ZBAA 292000Z VRB01MPS CAVOK 12/08 Q1001 NOSIG
ZBAA,2025-04-29 20:30,ZBAA 292030Z VRB01MPS CAVOK 13/07 Q1001 NOSIG
ZBAA,2025-04-29 21:00,ZBAA 292100Z 33002MPS CAVOK 11/07 Q1001 NOSIG
ZBAA,2025-04-29 21:30,ZBAA 292130Z 34002MPS 320V020 CAVOK 12/07 Q1002 NOSIG
ZBAA,2025-04-29 22:00,ZBAA 292200Z 35002MPS CAVOK 14/07 Q1002 NOSIG
ZBAA,2025-04-29 22:30,ZBAA 292230Z 05002MPS 010V080 CAVOK 14/07 Q1002 NOSIG
ZBAA,2025-04-29 23:00,ZBAA 292300Z 02003MPS CAVOK 18/03 Q1002 NOSIG
ZBAA,2025-04-29 23:30,ZBAA 292330Z 04002MPS CAVOK 20/01 Q1002 NOSIG
ZBAA,2025-04-30 00:00,ZBAA 300000Z VRB01MPS CAVOK 20/02 Q1002 NOSIG
ZBAA,2025-04-30 00:30,ZBAA 300030Z VRB01MPS CAVOK 20/03 Q1002 NOSIG
ZBAA,2025-04-30 01:00,ZBAA 300100Z VRB01MPS CAVOK 23/01 Q1002 NOSIG
ZBAA,2025-04-30 01:30,ZBAA 300130Z 10002MPS 070V150 CAVOK 23/00 Q1002 NOSIG
ZBAA,2025-04-30 02:00,ZBAA 300200Z 09003MPS 050V150 CAVOK 25/M02 Q1002 NOSIG
ZBAA,2025-04-30 02:30,ZBAA 300230Z 11003MPS 070V150 CAVOK 25/M02 Q1002 NOSIG
ZBAA,2025-04-30 03:00,ZBAA 300300Z VRB02MPS CAVOK 26/01 Q1001 NOSIG
ZBAA,2025-04-30 03:30,ZBAA 300330Z 14002MPS 090V170 CAVOK 25/02 Q1001 NOSIG
ZBAA,2025-04-30 04:00,ZBAA 300400Z VRB01MPS CAVOK 26/M02 Q1001 NOSIG
ZBAA,2025-04-30 04:30,ZBAA 300430Z VRB01MPS CAVOK 27/M03 Q1000 NOSIG
ZBAA,2025-04-30 05:00,ZBAA 300500Z 34002MPS 260V040 CAVOK 28/M02 Q1000 NOSIG
ZBAA,2025-04-30 05:30,ZBAA 300530Z 34004MPS CAVOK 28/M05 Q1001 NOSIG
ZBAA,2025-04-30 06:00,ZBAA 300600Z 02003MPS 340V040 CAVOK 27/M03 Q1001 BECMG TL0720 34008MPS
ZBAA,2025-04-30 06:05,ZBAA 300605Z 32005MPS CAVOK 27/M06 Q1001 NOSIG
ZBAA,2025-04-30 06:16,ZBAA 300616Z 31010MPS 7000 NSC 25/M01 Q1002 NOSIG
ZBAA,2025-04-30 06:30,ZBAA 300630Z 32014G21MPS 9000 NSC 23/00 Q1003 NOSIG
ZBAA,2025-04-30 07:00,ZBAA 300700Z 32013G19MPS CAVOK 21/02 Q1004 BECMG TL0840 32008MPS
ZBAA,2025-04-30 07:30,ZBAA 300730Z 33015MPS CAVOK 20/03 Q1005 WS R36L NOSIG
ZBAA,2025-04-30 08:00,ZBAA 300800Z 33010G15MPS CAVOK 20/04 Q1004 NOSIG
ZBAA,2025-04-30 08:30,ZBAA 300830Z 30006MPS 280V340 9999 -RA NSC 20/04 Q1004 NOSIG
ZBAA,2025-04-30 09:00,ZBAA 300900Z 33007MPS CAVOK 22/04 Q1004 NOSIG
ZBAA,2025-04-30 09:30,ZBAA 300930Z 32005MPS CAVOK 22/03 Q1003 NOSIG
ZBAA,2025-04-30 10:00,ZBAA 301000Z 32005MPS CAVOK 21/03 Q1004 NOSIG
ZBAA,2025-04-30 10:30,ZBAA 301030Z 32005MPS CAVOK 21/03 Q1003 NOSIG
ZBAA,2025-04-30 11:00,ZBAA 301100Z 35004MPS CAVOK 19/03 Q1004 NOSIG
ZBAA,2025-04-30 11:30,ZBAA 301130Z 36002MPS 320V020 CAVOK 17/04 Q1005 NOSIG
ZBAA,2025-04-30 12:00,ZBAA 301200Z 02002MPS 330V040 CAVOK 15/05 Q1005 BECMG TL1340 31008MPS
ZBAA,2025-04-30 12:30,ZBAA 301230Z 01002MPS CAVOK 15/05 Q1006 NOSIG
ZBAA,2025-04-30 13:00,ZBAA 301300Z 36003MPS CAVOK 14/05 Q1006 BECMG TL1440 31008MPS
ZBAA,2025-04-30 13:30,ZBAA 301330Z 34004MPS CAVOK 15/05 Q1006 NOSIG
ZBAA,2025-04-30 14:00,ZBAA 301400Z 31007MPS CAVOK 18/02 Q1007 NOSIG
ZBAA,2025-04-30 14:30,ZBAA 301430Z 32010G15MPS CAVOK 19/M08 Q1007 NOSIG
ZBAA,2025-04-30 15:00,ZBAA 301500Z 33010MPS CAVOK 19/M12 Q1007 NOSIG
ZBAA,2025-04-30 15:30,ZBAA 301530Z 34011G16MPS CAVOK 18/M13 Q1008 NOSIG
ZBAA,2025-04-30 16:00,ZBAA 301600Z 34010MPS CAVOK 18/M13 Q1008 BECMG TL1740 33005MPS
ZBAA,2025-04-30 16:30,ZBAA 301630Z 33008MPS CAVOK 18/M12 Q1008 NOSIG
ZBAA,2025-04-30 17:00,ZBAA 301700Z 34006MPS CAVOK 17/M12 Q1008 NOSIG
ZBAA,2025-04-30 17:30,ZBAA 301730Z 33005MPS CAVOK 17/M11 Q1008 NOSIG
ZBAA,2025-04-30 18:00,ZBAA 301800Z 32006MPS CAVOK 17/M12 Q1008 NOSIG
ZBAA,2025-04-30 18:30,ZBAA 301830Z 30004MPS CAVOK 17/M11 Q1008 NOSIG
ZBAA,2025-04-30 19:00,ZBAA 301900Z 26002MPS 190V320 CAVOK 12/M07 Q1007 NOSIG
ZBAA,2025-04-30 19:30,ZBAA 301930Z 27002MPS CAVOK 10/M06 Q1007 NOSIG
ZBAA,2025-04-30 20:00,ZBAA 302000Z 27003MPS CAVOK 15/M09 Q1007 NOSIG
ZBAA,2025-04-30 20:30,ZBAA 302030Z 31003MPS CAVOK 11/M06 Q1007 NOSIG
ZBAA,2025-04-30 21:00,ZBAA 302100Z 30005MPS CAVOK 16/M10 Q1008 NOSIG
ZBAA,2025-04-30 21:30,ZBAA 302130Z 29004MPS CAVOK 15/M10 Q1008 NOSIG
ZBAA,2025-04-30 22:00,ZBAA 302200Z 29005MPS CAVOK 16/M10 Q1008 NOSIG
ZBAA,2025-04-30 22:30,ZBAA 302230Z 31009MPS CAVOK 18/M08 Q1009 NOSIG
ZBAA,2025-04-30 23:00,ZBAA 302300Z 31008MPS CAVOK 18/M07 Q1009 NOSIG
ZBAA,2025-04-30 23:30,ZBAA 302330Z 31008MPS CAVOK 19/M07 Q1009 NOSIG
ZBAA,2025-05-01 00:00,ZBAA 010000Z 32009MPS CAVOK 20/M06 Q1009 NOSIG
ZBAA,2025-05-01 00:30,ZBAA 010030Z 36007MPS 330V050 CAVOK 19/M03 Q1009 NOSIG
ZBAA,2025-05-01 01:00,ZBAA 010100Z 05005MPS CAVOK 18/M03 Q1010 NOSIG
ZBAA,2025-05-01 01:30,ZBAA 010130Z VRB04MPS CAVOK 19/M03 Q1010 NOSIG
ZBAA,2025-05-01 02:00,ZBAA 010200Z 03003MPS 330V090 CAVOK 20/M02 Q1010 NOSIG
ZBAA,2025-05-01 02:30,ZBAA 010230Z 06003MPS 340V140 CAVOK 20/M03 Q1010 NOSIG
ZBAA,2025-05-01 03:00,ZBAA 010300Z VRB02MPS CAVOK 21/M02 Q1010 NOSIG
ZBAA,2025-05-01 03:30,ZBAA 010330Z VRB03MPS CAVOK 21/M02 Q1010 NOSIG
ZBAA,2025-05-01 04:00,ZBAA 010400Z 08003MPS 030V140 CAVOK 21/M02 Q1010 NOSIG
ZBAA,2025-05-01 04:30,ZBAA 010430Z 03003MPS 320V090 CAVOK 22/M03 Q1009 NOSIG
ZBAA,2025-05-01 05:00,ZBAA 010500Z 15002MPS 050V200 CAVOK 23/M01 Q1009 NOSIG
ZBAA,2025-05-01 05:30,ZBAA 010530Z VRB02MPS CAVOK 23/M02 Q1009 NOSIG
ZBAA,2025-05-01 06:00,ZBAA 010600Z VRB02MPS CAVOK 24/M03 Q1008 NOSIG
ZBAA,2025-05-01 06:30,ZBAA 010630Z VRB02MPS CAVOK 24/M02 Q1008 NOSIG
ZBAA,2025-05-01 07:00,ZBAA 010700Z 03002MPS 340V070 CAVOK 24/M03 Q1008 NOSIG
ZBAA,2025-05-01 07:30,ZBAA 010730Z VRB01MPS CAVOK 24/M04 Q1007 NOSIG
ZBAA,2025-05-01 08:00,ZBAA 010800Z VRB01MPS CAVOK 24/M03 Q1007 NOSIG
ZBAA,2025-05-01 08:30,ZBAA 010830Z VRB01MPS CAVOK 24/M04 Q1007 NOSIG
ZBAA,2025-05-01 09:00,ZBAA 010900Z 14002MPS 100V200 CAVOK 24/M02 Q1007 NOSIG
ZBAA,2025-05-01 09:30,ZBAA 010930Z VRB01MPS CAVOK 23/M02 Q1007 NOSIG
ZBAA,2025-05-01 10:00,ZBAA 011000Z 10002MPS CAVOK 22/M02 Q1007 NOSIG
ZBAA,2025-05-01 10:30,ZBAA 011030Z 13002MPS CAVOK 22/00 Q1008 NOSIG
ZBAA,2025-05-01 11:00,ZBAA 011100Z 13002MPS CAVOK 20/M00 Q1008 NOSIG
ZBAA,2025-05-01 11:30,ZBAA 011130Z 15003MPS CAVOK 21/01 Q1008 NOSIG
ZBAA,2025-05-01 12:00,ZBAA 011200Z 14002MPS CAVOK 19/01 Q1009 NOSIG
ZBAA,2025-05-01 12:30,ZBAA 011230Z 11002MPS CAVOK 18/03 Q1009 NOSIG
ZBAA,2025-05-01 13:00,ZBAA 011300Z 08002MPS CAVOK 16/04 Q1010 NOSIG
ZBAA,2025-05-01 13:30,ZBAA 011330Z 09002MPS CAVOK 18/03 Q1010 NOSIG
ZBAA,2025-05-01 14:00,ZBAA 011400Z 16002MPS 110V250 CAVOK 18/03 Q1010 NOSIG
ZBAA,2025-05-01 14:30,ZBAA 011430Z 11002MPS CAVOK 17/04 Q1010 NOSIG
ZBAA,2025-05-01 15:00,ZBAA 011500Z 35002MPS 320V050 CAVOK 17/05 Q1010 NOSIG
ZBAA,2025-05-01 15:30,ZBAA 011530Z VRB01MPS CAVOK 16/05 Q1010 NOSIG
ZBAA,2025-05-01 16:00,ZBAA 011600Z VRB02MPS CAVOK 19/02 Q1010 NOSIG
ZBAA,2025-05-01 16:30,ZBAA 011630Z VRB01MPS CAVOK 17/03 Q1010 NOSIG
ZBAA,2025-05-01 17:00,ZBAA 011700Z 11002MPS 040V200 CAVOK 18/02 Q1009 NOSIG
ZBAA,2025-05-01 17:30,ZBAA 011730Z 10001MPS CAVOK 16/01 Q1009 NOSIG
ZBAA,2025-05-01 18:00,ZBAA 011800Z 10002MPS 070V130 CAVOK 16/00 Q1009 NOSIG
ZBAA,2025-05-01 18:30,ZBAA 011830Z 12004MPS 080V160 CAVOK 17/01 Q1008 NOSIG
ZBAA,2025-05-01 19:00,ZBAA 011900Z 12004MPS 080V150 CAVOK 17/M01 Q1008 NOSIG
ZBAA,2025-05-01 19:30,ZBAA 011930Z 11004MPS 060V150 CAVOK 16/M00 Q1008 NOSIG
ZBAA,2025-05-01 20:00,ZBAA 012000Z 11002MPS 070V200 CAVOK 15/M01 Q1008 NOSIG
ZBAA,2025-05-01 20:30,ZBAA 012030Z VRB02MPS CAVOK 15/M00 Q1009 NOSIG
ZBAA,2025-05-01 21:00,ZBAA 012100Z 11002MPS 060V190 CAVOK 15/M00 Q1010 NOSIG
ZBAA,2025-05-01 21:30,ZBAA 012130Z VRB02MPS CAVOK 14/00 Q1010 NOSIG
ZBAA,2025-05-01 22:00,ZBAA 012200Z VRB01MPS CAVOK 14/02 Q1011 NOSIG
ZBAA,2025-05-01 22:30,ZBAA 012230Z 07004MPS 9999 -SHRA NSC 12/05 Q1010 NOSIG
ZBAA,2025-05-01 23:00,ZBAA 012300Z 07003MPS 040V140 9999 -SHRA NSC 13/04 Q1009 NOSIG
ZBAA,2025-05-01 23:30,ZBAA 012330Z VRB01MPS CAVOK 13/04 Q1010 NOSIG
ZBAA,2025-05-02 00:00,ZBAA 020000Z 04002MPS 350V080 CAVOK 13/04 Q1010 NOSIG
ZBAA,2025-05-02 00:30,ZBAA 020030Z 35003MPS 310V030 CAVOK 14/05 Q1010 NOSIG
ZBAA,2025-05-02 01:00,ZBAA 020100Z 36003MPS 330V030 CAVOK 14/06 Q1010 NOSIG
ZBAA,2025-05-02 01:30,ZBAA 020130Z 33002MPS 270V040 CAVOK 15/05 Q1011 NOSIG
ZBAA,2025-05-02 02:00,ZBAA 020200Z 03004MPS 360V080 CAVOK 15/05 Q1011 NOSIG
ZBAA,2025-05-02 02:30,ZBAA 020230Z 04005MPS 350V080 CAVOK 16/04 Q1011 NOSIG
ZBAA,2025-05-02 03:00,ZBAA 020300Z 05005MPS 020V080 CAVOK 16/04 Q1010 NOSIG
ZBAA,2025-05-02 03:30,ZBAA 020330Z 04006MPS 010V070 CAVOK 16/04 Q1011 NOSIG
ZBAA,2025-05-02 04:00,ZBAA 020400Z 04006MPS CAVOK 16/05 Q1011 NOSIG
ZBAA,2025-05-02 04:30,ZBAA 020430Z 04005MPS 010V070 CAVOK 15/05 Q1010 NOSIG
ZBAA,2025-05-02 05:00,ZBAA 020500Z 03004MPS 360V060 CAVOK 16/05 Q1010 NOSIG
ZBAA,2025-05-02 05:30,ZBAA 020530Z 03005MPS 350V060 CAVOK 18/06 Q1010 NOSIG
ZBAA,2025-05-02 06:00,ZBAA 020600Z 04005MPS 360V070 CAVOK 17/06 Q1010 NOSIG
ZBAA,2025-05-02 06:30,ZBAA 020630Z 03005MPS 350V080 CAVOK 17/06 Q1010 NOSIG
ZBAA,2025-05-02 07:00,ZBAA 020700Z 02004MPS 360V060 CAVOK 16/06 Q1010 NOSIG
ZBAA,2025-05-02 07:30,ZBAA 020730Z 01003MPS 9999 -RA NSC 16/06 Q1010 NOSIG
ZBAA,2025-05-02 08:00,ZBAA 020800Z 36004MPS 9999 -RA NSC 16/05 Q1011 NOSIG
ZBAA,2025-05-02 08:30,ZBAA 020830Z 32004MPS 290V350 9999 -RA NSC 16/06 Q1011 NOSIG
ZBAA,2025-05-02 09:00,ZBAA 020900Z 32004MPS CAVOK 16/06 Q1011 NOSIG
ZBAA,2025-05-02 09:30,ZBAA 020930Z 31004MPS 280V350 CAVOK 16/06 Q1011 NOSIG
ZBAA,2025-05-02 10:00,ZBAA 021000Z 28004MPS 250V330 CAVOK 16/05 Q1011 NOSIG
ZBAA,2025-05-02 10:30,ZBAA 021030Z 28004MPS 240V330 CAVOK 16/06 Q1011 NOSIG
ZBAA,2025-05-02 11:00,ZBAA 021100Z 30005MPS 270V340 CAVOK 16/06 Q1011 NOSIG
ZBAA,2025-05-02 11:30,ZBAA 021130Z 30005MPS CAVOK 16/05 Q1011 NOSIG
ZBAA,2025-05-02 12:00,ZBAA 021200Z 29004MPS 270V350 CAVOK 16/05 Q1011 NOSIG
ZBAA,2025-05-02 12:30,ZBAA 021230Z 28003MPS 240V340 CAVOK 16/05 Q1011 NOSIG
ZBAA,2025-05-02 13:00,ZBAA 021300Z 27002MPS 200V350 CAVOK 15/05 Q1012 NOSIG
ZBAA,2025-05-02 13:30,ZBAA 021330Z 26003MPS 230V330 CAVOK 15/05 Q1012 NOSIG
ZBAA,2025-05-02 14:00,ZBAA 021400Z VRB01MPS CAVOK 10/05 Q1012 NOSIG
ZBAA,2025-05-02 14:30,ZBAA 021430Z VRB01MPS CAVOK 10/05 Q1012 NOSIG
ZBAA,2025-05-02 14:46,ZBAA 021446Z 31006MPS CAVOK 15/04 Q1012 NOSIG
ZBAA,2025-05-02 15:00,ZBAA 021500Z 30007MPS CAVOK 15/04 Q1012 NOSIG
ZBAA,2025-05-02 15:30,ZBAA 021530Z 31007MPS CAVOK 15/03 Q1012 NOSIG
ZBAA,2025-05-02 16:00,ZBAA 021600Z 30005MPS CAVOK 15/03 Q1012 NOSIG
ZBAA,2025-05-02 16:30,ZBAA 021630Z 31005MPS CAVOK 15/02 Q1012 NOSIG
ZBAA,2025-05-02 17:00,ZBAA 021700Z 32005MPS CAVOK 15/01 Q1012 NOSIG
ZBAA,2025-05-02 17:30,ZBAA 021730Z 35005MPS CAVOK 10/04 Q1012 NOSIG
ZBAA,2025-05-02 18:00,ZBAA 021800Z 34003MPS 320V020 CAVOK 09/04 Q1013 NOSIG
ZBAA,2025-05-02 18:30,ZBAA 021830Z 01003MPS CAVOK 10/04 Q1013 NOSIG
ZBAA,2025-05-02 19:00,ZBAA 021900Z 36002MPS 340V040 CAVOK 09/04 Q1014 NOSIG
ZBAA,2025-05-02 19:30,ZBAA 021930Z 34002MPS CAVOK 08/05 Q1014 NOSIG
ZBAA,2025-05-02 20:00,ZBAA 022000Z 35003MPS CAVOK 07/04 Q1014 NOSIG
ZBAA,2025-05-02 20:30,ZBAA 022030Z 35004MPS CAVOK 06/04 Q1014 NOSIG
ZBAA,2025-05-02 21:00,ZBAA 022100Z 01002MPS 330V040 CAVOK 07/04 Q1015 NOSIG
ZBAA,2025-05-02 21:30,ZBAA 022130Z 02002MPS 340V040 CAVOK 07/04 Q1015 NOSIG
ZBAA,2025-05-02 22:00,ZBAA 022200Z 35001MPS CAVOK 07/04 Q1015 NOSIG
ZBAA,2025-05-02 22:30,ZBAA 022230Z 33003MPS 290V350 CAVOK 11/02 Q1015 NOSIG
ZBAA,2025-05-02 23:00,ZBAA 022300Z 31006MPS CAVOK 16/M07 Q1016 NOSIG
ZBAA,2025-05-02 23:30,ZBAA 022330Z 32007MPS CAVOK 17/M09 Q1016 NOSIG
ZBAA,2025-05-03 00:00,ZBAA 030000Z 31007MPS CAVOK 17/M09 Q1016 NOSIG
ZBAA,2025-05-03 00:30,ZBAA 030030Z 32008MPS CAVOK 18/M09 Q1016 NOSIG
ZBAA,2025-05-03 01:00,ZBAA 030100Z 31007G12MPS CAVOK 19/M09 Q1016 NOSIG
ZBAA,2025-05-03 01:30,ZBAA 030130Z 33007MPS 300V010 CAVOK 20/M09 Q1016 NOSIG
ZBAA,2025-05-03 02:00,ZBAA 030200Z 33005G10MPS 300V010 CAVOK 20/M10 Q1016 NOSIG
ZBAA,2025-05-03 02:30,ZBAA 030230Z 32005G10MPS 280V350 CAVOK 20/M10 Q1016 NOSIG
ZBAA,2025-05-03 03:00,ZBAA 030300Z 36006MPS 320V040 CAVOK 21/M10 Q1015 NOSIG
ZBAA,2025-05-03 03:30,ZBAA 030330Z 34006G11MPS 300V010 CAVOK 23/M10 Q1015 NOSIG
ZBAA,2025-05-03 03:48,ZBAA 030348Z 28005MPS 250V010 CAVOK 21/M09 Q1014 NOSIG
ZBAA,2025-05-03 04:00,ZBAA 030400Z 34006MPS 300V010 CAVOK 23/M09 Q1014 NOSIG
ZBAA,2025-05-03 04:23,ZBAA 030423Z 28006G11MPS 240V340 CAVOK 22/M08 Q1013 NOSIG
ZBAA,2025-05-03 04:30,ZBAA 030430Z 28007MPS 240V320 CAVOK 22/M08 Q1013 NOSIG
ZBAA,2025-05-03 05:00,ZBAA 030500Z 31007MPS 260V340 CAVOK 23/M11 Q1013 NOSIG
ZBAA,2025-05-03 05:30,ZBAA 030530Z 33008MPS 280V010 CAVOK 24/M08 Q1012 NOSIG
ZBAA,2025-05-03 06:00,ZBAA 030600Z 30008MPS 270V330 CAVOK 24/M11 Q1012 NOSIG
ZBAA,2025-05-03 06:30,ZBAA 030630Z 31007MPS 270V340 CAVOK 24/M09 Q1011 NOSIG
ZBAA,2025-05-03 07:00,COR ZBAA 030700Z 29009MPS 260V330 CAVOK 23/M09 Q1011 BECMG TL0840 34004MPS
ZBAA,2025-05-03 07:15,ZBAA 030715Z 28004MPS 230V350 CAVOK 23/M09 Q1011 NOSIG
ZBAA,2025-05-03 07:30,ZBAA 030730Z 27005G11MPS 230V330 CAVOK 24/M09 Q1010 NOSIG
ZBAA,2025-05-03 08:00,ZBAA 030800Z 29005G10MPS 250V330 CAVOK 24/M09 Q1010 NOSIG
ZBAA,2025-05-03 08:30,ZBAA 030830Z 28006MPS 260V330 CAVOK 24/M09 Q1010 NOSIG
ZBAA,2025-05-03 09:00,ZBAA 030900Z 29006MPS 260V320 CAVOK 24/M09 Q1010 NOSIG
ZBAA,2025-05-03 09:30,ZBAA 030930Z 31005MPS 280V340 CAVOK 24/M09 Q1009 NOSIG
ZBAA,2025-05-03 10:00,ZBAA 031000Z 28006MPS 260V320 CAVOK 24/M08 Q1009 NOSIG
ZBAA,2025-05-03 10:30,ZBAA 031030Z 27007MPS CAVOK 23/M09 Q1009 NOSIG
ZBAA,2025-05-03 11:00,ZBAA 031100Z 26005MPS 230V310 CAVOK 23/M09 Q1009 NOSIG
ZBAA,2025-05-03 11:30,ZBAA 031130Z 25004MPS 230V310 CAVOK 23/M09 Q1010 NOSIG
ZBAA,2025-05-03 12:00,ZBAA 031200Z 22005MPS CAVOK 21/M07 Q1010 NOSIG
ZBAA,2025-05-03 12:30,ZBAA 031230Z 22006MPS 200V280 CAVOK 21/M06 Q1010 NOSIG
ZBAA,2025-05-03 13:00,COR ZBAA 031300Z 22007MPS 200V290 CAVOK 20/M04 Q1010 BECMG TL1450 16003MPS
ZBAA,2025-05-03 13:30,ZBAA 031330Z 22007MPS CAVOK 20/M04 Q1010 NOSIG
ZBAA,2025-05-03 14:00,ZBAA 031400Z 23008MPS CAVOK 20/M04 Q1010 BECMG TL1550 16003MPS
ZBAA,2025-05-03 14:30,ZBAA 031430Z 23008MPS CAVOK 19/M04 Q1010 NOSIG
ZBAA,2025-05-03 15:00,ZBAA 031500Z 23007MPS CAVOK 19/M04 Q1010 BECMG TL1640 16003MPS
ZBAA,2025-05-03 15:30,ZBAA 031530Z 23007MPS CAVOK 19/M03 Q1011 NOSIG
ZBAA,2025-05-03 16:00,ZBAA 031600Z 23006MPS CAVOK 19/M03 Q1011 BECMG TL1740 16003MPS
ZBAA,2025-05-03 16:30,ZBAA 031630Z 23005MPS CAVOK 18/M03 Q1011 NOSIG
ZBAA,2025-05-03 17:00,ZBAA 031700Z 24005MPS CAVOK 18/M03 Q1011 BECMG TL1840 16003MPS
ZBAA,2025-05-03 17:30,ZBAA 031730Z 24003MPS CAVOK 17/M02 Q1011 NOSIG
ZBAA,2025-05-03 18:00,ZBAA 031800Z 28002MPS CAVOK 17/M02 Q1011 NOSIG
ZBAA,2025-05-03 18:30,ZBAA 031830Z 30002MPS 270V040 CAVOK 16/M02 Q1011 NOSIG
ZBAA,2025-05-03 19:00,ZBAA 031900Z 33002MPS 300V020 CAVOK 15/M02 Q1011 NOSIG
ZBAA,2025-05-03 19:30,ZBAA 031930Z 01002MPS 360V070 CAVOK 13/M02 Q1011 NOSIG
ZBAA,2025-05-03 20:00,ZBAA 032000Z 35002MPS 310V020 CAVOK 12/M02 Q1011 NOSIG
ZBAA,2025-05-03 20:30,ZBAA 032030Z 35002MPS 310V070 CAVOK 12/M01 Q1011 NOSIG
ZBAA,2025-05-03 21:00,ZBAA 032100Z 01002MPS CAVOK 10/M01 Q1011 NOSIG
ZBAA,2025-05-03 21:30,ZBAA 032130Z 02003MPS 350V080 CAVOK 11/M01 Q1011 NOSIG
ZBAA,2025-05-03 22:00,ZBAA 032200Z 36002MPS CAVOK 12/00 Q1012 NOSIG
ZBAA,2025-05-03 22:30,ZBAA 032230Z 36002MPS CAVOK 10/03 Q1012 NOSIG
ZBAA,2025-05-03 23:00,ZBAA 032300Z 02002MPS CAVOK 14/02 Q1012 NOSIG
ZBAA,2025-05-03 23:30,ZBAA 032330Z 01002MPS 340V040 CAVOK 15/01 Q1012 NOSIG
ZBAA,2025-05-04 00:00,ZBAA 040000Z VRB01MPS CAVOK 16/01 Q1012 NOSIG
ZBAA,2025-05-04 00:30,ZBAA 040030Z 02004G09MPS 340V060 CAVOK 18/M02 Q1012 NOSIG
ZBAA,2025-05-04 01:00,ZBAA 040100Z 03005MPS 350V070 CAVOK 19/M03 Q1012 BECMG TL0240 10004MPS
ZBAA,2025-05-04 01:30,ZBAA 040130Z 03004MPS 350V080 CAVOK 20/M04 Q1012 NOSIG
ZBAA,2025-05-04 02:00,ZBAA 040200Z 02004MPS 330V050 CAVOK 21/M04 Q1012 NOSIG
ZBAA,2025-05-04 02:30,ZBAA 040230Z 03004MPS 350V060 CAVOK 22/M03 Q1011 NOSIG
ZBAA,2025-05-04 03:00,ZBAA 040300Z 07002MPS 350V130 CAVOK 23/M04 Q1011 NOSIG
ZBAA,2025-05-04 03:30,ZBAA 040330Z VRB02MPS CAVOK 23/M03 Q1010 NOSIG
ZBAA,2025-05-04 04:00,ZBAA 040400Z VRB02MPS CAVOK 24/M03 Q1010 NOSIG
ZBAA,2025-05-04 04:30,ZBAA 040430Z 19003MPS 140V240 CAVOK 24/M02 Q1010 NOSIG
ZBAA,2025-05-04 05:00,ZBAA 040500Z 15005MPS 110V190 CAVOK 23/M03 Q1009 NOSIG
ZBAA,2025-05-04 05:30,ZBAA 040530Z 17003MPS 110V200 CAVOK 24/M02 Q1009 NOSIG
ZBAA,2025-05-04 06:00,ZBAA 040600Z 15002MPS 080V230 CAVOK 24/00 Q1008 NOSIG
ZBAA,2025-05-04 06:30,ZBAA 040630Z VRB02MPS CAVOK 24/M02 Q1008 NOSIG
ZBAA,2025-05-04 07:00,ZBAA 040700Z VRB01MPS CAVOK 25/M00 Q1008 BECMG TL0840 19005MPS
ZBAA,2025-05-04 07:30,ZBAA 040730Z 13002MPS 060V170 CAVOK 24/01 Q1007 NOSIG
ZBAA,2025-05-04 08:00,ZBAA 040800Z 10002MPS 060V140 CAVOK 24/03 Q1007 NOSIG
ZBAA,2025-05-04 08:30,ZBAA 040830Z 08002MPS 040V120 CAVOK 23/04 Q1007 NOSIG
ZBAA,2025-05-04 09:00,ZBAA 040900Z VRB01MPS CAVOK 23/04 Q1008 NOSIG
ZBAA,2025-05-04 09:30,ZBAA 040930Z 12002MPS 090V150 CAVOK 22/05 Q1007 NOSIG
ZBAA,2025-05-04 10:00,ZBAA 041000Z 16003MPS CAVOK 22/05 Q1007 NOSIG
ZBAA,2025-05-04 10:30,ZBAA 041030Z 17004MPS CAVOK 22/05 Q1007 NOSIG
ZBAA,2025-05-04 10:46,ZBAA 041046Z 27007MPS CAVOK 23/M01 Q1007 NOSIG
ZBAA,2025-05-04 11:00,COR ZBAA 041100Z 29004G09MPS 180V350 CAVOK 23/M01 Q1007 WS R18R NOSIG
ZBAA,2025-05-04 11:19,ZBAA 041119Z 21006MPS 9999 -SHRA NSC 22/03 Q1008 NOSIG
ZBAA,2025-05-04 11:23,ZBAA 041123Z 34006MPS 320V120 9999 -SHRA NSC 22/04 Q1008 NOSIG
ZBAA,2025-05-04 11:30,COR ZBAA 041130Z VRB06MPS 9999 -SHRA NSC 21/05 Q1009 WS R18L NOSIG
ZBAA,2025-05-04 12:00,ZBAA 041200Z 03003MPS 9999 -SHRA NSC 20/05 Q1009 NOSIG
ZBAA,2025-05-04 12:30,ZBAA 041230Z 34003MPS 250V060 9999 -RA NSC 20/06 Q1009 NOSIG
ZBAA,2025-05-04 13:00,ZBAA 041300Z 34005MPS 300V020 9999 -RA NSC 17/09 Q1010 NOSIG
ZBAA,2025-05-04 13:30,ZBAA 041330Z 35004MPS 9999 -RA NSC 16/10 Q1010 NOSIG
ZBAA,2025-05-04 14:00,ZBAA 041400Z 08002MPS 360V100 9999 -RA NSC 15/11 Q1010 NOSIG
ZBAA,2025-05-04 14:30,ZBAA 041430Z VRB01MPS 9999 -RA NSC 15/11 Q1011 NOSIG
ZBAA,2025-05-04 15:00,ZBAA 041500Z 07003MPS 040V150 CAVOK 15/11 Q1010 NOSIG
ZBAA,2025-05-04 15:30,ZBAA 041530Z 09002MPS 040V110 CAVOK 15/11 Q1010 NOSIG
ZBAA,2025-05-04 16:00,ZBAA 041600Z 35002MPS 320V050 9999 -RA NSC 15/11 Q1010 NOSIG
ZBAA,2025-05-04 16:30,ZBAA 041630Z 02002MPS 9999 -RA NSC 14/12 Q1010 NOSIG
ZBAA,2025-05-04 17:00,ZBAA 041700Z 03002MPS 9999 -RA NSC 13/12 Q1010 NOSIG
ZBAA,2025-05-04 17:30,ZBAA 041730Z VRB01MPS 9999 -RA NSC 13/12 Q1009 NOSIG
ZBAA,2025-05-04 18:00,ZBAA 041800Z 36001MPS 9999 -RA NSC 13/12 Q1009 NOSIG
ZBAA,2025-05-04 18:30,ZBAA 041830Z 36002MPS 9999 -RA NSC 13/12 Q1009 NOSIG
ZBAA,2025-05-04 19:00,ZBAA 041900Z 11002MPS 070V140 9999 -RA NSC 13/12 Q1008 NOSIG
ZBAA,2025-05-04 19:30,ZBAA 041930Z VRB01MPS CAVOK 13/12 Q1008 NOSIG
ZBAA,2025-05-04 20:00,ZBAA 042000Z VRB01MPS CAVOK 13/12 Q1008 NOSIG
ZBAA,2025-05-04 20:30,ZBAA 042030Z VRB01MPS 8000 NSC 12/11 Q1007 NOSIG
ZBAA,2025-05-04 21:00,ZBAA 042100Z VRB01MPS 6000 SCT006 12/11 Q1007 NOSIG
ZBAA,2025-05-04 21:30,ZBAA 042130Z 05001MPS 6000 FEW006 11/11 Q1007 NOSIG
ZBAA,2025-05-04 22:00,ZBAA 042200Z 00000MPS 5000 BR FEW020 12/11 Q1007 NOSIG
ZBAA,2025-05-04 22:30,ZBAA 042230Z 05001MPS 5000 BR FEW020 12/12 Q1007 NOSIG
ZBAA,2025-05-04 23:00,ZBAA 042300Z 00000MPS 5000 BR FEW020 12/12 Q1007 NOSIG
ZBAA,2025-05-04 23:30,ZBAA 042330Z 14002MPS 100V190 5000 BR FEW006 SCT020 13/12 Q1007 NOSIG
ZBAA,2025-05-05 00:00,ZBAA 050000Z 14002MPS 100V170 6000 FEW006 SCT026 13/12 Q1007 NOSIG
ZBAA,2025-05-05 00:30,ZBAA 050030Z 14002MPS 100V180 6000 FEW006 SCT026 14/12 Q1006 NOSIG
ZBAA,2025-05-05 01:00,ZBAA 050100Z 14002MPS 110V180 8000 FEW010 SCT026 14/12 Q1006 NOSIG
ZBAA,2025-05-05 01:30,ZBAA 050130Z 14002MPS 100V170 9999 SCT026 15/11 Q1006 NOSIG
ZBAA,2025-05-05 02:00,ZBAA 050200Z 14002MPS 100V200 9999 SCT026 15/11 Q1006 NOSIG
ZBAA,2025-05-05 02:30,ZBAA 050230Z 14002MPS 100V190 9999 SCT026 16/11 Q1005 NOSIG
ZBAA,2025-05-05 03:00,ZBAA 050300Z 12002MPS 060V200 9999 SCT026 17/11 Q1005 NOSIG
ZBAA,2025-05-05 03:30,ZBAA 050330Z VRB01MPS 9999 SCT026 17/10 Q1004 NOSIG
ZBAA,2025-05-05 04:00,ZBAA 050400Z VRB01MPS 9999 SCT026 17/11 Q1004 NOSIG
ZBAA,2025-05-05 04:30,ZBAA 050430Z 15002MPS 110V210 9999 SCT026 17/11 Q1004 NOSIG
ZBAA,2025-05-05 05:00,ZBAA 050500Z 13002MPS 070V160 9999 SCT026 17/10 Q1004 NOSIG
ZBAA,2025-05-05 05:30,ZBAA 050530Z 13002MPS 090V160 9999 SCT026 18/10 Q1004 NOSIG
ZBAA,2025-05-05 06:00,ZBAA 050600Z 14002MPS 080V190 9999 SCT026 18/10 Q1003 NOSIG
ZBAA,2025-05-05 06:30,ZBAA 050630Z 13002MPS 100V160 9999 SCT026 18/10 Q1003 NOSIG
ZBAA,2025-05-05 07:00,ZBAA 050700Z 15002MPS 100V170 9999 SCT026 18/10 Q1003 NOSIG
ZBAA,2025-05-05 07:30,ZBAA 050730Z 15002MPS 9999 SCT026 17/11 Q1003 NOSIG
ZBAA,2025-05-05 08:00,ZBAA 050800Z 14002MPS 9999 -SHRA OVC040 17/11 Q1003 NOSIG
ZBAA,2025-05-05 08:30,ZBAA 050830Z VRB01MPS 9999 -SHRA OVC040 17/11 Q1003 NOSIG
ZBAA,2025-05-05 09:00,ZBAA 050900Z 12001MPS 9999 -SHRA OVC040 17/12 Q1003 NOSIG
ZBAA,2025-05-05 09:30,ZBAA 050930Z 14002MPS 9999 FEW033 17/12 Q1003 NOSIG
ZBAA,2025-05-05 10:00,ZBAA 051000Z 09002MPS 050V150 9999 -SHRA FEW033 17/12 Q1003 NOSIG
ZBAA,2025-05-05 10:30,ZBAA 051030Z 06002MPS 9999 FEW033 17/12 Q1004 NOSIG
ZBAA,2025-05-05 11:00,ZBAA 051100Z VRB01MPS 9999 FEW033 17/12 Q1004 NOSIG
ZBAA,2025-05-05 11:30,ZBAA 051130Z 07001MPS 9999 FEW033CB 16/12 Q1005 NOSIG
ZBAA,2025-05-05 12:00,ZBAA 051200Z 02003MPS 9999 -SHRA BKN033 FEW033CB 16/12 Q1006 WS R19 NOSIG
ZBAA,2025-05-05 12:30,ZBAA 051230Z 03004MPS 9999 -SHRA BKN033 FEW033CB 13/10 Q1006 NOSIG
ZBAA,2025-05-05 13:00,ZBAA 051300Z 01005MPS 340V040 9999 -SHRA BKN040 13/10 Q1007 BECMG TL1440 10004MPS
ZBAA,2025-05-05 13:30,ZBAA 051330Z 36005MPS 9999 -SHRA NSC 13/10 Q1007 NOSIG
ZBAA,2025-05-05 14:00,ZBAA 051400Z 02004MPS 350V050 CAVOK 12/09 Q1007 NOSIG
ZBAA,2025-05-05 14:30,ZBAA 051430Z 02004MPS 350V060 CAVOK 13/09 Q1007 NOSIG
ZBAA,2025-05-05 15:00,ZBAA 051500Z 05004MPS 010V090 CAVOK 13/08 Q1008 NOSIG
ZBAA,2025-05-05 15:30,ZBAA 051530Z 02003MPS 350V050 CAVOK 13/08 Q1008 NOSIG
ZBAA,2025-05-05 16:00,ZBAA 051600Z 01002MPS CAVOK 12/08 Q1008 NOSIG
ZBAA,2025-05-05 16:30,ZBAA 051630Z 02003MPS CAVOK 13/09 Q1008 NOSIG
ZBAA,2025-05-05 17:00,ZBAA 051700Z 01003MPS CAVOK 13/08 Q1009 NOSIG
ZBAA,2025-05-05 17:30,ZBAA 051730Z 03003MPS CAVOK 13/08 Q1009 NOSIG
ZBAA,2025-05-05 18:00,ZBAA 051800Z 04003MPS CAVOK 12/07 Q1009 NOSIG
ZBAA,2025-05-05 18:30,ZBAA 051830Z 03003MPS 360V060 CAVOK 12/07 Q1009 NOSIG
ZBAA,2025-05-05 19:00,ZBAA 051900Z 03002MPS CAVOK 11/06 Q1010 NOSIG
ZBAA,2025-05-05 19:30,ZBAA 051930Z 36003MPS CAVOK 10/06 Q1010 NOSIG
ZBAA,2025-05-05 20:00,ZBAA 052000Z 35003MPS CAVOK 09/06 Q1010 NOSIG
ZBAA,2025-05-05 20:30,ZBAA 052030Z 04002MPS CAVOK 08/06 Q1010 NOSIG
ZBAA,2025-05-05 21:00,ZBAA 052100Z 06002MPS 030V090 CAVOK 09/06 Q1010 NOSIG
ZBAA,2025-05-05 21:30,ZBAA 052130Z 33003MPS CAVOK 10/07 Q1011 NOSIG
ZBAA,2025-05-05 22:00,ZBAA 052200Z 03002MPS 010V070 CAVOK 10/07 Q1012 NOSIG
ZBAA,2025-05-05 22:30,ZBAA 052230Z 03002MPS 360V070 CAVOK 13/05 Q1012 NOSIG
ZBAA,2025-05-05 23:00,ZBAA 052300Z VRB01MPS CAVOK 14/04 Q1012 NOSIG
ZBAA,2025-05-05 23:30,ZBAA 052330Z 07002MPS 050V120 CAVOK 14/04 Q1012 NOSIG
ZBAA,2025-05-06 00:00,ZBAA 060000Z VRB01MPS CAVOK 16/03 Q1012 NOSIG
ZBAA,2025-05-06 00:30,ZBAA 060030Z 04002MPS 340V140 CAVOK 17/03 Q1013 NOSIG
ZBAA,2025-05-06 01:00,ZBAA 060100Z 36004MPS CAVOK 18/02 Q1012 NOSIG
ZBAA,2025-05-06 01:30,ZBAA 060130Z 04002MPS 340V140 CAVOK 18/03 Q1012 NOSIG
ZBAA,2025-05-06 02:00,ZBAA 060200Z 36003MPS 300V040 CAVOK 19/02 Q1012 NOSIG
ZBAA,2025-05-06 02:30,ZBAA 060230Z 35003MPS 310V020 CAVOK 20/03 Q1012 NOSIG
ZBAA,2025-05-06 03:00,ZBAA 060300Z 36004MPS 320V070 CAVOK 20/01 Q1012 NOSIG
ZBAA,2025-05-06 03:30,ZBAA 060330Z VRB02MPS CAVOK 21/00 Q1011 NOSIG
ZBAA,2025-05-06 04:00,ZBAA 060400Z VRB03MPS CAVOK 22/M02 Q1011 NOSIG
ZBAA,2025-05-06 04:30,ZBAA 060430Z 01004MPS 320V100 CAVOK 22/M01 Q1011 NOSIG
ZBAA,2025-05-06 05:00,ZBAA 060500Z 01003MPS 330V080 CAVOK 22/M03 Q1010 NOSIG
ZBAA,2025-05-06 05:30,ZBAA 060530Z VRB02MPS CAVOK 23/M01 Q1010 NOSIG
ZBAA,2025-05-06 06:00,ZBAA 060600Z 35003MPS 280V080 CAVOK 24/M01 Q1010 NOSIG
ZBAA,2025-05-06 06:30,ZBAA 060630Z 26003MPS 190V340 CAVOK 23/M00 Q1009 NOSIG
ZBAA,2025-05-06 07:00,ZBAA 060700Z VRB02MPS CAVOK 24/M01 Q1009 NOSIG
ZBAA,2025-05-06 07:30,ZBAA 060730Z VRB02MPS CAVOK 24/M02 Q1008 NOSIG
ZBAA,2025-05-06 08:00,ZBAA 060800Z 17003MPS 120V260 CAVOK 22/M02 Q1008 NOSIG
ZBAA,2025-05-06 08:30,ZBAA 060830Z 16003MPS CAVOK 23/M01 Q1008 NOSIG
ZBAA,2025-05-06 09:00,ZBAA 060900Z 15004MPS 110V170 CAVOK 22/00 Q1008 NOSIG
ZBAA,2025-05-06 09:30,ZBAA 060930Z 17005MPS CAVOK 22/M00 Q1008 NOSIG
ZBAA,2025-05-06 10:00,ZBAA 061000Z 16005MPS CAVOK 21/00 Q1008 NOSIG
ZBAA,2025-05-06 10:30,ZBAA 061030Z 17006MPS CAVOK 20/02 Q1008 NOSIG
ZBAA,2025-05-06 11:00,ZBAA 061100Z 16005MPS CAVOK 19/03 Q1008 NOSIG
ZBAA,2025-05-06 11:30,ZBAA 061130Z 16003MPS CAVOK 18/03 Q1009 NOSIG
ZBAA,2025-05-06 12:00,ZBAA 061200Z 15003MPS CAVOK 18/04 Q1009 NOSIG
ZBAA,2025-05-06 12:30,ZBAA 061230Z 14003MPS CAVOK 17/05 Q1010 NOSIG
ZBAA,2025-05-06 13:00,ZBAA 061300Z 15003MPS CAVOK 17/06 Q1010 NOSIG
ZBAA,2025-05-06 13:30,ZBAA 061330Z 15002MPS CAVOK 16/06 Q1010 NOSIG
ZBAA,2025-05-06 14:00,ZBAA 061400Z 16002MPS CAVOK 14/06 Q1010 NOSIG
ZBAA,2025-05-06 14:30,ZBAA 061430Z 13002MPS CAVOK 13/07 Q1010 NOSIG
ZBAA,2025-05-06 15:00,ZBAA 061500Z 14002MPS CAVOK 13/06 Q1010 NOSIG
ZBAA,2025-05-06 15:30,ZBAA 061530Z 13002MPS CAVOK 14/06 Q1010 NOSIG
ZBAA,2025-05-06 16:00,ZBAA 061600Z 14003MPS CAVOK 15/06 Q1010 NOSIG
ZBAA,2025-05-06 16:30,ZBAA 061630Z 15004MPS CAVOK 15/08 Q1010 NOSIG
ZBAA,2025-05-06 17:00,ZBAA 061700Z 15003MPS CAVOK 15/08 Q1010 NOSIG
ZBAA,2025-05-06 17:30,ZBAA 061730Z 15003MPS CAVOK 15/09 Q1010 NOSIG
ZBAA,2025-05-06 18:00,ZBAA 061800Z 14003MPS CAVOK 14/09 Q1010 NOSIG
ZBAA,2025-05-06 18:30,ZBAA 061830Z 14003MPS 8000 NSC 14/09 Q1010 NOSIG
ZBAA,2025-05-06 19:00,ZBAA 061900Z 13003MPS 8000 NSC 13/09 Q1010 NOSIG
ZBAA,2025-05-06 19:30,ZBAA 061930Z 13003MPS 6000 NSC 13/09 Q1010 NOSIG
ZBAA,2025-05-06 20:00,ZBAA 062000Z 13002MPS 080V150 6000 NSC 12/09 Q1010 NOSIG
ZBAA,2025-05-06 20:30,ZBAA 062030Z 14002MPS 110V170 6000 NSC 12/09 Q1010 NOSIG
ZBAA,2025-05-06 21:00,ZBAA 062100Z 12002MPS 090V160 6000 NSC 12/09 Q1010 NOSIG
ZBAA,2025-05-06 21:30,ZBAA 062130Z 11002MPS 070V150 4000 BR NSC 12/09 Q1010 NOSIG
ZBAA,2025-05-06 22:00,ZBAA 062200Z 11002MPS 080V140 4000 BR NSC 12/10 Q1010 NOSIG
ZBAA,2025-05-06 22:30,ZBAA 062230Z 11002MPS 080V140 4000 BR NSC 13/10 Q1010 NOSIG
ZBAA,2025-05-06 23:00,ZBAA 062300Z 11002MPS 080V160 5000 BR NSC 14/10 Q1011 NOSIG
ZBAA,2025-05-06 23:30,ZBAA 062330Z 14003MPS 100V170 5000 BR NSC 14/10 Q1011 NOSIG
ZBAA,2025-05-07 00:00,ZBAA 070000Z 13002MPS 090V170 6000 NSC 15/10 Q1011 NOSIG
ZBAA,2025-05-07 00:30,ZBAA 070030Z 17002MPS 110V230 6000 NSC 16/10 Q1011 NOSIG
ZBAA,2025-05-07 01:00,ZBAA 070100Z VRB02MPS 6000 NSC 17/10 Q1011 NOSIG
ZBAA,2025-05-07 01:30,ZBAA 070130Z 15002MPS 100V210 6000 NSC 18/10 Q1011 NOSIG
ZBAA,2025-05-07 02:00,ZBAA 070200Z VRB02MPS 6000 NSC 18/10 Q1010 BECMG TL0340 18005MPS
ZBAA,2025-05-07 02:30,ZBAA 070230Z 17003MPS 120V230 6000 NSC 20/10 Q1010 NOSIG
ZBAA,2025-05-07 03:00,ZBAA 070300Z VRB03MPS 6000 NSC 21/10 Q1010 BECMG TL0440 18006MPS
ZBAA,2025-05-07 03:30,ZBAA 070330Z 15004MPS 110V200 6000 NSC 22/10 Q1009 NOSIG
ZBAA,2025-05-07 04:00,ZBAA 070400Z 18006MPS 6000 NSC 22/09 Q1009 NOSIG
ZBAA,2025-05-07 04:30,ZBAA 070430Z 19007MPS CAVOK 23/09 Q1008 NOSIG
ZBAA,2025-05-07 05:00,ZBAA 070500Z 20005MPS 140V240 CAVOK 24/10 Q1008 NOSIG
ZBAA,2025-05-07 05:30,ZBAA 070530Z 18007MPS CAVOK 24/09 Q1007 NOSIG
ZBAA,2025-05-07 06:00,ZBAA 070600Z 19007MPS 160V220 CAVOK 24/09 Q1007 NOSIG
ZBAA,2025-05-07 06:30,ZBAA 070630Z 17007MPS CAVOK 25/09 Q1006 NOSIG
ZBAA,2025-05-07 07:00,ZBAA 070700Z 17006MPS 120V210 CAVOK 25/09 Q1006 NOSIG
ZBAA,2025-05-07 07:30,ZBAA 070730Z 16007MPS 130V210 CAVOK 24/09 Q1005 NOSIG
ZBAA,2025-05-07 08:00,ZBAA 070800Z 15006MPS 110V180 CAVOK 24/09 Q1005 NOSIG
ZBAA,2025-05-07 08:30,ZBAA 070830Z 16006MPS CAVOK 25/10 Q1005 NOSIG
ZBAA,2025-05-07 09:00,ZBAA 070900Z 15005MPS 110V180 CAVOK 24/10 Q1005 NOSIG
ZBAA,2025-05-07 09:30,ZBAA 070930Z 16006MPS CAVOK 24/11 Q1005 NOSIG
ZBAA,2025-05-07 10:00,ZBAA 071000Z 18007MPS CAVOK 23/10 Q1005 NOSIG
ZBAA,2025-05-07 10:30,ZBAA 071030Z 18005MPS CAVOK 23/11 Q1006 NOSIG
ZBAA,2025-05-07 11:00,ZBAA 071100Z 17005MPS 130V200 CAVOK 22/11 Q1006 NOSIG
ZBAA,2025-05-07 11:30,ZBAA 071130Z 15003MPS 100V180 CAVOK 22/11 Q1007 NOSIG
ZBAA,2025-05-07 12:00,ZBAA 071200Z 09004MPS 060V140 CAVOK 19/11 Q1008 NOSIG
ZBAA,2025-05-07 12:30,ZBAA 071230Z 11004MPS 050V130 CAVOK 18/10 Q1008 NOSIG
ZBAA,2025-05-07 13:00,ZBAA 071300Z 12004MPS 080V140 CAVOK 18/10 Q1008 NOSIG
ZBAA,2025-05-07 13:30,ZBAA 071330Z 11004MPS 070V140 CAVOK 18/10 Q1009 NOSIG
ZBAA,2025-05-07 14:00,ZBAA 071400Z 12004MPS 070V160 CAVOK 18/10 Q1009 NOSIG
ZBAA,2025-05-07 14:30,ZBAA 071430Z 11003MPS 080V140 CAVOK 17/10 Q1009 NOSIG
ZBAA,2025-05-07 15:00,ZBAA 071500Z 11003MPS 080V140 CAVOK 17/10 Q1009 NOSIG
ZBAA,2025-05-07 15:30,ZBAA 071530Z 12003MPS 090V150 CAVOK 16/11 Q1009 NOSIG
ZBAA,2025-05-07 16:00,ZBAA 071600Z 11002MPS 080V140 CAVOK 16/11 Q1009 NOSIG
ZBAA,2025-05-07 16:30,ZBAA 071630Z 10002MPS 070V130 8000 NSC 16/11 Q1009 NOSIG
ZBAA,2025-05-07 17:00,ZBAA 071700Z 10002MPS 070V130 8000 NSC 16/11 Q1009 NOSIG
ZBAA,2025-05-07 17:30,ZBAA 071730Z 08002MPS 6000 NSC 16/11 Q1009 NOSIG
ZBAA,2025-05-07 18:00,ZBAA 071800Z 08002MPS 6000 NSC 15/11 Q1009 NOSIG
ZBAA,2025-05-07 18:30,ZBAA 071830Z 11003MPS 6000 NSC 16/12 Q1009 NOSIG
ZBAA,2025-05-07 19:00,ZBAA 071900Z 09002MPS 070V130 6000 NSC 15/12 Q1009 NOSIG
ZBAA,2025-05-07 19:30,ZBAA 071930Z 11002MPS 6000 NSC 15/12 Q1009 NOSIG
ZBAA,2025-05-07 20:00,ZBAA 072000Z 10002MPS 070V130 6000 NSC 15/12 Q1008 NOSIG
ZBAA,2025-05-07 20:30,ZBAA 072030Z VRB01MPS 6000 NSC 15/12 Q1008 NOSIG
ZBAA,2025-05-07 21:00,ZBAA 072100Z VRB01MPS 5000 BR NSC 15/12 Q1008 NOSIG
ZBAA,2025-05-07 21:30,ZBAA 072130Z 10001MPS 4000 BR NSC 15/12 Q1008 NOSIG
ZBAA,2025-05-07 22:00,ZBAA 072200Z 12002MPS 3500 BR NSC 15/12 Q1008 BECMG TL2320 2800
ZBAA,2025-05-07 22:30,ZBAA 072230Z VRB01MPS 3200 BR NSC 15/12 Q1008 NOSIG
ZBAA,2025-05-07 23:00,ZBAA 072300Z 12002MPS 070V150 2800 BR NSC 16/13 Q1008 BECMG TL2340 3200
ZBAA,2025-05-07 23:30,ZBAA 072330Z 12002MPS 070V190 3100 BR NSC 17/13 Q1008 NOSIG
ZBAA,2025-05-08 00:00,ZBAA 080000Z 14002MPS 100V170 3500 BR NSC 18/13 Q1008 NOSIG
ZBAA,2025-05-08 00:30,ZBAA 080030Z VRB01MPS 4000 BR NSC 19/13 Q1008 NOSIG
ZBAA,2025-05-08 01:00,ZBAA 080100Z VRB01MPS 4000 HZ NSC 19/13 Q1008 NOSIG
ZBAA,2025-05-08 01:30,ZBAA 080130Z VRB01MPS 4000 HZ NSC 20/13 Q1008 NOSIG
ZBAA,2025-05-08 02:00,ZBAA 080200Z VRB02MPS 5000 HZ NSC 21/13 Q1008 NOSIG
ZBAA,2025-05-08 02:30,ZBAA 080230Z 17002MPS 100V210 5000 HZ NSC 22/13 Q1008 NOSIG
ZBAA,2025-05-08 03:00,ZBAA 080300Z 19003MPS 120V250 5000 HZ NSC 22/13 Q1008 NOSIG
ZBAA,2025-05-08 03:30,ZBAA 080330Z 18002MPS 120V260 6000 NSC 23/13 Q1008 NOSIG
ZBAA,2025-05-08 04:00,ZBAA 080400Z 16003MPS 120V200 6000 NSC 23/13 Q1008 NOSIG
ZBAA,2025-05-08 04:30,ZBAA 080430Z 16003MPS 110V220 6000 NSC 24/13 Q1008 NOSIG
ZBAA,2025-05-08 05:00,ZBAA 080500Z 17003MPS 130V220 6000 NSC 25/14 Q1007 NOSIG
ZBAA,2025-05-08 05:30,ZBAA 080530Z VRB03MPS 6000 NSC 24/14 Q1007 NOSIG
ZBAA,2025-05-08 06:00,ZBAA 080600Z 18003MPS 120V230 6000 NSC 24/13 Q1007 NOSIG
ZBAA,2025-05-08 06:30,ZBAA 080630Z 14004MPS 120V180 6000 NSC 24/14 Q1006 NOSIG
ZBAA,2025-05-08 07:00,ZBAA 080700Z 15004MPS 100V180 7000 NSC 24/14 Q1006 NOSIG
ZBAA,2025-05-08 07:30,ZBAA 080730Z 13004MPS 100V170 7000 NSC 24/15 Q1006 NOSIG
ZBAA,2025-05-08 08:00,ZBAA 080800Z 14003MPS 100V170 7000 NSC 24/15 Q1006 NOSIG
ZBAA,2025-05-08 08:30,ZBAA 080830Z 11003MPS 060V150 7000 NSC 24/15 Q1006 NOSIG
ZBAA,2025-05-08 09:00,ZBAA 080900Z 10003MPS 060V130 7000 NSC 23/15 Q1006 NOSIG
ZBAA,2025-05-08 09:30,ZBAA 080930Z 14003MPS 080V180 7000 NSC 24/15 Q1006 NOSIG
ZBAA,2025-05-08 10:00,ZBAA 081000Z 17005MPS CAVOK 24/14 Q1006 BECMG TL1140 33006MPS TS
ZBAA,2025-05-08 10:30,ZBAA 081030Z 17004MPS CAVOK 23/14 Q1007 NOSIG
ZBAA,2025-05-08 11:00,ZBAA 081100Z 17005MPS CAVOK 23/13 Q1007 BECMG TL1140 33006MPS TS
ZBAA,2025-05-08 11:30,ZBAA 081130Z 17004MPS CAVOK 22/13 Q1007 NOSIG
ZBAA,2025-05-08 12:00,ZBAA 081200Z 15002MPS CAVOK 22/13 Q1008 BECMG TL1250 TS
ZBAA,2025-05-08 12:30,ZBAA 081230Z 10002MPS CAVOK 22/14 Q1008 NOSIG
ZBAA,2025-05-08 13:00,ZBAA 081300Z 11002MPS 080V150 CAVOK 21/16 Q1008 BECMG TL1440 TS
ZBAA,2025-05-08 13:30,ZBAA 081330Z 11003MPS 060V140 8000 NSC 21/16 Q1008 NOSIG
ZBAA,2025-05-08 14:00,ZBAA 081400Z 11004MPS 090V150 7000 NSC 20/15 Q1009 BECMG TL1440 TS
ZBAA,2025-05-08 14:30,ZBAA 081430Z 11003MPS 070V140 7000 NSC 20/15 Q1009 NOSIG
ZBAA,2025-05-08 15:00,ZBAA 081500Z 12005MPS 080V150 8000 NSC 19/13 Q1009 NOSIG
ZBAA,2025-05-08 15:30,ZBAA 081530Z 12005MPS 090V150 CAVOK 18/13 Q1009 NOSIG
ZBAA,2025-05-08 16:00,ZBAA 081600Z 11004MPS 080V150 9999 -SHRA OVC033 18/13 Q1009 NOSIG
ZBAA,2025-05-08 16:30,ZBAA 081630Z 12003MPS 060V170 9999 -SHRA OVC040 17/12 Q1009 NOSIG
ZBAA,2025-05-08 17:00,ZBAA 081700Z 09004MPS 070V130 9999 -SHRA NSC 17/11 Q1009 NOSIG
ZBAA,2025-05-08 17:30,ZBAA 081730Z 09003MPS 050V130 9999 -SHRA NSC 17/11 Q1009 NOSIG
ZBAA,2025-05-08 18:00,ZBAA 081800Z 09004MPS 060V120 9999 -SHRA NSC 16/12 Q1009 NOSIG
ZBAA,2025-05-08 18:30,ZBAA 081830Z 11004G09MPS 060V150 CAVOK 16/11 Q1009 NOSIG
ZBAA,2025-05-08 19:00,ZBAA 081900Z 10004MPS 050V140 CAVOK 16/11 Q1009 NOSIG
ZBAA,2025-05-08 19:30,ZBAA 081930Z 08004MPS 030V130 CAVOK 15/11 Q1009 NOSIG
ZBAA,2025-05-08 20:00,ZBAA 082000Z 10003MPS 060V140 9999 SCT033 16/11 Q1009 NOSIG
ZBAA,2025-05-08 20:30,ZBAA 082030Z 10002MPS 050V160 9999 -SHRA SCT033 15/12 Q1008 NOSIG
ZBAA,2025-05-08 21:00,ZBAA 082100Z 08002MPS 040V120 9999 -SHRA SCT033 15/12 Q1008 NOSIG
ZBAA,2025-05-08 21:30,ZBAA 082130Z 09002MPS 050V130 9999 -SHRA SCT033 15/12 Q1008 NOSIG
ZBAA,2025-05-08 22:00,ZBAA 082200Z 10003MPS 060V140 9999 -RA FEW013 15/12 Q1009 NOSIG
ZBAA,2025-05-08 22:30,ZBAA 082230Z 07003MPS 040V120 6000 -RA FEW013 OVC040 14/12 Q1008 NOSIG
ZBAA,2025-05-08 23:00,ZBAA 082300Z 06002MPS 020V100 5000 -RA BR FEW013 OVC033 14/12 Q1009 NOSIG
ZBAA,2025-05-08 23:30,ZBAA 082330Z 07002MPS 030V110 5000 -RA BR FEW013 OVC033 14/12 Q1009 NOSIG
ZBAA,2025-05-09 00:00,ZBAA 090000Z 07003MPS 030V110 5000 -RA BR SCT010 OVC033 14/13 Q1009 NOSIG
ZBAA,2025-05-09 00:30,ZBAA 090030Z 03004MPS 5000 -RA BR SCT010 OVC033 14/13 Q1009 NOSIG
ZBAA,2025-05-09 01:00,ZBAA 090100Z 03004MPS 360V090 5000 -RA BR SCT010 OVC033 13/12 Q1009 BECMG TL0140 BKN010 OVC033
ZBAA,2025-05-09 01:30,ZBAA 090130Z 04004G09MPS 360V090 6000 -RA SCT010 OVC033 13/11 Q1010 NOSIG
ZBAA,2025-05-09 02:00,ZBAA 090200Z 04004MPS 010V080 6000 -RA SCT010 OVC033 12/11 Q1010 BECMG TL0240 BKN010 OVC033
ZBAA,2025-05-09 02:30,ZBAA 090230Z 03004MPS 350V060 8000 -RA BKN010 OVC033 12/11 Q1010 NOSIG
ZBAA,2025-05-09 03:00,ZBAA 090300Z 01005MPS 8000 -RA BKN013 OVC033 12/10 Q1011 BECMG TL0340 SCT013 OVC033
ZBAA,2025-05-09 03:30,ZBAA 090330Z 02006MPS 350V050 8000 -RA BKN013 OVC033 12/10 Q1011 NOSIG
ZBAA,2025-05-09 04:00,ZBAA 090400Z 01005MPS 9999 -RA SCT013 OVC033 12/10 Q1011 NOSIG
ZBAA,2025-05-09 04:30,ZBAA 090430Z 36005MPS 340V040 9999 -RA SCT008 OVC033 12/11 Q1011 NOSIG
ZBAA,2025-05-09 05:00,ZBAA 090500Z 36006MPS 9999 -RA SCT008 OVC033 12/11 Q1011 NOSIG
ZBAA,2025-05-09 05:30,ZBAA 090530Z 36006MPS 9999 -RA SCT008 OVC033 12/10 Q1011 NOSIG
ZBAA,2025-05-09 06:00,ZBAA 090600Z 36006MPS 9999 -RA SCT008 OVC030 12/10 Q1012 NOSIG
ZBAA,2025-05-09 06:30,ZBAA 090630Z 36005MPS 9999 -RA SCT008 OVC030 12/10 Q1012 NOSIG
ZBAA,2025-05-09 07:00,ZBAA 090700Z 36005MPS 9999 -RA SCT008 OVC030 12/10 Q1012 NOSIG
ZBAA,2025-05-09 07:30,ZBAA 090730Z 01004MPS 9999 -RA SCT008 OVC030 12/10 Q1012 NOSIG
ZBAA,2025-05-09 08:00,ZBAA 090800Z 34005MPS 9999 -RA SCT008 OVC030 12/10 Q1012 NOSIG
ZBAA,2025-05-09 08:30,ZBAA 090830Z 34006MPS 9999 -RA SCT008 OVC030 12/10 Q1012 NOSIG
ZBAA,2025-05-09 09:00,ZBAA 090900Z 33005MPS 9999 -RA SCT008 OVC030 11/10 Q1012 NOSIG
ZBAA,2025-05-09 09:30,ZBAA 090930Z 33005MPS 9999 -RA FEW010 OVC030 12/10 Q1012 NOSIG
ZBAA,2025-05-09 10:00,ZBAA 091000Z 31004MPS 280V340 9999 -RA FEW010 OVC030 12/10 Q1012 NOSIG
ZBAA,2025-05-09 10:30,ZBAA 091030Z 30005MPS 9999 -RA FEW010 OVC030 12/10 Q1012 NOSIG
ZBAA,2025-05-09 11:00,ZBAA 091100Z 32004MPS 9999 -RA FEW010 OVC040 12/10 Q1012 NOSIG
ZBAA,2025-05-09 11:30,ZBAA 091130Z 31004MPS 9999 -RA OVC040 13/10 Q1012 NOSIG
ZBAA,2025-05-09 12:00,ZBAA 091200Z 30003MPS 260V340 9999 OVC040 13/10 Q1012 NOSIG
ZBAA,2025-05-09 12:30,ZBAA 091230Z 31004MPS 280V340 9999 OVC040 13/10 Q1012 NOSIG
ZBAA,2025-05-09 13:00,ZBAA 091300Z 31004MPS 9999 BKN040 13/10 Q1013 NOSIG
ZBAA,2025-05-09 13:30,ZBAA 091330Z 32003MPS CAVOK 13/10 Q1013 NOSIG
ZBAA,2025-05-09 14:00,ZBAA 091400Z 34004MPS CAVOK 13/09 Q1012 NOSIG
ZBAA,2025-05-09 14:30,ZBAA 091430Z 35002MPS CAVOK 13/09 Q1012 NOSIG
ZBAA,2025-05-09 15:00,ZBAA 091500Z 35002MPS CAVOK 12/10 Q1012 NOSIG
ZBAA,2025-05-09 15:30,ZBAA 091530Z 35002MPS CAVOK 12/10 Q1012 NOSIG
ZBAA,2025-05-09 16:00,ZBAA 091600Z 35003MPS CAVOK 12/09 Q1011 NOSIG
ZBAA,2025-05-09 16:30,ZBAA 091630Z 34003MPS CAVOK 12/09 Q1011 NOSIG
ZBAA,2025-05-09 17:00,ZBAA 091700Z 32004MPS CAVOK 14/08 Q1011 NOSIG
ZBAA,2025-05-09 17:30,ZBAA 091730Z 30003MPS CAVOK 13/08 Q1011 NOSIG
ZBAA,2025-05-09 18:00,ZBAA 091800Z 31003MPS CAVOK 13/08 Q1011 NOSIG
ZBAA,2025-05-09 18:30,ZBAA 091830Z 34002MPS 310V010 CAVOK 11/08 Q1010 NOSIG
ZBAA,2025-05-09 19:00,ZBAA 091900Z 36003MPS CAVOK 10/07 Q1010 NOSIG
ZBAA,2025-05-09 19:30,ZBAA 091930Z 36003MPS CAVOK 09/07 Q1010 NOSIG
ZBAA,2025-05-09 20:00,ZBAA 092000Z 31003MPS CAVOK 11/07 Q1010 NOSIG
ZBAA,2025-05-09 20:30,ZBAA 092030Z 33002MPS CAVOK 10/07 Q1010 NOSIG
ZBAA,2025-05-09 21:00,ZBAA 092100Z 33002MPS 300V360 CAVOK 09/07 Q1010 NOSIG
ZBAA,2025-05-09 21:30,ZBAA 092130Z 35003MPS CAVOK 08/07 Q1011 NOSIG
ZBAA,2025-05-09 22:00,ZBAA 092200Z 36003MPS CAVOK 11/07 Q1011 NOSIG
ZBAA,2025-05-09 22:30,ZBAA 092230Z 36002MPS CAVOK 12/07 Q1011 NOSIG
ZBAA,2025-05-09 23:00,ZBAA 092300Z 36003MPS CAVOK 14/07 Q1011 NOSIG
ZBAA,2025-05-09 23:30,ZBAA 092330Z 35004MPS CAVOK 16/05 Q1011 NOSIG
ZBAA,2025-05-10 00:00,ZBAA 100000Z 34004MPS CAVOK 17/04 Q1012 NOSIG
ZBAA,2025-05-10 00:30,ZBAA 100030Z 33005MPS CAVOK 19/03 Q1012 NOSIG
ZBAA,2025-05-10 01:00,ZBAA 100100Z 32005MPS 280V350 CAVOK 20/02 Q1012 NOSIG
ZBAA,2025-05-10 01:30,ZBAA 100130Z 32005MPS 280V340 CAVOK 21/01 Q1012 NOSIG
ZBAA,2025-05-10 02:00,ZBAA 100200Z 35004MPS 310V020 CAVOK 22/03 Q1012 NOSIG
ZBAA,2025-05-10 02:30,ZBAA 100230Z 36003MPS 330V050 CAVOK 22/02 Q1012 NOSIG
ZBAA,2025-05-10 03:00,ZBAA 100300Z 02003MPS 330V060 CAVOK 23/03 Q1011 NOSIG
ZBAA,2025-05-10 03:30,ZBAA 100330Z 34004MPS 290V040 CAVOK 24/M00 Q1011 NOSIG
ZBAA,2025-05-10 04:00,ZBAA 100400Z 35007MPS CAVOK 25/M01 Q1011 NOSIG
ZBAA,2025-05-10 04:21,ZBAA 100421Z 03002MPS 350V080 CAVOK 24/M04 Q1011 NOSIG
ZBAA,2025-05-10 04:30,ZBAA 100430Z 04002MPS 350V100 CAVOK 23/M04 Q1011 NOSIG
ZBAA,2025-05-10 05:00,ZBAA 100500Z 35002MPS 300V060 CAVOK 25/M02 Q1010 NOSIG
ZBAA,2025-05-10 05:30,ZBAA 100530Z 33005MPS 290V010 CAVOK 26/M04 Q1010 NOSIG
ZBAA,2025-05-10 06:00,ZBAA 100600Z 29004MPS 240V340 CAVOK 25/M04 Q1009 NOSIG
ZBAA,2025-05-10 06:30,ZBAA 100630Z 34003MPS 250V060 CAVOK 25/M04 Q1009 NOSIG
ZBAA,2025-05-10 07:00,ZBAA 100700Z 31002MPS 260V010 CAVOK 25/M03 Q1008 NOSIG
ZBAA,2025-05-10 07:30,ZBAA 100730Z 32002MPS 230V020 CAVOK 26/M03 Q1008 NOSIG
ZBAA,2025-05-10 08:00,ZBAA 100800Z VRB01MPS CAVOK 26/M01 Q1008 NOSIG
ZBAA,2025-05-10 08:30,ZBAA 100830Z 11002MPS 060V130 CAVOK 25/M01 Q1007 NOSIG
ZBAA,2025-05-10 09:00,ZBAA 100900Z 15003MPS CAVOK 25/M00 Q1007 NOSIG
ZBAA,2025-05-10 09:30,ZBAA 100930Z 16003MPS 130V190 CAVOK 24/01 Q1007 NOSIG
ZBAA,2025-05-10 10:00,ZBAA 101000Z 15003MPS CAVOK 23/02 Q1007 NOSIG
ZBAA,2025-05-10 10:30,ZBAA 101030Z 17005MPS CAVOK 22/02 Q1006 NOSIG
ZBAA,2025-05-10 11:00,ZBAA 101100Z 18006MPS CAVOK 21/02 Q1007 NOSIG
ZBAA,2025-05-10 11:30,ZBAA 101130Z 19006MPS CAVOK 21/02 Q1007 NOSIG
ZBAA,2025-05-10 12:00,ZBAA 101200Z 20005G11MPS 120V220 CAVOK 20/02 Q1007 NOSIG
ZBAA,2025-05-10 12:30,ZBAA 101230Z 19004MPS CAVOK 18/02 Q1007 NOSIG
ZBAA,2025-05-10 13:00,ZBAA 101300Z 20004MPS CAVOK 19/02 Q1007 NOSIG
ZBAA,2025-05-10 13:30,ZBAA 101330Z 19003MPS CAVOK 18/03 Q1007 NOSIG
ZBAA,2025-05-10 14:00,ZBAA 101400Z 17002MPS 090V250 CAVOK 15/04 Q1007 NOSIG
ZBAA,2025-05-10 14:30,ZBAA 101430Z VRB01MPS CAVOK 13/05 Q1007 NOSIG
ZBAA,2025-05-10 15:00,ZBAA 101500Z 21002MPS 170V250 CAVOK 15/05 Q1007 NOSIG
ZBAA,2025-05-10 15:30,ZBAA 101530Z 19002MPS 160V230 CAVOK 13/06 Q1006 NOSIG
ZBAA,2025-05-10 16:00,ZBAA 101600Z 16002MPS CAVOK 11/07 Q1006 NOSIG
ZBAA,2025-05-10 16:30,ZBAA 101630Z VRB01MPS CAVOK 10/07 Q1006 NOSIG
ZBAA,2025-05-10 17:00,ZBAA 101700Z VRB01MPS CAVOK 10/08 Q1006 NOSIG
ZBAA,2025-05-10 17:30,ZBAA 101730Z VRB01MPS CAVOK 10/08 Q1005 NOSIG
ZBAA,2025-05-10 18:00,ZBAA 101800Z 36001MPS CAVOK 09/07 Q1005 NOSIG
ZBAA,2025-05-10 18:30,ZBAA 101830Z 04001MPS CAVOK 08/07 Q1005 NOSIG
ZBAA,2025-05-10 19:00,ZBAA 101900Z 36001MPS CAVOK 09/07 Q1004 NOSIG
ZBAA,2025-05-10 19:30,ZBAA 101930Z 00000MPS CAVOK 08/07 Q1004 NOSIG
ZBAA,2025-05-10 20:00,ZBAA 102000Z 02002MPS CAVOK 08/07 Q1004 NOSIG
ZBAA,2025-05-10 20:30,ZBAA 102030Z VRB01MPS CAVOK 07/06 Q1004 NOSIG
ZBAA,2025-05-10 21:00,ZBAA 102100Z 32001MPS CAVOK 08/07 Q1004 NOSIG
ZBAA,2025-05-10 21:30,ZBAA 102130Z VRB01MPS CAVOK 07/07 Q1004 NOSIG
ZBAA,2025-05-10 22:00,ZBAA 102200Z 36002MPS CAVOK 10/09 Q1004 NOSIG
ZBAA,2025-05-10 22:30,ZBAA 102230Z 36002MPS CAVOK 12/09 Q1004 NOSIG
ZBAA,2025-05-10 23:00,ZBAA 102300Z 36002MPS CAVOK 15/08 Q1003 NOSIG
ZBAA,2025-05-10 23:30,ZBAA 102330Z VRB01MPS CAVOK 16/08 Q1003 NOSIG
ZBAA,2025-05-11 00:00,ZBAA 110000Z VRB01MPS CAVOK 18/07 Q1003 NOSIG
ZBAA,2025-05-11 00:30,ZBAA 110030Z 33002MPS 300V010 CAVOK 19/07 Q1003 NOSIG
ZBAA,2025-05-11 01:00,ZBAA 110100Z 32002MPS 250V020 CAVOK 19/07 Q1003 NOSIG
ZBAA,2025-05-11 01:30,ZBAA 110130Z VRB01MPS CAVOK 22/07 Q1002 NOSIG
ZBAA,2025-05-11 02:00,ZBAA 110200Z VRB01MPS CAVOK 22/07 Q1002 NOSIG
ZBAA,2025-05-11 02:30,ZBAA 110230Z VRB01MPS CAVOK 23/07 Q1002 NOSIG
ZBAA,2025-05-11 03:00,ZBAA 110300Z VRB01MPS CAVOK 24/08 Q1001 NOSIG
ZBAA,2025-05-11 03:30,ZBAA 110330Z 16002MPS 100V240 CAVOK 25/08 Q1001 NOSIG
ZBAA,2025-05-11 04:00,ZBAA 110400Z VRB02MPS CAVOK 26/07 Q1001 NOSIG
ZBAA,2025-05-11 04:30,ZBAA 110430Z VRB02MPS CAVOK 27/06 Q1000 NOSIG
ZBAA,2025-05-11 05:00,ZBAA 110500Z 22003MPS 180V300 CAVOK 28/07 Q0999 NOSIG
ZBAA,2025-05-11 05:30,ZBAA 110530Z 19003MPS 140V250 CAVOK 28/07 Q0999 NOSIG
ZBAA,2025-05-11 06:00,ZBAA 110600Z 16004MPS 120V190 CAVOK 28/07 Q0999 NOSIG
ZBAA,2025-05-11 06:30,ZBAA 110630Z 20004MPS 160V270 CAVOK 29/08 Q0999 NOSIG
ZBAA,2025-05-11 07:00,ZBAA 110700Z 17004MPS 140V210 CAVOK 29/09 Q0998 NOSIG
ZBAA,2025-05-11 07:30,ZBAA 110730Z 18005MPS 140V230 CAVOK 29/10 Q0998 NOSIG
ZBAA,2025-05-11 08:00,ZBAA 110800Z 19004MPS 150V220 CAVOK 29/09 Q0998 NOSIG
ZBAA,2025-05-11 08:30,ZBAA 110830Z 18004MPS CAVOK 29/10 Q0998 NOSIG
ZBAA,2025-05-11 09:00,ZBAA 110900Z 18005MPS CAVOK 29/09 Q0997 NOSIG
ZBAA,2025-05-11 09:30,ZBAA 110930Z 16004MPS CAVOK 28/08 Q0997 NOSIG
ZBAA,2025-05-11 10:00,ZBAA 111000Z 16003MPS CAVOK 27/09 Q0997 NOSIG
ZBAA,2025-05-11 10:30,ZBAA 111030Z 15002MPS CAVOK 24/12 Q0998 NOSIG
ZBAA,2025-05-11 11:00,ZBAA 111100Z 13002MPS CAVOK 21/12 Q0998 NOSIG
ZBAA,2025-05-11 11:30,ZBAA 111130Z 12001MPS CAVOK 20/13 Q0998 NOSIG
ZBAA,2025-05-11 12:00,ZBAA 111200Z 10001MPS CAVOK 18/12 Q0998 NOSIG
ZBAA,2025-05-11 12:30,ZBAA 111230Z 09002MPS CAVOK 18/12 Q0999 NOSIG
ZBAA,2025-05-11 13:00,ZBAA 111300Z VRB01MPS CAVOK 18/12 Q0999 NOSIG
ZBAA,2025-05-11 13:30,ZBAA 111330Z 10002MPS CAVOK 17/12 Q0999 NOSIG
ZBAA,2025-05-11 14:00,ZBAA 111400Z VRB01MPS CAVOK 17/12 Q0999 NOSIG
ZBAA,2025-05-11 14:30,ZBAA 111430Z 08002MPS CAVOK 16/12 Q0999 NOSIG
ZBAA,2025-05-11 15:00,ZBAA 111500Z 07001MPS CAVOK 17/13 Q0999 NOSIG
ZBAA,2025-05-11 15:30,ZBAA 111530Z 01001MPS CAVOK 16/13 Q0999 NOSIG
ZBAA,2025-05-11 16:00,ZBAA 111600Z VRB01MPS CAVOK 15/13 Q0999 NOSIG
ZBAA,2025-05-11 16:30,ZBAA 111630Z VRB01MPS CAVOK 15/13 Q0999 NOSIG
ZBAA,2025-05-11 17:00,ZBAA 111700Z VRB01MPS CAVOK 14/13 Q0999 NOSIG
ZBAA,2025-05-11 17:30,ZBAA 111730Z 02002MPS CAVOK 18/12 Q0999 NOSIG
ZBAA,2025-05-11 18:00,ZBAA 111800Z 04002MPS 350V050 CAVOK 20/12 Q0999 NOSIG
ZBAA,2025-05-11 18:30,ZBAA 111830Z 02002MPS 360V110 CAVOK 19/11 Q0999 NOSIG
ZBAA,2025-05-11 19:00,ZBAA 111900Z 36002MPS 320V050 CAVOK 19/11 Q0999 NOSIG
ZBAA,2025-05-11 19:30,ZBAA 111930Z 03002MPS 350V090 CAVOK 19/12 Q0999 NOSIG
ZBAA,2025-05-11 20:00,ZBAA 112000Z 35003MPS CAVOK 17/12 Q0999 NOSIG
ZBAA,2025-05-11 20:30,ZBAA 112030Z 36002MPS CAVOK 13/12 Q0999 NOSIG
ZBAA,2025-05-11 21:00,ZBAA 112100Z VRB01MPS CAVOK 14/12 Q0999 NOSIG
ZBAA,2025-05-11 21:30,ZBAA 112130Z VRB01MPS CAVOK 14/12 Q0999 NOSIG
ZBAA,2025-05-11 22:00,ZBAA 112200Z VRB01MPS CAVOK 14/12 Q0999 NOSIG
ZBAA,2025-05-11 22:30,ZBAA 112230Z VRB01MPS CAVOK 15/14 Q0999 NOSIG
ZBAA,2025-05-11 23:00,ZBAA 112300Z 36003MPS CAVOK 18/14 Q1000 NOSIG
ZBAA,2025-05-11 23:30,ZBAA 112330Z 36002MPS 330V030 CAVOK 20/13 Q1000 NOSIG
ZBAA,2025-05-12 00:00,ZBAA 120000Z VRB01MPS CAVOK 21/13 Q1000 NOSIG
ZBAA,2025-05-12 00:30,ZBAA 120030Z 10002MPS 040V140 CAVOK 21/13 Q1000 NOSIG
ZBAA,2025-05-12 01:00,ZBAA 120100Z 08002MPS 050V140 CAVOK 22/13 Q1000 NOSIG
ZBAA,2025-05-12 01:30,ZBAA 120130Z 10002MPS 070V140 CAVOK 23/14 Q0999 NOSIG
ZBAA,2025-05-12 02:00,ZBAA 120200Z 05002MPS 020V130 CAVOK 24/13 Q0999 NOSIG
ZBAA,2025-05-12 02:30,ZBAA 120230Z 05002MPS 330V140 CAVOK 25/13 Q0999 NOSIG
ZBAA,2025-05-12 03:00,ZBAA 120300Z 08002MPS 010V150 CAVOK 25/13 Q0999 NOSIG
ZBAA,2025-05-12 03:30,ZBAA 120330Z VRB02MPS CAVOK 26/13 Q0999 NOSIG
ZBAA,2025-05-12 04:00,ZBAA 120400Z 14002MPS 070V210 CAVOK 27/13 Q0998 NOSIG
ZBAA,2025-05-12 04:30,ZBAA 120430Z VRB02MPS CAVOK 27/14 Q0998 NOSIG
ZBAA,2025-05-12 05:00,ZBAA 120500Z 14002MPS 060V200 CAVOK 27/14 Q0998 NOSIG
ZBAA,2025-05-12 05:30,ZBAA 120530Z 15003MPS 090V190 CAVOK 28/13 Q0997 NOSIG
ZBAA,2025-05-12 06:00,ZBAA 120600Z 15003MPS 110V210 CAVOK 28/14 Q0997 NOSIG
ZBAA,2025-05-12 06:30,ZBAA 120630Z 13002MPS 070V170 CAVOK 28/14 Q0997 NOSIG
ZBAA,2025-05-12 07:00,ZBAA 120700Z 14002MPS 100V190 CAVOK 28/14 Q0997 NOSIG
ZBAA,2025-05-12 07:30,ZBAA 120730Z 17003MPS 140V210 CAVOK 28/14 Q0996 NOSIG
ZBAA,2025-05-12 08:00,ZBAA 120800Z 15003MPS 110V180 CAVOK 28/15 Q0996 NOSIG
ZBAA,2025-05-12 08:30,ZBAA 120830Z 16004MPS 8000 NSC 27/15 Q0996 NOSIG
ZBAA,2025-05-12 09:00,ZBAA 120900Z 14003MPS 110V170 8000 NSC 27/16 Q0996 NOSIG
ZBAA,2025-05-12 09:30,ZBAA 120930Z 13003MPS 100V160 8000 NSC 27/16 Q0997 NOSIG
ZBAA,2025-05-12 10:00,ZBAA 121000Z 13002MPS 090V150 8000 NSC 26/16 Q0997 NOSIG
ZBAA,2025-05-12 10:30,ZBAA 121030Z 11002MPS 070V130 8000 NSC 26/16 Q0997 NOSIG
ZBAA,2025-05-12 11:00,ZBAA 121100Z 11002MPS 080V150 8000 NSC 25/16 Q0997 NOSIG
ZBAA,2025-05-12 11:30,ZBAA 121130Z 10002MPS 060V130 8000 NSC 24/16 Q0997 NOSIG
ZBAA,2025-05-12 12:00,ZBAA 121200Z 11002MPS 8000 NSC 23/16 Q0998 NOSIG
ZBAA,2025-05-12 12:30,ZBAA 121230Z 13002MPS 100V170 8000 NSC 23/16 Q0998 NOSIG
ZBAA,2025-05-12 13:00,ZBAA 121300Z 14002MPS 100V170 8000 NSC 23/16 Q0999 NOSIG
ZBAA,2025-05-12 13:30,ZBAA 121330Z VRB01MPS 8000 NSC 23/16 Q0999 NOSIG
ZBAA,2025-05-12 14:00,ZBAA 121400Z 13002MPS 100V160 8000 NSC 23/16 Q0999 NOSIG
ZBAA,2025-05-12 14:30,ZBAA 121430Z 12003MPS 070V160 8000 NSC 24/16 Q0999 NOSIG
ZBAA,2025-05-12 15:00,ZBAA 121500Z 02002MPS 330V110 8000 NSC 23/16 Q1000 NOSIG
ZBAA,2025-05-12 15:30,ZBAA 121530Z VRB01MPS 7000 NSC 21/16 Q0999 NOSIG
ZBAA,2025-05-12 16:00,ZBAA 121600Z VRB01MPS 7000 NSC 22/16 Q0999 NOSIG
ZBAA,2025-05-12 16:30,ZBAA 121630Z 10002MPS 070V140 7000 -RA NSC 22/16 Q0998 NOSIG
ZBAA,2025-05-12 17:00,ZBAA 121700Z VRB01MPS 7000 NSC 21/15 Q0999 NOSIG
ZBAA,2025-05-12 17:30,ZBAA 121730Z 33002MPS 300V010 7000 NSC 20/16 Q0999 NOSIG
ZBAA,2025-05-12 18:00,ZBAA 121800Z VRB01MPS 6000 NSC 19/16 Q0999 NOSIG
ZBAA,2025-05-12 18:30,ZBAA 121830Z 08001MPS 6000 NSC 18/16 Q0999 NOSIG
ZBAA,2025-05-12 19:00,ZBAA 121900Z 07002MPS 6000 NSC 18/16 Q0998 NOSIG
ZBAA,2025-05-12 19:30,ZBAA 121930Z 00000MPS 6000 NSC 18/16 Q0999 NOSIG
ZBAA,2025-05-12 20:00,ZBAA 122000Z VRB01MPS 6000 NSC 17/16 Q0999 NOSIG
ZBAA,2025-05-12 20:30,ZBAA 122030Z VRB01MPS 5000 BR NSC 17/16 Q0999 NOSIG
ZBAA,2025-05-12 21:00,ZBAA 122100Z VRB01MPS 5000 BR NSC 16/15 Q0999 NOSIG
ZBAA,2025-05-12 21:30,ZBAA 122130Z VRB01MPS 4000 BR NSC 17/15 Q0999 NOSIG
ZBAA,2025-05-12 22:00,ZBAA 122200Z 05002MPS 3500 BR NSC 17/16 Q0999 BECMG TL2340 2800
ZBAA,2025-05-12 22:30,ZBAA 122230Z VRB01MPS 3500 BR NSC 19/17 Q1000 NOSIG
ZBAA,2025-05-12 23:00,ZBAA 122300Z VRB01MPS 3500 BR NSC 22/17 Q1000 BECMG TL2320 2800
ZBAA,2025-05-12 23:30,ZBAA 122330Z 08002MPS 050V110 2900 BR NSC 23/16 Q1001 NOSIG
ZBAA,2025-05-13 00:00,ZBAA 130000Z VRB01MPS 5000 BR NSC 24/17 Q1001 NOSIG
ZBAA,2025-05-13 00:30,ZBAA 130030Z 13002MPS 070V160 6000 NSC 24/16 Q1001 NOSIG
ZBAA,2025-05-13 01:00,ZBAA 130100Z 12002MPS 070V160 6000 NSC 25/17 Q1001 NOSIG
ZBAA,2025-05-13 01:30,ZBAA 130130Z 08002MPS 030V170 7000 NSC 26/17 Q1001 NOSIG
ZBAA,2025-05-13 02:00,ZBAA 130200Z 10002MPS 030V170 7000 NSC 27/17 Q1001 NOSIG
ZBAA,2025-05-13 02:30,ZBAA 130230Z 14002MPS 060V200 8000 NSC 28/18 Q1001 NOSIG
ZBAA,2025-05-13 03:00,ZBAA 130300Z 11003MPS 040V170 8000 NSC 28/17 Q1001 NOSIG
ZBAA,2025-05-13 03:30,ZBAA 130330Z VRB02MPS 8000 NSC 29/17 Q1001 NOSIG
ZBAA,2025-05-13 04:00,ZBAA 130400Z 15004MPS 120V190 8000 NSC 29/18 Q1001 NOSIG
ZBAA,2025-05-13 04:30,ZBAA 130430Z 19004MPS 130V230 8000 NSC 30/18 Q1001 NOSIG
ZBAA,2025-05-13 05:00,ZBAA 130500Z VRB03MPS CAVOK 30/17 Q1001 NOSIG
ZBAA,2025-05-13 05:30,ZBAA 130530Z 14003MPS 070V190 CAVOK 30/18 Q1000 NOSIG
ZBAA,2025-05-13 06:00,ZBAA 130600Z 13003MPS 070V190 CAVOK 31/18 Q0999 NOSIG
ZBAA,2025-05-13 06:30,ZBAA 130630Z 17004MPS 120V230 CAVOK 31/17 Q0999 NOSIG
ZBAA,2025-05-13 07:00,ZBAA 130700Z 15004MPS 110V180 CAVOK 31/18 Q0999 NOSIG
ZBAA,2025-05-13 07:30,ZBAA 130730Z 15003MPS 100V190 CAVOK 31/19 Q0999 NOSIG
ZBAA,2025-05-13 08:00,ZBAA 130800Z 14004MPS 110V170 CAVOK 31/18 Q0998 NOSIG
ZBAA,2025-05-13 08:30,ZBAA 130830Z 15004MPS 120V180 CAVOK 31/19 Q0998 NOSIG
ZBAA,2025-05-13 09:00,ZBAA 130900Z 15004MPS 110V170 CAVOK 30/18 Q0998 BECMG AT1020 34010G17MPS TS FEW040CB BKN040
ZBAA,2025-05-13 09:30,ZBAA 130930Z 08002MPS 040V150 9999 FEW050CB 30/19 Q0999 NOSIG
ZBAA,2025-05-13 10:00,ZBAA 131000Z 04007G18MPS 350V070 9999 TS SCT040CB 29/18 Q1001 BECMG AT1020 34012G17MPS TSRA SCT040CB
ZBAA,2025-05-13 10:30,ZBAA 131030Z 08006G12MPS 030V120 9999 TSRA SCT040CB 18/17 Q1002 NOSIG
ZBAA,2025-05-13 10:45,ZBAA 131045Z 08005MPS 030V130 9999 -TSRA SCT040CB 19/17 Q1001 RESHRA NOSIG
ZBAA,2025-05-13 11:00,ZBAA 131100Z 09003MPS 060V130 9999 -TSRA SCT040CB 19/17 Q1001 RESHRA BECMG AT1240 NSW
ZBAA,2025-05-13 11:30,ZBAA 131130Z 11003MPS 070V140 9999 -TSRA SCT040CB 19/17 Q1002 NOSIG
ZBAA,2025-05-13 12:00,COR ZBAA 131200Z 34006MPS 9999 -TSRA BKN040CB 20/17 Q1002 BECMG AT1240 19004MPS NSW
ZBAA,2025-05-13 12:30,ZBAA 131230Z 30005MPS 9999 -TSRA BKN040CB 20/18 Q1003 NOSIG
ZBAA,2025-05-13 12:49,ZBAA 131249Z 36003MPS 320V090 9999 -TSRA BKN040CB 20/18 Q1002 NOSIG
ZBAA,2025-05-13 13:00,ZBAA 131300Z VRB03MPS 9999 -TSRA SCT040CB 20/18 Q1003 BECMG AT1340 NSW
ZBAA,2025-05-13 13:30,ZBAA 131330Z 24005MPS 190V260 9999 -TSRA SCT040CB 20/18 Q1003 NOSIG
ZBAA,2025-05-13 13:41,ZBAA 131341Z 30003MPS 200V360 9999 -TSRA SCT040CB 20/18 Q1004 NOSIG
ZBAA,2025-05-13 14:00,ZBAA 131400Z 36003MPS 300V060 9999 FEW040CB 20/18 Q1003 RETS NOSIG
ZBAA,2025-05-13 14:18,ZBAA 131418Z 30005MPS CAVOK 21/18 Q1003 NOSIG
ZBAA,2025-05-13 14:30,ZBAA 131430Z 27003MPS CAVOK 21/18 Q1003 NOSIG
ZBAA,2025-05-13 15:00,ZBAA 131500Z 20005MPS CAVOK 21/18 Q1005 BECMG TL1640 27004MPS
ZBAA,2025-05-13 15:11,ZBAA 131511Z 12002MPS 030V200 CAVOK 20/18 Q1004 NOSIG
ZBAA,2025-05-13 15:30,ZBAA 131530Z VRB02MPS CAVOK 21/18 Q1005 NOSIG
ZBAA,2025-05-13 16:00,ZBAA 131600Z 05002MPS 020V080 CAVOK 20/18 Q1004 NOSIG
ZBAA,2025-05-13 16:30,ZBAA 131630Z VRB03MPS CAVOK 19/18 Q1004 NOSIG
ZBAA,2025-05-13 17:00,ZBAA 131700Z 18002MPS CAVOK 19/18 Q1005 NOSIG
ZBAA,2025-05-13 17:30,ZBAA 131730Z 01002MPS 340V060 CAVOK 19/18 Q1004 NOSIG
ZBAA,2025-05-13 18:00,ZBAA 131800Z 35002MPS CAVOK 19/18 Q1004 NOSIG
ZBAA,2025-05-13 18:30,ZBAA 131830Z 36003MPS CAVOK 19/18 Q1004 NOSIG
ZBAA,2025-05-13 19:00,ZBAA 131900Z 34005MPS CAVOK 20/17 Q1005 NOSIG
ZBAA,2025-05-13 19:30,ZBAA 131930Z 01002MPS 340V040 CAVOK 18/17 Q1006 NOSIG
ZBAA,2025-05-13 20:00,ZBAA 132000Z VRB01MPS CAVOK 18/17 Q1006 NOSIG
ZBAA,2025-05-13 20:15,ZBAA 132015Z 32006MPS CAVOK 21/14 Q1007 NOSIG
ZBAA,2025-05-13 20:30,ZBAA 132030Z 34005MPS CAVOK 21/14 Q1007 NOSIG
ZBAA,2025-05-13 21:00,ZBAA 132100Z 35004MPS CAVOK 20/15 Q1007 NOSIG
ZBAA,2025-05-13 21:30,ZBAA 132130Z 01004MPS CAVOK 20/14 Q1007 NOSIG
ZBAA,2025-05-13 22:00,ZBAA 132200Z 33007MPS 9999 -SHRA FEW050CB 21/12 Q1008 BECMG AT2210 TS
ZBAA,2025-05-13 22:03,ZBAA 132203Z 32007MPS 9999 -TSRA FEW050CB 21/12 Q1008 NOSIG
ZBAA,2025-05-13 22:30,ZBAA 132230Z 31006MPS 9999 -TSRA BKN050CB 19/15 Q1010 NOSIG
ZBAA,2025-05-13 22:46,ZBAA 132246Z 01003MPS 320V070 9999 -TSRA BKN050CB 18/15 Q1010 NOSIG
ZBAA,2025-05-13 23:00,ZBAA 132300Z 05002MPS 9999 -TSRA SCT050CB 17/15 Q1010 BECMG TL0010 33006MPS NSW
ZBAA,2025-05-13 23:30,ZBAA 132330Z 35003MPS 320V020 9999 -TSRA FEW050CB 18/15 Q1011 NOSIG
ZBAA,2025-05-14 00:00,ZBAA 140000Z 01002MPS 340V050 9999 -TSRA FEW050CB 17/15 Q1010 BECMG TL0020 NSW
ZBAA,2025-05-14 00:30,ZBAA 140030Z 34006MPS 9999 -SHRA NSC 18/16 Q1011 RETS NOSIG
ZBAA,2025-05-14 01:00,ZBAA 140100Z 01004MPS CAVOK 18/15 Q1011 NOSIG
ZBAA,2025-05-14 01:30,ZBAA 140130Z 36003MPS CAVOK 19/15 Q1011 NOSIG
ZBAA,2025-05-14 02:00,ZBAA 140200Z 36006MPS CAVOK 20/15 Q1012 NOSIG
ZBAA,2025-05-14 02:30,ZBAA 140230Z 01006MPS 340V040 CAVOK 22/15 Q1012 NOSIG
ZBAA,2025-05-14 03:00,ZBAA 140300Z 36006MPS CAVOK 24/13 Q1012 NOSIG
ZBAA,2025-05-14 03:30,ZBAA 140330Z 02006MPS 350V050 CAVOK 24/11 Q1011 NOSIG
ZBAA,2025-05-14 04:00,ZBAA 140400Z 02006MPS 350V050 CAVOK 25/09 Q1012 NOSIG
ZBAA,2025-05-14 04:30,ZBAA 140430Z 02006MPS 350V050 CAVOK 25/08 Q1011 NOSIG
ZBAA,2025-05-14 05:00,ZBAA 140500Z 03005MPS 350V100 CAVOK 25/09 Q1012 NOSIG
ZBAA,2025-05-14 05:30,ZBAA 140530Z 04005MPS 360V100 CAVOK 25/10 Q1011 NOSIG
ZBAA,2025-05-14 06:00,ZBAA 140600Z 06005MPS 020V120 CAVOK 25/10 Q1011 NOSIG
ZBAA,2025-05-14 06:30,ZBAA 140630Z 07005MPS 010V120 CAVOK 26/08 Q1011 NOSIG
ZBAA,2025-05-14 07:00,ZBAA 140700Z 07004MPS 030V120 CAVOK 26/09 Q1011 NOSIG
ZBAA,2025-05-14 07:30,ZBAA 140730Z 10002MPS 040V140 CAVOK 26/08 Q1011 NOSIG
ZBAA,2025-05-14 08:00,ZBAA 140800Z 11004MPS 060V160 CAVOK 26/07 Q1012 NOSIG
ZBAA,2025-05-14 08:30,ZBAA 140830Z 10003MPS 020V170 CAVOK 26/06 Q1012 NOSIG
ZBAA,2025-05-14 09:00,ZBAA 140900Z 10003MPS 050V140 CAVOK 26/04 Q1012 NOSIG
ZBAA,2025-05-14 09:30,ZBAA 140930Z 12004MPS 080V170 CAVOK 25/12 Q1012 NOSIG
ZBAA,2025-05-14 10:00,ZBAA 141000Z 14004MPS 090V170 CAVOK 24/13 Q1012 NOSIG
ZBAA,2025-05-14 10:30,ZBAA 141030Z 13004MPS 100V170 CAVOK 23/15 Q1012 NOSIG
ZBAA,2025-05-14 11:00,ZBAA 141100Z 16004MPS 130V190 CAVOK 22/14 Q1013 NOSIG
ZBAA,2025-05-14 11:30,ZBAA 141130Z 15004MPS CAVOK 21/14 Q1014 NOSIG
ZBAA,2025-05-14 12:00,ZBAA 141200Z 15003MPS CAVOK 21/13 Q1014 NOSIG
ZBAA,2025-05-14 12:30,ZBAA 141230Z 15003MPS CAVOK 20/13 Q1015 NOSIG
ZBAA,2025-05-14 13:00,ZBAA 141300Z 15004MPS CAVOK 20/13 Q1015 NOSIG
ZBAA,2025-05-14 13:30,ZBAA 141330Z 14003MPS 100V160 CAVOK 19/13 Q1015 NOSIG
ZBAA,2025-05-14 14:00,ZBAA 141400Z 15003MPS CAVOK 19/13 Q1015 NOSIG
ZBAA,2025-05-14 14:30,ZBAA 141430Z 13002MPS 090V150 CAVOK 18/13 Q1015 NOSIG
ZBAA,2025-05-14 15:00,ZBAA 141500Z 13002MPS CAVOK 17/14 Q1015 NOSIG
ZBAA,2025-05-14 15:30,ZBAA 141530Z 15002MPS CAVOK 17/14 Q1015 NOSIG
ZBAA,2025-05-14 16:00,ZBAA 141600Z 15003MPS CAVOK 18/14 Q1015 NOSIG
ZBAA,2025-05-14 16:30,ZBAA 141630Z 17004MPS 9999 BKN026 18/15 Q1015 NOSIG
ZBAA,2025-05-14 17:00,ZBAA 141700Z 18006MPS 8000 FEW026 18/15 Q1015 NOSIG
ZBAA,2025-05-14 17:30,ZBAA 141730Z 18005MPS 8000 NSC 17/14 Q1015 NOSIG
ZBAA,2025-05-14 18:00,ZBAA 141800Z 18004MPS 8000 NSC 17/14 Q1015 NOSIG
ZBAA,2025-05-14 18:30,ZBAA 141830Z 18004MPS 9999 BKN026 17/14 Q1015 NOSIG
ZBAA,2025-05-14 19:00,ZBAA 141900Z 16003MPS 9999 BKN030 17/14 Q1015 NOSIG
ZBAA,2025-05-14 19:30,ZBAA 141930Z 16003MPS 9999 BKN030 17/14 Q1015 NOSIG
ZBAA,2025-05-14 20:00,ZBAA 142000Z 15003MPS 9999 BKN030 17/14 Q1015 NOSIG
ZBAA,2025-05-14 20:30,ZBAA 142030Z 17003MPS 130V190 9999 BKN030 17/14 Q1015 NOSIG
ZBAA,2025-05-14 21:00,ZBAA 142100Z 15003MPS 9999 SCT040 16/14 Q1014 NOSIG
ZBAA,2025-05-14 21:30,ZBAA 142130Z 15002MPS 7000 BKN040 16/13 Q1015 NOSIG
ZBAA,2025-05-14 22:00,ZBAA 142200Z 15003MPS 7000 BKN040 16/14 Q1014 NOSIG
ZBAA,2025-05-14 22:30,ZBAA 142230Z 17003MPS 7000 BKN040 17/14 Q1014 NOSIG
ZBAA,2025-05-14 23:00,ZBAA 142300Z 16003MPS 130V190 8000 BKN040 17/14 Q1014 NOSIG
ZBAA,2025-05-14 23:30,ZBAA 142330Z 17003MPS 120V210 8000 BKN040 17/13 Q1015 NOSIG
ZBAA,2025-05-15 00:00,ZBAA 150000Z 17002MPS 150V210 9999 BKN040 17/13 Q1014 NOSIG
ZBAA,2025-05-15 00:30,ZBAA 150030Z 14002MPS 100V170 9999 BKN033 18/14 Q1014 NOSIG
ZBAA,2025-05-15 01:00,ZBAA 150100Z 18002MPS 140V210 9999 OVC033 18/14 Q1014 NOSIG
ZBAA,2025-05-15 01:30,ZBAA 150130Z VRB01MPS 9999 OVC033 19/14 Q1014 NOSIG
ZBAA,2025-05-15 02:00,ZBAA 150200Z VRB01MPS CAVOK 20/14 Q1014 NOSIG
ZBAA,2025-05-15 02:30,ZBAA 150230Z VRB01MPS CAVOK 22/15 Q1013 NOSIG
ZBAA,2025-05-15 03:00,ZBAA 150300Z VRB02MPS CAVOK 23/15 Q1013 BECMG TL0440 18005MPS
ZBAA,2025-05-15 03:30,ZBAA 150330Z VRB03MPS CAVOK 24/15 Q1012 NOSIG
ZBAA,2025-05-15 04:00,ZBAA 150400Z 20005MPS 160V220 CAVOK 25/14 Q1012 NOSIG
ZBAA,2025-05-15 04:30,ZBAA 150430Z 21005MPS CAVOK 26/15 Q1012 NOSIG
ZBAA,2025-05-15 05:00,ZBAA 150500Z 22004MPS 150V250 CAVOK 27/15 Q1011 NOSIG
ZBAA,2025-05-15 05:30,ZBAA 150530Z 21005MPS 160V250 CAVOK 28/14 Q1010 NOSIG
ZBAA,2025-05-15 06:00,ZBAA 150600Z 20006MPS 150V240 CAVOK 28/14 Q1010 NOSIG
ZBAA,2025-05-15 06:30,ZBAA 150630Z 21007MPS CAVOK 28/13 Q1009 NOSIG
ZBAA,2025-05-15 07:00,ZBAA 150700Z 21006G11MPS 170V240 CAVOK 28/14 Q1009 NOSIG
ZBAA,2025-05-15 07:30,ZBAA 150730Z 18006MPS 140V200 CAVOK 28/14 Q1009 NOSIG
ZBAA,2025-05-15 08:00,ZBAA 150800Z 18007MPS CAVOK 28/14 Q1008 NOSIG
ZBAA,2025-05-15 08:30,ZBAA 150830Z 18007MPS 160V220 CAVOK 28/14 Q1008 NOSIG
ZBAA,2025-05-15 09:00,ZBAA 150900Z 20006MPS CAVOK 28/14 Q1008 NOSIG
ZBAA,2025-05-15 09:30,ZBAA 150930Z 19006MPS CAVOK 27/14 Q1007 NOSIG
ZBAA,2025-05-15 10:00,ZBAA 151000Z 20007MPS CAVOK 27/14 Q1007 NOSIG
ZBAA,2025-05-15 10:30,ZBAA 151030Z 18007MPS CAVOK 26/13 Q1007 NOSIG
ZBAA,2025-05-15 11:00,ZBAA 151100Z 19006MPS CAVOK 26/12 Q1007 NOSIG
ZBAA,2025-05-15 11:30,ZBAA 151130Z 16002MPS CAVOK 24/13 Q1008 NOSIG
ZBAA,2025-05-15 12:00,ZBAA 151200Z 18005MPS 150V240 CAVOK 24/13 Q1008 NOSIG
ZBAA,2025-05-15 12:30,ZBAA 151230Z 15003MPS CAVOK 24/12 Q1009 NOSIG
ZBAA,2025-05-15 13:00,ZBAA 151300Z 11002MPS CAVOK 23/12 Q1009 NOSIG
ZBAA,2025-05-15 13:30,ZBAA 151330Z 10002MPS 070V140 CAVOK 23/13 Q1010 NOSIG
ZBAA,2025-05-15 14:00,ZBAA 151400Z 10002MPS 070V130 CAVOK 22/13 Q1010 NOSIG
ZBAA,2025-05-15 14:30,ZBAA 151430Z 12003MPS 070V140 CAVOK 23/13 Q1010 NOSIG
ZBAA,2025-05-15 15:00,ZBAA 151500Z 12002MPS 090V150 CAVOK 21/13 Q1010 NOSIG
ZBAA,2025-05-15 15:30,ZBAA 151530Z 12003MPS 070V150 CAVOK 22/12 Q1010 NOSIG
ZBAA,2025-05-15 16:00,ZBAA 151600Z 12002MPS CAVOK 20/13 Q1010 NOSIG
ZBAA,2025-05-15 16:30,ZBAA 151630Z 13002MPS CAVOK 20/14 Q1009 NOSIG
ZBAA,2025-05-15 17:00,ZBAA 151700Z 13002MPS CAVOK 20/14 Q1009 NOSIG
ZBAA,2025-05-15 17:30,ZBAA 151730Z VRB01MPS CAVOK 19/13 Q1009 NOSIG
ZBAA,2025-05-15 18:00,ZBAA 151800Z VRB01MPS CAVOK 16/14 Q1008 NOSIG
ZBAA,2025-05-15 18:30,ZBAA 151830Z VRB01MPS CAVOK 16/14 Q1008 NOSIG
ZBAA,2025-05-15 19:00,ZBAA 151900Z 35001MPS CAVOK 15/13 Q1008 NOSIG
ZBAA,2025-05-15 19:30,ZBAA 151930Z 36002MPS CAVOK 15/14 Q1008 NOSIG
ZBAA,2025-05-15 20:00,ZBAA 152000Z VRB01MPS CAVOK 14/13 Q1008 NOSIG
ZBAA,2025-05-15 20:30,ZBAA 152030Z VRB01MPS CAVOK 14/13 Q1008 NOSIG
ZBAA,2025-05-15 21:00,ZBAA 152100Z VRB01MPS CAVOK 14/13 Q1007 NOSIG
ZBAA,2025-05-15 21:30,ZBAA 152130Z 08002MPS CAVOK 14/13 Q1007 NOSIG
ZBAA,2025-05-15 22:00,ZBAA 152200Z VRB01MPS CAVOK 16/14 Q1007 NOSIG
ZBAA,2025-05-15 22:30,ZBAA 152230Z 11002MPS 080V150 CAVOK 18/14 Q1007 NOSIG
ZBAA,2025-05-15 23:00,ZBAA 152300Z 11002MPS 070V150 CAVOK 19/14 Q1007 NOSIG
ZBAA,2025-05-15 23:30,ZBAA 152330Z 13002MPS 090V170 7000 NSC 20/15 Q1007 NOSIG
ZBAA,2025-05-16 00:00,ZBAA 160000Z 14002MPS 100V170 7000 NSC 21/15 Q1007 NOSIG
ZBAA,2025-05-16 00:30,ZBAA 160030Z 14003MPS 100V160 7000 NSC 21/15 Q1006 NOSIG
ZBAA,2025-05-16 01:00,ZBAA 160100Z 15003MPS 7000 NSC 22/14 Q1006 NOSIG
ZBAA,2025-05-16 01:30,ZBAA 160130Z 15004MPS 120V190 7000 NSC 23/15 Q1005 NOSIG
ZBAA,2025-05-16 02:00,ZBAA 160200Z 16005MPS 120V180 7000 NSC 23/15 Q1005 NOSIG
ZBAA,2025-05-16 02:30,ZBAA 160230Z 13003MPS 050V190 7000 NSC 24/17 Q1004 NOSIG
ZBAA,2025-05-16 03:00,ZBAA 160300Z 17004MPS 110V210 6000 NSC 24/17 Q1004 NOSIG
ZBAA,2025-05-16 03:30,ZBAA 160330Z 15003MPS 100V190 6000 NSC 25/17 Q1003 NOSIG
ZBAA,2025-05-16 04:00,ZBAA 160400Z 15004MPS 110V220 6000 NSC 26/18 Q1003 NOSIG
ZBAA,2025-05-16 04:30,ZBAA 160430Z 15005MPS 120V180 6000 NSC 27/18 Q1002 NOSIG
ZBAA,2025-05-16 05:00,ZBAA 160500Z 15005MPS 110V190 6000 NSC 28/18 Q1001 NOSIG
ZBAA,2025-05-16 05:30,ZBAA 160530Z 15004MPS 110V190 6000 NSC 28/18 Q1001 NOSIG
ZBAA,2025-05-16 06:00,ZBAA 160600Z 16006MPS 130V190 7000 NSC 29/17 Q1000 NOSIG
ZBAA,2025-05-16 06:30,ZBAA 160630Z 18006MPS 7000 NSC 28/17 Q0999 NOSIG
ZBAA,2025-05-16 07:00,ZBAA 160700Z 18006MPS 150V210 7000 NSC 28/17 Q0999 NOSIG
ZBAA,2025-05-16 07:30,ZBAA 160730Z 23004MPS 7000 NSC 28/16 Q1000 NOSIG
ZBAA,2025-05-16 07:54,ZBAA 160754Z 17005MPS CAVOK 27/16 Q0999 NOSIG
ZBAA,2025-05-16 08:00,ZBAA 160800Z 16005MPS 130V190 CAVOK 27/16 Q0998 BECMG AT0940 21010G17MPS TS FEW040CB
ZBAA,2025-05-16 08:30,ZBAA 160830Z 19004MPS 160V230 CAVOK 27/16 Q0998 NOSIG
ZBAA,2025-05-16 09:00,ZBAA 160900Z 17005MPS 140V200 CAVOK 27/17 Q0997 NOSIG
ZBAA,2025-05-16 09:25,ZBAA 160925Z 25004MPS 210V330 9999 TS FEW050CB 27/17 Q0997 NOSIG
ZBAA,2025-05-16 09:30,ZBAA 160930Z 25004MPS 230V290 9999 TS FEW050CB 27/16 Q0998 NOSIG
ZBAA,2025-05-16 10:00,ZBAA 161000Z 15003MPS 110V200 9999 TS FEW050CB 26/18 Q0997 BECMG AT1020 NSW
ZBAA,2025-05-16 10:30,ZBAA 161030Z 09002MPS 060V120 CAVOK 26/19 Q0997 RETS NOSIG
ZBAA,2025-05-16 11:00,ZBAA 161100Z 17002MPS 100V230 5000 BR NSC 26/20 Q0997 BECMG AT1140 -TSRA FEW040CB
ZBAA,2025-05-16 11:30,ZBAA 161130Z VRB01MPS 6000 -SHRA NSC 25/20 Q0997 NOSIG
ZBAA,2025-05-16 11:34,COR ZBAA 161134Z VRB01MPS 6000 -TSRA FEW050CB 25/20 Q0996 NOSIG
ZBAA,2025-05-16 12:00,ZBAA 161200Z 18005MPS 8000 -TSRA FEW050CB 23/20 Q0996 BECMG AT1240 NSW
ZBAA,2025-05-16 12:09,ZBAA 161209Z 11002MPS 360V170 8000 -TSRA FEW050CB 22/20 Q0996 NOSIG
ZBAA,2025-05-16 12:30,ZBAA 161230Z 36003MPS 330V040 8000 NSC 22/21 Q0997 RETS NOSIG
ZBAA,2025-05-16 13:00,ZBAA 161300Z VRB01MPS 4000 BR NSC 22/21 Q0997 BECMG TL1420 2800
ZBAA,2025-05-16 13:30,ZBAA 161330Z 35004MPS 5000 BR NSC 22/20 Q0999 NOSIG
ZBAA,2025-05-16 14:00,ZBAA 161400Z 34003MPS 310V010 7000 NSC 22/20 Q1000 BECMG TL1540 34008MPS
ZBAA,2025-05-16 14:12,ZBAA 161412Z 31008MPS CAVOK 23/14 Q1000 NOSIG
ZBAA,2025-05-16 14:30,ZBAA 161430Z 33008MPS CAVOK 23/11 Q1000 NOSIG
ZBAA,2025-05-16 15:00,ZBAA 161500Z 34005MPS CAVOK 22/12 Q1000 NOSIG
ZBAA,2025-05-16 15:30,ZBAA 161530Z 35004MPS CAVOK 21/08 Q1000 NOSIG
ZBAA,2025-05-16 16:00,ZBAA 161600Z 35003MPS 310V030 CAVOK 21/06 Q1001 NOSIG
ZBAA,2025-05-16 16:30,ZBAA 161630Z 01002MPS 340V050 CAVOK 20/07 Q1001 NOSIG
ZBAA,2025-05-16 16:43,ZBAA 161643Z 31005G10MPS 280V350 CAVOK 23/02 Q1001 NOSIG
ZBAA,2025-05-16 17:00,ZBAA 161700Z 32006MPS CAVOK 22/03 Q1001 NOSIG
ZBAA,2025-05-16 17:14,ZBAA 161714Z 30011MPS CAVOK 23/01 Q1002 NOSIG
ZBAA,2025-05-16 17:30,ZBAA 161730Z 29009MPS CAVOK 22/01 Q1002 NOSIG
ZBAA,2025-05-16 18:00,ZBAA 161800Z 29012G17MPS CAVOK 20/00 Q1003 WS R36R NOSIG
ZBAA,2025-05-16 18:13,ZBAA 161813Z 28014G22MPS CAVOK 19/M01 Q1003 NOSIG
ZBAA,2025-05-16 18:30,ZBAA 161830Z 28015G22MPS CAVOK 18/M01 Q1004 NOSIG
ZBAA,2025-05-16 19:00,ZBAA 161900Z 29013G18MPS CAVOK 17/M00 Q1005 NOSIG
ZBAA,2025-05-16 19:30,ZBAA 161930Z 30012MPS CAVOK 17/00 Q1006 NOSIG
ZBAA,2025-05-16 20:00,ZBAA 162000Z 30009MPS CAVOK 16/01 Q1007 NOSIG
ZBAA,2025-05-16 20:30,ZBAA 162030Z 28008MPS CAVOK 15/01 Q1007 NOSIG
ZBAA,2025-05-16 21:00,ZBAA 162100Z 31011MPS CAVOK 16/01 Q1008 NOSIG
ZBAA,2025-05-16 21:30,ZBAA 162130Z 31011MPS CAVOK 16/01 Q1009 NOSIG
ZBAA,2025-05-16 22:00,ZBAA 162200Z 30013G18MPS CAVOK 16/00 Q1010 NOSIG
ZBAA,2025-05-16 22:30,ZBAA 162230Z 31011MPS CAVOK 16/M00 Q1011 NOSIG
ZBAA,2025-05-16 23:00,ZBAA 162300Z 32010MPS CAVOK 16/M01 Q1012 NOSIG
ZBAA,2025-05-16 23:30,ZBAA 162330Z 32011MPS CAVOK 17/M01 Q1012 NOSIG
ZBAA,2025-05-17 00:00,ZBAA 170000Z 33009MPS CAVOK 18/M00 Q1012 NOSIG
ZBAA,2025-05-17 00:30,ZBAA 170030Z 33011MPS CAVOK 18/M02 Q1012 NOSIG
ZBAA,2025-05-17 01:00,ZBAA 170100Z 35010MPS CAVOK 18/M00 Q1012 NOSIG
ZBAA,2025-05-17 01:30,ZBAA 170130Z 34007G12MPS CAVOK 19/M01 Q1013 NOSIG
ZBAA,2025-05-17 02:00,ZBAA 170200Z 33006MPS CAVOK 20/M01 Q1013 NOSIG
ZBAA,2025-05-17 02:30,ZBAA 170230Z 35006G11MPS 320V020 CAVOK 20/01 Q1013 NOSIG
ZBAA,2025-05-17 03:00,ZBAA 170300Z 30007MPS CAVOK 20/M02 Q1013 NOSIG
ZBAA,2025-05-17 03:04,ZBAA 170304Z 36006MPS CAVOK 21/01 Q1013 NOSIG
ZBAA,2025-05-17 03:30,ZBAA 170330Z 31007G12MPS 270V350 CAVOK 21/M00 Q1013 NOSIG
ZBAA,2025-05-17 04:00,ZBAA 170400Z 33006G11MPS 290V010 CAVOK 22/01 Q1013 NOSIG
ZBAA,2025-05-17 04:30,ZBAA 170430Z 32009G14MPS CAVOK 23/M01 Q1012 NOSIG
ZBAA,2025-05-17 05:00,ZBAA 170500Z 31007G13MPS 290V350 CAVOK 23/M01 Q1012 NOSIG
ZBAA,2025-05-17 05:30,ZBAA 170530Z 31009G14MPS CAVOK 23/M01 Q1012 NOSIG
ZBAA,2025-05-17 06:00,ZBAA 170600Z 32008G13MPS CAVOK 24/M01 Q1012 NOSIG
ZBAA,2025-05-17 06:30,ZBAA 170630Z 32009MPS CAVOK 23/M02 Q1012 NOSIG
ZBAA,2025-05-17 07:00,ZBAA 170700Z 32009MPS CAVOK 24/M02 Q1011 NOSIG
ZBAA,2025-05-17 07:30,ZBAA 170730Z 33009MPS 290V350 CAVOK 24/M02 Q1011 NOSIG
ZBAA,2025-05-17 08:00,ZBAA 170800Z 33009G14MPS CAVOK 24/M03 Q1011 BECMG TL0950 33004MPS
ZBAA,2025-05-17 08:30,ZBAA 170830Z 34007MPS 290V360 CAVOK 24/M03 Q1011 NOSIG
ZBAA,2025-05-17 09:00,ZBAA 170900Z 32007G12MPS CAVOK 23/M03 Q1011 NOSIG
ZBAA,2025-05-17 09:30,ZBAA 170930Z 32005MPS CAVOK 23/M03 Q1011 NOSIG
ZBAA,2025-05-17 10:00,ZBAA 171000Z 03003MPS 340V070 CAVOK 22/M01 Q1011 NOSIG
ZBAA,2025-05-17 10:30,ZBAA 171030Z VRB01MPS CAVOK 21/03 Q1011 NOSIG
ZBAA,2025-05-17 11:00,ZBAA 171100Z VRB01MPS CAVOK 18/05 Q1011 NOSIG
ZBAA,2025-05-17 11:30,ZBAA 171130Z 03002MPS 350V080 CAVOK 15/05 Q1011 NOSIG
ZBAA,2025-05-17 12:00,ZBAA 171200Z VRB01MPS CAVOK 13/05 Q1011 NOSIG
ZBAA,2025-05-17 12:30,ZBAA 171230Z 36002MPS 310V030 CAVOK 13/05 Q1011 NOSIG
ZBAA,2025-05-17 13:00,ZBAA 171300Z 03004MPS CAVOK 17/02 Q1012 NOSIG
ZBAA,2025-05-17 13:30,ZBAA 171330Z 04003MPS CAVOK 18/02 Q1012 NOSIG
ZBAA,2025-05-17 14:00,ZBAA 171400Z 05002MPS 020V090 CAVOK 17/02 Q1013 NOSIG
ZBAA,2025-05-17 14:30,ZBAA 171430Z 06002MPS CAVOK 16/03 Q1013 NOSIG
ZBAA,2025-05-17 15:00,ZBAA 171500Z 00000MPS CAVOK 15/04 Q1013 NOSIG
ZBAA,2025-05-17 15:30,ZBAA 171530Z 17002MPS CAVOK 14/06 Q1013 NOSIG
ZBAA,2025-05-17 16:00,ZBAA 171600Z 00000MPS CAVOK 12/06 Q1013 NOSIG
ZBAA,2025-05-17 16:30,ZBAA 171630Z VRB01MPS CAVOK 11/06 Q1013 NOSIG
ZBAA,2025-05-17 17:00,ZBAA 171700Z VRB01MPS CAVOK 10/06 Q1013 NOSIG
ZBAA,2025-05-17 17:30,ZBAA 171730Z 00000MPS CAVOK 10/06 Q1013 NOSIG
ZBAA,2025-05-17 18:00,ZBAA 171800Z VRB01MPS CAVOK 10/07 Q1013 NOSIG
ZBAA,2025-05-17 18:30,ZBAA 171830Z VRB01MPS CAVOK 10/07 Q1012 NOSIG
ZBAA,2025-05-17 19:00,ZBAA 171900Z VRB01MPS CAVOK 09/07 Q1012 NOSIG
ZBAA,2025-05-17 19:30,ZBAA 171930Z 04001MPS CAVOK 09/06 Q1012 NOSIG
ZBAA,2025-05-17 20:00,ZBAA 172000Z VRB01MPS CAVOK 09/07 Q1012 NOSIG
ZBAA,2025-05-17 20:30,ZBAA 172030Z VRB01MPS CAVOK 09/07 Q1011 NOSIG
ZBAA,2025-05-17 21:00,ZBAA 172100Z 03001MPS CAVOK 09/07 Q1011 NOSIG
ZBAA,2025-05-17 21:30,ZBAA 172130Z VRB01MPS CAVOK 09/07 Q1011 NOSIG
ZBAA,2025-05-17 22:00,ZBAA 172200Z 06001MPS CAVOK 10/08 Q1011 NOSIG
ZBAA,2025-05-17 22:30,ZBAA 172230Z 04002MPS 010V080 CAVOK 12/09 Q1011 NOSIG
ZBAA,2025-05-17 23:00,ZBAA 172300Z 04001MPS CAVOK 14/07 Q1010 NOSIG
ZBAA,2025-05-17 23:30,ZBAA 172330Z 08002MPS 050V110 CAVOK 15/06 Q1010 NOSIG
ZBAA,2025-05-18 00:00,ZBAA 180000Z 07002MPS 050V110 CAVOK 16/06 Q1011 NOSIG
ZBAA,2025-05-18 00:30,ZBAA 180030Z VRB01MPS CAVOK 16/07 Q1010 NOSIG
ZBAA,2025-05-18 01:00,ZBAA 180100Z VRB01MPS CAVOK 18/07 Q1010 NOSIG
ZBAA,2025-05-18 01:30,ZBAA 180130Z 16002MPS 110V240 CAVOK 18/07 Q1009 NOSIG
ZBAA,2025-05-18 02:00,ZBAA 180200Z VRB02MPS CAVOK 18/07 Q1008 NOSIG
ZBAA,2025-05-18 02:30,ZBAA 180230Z VRB01MPS CAVOK 19/07 Q1008 NOSIG
ZBAA,2025-05-18 03:00,ZBAA 180300Z VRB01MPS CAVOK 20/07 Q1008 NOSIG
ZBAA,2025-05-18 03:30,ZBAA 180330Z VRB01MPS CAVOK 20/07 Q1007 NOSIG
ZBAA,2025-05-18 04:00,ZBAA 180400Z VRB01MPS CAVOK 21/07 Q1006 NOSIG
ZBAA,2025-05-18 04:30,ZBAA 180430Z VRB01MPS CAVOK 22/06 Q1006 NOSIG
ZBAA,2025-05-18 05:00,ZBAA 180500Z 20005MPS 180V240 CAVOK 23/05 Q1005 NOSIG
ZBAA,2025-05-18 05:30,ZBAA 180530Z 21003MPS 170V260 CAVOK 23/06 Q1004 NOSIG
ZBAA,2025-05-18 06:00,ZBAA 180600Z VRB02MPS CAVOK 22/06 Q1005 NOSIG
ZBAA,2025-05-18 06:30,ZBAA 180630Z 01004MPS 320V030 CAVOK 21/08 Q1005 NOSIG
ZBAA,2025-05-18 07:00,ZBAA 180700Z 36005MPS CAVOK 22/07 Q1004 NOSIG
ZBAA,2025-05-18 07:30,ZBAA 180730Z 01003MPS 340V040 CAVOK 22/07 Q1004 NOSIG
ZBAA,2025-05-18 08:00,ZBAA 180800Z 05003MPS 010V120 CAVOK 22/07 Q1004 NOSIG
ZBAA,2025-05-18 08:30,ZBAA 180830Z 06002MPS 360V130 CAVOK 22/08 Q1003 NOSIG
ZBAA,2025-05-18 09:00,ZBAA 180900Z 07002MPS 030V110 CAVOK 22/08 Q1003 NOSIG
ZBAA,2025-05-18 09:30,ZBAA 180930Z 08003MPS 040V120 CAVOK 22/08 Q1002 NOSIG
ZBAA,2025-05-18 10:00,ZBAA 181000Z 05002MPS 350V100 CAVOK 21/09 Q1003 NOSIG
ZBAA,2025-05-18 10:30,ZBAA 181030Z 05002MPS 020V080 CAVOK 21/09 Q1003 NOSIG
ZBAA,2025-05-18 11:00,ZBAA 181100Z 05002MPS CAVOK 20/09 Q1003 NOSIG
ZBAA,2025-05-18 11:30,ZBAA 181130Z 05002MPS CAVOK 19/12 Q1004 NOSIG
ZBAA,2025-05-18 12:00,ZBAA 181200Z 01002MPS 9999 -RA NSC 18/11 Q1004 NOSIG
ZBAA,2025-05-18 12:30,ZBAA 181230Z 05001MPS 9999 -RA NSC 17/12 Q1004 NOSIG
ZBAA,2025-05-18 13:00,ZBAA 181300Z 09001MPS 9999 -RA NSC 16/13 Q1003 NOSIG
ZBAA,2025-05-18 13:30,ZBAA 181330Z 12001MPS CAVOK 17/12 Q1003 NOSIG
ZBAA,2025-05-18 14:00,ZBAA 181400Z 35001MPS CAVOK 16/13 Q1003 NOSIG
ZBAA,2025-05-18 14:30,ZBAA 181430Z 00000MPS CAVOK 16/13 Q1004 NOSIG
ZBAA,2025-05-18 15:00,ZBAA 181500Z VRB01MPS 9999 -RA NSC 16/12 Q1003 NOSIG
ZBAA,2025-05-18 15:30,ZBAA 181530Z VRB01MPS 9999 -RA NSC 15/13 Q1002 NOSIG
ZBAA,2025-05-18 16:00,ZBAA 181600Z 02002MPS 350V050 9999 -RA NSC 16/14 Q1002 NOSIG
ZBAA,2025-05-18 16:30,ZBAA 181630Z 32004MPS 9999 -RA NSC 17/13 Q1003 NOSIG
ZBAA,2025-05-18 17:00,ZBAA 181700Z 31002MPS 270V340 9999 -RA NSC 17/12 Q1002 NOSIG
ZBAA,2025-05-18 17:30,ZBAA 181730Z 27003MPS 9999 -RA NSC 17/12 Q1001 NOSIG
ZBAA,2025-05-18 18:00,ZBAA 181800Z VRB01MPS 9999 -RA NSC 15/14 Q1001 NOSIG
ZBAA,2025-05-18 18:30,ZBAA 181830Z 31002MPS 280V360 9999 -RA NSC 16/13 Q1000 NOSIG
ZBAA,2025-05-18 19:00,ZBAA 181900Z 09002MPS 050V120 9999 -RA NSC 15/14 Q1000 NOSIG
ZBAA,2025-05-18 19:30,ZBAA 181930Z VRB01MPS CAVOK 15/14 Q1000 NOSIG
ZBAA,2025-05-18 20:00,ZBAA 182000Z 36001MPS 8000 NSC 14/14 Q1000 NOSIG
ZBAA,2025-05-18 20:30,ZBAA 182030Z VRB01MPS 8000 NSC 14/13 Q0999 NOSIG
ZBAA,2025-05-18 21:00,ZBAA 182100Z VRB01MPS 8000 NSC 13/13 Q0999 NOSIG
ZBAA,2025-05-18 21:30,ZBAA 182130Z VRB01MPS CAVOK 14/13 Q0999 NOSIG
ZBAA,2025-05-18 22:00,ZBAA 182200Z 03001MPS CAVOK 14/13 Q0999 NOSIG
ZBAA,2025-05-18 22:30,ZBAA 182230Z 01002MPS CAVOK 16/14 Q0999 NOSIG
ZBAA,2025-05-18 23:00,ZBAA 182300Z VRB01MPS CAVOK 18/14 Q0999 NOSIG
ZBAA,2025-05-18 23:30,ZBAA 182330Z VRB01MPS CAVOK 19/13 Q0999 NOSIG
ZBAA,2025-05-19 00:00,ZBAA 190000Z VRB01MPS CAVOK 19/13 Q0999 NOSIG
ZBAA,2025-05-19 00:30,ZBAA 190030Z 35002MPS 300V050 CAVOK 21/13 Q0999 NOSIG
ZBAA,2025-05-19 01:00,ZBAA 190100Z 35003MPS 320V030 CAVOK 21/13 Q0999 NOSIG
ZBAA,2025-05-19 01:30,ZBAA 190130Z VRB02MPS CAVOK 22/13 Q0999 NOSIG
ZBAA,2025-05-19 02:00,ZBAA 190200Z VRB01MPS CAVOK 22/13 Q0999 NOSIG
ZBAA,2025-05-19 02:30,ZBAA 190230Z VRB01MPS CAVOK 24/12 Q0998 NOSIG
ZBAA,2025-05-19 03:00,ZBAA 190300Z VRB01MPS CAVOK 24/13 Q0998 NOSIG
ZBAA,2025-05-19 03:30,ZBAA 190330Z 21002MPS 150V300 CAVOK 25/14 Q0998 NOSIG
ZBAA,2025-05-19 04:00,ZBAA 190400Z 19002MPS 150V270 CAVOK 26/14 Q0997 NOSIG
ZBAA,2025-05-19 04:30,ZBAA 190430Z VRB02MPS CAVOK 26/13 Q0997 NOSIG
ZBAA,2025-05-19 05:00,ZBAA 190500Z VRB02MPS CAVOK 28/13 Q0996 NOSIG
ZBAA,2025-05-19 05:30,ZBAA 190530Z VRB02MPS CAVOK 29/15 Q0996 NOSIG
ZBAA,2025-05-19 06:00,ZBAA 190600Z 17002MPS 100V270 CAVOK 29/15 Q0996 NOSIG
ZBAA,2025-05-19 06:30,ZBAA 190630Z 16002MPS 090V200 CAVOK 29/15 Q0995 NOSIG
ZBAA,2025-05-19 07:00,ZBAA 190700Z 17003MPS 120V190 CAVOK 30/15 Q0995 NOSIG
ZBAA,2025-05-19 07:30,ZBAA 190730Z 17003MPS 130V200 CAVOK 31/15 Q0995 NOSIG
ZBAA,2025-05-19 08:00,ZBAA 190800Z 13003MPS 080V240 CAVOK 31/15 Q0995 NOSIG
ZBAA,2025-05-19 08:30,ZBAA 190830Z 14003MPS 100V190 CAVOK 31/16 Q0995 NOSIG
ZBAA,2025-05-19 09:00,ZBAA 190900Z 23003MPS 140V280 CAVOK 32/14 Q0995 NOSIG
ZBAA,2025-05-19 09:30,ZBAA 190930Z VRB02MPS CAVOK 32/15 Q0995 NOSIG
ZBAA,2025-05-19 10:00,ZBAA 191000Z 16002MPS 140V200 CAVOK 31/16 Q0995 NOSIG
ZBAA,2025-05-19 10:30,ZBAA 191030Z 18002MPS 140V240 CAVOK 30/15 Q0995 NOSIG
ZBAA,2025-05-19 11:00,ZBAA 191100Z 16002MPS CAVOK 27/18 Q0995 NOSIG
ZBAA,2025-05-19 11:30,ZBAA 191130Z 15002MPS CAVOK 24/18 Q0996 NOSIG
ZBAA,2025-05-19 12:00,ZBAA 191200Z 16002MPS CAVOK 23/17 Q0996 NOSIG
ZBAA,2025-05-19 12:30,ZBAA 191230Z 17003MPS CAVOK 25/16 Q0996 NOSIG
ZBAA,2025-05-19 13:00,ZBAA 191300Z 15002MPS CAVOK 22/17 Q0997 NOSIG
ZBAA,2025-05-19 13:30,ZBAA 191330Z 08002MPS 040V120 CAVOK 22/17 Q0998 NOSIG
ZBAA,2025-05-19 14:00,ZBAA 191400Z VRB01MPS CAVOK 21/17 Q0998 NOSIG
ZBAA,2025-05-19 14:30,ZBAA 191430Z 10002MPS 360V160 CAVOK 21/18 Q0997 NOSIG
ZBAA,2025-05-19 15:00,ZBAA 191500Z 03002MPS 350V090 CAVOK 21/18 Q0998 NOSIG
ZBAA,2025-05-19 15:30,ZBAA 191530Z VRB01MPS CAVOK 21/18 Q0998 NOSIG
ZBAA,2025-05-19 16:00,ZBAA 191600Z VRB01MPS CAVOK 21/18 Q0998 NOSIG
ZBAA,2025-05-19 16:30,ZBAA 191630Z VRB01MPS CAVOK 20/18 Q0998 NOSIG
ZBAA,2025-05-19 17:00,ZBAA 191700Z VRB01MPS CAVOK 20/18 Q0998 NOSIG
ZBAA,2025-05-19 17:30,ZBAA 191730Z VRB01MPS CAVOK 20/17 Q0998 NOSIG
ZBAA,2025-05-19 18:00,ZBAA 191800Z 05001MPS CAVOK 19/17 Q0998 NOSIG
ZBAA,2025-05-19 18:30,ZBAA 191830Z VRB01MPS CAVOK 19/18 Q0998 NOSIG
ZBAA,2025-05-19 19:00,ZBAA 191900Z 35001MPS CAVOK 18/17 Q0998 NOSIG
ZBAA,2025-05-19 19:30,ZBAA 191930Z 01002MPS 8000 NSC 18/17 Q0998 NOSIG
ZBAA,2025-05-19 20:00,ZBAA 192000Z 02002MPS 8000 NSC 18/17 Q0998 NOSIG
ZBAA,2025-05-19 20:30,ZBAA 192030Z 36001MPS CAVOK 18/17 Q0998 NOSIG
ZBAA,2025-05-19 21:00,ZBAA 192100Z 36002MPS CAVOK 18/16 Q0998 NOSIG
ZBAA,2025-05-19 21:30,ZBAA 192130Z 36002MPS CAVOK 18/17 Q0998 NOSIG
ZBAA,2025-05-19 22:00,ZBAA 192200Z 35003MPS CAVOK 19/17 Q0999 NOSIG
ZBAA,2025-05-19 22:30,ZBAA 192230Z 01002MPS CAVOK 21/17 Q0998 NOSIG
ZBAA,2025-05-19 23:00,ZBAA 192300Z 35002MPS 320V020 CAVOK 22/17 Q0999 NOSIG
ZBAA,2025-05-19 23:30,ZBAA 192330Z 01002MPS 320V040 CAVOK 23/17 Q0999 NOSIG
ZBAA,2025-05-20 00:00,ZBAA 200000Z VRB01MPS CAVOK 25/17 Q0999 NOSIG
ZBAA,2025-05-20 00:30,ZBAA 200030Z 11003MPS 050V170 CAVOK 25/17 Q0999 NOSIG
ZBAA,2025-05-20 01:00,ZBAA 200100Z 10002MPS 060V150 CAVOK 26/18 Q0999 NOSIG
ZBAA,2025-05-20 01:30,ZBAA 200130Z VRB02MPS CAVOK 26/18 Q0999 NOSIG
ZBAA,2025-05-20 02:00,ZBAA 200200Z VRB03MPS CAVOK 27/18 Q0999 NOSIG
ZBAA,2025-05-20 02:30,ZBAA 200230Z 14003MPS 070V180 CAVOK 27/19 Q0999 NOSIG
ZBAA,2025-05-20 03:00,ZBAA 200300Z 13002MPS 050V210 7000 NSC 28/19 Q0999 NOSIG
ZBAA,2025-05-20 03:30,ZBAA 200330Z 12003MPS 060V190 7000 NSC 29/19 Q0998 NOSIG
ZBAA,2025-05-20 04:00,ZBAA 200400Z 11003MPS 040V160 7000 NSC 29/19 Q0998 NOSIG
ZBAA,2025-05-20 04:30,ZBAA 200430Z 11003MPS 040V180 6000 NSC 29/20 Q0998 NOSIG
ZBAA,2025-05-20 05:00,ZBAA 200500Z 16004MPS 110V180 6000 NSC 29/20 Q0998 NOSIG
ZBAA,2025-05-20 05:30,ZBAA 200530Z 16003MPS 120V210 6000 NSC 30/20 Q0997 NOSIG
ZBAA,2025-05-20 06:00,ZBAA 200600Z 17003MPS 110V210 6000 NSC 30/20 Q0997 NOSIG
ZBAA,2025-05-20 06:30,ZBAA 200630Z 14003MPS 050V180 6000 NSC 30/21 Q0997 NOSIG
ZBAA,2025-05-20 07:00,ZBAA 200700Z 15003MPS 100V220 6000 NSC 29/20 Q0997 NOSIG
ZBAA,2025-05-20 07:30,ZBAA 200730Z 14003MPS 100V170 6000 NSC 30/21 Q0996 NOSIG
ZBAA,2025-05-20 08:00,ZBAA 200800Z 14005MPS 110V180 6000 NSC 30/21 Q0996 NOSIG
ZBAA,2025-05-20 08:30,ZBAA 200830Z 13003MPS 100V170 6000 NSC 30/21 Q0997 NOSIG
ZBAA,2025-05-20 09:00,ZBAA 200900Z 16004MPS 120V180 6000 NSC 29/21 Q0997 NOSIG
ZBAA,2025-05-20 09:30,ZBAA 200930Z 13003MPS 100V160 6000 NSC 29/21 Q0997 NOSIG
ZBAA,2025-05-20 10:00,ZBAA 201000Z 13002MPS 070V190 6000 NSC 28/21 Q0998 NOSIG
ZBAA,2025-05-20 10:30,ZBAA 201030Z 09003MPS 050V140 6000 NSC 28/21 Q0998 NOSIG
ZBAA,2025-05-20 11:00,ZBAA 201100Z 12004MPS 080V150 6000 NSC 27/20 Q0998 NOSIG
ZBAA,2025-05-20 11:30,ZBAA 201130Z 10003MPS 060V150 6000 NSC 27/20 Q0999 NOSIG
ZBAA,2025-05-20 12:00,ZBAA 201200Z VRB01MPS 6000 NSC 26/20 Q1000 NOSIG
ZBAA,2025-05-20 12:30,ZBAA 201230Z 11002MPS 080V140 6000 NSC 26/19 Q1000 NOSIG
ZBAA,2025-05-20 13:00,ZBAA 201300Z 12003MPS 080V160 6000 NSC 26/19 Q1000 NOSIG
ZBAA,2025-05-20 13:30,ZBAA 201330Z 14005MPS 6000 NSC 25/18 Q1000 NOSIG
ZBAA,2025-05-20 14:00,ZBAA 201400Z 17003MPS 130V190 8000 NSC 24/18 Q1001 NOSIG
ZBAA,2025-05-20 14:30,ZBAA 201430Z 15003MPS 8000 NSC 24/18 Q1001 NOSIG
ZBAA,2025-05-20 15:00,ZBAA 201500Z 14002MPS 090V160 8000 NSC 24/18 Q1002 NOSIG
ZBAA,2025-05-20 15:30,ZBAA 201530Z 05002MPS 8000 NSC 22/18 Q1002 NOSIG
ZBAA,2025-05-20 16:00,ZBAA 201600Z 11002MPS 070V140 8000 NSC 22/18 Q1003 NOSIG
ZBAA,2025-05-20 16:30,ZBAA 201630Z 09002MPS 040V140 8000 NSC 22/18 Q1003 NOSIG
ZBAA,2025-05-20 17:00,ZBAA 201700Z 10002MPS 050V150 8000 NSC 22/17 Q1004 NOSIG
ZBAA,2025-05-20 17:30,ZBAA 201730Z 14004MPS 100V180 8000 NSC 22/17 Q1004 NOSIG
ZBAA,2025-05-20 18:00,ZBAA 201800Z 16003MPS 8000 NSC 22/17 Q1005 NOSIG
ZBAA,2025-05-20 18:30,ZBAA 201830Z 14003MPS 100V200 8000 NSC 22/16 Q1005 NOSIG
ZBAA,2025-05-20 19:00,ZBAA 201900Z 14002MPS 110V170 8000 NSC 22/16 Q1005 NOSIG
ZBAA,2025-05-20 19:30,ZBAA 201930Z 16003MPS 8000 NSC 21/16 Q1005 NOSIG
ZBAA,2025-05-20 20:00,ZBAA 202000Z 00000MPS 8000 NSC 21/17 Q1006 NOSIG
ZBAA,2025-05-20 20:30,ZBAA 202030Z VRB01MPS 8000 NSC 21/17 Q1007 NOSIG
ZBAA,2025-05-20 21:00,ZBAA 202100Z 17002MPS 6000 NSC 20/17 Q1007 NOSIG
ZBAA,2025-05-20 21:30,ZBAA 202130Z 16001MPS 6000 NSC 20/17 Q1007 NOSIG
ZBAA,2025-05-20 22:00,ZBAA 202200Z 03002MPS 6000 NSC 21/18 Q1008 NOSIG
ZBAA,2025-05-20 22:30,ZBAA 202230Z VRB01MPS 6000 NSC 21/18 Q1008 NOSIG
ZBAA,2025-05-20 23:00,ZBAA 202300Z 00000MPS 6000 NSC 22/17 Q1008 NOSIG
ZBAA,2025-05-20 23:30,ZBAA 202330Z 35002MPS 310V040 6000 NSC 23/18 Q1009 NOSIG
ZBAA,2025-05-21 00:00,ZBAA 210000Z 36003MPS 6000 NSC 23/18 Q1009 NOSIG
ZBAA,2025-05-21 00:30,ZBAA 210030Z 32003MPS 290V350 6000 NSC 24/17 Q1009 NOSIG
ZBAA,2025-05-21 01:00,ZBAA 210100Z 36003MPS 320V020 6000 NSC 24/17 Q1009 NOSIG
ZBAA,2025-05-21 01:30,ZBAA 210130Z 02003MPS 340V050 6000 NSC 25/17 Q1009 NOSIG
ZBAA,2025-05-21 02:00,ZBAA 210200Z 03003MPS 360V070 CAVOK 24/16 Q1010 NOSIG
ZBAA,2025-05-21 02:30,ZBAA 210230Z 02004MPS 340V050 CAVOK 25/15 Q1009 NOSIG
ZBAA,2025-05-21 03:00,ZBAA 210300Z 02005MPS 350V050 CAVOK 26/14 Q1009 NOSIG
ZBAA,2025-05-21 03:30,ZBAA 210330Z 02003MPS 340V070 CAVOK 28/14 Q1009 NOSIG
ZBAA,2025-05-21 04:00,ZBAA 210400Z 02003MPS 340V070 CAVOK 28/15 Q1009 NOSIG
ZBAA,2025-05-21 04:30,ZBAA 210430Z 01002MPS 290V100 CAVOK 28/16 Q1009 NOSIG
ZBAA,2025-05-21 05:00,ZBAA 210500Z 14003MPS 100V160 CAVOK 28/17 Q1008 NOSIG
ZBAA,2025-05-21 05:30,ZBAA 210530Z 13003MPS 080V180 CAVOK 29/18 Q1008 NOSIG
ZBAA,2025-05-21 06:00,ZBAA 210600Z 12002MPS 060V160 CAVOK 29/18 Q1008 NOSIG
ZBAA,2025-05-21 06:30,ZBAA 210630Z 08002MPS 020V140 CAVOK 29/18 Q1008 NOSIG
ZBAA,2025-05-21 07:00,ZBAA 210700Z 12002MPS 030V180 CAVOK 29/18 Q1008 NOSIG
ZBAA,2025-05-21 07:30,ZBAA 210730Z 15003MPS 120V190 CAVOK 29/18 Q1008 NOSIG
ZBAA,2025-05-21 08:00,ZBAA 210800Z 16004MPS 130V190 CAVOK 29/18 Q1008 NOSIG
ZBAA,2025-05-21 08:30,ZBAA 210830Z 17004MPS 130V240 CAVOK 29/18 Q1008 NOSIG
ZBAA,2025-05-21 09:00,ZBAA 210900Z 16003MPS 120V190 CAVOK 29/18 Q1008 NOSIG
ZBAA,2025-05-21 09:30,ZBAA 210930Z 15004MPS CAVOK 28/18 Q1008 NOSIG
ZBAA,2025-05-21 10:00,ZBAA 211000Z 15004MPS CAVOK 27/17 Q1009 NOSIG
ZBAA,2025-05-21 10:30,ZBAA 211030Z 15004MPS CAVOK 27/16 Q1009 NOSIG
ZBAA,2025-05-21 11:00,ZBAA 211100Z 15002MPS CAVOK 26/15 Q1010 NOSIG
ZBAA,2025-05-21 11:30,ZBAA 211130Z 14002MPS CAVOK 24/16 Q1010 NOSIG
ZBAA,2025-05-21 12:00,ZBAA 211200Z 15002MPS CAVOK 24/15 Q1010 NOSIG
ZBAA,2025-05-21 12:30,ZBAA 211230Z 15002MPS CAVOK 23/16 Q1011 NOSIG
ZBAA,2025-05-21 13:00,ZBAA 211300Z 13001MPS CAVOK 21/16 Q1011 NOSIG
ZBAA,2025-05-21 13:30,ZBAA 211330Z VRB01MPS CAVOK 21/16 Q1012 NOSIG
ZBAA,2025-05-21 14:00,ZBAA 211400Z 16002MPS CAVOK 21/17 Q1012 NOSIG
ZBAA,2025-05-21 14:30,ZBAA 211430Z 15002MPS CAVOK 22/16 Q1012 NOSIG
ZBAA,2025-05-21 15:00,ZBAA 211500Z 15003MPS CAVOK 23/16 Q1012 NOSIG
ZBAA,2025-05-21 15:30,ZBAA 211530Z 15002MPS CAVOK 23/16 Q1013 NOSIG
ZBAA,2025-05-21 16:00,ZBAA 211600Z 14003MPS CAVOK 23/14 Q1013 NOSIG
ZBAA,2025-05-21 16:30,ZBAA 211630Z 15003MPS CAVOK 22/13 Q1014 NOSIG
ZBAA,2025-05-21 17:00,ZBAA 211700Z 14002MPS CAVOK 21/11 Q1014 NOSIG
ZBAA,2025-05-21 17:30,ZBAA 211730Z 14002MPS CAVOK 20/11 Q1014 NOSIG
ZBAA,2025-05-21 18:00,ZBAA 211800Z 08001MPS CAVOK 18/13 Q1014 NOSIG
ZBAA,2025-05-21 18:30,ZBAA 211830Z VRB01MPS CAVOK 18/13 Q1014 NOSIG
ZBAA,2025-05-21 19:00,ZBAA 211900Z VRB01MPS CAVOK 18/14 Q1014 NOSIG
ZBAA,2025-05-21 19:30,ZBAA 211930Z 05001MPS CAVOK 17/14 Q1014 NOSIG
ZBAA,2025-05-21 20:00,ZBAA 212000Z 06002MPS CAVOK 18/14 Q1014 NOSIG
ZBAA,2025-05-21 20:30,ZBAA 212030Z VRB01MPS CAVOK 19/15 Q1015 NOSIG
ZBAA,2025-05-21 21:00,ZBAA 212100Z VRB01MPS CAVOK 18/15 Q1015 NOSIG
ZBAA,2025-05-21 21:30,ZBAA 212130Z VRB01MPS CAVOK 18/15 Q1015 NOSIG
ZBAA,2025-05-21 22:00,ZBAA 212200Z VRB01MPS CAVOK 18/15 Q1015 NOSIG
ZBAA,2025-05-21 22:30,ZBAA 212230Z 07001MPS CAVOK 19/16 Q1015 NOSIG
ZBAA,2025-05-21 23:00,ZBAA 212300Z 06001MPS CAVOK 19/16 Q1015 NOSIG
ZBAA,2025-05-21 23:30,ZBAA 212330Z 00000MPS CAVOK 19/16 Q1016 NOSIG
ZBAA,2025-05-22 00:00,ZBAA 220000Z 36003MPS 320V030 CAVOK 20/15 Q1017 NOSIG
ZBAA,2025-05-22 00:30,ZBAA 220030Z 35002MPS 310V010 9999 -RA NSC 21/14 Q1017 NOSIG
ZBAA,2025-05-22 01:00,ZBAA 220100Z 35006MPS CAVOK 21/13 Q1017 NOSIG
ZBAA,2025-05-22 01:30,ZBAA 220130Z 35005MPS CAVOK 21/12 Q1017 NOSIG
ZBAA,2025-05-22 02:00,ZBAA 220200Z 35007MPS 9999 -RA NSC 20/13 Q1018 NOSIG
ZBAA,2025-05-22 02:30,ZBAA 220230Z 35006MPS 9999 -RA NSC 20/12 Q1018 NOSIG
ZBAA,2025-05-22 03:00,ZBAA 220300Z 36005MPS 9999 -RA NSC 20/11 Q1018 NOSIG
ZBAA,2025-05-22 03:30,ZBAA 220330Z 36004MPS 9999 -RA NSC 19/10 Q1018 NOSIG
ZBAA,2025-05-22 04:00,ZBAA 220400Z 36007MPS 9999 -RA NSC 18/09 Q1018 NOSIG
ZBAA,2025-05-22 04:30,ZBAA 220430Z 01006MPS CAVOK 19/10 Q1018 NOSIG
ZBAA,2025-05-22 05:00,ZBAA 220500Z 01007MPS CAVOK 19/08 Q1018 NOSIG
ZBAA,2025-05-22 05:30,ZBAA 220530Z 01006MPS CAVOK 18/09 Q1018 NOSIG
ZBAA,2025-05-22 06:00,ZBAA 220600Z 36006MPS CAVOK 18/09 Q1018 NOSIG
ZBAA,2025-05-22 06:30,ZBAA 220630Z 36005MPS CAVOK 18/09 Q1017 NOSIG
ZBAA,2025-05-22 07:00,ZBAA 220700Z 34005MPS CAVOK 18/09 Q1017 NOSIG
ZBAA,2025-05-22 07:30,ZBAA 220730Z 34005MPS 9999 -RA NSC 18/09 Q1017 NOSIG
ZBAA,2025-05-22 08:00,ZBAA 220800Z 33005MPS 9999 -RA NSC 18/09 Q1018 NOSIG
ZBAA,2025-05-22 08:30,ZBAA 220830Z 32004MPS 9999 -RA NSC 18/11 Q1018 NOSIG
ZBAA,2025-05-22 09:00,ZBAA 220900Z 01003MPS 330V050 9999 -RA NSC 16/12 Q1018 NOSIG
ZBAA,2025-05-22 09:30,ZBAA 220930Z 36003MPS 9999 -RA NSC 15/12 Q1018 NOSIG
ZBAA,2025-05-22 10:00,ZBAA 221000Z 36004MPS 9999 -RA NSC 14/12 Q1018 NOSIG
ZBAA,2025-05-22 10:30,ZBAA 221030Z 36004MPS 9999 -RA NSC 14/12 Q1018 NOSIG
ZBAA,2025-05-22 11:00,ZBAA 221100Z 36003MPS 330V030 8000 -RA NSC 14/12 Q1019 NOSIG
ZBAA,2025-05-22 11:30,ZBAA 221130Z 36003MPS 8000 -RA NSC 13/12 Q1019 NOSIG
ZBAA,2025-05-22 12:00,ZBAA 221200Z 33004MPS 8000 -RA OVC040 13/12 Q1019 NOSIG
ZBAA,2025-05-22 12:30,ZBAA 221230Z 30004MPS 8000 -RA OVC040 14/12 Q1019 NOSIG
ZBAA,2025-05-22 13:00,ZBAA 221300Z 30004MPS 270V330 9999 -RA OVC040 14/12 Q1019 NOSIG
ZBAA,2025-05-22 13:30,ZBAA 221330Z 29003MPS 270V330 9999 -RA OVC040 14/12 Q1019 NOSIG
ZBAA,2025-05-22 14:00,ZBAA 221400Z 29004MPS 250V320 9999 -RA NSC 14/12 Q1019 NOSIG
ZBAA,2025-05-22 14:30,ZBAA 221430Z 28003MPS 260V320 9999 -RA FEW013 14/12 Q1019 NOSIG
ZBAA,2025-05-22 15:00,ZBAA 221500Z 29003MPS 270V330 9999 -RA NSC 14/12 Q1018 NOSIG
ZBAA,2025-05-22 15:30,ZBAA 221530Z 31002MPS 9999 -RA NSC 14/12 Q1018 NOSIG
ZBAA,2025-05-22 16:00,ZBAA 221600Z VRB01MPS 9999 -RA NSC 13/12 Q1018 NOSIG
ZBAA,2025-05-22 16:30,ZBAA 221630Z 12001MPS 9999 -RA NSC 13/12 Q1018 NOSIG
ZBAA,2025-05-22 17:00,ZBAA 221700Z VRB01MPS 9999 -RA FEW013 13/13 Q1018 NOSIG
ZBAA,2025-05-22 17:30,ZBAA 221730Z VRB01MPS 9999 -RA FEW013 13/13 Q1018 NOSIG
ZBAA,2025-05-22 18:00,ZBAA 221800Z VRB01MPS 9999 -RA FEW013 13/12 Q1018 NOSIG
ZBAA,2025-05-22 18:30,ZBAA 221830Z VRB01MPS 9999 -RA FEW013 13/12 Q1018 NOSIG
ZBAA,2025-05-22 19:00,ZBAA 221900Z VRB01MPS 9999 -RA NSC 13/12 Q1017 NOSIG
ZBAA,2025-05-22 19:30,ZBAA 221930Z 36003MPS 9999 -RA NSC 13/13 Q1017 NOSIG
ZBAA,2025-05-22 20:00,ZBAA 222000Z 34003MPS 9999 -RA NSC 13/13 Q1016 NOSIG
ZBAA,2025-05-22 20:30,ZBAA 222030Z 34003MPS CAVOK 14/13 Q1016 NOSIG
ZBAA,2025-05-22 21:00,ZBAA 222100Z 36003MPS CAVOK 13/12 Q1016 NOSIG
ZBAA,2025-05-22 21:30,ZBAA 222130Z 02002MPS CAVOK 13/12 Q1016 NOSIG
ZBAA,2025-05-22 22:00,ZBAA 222200Z 32002MPS CAVOK 13/12 Q1016 NOSIG
ZBAA,2025-05-22 22:30,ZBAA 222230Z 32002MPS CAVOK 14/12 Q1016 NOSIG
ZBAA,2025-05-22 23:00,ZBAA 222300Z 32003MPS CAVOK 14/12 Q1016 NOSIG
ZBAA,2025-05-22 23:30,ZBAA 222330Z 32003MPS CAVOK 15/12 Q1016 NOSIG
ZBAA,2025-05-23 00:00,ZBAA 230000Z 33003MPS CAVOK 16/12 Q1016 NOSIG
ZBAA,2025-05-23 00:30,ZBAA 230030Z 36004MPS CAVOK 16/13 Q1016 NOSIG
ZBAA,2025-05-23 01:00,ZBAA 230100Z 36004MPS CAVOK 16/12 Q1017 NOSIG
ZBAA,2025-05-23 01:30,ZBAA 230130Z 35004MPS CAVOK 17/12 Q1017 NOSIG
ZBAA,2025-05-23 02:00,ZBAA 230200Z 01003MPS CAVOK 17/11 Q1017 NOSIG
ZBAA,2025-05-23 02:30,ZBAA 230230Z 34004MPS CAVOK 18/11 Q1017 NOSIG
ZBAA,2025-05-23 03:00,ZBAA 230300Z 01004MPS 340V040 CAVOK 19/11 Q1016 NOSIG
ZBAA,2025-05-23 03:30,ZBAA 230330Z 35004MPS CAVOK 19/11 Q1016 NOSIG
ZBAA,2025-05-23 04:00,ZBAA 230400Z 35004MPS 320V020 CAVOK 20/11 Q1016 NOSIG
ZBAA,2025-05-23 04:30,ZBAA 230430Z 34003MPS 290V010 CAVOK 21/12 Q1016 NOSIG
ZBAA,2025-05-23 05:00,ZBAA 230500Z 01006MPS 340V040 CAVOK 22/08 Q1016 NOSIG
ZBAA,2025-05-23 05:30,ZBAA 230530Z 36004MPS 340V040 CAVOK 21/09 Q1015 NOSIG
ZBAA,2025-05-23 06:00,ZBAA 230600Z 01002MPS 330V040 CAVOK 22/08 Q1015 NOSIG
ZBAA,2025-05-23 06:30,ZBAA 230630Z VRB02MPS CAVOK 23/08 Q1015 NOSIG
ZBAA,2025-05-23 07:00,ZBAA 230700Z VRB02MPS CAVOK 23/05 Q1015 NOSIG
ZBAA,2025-05-23 07:30,ZBAA 230730Z VRB01MPS CAVOK 23/05 Q1015 NOSIG
ZBAA,2025-05-23 08:00,ZBAA 230800Z VRB01MPS CAVOK 23/04 Q1015 NOSIG
ZBAA,2025-05-23 08:30,ZBAA 230830Z 36002MPS 340V040 CAVOK 22/10 Q1015 NOSIG
ZBAA,2025-05-23 09:00,ZBAA 230900Z VRB01MPS CAVOK 23/06 Q1015 NOSIG
ZBAA,2025-05-23 09:30,ZBAA 230930Z VRB01MPS CAVOK 23/05 Q1015 NOSIG
ZBAA,2025-05-23 10:00,ZBAA 231000Z 32002MPS 290V020 CAVOK 24/04 Q1015 NOSIG
ZBAA,2025-05-23 10:30,ZBAA 231030Z 29004MPS 260V340 CAVOK 23/06 Q1015 NOSIG
ZBAA,2025-05-23 11:00,ZBAA 231100Z 30004MPS CAVOK 22/06 Q1015 NOSIG
ZBAA,2025-05-23 11:30,ZBAA 231130Z 31004MPS CAVOK 22/05 Q1015 NOSIG
ZBAA,2025-05-23 12:00,ZBAA 231200Z 29003MPS CAVOK 20/05 Q1016 NOSIG
ZBAA,2025-05-23 12:30,ZBAA 231230Z 29003MPS 250V340 CAVOK 21/04 Q1016 NOSIG
ZBAA,2025-05-23 13:00,ZBAA 231300Z 27003MPS 230V330 CAVOK 21/05 Q1016 NOSIG
ZBAA,2025-05-23 13:30,ZBAA 231330Z 29003MPS 260V340 CAVOK 20/05 Q1016 NOSIG
ZBAA,2025-05-23 14:00,ZBAA 231400Z 29003MPS 260V340 CAVOK 19/07 Q1016 NOSIG
ZBAA,2025-05-23 14:30,ZBAA 231430Z 28003MPS 250V310 CAVOK 18/08 Q1016 NOSIG
ZBAA,2025-05-23 15:00,ZBAA 231500Z 29002MPS CAVOK 17/08 Q1016 NOSIG
ZBAA,2025-05-23 15:30,ZBAA 231530Z VRB01MPS CAVOK 12/10 Q1016 NOSIG
ZBAA,2025-05-23 16:00,ZBAA 231600Z 36003MPS CAVOK 13/09 Q1016 NOSIG
ZBAA,2025-05-23 16:30,ZBAA 231630Z 01002MPS 310V040 CAVOK 13/09 Q1016 NOSIG
ZBAA,2025-05-23 17:00,ZBAA 231700Z 02002MPS CAVOK 12/10 Q1016 NOSIG
ZBAA,2025-05-23 17:30,ZBAA 231730Z 35002MPS CAVOK 11/09 Q1016 NOSIG
ZBAA,2025-05-23 18:00,ZBAA 231800Z 36003MPS CAVOK 11/09 Q1016 NOSIG
ZBAA,2025-05-23 18:30,ZBAA 231830Z 36002MPS CAVOK 12/09 Q1016 NOSIG
ZBAA,2025-05-23 19:00,ZBAA 231900Z 36003MPS CAVOK 11/09 Q1015 NOSIG
ZBAA,2025-05-23 19:30,ZBAA 231930Z 36003MPS CAVOK 11/09 Q1015 NOSIG
ZBAA,2025-05-23 20:00,ZBAA 232000Z 36003MPS CAVOK 12/09 Q1015 NOSIG
ZBAA,2025-05-23 20:30,ZBAA 232030Z 01002MPS CAVOK 11/09 Q1015 NOSIG
ZBAA,2025-05-23 21:00,ZBAA 232100Z 36002MPS CAVOK 11/08 Q1015 NOSIG
ZBAA,2025-05-23 21:30,ZBAA 232130Z 36002MPS CAVOK 12/09 Q1016 NOSIG
ZBAA,2025-05-23 22:00,ZBAA 232200Z 34002MPS CAVOK 13/10 Q1016 NOSIG
ZBAA,2025-05-23 22:30,ZBAA 232230Z 35003MPS CAVOK 15/10 Q1016 NOSIG
ZBAA,2025-05-23 23:00,ZBAA 232300Z 35003MPS CAVOK 17/10 Q1016 NOSIG
ZBAA,2025-05-23 23:30,ZBAA 232330Z 35003MPS CAVOK 18/10 Q1016 NOSIG
ZBAA,2025-05-24 00:00,ZBAA 240000Z 36003MPS CAVOK 20/10 Q1016 NOSIG
ZBAA,2025-05-24 00:30,ZBAA 240030Z 01003MPS CAVOK 20/09 Q1016 NOSIG
ZBAA,2025-05-24 01:00,ZBAA 240100Z 35003MPS 310V020 CAVOK 22/10 Q1016 NOSIG
ZBAA,2025-05-24 01:30,ZBAA 240130Z 36003MPS 320V110 CAVOK 23/10 Q1016 NOSIG
ZBAA,2025-05-24 02:00,ZBAA 240200Z 33003MPS 300V020 CAVOK 24/09 Q1015 NOSIG
ZBAA,2025-05-24 02:30,ZBAA 240230Z 33004MPS 300V360 CAVOK 26/09 Q1015 NOSIG
ZBAA,2025-05-24 03:00,ZBAA 240300Z 33002MPS 290V030 CAVOK 26/08 Q1015 NOSIG
ZBAA,2025-05-24 03:30,ZBAA 240330Z 34003MPS 310V030 CAVOK 27/08 Q1015 NOSIG
ZBAA,2025-05-24 04:00,ZBAA 240400Z 33003MPS 300V040 CAVOK 27/06 Q1014 NOSIG
ZBAA,2025-05-24 04:30,ZBAA 240430Z 34002MPS 260V050 CAVOK 28/05 Q1014 NOSIG
ZBAA,2025-05-24 05:00,ZBAA 240500Z VRB03MPS CAVOK 28/03 Q1014 NOSIG
ZBAA,2025-05-24 05:30,ZBAA 240530Z VRB02MPS CAVOK 28/04 Q1013 NOSIG
ZBAA,2025-05-24 06:00,ZBAA 240600Z 25004MPS 200V320 CAVOK 28/03 Q1013 NOSIG
ZBAA,2025-05-24 06:30,ZBAA 240630Z VRB02MPS CAVOK 28/03 Q1013 NOSIG
ZBAA,2025-05-24 07:00,ZBAA 240700Z 18003MPS 130V270 CAVOK 29/04 Q1012 NOSIG
ZBAA,2025-05-24 07:30,ZBAA 240730Z 26003MPS 220V310 CAVOK 29/04 Q1012 NOSIG
ZBAA,2025-05-24 08:00,ZBAA 240800Z VRB01MPS CAVOK 29/04 Q1011 NOSIG
ZBAA,2025-05-24 08:30,ZBAA 240830Z VRB03MPS CAVOK 29/04 Q1011 NOSIG
ZBAA,2025-05-24 09:00,ZBAA 240900Z 28003G08MPS 210V330 CAVOK 29/04 Q1011 NOSIG
ZBAA,2025-05-24 09:30,ZBAA 240930Z 24004MPS 210V300 CAVOK 29/04 Q1011 NOSIG
ZBAA,2025-05-24 10:00,ZBAA 241000Z 25003MPS 200V310 CAVOK 29/04 Q1011 NOSIG
ZBAA,2025-05-24 10:30,ZBAA 241030Z 21004MPS 180V270 CAVOK 28/04 Q1011 NOSIG
ZBAA,2025-05-24 11:00,ZBAA 241100Z 22005MPS 200V290 CAVOK 28/04 Q1011 NOSIG
ZBAA,2025-05-24 11:30,ZBAA 241130Z 21005MPS 180V250 CAVOK 27/05 Q1011 NOSIG
ZBAA,2025-05-24 12:00,ZBAA 241200Z 22004MPS 190V280 CAVOK 26/05 Q1011 NOSIG
ZBAA,2025-05-24 12:30,ZBAA 241230Z 21005MPS 180V280 CAVOK 26/06 Q1011 NOSIG
ZBAA,2025-05-24 13:00,ZBAA 241300Z 21005MPS 190V270 CAVOK 25/06 Q1012 NOSIG
ZBAA,2025-05-24 13:30,ZBAA 241330Z 21005MPS CAVOK 25/05 Q1012 NOSIG
ZBAA,2025-05-24 14:00,ZBAA 241400Z 21005MPS CAVOK 24/05 Q1012 BECMG TL1540 33003MPS
ZBAA,2025-05-24 14:30,ZBAA 241430Z 21004MPS CAVOK 24/06 Q1012 NOSIG
ZBAA,2025-05-24 15:00,ZBAA 241500Z 21004MPS CAVOK 23/06 Q1011 NOSIG
ZBAA,2025-05-24 15:30,ZBAA 241530Z 23002MPS 200V260 CAVOK 19/08 Q1011 NOSIG
ZBAA,2025-05-24 16:00,ZBAA 241600Z VRB01MPS CAVOK 17/10 Q1011 NOSIG
ZBAA,2025-05-24 16:30,ZBAA 241630Z VRB01MPS CAVOK 16/10 Q1011 NOSIG
ZBAA,2025-05-24 17:00,ZBAA 241700Z VRB01MPS CAVOK 14/10 Q1011 NOSIG
ZBAA,2025-05-24 17:30,ZBAA 241730Z VRB01MPS CAVOK 14/11 Q1011 NOSIG
ZBAA,2025-05-24 18:00,ZBAA 241800Z VRB01MPS CAVOK 14/10 Q1011 NOSIG
ZBAA,2025-05-24 18:30,ZBAA 241830Z VRB01MPS CAVOK 13/11 Q1011 NOSIG
ZBAA,2025-05-24 19:00,ZBAA 241900Z 03001MPS CAVOK 13/11 Q1011 NOSIG
ZBAA,2025-05-24 19:30,ZBAA 241930Z 03001MPS CAVOK 13/11 Q1011 NOSIG
ZBAA,2025-05-24 20:00,ZBAA 242000Z 02002MPS CAVOK 12/11 Q1012 NOSIG
ZBAA,2025-05-24 20:30,ZBAA 242030Z VRB01MPS CAVOK 13/11 Q1012 NOSIG
ZBAA,2025-05-24 21:00,ZBAA 242100Z 03001MPS CAVOK 13/11 Q1012 NOSIG
ZBAA,2025-05-24 21:30,ZBAA 242130Z 06001MPS CAVOK 14/11 Q1013 NOSIG
ZBAA,2025-05-24 22:00,ZBAA 242200Z 04002MPS 010V070 CAVOK 17/11 Q1013 NOSIG
ZBAA,2025-05-24 22:30,ZBAA 242230Z 03002MPS 010V070 CAVOK 18/11 Q1014 NOSIG
ZBAA,2025-05-24 23:00,ZBAA 242300Z VRB01MPS CAVOK 19/12 Q1014 NOSIG
ZBAA,2025-05-24 23:30,ZBAA 242330Z VRB01MPS CAVOK 20/11 Q1015 NOSIG
ZBAA,2025-05-25 00:00,ZBAA 250000Z 03002MPS 360V080 CAVOK 22/11 Q1015 NOSIG
ZBAA,2025-05-25 00:30,ZBAA 250030Z 06003MPS 020V100 CAVOK 23/08 Q1015 NOSIG
ZBAA,2025-05-25 01:00,ZBAA 250100Z 05003MPS 020V090 CAVOK 24/09 Q1015 NOSIG
ZBAA,2025-05-25 01:30,ZBAA 250130Z 04002MPS CAVOK 25/08 Q1015 NOSIG
ZBAA,2025-05-25 02:00,ZBAA 250200Z 13003MPS 060V170 CAVOK 25/11 Q1015 NOSIG
ZBAA,2025-05-25 02:30,ZBAA 250230Z 10003MPS 070V150 CAVOK 26/10 Q1015 NOSIG
ZBAA,2025-05-25 03:00,ZBAA 250300Z 15004MPS 120V180 CAVOK 26/09 Q1015 NOSIG
ZBAA,2025-05-25 03:30,ZBAA 250330Z 14004MPS 070V180 CAVOK 26/09 Q1015 NOSIG
ZBAA,2025-05-25 04:00,ZBAA 250400Z 13004MPS 100V160 CAVOK 26/09 Q1015 NOSIG
ZBAA,2025-05-25 04:30,ZBAA 250430Z 12004MPS 060V170 CAVOK 27/10 Q1014 NOSIG
ZBAA,2025-05-25 05:00,ZBAA 250500Z 11003MPS 060V160 CAVOK 27/10 Q1014 NOSIG
ZBAA,2025-05-25 05:30,ZBAA 250530Z 12004MPS 070V150 CAVOK 26/10 Q1014 NOSIG
ZBAA,2025-05-25 06:00,ZBAA 250600Z 13003MPS 090V170 CAVOK 27/10 Q1014 NOSIG
ZBAA,2025-05-25 06:30,ZBAA 250630Z 13003MPS 050V170 CAVOK 27/11 Q1014 NOSIG
ZBAA,2025-05-25 07:00,ZBAA 250700Z 16005MPS CAVOK 27/10 Q1013 NOSIG
ZBAA,2025-05-25 07:30,ZBAA 250730Z 16005MPS CAVOK 27/10 Q1013 NOSIG
ZBAA,2025-05-25 08:00,ZBAA 250800Z 16004MPS 110V190 CAVOK 27/10 Q1013 NOSIG
ZBAA,2025-05-25 08:30,ZBAA 250830Z 17005MPS 140V200 CAVOK 26/10 Q1014 NOSIG
ZBAA,2025-05-25 09:00,ZBAA 250900Z 15003MPS CAVOK 25/10 Q1013 NOSIG
ZBAA,2025-05-25 09:30,ZBAA 250930Z 15003MPS CAVOK 25/11 Q1013 NOSIG
ZBAA,2025-05-25 10:00,ZBAA 251000Z 15003MPS 120V180 CAVOK 25/12 Q1013 NOSIG
ZBAA,2025-05-25 10:30,ZBAA 251030Z 15002MPS CAVOK 24/12 Q1014 NOSIG
ZBAA,2025-05-25 11:00,ZBAA 251100Z 14003MPS CAVOK 24/11 Q1014 NOSIG
ZBAA,2025-05-25 11:30,ZBAA 251130Z 15003MPS CAVOK 23/12 Q1014 NOSIG
ZBAA,2025-05-25 12:00,ZBAA 251200Z 15004MPS CAVOK 22/11 Q1014 NOSIG
ZBAA,2025-05-25 12:30,ZBAA 251230Z 16003MPS CAVOK 22/10 Q1015 NOSIG
ZBAA,2025-05-25 13:00,ZBAA 251300Z 16002MPS CAVOK 21/10 Q1015 NOSIG
ZBAA,2025-05-25 13:30,ZBAA 251330Z 15002MPS CAVOK 20/10 Q1015 NOSIG
ZBAA,2025-05-25 14:00,ZBAA 251400Z 14001MPS CAVOK 18/11 Q1015 NOSIG
ZBAA,2025-05-25 14:30,ZBAA 251430Z 15001MPS CAVOK 17/11 Q1015 NOSIG
ZBAA,2025-05-25 15:00,ZBAA 251500Z 08001MPS CAVOK 16/11 Q1015 NOSIG
ZBAA,2025-05-25 15:30,ZBAA 251530Z 08002MPS 060V130 CAVOK 16/12 Q1016 NOSIG
ZBAA,2025-05-25 16:00,ZBAA 251600Z VRB01MPS CAVOK 15/11 Q1015 NOSIG
ZBAA,2025-05-25 16:30,ZBAA 251630Z 14001MPS CAVOK 15/11 Q1015 NOSIG
ZBAA,2025-05-25 17:00,ZBAA 251700Z 08001MPS CAVOK 15/11 Q1016 NOSIG
ZBAA,2025-05-25 17:30,ZBAA 251730Z VRB01MPS CAVOK 14/12 Q1015 NOSIG
ZBAA,2025-05-25 18:00,ZBAA 251800Z 36001MPS CAVOK 14/12 Q1015 NOSIG
ZBAA,2025-05-25 18:30,ZBAA 251830Z 07002MPS CAVOK 14/12 Q1015 NOSIG
ZBAA,2025-05-25 19:00,ZBAA 251900Z 08001MPS CAVOK 14/11 Q1015 NOSIG
ZBAA,2025-05-25 19:30,ZBAA 251930Z 09001MPS CAVOK 13/11 Q1015 NOSIG
ZBAA,2025-05-25 20:00,ZBAA 252000Z 35001MPS CAVOK 13/11 Q1015 NOSIG
ZBAA,2025-05-25 20:30,ZBAA 252030Z 00000MPS CAVOK 13/11 Q1015 NOSIG
ZBAA,2025-05-25 21:00,ZBAA 252100Z 05001MPS CAVOK 12/11 Q1015 NOSIG
ZBAA,2025-05-25 21:30,ZBAA 252130Z 00000MPS CAVOK 13/11 Q1015 NOSIG
ZBAA,2025-05-25 22:00,ZBAA 252200Z VRB01MPS CAVOK 14/12 Q1015 NOSIG
ZBAA,2025-05-25 22:30,ZBAA 252230Z 35001MPS CAVOK 16/14 Q1016 NOSIG
ZBAA,2025-05-25 23:00,ZBAA 252300Z VRB01MPS CAVOK 18/13 Q1016 NOSIG
ZBAA,2025-05-25 23:30,ZBAA 252330Z VRB01MPS CAVOK 19/13 Q1016 NOSIG
ZBAA,2025-05-26 00:00,ZBAA 260000Z VRB01MPS CAVOK 21/12 Q1016 NOSIG
ZBAA,2025-05-26 00:30,ZBAA 260030Z VRB01MPS CAVOK 21/11 Q1016 NOSIG
ZBAA,2025-05-26 01:00,ZBAA 260100Z VRB01MPS CAVOK 21/11 Q1016 NOSIG
ZBAA,2025-05-26 01:30,ZBAA 260130Z VRB01MPS CAVOK 22/11 Q1015 NOSIG
ZBAA,2025-05-26 02:00,ZBAA 260200Z 13002MPS 090V180 CAVOK 22/11 Q1015 NOSIG
ZBAA,2025-05-26 02:30,ZBAA 260230Z 12002MPS 030V190 CAVOK 24/11 Q1015 NOSIG
ZBAA,2025-05-26 03:00,ZBAA 260300Z VRB02MPS CAVOK 25/11 Q1015 NOSIG
ZBAA,2025-05-26 03:30,ZBAA 260330Z VRB01MPS CAVOK 25/11 Q1015 NOSIG
ZBAA,2025-05-26 04:00,ZBAA 260400Z 21003MPS 170V280 CAVOK 26/11 Q1014 NOSIG
ZBAA,2025-05-26 04:30,ZBAA 260430Z VRB03MPS CAVOK 27/11 Q1014 NOSIG
ZBAA,2025-05-26 05:00,ZBAA 260500Z 24002MPS 180V310 CAVOK 28/12 Q1014 NOSIG
ZBAA,2025-05-26 05:30,ZBAA 260530Z VRB02MPS CAVOK 28/13 Q1013 NOSIG
ZBAA,2025-05-26 06:00,ZBAA 260600Z 18004MPS 140V230 CAVOK 28/11 Q1013 NOSIG
ZBAA,2025-05-26 06:30,ZBAA 260630Z 23002MPS 150V290 CAVOK 29/12 Q1012 NOSIG
ZBAA,2025-05-26 07:00,ZBAA 260700Z 22003MPS 150V290 CAVOK 30/11 Q1012 NOSIG
ZBAA,2025-05-26 07:30,ZBAA 260730Z VRB02MPS CAVOK 30/11 Q1012 NOSIG
ZBAA,2025-05-26 08:00,ZBAA 260800Z 21004MPS 180V250 CAVOK 30/12 Q1011 NOSIG
ZBAA,2025-05-26 08:30,ZBAA 260830Z 23002MPS 170V340 CAVOK 29/11 Q1012 NOSIG
ZBAA,2025-05-26 09:00,ZBAA 260900Z 21003MPS 180V310 CAVOK 29/11 Q1012 NOSIG
ZBAA,2025-05-26 09:30,ZBAA 260930Z VRB03MPS CAVOK 29/12 Q1011 NOSIG
ZBAA,2025-05-26 10:00,ZBAA 261000Z 19002MPS 110V240 CAVOK 28/13 Q1011 NOSIG
ZBAA,2025-05-26 10:30,ZBAA 261030Z 14002MPS CAVOK 27/15 Q1012 NOSIG
ZBAA,2025-05-26 11:00,ZBAA 261100Z 12002MPS CAVOK 25/15 Q1013 NOSIG
ZBAA,2025-05-26 11:30,ZBAA 261130Z 08002MPS CAVOK 24/15 Q1013 NOSIG
ZBAA,2025-05-26 12:00,ZBAA 261200Z 11002MPS 070V150 CAVOK 25/14 Q1013 NOSIG
ZBAA,2025-05-26 12:30,ZBAA 261230Z 16002MPS CAVOK 23/14 Q1013 NOSIG
ZBAA,2025-05-26 13:00,ZBAA 261300Z VRB01MPS CAVOK 21/15 Q1013 NOSIG
ZBAA,2025-05-26 13:30,ZBAA 261330Z 36002MPS CAVOK 20/15 Q1014 NOSIG
ZBAA,2025-05-26 14:00,ZBAA 261400Z 01003MPS CAVOK 22/12 Q1014 NOSIG
ZBAA,2025-05-26 14:30,ZBAA 261430Z 34003MPS CAVOK 21/12 Q1014 NOSIG
ZBAA,2025-05-26 15:00,ZBAA 261500Z 35002MPS 230V040 CAVOK 20/11 Q1014 NOSIG
ZBAA,2025-05-26 15:30,ZBAA 261530Z VRB01MPS CAVOK 20/11 Q1014 NOSIG
ZBAA,2025-05-26 16:00,ZBAA 261600Z VRB01MPS CAVOK 18/12 Q1014 NOSIG
ZBAA,2025-05-26 16:30,ZBAA 261630Z 06001MPS CAVOK 17/12 Q1014 NOSIG
ZBAA,2025-05-26 17:00,ZBAA 261700Z 00000MPS CAVOK 16/13 Q1014 NOSIG
ZBAA,2025-05-26 17:30,ZBAA 261730Z VRB01MPS CAVOK 16/12 Q1014 NOSIG
ZBAA,2025-05-26 18:00,ZBAA 261800Z VRB01MPS CAVOK 16/13 Q1014 NOSIG
ZBAA,2025-05-26 18:30,ZBAA 261830Z 35002MPS CAVOK 16/12 Q1014 NOSIG
ZBAA,2025-05-26 19:00,ZBAA 261900Z 36002MPS CAVOK 16/12 Q1014 NOSIG
ZBAA,2025-05-26 19:30,ZBAA 261930Z 36002MPS CAVOK 16/12 Q1014 NOSIG
ZBAA,2025-05-26 20:00,ZBAA 262000Z 00000MPS CAVOK 14/12 Q1014 NOSIG
ZBAA,2025-05-26 20:30,ZBAA 262030Z 36002MPS CAVOK 15/12 Q1014 NOSIG
ZBAA,2025-05-26 21:00,ZBAA 262100Z 01002MPS CAVOK 16/12 Q1014 NOSIG
ZBAA,2025-05-26 21:30,ZBAA 262130Z 36003MPS CAVOK 16/12 Q1015 NOSIG
ZBAA,2025-05-26 22:00,ZBAA 262200Z VRB01MPS CAVOK 18/13 Q1015 NOSIG
ZBAA,2025-05-26 22:30,ZBAA 262230Z 35003MPS CAVOK 19/13 Q1015 NOSIG
ZBAA,2025-05-26 23:00,ZBAA 262300Z 01002MPS CAVOK 21/13 Q1015 NOSIG
ZBAA,2025-05-26 23:30,ZBAA 262330Z 35002MPS CAVOK 22/13 Q1015 NOSIG
ZBAA,2025-05-27 00:00,ZBAA 270000Z 36003MPS 330V030 CAVOK 23/13 Q1015 NOSIG
ZBAA,2025-05-27 00:30,ZBAA 270030Z 01002MPS 330V030 CAVOK 24/12 Q1015 NOSIG
ZBAA,2025-05-27 01:00,ZBAA 270100Z 01002MPS 320V070 CAVOK 25/12 Q1015 NOSIG
ZBAA,2025-05-27 01:30,ZBAA 270130Z 34002MPS 280V020 CAVOK 27/12 Q1015 NOSIG
ZBAA,2025-05-27 02:00,ZBAA 270200Z VRB02MPS CAVOK 27/11 Q1015 NOSIG
ZBAA,2025-05-27 02:30,ZBAA 270230Z VRB02MPS CAVOK 28/11 Q1015 NOSIG
ZBAA,2025-05-27 03:00,ZBAA 270300Z 31002MPS 260V020 CAVOK 29/11 Q1015 NOSIG
ZBAA,2025-05-27 03:30,ZBAA 270330Z 21002MPS 160V300 CAVOK 29/13 Q1015 NOSIG
ZBAA,2025-05-27 04:00,ZBAA 270400Z VRB03MPS CAVOK 30/13 Q1014 NOSIG
ZBAA,2025-05-27 04:30,ZBAA 270430Z VRB03MPS CAVOK 30/12 Q1014 NOSIG
ZBAA,2025-05-27 05:00,ZBAA 270500Z VRB03MPS CAVOK 31/12 Q1014 NOSIG
ZBAA,2025-05-27 05:30,ZBAA 270530Z VRB03MPS CAVOK 32/12 Q1013 NOSIG
ZBAA,2025-05-27 06:00,ZBAA 270600Z 20003MPS 150V300 CAVOK 32/12 Q1013 NOSIG
ZBAA,2025-05-27 06:30,ZBAA 270630Z 20004MPS 160V270 CAVOK 32/13 Q1012 NOSIG
ZBAA,2025-05-27 07:00,ZBAA 270700Z 19004MPS 140V310 CAVOK 33/12 Q1012 NOSIG
ZBAA,2025-05-27 07:30,ZBAA 270730Z 18003MPS 150V250 CAVOK 32/12 Q1012 NOSIG
ZBAA,2025-05-27 08:00,ZBAA 270800Z VRB03MPS CAVOK 33/11 Q1011 NOSIG
ZBAA,2025-05-27 08:30,ZBAA 270830Z 18006MPS CAVOK 33/12 Q1011 NOSIG
ZBAA,2025-05-27 09:00,ZBAA 270900Z 19004MPS 110V270 CAVOK 32/12 Q1011 NOSIG
ZBAA,2025-05-27 09:30,ZBAA 270930Z 17004MPS CAVOK 32/12 Q1011 NOSIG
ZBAA,2025-05-27 10:00,ZBAA 271000Z 17004MPS 130V190 CAVOK 30/12 Q1012 NOSIG
ZBAA,2025-05-27 10:30,ZBAA 271030Z 05004MPS 020V090 CAVOK 29/10 Q1013 NOSIG
ZBAA,2025-05-27 11:00,ZBAA 271100Z 08003MPS 040V140 CAVOK 28/08 Q1013 NOSIG
ZBAA,2025-05-27 11:30,ZBAA 271130Z 14003MPS 110V180 CAVOK 27/09 Q1013 NOSIG
ZBAA,2025-05-27 12:00,ZBAA 271200Z 16003MPS 120V180 CAVOK 27/11 Q1012 NOSIG
ZBAA,2025-05-27 12:30,ZBAA 271230Z 11002MPS 080V140 CAVOK 26/11 Q1013 NOSIG
ZBAA,2025-05-27 13:00,ZBAA 271300Z VRB01MPS CAVOK 23/14 Q1013 NOSIG
ZBAA,2025-05-27 13:30,ZBAA 271330Z 06003MPS 030V160 CAVOK 25/12 Q1014 NOSIG
ZBAA,2025-05-27 14:00,ZBAA 271400Z 07002MPS CAVOK 24/13 Q1014 NOSIG
ZBAA,2025-05-27 14:30,ZBAA 271430Z VRB01MPS CAVOK 22/13 Q1014 NOSIG
ZBAA,2025-05-27 15:00,ZBAA 271500Z VRB01MPS CAVOK 21/14 Q1014 NOSIG
ZBAA,2025-05-27 15:30,ZBAA 271530Z VRB01MPS CAVOK 20/13 Q1014 NOSIG
ZBAA,2025-05-27 16:00,ZBAA 271600Z VRB01MPS CAVOK 20/13 Q1014 NOSIG
ZBAA,2025-05-27 16:30,ZBAA 271630Z 03001MPS CAVOK 19/13 Q1013 NOSIG
ZBAA,2025-05-27 17:00,ZBAA 271700Z VRB01MPS CAVOK 18/13 Q1013 NOSIG
ZBAA,2025-05-27 17:30,ZBAA 271730Z 35002MPS CAVOK 18/13 Q1013 NOSIG
ZBAA,2025-05-27 18:00,ZBAA 271800Z VRB01MPS CAVOK 17/13 Q1013 NOSIG
ZBAA,2025-05-27 18:30,ZBAA 271830Z 00000MPS CAVOK 17/13 Q1013 NOSIG
ZBAA,2025-05-27 19:00,ZBAA 271900Z 36001MPS CAVOK 16/14 Q1013 NOSIG
ZBAA,2025-05-27 19:30,ZBAA 271930Z 02001MPS CAVOK 16/14 Q1013 NOSIG
ZBAA,2025-05-27 20:00,ZBAA 272000Z 01001MPS CAVOK 16/13 Q1013 NOSIG
ZBAA,2025-05-27 20:30,ZBAA 272030Z 36002MPS CAVOK 16/13 Q1013 NOSIG
ZBAA,2025-05-27 21:00,ZBAA 272100Z 36002MPS CAVOK 15/13 Q1014 NOSIG
ZBAA,2025-05-27 21:30,ZBAA 272130Z 33001MPS CAVOK 16/13 Q1014 NOSIG
ZBAA,2025-05-27 22:00,ZBAA 272200Z 36002MPS CAVOK 17/15 Q1014 NOSIG
ZBAA,2025-05-27 22:30,ZBAA 272230Z 35001MPS CAVOK 20/15 Q1014 NOSIG
ZBAA,2025-05-27 23:00,ZBAA 272300Z VRB01MPS CAVOK 22/14 Q1014 NOSIG
ZBAA,2025-05-27 23:30,ZBAA 272330Z VRB01MPS CAVOK 23/14 Q1014 NOSIG
ZBAA,2025-05-28 00:00,ZBAA 280000Z VRB01MPS CAVOK 25/13 Q1014 NOSIG
ZBAA,2025-05-28 00:30,ZBAA 280030Z VRB01MPS CAVOK 25/13 Q1014 NOSIG
ZBAA,2025-05-28 01:00,ZBAA 280100Z VRB01MPS CAVOK 26/13 Q1014 NOSIG
ZBAA,2025-05-28 01:30,ZBAA 280130Z VRB01MPS CAVOK 26/13 Q1014 NOSIG
ZBAA,2025-05-28 02:00,ZBAA 280200Z VRB02MPS CAVOK 27/13 Q1014 NOSIG
ZBAA,2025-05-28 02:30,ZBAA 280230Z VRB01MPS CAVOK 27/14 Q1014 NOSIG
ZBAA,2025-05-28 03:00,ZBAA 280300Z VRB01MPS CAVOK 28/15 Q1014 NOSIG
ZBAA,2025-05-28 03:30,ZBAA 280330Z 13002MPS 090V180 CAVOK 29/14 Q1013 NOSIG
ZBAA,2025-05-28 04:00,ZBAA 280400Z VRB01MPS CAVOK 30/15 Q1013 BECMG TL0540 19005MPS
ZBAA,2025-05-28 04:30,ZBAA 280430Z VRB02MPS CAVOK 30/14 Q1013 NOSIG
ZBAA,2025-05-28 05:00,ZBAA 280500Z VRB01MPS CAVOK 31/14 Q1013 BECMG TL0640 19005MPS
ZBAA,2025-05-28 05:30,ZBAA 280530Z 21002MPS 160V270 CAVOK 32/13 Q1012 NOSIG
ZBAA,2025-05-28 06:00,ZBAA 280600Z 19003MPS 130V240 CAVOK 32/13 Q1012 NOSIG
ZBAA,2025-05-28 06:12,ZBAA 280612Z 25005MPS 220V310 CAVOK 32/11 Q1012 NOSIG
ZBAA,2025-05-28 06:20,ZBAA 280620Z 16005MPS 130V200 CAVOK 32/11 Q1012 NOSIG
ZBAA,2025-05-28 06:30,ZBAA 280630Z 19005MPS 140V250 CAVOK 33/10 Q1011 NOSIG
ZBAA,2025-05-28 07:00,ZBAA 280700Z 21006MPS 180V240 CAVOK 33/10 Q1011 NOSIG
ZBAA,2025-05-28 07:30,ZBAA 280730Z 19004MPS 150V220 CAVOK 33/09 Q1011 NOSIG
ZBAA,2025-05-28 08:00,ZBAA 280800Z 20005MPS 160V240 CAVOK 33/10 Q1011 NOSIG
ZBAA,2025-05-28 08:30,ZBAA 280830Z 20004MPS 160V220 CAVOK 33/10 Q1010 NOSIG
ZBAA,2025-05-28 09:00,ZBAA 280900Z 19005MPS CAVOK 32/10 Q1010 NOSIG
ZBAA,2025-05-28 09:30,ZBAA 280930Z 19006MPS 170V230 CAVOK 32/08 Q1010 NOSIG
ZBAA,2025-05-28 10:00,ZBAA 281000Z 18005MPS CAVOK 31/08 Q1010 NOSIG
ZBAA,2025-05-28 10:30,ZBAA 281030Z 17004MPS CAVOK 30/10 Q1011 NOSIG
ZBAA,2025-05-28 11:00,ZBAA 281100Z 16003MPS CAVOK 29/11 Q1011 NOSIG
ZBAA,2025-05-28 11:30,ZBAA 281130Z 15002MPS CAVOK 26/12 Q1011 NOSIG
ZBAA,2025-05-28 12:00,ZBAA 281200Z 14003MPS 110V170 CAVOK 26/16 Q1011 NOSIG
ZBAA,2025-05-28 12:30,ZBAA 281230Z 13005MPS 100V160 CAVOK 25/16 Q1012 NOSIG
ZBAA,2025-05-28 13:00,ZBAA 281300Z 11003MPS 070V140 CAVOK 24/16 Q1012 NOSIG
ZBAA,2025-05-28 13:30,ZBAA 281330Z 11003MPS 070V150 CAVOK 23/15 Q1013 NOSIG
ZBAA,2025-05-28 14:00,ZBAA 281400Z 11002MPS 060V150 CAVOK 22/15 Q1013 NOSIG
ZBAA,2025-05-28 14:30,ZBAA 281430Z 10002MPS 060V130 CAVOK 22/14 Q1013 NOSIG
ZBAA,2025-05-28 15:00,ZBAA 281500Z 11002MPS 060V150 CAVOK 22/14 Q1013 NOSIG
ZBAA,2025-05-28 15:30,ZBAA 281530Z VRB01MPS CAVOK 21/14 Q1013 NOSIG
ZBAA,2025-05-28 16:00,ZBAA 281600Z 10002MPS 070V150 CAVOK 21/14 Q1013 NOSIG
ZBAA,2025-05-28 16:30,ZBAA 281630Z 11003MPS 080V150 CAVOK 21/14 Q1012 NOSIG
ZBAA,2025-05-28 17:00,ZBAA 281700Z 11002MPS 060V150 CAVOK 21/14 Q1012 NOSIG
ZBAA,2025-05-28 17:30,ZBAA 281730Z 09002MPS 040V130 CAVOK 21/14 Q1013 NOSIG
ZBAA,2025-05-28 18:00,ZBAA 281800Z VRB01MPS CAVOK 19/14 Q1013 NOSIG
ZBAA,2025-05-28 18:30,ZBAA 281830Z VRB01MPS CAVOK 20/14 Q1013 NOSIG
ZBAA,2025-05-28 19:00,ZBAA 281900Z 09001MPS CAVOK 19/14 Q1013 NOSIG
ZBAA,2025-05-28 19:30,ZBAA 281930Z 06001MPS CAVOK 17/14 Q1013 NOSIG
ZBAA,2025-05-28 20:00,ZBAA 282000Z 11002MPS 070V150 CAVOK 18/14 Q1013 NOSIG
ZBAA,2025-05-28 20:30,ZBAA 282030Z VRB01MPS CAVOK 18/13 Q1013 NOSIG
ZBAA,2025-05-28 21:00,ZBAA 282100Z VRB01MPS CAVOK 16/14 Q1014 NOSIG
ZBAA,2025-05-28 21:30,ZBAA 282130Z 11002MPS 070V130 CAVOK 18/13 Q1013 NOSIG
ZBAA,2025-05-28 22:00,ZBAA 282200Z 12002MPS 080V150 CAVOK 19/13 Q1013 NOSIG
ZBAA,2025-05-28 22:30,ZBAA 282230Z VRB01MPS CAVOK 20/14 Q1014 NOSIG
ZBAA,2025-05-28 23:00,ZBAA 282300Z 15002MPS 110V190 CAVOK 21/14 Q1014 NOSIG
ZBAA,2025-05-28 23:30,ZBAA 282330Z 14003MPS 100V180 CAVOK 21/13 Q1013 NOSIG
ZBAA,2025-05-29 00:00,ZBAA 290000Z 14003MPS 090V180 CAVOK 22/14 Q1013 NOSIG
ZBAA,2025-05-29 00:30,ZBAA 290030Z VRB02MPS CAVOK 24/15 Q1013 NOSIG
ZBAA,2025-05-29 01:00,ZBAA 290100Z VRB02MPS CAVOK 24/14 Q1013 NOSIG
ZBAA,2025-05-29 01:30,ZBAA 290130Z 17002MPS 130V210 CAVOK 25/15 Q1013 NOSIG
ZBAA,2025-05-29 02:00,ZBAA 290200Z 10002MPS 050V150 CAVOK 25/15 Q1014 NOSIG
ZBAA,2025-05-29 02:30,ZBAA 290230Z 15002MPS 090V250 CAVOK 26/15 Q1013 NOSIG
ZBAA,2025-05-29 03:00,ZBAA 290300Z VRB02MPS CAVOK 27/15 Q1013 NOSIG
ZBAA,2025-05-29 03:30,ZBAA 290330Z 12002MPS 020V190 CAVOK 28/16 Q1013 NOSIG
ZBAA,2025-05-29 04:00,ZBAA 290400Z VRB02MPS CAVOK 29/15 Q1012 NOSIG
ZBAA,2025-05-29 04:30,ZBAA 290430Z VRB03MPS CAVOK 30/15 Q1012 NOSIG
ZBAA,2025-05-29 05:00,ZBAA 290500Z 20004MPS 150V260 CAVOK 30/15 Q1011 NOSIG
ZBAA,2025-05-29 05:30,ZBAA 290530Z 20003MPS 140V260 CAVOK 31/15 Q1011 NOSIG
ZBAA,2025-05-29 06:00,ZBAA 290600Z 20005MPS 160V230 CAVOK 32/13 Q1010 NOSIG
ZBAA,2025-05-29 06:30,ZBAA 290630Z 19006MPS 140V220 CAVOK 32/12 Q1010 NOSIG
ZBAA,2025-05-29 07:00,ZBAA 290700Z 18005MPS 130V210 CAVOK 32/12 Q1010 NOSIG
ZBAA,2025-05-29 07:30,ZBAA 290730Z 19007MPS CAVOK 32/09 Q1009 NOSIG
ZBAA,2025-05-29 08:00,ZBAA 290800Z 22006MPS 180V240 CAVOK 33/10 Q1009 NOSIG
ZBAA,2025-05-29 08:30,ZBAA 290830Z 18007MPS CAVOK 32/11 Q1009 NOSIG
ZBAA,2025-05-29 09:00,ZBAA 290900Z 19007MPS CAVOK 32/11 Q1008 NOSIG
ZBAA,2025-05-29 09:30,ZBAA 290930Z 20006MPS 170V230 CAVOK 31/12 Q1009 NOSIG
ZBAA,2025-05-29 10:00,ZBAA 291000Z 20006MPS CAVOK 30/11 Q1009 NOSIG
ZBAA,2025-05-29 10:30,ZBAA 291030Z 17004MPS CAVOK 30/11 Q1008 NOSIG
ZBAA,2025-05-29 11:00,ZBAA 291100Z 19004MPS CAVOK 29/11 Q1009 NOSIG
ZBAA,2025-05-29 11:30,ZBAA 291130Z 18003MPS 150V210 CAVOK 28/12 Q1009 NOSIG
ZBAA,2025-05-29 12:00,ZBAA 291200Z 16002MPS CAVOK 27/12 Q1009 NOSIG
ZBAA,2025-05-29 12:30,ZBAA 291230Z 15002MPS CAVOK 24/13 Q1009 NOSIG
ZBAA,2025-05-29 13:00,ZBAA 291300Z 15002MPS CAVOK 23/13 Q1009 NOSIG
ZBAA,2025-05-29 13:30,ZBAA 291330Z 15001MPS CAVOK 22/14 Q1010 NOSIG
ZBAA,2025-05-29 14:00,ZBAA 291400Z 16002MPS CAVOK 21/14 Q1010 NOSIG
ZBAA,2025-05-29 14:30,ZBAA 291430Z 15003MPS CAVOK 25/13 Q1010 NOSIG
ZBAA,2025-05-29 15:00,ZBAA 291500Z 14002MPS CAVOK 23/13 Q1010 NOSIG
ZBAA,2025-05-29 15:30,ZBAA 291530Z 14002MPS CAVOK 23/13 Q1010 NOSIG
ZBAA,2025-05-29 16:00,ZBAA 291600Z 15002MPS 120V200 CAVOK 24/13 Q1010 NOSIG
ZBAA,2025-05-29 16:30,ZBAA 291630Z 19002MPS CAVOK 21/14 Q1010 NOSIG
ZBAA,2025-05-29 17:00,ZBAA 291700Z 16001MPS CAVOK 19/14 Q1009 NOSIG
ZBAA,2025-05-29 17:30,ZBAA 291730Z VRB01MPS CAVOK 19/14 Q1009 NOSIG
ZBAA,2025-05-29 18:00,ZBAA 291800Z VRB01MPS CAVOK 18/15 Q1009 NOSIG
ZBAA,2025-05-29 18:30,ZBAA 291830Z VRB01MPS CAVOK 18/15 Q1009 NOSIG
ZBAA,2025-05-29 19:00,ZBAA 291900Z 08002MPS CAVOK 18/15 Q1009 NOSIG
ZBAA,2025-05-29 19:30,ZBAA 291930Z 10002MPS CAVOK 17/15 Q1009 NOSIG
ZBAA,2025-05-29 20:00,ZBAA 292000Z 11002MPS CAVOK 18/15 Q1009 NOSIG
ZBAA,2025-05-29 20:30,ZBAA 292030Z 00000MPS CAVOK 19/15 Q1010 NOSIG
ZBAA,2025-05-29 21:00,ZBAA 292100Z VRB01MPS 7000 NSC 19/16 Q1010 NOSIG
ZBAA,2025-05-29 21:30,ZBAA 292130Z 10002MPS 070V130 6000 NSC 21/16 Q1009 NOSIG
ZBAA,2025-05-29 22:00,ZBAA 292200Z VRB01MPS 6000 NSC 20/16 Q1010 NOSIG
ZBAA,2025-05-29 22:30,ZBAA 292230Z VRB01MPS 6000 NSC 21/16 Q1010 NOSIG
ZBAA,2025-05-29 23:00,ZBAA 292300Z 10002MPS 070V140 6000 NSC 22/16 Q1010 NOSIG
ZBAA,2025-05-29 23:30,ZBAA 292330Z 10002MPS 070V130 6000 NSC 23/17 Q1009 NOSIG
ZBAA,2025-05-30 00:00,ZBAA 300000Z 14002MPS 090V180 8000 NSC 24/15 Q1009 NOSIG
ZBAA,2025-05-30 00:30,ZBAA 300030Z 15003MPS 8000 NSC 25/16 Q1010 NOSIG
ZBAA,2025-05-30 01:00,ZBAA 300100Z 18005MPS 150V210 CAVOK 27/14 Q1010 NOSIG
ZBAA,2025-05-30 01:30,ZBAA 300130Z 17005MPS 140V200 CAVOK 28/14 Q1009 NOSIG
ZBAA,2025-05-30 02:00,ZBAA 300200Z 16004MPS CAVOK 28/14 Q1009 NOSIG
ZBAA,2025-05-30 02:30,ZBAA 300230Z 17003MPS 130V200 CAVOK 29/15 Q1009 NOSIG
ZBAA,2025-05-30 03:00,ZBAA 300300Z 16004MPS 130V220 CAVOK 28/14 Q1009 NOSIG
ZBAA,2025-05-30 03:30,ZBAA 300330Z 15004MPS 110V180 CAVOK 29/15 Q1009 NOSIG
ZBAA,2025-05-30 04:00,ZBAA 300400Z 16004MPS 120V200 CAVOK 29/15 Q1009 NOSIG
ZBAA,2025-05-30 04:30,ZBAA 300430Z 15003MPS 120V180 CAVOK 29/15 Q1008 NOSIG
ZBAA,2025-05-30 05:00,ZBAA 300500Z 20006MPS 160V230 CAVOK 30/14 Q1008 NOSIG
ZBAA,2025-05-30 05:30,ZBAA 300530Z 21006MPS 170V230 CAVOK 29/14 Q1008 NOSIG
ZBAA,2025-05-30 06:00,ZBAA 300600Z 19004MPS 170V230 CAVOK 31/16 Q1008 NOSIG
ZBAA,2025-05-30 06:30,ZBAA 300630Z 19006MPS CAVOK 30/14 Q1007 NOSIG
ZBAA,2025-05-30 07:00,ZBAA 300700Z 18006MPS 150V210 CAVOK 30/15 Q1007 NOSIG
ZBAA,2025-05-30 07:30,ZBAA 300730Z 18006MPS CAVOK 29/15 Q1007 NOSIG
ZBAA,2025-05-30 08:00,ZBAA 300800Z 21004MPS 180V240 CAVOK 29/15 Q1007 NOSIG
ZBAA,2025-05-30 08:30,ZBAA 300830Z 21005MPS CAVOK 29/15 Q1007 NOSIG
ZBAA,2025-05-30 09:00,ZBAA 300900Z 20004MPS CAVOK 29/16 Q1006 NOSIG
ZBAA,2025-05-30 09:30,ZBAA 300930Z 19003MPS 150V210 CAVOK 29/15 Q1007 NOSIG
ZBAA,2025-05-30 10:00,ZBAA 301000Z 19004MPS CAVOK 29/14 Q1007 NOSIG
ZBAA,2025-05-30 10:30,ZBAA 301030Z 17003MPS CAVOK 28/15 Q1007 NOSIG
ZBAA,2025-05-30 11:00,ZBAA 301100Z 15002MPS CAVOK 27/15 Q1007 NOSIG
ZBAA,2025-05-30 11:30,ZBAA 301130Z 15003MPS CAVOK 27/14 Q1006 NOSIG
ZBAA,2025-05-30 12:00,ZBAA 301200Z 16002MPS CAVOK 26/14 Q1007 NOSIG
ZBAA,2025-05-30 12:30,ZBAA 301230Z 15002MPS CAVOK 26/14 Q1007 NOSIG
ZBAA,2025-05-30 13:00,ZBAA 301300Z 14002MPS CAVOK 26/14 Q1007 NOSIG
ZBAA,2025-05-30 13:30,ZBAA 301330Z 14002MPS 110V170 CAVOK 26/14 Q1007 NOSIG
ZBAA,2025-05-30 14:00,ZBAA 301400Z 17002MPS CAVOK 25/14 Q1007 NOSIG
ZBAA,2025-05-30 14:30,ZBAA 301430Z 16001MPS CAVOK 24/15 Q1007 NOSIG
ZBAA,2025-05-30 15:00,ZBAA 301500Z 14003MPS CAVOK 25/14 Q1006 NOSIG
ZBAA,2025-05-30 15:30,ZBAA 301530Z 15003MPS CAVOK 25/14 Q1006 NOSIG
ZBAA,2025-05-30 16:00,ZBAA 301600Z 14004MPS CAVOK 26/14 Q1006 NOSIG
ZBAA,2025-05-30 16:30,ZBAA 301630Z 15003MPS CAVOK 25/14 Q1006 NOSIG
ZBAA,2025-05-30 17:00,ZBAA 301700Z 15002MPS CAVOK 24/14 Q1006 NOSIG
ZBAA,2025-05-30 17:30,ZBAA 301730Z 15001MPS CAVOK 23/15 Q1006 NOSIG
ZBAA,2025-05-30 18:00,ZBAA 301800Z VRB01MPS CAVOK 23/15 Q1006 NOSIG
ZBAA,2025-05-30 18:30,ZBAA 301830Z 08002MPS CAVOK 22/15 Q1006 NOSIG
ZBAA,2025-05-30 19:00,ZBAA 301900Z VRB01MPS CAVOK 21/16 Q1006 NOSIG
ZBAA,2025-05-30 19:30,ZBAA 301930Z 04001MPS CAVOK 20/16 Q1006 NOSIG
ZBAA,2025-05-30 20:00,ZBAA 302000Z 08001MPS CAVOK 20/16 Q1006 NOSIG
ZBAA,2025-05-30 20:30,ZBAA 302030Z 09002MPS 070V130 CAVOK 21/16 Q1006 NOSIG
ZBAA,2025-05-30 21:00,ZBAA 302100Z 10002MPS 060V130 8000 NSC 22/17 Q1006 NOSIG
ZBAA,2025-05-30 21:30,ZBAA 302130Z 10002MPS 060V130 6000 NSC 22/17 Q1006 NOSIG
ZBAA,2025-05-30 22:00,ZBAA 302200Z 11002MPS 080V160 6000 NSC 22/17 Q1006 NOSIG
ZBAA,2025-05-30 22:30,ZBAA 302230Z 10002MPS 040V130 6000 NSC 22/16 Q1006 NOSIG
ZBAA,2025-05-30 23:00,ZBAA 302300Z 17004MPS 6000 NSC 22/17 Q1006 NOSIG
ZBAA,2025-05-30 23:30,ZBAA 302330Z VRB01MPS 6000 NSC 22/17 Q1006 NOSIG
ZBAA,2025-05-31 00:00,ZBAA 310000Z 06002MPS 340V100 6000 -SHRA NSC 22/17 Q1007 NOSIG
ZBAA,2025-05-31 00:30,ZBAA 310030Z 02002MPS 6000 -SHRA NSC 23/17 Q1007 NOSIG
ZBAA,2025-05-31 01:00,ZBAA 310100Z VRB01MPS 6000 -SHRA NSC 23/17 Q1007 NOSIG
ZBAA,2025-05-31 01:30,ZBAA 310130Z 06003MPS 040V100 6000 -SHRA SCT033 23/17 Q1007 NOSIG
ZBAA,2025-05-31 02:00,ZBAA 310200Z 05004MPS 020V090 6000 -SHRA SCT033 24/17 Q1006 NOSIG
ZBAA,2025-05-31 02:30,ZBAA 310230Z 07004MPS 040V130 6000 -SHRA NSC 25/17 Q1006 NOSIG
ZBAA,2025-05-31 03:00,ZBAA 310300Z 10003MPS 060V150 7000 -SHRA NSC 24/17 Q1007 NOSIG
ZBAA,2025-05-31 03:30,ZBAA 310330Z 09002MPS 060V150 7000 -SHRA NSC 25/17 Q1007 NOSIG
ZBAA,2025-05-31 04:00,ZBAA 310400Z VRB01MPS 7000 -SHRA NSC 25/17 Q1007 NOSIG
ZBAA,2025-05-31 04:30,ZBAA 310430Z 14003MPS 8000 -SHRA NSC 24/16 Q1007 NOSIG
ZBAA,2025-05-31 05:00,ZBAA 310500Z 18002MPS 130V240 8000 -SHRA NSC 23/17 Q1007 NOSIG
ZBAA,2025-05-31 05:30,ZBAA 310530Z 18004MPS 9999 -SHRA NSC 24/16 Q1007 NOSIG
ZBAA,2025-05-31 06:00,ZBAA 310600Z 13002MPS 100V160 CAVOK 23/17 Q1006 NOSIG
ZBAA,2025-05-31 06:30,ZBAA 310630Z 15002MPS CAVOK 24/16 Q1007 NOSIG
ZBAA,2025-05-31 07:00,ZBAA 310700Z 17002MPS 140V220 CAVOK 23/17 Q1007 NOSIG
ZBAA,2025-05-31 07:30,ZBAA 310730Z 12002MPS CAVOK 23/17 Q1007 NOSIG
ZBAA,2025-05-31 08:00,ZBAA 310800Z VRB01MPS CAVOK 23/18 Q1007 NOSIG
ZBAA,2025-05-31 08:30,ZBAA 310830Z 06002MPS CAVOK 23/18 Q1007 NOSIG
ZBAA,2025-05-31 09:00,ZBAA 310900Z 07002MPS 040V140 CAVOK 23/18 Q1007 NOSIG
ZBAA,2025-05-31 09:30,ZBAA 310930Z 04002MPS 020V080 CAVOK 23/17 Q1006 NOSIG
ZBAA,2025-05-31 10:00,ZBAA 311000Z 07002MPS 020V130 CAVOK 22/17 Q1007 NOSIG
ZBAA,2025-05-31 10:30,ZBAA 311030Z 01002MPS CAVOK 22/17 Q1007 NOSIG
ZBAA,2025-05-31 11:00,ZBAA 311100Z 36002MPS 320V020 CAVOK 22/17 Q1007 NOSIG
ZBAA,2025-05-31 11:30,ZBAA 311130Z 01001MPS CAVOK 21/17 Q1008 NOSIG
ZBAA,2025-05-31 12:00,ZBAA 311200Z VRB01MPS 9999 FEW020 21/17 Q1008 NOSIG
ZBAA,2025-05-31 12:30,ZBAA 311230Z 03002MPS 360V070 9999 FEW020 22/16 Q1009 NOSIG
ZBAA,2025-05-31 13:00,ZBAA 311300Z 02002MPS 360V060 9999 FEW020 22/16 Q1009 NOSIG
ZBAA,2025-05-31 13:30,ZBAA 311330Z VRB01MPS CAVOK 21/17 Q1009 NOSIG
ZBAA,2025-05-31 14:00,ZBAA 311400Z 36001MPS CAVOK 21/17 Q1009 NOSIG
ZBAA,2025-05-31 14:30,ZBAA 311430Z 01003MPS 9999 -SHRA BKN040 20/17 Q1009 NOSIG
ZBAA,2025-05-31 15:00,ZBAA 311500Z 36003MPS 9999 -SHRA BKN040 19/18 Q1009 NOSIG
ZBAA,2025-05-31 15:30,ZBAA 311530Z 36002MPS 9999 BKN040 20/18 Q1009 NOSIG
ZBAA,2025-05-31 16:00,ZBAA 311600Z 01002MPS CAVOK 19/18 Q1009 NOSIG
ZBAA,2025-05-31 16:30,ZBAA 311630Z 02002MPS CAVOK 20/17 Q1010 NOSIG
ZBAA,2025-05-31 17:00,ZBAA 311700Z 36005MPS CAVOK 20/17 Q1010 NOSIG
ZBAA,2025-05-31 17:30,ZBAA 311730Z 01004MPS CAVOK 20/17 Q1010 NOSIG
ZBAA,2025-05-31 18:00,ZBAA 311800Z 01004MPS CAVOK 20/17 Q1009 NOSIG
ZBAA,2025-05-31 18:30,ZBAA 311830Z 35003MPS CAVOK 20/17 Q1010 NOSIG
ZBAA,2025-05-31 19:00,ZBAA 311900Z 35004MPS CAVOK 20/17 Q1010 NOSIG
ZBAA,2025-05-31 19:30,ZBAA 311930Z 36003MPS CAVOK 19/17 Q1010 NOSIG
ZBAA,2025-05-31 20:00,ZBAA 312000Z 03002MPS 340V060 CAVOK 19/17 Q1010 NOSIG
ZBAA,2025-05-31 20:30,ZBAA 312030Z 02002MPS 350V060 CAVOK 20/17 Q1009 NOSIG
ZBAA,2025-05-31 21:00,ZBAA 312100Z 01002MPS CAVOK 20/17 Q1010 NOSIG
ZBAA,2025-05-31 21:30,ZBAA 312130Z VRB01MPS CAVOK 20/17 Q1010 NOSIG
ZBAA,2025-05-31 22:00,ZBAA 312200Z 34001MPS CAVOK 20/17 Q1010 NOSIG
ZBAA,2025-05-31 22:30,ZBAA 312230Z VRB01MPS CAVOK 20/18 Q1010 NOSIG
ZBAA,2025-05-31 23:00,ZBAA 312300Z 36001MPS 9999 -RA NSC 20/18 Q1010 NOSIG
ZBAA,2025-05-31 23:30,ZBAA 312330Z 01002MPS CAVOK 21/18 Q1010 NOSIG
ZBAA,2025-06-01 00:00,ZBAA 010000Z 01002MPS CAVOK 21/18 Q1011 NOSIG
ZBAA,2025-06-01 00:30,ZBAA 010030Z 35002MPS CAVOK 21/18 Q1011 NOSIG
ZBAA,2025-06-01 01:00,ZBAA 010100Z 35002MPS 300V020 CAVOK 22/18 Q1011 NOSIG
ZBAA,2025-06-01 01:30,ZBAA 010130Z VRB01MPS CAVOK 22/17 Q1010 NOSIG
ZBAA,2025-06-01 02:00,ZBAA 010200Z VRB01MPS CAVOK 22/16 Q1010 NOSIG
ZBAA,2025-06-01 02:30,ZBAA 010230Z VRB01MPS CAVOK 23/17 Q1010 NOSIG
ZBAA,2025-06-01 03:00,ZBAA 010300Z VRB01MPS CAVOK 22/17 Q1010 NOSIG
ZBAA,2025-06-01 03:30,ZBAA 010330Z 12002MPS 070V150 CAVOK 23/16 Q1010 NOSIG
ZBAA,2025-06-01 04:00,ZBAA 010400Z 11002MPS 050V150 CAVOK 23/16 Q1010 NOSIG
ZBAA,2025-06-01 04:30,ZBAA 010430Z 14003MPS 100V180 7000 NSC 24/16 Q1010 NOSIG
ZBAA,2025-06-01 05:00,ZBAA 010500Z 12003MPS 080V150 6000 NSC 24/15 Q1010 NOSIG
ZBAA,2025-06-01 05:30,ZBAA 010530Z 11003MPS 080V150 6000 NSC 24/16 Q1009 NOSIG
ZBAA,2025-06-01 06:00,ZBAA 010600Z VRB01MPS 6000 NSC 24/16 Q1009 NOSIG
ZBAA,2025-06-01 06:30,ZBAA 010630Z VRB01MPS 6000 NSC 24/16 Q1009 NOSIG
ZBAA,2025-06-01 07:00,ZBAA 010700Z VRB01MPS 6000 NSC 25/16 Q1008 NOSIG
ZBAA,2025-06-01 07:30,ZBAA 010730Z 17002MPS 110V240 6000 NSC 24/16 Q1008 NOSIG
ZBAA,2025-06-01 08:00,ZBAA 010800Z VRB01MPS 6000 -RA NSC 24/16 Q1008 NOSIG
ZBAA,2025-06-01 08:30,ZBAA 010830Z VRB01MPS 6000 -RA NSC 23/17 Q1007 NOSIG
ZBAA,2025-06-01 09:00,ZBAA 010900Z VRB01MPS 6000 NSC 24/17 Q1007 NOSIG
ZBAA,2025-06-01 09:30,ZBAA 010930Z VRB01MPS 6000 NSC 24/17 Q1006 NOSIG
ZBAA,2025-06-01 10:00,ZBAA 011000Z VRB01MPS 6000 NSC 24/16 Q1006 NOSIG
ZBAA,2025-06-01 10:30,ZBAA 011030Z VRB01MPS 6000 NSC 24/16 Q1006 NOSIG
ZBAA,2025-06-01 11:00,ZBAA 011100Z 34003MPS 310V010 6000 NSC 23/17 Q1007 NOSIG
ZBAA,2025-06-01 11:30,ZBAA 011130Z VRB01MPS 6000 NSC 22/17 Q1007 NOSIG
ZBAA,2025-06-01 12:00,ZBAA 011200Z VRB01MPS 6000 NSC 21/17 Q1007 NOSIG
ZBAA,2025-06-01 12:30,ZBAA 011230Z 03001MPS 6000 NSC 20/17 Q1007 NOSIG
ZBAA,2025-06-01 13:00,ZBAA 011300Z 36001MPS 6000 NSC 20/18 Q1007 NOSIG
ZBAA,2025-06-01 13:30,ZBAA 011330Z 01002MPS 6000 NSC 20/17 Q1007 NOSIG
ZBAA,2025-06-01 14:00,ZBAA 011400Z 33002MPS 300V360 6000 NSC 21/17 Q1007 NOSIG
ZBAA,2025-06-01 14:30,ZBAA 011430Z 30004MPS 6000 NSC 22/17 Q1007 NOSIG
ZBAA,2025-06-01 15:00,ZBAA 011500Z 34004MPS 6000 NSC 22/17 Q1008 NOSIG
ZBAA,2025-06-01 15:30,ZBAA 011530Z 30005G10MPS 9999 -SHRA NSC 22/14 Q1007 NOSIG
ZBAA,2025-06-01 16:00,ZBAA 011600Z 28003MPS CAVOK 21/15 Q1007 NOSIG
ZBAA,2025-06-01 16:30,ZBAA 011630Z 16002MPS CAVOK 19/15 Q1006 NOSIG
ZBAA,2025-06-01 17:00,ZBAA 011700Z VRB02MPS CAVOK 20/15 Q1006 NOSIG
ZBAA,2025-06-01 17:30,ZBAA 011730Z 29003MPS 270V330 CAVOK 20/15 Q1005 NOSIG
ZBAA,2025-06-01 18:00,ZBAA 011800Z 20002MPS 140V240 CAVOK 18/15 Q1004 NOSIG
ZBAA,2025-06-01 18:30,ZBAA 011830Z VRB01MPS CAVOK 18/15 Q1004 NOSIG
ZBAA,2025-06-01 19:00,ZBAA 011900Z 30005MPS CAVOK 19/15 Q1004 NOSIG
ZBAA,2025-06-01 19:23,ZBAA 011923Z 36002MPS 320V040 CAVOK 18/14 Q1004 NOSIG
ZBAA,2025-06-01 19:30,ZBAA 011930Z 01002MPS 340V040 CAVOK 17/15 Q1004 NOSIG
ZBAA,2025-06-01 20:00,ZBAA 012000Z VRB01MPS CAVOK 16/15 Q1004 NOSIG
ZBAA,2025-06-01 20:30,ZBAA 012030Z VRB01MPS CAVOK 16/15 Q1004 NOSIG
ZBAA,2025-06-01 21:00,ZBAA 012100Z 08001MPS CAVOK 15/14 Q1003 NOSIG
ZBAA,2025-06-01 21:30,ZBAA 012130Z VRB01MPS CAVOK 15/14 Q1003 NOSIG
ZBAA,2025-06-01 22:00,ZBAA 012200Z 28002MPS CAVOK 18/15 Q1004 NOSIG
ZBAA,2025-06-01 22:30,ZBAA 012230Z 31003MPS 280V340 CAVOK 19/16 Q1004 NOSIG
ZBAA,2025-06-01 23:00,ZBAA 012300Z 35002MPS CAVOK 20/16 Q1004 NOSIG
ZBAA,2025-06-01 23:30,ZBAA 012330Z VRB01MPS CAVOK 21/15 Q1004 NOSIG
ZBAA,2025-06-02 00:00,ZBAA 020000Z VRB01MPS CAVOK 22/15 Q1004 NOSIG
ZBAA,2025-06-02 00:30,ZBAA 020030Z 31002MPS 280V340 CAVOK 23/14 Q1004 NOSIG
ZBAA,2025-06-02 01:00,ZBAA 020100Z VRB02MPS CAVOK 24/15 Q1004 BECMG TL0240 29005MPS
ZBAA,2025-06-02 01:30,ZBAA 020130Z VRB02G07MPS CAVOK 24/15 Q1004 NOSIG
ZBAA,2025-06-02 02:00,ZBAA 020200Z VRB02MPS CAVOK 26/15 Q1003 BECMG TL0240 29005MPS
ZBAA,2025-06-02 02:30,ZBAA 020230Z VRB02MPS CAVOK 27/14 Q1003 NOSIG
ZBAA,2025-06-02 03:00,ZBAA 020300Z 29007MPS 260V320 CAVOK 29/09 Q1003 NOSIG
ZBAA,2025-06-02 03:30,ZBAA 020330Z 29008G13MPS 260V320 CAVOK 29/09 Q1003 NOSIG
ZBAA,2025-06-02 04:00,ZBAA 020400Z 30009MPS CAVOK 29/06 Q1003 NOSIG
ZBAA,2025-06-02 04:30,ZBAA 020430Z 30011MPS CAVOK 30/05 Q1003 NOSIG
ZBAA,2025-06-02 05:00,ZBAA 020500Z 29010G15MPS CAVOK 30/04 Q1002 NOSIG
ZBAA,2025-06-02 05:30,ZBAA 020530Z 28009G15MPS CAVOK 30/04 Q1002 NOSIG
ZBAA,2025-06-02 06:00,ZBAA 020600Z 30011MPS CAVOK 30/04 Q1002 NOSIG
ZBAA,2025-06-02 06:30,ZBAA 020630Z 28010MPS 260V320 CAVOK 30/02 Q1002 NOSIG
ZBAA,2025-06-02 07:00,ZBAA 020700Z 32007MPS 280V350 CAVOK 31/02 Q1002 NOSIG
ZBAA,2025-06-02 07:30,ZBAA 020730Z 30008G14MPS CAVOK 30/02 Q1002 NOSIG
ZBAA,2025-06-02 08:00,ZBAA 020800Z 30008MPS CAVOK 28/03 Q1002 NOSIG
ZBAA,2025-06-02 08:30,ZBAA 020830Z 34007G12MPS 300V010 CAVOK 29/04 Q1002 NOSIG
ZBAA,2025-06-02 09:00,ZBAA 020900Z 34008MPS CAVOK 29/03 Q1002 NOSIG
ZBAA,2025-06-02 09:30,ZBAA 020930Z 34008G14MPS 300V010 CAVOK 29/01 Q1002 NOSIG
ZBAA,2025-06-02 10:00,ZBAA 021000Z 33008MPS CAVOK 28/02 Q1002 NOSIG
ZBAA,2025-06-02 10:30,ZBAA 021030Z 34008MPS CAVOK 27/01 Q1002 NOSIG
ZBAA,2025-06-02 11:00,ZBAA 021100Z 36007MPS CAVOK 26/02 Q1003 NOSIG
ZBAA,2025-06-02 11:30,ZBAA 021130Z 34006MPS CAVOK 25/02 Q1003 NOSIG
ZBAA,2025-06-02 12:00,ZBAA 021200Z 36006MPS CAVOK 23/02 Q1004 NOSIG
ZBAA,2025-06-02 12:30,ZBAA 021230Z 01004MPS CAVOK 22/02 Q1004 NOSIG
ZBAA,2025-06-02 13:00,ZBAA 021300Z 36003MPS CAVOK 20/02 Q1005 NOSIG
ZBAA,2025-06-02 13:30,ZBAA 021330Z 01002MPS CAVOK 20/03 Q1005 NOSIG
ZBAA,2025-06-02 14:00,ZBAA 021400Z VRB01MPS CAVOK 17/05 Q1005 NOSIG
ZBAA,2025-06-02 14:30,ZBAA 021430Z VRB01MPS CAVOK 16/05 Q1005 NOSIG
ZBAA,2025-06-02 15:00,ZBAA 021500Z VRB01MPS CAVOK 15/06 Q1004 NOSIG
ZBAA,2025-06-02 15:30,ZBAA 021530Z VRB01MPS CAVOK 14/06 Q1004 NOSIG
ZBAA,2025-06-02 16:00,ZBAA 021600Z 20002MPS 160V250 CAVOK 15/06 Q1004 NOSIG
ZBAA,2025-06-02 16:30,ZBAA 021630Z 27004MPS CAVOK 21/03 Q1003 NOSIG
ZBAA,2025-06-02 17:00,ZBAA 021700Z 27005MPS CAVOK 21/03 Q1003 NOSIG
ZBAA,2025-06-02 17:30,ZBAA 021730Z 28003MPS CAVOK 21/03 Q1003 NOSIG
ZBAA,2025-06-02 18:00,ZBAA 021800Z 27003MPS CAVOK 20/03 Q1004 NOSIG
ZBAA,2025-06-02 18:30,ZBAA 021830Z 27004MPS CAVOK 21/03 Q1003 NOSIG
ZBAA,2025-06-02 19:00,ZBAA 021900Z 27004MPS CAVOK 20/02 Q1004 NOSIG
ZBAA,2025-06-02 19:30,ZBAA 021930Z 25004MPS CAVOK 20/02 Q1003 NOSIG
ZBAA,2025-06-02 20:00,ZBAA 022000Z 24004MPS CAVOK 20/02 Q1003 NOSIG
ZBAA,2025-06-02 20:30,ZBAA 022030Z 25004MPS CAVOK 20/02 Q1003 NOSIG
ZBAA,2025-06-02 21:00,ZBAA 022100Z 25004MPS CAVOK 20/02 Q1004 NOSIG
ZBAA,2025-06-02 21:30,ZBAA 022130Z 27005MPS CAVOK 20/02 Q1004 NOSIG
ZBAA,2025-06-02 22:00,ZBAA 022200Z 26004MPS CAVOK 21/03 Q1004 NOSIG
ZBAA,2025-06-02 22:30,ZBAA 022230Z 25003MPS 240V320 CAVOK 22/03 Q1004 NOSIG
ZBAA,2025-06-02 23:00,ZBAA 022300Z 26004MPS 240V320 CAVOK 23/02 Q1004 NOSIG
ZBAA,2025-06-02 23:30,ZBAA 022330Z 28003MPS 250V320 CAVOK 23/03 Q1004 NOSIG
ZBAA,2025-06-03 00:00,ZBAA 030000Z 31002MPS 280V350 CAVOK 25/02 Q1005 BECMG TL0140 32007MPS
ZBAA,2025-06-03 00:30,ZBAA 030030Z VRB02MPS CAVOK 25/03 Q1004 NOSIG
ZBAA,2025-06-03 01:00,ZBAA 030100Z 36003MPS 300V040 CAVOK 26/02 Q1004 BECMG TL0240 33008MPS
ZBAA,2025-06-03 01:30,ZBAA 030130Z 25002MPS 180V290 CAVOK 25/03 Q1004 NOSIG
ZBAA,2025-06-03 01:44,ZBAA 030144Z 34005MPS CAVOK 26/03 Q1004 NOSIG
ZBAA,2025-06-03 02:00,ZBAA 030200Z 34005MPS 300V020 CAVOK 27/03 Q1004 NOSIG
ZBAA,2025-06-03 02:30,ZBAA 030230Z 34006MPS 310V010 CAVOK 28/02 Q1004 NOSIG
ZBAA,2025-06-03 03:00,ZBAA 030300Z 33006G12MPS 280V360 CAVOK 28/02 Q1004 NOSIG
ZBAA,2025-06-03 03:30,ZBAA 030330Z 33006MPS 290V020 CAVOK 29/02 Q1004 NOSIG
ZBAA,2025-06-03 04:00,ZBAA 030400Z 34008G13MPS 310V020 CAVOK 29/M00 Q1003 NOSIG
ZBAA,2025-06-03 04:30,ZBAA 030430Z 35007MPS 320V020 CAVOK 30/02 Q1003 NOSIG
ZBAA,2025-06-03 05:00,ZBAA 030500Z 35008MPS 310V020 CAVOK 30/01 Q1003 NOSIG
ZBAA,2025-06-03 05:30,ZBAA 030530Z 34010MPS CAVOK 30/M00 Q1003 NOSIG
ZBAA,2025-06-03 06:00,ZBAA 030600Z 35009MPS CAVOK 30/01 Q1002 NOSIG
ZBAA,2025-06-03 06:30,ZBAA 030630Z 35008MPS 330V030 CAVOK 30/M00 Q1002 NOSIG
ZBAA,2025-06-03 07:00,ZBAA 030700Z 01005MPS 340V040 CAVOK 28/01 Q1002 NOSIG
ZBAA,2025-06-03 07:30,ZBAA 030730Z 35008MPS CAVOK 30/M00 Q1002 NOSIG
ZBAA,2025-06-03 08:00,ZBAA 030800Z 35010MPS CAVOK 30/00 Q1002 BECMG TL0950 35005MPS
ZBAA,2025-06-03 08:30,ZBAA 030830Z 35009MPS 310V020 CAVOK 30/M00 Q1002 NOSIG
ZBAA,2025-06-03 09:00,ZBAA 030900Z 35009MPS CAVOK 29/M01 Q1002 NOSIG
ZBAA,2025-06-03 09:30,ZBAA 030930Z 35008MPS CAVOK 29/M01 Q1002 NOSIG
ZBAA,2025-06-03 10:00,ZBAA 031000Z 35008MPS 320V020 CAVOK 29/M01 Q1002 NOSIG
ZBAA,2025-06-03 10:30,ZBAA 031030Z 34007MPS CAVOK 28/M02 Q1002 NOSIG
ZBAA,2025-06-03 11:00,ZBAA 031100Z 35007MPS CAVOK 27/M01 Q1003 NOSIG
ZBAA,2025-06-03 11:30,ZBAA 031130Z 34005MPS CAVOK 26/M01 Q1003 NOSIG
ZBAA,2025-06-03 12:00,ZBAA 031200Z 35003MPS 310V010 CAVOK 23/M00 Q1003 NOSIG
ZBAA,2025-06-03 12:30,ZBAA 031230Z 36003MPS CAVOK 21/02 Q1004 NOSIG
ZBAA,2025-06-03 13:00,ZBAA 031300Z 36005MPS CAVOK 22/00 Q1004 NOSIG
ZBAA,2025-06-03 13:30,ZBAA 031330Z 34005MPS 310V010 CAVOK 24/M01 Q1005 NOSIG
ZBAA,2025-06-03 14:00,ZBAA 031400Z 33006MPS CAVOK 25/M02 Q1005 NOSIG
ZBAA,2025-06-03 14:30,ZBAA 031430Z 33005MPS CAVOK 25/M02 Q1005 NOSIG
ZBAA,2025-06-03 15:00,ZBAA 031500Z 35002MPS CAVOK 21/M00 Q1005 NOSIG
ZBAA,2025-06-03 15:30,ZBAA 031530Z VRB01MPS CAVOK 17/02 Q1005 NOSIG
ZBAA,2025-06-03 16:00,ZBAA 031600Z 17001MPS CAVOK 16/05 Q1005 NOSIG
ZBAA,2025-06-03 16:30,ZBAA 031630Z 35001MPS CAVOK 15/04 Q1005 NOSIG
ZBAA,2025-06-03 17:00,ZBAA 031700Z VRB01MPS CAVOK 15/04 Q1005 NOSIG
ZBAA,2025-06-03 17:30,ZBAA 031730Z 34001MPS CAVOK 14/05 Q1005 NOSIG
ZBAA,2025-06-03 18:00,ZBAA 031800Z 35001MPS CAVOK 13/05 Q1005 NOSIG
ZBAA,2025-06-03 18:30,ZBAA 031830Z 00000MPS CAVOK 13/05 Q1005 NOSIG
ZBAA,2025-06-03 19:00,ZBAA 031900Z 36002MPS CAVOK 12/05 Q1006 NOSIG
ZBAA,2025-06-03 19:30,ZBAA 031930Z 35001MPS CAVOK 13/07 Q1006 NOSIG
ZBAA,2025-06-03 20:00,ZBAA 032000Z 03002MPS 360V060 CAVOK 12/06 Q1006 NOSIG
ZBAA,2025-06-03 20:30,ZBAA 032030Z VRB01MPS CAVOK 12/06 Q1006 NOSIG
ZBAA,2025-06-03 21:00,ZBAA 032100Z 01002MPS CAVOK 11/06 Q1006 NOSIG
ZBAA,2025-06-03 21:30,ZBAA 032130Z 02002MPS CAVOK 13/07 Q1007 NOSIG
ZBAA,2025-06-03 22:00,ZBAA 032200Z 04001MPS CAVOK 17/09 Q1007 NOSIG
ZBAA,2025-06-03 22:30,ZBAA 032230Z 35002MPS CAVOK 20/07 Q1007 NOSIG
ZBAA,2025-06-03 23:00,ZBAA 032300Z 01003MPS 340V040 CAVOK 21/05 Q1008 NOSIG
ZBAA,2025-06-03 23:30,ZBAA 032330Z VRB01MPS CAVOK 23/05 Q1008 NOSIG
ZBAA,2025-06-04 00:00,ZBAA 040000Z 33002MPS 300V360 CAVOK 25/05 Q1008 NOSIG
ZBAA,2025-06-04 00:30,ZBAA 040030Z 35003MPS 320V030 CAVOK 26/06 Q1008 NOSIG
ZBAA,2025-06-04 01:00,ZBAA 040100Z 36003MPS 320V040 CAVOK 28/07 Q1008 NOSIG
ZBAA,2025-06-04 01:30,ZBAA 040130Z 33003MPS 290V020 CAVOK 29/05 Q1008 NOSIG
ZBAA,2025-06-04 02:00,ZBAA 040200Z 30004MPS 260V330 CAVOK 29/06 Q1008 NOSIG
ZBAA,2025-06-04 02:30,ZBAA 040230Z 31004MPS 250V350 CAVOK 30/06 Q1007 NOSIG
ZBAA,2025-06-04 03:00,ZBAA 040300Z 29005MPS 240V330 CAVOK 31/05 Q1007 NOSIG
ZBAA,2025-06-04 03:30,ZBAA 040330Z 29003G09MPS 240V360 CAVOK 32/06 Q1007 NOSIG
ZBAA,2025-06-04 04:00,ZBAA 040400Z VRB02MPS CAVOK 32/06 Q1007 NOSIG
ZBAA,2025-06-04 04:30,ZBAA 040430Z 25003MPS 180V340 CAVOK 32/06 Q1006 NOSIG
ZBAA,2025-06-04 05:00,ZBAA 040500Z 29006MPS 260V320 CAVOK 33/05 Q1006 BECMG TL0640 22004MPS
ZBAA,2025-06-04 05:30,ZBAA 040530Z 30006MPS 270V340 CAVOK 34/06 Q1005 NOSIG
ZBAA,2025-06-04 06:00,ZBAA 040600Z 27004MPS 220V320 CAVOK 34/07 Q1005 NOSIG
ZBAA,2025-06-04 06:30,ZBAA 040630Z 31005MPS 260V340 CAVOK 34/06 Q1005 NOSIG
ZBAA,2025-06-04 07:00,ZBAA 040700Z 28005MPS 240V320 CAVOK 34/06 Q1004 BECMG TL0840 22004MPS
ZBAA,2025-06-04 07:30,ZBAA 040730Z 25005G10MPS 200V290 CAVOK 35/06 Q1004 NOSIG
ZBAA,2025-06-04 08:00,ZBAA 040800Z 29005MPS 230V340 CAVOK 35/06 Q1004 BECMG TL0940 22004MPS
ZBAA,2025-06-04 08:30,ZBAA 040830Z 27005G12MPS 230V350 CAVOK 35/07 Q1004 NOSIG
ZBAA,2025-06-04 09:00,ZBAA 040900Z 28005MPS 240V320 CAVOK 35/07 Q1004 BECMG TL1040 22004MPS
ZBAA,2025-06-04 09:30,ZBAA 040930Z 26005MPS 230V330 CAVOK 35/06 Q1003 NOSIG
ZBAA,2025-06-04 10:00,ZBAA 041000Z 25003MPS 200V320 CAVOK 34/07 Q1003 NOSIG
ZBAA,2025-06-04 10:30,ZBAA 041030Z 21006MPS 180V240 CAVOK 33/08 Q1004 NOSIG
ZBAA,2025-06-04 11:00,ZBAA 041100Z 22006MPS CAVOK 32/07 Q1004 NOSIG
ZBAA,2025-06-04 11:30,ZBAA 041130Z 21005MPS CAVOK 31/08 Q1004 NOSIG
ZBAA,2025-06-04 12:00,ZBAA 041200Z 21005MPS CAVOK 31/08 Q1004 NOSIG
ZBAA,2025-06-04 12:30,ZBAA 041230Z 21006MPS CAVOK 30/08 Q1004 NOSIG
ZBAA,2025-06-04 13:00,ZBAA 041300Z 21004MPS CAVOK 29/08 Q1004 NOSIG
ZBAA,2025-06-04 13:30,ZBAA 041330Z 20004MPS CAVOK 29/08 Q1005 NOSIG
ZBAA,2025-06-04 14:00,ZBAA 041400Z 22005MPS CAVOK 29/08 Q1005 NOSIG
ZBAA,2025-06-04 14:30,ZBAA 041430Z 22005MPS CAVOK 29/07 Q1005 NOSIG
ZBAA,2025-06-04 15:00,ZBAA 041500Z 21005MPS CAVOK 29/08 Q1005 NOSIG
ZBAA,2025-06-04 15:30,ZBAA 041530Z 22005MPS CAVOK 29/08 Q1004 NOSIG
ZBAA,2025-06-04 16:00,ZBAA 041600Z 19003MPS CAVOK 26/08 Q1004 NOSIG
ZBAA,2025-06-04 16:30,ZBAA 041630Z VRB01MPS CAVOK 24/10 Q1004 NOSIG
ZBAA,2025-06-04 17:00,ZBAA 041700Z 11001MPS CAVOK 22/10 Q1004 NOSIG
ZBAA,2025-06-04 17:30,ZBAA 041730Z 14002MPS CAVOK 20/10 Q1004 NOSIG
ZBAA,2025-06-04 18:00,ZBAA 041800Z VRB01MPS CAVOK 20/11 Q1004 NOSIG
ZBAA,2025-06-04 18:30,ZBAA 041830Z 35002MPS CAVOK 19/11 Q1004 NOSIG
ZBAA,2025-06-04 19:00,ZBAA 041900Z 07002MPS CAVOK 18/11 Q1004 NOSIG
ZBAA,2025-06-04 19:30,ZBAA 041930Z 07002MPS CAVOK 17/12 Q1004 NOSIG
ZBAA,2025-06-04 20:00,ZBAA 042000Z VRB01MPS CAVOK 19/11 Q1004 NOSIG
ZBAA,2025-06-04 20:30,ZBAA 042030Z VRB01MPS CAVOK 17/11 Q1004 NOSIG
ZBAA,2025-06-04 21:00,ZBAA 042100Z VRB01MPS CAVOK 16/12 Q1004 NOSIG
ZBAA,2025-06-04 21:30,ZBAA 042130Z VRB01MPS CAVOK 17/12 Q1004 NOSIG
ZBAA,2025-06-04 22:00,ZBAA 042200Z VRB01MPS CAVOK 20/13 Q1004 NOSIG
ZBAA,2025-06-04 22:30,ZBAA 042230Z 05001MPS CAVOK 22/13 Q1004 NOSIG
ZBAA,2025-06-04 23:00,ZBAA 042300Z VRB01MPS CAVOK 23/13 Q1004 NOSIG
ZBAA,2025-06-04 23:30,ZBAA 042330Z VRB01MPS CAVOK 25/13 Q1004 NOSIG
ZBAA,2025-06-05 00:00,ZBAA 050000Z VRB01MPS CAVOK 27/13 Q1004 NOSIG
ZBAA,2025-06-05 00:30,ZBAA 050030Z 11002MPS 060V150 CAVOK 27/13 Q1004 NOSIG
ZBAA,2025-06-05 01:00,ZBAA 050100Z VRB01MPS CAVOK 28/12 Q1004 NOSIG
ZBAA,2025-06-05 01:30,ZBAA 050130Z VRB01MPS CAVOK 29/12 Q1004 NOSIG
ZBAA,2025-06-05 02:00,ZBAA 050200Z 16002MPS 090V230 CAVOK 30/11 Q1004 NOSIG
ZBAA,2025-06-05 02:30,ZBAA 050230Z 17003MPS 110V220 CAVOK 31/11 Q1003 NOSIG
ZBAA,2025-06-05 03:00,ZBAA 050300Z VRB03MPS CAVOK 32/11 Q1003 NOSIG
ZBAA,2025-06-05 03:30,ZBAA 050330Z VRB02MPS CAVOK 33/11 Q1003 NOSIG
ZBAA,2025-06-05 04:00,ZBAA 050400Z VRB03MPS CAVOK 34/10 Q1002 NOSIG
ZBAA,2025-06-05 04:30,ZBAA 050430Z 22003MPS 170V260 CAVOK 35/10 Q1002 NOSIG
ZBAA,2025-06-05 05:00,ZBAA 050500Z 19004MPS 140V270 CAVOK 35/11 Q1001 NOSIG
ZBAA,2025-06-05 05:30,ZBAA 050530Z VRB02MPS CAVOK 36/10 Q1001 NOSIG
ZBAA,2025-06-05 06:00,ZBAA 050600Z 21005G10MPS 180V240 CAVOK 36/09 Q1000 NOSIG
ZBAA,2025-06-05 06:07,ZBAA 050607Z 15003G10MPS 070V240 CAVOK 36/10 Q1000 NOSIG
ZBAA,2025-06-05 06:30,ZBAA 050630Z VRB03MPS CAVOK 37/10 Q1000 NOSIG
ZBAA,2025-06-05 07:00,ZBAA 050700Z 22004MPS 190V280 CAVOK 37/09 Q0999 NOSIG
ZBAA,2025-06-05 07:30,ZBAA 050730Z 20003MPS 160V270 CAVOK 37/09 Q0999 NOSIG
ZBAA,2025-06-05 08:00,ZBAA 050800Z 21003MPS 150V240 CAVOK 37/10 Q0999 NOSIG
ZBAA,2025-06-05 08:30,ZBAA 050830Z 17004MPS 140V210 CAVOK 37/10 Q0998 NOSIG
ZBAA,2025-06-05 09:00,ZBAA 050900Z 17005MPS CAVOK 37/11 Q0998 NOSIG
ZBAA,2025-06-05 09:30,ZBAA 050930Z 18004MPS CAVOK 37/10 Q0998 NOSIG
ZBAA,2025-06-05 10:00,ZBAA 051000Z 18004MPS CAVOK 36/11 Q0998 NOSIG
ZBAA,2025-06-05 10:30,ZBAA 051030Z 18004MPS CAVOK 35/12 Q0998 NOSIG
ZBAA,2025-06-05 11:00,ZBAA 051100Z 18004MPS CAVOK 33/12 Q0999 NOSIG
ZBAA,2025-06-05 11:30,ZBAA 051130Z 20003MPS CAVOK 32/13 Q0999 NOSIG
ZBAA,2025-06-05 12:00,ZBAA 051200Z 17002MPS 150V220 9999 FEW050CB 29/14 Q0999 BECMG AT1240 32006MPS TS FEW030CB BKN040
ZBAA,2025-06-05 12:30,ZBAA 051230Z 27004G09MPS 180V310 9999 FEW050CB 34/12 Q1000 NOSIG
ZBAA,2025-06-05 12:42,ZBAA 051242Z 21006MPS 170V290 9999 -SHRA FEW050CB 33/13 Q0999 NOSIG
ZBAA,2025-06-05 13:00,ZBAA 051300Z 24009G17MPS 200V270 9999 -SHRA FEW050CB 35/06 Q0999 BECMG TL1440 17004MPS
ZBAA,2025-06-05 13:30,ZBAA 051330Z 23005MPS 200V300 CAVOK 36/05 Q0999 NOSIG
ZBAA,2025-06-05 13:41,ZBAA 051341Z 29004MPS 260V330 CAVOK 35/05 Q0999 NOSIG
ZBAA,2025-06-05 14:00,ZBAA 051400Z 34004MPS CAVOK 31/11 Q0999 NOSIG
ZBAA,2025-06-05 14:30,ZBAA 051430Z 03003MPS 350V050 CAVOK 28/13 Q0999 NOSIG
ZBAA,2025-06-05 15:00,ZBAA 051500Z VRB01MPS CAVOK 25/14 Q1000 NOSIG
ZBAA,2025-06-05 15:30,ZBAA 051530Z VRB01MPS CAVOK 24/14 Q1000 NOSIG
ZBAA,2025-06-05 16:00,ZBAA 051600Z VRB01MPS CAVOK 23/15 Q1000 NOSIG
ZBAA,2025-06-05 16:30,ZBAA 051630Z VRB01MPS CAVOK 22/16 Q1000 NOSIG
ZBAA,2025-06-05 17:00,ZBAA 051700Z 03002MPS CAVOK 23/15 Q1000 NOSIG
ZBAA,2025-06-05 17:30,ZBAA 051730Z 03002MPS CAVOK 22/15 Q1000 NOSIG
ZBAA,2025-06-05 18:00,ZBAA 051800Z 04002MPS CAVOK 23/15 Q1001 NOSIG
ZBAA,2025-06-05 18:30,ZBAA 051830Z 03003MPS CAVOK 27/13 Q1001 NOSIG
ZBAA,2025-06-05 19:00,ZBAA 051900Z 02005G10MPS 360V060 CAVOK 27/11 Q1001 NOSIG
ZBAA,2025-06-05 19:30,ZBAA 051930Z 02005MPS 350V050 CAVOK 27/10 Q1001 NOSIG
ZBAA,2025-06-05 20:00,ZBAA 052000Z 02004MPS 350V060 CAVOK 26/09 Q1001 NOSIG
ZBAA,2025-06-05 20:30,ZBAA 052030Z 01004MPS CAVOK 26/09 Q1001 NOSIG
ZBAA,2025-06-05 21:00,ZBAA 052100Z 01003MPS 350V050 CAVOK 25/08 Q1002 NOSIG
ZBAA,2025-06-05 21:30,ZBAA 052130Z 02002MPS 300V060 CAVOK 25/09 Q1002 NOSIG
ZBAA,2025-06-05 22:00,ZBAA 052200Z 01002MPS CAVOK 26/10 Q1003 NOSIG
ZBAA,2025-06-05 22:30,ZBAA 052230Z 01002MPS CAVOK 26/10 Q1003 NOSIG
ZBAA,2025-06-05 23:00,ZBAA 052300Z 01003MPS CAVOK 27/09 Q1003 NOSIG
ZBAA,2025-06-05 23:30,ZBAA 052330Z 02004MPS 350V050 CAVOK 28/08 Q1004 NOSIG
ZBAA,2025-06-06 00:00,ZBAA 060000Z 03003MPS 350V070 CAVOK 29/06 Q1004 NOSIG
ZBAA,2025-06-06 00:30,ZBAA 060030Z 02005MPS 350V070 CAVOK 29/05 Q1004 NOSIG
ZBAA,2025-06-06 01:00,ZBAA 060100Z 02005MPS CAVOK 30/04 Q1004 NOSIG
ZBAA,2025-06-06 01:30,ZBAA 060130Z 03004G09MPS 350V080 CAVOK 31/03 Q1004 NOSIG
ZBAA,2025-06-06 02:00,ZBAA 060200Z 03005MPS 350V070 CAVOK 32/01 Q1004 NOSIG
ZBAA,2025-06-06 02:30,ZBAA 060230Z 01005MPS CAVOK 32/02 Q1004 NOSIG
ZBAA,2025-06-06 03:00,ZBAA 060300Z 01003MPS 320V060 CAVOK 33/01 Q1004 NOSIG
ZBAA,2025-06-06 03:30,ZBAA 060330Z 01004MPS 330V090 CAVOK 33/02 Q1003 NOSIG
ZBAA,2025-06-06 04:00,ZBAA 060400Z 06003MPS 360V100 CAVOK 33/03 Q1003 NOSIG
ZBAA,2025-06-06 04:30,ZBAA 060430Z VRB01MPS CAVOK 34/03 Q1003 NOSIG
ZBAA,2025-06-06 05:00,ZBAA 060500Z VRB03MPS CAVOK 35/04 Q1002 NOSIG
ZBAA,2025-06-06 05:30,ZBAA 060530Z 35003MPS 320V130 CAVOK 36/03 Q1002 NOSIG
ZBAA,2025-06-06 06:00,ZBAA 060600Z VRB02MPS CAVOK 35/03 Q1002 NOSIG
ZBAA,2025-06-06 06:30,ZBAA 060630Z VRB02MPS CAVOK 36/04 Q1001 NOSIG
ZBAA,2025-06-06 07:00,ZBAA 060700Z VRB02MPS CAVOK 35/03 Q1001 NOSIG
ZBAA,2025-06-06 07:30,ZBAA 060730Z VRB02MPS CAVOK 36/04 Q1001 NOSIG
ZBAA,2025-06-06 08:00,ZBAA 060800Z 28002MPS 230V350 CAVOK 36/04 Q1001 NOSIG
ZBAA,2025-06-06 08:30,ZBAA 060830Z VRB01MPS CAVOK 37/05 Q1000 NOSIG
ZBAA,2025-06-06 09:00,ZBAA 060900Z 24002MPS 200V300 CAVOK 35/04 Q1000 NOSIG
ZBAA,2025-06-06 09:30,ZBAA 060930Z VRB01MPS CAVOK 36/06 Q1000 NOSIG
ZBAA,2025-06-06 10:00,ZBAA 061000Z VRB01MPS CAVOK 35/07 Q1001 NOSIG
ZBAA,2025-06-06 10:30,ZBAA 061030Z 12002MPS CAVOK 33/08 Q1001 NOSIG
ZBAA,2025-06-06 11:00,ZBAA 061100Z VRB01MPS CAVOK 28/10 Q1001 NOSIG
ZBAA,2025-06-06 11:30,ZBAA 061130Z 18002MPS CAVOK 27/12 Q1002 NOSIG
ZBAA,2025-06-06 12:00,ZBAA 061200Z 17002MPS 130V240 CAVOK 25/11 Q1002 NOSIG
ZBAA,2025-06-06 12:30,ZBAA 061230Z VRB01MPS CAVOK 24/12 Q1002 NOSIG
ZBAA,2025-06-06 13:00,ZBAA 061300Z VRB01MPS CAVOK 23/12 Q1003 NOSIG
ZBAA,2025-06-06 13:30,ZBAA 061330Z 00000MPS CAVOK 22/13 Q1003 NOSIG
ZBAA,2025-06-06 14:00,ZBAA 061400Z VRB01MPS CAVOK 22/12 Q1003 NOSIG
ZBAA,2025-06-06 14:30,ZBAA 061430Z 36002MPS 320V020 CAVOK 22/12 Q1003 NOSIG
ZBAA,2025-06-06 15:00,ZBAA 061500Z 01002MPS CAVOK 22/12 Q1004 NOSIG
ZBAA,2025-06-06 15:30,ZBAA 061530Z 33003MPS CAVOK 26/10 Q1004 NOSIG
ZBAA,2025-06-06 16:00,ZBAA 061600Z 36003MPS CAVOK 25/10 Q1004 NOSIG
ZBAA,2025-06-06 16:30,ZBAA 061630Z 01002MPS CAVOK 25/09 Q1004 NOSIG
ZBAA,2025-06-06 17:00,ZBAA 061700Z VRB01MPS CAVOK 24/09 Q1005 NOSIG
ZBAA,2025-06-06 17:30,ZBAA 061730Z 03003MPS 350V070 CAVOK 27/05 Q1005 NOSIG
ZBAA,2025-06-06 18:00,ZBAA 061800Z 02003MPS CAVOK 27/04 Q1005 NOSIG
ZBAA,2025-06-06 18:30,ZBAA 061830Z 01004MPS CAVOK 25/05 Q1006 NOSIG
ZBAA,2025-06-06 19:00,ZBAA 061900Z 01005MPS CAVOK 27/04 Q1006 NOSIG
ZBAA,2025-06-06 19:30,ZBAA 061930Z 03004MPS 360V060 CAVOK 27/04 Q1006 NOSIG
ZBAA,2025-06-06 20:00,ZBAA 062000Z 02004MPS CAVOK 26/04 Q1007 NOSIG
ZBAA,2025-06-06 20:30,ZBAA 062030Z 02003MPS CAVOK 24/04 Q1007 NOSIG
ZBAA,2025-06-06 21:00,ZBAA 062100Z 04003MPS 010V070 CAVOK 24/04 Q1007 NOSIG
ZBAA,2025-06-06 21:30,ZBAA 062130Z 03003MPS CAVOK 24/04 Q1008 NOSIG
ZBAA,2025-06-06 22:00,ZBAA 062200Z 04002MPS 020V080 CAVOK 24/06 Q1008 NOSIG
ZBAA,2025-06-06 22:30,ZBAA 062230Z 01003MPS CAVOK 25/06 Q1009 NOSIG
ZBAA,2025-06-06 23:00,ZBAA 062300Z 01003MPS 330V040 CAVOK 26/05 Q1009 NOSIG
ZBAA,2025-06-06 23:30,ZBAA 062330Z 02005MPS 350V060 CAVOK 26/04 Q1009 NOSIG
ZBAA,2025-06-07 00:00,ZBAA 070000Z 02006MPS 350V050 CAVOK 26/04 Q1010 NOSIG
ZBAA,2025-06-07 00:30,ZBAA 070030Z 04006MPS CAVOK 26/03 Q1010 NOSIG
ZBAA,2025-06-07 01:00,ZBAA 070100Z 02005MPS 350V060 CAVOK 27/04 Q1010 NOSIG
ZBAA,2025-06-07 01:30,ZBAA 070130Z 03004MPS 350V080 CAVOK 28/04 Q1010 NOSIG
ZBAA,2025-06-07 02:00,ZBAA 070200Z 01005MPS 340V050 CAVOK 29/03 Q1010 NOSIG
ZBAA,2025-06-07 02:30,ZBAA 070230Z 02004MPS 340V050 CAVOK 29/03 Q1009 NOSIG
ZBAA,2025-06-07 03:00,ZBAA 070300Z 01004MPS 340V050 CAVOK 30/04 Q1009 NOSIG
ZBAA,2025-06-07 03:30,ZBAA 070330Z 34003MPS 310V030 CAVOK 31/03 Q1009 NOSIG
ZBAA,2025-06-07 04:00,ZBAA 070400Z 01002MPS 290V090 CAVOK 30/03 Q1009 NOSIG
ZBAA,2025-06-07 04:30,ZBAA 070430Z VRB02MPS CAVOK 31/02 Q1008 NOSIG
ZBAA,2025-06-07 05:00,ZBAA 070500Z 05002MPS 010V170 CAVOK 30/01 Q1008 NOSIG
ZBAA,2025-06-07 05:30,ZBAA 070530Z VRB02MPS CAVOK 31/M00 Q1008 NOSIG
ZBAA,2025-06-07 06:00,ZBAA 070600Z VRB02MPS CAVOK 31/04 Q1008 NOSIG
ZBAA,2025-06-07 06:30,ZBAA 070630Z VRB02MPS CAVOK 31/04 Q1007 NOSIG
ZBAA,2025-06-07 07:00,ZBAA 070700Z VRB02MPS CAVOK 32/02 Q1007 NOSIG
ZBAA,2025-06-07 07:30,ZBAA 070730Z VRB02MPS CAVOK 32/02 Q1007 NOSIG
ZBAA,2025-06-07 08:00,ZBAA 070800Z VRB02MPS CAVOK 32/02 Q1007 NOSIG
ZBAA,2025-06-07 08:30,ZBAA 070830Z VRB02G07MPS CAVOK 32/03 Q1006 NOSIG
ZBAA,2025-06-07 09:00,ZBAA 070900Z 21003MPS 170V260 CAVOK 32/02 Q1006 NOSIG
ZBAA,2025-06-07 09:30,ZBAA 070930Z 15003MPS 130V190 CAVOK 31/05 Q1006 NOSIG
ZBAA,2025-06-07 10:00,ZBAA 071000Z 15003MPS CAVOK 30/08 Q1006 NOSIG
ZBAA,2025-06-07 10:30,ZBAA 071030Z 14003MPS CAVOK 29/10 Q1006 NOSIG
ZBAA,2025-06-07 11:00,ZBAA 071100Z 15004MPS CAVOK 29/10 Q1007 NOSIG
ZBAA,2025-06-07 11:30,ZBAA 071130Z 17003MPS CAVOK 27/10 Q1007 NOSIG
ZBAA,2025-06-07 12:00,ZBAA 071200Z 15002MPS CAVOK 25/11 Q1007 NOSIG
ZBAA,2025-06-07 12:30,ZBAA 071230Z 16003MPS CAVOK 25/11 Q1007 NOSIG
ZBAA,2025-06-07 13:00,ZBAA 071300Z 18005MPS CAVOK 26/10 Q1008 NOSIG
ZBAA,2025-06-07 13:30,ZBAA 071330Z 19005MPS CAVOK 26/09 Q1008 NOSIG
ZBAA,2025-06-07 14:00,ZBAA 071400Z 18004MPS CAVOK 24/09 Q1008 NOSIG
ZBAA,2025-06-07 14:30,ZBAA 071430Z 17003MPS 140V200 CAVOK 24/09 Q1009 NOSIG
ZBAA,2025-06-07 15:00,ZBAA 071500Z 17002MPS 140V200 CAVOK 23/09 Q1009 NOSIG
ZBAA,2025-06-07 15:30,ZBAA 071530Z 15002MPS CAVOK 22/10 Q1009 NOSIG
ZBAA,2025-06-07 16:00,ZBAA 071600Z 13002MPS CAVOK 23/10 Q1009 NOSIG
ZBAA,2025-06-07 16:30,ZBAA 071630Z 08002MPS CAVOK 22/10 Q1009 NOSIG
ZBAA,2025-06-07 17:00,ZBAA 071700Z 10002MPS CAVOK 22/11 Q1009 NOSIG
ZBAA,2025-06-07 17:30,ZBAA 071730Z 08001MPS CAVOK 21/11 Q1009 NOSIG
ZBAA,2025-06-07 18:00,ZBAA 071800Z 10002MPS CAVOK 20/12 Q1008 NOSIG
ZBAA,2025-06-07 18:30,ZBAA 071830Z VRB01MPS CAVOK 20/12 Q1008 NOSIG
ZBAA,2025-06-07 19:00,ZBAA 071900Z 09002MPS CAVOK 20/11 Q1008 NOSIG
ZBAA,2025-06-07 19:30,ZBAA 071930Z 08001MPS CAVOK 18/12 Q1008 NOSIG
ZBAA,2025-06-07 20:00,ZBAA 072000Z 07002MPS CAVOK 18/12 Q1008 NOSIG
ZBAA,2025-06-07 20:30,ZBAA 072030Z 08002MPS CAVOK 18/11 Q1008 NOSIG
ZBAA,2025-06-07 21:00,ZBAA 072100Z 06001MPS CAVOK 17/12 Q1009 NOSIG
ZBAA,2025-06-07 21:30,ZBAA 072130Z VRB01MPS CAVOK 18/12 Q1009 NOSIG
ZBAA,2025-06-07 22:00,ZBAA 072200Z 05001MPS CAVOK 20/14 Q1009 NOSIG
ZBAA,2025-06-07 22:30,ZBAA 072230Z 01001MPS CAVOK 22/13 Q1009 NOSIG
ZBAA,2025-06-07 23:00,ZBAA 072300Z VRB01MPS CAVOK 23/12 Q1009 NOSIG
ZBAA,2025-06-07 23:30,ZBAA 072330Z VRB01MPS CAVOK 25/12 Q1009 NOSIG
ZBAA,2025-06-08 00:00,ZBAA 080000Z VRB01MPS CAVOK 25/13 Q1009 NOSIG
ZBAA,2025-06-08 00:30,ZBAA 080030Z VRB01MPS CAVOK 26/13 Q1009 NOSIG
ZBAA,2025-06-08 01:00,ZBAA 080100Z VRB01MPS CAVOK 27/13 Q1008 NOSIG
ZBAA,2025-06-08 01:30,ZBAA 080130Z VRB02MPS CAVOK 27/13 Q1008 NOSIG
ZBAA,2025-06-08 02:00,ZBAA 080200Z 22002MPS 180V310 CAVOK 28/12 Q1008 NOSIG
ZBAA,2025-06-08 02:30,ZBAA 080230Z VRB02MPS CAVOK 29/12 Q1008 NOSIG
ZBAA,2025-06-08 03:00,ZBAA 080300Z 22003MPS 160V280 CAVOK 29/12 Q1008 NOSIG
ZBAA,2025-06-08 03:30,ZBAA 080330Z VRB02MPS CAVOK 30/11 Q1007 NOSIG
ZBAA,2025-06-08 04:00,ZBAA 080400Z VRB04MPS CAVOK 32/10 Q1007 NOSIG
ZBAA,2025-06-08 04:30,ZBAA 080430Z 19003MPS 130V250 CAVOK 32/10 Q1007 NOSIG
ZBAA,2025-06-08 05:00,ZBAA 080500Z 18004MPS 140V230 CAVOK 32/09 Q1006 NOSIG
ZBAA,2025-06-08 05:30,ZBAA 080530Z 22003MPS 130V290 CAVOK 33/09 Q1005 NOSIG
ZBAA,2025-06-08 06:00,ZBAA 080600Z 23003MPS 160V310 CAVOK 33/09 Q1005 NOSIG
ZBAA,2025-06-08 06:30,ZBAA 080630Z VRB03MPS CAVOK 33/09 Q1005 NOSIG
ZBAA,2025-06-08 07:00,ZBAA 080700Z VRB02MPS CAVOK 33/09 Q1004 BECMG TL0850 19005MPS
ZBAA,2025-06-08 07:30,ZBAA 080730Z 18003MPS 130V240 CAVOK 35/09 Q1004 NOSIG
ZBAA,2025-06-08 08:00,ZBAA 080800Z 17004MPS 110V240 CAVOK 34/09 Q1004 NOSIG
ZBAA,2025-06-08 08:30,ZBAA 080830Z 16005MPS CAVOK 33/08 Q1003 NOSIG
ZBAA,2025-06-08 09:00,ZBAA 080900Z 16005MPS 130V190 CAVOK 33/09 Q1003 NOSIG
ZBAA,2025-06-08 09:30,ZBAA 080930Z 16005MPS CAVOK 33/10 Q1003 NOSIG
ZBAA,2025-06-08 10:00,ZBAA 081000Z 16004MPS 130V190 CAVOK 32/11 Q1003 NOSIG
ZBAA,2025-06-08 10:30,ZBAA 081030Z 16004MPS CAVOK 32/11 Q1003 NOSIG
ZBAA,2025-06-08 11:00,ZBAA 081100Z 15003MPS CAVOK 31/12 Q1003 NOSIG
ZBAA,2025-06-08 11:30,ZBAA 081130Z 15003MPS CAVOK 30/12 Q1003 NOSIG
ZBAA,2025-06-08 12:00,ZBAA 081200Z 16002MPS 140V220 CAVOK 28/11 Q1004 NOSIG
ZBAA,2025-06-08 12:30,ZBAA 081230Z 13003MPS CAVOK 27/12 Q1004 NOSIG
ZBAA,2025-06-08 13:00,ZBAA 081300Z 14003MPS 110V170 CAVOK 28/12 Q1004 NOSIG
ZBAA,2025-06-08 13:30,ZBAA 081330Z 14004MPS CAVOK 27/12 Q1005 NOSIG
ZBAA,2025-06-08 14:00,ZBAA 081400Z 14004MPS CAVOK 27/12 Q1005 NOSIG
ZBAA,2025-06-08 14:30,ZBAA 081430Z 15004MPS CAVOK 26/12 Q1004 NOSIG
ZBAA,2025-06-08 15:00,ZBAA 081500Z 13003MPS CAVOK 25/12 Q1004 NOSIG
ZBAA,2025-06-08 15:30,ZBAA 081530Z 13003MPS CAVOK 25/12 Q1005 NOSIG
ZBAA,2025-06-08 16:00,ZBAA 081600Z 11002MPS 070V130 CAVOK 25/12 Q1005 NOSIG
ZBAA,2025-06-08 16:30,ZBAA 081630Z 10002MPS CAVOK 23/13 Q1004 NOSIG
ZBAA,2025-06-08 17:00,ZBAA 081700Z 10002MPS 070V140 CAVOK 23/13 Q1004 NOSIG
ZBAA,2025-06-08 17:30,ZBAA 081730Z 11003MPS 070V140 CAVOK 23/12 Q1003 NOSIG
ZBAA,2025-06-08 18:00,ZBAA 081800Z 10002MPS 070V140 CAVOK 22/12 Q1004 NOSIG
ZBAA,2025-06-08 18:30,ZBAA 081830Z 08002MPS CAVOK 22/12 Q1003 NOSIG
ZBAA,2025-06-08 19:00,ZBAA 081900Z 03001MPS CAVOK 20/12 Q1003 NOSIG
ZBAA,2025-06-08 19:30,ZBAA 081930Z 02001MPS CAVOK 19/13 Q1003 NOSIG
ZBAA,2025-06-08 20:00,ZBAA 082000Z 08001MPS CAVOK 18/13 Q1003 NOSIG
ZBAA,2025-06-08 20:30,ZBAA 082030Z 11002MPS 060V140 CAVOK 19/12 Q1002 NOSIG
ZBAA,2025-06-08 21:00,ZBAA 082100Z VRB01MPS CAVOK 21/11 Q1003 NOSIG
ZBAA,2025-06-08 21:30,ZBAA 082130Z VRB01MPS CAVOK 19/13 Q1003 NOSIG
ZBAA,2025-06-08 22:00,ZBAA 082200Z 36001MPS CAVOK 20/14 Q1003 NOSIG
ZBAA,2025-06-08 22:30,ZBAA 082230Z VRB01MPS CAVOK 21/12 Q1003 NOSIG
ZBAA,2025-06-08 23:00,ZBAA 082300Z 08001MPS CAVOK 22/13 Q1003 NOSIG
ZBAA,2025-06-08 23:30,ZBAA 082330Z VRB01MPS CAVOK 23/13 Q1003 NOSIG
ZBAA,2025-06-09 00:00,ZBAA 090000Z VRB01MPS CAVOK 22/13 Q1003 NOSIG
ZBAA,2025-06-09 00:30,ZBAA 090030Z VRB01MPS CAVOK 24/13 Q1002 NOSIG
ZBAA,2025-06-09 01:00,ZBAA 090100Z VRB01MPS CAVOK 25/13 Q1002 NOSIG
ZBAA,2025-06-09 01:30,ZBAA 090130Z VRB01MPS CAVOK 27/14 Q1002 NOSIG
ZBAA,2025-06-09 02:00,ZBAA 090200Z 01002MPS 290V040 CAVOK 28/15 Q1002 NOSIG
ZBAA,2025-06-09 02:30,ZBAA 090230Z VRB02MPS CAVOK 29/14 Q1002 NOSIG
ZBAA,2025-06-09 03:00,ZBAA 090300Z 36002MPS 290V090 CAVOK 29/14 Q1002 NOSIG
ZBAA,2025-06-09 03:30,ZBAA 090330Z 02002MPS 350V090 CAVOK 30/14 Q1002 NOSIG
ZBAA,2025-06-09 04:00,ZBAA 090400Z 08002MPS 040V150 CAVOK 30/15 Q1001 BECMG TL0540 34005MPS
ZBAA,2025-06-09 04:30,ZBAA 090430Z 10002MPS 040V160 CAVOK 31/16 Q1001 NOSIG
ZBAA,2025-06-09 05:00,ZBAA 090500Z 13002MPS 080V170 CAVOK 31/15 Q1001 BECMG TL0620 34007MPS -TSRA FEW040CB BKN040
ZBAA,2025-06-09 05:30,ZBAA 090530Z VRB01MPS 9999 FEW050TCU 33/16 Q1000 NOSIG
ZBAA,2025-06-09 05:51,ZBAA 090551Z 01006MPS 9999 SCT050CB 34/16 Q1001 NOSIG
ZBAA,2025-06-09 06:00,ZBAA 090600Z 36010G16MPS 9999 SCT050CB 33/13 Q1002 BECMG TL0620 -TSRA
ZBAA,2025-06-09 06:10,ZBAA 090610Z 01010G16MPS 9999 -TSRA SCT050CB 29/14 Q1002 NOSIG
ZBAA,2025-06-09 06:30,ZBAA 090630Z 35006G11MPS 330V040 9999 -TSRA BKN050CB 25/17 Q1002 NOSIG
ZBAA,2025-06-09 06:31,ZBAA 090631Z 05003MPS 9999 -TSRA BKN050CB 24/17 Q1002 NOSIG
ZBAA,2025-06-09 07:00,ZBAA 090700Z 04002MPS 9999 TS FEW050CB 26/19 Q1002 BECMG TL0720 NSW NSC
ZBAA,2025-06-09 07:30,ZBAA 090730Z 02003MPS 350V060 CAVOK 26/17 Q1002 RETS NOSIG
ZBAA,2025-06-09 08:00,ZBAA 090800Z VRB01MPS 9999 -SHRA NSC 24/20 Q1002 NOSIG
ZBAA,2025-06-09 08:30,ZBAA 090830Z VRB01MPS 9999 -SHRA NSC 24/19 Q1002 NOSIG
ZBAA,2025-06-09 09:00,ZBAA 090900Z VRB01MPS CAVOK 27/19 Q1002 NOSIG
ZBAA,2025-06-09 09:30,ZBAA 090930Z 02003MPS 360V060 CAVOK 28/18 Q1002 NOSIG
ZBAA,2025-06-09 10:00,ZBAA 091000Z 01004MPS CAVOK 28/17 Q1003 NOSIG
ZBAA,2025-06-09 10:30,ZBAA 091030Z 34008MPS CAVOK 30/05 Q1003 NOSIG
ZBAA,2025-06-09 11:00,ZBAA 091100Z 34009MPS CAVOK 29/03 Q1004 NOSIG
ZBAA,2025-06-09 11:30,ZBAA 091130Z 34009MPS CAVOK 28/02 Q1005 NOSIG
ZBAA,2025-06-09 12:00,ZBAA 091200Z 34008MPS CAVOK 28/01 Q1006 NOSIG
ZBAA,2025-06-09 12:30,ZBAA 091230Z 36005MPS CAVOK 24/04 Q1007 NOSIG
ZBAA,2025-06-09 13:00,ZBAA 091300Z 01002MPS CAVOK 24/04 Q1008 NOSIG
ZBAA,2025-06-09 13:30,ZBAA 091330Z 36003MPS CAVOK 22/06 Q1008 NOSIG
ZBAA,2025-06-09 14:00,ZBAA 091400Z VRB01MPS CAVOK 19/09 Q1009 NOSIG
ZBAA,2025-06-09 14:30,ZBAA 091430Z 35002MPS 300V020 CAVOK 18/06 Q1009 NOSIG
ZBAA,2025-06-09 15:00,ZBAA 091500Z VRB01MPS CAVOK 16/08 Q1009 NOSIG
ZBAA,2025-06-09 15:30,ZBAA 091530Z 01002MPS CAVOK 16/10 Q1009 NOSIG
ZBAA,2025-06-09 16:00,ZBAA 091600Z VRB01MPS CAVOK 16/10 Q1009 NOSIG
ZBAA,2025-06-09 16:30,ZBAA 091630Z 06002MPS 010V090 CAVOK 15/10 Q1009 NOSIG
ZBAA,2025-06-09 17:00,ZBAA 091700Z VRB01MPS CAVOK 15/09 Q1010 NOSIG
ZBAA,2025-06-09 17:30,ZBAA 091730Z VRB01MPS CAVOK 14/10 Q1010 NOSIG
ZBAA,2025-06-09 18:00,ZBAA 091800Z VRB01MPS CAVOK 14/11 Q1010 NOSIG
ZBAA,2025-06-09 18:30,ZBAA 091830Z 34002MPS 300V010 CAVOK 14/10 Q1010 NOSIG
ZBAA,2025-06-09 19:00,ZBAA 091900Z 05002MPS 360V070 CAVOK 13/11 Q1010 NOSIG
ZBAA,2025-06-09 19:30,ZBAA 091930Z VRB01MPS CAVOK 13/11 Q1010 NOSIG
ZBAA,2025-06-09 20:00,ZBAA 092000Z VRB02MPS CAVOK 14/10 Q1010 NOSIG
ZBAA,2025-06-09 20:30,ZBAA 092030Z 08001MPS CAVOK 13/10 Q1010 NOSIG
ZBAA,2025-06-09 21:00,ZBAA 092100Z 18001MPS CAVOK 13/10 Q1010 NOSIG
ZBAA,2025-06-09 21:30,ZBAA 092130Z VRB01MPS CAVOK 13/11 Q1010 NOSIG
ZBAA,2025-06-09 22:00,ZBAA 092200Z VRB01MPS CAVOK 16/13 Q1010 NOSIG
ZBAA,2025-06-09 22:30,ZBAA 092230Z VRB01MPS CAVOK 19/14 Q1011 NOSIG
ZBAA,2025-06-09 23:00,ZBAA 092300Z 14002MPS 110V170 CAVOK 20/13 Q1011 NOSIG
ZBAA,2025-06-09 23:30,ZBAA 092330Z VRB01MPS CAVOK 22/10 Q1011 NOSIG
ZBAA,2025-06-10 00:00,ZBAA 100000Z VRB01MPS CAVOK 23/10 Q1011 NOSIG
ZBAA,2025-06-10 00:30,ZBAA 100030Z VRB01MPS CAVOK 26/05 Q1011 NOSIG
ZBAA,2025-06-10 01:00,ZBAA 100100Z 30003MPS 270V340 CAVOK 27/04 Q1011 NOSIG
ZBAA,2025-06-10 01:30,ZBAA 100130Z 31004MPS 270V340 CAVOK 28/03 Q1011 NOSIG
ZBAA,2025-06-10 02:00,ZBAA 100200Z 31004MPS CAVOK 29/04 Q1011 NOSIG
ZBAA,2025-06-10 02:30,ZBAA 100230Z 31004MPS 280V340 CAVOK 30/03 Q1010 NOSIG
ZBAA,2025-06-10 03:00,ZBAA 100300Z 32005MPS 270V360 CAVOK 30/04 Q1010 BECMG TL0440 26004MPS
ZBAA,2025-06-10 03:30,ZBAA 100330Z 30005MPS 250V340 CAVOK 30/04 Q1010 NOSIG
ZBAA,2025-06-10 04:00,ZBAA 100400Z VRB03MPS CAVOK 31/05 Q1009 BECMG TL0540 26005MPS
ZBAA,2025-06-10 04:30,ZBAA 100430Z VRB02MPS CAVOK 31/05 Q1009 NOSIG
ZBAA,2025-06-10 05:00,ZBAA 100500Z 14002MPS 070V210 CAVOK 32/05 Q1008 NOSIG
ZBAA,2025-06-10 05:30,ZBAA 100530Z 29002MPS 200V350 CAVOK 32/04 Q1008 NOSIG
ZBAA,2025-06-10 06:00,ZBAA 100600Z VRB02MPS CAVOK 33/04 Q1008 NOSIG
ZBAA,2025-06-10 06:30,ZBAA 100630Z VRB04MPS CAVOK 33/04 Q1007 NOSIG
ZBAA,2025-06-10 07:00,ZBAA 100700Z 30003G08MPS 230V360 CAVOK 33/03 Q1007 NOSIG
ZBAA,2025-06-10 07:30,ZBAA 100730Z 29004MPS 230V340 CAVOK 34/03 Q1007 NOSIG
ZBAA,2025-06-10 08:00,ZBAA 100800Z 27004MPS 220V320 CAVOK 34/03 Q1007 NOSIG
ZBAA,2025-06-10 08:30,ZBAA 100830Z 26005MPS 210V340 CAVOK 34/03 Q1006 NOSIG
ZBAA,2025-06-10 09:00,ZBAA 100900Z 26005MPS 220V310 CAVOK 34/03 Q1006 BECMG TL1020 20004MPS
ZBAA,2025-06-10 09:30,ZBAA 100930Z 22004MPS 190V320 CAVOK 33/04 Q1006 NOSIG
ZBAA,2025-06-10 10:00,ZBAA 101000Z 22005MPS 190V260 CAVOK 33/03 Q1006 NOSIG
ZBAA,2025-06-10 10:30,ZBAA 101030Z 22004MPS 190V260 CAVOK 32/04 Q1006 NOSIG
ZBAA,2025-06-10 11:00,ZBAA 101100Z 22005MPS 190V270 CAVOK 31/05 Q1007 NOSIG
ZBAA,2025-06-10 11:30,ZBAA 101130Z 22005MPS 190V290 CAVOK 31/04 Q1007 NOSIG
ZBAA,2025-06-10 12:00,ZBAA 101200Z 20004MPS 180V240 CAVOK 30/04 Q1007 NOSIG
ZBAA,2025-06-10 12:30,ZBAA 101230Z 19004MPS 160V230 CAVOK 29/04 Q1007 NOSIG
ZBAA,2025-06-10 13:00,ZBAA 101300Z 19004MPS CAVOK 28/04 Q1008 NOSIG
ZBAA,2025-06-10 13:30,ZBAA 101330Z 20004MPS 160V230 CAVOK 28/06 Q1008 NOSIG
ZBAA,2025-06-10 14:00,ZBAA 101400Z 21004MPS 180V250 CAVOK 28/06 Q1008 NOSIG
ZBAA,2025-06-10 14:30,ZBAA 101430Z 21004MPS 170V230 CAVOK 28/06 Q1008 NOSIG
ZBAA,2025-06-10 15:00,ZBAA 101500Z 21004MPS 180V250 CAVOK 28/06 Q1008 NOSIG
ZBAA,2025-06-10 15:30,ZBAA 101530Z 21002MPS 180V270 CAVOK 28/08 Q1009 NOSIG
ZBAA,2025-06-10 16:00,ZBAA 101600Z VRB01MPS CAVOK 21/09 Q1009 NOSIG
ZBAA,2025-06-10 16:30,ZBAA 101630Z 09002MPS CAVOK 20/10 Q1009 NOSIG
ZBAA,2025-06-10 17:00,ZBAA 101700Z VRB01MPS CAVOK 20/10 Q1009 NOSIG
ZBAA,2025-06-10 17:30,ZBAA 101730Z VRB01MPS CAVOK 18/10 Q1009 NOSIG
ZBAA,2025-06-10 18:00,ZBAA 101800Z VRB01MPS CAVOK 18/11 Q1009 NOSIG
ZBAA,2025-06-10 18:30,ZBAA 101830Z 05001MPS CAVOK 17/11 Q1009 NOSIG
ZBAA,2025-06-10 19:00,ZBAA 101900Z VRB01MPS CAVOK 17/10 Q1009 NOSIG
ZBAA,2025-06-10 19:30,ZBAA 101930Z VRB01MPS CAVOK 16/11 Q1009 NOSIG
ZBAA,2025-06-10 20:00,ZBAA 102000Z 02001MPS CAVOK 16/11 Q1009 NOSIG
ZBAA,2025-06-10 20:30,ZBAA 102030Z 05001MPS CAVOK 15/11 Q1009 NOSIG
ZBAA,2025-06-10 21:00,ZBAA 102100Z 36001MPS CAVOK 15/11 Q1010 NOSIG
ZBAA,2025-06-10 21:30,ZBAA 102130Z VRB01MPS CAVOK 15/11 Q1010 NOSIG
ZBAA,2025-06-10 22:00,ZBAA 102200Z 00000MPS CAVOK 18/13 Q1010 NOSIG
ZBAA,2025-06-10 22:30,ZBAA 102230Z VRB01MPS CAVOK 21/12 Q1010 NOSIG
ZBAA,2025-06-10 23:00,ZBAA 102300Z 05002MPS 020V080 CAVOK 22/11 Q1011 NOSIG
ZBAA,2025-06-10 23:30,ZBAA 102330Z VRB01MPS CAVOK 24/10 Q1011 NOSIG
ZBAA,2025-06-11 00:00,ZBAA 110000Z 08002MPS 030V130 CAVOK 24/11 Q1011 NOSIG
ZBAA,2025-06-11 00:30,ZBAA 110030Z 13002MPS 080V170 CAVOK 25/11 Q1011 NOSIG
ZBAA,2025-06-11 01:00,ZBAA 110100Z VRB01MPS CAVOK 26/11 Q1011 NOSIG
ZBAA,2025-06-11 01:30,ZBAA 110130Z 17002MPS 130V240 CAVOK 27/12 Q1011 NOSIG
ZBAA,2025-06-11 02:00,ZBAA 110200Z 14002MPS 090V230 CAVOK 28/11 Q1010 NOSIG
ZBAA,2025-06-11 02:30,ZBAA 110230Z VRB02MPS CAVOK 30/12 Q1010 NOSIG
ZBAA,2025-06-11 03:00,ZBAA 110300Z 14003MPS 080V200 CAVOK 30/12 Q1010 NOSIG
ZBAA,2025-06-11 03:30,ZBAA 110330Z 12003MPS 070V200 CAVOK 31/13 Q1010 NOSIG
ZBAA,2025-06-11 03:46,ZBAA 110346Z 18006MPS 130V200 CAVOK 33/11 Q1009 NOSIG
ZBAA,2025-06-11 04:00,ZBAA 110400Z 19005MPS 140V230 CAVOK 34/10 Q1009 NOSIG
ZBAA,2025-06-11 04:30,ZBAA 110430Z 19006MPS 170V230 CAVOK 34/09 Q1009 NOSIG
ZBAA,2025-06-11 05:00,ZBAA 110500Z 19008MPS 170V230 CAVOK 35/08 Q1008 NOSIG
ZBAA,2025-06-11 05:30,ZBAA 110530Z 20007MPS 170V230 CAVOK 35/09 Q1008 NOSIG
ZBAA,2025-06-11 06:00,ZBAA 110600Z 19007MPS 140V230 CAVOK 35/09 Q1008 NOSIG
ZBAA,2025-06-11 06:30,ZBAA 110630Z 17006MPS 130V230 CAVOK 36/08 Q1007 NOSIG
ZBAA,2025-06-11 07:00,ZBAA 110700Z 18008MPS 140V220 CAVOK 35/07 Q1007 NOSIG
ZBAA,2025-06-11 07:30,ZBAA 110730Z 21006MPS 170V240 CAVOK 35/07 Q1007 NOSIG
ZBAA,2025-06-11 08:00,ZBAA 110800Z 20005MPS 150V250 CAVOK 35/08 Q1007 NOSIG
ZBAA,2025-06-11 08:30,ZBAA 110830Z 17005G13MPS 120V210 CAVOK 35/08 Q1007 NOSIG
ZBAA,2025-06-11 09:00,ZBAA 110900Z 19006MPS 160V220 CAVOK 35/09 Q1006 NOSIG
ZBAA,2025-06-11 09:30,ZBAA 110930Z 18006MPS CAVOK 35/08 Q1006 NOSIG
ZBAA,2025-06-11 10:00,ZBAA 111000Z 17005MPS 130V200 CAVOK 34/08 Q1006 NOSIG
ZBAA,2025-06-11 10:30,ZBAA 111030Z 17004MPS CAVOK 33/09 Q1007 NOSIG
ZBAA,2025-06-11 11:00,ZBAA 111100Z 16003MPS CAVOK 33/09 Q1007 NOSIG
ZBAA,2025-06-11 11:30,ZBAA 111130Z 15003MPS CAVOK 31/09 Q1007 NOSIG
ZBAA,2025-06-11 12:00,ZBAA 111200Z 15004MPS CAVOK 31/10 Q1007 NOSIG
ZBAA,2025-06-11 12:30,ZBAA 111230Z 14004MPS 110V170 CAVOK 30/10 Q1007 NOSIG
ZBAA,2025-06-11 13:00,ZBAA 111300Z 14004MPS CAVOK 30/10 Q1007 NOSIG
ZBAA,2025-06-11 13:30,ZBAA 111330Z 15004MPS CAVOK 30/10 Q1008 NOSIG
ZBAA,2025-06-11 14:00,ZBAA 111400Z 15004MPS 120V180 CAVOK 29/10 Q1008 NOSIG
ZBAA,2025-06-11 14:30,ZBAA 111430Z 14004MPS CAVOK 29/11 Q1008 NOSIG
ZBAA,2025-06-11 15:00,ZBAA 111500Z 15003MPS CAVOK 28/12 Q1008 NOSIG
ZBAA,2025-06-11 15:30,ZBAA 111530Z 15002MPS 120V180 CAVOK 28/12 Q1008 NOSIG
ZBAA,2025-06-11 16:00,ZBAA 111600Z 13002MPS 080V170 CAVOK 27/13 Q1008 NOSIG
ZBAA,2025-06-11 16:30,ZBAA 111630Z VRB01MPS CAVOK 26/13 Q1008 NOSIG
ZBAA,2025-06-11 17:00,ZBAA 111700Z 04001MPS CAVOK 24/14 Q1009 NOSIG
ZBAA,2025-06-11 17:30,ZBAA 111730Z 10002MPS 060V120 CAVOK 26/13 Q1008 NOSIG
ZBAA,2025-06-11 18:00,ZBAA 111800Z 09002MPS CAVOK 26/14 Q1008 NOSIG
ZBAA,2025-06-11 18:30,ZBAA 111830Z 09002MPS CAVOK 26/14 Q1008 NOSIG
ZBAA,2025-06-11 19:00,ZBAA 111900Z 12003MPS CAVOK 25/14 Q1008 NOSIG
ZBAA,2025-06-11 19:30,ZBAA 111930Z 11002MPS 080V150 CAVOK 25/14 Q1008 NOSIG
ZBAA,2025-06-11 20:00,ZBAA 112000Z VRB01MPS CAVOK 23/14 Q1008 NOSIG
ZBAA,2025-06-11 20:30,ZBAA 112030Z 13002MPS CAVOK 23/14 Q1007 NOSIG
ZBAA,2025-06-11 21:00,ZBAA 112100Z 14004MPS CAVOK 25/14 Q1007 NOSIG
ZBAA,2025-06-11 21:30,ZBAA 112130Z 14004MPS CAVOK 25/14 Q1007 NOSIG
ZBAA,2025-06-11 22:00,ZBAA 112200Z 16002MPS 130V190 CAVOK 25/14 Q1007 NOSIG
ZBAA,2025-06-11 22:30,ZBAA 112230Z VRB01MPS CAVOK 26/16 Q1008 NOSIG
ZBAA,2025-06-11 23:00,ZBAA 112300Z 12002MPS 090V150 CAVOK 27/16 Q1008 NOSIG
ZBAA,2025-06-11 23:30,ZBAA 112330Z 14004MPS CAVOK 27/16 Q1008 NOSIG
ZBAA,2025-06-12 00:00,ZBAA 120000Z 14004MPS 110V170 CAVOK 28/16 Q1008 NOSIG
ZBAA,2025-06-12 00:30,ZBAA 120030Z 15004MPS 120V200 CAVOK 29/16 Q1008 NOSIG
ZBAA,2025-06-12 01:00,ZBAA 120100Z 19006MPS CAVOK 30/16 Q1008 NOSIG
ZBAA,2025-06-12 01:30,ZBAA 120130Z 19005MPS CAVOK 31/17 Q1008 NOSIG
ZBAA,2025-06-12 02:00,ZBAA 120200Z 19006MPS CAVOK 31/17 Q1008 NOSIG
ZBAA,2025-06-12 02:30,ZBAA 120230Z 20006MPS 160V230 CAVOK 32/17 Q1008 NOSIG
ZBAA,2025-06-12 03:00,ZBAA 120300Z 19005MPS 160V230 CAVOK 33/17 Q1008 NOSIG
ZBAA,2025-06-12 03:30,ZBAA 120330Z 17005MPS 140V220 CAVOK 33/17 Q1007 NOSIG
ZBAA,2025-06-12 04:00,ZBAA 120400Z 18006MPS 140V210 CAVOK 34/18 Q1007 NOSIG
ZBAA,2025-06-12 04:30,ZBAA 120430Z 18006MPS CAVOK 34/18 Q1007 NOSIG
ZBAA,2025-06-12 05:00,ZBAA 120500Z 19008MPS CAVOK 35/18 Q1006 NOSIG
ZBAA,2025-06-12 05:30,ZBAA 120530Z 17008MPS 130V190 CAVOK 35/18 Q1005 NOSIG
ZBAA,2025-06-12 06:00,ZBAA 120600Z 18009MPS 150V210 CAVOK 35/17 Q1005 NOSIG
ZBAA,2025-06-12 06:30,ZBAA 120630Z 19007MPS CAVOK 36/18 Q1005 NOSIG
ZBAA,2025-06-12 07:00,ZBAA 120700Z 17008MPS 140V200 CAVOK 36/17 Q1005 NOSIG
ZBAA,2025-06-12 07:30,ZBAA 120730Z 18007MPS 150V210 CAVOK 36/17 Q1005 NOSIG
ZBAA,2025-06-12 08:00,ZBAA 120800Z 18007MPS CAVOK 36/16 Q1004 NOSIG
ZBAA,2025-06-12 08:30,ZBAA 120830Z 17008MPS 130V190 CAVOK 36/16 Q1004 NOSIG
ZBAA,2025-06-12 09:00,ZBAA 120900Z 18008MPS 140V200 CAVOK 35/15 Q1004 NOSIG
ZBAA,2025-06-12 09:30,ZBAA 120930Z 17007G12MPS CAVOK 35/15 Q1004 NOSIG
ZBAA,2025-06-12 10:00,ZBAA 121000Z 18005MPS CAVOK 35/15 Q1004 NOSIG
ZBAA,2025-06-12 10:30,ZBAA 121030Z 19006MPS CAVOK 34/15 Q1004 NOSIG
ZBAA,2025-06-12 11:00,ZBAA 121100Z 19005MPS CAVOK 34/14 Q1004 NOSIG
ZBAA,2025-06-12 11:30,ZBAA 121130Z 14005MPS 110V170 CAVOK 32/15 Q1005 NOSIG
ZBAA,2025-06-12 12:00,ZBAA 121200Z 13005MPS CAVOK 31/15 Q1006 NOSIG
ZBAA,2025-06-12 12:30,ZBAA 121230Z 14005MPS CAVOK 31/14 Q1006 NOSIG
ZBAA,2025-06-12 13:00,ZBAA 121300Z 13003MPS 080V150 CAVOK 30/13 Q1007 NOSIG
ZBAA,2025-06-12 13:30,ZBAA 121330Z 11004MPS 070V140 CAVOK 29/14 Q1008 NOSIG
ZBAA,2025-06-12 14:00,ZBAA 121400Z 11004MPS 080V150 CAVOK 28/13 Q1008 NOSIG
ZBAA,2025-06-12 14:30,ZBAA 121430Z 10003MPS 060V130 CAVOK 28/13 Q1008 NOSIG
ZBAA,2025-06-12 15:00,ZBAA 121500Z 11004MPS 080V140 CAVOK 27/13 Q1008 NOSIG
ZBAA,2025-06-12 15:30,ZBAA 121530Z 06003MPS 360V120 CAVOK 27/13 Q1009 NOSIG
ZBAA,2025-06-12 16:00,ZBAA 121600Z 09002MPS 050V130 CAVOK 27/12 Q1009 NOSIG
ZBAA,2025-06-12 16:30,ZBAA 121630Z 09002MPS 040V130 CAVOK 27/12 Q1009 NOSIG
ZBAA,2025-06-12 17:00,ZBAA 121700Z VRB01MPS CAVOK 26/12 Q1009 NOSIG
ZBAA,2025-06-12 17:30,ZBAA 121730Z 10002MPS 060V140 CAVOK 26/12 Q1009 NOSIG
ZBAA,2025-06-12 18:00,ZBAA 121800Z 09002MPS 050V130 CAVOK 25/12 Q1008 NOSIG
ZBAA,2025-06-12 18:30,ZBAA 121830Z 10002MPS 050V150 CAVOK 25/13 Q1008 NOSIG
ZBAA,2025-06-12 19:00,ZBAA 121900Z 12002MPS CAVOK 24/13 Q1008 NOSIG
ZBAA,2025-06-12 19:30,ZBAA 121930Z 13004MPS 090V150 CAVOK 25/13 Q1008 NOSIG
ZBAA,2025-06-12 20:00,ZBAA 122000Z 14003MPS CAVOK 24/13 Q1008 NOSIG
ZBAA,2025-06-12 20:30,ZBAA 122030Z 12004MPS 080V160 CAVOK 24/13 Q1008 NOSIG
ZBAA,2025-06-12 21:00,ZBAA 122100Z 12003MPS 080V140 CAVOK 23/13 Q1007 NOSIG
ZBAA,2025-06-12 21:30,ZBAA 122130Z 12003MPS 080V150 CAVOK 23/13 Q1007 NOSIG
ZBAA,2025-06-12 22:00,ZBAA 122200Z 13002MPS 060V180 CAVOK 23/14 Q1007 NOSIG
ZBAA,2025-06-12 22:30,ZBAA 122230Z 12004MPS 060V150 CAVOK 23/14 Q1007 NOSIG
ZBAA,2025-06-12 23:00,ZBAA 122300Z 13002MPS 080V220 CAVOK 23/15 Q1007 NOSIG
ZBAA,2025-06-12 23:30,ZBAA 122330Z VRB01MPS CAVOK 24/15 Q1008 NOSIG
ZBAA,2025-06-13 00:00,ZBAA 130000Z VRB01MPS CAVOK 24/15 Q1008 NOSIG
ZBAA,2025-06-13 00:30,ZBAA 130030Z 08002MPS 040V160 CAVOK 24/15 Q1008 NOSIG
ZBAA,2025-06-13 01:00,ZBAA 130100Z 09002MPS 040V150 CAVOK 24/15 Q1008 NOSIG
ZBAA,2025-06-13 01:30,ZBAA 130130Z 10003MPS 050V140 CAVOK 25/16 Q1007 NOSIG
ZBAA,2025-06-13 02:00,ZBAA 130200Z 09002MPS 040V150 CAVOK 26/15 Q1007 NOSIG
ZBAA,2025-06-13 02:30,ZBAA 130230Z 12003MPS 040V170 CAVOK 28/15 Q1007 NOSIG
ZBAA,2025-06-13 03:00,ZBAA 130300Z 14003MPS 100V190 CAVOK 27/15 Q1007 NOSIG
ZBAA,2025-06-13 03:30,ZBAA 130330Z 11003MPS 070V150 CAVOK 28/15 Q1006 NOSIG
ZBAA,2025-06-13 04:00,ZBAA 130400Z 13003MPS 080V190 CAVOK 29/16 Q1006 NOSIG
ZBAA,2025-06-13 04:30,ZBAA 130430Z 13003MPS 080V170 CAVOK 30/16 Q1006 NOSIG
ZBAA,2025-06-13 05:00,ZBAA 130500Z 16003MPS 070V220 CAVOK 30/16 Q1005 NOSIG
ZBAA,2025-06-13 05:30,ZBAA 130530Z 15004MPS 100V190 CAVOK 31/16 Q1005 NOSIG
ZBAA,2025-06-13 06:00,ZBAA 130600Z 16004MPS 120V210 CAVOK 31/16 Q1004 NOSIG
ZBAA,2025-06-13 06:30,ZBAA 130630Z 16004MPS CAVOK 32/17 Q1004 NOSIG
ZBAA,2025-06-13 07:00,ZBAA 130700Z 16003MPS 120V200 CAVOK 32/16 Q1004 NOSIG
ZBAA,2025-06-13 07:30,ZBAA 130730Z 15003MPS 100V190 CAVOK 32/17 Q1003 NOSIG
ZBAA,2025-06-13 08:00,ZBAA 130800Z 17004MPS CAVOK 32/17 Q1003 BECMG TL0920 -TSRA FEW040CB
ZBAA,2025-06-13 08:30,ZBAA 130830Z 15002MPS 090V200 CAVOK 31/18 Q1003 NOSIG
ZBAA,2025-06-13 09:00,ZBAA 130900Z 14003MPS 110V170 CAVOK 31/17 Q1003 NOSIG
ZBAA,2025-06-13 09:30,ZBAA 130930Z 10003MPS 070V130 CAVOK 31/17 Q1003 NOSIG
ZBAA,2025-06-13 10:00,ZBAA 131000Z 15002MPS 120V180 CAVOK 31/18 Q1003 NOSIG
ZBAA,2025-06-13 10:30,ZBAA 131030Z 14003MPS 080V170 CAVOK 31/18 Q1003 NOSIG
ZBAA,2025-06-13 11:00,ZBAA 131100Z 14004MPS CAVOK 30/18 Q1003 NOSIG
ZBAA,2025-06-13 11:30,ZBAA 131130Z 15003MPS CAVOK 29/18 Q1003 NOSIG
ZBAA,2025-06-13 12:00,ZBAA 131200Z 16003MPS 120V180 CAVOK 29/19 Q1003 NOSIG
ZBAA,2025-06-13 12:30,ZBAA 131230Z 15003MPS CAVOK 28/18 Q1004 NOSIG
ZBAA,2025-06-13 13:00,ZBAA 131300Z 16003MPS CAVOK 28/17 Q1004 NOSIG
ZBAA,2025-06-13 13:30,ZBAA 131330Z 16003MPS CAVOK 27/15 Q1005 NOSIG
ZBAA,2025-06-13 14:00,ZBAA 131400Z 16003MPS CAVOK 27/15 Q1005 NOSIG
ZBAA,2025-06-13 14:30,ZBAA 131430Z 16003MPS CAVOK 27/15 Q1005 NOSIG
ZBAA,2025-06-13 15:00,ZBAA 131500Z 15003MPS 130V190 CAVOK 26/14 Q1005 NOSIG
ZBAA,2025-06-13 15:30,ZBAA 131530Z 16002MPS CAVOK 25/14 Q1005 NOSIG
ZBAA,2025-06-13 16:00,ZBAA 131600Z 15001MPS CAVOK 24/15 Q1005 NOSIG
ZBAA,2025-06-13 16:30,ZBAA 131630Z 16002MPS CAVOK 25/16 Q1005 NOSIG
ZBAA,2025-06-13 17:00,ZBAA 131700Z 12002MPS 060V160 CAVOK 24/17 Q1004 NOSIG
ZBAA,2025-06-13 17:30,ZBAA 131730Z 11002MPS 080V140 CAVOK 24/17 Q1005 NOSIG
ZBAA,2025-06-13 18:00,ZBAA 131800Z 11003MPS 060V140 CAVOK 23/18 Q1004 NOSIG
ZBAA,2025-06-13 18:30,ZBAA 131830Z 10002MPS 070V140 CAVOK 23/18 Q1004 NOSIG
ZBAA,2025-06-13 19:00,ZBAA 131900Z 10002MPS 060V130 CAVOK 22/19 Q1004 NOSIG
ZBAA,2025-06-13 19:30,ZBAA 131930Z 09002MPS 050V170 CAVOK 22/19 Q1004 NOSIG
ZBAA,2025-06-13 20:00,ZBAA 132000Z 04002MPS 010V070 CAVOK 22/19 Q1004 NOSIG
ZBAA,2025-06-13 20:30,ZBAA 132030Z VRB01MPS 8000 NSC 22/19 Q1004 NOSIG
ZBAA,2025-06-13 21:00,ZBAA 132100Z 00000MPS 6000 NSC 22/20 Q1004 NOSIG
ZBAA,2025-06-13 21:30,ZBAA 132130Z VRB01MPS 6000 NSC 23/20 Q1004 NOSIG
ZBAA,2025-06-13 22:00,ZBAA 132200Z 05002MPS 6000 NSC 23/20 Q1004 NOSIG
ZBAA,2025-06-13 22:30,ZBAA 132230Z VRB01MPS 6000 NSC 23/20 Q1004 NOSIG
ZBAA,2025-06-13 23:00,ZBAA 132300Z VRB01MPS 6000 NSC 23/20 Q1003 BECMG TL0040 TS
ZBAA,2025-06-13 23:30,ZBAA 132330Z VRB01MPS 6000 NSC 23/20 Q1004 NOSIG
ZBAA,2025-06-14 00:00,ZBAA 140000Z VRB01MPS 6000 -SHRA FEW040CB 23/20 Q1004 BECMG TL0140 TSRA
ZBAA,2025-06-14 00:30,ZBAA 140030Z VRB01MPS 5000 -SHRA BR FEW040CB 23/20 Q1005 NOSIG
ZBAA,2025-06-14 00:37,ZBAA 140037Z 26003MPS 220V310 5000 -TSRA BR FEW040CB 23/21 Q1005 NOSIG
ZBAA,2025-06-14 01:00,ZBAA 140100Z 29002MPS 220V350 3000 -TSRA BR BKN040 SCT040CB 22/21 Q1004 BECMG TL0220 NSW
ZBAA,2025-06-14 01:30,ZBAA 140130Z 02003MPS 350V050 3000 -TSRA BR BKN040 FEW040CB 22/21 Q1003 NOSIG
ZBAA,2025-06-14 02:00,ZBAA 140200Z 36003MPS 3500 -SHRA BR OVC040 22/21 Q1003 RETS BECMG TL0320 TS
ZBAA,2025-06-14 02:30,ZBAA 140230Z 01003MPS 3700 -SHRA BR BKN040 FEW040CB 21/19 Q1003 NOSIG
ZBAA,2025-06-14 03:00,ZBAA 140300Z 36002MPS 3600 -SHRA BR BKN040 FEW040CB 21/20 Q1003 BECMG TL0320 TS
ZBAA,2025-06-14 03:30,ZBAA 140330Z 06002MPS 010V140 3500 SHRA BR BKN040 SCT040CB 20/18 Q1003 NOSIG
ZBAA,2025-06-14 04:00,ZBAA 140400Z 17002MPS 3500 SHRA BR SCT040 SCT040CB 19/18 Q1003 BECMG TL0420 -TSRA
ZBAA,2025-06-14 04:30,ZBAA 140430Z 22002MPS 190V270 3000 -SHRA BR FEW006 SCT040 SCT040CB 19/18 Q1004 RESHRA NOSIG
ZBAA,2025-06-14 05:00,COR ZBAA 140500Z VRB01MPS 3000 -SHRA BR BKN033 SCT033CB 19/18 Q1004 BECMG TL0620 2800
ZBAA,2025-06-14 05:30,ZBAA 140530Z 07002MPS 010V090 3000 R36L/1800D R36R/1700D R01/1400D -RA BR OVC033 19/19 Q1003 NOSIG
ZBAA,2025-06-14 06:00,ZBAA 140600Z 07003MPS 3000 -RA BR FEW006 OVC033 19/19 Q1002 BECMG TL0620 2800
ZBAA,2025-06-14 06:30,ZBAA 140630Z 07003MPS 040V110 2800 -RA BR OVC040 20/19 Q1001 NOSIG
ZBAA,2025-06-14 07:00,ZBAA 140700Z VRB01MPS 6000 -RA FEW006 OVC040 20/19 Q1001 NOSIG
ZBAA,2025-06-14 07:30,ZBAA 140730Z 02002MPS 350V060 6000 -RA SCT006 OVC040 20/19 Q1001 NOSIG
ZBAA,2025-06-14 08:00,ZBAA 140800Z 03002MPS 350V070 6000 SCT010 OVC040 20/19 Q1000 NOSIG
ZBAA,2025-06-14 08:30,ZBAA 140830Z VRB01MPS 6000 -RA SCT010 OVC040 20/20 Q1000 NOSIG
ZBAA,2025-06-14 09:00,ZBAA 140900Z 01002MPS 5000 -RA BR SCT010 OVC040 20/20 Q1000 NOSIG
ZBAA,2025-06-14 09:30,ZBAA 140930Z 34002MPS 300V030 5000 -RA BR SCT010 OVC040 20/20 Q0999 NOSIG
ZBAA,2025-06-14 10:00,ZBAA 141000Z 34004MPS 310V010 5000 BR SCT010 OVC040 20/19 Q1000 NOSIG
ZBAA,2025-06-14 10:30,ZBAA 141030Z 34004MPS 5000 -SHRA BR SCT010 BKN040 FEW040CB 20/19 Q1000 NOSIG
ZBAA,2025-06-14 11:00,ZBAA 141100Z 33004MPS 5000 -SHRA BR SCT004 BKN040 FEW040CB 20/19 Q1000 NOSIG
ZBAA,2025-06-14 11:30,ZBAA 141130Z 02003MPS 350V050 5000 -SHRA BR SCT004 BKN040 FEW040CB 20/19 Q1000 NOSIG
ZBAA,2025-06-14 12:00,ZBAA 141200Z VRB01MPS 5000 -SHRA BR BKN040 SCT040CB 19/19 Q1000 BECMG TL1220 SHRA
ZBAA,2025-06-14 12:04,ZBAA 141204Z 00000MPS 3000 SHRA BR SCT040 SCT040CB 19/19 Q1000 NOSIG
ZBAA,2025-06-14 12:30,ZBAA 141230Z VRB01MPS 3000 SHRA BR SCT040 SCT040CB 19/19 Q1000 NOSIG
ZBAA,2025-06-14 12:45,ZBAA 141245Z VRB01MPS 3000 -SHRA BR SCT004 BKN040 FEW040CB 20/19 Q1000 RESHRA NOSIG
ZBAA,2025-06-14 13:00,ZBAA 141300Z VRB01MPS 3000 -SHRA BR SCT004 BKN040 FEW040CB 20/19 Q1000 RESHRA NOSIG
ZBAA,2025-06-14 13:30,ZBAA 141330Z 04001MPS 3000 -SHRA BR SCT004 BKN040 FEW040CB 20/19 Q1000 NOSIG
ZBAA,2025-06-14 14:00,ZBAA 141400Z 02001MPS 4000 -SHRA BR SCT006 BKN040 FEW040CB 20/20 Q0999 BECMG TL1520 BKN004 BKN040
ZBAA,2025-06-14 14:30,ZBAA 141430Z VRB01MPS 5000 -SHRA BR SCT005 BKN040 FEW040CB 20/19 Q0999 NOSIG
ZBAA,2025-06-14 15:00,ZBAA 141500Z VRB01MPS 5000 BR SCT005 BKN040 20/20 Q0998 BECMG TL1520 BKN005 BKN040
ZBAA,2025-06-14 15:30,ZBAA 141530Z VRB01MPS 8000 BKN006 20/19 Q0998 NOSIG
ZBAA,2025-06-14 16:00,ZBAA 141600Z VRB01MPS 6000 BKN006 20/19 Q0998 BECMG TL1720 SCT006
ZBAA,2025-06-14 16:30,ZBAA 141630Z 32002MPS 290V350 5000 BR BKN006 20/20 Q0998 NOSIG
ZBAA,2025-06-14 17:00,ZBAA 141700Z 32003MPS 5000 BR BKN006 20/20 Q0997 BECMG TL1720 SCT006
ZBAA,2025-06-14 17:30,ZBAA 141730Z VRB01MPS 6000 SCT006 20/19 Q0997 NOSIG
ZBAA,2025-06-14 18:00,ZBAA 141800Z 36002MPS 6000 FEW010 19/19 Q0996 NOSIG
ZBAA,2025-06-14 18:30,ZBAA 141830Z VRB01MPS 6000 NSC 19/19 Q0996 NOSIG
ZBAA,2025-06-14 19:00,ZBAA 141900Z 09001MPS 5000 BR NSC 18/18 Q0996 NOSIG
ZBAA,2025-06-14 19:30,ZBAA 141930Z VRB01MPS 5000 BR NSC 19/19 Q0995 NOSIG
ZBAA,2025-06-14 20:00,ZBAA 142000Z VRB01MPS 4000 BR NSC 19/19 Q0995 NOSIG
ZBAA,2025-06-14 20:30,ZBAA 142030Z 27002MPS 4000 BR NSC 20/19 Q0995 NOSIG
ZBAA,2025-06-14 21:00,ZBAA 142100Z 31003MPS 4000 BR NSC 20/19 Q0995 NOSIG
ZBAA,2025-06-14 21:30,ZBAA 142130Z 30006MPS CAVOK 21/16 Q0995 NOSIG
ZBAA,2025-06-14 22:00,ZBAA 142200Z 29006MPS CAVOK 21/16 Q0995 NOSIG
ZBAA,2025-06-14 22:30,ZBAA 142230Z 29008G14MPS CAVOK 20/15 Q0995 NOSIG
ZBAA,2025-06-14 23:00,ZBAA 142300Z 31009MPS 9999 -RA NSC 19/15 Q0995 NOSIG
ZBAA,2025-06-14 23:30,ZBAA 142330Z 29008MPS 9999 -RA NSC 19/14 Q0995 NOSIG
ZBAA,2025-06-15 00:00,ZBAA 150000Z 29007MPS 260V330 9999 -SHRA FEW040CB 19/14 Q0996 BECMG TL0030 -TSRA
ZBAA,2025-06-15 00:30,ZBAA 150030Z 29007MPS 9999 -SHRA FEW040CB 18/14 Q0996 NOSIG
ZBAA,2025-06-15 01:00,ZBAA 150100Z 32006MPS 9999 -SHRA FEW040CB 17/14 Q0995 NOSIG
ZBAA,2025-06-15 01:30,ZBAA 150130Z 31006MPS 9999 -SHRA NSC 17/14 Q0995 NOSIG
ZBAA,2025-06-15 02:00,ZBAA 150200Z 30006MPS CAVOK 19/15 Q0995 NOSIG
ZBAA,2025-06-15 02:30,ZBAA 150230Z 30006MPS CAVOK 20/14 Q0994 NOSIG
ZBAA,2025-06-15 03:00,ZBAA 150300Z 31006MPS CAVOK 22/13 Q0995 NOSIG
ZBAA,2025-06-15 03:30,ZBAA 150330Z 32004MPS 280V350 CAVOK 23/13 Q0995 NOSIG
ZBAA,2025-06-15 04:00,ZBAA 150400Z 35006MPS 310V030 CAVOK 24/14 Q0994 NOSIG
ZBAA,2025-06-15 04:30,ZBAA 150430Z 01004MPS CAVOK 25/13 Q0994 NOSIG
ZBAA,2025-06-15 05:00,ZBAA 150500Z 02005MPS CAVOK 25/13 Q0993 NOSIG
ZBAA,2025-06-15 05:30,ZBAA 150530Z 06003MPS 360V080 CAVOK 25/13 Q0993 NOSIG
ZBAA,2025-06-15 06:00,ZBAA 150600Z 05004MPS 020V100 CAVOK 25/14 Q0993 NOSIG
ZBAA,2025-06-15 06:30,ZBAA 150630Z 02003MPS 330V090 CAVOK 26/14 Q0993 NOSIG
ZBAA,2025-06-15 07:00,ZBAA 150700Z 02003MPS 350V060 CAVOK 25/15 Q0993 NOSIG
ZBAA,2025-06-15 07:30,ZBAA 150730Z 04003MPS 010V090 CAVOK 25/14 Q0993 NOSIG
ZBAA,2025-06-15 08:00,ZBAA 150800Z 05003MPS 010V090 CAVOK 26/14 Q0993 NOSIG
ZBAA,2025-06-15 08:30,ZBAA 150830Z 05003MPS 010V080 CAVOK 26/14 Q0993 NOSIG
ZBAA,2025-06-15 09:00,ZBAA 150900Z 06002MPS 010V100 CAVOK 25/14 Q0993 NOSIG
ZBAA,2025-06-15 09:30,ZBAA 150930Z 07002MPS 030V130 CAVOK 25/14 Q0992 NOSIG
ZBAA,2025-06-15 10:00,ZBAA 151000Z VRB01MPS CAVOK 24/14 Q0993 NOSIG
ZBAA,2025-06-15 10:30,ZBAA 151030Z 09002MPS 040V130 CAVOK 24/15 Q0993 NOSIG
ZBAA,2025-06-15 11:00,ZBAA 151100Z 10002MPS 060V140 CAVOK 24/14 Q0993 NOSIG
ZBAA,2025-06-15 11:30,ZBAA 151130Z 11001MPS CAVOK 21/16 Q0993 NOSIG
ZBAA,2025-06-15 12:00,ZBAA 151200Z 05001MPS CAVOK 19/16 Q0993 NOSIG
ZBAA,2025-06-15 12:30,ZBAA 151230Z 09001MPS CAVOK 19/16 Q0993 NOSIG
ZBAA,2025-06-15 13:00,ZBAA 151300Z VRB01MPS CAVOK 18/16 Q0994 NOSIG
ZBAA,2025-06-15 13:30,ZBAA 151330Z 35002MPS 310V010 CAVOK 18/16 Q0993 NOSIG
ZBAA,2025-06-15 14:00,ZBAA 151400Z 01002MPS CAVOK 18/16 Q0993 NOSIG
ZBAA,2025-06-15 14:30,ZBAA 151430Z VRB01MPS CAVOK 17/15 Q0993 NOSIG
ZBAA,2025-06-15 15:00,ZBAA 151500Z VRB01MPS CAVOK 18/15 Q0993 NOSIG
ZBAA,2025-06-15 15:30,ZBAA 151530Z VRB01MPS CAVOK 17/15 Q0993 NOSIG
ZBAA,2025-06-15 16:00,ZBAA 151600Z 36002MPS CAVOK 17/15 Q0993 NOSIG
ZBAA,2025-06-15 16:30,ZBAA 151630Z 01002MPS CAVOK 18/14 Q0993 NOSIG
ZBAA,2025-06-15 17:00,ZBAA 151700Z 01003MPS CAVOK 18/14 Q0993 NOSIG
ZBAA,2025-06-15 17:30,ZBAA 151730Z 36004MPS CAVOK 17/14 Q0993 NOSIG
ZBAA,2025-06-15 18:00,ZBAA 151800Z 36003MPS CAVOK 18/13 Q0993 NOSIG
ZBAA,2025-06-15 18:30,ZBAA 151830Z 34005MPS CAVOK 20/12 Q0992 NOSIG
ZBAA,2025-06-15 19:00,ZBAA 151900Z 32004MPS CAVOK 20/11 Q0992 NOSIG
ZBAA,2025-06-15 19:30,ZBAA 151930Z 01002MPS 330V030 CAVOK 18/12 Q0993 NOSIG
ZBAA,2025-06-15 20:00,ZBAA 152000Z 01003MPS CAVOK 18/12 Q0992 NOSIG
ZBAA,2025-06-15 20:30,ZBAA 152030Z 35003MPS CAVOK 18/12 Q0993 NOSIG
ZBAA,2025-06-15 21:00,ZBAA 152100Z 36003MPS CAVOK 17/13 Q0993 NOSIG
ZBAA,2025-06-15 21:30,ZBAA 152130Z 35003MPS CAVOK 18/13 Q0993 NOSIG
ZBAA,2025-06-15 22:00,ZBAA 152200Z 33005MPS CAVOK 20/12 Q0993 NOSIG
ZBAA,2025-06-15 22:30,ZBAA 152230Z 36004MPS 9999 -RA NSC 19/14 Q0993 NOSIG
ZBAA,2025-06-15 23:00,ZBAA 152300Z 01003MPS 9999 -RA NSC 19/14 Q0994 NOSIG
ZBAA,2025-06-15 23:30,ZBAA 152330Z 02002MPS 9999 -RA NSC 18/15 Q0994 NOSIG
ZBAA,2025-06-16 00:00,ZBAA 160000Z 33004MPS 9999 -RA NSC 20/14 Q0995 NOSIG
ZBAA,2025-06-16 00:30,ZBAA 160030Z 35004MPS 9999 -RA NSC 20/14 Q0995 NOSIG
ZBAA,2025-06-16 01:00,ZBAA 160100Z 35003MPS 320V040 CAVOK 20/14 Q0995 NOSIG
ZBAA,2025-06-16 01:30,ZBAA 160130Z 34004MPS 300V040 CAVOK 21/14 Q0995 NOSIG
ZBAA,2025-06-16 02:00,ZBAA 160200Z 01003MPS 320V040 CAVOK 22/15 Q0996 NOSIG
ZBAA,2025-06-16 02:30,ZBAA 160230Z 33003MPS 290V360 CAVOK 23/14 Q0996 NOSIG
ZBAA,2025-06-16 03:00,ZBAA 160300Z 35002MPS 300V030 CAVOK 24/14 Q0996 NOSIG
ZBAA,2025-06-16 03:30,ZBAA 160330Z 36002MPS 280V070 CAVOK 25/15 Q0996 NOSIG
ZBAA,2025-06-16 04:00,ZBAA 160400Z VRB02MPS CAVOK 25/15 Q0996 BECMG TL0540 35006MPS
ZBAA,2025-06-16 04:30,ZBAA 160430Z 01002MPS 320V050 CAVOK 26/15 Q0996 NOSIG
ZBAA,2025-06-16 05:00,ZBAA 160500Z 35003MPS 320V030 CAVOK 26/16 Q0996 NOSIG
ZBAA,2025-06-16 05:30,ZBAA 160530Z 01004MPS 320V070 CAVOK 27/15 Q0996 NOSIG
ZBAA,2025-06-16 06:00,ZBAA 160600Z 02005MPS 340V080 CAVOK 28/15 Q0996 NOSIG
ZBAA,2025-06-16 06:30,ZBAA 160630Z 02004MPS 350V060 CAVOK 27/14 Q0996 NOSIG
ZBAA,2025-06-16 07:00,ZBAA 160700Z 36004MPS 320V030 CAVOK 28/14 Q0996 NOSIG
ZBAA,2025-06-16 07:30,ZBAA 160730Z 36004MPS 320V030 CAVOK 30/14 Q0995 NOSIG
ZBAA,2025-06-16 08:00,ZBAA 160800Z 04003MPS 360V080 CAVOK 29/14 Q0995 NOSIG
ZBAA,2025-06-16 08:30,ZBAA 160830Z 02002MPS 340V060 CAVOK 29/14 Q0996 NOSIG
ZBAA,2025-06-16 09:00,ZBAA 160900Z VRB01MPS CAVOK 28/16 Q0995 NOSIG
ZBAA,2025-06-16 09:30,ZBAA 160930Z 11002MPS CAVOK 27/15 Q0996 NOSIG
ZBAA,2025-06-16 10:00,ZBAA 161000Z 11002MPS 070V150 CAVOK 28/15 Q0996 NOSIG
ZBAA,2025-06-16 10:30,ZBAA 161030Z VRB01MPS CAVOK 28/15 Q0996 NOSIG
ZBAA,2025-06-16 11:00,ZBAA 161100Z 12001MPS CAVOK 25/18 Q0996 NOSIG
ZBAA,2025-06-16 11:30,ZBAA 161130Z VRB01MPS CAVOK 23/18 Q0997 NOSIG
ZBAA,2025-06-16 12:00,ZBAA 161200Z VRB01MPS CAVOK 22/17 Q0997 NOSIG
ZBAA,2025-06-16 12:30,ZBAA 161230Z VRB01MPS CAVOK 21/17 Q0997 NOSIG
ZBAA,2025-06-16 13:00,ZBAA 161300Z VRB01MPS CAVOK 21/18 Q0998 NOSIG
ZBAA,2025-06-16 13:30,ZBAA 161330Z VRB01MPS CAVOK 20/18 Q0998 NOSIG
ZBAA,2025-06-16 14:00,ZBAA 161400Z VRB01MPS CAVOK 20/18 Q0998 NOSIG
ZBAA,2025-06-16 14:30,ZBAA 161430Z VRB02MPS CAVOK 20/17 Q0998 NOSIG
ZBAA,2025-06-16 15:00,ZBAA 161500Z 17003MPS 150V210 CAVOK 23/16 Q0998 NOSIG
ZBAA,2025-06-16 15:30,ZBAA 161530Z VRB01MPS CAVOK 20/17 Q0998 NOSIG
ZBAA,2025-06-16 16:00,ZBAA 161600Z 36002MPS CAVOK 19/17 Q0999 NOSIG
ZBAA,2025-06-16 16:30,ZBAA 161630Z VRB01MPS CAVOK 19/17 Q0999 NOSIG
ZBAA,2025-06-16 17:00,ZBAA 161700Z 36002MPS CAVOK 18/17 Q0999 NOSIG
ZBAA,2025-06-16 17:30,ZBAA 161730Z VRB01MPS CAVOK 18/17 Q0999 NOSIG
ZBAA,2025-06-16 18:00,ZBAA 161800Z VRB01MPS CAVOK 18/17 Q0999 NOSIG
ZBAA,2025-06-16 18:30,ZBAA 161830Z 01002MPS 340V040 CAVOK 19/17 Q1000 NOSIG
ZBAA,2025-06-16 19:00,ZBAA 161900Z 03001MPS CAVOK 18/17 Q1000 NOSIG
ZBAA,2025-06-16 19:30,ZBAA 161930Z 36001MPS CAVOK 18/17 Q1000 NOSIG
ZBAA,2025-06-16 20:00,ZBAA 162000Z 01002MPS CAVOK 18/17 Q1000 NOSIG
ZBAA,2025-06-16 20:30,ZBAA 162030Z 36002MPS CAVOK 18/17 Q1001 NOSIG
ZBAA,2025-06-16 21:00,ZBAA 162100Z 01002MPS CAVOK 18/17 Q1001 NOSIG
ZBAA,2025-06-16 21:30,ZBAA 162130Z 34002MPS CAVOK 19/18 Q1001 NOSIG
ZBAA,2025-06-16 22:00,ZBAA 162200Z 36002MPS CAVOK 20/18 Q1001 NOSIG
ZBAA,2025-06-16 22:30,ZBAA 162230Z 34004MPS CAVOK 21/18 Q1001 NOSIG
ZBAA,2025-06-16 23:00,ZBAA 162300Z 36003MPS CAVOK 23/18 Q1002 NOSIG
ZBAA,2025-06-16 23:30,ZBAA 162330Z 35002MPS 310V020 CAVOK 24/18 Q1002 NOSIG
ZBAA,2025-06-17 00:00,ZBAA 170000Z 01003MPS CAVOK 25/18 Q1002 NOSIG
ZBAA,2025-06-17 00:30,ZBAA 170030Z 02002MPS 350V070 CAVOK 27/18 Q1002 NOSIG
ZBAA,2025-06-17 01:00,ZBAA 170100Z 01002MPS 290V040 CAVOK 27/17 Q1002 NOSIG
ZBAA,2025-06-17 01:30,ZBAA 170130Z VRB01MPS CAVOK 28/19 Q1002 NOSIG
ZBAA,2025-06-17 02:00,ZBAA 170200Z VRB01MPS CAVOK 30/18 Q1002 NOSIG
ZBAA,2025-06-17 02:30,ZBAA 170230Z 09002MPS 020V150 CAVOK 30/18 Q1001 NOSIG
ZBAA,2025-06-17 03:00,ZBAA 170300Z VRB02MPS CAVOK 31/17 Q1001 NOSIG
ZBAA,2025-06-17 03:30,ZBAA 170330Z 20002MPS 140V300 CAVOK 31/17 Q1002 NOSIG
ZBAA,2025-06-17 04:00,ZBAA 170400Z VRB02MPS CAVOK 33/18 Q1001 NOSIG
ZBAA,2025-06-17 04:30,ZBAA 170430Z VRB03MPS CAVOK 32/19 Q1001 NOSIG
ZBAA,2025-06-17 05:00,ZBAA 170500Z 15003MPS 100V210 CAVOK 33/19 Q1001 NOSIG
ZBAA,2025-06-17 05:30,ZBAA 170530Z 16003G08MPS 120V220 CAVOK 34/18 Q1000 NOSIG
ZBAA,2025-06-17 06:00,ZBAA 170600Z 14004MPS CAVOK 34/17 Q1000 NOSIG
ZBAA,2025-06-17 06:30,ZBAA 170630Z 15004MPS 120V190 CAVOK 34/18 Q1000 NOSIG
ZBAA,2025-06-17 07:00,ZBAA 170700Z 13004MPS 100V160 CAVOK 34/17 Q1000 NOSIG
ZBAA,2025-06-17 07:30,ZBAA 170730Z 21004MPS 160V240 CAVOK 35/16 Q1000 NOSIG
ZBAA,2025-06-17 08:00,ZBAA 170800Z 17004MPS 130V200 CAVOK 34/16 Q1000 NOSIG
ZBAA,2025-06-17 08:30,ZBAA 170830Z 16003MPS 130V210 CAVOK 34/18 Q1000 NOSIG
ZBAA,2025-06-17 09:00,ZBAA 170900Z 17002MPS 120V270 CAVOK 34/17 Q1000 NOSIG
ZBAA,2025-06-17 09:30,ZBAA 170930Z 15002MPS 130V200 CAVOK 33/18 Q1000 NOSIG
ZBAA,2025-06-17 10:00,ZBAA 171000Z 15002MPS 120V180 CAVOK 33/19 Q1000 NOSIG
ZBAA,2025-06-17 10:30,ZBAA 171030Z 16001MPS CAVOK 32/21 Q1000 NOSIG
ZBAA,2025-06-17 11:00,ZBAA 171100Z 12002MPS CAVOK 30/22 Q1000 NOSIG
ZBAA,2025-06-17 11:30,ZBAA 171130Z 13002MPS CAVOK 30/19 Q1000 NOSIG
ZBAA,2025-06-17 12:00,ZBAA 171200Z 12002MPS 090V180 CAVOK 30/18 Q1001 NOSIG
ZBAA,2025-06-17 12:30,ZBAA 171230Z 14003MPS CAVOK 30/16 Q1001 NOSIG
ZBAA,2025-06-17 13:00,ZBAA 171300Z 11002MPS 070V150 CAVOK 29/16 Q1002 NOSIG
ZBAA,2025-06-17 13:30,ZBAA 171330Z 07001MPS CAVOK 25/19 Q1002 NOSIG
ZBAA,2025-06-17 14:00,ZBAA 171400Z 09002MPS 060V120 CAVOK 26/17 Q1002 NOSIG
ZBAA,2025-06-17 14:30,ZBAA 171430Z VRB01MPS CAVOK 25/17 Q1003 NOSIG
ZBAA,2025-06-17 15:00,ZBAA 171500Z VRB01MPS CAVOK 25/18 Q1003 NOSIG
ZBAA,2025-06-17 15:30,ZBAA 171530Z 09001MPS CAVOK 23/18 Q1003 NOSIG
ZBAA,2025-06-17 16:00,ZBAA 171600Z 36001MPS CAVOK 22/19 Q1003 NOSIG
ZBAA,2025-06-17 16:30,ZBAA 171630Z VRB01MPS CAVOK 22/17 Q1003 NOSIG
ZBAA,2025-06-17 17:00,ZBAA 171700Z VRB01MPS CAVOK 22/18 Q1003 NOSIG
ZBAA,2025-06-17 17:30,ZBAA 171730Z 16001MPS CAVOK 21/18 Q1003 NOSIG
ZBAA,2025-06-17 18:00,ZBAA 171800Z VRB01MPS CAVOK 21/18 Q1003 NOSIG
ZBAA,2025-06-17 18:30,ZBAA 171830Z 00000MPS CAVOK 21/18 Q1003 NOSIG
ZBAA,2025-06-17 19:00,ZBAA 171900Z 13002MPS CAVOK 21/18 Q1003 NOSIG
ZBAA,2025-06-17 19:30,ZBAA 171930Z VRB01MPS CAVOK 21/18 Q1002 NOSIG
ZBAA,2025-06-17 20:00,ZBAA 172000Z 00000MPS CAVOK 20/18 Q1003 NOSIG
ZBAA,2025-06-17 20:30,ZBAA 172030Z VRB01MPS CAVOK 20/18 Q1003 NOSIG
ZBAA,2025-06-17 21:00,ZBAA 172100Z 00000MPS CAVOK 20/18 Q1003 NOSIG
ZBAA,2025-06-17 21:30,ZBAA 172130Z 16001MPS CAVOK 21/19 Q1003 NOSIG
ZBAA,2025-06-17 22:00,ZBAA 172200Z VRB01MPS CAVOK 22/18 Q1003 NOSIG
ZBAA,2025-06-17 22:30,ZBAA 172230Z 00000MPS CAVOK 24/19 Q1003 NOSIG
ZBAA,2025-06-17 23:00,ZBAA 172300Z VRB01MPS CAVOK 26/18 Q1004 NOSIG
ZBAA,2025-06-17 23:30,ZBAA 172330Z VRB01MPS CAVOK 25/19 Q1003 NOSIG
ZBAA,2025-06-18 00:00,ZBAA 180000Z 03002MPS CAVOK 25/19 Q1003 NOSIG
ZBAA,2025-06-18 00:30,ZBAA 180030Z 01002MPS CAVOK 27/18 Q1003 NOSIG
ZBAA,2025-06-18 01:00,ZBAA 180100Z VRB02MPS CAVOK 28/17 Q1003 NOSIG
ZBAA,2025-06-18 01:30,ZBAA 180130Z 13002MPS 070V170 CAVOK 28/17 Q1003 NOSIG
ZBAA,2025-06-18 02:00,ZBAA 180200Z 08002MPS 030V120 CAVOK 29/18 Q1003 NOSIG
ZBAA,2025-06-18 02:30,ZBAA 180230Z 10002MPS 030V180 CAVOK 30/18 Q1003 NOSIG
ZBAA,2025-06-18 03:00,ZBAA 180300Z VRB01MPS CAVOK 30/18 Q1003 NOSIG
ZBAA,2025-06-18 03:30,ZBAA 180330Z 10002MPS 040V200 CAVOK 31/18 Q1003 NOSIG
ZBAA,2025-06-18 04:00,ZBAA 180400Z VRB02MPS CAVOK 31/18 Q1002 NOSIG
ZBAA,2025-06-18 04:30,ZBAA 180430Z 18003MPS 120V260 CAVOK 32/19 Q1002 NOSIG
ZBAA,2025-06-18 05:00,ZBAA 180500Z VRB02G07MPS CAVOK 33/19 Q1002 NOSIG
ZBAA,2025-06-18 05:30,ZBAA 180530Z 17002MPS 120V240 CAVOK 33/19 Q1002 NOSIG
ZBAA,2025-06-18 06:00,ZBAA 180600Z 13002MPS 080V170 CAVOK 33/20 Q1002 NOSIG
ZBAA,2025-06-18 06:30,ZBAA 180630Z 14003MPS 090V170 CAVOK 33/19 Q1002 NOSIG
ZBAA,2025-06-18 07:00,ZBAA 180700Z 15002MPS 050V200 CAVOK 34/19 Q1001 NOSIG
ZBAA,2025-06-18 07:30,ZBAA 180730Z VRB01MPS CAVOK 34/20 Q1000 NOSIG
ZBAA,2025-06-18 08:00,ZBAA 180800Z 16003MPS 120V190 CAVOK 35/19 Q1000 NOSIG
ZBAA,2025-06-18 08:30,ZBAA 180830Z 16002MPS 120V200 CAVOK 35/20 Q1000 NOSIG
ZBAA,2025-06-18 09:00,ZBAA 180900Z 15003MPS CAVOK 35/21 Q1000 BECMG TL1040 14009MPS
ZBAA,2025-06-18 09:30,ZBAA 180930Z 14004MPS 100V170 CAVOK 34/21 Q1000 NOSIG
ZBAA,2025-06-18 10:00,ZBAA 181000Z 16007MPS 120V190 CAVOK 33/21 Q1000 BECMG TL1140 14002MPS
ZBAA,2025-06-18 10:30,ZBAA 181030Z 14003MPS CAVOK 32/20 Q1001 NOSIG
ZBAA,2025-06-18 11:00,ZBAA 181100Z VRB01MPS CAVOK 31/21 Q1001 NOSIG
ZBAA,2025-06-18 11:30,ZBAA 181130Z 14001MPS CAVOK 29/22 Q1001 NOSIG
ZBAA,2025-06-18 12:00,ZBAA 181200Z 16006MPS 120V180 CAVOK 30/20 Q1002 NOSIG
ZBAA,2025-06-18 12:30,ZBAA 181230Z 18005MPS CAVOK 30/19 Q1002 NOSIG
ZBAA,2025-06-18 13:00,ZBAA 181300Z 17005MPS CAVOK 29/18 Q1003 BECMG TL1440 33007MPS TS
ZBAA,2025-06-18 13:30,ZBAA 181330Z 17004MPS CAVOK 29/19 Q1003 NOSIG
ZBAA,2025-06-18 14:00,ZBAA 181400Z 17002MPS 130V220 9999 FEW040CB 28/19 Q1004 BECMG TL1420 33010G15MPS TSRA
ZBAA,2025-06-18 14:16,ZBAA 181416Z 24005MPS 150V270 9999 SCT040CB 29/19 Q1005 NOSIG
ZBAA,2025-06-18 14:30,ZBAA 181430Z 32011G17MPS 280V350 9999 TS SCT040CB 27/18 Q1005 NOSIG
ZBAA,2025-06-18 14:44,ZBAA 181444Z 35006MPS 320V020 9999 -TSRA BKN040CB 25/20 Q1005 NOSIG
ZBAA,2025-06-18 15:00,ZBAA 181500Z 35005MPS 9999 -TSRA BKN040CB 24/19 Q1006 BECMG TL1630 NSW
ZBAA,2025-06-18 15:30,ZBAA 181530Z 35005MPS 9999 -TSRA BKN040CB 23/21 Q1006 NOSIG
ZBAA,2025-06-18 16:00,ZBAA 181600Z 08002MPS 360V150 9999 -TSRA BKN040CB 23/21 Q1005 BECMG TL1640 NSW
ZBAA,2025-06-18 16:30,ZBAA 181630Z VRB01MPS 9999 -TSRA SCT040CB 24/21 Q1005 NOSIG
ZBAA,2025-06-18 16:53,ZBAA 181653Z 32006MPS 9999 -TSRA SCT040CB 24/22 Q1005 BECMG TL1840 TS
ZBAA,2025-06-18 17:00,ZBAA 181700Z 32007MPS 9999 -SHRA SCT040CB 23/22 Q1004 RETS BECMG TL1840 24004MPS TS
ZBAA,2025-06-18 17:20,ZBAA 181720Z 26004MPS 220V290 9999 -SHRA FEW040CB 23/22 Q1006 NOSIG
ZBAA,2025-06-18 17:30,ZBAA 181730Z 23002MPS 180V280 9999 -SHRA FEW040CB 23/21 Q1006 NOSIG
ZBAA,2025-06-18 18:00,ZBAA 181800Z VRB01MPS 9999 -SHRA FEW040CB 23/22 Q1006 BECMG TL1820 TS
ZBAA,2025-06-18 18:30,ZBAA 181830Z 20003MPS 170V240 9999 -TSRA SCT040CB 23/21 Q1007 NOSIG
ZBAA,2025-06-18 19:00,ZBAA 181900Z 20002MPS 130V260 9999 -TSRA BKN040CB 22/21 Q1007 BECMG TL2020 NSW
ZBAA,2025-06-18 19:30,ZBAA 181930Z VRB01MPS 9999 -TSRA FEW040CB 21/21 Q1006 NOSIG
ZBAA,2025-06-18 20:00,ZBAA 182000Z 12002MPS 080V180 9999 -TSRA FEW015 FEW040CB 21/21 Q1005 BECMG TL2020 NSW
ZBAA,2025-06-18 20:30,ZBAA 182030Z 32003MPS 240V360 9999 -SHRA FEW015 21/21 Q1005 RETS NOSIG
ZBAA,2025-06-18 21:00,ZBAA 182100Z 34003MPS 9999 -SHRA SCT010 21/20 Q1006 NOSIG
ZBAA,2025-06-18 21:30,ZBAA 182130Z 24002MPS 9999 FEW010 22/20 Q1006 NOSIG
ZBAA,2025-06-18 22:00,ZBAA 182200Z 03001MPS CAVOK 22/21 Q1006 NOSIG
ZBAA,2025-06-18 22:30,ZBAA 182230Z 01002MPS CAVOK 22/21 Q1006 NOSIG
ZBAA,2025-06-18 23:00,ZBAA 182300Z VRB01MPS CAVOK 23/21 Q1006 NOSIG
ZBAA,2025-06-18 23:30,ZBAA 182330Z VRB01MPS CAVOK 23/21 Q1006 NOSIG
ZBAA,2025-06-19 00:00,ZBAA 190000Z 03002MPS 360V060 CAVOK 23/21 Q1006 NOSIG
ZBAA,2025-06-19 00:30,ZBAA 190030Z 02002MPS CAVOK 24/21 Q1006 NOSIG
ZBAA,2025-06-19 01:00,ZBAA 190100Z VRB01MPS CAVOK 24/21 Q1007 NOSIG
ZBAA,2025-06-19 01:30,ZBAA 190130Z VRB01MPS CAVOK 24/21 Q1007 NOSIG
ZBAA,2025-06-19 02:00,ZBAA 190200Z 00000MPS CAVOK 24/21 Q1007 NOSIG
ZBAA,2025-06-19 02:30,ZBAA 190230Z VRB01MPS CAVOK 26/22 Q1007 NOSIG
ZBAA,2025-06-19 03:00,ZBAA 190300Z VRB01MPS CAVOK 26/21 Q1007 NOSIG
ZBAA,2025-06-19 03:30,ZBAA 190330Z 29002MPS 240V330 CAVOK 25/21 Q1007 NOSIG
ZBAA,2025-06-19 04:00,ZBAA 190400Z VRB02MPS CAVOK 26/21 Q1007 NOSIG
ZBAA,2025-06-19 04:30,ZBAA 190430Z VRB01MPS CAVOK 26/21 Q1007 NOSIG
ZBAA,2025-06-19 05:00,ZBAA 190500Z 06002MPS 020V120 CAVOK 26/21 Q1006 NOSIG
ZBAA,2025-06-19 05:30,ZBAA 190530Z VRB01MPS CAVOK 27/21 Q1006 NOSIG
ZBAA,2025-06-19 06:00,ZBAA 190600Z VRB01MPS CAVOK 27/21 Q1006 NOSIG
ZBAA,2025-06-19 06:30,ZBAA 190630Z 10002MPS 060V150 CAVOK 27/22 Q1006 NOSIG
ZBAA,2025-06-19 07:00,ZBAA 190700Z 16002MPS 110V220 CAVOK 28/20 Q1006 NOSIG
ZBAA,2025-06-19 07:30,ZBAA 190730Z VRB02MPS CAVOK 29/21 Q1005 NOSIG
ZBAA,2025-06-19 08:00,ZBAA 190800Z 11002MPS 070V160 CAVOK 28/21 Q1005 NOSIG
ZBAA,2025-06-19 08:30,ZBAA 190830Z 20003MPS 120V240 CAVOK 28/21 Q1005 NOSIG
ZBAA,2025-06-19 09:00,ZBAA 190900Z VRB01MPS CAVOK 29/21 Q1005 NOSIG
ZBAA,2025-06-19 09:30,ZBAA 190930Z VRB01MPS CAVOK 28/20 Q1005 NOSIG
ZBAA,2025-06-19 10:00,ZBAA 191000Z VRB01MPS CAVOK 28/21 Q1005 NOSIG
ZBAA,2025-06-19 10:30,ZBAA 191030Z 10001MPS CAVOK 27/23 Q1005 NOSIG
ZBAA,2025-06-19 11:00,ZBAA 191100Z 09001MPS CAVOK 26/22 Q1005 NOSIG
ZBAA,2025-06-19 11:30,ZBAA 191130Z 12001MPS CAVOK 26/22 Q1005 NOSIG
ZBAA,2025-06-19 12:00,ZBAA 191200Z 11001MPS CAVOK 25/22 Q1005 NOSIG
ZBAA,2025-06-19 12:30,ZBAA 191230Z 10001MPS CAVOK 24/22 Q1005 NOSIG
ZBAA,2025-06-19 13:00,ZBAA 191300Z 07001MPS CAVOK 23/22 Q1006 NOSIG
ZBAA,2025-06-19 13:30,ZBAA 191330Z 13002MPS 100V160 CAVOK 25/22 Q1006 NOSIG
ZBAA,2025-06-19 14:00,ZBAA 191400Z 15002MPS CAVOK 25/22 Q1006 NOSIG
ZBAA,2025-06-19 14:30,ZBAA 191430Z 15003MPS CAVOK 25/23 Q1006 NOSIG
ZBAA,2025-06-19 15:00,ZBAA 191500Z 15003MPS CAVOK 25/22 Q1006 NOSIG
ZBAA,2025-06-19 15:30,ZBAA 191530Z 15003MPS CAVOK 24/22 Q1006 NOSIG
ZBAA,2025-06-19 16:00,ZBAA 191600Z VRB01MPS 9999 SCT040 24/22 Q1006 NOSIG
ZBAA,2025-06-19 16:30,ZBAA 191630Z VRB01MPS 9999 SCT040 24/22 Q1006 NOSIG
ZBAA,2025-06-19 17:00,ZBAA 191700Z 12002MPS CAVOK 23/21 Q1006 NOSIG
ZBAA,2025-06-19 17:30,ZBAA 191730Z VRB01MPS CAVOK 23/22 Q1006 NOSIG
ZBAA,2025-06-19 18:00,ZBAA 191800Z 05001MPS CAVOK 22/21 Q1006 NOSIG
ZBAA,2025-06-19 18:30,ZBAA 191830Z 02002MPS CAVOK 22/22 Q1006 NOSIG
ZBAA,2025-06-19 19:00,ZBAA 191900Z 07001MPS CAVOK 22/21 Q1006 NOSIG
ZBAA,2025-06-19 19:30,ZBAA 191930Z 00000MPS 7000 NSC 22/21 Q1005 NOSIG
ZBAA,2025-06-19 20:00,ZBAA 192000Z 01001MPS 7000 NSC 21/21 Q1006 NOSIG
ZBAA,2025-06-19 20:30,ZBAA 192030Z 36002MPS 6000 NSC 21/21 Q1006 NOSIG
ZBAA,2025-06-19 21:00,ZBAA 192100Z 01002MPS 5000 BR NSC 22/21 Q1006 NOSIG
ZBAA,2025-06-19 21:30,ZBAA 192130Z 36003MPS 5000 BR NSC 22/22 Q1006 NOSIG
ZBAA,2025-06-19 22:00,ZBAA 192200Z 01002MPS 330V030 5000 BR NSC 23/22 Q1006 NOSIG
ZBAA,2025-06-19 22:30,ZBAA 192230Z 36002MPS 8000 NSC 24/22 Q1006 NOSIG
ZBAA,2025-06-19 23:00,ZBAA 192300Z 01002MPS 320V040 CAVOK 25/21 Q1007 NOSIG
ZBAA,2025-06-19 23:30,ZBAA 192330Z 01003MPS CAVOK 26/18 Q1007 NOSIG
ZBAA,2025-06-20 00:00,ZBAA 200000Z 01004MPS CAVOK 27/14 Q1007 NOSIG
ZBAA,2025-06-20 00:30,ZBAA 200030Z 01004MPS CAVOK 28/13 Q1007 NOSIG
ZBAA,2025-06-20 01:00,ZBAA 200100Z 01005MPS CAVOK 28/10 Q1007 NOSIG
ZBAA,2025-06-20 01:30,ZBAA 200130Z 36005MPS 330V030 CAVOK 30/10 Q1007 NOSIG
ZBAA,2025-06-20 02:00,ZBAA 200200Z 33004MPS 300V020 CAVOK 30/09 Q1007 NOSIG
ZBAA,2025-06-20 02:30,ZBAA 200230Z 02003MPS 360V070 CAVOK 30/11 Q1007 NOSIG
ZBAA,2025-06-20 03:00,ZBAA 200300Z 02002MPS 320V080 CAVOK 30/09 Q1007 NOSIG
ZBAA,2025-06-20 03:30,ZBAA 200330Z 34003MPS 280V030 CAVOK 31/07 Q1006 NOSIG
ZBAA,2025-06-20 04:00,ZBAA 200400Z 01004MPS 310V040 CAVOK 32/09 Q1006 NOSIG
ZBAA,2025-06-20 04:30,ZBAA 200430Z 34004MPS 290V070 CAVOK 32/09 Q1005 NOSIG
ZBAA,2025-06-20 05:00,ZBAA 200500Z 32004MPS 280V360 CAVOK 32/08 Q1005 NOSIG
ZBAA,2025-06-20 05:30,ZBAA 200530Z 08002MPS 020V190 CAVOK 32/10 Q1005 NOSIG
ZBAA,2025-06-20 05:33,ZBAA 200533Z 33005MPS 300V020 CAVOK 32/11 Q1005 NOSIG
ZBAA,2025-06-20 06:00,ZBAA 200600Z 31004MPS 260V020 CAVOK 33/09 Q1005 NOSIG
ZBAA,2025-06-20 06:30,ZBAA 200630Z VRB02MPS CAVOK 33/09 Q1004 NOSIG
ZBAA,2025-06-20 07:00,ZBAA 200700Z VRB01MPS CAVOK 33/10 Q1004 NOSIG
ZBAA,2025-06-20 07:30,ZBAA 200730Z VRB01MPS CAVOK 33/09 Q1004 NOSIG
ZBAA,2025-06-20 08:00,ZBAA 200800Z 18003MPS 130V230 CAVOK 33/10 Q1003 NOSIG
ZBAA,2025-06-20 08:30,ZBAA 200830Z 11002MPS 070V140 CAVOK 33/12 Q1003 NOSIG
ZBAA,2025-06-20 09:00,ZBAA 200900Z 14002MPS 090V190 CAVOK 33/11 Q1003 NOSIG
ZBAA,2025-06-20 09:30,ZBAA 200930Z 13002MPS CAVOK 32/12 Q1003 NOSIG
ZBAA,2025-06-20 10:00,ZBAA 201000Z 14002MPS 100V160 CAVOK 32/13 Q1003 NOSIG
ZBAA,2025-06-20 10:30,ZBAA 201030Z 15002MPS CAVOK 31/15 Q1003 NOSIG
ZBAA,2025-06-20 11:00,ZBAA 201100Z 16002MPS CAVOK 29/16 Q1004 NOSIG
ZBAA,2025-06-20 11:30,ZBAA 201130Z 16002MPS 130V210 CAVOK 28/14 Q1004 NOSIG
ZBAA,2025-06-20 12:00,ZBAA 201200Z 16002MPS CAVOK 25/17 Q1004 NOSIG
ZBAA,2025-06-20 12:30,ZBAA 201230Z 17002MPS CAVOK 26/15 Q1004 NOSIG
ZBAA,2025-06-20 13:00,ZBAA 201300Z 16002MPS CAVOK 25/14 Q1004 NOSIG
ZBAA,2025-06-20 13:30,ZBAA 201330Z 13002MPS CAVOK 22/16 Q1005 NOSIG
ZBAA,2025-06-20 14:00,ZBAA 201400Z VRB01MPS CAVOK 22/15 Q1005 NOSIG
ZBAA,2025-06-20 14:30,ZBAA 201430Z 17002MPS 140V220 CAVOK 22/15 Q1005 NOSIG
ZBAA,2025-06-20 15:00,ZBAA 201500Z 17002MPS 160V220 CAVOK 22/15 Q1005 NOSIG
ZBAA,2025-06-20 15:30,ZBAA 201530Z 19002MPS 170V240 CAVOK 23/14 Q1005 NOSIG
ZBAA,2025-06-20 16:00,ZBAA 201600Z VRB01MPS CAVOK 20/15 Q1004 NOSIG
ZBAA,2025-06-20 16:30,ZBAA 201630Z VRB01MPS CAVOK 23/14 Q1004 NOSIG
ZBAA,2025-06-20 17:00,ZBAA 201700Z 34003MPS CAVOK 22/16 Q1004 NOSIG
ZBAA,2025-06-20 17:30,ZBAA 201730Z 01002MPS CAVOK 21/15 Q1005 NOSIG
ZBAA,2025-06-20 18:00,ZBAA 201800Z 01002MPS CAVOK 19/16 Q1005 NOSIG
ZBAA,2025-06-20 18:30,ZBAA 201830Z 36003MPS CAVOK 20/16 Q1005 NOSIG
ZBAA,2025-06-20 19:00,ZBAA 201900Z 34002MPS CAVOK 19/16 Q1005 NOSIG
ZBAA,2025-06-20 19:30,ZBAA 201930Z 00000MPS CAVOK 18/16 Q1005 NOSIG
ZBAA,2025-06-20 20:00,ZBAA 202000Z VRB01MPS CAVOK 17/15 Q1005 NOSIG
ZBAA,2025-06-20 20:30,ZBAA 202030Z 34002MPS CAVOK 18/16 Q1006 NOSIG
ZBAA,2025-06-20 21:00,ZBAA 202100Z 36003MPS CAVOK 19/15 Q1006 NOSIG
ZBAA,2025-06-20 21:30,ZBAA 202130Z 35002MPS CAVOK 20/16 Q1006 NOSIG
ZBAA,2025-06-20 22:00,ZBAA 202200Z 34004MPS CAVOK 22/15 Q1006 NOSIG
ZBAA,2025-06-20 22:30,ZBAA 202230Z 33003MPS CAVOK 24/14 Q1007 NOSIG
ZBAA,2025-06-20 23:00,ZBAA 202300Z 34003MPS 300V010 CAVOK 25/14 Q1007 NOSIG
ZBAA,2025-06-20 23:30,ZBAA 202330Z 34003MPS CAVOK 26/15 Q1007 NOSIG
ZBAA,2025-06-21 00:00,ZBAA 210000Z 34003MPS 310V020 CAVOK 28/14 Q1007 NOSIG
ZBAA,2025-06-21 00:30,ZBAA 210030Z 32004MPS CAVOK 29/13 Q1007 NOSIG
ZBAA,2025-06-21 01:00,ZBAA 210100Z 34003MPS 310V020 CAVOK 30/13 Q1007 NOSIG
ZBAA,2025-06-21 01:30,ZBAA 210130Z 04003MPS 010V070 CAVOK 29/14 Q1007 NOSIG
ZBAA,2025-06-21 02:00,ZBAA 210200Z 03003MPS 360V070 CAVOK 30/13 Q1007 NOSIG
ZBAA,2025-06-21 02:30,ZBAA 210230Z 02003MPS 320V050 CAVOK 31/11 Q1007 NOSIG
ZBAA,2025-06-21 03:00,ZBAA 210300Z 06005MPS CAVOK 32/11 Q1007 NOSIG
ZBAA,2025-06-21 03:18,ZBAA 210318Z 34006MPS CAVOK 31/11 Q1007 NOSIG
ZBAA,2025-06-21 03:30,ZBAA 210330Z 05004MPS 020V080 CAVOK 32/12 Q1006 NOSIG
ZBAA,2025-06-21 04:00,ZBAA 210400Z 02004MPS 340V060 CAVOK 32/12 Q1006 NOSIG
ZBAA,2025-06-21 04:30,ZBAA 210430Z 01003MPS 300V090 CAVOK 32/11 Q1006 NOSIG
ZBAA,2025-06-21 05:00,ZBAA 210500Z 34003MPS 270V030 CAVOK 33/12 Q1005 NOSIG
ZBAA,2025-06-21 05:30,ZBAA 210530Z 04003MPS 010V070 CAVOK 32/11 Q1005 NOSIG
ZBAA,2025-06-21 06:00,ZBAA 210600Z 16002MPS 100V210 CAVOK 33/11 Q1005 NOSIG
ZBAA,2025-06-21 06:30,ZBAA 210630Z VRB01MPS CAVOK 34/13 Q1005 NOSIG
ZBAA,2025-06-21 07:00,ZBAA 210700Z VRB02MPS CAVOK 33/10 Q1004 NOSIG
ZBAA,2025-06-21 07:30,ZBAA 210730Z VRB01MPS CAVOK 34/11 Q1004 NOSIG
ZBAA,2025-06-21 08:00,ZBAA 210800Z 16003MPS 080V240 CAVOK 34/13 Q1004 NOSIG
ZBAA,2025-06-21 08:30,ZBAA 210830Z 15003MPS 120V180 CAVOK 33/13 Q1004 NOSIG
ZBAA,2025-06-21 09:00,ZBAA 210900Z VRB02MPS CAVOK 34/11 Q1004 NOSIG
ZBAA,2025-06-21 09:30,ZBAA 210930Z 16003MPS CAVOK 33/12 Q1004 NOSIG
ZBAA,2025-06-21 10:00,ZBAA 211000Z 17002MPS 120V220 CAVOK 33/13 Q1004 NOSIG
ZBAA,2025-06-21 10:30,ZBAA 211030Z 16002MPS 120V200 CAVOK 32/16 Q1004 NOSIG
ZBAA,2025-06-21 11:00,ZBAA 211100Z 17002MPS CAVOK 31/16 Q1004 NOSIG
ZBAA,2025-06-21 11:30,ZBAA 211130Z 18002MPS 150V220 CAVOK 28/16 Q1004 NOSIG
ZBAA,2025-06-21 12:00,ZBAA 211200Z 20004MPS 170V240 CAVOK 31/13 Q1004 NOSIG
ZBAA,2025-06-21 12:30,ZBAA 211230Z 20003MPS CAVOK 30/13 Q1005 NOSIG
ZBAA,2025-06-21 13:00,ZBAA 211300Z 21003MPS 180V270 CAVOK 31/13 Q1005 NOSIG
ZBAA,2025-06-21 13:30,ZBAA 211330Z 21004MPS 170V280 CAVOK 30/12 Q1005 NOSIG
ZBAA,2025-06-21 14:00,ZBAA 211400Z 19002MPS 170V250 CAVOK 28/15 Q1005 NOSIG
ZBAA,2025-06-21 14:30,ZBAA 211430Z VRB01MPS CAVOK 23/16 Q1005 NOSIG
ZBAA,2025-06-21 15:00,ZBAA 211500Z 00000MPS CAVOK 23/16 Q1005 NOSIG
ZBAA,2025-06-21 15:30,ZBAA 211530Z VRB01MPS CAVOK 22/16 Q1005 NOSIG
ZBAA,2025-06-21 16:00,ZBAA 211600Z VRB01MPS CAVOK 22/17 Q1005 NOSIG
ZBAA,2025-06-21 16:30,ZBAA 211630Z VRB01MPS CAVOK 21/16 Q1005 NOSIG
ZBAA,2025-06-21 17:00,ZBAA 211700Z 04001MPS CAVOK 21/17 Q1005 NOSIG
ZBAA,2025-06-21 17:30,ZBAA 211730Z 04001MPS CAVOK 20/17 Q1005 NOSIG
ZBAA,2025-06-21 18:00,ZBAA 211800Z 02002MPS CAVOK 20/17 Q1005 NOSIG
ZBAA,2025-06-21 18:30,ZBAA 211830Z 02002MPS CAVOK 20/17 Q1005 NOSIG
ZBAA,2025-06-21 19:00,ZBAA 211900Z VRB01MPS CAVOK 20/17 Q1005 NOSIG
ZBAA,2025-06-21 19:30,ZBAA 211930Z 02001MPS CAVOK 19/17 Q1005 NOSIG
ZBAA,2025-06-21 20:00,ZBAA 212000Z 01002MPS CAVOK 19/17 Q1005 NOSIG
ZBAA,2025-06-21 20:30,ZBAA 212030Z 01002MPS CAVOK 19/17 Q1006 NOSIG
ZBAA,2025-06-21 21:00,ZBAA 212100Z 35002MPS CAVOK 19/17 Q1005 NOSIG
ZBAA,2025-06-21 21:30,ZBAA 212130Z 36002MPS CAVOK 20/17 Q1006 NOSIG
ZBAA,2025-06-21 22:00,ZBAA 212200Z 36002MPS 340V050 CAVOK 22/18 Q1006 NOSIG
ZBAA,2025-06-21 22:30,ZBAA 212230Z 35003MPS CAVOK 24/17 Q1006 NOSIG
ZBAA,2025-06-21 23:00,ZBAA 212300Z 35002MPS 320V020 CAVOK 25/17 Q1006 NOSIG
ZBAA,2025-06-21 23:30,ZBAA 212330Z 36002MPS 320V040 CAVOK 26/17 Q1006 NOSIG
ZBAA,2025-06-22 00:00,ZBAA 220000Z 36002MPS 330V040 CAVOK 28/17 Q1006 NOSIG
ZBAA,2025-06-22 00:30,ZBAA 220030Z 02002MPS CAVOK 29/17 Q1006 NOSIG
ZBAA,2025-06-22 01:00,ZBAA 220100Z 02002MPS 350V050 CAVOK 30/16 Q1006 NOSIG
ZBAA,2025-06-22 01:30,ZBAA 220130Z 03002MPS 320V050 CAVOK 31/16 Q1006 NOSIG
ZBAA,2025-06-22 02:00,ZBAA 220200Z 03002MPS 340V050 CAVOK 32/16 Q1006 NOSIG
ZBAA,2025-06-22 02:30,ZBAA 220230Z 33002MPS 280V010 CAVOK 34/15 Q1006 NOSIG
ZBAA,2025-06-22 03:00,ZBAA 220300Z 35002MPS 260V050 CAVOK 34/16 Q1006 NOSIG
ZBAA,2025-06-22 03:30,ZBAA 220330Z 34002MPS 270V050 CAVOK 35/16 Q1006 NOSIG
ZBAA,2025-06-22 04:00,ZBAA 220400Z VRB02MPS CAVOK 36/15 Q1005 NOSIG
ZBAA,2025-06-22 04:30,ZBAA 220430Z 34002MPS 280V040 CAVOK 36/17 Q1005 NOSIG
ZBAA,2025-06-22 05:00,ZBAA 220500Z 02003MPS 310V090 CAVOK 36/16 Q1005 NOSIG
ZBAA,2025-06-22 05:30,ZBAA 220530Z 03002MPS 360V070 CAVOK 36/14 Q1004 NOSIG
ZBAA,2025-06-22 06:00,ZBAA 220600Z VRB01MPS CAVOK 36/15 Q1004 NOSIG
ZBAA,2025-06-22 06:30,ZBAA 220630Z 04002MPS 010V090 CAVOK 37/15 Q1004 NOSIG
ZBAA,2025-06-22 07:00,ZBAA 220700Z 02002MPS 340V050 CAVOK 37/16 Q1004 NOSIG
ZBAA,2025-06-22 07:30,ZBAA 220730Z VRB01MPS CAVOK 37/14 Q1003 NOSIG
ZBAA,2025-06-22 08:00,ZBAA 220800Z 17003MPS 130V220 CAVOK 37/14 Q1003 NOSIG
ZBAA,2025-06-22 08:30,ZBAA 220830Z 16002MPS 110V190 CAVOK 37/16 Q1003 NOSIG
ZBAA,2025-06-22 09:00,ZBAA 220900Z 15003MPS 100V180 CAVOK 37/14 Q1003 NOSIG
ZBAA,2025-06-22 09:30,ZBAA 220930Z 10002MPS 060V120 CAVOK 36/14 Q1003 NOSIG
ZBAA,2025-06-22 10:00,ZBAA 221000Z VRB01MPS CAVOK 35/14 Q1003 NOSIG
ZBAA,2025-06-22 10:30,ZBAA 221030Z 12002MPS CAVOK 34/17 Q1003 NOSIG
ZBAA,2025-06-22 11:00,ZBAA 221100Z 17002MPS CAVOK 32/20 Q1003 NOSIG
ZBAA,2025-06-22 11:30,ZBAA 221130Z 12001MPS CAVOK 28/20 Q1003 NOSIG
ZBAA,2025-06-22 12:00,ZBAA 221200Z VRB01MPS CAVOK 27/19 Q1003 NOSIG
ZBAA,2025-06-22 12:30,ZBAA 221230Z VRB01MPS CAVOK 27/20 Q1004 NOSIG
ZBAA,2025-06-22 13:00,ZBAA 221300Z 11002MPS 080V140 CAVOK 30/18 Q1004 NOSIG
ZBAA,2025-06-22 13:30,ZBAA 221330Z 10002MPS 070V130 CAVOK 28/18 Q1005 NOSIG
ZBAA,2025-06-22 14:00,ZBAA 221400Z 09002MPS CAVOK 28/18 Q1005 NOSIG
ZBAA,2025-06-22 14:30,ZBAA 221430Z 09001MPS CAVOK 25/20 Q1005 NOSIG
ZBAA,2025-06-22 15:00,ZBAA 221500Z VRB01MPS CAVOK 25/19 Q1005 NOSIG
ZBAA,2025-06-22 15:30,ZBAA 221530Z 03001MPS CAVOK 24/18 Q1005 NOSIG
ZBAA,2025-06-22 16:00,ZBAA 221600Z 36001MPS CAVOK 24/18 Q1005 NOSIG
ZBAA,2025-06-22 16:30,ZBAA 221630Z 03001MPS CAVOK 23/19 Q1005 NOSIG
ZBAA,2025-06-22 17:00,ZBAA 221700Z 05002MPS CAVOK 23/19 Q1005 NOSIG
ZBAA,2025-06-22 17:30,ZBAA 221730Z 06001MPS CAVOK 23/19 Q1005 NOSIG
ZBAA,2025-06-22 18:00,ZBAA 221800Z 05001MPS CAVOK 22/19 Q1005 NOSIG
ZBAA,2025-06-22 18:30,ZBAA 221830Z 06001MPS CAVOK 22/19 Q1005 NOSIG
ZBAA,2025-06-22 19:00,ZBAA 221900Z VRB01MPS CAVOK 22/19 Q1005 NOSIG
ZBAA,2025-06-22 19:30,ZBAA 221930Z VRB01MPS CAVOK 22/19 Q1005 NOSIG
ZBAA,2025-06-22 20:00,ZBAA 222000Z 02002MPS CAVOK 21/19 Q1005 NOSIG
ZBAA,2025-06-22 20:30,ZBAA 222030Z 35002MPS CAVOK 21/19 Q1005 NOSIG
ZBAA,2025-06-22 21:00,ZBAA 222100Z 01002MPS CAVOK 22/19 Q1005 NOSIG
ZBAA,2025-06-22 21:30,ZBAA 222130Z 35003MPS CAVOK 22/19 Q1005 NOSIG
ZBAA,2025-06-22 22:00,ZBAA 222200Z 36003MPS CAVOK 24/20 Q1005 NOSIG
ZBAA,2025-06-22 22:30,ZBAA 222230Z 01002MPS 340V040 CAVOK 25/20 Q1005 NOSIG
ZBAA,2025-06-22 23:00,ZBAA 222300Z 36003MPS CAVOK 27/19 Q1005 NOSIG
ZBAA,2025-06-22 23:30,ZBAA 222330Z 36002MPS CAVOK 28/19 Q1005 NOSIG
ZBAA,2025-06-23 00:00,ZBAA 230000Z 01003MPS 330V040 CAVOK 29/19 Q1005 NOSIG
ZBAA,2025-06-23 00:30,ZBAA 230030Z 02002MPS 330V050 CAVOK 30/19 Q1006 NOSIG
ZBAA,2025-06-23 01:00,ZBAA 230100Z 36002MPS 310V040 CAVOK 31/19 Q1005 NOSIG
ZBAA,2025-06-23 01:30,ZBAA 230130Z 02002MPS 350V050 CAVOK 31/18 Q1005 NOSIG
ZBAA,2025-06-23 02:00,ZBAA 230200Z 01003MPS 310V050 CAVOK 32/19 Q1005 NOSIG
ZBAA,2025-06-23 02:30,ZBAA 230230Z 02002MPS 350V060 CAVOK 33/17 Q1005 NOSIG
ZBAA,2025-06-23 03:00,ZBAA 230300Z 35002MPS 290V050 CAVOK 35/18 Q1005 NOSIG
ZBAA,2025-06-23 03:30,ZBAA 230330Z VRB01MPS CAVOK 34/18 Q1005 NOSIG
ZBAA,2025-06-23 04:00,ZBAA 230400Z VRB01MPS CAVOK 35/18 Q1005 NOSIG
ZBAA,2025-06-23 04:30,ZBAA 230430Z 21002MPS 170V260 CAVOK 35/17 Q1004 NOSIG
ZBAA,2025-06-23 05:00,ZBAA 230500Z VRB02MPS CAVOK 36/19 Q1004 NOSIG
ZBAA,2025-06-23 05:30,ZBAA 230530Z 19003MPS 140V230 CAVOK 36/18 Q1004 NOSIG
ZBAA,2025-06-23 06:00,ZBAA 230600Z 13003MPS 110V180 CAVOK 36/19 Q1003 NOSIG
ZBAA,2025-06-23 06:30,ZBAA 230630Z 20003MPS 140V260 CAVOK 37/16 Q1003 NOSIG
ZBAA,2025-06-23 07:00,ZBAA 230700Z 18003MPS 120V230 CAVOK 37/18 Q1003 NOSIG
ZBAA,2025-06-23 07:30,ZBAA 230730Z 19003MPS 130V300 CAVOK 37/18 Q1003 NOSIG
ZBAA,2025-06-23 08:00,ZBAA 230800Z 19003MPS 140V240 CAVOK 37/15 Q1003 NOSIG
ZBAA,2025-06-23 08:30,ZBAA 230830Z 16002MPS 120V220 CAVOK 37/17 Q1002 NOSIG
ZBAA,2025-06-23 09:00,ZBAA 230900Z 14002MPS CAVOK 37/17 Q1002 NOSIG
ZBAA,2025-06-23 09:30,ZBAA 230930Z 13002MPS CAVOK 36/19 Q1002 NOSIG
ZBAA,2025-06-23 10:00,ZBAA 231000Z 15002MPS CAVOK 36/18 Q1002 NOSIG
ZBAA,2025-06-23 10:30,ZBAA 231030Z 15002MPS CAVOK 34/21 Q1003 NOSIG
ZBAA,2025-06-23 11:00,ZBAA 231100Z VRB01MPS CAVOK 33/21 Q1003 NOSIG
ZBAA,2025-06-23 11:30,ZBAA 231130Z 17002MPS CAVOK 30/20 Q1003 NOSIG
ZBAA,2025-06-23 12:00,ZBAA 231200Z 16002MPS 140V210 CAVOK 28/20 Q1003 NOSIG
ZBAA,2025-06-23 12:30,ZBAA 231230Z 18002MPS CAVOK 28/20 Q1004 NOSIG
ZBAA,2025-06-23 13:00,ZBAA 231300Z VRB01MPS CAVOK 27/20 Q1004 NOSIG
ZBAA,2025-06-23 13:30,ZBAA 231330Z VRB01MPS CAVOK 26/20 Q1004 NOSIG
ZBAA,2025-06-23 14:00,ZBAA 231400Z 09001MPS CAVOK 26/20 Q1004 NOSIG
ZBAA,2025-06-23 14:30,ZBAA 231430Z 00000MPS CAVOK 26/20 Q1005 NOSIG
ZBAA,2025-06-23 15:00,ZBAA 231500Z VRB01MPS CAVOK 26/21 Q1005 NOSIG
ZBAA,2025-06-23 15:30,ZBAA 231530Z 36001MPS CAVOK 25/21 Q1005 NOSIG
ZBAA,2025-06-23 16:00,ZBAA 231600Z 07002MPS CAVOK 24/21 Q1005 NOSIG
ZBAA,2025-06-23 16:30,ZBAA 231630Z 08001MPS CAVOK 26/21 Q1005 NOSIG
ZBAA,2025-06-23 17:00,ZBAA 231700Z 05001MPS CAVOK 24/21 Q1005 NOSIG
ZBAA,2025-06-23 17:30,ZBAA 231730Z 04001MPS CAVOK 24/21 Q1005 NOSIG
ZBAA,2025-06-23 18:00,ZBAA 231800Z 00000MPS CAVOK 24/21 Q1005 NOSIG
ZBAA,2025-06-23 18:30,ZBAA 231830Z 04001MPS CAVOK 23/21 Q1005 NOSIG
ZBAA,2025-06-23 19:00,ZBAA 231900Z 00000MPS CAVOK 23/21 Q1006 NOSIG
ZBAA,2025-06-23 19:30,ZBAA 231930Z 03001MPS CAVOK 23/21 Q1006 NOSIG
ZBAA,2025-06-23 20:00,ZBAA 232000Z VRB01MPS CAVOK 22/21 Q1006 NOSIG
ZBAA,2025-06-23 20:30,ZBAA 232030Z 36002MPS CAVOK 22/20 Q1006 NOSIG
ZBAA,2025-06-23 21:00,ZBAA 232100Z 36001MPS CAVOK 22/20 Q1006 NOSIG
ZBAA,2025-06-23 21:30,ZBAA 232130Z 36002MPS CAVOK 23/20 Q1006 NOSIG
ZBAA,2025-06-23 22:00,ZBAA 232200Z 36002MPS CAVOK 24/21 Q1007 NOSIG
ZBAA,2025-06-23 22:30,ZBAA 232230Z 36002MPS CAVOK 26/21 Q1007 NOSIG
ZBAA,2025-06-23 23:00,ZBAA 232300Z 01002MPS CAVOK 27/20 Q1007 NOSIG
ZBAA,2025-06-23 23:30,ZBAA 232330Z 01002MPS CAVOK 28/20 Q1007 NOSIG
ZBAA,2025-06-24 00:00,ZBAA 240000Z VRB01MPS CAVOK 29/21 Q1007 NOSIG
ZBAA,2025-06-24 00:30,ZBAA 240030Z VRB01MPS CAVOK 31/20 Q1007 NOSIG
ZBAA,2025-06-24 01:00,ZBAA 240100Z 01002MPS CAVOK 32/20 Q1007 NOSIG
ZBAA,2025-06-24 01:30,ZBAA 240130Z 02002MPS 350V060 CAVOK 32/20 Q1007 NOSIG
ZBAA,2025-06-24 02:00,ZBAA 240200Z VRB01MPS CAVOK 33/20 Q1007 NOSIG
ZBAA,2025-06-24 02:30,ZBAA 240230Z VRB01MPS CAVOK 33/19 Q1007 NOSIG
ZBAA,2025-06-24 03:00,ZBAA 240300Z VRB01MPS CAVOK 34/20 Q1007 NOSIG
ZBAA,2025-06-24 03:30,ZBAA 240330Z VRB01MPS CAVOK 35/20 Q1007 NOSIG
ZBAA,2025-06-24 04:00,ZBAA 240400Z VRB02MPS CAVOK 36/21 Q1006 NOSIG
ZBAA,2025-06-24 04:30,ZBAA 240430Z 20002MPS 130V260 CAVOK 36/20 Q1006 NOSIG
ZBAA,2025-06-24 05:00,ZBAA 240500Z 27002MPS 210V300 CAVOK 36/19 Q1006 NOSIG
ZBAA,2025-06-24 05:30,ZBAA 240530Z VRB03G09MPS CAVOK 37/17 Q1006 NOSIG
ZBAA,2025-06-24 06:00,ZBAA 240600Z 27004MPS 250V320 CAVOK 38/18 Q1005 NOSIG
ZBAA,2025-06-24 06:30,ZBAA 240630Z 22003MPS 160V290 CAVOK 38/18 Q1005 NOSIG
ZBAA,2025-06-24 07:00,ZBAA 240700Z VRB03MPS CAVOK 38/18 Q1004 NOSIG
ZBAA,2025-06-24 07:30,ZBAA 240730Z 22003MPS 160V290 CAVOK 38/17 Q1004 NOSIG
ZBAA,2025-06-24 08:00,ZBAA 240800Z 20004MPS 170V260 CAVOK 38/15 Q1004 NOSIG
ZBAA,2025-06-24 08:30,ZBAA 240830Z 21004MPS 180V250 CAVOK 38/15 Q1004 NOSIG
ZBAA,2025-06-24 09:00,ZBAA 240900Z 20004MPS 160V260 CAVOK 38/15 Q1004 NOSIG
ZBAA,2025-06-24 09:30,ZBAA 240930Z 20004MPS 180V240 CAVOK 38/15 Q1004 NOSIG
ZBAA,2025-06-24 10:00,ZBAA 241000Z 21004MPS 150V260 CAVOK 38/14 Q1004 NOSIG
ZBAA,2025-06-24 10:30,ZBAA 241030Z 19003MPS 150V230 CAVOK 37/18 Q1004 NOSIG
ZBAA,2025-06-24 11:00,ZBAA 241100Z 18003MPS 140V220 CAVOK 35/17 Q1004 NOSIG
ZBAA,2025-06-24 11:30,ZBAA 241130Z 19003MPS 170V230 CAVOK 35/15 Q1005 NOSIG
ZBAA,2025-06-24 12:00,ZBAA 241200Z 19003MPS 170V230 CAVOK 34/15 Q1005 NOSIG
ZBAA,2025-06-24 12:30,ZBAA 241230Z 17002MPS CAVOK 30/18 Q1005 NOSIG
ZBAA,2025-06-24 13:00,ZBAA 241300Z 16002MPS CAVOK 28/18 Q1005 NOSIG
ZBAA,2025-06-24 13:30,ZBAA 241330Z 14002MPS CAVOK 27/18 Q1006 NOSIG
ZBAA,2025-06-24 14:00,ZBAA 241400Z 11004MPS 070V140 CAVOK 31/19 Q1006 NOSIG
ZBAA,2025-06-24 14:30,ZBAA 241430Z 10003MPS 060V140 CAVOK 30/19 Q1007 NOSIG
ZBAA,2025-06-24 15:00,ZBAA 241500Z 12004MPS 070V140 CAVOK 29/16 Q1007 NOSIG
ZBAA,2025-06-24 15:30,ZBAA 241530Z 11003MPS 070V140 CAVOK 29/18 Q1007 NOSIG
ZBAA,2025-06-24 16:00,ZBAA 241600Z 11003MPS 080V160 CAVOK 28/18 Q1007 NOSIG
ZBAA,2025-06-24 16:30,ZBAA 241630Z 12002MPS 080V170 CAVOK 28/17 Q1007 NOSIG
ZBAA,2025-06-24 17:00,ZBAA 241700Z VRB01MPS CAVOK 27/17 Q1007 NOSIG
ZBAA,2025-06-24 17:30,ZBAA 241730Z VRB01MPS CAVOK 26/17 Q1007 NOSIG
ZBAA,2025-06-24 18:00,ZBAA 241800Z VRB01MPS CAVOK 24/18 Q1007 NOSIG
ZBAA,2025-06-24 18:30,ZBAA 241830Z VRB01MPS CAVOK 23/19 Q1007 NOSIG
ZBAA,2025-06-24 19:00,ZBAA 241900Z VRB01MPS CAVOK 23/18 Q1007 NOSIG
ZBAA,2025-06-24 19:30,ZBAA 241930Z 00000MPS CAVOK 22/19 Q1007 NOSIG
ZBAA,2025-06-24 20:00,ZBAA 242000Z 18001MPS CAVOK 22/18 Q1007 NOSIG
ZBAA,2025-06-24 20:30,ZBAA 242030Z 16001MPS CAVOK 22/19 Q1007 NOSIG
ZBAA,2025-06-24 21:00,ZBAA 242100Z 17001MPS CAVOK 22/19 Q1007 NOSIG
ZBAA,2025-06-24 21:30,ZBAA 242130Z VRB01MPS CAVOK 23/19 Q1008 NOSIG
ZBAA,2025-06-24 22:00,ZBAA 242200Z 15001MPS CAVOK 23/20 Q1008 NOSIG
ZBAA,2025-06-24 22:30,ZBAA 242230Z VRB01MPS CAVOK 26/21 Q1008 NOSIG
ZBAA,2025-06-24 23:00,ZBAA 242300Z 11002MPS 070V160 CAVOK 27/18 Q1008 NOSIG
ZBAA,2025-06-24 23:30,ZBAA 242330Z 10002MPS 060V150 CAVOK 28/18 Q1008 NOSIG
ZBAA,2025-06-25 00:00,ZBAA 250000Z 06002MPS 020V100 CAVOK 28/17 Q1009 NOSIG
ZBAA,2025-06-25 00:30,ZBAA 250030Z 11002MPS 070V150 CAVOK 29/17 Q1009 NOSIG
ZBAA,2025-06-25 01:00,ZBAA 250100Z 10002MPS 050V170 CAVOK 30/18 Q1008 NOSIG
ZBAA,2025-06-25 01:30,ZBAA 250130Z 08002MPS 030V150 CAVOK 30/17 Q1008 NOSIG
ZBAA,2025-06-25 02:00,ZBAA 250200Z 05002MPS 360V110 CAVOK 30/17 Q1008 NOSIG
ZBAA,2025-06-25 02:30,ZBAA 250230Z VRB02MPS CAVOK 32/17 Q1008 NOSIG
ZBAA,2025-06-25 03:00,ZBAA 250300Z 12002MPS 040V160 CAVOK 31/17 Q1008 NOSIG
ZBAA,2025-06-25 03:30,ZBAA 250330Z VRB02MPS CAVOK 32/16 Q1008 NOSIG
ZBAA,2025-06-25 04:00,ZBAA 250400Z VRB01MPS CAVOK 33/17 Q1007 NOSIG
ZBAA,2025-06-25 04:30,ZBAA 250430Z 18003MPS 150V210 CAVOK 33/17 Q1007 NOSIG
ZBAA,2025-06-25 05:00,ZBAA 250500Z 17003MPS 150V210 CAVOK 34/18 Q1007 NOSIG
ZBAA,2025-06-25 05:30,ZBAA 250530Z VRB01MPS CAVOK 34/17 Q1007 NOSIG
ZBAA,2025-06-25 06:00,ZBAA 250600Z VRB01MPS CAVOK 34/18 Q1006 NOSIG
ZBAA,2025-06-25 06:30,ZBAA 250630Z 16002MPS 130V190 CAVOK 34/18 Q1006 NOSIG
ZBAA,2025-06-25 07:00,ZBAA 250700Z 13002MPS 090V250 CAVOK 35/18 Q1006 NOSIG
ZBAA,2025-06-25 07:30,ZBAA 250730Z 12002MPS CAVOK 34/19 Q1005 NOSIG
ZBAA,2025-06-25 08:00,ZBAA 250800Z 15002MPS 120V180 CAVOK 35/18 Q1005 NOSIG
ZBAA,2025-06-25 08:30,ZBAA 250830Z 15002MPS CAVOK 35/17 Q1005 NOSIG
ZBAA,2025-06-25 09:00,ZBAA 250900Z VRB01MPS CAVOK 35/17 Q1005 NOSIG
ZBAA,2025-06-25 09:30,ZBAA 250930Z VRB01MPS CAVOK 34/21 Q1004 NOSIG
ZBAA,2025-06-25 10:00,ZBAA 251000Z VRB01MPS CAVOK 33/21 Q1005 NOSIG
ZBAA,2025-06-25 10:30,ZBAA 251030Z 14001MPS CAVOK 32/21 Q1005 NOSIG
ZBAA,2025-06-25 11:00,ZBAA 251100Z 14004MPS 110V170 CAVOK 33/20 Q1005 NOSIG
ZBAA,2025-06-25 11:30,ZBAA 251130Z 14005MPS CAVOK 32/19 Q1005 NOSIG
ZBAA,2025-06-25 12:00,ZBAA 251200Z 15003MPS CAVOK 32/19 Q1005 NOSIG
ZBAA,2025-06-25 12:30,ZBAA 251230Z 15003MPS CAVOK 31/19 Q1006 NOSIG
ZBAA,2025-06-25 13:00,ZBAA 251300Z 15004MPS CAVOK 30/17 Q1006 NOSIG
ZBAA,2025-06-25 13:30,ZBAA 251330Z 16003MPS CAVOK 29/16 Q1006 NOSIG
ZBAA,2025-06-25 14:00,ZBAA 251400Z 14003MPS 100V170 CAVOK 29/16 Q1007 NOSIG
ZBAA,2025-06-25 14:30,ZBAA 251430Z VRB01MPS CAVOK 28/17 Q1007 NOSIG
ZBAA,2025-06-25 15:00,ZBAA 251500Z 08002MPS 050V120 CAVOK 28/17 Q1007 NOSIG
ZBAA,2025-06-25 15:30,ZBAA 251530Z VRB01MPS CAVOK 28/16 Q1007 NOSIG
ZBAA,2025-06-25 16:00,ZBAA 251600Z 07002MPS CAVOK 27/16 Q1007 NOSIG
ZBAA,2025-06-25 16:30,ZBAA 251630Z 09002MPS 060V140 CAVOK 27/16 Q1007 NOSIG
ZBAA,2025-06-25 17:00,ZBAA 251700Z 09002MPS 060V150 CAVOK 27/16 Q1007 NOSIG
ZBAA,2025-06-25 17:30,ZBAA 251730Z VRB01MPS CAVOK 26/16 Q1007 NOSIG
ZBAA,2025-06-25 18:00,ZBAA 251800Z VRB01MPS CAVOK 25/17 Q1007 NOSIG
ZBAA,2025-06-25 18:30,ZBAA 251830Z VRB01MPS CAVOK 24/18 Q1006 NOSIG
ZBAA,2025-06-25 19:00,ZBAA 251900Z VRB01MPS CAVOK 26/18 Q1006 NOSIG
ZBAA,2025-06-25 19:30,ZBAA 251930Z VRB01MPS CAVOK 26/18 Q1006 NOSIG
ZBAA,2025-06-25 20:00,ZBAA 252000Z VRB01MPS CAVOK 25/18 Q1006 NOSIG
ZBAA,2025-06-25 20:30,ZBAA 252030Z VRB01MPS CAVOK 24/18 Q1006 NOSIG
ZBAA,2025-06-25 21:00,ZBAA 252100Z 01001MPS CAVOK 23/19 Q1006 NOSIG
ZBAA,2025-06-25 21:30,ZBAA 252130Z 00000MPS CAVOK 23/19 Q1006 NOSIG
ZBAA,2025-06-25 22:00,ZBAA 252200Z 17001MPS CAVOK 24/21 Q1006 NOSIG
ZBAA,2025-06-25 22:30,ZBAA 252230Z VRB01MPS CAVOK 25/19 Q1007 NOSIG
ZBAA,2025-06-25 23:00,ZBAA 252300Z VRB01MPS CAVOK 27/20 Q1007 NOSIG
ZBAA,2025-06-25 23:30,ZBAA 252330Z VRB01MPS CAVOK 27/18 Q1007 NOSIG
ZBAA,2025-06-26 00:00,ZBAA 260000Z 16002MPS 040V180 CAVOK 28/18 Q1007 NOSIG
ZBAA,2025-06-26 00:30,ZBAA 260030Z VRB01MPS CAVOK 28/17 Q1007 NOSIG
ZBAA,2025-06-26 01:00,ZBAA 260100Z VRB01MPS CAVOK 28/18 Q1007 NOSIG
ZBAA,2025-06-26 01:30,ZBAA 260130Z 12002MPS 060V170 CAVOK 29/18 Q1007 NOSIG
ZBAA,2025-06-26 02:00,ZBAA 260200Z VRB01MPS CAVOK 28/18 Q1007 NOSIG
ZBAA,2025-06-26 02:30,ZBAA 260230Z 08002MPS 350V130 CAVOK 30/17 Q1007 NOSIG
ZBAA,2025-06-26 03:00,ZBAA 260300Z 14002MPS 090V210 CAVOK 30/16 Q1007 NOSIG
ZBAA,2025-06-26 03:30,ZBAA 260330Z VRB02MPS CAVOK 31/17 Q1006 NOSIG
ZBAA,2025-06-26 04:00,ZBAA 260400Z 07002MPS 360V140 CAVOK 30/17 Q1006 NOSIG
ZBAA,2025-06-26 04:30,ZBAA 260430Z 09002MPS 020V170 CAVOK 30/17 Q1006 NOSIG
ZBAA,2025-06-26 05:00,ZBAA 260500Z 08002MPS 030V130 CAVOK 31/16 Q1006 NOSIG
ZBAA,2025-06-26 05:30,ZBAA 260530Z 12002MPS 070V160 CAVOK 31/19 Q1006 NOSIG
ZBAA,2025-06-26 06:00,ZBAA 260600Z 15003MPS 060V190 CAVOK 31/17 Q1005 NOSIG
ZBAA,2025-06-26 06:30,ZBAA 260630Z 16003MPS 110V180 CAVOK 31/18 Q1005 NOSIG
ZBAA,2025-06-26 07:00,ZBAA 260700Z 16003MPS 130V190 CAVOK 31/19 Q1005 NOSIG
ZBAA,2025-06-26 07:30,ZBAA 260730Z 15003MPS 120V180 CAVOK 31/20 Q1005 NOSIG
ZBAA,2025-06-26 08:00,ZBAA 260800Z 14002MPS 100V180 CAVOK 31/20 Q1005 NOSIG
ZBAA,2025-06-26 08:30,ZBAA 260830Z 16002MPS 140V210 CAVOK 31/20 Q1005 NOSIG
ZBAA,2025-06-26 09:00,ZBAA 260900Z 14002MPS CAVOK 31/21 Q1004 NOSIG
ZBAA,2025-06-26 09:30,ZBAA 260930Z VRB01MPS CAVOK 31/21 Q1004 NOSIG
ZBAA,2025-06-26 10:00,ZBAA 261000Z 16002MPS 120V250 CAVOK 30/22 Q1004 NOSIG
ZBAA,2025-06-26 10:30,ZBAA 261030Z 17002MPS 140V230 CAVOK 30/21 Q1004 NOSIG
ZBAA,2025-06-26 11:00,ZBAA 261100Z VRB01MPS CAVOK 29/22 Q1004 NOSIG
ZBAA,2025-06-26 11:30,ZBAA 261130Z 19002MPS 160V280 CAVOK 30/20 Q1004 NOSIG
ZBAA,2025-06-26 12:00,ZBAA 261200Z 19004MPS 160V220 CAVOK 29/20 Q1004 NOSIG
ZBAA,2025-06-26 12:30,ZBAA 261230Z 18003MPS 150V210 CAVOK 28/20 Q1004 NOSIG
ZBAA,2025-06-26 13:00,ZBAA 261300Z 18004MPS CAVOK 29/20 Q1005 NOSIG
ZBAA,2025-06-26 13:30,ZBAA 261330Z 18004MPS 160V220 CAVOK 28/20 Q1005 NOSIG
ZBAA,2025-06-26 14:00,ZBAA 261400Z 18003MPS CAVOK 28/19 Q1005 NOSIG
ZBAA,2025-06-26 14:30,ZBAA 261430Z 20003MPS 150V260 CAVOK 28/19 Q1005 NOSIG
ZBAA,2025-06-26 15:00,ZBAA 261500Z 20002MPS 170V240 CAVOK 28/19 Q1005 NOSIG
ZBAA,2025-06-26 15:30,ZBAA 261530Z VRB02MPS CAVOK 26/19 Q1005 NOSIG
ZBAA,2025-06-26 16:00,ZBAA 261600Z 18001MPS CAVOK 24/20 Q1005 NOSIG
ZBAA,2025-06-26 16:30,ZBAA 261630Z 14001MPS CAVOK 23/20 Q1005 NOSIG
ZBAA,2025-06-26 17:00,ZBAA 261700Z 13001MPS CAVOK 24/20 Q1005 NOSIG
ZBAA,2025-06-26 17:30,ZBAA 261730Z VRB01MPS CAVOK 24/21 Q1005 NOSIG
ZBAA,2025-06-26 18:00,ZBAA 261800Z 14002MPS CAVOK 25/20 Q1005 NOSIG
ZBAA,2025-06-26 18:30,ZBAA 261830Z 13001MPS CAVOK 25/20 Q1004 NOSIG
ZBAA,2025-06-26 19:00,ZBAA 261900Z 10002MPS CAVOK 24/20 Q1004 NOSIG
ZBAA,2025-06-26 19:30,ZBAA 261930Z VRB01MPS CAVOK 23/21 Q1004 NOSIG
ZBAA,2025-06-26 20:00,ZBAA 262000Z 08002MPS 050V110 CAVOK 25/20 Q1004 NOSIG
ZBAA,2025-06-26 20:30,ZBAA 262030Z 10002MPS 060V140 CAVOK 25/19 Q1005 NOSIG
ZBAA,2025-06-26 21:00,ZBAA 262100Z 09001MPS CAVOK 25/19 Q1005 NOSIG
ZBAA,2025-06-26 21:30,ZBAA 262130Z 09001MPS CAVOK 24/20 Q1005 NOSIG
ZBAA,2025-06-26 22:00,ZBAA 262200Z VRB01MPS CAVOK 24/20 Q1005 NOSIG
ZBAA,2025-06-26 22:30,ZBAA 262230Z 15001MPS 9999 -SHRA NSC 24/20 Q1005 NOSIG
ZBAA,2025-06-26 23:00,ZBAA 262300Z VRB01MPS CAVOK 25/20 Q1005 NOSIG
ZBAA,2025-06-26 23:30,ZBAA 262330Z VRB01MPS CAVOK 25/20 Q1006 NOSIG
ZBAA,2025-06-27 00:00,ZBAA 270000Z 10002MPS 070V140 CAVOK 25/20 Q1005 NOSIG
ZBAA,2025-06-27 00:30,ZBAA 270030Z 16002MPS 120V190 CAVOK 25/20 Q1006 NOSIG
ZBAA,2025-06-27 01:00,ZBAA 270100Z 14002MPS 100V170 CAVOK 25/20 Q1006 NOSIG
ZBAA,2025-06-27 01:30,ZBAA 270130Z 10003MPS 060V130 CAVOK 25/20 Q1006 NOSIG
ZBAA,2025-06-27 02:00,ZBAA 270200Z 10002MPS 060V130 6000 NSC 24/21 Q1006 NOSIG
ZBAA,2025-06-27 02:30,ZBAA 270230Z 07003MPS 050V120 5000 BR NSC 24/21 Q1006 NOSIG
ZBAA,2025-06-27 03:00,ZBAA 270300Z 07002MPS 030V110 4000 BR NSC 24/22 Q1006 NOSIG
ZBAA,2025-06-27 03:30,ZBAA 270330Z 07002MPS 020V110 4000 BR NSC 25/22 Q1006 NOSIG
ZBAA,2025-06-27 04:00,ZBAA 270400Z VRB01MPS 4000 BR NSC 25/22 Q1006 NOSIG
ZBAA,2025-06-27 04:30,ZBAA 270430Z 01002MPS 320V050 4000 BR NSC 26/22 Q1005 NOSIG
ZBAA,2025-06-27 05:00,ZBAA 270500Z 34002MPS 280V030 4000 BR NSC 27/22 Q1005 NOSIG
ZBAA,2025-06-27 05:30,ZBAA 270530Z 35003MPS 300V010 5000 BR NSC 27/22 Q1005 NOSIG
ZBAA,2025-06-27 06:00,ZBAA 270600Z 35002MPS 310V040 5000 BR NSC 27/22 Q1005 NOSIG
ZBAA,2025-06-27 06:30,ZBAA 270630Z 07002MPS 010V110 5000 BR NSC 27/21 Q1004 NOSIG
ZBAA,2025-06-27 07:00,ZBAA 270700Z VRB01MPS 7000 NSC 27/21 Q1004 NOSIG
ZBAA,2025-06-27 07:30,ZBAA 270730Z VRB01MPS 7000 NSC 29/20 Q1004 NOSIG
ZBAA,2025-06-27 08:00,ZBAA 270800Z VRB01MPS 7000 NSC 28/20 Q1004 NOSIG
ZBAA,2025-06-27 08:30,ZBAA 270830Z 11002MPS 070V140 9999 FEW033 27/20 Q1004 NOSIG
ZBAA,2025-06-27 09:00,ZBAA 270900Z 09002MPS 050V120 9999 SCT033 26/21 Q1004 NOSIG
ZBAA,2025-06-27 09:30,ZBAA 270930Z 08003MPS 050V110 9999 SCT033 25/21 Q1004 NOSIG
ZBAA,2025-06-27 10:00,ZBAA 271000Z 19003MPS 150V220 CAVOK 25/21 Q1004 NOSIG
ZBAA,2025-06-27 10:30,ZBAA 271030Z 20003MPS 170V230 CAVOK 25/21 Q1004 NOSIG
ZBAA,2025-06-27 11:00,ZBAA 271100Z VRB01MPS CAVOK 25/21 Q1004 NOSIG
ZBAA,2025-06-27 11:30,ZBAA 271130Z VRB01MPS CAVOK 25/21 Q1004 NOSIG
ZBAA,2025-06-27 12:00,ZBAA 271200Z 10002MPS 060V140 CAVOK 25/20 Q1004 NOSIG
ZBAA,2025-06-27 12:30,ZBAA 271230Z VRB01MPS CAVOK 25/20 Q1005 NOSIG
ZBAA,2025-06-27 13:00,ZBAA 271300Z 15002MPS 110V180 CAVOK 25/21 Q1005 NOSIG
ZBAA,2025-06-27 13:30,ZBAA 271330Z 14002MPS 110V170 CAVOK 24/20 Q1005 NOSIG
ZBAA,2025-06-27 14:00,ZBAA 271400Z 18002MPS 150V220 CAVOK 24/21 Q1005 NOSIG
ZBAA,2025-06-27 14:30,ZBAA 271430Z 17002MPS CAVOK 24/20 Q1006 NOSIG
ZBAA,2025-06-27 15:00,ZBAA 271500Z 16002MPS CAVOK 24/20 Q1005 NOSIG
ZBAA,2025-06-27 15:30,ZBAA 271530Z 16002MPS CAVOK 24/21 Q1005 NOSIG
ZBAA,2025-06-27 16:00,ZBAA 271600Z 14002MPS CAVOK 24/21 Q1005 NOSIG
ZBAA,2025-06-27 16:30,ZBAA 271630Z 14002MPS CAVOK 23/21 Q1005 NOSIG
ZBAA,2025-06-27 17:00,ZBAA 271700Z VRB01MPS CAVOK 23/21 Q1005 NOSIG
ZBAA,2025-06-27 17:30,ZBAA 271730Z VRB01MPS CAVOK 23/21 Q1005 NOSIG
ZBAA,2025-06-27 18:00,ZBAA 271800Z 13001MPS CAVOK 23/21 Q1005 NOSIG
ZBAA,2025-06-27 18:30,ZBAA 271830Z 12001MPS CAVOK 22/21 Q1004 NOSIG
ZBAA,2025-06-27 19:00,ZBAA 271900Z 11001MPS CAVOK 23/21 Q1004 NOSIG
ZBAA,2025-06-27 19:30,ZBAA 271930Z VRB01MPS CAVOK 23/21 Q1004 NOSIG
ZBAA,2025-06-27 20:00,ZBAA 272000Z VRB01MPS CAVOK 22/21 Q1004 NOSIG
ZBAA,2025-06-27 20:30,ZBAA 272030Z 10001MPS 8000 NSC 23/21 Q1004 NOSIG
ZBAA,2025-06-27 21:00,ZBAA 272100Z 17002MPS 5000 BR FEW021 23/21 Q1004 NOSIG
ZBAA,2025-06-27 21:30,ZBAA 272130Z 15002MPS 5000 BR NSC 23/21 Q1004 NOSIG
ZBAA,2025-06-27 22:00,ZBAA 272200Z VRB01MPS 5000 BR NSC 23/21 Q1005 NOSIG
ZBAA,2025-06-27 22:30,ZBAA 272230Z 15002MPS 5000 BR NSC 23/21 Q1005 NOSIG
ZBAA,2025-06-27 23:00,ZBAA 272300Z 14002MPS 100V170 5000 BR NSC 23/21 Q1005 NOSIG
ZBAA,2025-06-27 23:30,ZBAA 272330Z 12002MPS 090V160 5000 BR NSC 24/22 Q1004 NOSIG
ZBAA,2025-06-28 00:00,ZBAA 280000Z 13002MPS 090V170 5000 BR NSC 24/21 Q1004 NOSIG
ZBAA,2025-06-28 00:30,ZBAA 280030Z 14003MPS 110V170 5000 BR NSC 25/21 Q1004 NOSIG
ZBAA,2025-06-28 01:00,ZBAA 280100Z 12002MPS 080V160 7000 NSC 25/21 Q1004 NOSIG
ZBAA,2025-06-28 01:30,ZBAA 280130Z VRB01MPS 8000 NSC 25/21 Q1004 NOSIG
ZBAA,2025-06-28 02:00,ZBAA 280200Z VRB01MPS 8000 NSC 26/21 Q1004 NOSIG
ZBAA,2025-06-28 02:30,ZBAA 280230Z 19002MPS 130V270 CAVOK 26/21 Q1004 NOSIG
ZBAA,2025-06-28 03:00,ZBAA 280300Z VRB01MPS CAVOK 26/21 Q1004 NOSIG
ZBAA,2025-06-28 03:30,ZBAA 280330Z VRB01MPS CAVOK 27/21 Q1004 NOSIG
ZBAA,2025-06-28 04:00,ZBAA 280400Z 14002MPS 070V200 CAVOK 28/22 Q1003 NOSIG
ZBAA,2025-06-28 04:30,ZBAA 280430Z VRB02MPS CAVOK 28/21 Q1003 NOSIG
ZBAA,2025-06-28 05:00,ZBAA 280500Z VRB01MPS CAVOK 29/21 Q1003 NOSIG
ZBAA,2025-06-28 05:30,ZBAA 280530Z VRB02G07MPS 9999 -RA NSC 28/22 Q1002 NOSIG
ZBAA,2025-06-28 06:00,ZBAA 280600Z VRB01MPS CAVOK 29/22 Q1002 NOSIG
ZBAA,2025-06-28 06:30,ZBAA 280630Z 16003MPS 120V210 CAVOK 29/23 Q1002 NOSIG
ZBAA,2025-06-28 07:00,ZBAA 280700Z 16003MPS 110V180 CAVOK 28/21 Q1002 NOSIG
ZBAA,2025-06-28 07:30,ZBAA 280730Z 15002MPS CAVOK 27/22 Q1001 NOSIG
ZBAA,2025-06-28 08:00,ZBAA 280800Z VRB01MPS CAVOK 27/22 Q1001 NOSIG
ZBAA,2025-06-28 08:30,ZBAA 280830Z VRB01MPS CAVOK 28/22 Q1001 NOSIG
ZBAA,2025-06-28 09:00,ZBAA 280900Z VRB01MPS CAVOK 28/22 Q1001 NOSIG
ZBAA,2025-06-28 09:30,ZBAA 280930Z VRB01MPS CAVOK 28/21 Q1001 NOSIG
ZBAA,2025-06-28 10:00,ZBAA 281000Z VRB01MPS CAVOK 28/22 Q1001 NOSIG
ZBAA,2025-06-28 10:30,ZBAA 281030Z 07001MPS CAVOK 27/23 Q1001 NOSIG
ZBAA,2025-06-28 11:00,ZBAA 281100Z 07002MPS 040V110 9999 FEW050CB 27/22 Q1001 NOSIG
ZBAA,2025-06-28 11:30,ZBAA 281130Z 06002MPS 9999 SCT050CB 26/22 Q1001 NOSIG
ZBAA,2025-06-28 12:00,ZBAA 281200Z 08002MPS 050V140 8000 -SHRA BKN050CB 25/22 Q1001 BECMG AT1250 TS
ZBAA,2025-06-28 12:15,ZBAA 281215Z VRB01MPS 7000 -TSRA BKN050CB 25/23 Q1001 NOSIG
ZBAA,2025-06-28 12:30,ZBAA 281230Z VRB01MPS 7000 -TSRA BKN050CB 25/23 Q1002 NOSIG
ZBAA,2025-06-28 13:00,ZBAA 281300Z 00000MPS 7000 -TSRA SCT050CB 24/23 Q1001 BECMG TL1320 NSW
ZBAA,2025-06-28 13:09,ZBAA 281309Z VRB01MPS 7000 -SHRA FEW050CB 24/23 Q1001 RETS NOSIG
ZBAA,2025-06-28 13:30,ZBAA 281330Z VRB01MPS 7000 -SHRA FEW050CB 24/23 Q1002 RETS NOSIG
ZBAA,2025-06-28 14:00,ZBAA 281400Z 18002MPS 150V210 7000 FEW050CB 24/23 Q1002 NOSIG
ZBAA,2025-06-28 14:30,ZBAA 281430Z 18003MPS 7000 -SHRA FEW050CB 25/22 Q1002 NOSIG
ZBAA,2025-06-28 15:00,ZBAA 281500Z 15002MPS 7000 -SHRA FEW050CB 24/23 Q1002 NOSIG
ZBAA,2025-06-28 15:30,ZBAA 281530Z 17003MPS 140V200 5000 -SHRA BR FEW050CB 24/22 Q1002 NOSIG
ZBAA,2025-06-28 16:00,ZBAA 281600Z 18003MPS 6000 -SHRA FEW050CB 24/22 Q1002 NOSIG
ZBAA,2025-06-28 16:30,ZBAA 281630Z 21002MPS 190V250 6000 -SHRA FEW050CB 24/22 Q1002 NOSIG
ZBAA,2025-06-28 17:00,ZBAA 281700Z VRB01MPS 5000 -SHRA BR NSC 23/22 Q1002 NOSIG
ZBAA,2025-06-28 17:30,ZBAA 281730Z VRB01MPS 5000 -SHRA BR NSC 24/22 Q1002 NOSIG
ZBAA,2025-06-28 18:00,ZBAA 281800Z 08002MPS 5000 -SHRA BR NSC 23/22 Q1002 NOSIG
ZBAA,2025-06-28 18:30,ZBAA 281830Z 07001MPS 5000 -SHRA BR NSC 23/22 Q1002 NOSIG
ZBAA,2025-06-28 19:00,ZBAA 281900Z VRB01MPS 5000 BR NSC 23/22 Q1002 NOSIG
ZBAA,2025-06-28 19:30,ZBAA 281930Z 06001MPS 5000 BR NSC 23/22 Q1002 NOSIG
ZBAA,2025-06-28 20:00,ZBAA 282000Z VRB01MPS 5000 BR NSC 23/22 Q1002 NOSIG
ZBAA,2025-06-28 20:30,ZBAA 282030Z VRB01MPS 4000 BR NSC 23/22 Q1002 NOSIG
ZBAA,2025-06-28 21:00,ZBAA 282100Z VRB01MPS 3500 BR NSC 23/22 Q1002 BECMG TL2220 2800
ZBAA,2025-06-28 21:30,ZBAA 282130Z 36001MPS 3500 BR NSC 23/22 Q1002 NOSIG
ZBAA,2025-06-28 22:00,ZBAA 282200Z 00000MPS 3200 BR NSC 23/22 Q1002 BECMG TL2220 2800
ZBAA,2025-06-28 22:30,COR ZBAA 282230Z 07001MPS 2800 BR NSC 24/23 Q1002 NOSIG
ZBAA,2025-06-28 23:00,ZBAA 282300Z VRB01MPS 2800 BR NSC 24/22 Q1003 BECMG TL2320 3200
ZBAA,2025-06-28 23:30,ZBAA 282330Z VRB01MPS 3200 BR NSC 25/22 Q1003 NOSIG
ZBAA,2025-06-29 00:00,ZBAA 290000Z VRB01MPS 3500 BR NSC 25/23 Q1003 NOSIG
ZBAA,2025-06-29 00:30,ZBAA 290030Z VRB01MPS 3500 BR NSC 26/22 Q1003 NOSIG
ZBAA,2025-06-29 01:00,ZBAA 290100Z 16002MPS 3500 BR NSC 26/22 Q1003 NOSIG
ZBAA,2025-06-29 01:30,ZBAA 290130Z 17002MPS 4000 BR NSC 26/23 Q1003 NOSIG
ZBAA,2025-06-29 02:00,ZBAA 290200Z VRB02MPS 4000 BR NSC 26/22 Q1002 NOSIG
ZBAA,2025-06-29 02:30,ZBAA 290230Z 10002MPS 050V160 4500 BR NSC 26/22 Q1002 NOSIG
ZBAA,2025-06-29 03:00,ZBAA 290300Z 09002MPS 050V140 5000 BR NSC 27/22 Q1002 NOSIG
ZBAA,2025-06-29 03:30,ZBAA 290330Z 08002MPS 020V160 5000 BR NSC 27/22 Q1002 NOSIG
ZBAA,2025-06-29 04:00,ZBAA 290400Z VRB02MPS 4000 BR NSC 29/23 Q1002 NOSIG
ZBAA,2025-06-29 04:30,ZBAA 290430Z VRB02MPS 4000 BR NSC 29/23 Q1002 NOSIG
ZBAA,2025-06-29 05:00,ZBAA 290500Z 08002MPS 020V140 4000 BR NSC 29/23 Q1002 NOSIG
ZBAA,2025-06-29 05:30,ZBAA 290530Z 15002MPS 080V200 4000 HZ NSC 30/23 Q1001 NOSIG
ZBAA,2025-06-29 06:00,ZBAA 290600Z VRB02MPS 5000 HZ NSC 30/22 Q1001 NOSIG
ZBAA,2025-06-29 06:30,ZBAA 290630Z VRB02MPS 5000 HZ NSC 31/22 Q1001 NOSIG
ZBAA,2025-06-29 07:00,ZBAA 290700Z 19003MPS 120V250 6000 NSC 31/22 Q1001 NOSIG
ZBAA,2025-06-29 07:30,ZBAA 290730Z 16002MPS 120V230 6000 NSC 31/22 Q1000 NOSIG
ZBAA,2025-06-29 08:00,ZBAA 290800Z 14003MPS 100V170 6000 NSC 31/22 Q1000 NOSIG
ZBAA,2025-06-29 08:30,ZBAA 290830Z 18003MPS 150V220 6000 NSC 31/22 Q1000 NOSIG
ZBAA,2025-06-29 09:00,ZBAA 290900Z 15003MPS 120V190 7000 BKN040 31/21 Q1000 NOSIG
ZBAA,2025-06-29 09:30,ZBAA 290930Z 15007G13MPS 7000 BKN040 FEW040TCU 28/22 Q1001 WS R01 NOSIG
ZBAA,2025-06-29 09:31,ZBAA 290931Z 14008G19MPS 7000 BKN040 FEW040TCU 26/23 Q1001 NOSIG
ZBAA,2025-06-29 09:48,ZBAA 290948Z 11003MPS 080V140 7000 R36L/P2000N R36R/P2000N R01/1200U -SHRA BKN040 FEW040CB 25/23 Q1001 NOSIG
ZBAA,2025-06-29 10:00,ZBAA 291000Z 12003MPS 080V150 8000 BKN040 FEW040CB 26/24 Q1001 NOSIG
ZBAA,2025-06-29 10:30,ZBAA 291030Z 09003MPS 060V130 8000 BKN040 26/24 Q1001 NOSIG
ZBAA,2025-06-29 11:00,ZBAA 291100Z 09003MPS 050V120 9999 FEW040 FEW040TCU 26/24 Q1001 NOSIG
ZBAA,2025-06-29 11:30,ZBAA 291130Z 11003MPS 070V140 9999 SCT040 FEW040TCU 25/23 Q1002 NOSIG
ZBAA,2025-06-29 12:00,ZBAA 291200Z 08002MPS 9999 BKN040 25/23 Q1002 NOSIG
ZBAA,2025-06-29 12:30,ZBAA 291230Z VRB01MPS 9999 BKN040 25/23 Q1002 NOSIG
ZBAA,2025-06-29 13:00,ZBAA 291300Z 36003MPS CAVOK 24/23 Q1003 NOSIG
ZBAA,2025-06-29 13:30,ZBAA 291330Z 04002MPS 010V070 8000 NSC 24/23 Q1003 NOSIG
ZBAA,2025-06-29 14:00,ZBAA 291400Z VRB01MPS 8000 NSC 24/23 Q1003 NOSIG
ZBAA,2025-06-29 14:30,ZBAA 291430Z VRB01MPS 8000 NSC 24/23 Q1003 NOSIG
ZBAA,2025-06-29 15:00,ZBAA 291500Z VRB01MPS 8000 NSC 24/23 Q1003 NOSIG
ZBAA,2025-06-29 15:30,ZBAA 291530Z 09002MPS 050V130 8000 BKN040 24/23 Q1003 NOSIG
ZBAA,2025-06-29 16:00,ZBAA 291600Z 13002MPS 8000 OVC040 24/23 Q1003 BECMG TL1740 TS
ZBAA,2025-06-29 16:30,ZBAA 291630Z 12002MPS 080V160 8000 OVC040 25/23 Q1003 NOSIG
ZBAA,2025-06-29 17:00,ZBAA 291700Z 12002MPS 8000 OVC040 24/23 Q1003 BECMG TL1740 TS
ZBAA,2025-06-29 17:30,ZBAA 291730Z 10002MPS 070V140 7000 FEW026 24/22 Q1003 NOSIG
ZBAA,2025-06-29 18:00,ZBAA 291800Z 14002MPS 100V170 7000 FEW026 25/23 Q1003 NOSIG
ZBAA,2025-06-29 18:30,ZBAA 291830Z 13002MPS 110V170 7000 NSC 24/23 Q1003 NOSIG
ZBAA,2025-06-29 19:00,ZBAA 291900Z VRB01MPS 7000 NSC 24/23 Q1003 NOSIG
ZBAA,2025-06-29 19:30,ZBAA 291930Z 05001MPS 7000 NSC 24/23 Q1003 NOSIG
ZBAA,2025-06-29 20:00,ZBAA 292000Z 11002MPS 080V140 7000 NSC 24/23 Q1003 NOSIG
ZBAA,2025-06-29 20:30,ZBAA 292030Z 11002MPS 050V150 6000 NSC 24/22 Q1003 NOSIG
ZBAA,2025-06-29 21:00,ZBAA 292100Z VRB01MPS 5000 BR NSC 24/22 Q1003 NOSIG
ZBAA,2025-06-29 21:30,ZBAA 292130Z VRB01MPS 4000 -RA BR NSC 24/22 Q1003 NOSIG
ZBAA,2025-06-29 22:00,ZBAA 292200Z VRB01MPS 4000 BR NSC 24/23 Q1003 NOSIG
ZBAA,2025-06-29 22:30,ZBAA 292230Z 18002MPS 150V250 3500 BR OVC040 24/23 Q1003 NOSIG
ZBAA,2025-06-29 23:00,ZBAA 292300Z 17002MPS 3500 BR OVC040 24/23 Q1004 NOSIG
ZBAA,2025-06-29 23:30,ZBAA 292330Z 15002MPS 3200 BR SCT010 OVC040 25/23 Q1004 NOSIG
ZBAA,2025-06-30 00:00,ZBAA 300000Z VRB01MPS 3500 BR SCT010 OVC040 25/23 Q1004 NOSIG
ZBAA,2025-06-30 00:30,ZBAA 300030Z 15002MPS 4000 BR SCT012 OVC040 25/23 Q1004 NOSIG
ZBAA,2025-06-30 01:00,ZBAA 300100Z 15002MPS 4000 BR SCT012 OVC040 26/23 Q1004 NOSIG
ZBAA,2025-06-30 01:30,ZBAA 300130Z 12002MPS 050V160 6000 SCT013 OVC040 26/23 Q1004 NOSIG
ZBAA,2025-06-30 02:00,ZBAA 300200Z 16002MPS 120V190 6000 SCT026 OVC040 27/23 Q1004 NOSIG
ZBAA,2025-06-30 02:30,ZBAA 300230Z 13002MPS 090V170 6000 SCT026 OVC040 27/23 Q1004 NOSIG
ZBAA,2025-06-30 03:00,ZBAA 300300Z VRB02MPS 6000 OVC040 28/24 Q1004 NOSIG
ZBAA,2025-06-30 03:30,ZBAA 300330Z VRB01MPS 6000 OVC040 29/23 Q1004 NOSIG
ZBAA,2025-06-30 04:00,ZBAA 300400Z 13003MPS 080V190 6000 NSC 29/23 Q1004 NOSIG
ZBAA,2025-06-30 04:30,ZBAA 300430Z VRB02MPS 8000 NSC 30/23 Q1003 NOSIG
ZBAA,2025-06-30 05:00,ZBAA 300500Z VRB02MPS 8000 NSC 30/23 Q1003 NOSIG
ZBAA,2025-06-30 05:30,ZBAA 300530Z 18003MPS 130V230 CAVOK 31/23 Q1003 NOSIG
ZBAA,2025-06-30 06:00,ZBAA 300600Z 17003MPS 120V230 CAVOK 31/23 Q1003 NOSIG
ZBAA,2025-06-30 06:30,ZBAA 300630Z 15003MPS 100V180 CAVOK 31/23 Q1002 NOSIG
ZBAA,2025-06-30 07:00,ZBAA 300700Z 15003MPS 110V180 CAVOK 31/22 Q1002 NOSIG
ZBAA,2025-06-30 07:30,ZBAA 300730Z 17003MPS 110V230 CAVOK 31/23 Q1002 NOSIG
ZBAA,2025-06-30 08:00,ZBAA 300800Z 15003MPS 110V200 CAVOK 32/23 Q1002 NOSIG
ZBAA,2025-06-30 08:30,ZBAA 300830Z 14003MPS CAVOK 31/23 Q1002 NOSIG
ZBAA,2025-06-30 09:00,ZBAA 300900Z 15003MPS CAVOK 31/23 Q1002 NOSIG
ZBAA,2025-06-30 09:30,ZBAA 300930Z 16003MPS CAVOK 31/23 Q1002 NOSIG
ZBAA,2025-06-30 10:00,ZBAA 301000Z 16004MPS CAVOK 30/23 Q1002 NOSIG
ZBAA,2025-06-30 10:30,ZBAA 301030Z 17004MPS CAVOK 30/23 Q1002 NOSIG
ZBAA,2025-06-30 11:00,ZBAA 301100Z 16003MPS CAVOK 30/23 Q1002 NOSIG
ZBAA,2025-06-30 11:30,ZBAA 301130Z 15003MPS CAVOK 29/23 Q1002 NOSIG
ZBAA,2025-06-30 12:00,ZBAA 301200Z 15002MPS CAVOK 29/23 Q1003 NOSIG
ZBAA,2025-06-30 12:30,ZBAA 301230Z 14002MPS CAVOK 28/23 Q1003 NOSIG
ZBAA,2025-06-30 13:00,ZBAA 301300Z 12002MPS 090V150 CAVOK 28/23 Q1003 NOSIG
ZBAA,2025-06-30 13:30,ZBAA 301330Z 14002MPS 110V170 CAVOK 28/23 Q1003 NOSIG
ZBAA,2025-06-30 14:00,ZBAA 301400Z 14003MPS CAVOK 28/23 Q1003 NOSIG
ZBAA,2025-06-30 14:30,ZBAA 301430Z 16002MPS 120V180 CAVOK 28/24 Q1004 NOSIG
ZBAA,2025-06-30 15:00,ZBAA 301500Z 14002MPS CAVOK 28/24 Q1004 BECMG TL1640 TS FEW040CB BKN040
ZBAA,2025-06-30 15:30,ZBAA 301530Z 14004MPS 9999 SCT040 29/24 Q1004 NOSIG
ZBAA,2025-06-30 16:00,ZBAA 301600Z 15003MPS 9999 -SHRA BKN040 28/24 Q1003 BECMG TL1620 TS FEW040CB BKN040
ZBAA,2025-06-30 16:11,ZBAA 301611Z 14003MPS 9999 -TSRA BKN040 FEW040CB 27/24 Q1003 NOSIG
ZBAA,2025-06-30 16:30,ZBAA 301630Z 15002MPS 9999 -TSRA BKN040 FEW040CB 27/24 Q1003 NOSIG
ZBAA,2025-06-30 16:43,ZBAA 301643Z 17003MPS 3500 TSRA BR BKN040 SCT040CB 27/24 Q1003 NOSIG
ZBAA,2025-06-30 16:48,ZBAA 301648Z 23006MPS 2000 +TSRA BR SCT040 BKN040CB 26/25 Q1004 NOSIG
ZBAA,2025-06-30 17:00,ZBAA 301700Z 18008G15MPS 140V230 1600 R36L/1400U R36R/1900U R01/1400U TSRA BR OVC040CB 24/23 Q1004 BECMG TL1840 3500 -RA
ZBAA,2025-06-30 17:15,ZBAA 301715Z 15003MPS 120V190 9999 -TSRA SCT013 SCT040CB 24/24 Q1003 RESHRA NOSIG
ZBAA,2025-06-30 17:30,ZBAA 301730Z 16002MPS 9999 -TSRA SCT013 SCT040CB 24/24 Q1003 RESHRA NOSIG
ZBAA,2025-06-30 18:00,ZBAA 301800Z 14002MPS 110V170 9999 TS FEW013 SCT040 FEW040CB 24/24 Q1004 BECMG TL1820 NSW
ZBAA,2025-06-30 18:12,ZBAA 301812Z 12002MPS 090V150 9999 FEW013 24/23 Q1004 RETS NOSIG
ZBAA,2025-06-30 18:30,ZBAA 301830Z 13003MPS 9999 FEW013 24/24 Q1003 RETS NOSIG
ZBAA,2025-06-30 19:00,ZBAA 301900Z VRB01MPS 8000 -SHRA NSC 25/24 Q1004 NOSIG
ZBAA,2025-06-30 19:30,ZBAA 301930Z VRB01MPS 6000 NSC 24/24 Q1004 NOSIG
ZBAA,2025-06-30 20:00,ZBAA 302000Z 07002MPS 040V100 5000 BR NSC 24/24 Q1003 NOSIG
ZBAA,2025-06-30 20:30,ZBAA 302030Z 09002MPS 060V140 5000 BR NSC 24/24 Q1003 NOSIG
ZBAA,2025-06-30 21:00,ZBAA 302100Z VRB01MPS 3500 BR NSC 24/24 Q1003 NOSIG
ZBAA,2025-06-30 21:30,ZBAA 302130Z VRB01MPS 3200 BR NSC 24/24 Q1003 NOSIG
ZBAA,2025-06-30 22:00,ZBAA 302200Z 12002MPS 080V160 3200 -SHRA BR NSC 25/24 Q1004 BECMG TL2320 TS
ZBAA,2025-06-30 22:30,ZBAA 302230Z VRB01MPS 3200 BR NSC 25/24 Q1004 NOSIG
ZBAA,2025-06-30 23:00,ZBAA 302300Z VRB01MPS 3200 BR NSC 25/24 Q1004 BECMG TL2340 TS
ZBAA,2025-06-30 23:30,ZBAA 302330Z 00000MPS 3200 BR NSC 25/24 Q1004 NOSIG
ZBAA,2025-07-01 00:00,ZBAA 010000Z 18002MPS 130V250 3200 -SHRA BR SCT033 25/24 Q1005 NOSIG
ZBAA,2025-07-01 00:30,ZBAA 010030Z 16002MPS 130V190 3200 -SHRA BR SCT013 26/24 Q1005 NOSIG
ZBAA,2025-07-01 01:00,ZBAA 010100Z 18004MPS 140V230 3200 BR SCT013 26/24 Q1005 NOSIG
ZBAA,2025-07-01 01:30,ZBAA 010130Z 16004MPS 9999 SCT013 26/23 Q1005 NOSIG
ZBAA,2025-07-01 02:00,ZBAA 010200Z 18005MPS 150V210 CAVOK 26/24 Q1005 NOSIG
ZBAA,2025-07-01 02:30,ZBAA 010230Z 17006MPS CAVOK 28/23 Q1005 NOSIG
ZBAA,2025-07-01 03:00,ZBAA 010300Z 19004MPS 160V230 CAVOK 28/24 Q1005 NOSIG
ZBAA,2025-07-01 03:30,ZBAA 010330Z 18005MPS CAVOK 28/24 Q1005 NOSIG
ZBAA,2025-07-01 04:00,ZBAA 010400Z 18004MPS CAVOK 28/24 Q1005 NOSIG
ZBAA,2025-07-01 04:30,ZBAA 010430Z 16004MPS CAVOK 28/24 Q1005 NOSIG
ZBAA,2025-07-01 05:00,ZBAA 010500Z 14002MPS 100V180 CAVOK 28/24 Q1004 NOSIG
ZBAA,2025-07-01 05:30,ZBAA 010530Z 17003MPS 140V200 CAVOK 30/24 Q1004 NOSIG
ZBAA,2025-07-01 06:00,ZBAA 010600Z 19005MPS 150V230 CAVOK 30/23 Q1004 NOSIG
ZBAA,2025-07-01 06:30,ZBAA 010630Z 20004MPS 160V220 CAVOK 31/24 Q1004 NOSIG
ZBAA,2025-07-01 07:00,ZBAA 010700Z 19003MPS 150V220 CAVOK 31/24 Q1003 NOSIG
ZBAA,2025-07-01 07:30,ZBAA 010730Z 14003MPS 100V170 CAVOK 31/25 Q1003 NOSIG
ZBAA,2025-07-01 08:00,ZBAA 010800Z 17004MPS 110V200 CAVOK 31/24 Q1003 NOSIG
ZBAA,2025-07-01 08:30,ZBAA 010830Z 15004MPS 120V180 CAVOK 31/24 Q1003 NOSIG
ZBAA,2025-07-01 09:00,ZBAA 010900Z 17004MPS 130V200 CAVOK 31/24 Q1003 NOSIG
ZBAA,2025-07-01 09:30,ZBAA 010930Z 16004MPS 130V190 CAVOK 31/24 Q1003 NOSIG
ZBAA,2025-07-01 10:00,ZBAA 011000Z 15004MPS CAVOK 30/25 Q1003 NOSIG
ZBAA,2025-07-01 10:30,ZBAA 011030Z 15004MPS CAVOK 30/25 Q1004 NOSIG
ZBAA,2025-07-01 11:00,ZBAA 011100Z 16003MPS CAVOK 29/24 Q1004 NOSIG
ZBAA,2025-07-01 11:30,ZBAA 011130Z 15003MPS CAVOK 29/25 Q1004 NOSIG
ZBAA,2025-07-01 12:00,ZBAA 011200Z 15002MPS CAVOK 28/25 Q1005 NOSIG
ZBAA,2025-07-01 12:30,ZBAA 011230Z 15003MPS CAVOK 28/25 Q1005 NOSIG
ZBAA,2025-07-01 13:00,ZBAA 011300Z 17002MPS 140V200 CAVOK 27/25 Q1005 NOSIG
ZBAA,2025-07-01 13:30,ZBAA 011330Z 16001MPS CAVOK 27/25 Q1006 NOSIG
ZBAA,2025-07-01 14:00,ZBAA 011400Z 14001MPS CAVOK 26/24 Q1006 NOSIG
ZBAA,2025-07-01 14:30,ZBAA 011430Z 15001MPS CAVOK 26/25 Q1006 NOSIG
ZBAA,2025-07-01 15:00,ZBAA 011500Z VRB01MPS CAVOK 26/25 Q1006 NOSIG
ZBAA,2025-07-01 15:30,ZBAA 011530Z 10002MPS CAVOK 26/25 Q1006 NOSIG
ZBAA,2025-07-01 16:00,ZBAA 011600Z VRB01MPS CAVOK 26/25 Q1006 NOSIG
ZBAA,2025-07-01 16:30,ZBAA 011630Z VRB01MPS 9999 FEW033 26/25 Q1006 NOSIG
ZBAA,2025-07-01 17:00,ZBAA 011700Z VRB01MPS 9999 FEW033 26/25 Q1006 NOSIG
ZBAA,2025-07-01 17:30,ZBAA 011730Z VRB01MPS 9999 FEW033 26/25 Q1006 NOSIG
ZBAA,2025-07-01 18:00,ZBAA 011800Z 09002MPS 070V130 CAVOK 26/25 Q1006 NOSIG
ZBAA,2025-07-01 18:30,ZBAA 011830Z VRB01MPS CAVOK 26/25 Q1006 NOSIG
ZBAA,2025-07-01 19:00,ZBAA 011900Z 06001MPS CAVOK 26/25 Q1006 NOSIG
ZBAA,2025-07-01 19:30,ZBAA 011930Z VRB01MPS CAVOK 26/25 Q1006 NOSIG
ZBAA,2025-07-01 20:00,ZBAA 012000Z VRB01MPS 7000 NSC 26/25 Q1006 NOSIG
ZBAA,2025-07-01 20:30,ZBAA 012030Z VRB01MPS 7000 NSC 25/25 Q1006 NOSIG
ZBAA,2025-07-01 21:00,ZBAA 012100Z VRB01MPS 5000 BR NSC 25/25 Q1007 NOSIG
ZBAA,2025-07-01 21:30,ZBAA 012130Z VRB01MPS 4500 BR NSC 25/24 Q1007 NOSIG
ZBAA,2025-07-01 22:00,ZBAA 012200Z 09002MPS 050V140 4500 BR NSC 26/25 Q1007 NOSIG
ZBAA,2025-07-01 22:30,ZBAA 012230Z 11002MPS 070V160 5000 BR NSC 26/25 Q1007 NOSIG
ZBAA,2025-07-01 23:00,ZBAA 012300Z VRB01MPS 5000 BR NSC 26/25 Q1008 NOSIG
ZBAA,2025-07-01 23:30,ZBAA 012330Z VRB01MPS 5000 BR NSC 27/25 Q1008 NOSIG
ZBAA,2025-07-02 00:00,ZBAA 020000Z VRB01MPS 5000 BR NSC 27/25 Q1008 NOSIG
ZBAA,2025-07-02 00:30,ZBAA 020030Z 16002MPS 4500 BR NSC 27/25 Q1007 NOSIG
ZBAA,2025-07-02 01:00,ZBAA 020100Z VRB01MPS 4500 BR NSC 28/25 Q1008 NOSIG
ZBAA,2025-07-02 01:30,ZBAA 020130Z VRB01MPS 5000 BR NSC 29/25 Q1007 NOSIG
ZBAA,2025-07-02 02:00,ZBAA 020200Z 21002MPS 130V260 5000 BR NSC 30/26 Q1007 NOSIG
ZBAA,2025-07-02 02:30,ZBAA 020230Z VRB02MPS 7000 NSC 30/26 Q1007 NOSIG
ZBAA,2025-07-02 03:00,ZBAA 020300Z 11002MPS 050V200 CAVOK 31/25 Q1007 NOSIG
ZBAA,2025-07-02 03:30,ZBAA 020330Z VRB01MPS CAVOK 32/26 Q1007 NOSIG
ZBAA,2025-07-02 04:00,ZBAA 020400Z 08002MPS 020V140 9999 BKN040 32/25 Q1006 NOSIG
ZBAA,2025-07-02 04:30,ZBAA 020430Z VRB02MPS 9999 BKN040 32/25 Q1006 NOSIG
ZBAA,2025-07-02 05:00,ZBAA 020500Z VRB01MPS 9999 BKN040 33/25 Q1005 NOSIG
ZBAA,2025-07-02 05:30,ZBAA 020530Z 09002MPS 060V140 9999 SCT040 32/25 Q1005 NOSIG
ZBAA,2025-07-02 06:00,ZBAA 020600Z 11002MPS 060V150 9999 SCT040 32/25 Q1005 NOSIG
ZBAA,2025-07-02 06:30,ZBAA 020630Z 10003MPS 060V160 CAVOK 33/24 Q1005 NOSIG
ZBAA,2025-07-02 07:00,ZBAA 020700Z 11002MPS 060V160 CAVOK 33/24 Q1004 NOSIG
ZBAA,2025-07-02 07:30,ZBAA 020730Z 10002MPS 060V140 CAVOK 32/24 Q1004 NOSIG
ZBAA,2025-07-02 08:00,ZBAA 020800Z 15003MPS 120V190 CAVOK 32/25 Q1004 NOSIG
ZBAA,2025-07-02 08:30,ZBAA 020830Z 15003MPS CAVOK 32/25 Q1004 NOSIG
ZBAA,2025-07-02 09:00,ZBAA 020900Z 18005MPS 150V210 CAVOK 32/25 Q1004 NOSIG
ZBAA,2025-07-02 09:30,ZBAA 020930Z 18006MPS CAVOK 31/25 Q1004 NOSIG
ZBAA,2025-07-02 10:00,ZBAA 021000Z 18005MPS 150V210 CAVOK 30/25 Q1004 NOSIG
ZBAA,2025-07-02 10:30,ZBAA 021030Z 15003MPS 110V180 CAVOK 29/25 Q1004 NOSIG
ZBAA,2025-07-02 11:00,ZBAA 021100Z 15003MPS 120V180 CAVOK 29/25 Q1004 NOSIG
ZBAA,2025-07-02 11:30,ZBAA 021130Z 16003MPS 130V200 CAVOK 29/25 Q1005 NOSIG
ZBAA,2025-07-02 12:00,ZBAA 021200Z 14005MPS 110V170 9999 SCT033 29/24 Q1005 NOSIG
ZBAA,2025-07-02 12:30,ZBAA 021230Z 14004MPS 120V180 9999 SCT033 27/24 Q1005 NOSIG
ZBAA,2025-07-02 13:00,ZBAA 021300Z 14003MPS 100V160 9999 SCT033 27/23 Q1005 NOSIG
ZBAA,2025-07-02 13:30,ZBAA 021330Z 13002MPS 100V170 9999 SCT033 26/23 Q1005 NOSIG
ZBAA,2025-07-02 14:00,ZBAA 021400Z 11002MPS 070V160 9999 SCT033 26/23 Q1005 NOSIG
ZBAA,2025-07-02 14:30,ZBAA 021430Z 11002MPS 050V150 9999 -SHRA BKN033 26/23 Q1004 NOSIG
ZBAA,2025-07-02 15:00,ZBAA 021500Z 13002MPS 090V160 9999 BKN030 26/23 Q1004 NOSIG
ZBAA,2025-07-02 15:30,ZBAA 021530Z 14003MPS 110V170 9999 -SHRA OVC030 26/24 Q1004 NOSIG
ZBAA,2025-07-02 16:00,ZBAA 021600Z 12002MPS 070V150 9999 -SHRA OVC030 26/24 Q1004 NOSIG
ZBAA,2025-07-02 16:30,ZBAA 021630Z VRB01MPS 9999 -SHRA OVC030 26/24 Q1003 NOSIG
ZBAA,2025-07-02 17:00,ZBAA 021700Z VRB01MPS 9999 -SHRA OVC030 26/24 Q1004 NOSIG
ZBAA,2025-07-02 17:30,ZBAA 021730Z VRB01MPS 9999 -SHRA OVC030 26/24 Q1003 NOSIG
ZBAA,2025-07-02 18:00,ZBAA 021800Z 04002MPS 9999 OVC030 26/24 Q1002 NOSIG
ZBAA,2025-07-02 18:30,ZBAA 021830Z 06002MPS 030V090 9999 OVC030 26/24 Q1002 NOSIG
ZBAA,2025-07-02 19:00,ZBAA 021900Z 09002MPS 040V140 9999 OVC030 26/24 Q1003 NOSIG
ZBAA,2025-07-02 19:30,ZBAA 021930Z VRB01MPS 9999 -SHRA OVC030 26/24 Q1003 NOSIG
ZBAA,2025-07-02 20:00,ZBAA 022000Z VRB01MPS 9999 -SHRA OVC030 26/24 Q1003 NOSIG
ZBAA,2025-07-02 20:30,ZBAA 022030Z VRB01MPS 9999 -SHRA OVC030 26/25 Q1002 NOSIG
ZBAA,2025-07-02 21:00,ZBAA 022100Z VRB01MPS 8000 OVC020 26/25 Q1003 NOSIG
ZBAA,2025-07-02 21:30,ZBAA 022130Z 09002MPS 050V120 8000 -SHRA BKN010 25/24 Q1003 NOSIG
ZBAA,2025-07-02 22:00,ZBAA 022200Z 10002MPS 060V140 7000 -SHRA BKN010 SCT033 25/24 Q1003 NOSIG
ZBAA,2025-07-02 22:30,ZBAA 022230Z VRB01MPS 3200 -SHRA BR BKN005 25/25 Q1003 NOSIG
ZBAA,2025-07-02 23:00,ZBAA 022300Z VRB01MPS 3500 -RA BR BKN005 25/25 Q1003 NOSIG
ZBAA,2025-07-02 23:30,ZBAA 022330Z 08001MPS 5000 -RA BR BKN003 25/25 Q1003 NOSIG
ZBAA,2025-07-03 00:00,ZBAA 030000Z 09002MPS 050V140 3200 -RA BR BKN003 25/25 Q1003 BECMG TL0020 2800
ZBAA,2025-07-03 00:30,ZBAA 030030Z VRB01MPS 4000 -RA BR BKN005 OVC030 25/25 Q1003 NOSIG
ZBAA,2025-07-03 01:00,ZBAA 030100Z VRB01MPS 7000 -RA BKN005 OVC030 26/25 Q1003 NOSIG
ZBAA,2025-07-03 01:30,ZBAA 030130Z 09002MPS 060V140 9999 BKN007 OVC030 26/25 Q1003 NOSIG
ZBAA,2025-07-03 02:00,ZBAA 030200Z 11002MPS 080V140 9999 BKN009 OVC040 26/25 Q1003 BECMG TL0320 BKN010 OVC030
ZBAA,2025-07-03 02:30,ZBAA 030230Z VRB01MPS 9999 BKN009 OVC040 27/25 Q1003 NOSIG
ZBAA,2025-07-03 03:00,ZBAA 030300Z VRB01MPS 9999 BKN009 OVC040 27/25 Q1003 BECMG TL0320 BKN010 OVC030
ZBAA,2025-07-03 03:30,ZBAA 030330Z 16002MPS 110V260 9999 BKN011 OVC040 28/25 Q1003 NOSIG
ZBAA,2025-07-03 04:00,ZBAA 030400Z VRB01MPS 9999 BKN016 OVC040 28/25 Q1002 NOSIG
ZBAA,2025-07-03 04:30,ZBAA 030430Z VRB01MPS 9999 BKN016 28/25 Q1002 NOSIG
ZBAA,2025-07-03 05:00,ZBAA 030500Z 16002MPS 130V190 9999 -RA SCT016 28/25 Q1002 BECMG TL0640 BKN010 OVC030
ZBAA,2025-07-03 05:30,ZBAA 030530Z 17002MPS 130V240 9999 -RA SCT016 28/25 Q1002 NOSIG
ZBAA,2025-07-03 06:00,ZBAA 030600Z 15002MPS 9999 -RA SCT016 27/26 Q1002 NOSIG
ZBAA,2025-07-03 06:30,ZBAA 030630Z VRB01MPS 9999 -RA BKN009 28/26 Q1002 NOSIG
ZBAA,2025-07-03 07:00,ZBAA 030700Z VRB01MPS 9999 BKN009 28/26 Q1002 BECMG TL0820 SCT016
ZBAA,2025-07-03 07:30,ZBAA 030730Z 12002MPS 080V170 9999 BKN009 28/26 Q1001 NOSIG
ZBAA,2025-07-03 08:00,ZBAA 030800Z 11002MPS 080V140 9999 BKN016 28/26 Q1001 NOSIG
ZBAA,2025-07-03 08:30,ZBAA 030830Z 12002MPS 060V180 9999 BKN016 29/25 Q1001 NOSIG
ZBAA,2025-07-03 09:00,ZBAA 030900Z VRB01MPS 9999 FEW016 BKN033 29/26 Q1001 NOSIG
ZBAA,2025-07-03 09:30,ZBAA 030930Z VRB01MPS 9999 FEW016 OVC033 28/26 Q1001 NOSIG
ZBAA,2025-07-03 10:00,ZBAA 031000Z VRB01MPS 9999 -RA OVC033 28/26 Q1001 NOSIG
ZBAA,2025-07-03 10:30,ZBAA 031030Z 15002MPS 110V180 8000 -RA BKN040 27/26 Q1001 NOSIG
ZBAA,2025-07-03 11:00,ZBAA 031100Z VRB01MPS 8000 NSC 27/26 Q1001 NOSIG
ZBAA,2025-07-03 11:30,ZBAA 031130Z VRB01MPS 7000 NSC 27/26 Q1001 NOSIG
ZBAA,2025-07-03 12:00,ZBAA 031200Z VRB01MPS 9999 FEW012 OVC040 27/26 Q1002 NOSIG
ZBAA,2025-07-03 12:30,ZBAA 031230Z 10002MPS 9999 FEW012 OVC040 27/26 Q1001 NOSIG
ZBAA,2025-07-03 13:00,ZBAA 031300Z VRB01MPS 9999 FEW012 27/26 Q1001 NOSIG
ZBAA,2025-07-03 13:30,ZBAA 031330Z VRB01MPS 9999 FEW012 27/26 Q1002 NOSIG
ZBAA,2025-07-03 14:00,ZBAA 031400Z 06001MPS 9999 SCT026 26/26 Q1002 NOSIG
ZBAA,2025-07-03 14:30,ZBAA 031430Z VRB01MPS 9999 SCT026 26/26 Q1002 NOSIG
ZBAA,2025-07-03 15:00,ZBAA 031500Z 11001MPS 8000 SCT026 26/26 Q1002 NOSIG
ZBAA,2025-07-03 15:30,ZBAA 031530Z 13001MPS 8000 SCT030 26/26 Q1001 NOSIG
ZBAA,2025-07-03 16:00,ZBAA 031600Z VRB01MPS 8000 SCT005 BKN033 26/26 Q1001 NOSIG
ZBAA,2025-07-03 16:30,ZBAA 031630Z 14002MPS 7000 SCT006 BKN033 26/26 Q1001 NOSIG
ZBAA,2025-07-03 17:00,ZBAA 031700Z 14002MPS 100V170 7000 SCT007 BKN033 26/26 Q1001 NOSIG
ZBAA,2025-07-03 17:30,ZBAA 031730Z VRB01MPS 6000 SCT009 BKN030 26/26 Q1002 NOSIG
ZBAA,2025-07-03 18:00,ZBAA 031800Z VRB01MPS 5000 BR SCT009 BKN030 26/26 Q1002 NOSIG
ZBAA,2025-07-03 18:30,ZBAA 031830Z 14001MPS 4500 BR SCT009 OVC030 26/26 Q1001 NOSIG
ZBAA,2025-07-03 19:00,ZBAA 031900Z 14001MPS 4500 BR SCT009 OVC030 26/26 Q1001 BECMG TL2040 2800
ZBAA,2025-07-03 19:30,ZBAA 031930Z VRB01MPS 4500 BR SCT009 OVC030 26/25 Q1001 NOSIG
ZBAA,2025-07-03 20:00,ZBAA 032000Z VRB01MPS 3500 BR SCT009 OVC030 26/26 Q1001 BECMG TL2040 2800
ZBAA,2025-07-03 20:30,ZBAA 032030Z 13002MPS 2800 BR SCT009 OVC030 26/25 Q1001 NOSIG
ZBAA,2025-07-03 21:00,ZBAA 032100Z VRB01MPS 2500 BR SCT009 OVC030 26/26 Q1002 BECMG TL2240 3200
ZBAA,2025-07-03 21:30,ZBAA 032130Z 12001MPS 2500 BR SCT009 OVC030 26/26 Q1002 NOSIG
ZBAA,2025-07-03 22:00,ZBAA 032200Z VRB01MPS 2500 BR SCT009 OVC030 26/26 Q1002 BECMG TL2240 3200
ZBAA,2025-07-03 22:30,ZBAA 032230Z 15001MPS 2500 BR FEW009 OVC030 26/26 Q1002 NOSIG
ZBAA,2025-07-03 23:00,ZBAA 032300Z 15002MPS 3000 BR FEW009 OVC030 27/26 Q1002 NOSIG
ZBAA,2025-07-03 23:30,ZBAA 032330Z VRB01MPS 3000 BR FEW009 OVC030 27/26 Q1002 NOSIG
ZBAA,2025-07-04 00:00,ZBAA 040000Z 17002MPS 130V190 3000 BR FEW009 OVC030 28/26 Q1002 NOSIG
ZBAA,2025-07-04 00:30,ZBAA 040030Z VRB01MPS 4000 BR FEW009 OVC030 28/26 Q1002 NOSIG
ZBAA,2025-07-04 01:00,ZBAA 040100Z 15002MPS 110V170 4000 BR BKN040 29/27 Q1002 NOSIG
ZBAA,2025-07-04 01:30,ZBAA 040130Z 18002MPS 140V210 5000 BR NSC 30/27 Q1002 NOSIG
ZBAA,2025-07-04 02:00,ZBAA 040200Z 20002MPS 130V240 6000 NSC 30/26 Q1002 NOSIG
ZBAA,2025-07-04 02:30,ZBAA 040230Z 18002MPS 110V270 6000 NSC 31/26 Q1001 NOSIG
ZBAA,2025-07-04 03:00,ZBAA 040300Z 12002MPS 070V170 8000 NSC 32/26 Q1001 NOSIG
ZBAA,2025-07-04 03:30,ZBAA 040330Z VRB01MPS CAVOK 32/25 Q1001 NOSIG
ZBAA,2025-07-04 04:00,ZBAA 040400Z VRB02MPS CAVOK 32/26 Q1001 NOSIG
ZBAA,2025-07-04 04:30,ZBAA 040430Z 14002MPS 120V180 8000 NSC 33/26 Q1001 NOSIG
ZBAA,2025-07-04 05:00,ZBAA 040500Z 15002MPS 070V230 8000 NSC 34/26 Q1000 NOSIG
ZBAA,2025-07-04 05:30,ZBAA 040530Z 14002MPS 100V180 8000 NSC 33/26 Q1000 NOSIG
ZBAA,2025-07-04 06:00,ZBAA 040600Z 19003MPS 150V250 CAVOK 34/26 Q1000 NOSIG
ZBAA,2025-07-04 06:30,ZBAA 040630Z 14002MPS 070V190 CAVOK 34/26 Q0999 NOSIG
ZBAA,2025-07-04 07:00,ZBAA 040700Z VRB01MPS CAVOK 34/27 Q0999 NOSIG
ZBAA,2025-07-04 07:30,ZBAA 040730Z 16003MPS 040V210 CAVOK 35/26 Q0999 NOSIG
ZBAA,2025-07-04 08:00,ZBAA 040800Z 17003MPS 140V200 CAVOK 35/26 Q0998 NOSIG
ZBAA,2025-07-04 08:30,ZBAA 040830Z 16003MPS 130V200 CAVOK 34/26 Q0998 NOSIG
ZBAA,2025-07-04 09:00,ZBAA 040900Z 15004MPS 120V180 CAVOK 34/26 Q0998 NOSIG
ZBAA,2025-07-04 09:30,ZBAA 040930Z 17003MPS 140V200 CAVOK 34/26 Q0998 NOSIG
ZBAA,2025-07-04 10:00,ZBAA 041000Z 15003MPS CAVOK 34/26 Q0998 NOSIG
ZBAA,2025-07-04 10:30,ZBAA 041030Z 16003MPS CAVOK 33/26 Q0998 NOSIG
ZBAA,2025-07-04 11:00,ZBAA 041100Z 16002MPS CAVOK 33/26 Q0998 NOSIG
ZBAA,2025-07-04 11:30,ZBAA 041130Z 15002MPS CAVOK 32/26 Q0999 NOSIG
ZBAA,2025-07-04 12:00,ZBAA 041200Z 14002MPS CAVOK 31/27 Q0999 NOSIG
ZBAA,2025-07-04 12:30,ZBAA 041230Z 14002MPS CAVOK 31/26 Q0999 NOSIG
ZBAA,2025-07-04 13:00,ZBAA 041300Z 12001MPS CAVOK 30/27 Q0999 NOSIG
ZBAA,2025-07-04 13:30,ZBAA 041330Z 11001MPS CAVOK 30/27 Q0999 NOSIG
ZBAA,2025-07-04 14:00,ZBAA 041400Z 12001MPS CAVOK 29/27 Q0999 NOSIG
ZBAA,2025-07-04 14:30,ZBAA 041430Z 14002MPS 110V170 CAVOK 30/27 Q0999 NOSIG
ZBAA,2025-07-04 15:00,ZBAA 041500Z 16002MPS 130V190 CAVOK 30/27 Q0999 NOSIG
ZBAA,2025-07-04 15:30,ZBAA 041530Z 12002MPS 090V150 CAVOK 29/27 Q0998 NOSIG
ZBAA,2025-07-04 16:00,ZBAA 041600Z 13002MPS CAVOK 29/27 Q0998 NOSIG
ZBAA,2025-07-04 16:30,ZBAA 041630Z 13002MPS 100V160 CAVOK 30/27 Q0998 NOSIG
ZBAA,2025-07-04 17:00,ZBAA 041700Z VRB01MPS 7000 NSC 29/27 Q0998 NOSIG
ZBAA,2025-07-04 17:30,ZBAA 041730Z 09001MPS 6000 NSC 29/27 Q0998 NOSIG
ZBAA,2025-07-04 18:00,ZBAA 041800Z VRB01MPS 5000 BR NSC 29/27 Q0997 BECMG TL1920 20008MPS TS
ZBAA,2025-07-04 18:30,ZBAA 041830Z 04002MPS 5000 -SHRA BR FEW040CB 29/27 Q0997 NOSIG
ZBAA,2025-07-04 19:00,ZBAA 041900Z VRB01MPS 4000 -SHRA BR SCT040CB 28/27 Q0997 BECMG TL1910 20007MPS TS
ZBAA,2025-07-04 19:05,ZBAA 041905Z VRB01MPS 4000 -TSRA BR SCT040CB 28/27 Q0997 NOSIG
ZBAA,2025-07-04 19:30,ZBAA 041930Z VRB01MPS 3000 -TSRA BR OVC040CB 28/27 Q0998 NOSIG
ZBAA,2025-07-04 19:35,ZBAA 041935Z VRB01MPS 3000 TSRA BR OVC040CB 28/27 Q0998 NOSIG
ZBAA,2025-07-04 20:00,ZBAA 042000Z 25007MPS 210V280 0900 R36L/1400D R36R/1300D R01/1500D +TSRA OVC033CB 27/26 Q0998 BECMG TL2100 07002MPS 2700 -SHRA BR
ZBAA,2025-07-04 20:06,ZBAA 042006Z 11002MPS 070V220 2000 TSRA BR OVC033CB 25/25 Q0997 NOSIG
ZBAA,2025-07-04 20:30,ZBAA 042030Z VRB01MPS 9999 -TSRA FEW013 FEW040CB 25/25 Q0997 RESHRA NOSIG
ZBAA,2025-07-04 21:00,ZBAA 042100Z 36004MPS 9999 -SHRA SCT010 26/25 Q0998 RETS NOSIG
ZBAA,2025-07-04 21:30,ZBAA 042130Z VRB01MPS 9999 -SHRA SCT016 26/25 Q0998 NOSIG
ZBAA,2025-07-04 22:00,ZBAA 042200Z 00000MPS CAVOK 26/26 Q0998 NOSIG
ZBAA,2025-07-04 22:30,ZBAA 042230Z VRB01MPS CAVOK 26/26 Q0997 NOSIG
ZBAA,2025-07-04 23:00,ZBAA 042300Z VRB01MPS CAVOK 26/26 Q0997 NOSIG
ZBAA,2025-07-04 23:30,ZBAA 042330Z VRB01MPS CAVOK 26/26 Q0997 NOSIG
ZBAA,2025-07-05 00:00,ZBAA 050000Z 33004MPS CAVOK 27/26 Q0998 NOSIG
ZBAA,2025-07-05 00:30,ZBAA 050030Z 35003MPS CAVOK 27/26 Q0998 NOSIG
ZBAA,2025-07-05 01:00,ZBAA 050100Z 33004MPS CAVOK 28/26 Q0998 NOSIG
ZBAA,2025-07-05 01:30,ZBAA 050130Z VRB01MPS CAVOK 30/26 Q0998 NOSIG
ZBAA,2025-07-05 02:00,ZBAA 050200Z 26002MPS 210V350 CAVOK 31/26 Q0998 NOSIG
ZBAA,2025-07-05 02:30,ZBAA 050230Z 31006MPS CAVOK 33/25 Q0998 NOSIG
ZBAA,2025-07-05 03:00,ZBAA 050300Z 31005G10MPS 280V350 CAVOK 34/25 Q0998 NOSIG
ZBAA,2025-07-05 03:30,ZBAA 050330Z 30007MPS CAVOK 34/22 Q0998 NOSIG
ZBAA,2025-07-05 04:00,ZBAA 050400Z 31008MPS CAVOK 34/21 Q0998 NOSIG
ZBAA,2025-07-05 04:30,ZBAA 050430Z 32009MPS CAVOK 35/21 Q0999 NOSIG
ZBAA,2025-07-05 05:00,ZBAA 050500Z 33007MPS 300V360 CAVOK 35/22 Q0999 NOSIG
ZBAA,2025-07-05 05:30,ZBAA 050530Z 35005MPS 320V040 CAVOK 36/23 Q0998 NOSIG
ZBAA,2025-07-05 06:00,ZBAA 050600Z 03004MPS 360V070 CAVOK 35/22 Q0998 NOSIG
ZBAA,2025-07-05 06:12,ZBAA 050612Z 29006MPS CAVOK 35/21 Q0998 NOSIG
ZBAA,2025-07-05 06:30,ZBAA 050630Z 30006MPS 260V330 CAVOK 36/22 Q0998 NOSIG
ZBAA,2025-07-05 07:00,ZBAA 050700Z 32008G13MPS CAVOK 36/21 Q0999 NOSIG
ZBAA,2025-07-05 07:30,ZBAA 050730Z 32008MPS CAVOK 36/20 Q0999 NOSIG
ZBAA,2025-07-05 08:00,ZBAA 050800Z 32008MPS CAVOK 35/20 Q0999 NOSIG
ZBAA,2025-07-05 08:30,ZBAA 050830Z 31009MPS CAVOK 35/19 Q0999 NOSIG
ZBAA,2025-07-05 09:00,ZBAA 050900Z 32008MPS 280V340 CAVOK 36/20 Q0999 NOSIG
ZBAA,2025-07-05 09:30,ZBAA 050930Z 36007MPS CAVOK 35/20 Q1000 NOSIG
ZBAA,2025-07-05 10:00,ZBAA 051000Z 36006MPS CAVOK 33/20 Q1000 NOSIG
ZBAA,2025-07-05 10:30,ZBAA 051030Z 01005MPS CAVOK 33/20 Q1000 NOSIG
ZBAA,2025-07-05 11:00,ZBAA 051100Z 01004MPS CAVOK 32/20 Q1001 NOSIG
ZBAA,2025-07-05 11:30,ZBAA 051130Z 01003MPS CAVOK 31/21 Q1001 NOSIG
ZBAA,2025-07-05 12:00,ZBAA 051200Z 01003MPS CAVOK 30/21 Q1002 NOSIG
ZBAA,2025-07-05 12:30,ZBAA 051230Z 33005MPS CAVOK 32/19 Q1002 NOSIG
ZBAA,2025-07-05 13:00,ZBAA 051300Z 34004MPS 310V020 CAVOK 30/20 Q1003 NOSIG
ZBAA,2025-07-05 13:30,ZBAA 051330Z 34003MPS 310V010 CAVOK 29/20 Q1003 NOSIG
ZBAA,2025-07-05 14:00,ZBAA 051400Z 36002MPS CAVOK 28/21 Q1003 NOSIG
ZBAA,2025-07-05 14:30,ZBAA 051430Z 35003MPS CAVOK 27/20 Q1003 NOSIG
ZBAA,2025-07-05 15:00,ZBAA 051500Z 36003MPS CAVOK 27/20 Q1004 NOSIG
ZBAA,2025-07-05 15:30,ZBAA 051530Z 35003MPS 310V010 CAVOK 28/20 Q1004 NOSIG
ZBAA,2025-07-05 16:00,ZBAA 051600Z 34004MPS CAVOK 28/20 Q1004 NOSIG
ZBAA,2025-07-05 16:30,ZBAA 051630Z 02002MPS CAVOK 27/20 Q1004 NOSIG
ZBAA,2025-07-05 17:00,ZBAA 051700Z 35003MPS CAVOK 26/20 Q1005 NOSIG
ZBAA,2025-07-05 17:30,ZBAA 051730Z 02002MPS CAVOK 25/20 Q1005 NOSIG
ZBAA,2025-07-05 18:00,ZBAA 051800Z 35002MPS CAVOK 25/20 Q1005 NOSIG
ZBAA,2025-07-05 18:30,ZBAA 051830Z 36002MPS CAVOK 25/20 Q1005 NOSIG
ZBAA,2025-07-05 19:00,ZBAA 051900Z 35002MPS CAVOK 24/21 Q1005 NOSIG
ZBAA,2025-07-05 19:30,ZBAA 051930Z 35003MPS CAVOK 24/20 Q1005 NOSIG
ZBAA,2025-07-05 20:00,ZBAA 052000Z 34003MPS CAVOK 24/21 Q1005 NOSIG
ZBAA,2025-07-05 20:30,ZBAA 052030Z 34003MPS CAVOK 25/20 Q1005 NOSIG
ZBAA,2025-07-05 21:00,ZBAA 052100Z 35003MPS CAVOK 25/20 Q1006 NOSIG
ZBAA,2025-07-05 21:30,ZBAA 052130Z 36002MPS CAVOK 26/20 Q1006 NOSIG
ZBAA,2025-07-05 22:00,ZBAA 052200Z 36003MPS CAVOK 26/21 Q1006 NOSIG
ZBAA,2025-07-05 22:30,ZBAA 052230Z 36003MPS CAVOK 26/20 Q1007 NOSIG
ZBAA,2025-07-05 23:00,ZBAA 052300Z 36002MPS CAVOK 27/21 Q1007 NOSIG
ZBAA,2025-07-05 23:30,ZBAA 052330Z 36003MPS CAVOK 27/21 Q1007 NOSIG
ZBAA,2025-07-06 00:00,ZBAA 060000Z 36003MPS CAVOK 28/20 Q1007 NOSIG
ZBAA,2025-07-06 00:30,ZBAA 060030Z 01002MPS CAVOK 28/21 Q1007 NOSIG
ZBAA,2025-07-06 01:00,ZBAA 060100Z VRB02MPS CAVOK 31/19 Q1007 NOSIG
ZBAA,2025-07-06 01:30,ZBAA 060130Z 02004MPS 350V050 CAVOK 32/19 Q1007 NOSIG
ZBAA,2025-07-06 02:00,ZBAA 060200Z 36003MPS 330V030 CAVOK 33/19 Q1007 NOSIG
ZBAA,2025-07-06 02:30,ZBAA 060230Z 35004MPS 330V030 CAVOK 33/19 Q1007 NOSIG
ZBAA,2025-07-06 03:00,ZBAA 060300Z 32002MPS 280V040 CAVOK 33/18 Q1006 NOSIG
ZBAA,2025-07-06 03:30,ZBAA 060330Z VRB02MPS CAVOK 33/19 Q1006 NOSIG
ZBAA,2025-07-06 04:00,ZBAA 060400Z VRB02MPS CAVOK 33/19 Q1006 NOSIG
ZBAA,2025-07-06 04:30,ZBAA 060430Z VRB01MPS CAVOK 34/19 Q1006 NOSIG
ZBAA,2025-07-06 05:00,ZBAA 060500Z 13002MPS 080V190 CAVOK 34/20 Q1006 NOSIG
ZBAA,2025-07-06 05:30,ZBAA 060530Z 16002MPS 100V200 CAVOK 34/19 Q1005 NOSIG
ZBAA,2025-07-06 06:00,ZBAA 060600Z 11002MPS 050V170 CAVOK 34/19 Q1005 NOSIG
ZBAA,2025-07-06 06:30,ZBAA 060630Z 15003MPS 110V190 CAVOK 34/20 Q1005 NOSIG
ZBAA,2025-07-06 07:00,ZBAA 060700Z 13002MPS 070V150 CAVOK 35/19 Q1005 NOSIG
ZBAA,2025-07-06 07:30,ZBAA 060730Z 12002MPS 080V150 CAVOK 35/19 Q1004 NOSIG
ZBAA,2025-07-06 08:00,ZBAA 060800Z 15002MPS 100V200 CAVOK 34/19 Q1004 NOSIG
ZBAA,2025-07-06 08:30,ZBAA 060830Z VRB02MPS CAVOK 35/19 Q1004 NOSIG
ZBAA,2025-07-06 09:00,ZBAA 060900Z 16002MPS 110V260 CAVOK 35/20 Q1004 NOSIG
ZBAA,2025-07-06 09:30,ZBAA 060930Z 16003MPS CAVOK 34/20 Q1004 NOSIG
ZBAA,2025-07-06 10:00,ZBAA 061000Z 18003MPS 130V240 CAVOK 34/20 Q1004 NOSIG
ZBAA,2025-07-06 10:30,ZBAA 061030Z 15003MPS CAVOK 33/20 Q1004 NOSIG
ZBAA,2025-07-06 11:00,ZBAA 061100Z 16003MPS CAVOK 31/20 Q1004 NOSIG
ZBAA,2025-07-06 11:30,ZBAA 061130Z 19004MPS CAVOK 31/19 Q1004 NOSIG
ZBAA,2025-07-06 12:00,ZBAA 061200Z 18003MPS 150V210 CAVOK 30/19 Q1004 NOSIG
ZBAA,2025-07-06 12:30,ZBAA 061230Z 18003MPS 150V210 CAVOK 29/19 Q1005 NOSIG
ZBAA,2025-07-06 13:00,ZBAA 061300Z 17002MPS 150V220 CAVOK 28/19 Q1005 NOSIG
ZBAA,2025-07-06 13:30,ZBAA 061330Z 17002MPS 150V210 CAVOK 27/20 Q1005 NOSIG
ZBAA,2025-07-06 14:00,ZBAA 061400Z 17002MPS 140V210 CAVOK 27/20 Q1006 NOSIG
ZBAA,2025-07-06 14:30,ZBAA 061430Z 18002MPS 150V230 CAVOK 28/20 Q1006 NOSIG
ZBAA,2025-07-06 15:00,ZBAA 061500Z VRB01MPS CAVOK 26/22 Q1006 NOSIG
ZBAA,2025-07-06 15:30,ZBAA 061530Z 16002MPS CAVOK 27/21 Q1006 NOSIG
ZBAA,2025-07-06 16:00,ZBAA 061600Z 16002MPS CAVOK 28/21 Q1005 NOSIG
ZBAA,2025-07-06 16:30,ZBAA 061630Z 22003MPS CAVOK 29/20 Q1005 NOSIG
ZBAA,2025-07-06 17:00,ZBAA 061700Z 20003MPS 170V230 CAVOK 28/20 Q1005 NOSIG
ZBAA,2025-07-06 17:30,ZBAA 061730Z VRB01MPS CAVOK 24/21 Q1005 NOSIG
ZBAA,2025-07-06 18:00,ZBAA 061800Z 09002MPS CAVOK 24/21 Q1006 NOSIG
ZBAA,2025-07-06 18:30,ZBAA 061830Z 09002MPS CAVOK 24/21 Q1005 NOSIG
ZBAA,2025-07-06 19:00,ZBAA 061900Z 08002MPS CAVOK 25/22 Q1005 NOSIG
ZBAA,2025-07-06 19:30,ZBAA 061930Z 09002MPS 070V130 CAVOK 24/21 Q1005 NOSIG
ZBAA,2025-07-06 20:00,ZBAA 062000Z 08002MPS CAVOK 25/21 Q1005 NOSIG
ZBAA,2025-07-06 20:30,ZBAA 062030Z 06001MPS CAVOK 25/21 Q1005 NOSIG
ZBAA,2025-07-06 21:00,ZBAA 062100Z 07002MPS CAVOK 25/21 Q1005 NOSIG
ZBAA,2025-07-06 21:30,ZBAA 062130Z 07002MPS CAVOK 25/21 Q1005 NOSIG
ZBAA,2025-07-06 22:00,ZBAA 062200Z VRB01MPS CAVOK 25/21 Q1005 NOSIG
ZBAA,2025-07-06 22:30,ZBAA 062230Z VRB01MPS CAVOK 27/22 Q1005 NOSIG
ZBAA,2025-07-06 23:00,ZBAA 062300Z VRB01MPS CAVOK 27/22 Q1005 NOSIG
ZBAA,2025-07-06 23:30,ZBAA 062330Z VRB01MPS CAVOK 27/21 Q1005 NOSIG
ZBAA,2025-07-07 00:00,ZBAA 070000Z VRB01MPS CAVOK 28/22 Q1005 NOSIG
ZBAA,2025-07-07 00:30,ZBAA 070030Z 05001MPS CAVOK 28/22 Q1006 NOSIG
ZBAA,2025-07-07 01:00,ZBAA 070100Z 03002MPS 320V070 CAVOK 30/22 Q1006 NOSIG
ZBAA,2025-07-07 01:30,ZBAA 070130Z 06002MPS 340V100 CAVOK 31/22 Q1005 NOSIG
ZBAA,2025-07-07 02:00,ZBAA 070200Z VRB02MPS CAVOK 32/21 Q1006 NOSIG
ZBAA,2025-07-07 02:30,ZBAA 070230Z VRB02MPS CAVOK 32/21 Q1005 NOSIG
ZBAA,2025-07-07 03:00,ZBAA 070300Z VRB02MPS CAVOK 32/21 Q1005 NOSIG
ZBAA,2025-07-07 03:30,ZBAA 070330Z 09002MPS 010V170 CAVOK 33/20 Q1005 NOSIG
ZBAA,2025-07-07 04:00,ZBAA 070400Z 06002MPS 010V140 CAVOK 33/21 Q1005 NOSIG
ZBAA,2025-07-07 04:30,ZBAA 070430Z 15002MPS 110V210 CAVOK 33/19 Q1004 NOSIG
ZBAA,2025-07-07 05:00,ZBAA 070500Z 16003MPS 120V190 CAVOK 33/19 Q1004 NOSIG
ZBAA,2025-07-07 05:30,ZBAA 070530Z 16004MPS 100V210 CAVOK 34/19 Q1004 NOSIG
ZBAA,2025-07-07 06:00,ZBAA 070600Z 15004MPS 110V190 CAVOK 34/19 Q1004 NOSIG
ZBAA,2025-07-07 06:30,ZBAA 070630Z 16004MPS CAVOK 34/18 Q1003 NOSIG
ZBAA,2025-07-07 07:00,ZBAA 070700Z 15003MPS CAVOK 33/18 Q1003 NOSIG
ZBAA,2025-07-07 07:30,ZBAA 070730Z 15003MPS 120V180 CAVOK 33/19 Q1003 NOSIG
ZBAA,2025-07-07 08:00,ZBAA 070800Z 16004MPS CAVOK 34/19 Q1003 NOSIG
ZBAA,2025-07-07 08:30,ZBAA 070830Z 16004MPS 120V180 CAVOK 34/19 Q1002 NOSIG
ZBAA,2025-07-07 09:00,ZBAA 070900Z 15003MPS CAVOK 33/18 Q1002 NOSIG
ZBAA,2025-07-07 09:30,ZBAA 070930Z 16003MPS CAVOK 33/20 Q1002 NOSIG
ZBAA,2025-07-07 10:00,ZBAA 071000Z 15002MPS CAVOK 32/19 Q1003 NOSIG
ZBAA,2025-07-07 10:30,ZBAA 071030Z 16003MPS CAVOK 32/20 Q1003 NOSIG
ZBAA,2025-07-07 11:00,ZBAA 071100Z 16002MPS 130V200 CAVOK 31/20 Q1004 NOSIG
ZBAA,2025-07-07 11:30,ZBAA 071130Z 18004MPS 150V210 CAVOK 31/19 Q1004 NOSIG
ZBAA,2025-07-07 12:00,ZBAA 071200Z 16002MPS 130V200 CAVOK 31/19 Q1005 NOSIG
ZBAA,2025-07-07 12:30,ZBAA 071230Z 17005MPS CAVOK 31/19 Q1005 NOSIG
ZBAA,2025-07-07 13:00,ZBAA 071300Z 18004MPS CAVOK 30/18 Q1006 NOSIG
ZBAA,2025-07-07 13:30,ZBAA 071330Z 14003MPS 100V180 CAVOK 30/18 Q1006 NOSIG
ZBAA,2025-07-07 14:00,ZBAA 071400Z 14002MPS CAVOK 29/18 Q1006 NOSIG
ZBAA,2025-07-07 14:30,ZBAA 071430Z 15002MPS CAVOK 29/18 Q1006 NOSIG
ZBAA,2025-07-07 15:00,ZBAA 071500Z 15002MPS CAVOK 28/18 Q1006 NOSIG
ZBAA,2025-07-07 15:30,ZBAA 071530Z 15003MPS CAVOK 28/19 Q1006 NOSIG
ZBAA,2025-07-07 16:00,ZBAA 071600Z 14002MPS 100V180 CAVOK 27/20 Q1005 NOSIG
ZBAA,2025-07-07 16:30,ZBAA 071630Z 14003MPS CAVOK 27/22 Q1005 NOSIG
ZBAA,2025-07-07 17:00,ZBAA 071700Z 13002MPS 090V150 CAVOK 27/22 Q1005 NOSIG
ZBAA,2025-07-07 17:30,ZBAA 071730Z 13003MPS CAVOK 26/22 Q1005 NOSIG
ZBAA,2025-07-07 18:00,ZBAA 071800Z 14002MPS CAVOK 26/21 Q1005 NOSIG
ZBAA,2025-07-07 18:30,ZBAA 071830Z 15001MPS CAVOK 26/21 Q1005 NOSIG
ZBAA,2025-07-07 19:00,ZBAA 071900Z 13002MPS 100V160 CAVOK 25/22 Q1004 NOSIG
ZBAA,2025-07-07 19:30,ZBAA 071930Z VRB01MPS CAVOK 24/22 Q1004 NOSIG
ZBAA,2025-07-07 20:00,ZBAA 072000Z 08002MPS CAVOK 24/22 Q1005 NOSIG
ZBAA,2025-07-07 20:30,ZBAA 072030Z 12002MPS CAVOK 25/21 Q1005 NOSIG
ZBAA,2025-07-07 21:00,ZBAA 072100Z 14002MPS CAVOK 25/21 Q1006 NOSIG
ZBAA,2025-07-07 21:30,ZBAA 072130Z 13002MPS CAVOK 25/22 Q1006 NOSIG
ZBAA,2025-07-07 22:00,ZBAA 072200Z 10001MPS CAVOK 25/22 Q1006 NOSIG
ZBAA,2025-07-07 22:30,ZBAA 072230Z 00000MPS CAVOK 25/23 Q1006 NOSIG
ZBAA,2025-07-07 23:00,ZBAA 072300Z VRB01MPS CAVOK 26/22 Q1007 NOSIG
ZBAA,2025-07-07 23:30,ZBAA 072330Z 11001MPS CAVOK 26/22 Q1007 NOSIG
ZBAA,2025-07-08 00:00,ZBAA 080000Z VRB01MPS CAVOK 27/22 Q1008 NOSIG
ZBAA,2025-07-08 00:30,ZBAA 080030Z 13001MPS CAVOK 27/22 Q1008 NOSIG
ZBAA,2025-07-08 01:00,ZBAA 080100Z VRB01MPS 9999 -SHRA NSC 27/23 Q1008 NOSIG
ZBAA,2025-07-08 01:30,ZBAA 080130Z 20002MPS 130V240 9999 -SHRA FEW026 27/23 Q1008 NOSIG
ZBAA,2025-07-08 02:00,ZBAA 080200Z 25002MPS 220V290 CAVOK 27/23 Q1008 NOSIG
ZBAA,2025-07-08 02:30,ZBAA 080230Z VRB01MPS CAVOK 28/22 Q1008 NOSIG
ZBAA,2025-07-08 03:00,ZBAA 080300Z 08001MPS CAVOK 28/23 Q1008 NOSIG
ZBAA,2025-07-08 03:30,ZBAA 080330Z 21002MPS 140V280 CAVOK 29/23 Q1008 NOSIG
ZBAA,2025-07-08 04:00,ZBAA 080400Z VRB01MPS CAVOK 29/23 Q1008 NOSIG
ZBAA,2025-07-08 04:30,ZBAA 080430Z VRB01MPS 9999 SCT040 29/23 Q1008 NOSIG
ZBAA,2025-07-08 05:00,ZBAA 080500Z VRB01MPS 9999 FEW040 31/23 Q1008 NOSIG
ZBAA,2025-07-08 05:30,ZBAA 080530Z VRB01MPS 9999 FEW040 30/24 Q1008 NOSIG
ZBAA,2025-07-08 06:00,ZBAA 080600Z VRB01MPS 9999 FEW040 30/22 Q1007 NOSIG
ZBAA,2025-07-08 06:30,ZBAA 080630Z VRB02MPS 9999 FEW040 30/23 Q1007 NOSIG
ZBAA,2025-07-08 07:00,ZBAA 080700Z 16002MPS 130V230 CAVOK 31/22 Q1007 NOSIG
ZBAA,2025-07-08 07:30,ZBAA 080730Z VRB01MPS CAVOK 31/23 Q1007 NOSIG
ZBAA,2025-07-08 08:00,ZBAA 080800Z 11002MPS 070V160 CAVOK 31/23 Q1007 NOSIG
ZBAA,2025-07-08 08:30,ZBAA 080830Z 16002MPS 120V230 CAVOK 31/22 Q1007 NOSIG
ZBAA,2025-07-08 09:00,ZBAA 080900Z 18002MPS 140V250 CAVOK 31/22 Q1007 NOSIG
ZBAA,2025-07-08 09:30,ZBAA 080930Z 15002MPS 110V200 CAVOK 31/23 Q1007 NOSIG
ZBAA,2025-07-08 10:00,ZBAA 081000Z VRB01MPS CAVOK 31/23 Q1007 NOSIG
ZBAA,2025-07-08 10:30,ZBAA 081030Z VRB01MPS CAVOK 30/23 Q1007 NOSIG
ZBAA,2025-07-08 11:00,ZBAA 081100Z VRB01MPS CAVOK 30/23 Q1007 NOSIG
ZBAA,2025-07-08 11:30,ZBAA 081130Z 10001MPS CAVOK 29/23 Q1007 NOSIG
ZBAA,2025-07-08 12:00,ZBAA 081200Z 10001MPS CAVOK 27/24 Q1007 NOSIG
ZBAA,2025-07-08 12:30,ZBAA 081230Z 09001MPS CAVOK 27/24 Q1007 NOSIG
ZBAA,2025-07-08 13:00,ZBAA 081300Z 09001MPS CAVOK 26/24 Q1008 NOSIG
ZBAA,2025-07-08 13:30,ZBAA 081330Z VRB01MPS CAVOK 26/24 Q1008 NOSIG
ZBAA,2025-07-08 14:00,ZBAA 081400Z 10001MPS CAVOK 26/24 Q1008 NOSIG
ZBAA,2025-07-08 14:30,ZBAA 081430Z 07001MPS CAVOK 25/24 Q1008 NOSIG
ZBAA,2025-07-08 15:00,ZBAA 081500Z 07001MPS CAVOK 26/24 Q1008 NOSIG
ZBAA,2025-07-08 15:30,ZBAA 081530Z 06001MPS CAVOK 26/24 Q1008 NOSIG
ZBAA,2025-07-08 16:00,ZBAA 081600Z 07001MPS CAVOK 27/24 Q1008 NOSIG
ZBAA,2025-07-08 16:30,ZBAA 081630Z 01001MPS CAVOK 27/24 Q1008 NOSIG
ZBAA,2025-07-08 17:00,ZBAA 081700Z VRB01MPS CAVOK 27/24 Q1009 NOSIG
ZBAA,2025-07-08 17:30,ZBAA 081730Z 04001MPS CAVOK 27/24 Q1009 NOSIG
ZBAA,2025-07-08 18:00,ZBAA 081800Z 36001MPS CAVOK 26/24 Q1008 NOSIG
ZBAA,2025-07-08 18:30,ZBAA 081830Z 08001MPS CAVOK 26/24 Q1009 NOSIG
ZBAA,2025-07-08 19:00,ZBAA 081900Z 08001MPS CAVOK 26/24 Q1009 NOSIG
ZBAA,2025-07-08 19:30,ZBAA 081930Z 06001MPS CAVOK 26/24 Q1008 NOSIG
ZBAA,2025-07-08 20:00,ZBAA 082000Z 05001MPS CAVOK 26/24 Q1008 NOSIG
ZBAA,2025-07-08 20:30,ZBAA 082030Z 10002MPS 060V120 CAVOK 26/23 Q1008 NOSIG
ZBAA,2025-07-08 21:00,ZBAA 082100Z VRB01MPS 6000 NSC 26/23 Q1009 NOSIG
ZBAA,2025-07-08 21:30,ZBAA 082130Z VRB01MPS 5000 BR NSC 26/24 Q1009 NOSIG
ZBAA,2025-07-08 22:00,ZBAA 082200Z VRB01MPS 5000 BR NSC 26/24 Q1009 NOSIG
ZBAA,2025-07-08 22:30,ZBAA 082230Z 09002MPS 050V120 4000 BR NSC 27/25 Q1009 NOSIG
ZBAA,2025-07-08 23:00,ZBAA 082300Z 10002MPS 050V190 4000 BR NSC 27/25 Q1010 NOSIG
ZBAA,2025-07-08 23:30,ZBAA 082330Z 08002MPS 040V140 4000 BR NSC 28/25 Q1010 NOSIG
ZBAA,2025-07-09 00:00,ZBAA 090000Z VRB01MPS 4500 BR NSC 29/25 Q1010 NOSIG
ZBAA,2025-07-09 00:30,ZBAA 090030Z 10002MPS 050V160 5000 BR NSC 29/25 Q1010 NOSIG
ZBAA,2025-07-09 01:00,ZBAA 090100Z 13002MPS 070V170 5000 BR NSC 30/25 Q1010 NOSIG
ZBAA,2025-07-09 01:30,ZBAA 090130Z 11002MPS 050V160 6000 NSC 30/25 Q1009 NOSIG
ZBAA,2025-07-09 02:00,ZBAA 090200Z 11002MPS 050V150 7000 NSC 30/25 Q1010 NOSIG
ZBAA,2025-07-09 02:30,ZBAA 090230Z 09002MPS 060V160 CAVOK 30/24 Q1010 NOSIG
ZBAA,2025-07-09 03:00,ZBAA 090300Z 09002MPS 040V160 CAVOK 31/24 Q1009 NOSIG
ZBAA,2025-07-09 03:30,ZBAA 090330Z 13002MPS 080V180 CAVOK 32/25 Q1009 NOSIG
ZBAA,2025-07-09 04:00,ZBAA 090400Z 11002MPS 050V170 CAVOK 32/25 Q1009 NOSIG
ZBAA,2025-07-09 04:30,ZBAA 090430Z VRB02MPS 9999 BKN040 32/25 Q1009 NOSIG
ZBAA,2025-07-09 05:00,ZBAA 090500Z 15002MPS 120V190 9999 BKN040 32/24 Q1008 NOSIG
ZBAA,2025-07-09 05:30,ZBAA 090530Z VRB01MPS 9999 SCT040 33/25 Q1008 NOSIG
ZBAA,2025-07-09 06:00,ZBAA 090600Z 12002MPS 070V190 9999 FEW040 33/25 Q1008 NOSIG
ZBAA,2025-07-09 06:30,ZBAA 090630Z 13002MPS 100V180 9999 FEW040 33/25 Q1007 NOSIG
ZBAA,2025-07-09 07:00,ZBAA 090700Z VRB01MPS 9999 FEW040 33/25 Q1007 NOSIG
ZBAA,2025-07-09 07:30,ZBAA 090730Z VRB01MPS CAVOK 34/25 Q1007 NOSIG
ZBAA,2025-07-09 08:00,ZBAA 090800Z 07002MPS 020V140 CAVOK 34/25 Q1006 NOSIG
ZBAA,2025-07-09 08:30,ZBAA 090830Z 10002MPS 050V130 CAVOK 33/24 Q1006 NOSIG
ZBAA,2025-07-09 09:00,ZBAA 090900Z 12002MPS 060V160 CAVOK 34/24 Q1006 NOSIG
ZBAA,2025-07-09 09:30,ZBAA 090930Z 15004MPS 120V180 CAVOK 33/23 Q1006 NOSIG
ZBAA,2025-07-09 10:00,ZBAA 091000Z 16003MPS CAVOK 32/23 Q1007 NOSIG
ZBAA,2025-07-09 10:30,ZBAA 091030Z 16003MPS CAVOK 32/23 Q1007 NOSIG
ZBAA,2025-07-09 11:00,ZBAA 091100Z 16002MPS CAVOK 31/24 Q1007 NOSIG
ZBAA,2025-07-09 11:30,ZBAA 091130Z 16003MPS CAVOK 31/24 Q1007 NOSIG
ZBAA,2025-07-09 12:00,ZBAA 091200Z 15004MPS CAVOK 30/24 Q1007 NOSIG
ZBAA,2025-07-09 12:30,ZBAA 091230Z 15003MPS CAVOK 30/24 Q1008 NOSIG
ZBAA,2025-07-09 13:00,ZBAA 091300Z 15003MPS 110V170 CAVOK 30/24 Q1008 NOSIG
ZBAA,2025-07-09 13:30,ZBAA 091330Z 13003MPS 090V160 CAVOK 29/24 Q1008 NOSIG
ZBAA,2025-07-09 14:00,ZBAA 091400Z 14003MPS CAVOK 29/24 Q1008 NOSIG
ZBAA,2025-07-09 14:30,ZBAA 091430Z 15002MPS CAVOK 29/24 Q1009 NOSIG
ZBAA,2025-07-09 15:00,ZBAA 091500Z 13002MPS 090V160 CAVOK 28/24 Q1009 BECMG TL1640 TS FEW030CB BKN040
ZBAA,2025-07-09 15:30,ZBAA 091530Z 10002MPS 060V130 CAVOK 28/24 Q1009 NOSIG
ZBAA,2025-07-09 16:00,ZBAA 091600Z 12003MPS 080V150 CAVOK 28/24 Q1008 BECMG TL1740 TS FEW030CB BKN040
ZBAA,2025-07-09 16:30,ZBAA 091630Z 12003MPS 050V160 CAVOK 28/24 Q1009 NOSIG
ZBAA,2025-07-09 17:00,ZBAA 091700Z 11002MPS 070V150 CAVOK 28/24 Q1008 BECMG TL1820 TS FEW030CB BKN040
ZBAA,2025-07-09 17:30,ZBAA 091730Z 11002MPS 070V150 CAVOK 28/24 Q1008 NOSIG
ZBAA,2025-07-09 18:00,ZBAA 091800Z 10002MPS 060V150 9999 -SHRA NSC 28/24 Q1008 BECMG TL1820 TS FEW030CB BKN040
ZBAA,2025-07-09 18:07,ZBAA 091807Z VRB01MPS 9999 -TSRA FEW040CB 28/25 Q1008 NOSIG
ZBAA,2025-07-09 18:30,ZBAA 091830Z 00000MPS 8000 -TSRA FEW040CB 28/24 Q1009 NOSIG
ZBAA,2025-07-09 18:52,ZBAA 091852Z 25002G07MPS 180V310 3200 TSRA SCT040CB 27/25 Q1009 BECMG TL2020 NSW
ZBAA,2025-07-09 19:00,ZBAA 091900Z 24005MPS 210V270 2800 TSRA SCT040CB 26/25 Q1009 BECMG TL2020 3200 -SHRA BR
ZBAA,2025-07-09 19:06,ZBAA 091906Z 23003MPS 2800 -TSRA SCT040CB 26/25 Q1009 RESHRA NOSIG
ZBAA,2025-07-09 19:30,ZBAA 091930Z 14002MPS 110V170 3200 -TSRA BR FEW040CB 25/25 Q1009 RESHRA NOSIG
ZBAA,2025-07-09 20:00,ZBAA 092000Z 11002MPS 070V140 7000 -TSRA FEW040CB 24/23 Q1009 BECMG TL2020 NSW
ZBAA,2025-07-09 20:30,ZBAA 092030Z VRB01MPS 7000 -SHRA FEW013 24/24 Q1009 RETS NOSIG
ZBAA,2025-07-09 21:00,ZBAA 092100Z VRB01MPS CAVOK 24/24 Q1009 NOSIG
ZBAA,2025-07-09 21:30,ZBAA 092130Z 34001MPS CAVOK 25/24 Q1009 NOSIG
ZBAA,2025-07-09 22:00,ZBAA 092200Z 36002MPS 7000 -SHRA NSC 25/25 Q1009 BECMG TL2310 TS
ZBAA,2025-07-09 22:30,ZBAA 092230Z 35003MPS 320V020 8000 -SHRA NSC 25/25 Q1009 NOSIG
ZBAA,2025-07-09 23:00,ZBAA 092300Z 36003MPS 8000 -SHRA NSC 25/25 Q1009 BECMG TL2320 TSRA FEW040CB
ZBAA,2025-07-09 23:16,ZBAA 092316Z 33004MPS 1700 -SHRA BR FEW013 26/25 Q1010 NOSIG
ZBAA,2025-07-09 23:19,ZBAA 092319Z 32004MPS 290V350 1700 SHRA BR FEW013 26/25 Q1010 NOSIG
ZBAA,2025-07-09 23:30,ZBAA 092330Z 30005MPS 1700 -SHRA BR FEW013 OVC040 25/25 Q1010 RESHRA NOSIG
ZBAA,2025-07-09 23:37,ZBAA 092337Z 31005MPS 2000 -TSRA BR SCT004 BKN040 FEW040CB 25/25 Q1010 NOSIG
ZBAA,2025-07-09 23:41,ZBAA 092341Z 30007MPS 0800 R36L/1700D R36R/P2000N R01/P2000N +TSRA FEW004 BKN040 FEW040CB 25/25 Q1010 NOSIG
ZBAA,2025-07-10 00:00,ZBAA 100000Z 26007MPS 230V290 1800 TSRA SCT004 OVC040CB 24/24 Q1010 BECMG TL0040 32004MPS 3200 -SHRA BR
ZBAA,2025-07-10 00:08,ZBAA 100008Z 26006MPS 210V290 1600 +TSRA SCT004 OVC033CB 24/24 Q1011 NOSIG
ZBAA,2025-07-10 00:30,ZBAA 100030Z 28003MPS 230V330 2700 -TSRA BR SCT004 OVC033CB 23/23 Q1010 RESHRA NOSIG
ZBAA,2025-07-10 00:44,ZBAA 100044Z VRB01MPS 3700 -TSRA BR SCT004 BKN040 SCT040CB 23/23 Q1011 NOSIG
ZBAA,2025-07-10 01:00,ZBAA 100100Z 27002MPS 190V360 8000 -SHRA FEW007 BKN040 FEW040CB 24/23 Q1010 RETS NOSIG
ZBAA,2025-07-10 01:30,ZBAA 100130Z 34003MPS 310V050 9999 -SHRA NSC 24/24 Q1010 NOSIG
ZBAA,2025-07-10 02:00,ZBAA 100200Z 04001MPS 9999 -SHRA NSC 24/24 Q1010 NOSIG
ZBAA,2025-07-10 02:30,ZBAA 100230Z VRB01MPS 9999 FEW007 25/24 Q1011 NOSIG
ZBAA,2025-07-10 03:00,ZBAA 100300Z 36002MPS 9999 FEW007 26/24 Q1011 NOSIG
ZBAA,2025-07-10 03:30,ZBAA 100330Z 01002MPS CAVOK 26/25 Q1011 NOSIG
ZBAA,2025-07-10 04:00,ZBAA 100400Z VRB01MPS CAVOK 27/24 Q1011 NOSIG
ZBAA,2025-07-10 04:30,ZBAA 100430Z 01002MPS CAVOK 27/25 Q1011 NOSIG
ZBAA,2025-07-10 05:00,ZBAA 100500Z 02003MPS CAVOK 27/24 Q1010 NOSIG
ZBAA,2025-07-10 05:30,ZBAA 100530Z 03002MPS 360V070 CAVOK 27/24 Q1010 NOSIG
ZBAA,2025-07-10 06:00,ZBAA 100600Z 32003MPS CAVOK 28/24 Q1010 NOSIG
ZBAA,2025-07-10 06:30,ZBAA 100630Z 36003MPS 310V040 9999 -SHRA NSC 28/25 Q1009 NOSIG
ZBAA,2025-07-10 07:00,ZBAA 100700Z 02002MPS 350V050 CAVOK 28/25 Q1009 NOSIG
ZBAA,2025-07-10 07:30,ZBAA 100730Z 35003G08MPS 290V020 CAVOK 29/26 Q1010 NOSIG
ZBAA,2025-07-10 08:00,ZBAA 100800Z 04002MPS 360V060 CAVOK 28/25 Q1009 NOSIG
ZBAA,2025-07-10 08:30,ZBAA 100830Z 32004MPS 280V350 CAVOK 29/24 Q1009 NOSIG
ZBAA,2025-07-10 09:00,ZBAA 100900Z 31003MPS 260V350 CAVOK 29/24 Q1009 NOSIG
ZBAA,2025-07-10 09:30,ZBAA 100930Z 02002MPS 340V060 CAVOK 29/25 Q1009 NOSIG
ZBAA,2025-07-10 10:00,ZBAA 101000Z VRB01MPS CAVOK 29/25 Q1009 NOSIG
ZBAA,2025-07-10 10:30,ZBAA 101030Z VRB01MPS CAVOK 29/25 Q1009 NOSIG
ZBAA,2025-07-10 11:00,ZBAA 101100Z 11002MPS 070V140 CAVOK 28/25 Q1009 NOSIG
ZBAA,2025-07-10 11:30,ZBAA 101130Z VRB01MPS CAVOK 28/26 Q1009 NOSIG
ZBAA,2025-07-10 12:00,ZBAA 101200Z 35001MPS CAVOK 27/26 Q1009 NOSIG
ZBAA,2025-07-10 12:30,ZBAA 101230Z 09001MPS CAVOK 26/26 Q1009 NOSIG
ZBAA,2025-07-10 13:00,ZBAA 101300Z VRB01MPS CAVOK 26/25 Q1009 NOSIG
ZBAA,2025-07-10 13:30,ZBAA 101330Z 07001MPS CAVOK 26/25 Q1010 NOSIG
ZBAA,2025-07-10 14:00,ZBAA 101400Z VRB01MPS CAVOK 26/25 Q1010 NOSIG
ZBAA,2025-07-10 14:30,ZBAA 101430Z 00000MPS CAVOK 26/25 Q1010 NOSIG
ZBAA,2025-07-10 15:00,ZBAA 101500Z 15001MPS CAVOK 26/25 Q1010 NOSIG
ZBAA,2025-07-10 15:30,ZBAA 101530Z 09001MPS CAVOK 25/25 Q1010 NOSIG
ZBAA,2025-07-10 16:00,ZBAA 101600Z VRB01MPS CAVOK 25/25 Q1010 NOSIG
ZBAA,2025-07-10 16:30,ZBAA 101630Z 00000MPS CAVOK 25/25 Q1010 NOSIG
ZBAA,2025-07-10 17:00,ZBAA 101700Z 12001MPS CAVOK 25/25 Q1010 NOSIG
ZBAA,2025-07-10 17:30,ZBAA 101730Z 01001MPS CAVOK 25/25 Q1010 NOSIG
ZBAA,2025-07-10 18:00,ZBAA 101800Z VRB01MPS CAVOK 25/25 Q1010 NOSIG
ZBAA,2025-07-10 18:30,ZBAA 101830Z 05001MPS CAVOK 25/25 Q1010 NOSIG
ZBAA,2025-07-10 19:00,ZBAA 101900Z 06001MPS CAVOK 25/24 Q1010 NOSIG
ZBAA,2025-07-10 19:30,ZBAA 101930Z 08001MPS 6000 NSC 25/25 Q1009 NOSIG
ZBAA,2025-07-10 20:00,ZBAA 102000Z VRB01MPS 6000 NSC 25/25 Q1010 NOSIG
ZBAA,2025-07-10 20:30,ZBAA 102030Z VRB01MPS 6000 NSC 26/25 Q1010 NOSIG
ZBAA,2025-07-10 21:00,ZBAA 102100Z VRB01MPS 6000 NSC 26/24 Q1010 NOSIG
ZBAA,2025-07-10 21:30,ZBAA 102130Z VRB01MPS 6000 NSC 26/24 Q1010 NOSIG
ZBAA,2025-07-10 22:00,ZBAA 102200Z 10002MPS 6000 NSC 26/24 Q1011 NOSIG
ZBAA,2025-07-10 22:30,ZBAA 102230Z VRB01MPS 6000 NSC 27/24 Q1011 NOSIG
ZBAA,2025-07-10 23:00,ZBAA 102300Z VRB01MPS 8000 NSC 27/24 Q1011 NOSIG
ZBAA,2025-07-10 23:30,ZBAA 102330Z 10002MPS 060V150 8000 NSC 28/25 Q1011 NOSIG
ZBAA,2025-07-11 00:00,ZBAA 110000Z VRB01MPS 8000 NSC 28/25 Q1012 NOSIG
ZBAA,2025-07-11 00:30,ZBAA 110030Z 11002MPS 040V160 8000 NSC 29/25 Q1012 NOSIG
ZBAA,2025-07-11 01:00,ZBAA 110100Z VRB02MPS 8000 NSC 29/25 Q1012 NOSIG
ZBAA,2025-07-11 01:30,ZBAA 110130Z VRB02MPS 8000 NSC 30/25 Q1012 NOSIG
ZBAA,2025-07-11 02:00,ZBAA 110200Z VRB02MPS 8000 NSC 31/25 Q1011 NOSIG
ZBAA,2025-07-11 02:30,ZBAA 110230Z 09002MPS 360V160 CAVOK 31/24 Q1011 NOSIG
ZBAA,2025-07-11 03:00,ZBAA 110300Z VRB02MPS CAVOK 31/24 Q1011 NOSIG
ZBAA,2025-07-11 03:30,ZBAA 110330Z 13002MPS 060V200 CAVOK 32/25 Q1011 NOSIG
ZBAA,2025-07-11 04:00,ZBAA 110400Z 15002MPS 090V210 CAVOK 33/25 Q1011 NOSIG
ZBAA,2025-07-11 04:30,ZBAA 110430Z VRB02MPS CAVOK 32/25 Q1011 NOSIG
ZBAA,2025-07-11 05:00,ZBAA 110500Z 15002MPS 110V200 CAVOK 33/25 Q1011 NOSIG
ZBAA,2025-07-11 05:30,ZBAA 110530Z VRB02MPS CAVOK 34/25 Q1011 NOSIG
ZBAA,2025-07-11 06:00,ZBAA 110600Z 13002MPS 090V170 CAVOK 33/25 Q1011 NOSIG
ZBAA,2025-07-11 06:30,ZBAA 110630Z 11002MPS 070V170 CAVOK 34/26 Q1010 NOSIG
ZBAA,2025-07-11 07:00,ZBAA 110700Z 14003MPS 090V190 CAVOK 34/25 Q1010 NOSIG
ZBAA,2025-07-11 07:30,ZBAA 110730Z 15003MPS 120V200 CAVOK 34/24 Q1010 NOSIG
ZBAA,2025-07-11 08:00,ZBAA 110800Z 14002MPS 110V180 CAVOK 34/24 Q1009 NOSIG
ZBAA,2025-07-11 08:30,ZBAA 110830Z 15003MPS CAVOK 34/24 Q1009 NOSIG
ZBAA,2025-07-11 09:00,ZBAA 110900Z 17002MPS 120V210 CAVOK 35/24 Q1009 NOSIG
ZBAA,2025-07-11 09:30,ZBAA 110930Z 18004MPS 150V240 CAVOK 34/22 Q1008 NOSIG
ZBAA,2025-07-11 10:00,ZBAA 111000Z 16002MPS 100V210 CAVOK 34/24 Q1009 NOSIG
ZBAA,2025-07-11 10:30,ZBAA 111030Z 17002MPS 120V210 CAVOK 33/25 Q1009 NOSIG
ZBAA,2025-07-11 11:00,ZBAA 111100Z 16001MPS CAVOK 31/25 Q1009 NOSIG
ZBAA,2025-07-11 11:30,ZBAA 111130Z 17001MPS CAVOK 30/26 Q1009 NOSIG
ZBAA,2025-07-11 12:00,ZBAA 111200Z 16001MPS CAVOK 29/26 Q1009 NOSIG
ZBAA,2025-07-11 12:30,ZBAA 111230Z 16002MPS CAVOK 30/25 Q1009 NOSIG
ZBAA,2025-07-11 13:00,ZBAA 111300Z 16002MPS CAVOK 30/25 Q1010 NOSIG
ZBAA,2025-07-11 13:30,ZBAA 111330Z 15003MPS CAVOK 31/25 Q1010 NOSIG
ZBAA,2025-07-11 14:00,ZBAA 111400Z 15004MPS CAVOK 31/25 Q1010 NOSIG
ZBAA,2025-07-11 14:30,ZBAA 111430Z 14003MPS CAVOK 30/24 Q1010 NOSIG
ZBAA,2025-07-11 15:00,ZBAA 111500Z 14003MPS CAVOK 30/24 Q1011 NOSIG
ZBAA,2025-07-11 15:30,ZBAA 111530Z 14003MPS CAVOK 30/24 Q1011 NOSIG
ZBAA,2025-07-11 16:00,ZBAA 111600Z 14003MPS 090V160 CAVOK 30/23 Q1011 NOSIG
ZBAA,2025-07-11 16:30,ZBAA 111630Z 13002MPS CAVOK 29/23 Q1011 NOSIG
ZBAA,2025-07-11 17:00,ZBAA 111700Z 13002MPS 080V150 CAVOK 28/24 Q1011 NOSIG
ZBAA,2025-07-11 17:30,ZBAA 111730Z VRB01MPS CAVOK 28/24 Q1011 NOSIG
ZBAA,2025-07-11 18:00,ZBAA 111800Z 10002MPS 070V130 CAVOK 28/23 Q1011 NOSIG
ZBAA,2025-07-11 18:30,ZBAA 111830Z 11002MPS 070V140 CAVOK 27/23 Q1010 NOSIG
ZBAA,2025-07-11 19:00,ZBAA 111900Z 10002MPS CAVOK 27/23 Q1011 NOSIG
ZBAA,2025-07-11 19:30,ZBAA 111930Z 11002MPS CAVOK 27/23 Q1010 NOSIG
ZBAA,2025-07-11 20:00,ZBAA 112000Z 11001MPS CAVOK 27/23 Q1011 NOSIG
ZBAA,2025-07-11 20:30,ZBAA 112030Z 11001MPS CAVOK 27/23 Q1011 NOSIG
ZBAA,2025-07-11 21:00,ZBAA 112100Z 13002MPS 6000 NSC 26/24 Q1011 NOSIG
ZBAA,2025-07-11 21:30,ZBAA 112130Z 14002MPS 6000 NSC 26/24 Q1011 NOSIG
ZBAA,2025-07-11 22:00,ZBAA 112200Z 13001MPS 6000 NSC 27/24 Q1011 NOSIG
ZBAA,2025-07-11 22:30,ZBAA 112230Z VRB01MPS 6000 NSC 27/24 Q1011 NOSIG
ZBAA,2025-07-11 23:00,ZBAA 112300Z VRB01MPS 6000 NSC 27/25 Q1011 NOSIG
ZBAA,2025-07-11 23:30,ZBAA 112330Z VRB01MPS 6000 NSC 28/25 Q1011 NOSIG
ZBAA,2025-07-12 00:00,ZBAA 120000Z VRB01MPS 6000 NSC 28/25 Q1011 NOSIG
ZBAA,2025-07-12 00:30,ZBAA 120030Z VRB01MPS 6000 NSC 29/25 Q1011 NOSIG
ZBAA,2025-07-12 01:00,ZBAA 120100Z VRB01MPS 6000 NSC 30/25 Q1010 NOSIG
ZBAA,2025-07-12 01:30,ZBAA 120130Z VRB01MPS 6000 NSC 30/25 Q1010 NOSIG
ZBAA,2025-07-12 02:00,ZBAA 120200Z 11002MPS 6000 NSC 31/25 Q1010 NOSIG
ZBAA,2025-07-12 02:30,ZBAA 120230Z VRB01MPS 6000 NSC 31/25 Q1010 NOSIG
ZBAA,2025-07-12 03:00,ZBAA 120300Z VRB01MPS 6000 NSC 32/26 Q1010 NOSIG
ZBAA,2025-07-12 03:30,ZBAA 120330Z 23002MPS 140V280 6000 NSC 32/26 Q1009 NOSIG
ZBAA,2025-07-12 04:00,ZBAA 120400Z 14002MPS 070V240 6000 NSC 33/27 Q1009 NOSIG
ZBAA,2025-07-12 04:30,ZBAA 120430Z 17002MPS 120V250 7000 NSC 33/26 Q1008 NOSIG
ZBAA,2025-07-12 05:00,ZBAA 120500Z 17002MPS 130V230 7000 NSC 34/26 Q1008 NOSIG
ZBAA,2025-07-12 05:30,ZBAA 120530Z 23002MPS 180V270 7000 NSC 34/26 Q1007 NOSIG
ZBAA,2025-07-12 06:00,ZBAA 120600Z VRB02MPS 7000 NSC 34/26 Q1007 NOSIG
ZBAA,2025-07-12 06:30,ZBAA 120630Z VRB02MPS 7000 NSC 35/26 Q1007 NOSIG
ZBAA,2025-07-12 07:00,ZBAA 120700Z 15002MPS 090V240 CAVOK 35/26 Q1006 BECMG TL0840 31008G15MPS TS
ZBAA,2025-07-12 07:30,ZBAA 120730Z VRB02MPS CAVOK 36/26 Q1007 NOSIG
ZBAA,2025-07-12 08:00,ZBAA 120800Z 20002MPS 120V260 CAVOK 35/26 Q1006 BECMG AT0910 30008G15MPS TS
ZBAA,2025-07-12 08:30,ZBAA 120830Z 03002MPS 9999 FEW040CB 33/27 Q1006 NOSIG
ZBAA,2025-07-12 09:00,ZBAA 120900Z 02001MPS 9999 TS SCT040CB 32/27 Q1006 BECMG AT0950 NSW
ZBAA,2025-07-12 09:30,ZBAA 120930Z 34007MPS 310V010 9999 -TSRA SCT040CB 31/25 Q1007 NOSIG
ZBAA,2025-07-12 09:53,ZBAA 120953Z 04004MPS 360V110 9999 -TSRA SCT040CB 26/23 Q1007 NOSIG
ZBAA,2025-07-12 10:00,ZBAA 121000Z 05003MPS 360V130 9999 -TSRA SCT040CB 27/23 Q1008 BECMG AT1040 NSW
ZBAA,2025-07-12 10:30,ZBAA 121030Z 36003MPS CAVOK 26/24 Q1007 RETS NOSIG
ZBAA,2025-07-12 11:00,ZBAA 121100Z 02002MPS CAVOK 26/23 Q1007 NOSIG
ZBAA,2025-07-12 11:30,ZBAA 121130Z VRB01MPS CAVOK 26/24 Q1007 NOSIG
ZBAA,2025-07-12 12:00,ZBAA 121200Z 01002MPS CAVOK 26/23 Q1007 NOSIG
ZBAA,2025-07-12 12:30,ZBAA 121230Z 36003MPS CAVOK 26/22 Q1008 NOSIG
ZBAA,2025-07-12 13:00,ZBAA 121300Z 01003MPS CAVOK 26/21 Q1008 NOSIG
ZBAA,2025-07-12 13:30,ZBAA 121330Z 36002MPS CAVOK 26/22 Q1008 NOSIG
ZBAA,2025-07-12 14:00,ZBAA 121400Z 36002MPS CAVOK 26/22 Q1008 NOSIG
ZBAA,2025-07-12 14:30,ZBAA 121430Z 01003MPS CAVOK 26/22 Q1007 NOSIG
ZBAA,2025-07-12 15:00,ZBAA 121500Z VRB01MPS CAVOK 24/22 Q1007 NOSIG
ZBAA,2025-07-12 15:30,ZBAA 121530Z 33002MPS 300V010 CAVOK 25/22 Q1007 NOSIG
ZBAA,2025-07-12 16:00,ZBAA 121600Z 36001MPS CAVOK 24/22 Q1007 NOSIG
ZBAA,2025-07-12 16:30,ZBAA 121630Z 36002MPS 320V030 CAVOK 24/22 Q1007 NOSIG
ZBAA,2025-07-12 17:00,ZBAA 121700Z 35003MPS CAVOK 23/22 Q1007 NOSIG
ZBAA,2025-07-12 17:30,ZBAA 121730Z 35003MPS CAVOK 24/22 Q1006 NOSIG
ZBAA,2025-07-12 18:00,ZBAA 121800Z 36003MPS CAVOK 23/22 Q1007 NOSIG
ZBAA,2025-07-12 18:30,ZBAA 121830Z 35004MPS CAVOK 24/22 Q1007 NOSIG
ZBAA,2025-07-12 19:00,ZBAA 121900Z 35003MPS CAVOK 23/22 Q1006 NOSIG
ZBAA,2025-07-12 19:30,ZBAA 121930Z 01003MPS CAVOK 23/22 Q1006 NOSIG
ZBAA,2025-07-12 20:00,ZBAA 122000Z 36003MPS CAVOK 23/22 Q1006 NOSIG
ZBAA,2025-07-12 20:30,ZBAA 122030Z 36003MPS CAVOK 23/21 Q1006 NOSIG
ZBAA,2025-07-12 21:00,ZBAA 122100Z 35002MPS CAVOK 23/21 Q1006 NOSIG
ZBAA,2025-07-12 21:30,ZBAA 122130Z 35003MPS CAVOK 23/22 Q1006 NOSIG
ZBAA,2025-07-12 22:00,ZBAA 122200Z 35003MPS CAVOK 25/22 Q1006 NOSIG
ZBAA,2025-07-12 22:30,ZBAA 122230Z 36003MPS CAVOK 26/22 Q1006 NOSIG
ZBAA,2025-07-12 23:00,ZBAA 122300Z 36003MPS CAVOK 27/22 Q1006 NOSIG
ZBAA,2025-07-12 23:30,ZBAA 122330Z 36003MPS CAVOK 28/22 Q1007 NOSIG
ZBAA,2025-07-13 00:00,ZBAA 130000Z 01003MPS CAVOK 28/23 Q1007 NOSIG
ZBAA,2025-07-13 00:30,ZBAA 130030Z 03002MPS 350V070 CAVOK 29/22 Q1007 NOSIG
ZBAA,2025-07-13 01:00,ZBAA 130100Z 36003MPS CAVOK 31/23 Q1007 NOSIG
ZBAA,2025-07-13 01:30,ZBAA 130130Z 02003MPS 350V050 CAVOK 31/22 Q1007 NOSIG
ZBAA,2025-07-13 02:00,ZBAA 130200Z 36003MPS CAVOK 32/22 Q1007 NOSIG
ZBAA,2025-07-13 02:30,ZBAA 130230Z 02003MPS 340V070 CAVOK 33/23 Q1007 NOSIG
ZBAA,2025-07-13 03:00,ZBAA 130300Z 03004MPS 360V070 CAVOK 33/21 Q1006 NOSIG
ZBAA,2025-07-13 03:30,ZBAA 130330Z 03004MPS 350V090 CAVOK 33/23 Q1006 NOSIG
ZBAA,2025-07-13 04:00,ZBAA 130400Z 01003MPS 310V070 CAVOK 35/22 Q1006 NOSIG
ZBAA,2025-07-13 04:30,ZBAA 130430Z 03003MPS 360V080 CAVOK 35/21 Q1005 NOSIG
ZBAA,2025-07-13 05:00,ZBAA 130500Z 04003MPS 010V080 CAVOK 35/20 Q1005 NOSIG
ZBAA,2025-07-13 05:30,ZBAA 130530Z 01003MPS 340V070 CAVOK 35/21 Q1005 NOSIG
ZBAA,2025-07-13 06:00,ZBAA 130600Z 03003MPS 360V070 CAVOK 35/21 Q1005 NOSIG
ZBAA,2025-07-13 06:30,ZBAA 130630Z 04003MPS 350V080 CAVOK 35/22 Q1004 NOSIG
ZBAA,2025-07-13 07:00,ZBAA 130700Z 02003MPS 360V060 CAVOK 36/21 Q1004 NOSIG
ZBAA,2025-07-13 07:30,ZBAA 130730Z 06002MPS 360V110 CAVOK 36/21 Q1004 NOSIG
ZBAA,2025-07-13 08:00,ZBAA 130800Z 36003MPS 330V030 CAVOK 36/21 Q1004 NOSIG
ZBAA,2025-07-13 08:30,ZBAA 130830Z 03003MPS CAVOK 35/21 Q1004 NOSIG
ZBAA,2025-07-13 09:00,ZBAA 130900Z 05002MPS 360V120 CAVOK 35/20 Q1004 NOSIG
ZBAA,2025-07-13 09:30,ZBAA 130930Z 04002MPS 350V090 CAVOK 35/20 Q1003 NOSIG
ZBAA,2025-07-13 10:00,ZBAA 131000Z 04002MPS CAVOK 34/18 Q1003 NOSIG
ZBAA,2025-07-13 10:30,ZBAA 131030Z 01002MPS CAVOK 32/20 Q1003 NOSIG
ZBAA,2025-07-13 11:00,ZBAA 131100Z VRB01MPS CAVOK 30/23 Q1004 NOSIG
ZBAA,2025-07-13 11:30,ZBAA 131130Z 07001MPS CAVOK 29/21 Q1004 NOSIG
ZBAA,2025-07-13 12:00,ZBAA 131200Z 08001MPS CAVOK 27/23 Q1004 NOSIG
ZBAA,2025-07-13 12:30,ZBAA 131230Z 09001MPS CAVOK 27/23 Q1004 NOSIG
ZBAA,2025-07-13 13:00,ZBAA 131300Z 08002MPS CAVOK 27/24 Q1005 NOSIG
ZBAA,2025-07-13 13:30,ZBAA 131330Z VRB01MPS CAVOK 27/24 Q1005 NOSIG
ZBAA,2025-07-13 14:00,ZBAA 131400Z 07001MPS CAVOK 26/23 Q1005 NOSIG
ZBAA,2025-07-13 14:30,ZBAA 131430Z VRB01MPS CAVOK 26/22 Q1005 NOSIG
ZBAA,2025-07-13 15:00,ZBAA 131500Z VRB01MPS CAVOK 26/23 Q1005 NOSIG
ZBAA,2025-07-13 15:30,ZBAA 131530Z 10002MPS CAVOK 26/22 Q1005 NOSIG
ZBAA,2025-07-13 16:00,ZBAA 131600Z 07002MPS 040V110 CAVOK 28/21 Q1005 NOSIG
ZBAA,2025-07-13 16:30,ZBAA 131630Z 08002MPS CAVOK 27/21 Q1005 NOSIG
ZBAA,2025-07-13 17:00,ZBAA 131700Z VRB01MPS CAVOK 27/21 Q1005 NOSIG
ZBAA,2025-07-13 17:30,ZBAA 131730Z 05001MPS CAVOK 25/21 Q1005 NOSIG
ZBAA,2025-07-13 18:00,ZBAA 131800Z 04002MPS CAVOK 24/22 Q1005 NOSIG
ZBAA,2025-07-13 18:30,ZBAA 131830Z 06002MPS CAVOK 24/22 Q1005 NOSIG
ZBAA,2025-07-13 19:00,ZBAA 131900Z VRB01MPS CAVOK 25/22 Q1005 NOSIG
ZBAA,2025-07-13 19:30,ZBAA 131930Z 01001MPS CAVOK 24/22 Q1005 NOSIG
ZBAA,2025-07-13 20:00,ZBAA 132000Z 03001MPS CAVOK 24/22 Q1005 NOSIG
ZBAA,2025-07-13 20:30,ZBAA 132030Z VRB01MPS CAVOK 24/21 Q1005 NOSIG
ZBAA,2025-07-13 21:00,ZBAA 132100Z 01001MPS CAVOK 24/21 Q1005 NOSIG
ZBAA,2025-07-13 21:30,ZBAA 132130Z 05001MPS CAVOK 23/21 Q1005 NOSIG
ZBAA,2025-07-13 22:00,ZBAA 132200Z 03001MPS CAVOK 25/22 Q1005 NOSIG
ZBAA,2025-07-13 22:30,ZBAA 132230Z 01001MPS CAVOK 26/21 Q1005 NOSIG
ZBAA,2025-07-13 23:00,ZBAA 132300Z 01002MPS CAVOK 26/21 Q1005 NOSIG
ZBAA,2025-07-13 23:30,ZBAA 132330Z 36001MPS CAVOK 28/20 Q1005 NOSIG
ZBAA,2025-07-14 00:00,ZBAA 140000Z 02002MPS 330V040 CAVOK 28/21 Q1005 NOSIG
ZBAA,2025-07-14 00:30,ZBAA 140030Z 35002MPS 300V040 CAVOK 31/22 Q1005 NOSIG
ZBAA,2025-07-14 01:00,ZBAA 140100Z 01002MPS 340V060 CAVOK 31/21 Q1005 NOSIG
ZBAA,2025-07-14 01:30,ZBAA 140130Z VRB01MPS CAVOK 30/22 Q1004 NOSIG
ZBAA,2025-07-14 02:00,ZBAA 140200Z VRB01MPS CAVOK 31/22 Q1004 NOSIG
ZBAA,2025-07-14 02:30,ZBAA 140230Z VRB01MPS CAVOK 32/22 Q1004 NOSIG
ZBAA,2025-07-14 03:00,ZBAA 140300Z VRB01MPS CAVOK 32/22 Q1004 NOSIG
ZBAA,2025-07-14 03:30,ZBAA 140330Z VRB01MPS CAVOK 33/23 Q1003 NOSIG
ZBAA,2025-07-14 04:00,ZBAA 140400Z 24002MPS 180V290 CAVOK 33/22 Q1003 NOSIG
ZBAA,2025-07-14 04:30,ZBAA 140430Z 18003MPS 130V260 CAVOK 33/22 Q1003 NOSIG
ZBAA,2025-07-14 05:00,ZBAA 140500Z 13002MPS 070V200 CAVOK 33/23 Q1002 NOSIG
ZBAA,2025-07-14 05:30,ZBAA 140530Z 17002MPS 120V260 CAVOK 34/23 Q1002 NOSIG
ZBAA,2025-07-14 06:00,ZBAA 140600Z 19003MPS 170V230 CAVOK 34/23 Q1001 NOSIG
ZBAA,2025-07-14 06:30,ZBAA 140630Z 16003MPS 100V240 CAVOK 35/23 Q1001 NOSIG
ZBAA,2025-07-14 07:00,ZBAA 140700Z 15003MPS CAVOK 35/23 Q1001 NOSIG
ZBAA,2025-07-14 07:30,ZBAA 140730Z 20004MPS 140V250 CAVOK 34/21 Q1000 NOSIG
ZBAA,2025-07-14 08:00,ZBAA 140800Z 17003MPS 130V200 CAVOK 34/22 Q1000 NOSIG
ZBAA,2025-07-14 08:30,ZBAA 140830Z 17003MPS 120V230 CAVOK 34/22 Q1000 NOSIG
ZBAA,2025-07-14 09:00,ZBAA 140900Z 16003MPS 120V220 CAVOK 34/22 Q0999 NOSIG
ZBAA,2025-07-14 09:30,ZBAA 140930Z 17003MPS 140V220 CAVOK 34/21 Q0999 NOSIG
ZBAA,2025-07-14 10:00,ZBAA 141000Z 19003MPS 130V240 CAVOK 34/20 Q0999 NOSIG
ZBAA,2025-07-14 10:30,ZBAA 141030Z 17003MPS 140V200 CAVOK 32/21 Q0999 NOSIG
ZBAA,2025-07-14 11:00,ZBAA 141100Z 19003MPS 170V240 CAVOK 33/21 Q0999 NOSIG
ZBAA,2025-07-14 11:30,ZBAA 141130Z 20004MPS 180V240 CAVOK 33/21 Q0999 NOSIG
ZBAA,2025-07-14 12:00,ZBAA 141200Z 19003MPS 130V270 CAVOK 33/20 Q0999 NOSIG
ZBAA,2025-07-14 12:30,ZBAA 141230Z 19003MPS 170V230 CAVOK 33/20 Q0999 NOSIG
ZBAA,2025-07-14 13:00,ZBAA 141300Z 17002MPS 130V230 CAVOK 30/22 Q1000 NOSIG
ZBAA,2025-07-14 13:30,ZBAA 141330Z 17001MPS CAVOK 30/22 Q1000 NOSIG
ZBAA,2025-07-14 14:00,ZBAA 141400Z 16001MPS CAVOK 28/23 Q0999 NOSIG
ZBAA,2025-07-14 14:30,ZBAA 141430Z 17002MPS CAVOK 29/22 Q0999 NOSIG
ZBAA,2025-07-14 15:00,ZBAA 141500Z 19003MPS 170V260 CAVOK 31/21 Q0999 NOSIG
ZBAA,2025-07-14 15:30,ZBAA 141530Z 18002MPS 150V210 CAVOK 30/21 Q0999 NOSIG
ZBAA,2025-07-14 16:00,ZBAA 141600Z 16002MPS CAVOK 30/21 Q0999 NOSIG
ZBAA,2025-07-14 16:30,ZBAA 141630Z 16002MPS CAVOK 29/21 Q0998 NOSIG
ZBAA,2025-07-14 17:00,ZBAA 141700Z 16002MPS CAVOK 29/21 Q0998 NOSIG
ZBAA,2025-07-14 17:30,ZBAA 141730Z 15002MPS CAVOK 29/21 Q0998 NOSIG
ZBAA,2025-07-14 18:00,ZBAA 141800Z 16003MPS CAVOK 30/20 Q0998 NOSIG
ZBAA,2025-07-14 18:30,ZBAA 141830Z 15002MPS CAVOK 29/20 Q0998 NOSIG
ZBAA,2025-07-14 19:00,ZBAA 141900Z 16002MPS CAVOK 29/20 Q0997 NOSIG
ZBAA,2025-07-14 19:30,ZBAA 141930Z 15002MPS CAVOK 28/20 Q0997 NOSIG
ZBAA,2025-07-14 20:00,ZBAA 142000Z 14003MPS 9999 -RA NSC 29/18 Q0997 NOSIG
ZBAA,2025-07-14 20:30,ZBAA 142030Z 13003MPS 9999 -RA NSC 28/19 Q0997 NOSIG
ZBAA,2025-07-14 21:00,ZBAA 142100Z 10003MPS 050V130 9999 -RA NSC 28/19 Q0997 NOSIG
ZBAA,2025-07-14 21:30,ZBAA 142130Z 12003MPS 060V150 9999 -RA NSC 27/21 Q0997 NOSIG
ZBAA,2025-07-14 22:00,ZBAA 142200Z 12003MPS 090V150 9999 -RA NSC 25/22 Q0997 NOSIG
ZBAA,2025-07-14 22:30,ZBAA 142230Z 11002MPS 080V140 9999 -RA NSC 25/22 Q0997 NOSIG
ZBAA,2025-07-14 23:00,ZBAA 142300Z 15002MPS 080V180 5000 -RA BR NSC 25/22 Q0998 NOSIG
ZBAA,2025-07-14 23:30,ZBAA 142330Z 13003MPS 080V160 9999 -RA NSC 24/22 Q0997 NOSIG
ZBAA,2025-07-15 00:00,ZBAA 150000Z 13002MPS 090V160 9999 -SHRA NSC 24/21 Q0998 NOSIG
ZBAA,2025-07-15 00:30,ZBAA 150030Z 13002MPS 9999 -SHRA NSC 24/22 Q0997 NOSIG
ZBAA,2025-07-15 01:00,ZBAA 150100Z 10002MPS 060V130 9999 -SHRA NSC 24/22 Q0997 NOSIG
ZBAA,2025-07-15 01:30,ZBAA 150130Z 11002MPS 070V150 9999 -SHRA NSC 23/22 Q0997 NOSIG
ZBAA,2025-07-15 02:00,ZBAA 150200Z VRB01MPS CAVOK 24/22 Q0997 NOSIG
ZBAA,2025-07-15 02:30,ZBAA 150230Z 14002MPS 100V170 CAVOK 24/20 Q0997 NOSIG
ZBAA,2025-07-15 03:00,ZBAA 150300Z 13002MPS 080V180 CAVOK 24/20 Q0997 NOSIG
ZBAA,2025-07-15 03:30,ZBAA 150330Z 13002MPS 090V160 9999 SCT033 24/20 Q0997 NOSIG
ZBAA,2025-07-15 04:00,ZBAA 150400Z 13002MPS 9999 SCT033 24/21 Q0996 NOSIG
ZBAA,2025-07-15 04:30,ZBAA 150430Z 15003MPS 090V190 9999 SCT033 24/20 Q0997 NOSIG
ZBAA,2025-07-15 05:00,ZBAA 150500Z 14002MPS 100V200 9999 BKN033 24/20 Q0996 NOSIG
ZBAA,2025-07-15 05:30,ZBAA 150530Z 16003MPS 120V180 9999 BKN033 24/19 Q0996 NOSIG
ZBAA,2025-07-15 06:00,ZBAA 150600Z 15004MPS 100V180 9999 SCT030 23/20 Q0996 NOSIG
ZBAA,2025-07-15 06:30,ZBAA 150630Z 08003MPS 050V130 9999 SCT030 23/20 Q0995 NOSIG
ZBAA,2025-07-15 07:00,ZBAA 150700Z VRB01MPS 9999 SCT030 23/20 Q0996 BECMG AT0840 33007MPS TS
ZBAA,2025-07-15 07:30,ZBAA 150730Z VRB01MPS 9999 OVC030 23/20 Q0995 NOSIG
ZBAA,2025-07-15 08:00,ZBAA 150800Z VRB01MPS 9999 BKN030 FEW030TCU 24/21 Q0996 BECMG AT0840 36007MPS TS
ZBAA,2025-07-15 08:20,ZBAA 150820Z 36005MPS 340V050 2300 -SHRA BR BKN026 FEW026TCU 23/21 Q0996 NOSIG
ZBAA,2025-07-15 08:30,ZBAA 150830Z 03002MPS 290V080 2300 -SHRA BR BKN026 FEW026TCU 23/21 Q0996 NOSIG
ZBAA,2025-07-15 09:00,ZBAA 150900Z VRB02MPS 4000 TSRA BR FEW007 BKN026 FEW026CB 22/21 Q0995 BECMG AT1010 NSW
ZBAA,2025-07-15 09:16,ZBAA 150916Z VRB01MPS 5000 -TSRA BR FEW007 BKN026 FEW026CB 22/21 Q0996 RESHRA NOSIG
ZBAA,2025-07-15 09:30,ZBAA 150930Z 09002MPS 050V130 5000 -TSRA BR FEW007 BKN026 FEW026CB 22/21 Q0996 RESHRA NOSIG
ZBAA,2025-07-15 10:00,ZBAA 151000Z 11002MPS 010V170 8000 FEW007 OVC026 22/21 Q0996 RETS NOSIG
ZBAA,2025-07-15 10:30,ZBAA 151030Z VRB01MPS 8000 FEW007 OVC033 22/21 Q0996 NOSIG
ZBAA,2025-07-15 11:00,ZBAA 151100Z 09002MPS 040V130 6000 OVC033 22/21 Q0997 NOSIG
ZBAA,2025-07-15 11:30,ZBAA 151130Z VRB01MPS 6000 FEW020 OVC033 22/22 Q0997 NOSIG
ZBAA,2025-07-15 12:00,ZBAA 151200Z 09002MPS 050V130 6000 FEW020 OVC033 22/21 Q0997 NOSIG
ZBAA,2025-07-15 12:30,ZBAA 151230Z VRB01MPS 6000 FEW020 OVC033 22/21 Q0998 NOSIG
ZBAA,2025-07-15 13:00,ZBAA 151300Z VRB01MPS 6000 SCT020 OVC033 22/21 Q0998 NOSIG
ZBAA,2025-07-15 13:30,ZBAA 151330Z 05002MPS 020V080 6000 SCT010 OVC026 22/21 Q0999 NOSIG
ZBAA,2025-07-15 14:00,ZBAA 151400Z 08002MPS 020V120 4000 -SHRA BR SCT006 OVC020 22/21 Q0999 NOSIG
ZBAA,2025-07-15 14:30,ZBAA 151430Z VRB01MPS 3200 -SHRA BR SCT005 OVC020 21/21 Q0999 NOSIG
ZBAA,2025-07-15 15:00,ZBAA 151500Z VRB01MPS 3200 BR SCT005 OVC020 21/21 Q0999 BECMG TL1640 BKN005 OVC020
ZBAA,2025-07-15 15:30,ZBAA 151530Z VRB01MPS 4000 BR SCT006 OVC020 21/21 Q0998 NOSIG
ZBAA,2025-07-15 16:00,ZBAA 151600Z VRB01MPS 4000 BR SCT006 OVC020 21/21 Q0998 BECMG TL1640 BKN006 OVC020
ZBAA,2025-07-15 16:30,ZBAA 151630Z 10002MPS 050V130 4000 BR BKN006 OVC020 21/21 Q0998 NOSIG
ZBAA,2025-07-15 17:00,ZBAA 151700Z 10002MPS 060V140 4000 BR SCT006 OVC020 21/20 Q0999 NOSIG
ZBAA,2025-07-15 17:30,ZBAA 151730Z 11002MPS 070V140 4000 BR SCT006 OVC026 21/21 Q0998 NOSIG
ZBAA,2025-07-15 18:00,ZBAA 151800Z VRB01MPS 4000 BR SCT010 OVC026 21/20 Q0998 NOSIG
ZBAA,2025-07-15 18:30,ZBAA 151830Z 11002MPS 070V160 4000 BR SCT010 OVC026 21/20 Q0999 NOSIG
ZBAA,2025-07-15 19:00,ZBAA 151900Z 12002MPS 080V140 5000 -RA BR FEW010 OVC033 21/20 Q0998 NOSIG
ZBAA,2025-07-15 19:30,ZBAA 151930Z 16002MPS 5000 BR FEW010 OVC033 21/20 Q0999 NOSIG
ZBAA,2025-07-15 20:00,ZBAA 152000Z 17002MPS 5000 BR FEW010 OVC033 21/20 Q0999 NOSIG
ZBAA,2025-07-15 20:30,ZBAA 152030Z 15002MPS 100V190 6000 FEW010 OVC040 21/20 Q0999 NOSIG
ZBAA,2025-07-15 21:00,ZBAA 152100Z 13002MPS 070V170 6000 FEW010 OVC040 21/20 Q0999 NOSIG
ZBAA,2025-07-15 21:30,ZBAA 152130Z VRB01MPS 7000 FEW010 OVC040 21/20 Q0999 NOSIG
ZBAA,2025-07-15 22:00,ZBAA 152200Z 13001MPS 6000 FEW010 OVC040 21/20 Q0999 NOSIG
ZBAA,2025-07-15 22:30,ZBAA 152230Z VRB01MPS 6000 FEW010 OVC040 21/20 Q0999 NOSIG
ZBAA,2025-07-15 23:00,ZBAA 152300Z VRB01MPS 6000 NSC 22/20 Q0999 NOSIG
ZBAA,2025-07-15 23:30,ZBAA 152330Z VRB01MPS 7000 NSC 23/20 Q1000 NOSIG
ZBAA,2025-07-16 00:00,ZBAA 160000Z VRB01MPS 7000 NSC 23/20 Q1000 NOSIG
ZBAA,2025-07-16 00:30,ZBAA 160030Z VRB01MPS 7000 OVC040 23/20 Q1000 NOSIG
ZBAA,2025-07-16 01:00,ZBAA 160100Z VRB01MPS 7000 OVC040 23/20 Q1000 NOSIG
ZBAA,2025-07-16 01:30,ZBAA 160130Z VRB01MPS 7000 OVC040 24/21 Q1000 NOSIG
ZBAA,2025-07-16 02:00,ZBAA 160200Z VRB01MPS 7000 OVC040 25/20 Q1000 NOSIG
ZBAA,2025-07-16 02:30,ZBAA 160230Z VRB01MPS 7000 OVC040 25/21 Q1001 NOSIG
ZBAA,2025-07-16 03:00,ZBAA 160300Z 20002G07MPS 130V250 CAVOK 26/21 Q1001 NOSIG
ZBAA,2025-07-16 03:30,ZBAA 160330Z 20002MPS 160V280 CAVOK 26/21 Q1001 NOSIG
ZBAA,2025-07-16 04:00,ZBAA 160400Z VRB01MPS CAVOK 28/21 Q1000 NOSIG
ZBAA,2025-07-16 04:30,ZBAA 160430Z VRB02MPS CAVOK 28/22 Q1000 NOSIG
ZBAA,2025-07-16 05:00,ZBAA 160500Z VRB01MPS CAVOK 28/23 Q1000 NOSIG
ZBAA,2025-07-16 05:30,ZBAA 160530Z VRB02MPS CAVOK 28/22 Q1000 NOSIG
ZBAA,2025-07-16 06:00,ZBAA 160600Z VRB01MPS CAVOK 29/21 Q1000 NOSIG
ZBAA,2025-07-16 06:30,ZBAA 160630Z 04002MPS 310V110 CAVOK 29/22 Q1000 NOSIG
ZBAA,2025-07-16 07:00,ZBAA 160700Z 03002MPS 310V080 CAVOK 30/22 Q1000 NOSIG
ZBAA,2025-07-16 07:30,ZBAA 160730Z 30002MPS 260V060 CAVOK 30/22 Q1000 NOSIG
ZBAA,2025-07-16 08:00,ZBAA 160800Z VRB01MPS CAVOK 30/22 Q1000 NOSIG
ZBAA,2025-07-16 08:30,ZBAA 160830Z 02002MPS 340V050 CAVOK 31/22 Q1000 NOSIG
ZBAA,2025-07-16 09:00,ZBAA 160900Z 36002MPS 290V070 CAVOK 31/21 Q1000 NOSIG
ZBAA,2025-07-16 09:30,ZBAA 160930Z 01003MPS 310V050 CAVOK 30/21 Q1000 NOSIG
ZBAA,2025-07-16 10:00,ZBAA 161000Z 02002MPS CAVOK 29/23 Q1000 NOSIG
ZBAA,2025-07-16 10:30,ZBAA 161030Z 34002MPS 260V060 CAVOK 29/22 Q1000 NOSIG
ZBAA,2025-07-16 11:00,ZBAA 161100Z 35002MPS 310V050 CAVOK 29/23 Q1000 NOSIG
ZBAA,2025-07-16 11:30,ZBAA 161130Z VRB01MPS CAVOK 28/23 Q1000 NOSIG
ZBAA,2025-07-16 12:00,ZBAA 161200Z 02001MPS CAVOK 27/23 Q1001 NOSIG
ZBAA,2025-07-16 12:30,ZBAA 161230Z 35002MPS 310V020 CAVOK 27/22 Q1001 NOSIG
ZBAA,2025-07-16 13:00,ZBAA 161300Z VRB01MPS CAVOK 27/23 Q1002 NOSIG
ZBAA,2025-07-16 13:30,ZBAA 161330Z 31004MPS CAVOK 29/23 Q1002 NOSIG
ZBAA,2025-07-16 14:00,ZBAA 161400Z 29003MPS CAVOK 28/23 Q1002 NOSIG
ZBAA,2025-07-16 14:30,ZBAA 161430Z 31002MPS CAVOK 28/23 Q1002 NOSIG
ZBAA,2025-07-16 15:00,ZBAA 161500Z 31003MPS 270V360 CAVOK 28/22 Q1003 NOSIG
ZBAA,2025-07-16 15:30,ZBAA 161530Z 31003MPS 270V360 CAVOK 28/22 Q1003 NOSIG
ZBAA,2025-07-16 16:00,ZBAA 161600Z 30003MPS CAVOK 27/22 Q1003 NOSIG
ZBAA,2025-07-16 16:30,ZBAA 161630Z 30003MPS 270V340 CAVOK 27/22 Q1003 NOSIG
ZBAA,2025-07-16 17:00,ZBAA 161700Z 02002MPS CAVOK 25/22 Q1003 NOSIG
ZBAA,2025-07-16 17:30,ZBAA 161730Z 01003MPS CAVOK 24/22 Q1003 NOSIG
ZBAA,2025-07-16 18:00,ZBAA 161800Z VRB01MPS CAVOK 23/21 Q1003 NOSIG
ZBAA,2025-07-16 18:30,ZBAA 161830Z 35001MPS CAVOK 23/21 Q1003 NOSIG
ZBAA,2025-07-16 19:00,ZBAA 161900Z 35003MPS CAVOK 22/21 Q1003 NOSIG
ZBAA,2025-07-16 19:30,ZBAA 161930Z 31003MPS CAVOK 25/19 Q1003 NOSIG
ZBAA,2025-07-16 20:00,ZBAA 162000Z 01002MPS CAVOK 23/19 Q1003 NOSIG
ZBAA,2025-07-16 20:30,ZBAA 162030Z 35003MPS CAVOK 22/20 Q1003 NOSIG
ZBAA,2025-07-16 21:00,ZBAA 162100Z 36002MPS CAVOK 22/20 Q1003 NOSIG
ZBAA,2025-07-16 21:30,ZBAA 162130Z 36002MPS CAVOK 22/20 Q1003 NOSIG
ZBAA,2025-07-16 22:00,ZBAA 162200Z 36003MPS CAVOK 24/21 Q1004 NOSIG
ZBAA,2025-07-16 22:30,ZBAA 162230Z 36004MPS CAVOK 24/21 Q1004 NOSIG
ZBAA,2025-07-16 23:00,ZBAA 162300Z 36004MPS CAVOK 26/21 Q1004 NOSIG
ZBAA,2025-07-16 23:30,ZBAA 162330Z 36004MPS CAVOK 27/20 Q1005 NOSIG
ZBAA,2025-07-17 00:00,ZBAA 170000Z 36004MPS CAVOK 28/20 Q1005 NOSIG
ZBAA,2025-07-17 00:30,ZBAA 170030Z 35003MPS 320V020 CAVOK 29/20 Q1005 NOSIG
ZBAA,2025-07-17 01:00,ZBAA 170100Z 01003MPS CAVOK 29/19 Q1005 NOSIG
ZBAA,2025-07-17 01:30,ZBAA 170130Z 34004MPS CAVOK 31/19 Q1005 NOSIG
ZBAA,2025-07-17 02:00,ZBAA 170200Z 04003MPS 360V080 CAVOK 30/20 Q1005 NOSIG
ZBAA,2025-07-17 02:30,ZBAA 170230Z 01003MPS CAVOK 31/21 Q1005 NOSIG
ZBAA,2025-07-17 03:00,ZBAA 170300Z 01003MPS 330V060 CAVOK 32/19 Q1005 NOSIG
ZBAA,2025-07-17 03:30,ZBAA 170330Z 36003MPS 300V040 CAVOK 32/20 Q1004 NOSIG
ZBAA,2025-07-17 04:00,ZBAA 170400Z 01003MPS 330V050 CAVOK 32/18 Q1004 NOSIG
ZBAA,2025-07-17 04:30,ZBAA 170430Z 36003MPS 270V080 CAVOK 33/20 Q1003 NOSIG
ZBAA,2025-07-17 05:00,ZBAA 170500Z 02003MPS CAVOK 33/19 Q1003 NOSIG
ZBAA,2025-07-17 05:30,ZBAA 170530Z 01003MPS 290V050 CAVOK 34/19 Q1003 NOSIG
ZBAA,2025-07-17 06:00,ZBAA 170600Z VRB02MPS CAVOK 34/18 Q1002 NOSIG
ZBAA,2025-07-17 06:30,ZBAA 170630Z 01004MPS 340V050 CAVOK 34/20 Q1002 NOSIG
ZBAA,2025-07-17 07:00,ZBAA 170700Z 02003MPS 330V050 CAVOK 34/19 Q1002 NOSIG
ZBAA,2025-07-17 07:30,ZBAA 170730Z 34003MPS 290V030 CAVOK 35/18 Q1002 NOSIG
ZBAA,2025-07-17 08:00,ZBAA 170800Z 30002MPS 210V020 CAVOK 35/18 Q1002 NOSIG
ZBAA,2025-07-17 08:30,ZBAA 170830Z 34003MPS 290V030 CAVOK 35/20 Q1002 NOSIG
ZBAA,2025-07-17 09:00,ZBAA 170900Z 35003MPS 310V030 CAVOK 35/18 Q1002 NOSIG
ZBAA,2025-07-17 09:30,ZBAA 170930Z 03002MPS CAVOK 35/18 Q1002 NOSIG
ZBAA,2025-07-17 10:00,ZBAA 171000Z 03002MPS CAVOK 34/19 Q1002 NOSIG
ZBAA,2025-07-17 10:30,ZBAA 171030Z VRB01MPS CAVOK 32/22 Q1002 NOSIG
ZBAA,2025-07-17 11:00,ZBAA 171100Z 15001MPS CAVOK 31/22 Q1002 NOSIG
ZBAA,2025-07-17 11:30,ZBAA 171130Z 16001MPS CAVOK 28/21 Q1002 NOSIG
ZBAA,2025-07-17 12:00,ZBAA 171200Z 18002MPS 150V240 CAVOK 27/22 Q1002 NOSIG
ZBAA,2025-07-17 12:30,ZBAA 171230Z VRB01MPS CAVOK 27/21 Q1003 NOSIG
ZBAA,2025-07-17 13:00,ZBAA 171300Z 21003MPS 150V270 CAVOK 32/19 Q1003 NOSIG
ZBAA,2025-07-17 13:30,ZBAA 171330Z 25003MPS 190V340 CAVOK 32/19 Q1003 NOSIG
ZBAA,2025-07-17 14:00,ZBAA 171400Z 25002MPS 200V310 CAVOK 32/19 Q1003 NOSIG
ZBAA,2025-07-17 14:30,ZBAA 171430Z VRB01MPS CAVOK 25/21 Q1004 NOSIG
ZBAA,2025-07-17 15:00,ZBAA 171500Z 06002MPS CAVOK 25/21 Q1004 NOSIG
ZBAA,2025-07-17 15:30,ZBAA 171530Z 07002MPS CAVOK 26/21 Q1004 NOSIG
ZBAA,2025-07-17 16:00,ZBAA 171600Z 07002MPS CAVOK 26/21 Q1004 NOSIG
ZBAA,2025-07-17 16:30,ZBAA 171630Z VRB01MPS CAVOK 26/20 Q1004 NOSIG
ZBAA,2025-07-17 17:00,ZBAA 171700Z 10002MPS 070V140 CAVOK 27/21 Q1004 NOSIG
ZBAA,2025-07-17 17:30,ZBAA 171730Z VRB01MPS CAVOK 24/21 Q1004 NOSIG
ZBAA,2025-07-17 18:00,ZBAA 171800Z VRB01MPS CAVOK 24/21 Q1004 NOSIG
ZBAA,2025-07-17 18:30,ZBAA 171830Z 05002MPS CAVOK 24/21 Q1004 NOSIG
ZBAA,2025-07-17 19:00,ZBAA 171900Z 02001MPS CAVOK 23/21 Q1005 NOSIG
ZBAA,2025-07-17 19:30,ZBAA 171930Z 03001MPS CAVOK 23/21 Q1005 NOSIG
ZBAA,2025-07-17 20:00,ZBAA 172000Z 01002MPS CAVOK 23/21 Q1005 NOSIG
ZBAA,2025-07-17 20:30,ZBAA 172030Z 35001MPS CAVOK 23/21 Q1005 NOSIG
ZBAA,2025-07-17 21:00,ZBAA 172100Z 36002MPS CAVOK 23/21 Q1005 NOSIG
ZBAA,2025-07-17 21:30,ZBAA 172130Z 35001MPS CAVOK 23/21 Q1005 NOSIG
ZBAA,2025-07-17 22:00,ZBAA 172200Z 35002MPS CAVOK 25/22 Q1005 NOSIG
ZBAA,2025-07-17 22:30,ZBAA 172230Z 35002MPS CAVOK 26/22 Q1006 NOSIG
ZBAA,2025-07-17 23:00,ZBAA 172300Z VRB01MPS CAVOK 28/22 Q1006 NOSIG
ZBAA,2025-07-17 23:30,ZBAA 172330Z VRB01MPS CAVOK 29/21 Q1006 NOSIG
ZBAA,2025-07-18 00:00,ZBAA 180000Z 01002MPS CAVOK 29/22 Q1006 NOSIG
ZBAA,2025-07-18 00:30,ZBAA 180030Z 02002MPS 330V050 CAVOK 30/22 Q1006 NOSIG
ZBAA,2025-07-18 01:00,ZBAA 180100Z VRB01MPS CAVOK 30/21 Q1006 NOSIG
ZBAA,2025-07-18 01:30,ZBAA 180130Z 10002MPS 040V150 CAVOK 31/21 Q1006 NOSIG
ZBAA,2025-07-18 02:00,ZBAA 180200Z 11002MPS 050V170 CAVOK 31/21 Q1006 NOSIG
ZBAA,2025-07-18 02:30,ZBAA 180230Z 11002MPS 050V190 CAVOK 32/22 Q1006 NOSIG
ZBAA,2025-07-18 03:00,ZBAA 180300Z 12002MPS 070V180 CAVOK 32/22 Q1006 NOSIG
ZBAA,2025-07-18 03:30,ZBAA 180330Z VRB01MPS CAVOK 33/21 Q1005 NOSIG
ZBAA,2025-07-18 04:00,ZBAA 180400Z VRB01MPS CAVOK 33/23 Q1005 NOSIG
ZBAA,2025-07-18 04:30,ZBAA 180430Z 17003MPS 120V230 CAVOK 34/23 Q1005 NOSIG
ZBAA,2025-07-18 05:00,ZBAA 180500Z VRB02MPS CAVOK 34/22 Q1005 NOSIG
ZBAA,2025-07-18 05:30,ZBAA 180530Z VRB01MPS CAVOK 35/23 Q1005 NOSIG
ZBAA,2025-07-18 06:00,ZBAA 180600Z VRB02MPS CAVOK 35/21 Q1004 NOSIG
ZBAA,2025-07-18 06:30,ZBAA 180630Z VRB01MPS CAVOK 35/22 Q1004 NOSIG
ZBAA,2025-07-18 07:00,ZBAA 180700Z 10002MPS 060V150 CAVOK 35/23 Q1004 NOSIG
ZBAA,2025-07-18 07:30,ZBAA 180730Z VRB01MPS CAVOK 36/22 Q1004 NOSIG
ZBAA,2025-07-18 08:00,ZBAA 180800Z 16002MPS 100V190 CAVOK 35/22 Q1003 NOSIG
ZBAA,2025-07-18 08:30,ZBAA 180830Z VRB02MPS CAVOK 35/22 Q1003 NOSIG
ZBAA,2025-07-18 09:00,ZBAA 180900Z 12002MPS CAVOK 35/22 Q1003 NOSIG
ZBAA,2025-07-18 09:30,ZBAA 180930Z 15002MPS CAVOK 35/21 Q1002 NOSIG
ZBAA,2025-07-18 10:00,ZBAA 181000Z 15003MPS CAVOK 35/21 Q1002 NOSIG
ZBAA,2025-07-18 10:30,ZBAA 181030Z 15002MPS 110V180 CAVOK 33/22 Q1002 NOSIG
ZBAA,2025-07-18 11:00,ZBAA 181100Z 16002MPS 130V220 CAVOK 32/22 Q1003 NOSIG
ZBAA,2025-07-18 11:30,ZBAA 181130Z 17002MPS CAVOK 29/22 Q1003 NOSIG
ZBAA,2025-07-18 12:00,ZBAA 181200Z 19002MPS 150V240 CAVOK 31/20 Q1003 NOSIG
ZBAA,2025-07-18 12:30,ZBAA 181230Z 14003MPS CAVOK 31/22 Q1004 NOSIG
ZBAA,2025-07-18 13:00,ZBAA 181300Z 14003MPS 110V180 CAVOK 31/22 Q1004 NOSIG
ZBAA,2025-07-18 13:30,ZBAA 181330Z 15004MPS CAVOK 31/22 Q1004 NOSIG
ZBAA,2025-07-18 14:00,ZBAA 181400Z 15003MPS CAVOK 30/22 Q1004 NOSIG
ZBAA,2025-07-18 14:30,ZBAA 181430Z 17003MPS CAVOK 30/22 Q1004 NOSIG
ZBAA,2025-07-18 15:00,ZBAA 181500Z 16002MPS 140V220 CAVOK 29/22 Q1004 NOSIG
ZBAA,2025-07-18 15:30,ZBAA 181530Z 17002MPS CAVOK 29/22 Q1004 NOSIG
ZBAA,2025-07-18 16:00,ZBAA 181600Z 17002MPS CAVOK 28/22 Q1004 NOSIG
ZBAA,2025-07-18 16:30,ZBAA 181630Z 18004MPS CAVOK 29/22 Q1004 NOSIG
ZBAA,2025-07-18 17:00,ZBAA 181700Z 17003MPS CAVOK 28/22 Q1004 NOSIG
ZBAA,2025-07-18 17:30,ZBAA 181730Z 15002MPS CAVOK 28/22 Q1004 NOSIG
ZBAA,2025-07-18 18:00,ZBAA 181800Z 11002MPS CAVOK 27/22 Q1004 NOSIG
ZBAA,2025-07-18 18:30,ZBAA 181830Z 12002MPS CAVOK 27/22 Q1004 NOSIG
ZBAA,2025-07-18 19:00,ZBAA 181900Z 13003MPS CAVOK 28/21 Q1004 NOSIG
ZBAA,2025-07-18 19:30,ZBAA 181930Z 11002MPS 080V150 CAVOK 27/22 Q1004 NOSIG
ZBAA,2025-07-18 20:00,ZBAA 182000Z 12003MPS 080V150 CAVOK 27/22 Q1004 NOSIG
ZBAA,2025-07-18 20:30,ZBAA 182030Z 12003MPS 080V150 CAVOK 26/23 Q1004 NOSIG
ZBAA,2025-07-18 21:00,ZBAA 182100Z 12003MPS 090V150 CAVOK 26/23 Q1004 NOSIG
ZBAA,2025-07-18 21:30,ZBAA 182130Z 11002MPS 070V140 CAVOK 26/23 Q1004 NOSIG
ZBAA,2025-07-18 22:00,ZBAA 182200Z 12002MPS CAVOK 26/23 Q1004 NOSIG
ZBAA,2025-07-18 22:30,ZBAA 182230Z 12002MPS 060V150 CAVOK 27/23 Q1004 NOSIG
ZBAA,2025-07-18 23:00,ZBAA 182300Z 14003MPS 100V170 CAVOK 27/23 Q1004 NOSIG
ZBAA,2025-07-18 23:30,ZBAA 182330Z 14003MPS 110V170 CAVOK 28/23 Q1004 NOSIG
ZBAA,2025-07-19 00:00,ZBAA 190000Z 14002MPS 100V170 CAVOK 28/23 Q1004 NOSIG
ZBAA,2025-07-19 00:30,ZBAA 190030Z 14003MPS CAVOK 29/24 Q1004 NOSIG
ZBAA,2025-07-19 01:00,ZBAA 190100Z 14003MPS 110V180 CAVOK 29/23 Q1004 NOSIG
ZBAA,2025-07-19 01:30,ZBAA 190130Z 14003MPS 100V180 CAVOK 31/25 Q1004 NOSIG
ZBAA,2025-07-19 02:00,ZBAA 190200Z 16004MPS 130V200 CAVOK 31/24 Q1004 NOSIG
ZBAA,2025-07-19 02:30,ZBAA 190230Z 18005MPS 130V240 CAVOK 30/23 Q1004 NOSIG
ZBAA,2025-07-19 03:00,ZBAA 190300Z 17004MPS CAVOK 31/24 Q1004 NOSIG
ZBAA,2025-07-19 03:30,ZBAA 190330Z 17004MPS 120V210 CAVOK 31/23 Q1004 NOSIG
ZBAA,2025-07-19 04:00,ZBAA 190400Z 15003MPS 120V180 CAVOK 31/24 Q1004 NOSIG
ZBAA,2025-07-19 04:30,ZBAA 190430Z 14003MPS CAVOK 31/24 Q1004 NOSIG
ZBAA,2025-07-19 05:00,ZBAA 190500Z 15003MPS CAVOK 31/24 Q1003 NOSIG
ZBAA,2025-07-19 05:30,ZBAA 190530Z 18004MPS 130V220 CAVOK 31/23 Q1003 NOSIG
ZBAA,2025-07-19 06:00,ZBAA 190600Z 17002MPS 120V220 9999 -RA NSC 30/24 Q1003 NOSIG
ZBAA,2025-07-19 06:30,ZBAA 190630Z VRB01MPS CAVOK 31/25 Q1003 NOSIG
ZBAA,2025-07-19 07:00,ZBAA 190700Z 13001MPS CAVOK 31/25 Q1003 NOSIG
ZBAA,2025-07-19 07:30,ZBAA 190730Z 12002MPS 090V170 CAVOK 31/24 Q1003 NOSIG
ZBAA,2025-07-19 08:00,ZBAA 190800Z VRB01MPS CAVOK 31/25 Q1003 NOSIG
ZBAA,2025-07-19 08:30,ZBAA 190830Z VRB01MPS CAVOK 30/25 Q1002 NOSIG
ZBAA,2025-07-19 09:00,ZBAA 190900Z VRB01MPS CAVOK 30/26 Q1002 NOSIG
ZBAA,2025-07-19 09:30,ZBAA 190930Z 07001MPS CAVOK 30/25 Q1003 NOSIG
ZBAA,2025-07-19 10:00,ZBAA 191000Z 07001MPS 9999 -RA NSC 29/25 Q1003 NOSIG
ZBAA,2025-07-19 10:30,ZBAA 191030Z 07002MPS 9999 -RA NSC 28/25 Q1003 NOSIG
ZBAA,2025-07-19 11:00,ZBAA 191100Z 08001MPS 9999 -RA NSC 29/25 Q1003 NOSIG
ZBAA,2025-07-19 11:30,ZBAA 191130Z VRB01MPS CAVOK 29/25 Q1003 NOSIG
ZBAA,2025-07-19 12:00,ZBAA 191200Z VRB01MPS 9999 -RA NSC 28/25 Q1003 NOSIG
ZBAA,2025-07-19 12:30,ZBAA 191230Z VRB01MPS 9999 -RA NSC 28/25 Q1003 NOSIG
ZBAA,2025-07-19 13:00,ZBAA 191300Z 11001MPS 9999 -RA NSC 28/25 Q1003 NOSIG
ZBAA,2025-07-19 13:30,ZBAA 191330Z 09002MPS 060V120 CAVOK 28/24 Q1003 NOSIG
ZBAA,2025-07-19 14:00,ZBAA 191400Z 10002MPS 060V130 CAVOK 28/23 Q1003 NOSIG
ZBAA,2025-07-19 14:30,ZBAA 191430Z 11002MPS 070V150 9999 -RA NSC 28/23 Q1003 NOSIG
ZBAA,2025-07-19 15:00,ZBAA 191500Z VRB01MPS 9999 -RA NSC 27/23 Q1003 NOSIG
ZBAA,2025-07-19 15:30,ZBAA 191530Z VRB01MPS 9999 -RA NSC 27/23 Q1003 NOSIG
ZBAA,2025-07-19 16:00,ZBAA 191600Z VRB01MPS 9999 -RA NSC 26/24 Q1003 NOSIG
ZBAA,2025-07-19 16:30,ZBAA 191630Z 08001MPS 9999 -RA NSC 25/24 Q1003 NOSIG
ZBAA,2025-07-19 17:00,ZBAA 191700Z VRB01MPS 9999 -RA NSC 25/24 Q1003 NOSIG
ZBAA,2025-07-19 17:30,ZBAA 191730Z VRB01MPS 9999 -RA NSC 25/23 Q1003 NOSIG
ZBAA,2025-07-19 18:00,ZBAA 191800Z 36002MPS 9999 -RA NSC 25/24 Q1004 NOSIG
ZBAA,2025-07-19 18:30,ZBAA 191830Z 36003MPS 9999 -RA NSC 25/24 Q1004 NOSIG
ZBAA,2025-07-19 19:00,ZBAA 191900Z 32005MPS 7000 -RA OVC040 25/24 Q1004 NOSIG
ZBAA,2025-07-19 19:30,ZBAA 191930Z 36004MPS 340V040 7000 -RA OVC040 24/23 Q1004 NOSIG
ZBAA,2025-07-19 20:00,ZBAA 192000Z 02002MPS 340V070 7000 -RA OVC040 24/23 Q1004 NOSIG
ZBAA,2025-07-19 20:30,ZBAA 192030Z 05003MPS 350V070 8000 -RA OVC040 23/22 Q1005 NOSIG
ZBAA,2025-07-19 21:00,ZBAA 192100Z VRB01MPS 8000 -RA OVC040 23/22 Q1005 NOSIG
ZBAA,2025-07-19 21:30,ZBAA 192130Z 03002MPS 9999 -RA SCT010 OVC040 23/22 Q1005 NOSIG
ZBAA,2025-07-19 22:00,ZBAA 192200Z VRB01MPS 9999 -RA SCT006 OVC040 23/23 Q1005 BECMG TL2320 BKN010 OVC040
ZBAA,2025-07-19 22:30,ZBAA 192230Z VRB01MPS 9999 -RA SCT008 OVC040 23/23 Q1006 NOSIG
ZBAA,2025-07-19 23:00,ZBAA 192300Z VRB01MPS 9999 -RA SCT010 OVC040 23/22 Q1006 BECMG TL2320 BKN010 OVC040
ZBAA,2025-07-19 23:30,ZBAA 192330Z 05002MPS 9999 -RA BKN010 OVC040 23/22 Q1006 NOSIG
ZBAA,2025-07-20 00:00,ZBAA 200000Z 02002MPS 9999 -RA BKN010 23/23 Q1006 BECMG TL0020 FEW010 OVC040
ZBAA,2025-07-20 00:30,ZBAA 200030Z VRB01MPS 9999 -RA FEW010 23/23 Q1006 NOSIG
ZBAA,2025-07-20 01:00,ZBAA 200100Z VRB01MPS 9999 -RA SCT010 23/23 Q1007 NOSIG
ZBAA,2025-07-20 01:30,ZBAA 200130Z VRB01MPS 9999 -RA FEW010 24/23 Q1006 NOSIG
ZBAA,2025-07-20 02:00,ZBAA 200200Z 01002MPS 320V040 8000 -RA BKN010 23/23 Q1007 BECMG TL0320 SCT010 BKN040
ZBAA,2025-07-20 02:30,ZBAA 200230Z 03002MPS 360V070 9999 -RA BKN010 24/23 Q1006 NOSIG
ZBAA,2025-07-20 03:00,ZBAA 200300Z 34002MPS 300V010 9999 -RA SCT010 BKN040 24/23 Q1007 NOSIG
ZBAA,2025-07-20 03:30,ZBAA 200330Z 01002MPS 9999 -RA SCT010 SCT040 24/23 Q1007 NOSIG
ZBAA,2025-07-20 04:00,ZBAA 200400Z 01004MPS 320V030 9999 FEW010 26/24 Q1006 NOSIG
ZBAA,2025-07-20 04:30,ZBAA 200430Z 01004MPS 9999 BKN030 27/24 Q1006 NOSIG
ZBAA,2025-07-20 05:00,ZBAA 200500Z 01004MPS 9999 BKN030 26/23 Q1006 NOSIG
ZBAA,2025-07-20 05:30,ZBAA 200530Z 01005MPS 340V040 9999 SCT030 26/22 Q1006 NOSIG
ZBAA,2025-07-20 06:00,ZBAA 200600Z 03004MPS 360V070 9999 SCT033 27/22 Q1006 NOSIG
ZBAA,2025-07-20 06:30,ZBAA 200630Z 05004MPS 030V090 9999 FEW040 27/21 Q1006 NOSIG
ZBAA,2025-07-20 07:00,ZBAA 200700Z 03002MPS 340V080 CAVOK 28/22 Q1006 NOSIG
ZBAA,2025-07-20 07:30,ZBAA 200730Z 01004MPS 340V040 CAVOK 27/21 Q1006 NOSIG
ZBAA,2025-07-20 08:00,ZBAA 200800Z 01003MPS 340V040 CAVOK 28/21 Q1006 NOSIG
ZBAA,2025-07-20 08:30,ZBAA 200830Z VRB01MPS CAVOK 28/21 Q1006 NOSIG
ZBAA,2025-07-20 09:00,ZBAA 200900Z VRB01MPS CAVOK 29/21 Q1006 NOSIG
ZBAA,2025-07-20 09:30,ZBAA 200930Z VRB01MPS CAVOK 28/21 Q1006 NOSIG
ZBAA,2025-07-20 10:00,ZBAA 201000Z VRB01MPS CAVOK 29/21 Q1006 NOSIG
ZBAA,2025-07-20 10:30,ZBAA 201030Z 36002MPS 310V010 CAVOK 28/21 Q1006 NOSIG
ZBAA,2025-07-20 11:00,ZBAA 201100Z VRB01MPS CAVOK 26/22 Q1006 NOSIG
ZBAA,2025-07-20 11:30,ZBAA 201130Z 01001MPS CAVOK 25/22 Q1007 NOSIG
ZBAA,2025-07-20 12:00,ZBAA 201200Z 04001MPS CAVOK 24/22 Q1007 NOSIG
ZBAA,2025-07-20 12:30,ZBAA 201230Z 07001MPS CAVOK 23/22 Q1008 NOSIG
ZBAA,2025-07-20 13:00,ZBAA 201300Z VRB01MPS CAVOK 24/22 Q1008 NOSIG
ZBAA,2025-07-20 13:30,ZBAA 201330Z 14002MPS CAVOK 25/23 Q1009 NOSIG
ZBAA,2025-07-20 14:00,ZBAA 201400Z 13002MPS CAVOK 25/23 Q1009 NOSIG
ZBAA,2025-07-20 14:30,ZBAA 201430Z 14002MPS CAVOK 25/23 Q1009 NOSIG
ZBAA,2025-07-20 15:00,ZBAA 201500Z 14002MPS CAVOK 24/23 Q1009 NOSIG
ZBAA,2025-07-20 15:30,ZBAA 201530Z 13001MPS CAVOK 24/23 Q1009 NOSIG
ZBAA,2025-07-20 16:00,ZBAA 201600Z VRB01MPS CAVOK 24/23 Q1009 NOSIG
ZBAA,2025-07-20 16:30,ZBAA 201630Z VRB01MPS CAVOK 23/22 Q1009 NOSIG
ZBAA,2025-07-20 17:00,ZBAA 201700Z 06002MPS CAVOK 23/22 Q1009 NOSIG
ZBAA,2025-07-20 17:30,ZBAA 201730Z 00000MPS CAVOK 24/23 Q1009 NOSIG
ZBAA,2025-07-20 18:00,ZBAA 201800Z 10001MPS 9999 BKN033 24/23 Q1009 NOSIG
ZBAA,2025-07-20 18:30,ZBAA 201830Z 06001MPS 9999 BKN040 24/23 Q1009 NOSIG
ZBAA,2025-07-20 19:00,ZBAA 201900Z 06001MPS 9999 SCT040 23/23 Q1009 NOSIG
ZBAA,2025-07-20 19:30,ZBAA 201930Z 05002MPS 9999 BKN040 23/22 Q1009 NOSIG
ZBAA,2025-07-20 20:00,ZBAA 202000Z VRB01MPS 9999 BKN040 23/23 Q1009 NOSIG
ZBAA,2025-07-20 20:30,ZBAA 202030Z 06001MPS 8000 BKN040 23/23 Q1009 NOSIG
ZBAA,2025-07-20 21:00,ZBAA 202100Z 04001MPS 6000 BKN040 23/23 Q1009 NOSIG
ZBAA,2025-07-20 21:30,ZBAA 202130Z VRB01MPS 6000 BKN040 23/23 Q1010 NOSIG
ZBAA,2025-07-20 22:00,ZBAA 202200Z 00000MPS 6000 BKN040 23/23 Q1010 NOSIG
ZBAA,2025-07-20 22:30,ZBAA 202230Z VRB01MPS 6000 BKN040 24/23 Q1010 NOSIG
ZBAA,2025-07-20 23:00,ZBAA 202300Z VRB01MPS 7000 BKN040 25/23 Q1011 NOSIG
ZBAA,2025-07-20 23:30,ZBAA 202330Z 02003MPS 9999 SCT040 26/23 Q1011 NOSIG
ZBAA,2025-07-21 00:00,ZBAA 210000Z 01002MPS 320V040 9999 SCT040 27/23 Q1011 NOSIG
ZBAA,2025-07-21 00:30,ZBAA 210030Z 01003MPS 9999 SCT040 27/23 Q1011 NOSIG
ZBAA,2025-07-21 01:00,ZBAA 210100Z 02002MPS 330V060 9999 SCT040 28/23 Q1011 NOSIG
ZBAA,2025-07-21 01:30,ZBAA 210130Z 35002MPS 310V070 9999 SCT040 29/23 Q1011 NOSIG
ZBAA,2025-07-21 02:00,ZBAA 210200Z VRB01MPS 9999 FEW040 29/23 Q1011 NOSIG
ZBAA,2025-07-21 02:30,ZBAA 210230Z VRB01MPS CAVOK 30/23 Q1010 NOSIG
ZBAA,2025-07-21 03:00,ZBAA 210300Z VRB01MPS CAVOK 30/23 Q1010 NOSIG
ZBAA,2025-07-21 03:30,ZBAA 210330Z 28002MPS 220V030 CAVOK 30/23 Q1010 NOSIG
ZBAA,2025-07-21 04:00,ZBAA 210400Z VRB02MPS CAVOK 32/23 Q1010 NOSIG
ZBAA,2025-07-21 04:30,ZBAA 210430Z VRB02MPS CAVOK 31/23 Q1009 NOSIG
ZBAA,2025-07-21 05:00,ZBAA 210500Z VRB01MPS CAVOK 32/23 Q1009 NOSIG
ZBAA,2025-07-21 05:30,ZBAA 210530Z VRB02MPS CAVOK 32/22 Q1009 NOSIG
ZBAA,2025-07-21 06:00,ZBAA 210600Z 12002MPS 090V170 CAVOK 33/22 Q1009 NOSIG
ZBAA,2025-07-21 06:30,ZBAA 210630Z 20002MPS 150V260 CAVOK 33/22 Q1008 NOSIG
ZBAA,2025-07-21 07:00,ZBAA 210700Z 19003MPS 130V260 CAVOK 34/20 Q1008 NOSIG
ZBAA,2025-07-21 07:30,ZBAA 210730Z 20003MPS 150V250 CAVOK 34/20 Q1008 NOSIG
ZBAA,2025-07-21 08:00,ZBAA 210800Z 16003MPS 110V220 CAVOK 34/21 Q1008 NOSIG
ZBAA,2025-07-21 08:30,ZBAA 210830Z 18003MPS 150V210 CAVOK 34/20 Q1008 NOSIG
ZBAA,2025-07-21 09:00,ZBAA 210900Z VRB01MPS CAVOK 34/20 Q1008 NOSIG
ZBAA,2025-07-21 09:30,ZBAA 210930Z 18002MPS 150V230 CAVOK 34/19 Q1008 NOSIG
ZBAA,2025-07-21 10:00,ZBAA 211000Z 16002MPS 130V210 CAVOK 33/21 Q1008 NOSIG
ZBAA,2025-07-21 10:30,ZBAA 211030Z 18003MPS 130V210 CAVOK 32/22 Q1008 NOSIG
ZBAA,2025-07-21 11:00,ZBAA 211100Z 18003MPS CAVOK 31/22 Q1008 NOSIG
ZBAA,2025-07-21 11:30,ZBAA 211130Z 16002MPS CAVOK 30/22 Q1008 NOSIG
ZBAA,2025-07-21 12:00,ZBAA 211200Z 17002MPS 140V210 CAVOK 28/23 Q1009 NOSIG
ZBAA,2025-07-21 12:30,ZBAA 211230Z 16002MPS CAVOK 28/23 Q1009 NOSIG
ZBAA,2025-07-21 13:00,ZBAA 211300Z 17002MPS CAVOK 28/23 Q1009 NOSIG
ZBAA,2025-07-21 13:30,ZBAA 211330Z 17003MPS 150V210 CAVOK 29/23 Q1010 NOSIG
ZBAA,2025-07-21 14:00,ZBAA 211400Z VRB01MPS CAVOK 26/23 Q1010 NOSIG
ZBAA,2025-07-21 14:30,ZBAA 211430Z 18002MPS 150V220 CAVOK 26/23 Q1010 NOSIG
ZBAA,2025-07-21 15:00,ZBAA 211500Z 16002MPS CAVOK 25/23 Q1010 NOSIG
ZBAA,2025-07-21 15:30,ZBAA 211530Z VRB01MPS CAVOK 25/23 Q1010 NOSIG
ZBAA,2025-07-21 16:00,ZBAA 211600Z 11002MPS CAVOK 25/23 Q1010 NOSIG
ZBAA,2025-07-21 16:30,ZBAA 211630Z 09002MPS CAVOK 26/24 Q1010 NOSIG
ZBAA,2025-07-21 17:00,ZBAA 211700Z VRB01MPS CAVOK 25/23 Q1010 NOSIG
ZBAA,2025-07-21 17:30,ZBAA 211730Z 07001MPS CAVOK 24/23 Q1010 NOSIG
ZBAA,2025-07-21 18:00,ZBAA 211800Z 01002MPS CAVOK 24/23 Q1010 NOSIG
ZBAA,2025-07-21 18:30,ZBAA 211830Z VRB01MPS CAVOK 25/24 Q1010 NOSIG
ZBAA,2025-07-21 19:00,ZBAA 211900Z 08002MPS 050V110 8000 NSC 25/24 Q1010 NOSIG
ZBAA,2025-07-21 19:30,ZBAA 211930Z 08002MPS 040V110 8000 NSC 25/24 Q1010 NOSIG
ZBAA,2025-07-21 20:00,ZBAA 212000Z VRB01MPS 8000 NSC 25/23 Q1010 NOSIG
ZBAA,2025-07-21 20:30,ZBAA 212030Z VRB01MPS 8000 NSC 24/23 Q1010 NOSIG
ZBAA,2025-07-21 21:00,ZBAA 212100Z VRB01MPS 6000 NSC 24/23 Q1010 NOSIG
ZBAA,2025-07-21 21:30,ZBAA 212130Z VRB01MPS 6000 NSC 24/23 Q1010 NOSIG
ZBAA,2025-07-21 22:00,ZBAA 212200Z 07001MPS 5000 BR NSC 24/23 Q1011 NOSIG
ZBAA,2025-07-21 22:30,ZBAA 212230Z VRB01MPS 5000 BR NSC 25/24 Q1011 NOSIG
ZBAA,2025-07-21 23:00,ZBAA 212300Z VRB01MPS 4000 BR NSC 26/24 Q1011 NOSIG
ZBAA,2025-07-21 23:30,ZBAA 212330Z VRB01MPS 4000 BR NSC 27/24 Q1011 NOSIG
ZBAA,2025-07-22 00:00,ZBAA 220000Z VRB01MPS 4000 BR NSC 27/24 Q1011 NOSIG
ZBAA,2025-07-22 00:30,ZBAA 220030Z VRB01MPS 4000 BR NSC 29/25 Q1011 NOSIG
ZBAA,2025-07-22 01:00,ZBAA 220100Z VRB01MPS 4000 BR NSC 29/24 Q1011 NOSIG
ZBAA,2025-07-22 01:30,ZBAA 220130Z 26002MPS 230V330 4000 BR NSC 29/24 Q1011 NOSIG
ZBAA,2025-07-22 02:00,ZBAA 220200Z 29002MPS 230V010 4000 HZ NSC 29/24 Q1011 NOSIG
ZBAA,2025-07-22 02:30,ZBAA 220230Z 16002MPS 110V220 4000 HZ NSC 30/24 Q1011 NOSIG
ZBAA,2025-07-22 03:00,ZBAA 220300Z VRB01MPS 5000 HZ NSC 31/24 Q1010 NOSIG
ZBAA,2025-07-22 03:30,ZBAA 220330Z VRB01MPS 6000 NSC 32/24 Q1010 NOSIG
ZBAA,2025-07-22 04:00,ZBAA 220400Z VRB02MPS 8000 NSC 32/22 Q1010 NOSIG
ZBAA,2025-07-22 04:30,ZBAA 220430Z 21002MPS 110V270 8000 NSC 32/24 Q1010 NOSIG
ZBAA,2025-07-22 05:00,ZBAA 220500Z 11002MPS 050V180 8000 NSC 32/23 Q1009 NOSIG
ZBAA,2025-07-22 05:30,ZBAA 220530Z VRB01MPS 8000 NSC 33/22 Q1009 NOSIG
ZBAA,2025-07-22 06:00,ZBAA 220600Z 10002MPS 060V130 8000 NSC 33/24 Q1009 NOSIG
ZBAA,2025-07-22 06:30,ZBAA 220630Z 14002MPS 080V180 CAVOK 33/22 Q1008 NOSIG
ZBAA,2025-07-22 07:00,ZBAA 220700Z VRB02MPS CAVOK 34/22 Q1008 NOSIG
ZBAA,2025-07-22 07:30,ZBAA 220730Z 14003MPS 100V170 CAVOK 34/22 Q1008 NOSIG
ZBAA,2025-07-22 08:00,ZBAA 220800Z 15003MPS 090V200 CAVOK 34/22 Q1007 NOSIG
ZBAA,2025-07-22 08:30,ZBAA 220830Z 15003MPS 120V200 CAVOK 34/21 Q1007 NOSIG
ZBAA,2025-07-22 09:00,ZBAA 220900Z 14003MPS 110V170 CAVOK 33/21 Q1007 NOSIG
ZBAA,2025-07-22 09:30,ZBAA 220930Z 15003MPS 120V180 CAVOK 33/22 Q1007 NOSIG
ZBAA,2025-07-22 10:00,ZBAA 221000Z 15003MPS 120V180 CAVOK 32/22 Q1007 NOSIG
ZBAA,2025-07-22 10:30,ZBAA 221030Z 15003MPS CAVOK 32/22 Q1007 NOSIG
ZBAA,2025-07-22 11:00,ZBAA 221100Z 15003MPS CAVOK 32/21 Q1008 NOSIG
ZBAA,2025-07-22 11:30,ZBAA 221130Z 15003MPS CAVOK 31/21 Q1008 NOSIG
ZBAA,2025-07-22 12:00,ZBAA 221200Z 15003MPS CAVOK 30/22 Q1009 NOSIG
ZBAA,2025-07-22 12:30,ZBAA 221230Z 15003MPS CAVOK 30/21 Q1009 NOSIG
ZBAA,2025-07-22 13:00,ZBAA 221300Z 15002MPS CAVOK 29/20 Q1009 NOSIG
ZBAA,2025-07-22 13:30,ZBAA 221330Z 15002MPS CAVOK 28/21 Q1010 NOSIG
ZBAA,2025-07-22 14:00,ZBAA 221400Z 15003MPS CAVOK 29/21 Q1010 NOSIG
ZBAA,2025-07-22 14:30,ZBAA 221430Z 15002MPS CAVOK 28/22 Q1010 NOSIG
ZBAA,2025-07-22 15:00,ZBAA 221500Z 15002MPS CAVOK 27/23 Q1010 NOSIG
ZBAA,2025-07-22 15:30,ZBAA 221530Z VRB01MPS CAVOK 26/23 Q1010 NOSIG
ZBAA,2025-07-22 16:00,ZBAA 221600Z 10002MPS 070V130 CAVOK 26/24 Q1010 NOSIG
ZBAA,2025-07-22 16:30,ZBAA 221630Z 10002MPS CAVOK 27/24 Q1010 NOSIG
ZBAA,2025-07-22 17:00,ZBAA 221700Z 10002MPS 060V140 CAVOK 27/25 Q1010 NOSIG
ZBAA,2025-07-22 17:30,ZBAA 221730Z 12003MPS CAVOK 27/25 Q1010 NOSIG
ZBAA,2025-07-22 18:00,ZBAA 221800Z 08002MPS 050V110 CAVOK 26/25 Q1009 NOSIG
ZBAA,2025-07-22 18:30,ZBAA 221830Z 10002MPS 060V140 CAVOK 26/25 Q1009 NOSIG
ZBAA,2025-07-22 19:00,ZBAA 221900Z 09002MPS 060V120 CAVOK 26/25 Q1009 NOSIG
ZBAA,2025-07-22 19:30,ZBAA 221930Z 13002MPS CAVOK 26/25 Q1009 NOSIG
ZBAA,2025-07-22 20:00,ZBAA 222000Z VRB01MPS 7000 NSC 26/25 Q1009 NOSIG
ZBAA,2025-07-22 20:30,ZBAA 222030Z 11002MPS 060V190 5000 BR NSC 26/25 Q1009 NOSIG
ZBAA,2025-07-22 21:00,ZBAA 222100Z VRB01MPS 4000 BR NSC 26/25 Q1009 NOSIG
ZBAA,2025-07-22 21:30,ZBAA 222130Z 11002MPS 070V140 3500 BR NSC 26/25 Q1009 NOSIG
ZBAA,2025-07-22 22:00,ZBAA 222200Z 10002MPS 070V130 3000 BR NSC 26/26 Q1009 BECMG TL2240 2700
ZBAA,2025-07-22 22:30,ZBAA 222230Z 11002MPS 060V140 2600 BR NSC 26/26 Q1009 NOSIG
ZBAA,2025-07-22 23:00,ZBAA 222300Z 13002MPS 2800 BR NSC 27/26 Q1009 BECMG TL2340 3500
ZBAA,2025-07-22 23:30,ZBAA 222330Z 14002MPS 2800 BR NSC 27/26 Q1009 NOSIG
ZBAA,2025-07-23 00:00,ZBAA 230000Z 15003MPS 3000 BR NSC 27/26 Q1009 NOSIG
ZBAA,2025-07-23 00:30,ZBAA 230030Z 14003MPS 110V180 3500 BR NSC 28/26 Q1009 NOSIG
ZBAA,2025-07-23 01:00,ZBAA 230100Z 14002MPS 080V180 4000 BR NSC 29/26 Q1009 NOSIG
ZBAA,2025-07-23 01:30,ZBAA 230130Z 13002MPS 080V180 5000 BR NSC 30/26 Q1009 NOSIG
ZBAA,2025-07-23 02:00,ZBAA 230200Z 16002MPS 100V200 6000 NSC 30/25 Q1009 NOSIG
ZBAA,2025-07-23 02:30,ZBAA 230230Z 14003MPS 100V200 6000 NSC 31/26 Q1009 NOSIG
ZBAA,2025-07-23 03:00,ZBAA 230300Z 16003MPS 120V210 8000 NSC 32/26 Q1009 NOSIG
ZBAA,2025-07-23 03:30,ZBAA 230330Z 15004MPS 110V190 CAVOK 32/25 Q1008 NOSIG
ZBAA,2025-07-23 04:00,ZBAA 230400Z 17005MPS 140V200 9999 BKN040 33/25 Q1008 NOSIG
ZBAA,2025-07-23 04:30,ZBAA 230430Z 17005MPS 9999 BKN040 34/25 Q1008 NOSIG
ZBAA,2025-07-23 05:00,ZBAA 230500Z 15005MPS 110V170 9999 BKN040 33/24 Q1007 NOSIG
ZBAA,2025-07-23 05:30,ZBAA 230530Z 16005MPS 9999 BKN040 34/24 Q1007 NOSIG
ZBAA,2025-07-23 06:00,ZBAA 230600Z 16005MPS 130V190 CAVOK 34/25 Q1006 BECMG AT0740 TS
ZBAA,2025-07-23 06:30,ZBAA 230630Z 15006MPS CAVOK 33/25 Q1006 NOSIG
ZBAA,2025-07-23 07:00,ZBAA 230700Z 16007MPS CAVOK 33/25 Q1006 NOSIG
ZBAA,2025-07-23 07:30,ZBAA 230730Z 15005MPS 120V180 CAVOK 33/25 Q1005 NOSIG
ZBAA,2025-07-23 08:00,ZBAA 230800Z 16005MPS CAVOK 33/24 Q1005 NOSIG
ZBAA,2025-07-23 08:30,ZBAA 230830Z 15004MPS 100V180 CAVOK 33/25 Q1005 NOSIG
ZBAA,2025-07-23 09:00,ZBAA 230900Z 16005MPS 9999 FEW040TCU 32/25 Q1005 BECMG AT0940 TS
ZBAA,2025-07-23 09:30,ZBAA 230930Z 15005MPS 9999 -SHRA FEW040TCU 30/25 Q1005 NOSIG
ZBAA,2025-07-23 10:00,ZBAA 231000Z 12003MPS 080V140 9999 -SHRA FEW040TCU 28/26 Q1005 NOSIG
ZBAA,2025-07-23 10:30,ZBAA 231030Z 12002MPS 9999 FEW040TCU 28/26 Q1005 NOSIG
ZBAA,2025-07-23 11:00,ZBAA 231100Z 15003MPS 9999 FEW040TCU 29/25 Q1006 NOSIG
ZBAA,2025-07-23 11:12,COR ZBAA 231112Z 17008G13MPS 120V200 7000 -SHRA FEW040CB 28/24 Q1006 NOSIG
ZBAA,2025-07-23 11:30,ZBAA 231130Z 16007MPS 9999 -SHRA FEW040CB 25/24 Q1006 NOSIG
ZBAA,2025-07-23 12:00,ZBAA 231200Z 14003MPS CAVOK 25/25 Q1006 NOSIG
ZBAA,2025-07-23 12:30,ZBAA 231230Z 17004MPS CAVOK 26/25 Q1007 NOSIG
ZBAA,2025-07-23 13:00,ZBAA 231300Z 15003MPS CAVOK 26/25 Q1007 NOSIG
ZBAA,2025-07-23 13:30,ZBAA 231330Z 17003MPS 130V210 9999 -SHRA NSC 26/25 Q1007 NOSIG
ZBAA,2025-07-23 14:00,ZBAA 231400Z 12002MPS CAVOK 26/25 Q1008 NOSIG
ZBAA,2025-07-23 14:30,ZBAA 231430Z 10002MPS CAVOK 26/25 Q1007 NOSIG
ZBAA,2025-07-23 15:00,ZBAA 231500Z 12002MPS 080V150 CAVOK 26/25 Q1007 NOSIG
ZBAA,2025-07-23 15:30,ZBAA 231530Z 13002MPS 100V160 CAVOK 26/25 Q1007 NOSIG
ZBAA,2025-07-23 16:00,ZBAA 231600Z 14003MPS CAVOK 26/25 Q1007 NOSIG
ZBAA,2025-07-23 16:30,ZBAA 231630Z 11002MPS 070V160 CAVOK 26/25 Q1007 NOSIG
ZBAA,2025-07-23 17:00,ZBAA 231700Z 14002MPS CAVOK 26/25 Q1007 NOSIG
ZBAA,2025-07-23 17:30,ZBAA 231730Z 13002MPS 100V160 CAVOK 26/25 Q1007 NOSIG
ZBAA,2025-07-23 18:00,ZBAA 231800Z 14003MPS CAVOK 26/25 Q1007 NOSIG
ZBAA,2025-07-23 18:30,ZBAA 231830Z 14003MPS 100V170 CAVOK 25/25 Q1007 NOSIG
ZBAA,2025-07-23 19:00,ZBAA 231900Z 14003MPS 110V170 CAVOK 25/25 Q1007 NOSIG
ZBAA,2025-07-23 19:30,ZBAA 231930Z 13002MPS CAVOK 25/25 Q1007 NOSIG
ZBAA,2025-07-23 20:00,ZBAA 232000Z 13003MPS 100V160 CAVOK 25/25 Q1006 NOSIG
ZBAA,2025-07-23 20:30,ZBAA 232030Z 14002MPS 110V170 CAVOK 26/25 Q1006 NOSIG
ZBAA,2025-07-23 21:00,ZBAA 232100Z 13003MPS 9999 BKN033 26/24 Q1006 NOSIG
ZBAA,2025-07-23 21:30,ZBAA 232130Z 14003MPS 9999 BKN033 26/24 Q1006 NOSIG
ZBAA,2025-07-23 22:00,ZBAA 232200Z 13003MPS 100V160 9999 -SHRA OVC033 26/24 Q1006 NOSIG
ZBAA,2025-07-23 22:30,ZBAA 232230Z 12003MPS 080V140 9999 OVC033 26/25 Q1006 NOSIG
ZBAA,2025-07-23 23:00,ZBAA 232300Z 12002MPS 020V170 9999 BKN033 FEW033CB 27/25 Q1006 NOSIG
ZBAA,2025-07-23 23:30,ZBAA 232330Z 14003MPS 9999 -SHRA FEW013 BKN033 FEW033CB 27/25 Q1007 NOSIG
ZBAA,2025-07-24 00:00,ZBAA 240000Z 15003MPS 9999 -SHRA SCT013 OVC033 26/25 Q1007 NOSIG
ZBAA,2025-07-24 00:30,ZBAA 240030Z 16003MPS 130V190 3500 -SHRA SCT010 OVC030 26/25 Q1007 NOSIG
ZBAA,2025-07-24 01:00,ZBAA 240100Z VRB01MPS 7000 SCT010 OVC040 26/26 Q1007 NOSIG
ZBAA,2025-07-24 01:30,ZBAA 240130Z 15002MPS 110V170 7000 SCT010 OVC040 27/26 Q1006 NOSIG
ZBAA,2025-07-24 02:00,ZBAA 240200Z 14002MPS 8000 SCT010 OVC040 27/26 Q1006 NOSIG
ZBAA,2025-07-24 02:30,ZBAA 240230Z 16003MPS 120V180 8000 SCT010 OVC040 28/26 Q1006 NOSIG
ZBAA,2025-07-24 03:00,ZBAA 240300Z 15004MPS 110V180 8000 NSC 29/27 Q1006 NOSIG
ZBAA,2025-07-24 03:30,ZBAA 240330Z 10002MPS 050V170 8000 BKN040 29/26 Q1006 NOSIG
ZBAA,2025-07-24 04:00,ZBAA 240400Z 16003MPS 9000 OVC030 29/26 Q1006 NOSIG
ZBAA,2025-07-24 04:30,ZBAA 240430Z 17003MPS 140V210 9000 OVC030 30/26 Q1005 NOSIG
ZBAA,2025-07-24 05:00,ZBAA 240500Z 19004MPS 9999 OVC030 29/26 Q1005 NOSIG
ZBAA,2025-07-24 05:30,ZBAA 240530Z 16003MPS 130V190 9999 OVC030 29/26 Q1005 NOSIG
ZBAA,2025-07-24 06:00,ZBAA 240600Z 14002MPS 9999 OVC030 29/26 Q1005 NOSIG
ZBAA,2025-07-24 06:30,ZBAA 240630Z 13002MPS 080V190 9999 OVC040 30/26 Q1005 NOSIG
ZBAA,2025-07-24 07:00,ZBAA 240700Z 16002MPS 080V230 CAVOK 31/26 Q1004 NOSIG
ZBAA,2025-07-24 07:30,ZBAA 240730Z VRB01MPS CAVOK 31/26 Q1004 NOSIG
ZBAA,2025-07-24 08:00,ZBAA 240800Z VRB01MPS CAVOK 31/26 Q1004 NOSIG
ZBAA,2025-07-24 08:30,ZBAA 240830Z VRB01MPS CAVOK 31/26 Q1004 NOSIG
ZBAA,2025-07-24 09:00,ZBAA 240900Z 04002MPS 280V080 9999 BKN040 31/27 Q1003 BECMG AT1020 17007MPS TS
ZBAA,2025-07-24 09:30,ZBAA 240930Z VRB01MPS 9999 SCT030 BKN040 FEW040CB 31/27 Q1004 NOSIG
ZBAA,2025-07-24 09:36,ZBAA 240936Z 17007G13MPS 9999 SCT020 BKN040 FEW040CB 31/27 Q1004 NOSIG
ZBAA,2025-07-24 10:00,ZBAA 241000Z 15004MPS 3100 SHRA BR SCT010 BKN030 FEW030CB 26/25 Q1004 BECMG AT1020 TS
ZBAA,2025-07-24 10:16,ZBAA 241016Z 09002MPS 020V140 9999 -SHRA BKN040 FEW040CB 26/25 Q1004 RESHRA NOSIG
ZBAA,2025-07-24 10:30,ZBAA 241030Z 15002MPS 090V190 9999 -SHRA BKN040 FEW040CB 26/25 Q1004 RESHRA NOSIG
ZBAA,2025-07-24 10:50,ZBAA 241050Z VRB01MPS 9999 TS FEW040CB 26/25 Q1004 NOSIG
ZBAA,2025-07-24 11:00,ZBAA 241100Z 08002MPS 320V120 9999 TS FEW040CB 26/25 Q1004 BECMG AT1110 NSW
ZBAA,2025-07-24 11:30,ZBAA 241130Z 17003MPS 140V210 9999 FEW040CB 26/25 Q1005 RETS NOSIG
ZBAA,2025-07-24 12:00,ZBAA 241200Z 10002MPS 070V140 7000 -SHRA BKN040 FEW040CB 26/25 Q1005 BECMG AT1220 TS
ZBAA,2025-07-24 12:30,ZBAA 241230Z 10003MPS 070V130 9999 -TSRA FEW004 FEW040CB 25/25 Q1006 NOSIG
ZBAA,2025-07-24 13:00,ZBAA 241300Z 13004MPS 060V180 9999 -TSRA FEW004 FEW040CB 25/25 Q1006 BECMG TL1340 NSW
ZBAA,2025-07-24 13:30,ZBAA 241330Z VRB01MPS 6000 TSRA FEW005 FEW033CB BKN040 25/25 Q1005 NOSIG
ZBAA,2025-07-24 13:47,ZBAA 241347Z VRB03MPS 9999 -TSRA SCT005 FEW033CB BKN040 25/24 Q1006 RESHRA NOSIG
ZBAA,2025-07-24 14:00,ZBAA 241400Z 14002MPS 090V210 9999 -TSRA SCT005 FEW033CB BKN040 25/24 Q1006 RESHRA BECMG TL1440 NSW
ZBAA,2025-07-24 14:30,ZBAA 241430Z 12002MPS 080V150 9999 -TSRA FEW005 FEW033CB BKN040 25/24 Q1006 NOSIG
ZBAA,2025-07-24 15:00,ZBAA 241500Z 10001MPS 9999 -SHRA FEW040CB 25/24 Q1006 RETS NOSIG
ZBAA,2025-07-24 15:30,ZBAA 241530Z 12002MPS 090V150 9999 -SHRA FEW040CB 25/25 Q1006 NOSIG
ZBAA,2025-07-24 16:00,ZBAA 241600Z 10002MPS 070V130 CAVOK 25/25 Q1006 NOSIG
ZBAA,2025-07-24 16:30,ZBAA 241630Z VRB01MPS CAVOK 25/25 Q1005 NOSIG
ZBAA,2025-07-24 17:00,ZBAA 241700Z VRB01MPS 9999 FEW011 25/25 Q1005 BECMG TL1820 TS
ZBAA,2025-07-24 17:30,ZBAA 241730Z 01002MPS 9999 FEW011 25/25 Q1005 NOSIG
ZBAA,2025-07-24 18:00,ZBAA 241800Z VRB01MPS 9999 -RA FEW007 OVC040 25/25 Q1005 NOSIG
ZBAA,2025-07-24 18:30,ZBAA 241830Z VRB01MPS 9999 -RA FEW007 OVC040 25/25 Q1005 NOSIG
ZBAA,2025-07-24 19:00,ZBAA 241900Z 01001MPS 9999 -RA FEW007 OVC040 25/25 Q1005 NOSIG
ZBAA,2025-07-24 19:30,ZBAA 241930Z VRB01MPS 9999 -RA FEW007 OVC040 25/25 Q1005 NOSIG
ZBAA,2025-07-24 20:00,ZBAA 242000Z 07001MPS 9999 -RA FEW007 OVC040 25/25 Q1004 NOSIG
ZBAA,2025-07-24 20:30,ZBAA 242030Z VRB01MPS 9999 -RA FEW007 OVC040 25/25 Q1004 NOSIG
ZBAA,2025-07-24 21:00,ZBAA 242100Z VRB01MPS 7000 -RA FEW007 OVC040 25/25 Q1004 BECMG TL2150 15005MPS -TSRA
ZBAA,2025-07-24 21:30,ZBAA 242130Z VRB01MPS 7000 -SHRA SCT006 OVC033 25/25 Q1005 NOSIG
ZBAA,2025-07-24 21:51,ZBAA 242151Z 17004MPS 130V210 4000 -TSRA BR SCT005 BKN033 FEW033CB 26/25 Q1005 NOSIG
ZBAA,2025-07-24 22:00,ZBAA 242200Z 19002MPS 140V270 4000 -TSRA BR SCT005 BKN033 FEW033CB 26/25 Q1005 BECMG TL2340 NSW
ZBAA,2025-07-24 22:30,ZBAA 242230Z 21002MPS 180V330 4000 -TSRA BR SCT005 BKN033 FEW033CB 26/25 Q1005 NOSIG
ZBAA,2025-07-24 23:00,ZBAA 242300Z 15002MPS 7000 -TSRA SCT005 BKN033 FEW033CB 25/25 Q1005 BECMG TL2320 NSW
ZBAA,2025-07-24 23:13,ZBAA 242313Z 14002MPS 110V170 9999 -SHRA SCT005 BKN033 FEW033CB 25/25 Q1005 RETS NOSIG
ZBAA,2025-07-24 23:30,ZBAA 242330Z VRB01MPS 9999 -SHRA SCT005 OVC033 25/25 Q1006 RETS NOSIG
ZBAA,2025-07-25 00:00,ZBAA 250000Z 16003MPS 120V190 9999 -SHRA SCT005 OVC033 25/25 Q1006 NOSIG
ZBAA,2025-07-25 00:30,ZBAA 250030Z VRB01MPS 9999 -SHRA SCT010 OVC040 25/25 Q1006 NOSIG
ZBAA,2025-07-25 01:00,ZBAA 250100Z 05001MPS 9999 -SHRA SCT010 OVC040 26/25 Q1006 NOSIG
ZBAA,2025-07-25 01:30,ZBAA 250130Z VRB01MPS 9999 SCT010 OVC040 26/26 Q1006 NOSIG
ZBAA,2025-07-25 02:00,ZBAA 250200Z 10002MPS 060V120 8000 -SHRA SCT010 OVC040 26/26 Q1006 NOSIG
ZBAA,2025-07-25 02:30,ZBAA 250230Z 12002MPS 8000 -SHRA SCT010 OVC040 27/26 Q1006 NOSIG
ZBAA,2025-07-25 03:00,ZBAA 250300Z 14002MPS 100V180 7000 SCT010 OVC040 27/26 Q1005 NOSIG
ZBAA,2025-07-25 03:30,ZBAA 250330Z VRB01MPS 7000 FEW010 OVC040 28/26 Q1005 NOSIG
ZBAA,2025-07-25 04:00,ZBAA 250400Z VRB01MPS 7000 FEW010 OVC040 28/26 Q1006 NOSIG
ZBAA,2025-07-25 04:30,ZBAA 250430Z 14002MPS 110V170 7000 FEW015 OVC040 28/26 Q1005 NOSIG
ZBAA,2025-07-25 05:00,ZBAA 250500Z 14002MPS 100V170 7000 FEW015 OVC040 29/26 Q1005 NOSIG
ZBAA,2025-07-25 05:30,ZBAA 250530Z 18002MPS 130V240 7000 FEW015 OVC040 29/26 Q1005 NOSIG
ZBAA,2025-07-25 06:00,ZBAA 250600Z VRB02MPS 7000 FEW030 29/26 Q1005 NOSIG
ZBAA,2025-07-25 06:30,ZBAA 250630Z VRB01MPS 7000 FEW030 29/26 Q1005 NOSIG
ZBAA,2025-07-25 07:00,ZBAA 250700Z 15002MPS 7000 FEW030 29/26 Q1005 NOSIG
ZBAA,2025-07-25 07:30,ZBAA 250730Z 13002MPS 100V170 7000 FEW030 29/27 Q1004 NOSIG
ZBAA,2025-07-25 08:00,ZBAA 250800Z VRB01MPS CAVOK 30/27 Q1004 NOSIG
ZBAA,2025-07-25 08:30,ZBAA 250830Z VRB01MPS CAVOK 30/27 Q1004 NOSIG
ZBAA,2025-07-25 09:00,ZBAA 250900Z VRB01MPS CAVOK 30/27 Q1004 NOSIG
ZBAA,2025-07-25 09:30,ZBAA 250930Z VRB01MPS CAVOK 30/28 Q1004 NOSIG
ZBAA,2025-07-25 10:00,ZBAA 251000Z VRB01MPS CAVOK 30/28 Q1004 NOSIG
ZBAA,2025-07-25 10:30,ZBAA 251030Z 05002MPS 010V100 8000 NSC 29/27 Q1004 NOSIG
ZBAA,2025-07-25 10:33,ZBAA 251033Z 18007G12MPS 090V220 4000 TSRA BR SCT033CB 29/27 Q1005 NOSIG
ZBAA,2025-07-25 11:00,ZBAA 251100Z 12003MPS 080V140 4000 -TSRA BR SCT033CB 25/25 Q1004 RESHRA BECMG TL1140 NSW
ZBAA,2025-07-25 11:30,ZBAA 251130Z 00000MPS 8000 FEW033CB 26/25 Q1004 RETS NOSIG
ZBAA,2025-07-25 12:00,ZBAA 251200Z VRB01MPS 8000 FEW015 FEW033CB 26/25 Q1004 NOSIG
ZBAA,2025-07-25 12:30,ZBAA 251230Z VRB01MPS 8000 FEW015 26/26 Q1005 NOSIG
ZBAA,2025-07-25 13:00,ZBAA 251300Z 06001MPS 8000 -SHRA FEW015 26/26 Q1005 BECMG TL1340 2800 SHRA
ZBAA,2025-07-25 13:30,ZBAA 251330Z VRB01MPS 8000 -SHRA FEW015 FEW033CB 26/26 Q1004 NOSIG
ZBAA,2025-07-25 13:53,ZBAA 251353Z VRB04MPS 8000 -TSRA SCT015 SCT033CB 27/26 Q1005 NOSIG
ZBAA,2025-07-25 14:00,ZBAA 251400Z VRB03MPS 8000 -TSRA SCT015 SCT033CB 27/27 Q1005 BECMG TL1440 NSW
ZBAA,2025-07-25 14:30,ZBAA 251430Z VRB01MPS 8000 SCT015 FEW033CB 26/26 Q1005 RETS NOSIG
ZBAA,2025-07-25 15:00,ZBAA 251500Z VRB01MPS 6000 NSC 26/26 Q1005 NOSIG
ZBAA,2025-07-25 15:30,ZBAA 251530Z VRB01MPS 5000 BR NSC 27/26 Q1005 NOSIG
ZBAA,2025-07-25 16:00,ZBAA 251600Z 11002MPS 080V140 5000 BR NSC 27/26 Q1005 NOSIG
ZBAA,2025-07-25 16:30,ZBAA 251630Z 12002MPS 070V160 5000 BR NSC 26/26 Q1005 NOSIG
ZBAA,2025-07-25 17:00,ZBAA 251700Z 13002MPS 100V160 7000 NSC 26/26 Q1005 NOSIG
ZBAA,2025-07-25 17:30,ZBAA 251730Z 13001MPS 7000 NSC 26/25 Q1005 NOSIG
ZBAA,2025-07-25 18:00,ZBAA 251800Z VRB01MPS 7000 NSC 26/26 Q1005 NOSIG
ZBAA,2025-07-25 18:30,ZBAA 251830Z 12002MPS 090V150 6000 NSC 26/25 Q1005 NOSIG
ZBAA,2025-07-25 19:00,ZBAA 251900Z 13002MPS 090V150 6000 NSC 26/26 Q1004 NOSIG
ZBAA,2025-07-25 19:30,ZBAA 251930Z 12002MPS 070V150 6000 NSC 26/26 Q1005 NOSIG
ZBAA,2025-07-25 20:00,ZBAA 252000Z 14002MPS 100V170 5000 BR NSC 26/26 Q1004 NOSIG
ZBAA,2025-07-25 20:30,ZBAA 252030Z VRB01MPS 5000 BR NSC 26/26 Q1005 NOSIG
ZBAA,2025-07-25 21:00,ZBAA 252100Z VRB01MPS 4000 BR FEW010 26/26 Q1005 NOSIG
ZBAA,2025-07-25 21:30,ZBAA 252130Z 11001MPS 3200 BR FEW010 26/26 Q1005 NOSIG
ZBAA,2025-07-25 22:00,ZBAA 252200Z 11002MPS 080V160 3200 BR FEW010 26/26 Q1005 BECMG TL2240 2800
ZBAA,2025-07-25 22:30,ZBAA 252230Z 13002MPS 090V150 2800 BR FEW010 26/26 Q1005 NOSIG
ZBAA,2025-07-25 23:00,ZBAA 252300Z VRB01MPS 2800 BR FEW010 27/26 Q1005 BECMG TL0040 3200
ZBAA,2025-07-25 23:30,ZBAA 252330Z 13002MPS 090V160 2800 BR NSC 27/26 Q1005 NOSIG
ZBAA,2025-07-26 00:00,ZBAA 260000Z 14002MPS 2800 BR NSC 27/26 Q1005 BECMG TL0040 3200
ZBAA,2025-07-26 00:30,ZBAA 260030Z 13003MPS 100V160 3200 BR NSC 28/27 Q1005 NOSIG
ZBAA,2025-07-26 01:00,ZBAA 260100Z 15003MPS 4000 BR NSC 28/26 Q1005 NOSIG
ZBAA,2025-07-26 01:30,ZBAA 260130Z 14003MPS 090V180 4000 BR NSC 29/26 Q1005 NOSIG
ZBAA,2025-07-26 02:00,ZBAA 260200Z 15003MPS 6000 NSC 30/27 Q1005 NOSIG
ZBAA,2025-07-26 02:30,ZBAA 260230Z 20004MPS 170V230 6000 NSC 31/26 Q1005 NOSIG
ZBAA,2025-07-26 03:00,ZBAA 260300Z 17004MPS 8000 NSC 32/27 Q1005 NOSIG
ZBAA,2025-07-26 03:30,ZBAA 260330Z 18005G10MPS 150V230 8000 NSC 32/26 Q1005 NOSIG
ZBAA,2025-07-26 04:00,ZBAA 260400Z 18005MPS 8000 FEW030 32/27 Q1005 NOSIG
ZBAA,2025-07-26 04:30,ZBAA 260430Z 18006MPS 9999 BKN030 33/27 Q1004 NOSIG
ZBAA,2025-07-26 05:00,ZBAA 260500Z 18005MPS 9999 BKN033 33/27 Q1004 NOSIG
ZBAA,2025-07-26 05:30,ZBAA 260530Z 18006MPS 9999 BKN033 33/27 Q1004 NOSIG
ZBAA,2025-07-26 06:00,ZBAA 260600Z 20005MPS 9999 BKN033 33/26 Q1004 NOSIG
ZBAA,2025-07-26 06:30,ZBAA 260630Z 18004MPS 130V200 9999 BKN033 33/26 Q1004 NOSIG
ZBAA,2025-07-26 07:00,ZBAA 260700Z 17006MPS 130V200 9999 BKN033 33/26 Q1004 NOSIG
ZBAA,2025-07-26 07:30,ZBAA 260730Z 17006MPS 9999 BKN033 33/27 Q1003 NOSIG
ZBAA,2025-07-26 08:00,ZBAA 260800Z 16004MPS 9999 BKN033 33/26 Q1003 NOSIG
ZBAA,2025-07-26 08:30,ZBAA 260830Z 18004MPS 140V210 CAVOK 34/26 Q1003 NOSIG
ZBAA,2025-07-26 09:00,ZBAA 260900Z 15003MPS 120V180 CAVOK 32/26 Q1003 NOSIG
ZBAA,2025-07-26 09:30,ZBAA 260930Z 15002MPS CAVOK 32/26 Q1003 NOSIG
ZBAA,2025-07-26 10:00,ZBAA 261000Z 16002MPS 120V210 CAVOK 31/27 Q1003 NOSIG
ZBAA,2025-07-26 10:30,ZBAA 261030Z VRB01MPS 9999 FEW040 32/27 Q1003 NOSIG
ZBAA,2025-07-26 11:00,ZBAA 261100Z 16002MPS CAVOK 31/26 Q1003 NOSIG
ZBAA,2025-07-26 11:30,ZBAA 261130Z 15003MPS 9999 FEW040CB 31/26 Q1003 NOSIG
ZBAA,2025-07-26 12:00,ZBAA 261200Z VRB01MPS 9999 FEW040CB 30/26 Q1004 NOSIG
ZBAA,2025-07-26 12:30,ZBAA 261230Z 06002MPS 040V150 CAVOK 29/27 Q1004 NOSIG
ZBAA,2025-07-26 13:00,ZBAA 261300Z 08002MPS CAVOK 29/27 Q1004 NOSIG
ZBAA,2025-07-26 13:30,ZBAA 261330Z 15002MPS CAVOK 30/26 Q1004 NOSIG
ZBAA,2025-07-26 14:00,ZBAA 261400Z 16003MPS CAVOK 30/25 Q1004 NOSIG
ZBAA,2025-07-26 14:30,ZBAA 261430Z 16003MPS CAVOK 29/24 Q1004 NOSIG
ZBAA,2025-07-26 15:00,ZBAA 261500Z 14003MPS CAVOK 30/24 Q1005 NOSIG
ZBAA,2025-07-26 15:30,ZBAA 261530Z 13003MPS CAVOK 29/24 Q1005 NOSIG
ZBAA,2025-07-26 16:00,ZBAA 261600Z 14003MPS CAVOK 29/24 Q1005 NOSIG
ZBAA,2025-07-26 16:30,ZBAA 261630Z 14004MPS CAVOK 29/24 Q1005 NOSIG
ZBAA,2025-07-26 17:00,ZBAA 261700Z 12002MPS 090V150 CAVOK 28/25 Q1005 NOSIG
ZBAA,2025-07-26 17:30,ZBAA 261730Z 14002MPS CAVOK 28/25 Q1004 NOSIG
ZBAA,2025-07-26 18:00,ZBAA 261800Z 16002MPS CAVOK 28/25 Q1004 NOSIG
ZBAA,2025-07-26 18:30,ZBAA 261830Z 15002MPS CAVOK 27/25 Q1004 NOSIG
ZBAA,2025-07-26 19:00,ZBAA 261900Z VRB01MPS CAVOK 27/25 Q1005 NOSIG
ZBAA,2025-07-26 19:30,ZBAA 261930Z 08002MPS CAVOK 27/25 Q1005 NOSIG
ZBAA,2025-07-26 20:00,ZBAA 262000Z 09002MPS CAVOK 26/25 Q1005 NOSIG
ZBAA,2025-07-26 20:30,ZBAA 262030Z 10002MPS 070V130 CAVOK 26/25 Q1005 NOSIG
ZBAA,2025-07-26 21:00,ZBAA 262100Z 11002MPS 080V140 7000 NSC 26/25 Q1005 NOSIG
ZBAA,2025-07-26 21:30,ZBAA 262130Z 11002MPS 080V140 6000 NSC 26/25 Q1005 NOSIG
ZBAA,2025-07-26 22:00,ZBAA 262200Z 12002MPS 090V150 5000 BR NSC 27/26 Q1005 NOSIG
ZBAA,2025-07-26 22:30,ZBAA 262230Z 14002MPS 5000 BR NSC 27/26 Q1005 NOSIG
ZBAA,2025-07-26 23:00,ZBAA 262300Z 14002MPS 080V190 5000 BR NSC 28/26 Q1005 NOSIG
ZBAA,2025-07-26 23:30,ZBAA 262330Z VRB01MPS 5000 BR NSC 28/27 Q1005 NOSIG
ZBAA,2025-07-27 00:00,ZBAA 270000Z VRB01MPS 5000 BR NSC 28/27 Q1006 NOSIG
ZBAA,2025-07-27 00:30,ZBAA 270030Z 14002MPS 100V170 5000 BR NSC 29/26 Q1006 NOSIG
ZBAA,2025-07-27 01:00,ZBAA 270100Z VRB01MPS 5000 BR NSC 29/26 Q1006 NOSIG
ZBAA,2025-07-27 01:30,ZBAA 270130Z VRB01MPS 6000 NSC 30/27 Q1005 NOSIG
ZBAA,2025-07-27 02:00,ZBAA 270200Z VRB01MPS 7000 NSC 30/27 Q1005 NOSIG
ZBAA,2025-07-27 02:30,ZBAA 270230Z 16002MPS 8000 NSC 30/27 Q1005 NOSIG
ZBAA,2025-07-27 03:00,ZBAA 270300Z 16002MPS 120V200 8000 NSC 31/27 Q1005 NOSIG
ZBAA,2025-07-27 03:30,ZBAA 270330Z VRB01MPS 8000 NSC 32/26 Q1005 NOSIG
ZBAA,2025-07-27 04:00,ZBAA 270400Z 24003MPS 200V280 7000 NSC 31/26 Q1004 NOSIG
ZBAA,2025-07-27 04:30,ZBAA 270430Z 22004MPS 190V260 9999 FEW033 32/26 Q1004 NOSIG
ZBAA,2025-07-27 05:00,ZBAA 270500Z 27003MPS 160V320 9999 SCT040 32/26 Q1004 BECMG TL0640 18005MPS
ZBAA,2025-07-27 05:30,ZBAA 270530Z 03002MPS 320V070 9999 SCT040 32/27 Q1004 NOSIG
ZBAA,2025-07-27 06:00,ZBAA 270600Z 07003MPS 020V110 9999 -RA BKN040 30/27 Q1004 NOSIG
ZBAA,2025-07-27 06:30,ZBAA 270630Z 07004MPS 040V110 9999 -SHRA BKN040 FEW040CB 28/26 Q1004 NOSIG
ZBAA,2025-07-27 06:34,ZBAA 270634Z 07004MPS 6000 SHRA BKN040 FEW040CB 28/26 Q1004 NOSIG
ZBAA,2025-07-27 06:50,ZBAA 270650Z 07005MPS 030V130 8000 -TSRA BKN040 FEW040CB 26/26 Q1003 RESHRA NOSIG
ZBAA,2025-07-27 07:00,ZBAA 270700Z 08003MPS 030V130 8000 -TSRA FEW009 BKN040 FEW040CB 26/26 Q1004 RESHRA BECMG TL0750 TSRA
ZBAA,2025-07-27 07:30,ZBAA 270730Z 19006MPS 5000 TSRA BR FEW005 BKN040 SCT040CB 27/26 Q1004 NOSIG
ZBAA,2025-07-27 07:33,ZBAA 270733Z 20006MPS 1700 TSRA BR FEW005 BKN040 SCT040CB 26/26 Q1004 NOSIG
ZBAA,2025-07-27 07:49,ZBAA 270749Z 14003MPS 070V200 1700 TSRA BR FEW005 OVC033CB 25/24 Q1004 NOSIG
ZBAA,2025-07-27 08:00,ZBAA 270800Z 07002MPS 360V120 3100 -TSRA BR SCT005 OVC033CB 25/24 Q1004 RESHRA BECMG AT0920 NSW
ZBAA,2025-07-27 08:30,ZBAA 270830Z 01003MPS 8000 -TSRA SCT040CB 25/25 Q1004 NOSIG
ZBAA,2025-07-27 09:00,ZBAA 270900Z 07002MPS 010V110 8000 -SHRA FEW040CB 25/25 Q1004 RETS NOSIG
ZBAA,2025-07-27 09:30,ZBAA 270930Z 08003MPS 040V110 CAVOK 26/25 Q1003 NOSIG
ZBAA,2025-07-27 10:00,ZBAA 271000Z 07002MPS 020V090 CAVOK 26/25 Q1003 NOSIG
ZBAA,2025-07-27 10:30,ZBAA 271030Z 02002MPS CAVOK 26/25 Q1003 NOSIG
ZBAA,2025-07-27 11:00,ZBAA 271100Z 05002MPS CAVOK 26/25 Q1003 NOSIG
ZBAA,2025-07-27 11:30,ZBAA 271130Z VRB01MPS CAVOK 26/25 Q1003 NOSIG
ZBAA,2025-07-27 12:00,ZBAA 271200Z VRB01MPS CAVOK 26/25 Q1004 NOSIG
ZBAA,2025-07-27 12:30,ZBAA 271230Z VRB01MPS CAVOK 26/25 Q1004 NOSIG
ZBAA,2025-07-27 13:00,ZBAA 271300Z VRB01MPS CAVOK 26/25 Q1004 NOSIG
ZBAA,2025-07-27 13:30,ZBAA 271330Z 04001MPS CAVOK 26/25 Q1004 NOSIG
ZBAA,2025-07-27 14:00,ZBAA 271400Z VRB01MPS CAVOK 26/25 Q1004 BECMG TL1520 TS
ZBAA,2025-07-27 14:30,ZBAA 271430Z VRB01MPS CAVOK 26/25 Q1004 NOSIG
ZBAA,2025-07-27 15:00,COR ZBAA 271500Z 04002MPS 9999 -SHRA BKN040 FEW040CB 26/26 Q1004 BECMG TL1520 TS
ZBAA,2025-07-27 15:06,ZBAA 271506Z 02002MPS 9999 -TSRA BKN040 FEW040CB 26/25 Q1004 NOSIG
ZBAA,2025-07-27 15:30,ZBAA 271530Z 03002MPS 360V090 9999 -TSRA BKN040 FEW040CB 26/26 Q1004 NOSIG
ZBAA,2025-07-27 16:00,ZBAA 271600Z 28004MPS 240V320 6000 -TSRA SCT033CB SCT040 26/26 Q1004 BECMG TL1720 RA
ZBAA,2025-07-27 16:04,ZBAA 271604Z 27005MPS 240V300 4000 TSRA SCT033CB SCT040 26/26 Q1004 NOSIG
ZBAA,2025-07-27 16:14,ZBAA 271614Z 33004MPS 280V010 4000 -TSRA SCT033CB SCT040 26/25 Q1004 RESHRA NOSIG
ZBAA,2025-07-27 16:30,ZBAA 271630Z 06002MPS 030V090 5000 -TSRA SCT033CB SCT040 26/25 Q1004 RESHRA NOSIG
ZBAA,2025-07-27 17:00,ZBAA 271700Z 04002MPS 340V080 8000 -TSRA FEW005 BKN040 FEW040CB 25/25 Q1004 BECMG TL1820 NSW
ZBAA,2025-07-27 17:10,ZBAA 271710Z 33002MPS 280V040 3500 TSRA SCT040 SCT040CB 25/25 Q1004 NOSIG
ZBAA,2025-07-27 17:30,ZBAA 271730Z VRB02MPS 1700 +TSRA OVC033CB 25/25 Q1004 NOSIG
ZBAA,2025-07-27 17:51,ZBAA 271751Z VRB01MPS 9999 -TSRA FEW005 FEW033CB 25/25 Q1003 RESHRA NOSIG
ZBAA,2025-07-27 18:00,ZBAA 271800Z VRB01MPS 9999 -TSRA FEW005 FEW033CB 25/25 Q1003 RESHRA BECMG TL1940 NSW
ZBAA,2025-07-27 18:30,ZBAA 271830Z VRB01MPS 9999 SCT005 FEW033CB 25/25 Q1004 RETS NOSIG
ZBAA,2025-07-27 19:00,ZBAA 271900Z VRB01MPS CAVOK 25/25 Q1004 NOSIG
ZBAA,2025-07-27 19:30,ZBAA 271930Z 00000MPS CAVOK 25/25 Q1004 NOSIG
ZBAA,2025-07-27 20:00,ZBAA 272000Z VRB01MPS CAVOK 25/25 Q1004 NOSIG
ZBAA,2025-07-27 20:30,ZBAA 272030Z 10002MPS 060V150 CAVOK 25/25 Q1004 NOSIG
ZBAA,2025-07-27 21:00,ZBAA 272100Z 11002MPS 080V140 9999 SCT030 25/25 Q1004 NOSIG
ZBAA,2025-07-27 21:30,ZBAA 272130Z 00000MPS 9999 BKN026 25/25 Q1004 NOSIG
ZBAA,2025-07-27 22:00,ZBAA 272200Z VRB01MPS 9999 BKN026 25/25 Q1004 NOSIG
ZBAA,2025-07-27 22:30,ZBAA 272230Z VRB01MPS 9999 SCT007 OVC030 26/25 Q1004 NOSIG
ZBAA,2025-07-27 23:00,ZBAA 272300Z VRB01MPS 9999 SCT007 OVC030 25/25 Q1004 BECMG TL2320 BKN007 OVC030
ZBAA,2025-07-27 23:30,ZBAA 272330Z 10002MPS 060V150 9999 BKN007 OVC030 25/24 Q1004 NOSIG
ZBAA,2025-07-28 00:00,ZBAA 280000Z 10003MPS 060V150 9999 BKN007 OVC030 25/24 Q1004 BECMG TL0140 SCT007 OVC030
ZBAA,2025-07-28 00:30,ZBAA 280030Z VRB01MPS 9999 BKN007 OVC030 25/24 Q1004 NOSIG
ZBAA,2025-07-28 01:00,ZBAA 280100Z 15002MPS 9999 BKN007 OVC030 25/24 Q1004 BECMG TL0140 SCT007 OVC030
ZBAA,2025-07-28 01:30,ZBAA 280130Z 12002MPS 070V160 9999 SCT007 OVC030 25/24 Q1005 NOSIG
ZBAA,2025-07-28 02:00,ZBAA 280200Z 11002MPS 050V150 9999 SCT007 OVC030 25/24 Q1004 NOSIG
ZBAA,2025-07-28 02:30,ZBAA 280230Z 03002MPS 360V080 9999 -SHRA SCT007 OVC030 25/24 Q1004 NOSIG
ZBAA,2025-07-28 03:00,ZBAA 280300Z 36002MPS 9999 -SHRA SCT007 OVC030 25/24 Q1004 BECMG TL0420 BKN007 OVC030
ZBAA,2025-07-28 03:30,ZBAA 280330Z 02002MPS 350V050 9999 -SHRA SCT007 OVC030 25/24 Q1004 NOSIG
ZBAA,2025-07-28 04:00,ZBAA 280400Z 07002MPS 030V110 9999 -SHRA SCT009 OVC030 25/24 Q1004 BECMG TL0420 BKN009 OVC030
ZBAA,2025-07-28 04:30,ZBAA 280430Z VRB01MPS 9999 -SHRA BKN009 OVC030 25/24 Q1004 NOSIG
ZBAA,2025-07-28 05:00,ZBAA 280500Z 03002MPS 9999 BKN009 OVC030 26/25 Q1003 BECMG TL0540 SCT013 OVC030
ZBAA,2025-07-28 05:30,ZBAA 280530Z 03002MPS 320V090 9999 SCT013 OVC030 28/25 Q1003 NOSIG
ZBAA,2025-07-28 06:00,ZBAA 280600Z VRB01MPS 9999 SCT013 OVC030 28/25 Q1002 NOSIG
ZBAA,2025-07-28 06:30,ZBAA 280630Z 36002MPS 320V030 9999 SCT015 OVC030 28/25 Q1002 NOSIG
ZBAA,2025-07-28 07:00,ZBAA 280700Z 03002MPS 350V050 9999 SCT015 OVC030 28/25 Q1001 NOSIG
ZBAA,2025-07-28 07:30,ZBAA 280730Z 03002MPS 320V070 9999 SCT015 OVC030 29/26 Q1001 NOSIG
ZBAA,2025-07-28 08:00,ZBAA 280800Z 02002MPS 310V070 9999 FEW015 BKN040 30/26 Q1000 NOSIG
ZBAA,2025-07-28 08:30,ZBAA 280830Z 31002MPS 250V030 9999 FEW015 BKN040 30/26 Q1000 NOSIG
ZBAA,2025-07-28 09:00,ZBAA 280900Z 01002MPS 300V070 CAVOK 30/26 Q1000 NOSIG
ZBAA,2025-07-28 09:30,ZBAA 280930Z 07002MPS 030V150 CAVOK 29/26 Q1000 NOSIG
ZBAA,2025-07-28 10:00,ZBAA 281000Z VRB01MPS CAVOK 29/26 Q1000 NOSIG
ZBAA,2025-07-28 10:30,ZBAA 281030Z 00000MPS CAVOK 28/27 Q1000 NOSIG
ZBAA,2025-07-28 11:00,ZBAA 281100Z 04001MPS CAVOK 28/27 Q1000 NOSIG
ZBAA,2025-07-28 11:30,ZBAA 281130Z 03001MPS CAVOK 27/26 Q1000 NOSIG
ZBAA,2025-07-28 12:00,ZBAA 281200Z 36002MPS CAVOK 27/26 Q1000 NOSIG
ZBAA,2025-07-28 12:30,ZBAA 281230Z 03002MPS 010V070 CAVOK 27/26 Q1000 NOSIG
ZBAA,2025-07-28 13:00,ZBAA 281300Z VRB01MPS 9999 FEW050CB 27/26 Q1000 BECMG AT1420 25007MPS TS
ZBAA,2025-07-28 13:30,ZBAA 281330Z VRB01MPS 9999 TS SCT050CB 27/26 Q0999 NOSIG
ZBAA,2025-07-28 14:00,ZBAA 281400Z 20002MPS 150V270 9999 TS BKN050CB 27/25 Q0999 BECMG TL1440 27007MPS TSRA
ZBAA,2025-07-28 14:11,ZBAA 281411Z 27007MPS 9999 -TSRA SCT040 BKN040CB 28/25 Q1000 NOSIG
ZBAA,2025-07-28 14:19,ZBAA 281419Z 27008MPS 7000 +TSRA OVC033CB 27/25 Q1001 NOSIG
ZBAA,2025-07-28 14:30,ZBAA 281430Z 29012MPS 2500 R36L/P2000N R36R/P2000N R01/1400D +TSRA OVC033CB 24/24 Q1002 NOSIG
ZBAA,2025-07-28 14:49,ZBAA 281449Z 33005MPS 290V350 2800 TSRA OVC033CB 23/23 Q1001 NOSIG
ZBAA,2025-07-28 15:00,COR ZBAA 281500Z 25002MPS 190V320 2800 +TSRA OVC033CB 23/23 Q1002 BECMG AT1620 6000 NSW
ZBAA,2025-07-28 15:30,ZBAA 281530Z 21002MPS 140V280 3500 -TSRA BR SCT013 OVC033CB 23/23 Q1001 RESHRA NOSIG
ZBAA,2025-07-28 16:00,ZBAA 281600Z 36003MPS 8000 -TSRA SCT010 BKN033CB 23/23 Q1001 BECMG AT1620 NSW
ZBAA,2025-07-28 16:30,ZBAA 281630Z 35002MPS 330V060 9999 -TSRA FEW004 SCT033 BKN033CB 23/23 Q1000 NOSIG
ZBAA,2025-07-28 16:45,ZBAA 281645Z 02003MPS 9999 -SHRA FEW004 SCT033 BKN033CB 23/23 Q1000 RETS NOSIG
ZBAA,2025-07-28 17:00,ZBAA 281700Z 35002MPS 9999 -SHRA SCT005 SCT033 BKN033CB 23/23 Q1000 RETS NOSIG
ZBAA,2025-07-28 17:30,ZBAA 281730Z 15002MPS 9999 -SHRA SCT005 SCT033 BKN033CB 23/23 Q1000 NOSIG
ZBAA,2025-07-28 18:00,ZBAA 281800Z VRB01MPS 9999 -SHRA FEW010 SCT033 BKN033CB 23/23 Q1000 NOSIG
ZBAA,2025-07-28 18:30,ZBAA 281830Z 36003MPS 340V040 9999 -SHRA FEW010 SCT033 BKN033CB 23/23 Q0999 NOSIG
ZBAA,2025-07-28 19:00,ZBAA 281900Z VRB01MPS 9999 -SHRA FEW010 BKN033 FEW033CB 23/23 Q0999 NOSIG
ZBAA,2025-07-28 19:30,ZBAA 281930Z 04001MPS 9999 SCT010 OVC033 23/23 Q0999 NOSIG
ZBAA,2025-07-28 20:00,ZBAA 282000Z 01001MPS 9999 FEW010 BKN033 FEW033CB 23/23 Q0998 BECMG AT2140 TS
ZBAA,2025-07-28 20:30,ZBAA 282030Z VRB01MPS 8000 -SHRA FEW010 BKN033 FEW033CB 23/23 Q0999 NOSIG
ZBAA,2025-07-28 20:34,ZBAA 282034Z VRB01MPS 4000 SHRA BR BKN033 FEW033CB 23/23 Q0999 NOSIG
ZBAA,2025-07-28 21:00,ZBAA 282100Z 10002MPS 040V140 7000 -SHRA FEW010 BKN033 FEW033CB 23/23 Q0999 RESHRA BECMG AT2220 TS
ZBAA,2025-07-28 21:30,ZBAA 282130Z 07002MPS 040V110 6000 -SHRA FEW010 FEW033CB BKN040 23/23 Q0998 NOSIG
ZBAA,2025-07-28 22:00,ZBAA 282200Z 35006MPS 3200 SHRA BR FEW010 FEW033CB BKN040 23/23 Q0998 BECMG AT2220 07003MPS 2800 +TSRA
ZBAA,2025-07-28 22:02,ZBAA 282202Z 35006MPS 2300 R36L/P2000N R36R/2000N R01/1400D +TSRA BR OVC033CB 23/23 Q0999 NOSIG
ZBAA,2025-07-28 22:13,ZBAA 282213Z 05003MPS 350V120 2300 +TSRA BR OVC033CB 23/23 Q0999 NOSIG
ZBAA,2025-07-28 22:30,ZBAA 282230Z 36005MPS 330V040 2300 +TSRA BR SCT010 OVC033CB 23/23 Q0998 NOSIG
ZBAA,2025-07-28 22:42,ZBAA 282242Z 01006MPS 340V040 5000 -TSRA BR SCT010 OVC033CB 23/23 Q0998 RESHRA NOSIG
ZBAA,2025-07-28 22:54,ZBAA 282254Z VRB01MPS 9999 -TSRA SCT010 OVC033CB 23/23 Q0999 RESHRA BECMG AT2320 NSW
ZBAA,2025-07-28 23:00,ZBAA 282300Z VRB01MPS 9999 -TSRA SCT010 OVC033CB 23/23 Q0999 RESHRA BECMG TL2340 NSW BKN010
ZBAA,2025-07-28 23:30,ZBAA 282330Z VRB01MPS 9999 -SHRA SCT010 BKN033 FEW033CB 23/23 Q0999 RETS NOSIG
ZBAA,2025-07-29 00:00,ZBAA 290000Z 36002MPS 320V030 6000 -SHRA BKN010 OVC033 23/23 Q0999 BECMG TL0040 SCT010 BKN033
ZBAA,2025-07-29 00:30,ZBAA 290030Z 34003MPS 6000 -RA SCT010 OVC040 23/23 Q0999 NOSIG
ZBAA,2025-07-29 01:00,ZBAA 290100Z VRB01MPS 6000 -RA SCT010 OVC040 23/23 Q1000 NOSIG
ZBAA,2025-07-29 01:30,ZBAA 290130Z 26002MPS 230V330 8000 -RA SCT010 OVC040 23/23 Q1000 NOSIG
ZBAA,2025-07-29 02:00,ZBAA 290200Z 15002MPS 100V240 9999 -RA SCT010 OVC040 24/23 Q0998 BECMG TL0240 BKN010 OVC033
ZBAA,2025-07-29 02:30,ZBAA 290230Z VRB01MPS 9999 -RA BKN010 OVC040 24/23 Q0999 NOSIG
ZBAA,2025-07-29 03:00,ZBAA 290300Z 29004MPS 270V330 9999 -RA BKN010 OVC040 25/24 Q0999 BECMG TL0440 SCT010 OVC040
ZBAA,2025-07-29 03:30,ZBAA 290330Z 32004MPS 9999 -RA BKN010 BKN040 25/23 Q0998 NOSIG
ZBAA,2025-07-29 04:00,ZBAA 290400Z 33002MPS 290V360 9999 BKN010 BKN040 25/23 Q0998 BECMG TL0420 FEW010 OVC040
ZBAA,2025-07-29 04:13,ZBAA 290413Z VRB01MPS 9999 FEW010 26/24 Q0999 NOSIG
ZBAA,2025-07-29 04:30,ZBAA 290430Z 29002MPS 200V340 9999 FEW010 27/24 Q0999 NOSIG
ZBAA,2025-07-29 05:00,ZBAA 290500Z VRB01MPS 9999 FEW010 28/24 Q0998 NOSIG
ZBAA,2025-07-29 05:30,ZBAA 290530Z VRB01MPS CAVOK 28/23 Q0998 NOSIG
ZBAA,2025-07-29 06:00,ZBAA 290600Z 17002MPS 120V260 CAVOK 29/24 Q0998 NOSIG
ZBAA,2025-07-29 06:30,ZBAA 290630Z 14002MPS 080V180 CAVOK 29/24 Q0998 NOSIG
ZBAA,2025-07-29 07:00,ZBAA 290700Z 16002MPS 130V190 CAVOK 29/23 Q0998 NOSIG
ZBAA,2025-07-29 07:30,ZBAA 290730Z VRB02MPS CAVOK 30/23 Q0998 NOSIG
ZBAA,2025-07-29 08:00,ZBAA 290800Z 17003MPS 150V230 CAVOK 30/24 Q0998 NOSIG
ZBAA,2025-07-29 08:30,ZBAA 290830Z 16002MPS 120V180 CAVOK 30/22 Q0997 NOSIG
ZBAA,2025-07-29 09:00,ZBAA 290900Z 15002MPS 050V220 CAVOK 31/23 Q0997 NOSIG
ZBAA,2025-07-29 09:30,ZBAA 290930Z 19002MPS 130V250 CAVOK 30/23 Q0997 NOSIG
ZBAA,2025-07-29 10:00,ZBAA 291000Z VRB01MPS CAVOK 29/26 Q0998 NOSIG
ZBAA,2025-07-29 10:30,ZBAA 291030Z VRB01MPS CAVOK 28/25 Q0998 NOSIG
ZBAA,2025-07-29 11:00,ZBAA 291100Z 16002MPS 140V200 CAVOK 28/25 Q0998 NOSIG
ZBAA,2025-07-29 11:30,ZBAA 291130Z 11002MPS CAVOK 27/25 Q0999 NOSIG
ZBAA,2025-07-29 12:00,ZBAA 291200Z 11001MPS CAVOK 27/24 Q0999 NOSIG
ZBAA,2025-07-29 12:30,ZBAA 291230Z VRB01MPS CAVOK 26/24 Q1000 NOSIG
ZBAA,2025-07-29 13:00,ZBAA 291300Z 04001MPS CAVOK 25/24 Q1000 NOSIG
ZBAA,2025-07-29 13:30,ZBAA 291330Z VRB01MPS CAVOK 25/24 Q1000 NOSIG
ZBAA,2025-07-29 14:00,ZBAA 291400Z 00000MPS CAVOK 25/24 Q1000 NOSIG
ZBAA,2025-07-29 14:30,ZBAA 291430Z VRB01MPS CAVOK 24/24 Q1001 NOSIG
ZBAA,2025-07-29 15:00,ZBAA 291500Z 05001MPS CAVOK 24/24 Q1001 NOSIG
ZBAA,2025-07-29 15:30,ZBAA 291530Z 06001MPS CAVOK 24/24 Q1001 NOSIG
ZBAA,2025-07-29 16:00,ZBAA 291600Z VRB01MPS CAVOK 24/23 Q1001 NOSIG
ZBAA,2025-07-29 16:30,ZBAA 291630Z VRB01MPS CAVOK 24/24 Q1001 NOSIG
ZBAA,2025-07-29 17:00,ZBAA 291700Z 00000MPS CAVOK 24/23 Q1001 NOSIG
ZBAA,2025-07-29 17:30,ZBAA 291730Z 36002MPS CAVOK 24/23 Q1001 NOSIG
ZBAA,2025-07-29 18:00,ZBAA 291800Z 36001MPS CAVOK 23/23 Q1001 NOSIG
ZBAA,2025-07-29 18:30,ZBAA 291830Z 36003MPS CAVOK 24/23 Q1001 NOSIG
ZBAA,2025-07-29 19:00,ZBAA 291900Z 36003MPS CAVOK 24/23 Q1001 NOSIG
ZBAA,2025-07-29 19:30,ZBAA 291930Z 01003MPS CAVOK 23/23 Q1001 NOSIG
ZBAA,2025-07-29 20:00,ZBAA 292000Z 01003MPS CAVOK 24/22 Q1001 NOSIG
ZBAA,2025-07-29 20:30,ZBAA 292030Z 35002MPS CAVOK 23/22 Q1002 NOSIG
ZBAA,2025-07-29 21:00,ZBAA 292100Z 01003MPS CAVOK 23/22 Q1002 NOSIG
ZBAA,2025-07-29 21:30,ZBAA 292130Z 01002MPS CAVOK 22/22 Q1002 NOSIG
ZBAA,2025-07-29 22:00,ZBAA 292200Z 36002MPS CAVOK 23/22 Q1003 NOSIG
ZBAA,2025-07-29 22:30,ZBAA 292230Z 35002MPS CAVOK 25/23 Q1003 NOSIG
ZBAA,2025-07-29 23:00,ZBAA 292300Z 36003MPS CAVOK 26/22 Q1003 NOSIG
ZBAA,2025-07-29 23:30,ZBAA 292330Z 36003MPS CAVOK 26/22 Q1003 NOSIG
ZBAA,2025-07-30 00:00,ZBAA 300000Z 01003MPS 340V040 CAVOK 27/20 Q1003 NOSIG
ZBAA,2025-07-30 00:30,ZBAA 300030Z 36004MPS CAVOK 28/20 Q1004 NOSIG
ZBAA,2025-07-30 01:00,ZBAA 300100Z 36004MPS CAVOK 28/19 Q1004 NOSIG
ZBAA,2025-07-30 01:30,ZBAA 300130Z 36004MPS CAVOK 29/19 Q1004 NOSIG
ZBAA,2025-07-30 02:00,ZBAA 300200Z 36003MPS 330V030 CAVOK 29/20 Q1004 NOSIG
ZBAA,2025-07-30 02:30,ZBAA 300230Z 03003MPS 340V100 CAVOK 30/18 Q1003 NOSIG
ZBAA,2025-07-30 03:00,ZBAA 300300Z 35003MPS 310V020 CAVOK 31/18 Q1003 NOSIG
ZBAA,2025-07-30 03:30,ZBAA 300330Z 36003MPS 330V030 CAVOK 31/17 Q1003 NOSIG
ZBAA,2025-07-30 04:00,ZBAA 300400Z 02003MPS 340V060 CAVOK 31/15 Q1003 NOSIG
ZBAA,2025-07-30 04:30,ZBAA 300430Z 01003MPS CAVOK 32/16 Q1003 NOSIG
ZBAA,2025-07-30 05:00,ZBAA 300500Z 01003MPS CAVOK 33/16 Q1002 NOSIG
ZBAA,2025-07-30 05:30,ZBAA 300530Z 32002MPS 250V360 CAVOK 33/13 Q1002 NOSIG
ZBAA,2025-07-30 06:00,ZBAA 300600Z VRB01MPS CAVOK 33/14 Q1002 NOSIG
ZBAA,2025-07-30 06:30,ZBAA 300630Z 03002MPS 350V080 CAVOK 32/12 Q1002 NOSIG
ZBAA,2025-07-30 07:00,ZBAA 300700Z VRB01MPS CAVOK 33/16 Q1002 NOSIG
ZBAA,2025-07-30 07:30,ZBAA 300730Z VRB01MPS CAVOK 33/12 Q1002 NOSIG
ZBAA,2025-07-30 08:00,ZBAA 300800Z 16002MPS 120V260 CAVOK 33/14 Q1002 NOSIG
ZBAA,2025-07-30 08:30,ZBAA 300830Z VRB02MPS CAVOK 33/17 Q1001 NOSIG
ZBAA,2025-07-30 09:00,ZBAA 300900Z 14002MPS 110V170 CAVOK 32/17 Q1001 NOSIG
ZBAA,2025-07-30 09:30,ZBAA 300930Z VRB01MPS CAVOK 31/16 Q1001 NOSIG
ZBAA,2025-07-30 10:00,ZBAA 301000Z VRB01MPS CAVOK 31/18 Q1002 NOSIG
ZBAA,2025-07-30 10:30,ZBAA 301030Z 10002MPS CAVOK 30/16 Q1002 NOSIG
ZBAA,2025-07-30 11:00,ZBAA 301100Z 17001MPS CAVOK 27/20 Q1002 NOSIG
ZBAA,2025-07-30 11:30,ZBAA 301130Z 00000MPS CAVOK 24/19 Q1002 NOSIG
ZBAA,2025-07-30 12:00,ZBAA 301200Z 16001MPS CAVOK 23/20 Q1002 NOSIG
ZBAA,2025-07-30 12:30,ZBAA 301230Z 18002MPS CAVOK 23/20 Q1002 NOSIG
ZBAA,2025-07-30 13:00,ZBAA 301300Z VRB01MPS CAVOK 23/20 Q1003 NOSIG
ZBAA,2025-07-30 13:30,ZBAA 301330Z VRB01MPS CAVOK 22/20 Q1003 NOSIG
ZBAA,2025-07-30 14:00,ZBAA 301400Z 06001MPS CAVOK 22/21 Q1003 NOSIG
ZBAA,2025-07-30 14:30,ZBAA 301430Z 07001MPS CAVOK 23/21 Q1003 NOSIG
ZBAA,2025-07-30 15:00,ZBAA 301500Z VRB01MPS CAVOK 22/20 Q1003 NOSIG
ZBAA,2025-07-30 15:30,ZBAA 301530Z VRB01MPS CAVOK 22/21 Q1003 NOSIG
ZBAA,2025-07-30 16:00,ZBAA 301600Z 07002MPS 050V120 CAVOK 23/20 Q1003 NOSIG
ZBAA,2025-07-30 16:30,ZBAA 301630Z VRB01MPS CAVOK 23/20 Q1003 NOSIG
ZBAA,2025-07-30 17:00,ZBAA 301700Z VRB01MPS CAVOK 23/20 Q1003 NOSIG
ZBAA,2025-07-30 17:30,ZBAA 301730Z VRB01MPS CAVOK 23/20 Q1003 NOSIG
ZBAA,2025-07-30 18:00,ZBAA 301800Z VRB01MPS CAVOK 22/20 Q1003 NOSIG
ZBAA,2025-07-30 18:30,ZBAA 301830Z VRB01MPS CAVOK 22/21 Q1003 NOSIG
ZBAA,2025-07-30 19:00,ZBAA 301900Z 36001MPS CAVOK 22/21 Q1004 NOSIG
ZBAA,2025-07-30 19:30,ZBAA 301930Z 03001MPS CAVOK 21/21 Q1003 NOSIG
ZBAA,2025-07-30 20:00,ZBAA 302000Z 03001MPS CAVOK 21/20 Q1003 NOSIG
ZBAA,2025-07-30 20:30,ZBAA 302030Z VRB01MPS CAVOK 21/20 Q1003 NOSIG
ZBAA,2025-07-30 21:00,ZBAA 302100Z 03001MPS CAVOK 21/21 Q1004 NOSIG
ZBAA,2025-07-30 21:30,ZBAA 302130Z VRB01MPS CAVOK 21/21 Q1004 NOSIG
ZBAA,2025-07-30 22:00,ZBAA 302200Z 00000MPS CAVOK 22/21 Q1004 NOSIG
ZBAA,2025-07-30 22:30,ZBAA 302230Z 03001MPS CAVOK 23/21 Q1004 NOSIG
ZBAA,2025-07-30 23:00,ZBAA 302300Z 05001MPS CAVOK 24/22 Q1004 NOSIG
ZBAA,2025-07-30 23:30,ZBAA 302330Z VRB01MPS CAVOK 26/22 Q1004 NOSIG
ZBAA,2025-07-31 00:00,ZBAA 310000Z VRB01MPS CAVOK 27/22 Q1004 NOSIG
ZBAA,2025-07-31 00:30,ZBAA 310030Z VRB01MPS CAVOK 26/21 Q1004 NOSIG
ZBAA,2025-07-31 01:00,ZBAA 310100Z 00000MPS CAVOK 28/22 Q1004 NOSIG
ZBAA,2025-07-31 01:30,ZBAA 310130Z VRB01MPS CAVOK 28/22 Q1004 NOSIG
ZBAA,2025-07-31 02:00,ZBAA 310200Z 11002MPS 040V170 CAVOK 28/23 Q1004 NOSIG
ZBAA,2025-07-31 02:30,ZBAA 310230Z 06002MPS 030V090 CAVOK 28/21 Q1004 NOSIG
ZBAA,2025-07-31 03:00,ZBAA 310300Z VRB01MPS CAVOK 29/21 Q1004 NOSIG
ZBAA,2025-07-31 03:30,ZBAA 310330Z VRB01MPS CAVOK 30/22 Q1004 NOSIG
ZBAA,2025-07-31 04:00,ZBAA 310400Z 12002MPS 070V180 CAVOK 30/22 Q1003 NOSIG
ZBAA,2025-07-31 04:30,ZBAA 310430Z 15002MPS 120V210 CAVOK 30/22 Q1003 NOSIG
ZBAA,2025-07-31 05:00,ZBAA 310500Z 20002MPS 150V270 CAVOK 30/20 Q1003 NOSIG
ZBAA,2025-07-31 05:30,ZBAA 310530Z VRB01MPS CAVOK 29/23 Q1003 NOSIG
ZBAA,2025-07-31 06:00,ZBAA 310600Z VRB01MPS CAVOK 29/24 Q1003 NOSIG
ZBAA,2025-07-31 06:30,ZBAA 310630Z VRB01MPS CAVOK 28/24 Q1003 NOSIG
ZBAA,2025-07-31 07:00,ZBAA 310700Z VRB01MPS CAVOK 29/23 Q1003 NOSIG
ZBAA,2025-07-31 07:30,ZBAA 310730Z 01003MPS 320V030 CAVOK 28/23 Q1003 NOSIG
ZBAA,2025-07-31 08:00,ZBAA 310800Z 01002MPS CAVOK 28/23 Q1002 NOSIG
ZBAA,2025-07-31 08:30,ZBAA 310830Z 01002MPS CAVOK 28/23 Q1002 NOSIG
ZBAA,2025-07-31 09:00,ZBAA 310900Z 01003MPS CAVOK 28/22 Q1002 NOSIG
ZBAA,2025-07-31 09:30,ZBAA 310930Z 01002MPS CAVOK 27/22 Q1002 NOSIG
ZBAA,2025-07-31 10:00,ZBAA 311000Z 02002MPS CAVOK 27/22 Q1002 NOSIG
ZBAA,2025-07-31 10:30,ZBAA 311030Z VRB01MPS CAVOK 27/23 Q1002 NOSIG
ZBAA,2025-07-31 11:00,ZBAA 311100Z VRB01MPS CAVOK 26/23 Q1002 NOSIG
ZBAA,2025-07-31 11:30,ZBAA 311130Z VRB01MPS CAVOK 25/24 Q1002 NOSIG
ZBAA,2025-07-31 12:00,ZBAA 311200Z VRB01MPS CAVOK 25/24 Q1002 NOSIG
ZBAA,2025-07-31 12:30,ZBAA 311230Z VRB01MPS CAVOK 25/23 Q1003 NOSIG
ZBAA,2025-07-31 13:00,ZBAA 311300Z 02001MPS CAVOK 24/23 Q1003 NOSIG
ZBAA,2025-07-31 13:30,ZBAA 311330Z 04001MPS CAVOK 24/23 Q1003 NOSIG
ZBAA,2025-07-31 14:00,ZBAA 311400Z 00000MPS CAVOK 24/23 Q1003 NOSIG
ZBAA,2025-07-31 14:30,ZBAA 311430Z 00000MPS CAVOK 23/23 Q1003 NOSIG
ZBAA,2025-07-31 15:00,ZBAA 311500Z 05001MPS CAVOK 23/22 Q1003 NOSIG
ZBAA,2025-07-31 15:30,ZBAA 311530Z 36001MPS CAVOK 23/22 Q1003 NOSIG
ZBAA,2025-07-31 16:00,ZBAA 311600Z 36002MPS CAVOK 23/22 Q1003 NOSIG
ZBAA,2025-07-31 16:30,ZBAA 311630Z 01002MPS CAVOK 23/22 Q1003 NOSIG
ZBAA,2025-07-31 17:00,ZBAA 311700Z 36002MPS CAVOK 23/22 Q1003 NOSIG
ZBAA,2025-07-31 17:30,ZBAA 311730Z 01001MPS CAVOK 23/22 Q1003 NOSIG
ZBAA,2025-07-31 18:00,ZBAA 311800Z 36001MPS CAVOK 23/22 Q1003 NOSIG
ZBAA,2025-07-31 18:30,ZBAA 311830Z 36002MPS CAVOK 22/22 Q1003 NOSIG
ZBAA,2025-07-31 19:00,ZBAA 311900Z 01001MPS CAVOK 23/22 Q1003 NOSIG
ZBAA,2025-07-31 19:30,ZBAA 311930Z 02001MPS CAVOK 22/22 Q1003 NOSIG
ZBAA,2025-07-31 20:00,ZBAA 312000Z VRB01MPS CAVOK 22/21 Q1003 NOSIG
ZBAA,2025-07-31 20:30,ZBAA 312030Z 36001MPS CAVOK 22/21 Q1003 NOSIG
ZBAA,2025-07-31 21:00,ZBAA 312100Z 36002MPS CAVOK 22/21 Q1003 NOSIG
ZBAA,2025-07-31 21:30,ZBAA 312130Z 01002MPS CAVOK 22/21 Q1003 NOSIG
ZBAA,2025-07-31 22:00,ZBAA 312200Z 36001MPS CAVOK 23/22 Q1003 NOSIG
ZBAA,2025-07-31 22:30,ZBAA 312230Z 35002MPS CAVOK 23/22 Q1003 NOSIG
ZBAA,2025-07-31 23:00,ZBAA 312300Z 36003MPS CAVOK 24/22 Q1003 NOSIG
ZBAA,2025-07-31 23:30,ZBAA 312330Z 36003MPS CAVOK 25/22 Q1004 NOSIG
ZBAA,2025-08-01 00:00,ZBAA 010000Z 01002MPS CAVOK 25/22 Q1004 NOSIG
ZBAA,2025-08-01 00:30,ZBAA 010030Z 01002MPS CAVOK 27/22 Q1003 NOSIG
ZBAA,2025-08-01 01:00,ZBAA 010100Z VRB01MPS CAVOK 28/23 Q1003 NOSIG
ZBAA,2025-08-01 01:30,ZBAA 010130Z VRB01MPS CAVOK 29/22 Q1003 NOSIG
ZBAA,2025-08-01 02:00,ZBAA 010200Z VRB01MPS CAVOK 29/23 Q1003 NOSIG
ZBAA,2025-08-01 02:30,ZBAA 010230Z VRB01MPS CAVOK 30/23 Q1003 NOSIG
ZBAA,2025-08-01 03:00,ZBAA 010300Z VRB01MPS CAVOK 30/22 Q1003 NOSIG
ZBAA,2025-08-01 03:30,ZBAA 010330Z 18003MPS 120V230 CAVOK 30/22 Q1003 NOSIG
ZBAA,2025-08-01 04:00,ZBAA 010400Z VRB02MPS CAVOK 31/23 Q1003 NOSIG
ZBAA,2025-08-01 04:30,ZBAA 010430Z VRB02MPS CAVOK 32/23 Q1002 NOSIG
ZBAA,2025-08-01 05:00,ZBAA 010500Z VRB02MPS CAVOK 32/23 Q1002 NOSIG
ZBAA,2025-08-01 05:30,ZBAA 010530Z 13002MPS 080V170 CAVOK 32/24 Q1002 NOSIG
ZBAA,2025-08-01 06:00,ZBAA 010600Z 15002MPS 110V180 CAVOK 32/23 Q1002 NOSIG
ZBAA,2025-08-01 06:30,ZBAA 010630Z 15003MPS 120V180 CAVOK 32/24 Q1002 NOSIG
ZBAA,2025-08-01 07:00,ZBAA 010700Z 14003MPS 110V170 CAVOK 32/23 Q1002 NOSIG
ZBAA,2025-08-01 07:30,ZBAA 010730Z 14003MPS 090V180 CAVOK 32/24 Q1002 NOSIG
ZBAA,2025-08-01 08:00,ZBAA 010800Z 14003MPS 110V170 CAVOK 32/24 Q1002 NOSIG
ZBAA,2025-08-01 08:30,ZBAA 010830Z 13003MPS 090V160 CAVOK 32/24 Q1001 NOSIG
ZBAA,2025-08-01 09:00,ZBAA 010900Z 13003MPS 070V160 CAVOK 32/24 Q1001 NOSIG
ZBAA,2025-08-01 09:30,ZBAA 010930Z 15003MPS CAVOK 32/24 Q1001 NOSIG
ZBAA,2025-08-01 10:00,ZBAA 011000Z 15003MPS CAVOK 31/24 Q1001 NOSIG
ZBAA,2025-08-01 10:30,ZBAA 011030Z 15003MPS CAVOK 31/24 Q1001 NOSIG
ZBAA,2025-08-01 11:00,ZBAA 011100Z 15003MPS CAVOK 30/24 Q1001 NOSIG
ZBAA,2025-08-01 11:30,ZBAA 011130Z 15002MPS CAVOK 29/24 Q1002 NOSIG
ZBAA,2025-08-01 12:00,ZBAA 011200Z 14002MPS CAVOK 28/24 Q1002 NOSIG
ZBAA,2025-08-01 12:30,ZBAA 011230Z 09002MPS CAVOK 28/24 Q1002 NOSIG
ZBAA,2025-08-01 13:00,ZBAA 011300Z 10001MPS CAVOK 28/24 Q1003 NOSIG
ZBAA,2025-08-01 13:30,ZBAA 011330Z 11001MPS CAVOK 27/25 Q1003 NOSIG
ZBAA,2025-08-01 14:00,ZBAA 011400Z 13002MPS 090V150 CAVOK 28/24 Q1003 NOSIG
ZBAA,2025-08-01 14:30,ZBAA 011430Z 14002MPS CAVOK 27/24 Q1003 NOSIG
ZBAA,2025-08-01 15:00,ZBAA 011500Z 14002MPS CAVOK 27/24 Q1003 NOSIG
ZBAA,2025-08-01 15:30,ZBAA 011530Z 14002MPS CAVOK 28/24 Q1003 NOSIG
ZBAA,2025-08-01 16:00,ZBAA 011600Z 14002MPS CAVOK 28/24 Q1003 NOSIG
ZBAA,2025-08-01 16:30,ZBAA 011630Z 17002MPS CAVOK 26/24 Q1002 NOSIG
ZBAA,2025-08-01 17:00,ZBAA 011700Z 14002MPS CAVOK 27/24 Q1002 NOSIG
ZBAA,2025-08-01 17:30,ZBAA 011730Z VRB01MPS CAVOK 27/24 Q1002 NOSIG
ZBAA,2025-08-01 18:00,ZBAA 011800Z 20001MPS CAVOK 26/24 Q1002 NOSIG
ZBAA,2025-08-01 18:30,ZBAA 011830Z VRB01MPS CAVOK 26/25 Q1002 NOSIG
ZBAA,2025-08-01 19:00,ZBAA 011900Z 08002MPS CAVOK 26/24 Q1002 NOSIG
ZBAA,2025-08-01 19:30,ZBAA 011930Z 09001MPS CAVOK 25/24 Q1002 NOSIG
ZBAA,2025-08-01 20:00,ZBAA 012000Z 07002MPS CAVOK 25/24 Q1002 NOSIG
ZBAA,2025-08-01 20:30,ZBAA 012030Z 11002MPS CAVOK 25/24 Q1002 NOSIG
ZBAA,2025-08-01 21:00,ZBAA 012100Z 10002MPS 8000 NSC 25/24 Q1002 NOSIG
ZBAA,2025-08-01 21:30,ZBAA 012130Z 08002MPS 8000 NSC 26/24 Q1002 NOSIG
ZBAA,2025-08-01 22:00,ZBAA 012200Z 09002MPS 7000 NSC 26/24 Q1002 NOSIG
ZBAA,2025-08-01 22:30,ZBAA 012230Z 10002MPS 050V130 7000 NSC 26/24 Q1002 NOSIG
ZBAA,2025-08-01 23:00,ZBAA 012300Z 10002MPS 070V140 7000 NSC 26/24 Q1002 NOSIG
ZBAA,2025-08-01 23:30,ZBAA 012330Z 10002MPS 070V140 7000 NSC 27/24 Q1002 NOSIG
ZBAA,2025-08-02 00:00,ZBAA 020000Z 11002MPS 080V140 7000 NSC 27/24 Q1002 NOSIG
ZBAA,2025-08-02 00:30,ZBAA 020030Z VRB01MPS 7000 NSC 28/25 Q1002 NOSIG
ZBAA,2025-08-02 01:00,ZBAA 020100Z 15002MPS 120V180 7000 NSC 28/25 Q1002 NOSIG
ZBAA,2025-08-02 01:30,ZBAA 020130Z 15003MPS 120V180 7000 NSC 28/24 Q1002 NOSIG
ZBAA,2025-08-02 02:00,ZBAA 020200Z 14002MPS 100V180 8000 NSC 29/25 Q1002 NOSIG
ZBAA,2025-08-02 02:30,ZBAA 020230Z 14002MPS 100V160 8000 NSC 29/25 Q1002 NOSIG
ZBAA,2025-08-02 03:00,ZBAA 020300Z 13002MPS 060V200 8000 NSC 30/25 Q1001 NOSIG
ZBAA,2025-08-02 03:30,ZBAA 020330Z 16003MPS 110V230 CAVOK 31/25 Q1001 NOSIG
ZBAA,2025-08-02 04:00,ZBAA 020400Z 14003MPS 100V190 CAVOK 31/25 Q1001 NOSIG
ZBAA,2025-08-02 04:30,ZBAA 020430Z 15003MPS 110V180 CAVOK 31/25 Q1001 NOSIG
ZBAA,2025-08-02 05:00,ZBAA 020500Z 14003MPS 100V170 CAVOK 31/25 Q1000 NOSIG
ZBAA,2025-08-02 05:30,ZBAA 020530Z 16003MPS 100V200 CAVOK 32/25 Q1000 NOSIG
ZBAA,2025-08-02 06:00,ZBAA 020600Z 13002MPS 060V170 CAVOK 32/25 Q1000 NOSIG
ZBAA,2025-08-02 06:30,ZBAA 020630Z 15003MPS 120V180 CAVOK 32/25 Q0999 NOSIG
ZBAA,2025-08-02 07:00,ZBAA 020700Z 14002MPS 100V180 CAVOK 33/25 Q0999 NOSIG
ZBAA,2025-08-02 07:30,ZBAA 020730Z 14002MPS CAVOK 32/25 Q0999 NOSIG
ZBAA,2025-08-02 08:00,ZBAA 020800Z 14002MPS CAVOK 32/25 Q0999 NOSIG
ZBAA,2025-08-02 08:30,ZBAA 020830Z 14003MPS CAVOK 32/25 Q0998 NOSIG
ZBAA,2025-08-02 09:00,ZBAA 020900Z 15002MPS CAVOK 31/26 Q0998 NOSIG
ZBAA,2025-08-02 09:30,ZBAA 020930Z 13002MPS CAVOK 31/26 Q0998 NOSIG
ZBAA,2025-08-02 10:00,ZBAA 021000Z 13002MPS 100V160 CAVOK 31/26 Q0998 NOSIG
ZBAA,2025-08-02 10:30,ZBAA 021030Z 15002MPS 120V180 9999 SCT050CB 30/25 Q0998 NOSIG
ZBAA,2025-08-02 11:00,ZBAA 021100Z 19002MPS 160V240 9999 FEW050CB 31/25 Q0999 NOSIG
ZBAA,2025-08-02 11:30,ZBAA 021130Z 18003MPS 150V260 9999 -SHRA SCT050CB 31/25 Q0999 NOSIG
ZBAA,2025-08-02 12:00,ZBAA 021200Z VRB01MPS 9999 -SHRA SCT050CB 29/27 Q0999 BECMG AT1340 TS
ZBAA,2025-08-02 12:30,ZBAA 021230Z VRB01MPS 9999 -SHRA BKN040 SCT040CB 28/26 Q1000 NOSIG
ZBAA,2025-08-02 13:00,ZBAA 021300Z 05002MPS 9999 -SHRA BKN040 SCT040CB 29/26 Q1000 BECMG TL1440 28007G12MPS TS
ZBAA,2025-08-02 13:30,ZBAA 021330Z VRB01MPS 9999 -TSRA BKN040 SCT040CB 29/26 Q0999 NOSIG
ZBAA,2025-08-02 13:46,ZBAA 021346Z 35006MPS 300V010 9999 -TSRA SCT040 BKN040CB 28/26 Q1000 NOSIG
ZBAA,2025-08-02 14:00,ZBAA 021400Z 01004MPS 340V040 3000 +TSRA FEW040 BKN040CB 26/26 Q1000 BECMG TL1540 2800 -SHRA BR
ZBAA,2025-08-02 14:15,ZBAA 021415Z 04003MPS 360V090 4000 TSRA SCT040 BKN040CB 26/25 Q1000 NOSIG
ZBAA,2025-08-02 14:30,ZBAA 021430Z 10003MPS 070V130 6000 -TSRA SCT040 BKN040CB 26/25 Q1000 RESHRA NOSIG
ZBAA,2025-08-02 15:00,ZBAA 021500Z 10002MPS 040V170 4000 -TSRA SCT040 BKN040CB 26/26 Q1000 BECMG TL1540 NSW
ZBAA,2025-08-02 15:30,ZBAA 021530Z 34002MPS 300V010 8000 -TSRA SCT015 BKN040 SCT040CB 26/25 Q1000 NOSIG
ZBAA,2025-08-02 15:43,ZBAA 021543Z 02003MPS 360V070 8000 -SHRA SCT015 BKN040 FEW040CB 25/25 Q1000 RETS NOSIG
ZBAA,2025-08-02 16:00,ZBAA 021600Z 06002MPS 010V120 8000 -SHRA FEW015 BKN030 FEW040CB 25/25 Q1000 RETS NOSIG
ZBAA,2025-08-02 16:30,ZBAA 021630Z 01002MPS 350V060 9999 FEW015 BKN040 FEW040CB 25/25 Q1000 NOSIG
ZBAA,2025-08-02 17:00,ZBAA 021700Z 01001MPS 9999 FEW050CB 25/24 Q1000 NOSIG
ZBAA,2025-08-02 17:30,ZBAA 021730Z VRB01MPS 9999 FEW050CB 25/25 Q1000 NOSIG
ZBAA,2025-08-02 18:00,ZBAA 021800Z VRB01MPS 9999 FEW050CB 25/24 Q0999 NOSIG
ZBAA,2025-08-02 18:30,ZBAA 021830Z 01002MPS 9999 FEW050CB 25/24 Q0999 NOSIG
ZBAA,2025-08-02 19:00,ZBAA 021900Z VRB01MPS CAVOK 24/24 Q0999 NOSIG
ZBAA,2025-08-02 19:30,ZBAA 021930Z 04002MPS CAVOK 24/24 Q0999 NOSIG
ZBAA,2025-08-02 20:00,ZBAA 022000Z VRB01MPS CAVOK 24/24 Q0999 NOSIG
ZBAA,2025-08-02 20:30,ZBAA 022030Z VRB01MPS CAVOK 24/24 Q0999 NOSIG
ZBAA,2025-08-02 21:00,ZBAA 022100Z 00000MPS CAVOK 25/24 Q1000 NOSIG
ZBAA,2025-08-02 21:30,ZBAA 022130Z VRB01MPS CAVOK 25/24 Q1000 NOSIG
ZBAA,2025-08-02 22:00,ZBAA 022200Z VRB01MPS CAVOK 25/24 Q1000 NOSIG
ZBAA,2025-08-02 22:30,ZBAA 022230Z 02002MPS 340V070 CAVOK 25/24 Q1000 NOSIG
ZBAA,2025-08-02 23:00,ZBAA 022300Z VRB01MPS CAVOK 26/25 Q1000 NOSIG
ZBAA,2025-08-02 23:30,ZBAA 022330Z VRB01MPS CAVOK 26/25 Q1000 NOSIG
ZBAA,2025-08-03 00:00,ZBAA 030000Z VRB01MPS CAVOK 27/24 Q1000 NOSIG
ZBAA,2025-08-03 00:30,ZBAA 030030Z VRB01MPS CAVOK 27/25 Q1000 NOSIG
ZBAA,2025-08-03 01:00,ZBAA 030100Z VRB01MPS CAVOK 28/24 Q1000 NOSIG
ZBAA,2025-08-03 01:30,ZBAA 030130Z VRB01MPS CAVOK 29/25 Q1000 NOSIG
ZBAA,2025-08-03 02:00,ZBAA 030200Z VRB01MPS CAVOK 30/25 Q1000 NOSIG
ZBAA,2025-08-03 02:30,ZBAA 030230Z 05002MPS 350V090 9999 SCT040 30/25 Q1000 NOSIG
ZBAA,2025-08-03 03:00,ZBAA 030300Z VRB01MPS 9999 SCT040 31/25 Q1000 NOSIG
ZBAA,2025-08-03 03:30,ZBAA 030330Z 01002MPS 320V110 9999 SCT040 32/25 Q0999 NOSIG
ZBAA,2025-08-03 04:00,ZBAA 030400Z VRB01MPS 9999 SCT040 32/26 Q0999 NOSIG
ZBAA,2025-08-03 04:30,ZBAA 030430Z VRB01MPS 9999 SCT040 32/24 Q0999 NOSIG
ZBAA,2025-08-03 05:00,ZBAA 030500Z 02003MPS 320V060 9999 SCT040 32/24 Q0999 NOSIG
ZBAA,2025-08-03 05:30,ZBAA 030530Z 36002MPS 320V030 9999 SCT040 34/25 Q0998 NOSIG
ZBAA,2025-08-03 06:00,ZBAA 030600Z 07002MPS 030V120 9999 SCT040 33/24 Q0998 NOSIG
ZBAA,2025-08-03 06:30,ZBAA 030630Z VRB01MPS 9999 FEW040 33/24 Q0998 NOSIG
ZBAA,2025-08-03 07:00,ZBAA 030700Z VRB01MPS CAVOK 33/25 Q0998 NOSIG
ZBAA,2025-08-03 07:30,ZBAA 030730Z VRB01MPS CAVOK 34/26 Q0998 NOSIG
ZBAA,2025-08-03 08:00,ZBAA 030800Z 12002MPS 060V180 CAVOK 33/25 Q0998 NOSIG
ZBAA,2025-08-03 08:30,ZBAA 030830Z VRB01MPS CAVOK 34/26 Q0998 NOSIG
ZBAA,2025-08-03 09:00,ZBAA 030900Z VRB01MPS CAVOK 34/25 Q0998 NOSIG
ZBAA,2025-08-03 09:30,ZBAA 030930Z 10002MPS 060V130 CAVOK 33/25 Q0998 NOSIG
ZBAA,2025-08-03 10:00,ZBAA 031000Z VRB01MPS CAVOK 33/25 Q0998 NOSIG
ZBAA,2025-08-03 10:30,ZBAA 031030Z 13001MPS CAVOK 32/26 Q0998 NOSIG
ZBAA,2025-08-03 11:00,ZBAA 031100Z 11002MPS CAVOK 31/26 Q0999 NOSIG
ZBAA,2025-08-03 11:30,ZBAA 031130Z 10002MPS 080V140 CAVOK 31/25 Q0999 NOSIG
ZBAA,2025-08-03 12:00,ZBAA 031200Z 11002MPS CAVOK 30/25 Q0999 NOSIG
ZBAA,2025-08-03 12:30,ZBAA 031230Z VRB01MPS CAVOK 30/25 Q1000 NOSIG
ZBAA,2025-08-03 13:00,ZBAA 031300Z VRB01MPS CAVOK 28/26 Q1000 NOSIG
ZBAA,2025-08-03 13:30,ZBAA 031330Z 11003MPS 080V140 CAVOK 29/26 Q1001 NOSIG
ZBAA,2025-08-03 14:00,ZBAA 031400Z 11003MPS 070V140 CAVOK 29/25 Q1001 NOSIG
ZBAA,2025-08-03 14:30,ZBAA 031430Z 11003MPS 070V140 CAVOK 28/25 Q1001 NOSIG
ZBAA,2025-08-03 15:00,ZBAA 031500Z 13003MPS 080V160 CAVOK 28/25 Q1001 NOSIG
ZBAA,2025-08-03 15:30,ZBAA 031530Z 11002MPS 070V140 CAVOK 28/25 Q1002 NOSIG
ZBAA,2025-08-03 16:00,ZBAA 031600Z 11003MPS 080V140 CAVOK 28/25 Q1002 NOSIG
ZBAA,2025-08-03 16:30,ZBAA 031630Z 11003MPS 060V140 CAVOK 27/25 Q1002 NOSIG
ZBAA,2025-08-03 17:00,ZBAA 031700Z 12003MPS 050V150 CAVOK 27/25 Q1002 NOSIG
ZBAA,2025-08-03 17:30,ZBAA 031730Z 10002MPS 040V150 CAVOK 27/25 Q1002 NOSIG
ZBAA,2025-08-03 18:00,ZBAA 031800Z 11003MPS 060V140 CAVOK 27/24 Q1002 NOSIG
ZBAA,2025-08-03 18:30,ZBAA 031830Z 12002MPS 080V190 CAVOK 27/24 Q1002 NOSIG
ZBAA,2025-08-03 19:00,ZBAA 031900Z 11002MPS 050V150 9999 FEW040 27/24 Q1002 NOSIG
ZBAA,2025-08-03 19:30,ZBAA 031930Z VRB01MPS 9999 FEW040 27/24 Q1002 NOSIG
ZBAA,2025-08-03 20:00,ZBAA 032000Z VRB01MPS 9999 FEW040 26/24 Q1003 NOSIG
ZBAA,2025-08-03 20:30,ZBAA 032030Z VRB01MPS 9999 FEW040 26/24 Q1003 NOSIG
ZBAA,2025-08-03 21:00,ZBAA 032100Z 10002MPS 070V130 9999 FEW040 26/24 Q1003 NOSIG
ZBAA,2025-08-03 21:30,ZBAA 032130Z VRB01MPS 9999 OVC040 26/25 Q1003 NOSIG
ZBAA,2025-08-03 22:00,ZBAA 032200Z VRB01MPS 9999 OVC040 26/25 Q1004 NOSIG
ZBAA,2025-08-03 22:30,ZBAA 032230Z VRB01MPS 7000 OVC040 26/25 Q1004 NOSIG
ZBAA,2025-08-03 23:00,ZBAA 032300Z VRB01MPS 7000 OVC040 27/25 Q1004 NOSIG
ZBAA,2025-08-03 23:30,ZBAA 032330Z VRB01MPS 8000 NSC 27/24 Q1004 NOSIG
ZBAA,2025-08-04 00:00,ZBAA 040000Z 15002MPS 100V220 CAVOK 28/24 Q1005 NOSIG
ZBAA,2025-08-04 00:30,ZBAA 040030Z 12003MPS 080V150 CAVOK 28/24 Q1005 NOSIG
ZBAA,2025-08-04 01:00,ZBAA 040100Z 12002MPS 090V160 CAVOK 28/24 Q1005 NOSIG
ZBAA,2025-08-04 01:30,ZBAA 040130Z 16003MPS 130V240 CAVOK 29/24 Q1005 NOSIG
ZBAA,2025-08-04 02:00,ZBAA 040200Z 15003MPS 110V200 CAVOK 29/24 Q1005 NOSIG
ZBAA,2025-08-04 02:30,ZBAA 040230Z 15004MPS 110V170 CAVOK 30/23 Q1005 NOSIG
ZBAA,2025-08-04 03:00,ZBAA 040300Z 14002MPS 100V180 CAVOK 30/25 Q1005 NOSIG
ZBAA,2025-08-04 03:30,ZBAA 040330Z 18003MPS 140V220 CAVOK 30/24 Q1005 NOSIG
ZBAA,2025-08-04 04:00,ZBAA 040400Z 12002MPS 060V170 CAVOK 30/24 Q1004 NOSIG
ZBAA,2025-08-04 04:30,ZBAA 040430Z 13003MPS 090V160 CAVOK 30/24 Q1004 NOSIG
ZBAA,2025-08-04 05:00,ZBAA 040500Z 15003MPS 9999 FEW030 30/24 Q1004 NOSIG
ZBAA,2025-08-04 05:30,ZBAA 040530Z 13003MPS 090V180 CAVOK 30/24 Q1004 NOSIG
ZBAA,2025-08-04 06:00,ZBAA 040600Z 15003MPS 120V180 CAVOK 30/24 Q1003 NOSIG
ZBAA,2025-08-04 06:30,ZBAA 040630Z 14003MPS 110V170 CAVOK 30/25 Q1003 NOSIG
ZBAA,2025-08-04 07:00,ZBAA 040700Z 14003MPS CAVOK 31/25 Q1003 NOSIG
ZBAA,2025-08-04 07:30,ZBAA 040730Z 15003MPS 130V190 CAVOK 31/25 Q1003 NOSIG
ZBAA,2025-08-04 08:00,ZBAA 040800Z 13002MPS 070V170 CAVOK 30/25 Q1002 NOSIG
ZBAA,2025-08-04 08:30,ZBAA 040830Z 15003MPS 120V180 CAVOK 30/24 Q1002 NOSIG
ZBAA,2025-08-04 09:00,ZBAA 040900Z 16002MPS 9999 FEW030 30/25 Q1002 NOSIG
ZBAA,2025-08-04 09:30,ZBAA 040930Z 19005MPS 9999 -SHRA FEW020 29/25 Q1002 NOSIG
ZBAA,2025-08-04 10:00,ZBAA 041000Z 18003MPS 140V230 8000 -SHRA NSC 27/25 Q1003 NOSIG
ZBAA,2025-08-04 10:30,ZBAA 041030Z 16002MPS 130V210 CAVOK 27/25 Q1002 NOSIG
ZBAA,2025-08-04 11:00,ZBAA 041100Z 16002MPS 130V230 CAVOK 27/26 Q1003 NOSIG
ZBAA,2025-08-04 11:30,ZBAA 041130Z 19004MPS CAVOK 28/25 Q1003 NOSIG
ZBAA,2025-08-04 12:00,ZBAA 041200Z 17002MPS 080V220 9999 FEW033 28/25 Q1003 NOSIG
ZBAA,2025-08-04 12:30,ZBAA 041230Z 16002MPS 130V210 9999 FEW033 27/25 Q1003 NOSIG
ZBAA,2025-08-04 13:00,ZBAA 041300Z 15002MPS 110V230 7000 BR NSC 27/26 Q1003 NOSIG
ZBAA,2025-08-04 13:30,ZBAA 041330Z VRB01MPS 9999 -SHRA FEW033 27/26 Q1003 NOSIG
ZBAA,2025-08-04 14:00,ZBAA 041400Z 16001MPS 9999 -SHRA FEW033 27/26 Q1003 NOSIG
ZBAA,2025-08-04 14:30,ZBAA 041430Z VRB01MPS 9999 FEW033 27/26 Q1003 NOSIG
ZBAA,2025-08-04 15:00,ZBAA 041500Z VRB01MPS 9999 -SHRA FEW033 27/26 Q1003 NOSIG
ZBAA,2025-08-04 15:30,ZBAA 041530Z 15001MPS 9999 -SHRA FEW013 27/26 Q1003 NOSIG
ZBAA,2025-08-04 16:00,ZBAA 041600Z 16002MPS 7000 -SHRA FEW013 27/26 Q1002 NOSIG
ZBAA,2025-08-04 16:30,ZBAA 041630Z 15002MPS 110V170 6000 -SHRA FEW013 27/26 Q1002 NOSIG
ZBAA,2025-08-04 17:00,ZBAA 041700Z 16003MPS 6000 -SHRA FEW013 27/26 Q1002 NOSIG
ZBAA,2025-08-04 17:30,ZBAA 041730Z 16002MPS 6000 -SHRA FEW013 26/26 Q1001 NOSIG
ZBAA,2025-08-04 18:00,ZBAA 041800Z 17002MPS 6000 -SHRA FEW013 26/26 Q1001 NOSIG
ZBAA,2025-08-04 18:30,ZBAA 041830Z 16003MPS 130V190 5000 -SHRA BR FEW010 26/26 Q1001 NOSIG
ZBAA,2025-08-04 18:44,ZBAA 041844Z 17003MPS 4000 SHRA BR SCT010 26/25 Q1001 NOSIG
ZBAA,2025-08-04 19:00,ZBAA 041900Z 17002MPS 4000 SHRA BR SCT010 26/25 Q1001 BECMG TL2020 -SHRA
ZBAA,2025-08-04 19:30,ZBAA 041930Z 18003MPS 4000 SHRA BR SCT010 26/26 Q1000 NOSIG
ZBAA,2025-08-04 20:00,ZBAA 042000Z 19005MPS 5000 -SHRA BR SCT010 26/26 Q1000 RESHRA BECMG TL2120 BKN010
ZBAA,2025-08-04 20:30,ZBAA 042030Z 23003MPS 200V270 6000 -SHRA SCT010 26/26 Q1001 NOSIG
ZBAA,2025-08-04 21:00,ZBAA 042100Z 26003MPS 4000 -SHRA BR SCT010 26/25 Q1001 BECMG TL2120 BKN010
ZBAA,2025-08-04 21:30,ZBAA 042130Z 31003MPS 3000 -SHRA BR BKN010 26/26 Q1001 NOSIG
ZBAA,2025-08-04 22:00,ZBAA 042200Z VRB02MPS 3000 -SHRA BR BKN010 26/26 Q1001 BECMG TL2340 SCT010 BKN040
ZBAA,2025-08-04 22:30,ZBAA 042230Z VRB01MPS 3000 -SHRA BR BKN010 27/26 Q1001 NOSIG
ZBAA,2025-08-04 23:00,ZBAA 042300Z VRB01MPS 3000 BR BKN010 27/26 Q1001 BECMG TL2340 SCT010 BKN040
ZBAA,2025-08-04 23:30,ZBAA 042330Z 13002MPS 090V150 4000 BR SCT010 BKN040 27/26 Q1001 NOSIG
ZBAA,2025-08-05 00:00,ZBAA 050000Z 08002MPS 060V120 4000 BR SCT010 OVC040 27/26 Q1001 NOSIG
ZBAA,2025-08-05 00:30,ZBAA 050030Z 10003MPS 070V130 4000 BR SCT010 OVC040 26/26 Q1001 NOSIG
ZBAA,2025-08-05 01:00,ZBAA 050100Z 09002MPS 050V140 7000 SCT010 OVC040 26/26 Q1001 NOSIG
ZBAA,2025-08-05 01:30,ZBAA 050130Z 09003MPS 050V120 9999 SCT010 OVC040 26/25 Q1002 NOSIG
ZBAA,2025-08-05 02:00,ZBAA 050200Z 12003MPS 070V140 8000 FEW010 OVC040 26/25 Q1002 NOSIG
ZBAA,2025-08-05 02:30,ZBAA 050230Z 10003MPS 070V140 8000 FEW010 OVC040 26/25 Q1002 NOSIG
ZBAA,2025-08-05 03:00,ZBAA 050300Z 11003MPS 080V150 9999 FEW010 OVC040 26/24 Q1002 NOSIG
ZBAA,2025-08-05 03:30,ZBAA 050330Z 12003MPS 050V200 CAVOK 27/24 Q1002 NOSIG
ZBAA,2025-08-05 04:00,ZBAA 050400Z 14002MPS 080V180 CAVOK 29/25 Q1002 NOSIG
ZBAA,2025-08-05 04:30,ZBAA 050430Z 09002MPS 060V120 CAVOK 29/25 Q1002 NOSIG
ZBAA,2025-08-05 05:00,ZBAA 050500Z VRB01MPS CAVOK 29/25 Q1001 NOSIG
ZBAA,2025-08-05 05:30,ZBAA 050530Z 10002MPS 050V130 CAVOK 29/25 Q1001 NOSIG
ZBAA,2025-08-05 06:00,ZBAA 050600Z 12002MPS 070V160 CAVOK 29/26 Q1001 NOSIG
ZBAA,2025-08-05 06:30,ZBAA 050630Z VRB01MPS CAVOK 30/26 Q1000 NOSIG
ZBAA,2025-08-05 07:00,ZBAA 050700Z 11002MPS 040V190 CAVOK 30/25 Q1000 NOSIG
ZBAA,2025-08-05 07:30,ZBAA 050730Z 14002MPS 090V170 CAVOK 30/26 Q1000 NOSIG
ZBAA,2025-08-05 08:00,ZBAA 050800Z 15002MPS 110V170 CAVOK 31/26 Q1000 NOSIG
ZBAA,2025-08-05 08:30,ZBAA 050830Z 15002MPS 120V180 CAVOK 31/26 Q1000 NOSIG
ZBAA,2025-08-05 09:00,ZBAA 050900Z VRB02MPS CAVOK 31/26 Q1000 NOSIG
ZBAA,2025-08-05 09:30,ZBAA 050930Z 16002MPS 130V290 CAVOK 31/26 Q1000 NOSIG
ZBAA,2025-08-05 10:00,ZBAA 051000Z 16002MPS CAVOK 30/26 Q1000 NOSIG
ZBAA,2025-08-05 10:30,ZBAA 051030Z VRB01MPS CAVOK 30/26 Q1000 NOSIG
ZBAA,2025-08-05 11:00,ZBAA 051100Z 15001MPS CAVOK 29/27 Q1001 NOSIG
ZBAA,2025-08-05 11:30,ZBAA 051130Z VRB01MPS CAVOK 28/27 Q1001 NOSIG
ZBAA,2025-08-05 12:00,ZBAA 051200Z 13001MPS CAVOK 28/27 Q1001 NOSIG
ZBAA,2025-08-05 12:30,ZBAA 051230Z VRB01MPS CAVOK 28/26 Q1002 NOSIG
ZBAA,2025-08-05 13:00,ZBAA 051300Z VRB01MPS CAVOK 28/27 Q1002 NOSIG
ZBAA,2025-08-05 13:30,ZBAA 051330Z VRB01MPS CAVOK 28/26 Q1002 NOSIG
ZBAA,2025-08-05 14:00,ZBAA 051400Z 14002MPS 110V170 CAVOK 29/27 Q1002 NOSIG
ZBAA,2025-08-05 14:30,ZBAA 051430Z 16002MPS CAVOK 29/27 Q1002 NOSIG
ZBAA,2025-08-05 15:00,ZBAA 051500Z 16002MPS CAVOK 28/27 Q1002 NOSIG
ZBAA,2025-08-05 15:30,ZBAA 051530Z VRB01MPS CAVOK 28/26 Q1002 NOSIG
ZBAA,2025-08-05 16:00,ZBAA 051600Z VRB01MPS CAVOK 28/26 Q1002 NOSIG
ZBAA,2025-08-05 16:30,ZBAA 051630Z VRB01MPS CAVOK 28/26 Q1002 NOSIG
ZBAA,2025-08-05 17:00,ZBAA 051700Z 07001MPS CAVOK 28/27 Q1002 NOSIG
ZBAA,2025-08-05 17:30,ZBAA 051730Z VRB01MPS CAVOK 27/27 Q1002 NOSIG
ZBAA,2025-08-05 18:00,ZBAA 051800Z 08001MPS CAVOK 27/27 Q1002 NOSIG
ZBAA,2025-08-05 18:30,ZBAA 051830Z 08001MPS CAVOK 27/26 Q1002 NOSIG
ZBAA,2025-08-05 19:00,ZBAA 051900Z 09001MPS CAVOK 27/26 Q1002 NOSIG
ZBAA,2025-08-05 19:30,ZBAA 051930Z 09002MPS 060V120 CAVOK 27/26 Q1002 NOSIG
ZBAA,2025-08-05 20:00,ZBAA 052000Z 05001MPS CAVOK 26/26 Q1002 NOSIG
ZBAA,2025-08-05 20:30,ZBAA 052030Z VRB01MPS 7000 NSC 26/26 Q1002 NOSIG
ZBAA,2025-08-05 21:00,ZBAA 052100Z VRB01MPS 5000 BR NSC 26/26 Q1002 NOSIG
ZBAA,2025-08-05 21:30,ZBAA 052130Z 02001MPS 4000 BR NSC 26/25 Q1002 NOSIG
ZBAA,2025-08-05 22:00,ZBAA 052200Z 03001MPS 4000 BR NSC 26/26 Q1002 NOSIG
ZBAA,2025-08-05 22:30,ZBAA 052230Z 00000MPS 5000 BR NSC 27/26 Q1002 NOSIG
ZBAA,2025-08-05 23:00,ZBAA 052300Z 00000MPS 7000 NSC 28/26 Q1002 NOSIG
ZBAA,2025-08-05 23:30,ZBAA 052330Z VRB01MPS 7000 NSC 28/27 Q1002 NOSIG
ZBAA,2025-08-06 00:00,ZBAA 060000Z VRB01MPS 7000 NSC 30/27 Q1002 NOSIG
ZBAA,2025-08-06 00:30,ZBAA 060030Z VRB01MPS 7000 NSC 30/27 Q1003 NOSIG
ZBAA,2025-08-06 01:00,ZBAA 060100Z 34002MPS 310V040 7000 NSC 31/27 Q1003 NOSIG
ZBAA,2025-08-06 01:30,ZBAA 060130Z VRB01MPS 7000 NSC 31/27 Q1003 NOSIG
ZBAA,2025-08-06 02:00,ZBAA 060200Z 36002MPS 280V060 CAVOK 32/26 Q1003 NOSIG
ZBAA,2025-08-06 02:30,ZBAA 060230Z VRB01MPS CAVOK 33/27 Q1003 NOSIG
ZBAA,2025-08-06 03:00,ZBAA 060300Z VRB01MPS CAVOK 33/26 Q1003 NOSIG
ZBAA,2025-08-06 03:30,ZBAA 060330Z VRB01MPS CAVOK 34/26 Q1002 NOSIG
ZBAA,2025-08-06 04:00,ZBAA 060400Z VRB02MPS CAVOK 34/26 Q1002 NOSIG
ZBAA,2025-08-06 04:30,ZBAA 060430Z 20003MPS 170V290 CAVOK 35/26 Q1002 NOSIG
ZBAA,2025-08-06 05:00,ZBAA 060500Z 22002MPS 150V280 CAVOK 35/25 Q1002 NOSIG
ZBAA,2025-08-06 05:30,ZBAA 060530Z VRB02MPS CAVOK 36/27 Q1002 NOSIG
ZBAA,2025-08-06 06:00,ZBAA 060600Z VRB02MPS CAVOK 37/25 Q1001 NOSIG
ZBAA,2025-08-06 06:30,ZBAA 060630Z 17002MPS 080V220 CAVOK 36/26 Q1001 NOSIG
ZBAA,2025-08-06 07:00,ZBAA 060700Z VRB02MPS CAVOK 36/27 Q1001 NOSIG
ZBAA,2025-08-06 07:30,ZBAA 060730Z VRB02MPS CAVOK 37/27 Q1000 NOSIG
ZBAA,2025-08-06 08:00,ZBAA 060800Z 18004MPS 160V220 CAVOK 36/28 Q1000 NOSIG
ZBAA,2025-08-06 08:30,ZBAA 060830Z 19003MPS 160V230 CAVOK 36/26 Q1000 NOSIG
ZBAA,2025-08-06 09:00,ZBAA 060900Z 19004MPS 100V240 CAVOK 36/27 Q1000 NOSIG
ZBAA,2025-08-06 09:30,ZBAA 060930Z 21003MPS 160V240 CAVOK 36/27 Q1000 NOSIG
ZBAA,2025-08-06 10:00,ZBAA 061000Z 18004MPS CAVOK 35/27 Q1000 NOSIG
ZBAA,2025-08-06 10:30,ZBAA 061030Z VRB01MPS CAVOK 33/29 Q1001 NOSIG
ZBAA,2025-08-06 11:00,ZBAA 061100Z 08002MPS CAVOK 33/28 Q1001 NOSIG
ZBAA,2025-08-06 11:30,ZBAA 061130Z 11002MPS 080V140 CAVOK 33/28 Q1001 NOSIG
ZBAA,2025-08-06 12:00,ZBAA 061200Z 09002MPS 060V140 CAVOK 32/28 Q1002 NOSIG
ZBAA,2025-08-06 12:30,ZBAA 061230Z 11002MPS CAVOK 32/28 Q1002 NOSIG
ZBAA,2025-08-06 13:00,ZBAA 061300Z 12001MPS 9999 FEW040CB 32/28 Q1003 NOSIG
ZBAA,2025-08-06 13:30,ZBAA 061330Z VRB01MPS 9999 FEW040CB 30/28 Q1003 NOSIG
ZBAA,2025-08-06 13:42,ZBAA 061342Z 21006MPS 9999 FEW040CB 31/22 Q1003 NOSIG
ZBAA,2025-08-06 14:00,ZBAA 061400Z 22003MPS 9999 FEW040CB 30/23 Q1003 NOSIG
ZBAA,2025-08-06 14:30,ZBAA 061430Z 19002MPS 150V230 CAVOK 29/22 Q1004 NOSIG
ZBAA,2025-08-06 15:00,ZBAA 061500Z 19002MPS 150V210 CAVOK 27/22 Q1004 NOSIG
ZBAA,2025-08-06 15:30,ZBAA 061530Z 15002MPS 100V200 CAVOK 26/23 Q1004 NOSIG
ZBAA,2025-08-06 16:00,ZBAA 061600Z VRB01MPS CAVOK 27/23 Q1005 NOSIG
ZBAA,2025-08-06 16:30,ZBAA 061630Z 23002MPS 190V260 CAVOK 28/22 Q1005 NOSIG
ZBAA,2025-08-06 17:00,ZBAA 061700Z 13002MPS CAVOK 26/22 Q1005 NOSIG
ZBAA,2025-08-06 17:30,ZBAA 061730Z VRB01MPS CAVOK 26/23 Q1005 NOSIG
ZBAA,2025-08-06 18:00,ZBAA 061800Z 01002MPS 340V090 CAVOK 26/23 Q1005 NOSIG
ZBAA,2025-08-06 18:30,ZBAA 061830Z 15002MPS 080V190 CAVOK 27/23 Q1005 NOSIG
ZBAA,2025-08-06 19:00,ZBAA 061900Z VRB01MPS CAVOK 26/24 Q1005 NOSIG
ZBAA,2025-08-06 19:30,ZBAA 061930Z VRB01MPS CAVOK 26/24 Q1005 NOSIG
ZBAA,2025-08-06 20:00,ZBAA 062000Z 03001MPS CAVOK 25/24 Q1006 NOSIG
ZBAA,2025-08-06 20:30,ZBAA 062030Z VRB01MPS CAVOK 26/24 Q1006 NOSIG
ZBAA,2025-08-06 21:00,ZBAA 062100Z VRB01MPS CAVOK 25/24 Q1006 NOSIG
ZBAA,2025-08-06 21:30,ZBAA 062130Z 08001MPS 8000 NSC 26/24 Q1006 NOSIG
ZBAA,2025-08-06 22:00,ZBAA 062200Z 35002MPS 320V030 CAVOK 25/24 Q1007 NOSIG
ZBAA,2025-08-06 22:30,ZBAA 062230Z 04001MPS CAVOK 26/25 Q1007 NOSIG
ZBAA,2025-08-06 23:00,ZBAA 062300Z VRB01MPS CAVOK 28/24 Q1007 NOSIG
ZBAA,2025-08-06 23:30,ZBAA 062330Z 36002MPS CAVOK 29/23 Q1007 NOSIG
ZBAA,2025-08-07 00:00,ZBAA 070000Z 36003MPS CAVOK 29/23 Q1007 NOSIG
ZBAA,2025-08-07 00:30,ZBAA 070030Z 01003MPS CAVOK 30/22 Q1007 NOSIG
ZBAA,2025-08-07 01:00,ZBAA 070100Z 35002MPS CAVOK 32/22 Q1007 NOSIG
ZBAA,2025-08-07 01:30,ZBAA 070130Z 01002MPS CAVOK 32/22 Q1007 NOSIG
ZBAA,2025-08-07 02:00,ZBAA 070200Z 01003MPS CAVOK 32/22 Q1007 NOSIG
ZBAA,2025-08-07 02:30,ZBAA 070230Z 03003MPS 320V070 CAVOK 32/22 Q1007 NOSIG
ZBAA,2025-08-07 03:00,ZBAA 070300Z 02003MPS 340V060 CAVOK 32/22 Q1007 NOSIG
ZBAA,2025-08-07 03:30,ZBAA 070330Z 01003MPS 340V070 CAVOK 32/21 Q1007 NOSIG
ZBAA,2025-08-07 04:00,ZBAA 070400Z 02003MPS 350V080 CAVOK 33/22 Q1007 NOSIG
ZBAA,2025-08-07 04:30,ZBAA 070430Z 01002MPS 340V040 CAVOK 33/21 Q1007 NOSIG
ZBAA,2025-08-07 05:00,ZBAA 070500Z VRB02MPS CAVOK 33/20 Q1006 NOSIG
ZBAA,2025-08-07 05:30,ZBAA 070530Z 03002MPS 310V110 CAVOK 35/21 Q1006 NOSIG
ZBAA,2025-08-07 06:00,ZBAA 070600Z VRB01MPS CAVOK 34/19 Q1006 NOSIG
ZBAA,2025-08-07 06:30,ZBAA 070630Z 03002MPS 310V070 CAVOK 34/22 Q1006 NOSIG
ZBAA,2025-08-07 07:00,ZBAA 070700Z VRB01MPS CAVOK 35/19 Q1005 NOSIG
ZBAA,2025-08-07 07:30,ZBAA 070730Z 04002MPS 330V100 CAVOK 34/20 Q1005 NOSIG
ZBAA,2025-08-07 08:00,ZBAA 070800Z VRB01MPS CAVOK 35/18 Q1005 NOSIG
ZBAA,2025-08-07 08:30,ZBAA 070830Z VRB01MPS CAVOK 35/18 Q1005 NOSIG
ZBAA,2025-08-07 09:00,ZBAA 070900Z VRB01MPS CAVOK 33/23 Q1005 NOSIG
ZBAA,2025-08-07 09:30,ZBAA 070930Z VRB01MPS CAVOK 35/17 Q1005 NOSIG
ZBAA,2025-08-07 10:00,ZBAA 071000Z VRB01MPS CAVOK 31/24 Q1005 NOSIG
ZBAA,2025-08-07 10:30,ZBAA 071030Z 06002MPS CAVOK 31/24 Q1005 NOSIG
ZBAA,2025-08-07 11:00,ZBAA 071100Z 11002MPS CAVOK 31/24 Q1005 NOSIG
ZBAA,2025-08-07 11:30,ZBAA 071130Z 10002MPS 070V130 CAVOK 31/25 Q1005 NOSIG
ZBAA,2025-08-07 12:00,ZBAA 071200Z 13002MPS CAVOK 30/25 Q1005 NOSIG
ZBAA,2025-08-07 12:30,ZBAA 071230Z 14002MPS CAVOK 29/25 Q1006 NOSIG
ZBAA,2025-08-07 13:00,ZBAA 071300Z 17002MPS 140V200 CAVOK 28/25 Q1006 NOSIG
ZBAA,2025-08-07 13:30,ZBAA 071330Z VRB01MPS CAVOK 27/25 Q1006 NOSIG
ZBAA,2025-08-07 14:00,ZBAA 071400Z 17002MPS CAVOK 27/25 Q1006 NOSIG
ZBAA,2025-08-07 14:30,ZBAA 071430Z 14002MPS CAVOK 27/25 Q1006 NOSIG
ZBAA,2025-08-07 15:00,ZBAA 071500Z 17001MPS CAVOK 28/24 Q1006 NOSIG
ZBAA,2025-08-07 15:30,ZBAA 071530Z 15002MPS CAVOK 28/23 Q1006 NOSIG
ZBAA,2025-08-07 16:00,ZBAA 071600Z 18001MPS CAVOK 28/24 Q1006 NOSIG
ZBAA,2025-08-07 16:30,ZBAA 071630Z 13002MPS CAVOK 27/24 Q1006 NOSIG
ZBAA,2025-08-07 17:00,ZBAA 071700Z 12002MPS CAVOK 27/24 Q1006 NOSIG
ZBAA,2025-08-07 17:30,ZBAA 071730Z 14001MPS CAVOK 26/24 Q1005 NOSIG
ZBAA,2025-08-07 18:00,ZBAA 071800Z 08002MPS CAVOK 27/24 Q1006 NOSIG
ZBAA,2025-08-07 18:30,ZBAA 071830Z VRB01MPS CAVOK 26/25 Q1005 NOSIG
ZBAA,2025-08-07 19:00,ZBAA 071900Z 08002MPS CAVOK 27/24 Q1005 NOSIG
ZBAA,2025-08-07 19:30,ZBAA 071930Z 09002MPS CAVOK 27/24 Q1005 NOSIG
ZBAA,2025-08-07 20:00,ZBAA 072000Z 10002MPS 070V130 CAVOK 27/24 Q1005 NOSIG
ZBAA,2025-08-07 20:30,ZBAA 072030Z 08002MPS CAVOK 27/24 Q1005 NOSIG
ZBAA,2025-08-07 21:00,ZBAA 072100Z 09002MPS CAVOK 27/24 Q1005 NOSIG
ZBAA,2025-08-07 21:30,ZBAA 072130Z VRB01MPS 9999 -SHRA NSC 26/24 Q1005 NOSIG
ZBAA,2025-08-07 22:00,ZBAA 072200Z 09002MPS 9999 -SHRA NSC 26/24 Q1005 NOSIG
ZBAA,2025-08-07 22:30,ZBAA 072230Z 11002MPS 8000 -SHRA NSC 26/24 Q1005 NOSIG
ZBAA,2025-08-07 23:00,ZBAA 072300Z 11002MPS 7000 -SHRA NSC 26/24 Q1005 NOSIG
ZBAA,2025-08-07 23:30,ZBAA 072330Z 11003MPS 7000 -SHRA NSC 26/24 Q1005 NOSIG
ZBAA,2025-08-08 00:00,ZBAA 080000Z 12002MPS 070V160 6000 -SHRA NSC 26/24 Q1005 NOSIG
ZBAA,2025-08-08 00:30,ZBAA 080030Z 11002MPS 080V140 6000 -SHRA NSC 26/24 Q1005 NOSIG
ZBAA,2025-08-08 01:00,ZBAA 080100Z 11002MPS 070V140 6000 -SHRA FEW010 26/25 Q1006 NOSIG
ZBAA,2025-08-08 01:30,ZBAA 080130Z 14003MPS 5000 -SHRA BR FEW010 27/25 Q1006 NOSIG
ZBAA,2025-08-08 02:00,ZBAA 080200Z 14002MPS 100V170 6000 -SHRA FEW010 27/25 Q1006 NOSIG
ZBAA,2025-08-08 02:30,ZBAA 080230Z 14002MPS 100V160 6000 -RA FEW010 27/25 Q1005 NOSIG
ZBAA,2025-08-08 03:00,ZBAA 080300Z 15002MPS 5000 -RA BR FEW010 27/24 Q1005 NOSIG
ZBAA,2025-08-08 03:30,ZBAA 080330Z 15002MPS 120V180 7000 -RA FEW010 27/25 Q1005 NOSIG
ZBAA,2025-08-08 04:00,ZBAA 080400Z VRB01MPS 7000 FEW010 27/25 Q1004 NOSIG
ZBAA,2025-08-08 04:30,ZBAA 080430Z VRB01MPS 7000 -RA FEW010 27/25 Q1005 NOSIG
ZBAA,2025-08-08 05:00,ZBAA 080500Z 14002MPS 7000 -RA FEW010 27/25 Q1004 NOSIG
ZBAA,2025-08-08 05:30,ZBAA 080530Z 14002MPS 110V170 7000 -RA FEW010 26/25 Q1004 NOSIG
ZBAA,2025-08-08 06:00,ZBAA 080600Z 16005MPS 9999 -RA FEW010 25/21 Q1004 BECMG TL0650 BKN010 OVC040
ZBAA,2025-08-08 06:30,ZBAA 080630Z 18003MPS 140V220 9999 -RA SCT010 24/22 Q1005 NOSIG
ZBAA,2025-08-08 07:00,ZBAA 080700Z VRB02MPS 8000 -RA BKN010 23/21 Q1005 BECMG TL0820 SCT010 BKN040
ZBAA,2025-08-08 07:30,ZBAA 080730Z VRB01MPS 8000 -RA BKN010 23/21 Q1005 NOSIG
ZBAA,2025-08-08 08:00,ZBAA 080800Z VRB01MPS 8000 -RA BKN010 23/21 Q1005 BECMG TL0820 SCT010 BKN040
ZBAA,2025-08-08 08:30,ZBAA 080830Z VRB01MPS 9999 -RA SCT010 22/21 Q1004 NOSIG
ZBAA,2025-08-08 09:00,ZBAA 080900Z VRB01MPS 9999 -RA FEW010 22/22 Q1004 NOSIG
ZBAA,2025-08-08 09:30,ZBAA 080930Z 02002MPS 9999 -RA SCT010 22/22 Q1004 NOSIG
ZBAA,2025-08-08 10:00,ZBAA 081000Z 36002MPS 9999 -RA SCT010 22/22 Q1004 NOSIG
ZBAA,2025-08-08 10:30,ZBAA 081030Z 03002MPS 360V070 5000 -RA BR SCT010 22/22 Q1004 NOSIG
ZBAA,2025-08-08 11:00,ZBAA 081100Z 04002MPS 360V060 5000 -RA BR SCT010 22/22 Q1004 NOSIG
ZBAA,2025-08-08 11:30,ZBAA 081130Z 04002MPS 010V070 7000 -RA SCT010 OVC040 22/22 Q1004 NOSIG
ZBAA,2025-08-08 12:00,ZBAA 081200Z 05002MPS 360V090 9999 -RA SCT010 OVC040 22/21 Q1005 NOSIG
ZBAA,2025-08-08 12:30,ZBAA 081230Z VRB01MPS 9999 -RA SCT010 OVC040 22/22 Q1005 NOSIG
ZBAA,2025-08-08 13:00,ZBAA 081300Z VRB01MPS 9999 -RA SCT010 OVC040 22/22 Q1005 NOSIG
ZBAA,2025-08-08 13:30,ZBAA 081330Z VRB01MPS 9999 -RA SCT010 OVC040 22/22 Q1005 NOSIG
ZBAA,2025-08-08 14:00,ZBAA 081400Z 03001MPS 9999 FEW010 OVC040 22/22 Q1005 NOSIG
ZBAA,2025-08-08 14:30,ZBAA 081430Z VRB01MPS 9999 FEW010 OVC040 22/22 Q1005 NOSIG
ZBAA,2025-08-08 15:00,ZBAA 081500Z 02002MPS 9999 FEW010 22/22 Q1005 NOSIG
ZBAA,2025-08-08 15:30,ZBAA 081530Z 01002MPS CAVOK 22/22 Q1005 NOSIG
ZBAA,2025-08-08 16:00,ZBAA 081600Z 01002MPS CAVOK 22/22 Q1004 NOSIG
ZBAA,2025-08-08 16:30,ZBAA 081630Z VRB01MPS CAVOK 22/21 Q1004 NOSIG
ZBAA,2025-08-08 17:00,ZBAA 081700Z 17001MPS CAVOK 21/21 Q1004 NOSIG
ZBAA,2025-08-08 17:30,ZBAA 081730Z 04001MPS 7000 NSC 21/21 Q1004 NOSIG
ZBAA,2025-08-08 18:00,ZBAA 081800Z VRB01MPS 7000 NSC 21/21 Q1004 NOSIG
ZBAA,2025-08-08 18:30,ZBAA 081830Z 35002MPS 7000 NSC 21/21 Q1004 NOSIG
ZBAA,2025-08-08 19:00,ZBAA 081900Z 01002MPS CAVOK 21/21 Q1004 NOSIG
ZBAA,2025-08-08 19:30,ZBAA 081930Z 01001MPS CAVOK 21/21 Q1004 NOSIG
ZBAA,2025-08-08 20:00,ZBAA 082000Z 35002MPS CAVOK 21/20 Q1004 NOSIG
ZBAA,2025-08-08 20:30,ZBAA 082030Z 35002MPS CAVOK 21/20 Q1004 NOSIG
ZBAA,2025-08-08 21:00,ZBAA 082100Z VRB01MPS CAVOK 21/20 Q1004 NOSIG
ZBAA,2025-08-08 21:30,ZBAA 082130Z 35002MPS CAVOK 20/20 Q1004 NOSIG
ZBAA,2025-08-08 22:00,ZBAA 082200Z 35002MPS CAVOK 21/21 Q1004 NOSIG
ZBAA,2025-08-08 22:30,ZBAA 082230Z 01002MPS CAVOK 22/21 Q1004 NOSIG
ZBAA,2025-08-08 23:00,ZBAA 082300Z 02003MPS 340V040 CAVOK 23/21 Q1004 NOSIG
ZBAA,2025-08-08 23:30,ZBAA 082330Z 02004MPS 350V050 CAVOK 23/21 Q1004 NOSIG
ZBAA,2025-08-09 00:00,ZBAA 090000Z 04003MPS 350V070 CAVOK 24/22 Q1005 NOSIG
ZBAA,2025-08-09 00:30,ZBAA 090030Z 01004MPS CAVOK 26/22 Q1005 NOSIG
ZBAA,2025-08-09 01:00,ZBAA 090100Z 01003MPS 340V080 CAVOK 27/21 Q1005 NOSIG
ZBAA,2025-08-09 01:30,ZBAA 090130Z 35002MPS 300V040 CAVOK 28/22 Q1005 NOSIG
ZBAA,2025-08-09 02:00,ZBAA 090200Z 35002MPS 290V070 CAVOK 28/22 Q1005 NOSIG
ZBAA,2025-08-09 02:30,ZBAA 090230Z VRB02MPS CAVOK 29/22 Q1005 NOSIG
ZBAA,2025-08-09 03:00,ZBAA 090300Z 01003MPS 330V030 CAVOK 30/23 Q1004 NOSIG
ZBAA,2025-08-09 03:30,ZBAA 090330Z 36003MPS 330V030 CAVOK 30/22 Q1004 NOSIG
ZBAA,2025-08-09 04:00,ZBAA 090400Z 35004MPS CAVOK 32/22 Q1004 NOSIG
ZBAA,2025-08-09 04:30,ZBAA 090430Z 36005MPS CAVOK 32/20 Q1004 NOSIG
ZBAA,2025-08-09 05:00,ZBAA 090500Z 01004MPS 320V040 CAVOK 32/21 Q1004 NOSIG
ZBAA,2025-08-09 05:30,ZBAA 090530Z 01004MPS 340V040 CAVOK 33/21 Q1004 NOSIG
ZBAA,2025-08-09 06:00,ZBAA 090600Z 03004MPS 360V070 CAVOK 33/17 Q1004 NOSIG
ZBAA,2025-08-09 06:30,ZBAA 090630Z 04004MPS CAVOK 33/16 Q1003 NOSIG
ZBAA,2025-08-09 07:00,ZBAA 090700Z 06003MPS CAVOK 33/17 Q1003 NOSIG
ZBAA,2025-08-09 07:30,ZBAA 090730Z 05003MPS 350V090 CAVOK 33/18 Q1003 NOSIG
ZBAA,2025-08-09 08:00,ZBAA 090800Z 05002MPS 020V100 CAVOK 33/17 Q1003 NOSIG
ZBAA,2025-08-09 08:30,ZBAA 090830Z VRB01MPS CAVOK 33/19 Q1003 NOSIG
ZBAA,2025-08-09 09:00,ZBAA 090900Z 14002MPS 110V170 CAVOK 33/18 Q1003 NOSIG
ZBAA,2025-08-09 09:30,ZBAA 090930Z 12002MPS 100V160 CAVOK 33/19 Q1003 NOSIG
ZBAA,2025-08-09 10:00,ZBAA 091000Z VRB01MPS CAVOK 32/19 Q1003 NOSIG
ZBAA,2025-08-09 10:30,ZBAA 091030Z 12002MPS CAVOK 30/22 Q1003 NOSIG
ZBAA,2025-08-09 11:00,ZBAA 091100Z 16002MPS CAVOK 28/22 Q1004 NOSIG
ZBAA,2025-08-09 11:30,ZBAA 091130Z 14001MPS CAVOK 26/21 Q1004 NOSIG
ZBAA,2025-08-09 12:00,ZBAA 091200Z 18002MPS CAVOK 25/21 Q1004 NOSIG
ZBAA,2025-08-09 12:30,ZBAA 091230Z 19003MPS 160V240 CAVOK 29/21 Q1005 NOSIG
ZBAA,2025-08-09 13:00,ZBAA 091300Z 19003MPS CAVOK 27/21 Q1005 NOSIG
ZBAA,2025-08-09 13:30,ZBAA 091330Z 19002MPS 150V240 CAVOK 25/22 Q1005 NOSIG
ZBAA,2025-08-09 14:00,ZBAA 091400Z VRB01MPS CAVOK 25/22 Q1005 NOSIG
ZBAA,2025-08-09 14:30,ZBAA 091430Z VRB01MPS CAVOK 25/22 Q1005 NOSIG
ZBAA,2025-08-09 15:00,ZBAA 091500Z VRB01MPS CAVOK 23/22 Q1005 NOSIG
ZBAA,2025-08-09 15:30,ZBAA 091530Z VRB01MPS CAVOK 23/22 Q1005 NOSIG
ZBAA,2025-08-09 16:00,ZBAA 091600Z 11001MPS CAVOK 23/22 Q1005 NOSIG
ZBAA,2025-08-09 16:30,ZBAA 091630Z VRB01MPS CAVOK 23/22 Q1005 NOSIG
ZBAA,2025-08-09 17:00,ZBAA 091700Z VRB01MPS CAVOK 23/22 Q1005 NOSIG
ZBAA,2025-08-09 17:30,ZBAA 091730Z VRB01MPS CAVOK 23/22 Q1005 NOSIG
ZBAA,2025-08-09 18:00,ZBAA 091800Z 03001MPS CAVOK 22/22 Q1005 NOSIG
ZBAA,2025-08-09 18:30,ZBAA 091830Z 02001MPS CAVOK 22/22 Q1005 NOSIG
ZBAA,2025-08-09 19:00,ZBAA 091900Z 02001MPS CAVOK 22/22 Q1005 NOSIG
ZBAA,2025-08-09 19:30,ZBAA 091930Z 04001MPS CAVOK 22/22 Q1005 NOSIG
ZBAA,2025-08-09 20:00,ZBAA 092000Z 01001MPS CAVOK 22/22 Q1005 NOSIG
ZBAA,2025-08-09 20:30,ZBAA 092030Z 01001MPS CAVOK 22/21 Q1005 NOSIG
ZBAA,2025-08-09 21:00,ZBAA 092100Z 36001MPS CAVOK 21/21 Q1005 NOSIG
ZBAA,2025-08-09 21:30,ZBAA 092130Z 35001MPS CAVOK 21/21 Q1006 NOSIG
ZBAA,2025-08-09 22:00,ZBAA 092200Z 36003MPS CAVOK 22/21 Q1006 NOSIG
ZBAA,2025-08-09 22:30,ZBAA 092230Z 36003MPS CAVOK 23/22 Q1006 NOSIG
ZBAA,2025-08-09 23:00,ZBAA 092300Z 36002MPS CAVOK 24/22 Q1007 NOSIG
ZBAA,2025-08-09 23:30,ZBAA 092330Z VRB01MPS CAVOK 25/22 Q1007 NOSIG
ZBAA,2025-08-10 00:00,ZBAA 100000Z 01002MPS CAVOK 26/22 Q1007 NOSIG
ZBAA,2025-08-10 00:30,ZBAA 100030Z VRB01MPS CAVOK 27/21 Q1007 NOSIG
ZBAA,2025-08-10 01:00,ZBAA 100100Z 33002MPS 280V030 CAVOK 28/22 Q1007 NOSIG
ZBAA,2025-08-10 01:30,ZBAA 100130Z 30002MPS 230V350 CAVOK 28/23 Q1007 NOSIG
ZBAA,2025-08-10 02:00,ZBAA 100200Z VRB01MPS CAVOK 30/23 Q1007 NOSIG
ZBAA,2025-08-10 02:30,ZBAA 100230Z VRB01MPS CAVOK 30/23 Q1007 NOSIG
ZBAA,2025-08-10 03:00,ZBAA 100300Z VRB01MPS CAVOK 31/23 Q1007 NOSIG
ZBAA,2025-08-10 03:30,ZBAA 100330Z 20003MPS 160V250 CAVOK 31/23 Q1006 NOSIG
ZBAA,2025-08-10 04:00,ZBAA 100400Z 21003MPS 140V260 CAVOK 31/23 Q1006 NOSIG
ZBAA,2025-08-10 04:30,ZBAA 100430Z 18003MPS 140V230 CAVOK 32/23 Q1005 NOSIG
ZBAA,2025-08-10 05:00,ZBAA 100500Z 19004MPS 150V240 CAVOK 33/22 Q1005 NOSIG
ZBAA,2025-08-10 05:30,ZBAA 100530Z 19005G10MPS 150V270 CAVOK 33/23 Q1004 NOSIG
ZBAA,2025-08-10 06:00,ZBAA 100600Z 20004MPS 150V240 CAVOK 34/23 Q1004 NOSIG
ZBAA,2025-08-10 06:30,ZBAA 100630Z 19004G09MPS 130V260 CAVOK 34/21 Q1004 NOSIG
ZBAA,2025-08-10 07:00,ZBAA 100700Z 19005MPS 160V250 CAVOK 34/23 Q1003 NOSIG
ZBAA,2025-08-10 07:30,ZBAA 100730Z 18005MPS 150V250 CAVOK 33/21 Q1003 NOSIG
ZBAA,2025-08-10 08:00,ZBAA 100800Z 18005MPS CAVOK 33/22 Q1003 NOSIG
ZBAA,2025-08-10 08:30,ZBAA 100830Z 17005MPS CAVOK 33/21 Q1003 NOSIG
ZBAA,2025-08-10 09:00,ZBAA 100900Z 17005MPS CAVOK 33/21 Q1003 NOSIG
ZBAA,2025-08-10 09:30,ZBAA 100930Z 18005MPS CAVOK 33/21 Q1003 NOSIG
ZBAA,2025-08-10 10:00,ZBAA 101000Z 18004MPS CAVOK 32/22 Q1003 NOSIG
ZBAA,2025-08-10 10:30,ZBAA 101030Z 18004MPS CAVOK 31/22 Q1003 NOSIG
ZBAA,2025-08-10 11:00,ZBAA 101100Z 18004MPS CAVOK 30/22 Q1003 NOSIG
ZBAA,2025-08-10 11:30,ZBAA 101130Z 18005MPS CAVOK 29/21 Q1003 NOSIG
ZBAA,2025-08-10 12:00,ZBAA 101200Z 19003MPS CAVOK 29/21 Q1003 NOSIG
ZBAA,2025-08-10 12:30,ZBAA 101230Z 15002MPS CAVOK 27/21 Q1004 NOSIG
ZBAA,2025-08-10 13:00,ZBAA 101300Z 17002MPS CAVOK 27/22 Q1004 NOSIG
ZBAA,2025-08-10 13:30,ZBAA 101330Z 13003MPS 110V170 CAVOK 27/22 Q1004 NOSIG
ZBAA,2025-08-10 14:00,ZBAA 101400Z 16002MPS CAVOK 28/22 Q1004 NOSIG
ZBAA,2025-08-10 14:30,ZBAA 101430Z 17002MPS 140V220 CAVOK 28/22 Q1004 NOSIG
ZBAA,2025-08-10 15:00,ZBAA 101500Z 18004MPS CAVOK 28/22 Q1004 NOSIG
ZBAA,2025-08-10 15:30,ZBAA 101530Z 17002MPS 140V210 CAVOK 27/21 Q1004 NOSIG
ZBAA,2025-08-10 16:00,ZBAA 101600Z 16003MPS CAVOK 27/21 Q1003 NOSIG
ZBAA,2025-08-10 16:30,ZBAA 101630Z 18002MPS 150V210 CAVOK 27/21 Q1003 NOSIG
ZBAA,2025-08-10 17:00,ZBAA 101700Z 16003MPS CAVOK 27/21 Q1003 NOSIG
ZBAA,2025-08-10 17:30,ZBAA 101730Z 16002MPS CAVOK 26/21 Q1003 NOSIG
ZBAA,2025-08-10 18:00,ZBAA 101800Z 16003MPS CAVOK 26/21 Q1003 NOSIG
ZBAA,2025-08-10 18:30,ZBAA 101830Z 16003MPS CAVOK 26/21 Q1003 NOSIG
ZBAA,2025-08-10 19:00,ZBAA 101900Z 18003MPS 150V220 CAVOK 25/21 Q1002 NOSIG
ZBAA,2025-08-10 19:30,ZBAA 101930Z 17002MPS 150V210 CAVOK 25/21 Q1003 NOSIG
ZBAA,2025-08-10 20:00,ZBAA 102000Z 16002MPS CAVOK 24/21 Q1002 NOSIG
ZBAA,2025-08-10 20:30,ZBAA 102030Z 16002MPS CAVOK 23/21 Q1002 NOSIG
ZBAA,2025-08-10 21:00,ZBAA 102100Z 15003MPS CAVOK 24/21 Q1002 NOSIG
ZBAA,2025-08-10 21:30,ZBAA 102130Z 15002MPS CAVOK 24/21 Q1003 NOSIG
ZBAA,2025-08-10 22:00,ZBAA 102200Z VRB01MPS CAVOK 23/21 Q1003 NOSIG
ZBAA,2025-08-10 22:30,ZBAA 102230Z VRB01MPS CAVOK 24/22 Q1003 NOSIG
ZBAA,2025-08-10 23:00,ZBAA 102300Z VRB01MPS CAVOK 26/22 Q1003 NOSIG
ZBAA,2025-08-10 23:30,ZBAA 102330Z 17002MPS 130V210 CAVOK 26/22 Q1003 NOSIG
ZBAA,2025-08-11 00:00,ZBAA 110000Z 18003MPS CAVOK 27/22 Q1003 NOSIG
ZBAA,2025-08-11 00:30,ZBAA 110030Z 17003MPS 140V210 CAVOK 28/22 Q1003 NOSIG
ZBAA,2025-08-11 01:00,ZBAA 110100Z 16003MPS CAVOK 29/22 Q1003 NOSIG
ZBAA,2025-08-11 01:30,ZBAA 110130Z 18005MPS CAVOK 30/22 Q1003 NOSIG
ZBAA,2025-08-11 02:00,ZBAA 110200Z 21005MPS 170V230 CAVOK 31/21 Q1003 NOSIG
ZBAA,2025-08-11 02:30,ZBAA 110230Z 20005MPS 150V230 CAVOK 31/22 Q1003 NOSIG
ZBAA,2025-08-11 03:00,ZBAA 110300Z 19006MPS 160V220 CAVOK 31/21 Q1003 NOSIG
ZBAA,2025-08-11 03:30,ZBAA 110330Z 19005MPS 160V230 CAVOK 31/21 Q1003 NOSIG
ZBAA,2025-08-11 04:00,ZBAA 110400Z 20004MPS 160V240 CAVOK 31/21 Q1003 NOSIG
ZBAA,2025-08-11 04:30,ZBAA 110430Z 18005MPS 130V200 CAVOK 32/21 Q1002 NOSIG
ZBAA,2025-08-11 05:00,ZBAA 110500Z 18004MPS 150V210 CAVOK 32/22 Q1002 NOSIG
ZBAA,2025-08-11 05:30,ZBAA 110530Z 17005MPS 120V210 CAVOK 32/21 Q1002 NOSIG
ZBAA,2025-08-11 06:00,ZBAA 110600Z 17006MPS 130V190 CAVOK 32/22 Q1002 NOSIG
ZBAA,2025-08-11 06:30,ZBAA 110630Z 16005MPS CAVOK 32/22 Q1002 NOSIG
ZBAA,2025-08-11 07:00,ZBAA 110700Z 17005MPS 130V200 CAVOK 32/21 Q1002 NOSIG
ZBAA,2025-08-11 07:30,ZBAA 110730Z 17005MPS CAVOK 32/21 Q1002 NOSIG
ZBAA,2025-08-11 08:00,ZBAA 110800Z 16005MPS 120V210 CAVOK 32/21 Q1001 NOSIG
ZBAA,2025-08-11 08:30,ZBAA 110830Z 16004MPS CAVOK 32/22 Q1001 NOSIG
ZBAA,2025-08-11 09:00,ZBAA 110900Z 16005MPS 130V190 CAVOK 31/22 Q1001 NOSIG
ZBAA,2025-08-11 09:30,ZBAA 110930Z 16005MPS CAVOK 31/21 Q1001 NOSIG
ZBAA,2025-08-11 10:00,ZBAA 111000Z 16004MPS CAVOK 30/21 Q1001 NOSIG
ZBAA,2025-08-11 10:30,ZBAA 111030Z 16004MPS CAVOK 30/21 Q1001 NOSIG
ZBAA,2025-08-11 11:00,ZBAA 111100Z 16003MPS 130V190 CAVOK 29/22 Q1002 NOSIG
ZBAA,2025-08-11 11:30,ZBAA 111130Z 15002MPS 120V180 CAVOK 29/22 Q1002 NOSIG
ZBAA,2025-08-11 12:00,ZBAA 111200Z 15003MPS CAVOK 29/22 Q1002 NOSIG
ZBAA,2025-08-11 12:30,ZBAA 111230Z 15003MPS CAVOK 29/22 Q1002 NOSIG
ZBAA,2025-08-11 13:00,ZBAA 111300Z 14002MPS CAVOK 28/22 Q1003 NOSIG
ZBAA,2025-08-11 13:30,ZBAA 111330Z 14002MPS CAVOK 28/22 Q1003 NOSIG
ZBAA,2025-08-11 14:00,ZBAA 111400Z 15002MPS CAVOK 29/22 Q1003 NOSIG
ZBAA,2025-08-11 14:17,ZBAA 111417Z 16002MPS 9999 TS FEW050CB 28/23 Q1004 NOSIG
ZBAA,2025-08-11 14:30,ZBAA 111430Z 16002MPS 120V180 9999 TS FEW050CB 28/22 Q1004 NOSIG
ZBAA,2025-08-11 15:00,ZBAA 111500Z 07002MPS 040V140 9999 -TSRA FEW050CB 27/23 Q1004 BECMG TL1510 NSW
ZBAA,2025-08-11 15:12,ZBAA 111512Z 12002MPS 080V150 9999 -SHRA NSC 27/23 Q1004 RETS NOSIG
ZBAA,2025-08-11 15:30,ZBAA 111530Z 09002MPS 050V120 9999 -SHRA NSC 27/23 Q1004 RETS NOSIG
ZBAA,2025-08-11 16:00,ZBAA 111600Z 10002MPS 050V140 CAVOK 27/23 Q1004 NOSIG
ZBAA,2025-08-11 16:30,ZBAA 111630Z 09002MPS 060V130 CAVOK 27/23 Q1004 NOSIG
ZBAA,2025-08-11 17:00,ZBAA 111700Z 06003MPS CAVOK 26/22 Q1004 NOSIG
ZBAA,2025-08-11 17:30,ZBAA 111730Z 04002MPS 360V060 CAVOK 26/23 Q1004 NOSIG
ZBAA,2025-08-11 18:00,ZBAA 111800Z 03002MPS 360V070 CAVOK 25/21 Q1004 NOSIG
ZBAA,2025-08-11 18:30,ZBAA 111830Z VRB01MPS CAVOK 25/21 Q1004 NOSIG
ZBAA,2025-08-11 19:00,ZBAA 111900Z VRB01MPS CAVOK 24/22 Q1005 NOSIG
ZBAA,2025-08-11 19:30,ZBAA 111930Z VRB01MPS CAVOK 24/21 Q1004 NOSIG
ZBAA,2025-08-11 20:00,ZBAA 112000Z VRB01MPS CAVOK 24/21 Q1004 NOSIG
ZBAA,2025-08-11 20:30,ZBAA 112030Z 05001MPS CAVOK 23/21 Q1004 NOSIG
ZBAA,2025-08-11 21:00,ZBAA 112100Z VRB01MPS CAVOK 23/21 Q1004 NOSIG
ZBAA,2025-08-11 21:30,ZBAA 112130Z VRB01MPS CAVOK 23/22 Q1005 NOSIG
ZBAA,2025-08-11 22:00,ZBAA 112200Z 01001MPS CAVOK 23/22 Q1005 NOSIG
ZBAA,2025-08-11 22:30,ZBAA 112230Z 00000MPS CAVOK 24/22 Q1005 NOSIG
ZBAA,2025-08-11 23:00,ZBAA 112300Z 01001MPS CAVOK 25/22 Q1006 NOSIG
ZBAA,2025-08-11 23:30,ZBAA 112330Z VRB01MPS CAVOK 25/22 Q1006 NOSIG
ZBAA,2025-08-12 00:00,ZBAA 120000Z VRB01MPS CAVOK 26/22 Q1006 NOSIG
ZBAA,2025-08-12 00:30,ZBAA 120030Z VRB01MPS CAVOK 26/22 Q1007 NOSIG
ZBAA,2025-08-12 01:00,ZBAA 120100Z 36002MPS 310V060 CAVOK 26/22 Q1007 NOSIG
ZBAA,2025-08-12 01:30,ZBAA 120130Z 02002MPS CAVOK 26/22 Q1007 NOSIG
ZBAA,2025-08-12 02:00,ZBAA 120200Z 04002MPS 350V100 CAVOK 27/22 Q1007 NOSIG
ZBAA,2025-08-12 02:30,ZBAA 120230Z 09003MPS 020V130 CAVOK 28/23 Q1006 NOSIG
ZBAA,2025-08-12 03:00,ZBAA 120300Z VRB01MPS CAVOK 29/24 Q1007 NOSIG
ZBAA,2025-08-12 03:30,ZBAA 120330Z 00000MPS 7000 NSC 28/23 Q1007 NOSIG
ZBAA,2025-08-12 04:00,ZBAA 120400Z VRB01MPS 7000 NSC 28/24 Q1007 NOSIG
ZBAA,2025-08-12 04:30,ZBAA 120430Z VRB01MPS 7000 NSC 28/24 Q1007 NOSIG
ZBAA,2025-08-12 05:00,ZBAA 120500Z VRB01MPS 7000 NSC 29/24 Q1007 BECMG TL0650 TS
ZBAA,2025-08-12 05:30,ZBAA 120530Z 03002MPS 350V050 7000 NSC 29/24 Q1007 NOSIG
ZBAA,2025-08-12 06:00,ZBAA 120600Z 06002MPS 030V110 7000 NSC 29/24 Q1006 BECMG TL0720 TS
ZBAA,2025-08-12 06:30,ZBAA 120630Z VRB01MPS 7000 NSC 28/25 Q1007 NOSIG
ZBAA,2025-08-12 07:00,ZBAA 120700Z 04001MPS 6000 FEW050CB 28/25 Q1006 BECMG TL0750 32007MPS TS
ZBAA,2025-08-12 07:30,ZBAA 120730Z 04002MPS 5000 BR FEW050CB 28/25 Q1005 NOSIG
ZBAA,2025-08-12 07:42,ZBAA 120742Z 01003MPS 5000 TS BR SCT050CB 28/25 Q1006 NOSIG
ZBAA,2025-08-12 07:50,ZBAA 120750Z 01004MPS 3000 TSRA BR SCT040 SCT040CB 27/25 Q1006 NOSIG
ZBAA,2025-08-12 07:55,ZBAA 120755Z 36006G11MPS 2800 +TSRA BR SCT040 BKN040CB 26/25 Q1006 BECMG TL0940 11004MPS 3500 BR
ZBAA,2025-08-12 08:00,ZBAA 120800Z 34009MPS 1600 +TSRA BR SCT040 BKN040CB 25/24 Q1007 BECMG TL0940 11004MPS 3500 BR
ZBAA,2025-08-12 08:04,ZBAA 120804Z 27010MPS 1600 R36L/P2000N R36R/1300D R01/1400D +TSRA BR SCT040 BKN040CB 24/23 Q1008 NOSIG
ZBAA,2025-08-12 08:12,ZBAA 120812Z 35005MPS 1600 R36L/1400D R36R/1300U R01/1000U +TSRA BR SCT040 BKN040CB 23/23 Q1007 NOSIG
ZBAA,2025-08-12 08:26,ZBAA 120826Z 05004MPS 010V080 9999 -TSRA FEW015 BKN040 SCT040CB 23/23 Q1006 RESHRA NOSIG
ZBAA,2025-08-12 08:30,ZBAA 120830Z 06004MPS 020V090 9999 -TSRA FEW015 BKN040 SCT040CB 23/22 Q1006 RESHRA NOSIG
ZBAA,2025-08-12 09:00,ZBAA 120900Z 36003MPS 270V060 9999 -TSRA FEW015 BKN040 FEW040CB 23/22 Q1006 BECMG TL0940 NSW
ZBAA,2025-08-12 09:30,ZBAA 120930Z 05002MPS 330V090 9999 FEW005 FEW050CB 23/22 Q1006 RETS NOSIG
ZBAA,2025-08-12 09:46,ZBAA 120946Z 01002MPS 7000 -TSRA SCT050CB 23/23 Q1007 NOSIG
ZBAA,2025-08-12 10:00,ZBAA 121000Z VRB02MPS 7000 -TSRA FEW010 SCT050CB 23/22 Q1008 BECMG TL1120 NSW
ZBAA,2025-08-12 10:30,ZBAA 121030Z 06002MPS 030V100 6000 -TSRA FEW010 SCT050CB 23/22 Q1008 NOSIG
ZBAA,2025-08-12 11:00,ZBAA 121100Z VRB01MPS 6000 -TSRA FEW010 SCT050CB 22/22 Q1009 BECMG TL1120 NSW
ZBAA,2025-08-12 11:30,ZBAA 121130Z 14002MPS 6000 -SHRA NSC 22/22 Q1009 RETS NOSIG
ZBAA,2025-08-12 12:00,ZBAA 121200Z 04002MPS 020V080 9999 -SHRA NSC 22/22 Q1008 NOSIG
ZBAA,2025-08-12 12:30,ZBAA 121230Z VRB01MPS 9999 -SHRA NSC 23/22 Q1009 NOSIG
ZBAA,2025-08-12 13:00,ZBAA 121300Z 10002MPS 050V130 9999 -SHRA SCT006 23/22 Q1010 NOSIG
ZBAA,2025-08-12 13:30,ZBAA 121330Z 36002MPS 9999 -SHRA SCT006 23/23 Q1009 NOSIG
ZBAA,2025-08-12 14:00,ZBAA 121400Z VRB01MPS 8000 SCT006 23/22 Q1009 NOSIG
ZBAA,2025-08-12 14:30,ZBAA 121430Z 06002MPS 8000 SCT006 22/22 Q1009 NOSIG
ZBAA,2025-08-12 15:00,ZBAA 121500Z VRB01MPS 8000 SCT006 22/22 Q1009 BECMG TL1620 BKN006
ZBAA,2025-08-12 15:30,ZBAA 121530Z VRB01MPS 9999 SCT006 22/22 Q1009 NOSIG
ZBAA,2025-08-12 16:00,ZBAA 121600Z VRB01MPS 9999 SCT006 23/22 Q1009 BECMG TL1620 BKN006
ZBAA,2025-08-12 16:30,ZBAA 121630Z VRB01MPS 9999 -SHRA BKN006 23/22 Q1009 NOSIG
ZBAA,2025-08-12 17:00,ZBAA 121700Z 15002MPS 9999 BKN013 SCT030 22/22 Q1009 BECMG TL1720 SCT013
ZBAA,2025-08-12 17:30,ZBAA 121730Z 15002MPS 9999 SCT013 22/22 Q1009 NOSIG
ZBAA,2025-08-12 18:00,ZBAA 121800Z VRB01MPS CAVOK 22/22 Q1009 NOSIG
ZBAA,2025-08-12 18:30,ZBAA 121830Z VRB01MPS CAVOK 22/21 Q1009 NOSIG
ZBAA,2025-08-12 19:00,ZBAA 121900Z 05001MPS CAVOK 21/21 Q1009 NOSIG
ZBAA,2025-08-12 19:30,ZBAA 121930Z 03001MPS 9999 FEW007 21/21 Q1009 NOSIG
ZBAA,2025-08-12 20:00,ZBAA 122000Z 01001MPS 9999 FEW007 22/21 Q1010 NOSIG
ZBAA,2025-08-12 20:30,ZBAA 122030Z VRB01MPS 9999 FEW007 22/21 Q1009 NOSIG
ZBAA,2025-08-12 21:00,ZBAA 122100Z 15001MPS 8000 FEW030 21/21 Q1009 NOSIG
ZBAA,2025-08-12 21:30,ZBAA 122130Z 06001MPS 7000 NSC 21/21 Q1009 NOSIG
ZBAA,2025-08-12 22:00,ZBAA 122200Z VRB01MPS 7000 NSC 21/21 Q1009 NOSIG
ZBAA,2025-08-12 22:30,ZBAA 122230Z VRB01MPS 7000 NSC 22/22 Q1009 NOSIG
ZBAA,2025-08-12 23:00,ZBAA 122300Z 04002MPS 360V070 7000 NSC 23/22 Q1009 NOSIG
ZBAA,2025-08-12 23:30,ZBAA 122330Z VRB01MPS CAVOK 24/23 Q1010 NOSIG
ZBAA,2025-08-13 00:00,ZBAA 130000Z VRB01MPS CAVOK 25/23 Q1010 NOSIG
ZBAA,2025-08-13 00:30,ZBAA 130030Z 31002MPS 280V020 CAVOK 24/22 Q1011 NOSIG
ZBAA,2025-08-13 01:00,ZBAA 130100Z VRB01MPS 9999 FEW040 26/23 Q1010 NOSIG
ZBAA,2025-08-13 01:30,ZBAA 130130Z 32004MPS 9999 BKN040 26/22 Q1011 NOSIG
ZBAA,2025-08-13 02:00,ZBAA 130200Z VRB02MPS 9999 BKN040 27/22 Q1011 BECMG TL0240 32006MPS
ZBAA,2025-08-13 02:30,ZBAA 130230Z 32005MPS 290V350 9999 BKN040 27/22 Q1011 NOSIG
ZBAA,2025-08-13 03:00,ZBAA 130300Z 34005MPS 9999 FEW040 26/19 Q1011 NOSIG
ZBAA,2025-08-13 03:30,ZBAA 130330Z 03003MPS 350V070 9999 FEW040 27/20 Q1010 NOSIG
ZBAA,2025-08-13 04:00,ZBAA 130400Z 03003MPS 320V080 CAVOK 27/20 Q1010 NOSIG
ZBAA,2025-08-13 04:30,ZBAA 130430Z 36004MPS CAVOK 26/18 Q1010 NOSIG
ZBAA,2025-08-13 05:00,ZBAA 130500Z 36003MPS CAVOK 27/18 Q1010 NOSIG
ZBAA,2025-08-13 05:30,ZBAA 130530Z 02002MPS 350V060 CAVOK 26/18 Q1009 NOSIG
ZBAA,2025-08-13 06:00,ZBAA 130600Z 02002MPS CAVOK 27/19 Q1009 NOSIG
ZBAA,2025-08-13 06:30,ZBAA 130630Z 31002MPS 250V040 CAVOK 28/18 Q1009 NOSIG
ZBAA,2025-08-13 07:00,ZBAA 130700Z 31002MPS 260V360 CAVOK 29/18 Q1009 NOSIG
ZBAA,2025-08-13 07:30,ZBAA 130730Z 32002MPS 250V360 CAVOK 30/18 Q1009 NOSIG
ZBAA,2025-08-13 08:00,ZBAA 130800Z VRB01MPS CAVOK 30/16 Q1009 NOSIG
ZBAA,2025-08-13 08:30,ZBAA 130830Z 35002MPS 260V050 CAVOK 30/17 Q1009 NOSIG
ZBAA,2025-08-13 09:00,ZBAA 130900Z VRB01MPS CAVOK 30/18 Q1009 NOSIG
ZBAA,2025-08-13 09:30,ZBAA 130930Z VRB01MPS CAVOK 29/18 Q1009 NOSIG
ZBAA,2025-08-13 10:00,ZBAA 131000Z 14001MPS CAVOK 29/19 Q1009 NOSIG
ZBAA,2025-08-13 10:30,ZBAA 131030Z 14002MPS CAVOK 27/21 Q1009 NOSIG
ZBAA,2025-08-13 11:00,ZBAA 131100Z 14001MPS CAVOK 24/21 Q1009 NOSIG
ZBAA,2025-08-13 11:30,ZBAA 131130Z VRB01MPS CAVOK 23/21 Q1009 NOSIG
ZBAA,2025-08-13 12:00,ZBAA 131200Z 08002MPS CAVOK 22/21 Q1010 NOSIG
ZBAA,2025-08-13 12:30,ZBAA 131230Z VRB01MPS CAVOK 22/21 Q1010 NOSIG
ZBAA,2025-08-13 13:00,ZBAA 131300Z VRB01MPS CAVOK 22/21 Q1010 NOSIG
ZBAA,2025-08-13 13:30,ZBAA 131330Z VRB01MPS CAVOK 22/21 Q1011 NOSIG
ZBAA,2025-08-13 14:00,ZBAA 131400Z 07001MPS CAVOK 21/21 Q1011 NOSIG
ZBAA,2025-08-13 14:30,ZBAA 131430Z 05002MPS CAVOK 21/21 Q1011 NOSIG
ZBAA,2025-08-13 15:00,ZBAA 131500Z 05001MPS CAVOK 21/21 Q1011 NOSIG
ZBAA,2025-08-13 15:30,ZBAA 131530Z VRB01MPS CAVOK 21/20 Q1011 NOSIG
ZBAA,2025-08-13 16:00,ZBAA 131600Z VRB01MPS CAVOK 21/20 Q1011 NOSIG
ZBAA,2025-08-13 16:30,ZBAA 131630Z VRB01MPS CAVOK 21/20 Q1012 NOSIG
ZBAA,2025-08-13 17:00,ZBAA 131700Z 05001MPS CAVOK 21/20 Q1011 NOSIG
ZBAA,2025-08-13 17:30,ZBAA 131730Z VRB01MPS CAVOK 21/20 Q1012 NOSIG
ZBAA,2025-08-13 18:00,ZBAA 131800Z 36001MPS CAVOK 21/20 Q1012 NOSIG
ZBAA,2025-08-13 18:30,ZBAA 131830Z 36002MPS CAVOK 21/20 Q1012 NOSIG
ZBAA,2025-08-13 19:00,ZBAA 131900Z 36002MPS CAVOK 21/20 Q1012 NOSIG
ZBAA,2025-08-13 19:30,ZBAA 131930Z 34001MPS CAVOK 21/20 Q1012 NOSIG
ZBAA,2025-08-13 20:00,ZBAA 132000Z 00000MPS CAVOK 20/20 Q1012 NOSIG
ZBAA,2025-08-13 20:30,ZBAA 132030Z 36001MPS CAVOK 20/20 Q1012 NOSIG
ZBAA,2025-08-13 21:00,ZBAA 132100Z 36002MPS CAVOK 20/20 Q1013 NOSIG
ZBAA,2025-08-13 21:30,ZBAA 132130Z VRB01MPS CAVOK 21/20 Q1013 NOSIG
ZBAA,2025-08-13 22:00,ZBAA 132200Z 36001MPS CAVOK 21/21 Q1013 NOSIG
ZBAA,2025-08-13 22:30,ZBAA 132230Z 36002MPS 9999 SCT040 22/21 Q1013 NOSIG
ZBAA,2025-08-13 23:00,ZBAA 132300Z 36001MPS 9999 BKN040 23/21 Q1013 NOSIG
ZBAA,2025-08-13 23:30,ZBAA 132330Z 35002MPS 290V010 9999 BKN040 23/21 Q1013 NOSIG
ZBAA,2025-08-14 00:00,ZBAA 140000Z 01003MPS 9999 SCT040 24/21 Q1013 NOSIG
ZBAA,2025-08-14 00:30,ZBAA 140030Z 01002MPS 310V060 CAVOK 25/21 Q1013 NOSIG
ZBAA,2025-08-14 01:00,ZBAA 140100Z VRB01MPS CAVOK 25/20 Q1014 NOSIG
ZBAA,2025-08-14 01:30,ZBAA 140130Z VRB01MPS CAVOK 26/20 Q1014 NOSIG
ZBAA,2025-08-14 02:00,ZBAA 140200Z VRB01MPS CAVOK 27/20 Q1014 NOSIG
ZBAA,2025-08-14 02:30,ZBAA 140230Z VRB01MPS CAVOK 27/21 Q1013 NOSIG
ZBAA,2025-08-14 03:00,ZBAA 140300Z VRB01MPS 9999 SCT033 27/21 Q1013 NOSIG
ZBAA,2025-08-14 03:30,ZBAA 140330Z VRB01MPS 9999 SCT033 27/21 Q1013 NOSIG
ZBAA,2025-08-14 04:00,ZBAA 140400Z VRB01MPS 9999 SCT033 28/22 Q1013 NOSIG
ZBAA,2025-08-14 04:30,ZBAA 140430Z VRB01MPS 9999 SCT033 30/23 Q1013 NOSIG
ZBAA,2025-08-14 05:00,ZBAA 140500Z VRB01MPS 9999 SCT033 29/23 Q1013 NOSIG
ZBAA,2025-08-14 05:30,ZBAA 140530Z VRB01MPS 9999 SCT033 29/23 Q1012 NOSIG
ZBAA,2025-08-14 06:00,ZBAA 140600Z VRB01MPS 9999 FEW033 30/23 Q1012 NOSIG
ZBAA,2025-08-14 06:30,ZBAA 140630Z 01002MPS 340V050 CAVOK 31/24 Q1011 NOSIG
ZBAA,2025-08-14 07:00,ZBAA 140700Z 12002MPS 070V160 CAVOK 31/24 Q1011 NOSIG
ZBAA,2025-08-14 07:30,ZBAA 140730Z 12002MPS 090V160 CAVOK 31/23 Q1011 NOSIG
ZBAA,2025-08-14 08:00,ZBAA 140800Z VRB01MPS CAVOK 32/24 Q1011 NOSIG
ZBAA,2025-08-14 08:30,ZBAA 140830Z VRB01MPS 9999 SCT033 31/24 Q1011 NOSIG
ZBAA,2025-08-14 08:45,ZBAA 140845Z 13006MPS 090V160 9999 SCT033 28/24 Q1011 NOSIG
ZBAA,2025-08-14 09:00,ZBAA 140900Z 15006MPS 110V170 9999 FEW030 27/22 Q1011 BECMG TL1020 06001MPS
ZBAA,2025-08-14 09:30,ZBAA 140930Z 13003MPS 090V160 9999 FEW030CB 27/21 Q1012 NOSIG
ZBAA,2025-08-14 09:36,ZBAA 140936Z 13003MPS 100V160 9999 TS FEW030CB 27/21 Q1012 NOSIG
ZBAA,2025-08-14 10:00,ZBAA 141000Z 11004MPS 060V140 9999 -TSRA FEW040CB 25/22 Q1012 BECMG AT1140 NSW
ZBAA,2025-08-14 10:30,ZBAA 141030Z 10003MPS 070V150 6000 -TSRA BKN040CB 23/22 Q1012 NOSIG
ZBAA,2025-08-14 10:53,ZBAA 141053Z VRB02MPS 4000 TSRA BR BKN040CB 23/23 Q1013 NOSIG
ZBAA,2025-08-14 11:00,ZBAA 141100Z 03003MPS 350V090 3200 TSRA BR OVC040CB 23/23 Q1013 BECMG TL1220 NSW
ZBAA,2025-08-14 11:14,ZBAA 141114Z 16004MPS 120V180 1700 +TSRA BR OVC040CB 23/23 Q1013 NOSIG
ZBAA,2025-08-14 11:30,ZBAA 141130Z 13007MPS 100V160 7000 -TSRA OVC040CB 22/22 Q1012 RESHRA NOSIG
ZBAA,2025-08-14 11:41,ZBAA 141141Z 07003MPS 9999 -TSRA BKN040 SCT040CB 23/21 Q1012 NOSIG
ZBAA,2025-08-14 12:00,ZBAA 141200Z 10003MPS 050V140 9999 -TSRA BKN040 SCT040CB 23/22 Q1012 BECMG TL1250 NSW
ZBAA,2025-08-14 12:30,ZBAA 141230Z 11003MPS 070V160 9999 -TSRA FEW006 BKN040 SCT040CB 23/22 Q1013 NOSIG
ZBAA,2025-08-14 13:00,ZBAA 141300Z 18002MPS 110V240 9999 -SHRA FEW006 FEW040CB 23/22 Q1013 RETS NOSIG
ZBAA,2025-08-14 13:30,ZBAA 141330Z VRB02MPS 9999 -SHRA SCT008 FEW040CB 23/22 Q1014 NOSIG
ZBAA,2025-08-14 14:00,ZBAA 141400Z 07002MPS 020V130 9999 SCT008 23/22 Q1013 NOSIG
ZBAA,2025-08-14 14:30,ZBAA 141430Z VRB01MPS 9999 FEW008 23/22 Q1014 NOSIG
ZBAA,2025-08-14 15:00,ZBAA 141500Z VRB01MPS 9999 FEW008 23/22 Q1014 NOSIG
ZBAA,2025-08-14 15:30,ZBAA 141530Z VRB01MPS 9999 FEW008 22/22 Q1014 NOSIG
ZBAA,2025-08-14 16:00,ZBAA 141600Z 35002MPS 9999 FEW011 22/22 Q1013 NOSIG
ZBAA,2025-08-14 16:30,ZBAA 141630Z VRB01MPS 9999 SCT010 22/22 Q1013 NOSIG
ZBAA,2025-08-14 17:00,ZBAA 141700Z VRB01MPS 9999 SCT010 22/22 Q1013 NOSIG
ZBAA,2025-08-14 17:30,ZBAA 141730Z 17001MPS 9999 SCT033 22/22 Q1013 NOSIG
ZBAA,2025-08-14 18:00,ZBAA 141800Z 15001MPS 9999 SCT033 22/22 Q1013 NOSIG
ZBAA,2025-08-14 18:30,ZBAA 141830Z VRB01MPS 9999 SCT040 22/22 Q1012 NOSIG
ZBAA,2025-08-14 19:00,ZBAA 141900Z 02002MPS 9999 SCT040 22/22 Q1012 NOSIG
ZBAA,2025-08-14 19:30,ZBAA 141930Z 03001MPS 9999 SCT040 23/22 Q1012 NOSIG
ZBAA,2025-08-14 20:00,ZBAA 142000Z 05001MPS 9999 SCT040 23/22 Q1012 NOSIG
ZBAA,2025-08-14 20:30,ZBAA 142030Z 05001MPS 9999 SCT040 23/22 Q1012 NOSIG
ZBAA,2025-08-14 21:00,ZBAA 142100Z 00000MPS 9999 SCT040 23/23 Q1012 NOSIG
ZBAA,2025-08-14 21:30,ZBAA 142130Z VRB01MPS 9999 BKN040 23/23 Q1012 NOSIG
ZBAA,2025-08-14 22:00,ZBAA 142200Z VRB01MPS 9999 BKN040 23/23 Q1012 NOSIG
ZBAA,2025-08-14 22:30,ZBAA 142230Z VRB01MPS 7000 BKN040 23/23 Q1012 NOSIG
ZBAA,2025-08-14 23:00,ZBAA 142300Z VRB01MPS 7000 BKN040 23/23 Q1012 NOSIG
ZBAA,2025-08-14 23:30,ZBAA 142330Z VRB01MPS 7000 NSC 24/23 Q1012 NOSIG
ZBAA,2025-08-15 00:00,ZBAA 150000Z VRB01MPS 7000 NSC 24/23 Q1012 NOSIG
ZBAA,2025-08-15 00:30,ZBAA 150030Z 19002MPS 130V260 7000 NSC 25/23 Q1012 NOSIG
ZBAA,2025-08-15 01:00,ZBAA 150100Z VRB01MPS 7000 NSC 25/23 Q1012 NOSIG
ZBAA,2025-08-15 01:30,ZBAA 150130Z VRB01MPS CAVOK 26/22 Q1012 NOSIG
ZBAA,2025-08-15 02:00,ZBAA 150200Z 13002MPS 090V180 CAVOK 27/23 Q1012 NOSIG
ZBAA,2025-08-15 02:30,ZBAA 150230Z 15003MPS 110V170 CAVOK 28/24 Q1011 NOSIG
ZBAA,2025-08-15 03:00,ZBAA 150300Z 15003MPS 100V180 7000 NSC 29/24 Q1011 NOSIG
ZBAA,2025-08-15 03:30,ZBAA 150330Z 17003MPS 130V220 7000 NSC 29/25 Q1011 NOSIG
ZBAA,2025-08-15 04:00,ZBAA 150400Z VRB02MPS 7000 NSC 30/25 Q1011 NOSIG
ZBAA,2025-08-15 04:30,ZBAA 150430Z VRB02MPS 7000 NSC 30/25 Q1011 NOSIG
ZBAA,2025-08-15 05:00,ZBAA 150500Z 11002MPS 080V140 7000 NSC 29/25 Q1011 NOSIG
ZBAA,2025-08-15 05:30,ZBAA 150530Z 14003MPS 110V180 7000 NSC 30/25 Q1010 NOSIG
ZBAA,2025-08-15 06:00,ZBAA 150600Z 10003MPS 070V130 7000 NSC 30/25 Q1010 NOSIG
ZBAA,2025-08-15 06:30,ZBAA 150630Z 11003MPS 070V140 7000 NSC 30/26 Q1010 NOSIG
ZBAA,2025-08-15 07:00,ZBAA 150700Z VRB01MPS 4000 -SHRA BR NSC 28/27 Q1009 BECMG TL0840 TS
ZBAA,2025-08-15 07:30,ZBAA 150730Z VRB01MPS 5000 BR NSC 28/27 Q1009 NOSIG
ZBAA,2025-08-15 08:00,ZBAA 150800Z 16003MPS 5000 BR FEW040TCU 28/27 Q1009 BECMG TL0840 TS
ZBAA,2025-08-15 08:30,ZBAA 150830Z 10002MPS 5000 BR FEW040TCU 29/26 Q1008 NOSIG
ZBAA,2025-08-15 09:00,ZBAA 150900Z 12002MPS 090V160 5000 BR NSC 28/27 Q1009 NOSIG
ZBAA,2025-08-15 09:30,ZBAA 150930Z 14002MPS 5000 BR NSC 28/26 Q1009 NOSIG
ZBAA,2025-08-15 10:00,ZBAA 151000Z 15002MPS 5000 BR NSC 28/25 Q1009 NOSIG
ZBAA,2025-08-15 10:30,ZBAA 151030Z 15002MPS 6000 FEW030 27/25 Q1009 NOSIG
ZBAA,2025-08-15 11:00,ZBAA 151100Z 13002MPS 6000 FEW030 27/25 Q1009 BECMG TL1240 TS
ZBAA,2025-08-15 11:30,ZBAA 151130Z 12002MPS 6000 FEW030 26/25 Q1009 NOSIG
ZBAA,2025-08-15 12:00,ZBAA 151200Z 14002MPS 6000 FEW030 26/25 Q1009 NOSIG
ZBAA,2025-08-15 12:30,ZBAA 151230Z 12002MPS 100V170 8000 NSC 26/25 Q1009 NOSIG
ZBAA,2025-08-15 13:00,ZBAA 151300Z 07002MPS CAVOK 25/25 Q1010 NOSIG
ZBAA,2025-08-15 13:30,ZBAA 151330Z 10002MPS CAVOK 25/24 Q1010 NOSIG
ZBAA,2025-08-15 14:00,ZBAA 151400Z 13002MPS CAVOK 25/24 Q1010 NOSIG
ZBAA,2025-08-15 14:30,ZBAA 151430Z 14004MPS CAVOK 25/24 Q1010 NOSIG
ZBAA,2025-08-15 15:00,ZBAA 151500Z 14002MPS 090V170 CAVOK 25/24 Q1009 BECMG TL1650 33010G16MPS TS
ZBAA,2025-08-15 15:30,ZBAA 151530Z 15002MPS 120V180 CAVOK 25/24 Q1010 NOSIG
ZBAA,2025-08-15 16:00,ZBAA 151600Z VRB01MPS 8000 NSC 24/24 Q1010 BECMG TL1720 33010G16MPS TS
ZBAA,2025-08-15 16:30,ZBAA 151630Z VRB01MPS 8000 NSC 25/24 Q1010 NOSIG
ZBAA,2025-08-15 17:00,ZBAA 151700Z 16001MPS 8000 FEW040CB 24/23 Q1010 BECMG TL1850 NSW
ZBAA,2025-08-15 17:30,ZBAA 151730Z 08001MPS 8000 -SHRA FEW040CB 24/23 Q1010 NOSIG
ZBAA,2025-08-15 18:00,ZBAA 151800Z VRB01MPS 8000 -SHRA FEW040CB 24/24 Q1009 NOSIG
ZBAA,2025-08-15 18:30,ZBAA 151830Z VRB01MPS 5000 -SHRA BR FEW010 FEW040CB 24/23 Q1009 NOSIG
ZBAA,2025-08-15 19:00,ZBAA 151900Z VRB01MPS 5000 -SHRA BR SCT010 FEW040CB 23/23 Q1009 NOSIG
ZBAA,2025-08-15 19:30,ZBAA 151930Z 33005MPS 5000 -SHRA BR SCT010 FEW040CB 23/22 Q1009 NOSIG
ZBAA,2025-08-15 20:00,ZBAA 152000Z 14002MPS 070V190 9999 SCT010 22/22 Q1008 NOSIG
ZBAA,2025-08-15 20:30,ZBAA 152030Z VRB01MPS 9999 SCT010 22/22 Q1008 NOSIG
ZBAA,2025-08-15 21:00,ZBAA 152100Z 34003MPS 9999 SCT009 22/22 Q1008 NOSIG
ZBAA,2025-08-15 21:30,ZBAA 152130Z VRB01MPS 9999 SCT009 BKN040 22/22 Q1008 NOSIG
ZBAA,2025-08-15 22:00,ZBAA 152200Z 35004MPS 9999 SCT009 BKN040 22/22 Q1008 NOSIG
ZBAA,2025-08-15 22:30,ZBAA 152230Z 34005MPS 9999 SCT009 BKN040 22/22 Q1009 NOSIG
ZBAA,2025-08-15 23:00,ZBAA 152300Z 35004MPS 9999 SCT009 BKN040 22/22 Q1009 NOSIG
ZBAA,2025-08-15 23:30,ZBAA 152330Z 01002MPS 7000 -SHRA FEW005 OVC040 22/22 Q1010 NOSIG
ZBAA,2025-08-16 00:00,ZBAA 160000Z 08001MPS 9999 -SHRA FEW005 OVC040 23/22 Q1009 NOSIG
ZBAA,2025-08-16 00:30,ZBAA 160030Z 11002MPS 070V150 CAVOK 24/23 Q1009 NOSIG
ZBAA,2025-08-16 01:00,ZBAA 160100Z VRB01MPS CAVOK 25/23 Q1009 NOSIG
ZBAA,2025-08-16 01:30,ZBAA 160130Z VRB01MPS 9999 SCT015 26/23 Q1010 NOSIG
ZBAA,2025-08-16 02:00,ZBAA 160200Z VRB01MPS 9999 FEW015 27/23 Q1010 NOSIG
ZBAA,2025-08-16 02:30,ZBAA 160230Z VRB01MPS 9999 FEW015 27/23 Q1010 NOSIG
ZBAA,2025-08-16 03:00,ZBAA 160300Z 31002MPS 250V350 9999 FEW015 28/23 Q1010 NOSIG
ZBAA,2025-08-16 03:30,ZBAA 160330Z VRB01MPS 9999 FEW015 27/23 Q1009 NOSIG
ZBAA,2025-08-16 04:00,ZBAA 160400Z 12002MPS 050V210 9999 FEW015 27/23 Q1009 NOSIG
ZBAA,2025-08-16 04:30,ZBAA 160430Z VRB01MPS 9999 BKN030 28/23 Q1009 NOSIG
ZBAA,2025-08-16 05:00,ZBAA 160500Z 14002MPS 090V200 9999 SCT030 29/24 Q1009 NOSIG
ZBAA,2025-08-16 05:30,ZBAA 160530Z 14003MPS 110V170 9999 SCT030 28/23 Q1008 NOSIG
ZBAA,2025-08-16 06:00,ZBAA 160600Z 17002MPS 130V210 9999 FEW030 29/23 Q1009 NOSIG
ZBAA,2025-08-16 06:30,ZBAA 160630Z 20002MPS 120V260 9999 FEW030 28/22 Q1009 NOSIG
ZBAA,2025-08-16 07:00,ZBAA 160700Z 15002MPS 100V210 9999 FEW030 29/23 Q1008 NOSIG
ZBAA,2025-08-16 07:30,ZBAA 160730Z 14002MPS 100V180 9999 FEW040 30/23 Q1008 NOSIG
ZBAA,2025-08-16 08:00,ZBAA 160800Z 11002MPS 030V160 9999 FEW040 29/23 Q1008 NOSIG
ZBAA,2025-08-16 08:30,ZBAA 160830Z VRB01MPS 9999 FEW040 30/24 Q1008 NOSIG
ZBAA,2025-08-16 09:00,ZBAA 160900Z VRB01MPS 9999 FEW040 30/23 Q1008 NOSIG
ZBAA,2025-08-16 09:30,ZBAA 160930Z 17002MPS 140V220 CAVOK 29/24 Q1008 NOSIG
ZBAA,2025-08-16 10:00,ZBAA 161000Z 16002MPS 110V190 CAVOK 29/24 Q1008 NOSIG
ZBAA,2025-08-16 10:30,ZBAA 161030Z VRB01MPS CAVOK 28/24 Q1008 NOSIG
ZBAA,2025-08-16 11:00,ZBAA 161100Z 13001MPS CAVOK 27/24 Q1008 NOSIG
ZBAA,2025-08-16 11:30,ZBAA 161130Z 12002MPS 090V150 CAVOK 25/24 Q1008 NOSIG
ZBAA,2025-08-16 12:00,ZBAA 161200Z 15002MPS CAVOK 26/24 Q1009 NOSIG
ZBAA,2025-08-16 12:30,ZBAA 161230Z 17002MPS CAVOK 25/24 Q1009 NOSIG
ZBAA,2025-08-16 13:00,ZBAA 161300Z 14001MPS CAVOK 25/24 Q1010 NOSIG
ZBAA,2025-08-16 13:30,ZBAA 161330Z 17002MPS CAVOK 25/24 Q1010 NOSIG
ZBAA,2025-08-16 14:00,ZBAA 161400Z 17001MPS CAVOK 25/24 Q1010 NOSIG
ZBAA,2025-08-16 14:30,ZBAA 161430Z 13001MPS CAVOK 24/24 Q1010 NOSIG
ZBAA,2025-08-16 15:00,ZBAA 161500Z 18002MPS 140V220 CAVOK 25/24 Q1010 NOSIG
ZBAA,2025-08-16 15:30,ZBAA 161530Z 15001MPS CAVOK 25/24 Q1011 NOSIG
ZBAA,2025-08-16 16:00,ZBAA 161600Z VRB01MPS CAVOK 25/24 Q1010 NOSIG
ZBAA,2025-08-16 16:30,ZBAA 161630Z 07002MPS CAVOK 24/24 Q1010 NOSIG
ZBAA,2025-08-16 17:00,ZBAA 161700Z 06002MPS CAVOK 24/24 Q1010 NOSIG
ZBAA,2025-08-16 17:30,ZBAA 161730Z 07001MPS CAVOK 24/24 Q1010 NOSIG
ZBAA,2025-08-16 18:00,ZBAA 161800Z VRB01MPS CAVOK 24/24 Q1011 NOSIG
ZBAA,2025-08-16 18:30,ZBAA 161830Z VRB01MPS 6000 NSC 24/23 Q1011 NOSIG
ZBAA,2025-08-16 19:00,ZBAA 161900Z 08001MPS 5000 BR NSC 23/23 Q1011 NOSIG
ZBAA,2025-08-16 19:30,ZBAA 161930Z 00000MPS 4000 BR NSC 23/23 Q1011 NOSIG
ZBAA,2025-08-16 20:00,ZBAA 162000Z VRB01MPS 4000 BR NSC 23/23 Q1011 NOSIG
ZBAA,2025-08-16 20:30,ZBAA 162030Z 36001MPS 4000 BR NSC 23/23 Q1011 NOSIG
ZBAA,2025-08-16 21:00,ZBAA 162100Z VRB01MPS 4000 BR NSC 23/23 Q1011 NOSIG
ZBAA,2025-08-16 21:30,ZBAA 162130Z 04001MPS 3500 BR NSC 23/23 Q1011 NOSIG
ZBAA,2025-08-16 22:00,ZBAA 162200Z 36001MPS 4000 BR NSC 23/23 Q1012 NOSIG
ZBAA,2025-08-16 22:30,ZBAA 162230Z 01002MPS 5000 BR NSC 24/24 Q1012 NOSIG
ZBAA,2025-08-16 23:00,ZBAA 162300Z 36002MPS 7000 NSC 25/25 Q1012 NOSIG
ZBAA,2025-08-16 23:30,ZBAA 162330Z VRB01MPS 7000 NSC 26/24 Q1012 NOSIG
ZBAA,2025-08-17 00:00,ZBAA 170000Z VRB01MPS CAVOK 27/24 Q1012 NOSIG
ZBAA,2025-08-17 00:30,ZBAA 170030Z 36002MPS 330V030 CAVOK 28/24 Q1013 NOSIG
ZBAA,2025-08-17 01:00,ZBAA 170100Z 01002MPS 320V050 9999 FEW033 29/25 Q1013 NOSIG
ZBAA,2025-08-17 01:30,ZBAA 170130Z 03002MPS 340V100 9999 FEW033 29/24 Q1013 NOSIG
ZBAA,2025-08-17 02:00,ZBAA 170200Z 07002MPS 010V140 9999 FEW033 30/24 Q1013 NOSIG
ZBAA,2025-08-17 02:30,ZBAA 170230Z 03002MPS 350V090 9999 SCT033 31/24 Q1013 NOSIG
ZBAA,2025-08-17 03:00,ZBAA 170300Z 10002MPS 030V170 9999 BKN040 31/23 Q1013 NOSIG
ZBAA,2025-08-17 03:30,ZBAA 170330Z 13002MPS 090V180 9999 BKN040 31/24 Q1012 NOSIG
ZBAA,2025-08-17 04:00,ZBAA 170400Z 10002MPS 050V150 9999 BKN040 31/24 Q1012 NOSIG
ZBAA,2025-08-17 04:30,ZBAA 170430Z 11002MPS 010V180 9999 BKN040 31/24 Q1012 NOSIG
ZBAA,2025-08-17 05:00,ZBAA 170500Z 12003MPS 050V170 9999 BKN040 31/23 Q1012 NOSIG
ZBAA,2025-08-17 05:30,ZBAA 170530Z 11002MPS 030V170 9999 BKN040 32/24 Q1011 NOSIG
ZBAA,2025-08-17 06:00,ZBAA 170600Z 11002MPS 040V190 9999 BKN040 32/24 Q1011 NOSIG
ZBAA,2025-08-17 06:30,ZBAA 170630Z 14003MPS 090V170 9999 BKN040 32/23 Q1011 NOSIG
ZBAA,2025-08-17 07:00,ZBAA 170700Z VRB02MPS 9999 SCT040 32/24 Q1011 NOSIG
ZBAA,2025-08-17 07:30,ZBAA 170730Z 12002MPS 050V150 9999 SCT040 31/24 Q1011 NOSIG
ZBAA,2025-08-17 08:00,ZBAA 170800Z 14003MPS 110V170 9999 SCT040 31/24 Q1010 NOSIG
ZBAA,2025-08-17 08:30,ZBAA 170830Z 13002MPS 100V170 9999 FEW040 31/24 Q1010 NOSIG
ZBAA,2025-08-17 09:00,ZBAA 170900Z 14003MPS 9999 FEW040 31/24 Q1010 NOSIG
ZBAA,2025-08-17 09:30,ZBAA 170930Z 15003MPS CAVOK 31/24 Q1010 NOSIG
ZBAA,2025-08-17 10:00,ZBAA 171000Z 16002MPS CAVOK 30/24 Q1010 NOSIG
ZBAA,2025-08-17 10:30,ZBAA 171030Z 15002MPS 9999 FEW040 30/24 Q1011 NOSIG
ZBAA,2025-08-17 11:00,ZBAA 171100Z 16002MPS CAVOK 29/24 Q1011 NOSIG
ZBAA,2025-08-17 11:30,ZBAA 171130Z 15002MPS CAVOK 28/24 Q1011 NOSIG
ZBAA,2025-08-17 12:00,ZBAA 171200Z 15002MPS 120V180 CAVOK 28/24 Q1011 NOSIG
ZBAA,2025-08-17 12:30,ZBAA 171230Z 15003MPS CAVOK 28/24 Q1012 NOSIG
ZBAA,2025-08-17 13:00,ZBAA 171300Z 15003MPS 9999 FEW040 28/24 Q1012 NOSIG
ZBAA,2025-08-17 13:30,ZBAA 171330Z 16004MPS CAVOK 27/25 Q1012 NOSIG
ZBAA,2025-08-17 14:00,ZBAA 171400Z 16003MPS CAVOK 27/24 Q1012 NOSIG
ZBAA,2025-08-17 14:30,ZBAA 171430Z 18002MPS 150V220 CAVOK 26/24 Q1012 NOSIG
ZBAA,2025-08-17 15:00,ZBAA 171500Z 15002MPS 110V180 CAVOK 26/24 Q1012 NOSIG
ZBAA,2025-08-17 15:30,ZBAA 171530Z 12002MPS CAVOK 26/24 Q1012 NOSIG
ZBAA,2025-08-17 16:00,ZBAA 171600Z 10002MPS 9999 BKN033 26/25 Q1012 NOSIG
ZBAA,2025-08-17 16:30,ZBAA 171630Z 12002MPS 9999 BKN033 26/25 Q1011 NOSIG
ZBAA,2025-08-17 17:00,ZBAA 171700Z 12002MPS 080V160 9999 SCT040 26/25 Q1011 NOSIG
ZBAA,2025-08-17 17:30,ZBAA 171730Z VRB01MPS 9999 SCT040 26/24 Q1011 NOSIG
ZBAA,2025-08-17 18:00,ZBAA 171800Z 15002MPS 9999 BKN040 26/24 Q1011 NOSIG
ZBAA,2025-08-17 18:30,ZBAA 171830Z 11001MPS 9999 FEW040 25/24 Q1011 NOSIG
ZBAA,2025-08-17 19:00,ZBAA 171900Z VRB01MPS 8000 NSC 25/24 Q1011 NOSIG
ZBAA,2025-08-17 19:30,ZBAA 171930Z VRB01MPS 8000 NSC 25/24 Q1011 NOSIG
ZBAA,2025-08-17 20:00,ZBAA 172000Z 13002MPS 090V160 8000 NSC 25/24 Q1011 NOSIG
ZBAA,2025-08-17 20:30,ZBAA 172030Z 14002MPS 7000 NSC 25/24 Q1011 NOSIG
ZBAA,2025-08-17 21:00,ZBAA 172100Z 14003MPS 7000 NSC 25/24 Q1011 NOSIG
ZBAA,2025-08-17 21:30,ZBAA 172130Z 14002MPS 6000 NSC 25/24 Q1010 NOSIG
ZBAA,2025-08-17 22:00,ZBAA 172200Z 13002MPS 5000 BR NSC 25/24 Q1011 NOSIG
ZBAA,2025-08-17 22:30,ZBAA 172230Z 15003MPS 5000 BR NSC 25/24 Q1011 NOSIG
ZBAA,2025-08-17 23:00,ZBAA 172300Z 14002MPS 100V180 5000 BR NSC 25/24 Q1011 NOSIG
ZBAA,2025-08-17 23:30,ZBAA 172330Z 15003MPS 5000 BR SCT011 26/24 Q1011 NOSIG
ZBAA,2025-08-18 00:00,ZBAA 180000Z 14002MPS 110V170 5000 BR SCT011 BKN040 26/25 Q1011 NOSIG
ZBAA,2025-08-18 00:30,ZBAA 180030Z 14002MPS 110V170 5000 BR SCT011 BKN040 26/25 Q1011 NOSIG
ZBAA,2025-08-18 01:00,ZBAA 180100Z 12002MPS 070V180 5000 BR SCT011 BKN040 27/24 Q1010 NOSIG
ZBAA,2025-08-18 01:30,ZBAA 180130Z VRB01MPS 6000 SCT011 BKN040 28/25 Q1010 NOSIG
ZBAA,2025-08-18 02:00,ZBAA 180200Z 16002MPS 090V230 8000 SCT011 BKN040 28/24 Q1010 NOSIG
ZBAA,2025-08-18 02:30,ZBAA 180230Z 15002MPS 100V180 9999 BKN040 29/25 Q1010 NOSIG
ZBAA,2025-08-18 03:00,ZBAA 180300Z 16003MPS 120V220 9999 BKN040 29/25 Q1011 NOSIG
ZBAA,2025-08-18 03:30,ZBAA 180330Z 15003MPS 9999 BKN040 29/24 Q1011 NOSIG
ZBAA,2025-08-18 04:00,ZBAA 180400Z 14003MPS 100V180 9999 BKN040 30/25 Q1010 NOSIG
ZBAA,2025-08-18 04:30,ZBAA 180430Z VRB02MPS 9999 SCT040 31/25 Q1010 NOSIG
ZBAA,2025-08-18 05:00,ZBAA 180500Z 15004MPS 120V200 9999 SCT040 31/25 Q1009 NOSIG
ZBAA,2025-08-18 05:30,ZBAA 180530Z 15004MPS 100V180 9999 SCT040 30/26 Q1008 NOSIG
ZBAA,2025-08-18 06:00,ZBAA 180600Z 18004MPS 150V220 9999 SCT040 31/26 Q1009 NOSIG
ZBAA,2025-08-18 06:30,ZBAA 180630Z 20004MPS 160V250 CAVOK 31/24 Q1008 NOSIG
ZBAA,2025-08-18 07:00,ZBAA 180700Z 18004MPS 140V210 CAVOK 32/25 Q1008 NOSIG
ZBAA,2025-08-18 07:30,ZBAA 180730Z 18003MPS 140V240 CAVOK 32/25 Q1007 NOSIG
ZBAA,2025-08-18 08:00,ZBAA 180800Z 21004MPS 170V250 9999 SCT040 31/25 Q1007 NOSIG
ZBAA,2025-08-18 08:30,ZBAA 180830Z 18003MPS 150V250 9999 SCT040 32/25 Q1007 NOSIG
ZBAA,2025-08-18 09:00,ZBAA 180900Z 18003MPS 140V220 9999 SCT040 31/25 Q1007 NOSIG
ZBAA,2025-08-18 09:30,ZBAA 180930Z 18003MPS 150V220 9999 FEW040 31/25 Q1007 NOSIG
ZBAA,2025-08-18 10:00,ZBAA 181000Z 16002MPS 120V200 9999 FEW040 31/26 Q1007 NOSIG
ZBAA,2025-08-18 10:30,ZBAA 181030Z 13002MPS 9999 FEW040 30/26 Q1007 NOSIG
ZBAA,2025-08-18 11:00,ZBAA 181100Z 17001MPS CAVOK 28/26 Q1007 NOSIG
ZBAA,2025-08-18 11:30,ZBAA 181130Z 16001MPS CAVOK 28/26 Q1007 NOSIG
ZBAA,2025-08-18 12:00,ZBAA 181200Z VRB01MPS CAVOK 27/26 Q1007 NOSIG
ZBAA,2025-08-18 12:30,ZBAA 181230Z 16002MPS CAVOK 28/26 Q1008 NOSIG
ZBAA,2025-08-18 13:00,ZBAA 181300Z 17002MPS CAVOK 28/26 Q1008 NOSIG
ZBAA,2025-08-18 13:30,ZBAA 181330Z 15002MPS 130V210 CAVOK 27/26 Q1008 NOSIG
ZBAA,2025-08-18 14:00,ZBAA 181400Z 16001MPS CAVOK 27/26 Q1008 NOSIG
ZBAA,2025-08-18 14:30,ZBAA 181430Z VRB01MPS CAVOK 27/25 Q1008 NOSIG
ZBAA,2025-08-18 15:00,ZBAA 181500Z 17001MPS CAVOK 26/25 Q1008 NOSIG
ZBAA,2025-08-18 15:30,ZBAA 181530Z 14001MPS CAVOK 26/25 Q1007 NOSIG
ZBAA,2025-08-18 16:00,ZBAA 181600Z 08002MPS CAVOK 26/26 Q1007 NOSIG
ZBAA,2025-08-18 16:30,ZBAA 181630Z 09002MPS CAVOK 26/26 Q1007 NOSIG
ZBAA,2025-08-18 17:00,ZBAA 181700Z 09002MPS CAVOK 26/26 Q1007 NOSIG
ZBAA,2025-08-18 17:30,ZBAA 181730Z 09002MPS 060V120 CAVOK 26/25 Q1006 NOSIG
ZBAA,2025-08-18 18:00,ZBAA 181800Z 07002MPS CAVOK 26/25 Q1006 NOSIG
ZBAA,2025-08-18 18:30,ZBAA 181830Z 11002MPS 080V150 CAVOK 26/25 Q1006 NOSIG
ZBAA,2025-08-18 19:00,ZBAA 181900Z 11002MPS 070V140 CAVOK 26/25 Q1006 BECMG TL2040 21007MPS TS
ZBAA,2025-08-18 19:30,ZBAA 181930Z VRB01MPS CAVOK 26/25 Q1007 NOSIG
ZBAA,2025-08-18 20:00,ZBAA 182000Z VRB01MPS 9999 FEW040 26/25 Q1006 BECMG TL2040 21007MPS TS
ZBAA,2025-08-18 20:30,ZBAA 182030Z 08002MPS 040V110 9999 FEW040CB 26/25 Q1006 NOSIG
ZBAA,2025-08-18 21:00,ZBAA 182100Z 16002MPS 8000 TS SCT033CB 26/25 Q1007 BECMG AT2140 18007MPS TSRA
ZBAA,2025-08-18 21:07,ZBAA 182107Z 17007G12MPS 8000 -TSRA SCT033CB 26/24 Q1008 NOSIG
ZBAA,2025-08-18 21:30,ZBAA 182130Z 14005MPS 100V170 8000 TSRA FEW010 BKN033CB 23/23 Q1008 NOSIG
ZBAA,2025-08-18 22:00,ZBAA 182200Z 14002MPS 090V170 8000 -TSRA FEW010 BKN033CB 23/23 Q1007 RESHRA BECMG TL2340 NSW
ZBAA,2025-08-18 22:30,ZBAA 182230Z 08002MPS 020V150 9999 -TSRA SCT033CB 23/23 Q1006 NOSIG
ZBAA,2025-08-18 23:00,ZBAA 182300Z 06002MPS 030V090 9999 -SHRA SCT033CB 23/23 Q1006 RETS NOSIG
ZBAA,2025-08-18 23:30,ZBAA 182330Z 05002MPS 010V070 9999 FEW033CB 24/23 Q1006 NOSIG
ZBAA,2025-08-19 00:00,ZBAA 190000Z 06002MPS 020V110 CAVOK 24/24 Q1006 NOSIG
ZBAA,2025-08-19 00:30,ZBAA 190030Z 07002MPS 050V110 CAVOK 25/24 Q1007 NOSIG
ZBAA,2025-08-19 01:00,ZBAA 190100Z 03002MPS 010V070 CAVOK 25/24 Q1007 NOSIG
ZBAA,2025-08-19 01:30,ZBAA 190130Z 07002MPS 010V120 CAVOK 26/24 Q1007 NOSIG
ZBAA,2025-08-19 02:00,ZBAA 190200Z 06002MPS 030V100 CAVOK 26/24 Q1007 NOSIG
ZBAA,2025-08-19 02:30,ZBAA 190230Z 09002MPS 060V120 CAVOK 26/24 Q1007 NOSIG
ZBAA,2025-08-19 03:00,ZBAA 190300Z VRB01MPS 9999 SCT016 26/24 Q1006 NOSIG
ZBAA,2025-08-19 03:30,ZBAA 190330Z 10002MPS 050V140 9999 SCT016 26/24 Q1006 NOSIG
ZBAA,2025-08-19 04:00,ZBAA 190400Z 10002MPS 060V140 9999 FEW026 26/24 Q1006 NOSIG
ZBAA,2025-08-19 04:30,ZBAA 190430Z 10002MPS 060V140 9999 -RA FEW010 26/23 Q1005 NOSIG
ZBAA,2025-08-19 05:00,ZBAA 190500Z 09002MPS 060V130 9999 -RA FEW010 26/23 Q1005 NOSIG
ZBAA,2025-08-19 05:30,ZBAA 190530Z VRB01MPS 9999 -RA BKN016 26/24 Q1005 NOSIG
ZBAA,2025-08-19 06:00,ZBAA 190600Z VRB01MPS 5000 -RA BR BKN016 25/24 Q1005 NOSIG
ZBAA,2025-08-19 06:30,ZBAA 190630Z 01002MPS 350V050 7000 -RA BKN016 25/24 Q1005 NOSIG
ZBAA,2025-08-19 07:00,ZBAA 190700Z VRB01MPS 7000 -RA BKN016 25/24 Q1004 NOSIG
ZBAA,2025-08-19 07:30,ZBAA 190730Z 35002MPS 300V030 8000 -RA SCT015 26/25 Q1004 NOSIG
ZBAA,2025-08-19 08:00,ZBAA 190800Z 02002MPS 8000 -RA BKN015 25/25 Q1004 NOSIG
ZBAA,2025-08-19 08:30,ZBAA 190830Z 01002MPS 9999 -RA SCT013 26/25 Q1003 NOSIG
ZBAA,2025-08-19 09:00,ZBAA 190900Z VRB01MPS 9999 -SHRA SCT013 FEW050CB 25/24 Q1003 BECMG AT0940 33008MPS TS FEW040CB
ZBAA,2025-08-19 09:11,ZBAA 190911Z VRB02MPS 9999 -TSRA SCT007 SCT050CB 26/24 Q1004 NOSIG
ZBAA,2025-08-19 09:14,ZBAA 190914Z 28004G10MPS 240V010 2000 +TSRA SCT007 SCT050CB 26/24 Q1005 NOSIG
ZBAA,2025-08-19 09:19,ZBAA 190919Z 28008G16MPS 2000 R36L/1400D R36R/1500D R01/1600D +TSRA FEW040 BKN040CB 25/24 Q1005 NOSIG
ZBAA,2025-08-19 09:30,ZBAA 190930Z 24003MPS 160V300 5000 -TSRA SCT005 BKN040 FEW040CB 24/24 Q1004 RESHRA NOSIG
ZBAA,2025-08-19 10:00,ZBAA 191000Z 04002MPS 9999 -TSRA SCT003 BKN040 FEW040CB 24/24 Q1003 NOSIG
ZBAA,2025-08-19 10:30,ZBAA 191030Z 31003MPS 270V350 9999 -TSRA SCT003 BKN040 FEW040CB 24/24 Q1003 NOSIG
ZBAA,2025-08-19 11:00,ZBAA 191100Z VRB01MPS 9999 -SHRA SCT006 BKN040 25/24 Q1004 RETS NOSIG
ZBAA,2025-08-19 11:30,ZBAA 191130Z VRB01MPS 9999 FEW006 24/24 Q1003 NOSIG
ZBAA,2025-08-19 12:00,ZBAA 191200Z VRB01MPS 9999 FEW010 24/24 Q1004 NOSIG
ZBAA,2025-08-19 12:30,ZBAA 191230Z VRB01MPS CAVOK 24/24 Q1004 NOSIG
ZBAA,2025-08-19 13:00,ZBAA 191300Z VRB01MPS CAVOK 24/24 Q1004 NOSIG
ZBAA,2025-08-19 13:30,ZBAA 191330Z VRB01MPS CAVOK 24/24 Q1004 NOSIG
ZBAA,2025-08-19 14:00,ZBAA 191400Z 36001MPS CAVOK 24/24 Q1005 NOSIG
ZBAA,2025-08-19 14:30,ZBAA 191430Z VRB01MPS CAVOK 24/24 Q1005 NOSIG
ZBAA,2025-08-19 15:00,ZBAA 191500Z 00000MPS CAVOK 24/24 Q1005 NOSIG
ZBAA,2025-08-19 15:30,ZBAA 191530Z VRB01MPS 9999 SCT033 24/24 Q1005 NOSIG
ZBAA,2025-08-19 16:00,ZBAA 191600Z 32002MPS 9999 SCT033 25/24 Q1004 NOSIG
ZBAA,2025-08-19 16:30,ZBAA 191630Z 35003MPS 9999 BKN033 24/24 Q1004 NOSIG
ZBAA,2025-08-19 17:00,ZBAA 191700Z 36003MPS 9999 BKN033 24/24 Q1004 NOSIG
ZBAA,2025-08-19 17:30,ZBAA 191730Z 35004MPS 9999 BKN033 24/23 Q1004 NOSIG
ZBAA,2025-08-19 18:00,ZBAA 191800Z 01002MPS 9999 BKN033 24/23 Q1004 NOSIG
ZBAA,2025-08-19 18:30,ZBAA 191830Z 01002MPS CAVOK 24/23 Q1004 NOSIG
ZBAA,2025-08-19 19:00,ZBAA 191900Z 01002MPS CAVOK 24/23 Q1005 NOSIG
ZBAA,2025-08-19 19:30,ZBAA 191930Z 36002MPS 310V030 CAVOK 24/23 Q1004 NOSIG
ZBAA,2025-08-19 20:00,ZBAA 192000Z 36002MPS 330V030 CAVOK 23/23 Q1005 NOSIG
ZBAA,2025-08-19 20:30,ZBAA 192030Z 36002MPS CAVOK 23/23 Q1004 NOSIG
ZBAA,2025-08-19 21:00,ZBAA 192100Z 36002MPS CAVOK 23/23 Q1004 NOSIG
ZBAA,2025-08-19 21:30,ZBAA 192130Z 01002MPS CAVOK 23/23 Q1004 NOSIG
ZBAA,2025-08-19 22:00,ZBAA 192200Z 36002MPS CAVOK 23/23 Q1005 NOSIG
ZBAA,2025-08-19 22:30,ZBAA 192230Z VRB01MPS CAVOK 25/23 Q1005 NOSIG
ZBAA,2025-08-19 23:00,ZBAA 192300Z 36002MPS CAVOK 26/24 Q1005 NOSIG
ZBAA,2025-08-19 23:30,ZBAA 192330Z 02002MPS CAVOK 26/23 Q1005 NOSIG
ZBAA,2025-08-20 00:00,ZBAA 200000Z 03003MPS CAVOK 27/23 Q1005 NOSIG
ZBAA,2025-08-20 00:30,ZBAA 200030Z 02003MPS 340V060 CAVOK 27/23 Q1005 NOSIG
ZBAA,2025-08-20 01:00,ZBAA 200100Z 03002MPS 360V060 CAVOK 28/23 Q1005 NOSIG
ZBAA,2025-08-20 01:30,ZBAA 200130Z 02004MPS 350V050 CAVOK 27/23 Q1006 NOSIG
ZBAA,2025-08-20 02:00,ZBAA 200200Z 05002MPS 360V090 CAVOK 27/23 Q1006 NOSIG
ZBAA,2025-08-20 02:30,ZBAA 200230Z VRB01MPS CAVOK 28/23 Q1006 NOSIG
ZBAA,2025-08-20 03:00,ZBAA 200300Z VRB01MPS CAVOK 28/23 Q1006 NOSIG
ZBAA,2025-08-20 03:30,ZBAA 200330Z VRB01MPS CAVOK 28/24 Q1006 NOSIG
ZBAA,2025-08-20 04:00,ZBAA 200400Z VRB01MPS 9999 SCT040 28/24 Q1006 NOSIG
ZBAA,2025-08-20 04:30,ZBAA 200430Z VRB01MPS 9999 SCT040 28/24 Q1006 NOSIG
ZBAA,2025-08-20 05:00,ZBAA 200500Z VRB01MPS 9999 SCT030 29/24 Q1006 NOSIG
ZBAA,2025-08-20 05:30,ZBAA 200530Z VRB01MPS 9999 SCT030 OVC040 29/23 Q1006 NOSIG
ZBAA,2025-08-20 06:00,ZBAA 200600Z VRB01MPS 9999 -SHRA SCT030 29/24 Q1005 NOSIG
ZBAA,2025-08-20 06:30,ZBAA 200630Z VRB01MPS CAVOK 30/24 Q1005 NOSIG
ZBAA,2025-08-20 07:00,ZBAA 200700Z 01002MPS 320V040 CAVOK 30/24 Q1005 NOSIG
ZBAA,2025-08-20 07:30,ZBAA 200730Z 01003MPS 330V070 9999 SCT040 31/24 Q1005 NOSIG
ZBAA,2025-08-20 08:00,ZBAA 200800Z VRB01MPS 9999 FEW040 31/24 Q1005 NOSIG
ZBAA,2025-08-20 08:30,ZBAA 200830Z 07002MPS 030V130 9999 FEW040 30/24 Q1005 NOSIG
ZBAA,2025-08-20 09:00,ZBAA 200900Z 09002MPS 030V140 CAVOK 30/24 Q1005 NOSIG
ZBAA,2025-08-20 09:30,ZBAA 200930Z VRB01MPS CAVOK 30/24 Q1005 NOSIG
ZBAA,2025-08-20 10:00,ZBAA 201000Z VRB01MPS CAVOK 29/24 Q1005 NOSIG
ZBAA,2025-08-20 10:30,ZBAA 201030Z VRB01MPS CAVOK 28/24 Q1005 NOSIG
ZBAA,2025-08-20 11:00,ZBAA 201100Z 06001MPS CAVOK 28/25 Q1005 NOSIG
ZBAA,2025-08-20 11:30,ZBAA 201130Z 08001MPS CAVOK 26/25 Q1006 NOSIG
ZBAA,2025-08-20 12:00,ZBAA 201200Z 08001MPS CAVOK 26/25 Q1006 NOSIG
ZBAA,2025-08-20 12:30,ZBAA 201230Z VRB01MPS CAVOK 27/25 Q1006 NOSIG
ZBAA,2025-08-20 13:00,ZBAA 201300Z VRB01MPS CAVOK 27/25 Q1006 NOSIG
ZBAA,2025-08-20 13:30,ZBAA 201330Z VRB01MPS CAVOK 27/25 Q1007 NOSIG
ZBAA,2025-08-20 14:00,ZBAA 201400Z 10002MPS CAVOK 27/25 Q1007 NOSIG
ZBAA,2025-08-20 14:30,ZBAA 201430Z 11002MPS 080V150 CAVOK 27/25 Q1007 NOSIG
ZBAA,2025-08-20 15:00,ZBAA 201500Z 10002MPS 070V140 CAVOK 27/25 Q1006 NOSIG
ZBAA,2025-08-20 15:30,ZBAA 201530Z 12003MPS 090V150 CAVOK 27/25 Q1007 NOSIG
ZBAA,2025-08-20 16:00,ZBAA 201600Z 12003MPS 080V140 CAVOK 27/25 Q1007 NOSIG
ZBAA,2025-08-20 16:30,ZBAA 201630Z 12003MPS 080V140 CAVOK 26/25 Q1006 NOSIG
ZBAA,2025-08-20 17:00,ZBAA 201700Z 11003MPS 080V150 CAVOK 26/25 Q1006 NOSIG
ZBAA,2025-08-20 17:30,ZBAA 201730Z 12003MPS 090V160 7000 -RA NSC 26/25 Q1006 NOSIG
ZBAA,2025-08-20 18:00,ZBAA 201800Z 09002MPS 050V130 7000 NSC 26/25 Q1005 NOSIG
ZBAA,2025-08-20 18:30,ZBAA 201830Z 12002MPS 080V160 7000 FEW010 26/25 Q1006 NOSIG
ZBAA,2025-08-20 19:00,ZBAA 201900Z 13003MPS 090V160 8000 SCT010 26/25 Q1006 NOSIG
ZBAA,2025-08-20 19:30,ZBAA 201930Z 10002MPS 050V150 9999 -SHRA SCT010 25/24 Q1005 NOSIG
ZBAA,2025-08-20 20:00,COR ZBAA 202000Z 14003MPS 9999 -SHRA SCT010 OVC040 25/24 Q1005 BECMG TL2110 TS
ZBAA,2025-08-20 20:30,ZBAA 202030Z 14003MPS 7000 -SHRA SCT010 OVC040 25/25 Q1005 NOSIG
ZBAA,2025-08-20 21:00,ZBAA 202100Z 14002MPS 090V170 7000 -SHRA SCT010 OVC040 25/25 Q1005 BECMG TL2110 TS
ZBAA,2025-08-20 21:30,ZBAA 202130Z VRB01MPS 6000 -SHRA SCT010 OVC040 25/24 Q1005 NOSIG
ZBAA,2025-08-20 22:00,ZBAA 202200Z VRB01MPS 5000 BR SCT010 OVC040 25/25 Q1005 NOSIG
ZBAA,2025-08-20 22:30,ZBAA 202230Z VRB01MPS 5000 BR SCT010 OVC040 25/25 Q1005 NOSIG
ZBAA,2025-08-20 23:00,ZBAA 202300Z 11002MPS 5000 -SHRA BR SCT010 OVC040 25/25 Q1005 NOSIG
ZBAA,2025-08-20 23:30,ZBAA 202330Z 11003MPS 070V150 5000 -SHRA BR FEW010 OVC040 25/25 Q1005 NOSIG
ZBAA,2025-08-21 00:00,ZBAA 210000Z 11002MPS 070V150 4000 -SHRA BR FEW010 OVC040 26/25 Q1005 NOSIG
ZBAA,2025-08-21 00:30,ZBAA 210030Z 13002MPS 100V170 4000 -RA BR SCT007 OVC040 26/25 Q1005 NOSIG
ZBAA,2025-08-21 01:00,ZBAA 210100Z 14003MPS 120V180 4000 BR SCT007 OVC040 26/25 Q1005 NOSIG
ZBAA,2025-08-21 01:30,ZBAA 210130Z 15003MPS 120V180 4000 BR FEW007 OVC040 26/25 Q1005 NOSIG
ZBAA,2025-08-21 02:00,ZBAA 210200Z 15003MPS 120V180 4500 BR SCT007 OVC040 26/25 Q1006 NOSIG
ZBAA,2025-08-21 02:30,ZBAA 210230Z 13002MPS 090V160 4500 BR SCT009 27/26 Q1005 NOSIG
ZBAA,2025-08-21 03:00,ZBAA 210300Z 14002MPS 5000 BR SCT010 27/25 Q1005 NOSIG
ZBAA,2025-08-21 03:30,ZBAA 210330Z 16002MPS 120V230 6000 SCT011 28/26 Q1005 NOSIG
ZBAA,2025-08-21 04:00,ZBAA 210400Z VRB01MPS 6000 SCT011 27/26 Q1005 NOSIG
ZBAA,2025-08-21 04:30,ZBAA 210430Z 14002MPS 6000 -DZ SCT011 27/26 Q1004 NOSIG
ZBAA,2025-08-21 05:00,ZBAA 210500Z 15002MPS 120V180 8000 FEW011 27/26 Q1004 NOSIG
ZBAA,2025-08-21 05:30,ZBAA 210530Z 15002MPS 110V190 9999 FEW011 28/26 Q1004 NOSIG
ZBAA,2025-08-21 06:00,ZBAA 210600Z 14003MPS 110V170 9999 FEW011 29/26 Q1003 NOSIG
ZBAA,2025-08-21 06:30,ZBAA 210630Z 15003MPS 110V180 9999 FEW011 29/26 Q1002 NOSIG
ZBAA,2025-08-21 07:00,ZBAA 210700Z 18002MPS 130V250 9999 FEW011 30/26 Q1002 BECMG TL0850 30007MPS TS
ZBAA,2025-08-21 07:30,ZBAA 210730Z 20003MPS 180V260 9999 SCT011 30/26 Q1002 NOSIG
ZBAA,2025-08-21 08:00,ZBAA 210800Z VRB01MPS 9999 SCT011 FEW050TCU 30/27 Q1002 BECMG TL0910 31007MPS TS
ZBAA,2025-08-21 08:30,ZBAA 210830Z 04003MPS 020V100 3000 R36L/1200N R36R/P2000N R01/P2000N -SHRA BR SCT006 FEW050CB 28/27 Q1001 NOSIG
ZBAA,2025-08-21 08:31,ZBAA 210831Z VRB03MPS 1800 R36L/1200N R36R/P2000N R01/P2000N SHRA BR SCT006 FEW050CB 28/27 Q1001 NOSIG
ZBAA,2025-08-21 08:46,ZBAA 210846Z 25003MPS 190V340 8000 -SHRA SCT006 FEW050CB 27/26 Q1002 RESHRA NOSIG
ZBAA,2025-08-21 09:00,ZBAA 210900Z 28002MPS 240V330 6000 -SHRA SCT006 FEW050CB 27/26 Q1002 RESHRA BECMG TL0940 31007MPS TSRA
ZBAA,2025-08-21 09:30,ZBAA 210930Z VRB01MPS 8000 FEW010 FEW050CB 28/27 Q1002 NOSIG
ZBAA,2025-08-21 10:00,ZBAA 211000Z 32006MPS 9999 FEW050CB 28/26 Q1002 BECMG TL1040 TS
ZBAA,2025-08-21 10:30,ZBAA 211030Z 31006MPS 9999 FEW050CB 27/24 Q1002 NOSIG
ZBAA,2025-08-21 10:54,ZBAA 211054Z 29008MPS 4000 SHRA BKN040 SCT040CB 25/24 Q1003 NOSIG
ZBAA,2025-08-21 11:00,ZBAA 211100Z 28007MPS 4000 SHRA BKN040 SCT040CB 24/24 Q1003 BECMG TL1240 NSW
ZBAA,2025-08-21 11:16,ZBAA 211116Z 30006MPS 9999 -SHRA BKN040 FEW040CB 24/23 Q1003 RESHRA NOSIG
ZBAA,2025-08-21 11:30,ZBAA 211130Z 28007MPS 9999 -SHRA NSC 25/23 Q1003 RESHRA NOSIG
ZBAA,2025-08-21 12:00,ZBAA 211200Z 28005MPS 9999 -SHRA NSC 24/23 Q1003 NOSIG
ZBAA,2025-08-21 12:30,ZBAA 211230Z VRB03MPS 9999 -SHRA NSC 24/23 Q1004 NOSIG
ZBAA,2025-08-21 13:00,ZBAA 211300Z 32002MPS 280V010 9999 -RA NSC 24/23 Q1004 NOSIG
ZBAA,2025-08-21 13:30,ZBAA 211330Z 31002MPS 260V340 CAVOK 25/23 Q1004 NOSIG
ZBAA,2025-08-21 14:00,ZBAA 211400Z 32002MPS 280V350 CAVOK 25/22 Q1004 NOSIG
ZBAA,2025-08-21 14:30,ZBAA 211430Z 30003MPS 270V330 CAVOK 25/22 Q1004 NOSIG
ZBAA,2025-08-21 15:00,ZBAA 211500Z VRB01MPS CAVOK 24/23 Q1004 NOSIG
ZBAA,2025-08-21 15:30,ZBAA 211530Z 36003MPS CAVOK 23/23 Q1004 NOSIG
ZBAA,2025-08-21 16:00,ZBAA 211600Z 32002MPS 260V350 CAVOK 24/22 Q1005 NOSIG
ZBAA,2025-08-21 16:30,ZBAA 211630Z VRB01MPS CAVOK 23/23 Q1005 NOSIG
ZBAA,2025-08-21 17:00,ZBAA 211700Z 01001MPS CAVOK 23/23 Q1004 NOSIG
ZBAA,2025-08-21 17:30,ZBAA 211730Z VRB01MPS CAVOK 23/23 Q1004 NOSIG
ZBAA,2025-08-21 18:00,ZBAA 211800Z 35002MPS CAVOK 24/23 Q1004 NOSIG
ZBAA,2025-08-21 18:30,ZBAA 211830Z 03001MPS CAVOK 24/23 Q1004 NOSIG
ZBAA,2025-08-21 19:00,ZBAA 211900Z VRB01MPS CAVOK 24/23 Q1005 NOSIG
ZBAA,2025-08-21 19:30,ZBAA 211930Z 33002MPS 290V020 CAVOK 24/23 Q1005 NOSIG
ZBAA,2025-08-21 20:00,ZBAA 212000Z 01002MPS CAVOK 24/23 Q1005 NOSIG
ZBAA,2025-08-21 20:30,ZBAA 212030Z 36001MPS CAVOK 24/23 Q1005 NOSIG
ZBAA,2025-08-21 21:00,ZBAA 212100Z 35001MPS CAVOK 23/23 Q1005 NOSIG
ZBAA,2025-08-21 21:30,ZBAA 212130Z VRB01MPS CAVOK 23/23 Q1005 NOSIG
ZBAA,2025-08-21 22:00,ZBAA 212200Z 35002MPS CAVOK 23/23 Q1006 NOSIG
ZBAA,2025-08-21 22:30,ZBAA 212230Z 01002MPS CAVOK 24/23 Q1006 NOSIG
ZBAA,2025-08-21 23:00,ZBAA 212300Z 00000MPS CAVOK 24/23 Q1006 NOSIG
ZBAA,2025-08-21 23:30,ZBAA 212330Z 36001MPS CAVOK 25/23 Q1006 NOSIG
ZBAA,2025-08-22 00:00,ZBAA 220000Z 02002MPS CAVOK 25/23 Q1006 NOSIG
ZBAA,2025-08-22 00:30,ZBAA 220030Z 36002MPS 310V020 CAVOK 26/23 Q1007 NOSIG
ZBAA,2025-08-22 01:00,ZBAA 220100Z 36002MPS CAVOK 27/23 Q1007 NOSIG
ZBAA,2025-08-22 01:30,ZBAA 220130Z VRB01MPS CAVOK 27/23 Q1007 NOSIG
ZBAA,2025-08-22 02:00,ZBAA 220200Z 02002MPS 340V070 CAVOK 29/22 Q1007 NOSIG
ZBAA,2025-08-22 02:30,ZBAA 220230Z 03003MPS CAVOK 29/22 Q1007 NOSIG
ZBAA,2025-08-22 03:00,ZBAA 220300Z 03002MPS 350V070 CAVOK 30/22 Q1007 NOSIG
ZBAA,2025-08-22 03:30,ZBAA 220330Z 02002MPS 330V050 CAVOK 31/21 Q1007 NOSIG
ZBAA,2025-08-22 04:00,ZBAA 220400Z VRB02MPS CAVOK 32/22 Q1007 NOSIG
ZBAA,2025-08-22 04:30,ZBAA 220430Z VRB02MPS CAVOK 33/20 Q1006 NOSIG
ZBAA,2025-08-22 05:00,ZBAA 220500Z 34003MPS 260V040 CAVOK 34/21 Q1006 NOSIG
ZBAA,2025-08-22 05:30,ZBAA 220530Z 04002MPS 340V100 CAVOK 32/21 Q1006 NOSIG
ZBAA,2025-08-22 06:00,ZBAA 220600Z VRB01MPS CAVOK 32/22 Q1006 NOSIG
ZBAA,2025-08-22 06:30,ZBAA 220630Z 20003MPS 170V270 CAVOK 33/20 Q1006 NOSIG
ZBAA,2025-08-22 07:00,ZBAA 220700Z 25002MPS 220V350 CAVOK 33/17 Q1006 NOSIG
ZBAA,2025-08-22 07:30,ZBAA 220730Z 21002MPS 180V250 CAVOK 33/18 Q1005 NOSIG
ZBAA,2025-08-22 08:00,ZBAA 220800Z VRB01MPS CAVOK 31/24 Q1005 NOSIG
ZBAA,2025-08-22 08:30,ZBAA 220830Z 19003MPS 160V230 CAVOK 32/20 Q1005 NOSIG
ZBAA,2025-08-22 09:00,ZBAA 220900Z 15002MPS 120V230 CAVOK 33/21 Q1005 NOSIG
ZBAA,2025-08-22 09:30,ZBAA 220930Z 24003MPS 200V320 CAVOK 33/21 Q1005 NOSIG
ZBAA,2025-08-22 10:00,ZBAA 221000Z 23002MPS 190V280 CAVOK 32/21 Q1005 NOSIG
ZBAA,2025-08-22 10:30,ZBAA 221030Z 18002MPS 160V220 CAVOK 28/24 Q1005 NOSIG
ZBAA,2025-08-22 11:00,ZBAA 221100Z 17001MPS CAVOK 26/24 Q1006 NOSIG
ZBAA,2025-08-22 11:30,ZBAA 221130Z 13001MPS CAVOK 26/24 Q1006 NOSIG
ZBAA,2025-08-22 12:00,ZBAA 221200Z VRB01MPS CAVOK 26/24 Q1006 NOSIG
ZBAA,2025-08-22 12:30,ZBAA 221230Z 18001MPS CAVOK 26/24 Q1007 NOSIG
ZBAA,2025-08-22 13:00,ZBAA 221300Z VRB01MPS CAVOK 26/24 Q1007 NOSIG
ZBAA,2025-08-22 13:30,ZBAA 221330Z VRB01MPS CAVOK 25/24 Q1007 NOSIG
ZBAA,2025-08-22 14:00,ZBAA 221400Z VRB01MPS CAVOK 26/25 Q1007 NOSIG
ZBAA,2025-08-22 14:30,ZBAA 221430Z 08002MPS 030V170 CAVOK 26/24 Q1007 NOSIG
ZBAA,2025-08-22 15:00,ZBAA 221500Z 07001MPS CAVOK 26/24 Q1007 NOSIG
ZBAA,2025-08-22 15:30,ZBAA 221530Z 04002MPS 010V070 CAVOK 25/24 Q1007 NOSIG
ZBAA,2025-08-22 16:00,ZBAA 221600Z VRB01MPS CAVOK 26/24 Q1007 NOSIG
ZBAA,2025-08-22 16:30,ZBAA 221630Z VRB01MPS CAVOK 25/24 Q1007 NOSIG
ZBAA,2025-08-22 17:00,ZBAA 221700Z 00000MPS CAVOK 25/24 Q1007 NOSIG
ZBAA,2025-08-22 17:30,ZBAA 221730Z 00000MPS CAVOK 25/24 Q1008 NOSIG
ZBAA,2025-08-22 18:00,ZBAA 221800Z 36002MPS CAVOK 25/23 Q1007 NOSIG
ZBAA,2025-08-22 18:30,ZBAA 221830Z 36003MPS CAVOK 25/23 Q1007 NOSIG
ZBAA,2025-08-22 19:00,ZBAA 221900Z 36002MPS 310V120 CAVOK 25/23 Q1007 NOSIG
ZBAA,2025-08-22 19:30,ZBAA 221930Z VRB01MPS CAVOK 25/23 Q1007 NOSIG
ZBAA,2025-08-22 20:00,ZBAA 222000Z 36002MPS 300V100 CAVOK 25/23 Q1008 NOSIG
ZBAA,2025-08-22 20:30,ZBAA 222030Z 36002MPS 330V030 CAVOK 25/23 Q1007 NOSIG
ZBAA,2025-08-22 21:00,ZBAA 222100Z 36002MPS 9999 -SHRA NSC 25/22 Q1008 NOSIG
ZBAA,2025-08-22 21:30,ZBAA 222130Z VRB01MPS CAVOK 24/23 Q1008 NOSIG
ZBAA,2025-08-22 22:00,ZBAA 222200Z VRB01MPS 9999 -SHRA NSC 24/22 Q1009 NOSIG
ZBAA,2025-08-22 22:30,ZBAA 222230Z 25003MPS 9999 -SHRA NSC 25/22 Q1010 NOSIG
ZBAA,2025-08-22 23:00,ZBAA 222300Z VRB01MPS 9999 -SHRA NSC 25/22 Q1010 NOSIG
ZBAA,2025-08-22 23:30,ZBAA 222330Z VRB01MPS 9999 -SHRA NSC 24/23 Q1010 NOSIG
ZBAA,2025-08-23 00:00,ZBAA 230000Z 35004MPS CAVOK 24/22 Q1009 NOSIG
ZBAA,2025-08-23 00:30,ZBAA 230030Z 35003MPS CAVOK 24/23 Q1009 NOSIG
ZBAA,2025-08-23 01:00,ZBAA 230100Z 34006MPS CAVOK 25/23 Q1009 NOSIG
ZBAA,2025-08-23 01:30,ZBAA 230130Z 01003MPS CAVOK 25/22 Q1010 NOSIG
ZBAA,2025-08-23 02:00,ZBAA 230200Z 01002MPS CAVOK 25/22 Q1010 NOSIG
ZBAA,2025-08-23 02:30,ZBAA 230230Z 34005MPS CAVOK 25/23 Q1010 NOSIG
ZBAA,2025-08-23 03:00,ZBAA 230300Z 01003MPS 330V040 CAVOK 26/22 Q1010 NOSIG
ZBAA,2025-08-23 03:30,ZBAA 230330Z 02003MPS CAVOK 26/21 Q1009 NOSIG
ZBAA,2025-08-23 04:00,ZBAA 230400Z 34004MPS CAVOK 27/21 Q1009 NOSIG
ZBAA,2025-08-23 04:30,ZBAA 230430Z 35003MPS 320V040 CAVOK 27/21 Q1009 NOSIG
ZBAA,2025-08-23 05:00,ZBAA 230500Z 28004MPS CAVOK 27/19 Q1009 NOSIG
ZBAA,2025-08-23 05:30,ZBAA 230530Z 31004MPS 280V340 CAVOK 28/18 Q1009 NOSIG
ZBAA,2025-08-23 06:00,ZBAA 230600Z 31006MPS CAVOK 26/19 Q1009 NOSIG
ZBAA,2025-08-23 06:30,ZBAA 230630Z 31006MPS CAVOK 26/19 Q1009 NOSIG
ZBAA,2025-08-23 07:00,ZBAA 230700Z 31007MPS CAVOK 26/18 Q1009 NOSIG
ZBAA,2025-08-23 07:30,ZBAA 230730Z 32007MPS CAVOK 26/18 Q1009 NOSIG
ZBAA,2025-08-23 08:00,ZBAA 230800Z 33006MPS CAVOK 26/18 Q1009 NOSIG
ZBAA,2025-08-23 08:30,ZBAA 230830Z 34008MPS 310V010 9999 -RA NSC 24/18 Q1010 NOSIG
ZBAA,2025-08-23 09:00,ZBAA 230900Z 36008MPS 9999 -RA NSC 22/18 Q1011 NOSIG
ZBAA,2025-08-23 09:30,ZBAA 230930Z 36006MPS 9999 -RA NSC 21/18 Q1011 NOSIG
ZBAA,2025-08-23 10:00,ZBAA 231000Z 34007MPS 9999 -RA NSC 21/19 Q1011 NOSIG
ZBAA,2025-08-23 10:30,ZBAA 231030Z 36006MPS 9999 -RA NSC 20/19 Q1011 NOSIG
ZBAA,2025-08-23 11:00,ZBAA 231100Z 01003MPS 9999 -RA NSC 20/19 Q1012 NOSIG
ZBAA,2025-08-23 11:30,ZBAA 231130Z 35005MPS CAVOK 20/19 Q1012 NOSIG
ZBAA,2025-08-23 12:00,ZBAA 231200Z 36006MPS 9999 -RA NSC 20/19 Q1011 NOSIG
ZBAA,2025-08-23 12:30,ZBAA 231230Z 36006MPS 9999 -RA NSC 20/19 Q1011 NOSIG
ZBAA,2025-08-23 13:00,ZBAA 231300Z 33007MPS 9999 -RA NSC 20/19 Q1012 NOSIG
ZBAA,2025-08-23 13:30,ZBAA 231330Z 34004MPS 9999 -RA NSC 20/19 Q1013 NOSIG
ZBAA,2025-08-23 14:00,ZBAA 231400Z 03002MPS 9999 -RA NSC 20/19 Q1012 NOSIG
ZBAA,2025-08-23 14:30,ZBAA 231430Z 32004MPS 9999 -RA NSC 20/19 Q1012 NOSIG
ZBAA,2025-08-23 15:00,ZBAA 231500Z 33003MPS 300V020 CAVOK 20/19 Q1012 NOSIG
ZBAA,2025-08-23 15:30,ZBAA 231530Z 34003MPS CAVOK 20/19 Q1011 NOSIG
ZBAA,2025-08-23 16:00,ZBAA 231600Z 34003MPS CAVOK 20/19 Q1011 NOSIG
ZBAA,2025-08-23 16:30,ZBAA 231630Z 34004MPS CAVOK 21/19 Q1011 NOSIG
ZBAA,2025-08-23 17:00,ZBAA 231700Z 34004MPS CAVOK 21/19 Q1011 NOSIG
ZBAA,2025-08-23 17:30,ZBAA 231730Z 36003MPS CAVOK 20/19 Q1011 NOSIG
ZBAA,2025-08-23 18:00,ZBAA 231800Z 36003MPS CAVOK 20/19 Q1011 NOSIG
ZBAA,2025-08-23 18:30,ZBAA 231830Z 36003MPS CAVOK 20/19 Q1011 NOSIG
ZBAA,2025-08-23 19:00,ZBAA 231900Z 36003MPS CAVOK 20/19 Q1011 NOSIG
ZBAA,2025-08-23 19:30,ZBAA 231930Z 36003MPS CAVOK 20/19 Q1011 NOSIG
ZBAA,2025-08-23 20:00,ZBAA 232000Z 36002MPS CAVOK 20/19 Q1011 NOSIG
ZBAA,2025-08-23 20:30,ZBAA 232030Z 36003MPS CAVOK 20/19 Q1011 NOSIG
ZBAA,2025-08-23 21:00,ZBAA 232100Z 34003MPS CAVOK 20/19 Q1011 NOSIG
ZBAA,2025-08-23 21:30,ZBAA 232130Z VRB01MPS CAVOK 21/19 Q1012 NOSIG
ZBAA,2025-08-23 22:00,ZBAA 232200Z 35002MPS 330V030 9999 -RA NSC 20/19 Q1012 NOSIG
ZBAA,2025-08-23 22:30,ZBAA 232230Z 34003MPS 9999 -RA NSC 21/19 Q1012 NOSIG
ZBAA,2025-08-23 23:00,ZBAA 232300Z 34003MPS 310V010 CAVOK 21/18 Q1012 NOSIG
ZBAA,2025-08-23 23:30,ZBAA 232330Z 34004MPS 300V360 CAVOK 21/18 Q1012 NOSIG
ZBAA,2025-08-24 00:00,ZBAA 240000Z 35002MPS 310V040 9999 -RA NSC 21/19 Q1012 NOSIG
ZBAA,2025-08-24 00:30,ZBAA 240030Z 36003MPS 9999 -RA NSC 21/19 Q1012 NOSIG
ZBAA,2025-08-24 01:00,ZBAA 240100Z VRB01MPS CAVOK 22/20 Q1012 NOSIG
ZBAA,2025-08-24 01:30,ZBAA 240130Z 36002MPS 310V050 CAVOK 24/20 Q1012 NOSIG
ZBAA,2025-08-24 02:00,ZBAA 240200Z 02003MPS 350V050 CAVOK 24/19 Q1012 NOSIG
ZBAA,2025-08-24 02:30,ZBAA 240230Z 35002MPS 310V040 CAVOK 25/19 Q1012 NOSIG
ZBAA,2025-08-24 03:00,ZBAA 240300Z 36002MPS 310V050 CAVOK 25/19 Q1012 NOSIG
ZBAA,2025-08-24 03:30,ZBAA 240330Z VRB01MPS CAVOK 25/19 Q1012 NOSIG
ZBAA,2025-08-24 04:00,ZBAA 240400Z VRB01MPS CAVOK 25/19 Q1012 NOSIG
ZBAA,2025-08-24 04:30,ZBAA 240430Z VRB01MPS CAVOK 26/18 Q1011 NOSIG
ZBAA,2025-08-24 05:00,ZBAA 240500Z 13002MPS 040V200 CAVOK 26/18 Q1011 NOSIG
ZBAA,2025-08-24 05:30,ZBAA 240530Z VRB01MPS CAVOK 26/19 Q1011 NOSIG
ZBAA,2025-08-24 06:00,ZBAA 240600Z 13002MPS 090V200 CAVOK 26/19 Q1011 NOSIG
ZBAA,2025-08-24 06:30,ZBAA 240630Z 15003MPS 120V180 CAVOK 26/19 Q1010 NOSIG
ZBAA,2025-08-24 07:00,ZBAA 240700Z 16003MPS CAVOK 26/19 Q1010 NOSIG
ZBAA,2025-08-24 07:30,ZBAA 240730Z 16003MPS 120V200 CAVOK 27/19 Q1010 NOSIG
ZBAA,2025-08-24 08:00,ZBAA 240800Z 17003MPS 140V210 CAVOK 26/19 Q1010 NOSIG
ZBAA,2025-08-24 08:30,ZBAA 240830Z 16003MPS CAVOK 26/20 Q1010 NOSIG
ZBAA,2025-08-24 09:00,ZBAA 240900Z 16003MPS 120V180 CAVOK 25/20 Q1010 NOSIG
ZBAA,2025-08-24 09:30,ZBAA 240930Z 15002MPS 120V190 CAVOK 25/20 Q1010 NOSIG
ZBAA,2025-08-24 10:00,ZBAA 241000Z 16002MPS 120V180 CAVOK 25/19 Q1010 NOSIG
ZBAA,2025-08-24 10:30,ZBAA 241030Z 15002MPS CAVOK 24/19 Q1010 NOSIG
ZBAA,2025-08-24 11:00,ZBAA 241100Z 16002MPS CAVOK 23/20 Q1010 NOSIG
ZBAA,2025-08-24 11:30,ZBAA 241130Z 16001MPS CAVOK 23/20 Q1010 NOSIG
ZBAA,2025-08-24 12:00,ZBAA 241200Z 17001MPS CAVOK 22/20 Q1010 NOSIG
ZBAA,2025-08-24 12:30,ZBAA 241230Z VRB01MPS CAVOK 21/20 Q1011 NOSIG
ZBAA,2025-08-24 13:00,ZBAA 241300Z 15001MPS CAVOK 21/20 Q1011 NOSIG
ZBAA,2025-08-24 13:30,ZBAA 241330Z 16001MPS CAVOK 21/20 Q1011 NOSIG
ZBAA,2025-08-24 14:00,ZBAA 241400Z VRB01MPS CAVOK 20/20 Q1011 NOSIG
ZBAA,2025-08-24 14:30,ZBAA 241430Z 00000MPS CAVOK 20/20 Q1011 NOSIG
ZBAA,2025-08-24 15:00,ZBAA 241500Z VRB01MPS CAVOK 20/19 Q1010 NOSIG
ZBAA,2025-08-24 15:30,ZBAA 241530Z VRB01MPS CAVOK 20/19 Q1010 NOSIG
ZBAA,2025-08-24 16:00,ZBAA 241600Z 07001MPS CAVOK 20/20 Q1010 NOSIG
ZBAA,2025-08-24 16:30,ZBAA 241630Z 08002MPS CAVOK 20/20 Q1010 NOSIG
ZBAA,2025-08-24 17:00,ZBAA 241700Z 08001MPS CAVOK 20/20 Q1010 NOSIG
ZBAA,2025-08-24 17:30,ZBAA 241730Z 06001MPS CAVOK 20/20 Q1010 NOSIG
ZBAA,2025-08-24 18:00,ZBAA 241800Z 07001MPS CAVOK 20/19 Q1010 NOSIG
ZBAA,2025-08-24 18:30,ZBAA 241830Z 04001MPS CAVOK 20/19 Q1010 NOSIG
ZBAA,2025-08-24 19:00,ZBAA 241900Z VRB01MPS CAVOK 20/20 Q1010 NOSIG
ZBAA,2025-08-24 19:30,ZBAA 241930Z VRB01MPS CAVOK 20/20 Q1010 NOSIG
ZBAA,2025-08-24 20:00,ZBAA 242000Z 36002MPS CAVOK 20/20 Q1009 NOSIG
ZBAA,2025-08-24 20:30,ZBAA 242030Z 34003MPS CAVOK 20/20 Q1010 NOSIG
ZBAA,2025-08-24 21:00,ZBAA 242100Z 34002MPS CAVOK 20/20 Q1010 NOSIG
ZBAA,2025-08-24 21:30,ZBAA 242130Z 36002MPS CAVOK 20/19 Q1010 NOSIG
ZBAA,2025-08-24 22:00,ZBAA 242200Z 34002MPS 290V360 CAVOK 20/19 Q1009 NOSIG
ZBAA,2025-08-24 22:30,ZBAA 242230Z 34004MPS CAVOK 21/20 Q1010 NOSIG
ZBAA,2025-08-24 23:00,ZBAA 242300Z 34003MPS CAVOK 22/20 Q1010 NOSIG
ZBAA,2025-08-24 23:30,ZBAA 242330Z 35003MPS CAVOK 22/20 Q1010 NOSIG
ZBAA,2025-08-25 00:00,ZBAA 250000Z 34003MPS 310V010 CAVOK 24/20 Q1010 NOSIG
ZBAA,2025-08-25 00:30,ZBAA 250030Z 33002MPS CAVOK 25/21 Q1010 NOSIG
ZBAA,2025-08-25 01:00,ZBAA 250100Z 35002MPS 320V020 CAVOK 27/21 Q1010 NOSIG
ZBAA,2025-08-25 01:30,ZBAA 250130Z 34002MPS 290V010 CAVOK 28/21 Q1010 NOSIG
ZBAA,2025-08-25 02:00,ZBAA 250200Z 31002MPS 280V360 CAVOK 28/21 Q1010 NOSIG
ZBAA,2025-08-25 02:30,ZBAA 250230Z 34002MPS 270V030 CAVOK 29/21 Q1010 NOSIG
ZBAA,2025-08-25 03:00,ZBAA 250300Z 32002MPS 240V360 CAVOK 30/21 Q1009 NOSIG
ZBAA,2025-08-25 03:30,ZBAA 250330Z VRB02MPS CAVOK 31/21 Q1009 NOSIG
ZBAA,2025-08-25 04:00,ZBAA 250400Z 30002MPS 250V360 CAVOK 31/20 Q1009 NOSIG
ZBAA,2025-08-25 04:30,ZBAA 250430Z 02002MPS 310V070 CAVOK 32/18 Q1009 NOSIG
ZBAA,2025-08-25 05:00,ZBAA 250500Z VRB02MPS CAVOK 32/18 Q1009 NOSIG
ZBAA,2025-08-25 05:30,ZBAA 250530Z VRB01MPS CAVOK 33/18 Q1008 NOSIG
ZBAA,2025-08-25 06:00,ZBAA 250600Z VRB01MPS CAVOK 33/17 Q1008 NOSIG
ZBAA,2025-08-25 06:30,ZBAA 250630Z 12002MPS 070V200 CAVOK 33/18 Q1008 NOSIG
ZBAA,2025-08-25 07:00,ZBAA 250700Z 21003MPS 110V270 CAVOK 33/20 Q1008 NOSIG
ZBAA,2025-08-25 07:30,ZBAA 250730Z VRB01MPS CAVOK 33/19 Q1008 NOSIG
ZBAA,2025-08-25 08:00,ZBAA 250800Z 13002MPS 080V170 CAVOK 33/19 Q1008 NOSIG
ZBAA,2025-08-25 08:30,ZBAA 250830Z 16003MPS 130V210 CAVOK 33/19 Q1007 NOSIG
ZBAA,2025-08-25 09:00,ZBAA 250900Z 16002MPS 110V200 CAVOK 32/20 Q1007 NOSIG
ZBAA,2025-08-25 09:30,ZBAA 250930Z 12002MPS CAVOK 28/23 Q1008 NOSIG
ZBAA,2025-08-25 10:00,ZBAA 251000Z 11001MPS CAVOK 30/22 Q1008 NOSIG
ZBAA,2025-08-25 10:30,ZBAA 251030Z 10002MPS CAVOK 28/23 Q1008 NOSIG
ZBAA,2025-08-25 11:00,ZBAA 251100Z 16002MPS CAVOK 26/21 Q1008 NOSIG
ZBAA,2025-08-25 11:30,ZBAA 251130Z 17001MPS CAVOK 25/22 Q1008 NOSIG
ZBAA,2025-08-25 12:00,ZBAA 251200Z VRB01MPS CAVOK 24/22 Q1009 NOSIG
ZBAA,2025-08-25 12:30,ZBAA 251230Z VRB01MPS CAVOK 24/22 Q1009 NOSIG
ZBAA,2025-08-25 13:00,ZBAA 251300Z 06002MPS CAVOK 25/21 Q1010 NOSIG
ZBAA,2025-08-25 13:30,ZBAA 251330Z VRB01MPS CAVOK 23/22 Q1010 NOSIG
ZBAA,2025-08-25 14:00,ZBAA 251400Z VRB01MPS CAVOK 23/21 Q1010 NOSIG
ZBAA,2025-08-25 14:30,ZBAA 251430Z 36001MPS CAVOK 23/21 Q1010 NOSIG
ZBAA,2025-08-25 15:00,ZBAA 251500Z 36001MPS CAVOK 22/20 Q1010 NOSIG
ZBAA,2025-08-25 15:30,ZBAA 251530Z 36002MPS CAVOK 22/20 Q1010 NOSIG
ZBAA,2025-08-25 16:00,ZBAA 251600Z 36002MPS CAVOK 22/20 Q1011 NOSIG
ZBAA,2025-08-25 16:30,ZBAA 251630Z 36002MPS CAVOK 22/20 Q1011 NOSIG
ZBAA,2025-08-25 17:00,ZBAA 251700Z 35002MPS CAVOK 22/19 Q1011 NOSIG
ZBAA,2025-08-25 17:30,ZBAA 251730Z 36003MPS CAVOK 22/19 Q1011 NOSIG
ZBAA,2025-08-25 18:00,ZBAA 251800Z 36003MPS CAVOK 22/19 Q1011 NOSIG
ZBAA,2025-08-25 18:30,ZBAA 251830Z 36003MPS CAVOK 21/19 Q1011 NOSIG
ZBAA,2025-08-25 19:00,ZBAA 251900Z 36002MPS CAVOK 22/20 Q1011 NOSIG
ZBAA,2025-08-25 19:30,ZBAA 251930Z VRB01MPS CAVOK 21/19 Q1011 NOSIG
ZBAA,2025-08-25 20:00,ZBAA 252000Z 35002MPS CAVOK 21/19 Q1011 NOSIG
ZBAA,2025-08-25 20:30,ZBAA 252030Z 36002MPS 330V080 CAVOK 21/19 Q1012 NOSIG
ZBAA,2025-08-25 21:00,ZBAA 252100Z 35002MPS CAVOK 20/19 Q1011 NOSIG
ZBAA,2025-08-25 21:30,ZBAA 252130Z 35002MPS CAVOK 21/19 Q1012 NOSIG
ZBAA,2025-08-25 22:00,ZBAA 252200Z 34003MPS CAVOK 22/19 Q1012 NOSIG
ZBAA,2025-08-25 22:30,ZBAA 252230Z 36002MPS CAVOK 22/19 Q1012 NOSIG
ZBAA,2025-08-25 23:00,ZBAA 252300Z 35003MPS CAVOK 23/20 Q1013 NOSIG
ZBAA,2025-08-25 23:30,ZBAA 252330Z 34003MPS 300V020 CAVOK 24/20 Q1013 NOSIG
ZBAA,2025-08-26 00:00,ZBAA 260000Z 01002MPS 320V070 CAVOK 25/20 Q1013 NOSIG
ZBAA,2025-08-26 00:30,ZBAA 260030Z 01003MPS 340V040 CAVOK 25/19 Q1013 NOSIG
ZBAA,2025-08-26 01:00,ZBAA 260100Z 01003MPS 320V040 CAVOK 26/19 Q1013 NOSIG
ZBAA,2025-08-26 01:30,ZBAA 260130Z 03003MPS 360V070 CAVOK 27/19 Q1013 NOSIG
ZBAA,2025-08-26 02:00,ZBAA 260200Z 02002MPS 350V070 CAVOK 28/20 Q1013 NOSIG
ZBAA,2025-08-26 02:30,ZBAA 260230Z 02004MPS CAVOK 29/19 Q1013 NOSIG
ZBAA,2025-08-26 03:00,ZBAA 260300Z 04003MPS 360V080 CAVOK 29/19 Q1013 NOSIG
ZBAA,2025-08-26 03:30,ZBAA 260330Z 02003MPS 340V060 CAVOK 30/20 Q1013 NOSIG
ZBAA,2025-08-26 04:00,ZBAA 260400Z 03003MPS 360V070 CAVOK 30/19 Q1013 NOSIG
ZBAA,2025-08-26 04:30,ZBAA 260430Z 02002MPS 340V050 CAVOK 31/20 Q1012 NOSIG
ZBAA,2025-08-26 05:00,ZBAA 260500Z 03002MPS 330V080 CAVOK 31/19 Q1012 NOSIG
ZBAA,2025-08-26 05:30,ZBAA 260530Z 07002MPS 010V140 CAVOK 31/20 Q1012 NOSIG
ZBAA,2025-08-26 06:00,ZBAA 260600Z 14002MPS 100V180 CAVOK 31/20 Q1011 NOSIG
ZBAA,2025-08-26 06:30,ZBAA 260630Z 12002MPS 060V170 CAVOK 31/21 Q1011 NOSIG
ZBAA,2025-08-26 07:00,ZBAA 260700Z 11002MPS 060V160 CAVOK 30/22 Q1011 NOSIG
ZBAA,2025-08-26 07:30,ZBAA 260730Z VRB01MPS CAVOK 30/22 Q1011 NOSIG
ZBAA,2025-08-26 08:00,ZBAA 260800Z 09002MPS 050V140 CAVOK 30/22 Q1011 NOSIG
ZBAA,2025-08-26 08:30,ZBAA 260830Z VRB01MPS CAVOK 29/22 Q1011 NOSIG
ZBAA,2025-08-26 09:00,ZBAA 260900Z VRB01MPS CAVOK 29/23 Q1011 NOSIG
ZBAA,2025-08-26 09:30,ZBAA 260930Z 09002MPS 060V130 CAVOK 28/23 Q1011 NOSIG
ZBAA,2025-08-26 10:00,ZBAA 261000Z VRB01MPS CAVOK 28/22 Q1011 NOSIG
ZBAA,2025-08-26 10:30,ZBAA 261030Z 15001MPS CAVOK 27/24 Q1011 NOSIG
ZBAA,2025-08-26 11:00,ZBAA 261100Z 13001MPS CAVOK 26/23 Q1011 NOSIG
ZBAA,2025-08-26 11:30,ZBAA 261130Z 12001MPS CAVOK 25/23 Q1011 NOSIG
ZBAA,2025-08-26 12:00,ZBAA 261200Z 07001MPS CAVOK 25/23 Q1011 NOSIG
ZBAA,2025-08-26 12:30,ZBAA 261230Z VRB01MPS CAVOK 25/23 Q1012 NOSIG
ZBAA,2025-08-26 13:00,ZBAA 261300Z VRB01MPS CAVOK 25/23 Q1012 NOSIG
ZBAA,2025-08-26 13:30,ZBAA 261330Z 00000MPS CAVOK 25/23 Q1012 NOSIG
ZBAA,2025-08-26 14:00,ZBAA 261400Z 08001MPS CAVOK 24/23 Q1012 NOSIG
ZBAA,2025-08-26 14:30,ZBAA 261430Z 10002MPS CAVOK 25/23 Q1011 NOSIG
ZBAA,2025-08-26 15:00,ZBAA 261500Z 09002MPS CAVOK 26/22 Q1012 NOSIG
ZBAA,2025-08-26 15:30,ZBAA 261530Z 10002MPS 060V140 CAVOK 25/22 Q1012 NOSIG
ZBAA,2025-08-26 16:00,ZBAA 261600Z 10001MPS 9999 -RA NSC 25/23 Q1012 NOSIG
ZBAA,2025-08-26 16:30,ZBAA 261630Z 15001MPS 9999 -RA NSC 24/23 Q1012 NOSIG
ZBAA,2025-08-26 17:00,ZBAA 261700Z VRB01MPS 9999 -RA NSC 24/23 Q1011 NOSIG
ZBAA,2025-08-26 17:30,ZBAA 261730Z VRB02MPS 9999 -RA NSC 25/23 Q1011 NOSIG
ZBAA,2025-08-26 18:00,ZBAA 261800Z 28003MPS 270V340 9999 -RA NSC 25/22 Q1012 NOSIG
ZBAA,2025-08-26 18:30,ZBAA 261830Z 34003MPS 320V020 9999 -RA NSC 24/22 Q1012 NOSIG
ZBAA,2025-08-26 19:00,ZBAA 261900Z 02003MPS 9999 -RA NSC 23/21 Q1012 NOSIG
ZBAA,2025-08-26 19:30,ZBAA 261930Z 03002MPS 9999 -RA NSC 23/21 Q1012 NOSIG
ZBAA,2025-08-26 20:00,ZBAA 262000Z 02002MPS 350V060 9999 -RA NSC 22/21 Q1012 NOSIG
ZBAA,2025-08-26 20:30,ZBAA 262030Z 02003MPS 9999 -RA NSC 22/21 Q1012 NOSIG
ZBAA,2025-08-26 21:00,ZBAA 262100Z 06002MPS 010V130 9999 -RA NSC 22/21 Q1011 NOSIG
ZBAA,2025-08-26 21:30,ZBAA 262130Z 03002MPS 9999 -RA NSC 22/22 Q1011 NOSIG
ZBAA,2025-08-26 22:00,ZBAA 262200Z 04003MPS 350V070 9999 -RA NSC 22/21 Q1011 NOSIG
ZBAA,2025-08-26 22:30,ZBAA 262230Z VRB01MPS 9999 -RA NSC 22/21 Q1011 NOSIG
ZBAA,2025-08-26 23:00,ZBAA 262300Z VRB01MPS 9999 -RA NSC 21/20 Q1011 NOSIG
ZBAA,2025-08-26 23:30,ZBAA 262330Z VRB01MPS 9999 -RA NSC 21/21 Q1011 NOSIG
ZBAA,2025-08-27 00:00,ZBAA 270000Z 07002MPS 040V110 8000 -RA FEW010 21/21 Q1011 NOSIG
ZBAA,2025-08-27 00:30,ZBAA 270030Z 11004MPS 070V140 7000 -RA FEW010 22/21 Q1011 NOSIG
ZBAA,2025-08-27 01:00,ZBAA 270100Z 10004MPS 050V140 7000 -RA SCT005 OVC040 21/21 Q1010 BECMG TL0220 BKN005
ZBAA,2025-08-27 01:30,ZBAA 270130Z 11005MPS 060V150 6000 -RA SCT005 OVC040 21/21 Q1010 NOSIG
ZBAA,2025-08-27 02:00,ZBAA 270200Z 11005MPS 080V150 9999 SCT005 OVC040 21/20 Q1010 BECMG TL0220 BKN005
ZBAA,2025-08-27 02:30,ZBAA 270230Z 10004MPS 050V150 9999 FEW013 21/19 Q1010 NOSIG
ZBAA,2025-08-27 03:00,ZBAA 270300Z 08003MPS 030V120 9999 -RA SCT013 21/19 Q1010 BECMG TL0450 BKN010
ZBAA,2025-08-27 03:30,ZBAA 270330Z 06002MPS 030V110 9999 -RA SCT013 21/20 Q1010 NOSIG
ZBAA,2025-08-27 04:00,ZBAA 270400Z 06003MPS 030V090 9999 -RA SCT013 21/20 Q1009 NOSIG
ZBAA,2025-08-27 04:30,ZBAA 270430Z 07002MPS 030V130 9999 -RA BKN013 21/20 Q1009 NOSIG
ZBAA,2025-08-27 05:00,ZBAA 270500Z 08002MPS 350V140 8000 -RA BKN013 OVC040 21/20 Q1009 BECMG TL0650 SCT013 OVC040
ZBAA,2025-08-27 05:30,ZBAA 270530Z 20002MPS 110V260 7000 -RA BKN013 OVC033 21/20 Q1009 NOSIG
ZBAA,2025-08-27 06:00,ZBAA 270600Z 10002MPS 040V150 7000 -RA BKN013 OVC033 21/20 Q1009 BECMG TL0650 SCT013 OVC040
ZBAA,2025-08-27 06:30,ZBAA 270630Z 12003MPS 040V170 6000 -RA SCT013 OVC033 20/20 Q1009 NOSIG
ZBAA,2025-08-27 07:00,ZBAA 270700Z 10002MPS 060V150 9999 -RA SCT013 OVC040 21/20 Q1009 NOSIG
ZBAA,2025-08-27 07:30,ZBAA 270730Z 10002MPS 040V140 9999 -RA SCT020 21/20 Q1009 NOSIG
ZBAA,2025-08-27 08:00,ZBAA 270800Z 12003MPS 070V190 9999 -RA SCT013 21/20 Q1009 BECMG TL0920 BKN013
ZBAA,2025-08-27 08:30,ZBAA 270830Z 08002MPS 040V130 9999 -RA FEW013 21/20 Q1008 NOSIG
ZBAA,2025-08-27 09:00,ZBAA 270900Z 07002MPS 020V140 8000 -RA SCT013 OVC040 21/20 Q1008 BECMG TL0920 BKN013
ZBAA,2025-08-27 09:30,ZBAA 270930Z 02003MPS 8000 -RA BKN005 OVC033 21/20 Q1008 NOSIG
ZBAA,2025-08-27 10:00,ZBAA 271000Z 03003MPS 360V060 6000 -RA BKN005 OVC033 20/20 Q1008 BECMG TL1140 SCT005 OVC033
ZBAA,2025-08-27 10:30,ZBAA 271030Z 01003MPS 5000 -RA BKN005 OVC033 20/19 Q1008 NOSIG
ZBAA,2025-08-27 11:00,ZBAA 271100Z 01003MPS 5000 -RA BR BKN005 OVC033 20/19 Q1008 BECMG TL1140 SCT005 OVC033
ZBAA,2025-08-27 11:30,ZBAA 271130Z 02003MPS 4000 -RA BR SCT005 OVC033 19/19 Q1008 NOSIG
ZBAA,2025-08-27 12:00,ZBAA 271200Z 01005MPS 5000 -RA BR SCT005 OVC033 19/19 Q1008 BECMG TL1220 BKN005 OVC033
ZBAA,2025-08-27 12:30,ZBAA 271230Z 01005MPS 5000 -RA BR BKN005 OVC033 19/19 Q1008 NOSIG
ZBAA,2025-08-27 13:00,ZBAA 271300Z 36005MPS 7000 -RA BKN005 OVC033 19/19 Q1008 BECMG TL1420 SCT005 OVC033
ZBAA,2025-08-27 13:30,ZBAA 271330Z 35006MPS 7000 -RA BKN005 OVC033 19/19 Q1008 NOSIG
ZBAA,2025-08-27 14:00,ZBAA 271400Z 35006MPS 9999 -RA BKN005 OVC033 19/19 Q1007 BECMG TL1420 SCT005 OVC033
ZBAA,2025-08-27 14:30,ZBAA 271430Z 35007MPS 9999 -RA SCT005 OVC033 19/19 Q1007 NOSIG
ZBAA,2025-08-27 15:00,ZBAA 271500Z 34006MPS 9999 -RA SCT006 OVC040 19/19 Q1007 NOSIG
ZBAA,2025-08-27 15:30,ZBAA 271530Z 36005MPS 9999 -RA FEW006 OVC040 19/19 Q1007 NOSIG
ZBAA,2025-08-27 16:00,ZBAA 271600Z 36005MPS 9999 OVC040 19/19 Q1007 NOSIG
ZBAA,2025-08-27 16:30,ZBAA 271630Z 01005MPS 340V040 9999 OVC040 19/19 Q1007 NOSIG
ZBAA,2025-08-27 17:00,ZBAA 271700Z 01004MPS CAVOK 20/18 Q1006 NOSIG
ZBAA,2025-08-27 17:30,ZBAA 271730Z 03004MPS 360V060 CAVOK 20/18 Q1006 NOSIG
ZBAA,2025-08-27 18:00,ZBAA 271800Z 36004MPS CAVOK 20/18 Q1006 NOSIG
ZBAA,2025-08-27 18:30,ZBAA 271830Z 34005MPS CAVOK 20/18 Q1006 NOSIG
ZBAA,2025-08-27 19:00,ZBAA 271900Z 34003MPS CAVOK 20/18 Q1006 NOSIG
ZBAA,2025-08-27 19:30,ZBAA 271930Z 01002MPS 340V040 CAVOK 20/18 Q1007 NOSIG
ZBAA,2025-08-27 20:00,ZBAA 272000Z 03002MPS CAVOK 20/18 Q1007 NOSIG
ZBAA,2025-08-27 20:30,ZBAA 272030Z 01003MPS CAVOK 20/18 Q1006 NOSIG
ZBAA,2025-08-27 21:00,ZBAA 272100Z 03002MPS 350V050 CAVOK 20/18 Q1007 NOSIG
ZBAA,2025-08-27 21:30,ZBAA 272130Z 34002MPS 9999 -RA NSC 20/18 Q1007 NOSIG
ZBAA,2025-08-27 22:00,ZBAA 272200Z 33002MPS 300V360 CAVOK 20/18 Q1007 NOSIG
ZBAA,2025-08-27 22:30,ZBAA 272230Z 34002MPS 310V010 9999 -RA NSC 21/18 Q1007 NOSIG
ZBAA,2025-08-27 23:00,ZBAA 272300Z 31002MPS CAVOK 21/18 Q1008 NOSIG
ZBAA,2025-08-27 23:30,ZBAA 272330Z 33002MPS 310V010 CAVOK 22/18 Q1008 NOSIG
ZBAA,2025-08-28 00:00,ZBAA 280000Z 36003MPS 320V020 CAVOK 23/19 Q1008 NOSIG
ZBAA,2025-08-28 00:30,ZBAA 280030Z 34002MPS 310V020 CAVOK 23/19 Q1008 NOSIG
ZBAA,2025-08-28 01:00,ZBAA 280100Z 36002MPS CAVOK 23/19 Q1008 NOSIG
ZBAA,2025-08-28 01:30,ZBAA 280130Z 34002MPS CAVOK 24/19 Q1008 NOSIG
ZBAA,2025-08-28 02:00,ZBAA 280200Z VRB02MPS CAVOK 25/19 Q1008 NOSIG
ZBAA,2025-08-28 02:30,ZBAA 280230Z VRB01MPS CAVOK 25/19 Q1008 NOSIG
ZBAA,2025-08-28 03:00,ZBAA 280300Z VRB01MPS CAVOK 26/19 Q1008 NOSIG
ZBAA,2025-08-28 03:30,ZBAA 280330Z 28002MPS 190V330 CAVOK 26/19 Q1008 NOSIG
ZBAA,2025-08-28 04:00,ZBAA 280400Z 24003MPS 190V300 CAVOK 26/19 Q1008 NOSIG
ZBAA,2025-08-28 04:30,ZBAA 280430Z 22002MPS 190V250 CAVOK 26/19 Q1008 NOSIG
ZBAA,2025-08-28 05:00,ZBAA 280500Z VRB01MPS CAVOK 26/19 Q1008 NOSIG
ZBAA,2025-08-28 05:30,ZBAA 280530Z VRB01MPS CAVOK 26/20 Q1008 NOSIG
ZBAA,2025-08-28 06:00,ZBAA 280600Z VRB01MPS CAVOK 27/21 Q1008 NOSIG
ZBAA,2025-08-28 06:30,ZBAA 280630Z 27002MPS 210V310 CAVOK 27/19 Q1008 NOSIG
ZBAA,2025-08-28 07:00,ZBAA 280700Z 19002MPS 150V260 CAVOK 27/21 Q1008 NOSIG
ZBAA,2025-08-28 07:30,ZBAA 280730Z VRB01MPS CAVOK 27/21 Q1008 NOSIG
ZBAA,2025-08-28 08:00,ZBAA 280800Z VRB01MPS CAVOK 28/21 Q1008 NOSIG
ZBAA,2025-08-28 08:30,ZBAA 280830Z 14002MPS CAVOK 27/21 Q1008 NOSIG
ZBAA,2025-08-28 09:00,ZBAA 280900Z 13001MPS CAVOK 26/22 Q1008 NOSIG
ZBAA,2025-08-28 09:30,ZBAA 280930Z VRB01MPS CAVOK 26/22 Q1008 NOSIG
ZBAA,2025-08-28 10:00,ZBAA 281000Z VRB01MPS CAVOK 25/23 Q1008 NOSIG
ZBAA,2025-08-28 10:30,ZBAA 281030Z VRB01MPS CAVOK 25/23 Q1008 NOSIG
ZBAA,2025-08-28 11:00,ZBAA 281100Z VRB01MPS 9999 -RA NSC 24/23 Q1008 NOSIG
ZBAA,2025-08-28 11:30,ZBAA 281130Z 09002MPS CAVOK 23/22 Q1009 NOSIG
ZBAA,2025-08-28 12:00,ZBAA 281200Z 10002MPS CAVOK 23/22 Q1009 NOSIG
ZBAA,2025-08-28 12:30,ZBAA 281230Z 10001MPS CAVOK 24/22 Q1009 NOSIG
ZBAA,2025-08-28 13:00,ZBAA 281300Z VRB01MPS CAVOK 23/22 Q1010 NOSIG
ZBAA,2025-08-28 13:30,ZBAA 281330Z 16001MPS CAVOK 23/22 Q1010 NOSIG
ZBAA,2025-08-28 14:00,ZBAA 281400Z VRB01MPS CAVOK 23/22 Q1010 NOSIG
ZBAA,2025-08-28 14:30,ZBAA 281430Z VRB01MPS 9999 -RA NSC 24/22 Q1010 NOSIG
ZBAA,2025-08-28 15:00,ZBAA 281500Z VRB01MPS CAVOK 23/22 Q1011 NOSIG
ZBAA,2025-08-28 15:30,ZBAA 281530Z 00000MPS CAVOK 23/22 Q1011 NOSIG
ZBAA,2025-08-28 16:00,ZBAA 281600Z VRB01MPS CAVOK 23/22 Q1011 NOSIG
ZBAA,2025-08-28 16:30,ZBAA 281630Z 09001MPS CAVOK 23/22 Q1011 NOSIG
ZBAA,2025-08-28 17:00,ZBAA 281700Z 07001MPS CAVOK 23/22 Q1011 NOSIG
ZBAA,2025-08-28 17:30,ZBAA 281730Z VRB01MPS CAVOK 23/22 Q1010 NOSIG
ZBAA,2025-08-28 18:00,ZBAA 281800Z VRB01MPS CAVOK 23/22 Q1011 NOSIG
ZBAA,2025-08-28 18:30,ZBAA 281830Z VRB01MPS CAVOK 22/22 Q1011 NOSIG
ZBAA,2025-08-28 19:00,ZBAA 281900Z 12001MPS CAVOK 22/22 Q1011 NOSIG
ZBAA,2025-08-28 19:30,ZBAA 281930Z VRB01MPS CAVOK 22/22 Q1011 NOSIG
ZBAA,2025-08-28 20:00,ZBAA 282000Z VRB01MPS CAVOK 22/22 Q1011 NOSIG
ZBAA,2025-08-28 20:30,ZBAA 282030Z 00000MPS CAVOK 22/22 Q1011 NOSIG
ZBAA,2025-08-28 21:00,ZBAA 282100Z VRB01MPS CAVOK 22/22 Q1011 NOSIG
ZBAA,2025-08-28 21:30,ZBAA 282130Z 08001MPS CAVOK 22/22 Q1011 NOSIG
ZBAA,2025-08-28 22:00,ZBAA 282200Z 05001MPS CAVOK 22/22 Q1012 NOSIG
ZBAA,2025-08-28 22:30,ZBAA 282230Z 00000MPS CAVOK 22/22 Q1012 NOSIG
ZBAA,2025-08-28 23:00,ZBAA 282300Z VRB01MPS CAVOK 23/22 Q1012 NOSIG
ZBAA,2025-08-28 23:30,ZBAA 282330Z 06001MPS CAVOK 23/22 Q1013 NOSIG
ZBAA,2025-08-29 00:00,ZBAA 290000Z 02001MPS CAVOK 23/22 Q1013 NOSIG
ZBAA,2025-08-29 00:30,ZBAA 290030Z VRB01MPS CAVOK 23/22 Q1013 NOSIG
ZBAA,2025-08-29 01:00,ZBAA 290100Z 02001MPS 9999 FEW010 24/22 Q1013 NOSIG
ZBAA,2025-08-29 01:30,ZBAA 290130Z VRB01MPS 9999 -RA FEW010 24/23 Q1013 NOSIG
ZBAA,2025-08-29 02:00,ZBAA 290200Z VRB01MPS CAVOK 25/23 Q1013 NOSIG
ZBAA,2025-08-29 02:30,ZBAA 290230Z VRB01MPS 8000 NSC 25/23 Q1014 NOSIG
ZBAA,2025-08-29 03:00,ZBAA 290300Z VRB01MPS 8000 NSC 26/23 Q1013 NOSIG
ZBAA,2025-08-29 03:30,ZBAA 290330Z VRB01MPS 8000 NSC 26/23 Q1013 NOSIG
ZBAA,2025-08-29 04:00,ZBAA 290400Z VRB01MPS 8000 NSC 26/23 Q1013 NOSIG
ZBAA,2025-08-29 04:30,ZBAA 290430Z VRB01MPS 8000 NSC 27/22 Q1013 NOSIG
ZBAA,2025-08-29 05:00,ZBAA 290500Z VRB01MPS 8000 NSC 28/22 Q1013 NOSIG
ZBAA,2025-08-29 05:30,ZBAA 290530Z VRB01MPS 8000 NSC 28/23 Q1013 NOSIG
ZBAA,2025-08-29 06:00,ZBAA 290600Z 22002MPS 190V280 CAVOK 27/23 Q1013 NOSIG
ZBAA,2025-08-29 06:30,ZBAA 290630Z 18003MPS 160V220 CAVOK 28/23 Q1013 NOSIG
ZBAA,2025-08-29 07:00,ZBAA 290700Z 17003MPS 130V200 CAVOK 28/23 Q1013 NOSIG
ZBAA,2025-08-29 07:30,ZBAA 290730Z 18002MPS 140V280 CAVOK 28/23 Q1012 NOSIG
ZBAA,2025-08-29 08:00,ZBAA 290800Z 15002MPS 090V230 CAVOK 28/24 Q1012 NOSIG
ZBAA,2025-08-29 08:30,ZBAA 290830Z 14002MPS CAVOK 28/24 Q1012 NOSIG
ZBAA,2025-08-29 09:00,ZBAA 290900Z 14002MPS CAVOK 27/24 Q1012 NOSIG
ZBAA,2025-08-29 09:30,ZBAA 290930Z VRB01MPS CAVOK 27/24 Q1012 NOSIG
ZBAA,2025-08-29 10:00,ZBAA 291000Z 15001MPS CAVOK 27/24 Q1012 NOSIG
ZBAA,2025-08-29 10:30,ZBAA 291030Z 16001MPS CAVOK 26/24 Q1012 NOSIG
ZBAA,2025-08-29 11:00,ZBAA 291100Z VRB01MPS 8000 NSC 25/24 Q1012 NOSIG
ZBAA,2025-08-29 11:30,ZBAA 291130Z 15001MPS 8000 NSC 24/24 Q1012 NOSIG
ZBAA,2025-08-29 12:00,ZBAA 291200Z VRB01MPS 8000 NSC 24/23 Q1013 NOSIG
ZBAA,2025-08-29 12:30,ZBAA 291230Z VRB01MPS 8000 NSC 24/23 Q1013 NOSIG
ZBAA,2025-08-29 13:00,ZBAA 291300Z 12001MPS 8000 NSC 24/24 Q1013 NOSIG
ZBAA,2025-08-29 13:30,ZBAA 291330Z 09001MPS 8000 NSC 24/23 Q1013 NOSIG
ZBAA,2025-08-29 14:00,ZBAA 291400Z 08001MPS 8000 NSC 24/23 Q1013 NOSIG
ZBAA,2025-08-29 14:30,ZBAA 291430Z VRB01MPS 8000 NSC 23/23 Q1013 NOSIG
ZBAA,2025-08-29 15:00,ZBAA 291500Z 09001MPS 7000 NSC 23/23 Q1014 NOSIG
ZBAA,2025-08-29 15:30,ZBAA 291530Z 09001MPS 6000 NSC 24/23 Q1014 NOSIG
ZBAA,2025-08-29 16:00,ZBAA 291600Z VRB01MPS 6000 NSC 23/23 Q1014 NOSIG
ZBAA,2025-08-29 16:30,ZBAA 291630Z 08001MPS 6000 NSC 23/23 Q1014 NOSIG
ZBAA,2025-08-29 17:00,ZBAA 291700Z 07001MPS 6000 NSC 23/23 Q1014 NOSIG
ZBAA,2025-08-29 17:30,ZBAA 291730Z 09001MPS 6000 NSC 23/23 Q1014 NOSIG
ZBAA,2025-08-29 18:00,ZBAA 291800Z 07001MPS 6000 NSC 23/23 Q1013 NOSIG
ZBAA,2025-08-29 18:30,ZBAA 291830Z 09001MPS 6000 NSC 23/23 Q1013 NOSIG
ZBAA,2025-08-29 19:00,ZBAA 291900Z 09001MPS 5000 BR NSC 23/23 Q1013 NOSIG
ZBAA,2025-08-29 19:30,ZBAA 291930Z 06001MPS 5000 BR NSC 23/23 Q1013 NOSIG
ZBAA,2025-08-29 20:00,ZBAA 292000Z VRB01MPS 5000 BR NSC 23/23 Q1013 NOSIG
ZBAA,2025-08-29 20:30,ZBAA 292030Z VRB01MPS 5000 BR NSC 23/22 Q1013 NOSIG
ZBAA,2025-08-29 21:00,ZBAA 292100Z VRB01MPS 4000 BR NSC 23/22 Q1014 NOSIG
ZBAA,2025-08-29 21:30,ZBAA 292130Z VRB01MPS 4000 BR NSC 22/22 Q1014 NOSIG
ZBAA,2025-08-29 22:00,ZBAA 292200Z VRB01MPS 3200 BR NSC 23/23 Q1014 NOSIG
ZBAA,2025-08-29 22:30,ZBAA 292230Z VRB01MPS 3200 BR NSC 23/23 Q1014 NOSIG
ZBAA,2025-08-29 23:00,ZBAA 292300Z VRB01MPS 3500 BR NSC 23/23 Q1014 NOSIG
ZBAA,2025-08-29 23:30,ZBAA 292330Z VRB01MPS 5000 BR NSC 23/23 Q1014 NOSIG
ZBAA,2025-08-30 00:00,ZBAA 300000Z 13001MPS 6000 NSC 24/23 Q1014 NOSIG
ZBAA,2025-08-30 00:30,ZBAA 300030Z VRB01MPS 6000 NSC 24/24 Q1014 NOSIG
ZBAA,2025-08-30 01:00,ZBAA 300100Z 00000MPS 6000 NSC 25/23 Q1014 NOSIG
ZBAA,2025-08-30 01:30,ZBAA 300130Z 29002MPS 250V020 5000 BR NSC 25/23 Q1014 NOSIG
ZBAA,2025-08-30 02:00,ZBAA 300200Z VRB01MPS 6000 NSC 25/23 Q1014 NOSIG
ZBAA,2025-08-30 02:30,ZBAA 300230Z 25002MPS 170V300 6000 NSC 27/23 Q1014 NOSIG
ZBAA,2025-08-30 03:00,ZBAA 300300Z 24002MPS 150V320 CAVOK 27/23 Q1014 NOSIG
ZBAA,2025-08-30 03:30,ZBAA 300330Z 26002MPS 220V310 CAVOK 28/23 Q1013 NOSIG
ZBAA,2025-08-30 04:00,ZBAA 300400Z 25002MPS 190V330 CAVOK 28/22 Q1013 NOSIG
ZBAA,2025-08-30 04:30,ZBAA 300430Z VRB01MPS CAVOK 29/22 Q1013 NOSIG
ZBAA,2025-08-30 05:00,ZBAA 300500Z VRB01MPS CAVOK 29/22 Q1013 NOSIG
ZBAA,2025-08-30 05:30,ZBAA 300530Z 20003MPS 160V230 CAVOK 30/22 Q1012 NOSIG
ZBAA,2025-08-30 06:00,ZBAA 300600Z VRB02MPS CAVOK 30/22 Q1012 NOSIG
ZBAA,2025-08-30 06:30,ZBAA 300630Z VRB01MPS CAVOK 30/22 Q1012 NOSIG
ZBAA,2025-08-30 07:00,ZBAA 300700Z 17002MPS 130V220 CAVOK 29/21 Q1011 NOSIG
ZBAA,2025-08-30 07:30,ZBAA 300730Z 17003MPS 140V200 CAVOK 29/21 Q1011 NOSIG
ZBAA,2025-08-30 08:00,ZBAA 300800Z 18004MPS CAVOK 29/20 Q1011 NOSIG
ZBAA,2025-08-30 08:30,ZBAA 300830Z 18003MPS CAVOK 29/20 Q1011 NOSIG
ZBAA,2025-08-30 09:00,ZBAA 300900Z 19004MPS CAVOK 29/20 Q1011 NOSIG
ZBAA,2025-08-30 09:30,ZBAA 300930Z 20004MPS 170V240 CAVOK 28/19 Q1011 NOSIG
ZBAA,2025-08-30 10:00,ZBAA 301000Z 20003MPS 180V280 CAVOK 28/19 Q1011 NOSIG
ZBAA,2025-08-30 10:30,ZBAA 301030Z 20003MPS CAVOK 27/18 Q1011 NOSIG
ZBAA,2025-08-30 11:00,ZBAA 301100Z 18002MPS 150V210 CAVOK 25/20 Q1011 NOSIG
ZBAA,2025-08-30 11:30,ZBAA 301130Z 19003MPS 170V230 CAVOK 26/19 Q1011 NOSIG
ZBAA,2025-08-30 12:00,ZBAA 301200Z VRB02MPS CAVOK 27/19 Q1011 NOSIG
ZBAA,2025-08-30 12:30,ZBAA 301230Z 20002MPS CAVOK 26/19 Q1011 NOSIG
ZBAA,2025-08-30 13:00,ZBAA 301300Z 15001MPS CAVOK 22/20 Q1011 NOSIG
ZBAA,2025-08-30 13:30,ZBAA 301330Z 17002MPS CAVOK 23/20 Q1011 NOSIG
ZBAA,2025-08-30 14:00,ZBAA 301400Z 15002MPS 120V210 CAVOK 22/20 Q1011 NOSIG
ZBAA,2025-08-30 14:30,ZBAA 301430Z 18002MPS 150V230 CAVOK 22/20 Q1011 NOSIG
ZBAA,2025-08-30 15:00,ZBAA 301500Z VRB01MPS CAVOK 21/20 Q1011 NOSIG
ZBAA,2025-08-30 15:30,ZBAA 301530Z VRB01MPS CAVOK 21/20 Q1011 NOSIG
ZBAA,2025-08-30 16:00,ZBAA 301600Z VRB01MPS CAVOK 21/20 Q1011 NOSIG
ZBAA,2025-08-30 16:30,ZBAA 301630Z 07001MPS CAVOK 20/20 Q1011 NOSIG
ZBAA,2025-08-30 17:00,ZBAA 301700Z 14001MPS CAVOK 20/20 Q1011 NOSIG
ZBAA,2025-08-30 17:30,ZBAA 301730Z 09001MPS CAVOK 20/20 Q1011 NOSIG
ZBAA,2025-08-30 18:00,ZBAA 301800Z 04002MPS CAVOK 20/20 Q1011 NOSIG
ZBAA,2025-08-30 18:30,ZBAA 301830Z VRB01MPS CAVOK 20/20 Q1011 NOSIG
ZBAA,2025-08-30 19:00,ZBAA 301900Z VRB01MPS CAVOK 20/19 Q1011 NOSIG
ZBAA,2025-08-30 19:30,ZBAA 301930Z 07001MPS CAVOK 20/20 Q1010 NOSIG
ZBAA,2025-08-30 20:00,ZBAA 302000Z VRB01MPS CAVOK 19/19 Q1010 NOSIG
ZBAA,2025-08-30 20:30,ZBAA 302030Z VRB01MPS CAVOK 19/19 Q1010 NOSIG
ZBAA,2025-08-30 21:00,ZBAA 302100Z 36002MPS CAVOK 20/19 Q1009 NOSIG
ZBAA,2025-08-30 21:30,ZBAA 302130Z 35003MPS CAVOK 20/19 Q1010 NOSIG
ZBAA,2025-08-30 22:00,ZBAA 302200Z 36002MPS 320V020 CAVOK 19/19 Q1010 NOSIG
ZBAA,2025-08-30 22:30,ZBAA 302230Z 35002MPS CAVOK 20/19 Q1009 NOSIG
ZBAA,2025-08-30 23:00,ZBAA 302300Z 35002MPS CAVOK 21/21 Q1009 NOSIG
ZBAA,2025-08-30 23:30,ZBAA 302330Z 34002MPS CAVOK 23/21 Q1009 NOSIG
ZBAA,2025-08-31 00:00,ZBAA 310000Z 36003MPS CAVOK 24/21 Q1009 NOSIG
ZBAA,2025-08-31 00:30,ZBAA 310030Z VRB01MPS CAVOK 25/21 Q1009 NOSIG
ZBAA,2025-08-31 01:00,ZBAA 310100Z 35003MPS 320V020 CAVOK 27/21 Q1009 NOSIG
ZBAA,2025-08-31 01:30,ZBAA 310130Z 36002MPS 290V030 CAVOK 27/22 Q1009 NOSIG
ZBAA,2025-08-31 02:00,ZBAA 310200Z VRB02MPS CAVOK 27/21 Q1009 NOSIG
ZBAA,2025-08-31 02:30,ZBAA 310230Z VRB01MPS CAVOK 28/20 Q1009 NOSIG
ZBAA,2025-08-31 03:00,ZBAA 310300Z 20002MPS 140V250 CAVOK 29/22 Q1009 NOSIG
ZBAA,2025-08-31 03:30,ZBAA 310330Z VRB02MPS CAVOK 29/22 Q1009 NOSIG
ZBAA,2025-08-31 04:00,ZBAA 310400Z VRB03MPS 9999 FEW040 29/21 Q1008 NOSIG
ZBAA,2025-08-31 04:30,ZBAA 310430Z VRB03MPS 9999 SCT040 30/20 Q1008 NOSIG
ZBAA,2025-08-31 05:00,ZBAA 310500Z VRB02MPS 9999 SCT040 30/20 Q1008 NOSIG
ZBAA,2025-08-31 05:30,ZBAA 310530Z VRB02MPS 9999 SCT040 30/21 Q1007 NOSIG
ZBAA,2025-08-31 06:00,ZBAA 310600Z 21003MPS 120V290 9999 SCT040 31/21 Q1007 NOSIG
ZBAA,2025-08-31 06:30,ZBAA 310630Z 19003MPS 150V250 9999 SCT040 31/21 Q1006 NOSIG
ZBAA,2025-08-31 07:00,ZBAA 310700Z 19003MPS 150V230 9999 FEW040 31/21 Q1006 NOSIG
ZBAA,2025-08-31 07:30,ZBAA 310730Z VRB04MPS 9999 SCT040 31/21 Q1006 NOSIG
ZBAA,2025-08-31 08:00,ZBAA 310800Z 17003MPS 9999 SCT040 30/21 Q1006 NOSIG
ZBAA,2025-08-31 08:30,ZBAA 310830Z 19004MPS 160V220 9999 FEW040 30/20 Q1006 NOSIG
ZBAA,2025-08-31 09:00,ZBAA 310900Z 19004MPS 160V230 CAVOK 30/20 Q1006 NOSIG
ZBAA,2025-08-31 09:30,ZBAA 310930Z 19004MPS CAVOK 29/20 Q1006 NOSIG
ZBAA,2025-08-31 10:00,ZBAA 311000Z 19002MPS 160V250 CAVOK 29/20 Q1006 NOSIG
ZBAA,2025-08-31 10:30,ZBAA 311030Z 20004MPS CAVOK 28/19 Q1005 NOSIG
ZBAA,2025-08-31 11:00,ZBAA 311100Z 20003MPS 180V250 CAVOK 28/20 Q1006 NOSIG
ZBAA,2025-08-31 11:30,ZBAA 311130Z 20003MPS 180V240 CAVOK 27/20 Q1006 NOSIG
ZBAA,2025-08-31 12:00,ZBAA 311200Z 28002MPS 190V340 CAVOK 25/21 Q1007 BECMG TL1310 TS
ZBAA,2025-08-31 12:30,ZBAA 311230Z 33003MPS 9999 FEW040CB 27/21 Q1007 NOSIG
ZBAA,2025-08-31 13:00,COR ZBAA 311300Z VRB02MPS 9999 SCT040 FEW040CB 26/21 Q1007 NOSIG
ZBAA,2025-08-31 13:19,ZBAA 311319Z 26007MPS 230V290 9999 BKN040 FEW040CB 27/19 Q1007 NOSIG
ZBAA,2025-08-31 13:30,ZBAA 311330Z 26007MPS 9999 BKN040 FEW040CB 27/17 Q1007 NOSIG
ZBAA,2025-08-31 13:49,ZBAA 311349Z 20005MPS 160V250 9999 BKN040 FEW040CB 25/16 Q1006 NOSIG
ZBAA,2025-08-31 14:00,ZBAA 311400Z 16005MPS 9999 SCT040 25/16 Q1005 NOSIG
ZBAA,2025-08-31 14:16,ZBAA 311416Z 27005G10MPS 230V300 9999 SCT040 25/17 Q1006 NOSIG
ZBAA,2025-08-31 14:30,ZBAA 311430Z 32005MPS CAVOK 25/16 Q1006 NOSIG
ZBAA,2025-08-31 15:00,ZBAA 311500Z 31007MPS CAVOK 23/16 Q1007 NOSIG
ZBAA,2025-08-31 15:30,ZBAA 311530Z 30005MPS CAVOK 24/16 Q1006 NOSIG
ZBAA,2025-08-31 16:00,ZBAA 311600Z 32004MPS CAVOK 23/16 Q1006 NOSIG
ZBAA,2025-08-31 16:30,ZBAA 311630Z VRB01MPS CAVOK 21/17 Q1006 NOSIG
ZBAA,2025-08-31 17:00,ZBAA 311700Z 19002MPS 160V220 CAVOK 20/17 Q1006 NOSIG
ZBAA,2025-08-31 17:30,ZBAA 311730Z 25002MPS CAVOK 20/17 Q1006 NOSIG
ZBAA,2025-08-31 18:00,ZBAA 311800Z 17001MPS CAVOK 19/17 Q1006 NOSIG
ZBAA,2025-08-31 18:30,ZBAA 311830Z VRB01MPS CAVOK 18/17 Q1006 NOSIG
ZBAA,2025-08-31 19:00,ZBAA 311900Z 00000MPS CAVOK 18/17 Q1006 NOSIG
ZBAA,2025-08-31 19:30,ZBAA 311930Z 07001MPS CAVOK 18/17 Q1006 NOSIG
ZBAA,2025-08-31 20:00,ZBAA 312000Z 00000MPS CAVOK 18/17 Q1006 NOSIG
ZBAA,2025-08-31 20:30,ZBAA 312030Z 35001MPS CAVOK 17/16 Q1006 NOSIG
ZBAA,2025-08-31 21:00,ZBAA 312100Z 35002MPS CAVOK 17/17 Q1006 NOSIG
ZBAA,2025-08-31 21:30,ZBAA 312130Z 35002MPS CAVOK 17/16 Q1006 NOSIG
ZBAA,2025-08-31 22:00,ZBAA 312200Z 34002MPS 300V020 CAVOK 18/17 Q1007 NOSIG
ZBAA,2025-08-31 22:30,ZBAA 312230Z 35003MPS CAVOK 19/17 Q1007 NOSIG
ZBAA,2025-08-31 23:00,ZBAA 312300Z 01002MPS CAVOK 20/17 Q1007 NOSIG
ZBAA,2025-08-31 23:30,ZBAA 312330Z 36003MPS CAVOK 22/18 Q1007 NOSIG
ZBAA,2025-09-01 00:00,ZBAA 010000Z 35003MPS 310V020 CAVOK 24/18 Q1007 NOSIG
ZBAA,2025-09-01 00:30,ZBAA 010030Z 34002MPS 310V030 CAVOK 26/18 Q1007 NOSIG
ZBAA,2025-09-01 01:00,ZBAA 010100Z 01002MPS 320V060 CAVOK 26/17 Q1008 NOSIG
ZBAA,2025-09-01 01:30,ZBAA 010130Z VRB01MPS CAVOK 27/17 Q1008 NOSIG
ZBAA,2025-09-01 02:00,ZBAA 010200Z VRB01MPS CAVOK 28/16 Q1008 NOSIG
ZBAA,2025-09-01 02:30,ZBAA 010230Z VRB02MPS CAVOK 29/17 Q1008 NOSIG
ZBAA,2025-09-01 03:00,ZBAA 010300Z 31002MPS 260V350 CAVOK 29/17 Q1008 NOSIG
ZBAA,2025-09-01 03:30,ZBAA 010330Z 32002MPS 270V040 CAVOK 30/18 Q1007 NOSIG
ZBAA,2025-09-01 04:00,ZBAA 010400Z 29002MPS 250V350 CAVOK 31/16 Q1007 NOSIG
ZBAA,2025-09-01 04:30,ZBAA 010430Z 33003MPS 280V020 CAVOK 32/19 Q1007 NOSIG
ZBAA,2025-09-01 05:00,ZBAA 010500Z VRB02MPS CAVOK 32/16 Q1007 NOSIG
ZBAA,2025-09-01 05:30,ZBAA 010530Z 32002MPS 220V010 CAVOK 33/17 Q1006 NOSIG
ZBAA,2025-09-01 06:00,ZBAA 010600Z 24002MPS 180V340 CAVOK 33/18 Q1006 NOSIG
ZBAA,2025-09-01 06:30,ZBAA 010630Z 26002MPS 170V330 CAVOK 33/16 Q1006 NOSIG
ZBAA,2025-09-01 07:00,ZBAA 010700Z 21003MPS 160V260 CAVOK 33/17 Q1006 NOSIG
ZBAA,2025-09-01 07:30,ZBAA 010730Z VRB02MPS CAVOK 33/17 Q1006 NOSIG
ZBAA,2025-09-01 08:00,ZBAA 010800Z 17002MPS 100V230 CAVOK 33/19 Q1006 NOSIG
ZBAA,2025-09-01 08:30,ZBAA 010830Z 13002MPS 090V160 CAVOK 32/19 Q1006 NOSIG
ZBAA,2025-09-01 09:00,ZBAA 010900Z 15002MPS CAVOK 32/19 Q1006 NOSIG
ZBAA,2025-09-01 09:30,ZBAA 010930Z 18003MPS 150V220 CAVOK 31/18 Q1006 NOSIG
ZBAA,2025-09-01 10:00,ZBAA 011000Z 16002MPS 130V190 CAVOK 30/20 Q1006 NOSIG
ZBAA,2025-09-01 10:30,ZBAA 011030Z 17002MPS 140V210 CAVOK 28/21 Q1006 NOSIG
ZBAA,2025-09-01 11:00,ZBAA 011100Z 16001MPS CAVOK 25/22 Q1006 NOSIG
ZBAA,2025-09-01 11:30,ZBAA 011130Z VRB01MPS CAVOK 24/21 Q1007 NOSIG
ZBAA,2025-09-01 12:00,ZBAA 011200Z 13001MPS CAVOK 24/21 Q1007 NOSIG
ZBAA,2025-09-01 12:30,ZBAA 011230Z 18002MPS CAVOK 23/21 Q1007 NOSIG
ZBAA,2025-09-01 13:00,ZBAA 011300Z 17002MPS 140V240 CAVOK 23/22 Q1007 NOSIG
ZBAA,2025-09-01 13:30,ZBAA 011330Z VRB01MPS CAVOK 23/22 Q1008 NOSIG
ZBAA,2025-09-01 14:00,ZBAA 011400Z VRB01MPS CAVOK 23/22 Q1008 NOSIG
ZBAA,2025-09-01 14:30,ZBAA 011430Z VRB01MPS CAVOK 23/21 Q1008 NOSIG
ZBAA,2025-09-01 15:00,ZBAA 011500Z 07001MPS CAVOK 22/21 Q1008 NOSIG
ZBAA,2025-09-01 15:30,ZBAA 011530Z VRB01MPS CAVOK 22/21 Q1008 NOSIG
ZBAA,2025-09-01 16:00,ZBAA 011600Z 04001MPS CAVOK 22/21 Q1008 NOSIG
ZBAA,2025-09-01 16:30,ZBAA 011630Z 04001MPS CAVOK 21/21 Q1008 NOSIG
ZBAA,2025-09-01 17:00,ZBAA 011700Z 03001MPS CAVOK 21/20 Q1008 NOSIG
ZBAA,2025-09-01 17:30,ZBAA 011730Z 04001MPS CAVOK 21/20 Q1009 NOSIG
ZBAA,2025-09-01 18:00,ZBAA 011800Z 36001MPS CAVOK 21/20 Q1009 NOSIG
ZBAA,2025-09-01 18:30,ZBAA 011830Z 36001MPS CAVOK 20/20 Q1009 NOSIG
ZBAA,2025-09-01 19:00,ZBAA 011900Z 02001MPS CAVOK 20/20 Q1009 NOSIG
ZBAA,2025-09-01 19:30,ZBAA 011930Z 00000MPS CAVOK 20/20 Q1009 NOSIG
ZBAA,2025-09-01 20:00,ZBAA 012000Z 34001MPS CAVOK 20/19 Q1009 NOSIG
ZBAA,2025-09-01 20:30,ZBAA 012030Z 01001MPS CAVOK 20/19 Q1009 NOSIG
ZBAA,2025-09-01 21:00,ZBAA 012100Z 01002MPS CAVOK 20/19 Q1009 NOSIG
ZBAA,2025-09-01 21:30,ZBAA 012130Z 36002MPS CAVOK 20/19 Q1009 NOSIG
ZBAA,2025-09-01 22:00,ZBAA 012200Z 36002MPS 320V020 CAVOK 20/19 Q1009 NOSIG
ZBAA,2025-09-01 22:30,ZBAA 012230Z 35002MPS CAVOK 20/19 Q1010 NOSIG
ZBAA,2025-09-01 23:00,ZBAA 012300Z 36002MPS CAVOK 22/20 Q1010 NOSIG
ZBAA,2025-09-01 23:30,ZBAA 012330Z 36002MPS CAVOK 22/20 Q1010 NOSIG
ZBAA,2025-09-02 00:00,ZBAA 020000Z 01001MPS CAVOK 23/21 Q1010 NOSIG
ZBAA,2025-09-02 00:30,ZBAA 020030Z VRB01MPS CAVOK 25/21 Q1010 NOSIG
ZBAA,2025-09-02 01:00,ZBAA 020100Z VRB01MPS CAVOK 27/21 Q1011 NOSIG
ZBAA,2025-09-02 01:30,ZBAA 020130Z 10002MPS 040V160 CAVOK 27/22 Q1010 NOSIG
ZBAA,2025-09-02 02:00,ZBAA 020200Z VRB01MPS CAVOK 28/22 Q1011 NOSIG
ZBAA,2025-09-02 02:30,ZBAA 020230Z VRB01MPS CAVOK 28/22 Q1010 NOSIG
ZBAA,2025-09-02 03:00,ZBAA 020300Z VRB01MPS CAVOK 29/23 Q1010 NOSIG
ZBAA,2025-09-02 03:30,ZBAA 020330Z 14002MPS 060V210 CAVOK 28/23 Q1010 NOSIG
ZBAA,2025-09-02 04:00,ZBAA 020400Z VRB02MPS CAVOK 29/23 Q1010 NOSIG
ZBAA,2025-09-02 04:30,ZBAA 020430Z 13002MPS 100V160 CAVOK 29/23 Q1010 NOSIG
ZBAA,2025-09-02 05:00,ZBAA 020500Z VRB01MPS CAVOK 29/23 Q1010 NOSIG
ZBAA,2025-09-02 05:30,ZBAA 020530Z 11002MPS 090V150 CAVOK 29/23 Q1009 NOSIG
ZBAA,2025-09-02 06:00,ZBAA 020600Z 12002MPS 050V180 CAVOK 30/23 Q1009 NOSIG
ZBAA,2025-09-02 06:30,ZBAA 020630Z 15003MPS 120V190 CAVOK 30/23 Q1009 NOSIG
ZBAA,2025-09-02 07:00,ZBAA 020700Z 15003MPS 110V180 CAVOK 31/23 Q1009 NOSIG
ZBAA,2025-09-02 07:30,ZBAA 020730Z 18004MPS 150V220 CAVOK 30/22 Q1008 NOSIG
ZBAA,2025-09-02 08:00,ZBAA 020800Z 17004MPS CAVOK 30/23 Q1008 NOSIG
ZBAA,2025-09-02 08:30,ZBAA 020830Z 15003MPS CAVOK 30/23 Q1008 NOSIG
ZBAA,2025-09-02 09:00,ZBAA 020900Z 16004MPS CAVOK 30/23 Q1008 NOSIG
ZBAA,2025-09-02 09:30,ZBAA 020930Z 16003MPS CAVOK 29/23 Q1008 NOSIG
ZBAA,2025-09-02 10:00,ZBAA 021000Z 16002MPS 120V180 CAVOK 29/22 Q1008 NOSIG
ZBAA,2025-09-02 10:30,ZBAA 021030Z 16002MPS CAVOK 27/22 Q1008 NOSIG
ZBAA,2025-09-02 11:00,ZBAA 021100Z 15002MPS CAVOK 25/23 Q1009 NOSIG
ZBAA,2025-09-02 11:30,ZBAA 021130Z 16002MPS CAVOK 25/22 Q1009 NOSIG
ZBAA,2025-09-02 12:00,ZBAA 021200Z VRB01MPS CAVOK 24/22 Q1009 NOSIG
ZBAA,2025-09-02 12:30,ZBAA 021230Z 18002MPS 140V250 CAVOK 25/23 Q1010 NOSIG
ZBAA,2025-09-02 13:00,ZBAA 021300Z 14001MPS CAVOK 24/23 Q1010 NOSIG
ZBAA,2025-09-02 13:30,ZBAA 021330Z 14001MPS CAVOK 24/23 Q1010 NOSIG
ZBAA,2025-09-02 14:00,ZBAA 021400Z 16001MPS CAVOK 24/23 Q1010 NOSIG
ZBAA,2025-09-02 14:30,ZBAA 021430Z 16001MPS CAVOK 24/23 Q1010 NOSIG
ZBAA,2025-09-02 15:00,ZBAA 021500Z VRB01MPS CAVOK 24/23 Q1010 NOSIG
ZBAA,2025-09-02 15:30,ZBAA 021530Z 09002MPS CAVOK 24/23 Q1009 NOSIG
ZBAA,2025-09-02 16:00,ZBAA 021600Z VRB01MPS CAVOK 25/23 Q1010 NOSIG
ZBAA,2025-09-02 16:30,ZBAA 021630Z VRB01MPS CAVOK 24/23 Q1009 NOSIG
ZBAA,2025-09-02 17:00,ZBAA 021700Z VRB01MPS CAVOK 24/23 Q1009 NOSIG
ZBAA,2025-09-02 17:30,ZBAA 021730Z 09002MPS CAVOK 24/23 Q1009 NOSIG
ZBAA,2025-09-02 18:00,ZBAA 021800Z VRB01MPS CAVOK 24/23 Q1009 NOSIG
ZBAA,2025-09-02 18:30,ZBAA 021830Z VRB01MPS CAVOK 24/23 Q1009 NOSIG
ZBAA,2025-09-02 19:00,ZBAA 021900Z 13001MPS CAVOK 24/23 Q1009 NOSIG
ZBAA,2025-09-02 19:30,ZBAA 021930Z 11001MPS 8000 NSC 23/23 Q1009 NOSIG
ZBAA,2025-09-02 20:00,ZBAA 022000Z VRB01MPS 8000 NSC 24/23 Q1009 NOSIG
ZBAA,2025-09-02 20:30,ZBAA 022030Z 09002MPS 8000 NSC 24/23 Q1009 NOSIG
ZBAA,2025-09-02 21:00,ZBAA 022100Z 00000MPS 6000 NSC 24/23 Q1009 NOSIG
ZBAA,2025-09-02 21:30,ZBAA 022130Z VRB01MPS 6000 NSC 23/23 Q1009 NOSIG
ZBAA,2025-09-02 22:00,ZBAA 022200Z 09002MPS 060V120 5000 BR NSC 24/23 Q1010 NOSIG
ZBAA,2025-09-02 22:30,ZBAA 022230Z 10001MPS 3500 BR NSC 24/23 Q1010 NOSIG
ZBAA,2025-09-02 23:00,ZBAA 022300Z VRB01MPS 3500 BR NSC 24/23 Q1010 NOSIG
ZBAA,2025-09-02 23:30,ZBAA 022330Z VRB01MPS 3500 BR NSC 25/24 Q1010 NOSIG
ZBAA,2025-09-03 00:00,ZBAA 030000Z 10002MPS 070V150 4000 BR NSC 26/24 Q1010 NOSIG
ZBAA,2025-09-03 00:30,ZBAA 030030Z 14002MPS 100V180 6000 NSC 27/23 Q1010 NOSIG
ZBAA,2025-09-03 01:00,ZBAA 030100Z 15002MPS 080V200 7000 NSC 28/24 Q1010 NOSIG
ZBAA,2025-09-03 01:30,ZBAA 030130Z 15002MPS 070V190 8000 NSC 29/23 Q1010 NOSIG
ZBAA,2025-09-03 02:00,ZBAA 030200Z VRB02MPS 8000 NSC 29/23 Q1010 NOSIG
ZBAA,2025-09-03 02:30,ZBAA 030230Z VRB01MPS CAVOK 30/23 Q1010 NOSIG
ZBAA,2025-09-03 03:00,ZBAA 030300Z VRB01MPS CAVOK 30/23 Q1010 NOSIG
ZBAA,2025-09-03 03:30,ZBAA 030330Z VRB01MPS CAVOK 31/22 Q1010 NOSIG
ZBAA,2025-09-03 04:00,ZBAA 030400Z 15003MPS 090V220 CAVOK 31/22 Q1009 NOSIG
ZBAA,2025-09-03 04:30,ZBAA 030430Z 13003MPS 070V170 CAVOK 31/22 Q1009 NOSIG
ZBAA,2025-09-03 05:00,ZBAA 030500Z 15003MPS 100V200 CAVOK 32/23 Q1009 NOSIG
ZBAA,2025-09-03 05:30,ZBAA 030530Z VRB03MPS CAVOK 32/22 Q1008 NOSIG
ZBAA,2025-09-03 06:00,ZBAA 030600Z 16004MPS 130V200 CAVOK 32/20 Q1008 NOSIG
ZBAA,2025-09-03 06:30,ZBAA 030630Z 15003MPS 100V190 CAVOK 32/21 Q1008 NOSIG
ZBAA,2025-09-03 07:00,ZBAA 030700Z 17004MPS 130V220 CAVOK 32/21 Q1008 NOSIG
ZBAA,2025-09-03 07:30,ZBAA 030730Z 17004MPS 130V200 CAVOK 32/20 Q1008 NOSIG
ZBAA,2025-09-03 08:00,ZBAA 030800Z 17004MPS 120V210 CAVOK 32/21 Q1008 NOSIG
ZBAA,2025-09-03 08:30,ZBAA 030830Z 17003MPS 140V200 CAVOK 31/21 Q1008 NOSIG
ZBAA,2025-09-03 09:00,ZBAA 030900Z 15003MPS CAVOK 31/21 Q1008 NOSIG
ZBAA,2025-09-03 09:30,ZBAA 030930Z 16003MPS CAVOK 30/21 Q1008 NOSIG
ZBAA,2025-09-03 10:00,ZBAA 031000Z 15003MPS CAVOK 29/21 Q1008 NOSIG
ZBAA,2025-09-03 10:30,ZBAA 031030Z 15002MPS CAVOK 28/21 Q1008 NOSIG
ZBAA,2025-09-03 11:00,ZBAA 031100Z 16002MPS CAVOK 26/22 Q1008 NOSIG
ZBAA,2025-09-03 11:30,ZBAA 031130Z 17003MPS CAVOK 27/22 Q1009 NOSIG
ZBAA,2025-09-03 12:00,ZBAA 031200Z 16002MPS CAVOK 25/22 Q1009 NOSIG
ZBAA,2025-09-03 12:30,ZBAA 031230Z 15002MPS CAVOK 24/22 Q1010 NOSIG
ZBAA,2025-09-03 13:00,ZBAA 031300Z VRB01MPS CAVOK 24/22 Q1010 NOSIG
ZBAA,2025-09-03 13:30,ZBAA 031330Z 00000MPS CAVOK 24/22 Q1010 NOSIG
ZBAA,2025-09-03 14:00,ZBAA 031400Z 08001MPS CAVOK 23/22 Q1010 NOSIG
ZBAA,2025-09-03 14:30,ZBAA 031430Z VRB01MPS CAVOK 23/22 Q1010 NOSIG
ZBAA,2025-09-03 15:00,ZBAA 031500Z 14002MPS CAVOK 24/22 Q1010 NOSIG
ZBAA,2025-09-03 15:30,ZBAA 031530Z VRB01MPS CAVOK 24/22 Q1010 NOSIG
ZBAA,2025-09-03 16:00,ZBAA 031600Z 10002MPS CAVOK 24/22 Q1010 NOSIG
ZBAA,2025-09-03 16:30,ZBAA 031630Z VRB01MPS CAVOK 24/23 Q1010 NOSIG
ZBAA,2025-09-03 17:00,ZBAA 031700Z VRB01MPS CAVOK 23/22 Q1010 NOSIG
ZBAA,2025-09-03 17:30,ZBAA 031730Z VRB01MPS 7000 NSC 23/22 Q1010 NOSIG
ZBAA,2025-09-03 18:00,ZBAA 031800Z VRB01MPS 6000 NSC 23/22 Q1010 NOSIG
ZBAA,2025-09-03 18:30,ZBAA 031830Z 10002MPS 070V140 6000 NSC 24/23 Q1010 NOSIG
ZBAA,2025-09-03 19:00,ZBAA 031900Z 10002MPS 6000 NSC 23/22 Q1010 NOSIG
ZBAA,2025-09-03 19:30,ZBAA 031930Z 09002MPS 060V130 6000 NSC 23/23 Q1010 NOSIG
ZBAA,2025-09-03 20:00,ZBAA 032000Z 08002MPS 040V130 6000 NSC 23/23 Q1010 NOSIG
ZBAA,2025-09-03 20:30,ZBAA 032030Z 08002MPS 5000 BR NSC 23/22 Q1010 NOSIG
ZBAA,2025-09-03 21:00,ZBAA 032100Z 08001MPS 5000 BR NSC 23/22 Q1010 NOSIG
ZBAA,2025-09-03 21:30,ZBAA 032130Z VRB01MPS 5000 BR NSC 22/22 Q1010 NOSIG
ZBAA,2025-09-03 22:00,ZBAA 032200Z 06001MPS 2800 BR NSC 22/22 Q1010 NOSIG
ZBAA,2025-09-03 22:30,ZBAA 032230Z 06002MPS 2800 BR NSC 23/22 Q1011 NOSIG
ZBAA,2025-09-03 23:00,ZBAA 032300Z 06002MPS 3500 BR NSC 23/22 Q1011 NOSIG
ZBAA,2025-09-03 23:30,ZBAA 032330Z 06002MPS 030V100 4000 BR NSC 24/22 Q1011 NOSIG
ZBAA,2025-09-04 00:00,ZBAA 040000Z VRB01MPS 3200 BR NSC 24/23 Q1011 NOSIG
ZBAA,2025-09-04 00:30,ZBAA 040030Z 14002MPS 080V170 3000 BR NSC 25/23 Q1011 NOSIG
ZBAA,2025-09-04 01:00,ZBAA 040100Z VRB01MPS 3000 BR SCT040 26/23 Q1012 NOSIG
ZBAA,2025-09-04 01:30,ZBAA 040130Z VRB01MPS 3200 BR BKN030 26/23 Q1012 NOSIG
ZBAA,2025-09-04 02:00,ZBAA 040200Z VRB01MPS 3600 BR BKN030 27/23 Q1012 NOSIG
ZBAA,2025-09-04 02:30,ZBAA 040230Z VRB01MPS 4500 BR BKN030 29/24 Q1012 NOSIG
ZBAA,2025-09-04 03:00,ZBAA 040300Z VRB01MPS 5000 BR SCT040 29/23 Q1011 NOSIG
ZBAA,2025-09-04 03:30,ZBAA 040330Z VRB01MPS 6000 SCT040 30/23 Q1011 NOSIG
ZBAA,2025-09-04 04:00,ZBAA 040400Z VRB02MPS 6000 SCT040 30/23 Q1011 NOSIG
ZBAA,2025-09-04 04:30,ZBAA 040430Z VRB02MPS 8000 SCT040 30/23 Q1010 NOSIG
ZBAA,2025-09-04 05:00,ZBAA 040500Z 12002MPS 070V170 9999 SCT040 31/22 Q1010 NOSIG
ZBAA,2025-09-04 05:30,ZBAA 040530Z 21003MPS 160V250 9999 SCT040 30/21 Q1010 NOSIG
ZBAA,2025-09-04 06:00,ZBAA 040600Z 16002MPS 110V220 9999 SCT040 31/22 Q1010 NOSIG
ZBAA,2025-09-04 06:30,ZBAA 040630Z 14002MPS 110V180 9999 SCT040 31/22 Q1009 NOSIG
ZBAA,2025-09-04 07:00,ZBAA 040700Z 15002MPS 090V210 CAVOK 31/21 Q1009 NOSIG
ZBAA,2025-09-04 07:30,ZBAA 040730Z 14002MPS 100V160 CAVOK 31/21 Q1009 NOSIG
ZBAA,2025-09-04 08:00,ZBAA 040800Z 15002MPS CAVOK 31/21 Q1009 NOSIG
ZBAA,2025-09-04 08:30,ZBAA 040830Z 14003MPS CAVOK 31/22 Q1008 NOSIG
ZBAA,2025-09-04 09:00,ZBAA 040900Z 18004MPS 140V200 CAVOK 31/21 Q1008 NOSIG
ZBAA,2025-09-04 09:30,ZBAA 040930Z 18004MPS 150V210 CAVOK 30/21 Q1008 NOSIG
ZBAA,2025-09-04 10:00,ZBAA 041000Z 15002MPS CAVOK 29/20 Q1008 NOSIG
ZBAA,2025-09-04 10:30,ZBAA 041030Z 16002MPS CAVOK 28/20 Q1009 NOSIG
ZBAA,2025-09-04 11:00,ZBAA 041100Z 16002MPS CAVOK 27/20 Q1009 NOSIG
ZBAA,2025-09-04 11:30,ZBAA 041130Z 16002MPS CAVOK 26/20 Q1009 NOSIG
ZBAA,2025-09-04 12:00,ZBAA 041200Z 15002MPS CAVOK 24/21 Q1009 NOSIG
ZBAA,2025-09-04 12:30,ZBAA 041230Z 16002MPS CAVOK 24/21 Q1009 NOSIG
ZBAA,2025-09-04 13:00,ZBAA 041300Z 16002MPS CAVOK 23/21 Q1009 NOSIG
ZBAA,2025-09-04 13:30,ZBAA 041330Z 15001MPS CAVOK 22/21 Q1009 NOSIG
ZBAA,2025-09-04 14:00,ZBAA 041400Z VRB01MPS CAVOK 22/21 Q1009 NOSIG
ZBAA,2025-09-04 14:30,ZBAA 041430Z 14001MPS CAVOK 23/20 Q1009 NOSIG
ZBAA,2025-09-04 15:00,ZBAA 041500Z 17002MPS CAVOK 23/21 Q1010 NOSIG
ZBAA,2025-09-04 15:30,ZBAA 041530Z 15002MPS CAVOK 23/21 Q1010 NOSIG
ZBAA,2025-09-04 16:00,ZBAA 041600Z 14002MPS CAVOK 23/21 Q1009 NOSIG
ZBAA,2025-09-04 16:30,ZBAA 041630Z VRB01MPS CAVOK 22/21 Q1009 NOSIG
ZBAA,2025-09-04 17:00,ZBAA 041700Z 16002MPS CAVOK 22/20 Q1009 NOSIG
ZBAA,2025-09-04 17:30,ZBAA 041730Z 15002MPS CAVOK 23/21 Q1009 NOSIG
ZBAA,2025-09-04 18:00,ZBAA 041800Z 14001MPS CAVOK 22/20 Q1009 NOSIG
ZBAA,2025-09-04 18:30,ZBAA 041830Z VRB01MPS CAVOK 22/20 Q1009 NOSIG
ZBAA,2025-09-04 19:00,ZBAA 041900Z 06002MPS 8000 NSC 22/21 Q1009 NOSIG
ZBAA,2025-09-04 19:30,ZBAA 041930Z 09002MPS 6000 NSC 22/21 Q1009 NOSIG
ZBAA,2025-09-04 20:00,ZBAA 042000Z 05001MPS 5000 BR NSC 21/21 Q1008 NOSIG
ZBAA,2025-09-04 20:30,ZBAA 042030Z 07001MPS 5000 BR NSC 21/21 Q1008 NOSIG
ZBAA,2025-09-04 21:00,ZBAA 042100Z 11001MPS 5000 BR NSC 21/20 Q1008 BECMG TL2220 2800
ZBAA,2025-09-04 21:30,ZBAA 042130Z VRB01MPS 4500 BR NSC 21/20 Q1008 NOSIG
ZBAA,2025-09-04 22:00,ZBAA 042200Z 07001MPS 2800 BR NSC 21/20 Q1009 BECMG TL2320 3200
ZBAA,2025-09-04 22:30,ZBAA 042230Z 11001MPS 2500 BR NSC 22/21 Q1009 NOSIG
ZBAA,2025-09-04 23:00,ZBAA 042300Z VRB01MPS 2500 BR NSC 23/22 Q1009 BECMG TL2340 3200
ZBAA,2025-09-04 23:30,ZBAA 042330Z 14003MPS 110V170 2500 BR NSC 23/22 Q1008 NOSIG
ZBAA,2025-09-05 00:00,ZBAA 050000Z 14003MPS 3200 BR NSC 24/22 Q1008 NOSIG
ZBAA,2025-09-05 00:30,ZBAA 050030Z 14003MPS 090V170 3200 BR NSC 25/22 Q1008 NOSIG
ZBAA,2025-09-05 01:00,ZBAA 050100Z 15003MPS 5000 BR NSC 25/22 Q1009 NOSIG
ZBAA,2025-09-05 01:30,ZBAA 050130Z 14003MPS 5000 BR NSC 25/21 Q1009 NOSIG
ZBAA,2025-09-05 02:00,ZBAA 050200Z 13002MPS 080V160 5000 BR NSC 26/21 Q1009 NOSIG
ZBAA,2025-09-05 02:30,ZBAA 050230Z 16002MPS 110V200 6000 NSC 26/21 Q1008 NOSIG
ZBAA,2025-09-05 03:00,ZBAA 050300Z 15002MPS 130V210 7000 NSC 26/21 Q1008 NOSIG
ZBAA,2025-09-05 03:30,ZBAA 050330Z VRB01MPS 7000 -RA NSC 25/22 Q1008 NOSIG
ZBAA,2025-09-05 04:00,ZBAA 050400Z 20003MPS 130V260 5000 -RA BR NSC 24/21 Q1009 NOSIG
ZBAA,2025-09-05 04:30,ZBAA 050430Z 26004MPS 210V290 3200 -RA BR NSC 24/22 Q1009 NOSIG
ZBAA,2025-09-05 05:00,ZBAA 050500Z 35002MPS 270V030 3200 -RA BR FEW016 23/22 Q1008 BECMG TL0620 2800 BKN010 OVC040
ZBAA,2025-09-05 05:30,ZBAA 050530Z 01002MPS 340V040 3200 -RA BR FEW010 22/21 Q1008 NOSIG
ZBAA,2025-09-05 05:35,ZBAA 050535Z 30006MPS 3200 -RA BR FEW010 22/21 Q1009 NOSIG
ZBAA,2025-09-05 06:00,ZBAA 050600Z 33006MPS 9999 -RA SCT010 21/20 Q1009 BECMG TL0640 BKN010 OVC040
ZBAA,2025-09-05 06:30,ZBAA 050630Z 33004MPS 300V360 9999 BKN010 OVC040 21/19 Q1009 NOSIG
ZBAA,2025-09-05 07:00,ZBAA 050700Z VRB01MPS 9999 -RA NSC 21/19 Q1008 BECMG TL0840 BKN010 OVC040
ZBAA,2025-09-05 07:30,ZBAA 050730Z VRB01MPS 9999 -RA NSC 21/20 Q1009 NOSIG
ZBAA,2025-09-05 08:00,ZBAA 050800Z VRB01MPS 9999 -RA NSC 21/19 Q1009 NOSIG
ZBAA,2025-09-05 08:30,ZBAA 050830Z 31002MPS 270V350 9999 -RA NSC 22/19 Q1009 NOSIG
ZBAA,2025-09-05 09:00,ZBAA 050900Z 36002MPS 320V040 9999 -RA NSC 21/19 Q1008 NOSIG
ZBAA,2025-09-05 09:30,ZBAA 050930Z 33003MPS 300V010 9999 -RA NSC 21/19 Q1009 NOSIG
ZBAA,2025-09-05 10:00,ZBAA 051000Z VRB01MPS 9999 -RA NSC 21/20 Q1009 NOSIG
ZBAA,2025-09-05 10:30,ZBAA 051030Z VRB01MPS 9999 -RA NSC 21/20 Q1009 NOSIG
ZBAA,2025-09-05 11:00,ZBAA 051100Z VRB01MPS CAVOK 20/20 Q1009 NOSIG
ZBAA,2025-09-05 11:30,ZBAA 051130Z 00000MPS CAVOK 21/20 Q1009 NOSIG
ZBAA,2025-09-05 12:00,ZBAA 051200Z 36002MPS CAVOK 20/20 Q1009 NOSIG
ZBAA,2025-09-05 12:30,ZBAA 051230Z 36002MPS 320V020 CAVOK 20/20 Q1009 NOSIG
ZBAA,2025-09-05 13:00,ZBAA 051300Z VRB01MPS CAVOK 20/20 Q1010 NOSIG
ZBAA,2025-09-05 13:30,ZBAA 051330Z VRB01MPS CAVOK 20/19 Q1010 NOSIG
ZBAA,2025-09-05 14:00,ZBAA 051400Z VRB01MPS CAVOK 20/19 Q1010 NOSIG
ZBAA,2025-09-05 14:30,ZBAA 051430Z VRB01MPS CAVOK 20/19 Q1010 NOSIG
ZBAA,2025-09-05 15:00,ZBAA 051500Z VRB01MPS CAVOK 20/20 Q1010 NOSIG
ZBAA,2025-09-05 15:30,ZBAA 051530Z VRB01MPS CAVOK 21/20 Q1010 NOSIG
ZBAA,2025-09-05 16:00,ZBAA 051600Z VRB01MPS CAVOK 20/19 Q1010 NOSIG
ZBAA,2025-09-05 16:30,ZBAA 051630Z VRB01MPS CAVOK 20/19 Q1010 NOSIG
ZBAA,2025-09-05 17:00,ZBAA 051700Z 01002MPS CAVOK 20/19 Q1010 NOSIG
ZBAA,2025-09-05 17:30,ZBAA 051730Z 01002MPS CAVOK 19/19 Q1010 NOSIG
ZBAA,2025-09-05 18:00,ZBAA 051800Z 36002MPS CAVOK 19/19 Q1010 NOSIG
ZBAA,2025-09-05 18:30,ZBAA 051830Z 36002MPS CAVOK 19/18 Q1010 NOSIG
ZBAA,2025-09-05 19:00,ZBAA 051900Z 36002MPS CAVOK 19/18 Q1010 NOSIG
ZBAA,2025-09-05 19:30,ZBAA 051930Z 33002MPS 300V010 CAVOK 19/18 Q1010 NOSIG
ZBAA,2025-09-05 20:00,ZBAA 052000Z 01002MPS CAVOK 18/18 Q1010 NOSIG
ZBAA,2025-09-05 20:30,ZBAA 052030Z 35001MPS CAVOK 18/17 Q1010 NOSIG
ZBAA,2025-09-05 21:00,ZBAA 052100Z 34001MPS CAVOK 17/17 Q1010 NOSIG
ZBAA,2025-09-05 21:30,ZBAA 052130Z 34002MPS CAVOK 17/17 Q1010 NOSIG
ZBAA,2025-09-05 22:00,ZBAA 052200Z 34002MPS CAVOK 17/17 Q1010 NOSIG
ZBAA,2025-09-05 22:30,ZBAA 052230Z 36002MPS CAVOK 18/18 Q1010 NOSIG
ZBAA,2025-09-05 23:00,ZBAA 052300Z 35002MPS CAVOK 20/19 Q1011 NOSIG
ZBAA,2025-09-05 23:30,ZBAA 052330Z 36002MPS 310V030 CAVOK 21/19 Q1011 NOSIG
ZBAA,2025-09-06 00:00,ZBAA 060000Z 35003MPS CAVOK 22/19 Q1011 NOSIG
ZBAA,2025-09-06 00:30,ZBAA 060030Z 35003MPS CAVOK 23/19 Q1011 NOSIG
ZBAA,2025-09-06 01:00,ZBAA 060100Z 34002MPS 300V040 CAVOK 25/19 Q1011 NOSIG
ZBAA,2025-09-06 01:30,ZBAA 060130Z 35002MPS 310V020 CAVOK 26/18 Q1011 NOSIG
ZBAA,2025-09-06 02:00,ZBAA 060200Z 31003MPS 260V360 CAVOK 26/16 Q1011 NOSIG
ZBAA,2025-09-06 02:30,ZBAA 060230Z 32002MPS 280V360 CAVOK 28/17 Q1011 NOSIG
ZBAA,2025-09-06 03:00,ZBAA 060300Z 32004MPS 280V010 CAVOK 28/16 Q1011 NOSIG
ZBAA,2025-09-06 03:30,ZBAA 060330Z 30002MPS 250V330 CAVOK 29/17 Q1010 NOSIG
ZBAA,2025-09-06 04:00,ZBAA 060400Z 31002MPS 240V010 CAVOK 30/17 Q1010 NOSIG
ZBAA,2025-09-06 04:30,ZBAA 060430Z VRB02MPS CAVOK 30/15 Q1010 NOSIG
ZBAA,2025-09-06 05:00,ZBAA 060500Z 27003MPS 200V340 CAVOK 30/15 Q1009 NOSIG
ZBAA,2025-09-06 05:30,ZBAA 060530Z VRB03MPS CAVOK 31/13 Q1009 NOSIG
ZBAA,2025-09-06 06:00,ZBAA 060600Z 28003G08MPS 230V320 CAVOK 31/13 Q1009 NOSIG
ZBAA,2025-09-06 06:30,ZBAA 060630Z 30004G09MPS 260V350 CAVOK 32/11 Q1008 NOSIG
ZBAA,2025-09-06 07:00,ZBAA 060700Z VRB02MPS CAVOK 32/13 Q1008 NOSIG
ZBAA,2025-09-06 07:30,ZBAA 060730Z 17003MPS 130V230 CAVOK 32/13 Q1007 NOSIG
ZBAA,2025-09-06 08:00,ZBAA 060800Z 19003MPS 150V220 CAVOK 31/11 Q1007 NOSIG
ZBAA,2025-09-06 08:30,ZBAA 060830Z 18004MPS 150V210 CAVOK 31/12 Q1007 NOSIG
ZBAA,2025-09-06 09:00,ZBAA 060900Z 19006MPS CAVOK 30/10 Q1007 NOSIG
ZBAA,2025-09-06 09:30,ZBAA 060930Z 19004MPS 150V220 CAVOK 29/11 Q1007 NOSIG
ZBAA,2025-09-06 10:00,ZBAA 061000Z 19004MPS CAVOK 28/12 Q1007 NOSIG
ZBAA,2025-09-06 10:30,ZBAA 061030Z 19004MPS CAVOK 26/13 Q1007 NOSIG
ZBAA,2025-09-06 11:00,ZBAA 061100Z 19004MPS CAVOK 26/13 Q1007 NOSIG
ZBAA,2025-09-06 11:30,ZBAA 061130Z 19004MPS CAVOK 25/12 Q1007 NOSIG
ZBAA,2025-09-06 12:00,ZBAA 061200Z 19003MPS CAVOK 23/14 Q1007 NOSIG
ZBAA,2025-09-06 12:30,ZBAA 061230Z 19004MPS 140V220 CAVOK 24/14 Q1007 NOSIG
ZBAA,2025-09-06 13:00,ZBAA 061300Z 16002MPS CAVOK 21/17 Q1008 NOSIG
ZBAA,2025-09-06 13:30,ZBAA 061330Z 16002MPS CAVOK 20/17 Q1007 NOSIG
ZBAA,2025-09-06 14:00,ZBAA 061400Z 18003MPS 160V240 CAVOK 20/16 Q1007 NOSIG
ZBAA,2025-09-06 14:30,ZBAA 061430Z 16002MPS 140V220 CAVOK 19/17 Q1007 NOSIG
ZBAA,2025-09-06 15:00,ZBAA 061500Z 15001MPS CAVOK 18/16 Q1007 NOSIG
ZBAA,2025-09-06 15:30,ZBAA 061530Z 16002MPS CAVOK 18/16 Q1007 NOSIG
ZBAA,2025-09-06 16:00,ZBAA 061600Z 15002MPS CAVOK 18/17 Q1007 NOSIG
ZBAA,2025-09-06 16:30,ZBAA 061630Z 15001MPS CAVOK 18/17 Q1007 NOSIG
ZBAA,2025-09-06 17:00,ZBAA 061700Z VRB01MPS CAVOK 17/16 Q1007 NOSIG
ZBAA,2025-09-06 17:30,ZBAA 061730Z 04002MPS 330V070 CAVOK 17/16 Q1007 NOSIG
ZBAA,2025-09-06 18:00,ZBAA 061800Z 09001MPS CAVOK 17/16 Q1007 NOSIG
ZBAA,2025-09-06 18:30,ZBAA 061830Z VRB01MPS CAVOK 17/16 Q1007 NOSIG
ZBAA,2025-09-06 19:00,ZBAA 061900Z 36001MPS CAVOK 17/16 Q1007 NOSIG
ZBAA,2025-09-06 19:30,ZBAA 061930Z 01003MPS CAVOK 17/16 Q1007 NOSIG
ZBAA,2025-09-06 20:00,ZBAA 062000Z 34001MPS CAVOK 17/16 Q1007 NOSIG
ZBAA,2025-09-06 20:30,ZBAA 062030Z 01002MPS CAVOK 16/16 Q1007 NOSIG
ZBAA,2025-09-06 21:00,ZBAA 062100Z 03002MPS 360V140 CAVOK 17/16 Q1007 NOSIG
ZBAA,2025-09-06 21:30,ZBAA 062130Z VRB01MPS CAVOK 17/16 Q1007 NOSIG
ZBAA,2025-09-06 22:00,ZBAA 062200Z 34002MPS CAVOK 16/15 Q1007 NOSIG
ZBAA,2025-09-06 22:30,ZBAA 062230Z 36002MPS CAVOK 17/16 Q1008 NOSIG
ZBAA,2025-09-06 23:00,ZBAA 062300Z VRB01MPS CAVOK 19/17 Q1008 NOSIG
ZBAA,2025-09-06 23:30,ZBAA 062330Z VRB01MPS CAVOK 21/18 Q1008 NOSIG
ZBAA,2025-09-07 00:00,ZBAA 070000Z VRB01MPS CAVOK 22/17 Q1008 NOSIG
ZBAA,2025-09-07 00:30,ZBAA 070030Z 36003MPS CAVOK 24/18 Q1008 NOSIG
ZBAA,2025-09-07 01:00,ZBAA 070100Z 01002MPS 340V050 CAVOK 25/17 Q1009 NOSIG
ZBAA,2025-09-07 01:30,ZBAA 070130Z VRB01MPS CAVOK 27/16 Q1009 NOSIG
ZBAA,2025-09-07 02:00,ZBAA 070200Z VRB01MPS CAVOK 27/16 Q1009 NOSIG
ZBAA,2025-09-07 02:30,ZBAA 070230Z VRB02MPS CAVOK 28/15 Q1009 NOSIG
ZBAA,2025-09-07 03:00,ZBAA 070300Z 02002MPS 340V070 CAVOK 29/15 Q1008 NOSIG
ZBAA,2025-09-07 03:30,ZBAA 070330Z VRB02MPS CAVOK 29/16 Q1008 NOSIG
ZBAA,2025-09-07 04:00,ZBAA 070400Z 31003MPS 270V360 CAVOK 30/14 Q1008 NOSIG
ZBAA,2025-09-07 04:30,ZBAA 070430Z 01002MPS 310V070 CAVOK 30/15 Q1008 NOSIG
ZBAA,2025-09-07 05:00,ZBAA 070500Z 34004MPS 310V010 CAVOK 32/14 Q1007 NOSIG
ZBAA,2025-09-07 05:30,ZBAA 070530Z 33006MPS 300V360 CAVOK 31/12 Q1007 NOSIG
ZBAA,2025-09-07 06:00,ZBAA 070600Z 33006MPS 300V010 CAVOK 32/12 Q1007 NOSIG
ZBAA,2025-09-07 06:30,ZBAA 070630Z 34005MPS 300V030 CAVOK 32/11 Q1006 NOSIG
ZBAA,2025-09-07 07:00,ZBAA 070700Z 32006MPS 280V350 CAVOK 32/09 Q1006 NOSIG
ZBAA,2025-09-07 07:30,ZBAA 070730Z 30007G12MPS 270V340 CAVOK 32/08 Q1006 NOSIG
ZBAA,2025-09-07 08:00,ZBAA 070800Z 30007MPS 280V340 CAVOK 32/07 Q1006 NOSIG
ZBAA,2025-09-07 08:30,ZBAA 070830Z 30006MPS 260V330 CAVOK 32/08 Q1007 NOSIG
ZBAA,2025-09-07 09:00,ZBAA 070900Z 29006MPS CAVOK 31/08 Q1007 NOSIG
ZBAA,2025-09-07 09:30,ZBAA 070930Z 30005MPS CAVOK 31/08 Q1007 NOSIG
ZBAA,2025-09-07 10:00,ZBAA 071000Z 30004MPS 270V330 CAVOK 30/08 Q1007 NOSIG
ZBAA,2025-09-07 10:30,ZBAA 071030Z 29004MPS 260V330 CAVOK 29/08 Q1007 NOSIG
ZBAA,2025-09-07 11:00,ZBAA 071100Z 29004MPS CAVOK 29/07 Q1007 NOSIG
ZBAA,2025-09-07 11:30,ZBAA 071130Z 30004MPS 270V350 CAVOK 28/07 Q1007 NOSIG
ZBAA,2025-09-07 12:00,ZBAA 071200Z 32003MPS 280V020 CAVOK 25/12 Q1008 NOSIG
ZBAA,2025-09-07 12:30,ZBAA 071230Z 34002MPS 290V010 CAVOK 21/12 Q1008 NOSIG
ZBAA,2025-09-07 13:00,ZBAA 071300Z 36002MPS CAVOK 20/14 Q1009 NOSIG
ZBAA,2025-09-07 13:30,ZBAA 071330Z VRB01MPS CAVOK 19/14 Q1009 NOSIG
ZBAA,2025-09-07 14:00,ZBAA 071400Z 03001MPS CAVOK 18/15 Q1010 NOSIG
ZBAA,2025-09-07 14:30,ZBAA 071430Z 33002MPS CAVOK 18/14 Q1010 NOSIG
ZBAA,2025-09-07 15:00,ZBAA 071500Z 36002MPS CAVOK 17/14 Q1010 NOSIG
ZBAA,2025-09-07 15:30,ZBAA 071530Z 34002MPS 280V010 CAVOK 19/14 Q1010 NOSIG
ZBAA,2025-09-07 16:00,ZBAA 071600Z 33002MPS CAVOK 17/14 Q1010 NOSIG
ZBAA,2025-09-07 16:30,ZBAA 071630Z 34003MPS CAVOK 17/14 Q1010 NOSIG
ZBAA,2025-09-07 17:00,ZBAA 071700Z 36004MPS CAVOK 17/13 Q1010 NOSIG
ZBAA,2025-09-07 17:30,ZBAA 071730Z 36003MPS CAVOK 17/14 Q1010 NOSIG
ZBAA,2025-09-07 18:00,ZBAA 071800Z 01002MPS CAVOK 17/14 Q1010 NOSIG
ZBAA,2025-09-07 18:30,ZBAA 071830Z 00000MPS CAVOK 16/14 Q1010 NOSIG
ZBAA,2025-09-07 19:00,ZBAA 071900Z 35002MPS CAVOK 15/14 Q1010 NOSIG
ZBAA,2025-09-07 19:30,ZBAA 071930Z 36003MPS CAVOK 16/14 Q1011 NOSIG
ZBAA,2025-09-07 20:00,ZBAA 072000Z 34003MPS CAVOK 16/14 Q1011 NOSIG
ZBAA,2025-09-07 20:30,ZBAA 072030Z 34002MPS CAVOK 15/14 Q1011 NOSIG
ZBAA,2025-09-07 21:00,ZBAA 072100Z 36003MPS CAVOK 14/13 Q1011 NOSIG
ZBAA,2025-09-07 21:30,ZBAA 072130Z 01002MPS CAVOK 15/13 Q1011 NOSIG
ZBAA,2025-09-07 22:00,ZBAA 072200Z 35003MPS CAVOK 15/13 Q1011 NOSIG
ZBAA,2025-09-07 22:30,ZBAA 072230Z 01003MPS CAVOK 15/13 Q1011 NOSIG
ZBAA,2025-09-07 23:00,ZBAA 072300Z 34003MPS CAVOK 18/14 Q1011 NOSIG
ZBAA,2025-09-07 23:30,ZBAA 072330Z 36003MPS CAVOK 19/14 Q1011 NOSIG
ZBAA,2025-09-08 00:00,ZBAA 080000Z 36002MPS CAVOK 21/14 Q1011 NOSIG
ZBAA,2025-09-08 00:30,ZBAA 080030Z 34002MPS CAVOK 23/14 Q1011 NOSIG
ZBAA,2025-09-08 01:00,ZBAA 080100Z 33003MPS 290V010 CAVOK 24/13 Q1012 NOSIG
ZBAA,2025-09-08 01:30,ZBAA 080130Z 34002MPS 310V010 CAVOK 26/12 Q1012 NOSIG
ZBAA,2025-09-08 02:00,ZBAA 080200Z 03002MPS 350V060 CAVOK 25/13 Q1012 NOSIG
ZBAA,2025-09-08 02:30,ZBAA 080230Z VRB01MPS CAVOK 26/10 Q1011 NOSIG
ZBAA,2025-09-08 03:00,ZBAA 080300Z VRB01MPS CAVOK 27/12 Q1011 NOSIG
ZBAA,2025-09-08 03:30,ZBAA 080330Z VRB01MPS CAVOK 28/12 Q1011 NOSIG
ZBAA,2025-09-08 04:00,ZBAA 080400Z VRB01MPS CAVOK 29/12 Q1011 NOSIG
ZBAA,2025-09-08 04:30,ZBAA 080430Z 19003MPS 110V250 CAVOK 29/11 Q1010 NOSIG
ZBAA,2025-09-08 05:00,ZBAA 080500Z 16003MPS 100V250 CAVOK 30/10 Q1010 NOSIG
ZBAA,2025-09-08 05:30,ZBAA 080530Z 19003MPS 140V240 CAVOK 30/11 Q1010 NOSIG
ZBAA,2025-09-08 06:00,ZBAA 080600Z 17003MPS 130V230 CAVOK 31/11 Q1009 NOSIG
ZBAA,2025-09-08 06:30,ZBAA 080630Z 18003MPS 120V220 CAVOK 31/12 Q1009 NOSIG
ZBAA,2025-09-08 07:00,ZBAA 080700Z 19005MPS 170V230 CAVOK 31/11 Q1009 NOSIG
ZBAA,2025-09-08 07:30,ZBAA 080730Z 19005MPS CAVOK 31/11 Q1009 NOSIG
ZBAA,2025-09-08 08:00,ZBAA 080800Z 19005MPS 170V230 CAVOK 31/11 Q1009 NOSIG
ZBAA,2025-09-08 08:30,ZBAA 080830Z 18004MPS CAVOK 31/13 Q1009 NOSIG
ZBAA,2025-09-08 09:00,ZBAA 080900Z 18004MPS CAVOK 30/13 Q1009 NOSIG
ZBAA,2025-09-08 09:30,ZBAA 080930Z 17003MPS CAVOK 29/13 Q1009 NOSIG
ZBAA,2025-09-08 10:00,ZBAA 081000Z 17002MPS CAVOK 27/15 Q1009 NOSIG
ZBAA,2025-09-08 10:30,ZBAA 081030Z 15002MPS CAVOK 23/17 Q1009 NOSIG
ZBAA,2025-09-08 11:00,ZBAA 081100Z 17002MPS CAVOK 22/17 Q1009 NOSIG
ZBAA,2025-09-08 11:30,ZBAA 081130Z 15002MPS CAVOK 21/17 Q1009 NOSIG
ZBAA,2025-09-08 12:00,ZBAA 081200Z 08002MPS CAVOK 21/17 Q1010 NOSIG
ZBAA,2025-09-08 12:30,ZBAA 081230Z VRB01MPS CAVOK 21/18 Q1010 NOSIG
ZBAA,2025-09-08 13:00,ZBAA 081300Z VRB01MPS CAVOK 21/18 Q1010 NOSIG
ZBAA,2025-09-08 13:30,ZBAA 081330Z 07002MPS CAVOK 20/18 Q1010 NOSIG
ZBAA,2025-09-08 14:00,ZBAA 081400Z VRB01MPS CAVOK 21/17 Q1010 NOSIG
ZBAA,2025-09-08 14:30,ZBAA 081430Z 09002MPS CAVOK 22/17 Q1010 NOSIG
ZBAA,2025-09-08 15:00,ZBAA 081500Z 11002MPS CAVOK 22/18 Q1010 NOSIG
ZBAA,2025-09-08 15:30,ZBAA 081530Z 10002MPS 070V140 CAVOK 22/18 Q1010 NOSIG
ZBAA,2025-09-08 16:00,ZBAA 081600Z VRB01MPS CAVOK 20/18 Q1011 NOSIG
ZBAA,2025-09-08 16:30,ZBAA 081630Z 08002MPS CAVOK 20/18 Q1011 NOSIG
ZBAA,2025-09-08 17:00,ZBAA 081700Z 10002MPS CAVOK 21/18 Q1011 NOSIG
ZBAA,2025-09-08 17:30,ZBAA 081730Z 09002MPS CAVOK 21/18 Q1010 NOSIG
ZBAA,2025-09-08 18:00,ZBAA 081800Z VRB01MPS CAVOK 21/18 Q1010 NOSIG
ZBAA,2025-09-08 18:30,ZBAA 081830Z VRB01MPS 9999 -RA NSC 21/18 Q1010 NOSIG
ZBAA,2025-09-08 19:00,ZBAA 081900Z 02002MPS CAVOK 20/18 Q1010 NOSIG
ZBAA,2025-09-08 19:30,ZBAA 081930Z VRB01MPS CAVOK 19/18 Q1010 NOSIG
ZBAA,2025-09-08 20:00,ZBAA 082000Z 01001MPS CAVOK 19/18 Q1010 NOSIG
ZBAA,2025-09-08 20:30,ZBAA 082030Z VRB01MPS CAVOK 18/18 Q1010 NOSIG
ZBAA,2025-09-08 21:00,ZBAA 082100Z 01001MPS CAVOK 18/18 Q1010 NOSIG
ZBAA,2025-09-08 21:30,ZBAA 082130Z 36001MPS CAVOK 18/18 Q1010 NOSIG
ZBAA,2025-09-08 22:00,ZBAA 082200Z 36001MPS CAVOK 18/17 Q1010 NOSIG
ZBAA,2025-09-08 22:30,ZBAA 082230Z 00000MPS CAVOK 18/18 Q1011 NOSIG
ZBAA,2025-09-08 23:00,ZBAA 082300Z 36001MPS CAVOK 20/19 Q1011 NOSIG
ZBAA,2025-09-08 23:30,ZBAA 082330Z 01002MPS CAVOK 21/19 Q1011 NOSIG
ZBAA,2025-09-09 00:00,ZBAA 090000Z 01001MPS CAVOK 23/19 Q1011 NOSIG
ZBAA,2025-09-09 00:30,ZBAA 090030Z VRB01MPS CAVOK 24/20 Q1011 NOSIG
ZBAA,2025-09-09 01:00,ZBAA 090100Z VRB01MPS CAVOK 25/20 Q1011 NOSIG
ZBAA,2025-09-09 01:30,ZBAA 090130Z VRB01MPS CAVOK 25/21 Q1011 NOSIG
ZBAA,2025-09-09 02:00,ZBAA 090200Z VRB02MPS 8000 NSC 26/21 Q1011 NOSIG
ZBAA,2025-09-09 02:30,ZBAA 090230Z 11002MPS 050V160 8000 NSC 27/21 Q1011 NOSIG
ZBAA,2025-09-09 03:00,ZBAA 090300Z 11002MPS 060V170 8000 NSC 28/21 Q1010 NOSIG
ZBAA,2025-09-09 03:30,ZBAA 090330Z VRB02MPS 8000 NSC 29/21 Q1010 NOSIG
ZBAA,2025-09-09 04:00,ZBAA 090400Z VRB02MPS 8000 NSC 28/21 Q1010 NOSIG
ZBAA,2025-09-09 04:30,ZBAA 090430Z 21002MPS 170V270 8000 NSC 28/21 Q1010 NOSIG
ZBAA,2025-09-09 05:00,ZBAA 090500Z 17002MPS 120V220 8000 NSC 30/22 Q1009 NOSIG
ZBAA,2025-09-09 05:30,ZBAA 090530Z 18003MPS 130V210 CAVOK 30/22 Q1009 NOSIG
ZBAA,2025-09-09 06:00,ZBAA 090600Z 17003MPS 090V230 CAVOK 30/21 Q1009 NOSIG
ZBAA,2025-09-09 06:30,ZBAA 090630Z VRB02MPS CAVOK 30/21 Q1009 NOSIG
ZBAA,2025-09-09 07:00,ZBAA 090700Z 15003MPS 100V190 CAVOK 30/21 Q1008 NOSIG
ZBAA,2025-09-09 07:30,ZBAA 090730Z 15003MPS 110V180 CAVOK 30/21 Q1008 NOSIG
ZBAA,2025-09-09 08:00,ZBAA 090800Z 16004MPS 130V200 CAVOK 30/19 Q1008 NOSIG
ZBAA,2025-09-09 08:30,ZBAA 090830Z 16004MPS CAVOK 30/17 Q1008 NOSIG
ZBAA,2025-09-09 09:00,ZBAA 090900Z 16004MPS CAVOK 29/18 Q1008 NOSIG
ZBAA,2025-09-09 09:30,ZBAA 090930Z 16002MPS CAVOK 28/19 Q1008 NOSIG
ZBAA,2025-09-09 10:00,ZBAA 091000Z 19004MPS CAVOK 28/18 Q1008 NOSIG
ZBAA,2025-09-09 10:30,ZBAA 091030Z 14002MPS 100V210 9999 FEW050TCU 26/19 Q1008 NOSIG
ZBAA,2025-09-09 11:00,ZBAA 091100Z 17002MPS 9999 FEW050TCU 26/19 Q1008 BECMG TL1140 32010G18MPS TSRA
ZBAA,2025-09-09 11:15,ZBAA 091115Z VRB01MPS 9999 TS SCT050CB 25/19 Q1009 NOSIG
ZBAA,2025-09-09 11:30,ZBAA 091130Z 36002MPS 330V030 9999 TS SCT050CB 24/20 Q1010 NOSIG
ZBAA,2025-09-09 11:51,ZBAA 091151Z 36007G15MPS 9999 -TSRA SCT050CB 25/18 Q1012 NOSIG
ZBAA,2025-09-09 12:00,ZBAA 091200Z 01009G14MPS 9999 -TSRA SCT050CB 22/18 Q1011 BECMG TL1340 01003MPS NSW
ZBAA,2025-09-09 12:30,ZBAA 091230Z 02005MPS 360V070 9999 -TSRA BKN050CB 21/18 Q1012 NOSIG
ZBAA,2025-09-09 13:00,ZBAA 091300Z 09002MPS 040V160 9999 -TSRA SCT050CB 20/18 Q1013 BECMG TL1340 NSW
ZBAA,2025-09-09 13:30,ZBAA 091330Z 07004MPS 030V100 9999 -TSRA FEW050CB 19/18 Q1012 NOSIG
ZBAA,2025-09-09 14:00,ZBAA 091400Z 11004MPS 060V140 9999 -TSRA FEW050CB 19/18 Q1010 BECMG TL1510 NSW
ZBAA,2025-09-09 14:11,ZBAA 091411Z 20006MPS 9999 -TSRA FEW050CB 19/18 Q1010 NOSIG
ZBAA,2025-09-09 14:30,ZBAA 091430Z 21007G12MPS 130V280 9999 -TSRA FEW050CB 20/18 Q1010 NOSIG
ZBAA,2025-09-09 14:33,ZBAA 091433Z 34006MPS 9999 -TSRA FEW050CB 19/18 Q1010 NOSIG
ZBAA,2025-09-09 15:00,ZBAA 091500Z 02003MPS 9999 -SHRA NSC 19/18 Q1011 RETS NOSIG
ZBAA,2025-09-09 15:30,ZBAA 091530Z 01004MPS 350V050 CAVOK 19/18 Q1011 NOSIG
ZBAA,2025-09-09 16:00,ZBAA 091600Z VRB01MPS CAVOK 19/18 Q1012 NOSIG
ZBAA,2025-09-09 16:30,ZBAA 091630Z VRB01MPS CAVOK 19/18 Q1012 NOSIG
ZBAA,2025-09-09 17:00,ZBAA 091700Z VRB01MPS CAVOK 18/18 Q1012 NOSIG
ZBAA,2025-09-09 17:30,ZBAA 091730Z 09002MPS CAVOK 18/18 Q1012 NOSIG
ZBAA,2025-09-09 18:00,ZBAA 091800Z 05001MPS CAVOK 19/18 Q1012 NOSIG
ZBAA,2025-09-09 18:30,ZBAA 091830Z VRB01MPS CAVOK 19/19 Q1013 NOSIG
ZBAA,2025-09-09 19:00,ZBAA 091900Z 02001MPS CAVOK 19/19 Q1013 NOSIG
ZBAA,2025-09-09 19:30,ZBAA 091930Z VRB01MPS CAVOK 19/19 Q1013 NOSIG
ZBAA,2025-09-09 20:00,ZBAA 092000Z VRB01MPS CAVOK 19/18 Q1013 NOSIG
ZBAA,2025-09-09 20:30,ZBAA 092030Z VRB01MPS CAVOK 18/18 Q1013 NOSIG
ZBAA,2025-09-09 21:00,ZBAA 092100Z 36002MPS 330V040 CAVOK 19/18 Q1013 NOSIG
ZBAA,2025-09-09 21:30,ZBAA 092130Z VRB01MPS CAVOK 19/19 Q1013 NOSIG
ZBAA,2025-09-09 22:00,ZBAA 092200Z 00000MPS CAVOK 19/19 Q1013 NOSIG
ZBAA,2025-09-09 22:30,ZBAA 092230Z 00000MPS CAVOK 20/19 Q1013 NOSIG
ZBAA,2025-09-09 23:00,ZBAA 092300Z VRB01MPS CAVOK 20/20 Q1014 NOSIG
ZBAA,2025-09-09 23:30,ZBAA 092330Z 02001MPS CAVOK 20/19 Q1014 NOSIG
ZBAA,2025-09-10 00:00,ZBAA 100000Z 02002MPS 340V040 CAVOK 21/19 Q1014 NOSIG
ZBAA,2025-09-10 00:30,ZBAA 100030Z 01002MPS CAVOK 21/19 Q1014 NOSIG
ZBAA,2025-09-10 01:00,ZBAA 100100Z 36002MPS 330V030 CAVOK 22/20 Q1014 NOSIG
ZBAA,2025-09-10 01:30,ZBAA 100130Z VRB01MPS CAVOK 23/19 Q1014 NOSIG
ZBAA,2025-09-10 02:00,ZBAA 100200Z VRB01MPS CAVOK 23/18 Q1014 NOSIG
ZBAA,2025-09-10 02:30,ZBAA 100230Z VRB01MPS CAVOK 24/18 Q1013 NOSIG
ZBAA,2025-09-10 03:00,ZBAA 100300Z 05002MPS 010V120 CAVOK 24/19 Q1013 NOSIG
ZBAA,2025-09-10 03:30,ZBAA 100330Z 06002MPS 340V140 CAVOK 25/19 Q1013 NOSIG
ZBAA,2025-09-10 04:00,ZBAA 100400Z VRB01MPS CAVOK 26/19 Q1013 NOSIG
ZBAA,2025-09-10 04:30,ZBAA 100430Z 13002MPS 100V190 CAVOK 26/19 Q1012 NOSIG
ZBAA,2025-09-10 05:00,ZBAA 100500Z 14002MPS 080V200 CAVOK 27/20 Q1012 NOSIG
ZBAA,2025-09-10 05:30,ZBAA 100530Z VRB02MPS CAVOK 27/20 Q1012 NOSIG
ZBAA,2025-09-10 06:00,ZBAA 100600Z 18002MPS 130V240 CAVOK 27/20 Q1012 NOSIG
ZBAA,2025-09-10 06:30,ZBAA 100630Z 17003MPS 130V190 9999 OVC040 26/20 Q1012 NOSIG
ZBAA,2025-09-10 07:00,ZBAA 100700Z 14002MPS 100V180 CAVOK 27/20 Q1012 NOSIG
ZBAA,2025-09-10 07:30,ZBAA 100730Z 14002MPS 110V170 CAVOK 26/20 Q1012 NOSIG
ZBAA,2025-09-10 08:00,ZBAA 100800Z VRB01MPS CAVOK 27/21 Q1012 NOSIG
ZBAA,2025-09-10 08:30,ZBAA 100830Z VRB01MPS CAVOK 26/20 Q1012 NOSIG
ZBAA,2025-09-10 09:00,ZBAA 100900Z 12001MPS CAVOK 26/21 Q1012 NOSIG
ZBAA,2025-09-10 09:30,ZBAA 100930Z VRB01MPS CAVOK 26/22 Q1012 NOSIG
ZBAA,2025-09-10 10:00,ZBAA 101000Z 10001MPS CAVOK 25/21 Q1012 NOSIG
ZBAA,2025-09-10 10:30,ZBAA 101030Z VRB01MPS CAVOK 24/21 Q1012 NOSIG
ZBAA,2025-09-10 11:00,ZBAA 101100Z 10001MPS CAVOK 23/22 Q1012 NOSIG
ZBAA,2025-09-10 11:30,ZBAA 101130Z 09001MPS CAVOK 23/22 Q1012 NOSIG
ZBAA,2025-09-10 12:00,ZBAA 101200Z VRB01MPS CAVOK 23/22 Q1013 NOSIG
ZBAA,2025-09-10 12:30,ZBAA 101230Z VRB01MPS CAVOK 23/22 Q1013 NOSIG
ZBAA,2025-09-10 13:00,ZBAA 101300Z 10001MPS CAVOK 22/21 Q1013 NOSIG
ZBAA,2025-09-10 13:30,ZBAA 101330Z VRB01MPS CAVOK 22/21 Q1013 NOSIG
ZBAA,2025-09-10 14:00,ZBAA 101400Z 12002MPS 090V160 CAVOK 23/21 Q1013 NOSIG
ZBAA,2025-09-10 14:30,ZBAA 101430Z VRB01MPS CAVOK 23/21 Q1013 NOSIG
ZBAA,2025-09-10 15:00,ZBAA 101500Z VRB01MPS CAVOK 23/21 Q1013 NOSIG
ZBAA,2025-09-10 15:30,ZBAA 101530Z 04001MPS CAVOK 22/21 Q1013 NOSIG
ZBAA,2025-09-10 16:00,ZBAA 101600Z VRB01MPS CAVOK 22/21 Q1013 NOSIG
ZBAA,2025-09-10 16:30,ZBAA 101630Z 04001MPS CAVOK 22/21 Q1013 NOSIG
ZBAA,2025-09-10 17:00,ZBAA 101700Z 00000MPS CAVOK 22/21 Q1013 NOSIG
ZBAA,2025-09-10 17:30,ZBAA 101730Z 11001MPS CAVOK 22/21 Q1013 NOSIG
ZBAA,2025-09-10 18:00,ZBAA 101800Z VRB01MPS CAVOK 22/21 Q1013 NOSIG
ZBAA,2025-09-10 18:30,ZBAA 101830Z VRB01MPS CAVOK 21/21 Q1013 NOSIG
ZBAA,2025-09-10 19:00,ZBAA 101900Z VRB01MPS CAVOK 21/21 Q1013 NOSIG
ZBAA,2025-09-10 19:30,ZBAA 101930Z 06001MPS 8000 NSC 21/20 Q1013 NOSIG
ZBAA,2025-09-10 20:00,ZBAA 102000Z 07001MPS 8000 NSC 21/20 Q1013 NOSIG
ZBAA,2025-09-10 20:30,ZBAA 102030Z VRB01MPS 8000 NSC 21/20 Q1013 NOSIG
ZBAA,2025-09-10 21:00,ZBAA 102100Z VRB01MPS 8000 NSC 21/20 Q1014 NOSIG
ZBAA,2025-09-10 21:30,ZBAA 102130Z 08001MPS 6000 NSC 20/20 Q1014 NOSIG
ZBAA,2025-09-10 22:00,ZBAA 102200Z 10001MPS 3000 R36L/P2000N R36R/P2000N R01/1400D BR NSC 20/20 Q1014 BECMG TL2240 2500
ZBAA,2025-09-10 22:30,ZBAA 102230Z 10002MPS 2500 R36L/P2000N R36R/P2000N R01/1100U BR NSC 21/21 Q1014 NOSIG
ZBAA,2025-09-10 23:00,ZBAA 102300Z 12002MPS 090V150 2500 R36L/P2000N R36R/P2000N R01/1200U BR NSC 22/22 Q1014 BECMG TL0010 3200
ZBAA,2025-09-10 23:30,ZBAA 102330Z 13003MPS 100V160 2100 R36L/P2000N R36R/2000D R01/1200N BR NSC 22/22 Q1014 NOSIG
ZBAA,2025-09-11 00:00,ZBAA 110000Z 14002MPS 110V170 2400 BR NSC 23/22 Q1014 BECMG TL0040 3200
ZBAA,2025-09-11 00:30,ZBAA 110030Z 14002MPS 100V170 3100 BR NSC 24/22 Q1014 NOSIG
ZBAA,2025-09-11 01:00,ZBAA 110100Z 13003MPS 090V150 4000 BR NSC 25/22 Q1014 NOSIG
ZBAA,2025-09-11 01:30,ZBAA 110130Z 13003MPS 090V160 5000 BR NSC 27/22 Q1014 NOSIG
ZBAA,2025-09-11 02:00,ZBAA 110200Z 14003MPS 090V190 6000 NSC 28/21 Q1014 NOSIG
ZBAA,2025-09-11 02:30,ZBAA 110230Z 18003MPS 150V220 CAVOK 28/22 Q1014 NOSIG
ZBAA,2025-09-11 03:00,ZBAA 110300Z 17005MPS 130V200 CAVOK 29/21 Q1014 NOSIG
ZBAA,2025-09-11 03:30,ZBAA 110330Z 18004MPS 130V210 CAVOK 30/22 Q1014 NOSIG
ZBAA,2025-09-11 04:00,ZBAA 110400Z 18004MPS 140V220 9999 SCT040 29/20 Q1013 NOSIG
ZBAA,2025-09-11 04:30,ZBAA 110430Z 18005MPS 150V210 9999 SCT040 30/21 Q1013 NOSIG
ZBAA,2025-09-11 05:00,ZBAA 110500Z 20004MPS 9999 SCT040 30/21 Q1013 NOSIG
ZBAA,2025-09-11 05:30,ZBAA 110530Z 17004MPS 110V210 9999 SCT040 31/21 Q1012 NOSIG
ZBAA,2025-09-11 06:00,ZBAA 110600Z 19005MPS 120V230 9999 SCT040 31/20 Q1012 NOSIG
ZBAA,2025-09-11 06:30,ZBAA 110630Z 18004MPS 130V220 9999 SCT040 30/20 Q1012 NOSIG
ZBAA,2025-09-11 07:00,ZBAA 110700Z 16005MPS 130V190 9999 SCT040 31/20 Q1011 NOSIG
ZBAA,2025-09-11 07:30,ZBAA 110730Z 16005MPS 110V190 CAVOK 30/21 Q1011 NOSIG
ZBAA,2025-09-11 08:00,ZBAA 110800Z 16004MPS 130V190 CAVOK 30/20 Q1011 NOSIG
ZBAA,2025-09-11 08:30,ZBAA 110830Z 17005MPS CAVOK 30/20 Q1010 NOSIG
ZBAA,2025-09-11 09:00,ZBAA 110900Z 17005MPS 140V210 CAVOK 29/20 Q1010 NOSIG
ZBAA,2025-09-11 09:30,ZBAA 110930Z 16003MPS 120V200 CAVOK 29/20 Q1011 NOSIG
ZBAA,2025-09-11 10:00,ZBAA 111000Z 18004MPS CAVOK 28/20 Q1010 NOSIG
ZBAA,2025-09-11 10:30,ZBAA 111030Z 18003MPS 140V220 CAVOK 26/20 Q1011 NOSIG
ZBAA,2025-09-11 11:00,ZBAA 111100Z 17003MPS CAVOK 26/20 Q1011 NOSIG
ZBAA,2025-09-11 11:30,ZBAA 111130Z VRB01MPS CAVOK 24/21 Q1011 NOSIG
ZBAA,2025-09-11 12:00,ZBAA 111200Z VRB01MPS CAVOK 23/21 Q1012 NOSIG
ZBAA,2025-09-11 12:30,ZBAA 111230Z 14001MPS CAVOK 22/21 Q1012 NOSIG
ZBAA,2025-09-11 13:00,ZBAA 111300Z 17001MPS CAVOK 22/21 Q1012 NOSIG
ZBAA,2025-09-11 13:30,ZBAA 111330Z 17002MPS CAVOK 23/21 Q1012 NOSIG
ZBAA,2025-09-11 14:00,ZBAA 111400Z 09002MPS CAVOK 22/21 Q1012 NOSIG
ZBAA,2025-09-11 14:30,ZBAA 111430Z 09001MPS CAVOK 22/21 Q1013 NOSIG
ZBAA,2025-09-11 15:00,ZBAA 111500Z 07001MPS CAVOK 22/21 Q1013 NOSIG
ZBAA,2025-09-11 15:30,ZBAA 111530Z 07002MPS CAVOK 22/21 Q1013 NOSIG
ZBAA,2025-09-11 16:00,ZBAA 111600Z 10002MPS 060V120 CAVOK 23/22 Q1013 NOSIG
ZBAA,2025-09-11 16:30,ZBAA 111630Z VRB01MPS CAVOK 23/22 Q1013 NOSIG
ZBAA,2025-09-11 17:00,ZBAA 111700Z 13002MPS CAVOK 23/22 Q1013 NOSIG
ZBAA,2025-09-11 17:30,ZBAA 111730Z 09002MPS 060V120 8000 NSC 23/22 Q1013 NOSIG
ZBAA,2025-09-11 18:00,ZBAA 111800Z 12002MPS 080V160 7000 NSC 23/21 Q1013 NOSIG
ZBAA,2025-09-11 18:30,ZBAA 111830Z 14003MPS 7000 NSC 23/21 Q1012 NOSIG
ZBAA,2025-09-11 19:00,ZBAA 111900Z 17002MPS 6000 NSC 22/21 Q1012 NOSIG
ZBAA,2025-09-11 19:30,ZBAA 111930Z VRB01MPS 6000 NSC 22/21 Q1012 NOSIG
ZBAA,2025-09-11 20:00,ZBAA 112000Z 04001MPS 6000 NSC 21/20 Q1012 NOSIG
ZBAA,2025-09-11 20:30,ZBAA 112030Z 34001MPS 6000 NSC 21/20 Q1012 NOSIG
ZBAA,2025-09-11 21:00,ZBAA 112100Z 10001MPS 6000 NSC 21/20 Q1012 NOSIG
ZBAA,2025-09-11 21:30,ZBAA 112130Z VRB01MPS 6000 NSC 21/20 Q1012 NOSIG
ZBAA,2025-09-11 22:00,ZBAA 112200Z 10001MPS 4000 BR NSC 21/21 Q1012 BECMG TL2320 2800
ZBAA,2025-09-11 22:30,ZBAA 112230Z 09002MPS 3500 BR NSC 22/21 Q1012 NOSIG
ZBAA,2025-09-11 23:00,ZBAA 112300Z VRB01MPS 3500 BR NSC 22/21 Q1012 BECMG TL2340 2800
ZBAA,2025-09-11 23:30,ZBAA 112330Z VRB01MPS 2800 BR NSC 23/21 Q1012 NOSIG
ZBAA,2025-09-12 00:00,ZBAA 120000Z 05002MPS 2800 BR NSC 23/21 Q1012 BECMG TL0120 3200
ZBAA,2025-09-12 00:30,ZBAA 120030Z 06002MPS 020V090 4000 BR NSC 23/22 Q1012 NOSIG
ZBAA,2025-09-12 01:00,ZBAA 120100Z 06002MPS 020V090 4000 BR NSC 24/21 Q1012 NOSIG
ZBAA,2025-09-12 01:30,ZBAA 120130Z 08002MPS 030V140 5000 BR NSC 24/21 Q1013 NOSIG
ZBAA,2025-09-12 02:00,ZBAA 120200Z VRB01MPS 5000 BR NSC 25/22 Q1013 NOSIG
ZBAA,2025-09-12 02:30,ZBAA 120230Z VRB01MPS 6000 NSC 27/21 Q1013 NOSIG
ZBAA,2025-09-12 03:00,ZBAA 120300Z VRB01MPS 6000 NSC 26/21 Q1012 NOSIG
ZBAA,2025-09-12 03:30,ZBAA 120330Z 13002MPS 080V190 7000 NSC 27/22 Q1012 NOSIG
ZBAA,2025-09-12 04:00,ZBAA 120400Z VRB01MPS 7000 NSC 27/22 Q1012 NOSIG
ZBAA,2025-09-12 04:30,ZBAA 120430Z 12002MPS 070V170 7000 NSC 28/22 Q1012 NOSIG
ZBAA,2025-09-12 05:00,ZBAA 120500Z VRB01MPS 8000 NSC 28/22 Q1011 NOSIG
ZBAA,2025-09-12 05:30,ZBAA 120530Z VRB01MPS 8000 NSC 28/20 Q1011 NOSIG
ZBAA,2025-09-12 06:00,ZBAA 120600Z 15002MPS 080V230 8000 NSC 29/21 Q1011 NOSIG
ZBAA,2025-09-12 06:30,ZBAA 120630Z VRB02MPS 8000 NSC 29/20 Q1011 NOSIG
ZBAA,2025-09-12 07:00,ZBAA 120700Z 17003MPS 100V220 CAVOK 30/20 Q1010 NOSIG
ZBAA,2025-09-12 07:30,ZBAA 120730Z 14003MPS 100V170 CAVOK 29/20 Q1010 NOSIG
ZBAA,2025-09-12 08:00,ZBAA 120800Z 15003MPS 120V230 CAVOK 29/20 Q1010 NOSIG
ZBAA,2025-09-12 08:30,ZBAA 120830Z 15002MPS 110V180 CAVOK 28/20 Q1010 NOSIG
ZBAA,2025-09-12 09:00,ZBAA 120900Z 15003MPS CAVOK 28/19 Q1009 NOSIG
ZBAA,2025-09-12 09:30,ZBAA 120930Z 15002MPS CAVOK 27/20 Q1010 NOSIG
ZBAA,2025-09-12 10:00,ZBAA 121000Z 15002MPS CAVOK 26/20 Q1010 NOSIG
ZBAA,2025-09-12 10:30,ZBAA 121030Z 16001MPS CAVOK 25/21 Q1010 NOSIG
ZBAA,2025-09-12 11:00,ZBAA 121100Z 17001MPS CAVOK 23/21 Q1010 NOSIG
ZBAA,2025-09-12 11:30,ZBAA 121130Z VRB01MPS CAVOK 22/20 Q1010 NOSIG
ZBAA,2025-09-12 12:00,ZBAA 121200Z 17001MPS CAVOK 22/21 Q1010 NOSIG
ZBAA,2025-09-12 12:30,ZBAA 121230Z 18002MPS CAVOK 22/21 Q1010 NOSIG
ZBAA,2025-09-12 13:00,ZBAA 121300Z 13002MPS CAVOK 21/20 Q1010 NOSIG
ZBAA,2025-09-12 13:30,ZBAA 121330Z VRB01MPS CAVOK 23/21 Q1010 NOSIG
ZBAA,2025-09-12 14:00,ZBAA 121400Z 17002MPS 140V200 8000 NSC 22/20 Q1010 NOSIG
ZBAA,2025-09-12 14:30,ZBAA 121430Z VRB01MPS 8000 NSC 21/20 Q1010 NOSIG
ZBAA,2025-09-12 15:00,ZBAA 121500Z VRB01MPS 8000 NSC 20/20 Q1009 NOSIG
ZBAA,2025-09-12 15:30,ZBAA 121530Z VRB01MPS 7000 NSC 20/20 Q1009 NOSIG
ZBAA,2025-09-12 16:00,ZBAA 121600Z 05001MPS 7000 NSC 20/20 Q1010 NOSIG
ZBAA,2025-09-12 16:30,ZBAA 121630Z VRB01MPS 5000 BR NSC 20/19 Q1010 NOSIG
ZBAA,2025-09-12 17:00,ZBAA 121700Z 09001MPS 5000 BR NSC 20/19 Q1010 NOSIG
ZBAA,2025-09-12 17:30,ZBAA 121730Z VRB01MPS 5000 BR NSC 20/20 Q1010 NOSIG
ZBAA,2025-09-12 18:00,ZBAA 121800Z 10002MPS 5000 BR NSC 21/20 Q1009 NOSIG
ZBAA,2025-09-12 18:30,ZBAA 121830Z VRB01MPS 4000 BR NSC 20/19 Q1009 NOSIG
ZBAA,2025-09-12 19:00,ZBAA 121900Z 09002MPS 4000 BR NSC 20/19 Q1009 NOSIG
ZBAA,2025-09-12 19:30,ZBAA 121930Z 11002MPS 080V150 4000 BR NSC 20/19 Q1009 NOSIG
ZBAA,2025-09-12 20:00,ZBAA 122000Z VRB01MPS 4000 BR NSC 20/19 Q1009 NOSIG
ZBAA,2025-09-12 20:30,ZBAA 122030Z VRB01MPS 3500 BR NSC 19/18 Q1009 NOSIG
ZBAA,2025-09-12 21:00,ZBAA 122100Z 36002MPS 3500 BR NSC 18/18 Q1009 BECMG TL2210 2200
ZBAA,2025-09-12 21:30,ZBAA 122130Z VRB01MPS 3200 BR NSC 18/18 Q1009 NOSIG
ZBAA,2025-09-12 22:00,ZBAA 122200Z VRB01MPS 2200 BR NSC 18/18 Q1009 NOSIG
ZBAA,2025-09-12 22:30,ZBAA 122230Z 09002MPS 1800 BR NSC 19/19 Q1009 NOSIG
ZBAA,2025-09-12 23:00,ZBAA 122300Z 01001MPS 1800 BR NSC 20/20 Q1009 NOSIG
ZBAA,2025-09-12 23:30,ZBAA 122330Z VRB01MPS 1800 BR NSC 21/20 Q1009 NOSIG
ZBAA,2025-09-13 00:00,ZBAA 130000Z VRB01MPS 1800 BR NSC 21/20 Q1009 BECMG TL0140 3100
ZBAA,2025-09-13 00:30,ZBAA 130030Z VRB01MPS 2000 BR NSC 22/20 Q1009 NOSIG
ZBAA,2025-09-13 01:00,ZBAA 130100Z VRB01MPS 2500 BR NSC 24/21 Q1009 BECMG TL0140 3100
ZBAA,2025-09-13 01:30,ZBAA 130130Z 19002MPS 120V250 3100 BR NSC 24/20 Q1010 NOSIG
ZBAA,2025-09-13 02:00,ZBAA 130200Z VRB01MPS 4000 BR NSC 25/20 Q1010 NOSIG
ZBAA,2025-09-13 02:30,ZBAA 130230Z 13002MPS 070V180 4000 BR NSC 26/20 Q1009 NOSIG
ZBAA,2025-09-13 03:00,ZBAA 130300Z 14003MPS 080V180 5000 BR NSC 27/19 Q1009 NOSIG
ZBAA,2025-09-13 03:30,ZBAA 130330Z 16004MPS 130V230 8000 NSC 27/19 Q1009 NOSIG
ZBAA,2025-09-13 04:00,ZBAA 130400Z 19004MPS 150V220 8000 NSC 29/20 Q1008 NOSIG
ZBAA,2025-09-13 04:30,ZBAA 130430Z 19004MPS CAVOK 28/18 Q1008 NOSIG
ZBAA,2025-09-13 05:00,ZBAA 130500Z 18004MPS 140V220 CAVOK 29/18 Q1008 NOSIG
ZBAA,2025-09-13 05:30,ZBAA 130530Z 19005MPS 150V210 CAVOK 28/17 Q1008 NOSIG
ZBAA,2025-09-13 06:00,ZBAA 130600Z 19005MPS 150V230 CAVOK 29/18 Q1007 NOSIG
ZBAA,2025-09-13 06:30,ZBAA 130630Z 19005MPS 140V220 CAVOK 29/18 Q1006 NOSIG
ZBAA,2025-09-13 07:00,ZBAA 130700Z 20004MPS 160V230 CAVOK 29/18 Q1006 NOSIG
ZBAA,2025-09-13 07:30,ZBAA 130730Z 19005MPS 160V220 CAVOK 28/18 Q1005 NOSIG
ZBAA,2025-09-13 08:00,ZBAA 130800Z 17004MPS 130V210 CAVOK 28/19 Q1005 NOSIG
ZBAA,2025-09-13 08:30,ZBAA 130830Z 18004MPS 140V200 CAVOK 28/19 Q1006 NOSIG
ZBAA,2025-09-13 09:00,ZBAA 130900Z 19004MPS 160V230 CAVOK 27/19 Q1006 BECMG TL1040 33008G13MPS -TSRA FEW040CB
ZBAA,2025-09-13 09:30,ZBAA 130930Z VRB02MPS 9999 -SHRA NSC 27/19 Q1007 NOSIG
ZBAA,2025-09-13 09:44,ZBAA 130944Z 30003MPS 250V340 9999 -TSRA FEW040CB 26/19 Q1008 NOSIG
ZBAA,2025-09-13 10:00,ZBAA 131000Z 01006G11MPS 340V060 7000 -TSRA SCT040CB 23/21 Q1007 BECMG TL1140 NSW
ZBAA,2025-09-13 10:03,ZBAA 131003Z 09003MPS 060V130 7000 -TSRA SCT040CB 23/21 Q1006 NOSIG
ZBAA,2025-09-13 10:30,ZBAA 131030Z 13004MPS 9999 -TSRA SCT040CB 23/21 Q1006 NOSIG
ZBAA,2025-09-13 10:48,ZBAA 131048Z 02005MPS 360V090 9999 -TSRA SCT040CB 22/21 Q1007 NOSIG
ZBAA,2025-09-13 11:00,ZBAA 131100Z 12006MPS 070V140 9999 -TSRA SCT040CB 23/20 Q1006 BECMG TL1240 NSW
ZBAA,2025-09-13 11:09,ZBAA 131109Z 18002MPS 110V250 9999 -TSRA SCT040CB 23/20 Q1007 NOSIG
ZBAA,2025-09-13 11:30,ZBAA 131130Z 16004MPS 120V200 9999 -TSRA SCT040CB 22/21 Q1006 NOSIG
ZBAA,2025-09-13 12:00,ZBAA 131200Z 18006MPS 9999 -TSRA SCT040CB 21/19 Q1006 BECMG TL1220 NSW
ZBAA,2025-09-13 12:13,ZBAA 131213Z 19003MPS 160V220 9999 FEW050CB 20/18 Q1007 RETS NOSIG
ZBAA,2025-09-13 12:30,ZBAA 131230Z 21004G12MPS 100V260 9999 FEW050CB 21/18 Q1007 RETS NOSIG
ZBAA,2025-09-13 13:00,COR ZBAA 131300Z 35002MPS 260V040 9999 FEW050CB 20/18 Q1008 BECMG TL1340 TS
ZBAA,2025-09-13 13:14,ZBAA 131314Z VRB02MPS 9999 TS FEW050CB 19/18 Q1008 NOSIG
ZBAA,2025-09-13 13:30,ZBAA 131330Z 09002MPS 010V150 9999 TS FEW050CB 19/18 Q1008 NOSIG
ZBAA,2025-09-13 13:43,ZBAA 131343Z VRB01MPS 9999 FEW050CB 20/19 Q1008 RETS NOSIG
ZBAA,2025-09-13 14:00,ZBAA 131400Z 16002MPS 120V190 9999 FEW050CB 20/19 Q1008 RETS NOSIG
ZBAA,2025-09-13 14:30,ZBAA 131430Z 17002MPS 9999 FEW050CB 20/18 Q1008 NOSIG
ZBAA,2025-09-13 15:00,ZBAA 131500Z VRB01MPS 9999 FEW050CB 20/19 Q1007 NOSIG
ZBAA,2025-09-13 15:30,ZBAA 131530Z VRB01MPS 9999 FEW050CB 20/19 Q1007 NOSIG
ZBAA,2025-09-13 16:00,ZBAA 131600Z VRB01MPS 9999 FEW050CB 20/19 Q1007 BECMG TL1620 TS
ZBAA,2025-09-13 16:05,ZBAA 131605Z VRB01MPS 9999 TS FEW050CB 20/19 Q1007 NOSIG
ZBAA,2025-09-13 16:30,ZBAA 131630Z 12002MPS 080V140 9999 FEW050CB 20/19 Q1007 RETS NOSIG
ZBAA,2025-09-13 17:00,ZBAA 131700Z VRB01MPS CAVOK 19/18 Q1007 NOSIG
ZBAA,2025-09-13 17:30,ZBAA 131730Z VRB01MPS CAVOK 19/18 Q1006 NOSIG
ZBAA,2025-09-13 18:00,ZBAA 131800Z VRB01MPS CAVOK 19/18 Q1006 NOSIG
ZBAA,2025-09-13 18:30,ZBAA 131830Z VRB01MPS CAVOK 19/18 Q1007 NOSIG
ZBAA,2025-09-13 19:00,ZBAA 131900Z 08001MPS CAVOK 18/18 Q1006 NOSIG
ZBAA,2025-09-13 19:30,ZBAA 131930Z 06001MPS 9999 R36L/0650D R36R/P2000N R01/P2000N PRFG NSC 18/18 Q1007 NOSIG
ZBAA,2025-09-13 20:00,ZBAA 132000Z VRB01MPS 8000 NSC 18/18 Q1007 BECMG TL2140 2800
ZBAA,2025-09-13 20:30,ZBAA 132030Z 35002MPS 310V010 7000 NSC 18/17 Q1007 NOSIG
ZBAA,2025-09-13 21:00,ZBAA 132100Z 03002MPS 6000 NSC 18/17 Q1007 BECMG TL2140 2800 BR
ZBAA,2025-09-13 21:30,ZBAA 132130Z 00000MPS 4500 R36L/P2000N R36R/P2000N R01/1300U BR NSC 17/17 Q1007 NOSIG
ZBAA,2025-09-13 21:40,ZBAA 132140Z VRB01MPS 4000 R36L/P2000N R36R/P2000N R01/0375D PRFG BR NSC 18/17 Q1007 NOSIG
ZBAA,2025-09-13 21:51,ZBAA 132151Z 00000MPS 3200 R36L/P2000N R36R/P2000N R01/0250D PRFG BR NSC 17/17 Q1007 NOSIG
ZBAA,2025-09-13 22:00,ZBAA 132200Z 00000MPS 2900 R36L/P2000N R36R/P2000N R01/0175N PRFG BR NSC 17/17 Q1007 NOSIG
ZBAA,2025-09-13 22:30,ZBAA 132230Z 01001MPS 3200 R36L/1900D R36R/P2000N R01/1400U BR NSC 17/17 Q1007 NOSIG
ZBAA,2025-09-13 22:35,ZBAA 132235Z VRB01MPS 3600 R36L/P2000N R36R/P2000N R01/0500D PRFG BR NSC 17/17 Q1007 NOSIG
ZBAA,2025-09-13 22:49,ZBAA 132249Z 35002MPS 4000 BR NSC 18/18 Q1008 NOSIG
ZBAA,2025-09-13 23:00,ZBAA 132300Z 01002MPS 350V060 5000 BR NSC 19/19 Q1008 NOSIG
ZBAA,2025-09-13 23:30,ZBAA 132330Z VRB01MPS 6000 NSC 20/20 Q1008 NOSIG
ZBAA,2025-09-14 00:00,ZBAA 140000Z 36002MPS 340V040 6000 NSC 22/21 Q1008 NOSIG
ZBAA,2025-09-14 00:30,ZBAA 140030Z VRB01MPS 6000 NSC 23/21 Q1008 NOSIG
ZBAA,2025-09-14 01:00,ZBAA 140100Z 34003MPS 310V010 7000 NSC 24/20 Q1009 NOSIG
ZBAA,2025-09-14 01:30,ZBAA 140130Z 34002MPS 280V040 8000 NSC 25/20 Q1009 NOSIG
ZBAA,2025-09-14 02:00,ZBAA 140200Z VRB02MPS CAVOK 26/20 Q1009 BECMG TL0340 32007G12MPS
ZBAA,2025-09-14 02:30,ZBAA 140230Z 02003MPS 350V080 CAVOK 27/19 Q1009 NOSIG
ZBAA,2025-09-14 02:38,ZBAA 140238Z 32005MPS CAVOK 28/15 Q1009 NOSIG
ZBAA,2025-09-14 03:00,ZBAA 140300Z 33007MPS CAVOK 29/15 Q1009 NOSIG
ZBAA,2025-09-14 03:30,ZBAA 140330Z 31009MPS CAVOK 30/08 Q1009 NOSIG
ZBAA,2025-09-14 04:00,ZBAA 140400Z 31008MPS CAVOK 31/06 Q1009 NOSIG
ZBAA,2025-09-14 04:30,ZBAA 140430Z 30009G15MPS CAVOK 31/04 Q1008 NOSIG
ZBAA,2025-09-14 05:00,ZBAA 140500Z 31009MPS CAVOK 32/06 Q1008 NOSIG
ZBAA,2025-09-14 05:30,ZBAA 140530Z 30010G15MPS CAVOK 32/06 Q1008 NOSIG
ZBAA,2025-09-14 06:00,ZBAA 140600Z 31011G16MPS CAVOK 32/05 Q1008 NOSIG
ZBAA,2025-09-14 06:30,ZBAA 140630Z 31012MPS CAVOK 32/04 Q1008 NOSIG
ZBAA,2025-09-14 07:00,ZBAA 140700Z 32009MPS CAVOK 32/04 Q1008 NOSIG
ZBAA,2025-09-14 07:30,ZBAA 140730Z 33007G12MPS CAVOK 32/05 Q1008 NOSIG
ZBAA,2025-09-14 08:00,ZBAA 140800Z 33006MPS CAVOK 32/06 Q1008 NOSIG
ZBAA,2025-09-14 08:30,ZBAA 140830Z 31006MPS CAVOK 31/06 Q1008 NOSIG
ZBAA,2025-09-14 09:00,ZBAA 140900Z 32005MPS CAVOK 31/06 Q1009 NOSIG
ZBAA,2025-09-14 09:30,ZBAA 140930Z 31005MPS 280V340 CAVOK 30/06 Q1009 NOSIG
ZBAA,2025-09-14 10:00,ZBAA 141000Z 33003MPS 290V030 CAVOK 29/08 Q1009 NOSIG
ZBAA,2025-09-14 10:30,ZBAA 141030Z VRB01MPS CAVOK 22/13 Q1009 NOSIG
ZBAA,2025-09-14 11:00,ZBAA 141100Z 01002MPS 340V040 CAVOK 20/13 Q1010 NOSIG
ZBAA,2025-09-14 11:30,ZBAA 141130Z 06001MPS CAVOK 19/14 Q1010 NOSIG
ZBAA,2025-09-14 12:00,ZBAA 141200Z VRB01MPS CAVOK 18/15 Q1011 NOSIG
ZBAA,2025-09-14 12:30,ZBAA 141230Z 02001MPS CAVOK 18/15 Q1011 NOSIG
ZBAA,2025-09-14 13:00,ZBAA 141300Z 00000MPS CAVOK 18/16 Q1011 NOSIG
ZBAA,2025-09-14 13:30,ZBAA 141330Z 00000MPS CAVOK 17/15 Q1012 NOSIG
ZBAA,2025-09-14 14:00,ZBAA 141400Z 36002MPS CAVOK 17/15 Q1012 NOSIG
ZBAA,2025-09-14 14:30,ZBAA 141430Z 36003MPS CAVOK 17/14 Q1012 NOSIG
ZBAA,2025-09-14 15:00,ZBAA 141500Z 36002MPS CAVOK 18/14 Q1012 NOSIG
ZBAA,2025-09-14 15:30,ZBAA 141530Z VRB01MPS CAVOK 17/15 Q1012 NOSIG
ZBAA,2025-09-14 16:00,ZBAA 141600Z 01002MPS CAVOK 17/15 Q1012 NOSIG
ZBAA,2025-09-14 16:30,ZBAA 141630Z VRB01MPS CAVOK 16/15 Q1013 NOSIG
ZBAA,2025-09-14 17:00,ZBAA 141700Z 35002MPS CAVOK 16/14 Q1013 NOSIG
ZBAA,2025-09-14 17:30,ZBAA 141730Z VRB01MPS CAVOK 16/14 Q1013 NOSIG
ZBAA,2025-09-14 18:00,ZBAA 141800Z 01002MPS 340V040 CAVOK 16/14 Q1013 NOSIG
ZBAA,2025-09-14 18:30,ZBAA 141830Z 03002MPS 360V070 CAVOK 18/13 Q1013 NOSIG
ZBAA,2025-09-14 19:00,ZBAA 141900Z 01002MPS 340V040 CAVOK 17/13 Q1013 NOSIG
ZBAA,2025-09-14 19:30,ZBAA 141930Z 03002MPS 010V070 CAVOK 18/13 Q1013 NOSIG
ZBAA,2025-09-14 20:00,ZBAA 142000Z 04002MPS CAVOK 18/12 Q1013 NOSIG
ZBAA,2025-09-14 20:30,ZBAA 142030Z 36001MPS CAVOK 18/13 Q1013 NOSIG
ZBAA,2025-09-14 21:00,ZBAA 142100Z VRB01MPS CAVOK 17/15 Q1013 NOSIG
ZBAA,2025-09-14 21:30,ZBAA 142130Z VRB01MPS CAVOK 18/15 Q1014 NOSIG
ZBAA,2025-09-14 22:00,ZBAA 142200Z VRB01MPS CAVOK 18/15 Q1013 NOSIG
ZBAA,2025-09-14 22:30,ZBAA 142230Z 36003MPS CAVOK 19/14 Q1014 NOSIG
ZBAA,2025-09-14 23:00,ZBAA 142300Z 36001MPS 9999 -RA NSC 19/15 Q1014 NOSIG
ZBAA,2025-09-14 23:30,ZBAA 142330Z 36002MPS 330V050 CAVOK 20/14 Q1014 NOSIG
ZBAA,2025-09-15 00:00,ZBAA 150000Z 01002MPS 340V040 CAVOK 20/15 Q1015 NOSIG
ZBAA,2025-09-15 00:30,ZBAA 150030Z 36003MPS CAVOK 20/14 Q1015 NOSIG
ZBAA,2025-09-15 01:00,ZBAA 150100Z 01002MPS CAVOK 21/15 Q1015 NOSIG
ZBAA,2025-09-15 01:30,ZBAA 150130Z 36002MPS CAVOK 22/14 Q1015 NOSIG
ZBAA,2025-09-15 02:00,ZBAA 150200Z 01002MPS CAVOK 22/14 Q1014 NOSIG
ZBAA,2025-09-15 02:30,ZBAA 150230Z VRB01MPS 9999 SCT040 23/14 Q1014 NOSIG
ZBAA,2025-09-15 03:00,ZBAA 150300Z VRB01MPS 9999 BKN033 22/14 Q1014 NOSIG
ZBAA,2025-09-15 03:30,ZBAA 150330Z 01002MPS 320V040 9999 OVC033 23/15 Q1014 NOSIG
ZBAA,2025-09-15 04:00,ZBAA 150400Z 31003MPS 280V350 9999 OVC040 23/14 Q1016 BECMG AT0430 30010G18MPS TS
ZBAA,2025-09-15 04:13,ZBAA 150413Z 28008G17MPS 9999 -SHRA BKN040 FEW040CB 22/15 Q1018 NOSIG
ZBAA,2025-09-15 04:22,ZBAA 150422Z 20004G09MPS 160V220 9999 -TSRA BKN040 SCT040CB 20/17 Q1016 NOSIG
ZBAA,2025-09-15 04:30,ZBAA 150430Z 19003G09MPS 140V300 9999 -TSRA BKN040 SCT040CB 19/16 Q1016 NOSIG
ZBAA,2025-09-15 05:00,ZBAA 150500Z 09003MPS 060V120 9999 -TSRA BKN040 FEW040CB 19/17 Q1012 BECMG TL0520 NSW
ZBAA,2025-09-15 05:30,ZBAA 150530Z 10003MPS 050V150 CAVOK 21/18 Q1011 RETS NOSIG
ZBAA,2025-09-15 06:00,ZBAA 150600Z 01003MPS 340V040 CAVOK 23/18 Q1012 NOSIG
ZBAA,2025-09-15 06:30,ZBAA 150630Z 34005MPS 320V020 CAVOK 24/18 Q1012 NOSIG
ZBAA,2025-09-15 07:00,ZBAA 150700Z 35004MPS 320V040 CAVOK 24/18 Q1012 NOSIG
ZBAA,2025-09-15 07:30,ZBAA 150730Z 03003MPS 340V060 CAVOK 23/17 Q1012 NOSIG
ZBAA,2025-09-15 08:00,ZBAA 150800Z 04003MPS 360V070 CAVOK 22/17 Q1012 NOSIG
ZBAA,2025-09-15 08:30,ZBAA 150830Z VRB01MPS CAVOK 22/17 Q1012 NOSIG
ZBAA,2025-09-15 09:00,ZBAA 150900Z 03002MPS CAVOK 22/16 Q1011 NOSIG
ZBAA,2025-09-15 09:30,ZBAA 150930Z 03002MPS 360V060 CAVOK 22/17 Q1011 NOSIG
ZBAA,2025-09-15 10:00,ZBAA 151000Z 04002MPS 350V110 CAVOK 21/17 Q1011 NOSIG
ZBAA,2025-09-15 10:30,ZBAA 151030Z 05002MPS 010V110 CAVOK 21/17 Q1011 NOSIG
ZBAA,2025-09-15 11:00,ZBAA 151100Z VRB01MPS CAVOK 21/17 Q1011 NOSIG
ZBAA,2025-09-15 11:30,ZBAA 151130Z 32002MPS 280V350 CAVOK 21/16 Q1012 NOSIG
ZBAA,2025-09-15 12:00,ZBAA 151200Z 35002MPS 310V070 CAVOK 21/16 Q1012 NOSIG
ZBAA,2025-09-15 12:30,ZBAA 151230Z 33003MPS 9999 SCT033 21/16 Q1012 NOSIG
ZBAA,2025-09-15 13:00,ZBAA 151300Z VRB01MPS CAVOK 20/17 Q1011 NOSIG
ZBAA,2025-09-15 13:30,ZBAA 151330Z 31006MPS 9999 -RA SCT033 21/17 Q1012 NOSIG
ZBAA,2025-09-15 13:46,ZBAA 151346Z 13002MPS 010V180 9999 FEW033 20/17 Q1011 NOSIG
ZBAA,2025-09-15 14:00,ZBAA 151400Z VRB01MPS 9999 FEW033 21/17 Q1011 NOSIG
ZBAA,2025-09-15 14:30,ZBAA 151430Z 34003MPS 9999 FEW040 21/17 Q1012 NOSIG
ZBAA,2025-09-15 15:00,ZBAA 151500Z 31004MPS 9999 FEW040 21/17 Q1012 NOSIG
ZBAA,2025-09-15 15:30,ZBAA 151530Z 36002MPS 320V050 CAVOK 21/17 Q1012 NOSIG
ZBAA,2025-09-15 16:00,ZBAA 151600Z 35004MPS 9999 SCT040 21/17 Q1012 NOSIG
ZBAA,2025-09-15 16:30,ZBAA 151630Z 36003MPS 9999 SCT040 21/17 Q1012 NOSIG
ZBAA,2025-09-15 17:00,ZBAA 151700Z 34002MPS CAVOK 21/17 Q1011 NOSIG
ZBAA,2025-09-15 17:30,ZBAA 151730Z 35003MPS CAVOK 19/18 Q1011 NOSIG
ZBAA,2025-09-15 18:00,ZBAA 151800Z 34004MPS CAVOK 20/18 Q1011 NOSIG
ZBAA,2025-09-15 18:30,ZBAA 151830Z 36003MPS CAVOK 19/18 Q1011 NOSIG
ZBAA,2025-09-15 19:00,ZBAA 151900Z 33003MPS CAVOK 20/18 Q1011 NOSIG
ZBAA,2025-09-15 19:30,ZBAA 151930Z 32004MPS CAVOK 20/18 Q1011 NOSIG
ZBAA,2025-09-15 20:00,ZBAA 152000Z 34004MPS CAVOK 20/17 Q1011 NOSIG
ZBAA,2025-09-15 20:30,ZBAA 152030Z 36003MPS CAVOK 19/17 Q1011 NOSIG
ZBAA,2025-09-15 21:00,ZBAA 152100Z 34003MPS CAVOK 19/18 Q1011 NOSIG
ZBAA,2025-09-15 21:30,ZBAA 152130Z 35004MPS CAVOK 20/17 Q1011 NOSIG
ZBAA,2025-09-15 22:00,ZBAA 152200Z 35003MPS CAVOK 19/17 Q1011 NOSIG
ZBAA,2025-09-15 22:30,ZBAA 152230Z 36003MPS CAVOK 19/17 Q1012 NOSIG
ZBAA,2025-09-15 23:00,ZBAA 152300Z 36002MPS CAVOK 20/18 Q1012 BECMG TL0040 35007G12MPS
ZBAA,2025-09-15 23:30,ZBAA 152330Z 03003MPS CAVOK 21/17 Q1013 NOSIG
ZBAA,2025-09-16 00:00,ZBAA 160000Z 02002MPS 350V050 CAVOK 22/17 Q1013 NOSIG
ZBAA,2025-09-16 00:30,ZBAA 160030Z 01002MPS CAVOK 22/17 Q1014 NOSIG
ZBAA,2025-09-16 01:00,ZBAA 160100Z 03002MPS 350V060 CAVOK 23/17 Q1015 NOSIG
ZBAA,2025-09-16 01:30,ZBAA 160130Z 02002MPS 340V060 CAVOK 24/16 Q1016 NOSIG
ZBAA,2025-09-16 02:00,ZBAA 160200Z 02004MPS 350V050 CAVOK 25/14 Q1016 NOSIG
ZBAA,2025-09-16 02:30,ZBAA 160230Z 03003MPS 360V060 CAVOK 24/13 Q1016 NOSIG
ZBAA,2025-09-16 03:00,ZBAA 160300Z 01004MPS CAVOK 25/12 Q1016 NOSIG
ZBAA,2025-09-16 03:30,ZBAA 160330Z 01006MPS CAVOK 24/11 Q1015 NOSIG
ZBAA,2025-09-16 04:00,ZBAA 160400Z 01004MPS CAVOK 24/11 Q1015 NOSIG
ZBAA,2025-09-16 04:30,ZBAA 160430Z 01004MPS CAVOK 23/10 Q1016 NOSIG
ZBAA,2025-09-16 05:00,ZBAA 160500Z 36004MPS 320V040 CAVOK 23/10 Q1016 NOSIG
ZBAA,2025-09-16 05:30,ZBAA 160530Z 35004MPS 320V030 CAVOK 23/11 Q1015 NOSIG
ZBAA,2025-09-16 06:00,ZBAA 160600Z 02004MPS CAVOK 22/08 Q1016 NOSIG
ZBAA,2025-09-16 06:30,ZBAA 160630Z 03002MPS 350V090 CAVOK 21/10 Q1015 NOSIG
ZBAA,2025-09-16 07:00,ZBAA 160700Z 03003MPS 360V070 9999 -RA NSC 21/09 Q1015 NOSIG
ZBAA,2025-09-16 07:30,ZBAA 160730Z 02003MPS 340V050 CAVOK 22/09 Q1015 NOSIG
ZBAA,2025-09-16 08:00,ZBAA 160800Z 03004MPS CAVOK 22/08 Q1015 NOSIG
ZBAA,2025-09-16 08:30,ZBAA 160830Z 03003MPS 360V070 CAVOK 22/08 Q1015 NOSIG
ZBAA,2025-09-16 09:00,ZBAA 160900Z 02003MPS 340V040 CAVOK 21/09 Q1016 NOSIG
ZBAA,2025-09-16 09:30,ZBAA 160930Z 04002MPS CAVOK 21/10 Q1016 NOSIG
ZBAA,2025-09-16 10:00,ZBAA 161000Z 04002MPS CAVOK 20/11 Q1016 NOSIG
ZBAA,2025-09-16 10:30,ZBAA 161030Z 03002MPS CAVOK 19/09 Q1016 NOSIG
ZBAA,2025-09-16 11:00,ZBAA 161100Z 04002MPS CAVOK 18/10 Q1017 NOSIG
ZBAA,2025-09-16 11:30,ZBAA 161130Z 03003MPS 350V070 CAVOK 20/08 Q1017 NOSIG
ZBAA,2025-09-16 12:00,ZBAA 161200Z 03004MPS 360V060 CAVOK 21/05 Q1017 NOSIG
ZBAA,2025-09-16 12:30,ZBAA 161230Z 02004MPS CAVOK 21/04 Q1018 NOSIG
ZBAA,2025-09-16 13:00,ZBAA 161300Z 02003MPS CAVOK 19/06 Q1018 NOSIG
ZBAA,2025-09-16 13:30,ZBAA 161330Z 35003MPS CAVOK 18/08 Q1018 NOSIG
ZBAA,2025-09-16 14:00,ZBAA 161400Z 01003MPS CAVOK 18/08 Q1018 NOSIG
ZBAA,2025-09-16 14:30,ZBAA 161430Z 01003MPS CAVOK 16/08 Q1018 NOSIG
ZBAA,2025-09-16 15:00,ZBAA 161500Z 36003MPS CAVOK 15/08 Q1018 NOSIG
ZBAA,2025-09-16 15:30,ZBAA 161530Z 35003MPS CAVOK 15/09 Q1019 NOSIG
ZBAA,2025-09-16 16:00,ZBAA 161600Z 35002MPS CAVOK 15/09 Q1019 NOSIG
ZBAA,2025-09-16 16:30,ZBAA 161630Z 34003MPS CAVOK 14/09 Q1019 NOSIG
ZBAA,2025-09-16 17:00,ZBAA 161700Z 34003MPS CAVOK 14/08 Q1019 NOSIG
ZBAA,2025-09-16 17:30,ZBAA 161730Z 35002MPS CAVOK 15/09 Q1019 NOSIG
ZBAA,2025-09-16 18:00,ZBAA 161800Z 36002MPS CAVOK 13/10 Q1019 NOSIG
ZBAA,2025-09-16 18:30,ZBAA 161830Z 01002MPS CAVOK 13/09 Q1019 NOSIG
ZBAA,2025-09-16 19:00,ZBAA 161900Z 01002MPS CAVOK 12/09 Q1019 NOSIG
ZBAA,2025-09-16 19:30,ZBAA 161930Z 01002MPS CAVOK 13/09 Q1020 NOSIG
ZBAA,2025-09-16 20:00,ZBAA 162000Z 36002MPS CAVOK 12/08 Q1019 NOSIG
ZBAA,2025-09-16 20:30,ZBAA 162030Z 36002MPS CAVOK 12/09 Q1019 NOSIG
ZBAA,2025-09-16 21:00,ZBAA 162100Z 35002MPS CAVOK 12/08 Q1020 NOSIG
ZBAA,2025-09-16 21:30,ZBAA 162130Z 02002MPS 360V060 CAVOK 11/09 Q1019 NOSIG
ZBAA,2025-09-16 22:00,ZBAA 162200Z 35003MPS CAVOK 11/08 Q1020 NOSIG
ZBAA,2025-09-16 22:30,ZBAA 162230Z 35002MPS CAVOK 12/09 Q1020 NOSIG
ZBAA,2025-09-16 23:00,ZBAA 162300Z 02002MPS 350V060 CAVOK 13/10 Q1020 NOSIG
ZBAA,2025-09-16 23:30,ZBAA 162330Z 36003MPS CAVOK 14/10 Q1021 NOSIG
ZBAA,2025-09-17 00:00,ZBAA 170000Z 01002MPS CAVOK 17/10 Q1021 NOSIG
ZBAA,2025-09-17 00:30,ZBAA 170030Z 02002MPS CAVOK 18/10 Q1021 NOSIG
ZBAA,2025-09-17 01:00,ZBAA 170100Z 02002MPS CAVOK 18/10 Q1022 NOSIG
ZBAA,2025-09-17 01:30,ZBAA 170130Z 02002MPS CAVOK 19/09 Q1022 NOSIG
ZBAA,2025-09-17 02:00,ZBAA 170200Z VRB01MPS CAVOK 19/09 Q1022 NOSIG
ZBAA,2025-09-17 02:30,ZBAA 170230Z VRB01MPS CAVOK 19/10 Q1022 NOSIG
ZBAA,2025-09-17 03:00,ZBAA 170300Z 36002MPS 320V050 CAVOK 20/09 Q1022 NOSIG
ZBAA,2025-09-17 03:30,ZBAA 170330Z VRB01MPS CAVOK 21/09 Q1022 NOSIG
ZBAA,2025-09-17 04:00,ZBAA 170400Z 02002MPS 350V050 CAVOK 21/08 Q1021 NOSIG
ZBAA,2025-09-17 04:30,ZBAA 170430Z 34002MPS 270V030 CAVOK 23/07 Q1021 NOSIG
ZBAA,2025-09-17 05:00,ZBAA 170500Z 33002MPS 300V010 CAVOK 23/05 Q1020 NOSIG
ZBAA,2025-09-17 05:30,ZBAA 170530Z 01003MPS 320V050 CAVOK 22/06 Q1020 NOSIG
ZBAA,2025-09-17 06:00,ZBAA 170600Z VRB02MPS CAVOK 24/04 Q1019 NOSIG
ZBAA,2025-09-17 06:30,ZBAA 170630Z 35002MPS 240V050 CAVOK 25/05 Q1019 NOSIG
ZBAA,2025-09-17 07:00,ZBAA 170700Z VRB01MPS CAVOK 24/03 Q1019 NOSIG
ZBAA,2025-09-17 07:30,ZBAA 170730Z 33002MPS 250V050 CAVOK 25/04 Q1019 NOSIG
ZBAA,2025-09-17 08:00,ZBAA 170800Z VRB01MPS CAVOK 25/05 Q1019 NOSIG
ZBAA,2025-09-17 08:30,ZBAA 170830Z 14002MPS 090V160 CAVOK 24/06 Q1019 NOSIG
ZBAA,2025-09-17 09:00,ZBAA 170900Z VRB01MPS CAVOK 23/05 Q1019 NOSIG
ZBAA,2025-09-17 09:30,ZBAA 170930Z 19002MPS 150V250 CAVOK 23/08 Q1019 NOSIG
ZBAA,2025-09-17 10:00,ZBAA 171000Z 18002MPS CAVOK 20/09 Q1019 NOSIG
ZBAA,2025-09-17 10:30,ZBAA 171030Z 16002MPS 140V200 CAVOK 17/10 Q1019 NOSIG
ZBAA,2025-09-17 11:00,ZBAA 171100Z 18002MPS 150V260 CAVOK 17/10 Q1019 NOSIG
ZBAA,2025-09-17 11:30,ZBAA 171130Z 19002MPS 140V250 CAVOK 16/10 Q1020 NOSIG
ZBAA,2025-09-17 12:00,ZBAA 171200Z 22003MPS 190V270 CAVOK 21/06 Q1020 NOSIG
ZBAA,2025-09-17 12:30,ZBAA 171230Z VRB01MPS CAVOK 15/09 Q1020 NOSIG
ZBAA,2025-09-17 13:00,ZBAA 171300Z 03001MPS CAVOK 13/10 Q1021 NOSIG
ZBAA,2025-09-17 13:30,ZBAA 171330Z VRB01MPS CAVOK 13/11 Q1021 NOSIG
ZBAA,2025-09-17 14:00,ZBAA 171400Z 00000MPS CAVOK 12/11 Q1021 NOSIG
ZBAA,2025-09-17 14:30,ZBAA 171430Z VRB01MPS CAVOK 12/11 Q1021 NOSIG
ZBAA,2025-09-17 15:00,ZBAA 171500Z VRB01MPS CAVOK 12/11 Q1021 NOSIG
ZBAA,2025-09-17 15:30,ZBAA 171530Z 34002MPS CAVOK 12/11 Q1021 NOSIG
ZBAA,2025-09-17 16:00,ZBAA 171600Z 34004MPS CAVOK 14/11 Q1021 NOSIG
ZBAA,2025-09-17 16:30,ZBAA 171630Z 01002MPS CAVOK 13/11 Q1021 NOSIG
ZBAA,2025-09-17 17:00,ZBAA 171700Z VRB01MPS CAVOK 12/11 Q1022 NOSIG
ZBAA,2025-09-17 17:30,ZBAA 171730Z 36002MPS CAVOK 12/10 Q1022 NOSIG
ZBAA,2025-09-17 18:00,ZBAA 171800Z 34002MPS CAVOK 11/10 Q1022 NOSIG
ZBAA,2025-09-17 18:30,ZBAA 171830Z 33003MPS CAVOK 12/10 Q1022 NOSIG
ZBAA,2025-09-17 19:00,ZBAA 171900Z 01002MPS CAVOK 12/10 Q1022 NOSIG
ZBAA,2025-09-17 19:30,ZBAA 171930Z 35003MPS CAVOK 11/10 Q1022 NOSIG
ZBAA,2025-09-17 20:00,ZBAA 172000Z 36003MPS CAVOK 11/10 Q1022 NOSIG
ZBAA,2025-09-17 20:30,ZBAA 172030Z 36003MPS CAVOK 12/10 Q1022 NOSIG
ZBAA,2025-09-17 21:00,ZBAA 172100Z 36003MPS CAVOK 11/10 Q1022 NOSIG
ZBAA,2025-09-17 21:30,ZBAA 172130Z 36002MPS CAVOK 11/10 Q1023 NOSIG
ZBAA,2025-09-17 22:00,ZBAA 172200Z 35003MPS CAVOK 11/10 Q1023 NOSIG
ZBAA,2025-09-17 22:30,ZBAA 172230Z 35003MPS CAVOK 11/10 Q1023 NOSIG
ZBAA,2025-09-17 23:00,ZBAA 172300Z 35004MPS CAVOK 14/11 Q1023 NOSIG
ZBAA,2025-09-17 23:30,ZBAA 172330Z 36004MPS CAVOK 16/11 Q1023 NOSIG
ZBAA,2025-09-18 00:00,ZBAA 180000Z 36003MPS CAVOK 18/11 Q1023 NOSIG
ZBAA,2025-09-18 00:30,ZBAA 180030Z 36004MPS CAVOK 19/10 Q1024 NOSIG
ZBAA,2025-09-18 01:00,ZBAA 180100Z 36004MPS 320V020 CAVOK 21/09 Q1024 NOSIG
ZBAA,2025-09-18 01:30,ZBAA 180130Z 35003MPS CAVOK 22/10 Q1024 NOSIG
ZBAA,2025-09-18 02:00,ZBAA 180200Z 01003MPS 340V120 CAVOK 22/09 Q1023 NOSIG
ZBAA,2025-09-18 02:30,ZBAA 180230Z 36003MPS 340V040 CAVOK 23/08 Q1023 NOSIG
ZBAA,2025-09-18 03:00,ZBAA 180300Z 35002MPS 280V040 CAVOK 24/08 Q1023 NOSIG
ZBAA,2025-09-18 03:30,ZBAA 180330Z VRB02MPS CAVOK 24/08 Q1022 NOSIG
ZBAA,2025-09-18 04:00,ZBAA 180400Z 30002MPS 240V350 CAVOK 24/09 Q1022 NOSIG
ZBAA,2025-09-18 04:30,ZBAA 180430Z VRB01MPS CAVOK 24/09 Q1021 NOSIG
ZBAA,2025-09-18 05:00,ZBAA 180500Z 28002MPS 230V030 CAVOK 26/09 Q1021 NOSIG
ZBAA,2025-09-18 05:30,ZBAA 180530Z VRB01MPS CAVOK 26/08 Q1021 NOSIG
ZBAA,2025-09-18 06:00,ZBAA 180600Z VRB02MPS CAVOK 26/03 Q1021 NOSIG
ZBAA,2025-09-18 06:30,ZBAA 180630Z VRB02MPS CAVOK 27/03 Q1020 NOSIG
ZBAA,2025-09-18 07:00,ZBAA 180700Z VRB02G07MPS CAVOK 26/03 Q1020 NOSIG
ZBAA,2025-09-18 07:30,ZBAA 180730Z VRB01MPS CAVOK 27/04 Q1020 NOSIG
ZBAA,2025-09-18 08:00,ZBAA 180800Z VRB01MPS CAVOK 26/05 Q1019 NOSIG
ZBAA,2025-09-18 08:30,ZBAA 180830Z 13001MPS CAVOK 25/08 Q1019 NOSIG
ZBAA,2025-09-18 09:00,ZBAA 180900Z 12002MPS CAVOK 23/09 Q1019 NOSIG
ZBAA,2025-09-18 09:30,ZBAA 180930Z 12002MPS CAVOK 21/10 Q1019 NOSIG
ZBAA,2025-09-18 10:00,ZBAA 181000Z 10001MPS CAVOK 19/13 Q1019 NOSIG
ZBAA,2025-09-18 10:30,ZBAA 181030Z 13002MPS CAVOK 18/13 Q1019 NOSIG
ZBAA,2025-09-18 11:00,ZBAA 181100Z 14002MPS CAVOK 17/12 Q1019 NOSIG
ZBAA,2025-09-18 11:30,ZBAA 181130Z 17002MPS CAVOK 17/13 Q1019 NOSIG
ZBAA,2025-09-18 12:00,ZBAA 181200Z 16001MPS CAVOK 16/12 Q1019 NOSIG
ZBAA,2025-09-18 12:30,ZBAA 181230Z 17001MPS CAVOK 16/12 Q1020 NOSIG
ZBAA,2025-09-18 13:00,ZBAA 181300Z VRB01MPS CAVOK 15/13 Q1020 NOSIG
ZBAA,2025-09-18 13:30,ZBAA 181330Z VRB01MPS CAVOK 15/13 Q1020 NOSIG
ZBAA,2025-09-18 14:00,ZBAA 181400Z 08001MPS CAVOK 15/14 Q1020 NOSIG
ZBAA,2025-09-18 14:30,ZBAA 181430Z VRB01MPS CAVOK 15/14 Q1020 NOSIG
ZBAA,2025-09-18 15:00,ZBAA 181500Z 06002MPS CAVOK 16/14 Q1019 NOSIG
ZBAA,2025-09-18 15:30,ZBAA 181530Z 07001MPS CAVOK 15/14 Q1019 NOSIG
ZBAA,2025-09-18 16:00,ZBAA 181600Z 06001MPS CAVOK 15/14 Q1019 NOSIG
ZBAA,2025-09-18 16:30,ZBAA 181630Z VRB01MPS CAVOK 15/13 Q1019 NOSIG
ZBAA,2025-09-18 17:00,ZBAA 181700Z VRB01MPS CAVOK 16/12 Q1019 NOSIG
ZBAA,2025-09-18 17:30,ZBAA 181730Z 03001MPS CAVOK 15/13 Q1019 NOSIG
ZBAA,2025-09-18 18:00,ZBAA 181800Z 02001MPS CAVOK 15/13 Q1019 NOSIG
ZBAA,2025-09-18 18:30,ZBAA 181830Z 05001MPS CAVOK 15/13 Q1019 NOSIG
ZBAA,2025-09-18 19:00,ZBAA 181900Z 05001MPS CAVOK 15/13 Q1019 NOSIG
ZBAA,2025-09-18 19:30,ZBAA 181930Z 04001MPS CAVOK 14/13 Q1018 NOSIG
ZBAA,2025-09-18 20:00,ZBAA 182000Z VRB01MPS CAVOK 14/13 Q1018 NOSIG
ZBAA,2025-09-18 20:30,ZBAA 182030Z 00000MPS CAVOK 15/13 Q1018 NOSIG
ZBAA,2025-09-18 21:00,ZBAA 182100Z 36001MPS CAVOK 14/13 Q1018 NOSIG
ZBAA,2025-09-18 21:30,ZBAA 182130Z 02001MPS CAVOK 14/13 Q1018 NOSIG
ZBAA,2025-09-18 22:00,ZBAA 182200Z 02001MPS CAVOK 14/13 Q1018 NOSIG
ZBAA,2025-09-18 22:30,ZBAA 182230Z 00000MPS CAVOK 15/13 Q1018 NOSIG
ZBAA,2025-09-18 23:00,ZBAA 182300Z 05001MPS CAVOK 15/14 Q1018 NOSIG
ZBAA,2025-09-18 23:30,ZBAA 182330Z VRB01MPS CAVOK 16/14 Q1018 NOSIG
ZBAA,2025-09-19 00:00,ZBAA 190000Z VRB01MPS CAVOK 17/13 Q1018 NOSIG
ZBAA,2025-09-19 00:30,ZBAA 190030Z VRB01MPS CAVOK 17/14 Q1018 NOSIG
ZBAA,2025-09-19 01:00,ZBAA 190100Z 15002MPS CAVOK 18/14 Q1018 NOSIG
ZBAA,2025-09-19 01:30,ZBAA 190130Z 28002MPS 240V330 CAVOK 18/13 Q1018 NOSIG
ZBAA,2025-09-19 02:00,ZBAA 190200Z 26002MPS 230V320 CAVOK 19/13 Q1018 NOSIG
ZBAA,2025-09-19 02:30,ZBAA 190230Z VRB02MPS CAVOK 19/12 Q1018 NOSIG
ZBAA,2025-09-19 03:00,ZBAA 190300Z 26002MPS 210V290 CAVOK 19/12 Q1018 NOSIG
ZBAA,2025-09-19 03:30,ZBAA 190330Z VRB02MPS CAVOK 21/13 Q1017 NOSIG
ZBAA,2025-09-19 04:00,ZBAA 190400Z 20003MPS 130V260 CAVOK 22/13 Q1017 NOSIG
ZBAA,2025-09-19 04:30,ZBAA 190430Z VRB04MPS CAVOK 23/11 Q1017 NOSIG
ZBAA,2025-09-19 05:00,ZBAA 190500Z 22004MPS 160V300 CAVOK 24/11 Q1016 NOSIG
ZBAA,2025-09-19 05:30,ZBAA 190530Z 21006MPS 180V240 CAVOK 24/10 Q1015 NOSIG
ZBAA,2025-09-19 06:00,ZBAA 190600Z 21005MPS 170V250 CAVOK 24/09 Q1015 NOSIG
ZBAA,2025-09-19 06:30,ZBAA 190630Z 20005MPS 150V230 CAVOK 25/10 Q1015 NOSIG
ZBAA,2025-09-19 07:00,ZBAA 190700Z 20005MPS 170V240 CAVOK 24/10 Q1014 NOSIG
ZBAA,2025-09-19 07:30,ZBAA 190730Z 24005MPS CAVOK 24/09 Q1014 NOSIG
ZBAA,2025-09-19 07:34,ZBAA 190734Z 18005MPS CAVOK 25/10 Q1014 NOSIG
ZBAA,2025-09-19 08:00,ZBAA 190800Z 19005MPS CAVOK 24/10 Q1014 NOSIG
ZBAA,2025-09-19 08:30,ZBAA 190830Z 19004MPS 160V240 CAVOK 24/10 Q1014 NOSIG
ZBAA,2025-09-19 09:00,ZBAA 190900Z 17004MPS 140V200 CAVOK 23/11 Q1014 NOSIG
ZBAA,2025-09-19 09:30,ZBAA 190930Z 18004MPS CAVOK 22/11 Q1014 NOSIG
ZBAA,2025-09-19 10:00,ZBAA 191000Z 17003MPS CAVOK 21/11 Q1014 NOSIG
ZBAA,2025-09-19 10:30,ZBAA 191030Z 15002MPS CAVOK 19/12 Q1014 NOSIG
ZBAA,2025-09-19 11:00,ZBAA 191100Z 15002MPS CAVOK 17/13 Q1014 NOSIG
ZBAA,2025-09-19 11:30,ZBAA 191130Z 16002MPS CAVOK 18/12 Q1015 NOSIG
ZBAA,2025-09-19 12:00,ZBAA 191200Z 16002MPS CAVOK 17/13 Q1015 NOSIG
ZBAA,2025-09-19 12:30,ZBAA 191230Z 17002MPS 140V200 CAVOK 17/13 Q1015 NOSIG
ZBAA,2025-09-19 13:00,ZBAA 191300Z 18003MPS 150V210 CAVOK 17/13 Q1015 NOSIG
ZBAA,2025-09-19 13:30,ZBAA 191330Z 17002MPS CAVOK 16/13 Q1015 NOSIG
ZBAA,2025-09-19 14:00,ZBAA 191400Z 18002MPS 150V220 CAVOK 16/13 Q1015 NOSIG
ZBAA,2025-09-19 14:30,ZBAA 191430Z 16002MPS CAVOK 14/12 Q1015 NOSIG
ZBAA,2025-09-19 15:00,ZBAA 191500Z VRB01MPS CAVOK 14/12 Q1015 NOSIG
ZBAA,2025-09-19 15:30,ZBAA 191530Z VRB01MPS CAVOK 14/13 Q1015 NOSIG
ZBAA,2025-09-19 16:00,ZBAA 191600Z VRB01MPS CAVOK 14/13 Q1015 NOSIG
ZBAA,2025-09-19 16:30,ZBAA 191630Z 06002MPS CAVOK 14/13 Q1015 NOSIG
ZBAA,2025-09-19 17:00,ZBAA 191700Z 00000MPS CAVOK 14/12 Q1014 NOSIG
ZBAA,2025-09-19 17:30,ZBAA 191730Z VRB01MPS CAVOK 13/12 Q1014 NOSIG
ZBAA,2025-09-19 18:00,ZBAA 191800Z 02002MPS CAVOK 13/12 Q1014 NOSIG
ZBAA,2025-09-19 18:30,ZBAA 191830Z 03002MPS CAVOK 12/12 Q1014 NOSIG
ZBAA,2025-09-19 19:00,ZBAA 191900Z 04001MPS CAVOK 12/12 Q1014 NOSIG
ZBAA,2025-09-19 19:30,ZBAA 191930Z 05001MPS CAVOK 12/12 Q1015 NOSIG
ZBAA,2025-09-19 20:00,ZBAA 192000Z 00000MPS CAVOK 12/11 Q1015 NOSIG
ZBAA,2025-09-19 20:30,ZBAA 192030Z VRB01MPS CAVOK 12/11 Q1015 NOSIG
ZBAA,2025-09-19 21:00,ZBAA 192100Z 36002MPS CAVOK 12/12 Q1015 NOSIG
ZBAA,2025-09-19 21:30,ZBAA 192130Z 35002MPS CAVOK 12/11 Q1015 NOSIG
ZBAA,2025-09-19 22:00,ZBAA 192200Z 35001MPS CAVOK 12/11 Q1016 NOSIG
ZBAA,2025-09-19 22:30,ZBAA 192230Z 30003MPS CAVOK 14/12 Q1016 NOSIG
ZBAA,2025-09-19 23:00,ZBAA 192300Z 34004MPS CAVOK 15/13 Q1016 NOSIG
ZBAA,2025-09-19 23:30,ZBAA 192330Z 36003MPS CAVOK 16/14 Q1016 NOSIG
ZBAA,2025-09-20 00:00,ZBAA 200000Z 01002MPS CAVOK 17/14 Q1016 NOSIG
ZBAA,2025-09-20 00:30,ZBAA 200030Z 34003MPS CAVOK 20/14 Q1016 NOSIG
ZBAA,2025-09-20 01:00,ZBAA 200100Z 35003MPS CAVOK 21/13 Q1016 NOSIG
ZBAA,2025-09-20 01:30,ZBAA 200130Z 34003MPS 310V010 CAVOK 23/13 Q1017 NOSIG
ZBAA,2025-09-20 02:00,ZBAA 200200Z 34002MPS 280V020 CAVOK 23/13 Q1016 NOSIG
ZBAA,2025-09-20 02:30,ZBAA 200230Z 33002MPS 290V360 CAVOK 24/13 Q1016 NOSIG
ZBAA,2025-09-20 03:00,ZBAA 200300Z VRB01MPS CAVOK 25/13 Q1016 NOSIG
ZBAA,2025-09-20 03:30,ZBAA 200330Z VRB01MPS CAVOK 26/13 Q1016 NOSIG
ZBAA,2025-09-20 04:00,ZBAA 200400Z VRB01MPS CAVOK 27/12 Q1015 NOSIG
ZBAA,2025-09-20 04:30,ZBAA 200430Z 14002MPS 090V260 CAVOK 26/12 Q1015 NOSIG
ZBAA,2025-09-20 05:00,ZBAA 200500Z 16002MPS 100V240 CAVOK 27/13 Q1015 NOSIG
ZBAA,2025-09-20 05:30,ZBAA 200530Z 15002MPS 110V180 CAVOK 27/12 Q1014 NOSIG
ZBAA,2025-09-20 06:00,ZBAA 200600Z 18002MPS 080V230 CAVOK 27/12 Q1014 NOSIG
ZBAA,2025-09-20 06:30,ZBAA 200630Z 20002MPS 160V240 CAVOK 27/12 Q1014 NOSIG
ZBAA,2025-09-20 07:00,ZBAA 200700Z 13002MPS 100V180 CAVOK 27/14 Q1014 NOSIG
ZBAA,2025-09-20 07:30,ZBAA 200730Z VRB02MPS CAVOK 27/13 Q1014 NOSIG
ZBAA,2025-09-20 08:00,ZBAA 200800Z VRB01MPS CAVOK 26/15 Q1014 NOSIG
ZBAA,2025-09-20 08:30,ZBAA 200830Z 13001MPS CAVOK 26/16 Q1014 NOSIG
ZBAA,2025-09-20 09:00,ZBAA 200900Z 10001MPS CAVOK 24/16 Q1014 NOSIG
ZBAA,2025-09-20 09:30,ZBAA 200930Z 13002MPS CAVOK 21/17 Q1015 NOSIG
ZBAA,2025-09-20 10:00,ZBAA 201000Z VRB01MPS CAVOK 20/16 Q1015 NOSIG
ZBAA,2025-09-20 10:30,ZBAA 201030Z VRB01MPS CAVOK 19/15 Q1015 NOSIG
ZBAA,2025-09-20 11:00,ZBAA 201100Z 09002MPS 070V140 CAVOK 18/15 Q1016 NOSIG
ZBAA,2025-09-20 11:30,ZBAA 201130Z VRB01MPS CAVOK 18/15 Q1016 NOSIG
ZBAA,2025-09-20 12:00,ZBAA 201200Z 08002MPS CAVOK 17/16 Q1017 NOSIG
ZBAA,2025-09-20 12:30,ZBAA 201230Z 07002MPS CAVOK 17/16 Q1017 NOSIG
ZBAA,2025-09-20 13:00,ZBAA 201300Z 09002MPS 060V130 CAVOK 18/15 Q1017 NOSIG
ZBAA,2025-09-20 13:30,ZBAA 201330Z 08002MPS CAVOK 17/15 Q1018 NOSIG
ZBAA,2025-09-20 14:00,ZBAA 201400Z 36001MPS CAVOK 17/15 Q1018 NOSIG
ZBAA,2025-09-20 14:30,ZBAA 201430Z VRB01MPS CAVOK 17/15 Q1018 NOSIG
ZBAA,2025-09-20 15:00,ZBAA 201500Z 00000MPS CAVOK 16/15 Q1018 NOSIG
ZBAA,2025-09-20 15:30,ZBAA 201530Z VRB01MPS CAVOK 16/15 Q1018 NOSIG
ZBAA,2025-09-20 16:00,ZBAA 201600Z VRB01MPS CAVOK 15/15 Q1018 NOSIG
ZBAA,2025-09-20 16:30,ZBAA 201630Z 00000MPS CAVOK 15/14 Q1018 NOSIG
ZBAA,2025-09-20 17:00,ZBAA 201700Z VRB01MPS CAVOK 15/14 Q1019 NOSIG
ZBAA,2025-09-20 17:30,ZBAA 201730Z 01001MPS CAVOK 15/14 Q1019 NOSIG
ZBAA,2025-09-20 18:00,ZBAA 201800Z 05001MPS CAVOK 15/14 Q1019 NOSIG
ZBAA,2025-09-20 18:30,ZBAA 201830Z VRB01MPS CAVOK 15/14 Q1019 NOSIG
ZBAA,2025-09-20 19:00,ZBAA 201900Z VRB01MPS CAVOK 14/13 Q1019 NOSIG
ZBAA,2025-09-20 19:30,ZBAA 201930Z 05001MPS CAVOK 14/13 Q1019 NOSIG
ZBAA,2025-09-20 20:00,ZBAA 202000Z 36002MPS CAVOK 14/13 Q1019 NOSIG
ZBAA,2025-09-20 20:30,ZBAA 202030Z 35001MPS CAVOK 14/14 Q1020 NOSIG
ZBAA,2025-09-20 21:00,ZBAA 202100Z 34002MPS CAVOK 13/13 Q1020 NOSIG
ZBAA,2025-09-20 21:30,ZBAA 202130Z 36002MPS CAVOK 14/13 Q1020 NOSIG
ZBAA,2025-09-20 22:00,ZBAA 202200Z 36002MPS CAVOK 13/13 Q1021 NOSIG
ZBAA,2025-09-20 22:30,ZBAA 202230Z 36002MPS CAVOK 13/12 Q1021 NOSIG
ZBAA,2025-09-20 23:00,ZBAA 202300Z 36003MPS CAVOK 15/13 Q1021 NOSIG
ZBAA,2025-09-20 23:30,ZBAA 202330Z 36002MPS CAVOK 16/14 Q1021 NOSIG
ZBAA,2025-09-21 00:00,ZBAA 210000Z 36003MPS CAVOK 18/14 Q1021 NOSIG
ZBAA,2025-09-21 00:30,ZBAA 210030Z 35002MPS CAVOK 20/14 Q1022 NOSIG
ZBAA,2025-09-21 01:00,ZBAA 210100Z 01002MPS 330V040 CAVOK 21/13 Q1022 NOSIG
ZBAA,2025-09-21 01:30,ZBAA 210130Z 01002MPS 300V050 CAVOK 22/12 Q1022 NOSIG
ZBAA,2025-09-21 02:00,ZBAA 210200Z 36002MPS 310V040 CAVOK 24/12 Q1022 NOSIG
ZBAA,2025-09-21 02:30,ZBAA 210230Z VRB01MPS CAVOK 24/13 Q1022 NOSIG
ZBAA,2025-09-21 03:00,ZBAA 210300Z 35002MPS 290V040 CAVOK 25/13 Q1022 NOSIG
ZBAA,2025-09-21 03:30,ZBAA 210330Z 25002MPS 190V330 CAVOK 24/14 Q1021 NOSIG
ZBAA,2025-09-21 04:00,ZBAA 210400Z VRB01MPS CAVOK 26/15 Q1021 NOSIG
ZBAA,2025-09-21 04:30,ZBAA 210430Z VRB02MPS CAVOK 26/15 Q1020 NOSIG
ZBAA,2025-09-21 05:00,ZBAA 210500Z VRB01MPS CAVOK 27/15 Q1020 NOSIG
ZBAA,2025-09-21 05:30,ZBAA 210530Z VRB01MPS CAVOK 26/14 Q1019 NOSIG
ZBAA,2025-09-21 06:00,ZBAA 210600Z 15002MPS 100V200 CAVOK 27/15 Q1019 NOSIG
ZBAA,2025-09-21 06:30,ZBAA 210630Z VRB02MPS CAVOK 27/13 Q1019 NOSIG
ZBAA,2025-09-21 07:00,ZBAA 210700Z 16003MPS 130V190 CAVOK 27/14 Q1019 NOSIG
ZBAA,2025-09-21 07:30,ZBAA 210730Z 18003MPS 130V230 CAVOK 26/14 Q1019 NOSIG
ZBAA,2025-09-21 08:00,ZBAA 210800Z 19003MPS 170V230 CAVOK 26/14 Q1019 NOSIG
ZBAA,2025-09-21 08:30,ZBAA 210830Z 19003MPS CAVOK 26/15 Q1019 NOSIG
ZBAA,2025-09-21 09:00,ZBAA 210900Z 14001MPS CAVOK 24/17 Q1019 NOSIG
ZBAA,2025-09-21 09:30,ZBAA 210930Z 15002MPS CAVOK 23/17 Q1019 NOSIG
ZBAA,2025-09-21 10:00,ZBAA 211000Z 15001MPS CAVOK 22/17 Q1019 NOSIG
ZBAA,2025-09-21 10:30,ZBAA 211030Z 16002MPS CAVOK 22/16 Q1020 NOSIG
ZBAA,2025-09-21 11:00,ZBAA 211100Z 15002MPS CAVOK 22/16 Q1020 NOSIG
ZBAA,2025-09-21 11:30,ZBAA 211130Z 14002MPS CAVOK 22/16 Q1020 NOSIG
ZBAA,2025-09-21 12:00,ZBAA 211200Z 13002MPS CAVOK 22/16 Q1020 NOSIG
ZBAA,2025-09-21 12:30,ZBAA 211230Z 14003MPS CAVOK 23/15 Q1020 NOSIG
ZBAA,2025-09-21 13:00,ZBAA 211300Z 15003MPS CAVOK 22/15 Q1020 NOSIG
ZBAA,2025-09-21 13:30,ZBAA 211330Z 15003MPS CAVOK 22/15 Q1020 NOSIG
ZBAA,2025-09-21 14:00,ZBAA 211400Z 16002MPS CAVOK 21/15 Q1020 NOSIG
ZBAA,2025-09-21 14:30,ZBAA 211430Z 15002MPS CAVOK 21/15 Q1021 NOSIG
ZBAA,2025-09-21 15:00,ZBAA 211500Z 17002MPS CAVOK 20/15 Q1021 NOSIG
ZBAA,2025-09-21 15:30,ZBAA 211530Z VRB01MPS CAVOK 19/16 Q1021 NOSIG
ZBAA,2025-09-21 16:00,ZBAA 211600Z VRB01MPS CAVOK 19/16 Q1021 NOSIG
ZBAA,2025-09-21 16:30,ZBAA 211630Z 12001MPS CAVOK 18/16 Q1021 NOSIG
ZBAA,2025-09-21 17:00,ZBAA 211700Z VRB01MPS CAVOK 18/16 Q1021 NOSIG
ZBAA,2025-09-21 17:30,ZBAA 211730Z 10002MPS 060V130 CAVOK 19/15 Q1021 NOSIG
ZBAA,2025-09-21 18:00,ZBAA 211800Z 11002MPS 090V150 CAVOK 19/15 Q1021 NOSIG
ZBAA,2025-09-21 18:30,ZBAA 211830Z 11002MPS 080V150 CAVOK 19/15 Q1021 NOSIG
ZBAA,2025-09-21 19:00,ZBAA 211900Z 13002MPS 090V160 CAVOK 18/16 Q1021 NOSIG
ZBAA,2025-09-21 19:30,ZBAA 211930Z 17002MPS CAVOK 19/14 Q1021 NOSIG
ZBAA,2025-09-21 20:00,ZBAA 212000Z 13002MPS 9999 -RA NSC 18/15 Q1021 NOSIG
ZBAA,2025-09-21 20:30,ZBAA 212030Z 15002MPS 9999 -RA NSC 18/15 Q1021 NOSIG
ZBAA,2025-09-21 21:00,ZBAA 212100Z 19004MPS 9999 -RA NSC 19/13 Q1021 NOSIG
ZBAA,2025-09-21 21:30,ZBAA 212130Z 20004MPS 9999 -RA NSC 20/12 Q1022 NOSIG
ZBAA,2025-09-21 22:00,ZBAA 212200Z 14002MPS 9999 -RA NSC 18/13 Q1022 NOSIG
ZBAA,2025-09-21 22:30,ZBAA 212230Z 14002MPS 9999 -RA NSC 17/14 Q1022 NOSIG
ZBAA,2025-09-21 23:00,ZBAA 212300Z 14002MPS 9999 -RA NSC 18/15 Q1023 NOSIG
ZBAA,2025-09-21 23:30,ZBAA 212330Z 10002MPS 060V150 CAVOK 18/15 Q1023 NOSIG
ZBAA,2025-09-22 00:00,ZBAA 220000Z 10002MPS 070V130 CAVOK 18/15 Q1023 NOSIG
ZBAA,2025-09-22 00:30,ZBAA 220030Z 10002MPS 060V140 9999 -RA NSC 18/16 Q1023 NOSIG
ZBAA,2025-09-22 01:00,ZBAA 220100Z 11002MPS 060V140 9999 -RA NSC 18/16 Q1023 NOSIG
ZBAA,2025-09-22 01:30,ZBAA 220130Z 10002MPS 060V130 CAVOK 19/15 Q1023 NOSIG
ZBAA,2025-09-22 02:00,ZBAA 220200Z VRB01MPS CAVOK 20/15 Q1023 NOSIG
ZBAA,2025-09-22 02:30,ZBAA 220230Z VRB02MPS CAVOK 21/15 Q1023 NOSIG
ZBAA,2025-09-22 03:00,ZBAA 220300Z 10002MPS 050V150 9999 SCT030 22/14 Q1022 NOSIG
ZBAA,2025-09-22 03:30,ZBAA 220330Z 11002MPS 050V180 9999 SCT030 22/14 Q1022 NOSIG
ZBAA,2025-09-22 04:00,ZBAA 220400Z 08002MPS 360V140 9999 SCT030 21/13 Q1022 NOSIG
ZBAA,2025-09-22 04:30,ZBAA 220430Z 12002MPS 080V160 9999 SCT030 21/14 Q1021 NOSIG
ZBAA,2025-09-22 05:00,ZBAA 220500Z 14003MPS 100V190 9999 SCT030 21/13 Q1021 NOSIG
ZBAA,2025-09-22 05:30,ZBAA 220530Z 12003MPS 070V150 9999 FEW030 21/13 Q1021 NOSIG
ZBAA,2025-09-22 06:00,ZBAA 220600Z 15003MPS 100V190 9999 FEW030 FEW030TCU 22/13 Q1021 NOSIG
ZBAA,2025-09-22 06:30,ZBAA 220630Z 16005MPS 130V190 9999 FEW030 FEW030TCU 22/13 Q1020 NOSIG
ZBAA,2025-09-22 07:00,ZBAA 220700Z 18004MPS 160V220 9999 FEW030 FEW030TCU 22/12 Q1020 NOSIG
ZBAA,2025-09-22 07:30,ZBAA 220730Z 18004MPS 130V230 9999 FEW030 21/12 Q1020 NOSIG
ZBAA,2025-09-22 08:00,ZBAA 220800Z 16003MPS 130V190 9999 FEW030 20/13 Q1020 NOSIG
ZBAA,2025-09-22 08:30,ZBAA 220830Z 15002MPS CAVOK 20/13 Q1020 NOSIG
ZBAA,2025-09-22 09:00,ZBAA 220900Z VRB01MPS CAVOK 20/13 Q1020 NOSIG
ZBAA,2025-09-22 09:30,ZBAA 220930Z 14002MPS 090V170 CAVOK 20/14 Q1020 NOSIG
ZBAA,2025-09-22 10:00,ZBAA 221000Z 12002MPS 080V150 CAVOK 19/14 Q1020 NOSIG
ZBAA,2025-09-22 10:30,ZBAA 221030Z 14002MPS CAVOK 19/14 Q1020 NOSIG
ZBAA,2025-09-22 11:00,ZBAA 221100Z 14002MPS CAVOK 19/14 Q1020 NOSIG
ZBAA,2025-09-22 11:30,ZBAA 221130Z VRB01MPS CAVOK 18/15 Q1020 NOSIG
ZBAA,2025-09-22 12:00,ZBAA 221200Z 13001MPS CAVOK 18/14 Q1021 NOSIG
ZBAA,2025-09-22 12:30,ZBAA 221230Z VRB01MPS CAVOK 18/15 Q1021 NOSIG
ZBAA,2025-09-22 13:00,ZBAA 221300Z VRB01MPS CAVOK 17/15 Q1021 NOSIG
ZBAA,2025-09-22 13:30,ZBAA 221330Z VRB01MPS CAVOK 18/15 Q1021 NOSIG
ZBAA,2025-09-22 14:00,ZBAA 221400Z VRB01MPS CAVOK 17/15 Q1021 NOSIG
ZBAA,2025-09-22 14:30,ZBAA 221430Z 00000MPS CAVOK 17/15 Q1021 NOSIG
ZBAA,2025-09-22 15:00,ZBAA 221500Z 00000MPS CAVOK 17/15 Q1021 NOSIG
ZBAA,2025-09-22 15:30,ZBAA 221530Z 10001MPS CAVOK 17/15 Q1021 NOSIG
ZBAA,2025-09-22 16:00,ZBAA 221600Z 06001MPS CAVOK 17/16 Q1021 NOSIG
ZBAA,2025-09-22 16:30,ZBAA 221630Z 03001MPS CAVOK 17/15 Q1021 NOSIG
ZBAA,2025-09-22 17:00,ZBAA 221700Z VRB01MPS CAVOK 17/15 Q1020 NOSIG
ZBAA,2025-09-22 17:30,ZBAA 221730Z 04001MPS CAVOK 16/15 Q1020 NOSIG
ZBAA,2025-09-22 18:00,ZBAA 221800Z 00000MPS CAVOK 16/15 Q1020 NOSIG
ZBAA,2025-09-22 18:30,ZBAA 221830Z VRB01MPS CAVOK 15/15 Q1020 NOSIG
ZBAA,2025-09-22 19:00,ZBAA 221900Z 02001MPS CAVOK 15/15 Q1020 NOSIG
ZBAA,2025-09-22 19:30,ZBAA 221930Z 02001MPS CAVOK 15/14 Q1020 NOSIG
ZBAA,2025-09-22 20:00,ZBAA 222000Z 36001MPS CAVOK 15/14 Q1019 NOSIG
ZBAA,2025-09-22 20:30,ZBAA 222030Z 35002MPS CAVOK 15/14 Q1019 NOSIG
ZBAA,2025-09-22 21:00,ZBAA 222100Z 01001MPS CAVOK 15/14 Q1019 NOSIG
ZBAA,2025-09-22 21:30,ZBAA 222130Z VRB01MPS CAVOK 15/14 Q1019 NOSIG
ZBAA,2025-09-22 22:00,ZBAA 222200Z 36002MPS CAVOK 14/13 Q1019 NOSIG
ZBAA,2025-09-22 22:30,ZBAA 222230Z VRB01MPS CAVOK 14/14 Q1019 NOSIG
ZBAA,2025-09-22 23:00,ZBAA 222300Z 35002MPS 300V010 CAVOK 15/14 Q1019 NOSIG
ZBAA,2025-09-22 23:30,ZBAA 222330Z VRB01MPS CAVOK 16/15 Q1019 NOSIG
ZBAA,2025-09-23 00:00,ZBAA 230000Z 01002MPS CAVOK 17/15 Q1019 NOSIG
ZBAA,2025-09-23 00:30,ZBAA 230030Z 34002MPS 290V010 CAVOK 18/15 Q1019 NOSIG
ZBAA,2025-09-23 01:00,ZBAA 230100Z 33002MPS CAVOK 18/15 Q1019 NOSIG
ZBAA,2025-09-23 01:30,ZBAA 230130Z 34002MPS 300V030 CAVOK 19/15 Q1019 NOSIG
ZBAA,2025-09-23 02:00,ZBAA 230200Z VRB01MPS CAVOK 20/14 Q1019 NOSIG
ZBAA,2025-09-23 02:30,ZBAA 230230Z VRB02MPS CAVOK 21/15 Q1018 NOSIG
ZBAA,2025-09-23 03:00,ZBAA 230300Z 34002MPS 280V010 CAVOK 21/15 Q1018 NOSIG
ZBAA,2025-09-23 03:30,ZBAA 230330Z VRB01MPS CAVOK 21/14 Q1018 NOSIG
ZBAA,2025-09-23 04:00,ZBAA 230400Z VRB01MPS CAVOK 21/14 Q1018 NOSIG
ZBAA,2025-09-23 04:30,ZBAA 230430Z 15002MPS 120V190 CAVOK 22/14 Q1017 NOSIG
ZBAA,2025-09-23 05:00,ZBAA 230500Z 17002MPS 090V230 CAVOK 21/14 Q1017 NOSIG
ZBAA,2025-09-23 05:30,ZBAA 230530Z 18003MPS 140V220 CAVOK 22/14 Q1016 NOSIG
ZBAA,2025-09-23 06:00,ZBAA 230600Z 22002MPS 120V250 CAVOK 22/14 Q1016 NOSIG
ZBAA,2025-09-23 06:30,ZBAA 230630Z 20002MPS 150V320 CAVOK 21/14 Q1016 NOSIG
ZBAA,2025-09-23 07:00,ZBAA 230700Z 15002MPS 120V200 CAVOK 21/14 Q1016 NOSIG
ZBAA,2025-09-23 07:30,ZBAA 230730Z VRB02MPS CAVOK 21/14 Q1015 NOSIG
ZBAA,2025-09-23 08:00,ZBAA 230800Z 15002MPS CAVOK 21/15 Q1015 NOSIG
ZBAA,2025-09-23 08:30,ZBAA 230830Z 18003MPS 150V250 CAVOK 21/14 Q1015 NOSIG
ZBAA,2025-09-23 09:00,ZBAA 230900Z 18004MPS CAVOK 20/14 Q1015 NOSIG
ZBAA,2025-09-23 09:30,ZBAA 230930Z 19004MPS CAVOK 20/14 Q1015 NOSIG
ZBAA,2025-09-23 10:00,ZBAA 231000Z 19004MPS CAVOK 19/14 Q1015 NOSIG
ZBAA,2025-09-23 10:30,ZBAA 231030Z 17003MPS 140V210 CAVOK 19/14 Q1014 NOSIG
ZBAA,2025-09-23 11:00,ZBAA 231100Z 17003MPS 140V200 CAVOK 19/15 Q1015 NOSIG
ZBAA,2025-09-23 11:30,ZBAA 231130Z 19003MPS 170V230 CAVOK 19/14 Q1015 NOSIG
ZBAA,2025-09-23 12:00,ZBAA 231200Z 18003MPS CAVOK 19/14 Q1015 NOSIG
ZBAA,2025-09-23 12:30,ZBAA 231230Z 20003MPS 180V260 CAVOK 19/14 Q1015 NOSIG
ZBAA,2025-09-23 13:00,ZBAA 231300Z 19003MPS CAVOK 18/14 Q1015 NOSIG
ZBAA,2025-09-23 13:30,ZBAA 231330Z 20003MPS 170V240 CAVOK 19/15 Q1015 NOSIG
ZBAA,2025-09-23 14:00,ZBAA 231400Z 22003MPS 190V250 CAVOK 19/15 Q1015 NOSIG
ZBAA,2025-09-23 14:30,ZBAA 231430Z 20002MPS 160V250 CAVOK 18/15 Q1014 NOSIG
ZBAA,2025-09-23 15:00,ZBAA 231500Z 19002MPS 150V230 7000 NSC 17/15 Q1014 NOSIG
ZBAA,2025-09-23 15:30,ZBAA 231530Z VRB01MPS 7000 NSC 16/14 Q1014 NOSIG
ZBAA,2025-09-23 16:00,ZBAA 231600Z 17002MPS 7000 NSC 15/14 Q1014 NOSIG
ZBAA,2025-09-23 16:30,ZBAA 231630Z 15001MPS 7000 NSC 15/14 Q1014 NOSIG
ZBAA,2025-09-23 17:00,ZBAA 231700Z 15001MPS 5000 BR NSC 15/14 Q1013 NOSIG
ZBAA,2025-09-23 17:30,ZBAA 231730Z 16001MPS 5000 BR NSC 14/14 Q1013 NOSIG
ZBAA,2025-09-23 18:00,ZBAA 231800Z VRB01MPS 5000 BR NSC 14/14 Q1013 NOSIG
ZBAA,2025-09-23 18:30,ZBAA 231830Z 17002MPS 3500 BR NSC 14/14 Q1013 NOSIG
ZBAA,2025-09-23 19:00,ZBAA 231900Z VRB01MPS 3000 BR NSC 14/14 Q1013 NOSIG
ZBAA,2025-09-23 19:30,ZBAA 231930Z VRB01MPS 3000 BR NSC 14/14 Q1012 NOSIG
ZBAA,2025-09-23 20:00,ZBAA 232000Z VRB01MPS 2500 BR NSC 14/13 Q1012 NOSIG
ZBAA,2025-09-23 20:30,ZBAA 232030Z 00000MPS 2500 BR NSC 14/14 Q1012 NOSIG
ZBAA,2025-09-23 21:00,ZBAA 232100Z VRB01MPS 2500 BR NSC 15/15 Q1012 NOSIG
ZBAA,2025-09-23 21:30,ZBAA 232130Z 00000MPS 2500 BR NSC 15/15 Q1012 NOSIG
ZBAA,2025-09-23 22:00,ZBAA 232200Z VRB01MPS 2500 BR NSC 16/15 Q1013 NOSIG
ZBAA,2025-09-23 22:30,ZBAA 232230Z VRB01MPS 2000 BR FEW020 16/15 Q1013 NOSIG
ZBAA,2025-09-23 23:00,ZBAA 232300Z 27002MPS 240V330 2000 BR FEW020 16/15 Q1013 BECMG TL0050 3000
ZBAA,2025-09-23 23:30,ZBAA 232330Z VRB01MPS 2500 R36L/1300D R36R/P2000N R01/P2000N BR FEW020 17/15 Q1013 NOSIG
ZBAA,2025-09-23 23:32,ZBAA 232332Z VRB01MPS 2500 R36L/0500D R36R/P2000N R01/P2000N BR PRFG FEW020 17/15 Q1013 NOSIG
ZBAA,2025-09-24 00:00,ZBAA 240000Z 27002MPS 190V340 2500 R36L/1000U R36R/P2000N R01/P2000N BR PRFG FEW020 17/15 Q1013 BECMG TL0120 3000
ZBAA,2025-09-24 00:30,ZBAA 240030Z 28002MPS 250V350 2800 BR FEW020 17/15 Q1013 NOSIG
ZBAA,2025-09-24 01:00,ZBAA 240100Z 33002MPS 220V010 2800 BR NSC 18/15 Q1013 BECMG TL0120 3200
ZBAA,2025-09-24 01:30,ZBAA 240130Z VRB02MPS 3500 BR NSC 20/15 Q1013 NOSIG
ZBAA,2025-09-24 02:00,ZBAA 240200Z VRB01MPS 5000 BR NSC 20/15 Q1013 NOSIG
ZBAA,2025-09-24 02:30,ZBAA 240230Z VRB01MPS 7000 NSC 22/16 Q1013 NOSIG
ZBAA,2025-09-24 04:30,ZBAA 240430Z 19004MPS 150V240 CAVOK 25/16 Q1012 NOSIG
ZBAA,2025-09-24 05:00,ZBAA 240500Z 20004MPS 170V250 CAVOK 26/16 Q1012 NOSIG
ZBAA,2025-09-24 05:30,ZBAA 240530Z 19004MPS 140V240 CAVOK 26/17 Q1012 NOSIG
ZBAA,2025-09-24 06:00,ZBAA 240600Z 17005MPS 130V200 CAVOK 25/16 Q1011 NOSIG
ZBAA,2025-09-24 06:30,ZBAA 240630Z 17005MPS CAVOK 26/16 Q1011 NOSIG
ZBAA,2025-09-24 07:00,ZBAA 240700Z 20005MPS 160V230 CAVOK 26/16 Q1011 NOSIG
ZBAA,2025-09-24 07:30,ZBAA 240730Z 20005MPS CAVOK 27/16 Q1011 NOSIG
ZBAA,2025-09-24 08:00,ZBAA 240800Z 20004MPS 170V230 CAVOK 27/14 Q1011 NOSIG
ZBAA,2025-09-24 08:30,ZBAA 240830Z 18005MPS CAVOK 26/15 Q1011 NOSIG
ZBAA,2025-09-24 09:00,ZBAA 240900Z 18005MPS CAVOK 25/14 Q1011 NOSIG
ZBAA,2025-09-24 09:30,ZBAA 240930Z 19004MPS 170V230 CAVOK 24/14 Q1011 NOSIG
ZBAA,2025-09-24 10:00,ZBAA 241000Z 16003MPS 130V190 CAVOK 23/15 Q1012 NOSIG
ZBAA,2025-09-24 10:30,ZBAA 241030Z 15002MPS 120V210 CAVOK 20/15 Q1012 NOSIG
ZBAA,2025-09-24 11:00,ZBAA 241100Z 15002MPS CAVOK 19/15 Q1012 NOSIG
ZBAA,2025-09-24 11:30,ZBAA 241130Z VRB01MPS CAVOK 18/16 Q1013 NOSIG
ZBAA,2025-09-24 12:00,ZBAA 241200Z VRB01MPS CAVOK 17/15 Q1013 NOSIG
ZBAA,2025-09-24 12:30,ZBAA 241230Z VRB01MPS CAVOK 16/15 Q1014 NOSIG
ZBAA,2025-09-24 13:00,ZBAA 241300Z VRB01MPS CAVOK 17/15 Q1014 NOSIG
ZBAA,2025-09-24 13:30,ZBAA 241330Z 00000MPS CAVOK 16/15 Q1014 NOSIG
ZBAA,2025-09-24 14:00,ZBAA 241400Z VRB01MPS CAVOK 16/15 Q1014 NOSIG
ZBAA,2025-09-24 14:30,ZBAA 241430Z 09002MPS 070V130 CAVOK 16/15 Q1015 NOSIG
ZBAA,2025-09-24 15:00,ZBAA 241500Z VRB01MPS CAVOK 16/15 Q1015 NOSIG
ZBAA,2025-09-24 15:30,ZBAA 241530Z VRB01MPS CAVOK 16/15 Q1015 NOSIG
ZBAA,2025-09-24 16:00,ZBAA 241600Z VRB01MPS CAVOK 16/16 Q1015 NOSIG
ZBAA,2025-09-24 16:30,ZBAA 241630Z VRB01MPS CAVOK 16/15 Q1016 NOSIG
ZBAA,2025-09-24 17:00,ZBAA 241700Z VRB01MPS 8000 NSC 15/15 Q1016 NOSIG
ZBAA,2025-09-24 17:30,ZBAA 241730Z 01002MPS 8000 NSC 15/14 Q1016 NOSIG
ZBAA,2025-09-24 18:00,ZBAA 241800Z VRB01MPS 7000 NSC 15/14 Q1016 NOSIG
ZBAA,2025-09-24 18:30,ZBAA 241830Z 36001MPS 7000 NSC 14/14 Q1016 NOSIG
ZBAA,2025-09-24 19:00,ZBAA 241900Z 01001MPS 6000 NSC 14/14 Q1016 NOSIG
ZBAA,2025-09-24 19:30,ZBAA 241930Z 36002MPS 6000 NSC 14/14 Q1016 NOSIG
ZBAA,2025-09-24 20:00,ZBAA 242000Z 36002MPS 6000 NSC 15/14 Q1016 NOSIG
ZBAA,2025-09-24 20:30,ZBAA 242030Z 36001MPS 7000 NSC 15/15 Q1016 NOSIG
ZBAA,2025-09-24 21:00,ZBAA 242100Z 35002MPS 7000 NSC 14/14 Q1017 NOSIG
ZBAA,2025-09-24 21:30,ZBAA 242130Z 35002MPS 7000 NSC 14/13 Q1017 NOSIG
ZBAA,2025-09-24 22:00,ZBAA 242200Z 35003MPS 7000 NSC 13/13 Q1018 NOSIG
ZBAA,2025-09-24 22:30,ZBAA 242230Z 36003MPS CAVOK 14/14 Q1018 NOSIG
ZBAA,2025-09-24 23:00,ZBAA 242300Z 35004MPS CAVOK 16/15 Q1018 NOSIG
ZBAA,2025-09-24 23:30,ZBAA 242330Z 35002MPS CAVOK 17/16 Q1019 NOSIG
ZBAA,2025-09-25 00:00,ZBAA 250000Z 35002MPS CAVOK 19/16 Q1019 NOSIG
ZBAA,2025-09-25 00:30,ZBAA 250030Z 01003MPS CAVOK 19/15 Q1019 NOSIG
ZBAA,2025-09-25 01:00,ZBAA 250100Z 36002MPS 310V040 CAVOK 22/15 Q1019 NOSIG
ZBAA,2025-09-25 01:30,ZBAA 250130Z 35003MPS 320V040 CAVOK 24/15 Q1020 NOSIG
ZBAA,2025-09-25 02:00,ZBAA 250200Z 01003MPS 320V030 CAVOK 24/14 Q1020 NOSIG
ZBAA,2025-09-25 02:30,ZBAA 250230Z VRB01MPS CAVOK 25/14 Q1020 NOSIG
ZBAA,2025-09-25 03:00,ZBAA 250300Z 03002MPS 320V090 CAVOK 26/13 Q1020 NOSIG
ZBAA,2025-09-25 03:30,ZBAA 250330Z VRB02MPS CAVOK 27/13 Q1020 NOSIG
ZBAA,2025-09-25 04:00,ZBAA 250400Z 03002MPS 350V070 CAVOK 27/12 Q1019 NOSIG
ZBAA,2025-09-25 04:30,ZBAA 250430Z VRB02MPS CAVOK 27/13 Q1019 NOSIG
ZBAA,2025-09-25 05:00,ZBAA 250500Z VRB02MPS CAVOK 29/14 Q1019 NOSIG
ZBAA,2025-09-25 05:30,ZBAA 250530Z 06002MPS 360V110 CAVOK 28/14 Q1018 NOSIG
ZBAA,2025-09-25 06:00,ZBAA 250600Z 04002MPS 010V090 CAVOK 28/13 Q1018 NOSIG
ZBAA,2025-09-25 06:30,ZBAA 250630Z 04002MPS CAVOK 28/13 Q1018 NOSIG
ZBAA,2025-09-25 07:00,ZBAA 250700Z 02002MPS CAVOK 27/15 Q1018 NOSIG
ZBAA,2025-09-25 07:30,ZBAA 250730Z VRB01MPS CAVOK 28/14 Q1018 NOSIG
ZBAA,2025-09-25 08:00,ZBAA 250800Z 03002MPS 360V060 CAVOK 28/15 Q1018 NOSIG
ZBAA,2025-09-25 08:30,ZBAA 250830Z 02002MPS CAVOK 27/15 Q1018 NOSIG
ZBAA,2025-09-25 09:00,ZBAA 250900Z 03001MPS CAVOK 26/19 Q1018 NOSIG
ZBAA,2025-09-25 09:30,ZBAA 250930Z 02001MPS CAVOK 25/18 Q1018 NOSIG
ZBAA,2025-09-25 10:00,ZBAA 251000Z 02002MPS 360V070 CAVOK 23/17 Q1018 NOSIG
ZBAA,2025-09-25 10:30,ZBAA 251030Z 00000MPS CAVOK 20/17 Q1018 NOSIG
ZBAA,2025-09-25 11:00,ZBAA 251100Z VRB01MPS CAVOK 19/17 Q1019 NOSIG
ZBAA,2025-09-25 11:30,ZBAA 251130Z VRB01MPS CAVOK 19/17 Q1019 NOSIG
ZBAA,2025-09-25 12:00,ZBAA 251200Z 14001MPS CAVOK 18/16 Q1019 NOSIG
ZBAA,2025-09-25 12:30,ZBAA 251230Z 01001MPS CAVOK 18/16 Q1020 NOSIG
ZBAA,2025-09-25 13:00,ZBAA 251300Z 04001MPS CAVOK 17/16 Q1020 NOSIG
ZBAA,2025-09-25 13:30,ZBAA 251330Z VRB01MPS CAVOK 17/16 Q1020 NOSIG
ZBAA,2025-09-25 14:00,ZBAA 251400Z 07001MPS CAVOK 17/16 Q1020 NOSIG
ZBAA,2025-09-25 14:30,ZBAA 251430Z 05001MPS CAVOK 16/16 Q1020 NOSIG
ZBAA,2025-09-25 15:00,ZBAA 251500Z 05001MPS CAVOK 16/16 Q1020 NOSIG
ZBAA,2025-09-25 15:30,ZBAA 251530Z 02001MPS CAVOK 16/15 Q1020 NOSIG
ZBAA,2025-09-25 16:00,ZBAA 251600Z 35001MPS CAVOK 16/15 Q1020 NOSIG
ZBAA,2025-09-25 16:30,ZBAA 251630Z 36001MPS CAVOK 16/16 Q1021 NOSIG
ZBAA,2025-09-25 17:00,ZBAA 251700Z 01002MPS CAVOK 16/15 Q1021 NOSIG
ZBAA,2025-09-25 17:30,ZBAA 251730Z 02001MPS CAVOK 16/15 Q1020 NOSIG
ZBAA,2025-09-25 18:00,ZBAA 251800Z 36002MPS CAVOK 16/15 Q1021 NOSIG
ZBAA,2025-09-25 18:30,ZBAA 251830Z 36002MPS CAVOK 16/15 Q1021 NOSIG
ZBAA,2025-09-25 19:00,ZBAA 251900Z 01002MPS CAVOK 16/15 Q1021 NOSIG
ZBAA,2025-09-25 19:30,ZBAA 251930Z 01002MPS CAVOK 16/15 Q1021 NOSIG
ZBAA,2025-09-25 20:00,ZBAA 252000Z 36002MPS CAVOK 16/15 Q1021 NOSIG
ZBAA,2025-09-25 20:30,ZBAA 252030Z 35001MPS CAVOK 15/14 Q1021 NOSIG
ZBAA,2025-09-25 21:00,ZBAA 252100Z 36002MPS CAVOK 15/14 Q1021 NOSIG
ZBAA,2025-09-25 21:30,ZBAA 252130Z 36002MPS CAVOK 15/14 Q1021 NOSIG
ZBAA,2025-09-25 22:00,ZBAA 252200Z 36002MPS CAVOK 15/14 Q1021 NOSIG
ZBAA,2025-09-25 22:30,ZBAA 252230Z 36002MPS CAVOK 15/15 Q1021 NOSIG
ZBAA,2025-09-25 23:00,ZBAA 252300Z 36002MPS CAVOK 17/16 Q1021 NOSIG
ZBAA,2025-09-25 23:30,ZBAA 252330Z 36003MPS CAVOK 18/16 Q1022 NOSIG
ZBAA,2025-09-26 00:00,ZBAA 260000Z 36002MPS CAVOK 20/16 Q1022 NOSIG
ZBAA,2025-09-26 00:30,ZBAA 260030Z VRB01MPS CAVOK 22/16 Q1022 NOSIG
ZBAA,2025-09-26 01:00,ZBAA 260100Z 01002MPS 340V070 CAVOK 23/15 Q1022 NOSIG
ZBAA,2025-09-26 01:30,ZBAA 260130Z 01003MPS 340V050 CAVOK 23/15 Q1023 NOSIG
ZBAA,2025-09-26 02:00,ZBAA 260200Z 01002MPS 320V070 CAVOK 25/15 Q1022 NOSIG
ZBAA,2025-09-26 02:30,ZBAA 260230Z 05002MPS 010V110 CAVOK 25/14 Q1022 NOSIG
ZBAA,2025-09-26 03:00,ZBAA 260300Z VRB01MPS CAVOK 25/15 Q1022 NOSIG
ZBAA,2025-09-26 03:30,ZBAA 260330Z VRB01MPS CAVOK 26/15 Q1022 NOSIG
ZBAA,2025-09-26 04:00,ZBAA 260400Z VRB01MPS CAVOK 27/16 Q1022 NOSIG
ZBAA,2025-09-26 04:30,ZBAA 260430Z VRB01MPS CAVOK 27/16 Q1021 NOSIG
ZBAA,2025-09-26 05:00,ZBAA 260500Z VRB01MPS CAVOK 28/16 Q1021 NOSIG
ZBAA,2025-09-26 05:30,ZBAA 260530Z 02003MPS 340V060 CAVOK 29/16 Q1021 NOSIG
ZBAA,2025-09-26 06:00,ZBAA 260600Z VRB01MPS CAVOK 29/15 Q1020 NOSIG
ZBAA,2025-09-26 06:30,ZBAA 260630Z VRB01MPS CAVOK 28/15 Q1020 NOSIG
ZBAA,2025-09-26 07:00,ZBAA 260700Z VRB02MPS CAVOK 28/14 Q1020 NOSIG
ZBAA,2025-09-26 07:30,ZBAA 260730Z 15002MPS CAVOK 28/13 Q1020 NOSIG
ZBAA,2025-09-26 08:00,ZBAA 260800Z VRB01MPS CAVOK 28/14 Q1019 NOSIG
ZBAA,2025-09-26 08:30,ZBAA 260830Z 17002MPS 120V230 CAVOK 28/14 Q1019 NOSIG
ZBAA,2025-09-26 09:00,ZBAA 260900Z 14001MPS CAVOK 26/17 Q1019 NOSIG
ZBAA,2025-09-26 09:30,ZBAA 260930Z 00000MPS CAVOK 24/17 Q1019 NOSIG
ZBAA,2025-09-26 10:00,ZBAA 261000Z 12001MPS CAVOK 22/16 Q1019 NOSIG
ZBAA,2025-09-26 10:30,ZBAA 261030Z 18001MPS CAVOK 21/17 Q1019 NOSIG
ZBAA,2025-09-26 11:00,ZBAA 261100Z 00000MPS CAVOK 20/17 Q1020 NOSIG
ZBAA,2025-09-26 11:30,ZBAA 261130Z VRB01MPS CAVOK 19/17 Q1020 NOSIG
ZBAA,2025-09-26 12:00,ZBAA 261200Z VRB01MPS CAVOK 19/17 Q1020 NOSIG
ZBAA,2025-09-26 12:30,ZBAA 261230Z 02001MPS CAVOK 18/16 Q1020 NOSIG
ZBAA,2025-09-26 13:00,ZBAA 261300Z 07001MPS CAVOK 18/16 Q1021 NOSIG
ZBAA,2025-09-26 13:30,ZBAA 261330Z VRB01MPS CAVOK 18/17 Q1021 NOSIG
ZBAA,2025-09-26 14:00,ZBAA 261400Z 05001MPS CAVOK 17/16 Q1021 NOSIG
ZBAA,2025-09-26 14:30,ZBAA 261430Z VRB01MPS CAVOK 18/17 Q1020 NOSIG
ZBAA,2025-09-26 15:00,ZBAA 261500Z VRB01MPS CAVOK 18/17 Q1020 NOSIG
ZBAA,2025-09-26 15:30,ZBAA 261530Z 02001MPS CAVOK 17/16 Q1020 NOSIG
ZBAA,2025-09-26 16:00,ZBAA 261600Z 06001MPS CAVOK 18/16 Q1020 NOSIG
ZBAA,2025-09-26 16:30,ZBAA 261630Z VRB01MPS CAVOK 18/16 Q1020 NOSIG
ZBAA,2025-09-26 17:00,ZBAA 261700Z 05001MPS CAVOK 18/17 Q1019 NOSIG
ZBAA,2025-09-26 17:30,ZBAA 261730Z VRB01MPS CAVOK 18/16 Q1019 NOSIG
ZBAA,2025-09-26 18:00,ZBAA 261800Z 36001MPS CAVOK 18/17 Q1019 NOSIG
ZBAA,2025-09-26 18:30,ZBAA 261830Z VRB01MPS CAVOK 17/17 Q1019 NOSIG
ZBAA,2025-09-26 19:00,ZBAA 261900Z VRB01MPS CAVOK 18/17 Q1019 NOSIG
ZBAA,2025-09-26 19:30,ZBAA 261930Z 04001MPS CAVOK 17/17 Q1019 NOSIG
ZBAA,2025-09-26 20:00,ZBAA 262000Z 36001MPS CAVOK 18/17 Q1019 NOSIG
ZBAA,2025-09-26 20:30,ZBAA 262030Z 01002MPS 330V040 CAVOK 18/16 Q1019 NOSIG
ZBAA,2025-09-26 21:00,ZBAA 262100Z 01002MPS CAVOK 18/16 Q1019 NOSIG
ZBAA,2025-09-26 21:30,ZBAA 262130Z 04001MPS CAVOK 18/16 Q1018 NOSIG
ZBAA,2025-09-26 22:00,ZBAA 262200Z 01002MPS CAVOK 18/16 Q1019 NOSIG
ZBAA,2025-09-26 22:30,ZBAA 262230Z 02002MPS 350V050 9999 -RA NSC 18/16 Q1019 NOSIG
ZBAA,2025-09-26 23:00,ZBAA 262300Z 03003MPS 330V080 9999 -RA NSC 18/16 Q1019 NOSIG
ZBAA,2025-09-26 23:08,ZBAA 262308Z 33005MPS 9999 -RA NSC 18/16 Q1019 NOSIG
ZBAA,2025-09-26 23:30,ZBAA 262330Z 01003MPS 9999 -RA NSC 18/16 Q1019 NOSIG
ZBAA,2025-09-27 00:00,ZBAA 270000Z 35002MPS 6000 -RA NSC 18/17 Q1020 NOSIG
ZBAA,2025-09-27 00:30,ZBAA 270030Z VRB01MPS 6000 -RA NSC 18/17 Q1020 NOSIG
ZBAA,2025-09-27 01:00,ZBAA 270100Z 01002MPS 330V040 7000 NSC 19/17 Q1020 NOSIG
ZBAA,2025-09-27 01:30,ZBAA 270130Z 33003MPS 260V360 7000 NSC 19/17 Q1020 NOSIG
ZBAA,2025-09-27 02:00,ZBAA 270200Z 33002MPS 8000 NSC 19/17 Q1020 NOSIG
ZBAA,2025-09-27 02:30,ZBAA 270230Z 34003MPS 310V020 8000 NSC 20/17 Q1019 NOSIG
ZBAA,2025-09-27 03:00,ZBAA 270300Z VRB01MPS 8000 NSC 20/17 Q1019 NOSIG
ZBAA,2025-09-27 03:30,ZBAA 270330Z VRB01MPS CAVOK 20/17 Q1019 NOSIG
ZBAA,2025-09-27 04:00,ZBAA 270400Z VRB01MPS CAVOK 21/17 Q1018 NOSIG
ZBAA,2025-09-27 04:30,ZBAA 270430Z 29002MPS 250V330 CAVOK 21/17 Q1018 NOSIG
ZBAA,2025-09-27 05:00,ZBAA 270500Z 32002MPS 250V020 CAVOK 21/17 Q1017 NOSIG
ZBAA,2025-09-27 05:30,ZBAA 270530Z 33002MPS 270V050 CAVOK 22/16 Q1017 NOSIG
ZBAA,2025-09-27 06:00,ZBAA 270600Z VRB01MPS CAVOK 21/16 Q1017 NOSIG
ZBAA,2025-09-27 06:30,ZBAA 270630Z VRB01MPS CAVOK 21/17 Q1016 NOSIG
ZBAA,2025-09-27 07:00,ZBAA 270700Z 08001MPS CAVOK 21/17 Q1016 NOSIG
ZBAA,2025-09-27 07:30,ZBAA 270730Z VRB01MPS CAVOK 21/17 Q1016 NOSIG
ZBAA,2025-09-27 08:00,ZBAA 270800Z 18002MPS 140V240 CAVOK 21/16 Q1016 NOSIG
ZBAA,2025-09-27 08:30,ZBAA 270830Z 19003MPS CAVOK 21/16 Q1016 NOSIG
ZBAA,2025-09-27 09:00,ZBAA 270900Z 16002MPS CAVOK 21/16 Q1015 NOSIG
ZBAA,2025-09-27 09:30,ZBAA 270930Z 19003MPS 150V250 CAVOK 21/16 Q1015 NOSIG
ZBAA,2025-09-27 10:00,ZBAA 271000Z 16002MPS CAVOK 20/16 Q1015 NOSIG
ZBAA,2025-09-27 10:30,ZBAA 271030Z 16002MPS 130V210 CAVOK 20/16 Q1015 NOSIG
ZBAA,2025-09-27 11:00,ZBAA 271100Z 16001MPS CAVOK 18/16 Q1015 NOSIG
ZBAA,2025-09-27 11:30,ZBAA 271130Z VRB01MPS CAVOK 19/15 Q1015 NOSIG
ZBAA,2025-09-27 12:00,ZBAA 271200Z 14001MPS CAVOK 17/16 Q1015 NOSIG
ZBAA,2025-09-27 12:30,ZBAA 271230Z VRB01MPS CAVOK 17/16 Q1015 NOSIG
ZBAA,2025-09-27 13:00,ZBAA 271300Z VRB01MPS CAVOK 17/16 Q1015 NOSIG
ZBAA,2025-09-27 13:30,ZBAA 271330Z 17002MPS CAVOK 17/16 Q1015 NOSIG
ZBAA,2025-09-27 14:00,ZBAA 271400Z VRB01MPS CAVOK 16/15 Q1015 NOSIG
ZBAA,2025-09-27 14:30,ZBAA 271430Z 00000MPS CAVOK 17/16 Q1015 NOSIG
ZBAA,2025-09-27 15:00,ZBAA 271500Z VRB01MPS CAVOK 16/15 Q1014 NOSIG
ZBAA,2025-09-27 15:30,ZBAA 271530Z VRB01MPS CAVOK 16/15 Q1014 NOSIG
ZBAA,2025-09-27 16:00,ZBAA 271600Z VRB01MPS CAVOK 15/15 Q1014 NOSIG
ZBAA,2025-09-27 16:30,ZBAA 271630Z 14001MPS CAVOK 15/15 Q1014 NOSIG
ZBAA,2025-09-27 17:00,ZBAA 271700Z 15001MPS CAVOK 15/14 Q1014 NOSIG
ZBAA,2025-09-27 17:30,ZBAA 271730Z 15001MPS CAVOK 15/14 Q1014 NOSIG
ZBAA,2025-09-27 18:00,ZBAA 271800Z VRB01MPS CAVOK 15/14 Q1014 NOSIG
ZBAA,2025-09-27 18:30,ZBAA 271830Z VRB01MPS CAVOK 14/14 Q1014 NOSIG
ZBAA,2025-09-27 19:00,ZBAA 271900Z 07001MPS CAVOK 14/14 Q1014 NOSIG
ZBAA,2025-09-27 19:30,ZBAA 271930Z 05001MPS 7000 NSC 14/14 Q1014 NOSIG
ZBAA,2025-09-27 20:00,ZBAA 272000Z 03001MPS 5000 BR NSC 14/14 Q1014 NOSIG
ZBAA,2025-09-27 20:30,ZBAA 272030Z 00000MPS 4000 BR NSC 14/13 Q1013 NOSIG
ZBAA,2025-09-27 21:00,ZBAA 272100Z 36002MPS 3500 BR NSC 14/14 Q1013 BECMG TL2220 2800
ZBAA,2025-09-27 21:30,ZBAA 272130Z 01002MPS 3200 BR NSC 14/14 Q1014 NOSIG
ZBAA,2025-09-27 22:00,ZBAA 272200Z 36002MPS 3200 R36L/P2000N R36R/P2000N R01/1100U BR NSC 14/14 Q1013 BECMG TL2220 2800
ZBAA,2025-09-27 22:30,ZBAA 272230Z 36002MPS 2800 BR NSC 14/14 Q1014 NOSIG
ZBAA,2025-09-27 23:00,ZBAA 272300Z 36002MPS 2800 BR NSC 15/15 Q1014 BECMG TL2320 3200
ZBAA,2025-09-27 23:30,ZBAA 272330Z 32002MPS 280V350 3500 BR NSC 16/16 Q1014 NOSIG
ZBAA,2025-09-28 00:00,ZBAA 280000Z 35003MPS 330V030 6000 NSC 18/16 Q1014 NOSIG
ZBAA,2025-09-28 00:30,ZBAA 280030Z 36003MPS 6000 NSC 19/17 Q1014 NOSIG
ZBAA,2025-09-28 01:00,ZBAA 280100Z 03002MPS 350V070 CAVOK 20/16 Q1015 NOSIG
ZBAA,2025-09-28 01:30,ZBAA 280130Z 35002MPS 310V020 CAVOK 23/16 Q1015 NOSIG
ZBAA,2025-09-28 02:00,ZBAA 280200Z 34002MPS 290V070 CAVOK 23/15 Q1015 NOSIG
ZBAA,2025-09-28 02:30,ZBAA 280230Z 35002MPS 290V030 CAVOK 24/15 Q1015 NOSIG
ZBAA,2025-09-28 03:00,ZBAA 280300Z 34002MPS 290V030 CAVOK 25/15 Q1014 NOSIG
ZBAA,2025-09-28 03:30,ZBAA 280330Z VRB02MPS CAVOK 26/15 Q1014 NOSIG
ZBAA,2025-09-28 04:00,ZBAA 280400Z 34002MPS 300V020 CAVOK 27/15 Q1014 NOSIG
ZBAA,2025-09-28 04:30,ZBAA 280430Z 32003MPS 290V360 CAVOK 27/14 Q1013 NOSIG
ZBAA,2025-09-28 05:00,ZBAA 280500Z VRB02MPS CAVOK 29/15 Q1013 NOSIG
ZBAA,2025-09-28 05:30,ZBAA 280530Z 35002MPS 280V060 CAVOK 29/13 Q1013 NOSIG
ZBAA,2025-09-28 06:00,ZBAA 280600Z VRB01MPS CAVOK 29/13 Q1013 NOSIG
ZBAA,2025-09-28 06:30,ZBAA 280630Z VRB02MPS CAVOK 30/13 Q1013 NOSIG
ZBAA,2025-09-28 07:00,ZBAA 280700Z VRB01MPS CAVOK 30/13 Q1012 NOSIG
ZBAA,2025-09-28 07:30,ZBAA 280730Z VRB02MPS CAVOK 30/12 Q1012 NOSIG
ZBAA,2025-09-28 08:00,ZBAA 280800Z 27002G07MPS 190V330 CAVOK 30/11 Q1012 NOSIG
ZBAA,2025-09-28 08:30,ZBAA 280830Z 28002MPS 210V010 CAVOK 29/11 Q1012 NOSIG
ZBAA,2025-09-28 09:00,ZBAA 280900Z VRB01MPS CAVOK 27/16 Q1013 NOSIG
ZBAA,2025-09-28 09:30,ZBAA 280930Z 09002MPS CAVOK 26/17 Q1013 NOSIG
ZBAA,2025-09-28 10:00,ZBAA 281000Z 09002MPS 050V120 CAVOK 22/17 Q1013 NOSIG
ZBAA,2025-09-28 10:30,ZBAA 281030Z VRB01MPS CAVOK 21/17 Q1013 NOSIG
ZBAA,2025-09-28 11:00,ZBAA 281100Z 00000MPS CAVOK 19/17 Q1013 NOSIG
ZBAA,2025-09-28 11:30,ZBAA 281130Z 17003MPS CAVOK 20/16 Q1014 NOSIG
ZBAA,2025-09-28 12:00,ZBAA 281200Z 20003MPS 180V260 CAVOK 25/15 Q1014 NOSIG
ZBAA,2025-09-28 12:30,ZBAA 281230Z 22004MPS 160V260 CAVOK 25/15 Q1014 NOSIG
ZBAA,2025-09-28 13:00,ZBAA 281300Z VRB01MPS CAVOK 21/15 Q1014 NOSIG
ZBAA,2025-09-28 13:30,ZBAA 281330Z VRB01MPS CAVOK 18/16 Q1015 NOSIG
ZBAA,2025-09-28 14:00,ZBAA 281400Z VRB01MPS CAVOK 17/15 Q1015 NOSIG
ZBAA,2025-09-28 14:30,ZBAA 281430Z 00000MPS CAVOK 17/16 Q1015 NOSIG
ZBAA,2025-09-28 15:00,ZBAA 281500Z 00000MPS CAVOK 16/15 Q1015 NOSIG
ZBAA,2025-09-28 15:30,ZBAA 281530Z VRB01MPS CAVOK 16/16 Q1015 NOSIG
ZBAA,2025-09-28 16:00,ZBAA 281600Z 36002MPS CAVOK 15/15 Q1015 NOSIG
ZBAA,2025-09-28 16:30,ZBAA 281630Z 35003MPS CAVOK 16/15 Q1015 NOSIG
ZBAA,2025-09-28 17:00,ZBAA 281700Z 35002MPS CAVOK 16/15 Q1015 NOSIG
ZBAA,2025-09-28 17:30,ZBAA 281730Z 34002MPS CAVOK 16/15 Q1015 NOSIG
ZBAA,2025-09-28 18:00,ZBAA 281800Z 36003MPS CAVOK 16/14 Q1015 NOSIG
ZBAA,2025-09-28 18:30,ZBAA 281830Z 36003MPS CAVOK 16/14 Q1015 NOSIG
ZBAA,2025-09-28 19:00,ZBAA 281900Z 01002MPS CAVOK 15/13 Q1015 NOSIG
ZBAA,2025-09-28 19:30,ZBAA 281930Z 01003MPS CAVOK 16/13 Q1015 NOSIG
ZBAA,2025-09-28 20:00,ZBAA 282000Z 34002MPS CAVOK 15/13 Q1015 NOSIG
ZBAA,2025-09-28 20:30,ZBAA 282030Z 36002MPS CAVOK 14/13 Q1015 NOSIG
ZBAA,2025-09-28 21:00,ZBAA 282100Z 35002MPS CAVOK 14/13 Q1015 NOSIG
ZBAA,2025-09-28 21:30,ZBAA 282130Z 32003MPS CAVOK 15/13 Q1015 NOSIG
ZBAA,2025-09-28 22:00,ZBAA 282200Z 34003MPS 310V010 CAVOK 15/13 Q1015 NOSIG
ZBAA,2025-09-28 22:30,ZBAA 282230Z 34002MPS CAVOK 14/12 Q1015 NOSIG
ZBAA,2025-09-28 23:00,ZBAA 282300Z 36002MPS CAVOK 15/13 Q1016 NOSIG
ZBAA,2025-09-28 23:30,ZBAA 282330Z 35003MPS CAVOK 17/14 Q1016 NOSIG
ZBAA,2025-09-29 00:00,ZBAA 290000Z 36003MPS CAVOK 19/14 Q1015 NOSIG
ZBAA,2025-09-29 00:30,ZBAA 290030Z 34003MPS CAVOK 20/13 Q1016 NOSIG
ZBAA,2025-09-29 01:00,ZBAA 290100Z 35002MPS 290V030 CAVOK 22/13 Q1016 NOSIG
ZBAA,2025-09-29 01:30,ZBAA 290130Z 32002MPS 290V010 CAVOK 23/12 Q1015 NOSIG
ZBAA,2025-09-29 02:00,ZBAA 290200Z 33002MPS 290V020 CAVOK 23/12 Q1015 NOSIG
ZBAA,2025-09-29 02:30,ZBAA 290230Z 32002MPS 280V360 CAVOK 24/12 Q1015 NOSIG
ZBAA,2025-09-29 03:00,ZBAA 290300Z VRB02MPS CAVOK 26/11 Q1015 NOSIG
ZBAA,2025-09-29 03:30,ZBAA 290330Z VRB02MPS CAVOK 26/11 Q1015 NOSIG
ZBAA,2025-09-29 04:00,ZBAA 290400Z VRB01MPS CAVOK 26/10 Q1014 NOSIG
ZBAA,2025-09-29 04:30,ZBAA 290430Z VRB01MPS CAVOK 27/11 Q1013 NOSIG
ZBAA,2025-09-29 05:00,ZBAA 290500Z 24002G07MPS 180V290 CAVOK 28/11 Q1013 NOSIG
ZBAA,2025-09-29 05:30,ZBAA 290530Z 28002MPS 220V310 CAVOK 28/10 Q1013 NOSIG
ZBAA,2025-09-29 06:00,ZBAA 290600Z VRB01MPS CAVOK 29/11 Q1012 NOSIG
ZBAA,2025-09-29 06:30,ZBAA 290630Z VRB02MPS CAVOK 29/11 Q1012 NOSIG
ZBAA,2025-09-29 07:00,ZBAA 290700Z 12002MPS 080V170 CAVOK 29/12 Q1011 NOSIG
ZBAA,2025-09-29 07:30,ZBAA 290730Z 17002MPS 110V220 CAVOK 29/10 Q1011 NOSIG
ZBAA,2025-09-29 08:00,ZBAA 290800Z 14003MPS CAVOK 28/11 Q1011 NOSIG
ZBAA,2025-09-29 08:30,ZBAA 290830Z 16003MPS 120V190 CAVOK 28/12 Q1011 NOSIG
ZBAA,2025-09-29 09:00,ZBAA 290900Z 15002MPS 130V200 CAVOK 27/13 Q1010 NOSIG
ZBAA,2025-09-29 09:30,ZBAA 290930Z 17002MPS 130V210 CAVOK 24/15 Q1010 NOSIG
ZBAA,2025-09-29 10:00,ZBAA 291000Z 16002MPS CAVOK 21/16 Q1010 NOSIG
ZBAA,2025-09-29 10:30,ZBAA 291030Z VRB01MPS CAVOK 20/15 Q1011 NOSIG
ZBAA,2025-09-29 11:00,ZBAA 291100Z VRB01MPS CAVOK 19/15 Q1011 NOSIG
ZBAA,2025-09-29 11:30,ZBAA 291130Z 14001MPS CAVOK 18/15 Q1011 NOSIG
ZBAA,2025-09-29 12:00,ZBAA 291200Z VRB01MPS CAVOK 18/16 Q1011 NOSIG
ZBAA,2025-09-29 12:30,ZBAA 291230Z 09001MPS CAVOK 17/16 Q1011 NOSIG
ZBAA,2025-09-29 13:00,ZBAA 291300Z VRB01MPS CAVOK 17/16 Q1011 NOSIG
ZBAA,2025-09-29 13:30,ZBAA 291330Z 05002MPS CAVOK 17/16 Q1012 NOSIG
ZBAA,2025-09-29 14:00,ZBAA 291400Z 06001MPS CAVOK 17/15 Q1012 NOSIG
ZBAA,2025-09-29 14:30,ZBAA 291430Z 36002MPS CAVOK 17/15 Q1012 NOSIG
ZBAA,2025-09-29 15:00,ZBAA 291500Z VRB01MPS CAVOK 17/16 Q1012 NOSIG
ZBAA,2025-09-29 15:30,ZBAA 291530Z 31003MPS 280V360 CAVOK 21/15 Q1013 NOSIG
ZBAA,2025-09-29 16:00,ZBAA 291600Z 32004MPS CAVOK 21/15 Q1013 BECMG TL1720 TS
ZBAA,2025-09-29 16:30,ZBAA 291630Z 35002MPS 9999 TS FEW050CB 19/15 Q1013 NOSIG
ZBAA,2025-09-29 17:00,ZBAA 291700Z 34003MPS 290V040 9999 -TSRA FEW050CB 20/14 Q1012 BECMG TL1720 NSW
ZBAA,2025-09-29 17:30,ZBAA 291730Z VRB01MPS CAVOK 17/15 Q1011 RETS NOSIG
ZBAA,2025-09-29 18:00,ZBAA 291800Z 00000MPS CAVOK 16/15 Q1011 NOSIG
ZBAA,2025-09-29 18:30,ZBAA 291830Z VRB01MPS CAVOK 15/14 Q1011 NOSIG
ZBAA,2025-09-29 19:00,ZBAA 291900Z 36001MPS CAVOK 15/14 Q1010 NOSIG
ZBAA,2025-09-29 19:30,ZBAA 291930Z 36003MPS CAVOK 15/14 Q1010 NOSIG
ZBAA,2025-09-29 20:00,ZBAA 292000Z 01001MPS CAVOK 15/14 Q1010 NOSIG
ZBAA,2025-09-29 20:30,ZBAA 292030Z 35002MPS CAVOK 14/14 Q1010 NOSIG
ZBAA,2025-09-29 21:00,ZBAA 292100Z 02001MPS CAVOK 14/14 Q1010 NOSIG
ZBAA,2025-09-29 21:30,ZBAA 292130Z 01002MPS CAVOK 14/13 Q1010 NOSIG
ZBAA,2025-09-29 22:00,ZBAA 292200Z 36002MPS CAVOK 14/14 Q1010 NOSIG
ZBAA,2025-09-29 22:30,ZBAA 292230Z 34002MPS CAVOK 14/14 Q1010 NOSIG
ZBAA,2025-09-29 23:00,ZBAA 292300Z 35002MPS 290V360 CAVOK 15/15 Q1011 NOSIG
ZBAA,2025-09-29 23:30,ZBAA 292330Z 36002MPS CAVOK 18/15 Q1011 NOSIG
ZBAA,2025-09-30 00:00,ZBAA 300000Z 35002MPS 300V020 CAVOK 20/16 Q1011 NOSIG
ZBAA,2025-09-30 00:30,ZBAA 300030Z 33002MPS 280V020 CAVOK 21/15 Q1011 NOSIG
ZBAA,2025-09-30 01:00,ZBAA 300100Z 34002MPS 300V030 CAVOK 22/14 Q1011 NOSIG
ZBAA,2025-09-30 01:30,ZBAA 300130Z 34002MPS 290V100 CAVOK 24/14 Q1011 NOSIG
ZBAA,2025-09-30 02:00,ZBAA 300200Z 35002MPS 240V050 CAVOK 24/13 Q1011 NOSIG
ZBAA,2025-09-30 02:30,ZBAA 300230Z VRB01MPS CAVOK 24/14 Q1010 NOSIG
ZBAA,2025-09-30 03:00,ZBAA 300300Z VRB01MPS CAVOK 25/13 Q1010 NOSIG
ZBAA,2025-09-30 03:30,ZBAA 300330Z VRB01MPS CAVOK 26/13 Q1010 NOSIG
ZBAA,2025-09-30 04:00,ZBAA 300400Z VRB02MPS CAVOK 26/13 Q1009 NOSIG
ZBAA,2025-09-30 04:30,ZBAA 300430Z 14002MPS 040V190 CAVOK 27/13 Q1009 NOSIG
ZBAA,2025-09-30 05:00,ZBAA 300500Z 23002MPS 160V290 CAVOK 28/13 Q1008 NOSIG
ZBAA,2025-09-30 05:30,ZBAA 300530Z VRB02MPS CAVOK 28/13 Q1008 NOSIG
ZBAA,2025-09-30 06:00,ZBAA 300600Z 24002MPS 170V320 CAVOK 29/12 Q1008 NOSIG
ZBAA,2025-09-30 06:30,ZBAA 300630Z 21003MPS 120V260 CAVOK 29/13 Q1007 NOSIG
ZBAA,2025-09-30 07:00,ZBAA 300700Z 21003MPS 150V270 CAVOK 29/13 Q1007 NOSIG
ZBAA,2025-09-30 07:30,ZBAA 300730Z VRB02MPS CAVOK 29/13 Q1007 NOSIG
ZBAA,2025-09-30 08:00,ZBAA 300800Z 15003MPS 130V200 CAVOK 29/14 Q1007 NOSIG
ZBAA,2025-09-30 08:30,ZBAA 300830Z 18003MPS 130V230 CAVOK 29/13 Q1007 NOSIG
ZBAA,2025-09-30 09:00,ZBAA 300900Z 19002MPS 150V240 CAVOK 28/13 Q1007 NOSIG
ZBAA,2025-09-30 09:30,ZBAA 300930Z 18002MPS 150V230 CAVOK 25/17 Q1008 NOSIG
ZBAA,2025-09-30 10:00,ZBAA 301000Z 09002MPS CAVOK 21/16 Q1008 NOSIG
ZBAA,2025-09-30 10:30,ZBAA 301030Z VRB02MPS CAVOK 25/15 Q1008 NOSIG
ZBAA,2025-09-30 11:00,ZBAA 301100Z VRB01MPS CAVOK 21/17 Q1009 NOSIG
ZBAA,2025-09-30 11:30,ZBAA 301130Z VRB01MPS CAVOK 21/16 Q1008 NOSIG
ZBAA,2025-09-30 12:00,ZBAA 301200Z 18002MPS CAVOK 21/17 Q1009 NOSIG
ZBAA,2025-09-30 12:30,ZBAA 301230Z 35003MPS 310V020 CAVOK 23/16 Q1009 NOSIG
ZBAA,2025-09-30 13:00,ZBAA 301300Z VRB01MPS CAVOK 20/17 Q1009 NOSIG
ZBAA,2025-09-30 13:30,ZBAA 301330Z VRB02MPS CAVOK 23/16 Q1009 NOSIG
ZBAA,2025-09-30 14:00,ZBAA 301400Z VRB01MPS CAVOK 19/16 Q1009 NOSIG
ZBAA,2025-09-30 14:30,ZBAA 301430Z VRB02MPS CAVOK 19/17 Q1009 NOSIG
ZBAA,2025-09-30 15:00,ZBAA 301500Z VRB01MPS CAVOK 19/17 Q1009 NOSIG
ZBAA,2025-09-30 15:30,ZBAA 301530Z VRB01MPS CAVOK 18/16 Q1009 NOSIG
ZBAA,2025-09-30 16:00,ZBAA 301600Z 01002MPS CAVOK 17/16 Q1009 NOSIG
ZBAA,2025-09-30 16:30,ZBAA 301630Z 00000MPS CAVOK 16/16 Q1009 NOSIG
ZBAA,2025-09-30 17:00,ZBAA 301700Z 35001MPS CAVOK 16/15 Q1009 NOSIG
ZBAA,2025-09-30 17:30,ZBAA 301730Z 34001MPS CAVOK 15/15 Q1009 NOSIG
ZBAA,2025-09-30 18:00,ZBAA 301800Z 36002MPS CAVOK 15/14 Q1009 NOSIG
ZBAA,2025-09-30 18:30,ZBAA 301830Z 36002MPS CAVOK 16/15 Q1009 NOSIG
ZBAA,2025-09-30 19:00,ZBAA 301900Z 01002MPS CAVOK 16/14 Q1009 NOSIG
ZBAA,2025-09-30 19:30,ZBAA 301930Z 01003MPS CAVOK 16/14 Q1009 NOSIG
ZBAA,2025-09-30 20:00,ZBAA 302000Z 01003MPS CAVOK 16/14 Q1009 NOSIG
ZBAA,2025-09-30 20:30,ZBAA 302030Z 36002MPS CAVOK 16/14 Q1009 NOSIG
ZBAA,2025-09-30 21:00,ZBAA 302100Z VRB01MPS CAVOK 15/14 Q1010 NOSIG
ZBAA,2025-09-30 21:30,ZBAA 302130Z 36002MPS CAVOK 15/13 Q1010 NOSIG
ZBAA,2025-09-30 22:00,ZBAA 302200Z 36002MPS CAVOK 15/14 Q1010 NOSIG
ZBAA,2025-09-30 22:30,ZBAA 302230Z 35002MPS CAVOK 15/13 Q1010 NOSIG
ZBAA,2025-09-30 23:00,ZBAA 302300Z 36002MPS CAVOK 16/14 Q1011 NOSIG
ZBAA,2025-09-30 23:30,ZBAA 302330Z 35002MPS CAVOK 18/15 Q1011 NOSIG
ZBAA,2025-10-01 00:00,ZBAA 010000Z 01002MPS CAVOK 20/15 Q1011 NOSIG
ZBAA,2025-10-01 00:30,ZBAA 010030Z 36002MPS CAVOK 22/15 Q1011 NOSIG
ZBAA,2025-10-01 01:00,ZBAA 010100Z 35004MPS CAVOK 24/14 Q1011 NOSIG
ZBAA,2025-10-01 01:30,ZBAA 010130Z 36003MPS 320V030 CAVOK 24/13 Q1012 NOSIG
ZBAA,2025-10-01 02:00,ZBAA 010200Z 34002MPS 290V020 CAVOK 25/12 Q1012 NOSIG
ZBAA,2025-10-01 02:30,ZBAA 010230Z 32002MPS 270V340 CAVOK 26/12 Q1012 NOSIG
ZBAA,2025-10-01 03:00,ZBAA 010300Z 32002MPS 270V030 CAVOK 26/12 Q1012 NOSIG
ZBAA,2025-10-01 03:30,ZBAA 010330Z 30002MPS 240V010 CAVOK 27/12 Q1012 NOSIG
ZBAA,2025-10-01 04:00,ZBAA 010400Z 34002MPS 270V060 CAVOK 29/12 Q1011 NOSIG
ZBAA,2025-10-01 04:30,ZBAA 010430Z 36002MPS 310V040 CAVOK 28/12 Q1011 NOSIG
ZBAA,2025-10-01 05:00,ZBAA 010500Z 35003MPS 310V050 CAVOK 29/13 Q1010 NOSIG
ZBAA,2025-10-01 05:30,ZBAA 010530Z 02003MPS CAVOK 28/12 Q1010 NOSIG
ZBAA,2025-10-01 06:00,ZBAA 010600Z 03002MPS 340V070 CAVOK 29/13 Q1010 NOSIG
ZBAA,2025-10-01 06:30,ZBAA 010630Z 03002MPS 340V060 CAVOK 29/12 Q1010 NOSIG
ZBAA,2025-10-01 07:00,ZBAA 010700Z 01002MPS 300V050 CAVOK 28/13 Q1010 NOSIG
ZBAA,2025-10-01 07:30,ZBAA 010730Z VRB01MPS CAVOK 27/16 Q1010 NOSIG
ZBAA,2025-10-01 08:00,ZBAA 010800Z 00000MPS CAVOK 26/19 Q1010 NOSIG
ZBAA,2025-10-01 08:30,ZBAA 010830Z VRB01MPS CAVOK 25/16 Q1011 NOSIG
ZBAA,2025-10-01 09:00,ZBAA 010900Z VRB01MPS CAVOK 23/18 Q1010 NOSIG
ZBAA,2025-10-01 09:30,ZBAA 010930Z VRB01MPS CAVOK 21/17 Q1011 NOSIG
ZBAA,2025-10-01 10:00,ZBAA 011000Z VRB01MPS CAVOK 20/17 Q1011 NOSIG
ZBAA,2025-10-01 10:30,ZBAA 011030Z VRB01MPS CAVOK 20/17 Q1011 NOSIG
ZBAA,2025-10-01 11:00,ZBAA 011100Z VRB01MPS CAVOK 19/17 Q1011 NOSIG
ZBAA,2025-10-01 11:30,ZBAA 011130Z VRB01MPS CAVOK 20/18 Q1011 NOSIG
ZBAA,2025-10-01 12:00,ZBAA 011200Z VRB01MPS CAVOK 19/17 Q1012 NOSIG
ZBAA,2025-10-01 12:30,ZBAA 011230Z 16001MPS CAVOK 19/17 Q1012 NOSIG
ZBAA,2025-10-01 13:00,ZBAA 011300Z VRB01MPS CAVOK 18/17 Q1012 NOSIG
ZBAA,2025-10-01 13:30,ZBAA 011330Z VRB01MPS CAVOK 19/17 Q1012 NOSIG
ZBAA,2025-10-01 14:00,ZBAA 011400Z VRB01MPS CAVOK 18/17 Q1013 NOSIG
ZBAA,2025-10-01 14:30,ZBAA 011430Z VRB01MPS CAVOK 18/17 Q1013 NOSIG
ZBAA,2025-10-01 15:00,ZBAA 011500Z 03001MPS CAVOK 18/17 Q1013 NOSIG
ZBAA,2025-10-01 15:30,ZBAA 011530Z 06001MPS CAVOK 18/17 Q1013 NOSIG
ZBAA,2025-10-01 16:00,ZBAA 011600Z 00000MPS CAVOK 17/17 Q1013 NOSIG
ZBAA,2025-10-01 16:30,ZBAA 011630Z 07001MPS CAVOK 17/17 Q1013 NOSIG
ZBAA,2025-10-01 17:00,ZBAA 011700Z 00000MPS CAVOK 17/16 Q1013 NOSIG
ZBAA,2025-10-01 17:30,ZBAA 011730Z VRB01MPS CAVOK 17/16 Q1013 NOSIG
ZBAA,2025-10-01 18:00,ZBAA 011800Z 00000MPS CAVOK 17/16 Q1014 NOSIG
ZBAA,2025-10-01 18:30,ZBAA 011830Z VRB01MPS CAVOK 17/16 Q1014 NOSIG
ZBAA,2025-10-01 19:00,ZBAA 011900Z VRB01MPS CAVOK 16/16 Q1014 NOSIG
ZBAA,2025-10-01 19:30,ZBAA 011930Z 00000MPS CAVOK 16/16 Q1014 NOSIG
ZBAA,2025-10-01 20:00,ZBAA 012000Z VRB01MPS CAVOK 16/15 Q1014 NOSIG
ZBAA,2025-10-01 20:30,ZBAA 012030Z VRB01MPS CAVOK 16/15 Q1014 NOSIG
ZBAA,2025-10-01 21:00,ZBAA 012100Z VRB01MPS CAVOK 15/15 Q1014 NOSIG
ZBAA,2025-10-01 21:30,ZBAA 012130Z VRB01MPS CAVOK 15/14 Q1014 NOSIG
ZBAA,2025-10-01 22:00,ZBAA 012200Z VRB01MPS CAVOK 14/14 Q1014 NOSIG
ZBAA,2025-10-01 22:30,ZBAA 012230Z 35002MPS 290V020 CAVOK 14/14 Q1015 NOSIG
ZBAA,2025-10-01 23:00,ZBAA 012300Z 03001MPS CAVOK 15/14 Q1015 NOSIG
ZBAA,2025-10-01 23:30,ZBAA 012330Z VRB01MPS CAVOK 17/16 Q1015 NOSIG
ZBAA,2025-10-02 00:00,ZBAA 020000Z 01002MPS CAVOK 19/16 Q1015 NOSIG
ZBAA,2025-10-02 00:30,ZBAA 020030Z 34003MPS 300V360 CAVOK 21/16 Q1016 NOSIG
ZBAA,2025-10-02 01:00,ZBAA 020100Z VRB01MPS CAVOK 21/16 Q1016 NOSIG
ZBAA,2025-10-02 01:30,ZBAA 020130Z VRB01MPS CAVOK 22/16 Q1016 NOSIG
ZBAA,2025-10-02 02:00,ZBAA 020200Z VRB01MPS CAVOK 23/14 Q1016 NOSIG
ZBAA,2025-10-02 02:30,ZBAA 020230Z VRB01MPS CAVOK 24/14 Q1016 NOSIG
ZBAA,2025-10-02 03:00,ZBAA 020300Z VRB02MPS CAVOK 25/15 Q1016 NOSIG
ZBAA,2025-10-02 03:30,ZBAA 020330Z 20003MPS 170V240 CAVOK 26/15 Q1016 NOSIG
ZBAA,2025-10-02 04:00,ZBAA 020400Z 18003MPS 130V240 CAVOK 26/14 Q1016 NOSIG
ZBAA,2025-10-02 04:30,ZBAA 020430Z 19004MPS 120V230 CAVOK 27/13 Q1016 NOSIG
ZBAA,2025-10-02 05:00,ZBAA 020500Z 18005MPS 130V240 CAVOK 28/13 Q1015 NOSIG
ZBAA,2025-10-02 05:30,ZBAA 020530Z 15004MPS 120V180 CAVOK 28/13 Q1015 NOSIG
ZBAA,2025-10-02 06:00,ZBAA 020600Z 17004MPS 120V210 CAVOK 28/13 Q1015 NOSIG
ZBAA,2025-10-02 06:30,ZBAA 020630Z 17003MPS 110V200 CAVOK 28/13 Q1015 NOSIG
ZBAA,2025-10-02 07:00,ZBAA 020700Z VRB03MPS CAVOK 28/13 Q1015 NOSIG
ZBAA,2025-10-02 07:30,ZBAA 020730Z 20003MPS 160V300 CAVOK 27/12 Q1014 NOSIG
ZBAA,2025-10-02 08:00,ZBAA 020800Z 19003MPS 140V210 CAVOK 28/12 Q1015 NOSIG
ZBAA,2025-10-02 08:30,ZBAA 020830Z 15002MPS CAVOK 27/12 Q1015 NOSIG
ZBAA,2025-10-02 09:00,ZBAA 020900Z 15002MPS CAVOK 26/13 Q1015 NOSIG
