station,valid,metar
ZBAA,1990-01-01 00:00,ZBAA 010000Z AUTO 07002KT 1 1/4SM M05/M07 A3033 RMK SLP278 T10541069 52019 IEM_DS3505
ZBAA,1990-01-01 01:00,ZBAA 010100Z AUTO 03004KT 7SM M05/M12 A3033 RMK T10501120 IEM_DS3505
ZBAA,1990-01-01 02:00,ZBAA 010200Z AUTO 04008KT 7SM M02/M13 A3036 RMK T10201130 IEM_DS3505
ZBAA,1990-01-01 03:00,ZBAA 010300Z AUTO 04004KT 4SM M02/M16 A3036 RMK SLP285 T10171165 52007 IEM_DS3505
ZBAA,1990-01-01 04:00,ZBAA 010400Z AUTO 03008KT 7SM 01/M16 A3033 RMK T00101160 IEM_DS3505
ZBAA,1990-01-01 05:00,ZBAA 010500Z AUTO 03008KT 7SM 02/M17 A3030 RMK T00201170 IEM_DS3505
ZBAA,1990-01-01 06:00,ZBAA 010600Z AUTO 02010KT 12SM 02/M19 A3030 RMK SLP266 T00171194 4////1058 57018 IEM_DS3505
ZBAA,1990-01-01 07:00,ZBAA 010700Z AUTO 03008KT 7SM 02/M18 A3030 RMK T00201180 IEM_DS3505
ZBAA,1990-01-01 09:00,ZBAA 010900Z AUTO 14002KT 12SM M00/M18 RMK SLP280 T10051181 52013 IEM_DS3505
ZBAA,1990-01-01 10:00,ZBAA 011000Z AUTO 01004KT 7SM 04/M18 A3036 RMK T00401180 IEM_DS3505
ZBAA,1990-01-01 12:00,ZBAA 011200Z AUTO 04002KT 12SM M03/M21 RMK SLP309 T10331210 52029 IEM_DS3505
ZBAA,1990-01-01 15:00,ZBAA 011500Z AUTO 04006KT 12SM M05/M21 RMK SLP320 T10491213 52011 IEM_DS3505
ZBAA,1990-01-01 18:00,ZBAA 011800Z AUTO 14006KT 19SM M06/M21 RMK SLP323 T10631208 40020//// IEM_DS3505
ZBAA,1990-01-01 20:00,ZBAA 012000Z AUTO 02006KT 7SM M09/M19 A3045 RMK T10901190 IEM_DS3505
ZBAA,1990-01-01 21:00,ZBAA 012100Z AUTO 34002KT 16SM M07/M24 RMK SLP321 T10691236 57002 IEM_DS3505
ZBAA,1990-01-01 23:00,ZBAA 012300Z AUTO 02008KT 7SM M09/M18 A3047 RMK T10901180 IEM_DS3505
ZBAA,1990-01-02 00:00,ZBAA 020000Z AUTO 00000KT 16SM M08/M20 A3047 RMK SLP333 T10791195 52011 IEM_DS3505
ZBAA,1990-01-02 02:00,ZBAA 020200Z AUTO ////06KT 7SM M03/M17 A3050 RMK T10301170 IEM_DS3505
ZBAA,1990-01-02 03:00,ZBAA 020300Z AUTO 02006KT 12SM M03/M23 A3050 RMK SLP338 T10341226 52005 IEM_DS3505
ZBAA,1990-01-02 04:00,ZBAA 020400Z AUTO 04006KT 7SM M01/M18 A3047 RMK T10101180 IEM_DS3505
ZBAA,1990-01-02 05:00,ZBAA 020500Z AUTO ////04KT 7SM 00/M19 A3045 RMK T00001190 IEM_DS3505
ZBAA,1990-01-02 06:00,ZBAA 020600Z AUTO 04006KT 9SM 01/M17 A3042 RMK T00081167 4////1093 57022 IEM_DS3505
ZBAA,1990-01-02 09:00,ZBAA 020900Z AUTO 22004KT 12SM M01/M18 RMK SLP315 T10081177 54000 IEM_DS3505
ZBAA,1990-01-02 11:00,ZBAA 021100Z AUTO 06002KT 7SM M05/M20 A3045 RMK T10501200 IEM_DS3505
ZBAA,1990-01-02 12:00,ZBAA 021200Z AUTO 18002KT 12SM M03/M14 A3047 RMK SLP326 T10291140 52010 IEM_DS3505
ZBAA,1990-01-02 13:00,ZBAA 021300Z AUTO 00000KT 7SM M06/M19 A3047 RMK T10601190 IEM_DS3505
ZBAA,1990-01-02 14:00,ZBAA 021400Z AUTO 22002KT 7SM M08/M19 A3047 RMK T10801190 IEM_DS3505
ZBAA,1990-01-02 15:00,ZBAA 021500Z AUTO 00000KT 11SM M07/M15 RMK SLP330 T10711149 52004 IEM_DS3505
ZBAA,1990-01-02 18:00,ZBAA 021800Z AUTO 00000KT 7SM M09/M16 RMK SLP323 T10881162 40028//// 57006 IEM_DS3505
ZBAA,1990-01-02 20:00,ZBAA 022000Z AUTO 35004KT 7SM M09/M20 A3045 RMK T10901200 IEM_DS3505
ZBAA,1990-01-02 21:00,ZBAA 022100Z AUTO 04002KT 6SM M10/M16 RMK SLP313 T10971162 57011 IEM_DS3505
ZBAA,1990-01-03 00:00,ZBAA 030000Z AUTO 04002KT 3SM M10/M16 A3042 RMK SLP315 T11021165 52002 IEM_DS3505
ZBAA,1990-01-03 03:00,ZBAA 030300Z AUTO 02004KT 3SM M04/M22 RMK SLP317 T10351217 52002 IEM_DS3505
ZBAA,1990-01-03 06:00,ZBAA 030600Z AUTO 22002KT 3SM M00/M17 RMK SLP279 T10011174 57037 IEM_DS3505
ZBAA,1990-01-03 09:00,ZBAA 030900Z AUTO 20004KT 0SM M01/M15 RMK SLP276 T10121146 57003 IEM_DS3505
ZBAA,1990-01-03 10:00,ZBAA 031000Z AUTO 00000KT 2 1/2SM M07/M16 RMK SLP270 T10721157 57007 IEM_DS3505
ZBAA,1990-01-03 12:00,ZBAA 031200Z AUTO 20004KT 5SM M03/M08 RMK SLP280 T10311082 52003 IEM_DS3505
ZBAA,1990-01-03 15:00,ZBAA 031500Z AUTO 00000KT 4SM M06/M09 RMK SLP277 T10561088 57002 IEM_DS3505
ZBAA,1990-01-03 18:00,ZBAA 031800Z AUTO 00000KT 2 1/2SM M07/M16 RMK SLP270 T10721157 40005//// 57007 IEM_DS3505
ZBAA,1990-01-03 21:00,ZBAA 032100Z AUTO 00000KT 3SM M09/M15 RMK SLP257 T10861152 57013 IEM_DS3505
ZBAA,1990-01-04 00:00,ZBAA 040000Z AUTO 00000KT 2SM M09/M14 A3024 RMK SLP257 T10871140 54000 IEM_DS3505
ZBAA,1990-01-04 01:00,ZBAA 040100Z AUTO 34004KT 7SM M07/M14 A3024 RMK T10701140 IEM_DS3505
ZBAA,1990-01-04 03:00,ZBAA 040300Z AUTO 00000KT 2SM M03/M14 A3024 RMK SLP252 T10291139 57005 IEM_DS3505
ZBAA,1990-01-04 06:00,ZBAA 040600Z AUTO 00000KT 1 1/4SM 01/M12 RMK SLP218 T00131116 4////1094 57033 IEM_DS3505
ZBAA,1990-01-04 09:00,ZBAA 040900Z AUTO 00000KT 1 1/4SM M00/M11 RMK SLP215 T10031113 57004 IEM_DS3505
ZBAA,1990-01-04 11:00,ZBAA 041100Z AUTO 24002KT 3SM M04/M11 A3018 RMK T10401110 IEM_DS3505
ZBAA,1990-01-04 12:00,ZBAA 041200Z AUTO 00000KT 1 1/4SM M04/M10 RMK SLP232 T10401100 52017 IEM_DS3505
ZBAA,1990-01-04 13:00,ZBAA 041300Z AUTO 25002KT 3SM M05/M11 A3018 RMK T10501110 IEM_DS3505
ZBAA,1990-01-04 14:00,ZBAA 041400Z AUTO 00000KT 3SM M05/M11 A3021 RMK T10501110 IEM_DS3505
ZBAA,1990-01-04 15:00,ZBAA 041500Z AUTO 34002KT 1 1/4SM M06/M12 RMK SLP239 T10551123 52007 IEM_DS3505
ZBAA,1990-01-04 18:00,ZBAA 041800Z AUTO 00000KT 2 1/2SM M07/M11 RMK SLP244 T10691110 40014//// 52005 IEM_DS3505
ZBAA,1990-01-04 20:00,ZBAA 042000Z AUTO ////06KT 7SM M03/M13 A3024 RMK T10301130 IEM_DS3505
ZBAA,1990-01-04 21:00,ZBAA 042100Z AUTO 36008KT 6SM M00/M13 A3024 RMK SLP251 T10041134 52008 IEM_DS3505
ZBAA,1990-01-04 22:00,ZBAA 042200Z AUTO ////06KT 7SM M04/M14 A3027 RMK T10401140 IEM_DS3505
ZBAA,1990-01-04 23:00,ZBAA 042300Z AUTO ////04KT 7SM M03/M14 A3030 RMK T10301140 IEM_DS3505
ZBAA,1990-01-05 00:00,ZBAA 050000Z AUTO 36008KT 12SM M00/M13 A3033 RMK SLP279 T10051134 52027 IEM_DS3505
ZBAA,1990-01-05 02:00,ZBAA 050200Z AUTO ////06KT 7SM 02/M13 A3039 RMK T00201130 IEM_DS3505
ZBAA,1990-01-05 03:00,ZBAA 050300Z AUTO 36014KT 8SM 02/M15 RMK SLP301 T00231149 52022 IEM_DS3505
ZBAA,1990-01-05 04:00,ZBAA 050400Z AUTO 02008KT 7SM 05/M14 A3039 RMK T00501140 IEM_DS3505
ZBAA,1990-01-05 05:00,ZBAA 050500Z AUTO 03006KT 7SM 05/M15 A3036 RMK T00501150 IEM_DS3505
ZBAA,1990-01-05 06:00,ZBAA 050600Z AUTO 36012KT 9SM 04/M17 A3036 RMK SLP294 T00411167 4////1076 57007 IEM_DS3505
ZBAA,1990-01-05 07:00,ZBAA 050700Z AUTO ////02KT 7SM 06/M16 A3036 RMK T00601160 IEM_DS3505
ZBAA,1990-01-05 08:00,ZBAA 050800Z AUTO 09002KT 7SM 05/M17 A3036 RMK T00501170 IEM_DS3505
ZBAA,1990-01-05 09:00,ZBAA 050900Z AUTO 34004KT 10SM 03/M14 A3039 RMK SLP300 T00261143 52007 IEM_DS3505
ZBAA,1990-01-05 10:00,ZBAA 051000Z AUTO ////02KT 7SM 00/M18 A3042 RMK T00001180 IEM_DS3505
ZBAA,1990-01-05 11:00,ZBAA 051100Z AUTO 02002KT 7SM M01/M20 A3045 RMK T10101200 IEM_DS3505
ZBAA,1990-01-05 12:00,ZBAA 051200Z AUTO 04004KT 9SM 00/M15 A3045 RMK SLP322 T00011151 52022 IEM_DS3505
ZBAA,1990-01-05 13:00,ZBAA 051300Z AUTO 33004KT 7SM M02/M23 A3047 RMK T10201230 IEM_DS3505
ZBAA,1990-01-05 14:00,ZBAA 051400Z AUTO 04004KT 7SM M03/M22 A3047 RMK T10301220 IEM_DS3505
ZBAA,1990-01-05 15:00,ZBAA 051500Z AUTO 36004KT 12SM M02/M18 A3050 RMK SLP333 T10231182 52011 IEM_DS3505
ZBAA,1990-01-05 18:00,ZBAA 051800Z AUTO 04006KT 12SM M02/M20 RMK SLP334 T10231202 40043//// 52001 IEM_DS3505
ZBAA,1990-01-05 20:00,ZBAA 052000Z AUTO 25002KT 7SM M06/M21 A3050 RMK T10601210 IEM_DS3505
ZBAA,1990-01-05 21:00,ZBAA 052100Z AUTO 29002KT 12SM M06/M17 A3047 RMK SLP336 T10631171 52001 IEM_DS3505
ZBAA,1990-01-05 22:00,ZBAA 052200Z AUTO 36004KT 7SM M07/M20 A3047 RMK T10701200 IEM_DS3505
ZBAA,1990-01-05 23:00,ZBAA 052300Z AUTO 36006KT 7SM M05/M21 A3050 RMK T10501210 IEM_DS3505
ZBAA,1990-01-06 00:00,ZBAA 060000Z AUTO 00000KT 3SM M08/M15 A3050 RMK SLP342 T10781153 52005 IEM_DS3505
ZBAA,1990-01-06 02:00,ZBAA 060200Z AUTO ////06KT 7SM M01/M19 A3053 RMK T10101190 IEM_DS3505
ZBAA,1990-01-06 03:00,ZBAA 060300Z AUTO 00000KT 2SM 00/M17 A3050 RMK SLP340 T00001173 57001 IEM_DS3505
ZBAA,1990-01-06 06:00,ZBAA 060600Z AUTO 18006KT 12SM 04/M15 RMK SLP307 T00371154 4////1081 57032 IEM_DS3505
ZBAA,1990-01-06 08:00,ZBAA 060800Z AUTO ////06KT 7SM 04/M13 A3039 RMK T00401130 IEM_DS3505
ZBAA,1990-01-06 09:00,ZBAA 060900Z AUTO 20002KT 5SM 03/M12 RMK SLP300 T00291117 57008 IEM_DS3505
ZBAA,1990-01-06 12:00,ZBAA 061200Z AUTO 02002KT 4SM M02/M14 RMK SLP307 T10211145 52006 IEM_DS3505
ZBAA,1990-01-06 13:00,ZBAA 061300Z AUTO 00000KT 5SM M03/M13 A3042 RMK T10301130 IEM_DS3505
ZBAA,1990-01-06 15:00,ZBAA 061500Z AUTO 00000KT 2 1/2SM M04/M15 RMK SLP306 T10451146 54000 IEM_DS3505
ZBAA,1990-01-06 18:00,ZBAA 061800Z AUTO 00000KT 2 1/2SM M06/M14 RMK SLP301 T10631136 40039//// 57005 IEM_DS3505
ZBAA,1990-01-06 20:00,ZBAA 062000Z AUTO 03002KT 5SM M08/M14 A3036 RMK T10801140 IEM_DS3505
ZBAA,1990-01-06 21:00,ZBAA 062100Z AUTO 00000KT 2SM M06/M14 RMK SLP289 T10651139 57012 IEM_DS3505
ZBAA,1990-01-07 00:00,ZBAA 070000Z AUTO 00000KT 4SM M05/M14 A3039 RMK SLP297 T10511141 52008 IEM_DS3505
ZBAA,1990-01-07 03:00,ZBAA 070300Z AUTO 04006KT 2 1/2SM M02/M12 A3039 RMK SLP300 T10161124 52003 IEM_DS3505
ZBAA,1990-01-07 04:00,ZBAA 070400Z AUTO 08004KT 7SM 01/M11 A3036 RMK T00101110 IEM_DS3505
ZBAA,1990-01-07 06:00,ZBAA 070600Z AUTO 07006KT 3SM 00/M11 A3030 RMK SLP273 T00031113 4////1077 57027 IEM_DS3505
ZBAA,1990-01-07 09:00,ZBAA 070900Z AUTO 00000KT 2SM M01/M09 RMK SLP272 T10061086 57001 IEM_DS3505
ZBAA,1990-01-07 12:00,ZBAA 071200Z AUTO 00000KT 4SM M03/M09 RMK SLP282 T10311089 52010 IEM_DS3505
ZBAA,1990-01-07 15:00,ZBAA 071500Z AUTO 00000KT 3SM M01/M08 RMK SLP282 T10101083 52001 IEM_DS3505
ZBAA,1990-01-07 18:00,ZBAA 071800Z AUTO 00000KT 2 1/2SM M04/M09 RMK SLP281 T10351088 40010//// 57002 IEM_DS3505
ZBAA,1990-01-07 21:00,ZBAA 072100Z AUTO 00000KT 2 1/2SM M05/M09 RMK SLP275 T10531094 57006 IEM_DS3505
ZBAA,1990-01-08 00:00,ZBAA 080000Z AUTO 00000KT 1 1/2SM M06/M10 RMK SLP275 T10611100 54000 IEM_DS3505
ZBAA,1990-01-08 02:00,ZBAA 080200Z AUTO 00000KT 1SM M02/M08 A3033 RMK T10201080 IEM_DS3505
ZBAA,1990-01-08 03:00,ZBAA 080300Z AUTO 36004KT 1SM M01/M06 RMK SLP278 T10061064 52004 IEM_DS3505
ZBAA,1990-01-08 06:00,ZBAA 080600Z AUTO 00000KT 1 1/4SM 02/M06 A3027 RMK SLP259 T00231060 4////1068 57019 IEM_DS3505
ZBAA,1990-01-08 07:00,ZBAA 080700Z AUTO 13004KT 2 1/2SM 03/M06 A3024 RMK T00301060 IEM_DS3505
ZBAA,1990-01-08 08:00,ZBAA 080800Z AUTO 11002KT 2 1/2SM 03/M06 A3024 RMK T00301060 IEM_DS3505
ZBAA,1990-01-08 09:00,ZBAA 080900Z AUTO 00000KT 1 1/2SM 00/M05 A3024 RMK SLP257 T00051050 57003 IEM_DS3505
ZBAA,1990-01-08 10:00,ZBAA 081000Z AUTO 00000KT 1 1/2SM 01/M07 A3027 RMK T00101070 IEM_DS3505
ZBAA,1990-01-08 11:00,ZBAA 081100Z AUTO 00000KT 1 1/4SM M02/M07 A3027 RMK T10201070 IEM_DS3505
ZBAA,1990-01-08 12:00,ZBAA 081200Z AUTO 00000KT 1 1/4SM M02/M07 RMK SLP265 T10231067 52008 IEM_DS3505
ZBAA,1990-01-08 15:00,ZBAA 081500Z AUTO 00000KT 1 1/4SM M03/M06 RMK SLP262 T10301062 57002 IEM_DS3505
ZBAA,1990-01-08 18:00,ZBAA 081800Z AUTO 00000KT 1 1/4SM M02/M07 RMK SLP252 T10251068 40027//// 57010 IEM_DS3505
ZBAA,1990-01-08 21:00,ZBAA 082100Z AUTO 00000KT 1 1/4SM M02/M06 A3021 RMK SLP243 T10251064 57009 IEM_DS3505
ZBAA,1990-01-09 00:00,ZBAA 090000Z AUTO 04004KT 1 1/4SM M02/M07 A3018 RMK SLP235 T10171066 57008 IEM_DS3505
ZBAA,1990-01-09 01:00,ZBAA 090100Z AUTO 09004KT 1 1/4SM 02/M06 A3021 RMK SLP226 T00211060 4////1040 57015 IEM_DS3505
ZBAA,1990-01-09 02:00,ZBAA 090200Z AUTO 32006KT 2SM M01/M06 A3021 RMK T10101060 IEM_DS3505
ZBAA,1990-01-09 03:00,ZBAA 090300Z AUTO 07002KT 1 1/2SM 00/M05 RMK SLP241 T00051050 52006 IEM_DS3505
ZBAA,1990-01-09 04:00,ZBAA 090400Z AUTO 00000KT 1 1/4SM 00/M05 A3018 RMK T00001050 IEM_DS3505
ZBAA,1990-01-09 05:00,ZBAA 090500Z AUTO 10002KT 1SM 01/M03 A3018 RMK T00101030 IEM_DS3505
ZBAA,1990-01-09 06:00,ZBAA 090600Z AUTO 09004KT 1 1/4SM 02/M06 A3018 RMK SLP226 T00211060 4////1040 57015 IEM_DS3505
ZBAA,1990-01-09 07:00,ZBAA 090700Z AUTO 07004KT 1SM 01/M01 A3018 RMK T00101010 IEM_DS3505
ZBAA,1990-01-09 08:00,ZBAA 090800Z AUTO 03006KT 1 1/2SM 01/M01 A3018 RMK T00101010 IEM_DS3505
ZBAA,1990-01-09 09:00,ZBAA 090900Z AUTO 02004KT 2 1/2SM 01/M03 A3021 RMK SLP237 T00101033 52011 IEM_DS3505
ZBAA,1990-01-09 10:00,ZBAA 091000Z AUTO 04006KT 1 1/4SM 00/M03 A3021 RMK T00001030 IEM_DS3505
ZBAA,1990-01-09 11:00,ZBAA 091100Z AUTO 34006KT 5SM M01/M11 RMK SLP262 T10141111 52025 IEM_DS3505
ZBAA,1990-01-09 12:00,ZBAA 091200Z AUTO 34006KT 5SM M01/M11 A3027 RMK SLP262 T10141111 IEM_DS3505
ZBAA,1990-01-09 13:00,ZBAA 091300Z AUTO 34008KT 6SM M01/M12 A3030 RMK T10101120 IEM_DS3505
ZBAA,1990-01-09 14:00,ZBAA 091400Z AUTO 31010KT 6SM M02/M13 A3030 RMK T10201130 IEM_DS3505
ZBAA,1990-01-09 15:00,ZBAA 091500Z AUTO 36012KT 6SM M02/M15 RMK SLP273 T10221146 52011 IEM_DS3505
ZBAA,1990-01-09 18:00,ZBAA 091800Z AUTO 36008KT 19SM M04/M18 RMK SLP278 T10371181 40022//// 52005 IEM_DS3505
ZBAA,1990-01-09 20:00,ZBAA 092000Z AUTO 01004KT 7SM M06/M14 A3036 RMK T10601140 IEM_DS3505
ZBAA,1990-01-09 21:00,ZBAA 092100Z AUTO 02006KT 16SM M05/M17 A3036 RMK SLP286 T10511170 52007 IEM_DS3505
ZBAA,1990-01-09 22:00,ZBAA 092200Z AUTO 03002KT 7SM M07/M15 A3036 RMK T10701150 IEM_DS3505
ZBAA,1990-01-09 23:00,ZBAA 092300Z AUTO 02006KT 7SM M06/M15 A3039 RMK T10601150 IEM_DS3505
ZBAA,1990-01-10 00:00,ZBAA 100000Z AUTO 07006KT 9SM M05/M17 A3039 RMK SLP302 T10531167 52016 IEM_DS3505
ZBAA,1990-01-10 03:00,ZBAA 100300Z AUTO 04004KT 9SM M03/M17 RMK SLP312 T10331171 52010 IEM_DS3505
ZBAA,1990-01-10 06:00,ZBAA 100600Z AUTO 02002KT 9SM 00/M15 RMK SLP282 T00021150 4////1059 57030 IEM_DS3505
ZBAA,1990-01-10 08:00,ZBAA 100800Z AUTO ////04KT 6SM 02/M13 A3033 RMK T00201130 IEM_DS3505
ZBAA,1990-01-10 09:00,ZBAA 100900Z AUTO 20008KT 7SM M02/M15 RMK SLP288 T10191147 52006 IEM_DS3505
ZBAA,1990-01-10 12:00,ZBAA 101200Z AUTO 20004KT 6SM M04/M12 RMK SLP305 T10391115 52017 IEM_DS3505
ZBAA,1990-01-10 15:00,ZBAA 101500Z AUTO 18004KT 6SM M04/M12 RMK SLP309 T10451119 52004 IEM_DS3505
ZBAA,1990-01-10 18:00,ZBAA 101800Z AUTO 18002KT 4SM M06/M11 RMK SLP303 T10571109 40010//// 57006 IEM_DS3505
ZBAA,1990-01-10 20:00,ZBAA 102000Z AUTO 00000KT 3SM M05/M09 A3036 RMK T10501090 IEM_DS3505
ZBAA,1990-01-10 21:00,ZBAA 102100Z AUTO 00000KT 4SM M05/M11 A3036 RMK T10491108 57010 IEM_DS3505
ZBAA,1990-01-10 22:00,ZBAA 102200Z AUTO 07002KT 4SM M05/M09 A3033 RMK T10501090 IEM_DS3505
ZBAA,1990-01-11 00:00,ZBAA 110000Z AUTO 36004KT 3SM M05/M12 A3033 RMK SLP285 T10501115 57002 IEM_DS3505
ZBAA,1990-01-11 01:00,ZBAA 110100Z AUTO 00000KT 4SM M04/M09 A3036 RMK T10401090 IEM_DS3505
ZBAA,1990-01-11 03:00,ZBAA 110300Z AUTO 00000KT 3SM M03/M11 RMK SLP286 T10311109 52001 IEM_DS3505
ZBAA,1990-01-11 06:00,ZBAA 110600Z AUTO 18004KT 2 1/2SM M01/M08 RMK SLP262 T10111084 4////1066 57024 IEM_DS3505
ZBAA,1990-01-11 09:00,ZBAA 110900Z AUTO 20004KT 3SM M02/M06 RMK SLP267 T10201061 52005 IEM_DS3505
ZBAA,1990-01-11 12:00,ZBAA 111200Z AUTO 00000KT 2 1/2SM M05/M07 RMK SLP285 T10471069 52018 IEM_DS3505
ZBAA,1990-01-11 15:00,ZBAA 111500Z AUTO 34008KT 7SM M03/M16 RMK SLP304 T10261163 52019 IEM_DS3505
ZBAA,1990-01-11 18:00,ZBAA 111800Z AUTO 36014KT 12SM M04/M21 RMK SLP320 T10431207 41007//// 52016 IEM_DS3505
ZBAA,1990-01-11 21:00,ZBAA 112100Z AUTO 36008KT 12SM M06/M21 RMK SLP334 T10561211 52014 IEM_DS3505
ZBAA,1990-01-12 00:00,ZBAA 120000Z AUTO 36010KT 19SM M07/M21 A3056 RMK SLP351 T10691213 52016 IEM_DS3505
ZBAA,1990-01-12 01:00,ZBAA 120100Z AUTO ////04KT 6SM M07/M19 A3059 RMK T10701190 IEM_DS3505
ZBAA,1990-01-12 03:00,ZBAA 120300Z AUTO 34006KT 12SM M03/M23 A3059 RMK SLP361 T10321233 52011 IEM_DS3505
ZBAA,1990-01-12 04:00,ZBAA 120400Z AUTO ////06KT 7SM M02/M19 A3056 RMK T10201190 IEM_DS3505
ZBAA,1990-01-12 06:00,ZBAA 120600Z AUTO 02008KT 12SM M01/M22 RMK SLP334 T10101215 4////1073 57027 IEM_DS3505
ZBAA,1990-01-12 09:00,ZBAA 120900Z AUTO 34004KT 16SM M01/M24 A3047 RMK SLP329 T10121236 57005 IEM_DS3505
ZBAA,1990-01-12 10:00,ZBAA 121000Z AUTO 03004KT 7SM M06/M22 A3047 RMK T10601220 IEM_DS3505
ZBAA,1990-01-12 11:00,ZBAA 121100Z AUTO 02004KT 7SM M06/M21 A3047 RMK T10601210 IEM_DS3505
ZBAA,1990-01-12 12:00,ZBAA 121200Z AUTO 16004KT 11SM M06/M21 RMK SLP337 T10561212 52007 IEM_DS3505
ZBAA,1990-01-12 13:00,ZBAA 121300Z AUTO 21002KT 7SM M07/M20 A3047 RMK T10701200 IEM_DS3505
ZBAA,1990-01-12 15:00,ZBAA 121500Z AUTO 18006KT 9SM M06/M13 RMK SLP329 T10571132 57008 IEM_DS3505
ZBAA,1990-01-12 18:00,ZBAA 121800Z AUTO 25004KT 7SM M07/M13 RMK SLP315 T10741134 41003//// 57013 IEM_DS3505
ZBAA,1990-01-12 20:00,ZBAA 122000Z AUTO 00000KT 7SM M11/M19 A3039 RMK T11101190 IEM_DS3505
ZBAA,1990-01-12 21:00,ZBAA 122100Z AUTO 00000KT 11SM M10/M18 A3036 RMK SLP296 T11011184 57020 IEM_DS3505
ZBAA,1990-01-13 00:00,ZBAA 130000Z AUTO 00000KT 2SM M11/M17 A3036 RMK SLP293 T11131166 57003 IEM_DS3505
ZBAA,1990-01-13 03:00,ZBAA 130300Z AUTO 07002KT 3SM M04/M19 RMK SLP288 T10441189 57004 IEM_DS3505
ZBAA,1990-01-13 06:00,ZBAA 130600Z AUTO 20004KT 3SM M01/M11 RMK SLP249 T10101108 4////1118 57039 IEM_DS3505
ZBAA,1990-01-13 08:00,ZBAA 130800Z AUTO 21004KT 5SM 00/M09 A3021 RMK T00001090 IEM_DS3505
ZBAA,1990-01-13 09:00,ZBAA 130900Z AUTO 20004KT 2 1/2SM M03/M08 RMK SLP242 T10261084 57007 IEM_DS3505
ZBAA,1990-01-13 12:00,ZBAA 131200Z AUTO 20004KT 2SM M04/M08 RMK SLP257 T10451079 52014 IEM_DS3505
ZBAA,1990-01-13 15:00,ZBAA 131500Z AUTO 36004KT 2SM M07/M10 RMK SLP272 T10731096 52015 IEM_DS3505
ZBAA,1990-01-13 18:00,ZBAA 131800Z AUTO 04006KT 6SM M05/M13 RMK SLP276 T10521130 41005//// 52005 IEM_DS3505
ZBAA,1990-01-13 21:00,ZBAA 132100Z AUTO 02006KT 6SM M15/M22 RMK SLP286 T11501215 52010 IEM_DS3505
ZBAA,1990-01-14 00:00,ZBAA 140000Z AUTO 04008KT 6SM M07/M22 RMK SLP311 T10671218 52024 IEM_DS3505
ZBAA,1990-01-14 02:00,ZBAA 140200Z AUTO ////06KT 7SM M03/M19 A3047 RMK T10301190 IEM_DS3505
ZBAA,1990-01-14 03:00,ZBAA 140300Z AUTO 36010KT 8SM M02/M27 A3047 RMK SLP327 T10221266 52016 IEM_DS3505
ZBAA,1990-01-14 04:00,ZBAA 140400Z AUTO 03008KT 7SM 00/M20 A3045 RMK T00001200 IEM_DS3505
ZBAA,1990-01-14 06:00,ZBAA 140600Z AUTO 02010KT 9SM 01/M29 RMK SLP299 T00071292 57027 IEM_DS3505
ZBAA,1990-01-14 07:00,ZBAA 140700Z AUTO 04006KT 6SM 02/M21 A3039 RMK T00201210 IEM_DS3505
ZBAA,1990-01-14 09:00,ZBAA 140900Z AUTO 11002KT 7SM M00/M23 RMK SLP308 T10041232 52009 IEM_DS3505
ZBAA,1990-01-14 12:00,ZBAA 141200Z AUTO 20004KT 6SM M03/M19 RMK SLP316 T10271192 52007 IEM_DS3505
ZBAA,1990-01-14 15:00,ZBAA 141500Z AUTO 00000KT 6SM M04/M13 RMK SLP318 T10431134 52003 IEM_DS3505
ZBAA,1990-01-14 18:00,ZBAA 141800Z AUTO 00000KT 5SM M06/M16 RMK SLP311 T10591156 40008//// 57007 IEM_DS3505
ZBAA,1990-01-14 21:00,ZBAA 142100Z AUTO 04002KT 4SM M09/M19 RMK SLP295 T10901188 57016 IEM_DS3505
ZBAA,1990-01-14 23:00,ZBAA 142300Z AUTO 00000KT 6SM M08/M18 A3036 RMK T10801180 IEM_DS3505
ZBAA,1990-01-15 00:00,ZBAA 150000Z AUTO 04002KT 2 1/2SM M08/M17 A3036 RMK SLP287 T10751170 57008 IEM_DS3505
ZBAA,1990-01-15 03:00,ZBAA 150300Z AUTO 00000KT 3SM M03/M20 RMK SLP281 T10291197 57006 IEM_DS3505
ZBAA,1990-01-15 05:00,ZBAA 150500Z AUTO 20002KT 7SM 02/M18 A3027 RMK T00201180 IEM_DS3505
ZBAA,1990-01-15 06:00,ZBAA 150600Z AUTO 18004KT 2 1/2SM 01/M15 A3024 RMK SLP250 T00141150 4////1080 57030 IEM_DS3505
ZBAA,1990-01-15 07:00,ZBAA 150700Z AUTO 14002KT 5SM 03/M14 A3021 RMK T00301140 IEM_DS3505
ZBAA,1990-01-15 08:00,ZBAA 150800Z AUTO 18004KT 5SM 02/M13 A3021 RMK T00201130 IEM_DS3505
ZBAA,1990-01-15 09:00,ZBAA 150900Z AUTO 20006KT 5SM 00/M13 A3021 RMK SLP248 T00031132 IEM_DS3505
ZBAA,1990-01-15 10:00,ZBAA 151000Z AUTO 19002KT 4SM M02/M12 A3021 RMK T10201120 IEM_DS3505
ZBAA,1990-01-15 11:00,ZBAA 151100Z AUTO 19002KT 3SM M03/M12 A3024 RMK T10301120 IEM_DS3505
ZBAA,1990-01-15 12:00,ZBAA 151200Z AUTO 20006KT 5SM M02/M12 A3024 RMK SLP255 T10231116 52007 IEM_DS3505
ZBAA,1990-01-15 13:00,ZBAA 151300Z AUTO 10004KT 2SM M05/M12 A3024 RMK T10501120 IEM_DS3505
ZBAA,1990-01-15 14:00,ZBAA 151400Z AUTO 10002KT 2 1/2SM M05/M12 A3024 RMK T10501120 IEM_DS3505
ZBAA,1990-01-15 15:00,ZBAA 151500Z AUTO 00000KT 4SM M06/M11 A3024 RMK SLP254 T10561108 57001 IEM_DS3505
ZBAA,1990-01-15 16:00,ZBAA 151600Z AUTO 05002KT 2SM M07/M12 A3024 RMK T10701120 IEM_DS3505
ZBAA,1990-01-15 17:00,ZBAA 151700Z AUTO 00000KT 2SM M07/M12 A3024 RMK T10701120 IEM_DS3505
ZBAA,1990-01-15 17:23,ZBAA 151723Z AUTO 00000KT 2SM M07/M12 A3024 RMK T10701120 IEM_DS3505
ZBAA,1990-01-15 18:00,ZBAA 151800Z AUTO 07002KT 4SM M06/M23 RMK SLP248 T10631229 40018//// 57006 IEM_DS3505
ZBAA,1990-01-15 20:00,ZBAA 152000Z AUTO 00000KT 3SM M09/M15 A3021 RMK T10901150 IEM_DS3505
ZBAA,1990-01-15 21:00,ZBAA 152100Z AUTO 00000KT 4SM M10/M15 A3018 RMK SLP237 T11001150 57011 IEM_DS3505
ZBAA,1990-01-15 22:00,ZBAA 152200Z AUTO 26004KT 3SM M10/M15 A3018 RMK T11001150 IEM_DS3505
ZBAA,1990-01-15 23:00,ZBAA 152300Z AUTO 31002KT 3SM M10/M15 A3018 RMK T11001150 IEM_DS3505
ZBAA,1990-01-16 00:00,ZBAA 160000Z AUTO 00000KT 2 1/2SM M10/M14 A3018 RMK SLP231 T10961135 57006 IEM_DS3505
ZBAA,1990-01-16 01:00,ZBAA 160100Z AUTO 01004KT 5SM M06/M15 A3018 RMK T10601150 IEM_DS3505
ZBAA,1990-01-16 02:00,ZBAA 160200Z AUTO ////04KT 5SM M03/M14 RMK T10301140 IEM_DS3505
ZBAA,1990-01-16 03:00,ZBAA 160300Z AUTO 00000KT 2 1/2SM M02/M14 A3015 RMK SLP230 T10191135 57001 IEM_DS3505
ZBAA,1990-01-16 04:00,ZBAA 160400Z AUTO 07002KT 4SM 01/M13 A3012 RMK T00101130 IEM_DS3505
ZBAA,1990-01-16 05:00,ZBAA 160500Z AUTO 06002KT 4SM 02/M13 A3009 RMK T00201130 IEM_DS3505
ZBAA,1990-01-16 06:00,ZBAA 160600Z AUTO 07002KT 3SM 02/M14 A3006 RMK SLP193 T00191136 4////1101 57036 IEM_DS3505
ZBAA,1990-01-16 07:00,ZBAA 160700Z AUTO 00000KT 4SM 03/M13 A3006 RMK T00301130 IEM_DS3505
ZBAA,1990-01-16 08:00,ZBAA 160800Z AUTO 09002KT 4SM 03/M13 A3003 RMK T00301130 IEM_DS3505
ZBAA,1990-01-16 09:00,ZBAA 160900Z AUTO 04002KT 4SM 02/M12 A3003 RMK SLP187 T00211119 57006 IEM_DS3505
ZBAA,1990-01-16 10:00,ZBAA 161000Z AUTO 09002KT 4SM 00/M11 A3003 RMK T00001110 IEM_DS3505
ZBAA,1990-01-16 11:00,ZBAA 161100Z AUTO 09002KT 2 1/2SM M02/M12 A3003 RMK T10201120 IEM_DS3505
ZBAA,1990-01-16 12:00,ZBAA 161200Z AUTO 00000KT 3SM M03/M11 A3003 RMK SLP185 T10331111 57003 IEM_DS3505
ZBAA,1990-01-16 13:00,ZBAA 161300Z AUTO 09002KT 2SM M04/M11 A3000 RMK T10401110 IEM_DS3505
ZBAA,1990-01-16 14:00,ZBAA 161400Z AUTO 00000KT 2SM M05/M11 A3000 RMK T10501110 IEM_DS3505
ZBAA,1990-01-16 15:00,ZBAA 161500Z AUTO 00000KT 2 1/2SM M04/M11 RMK SLP177 T10441106 57007 IEM_DS3505
ZBAA,1990-01-16 18:00,ZBAA 161800Z AUTO 00000KT 4SM M03/M13 RMK SLP157 T10311129 40028//// 57019 IEM_DS3505
ZBAA,1990-01-16 20:00,ZBAA 162000Z AUTO 34002KT 2 1/2SM M03/M09 A2991 RMK T10301090 IEM_DS3505
ZBAA,1990-01-16 21:00,ZBAA 162100Z AUTO 04002KT 3SM M03/M11 A2991 RMK SLP140 T10291114 57017 IEM_DS3505
ZBAA,1990-01-16 22:00,ZBAA 162200Z AUTO 31004KT 3SM M02/M07 A2991 RMK T10201070 IEM_DS3505
ZBAA,1990-01-16 23:00,ZBAA 162300Z AUTO 31002KT 3SM M02/M06 A2991 RMK T10201060 IEM_DS3505
ZBAA,1990-01-17 00:00,ZBAA 170000Z AUTO 36004KT 3SM M02/M10 A2994 RMK SLP151 T10221097 52010 IEM_DS3505
ZBAA,1990-01-17 01:00,ZBAA 170100Z AUTO 29004KT 2SM M02/M08 A2994 RMK T10201080 IEM_DS3505
ZBAA,1990-01-17 02:00,ZBAA 170200Z AUTO 34006KT 2SM M01/M09 A2994 RMK T10101090 IEM_DS3505
ZBAA,1990-01-17 03:00,ZBAA 170300Z AUTO 25002KT 1 1/4SM 01/M12 A2994 RMK SLP154 T00131116 52003 IEM_DS3505
ZBAA,1990-01-17 04:00,ZBAA 170400Z AUTO 28010KT 5SM 02/M19 A2991 RMK T00201190 IEM_DS3505
ZBAA,1990-01-17 05:00,ZBAA 170500Z AUTO 28014G23KT 2 1/2SM 07/M21 A2988 RMK T00701210 IEM_DS3505
ZBAA,1990-01-17 06:00,ZBAA 170600Z AUTO 20008KT 2SM 04/ A2988 RMK SLP133 4////1051 57020 IEM_DS3505
ZBAA,1990-01-17 07:00,ZBAA 170700Z AUTO 29019G33KT 2 1/2SM 07/M21 A2985 RMK T00701210 IEM_DS3505
ZBAA,1990-01-17 08:00,ZBAA 170800Z AUTO 30016G25KT 2 1/2SM 07/M22 A2988 RMK T00701220 IEM_DS3505
ZBAA,1990-01-17 09:00,ZBAA 170900Z AUTO 20004KT 1 1/2SM 03/ A2994 RMK SLP153 52020 IEM_DS3505
ZBAA,1990-01-17 10:00,ZBAA 171000Z AUTO 30010G21KT 1SM 05/M23 A2997 RMK T00501230 IEM_DS3505
ZBAA,1990-01-17 11:00,ZBAA 171100Z AUTO 29010KT 1 1/4SM 05/M23 A3003 RMK T00501230 IEM_DS3505
ZBAA,1990-01-17 12:00,ZBAA 171200Z AUTO 34012G25KT 1 1/4SM 03/M16 A3006 RMK SLP199 T00291162 52046 IEM_DS3505
ZBAA,1990-01-17 13:00,ZBAA 171300Z AUTO 30012G21KT 1 1/4SM 03/M24 A3012 RMK T00301240 IEM_DS3505
ZBAA,1990-01-17 15:00,ZBAA 171500Z AUTO 32014G17KT 6SM M00/M24 A3015 RMK SLP232 T10041241 52032 IEM_DS3505
ZBAA,1990-01-17 18:00,ZBAA 171800Z AUTO 29012KT 7SM M03/M22 RMK SLP248 T10271224 40061//// 52016 IEM_DS3505
ZBAA,1990-01-17 20:00,ZBAA 172000Z AUTO 31008KT 4SM M04/M24 A3024 RMK T10401240 IEM_DS3505
ZBAA,1990-01-17 21:00,ZBAA 172100Z AUTO 36008KT 11SM M05/M26 A3024 RMK SLP254 T10511258 52006 IEM_DS3505
ZBAA,1990-01-17 22:00,ZBAA 172200Z AUTO 30010G19KT 5SM M06/M24 A3027 RMK T10601240 IEM_DS3505
ZBAA,1990-01-17 23:00,ZBAA 172300Z AUTO 31014KT 7SM M06/M24 A3033 RMK T10601240 IEM_DS3505
ZBAA,1990-01-18 00:00,ZBAA 180000Z AUTO 02012KT 12SM M07/M26 A3036 RMK SLP289 T10671257 52034 IEM_DS3505
ZBAA,1990-01-18 01:00,ZBAA 180100Z AUTO 32012KT 6SM M06/M23 A3039 RMK T10601230 IEM_DS3505
ZBAA,1990-01-18 02:00,ZBAA 180200Z AUTO 33014G23KT 6SM M05/M23 A3039 RMK T10501230 IEM_DS3505
ZBAA,1990-01-18 03:00,ZBAA 180300Z AUTO 36008KT 12SM M05/M27 A3039 RMK SLP298 T10501272 52009 IEM_DS3505
ZBAA,1990-01-18 04:00,ZBAA 180400Z AUTO 02008KT 6SM M03/M24 A3036 RMK T10301240 IEM_DS3505
ZBAA,1990-01-18 05:00,ZBAA 180500Z AUTO 05006KT 6SM M04/M24 A3036 RMK T10401240 IEM_DS3505
ZBAA,1990-01-18 06:00,ZBAA 180600Z AUTO 02006KT 12SM M03/M27 A3036 RMK SLP285 T10271271 4////1073 57013 IEM_DS3505
ZBAA,1990-01-18 07:00,ZBAA 180700Z AUTO 06004KT 6SM M02/M24 A3036 RMK T10201240 IEM_DS3505
ZBAA,1990-01-18 08:00,ZBAA 180800Z AUTO 06004KT 6SM M03/M23 A3036 RMK T10301230 IEM_DS3505
ZBAA,1990-01-18 09:00,ZBAA 180900Z AUTO 07004KT 16SM M02/M23 A3039 RMK SLP294 T10211229 52009 IEM_DS3505
ZBAA,1990-01-18 10:00,ZBAA 181000Z AUTO 04004KT 6SM M07/M23 A3039 RMK T10701230 IEM_DS3505
ZBAA,1990-01-18 11:00,ZBAA 181100Z AUTO 05004KT 7SM M07/M23 A3042 RMK T10701230 IEM_DS3505
ZBAA,1990-01-18 12:00,ZBAA 181200Z AUTO 00000KT 16SM M06/M22 A3045 RMK SLP318 T10631219 52023 IEM_DS3505
ZBAA,1990-01-18 13:00,ZBAA 181300Z AUTO 00000KT 7SM M09/M23 A3045 RMK T10901230 IEM_DS3505
ZBAA,1990-01-18 14:00,ZBAA 181400Z AUTO 36004KT 7SM M08/M23 A3047 RMK T10801230 IEM_DS3505
ZBAA,1990-01-18 15:00,ZBAA 181500Z AUTO 36002KT 16SM M09/M19 A3047 RMK SLP331 T10891188 52013 IEM_DS3505
ZBAA,1990-01-18 16:00,ZBAA 181600Z AUTO 03004KT 7SM M09/M23 A3047 RMK T10901230 IEM_DS3505
ZBAA,1990-01-18 17:00,ZBAA 181700Z AUTO 02004KT 7SM M08/M23 A3047 RMK T10801230 IEM_DS3505
ZBAA,1990-01-18 18:00,ZBAA 181800Z AUTO 09004KT 12SM M07/M23 RMK SLP343 T10671231 41019//// 52012 IEM_DS3505
ZBAA,1990-01-18 21:00,ZBAA 182100Z AUTO 27002KT 12SM M08/M21 RMK SLP356 T10791206 52013 IEM_DS3505
ZBAA,1990-01-18 22:00,ZBAA 182200Z AUTO ////06KT 6SM M08/M23 A3056 RMK T10801230 IEM_DS3505
ZBAA,1990-01-18 23:00,ZBAA 182300Z AUTO ////04KT 7SM M09/M23 A3059 RMK T10901230 IEM_DS3505
ZBAA,1990-01-19 00:00,ZBAA 190000Z AUTO 34008KT 11SM M08/M25 RMK SLP383 T10811247 52026 IEM_DS3505
ZBAA,1990-01-19 01:00,ZBAA 190100Z AUTO 31010KT 7SM M07/M26 A3065 RMK T10701260 IEM_DS3505
ZBAA,1990-01-19 02:00,ZBAA 190200Z AUTO 30012KT 7SM M06/M26 A3068 RMK T10601260 IEM_DS3505
ZBAA,1990-01-19 03:00,ZBAA 190300Z AUTO 34006KT 16SM M06/M28 A3068 RMK SLP397 T10641283 52014 IEM_DS3505
ZBAA,1990-01-19 04:00,ZBAA 190400Z AUTO 30010KT 7SM M04/M26 A3065 RMK T10401260 IEM_DS3505
ZBAA,1990-01-19 05:00,ZBAA 190500Z AUTO 30012KT 7SM M04/M26 A3062 RMK T10401260 IEM_DS3505
ZBAA,1990-01-19 06:00,ZBAA 190600Z AUTO 36010KT 12SM M04/M28 A3062 RMK SLP381 T10431280 4////1097 57015 IEM_DS3505
ZBAA,1990-01-19 07:00,ZBAA 190700Z AUTO 30010KT 7SM M03/M26 A3062 RMK T10301260 IEM_DS3505
ZBAA,1990-01-19 08:00,ZBAA 190800Z AUTO 29012KT 7SM M03/M26 A3062 RMK T10301260 IEM_DS3505
ZBAA,1990-01-19 09:00,ZBAA 190900Z AUTO 34006KT 12SM M04/M27 A3062 RMK SLP375 T10441266 57006 IEM_DS3505
ZBAA,1990-01-19 10:00,ZBAA 191000Z AUTO 32006KT 7SM M06/M28 A3062 RMK T10601280 IEM_DS3505
ZBAA,1990-01-19 11:00,ZBAA 191100Z AUTO 32004KT 7SM M07/M27 A3062 RMK T10701270 IEM_DS3505
ZBAA,1990-01-19 12:00,ZBAA 191200Z AUTO 00000KT 12SM M07/M22 A3062 RMK SLP378 T10731224 52002 IEM_DS3505
ZBAA,1990-01-19 13:00,ZBAA 191300Z AUTO 33006KT 7SM M07/M27 A3059 RMK T10701270 IEM_DS3505
ZBAA,1990-01-19 15:00,ZBAA 191500Z AUTO 22006KT 11SM M08/M26 RMK SLP378 T10791255 54000 IEM_DS3505
ZBAA,1990-01-19 18:00,ZBAA 191800Z AUTO 20004KT 7SM M09/M24 RMK SLP364 T10871237 41036//// 57013 IEM_DS3505
ZBAA,1990-01-19 20:00,ZBAA 192000Z AUTO 00000KT 7SM M12/M24 A3056 RMK T11201240 IEM_DS3505
ZBAA,1990-01-19 21:00,ZBAA 192100Z AUTO 00000KT 7SM M11/M22 A3053 RMK SLP355 T11141223 57010 IEM_DS3505
ZBAA,1990-01-19 22:00,ZBAA 192200Z AUTO 04002KT 7SM M13/M23 A3053 RMK T11301230 IEM_DS3505
ZBAA,1990-01-19 23:00,ZBAA 192300Z AUTO 04002KT 7SM M14/M24 A3053 RMK T11401240 IEM_DS3505
ZBAA,1990-01-20 00:00,ZBAA 200000Z AUTO 00000KT 2 1/2SM M13/M21 A3053 RMK SLP354 T11291209 57001 IEM_DS3505
ZBAA,1990-01-20 01:00,ZBAA 200100Z AUTO 00000KT 5SM M12/M21 A3053 RMK T11201210 IEM_DS3505
ZBAA,1990-01-20 02:00,ZBAA 200200Z AUTO 00000KT 5SM M07/M21 A3053 RMK T10701210 IEM_DS3505
ZBAA,1990-01-20 03:00,ZBAA 200300Z AUTO 00000KT 2 1/2SM M05/M25 RMK SLP342 T10481249 57011 IEM_DS3505
ZBAA,1990-01-20 04:00,ZBAA 200400Z AUTO 00000KT 7SM M03/M21 A3050 RMK T10301210 IEM_DS3505
ZBAA,1990-01-20 05:00,ZBAA 200500Z AUTO 05002KT 6SM 00/M23 A3042 RMK T00001230 IEM_DS3505
ZBAA,1990-01-20 06:00,ZBAA 200600Z AUTO ////06KT 7SM M01/M25 A3036 RMK SLP298 T10121249 4////1134 57044 IEM_DS3505
ZBAA,1990-01-20 07:00,ZBAA 200700Z AUTO ////06KT 6SM 00/M21 A3036 RMK T00001210 IEM_DS3505
ZBAA,1990-01-20 08:00,ZBAA 200800Z AUTO ////06KT 6SM M01/M21 A3033 RMK T10101210 IEM_DS3505
ZBAA,1990-01-20 09:00,ZBAA 200900Z AUTO 22002KT 6SM M02/M24 A3033 RMK SLP285 T10231237 57013 IEM_DS3505
ZBAA,1990-01-20 10:00,ZBAA 201000Z AUTO 18002KT 6SM M04/M23 A3033 RMK T10401230 IEM_DS3505
ZBAA,1990-01-20 12:00,ZBAA 201200Z AUTO 18002KT 9SM M04/M21 A3033 RMK SLP284 T10391206 57001 IEM_DS3505
ZBAA,1990-01-20 13:00,ZBAA 201300Z AUTO 14004KT 5SM M06/M21 A3033 RMK T10601210 IEM_DS3505
ZBAA,1990-01-20 14:00,ZBAA 201400Z AUTO 14002KT 5SM M08/M21 A3030 RMK T10801210 IEM_DS3505
ZBAA,1990-01-20 15:00,ZBAA 201500Z AUTO 00000KT 7SM M08/M19 A3030 RMK SLP273 T10771191 57011 IEM_DS3505
ZBAA,1990-01-20 16:00,ZBAA 201600Z AUTO 00000KT 4SM M09/M20 A3027 RMK T10901200 IEM_DS3505
ZBAA,1990-01-20 18:00,ZBAA 201800Z AUTO 04004KT 6SM M07/M20 RMK SLP265 T10701203 41010//// 57007 IEM_DS3505
ZBAA,1990-01-20 21:00,ZBAA 202100Z AUTO 02004KT 6SM M07/M21 A3027 RMK T10721208 57007 IEM_DS3505
ZBAA,1990-01-20 22:00,ZBAA 202200Z AUTO 35002KT 7SM M11/M21 A3027 RMK T11101210 IEM_DS3505
ZBAA,1990-01-20 23:00,ZBAA 202300Z AUTO 01004KT 7SM M10/M20 A3030 RMK T11001200 IEM_DS3505
ZBAA,1990-01-21 00:00,ZBAA 210000Z AUTO 04004KT 5SM M07/M22 A3030 RMK SLP272 T10691223 52014 IEM_DS3505
ZBAA,1990-01-21 01:00,ZBAA 210100Z AUTO 02006KT 7SM M06/M20 A3033 RMK T10601200 IEM_DS3505
ZBAA,1990-01-21 03:00,ZBAA 210300Z AUTO 36008KT 4SM M02/M24 A3036 RMK SLP289 T10191235 52017 IEM_DS3505
ZBAA,1990-01-21 04:00,ZBAA 210400Z AUTO ////06KT 7SM 01/M22 A3036 RMK T00101220 IEM_DS3505
ZBAA,1990-01-21 05:00,ZBAA 210500Z AUTO 31012G21KT 7SM 01/M24 A3033 RMK T00101240 IEM_DS3505
ZBAA,1990-01-21 06:00,ZBAA 210600Z AUTO 34012KT 12SM M01/M26 A3033 RMK SLP286 T10081263 4////1090 57003 IEM_DS3505
ZBAA,1990-01-21 07:00,ZBAA 210700Z AUTO 29012KT 7SM 01/M25 A3036 RMK T00101250 IEM_DS3505
ZBAA,1990-01-21 08:00,ZBAA 210800Z AUTO 30010KT 7SM 00/M25 A3036 RMK T00001250 IEM_DS3505
ZBAA,1990-01-21 09:00,ZBAA 210900Z AUTO 32008KT 9SM M02/M30 A3039 RMK SLP304 T10181303 52018 IEM_DS3505
ZBAA,1990-01-21 10:00,ZBAA 211000Z AUTO 33002KT 7SM M04/M29 A3045 RMK T10401290 IEM_DS3505
ZBAA,1990-01-21 11:00,ZBAA 211100Z AUTO 35006KT 7SM M04/M28 A3047 RMK T10401280 IEM_DS3505
ZBAA,1990-01-21 12:00,ZBAA 211200Z AUTO 36006KT 12SM M04/M31 A3047 RMK SLP336 T10371309 52031 IEM_DS3505
ZBAA,1990-01-21 13:00,ZBAA 211300Z AUTO 01006KT 7SM M05/M28 A3050 RMK T10501280 IEM_DS3505
ZBAA,1990-01-21 14:00,ZBAA 211400Z AUTO 36008KT 7SM M05/M28 A3053 RMK T10501280 IEM_DS3505
ZBAA,1990-01-21 15:00,ZBAA 211500Z AUTO 34004KT 11SM M05/M27 A3053 RMK SLP354 T10531270 52018 IEM_DS3505
ZBAA,1990-01-21 16:00,ZBAA 211600Z AUTO 34008KT 7SM M06/M28 A3053 RMK T10601280 IEM_DS3505
ZBAA,1990-01-21 18:00,ZBAA 211800Z AUTO 29012KT 12SM M06/M31 RMK SLP360 T10651308 41002//// 52006 IEM_DS3505
ZBAA,1990-01-21 20:00,ZBAA 212000Z AUTO 33002KT 7SM M11/M29 A3056 RMK T11101290 IEM_DS3505
ZBAA,1990-01-21 21:00,ZBAA 212100Z AUTO 00000KT 12SM M09/M28 A3059 RMK SLP365 T10911280 52005 IEM_DS3505
ZBAA,1990-01-21 22:00,ZBAA 212200Z AUTO 33002KT 7SM M12/M28 A3059 RMK T11201280 IEM_DS3505
ZBAA,1990-01-21 23:00,ZBAA 212300Z AUTO 33002KT 7SM M11/M29 A3062 RMK T11101290 IEM_DS3505
ZBAA,1990-01-22 00:00,ZBAA 220000Z AUTO 34004KT 19SM M10/M28 A3062 RMK SLP379 T11031280 52013 IEM_DS3505
ZBAA,1990-01-22 01:00,ZBAA 220100Z AUTO ////06KT 7SM M08/M28 A3062 RMK T10801280 IEM_DS3505
ZBAA,1990-01-22 02:00,ZBAA 220200Z AUTO ////06KT 7SM M05/M27 A3065 RMK T10501270 IEM_DS3505
ZBAA,1990-01-22 03:00,ZBAA 220300Z AUTO 34004KT 19SM M04/M34 RMK SLP377 T10451342 57001 IEM_DS3505
ZBAA,1990-01-22 04:00,ZBAA 220400Z AUTO 31008KT 7SM M03/M27 A3056 RMK T10301270 IEM_DS3505
ZBAA,1990-01-22 05:00,ZBAA 220500Z AUTO 32008KT 7SM M02/M27 A3053 RMK T10201270 IEM_DS3505
ZBAA,1990-01-22 06:00,ZBAA 220600Z AUTO 34012G25KT 19SM M02/M34 A3047 RMK SLP337 T10221337 4////1109 57040 IEM_DS3505
ZBAA,1990-01-22 07:00,ZBAA 220700Z AUTO 30014G23KT 7SM M01/M27 A3047 RMK T10101270 IEM_DS3505
ZBAA,1990-01-22 08:00,ZBAA 220800Z AUTO 30010KT 7SM M01/M27 A3045 RMK T10101270 IEM_DS3505
ZBAA,1990-01-22 09:00,ZBAA 220900Z AUTO 22008KT 19SM M04/M27 A3045 RMK SLP329 T10371267 57008 IEM_DS3505
ZBAA,1990-01-22 10:00,ZBAA 221000Z AUTO 32004KT 19SM M04/M25 A3047 RMK SLP334 T10401250 41013//// 54000 IEM_DS3505
ZBAA,1990-01-22 12:00,ZBAA 221200Z AUTO 25004KT 19SM M05/M21 RMK SLP333 T10511208 52040 IEM_DS3505
ZBAA,1990-01-22 12:12,ZBAA 221212Z AUTO 22006KT 7SM RMK IEM_DS3505
ZBAA,1990-01-22 13:00,ZBAA 221300Z AUTO 23004KT 7SM M05/M21 A3047 RMK T10501210 IEM_DS3505
ZBAA,1990-01-22 15:00,ZBAA 221500Z AUTO 29004KT 19SM M06/M25 A3047 RMK SLP333 T10571253 54000 IEM_DS3505
ZBAA,1990-01-22 18:00,ZBAA 221800Z AUTO 32004KT 19SM M07/M36 RMK SLP334 T10691362 41013//// 52001 IEM_DS3505
ZBAA,1990-01-22 20:00,ZBAA 222000Z AUTO 36004KT 7SM M10/M30 A3047 RMK T11001300 IEM_DS3505
ZBAA,1990-01-22 21:00,ZBAA 222100Z AUTO 00000KT 12SM M10/M28 A3047 RMK SLP329 T10951275 57005 IEM_DS3505
ZBAA,1990-01-22 22:00,ZBAA 222200Z AUTO 33006KT 7SM M10/M31 A3047 RMK T11001310 IEM_DS3505
ZBAA,1990-01-22 23:00,ZBAA 222300Z AUTO 33006KT 7SM M10/M30 A3047 RMK T11001300 IEM_DS3505
ZBAA,1990-01-23 00:00,ZBAA 230000Z AUTO 34006KT 19SM M09/M30 A3047 RMK SLP329 T10871302 54000 IEM_DS3505
ZBAA,1990-01-23 01:00,ZBAA 230100Z AUTO 34006KT 7SM M07/M29 A3047 RMK T10701290 IEM_DS3505
ZBAA,1990-01-23 02:00,ZBAA 230200Z AUTO 34010KT 7SM M05/M28 A3047 RMK T10501280 IEM_DS3505
ZBAA,1990-01-23 03:00,ZBAA 230300Z AUTO 34014KT 19SM M05/M34 A3045 RMK SLP327 T10491338 57002 IEM_DS3505
ZBAA,1990-01-23 04:00,ZBAA 230400Z AUTO 31008KT 7SM M03/M27 A3042 RMK T10301270 IEM_DS3505
ZBAA,1990-01-23 05:00,ZBAA 230500Z AUTO ////08KT 7SM M02/M27 A3039 RMK T10201270 IEM_DS3505
ZBAA,1990-01-23 06:00,ZBAA 230600Z AUTO 34010G19KT 19SM M03/M31 A3036 RMK SLP289 T10261308 4////1104 57037 IEM_DS3505
ZBAA,1990-01-23 07:00,ZBAA 230700Z AUTO 30010KT 7SM M01/M27 RMK T10101270 IEM_DS3505
ZBAA,1990-01-23 08:00,ZBAA 230800Z AUTO 32008KT 7SM M04/M28 A3045 RMK T10401280 IEM_DS3505
ZBAA,1990-01-23 09:00,ZBAA 230900Z AUTO 34008KT 17SM M03/M32 A3033 RMK SLP287 T10311317 57003 IEM_DS3505
ZBAA,1990-01-23 10:00,ZBAA 231000Z AUTO ////06KT 7SM M04/M29 A3036 RMK T10401290 IEM_DS3505
ZBAA,1990-01-23 11:00,ZBAA 231100Z AUTO 02010KT 19SM M05/M34 A3039 RMK SLP305 T10541343 52022 IEM_DS3505
ZBAA,1990-01-23 12:00,ZBAA 231200Z AUTO 02010KT 19SM M05/M34 A3042 RMK SLP309 T10541343 52022 IEM_DS3505
ZBAA,1990-01-23 13:00,ZBAA 231300Z AUTO 36010KT 7SM M07/M29 A3045 RMK T10701290 IEM_DS3505
ZBAA,1990-01-23 14:00,ZBAA 231400Z AUTO 36010KT 7SM M08/M30 A3045 RMK T10801300 IEM_DS3505
ZBAA,1990-01-23 15:00,ZBAA 231500Z AUTO 04008KT 19SM M08/M33 A3045 RMK SLP327 T10831330 52018 IEM_DS3505
ZBAA,1990-01-23 18:00,ZBAA 231800Z AUTO 36006KT 16SM M10/M31 RMK SLP331 T10991311 41024//// IEM_DS3505
ZBAA,1990-01-23 20:00,ZBAA 232000Z AUTO ////06KT 7SM M03/M29 A3047 RMK T10301290 IEM_DS3505
ZBAA,1990-01-23 21:00,ZBAA 232100Z AUTO 02006KT 12SM M11/M26 A3050 RMK SLP335 T11081262 52001 IEM_DS3505
ZBAA,1990-01-23 22:00,ZBAA 232200Z AUTO ////04KT 7SM M13/M30 A3050 RMK T11301300 IEM_DS3505
ZBAA,1990-01-23 23:00,ZBAA 232300Z AUTO 03004KT 7SM M14/M31 A3053 RMK T11401310 IEM_DS3505
ZBAA,1990-01-24 00:00,ZBAA 240000Z AUTO 02006KT 16SM M12/M26 A3056 RMK SLP354 T11191264 52018 IEM_DS3505
ZBAA,1990-01-24 01:00,ZBAA 240100Z AUTO 02008KT 7SM M11/M30 A3056 RMK T11101300 IEM_DS3505
ZBAA,1990-01-24 02:00,ZBAA 240200Z AUTO 02008KT 7SM M09/M30 A3059 RMK T10901300 IEM_DS3505
ZBAA,1990-01-24 03:00,ZBAA 240300Z AUTO 02010KT 16SM M08/M32 A3059 RMK SLP363 T10811321 52009 IEM_DS3505
ZBAA,1990-01-24 04:00,ZBAA 240400Z AUTO ////06KT 7SM M07/M29 A3056 RMK T10701290 IEM_DS3505
ZBAA,1990-01-24 05:00,ZBAA 240500Z AUTO ////06KT 7SM M06/M29 A3053 RMK T10601290 IEM_DS3505
ZBAA,1990-01-24 06:00,ZBAA 240600Z AUTO 36006KT 16SM M06/ A3053 RMK SLP345 4////1123 57018 IEM_DS3505
ZBAA,1990-01-24 07:00,ZBAA 240700Z AUTO ////06KT 7SM M05/M28 A3050 RMK T10501280 IEM_DS3505
ZBAA,1990-01-24 08:00,ZBAA 240800Z AUTO 04004KT 7SM M06/M29 A3053 RMK T10601290 IEM_DS3505
ZBAA,1990-01-24 09:00,ZBAA 240900Z AUTO 04006KT 16SM M06/ A3053 RMK SLP347 52002 IEM_DS3505
ZBAA,1990-01-24 10:00,ZBAA 241000Z AUTO 04004KT 9SM M11/M25 A3056 RMK SLP390 T11141248 41053//// 52003 IEM_DS3505
ZBAA,1990-01-24 12:00,ZBAA 241200Z AUTO 00000KT 12SM M10/M28 RMK SLP377 T10961280 52029 IEM_DS3505
ZBAA,1990-01-24 15:00,ZBAA 241500Z AUTO 00000KT 9SM M12/M26 RMK SLP388 T11191264 52011 IEM_DS3505
ZBAA,1990-01-24 18:00,ZBAA 241800Z AUTO 04004KT 9SM M11/M25 RMK SLP390 T11141248 41053//// 52003 IEM_DS3505
ZBAA,1990-01-24 21:00,ZBAA 242100Z AUTO 02004KT 9SM M13/M27 RMK SLP384 T11301266 57006 IEM_DS3505
ZBAA,1990-01-24 23:00,ZBAA 242300Z AUTO 02004KT 7SM M14/M29 A3062 RMK T11401290 IEM_DS3505
ZBAA,1990-01-25 00:00,ZBAA 250000Z AUTO 04006KT 9SM M13/M26 A3062 RMK SLP387 T11311257 52002 IEM_DS3505
ZBAA,1990-01-25 01:00,ZBAA 250100Z AUTO 03006KT 7SM M12/M28 A3065 RMK T11201280 IEM_DS3505
ZBAA,1990-01-25 02:00,ZBAA 250200Z AUTO 02004KT 6SM M09/M28 A3068 RMK T10901280 IEM_DS3505
ZBAA,1990-01-25 03:00,ZBAA 250300Z AUTO 36004KT 9SM M09/M29 A3068 RMK SLP396 T10941292 52009 IEM_DS3505
ZBAA,1990-01-25 04:00,ZBAA 250400Z AUTO ////04KT 6SM M06/M27 A3062 RMK T10601270 IEM_DS3505
ZBAA,1990-01-25 06:00,ZBAA 250600Z AUTO 09004KT 7SM M06/M27 A3056 RMK SLP360 T10581274 4////1141 57035 IEM_DS3505
ZBAA,1990-01-25 07:00,ZBAA 250700Z AUTO 18002KT 7SM M03/M25 A3053 RMK T10301250 IEM_DS3505
ZBAA,1990-01-25 09:00,ZBAA 250900Z AUTO 18006KT 6SM M06/M23 A3056 RMK SLP356 T10621229 57004 IEM_DS3505
ZBAA,1990-01-25 10:00,ZBAA 251000Z AUTO 18002KT 7SM M07/M23 A3056 RMK T10701230 IEM_DS3505
ZBAA,1990-01-25 11:00,ZBAA 251100Z AUTO 15002KT 7SM M08/M23 A3056 RMK T10801230 IEM_DS3505
ZBAA,1990-01-25 12:00,ZBAA 251200Z AUTO 00000KT 6SM M09/M21 A3059 RMK SLP368 T10911212 52011 IEM_DS3505
ZBAA,1990-01-25 13:00,ZBAA 251300Z AUTO 00000KT 7SM M10/M24 A3059 RMK T11001240 IEM_DS3505
ZBAA,1990-01-25 14:00,ZBAA 251400Z AUTO 08002KT 7SM M10/M23 A3059 RMK T11001230 IEM_DS3505
ZBAA,1990-01-25 15:00,ZBAA 251500Z AUTO 00000KT 6SM M10/M23 RMK SLP373 T10971226 52006 IEM_DS3505
ZBAA,1990-01-25 18:00,ZBAA 251800Z AUTO 00000KT 6SM M11/M22 RMK SLP372 T11141218 41051//// 57001 IEM_DS3505
ZBAA,1990-01-25 20:00,ZBAA 252000Z AUTO 09002KT 5SM M12/M19 A3059 RMK T11201190 IEM_DS3505
ZBAA,1990-01-25 21:00,ZBAA 252100Z AUTO 07004KT 6SM M11/M21 A3059 RMK SLP371 T11061208 57001 IEM_DS3505
ZBAA,1990-01-25 22:00,ZBAA 252200Z AUTO 00000KT 4SM M12/M17 A3059 RMK T11201170 IEM_DS3505
ZBAA,1990-01-25 23:00,ZBAA 252300Z AUTO 32002KT 4SM M13/M18 A3062 RMK T11301180 IEM_DS3505
ZBAA,1990-01-26 00:00,ZBAA 260000Z AUTO 36004KT 2 1/2SM M12/M17 A3062 RMK SLP381 T11151173 52009 IEM_DS3505
ZBAA,1990-01-26 01:00,ZBAA 260100Z AUTO 27002KT 5SM M11/M16 A3065 RMK T11101160 IEM_DS3505
ZBAA,1990-01-26 02:00,ZBAA 260200Z AUTO 23002KT 5SM M08/M16 A3065 RMK T10801160 IEM_DS3505
ZBAA,1990-01-26 03:00,ZBAA 260300Z AUTO ////04KT 7SM M05/M15 A3065 RMK T10501150 IEM_DS3505
ZBAA,1990-01-26 04:00,ZBAA 260400Z AUTO ////02KT 7SM M04/M15 A3062 RMK T10401150 IEM_DS3505
ZBAA,1990-01-26 06:00,ZBAA 260600Z AUTO 18002KT 2SM M05/M16 A3056 RMK SLP361 T10461161 4////1128 57025 IEM_DS3505
ZBAA,1990-01-26 07:00,ZBAA 260700Z AUTO ////04KT 7SM M02/M16 A3053 RMK T10201160 IEM_DS3505
ZBAA,1990-01-26 08:00,ZBAA 260800Z AUTO 14004KT 7SM M03/M17 A3053 RMK T10301170 IEM_DS3505
ZBAA,1990-01-26 09:00,ZBAA 260900Z AUTO 20006KT 3SM M05/M18 RMK SLP356 T10471179 57005 IEM_DS3505
ZBAA,1990-01-26 10:00,ZBAA 261000Z AUTO 12002KT 7SM M06/M17 A3056 RMK T10601170 IEM_DS3505
ZBAA,1990-01-26 11:00,ZBAA 261100Z AUTO 20004KT 2 1/2SM M06/M17 A3056 RMK SLP364 T10621170 52008 IEM_DS3505
ZBAA,1990-01-26 12:00,ZBAA 261200Z AUTO 20004KT 2 1/2SM M06/M17 A3059 RMK SLP364 T10621170 52008 IEM_DS3505
ZBAA,1990-01-26 13:00,ZBAA 261300Z AUTO 14004KT 7SM M08/M16 A3059 RMK T10801160 IEM_DS3505
ZBAA,1990-01-26 14:00,ZBAA 261400Z AUTO 15002KT 7SM M07/M17 A3059 RMK T10701170 IEM_DS3505
ZBAA,1990-01-26 15:00,ZBAA 261500Z AUTO 18004KT 3SM M07/M18 A3059 RMK SLP366 T10661178 52002 IEM_DS3505
ZBAA,1990-01-26 18:00,ZBAA 261800Z AUTO 20004KT 2SM M08/M14 RMK SLP363 T10831135 41040//// 57002 IEM_DS3505
ZBAA,1990-01-26 20:00,ZBAA 262000Z AUTO 10002KT 5SM M11/M15 A3056 RMK T11101150 IEM_DS3505
ZBAA,1990-01-26 21:00,ZBAA 262100Z AUTO 11004KT 2SM M09/M13 A3056 RMK SLP354 T10861128 57009 IEM_DS3505
ZBAA,1990-01-26 22:00,ZBAA 262200Z AUTO ////06KT 5SM M10/M14 A3056 RMK T11001140 IEM_DS3505
ZBAA,1990-01-26 23:00,ZBAA 262300Z AUTO ////06KT 5SM M10/M14 A3056 RMK T11001140 IEM_DS3505
ZBAA,1990-01-27 00:00,ZBAA 270000Z AUTO 04002KT 1 1/4SM M09/M12 A3059 RMK 60000 SLP366 T10931120 52011 IEM_DS3505
ZBAA,1990-01-27 01:00,ZBAA 270100Z AUTO 34002KT 1SM M09/M12 A3059 RMK SLP363 T10881119 57003 IEM_DS3505
ZBAA,1990-01-27 02:00,ZBAA 270200Z AUTO ////04KT 3SM M07/M11 A3059 RMK T10701110 IEM_DS3505
ZBAA,1990-01-27 03:00,ZBAA 270300Z AUTO 34002KT 1SM M09/M12 A3056 RMK SLP363 T10881119 57003 IEM_DS3505
ZBAA,1990-01-27 04:00,ZBAA 270400Z AUTO 00000KT 3SM M05/M11 A3053 RMK T10501110 IEM_DS3505
ZBAA,1990-01-27 05:00,ZBAA 270500Z AUTO ////04KT 4SM M04/M10 A3050 RMK T10401100 IEM_DS3505
ZBAA,1990-01-27 06:00,ZBAA 270600Z AUTO 34002KT 1SM M07/M09 A3045 RMK 60002 SLP327 T10711093 4////1101 57035 IEM_DS3505
ZBAA,1990-01-27 07:00,ZBAA 270700Z AUTO ////04KT 7SM M04/M10 A3045 RMK T10401100 IEM_DS3505
ZBAA,1990-01-27 08:00,ZBAA 270800Z AUTO ////04KT 7SM M04/M10 A3042 RMK T10401100 IEM_DS3505
ZBAA,1990-01-27 09:00,ZBAA 270900Z AUTO 00000KT 1SM M07/M10 A3042 RMK SLP316 T10731096 57011 IEM_DS3505
ZBAA,1990-01-27 10:00,ZBAA 271000Z AUTO 13004KT 4SM M05/M09 A3042 RMK T10501090 IEM_DS3505
ZBAA,1990-01-27 11:00,ZBAA 271100Z AUTO 00000KT 3SM M05/M08 A3042 RMK T10501080 IEM_DS3505
ZBAA,1990-01-27 12:00,ZBAA 271200Z AUTO 00000KT 1SM M07/M09 A3045 RMK 60002 SLP320 T10711093 52003 IEM_DS3505
ZBAA,1990-01-27 13:00,ZBAA 271300Z AUTO 00000KT 3SM M05/M08 A3045 RMK T10501080 IEM_DS3505
ZBAA,1990-01-27 14:00,ZBAA 271400Z AUTO 05002KT 3SM M06/M08 A3045 RMK T10601080 IEM_DS3505
ZBAA,1990-01-27 15:00,ZBAA 271500Z AUTO 04004KT 1SM M06/M08 RMK SLP315 T10631084 57004 IEM_DS3505
ZBAA,1990-01-27 18:00,ZBAA 271800Z AUTO 00000KT 1SM M07/M08 RMK 60001 SLP305 T10671075 41062//// 57010 IEM_DS3505
ZBAA,1990-01-27 21:00,ZBAA 272100Z AUTO 04004KT 2 1/2SM M06/M08 A3033 RMK SLP280 T10651077 57025 IEM_DS3505
ZBAA,1990-01-27 22:00,ZBAA 272200Z AUTO 35004KT 2 1/2SM M05/M07 A3033 RMK T10501070 IEM_DS3505
ZBAA,1990-01-27 23:00,ZBAA 272300Z AUTO 35006KT 2 1/2SM M05/M07 A3033 RMK T10501070 IEM_DS3505
ZBAA,1990-01-28 00:00,ZBAA 280000Z AUTO 02002KT 3SM M06/M08 A3033 RMK 60002 SLP282 T10561080 52002 IEM_DS3505
ZBAA,1990-01-28 01:00,ZBAA 280100Z AUTO ////06KT 1 1/4SM M05/M08 A3036 RMK T10501080 IEM_DS3505
ZBAA,1990-01-28 02:00,ZBAA 280200Z AUTO 34004KT 1 1/4SM M05/M07 A3033 RMK T10501070 IEM_DS3505
ZBAA,1990-01-28 03:00,ZBAA 280300Z AUTO 02002KT 2 1/2SM M04/M06 A3033 RMK SLP285 T10441065 52003 IEM_DS3505
ZBAA,1990-01-28 04:00,ZBAA 280400Z AUTO 02004KT 1 1/4SM M03/M06 A3030 RMK T10301060 IEM_DS3505
ZBAA,1990-01-28 05:00,ZBAA 280500Z AUTO ////06KT 2SM M03/M06 A3027 RMK T10301060 IEM_DS3505
ZBAA,1990-01-28 06:00,ZBAA 280600Z AUTO 36002KT 1 1/4SM M04/M06 RMK 60008 SLP255 T10411057 4////1077 57029 IEM_DS3505
ZBAA,1990-01-28 07:00,ZBAA 280700Z AUTO ////06KT 2SM M02/M05 A3024 RMK T10201050 IEM_DS3505
ZBAA,1990-01-28 08:00,ZBAA 280800Z AUTO ////04KT 2 1/2SM M02/M05 A3024 RMK T10201050 IEM_DS3505
ZBAA,1990-01-28 09:00,ZBAA 280900Z AUTO 02004KT 2 1/2SM M03/M05 A3024 RMK SLP255 T10311046 54000 IEM_DS3505
ZBAA,1990-01-28 10:00,ZBAA 281000Z AUTO ////06KT 2SM M03/M06 A3027 RMK T10301060 IEM_DS3505
ZBAA,1990-01-28 12:00,ZBAA 281200Z AUTO 1 1/2SM M04/M06 RMK 60004 SLP274 T10451055 52019 IEM_DS3505
ZBAA,1990-01-28 15:00,ZBAA 281500Z AUTO 00000KT 2 1/2SM M06/M09 RMK SLP303 T10611090 52028 IEM_DS3505
ZBAA,1990-01-28 20:00,ZBAA 282000Z AUTO 35006KT 4SM M08/M11 A3047 RMK T10801110 IEM_DS3505
ZBAA,1990-01-28 21:00,ZBAA 282100Z AUTO 34004KT 7SM M07/M16 A3053 RMK SLP348 T10721165 52031 IEM_DS3505
ZBAA,1990-01-28 22:00,ZBAA 282200Z AUTO 03006KT 5SM M09/M15 A3056 RMK T10901150 IEM_DS3505
ZBAA,1990-01-28 23:00,ZBAA 282300Z AUTO 02006KT 5SM M09/M16 A3059 RMK T10901160 IEM_DS3505
ZBAA,1990-01-29 00:00,ZBAA 290000Z AUTO 09002KT 9SM M07/M17 A3062 RMK 70012 SLP378 T10721173 52030 IEM_DS3505
ZBAA,1990-01-29 01:00,ZBAA 290100Z AUTO 02006KT 7SM M08/M15 A3065 RMK T10801150 IEM_DS3505
ZBAA,1990-01-29 03:00,ZBAA 290300Z AUTO 36006KT 6SM M05/M18 A3068 RMK SLP397 T10491176 52019 IEM_DS3505
ZBAA,1990-01-29 04:00,ZBAA 290400Z AUTO 06006KT 6SM M03/M14 A3068 RMK T10301140 IEM_DS3505
ZBAA,1990-01-29 05:00,ZBAA 290500Z AUTO 03006KT 6SM M02/M14 A3068 RMK T10201140 IEM_DS3505
ZBAA,1990-01-29 06:00,ZBAA 290600Z AUTO 34002KT 6SM M04/M17 RMK SLP395 T10421168 4////1086 57002 IEM_DS3505
ZBAA,1990-01-29 07:00,ZBAA 290700Z AUTO 05004KT 6SM A3068 RMK IEM_DS3505
ZBAA,1990-01-29 08:00,ZBAA 290800Z AUTO 05002KT 6SM M02/M14 A3068 RMK T10201140 IEM_DS3505
ZBAA,1990-01-29 09:00,ZBAA 290900Z AUTO 18004KT 6SM M05/M13 A3071 RMK SLP407 T10541134 52011 IEM_DS3505
ZBAA,1990-01-29 10:00,ZBAA 291000Z AUTO 13002KT 6SM M08/M14 A3071 RMK T10801140 IEM_DS3505
ZBAA,1990-01-29 11:00,ZBAA 291100Z AUTO 07004KT 6SM M08/M18 A3074 RMK SLP431 T10851182 52003 IEM_DS3505
ZBAA,1990-01-29 12:00,ZBAA 291200Z AUTO 00000KT 6SM M09/M14 A3077 RMK SLP422 T10891144 52015 IEM_DS3505
ZBAA,1990-01-29 13:00,ZBAA 291300Z AUTO 08002KT 7SM M12/M15 A3077 RMK T11201150 IEM_DS3505
ZBAA,1990-01-29 14:00,ZBAA 291400Z AUTO 00000KT 7SM M13/M16 A3077 RMK T11301160 IEM_DS3505
ZBAA,1990-01-29 15:00,ZBAA 291500Z AUTO 00000KT 4SM M10/M14 A3077 RMK SLP428 T11031140 52006 IEM_DS3505
ZBAA,1990-01-29 16:00,ZBAA 291600Z AUTO ////04KT 6SM M11/M15 A3077 RMK T11101150 IEM_DS3505
ZBAA,1990-01-29 18:00,ZBAA 291800Z AUTO 07004KT 6SM M08/M18 RMK SLP431 T10851182 41039//// 52003 IEM_DS3505
ZBAA,1990-01-29 20:00,ZBAA 292000Z AUTO 02006KT 6SM M08/M18 A3077 RMK T10801180 IEM_DS3505
ZBAA,1990-01-29 21:00,ZBAA 292100Z AUTO 00000KT 7SM M09/M18 A3074 RMK SLP425 T10891180 57006 IEM_DS3505
ZBAA,1990-01-29 23:00,ZBAA 292300Z AUTO 04004KT 6SM M09/M17 A3074 RMK T10901170 IEM_DS3505
ZBAA,1990-01-30 00:00,ZBAA 300000Z AUTO 04006KT 7SM M08/M20 A3077 RMK SLP432 T10811201 52007 IEM_DS3505
ZBAA,1990-01-30 01:00,ZBAA 300100Z AUTO 02004KT 6SM M08/M18 A3080 RMK T10801180 IEM_DS3505
ZBAA,1990-01-30 02:00,ZBAA 300200Z AUTO 03004KT 6SM M06/M18 A3077 RMK T10601180 IEM_DS3505
ZBAA,1990-01-30 03:00,ZBAA 300300Z AUTO 04004KT 6SM M07/M23 A3077 RMK SLP432 T10661230 54000 IEM_DS3505
ZBAA,1990-01-30 04:00,ZBAA 300400Z AUTO ////06KT 6SM M03/M18 A3077 RMK T10301180 IEM_DS3505
ZBAA,1990-01-30 05:00,ZBAA 300500Z AUTO 04004KT 6SM M02/M17 A3071 RMK T10201170 IEM_DS3505
ZBAA,1990-01-30 06:00,ZBAA 300600Z AUTO 00000KT 6SM M02/M17 A3068 RMK SLP406 T10241168 4////1108 57025 IEM_DS3505
ZBAA,1990-01-30 07:00,ZBAA 300700Z AUTO ////04KT 6SM M02/M18 A3068 RMK T10201180 IEM_DS3505
ZBAA,1990-01-30 08:00,ZBAA 300800Z AUTO 02002KT 6SM M03/M18 A3068 RMK T10301180 IEM_DS3505
ZBAA,1990-01-30 09:00,ZBAA 300900Z AUTO 18008KT 6SM M06/M18 A3068 RMK SLP404 T10591180 57003 IEM_DS3505
ZBAA,1990-01-30 10:00,ZBAA 301000Z AUTO 00000KT 6SM M06/M14 A3068 RMK T10601140 IEM_DS3505
ZBAA,1990-01-30 11:00,ZBAA 301100Z AUTO 00000KT 6SM M06/M14 A3068 RMK T10601140 IEM_DS3505
ZBAA,1990-01-30 12:00,ZBAA 301200Z AUTO 20002KT 4SM M07/M18 A3071 RMK T10671180 52006 IEM_DS3505
ZBAA,1990-01-30 14:00,ZBAA 301400Z AUTO 00000KT 7SM M10/M15 A3071 RMK T11001150 IEM_DS3505
ZBAA,1990-01-30 15:00,ZBAA 301500Z AUTO 00000KT 3SM M10/M17 A3068 RMK SLP405 T10981172 57005 IEM_DS3505
ZBAA,1990-01-30 18:00,ZBAA 301800Z AUTO 00000KT 4SM M12/M17 RMK SLP395 T11241169 41021//// 57010 IEM_DS3505
ZBAA,1990-01-30 20:00,ZBAA 302000Z AUTO 36004KT 5SM M14/M17 A3062 RMK T11401170 IEM_DS3505
ZBAA,1990-01-30 21:00,ZBAA 302100Z AUTO 00000KT 4SM M13/M17 A3062 RMK SLP386 T11291171 57009 IEM_DS3505
ZBAA,1990-01-30 22:00,ZBAA 302200Z AUTO 02006KT 7SM M13/M21 A3062 RMK T11301210 IEM_DS3505
ZBAA,1990-01-30 23:00,ZBAA 302300Z AUTO 03004KT 7SM M14/M24 A3062 RMK T11401240 IEM_DS3505
ZBAA,1990-01-31 00:00,ZBAA 310000Z AUTO 00000KT 3SM M14/M18 A3062 RMK SLP387 T11391182 54000 IEM_DS3505
ZBAA,1990-01-31 01:00,ZBAA 310100Z AUTO 02006KT 7SM M10/M23 A3062 RMK T11001230 IEM_DS3505
ZBAA,1990-01-31 02:00,ZBAA 310200Z AUTO ////06KT 7SM M07/M20 A3062 RMK T10701200 IEM_DS3505
ZBAA,1990-01-31 03:00,ZBAA 310300Z AUTO 00000KT 6SM M06/M22 A3062 RMK SLP379 T10641223 57007 IEM_DS3505
ZBAA,1990-01-31 04:00,ZBAA 310400Z AUTO ////04KT 7SM M04/M21 A3056 RMK T10401210 IEM_DS3505
ZBAA,1990-01-31 05:00,ZBAA 310500Z AUTO ////02KT 7SM M02/M19 A3053 RMK T10201190 IEM_DS3505
ZBAA,1990-01-31 06:00,ZBAA 310600Z AUTO 22006KT 6SM M03/M18 A3047 RMK SLP336 T10321178 4////1148 57043 IEM_DS3505
ZBAA,1990-01-31 07:00,ZBAA 310700Z AUTO 00000KT 7SM 00/M17 A3045 RMK T00001170 IEM_DS3505
ZBAA,1990-01-31 08:00,ZBAA 310800Z AUTO 22002KT 7SM M01/M19 A3045 RMK T10101190 IEM_DS3505
ZBAA,1990-01-31 09:00,ZBAA 310900Z AUTO 20006KT 6SM M05/M16 A3045 RMK SLP325 T10481157 57011 IEM_DS3505
ZBAA,1990-01-31 10:00,ZBAA 311000Z AUTO 20004KT 6SM M05/M14 A3045 RMK T10501140 IEM_DS3505
ZBAA,1990-01-31 11:00,ZBAA 311100Z AUTO 19004KT 6SM M06/M14 A3045 RMK T10601140 IEM_DS3505
ZBAA,1990-01-31 12:00,ZBAA 311200Z AUTO 20008KT 6SM M07/M12 A3045 RMK SLP321 T10711124 57004 IEM_DS3505
ZBAA,1990-01-31 13:00,ZBAA 311300Z AUTO 11002KT 6SM M09/M14 A3045 RMK T10901140 IEM_DS3505
ZBAA,1990-01-31 14:00,ZBAA 311400Z AUTO 12002KT 6SM M09/M14 A3045 RMK T10901140 IEM_DS3505
ZBAA,1990-01-31 15:00,ZBAA 311500Z AUTO 00000KT 6SM M10/M13 A3042 RMK SLP316 T10951133 57004 IEM_DS3505
ZBAA,1990-01-31 18:00,ZBAA 311800Z AUTO 00000KT 5SM M12/M14 RMK SLP313 T11151140 41031//// 57003 IEM_DS3505
ZBAA,1990-01-31 20:00,ZBAA 312000Z AUTO 00000KT 6SM M13/M17 A3039 RMK T11301170 IEM_DS3505
ZBAA,1990-01-31 21:00,ZBAA 312100Z AUTO 04004KT 4SM M11/M14 A3039 RMK SLP300 T11081139 57013 IEM_DS3505
ZBAA,1990-01-31 22:00,ZBAA 312200Z AUTO ////06KT 7SM M13/M18 A3039 RMK T11301180 IEM_DS3505
ZBAA,1990-01-31 23:00,ZBAA 312300Z AUTO 02004KT 7SM M14/M19 A3036 RMK T11401190 IEM_DS3505
ZBAA,1990-02-01 00:00,ZBAA 010000Z AUTO 00000KT 4SM M12/M15 A3039 RMK SLP303 T11231153 52002 IEM_DS3505
ZBAA,1990-02-01 02:00,ZBAA 010200Z AUTO ////04KT 7SM M07/M16 A3039 RMK T10701160 IEM_DS3505
ZBAA,1990-02-01 03:00,ZBAA 010300Z AUTO 00000KT 6SM M04/M16 A3039 RMK SLP305 T10401155 52003 IEM_DS3505
ZBAA,1990-02-01 04:00,ZBAA 010400Z AUTO 00000KT 7SM M02/M14 A3039 RMK T10201140 IEM_DS3505
ZBAA,1990-02-01 05:00,ZBAA 010500Z AUTO ////04KT 7SM M01/M11 A3033 RMK T10101110 IEM_DS3505
ZBAA,1990-02-01 06:00,ZBAA 010600Z AUTO 18006KT 4SM 00/M10 A3033 RMK SLP279 T00001102 4////1138 57026 IEM_DS3505
ZBAA,1990-02-01 07:00,ZBAA 010700Z AUTO 14004KT 4SM 01/M10 A3033 RMK T00101100 IEM_DS3505
ZBAA,1990-02-01 08:00,ZBAA 010800Z AUTO ////06KT 4SM M01/M10 A3033 RMK T10101100 IEM_DS3505
ZBAA,1990-02-01 09:00,ZBAA 010900Z AUTO 18006KT 3SM M02/M11 A3033 RMK SLP277 T10171108 57002 IEM_DS3505
ZBAA,1990-02-01 10:00,ZBAA 011000Z AUTO ////04KT 1 1/2SM M06/M11 A3033 RMK T10601110 IEM_DS3505
ZBAA,1990-02-01 11:00,ZBAA 011100Z AUTO ////06KT 1 1/2SM M07/M11 A3036 RMK T10701110 IEM_DS3505
ZBAA,1990-02-01 12:00,ZBAA 011200Z AUTO 20002KT 2 1/2SM M05/M10 A3036 RMK SLP288 T10531099 52011 IEM_DS3505
ZBAA,1990-02-01 13:00,ZBAA 011300Z AUTO 14006KT 1 1/2SM M09/M12 A3039 RMK T10901120 IEM_DS3505
ZBAA,1990-02-01 14:00,ZBAA 011400Z AUTO 11002KT 1 1/4SM M10/M13 A3039 RMK T11001130 IEM_DS3505
ZBAA,1990-02-01 15:00,ZBAA 011500Z AUTO 00000KT 1 1/4SM M08/M11 RMK SLP296 T10761109 52008 IEM_DS3505
ZBAA,1990-02-01 18:00,ZBAA 011800Z AUTO 00000KT 1/4SM M10/M11 RMK SLP295 T10951112 40003//// 54000 IEM_DS3505
ZBAA,1990-02-01 20:00,ZBAA 012000Z AUTO 00000KT 6SM M12/M14 A3036 RMK T11201140 IEM_DS3505
ZBAA,1990-02-01 21:00,ZBAA 012100Z AUTO 00000KT 1/4SM M10/M12 RMK SLP290 T10951117 57006 IEM_DS3505
ZBAA,1990-02-02 00:00,ZBAA 020000Z AUTO 00000KT 1/4SM M11/M12 RMK SLP296 T11061119 52006 IEM_DS3505
ZBAA,1990-02-02 03:00,ZBAA 020300Z AUTO 04002KT 1SM M07/M10 RMK SLP309 T10671098 52013 IEM_DS3505
ZBAA,1990-02-02 05:00,ZBAA 020500Z AUTO ////02KT 1 1/2SM 00/M09 A3039 RMK T00001090 IEM_DS3505
ZBAA,1990-02-02 06:00,ZBAA 020600Z AUTO 09002KT 1 1/4SM M01/M11 RMK SLP298 T10111106 4////1115 57011 IEM_DS3505
ZBAA,1990-02-02 07:00,ZBAA 020700Z AUTO 33006KT 6SM 03/M10 A3036 RMK T00301100 IEM_DS3505
ZBAA,1990-02-02 08:00,ZBAA 020800Z AUTO 01004KT 6SM 03/M11 A3039 RMK T00301110 IEM_DS3505
ZBAA,1990-02-02 09:00,ZBAA 020900Z AUTO 34008KT 9SM 02/M13 A3042 RMK SLP307 T00191130 52010 IEM_DS3505
ZBAA,1990-02-02 10:00,ZBAA 021000Z AUTO 36002KT 6SM 00/M12 A3045 RMK T00001120 IEM_DS3505
ZBAA,1990-02-02 11:00,ZBAA 021100Z AUTO 01008KT 6SM 00/M14 A3047 RMK T00001140 IEM_DS3505
ZBAA,1990-02-02 12:00,ZBAA 021200Z AUTO 34008KT 12SM M01/M16 A3050 RMK SLP344 T10101157 52036 IEM_DS3505
ZBAA,1990-02-02 13:00,ZBAA 021300Z AUTO 36004KT 6SM M02/M14 A3053 RMK T10201140 IEM_DS3505
ZBAA,1990-02-02 14:00,ZBAA 021400Z AUTO 01004KT 6SM M03/M15 A3056 RMK T10301150 IEM_DS3505
ZBAA,1990-02-02 15:00,ZBAA 021500Z AUTO 34010KT 19SM M02/M17 RMK SLP366 T10241167 52022 IEM_DS3505
ZBAA,1990-02-02 18:00,ZBAA 021800Z AUTO 36012KT 16SM M04/M17 RMK SLP376 T10451167 52011 IEM_DS3505
ZBAA,1990-02-02 20:00,ZBAA 022000Z AUTO 36006KT 7SM M07/M16 A3059 RMK T10701160 IEM_DS3505
ZBAA,1990-02-02 21:00,ZBAA 022100Z AUTO 36006KT 12SM M06/M16 A3062 RMK SLP373 T10631164 57003 IEM_DS3505
ZBAA,1990-02-02 22:00,ZBAA 022200Z AUTO 01006KT 7SM M07/M17 A3062 RMK T10701170 IEM_DS3505
ZBAA,1990-02-02 23:00,ZBAA 022300Z AUTO ////06KT 7SM M07/M17 A3062 RMK T10701170 IEM_DS3505
ZBAA,1990-02-03 00:00,ZBAA 030000Z AUTO 36006KT 11SM M06/M19 A3065 RMK SLP384 T10591189 52010 IEM_DS3505
ZBAA,1990-02-03 01:00,ZBAA 030100Z AUTO 02008KT 7SM M05/M16 A3065 RMK T10501160 IEM_DS3505
ZBAA,1990-02-03 02:00,ZBAA 030200Z AUTO ////06KT 7SM M03/M15 A3065 RMK T10301150 IEM_DS3505
ZBAA,1990-02-03 03:00,ZBAA 030300Z AUTO 36006KT 11SM M03/M17 A3065 RMK SLP391 T10271167 52007 IEM_DS3505
ZBAA,1990-02-03 04:00,ZBAA 030400Z AUTO ////06KT 6SM 00/M15 A3062 RMK T00001150 IEM_DS3505
ZBAA,1990-02-03 05:00,ZBAA 030500Z AUTO 02004KT 6SM 01/M15 A3059 RMK T00101150 IEM_DS3505
ZBAA,1990-02-03 06:00,ZBAA 030600Z AUTO 02004KT 10SM 00/M16 A3056 RMK SLP355 T00031156 4////1017 57035 IEM_DS3505
ZBAA,1990-02-03 07:00,ZBAA 030700Z AUTO ////04KT 6SM 02/M15 A3053 RMK T00201150 IEM_DS3505
ZBAA,1990-02-03 08:00,ZBAA 030800Z AUTO 05002KT 6SM 01/M15 A3050 RMK T00101150 IEM_DS3505
ZBAA,1990-02-03 09:00,ZBAA 030900Z AUTO 00000KT 12SM 00/M17 A3050 RMK SLP343 T00011167 57012 IEM_DS3505
ZBAA,1990-02-03 10:00,ZBAA 031000Z AUTO 00000KT 6SM M03/M16 A3050 RMK T10301160 IEM_DS3505
ZBAA,1990-02-03 11:00,ZBAA 031100Z AUTO 19006KT 6SM M03/M13 A3053 RMK T10301130 IEM_DS3505
ZBAA,1990-02-03 12:00,ZBAA 031200Z AUTO 20004KT 9SM M04/M14 RMK SLP349 T10351139 51005 IEM_DS3505
ZBAA,1990-02-03 14:00,ZBAA 031400Z AUTO 20002KT 6SM M05/M14 A3050 RMK T10501140 IEM_DS3505
ZBAA,1990-02-03 15:00,ZBAA 031500Z AUTO 00000KT 5SM M06/M12 A3050 RMK SLP344 T10561125 57005 IEM_DS3505
ZBAA,1990-02-03 18:00,ZBAA 031800Z AUTO 00000KT 5SM M08/M14 RMK SLP341 T10831135 40010//// 57003 IEM_DS3505
ZBAA,1990-02-03 20:00,ZBAA 032000Z AUTO 00000KT 7SM M11/M15 A3045 RMK T11101150 IEM_DS3505
ZBAA,1990-02-03 21:00,ZBAA 032100Z AUTO 00000KT 4SM M10/M15 RMK SLP320 T11051147 57011 IEM_DS3505
ZBAA,1990-02-04 00:00,ZBAA 040000Z AUTO 00000KT 3SM M11/M15 A3045 RMK SLP321 T11101151 52001 IEM_DS3505
ZBAA,1990-02-04 01:00,ZBAA 040100Z AUTO 02004KT 7SM M07/M14 A3045 RMK T10701140 IEM_DS3505
ZBAA,1990-02-04 02:00,ZBAA 040200Z AUTO 01002KT 7SM M03/M14 A3045 RMK T10301140 IEM_DS3505
ZBAA,1990-02-04 03:00,ZBAA 040300Z AUTO 00000KT 3SM M02/M15 A3042 RMK SLP316 T10151153 57004 IEM_DS3505
ZBAA,1990-02-04 04:00,ZBAA 040400Z AUTO 35002KT 7SM 01/M15 A3039 RMK T00101150 IEM_DS3505
ZBAA,1990-02-04 06:00,ZBAA 040600Z AUTO 16004KT 2 1/2SM 02/M13 A3033 RMK SLP284 T00151133 4////1114 57032 IEM_DS3505
ZBAA,1990-02-04 07:00,ZBAA 040700Z AUTO ////06KT 7SM 04/M14 A3033 RMK T00401140 IEM_DS3505
ZBAA,1990-02-04 08:00,ZBAA 040800Z AUTO ////06KT 7SM 02/M12 A3033 RMK T00201120 IEM_DS3505
ZBAA,1990-02-04 09:00,ZBAA 040900Z AUTO 18008KT 4SM M00/M16 A3033 RMK SLP284 T10031159 57001 IEM_DS3505
ZBAA,1990-02-04 10:00,ZBAA 041000Z AUTO ////06KT 7SM M02/M11 A3036 RMK T10201110 IEM_DS3505
ZBAA,1990-02-04 11:00,ZBAA 041100Z AUTO 18006KT 6SM A3036 RMK IEM_DS3505
ZBAA,1990-02-04 12:00,ZBAA 041200Z AUTO 18004KT 5SM M03/M11 A3036 RMK SLP294 T10281108 52010 IEM_DS3505
ZBAA,1990-02-04 13:00,ZBAA 041300Z AUTO 13004KT 6SM A3039 RMK IEM_DS3505
ZBAA,1990-02-04 14:00,ZBAA 041400Z AUTO 12002KT 6SM M05/M11 A3039 RMK T10501110 IEM_DS3505
ZBAA,1990-02-04 15:00,ZBAA 041500Z AUTO 18004KT 5SM M05/M11 RMK SLP297 T10511106 52004 IEM_DS3505
ZBAA,1990-02-04 18:00,ZBAA 041800Z AUTO 00000KT 1 1/4SM M07/M10 RMK SLP304 T10731100 40016//// 52007 IEM_DS3505
ZBAA,1990-02-04 20:00,ZBAA 042000Z AUTO 10002KT 5SM M09/M12 A3039 RMK T10901120 IEM_DS3505
ZBAA,1990-02-04 21:00,ZBAA 042100Z AUTO 02002KT 1 1/4SM M07/M11 A3036 RMK SLP294 T10741107 57010 IEM_DS3505
ZBAA,1990-02-04 22:00,ZBAA 042200Z AUTO 10002KT 1SM M10/M12 A3036 RMK T11001120 IEM_DS3505
ZBAA,1990-02-04 23:00,ZBAA 042300Z AUTO 00000KT 1/2SM M09/M10 A3039 RMK T10901100 IEM_DS3505
ZBAA,1990-02-05 00:00,ZBAA 050000Z AUTO 34002KT 1 1/4SM M09/M12 A3039 RMK SLP306 T10911117 52011 IEM_DS3505
ZBAA,1990-02-05 01:00,ZBAA 050100Z AUTO 00000KT 1/4SM M08/M09 A3042 RMK T10801090 IEM_DS3505
ZBAA,1990-02-05 02:00,ZBAA 050200Z AUTO 00000KT 1/2SM M06/M08 A3045 RMK T10601080 IEM_DS3505
ZBAA,1990-02-05 03:00,ZBAA 050300Z AUTO 00000KT 2 1/2SM M04/M09 A3042 RMK SLP312 T10381092 52007 IEM_DS3505
ZBAA,1990-02-05 04:00,ZBAA 050400Z AUTO ////02KT 1SM M01/M07 A3042 RMK T10101070 IEM_DS3505
ZBAA,1990-02-05 05:00,ZBAA 050500Z AUTO ////02KT 2 1/2SM 00/M07 A3039 RMK T00001070 IEM_DS3505
ZBAA,1990-02-05 06:00,ZBAA 050600Z AUTO 00000KT 2SM 00/M09 A3036 RMK SLP293 T00041090 4////1096 57019 IEM_DS3505
ZBAA,1990-02-05 07:00,ZBAA 050700Z AUTO 00000KT 2 1/2SM 03/M08 A3036 RMK T00301080 IEM_DS3505
ZBAA,1990-02-05 08:00,ZBAA 050800Z AUTO 18006KT 2 1/2SM 02/M08 A3036 RMK T00201080 IEM_DS3505
ZBAA,1990-02-05 09:00,ZBAA 050900Z AUTO 18006KT 2SM 01/M08 A3036 RMK SLP294 T00071081 52001 IEM_DS3505
ZBAA,1990-02-05 11:00,ZBAA 051100Z AUTO 13004KT 1 1/4SM M03/M07 A3042 RMK T10301070 IEM_DS3505
ZBAA,1990-02-05 12:00,ZBAA 051200Z AUTO 20002KT 2SM M02/M07 A3045 RMK SLP320 T10251070 52025 IEM_DS3505
ZBAA,1990-02-05 13:00,ZBAA 051300Z AUTO 13002KT 1SM M05/M08 A3047 RMK T10501080 IEM_DS3505
ZBAA,1990-02-05 14:00,ZBAA 051400Z AUTO 17002KT 1SM M04/M07 A3047 RMK T10401070 IEM_DS3505
ZBAA,1990-02-05 15:00,ZBAA 051500Z AUTO 02002KT 2SM M04/M06 A3047 RMK SLP332 T10361063 52013 IEM_DS3505
ZBAA,1990-02-05 18:00,ZBAA 051800Z AUTO 00000KT 2SM M06/M08 RMK SLP344 T10591079 40024//// 52012 IEM_DS3505
ZBAA,1990-02-05 20:00,ZBAA 052000Z AUTO 33004KT 1SM M08/M10 A3050 RMK T10801100 IEM_DS3505
ZBAA,1990-02-05 21:00,ZBAA 052100Z AUTO 00000KT 1 1/4SM M06/M08 A3050 RMK SLP342 T10581082 57002 IEM_DS3505
ZBAA,1990-02-05 22:00,ZBAA 052200Z AUTO 33004KT 1 1/4SM M08/M11 A3050 RMK T10801110 IEM_DS3505
ZBAA,1990-02-05 23:00,ZBAA 052300Z AUTO 29002KT 1 1/4SM M10/M13 A3053 RMK T11001130 IEM_DS3505
ZBAA,1990-02-06 00:00,ZBAA 060000Z AUTO 04002KT 1 1/4SM M08/M11 A3056 RMK SLP357 T10781107 52014 IEM_DS3505
ZBAA,1990-02-06 01:00,ZBAA 060100Z AUTO 35002KT 4SM M05/M11 A3059 RMK T10501110 IEM_DS3505
ZBAA,1990-02-06 02:00,ZBAA 060200Z AUTO 02002KT 5SM M01/M10 A3059 RMK T10101100 IEM_DS3505
ZBAA,1990-02-06 03:00,ZBAA 060300Z AUTO 07004KT 5SM 01/M17 A3062 RMK SLP374 T00121174 52018 IEM_DS3505
ZBAA,1990-02-06 04:00,ZBAA 060400Z AUTO 14004KT 4SM 04/M10 A3059 RMK T00401100 IEM_DS3505
ZBAA,1990-02-06 06:00,ZBAA 060600Z AUTO 20008KT 5SM 04/M14 A3053 RMK SLP350 T00411144 4////1083 57024 IEM_DS3505
ZBAA,1990-02-06 07:00,ZBAA 060700Z AUTO ////06KT 7SM 06/M15 A3053 RMK T00601150 IEM_DS3505
ZBAA,1990-02-06 08:00,ZBAA 060800Z AUTO 17008KT 7SM 04/M14 A3053 RMK T00401140 IEM_DS3505
ZBAA,1990-02-06 09:00,ZBAA 060900Z AUTO 16006KT 5SM 02/M14 A3053 RMK SLP349 T00151141 57001 IEM_DS3505
ZBAA,1990-02-06 10:00,ZBAA 061000Z AUTO ////06KT 7SM 00/M11 A3053 RMK T00001110 IEM_DS3505
ZBAA,1990-02-06 11:00,ZBAA 061100Z AUTO 14004KT 5SM M01/M11 A3056 RMK T10101110 IEM_DS3505
ZBAA,1990-02-06 12:00,ZBAA 061200Z AUTO 00000KT 4SM M01/M09 A3056 RMK SLP358 T10111090 52008 IEM_DS3505
ZBAA,1990-02-06 13:00,ZBAA 061300Z AUTO 00000KT 4SM M03/M10 A3056 RMK T10301100 IEM_DS3505
ZBAA,1990-02-06 15:00,ZBAA 061500Z AUTO 00000KT 2SM M04/M09 RMK SLP358 T10391089 52001 IEM_DS3505
ZBAA,1990-02-06 18:00,ZBAA 061800Z AUTO 00000KT 3SM M03/M10 RMK SLP349 T10331095 40044//// 57008 IEM_DS3505
ZBAA,1990-02-06 20:00,ZBAA 062000Z AUTO 00000KT 3SM M05/M09 A3050 RMK T10501090 IEM_DS3505
ZBAA,1990-02-06 21:00,ZBAA 062100Z AUTO 00000KT 3SM M04/M08 A3047 RMK SLP333 T10441079 57017 IEM_DS3505
ZBAA,1990-02-06 22:00,ZBAA 062200Z AUTO 00000KT 3SM M06/M09 A3047 RMK T10601090 IEM_DS3505
ZBAA,1990-02-06 23:00,ZBAA 062300Z AUTO 00000KT 3SM M06/M10 A3047 RMK T10601100 IEM_DS3505
ZBAA,1990-02-07 00:00,ZBAA 070000Z AUTO 04002KT 2SM M04/M08 RMK SLP333 T10411078 54000 IEM_DS3505
ZBAA,1990-02-07 01:00,ZBAA 070100Z AUTO 34002KT 4SM M04/M09 A3050 RMK T10401090 IEM_DS3505
ZBAA,1990-02-07 02:00,ZBAA 070200Z AUTO 02004KT 4SM M02/M08 A3050 RMK T10201080 IEM_DS3505
ZBAA,1990-02-07 03:00,ZBAA 070300Z AUTO 07002KT 1 1/2SM M01/M07 A3047 RMK SLP334 T10141072 52001 IEM_DS3505
ZBAA,1990-02-07 04:00,ZBAA 070400Z AUTO 35002KT 5SM 01/M07 A3045 RMK T00101070 IEM_DS3505
ZBAA,1990-02-07 05:00,ZBAA 070500Z AUTO 00000KT 6SM 03/M06 A3042 RMK T00301060 IEM_DS3505
ZBAA,1990-02-07 06:00,ZBAA 070600Z AUTO 00000KT 3SM 02/M07 A3039 RMK SLP299 T00171066 4////1054 57034 IEM_DS3505
ZBAA,1990-02-07 07:00,ZBAA 070700Z AUTO 11002KT 6SM 04/M07 A3036 RMK T00401070 IEM_DS3505
ZBAA,1990-02-07 08:00,ZBAA 070800Z AUTO 11002KT 6SM 04/M07 A3036 RMK T00401070 IEM_DS3505
ZBAA,1990-02-07 09:00,ZBAA 070900Z AUTO 18006KT 2 1/2SM 02/M06 A3036 RMK SLP292 T00181065 57008 IEM_DS3505
ZBAA,1990-02-07 10:00,ZBAA 071000Z AUTO 17004KT 6SM 01/M06 A3036 RMK T00101060 IEM_DS3505
ZBAA,1990-02-07 11:00,ZBAA 071100Z AUTO 19004KT 4SM M01/M05 A3039 RMK T10101050 IEM_DS3505
ZBAA,1990-02-07 12:00,ZBAA 071200Z AUTO 20004KT 2SM M02/M05 A3039 RMK SLP301 T10161046 52009 IEM_DS3505
ZBAA,1990-02-07 13:00,ZBAA 071300Z AUTO 17004KT 2 1/2SM M02/M05 A3039 RMK T10201050 IEM_DS3505
ZBAA,1990-02-07 14:00,ZBAA 071400Z AUTO 16004KT 2SM M02/M05 A3039 RMK T10201050 IEM_DS3505
ZBAA,1990-02-07 15:00,ZBAA 071500Z AUTO 20004KT 1 1/4SM M03/M05 A3039 RMK SLP301 T10291046 54000 IEM_DS3505
ZBAA,1990-02-07 18:00,ZBAA 071800Z AUTO 00000KT 1/2SM M03/M04 RMK SLP294 T10331043 40023//// 57006 IEM_DS3505
ZBAA,1990-02-07 20:00,ZBAA 072000Z AUTO 00000KT 2SM M02/M04 A3036 RMK T10201040 IEM_DS3505
ZBAA,1990-02-07 21:00,ZBAA 072100Z AUTO 00000KT 1SM M04/M05 A3033 RMK SLP285 T10361050 57009 IEM_DS3505
ZBAA,1990-02-07 22:00,ZBAA 072200Z AUTO 29002KT 1 1/4SM M02/M05 A3033 RMK T10201050 IEM_DS3505
ZBAA,1990-02-07 23:00,ZBAA 072300Z AUTO 00000KT 1 1/4SM M02/M05 RMK T10201050 IEM_DS3505
ZBAA,1990-02-08 00:00,ZBAA 080000Z AUTO 00000KT 1 1/4SM M03/M04 A3036 RMK SLP289 T10281041 52003 IEM_DS3505
ZBAA,1990-02-08 01:00,ZBAA 080100Z AUTO 00000KT 1SM M02/M05 A3036 RMK T10201050 IEM_DS3505
ZBAA,1990-02-08 02:00,ZBAA 080200Z AUTO 00000KT 1SM M01/M05 A3036 RMK T10101050 IEM_DS3505
ZBAA,1990-02-08 03:00,ZBAA 080300Z AUTO 00000KT 1/2SM M02/M04 A3036 RMK SLP290 T10231036 52001 IEM_DS3505
ZBAA,1990-02-08 04:00,ZBAA 080400Z AUTO 13002KT 1SM 00/M03 A3033 RMK T00001030 IEM_DS3505
ZBAA,1990-02-08 05:00,ZBAA 080500Z AUTO 12002KT 1SM 00/M03 A3033 RMK T00001030 IEM_DS3505
ZBAA,1990-02-08 06:00,ZBAA 080600Z AUTO 00000KT 1/2SM M02/M03 A3030 RMK 60001 SLP270 T10171033 4////1040 57020 IEM_DS3505
ZBAA,1990-02-08 07:00,ZBAA 080700Z AUTO 12004KT 1SM 00/M04 A3027 RMK T00001040 IEM_DS3505
ZBAA,1990-02-08 08:00,ZBAA 080800Z AUTO 12002KT 1SM 00/M04 A3027 RMK T00001040 IEM_DS3505
ZBAA,1990-02-08 09:00,ZBAA 080900Z AUTO 00000KT 1SM M02/M03 A3027 RMK SLP267 T10161032 57003 IEM_DS3505
ZBAA,1990-02-08 10:00,ZBAA 081000Z AUTO 11002KT 1SM 00/M03 A3030 RMK T00001030 IEM_DS3505
ZBAA,1990-02-08 11:00,ZBAA 081100Z AUTO 11002KT 1SM 00/M03 A3030 RMK T00001030 IEM_DS3505
ZBAA,1990-02-08 12:00,ZBAA 081200Z AUTO 00000KT 1/2SM M02/M03 A3030 RMK SLP273 T10151031 52006 IEM_DS3505
ZBAA,1990-02-08 13:00,ZBAA 081300Z AUTO 00000KT 1SM M01/M03 A3033 RMK T10101030 IEM_DS3505
ZBAA,1990-02-08 14:00,ZBAA 081400Z AUTO 00000KT 1SM M01/M03 A3033 RMK T10101030 IEM_DS3505
ZBAA,1990-02-08 15:00,ZBAA 081500Z AUTO 00000KT 1/2SM M01/M04 RMK SLP287 T10141036 52014 IEM_DS3505
ZBAA,1990-02-08 18:00,ZBAA 081800Z AUTO 00000KT 1/2SM M02/M05 RMK SLP293 T10151048 41014//// 52006 IEM_DS3505
ZBAA,1990-02-08 20:00,ZBAA 082000Z AUTO 32002KT 1 1/4SM M01/M04 A3036 RMK T10101040 IEM_DS3505
ZBAA,1990-02-08 21:00,ZBAA 082100Z AUTO 00000KT 1/2SM M02/M04 A3036 RMK SLP290 T10151041 57003 IEM_DS3505
ZBAA,1990-02-08 22:00,ZBAA 082200Z AUTO 00000KT 1 1/4SM M01/M05 A3036 RMK T10101050 IEM_DS3505
ZBAA,1990-02-08 23:00,ZBAA 082300Z AUTO 00000KT 1 1/2SM M01/M05 A3036 RMK T10101050 IEM_DS3505
ZBAA,1990-02-09 00:00,ZBAA 090000Z AUTO 02002KT 1SM M01/M05 A3039 RMK SLP301 T10141047 52011 IEM_DS3505
ZBAA,1990-02-09 01:00,ZBAA 090100Z AUTO 31002KT 1 1/2SM 00/M05 A3039 RMK T00001050 IEM_DS3505
ZBAA,1990-02-09 02:00,ZBAA 090200Z AUTO ////06KT 2SM 00/M05 A3039 RMK T00001050 IEM_DS3505
ZBAA,1990-02-09 03:00,ZBAA 090300Z AUTO 00000KT 1 1/4SM M01/M06 A3042 RMK SLP310 T10141060 52009 IEM_DS3505
ZBAA,1990-02-09 04:00,ZBAA 090400Z AUTO 00000KT 2SM 01/M05 A3039 RMK T00101050 IEM_DS3505
ZBAA,1990-02-09 05:00,ZBAA 090500Z AUTO 35002KT 2SM 01/M05 A3036 RMK T00101050 IEM_DS3505
ZBAA,1990-02-09 06:00,ZBAA 090600Z AUTO 00000KT 1 1/4SM 00/M04 A3033 RMK SLP283 T00051043 4////1020 57026 IEM_DS3505
ZBAA,1990-02-09 07:00,ZBAA 090700Z AUTO 06002KT 2SM 02/M05 A3030 RMK T00201050 IEM_DS3505
ZBAA,1990-02-09 08:00,ZBAA 090800Z AUTO 06002KT 1 1/2SM 02/M05 A3030 RMK T00201050 IEM_DS3505
ZBAA,1990-02-09 09:00,ZBAA 090900Z AUTO 20004KT 1SM 00/M03 A3033 RMK SLP278 T00051032 57005 IEM_DS3505
ZBAA,1990-02-09 10:00,ZBAA 091000Z AUTO 15002KT 1 1/2SM 01/M04 A3033 RMK T00101040 IEM_DS3505
ZBAA,1990-02-09 11:00,ZBAA 091100Z AUTO 14004KT 1 1/2SM 01/M03 A3033 RMK T00101030 IEM_DS3505
ZBAA,1990-02-09 12:00,ZBAA 091200Z AUTO 00000KT 1SM 00/M03 A3033 RMK SLP279 T00001028 52001 IEM_DS3505
ZBAA,1990-02-09 13:00,ZBAA 091300Z AUTO 15002KT 1 1/4SM 01/M03 A3033 RMK T00101030 IEM_DS3505
ZBAA,1990-02-09 14:00,ZBAA 091400Z AUTO 14004KT 1 1/4SM 01/M03 A3033 RMK T00101030 IEM_DS3505
ZBAA,1990-02-09 15:00,ZBAA 091500Z AUTO 00000KT 1SM M00/M03 RMK SLP278 T10031028 57001 IEM_DS3505
ZBAA,1990-02-09 18:00,ZBAA 091800Z AUTO 00000KT 1SM M01/M02 RMK SLP267 T10061024 40007//// 57011 IEM_DS3505
ZBAA,1990-02-09 20:00,ZBAA 092000Z AUTO 00000KT 1/2SM 00/M02 A3024 RMK T00001020 IEM_DS3505
ZBAA,1990-02-09 21:00,ZBAA 092100Z AUTO 00000KT 1SM M01/M02 A3024 RMK SLP251 T10071024 57016 IEM_DS3505
ZBAA,1990-02-09 22:00,ZBAA 092200Z AUTO 00000KT 1/2SM 00/M02 A3021 RMK T00001020 IEM_DS3505
ZBAA,1990-02-09 23:00,ZBAA 092300Z AUTO 00000KT 1/2SM 00/M03 A3021 RMK T00001030 IEM_DS3505
ZBAA,1990-02-10 00:00,ZBAA 100000Z AUTO 00000KT 1SM M01/M03 A3021 RMK SLP248 T10071029 57003 IEM_DS3505
ZBAA,1990-02-10 01:00,ZBAA 100100Z AUTO 00000KT 1SM 00/M03 A3021 RMK T00001030 IEM_DS3505
ZBAA,1990-02-10 02:00,ZBAA 100200Z AUTO 00000KT 1SM 01/M03 A3021 RMK T00101030 IEM_DS3505
ZBAA,1990-02-10 03:00,ZBAA 100300Z AUTO 18004KT 1SM 00/M03 A3018 RMK SLP235 T00051032 57013 IEM_DS3505
ZBAA,1990-02-10 04:00,ZBAA 100400Z AUTO 20004KT 1SM 03/M03 A3015 RMK T00301030 IEM_DS3505
ZBAA,1990-02-10 05:00,ZBAA 100500Z AUTO ////06KT 1SM 03/M03 A3012 RMK T00301030 IEM_DS3505
ZBAA,1990-02-10 06:00,ZBAA 100600Z AUTO 20008KT 2SM 02/M03 A3009 RMK SLP200 T00231030 57030 IEM_DS3505
ZBAA,1990-02-10 07:00,ZBAA 100700Z AUTO 19006KT 1SM 05/M02 A3006 RMK T00501020 IEM_DS3505
ZBAA,1990-02-10 08:00,ZBAA 100800Z AUTO 19006KT 1SM 03/M02 A3006 RMK T00301020 IEM_DS3505
ZBAA,1990-02-10 09:00,ZBAA 100900Z AUTO 20008KT 1SM 03/M03 A3006 RMK SLP192 T00261027 57012 IEM_DS3505
ZBAA,1990-02-10 10:00,ZBAA 101000Z AUTO 13004KT 1SM 01/M03 A3006 RMK T00101030 IEM_DS3505
ZBAA,1990-02-10 12:00,ZBAA 101200Z AUTO 00000KT 1 1/4SM 00/M02 A3009 RMK SLP199 T00021022 52006 IEM_DS3505
ZBAA,1990-02-10 13:00,ZBAA 101300Z AUTO 00000KT 1 1/4SM M01/M03 A3009 RMK T10101030 IEM_DS3505
ZBAA,1990-02-10 14:00,ZBAA 101400Z AUTO 00000KT 1SM M01/M03 A3009 RMK T10101030 IEM_DS3505
ZBAA,1990-02-10 15:00,ZBAA 101500Z AUTO 00000KT 1 1/4SM M02/M03 RMK SLP202 T10171030 52003 IEM_DS3505
ZBAA,1990-02-10 18:00,ZBAA 101800Z AUTO 00000KT 3/8SM M01/M02 RMK SLP197 T10131019 40029//// 57004 IEM_DS3505
ZBAA,1990-02-10 20:00,ZBAA 102000Z AUTO 00000KT 1SM M02/M04 A3003 RMK T10201040 IEM_DS3505
ZBAA,1990-02-10 21:00,ZBAA 102100Z AUTO 00000KT 1/4SM M02/M02 A3003 RMK SLP186 T10191022 57011 IEM_DS3505
ZBAA,1990-02-10 22:00,ZBAA 102200Z AUTO 00000KT 3/8SM M02/M04 A3003 RMK T10201040 IEM_DS3505
ZBAA,1990-02-10 23:00,ZBAA 102300Z AUTO 00000KT 3/8SM M01/M03 A3006 RMK T10101030 IEM_DS3505
ZBAA,1990-02-11 00:00,ZBAA 110000Z AUTO 00000KT 1/8SM M03/M03 A3006 RMK SLP195 T10261026 52008 IEM_DS3505
ZBAA,1990-02-11 01:00,ZBAA 110100Z AUTO 11002KT 1/4SM 00/M02 A3009 RMK T00001020 IEM_DS3505
ZBAA,1990-02-11 02:00,ZBAA 110200Z AUTO 00000KT 1/2SM 00/M02 RMK T00001020 IEM_DS3505
ZBAA,1990-02-11 03:00,ZBAA 110300Z AUTO 18002KT 1/4SM M01/M02 A3009 RMK SLP204 T10101018 52009 IEM_DS3505
ZBAA,1990-02-11 04:00,ZBAA 110400Z AUTO 17002KT 1SM 02/M02 A3009 RMK T00201020 IEM_DS3505
ZBAA,1990-02-11 05:00,ZBAA 110500Z AUTO 00000KT 1SM 04/M02 A3006 RMK T00401020 IEM_DS3505
ZBAA,1990-02-11 06:00,ZBAA 110600Z AUTO 32006KT 4SM 10/ A3006 RMK SLP187 4////1029 57015 IEM_DS3505
ZBAA,1990-02-11 07:00,ZBAA 110700Z AUTO 10002KT 1 1/4SM 07/M02 A3006 RMK T00701020 IEM_DS3505
ZBAA,1990-02-11 08:00,ZBAA 110800Z AUTO 09002KT 1 1/4SM 08/M03 A3009 RMK T00801030 IEM_DS3505
ZBAA,1990-02-11 09:00,ZBAA 110900Z AUTO 34006KT 6SM 09/M13 A3009 RMK SLP206 T00871134 52018 IEM_DS3505
ZBAA,1990-02-11 10:00,ZBAA 111000Z AUTO ////06KT 7SM 06/M13 A3012 RMK T00601130 IEM_DS3505
ZBAA,1990-02-11 11:00,ZBAA 111100Z AUTO 01006KT 7SM 05/M13 A3015 RMK T00501130 IEM_DS3505
ZBAA,1990-02-11 12:00,ZBAA 111200Z AUTO 00000KT 12SM 04/M10 A3018 RMK SLP234 T00431099 52027 IEM_DS3505
ZBAA,1990-02-11 13:00,ZBAA 111300Z AUTO 00000KT 7SM 02/M13 A3021 RMK T00201130 IEM_DS3505
ZBAA,1990-02-11 14:00,ZBAA 111400Z AUTO 04004KT 7SM 00/M13 A3021 RMK T00001130 IEM_DS3505
ZBAA,1990-02-11 15:00,ZBAA 111500Z AUTO 07004KT 12SM 02/M08 A3024 RMK SLP248 T00231079 52014 IEM_DS3505
ZBAA,1990-02-11 18:00,ZBAA 111800Z AUTO 00000KT 11SM M02/M06 RMK SLP264 T10151060 40098//// 52017 IEM_DS3505
ZBAA,1990-02-11 21:00,ZBAA 112100Z AUTO 00000KT 9SM M04/M11 A3030 RMK SLP269 T10411111 52005 IEM_DS3505
ZBAA,1990-02-11 22:00,ZBAA 112200Z AUTO 00000KT 7SM M05/M13 A3030 RMK T10501130 IEM_DS3505
ZBAA,1990-02-11 23:00,ZBAA 112300Z AUTO 00000KT 7SM M05/M13 A3033 RMK T10501130 IEM_DS3505
ZBAA,1990-02-12 00:00,ZBAA 120000Z AUTO 00000KT 6SM M04/M09 A3033 RMK SLP282 T10451088 52012 IEM_DS3505
ZBAA,1990-02-12 01:00,ZBAA 120100Z AUTO 00000KT 6SM 01/M10 A3036 RMK T00101100 IEM_DS3505
ZBAA,1990-02-12 02:00,ZBAA 120200Z AUTO 33004KT 6SM 03/M12 A3036 RMK T00301120 IEM_DS3505
ZBAA,1990-02-12 03:00,ZBAA 120300Z AUTO 18006KT 3SM 05/M10 RMK SLP289 T00471103 52008 IEM_DS3505
ZBAA,1990-02-12 04:00,ZBAA 120400Z AUTO ////06KT 6SM 08/M12 A3033 RMK T00801120 IEM_DS3505
ZBAA,1990-02-12 05:00,ZBAA 120500Z AUTO 19010KT 6SM 09/M13 A3030 RMK T00901130 IEM_DS3505
ZBAA,1990-02-12 06:00,ZBAA 120600Z AUTO 20012KT 2 1/2SM 07/M14 A3030 RMK SLP266 T00711144 4////1053 57023 IEM_DS3505
ZBAA,1990-02-12 07:00,ZBAA 120700Z AUTO 19008KT 6SM 08/M11 A3027 RMK T00801110 IEM_DS3505
ZBAA,1990-02-12 08:00,ZBAA 120800Z AUTO 16008KT 6SM 08/M10 A3027 RMK T00801100 IEM_DS3505
ZBAA,1990-02-12 09:00,ZBAA 120900Z AUTO 16008KT 5SM 06/M14 A3027 RMK SLP263 T00631144 57004 IEM_DS3505
ZBAA,1990-02-12 10:00,ZBAA 121000Z AUTO ////04KT 6SM 05/M09 A3030 RMK T00501090 IEM_DS3505
ZBAA,1990-02-12 11:00,ZBAA 121100Z AUTO 12004KT 6SM 03/M09 A3030 RMK T00301090 IEM_DS3505
ZBAA,1990-02-12 12:00,ZBAA 121200Z AUTO 18004KT 6SM 04/M08 A3030 RMK SLP274 T00391076 52011 IEM_DS3505
ZBAA,1990-02-12 13:00,ZBAA 121300Z AUTO ////06KT 7SM 01/M09 A3033 RMK T00101090 IEM_DS3505
ZBAA,1990-02-12 14:00,ZBAA 121400Z AUTO 11004KT 7SM M01/M09 A3033 RMK T10101090 IEM_DS3505
ZBAA,1990-02-12 15:00,ZBAA 121500Z AUTO 14004KT 7SM 01/M08 A3030 RMK SLP273 T00121078 54000 IEM_DS3505
ZBAA,1990-02-12 18:00,ZBAA 121800Z AUTO 02002KT 5SM M02/M07 RMK SLP271 T10211067 40079//// 57002 IEM_DS3505
ZBAA,1990-02-12 20:00,ZBAA 122000Z AUTO 00000KT 6SM M01/M10 A3027 RMK T10101100 IEM_DS3505
ZBAA,1990-02-12 21:00,ZBAA 122100Z AUTO 02002KT 5SM M01/M08 A3027 RMK SLP263 T10071083 57008 IEM_DS3505
ZBAA,1990-02-12 22:00,ZBAA 122200Z AUTO 29004KT 6SM M01/M09 A3027 RMK T10101090 IEM_DS3505
ZBAA,1990-02-12 23:00,ZBAA 122300Z AUTO 30002KT 6SM 00/M09 A3027 RMK T00001090 IEM_DS3505
ZBAA,1990-02-13 00:00,ZBAA 130000Z AUTO 00000KT 4SM M00/M07 A3027 RMK SLP262 T10041074 57002 IEM_DS3505
ZBAA,1990-02-13 01:00,ZBAA 130100Z AUTO 33004KT 6SM 00/M09 A3027 RMK T00001090 IEM_DS3505
ZBAA,1990-02-13 02:00,ZBAA 130200Z AUTO 34002KT 6SM 01/M09 RMK T00101090 IEM_DS3505
ZBAA,1990-02-13 04:00,ZBAA 130400Z AUTO 04002KT 6SM 03/M11 A3027 RMK T00301110 IEM_DS3505
ZBAA,1990-02-13 05:00,ZBAA 130500Z AUTO 06002KT 6SM 03/M11 A3024 RMK T00301110 IEM_DS3505
ZBAA,1990-02-13 06:00,ZBAA 130600Z AUTO 02002KT 5SM 02/M10 A3021 RMK SLP248 T00181097 4////1023 57016 IEM_DS3505
ZBAA,1990-02-13 07:00,ZBAA 130700Z AUTO ////04KT 4SM 03/M06 A3021 RMK T00301060 IEM_DS3505
ZBAA,1990-02-13 08:00,ZBAA 130800Z AUTO 06002KT 2SM 01/M03 A3024 RMK T00101030 IEM_DS3505
ZBAA,1990-02-13 09:00,ZBAA 130900Z AUTO 34002KT 2 1/2SM M01/M02 A3024 RMK SLP250 T10111022 52002 IEM_DS3505
ZBAA,1990-02-13 10:00,ZBAA 131000Z AUTO 02004KT 1 1/4SM 00/M03 A3024 RMK T00001030 IEM_DS3505
ZBAA,1990-02-13 11:00,ZBAA 131100Z AUTO 01002KT 1 1/4SM 00/M03 A3024 RMK T00001030 IEM_DS3505
ZBAA,1990-02-13 12:00,ZBAA 131200Z AUTO 36002KT 4SM M01/M02 A3024 RMK 60008 SLP256 T10121024 52006 IEM_DS3505
ZBAA,1990-02-13 13:00,ZBAA 131300Z AUTO 31002KT 1 1/4SM 00/M03 A3027 RMK T00001030 IEM_DS3505
ZBAA,1990-02-13 14:00,ZBAA 131400Z AUTO 00000KT 1 1/4SM 00/M02 A3027 RMK T00001020 IEM_DS3505
ZBAA,1990-02-13 15:00,ZBAA 131500Z AUTO 00000KT 4SM M01/M02 A3027 RMK SLP257 T10121024 52001 IEM_DS3505
ZBAA,1990-02-13 20:00,ZBAA 132000Z AUTO 00000KT 1SM 00/M02 A3024 RMK T00001020 IEM_DS3505
ZBAA,1990-02-13 21:00,ZBAA 132100Z AUTO 00000KT 1SM M01/M02 A3021 RMK SLP249 T10071016 57007 IEM_DS3505
ZBAA,1990-02-13 22:00,ZBAA 132200Z AUTO 00000KT 1SM 01/M01 A3021 RMK T00101010 IEM_DS3505
ZBAA,1990-02-13 23:00,ZBAA 132300Z AUTO 00000KT 1SM 01/M01 A3021 RMK T00101010 IEM_DS3505
ZBAA,1990-02-14 00:00,ZBAA 140000Z AUTO 02002KT 1/2SM M01/M01 A3024 RMK 60012 70020 SLP250 T10081014 52001 IEM_DS3505
ZBAA,1990-02-14 01:00,ZBAA 140100Z AUTO 00000KT 1SM 01/00 A3024 RMK T00100000 IEM_DS3505
ZBAA,1990-02-14 02:00,ZBAA 140200Z AUTO 00000KT 1/2SM 02/00 A3024 RMK T00200000 IEM_DS3505
ZBAA,1990-02-14 02:01,ZBAA 140201Z AUTO 00000KT 1/2SM 02/00 A3024 RMK T00200000 IEM_DS3505
ZBAA,1990-02-14 03:00,ZBAA 140300Z AUTO 02002KT 1SM 00/M01 A3024 RMK SLP252 T00051009 52002 IEM_DS3505
ZBAA,1990-02-14 04:00,ZBAA 140400Z AUTO 10002KT 1SM 03/02 A3024 RMK T00300020 IEM_DS3505
ZBAA,1990-02-14 05:00,ZBAA 140500Z AUTO 13002KT 1SM 02/01 A3021 RMK T00200010 IEM_DS3505
ZBAA,1990-02-14 06:00,ZBAA 140600Z AUTO 00000KT 1SM 01/M00 A3018 RMK 60004 SLP240 T00101001 4////1016 57012 IEM_DS3505
ZBAA,1990-02-14 07:00,ZBAA 140700Z AUTO 11002KT 1/2SM 02/01 A3018 RMK T00200010 IEM_DS3505
ZBAA,1990-02-14 08:00,ZBAA 140800Z AUTO 11002KT 1/2SM 02/01 A3021 RMK T00200010 IEM_DS3505
ZBAA,1990-02-14 09:00,ZBAA 140900Z AUTO 00000KT 3/8SM 01/00 A3021 RMK SLP242 T00080000 52002 IEM_DS3505
ZBAA,1990-02-14 10:00,ZBAA 141000Z AUTO 11002KT 1SM 02/00 A3021 RMK T00200000 IEM_DS3505
ZBAA,1990-02-14 11:00,ZBAA 141100Z AUTO 00000KT 3/8SM 02/00 A3024 RMK T00200000 IEM_DS3505
ZBAA,1990-02-14 12:00,ZBAA 141200Z AUTO 34002KT 1/4SM 00/00 RMK SLP252 T00050002 52010 IEM_DS3505
ZBAA,1990-02-14 13:00,ZBAA 141300Z AUTO 00000KT 1/8SM 02/01 A3024 RMK T00200010 IEM_DS3505
ZBAA,1990-02-14 15:00,ZBAA 141500Z AUTO 02002KT 1SM 01/00 RMK SLP257 T00080002 52005 IEM_DS3505
ZBAA,1990-02-14 18:00,ZBAA 141800Z AUTO 00000KT 1SM 01/00 RMK SLP255 T00090003 40011//// 57002 IEM_DS3505
ZBAA,1990-02-14 20:00,ZBAA 142000Z AUTO 00000KT 0SM 01/00 A3024 RMK T00100000 IEM_DS3505
ZBAA,1990-02-14 21:00,ZBAA 142100Z AUTO 00000KT 2SM 01/00 A3024 RMK SLP252 T00060000 57003 IEM_DS3505
ZBAA,1990-02-14 22:00,ZBAA 142200Z AUTO 00000KT 0SM 01/M01 A3024 RMK T00101010 IEM_DS3505
ZBAA,1990-02-14 23:00,ZBAA 142300Z AUTO 28002KT 0SM 01/M01 A3027 RMK T00101010 IEM_DS3505
ZBAA,1990-02-15 00:00,ZBAA 150000Z AUTO 00000KT 1/8SM M01/M01 A3027 RMK 70004 SLP263 T10061009 52011 IEM_DS3505
ZBAA,1990-02-15 01:00,ZBAA 150100Z AUTO 33004KT 0SM 01/00 A3027 RMK T00100000 IEM_DS3505
ZBAA,1990-02-15 02:00,ZBAA 150200Z AUTO 29004KT 0SM 02/00 A3027 RMK T00200000 IEM_DS3505
ZBAA,1990-02-15 03:00,ZBAA 150300Z AUTO 00000KT 1SM 02/01 A3027 RMK SLP265 T00150007 52002 IEM_DS3505
ZBAA,1990-02-15 04:00,ZBAA 150400Z AUTO 27002KT 1/8SM 03/00 A3027 RMK T00300000 IEM_DS3505
ZBAA,1990-02-15 05:00,ZBAA 150500Z AUTO 00000KT 1 1/2SM 05/02 A3024 RMK T00500020 IEM_DS3505
ZBAA,1990-02-15 06:00,ZBAA 150600Z AUTO 20004KT 4SM 07/01 A3024 RMK SLP250 T00720012 4////1009 57014 IEM_DS3505
ZBAA,1990-02-15 07:00,ZBAA 150700Z AUTO 12004KT 4SM 09/01 A3024 RMK T00900010 IEM_DS3505
ZBAA,1990-02-15 08:00,ZBAA 150800Z AUTO 15002KT 3SM 08/02 A3021 RMK T00800020 IEM_DS3505
ZBAA,1990-02-15 09:00,ZBAA 150900Z AUTO 20006KT 5SM 07/01 A3024 RMK SLP250 T00700009 IEM_DS3505
ZBAA,1990-02-15 10:00,ZBAA 151000Z AUTO 00000KT 1 1/2SM 05/01 A3024 RMK T00500010 IEM_DS3505
ZBAA,1990-02-15 11:00,ZBAA 151100Z AUTO 00000KT 1 1/4SM 03/00 A3027 RMK T00300000 IEM_DS3505
ZBAA,1990-02-15 12:00,ZBAA 151200Z AUTO 20002KT 6SM 04/01 A3027 RMK SLP264 T00410010 52013 IEM_DS3505
ZBAA,1990-02-15 13:00,ZBAA 151300Z AUTO 13002KT 1SM 01/M01 A3030 RMK T00101010 IEM_DS3505
ZBAA,1990-02-15 14:00,ZBAA 151400Z AUTO 12002KT 1/2SM 02/00 A3033 RMK T00200000 IEM_DS3505
ZBAA,1990-02-15 15:00,ZBAA 151500Z AUTO 00000KT 4SM 01/M00 RMK SLP280 T00121002 52016 IEM_DS3505
ZBAA,1990-02-15 18:00,ZBAA 151800Z AUTO 00000KT 2 1/2SM 01/00 RMK SLP286 T00100002 40079//// 52007 IEM_DS3505
ZBAA,1990-02-15 20:00,ZBAA 152000Z AUTO 22004KT 0SM 00/M01 A3036 RMK T00001010 IEM_DS3505
ZBAA,1990-02-15 21:00,ZBAA 152100Z AUTO 00000KT 1/8SM M01/M01 A3039 RMK SLP295 T10061009 52009 IEM_DS3505
ZBAA,1990-02-15 22:00,ZBAA 152200Z AUTO 00000KT 0SM M01/M01 A3039 RMK T10101010 IEM_DS3505
ZBAA,1990-02-15 23:00,ZBAA 152300Z AUTO 22002KT 0SM M01/M02 A3042 RMK T10101020 IEM_DS3505
ZBAA,1990-02-16 00:00,ZBAA 160000Z AUTO 00000KT 1/8SM M00/M00 A3042 RMK SLP307 T10021002 52011 IEM_DS3505
ZBAA,1990-02-16 01:00,ZBAA 160100Z AUTO 07002KT 0SM M01/M02 A3042 RMK T10101020 IEM_DS3505
ZBAA,1990-02-16 02:00,ZBAA 160200Z AUTO 00000KT 0SM M01/M01 A3045 RMK T10101010 IEM_DS3505
ZBAA,1990-02-16 03:00,ZBAA 160300Z AUTO 00000KT 1/2SM 01/01 A3045 RMK SLP312 T00090009 52005 IEM_DS3505
ZBAA,1990-02-16 04:00,ZBAA 160400Z AUTO 12002KT 1/8SM 01/01 A3042 RMK T00100010 IEM_DS3505
ZBAA,1990-02-16 05:00,ZBAA 160500Z AUTO ////04KT 1/8SM 01/00 A3039 RMK T00100000 IEM_DS3505
ZBAA,1990-02-16 06:00,ZBAA 160600Z AUTO 20006KT 3/8SM 02/01 A3039 RMK SLP298 T00220009 4////1015 57014 IEM_DS3505
ZBAA,1990-02-16 07:00,ZBAA 160700Z AUTO 20006KT 01/00 A3036 RMK T00100000 IEM_DS3505
ZBAA,1990-02-16 08:00,ZBAA 160800Z AUTO 17002KT 1/8SM 02/00 A3036 RMK T00200000 IEM_DS3505
ZBAA,1990-02-16 09:00,ZBAA 160900Z AUTO 20004KT 1SM 01/01 RMK SLP294 T00140006 57004 IEM_DS3505
ZBAA,1990-02-16 10:00,ZBAA 161000Z AUTO 10002KT 1/4SM 02/00 A3036 RMK T00200000 IEM_DS3505
ZBAA,1990-02-16 11:00,ZBAA 161100Z AUTO 00000KT 3/8SM 02/00 A3039 RMK T00200000 IEM_DS3505
ZBAA,1990-02-16 12:00,ZBAA 161200Z AUTO 00000KT 1SM 01/00 A3039 RMK SLP301 T00080002 52007 IEM_DS3505
ZBAA,1990-02-16 14:00,ZBAA 161400Z AUTO 07002KT 0SM 02/00 A3039 RMK T00200000 IEM_DS3505
ZBAA,1990-02-16 15:00,ZBAA 161500Z AUTO 00000KT 1 1/4SM 01/01 RMK SLP301 T00110006 54000 IEM_DS3505
ZBAA,1990-02-16 18:00,ZBAA 161800Z AUTO 02002KT 1/4SM 01/00 RMK SLP292 T00060003 40025//// 57009 IEM_DS3505
ZBAA,1990-02-16 21:00,ZBAA 162100Z AUTO 00000KT 1/8SM 01/01 A3033 RMK SLP277 T00060006 57015 IEM_DS3505
ZBAA,1990-02-17 00:00,ZBAA 170000Z AUTO 00000KT 0SM 00/00 A3033 RMK SLP283 T00040004 52006 IEM_DS3505
ZBAA,1990-02-17 01:00,ZBAA 170100Z AUTO 35002KT 1SM 01/00 A3033 RMK T00100000 IEM_DS3505
ZBAA,1990-02-17 02:00,ZBAA 170200Z AUTO 00000KT 1/2SM 02/00 A3033 RMK T00200000 IEM_DS3505
ZBAA,1990-02-17 03:00,ZBAA 170300Z AUTO 00000KT 1/2SM 01/00 RMK SLP284 T00060003 52001 IEM_DS3505
ZBAA,1990-02-17 04:00,ZBAA 170400Z AUTO 00000KT 1/8SM 02/01 A3033 RMK T00200010 IEM_DS3505
ZBAA,1990-02-17 05:00,ZBAA 170500Z AUTO 00000KT 1/4SM 02/02 A3030 RMK T00200020 IEM_DS3505
ZBAA,1990-02-17 06:00,ZBAA 170600Z AUTO 00000KT 1SM 02/01 A3027 RMK 60008 SLP268 T00170014 4////0000 57016 IEM_DS3505
ZBAA,1990-02-17 07:00,ZBAA 170700Z AUTO 00000KT 1SM 03/02 A3027 RMK T00300020 IEM_DS3505
ZBAA,1990-02-17 08:00,ZBAA 170800Z AUTO 00000KT 1SM 03/02 A3027 RMK T00300020 IEM_DS3505
ZBAA,1990-02-17 09:00,ZBAA 170900Z AUTO 00000KT 2SM 02/01 A3027 RMK SLP267 T00230012 57001 IEM_DS3505
ZBAA,1990-02-17 10:00,ZBAA 171000Z AUTO 00000KT 1/2SM 02/01 A3030 RMK T00200010 IEM_DS3505
ZBAA,1990-02-17 11:00,ZBAA 171100Z AUTO 00000KT 1SM 02/01 A3030 RMK T00200010 IEM_DS3505
ZBAA,1990-02-17 12:00,ZBAA 171200Z AUTO 36002KT 1 1/2SM 02/01 RMK SLP270 T00170012 52003 IEM_DS3505
ZBAA,1990-02-17 13:00,ZBAA 171300Z AUTO 00000KT 1SM 02/01 A3030 RMK T00200010 IEM_DS3505
ZBAA,1990-02-17 14:00,ZBAA 171400Z AUTO 00000KT 1SM 02/01 A3030 RMK T00200010 IEM_DS3505
ZBAA,1990-02-17 15:00,ZBAA 171500Z AUTO 00000KT 1 1/2SM 02/01 A3030 RMK SLP269 T00160011 57001 IEM_DS3505
ZBAA,1990-02-17 18:00,ZBAA 171800Z AUTO 02002KT 1SM 01/00 RMK 60008 SLP257 T00100004 40023//// 57012 IEM_DS3505
ZBAA,1990-02-17 20:00,ZBAA 172000Z AUTO 00000KT 1SM 01/00 A3021 RMK T00100000 IEM_DS3505
ZBAA,1990-02-17 21:00,ZBAA 172100Z AUTO 00000KT 1SM 01/00 A3018 RMK SLP237 T00070004 57019 IEM_DS3505
ZBAA,1990-02-17 21:07,ZBAA 172107Z AUTO 00000KT 1SM 01/00 A3018 RMK T00100000 IEM_DS3505
ZBAA,1990-02-17 22:00,ZBAA 172200Z AUTO 00000KT 1/2SM 01/00 A3018 RMK T00100000 IEM_DS3505
ZBAA,1990-02-17 23:00,ZBAA 172300Z AUTO 00000KT 1/2SM 01/00 A3018 RMK T00100000 IEM_DS3505
ZBAA,1990-02-18 00:00,ZBAA 180000Z AUTO 36002KT 1 1/4SM 01/01 A3018 RMK 60020 70031 SLP237 T00090006 54000 IEM_DS3505
ZBAA,1990-02-18 01:00,ZBAA 180100Z AUTO 00000KT 1/4SM 01/00 A3018 RMK T00100000 IEM_DS3505
ZBAA,1990-02-18 02:00,ZBAA 180200Z AUTO 33002KT 1/2SM 02/01 A3018 RMK T00200010 IEM_DS3505
ZBAA,1990-02-18 03:00,ZBAA 180300Z AUTO 00000KT 1 1/4SM 01/01 A3018 RMK SLP236 T00130008 57001 IEM_DS3505
ZBAA,1990-02-18 04:00,ZBAA 180400Z AUTO 32002KT 1SM 03/03 A3015 RMK T00300030 IEM_DS3505
ZBAA,1990-02-18 05:00,ZBAA 180500Z AUTO 29004KT 1/2SM 03/03 A3012 RMK T00300030 IEM_DS3505
ZBAA,1990-02-18 06:00,ZBAA 180600Z AUTO 00000KT 2 1/2SM 04/02 A3012 RMK 60012 SLP213 T00370024 4////0002 57023 IEM_DS3505
ZBAA,1990-02-18 07:00,ZBAA 180700Z AUTO 00000KT 2 1/2SM 05/05 A3009 RMK T00500050 IEM_DS3505
ZBAA,1990-02-18 08:00,ZBAA 180800Z AUTO 27002KT 2SM 05/04 A3009 RMK T00500040 IEM_DS3505
ZBAA,1990-02-18 09:00,ZBAA 180900Z AUTO 00000KT 2 1/2SM 05/03 A3006 RMK SLP195 T00470027 57018 IEM_DS3505
ZBAA,1990-02-18 10:00,ZBAA 181000Z AUTO 00000KT 2SM 04/02 A3006 RMK T00400020 IEM_DS3505
ZBAA,1990-02-18 11:00,ZBAA 181100Z AUTO 00000KT 1 1/4SM 03/02 A3006 RMK T00300020 IEM_DS3505
ZBAA,1990-02-18 12:00,ZBAA 181200Z AUTO 20004KT 1SM 03/02 RMK 60001 SLP197 T00310023 52002 IEM_DS3505
ZBAA,1990-02-18 15:00,ZBAA 181500Z AUTO 18004KT 1 1/4SM 02/01 RMK SLP197 T00170009 54000 IEM_DS3505
ZBAA,1990-02-18 18:00,ZBAA 181800Z AUTO 20002KT 1 1/4SM 01/00 RMK SLP188 T00090001 40048//// 57009 IEM_DS3505
ZBAA,1990-02-18 20:00,ZBAA 182000Z AUTO 32002KT 0SM 01/00 A3003 RMK T00100000 IEM_DS3505
ZBAA,1990-02-18 21:00,ZBAA 182100Z AUTO 00000KT 1/8SM 01/01 A3003 RMK SLP183 T00100007 57005 IEM_DS3505
ZBAA,1990-02-18 22:00,ZBAA 182200Z AUTO 00000KT 0SM 01/00 A3003 RMK T00100000 IEM_DS3505
ZBAA,1990-02-18 23:00,ZBAA 182300Z AUTO 00000KT 1/8SM 01/00 A3006 RMK T00100000 IEM_DS3505
ZBAA,1990-02-19 00:00,ZBAA 190000Z AUTO 00000KT 1/8SM 01/01 A3006 RMK 70016 SLP200 T00090006 52017 IEM_DS3505
ZBAA,1990-02-19 01:00,ZBAA 190100Z AUTO 00000KT 1/8SM 01/01 A3009 RMK T00100010 IEM_DS3505
ZBAA,1990-02-19 02:00,ZBAA 190200Z AUTO 31002KT 1/8SM 02/01 A3009 RMK T00200010 IEM_DS3505
ZBAA,1990-02-19 03:00,ZBAA 190300Z AUTO 00000KT 1/2SM 02/01 A3009 RMK SLP203 T00170014 52003 IEM_DS3505
ZBAA,1990-02-19 04:00,ZBAA 190400Z AUTO 00000KT 1/4SM 03/03 A3009 RMK T00300030 IEM_DS3505
ZBAA,1990-02-19 06:00,ZBAA 190600Z AUTO 20004KT 1 1/4SM 04/02 A3006 RMK SLP196 T00360023 4////0000 57007 IEM_DS3505
ZBAA,1990-02-19 07:00,ZBAA 190700Z AUTO 21002KT 3/8SM 04/03 A3006 RMK T00400030 IEM_DS3505
ZBAA,1990-02-19 08:00,ZBAA 190800Z AUTO 20004KT 3/8SM 05/02 A3006 RMK T00500020 IEM_DS3505
ZBAA,1990-02-19 09:00,ZBAA 190900Z AUTO 20006KT 2 1/2SM 03/02 A3006 RMK SLP198 T00320019 52002 IEM_DS3505
ZBAA,1990-02-19 10:00,ZBAA 191000Z AUTO 00000KT 3/8SM 04/02 A3009 RMK T00400020 IEM_DS3505
ZBAA,1990-02-19 12:00,ZBAA 191200Z AUTO 22002KT 2SM 03/02 A3015 RMK SLP220 T00260018 52022 IEM_DS3505
ZBAA,1990-02-19 13:00,ZBAA 191300Z AUTO 00000KT 1SM 03/01 A3015 RMK T00300010 IEM_DS3505
ZBAA,1990-02-19 14:00,ZBAA 191400Z AUTO 00000KT 1SM 03/01 A3018 RMK T00300010 IEM_DS3505
ZBAA,1990-02-19 15:00,ZBAA 191500Z AUTO 00000KT 1 1/4SM 02/02 RMK SLP226 T00210016 52006 IEM_DS3505
ZBAA,1990-02-19 18:00,ZBAA 191800Z AUTO 00000KT 1/8SM 02/02 RMK SLP236 T00180015 40039//// 52010 IEM_DS3505
ZBAA,1990-02-19 20:00,ZBAA 192000Z AUTO 00000KT 1/8SM 02/01 A3018 RMK T00200010 IEM_DS3505
ZBAA,1990-02-19 21:00,ZBAA 192100Z AUTO 00000KT 1/8SM 01/01 A3018 RMK SLP236 T00110008 54000 IEM_DS3505
ZBAA,1990-02-19 22:00,ZBAA 192200Z AUTO 00000KT 1/4SM 02/01 A3021 RMK T00200010 IEM_DS3505
ZBAA,1990-02-19 23:00,ZBAA 192300Z AUTO 00000KT 1/4SM 02/00 A3021 RMK T00200000 IEM_DS3505
ZBAA,1990-02-20 00:00,ZBAA 200000Z AUTO 00000KT 1/4SM 01/01 A3024 RMK 60001 SLP248 T00070007 52012 IEM_DS3505
ZBAA,1990-02-20 01:00,ZBAA 200100Z AUTO 13002KT 1/4SM 02/01 A3024 RMK T00200010 IEM_DS3505
ZBAA,1990-02-20 02:00,ZBAA 200200Z AUTO 00000KT 1SM 02/01 A3024 RMK T00200010 IEM_DS3505
ZBAA,1990-02-20 03:00,ZBAA 200300Z AUTO 00000KT 1SM 01/01 A3024 RMK SLP251 T00080008 52002 IEM_DS3505
ZBAA,1990-02-20 04:00,ZBAA 200400Z AUTO 11002KT 1SM 03/01 A3024 RMK T00300010 IEM_DS3505
ZBAA,1990-02-20 05:00,ZBAA 200500Z AUTO 14004KT 1SM 03/01 A3021 RMK T00300010 IEM_DS3505
ZBAA,1990-02-20 06:00,ZBAA 200600Z AUTO 18002KT 1/4SM 01/01 A3021 RMK SLP241 T00110008 4////0004 57009 IEM_DS3505
ZBAA,1990-02-20 07:00,ZBAA 200700Z AUTO 12004KT 1SM 03/00 A3021 RMK T00300000 IEM_DS3505
ZBAA,1990-02-20 08:00,ZBAA 200800Z AUTO ////04KT 1SM 02/00 A3021 RMK T00200000 IEM_DS3505
ZBAA,1990-02-20 09:00,ZBAA 200900Z AUTO 00000KT 1SM 01/01 A3021 RMK SLP243 T00120007 52001 IEM_DS3505
ZBAA,1990-02-20 10:00,ZBAA 201000Z AUTO 14004KT 1SM 02/00 A3021 RMK T00200000 IEM_DS3505
ZBAA,1990-02-20 11:00,ZBAA 201100Z AUTO 13004KT 1SM 02/M01 A3021 RMK T00201010 IEM_DS3505
ZBAA,1990-02-20 12:00,ZBAA 201200Z AUTO 00000KT 1SM 01/00 A3024 RMK SLP246 T00060003 52003 IEM_DS3505
ZBAA,1990-02-20 13:00,ZBAA 201300Z AUTO 14004KT 1/4SM 01/00 A3024 RMK T00100000 IEM_DS3505
ZBAA,1990-02-20 14:00,ZBAA 201400Z AUTO 17002KT 1/8SM 01/00 A3027 RMK T00100000 IEM_DS3505
ZBAA,1990-02-20 15:00,ZBAA 201500Z AUTO 00000KT 1SM 00/00 RMK SLP254 T00040004 52008 IEM_DS3505
ZBAA,1990-02-20 18:00,ZBAA 201800Z AUTO 36002KT 1SM 00/00 RMK 60004 SLP253 T00050002 40020//// 57001 IEM_DS3505
ZBAA,1990-02-20 20:00,ZBAA 202000Z AUTO 00000KT 1SM 01/00 A3024 RMK T00100000 IEM_DS3505
ZBAA,1990-02-20 21:00,ZBAA 202100Z AUTO 00000KT 1SM 00/00 A3021 RMK SLP249 T00020002 57004 IEM_DS3505
ZBAA,1990-02-20 22:00,ZBAA 202200Z AUTO 00000KT 1/2SM 01/00 A3024 RMK T00100000 IEM_DS3505
ZBAA,1990-02-20 23:00,ZBAA 202300Z AUTO 00000KT 3/8SM 01/00 A3024 RMK T00100000 IEM_DS3505
ZBAA,1990-02-21 00:00,ZBAA 210000Z AUTO 00000KT 1 1/4SM 01/00 A3024 RMK 60004 SLP251 T00070004 52002 IEM_DS3505
ZBAA,1990-02-21 01:00,ZBAA 210100Z AUTO 00000KT 1SM 02/02 A3024 RMK T00200020 IEM_DS3505
ZBAA,1990-02-21 02:00,ZBAA 210200Z AUTO 00000KT 1SM 02/02 A3027 RMK T00200020 IEM_DS3505
ZBAA,1990-02-21 03:00,ZBAA 210300Z AUTO 00000KT 1 1/4SM 02/01 A3027 RMK SLP260 T00250009 52009 IEM_DS3505
ZBAA,1990-02-21 04:00,ZBAA 210400Z AUTO 00000KT 2 1/2SM 05/03 A3024 RMK T00500030 IEM_DS3505
ZBAA,1990-02-21 05:00,ZBAA 210500Z AUTO 00000KT 2SM 05/02 A3024 RMK T00500020 IEM_DS3505
ZBAA,1990-02-21 06:00,ZBAA 210600Z AUTO 36004KT 2SM 04/02 RMK SLP244 T00390016 4////0000 57015 IEM_DS3505
ZBAA,1990-02-21 08:00,ZBAA 210800Z AUTO 34004KT 2 1/2SM 05/03 A3021 RMK T00500030 IEM_DS3505
ZBAA,1990-02-21 09:00,ZBAA 210900Z AUTO 36002KT 1 1/2SM 04/02 A3021 RMK SLP241 T00350017 57003 IEM_DS3505
ZBAA,1990-02-21 10:00,ZBAA 211000Z AUTO 00000KT 2SM 05/03 A3021 RMK T00500030 IEM_DS3505
ZBAA,1990-02-21 11:00,ZBAA 211100Z AUTO 30004KT 2SM 04/02 A3024 RMK T00400020 IEM_DS3505
ZBAA,1990-02-21 12:00,ZBAA 211200Z AUTO 36002KT 1 1/4SM 03/02 A3024 RMK 60004 SLP251 T00320022 52010 IEM_DS3505
ZBAA,1990-02-21 13:00,ZBAA 211300Z AUTO 32004KT 1 1/4SM 03/02 A3027 RMK T00300020 IEM_DS3505
ZBAA,1990-02-21 14:00,ZBAA 211400Z AUTO 31004KT 1 1/4SM 03/02 A3027 RMK T00300020 IEM_DS3505
ZBAA,1990-02-21 15:00,ZBAA 211500Z AUTO 00000KT 2SM 03/02 A3027 RMK SLP264 T00300025 52013 IEM_DS3505
ZBAA,1990-02-21 18:00,ZBAA 211800Z AUTO 36006KT 2 1/2SM 03/M00 RMK 60004 SLP265 T00331002 40040//// 52001 IEM_DS3505
ZBAA,1990-02-21 20:00,ZBAA 212000Z AUTO 34006KT 7SM 02/01 A3030 RMK T00200010 IEM_DS3505
ZBAA,1990-02-21 21:00,ZBAA 212100Z AUTO 36010KT 9SM 03/M03 A3030 RMK SLP267 T00291027 IEM_DS3505
ZBAA,1990-02-22 00:00,ZBAA 220000Z AUTO 34010KT 11SM 03/M04 A3036 RMK 70008 SLP286 T00291037 52019 IEM_DS3505
ZBAA,1990-02-22 01:00,ZBAA 220100Z AUTO 34006KT 7SM 03/M05 A3039 RMK T00301050 IEM_DS3505
ZBAA,1990-02-22 02:00,ZBAA 220200Z AUTO 34006KT 7SM 03/M04 A3039 RMK T00301040 IEM_DS3505
ZBAA,1990-02-22 03:00,ZBAA 220300Z AUTO 36012KT 9SM 02/M04 A3042 RMK SLP308 T00251039 52021 IEM_DS3505
ZBAA,1990-02-22 04:00,ZBAA 220400Z AUTO ////06KT 7SM 04/M05 A3042 RMK T00401050 IEM_DS3505
ZBAA,1990-02-22 05:00,ZBAA 220500Z AUTO ////06KT 7SM 04/M05 A3042 RMK T00401050 IEM_DS3505
ZBAA,1990-02-22 06:00,ZBAA 220600Z AUTO 36014KT 11SM 03/M06 A3042 RMK SLP305 T00291065 4////0018 57002 IEM_DS3505
ZBAA,1990-02-22 07:00,ZBAA 220700Z AUTO 03010KT 6SM 05/M06 A3042 RMK T00501060 IEM_DS3505
ZBAA,1990-02-22 08:19,ZBAA 220819Z AUTO 02010KT 6SM 05/M07 A3045 RMK T00501070 IEM_DS3505
ZBAA,1990-02-22 08:23,ZBAA 220823Z AUTO 02010KT 6SM 05/M07 A3045 RMK T00501070 IEM_DS3505
ZBAA,1990-02-22 09:00,ZBAA 220900Z AUTO 36010KT 11SM 03/M06 A3045 RMK SLP323 T00341062 52017 IEM_DS3505
ZBAA,1990-02-22 09:19,ZBAA 220919Z AUTO 02010KT 6SM 05/M07 A3045 RMK T00501070 IEM_DS3505
ZBAA,1990-02-22 09:23,ZBAA 220923Z AUTO 02010KT 6SM 05/M07 A3045 RMK T00501070 IEM_DS3505
ZBAA,1990-02-22 10:07,ZBAA 221007Z AUTO 02010KT 6SM 05/M07 A3045 RMK T00501070 IEM_DS3505
ZBAA,1990-02-22 10:15,ZBAA 221015Z AUTO 02010KT 6SM 05/M07 A3045 RMK T00501070 IEM_DS3505
ZBAA,1990-02-22 11:19,ZBAA 221119Z AUTO 02010KT 6SM 05/M07 A3045 RMK T00501070 IEM_DS3505
ZBAA,1990-02-22 11:23,ZBAA 221123Z AUTO 02010KT 6SM 05/M07 A3045 RMK T00501070 IEM_DS3505
ZBAA,1990-02-22 12:00,ZBAA 221200Z AUTO 34014KT 12SM 02/M07 A3045 RMK SLP349 T00171071 52026 IEM_DS3505
ZBAA,1990-02-22 14:00,ZBAA 221400Z AUTO ////06KT 6SM 03/M08 A3053 RMK T00301080 IEM_DS3505
ZBAA,1990-02-22 15:00,ZBAA 221500Z AUTO 34012KT 12SM 01/M10 A3056 RMK SLP362 T00061103 52013 IEM_DS3505
ZBAA,1990-02-22 18:00,ZBAA 221800Z AUTO 36012KT 19SM M00/M14 RMK SLP377 T10031141 40035//// 52015 IEM_DS3505
ZBAA,1990-02-22 20:00,ZBAA 222000Z AUTO ////06KT 7SM M01/M16 A3065 RMK T10101160 IEM_DS3505
ZBAA,1990-02-22 21:00,ZBAA 222100Z AUTO 36012KT 19SM M01/M19 A3068 RMK SLP390 T10131193 52012 IEM_DS3505
ZBAA,1990-02-22 22:00,ZBAA 222200Z AUTO 35006KT 6SM M02/M14 A3068 RMK T10201140 IEM_DS3505
ZBAA,1990-02-22 23:00,ZBAA 222300Z AUTO 02010KT 6SM M03/M18 A3071 RMK T10301180 IEM_DS3505
ZBAA,1990-02-23 00:00,ZBAA 230000Z AUTO 02016KT 19SM M03/M25 A3068 RMK SLP408 T10281247 52018 IEM_DS3505
ZBAA,1990-02-23 01:00,ZBAA 230100Z AUTO 35006KT 6SM M02/M14 A3068 RMK T10201140 IEM_DS3505
ZBAA,1990-02-23 02:00,ZBAA 230200Z AUTO 36008KT 6SM 01/M18 A3071 RMK T00101180 IEM_DS3505
ZBAA,1990-02-23 03:00,ZBAA 230300Z AUTO 34012KT 19SM M00/M22 A3068 RMK SLP408 T10051224 54000 IEM_DS3505
ZBAA,1990-02-23 04:00,ZBAA 230400Z AUTO 02008KT 6SM 02/M17 A3071 RMK T00201170 IEM_DS3505
ZBAA,1990-02-23 05:00,ZBAA 230500Z AUTO 03008KT 6SM 02/M16 A3071 RMK T00201160 IEM_DS3505
ZBAA,1990-02-23 06:00,ZBAA 230600Z AUTO 34012KT 19SM 01/M19 A3062 RMK SLP387 T00131189 4////1032 57021 IEM_DS3505
ZBAA,1990-02-23 07:00,ZBAA 230700Z AUTO 33008KT 6SM 04/M18 A3062 RMK T00401180 IEM_DS3505
ZBAA,1990-02-23 08:00,ZBAA 230800Z AUTO 33010KT 6SM 03/M17 A3059 RMK T00301170 IEM_DS3505
ZBAA,1990-02-23 09:00,ZBAA 230900Z AUTO 36010KT 19SM 01/M17 A3059 RMK SLP373 T00091174 57014 IEM_DS3505
ZBAA,1990-02-23 10:00,ZBAA 231000Z AUTO 33010KT 6SM 00/M17 A3059 RMK T00001170 IEM_DS3505
ZBAA,1990-02-23 11:00,ZBAA 231100Z AUTO ////06KT 6SM 00/M16 A3062 RMK T00001160 IEM_DS3505
ZBAA,1990-02-23 12:00,ZBAA 231200Z AUTO 36006KT 19SM M01/M18 A3062 RMK SLP381 T10111181 52008 IEM_DS3505
ZBAA,1990-02-23 13:00,ZBAA 231300Z AUTO 34008KT 6SM M01/M17 A3065 RMK T10101170 IEM_DS3505
ZBAA,1990-02-23 14:00,ZBAA 231400Z AUTO 34008KT 6SM M01/M18 A3065 RMK T10101180 IEM_DS3505
ZBAA,1990-02-23 15:00,ZBAA 231500Z AUTO 02008KT 17SM M02/M22 RMK SLP386 T10191225 52005 IEM_DS3505
ZBAA,1990-02-23 18:00,ZBAA 231800Z AUTO 02006KT 19SM M03/M20 RMK SLP383 T10321198 40014//// 57003 IEM_DS3505
ZBAA,1990-02-23 20:00,ZBAA 232000Z AUTO 32004KT 7SM M05/M16 A3059 RMK T10501160 IEM_DS3505
ZBAA,1990-02-23 21:00,ZBAA 232100Z AUTO 36006KT 19SM M04/M20 A3056 RMK SLP366 T10431197 57017 IEM_DS3505
ZBAA,1990-02-23 22:00,ZBAA 232200Z AUTO ////04KT 7SM M05/M17 A3056 RMK T10501170 IEM_DS3505
ZBAA,1990-02-23 23:00,ZBAA 232300Z AUTO 31008KT 6SM M05/M17 A3056 RMK T10501170 IEM_DS3505
ZBAA,1990-02-24 00:00,ZBAA 240000Z AUTO 36004KT 19SM M04/M19 A3056 RMK SLP362 T10411192 57004 IEM_DS3505
ZBAA,1990-02-24 01:00,ZBAA 240100Z AUTO 34016KT 19SM M00/M24 A3056 RMK SLP348 T10021236 57014 IEM_DS3505
ZBAA,1990-02-24 02:00,ZBAA 240200Z AUTO 32010KT 7SM 00/M20 A3053 RMK T00001200 IEM_DS3505
ZBAA,1990-02-24 03:00,ZBAA 240300Z AUTO 34016KT 19SM M00/M24 RMK SLP348 T10021236 57014 IEM_DS3505
ZBAA,1990-02-24 06:00,ZBAA 240600Z AUTO 36012KT 19SM 01/M21 RMK SLP314 T00131209 4////1054 57034 IEM_DS3505
ZBAA,1990-02-24 09:00,ZBAA 240900Z AUTO 34006KT 19SM 02/M26 RMK SLP302 T00151258 57012 IEM_DS3505
ZBAA,1990-02-24 12:00,ZBAA 241200Z AUTO 29004KT 16SM M00/M22 RMK SLP306 T10041216 52004 IEM_DS3505
ZBAA,1990-02-24 15:00,ZBAA 241500Z AUTO 36002KT 16SM M02/M20 RMK SLP313 T10231201 52007 IEM_DS3505
ZBAA,1990-02-24 18:00,ZBAA 241800Z AUTO 16SM M03/M15 RMK SLP308 T10321153 40019//// 57005 IEM_DS3505
ZBAA,1990-02-24 21:00,ZBAA 242100Z AUTO 09002KT 19SM M04/M16 A3039 RMK SLP301 T10421159 57007 IEM_DS3505
ZBAA,1990-02-24 22:00,ZBAA 242200Z AUTO 03006KT 7SM M05/M15 A3039 RMK T10501150 IEM_DS3505
ZBAA,1990-02-24 23:00,ZBAA 242300Z AUTO 03004KT 7SM M06/M15 A3039 RMK T10601150 IEM_DS3505
ZBAA,1990-02-25 00:00,ZBAA 250000Z AUTO 00000KT 6SM M06/M11 A3042 RMK SLP307 T10601114 52006 IEM_DS3505
ZBAA,1990-02-25 01:00,ZBAA 250100Z AUTO 04004KT 7SM 00/M14 A3042 RMK T00001140 IEM_DS3505
ZBAA,1990-02-25 02:00,ZBAA 250200Z AUTO 02004KT 7SM 02/M15 A3042 RMK T00201150 IEM_DS3505
ZBAA,1990-02-25 03:00,ZBAA 250300Z AUTO 27004KT 7SM 01/M17 A3039 RMK SLP305 T00071167 57001 IEM_DS3505
ZBAA,1990-02-25 04:00,ZBAA 250400Z AUTO 03006KT 7SM M04/M14 A3042 RMK T10401140 IEM_DS3505
ZBAA,1990-02-25 05:00,ZBAA 250500Z AUTO ////02KT 7SM A3033 RMK IEM_DS3505
ZBAA,1990-02-25 06:00,ZBAA 250600Z AUTO 25004KT 7SM 04/M15 A3030 RMK SLP280 T00391148 4////1066 57025 IEM_DS3505
ZBAA,1990-02-25 07:00,ZBAA 250700Z AUTO ////02KT 7SM 06/M14 A3033 RMK T00601140 IEM_DS3505
ZBAA,1990-02-25 08:00,ZBAA 250800Z AUTO ////06KT 7SM 06/M13 RMK T00601130 IEM_DS3505
ZBAA,1990-02-25 09:00,ZBAA 250900Z AUTO 20008KT 11SM 04/M13 A3030 RMK SLP273 T00351129 57007 IEM_DS3505
ZBAA,1990-02-25 10:00,ZBAA 251000Z AUTO 21006KT 7SM 03/M11 A3030 RMK T00301110 IEM_DS3505
ZBAA,1990-02-25 11:00,ZBAA 251100Z AUTO ////06KT 7SM 02/M10 A3030 RMK T00201100 IEM_DS3505
ZBAA,1990-02-25 12:00,ZBAA 251200Z AUTO 20004KT 12SM 01/M08 A3030 RMK SLP278 T00101081 52004 IEM_DS3505
ZBAA,1990-02-25 13:00,ZBAA 251300Z AUTO 24004KT 7SM 00/M09 A3033 RMK T00001090 IEM_DS3505
ZBAA,1990-02-25 14:00,ZBAA 251400Z AUTO 00000KT 7SM M01/M08 A3033 RMK T10101080 IEM_DS3505
ZBAA,1990-02-25 15:00,ZBAA 251500Z AUTO 20002KT 16SM M01/M08 A3033 RMK SLP287 T10121077 52010 IEM_DS3505
ZBAA,1990-02-25 18:00,ZBAA 251800Z AUTO 34002KT 12SM M04/M07 RMK SLP290 T10381067 40042//// 52003 IEM_DS3505
ZBAA,1990-02-25 20:00,ZBAA 252000Z AUTO 02004KT 7SM M03/M10 A3036 RMK T10301100 IEM_DS3505
ZBAA,1990-02-25 21:00,ZBAA 252100Z AUTO 00000KT 12SM M04/M09 A3036 RMK SLP288 T10421088 57002 IEM_DS3505
ZBAA,1990-02-25 23:00,ZBAA 252300Z AUTO 34004KT 7SM M04/M11 A3036 RMK T10401110 IEM_DS3505
ZBAA,1990-02-26 00:00,ZBAA 260000Z AUTO 00000KT 7SM M03/M09 A3039 RMK SLP297 T10341088 52008 IEM_DS3505
ZBAA,1990-02-26 01:00,ZBAA 260100Z AUTO 03006KT 7SM 02/M10 A3039 RMK T00201100 IEM_DS3505
ZBAA,1990-02-26 02:00,ZBAA 260200Z AUTO 04004KT 7SM 04/M10 A3039 RMK T00401100 IEM_DS3505
ZBAA,1990-02-26 03:00,ZBAA 260300Z AUTO 00000KT 9SM 03/M13 A3039 RMK SLP299 T00331134 52003 IEM_DS3505
ZBAA,1990-02-26 05:00,ZBAA 260500Z AUTO ////04KT 7SM 08/M13 A3033 RMK T00801130 IEM_DS3505
ZBAA,1990-02-26 06:00,ZBAA 260600Z AUTO 22008KT 6SM 06/M16 A3033 RMK SLP277 T00611158 4////1056 57022 IEM_DS3505
ZBAA,1990-02-26 07:00,ZBAA 260700Z AUTO 20004KT 7SM 09/M12 A3030 RMK T00901120 IEM_DS3505
ZBAA,1990-02-26 08:00,ZBAA 260800Z AUTO ////06KT 7SM 07/M11 A3030 RMK T00701110 IEM_DS3505
ZBAA,1990-02-26 09:00,ZBAA 260900Z AUTO 16008KT 11SM 05/M13 RMK SLP274 T00531127 57003 IEM_DS3505
ZBAA,1990-02-26 10:00,ZBAA 261000Z AUTO 18006KT 7SM 05/M10 A3030 RMK T00501100 IEM_DS3505
ZBAA,1990-02-26 11:00,ZBAA 261100Z AUTO 17004KT 7SM 04/M10 A3033 RMK T00401100 IEM_DS3505
ZBAA,1990-02-26 12:00,ZBAA 261200Z AUTO 16006KT 11SM 03/M09 A3033 RMK SLP278 T00331087 52004 IEM_DS3505
ZBAA,1990-02-26 14:00,ZBAA 261400Z AUTO 14004KT 7SM 01/M08 A3033 RMK T00101080 IEM_DS3505
ZBAA,1990-02-26 15:00,ZBAA 261500Z AUTO 18004KT 9SM 02/M07 A3033 RMK SLP280 T00161072 52003 IEM_DS3505
ZBAA,1990-02-26 18:00,ZBAA 261800Z AUTO 00000KT 7SM 00/M06 RMK SLP286 T00001060 40066//// 52006 IEM_DS3505
ZBAA,1990-02-26 21:00,ZBAA 262100Z AUTO 07002KT 7SM M02/M06 A3039 RMK SLP293 T10171055 52006 IEM_DS3505
ZBAA,1990-02-26 23:00,ZBAA 262300Z AUTO 10002KT 6SM M03/M05 A3039 RMK T10301050 IEM_DS3505
ZBAA,1990-02-27 00:00,ZBAA 270000Z AUTO 36006KT 2SM M02/M05 A3042 RMK SLP308 T10251046 52015 IEM_DS3505
ZBAA,1990-02-27 01:00,ZBAA 270100Z AUTO 13004KT 2 1/2SM M01/M04 A3042 RMK T10101040 IEM_DS3505
ZBAA,1990-02-27 02:00,ZBAA 270200Z AUTO 11004KT 2 1/2SM 00/M04 A3042 RMK T00001040 IEM_DS3505
ZBAA,1990-02-27 03:00,ZBAA 270300Z AUTO 04004KT 4SM M00/M04 A3042 RMK SLP310 T10011039 52002 IEM_DS3505
ZBAA,1990-02-27 04:00,ZBAA 270400Z AUTO ////04KT 2 1/2SM 01/M03 A3042 RMK T00101030 IEM_DS3505
ZBAA,1990-02-27 05:00,ZBAA 270500Z AUTO ////04KT 2 1/2SM 03/M03 A3039 RMK T00301030 IEM_DS3505
ZBAA,1990-02-27 06:00,ZBAA 270600Z AUTO 02006KT 2 1/2SM 02/M03 A3036 RMK SLP291 T00231031 4////1034 57019 IEM_DS3505
ZBAA,1990-02-27 07:00,ZBAA 270700Z AUTO ////04KT 6SM 06/M02 A3033 RMK T00601020 IEM_DS3505
ZBAA,1990-02-27 08:00,ZBAA 270800Z AUTO ////04KT 6SM 06/M03 A3033 RMK T00601030 IEM_DS3505
ZBAA,1990-02-27 09:00,ZBAA 270900Z AUTO 34004KT 2SM 03/M02 A3033 RMK SLP283 T00341024 57008 IEM_DS3505
ZBAA,1990-02-27 10:00,ZBAA 271000Z AUTO 36004KT 4SM 03/M02 A3033 RMK T00301020 IEM_DS3505
ZBAA,1990-02-27 11:00,ZBAA 271100Z AUTO 02004KT 2SM 01/M03 A3036 RMK T00101030 IEM_DS3505
ZBAA,1990-02-27 12:00,ZBAA 271200Z AUTO 04002KT 1 1/4SM 01/M03 RMK T00101026 52008 IEM_DS3505
ZBAA,1990-02-27 13:00,ZBAA 271300Z AUTO 31002KT 1 1/4SM 00/M03 A3036 RMK T00001030 IEM_DS3505
ZBAA,1990-02-27 14:00,ZBAA 271400Z AUTO 34002KT 1 1/4SM 00/M03 A3039 RMK T00001030 IEM_DS3505
ZBAA,1990-02-27 15:00,ZBAA 271500Z AUTO 00000KT 1 1/4SM M01/M03 A3039 RMK SLP294 T10111027 52003 IEM_DS3505
ZBAA,1990-02-27 18:00,ZBAA 271800Z AUTO 00000KT 1SM M02/M03 RMK SLP293 T10151031 40042//// 57001 IEM_DS3505
ZBAA,1990-02-27 20:00,ZBAA 272000Z AUTO 00000KT 1SM M02/M04 A3036 RMK T10201040 IEM_DS3505
ZBAA,1990-02-27 21:00,ZBAA 272100Z AUTO 00000KT 1SM M03/M04 A3039 RMK SLP289 T10291039 57004 IEM_DS3505
ZBAA,1990-02-27 22:00,ZBAA 272200Z AUTO 00000KT 1 1/4SM M02/M05 A3036 RMK T10201050 IEM_DS3505
ZBAA,1990-02-27 23:00,ZBAA 272300Z AUTO 00000KT 1 1/4SM M02/M05 A3036 RMK T10201050 IEM_DS3505
ZBAA,1990-02-28 00:00,ZBAA 280000Z AUTO 00000KT 1SM M02/M04 A3039 RMK SLP298 T10251038 52009 IEM_DS3505
ZBAA,1990-02-28 01:00,ZBAA 280100Z AUTO 00000KT 1 1/2SM 00/M01 A3039 RMK T00001010 IEM_DS3505
ZBAA,1990-02-28 02:00,ZBAA 280200Z AUTO 00000KT 1 1/2SM 03/M02 A3039 RMK T00301020 IEM_DS3505
ZBAA,1990-02-28 03:00,ZBAA 280300Z AUTO 04002KT 1 1/4SM 04/M03 A3039 RMK SLP296 T00401026 57002 IEM_DS3505
ZBAA,1990-02-28 05:00,ZBAA 280500Z AUTO 00000KT 2 1/2SM 08/M02 A3033 RMK T00801020 IEM_DS3505
ZBAA,1990-02-28 06:00,ZBAA 280600Z AUTO 00000KT 2SM 07/M03 A3030 RMK SLP276 T00661033 4////1035 57019 IEM_DS3505
ZBAA,1990-02-28 07:00,ZBAA 280700Z AUTO ////02KT 3SM 09/M02 A3030 RMK T00901020 IEM_DS3505
ZBAA,1990-02-28 08:00,ZBAA 280800Z AUTO 24002KT 3SM 09/M02 A3030 RMK T00901020 IEM_DS3505
ZBAA,1990-02-28 09:00,ZBAA 280900Z AUTO 22004KT 2 1/2SM 07/M03 A3030 RMK SLP269 T00691028 57008 IEM_DS3505
ZBAA,1990-02-28 10:00,ZBAA 281000Z AUTO 00000KT 1SM 06/M01 A3030 RMK T00601010 IEM_DS3505
ZBAA,1990-02-28 11:00,ZBAA 281100Z AUTO 00000KT 2SM 04/M02 A3030 RMK T00401020 IEM_DS3505
ZBAA,1990-02-28 12:00,ZBAA 281200Z AUTO 00000KT 2 1/2SM 04/M02 A3030 RMK SLP275 T00351022 52006 IEM_DS3505
ZBAA,1990-02-28 13:00,ZBAA 281300Z AUTO 00000KT 2 1/2SM 02/M03 A3033 RMK T00201030 IEM_DS3505
ZBAA,1990-02-28 14:00,ZBAA 281400Z AUTO 00000KT 1 1/2SM 01/M02 A3033 RMK T00101020 IEM_DS3505
ZBAA,1990-02-28 15:00,ZBAA 281500Z AUTO 00000KT 2 1/2SM 02/M03 RMK SLP280 T00201028 52006 IEM_DS3505
ZBAA,1990-02-28 18:00,ZBAA 281800Z AUTO 02002KT 2SM 01/M03 RMK SLP282 T00111028 40076//// 52002 IEM_DS3505
ZBAA,1990-02-28 20:00,ZBAA 282000Z AUTO 21002KT 2SM M01/M04 A3033 RMK T10101040 IEM_DS3505
ZBAA,1990-02-28 21:00,ZBAA 282100Z AUTO 00000KT 1 1/4SM M01/M04 A3033 RMK SLP277 T10131035 57005 IEM_DS3505
ZBAA,1990-02-28 22:00,ZBAA 282200Z AUTO 35002KT 2 1/2SM M01/M04 A3033 RMK T10101040 IEM_DS3505
ZBAA,1990-02-28 23:00,ZBAA 282300Z AUTO 34004KT 2SM M01/M04 A3036 RMK T10101040 IEM_DS3505
ZBAA,1990-03-01 00:00,ZBAA 010000Z AUTO 00000KT 1SM M02/M04 A3036 RMK SLP295 T10191035 52017 IEM_DS3505
ZBAA,1990-03-01 01:00,ZBAA 010100Z AUTO ////02KT 2SM 02/M02 A3039 RMK T00201020 IEM_DS3505
ZBAA,1990-03-01 02:00,ZBAA 010200Z AUTO 03004KT 2SM 04/M02 A3039 RMK T00401020 IEM_DS3505
ZBAA,1990-03-01 03:00,ZBAA 010300Z AUTO 07002KT 2SM 06/M03 A3039 RMK SLP303 T00561026 52009 IEM_DS3505
ZBAA,1990-03-01 04:00,ZBAA 010400Z AUTO 10004KT 2SM 08/M01 A3036 RMK T00801010 IEM_DS3505
ZBAA,1990-03-01 05:00,ZBAA 010500Z AUTO ////04KT 2SM 09/M01 A3033 RMK T00901010 IEM_DS3505
ZBAA,1990-03-01 06:00,ZBAA 010600Z AUTO 18006KT 2SM 08/M04 A3030 RMK SLP276 T00821035 4////1032 51027 IEM_DS3505
ZBAA,1990-03-01 07:00,ZBAA 010700Z AUTO ////04KT 3SM 10/M03 A3027 RMK T01001030 IEM_DS3505
ZBAA,1990-03-01 08:00,ZBAA 010800Z AUTO ////04KT 3SM 10/M04 A3027 RMK T01001040 IEM_DS3505
ZBAA,1990-03-01 09:00,ZBAA 010900Z AUTO 16006KT 3SM 08/M04 A3024 RMK SLP262 T00761041 57014 IEM_DS3505
ZBAA,1990-03-01 10:00,ZBAA 011000Z AUTO 15002KT 4SM 07/M04 A3027 RMK T00701040 IEM_DS3505
ZBAA,1990-03-01 11:00,ZBAA 011100Z AUTO 17004KT 5SM 06/M03 A3027 RMK T00601030 IEM_DS3505
ZBAA,1990-03-01 12:00,ZBAA 011200Z AUTO 14002KT 4SM 06/M02 A3027 RMK SLP271 T00571021 52008 IEM_DS3505
ZBAA,1990-03-01 13:00,ZBAA 011300Z AUTO 16004KT 5SM 05/M03 A3030 RMK T00501030 IEM_DS3505
ZBAA,1990-03-01 15:00,ZBAA 011500Z AUTO 00000KT 4SM 04/M01 RMK SLP278 T00351012 52008 IEM_DS3505
ZBAA,1990-03-01 18:00,ZBAA 011800Z AUTO 00000KT 5SM 02/M02 RMK SLP273 T00181020 40088//// 57005 IEM_DS3505
ZBAA,1990-03-01 20:00,ZBAA 012000Z AUTO 10002KT 2 1/2SM 00/M03 A3027 RMK T00001030 IEM_DS3505
ZBAA,1990-03-01 21:00,ZBAA 012100Z AUTO 00000KT 4SM 00/M02 A3024 RMK SLP264 T00051022 57009 IEM_DS3505
ZBAA,1990-03-01 22:00,ZBAA 012200Z AUTO 00000KT 2 1/2SM 00/M04 A3027 RMK T00001040 IEM_DS3505
ZBAA,1990-03-01 23:00,ZBAA 012300Z AUTO 00000KT 2SM M01/M04 A3027 RMK T10101040 IEM_DS3505
ZBAA,1990-03-02 00:00,ZBAA 020000Z AUTO 00000KT 1SM 00/M02 A3027 RMK SLP273 T00051016 52009 IEM_DS3505
ZBAA,1990-03-02 01:00,ZBAA 020100Z AUTO 00000KT 2 1/2SM 02/M02 A3030 RMK T00201020 IEM_DS3505
ZBAA,1990-03-02 02:00,ZBAA 020200Z AUTO 00000KT 2 1/2SM 04/M02 A3027 RMK T00401020 IEM_DS3505
ZBAA,1990-03-02 03:00,ZBAA 020300Z AUTO 00000KT 2SM 04/M01 A3027 RMK SLP267 T00401006 57006 IEM_DS3505
ZBAA,1990-03-02 04:00,ZBAA 020400Z AUTO 00000KT 2 1/2SM 07/M02 A3024 RMK T00701020 IEM_DS3505
ZBAA,1990-03-02 05:21,ZBAA 020521Z AUTO 12004KT 2 1/2SM 08/M02 RMK T00801020 IEM_DS3505
ZBAA,1990-03-02 05:23,ZBAA 020523Z AUTO 12004KT 2 1/2SM 08/M02 RMK T00801020 IEM_DS3505
ZBAA,1990-03-02 06:00,ZBAA 020600Z AUTO 18004KT 2SM 08/M01 RMK SLP245 T00761011 4////0002 57022 IEM_DS3505
ZBAA,1990-03-02 06:18,ZBAA 020618Z AUTO 13004KT 2SM 08/M01 A3018 RMK T00801010 IEM_DS3505
ZBAA,1990-03-02 06:20,ZBAA 020620Z AUTO 13004KT 2SM 08/M01 A3018 RMK T00801010 IEM_DS3505
ZBAA,1990-03-02 07:11,ZBAA 020711Z AUTO ////04KT 2SM 09/M02 A3018 RMK T00901020 IEM_DS3505
ZBAA,1990-03-02 07:16,ZBAA 020716Z AUTO ////04KT 2SM 09/M02 A3018 RMK T00901020 IEM_DS3505
ZBAA,1990-03-02 09:00,ZBAA 020900Z AUTO 18006KT 2 1/2SM 08/M01 RMK SLP239 T00751009 57006 IEM_DS3505
ZBAA,1990-03-02 09:16,ZBAA 020916Z AUTO 12002KT 2SM 08/M01 A3018 RMK T00801010 IEM_DS3505
ZBAA,1990-03-02 11:03,ZBAA 021103Z AUTO 11002KT 2SM 08/M01 A3018 RMK T00801010 IEM_DS3505
ZBAA,1990-03-02 11:17,ZBAA 021117Z AUTO 00000KT 2SM 06/M01 A3018 RMK T00601010 IEM_DS3505
ZBAA,1990-03-02 11:23,ZBAA 021123Z AUTO 00000KT 2SM 04/M01 A3018 RMK T00401010 IEM_DS3505
ZBAA,1990-03-02 11:30,ZBAA 021130Z AUTO 00000KT 2SM 04/M01 A3018 RMK T00401010 IEM_DS3505
ZBAA,1990-03-02 12:00,ZBAA 021200Z AUTO 00000KT 4SM 04/00 RMK SLP246 T00450000 52007 IEM_DS3505
ZBAA,1990-03-02 13:00,ZBAA 021300Z AUTO 05002KT 2SM 03/M01 A3021 RMK T00301010 IEM_DS3505
ZBAA,1990-03-02 14:00,ZBAA 021400Z AUTO 05002KT 2SM 03/M01 A3021 RMK T00301010 IEM_DS3505
ZBAA,1990-03-02 15:00,ZBAA 021500Z AUTO 00000KT 3SM 03/M00 A3021 RMK SLP252 T00321004 52006 IEM_DS3505
ZBAA,1990-03-02 18:00,ZBAA 021800Z AUTO 00000KT 2 1/2SM 00/M01 RMK SLP251 T00051009 57001 IEM_DS3505
ZBAA,1990-03-02 21:00,ZBAA 022100Z AUTO 02004KT 3SM 02/M01 A3018 RMK SLP246 T00181010 57005 IEM_DS3505
ZBAA,1990-03-02 22:00,ZBAA 022200Z AUTO 33004KT 1 1/2SM 02/M02 A3018 RMK T00201020 IEM_DS3505
ZBAA,1990-03-02 23:00,ZBAA 022300Z AUTO ////04KT 1 1/4SM 00/M03 A3021 RMK T00001030 IEM_DS3505
ZBAA,1990-03-03 00:00,ZBAA 030000Z AUTO 00000KT 1 1/2SM 01/M01 A3024 RMK SLP255 T00091008 52009 IEM_DS3505
ZBAA,1990-03-03 01:00,ZBAA 030100Z AUTO 34004KT 2 1/2SM 07/M02 A3024 RMK T00701020 IEM_DS3505
ZBAA,1990-03-03 02:00,ZBAA 030200Z AUTO 34006KT 5SM 09/M01 A3024 RMK T00901010 IEM_DS3505
ZBAA,1990-03-03 03:00,ZBAA 030300Z AUTO 02008KT 7SM 10/M06 A3024 RMK SLP256 T01011056 52002 IEM_DS3505
ZBAA,1990-03-03 04:00,ZBAA 030400Z AUTO ////06KT 7SM 13/M05 A3021 RMK T01301050 IEM_DS3505
ZBAA,1990-03-03 05:00,ZBAA 030500Z AUTO ////06KT 6SM 14/M05 A3018 RMK T01401050 IEM_DS3505
ZBAA,1990-03-03 06:00,ZBAA 030600Z AUTO 34010KT 9SM 12/M06 A3018 RMK SLP239 T01211062 4////1004 57017 IEM_DS3505
ZBAA,1990-03-03 07:00,ZBAA 030700Z AUTO ////06KT 6SM 15/M06 A3015 RMK T01501060 IEM_DS3505
ZBAA,1990-03-03 08:00,ZBAA 030800Z AUTO ////06KT 6SM 14/M07 A3015 RMK T01401070 IEM_DS3505
ZBAA,1990-03-03 09:00,ZBAA 030900Z AUTO 36008KT 12SM 12/M09 A3015 RMK SLP234 T01151086 57005 IEM_DS3505
ZBAA,1990-03-03 10:00,ZBAA 031000Z AUTO 03004KT 6SM 10/M07 A3018 RMK T01001070 IEM_DS3505
ZBAA,1990-03-03 11:00,ZBAA 031100Z AUTO 34006KT 12SM 06/M07 A3021 RMK SLP262 T00591074 52010 IEM_DS3505
ZBAA,1990-03-03 12:00,ZBAA 031200Z AUTO 34006KT 12SM 07/M07 A3021 RMK SLP253 T00731067 52018 IEM_DS3505
ZBAA,1990-03-03 13:00,ZBAA 031300Z AUTO 03008KT 6SM 07/M08 A3024 RMK T00701080 IEM_DS3505
ZBAA,1990-03-03 14:00,ZBAA 031400Z AUTO 02006KT 6SM 06/M08 A3024 RMK T00601080 IEM_DS3505
ZBAA,1990-03-03 15:00,ZBAA 031500Z AUTO 34006KT 12SM 06/M07 A3027 RMK SLP262 T00591074 52010 IEM_DS3505
ZBAA,1990-03-03 18:00,ZBAA 031800Z AUTO 36008KT 11SM 05/M09 RMK SLP263 T00541094 40126//// 52001 IEM_DS3505
ZBAA,1990-03-03 20:00,ZBAA 032000Z AUTO 36004KT 6SM 03/M08 A3024 RMK T00301080 IEM_DS3505
ZBAA,1990-03-03 21:00,ZBAA 032100Z AUTO 00000KT 7SM 04/M06 A3024 RMK SLP255 T00401065 57008 IEM_DS3505
ZBAA,1990-03-03 22:00,ZBAA 032200Z AUTO 00000KT 6SM 02/M08 A3024 RMK T00201080 IEM_DS3505
ZBAA,1990-03-03 23:00,ZBAA 032300Z AUTO 00000KT 6SM 01/M08 A3024 RMK T00101080 IEM_DS3505
ZBAA,1990-03-04 00:00,ZBAA 040000Z AUTO 32006KT 12SM 03/M08 A3024 RMK SLP262 T00331077 52006 IEM_DS3505
ZBAA,1990-03-04 01:00,ZBAA 040100Z AUTO 34006KT 6SM 07/M07 A3024 RMK T00701070 IEM_DS3505
ZBAA,1990-03-04 02:00,ZBAA 040200Z AUTO 32008KT 7SM 09/M09 A3024 RMK T00901090 IEM_DS3505
ZBAA,1990-03-04 03:00,ZBAA 040300Z AUTO 34012KT 19SM 08/M10 A3021 RMK SLP256 T00751100 57005 IEM_DS3505
ZBAA,1990-03-04 04:00,ZBAA 040400Z AUTO ////06KT 7SM 11/M09 A3021 RMK T01101090 IEM_DS3505
ZBAA,1990-03-04 05:00,ZBAA 040500Z AUTO ////04KT 7SM 11/M09 A3018 RMK T01101090 IEM_DS3505
ZBAA,1990-03-04 06:00,ZBAA 040600Z AUTO 34010KT 16SM 09/M11 A3015 RMK SLP231 T00911110 4////0025 57025 IEM_DS3505
ZBAA,1990-03-04 08:00,ZBAA 040800Z AUTO 31012KT 7SM 12/M10 A3009 RMK T01201100 IEM_DS3505
ZBAA,1990-03-04 09:00,ZBAA 040900Z AUTO 29010KT 12SM 09/M12 A3009 RMK SLP216 T00931117 57015 IEM_DS3505
ZBAA,1990-03-04 10:00,ZBAA 041000Z AUTO 31010KT 7SM 09/M10 A3009 RMK T00901100 IEM_DS3505
ZBAA,1990-03-04 11:00,ZBAA 041100Z AUTO 32010KT 7SM 07/M09 A3012 RMK T00701090 IEM_DS3505
ZBAA,1990-03-04 12:00,ZBAA 041200Z AUTO 34008KT 19SM 06/M10 A3012 RMK SLP229 T00591100 52012 IEM_DS3505
ZBAA,1990-03-04 13:00,ZBAA 041300Z AUTO 31006KT 7SM 05/M09 A3012 RMK T00501090 IEM_DS3505
ZBAA,1990-03-04 15:00,ZBAA 041500Z AUTO 00000KT 17SM 02/M06 RMK SLP223 T00211060 57006 IEM_DS3505
ZBAA,1990-03-04 18:00,ZBAA 041800Z AUTO 22002KT 16SM 00/M06 RMK SLP213 T00021057 40101//// 57009 IEM_DS3505
ZBAA,1990-03-04 20:00,ZBAA 042000Z AUTO ////06KT 7SM 04/M10 A3006 RMK T00401100 IEM_DS3505
ZBAA,1990-03-04 21:00,ZBAA 042100Z AUTO 00000KT 16SM 01/M07 A3006 RMK SLP203 T00101067 57010 IEM_DS3505
ZBAA,1990-03-04 23:00,ZBAA 042300Z AUTO 36004KT 7SM 03/M10 A3006 RMK T00301100 IEM_DS3505
ZBAA,1990-03-05 00:00,ZBAA 050000Z AUTO 36006KT 17SM 05/M09 A3009 RMK SLP207 T00541093 52004 IEM_DS3505
ZBAA,1990-03-05 01:00,ZBAA 050100Z AUTO 35006KT 7SM 09/M09 A3009 RMK T00901090 IEM_DS3505
ZBAA,1990-03-05 02:00,ZBAA 050200Z AUTO 34006KT 7SM 11/M07 A3009 RMK T01101070 IEM_DS3505
ZBAA,1990-03-05 03:00,ZBAA 050300Z AUTO 34006KT 19SM 11/M11 A3006 RMK SLP205 T01081110 57002 IEM_DS3505
ZBAA,1990-03-05 04:00,ZBAA 050400Z AUTO ////04KT 7SM 14/M07 A3003 RMK T01401070 IEM_DS3505
ZBAA,1990-03-05 05:00,ZBAA 050500Z AUTO ////04KT 7SM 15/M06 A3000 RMK T01501060 IEM_DS3505
ZBAA,1990-03-05 06:00,ZBAA 050600Z AUTO 36010KT 19SM 14/M10 A2997 RMK SLP180 T01371100 4////1005 57025 IEM_DS3505
ZBAA,1990-03-05 07:00,ZBAA 050700Z AUTO 30008KT 7SM 17/M07 A2997 RMK T01701070 IEM_DS3505
ZBAA,1990-03-05 09:00,ZBAA 050900Z AUTO 32006KT 19SM 15/M10 A2994 RMK SLP165 T01471096 57014 IEM_DS3505
ZBAA,1990-03-05 10:00,ZBAA 051000Z AUTO 00000KT 7SM 14/M05 A2994 RMK T01401050 IEM_DS3505
ZBAA,1990-03-05 11:00,ZBAA 051100Z AUTO 26002KT 7SM 10/M05 A2997 RMK T01001050 IEM_DS3505
ZBAA,1990-03-05 12:00,ZBAA 051200Z AUTO 36004KT 17SM 10/M05 A3000 RMK SLP181 T01041049 52016 IEM_DS3505
ZBAA,1990-03-05 13:00,ZBAA 051300Z AUTO 33004KT 7SM 09/M05 A3000 RMK T00901050 IEM_DS3505
ZBAA,1990-03-05 14:00,ZBAA 051400Z AUTO 29002KT 7SM 08/M05 A3003 RMK T00801050 IEM_DS3505
ZBAA,1990-03-05 15:00,ZBAA 051500Z AUTO 02002KT 12SM 10/M04 A3003 RMK SLP191 T00971045 52010 IEM_DS3505
ZBAA,1990-03-05 18:00,ZBAA 051800Z AUTO 00000KT 12SM 05/M03 RMK SLP193 T00471030 40149//// 52002 IEM_DS3505
ZBAA,1990-03-05 21:00,ZBAA 052100Z AUTO 00000KT 16SM 02/M04 A3000 RMK SLP188 T00221039 57005 IEM_DS3505
ZBAA,1990-03-05 22:00,ZBAA 052200Z AUTO 35002KT 7SM 04/M06 A3003 RMK T00401060 IEM_DS3505
ZBAA,1990-03-05 23:00,ZBAA 052300Z AUTO 35004KT 7SM 04/M06 A3003 RMK T00401060 IEM_DS3505
ZBAA,1990-03-06 00:00,ZBAA 060000Z AUTO 00000KT 17SM 05/M05 A3003 RMK SLP194 T00521050 52005 IEM_DS3505
ZBAA,1990-03-06 01:00,ZBAA 060100Z AUTO 03006KT 7SM 10/M03 A3006 RMK T01001030 IEM_DS3505
ZBAA,1990-03-06 03:00,ZBAA 060300Z AUTO 36006KT 19SM 14/M08 A3003 RMK SLP193 T01391083 54000 IEM_DS3505
ZBAA,1990-03-06 04:00,ZBAA 060400Z AUTO ////06KT 7SM 17/M04 A3003 RMK T01701040 IEM_DS3505
ZBAA,1990-03-06 05:00,ZBAA 060500Z AUTO ////04KT 7SM 17/M04 A3000 RMK T01701040 IEM_DS3505
ZBAA,1990-03-06 06:00,ZBAA 060600Z AUTO 02010KT 19SM 16/M09 A3000 RMK SLP175 T01611088 4////0017 57018 IEM_DS3505
ZBAA,1990-03-06 07:00,ZBAA 060700Z AUTO 02002KT 7SM 20/M05 A2997 RMK T02001050 IEM_DS3505
ZBAA,1990-03-06 08:00,ZBAA 060800Z AUTO 11004KT 7SM 19/M05 A2997 RMK T01901050 IEM_DS3505
ZBAA,1990-03-06 09:00,ZBAA 060900Z AUTO 32002KT 19SM 17/M07 A2997 RMK SLP171 T01681069 4////0004 57004 IEM_DS3505
ZBAA,1990-03-06 12:00,ZBAA 061200Z AUTO 00000KT 16SM 12/M02 A3006 RMK SLP196 T01201025 52025 IEM_DS3505
ZBAA,1990-03-06 13:00,ZBAA 061300Z AUTO 03004KT 7SM 09/M05 A3009 RMK T00901050 IEM_DS3505
ZBAA,1990-03-06 15:00,ZBAA 061500Z AUTO 02004KT 16SM 10/M05 A3012 RMK SLP226 T00951049 52030 IEM_DS3505
ZBAA,1990-03-06 18:00,ZBAA 061800Z AUTO 02002KT 16SM 08/M06 RMK SLP245 T00831058 40172//// 52019 IEM_DS3505
ZBAA,1990-03-06 20:00,ZBAA 062000Z AUTO 00000KT 7SM 02/M06 A3021 RMK T00201060 IEM_DS3505
ZBAA,1990-03-06 21:00,ZBAA 062100Z AUTO 02004KT 12SM 06/M06 A3024 RMK SLP256 T00561057 52011 IEM_DS3505
ZBAA,1990-03-06 22:00,ZBAA 062200Z AUTO 00000KT 7SM 01/M06 A3027 RMK T00101060 IEM_DS3505
ZBAA,1990-03-06 23:00,ZBAA 062300Z AUTO 00000KT 7SM 01/M06 A3030 RMK T00101060 IEM_DS3505
ZBAA,1990-03-07 00:00,ZBAA 070000Z AUTO 09002KT 6SM 07/M06 A3033 RMK SLP286 T00661058 52029 IEM_DS3505
ZBAA,1990-03-07 01:00,ZBAA 070100Z AUTO ////06KT 7SM 09/M04 A3036 RMK T00901040 IEM_DS3505
ZBAA,1990-03-07 02:00,ZBAA 070200Z AUTO 15008KT 7SM 10/M03 A3039 RMK T01001030 IEM_DS3505
ZBAA,1990-03-07 03:00,ZBAA 070300Z AUTO 14006KT 12SM 09/M04 A3036 RMK SLP296 T00921043 52010 IEM_DS3505
ZBAA,1990-03-07 05:00,ZBAA 070500Z AUTO ////06KT 7SM 13/M04 A3033 RMK T01301040 IEM_DS3505
ZBAA,1990-03-07 06:00,ZBAA 070600Z AUTO 18004KT 12SM 12/M05 A3030 RMK SLP276 T01181050 4////0019 57020 IEM_DS3505
ZBAA,1990-03-07 07:00,ZBAA 070700Z AUTO ////04KT 7SM 15/M05 A3027 RMK T01501050 IEM_DS3505
ZBAA,1990-03-07 08:00,ZBAA 070800Z AUTO ////06KT 7SM 14/M05 A3027 RMK T01401050 IEM_DS3505
ZBAA,1990-03-07 09:00,ZBAA 070900Z AUTO 20006KT 12SM 12/M06 A3027 RMK SLP263 T01221061 57013 IEM_DS3505
ZBAA,1990-03-07 10:00,ZBAA 071000Z AUTO ////06KT 7SM 11/M03 A3027 RMK T01101030 IEM_DS3505
ZBAA,1990-03-07 11:00,ZBAA 071100Z AUTO 14008KT 7SM 08/M04 A3027 RMK T00801040 IEM_DS3505
ZBAA,1990-03-07 12:00,ZBAA 071200Z AUTO 16006KT 16SM 08/M04 A3030 RMK SLP272 T00811045 IEM_DS3505
ZBAA,1990-03-07 13:00,ZBAA 071300Z AUTO 15006KT 7SM 05/M04 A3030 RMK T00501040 IEM_DS3505
ZBAA,1990-03-07 14:00,ZBAA 071400Z AUTO 04002KT 7SM 03/M05 A3033 RMK T00301050 IEM_DS3505
ZBAA,1990-03-07 15:00,ZBAA 071500Z AUTO 18004KT 16SM 05/M05 A3033 RMK SLP277 T00501054 52005 IEM_DS3505
ZBAA,1990-03-07 18:00,ZBAA 071800Z AUTO 04002KT 12SM 02/M04 RMK SLP273 T00241037 40128//// 57004 IEM_DS3505
ZBAA,1990-03-07 20:00,ZBAA 072000Z AUTO 00000KT 7SM M01/M06 A3027 RMK T10101060 IEM_DS3505
ZBAA,1990-03-07 21:00,ZBAA 072100Z AUTO 00000KT 9SM 01/M04 A3027 RMK SLP263 T00061038 57010 IEM_DS3505
ZBAA,1990-03-07 22:00,ZBAA 072200Z AUTO 00000KT 7SM M01/M06 A3027 RMK T10101060 IEM_DS3505
ZBAA,1990-03-07 23:00,ZBAA 072300Z AUTO 00000KT 6SM M01/M05 A3027 RMK T10101050 IEM_DS3505
ZBAA,1990-03-08 00:00,ZBAA 080000Z AUTO 00000KT 4SM 02/M04 A3027 RMK SLP270 T00171042 52006 IEM_DS3505
ZBAA,1990-03-08 02:00,ZBAA 080200Z AUTO 32002KT 6SM 07/M05 A3030 RMK T00701050 IEM_DS3505
ZBAA,1990-03-08 03:00,ZBAA 080300Z AUTO 00000KT 3SM 06/M04 RMK SLP269 T00571043 57001 IEM_DS3505
ZBAA,1990-03-08 04:00,ZBAA 080400Z AUTO 00000KT 6SM 09/M04 A3027 RMK T00901040 IEM_DS3505
ZBAA,1990-03-08 05:00,ZBAA 080500Z AUTO ////04KT 6SM 11/M03 A3021 RMK T01101030 IEM_DS3505
ZBAA,1990-03-08 06:00,ZBAA 080600Z AUTO 14006KT 5SM 10/M04 RMK SLP245 T01001036 4////0000 57023 IEM_DS3505
ZBAA,1990-03-08 07:00,ZBAA 080700Z AUTO ////06KT 6SM 12/M02 A3018 RMK T01201020 IEM_DS3505
ZBAA,1990-03-08 09:00,ZBAA 080900Z AUTO 20008KT 5SM 11/M02 A3015 RMK SLP229 T01131025 57016 IEM_DS3505
ZBAA,1990-03-08 10:00,ZBAA 081000Z AUTO 14004KT 6SM 10/M02 A3015 RMK T01001020 IEM_DS3505
ZBAA,1990-03-08 11:00,ZBAA 081100Z AUTO 14002KT 6SM 08/M02 A3015 RMK T00801020 IEM_DS3505
ZBAA,1990-03-08 12:00,ZBAA 081200Z AUTO 18002KT 6SM 09/M03 A3018 RMK SLP234 T00931028 52005 IEM_DS3505
ZBAA,1990-03-08 13:00,ZBAA 081300Z AUTO 14004KT 6SM 10/M02 A3015 RMK T01001020 IEM_DS3505
ZBAA,1990-03-08 14:00,ZBAA 081400Z AUTO 06002KT 4SM 05/M02 A3018 RMK T00501020 IEM_DS3505
ZBAA,1990-03-08 15:00,ZBAA 081500Z AUTO 00000KT 6SM 04/M01 A3018 RMK SLP239 T00451013 52004 IEM_DS3505
ZBAA,1990-03-08 18:00,ZBAA 081800Z AUTO 07002KT 9SM 04/M01 RMK SLP235 T00381012 40115//// 57003 IEM_DS3505
ZBAA,1990-03-08 20:00,ZBAA 082000Z AUTO 01002KT 4SM 01/M04 A3012 RMK T00101040 IEM_DS3505
ZBAA,1990-03-08 21:00,ZBAA 082100Z AUTO 02002KT 9SM 02/M03 A3015 RMK SLP227 T00251028 57008 IEM_DS3505
ZBAA,1990-03-08 23:00,ZBAA 082300Z AUTO 00000KT 4SM 00/M04 A3015 RMK T00001040 IEM_DS3505
ZBAA,1990-03-09 00:00,ZBAA 090000Z AUTO 00000KT 4SM 02/M03 A3015 RMK SLP234 T00241026 52007 IEM_DS3505
ZBAA,1990-03-09 01:00,ZBAA 090100Z AUTO 03002KT 4SM 05/M02 A3018 RMK T00501020 IEM_DS3505
ZBAA,1990-03-09 03:00,ZBAA 090300Z AUTO 07004KT 2 1/2SM 09/M03 A3018 RMK SLP237 T00911032 52003 IEM_DS3505
ZBAA,1990-03-09 04:00,ZBAA 090400Z AUTO 15002KT 6SM 13/M01 A3015 RMK T01301010 IEM_DS3505
ZBAA,1990-03-09 05:00,ZBAA 090500Z AUTO ////02KT 6SM 15/00 A3012 RMK T01500000 IEM_DS3505
ZBAA,1990-03-09 06:00,ZBAA 090600Z AUTO 16004KT 2SM 14/M01 A3012 RMK SLP214 T01441009 4////0000 57022 IEM_DS3505
ZBAA,1990-03-09 07:00,ZBAA 090700Z AUTO 16004KT 6SM 18/01 A3009 RMK T01800010 IEM_DS3505
ZBAA,1990-03-09 08:00,ZBAA 090800Z AUTO ////06KT 6SM 17/00 A3006 RMK T01700000 IEM_DS3505
ZBAA,1990-03-09 09:00,ZBAA 090900Z AUTO 20004KT 2 1/2SM 15/M00 A3006 RMK SLP195 T01531004 57019 IEM_DS3505
ZBAA,1990-03-09 11:00,ZBAA 091100Z AUTO 08002KT 5SM 11/01 A3006 RMK T01100010 IEM_DS3505
ZBAA,1990-03-09 12:00,ZBAA 091200Z AUTO 00000KT 2 1/2SM 10/02 A3009 RMK SLP206 T00970024 52010 IEM_DS3505
ZBAA,1990-03-09 13:00,ZBAA 091300Z AUTO 05002KT 4SM 09/01 A3009 RMK T00900010 IEM_DS3505
ZBAA,1990-03-09 14:00,ZBAA 091400Z AUTO 07002KT 4SM 08/01 A3009 RMK T00800010 IEM_DS3505
ZBAA,1990-03-09 15:00,ZBAA 091500Z AUTO 07002KT 2 1/2SM 07/02 RMK SLP209 T00690017 52003 IEM_DS3505
ZBAA,1990-03-09 18:00,ZBAA 091800Z AUTO 07002KT 3SM 06/01 RMK SLP203 T00600012 40153//// 57005 IEM_DS3505
ZBAA,1990-03-09 20:00,ZBAA 092000Z AUTO 13006KT 4SM 07/00 A3003 RMK T00700000 IEM_DS3505
ZBAA,1990-03-09 21:00,ZBAA 092100Z AUTO 07002KT 2 1/2SM 05/02 RMK SLP179 T00480018 57024 IEM_DS3505
ZBAA,1990-03-09 22:00,ZBAA 092200Z AUTO 15010KT 3SM 07/01 A3000 RMK T00700010 IEM_DS3505
ZBAA,1990-03-09 23:00,ZBAA 092300Z AUTO 13008KT 3SM 06/00 A3000 RMK T00600000 IEM_DS3505
ZBAA,1990-03-10 00:00,ZBAA 100000Z AUTO 36004KT 2SM 06/01 A3000 RMK SLP180 T00610007 52001 IEM_DS3505
ZBAA,1990-03-10 01:00,ZBAA 100100Z AUTO 12004KT 6SM 08/01 A3000 RMK T00800010 IEM_DS3505
ZBAA,1990-03-10 02:00,ZBAA 100200Z AUTO ////02KT 6SM 09/02 A3000 RMK T00900020 IEM_DS3505
ZBAA,1990-03-10 03:00,ZBAA 100300Z AUTO 02008KT 2SM 09/01 A3000 RMK SLP181 T00860012 54000 IEM_DS3505
ZBAA,1990-03-10 05:00,ZBAA 100500Z AUTO 10004KT 6SM 14/04 RMK T01400040 IEM_DS3505
ZBAA,1990-03-10 05:56,ZBAA 100556Z AUTO 10004KT 6SM 14/04 RMK T01400040 IEM_DS3505
ZBAA,1990-03-10 06:00,ZBAA 100600Z AUTO 04004KT 6SM 12/03 RMK SLP148 T01200032 57032 IEM_DS3505
ZBAA,1990-03-10 07:00,ZBAA 100700Z AUTO ////06KT 6SM 16/05 A2991 RMK T01600050 IEM_DS3505
ZBAA,1990-03-10 08:00,ZBAA 100800Z AUTO ////04KT 7SM 15/05 A2988 RMK T01500050 IEM_DS3505
ZBAA,1990-03-10 09:00,ZBAA 100900Z AUTO 02004KT 2SM 13/04 A2988 RMK SLP139 T01290038 57009 IEM_DS3505
ZBAA,1990-03-10 10:00,ZBAA 101000Z AUTO 00000KT 7SM 13/06 A2991 RMK T01300060 IEM_DS3505
ZBAA,1990-03-10 12:00,ZBAA 101200Z AUTO 36002KT 4SM 10/05 A2994 RMK SLP160 T01020051 52021 IEM_DS3505
ZBAA,1990-03-10 13:00,ZBAA 101300Z AUTO 12002KT 6SM 08/04 A2997 RMK T00800040 IEM_DS3505
ZBAA,1990-03-10 14:00,ZBAA 101400Z AUTO 34002KT 5SM 08/04 A2997 RMK T00800040 IEM_DS3505
ZBAA,1990-03-10 15:00,ZBAA 101500Z AUTO 36006KT 6SM 09/03 RMK SLP177 T00920026 52017 IEM_DS3505
ZBAA,1990-03-10 18:00,ZBAA 101800Z AUTO 02010KT 9SM 08/M07 RMK SLP196 T00781071 40135//// 52019 IEM_DS3505
ZBAA,1990-03-10 20:00,ZBAA 102000Z AUTO 32012KT 7SM 07/M07 A3003 RMK T00701070 IEM_DS3505
ZBAA,1990-03-10 21:00,ZBAA 102100Z AUTO 32008KT 9SM 06/M07 RMK SLP198 T00591073 52002 IEM_DS3505
ZBAA,1990-03-10 22:00,ZBAA 102200Z AUTO 32012KT 7SM 06/M07 A3006 RMK T00601070 IEM_DS3505
ZBAA,1990-03-10 23:00,ZBAA 102300Z AUTO 32010KT 7SM 06/M07 A3009 RMK T00601070 IEM_DS3505
ZBAA,1990-03-11 00:00,ZBAA 110000Z AUTO 32012G17KT 16SM 07/M08 A3015 RMK SLP227 T00671083 52028 IEM_DS3505
ZBAA,1990-03-11 01:00,ZBAA 110100Z AUTO 33012KT 7SM 10/M07 A3015 RMK T01001070 IEM_DS3505
ZBAA,1990-03-11 02:00,ZBAA 110200Z AUTO 35012G23KT 6SM 12/M08 A3015 RMK T01201080 IEM_DS3505
ZBAA,1990-03-11 03:00,ZBAA 110300Z AUTO 34012KT 16SM 10/M10 A3015 RMK SLP236 T00991096 52010 IEM_DS3505
ZBAA,1990-03-11 04:00,ZBAA 110400Z AUTO 34014G23KT 6SM 14/M08 A3015 RMK T01401080 IEM_DS3505
ZBAA,1990-03-11 05:00,ZBAA 110500Z AUTO 34014G23KT 6SM 14/M08 A3015 RMK T01401080 IEM_DS3505
ZBAA,1990-03-11 06:00,ZBAA 110600Z AUTO 34012KT 12SM 13/M11 A3012 RMK SLP230 T01301108 4////0053 57006 IEM_DS3505
ZBAA,1990-03-11 07:00,ZBAA 110700Z AUTO 35008KT 6SM 16/M08 A3012 RMK T01601080 IEM_DS3505
ZBAA,1990-03-11 08:00,ZBAA 110800Z AUTO 33014G23KT 6SM 15/M08 A3012 RMK T01501080 IEM_DS3505
ZBAA,1990-03-11 09:00,ZBAA 110900Z AUTO 34010KT 12SM 12/M11 A3015 RMK SLP235 T01201110 52004 IEM_DS3505
ZBAA,1990-03-11 10:00,ZBAA 111000Z AUTO 32014KT 6SM 11/M08 A3018 RMK T01101080 IEM_DS3505
ZBAA,1990-03-11 11:00,ZBAA 111100Z AUTO 31010KT 7SM 09/M08 A3021 RMK T00901080 IEM_DS3505
ZBAA,1990-03-11 12:00,ZBAA 111200Z AUTO 36008KT 19SM 08/M09 A3024 RMK SLP256 T00841091 52021 IEM_DS3505
ZBAA,1990-03-11 13:00,ZBAA 111300Z AUTO ////04KT 7SM 07/M09 A3024 RMK T00701090 IEM_DS3505
ZBAA,1990-03-11 14:00,ZBAA 111400Z AUTO 29002KT 7SM 06/M08 A3027 RMK T00601080 IEM_DS3505
ZBAA,1990-03-11 15:00,ZBAA 111500Z AUTO 04004KT 16SM 06/M06 A3030 RMK SLP271 T00621064 52015 IEM_DS3505
ZBAA,1990-03-11 18:00,ZBAA 111800Z AUTO 07002KT 16SM 03/M06 RMK SLP278 T00331063 40134//// 52007 IEM_DS3505
ZBAA,1990-03-11 20:00,ZBAA 112000Z AUTO 02002KT 7SM 02/M08 A3027 RMK T00201080 IEM_DS3505
ZBAA,1990-03-11 21:00,ZBAA 112100Z AUTO 36002KT 17SM 03/M07 A3030 RMK SLP273 T00261070 57005 IEM_DS3505
ZBAA,1990-03-11 22:00,ZBAA 112200Z AUTO 03004KT 7SM 01/M08 A3030 RMK T00101080 IEM_DS3505
ZBAA,1990-03-11 23:00,ZBAA 112300Z AUTO 04006KT 7SM 01/M07 A3030 RMK T00101070 IEM_DS3505
ZBAA,1990-03-12 00:00,ZBAA 120000Z AUTO 00000KT 6SM 04/M06 A3030 RMK SLP286 T00351065 52012 IEM_DS3505
ZBAA,1990-03-12 01:00,ZBAA 120100Z AUTO 03004KT 7SM 08/M06 A3033 RMK T00801060 IEM_DS3505
ZBAA,1990-03-12 03:00,ZBAA 120300Z AUTO 20008KT 7SM 10/M10 A3030 RMK SLP279 T01011098 57006 IEM_DS3505
ZBAA,1990-03-12 04:00,ZBAA 120400Z AUTO ////04KT 7SM 14/M07 A3027 RMK T01401070 IEM_DS3505
ZBAA,1990-03-12 05:00,ZBAA 120500Z AUTO 20008KT 7SM 15/M07 A3024 RMK T01501070 IEM_DS3505
ZBAA,1990-03-12 06:00,ZBAA 120600Z AUTO 18010KT 11SM 13/M09 A3018 RMK SLP245 T01271086 4////0003 57034 IEM_DS3505
ZBAA,1990-03-12 07:00,ZBAA 120700Z AUTO 19008KT 7SM 15/M07 A3018 RMK T01501070 IEM_DS3505
ZBAA,1990-03-12 08:00,ZBAA 120800Z AUTO ////06KT 7SM 15/M06 A3015 RMK T01501060 IEM_DS3505
ZBAA,1990-03-12 09:00,ZBAA 120900Z AUTO 20008KT 12SM 13/M07 RMK SLP227 T01271069 57018 IEM_DS3505
ZBAA,1990-03-12 10:00,ZBAA 121000Z AUTO ////04KT 6SM 13/M06 A3015 RMK T01301060 IEM_DS3505
ZBAA,1990-03-12 11:00,ZBAA 121100Z AUTO 13004KT 6SM 10/M05 A3015 RMK T01001050 IEM_DS3505
ZBAA,1990-03-12 12:00,ZBAA 121200Z AUTO 18006KT 12SM 11/M04 A3018 RMK SLP231 T01091045 52004 IEM_DS3505
ZBAA,1990-03-12 14:00,ZBAA 121400Z AUTO 13004KT 7SM 08/M04 A3018 RMK T00801040 IEM_DS3505
ZBAA,1990-03-12 15:00,ZBAA 121500Z AUTO 18004KT 16SM 08/M02 A3018 RMK SLP234 T00761025 52003 IEM_DS3505
ZBAA,1990-03-12 18:00,ZBAA 121800Z AUTO 04002KT 12SM 06/M03 RMK SLP228 T00561029 40133//// 57005 IEM_DS3505
ZBAA,1990-03-12 21:00,ZBAA 122100Z AUTO 02004KT 6SM 04/M03 A3012 RMK SLP217 T00391027 57012 IEM_DS3505
ZBAA,1990-03-12 23:00,ZBAA 122300Z AUTO 12004KT 6SM 03/M03 A3012 RMK T00301030 IEM_DS3505
ZBAA,1990-03-13 00:00,ZBAA 130000Z AUTO 00000KT 6SM 04/M03 RMK SLP218 T00451030 52001 IEM_DS3505
ZBAA,1990-03-13 01:00,ZBAA 130100Z AUTO 12004KT 6SM 03/M03 A3012 RMK T00301030 IEM_DS3505
ZBAA,1990-03-13 02:00,ZBAA 130200Z AUTO ////02KT 6SM 09/M01 A3009 RMK T00901010 IEM_DS3505
ZBAA,1990-03-13 03:00,ZBAA 130300Z AUTO 04004KT 3SM 07/M02 A3006 RMK SLP206 T00691021 57012 IEM_DS3505
ZBAA,1990-03-13 04:00,ZBAA 130400Z AUTO 21004KT 6SM 11/M01 A3006 RMK T01101010 IEM_DS3505
ZBAA,1990-03-13 05:00,ZBAA 130500Z AUTO ////02KT 6SM 10/M01 A3003 RMK T01001010 IEM_DS3505
ZBAA,1990-03-13 06:00,ZBAA 130600Z AUTO 36006KT 4SM 06/M01 A3003 RMK SLP189 T00641014 4////0035 57017 IEM_DS3505
ZBAA,1990-03-13 07:00,ZBAA 130700Z AUTO ////04KT 7SM 09/01 A3000 RMK T00900010 IEM_DS3505
ZBAA,1990-03-13 08:00,ZBAA 130800Z AUTO 29002KT 5SM 09/02 A3000 RMK T00900020 IEM_DS3505
ZBAA,1990-03-13 09:00,ZBAA 130900Z AUTO 02004KT 4SM 08/01 A3000 RMK SLP178 T00750007 57011 IEM_DS3505
ZBAA,1990-03-13 10:00,ZBAA 131000Z AUTO 33002KT 6SM 08/03 A3000 RMK T00800030 IEM_DS3505
ZBAA,1990-03-13 11:00,ZBAA 131100Z AUTO 00000KT 6SM 07/03 A3000 RMK T00700030 IEM_DS3505
ZBAA,1990-03-13 12:00,ZBAA 131200Z AUTO 00000KT 6SM 06/02 A2997 RMK 60000 SLP174 T00600018 57004 IEM_DS3505
ZBAA,1990-03-13 13:00,ZBAA 131300Z AUTO 33002KT 6SM 05/03 A3000 RMK T00500030 IEM_DS3505
ZBAA,1990-03-13 14:00,ZBAA 131400Z AUTO 00000KT 6SM 05/03 A2997 RMK T00500030 IEM_DS3505
ZBAA,1990-03-13 15:00,ZBAA 131500Z AUTO 02004KT 6SM 05/01 RMK SLP174 T00510007 54000 IEM_DS3505
ZBAA,1990-03-13 18:00,ZBAA 131800Z AUTO 00000KT 6SM 04/02 RMK SLP159 T00420017 40075//// 57015 IEM_DS3505
ZBAA,1990-03-13 20:00,ZBAA 132000Z AUTO 29002KT 5SM 03/01 A2994 RMK T00300010 IEM_DS3505
ZBAA,1990-03-13 21:00,ZBAA 132100Z AUTO 00000KT 5SM 04/01 RMK SLP162 T00370008 52003 IEM_DS3505
ZBAA,1990-03-13 22:00,ZBAA 132200Z AUTO 30014G25KT 6SM 08/M08 A2997 RMK T00801080 IEM_DS3505
ZBAA,1990-03-13 23:00,ZBAA 132300Z AUTO 29014G23KT 7SM 07/M08 A2997 RMK T00701080 IEM_DS3505
ZBAA,1990-03-14 00:00,ZBAA 140000Z AUTO 32014G27KT 12SM 07/M10 A3000 RMK SLP182 T00731103 52020 IEM_DS3505
ZBAA,1990-03-14 02:00,ZBAA 140200Z AUTO 29016KT 7SM 11/M08 A3006 RMK T01101080 IEM_DS3505
ZBAA,1990-03-14 03:00,ZBAA 140300Z AUTO 32008G27KT 12SM 10/M11 A3006 RMK SLP202 T01031110 52020 IEM_DS3505
ZBAA,1990-03-14 05:00,ZBAA 140500Z AUTO 30016G25KT 7SM 14/M08 A3003 RMK T01401080 IEM_DS3505
ZBAA,1990-03-14 06:00,ZBAA 140600Z AUTO 32014KT 9SM 12/M12 A3003 RMK SLP205 T01191119 4////0034 52003 IEM_DS3505
ZBAA,1990-03-14 07:00,ZBAA 140700Z AUTO 34019G31KT 7SM 14/M09 A3006 RMK T01401090 IEM_DS3505
ZBAA,1990-03-14 08:00,ZBAA 140800Z AUTO 31016G29KT 7SM 14/M09 A3006 RMK T01401090 IEM_DS3505
ZBAA,1990-03-14 09:00,ZBAA 140900Z AUTO 32017G29KT 7SM 12/M09 A3009 RMK T01201090 IEM_DS3505
ZBAA,1990-03-14 10:00,ZBAA 141000Z AUTO 32017G29KT 7SM 11/M09 A3015 RMK T01101090 IEM_DS3505
ZBAA,1990-03-14 11:00,ZBAA 141100Z AUTO 32014G23KT 7SM 10/M09 A3018 RMK T01001090 IEM_DS3505
ZBAA,1990-03-14 12:00,ZBAA 141200Z AUTO 32004G23KT 12SM 08/M09 A3024 RMK SLP258 T00831093 52038 IEM_DS3505
ZBAA,1990-03-14 13:00,ZBAA 141300Z AUTO 32012G21KT 7SM 08/M09 A3024 RMK T00801090 IEM_DS3505
ZBAA,1990-03-14 14:00,ZBAA 141400Z AUTO 31012KT 7SM 07/M09 A3027 RMK T00701090 IEM_DS3505
ZBAA,1990-03-14 15:00,ZBAA 141500Z AUTO 34008KT 12SM 07/M10 A3030 RMK SLP277 T00671095 52019 IEM_DS3505
ZBAA,1990-03-14 18:00,ZBAA 141800Z AUTO 34004KT 16SM 05/M08 RMK SLP292 T00511084 40124//// 52015 IEM_DS3505
ZBAA,1990-03-14 20:00,ZBAA 142000Z AUTO 31006KT 7SM 03/M08 A3036 RMK T00301080 IEM_DS3505
ZBAA,1990-03-14 21:00,ZBAA 142100Z AUTO 29002KT 16SM 03/M08 A3039 RMK SLP298 T00301077 52006 IEM_DS3505
ZBAA,1990-03-14 22:00,ZBAA 142200Z AUTO 34004KT 7SM 02/M08 A3039 RMK T00201080 IEM_DS3505
ZBAA,1990-03-14 23:00,ZBAA 142300Z AUTO 31006KT 7SM 02/M08 A3042 RMK T00201080 IEM_DS3505
ZBAA,1990-03-15 00:00,ZBAA 150000Z AUTO 31006KT 12SM 04/M08 A3045 RMK SLP319 T00411083 52020 IEM_DS3505
ZBAA,1990-03-15 01:00,ZBAA 150100Z AUTO 31008KT 6SM 08/ A3045 RMK IEM_DS3505
ZBAA,1990-03-15 03:00,ZBAA 150300Z AUTO 36010KT 16SM 09/M10 RMK SLP321 T00931095 52003 IEM_DS3505
ZBAA,1990-03-15 06:00,ZBAA 150600Z AUTO 34002KT 19SM 11/M10 RMK SLP299 T01091097 4////0020 57022 IEM_DS3505
ZBAA,1990-03-15 08:00,ZBAA 150800Z AUTO ////02KT 7SM 15/M09 A3033 RMK T01501090 IEM_DS3505
ZBAA,1990-03-15 09:00,ZBAA 150900Z AUTO 22006KT 16SM 12/M09 A3033 RMK SLP291 T01171094 57008 IEM_DS3505
ZBAA,1990-03-15 10:00,ZBAA 151000Z AUTO 13004KT 6SM 11/M08 A3036 RMK T01101080 IEM_DS3505
ZBAA,1990-03-15 11:00,ZBAA 151100Z AUTO 13002KT 7SM 09/M07 A3036 RMK T00901070 IEM_DS3505
ZBAA,1990-03-15 12:00,ZBAA 151200Z AUTO 18002KT 16SM 10/M06 A3036 RMK SLP296 T00971065 52005 IEM_DS3505
ZBAA,1990-03-15 13:00,ZBAA 151300Z AUTO 13002KT 7SM 09/M07 A3036 RMK T00901070 IEM_DS3505
ZBAA,1990-03-15 14:00,ZBAA 151400Z AUTO 11002KT 7SM 06/M06 A3039 RMK T00601060 IEM_DS3505
ZBAA,1990-03-15 15:00,ZBAA 151500Z AUTO 18004KT 12SM 07/M07 A3039 RMK SLP304 T00741066 52008 IEM_DS3505
ZBAA,1990-03-15 18:00,ZBAA 151800Z AUTO 20004KT 11SM 06/M07 RMK SLP296 T00631072 40127//// 57008 IEM_DS3505
ZBAA,1990-03-15 20:00,ZBAA 152000Z AUTO 00000KT 7SM 02/M06 A3033 RMK T00201060 IEM_DS3505
ZBAA,1990-03-15 21:00,ZBAA 152100Z AUTO 04004KT 9SM 02/M04 A3033 RMK SLP289 T00231045 57007 IEM_DS3505
ZBAA,1990-03-15 22:00,ZBAA 152200Z AUTO 07002KT 7SM 01/M05 A3033 RMK T00101050 IEM_DS3505
ZBAA,1990-03-15 23:00,ZBAA 152300Z AUTO 11004KT 7SM 01/M05 A3036 RMK T00101050 IEM_DS3505
ZBAA,1990-03-16 00:00,ZBAA 160000Z AUTO 36004KT 5SM 04/M06 A3039 RMK SLP296 T00431065 52007 IEM_DS3505
ZBAA,1990-03-16 01:00,ZBAA 160100Z AUTO 03002KT 6SM 06/M02 A3039 RMK T00601020 IEM_DS3505
ZBAA,1990-03-16 02:00,ZBAA 160200Z AUTO 03002KT 6SM 06/M02 A3039 RMK T00601020 IEM_DS3505
ZBAA,1990-03-16 03:00,ZBAA 160300Z AUTO 02004KT 5SM 09/M06 RMK SLP293 T00941061 57003 IEM_DS3505
ZBAA,1990-03-16 04:00,ZBAA 160400Z AUTO ////02KT 7SM 14/M02 A3033 RMK T01401020 IEM_DS3505
ZBAA,1990-03-16 05:00,ZBAA 160500Z AUTO ////02KT 7SM 16/M05 A3027 RMK T01601050 IEM_DS3505
ZBAA,1990-03-16 06:00,ZBAA 160600Z AUTO 00000KT 5SM 14/M05 A3024 RMK SLP258 T01371052 4////0015 57034 IEM_DS3505
ZBAA,1990-03-16 07:00,ZBAA 160700Z AUTO ////04KT 7SM 18/M06 A3021 RMK T01801060 IEM_DS3505
ZBAA,1990-03-16 08:00,ZBAA 160800Z AUTO ////06KT 7SM 18/M06 A3021 RMK T01801060 IEM_DS3505
ZBAA,1990-03-16 09:00,ZBAA 160900Z AUTO 29002KT 4SM 14/M05 A3018 RMK SLP246 T01431049 57013 IEM_DS3505
ZBAA,1990-03-16 10:00,ZBAA 161000Z AUTO 04004KT 6SM 13/M04 A3021 RMK T01301040 IEM_DS3505
ZBAA,1990-03-16 11:00,ZBAA 161100Z AUTO 03002KT 6SM 12/M04 A3024 RMK T01201040 IEM_DS3505
ZBAA,1990-03-16 12:00,ZBAA 161200Z AUTO 00000KT 5SM 11/M02 A3024 RMK SLP263 T01091025 52017 IEM_DS3505
ZBAA,1990-03-16 13:00,ZBAA 161300Z AUTO 02004KT 6SM 10/M08 A3027 RMK T01001080 IEM_DS3505
ZBAA,1990-03-16 15:00,ZBAA 161500Z AUTO 29004KT 6SM 06/M06 A3027 RMK SLP268 T00651059 52005 IEM_DS3505
ZBAA,1990-03-16 18:00,ZBAA 161800Z AUTO 00000KT 9SM 06/M09 RMK SLP269 T00651093 40151//// 52001 IEM_DS3505
ZBAA,1990-03-16 20:00,ZBAA 162000Z AUTO 34014G25KT 7SM 06/M15 A3030 RMK T00601150 IEM_DS3505
ZBAA,1990-03-16 21:00,ZBAA 162100Z AUTO 36014KT 12SM 06/M14 A3033 RMK SLP283 T00581135 52014 IEM_DS3505
ZBAA,1990-03-16 22:00,ZBAA 162200Z AUTO ////06KT 7SM 04/M14 A3036 RMK T00401140 IEM_DS3505
ZBAA,1990-03-16 23:00,ZBAA 162300Z AUTO 33008KT 7SM 04/M14 A3036 RMK T00401140 IEM_DS3505
ZBAA,1990-03-17 00:00,ZBAA 170000Z AUTO 36006KT 19SM 06/M16 RMK SLP306 T00641158 52023 IEM_DS3505
ZBAA,1990-03-17 01:00,ZBAA 170100Z AUTO 33010KT 7SM 10/M13 A3042 RMK T01001130 IEM_DS3505
ZBAA,1990-03-17 03:00,ZBAA 170300Z AUTO 02006KT 19SM 10/M15 A3039 RMK SLP308 T01031150 52002 IEM_DS3505
ZBAA,1990-03-17 04:00,ZBAA 170400Z AUTO ////06KT 7SM 14/M12 A3036 RMK T01401120 IEM_DS3505
ZBAA,1990-03-17 05:00,ZBAA 170500Z AUTO ////02KT 7SM 15/M12 A3033 RMK T01501120 IEM_DS3505
ZBAA,1990-03-17 06:00,ZBAA 170600Z AUTO 02006KT 19SM 14/M12 A3033 RMK SLP278 T01351122 4////0045 57030 IEM_DS3505
ZBAA,1990-03-17 07:00,ZBAA 170700Z AUTO ////04KT 7SM 17/M09 A3027 RMK T01701090 IEM_DS3505
ZBAA,1990-03-17 08:00,ZBAA 170800Z AUTO ////02KT 7SM 16/M12 A3027 RMK T01601120 IEM_DS3505
ZBAA,1990-03-17 09:00,ZBAA 170900Z AUTO 25004KT 12SM 14/M12 A3027 RMK SLP265 T01371116 57013 IEM_DS3505
ZBAA,1990-03-17 10:00,ZBAA 171000Z AUTO ////06KT 7SM 13/M11 A3027 RMK T01301110 IEM_DS3505
ZBAA,1990-03-17 11:00,ZBAA 171100Z AUTO 00000KT 12SM A3027 RMK SLP281 40147//// 52002 IEM_DS3505
ZBAA,1990-03-17 12:00,ZBAA 171200Z AUTO 16002KT 12SM 11/M11 A3030 RMK SLP273 T01111110 52008 IEM_DS3505
ZBAA,1990-03-17 13:00,ZBAA 171300Z AUTO 12004KT 7SM 08/M09 A3030 RMK T00801090 IEM_DS3505
ZBAA,1990-03-17 14:00,ZBAA 171400Z AUTO 14004KT 7SM 07/M09 A3030 RMK T00701090 IEM_DS3505
ZBAA,1990-03-17 15:00,ZBAA 171500Z AUTO 20006KT 16SM 09/M09 A3033 RMK SLP279 T00881088 52006 IEM_DS3505
ZBAA,1990-03-17 18:00,ZBAA 171800Z AUTO 00000KT 12SM 05/M05 RMK SLP281 T00461052 40147//// 52002 IEM_DS3505
ZBAA,1990-03-17 20:00,ZBAA 172000Z AUTO ////02KT 7SM 03/M08 A3030 RMK T00301080 IEM_DS3505
ZBAA,1990-03-17 21:00,ZBAA 172100Z AUTO 04002KT 12SM 03/M06 A3030 RMK SLP276 T00301059 57005 IEM_DS3505
ZBAA,1990-03-17 22:00,ZBAA 172200Z AUTO ////04KT 7SM 01/M08 A3030 RMK T00101080 IEM_DS3505
ZBAA,1990-03-17 23:00,ZBAA 172300Z AUTO 00000KT 7SM 01/M07 A3033 RMK T00101070 IEM_DS3505
ZBAA,1990-03-18 00:00,ZBAA 180000Z AUTO 00000KT 4SM 03/M05 RMK SLP286 T00341053 52010 IEM_DS3505
ZBAA,1990-03-18 01:00,ZBAA 180100Z AUTO 06002KT 7SM 07/M06 A3036 RMK T00701060 IEM_DS3505
ZBAA,1990-03-18 02:00,ZBAA 180200Z AUTO 07002KT 7SM 09/M06 A3033 RMK T00901060 IEM_DS3505
ZBAA,1990-03-18 03:00,ZBAA 180300Z AUTO 04004KT 4SM 10/M08 A3030 RMK SLP276 T00951078 57010 IEM_DS3505
ZBAA,1990-03-18 04:00,ZBAA 180400Z AUTO 12004KT 7SM 14/M06 A3027 RMK T01401060 IEM_DS3505
ZBAA,1990-03-18 05:00,ZBAA 180500Z AUTO ////04KT 7SM 15/M05 A3024 RMK T01501050 IEM_DS3505
ZBAA,1990-03-18 06:00,ZBAA 180600Z AUTO 18016KT 5SM 15/M09 RMK SLP245 T01501090 4////0026 57030 IEM_DS3505
ZBAA,1990-03-18 07:00,ZBAA 180700Z AUTO 19008KT 7SM 18/M07 A3021 RMK T01801070 IEM_DS3505
ZBAA,1990-03-18 08:00,ZBAA 180800Z AUTO 20010KT 7SM 18/M05 A3012 RMK T01801050 IEM_DS3505
ZBAA,1990-03-18 09:00,ZBAA 180900Z AUTO 20014KT 5SM 15/M04 A3015 RMK SLP216 T01511040 57029 IEM_DS3505
ZBAA,1990-03-18 10:00,ZBAA 181000Z AUTO 20010KT 7SM 18/M05 A3012 RMK T01801050 IEM_DS3505
ZBAA,1990-03-18 11:00,ZBAA 181100Z AUTO 17004KT 6SM 14/M03 A3009 RMK T01401030 IEM_DS3505
ZBAA,1990-03-18 12:00,ZBAA 181200Z AUTO 18008KT 6SM 13/M02 A3009 RMK SLP210 T01311021 57007 IEM_DS3505
ZBAA,1990-03-18 13:00,ZBAA 181300Z AUTO 17004KT 6SM 14/M03 A3009 RMK T01401030 IEM_DS3505
ZBAA,1990-03-18 14:00,ZBAA 181400Z AUTO 14006KT 6SM 11/M02 A3006 RMK T01101020 IEM_DS3505
ZBAA,1990-03-18 15:00,ZBAA 181500Z AUTO 18004KT 4SM 11/M00 RMK SLP194 T01111003 57015 IEM_DS3505
ZBAA,1990-03-18 18:00,ZBAA 181800Z AUTO 04014KT 6SM 08/00 RMK 70465 SLP180 T00820004 57014 IEM_DS3505
ZBAA,1990-03-18 21:00,ZBAA 182100Z AUTO 00000KT 6SM 07/00 A3000 RMK SLP176 T00700004 57004 IEM_DS3505
ZBAA,1990-03-18 22:00,ZBAA 182200Z AUTO 02002KT 6SM 05/00 A3000 RMK T00500000 IEM_DS3505
ZBAA,1990-03-18 23:00,ZBAA 182300Z AUTO 01002KT 6SM 05/01 A3003 RMK T00500010 IEM_DS3505
ZBAA,1990-03-19 00:00,ZBAA 190000Z AUTO 04002KT 4SM 08/01 A3003 RMK SLP193 T00770013 52017 IEM_DS3505
ZBAA,1990-03-19 01:00,ZBAA 190100Z AUTO ////04KT 6SM 10/02 A3003 RMK T01000020 IEM_DS3505
ZBAA,1990-03-19 02:00,ZBAA 190200Z AUTO 02004KT 6SM 14/01 A3003 RMK T01400010 IEM_DS3505
ZBAA,1990-03-19 03:00,ZBAA 190300Z AUTO 07004KT 4SM 14/00 A3003 RMK SLP188 T01410004 57004 IEM_DS3505
ZBAA,1990-03-19 04:00,ZBAA 190400Z AUTO ////04KT 6SM 19/00 A3000 RMK T01900000 IEM_DS3505
ZBAA,1990-03-19 05:00,ZBAA 190500Z AUTO ////04KT 6SM 21/00 A3000 RMK T02100000 IEM_DS3505
ZBAA,1990-03-19 06:00,ZBAA 190600Z AUTO 04004KT 5SM 19/M01 A3000 RMK SLP168 T01881014 4////0061 57020 IEM_DS3505
ZBAA,1990-03-19 06:15,ZBAA 190615Z AUTO 14008KT 6SM 21/03 A2997 RMK T02100030 IEM_DS3505
ZBAA,1990-03-19 07:00,ZBAA 190700Z AUTO 12008KT 6SM 22/03 A2997 RMK T02200030 IEM_DS3505
ZBAA,1990-03-19 08:00,ZBAA 190800Z AUTO 12008KT 6SM 21/02 A2997 RMK T02100020 IEM_DS3505
ZBAA,1990-03-19 09:00,ZBAA 190900Z AUTO 11004KT 5SM 18/01 A2997 RMK SLP169 T01810014 52001 IEM_DS3505
ZBAA,1990-03-19 10:00,ZBAA 191000Z AUTO 14004KT 6SM 15/05 A3000 RMK T01480047 52035 IEM_DS3505
ZBAA,1990-03-19 11:00,ZBAA 191100Z AUTO 14010KT 6SM 16/05 A3003 RMK T01600050 IEM_DS3505
ZBAA,1990-03-19 12:00,ZBAA 191200Z AUTO 14004KT 5SM 15/05 A3009 RMK SLP205 T01480047 52035 IEM_DS3505
ZBAA,1990-03-19 14:00,ZBAA 191400Z AUTO ////04KT 6SM 10/M04 A3015 RMK T01001040 IEM_DS3505
ZBAA,1990-03-19 15:00,ZBAA 191500Z AUTO 00000KT 5SM 10/M03 A3015 RMK SLP231 T00971026 52026 IEM_DS3505
ZBAA,1990-03-19 18:00,ZBAA 191800Z AUTO 25002KT 4SM 09/M04 RMK SLP243 T00901045 40192//// 52013 IEM_DS3505
ZBAA,1990-03-19 20:00,ZBAA 192000Z AUTO 30002KT 6SM 08/M02 A3021 RMK T00801020 IEM_DS3505
ZBAA,1990-03-19 21:00,ZBAA 192100Z AUTO 20002KT 5SM 08/M03 A3021 RMK SLP249 T00851026 52005 IEM_DS3505
ZBAA,1990-03-19 22:00,ZBAA 192200Z AUTO 00000KT 6SM 09/M04 A3021 RMK T00901040 IEM_DS3505
ZBAA,1990-03-19 23:00,ZBAA 192300Z AUTO 21004KT 6SM 09/M03 A3024 RMK T00901030 IEM_DS3505
ZBAA,1990-03-20 00:00,ZBAA 200000Z AUTO 20008KT 5SM 09/M06 A3027 RMK SLP274 T00911057 52025 IEM_DS3505
ZBAA,1990-03-20 01:00,ZBAA 200100Z AUTO ////06KT 6SM 09/M06 A3030 RMK T00901060 IEM_DS3505
ZBAA,1990-03-20 02:00,ZBAA 200200Z AUTO 26008KT 6SM 09/00 A3030 RMK T00900000 IEM_DS3505
ZBAA,1990-03-20 03:00,ZBAA 200300Z AUTO 22010KT 2 1/2SM 04/02 A3033 RMK SLP285 T00360015 52010 IEM_DS3505
ZBAA,1990-03-20 04:00,ZBAA 200400Z AUTO ////06KT 6SM 06/02 A3033 RMK T00600020 IEM_DS3505
ZBAA,1990-03-20 05:00,ZBAA 200500Z AUTO ////06KT 6SM 07/02 A3030 RMK T00700020 IEM_DS3505
ZBAA,1990-03-20 06:00,ZBAA 200600Z AUTO 22008KT 4SM 05/02 A3030 RMK 60004 SLP275 T00460018 4////0032 57010 IEM_DS3505
ZBAA,1990-03-20 07:00,ZBAA 200700Z AUTO ////06KT 6SM 08/02 A3027 RMK T00800020 IEM_DS3505
ZBAA,1990-03-20 08:00,ZBAA 200800Z AUTO 21008KT 6SM 08/02 A3024 RMK T00800020 IEM_DS3505
ZBAA,1990-03-20 09:00,ZBAA 200900Z AUTO 20006KT 2 1/2SM 04/02 A3024 RMK SLP258 T00400020 57017 IEM_DS3505
ZBAA,1990-03-20 10:00,ZBAA 201000Z AUTO 22004KT 6SM 06/01 A3024 RMK T00600010 IEM_DS3505
ZBAA,1990-03-20 11:00,ZBAA 201100Z AUTO 20004KT 6SM 06/01 A3024 RMK T00600010 IEM_DS3505
ZBAA,1990-03-20 12:00,ZBAA 201200Z AUTO 18004KT 4SM 04/02 A3027 RMK SLP263 T00380015 52005 IEM_DS3505
ZBAA,1990-03-20 13:00,ZBAA 201300Z AUTO 14002KT 6SM 06/02 A3027 RMK T00600020 IEM_DS3505
ZBAA,1990-03-20 14:00,ZBAA 201400Z AUTO 17002KT 6SM 06/02 A3027 RMK T00600020 IEM_DS3505
ZBAA,1990-03-20 15:00,ZBAA 201500Z AUTO 25006KT 4SM 04/02 A3027 RMK SLP265 T00360021 52001 IEM_DS3505
ZBAA,1990-03-20 18:00,ZBAA 201800Z AUTO 00000KT 4SM 01/00 RMK 60020 SLP269 T00110003 40094//// 52004 IEM_DS3505
ZBAA,1990-03-20 20:00,ZBAA 202000Z AUTO 00000KT 1 1/4SM 02/00 A3024 RMK T00200000 IEM_DS3505
ZBAA,1990-03-20 21:00,ZBAA 202100Z AUTO 25002KT 2SM 01/01 A3024 RMK SLP264 T00090006 57005 IEM_DS3505
ZBAA,1990-03-20 22:00,ZBAA 202200Z AUTO 00000KT 1 1/4SM 01/00 A3027 RMK T00100000 IEM_DS3505
ZBAA,1990-03-20 23:00,ZBAA 202300Z AUTO 00000KT 1SM 01/00 A3027 RMK T00100000 IEM_DS3505
ZBAA,1990-03-21 00:00,ZBAA 210000Z AUTO 00000KT 2SM 01/00 A3027 RMK 60028 70051 SLP270 T00090001 52006 IEM_DS3505
ZBAA,1990-03-21 01:00,ZBAA 210100Z AUTO 00000KT 1/2SM 02/01 A3027 RMK T00200010 IEM_DS3505
ZBAA,1990-03-21 02:00,ZBAA 210200Z AUTO 00000KT 1SM 02/02 A3030 RMK T00200020 IEM_DS3505
ZBAA,1990-03-21 03:00,ZBAA 210300Z AUTO 00000KT 1 1/4SM 02/01 A3030 RMK SLP272 T00220014 52002 IEM_DS3505
ZBAA,1990-03-21 04:00,ZBAA 210400Z AUTO 34004KT 4SM 04/03 A3027 RMK T00400030 IEM_DS3505
ZBAA,1990-03-21 05:00,ZBAA 210500Z AUTO 35002KT 1 1/4SM 04/03 A3024 RMK T00400030 IEM_DS3505
ZBAA,1990-03-21 06:00,ZBAA 210600Z AUTO 00000KT 4SM 04/02 A3021 RMK 60002 T00400017 4////0003 57021 IEM_DS3505
ZBAA,1990-03-21 07:00,ZBAA 210700Z AUTO 33002KT 2SM 04/02 A3021 RMK T00400020 IEM_DS3505
ZBAA,1990-03-21 09:00,ZBAA 210900Z AUTO 00000KT 5SM 04/00 A3021 RMK SLP247 T00420002 57004 IEM_DS3505
ZBAA,1990-03-21 10:00,ZBAA 211000Z AUTO 01002KT 7SM 05/M01 A3018 RMK T00501010 IEM_DS3505
ZBAA,1990-03-21 11:00,ZBAA 211100Z AUTO 34004KT 7SM 05/01 A3021 RMK T00500010 IEM_DS3505
ZBAA,1990-03-21 12:00,ZBAA 211200Z AUTO 00000KT 4SM 04/01 A3021 RMK SLP249 T00400009 52002 IEM_DS3505
ZBAA,1990-03-21 13:00,ZBAA 211300Z AUTO 34002KT 7SM 05/00 A3021 RMK T00500000 IEM_DS3505
ZBAA,1990-03-21 14:00,ZBAA 211400Z AUTO 34002KT 7SM 05/01 A3021 RMK T00500010 IEM_DS3505
ZBAA,1990-03-21 15:00,ZBAA 211500Z AUTO 00000KT 2 1/2SM 04/00 A3021 RMK SLP250 T00410004 52001 IEM_DS3505
ZBAA,1990-03-21 18:00,ZBAA 211800Z AUTO 00000KT 4SM 04/02 RMK SLP244 T00410015 40046//// 57006 IEM_DS3505
ZBAA,1990-03-21 20:00,ZBAA 212000Z AUTO 01002KT 5SM 05/02 A3015 RMK T00500020 IEM_DS3505
ZBAA,1990-03-21 21:00,ZBAA 212100Z AUTO 02004KT 4SM 04/02 A3015 RMK SLP228 T00410015 57016 IEM_DS3505
ZBAA,1990-03-21 22:00,ZBAA 212200Z AUTO 33004KT 6SM 05/02 A3015 RMK T00500020 IEM_DS3505
ZBAA,1990-03-21 23:00,ZBAA 212300Z AUTO 33004KT 4SM 05/02 A3015 RMK T00500020 IEM_DS3505
ZBAA,1990-03-22 00:00,ZBAA 220000Z AUTO 00000KT 2 1/2SM 05/02 RMK 70004 SLP231 T00480018 52003 IEM_DS3505
ZBAA,1990-03-22 01:00,ZBAA 220100Z AUTO 33004KT 7SM 06/02 A3015 RMK T00600020 IEM_DS3505
ZBAA,1990-03-22 02:00,ZBAA 220200Z AUTO 34006KT 7SM 07/03 A3015 RMK T00700030 IEM_DS3505
ZBAA,1990-03-22 03:00,ZBAA 220300Z AUTO 36002KT 4SM 08/01 A3015 RMK SLP229 T00770006 57001 IEM_DS3505
ZBAA,1990-03-22 04:00,ZBAA 220400Z AUTO 02004KT 6SM 10/03 A3012 RMK T01000030 IEM_DS3505
ZBAA,1990-03-22 05:00,ZBAA 220500Z AUTO 04002KT 6SM 10/03 A3012 RMK T01000030 IEM_DS3505
ZBAA,1990-03-22 06:00,ZBAA 220600Z AUTO 09002KT 4SM 10/00 A3009 RMK SLP207 T00960004 57022 IEM_DS3505
ZBAA,1990-03-22 07:00,ZBAA 220700Z AUTO 13002KT 6SM 11/M02 A3006 RMK T01101020 IEM_DS3505
ZBAA,1990-03-22 08:00,ZBAA 220800Z AUTO 12002KT 6SM 11/00 A3003 RMK T01100000 IEM_DS3505
ZBAA,1990-03-22 09:00,ZBAA 220900Z AUTO 14002KT 4SM 09/M00 RMK SLP191 T00941002 57016 IEM_DS3505
ZBAA,1990-03-22 11:00,ZBAA 221100Z AUTO 12004KT 6SM 09/01 A3003 RMK T00900010 IEM_DS3505
ZBAA,1990-03-22 12:00,ZBAA 221200Z AUTO 04002KT 3SM 08/02 A3003 RMK SLP195 T00840016 52004 IEM_DS3505
ZBAA,1990-03-22 13:00,ZBAA 221300Z AUTO 14002KT 6SM 08/00 A3003 RMK T00800000 IEM_DS3505
ZBAA,1990-03-22 14:00,ZBAA 221400Z AUTO 12002KT 6SM 08/01 A3003 RMK T00800010 IEM_DS3505
ZBAA,1990-03-22 15:00,ZBAA 221500Z AUTO 11004KT 3SM 08/02 A3003 RMK SLP187 T00770015 57008 IEM_DS3505
ZBAA,1990-03-22 18:00,ZBAA 221800Z AUTO 00000KT 2SM 06/04 RMK 60001 SLP174 T00620041 40106//// 57012 IEM_DS3505
ZBAA,1990-03-22 20:00,ZBAA 222000Z AUTO 00000KT 2 1/2SM 06/06 A2994 RMK T00600060 IEM_DS3505
ZBAA,1990-03-22 21:00,ZBAA 222100Z AUTO 00000KT 1 1/4SM 06/04 A2994 RMK SLP154 T00550041 57020 IEM_DS3505
ZBAA,1990-03-22 22:00,ZBAA 222200Z AUTO 32004KT 2 1/2SM 06/05 A2994 RMK T00600050 IEM_DS3505
ZBAA,1990-03-22 23:00,ZBAA 222300Z AUTO 32006KT 2SM 06/06 A2994 RMK T00600060 IEM_DS3505
ZBAA,1990-03-23 00:00,ZBAA 230000Z AUTO 00000KT 1 1/4SM 06/05 A2994 RMK 60016 SLP155 T00580049 52001 IEM_DS3505
ZBAA,1990-03-23 01:00,ZBAA 230100Z AUTO 33006KT 3SM 07/07 A2994 RMK T00700070 IEM_DS3505
ZBAA,1990-03-23 03:00,ZBAA 230300Z AUTO 36002KT 1 1/4SM 07/06 A2997 RMK SLP168 T00740065 52013 IEM_DS3505
ZBAA,1990-03-23 04:00,ZBAA 230400Z AUTO 32004KT 1 1/4SM 08/08 A2997 RMK T00800080 IEM_DS3505
ZBAA,1990-03-23 05:00,ZBAA 230500Z AUTO 33004KT 2SM 09/09 A3000 RMK T00900090 IEM_DS3505
ZBAA,1990-03-23 06:00,ZBAA 230600Z AUTO 36004KT 1 1/4SM 08/08 A3000 RMK 60008 SLP177 T00830077 4////0049 52008 IEM_DS3505
ZBAA,1990-03-23 07:00,ZBAA 230700Z AUTO 03010KT 7SM 09/07 A3000 RMK T00900070 IEM_DS3505
ZBAA,1990-03-23 08:00,ZBAA 230800Z AUTO 03010KT 7SM 09/05 A3000 RMK T00900050 IEM_DS3505
ZBAA,1990-03-23 09:00,ZBAA 230900Z AUTO 04006KT 6SM 09/06 A3003 RMK SLP190 T00910063 52013 IEM_DS3505
ZBAA,1990-03-23 10:00,ZBAA 231000Z AUTO 04008KT 7SM 09/03 A3006 RMK T00900030 IEM_DS3505
ZBAA,1990-03-23 11:00,ZBAA 231100Z AUTO 04006KT 7SM 09/03 A3009 RMK T00900030 IEM_DS3505
ZBAA,1990-03-23 12:00,ZBAA 231200Z AUTO 04004KT 9SM 09/02 A3012 RMK 60000 SLP224 T00880023 52034 IEM_DS3505
ZBAA,1990-03-23 13:00,ZBAA 231300Z AUTO 04008KT 7SM 09/01 A3018 RMK T00900010 IEM_DS3505
ZBAA,1990-03-23 14:00,ZBAA 231400Z AUTO 04010KT 7SM 08/01 A3021 RMK T00800010 IEM_DS3505
ZBAA,1990-03-23 15:00,ZBAA 231500Z AUTO 04012KT 10SM 08/M01 RMK SLP255 T00841007 52031 IEM_DS3505
ZBAA,1990-03-23 18:00,ZBAA 231800Z AUTO 04006KT 12SM 07/M02 RMK SLP265 T00741017 40091//// 52010 IEM_DS3505
ZBAA,1990-03-23 20:00,ZBAA 232000Z AUTO 03008KT 7SM 07/M05 A3027 RMK T00701050 IEM_DS3505
ZBAA,1990-03-23 21:00,ZBAA 232100Z AUTO 04006KT 12SM 07/M05 A3030 RMK SLP275 T00701051 52010 IEM_DS3505
ZBAA,1990-03-23 22:00,ZBAA 232200Z AUTO 03008KT 7SM 07/M06 A3033 RMK T00701060 IEM_DS3505
ZBAA,1990-03-23 23:00,ZBAA 232300Z AUTO 02010G19KT 6SM 07/M06 A3033 RMK T00701060 IEM_DS3505
ZBAA,1990-03-24 00:00,ZBAA 240000Z AUTO 04006KT 12SM 07/M07 A3036 RMK 70008 SLP295 T00731068 52020 IEM_DS3505
ZBAA,1990-03-24 01:00,ZBAA 240100Z AUTO 02010KT 6SM 09/M07 A3039 RMK T00901070 IEM_DS3505
ZBAA,1990-03-24 02:00,ZBAA 240200Z AUTO 03012KT 6SM 10/M07 A3039 RMK T01001070 IEM_DS3505
ZBAA,1990-03-24 03:00,ZBAA 240300Z AUTO 02006KT 7SM 09/M08 A3039 RMK SLP307 T00871075 52012 IEM_DS3505
ZBAA,1990-03-24 04:00,ZBAA 240400Z AUTO 02008G17KT RMK IEM_DS3505
ZBAA,1990-03-24 05:00,ZBAA 240500Z AUTO 03012KT 6SM 12/M09 A3036 RMK T01201090 IEM_DS3505
ZBAA,1990-03-24 06:00,ZBAA 240600Z AUTO 07008KT 12SM 11/M09 A3033 RMK SLP289 T01111086 4////0066 57018 IEM_DS3505
ZBAA,1990-03-24 07:00,ZBAA 240700Z AUTO 03010KT 6SM 14/M08 A3033 RMK T01401080 IEM_DS3505
ZBAA,1990-03-24 08:00,ZBAA 240800Z AUTO 03008G17KT 6SM 13/M07 A3030 RMK T01301070 IEM_DS3505
ZBAA,1990-03-24 09:00,ZBAA 240900Z AUTO 36004KT 9SM 12/M04 RMK SLP280 T01161041 57009 IEM_DS3505
ZBAA,1990-03-24 12:00,ZBAA 241200Z AUTO 07008KT 11SM 10/M07 RMK SLP303 T01031072 52023 IEM_DS3505
ZBAA,1990-03-24 12:39,ZBAA 241239Z AUTO 05006KT 6SM 10/M06 A3039 RMK T01001060 IEM_DS3505
ZBAA,1990-03-24 13:00,ZBAA 241300Z AUTO 04008KT 6SM 09/M06 A3042 RMK T00901060 IEM_DS3505
ZBAA,1990-03-24 15:00,ZBAA 241500Z AUTO 04008KT 9SM 08/M09 A3045 RMK SLP323 T00811088 52020 IEM_DS3505
ZBAA,1990-03-24 18:00,ZBAA 241800Z AUTO 04006KT 9SM 07/M10 RMK SLP334 T00671096 40117//// 52011 IEM_DS3505
ZBAA,1990-03-24 20:00,ZBAA 242000Z AUTO 02006KT 6SM 06/M08 A3047 RMK T00601080 IEM_DS3505
ZBAA,1990-03-24 21:00,ZBAA 242100Z AUTO 34002KT 9SM 05/M04 A3047 RMK SLP337 T00531042 52003 IEM_DS3505
ZBAA,1990-03-24 22:00,ZBAA 242200Z AUTO 02004KT 6SM 06/M06 A3047 RMK T00601060 IEM_DS3505
ZBAA,1990-03-24 23:00,ZBAA 242300Z AUTO 02004KT 6SM 06/M06 A3047 RMK T00601060 IEM_DS3505
ZBAA,1990-03-25 00:00,ZBAA 250000Z AUTO 00000KT 9SM 07/M06 A3050 RMK SLP344 T00671056 52007 IEM_DS3505
ZBAA,1990-03-25 02:00,ZBAA 250200Z AUTO ////04KT 6SM 12/M07 A3047 RMK T01201070 IEM_DS3505
ZBAA,1990-03-25 03:00,ZBAA 250300Z AUTO 09006KT 12SM 10/M10 A3050 RMK SLP339 T00951102 57005 IEM_DS3505
ZBAA,1990-03-25 04:00,ZBAA 250400Z AUTO ////02KT 6SM 14/M09 A3045 RMK T01401090 IEM_DS3505
ZBAA,1990-03-25 05:00,ZBAA 250500Z AUTO ////04KT 6SM 15/M09 A3045 RMK T01501090 IEM_DS3505
ZBAA,1990-03-25 06:00,ZBAA 250600Z AUTO 27002KT 12SM 11/M09 A3045 RMK SLP320 T01091091 4////0047 57019 IEM_DS3505
ZBAA,1990-03-25 07:00,ZBAA 250700Z AUTO ////04KT 6SM 15/M07 A3039 RMK T01501070 IEM_DS3505
ZBAA,1990-03-25 09:00,ZBAA 250900Z AUTO 20006KT 12SM 10/M07 A3039 RMK SLP303 T01051073 57017 IEM_DS3505
ZBAA,1990-03-25 10:00,ZBAA 251000Z AUTO 20004KT 6SM 11/M08 A3039 RMK T01101080 IEM_DS3505
ZBAA,1990-03-25 11:00,ZBAA 251100Z AUTO 20006KT 11SM 09/M05 A3039 RMK SLP307 T00901046 52004 IEM_DS3505
ZBAA,1990-03-25 12:00,ZBAA 251200Z AUTO 20006KT 11SM 09/M05 A3039 RMK SLP307 T00901046 52004 IEM_DS3505
ZBAA,1990-03-25 13:00,ZBAA 251300Z AUTO 21004KT 6SM 09/M04 A3039 RMK T00901040 IEM_DS3505
ZBAA,1990-03-25 15:00,ZBAA 251500Z AUTO 20006KT 11SM 07/M03 RMK SLP309 T00711033 52002 IEM_DS3505
ZBAA,1990-03-25 18:00,ZBAA 251800Z AUTO 20002KT 11SM 06/M01 RMK SLP304 T00571007 57005 IEM_DS3505
ZBAA,1990-03-25 21:00,ZBAA 252100Z AUTO 36004KT 9SM 05/00 RMK SLP297 T00500003 57007 IEM_DS3505
ZBAA,1990-03-25 23:00,ZBAA 252300Z AUTO 02002KT 6SM 05/M02 A3036 RMK T00501020 IEM_DS3505
ZBAA,1990-03-26 00:00,ZBAA 260000Z AUTO 07002KT 5SM 06/M02 A3036 RMK SLP295 T00551024 57002 IEM_DS3505
ZBAA,1990-03-26 01:00,ZBAA 260100Z AUTO 36002KT 6SM 09/M02 A3036 RMK T00901020 IEM_DS3505
ZBAA,1990-03-26 02:00,ZBAA 260200Z AUTO 35002KT 6SM 13/M02 A3033 RMK T01301020 IEM_DS3505
ZBAA,1990-03-26 03:00,ZBAA 260300Z AUTO 18002KT 4SM 10/M03 A3033 RMK SLP282 T01051028 57013 IEM_DS3505
ZBAA,1990-03-26 04:00,ZBAA 260400Z AUTO 20002KT 6SM 15/M02 A3030 RMK T01501020 IEM_DS3505
ZBAA,1990-03-26 05:00,ZBAA 260500Z AUTO ////04KT 6SM 16/M03 A3027 RMK T01601030 IEM_DS3505
ZBAA,1990-03-26 06:00,ZBAA 260600Z AUTO 20004KT 7SM 12/M06 A3021 RMK SLP255 T01231058 4////0038 57027 IEM_DS3505
ZBAA,1990-03-26 07:00,ZBAA 260700Z AUTO ////06KT 6SM 15/M03 A3021 RMK T01501030 IEM_DS3505
ZBAA,1990-03-26 08:00,ZBAA 260800Z AUTO 19004KT 6SM 14/M04 A3018 RMK T01401040 IEM_DS3505
ZBAA,1990-03-26 09:00,ZBAA 260900Z AUTO 20006KT 7SM 10/M03 A3018 RMK SLP242 T01021033 57013 IEM_DS3505
ZBAA,1990-03-26 12:00,ZBAA 261200Z AUTO 22010KT 4SM 09/M03 RMK SLP249 T00891027 52007 IEM_DS3505
ZBAA,1990-03-26 15:00,ZBAA 261500Z AUTO 00000KT 4SM 05/02 RMK SLP257 T00520025 52008 IEM_DS3505
ZBAA,1990-03-26 18:00,ZBAA 261800Z AUTO 00000KT 2 1/2SM 05/03 RMK 60008 SLP248 T00500033 57009 IEM_DS3505
ZBAA,1990-03-26 21:00,ZBAA 262100Z AUTO 00000KT 2SM 04/03 A3015 RMK SLP233 T00440029 57015 IEM_DS3505
ZBAA,1990-03-26 22:00,ZBAA 262200Z AUTO 07002KT 3SM 05/04 A3015 RMK T00500040 IEM_DS3505
ZBAA,1990-03-26 23:00,ZBAA 262300Z AUTO 00000KT 2SM 05/04 A3018 RMK T00500040 IEM_DS3505
ZBAA,1990-03-27 00:00,ZBAA 270000Z AUTO 20004KT 2 1/2SM 03/02 A3018 RMK 60016 SLP243 T00340021 52010 IEM_DS3505
ZBAA,1990-03-27 01:00,ZBAA 270100Z AUTO 20004KT 1 1/2SM 05/04 A3021 RMK T00500040 IEM_DS3505
ZBAA,1990-03-27 02:00,ZBAA 270200Z AUTO 19006KT 1 1/2SM 04/03 A3021 RMK T00400030 IEM_DS3505
ZBAA,1990-03-27 03:00,ZBAA 270300Z AUTO 00000KT 2 1/2SM 04/02 A3021 RMK SLP246 T00360021 52002 IEM_DS3505
ZBAA,1990-03-27 04:00,ZBAA 270400Z AUTO 16002KT 3SM 05/05 A3018 RMK T00500050 IEM_DS3505
ZBAA,1990-03-27 05:00,ZBAA 270500Z AUTO 17002KT 3SM 06/06 A3018 RMK T00600060 IEM_DS3505
ZBAA,1990-03-27 06:00,ZBAA 270600Z AUTO 00000KT 2SM 05/03 A3015 RMK 60012 SLP232 T00510029 4////0018 57014 IEM_DS3505
ZBAA,1990-03-27 07:00,ZBAA 270700Z AUTO ////04KT 7SM 06/04 A3012 RMK T00600040 IEM_DS3505
ZBAA,1990-03-27 08:00,ZBAA 270800Z AUTO 17004KT 7SM 06/03 A3012 RMK T00600030 IEM_DS3505
ZBAA,1990-03-27 09:00,ZBAA 270900Z AUTO 16002KT 2SM 04/03 A3012 RMK SLP224 T00390026 57008 IEM_DS3505
ZBAA,1990-03-27 10:00,ZBAA 271000Z AUTO 17002KT 2SM 05/04 A3012 RMK T00500040 IEM_DS3505
ZBAA,1990-03-27 11:00,ZBAA 271100Z AUTO 15004KT 2SM 05/04 A3012 RMK T00500040 IEM_DS3505
ZBAA,1990-03-27 12:00,ZBAA 271200Z AUTO 00000KT 2SM 04/03 A3015 RMK 60012 SLP231 T00390029 52007 IEM_DS3505
ZBAA,1990-03-27 13:00,ZBAA 271300Z AUTO 17002KT 1 1/2SM 05/04 A3015 RMK T00500040 IEM_DS3505
ZBAA,1990-03-27 14:00,ZBAA 271400Z AUTO 17004KT 2SM 04/04 A3015 RMK T00400040 IEM_DS3505
ZBAA,1990-03-27 15:00,ZBAA 271500Z AUTO 00000KT 2SM 04/03 A3018 RMK SLP239 T00370030 52008 IEM_DS3505
ZBAA,1990-03-27 18:00,ZBAA 271800Z AUTO 00000KT 2SM 03/02 RMK 60024 SLP234 T00270019 40051//// 57005 IEM_DS3505
ZBAA,1990-03-27 20:00,ZBAA 272000Z AUTO 00000KT 2 1/2SM 04/ A3012 RMK IEM_DS3505
ZBAA,1990-03-27 21:00,ZBAA 272100Z AUTO 00000KT 2 1/2SM 03/02 A3012 RMK SLP223 T00290021 57011 IEM_DS3505
ZBAA,1990-03-27 23:00,ZBAA 272300Z AUTO 00000KT 3SM 04/04 A3012 RMK T00400040 IEM_DS3505
ZBAA,1990-03-28 00:00,ZBAA 280000Z AUTO 00000KT 4SM 04/03 A3012 RMK 60008 SLP224 T00370030 52001 IEM_DS3505
ZBAA,1990-03-28 01:50,ZBAA 280150Z AUTO 27002KT 1 1/4SM 07/06 A3012 RMK T00700060 IEM_DS3505
ZBAA,1990-03-28 02:00,ZBAA 280200Z AUTO 27002KT 4SM 08/04 A3012 RMK T00800040 IEM_DS3505
ZBAA,1990-03-28 03:00,ZBAA 280300Z AUTO 00000KT 3SM 07/04 RMK SLP224 T00700037 52001 IEM_DS3505
ZBAA,1990-03-28 03:50,ZBAA 280350Z AUTO 00000KT 4SM 09/04 A3012 RMK T00900040 IEM_DS3505
ZBAA,1990-03-28 04:00,ZBAA 280400Z AUTO 29002KT 4SM 10/04 A3012 RMK T01000040 IEM_DS3505
ZBAA,1990-03-28 05:00,ZBAA 280500Z AUTO 00000KT 4SM 10/04 A3012 RMK T01000040 IEM_DS3505
ZBAA,1990-03-28 06:00,ZBAA 280600Z AUTO 00000KT 3SM 08/04 A3009 RMK SLP213 T00770040 4////0025 57011 IEM_DS3505
ZBAA,1990-03-28 06:42,ZBAA 280642Z AUTO 00000KT 4SM 10/04 A3009 RMK T01000040 IEM_DS3505
ZBAA,1990-03-28 07:00,ZBAA 280700Z AUTO 31002KT 4SM 11/04 A3006 RMK T01100040 IEM_DS3505
ZBAA,1990-03-28 08:00,ZBAA 280800Z AUTO 27002KT 4SM 11/04 A3006 RMK T01100040 IEM_DS3505
ZBAA,1990-03-28 09:00,ZBAA 280900Z AUTO 00000KT 4SM 09/04 A3003 RMK SLP196 T00880042 57017 IEM_DS3505
ZBAA,1990-03-28 10:00,ZBAA 281000Z AUTO 22002KT 2 1/2SM 10/05 A3006 RMK T01000050 IEM_DS3505
ZBAA,1990-03-28 11:00,ZBAA 281100Z AUTO 20004KT 1 1/4SM 09/05 A3006 RMK T00900050 IEM_DS3505
ZBAA,1990-03-28 12:00,ZBAA 281200Z AUTO 20004KT 6SM 08/05 A3006 RMK SLP203 T00760046 52007 IEM_DS3505
ZBAA,1990-03-28 13:00,ZBAA 281300Z AUTO 20002KT 1 1/2SM 08/05 A3009 RMK T00800050 IEM_DS3505
ZBAA,1990-03-28 14:00,ZBAA 281400Z AUTO 20002KT 1 1/2SM 08/05 A3009 RMK T00800050 IEM_DS3505
ZBAA,1990-03-28 15:00,ZBAA 281500Z AUTO 00000KT 4SM 07/05 A3006 RMK SLP208 T00690048 52005 IEM_DS3505
ZBAA,1990-03-28 18:00,ZBAA 281800Z AUTO 00000KT 2SM 06/05 RMK SLP199 T00640050 40085//// 57009 IEM_DS3505
ZBAA,1990-03-28 20:00,ZBAA 282000Z AUTO 34002KT 1 1/2SM 07/05 A3003 RMK T00700050 IEM_DS3505
ZBAA,1990-03-28 21:00,ZBAA 282100Z AUTO 00000KT 4SM 07/05 RMK SLP192 T00660050 57007 IEM_DS3505
ZBAA,1990-03-28 22:00,ZBAA 282200Z AUTO 01002KT 4SM 06/04 A3003 RMK T00600040 IEM_DS3505
ZBAA,1990-03-28 23:00,ZBAA 282300Z AUTO 35006KT 5SM 06/04 A3006 RMK T00600040 IEM_DS3505
ZBAA,1990-03-29 00:00,ZBAA 290000Z AUTO 00000KT 4SM 08/06 A3006 RMK SLP201 T00770055 52009 IEM_DS3505
ZBAA,1990-03-29 01:00,ZBAA 290100Z AUTO 34006KT 6SM 10/05 A3006 RMK T01000050 IEM_DS3505
ZBAA,1990-03-29 03:00,ZBAA 290300Z AUTO 00000KT 2 1/2SM 12/06 A3003 RMK SLP194 T01150062 57006 IEM_DS3505
ZBAA,1990-03-29 04:00,ZBAA 290400Z AUTO 25004KT 6SM 18/06 A3003 RMK T01800060 IEM_DS3505
ZBAA,1990-03-29 05:00,ZBAA 290500Z AUTO ////04KT 6SM 18/04 A3000 RMK T01800040 IEM_DS3505
ZBAA,1990-03-29 06:00,ZBAA 290600Z AUTO 22004KT 5SM 15/03 A2997 RMK SLP169 T01520031 4////0059 57025 IEM_DS3505
ZBAA,1990-03-29 07:00,ZBAA 290700Z AUTO ////06KT 6SM 19/03 A2994 RMK T01900030 IEM_DS3505
ZBAA,1990-03-29 08:00,ZBAA 290800Z AUTO 22006KT 6SM 18/01 A2994 RMK T01800010 IEM_DS3505
ZBAA,1990-03-29 09:00,ZBAA 290900Z AUTO 20008KT 5SM 14/03 A2994 RMK SLP157 T01450026 57012 IEM_DS3505
ZBAA,1990-03-29 10:00,ZBAA 291000Z AUTO 20004KT 6SM 15/04 A2994 RMK T01500040 IEM_DS3505
ZBAA,1990-03-29 11:00,ZBAA 291100Z AUTO 20004KT 6SM 14/04 A2994 RMK T01400040 IEM_DS3505
ZBAA,1990-03-29 12:00,ZBAA 291200Z AUTO 20006KT 5SM 12/05 A2997 RMK SLP163 T01230049 52006 IEM_DS3505
ZBAA,1990-03-29 13:00,ZBAA 291300Z AUTO 18004KT 6SM 13/05 A2997 RMK T01300050 IEM_DS3505
ZBAA,1990-03-29 14:00,ZBAA 291400Z AUTO 21002KT 6SM 11/05 A2997 RMK T01100050 IEM_DS3505
ZBAA,1990-03-29 15:00,ZBAA 291500Z AUTO 18008KT 6SM 10/05 RMK SLP166 T01020049 52003 IEM_DS3505
ZBAA,1990-03-29 18:00,ZBAA 291800Z AUTO 20004KT 5SM 08/06 RMK SLP163 T00820055 40163//// 57002 IEM_DS3505
ZBAA,1990-03-29 20:00,ZBAA 292000Z AUTO 00000KT 2SM 06/04 A2994 RMK T00600040 IEM_DS3505
ZBAA,1990-03-29 21:00,ZBAA 292100Z AUTO 00000KT 3SM 07/05 A2994 RMK SLP159 T00720054 57005 IEM_DS3505
ZBAA,1990-03-29 22:00,ZBAA 292200Z AUTO 13004KT 1 1/4SM 07/05 A2994 RMK T00700050 IEM_DS3505
ZBAA,1990-03-29 23:00,ZBAA 292300Z AUTO 00000KT 1SM 07/05 A2997 RMK T00700050 IEM_DS3505
ZBAA,1990-03-30 00:00,ZBAA 300000Z AUTO 00000KT 2SM 07/06 A2997 RMK SLP165 T00720056 52006 IEM_DS3505
ZBAA,1990-03-30 01:00,ZBAA 300100Z AUTO 05002KT 1SM 10/07 A2997 RMK T01000070 IEM_DS3505
ZBAA,1990-03-30 03:00,ZBAA 300300Z AUTO 09004KT 2SM 13/06 A2994 RMK SLP159 T01340063 57005 IEM_DS3505
ZBAA,1990-03-30 04:00,ZBAA 300400Z AUTO ////04KT 1 1/4SM 17/08 A2994 RMK T01700080 IEM_DS3505
ZBAA,1990-03-30 05:00,ZBAA 300500Z AUTO ////06KT 2 1/2SM 18/08 A2991 RMK T01800080 IEM_DS3505
ZBAA,1990-03-30 06:00,ZBAA 300600Z AUTO 20010KT 6SM 16/07 A2985 RMK SLP129 T01600074 4////0059 57030 IEM_DS3505
ZBAA,1990-03-30 07:00,ZBAA 300700Z AUTO 20008KT 5SM 19/09 A2983 RMK T01900090 IEM_DS3505
ZBAA,1990-03-30 08:00,ZBAA 300800Z AUTO 19008KT 4SM 18/09 A2983 RMK T01800090 IEM_DS3505
ZBAA,1990-03-30 09:00,ZBAA 300900Z AUTO 18008KT 5SM 16/09 A2983 RMK SLP113 T01600088 57016 IEM_DS3505
ZBAA,1990-03-30 10:00,ZBAA 301000Z AUTO 18006KT 3SM 17/09 A2983 RMK T01700090 IEM_DS3505
ZBAA,1990-03-30 11:00,ZBAA 301100Z AUTO ////06KT 2 1/2SM 16/10 A2985 RMK T01600100 IEM_DS3505
ZBAA,1990-03-30 12:00,ZBAA 301200Z AUTO 00000KT 6SM 13/09 A2988 RMK 60004 SLP133 T01270094 52019 IEM_DS3505
ZBAA,1990-03-30 13:00,ZBAA 301300Z AUTO 07002KT 6SM 13/09 A2988 RMK T01300090 IEM_DS3505
ZBAA,1990-03-30 14:00,ZBAA 301400Z AUTO 03004KT 6SM 12/09 A2988 RMK T01200090 IEM_DS3505
ZBAA,1990-03-30 15:00,ZBAA 301500Z AUTO 00000KT 5SM 12/08 RMK SLP133 T01150085 52001 IEM_DS3505
ZBAA,1990-03-30 18:00,ZBAA 301800Z AUTO 02002KT 4SM 10/08 RMK SLP122 T01000084 40169//// 57011 IEM_DS3505
ZBAA,1990-03-30 20:00,ZBAA 302000Z AUTO 00000KT 4SM 08/06 A2983 RMK T00800060 IEM_DS3505
ZBAA,1990-03-30 21:00,ZBAA 302100Z AUTO 00000KT 2 1/2SM 07/06 A2983 RMK SLP117 T00740065 57005 IEM_DS3505
ZBAA,1990-03-30 22:00,ZBAA 302200Z AUTO ////02KT 1/4SM 06/04 A2983 RMK T00600040 IEM_DS3505
ZBAA,1990-03-31 00:00,ZBAA 310000Z AUTO 00000KT 2SM 09/08 RMK 70004 SLP121 T00940082 52004 IEM_DS3505
ZBAA,1990-03-31 02:00,ZBAA 310200Z AUTO 00000KT 11/10 A2985 RMK T01100100 IEM_DS3505
ZBAA,1990-03-31 03:00,ZBAA 310300Z AUTO 04002KT 1 1/4SM 14/10 A2983 RMK SLP120 T01440096 57001 IEM_DS3505
ZBAA,1990-03-31 04:00,ZBAA 310400Z AUTO 14002KT 1SM 13/10 A2983 RMK T01300100 IEM_DS3505
ZBAA,1990-03-31 05:00,ZBAA 310500Z AUTO 12004KT 1SM 16/11 A2980 RMK T01600110 IEM_DS3505
ZBAA,1990-03-31 06:00,ZBAA 310600Z AUTO 14004KT 4SM 18/10 RMK SLP093 T01850097 4////0064 57026 IEM_DS3505
ZBAA,1990-03-31 09:00,ZBAA 310900Z AUTO 20010KT 4SM 18/10 A2974 RMK SLP083 T01820098 57011 IEM_DS3505
ZBAA,1990-03-31 10:00,ZBAA 311000Z AUTO 18006KT 7SM 19/10 A2974 RMK T01900100 IEM_DS3505
ZBAA,1990-03-31 11:00,ZBAA 311100Z AUTO 15004KT 7SM 17/10 A2974 RMK T01700100 IEM_DS3505
ZBAA,1990-03-31 12:00,ZBAA 311200Z AUTO 18002KT 3SM 16/11 A2977 RMK SLP094 T01570106 52011 IEM_DS3505
ZBAA,1990-03-31 13:00,ZBAA 311300Z AUTO 12002KT 7SM 14/10 A2977 RMK T01400100 IEM_DS3505
ZBAA,1990-03-31 14:00,ZBAA 311400Z AUTO 13004KT 7SM 14/10 A2977 RMK T01400100 IEM_DS3505
ZBAA,1990-03-31 15:00,ZBAA 311500Z AUTO 00000KT 2SM 12/10 A2977 RMK SLP104 T01240101 52010 IEM_DS3505
ZBAA,1990-03-31 16:00,ZBAA 311600Z AUTO 13006KT 3SM 13/10 A2977 RMK T01300100 IEM_DS3505
ZBAA,1990-03-31 18:00,ZBAA 311800Z AUTO 36002KT 2 1/2SM 12/10 RMK SLP102 T01190098 57001 IEM_DS3505
ZBAA,1990-03-31 20:00,ZBAA 312000Z AUTO 04002KT 1SM 10/08 A2977 RMK T01000080 IEM_DS3505
ZBAA,1990-03-31 21:00,ZBAA 312100Z AUTO 36002KT 3SM 11/09 A2980 RMK SLP106 T01060094 52004 IEM_DS3505
ZBAA,1990-03-31 22:00,ZBAA 312200Z AUTO 00000KT 0SM 08/07 A2980 RMK T00800070 IEM_DS3505
ZBAA,1990-03-31 23:00,ZBAA 312300Z AUTO 02002KT 0SM 09/08 A2983 RMK T00900080 IEM_DS3505
ZBAA,1990-04-01 00:00,ZBAA 010000Z AUTO 02002KT 2SM 12/09 RMK SLP126 T01170093 52019 IEM_DS3505
ZBAA,1990-04-01 01:00,ZBAA 010100Z AUTO 03006KT 2SM 16/11 A2985 RMK T01600110 IEM_DS3505
ZBAA,1990-04-01 02:00,ZBAA 010200Z AUTO 04006KT 4SM 20/09 A2985 RMK T02000090 IEM_DS3505
ZBAA,1990-04-01 03:00,ZBAA 010300Z AUTO 07008KT 4SM 19/08 RMK SLP130 T01940075 52005 IEM_DS3505
ZBAA,1990-04-01 04:00,ZBAA 010400Z AUTO 13010KT 4SM 22/11 A2985 RMK T02200110 IEM_DS3505
ZBAA,1990-04-01 05:00,ZBAA 010500Z AUTO 13012KT 7SM 23/10 A2985 RMK T02300100 IEM_DS3505
ZBAA,1990-04-01 06:00,ZBAA 010600Z AUTO 11008KT 3SM 20/11 A2985 RMK SLP123 T02000109 4////0101 57007 IEM_DS3505
ZBAA,1990-04-01 07:00,ZBAA 010700Z AUTO 15012G21KT 7SM 21/10 A2985 RMK T02100100 IEM_DS3505
ZBAA,1990-04-01 08:00,ZBAA 010800Z AUTO 17010KT 7SM 21/09 A2985 RMK T02100090 IEM_DS3505
ZBAA,1990-04-01 09:00,ZBAA 010900Z AUTO 18004KT 2SM 16/10 A2985 RMK SLP126 T01640100 52002 IEM_DS3505
ZBAA,1990-04-01 10:00,ZBAA 011000Z AUTO ////06KT 7SM 18/06 A2985 RMK T01800060 IEM_DS3505
ZBAA,1990-04-01 11:00,ZBAA 011100Z AUTO 17008KT 7SM 16/06 A2988 RMK T01600060 IEM_DS3505
ZBAA,1990-04-01 12:00,ZBAA 011200Z AUTO 18006KT 6SM 14/06 A2991 RMK SLP143 T01370064 52017 IEM_DS3505
ZBAA,1990-04-01 13:00,ZBAA 011300Z AUTO 20004KT 7SM 12/06 A2994 RMK T01200060 IEM_DS3505
ZBAA,1990-04-01 14:00,ZBAA 011400Z AUTO 20002KT 7SM 12/05 A2994 RMK T01200050 IEM_DS3505
ZBAA,1990-04-01 15:00,ZBAA 011500Z AUTO 22002KT 6SM 11/05 RMK SLP154 T01120048 52011 IEM_DS3505
ZBAA,1990-04-01 18:00,ZBAA 011800Z AUTO 04002KT 9SM 11/05 RMK SLP141 T01080049 40207//// 57012 IEM_DS3505
ZBAA,1990-04-01 20:00,ZBAA 012000Z AUTO 19002KT 6SM 10/02 A2988 RMK T01000020 IEM_DS3505
ZBAA,1990-04-01 21:00,ZBAA 012100Z AUTO 04002KT 7SM 09/04 A2985 RMK SLP130 T00930041 57012 IEM_DS3505
ZBAA,1990-04-01 22:00,ZBAA 012200Z AUTO 00000KT 4SM 08/04 A2988 RMK T00800040 IEM_DS3505
ZBAA,1990-04-01 23:00,ZBAA 012300Z AUTO 14004KT 3SM 08/04 A2988 RMK T00800040 IEM_DS3505
ZBAA,1990-04-02 00:00,ZBAA 020000Z AUTO 11002KT 4SM 10/05 A2988 RMK SLP132 T00980052 52002 IEM_DS3505
ZBAA,1990-04-02 01:00,ZBAA 020100Z AUTO 14004KT 1SM 09/06 A2988 RMK T00900060 IEM_DS3505
ZBAA,1990-04-02 02:00,ZBAA 020200Z AUTO 14004KT 1SM 10/00 A2988 RMK T01000000 IEM_DS3505
ZBAA,1990-04-02 03:00,ZBAA 020300Z AUTO 07002KT 2SM 12/05 A2988 RMK SLP132 T01190049 54000 IEM_DS3505
ZBAA,1990-04-02 04:00,ZBAA 020400Z AUTO 00000KT 1 1/4SM 12/07 A2988 RMK T01200070 IEM_DS3505
ZBAA,1990-04-02 05:00,ZBAA 020500Z AUTO 32010KT 7SM 11/06 A2991 RMK T01100060 IEM_DS3505
ZBAA,1990-04-02 06:00,ZBAA 020600Z AUTO 36016KT 2SM 08/05 A2994 RMK 60016 SLP152 T00790054 4////0076 52020 IEM_DS3505
ZBAA,1990-04-02 07:00,ZBAA 020700Z AUTO 34014G23KT 7SM 08/05 A2997 RMK T00800050 IEM_DS3505
ZBAA,1990-04-02 08:00,ZBAA 020800Z AUTO 02010KT 7SM 06/04 A3000 RMK T00600040 IEM_DS3505
ZBAA,1990-04-02 09:00,ZBAA 020900Z AUTO 36016KT 11SM 08/02 RMK SLP183 T00770016 52031 IEM_DS3505
ZBAA,1990-04-02 10:00,ZBAA 021000Z AUTO 03010G21KT 7SM 05/02 A3006 RMK T00500020 IEM_DS3505
ZBAA,1990-04-02 11:00,ZBAA 021100Z AUTO 03010KT 7SM 04/01 A3009 RMK T00400010 IEM_DS3505
ZBAA,1990-04-02 12:00,ZBAA 021200Z AUTO 36012KT 19SM 07/M05 A3012 RMK 60016 SLP221 T00671051 52037 IEM_DS3505
ZBAA,1990-04-02 13:00,ZBAA 021300Z AUTO 03008KT 6SM 04/M02 A3018 RMK T00401020 IEM_DS3505
ZBAA,1990-04-02 15:00,ZBAA 021500Z AUTO 36010KT 19SM 06/M10 RMK SLP252 T00581102 52031 IEM_DS3505
ZBAA,1990-04-02 18:00,ZBAA 021800Z AUTO 36010KT 19SM 04/M12 RMK SLP265 T00451125 40120//// 52013 IEM_DS3505
ZBAA,1990-04-02 21:00,ZBAA 022100Z AUTO 36008KT 19SM 03/M15 RMK 70031 SLP280 T00311153 52014 IEM_DS3505
ZBAA,1990-04-02 22:00,ZBAA 022200Z AUTO 33004KT 7SM 01/M11 A3030 RMK T00101110 IEM_DS3505
ZBAA,1990-04-02 23:00,ZBAA 022300Z AUTO ////06KT 7SM 03/M12 A3033 RMK T00301120 IEM_DS3505
ZBAA,1990-04-03 00:00,ZBAA 030000Z AUTO 36012KT 19SM 04/M15 A3033 RMK 70031 SLP286 T00361148 52006 IEM_DS3505
ZBAA,1990-04-03 02:00,ZBAA 030200Z AUTO 35008KT 7SM 09/M13 A3033 RMK T00901130 IEM_DS3505
ZBAA,1990-04-03 03:00,ZBAA 030300Z AUTO 34010KT 19SM 07/M15 A3030 RMK SLP285 T00671148 57001 IEM_DS3505
ZBAA,1990-04-03 05:00,ZBAA 030500Z AUTO 33008KT 7SM 12/M11 A3027 RMK T01201110 IEM_DS3505
ZBAA,1990-04-03 06:00,ZBAA 030600Z AUTO 32008G19KT 19SM 10/M14 A3024 RMK SLP261 T00951142 57023 IEM_DS3505
ZBAA,1990-04-03 07:30,ZBAA 030730Z AUTO 33012G23KT 7SM 12/M12 A3021 RMK T01201120 IEM_DS3505
ZBAA,1990-04-03 08:36,ZBAA 030836Z AUTO 32010G23KT 7SM 12/M12 A3018 RMK T01201120 IEM_DS3505
ZBAA,1990-04-03 09:00,ZBAA 030900Z AUTO 29014KT 19SM 10/M12 RMK SLP250 T00971121 57011 IEM_DS3505
ZBAA,1990-04-03 10:00,ZBAA 031000Z AUTO 32010G23KT 7SM 12/M12 A3018 RMK T01201120 IEM_DS3505
ZBAA,1990-04-03 12:00,ZBAA 031200Z AUTO 32004KT 19SM 08/M11 A3021 RMK SLP260 T00751112 52009 IEM_DS3505
ZBAA,1990-04-03 12:39,ZBAA 031239Z AUTO 31004KT 7SM 07/M11 A3024 RMK T00701110 IEM_DS3505
ZBAA,1990-04-03 12:47,ZBAA 031247Z AUTO 31004KT 7SM 07/M11 A3024 RMK T00701110 IEM_DS3505
ZBAA,1990-04-03 13:00,ZBAA 031300Z AUTO 28004KT 7SM 06/M10 A3024 RMK T00601100 IEM_DS3505
ZBAA,1990-04-03 14:00,ZBAA 031400Z AUTO 27006KT 7SM 05/M10 A3024 RMK T00501100 IEM_DS3505
ZBAA,1990-04-03 15:00,ZBAA 031500Z AUTO 29004KT 12SM 06/M09 RMK SLP256 T00571093 57003 IEM_DS3505
ZBAA,1990-04-03 18:00,ZBAA 031800Z AUTO 34010KT 19SM 07/M16 RMK SLP250 T00691158 40103//// 57006 IEM_DS3505
ZBAA,1990-04-03 20:00,ZBAA 032000Z AUTO 28008KT 7SM 05/M11 A3018 RMK T00501110 IEM_DS3505
ZBAA,1990-04-03 21:00,ZBAA 032100Z AUTO 36004KT 12SM 05/M10 A3018 RMK SLP247 T00481100 57003 IEM_DS3505
ZBAA,1990-04-03 22:00,ZBAA 032200Z AUTO 30008KT 7SM 04/M12 A3018 RMK T00401120 IEM_DS3505
ZBAA,1990-04-03 23:00,ZBAA 032300Z AUTO 28004KT 7SM 06/M11 A3018 RMK T00601110 IEM_DS3505
ZBAA,1990-04-04 00:00,ZBAA 040000Z AUTO 00000KT 19SM 09/M12 A3018 RMK SLP248 T00861117 52001 IEM_DS3505
ZBAA,1990-04-04 01:00,ZBAA 040100Z AUTO 29010KT 7SM 11/M11 A3018 RMK T01101110 IEM_DS3505
ZBAA,1990-04-04 02:00,ZBAA 040200Z AUTO 29010KT 7SM 13/M11 A3018 RMK T01301110 IEM_DS3505
ZBAA,1990-04-04 03:00,ZBAA 040300Z AUTO 34006G29KT 19SM 12/M15 A3015 RMK SLP239 T01191152 57009 IEM_DS3505
ZBAA,1990-04-04 04:00,ZBAA 040400Z AUTO 31016G29KT 7SM 15/M13 A3012 RMK T01501130 IEM_DS3505
ZBAA,1990-04-04 05:00,ZBAA 040500Z AUTO 30016G27KT 7SM 16/M12 A3009 RMK T01601120 IEM_DS3505
ZBAA,1990-04-04 06:00,ZBAA 040600Z AUTO 32012G29KT 19SM 14/M15 A3006 RMK SLP210 T01411147 4////0024 57028 IEM_DS3505
ZBAA,1990-04-04 07:00,ZBAA 040700Z AUTO 32016G25KT 7SM 17/M12 A3006 RMK T01701120 IEM_DS3505
ZBAA,1990-04-04 08:00,ZBAA 040800Z AUTO 33014G23KT 7SM 17/ RMK IEM_DS3505
ZBAA,1990-04-04 09:00,ZBAA 040900Z AUTO 29010G19KT 7SM 15/M11 A3003 RMK SLP198 T01531106 57012 IEM_DS3505
ZBAA,1990-04-04 10:00,ZBAA 041000Z AUTO 31008KT 7SM 16/M09 A3003 RMK T01601090 IEM_DS3505
ZBAA,1990-04-04 11:00,ZBAA 041100Z AUTO 27004KT 7SM 12/M07 A3003 RMK T01201070 IEM_DS3505
ZBAA,1990-04-04 12:00,ZBAA 041200Z AUTO 29006KT 19SM 12/M11 A3006 RMK SLP201 T01231107 52003 IEM_DS3505
ZBAA,1990-04-04 13:00,ZBAA 041300Z AUTO 23004KT 7SM 10/M09 A3006 RMK T01001090 IEM_DS3505
ZBAA,1990-04-04 14:00,ZBAA 041400Z AUTO 26002KT 7SM 09/M09 A3006 RMK T00901090 IEM_DS3505
ZBAA,1990-04-04 15:00,ZBAA 041500Z AUTO 25004KT 19SM 09/M06 A3006 RMK SLP203 T00891055 52002 IEM_DS3505
ZBAA,1990-04-04 18:00,ZBAA 041800Z AUTO 18004KT 19SM 06/M03 RMK SLP191 T00561029 40154//// 57012 IEM_DS3505
ZBAA,1990-04-04 20:00,ZBAA 042000Z AUTO 00000KT 7SM 05/M06 A3000 RMK T00501060 IEM_DS3505
ZBAA,1990-04-04 21:00,ZBAA 042100Z AUTO 00000KT 9SM 03/M02 A3000 RMK SLP177 T00311020 57014 IEM_DS3505
ZBAA,1990-04-04 22:00,ZBAA 042200Z AUTO 00000KT 7SM 04/M05 A3000 RMK T00401050 IEM_DS3505
ZBAA,1990-04-05 00:00,ZBAA 050000Z AUTO 00000KT 4SM 08/M02 A3000 RMK SLP177 T00781015 54000 IEM_DS3505
ZBAA,1990-04-05 01:00,ZBAA 050100Z AUTO 10002KT 7SM 14/M02 A2997 RMK T01401020 IEM_DS3505
ZBAA,1990-04-05 02:00,ZBAA 050200Z AUTO 11002KT 7SM 18/00 A2997 RMK T01800000 IEM_DS3505
ZBAA,1990-04-05 03:00,ZBAA 050300Z AUTO 20006KT 6SM 16/M08 RMK SLP156 T01651082 57020 IEM_DS3505
ZBAA,1990-04-05 04:00,ZBAA 050400Z AUTO ////04KT 7SM 21/M07 A2988 RMK T02101070 IEM_DS3505
ZBAA,1990-04-05 06:00,ZBAA 050600Z AUTO 18010KT 11SM 20/M10 RMK SLP120 T01951104 4////0028 57036 IEM_DS3505
ZBAA,1990-04-05 09:00,ZBAA 050900Z AUTO 20010KT 12SM 20/M07 RMK SLP102 T01991066 57018 IEM_DS3505
ZBAA,1990-04-05 10:00,ZBAA 051000Z AUTO 19008KT 6SM 20/M04 A2977 RMK T02001040 IEM_DS3505
ZBAA,1990-04-05 11:00,ZBAA 051100Z AUTO 20008KT 6SM 17/M04 A2977 RMK T01701040 IEM_DS3505
ZBAA,1990-04-05 12:00,ZBAA 051200Z AUTO 20010KT 12SM 16/M02 A2977 RMK SLP104 T01611022 52002 IEM_DS3505
ZBAA,1990-04-05 13:00,ZBAA 051300Z AUTO 21008KT 6SM 15/M02 A2980 RMK T01501020 IEM_DS3505
ZBAA,1990-04-05 15:00,ZBAA 051500Z AUTO 20008KT 12SM 13/00 A2977 RMK SLP101 T01310005 57002 IEM_DS3505
ZBAA,1990-04-05 16:00,ZBAA 051600Z AUTO ////04KT 6SM 13/00 A2977 RMK T01300000 IEM_DS3505
ZBAA,1990-04-05 18:00,ZBAA 051800Z AUTO 00000KT 12SM 11/02 RMK SLP089 T01060022 40207//// 57012 IEM_DS3505
ZBAA,1990-04-05 21:00,ZBAA 052100Z AUTO 07004KT 9SM 09/02 A2971 RMK SLP078 T00900018 57011 IEM_DS3505
ZBAA,1990-04-05 22:00,ZBAA 052200Z AUTO 6SM 07/01 A2971 RMK T00700010 IEM_DS3505
ZBAA,1990-04-05 23:00,ZBAA 052300Z AUTO 07002KT 6SM 08/02 A2971 RMK T00800020 IEM_DS3505
ZBAA,1990-04-06 00:00,ZBAA 060000Z AUTO 04002KT 6SM 10/02 A2974 RMK SLP083 T00980017 52004 IEM_DS3505
ZBAA,1990-04-06 01:00,ZBAA 060100Z AUTO 09002KT 6SM 12/04 A2971 RMK T01200040 IEM_DS3505
ZBAA,1990-04-06 02:00,ZBAA 060200Z AUTO 09002KT 6SM 14/04 RMK T01400040 IEM_DS3505
ZBAA,1990-04-06 03:00,ZBAA 060300Z AUTO 00000KT 3SM 14/02 A2968 RMK SLP070 T01440016 57012 IEM_DS3505
ZBAA,1990-04-06 04:00,ZBAA 060400Z AUTO 13008KT 7SM 19/07 A2965 RMK T01900070 IEM_DS3505
ZBAA,1990-04-06 05:00,ZBAA 060500Z AUTO ////06KT 7SM 21/08 A2962 RMK T02100080 IEM_DS3505
ZBAA,1990-04-06 06:00,ZBAA 060600Z AUTO 16006KT 5SM 20/06 A2959 RMK SLP036 T01950059 4////0076 57034 IEM_DS3505
ZBAA,1990-04-06 08:00,ZBAA 060800Z AUTO ////04KT 7SM 23/09 A2950 RMK T02300090 IEM_DS3505
ZBAA,1990-04-06 09:00,ZBAA 060900Z AUTO 29002KT 5SM 20/08 A2950 RMK SLP012 T02030084 57024 IEM_DS3505
ZBAA,1990-04-06 11:00,ZBAA 061100Z AUTO 29014G23KT 7SM 19/05 A2956 RMK T01900050 IEM_DS3505
ZBAA,1990-04-06 12:00,ZBAA 061200Z AUTO 34012G23KT 6SM 16/03 A2962 RMK SLP055 T01550030 52042 IEM_DS3505
ZBAA,1990-04-06 15:00,ZBAA 061500Z AUTO 32010KT 1 1/4SM 14/M11 RMK SLP076 T01371110 52022 IEM_DS3505
ZBAA,1990-04-06 18:00,ZBAA 061800Z AUTO 32012KT 6SM 09/M12 RMK SLP103 T00931121 40213//// 52027 IEM_DS3505
ZBAA,1990-04-06 20:00,ZBAA 062000Z AUTO 30004KT 6SM 08/M09 A2977 RMK T00801090 IEM_DS3505
ZBAA,1990-04-06 21:00,ZBAA 062100Z AUTO 32010KT 11SM 08/M15 A2977 RMK SLP107 T00821154 52003 IEM_DS3505
ZBAA,1990-04-06 22:00,ZBAA 062200Z AUTO ////04KT 7SM 06/M10 A2980 RMK T00601100 IEM_DS3505
ZBAA,1990-04-06 23:00,ZBAA 062300Z AUTO ////06KT 7SM 08/M12 A2983 RMK T00801120 IEM_DS3505
ZBAA,1990-04-07 00:00,ZBAA 070000Z AUTO 32012KT 12SM 09/M20 A2983 RMK SLP120 T00911200 52013 IEM_DS3505
ZBAA,1990-04-07 02:00,ZBAA 070200Z AUTO 33017G31KT 7SM 13/M14 A2983 RMK T01301140 IEM_DS3505
ZBAA,1990-04-07 03:00,ZBAA 070300Z AUTO 32012G25KT 16SM 10/M17 A2980 RMK SLP116 T01041167 57004 IEM_DS3505
ZBAA,1990-04-07 04:00,ZBAA 070400Z AUTO 32014G27KT 7SM 12/M14 A2980 RMK T01201140 IEM_DS3505
ZBAA,1990-04-07 05:00,ZBAA 070500Z AUTO 29014G23KT 7SM 13/M12 A2977 RMK T01301120 IEM_DS3505
ZBAA,1990-04-07 06:00,ZBAA 070600Z AUTO 29014KT 12SM 11/M19 A2974 RMK SLP092 T01111190 4////0077 57024 IEM_DS3505
ZBAA,1990-04-07 07:00,ZBAA 070700Z AUTO 30012G23KT 7SM 15/M14 A2971 RMK T01501140 IEM_DS3505
ZBAA,1990-04-07 08:00,ZBAA 070800Z AUTO 31016KT 3SM RMK IEM_DS3505
ZBAA,1990-04-07 09:00,ZBAA 070900Z AUTO 29010KT 1SM 12/M18 A2968 RMK SLP076 T01241183 57016 IEM_DS3505
ZBAA,1990-04-07 10:00,ZBAA 071000Z AUTO 29012KT 2SM 13/M15 A2968 RMK T01301150 IEM_DS3505
ZBAA,1990-04-07 11:00,ZBAA 071100Z AUTO 30008KT 2SM 13/M14 A2971 RMK T01301140 IEM_DS3505
ZBAA,1990-04-07 12:00,ZBAA 071200Z AUTO 34012KT 1SM 12/M20 A2974 RMK SLP092 T01251203 52016 IEM_DS3505
ZBAA,1990-04-07 13:00,ZBAA 071300Z AUTO ////06KT 2SM 13/M14 A2977 RMK T01301140 IEM_DS3505
ZBAA,1990-04-07 14:00,ZBAA 071400Z AUTO 32006KT 2 1/2SM 12/M14 A2977 RMK T01201140 IEM_DS3505
ZBAA,1990-04-07 15:00,ZBAA 071500Z AUTO 34008KT 6SM 12/M14 A2977 RMK SLP100 T01231141 52008 IEM_DS3505
ZBAA,1990-04-07 18:00,ZBAA 071800Z AUTO 34004KT 10SM 11/M05 RMK SLP101 T01101054 40127//// 52001 IEM_DS3505
ZBAA,1990-04-07 20:00,ZBAA 072000Z AUTO 23002KT 7SM 08/M06 A2974 RMK T00801060 IEM_DS3505
ZBAA,1990-04-07 21:00,ZBAA 072100Z AUTO 25004KT 12SM 08/M04 A2974 RMK SLP091 T00791038 57010 IEM_DS3505
ZBAA,1990-04-07 22:00,ZBAA 072200Z AUTO 23004KT 7SM 06/M06 A2977 RMK T00601060 IEM_DS3505
ZBAA,1990-04-07 23:00,ZBAA 072300Z AUTO 25004KT 7SM 10/M05 A2977 RMK T01001050 IEM_DS3505
ZBAA,1990-04-08 00:00,ZBAA 080000Z AUTO 00000KT 12SM 14/M06 A2977 RMK SLP102 T01391055 52011 IEM_DS3505
ZBAA,1990-04-08 01:00,ZBAA 080100Z AUTO ////04KT 7SM 19/M02 A2980 RMK T01901020 IEM_DS3505
ZBAA,1990-04-08 02:00,ZBAA 080200Z AUTO 31010KT 7SM 21/M05 A2977 RMK T02101050 IEM_DS3505
ZBAA,1990-04-08 03:00,ZBAA 080300Z AUTO 20006KT 9SM 20/M04 A2977 RMK SLP103 T02021038 52002 IEM_DS3505
ZBAA,1990-04-08 04:00,ZBAA 080400Z AUTO 27010KT 6SM 24/M04 A2977 RMK T02401040 IEM_DS3505
ZBAA,1990-04-08 05:00,ZBAA 080500Z AUTO 28008KT 6SM 25/M04 A2974 RMK T02501040 IEM_DS3505
ZBAA,1990-04-08 06:00,ZBAA 080600Z AUTO 36012KT 19SM 24/M07 A2971 RMK SLP074 T02371074 4////0078 57029 IEM_DS3505
ZBAA,1990-04-08 07:00,ZBAA 080700Z AUTO 27010G19KT 7SM 26/M04 A2968 RMK T02601040 IEM_DS3505
ZBAA,1990-04-08 08:00,ZBAA 080800Z AUTO 26010KT 7SM 26/M04 A2965 RMK T02601040 IEM_DS3505
ZBAA,1990-04-08 09:00,ZBAA 080900Z AUTO 20008G19KT 19SM 23/M05 A2968 RMK SLP059 T02321048 57015 IEM_DS3505
ZBAA,1990-04-08 10:00,ZBAA 081000Z AUTO ////06KT 6SM 24/M04 A2965 RMK T02401040 IEM_DS3505
ZBAA,1990-04-08 11:00,ZBAA 081100Z AUTO 20006KT 6SM 20/M01 A2965 RMK T02001010 IEM_DS3505
ZBAA,1990-04-08 12:00,ZBAA 081200Z AUTO 20008KT 12SM 19/00 A2968 RMK SLP067 T01930002 52008 IEM_DS3505
ZBAA,1990-04-08 13:00,ZBAA 081300Z AUTO 21004KT 7SM 17/00 A2968 RMK T01700000 IEM_DS3505
ZBAA,1990-04-08 14:00,ZBAA 081400Z AUTO ////06KT 6SM 17/00 A2968 RMK T01700000 IEM_DS3505
ZBAA,1990-04-08 15:00,ZBAA 081500Z AUTO 20006KT 12SM 16/02 RMK SLP070 T01550021 52004 IEM_DS3505
ZBAA,1990-04-08 18:00,ZBAA 081800Z AUTO 00000KT 12SM 14/00 RMK SLP069 T01390002 40246//// 57001 IEM_DS3505
ZBAA,1990-04-08 20:00,ZBAA 082000Z AUTO 00000KT 6SM 09/03 A2971 RMK T00900030 IEM_DS3505
ZBAA,1990-04-08 21:00,ZBAA 082100Z AUTO 00000KT 12SM 09/03 A2971 RMK SLP073 T00870026 52003 IEM_DS3505
ZBAA,1990-04-08 22:00,ZBAA 082200Z AUTO 02004KT 6SM 08/02 A2971 RMK T00800020 IEM_DS3505
ZBAA,1990-04-08 23:00,ZBAA 082300Z AUTO 02006KT 7SM 11/01 A2974 RMK T01100010 IEM_DS3505
ZBAA,1990-04-09 00:00,ZBAA 090000Z AUTO 02004KT 4SM 14/M00 RMK SLP083 T01431002 52010 IEM_DS3505
ZBAA,1990-04-09 01:00,ZBAA 090100Z AUTO ////06KT 7SM 19/03 A2974 RMK T01900030 IEM_DS3505
ZBAA,1990-04-09 02:00,ZBAA 090200Z AUTO ////04KT 7SM 22/04 A2974 RMK T02200040 IEM_DS3505
ZBAA,1990-04-09 03:00,ZBAA 090300Z AUTO 14002KT 4SM 22/01 A2974 RMK SLP084 T02200010 52002 IEM_DS3505
ZBAA,1990-04-09 04:00,ZBAA 090400Z AUTO ////04KT 7SM 26/04 A2971 RMK T02600040 IEM_DS3505
ZBAA,1990-04-09 05:00,ZBAA 090500Z AUTO ////04KT 7SM 27/M01 A2968 RMK T02701010 IEM_DS3505
ZBAA,1990-04-09 06:00,ZBAA 090600Z AUTO 16008KT 9SM 25/M03 A2965 RMK SLP061 T02501030 4////0079 57023 IEM_DS3505
ZBAA,1990-04-09 07:00,ZBAA 090700Z AUTO 16008KT 9SM 25/M03 A2965 RMK SLP061 T02501030 4////0079 57023 IEM_DS3505
ZBAA,1990-04-09 08:00,ZBAA 090800Z AUTO 19008KT 7SM 28/M05 A2962 RMK T02801050 IEM_DS3505
ZBAA,1990-04-09 09:00,ZBAA 090900Z AUTO 20008KT 9SM 25/M05 A2962 RMK SLP050 T02501050 57012 IEM_DS3505
ZBAA,1990-04-09 10:00,ZBAA 091000Z AUTO ////06KT 7SM 25/M02 A2962 RMK T02501020 IEM_DS3505
ZBAA,1990-04-09 11:00,ZBAA 091100Z AUTO 20004KT 7SM 21/M01 RMK T02101010 IEM_DS3505
ZBAA,1990-04-09 12:00,ZBAA 091200Z AUTO 20004KT 7SM 21/01 A2968 RMK SLP066 T02060009 52016 IEM_DS3505
ZBAA,1990-04-09 13:00,ZBAA 091300Z AUTO 20004KT 7SM 19/M01 A2971 RMK T01901010 IEM_DS3505
ZBAA,1990-04-09 14:00,ZBAA 091400Z AUTO 17004KT 7SM 18/M01 A2971 RMK T01801010 IEM_DS3505
ZBAA,1990-04-09 15:00,ZBAA 091500Z AUTO 20004KT 6SM 19/01 A2971 RMK SLP075 T01860007 52010 IEM_DS3505
ZBAA,1990-04-09 18:00,ZBAA 091800Z AUTO 00000KT 6SM 14/04 RMK SLP080 T01450039 40259//// 52005 IEM_DS3505
ZBAA,1990-04-09 20:00,ZBAA 092000Z AUTO 10004KT 7SM 11/05 A2977 RMK T01100050 IEM_DS3505
ZBAA,1990-04-09 21:00,ZBAA 092100Z AUTO 00000KT 6SM 11/04 A2977 RMK SLP093 T01080038 52012 IEM_DS3505
ZBAA,1990-04-09 22:00,ZBAA 092200Z AUTO 00000KT 4SM 09/06 A2980 RMK T00900060 IEM_DS3505
ZBAA,1990-04-09 23:00,ZBAA 092300Z AUTO 00000KT 3SM 10/07 A2980 RMK T01000070 IEM_DS3505
ZBAA,1990-04-10 00:00,ZBAA 100000Z AUTO 00000KT 4SM 13/04 A2983 RMK SLP115 T01320045 52022 IEM_DS3505
ZBAA,1990-04-10 01:00,ZBAA 100100Z AUTO 11004KT 4SM 17/09 A2985 RMK T01700090 IEM_DS3505
ZBAA,1990-04-10 03:00,ZBAA 100300Z AUTO 14004KT 2 1/2SM 20/06 A2988 RMK SLP124 T01960057 52009 IEM_DS3505
ZBAA,1990-04-10 04:00,ZBAA 100400Z AUTO 17008KT 7SM 23/11 A2985 RMK T02300110 IEM_DS3505
ZBAA,1990-04-10 05:00,ZBAA 100500Z AUTO ////06KT 7SM 25/11 A2983 RMK T02500110 IEM_DS3505
ZBAA,1990-04-10 06:00,ZBAA 100600Z AUTO 18010KT 2 1/2SM 23/08 A2983 RMK SLP111 T02340085 4////0104 57012 IEM_DS3505
ZBAA,1990-04-10 07:00,ZBAA 100700Z AUTO 19010KT 7SM 27/08 A2980 RMK T02700080 IEM_DS3505
ZBAA,1990-04-10 08:00,ZBAA 100800Z AUTO 19010KT 7SM 27/05 A2980 RMK T02700050 IEM_DS3505
ZBAA,1990-04-10 09:00,ZBAA 100900Z AUTO 18014KT 6SM 24/04 A2983 RMK SLP110 T02350038 57002 IEM_DS3505
ZBAA,1990-04-10 10:00,ZBAA 101000Z AUTO 19008KT 6SM 24/03 A2983 RMK T02400030 IEM_DS3505
ZBAA,1990-04-10 11:00,ZBAA 101100Z AUTO 16004KT 6SM 22/04 A2983 RMK T02200040 IEM_DS3505
ZBAA,1990-04-10 12:00,ZBAA 101200Z AUTO 18006KT 12SM 21/06 A2988 RMK SLP127 T02130055 52017 IEM_DS3505
ZBAA,1990-04-10 13:00,ZBAA 101300Z AUTO 13004KT 6SM 19/07 A2991 RMK T01900070 IEM_DS3505
ZBAA,1990-04-10 14:00,ZBAA 101400Z AUTO 16004KT 6SM 19/06 A2991 RMK T01900060 IEM_DS3505
ZBAA,1990-04-10 15:00,ZBAA 101500Z AUTO 20008KT 12SM 18/06 A2991 RMK SLP141 T01850065 52014 IEM_DS3505
ZBAA,1990-04-10 18:00,ZBAA 101800Z AUTO 14002KT 9SM 16/07 RMK SLP142 T01640072 40249//// 52002 IEM_DS3505
ZBAA,1990-04-10 20:00,ZBAA 102000Z AUTO 07002KT 5SM 12/08 A2991 RMK T01200080 IEM_DS3505
ZBAA,1990-04-10 21:00,ZBAA 102100Z AUTO 04004KT 6SM 13/08 A2994 RMK SLP153 T01310085 52010 IEM_DS3505
ZBAA,1990-04-10 22:00,ZBAA 102200Z AUTO ////02KT 6SM 11/08 A2997 RMK T01100080 IEM_DS3505
ZBAA,1990-04-11 00:00,ZBAA 110000Z AUTO 34002KT 4SM 14/02 A3003 RMK SLP178 T01390019 52025 IEM_DS3505
ZBAA,1990-04-11 01:00,ZBAA 110100Z AUTO 12002KT 6SM 18/10 A3003 RMK T01800100 IEM_DS3505
ZBAA,1990-04-11 02:00,ZBAA 110200Z AUTO ////06KT 6SM 21/05 A3006 RMK T02100050 IEM_DS3505
ZBAA,1990-04-11 03:00,ZBAA 110300Z AUTO 02016KT 6SM 20/M06 A3006 RMK SLP195 T01971058 52017 IEM_DS3505
ZBAA,1990-04-11 04:00,ZBAA 110400Z AUTO ////06KT 6SM 23/00 A3003 RMK T02300000 IEM_DS3505
ZBAA,1990-04-11 05:00,ZBAA 110500Z AUTO ////06KT 6SM 23/00 A3003 RMK T02300000 IEM_DS3505
ZBAA,1990-04-11 06:00,ZBAA 110600Z AUTO 34008KT 6SM 20/M04 A3003 RMK SLP189 T02011042 4////0121 57006 IEM_DS3505
ZBAA,1990-04-11 07:00,ZBAA 110700Z AUTO ////06KT 6SM 24/M03 A3000 RMK T02401030 IEM_DS3505
ZBAA,1990-04-11 08:00,ZBAA 110800Z AUTO ////04KT 6SM 24/M03 A3000 RMK T02401030 IEM_DS3505
ZBAA,1990-04-11 09:00,ZBAA 110900Z AUTO 32006KT 6SM 20/M02 A3000 RMK SLP180 T01971024 57009 IEM_DS3505
ZBAA,1990-04-11 10:00,ZBAA 111000Z AUTO ////04KT 6SM 21/M02 A3000 RMK T02101020 IEM_DS3505
ZBAA,1990-04-11 11:00,ZBAA 111100Z AUTO 32006KT 6SM 19/M02 A3003 RMK T01901020 IEM_DS3505
ZBAA,1990-04-11 12:00,ZBAA 111200Z AUTO 02012KT 6SM 16/M04 A3006 RMK SLP204 T01611041 52023 IEM_DS3505
ZBAA,1990-04-11 13:00,ZBAA 111300Z AUTO ////06KT 6SM 16/02 A3009 RMK T01600020 IEM_DS3505
ZBAA,1990-04-11 14:00,ZBAA 111400Z AUTO 36004KT 6SM 16/M02 A3012 RMK T01601020 IEM_DS3505
ZBAA,1990-04-11 15:00,ZBAA 111500Z AUTO 02008KT 6SM 15/M03 A3012 RMK SLP221 T01481029 52017 IEM_DS3505
ZBAA,1990-04-11 18:00,ZBAA 111800Z AUTO 02006KT 6SM 14/M01 RMK SLP221 T01391011 40205//// 54000 IEM_DS3505
ZBAA,1990-04-11 21:00,ZBAA 112100Z AUTO 02010G19KT 6SM 12/M00 A3012 RMK SLP223 T01251005 52002 IEM_DS3505
ZBAA,1990-04-11 22:00,ZBAA 112200Z AUTO 03008KT 6SM 12/M06 A3015 RMK T01201060 IEM_DS3505
ZBAA,1990-04-11 23:00,ZBAA 112300Z AUTO 02008KT 6SM 12/M06 A3015 RMK T01201060 IEM_DS3505
ZBAA,1990-04-12 00:00,ZBAA 120000Z AUTO 04010G19KT 7SM 10/01 A3015 RMK SLP228 T01030008 52004 IEM_DS3505
ZBAA,1990-04-12 01:00,ZBAA 120100Z AUTO 03010G19KT 7SM 13/M10 A3012 RMK T01301100 IEM_DS3505
ZBAA,1990-04-12 02:00,ZBAA 120200Z AUTO 03010KT 7SM 13/M10 A3012 RMK T01301100 IEM_DS3505
ZBAA,1990-04-12 03:00,ZBAA 120300Z AUTO 04010KT 9SM 12/M10 A3012 RMK SLP215 T01241099 57012 IEM_DS3505
ZBAA,1990-04-12 04:00,ZBAA 120400Z AUTO 03008KT 7SM 13/M10 A3009 RMK T01301100 IEM_DS3505
ZBAA,1990-04-12 05:00,ZBAA 120500Z AUTO 36010KT 7SM 12/M09 A3009 RMK T01201090 IEM_DS3505
ZBAA,1990-04-12 06:00,ZBAA 120600Z AUTO 09008KT 9SM 11/M06 A3006 RMK SLP192 T01121056 4////0100 57023 IEM_DS3505
ZBAA,1990-04-12 07:00,ZBAA 120700Z AUTO ////04KT 7SM 14/M08 A3000 RMK T01401080 IEM_DS3505
ZBAA,1990-04-12 08:00,ZBAA 120800Z AUTO ////06KT 7SM 14/M07 A2997 RMK T01401070 IEM_DS3505
ZBAA,1990-04-12 09:00,ZBAA 120900Z AUTO 00000KT 9SM 12/M06 A2994 RMK SLP162 T01221059 57030 IEM_DS3505
ZBAA,1990-04-12 10:00,ZBAA 121000Z AUTO 27002KT 6SM 14/M08 A2994 RMK T01401080 IEM_DS3505
ZBAA,1990-04-12 11:00,ZBAA 121100Z AUTO 26002KT 6SM 12/M05 A2991 RMK T01201050 IEM_DS3505
ZBAA,1990-04-12 12:00,ZBAA 121200Z AUTO 22006KT 9SM 10/M01 RMK SLP155 T01051012 57008 IEM_DS3505
ZBAA,1990-04-12 13:00,ZBAA 121300Z AUTO 05002KT 6SM 11/M04 A2994 RMK T01101040 IEM_DS3505
ZBAA,1990-04-12 14:00,ZBAA 121400Z AUTO ////04KT 6SM 11/M08 A2994 RMK T01101080 IEM_DS3505
ZBAA,1990-04-12 15:00,ZBAA 121500Z AUTO 00000KT 9SM 10/02 A2991 RMK SLP153 T00980025 57002 IEM_DS3505
ZBAA,1990-04-12 18:00,ZBAA 121800Z AUTO 00000KT 5SM 09/M06 RMK SLP127 T00931060 40139//// 57026 IEM_DS3505
ZBAA,1990-04-12 20:00,ZBAA 122000Z AUTO ////06KT 6SM 10/M09 A2980 RMK T01001090 IEM_DS3505
ZBAA,1990-04-12 21:00,ZBAA 122100Z AUTO 00000KT 6SM 09/M08 A2980 RMK SLP108 T00861079 57018 IEM_DS3505
ZBAA,1990-04-12 22:00,ZBAA 122200Z AUTO ////04KT 6SM 09/M07 A2980 RMK T00901070 IEM_DS3505
ZBAA,1990-04-12 23:00,ZBAA 122300Z AUTO 04008G17KT 6SM 09/M05 A2980 RMK T00901050 IEM_DS3505
ZBAA,1990-04-13 00:00,ZBAA 130000Z AUTO 00000KT 9SM 09/M06 A2980 RMK SLP111 T00891059 52002 IEM_DS3505
ZBAA,1990-04-13 01:00,ZBAA 130100Z AUTO 04008G17KT 6SM 10/M03 A2980 RMK T01001030 IEM_DS3505
ZBAA,1990-04-13 02:00,ZBAA 130200Z AUTO 03008KT 6SM 11/M03 A2980 RMK T01101030 IEM_DS3505
ZBAA,1990-04-13 03:00,ZBAA 130300Z AUTO 36010KT 9SM 11/M05 A2983 RMK SLP108 T01081054 57002 IEM_DS3505
ZBAA,1990-04-13 05:00,ZBAA 130500Z AUTO 31010KT 6SM A2980 RMK IEM_DS3505
ZBAA,1990-04-13 06:00,ZBAA 130600Z AUTO 34006G21KT 12SM 11/M02 A2977 RMK SLP092 T01101025 4////0081 57016 IEM_DS3505
ZBAA,1990-04-13 07:00,ZBAA 130700Z AUTO 32010KT 6SM 12/M01 A2974 RMK T01201010 IEM_DS3505
ZBAA,1990-04-13 08:00,ZBAA 130800Z AUTO 34010KT 6SM 14/M01 A2971 RMK T01401010 IEM_DS3505
ZBAA,1990-04-13 09:00,ZBAA 130900Z AUTO 29010KT 11SM 13/M03 RMK SLP072 T01301029 57020 IEM_DS3505
ZBAA,1990-04-13 11:00,ZBAA 131100Z AUTO 15002KT 6SM 12/00 A2971 RMK T01200000 IEM_DS3505
ZBAA,1990-04-13 12:00,ZBAA 131200Z AUTO 16002KT 12SM 12/00 A2974 RMK SLP085 T01210000 52013 IEM_DS3505
ZBAA,1990-04-13 13:00,ZBAA 131300Z AUTO 00000KT 6SM 11/00 A2977 RMK T01100000 IEM_DS3505
ZBAA,1990-04-13 14:00,ZBAA 131400Z AUTO 25002KT 6SM 10/01 A2977 RMK T01000010 IEM_DS3505
ZBAA,1990-04-13 15:00,ZBAA 131500Z AUTO 20004KT 12SM 10/01 A2977 RMK SLP094 T01050014 52009 IEM_DS3505
ZBAA,1990-04-13 17:00,ZBAA 131700Z AUTO 00000KT 6SM 09/01 A2974 RMK T00900010 IEM_DS3505
ZBAA,1990-04-13 18:00,ZBAA 131800Z AUTO 20006KT 12SM 09/01 RMK SLP079 T00890011 40134//// 57015 IEM_DS3505
ZBAA,1990-04-13 20:00,ZBAA 132000Z AUTO 00000KT 6SM 07/01 A2971 RMK T00700010 IEM_DS3505
ZBAA,1990-04-13 21:00,ZBAA 132100Z AUTO 00000KT 17SM 08/02 A2971 RMK SLP069 T00780023 57010 IEM_DS3505
ZBAA,1990-04-13 22:00,ZBAA 132200Z AUTO 00000KT 6SM 06/01 A2971 RMK T00600010 IEM_DS3505
ZBAA,1990-04-13 23:00,ZBAA 132300Z AUTO 03002KT 6SM 09/03 A2971 RMK T00900030 IEM_DS3505
ZBAA,1990-04-14 00:00,ZBAA 140000Z AUTO 00000KT 6SM 12/02 A2971 RMK SLP071 T01170025 IEM_DS3505
ZBAA,1990-04-14 01:00,ZBAA 140100Z AUTO 08002KT 6SM 16/03 A2968 RMK T01600030 IEM_DS3505
ZBAA,1990-04-14 02:00,ZBAA 140200Z AUTO 06002KT 6SM 19/02 A2968 RMK T01900020 IEM_DS3505
ZBAA,1990-04-14 03:00,ZBAA 140300Z AUTO 34008KT 11SM 18/ A2968 RMK SLP063 57007 IEM_DS3505
ZBAA,1990-04-14 04:00,ZBAA 140400Z AUTO ////02KT 6SM 22/M02 A2962 RMK T02201020 IEM_DS3505
ZBAA,1990-04-14 04:15,ZBAA 140415Z AUTO ////02KT 6SM 22/M02 A2962 RMK T02201020 IEM_DS3505
ZBAA,1990-04-14 05:00,ZBAA 140500Z AUTO ////04KT 6SM 23/M05 A2959 RMK T02301050 IEM_DS3505
ZBAA,1990-04-14 06:00,ZBAA 140600Z AUTO 32010KT 7SM 21/ A2956 RMK SLP035 4////0066 57028 IEM_DS3505
ZBAA,1990-04-14 07:00,ZBAA 140700Z AUTO ////02KT 6SM 24/M05 A2956 RMK T02401050 IEM_DS3505
ZBAA,1990-04-14 08:00,ZBAA 140800Z AUTO ////06KT 6SM 22/M05 A2956 RMK T02201050 IEM_DS3505
ZBAA,1990-04-14 09:00,ZBAA 140900Z AUTO 32010KT 4SM 22/ A2956 RMK SLP028 57007 IEM_DS3505
ZBAA,1990-04-14 10:00,ZBAA 141000Z AUTO ////02KT 6SM 21/M05 A2956 RMK T02101050 IEM_DS3505
ZBAA,1990-04-14 11:00,ZBAA 141100Z AUTO ////06KT 6SM 20/M08 A2959 RMK T02001080 IEM_DS3505
ZBAA,1990-04-14 12:00,ZBAA 141200Z AUTO 36004KT 6SM 19/M07 A2962 RMK SLP046 T01941073 52018 IEM_DS3505
ZBAA,1990-04-14 13:00,ZBAA 141300Z AUTO 36002KT 6SM 17/M06 A2965 RMK T01701060 IEM_DS3505
ZBAA,1990-04-14 14:00,ZBAA 141400Z AUTO 12012KT 6SM 14/01 A2968 RMK T01400010 IEM_DS3505
ZBAA,1990-04-14 15:00,ZBAA 141500Z AUTO 09006KT 6SM 14/00 RMK SLP072 T01450001 52026 IEM_DS3505
ZBAA,1990-04-14 18:00,ZBAA 141800Z AUTO 36004KT 6SM 09/02 RMK SLP099 T00930019 40228//// 52027 IEM_DS3505
ZBAA,1990-04-14 20:00,ZBAA 142000Z AUTO 27002KT 6SM 06/01 A2977 RMK T00600010 IEM_DS3505
ZBAA,1990-04-14 21:00,ZBAA 142100Z AUTO 00000KT 7SM 06/02 A2977 RMK SLP097 T00610019 57002 IEM_DS3505
ZBAA,1990-04-14 22:00,ZBAA 142200Z AUTO 27002KT 7SM 06/01 A2977 RMK T00600010 IEM_DS3505
ZBAA,1990-04-14 23:00,ZBAA 142300Z AUTO 00000KT 4SM 08/03 A2980 RMK T00800030 IEM_DS3505
ZBAA,1990-04-15 00:00,ZBAA 150000Z AUTO 32002KT 7SM 12/02 A2983 RMK SLP112 T01230016 52015 IEM_DS3505
ZBAA,1990-04-15 02:00,ZBAA 150200Z AUTO ////06KT 6SM 20/M01 A2983 RMK T02001010 IEM_DS3505
ZBAA,1990-04-15 03:00,ZBAA 150300Z AUTO 34008KT 19SM 20/M09 A2980 RMK SLP112 T01971090 54000 IEM_DS3505
ZBAA,1990-04-15 04:00,ZBAA 150400Z AUTO ////04KT 7SM 23/M04 A2980 RMK T02301040 IEM_DS3505
ZBAA,1990-04-15 05:00,ZBAA 150500Z AUTO ////06KT 7SM 24/M04 A2980 RMK T02401040 IEM_DS3505
ZBAA,1990-04-15 06:00,ZBAA 150600Z AUTO 36006KT 19SM 22/M08 A2977 RMK SLP098 T02251082 4////0054 57014 IEM_DS3505
ZBAA,1990-04-15 07:00,ZBAA 150700Z AUTO ////04KT 6SM 25/M05 A2974 RMK T02501050 IEM_DS3505
ZBAA,1990-04-15 08:00,ZBAA 150800Z AUTO ////06KT 6SM 25/M06 A2974 RMK T02501060 IEM_DS3505
ZBAA,1990-04-15 09:00,ZBAA 150900Z AUTO 36006KT 12SM 22/M12 A2977 RMK SLP094 T02201115 57004 IEM_DS3505
ZBAA,1990-04-15 10:00,ZBAA 151000Z AUTO ////02KT 6SM 22/M04 A2977 RMK T02201040 IEM_DS3505
ZBAA,1990-04-15 11:00,ZBAA 151100Z AUTO ////02KT 7SM 19/M04 A2980 RMK T01901040 IEM_DS3505
ZBAA,1990-04-15 12:00,ZBAA 151200Z AUTO 00000KT 11SM 18/M02 A2985 RMK SLP124 T01851023 52030 IEM_DS3505
ZBAA,1990-04-15 13:00,ZBAA 151300Z AUTO ////06KT 7SM 14/03 A2991 RMK T01400030 IEM_DS3505
ZBAA,1990-04-15 14:00,ZBAA 151400Z AUTO 14008KT 7SM 13/03 A2994 RMK T01300030 IEM_DS3505
ZBAA,1990-04-15 15:00,ZBAA 151500Z AUTO 00000KT 9SM 12/04 A2997 RMK SLP163 T01160035 52038 IEM_DS3505
ZBAA,1990-04-15 18:00,ZBAA 151800Z AUTO 00000KT 12SM 10/02 RMK SLP168 T00990021 40233//// 52006 IEM_DS3505
ZBAA,1990-04-15 20:00,ZBAA 152000Z AUTO 10002KT 7SM 08/03 A3000 RMK T00800030 IEM_DS3505
ZBAA,1990-04-15 21:00,ZBAA 152100Z AUTO 00000KT 12SM 08/03 A3000 RMK SLP179 T00760031 52010 IEM_DS3505
ZBAA,1990-04-15 22:00,ZBAA 152200Z AUTO 00000KT 7SM 06/03 A3003 RMK T00600030 IEM_DS3505
ZBAA,1990-04-15 23:00,ZBAA 152300Z AUTO 33004KT 7SM 08/03 A3006 RMK T00800030 IEM_DS3505
ZBAA,1990-04-16 00:00,ZBAA 160000Z AUTO 20002KT 6SM 12/03 A3006 RMK SLP191 T01150033 52012 IEM_DS3505
ZBAA,1990-04-16 01:00,ZBAA 160100Z AUTO 34002KT 6SM 16/03 A3006 RMK T01600030 IEM_DS3505
ZBAA,1990-04-16 02:00,ZBAA 160200Z AUTO 00000KT 6SM 19/04 A3003 RMK T01900040 IEM_DS3505
ZBAA,1990-04-16 03:00,ZBAA 160300Z AUTO 00000KT 6SM 18/01 A3003 RMK SLP183 T01750007 57008 IEM_DS3505
ZBAA,1990-04-16 04:00,ZBAA 160400Z AUTO ////04KT 7SM 20/01 A3000 RMK T02000010 IEM_DS3505
ZBAA,1990-04-16 05:00,ZBAA 160500Z AUTO ////04KT 6SM 21/M01 A2997 RMK T02101010 IEM_DS3505
ZBAA,1990-04-16 06:00,ZBAA 160600Z AUTO 11004KT 5SM 19/00 A2997 RMK SLP160 T01900002 4////0068 57023 IEM_DS3505
ZBAA,1990-04-16 07:00,ZBAA 160700Z AUTO ////04KT 6SM 23/M01 A2994 RMK T02301010 IEM_DS3505
ZBAA,1990-04-16 08:00,ZBAA 160800Z AUTO ////06KT 7SM 23/M03 A2991 RMK T02301030 IEM_DS3505
ZBAA,1990-04-16 09:00,ZBAA 160900Z AUTO 20010KT 7SM 19/M02 A2991 RMK SLP147 T01911023 57013 IEM_DS3505
ZBAA,1990-04-16 10:00,ZBAA 161000Z AUTO ////06KT 7SM 20/M02 A2991 RMK T02001020 IEM_DS3505
ZBAA,1990-04-16 11:00,ZBAA 161100Z AUTO 16004KT 7SM 18/M02 A2994 RMK T01801020 IEM_DS3505
ZBAA,1990-04-16 12:00,ZBAA 161200Z AUTO 18006KT 12SM 17/M00 A2997 RMK SLP161 T01691004 52014 IEM_DS3505
ZBAA,1990-04-16 13:00,ZBAA 161300Z AUTO 13010KT 7SM 13/05 A3000 RMK T01300050 IEM_DS3505
ZBAA,1990-04-16 14:00,ZBAA 161400Z AUTO 12008KT 7SM 11/04 A3003 RMK T01100040 IEM_DS3505
ZBAA,1990-04-16 15:00,ZBAA 161500Z AUTO ////04KT 7SM 11/03 A3006 RMK T01100030 IEM_DS3505
ZBAA,1990-04-16 18:00,ZBAA 161800Z AUTO 00000KT 9SM 10/04 RMK SLP196 T01010045 40199//// 52004 IEM_DS3505
ZBAA,1990-04-16 20:00,ZBAA 162000Z AUTO 12006KT 7SM 09/04 A3006 RMK T00900040 IEM_DS3505
ZBAA,1990-04-16 21:00,ZBAA 162100Z AUTO 00000KT 6SM 07/04 A3006 RMK SLP192 T00720042 57004 IEM_DS3505
ZBAA,1990-04-16 23:00,ZBAA 162300Z AUTO ////04KT 6SM 09/04 A3006 RMK T00900040 IEM_DS3505
ZBAA,1990-04-17 00:00,ZBAA 170000Z AUTO 00000KT 5SM 09/04 A3003 RMK SLP191 T00940044 57001 IEM_DS3505
ZBAA,1990-04-17 01:00,ZBAA 170100Z AUTO ////06KT 6SM 14/03 A3003 RMK T01400030 IEM_DS3505
ZBAA,1990-04-17 02:00,ZBAA 170200Z AUTO ////06KT 6SM 16/03 A3003 RMK T01600030 IEM_DS3505
ZBAA,1990-04-17 03:00,ZBAA 170300Z AUTO 00000KT 5SM 13/02 A3000 RMK SLP175 T01330017 57016 IEM_DS3505
ZBAA,1990-04-17 04:00,ZBAA 170400Z AUTO 13008KT 6SM 17/03 A2997 RMK T01700030 IEM_DS3505
ZBAA,1990-04-17 05:00,ZBAA 170500Z AUTO 14008KT 6SM 19/04 A2994 RMK T01900040 IEM_DS3505
ZBAA,1990-04-17 06:00,ZBAA 170600Z AUTO 11004KT 6SM 16/04 A2994 RMK SLP150 T01610041 4////0069 57025 IEM_DS3505
ZBAA,1990-04-17 07:00,ZBAA 170700Z AUTO ////06KT 6SM 19/03 A2991 RMK T01900030 IEM_DS3505
ZBAA,1990-04-17 08:00,ZBAA 170800Z AUTO ////06KT 6SM 19/03 A2991 RMK T01900030 IEM_DS3505
ZBAA,1990-04-17 09:00,ZBAA 170900Z AUTO 11006KT 6SM 16/04 A2988 RMK SLP136 T01570038 57014 IEM_DS3505
ZBAA,1990-04-17 11:00,ZBAA 171100Z AUTO 15008KT 7SM 15/03 A2991 RMK T01500030 IEM_DS3505
ZBAA,1990-04-17 12:00,ZBAA 171200Z AUTO 09002KT 6SM 13/06 A2991 RMK 60001 SLP141 T01270064 52005 IEM_DS3505
ZBAA,1990-04-17 13:00,ZBAA 171300Z AUTO 12010KT 7SM 12/06 A2991 RMK T01200060 IEM_DS3505
ZBAA,1990-04-17 15:00,ZBAA 171500Z AUTO 09002KT 5SM 10/07 RMK SLP147 T01050071 52006 IEM_DS3505
ZBAA,1990-04-17 18:00,ZBAA 171800Z AUTO 04004KT 5SM 09/08 RMK 60028 SLP137 T00920084 40165//// 57010 IEM_DS3505
ZBAA,1990-04-17 20:00,ZBAA 172000Z AUTO ////06KT 7SM 09/08 A2988 RMK T00900080 IEM_DS3505
ZBAA,1990-04-17 21:00,ZBAA 172100Z AUTO 07004KT 4SM 09/ RMK 70055 SLP131 57006 IEM_DS3505
ZBAA,1990-04-17 22:00,ZBAA 172200Z AUTO ////04KT 4SM 09/08 A2985 RMK T00900080 IEM_DS3505
ZBAA,1990-04-18 00:00,ZBAA 180000Z AUTO 04002KT 1 1/2SM 09/08 A2988 RMK 60035 70063 SLP133 T00870083 52002 IEM_DS3505
ZBAA,1990-04-18 01:00,ZBAA 180100Z AUTO ////02KT 4SM 10/09 A3000 RMK T01000090 IEM_DS3505
ZBAA,1990-04-18 01:33,ZBAA 180133Z AUTO ////02KT 3SM RMK IEM_DS3505
ZBAA,1990-04-18 03:00,ZBAA 180300Z AUTO 07004KT 2 1/2SM 09/08 A2985 RMK SLP131 T00910083 57003 IEM_DS3505
ZBAA,1990-04-18 04:00,ZBAA 180400Z AUTO 04002KT 2 1/2SM 10/10 A2985 RMK T01000100 IEM_DS3505
ZBAA,1990-04-18 05:00,ZBAA 180500Z AUTO 04002KT 2SM 11/10 A2985 RMK T01100100 IEM_DS3505
ZBAA,1990-04-18 06:00,ZBAA 180600Z AUTO 09004KT 2SM 10/08 A2983 RMK 60002 SLP119 T00970085 4////0081 57012 IEM_DS3505
ZBAA,1990-04-18 07:00,ZBAA 180700Z AUTO ////04KT 1SM 11/10 A2983 RMK T01100100 IEM_DS3505
ZBAA,1990-04-18 08:00,ZBAA 180800Z AUTO ////04KT 1SM 11/10 A2980 RMK T01100100 IEM_DS3505
ZBAA,1990-04-18 09:00,ZBAA 180900Z AUTO 07002KT 1SM 10/09 A2980 RMK SLP109 T01010091 57010 IEM_DS3505
ZBAA,1990-04-18 10:00,ZBAA 181000Z AUTO 13002KT 2 1/2SM 11/10 A2980 RMK T01100100 IEM_DS3505
ZBAA,1990-04-18 11:00,ZBAA 181100Z AUTO 00000KT 2SM 11/10 A2980 RMK T01100100 IEM_DS3505
ZBAA,1990-04-18 12:00,ZBAA 181200Z AUTO 07002KT 1SM 10/09 A2980 RMK SLP109 T01010091 54000 IEM_DS3505
ZBAA,1990-04-18 13:00,ZBAA 181300Z AUTO 00000KT 11/09 A2983 RMK T01100090 IEM_DS3505
ZBAA,1990-04-18 14:00,ZBAA 181400Z AUTO 00000KT 1 1/2SM 11/09 A2983 RMK T01100090 IEM_DS3505
ZBAA,1990-04-18 15:00,ZBAA 181500Z AUTO 00000KT 1SM 10/09 A2980 RMK SLP107 T01030093 57002 IEM_DS3505
ZBAA,1990-04-18 18:00,ZBAA 181800Z AUTO 16002KT 2SM 10/08 RMK 60000 SLP083 T01030085 40104//// 57023 IEM_DS3505
ZBAA,1990-04-18 20:00,ZBAA 182000Z AUTO 17002KT 5SM 11/08 A2968 RMK T01100080 IEM_DS3505
ZBAA,1990-04-18 21:00,ZBAA 182100Z AUTO 09002KT 1SM 10/09 A2968 RMK 70012 SLP058 T01010091 57025 IEM_DS3505
ZBAA,1990-04-18 22:00,ZBAA 182200Z AUTO 12004KT 4SM 11/09 A2968 RMK T01100090 IEM_DS3505
ZBAA,1990-04-18 23:00,ZBAA 182300Z AUTO 14006KT 3SM 11/09 A2968 RMK T01100090 IEM_DS3505
ZBAA,1990-04-19 00:00,ZBAA 190000Z AUTO 00000KT 3/8SM 10/10 A2968 RMK 60002 70004 SLP068 T01030097 52010 IEM_DS3505
ZBAA,1990-04-19 03:00,ZBAA 190300Z AUTO 04002KT 1SM 12/10 A2971 RMK SLP075 T01150101 52007 IEM_DS3505
ZBAA,1990-04-19 04:00,ZBAA 190400Z AUTO 11004KT 2 1/2SM 13/11 A2971 RMK T01300110 IEM_DS3505
ZBAA,1990-04-19 05:00,ZBAA 190500Z AUTO 12006KT 3SM 15/11 A2971 RMK T01500110 IEM_DS3505
ZBAA,1990-04-19 06:00,ZBAA 190600Z AUTO 14004KT 1 1/2SM 16/11 A2971 RMK 60004 SLP072 T01590109 4////0096 57003 IEM_DS3505
ZBAA,1990-04-19 07:00,ZBAA 190700Z AUTO ////06KT 4SM 18/11 A2971 RMK T01800110 IEM_DS3505
ZBAA,1990-04-19 08:00,ZBAA 190800Z AUTO ////06KT 4SM 17/10 A2971 RMK T01700100 IEM_DS3505
ZBAA,1990-04-19 09:00,ZBAA 190900Z AUTO 16002KT 2SM 15/11 A2971 RMK SLP075 T01530106 52003 IEM_DS3505
ZBAA,1990-04-19 12:00,ZBAA 191200Z AUTO 18002KT 2 1/2SM 14/11 RMK SLP102 T01400108 52027 IEM_DS3505
ZBAA,1990-04-19 13:00,ZBAA 191300Z AUTO 13006KT 2SM 12/10 A2983 RMK T01200100 IEM_DS3505
ZBAA,1990-04-19 14:00,ZBAA 191400Z AUTO 11004KT 1 1/2SM 11/09 A2983 RMK T01100090 IEM_DS3505
ZBAA,1990-04-19 15:00,ZBAA 191500Z AUTO 00000KT 2SM 11/09 A2985 RMK SLP122 T01060094 52020 IEM_DS3505
ZBAA,1990-04-19 16:00,ZBAA 191600Z AUTO 00000KT 1/2SM 10/09 A2985 RMK T01000090 IEM_DS3505
ZBAA,1990-04-19 18:00,ZBAA 191800Z AUTO 00000KT 2SM 11/09 RMK SLP124 T01080094 40168//// 52002 IEM_DS3505
ZBAA,1990-04-19 20:00,ZBAA 192000Z AUTO 00000KT 1/8SM 11/09 A2985 RMK T01100090 IEM_DS3505
ZBAA,1990-04-19 21:00,ZBAA 192100Z AUTO 00000KT 3/8SM 06/06 A2988 RMK 70008 SLP129 T00630061 52005 IEM_DS3505
ZBAA,1990-04-19 22:00,ZBAA 192200Z AUTO 00000KT 0SM 10/09 A2988 RMK T01000090 IEM_DS3505
ZBAA,1990-04-19 23:00,ZBAA 192300Z AUTO 00000KT 1/8SM 10/10 A2988 RMK T01000100 IEM_DS3505
ZBAA,1990-04-20 00:00,ZBAA 200000Z AUTO 00000KT 1SM 10/10 A2988 RMK SLP136 T01030095 52007 IEM_DS3505
ZBAA,1990-04-20 01:00,ZBAA 200100Z AUTO 07002KT 1 1/4SM 14/09 A2991 RMK T01400090 IEM_DS3505
ZBAA,1990-04-20 02:00,ZBAA 200200Z AUTO ////02KT 1 1/2SM 17/10 A2991 RMK T01700100 IEM_DS3505
ZBAA,1990-04-20 03:00,ZBAA 200300Z AUTO 20006KT 1SM 17/10 A2991 RMK SLP141 T01700098 52005 IEM_DS3505
ZBAA,1990-04-20 04:00,ZBAA 200400Z AUTO ////04KT 3SM 21/10 A2988 RMK T02100100 IEM_DS3505
ZBAA,1990-04-20 05:00,ZBAA 200500Z AUTO ////06KT 3SM 22/10 A2985 RMK T02200100 IEM_DS3505
ZBAA,1990-04-20 06:00,ZBAA 200600Z AUTO 20008KT 9SM 20/01 A2985 RMK SLP123 T02040011 4////0059 57017 IEM_DS3505
ZBAA,1990-04-20 07:00,ZBAA 200700Z AUTO 19008KT 6SM 23/01 A2983 RMK T02300010 IEM_DS3505
ZBAA,1990-04-20 08:00,ZBAA 200800Z AUTO ////08KT 6SM 23/03 A2980 RMK T02300030 IEM_DS3505
ZBAA,1990-04-20 09:00,ZBAA 200900Z AUTO 20008KT 9SM 21/02 A2983 RMK T02100020 57011 IEM_DS3505
ZBAA,1990-04-20 10:00,ZBAA 201000Z AUTO 17004KT 6SM 20/02 A2983 RMK T02000020 IEM_DS3505
ZBAA,1990-04-20 11:00,ZBAA 201100Z AUTO 17004KT 6SM 19/05 A2983 RMK T01900050 IEM_DS3505
ZBAA,1990-04-20 12:00,ZBAA 201200Z AUTO 20008KT 7SM 17/10 A2983 RMK SLP121 T01670101 52008 IEM_DS3505
ZBAA,1990-04-20 13:00,ZBAA 201300Z AUTO ////04KT 6SM 17/08 A2985 RMK T01700080 IEM_DS3505
ZBAA,1990-04-20 14:00,ZBAA 201400Z AUTO 18006KT 6SM 16/09 A2985 RMK T01600090 IEM_DS3505
ZBAA,1990-04-20 15:00,ZBAA 201500Z AUTO 20006KT 7SM 15/09 A2985 RMK SLP122 T01490093 52002 IEM_DS3505
ZBAA,1990-04-20 16:00,ZBAA 201600Z AUTO ////04KT 5SM 15/09 A2985 RMK T01500090 IEM_DS3505
ZBAA,1990-04-20 18:00,ZBAA 201800Z AUTO 18004KT 7SM 14/08 RMK SLP115 T01370083 40208//// 57007 IEM_DS3505
ZBAA,1990-04-20 21:00,ZBAA 202100Z AUTO 00000KT 6SM 12/09 RMK SLP110 T01240088 57005 IEM_DS3505
ZBAA,1990-04-20 22:00,ZBAA 202200Z AUTO 14002KT 6SM 13/08 A2983 RMK T01300080 IEM_DS3505
ZBAA,1990-04-20 23:00,ZBAA 202300Z AUTO 15004KT 6SM 14/08 A2983 RMK T01400080 IEM_DS3505
ZBAA,1990-04-21 00:00,ZBAA 210000Z AUTO 18006KT 4SM 13/09 A2985 RMK SLP116 T01340091 52006 IEM_DS3505
ZBAA,1990-04-21 01:00,ZBAA 210100Z AUTO ////06KT 7SM 18/09 A2983 RMK T01800090 IEM_DS3505
ZBAA,1990-04-21 02:00,ZBAA 210200Z AUTO ////06KT 7SM 19/07 A2983 RMK T01900070 IEM_DS3505
ZBAA,1990-04-21 03:00,ZBAA 210300Z AUTO 20010KT 6SM 18/05 A2983 RMK SLP113 T01840053 57003 IEM_DS3505
ZBAA,1990-04-21 04:00,ZBAA 210400Z AUTO 19008KT 6SM 22/05 A2980 RMK T02200050 IEM_DS3505
ZBAA,1990-04-21 05:00,ZBAA 210500Z AUTO ////06KT 6SM 23/07 A2980 RMK T02300070 IEM_DS3505
ZBAA,1990-04-21 06:00,ZBAA 210600Z AUTO 18008KT 6SM 20/07 A2977 RMK SLP094 T02010068 4////0121 57019 IEM_DS3505
ZBAA,1990-04-21 07:00,ZBAA 210700Z AUTO ////06KT 6SM 22/06 A2974 RMK T02200060 IEM_DS3505
ZBAA,1990-04-21 08:00,ZBAA 210800Z AUTO 15006KT 6SM 22/06 A2971 RMK T02200060 IEM_DS3505
ZBAA,1990-04-21 09:00,ZBAA 210900Z AUTO 20004KT 6SM 20/09 A2971 RMK SLP076 T02020087 57018 IEM_DS3505
ZBAA,1990-04-21 10:00,ZBAA 211000Z AUTO ////06KT 6SM 19/08 A2974 RMK T01900080 IEM_DS3505
ZBAA,1990-04-21 11:00,ZBAA 211100Z AUTO 03002KT 6SM 18/08 A2977 RMK T01800080 IEM_DS3505
ZBAA,1990-04-21 12:00,ZBAA 211200Z AUTO 6SM 17/10 RMK 60000 SLP107 T01670101 52031 IEM_DS3505
ZBAA,1990-04-21 13:00,ZBAA 211300Z AUTO ////02KT 6SM 17/07 A2980 RMK T01700070 IEM_DS3505
ZBAA,1990-04-21 14:00,ZBAA 211400Z AUTO ////04KT 6SM 16/09 A2980 RMK T01600090 IEM_DS3505
ZBAA,1990-04-21 15:00,ZBAA 211500Z AUTO 00000KT 7SM 15/11 A2980 RMK SLP106 T01510114 57001 IEM_DS3505
ZBAA,1990-04-21 18:00,ZBAA 211800Z AUTO 00000KT 8SM 14/11 RMK SLP103 T01450107 40207//// 57003 IEM_DS3505
ZBAA,1990-04-21 20:00,ZBAA 212000Z AUTO 00000KT 6SM 13/09 A2980 RMK T01300090 IEM_DS3505
ZBAA,1990-04-21 21:00,ZBAA 212100Z AUTO 02004KT 7SM 14/10 A2983 RMK SLP111 T01350098 52008 IEM_DS3505
ZBAA,1990-04-21 22:00,ZBAA 212200Z AUTO 02008G17KT 6SM 14/01 A2985 RMK T01400010 IEM_DS3505
ZBAA,1990-04-21 23:00,ZBAA 212300Z AUTO ////06KT 6SM 15/02 A2988 RMK T01500020 IEM_DS3505
ZBAA,1990-04-22 00:00,ZBAA 220000Z AUTO 04008G19KT 6SM 15/00 A2994 RMK SLP152 T01500005 52041 IEM_DS3505
ZBAA,1990-04-22 01:00,ZBAA 220100Z AUTO 01008KT 6SM 16/M02 A2997 RMK T01601020 IEM_DS3505
ZBAA,1990-04-22 02:00,ZBAA 220200Z AUTO ////06KT 6SM 18/M01 A3000 RMK T01801010 IEM_DS3505
ZBAA,1990-04-22 03:00,ZBAA 220300Z AUTO 07008KT 12SM 17/M03 A3000 RMK SLP173 T01681030 52020 IEM_DS3505
ZBAA,1990-04-22 04:00,ZBAA 220400Z AUTO 05006G16KT 6SM 18/M04 A3000 RMK T01801040 IEM_DS3505
ZBAA,1990-04-22 05:00,ZBAA 220500Z AUTO 02008G17KT 6SM 18/M02 A3000 RMK T01801020 IEM_DS3505
ZBAA,1990-04-22 06:00,ZBAA 220600Z AUTO 34006G17KT 11SM 15/01 A2997 RMK SLP170 T01510007 4////0132 57003 IEM_DS3505
ZBAA,1990-04-22 07:00,ZBAA 220700Z AUTO ////06KT 6SM 13/M02 A2997 RMK T01301020 IEM_DS3505
ZBAA,1990-04-22 08:00,ZBAA 220800Z AUTO ////04KT 6SM 13/M03 A2997 RMK T01301030 IEM_DS3505
ZBAA,1990-04-22 09:00,ZBAA 220900Z AUTO 36006KT 16SM 12/M01 A2997 RMK SLP170 T01251012 54000 IEM_DS3505
ZBAA,1990-04-22 10:00,ZBAA 221000Z AUTO ////02KT 6SM 13/M03 A2997 RMK T01301030 IEM_DS3505
ZBAA,1990-04-22 11:00,ZBAA 221100Z AUTO ////02G12KT 6SM 13/M03 A3000 RMK T01301030 IEM_DS3505
ZBAA,1990-04-22 12:00,ZBAA 221200Z AUTO 32008KT 12SM 11/01 A3006 RMK SLP204 T01130006 52034 IEM_DS3505
ZBAA,1990-04-22 13:00,ZBAA 221300Z AUTO 29008G21KT 6SM 12/00 A3009 RMK T01200000 IEM_DS3505
ZBAA,1990-04-22 14:00,ZBAA 221400Z AUTO ////04KT 7SM 11/02 A3009 RMK T01100020 IEM_DS3505
ZBAA,1990-04-22 15:00,ZBAA 221500Z AUTO 00000KT 12SM 08/02 A3009 RMK SLP212 T00830017 52007 IEM_DS3505
ZBAA,1990-04-22 17:00,ZBAA 221700Z AUTO 34004KT 19SM 08/ RMK SLP215 52009 IEM_DS3505
ZBAA,1990-04-22 18:00,ZBAA 221800Z AUTO 34006KT 16SM 07/M02 RMK SLP206 T00721020 57006 IEM_DS3505
ZBAA,1990-04-22 20:00,ZBAA 222000Z AUTO ////06KT 7SM 08/M11 A3009 RMK T00801110 IEM_DS3505
ZBAA,1990-04-22 21:00,ZBAA 222100Z AUTO 34004KT 19SM 08/M11 RMK SLP215 T00811109 52009 IEM_DS3505
ZBAA,1990-04-22 22:00,ZBAA 222200Z AUTO ////04KT 7SM 07/M12 A3009 RMK T00701120 IEM_DS3505
ZBAA,1990-04-22 23:00,ZBAA 222300Z AUTO 31008KT 7SM 10/M12 A3012 RMK T01001120 IEM_DS3505
ZBAA,1990-04-23 00:00,ZBAA 230000Z AUTO 34004KT 19SM 10/M10 A3012 RMK SLP220 T01011097 52005 IEM_DS3505
ZBAA,1990-04-23 01:00,ZBAA 230100Z AUTO 29008KT 7SM 14/M10 A3009 RMK T01401100 IEM_DS3505
ZBAA,1990-04-23 03:00,ZBAA 230300Z AUTO 34006KT 19SM 14/M11 A3009 RMK SLP211 T01421106 57009 IEM_DS3505
ZBAA,1990-04-23 04:00,ZBAA 230400Z AUTO 33012G21KT 6SM 17/M13 A3006 RMK T01701130 IEM_DS3505
ZBAA,1990-04-23 05:00,ZBAA 230500Z AUTO 33010G19KT 6SM 18/M11 A3000 RMK T01801110 IEM_DS3505
ZBAA,1990-04-23 06:00,ZBAA 230600Z AUTO 34010KT 19SM 17/M14 A2997 RMK SLP180 T01661136 4////0049 57031 IEM_DS3505
ZBAA,1990-04-23 07:00,ZBAA 230700Z AUTO 33014G27KT 7SM 19/M12 A2994 RMK T01901120 IEM_DS3505
ZBAA,1990-04-23 08:00,ZBAA 230800Z AUTO 32012G21KT 7SM 20/M11 A2991 RMK T02001110 IEM_DS3505
ZBAA,1990-04-23 09:00,ZBAA 230900Z AUTO 29008KT 19SM 18/M13 A2991 RMK SLP158 T01761129 57021 IEM_DS3505
ZBAA,1990-04-23 10:00,ZBAA 231000Z AUTO 32008KT 7SM 18/M11 A2991 RMK T01801110 IEM_DS3505
ZBAA,1990-04-23 11:00,ZBAA 231100Z AUTO ////04KT 7SM 16/M10 A2991 RMK T01601100 IEM_DS3505
ZBAA,1990-04-23 12:00,ZBAA 231200Z AUTO 27004KT 19SM 14/M09 A2994 RMK SLP159 T01451089 52001 IEM_DS3505
ZBAA,1990-04-23 13:00,ZBAA 231300Z AUTO ////04KT 7SM 13/M08 A2994 RMK T01301080 IEM_DS3505
ZBAA,1990-04-23 14:00,ZBAA 231400Z AUTO ////04KT 7SM 13/M09 A2997 RMK T01301090 IEM_DS3505
ZBAA,1990-04-23 15:00,ZBAA 231500Z AUTO 29008KT 16SM 15/M13 A2997 RMK SLP165 T01511126 52006 IEM_DS3505
ZBAA,1990-04-23 18:00,ZBAA 231800Z AUTO 29004KT 19SM 11/M06 RMK SLP164 T01121056 40180//// 57001 IEM_DS3505
ZBAA,1990-04-23 20:00,ZBAA 232000Z AUTO ////04KT 7SM 10/M11 A2994 RMK T01001110 IEM_DS3505
ZBAA,1990-04-23 21:00,ZBAA 232100Z AUTO 20004KT 19SM 10/M06 A2991 RMK SLP154 T00981060 57010 IEM_DS3505
ZBAA,1990-04-23 22:00,ZBAA 232200Z AUTO ////06KT 7SM 11/M10 A2991 RMK T01101100 IEM_DS3505
ZBAA,1990-04-23 23:00,ZBAA 232300Z AUTO ////04KT 7SM 13/M05 A2991 RMK T01301050 IEM_DS3505
ZBAA,1990-04-24 00:00,ZBAA 240000Z AUTO 00000KT 19SM 14/M04 A2991 RMK SLP146 T01421044 57008 IEM_DS3505
ZBAA,1990-04-24 03:00,ZBAA 240300Z AUTO 20010KT 16SM 18/M10 RMK SLP123 T01831103 57022 IEM_DS3505
ZBAA,1990-04-24 06:00,ZBAA 240600Z AUTO 18014KT 19SM 20/M08 A2974 RMK SLP083 T01981080 4////0071 57040 IEM_DS3505
ZBAA,1990-04-24 07:00,ZBAA 240700Z AUTO 20012KT 7SM 23/M03 A2968 RMK T02301030 IEM_DS3505
ZBAA,1990-04-24 09:00,ZBAA 240900Z AUTO 22014KT 16SM 19/M04 RMK SLP054 T01891044 57029 IEM_DS3505
ZBAA,1990-04-24 12:00,ZBAA 241200Z AUTO 20008KT 16SM 17/01 RMK SLP052 T01660010 57002 IEM_DS3505
ZBAA,1990-04-24 15:00,ZBAA 241500Z AUTO 20014G23KT 16SM 16/00 A2959 RMK SLP043 T01620003 57008 IEM_DS3505
ZBAA,1990-04-24 18:00,ZBAA 241800Z AUTO 22004KT 11SM 14/02 RMK SLP026 T01420023 40204//// 57017 IEM_DS3505
ZBAA,1990-04-24 21:00,ZBAA 242100Z AUTO 34014KT 9SM 16/M05 RMK SLP052 T01611052 52026 IEM_DS3505
ZBAA,1990-04-24 23:00,ZBAA 242300Z AUTO ////06KT 6SM 15/M04 A2968 RMK T01501040 IEM_DS3505
ZBAA,1990-04-25 00:00,ZBAA 250000Z AUTO 29008G19KT 19SM 16/M06 A2971 RMK SLP078 T01551062 52025 IEM_DS3505
ZBAA,1990-04-25 02:00,ZBAA 250200Z AUTO 34016KT 7SM 19/M09 A2974 RMK T01901090 IEM_DS3505
ZBAA,1990-04-25 03:00,ZBAA 250300Z AUTO 29012G23KT 16SM 16/ A2977 RMK SLP109 52031 IEM_DS3505
ZBAA,1990-04-25 04:00,ZBAA 250400Z AUTO 29016G29KT 7SM 19/M12 A2977 RMK T01901120 IEM_DS3505
ZBAA,1990-04-25 05:00,ZBAA 250500Z AUTO 30016G29KT 7SM 19/M12 A2977 RMK T01901120 IEM_DS3505
ZBAA,1990-04-25 06:00,ZBAA 250600Z AUTO 29014G23KT 4SM 19/M15 A2974 RMK SLP092 T01871151 4////0129 57017 IEM_DS3505
ZBAA,1990-04-25 07:00,ZBAA 250700Z AUTO 30010KT 1SM 17/M13 A2974 RMK T01701130 IEM_DS3505
ZBAA,1990-04-25 08:00,ZBAA 250800Z AUTO 31012G25KT 1/2SM 17/M14 A2977 RMK T01701140 IEM_DS3505
ZBAA,1990-04-25 09:00,ZBAA 250900Z AUTO 34014G23KT 3/8SM 16/ A2983 RMK SLP115 52023 IEM_DS3505
ZBAA,1990-04-25 10:00,ZBAA 251000Z AUTO 34014KT 1/2SM 15/M14 A2985 RMK T01501140 IEM_DS3505
ZBAA,1990-04-25 11:00,ZBAA 251100Z AUTO ////06KT 1SM 15/M14 A2991 RMK T01501140 IEM_DS3505
ZBAA,1990-04-25 12:00,ZBAA 251200Z AUTO 34008KT 1 1/4SM 14/M22 A2994 RMK SLP154 T01391223 52038 IEM_DS3505
ZBAA,1990-04-25 13:00,ZBAA 251300Z AUTO 34008KT 1SM 14/M15 A2997 RMK T01401150 IEM_DS3505
ZBAA,1990-04-25 15:00,ZBAA 251500Z AUTO 34006KT 3SM 12/M17 RMK SLP176 T01251173 52022 IEM_DS3505
ZBAA,1990-04-25 18:00,ZBAA 251800Z AUTO 00000KT 6SM 08/M09 RMK SLP173 T00841090 40189//// 57003 IEM_DS3505
ZBAA,1990-04-25 20:00,ZBAA 252000Z AUTO 00000KT 7SM 08/M14 A3000 RMK T00801140 IEM_DS3505
ZBAA,1990-04-25 21:00,ZBAA 252100Z AUTO 20002KT 7SM 08/M11 A3000 RMK SLP176 T00851111 52003 IEM_DS3505
ZBAA,1990-04-26 00:00,ZBAA 260000Z AUTO 20010KT 1 1/4SM 12/M12 A3003 RMK SLP186 T01181122 52010 IEM_DS3505
ZBAA,1990-04-26 01:00,ZBAA 260100Z AUTO 21012G21KT 1 1/4SM 14/M10 A3003 RMK SLP170 T01441099 52270 IEM_DS3505
ZBAA,1990-04-26 02:00,ZBAA 260200Z AUTO 20012G21KT 1 1/4SM 17/M08 A3000 RMK T01701080 IEM_DS3505
ZBAA,1990-04-26 03:00,ZBAA 260300Z AUTO 20016KT 1 1/4SM 14/M10 RMK SLP177 T01441099 57009 IEM_DS3505
ZBAA,1990-04-26 05:00,ZBAA 260500Z AUTO 19010G19KT 1SM 19/M05 A2991 RMK T01901050 IEM_DS3505
ZBAA,1990-04-26 06:00,ZBAA 260600Z AUTO 20017G23KT 1 1/4SM 16/M10 A2988 RMK SLP137 T01641103 4////0068 57040 IEM_DS3505
ZBAA,1990-04-26 07:00,ZBAA 260700Z AUTO 18010G19KT 1SM 19/M03 A2985 RMK T01901030 IEM_DS3505
ZBAA,1990-04-26 08:00,ZBAA 260800Z AUTO 17008KT 1SM 19/M01 A2983 RMK T01901010 IEM_DS3505
ZBAA,1990-04-26 09:00,ZBAA 260900Z AUTO 18017KT 2SM 18/M02 A2980 RMK SLP105 T01771023 57032 IEM_DS3505
ZBAA,1990-04-26 10:00,ZBAA 261000Z AUTO ////06KT 2SM 19/01 A2980 RMK T01900010 IEM_DS3505
ZBAA,1990-04-26 12:00,ZBAA 261200Z AUTO 16008KT 4SM 16/01 A2980 RMK SLP101 T01650007 57003 IEM_DS3505
ZBAA,1990-04-26 13:00,ZBAA 261300Z AUTO 13008KT 3SM 16/02 A2980 RMK T01600020 IEM_DS3505
ZBAA,1990-04-26 14:00,ZBAA 261400Z AUTO 11006KT 4SM 15/01 A2983 RMK T01500010 IEM_DS3505
ZBAA,1990-04-26 15:00,ZBAA 261500Z AUTO 11002KT 6SM 15/03 A2980 RMK SLP108 T01540028 52007 IEM_DS3505
ZBAA,1990-04-26 16:00,ZBAA 261600Z AUTO ////02KT 5SM 14/01 A2983 RMK T01400010 IEM_DS3505
ZBAA,1990-04-26 18:00,ZBAA 261800Z AUTO 00000KT 6SM 13/02 RMK SLP111 T01270024 40181//// 52003 IEM_DS3505
ZBAA,1990-04-26 20:00,ZBAA 262000Z AUTO 00000KT 4SM 12/02 A2980 RMK T01200020 IEM_DS3505
ZBAA,1990-04-26 21:00,ZBAA 262100Z AUTO 00000KT 6SM 11/04 A2983 RMK SLP114 T01110037 52002 IEM_DS3505
ZBAA,1990-04-26 22:00,ZBAA 262200Z AUTO 32002KT 3SM 11/03 A2985 RMK T01100030 IEM_DS3505
ZBAA,1990-04-26 23:00,ZBAA 262300Z AUTO ////04KT 3SM 13/03 A2985 RMK T01300030 IEM_DS3505
ZBAA,1990-04-27 00:00,ZBAA 270000Z AUTO 02004KT 2 1/2SM 14/02 A2988 RMK SLP136 T01450020 52023 IEM_DS3505
ZBAA,1990-04-27 02:00,ZBAA 270200Z AUTO ////06KT 7SM 21/00 A2991 RMK T02100000 IEM_DS3505
ZBAA,1990-04-27 03:00,ZBAA 270300Z AUTO 04006KT 7SM 19/M02 A2991 RMK SLP139 T01901021 52003 IEM_DS3505
ZBAA,1990-04-27 04:00,ZBAA 270400Z AUTO ////06KT 7SM 24/M03 A2988 RMK T02401030 IEM_DS3505
ZBAA,1990-04-27 05:00,ZBAA 270500Z AUTO ////06KT 7SM 24/M03 A2988 RMK T02401030 IEM_DS3505
ZBAA,1990-04-27 05:14,ZBAA 270514Z AUTO 04006KT 6SM RMK IEM_DS3505
ZBAA,1990-04-27 06:00,ZBAA 270600Z AUTO 16006KT 7SM 21/01 A2985 RMK SLP130 T02090006 4////0107 57009 IEM_DS3505
ZBAA,1990-04-27 07:00,ZBAA 270700Z AUTO 15010KT 7SM 24/04 A2985 RMK T02400040 IEM_DS3505
ZBAA,1990-04-27 08:00,ZBAA 270800Z AUTO 17010KT 7SM 23/05 A2985 RMK T02300050 IEM_DS3505
ZBAA,1990-04-27 09:00,ZBAA 270900Z AUTO 16004KT 7SM 20/04 A2985 RMK SLP130 T01960037 54000 IEM_DS3505
ZBAA,1990-04-27 10:00,ZBAA 271000Z AUTO ////06KT 6SM 20/03 A2988 RMK T02000030 IEM_DS3505
ZBAA,1990-04-27 11:00,ZBAA 271100Z AUTO ////06KT 7SM 18/03 A2991 RMK T01800030 IEM_DS3505
ZBAA,1990-04-27 12:00,ZBAA 271200Z AUTO 14006KT 6SM 17/03 A2994 RMK SLP158 T01670033 52027 IEM_DS3505
ZBAA,1990-04-27 13:00,ZBAA 271300Z AUTO ////06KT 6SM 16/04 A2997 RMK T01600040 IEM_DS3505
ZBAA,1990-04-27 14:00,ZBAA 271400Z AUTO 00000KT 7SM 15/04 A3000 RMK T01500040 IEM_DS3505
ZBAA,1990-04-27 15:00,ZBAA 271500Z AUTO 25002KT 6SM 14/03 A3003 RMK SLP187 T01390029 52029 IEM_DS3505
ZBAA,1990-04-27 17:00,ZBAA 271700Z AUTO 00000KT 7SM 11/04 RMK SLP187 T01090042 40215//// 54000 IEM_DS3505
ZBAA,1990-04-27 18:00,ZBAA 271800Z AUTO 00000KT 7SM 11/04 RMK SLP187 T01090042 40215//// 54000 IEM_DS3505
ZBAA,1990-04-27 20:00,ZBAA 272000Z AUTO 00000KT 7SM 09/05 A3003 RMK T00900050 IEM_DS3505
ZBAA,1990-04-27 21:00,ZBAA 272100Z AUTO 00000KT 6SM 09/04 A3006 RMK SLP197 T00920042 52010 IEM_DS3505
ZBAA,1990-04-27 22:00,ZBAA 272200Z AUTO 00000KT 7SM 09/05 A3006 RMK T00900050 IEM_DS3505
ZBAA,1990-04-27 23:00,ZBAA 272300Z AUTO 22004KT 4SM 10/06 A3009 RMK T01000060 IEM_DS3505
ZBAA,1990-04-28 00:00,ZBAA 280000Z AUTO 00000KT 4SM 14/03 A3009 RMK SLP208 T01400033 52011 IEM_DS3505
ZBAA,1990-04-28 01:00,ZBAA 280100Z AUTO ////02KT 7SM 18/05 A3009 RMK T01800050 IEM_DS3505
ZBAA,1990-04-28 02:00,ZBAA 280200Z AUTO 00000KT 7SM 21/04 A3012 RMK T02100040 IEM_DS3505
ZBAA,1990-04-28 03:00,ZBAA 280300Z AUTO 04004KT 5SM 20/01 A3012 RMK SLP215 T02030011 52007 IEM_DS3505
ZBAA,1990-04-28 05:00,ZBAA 280500Z AUTO ////04KT 7SM 26/M02 A3006 RMK T02601020 IEM_DS3505
ZBAA,1990-04-28 06:00,ZBAA 280600Z AUTO 18010KT 6SM 23/M01 RMK SLP194 T02311008 4////0089 57020 IEM_DS3505
ZBAA,1990-04-28 07:00,ZBAA 280700Z AUTO ////04KT 6SM 28/M01 A3003 RMK T02801010 IEM_DS3505
ZBAA,1990-04-28 08:00,ZBAA 280800Z AUTO 20008KT 6SM 26/01 A3003 RMK T02600010 IEM_DS3505
ZBAA,1990-04-28 09:00,ZBAA 280900Z AUTO 22012KT 6SM 21/02 A3003 RMK SLP193 T02130020 57002 IEM_DS3505
ZBAA,1990-04-28 10:00,ZBAA 281000Z AUTO 22004KT 6SM 22/03 A3003 RMK T02200030 IEM_DS3505
ZBAA,1990-04-28 11:00,ZBAA 281100Z AUTO ////04KT 6SM 20/03 A3003 RMK T02000030 IEM_DS3505
ZBAA,1990-04-28 12:00,ZBAA 281200Z AUTO 20006KT 7SM 19/04 A3006 RMK SLP200 T01870043 52007 IEM_DS3505
ZBAA,1990-04-28 13:00,ZBAA 281300Z AUTO 00000KT 6SM 16/04 A3009 RMK T01600040 IEM_DS3505
ZBAA,1990-04-28 14:00,ZBAA 281400Z AUTO 14002KT 6SM 15/05 A3009 RMK T01500050 IEM_DS3505
ZBAA,1990-04-28 15:00,ZBAA 281500Z AUTO 18004KT 6SM 17/05 A3012 RMK SLP210 T01670052 52011 IEM_DS3505
ZBAA,1990-04-28 16:00,ZBAA 281600Z AUTO 14006KT 6SM 15/00 RMK T01500000 IEM_DS3505
ZBAA,1990-04-28 17:00,ZBAA 281700Z AUTO ////06KT 6SM 15/05 A3012 RMK T01500050 IEM_DS3505
ZBAA,1990-04-28 18:00,ZBAA 281800Z AUTO 20004KT 7SM 15/05 RMK SLP213 T01490049 40241//// 52003 IEM_DS3505
ZBAA,1990-04-28 20:00,ZBAA 282000Z AUTO 09002KT 6SM 12/04 A3012 RMK T01200040 IEM_DS3505
ZBAA,1990-04-28 21:00,ZBAA 282100Z AUTO 00000KT 6SM 13/07 A3012 RMK SLP216 T01310066 52002 IEM_DS3505
ZBAA,1990-04-28 22:00,ZBAA 282200Z AUTO 10004KT 6SM 11/06 A3012 RMK T01100060 IEM_DS3505
ZBAA,1990-04-28 23:00,ZBAA 282300Z AUTO ////04KT 4SM 12/07 A3015 RMK T01200070 IEM_DS3505
ZBAA,1990-04-29 00:00,ZBAA 290000Z AUTO 00000KT 4SM 13/06 RMK SLP225 T01330064 52009 IEM_DS3505
ZBAA,1990-04-29 01:00,ZBAA 290100Z AUTO ////06KT 4SM 16/08 A3015 RMK T01600080 IEM_DS3505
ZBAA,1990-04-29 02:00,ZBAA 290200Z AUTO 13002KT 5SM 17/08 A3015 RMK T01700080 IEM_DS3505
ZBAA,1990-04-29 03:00,ZBAA 290300Z AUTO 02002KT 3SM 15/07 A3015 RMK SLP228 T01490067 52003 IEM_DS3505
ZBAA,1990-04-29 04:00,ZBAA 290400Z AUTO ////02KT 6SM 18/08 A3015 RMK T01800080 IEM_DS3505
ZBAA,1990-04-29 05:00,ZBAA 290500Z AUTO ////02KT 6SM 19/08 A3012 RMK T01900080 IEM_DS3505
ZBAA,1990-04-29 06:00,ZBAA 290600Z AUTO 02002KT 3SM 17/09 A3012 RMK SLP219 T01710092 4////0120 57009 IEM_DS3505
ZBAA,1990-04-29 07:00,ZBAA 290700Z AUTO ////02KT 6SM 20/06 A3012 RMK T02000060 IEM_DS3505
ZBAA,1990-04-29 08:00,ZBAA 290800Z AUTO 00000KT 6SM 19/07 A3012 RMK T01900070 IEM_DS3505
ZBAA,1990-04-29 09:00,ZBAA 290900Z AUTO 36004KT 3SM 17/10 A3009 RMK SLP213 T01670096 57006 IEM_DS3505
ZBAA,1990-04-29 10:00,ZBAA 291000Z AUTO 34006KT 6SM 18/07 A3009 RMK T01800070 IEM_DS3505
ZBAA,1990-04-29 11:00,ZBAA 291100Z AUTO 09002KT 6SM 17/07 A3009 RMK T01700070 IEM_DS3505
ZBAA,1990-04-29 12:00,ZBAA 291200Z AUTO 00000KT 4SM 15/10 A3012 RMK SLP211 T01500098 57002 IEM_DS3505
ZBAA,1990-04-29 13:00,ZBAA 291300Z AUTO 31004KT 6SM 16/09 A3012 RMK T01600090 IEM_DS3505
ZBAA,1990-04-29 14:00,ZBAA 291400Z AUTO 00000KT 6SM 15/09 A3012 RMK T01500090 IEM_DS3505
ZBAA,1990-04-29 15:00,ZBAA 291500Z AUTO 04002KT 5SM 15/09 A3009 RMK SLP209 T01490086 57002 IEM_DS3505
ZBAA,1990-04-29 16:00,ZBAA 291600Z AUTO 00000KT 6SM 15/10 A3009 RMK T01500100 IEM_DS3505
ZBAA,1990-04-29 18:00,ZBAA 291800Z AUTO 00000KT 4SM 14/09 RMK 60000 SLP200 T01430094 40178//// 57009 IEM_DS3505
ZBAA,1990-04-29 20:00,ZBAA 292000Z AUTO 00000KT 6SM 14/08 A3003 RMK T01400080 IEM_DS3505
ZBAA,1990-04-29 21:00,ZBAA 292100Z AUTO 04002KT 6SM 14/05 A3003 RMK SLP190 T01390054 57010 IEM_DS3505
ZBAA,1990-04-29 22:00,ZBAA 292200Z AUTO 32004KT 6SM 14/08 A3006 RMK T01400080 IEM_DS3505
ZBAA,1990-04-29 23:00,ZBAA 292300Z AUTO ////04KT 6SM 14/07 A3003 RMK T01400070 IEM_DS3505
ZBAA,1990-04-30 00:00,ZBAA 300000Z AUTO 34002KT 4SM 13/06 A3003 RMK SLP192 T01310059 52002 IEM_DS3505
ZBAA,1990-04-30 01:00,ZBAA 300100Z AUTO 00000KT 6SM 15/08 A3006 RMK T01500080 IEM_DS3505
ZBAA,1990-04-30 02:00,ZBAA 300200Z AUTO ////02KT 7SM 15/08 A3006 RMK T01500080 IEM_DS3505
ZBAA,1990-04-30 03:00,ZBAA 300300Z AUTO 07006KT 3SM 13/06 A3006 RMK SLP193 T01310064 52001 IEM_DS3505
ZBAA,1990-04-30 05:00,ZBAA 300500Z AUTO 03002KT 4SM 12/11 A3003 RMK T01200110 IEM_DS3505
ZBAA,1990-04-30 06:00,ZBAA 300600Z AUTO 36004KT 2SM 11/09 A3000 RMK 60031 SLP179 T01060094 4////0103 57014 IEM_DS3505
ZBAA,1990-04-30 07:00,ZBAA 300700Z AUTO ////04KT 2 1/2SM 12/11 A2997 RMK T01200110 IEM_DS3505
ZBAA,1990-04-30 08:00,ZBAA 300800Z AUTO ////04KT 2 1/2SM 12/11 A2997 RMK T01200110 IEM_DS3505
ZBAA,1990-04-30 09:00,ZBAA 300900Z AUTO 36006KT 1 1/4SM 11/10 RMK SLP163 T01070097 57016 IEM_DS3505
ZBAA,1990-04-30 10:00,ZBAA 301000Z AUTO ////04KT 2 1/2SM 12/11 A2994 RMK T01200110 IEM_DS3505
ZBAA,1990-04-30 11:00,ZBAA 301100Z AUTO ////04KT 2 1/2SM 12/11 A2994 RMK T01200110 IEM_DS3505
ZBAA,1990-04-30 12:00,ZBAA 301200Z AUTO 02006KT 4SM 11/11 A2997 RMK 60094 SLP163 T01120106 54000 IEM_DS3505
ZBAA,1990-04-30 15:00,ZBAA 301500Z AUTO 02006KT 3SM 11/10 RMK SLP162 T01130105 57001 IEM_DS3505
ZBAA,1990-04-30 18:00,ZBAA 301800Z AUTO 36004KT 4SM 11/10 RMK 60071 SLP142 T01120102 40144//// 57021 IEM_DS3505
ZBAA,1990-04-30 21:00,ZBAA 302100Z AUTO 04004KT 6SM 11/10 A2985 RMK 70205 SLP119 T01120098 57022 IEM_DS3505
ZBAA,1990-04-30 22:00,ZBAA 302200Z AUTO ////04KT 3SM 12/11 A2985 RMK T01200110 IEM_DS3505
ZBAA,1990-04-30 23:00,ZBAA 302300Z AUTO ////04KT 6SM 13/13 A2985 RMK T01300130 IEM_DS3505
ZBAA,1990-05-01 00:00,ZBAA 010000Z AUTO 02008KT 16SM 14/10 RMK 60008 70205 SLP118 T01400102 57001 IEM_DS3505
ZBAA,1990-05-01 01:00,ZBAA 010100Z AUTO ////06KT 6SM 18/10 A2983 RMK T01800100 IEM_DS3505
ZBAA,1990-05-01 02:00,ZBAA 010200Z AUTO 01006G17KT 6SM 20/10 RMK T02000100 IEM_DS3505
ZBAA,1990-05-01 03:00,ZBAA 010300Z AUTO 09006KT 19SM 18/10 A2980 RMK SLP108 T01830097 57009 IEM_DS3505
ZBAA,1990-05-01 04:00,ZBAA 010400Z AUTO ////06KT 6SM 20/10 A2980 RMK T02000100 IEM_DS3505
ZBAA,1990-05-01 05:00,ZBAA 010500Z AUTO ////06KT 6SM 22/10 A2977 RMK T02200100 IEM_DS3505
ZBAA,1990-05-01 06:00,ZBAA 010600Z AUTO 11006KT 19SM 20/10 A2980 RMK SLP101 T02000100 4////0099 57007 IEM_DS3505
ZBAA,1990-05-01 07:00,ZBAA 010700Z AUTO 11008KT 6SM 24/12 A2980 RMK T02400120 IEM_DS3505
ZBAA,1990-05-01 08:00,ZBAA 010800Z AUTO 12010KT 6SM 22/12 A2983 RMK T02200120 IEM_DS3505
ZBAA,1990-05-01 09:00,ZBAA 010900Z AUTO 16004KT 7SM 18/11 A2985 RMK SLP116 T01770111 52014 IEM_DS3505
ZBAA,1990-05-01 10:00,ZBAA 011000Z AUTO 12008KT 7SM 18/09 A2988 RMK T01800090 IEM_DS3505
ZBAA,1990-05-01 11:00,ZBAA 011100Z AUTO 12008KT 7SM 18/ A2988 RMK IEM_DS3505
ZBAA,1990-05-01 12:00,ZBAA 011200Z AUTO 14006KT 11SM 15/08 A2994 RMK SLP153 T01460080 52037 IEM_DS3505
ZBAA,1990-05-01 14:00,ZBAA 011400Z AUTO ////06KT 7SM 14/08 A3000 RMK T01400080 IEM_DS3505
ZBAA,1990-05-01 15:00,ZBAA 011500Z AUTO 14002KT 11SM 13/08 A3000 RMK SLP175 T01310081 52022 IEM_DS3505
ZBAA,1990-05-01 16:00,ZBAA 011600Z AUTO 20002KT 6SM 14/08 A3003 RMK T01400080 IEM_DS3505
ZBAA,1990-05-01 18:00,ZBAA 011800Z AUTO 00000KT 9SM 12/09 RMK SLP165 T01200092 40206//// 57009 IEM_DS3505
ZBAA,1990-05-01 20:00,ZBAA 012000Z AUTO ////04KT 6SM 13/08 A2997 RMK T01300080 IEM_DS3505
ZBAA,1990-05-01 21:00,ZBAA 012100Z AUTO 36004KT 9SM 12/09 RMK SLP164 T01230087 57002 IEM_DS3505
ZBAA,1990-05-01 22:00,ZBAA 012200Z AUTO 00000KT 6SM 13/08 A2997 RMK T01300080 IEM_DS3505
ZBAA,1990-05-02 00:00,ZBAA 020000Z AUTO 25002KT 7SM 14/09 A3003 RMK SLP175 T01400093 52011 IEM_DS3505
ZBAA,1990-05-02 03:00,ZBAA 020300Z AUTO 04004KT 12SM 17/08 A3000 RMK SLP172 T01700080 57003 IEM_DS3505
ZBAA,1990-05-02 04:00,ZBAA 020400Z AUTO ////04KT 6SM 22/10 A2997 RMK T02200100 IEM_DS3505
ZBAA,1990-05-02 05:00,ZBAA 020500Z AUTO ////02KT 6SM 22/10 A2997 RMK T02200100 IEM_DS3505
ZBAA,1990-05-02 06:00,ZBAA 020600Z AUTO 20008KT 7SM 19/08 A2997 RMK SLP162 T01870085 4////0117 57010 IEM_DS3505
ZBAA,1990-05-02 08:00,ZBAA 020800Z AUTO 16008KT 6SM 20/11 A2994 RMK T02000110 IEM_DS3505
ZBAA,1990-05-02 09:00,ZBAA 020900Z AUTO 16006KT 9SM 17/10 A2994 RMK SLP151 T01740105 57011 IEM_DS3505
ZBAA,1990-05-02 10:00,ZBAA 021000Z AUTO ////06KT 6SM 17/10 A2994 RMK T01700100 IEM_DS3505
ZBAA,1990-05-02 11:00,ZBAA 021100Z AUTO ////06KT 6SM A2997 RMK IEM_DS3505
ZBAA,1990-05-02 12:00,ZBAA 021200Z AUTO 16006KT 7SM 15/10 A3000 RMK SLP165 T01500100 52014 IEM_DS3505
ZBAA,1990-05-02 13:00,ZBAA 021300Z AUTO ////04KT 6SM 15/10 A3003 RMK T01500100 IEM_DS3505
ZBAA,1990-05-02 14:00,ZBAA 021400Z AUTO ////06KT 6SM 15/10 A3003 RMK T01500100 IEM_DS3505
ZBAA,1990-05-02 15:00,ZBAA 021500Z AUTO 18008KT 6SM 13/10 RMK SLP172 T01310102 52007 IEM_DS3505
ZBAA,1990-05-02 16:00,ZBAA 021600Z AUTO ////04KT 4SM 14/10 A3000 RMK T01400100 IEM_DS3505
ZBAA,1990-05-02 18:00,ZBAA 021800Z AUTO 25002KT 4SM 12/11 RMK 60004 T01200109 40196//// 57008 IEM_DS3505
ZBAA,1990-05-02 20:00,ZBAA 022000Z AUTO ////06KT 4SM 12/10 A2997 RMK T01200100 IEM_DS3505
ZBAA,1990-05-02 21:00,ZBAA 022100Z AUTO 02006KT 6SM 11/06 A2997 RMK SLP159 T01070055 57005 IEM_DS3505
ZBAA,1990-05-02 22:00,ZBAA 022200Z AUTO ////02KT 6SM 11/09 A2994 RMK T01100090 IEM_DS3505
ZBAA,1990-05-02 23:00,ZBAA 022300Z AUTO ////04KT 6SM 11/07 A2994 RMK T01100070 IEM_DS3505
ZBAA,1990-05-03 00:00,ZBAA 030000Z AUTO 04004KT 6SM 13/06 RMK 60004 70008 SLP156 T01260061 57003 IEM_DS3505
ZBAA,1990-05-03 01:00,ZBAA 030100Z AUTO ////06KT 6SM 16/06 A2997 RMK T01600060 IEM_DS3505
ZBAA,1990-05-03 02:00,ZBAA 030200Z AUTO ////02KT 6SM 19/05 A2994 RMK T01900050 IEM_DS3505
ZBAA,1990-05-03 03:00,ZBAA 030300Z AUTO 14002KT 7SM 17/05 A2994 RMK SLP149 T01690050 57007 IEM_DS3505
ZBAA,1990-05-03 04:00,ZBAA 030400Z AUTO ////02KT 7SM 22/06 A2991 RMK T02200060 IEM_DS3505
ZBAA,1990-05-03 05:00,ZBAA 030500Z AUTO ////04KT 6SM 22/04 A2988 RMK T02200040 IEM_DS3505
ZBAA,1990-05-03 06:00,ZBAA 030600Z AUTO ////06KT 8SM 19/06 A2985 RMK SLP124 T01860061 4////0103 57024 IEM_DS3505
ZBAA,1990-05-03 07:00,ZBAA 030700Z AUTO ////08KT 6SM 21/06 A2985 RMK T02100060 IEM_DS3505
ZBAA,1990-05-03 08:00,ZBAA 030800Z AUTO ////06KT 6SM 22/07 A2983 RMK T02200070 IEM_DS3505
ZBAA,1990-05-03 09:00,ZBAA 030900Z AUTO 36006KT 8SM 21/M04 A2980 RMK SLP110 T02071035 57014 IEM_DS3505
ZBAA,1990-05-03 10:00,ZBAA 031000Z AUTO 32010G21KT 6SM A2980 RMK IEM_DS3505
ZBAA,1990-05-03 11:00,ZBAA 031100Z AUTO ////06KT 6SM 19/ A2983 RMK IEM_DS3505
ZBAA,1990-05-03 12:00,ZBAA 031200Z AUTO ////04KT 6SM 17/M02 A2983 RMK T01701020 IEM_DS3505
ZBAA,1990-05-03 13:00,ZBAA 031300Z AUTO ////02KT 7SM 15/M01 A2985 RMK T01501010 IEM_DS3505
ZBAA,1990-05-03 14:00,ZBAA 031400Z AUTO 24002KT 7SM 14/00 A2985 RMK T01400000 IEM_DS3505
ZBAA,1990-05-03 15:00,ZBAA 031500Z AUTO 29002KT 6SM 13/07 A2985 RMK SLP119 T01330072 52005 IEM_DS3505
ZBAA,1990-05-03 16:00,ZBAA 031600Z AUTO 25002KT 7SM 12/05 A2985 RMK T01200050 IEM_DS3505
ZBAA,1990-05-03 18:00,ZBAA 031800Z AUTO 00000KT 7SM 10/04 RMK T01010045 40210//// 57010 IEM_DS3505
ZBAA,1990-05-03 21:00,ZBAA 032100Z AUTO 00000KT 7SM 08/03 RMK SLP101 T00830032 57008 IEM_DS3505
ZBAA,1990-05-03 22:00,ZBAA 032200Z AUTO ////04KT 7SM 11/M01 A2980 RMK T01101010 IEM_DS3505
ZBAA,1990-05-03 23:00,ZBAA 032300Z AUTO ////04KT 7SM 15/00 A2980 RMK T01500000 IEM_DS3505
ZBAA,1990-05-04 00:00,ZBAA 040000Z AUTO 00000KT 9SM 16/00 A2980 RMK SLP099 T01550001 57002 IEM_DS3505
ZBAA,1990-05-04 01:00,ZBAA 040100Z AUTO ////06KT 7SM 20/01 A2977 RMK T02000010 IEM_DS3505
ZBAA,1990-05-04 02:00,ZBAA 040200Z AUTO ////06KT 7SM 22/M01 A2974 RMK T02201010 IEM_DS3505
ZBAA,1990-05-04 03:00,ZBAA 040300Z AUTO 27002KT 19SM 21/M06 A2971 RMK SLP074 T02081062 57025 IEM_DS3505
ZBAA,1990-05-04 04:00,ZBAA 040400Z AUTO ////04KT 7SM 24/M01 A2968 RMK T02401010 IEM_DS3505
ZBAA,1990-05-04 05:00,ZBAA 040500Z AUTO ////04KT 7SM 25/00 A2965 RMK T02500000 IEM_DS3505
ZBAA,1990-05-04 06:00,ZBAA 040600Z AUTO 18012G17KT 19SM 22/M01 A2959 RMK SLP042 T02181009 4////0076 57032 IEM_DS3505
ZBAA,1990-05-04 07:00,ZBAA 040700Z AUTO ////06G16KT 7SM 26/01 A2956 RMK T02600010 IEM_DS3505
ZBAA,1990-05-04 08:00,ZBAA 040800Z AUTO 20010KT 7SM 25/02 A2953 RMK T02500020 IEM_DS3505
ZBAA,1990-05-04 09:00,ZBAA 040900Z AUTO 20012KT 16SM 22/01 A2953 RMK SLP018 T02160014 57024 IEM_DS3505
ZBAA,1990-05-04 10:00,ZBAA 041000Z AUTO 20010G19KT 7SM 22/02 A2950 RMK T02200020 IEM_DS3505
ZBAA,1990-05-04 11:00,ZBAA 041100Z AUTO ////06KT 6SM 20/03 A2950 RMK T02000030 IEM_DS3505
ZBAA,1990-05-04 12:00,ZBAA 041200Z AUTO 18010KT 16SM 18/04 A2950 RMK SLP011 T01820036 57006 IEM_DS3505
ZBAA,1990-05-04 13:00,ZBAA 041300Z AUTO ////04KT 6SM 18/03 A2953 RMK T01800030 IEM_DS3505
ZBAA,1990-05-04 14:00,ZBAA 041400Z AUTO ////02KT 6SM 17/04 A2953 RMK T01700040 IEM_DS3505
ZBAA,1990-05-04 15:00,ZBAA 041500Z AUTO 20006KT 19SM 16/04 A2950 RMK SLP004 T01620044 57007 IEM_DS3505
ZBAA,1990-05-04 16:00,ZBAA 041600Z AUTO 12004KT 7SM 15/05 A2950 RMK T01500050 IEM_DS3505
ZBAA,1990-05-04 18:00,ZBAA 041800Z AUTO 00000KT 19SM 13/06 RMK SLP986 T01300064 40226//// 57018 IEM_DS3505
ZBAA,1990-05-04 20:00,ZBAA 042000Z AUTO 13004KT 6SM 12/06 A2944 RMK T01200060 IEM_DS3505
ZBAA,1990-05-04 21:00,ZBAA 042100Z AUTO 00000KT 16SM 12/06 A2944 RMK SLP978 T01150065 57008 IEM_DS3505
ZBAA,1990-05-04 22:00,ZBAA 042200Z AUTO 00000KT 6SM 12/06 A2944 RMK T01200060 IEM_DS3505
ZBAA,1990-05-04 23:00,ZBAA 042300Z AUTO ////02KT 6SM 13/07 A2944 RMK T01300070 IEM_DS3505
ZBAA,1990-05-05 00:00,ZBAA 050000Z AUTO 36006KT 5SM 12/06 RMK SLP981 T01240064 52003 IEM_DS3505
ZBAA,1990-05-05 03:00,ZBAA 050300Z AUTO 02006KT 5SM 16/08 RMK SLP980 T01650081 57001 IEM_DS3505
ZBAA,1990-05-05 05:00,ZBAA 050500Z AUTO ////06KT 6SM 24/11 A2941 RMK T02400110 IEM_DS3505
ZBAA,1990-05-05 06:00,ZBAA 050600Z AUTO 04004KT 6SM 20/11 A2941 RMK SLP971 T01980107 4////0112 57009 IEM_DS3505
ZBAA,1990-05-05 07:00,ZBAA 050700Z AUTO ////04KT 6SM 23/10 A2941 RMK T02300100 IEM_DS3505
ZBAA,1990-05-05 08:00,ZBAA 050800Z AUTO ////02KT 6SM 23/11 A2941 RMK T02300110 IEM_DS3505
ZBAA,1990-05-05 09:00,ZBAA 050900Z AUTO 36006KT 4SM 19/10 A2944 RMK SLP978 T01890105 52007 IEM_DS3505
ZBAA,1990-05-05 10:00,ZBAA 051000Z AUTO ////04KT 6SM 21/11 A2944 RMK T02100110 IEM_DS3505
ZBAA,1990-05-05 11:00,ZBAA 051100Z AUTO 31004KT 6SM 20/12 A2947 RMK T02000120 IEM_DS3505
ZBAA,1990-05-05 12:00,ZBAA 051200Z AUTO 36004KT 4SM 18/11 A2950 RMK SLP005 T01830108 52026 IEM_DS3505
ZBAA,1990-05-05 14:00,ZBAA 051400Z AUTO 36002KT 6SM 18/10 A2953 RMK T01800100 IEM_DS3505
ZBAA,1990-05-05 15:00,ZBAA 051500Z AUTO 34004KT 5SM 18/08 A2953 RMK SLP013 T01850083 52009 IEM_DS3505
ZBAA,1990-05-05 16:00,ZBAA 051600Z AUTO 31002KT 6SM 17/10 A2956 RMK T01700100 IEM_DS3505
ZBAA,1990-05-05 17:00,ZBAA 051700Z AUTO 30002KT 6SM 16/09 A2956 RMK T01600090 IEM_DS3505
ZBAA,1990-05-05 18:00,ZBAA 051800Z AUTO 36002KT 6SM 16/10 RMK SLP018 T01590096 40201//// 52005 IEM_DS3505
ZBAA,1990-05-05 20:00,ZBAA 052000Z AUTO 11002KT 6SM 15/08 A2956 RMK T01500080 IEM_DS3505
ZBAA,1990-05-05 21:00,ZBAA 052100Z AUTO 02006KT 4SM 16/07 A2956 RMK SLP026 T01590073 52008 IEM_DS3505
ZBAA,1990-05-05 22:00,ZBAA 052200Z AUTO 00000KT 6SM 14/09 A2959 RMK T01400090 IEM_DS3505
ZBAA,1990-05-05 23:00,ZBAA 052300Z AUTO 31002KT 7SM 16/10 A2962 RMK T01600100 IEM_DS3505
ZBAA,1990-05-06 00:00,ZBAA 060000Z AUTO 00000KT 6SM 19/09 A2965 RMK SLP043 T01900088 52017 IEM_DS3505
ZBAA,1990-05-06 03:00,ZBAA 060300Z AUTO 36006KT 16SM 24/M00 A2965 RMK SLP050 T02431002 52007 IEM_DS3505
ZBAA,1990-05-06 04:00,ZBAA 060400Z AUTO ////02KT 6SM 28/05 A2962 RMK T02800050 IEM_DS3505
ZBAA,1990-05-06 05:00,ZBAA 060500Z AUTO 00000KT 6SM 29/06 A2962 RMK T02900060 IEM_DS3505
ZBAA,1990-05-06 06:00,ZBAA 060600Z AUTO 36006KT 19SM 26/00 A2959 RMK SLP039 T02640005 4////0142 57011 IEM_DS3505
ZBAA,1990-05-06 07:00,ZBAA 060700Z AUTO ////06KT 6SM 30/05 A2959 RMK T03000050 IEM_DS3505
ZBAA,1990-05-06 08:00,ZBAA 060800Z AUTO ////06KT 6SM 30/02 A2959 RMK T03000020 IEM_DS3505
ZBAA,1990-05-06 09:00,ZBAA 060900Z AUTO 36006KT 19SM 27/01 RMK SLP038 T02660013 57001 IEM_DS3505
ZBAA,1990-05-06 10:00,ZBAA 061000Z AUTO 19004KT 6SM 29/03 A2959 RMK T02900030 IEM_DS3505
ZBAA,1990-05-06 11:00,ZBAA 061100Z AUTO 12010KT 7SM 23/14 A2965 RMK T02300140 IEM_DS3505
ZBAA,1990-05-06 12:00,ZBAA 061200Z AUTO 09002KT 19SM 22/08 RMK SLP055 T02240081 52017 IEM_DS3505
ZBAA,1990-05-06 13:00,ZBAA 061300Z AUTO ////06KT 7SM 20/13 A2968 RMK T02000130 IEM_DS3505
ZBAA,1990-05-06 15:00,ZBAA 061500Z AUTO 09008KT 4SM 16/13 RMK SLP094 T01640134 52039 IEM_DS3505
ZBAA,1990-05-06 18:00,ZBAA 061800Z AUTO 20004KT 4SM 14/11 RMK SLP101 T01430111 40273//// 52007 IEM_DS3505
ZBAA,1990-05-06 21:00,ZBAA 062100Z AUTO 18004KT 4SM 14/10 A2980 RMK SLP097 T01370103 57004 IEM_DS3505
ZBAA,1990-05-06 23:00,ZBAA 062300Z AUTO 13002KT 4SM 15/11 A2980 RMK T01500110 IEM_DS3505
ZBAA,1990-05-07 00:00,ZBAA 070000Z AUTO 20004KT 5SM 14/10 A2983 RMK SLP106 T01410101 52008 IEM_DS3505
ZBAA,1990-05-07 00:49,ZBAA 070049Z AUTO ////02KT 3SM 16/11 A2983 RMK T01600110 IEM_DS3505
ZBAA,1990-05-07 01:00,ZBAA 070100Z AUTO 21002KT 3SM 18/11 A2983 RMK T01800110 IEM_DS3505
ZBAA,1990-05-07 02:00,ZBAA 070200Z AUTO ////02KT 3SM 20/11 A2980 RMK T02000110 IEM_DS3505
ZBAA,1990-05-07 03:00,ZBAA 070300Z AUTO 18008KT 3SM 18/11 A2980 RMK SLP099 T01850112 57007 IEM_DS3505
ZBAA,1990-05-07 04:00,ZBAA 070400Z AUTO ////04KT 3SM 24/13 A2977 RMK T02400130 IEM_DS3505
ZBAA,1990-05-07 05:00,ZBAA 070500Z AUTO ////06KT 4SM 24/13 A2977 RMK T02400130 IEM_DS3505
ZBAA,1990-05-07 06:00,ZBAA 070600Z AUTO 18004KT 6SM 22/11 A2974 RMK SLP075 T02230110 4////0132 57023 IEM_DS3505
ZBAA,1990-05-07 08:00,ZBAA 070800Z AUTO ////06KT 7SM 26/12 A2968 RMK T02600120 IEM_DS3505
ZBAA,1990-05-07 09:00,ZBAA 070900Z AUTO 20006KT 7SM 23/13 A2965 RMK SLP056 T02330126 57019 IEM_DS3505
ZBAA,1990-05-07 10:00,ZBAA 071000Z AUTO ////06KT 7SM 25/12 A2965 RMK T02500120 IEM_DS3505
ZBAA,1990-05-07 11:00,ZBAA 071100Z AUTO ////06KT 7SM 23/13 A2965 RMK T02300130 IEM_DS3505
ZBAA,1990-05-07 12:00,ZBAA 071200Z AUTO 16004KT 10SM 21/13 A2968 RMK SLP055 T02140131 57001 IEM_DS3505
ZBAA,1990-05-07 13:00,ZBAA 071300Z AUTO ////06KT 7SM 18/13 A2968 RMK T01800130 IEM_DS3505
ZBAA,1990-05-07 14:00,ZBAA 071400Z AUTO ////06KT 7SM 18/13 A2968 RMK T01800130 IEM_DS3505
ZBAA,1990-05-07 15:00,ZBAA 071500Z AUTO 09002KT 7SM 17/13 A2968 RMK SLP059 T01680131 52004 IEM_DS3505
ZBAA,1990-05-07 18:00,ZBAA 071800Z AUTO 07004KT 5SM 15/12 RMK SLP054 T01470121 40238//// 57005 IEM_DS3505
ZBAA,1990-05-07 20:00,ZBAA 072000Z AUTO ////04KT 4SM 15/11 A2965 RMK T01500110 IEM_DS3505
ZBAA,1990-05-07 21:00,ZBAA 072100Z AUTO 02004KT 3SM 14/12 A2962 RMK SLP048 T01430119 57006 IEM_DS3505
ZBAA,1990-05-07 22:00,ZBAA 072200Z AUTO ////02KT 4SM 15/11 A2962 RMK T01500110 IEM_DS3505
ZBAA,1990-05-07 23:00,ZBAA 072300Z AUTO 00000KT 4SM 15/11 A2965 RMK T01500110 IEM_DS3505
ZBAA,1990-05-08 00:00,ZBAA 080000Z AUTO 07004KT 3SM 16/12 A2965 RMK SLP048 T01550120 54000 IEM_DS3505
ZBAA,1990-05-08 01:00,ZBAA 080100Z AUTO ////02KT 3SM 19/13 A2962 RMK T01900130 IEM_DS3505
ZBAA,1990-05-08 02:00,ZBAA 080200Z AUTO 00000KT 4SM 22/13 A2962 RMK T02200130 IEM_DS3505
ZBAA,1990-05-08 03:00,ZBAA 080300Z AUTO 16002KT 3SM 20/13 A2959 RMK SLP033 T01970131 57015 IEM_DS3505
ZBAA,1990-05-08 05:00,ZBAA 080500Z AUTO ////04KT 4SM 27/15 A2953 RMK T02700150 IEM_DS3505
ZBAA,1990-05-08 06:00,ZBAA 080600Z AUTO 20004KT 2 1/2SM 24/14 A2950 RMK SLP006 T02370143 4////0139 57027 IEM_DS3505
ZBAA,1990-05-08 07:00,ZBAA 080700Z AUTO ////04KT 4SM 28/16 A2947 RMK T02800160 IEM_DS3505
ZBAA,1990-05-08 08:00,ZBAA 080800Z AUTO ////04KT 4SM 28/16 A2947 RMK T02800160 IEM_DS3505
ZBAA,1990-05-08 09:00,ZBAA 080900Z AUTO 20006KT 3SM 26/17 RMK SLP977 T02560167 57028 IEM_DS3505
ZBAA,1990-05-08 10:00,ZBAA 081000Z AUTO ////02KT 6SM 27/16 A2941 RMK T02700160 IEM_DS3505
ZBAA,1990-05-08 11:00,ZBAA 081100Z AUTO ////02KT 7SM 25/17 A2944 RMK T02500170 IEM_DS3505
ZBAA,1990-05-08 12:00,ZBAA 081200Z AUTO 09002KT 3SM 24/17 A2944 RMK SLP985 T02350169 52007 IEM_DS3505
ZBAA,1990-05-08 15:00,ZBAA 081500Z AUTO 07002KT 4SM 21/17 A2950 RMK SLP997 T02070171 52013 IEM_DS3505
ZBAA,1990-05-08 16:00,ZBAA 081600Z AUTO ////02KT 6SM 21/16 A2953 RMK T02100160 IEM_DS3505
ZBAA,1990-05-08 18:00,ZBAA 081800Z AUTO 02002KT 4SM 21/16 RMK SLP019 T02080164 40258//// 52022 IEM_DS3505
ZBAA,1990-05-08 21:00,ZBAA 082100Z AUTO 36006KT 6SM 22/14 RMK SLP029 T02190141 52010 IEM_DS3505
ZBAA,1990-05-08 22:00,ZBAA 082200Z AUTO ////02KT 6SM 21/14 A2962 RMK T02100140 IEM_DS3505
ZBAA,1990-05-08 23:00,ZBAA 082300Z AUTO ////02KT 6SM 22/13 A2965 RMK T02200130 IEM_DS3505
ZBAA,1990-05-09 00:00,ZBAA 090000Z AUTO 36004KT 7SM 24/11 A2968 RMK SLP059 T02360110 52030 IEM_DS3505
ZBAA,1990-05-09 03:00,ZBAA 090300Z AUTO 04002KT 6SM 28/10 A2971 RMK SLP070 T02840096 52011 IEM_DS3505
ZBAA,1990-05-09 06:00,ZBAA 090600Z AUTO 18008KT 6SM 28/10 A2968 RMK SLP062 T02830105 4////0204 57008 IEM_DS3505
ZBAA,1990-05-09 07:00,ZBAA 090700Z AUTO 18008KT 6SM 31/13 A2965 RMK T03100130 IEM_DS3505
ZBAA,1990-05-09 08:00,ZBAA 090800Z AUTO ////06KT 6SM 30/11 A2965 RMK T03000110 IEM_DS3505
ZBAA,1990-05-09 09:00,ZBAA 090900Z AUTO 18010KT 6SM 26/10 A2965 RMK SLP051 T02640100 57011 IEM_DS3505
ZBAA,1990-05-09 11:00,ZBAA 091100Z AUTO ////06KT 6SM 25/10 A2965 RMK T02500100 IEM_DS3505
ZBAA,1990-05-09 12:00,ZBAA 091200Z AUTO 20006KT 5SM 24/09 A2968 RMK SLP054 T02390093 52003 IEM_DS3505
ZBAA,1990-05-09 13:00,ZBAA 091300Z AUTO ////04KT 6SM 23/11 A2968 RMK T02300110 IEM_DS3505
ZBAA,1990-05-09 14:00,ZBAA 091400Z AUTO ////02KT 6SM 22/10 A2974 RMK T02200100 IEM_DS3505
ZBAA,1990-05-09 15:00,ZBAA 091500Z AUTO 22006KT 4SM 21/11 A2974 RMK SLP078 T02090108 52024 IEM_DS3505
ZBAA,1990-05-09 18:00,ZBAA 091800Z AUTO 00000KT 4SM 20/12 RMK SLP071 T02010119 40292//// 57007 IEM_DS3505
ZBAA,1990-05-09 20:00,ZBAA 092000Z AUTO 00000KT 6SM 19/12 A2971 RMK T01900120 IEM_DS3505
ZBAA,1990-05-09 21:00,ZBAA 092100Z AUTO 36014G23KT 2 1/2SM 21/M00 A2977 RMK SLP084 T02091005 52013 IEM_DS3505
ZBAA,1990-05-09 22:00,ZBAA 092200Z AUTO 32012G23KT 7SM 20/M06 A2980 RMK T02001060 IEM_DS3505
ZBAA,1990-05-10 00:00,ZBAA 100000Z AUTO 36016G29KT 4SM 19/M06 A2985 RMK SLP112 T01911056 IEM_DS3505
ZBAA,1990-05-10 01:00,ZBAA 100100Z AUTO 33014G23KT 6SM 22/M07 A2985 RMK T02201070 IEM_DS3505
ZBAA,1990-05-10 02:00,ZBAA 100200Z AUTO 32010KT 6SM 23/M04 A2988 RMK T02301040 IEM_DS3505
ZBAA,1990-05-10 03:00,ZBAA 100300Z AUTO 02010KT 12SM 20/M04 A2988 RMK SLP122 T01971041 52010 IEM_DS3505
ZBAA,1990-05-10 04:00,ZBAA 100400Z AUTO 32010KT 6SM 24/05 A2985 RMK T02400050 IEM_DS3505
ZBAA,1990-05-10 06:00,ZBAA 100600Z AUTO 34010KT 19SM 25/M02 A2983 RMK SLP107 T02461022 4////0186 57015 IEM_DS3505
ZBAA,1990-05-10 07:00,ZBAA 100700Z AUTO 30008KT 6SM 28/M04 A2980 RMK T02801040 IEM_DS3505
ZBAA,1990-05-10 08:00,ZBAA 100800Z AUTO ////02KT 7SM 29/M02 A2977 RMK T02901020 IEM_DS3505
ZBAA,1990-05-10 09:00,ZBAA 100900Z AUTO ////06KT 16SM 28/M08 A2977 RMK SLP085 T02781080 57021 IEM_DS3505
ZBAA,1990-05-10 10:00,ZBAA 101000Z AUTO ////06KT 7SM 26/02 A2974 RMK T02600020 IEM_DS3505
ZBAA,1990-05-10 11:00,ZBAA 101100Z AUTO ////06KT 7SM 23/03 A2977 RMK T02300030 IEM_DS3505
ZBAA,1990-05-10 12:00,ZBAA 101200Z AUTO 20010KT 12SM 22/03 A2980 RMK SLP091 T02210026 52005 IEM_DS3505
ZBAA,1990-05-10 13:00,ZBAA 101300Z AUTO ////02KT 6SM 19/03 A2980 RMK T01900030 IEM_DS3505
ZBAA,1990-05-10 15:00,ZBAA 101500Z AUTO 22002KT 11SM 18/07 A2980 RMK SLP097 T01850073 52006 IEM_DS3505
ZBAA,1990-05-10 18:00,ZBAA 101800Z AUTO 00000KT 7SM 14/08 RMK SLP090 T01450084 40279//// 57007 IEM_DS3505
ZBAA,1990-05-10 20:00,ZBAA 102000Z AUTO 05002KT 6SM 12/07 A2977 RMK T01200070 IEM_DS3505
ZBAA,1990-05-10 21:00,ZBAA 102100Z AUTO 04002KT 6SM 13/07 A2974 RMK SLP080 T01320068 57010 IEM_DS3505
ZBAA,1990-05-10 22:00,ZBAA 102200Z AUTO 06002KT 7SM 12/07 A2974 RMK T01200070 IEM_DS3505
ZBAA,1990-05-10 23:00,ZBAA 102300Z AUTO 10002KT 7SM 14/08 A2974 RMK T01400080 IEM_DS3505
ZBAA,1990-05-11 00:00,ZBAA 110000Z AUTO 00000KT 4SM 16/08 A2974 RMK SLP079 T01590078 57001 IEM_DS3505
ZBAA,1990-05-11 01:00,ZBAA 110100Z AUTO 01002KT 6SM 20/08 A2974 RMK T02000080 IEM_DS3505
ZBAA,1990-05-11 02:00,ZBAA 110200Z AUTO ////02KT 6SM 23/09 A2971 RMK T02300090 IEM_DS3505
ZBAA,1990-05-11 03:00,ZBAA 110300Z AUTO 00000KT 3SM 21/08 A2968 RMK SLP063 T02130075 57016 IEM_DS3505
ZBAA,1990-05-11 04:00,ZBAA 110400Z AUTO ////04KT 6SM 25/10 A2968 RMK T02500100 IEM_DS3505
ZBAA,1990-05-11 05:00,ZBAA 110500Z AUTO ////04KT 6SM 26/10 A2965 RMK T02600100 IEM_DS3505
ZBAA,1990-05-11 06:00,ZBAA 110600Z AUTO 20006KT 4SM 25/10 A2962 RMK SLP041 T02540100 4////0124 57022 IEM_DS3505
ZBAA,1990-05-11 07:00,ZBAA 110700Z AUTO ////04KT 6SM 29/13 A2959 RMK T02900130 IEM_DS3505
ZBAA,1990-05-11 08:00,ZBAA 110800Z AUTO ////04KT 6SM 29/14 A2959 RMK T02900140 IEM_DS3505
ZBAA,1990-05-11 09:00,ZBAA 110900Z AUTO 00000KT 2 1/2SM 29/11 A2959 RMK SLP025 T02920111 57015 IEM_DS3505
ZBAA,1990-05-11 10:00,ZBAA 111000Z AUTO ////02KT 6SM 28/15 A2959 RMK T02800150 IEM_DS3505
ZBAA,1990-05-11 12:00,ZBAA 111200Z AUTO 36002KT 3SM 23/14 A2962 RMK SLP041 T02320137 52015 IEM_DS3505
ZBAA,1990-05-11 13:00,ZBAA 111300Z AUTO ////02KT 4SM 22/12 A2965 RMK T02200120 IEM_DS3505
ZBAA,1990-05-11 14:00,ZBAA 111400Z AUTO 00000KT 4SM 21/12 A2965 RMK T02100120 IEM_DS3505
ZBAA,1990-05-11 15:00,ZBAA 111500Z AUTO 00000KT 2 1/2SM 21/14 A2965 RMK SLP051 T02070135 52010 IEM_DS3505
ZBAA,1990-05-11 16:00,ZBAA 111600Z AUTO 00000KT 6SM 20/12 A2965 RMK T02000120 IEM_DS3505
ZBAA,1990-05-11 18:00,ZBAA 111800Z AUTO 02006KT 2 1/2SM 20/13 RMK SLP047 T02030126 40293//// 57003 IEM_DS3505
ZBAA,1990-05-11 20:00,ZBAA 112000Z AUTO 00000KT 6SM 21/11 A2968 RMK T02100110 IEM_DS3505
ZBAA,1990-05-11 21:00,ZBAA 112100Z AUTO 02004KT 4SM 20/12 A2968 RMK SLP057 T02000122 52010 IEM_DS3505
ZBAA,1990-05-11 22:00,ZBAA 112200Z AUTO 00000KT 6SM 20/12 A2968 RMK T02000120 IEM_DS3505
ZBAA,1990-05-12 00:00,ZBAA 120000Z AUTO 07008KT 6SM 20/07 A2971 RMK SLP063 T02000072 52005 IEM_DS3505
ZBAA,1990-05-12 01:00,ZBAA 120100Z AUTO ////04KT 6SM 20/10 A2971 RMK T02000100 IEM_DS3505
ZBAA,1990-05-12 02:00,ZBAA 120200Z AUTO 00000KT 6SM 21/12 A2968 RMK T02100120 IEM_DS3505
ZBAA,1990-05-12 03:00,ZBAA 120300Z AUTO 02006KT 6SM 21/07 RMK SLP072 T02140071 52009 IEM_DS3505
ZBAA,1990-05-12 04:00,ZBAA 120400Z AUTO ////04KT 5SM 22/09 A2971 RMK T02200090 IEM_DS3505
ZBAA,1990-05-12 05:00,ZBAA 120500Z AUTO ////02KT 6SM 24/14 A2968 RMK T02400140 IEM_DS3505
ZBAA,1990-05-12 06:00,ZBAA 120600Z AUTO 04006KT 6SM 21/10 A2971 RMK SLP068 T02100100 4////0191 57004 IEM_DS3505
ZBAA,1990-05-12 07:00,ZBAA 120700Z AUTO ////06KT 6SM 22/13 A2971 RMK T02200130 IEM_DS3505
ZBAA,1990-05-12 07:37,ZBAA 120737Z AUTO ////06KT 6SM 22/13 A2971 RMK T02200130 IEM_DS3505
ZBAA,1990-05-12 08:00,ZBAA 120800Z AUTO 00000KT 6SM 21/14 A2971 RMK T02100140 IEM_DS3505
ZBAA,1990-05-12 09:00,ZBAA 120900Z AUTO 04002KT 6SM 20/13 A2971 RMK SLP070 T02000126 52002 IEM_DS3505
ZBAA,1990-05-12 10:00,ZBAA 121000Z AUTO ////06KT 7SM 18/12 A2965 RMK T01800120 IEM_DS3505
ZBAA,1990-05-12 11:00,ZBAA 121100Z AUTO 00000KT 6SM 18/13 A2968 RMK T01800130 IEM_DS3505
ZBAA,1990-05-12 12:00,ZBAA 121200Z AUTO 14004KT 6SM 17/10 A2974 RMK 60000 SLP081 T01670101 52011 IEM_DS3505
ZBAA,1990-05-12 13:00,ZBAA 121300Z AUTO ////04KT 6SM 16/11 A2977 RMK T01600110 IEM_DS3505
ZBAA,1990-05-12 14:00,ZBAA 121400Z AUTO 00000KT 6SM 15/11 A2983 RMK T01500110 IEM_DS3505
ZBAA,1990-05-12 15:00,ZBAA 121500Z AUTO 00000KT 10SM 14/11 A2985 RMK SLP118 T01450109 52036 IEM_DS3505
ZBAA,1990-05-12 16:00,ZBAA 121600Z AUTO 32002KT 7SM 14/11 A2985 RMK T01400110 IEM_DS3505
ZBAA,1990-05-12 17:00,ZBAA 121700Z AUTO 30002KT 7SM 14/11 A2983 RMK T01400110 IEM_DS3505
ZBAA,1990-05-12 18:00,ZBAA 121800Z AUTO 00000KT 7SM 14/10 RMK SLP111 T01350105 40229//// 57007 IEM_DS3505
ZBAA,1990-05-12 20:00,ZBAA 122000Z AUTO 00000KT 6SM 13/10 A2983 RMK T01300100 IEM_DS3505
ZBAA,1990-05-12 21:00,ZBAA 122100Z AUTO 00000KT 6SM 13/11 A2983 RMK SLP110 T01310106 57001 IEM_DS3505
ZBAA,1990-05-12 22:00,ZBAA 122200Z AUTO 30002KT 4SM 13/12 A2983 RMK T01300120 IEM_DS3505
ZBAA,1990-05-12 23:00,ZBAA 122300Z AUTO ////04KT 4SM 16/12 A2985 RMK T01600120 IEM_DS3505
ZBAA,1990-05-13 00:00,ZBAA 130000Z AUTO 36004KT 6SM 18/11 A2985 RMK SLP114 T01790113 52004 IEM_DS3505
ZBAA,1990-05-13 01:00,ZBAA 130100Z AUTO ////04KT 7SM 23/13 A2985 RMK T02300130 IEM_DS3505
ZBAA,1990-05-13 02:00,ZBAA 130200Z AUTO ////04KT 7SM 25/13 A2985 RMK T02500130 IEM_DS3505
ZBAA,1990-05-13 03:00,ZBAA 130300Z AUTO 02006KT 7SM 24/10 A2983 RMK SLP114 T02400096 52001 IEM_DS3505
ZBAA,1990-05-13 04:00,ZBAA 130400Z AUTO ////04KT 7SM 29/07 A2983 RMK T02900070 IEM_DS3505
ZBAA,1990-05-13 05:00,ZBAA 130500Z AUTO ////04KT 6SM A2980 RMK IEM_DS3505
ZBAA,1990-05-13 06:00,ZBAA 130600Z AUTO 09008KT 12SM 27/06 A2980 RMK SLP097 T02660057 4////0128 57017 IEM_DS3505
ZBAA,1990-05-13 07:00,ZBAA 130700Z AUTO ////02KT 6SM 32/05 A2977 RMK T03200050 IEM_DS3505
ZBAA,1990-05-13 08:00,ZBAA 130800Z AUTO ////02KT 6SM 32/05 A2977 RMK T03200050 IEM_DS3505
ZBAA,1990-05-13 09:00,ZBAA 130900Z AUTO 18008KT 12SM 27/05 A2977 RMK SLP093 T02690047 57004 IEM_DS3505
ZBAA,1990-05-13 10:00,ZBAA 131000Z AUTO ////04KT 7SM 27/07 A2977 RMK T02700070 IEM_DS3505
ZBAA,1990-05-13 11:00,ZBAA 131100Z AUTO ////06KT 7SM 26/09 A2980 RMK T02600090 IEM_DS3505
ZBAA,1990-05-13 12:00,ZBAA 131200Z AUTO 20006KT 12SM 23/12 A2983 RMK SLP107 T02290123 52014 IEM_DS3505
ZBAA,1990-05-13 13:00,ZBAA 131300Z AUTO ////04KT 6SM 22/12 A2985 RMK T02200120 IEM_DS3505
ZBAA,1990-05-13 14:00,ZBAA 131400Z AUTO ////04KT 7SM 20/12 A2985 RMK T02000120 IEM_DS3505
ZBAA,1990-05-13 15:00,ZBAA 131500Z AUTO 20002KT 12SM 20/13 A2988 RMK SLP123 T02010129 52016 IEM_DS3505
ZBAA,1990-05-13 18:00,ZBAA 131800Z AUTO 00000KT 6SM 17/14 RMK SLP127 T01660136 40277//// 52004 IEM_DS3505
ZBAA,1990-05-13 20:00,ZBAA 132000Z AUTO 00000KT 7SM 15/11 A2991 RMK T01500110 IEM_DS3505
ZBAA,1990-05-13 21:00,ZBAA 132100Z AUTO 04004KT 4SM 16/12 A2994 RMK SLP138 T01610117 52011 IEM_DS3505
ZBAA,1990-05-13 22:00,ZBAA 132200Z AUTO 34004KT 7SM 14/11 A2994 RMK T01400110 IEM_DS3505
ZBAA,1990-05-13 23:00,ZBAA 132300Z AUTO 34004KT 7SM 19/10 A2997 RMK T01900100 IEM_DS3505
ZBAA,1990-05-14 00:00,ZBAA 140000Z AUTO 02006KT 6SM 22/06 A2997 RMK SLP151 T02150061 52013 IEM_DS3505
ZBAA,1990-05-14 01:00,ZBAA 140100Z AUTO ////02KT 7SM 26/10 A2997 RMK T02600100 IEM_DS3505
ZBAA,1990-05-14 02:00,ZBAA 140200Z AUTO ////02KT 7SM 28/09 A3000 RMK T02800090 IEM_DS3505
ZBAA,1990-05-14 03:00,ZBAA 140300Z AUTO 36006KT 12SM 27/03 A2997 RMK SLP159 T02660026 52008 IEM_DS3505
ZBAA,1990-05-14 04:00,ZBAA 140400Z AUTO ////04KT 6SM 30/05 A2997 RMK T03000050 IEM_DS3505
ZBAA,1990-05-14 05:00,ZBAA 140500Z AUTO ////04KT 6SM 31/05 A2994 RMK T03100050 IEM_DS3505
ZBAA,1990-05-14 06:00,ZBAA 140600Z AUTO 04006KT 16SM 28/05 A2994 RMK SLP146 T02800054 57013 IEM_DS3505
ZBAA,1990-05-14 07:00,ZBAA 140700Z AUTO ////02KT 6SM 33/05 A2991 RMK T03300050 IEM_DS3505
ZBAA,1990-05-14 08:00,ZBAA 140800Z AUTO ////04KT 6SM 32/05 A2991 RMK T03200050 IEM_DS3505
ZBAA,1990-05-14 09:00,ZBAA 140900Z AUTO 20004KT 11SM 28/04 A2991 RMK SLP141 T02780043 57005 IEM_DS3505
ZBAA,1990-05-14 10:00,ZBAA 141000Z AUTO ////04KT 6SM 29/08 A2991 RMK T02900080 IEM_DS3505
ZBAA,1990-05-14 11:00,ZBAA 141100Z AUTO ////04KT 6SM 26/07 A2991 RMK T02600070 IEM_DS3505
ZBAA,1990-05-14 12:00,ZBAA 141200Z AUTO 20008KT 9SM 25/06 A2994 RMK SLP150 T02460063 52009 IEM_DS3505
ZBAA,1990-05-14 13:00,ZBAA 141300Z AUTO ////04KT 6SM 23/06 A2997 RMK T02300060 IEM_DS3505
ZBAA,1990-05-14 14:00,ZBAA 141400Z AUTO ////04KT 6SM 22/07 A2997 RMK T02200070 IEM_DS3505
ZBAA,1990-05-14 15:00,ZBAA 141500Z AUTO 20006KT 9SM 21/10 RMK SLP163 T02090100 52013 IEM_DS3505
ZBAA,1990-05-14 18:00,ZBAA 141800Z AUTO 00000KT 9SM 17/11 RMK SLP165 T01730112 52002 IEM_DS3505
ZBAA,1990-05-14 21:00,ZBAA 142100Z AUTO 00000KT 7SM 15/10 RMK SLP170 T01500102 52005 IEM_DS3505
ZBAA,1990-05-15 00:00,ZBAA 150000Z AUTO 00000KT 7SM 22/10 RMK SLP182 T02160098 52012 IEM_DS3505
ZBAA,1990-05-15 02:00,ZBAA 150200Z AUTO ////02KT 7SM 28/13 A3003 RMK T02800130 IEM_DS3505
ZBAA,1990-05-15 03:00,ZBAA 150300Z AUTO 18004KT 4SM 27/11 A3003 RMK SLP178 T02690107 57004 IEM_DS3505
ZBAA,1990-05-15 04:00,ZBAA 150400Z AUTO 20002KT 7SM 31/13 A3000 RMK T03100130 IEM_DS3505
ZBAA,1990-05-15 05:00,ZBAA 150500Z AUTO ////06KT 7SM 33/11 A2997 RMK T03300110 IEM_DS3505
ZBAA,1990-05-15 06:00,ZBAA 150600Z AUTO 20010KT 6SM 30/00 A2994 RMK SLP155 T02960004 4////0144 57023 IEM_DS3505
ZBAA,1990-05-15 07:00,ZBAA 150700Z AUTO 20008KT 6SM 33/06 A2991 RMK T03300060 IEM_DS3505
ZBAA,1990-05-15 08:00,ZBAA 150800Z AUTO 19008KT 6SM 31/08 A2991 RMK T03100080 IEM_DS3505
ZBAA,1990-05-15 09:00,ZBAA 150900Z AUTO 18012KT 6SM 28/12 A2991 RMK SLP142 T02780116 57013 IEM_DS3505
ZBAA,1990-05-15 10:00,ZBAA 151000Z AUTO ////04KT 6SM 29/ A2988 RMK IEM_DS3505
ZBAA,1990-05-15 11:00,ZBAA 151100Z AUTO ////04KT 6SM 27/11 A2991 RMK T02700110 IEM_DS3505
ZBAA,1990-05-15 12:00,ZBAA 151200Z AUTO 20006KT 7SM 25/14 A2991 RMK SLP140 T02470135 57002 IEM_DS3505
ZBAA,1990-05-15 13:00,ZBAA 151300Z AUTO 18002KT 6SM 25/12 A2991 RMK T02500120 IEM_DS3505
ZBAA,1990-05-15 14:00,ZBAA 151400Z AUTO 19002KT 6SM 24/13 A2991 RMK T02400130 IEM_DS3505
ZBAA,1990-05-15 15:00,ZBAA 151500Z AUTO 20008KT 6SM 23/15 A2991 RMK SLP139 T02290149 54000 IEM_DS3505
ZBAA,1990-05-15 18:00,ZBAA 151800Z AUTO 00000KT 6SM 21/16 RMK SLP133 T02130158 40301//// 57006 IEM_DS3505
ZBAA,1990-05-15 20:00,ZBAA 152000Z AUTO 00000KT 7SM 19/14 A2988 RMK T01900140 IEM_DS3505
ZBAA,1990-05-15 21:00,ZBAA 152100Z AUTO 04002KT 5SM 20/15 RMK SLP130 T01970150 57004 IEM_DS3505
ZBAA,1990-05-15 23:00,ZBAA 152300Z AUTO ////02KT 6SM 20/14 A2988 RMK T02000140 IEM_DS3505
ZBAA,1990-05-16 00:00,ZBAA 160000Z AUTO 02006KT 5SM 20/14 A2991 RMK SLP138 T02050138 52008 IEM_DS3505
ZBAA,1990-05-16 01:00,ZBAA 160100Z AUTO ////02KT 6SM 24/14 A2991 RMK T02400140 IEM_DS3505
ZBAA,1990-05-16 02:00,ZBAA 160200Z AUTO 00000KT 6SM 27/15 A2991 RMK T02700150 IEM_DS3505
ZBAA,1990-05-16 03:00,ZBAA 160300Z AUTO 04006KT 4SM 24/13 A2994 RMK SLP143 T02400128 52005 IEM_DS3505
ZBAA,1990-05-16 04:00,ZBAA 160400Z AUTO 12008KT 6SM 29/10 A2994 RMK T02900100 IEM_DS3505
ZBAA,1990-05-16 05:00,ZBAA 160500Z AUTO 13010KT 6SM 27/08 A2991 RMK T02700080 IEM_DS3505
ZBAA,1990-05-16 06:00,ZBAA 160600Z AUTO 09010KT 5SM 24/12 A2991 RMK SLP139 T02450115 4////0187 57004 IEM_DS3505
ZBAA,1990-05-16 07:00,ZBAA 160700Z AUTO 14008KT 6SM 27/11 A2991 RMK T02700110 IEM_DS3505
ZBAA,1990-05-16 08:00,ZBAA 160800Z AUTO ////06KT 6SM 26/10 A2991 RMK T02600100 IEM_DS3505
ZBAA,1990-05-16 09:00,ZBAA 160900Z AUTO ////06KT 6SM 23/09 A2991 RMK SLP140 T02280089 52001 IEM_DS3505
ZBAA,1990-05-16 11:00,ZBAA 161100Z AUTO 18002KT 6SM 22/09 A2991 RMK T02200090 IEM_DS3505
ZBAA,1990-05-16 12:00,ZBAA 161200Z AUTO 16006KT 6SM 21/10 A2994 RMK SLP146 T02070100 52006 IEM_DS3505
ZBAA,1990-05-16 13:00,ZBAA 161300Z AUTO ////04KT 6SM 20/12 A2997 RMK T02000120 IEM_DS3505
ZBAA,1990-05-16 14:00,ZBAA 161400Z AUTO ////06KT 6SM 19/12 A2997 RMK T01900120 IEM_DS3505
ZBAA,1990-05-16 15:00,ZBAA 161500Z AUTO 18010KT 10SM 17/12 RMK SLP161 T01730123 52015 IEM_DS3505
ZBAA,1990-05-16 18:00,ZBAA 161800Z AUTO 20006KT 9SM 17/11 RMK SLP155 T01660108 40251//// 57006 IEM_DS3505
ZBAA,1990-05-16 21:00,ZBAA 162100Z AUTO 16008KT 11SM 16/11 RMK SLP150 T01590109 57006 IEM_DS3505
ZBAA,1990-05-16 22:00,ZBAA 162200Z AUTO ////04KT 6SM 16/10 A2994 RMK T01600100 IEM_DS3505
ZBAA,1990-05-16 23:00,ZBAA 162300Z AUTO ////06KT 7SM 16/10 A2994 RMK T01600100 IEM_DS3505
ZBAA,1990-05-17 00:00,ZBAA 170000Z AUTO 20004KT 11SM 14/12 A2997 RMK SLP155 T01430115 52005 IEM_DS3505
ZBAA,1990-05-17 01:00,ZBAA 170100Z AUTO 09002KT 7SM 16/14 A2997 RMK T01600140 IEM_DS3505
ZBAA,1990-05-17 02:00,ZBAA 170200Z AUTO ////02KT 7SM 16/15 A2994 RMK T01600150 IEM_DS3505
ZBAA,1990-05-17 03:00,ZBAA 170300Z AUTO 00000KT 7SM 16/12 A2991 RMK SLP145 T01590123 57010 IEM_DS3505
ZBAA,1990-05-17 04:00,ZBAA 170400Z AUTO ////02KT 7SM 19/12 A2988 RMK T01900120 IEM_DS3505
ZBAA,1990-05-17 05:00,ZBAA 170500Z AUTO ////02KT 7SM 19/12 A2988 RMK T01900120 IEM_DS3505
ZBAA,1990-05-17 06:00,ZBAA 170600Z AUTO 18004KT 8SM 16/11 A2983 RMK 60001 SLP114 T01590111 4////0140 57031 IEM_DS3505
ZBAA,1990-05-17 07:00,ZBAA 170700Z AUTO ////02KT 7SM 20/11 A2980 RMK T02000110 IEM_DS3505
ZBAA,1990-05-17 09:00,ZBAA 170900Z AUTO 20004KT 11SM 18/10 A2974 RMK SLP086 T01750098 57028 IEM_DS3505
ZBAA,1990-05-17 10:00,ZBAA 171000Z AUTO 32002KT 6SM 19/10 A2974 RMK T01900100 IEM_DS3505
ZBAA,1990-05-17 11:00,ZBAA 171100Z AUTO 00000KT 6SM 18/10 A2971 RMK T01800100 IEM_DS3505
ZBAA,1990-05-17 12:00,ZBAA 171200Z AUTO 20004KT 12SM 16/10 A2971 RMK SLP076 T01620095 57010 IEM_DS3505
ZBAA,1990-05-17 13:00,ZBAA 171300Z AUTO 20002KT 6SM 17/11 A2971 RMK T01700110 IEM_DS3505
ZBAA,1990-05-17 14:00,ZBAA 171400Z AUTO 25002KT 6SM 16/10 A2968 RMK T01600100 IEM_DS3505
ZBAA,1990-05-17 15:00,ZBAA 171500Z AUTO 18004KT 12SM 15/10 A2965 RMK SLP057 T01480098 57019 IEM_DS3505
ZBAA,1990-05-17 18:00,ZBAA 171800Z AUTO 20004KT 12SM 13/11 RMK SLP040 T01300107 40178//// 57017 IEM_DS3505
ZBAA,1990-05-17 20:00,ZBAA 172000Z AUTO 00000KT 6SM 14/10 A2956 RMK T01400100 IEM_DS3505
ZBAA,1990-05-17 21:00,ZBAA 172100Z AUTO 20004KT 6SM 12/10 A2956 RMK SLP023 T01190102 57017 IEM_DS3505
ZBAA,1990-05-17 22:00,ZBAA 172200Z AUTO 00000KT 6SM 13/10 A2956 RMK T01300100 IEM_DS3505
ZBAA,1990-05-17 23:00,ZBAA 172300Z AUTO 00000KT 6SM 15/12 A2956 RMK T01500120 IEM_DS3505
ZBAA,1990-05-18 00:00,ZBAA 180000Z AUTO 00000KT 5SM 14/11 A2956 RMK SLP022 T01380110 57001 IEM_DS3505
ZBAA,1990-05-18 01:00,ZBAA 180100Z AUTO 00000KT 6SM 20/12 A2953 RMK T02000120 IEM_DS3505
ZBAA,1990-05-18 02:00,ZBAA 180200Z AUTO ////02KT 6SM 21/13 A2953 RMK T02100130 IEM_DS3505
ZBAA,1990-05-18 03:00,ZBAA 180300Z AUTO 20002KT 4SM 19/11 A2950 RMK SLP004 T01890111 57017 IEM_DS3505
ZBAA,1990-05-18 04:00,ZBAA 180400Z AUTO ////02KT 2 1/2SM 25/13 A2947 RMK T02500130 IEM_DS3505
ZBAA,1990-05-18 05:00,ZBAA 180500Z AUTO ////02KT 5SM 26/13 A2944 RMK T02600130 IEM_DS3505
ZBAA,1990-05-18 06:00,ZBAA 180600Z AUTO 18006KT 5SM 22/11 A2941 RMK SLP975 T02240112 4////0115 57029 IEM_DS3505
ZBAA,1990-05-18 09:00,ZBAA 180900Z AUTO 14008KT 6SM 24/13 A2938 RMK SLP961 T02370131 57014 IEM_DS3505
ZBAA,1990-05-18 10:00,ZBAA 181000Z AUTO ////04KT 6SM 25/14 A2938 RMK T02500140 IEM_DS3505
ZBAA,1990-05-18 11:00,ZBAA 181100Z AUTO 16002KT 6SM 22/15 A2941 RMK SLP978 T02210148 52017 IEM_DS3505
ZBAA,1990-05-18 12:00,ZBAA 181200Z AUTO 16002KT 6SM 22/15 A2944 RMK SLP978 T02210148 52017 IEM_DS3505
ZBAA,1990-05-18 13:00,ZBAA 181300Z AUTO 6SM 22/14 A2947 RMK T02200140 IEM_DS3505
ZBAA,1990-05-18 14:00,ZBAA 181400Z AUTO ////06KT 6SM 21/14 A2947 RMK T02100140 IEM_DS3505
ZBAA,1990-05-18 15:00,ZBAA 181500Z AUTO 11002KT 4SM 21/16 RMK SLP990 T02120156 52013 IEM_DS3505
ZBAA,1990-05-18 18:00,ZBAA 181800Z AUTO 04004KT 3SM 19/16 RMK SLP999 T01870155 40241//// 52009 IEM_DS3505
ZBAA,1990-05-18 20:00,ZBAA 182000Z AUTO 18002KT 7SM 18/14 A2953 RMK T01800140 IEM_DS3505
ZBAA,1990-05-18 21:00,ZBAA 182100Z AUTO 00000KT 2 1/2SM 17/14 A2953 RMK SLP015 T01730142 52015 IEM_DS3505
ZBAA,1990-05-18 22:00,ZBAA 182200Z AUTO 00000KT 7SM 18/14 A2956 RMK T01800140 IEM_DS3505
ZBAA,1990-05-18 23:00,ZBAA 182300Z AUTO ////06KT 6SM 18/10 A2956 RMK T01800100 IEM_DS3505
ZBAA,1990-05-19 00:00,ZBAA 190000Z AUTO 32004KT 12SM 21/04 A2956 RMK SLP030 T02060036 52016 IEM_DS3505
ZBAA,1990-05-19 01:00,ZBAA 190100Z AUTO 19008G17KT 6SM 24/05 A2959 RMK T02400050 IEM_DS3505
ZBAA,1990-05-19 02:00,ZBAA 190200Z AUTO 29010G19KT 6SM 25/04 A2962 RMK T02500040 IEM_DS3505
ZBAA,1990-05-19 03:00,ZBAA 190300Z AUTO 29012G23KT 7SM 23/03 A2962 RMK SLP047 T02310028 52017 IEM_DS3505
ZBAA,1990-05-19 04:00,ZBAA 190400Z AUTO 29014G23KT 6SM 26/04 A2962 RMK T02600040 IEM_DS3505
ZBAA,1990-05-19 05:00,ZBAA 190500Z AUTO 29014G25KT 7SM 25/03 A2959 RMK T02500030 IEM_DS3505
ZBAA,1990-05-19 06:00,ZBAA 190600Z AUTO 36016KT 7SM 22/01 RMK SLP053 T02230009 4////0170 52005 IEM_DS3505
ZBAA,1990-05-19 07:00,ZBAA 190700Z AUTO 31019G31KT 7SM 25/02 A2962 RMK T02500020 IEM_DS3505
ZBAA,1990-05-19 08:00,ZBAA 190800Z AUTO 32016G27KT 6SM 25/01 A2962 RMK T02500010 IEM_DS3505
ZBAA,1990-05-19 09:00,ZBAA 190900Z AUTO 34014G29KT 12SM 23/00 A2962 RMK SLP054 T02330000 52001 IEM_DS3505
ZBAA,1990-05-19 10:00,ZBAA 191000Z AUTO 32014G23KT 6SM 24/M01 A2965 RMK T02401010 IEM_DS3505
ZBAA,1990-05-19 11:00,ZBAA 191100Z AUTO 33014G25KT 7SM 22/M02 A2971 RMK T02201020 IEM_DS3505
ZBAA,1990-05-19 12:00,ZBAA 191200Z AUTO 02004KT 12SM 21/M01 A2974 RMK SLP081 T02071009 52027 IEM_DS3505
ZBAA,1990-05-19 13:00,ZBAA 191300Z AUTO 00000KT 7SM 19/M01 A2977 RMK T01901010 IEM_DS3505
ZBAA,1990-05-19 14:00,ZBAA 191400Z AUTO 08002KT 7SM 17/00 A2977 RMK T01700000 IEM_DS3505
ZBAA,1990-05-19 15:00,ZBAA 191500Z AUTO 00000KT 12SM 15/06 A2977 RMK SLP093 T01540056 52012 IEM_DS3505
ZBAA,1990-05-19 18:00,ZBAA 191800Z AUTO 27004KT 7SM 17/01 RMK SLP097 T01740006 40238//// 52004 IEM_DS3505
ZBAA,1990-05-19 20:00,ZBAA 192000Z AUTO 00000KT 7SM 14/02 A2977 RMK T01400020 IEM_DS3505
ZBAA,1990-05-19 21:00,ZBAA 192100Z AUTO 22002KT 6SM 17/M01 A2980 RMK SLP102 T01711011 52005 IEM_DS3505
ZBAA,1990-05-19 22:00,ZBAA 192200Z AUTO 26002KT 7SM 14/03 A2980 RMK T01400030 IEM_DS3505
ZBAA,1990-05-19 23:00,ZBAA 192300Z AUTO ////02KT 7SM 19/04 A2980 RMK T01900040 IEM_DS3505
ZBAA,1990-05-20 00:00,ZBAA 200000Z AUTO 20006KT 6SM 21/M02 A2980 RMK SLP100 T02061024 57002 IEM_DS3505
ZBAA,1990-05-20 01:00,ZBAA 200100Z AUTO ////04KT 7SM 26/M01 A2977 RMK T02601010 IEM_DS3505
ZBAA,1990-05-20 02:00,ZBAA 200200Z AUTO 26008G17KT 7SM 27/M02 A2977 RMK T02701020 IEM_DS3505
ZBAA,1990-05-20 03:00,ZBAA 200300Z AUTO 02004G25KT 16SM 25/M01 A2974 RMK SLP087 T02491006 57013 IEM_DS3505
ZBAA,1990-05-20 05:00,ZBAA 200500Z AUTO 30012G29KT 7SM 29/M03 A2971 RMK T02901030 IEM_DS3505
ZBAA,1990-05-20 06:00,ZBAA 200600Z AUTO 32008G27KT 7SM 26/M07 A2968 RMK SLP076 T02651074 4////0150 57010 IEM_DS3505
ZBAA,1990-05-20 07:00,ZBAA 200700Z AUTO 32010G23KT 7SM 29/M05 A2971 RMK T02901050 IEM_DS3505
ZBAA,1990-05-20 08:00,ZBAA 200800Z AUTO 34016G27KT 7SM 27/M05 A2971 RMK T02701050 IEM_DS3505
ZBAA,1990-05-20 09:00,ZBAA 200900Z AUTO 32014G29KT 3SM 25/ A2974 RMK SLP082 52006 IEM_DS3505
ZBAA,1990-05-20 10:00,ZBAA 201000Z AUTO 34016KT 5SM 24/M04 A2974 RMK T02401040 IEM_DS3505
ZBAA,1990-05-20 11:00,ZBAA 201100Z AUTO 34017G29KT 7SM 23/M05 A2977 RMK T02301050 IEM_DS3505
ZBAA,1990-05-20 12:00,ZBAA 201200Z AUTO 36006G21KT 4SM 21/04 A2983 RMK SLP105 T02130039 52023 IEM_DS3505
ZBAA,1990-05-20 13:00,ZBAA 201300Z AUTO ////06KT 7SM 21/M04 A2985 RMK T02101040 IEM_DS3505
ZBAA,1990-05-20 14:00,ZBAA 201400Z AUTO ////06G16KT 7SM 20/M04 A2985 RMK T02001040 IEM_DS3505
ZBAA,1990-05-20 15:00,ZBAA 201500Z AUTO 34008KT 6SM 20/M04 RMK SLP121 T02011041 52016 IEM_DS3505
ZBAA,1990-05-20 16:00,ZBAA 201600Z AUTO ////04KT 7SM 19/M04 A2988 RMK T01901040 IEM_DS3505
ZBAA,1990-05-20 18:00,ZBAA 201800Z AUTO 09004KT 10SM 17/M01 RMK SLP118 T01731011 40267//// 57003 IEM_DS3505
ZBAA,1990-05-20 21:00,ZBAA 202100Z AUTO 02008G21KT 19SM 16/M01 A2991 RMK SLP144 T01581013 52026 IEM_DS3505
ZBAA,1990-05-20 22:00,ZBAA 202200Z AUTO 32010KT 7SM 17/00 A2994 RMK T01700000 IEM_DS3505
ZBAA,1990-05-20 23:00,ZBAA 202300Z AUTO 32010KT 7SM 19/01 A2997 RMK T01900010 IEM_DS3505
ZBAA,1990-05-21 00:00,ZBAA 210000Z AUTO 32010KT 19SM 17/00 A3000 RMK SLP166 T01740001 52021 IEM_DS3505
ZBAA,1990-05-21 03:00,ZBAA 210300Z AUTO 36010KT 19SM 22/01 A2997 RMK SLP164 T02150014 57001 IEM_DS3505
ZBAA,1990-05-21 04:00,ZBAA 210400Z AUTO 34008KT 6SM 27/03 A2997 RMK T02700030 IEM_DS3505
ZBAA,1990-05-21 05:00,ZBAA 210500Z AUTO ////04KT 7SM 27/03 A2994 RMK T02700030 IEM_DS3505
ZBAA,1990-05-21 06:00,ZBAA 210600Z AUTO 32006KT 19SM 25/00 A2991 RMK SLP147 T02480003 4////0141 57017 IEM_DS3505
ZBAA,1990-05-21 07:00,ZBAA 210700Z AUTO ////04KT 7SM 30/01 A2988 RMK T03000010 IEM_DS3505
ZBAA,1990-05-21 08:00,ZBAA 210800Z AUTO ////02KT 7SM 30/01 A2988 RMK T03000010 IEM_DS3505
ZBAA,1990-05-21 09:00,ZBAA 210900Z AUTO 09002KT 12SM 25/03 A2985 RMK SLP129 T02490027 57018 IEM_DS3505
ZBAA,1990-05-21 10:15,ZBAA 211015Z AUTO ////02KT 7SM 28/03 A2985 RMK T02800030 IEM_DS3505
ZBAA,1990-05-21 11:00,ZBAA 211100Z AUTO 19002KT 7SM 24/04 A2988 RMK T02400040 IEM_DS3505
ZBAA,1990-05-21 12:00,ZBAA 211200Z AUTO 20006KT 12SM 22/04 A2991 RMK SLP142 T02250036 52013 IEM_DS3505
ZBAA,1990-05-21 13:00,ZBAA 211300Z AUTO ////06KT 7SM 21/04 A2994 RMK T02100040 IEM_DS3505
ZBAA,1990-05-21 14:00,ZBAA 211400Z AUTO ////06KT 7SM 21/05 A2994 RMK T02100050 IEM_DS3505
ZBAA,1990-05-21 15:00,ZBAA 211500Z AUTO 20002KT 12SM 20/06 A2994 RMK SLP151 T02020060 52009 IEM_DS3505
ZBAA,1990-05-21 18:00,ZBAA 211800Z AUTO 00000KT 12SM 15/08 RMK SLP150 T01500085 40270//// 57002 IEM_DS3505
ZBAA,1990-05-21 20:00,ZBAA 212000Z AUTO 00000KT 7SM 13/04 A2994 RMK T01300040 IEM_DS3505
ZBAA,1990-05-21 21:00,ZBAA 212100Z AUTO 00000KT 9SM 12/07 A2994 RMK SLP149 T01230071 57001 IEM_DS3505
ZBAA,1990-05-21 22:00,ZBAA 212200Z AUTO 35004KT 7SM 14/02 A2994 RMK T01400020 IEM_DS3505
ZBAA,1990-05-21 23:00,ZBAA 212300Z AUTO ////02KT 7SM 18/04 A2994 RMK T01800040 IEM_DS3505
ZBAA,1990-05-22 00:00,ZBAA 220000Z AUTO 00000KT 7SM 21/06 A2994 RMK SLP150 T02090060 52002 IEM_DS3505
ZBAA,1990-05-22 01:00,ZBAA 220100Z AUTO ////02KT 7SM 25/05 A2994 RMK T02500050 IEM_DS3505
ZBAA,1990-05-22 02:00,ZBAA 220200Z AUTO 00000KT 7SM 28/07 A2991 RMK T02800070 IEM_DS3505
ZBAA,1990-05-22 03:00,ZBAA 220300Z AUTO 20008KT 9SM 26/01 A2991 RMK SLP141 T02610012 57009 IEM_DS3505
ZBAA,1990-05-22 04:00,ZBAA 220400Z AUTO ////04KT 7SM 30/06 A2991 RMK T03000060 IEM_DS3505
ZBAA,1990-05-22 05:00,ZBAA 220500Z AUTO 19010KT 7SM 31/06 A2983 RMK T03100060 IEM_DS3505
ZBAA,1990-05-22 06:00,ZBAA 220600Z AUTO 20014KT 9SM 28/M00 A2980 RMK SLP107 T02841003 4////0116 57034 IEM_DS3505
ZBAA,1990-05-22 07:00,ZBAA 220700Z AUTO 21008G17KT 7SM 32/03 A2977 RMK T03200030 IEM_DS3505
ZBAA,1990-05-22 08:00,ZBAA 220800Z AUTO 21008KT 6SM 31/02 A2977 RMK T03100020 IEM_DS3505
ZBAA,1990-05-22 09:00,ZBAA 220900Z AUTO 18014KT 7SM 28/00 A2977 RMK SLP090 T02780000 57017 IEM_DS3505
ZBAA,1990-05-22 10:00,ZBAA 221000Z AUTO ////06KT 6SM 27/03 A2977 RMK T02700030 IEM_DS3505
ZBAA,1990-05-22 11:00,ZBAA 221100Z AUTO ////02KT 7SM 26/04 A2977 RMK T02600040 IEM_DS3505
ZBAA,1990-05-22 12:00,ZBAA 221200Z AUTO 27012KT 12SM 26/02 A2980 RMK SLP103 T02550015 52013 IEM_DS3505
ZBAA,1990-05-22 13:00,ZBAA 221300Z AUTO ////04KT 7SM 25/04 A2985 RMK T02500040 IEM_DS3505
ZBAA,1990-05-22 14:00,ZBAA 221400Z AUTO 15002KT 7SM 23/05 A2983 RMK T02300050 IEM_DS3505
ZBAA,1990-05-22 15:00,ZBAA 221500Z AUTO 00000KT 9SM 21/07 A2985 RMK SLP117 T02060067 52014 IEM_DS3505
ZBAA,1990-05-22 18:00,ZBAA 221800Z AUTO 07002KT 9SM 18/07 RMK SLP128 T01800071 40288//// 52011 IEM_DS3505
ZBAA,1990-05-22 20:00,ZBAA 222000Z AUTO ////02KT 7SM 17/07 A2991 RMK T01700070 IEM_DS3505
ZBAA,1990-05-22 21:00,ZBAA 222100Z AUTO 00000KT 6SM 17/08 A2994 RMK SLP146 T01710076 52018 IEM_DS3505
ZBAA,1990-05-22 22:00,ZBAA 222200Z AUTO ////02KT 7SM 16/08 A2997 RMK T01600080 IEM_DS3505
ZBAA,1990-05-22 23:00,ZBAA 222300Z AUTO ////04KT 6SM 19/12 A2997 RMK T01900120 IEM_DS3505
ZBAA,1990-05-23 00:00,ZBAA 230000Z AUTO 36008KT 6SM 20/08 A3000 RMK SLP163 T02030080 52017 IEM_DS3505
ZBAA,1990-05-23 01:00,ZBAA 230100Z AUTO ////02KT 7SM 25/10 A3000 RMK T02500100 IEM_DS3505
ZBAA,1990-05-23 02:00,ZBAA 230200Z AUTO ////02KT 7SM 25/10 A3000 RMK T02500100 IEM_DS3505
ZBAA,1990-05-23 03:00,ZBAA 230300Z AUTO 09004KT 10SM 24/07 A3000 RMK SLP171 T02390068 52008 IEM_DS3505
ZBAA,1990-05-23 04:00,ZBAA 230400Z AUTO ////04KT 6SM 28/10 A3000 RMK T02800100 IEM_DS3505
ZBAA,1990-05-23 05:00,ZBAA 230500Z AUTO ////04KT 6SM 29/10 A3000 RMK T02900100 IEM_DS3505
ZBAA,1990-05-23 06:00,ZBAA 230600Z AUTO 36006G21KT 7SM 25/04 A3000 RMK SLP167 T02460045 4////0151 IEM_DS3505
ZBAA,1990-05-23 07:00,ZBAA 230700Z AUTO ////04KT 6SM 29/07 A2997 RMK T02900070 IEM_DS3505
ZBAA,1990-05-23 08:00,ZBAA 230800Z AUTO ////06KT 6SM 29/08 A2997 RMK T02900080 IEM_DS3505
ZBAA,1990-05-23 09:00,ZBAA 230900Z AUTO 14006G25KT 6SM 24/09 A2997 RMK SLP161 T02430090 57006 IEM_DS3505
ZBAA,1990-05-23 10:00,ZBAA 231000Z AUTO 13010KT 6SM 22/09 A3000 RMK T02200090 IEM_DS3505
ZBAA,1990-05-23 11:00,ZBAA 231100Z AUTO 13008KT 6SM 20/09 A3006 RMK T02000090 IEM_DS3505
ZBAA,1990-05-23 12:00,ZBAA 231200Z AUTO 11004KT 7SM 19/09 A3009 RMK SLP199 T01900091 52037 IEM_DS3505
ZBAA,1990-05-23 13:00,ZBAA 231300Z AUTO ////04KT 7SM 17/10 A3012 RMK T01700100 IEM_DS3505
ZBAA,1990-05-23 14:00,ZBAA 231400Z AUTO 20002KT 7SM 16/10 A3015 RMK T01600100 IEM_DS3505
ZBAA,1990-05-23 15:00,ZBAA 231500Z AUTO 00000KT 7SM 16/10 A3015 RMK SLP219 T01630105 52020 IEM_DS3505
ZBAA,1990-05-23 18:00,ZBAA 231800Z AUTO 00000KT 7SM 15/11 RMK SLP211 T01530114 40260//// 57008 IEM_DS3505
ZBAA,1990-05-23 20:00,ZBAA 232000Z AUTO 00000KT 6SM 13/10 A3009 RMK T01300100 IEM_DS3505
ZBAA,1990-05-23 21:00,ZBAA 232100Z AUTO 00000KT 4SM 13/11 A3009 RMK SLP204 T01330114 57007 IEM_DS3505
ZBAA,1990-05-23 22:00,ZBAA 232200Z AUTO 00000KT 4SM 13/11 A3009 RMK T01300110 IEM_DS3505
ZBAA,1990-05-23 23:00,ZBAA 232300Z AUTO 11002KT 3SM 16/11 A3012 RMK T01600110 IEM_DS3505
ZBAA,1990-05-24 00:00,ZBAA 240000Z AUTO 00000KT 4SM 17/10 A3012 RMK SLP205 T01710104 52001 IEM_DS3505
ZBAA,1990-05-24 01:00,ZBAA 240100Z AUTO ////04KT 6SM 22/11 A3012 RMK T02200110 IEM_DS3505
ZBAA,1990-05-24 02:00,ZBAA 240200Z AUTO ////04KT 6SM 23/11 A3009 RMK T02300110 IEM_DS3505
ZBAA,1990-05-24 03:00,ZBAA 240300Z AUTO 18010KT 7SM 21/09 A3006 RMK SLP193 T02090086 57012 IEM_DS3505
ZBAA,1990-05-24 04:00,ZBAA 240400Z AUTO ////06KT 6SM 25/10 A3003 RMK T02500100 IEM_DS3505
ZBAA,1990-05-24 05:00,ZBAA 240500Z AUTO ////06KT 6SM 26/11 A3000 RMK T02600110 IEM_DS3505
ZBAA,1990-05-24 06:00,ZBAA 240600Z AUTO 20012KT 9SM 23/10 A2997 RMK SLP154 T02310100 4////0129 57039 IEM_DS3505
ZBAA,1990-05-24 07:00,ZBAA 240700Z AUTO 18008KT 6SM 25/09 A2994 RMK T02500090 IEM_DS3505
ZBAA,1990-05-24 08:00,ZBAA 240800Z AUTO ////06KT 6SM 25/09 A2988 RMK T02500090 IEM_DS3505
ZBAA,1990-05-24 09:00,ZBAA 240900Z AUTO 20008KT 7SM 24/09 A2988 RMK SLP137 T02370089 57017 IEM_DS3505
ZBAA,1990-05-24 09:28,ZBAA 240928Z AUTO ////04KT 7SM RMK IEM_DS3505
ZBAA,1990-05-24 10:00,ZBAA 241000Z AUTO 13010KT 7SM 22/10 A2988 RMK T02200100 IEM_DS3505
ZBAA,1990-05-24 11:00,ZBAA 241100Z AUTO 13008KT 7SM 21/09 A2988 RMK T02100090 IEM_DS3505
ZBAA,1990-05-24 12:00,ZBAA 241200Z AUTO 11006KT 5SM 21/09 A2991 RMK SLP138 T02060092 52001 IEM_DS3505
ZBAA,1990-05-24 13:00,ZBAA 241300Z AUTO 13008KT 7SM 19/07 A2991 RMK T01900070 IEM_DS3505
ZBAA,1990-05-24 14:00,ZBAA 241400Z AUTO ////04KT 7SM 19/08 A2991 RMK T01900080 IEM_DS3505
ZBAA,1990-05-24 15:00,ZBAA 241500Z AUTO 04002KT 7SM 18/09 A2991 RMK SLP140 T01750091 52002 IEM_DS3505
ZBAA,1990-05-24 16:00,ZBAA 241600Z AUTO ////02KT 7SM 18/09 A2988 RMK T01800090 IEM_DS3505
ZBAA,1990-05-24 18:00,ZBAA 241800Z AUTO 00000KT 6SM 16/09 RMK SLP116 T01600093 40241//// 57023 IEM_DS3505
ZBAA,1990-05-24 20:00,ZBAA 242000Z AUTO 00000KT 6SM 16/08 A2980 RMK T01600080 IEM_DS3505
ZBAA,1990-05-24 21:00,ZBAA 242100Z AUTO 02004KT 6SM 15/09 A2980 RMK SLP102 T01530093 57014 IEM_DS3505
ZBAA,1990-05-24 22:00,ZBAA 242200Z AUTO 33004KT 6SM 15/09 A2980 RMK T01500090 IEM_DS3505
ZBAA,1990-05-24 23:00,ZBAA 242300Z AUTO 00000KT 6SM 17/09 A2980 RMK T01700090 IEM_DS3505
ZBAA,1990-05-25 00:00,ZBAA 250000Z AUTO 36006KT 6SM 17/10 A2980 RMK SLP101 T01690101 57001 IEM_DS3505
ZBAA,1990-05-25 01:00,ZBAA 250100Z AUTO 08002KT 6SM 20/12 A2980 RMK T02000120 IEM_DS3505
ZBAA,1990-05-25 02:00,ZBAA 250200Z AUTO ////06KT 6SM 21/12 A2980 RMK T02100120 IEM_DS3505
ZBAA,1990-05-25 03:00,ZBAA 250300Z AUTO 04006KT 6SM 19/12 A2980 RMK SLP100 T01920116 57002 IEM_DS3505
ZBAA,1990-05-25 04:00,ZBAA 250400Z AUTO ////06KT 7SM 20/12 A2977 RMK T02000120 IEM_DS3505
ZBAA,1990-05-25 05:00,ZBAA 250500Z AUTO ////04KT 7SM 20/12 A2974 RMK T02000120 IEM_DS3505
ZBAA,1990-05-25 06:00,ZBAA 250600Z AUTO 36008KT 5SM 19/12 A2974 RMK SLP087 T01860122 4////0144 57013 IEM_DS3505
ZBAA,1990-05-25 07:00,ZBAA 250700Z AUTO ////06KT 7SM 20/13 RMK T02000130 IEM_DS3505
ZBAA,1990-05-25 08:00,ZBAA 250800Z AUTO ////04KT 7SM 19/13 A2977 RMK T01900130 IEM_DS3505
ZBAA,1990-05-25 09:00,ZBAA 250900Z AUTO 34002KT 4SM 18/14 A2962 RMK SLP058 T01810139 57029 IEM_DS3505
ZBAA,1990-05-25 10:00,ZBAA 251000Z AUTO 00000KT 6SM 20/15 A2968 RMK T02000150 IEM_DS3505
ZBAA,1990-05-25 11:00,ZBAA 251100Z AUTO ////06KT 7SM 19/14 A2968 RMK T01900140 IEM_DS3505
ZBAA,1990-05-25 12:00,ZBAA 251200Z AUTO 22002KT 3SM 17/15 A2971 RMK 60012 SLP079 T01680149 52021 IEM_DS3505
ZBAA,1990-05-25 13:00,ZBAA 251300Z AUTO 00000KT 5SM 18/16 A2971 RMK T01800160 IEM_DS3505
ZBAA,1990-05-25 14:00,ZBAA 251400Z AUTO 00000KT 4SM 17/16 A2974 RMK T01700160 IEM_DS3505
ZBAA,1990-05-25 15:00,ZBAA 251500Z AUTO 11002KT 1 1/4SM 16/15 RMK SLP086 T01610154 52007 IEM_DS3505
ZBAA,1990-05-25 16:00,ZBAA 251600Z AUTO ////06KT 2 1/2SM 17/16 A2977 RMK T01700160 IEM_DS3505
ZBAA,1990-05-25 17:00,ZBAA 251700Z AUTO ////02KT 3SM 17/16 A2974 RMK T01700160 IEM_DS3505
ZBAA,1990-05-25 18:00,ZBAA 251800Z AUTO 00000KT 1 1/4SM A2977 RMK 60091 SLP086 40200//// 54000 IEM_DS3505
ZBAA,1990-05-25 19:00,ZBAA 251900Z AUTO ////02KT 3SM 17/16 A2977 RMK T01700160 IEM_DS3505
ZBAA,1990-05-25 20:00,ZBAA 252000Z AUTO 00000KT 3/8SM 16/14 A2977 RMK T01600140 IEM_DS3505
ZBAA,1990-05-25 21:00,ZBAA 252100Z AUTO 00000KT 15/10 A2977 RMK 70102 SLP095 T01520103 52009 IEM_DS3505
ZBAA,1990-05-25 22:00,ZBAA 252200Z AUTO ////06KT 1SM 15/14 A2980 RMK T01500140 IEM_DS3505
ZBAA,1990-05-25 23:00,ZBAA 252300Z AUTO 00000KT 1/4SM 17/17 A2983 RMK T01700170 IEM_DS3505
ZBAA,1990-05-26 00:00,ZBAA 260000Z AUTO 04004KT 12SM 19/10 A2983 RMK 70102 SLP109 T01940102 52014 IEM_DS3505
ZBAA,1990-05-26 01:00,ZBAA 260100Z AUTO 32008KT 7SM 22/07 A2983 RMK T02200070 IEM_DS3505
ZBAA,1990-05-26 02:00,ZBAA 260200Z AUTO ////04KT 7SM 26/09 A2983 RMK T02600090 IEM_DS3505
ZBAA,1990-05-26 03:00,ZBAA 260300Z AUTO 07004KT 9SM 23/06 A2983 RMK SLP110 T02340058 52002 IEM_DS3505
ZBAA,1990-05-26 04:00,ZBAA 260400Z AUTO ////02KT 7SM 28/07 A2980 RMK T02800070 IEM_DS3505
ZBAA,1990-05-26 05:00,ZBAA 260500Z AUTO ////02KT 7SM 28/06 A2977 RMK T02800060 IEM_DS3505
ZBAA,1990-05-26 06:00,ZBAA 260600Z AUTO 22010KT 9SM 25/08 A2977 RMK SLP091 T02540079 4////0137 57019 IEM_DS3505
ZBAA,1990-05-26 07:00,ZBAA 260700Z AUTO 18008KT 7SM 29/10 A2974 RMK T02900100 IEM_DS3505
ZBAA,1990-05-26 08:00,ZBAA 260800Z AUTO 18008KT 7SM 29/10 A2971 RMK T02900100 IEM_DS3505
ZBAA,1990-05-26 09:00,ZBAA 260900Z AUTO 20014KT 9SM 26/10 A2971 RMK SLP073 T02550099 57018 IEM_DS3505
ZBAA,1990-05-26 10:00,ZBAA 261000Z AUTO ////06KT 7SM 27/11 A2971 RMK T02700110 IEM_DS3505
ZBAA,1990-05-26 11:00,ZBAA 261100Z AUTO 15004KT 7SM 25/ A2971 RMK IEM_DS3505
ZBAA,1990-05-26 12:00,ZBAA 261200Z AUTO 20006KT 9SM 23/09 A2971 RMK SLP073 T02330094 54000 IEM_DS3505
ZBAA,1990-05-26 13:00,ZBAA 261300Z AUTO ////04KT 6SM 22/11 A2974 RMK T02200110 IEM_DS3505
ZBAA,1990-05-26 14:00,ZBAA 261400Z AUTO ////04KT 6SM 20/12 A2974 RMK T02000120 IEM_DS3505
ZBAA,1990-05-26 15:00,ZBAA 261500Z AUTO 16006KT 7SM 21/11 A2974 RMK SLP076 T02110106 52003 IEM_DS3505
ZBAA,1990-05-26 18:00,ZBAA 261800Z AUTO 02002KT 6SM 17/12 RMK SLP074 T01730125 40259//// 57002 IEM_DS3505
ZBAA,1990-05-26 20:00,ZBAA 262000Z AUTO 00000KT 5SM 16/13 A2974 RMK T01600130 IEM_DS3505
ZBAA,1990-05-26 21:00,ZBAA 262100Z AUTO 00000KT 4SM 16/14 A2974 RMK SLP077 T01610135 52003 IEM_DS3505
ZBAA,1990-05-26 23:00,ZBAA 262300Z AUTO 00000KT 1 1/2SM 19/15 A2977 RMK T01900150 IEM_DS3505
ZBAA,1990-05-27 00:00,ZBAA 270000Z AUTO 02006KT 4SM 19/14 A2980 RMK SLP094 T01870144 52017 IEM_DS3505
ZBAA,1990-05-27 01:00,ZBAA 270100Z AUTO 00000KT 5SM 24/15 A2980 RMK T02400150 IEM_DS3505
ZBAA,1990-05-27 02:00,ZBAA 270200Z AUTO ////02KT 7SM 27/17 A2977 RMK T02700170 IEM_DS3505
ZBAA,1990-05-27 03:00,ZBAA 270300Z AUTO 04002KT 3SM 25/16 A2977 RMK SLP090 T02500157 57003 IEM_DS3505
ZBAA,1990-05-27 04:00,ZBAA 270400Z AUTO ////02KT 5SM 30/18 A2977 RMK T03000180 IEM_DS3505
ZBAA,1990-05-27 05:00,ZBAA 270500Z AUTO ////04KT 5SM 31/19 A2974 RMK T03100190 IEM_DS3505
ZBAA,1990-05-27 06:00,ZBAA 270600Z AUTO 18008KT 2 1/2SM 29/17 A2971 RMK SLP079 T02920167 4////0156 57011 IEM_DS3505
ZBAA,1990-05-27 07:00,ZBAA 270700Z AUTO ////04KT 7SM 34/16 A2971 RMK T03400160 IEM_DS3505
ZBAA,1990-05-27 08:00,ZBAA 270800Z AUTO ////06KT 6SM 33/18 A2971 RMK T03300180 IEM_DS3505
ZBAA,1990-05-27 09:00,ZBAA 270900Z AUTO 25006KT 4SM 30/16 A2971 RMK SLP073 T03000158 57006 IEM_DS3505
ZBAA,1990-05-27 10:00,ZBAA 271000Z AUTO 17004KT 6SM 31/16 A2971 RMK T03100160 IEM_DS3505
ZBAA,1990-05-27 11:00,ZBAA 271100Z AUTO 12002KT 6SM 29/17 A2974 RMK T02900170 IEM_DS3505
ZBAA,1990-05-27 12:00,ZBAA 271200Z AUTO 00000KT 6SM 26/17 A2974 RMK SLP080 T02550172 52006 IEM_DS3505
ZBAA,1990-05-27 13:00,ZBAA 271300Z AUTO 09002KT 6SM 25/17 A2977 RMK T02500170 IEM_DS3505
ZBAA,1990-05-27 14:00,ZBAA 271400Z AUTO 05002KT 6SM 24/17 A2980 RMK T02400170 IEM_DS3505
ZBAA,1990-05-27 15:00,ZBAA 271500Z AUTO 00000KT 6SM 22/18 A2980 RMK SLP095 T02220179 52016 IEM_DS3505
ZBAA,1990-05-27 16:00,ZBAA 271600Z AUTO 07002KT 6SM 22/15 A2980 RMK T02200150 IEM_DS3505
ZBAA,1990-05-27 18:00,ZBAA 271800Z AUTO 04002KT 5SM 22/16 RMK SLP106 T02170165 40302//// 52011 IEM_DS3505
ZBAA,1990-05-27 20:00,ZBAA 272000Z AUTO ////04KT 4SM 21/16 A2983 RMK T02100160 IEM_DS3505
ZBAA,1990-05-27 21:00,ZBAA 272100Z AUTO 04004KT 3SM 20/16 A2985 RMK SLP114 T02000160 52008 IEM_DS3505
ZBAA,1990-05-27 22:00,ZBAA 272200Z AUTO ////02KT 3SM 21/16 A2985 RMK T02100160 IEM_DS3505
ZBAA,1990-05-27 23:00,ZBAA 272300Z AUTO 00000KT 3SM 21/17 A2985 RMK T02100170 IEM_DS3505
ZBAA,1990-05-28 00:00,ZBAA 280000Z AUTO 36004KT 3SM 20/16 A2985 RMK SLP121 T02010165 52006 IEM_DS3505
ZBAA,1990-05-28 01:00,ZBAA 280100Z AUTO ////04KT 3SM 23/17 A2985 RMK T02300170 IEM_DS3505
ZBAA,1990-05-28 02:00,ZBAA 280200Z AUTO ////06KT 4SM 24/18 A2985 RMK T02400180 IEM_DS3505
ZBAA,1990-05-28 03:00,ZBAA 280300Z AUTO 34002KT 3SM 23/18 A2985 RMK SLP118 T02270176 57003 IEM_DS3505
ZBAA,1990-05-28 04:00,ZBAA 280400Z AUTO ////04KT 4SM 28/19 A2983 RMK T02800190 IEM_DS3505
ZBAA,1990-05-28 05:00,ZBAA 280500Z AUTO ////04KT 5SM 29/19 A2983 RMK T02900190 IEM_DS3505
ZBAA,1990-05-28 06:00,ZBAA 280600Z AUTO 00000KT 4SM 26/20 A2980 RMK SLP099 T02600196 4////0191 57018 IEM_DS3505
ZBAA,1990-05-28 07:00,ZBAA 280700Z AUTO ////06KT 5SM 29/20 A2977 RMK T02900200 IEM_DS3505
ZBAA,1990-05-28 09:00,ZBAA 280900Z AUTO 29004KT 4SM 27/18 A2977 RMK SLP090 T02700183 57009 IEM_DS3505
ZBAA,1990-05-28 10:00,ZBAA 281000Z AUTO ////06KT 6SM 27/20 A2977 RMK T02700200 IEM_DS3505
ZBAA,1990-05-28 11:00,ZBAA 281100Z AUTO 00000KT 5SM 26/20 A2980 RMK T02600200 IEM_DS3505
ZBAA,1990-05-28 12:00,ZBAA 281200Z AUTO 02002KT 2SM 24/19 A2980 RMK SLP097 T02430194 52006 IEM_DS3505
ZBAA,1990-05-28 13:00,ZBAA 281300Z AUTO ////06KT 5SM 24/19 A2980 RMK T02400190 IEM_DS3505
ZBAA,1990-05-28 14:00,ZBAA 281400Z AUTO 00000KT 5SM 23/19 A2980 RMK T02300190 IEM_DS3505
ZBAA,1990-05-28 15:00,ZBAA 281500Z AUTO 11002KT 2SM 22/19 RMK SLP102 T02230193 52005 IEM_DS3505
ZBAA,1990-05-28 18:00,ZBAA 281800Z AUTO 02002KT 2SM 22/19 A2977 RMK SLP095 T02160188 40273//// 57006 IEM_DS3505
ZBAA,1990-05-28 19:00,ZBAA 281900Z AUTO ////04KT 4SM 21/18 A2977 RMK T02100180 IEM_DS3505
ZBAA,1990-05-28 20:00,ZBAA 282000Z AUTO ////02KT 2 1/2SM 21/19 A2977 RMK T02100190 IEM_DS3505
ZBAA,1990-05-28 21:00,ZBAA 282100Z AUTO 11002KT 1 1/4SM 20/18 A2974 RMK SLP082 T02010182 57013 IEM_DS3505
ZBAA,1990-05-28 22:00,ZBAA 282200Z AUTO 00000KT 2SM 20/17 A2977 RMK T02000170 IEM_DS3505
ZBAA,1990-05-28 23:00,ZBAA 282300Z AUTO 10002KT 2 1/2SM 21/18 A2977 RMK T02100180 IEM_DS3505
ZBAA,1990-05-29 00:00,ZBAA 290000Z AUTO 04004KT 1 1/2SM 22/19 A2977 RMK 60004 70004 SLP088 T02150188 52006 IEM_DS3505
ZBAA,1990-05-29 01:00,ZBAA 290100Z AUTO ////04KT 4SM 26/18 A2977 RMK T02600180 IEM_DS3505
ZBAA,1990-05-29 02:00,ZBAA 290200Z AUTO ////04KT 5SM 28/18 A2977 RMK T02800180 IEM_DS3505
ZBAA,1990-05-29 03:00,ZBAA 290300Z AUTO 18004KT 1 1/4SM 26/18 A2977 RMK SLP086 T02560181 57002 IEM_DS3505
ZBAA,1990-05-29 04:00,ZBAA 290400Z AUTO ////06KT 6SM 30/19 A2974 RMK T03000190 IEM_DS3505
ZBAA,1990-05-29 05:00,ZBAA 290500Z AUTO ////04KT 6SM 30/20 A2974 RMK T03000200 IEM_DS3505
ZBAA,1990-05-29 06:00,ZBAA 290600Z AUTO 16004KT 4SM 28/17 A2971 RMK SLP074 T02750167 4////0197 57012 IEM_DS3505
ZBAA,1990-05-29 06:06,ZBAA 290606Z AUTO 16006KT 3SM RMK IEM_DS3505
ZBAA,1990-05-29 07:00,ZBAA 290700Z AUTO ////06KT 6SM 32/20 A2971 RMK T03200200 IEM_DS3505
ZBAA,1990-05-29 08:00,ZBAA 290800Z AUTO ////06KT 6SM 32/20 A2968 RMK T03200200 IEM_DS3505
ZBAA,1990-05-29 09:00,ZBAA 290900Z AUTO 18006KT 7SM 29/16 A2968 RMK SLP065 T02860165 57009 IEM_DS3505
ZBAA,1990-05-29 10:00,ZBAA 291000Z AUTO 14008KT 6SM 26/19 A2968 RMK T02600190 IEM_DS3505
ZBAA,1990-05-29 11:00,ZBAA 291100Z AUTO 13012KT 7SM 24/18 A2974 RMK T02400180 IEM_DS3505
ZBAA,1990-05-29 11:20,ZBAA 291120Z AUTO 12006KT 3SM RMK IEM_DS3505
ZBAA,1990-05-29 12:00,ZBAA 291200Z AUTO 09006KT 5SM 25/19 A2974 RMK 60004 SLP081 T02500194 52015 IEM_DS3505
ZBAA,1990-05-29 13:00,ZBAA 291300Z AUTO ////02KT 7SM 21/19 A2983 RMK T02100190 IEM_DS3505
ZBAA,1990-05-29 14:00,ZBAA 291400Z AUTO 10002KT 7SM 21/19 A2985 RMK T02100190 IEM_DS3505
ZBAA,1990-05-29 15:00,ZBAA 291500Z AUTO 32002KT 1 1/4SM 20/19 A2980 RMK SLP107 T01980187 52026 IEM_DS3505
ZBAA,1990-05-29 18:00,ZBAA 291800Z AUTO 09002KT 6SM 19/16 RMK 60028 SLP100 T01900165 40291//// 57006 IEM_DS3505
ZBAA,1990-05-29 21:00,ZBAA 292100Z AUTO 00000KT 6SM 17/15 A2980 RMK 70028 SLP100 T01740147 57001 IEM_DS3505
ZBAA,1990-05-29 22:00,ZBAA 292200Z AUTO 34006KT 6SM 18/13 A2980 RMK T01800130 IEM_DS3505
ZBAA,1990-05-29 23:00,ZBAA 292300Z AUTO ////02KT 6SM 19/12 A2980 RMK T01900120 IEM_DS3505
ZBAA,1990-05-30 00:00,ZBAA 300000Z AUTO 00000KT 4SM 18/16 RMK 60000 70031 SLP104 T01820155 52004 IEM_DS3505
ZBAA,1990-05-30 01:00,ZBAA 300100Z AUTO 00000KT 7SM 21/15 A2983 RMK T02100150 IEM_DS3505
ZBAA,1990-05-30 03:00,ZBAA 300300Z AUTO 34006KT 5SM 14/13 A2980 RMK SLP108 T01430130 52003 IEM_DS3505
ZBAA,1990-05-30 04:00,ZBAA 300400Z AUTO ////06KT 7SM 17/15 A2980 RMK T01700150 IEM_DS3505
ZBAA,1990-05-30 05:00,ZBAA 300500Z AUTO 32008KT 7SM 17/15 A2980 RMK T01700150 IEM_DS3505
ZBAA,1990-05-30 05:47,ZBAA 300547Z AUTO 32008KT 7SM 17/15 A2980 RMK T01700150 IEM_DS3505
ZBAA,1990-05-30 05:49,ZBAA 300549Z AUTO 32008KT 7SM 17/15 A2980 RMK T01700150 IEM_DS3505
ZBAA,1990-05-30 06:00,ZBAA 300600Z AUTO 36008KT 6SM 16/13 A2980 RMK 60146 SLP103 T01560131 4////0139 57005 IEM_DS3505
ZBAA,1990-05-30 06:30,ZBAA 300630Z AUTO ////06KT 7SM RMK IEM_DS3505
ZBAA,1990-05-30 07:00,ZBAA 300700Z AUTO ////04KT 7SM 17/15 A2980 RMK T01700150 IEM_DS3505
ZBAA,1990-05-30 08:00,ZBAA 300800Z AUTO ////06KT 7SM 17/15 A2977 RMK T01700150 IEM_DS3505
ZBAA,1990-05-30 09:00,ZBAA 300900Z AUTO 34010KT 4SM 15/13 A2977 RMK SLP097 T01510126 57006 IEM_DS3505
ZBAA,1990-05-30 10:00,ZBAA 301000Z AUTO ////06KT 7SM 16/14 A2977 RMK T01600140 IEM_DS3505
ZBAA,1990-05-30 11:00,ZBAA 301100Z AUTO ////06KT 7SM 16/14 A2977 RMK T01600140 IEM_DS3505
ZBAA,1990-05-30 12:00,ZBAA 301200Z AUTO 02006KT 6SM 14/12 A2980 RMK 60059 SLP099 T01370124 52002 IEM_DS3505
ZBAA,1990-05-30 13:00,ZBAA 301300Z AUTO ////02KT 7SM 15/14 A2980 RMK T01500140 IEM_DS3505
ZBAA,1990-05-30 14:00,ZBAA 301400Z AUTO ////04KT 7SM 15/14 A2983 RMK T01500140 IEM_DS3505
ZBAA,1990-05-30 15:00,ZBAA 301500Z AUTO 36006KT 4SM 14/13 A2980 RMK SLP105 T01380127 52005 IEM_DS3505
ZBAA,1990-05-30 18:00,ZBAA 301800Z AUTO 36004KT 4SM 14/13 RMK 60028 SLP091 T01370128 40189//// 57013 IEM_DS3505
ZBAA,1990-05-30 21:00,ZBAA 302100Z AUTO 34004KT 7SM 14/12 A2974 RMK 70236 SLP081 T01390123 57010 IEM_DS3505
ZBAA,1990-05-30 22:00,ZBAA 302200Z AUTO 33006KT 7SM 15/14 A2971 RMK T01500140 IEM_DS3505
ZBAA,1990-05-30 23:00,ZBAA 302300Z AUTO ////04KT 7SM 15/13 A2974 RMK T01500130 IEM_DS3505
ZBAA,1990-05-31 00:00,ZBAA 310000Z AUTO 00000KT 9SM 14/13 A2974 RMK 60008 SLP085 T01430130 52004 IEM_DS3505
ZBAA,1990-05-31 01:00,ZBAA 310100Z AUTO ////06KT 7SM 16/15 A2974 RMK T01600150 IEM_DS3505
ZBAA,1990-05-31 02:00,ZBAA 310200Z AUTO ////02KT 7SM 16/15 A2974 RMK T01600150 IEM_DS3505
ZBAA,1990-05-31 03:00,ZBAA 310300Z AUTO 00000KT 11SM 16/13 A2974 RMK SLP085 T01630133 54000 IEM_DS3505
ZBAA,1990-05-31 04:00,ZBAA 310400Z AUTO ////02KT 7SM 19/16 A2974 RMK T01900160 IEM_DS3505
ZBAA,1990-05-31 05:00,ZBAA 310500Z AUTO ////04KT 7SM 21/15 A2974 RMK T02100150 IEM_DS3505
ZBAA,1990-05-31 06:00,ZBAA 310600Z AUTO 29002KT 11SM 20/13 A2971 RMK 60008 SLP077 T02030130 4////0133 57008 IEM_DS3505
ZBAA,1990-05-31 07:00,ZBAA 310700Z AUTO ////06KT 6SM 24/13 A2968 RMK T02400130 IEM_DS3505
ZBAA,1990-05-31 08:00,ZBAA 310800Z AUTO ////04KT 6SM 23/13 A2968 RMK T02300130 IEM_DS3505
ZBAA,1990-05-31 09:00,ZBAA 310900Z AUTO 25006KT 12SM 22/12 RMK SLP060 T02250120 57016 IEM_DS3505
ZBAA,1990-05-31 10:00,ZBAA 311000Z AUTO ////02KT 6SM 24/14 A2965 RMK T02400140 IEM_DS3505
ZBAA,1990-05-31 11:00,ZBAA 311100Z AUTO ////02KT 6SM 22/14 A2965 RMK T02200140 IEM_DS3505
ZBAA,1990-05-31 12:00,ZBAA 311200Z AUTO 20004KT 19SM 19/14 A2965 RMK SLP061 T01930143 54000 IEM_DS3505
ZBAA,1990-05-31 13:00,ZBAA 311300Z AUTO ////04KT 6SM 19/14 A2965 RMK T01900140 IEM_DS3505
ZBAA,1990-05-31 14:00,ZBAA 311400Z AUTO ////02KT 6SM 19/14 A2965 RMK T01900140 IEM_DS3505
ZBAA,1990-05-31 15:00,ZBAA 311500Z AUTO 18004KT 12SM 18/14 RMK SLP059 T01780138 57002 IEM_DS3505
ZBAA,1990-05-31 17:00,ZBAA 311700Z AUTO ////02KT 6SM 19/14 A2965 RMK T01900140 IEM_DS3505
ZBAA,1990-05-31 18:00,ZBAA 311800Z AUTO 00000KT 6SM 15/14 RMK SLP058 T01510137 40228//// 54000 IEM_DS3505
ZBAA,1990-05-31 20:00,ZBAA 312000Z AUTO ////02KT 6SM 16/13 A2965 RMK T01600130 IEM_DS3505
ZBAA,1990-05-31 21:00,ZBAA 312100Z AUTO 00000KT 7SM 14/13 A2968 RMK 70012 SLP059 T01360129 52007 IEM_DS3505
ZBAA,1990-05-31 22:00,ZBAA 312200Z AUTO ////02KT 6SM 16/15 A2968 RMK T01600150 IEM_DS3505
ZBAA,1990-05-31 23:00,ZBAA 312300Z AUTO ////02KT 6SM 20/15 A2968 RMK T02000150 IEM_DS3505
ZBAA,1990-06-01 00:00,ZBAA 010000Z AUTO 34004KT 6SM 24/15 A2968 RMK T02400150 IEM_DS3505
ZBAA,1990-06-01 01:00,ZBAA 010100Z AUTO ////02KT 6SM 26/15 A2968 RMK T02600150 IEM_DS3505
ZBAA,1990-06-01 02:00,ZBAA 010200Z AUTO ////04KT 6SM 29/15 A2968 RMK T02900150 IEM_DS3505
ZBAA,1990-06-01 03:00,ZBAA 010300Z AUTO 00000KT 7SM 27/11 A2968 RMK SLP061 T02680109 57002 IEM_DS3505
ZBAA,1990-06-01 04:00,ZBAA 010400Z AUTO ////06KT 6SM 31/11 A2965 RMK T03100110 IEM_DS3505
ZBAA,1990-06-01 05:00,ZBAA 010500Z AUTO ////04KT 6SM 32/11 A2965 RMK T03200110 IEM_DS3505
ZBAA,1990-06-01 06:00,ZBAA 010600Z AUTO 18002KT 7SM 29/12 RMK SLP046 T02920121 4////0133 57015 IEM_DS3505
ZBAA,1990-06-01 07:00,ZBAA 010700Z AUTO ////04KT 7SM 34/12 A2962 RMK T03400120 IEM_DS3505
ZBAA,1990-06-01 08:00,ZBAA 010800Z AUTO ////06KT 7SM 34/15 A2959 RMK T03400150 IEM_DS3505
ZBAA,1990-06-01 09:00,ZBAA 010900Z AUTO 20008KT 12SM 30/ A2959 RMK SLP036 57010 IEM_DS3505
ZBAA,1990-06-01 10:00,ZBAA 011000Z AUTO ////06KT 7SM 30/15 A2959 RMK T03000150 IEM_DS3505
ZBAA,1990-06-01 11:00,ZBAA 011100Z AUTO 22004KT 6SM 27/14 A2959 RMK T02700140 IEM_DS3505
ZBAA,1990-06-01 12:00,ZBAA 011200Z AUTO 20006KT 11SM 26/14 A2962 RMK SLP044 T02560145 52008 IEM_DS3505
ZBAA,1990-06-01 13:00,ZBAA 011300Z AUTO ////04KT 6SM 25/13 A2965 RMK T02500130 IEM_DS3505
ZBAA,1990-06-01 14:00,ZBAA 011400Z AUTO 19002KT 6SM 24/13 A2962 RMK T02400130 IEM_DS3505
ZBAA,1990-06-01 18:00,ZBAA 011800Z AUTO 00000KT 11SM 19/15 RMK SLP043 T01870150 40301//// 57002 IEM_DS3505
ZBAA,1990-06-01 21:00,ZBAA 012100Z AUTO 00000KT 7SM 18/14 A2965 RMK SLP047 T01750137 52004 IEM_DS3505
ZBAA,1990-06-01 23:00,ZBAA 012300Z AUTO 00000KT 4SM 21/16 A2965 RMK T02100160 IEM_DS3505
ZBAA,1990-06-02 00:00,ZBAA 020000Z AUTO 00000KT 7SM 23/14 A2968 RMK SLP059 T02290145 52012 IEM_DS3505
ZBAA,1990-06-02 01:00,ZBAA 020100Z AUTO 00000KT 7SM 29/16 A2968 RMK T02900160 IEM_DS3505
ZBAA,1990-06-02 02:00,ZBAA 020200Z AUTO ////06KT 7SM 31/12 A2968 RMK T03100120 IEM_DS3505
ZBAA,1990-06-02 03:00,ZBAA 020300Z AUTO 36008KT 12SM 28/08 A2968 RMK SLP060 T02820085 52001 IEM_DS3505
ZBAA,1990-06-02 04:00,ZBAA 020400Z AUTO 33008KT 7SM 32/12 A2968 RMK T03200120 IEM_DS3505
ZBAA,1990-06-02 05:00,ZBAA 020500Z AUTO ////06KT 7SM 32/11 A2965 RMK T03200110 IEM_DS3505
ZBAA,1990-06-02 06:00,ZBAA 020600Z AUTO 34006KT 19SM 30/08 A2965 RMK SLP054 T02980084 4////0165 57006 IEM_DS3505
ZBAA,1990-06-02 07:00,ZBAA 020700Z AUTO 30008KT 7SM 33/10 A2965 RMK T03300100 IEM_DS3505
ZBAA,1990-06-02 08:00,ZBAA 020800Z AUTO ////06KT 7SM 33/10 A2965 RMK T03300100 IEM_DS3505
ZBAA,1990-06-02 09:00,ZBAA 020900Z AUTO 36006KT 19SM 30/07 A2965 RMK SLP049 T03030067 57005 IEM_DS3505
ZBAA,1990-06-02 10:00,ZBAA 021000Z AUTO ////06KT 7SM 32/11 A2962 RMK T03200110 IEM_DS3505
ZBAA,1990-06-02 11:00,ZBAA 021100Z AUTO ////06KT 7SM 32/11 A2962 RMK T03200110 IEM_DS3505
ZBAA,1990-06-02 12:00,ZBAA 021200Z AUTO 27002KT 19SM 26/12 A2968 RMK SLP057 T02550123 52008 IEM_DS3505
ZBAA,1990-06-02 13:00,ZBAA 021300Z AUTO 35002KT 7SM 24/10 A2968 RMK T02400100 IEM_DS3505
ZBAA,1990-06-02 15:00,ZBAA 021500Z AUTO 00000KT 19SM 21/13 RMK SLP071 T02060127 52014 IEM_DS3505
ZBAA,1990-06-02 16:00,ZBAA 021600Z AUTO 00000KT 7SM 20/12 A2971 RMK T02000120 IEM_DS3505
ZBAA,1990-06-02 18:00,ZBAA 021800Z AUTO 00000KT 19SM 20/12 RMK SLP073 T01990117 40308//// 52002 IEM_DS3505
ZBAA,1990-06-02 20:00,ZBAA 022000Z AUTO 10004KT 7SM 19/13 A2971 RMK T01900130 IEM_DS3505
ZBAA,1990-06-02 21:00,ZBAA 022100Z AUTO 36008KT 12SM 18/12 A2971 RMK SLP067 T01760116 57006 IEM_DS3505
ZBAA,1990-06-02 22:00,ZBAA 022200Z AUTO 00000KT 7SM 19/12 A2971 RMK T01900120 IEM_DS3505
ZBAA,1990-06-02 23:00,ZBAA 022300Z AUTO 00000KT 7SM 22/13 A2971 RMK T02200130 IEM_DS3505
ZBAA,1990-06-03 00:00,ZBAA 030000Z AUTO 00000KT 4SM 21/13 A2971 RMK SLP072 T02090131 52005 IEM_DS3505
ZBAA,1990-06-03 01:00,ZBAA 030100Z AUTO 13008KT 7SM 26/10 A2971 RMK T02600100 IEM_DS3505
ZBAA,1990-06-03 02:00,ZBAA 030200Z AUTO ////06KT 7SM 28/14 A2968 RMK T02800140 IEM_DS3505
ZBAA,1990-06-03 03:00,ZBAA 030300Z AUTO 18004KT 4SM 26/14 A2965 RMK SLP051 T02570140 57021 IEM_DS3505
ZBAA,1990-06-03 04:00,ZBAA 030400Z AUTO ////06KT 7SM 29/17 A2962 RMK T02900170 IEM_DS3505
ZBAA,1990-06-03 05:00,ZBAA 030500Z AUTO ////06KT 7SM 31/17 A2959 RMK T03100170 IEM_DS3505
ZBAA,1990-06-03 06:00,ZBAA 030600Z AUTO 14008KT 9SM 28/15 A2953 RMK SLP017 T02830154 4////0172 57034 IEM_DS3505
ZBAA,1990-06-03 07:00,ZBAA 030700Z AUTO ////06KT 7SM A2950 RMK IEM_DS3505
ZBAA,1990-06-03 08:00,ZBAA 030800Z AUTO ////06KT 7SM 32/17 A2947 RMK T03200170 IEM_DS3505
ZBAA,1990-06-03 09:00,ZBAA 030900Z AUTO 20004KT 9SM 27/17 A2947 RMK SLP991 T02740168 IEM_DS3505
ZBAA,1990-06-03 10:00,ZBAA 031000Z AUTO 18006G16KT 6SM 29/18 A2941 RMK T02900180 IEM_DS3505
ZBAA,1990-06-03 11:00,ZBAA 031100Z AUTO 18004KT 6SM 28/19 A2938 RMK T02800190 IEM_DS3505
ZBAA,1990-06-03 12:00,ZBAA 031200Z AUTO 00000KT 6SM 26/20 A2944 RMK SLP975 T02610195 57016 IEM_DS3505
ZBAA,1990-06-03 13:00,ZBAA 031300Z AUTO ////06KT 7SM 26/20 A2941 RMK T02600200 IEM_DS3505
ZBAA,1990-06-03 14:00,ZBAA 031400Z AUTO ////04KT 7SM 27/19 A2938 RMK T02700190 IEM_DS3505
ZBAA,1990-06-03 15:00,ZBAA 031500Z AUTO 25004KT 6SM 25/20 RMK SLP964 T02500198 57010 IEM_DS3505
ZBAA,1990-06-03 18:00,ZBAA 031800Z AUTO 36002KT 6SM 24/18 RMK 60001 SLP963 T02390184 40294//// 57001 IEM_DS3505
ZBAA,1990-06-03 20:00,ZBAA 032000Z AUTO ////04KT 6SM 23/17 A2941 RMK T02300170 IEM_DS3505
ZBAA,1990-06-03 21:00,ZBAA 032100Z AUTO 34006KT 3SM 24/00 A2941 RMK SLP972 T02400000 52009 IEM_DS3505
ZBAA,1990-06-03 23:00,ZBAA 032300Z AUTO 32012G21KT 2 1/2SM 24/00 A2947 RMK T02400000 IEM_DS3505
ZBAA,1990-06-04 00:00,ZBAA 040000Z AUTO 00000KT 4SM 23/03 A2950 RMK SLP009 T02310026 52036 IEM_DS3505
ZBAA,1990-06-04 01:00,ZBAA 040100Z AUTO ////06KT 2 1/2SM 27/04 A2953 RMK T02700040 IEM_DS3505
ZBAA,1990-06-04 02:00,ZBAA 040200Z AUTO 30010G19KT 3SM 26/05 A2956 RMK T02600050 IEM_DS3505
ZBAA,1990-06-04 03:00,ZBAA 040300Z AUTO 32010KT 4SM 24/02 A2956 RMK SLP027 T02390023 52018 IEM_DS3505
ZBAA,1990-06-04 04:00,ZBAA 040400Z AUTO 33012G21KT 6SM 27/06 A2956 RMK T02700060 IEM_DS3505
ZBAA,1990-06-04 05:00,ZBAA 040500Z AUTO 34008KT 7SM 28/06 A2956 RMK T02800060 IEM_DS3505
ZBAA,1990-06-04 06:00,ZBAA 040600Z AUTO 32008G17KT 9SM 26/03 A2956 RMK SLP024 T02550031 4////0225 57003 IEM_DS3505
ZBAA,1990-06-04 07:00,ZBAA 040700Z AUTO ////06KT 6SM 30/07 A2953 RMK T03000070 IEM_DS3505
ZBAA,1990-06-04 08:00,ZBAA 040800Z AUTO 00000KT 6SM RMK IEM_DS3505
ZBAA,1990-06-04 09:00,ZBAA 040900Z AUTO 36002KT 12SM 28/05 A2953 RMK T02750050 57014 IEM_DS3505
ZBAA,1990-06-04 10:00,ZBAA 041000Z AUTO ////06KT 6SM 28/09 A2950 RMK T02800090 IEM_DS3505
ZBAA,1990-06-04 11:00,ZBAA 041100Z AUTO ////06KT 6SM 25/09 A2953 RMK T02500090 IEM_DS3505
ZBAA,1990-06-04 12:00,ZBAA 041200Z AUTO 20006KT 12SM 24/08 A2956 RMK SLP023 T02390078 52013 IEM_DS3505
ZBAA,1990-06-04 13:00,ZBAA 041300Z AUTO 21002KT 7SM 21/09 A2959 RMK T02100090 IEM_DS3505
ZBAA,1990-06-04 14:00,ZBAA 041400Z AUTO 21002KT 7SM 20/10 A2959 RMK T02000100 IEM_DS3505
ZBAA,1990-06-04 15:00,ZBAA 041500Z AUTO 00000KT 11SM 20/12 A2962 RMK SLP038 T01990121 52015 IEM_DS3505
ZBAA,1990-06-04 18:00,ZBAA 041800Z AUTO 18004KT 9SM 20/10 RMK SLP090 T02000096 40276//// 52001 IEM_DS3505
ZBAA,1990-06-04 20:00,ZBAA 042000Z AUTO 10004KT 6SM 17/10 A2959 RMK T01700100 IEM_DS3505
ZBAA,1990-06-04 21:00,ZBAA 042100Z AUTO 00000KT 7SM 18/11 A2962 RMK SLP038 T01770113 57001 IEM_DS3505
ZBAA,1990-06-04 22:00,ZBAA 042200Z AUTO ////04KT 6SM 17/11 A2962 RMK T01700110 IEM_DS3505
ZBAA,1990-06-04 23:00,ZBAA 042300Z AUTO ////06KT 6SM 20/11 A2962 RMK T02000110 IEM_DS3505
ZBAA,1990-06-05 00:00,ZBAA 050000Z AUTO 00000KT 4SM 22/11 A2962 RMK SLP043 T02150111 52005 IEM_DS3505
ZBAA,1990-06-05 02:00,ZBAA 050200Z AUTO ////06KT 7SM 28/14 A2962 RMK T02800140 IEM_DS3505
ZBAA,1990-06-05 03:00,ZBAA 050300Z AUTO 18006KT 4SM 26/11 A2962 RMK SLP037 T02580109 57006 IEM_DS3505
ZBAA,1990-06-05 04:00,ZBAA 050400Z AUTO ////06KT 7SM 30/12 A2959 RMK T03000120 IEM_DS3505
ZBAA,1990-06-05 05:00,ZBAA 050500Z AUTO ////04KT 7SM 31/14 A2959 RMK T03100140 IEM_DS3505
ZBAA,1990-06-05 06:00,ZBAA 050600Z AUTO 16008KT 4SM 27/12 A2956 RMK SLP021 T02720115 4////0169 57016 IEM_DS3505
ZBAA,1990-06-05 07:00,ZBAA 050700Z AUTO ////06KT 7SM 32/16 A2953 RMK T03200160 IEM_DS3505
ZBAA,1990-06-05 08:00,ZBAA 050800Z AUTO ////06KT 7SM 32/13 A2953 RMK T03200130 IEM_DS3505
ZBAA,1990-06-05 09:00,ZBAA 050900Z AUTO 09002KT 4SM 28/15 A2950 RMK SLP004 T02840151 IEM_DS3505
ZBAA,1990-06-05 10:00,ZBAA 051000Z AUTO ////06KT 7SM 28/13 A2950 RMK T02800130 IEM_DS3505
ZBAA,1990-06-05 11:00,ZBAA 051100Z AUTO ////04KT 6SM 26/13 A2953 RMK T02600130 IEM_DS3505
ZBAA,1990-06-05 12:00,ZBAA 051200Z AUTO 11010KT 6SM 26/12 A2953 RMK SLP009 T02560122 52005 IEM_DS3505
ZBAA,1990-06-05 13:00,ZBAA 051300Z AUTO ////04KT 6SM 24/13 A2956 RMK T02400130 IEM_DS3505
ZBAA,1990-06-05 14:00,ZBAA 051400Z AUTO 00000KT 6SM 23/13 A2959 RMK T02300130 IEM_DS3505
ZBAA,1990-06-05 15:00,ZBAA 051500Z AUTO 34004KT 6SM 23/14 A2959 RMK SLP037 T02330138 52028 IEM_DS3505
ZBAA,1990-06-05 15:15,ZBAA 051515Z AUTO ////02KT 7SM RMK IEM_DS3505
ZBAA,1990-06-05 18:00,ZBAA 051800Z AUTO 00000KT 6SM 20/16 RMK 60002 SLP038 T02010165 40288//// 52001 IEM_DS3505
ZBAA,1990-06-05 20:00,ZBAA 052000Z AUTO ////02KT 7SM 19/18 A2956 RMK T01900180 IEM_DS3505
ZBAA,1990-06-05 21:00,ZBAA 052100Z AUTO 00000KT 5SM 20/16 A2962 RMK 70004 SLP041 T02010161 52003 IEM_DS3505
ZBAA,1990-06-05 22:00,ZBAA 052200Z AUTO ////02KT 6SM 20/17 A2965 RMK T02000170 IEM_DS3505
ZBAA,1990-06-05 23:00,ZBAA 052300Z AUTO ////02KT 6SM 21/17 A2965 RMK T02100170 IEM_DS3505
ZBAA,1990-06-06 00:00,ZBAA 060000Z AUTO 36006KT 4SM 21/17 A2968 RMK 70004 SLP061 T02130171 52020 IEM_DS3505
ZBAA,1990-06-06 01:00,ZBAA 060100Z AUTO ////06KT 6SM 24/17 A2968 RMK T02400170 IEM_DS3505
ZBAA,1990-06-06 02:00,ZBAA 060200Z AUTO ////02KT 6SM 26/18 A2968 RMK T02600180 IEM_DS3505
ZBAA,1990-06-06 03:00,ZBAA 060300Z AUTO 02012KT 5SM 25/15 A2968 RMK SLP061 T02520150 54000 IEM_DS3505
ZBAA,1990-06-06 04:00,ZBAA 060400Z AUTO ////06KT 6SM 29/17 A2971 RMK T02900170 IEM_DS3505
ZBAA,1990-06-06 05:00,ZBAA 060500Z AUTO ////06KT 6SM 30/17 A2971 RMK T03000170 IEM_DS3505
ZBAA,1990-06-06 06:00,ZBAA 060600Z AUTO 02010KT 6SM 24/14 A2971 RMK SLP078 T02430141 4////0195 52016 IEM_DS3505
ZBAA,1990-06-06 07:00,ZBAA 060700Z AUTO 32010G19KT 7SM 27/12 A2974 RMK T02700120 IEM_DS3505
ZBAA,1990-06-06 09:00,ZBAA 060900Z AUTO 34010KT 12SM 22/12 RMK SLP095 T02220120 52017 IEM_DS3505
ZBAA,1990-06-06 11:00,ZBAA 061100Z AUTO 33010KT 7SM 22/13 A2977 RMK T02200130 IEM_DS3505
ZBAA,1990-06-06 12:00,ZBAA 061200Z AUTO 02010KT 12SM 20/11 A2977 RMK SLP094 T02040112 57001 IEM_DS3505
ZBAA,1990-06-06 13:00,ZBAA 061300Z AUTO ////04KT 7SM 21/12 A2980 RMK T02100120 IEM_DS3505
ZBAA,1990-06-06 14:00,ZBAA 061400Z AUTO 29002KT 7SM 19/15 A2985 RMK T01900150 IEM_DS3505
ZBAA,1990-06-06 15:00,ZBAA 061500Z AUTO 36002KT 7SM 19/14 A2985 RMK SLP115 T01890139 52021 IEM_DS3505
ZBAA,1990-06-06 18:00,ZBAA 061800Z AUTO 00000KT 11SM 18/14 RMK 60002 SLP111 T01830136 40264//// 57004 IEM_DS3505
ZBAA,1990-06-06 20:00,ZBAA 062000Z AUTO 00000KT 6SM 18/13 A2985 RMK T01800130 IEM_DS3505
ZBAA,1990-06-06 21:00,ZBAA 062100Z AUTO 00000KT 16SM 18/13 A2985 RMK SLP124 T01790127 52013 IEM_DS3505
ZBAA,1990-06-06 22:00,ZBAA 062200Z AUTO ////02KT 6SM 18/13 A2988 RMK T01800130 IEM_DS3505
ZBAA,1990-06-06 23:00,ZBAA 062300Z AUTO ////04KT 6SM 19/13 A2988 RMK T01900130 IEM_DS3505
ZBAA,1990-06-07 00:00,ZBAA 070000Z AUTO 04004KT 9SM 19/14 A2985 RMK 70004 SLP123 T01910139 57001 IEM_DS3505
ZBAA,1990-06-07 01:00,ZBAA 070100Z AUTO 04004KT 9SM 19/14 A2985 RMK SLP123 T01910139 57001 IEM_DS3505
ZBAA,1990-06-07 02:00,ZBAA 070200Z AUTO ////02KT 6SM 22/14 A2985 RMK T02200140 IEM_DS3505
ZBAA,1990-06-07 03:00,ZBAA 070300Z AUTO 00000KT 11SM 22/14 A2985 RMK SLP125 T02150136 52002 IEM_DS3505
ZBAA,1990-06-07 04:00,ZBAA 070400Z AUTO ////04KT 6SM 24/15 A2985 RMK T02400150 IEM_DS3505
ZBAA,1990-06-07 05:00,ZBAA 070500Z AUTO ////02KT 6SM 24/15 A2988 RMK T02400150 IEM_DS3505
ZBAA,1990-06-07 06:00,ZBAA 070600Z AUTO 00000KT 9SM 22/15 A2985 RMK SLP122 T02150151 4////0170 57003 IEM_DS3505
ZBAA,1990-06-07 07:00,ZBAA 070700Z AUTO 00000KT 6SM 24/15 A2985 RMK T02400150 IEM_DS3505
ZBAA,1990-06-07 08:00,ZBAA 070800Z AUTO 10002KT 6SM 23/14 A2985 RMK T02300140 IEM_DS3505
ZBAA,1990-06-07 09:00,ZBAA 070900Z AUTO 20006KT 11SM 21/15 A2983 RMK SLP113 T02130147 57009 IEM_DS3505
ZBAA,1990-06-07 10:00,ZBAA 071000Z AUTO 00000KT 6SM 22/16 A2983 RMK T02200160 IEM_DS3505
ZBAA,1990-06-07 11:00,ZBAA 071100Z AUTO 00000KT 6SM 22/16 A2983 RMK T02200160 IEM_DS3505
ZBAA,1990-06-07 12:00,ZBAA 071200Z AUTO 00000KT 6SM 20/16 A2983 RMK SLP115 T02000162 52002 IEM_DS3505
ZBAA,1990-06-07 13:00,ZBAA 071300Z AUTO 00000KT 6SM 20/16 A2985 RMK T02000160 IEM_DS3505
ZBAA,1990-06-07 14:00,ZBAA 071400Z AUTO 00000KT 6SM 20/16 A2983 RMK T02000160 IEM_DS3505
ZBAA,1990-06-07 15:00,ZBAA 071500Z AUTO 00000KT 4SM 19/16 RMK SLP109 T01860164 57006 IEM_DS3505
ZBAA,1990-06-07 18:00,ZBAA 071800Z AUTO 00000KT 5SM 18/16 RMK SLP091 T01750155 40221//// 57018 IEM_DS3505
ZBAA,1990-06-07 21:00,ZBAA 072100Z AUTO 00000KT 1 1/4SM 16/15 RMK SLP074 T01590147 57017 IEM_DS3505
ZBAA,1990-06-07 22:00,ZBAA 072200Z AUTO ////02KT 3SM 17/15 A2968 RMK T01700150 IEM_DS3505
ZBAA,1990-06-07 23:00,ZBAA 072300Z AUTO 00000KT 5SM 18/15 A2968 RMK T01800150 IEM_DS3505
ZBAA,1990-06-08 00:00,ZBAA 080000Z AUTO 36002KT 2 1/2SM 18/15 A2968 RMK SLP061 T01850146 57013 IEM_DS3505
ZBAA,1990-06-08 01:00,ZBAA 080100Z AUTO ////02KT 6SM 23/16 A2965 RMK T02300160 IEM_DS3505
ZBAA,1990-06-08 02:00,ZBAA 080200Z AUTO 18002KT 5SM 25/16 A2962 RMK T02500160 IEM_DS3505
ZBAA,1990-06-08 03:00,ZBAA 080300Z AUTO 14006KT 4SM 23/14 A2962 RMK SLP039 T02310140 57022 IEM_DS3505
ZBAA,1990-06-08 04:00,ZBAA 080400Z AUTO 26002KT 7SM 28/15 A2959 RMK T02800150 IEM_DS3505
ZBAA,1990-06-08 05:00,ZBAA 080500Z AUTO ////02KT 6SM 29/15 A2953 RMK T02900150 IEM_DS3505
ZBAA,1990-06-08 06:00,ZBAA 080600Z AUTO 20002KT 5SM 27/14 A2950 RMK SLP002 T02660138 4////0155 57036 IEM_DS3505
ZBAA,1990-06-08 07:00,ZBAA 080700Z AUTO ////02KT 6SM 31/13 A2947 RMK T03100130 IEM_DS3505
ZBAA,1990-06-08 08:00,ZBAA 080800Z AUTO ////04KT 7SM 30/14 A2947 RMK T03000140 IEM_DS3505
ZBAA,1990-06-08 09:00,ZBAA 080900Z AUTO 25010KT 12SM 24/10 A2944 RMK SLP982 T02430104 57020 IEM_DS3505
ZBAA,1990-06-08 10:00,ZBAA 081000Z AUTO ////04KT 7SM 26/12 A2944 RMK T02600120 IEM_DS3505
ZBAA,1990-06-08 11:00,ZBAA 081100Z AUTO ////06KT 6SM 24/13 A2944 RMK T02400130 IEM_DS3505
ZBAA,1990-06-08 12:00,ZBAA 081200Z AUTO 20006KT 16SM 20/12 A2944 RMK SLP985 T02040117 52002 IEM_DS3505
ZBAA,1990-06-08 13:00,ZBAA 081300Z AUTO ////02KT 6SM 20/12 A2944 RMK T02000120 IEM_DS3505
ZBAA,1990-06-08 14:00,ZBAA 081400Z AUTO 18004KT 6SM 19/12 A2944 RMK T01900120 IEM_DS3505
ZBAA,1990-06-08 15:00,ZBAA 081500Z AUTO 20002KT 12SM 18/13 RMK SLP985 T01760134 52001 IEM_DS3505
ZBAA,1990-06-08 18:00,ZBAA 081800Z AUTO 00000KT 12SM 16/13 RMK SLP968 T01640134 40271//// 57017 IEM_DS3505
ZBAA,1990-06-08 20:00,ZBAA 082000Z AUTO 31004KT 6SM 17/09 A2935 RMK T01700090 IEM_DS3505
ZBAA,1990-06-08 21:00,ZBAA 082100Z AUTO 27002KT 19SM 16/08 RMK SLP958 T01550083 57010 IEM_DS3505
ZBAA,1990-06-08 23:00,ZBAA 082300Z AUTO ////02KT 6SM 21/11 A2938 RMK T02100110 IEM_DS3505
ZBAA,1990-06-09 00:00,ZBAA 090000Z AUTO 29006KT 19SM 24/02 A2938 RMK SLP960 T02440024 52002 IEM_DS3505
ZBAA,1990-06-09 01:00,ZBAA 090100Z AUTO ////06KT 6SM 27/08 A2938 RMK T02700080 IEM_DS3505
ZBAA,1990-06-09 02:00,ZBAA 090200Z AUTO 33014G25KT 6SM 27/06 A2938 RMK T02700060 IEM_DS3505
ZBAA,1990-06-09 03:00,ZBAA 090300Z AUTO 32006G23KT 19SM 25/04 A2938 RMK SLP962 T02470043 52002 IEM_DS3505
ZBAA,1990-06-09 04:00,ZBAA 090400Z AUTO 29008G17KT 6SM 28/08 A2935 RMK T02800080 IEM_DS3505
ZBAA,1990-06-09 05:00,ZBAA 090500Z AUTO 31008G17KT 6SM 29/07 A2935 RMK T02900070 IEM_DS3505
ZBAA,1990-06-09 06:00,ZBAA 090600Z AUTO 29012KT 19SM 27/07 A2932 RMK SLP951 T02710067 4////0150 57011 IEM_DS3505
ZBAA,1990-06-09 07:00,ZBAA 090700Z AUTO 33012KT 6SM 30/05 A2932 RMK T03000050 IEM_DS3505
ZBAA,1990-06-09 08:00,ZBAA 090800Z AUTO 32010KT 6SM 31/06 A2932 RMK T03100060 IEM_DS3505
ZBAA,1990-06-09 09:00,ZBAA 090900Z AUTO 36008KT 19SM 28/06 A2935 RMK SLP951 T02800057 54000 IEM_DS3505
ZBAA,1990-06-09 10:00,ZBAA 091000Z AUTO 34008KT 6SM 29/07 A2935 RMK T02900070 IEM_DS3505
ZBAA,1990-06-09 11:00,ZBAA 091100Z AUTO ////06KT 6SM 27/06 A2941 RMK T02700060 IEM_DS3505
ZBAA,1990-06-09 12:00,ZBAA 091200Z AUTO 32004KT 19SM 24/07 A2941 RMK SLP978 T02380071 52027 IEM_DS3505
ZBAA,1990-06-09 13:00,ZBAA 091300Z AUTO 27002KT 6SM 23/06 A2944 RMK T02300060 IEM_DS3505
ZBAA,1990-06-09 14:00,ZBAA 091400Z AUTO ////04KT 7SM 20/07 A2947 RMK T02000070 IEM_DS3505
ZBAA,1990-06-09 15:00,ZBAA 091500Z AUTO 00000KT 19SM 19/09 A2947 RMK SLP998 T01920088 52020 IEM_DS3505
ZBAA,1990-06-09 16:00,ZBAA 091600Z AUTO ////04KT 7SM 20/06 A2947 RMK T02000060 IEM_DS3505
ZBAA,1990-06-09 18:00,ZBAA 091800Z AUTO 00000KT 19SM 16/08 RMK SLP001 T01630083 40291//// 52003 IEM_DS3505
ZBAA,1990-06-09 20:00,ZBAA 092000Z AUTO 23002KT 7SM 16/08 A2950 RMK T01600080 IEM_DS3505
ZBAA,1990-06-09 21:00,ZBAA 092100Z AUTO 00000KT 19SM 15/09 RMK SLP009 T01490087 52008 IEM_DS3505
ZBAA,1990-06-09 22:00,ZBAA 092200Z AUTO 00000KT 7SM 17/09 A2953 RMK T01700090 IEM_DS3505
ZBAA,1990-06-09 23:00,ZBAA 092300Z AUTO ////02KT 7SM 22/10 A2956 RMK T02200100 IEM_DS3505
ZBAA,1990-06-10 00:00,ZBAA 100000Z AUTO 00000KT 16SM 23/09 A2956 RMK SLP018 T02260092 52009 IEM_DS3505
ZBAA,1990-06-10 01:00,ZBAA 100100Z AUTO ////02KT 7SM 28/11 A2956 RMK T02800110 IEM_DS3505
ZBAA,1990-06-10 02:00,ZBAA 100200Z AUTO ////02KT 7SM 30/13 A2956 RMK T03000130 IEM_DS3505
ZBAA,1990-06-10 03:00,ZBAA 100300Z AUTO 20004KT 12SM 29/05 A2956 RMK SLP022 T02900052 52004 IEM_DS3505
ZBAA,1990-06-10 04:00,ZBAA 100400Z AUTO ////04KT 6SM 33/07 A2953 RMK T03300070 IEM_DS3505
ZBAA,1990-06-10 05:00,ZBAA 100500Z AUTO ////04KT 6SM 34/10 A2953 RMK T03400100 IEM_DS3505
ZBAA,1990-06-10 06:00,ZBAA 100600Z AUTO 22004KT 19SM 32/04 A2953 RMK SLP014 T03160042 4////0144 57008 IEM_DS3505
ZBAA,1990-06-10 07:00,ZBAA 100700Z AUTO 29008KT 6SM 35/05 A2950 RMK T03500050 IEM_DS3505
ZBAA,1990-06-10 08:00,ZBAA 100800Z AUTO ////06KT 6SM 35/06 A2950 RMK T03500060 IEM_DS3505
ZBAA,1990-06-10 09:00,ZBAA 100900Z AUTO 20008KT 19SM 31/06 A2950 RMK SLP009 T03120063 57005 IEM_DS3505
ZBAA,1990-06-10 10:00,ZBAA 101000Z AUTO ////06KT 6SM 33/09 A2950 RMK T03300090 IEM_DS3505
ZBAA,1990-06-10 11:00,ZBAA 101100Z AUTO ////04KT 7SM 29/09 A2953 RMK T02900090 IEM_DS3505
ZBAA,1990-06-10 12:00,ZBAA 101200Z AUTO 20006KT 19SM 28/09 A2956 RMK SLP018 T02810094 52009 IEM_DS3505
ZBAA,1990-06-10 13:00,ZBAA 101300Z AUTO 19002KT 7SM 25/10 A2956 RMK T02500100 IEM_DS3505
ZBAA,1990-06-10 14:00,ZBAA 101400Z AUTO 00000KT 7SM 24/10 A2959 RMK T02400100 IEM_DS3505
ZBAA,1990-06-10 15:00,ZBAA 101500Z AUTO 16002KT 16SM 24/11 RMK SLP030 T02410113 52013 IEM_DS3505
ZBAA,1990-06-10 18:00,ZBAA 101800Z AUTO 00000KT 11SM 22/11 RMK SLP035 T02250107 40321//// 52005 IEM_DS3505
ZBAA,1990-06-10 20:00,ZBAA 102000Z AUTO 00000KT 6SM 20/10 A2962 RMK T02000100 IEM_DS3505
ZBAA,1990-06-10 21:00,ZBAA 102100Z AUTO 00000KT 11SM 20/11 A2965 RMK SLP048 T02010109 52012 IEM_DS3505
ZBAA,1990-06-10 22:00,ZBAA 102200Z AUTO ////04KT 6SM 20/11 A2968 RMK T02000110 IEM_DS3505
ZBAA,1990-06-10 23:00,ZBAA 102300Z AUTO ////02KT 6SM 21/11 A2968 RMK T02100110 IEM_DS3505
ZBAA,1990-06-11 00:00,ZBAA 110000Z AUTO 00000KT 5SM 22/12 A2968 RMK T02230117 52013 IEM_DS3505
ZBAA,1990-06-11 01:00,ZBAA 110100Z AUTO ////02KT 6SM 23/14 A2968 RMK T02300140 IEM_DS3505
ZBAA,1990-06-11 02:00,ZBAA 110200Z AUTO 18002KT 6SM 24/14 A2971 RMK T02400140 IEM_DS3505
ZBAA,1990-06-11 03:00,ZBAA 110300Z AUTO 20010KT 12SM 23/12 A2971 RMK SLP072 T02330121 52011 IEM_DS3505
ZBAA,1990-06-11 04:00,ZBAA 110400Z AUTO ////06KT 6SM 27/14 A2971 RMK T02700140 IEM_DS3505
ZBAA,1990-06-11 05:00,ZBAA 110500Z AUTO 18008KT 6SM 29/14 A2971 RMK T02900140 IEM_DS3505
ZBAA,1990-06-11 06:00,ZBAA 110600Z AUTO 00000KT 16SM 28/12 A2968 RMK SLP062 T02770124 4////0194 57010 IEM_DS3505
ZBAA,1990-06-11 07:00,ZBAA 110700Z AUTO ////04KT 6SM 32/14 A2968 RMK T03200140 IEM_DS3505
ZBAA,1990-06-11 08:00,ZBAA 110800Z AUTO ////04KT 6SM 32/13 A2965 RMK T03200130 IEM_DS3505
ZBAA,1990-06-11 09:00,ZBAA 110900Z AUTO 16002KT 19SM 28/13 A2965 RMK T02830130 57010 IEM_DS3505
ZBAA,1990-06-11 10:00,ZBAA 111000Z AUTO ////04KT 7SM 30/12 A2965 RMK T03000120 IEM_DS3505
ZBAA,1990-06-11 11:00,ZBAA 111100Z AUTO ////04KT 7SM 27/13 A2965 RMK T02700130 IEM_DS3505
ZBAA,1990-06-11 12:00,ZBAA 111200Z AUTO 14004KT 16SM 26/13 A2968 RMK SLP057 T02630131 52005 IEM_DS3505
ZBAA,1990-06-11 13:00,ZBAA 111300Z AUTO ////04KT 7SM 24/13 A2968 RMK T02400130 IEM_DS3505
ZBAA,1990-06-11 14:00,ZBAA 111400Z AUTO ////04KT 7SM 24/13 A2968 RMK T02400130 IEM_DS3505
ZBAA,1990-06-11 15:00,ZBAA 111500Z AUTO 14002KT 12SM 23/14 RMK SLP064 T02310136 52007 IEM_DS3505
ZBAA,1990-06-11 18:00,ZBAA 111800Z AUTO 00000KT 12SM 20/14 RMK SLP064 T02050138 40288//// 54000 IEM_DS3505
ZBAA,1990-06-11 20:00,ZBAA 112000Z AUTO 09002KT 7SM 18/14 A2968 RMK T01800140 IEM_DS3505
ZBAA,1990-06-11 21:00,ZBAA 112100Z AUTO 20002KT 11SM 18/14 A2968 RMK SLP063 T01850140 57001 IEM_DS3505
ZBAA,1990-06-11 22:00,ZBAA 112200Z AUTO 10002KT 7SM 18/14 A2968 RMK T01800140 IEM_DS3505
ZBAA,1990-06-11 23:00,ZBAA 112300Z AUTO ////02KT 7SM 22/15 A2968 RMK T02200150 IEM_DS3505
ZBAA,1990-06-12 00:00,ZBAA 120000Z AUTO 02002KT 4SM 22/15 A2968 RMK SLP061 T02160147 57002 IEM_DS3505
ZBAA,1990-06-12 02:00,ZBAA 120200Z AUTO ////02KT 7SM 29/16 A2965 RMK T02900160 IEM_DS3505
ZBAA,1990-06-12 03:00,ZBAA 120300Z AUTO 00000KT 2SM 26/16 A2962 RMK SLP043 T02600158 57018 IEM_DS3505
ZBAA,1990-06-12 04:00,ZBAA 120400Z AUTO ////02KT 6SM 31/17 A2959 RMK T03100170 IEM_DS3505
ZBAA,1990-06-12 05:00,ZBAA 120500Z AUTO ////06KT 6SM 32/17 A2956 RMK T03200170 IEM_DS3505
ZBAA,1990-06-12 06:00,ZBAA 120600Z AUTO 20010KT 5SM 31/15 A2953 RMK SLP012 T03080153 4////0177 57030 IEM_DS3505
ZBAA,1990-06-12 07:00,ZBAA 120700Z AUTO ////02KT 6SM 35/17 A2950 RMK T03500170 IEM_DS3505
ZBAA,1990-06-12 08:00,ZBAA 120800Z AUTO ////04KT 6SM 35/16 A2947 RMK T03500160 IEM_DS3505
ZBAA,1990-06-12 09:00,ZBAA 120900Z AUTO 20010KT 6SM 32/11 A2947 RMK SLP989 T03240113 57023 IEM_DS3505
ZBAA,1990-06-12 11:00,ZBAA 121100Z AUTO 19002KT 6SM 30/13 A2944 RMK T03000130 IEM_DS3505
ZBAA,1990-06-12 12:00,ZBAA 121200Z AUTO 00000KT 6SM 29/13 A2944 RMK T02900130 IEM_DS3505
ZBAA,1990-06-12 13:00,ZBAA 121300Z AUTO ////04KT 6SM 26/17 A2947 RMK T02600170 IEM_DS3505
ZBAA,1990-06-12 14:00,ZBAA 121400Z AUTO ////06KT 7SM 25/16 A2947 RMK T02500160 IEM_DS3505
ZBAA,1990-06-12 15:00,ZBAA 121500Z AUTO 16004KT 10SM 26/14 A2944 RMK SLP984 T02610144 57001 IEM_DS3505
ZBAA,1990-06-12 16:00,ZBAA 121600Z AUTO ////06KT 6SM 24/15 A2947 RMK T02400150 IEM_DS3505
ZBAA,1990-06-12 18:00,ZBAA 121800Z AUTO 00000KT 9SM 23/17 RMK SLP987 T02260168 40327//// 52003 IEM_DS3505
ZBAA,1990-06-12 20:00,ZBAA 122000Z AUTO ////02KT 6SM 22/15 A2947 RMK T02200150 IEM_DS3505
ZBAA,1990-06-12 21:00,ZBAA 122100Z AUTO 02006KT 9SM 23/16 A2947 RMK SLP990 T02280159 52003 IEM_DS3505
ZBAA,1990-06-12 22:00,ZBAA 122200Z AUTO ////02KT 7SM 22/15 A2947 RMK T02200150 IEM_DS3505
ZBAA,1990-06-12 23:00,ZBAA 122300Z AUTO ////02KT 6SM 25/16 A2950 RMK T02500160 IEM_DS3505
ZBAA,1990-06-13 00:00,ZBAA 130000Z AUTO 04008KT 19SM 25/15 A2950 RMK SLP001 T02510151 52011 IEM_DS3505
ZBAA,1990-06-13 02:00,ZBAA 130200Z AUTO ////04KT 6SM 31/15 A2950 RMK T03100150 IEM_DS3505
ZBAA,1990-06-13 03:00,ZBAA 130300Z AUTO 32012KT 12SM 30/ A2947 RMK SLP994 57007 IEM_DS3505
ZBAA,1990-06-13 04:00,ZBAA 130400Z AUTO ////02KT 7SM 33/16 A2947 RMK T03300160 IEM_DS3505
ZBAA,1990-06-13 05:00,ZBAA 130500Z AUTO 29008KT 6SM 35/07 A2947 RMK T03500070 IEM_DS3505
ZBAA,1990-06-13 06:00,ZBAA 130600Z AUTO 32010KT 19SM 32/04 A2944 RMK SLP993 T03170044 57001 IEM_DS3505
ZBAA,1990-06-13 07:00,ZBAA 130700Z AUTO 26008KT 6SM 36/08 A2944 RMK T03600080 IEM_DS3505
ZBAA,1990-06-13 08:00,ZBAA 130800Z AUTO ////06KT 6SM 35/08 A2944 RMK T03500080 IEM_DS3505
ZBAA,1990-06-13 09:00,ZBAA 130900Z AUTO 29008KT 19SM 32/04 A2944 RMK SLP993 T03220041 54000 IEM_DS3505
ZBAA,1990-06-13 10:00,ZBAA 131000Z AUTO 00000KT 6SM 32/09 A2947 RMK T03200090 IEM_DS3505
ZBAA,1990-06-13 11:00,ZBAA 131100Z AUTO 00000KT 6SM 30/10 A2947 RMK T03000100 IEM_DS3505
ZBAA,1990-06-13 12:00,ZBAA 131200Z AUTO 00000KT 16SM 28/10 A2950 RMK SLP005 T02820096 52012 IEM_DS3505
ZBAA,1990-06-13 14:00,ZBAA 131400Z AUTO ////04KT 7SM 25/18 A2956 RMK T02500180 IEM_DS3505
ZBAA,1990-06-13 15:00,ZBAA 131500Z AUTO 11004KT 16SM 24/17 RMK SLP030 T02420168 52025 IEM_DS3505
ZBAA,1990-06-13 18:00,ZBAA 131800Z AUTO 00000KT 12SM 20/17 RMK SLP044 T02050174 40329//// 52013 IEM_DS3505
ZBAA,1990-06-13 20:00,ZBAA 132000Z AUTO 35002KT 7SM 19/16 A2965 RMK T01900160 IEM_DS3505
ZBAA,1990-06-13 21:00,ZBAA 132100Z AUTO 07004KT 17SM 20/17 A2965 RMK SLP052 T01950169 52008 IEM_DS3505
ZBAA,1990-06-13 22:00,ZBAA 132200Z AUTO 34004KT 7SM 19/17 A2968 RMK T01900170 IEM_DS3505
ZBAA,1990-06-13 23:00,ZBAA 132300Z AUTO ////04KT 7SM 22/17 A2968 RMK T02200170 IEM_DS3505
ZBAA,1990-06-14 00:00,ZBAA 140000Z AUTO 04006KT 9SM 24/15 A2968 RMK SLP061 T02360152 52009 IEM_DS3505
ZBAA,1990-06-14 02:00,ZBAA 140200Z AUTO ////04KT 6SM 31/13 A2968 RMK T03100130 IEM_DS3505
ZBAA,1990-06-14 03:00,ZBAA 140300Z AUTO 04008KT 12SM 29/11 A2968 RMK SLP060 T02940114 54000 IEM_DS3505
ZBAA,1990-06-14 04:00,ZBAA 140400Z AUTO ////04KT 6SM 32/12 A2968 RMK T03200120 IEM_DS3505
ZBAA,1990-06-14 05:00,ZBAA 140500Z AUTO ////04KT 6SM 34/11 A2965 RMK T03400110 IEM_DS3505
ZBAA,1990-06-14 06:00,ZBAA 140600Z AUTO 16004KT 11SM 31/12 A2965 RMK SLP052 T03130117 4////0192 57009 IEM_DS3505
ZBAA,1990-06-14 07:00,ZBAA 140700Z AUTO ////02KT 6SM 33/11 A2965 RMK T03300110 IEM_DS3505
ZBAA,1990-06-14 08:00,ZBAA 140800Z AUTO ////04KT 6SM 32/12 A2965 RMK T03200120 IEM_DS3505
ZBAA,1990-06-14 09:00,ZBAA 140900Z AUTO 20006KT 12SM 30/11 A2965 RMK SLP050 T03040110 57002 IEM_DS3505
ZBAA,1990-06-14 10:00,ZBAA 141000Z AUTO ////02KT 6SM 33/11 A2965 RMK T03300110 IEM_DS3505
ZBAA,1990-06-14 11:00,ZBAA 141100Z AUTO 17002KT 6SM 30/11 A2965 RMK T03000110 IEM_DS3505
ZBAA,1990-06-14 12:00,ZBAA 141200Z AUTO 20006KT 7SM 28/11 A2965 RMK SLP055 T02850110 52005 IEM_DS3505
ZBAA,1990-06-14 13:00,ZBAA 141300Z AUTO 19004KT 6SM 27/12 A2968 RMK T02700120 IEM_DS3505
ZBAA,1990-06-14 14:00,ZBAA 141400Z AUTO 19002KT 6SM 26/12 A2971 RMK T02600120 IEM_DS3505
ZBAA,1990-06-14 15:00,ZBAA 141500Z AUTO 22002KT 7SM 25/11 RMK SLP066 T02510112 52012 IEM_DS3505
ZBAA,1990-06-14 18:00,ZBAA 141800Z AUTO 36006KT 7SM 22/15 RMK SLP073 T02150150 52006 IEM_DS3505
ZBAA,1990-06-14 21:00,ZBAA 142100Z AUTO 04002KT 6SM 20/15 A2974 RMK SLP076 T01950149 52003 IEM_DS3505
ZBAA,1990-06-14 22:00,ZBAA 142200Z AUTO 00000KT 7SM 20/15 A2974 RMK T02000150 IEM_DS3505
ZBAA,1990-06-14 23:00,ZBAA 142300Z AUTO ////02KT 7SM 24/14 A2974 RMK T02400140 IEM_DS3505
ZBAA,1990-06-15 00:00,ZBAA 150000Z AUTO 07002KT 5SM 24/15 A2974 RMK SLP084 T02350149 52008 IEM_DS3505
ZBAA,1990-06-15 01:00,ZBAA 150100Z AUTO ////02KT 7SM 29/15 A2974 RMK T02900150 IEM_DS3505
ZBAA,1990-06-15 02:00,ZBAA 150200Z AUTO ////02KT 7SM 31/15 A2974 RMK T03100150 IEM_DS3505
ZBAA,1990-06-15 04:00,ZBAA 150400Z AUTO ////02KT 7SM 34/17 A2971 RMK T03400170 IEM_DS3505
ZBAA,1990-06-15 05:00,ZBAA 150500Z AUTO ////02KT 7SM 35/16 A2968 RMK T03500160 IEM_DS3505
ZBAA,1990-06-15 06:00,ZBAA 150600Z AUTO 6SM 33/12 A2968 RMK SLP061 T03320125 4////0191 57018 IEM_DS3505
ZBAA,1990-06-15 07:00,ZBAA 150700Z AUTO ////04KT 7SM 38/09 A2965 RMK T03800090 IEM_DS3505
ZBAA,1990-06-15 08:00,ZBAA 150800Z AUTO ////04KT 7SM 38/09 A2965 RMK T03800090 IEM_DS3505
ZBAA,1990-06-15 09:00,ZBAA 150900Z AUTO 20006KT 9SM 34/09 A2962 RMK SLP049 T03420087 57012 IEM_DS3505
ZBAA,1990-06-15 10:00,ZBAA 151000Z AUTO ////04KT 7SM 35/10 A2962 RMK T03500100 IEM_DS3505
ZBAA,1990-06-15 11:00,ZBAA 151100Z AUTO ////04KT 7SM 32/10 A2965 RMK T03200100 IEM_DS3505
ZBAA,1990-06-15 12:00,ZBAA 151200Z AUTO 18004KT 9SM 31/11 A2965 RMK SLP052 T03090106 52003 IEM_DS3505
ZBAA,1990-06-15 13:00,ZBAA 151300Z AUTO 18004KT 7SM 29/10 A2965 RMK T02900100 IEM_DS3505
ZBAA,1990-06-15 14:00,ZBAA 151400Z AUTO ////02KT 7SM 27/12 A2968 RMK T02700120 IEM_DS3505
ZBAA,1990-06-15 15:00,ZBAA 151500Z AUTO 20004KT 9SM 27/10 A2968 RMK SLP056 T02740103 52004 IEM_DS3505
ZBAA,1990-06-15 16:00,ZBAA 151600Z AUTO ////04KT 7SM 26/11 A2965 RMK T02600110 IEM_DS3505
ZBAA,1990-06-15 18:00,ZBAA 151800Z AUTO 00000KT 10SM 22/13 RMK SLP053 T02200132 40347//// 57003 IEM_DS3505
ZBAA,1990-06-15 20:00,ZBAA 152000Z AUTO 32002KT 6SM 20/12 A2965 RMK T02000120 IEM_DS3505
ZBAA,1990-06-15 21:00,ZBAA 152100Z AUTO 00000KT 7SM 20/13 RMK SLP057 T02050132 52004 IEM_DS3505
ZBAA,1990-06-15 22:00,ZBAA 152200Z AUTO 00000KT 6SM 20/14 A2968 RMK T02000140 IEM_DS3505
ZBAA,1990-06-15 23:00,ZBAA 152300Z AUTO ////02KT 6SM 24/13 A2968 RMK T02400130 IEM_DS3505
ZBAA,1990-06-16 00:00,ZBAA 160000Z AUTO 00000KT 4SM 25/13 A2971 RMK SLP067 T02500133 52010 IEM_DS3505
ZBAA,1990-06-16 01:00,ZBAA 160100Z AUTO 00000KT 6SM 30/15 A2971 RMK T03000150 IEM_DS3505
ZBAA,1990-06-16 02:00,ZBAA 160200Z AUTO ////02KT 6SM 33/16 A2968 RMK T03300160 IEM_DS3505
ZBAA,1990-06-16 03:00,ZBAA 160300Z AUTO 18002KT 3SM 32/13 A2968 RMK SLP062 T03180129 57005 IEM_DS3505
ZBAA,1990-06-16 04:00,ZBAA 160400Z AUTO 3SM 36/16 A2965 RMK T03600160 IEM_DS3505
ZBAA,1990-06-16 05:00,ZBAA 160500Z AUTO ////06KT 5SM 37/14 A2965 RMK T03700140 IEM_DS3505
ZBAA,1990-06-16 06:00,ZBAA 160600Z AUTO 20014KT 12SM 36/06 A2962 RMK SLP045 T03610062 4////0201 57017 IEM_DS3505
ZBAA,1990-06-16 07:00,ZBAA 160700Z AUTO 22010KT 6SM 38/08 A2962 RMK T03800080 IEM_DS3505
ZBAA,1990-06-16 08:00,ZBAA 160800Z AUTO ////06KT 6SM 37/10 A2959 RMK T03700100 IEM_DS3505
ZBAA,1990-06-16 09:00,ZBAA 160900Z AUTO 20008KT 16SM 35/08 A2959 RMK SLP037 T03480080 57008 IEM_DS3505
ZBAA,1990-06-16 10:00,ZBAA 161000Z AUTO ////06KT 6SM 34/11 A2959 RMK T03400110 IEM_DS3505
ZBAA,1990-06-16 11:00,ZBAA 161100Z AUTO ////06KT 6SM 33/10 A2959 RMK T03300100 IEM_DS3505
ZBAA,1990-06-16 12:00,ZBAA 161200Z AUTO 20010KT 7SM 32/07 RMK SLP039 T03180074 52002 IEM_DS3505
ZBAA,1990-06-16 13:00,ZBAA 161300Z AUTO ////06KT 6SM 30/09 A2962 RMK T03000090 IEM_DS3505
ZBAA,1990-06-16 14:00,ZBAA 161400Z AUTO ////06KT 6SM 29/09 A2965 RMK T02900090 IEM_DS3505
ZBAA,1990-06-16 15:00,ZBAA 161500Z AUTO 20006KT 7SM 27/10 A2965 RMK SLP048 T02730097 52009 IEM_DS3505
ZBAA,1990-06-16 18:00,ZBAA 161800Z AUTO 18010KT 7SM 26/10 RMK SLP054 T02570102 52006 IEM_DS3505
ZBAA,1990-06-16 20:00,ZBAA 162000Z AUTO ////04KT 6SM 24/12 A2968 RMK T02400120 IEM_DS3505
ZBAA,1990-06-16 21:00,ZBAA 162100Z AUTO 18008KT 7SM 24/13 A2965 RMK SLP058 T02350126 52004 IEM_DS3505
ZBAA,1990-06-16 22:00,ZBAA 162200Z AUTO ////04KT 6SM 24/13 A2968 RMK T02400130 IEM_DS3505
ZBAA,1990-06-16 23:00,ZBAA 162300Z AUTO ////04KT 6SM 27/14 A2968 RMK T02700140 IEM_DS3505
ZBAA,1990-06-17 00:00,ZBAA 170000Z AUTO 18008KT 7SM 24/14 A2968 RMK SLP060 T02420137 52002 IEM_DS3505
ZBAA,1990-06-17 01:00,ZBAA 170100Z AUTO ////06KT 6SM 28/15 A2968 RMK T02800150 IEM_DS3505
ZBAA,1990-06-17 02:00,ZBAA 170200Z AUTO ////06KT 6SM 32/16 A2968 RMK T03200160 IEM_DS3505
ZBAA,1990-06-17 03:00,ZBAA 170300Z AUTO 16006KT 4SM 28/16 A2968 RMK SLP056 T02840157 57004 IEM_DS3505
ZBAA,1990-06-17 04:00,ZBAA 170400Z AUTO ////06KT 6SM 33/17 A2965 RMK T03300170 IEM_DS3505
ZBAA,1990-06-17 05:00,ZBAA 170500Z AUTO ////02KT 6SM 32/17 A2965 RMK T03200170 IEM_DS3505
ZBAA,1990-06-17 06:00,ZBAA 170600Z AUTO 18008KT 5SM 29/16 A2962 RMK SLP043 T02900157 4////0224 57013 IEM_DS3505
ZBAA,1990-06-17 07:00,ZBAA 170700Z AUTO ////04KT 6SM 31/18 A2959 RMK T03100180 IEM_DS3505
ZBAA,1990-06-17 08:00,ZBAA 170800Z AUTO ////04KT 7SM 30/18 A2962 RMK T03000180 IEM_DS3505
ZBAA,1990-06-17 09:00,ZBAA 170900Z AUTO 00000KT 4SM 27/18 A2959 RMK SLP040 T02730178 57004 IEM_DS3505
ZBAA,1990-06-17 10:00,ZBAA 171000Z AUTO ////04KT 4SM 29/17 A2959 RMK T02900170 IEM_DS3505
ZBAA,1990-06-17 11:00,ZBAA 171100Z AUTO 13008KT 6SM 28/15 A2962 RMK T02800150 IEM_DS3505
ZBAA,1990-06-17 12:00,ZBAA 171200Z AUTO 00000KT 4SM 27/18 A2962 RMK SLP041 T02720180 52001 IEM_DS3505
ZBAA,1990-06-17 13:00,ZBAA 171300Z AUTO ////04KT 6SM 26/15 A2965 RMK T02600150 IEM_DS3505
ZBAA,1990-06-17 14:00,ZBAA 171400Z AUTO ////02KT 6SM 25/15 A2968 RMK T02500150 IEM_DS3505
ZBAA,1990-06-17 15:00,ZBAA 171500Z AUTO 02002KT 4SM 25/19 RMK SLP054 T02490190 52014 IEM_DS3505
ZBAA,1990-06-17 18:00,ZBAA 171800Z AUTO 00000KT 2 1/2SM 23/16 RMK SLP048 T02270165 57007 IEM_DS3505
ZBAA,1990-06-17 20:00,ZBAA 172000Z AUTO 00000KT 6SM 22/16 A2962 RMK T02200160 IEM_DS3505
ZBAA,1990-06-17 21:00,ZBAA 172100Z AUTO 04002KT 5SM 22/17 A2962 RMK SLP044 T02220174 57004 IEM_DS3505
ZBAA,1990-06-17 22:00,ZBAA 172200Z AUTO 00000KT 6SM 22/17 A2962 RMK T02200170 IEM_DS3505
ZBAA,1990-06-17 23:00,ZBAA 172300Z AUTO 00000KT 6SM 22/16 A2962 RMK T02200160 IEM_DS3505
ZBAA,1990-06-18 00:00,ZBAA 180000Z AUTO 00000KT 2SM 23/18 A2962 RMK SLP046 T02270183 52002 IEM_DS3505
ZBAA,1990-06-18 01:00,ZBAA 180100Z AUTO ////02KT 6SM 26/17 A2962 RMK T02600170 IEM_DS3505
ZBAA,1990-06-18 02:00,ZBAA 180200Z AUTO 00000KT 6SM 28/18 A2962 RMK T02800180 IEM_DS3505
ZBAA,1990-06-18 03:00,ZBAA 180300Z AUTO 20004KT 2 1/2SM 27/19 A2962 RMK SLP043 T02670190 57003 IEM_DS3505
ZBAA,1990-06-18 04:00,ZBAA 180400Z AUTO ////02KT 6SM 31/19 A2959 RMK T03100190 IEM_DS3505
ZBAA,1990-06-18 06:00,ZBAA 180600Z AUTO 18008KT 4SM 30/18 A2956 RMK SLP027 T02960180 4////0219 57015 IEM_DS3505
ZBAA,1990-06-18 07:00,ZBAA 180700Z AUTO ////06KT 6SM 33/19 RMK T03300190 IEM_DS3505
ZBAA,1990-06-18 08:00,ZBAA 180800Z AUTO 20008KT 6SM 33/18 A2953 RMK T03300180 IEM_DS3505
ZBAA,1990-06-18 09:00,ZBAA 180900Z AUTO 20010KT 5SM 30/18 A2953 RMK SLP014 T03050175 57013 IEM_DS3505
ZBAA,1990-06-18 10:00,ZBAA 181000Z AUTO ////06KT 6SM 32/17 A2953 RMK T03200170 IEM_DS3505
ZBAA,1990-06-18 11:00,ZBAA 181100Z AUTO ////04KT 6SM 31/16 RMK T03100160 IEM_DS3505
ZBAA,1990-06-18 12:00,ZBAA 181200Z AUTO 18008KT 4SM 29/15 RMK SLP017 T02940150 52003 IEM_DS3505
ZBAA,1990-06-18 13:00,ZBAA 181300Z AUTO 13004KT 6SM 28/17 A2959 RMK T02800170 IEM_DS3505
ZBAA,1990-06-18 14:00,ZBAA 181400Z AUTO ////04KT 6SM 27/17 A2959 RMK T02700170 IEM_DS3505
ZBAA,1990-06-18 15:00,ZBAA 181500Z AUTO 00000KT 5SM 25/17 RMK SLP035 T02520173 52017 IEM_DS3505
ZBAA,1990-06-18 18:00,ZBAA 181800Z AUTO 02002KT 4SM 24/18 RMK SLP035 T02430177 40308//// 52001 IEM_DS3505
ZBAA,1990-06-18 21:00,ZBAA 182100Z AUTO 00000KT 2 1/2SM 22/17 RMK SLP047 T02200173 52011 IEM_DS3505
ZBAA,1990-06-18 22:00,ZBAA 182200Z AUTO 34004KT 6SM 22/17 A2965 RMK T02200170 IEM_DS3505
ZBAA,1990-06-18 23:00,ZBAA 182300Z AUTO 34004KT 6SM 25/ A2968 RMK IEM_DS3505
ZBAA,1990-06-19 00:00,ZBAA 190000Z AUTO 04002KT 2SM 27/18 A2968 RMK SLP062 T02690175 52016 IEM_DS3505
ZBAA,1990-06-19 01:00,ZBAA 190100Z AUTO 33002KT 6SM 32/18 A2968 RMK T03200180 IEM_DS3505
ZBAA,1990-06-19 02:00,ZBAA 190200Z AUTO ////02KT 6SM 35/17 A2968 RMK T03500170 IEM_DS3505
ZBAA,1990-06-19 03:00,ZBAA 190300Z AUTO 36002KT 6SM 32/10 A2968 RMK SLP059 T03220104 57003 IEM_DS3505
ZBAA,1990-06-19 04:00,ZBAA 190400Z AUTO ////02KT 6SM 37/09 A2965 RMK T03700090 IEM_DS3505
ZBAA,1990-06-19 05:00,ZBAA 190500Z AUTO ////02KT 6SM 38/11 A2965 RMK T03800110 IEM_DS3505
ZBAA,1990-06-19 06:00,ZBAA 190600Z AUTO 18006KT 6SM 34/10 A2962 RMK SLP045 T03410096 4////0212 57014 IEM_DS3505
ZBAA,1990-06-19 07:00,ZBAA 190700Z AUTO ////06KT 6SM 37/14 A2962 RMK T03700140 IEM_DS3505
ZBAA,1990-06-19 08:00,ZBAA 190800Z AUTO ////06KT 6SM 35/13 A2959 RMK T03500130 IEM_DS3505
ZBAA,1990-06-19 09:00,ZBAA 190900Z AUTO 18008KT 6SM 33/12 A2959 RMK SLP037 T03320118 57008 IEM_DS3505
ZBAA,1990-06-19 10:00,ZBAA 191000Z AUTO 18004KT 6SM 34/14 A2959 RMK T03400140 IEM_DS3505
ZBAA,1990-06-19 11:00,ZBAA 191100Z AUTO ////06KT 6SM 32/14 A2962 RMK T03200140 IEM_DS3505
ZBAA,1990-06-19 12:00,ZBAA 191200Z AUTO ////04KT 7SM 30/15 A2962 RMK T03000152 52007 IEM_DS3505
ZBAA,1990-06-19 13:00,ZBAA 191300Z AUTO ////04KT 6SM 29/16 A2965 RMK T02900160 IEM_DS3505
ZBAA,1990-06-19 14:00,ZBAA 191400Z AUTO ////06KT 6SM 29/16 A2965 RMK T02900160 IEM_DS3505
ZBAA,1990-06-19 15:00,ZBAA 191500Z AUTO 20012KT 6SM 27/17 A2965 RMK SLP052 T02740168 52008 IEM_DS3505
ZBAA,1990-06-19 18:00,ZBAA 191800Z AUTO 20010KT 6SM 25/18 RMK SLP048 T02490176 40343//// 57004 IEM_DS3505
ZBAA,1990-06-19 21:00,ZBAA 192100Z AUTO 20006KT 6SM 23/17 A2962 RMK SLP041 T02280168 57007 IEM_DS3505
ZBAA,1990-06-19 22:00,ZBAA 192200Z AUTO ////04KT 6SM 23/17 A2962 RMK T02300170 IEM_DS3505
ZBAA,1990-06-19 23:00,ZBAA 192300Z AUTO ////04KT 6SM 25/18 A2962 RMK T02500180 IEM_DS3505
ZBAA,1990-06-20 00:00,ZBAA 200000Z AUTO 16002KT 4SM 24/17 RMK SLP045 T02390172 52004 IEM_DS3505
ZBAA,1990-06-20 02:00,ZBAA 200200Z AUTO ////04KT 6SM 30/18 RMK T03000180 IEM_DS3505
ZBAA,1990-06-20 03:00,ZBAA 200300Z AUTO 16010KT 4SM 27/18 RMK SLP040 T02740175 57005 IEM_DS3505
ZBAA,1990-06-20 05:00,ZBAA 200500Z AUTO 18008KT 6SM 33/18 A2959 RMK T03300180 IEM_DS3505
ZBAA,1990-06-20 06:00,ZBAA 200600Z AUTO 20014KT 5SM 30/16 A2956 RMK SLP029 T03000156 4////0224 57011 IEM_DS3505
ZBAA,1990-06-20 07:00,ZBAA 200700Z AUTO 19010KT 7SM 32/14 A2956 RMK T03200140 IEM_DS3505
ZBAA,1990-06-20 09:00,ZBAA 200900Z AUTO 22010KT 6SM 27/16 A2956 RMK SLP027 T02710160 57003 IEM_DS3505
ZBAA,1990-06-20 10:00,ZBAA 201000Z AUTO ////02KT 7SM 26/20 A2956 RMK T02600200 IEM_DS3505
ZBAA,1990-06-20 11:00,ZBAA 201100Z AUTO 18008KT 7SM 24/17 A2956 RMK T02400170 IEM_DS3505
ZBAA,1990-06-20 12:00,ZBAA 201200Z AUTO 18008KT 9SM 23/16 A2959 RMK SLP029 T02310159 52002 IEM_DS3505
ZBAA,1990-06-20 13:00,ZBAA 201300Z AUTO 19004KT 6SM 23/16 A2959 RMK T02300160 IEM_DS3505
ZBAA,1990-06-20 15:00,ZBAA 201500Z AUTO 16006KT 11SM 22/15 RMK SLP037 T02250152 52008 IEM_DS3505
ZBAA,1990-06-20 18:00,ZBAA 201800Z AUTO 00000KT 9SM 21/16 RMK SLP031 T02090163 40301//// 57006 IEM_DS3505
ZBAA,1990-06-20 20:00,ZBAA 202000Z AUTO 00000KT 6SM 20/16 A2953 RMK T02000160 IEM_DS3505
ZBAA,1990-06-20 21:00,ZBAA 202100Z AUTO 00000KT 7SM 20/17 A2953 RMK SLP017 T01980174 57014 IEM_DS3505
ZBAA,1990-06-20 22:00,ZBAA 202200Z AUTO 10002KT 4SM 20/16 A2953 RMK T02000160 IEM_DS3505
ZBAA,1990-06-20 23:00,ZBAA 202300Z AUTO 16002KT 2SM 21/16 A2956 RMK T02100160 IEM_DS3505
ZBAA,1990-06-21 00:00,ZBAA 210000Z AUTO 20004KT 4SM 20/18 A2956 RMK SLP018 T02050176 52001 IEM_DS3505
ZBAA,1990-06-21 01:00,ZBAA 210100Z AUTO ////04KT 3SM 23/18 A2953 RMK T02300180 IEM_DS3505
ZBAA,1990-06-21 02:00,ZBAA 210200Z AUTO ////02KT 2 1/2SM 25/18 A2956 RMK T02500180 IEM_DS3505
ZBAA,1990-06-21 03:00,ZBAA 210300Z AUTO 36004KT 1 1/4SM 22/18 A2956 RMK SLP021 T02190178 52003 IEM_DS3505
ZBAA,1990-06-21 04:00,ZBAA 210400Z AUTO 00000KT 2SM 27/19 A2953 RMK T02700190 IEM_DS3505
ZBAA,1990-06-21 05:00,ZBAA 210500Z AUTO 00000KT 2SM 28/19 A2953 RMK T02800190 IEM_DS3505
ZBAA,1990-06-21 06:00,ZBAA 210600Z AUTO 18004KT 2SM 26/19 A2950 RMK SLP008 T02640190 57013 IEM_DS3505
ZBAA,1990-06-21 07:00,ZBAA 210700Z AUTO ////04KT 4SM 33/16 A2950 RMK T03300160 IEM_DS3505
ZBAA,1990-06-21 08:00,ZBAA 210800Z AUTO 29010G19KT 6SM 33/09 A2947 RMK T03300090 IEM_DS3505
ZBAA,1990-06-21 09:00,ZBAA 210900Z AUTO 29008G23KT 9SM 30/09 A2947 RMK SLP000 T03000089 57008 IEM_DS3505
ZBAA,1990-06-21 10:00,ZBAA 211000Z AUTO 31008KT 7SM 32/08 A2950 RMK T03200080 IEM_DS3505
ZBAA,1990-06-21 11:00,ZBAA 211100Z AUTO ////06KT 7SM 30/07 A2953 RMK T03000070 IEM_DS3505
ZBAA,1990-06-21 12:00,ZBAA 211200Z AUTO 32002KT 19SM 27/08 A2956 RMK SLP017 T02710081 52017 IEM_DS3505
ZBAA,1990-06-21 13:00,ZBAA 211300Z AUTO ////04KT 7SM 26/07 A2959 RMK T02600070 IEM_DS3505
ZBAA,1990-06-21 14:00,ZBAA 211400Z AUTO ////02KT 7SM 23/07 A2959 RMK T02300070 IEM_DS3505
ZBAA,1990-06-21 15:00,ZBAA 211500Z AUTO 22002KT 19SM 23/11 A2959 RMK SLP036 T02280113 52019 IEM_DS3505
ZBAA,1990-06-21 18:00,ZBAA 211800Z AUTO 04002KT 19SM 23/12 RMK SLP036 T02290119 40303//// 54000 IEM_DS3505
ZBAA,1990-06-21 20:00,ZBAA 212000Z AUTO ////04KT 4SM 21/15 A2959 RMK T02100150 IEM_DS3505
ZBAA,1990-06-21 21:00,ZBAA 212100Z AUTO 07002KT 12SM 20/13 A2959 RMK SLP022 T02010130 57014 IEM_DS3505
ZBAA,1990-06-21 23:00,ZBAA 212300Z AUTO ////02KT 6SM 22/15 A2965 RMK T02200150 IEM_DS3505
ZBAA,1990-06-22 00:00,ZBAA 220000Z AUTO 22004KT 6SM 22/14 A2965 RMK 60000 SLP046 T02230144 52024 IEM_DS3505
ZBAA,1990-06-22 01:00,ZBAA 220100Z AUTO ////04KT 6SM 27/15 A2965 RMK T02700150 IEM_DS3505
ZBAA,1990-06-22 02:00,ZBAA 220200Z AUTO 00000KT 6SM 28/16 A2965 RMK T02800160 IEM_DS3505
ZBAA,1990-06-22 03:00,ZBAA 220300Z AUTO 22006KT 6SM 26/14 A2962 RMK SLP044 T02570144 57002 IEM_DS3505
ZBAA,1990-06-22 04:00,ZBAA 220400Z AUTO ////04KT 6SM 28/16 A2962 RMK T02800160 IEM_DS3505
ZBAA,1990-06-22 05:00,ZBAA 220500Z AUTO ////06KT 6SM 32/16 A2959 RMK T03200160 IEM_DS3505
ZBAA,1990-06-22 06:00,ZBAA 220600Z AUTO 20010KT 6SM 28/17 A2959 RMK SLP032 T02750169 4////0195 57012 IEM_DS3505
ZBAA,1990-06-22 07:00,ZBAA 220700Z AUTO ////04KT 6SM 33/17 A2956 RMK T03300170 IEM_DS3505
ZBAA,1990-06-22 08:00,ZBAA 220800Z AUTO 20010G19KT 7SM 28/15 A2959 RMK T02800150 IEM_DS3505
ZBAA,1990-06-22 09:00,ZBAA 220900Z AUTO 32010G25KT 12SM 29/08 A2959 RMK SLP031 T02900079 57001 IEM_DS3505
ZBAA,1990-06-22 10:00,ZBAA 221000Z AUTO 29012G21KT 6SM 30/06 A2962 RMK T03000060 IEM_DS3505
ZBAA,1990-06-22 11:00,ZBAA 221100Z AUTO ////06KT 7SM 28/06 A2962 RMK T02800060 IEM_DS3505
ZBAA,1990-06-22 12:00,ZBAA 221200Z AUTO 34004KT 19SM 26/08 A2965 RMK 60000 SLP048 T02590080 52017 IEM_DS3505
ZBAA,1990-06-22 13:00,ZBAA 221300Z AUTO 31002KT 7SM 24/08 A2968 RMK T02400080 IEM_DS3505
ZBAA,1990-06-22 14:00,ZBAA 221400Z AUTO ////02KT 7SM 22/08 A2971 RMK T02200080 IEM_DS3505
ZBAA,1990-06-22 15:00,ZBAA 221500Z AUTO 00000KT 19SM 21/11 RMK SLP071 T02090108 52023 IEM_DS3505
ZBAA,1990-06-22 18:00,ZBAA 221800Z AUTO 00000KT 17SM 19/11 RMK SLP080 T01920108 40291//// 52009 IEM_DS3505
ZBAA,1990-06-22 20:00,ZBAA 222000Z AUTO 30002KT 7SM 17/10 A2977 RMK T01700100 IEM_DS3505
ZBAA,1990-06-22 21:00,ZBAA 222100Z AUTO 00000KT 7SM 18/12 A2977 RMK SLP084 T01790124 52004 IEM_DS3505
ZBAA,1990-06-22 22:00,ZBAA 222200Z AUTO 00000KT 6SM 19/11 A2977 RMK T01900110 IEM_DS3505
ZBAA,1990-06-23 00:00,ZBAA 230000Z AUTO 04002KT 5SM 22/11 A2977 RMK SLP086 T02190112 52002 IEM_DS3505
ZBAA,1990-06-23 01:00,ZBAA 230100Z AUTO ////02KT 5SM 27/13 A2977 RMK T02700130 IEM_DS3505
ZBAA,1990-06-23 02:00,ZBAA 230200Z AUTO ////04KT 4SM 31/14 A2977 RMK T03100140 IEM_DS3505
ZBAA,1990-06-23 03:00,ZBAA 230300Z AUTO 16008KT 4SM 27/17 RMK SLP087 T02680168 52001 IEM_DS3505
ZBAA,1990-06-23 04:00,ZBAA 230400Z AUTO 17008G17KT 6SM 32/10 A2977 RMK T03200100 IEM_DS3505
ZBAA,1990-06-23 05:00,ZBAA 230500Z AUTO 17008KT 6SM 30/11 A2974 RMK T03000110 IEM_DS3505
ZBAA,1990-06-23 06:00,ZBAA 230600Z AUTO 20010KT 6SM 29/12 A2974 RMK SLP078 T02870122 4////0175 57009 IEM_DS3505
ZBAA,1990-06-23 07:00,ZBAA 230700Z AUTO ////06KT 6SM 33/14 A2974 RMK T03300140 IEM_DS3505
ZBAA,1990-06-23 08:00,ZBAA 230800Z AUTO ////06KT 7SM 34/14 A2971 RMK T03400140 IEM_DS3505
ZBAA,1990-06-23 09:00,ZBAA 230900Z AUTO 20004KT 10SM 29/13 A2971 RMK SLP073 T02890128 57005 IEM_DS3505
ZBAA,1990-06-23 10:00,ZBAA 231000Z AUTO ////06KT 6SM 30/15 A2968 RMK T03000150 IEM_DS3505
ZBAA,1990-06-23 11:00,ZBAA 231100Z AUTO ////04KT 6SM 28/12 A2971 RMK T02800120 IEM_DS3505
ZBAA,1990-06-23 12:00,ZBAA 231200Z AUTO 14002KT 6SM 27/14 A2971 RMK SLP070 T02670145 57003 IEM_DS3505
ZBAA,1990-06-23 13:00,ZBAA 231300Z AUTO ////04KT 6SM 25/14 A2974 RMK T02500140 IEM_DS3505
ZBAA,1990-06-23 14:00,ZBAA 231400Z AUTO 10002KT 6SM 25/14 A2977 RMK T02500140 IEM_DS3505
ZBAA,1990-06-23 15:00,ZBAA 231500Z AUTO 11002KT 6SM 25/15 RMK SLP088 T02520152 52018 IEM_DS3505
ZBAA,1990-06-23 18:00,ZBAA 231800Z AUTO 00000KT 6SM 23/16 RMK SLP086 T02260159 40305//// 57002 IEM_DS3505
ZBAA,1990-06-23 20:00,ZBAA 232000Z AUTO 00000KT 6SM 21/14 A2974 RMK T02100140 IEM_DS3505
ZBAA,1990-06-23 21:00,ZBAA 232100Z AUTO 00000KT 4SM 21/16 A2974 RMK SLP082 T02140156 57004 IEM_DS3505
ZBAA,1990-06-23 22:00,ZBAA 232200Z AUTO 00000KT 4SM 22/14 A2977 RMK T02200140 IEM_DS3505
ZBAA,1990-06-23 23:00,ZBAA 232300Z AUTO 6SM 24/14 A2977 RMK T02400140 IEM_DS3505
ZBAA,1990-06-24 00:00,ZBAA 240000Z AUTO 02002KT 2 1/2SM 24/16 A2974 RMK SLP082 T02370155 54000 IEM_DS3505
ZBAA,1990-06-24 01:00,ZBAA 240100Z AUTO ////02KT 6SM 29/14 A2974 RMK T02900140 IEM_DS3505
ZBAA,1990-06-24 02:00,ZBAA 240200Z AUTO ////02KT 6SM 31/15 A2974 RMK T03100150 IEM_DS3505
ZBAA,1990-06-24 03:00,ZBAA 240300Z AUTO 07002KT 3SM 28/13 A2974 RMK SLP080 T02800133 57002 IEM_DS3505
ZBAA,1990-06-24 04:00,ZBAA 240400Z AUTO ////02KT 6SM 35/15 A2974 RMK T03500150 IEM_DS3505
ZBAA,1990-06-24 05:00,ZBAA 240500Z AUTO ////04KT 6SM 35/16 A2971 RMK T03500160 IEM_DS3505
ZBAA,1990-06-24 06:00,ZBAA 240600Z AUTO 00000KT 3SM 30/16 A2968 RMK SLP070 T03000162 4////0210 57010 IEM_DS3505
ZBAA,1990-06-24 07:00,ZBAA 240700Z AUTO ////04KT 6SM 34/18 A2968 RMK T03400180 IEM_DS3505
ZBAA,1990-06-24 08:00,ZBAA 240800Z AUTO ////04KT 6SM 32/19 A2968 RMK T03200190 IEM_DS3505
ZBAA,1990-06-24 09:00,ZBAA 240900Z AUTO 18004KT 3SM 29/19 A2965 RMK SLP055 T02900191 57015 IEM_DS3505
ZBAA,1990-06-24 10:00,ZBAA 241000Z AUTO ////04KT 5SM 30/20 A2965 RMK T03000200 IEM_DS3505
ZBAA,1990-06-24 12:00,ZBAA 241200Z AUTO 18002KT 4SM 28/20 A2965 RMK SLP052 T02800200 57003 IEM_DS3505
ZBAA,1990-06-24 13:00,ZBAA 241300Z AUTO 16002KT 4SM 28/20 A2968 RMK T02800200 IEM_DS3505
ZBAA,1990-06-24 14:00,ZBAA 241400Z AUTO 18002KT 4SM 28/21 A2968 RMK T02800210 IEM_DS3505
ZBAA,1990-06-24 15:00,ZBAA 241500Z AUTO 14002KT 4SM 26/22 RMK SLP055 T02640224 52004 IEM_DS3505
ZBAA,1990-06-24 18:00,ZBAA 241800Z AUTO 00000KT 3SM 26/23 RMK SLP053 T02560228 40306//// 57002 IEM_DS3505
ZBAA,1990-06-24 20:00,ZBAA 242000Z AUTO ////04KT 4SM 26/22 A2965 RMK T02600220 IEM_DS3505
ZBAA,1990-06-24 21:00,ZBAA 242100Z AUTO 07002KT 3SM 25/22 A2965 RMK SLP049 T02490222 57004 IEM_DS3505
ZBAA,1990-06-24 22:00,ZBAA 242200Z AUTO 10002KT 2 1/2SM 25/22 A2962 RMK T02500220 IEM_DS3505
ZBAA,1990-06-24 23:00,ZBAA 242300Z AUTO 2 1/2SM 26/22 A2965 RMK T02600220 IEM_DS3505
ZBAA,1990-06-25 00:00,ZBAA 250000Z AUTO 00000KT 2SM 25/22 A2965 RMK SLP048 T02500225 57001 IEM_DS3505
ZBAA,1990-06-25 01:00,ZBAA 250100Z AUTO 20002KT 2 1/2SM 26/23 A2962 RMK T02600230 IEM_DS3505
ZBAA,1990-06-25 02:00,ZBAA 250200Z AUTO ////02KT 2 1/2SM 28/23 A2962 RMK T02800230 IEM_DS3505
ZBAA,1990-06-25 03:00,ZBAA 250300Z AUTO 20006KT 5SM 25/22 A2962 RMK SLP050 T02510225 52001 IEM_DS3505
ZBAA,1990-06-25 04:00,ZBAA 250400Z AUTO 23002KT 2SM 29/22 A2962 RMK T02900220 IEM_DS3505
ZBAA,1990-06-25 05:00,ZBAA 250500Z AUTO ////04KT 5SM 28/19 A2962 RMK T02800190 IEM_DS3505
ZBAA,1990-06-25 06:00,ZBAA 250600Z AUTO 14002G19KT 11SM 27/18 A2962 RMK 60000 SLP035 T02700183 4////0243 57014 IEM_DS3505
ZBAA,1990-06-25 07:00,ZBAA 250700Z AUTO ////04KT 4SM 23/20 A2962 RMK T02300200 IEM_DS3505
ZBAA,1990-06-25 08:00,ZBAA 250800Z AUTO 22012KT 7SM 26/14 RMK T02600140 IEM_DS3505
ZBAA,1990-06-25 09:00,ZBAA 250900Z AUTO 16004KT 6SM 26/20 A2956 RMK SLP036 T02570201 54000 IEM_DS3505
ZBAA,1990-06-25 10:00,ZBAA 251000Z AUTO ////02KT 7SM 23/21 A2959 RMK T02300210 IEM_DS3505
ZBAA,1990-06-25 11:00,ZBAA 251100Z AUTO ////06KT 7SM 23/20 A2959 RMK T02300200 IEM_DS3505
ZBAA,1990-06-25 12:00,ZBAA 251200Z AUTO 07002KT 7SM 24/20 A2959 RMK SLP028 T02390198 57008 IEM_DS3505
ZBAA,1990-06-25 13:00,ZBAA 251300Z AUTO 15004KT 6SM 23/20 A2959 RMK T02300200 IEM_DS3505
ZBAA,1990-06-25 14:00,ZBAA 251400Z AUTO 00000KT 6SM 22/20 A2962 RMK T02200200 IEM_DS3505
ZBAA,1990-06-25 15:00,ZBAA 251500Z AUTO 00000KT 6SM 22/20 RMK SLP037 T02230202 52009 IEM_DS3505
ZBAA,1990-06-25 18:00,ZBAA 251800Z AUTO 00000KT 6SM 22/20 RMK SLP030 T02250202 40273//// 57007 IEM_DS3505
ZBAA,1990-06-25 20:00,ZBAA 252000Z AUTO 00000KT 1/8SM 22/20 A2956 RMK T02200200 IEM_DS3505
ZBAA,1990-06-25 21:00,ZBAA 252100Z AUTO 00000KT 4SM 22/20 A2953 RMK SLP018 T02190199 57012 IEM_DS3505
ZBAA,1990-06-25 23:00,ZBAA 252300Z AUTO 00000KT 1SM 23/20 A2953 RMK T02300200 IEM_DS3505
ZBAA,1990-06-26 00:00,ZBAA 260000Z AUTO 34002KT 2SM 23/20 A2953 RMK SLP017 T02330203 57001 IEM_DS3505
ZBAA,1990-06-26 01:00,ZBAA 260100Z AUTO ////02KT 1 1/4SM 27/20 A2953 RMK T02700200 IEM_DS3505
ZBAA,1990-06-26 03:00,ZBAA 260300Z AUTO 18002KT 2SM 27/21 A2953 RMK SLP013 T02660209 57004 IEM_DS3505
ZBAA,1990-06-26 05:00,ZBAA 260500Z AUTO ////04KT 1 1/4SM 33/22 A2950 RMK T03300220 IEM_DS3505
ZBAA,1990-06-26 06:00,ZBAA 260600Z AUTO 20006KT 7SM 29/19 A2947 RMK SLP999 T02910191 4////0216 57013 IEM_DS3505
ZBAA,1990-06-26 07:00,ZBAA 260700Z AUTO ////06KT 6SM 33/18 A2947 RMK T03300180 IEM_DS3505
ZBAA,1990-06-26 08:00,ZBAA 260800Z AUTO ////06KT 6SM 34/20 A2944 RMK T03400200 IEM_DS3505
ZBAA,1990-06-26 09:00,ZBAA 260900Z AUTO 20006KT 16SM 31/18 A2944 RMK T03090178 57017 IEM_DS3505
ZBAA,1990-06-26 10:00,ZBAA 261000Z AUTO ////02KT 6SM 32/17 A2944 RMK T03200170 IEM_DS3505
ZBAA,1990-06-26 11:00,ZBAA 261100Z AUTO ////02KT 6SM 30/17 A2944 RMK T03000170 IEM_DS3505
ZBAA,1990-06-26 12:00,ZBAA 261200Z AUTO 20006KT 12SM 29/18 A2947 RMK SLP985 T02890185 52003 IEM_DS3505
ZBAA,1990-06-26 13:00,ZBAA 261300Z AUTO ////04KT 6SM 28/19 A2947 RMK T02800190 IEM_DS3505
ZBAA,1990-06-26 14:00,ZBAA 261400Z AUTO ////02KT 6SM 28/20 A2950 RMK T02800200 IEM_DS3505
ZBAA,1990-06-26 15:00,ZBAA 261500Z AUTO 18006KT 9SM 26/20 RMK SLP996 T02590198 52011 IEM_DS3505
ZBAA,1990-06-26 18:00,ZBAA 261800Z AUTO 20002KT 12SM 25/20 RMK SLP997 T02470205 40311//// 52001 IEM_DS3505
ZBAA,1990-06-26 20:00,ZBAA 262000Z AUTO 19004KT 6SM 24/20 A2947 RMK T02400200 IEM_DS3505
ZBAA,1990-06-26 21:00,ZBAA 262100Z AUTO 20002KT 6SM 23/20 A2950 RMK SLP002 T02340202 52005 IEM_DS3505
ZBAA,1990-06-26 22:00,ZBAA 262200Z AUTO 00000KT 7SM 24/20 A2953 RMK T02400200 IEM_DS3505
ZBAA,1990-06-26 23:00,ZBAA 262300Z AUTO 11002KT 7SM 26/21 A2953 RMK T02600210 IEM_DS3505
ZBAA,1990-06-27 00:00,ZBAA 270000Z AUTO 00000KT 4SM 26/21 A2953 RMK SLP008 T02580209 52006 IEM_DS3505
ZBAA,1990-06-27 01:00,ZBAA 270100Z AUTO ////02KT 6SM 31/21 A2953 RMK T03100210 IEM_DS3505
ZBAA,1990-06-27 02:00,ZBAA 270200Z AUTO ////02KT 6SM 33/22 A2953 RMK T03300220 IEM_DS3505
ZBAA,1990-06-27 03:00,ZBAA 270300Z AUTO 14002KT 4SM 29/21 A2953 RMK SLP011 T02900207 52003 IEM_DS3505
ZBAA,1990-06-27 04:00,ZBAA 270400Z AUTO ////04KT 6SM 35/22 A2953 RMK T03500220 IEM_DS3505
ZBAA,1990-06-27 05:00,ZBAA 270500Z AUTO ////06KT 6SM 36/21 A2950 RMK T03600210 IEM_DS3505
ZBAA,1990-06-27 06:00,ZBAA 270600Z AUTO 18008KT 5SM 31/20 A2950 RMK SLP005 T03060203 4////0231 57006 IEM_DS3505
ZBAA,1990-06-27 08:00,ZBAA 270800Z AUTO ////06KT 6SM 35/21 A2947 RMK T03500210 IEM_DS3505
ZBAA,1990-06-27 09:00,ZBAA 270900Z AUTO 20010KT 5SM 31/20 A2944 RMK SLP991 T03100205 57014 IEM_DS3505
ZBAA,1990-06-27 10:00,ZBAA 271000Z AUTO 20008KT 6SM 32/20 A2944 RMK T03200200 IEM_DS3505
ZBAA,1990-06-27 11:00,ZBAA 271100Z AUTO 11008KT 7SM 28/19 A2950 RMK T02800190 IEM_DS3505
ZBAA,1990-06-27 12:00,ZBAA 271200Z AUTO 16004G17KT 5SM 29/21 A2953 RMK SLP994 T02920212 52003 IEM_DS3505
ZBAA,1990-06-27 13:00,ZBAA 271300Z AUTO 07008KT 1SM 22/19 A2956 RMK T02200190 IEM_DS3505
ZBAA,1990-06-27 14:00,ZBAA 271400Z AUTO 11010G19KT 2 1/2SM 21/19 A2959 RMK T02100190 IEM_DS3505
ZBAA,1990-06-27 15:00,ZBAA 271500Z AUTO 02006KT 9SM 21/19 A2962 RMK SLP041 T02070190 52046 IEM_DS3505
ZBAA,1990-06-27 16:00,ZBAA 271600Z AUTO 00000KT 6SM 21/19 A2959 RMK T02100190 IEM_DS3505
ZBAA,1990-06-27 18:00,ZBAA 271800Z AUTO 00000KT 9SM 20/19 RMK 60008 SLP033 T02020186 40320//// 57008 IEM_DS3505
ZBAA,1990-06-27 20:00,ZBAA 272000Z AUTO 32002KT 6SM 20/19 A2956 RMK T02000190 IEM_DS3505
ZBAA,1990-06-27 21:00,ZBAA 272100Z AUTO 00000KT 4SM 20/19 A2959 RMK 70008 SLP032 T02030187 57001 IEM_DS3505
ZBAA,1990-06-27 22:00,ZBAA 272200Z AUTO 00000KT 6SM 21/20 A2959 RMK T02100200 IEM_DS3505
ZBAA,1990-06-27 23:00,ZBAA 272300Z AUTO 00000KT 6SM 22/21 A2959 RMK T02200210 IEM_DS3505
ZBAA,1990-06-28 00:00,ZBAA 280000Z AUTO 00000KT 3SM 22/19 A2962 RMK SLP041 T02170190 52009 IEM_DS3505
ZBAA,1990-06-28 01:00,ZBAA 280100Z AUTO ////02KT 6SM 25/20 A2962 RMK T02500200 IEM_DS3505
ZBAA,1990-06-28 02:00,ZBAA 280200Z AUTO ////04KT 7SM 28/20 A2962 RMK T02800200 IEM_DS3505
ZBAA,1990-06-28 03:00,ZBAA 280300Z AUTO 20002KT 3SM 25/19 A2962 RMK SLP042 T02500190 52001 IEM_DS3505
ZBAA,1990-06-28 04:00,ZBAA 280400Z AUTO ////04KT 7SM 31/20 A2962 RMK T03100200 IEM_DS3505
ZBAA,1990-06-28 05:00,ZBAA 280500Z AUTO ////04KT 7SM 30/21 A2959 RMK T03000210 IEM_DS3505
ZBAA,1990-06-28 06:00,ZBAA 280600Z AUTO 11004KT 2 1/2SM 28/19 A2956 RMK SLP025 T02760188 4////0194 57017 IEM_DS3505
ZBAA,1990-06-28 07:00,ZBAA 280700Z AUTO ////06KT 7SM 32/20 A2956 RMK T03200200 IEM_DS3505
ZBAA,1990-06-28 08:00,ZBAA 280800Z AUTO ////04KT 7SM 31/20 A2953 RMK T03100200 IEM_DS3505
ZBAA,1990-06-28 09:00,ZBAA 280900Z AUTO 20006KT 6SM 29/18 A2953 RMK SLP016 T02900180 57009 IEM_DS3505
ZBAA,1990-06-28 10:00,ZBAA 281000Z AUTO ////04KT 7SM 31/21 RMK T03100210 IEM_DS3505
ZBAA,1990-06-28 11:00,ZBAA 281100Z AUTO ////06KT 7SM A2956 RMK IEM_DS3505
ZBAA,1990-06-28 12:00,ZBAA 281200Z AUTO 00000KT 6SM 28/19 A2956 RMK SLP020 T02750191 52004 IEM_DS3505
ZBAA,1990-06-28 13:00,ZBAA 281300Z AUTO ////04KT 7SM 26/21 A2956 RMK T02600210 IEM_DS3505
ZBAA,1990-06-28 14:00,ZBAA 281400Z AUTO ////06G16KT 7SM 26/21 A2962 RMK T02600210 IEM_DS3505
ZBAA,1990-06-28 15:00,ZBAA 281500Z AUTO 16006KT 6SM 24/21 A2962 RMK SLP039 T02440211 52019 IEM_DS3505
ZBAA,1990-06-28 18:00,ZBAA 281800Z AUTO 16008KT 9SM 22/19 RMK SLP047 T02200192 52008 IEM_DS3505
ZBAA,1990-06-28 21:00,ZBAA 282100Z AUTO 02002KT 6SM 22/19 A2968 RMK SLP052 T02170192 52005 IEM_DS3505
ZBAA,1990-06-28 22:00,ZBAA 282200Z AUTO ////04KT 4SM 22/18 A2968 RMK T02200180 IEM_DS3505
ZBAA,1990-06-28 23:00,ZBAA 282300Z AUTO ////02KT 7SM 22/18 A2968 RMK T02200180 IEM_DS3505
ZBAA,1990-06-29 00:00,ZBAA 290000Z AUTO 02002KT 1 1/4SM 21/18 A2968 RMK SLP061 T02130185 52009 IEM_DS3505
ZBAA,1990-06-29 01:00,ZBAA 290100Z AUTO 02002KT 5SM 25/19 A2968 RMK SLP061 T02500190 4////0020 52009 IEM_DS3505
ZBAA,1990-06-29 02:00,ZBAA 290200Z AUTO ////02KT 5SM 26/19 A2968 RMK T02600190 IEM_DS3505
ZBAA,1990-06-29 03:00,ZBAA 290300Z AUTO 02002KT 2SM 23/19 A2968 RMK SLP061 T02340192 54000 IEM_DS3505
ZBAA,1990-06-29 04:00,ZBAA 290400Z AUTO ////04KT 7SM 29/21 A2968 RMK T02900210 IEM_DS3505
ZBAA,1990-06-29 05:00,ZBAA 290500Z AUTO ////04KT 4SM 29/20 A2965 RMK T02900200 IEM_DS3505
ZBAA,1990-06-29 06:00,ZBAA 290600Z AUTO 07002KT 2SM 26/20 A2965 RMK SLP047 T02600201 4////0206 57014 IEM_DS3505
ZBAA,1990-06-29 07:00,ZBAA 290700Z AUTO ////02KT 4SM 30/20 A2962 RMK T03000200 IEM_DS3505
ZBAA,1990-06-29 08:00,ZBAA 290800Z AUTO ////02KT 4SM 29/21 A2962 RMK T02900210 IEM_DS3505
ZBAA,1990-06-29 09:00,ZBAA 290900Z AUTO 16004KT 4SM 27/21 A2959 RMK SLP036 T02670207 57011 IEM_DS3505
ZBAA,1990-06-29 10:00,ZBAA 291000Z AUTO ////04KT 4SM 28/21 A2959 RMK T02800210 IEM_DS3505
ZBAA,1990-06-29 12:00,ZBAA 291200Z AUTO 09004KT 4SM 26/22 A2962 RMK SLP037 T02590218 IEM_DS3505
ZBAA,1990-06-29 13:00,ZBAA 291300Z AUTO ////04KT 4SM 26/22 A2965 RMK T02600220 IEM_DS3505
ZBAA,1990-06-29 14:00,ZBAA 291400Z AUTO ////04KT 5SM 26/21 A2965 RMK T02600210 IEM_DS3505
ZBAA,1990-06-29 15:00,ZBAA 291500Z AUTO 07004KT 4SM 25/21 A2965 RMK SLP046 T02480212 52009 IEM_DS3505
ZBAA,1990-06-29 18:00,ZBAA 291800Z AUTO 00000KT 4SM 23/22 RMK SLP040 T02330217 40271//// 57006 IEM_DS3505
ZBAA,1990-06-29 21:00,ZBAA 292100Z AUTO 07004KT 2SM 23/21 A2965 RMK SLP045 T02320209 52005 IEM_DS3505
ZBAA,1990-06-29 22:00,ZBAA 292200Z AUTO ////02KT 1 1/4SM 24/20 A2965 RMK T02400200 IEM_DS3505
ZBAA,1990-06-29 23:00,ZBAA 292300Z AUTO ////02KT 1 1/4SM 24/21 A2968 RMK T02400210 IEM_DS3505
ZBAA,1990-06-30 00:00,ZBAA 300000Z AUTO 11004KT 1 1/4SM 23/20 A2968 RMK SLP062 T02280202 52017 IEM_DS3505
ZBAA,1990-06-30 01:00,ZBAA 300100Z AUTO ////02KT 2SM 25/21 A2968 RMK T02500210 IEM_DS3505
ZBAA,1990-06-30 02:00,ZBAA 300200Z AUTO ////02KT 2 1/2SM 26/21 A2968 RMK T02600210 IEM_DS3505
ZBAA,1990-06-30 03:00,ZBAA 300300Z AUTO 09002KT 1 1/4SM 24/20 A2968 RMK SLP062 T02370204 54000 IEM_DS3505
ZBAA,1990-06-30 04:00,ZBAA 300400Z AUTO ////04KT 7SM 27/21 A2968 RMK T02700210 IEM_DS3505
ZBAA,1990-06-30 05:00,ZBAA 300500Z AUTO ////04KT 7SM 28/22 A2965 RMK T02800220 IEM_DS3505
ZBAA,1990-06-30 06:00,ZBAA 300600Z AUTO 09004KT 2SM 27/20 A2965 RMK SLP058 T02710198 4////0224 57004 IEM_DS3505
ZBAA,1990-06-30 07:00,ZBAA 300700Z AUTO ////04KT 7SM 31/22 A2965 RMK T03100220 IEM_DS3505
ZBAA,1990-06-30 08:00,ZBAA 300800Z AUTO ////06KT 7SM 30/22 A2965 RMK T03000220 IEM_DS3505
ZBAA,1990-06-30 09:00,ZBAA 300900Z AUTO 11006KT 2SM 27/20 A2965 RMK SLP051 T02660204 57007 IEM_DS3505
ZBAA,1990-06-30 10:00,ZBAA 301000Z AUTO ////06KT 6SM 27/21 A2965 RMK T02700210 IEM_DS3505
ZBAA,1990-06-30 11:00,ZBAA 301100Z AUTO ////06KT 6SM 26/21 A2968 RMK T02600210 IEM_DS3505
ZBAA,1990-06-30 12:00,ZBAA 301200Z AUTO 11004KT 2 1/2SM 24/21 A2971 RMK SLP068 T02440208 52017 IEM_DS3505
ZBAA,1990-06-30 13:00,ZBAA 301300Z AUTO ////04KT 7SM 25/20 A2974 RMK T02500200 IEM_DS3505
ZBAA,1990-06-30 14:00,ZBAA 301400Z AUTO ////04KT 7SM 24/19 A2974 RMK T02400190 IEM_DS3505
ZBAA,1990-06-30 15:00,ZBAA 301500Z AUTO 00000KT 3SM 22/20 A2974 RMK SLP078 T02250205 52010 IEM_DS3505
ZBAA,1990-06-30 16:00,ZBAA 301600Z AUTO 00000KT 7SM 24/19 A2974 RMK T02400190 IEM_DS3505
ZBAA,1990-06-30 18:00,ZBAA 301800Z AUTO 02004KT 4SM 23/20 RMK 60001 SLP076 T02270196 40276//// 57002 IEM_DS3505
ZBAA,1990-06-30 20:00,ZBAA 302000Z AUTO 00000KT 7SM 23/20 A2971 RMK T02300200 IEM_DS3505
ZBAA,1990-06-30 21:00,ZBAA 302100Z AUTO 00000KT 2 1/2SM 22/20 A2971 RMK SLP074 T02230198 57002 IEM_DS3505
ZBAA,1990-06-30 22:00,ZBAA 302200Z AUTO 00000KT 7SM 25/20 A2971 RMK T02500200 IEM_DS3505
ZBAA,1990-06-30 23:00,ZBAA 302300Z AUTO 00000KT 7SM 24/20 A2971 RMK T02400200 IEM_DS3505
ZBAA,1990-07-01 00:00,ZBAA 010000Z AUTO 00000KT 2SM 23/19 A2974 RMK SLP078 T02310194 52004 IEM_DS3505
ZBAA,1990-07-01 01:00,ZBAA 010100Z AUTO ////04KT 4SM 24/19 A2974 RMK T02400190 IEM_DS3505
ZBAA,1990-07-01 02:00,ZBAA 010200Z AUTO ////04KT 2 1/2SM 24/19 A2974 RMK T02400190 IEM_DS3505
ZBAA,1990-07-01 03:00,ZBAA 010300Z AUTO 11004KT 1 1/4SM 22/19 A2977 RMK SLP088 T02230189 52009 IEM_DS3505
ZBAA,1990-07-01 04:00,ZBAA 010400Z AUTO ////02KT 2 1/2SM 24/19 A2977 RMK T02400190 IEM_DS3505
ZBAA,1990-07-01 05:00,ZBAA 010500Z AUTO ////06KT 2SM 24/19 A2974 RMK T02400190 IEM_DS3505
ZBAA,1990-07-01 06:00,ZBAA 010600Z AUTO 16002KT 1 1/4SM 22/19 A2974 RMK SLP079 T02150192 4////0208 57009 IEM_DS3505
ZBAA,1990-07-01 08:00,ZBAA 010800Z AUTO ////02KT 2SM 24/19 A2971 RMK T02400190 IEM_DS3505
ZBAA,1990-07-01 09:00,ZBAA 010900Z AUTO 00000KT 1SM 22/20 A2971 RMK SLP066 T02240195 57012 IEM_DS3505
ZBAA,1990-07-01 10:00,ZBAA 011000Z AUTO ////02KT 1 1/2SM 24/19 A2968 RMK T02400190 IEM_DS3505
ZBAA,1990-07-01 11:00,ZBAA 011100Z AUTO 10002KT 1 1/2SM 23/19 A2971 RMK T02300190 IEM_DS3505
ZBAA,1990-07-01 12:00,ZBAA 011200Z AUTO 09002KT 1 1/4SM 22/19 A2971 RMK SLP070 T02220191 52004 IEM_DS3505
ZBAA,1990-07-01 13:00,ZBAA 011300Z AUTO 21002KT 1 1/4SM 23/20 A2971 RMK T02300200 IEM_DS3505
ZBAA,1990-07-01 14:00,ZBAA 011400Z AUTO 12002KT 1SM 23/20 A2971 RMK T02300200 IEM_DS3505
ZBAA,1990-07-01 15:00,ZBAA 011500Z AUTO 00000KT 2SM 22/20 RMK SLP073 T02160196 52002 IEM_DS3505
ZBAA,1990-07-01 18:00,ZBAA 011800Z AUTO 00000KT 4SM 21/19 RMK SLP069 T02090193 40232//// 57004 IEM_DS3505
ZBAA,1990-07-01 20:00,ZBAA 012000Z AUTO 00000KT 1SM 22/20 A2968 RMK T02200200 IEM_DS3505
ZBAA,1990-07-01 21:00,ZBAA 012100Z AUTO 00000KT 3SM 29/20 A2968 RMK SLP063 T02900196 57006 IEM_DS3505
ZBAA,1990-07-01 22:00,ZBAA 012200Z AUTO 12002KT 1SM 23/20 A2968 RMK T02300200 IEM_DS3505
ZBAA,1990-07-01 23:00,ZBAA 012300Z AUTO ////04KT 5SM 23/19 A2968 RMK T02300190 IEM_DS3505
ZBAA,1990-07-02 00:00,ZBAA 020000Z AUTO 18004KT 2SM 22/20 A2968 RMK SLP066 T02190196 52003 IEM_DS3505
ZBAA,1990-07-02 02:00,ZBAA 020200Z AUTO 14002KT 7SM 24/19 A2971 RMK T02400190 IEM_DS3505
ZBAA,1990-07-02 03:00,ZBAA 020300Z AUTO 16004KT 2SM 24/20 A2968 RMK SLP066 T02350197 52001 IEM_DS3505
ZBAA,1990-07-02 04:00,ZBAA 020400Z AUTO 14002KT 7SM 24/19 RMK T02400190 IEM_DS3505
ZBAA,1990-07-02 05:00,ZBAA 020500Z AUTO 13002KT 5SM 28/21 A2965 RMK T02800210 IEM_DS3505
ZBAA,1990-07-02 06:00,ZBAA 020600Z AUTO 18004KT 2 1/2SM 27/19 A2965 RMK SLP050 T02690189 4////0206 57016 IEM_DS3505
ZBAA,1990-07-02 07:00,ZBAA 020700Z AUTO ////02KT 5SM 29/20 A2965 RMK T02900200 IEM_DS3505
ZBAA,1990-07-02 08:00,ZBAA 020800Z AUTO ////04KT 5SM 28/20 A2962 RMK T02800200 IEM_DS3505
ZBAA,1990-07-02 09:00,ZBAA 020900Z AUTO 18006KT 3SM 26/19 A2962 RMK SLP047 T02590193 57003 IEM_DS3505
ZBAA,1990-07-02 10:00,ZBAA 021000Z AUTO ////02KT 6SM 28/20 A2962 RMK T02800200 IEM_DS3505
ZBAA,1990-07-02 11:00,ZBAA 021100Z AUTO 18004KT 6SM 27/20 A2962 RMK T02700200 IEM_DS3505
ZBAA,1990-07-02 12:00,ZBAA 021200Z AUTO 20002KT 4SM 25/20 A2965 RMK SLP050 T02510196 52003 IEM_DS3505
ZBAA,1990-07-02 13:00,ZBAA 021300Z AUTO ////02KT 6SM 26/20 A2965 RMK T02600200 IEM_DS3505
ZBAA,1990-07-02 14:00,ZBAA 021400Z AUTO ////02KT 6SM 25/20 A2965 RMK T02500200 IEM_DS3505
ZBAA,1990-07-02 15:00,ZBAA 021500Z AUTO 18002KT 4SM 24/20 A2965 RMK SLP055 T02370202 52005 IEM_DS3505
ZBAA,1990-07-02 18:00,ZBAA 021800Z AUTO 20002KT 3SM 22/21 RMK SLP052 T02230208 40273//// 57003 IEM_DS3505
ZBAA,1990-07-02 20:00,ZBAA 022000Z AUTO ////04KT 5SM 22/19 A2965 RMK T02200190 IEM_DS3505
ZBAA,1990-07-02 21:00,ZBAA 022100Z AUTO 20004KT 3SM 21/19 A2968 RMK SLP057 T02090192 52005 IEM_DS3505
ZBAA,1990-07-02 22:00,ZBAA 022200Z AUTO 14002KT 5SM 22/18 A2968 RMK T02200180 IEM_DS3505
ZBAA,1990-07-02 23:00,ZBAA 022300Z AUTO ////04KT 7SM 23/19 A2968 RMK T02300190 IEM_DS3505
ZBAA,1990-07-03 00:00,ZBAA 030000Z AUTO 20002KT 2 1/2SM 22/20 A2968 RMK SLP063 T02240196 52006 IEM_DS3505
ZBAA,1990-07-03 01:00,ZBAA 030100Z AUTO ////02KT 5SM 28/20 A2971 RMK T02800200 IEM_DS3505
ZBAA,1990-07-03 02:00,ZBAA 030200Z AUTO ////04KT 5SM 29/20 RMK T02900200 IEM_DS3505
ZBAA,1990-07-03 03:00,ZBAA 030300Z AUTO 18002KT 4SM 27/19 A2968 RMK SLP062 T02700192 57001 IEM_DS3505
ZBAA,1990-07-03 04:00,ZBAA 030400Z AUTO ////04KT 5SM 31/20 A2968 RMK T03100200 IEM_DS3505
ZBAA,1990-07-03 05:00,ZBAA 030500Z AUTO ////04KT 6SM 32/21 A2965 RMK T03200210 IEM_DS3505
ZBAA,1990-07-03 06:00,ZBAA 030600Z AUTO 16004KT 5SM 29/18 A2965 RMK SLP050 T02880185 4////0204 57012 IEM_DS3505
ZBAA,1990-07-03 07:00,ZBAA 030700Z AUTO ////04KT 6SM 34/21 A2962 RMK T03400210 IEM_DS3505
ZBAA,1990-07-03 08:00,ZBAA 030800Z AUTO ////06KT 6SM 33/20 A2962 RMK T03300200 IEM_DS3505
ZBAA,1990-07-03 09:00,ZBAA 030900Z AUTO 16008KT 6SM 29/18 A2959 RMK SLP037 T02940185 57013 IEM_DS3505
ZBAA,1990-07-03 10:00,ZBAA 031000Z AUTO ////06KT 7SM 31/20 A2959 RMK T03100200 IEM_DS3505
ZBAA,1990-07-03 11:00,ZBAA 031100Z AUTO ////04KT 6SM 29/20 A2959 RMK T02900200 IEM_DS3505
ZBAA,1990-07-03 12:00,ZBAA 031200Z AUTO ////04KT 6SM 28/19 A2962 RMK SLP042 T02780191 52005 IEM_DS3505
ZBAA,1990-07-03 13:00,ZBAA 031300Z AUTO 18004KT 6SM 27/20 A2965 RMK T02700200 IEM_DS3505
ZBAA,1990-07-03 14:00,ZBAA 031400Z AUTO 17002KT 6SM 27/20 A2965 RMK T02700200 IEM_DS3505
ZBAA,1990-07-03 15:00,ZBAA 031500Z AUTO 18006KT 12SM 25/20 RMK SLP055 T02540197 52013 IEM_DS3505
ZBAA,1990-07-03 18:00,ZBAA 031800Z AUTO 14002KT 9SM 24/20 RMK SLP052 T02420204 40303//// 57002 IEM_DS3505
ZBAA,1990-07-03 21:00,ZBAA 032100Z AUTO ////04KT 6SM 23/20 A2965 RMK T02300200 IEM_DS3505
ZBAA,1990-07-03 22:00,ZBAA 032200Z AUTO ////04KT 5SM 23/20 A2965 RMK T02300200 IEM_DS3505
ZBAA,1990-07-03 23:00,ZBAA 032300Z AUTO ////04KT 5SM 24/21 A2965 RMK T02400210 IEM_DS3505
ZBAA,1990-07-04 00:00,ZBAA 040000Z AUTO 02002KT 4SM 25/21 A2965 RMK SLP052 T02460213 57002 IEM_DS3505
ZBAA,1990-07-04 01:00,ZBAA 040100Z AUTO ////04KT 6SM 28/22 A2965 RMK T02800220 IEM_DS3505
ZBAA,1990-07-04 02:00,ZBAA 040200Z AUTO ////06KT 6SM 30/22 A2965 RMK T03000220 IEM_DS3505
ZBAA,1990-07-04 03:00,ZBAA 040300Z AUTO 04002KT 4SM 27/21 A2962 RMK SLP041 T02660211 57011 IEM_DS3505
ZBAA,1990-07-04 04:00,ZBAA 040400Z AUTO 13008KT 6SM 30/22 A2959 RMK T03000220 IEM_DS3505
ZBAA,1990-07-04 05:00,ZBAA 040500Z AUTO 13006KT 7SM 29/23 A2959 RMK T02900230 IEM_DS3505
ZBAA,1990-07-04 06:00,ZBAA 040600Z AUTO 00000KT 4SM 26/24 A2956 RMK 60181 SLP019 T02580238 4////0221 57022 IEM_DS3505
ZBAA,1990-07-04 07:00,ZBAA 040700Z AUTO ////02KT 6SM 29/25 A2953 RMK T02900250 IEM_DS3505
ZBAA,1990-07-04 08:00,ZBAA 040800Z AUTO 17010KT 6SM 31/22 A2950 RMK T03100220 IEM_DS3505
ZBAA,1990-07-04 09:00,ZBAA 040900Z AUTO 16012G19KT 6SM 30/19 A2947 RMK SLP992 T02970194 57026 IEM_DS3505
ZBAA,1990-07-04 10:00,ZBAA 041000Z AUTO 18008KT 7SM 30/19 A2947 RMK T03000190 IEM_DS3505
ZBAA,1990-07-04 11:00,ZBAA 041100Z AUTO 20002KT 7SM A2950 RMK 60059 SLP009 52016 IEM_DS3505
ZBAA,1990-07-04 12:00,ZBAA 041200Z AUTO 20002KT 7SM 22/20 RMK 60059 SLP009 T02150200 52016 IEM_DS3505
ZBAA,1990-07-04 13:00,ZBAA 041300Z AUTO 00000KT 7SM RMK IEM_DS3505
ZBAA,1990-07-04 14:00,ZBAA 041400Z AUTO 00000KT 5SM 22/21 A2956 RMK T02200210 IEM_DS3505
ZBAA,1990-07-04 15:00,ZBAA 041500Z AUTO 34002KT 9SM 21/20 A2956 RMK SLP022 T02080200 52013 IEM_DS3505
ZBAA,1990-07-04 18:00,ZBAA 041800Z AUTO 02002KT 9SM 21/20 RMK SLP019 T02080197 40297//// 57003 IEM_DS3505
ZBAA,1990-07-04 20:00,ZBAA 042000Z AUTO 33002KT 4SM RMK IEM_DS3505
ZBAA,1990-07-04 21:00,ZBAA 042100Z AUTO 02004KT 6SM 21/20 A2956 RMK SLP022 T02090197 52003 IEM_DS3505
ZBAA,1990-07-04 23:00,ZBAA 042300Z AUTO ////04KT 7SM 23/20 A2959 RMK T02300200 IEM_DS3505
ZBAA,1990-07-05 00:00,ZBAA 050000Z AUTO 36004KT 5SM 23/20 A2959 RMK 70240 SLP032 T02280202 52010 IEM_DS3505
ZBAA,1990-07-05 01:00,ZBAA 050100Z AUTO 00000KT 7SM 27/22 A2959 RMK T02700220 IEM_DS3505
ZBAA,1990-07-05 02:00,ZBAA 050200Z AUTO ////02KT 7SM 29/23 A2959 RMK T02900230 IEM_DS3505
ZBAA,1990-07-05 03:00,ZBAA 050300Z AUTO 07004KT 4SM 27/22 A2956 RMK SLP028 T02700217 57004 IEM_DS3505
ZBAA,1990-07-05 04:00,ZBAA 050400Z AUTO ////04KT 5SM 31/23 A2956 RMK T03100230 IEM_DS3505
ZBAA,1990-07-05 05:00,ZBAA 050500Z AUTO ////04KT 6SM 32/24 A2956 RMK T03200240 IEM_DS3505
ZBAA,1990-07-05 06:00,ZBAA 050600Z AUTO 16004KT 3SM 30/23 A2953 RMK SLP021 T02950227 57007 IEM_DS3505
ZBAA,1990-07-05 07:00,ZBAA 050700Z AUTO ////04KT 6SM 35/24 A2953 RMK T03500240 IEM_DS3505
ZBAA,1990-07-05 08:00,ZBAA 050800Z AUTO ////04KT 6SM 35/26 A2953 RMK T03500260 IEM_DS3505
ZBAA,1990-07-05 09:00,ZBAA 050900Z AUTO 20006KT 5SM 31/23 A2950 RMK SLP007 T03100231 57013 IEM_DS3505
ZBAA,1990-07-05 10:00,ZBAA 051000Z AUTO 16002KT 6SM 33/24 A2950 RMK T03300240 IEM_DS3505
ZBAA,1990-07-05 11:00,ZBAA 051100Z AUTO ////04KT 6SM 31/24 A2950 RMK T03100240 IEM_DS3505
ZBAA,1990-07-05 12:00,ZBAA 051200Z AUTO 18002KT 5SM 29/24 A2953 RMK SLP010 T02890238 52003 IEM_DS3505
ZBAA,1990-07-05 13:00,ZBAA 051300Z AUTO ////04KT 4SM 29/24 A2953 RMK T02900240 IEM_DS3505
ZBAA,1990-07-05 15:00,ZBAA 051500Z AUTO 00000KT 3SM 26/24 RMK SLP024 T02630240 52014 IEM_DS3505
ZBAA,1990-07-05 18:00,ZBAA 051800Z AUTO 07002KT 2 1/2SM 25/23 RMK SLP027 T02530227 52003 IEM_DS3505
ZBAA,1990-07-05 20:00,ZBAA 052000Z AUTO ////02KT 6SM 25/21 A2956 RMK T02500210 IEM_DS3505
ZBAA,1990-07-05 21:00,ZBAA 052100Z AUTO 04002KT 2SM 24/22 RMK SLP025 T02430216 57002 IEM_DS3505
ZBAA,1990-07-05 22:00,ZBAA 052200Z AUTO ////02KT 1 1/2SM 25/22 A2956 RMK T02500220 IEM_DS3505
ZBAA,1990-07-05 23:00,ZBAA 052300Z AUTO ////02KT 2SM 26/22 A2959 RMK T02600220 IEM_DS3505
ZBAA,1990-07-06 00:00,ZBAA 060000Z AUTO 36004KT 1 1/4SM 25/23 A2956 RMK SLP024 T02470226 57001 IEM_DS3505
ZBAA,1990-07-06 01:00,ZBAA 060100Z AUTO 11008KT 4SM 22/20 A2956 RMK SLP997 T02210204 57002 IEM_DS3505
ZBAA,1990-07-06 02:00,ZBAA 060200Z AUTO 00000KT 2 1/2SM 28/23 A2956 RMK T02800230 IEM_DS3505
ZBAA,1990-07-06 03:00,ZBAA 060300Z AUTO 02004KT 1 1/4SM 26/23 A2953 RMK SLP020 T02610230 57004 IEM_DS3505
ZBAA,1990-07-06 04:00,ZBAA 060400Z AUTO 07002KT 2 1/2SM 30/24 A2953 RMK T03000240 IEM_DS3505
ZBAA,1990-07-06 05:00,ZBAA 060500Z AUTO ////02KT 2 1/2SM 31/24 A2950 RMK T03100240 IEM_DS3505
ZBAA,1990-07-06 06:00,ZBAA 060600Z AUTO 36006KT 1 1/4SM 28/24 A2947 RMK SLP998 T02820241 4////0239 57022 IEM_DS3505
ZBAA,1990-07-06 08:00,ZBAA 060800Z AUTO ////02KT 3SM 30/25 A2947 RMK T03000250 IEM_DS3505
ZBAA,1990-07-06 09:00,ZBAA 060900Z AUTO 11008G23KT 4SM 22/20 A2950 RMK SLP997 T02210204 57002 IEM_DS3505
ZBAA,1990-07-06 10:00,ZBAA 061000Z AUTO 00000KT 4SM 23/22 A2944 RMK T02300220 IEM_DS3505
ZBAA,1990-07-06 11:00,ZBAA 061100Z AUTO ////02KT 5SM 23/22 A2947 RMK T02300220 IEM_DS3505
ZBAA,1990-07-06 12:00,ZBAA 061200Z AUTO 36004KT 5SM 23/20 RMK 60008 SLP995 T02280204 57002 IEM_DS3505
ZBAA,1990-07-06 13:00,ZBAA 061300Z AUTO ////06KT 4SM 22/20 A2947 RMK T02200200 IEM_DS3505
ZBAA,1990-07-06 15:00,ZBAA 061500Z AUTO 36006KT 5SM 22/20 A2941 RMK SLP982 T02160204 57013 IEM_DS3505
ZBAA,1990-07-06 16:00,ZBAA 061600Z AUTO ////06G23KT 5SM 21/19 A2938 RMK T02100190 IEM_DS3505
ZBAA,1990-07-06 18:00,ZBAA 061800Z AUTO 32006KT 4SM 20/19 RMK 60031 SLP937 T02010192 40286//// 57044 IEM_DS3505
ZBAA,1990-07-06 21:00,ZBAA 062100Z AUTO 34010KT 5SM 19/18 A2923 RMK 70106 SLP915 T01920184 57023 IEM_DS3505
ZBAA,1990-07-06 22:00,ZBAA 062200Z AUTO ////04KT 5SM 20/19 A2923 RMK T02000190 IEM_DS3505
ZBAA,1990-07-06 23:00,ZBAA 062300Z AUTO 33008KT 4SM 20/19 A2921 RMK T02000190 IEM_DS3505
ZBAA,1990-07-07 00:00,ZBAA 070000Z AUTO 36006KT 5SM 20/18 A2918 RMK 60126 70165 SLP893 T01950184 57022 IEM_DS3505
ZBAA,1990-07-07 01:00,ZBAA 070100Z AUTO 32008KT 4SM 20/19 A2915 RMK T02000190 IEM_DS3505
ZBAA,1990-07-07 02:00,ZBAA 070200Z AUTO 32008KT 4SM 20/19 A2915 RMK T02000190 IEM_DS3505
ZBAA,1990-07-07 03:00,ZBAA 070300Z AUTO 36006KT 12SM 20/19 A2915 RMK SLP879 T02020186 57014 IEM_DS3505
ZBAA,1990-07-07 04:00,ZBAA 070400Z AUTO 33008KT 5SM 21/ A2912 RMK IEM_DS3505
ZBAA,1990-07-07 05:00,ZBAA 070500Z AUTO 33008KT 6SM 25/23 A2912 RMK T02500230 IEM_DS3505
ZBAA,1990-07-07 06:00,ZBAA 070600Z AUTO 32006KT 19SM 28/17 A2912 RMK 60043 SLP871 T02770172 4////0187 57007 IEM_DS3505
ZBAA,1990-07-07 07:00,ZBAA 070700Z AUTO ////02KT 6SM 27/20 A2909 RMK T02700200 IEM_DS3505
ZBAA,1990-07-07 08:00,ZBAA 070800Z AUTO ////06KT 6SM 27/17 A2909 RMK T02700170 IEM_DS3505
ZBAA,1990-07-07 09:00,ZBAA 070900Z AUTO 29004KT 19SM 29/15 A2912 RMK SLP870 T02880151 57001 IEM_DS3505
ZBAA,1990-07-07 10:00,ZBAA 071000Z AUTO ////06KT 6SM 30/16 A2912 RMK T03000160 IEM_DS3505
ZBAA,1990-07-07 11:00,ZBAA 071100Z AUTO ////04KT 6SM 29/16 A2912 RMK T02900160 IEM_DS3505
ZBAA,1990-07-07 12:00,ZBAA 071200Z AUTO 25006KT 12SM 27/16 A2915 RMK SLP888 T02740157 52018 IEM_DS3505
ZBAA,1990-07-07 13:00,ZBAA 071300Z AUTO 21004KT 6SM 24/18 A2918 RMK T02400180 IEM_DS3505
ZBAA,1990-07-07 14:00,ZBAA 071400Z AUTO 23002KT 6SM 24/17 A2921 RMK T02400170 IEM_DS3505
ZBAA,1990-07-07 15:00,ZBAA 071500Z AUTO 25004KT 19SM 26/14 A2918 RMK SLP897 T02600145 52009 IEM_DS3505
ZBAA,1990-07-07 18:00,ZBAA 071800Z AUTO 00000KT 19SM 22/16 RMK SLP889 T02190157 40299//// 57008 IEM_DS3505
ZBAA,1990-07-07 20:00,ZBAA 072000Z AUTO 00000KT 6SM 21/16 A2918 RMK T02100160 IEM_DS3505
ZBAA,1990-07-07 21:00,ZBAA 072100Z AUTO 00000KT 16SM 20/17 A2918 RMK 70102 SLP894 T02050169 52005 IEM_DS3505
ZBAA,1990-07-07 22:00,ZBAA 072200Z AUTO ////04KT 6SM 24/15 A2921 RMK T02400150 IEM_DS3505
ZBAA,1990-07-07 23:00,ZBAA 072300Z AUTO ////06KT 6SM 28/14 A2921 RMK T02800140 IEM_DS3505
ZBAA,1990-07-08 00:00,ZBAA 080000Z AUTO 25004KT 19SM 28/15 A2923 RMK 70043 SLP903 T02810148 52010 IEM_DS3505
ZBAA,1990-07-08 01:00,ZBAA 080100Z AUTO ////04KT 6SM 33/18 A2923 RMK T03300180 IEM_DS3505
ZBAA,1990-07-08 02:00,ZBAA 080200Z AUTO ////04KT 6SM 33/18 A2923 RMK T03300180 IEM_DS3505
ZBAA,1990-07-08 03:00,ZBAA 080300Z AUTO 20006KT 12SM 31/17 A2923 RMK SLP907 T03080166 52004 IEM_DS3505
ZBAA,1990-07-08 05:00,ZBAA 080500Z AUTO ////02KT 6SM 34/20 A2923 RMK T03400200 IEM_DS3505
ZBAA,1990-07-08 06:00,ZBAA 080600Z AUTO 20010KT 16SM 33/16 A2921 RMK SLP905 T03280160 4////0196 57002 IEM_DS3505
ZBAA,1990-07-08 07:00,ZBAA 080700Z AUTO 33008KT 6SM 32/19 A2926 RMK T03200190 IEM_DS3505
ZBAA,1990-07-08 08:00,ZBAA 080800Z AUTO ////06KT 6SM 31/20 A2926 RMK T03100200 IEM_DS3505
ZBAA,1990-07-08 09:00,ZBAA 080900Z AUTO 34006KT 19SM 29/19 A2926 RMK SLP922 T02930190 52016 IEM_DS3505
ZBAA,1990-07-08 10:00,ZBAA 081000Z AUTO ////06KT 6SM 29/19 A2929 RMK T02900190 IEM_DS3505
ZBAA,1990-07-08 11:00,ZBAA 081100Z AUTO ////04KT 6SM 29/19 A2926 RMK T02900190 IEM_DS3505
ZBAA,1990-07-08 12:00,ZBAA 081200Z AUTO 00000KT 12SM 27/21 A2929 RMK SLP933 T02690214 52011 IEM_DS3505
ZBAA,1990-07-08 13:00,ZBAA 081300Z AUTO 00000KT 6SM 26/19 A2932 RMK T02600190 IEM_DS3505
ZBAA,1990-07-08 14:00,ZBAA 081400Z AUTO 00000KT 6SM 26/19 A2935 RMK T02600190 IEM_DS3505
ZBAA,1990-07-08 15:00,ZBAA 081500Z AUTO 00000KT 9SM 25/21 RMK SLP953 T02530208 52020 IEM_DS3505
ZBAA,1990-07-08 18:00,ZBAA 081800Z AUTO 00000KT 19SM 24/19 RMK SLP952 T02400194 40334//// 54000 IEM_DS3505
ZBAA,1990-07-08 20:00,ZBAA 082000Z AUTO 00000KT 7SM 23/20 A2938 RMK T02300200 IEM_DS3505
ZBAA,1990-07-08 21:00,ZBAA 082100Z AUTO 36002KT 19SM 23/18 A2941 RMK SLP964 T02320177 52011 IEM_DS3505
ZBAA,1990-07-08 22:00,ZBAA 082200Z AUTO ////04KT 7SM 23/18 A2941 RMK T02300180 IEM_DS3505
ZBAA,1990-07-08 23:00,ZBAA 082300Z AUTO ////02KT 6SM 28/19 A2941 RMK T02800190 IEM_DS3505
ZBAA,1990-07-09 00:00,ZBAA 090000Z AUTO 36006KT 19SM 28/16 A2944 RMK SLP980 T02750158 52016 IEM_DS3505
ZBAA,1990-07-09 01:00,ZBAA 090100Z AUTO ////02KT 6SM 33/19 A2947 RMK T03300190 IEM_DS3505
ZBAA,1990-07-09 02:00,ZBAA 090200Z AUTO ////04KT 6SM 33/18 A2947 RMK T03300180 IEM_DS3505
ZBAA,1990-07-09 03:00,ZBAA 090300Z AUTO 20004KT 9SM 30/18 A2950 RMK SLP997 T03050179 52017 IEM_DS3505
ZBAA,1990-07-09 04:00,ZBAA 090400Z AUTO ////02KT 6SM 35/18 A2947 RMK T03500180 IEM_DS3505
ZBAA,1990-07-09 05:00,ZBAA 090500Z AUTO ////02KT 6SM 35/20 A2947 RMK T03500200 IEM_DS3505
ZBAA,1990-07-09 06:00,ZBAA 090600Z AUTO 20002KT 9SM 32/19 A2944 RMK SLP987 T03210186 4////0222 57010 IEM_DS3505
ZBAA,1990-07-09 07:00,ZBAA 090700Z AUTO ////02KT 7SM 37/21 A2944 RMK T03700210 IEM_DS3505
ZBAA,1990-07-09 08:00,ZBAA 090800Z AUTO ////04KT 7SM 36/22 A2944 RMK T03600220 IEM_DS3505
ZBAA,1990-07-09 09:00,ZBAA 090900Z AUTO 20006KT 9SM 32/19 A2944 RMK SLP982 T03200192 57005 IEM_DS3505
ZBAA,1990-07-09 10:00,ZBAA 091000Z AUTO ////02KT 6SM 32/20 A2944 RMK T03200200 IEM_DS3505
ZBAA,1990-07-09 11:00,ZBAA 091100Z AUTO ////02KT 6SM 31/21 A2944 RMK T03100210 IEM_DS3505
ZBAA,1990-07-09 12:00,ZBAA 091200Z AUTO 02002KT 7SM 30/22 A2950 RMK SLP995 T02950216 52013 IEM_DS3505
ZBAA,1990-07-09 13:00,ZBAA 091300Z AUTO ////04KT 6SM 28/16 A2950 RMK T02800160 IEM_DS3505
ZBAA,1990-07-09 14:00,ZBAA 091400Z AUTO 34008KT 6SM 27/16 A2953 RMK T02700160 IEM_DS3505
ZBAA,1990-07-09 15:00,ZBAA 091500Z AUTO 02006KT 12SM 25/16 A2950 RMK SLP007 T02530161 52012 IEM_DS3505
ZBAA,1990-07-09 18:00,ZBAA 091800Z AUTO 02002KT 12SM 23/18 RMK SLP010 T02330176 40327//// 52003 IEM_DS3505
ZBAA,1990-07-09 20:00,ZBAA 092000Z AUTO ////02KT 6SM 23/17 A2953 RMK T02300170 IEM_DS3505
ZBAA,1990-07-09 21:00,ZBAA 092100Z AUTO 02004KT 16SM 23/18 A2953 RMK SLP014 T02320178 52004 IEM_DS3505
ZBAA,1990-07-09 22:00,ZBAA 092200Z AUTO ////02KT 6SM 23/18 A2953 RMK T02300180 IEM_DS3505
ZBAA,1990-07-09 23:00,ZBAA 092300Z AUTO ////02KT 6SM 24/19 A2953 RMK T02400190 IEM_DS3505
ZBAA,1990-07-10 00:00,ZBAA 100000Z AUTO 02006KT 12SM 25/18 A2956 RMK SLP018 T02510182 52004 IEM_DS3505
ZBAA,1990-07-10 01:00,ZBAA 100100Z AUTO ////02KT 6SM 30/22 A2956 RMK T03000220 IEM_DS3505
ZBAA,1990-07-10 02:00,ZBAA 100200Z AUTO ////04KT 7SM 29/22 A2956 RMK T02900220 IEM_DS3505
ZBAA,1990-07-10 03:00,ZBAA 100300Z AUTO 22002KT 1 1/2SM 28/22 A2956 RMK SLP024 T02840218 52006 IEM_DS3505
ZBAA,1990-07-10 04:00,ZBAA 100400Z AUTO ////04KT 7SM 29/22 A2956 RMK T02900220 IEM_DS3505
ZBAA,1990-07-10 05:00,ZBAA 100500Z AUTO ////04KT 7SM 29/23 A2956 RMK T02900230 IEM_DS3505
ZBAA,1990-07-10 06:00,ZBAA 100600Z AUTO 22006KT 2SM 29/22 A2953 RMK SLP013 T02920220 4////0224 57011 IEM_DS3505
ZBAA,1990-07-10 07:00,ZBAA 100700Z AUTO ////04KT 7SM 31/23 A2953 RMK T03100230 IEM_DS3505
ZBAA,1990-07-10 07:01,ZBAA 100701Z AUTO ////04KT 7SM 31/23 A2953 RMK T03100230 IEM_DS3505
ZBAA,1990-07-10 09:00,ZBAA 100900Z AUTO 02006KT 2 1/2SM 28/23 A2953 RMK SLP009 T02820228 57004 IEM_DS3505
ZBAA,1990-07-10 10:00,ZBAA 101000Z AUTO ////04KT 6SM 29/23 A2953 RMK T02900230 IEM_DS3505
ZBAA,1990-07-10 11:00,ZBAA 101100Z AUTO ////02KT 6SM 28/23 A2953 RMK T02800230 IEM_DS3505
ZBAA,1990-07-10 12:00,ZBAA 101200Z AUTO 07006KT 2SM 27/23 A2956 RMK SLP017 T02730231 52008 IEM_DS3505
ZBAA,1990-07-10 13:00,ZBAA 101300Z AUTO ////04KT 7SM 27/ A2956 RMK IEM_DS3505
ZBAA,1990-07-10 14:00,ZBAA 101400Z AUTO ////04KT 7SM 26/21 A2959 RMK T02600210 IEM_DS3505
ZBAA,1990-07-10 15:00,ZBAA 101500Z AUTO 07002KT 2 1/2SM 26/23 A2959 RMK SLP024 T02560227 52007 IEM_DS3505
ZBAA,1990-07-10 18:00,ZBAA 101800Z AUTO 02002KT 2 1/2SM 24/22 RMK SLP020 T02450224 40304//// 57004 IEM_DS3505
ZBAA,1990-07-10 20:00,ZBAA 102000Z AUTO 00000KT 6SM 24/22 A2956 RMK T02400220 IEM_DS3505
ZBAA,1990-07-10 21:00,ZBAA 102100Z AUTO 07002KT 2 1/2SM 24/22 RMK SLP017 T02350223 57003 IEM_DS3505
ZBAA,1990-07-10 22:30,ZBAA 102230Z AUTO 00000KT 6SM 24/22 RMK T02400220 IEM_DS3505
ZBAA,1990-07-10 23:00,ZBAA 102300Z AUTO 12002KT 7SM 25/22 A2953 RMK T02500220 IEM_DS3505
ZBAA,1990-07-11 00:00,ZBAA 110000Z AUTO 04002KT 2 1/2SM 25/23 A2956 RMK SLP020 T02470231 52003 IEM_DS3505
ZBAA,1990-07-11 01:00,ZBAA 110100Z AUTO ////04KT 3SM 27/23 A2959 RMK T02700230 IEM_DS3505
ZBAA,1990-07-11 02:00,ZBAA 110200Z AUTO ////02KT 4SM 31/24 A2956 RMK T03100240 IEM_DS3505
ZBAA,1990-07-11 03:00,ZBAA 110300Z AUTO 00000KT 3SM 28/23 A2953 RMK SLP014 T02830229 57006 IEM_DS3505
ZBAA,1990-07-11 04:00,ZBAA 110400Z AUTO ////02KT 5SM 33/23 A2953 RMK T03300230 IEM_DS3505
ZBAA,1990-07-11 05:00,ZBAA 110500Z AUTO ////06KT 7SM 33/23 A2953 RMK T03300230 IEM_DS3505
ZBAA,1990-07-11 06:00,ZBAA 110600Z AUTO 16006KT 3SM 30/22 A2950 RMK SLP001 T02990224 4////0232 57013 IEM_DS3505
ZBAA,1990-07-11 07:00,ZBAA 110700Z AUTO ////04KT 7SM 33/23 A2947 RMK T03300230 IEM_DS3505
ZBAA,1990-07-11 08:00,ZBAA 110800Z AUTO ////02KT 7SM 33/23 A2947 RMK T03300230 IEM_DS3505
ZBAA,1990-07-11 09:00,ZBAA 110900Z AUTO 16004KT 5SM 31/23 A2944 RMK SLP990 T03070233 57011 IEM_DS3505
ZBAA,1990-07-11 10:00,ZBAA 111000Z AUTO 17002KT 6SM 32/22 A2947 RMK T03200220 IEM_DS3505
ZBAA,1990-07-11 11:00,ZBAA 111100Z AUTO 00000KT 6SM 30/22 A2947 RMK T03000220 IEM_DS3505
ZBAA,1990-07-11 12:00,ZBAA 111200Z AUTO 00000KT 3SM 28/23 A2947 RMK SLP001 T02830234 52011 IEM_DS3505
ZBAA,1990-07-11 13:00,ZBAA 111300Z AUTO 00000KT 4SM 28/22 A2950 RMK T02800220 IEM_DS3505
ZBAA,1990-07-11 14:00,ZBAA 111400Z AUTO 00000KT 4SM 27/22 A2953 RMK T02700220 IEM_DS3505
ZBAA,1990-07-11 15:00,ZBAA 111500Z AUTO 29002KT 1 1/4SM 27/24 A2953 RMK SLP010 T02660242 52009 IEM_DS3505
ZBAA,1990-07-11 18:00,ZBAA 111800Z AUTO 00000KT 2SM 26/23 RMK SLP009 T02560233 40309//// 57001 IEM_DS3505
ZBAA,1990-07-11 20:00,ZBAA 112000Z AUTO 00000KT 3SM 25/23 A2950 RMK T02500230 IEM_DS3505
ZBAA,1990-07-11 21:00,ZBAA 112100Z AUTO 36004KT 1 1/4SM 25/23 A2950 RMK SLP006 T02490233 57003 IEM_DS3505
ZBAA,1990-07-11 22:00,ZBAA 112200Z AUTO 00000KT 2 1/2SM 25/23 A2950 RMK T02500230 IEM_DS3505
ZBAA,1990-07-11 23:00,ZBAA 112300Z AUTO 00000KT 2 1/2SM 26/23 A2950 RMK T02600230 IEM_DS3505
ZBAA,1990-07-12 00:00,ZBAA 120000Z AUTO 04004KT 2SM 26/24 A2953 RMK SLP010 T02580238 52004 IEM_DS3505
ZBAA,1990-07-12 03:00,ZBAA 120300Z AUTO 11002KT 1 1/4SM 29/25 RMK SLP004 T02920248 57006 IEM_DS3505
ZBAA,1990-07-12 05:00,ZBAA 120500Z AUTO ////04KT 5SM 35/26 A2947 RMK T03500260 IEM_DS3505
ZBAA,1990-07-12 06:00,ZBAA 120600Z AUTO 16004KT 2SM 32/25 A2947 RMK SLP994 T03190246 4////0244 57010 IEM_DS3505
ZBAA,1990-07-12 07:00,ZBAA 120700Z AUTO ////04KT 6SM 36/25 A2944 RMK T03600250 IEM_DS3505
ZBAA,1990-07-12 08:00,ZBAA 120800Z AUTO 18002KT 6SM 36/25 A2944 RMK T03600250 IEM_DS3505
ZBAA,1990-07-12 09:00,ZBAA 120900Z AUTO 20006KT 3SM 32/24 A2941 RMK SLP980 T03220235 57014 IEM_DS3505
ZBAA,1990-07-12 10:00,ZBAA 121000Z AUTO ////04KT 4SM 33/25 A2941 RMK T03300250 IEM_DS3505
ZBAA,1990-07-12 11:00,ZBAA 121100Z AUTO 16002KT 2SM 32/25 A2941 RMK T03200250 IEM_DS3505
ZBAA,1990-07-12 12:00,ZBAA 121200Z AUTO 16004KT 4SM 31/25 A2944 RMK SLP978 T03100250 57002 IEM_DS3505
ZBAA,1990-07-12 14:00,ZBAA 121400Z AUTO 14002KT 2SM 30/25 A2944 RMK T03000250 IEM_DS3505
ZBAA,1990-07-12 15:00,ZBAA 121500Z AUTO 18002KT 4SM 29/24 RMK SLP980 T02910240 52002 IEM_DS3505
ZBAA,1990-07-12 18:00,ZBAA 121800Z AUTO 18006KT 4SM 28/24 RMK SLP971 T02850241 40332//// 57008 IEM_DS3505
ZBAA,1990-07-12 20:00,ZBAA 122000Z AUTO 14002KT 3SM 28/25 A2938 RMK T02800250 IEM_DS3505
ZBAA,1990-07-12 21:00,ZBAA 122100Z AUTO 18004KT 3SM 28/25 A2938 RMK SLP962 T02760248 57009 IEM_DS3505
ZBAA,1990-07-12 23:00,ZBAA 122300Z AUTO ////02KT 1 1/2SM 27/25 A2938 RMK T02700250 IEM_DS3505
ZBAA,1990-07-13 00:00,ZBAA 130000Z AUTO 00000KT 4SM 25/23 A2938 RMK 60028 70028 SLP962 T02480226 57001 IEM_DS3505
ZBAA,1990-07-13 01:00,ZBAA 130100Z AUTO 07002KT 3SM 25/24 A2938 RMK T02500240 IEM_DS3505
ZBAA,1990-07-13 02:00,ZBAA 130200Z AUTO ////02KT 3SM 25/24 A2938 RMK T02500240 IEM_DS3505
ZBAA,1990-07-13 03:00,ZBAA 130300Z AUTO 02004KT 4SM 26/24 A2938 RMK SLP957 T02640237 57005 IEM_DS3505
ZBAA,1990-07-13 04:00,ZBAA 130400Z AUTO ////04KT 5SM 28/24 A2935 RMK T02800240 IEM_DS3505
ZBAA,1990-07-13 05:00,ZBAA 130500Z AUTO ////04KT 7SM 29/23 A2935 RMK T02900230 IEM_DS3505
ZBAA,1990-07-13 06:00,ZBAA 130600Z AUTO 02004KT 5SM 28/24 A2935 RMK 60004 SLP948 T02760242 4////0244 57009 IEM_DS3505
ZBAA,1990-07-13 07:00,ZBAA 130700Z AUTO ////04KT 7SM 29/24 A2932 RMK T02900240 IEM_DS3505
ZBAA,1990-07-13 08:00,ZBAA 130800Z AUTO 00000KT 7SM 29/24 A2932 RMK T02900240 IEM_DS3505
ZBAA,1990-07-13 09:00,ZBAA 130900Z AUTO 07004KT 5SM 28/24 A2932 RMK SLP940 T02770241 57008 IEM_DS3505
ZBAA,1990-07-13 10:00,ZBAA 131000Z AUTO ////04KT 6SM 28/23 A2932 RMK T02800230 IEM_DS3505
ZBAA,1990-07-13 11:00,ZBAA 131100Z AUTO ////04KT 6SM 28/23 A2932 RMK T02800230 IEM_DS3505
ZBAA,1990-07-13 12:00,ZBAA 131200Z AUTO 09004KT 5SM 27/24 A2935 RMK SLP950 T02660237 52010 IEM_DS3505
ZBAA,1990-07-13 13:00,ZBAA 131300Z AUTO ////04KT 7SM 26/23 A2938 RMK T02600230 IEM_DS3505
ZBAA,1990-07-13 14:00,ZBAA 131400Z AUTO ////04KT 7SM 26/23 A2941 RMK T02600230 IEM_DS3505
ZBAA,1990-07-13 15:00,ZBAA 131500Z AUTO 00000KT 5SM 25/24 A2938 RMK SLP965 T02530240 52015 IEM_DS3505
ZBAA,1990-07-13 16:00,ZBAA 131600Z AUTO 00000KT 7SM 26/24 A2938 RMK T02600240 IEM_DS3505
ZBAA,1990-07-13 18:00,ZBAA 131800Z AUTO 09002KT 6SM 25/24 RMK 60020 SLP960 T02490239 40286//// 57005 IEM_DS3505
ZBAA,1990-07-13 21:00,ZBAA 132100Z AUTO 00000KT 4SM 24/23 RMK SLP960 T02390232 54000 IEM_DS3505
ZBAA,1990-07-13 22:00,ZBAA 132200Z AUTO 13002KT 2SM 25/23 A2938 RMK T02500230 IEM_DS3505
ZBAA,1990-07-13 23:00,ZBAA 132300Z AUTO 13006KT 2SM 25/23 A2938 RMK T02500230 IEM_DS3505
ZBAA,1990-07-14 00:00,ZBAA 140000Z AUTO 00000KT 1 1/4SM 25/24 A2941 RMK SLP971 T02490237 52011 IEM_DS3505
ZBAA,1990-07-14 01:00,ZBAA 140100Z AUTO ////02KT 4SM 28/24 A2941 RMK T02800240 IEM_DS3505
ZBAA,1990-07-14 02:00,ZBAA 140200Z AUTO ////02KT 4SM 28/24 RMK T02800240 IEM_DS3505
ZBAA,1990-07-14 03:00,ZBAA 140300Z AUTO 20004KT 2 1/2SM 27/24 A2941 RMK SLP971 T02680239 54000 IEM_DS3505
ZBAA,1990-07-14 04:00,ZBAA 140400Z AUTO ////04KT 5SM 30/24 A2941 RMK T03000240 IEM_DS3505
ZBAA,1990-07-14 05:00,ZBAA 140500Z AUTO ////04KT 5SM 30/24 A2941 RMK T03000240 IEM_DS3505
ZBAA,1990-07-14 06:00,ZBAA 140600Z AUTO 20004KT 3SM 29/24 A2938 RMK SLP968 T02880243 4////0236 57003 IEM_DS3505
ZBAA,1990-07-14 07:00,ZBAA 140700Z AUTO ////06KT 5SM 32/25 A2938 RMK T03200250 IEM_DS3505
ZBAA,1990-07-14 08:00,ZBAA 140800Z AUTO ////04KT 5SM 32/25 A2938 RMK T03200250 IEM_DS3505
ZBAA,1990-07-14 09:00,ZBAA 140900Z AUTO 29004KT 4SM 29/25 A2938 RMK SLP971 T02920247 52003 IEM_DS3505
ZBAA,1990-07-14 10:00,ZBAA 141000Z AUTO ////04KT 7SM 23/22 A2941 RMK T02300220 IEM_DS3505
ZBAA,1990-07-14 11:00,ZBAA 141100Z AUTO ////06KT 7SM 23/21 A2938 RMK T02300210 IEM_DS3505
ZBAA,1990-07-14 12:00,ZBAA 141200Z AUTO 18008KT 12SM 23/20 A2944 RMK 60020 SLP976 T02270199 52004 IEM_DS3505
ZBAA,1990-07-14 14:00,ZBAA 141400Z AUTO ////02KT 6SM 22/21 A2944 RMK T02200210 IEM_DS3505
ZBAA,1990-07-14 15:00,ZBAA 141500Z AUTO 04002KT 11SM 22/21 A2947 RMK SLP992 T02240206 52016 IEM_DS3505
ZBAA,1990-07-14 18:00,ZBAA 141800Z AUTO 36004KT 4SM 22/21 RMK SLP990 T02190208 40296//// 57001 IEM_DS3505
ZBAA,1990-07-14 20:00,ZBAA 142000Z AUTO 34002KT 4SM 22/20 A2947 RMK T02200200 IEM_DS3505
ZBAA,1990-07-14 21:00,ZBAA 142100Z AUTO 04002KT 3SM 22/20 A2947 RMK 70020 SLP993 T02170205 52003 IEM_DS3505
ZBAA,1990-07-14 22:00,ZBAA 142200Z AUTO 00000KT 5SM 23/20 A2947 RMK T02300200 IEM_DS3505
ZBAA,1990-07-15 00:00,ZBAA 150000Z AUTO 00000KT 3SM 23/21 A2947 RMK 60000 70020 SLP996 T02290208 52002 IEM_DS3505
ZBAA,1990-07-15 01:00,ZBAA 150100Z AUTO 31002KT 7SM 25/21 A2947 RMK T02500210 IEM_DS3505
ZBAA,1990-07-15 03:00,ZBAA 150300Z AUTO 29004KT 2 1/2SM 24/22 RMK SLP980 T02440219 57016 IEM_DS3505
ZBAA,1990-07-15 04:00,ZBAA 150400Z AUTO ////02KT 4SM 27/23 A2941 RMK T02700230 IEM_DS3505
ZBAA,1990-07-15 05:00,ZBAA 150500Z AUTO ////02KT 4SM 28/23 A2941 RMK T02800230 IEM_DS3505
ZBAA,1990-07-15 06:00,ZBAA 150600Z AUTO 22004KT 2 1/2SM 26/23 A2941 RMK 60004 SLP974 T02620229 4////0215 57006 IEM_DS3505
ZBAA,1990-07-15 07:00,ZBAA 150700Z AUTO ////02KT 7SM 30/24 A2938 RMK T03000240 IEM_DS3505
ZBAA,1990-07-15 08:00,ZBAA 150800Z AUTO 33010KT 7SM 28/23 A2944 RMK T02800230 IEM_DS3505
ZBAA,1990-07-15 09:00,ZBAA 150900Z AUTO 20012KT 3SM 22/18 A2938 RMK SLP957 T02180182 57017 IEM_DS3505
ZBAA,1990-07-15 10:00,ZBAA 151000Z AUTO 00000KT 7SM 23/22 A2941 RMK T02300220 IEM_DS3505
ZBAA,1990-07-15 11:00,ZBAA 151100Z AUTO ////02KT 7SM 23/22 A2941 RMK T02300220 IEM_DS3505
ZBAA,1990-07-15 12:00,ZBAA 151200Z AUTO 02004KT 9SM 21/18 A2938 RMK 60004 SLP971 T02140184 52014 IEM_DS3505
ZBAA,1990-07-15 13:00,ZBAA 151300Z AUTO ////02KT 7SM 22/19 A2938 RMK T02200190 IEM_DS3505
ZBAA,1990-07-15 14:00,ZBAA 151400Z AUTO 32002KT 7SM 22/19 A2941 RMK T02200190 IEM_DS3505
ZBAA,1990-07-15 15:00,ZBAA 151500Z AUTO 00000KT 6SM 22/20 A2944 RMK SLP981 T02160197 52010 IEM_DS3505
ZBAA,1990-07-15 18:00,ZBAA 151800Z AUTO 00000KT 6SM 20/19 RMK SLP983 T02050193 40268//// 52002 IEM_DS3505
ZBAA,1990-07-15 20:00,ZBAA 152000Z AUTO 00000KT 7SM 20/18 A2944 RMK T02000180 IEM_DS3505
ZBAA,1990-07-15 21:00,ZBAA 152100Z AUTO 04002KT 5SM 20/19 A2941 RMK 70008 SLP978 T02000189 57005 IEM_DS3505
ZBAA,1990-07-15 22:00,ZBAA 152200Z AUTO 00000KT 6SM 21/19 RMK T02100190 IEM_DS3505
ZBAA,1990-07-15 23:00,ZBAA 152300Z AUTO 31002KT 6SM 23/20 A2941 RMK T02300200 IEM_DS3505
ZBAA,1990-07-16 00:00,ZBAA 160000Z AUTO 00000KT 4SM 22/20 A2941 RMK 70008 SLP974 T02220197 57004 IEM_DS3505
ZBAA,1990-07-16 01:00,ZBAA 160100Z AUTO ////02KT 6SM 27/21 A2938 RMK T02700210 IEM_DS3505
ZBAA,1990-07-16 02:00,ZBAA 160200Z AUTO ////02KT 6SM 29/22 A2938 RMK T02900220 IEM_DS3505
ZBAA,1990-07-16 03:00,ZBAA 160300Z AUTO 36002KT 4SM 26/20 A2938 RMK SLP960 T02640205 57013 IEM_DS3505
ZBAA,1990-07-16 04:00,ZBAA 160400Z AUTO ////04KT 6SM 31/23 A2935 RMK T03100230 IEM_DS3505
ZBAA,1990-07-16 05:00,ZBAA 160500Z AUTO ////02KT 6SM 32/22 A2932 RMK T03200220 IEM_DS3505
ZBAA,1990-07-16 06:00,ZBAA 160600Z AUTO 25002KT 5SM 30/22 A2932 RMK SLP941 T02970225 4////0195 57019 IEM_DS3505
ZBAA,1990-07-16 07:00,ZBAA 160700Z AUTO ////04KT 6SM 33/24 A2932 RMK T03300240 IEM_DS3505
ZBAA,1990-07-16 08:00,ZBAA 160800Z AUTO ////04KT 6SM 30/23 A2929 RMK T03000230 IEM_DS3505
ZBAA,1990-07-16 09:00,ZBAA 160900Z AUTO 22006KT 5SM 29/25 A2929 RMK SLP934 T02940246 57007 IEM_DS3505
ZBAA,1990-07-16 11:00,ZBAA 161100Z AUTO ////02KT 7SM 30/24 A2932 RMK T03000240 IEM_DS3505
ZBAA,1990-07-16 12:00,ZBAA 161200Z AUTO 00000KT 6SM 25/20 A2935 RMK SLP947 T02540204 52013 IEM_DS3505
ZBAA,1990-07-16 13:00,ZBAA 161300Z AUTO ////02KT 5SM 28/24 A2935 RMK T02800240 IEM_DS3505
ZBAA,1990-07-16 14:00,ZBAA 161400Z AUTO ////02KT 4SM 28/25 A2935 RMK T02800250 IEM_DS3505
ZBAA,1990-07-16 15:00,ZBAA 161500Z AUTO 36004KT 5SM 24/22 A2935 RMK SLP953 T02370215 52006 IEM_DS3505
ZBAA,1990-07-16 16:00,ZBAA 161600Z AUTO 08004KT 1 1/2SM 27/25 A2932 RMK T02700250 IEM_DS3505
ZBAA,1990-07-16 18:00,ZBAA 161800Z AUTO 04002KT 1 1/4SM 24/22 RMK 60008 SLP943 T02360224 40305//// 57010 IEM_DS3505
ZBAA,1990-07-16 20:00,ZBAA 162000Z AUTO 08002KT 7SM 23/20 A2932 RMK T02300200 IEM_DS3505
ZBAA,1990-07-16 21:00,ZBAA 162100Z AUTO 00000KT 1SM 24/22 RMK 70008 SLP946 T02410222 52003 IEM_DS3505
ZBAA,1990-07-16 22:00,ZBAA 162200Z AUTO ////04KT 7SM 23/19 A2935 RMK T02300190 IEM_DS3505
ZBAA,1990-07-16 23:00,ZBAA 162300Z AUTO ////04KT 7SM 22/18 A2932 RMK T02200180 IEM_DS3505
ZBAA,1990-07-17 00:00,ZBAA 170000Z AUTO 32002KT 2SM 25/22 A2935 RMK 70008 SLP945 T02490216 53001 IEM_DS3505
ZBAA,1990-07-17 01:00,ZBAA 170100Z AUTO ////02KT 6SM 28/22 A2935 RMK T02800220 IEM_DS3505
ZBAA,1990-07-17 02:00,ZBAA 170200Z AUTO 00000KT 7SM 28/22 A2935 RMK T02800220 IEM_DS3505
ZBAA,1990-07-17 03:00,ZBAA 170300Z AUTO 07004KT 5SM 28/21 A2932 RMK SLP944 T02760209 57001 IEM_DS3505
ZBAA,1990-07-17 04:00,ZBAA 170400Z AUTO ////02KT 7SM 31/23 A2932 RMK T03100230 IEM_DS3505
ZBAA,1990-07-17 05:00,ZBAA 170500Z AUTO ////02KT 7SM 31/23 A2929 RMK T03100230 IEM_DS3505
ZBAA,1990-07-17 06:00,ZBAA 170600Z AUTO 04006KT 5SM 29/22 A2929 RMK SLP929 T02880221 4////0226 57015 IEM_DS3505
ZBAA,1990-07-17 07:00,ZBAA 170700Z AUTO ////02KT 7SM 31/23 A2926 RMK T03100230 IEM_DS3505
ZBAA,1990-07-17 08:00,ZBAA 170800Z AUTO 15002KT 7SM 29/23 A2926 RMK T02900230 IEM_DS3505
ZBAA,1990-07-17 09:00,ZBAA 170900Z AUTO 02004KT 3SM 26/24 A2926 RMK SLP922 T02570238 57007 IEM_DS3505
ZBAA,1990-07-17 10:00,ZBAA 171000Z AUTO 29002KT 3SM 28/26 A2926 RMK T02800260 IEM_DS3505
ZBAA,1990-07-17 11:00,ZBAA 171100Z AUTO ////02KT 3SM 27/24 A2926 RMK T02700240 IEM_DS3505
ZBAA,1990-07-17 12:00,ZBAA 171200Z AUTO 00000KT 2 1/2SM 25/23 A2932 RMK 60008 SLP940 T02540229 52018 IEM_DS3505
ZBAA,1990-07-17 13:00,ZBAA 171300Z AUTO 11010G19KT 7SM 23/20 A2935 RMK T02300200 IEM_DS3505
ZBAA,1990-07-17 14:00,ZBAA 171400Z AUTO ////06KT 7SM 22/21 A2938 RMK T02200210 IEM_DS3505
ZBAA,1990-07-17 15:00,ZBAA 171500Z AUTO 07004KT 6SM 21/20 A2938 RMK SLP963 T02140199 52023 IEM_DS3505
ZBAA,1990-07-17 16:00,ZBAA 171600Z AUTO ////02KT 7SM 22/21 A2944 RMK T02200210 IEM_DS3505
ZBAA,1990-07-17 18:00,ZBAA 171800Z AUTO 00000KT 5SM 20/19 RMK 60028 SLP976 T02040193 40291//// 52013 IEM_DS3505
ZBAA,1990-07-17 20:00,ZBAA 172000Z AUTO 32002KT 7SM 21/20 A2941 RMK T02100200 IEM_DS3505
ZBAA,1990-07-17 21:00,ZBAA 172100Z AUTO 00000KT 12SM 21/20 RMK 70043 SLP977 T02070195 54000 IEM_DS3505
ZBAA,1990-07-17 22:00,ZBAA 172200Z AUTO 27002KT 6SM 22/20 A2944 RMK T02200200 IEM_DS3505
ZBAA,1990-07-17 23:00,ZBAA 172300Z AUTO ////04KT 6SM 22/20 A2947 RMK T02200200 IEM_DS3505
ZBAA,1990-07-18 00:00,ZBAA 180000Z AUTO 00000KT 8SM 22/19 A2947 RMK 60008 70043 SLP990 T02160194 52013 IEM_DS3505
ZBAA,1990-07-18 01:00,ZBAA 180100Z AUTO 32002KT 6SM 24/20 A2947 RMK T02400200 IEM_DS3505
ZBAA,1990-07-18 02:00,ZBAA 180200Z AUTO 00000KT 6SM 24/20 A2950 RMK T02400200 IEM_DS3505
ZBAA,1990-07-18 03:00,ZBAA 180300Z AUTO 36004KT 6SM 23/19 A2950 RMK SLP004 T02310191 52014 IEM_DS3505
ZBAA,1990-07-18 04:00,ZBAA 180400Z AUTO 21002KT 6SM 27/21 A2950 RMK T02700210 IEM_DS3505
ZBAA,1990-07-18 05:00,ZBAA 180500Z AUTO ////02KT 6SM 30/21 A2950 RMK T03000210 IEM_DS3505
ZBAA,1990-07-18 06:00,ZBAA 180600Z AUTO 34002KT 7SM 24/20 A2947 RMK SLP001 T02450204 4////0199 57003 IEM_DS3505
ZBAA,1990-07-18 07:00,ZBAA 180700Z AUTO ////02KT 6SM 29/20 A2947 RMK T02900200 IEM_DS3505
ZBAA,1990-07-18 08:00,ZBAA 180800Z AUTO ////04KT 6SM 29/21 A2947 RMK T02900210 IEM_DS3505
ZBAA,1990-07-18 09:00,ZBAA 180900Z AUTO 00000KT 7SM 26/20 A2950 RMK SLP000 T02580197 57001 IEM_DS3505
ZBAA,1990-07-18 10:00,ZBAA 181000Z AUTO ////02KT 6SM 28/20 A2950 RMK T02800200 IEM_DS3505
ZBAA,1990-07-18 11:00,ZBAA 181100Z AUTO 32002KT 6SM 27/20 A2950 RMK T02700200 IEM_DS3505
ZBAA,1990-07-18 12:00,ZBAA 181200Z AUTO 00000KT 7SM 25/21 A2953 RMK SLP012 T02460208 52012 IEM_DS3505
ZBAA,1990-07-18 14:00,ZBAA 181400Z AUTO ////02KT 7SM 24/19 A2959 RMK T02400190 IEM_DS3505
ZBAA,1990-07-18 15:00,ZBAA 181500Z AUTO 07002KT 7SM 24/20 RMK SLP033 T02380197 52021 IEM_DS3505
ZBAA,1990-07-18 18:00,ZBAA 181800Z AUTO 36006KT 19SM 22/20 RMK SLP032 T02240198 40263//// 57001 IEM_DS3505
ZBAA,1990-07-18 20:00,ZBAA 182000Z AUTO 32002KT 7SM 23/20 A2959 RMK T02300200 IEM_DS3505
ZBAA,1990-07-18 21:00,ZBAA 182100Z AUTO 02002KT 12SM 22/19 A2962 RMK SLP038 T02220191 52006 IEM_DS3505
ZBAA,1990-07-18 22:00,ZBAA 182200Z AUTO ////02KT 7SM 23/18 A2962 RMK T02300180 IEM_DS3505
ZBAA,1990-07-18 23:00,ZBAA 182300Z AUTO ////02KT 7SM 23/18 A2965 RMK T02300180 IEM_DS3505
ZBAA,1990-07-19 00:00,ZBAA 190000Z AUTO 02004KT 12SM 23/20 A2965 RMK SLP044 T02320200 52006 IEM_DS3505
ZBAA,1990-07-19 01:00,ZBAA 190100Z AUTO ////04KT 6SM 27/18 RMK T02700180 IEM_DS3505
ZBAA,1990-07-19 02:00,ZBAA 190200Z AUTO ////02KT 6SM 30/19 A2965 RMK T03000190 IEM_DS3505
ZBAA,1990-07-19 03:00,ZBAA 190300Z AUTO 04006KT 9SM 26/18 A2965 RMK SLP052 T02600180 52008 IEM_DS3505
ZBAA,1990-07-19 04:00,ZBAA 190400Z AUTO ////02KT 6SM 29/20 A2965 RMK T02900200 IEM_DS3505
ZBAA,1990-07-19 05:00,ZBAA 190500Z AUTO ////02KT 6SM 30/20 A2965 RMK T03000200 IEM_DS3505
ZBAA,1990-07-19 06:00,ZBAA 190600Z AUTO 36006KT 7SM 28/19 A2962 RMK SLP046 T02750189 4////0217 57006 IEM_DS3505
ZBAA,1990-07-19 07:00,ZBAA 190700Z AUTO ////04KT 6SM 29/21 A2962 RMK T02900210 IEM_DS3505
ZBAA,1990-07-19 08:00,ZBAA 190800Z AUTO 00000KT 6SM 28/21 A2962 RMK T02800210 IEM_DS3505
ZBAA,1990-07-19 09:00,ZBAA 190900Z AUTO 04004KT 7SM 27/20 A2962 RMK SLP043 T02700197 57003 IEM_DS3505
ZBAA,1990-07-19 10:00,ZBAA 191000Z AUTO 05002KT 6SM 27/20 A2962 RMK T02700200 IEM_DS3505
ZBAA,1990-07-19 11:00,ZBAA 191100Z AUTO ////06KT 7SM 27/21 A2965 RMK T02700210 IEM_DS3505
ZBAA,1990-07-19 12:00,ZBAA 191200Z AUTO 16002KT 6SM 24/21 RMK SLP060 T02450206 52017 IEM_DS3505
ZBAA,1990-07-19 13:00,ZBAA 191300Z AUTO 00000KT 7SM 25/21 A2968 RMK T02500210 IEM_DS3505
ZBAA,1990-07-19 14:00,ZBAA 191400Z AUTO 17002KT 7SM 25/21 A2971 RMK T02500210 IEM_DS3505
ZBAA,1990-07-19 15:00,ZBAA 191500Z AUTO 04004KT 3SM 23/21 RMK SLP068 T02310210 52008 IEM_DS3505
ZBAA,1990-07-19 18:00,ZBAA 191800Z AUTO 00000KT 2 1/2SM 22/21 RMK 60020 SLP063 T02230214 40285//// 57005 IEM_DS3505
ZBAA,1990-07-19 20:00,ZBAA 192000Z AUTO 30002KT 3SM 23/22 A2968 RMK T02300220 IEM_DS3505
ZBAA,1990-07-19 21:00,ZBAA 192100Z AUTO 00000KT 4SM 22/21 RMK 70024 SLP063 T02230214 54000 IEM_DS3505
ZBAA,1990-07-19 22:00,ZBAA 192200Z AUTO 33004KT 2SM 23/22 A2968 RMK T02300220 IEM_DS3505
ZBAA,1990-07-19 23:00,ZBAA 192300Z AUTO ////04KT 2SM 24/22 A2971 RMK T02400220 IEM_DS3505
ZBAA,1990-07-20 00:00,ZBAA 200000Z AUTO 00000KT 4SM 24/22 A2971 RMK 60004 70024 SLP069 T02420220 52006 IEM_DS3505
ZBAA,1990-07-20 01:00,ZBAA 200100Z AUTO ////02KT 2 1/2SM 26/22 A2971 RMK T02600220 IEM_DS3505
ZBAA,1990-07-20 02:00,ZBAA 200200Z AUTO ////02KT 6SM 30/22 A2971 RMK T03000220 IEM_DS3505
ZBAA,1990-07-20 03:00,ZBAA 200300Z AUTO 09002KT 6SM 28/22 A2971 RMK SLP067 T02750219 57002 IEM_DS3505
ZBAA,1990-07-20 04:00,ZBAA 200400Z AUTO ////02KT 6SM 33/23 A2968 RMK T03300230 IEM_DS3505
ZBAA,1990-07-20 05:00,ZBAA 200500Z AUTO ////04KT 6SM 32/22 A2968 RMK T03200220 IEM_DS3505
ZBAA,1990-07-20 06:00,ZBAA 200600Z AUTO 18004KT 6SM 29/21 A2965 RMK SLP060 T02930212 4////0218 57007 IEM_DS3505
ZBAA,1990-07-20 07:00,ZBAA 200700Z AUTO ////04KT 6SM 33/23 A2965 RMK T03300230 IEM_DS3505
ZBAA,1990-07-20 08:00,ZBAA 200800Z AUTO ////06KT 6SM 32/23 A2965 RMK T03200230 IEM_DS3505
ZBAA,1990-07-20 09:00,ZBAA 200900Z AUTO 20006KT 6SM 29/21 A2965 RMK SLP053 T02890212 57007 IEM_DS3505
ZBAA,1990-07-20 10:00,ZBAA 201000Z AUTO 17002KT 6SM 30/22 A2965 RMK T03000220 IEM_DS3505
ZBAA,1990-07-20 11:00,ZBAA 201100Z AUTO ////06KT 7SM 29/22 A2968 RMK T02900220 IEM_DS3505
ZBAA,1990-07-20 12:00,ZBAA 201200Z AUTO 20004KT 4SM 27/22 A2968 RMK SLP059 T02660217 52006 IEM_DS3505
ZBAA,1990-07-20 13:00,ZBAA 201300Z AUTO 00000KT 6SM 26/20 A2968 RMK T02600200 IEM_DS3505
ZBAA,1990-07-20 14:00,ZBAA 201400Z AUTO 00000KT 6SM 26/23 A2971 RMK T02600230 IEM_DS3505
ZBAA,1990-07-20 15:00,ZBAA 201500Z AUTO 20004KT 4SM 25/22 RMK SLP066 T02540223 52007 IEM_DS3505
ZBAA,1990-07-20 18:00,ZBAA 201800Z AUTO 00000KT 3SM 24/22 RMK SLP067 T02410223 40297//// 52001 IEM_DS3505
ZBAA,1990-07-20 20:00,ZBAA 202000Z AUTO ////02KT 6SM 24/21 A2971 RMK T02400210 IEM_DS3505
ZBAA,1990-07-20 21:00,ZBAA 202100Z AUTO 00000KT 1 1/4SM 23/22 RMK SLP069 T02290217 52002 IEM_DS3505
ZBAA,1990-07-20 22:00,ZBAA 202200Z AUTO ////04KT 7SM 24/21 A2971 RMK T02400210 IEM_DS3505
ZBAA,1990-07-20 23:00,ZBAA 202300Z AUTO ////04KT 4SM 24/22 A2974 RMK T02400220 IEM_DS3505
ZBAA,1990-07-21 00:00,ZBAA 210000Z AUTO 00000KT 1 1/4SM 25/23 A2974 RMK SLP073 T02490232 52004 IEM_DS3505
ZBAA,1990-07-21 01:00,ZBAA 210100Z AUTO ////04KT 3SM 28/23 A2974 RMK T02800230 IEM_DS3505
ZBAA,1990-07-21 02:00,ZBAA 210200Z AUTO ////02KT 3SM 29/23 A2974 RMK T02900230 IEM_DS3505
ZBAA,1990-07-21 03:00,ZBAA 210300Z AUTO 04004KT 1 1/4SM 28/23 RMK SLP074 T02830228 52001 IEM_DS3505
ZBAA,1990-07-21 04:00,ZBAA 210400Z AUTO ////04KT 5SM 30/ A2971 RMK IEM_DS3505
ZBAA,1990-07-21 05:00,ZBAA 210500Z AUTO ////02KT 6SM 33/24 A2971 RMK T03300240 IEM_DS3505
ZBAA,1990-07-21 06:00,ZBAA 210600Z AUTO 11004KT 2SM 29/23 A2968 RMK SLP064 T02920230 4////0226 57010 IEM_DS3505
ZBAA,1990-07-21 07:00,ZBAA 210700Z AUTO ////04KT 7SM 32/24 A2968 RMK T03200240 IEM_DS3505
ZBAA,1990-07-21 08:00,ZBAA 210800Z AUTO ////06KT 6SM 31/24 A2965 RMK T03100240 IEM_DS3505
ZBAA,1990-07-21 09:00,ZBAA 210900Z AUTO 16004KT 4SM 29/22 A2965 RMK SLP053 T02930220 57011 IEM_DS3505
ZBAA,1990-07-21 11:00,ZBAA 211100Z AUTO ////04KT 6SM 29/24 A2965 RMK T02900240 IEM_DS3505
ZBAA,1990-07-21 12:00,ZBAA 211200Z AUTO 09004KT 4SM 28/23 A2965 RMK SLP055 T02750229 52002 IEM_DS3505
ZBAA,1990-07-21 13:00,ZBAA 211300Z AUTO 13002KT 6SM 27/24 A2968 RMK T02700240 IEM_DS3505
ZBAA,1990-07-21 14:00,ZBAA 211400Z AUTO 08002KT 6SM 27/24 A2968 RMK T02700240 IEM_DS3505
ZBAA,1990-07-21 15:00,ZBAA 211500Z AUTO 09002KT 2SM 26/24 A2968 RMK SLP057 T02600237 52003 IEM_DS3505
ZBAA,1990-07-21 18:00,ZBAA 211800Z AUTO 36002KT 1 1/4SM 26/24 RMK SLP051 T02560240 40298//// 57006 IEM_DS3505
ZBAA,1990-07-21 20:00,ZBAA 212000Z AUTO ////04KT 2 1/2SM 26/24 A2965 RMK T02600240 IEM_DS3505
ZBAA,1990-07-21 21:00,ZBAA 212100Z AUTO 00000KT 1 1/4SM 25/24 A2965 RMK SLP052 T02510241 52001 IEM_DS3505
ZBAA,1990-07-21 22:00,ZBAA 212200Z AUTO ////04KT 1SM 26/23 A2965 RMK T02600230 IEM_DS3505
ZBAA,1990-07-21 23:00,ZBAA 212300Z AUTO 08002KT 4SM 26/23 A2965 RMK T02600230 IEM_DS3505
ZBAA,1990-07-22 00:00,ZBAA 220000Z AUTO 11004KT 1 1/4SM 26/23 A2965 RMK SLP055 T02560233 52002 IEM_DS3505
ZBAA,1990-07-22 01:00,ZBAA 220100Z AUTO ////04KT 4SM 30/23 A2965 RMK T03000230 IEM_DS3505
ZBAA,1990-07-22 02:00,ZBAA 220200Z AUTO ////04KT 5SM 32/24 A2965 RMK T03200240 IEM_DS3505
ZBAA,1990-07-22 03:00,ZBAA 220300Z AUTO 00000KT 5SM 28/23 RMK SLP055 T02820228 52001 IEM_DS3505
ZBAA,1990-07-22 04:00,ZBAA 220400Z AUTO ////02KT 7SM 33/24 A2965 RMK T03300240 IEM_DS3505
ZBAA,1990-07-22 05:00,ZBAA 220500Z AUTO ////04KT 7SM 34/24 A2962 RMK T03400240 IEM_DS3505
ZBAA,1990-07-22 06:00,ZBAA 220600Z AUTO 18002KT 5SM 29/22 A2962 RMK SLP044 T02920222 4////0247 57011 IEM_DS3505
ZBAA,1990-07-22 07:00,ZBAA 220700Z AUTO ////04KT 7SM 33/ A2962 RMK IEM_DS3505
ZBAA,1990-07-22 08:00,ZBAA 220800Z AUTO ////04KT 7SM 33/23 A2959 RMK T03300230 IEM_DS3505
ZBAA,1990-07-22 09:00,ZBAA 220900Z AUTO 18004KT 6SM 30/23 A2959 RMK SLP033 T02990233 57011 IEM_DS3505
ZBAA,1990-07-22 10:00,ZBAA 221000Z AUTO ////04KT 7SM 31/24 A2956 RMK T03100240 IEM_DS3505
ZBAA,1990-07-22 11:00,ZBAA 221100Z AUTO ////04KT 7SM 30/23 A2959 RMK T03000230 IEM_DS3505
ZBAA,1990-07-22 12:00,ZBAA 221200Z AUTO 16002KT 6SM 28/24 A2959 RMK SLP029 T02800235 57004 IEM_DS3505
ZBAA,1990-07-22 14:00,ZBAA 221400Z AUTO 13002KT 2SM 26/23 A2965 RMK T02600230 IEM_DS3505
ZBAA,1990-07-22 15:00,ZBAA 221500Z AUTO 16004KT 5SM 25/23 RMK SLP033 T02480231 52004 IEM_DS3505
ZBAA,1990-07-22 18:00,ZBAA 221800Z AUTO 09002KT 4SM 25/24 RMK 60012 SLP021 T02480236 40302//// 57012 IEM_DS3505
ZBAA,1990-07-22 20:00,ZBAA 222000Z AUTO ////02KT 2SM 26/24 A2953 RMK T02600240 IEM_DS3505
ZBAA,1990-07-22 21:00,ZBAA 222100Z AUTO 00000KT 2SM 24/23 A2953 RMK 70012 SLP014 T02430234 57007 IEM_DS3505
ZBAA,1990-07-22 22:00,ZBAA 222200Z AUTO ////04KT 1SM 26/24 A2953 RMK T02600240 IEM_DS3505
ZBAA,1990-07-22 23:00,ZBAA 222300Z AUTO ////02KT 1SM 26/24 A2956 RMK T02600240 IEM_DS3505
ZBAA,1990-07-23 00:00,ZBAA 230000Z AUTO 20002KT 1 1/4SM 26/24 A2956 RMK 70012 SLP017 T02590242 52003 IEM_DS3505
ZBAA,1990-07-23 01:00,ZBAA 230100Z AUTO 00000KT 1SM 27/25 A2953 RMK T02700250 IEM_DS3505
ZBAA,1990-07-23 02:00,ZBAA 230200Z AUTO ////02KT 1 1/4SM 29/24 A2953 RMK T02900240 IEM_DS3505
ZBAA,1990-07-23 03:00,ZBAA 230300Z AUTO 18006KT 2SM 30/24 A2953 RMK SLP013 T02980241 57004 IEM_DS3505
ZBAA,1990-07-23 04:00,ZBAA 230400Z AUTO ////14KT 2SM 33/25 RMK T03300250 IEM_DS3505
ZBAA,1990-07-23 05:00,ZBAA 230500Z AUTO ////02KT 3SM 35/26 A2950 RMK T03500260 IEM_DS3505
ZBAA,1990-07-23 06:00,ZBAA 230600Z AUTO 20004KT 2 1/2SM 32/24 A2950 RMK SLP001 T03160240 4////0239 57012 IEM_DS3505
ZBAA,1990-07-23 07:00,ZBAA 230700Z AUTO ////02KT 5SM 36/24 A2947 RMK T03600240 IEM_DS3505
ZBAA,1990-07-23 08:00,ZBAA 230800Z AUTO ////04KT 6SM 36/25 A2947 RMK T03600250 IEM_DS3505
ZBAA,1990-07-23 09:00,ZBAA 230900Z AUTO 20008KT 2 1/2SM 34/25 A2944 RMK T03400250 57011 IEM_DS3505
ZBAA,1990-07-23 10:00,ZBAA 231000Z AUTO ////04KT 5SM 32/25 A2944 RMK T03200250 IEM_DS3505
ZBAA,1990-07-23 11:00,ZBAA 231100Z AUTO 17004KT 4SM 31/24 A2944 RMK T03100240 IEM_DS3505
ZBAA,1990-07-23 12:00,ZBAA 231200Z AUTO 18004KT 3SM 30/25 A2947 RMK SLP989 T02980252 57001 IEM_DS3505
ZBAA,1990-07-23 13:00,ZBAA 231300Z AUTO 16002KT 3SM 30/25 A2950 RMK T03000250 IEM_DS3505
ZBAA,1990-07-23 14:00,ZBAA 231400Z AUTO 17002KT 2 1/2SM 29/25 A2947 RMK T02900250 IEM_DS3505
ZBAA,1990-07-23 15:00,ZBAA 231500Z AUTO 20002KT 2SM 28/26 RMK SLP994 T02800258 52005 IEM_DS3505
ZBAA,1990-07-23 18:00,ZBAA 231800Z AUTO 00000KT 1 1/4SM 27/26 RMK SLP988 T02680255 40323//// 57006 IEM_DS3505
ZBAA,1990-07-23 20:00,ZBAA 232000Z AUTO 00000KT 1SM 27/25 A2944 RMK T02700250 IEM_DS3505
ZBAA,1990-07-23 21:00,ZBAA 232100Z AUTO 02002KT 1SM 26/25 A2947 RMK SLP989 T02630250 52001 IEM_DS3505
ZBAA,1990-07-23 22:00,ZBAA 232200Z AUTO 00000KT 1SM 27/25 A2947 RMK T02700250 IEM_DS3505
ZBAA,1990-07-23 23:00,ZBAA 232300Z AUTO 00000KT 1 1/4SM 28/25 A2947 RMK T02800250 IEM_DS3505
ZBAA,1990-07-24 00:00,ZBAA 240000Z AUTO 36004KT 1SM 27/26 A2947 RMK SLP997 T02740260 52008 IEM_DS3505
ZBAA,1990-07-24 01:00,ZBAA 240100Z AUTO ////02KT 3SM 32/26 A2947 RMK T03200260 IEM_DS3505
ZBAA,1990-07-24 03:00,ZBAA 240300Z AUTO 32002KT 1 1/4SM 32/26 A2947 RMK SLP994 T03200265 57002 IEM_DS3505
ZBAA,1990-07-24 06:00,ZBAA 240600Z AUTO 36008KT 5SM 37/24 RMK SLP983 T03670236 4////0259 57011 IEM_DS3505
ZBAA,1990-07-24 09:00,ZBAA 240900Z AUTO 18002KT 5SM 37/24 RMK SLP977 T03710238 57006 IEM_DS3505
ZBAA,1990-07-24 11:00,ZBAA 241100Z AUTO 16017KT 7SM 27/19 A2947 RMK SLP003 T02730194 52025 IEM_DS3505
ZBAA,1990-07-24 12:00,ZBAA 241200Z AUTO 16017KT 7SM 27/19 A2950 RMK SLP003 T02730194 52025 IEM_DS3505
ZBAA,1990-07-24 13:00,ZBAA 241300Z AUTO ////04KT 7SM 29/22 A2953 RMK T02900220 IEM_DS3505
ZBAA,1990-07-24 14:00,ZBAA 241400Z AUTO ////02KT 7SM 28/21 A2956 RMK T02800210 IEM_DS3505
ZBAA,1990-07-24 15:00,ZBAA 241500Z AUTO 09010KT 9SM 26/23 A2959 RMK SLP031 T02560227 52028 IEM_DS3505
ZBAA,1990-07-24 18:00,ZBAA 241800Z AUTO 00000KT 9SM 25/23 RMK 60094 SLP049 T02530227 40375//// 52018 IEM_DS3505
ZBAA,1990-07-24 20:00,ZBAA 242000Z AUTO 18002KT 7SM 26/23 A2965 RMK T02600230 IEM_DS3505
ZBAA,1990-07-24 21:00,ZBAA 242100Z AUTO 18002KT 7SM 25/22 A2968 RMK 70094 SLP057 T02540223 52008 IEM_DS3505
ZBAA,1990-07-24 22:00,ZBAA 242200Z AUTO ////04KT 6SM 26/22 A2968 RMK T02600220 IEM_DS3505
ZBAA,1990-07-24 23:00,ZBAA 242300Z AUTO ////04KT 6SM 26/22 A2971 RMK T02600220 IEM_DS3505
ZBAA,1990-07-25 00:00,ZBAA 250000Z AUTO 16006KT 6SM 25/22 RMK SLP075 T02460221 52017 IEM_DS3505
ZBAA,1990-07-25 01:00,ZBAA 250100Z AUTO ////04KT 7SM 26/20 A2974 RMK T02600200 IEM_DS3505
ZBAA,1990-07-25 02:00,ZBAA 250200Z AUTO ////04KT 7SM 26/20 A2974 RMK T02600200 IEM_DS3505
ZBAA,1990-07-25 03:00,ZBAA 250300Z AUTO 20006KT 6SM 25/20 A2974 RMK SLP076 T02490205 52001 IEM_DS3505
ZBAA,1990-07-25 04:00,ZBAA 250400Z AUTO ////04KT 7SM 27/20 A2974 RMK T02700200 IEM_DS3505
ZBAA,1990-07-25 05:00,ZBAA 250500Z AUTO ////04KT 7SM 28/20 A2971 RMK T02800200 IEM_DS3505
ZBAA,1990-07-25 06:00,ZBAA 250600Z AUTO 20004KT 7SM 26/20 A2971 RMK SLP071 T02570199 4////0235 57005 IEM_DS3505
ZBAA,1990-07-25 07:00,ZBAA 250700Z AUTO ////04KT 7SM 29/21 A2968 RMK T02900210 IEM_DS3505
ZBAA,1990-07-25 08:00,ZBAA 250800Z AUTO ////04KT 7SM 28/20 A2968 RMK T02800200 IEM_DS3505
ZBAA,1990-07-25 09:00,ZBAA 250900Z AUTO 20004KT 5SM 25/20 A2965 RMK SLP056 T02520205 57015 IEM_DS3505
ZBAA,1990-07-25 10:00,ZBAA 251000Z AUTO 00000KT 7SM 26/21 A2965 RMK T02600210 IEM_DS3505
ZBAA,1990-07-25 11:00,ZBAA 251100Z AUTO ////04KT 7SM 26/21 A2965 RMK T02600210 IEM_DS3505
ZBAA,1990-07-25 12:00,ZBAA 251200Z AUTO 16002KT 5SM 25/20 A2965 RMK SLP057 T02490200 52001 IEM_DS3505
ZBAA,1990-07-25 13:00,ZBAA 251300Z AUTO ////04KT 7SM 25/20 A2968 RMK T02500200 IEM_DS3505
ZBAA,1990-07-25 14:00,ZBAA 251400Z AUTO ////06KT 7SM 25/19 A2971 RMK T02500190 IEM_DS3505
ZBAA,1990-07-25 15:00,ZBAA 251500Z AUTO 16006KT 4SM 24/19 RMK SLP069 T02370190 52012 IEM_DS3505
ZBAA,1990-07-25 18:00,ZBAA 251800Z AUTO 18006KT 6SM 22/15 RMK SLP065 T02210149 40262//// 57004 IEM_DS3505
ZBAA,1990-07-25 20:00,ZBAA 252000Z AUTO ////02KT 7SM 23/16 A2968 RMK T02300160 IEM_DS3505
ZBAA,1990-07-25 21:00,ZBAA 252100Z AUTO 18006KT 7SM 22/15 A2968 RMK SLP059 T02180153 57006 IEM_DS3505
ZBAA,1990-07-25 22:00,ZBAA 252200Z AUTO ////02KT 7SM 22/17 A2968 RMK T02200170 IEM_DS3505
ZBAA,1990-07-25 23:00,ZBAA 252300Z AUTO 08002KT 7SM 23/19 A2968 RMK T02300190 IEM_DS3505
ZBAA,1990-07-26 00:00,ZBAA 260000Z AUTO 16002KT 7SM 22/16 A2968 RMK SLP063 T02210160 52004 IEM_DS3505
ZBAA,1990-07-26 01:00,ZBAA 260100Z AUTO ////04KT 6SM 24/18 RMK T02400180 IEM_DS3505
ZBAA,1990-07-26 02:00,ZBAA 260200Z AUTO ////06KT 6SM 25/17 A2968 RMK T02500170 IEM_DS3505
ZBAA,1990-07-26 03:00,ZBAA 260300Z AUTO 00000KT 7SM 23/17 A2968 RMK SLP058 T02300172 57005 IEM_DS3505
ZBAA,1990-07-26 04:00,ZBAA 260400Z AUTO ////06KT 6SM 26/18 A2965 RMK T02600180 IEM_DS3505
ZBAA,1990-07-26 05:00,ZBAA 260500Z AUTO ////06KT 6SM 26/17 A2965 RMK T02600170 IEM_DS3505
ZBAA,1990-07-26 06:00,ZBAA 260600Z AUTO 14004KT 12SM 23/18 A2962 RMK SLP043 T02310175 4////0215 57015 IEM_DS3505
ZBAA,1990-07-26 07:00,ZBAA 260700Z AUTO ////04KT 6SM 25/17 A2962 RMK T02500170 IEM_DS3505
ZBAA,1990-07-26 08:00,ZBAA 260800Z AUTO ////04KT 6SM 25/17 A2959 RMK T02500170 IEM_DS3505
ZBAA,1990-07-26 09:00,ZBAA 260900Z AUTO 11002KT 7SM 23/17 A2959 RMK SLP034 T02290170 57009 IEM_DS3505
ZBAA,1990-07-26 10:00,ZBAA 261000Z AUTO ////04KT 6SM 24/17 A2959 RMK T02400170 IEM_DS3505
ZBAA,1990-07-26 11:00,ZBAA 261100Z AUTO 00000KT 6SM 23/17 A2959 RMK T02300170 IEM_DS3505
ZBAA,1990-07-26 12:00,ZBAA 261200Z AUTO 00000KT 4SM 21/19 A2959 RMK 60002 SLP034 T02130186 54000 IEM_DS3505
ZBAA,1990-07-26 13:00,ZBAA 261300Z AUTO 00000KT 6SM 22/19 A2959 RMK T02200190 IEM_DS3505
ZBAA,1990-07-26 14:00,ZBAA 261400Z AUTO ////02KT 6SM 22/18 A2962 RMK T02200180 IEM_DS3505
ZBAA,1990-07-26 15:00,ZBAA 261500Z AUTO 00000KT 4SM 21/19 RMK 60002 SLP034 T02130186 54000 IEM_DS3505
ZBAA,1990-07-26 18:00,ZBAA 261800Z AUTO 02002KT 2 1/2SM 20/19 RMK 60012 SLP025 T02010188 40239//// 57013 IEM_DS3505
ZBAA,1990-07-26 20:00,ZBAA 262000Z AUTO 00000KT 5SM 20/19 A2956 RMK T02000190 IEM_DS3505
ZBAA,1990-07-26 21:00,ZBAA 262100Z AUTO 00000KT 1 1/4SM 20/19 A2956 RMK 70012 SLP025 T02020189 54000 IEM_DS3505
ZBAA,1990-07-26 22:00,ZBAA 262200Z AUTO 00000KT 3SM 20/19 A2959 RMK T02000190 IEM_DS3505
ZBAA,1990-07-26 23:00,ZBAA 262300Z AUTO 29002KT 3SM 21/19 A2959 RMK T02100190 IEM_DS3505
ZBAA,1990-07-27 00:00,ZBAA 270000Z AUTO 00000KT 1SM 21/19 RMK 70012 SLP030 T02100194 52005 IEM_DS3505
ZBAA,1990-07-27 02:00,ZBAA 270200Z AUTO 00000KT 6SM 26/19 A2959 RMK T02600190 IEM_DS3505
ZBAA,1990-07-27 03:00,ZBAA 270300Z AUTO 20004KT 2SM 24/19 A2959 RMK SLP030 T02440193 54000 IEM_DS3505
ZBAA,1990-07-27 04:00,ZBAA 270400Z AUTO ////02KT 6SM 30/20 A2956 RMK T03000200 IEM_DS3505
ZBAA,1990-07-27 05:00,ZBAA 270500Z AUTO ////02KT 6SM 31/21 A2953 RMK T03100210 IEM_DS3505
ZBAA,1990-07-27 06:00,ZBAA 270600Z AUTO 16008KT 5SM 28/21 A2953 RMK SLP016 T02780208 57014 IEM_DS3505
ZBAA,1990-07-27 07:00,ZBAA 270700Z AUTO ////04KT 6SM 33/22 RMK T03300220 IEM_DS3505
ZBAA,1990-07-27 08:00,ZBAA 270800Z AUTO ////04KT 6SM 32/22 A2953 RMK T03200220 IEM_DS3505
ZBAA,1990-07-27 09:00,ZBAA 270900Z AUTO ////06KT 5SM 28/22 A2950 RMK SLP006 T02850217 57010 IEM_DS3505
ZBAA,1990-07-27 10:00,ZBAA 271000Z AUTO ////04KT 6SM 30/21 A2950 RMK T03000210 IEM_DS3505
ZBAA,1990-07-27 11:00,ZBAA 271100Z AUTO ////02KT 6SM 29/22 A2953 RMK T02900220 IEM_DS3505
ZBAA,1990-07-27 12:00,ZBAA 271200Z AUTO 00000KT 3SM 27/23 A2956 RMK SLP016 T02660227 52010 IEM_DS3505
ZBAA,1990-07-27 13:00,ZBAA 271300Z AUTO ////04KT 7SM 27/22 A2959 RMK T02700220 IEM_DS3505
ZBAA,1990-07-27 14:00,ZBAA 271400Z AUTO ////02KT 2 1/2SM 26/24 A2965 RMK T02600240 IEM_DS3505
ZBAA,1990-07-27 15:00,ZBAA 271500Z AUTO 25004KT 3SM 24/21 RMK SLP046 T02410206 52030 IEM_DS3505
ZBAA,1990-07-27 18:00,ZBAA 271800Z AUTO 00000KT 3SM 23/22 RMK 60008 SLP043 T02310216 40290//// 57003 IEM_DS3505
ZBAA,1990-07-27 20:00,ZBAA 272000Z AUTO 11002KT 1SM 24/23 A2965 RMK T02400230 IEM_DS3505
ZBAA,1990-07-27 21:00,ZBAA 272100Z AUTO 02002KT 1SM 23/22 A2965 RMK 70008 SLP051 T02260220 52008 IEM_DS3505
ZBAA,1990-07-27 22:00,ZBAA 272200Z AUTO 00000KT 1SM 24/22 A2968 RMK T02400220 IEM_DS3505
ZBAA,1990-07-27 23:00,ZBAA 272300Z AUTO 00000KT 1 1/2SM 24/22 A2971 RMK T02400220 IEM_DS3505
ZBAA,1990-07-28 00:00,ZBAA 280000Z AUTO 07002KT 1SM 24/23 A2974 RMK 70008 SLP072 T02450232 52021 IEM_DS3505
ZBAA,1990-07-28 01:00,ZBAA 280100Z AUTO 00000KT 2 1/2SM 26/23 A2974 RMK T02600230 IEM_DS3505
ZBAA,1990-07-28 02:00,ZBAA 280200Z AUTO ////02KT 2 1/2SM 27/23 A2974 RMK T02700230 IEM_DS3505
ZBAA,1990-07-28 03:00,ZBAA 280300Z AUTO 00000KT 1SM 26/23 A2974 RMK SLP082 T02630234 52010 IEM_DS3505
ZBAA,1990-07-28 04:00,ZBAA 280400Z AUTO ////04KT 1 1/4SM 27/24 A2974 RMK T02700240 IEM_DS3505
ZBAA,1990-07-28 05:00,ZBAA 280500Z AUTO ////02KT 1 1/4SM 29/24 A2977 RMK T02900240 IEM_DS3505
ZBAA,1990-07-28 06:00,ZBAA 280600Z AUTO 11002KT 1SM 29/25 A2974 RMK SLP078 T02930248 4////0224 57004 IEM_DS3505
ZBAA,1990-07-28 07:00,ZBAA 280700Z AUTO ////02KT 4SM 33/25 A2974 RMK T03300250 IEM_DS3505
ZBAA,1990-07-28 08:00,ZBAA 280800Z AUTO ////02KT 4SM 33/25 A2974 RMK T03300250 IEM_DS3505
ZBAA,1990-07-28 09:00,ZBAA 280900Z AUTO 20004KT 2SM 31/24 A2974 RMK SLP079 T03060238 52001 IEM_DS3505
ZBAA,1990-07-28 10:00,ZBAA 281000Z AUTO ////04KT 4SM 31/25 A2974 RMK T03100250 IEM_DS3505
ZBAA,1990-07-28 11:00,ZBAA 281100Z AUTO 10002KT 4SM 30/25 A2974 RMK T03000250 IEM_DS3505
ZBAA,1990-07-28 12:00,ZBAA 281200Z AUTO 14002KT 3SM 29/25 A2977 RMK SLP087 T02920248 52008 IEM_DS3505
ZBAA,1990-07-28 13:00,ZBAA 281300Z AUTO ////04KT 2 1/2SM 28/25 A2980 RMK T02800250 IEM_DS3505
ZBAA,1990-07-28 14:00,ZBAA 281400Z AUTO ////04KT 2 1/2SM 28/24 A2983 RMK T02800240 IEM_DS3505
ZBAA,1990-07-28 15:00,ZBAA 281500Z AUTO 18002KT 4SM 27/22 A2983 RMK SLP111 T02690217 52024 IEM_DS3505
ZBAA,1990-07-28 16:00,ZBAA 281600Z AUTO ////04KT 4SM 26/23 A2983 RMK T02600230 IEM_DS3505
ZBAA,1990-07-28 18:00,ZBAA 281800Z AUTO 00000KT 4SM 25/22 RMK SLP116 T02520219 52005 IEM_DS3505
ZBAA,1990-07-28 20:00,ZBAA 282000Z AUTO 00000KT 3SM 25/22 A2985 RMK T02500220 IEM_DS3505
ZBAA,1990-07-28 21:00,ZBAA 282100Z AUTO 00000KT 2 1/2SM 25/22 A2985 RMK SLP124 T02460216 52008 IEM_DS3505
ZBAA,1990-07-28 22:00,ZBAA 282200Z AUTO 28002KT 3SM 25/22 A2988 RMK T02500220 IEM_DS3505
ZBAA,1990-07-28 23:00,ZBAA 282300Z AUTO 00000KT 3SM 25/23 A2991 RMK T02500230 IEM_DS3505
ZBAA,1990-07-29 00:00,ZBAA 290000Z AUTO 00000KT 2 1/2SM 25/22 A2991 RMK SLP137 T02490222 52013 IEM_DS3505
ZBAA,1990-07-29 01:00,ZBAA 290100Z AUTO 00000KT 5SM 27/23 A2991 RMK T02700230 IEM_DS3505
ZBAA,1990-07-29 02:00,ZBAA 290200Z AUTO ////02KT 7SM 29/22 A2988 RMK T02900220 IEM_DS3505
ZBAA,1990-07-29 03:00,ZBAA 290300Z AUTO 04004KT 2 1/2SM 26/22 A2988 RMK SLP134 T02640218 57003 IEM_DS3505
ZBAA,1990-07-29 04:00,ZBAA 290400Z AUTO 18002KT 7SM 29/23 A2988 RMK T02900230 IEM_DS3505
ZBAA,1990-07-29 05:00,ZBAA 290500Z AUTO ////06KT 7SM 30/23 A2988 RMK T03000230 IEM_DS3505
ZBAA,1990-07-29 06:00,ZBAA 290600Z AUTO 09006KT 4SM 28/22 A2988 RMK SLP128 T02760222 4////0239 57006 IEM_DS3505
ZBAA,1990-07-29 07:00,ZBAA 290700Z AUTO ////06KT 7SM 29/22 A2988 RMK T02900220 IEM_DS3505
ZBAA,1990-07-29 08:00,ZBAA 290800Z AUTO ////04KT 7SM 29/23 A2985 RMK T02900230 IEM_DS3505
ZBAA,1990-07-29 09:00,ZBAA 290900Z AUTO 11002KT 2 1/2SM 27/22 A2985 RMK SLP110 T02700221 57011 IEM_DS3505
ZBAA,1990-07-29 10:00,ZBAA 291000Z AUTO ////02KT 7SM 28/23 A2985 RMK T02800230 IEM_DS3505
ZBAA,1990-07-29 11:00,ZBAA 291100Z AUTO 17002KT 7SM 27/23 A2985 RMK T02700230 IEM_DS3505
ZBAA,1990-07-29 12:00,ZBAA 291200Z AUTO 11004KT 1SM 26/23 A2988 RMK SLP125 T02600229 52008 IEM_DS3505
ZBAA,1990-07-29 13:00,ZBAA 291300Z AUTO ////04KT 7SM 26/23 A2985 RMK T02600230 IEM_DS3505
ZBAA,1990-07-29 14:00,ZBAA 291400Z AUTO 10002KT 7SM 26/23 A2985 RMK T02600230 IEM_DS3505
ZBAA,1990-07-29 15:00,ZBAA 291500Z AUTO 16002KT 1 1/4SM 25/23 A2985 RMK SLP122 T02520227 57003 IEM_DS3505
ZBAA,1990-07-29 18:00,ZBAA 291800Z AUTO 00000KT 1 1/4SM 25/23 RMK SLP114 T02490231 40281//// 57008 IEM_DS3505
ZBAA,1990-07-29 20:00,ZBAA 292000Z AUTO ////02KT 1 1/4SM 25/24 A2983 RMK T02500240 IEM_DS3505
ZBAA,1990-07-29 21:00,ZBAA 292100Z AUTO 00000KT 1 1/4SM 24/23 A2983 RMK SLP108 T02440232 57006 IEM_DS3505
ZBAA,1990-07-29 22:00,ZBAA 292200Z AUTO ////02KT 1 1/4SM 25/24 A2980 RMK T02500240 IEM_DS3505
ZBAA,1990-07-29 23:00,ZBAA 292300Z AUTO 14002KT 1 1/4SM 25/24 A2980 RMK T02500240 IEM_DS3505
ZBAA,1990-07-30 00:00,ZBAA 300000Z AUTO 20002KT 2SM 26/23 A2983 RMK SLP107 T02550230 57001 IEM_DS3505
ZBAA,1990-07-30 01:00,ZBAA 300100Z AUTO ////02KT 1 1/2SM 27/24 A2983 RMK T02700240 IEM_DS3505
ZBAA,1990-07-30 02:00,ZBAA 300200Z AUTO ////02KT 2SM 29/24 A2983 RMK T02900240 IEM_DS3505
ZBAA,1990-07-30 03:00,ZBAA 300300Z AUTO 20006KT 2 1/2SM 27/22 A2983 RMK SLP107 T02710223 54000 IEM_DS3505
ZBAA,1990-07-30 04:00,ZBAA 300400Z AUTO ////04KT 3SM 29/24 A2980 RMK T02900240 IEM_DS3505
ZBAA,1990-07-30 05:00,ZBAA 300500Z AUTO ////04KT 4SM 32/24 A2977 RMK T03200240 IEM_DS3505
ZBAA,1990-07-30 06:00,ZBAA 300600Z AUTO 20004KT 6SM 29/23 A2974 RMK SLP087 T02930226 4////0237 57020 IEM_DS3505
ZBAA,1990-07-30 07:00,ZBAA 300700Z AUTO ////04KT 5SM 33/23 A2974 RMK T03300230 IEM_DS3505
ZBAA,1990-07-30 08:00,ZBAA 300800Z AUTO ////06KT 7SM 33/24 A2974 RMK T03300240 IEM_DS3505
ZBAA,1990-07-30 09:00,ZBAA 300900Z AUTO 18008KT 4SM 30/23 A2971 RMK SLP074 T02960231 57013 IEM_DS3505
ZBAA,1990-07-30 10:00,ZBAA 301000Z AUTO ////04KT 6SM 30/24 A2971 RMK T03000240 IEM_DS3505
ZBAA,1990-07-30 11:00,ZBAA 301100Z AUTO 17004KT 6SM 29/24 A2971 RMK T02900240 IEM_DS3505
ZBAA,1990-07-30 12:00,ZBAA 301200Z AUTO 18008KT 3SM 28/24 A2971 RMK T02800240 52001 IEM_DS3505
ZBAA,1990-07-30 13:00,ZBAA 301300Z AUTO ////04KT 5SM 28/24 A2974 RMK T02800240 IEM_DS3505
ZBAA,1990-07-30 14:00,ZBAA 301400Z AUTO 15002KT 5SM 27/24 A2974 RMK T02700240 IEM_DS3505
ZBAA,1990-07-30 15:00,ZBAA 301500Z AUTO 18002KT 2 1/2SM 27/24 A2971 RMK SLP075 T02660242 54000 IEM_DS3505
ZBAA,1990-07-30 18:00,ZBAA 301800Z AUTO 18004KT 2SM 26/24 RMK SLP070 T02580241 40308//// 57004 IEM_DS3505
ZBAA,1990-07-30 21:00,ZBAA 302100Z AUTO 00000KT 1SM 25/24 A2971 RMK SLP071 T02520242 52001 IEM_DS3505
ZBAA,1990-07-30 22:00,ZBAA 302200Z AUTO 17002KT 1 1/2SM 27/25 A2971 RMK T02700250 IEM_DS3505
ZBAA,1990-07-31 00:00,ZBAA 310000Z AUTO 00000KT 1SM 26/25 A2974 RMK SLP076 T02640248 52004 IEM_DS3505
ZBAA,1990-07-31 01:00,ZBAA 310100Z AUTO 30002KT 2SM 30/26 A2971 RMK T03000260 IEM_DS3505
ZBAA,1990-07-31 02:00,ZBAA 310200Z AUTO ////02KT 1 1/2SM 31/25 A2971 RMK T03100250 IEM_DS3505
ZBAA,1990-07-31 03:00,ZBAA 310300Z AUTO 20004KT 1 1/4SM 30/25 A2971 RMK SLP071 T02950248 57004 IEM_DS3505
ZBAA,1990-07-31 04:00,ZBAA 310400Z AUTO ////04KT 2SM 35/25 A2968 RMK T03500250 IEM_DS3505
ZBAA,1990-07-31 05:00,ZBAA 310500Z AUTO ////02KT 2SM 35/27 A2968 RMK T03500270 IEM_DS3505
ZBAA,1990-07-31 06:00,ZBAA 310600Z AUTO 11006KT 1 1/4SM 32/25 A2965 RMK SLP057 T03210253 4////0249 57014 IEM_DS3505
ZBAA,1990-07-31 07:00,ZBAA 310700Z AUTO ////02KT 2 1/2SM 36/27 A2965 RMK T03600270 IEM_DS3505
ZBAA,1990-07-31 08:00,ZBAA 310800Z AUTO ////06KT 2 1/2SM 34/25 A2965 RMK T03400250 IEM_DS3505
ZBAA,1990-07-31 09:00,ZBAA 310900Z AUTO 36006KT 2SM 28/24 A2962 RMK SLP054 T02850245 57003 IEM_DS3505
ZBAA,1990-07-31 10:00,ZBAA 311000Z AUTO ////06KT 4SM 28/25 A2965 RMK T02800250 IEM_DS3505
ZBAA,1990-07-31 11:00,ZBAA 311100Z AUTO ////04KT 2 1/2SM 26/24 A2971 RMK T02600240 IEM_DS3505
ZBAA,1990-07-31 12:00,ZBAA 311200Z AUTO 04004KT 2SM 25/24 A2971 RMK 60154 SLP068 T02470238 52013 IEM_DS3505
ZBAA,1990-07-31 13:00,ZBAA 311300Z AUTO 33004KT 3SM 26/25 A2971 RMK T02600250 IEM_DS3505
ZBAA,1990-07-31 14:00,ZBAA 311400Z AUTO 00000KT 4SM 25/24 A2971 RMK T02500240 IEM_DS3505
ZBAA,1990-07-31 15:00,ZBAA 311500Z AUTO 00000KT 2SM 25/24 A2971 RMK SLP065 T02470238 57002 IEM_DS3505
ZBAA,1990-07-31 20:00,ZBAA 312000Z AUTO 00000KT 2 1/2SM 25/24 A2968 RMK T02500240 IEM_DS3505
ZBAA,1990-07-31 21:00,ZBAA 312100Z AUTO 00000KT 3SM 25/24 A2968 RMK T02500240 IEM_DS3505
ZBAA,1990-07-31 22:00,ZBAA 312200Z AUTO 00000KT 3SM 25/24 A2968 RMK T02500240 IEM_DS3505
ZBAA,1990-07-31 23:00,ZBAA 312300Z AUTO 00000KT 3SM 25/24 A2968 RMK T02500240 IEM_DS3505
ZBAA,1990-08-01 00:00,ZBAA 010000Z AUTO 04002KT 1 1/4SM 25/24 A2968 RMK 70185 SLP066 T02500237 52004 IEM_DS3505
ZBAA,1990-08-01 01:00,ZBAA 010100Z AUTO ////02KT 7SM RMK IEM_DS3505
ZBAA,1990-08-01 02:00,ZBAA 010200Z AUTO 00000KT 7SM 29/24 A2968 RMK T02900240 IEM_DS3505
ZBAA,1990-08-01 03:00,ZBAA 010300Z AUTO 04002KT 2SM 27/24 A2968 RMK SLP061 T02700243 57005 IEM_DS3505
ZBAA,1990-08-01 04:00,ZBAA 010400Z AUTO 01002KT 7SM 31/24 A2965 RMK T03100240 IEM_DS3505
ZBAA,1990-08-01 05:00,ZBAA 010500Z AUTO 00000KT 7SM 32/25 A2962 RMK T03200250 IEM_DS3505
ZBAA,1990-08-01 06:00,ZBAA 010600Z AUTO 36008KT 5SM 27/22 A2962 RMK SLP046 T02710223 4////0236 57015 IEM_DS3505
ZBAA,1990-08-01 07:00,ZBAA 010700Z AUTO ////06KT 7SM 32/25 A2959 RMK T03200250 IEM_DS3505
ZBAA,1990-08-01 08:00,ZBAA 010800Z AUTO ////06KT 7SM 28/23 A2959 RMK T02800230 IEM_DS3505
ZBAA,1990-08-01 09:00,ZBAA 010900Z AUTO 02008KT 6SM 26/20 A2959 RMK SLP035 T02550205 57011 IEM_DS3505
ZBAA,1990-08-01 10:00,ZBAA 011000Z AUTO ////04KT 7SM 27/21 A2959 RMK T02700210 IEM_DS3505
ZBAA,1990-08-01 11:00,ZBAA 011100Z AUTO ////04KT 2 1/2SM 24/22 A2959 RMK T02400220 IEM_DS3505
ZBAA,1990-08-01 12:00,ZBAA 011200Z AUTO 36006KT 2SM 22/21 A2965 RMK 60165 SLP046 T02170211 52011 IEM_DS3505
ZBAA,1990-08-01 13:00,ZBAA 011300Z AUTO ////06KT 2 1/2SM 23/22 A2965 RMK T02300220 IEM_DS3505
ZBAA,1990-08-01 14:00,ZBAA 011400Z AUTO ////02KT 2 1/2SM 23/22 A2968 RMK T02300220 IEM_DS3505
ZBAA,1990-08-01 15:00,ZBAA 011500Z AUTO 34002KT 4SM 22/21 A2965 RMK SLP054 T02180207 52008 IEM_DS3505
ZBAA,1990-08-01 18:00,ZBAA 011800Z AUTO 36008KT 6SM 22/20 RMK 60130 SLP038 T02150200 40288//// 57016 IEM_DS3505
ZBAA,1990-08-01 20:00,ZBAA 012000Z AUTO ////02KT 7SM 22/21 A2959 RMK T02200210 IEM_DS3505
ZBAA,1990-08-01 21:00,ZBAA 012100Z AUTO 04002KT 9SM 22/20 RMK 70295 SLP036 T02150204 57002 IEM_DS3505
ZBAA,1990-08-01 22:00,ZBAA 012200Z AUTO ////02KT 7SM 22/21 A2959 RMK T02200210 IEM_DS3505
ZBAA,1990-08-01 23:00,ZBAA 012300Z AUTO ////02KT 6SM 23/20 A2962 RMK T02300200 IEM_DS3505
ZBAA,1990-08-02 00:00,ZBAA 020000Z AUTO 11002KT 12SM 22/21 A2965 RMK 60001 SLP047 T02220207 52011 IEM_DS3505
ZBAA,1990-08-02 01:00,ZBAA 020100Z AUTO 00000KT 12SM 24/21 A2962 RMK T02400210 4////0210 57015 IEM_DS3505
ZBAA,1990-08-02 02:00,ZBAA 020200Z AUTO ////02KT 6SM 25/21 A2962 RMK T02500210 IEM_DS3505
ZBAA,1990-08-02 03:00,ZBAA 020300Z AUTO 36004KT 7SM 26/21 A2962 RMK SLP046 T02570207 57001 IEM_DS3505
ZBAA,1990-08-02 04:00,ZBAA 020400Z AUTO ////02KT 6SM 28/20 A2962 RMK T02800200 IEM_DS3505
ZBAA,1990-08-02 05:00,ZBAA 020500Z AUTO 00000KT 6SM 28/21 A2962 RMK T02800210 IEM_DS3505
ZBAA,1990-08-02 06:00,ZBAA 020600Z AUTO 00000KT 12SM 26/20 A2959 RMK SLP041 T02620203 4////0210 57005 IEM_DS3505
ZBAA,1990-08-02 07:00,ZBAA 020700Z AUTO ////04KT 6SM 30/21 A2959 RMK T03000210 IEM_DS3505
ZBAA,1990-08-02 08:00,ZBAA 020800Z AUTO 07002KT 6SM 30/22 A2959 RMK T03000220 IEM_DS3505
ZBAA,1990-08-02 09:00,ZBAA 020900Z AUTO 00000KT 16SM 27/21 A2956 RMK SLP031 T02660206 57010 IEM_DS3505
ZBAA,1990-08-02 10:00,ZBAA 021000Z AUTO 08002KT 6SM 28/21 A2959 RMK T02800210 IEM_DS3505
ZBAA,1990-08-02 11:00,ZBAA 021100Z AUTO 00000KT 6SM 27/21 A2959 RMK T02700210 IEM_DS3505
ZBAA,1990-08-02 12:00,ZBAA 021200Z AUTO 00000KT 4SM 25/23 A2962 RMK SLP042 T02520226 IEM_DS3505
ZBAA,1990-08-02 13:00,ZBAA 021300Z AUTO 32004KT 6SM 25/22 A2965 RMK T02500220 IEM_DS3505
ZBAA,1990-08-02 14:00,ZBAA 021400Z AUTO 00000KT 6SM 25/22 A2965 RMK T02500220 IEM_DS3505
ZBAA,1990-08-02 15:00,ZBAA 021500Z AUTO 00000KT 4SM 24/22 A2965 RMK SLP047 T02360223 52005 IEM_DS3505
ZBAA,1990-08-02 18:00,ZBAA 021800Z AUTO 00000KT 4SM 22/21 RMK SLP042 T02210213 40271//// 57005 IEM_DS3505
ZBAA,1990-08-02 20:00,ZBAA 022000Z AUTO 00000KT 2 1/2SM 22/21 A2962 RMK T02200210 IEM_DS3505
ZBAA,1990-08-02 21:00,ZBAA 022100Z AUTO 04002KT 3SM 21/20 A2962 RMK SLP042 T02120204 54000 IEM_DS3505
ZBAA,1990-08-02 23:00,ZBAA 022300Z AUTO 00000KT 6SM 23/21 A2962 RMK T02300210 IEM_DS3505
ZBAA,1990-08-03 00:00,ZBAA 030000Z AUTO 04004KT 5SM 24/20 A2962 RMK SLP047 T02410198 52005 IEM_DS3505
ZBAA,1990-08-03 01:00,ZBAA 030100Z AUTO 00000KT 7SM 28/22 A2965 RMK T02800220 IEM_DS3505
ZBAA,1990-08-03 02:00,ZBAA 030200Z AUTO ////02KT 7SM 31/22 A2965 RMK T03100220 IEM_DS3505
ZBAA,1990-08-03 03:00,ZBAA 030300Z AUTO 07002KT 4SM 28/22 A2965 RMK SLP048 T02800217 52001 IEM_DS3505
ZBAA,1990-08-03 04:00,ZBAA 030400Z AUTO 00000KT 7SM 32/23 A2965 RMK T03200230 IEM_DS3505
ZBAA,1990-08-03 05:00,ZBAA 030500Z AUTO 00000KT 7SM 32/23 A2965 RMK T03200230 IEM_DS3505
ZBAA,1990-08-03 06:00,ZBAA 030600Z AUTO 11004KT 2SM 30/22 A2965 RMK SLP042 T02980224 4////0208 57006 IEM_DS3505
ZBAA,1990-08-03 07:00,ZBAA 030700Z AUTO ////04KT 7SM 33/22 A2959 RMK T03300220 IEM_DS3505
ZBAA,1990-08-03 08:00,ZBAA 030800Z AUTO ////02KT 7SM 34/23 A2959 RMK T03400230 IEM_DS3505
ZBAA,1990-08-03 09:00,ZBAA 030900Z AUTO 20004KT 2 1/2SM 30/22 A2959 RMK SLP037 T02960225 57005 IEM_DS3505
ZBAA,1990-08-03 10:00,ZBAA 031000Z AUTO ////02KT 7SM 32/22 A2959 RMK T03200220 IEM_DS3505
ZBAA,1990-08-03 11:00,ZBAA 031100Z AUTO 17002KT 7SM 30/23 A2959 RMK T03000230 IEM_DS3505
ZBAA,1990-08-03 12:00,ZBAA 031200Z AUTO 00000KT 4SM 27/23 A2962 RMK SLP043 T02720231 52006 IEM_DS3505
ZBAA,1990-08-03 13:00,ZBAA 031300Z AUTO 12002KT 7SM 27/23 A2965 RMK T02700230 IEM_DS3505
ZBAA,1990-08-03 14:00,ZBAA 031400Z AUTO 14004KT 7SM 27/23 A2965 RMK T02700230 IEM_DS3505
ZBAA,1990-08-03 15:00,ZBAA 031500Z AUTO 00000KT 2SM 26/24 A2965 RMK SLP050 T02580236 52008 IEM_DS3505
ZBAA,1990-08-03 16:00,ZBAA 031600Z AUTO 12004KT 7SM 25/22 A2965 RMK T02500220 IEM_DS3505
ZBAA,1990-08-03 18:00,ZBAA 031800Z AUTO 20002KT 2 1/2SM 24/22 RMK SLP051 T02450224 40303//// 52001 IEM_DS3505
ZBAA,1990-08-03 20:00,ZBAA 032000Z AUTO 10002KT 4SM 24/22 A2962 RMK T02400220 IEM_DS3505
ZBAA,1990-08-03 21:00,ZBAA 032100Z AUTO 18002KT 4SM 24/22 A2962 RMK SLP044 T02380219 57007 IEM_DS3505
ZBAA,1990-08-03 22:00,ZBAA 032200Z AUTO 10002KT 4SM 24/22 A2962 RMK T02400220 IEM_DS3505
ZBAA,1990-08-03 23:00,ZBAA 032300Z AUTO 15002KT 4SM 25/22 A2962 RMK T02500220 IEM_DS3505
ZBAA,1990-08-04 00:00,ZBAA 040000Z AUTO 36002KT 2SM 25/23 A2962 RMK SLP048 T02490227 52003 IEM_DS3505
ZBAA,1990-08-04 01:00,ZBAA 040100Z AUTO 00000KT 4SM 27/22 A2962 RMK T02700220 IEM_DS3505
ZBAA,1990-08-04 02:00,ZBAA 040200Z AUTO ////02KT 4SM 28/23 A2962 RMK T02800230 IEM_DS3505
ZBAA,1990-08-04 03:00,ZBAA 040300Z AUTO 18004KT 1 1/4SM 27/23 A2962 RMK SLP046 T02710233 57001 IEM_DS3505
ZBAA,1990-08-04 04:00,ZBAA 040400Z AUTO 18002KT 5SM 32/24 A2962 RMK T03200240 IEM_DS3505
ZBAA,1990-08-04 05:00,ZBAA 040500Z AUTO ////04KT 5SM 33/24 A2959 RMK T03300240 IEM_DS3505
ZBAA,1990-08-04 06:00,ZBAA 040600Z AUTO 18008KT 2 1/2SM 30/24 A2959 RMK SLP036 T02950235 4////0232 57010 IEM_DS3505
ZBAA,1990-08-04 07:00,ZBAA 040700Z AUTO ////06KT 5SM 35/24 A2959 RMK T03500240 IEM_DS3505
ZBAA,1990-08-04 08:00,ZBAA 040800Z AUTO ////04KT 5SM 34/24 A2956 RMK T03400240 IEM_DS3505
ZBAA,1990-08-04 09:00,ZBAA 040900Z AUTO 20004KT 2SM 30/24 A2956 RMK SLP030 T02980235 57006 IEM_DS3505
ZBAA,1990-08-04 10:00,ZBAA 041000Z AUTO ////04KT 5SM 31/24 A2956 RMK T03100240 IEM_DS3505
ZBAA,1990-08-04 11:00,ZBAA 041100Z AUTO 16002KT 4SM 30/24 A2959 RMK T03000240 IEM_DS3505
ZBAA,1990-08-04 12:00,ZBAA 041200Z AUTO 16002KT 2 1/2SM 28/24 A2959 RMK SLP033 T02820242 52003 IEM_DS3505
ZBAA,1990-08-04 13:00,ZBAA 041300Z AUTO 15002KT 3SM 28/24 A2959 RMK T02800240 IEM_DS3505
ZBAA,1990-08-04 14:00,ZBAA 041400Z AUTO 15002KT 2 1/2SM 27/24 A2959 RMK T02700240 IEM_DS3505
ZBAA,1990-08-04 15:00,ZBAA 041500Z AUTO 18006KT 3SM 27/24 A2959 RMK SLP037 T02710244 52004 IEM_DS3505
ZBAA,1990-08-04 18:00,ZBAA 041800Z AUTO 16006KT 3SM 26/24 RMK SLP033 T02600235 40306//// 57004 IEM_DS3505
ZBAA,1990-08-04 20:00,ZBAA 042000Z AUTO ////04KT 5SM 26/21 A2956 RMK T02600210 IEM_DS3505
ZBAA,1990-08-04 21:00,ZBAA 042100Z AUTO 20004KT 4SM 25/22 A2959 RMK SLP032 T02460219 57001 IEM_DS3505
ZBAA,1990-08-04 22:00,ZBAA 042200Z AUTO ////02KT 7SM 26/21 A2959 RMK T02600210 IEM_DS3505
ZBAA,1990-08-04 23:00,ZBAA 042300Z AUTO 12004KT 7SM 26/22 A2959 RMK T02600220 IEM_DS3505
ZBAA,1990-08-05 00:00,ZBAA 050000Z AUTO 20004KT 2SM 25/23 A2959 RMK SLP033 T02500230 52001 IEM_DS3505
ZBAA,1990-08-05 01:00,ZBAA 050100Z AUTO ////02KT 7SM 28/22 A2959 RMK T02800220 IEM_DS3505
ZBAA,1990-08-05 02:00,ZBAA 050200Z AUTO 16002KT 7SM 29/23 A2959 RMK T02900230 IEM_DS3505
ZBAA,1990-08-05 03:00,ZBAA 050300Z AUTO 18004KT 2SM 27/24 A2959 RMK SLP030 T02740243 57003 IEM_DS3505
ZBAA,1990-08-05 04:00,ZBAA 050400Z AUTO ////02KT 7SM 31/25 A2956 RMK T03100250 IEM_DS3505
ZBAA,1990-08-05 05:00,ZBAA 050500Z AUTO ////04KT 4SM 33/25 A2953 RMK T03300250 IEM_DS3505
ZBAA,1990-08-05 06:00,ZBAA 050600Z AUTO 20008KT 3SM 31/25 A2953 RMK SLP015 T03070250 4////0242 57015 IEM_DS3505
ZBAA,1990-08-05 07:00,ZBAA 050700Z AUTO 13002KT 7SM 32/26 A2953 RMK T03200260 IEM_DS3505
ZBAA,1990-08-05 08:00,ZBAA 050800Z AUTO ////02KT 7SM 33/26 A2953 RMK T03300260 IEM_DS3505
ZBAA,1990-08-05 09:00,ZBAA 050900Z AUTO 20004KT 3SM 31/25 A2953 RMK SLP012 T03080249 57003 IEM_DS3505
ZBAA,1990-08-05 10:00,ZBAA 051000Z AUTO 16002KT 7SM 32/25 A2953 RMK T03200250 IEM_DS3505
ZBAA,1990-08-05 11:00,ZBAA 051100Z AUTO 13002KT 7SM 31/26 A2953 RMK T03100260 IEM_DS3505
ZBAA,1990-08-05 12:00,ZBAA 051200Z AUTO 20002KT 4SM 30/26 A2956 RMK SLP019 T02960256 52007 IEM_DS3505
ZBAA,1990-08-05 13:00,ZBAA 051300Z AUTO 11002KT 7SM 30/26 A2959 RMK T03000260 IEM_DS3505
ZBAA,1990-08-05 15:00,ZBAA 051500Z AUTO 20002KT 4SM 29/26 RMK SLP030 T02900255 52011 IEM_DS3505
ZBAA,1990-08-05 18:00,ZBAA 051800Z AUTO 00000KT 4SM 28/26 RMK SLP031 T02790258 40311//// 52001 IEM_DS3505
ZBAA,1990-08-05 20:00,ZBAA 052000Z AUTO 00000KT 1SM 27/25 A2959 RMK T02700250 IEM_DS3505
ZBAA,1990-08-05 21:00,ZBAA 052100Z AUTO 36002KT 1SM 27/26 A2959 RMK SLP028 T02680260 57003 IEM_DS3505
ZBAA,1990-08-05 21:15,ZBAA 052115Z AUTO 08002KT 1SM RMK IEM_DS3505
ZBAA,1990-08-05 22:00,ZBAA 052200Z AUTO 09002KT 1SM 27/25 A2959 RMK T02700250 IEM_DS3505
ZBAA,1990-08-05 23:00,ZBAA 052300Z AUTO 34004KT 1SM 27/25 A2962 RMK T02700250 IEM_DS3505
ZBAA,1990-08-06 00:00,ZBAA 060000Z AUTO 09004KT 1SM 28/26 A2962 RMK SLP037 T02770257 52009 IEM_DS3505
ZBAA,1990-08-06 01:00,ZBAA 060100Z AUTO ////02KT 2SM 32/26 A2962 RMK T03200260 IEM_DS3505
ZBAA,1990-08-06 02:00,ZBAA 060200Z AUTO ////04KT 7SM 28/20 A2962 RMK T02800200 IEM_DS3505
ZBAA,1990-08-06 03:00,ZBAA 060300Z AUTO 02004KT 6SM 28/21 A2962 RMK SLP048 T02780206 52011 IEM_DS3505
ZBAA,1990-08-06 04:00,ZBAA 060400Z AUTO ////04KT 6SM 34/22 A2962 RMK T03400220 IEM_DS3505
ZBAA,1990-08-06 05:00,ZBAA 060500Z AUTO ////02KT 6SM 34/23 A2962 RMK T03400230 IEM_DS3505
ZBAA,1990-08-06 06:00,ZBAA 060600Z AUTO 04004KT 7SM 31/23 A2959 RMK SLP039 T03060228 4////0263 57009 IEM_DS3505
ZBAA,1990-08-06 07:00,ZBAA 060700Z AUTO ////06KT 6SM 35/23 A2959 RMK T03500230 IEM_DS3505
ZBAA,1990-08-06 08:00,ZBAA 060800Z AUTO ////02KT 7SM 34/24 A2959 RMK T03400240 IEM_DS3505
ZBAA,1990-08-06 09:00,ZBAA 060900Z AUTO 07004KT 4SM 29/25 A2959 RMK SLP031 T02860252 57008 IEM_DS3505
ZBAA,1990-08-06 10:00,ZBAA 061000Z AUTO 00000KT 6SM 31/24 A2959 RMK T03100240 IEM_DS3505
ZBAA,1990-08-06 11:00,ZBAA 061100Z AUTO 00000KT 6SM 30/24 A2959 RMK T03000240 IEM_DS3505
ZBAA,1990-08-06 12:00,ZBAA 061200Z AUTO 00000KT 3SM 28/26 A2962 RMK 60001 SLP037 T02780260 52006 IEM_DS3505
ZBAA,1990-08-06 13:00,ZBAA 061300Z AUTO 10002KT 7SM 29/24 A2962 RMK T02900240 IEM_DS3505
ZBAA,1990-08-06 14:00,ZBAA 061400Z AUTO ////02KT 7SM 29/25 A2965 RMK T02900250 IEM_DS3505
ZBAA,1990-08-06 15:00,ZBAA 061500Z AUTO 20002KT 2SM 27/26 RMK SLP043 T02700256 52006 IEM_DS3505
ZBAA,1990-08-06 18:00,ZBAA 061800Z AUTO 02004KT 2SM 27/25 RMK SLP044 T02670249 40308//// 52001 IEM_DS3505
ZBAA,1990-08-06 20:00,ZBAA 062000Z AUTO 09002KT 5SM 26/23 A2962 RMK T02600230 IEM_DS3505
ZBAA,1990-08-06 21:00,ZBAA 062100Z AUTO 04002KT 2SM 26/24 A2962 RMK SLP044 T02570243 54000 IEM_DS3505
ZBAA,1990-08-06 22:00,ZBAA 062200Z AUTO 11002KT 4SM 26/23 A2962 RMK T02600230 IEM_DS3505
ZBAA,1990-08-06 23:00,ZBAA 062300Z AUTO ////02KT 3SM 26/24 A2965 RMK T02600240 IEM_DS3505
ZBAA,1990-08-07 00:00,ZBAA 070000Z AUTO 04002KT 1 1/4SM 25/24 A2965 RMK 60002 70004 SLP046 T02520240 52002 IEM_DS3505
ZBAA,1990-08-07 03:00,ZBAA 070300Z AUTO 00000KT 1SM 27/25 RMK SLP044 T02670254 57002 IEM_DS3505
ZBAA,1990-08-07 04:00,ZBAA 070400Z AUTO ////02KT 2 1/2SM 29/25 A2962 RMK T02900250 IEM_DS3505
ZBAA,1990-08-07 05:00,ZBAA 070500Z AUTO ////02KT 2 1/2SM 30/25 A2962 RMK T03000250 IEM_DS3505
ZBAA,1990-08-07 06:00,ZBAA 070600Z AUTO 34006KT 2 1/2SM 26/24 A2959 RMK 60002 SLP039 T02640241 4////0249 57005 IEM_DS3505
ZBAA,1990-08-07 09:00,ZBAA 070900Z AUTO 04004KT 5SM 24/23 A2962 RMK SLP047 T02410226 52007 IEM_DS3505
ZBAA,1990-08-07 11:00,ZBAA 071100Z AUTO 01002KT 6SM 25/24 A2962 RMK T02500240 IEM_DS3505
ZBAA,1990-08-07 12:00,ZBAA 071200Z AUTO 36002KT 6SM 24/22 A2965 RMK 60024 SLP056 T02400220 52009 IEM_DS3505
ZBAA,1990-08-07 13:00,ZBAA 071300Z AUTO 32004KT 6SM 24/23 A2968 RMK T02400230 IEM_DS3505
ZBAA,1990-08-07 14:00,ZBAA 071400Z AUTO 19002KT 6SM 24/23 A2971 RMK T02400230 IEM_DS3505
ZBAA,1990-08-07 15:00,ZBAA 071500Z AUTO 27002KT 4SM 24/23 A2968 RMK SLP063 T02350226 52007 IEM_DS3505
ZBAA,1990-08-07 18:00,ZBAA 071800Z AUTO 00000KT 4SM 24/23 RMK 60012 SLP061 T02370230 40281//// 57002 IEM_DS3505
ZBAA,1990-08-07 21:00,ZBAA 072100Z AUTO 27002KT 11SM 23/17 A2968 RMK 70035 SLP065 T02310173 52004 IEM_DS3505
ZBAA,1990-08-07 23:00,ZBAA 072300Z AUTO 34004KT 6SM 23/20 A2968 RMK T02300200 IEM_DS3505
ZBAA,1990-08-08 00:00,ZBAA 080000Z AUTO 00000KT 19SM 23/18 A2971 RMK 70035 SLP071 T02310182 52006 IEM_DS3505
ZBAA,1990-08-08 01:00,ZBAA 080100Z AUTO 30002KT 6SM 25/18 A2971 RMK T02500180 IEM_DS3505
ZBAA,1990-08-08 02:00,ZBAA 080200Z AUTO ////04KT 7SM 26/19 A2971 RMK T02600190 IEM_DS3505
ZBAA,1990-08-08 03:00,ZBAA 080300Z AUTO 29002KT 7SM 26/19 A2974 RMK SLP076 T02600189 52005 IEM_DS3505
ZBAA,1990-08-08 04:00,ZBAA 080400Z AUTO ////02KT 6SM 31/19 A2971 RMK T03100190 IEM_DS3505
ZBAA,1990-08-08 05:00,ZBAA 080500Z AUTO ////04KT 6SM 33/18 A2971 RMK T03300180 IEM_DS3505
ZBAA,1990-08-08 06:00,ZBAA 080600Z AUTO 22006KT 7SM 28/19 A2971 RMK SLP070 T02850190 4////0221 57006 IEM_DS3505
ZBAA,1990-08-08 07:00,ZBAA 080700Z AUTO 18004KT 6SM 33/20 A2968 RMK T03300200 IEM_DS3505
ZBAA,1990-08-08 08:00,ZBAA 080800Z AUTO ////04KT 6SM 31/20 A2968 RMK T03100200 IEM_DS3505
ZBAA,1990-08-08 09:00,ZBAA 080900Z AUTO 20008KT 4SM 27/19 A2968 RMK SLP062 T02720194 57008 IEM_DS3505
ZBAA,1990-08-08 10:00,ZBAA 081000Z AUTO 00000KT 1 1/4SM 22/21 A2968 RMK SLP065 T02180207 40291//// 57002 IEM_DS3505
ZBAA,1990-08-08 11:00,ZBAA 081100Z AUTO ////04KT 6SM 26/21 A2968 RMK T02600210 IEM_DS3505
ZBAA,1990-08-08 12:00,ZBAA 081200Z AUTO 16006KT 4SM 25/22 A2968 RMK SLP063 T02490216 52007 IEM_DS3505
ZBAA,1990-08-08 13:00,ZBAA 081300Z AUTO 12002KT 6SM 24/20 A2971 RMK T02400200 IEM_DS3505
ZBAA,1990-08-08 14:00,ZBAA 081400Z AUTO 11002KT 6SM 23/21 A2971 RMK T02300210 IEM_DS3505
ZBAA,1990-08-08 15:00,ZBAA 081500Z AUTO 00000KT 5SM 22/20 A2971 RMK SLP067 T02240203 52004 IEM_DS3505
ZBAA,1990-08-08 18:00,ZBAA 081800Z AUTO 00000KT 1 1/4SM 22/21 RMK SLP065 T02180207 40291//// 57002 IEM_DS3505
ZBAA,1990-08-08 20:00,ZBAA 082000Z AUTO 00000KT 6SM 21/19 A2965 RMK T02100190 IEM_DS3505
ZBAA,1990-08-08 21:00,ZBAA 082100Z AUTO 00000KT 1 1/2SM 21/20 A2965 RMK SLP057 T02080199 57008 IEM_DS3505
ZBAA,1990-08-08 22:00,ZBAA 082200Z AUTO 00000KT 2SM 21/20 A2965 RMK T02100200 IEM_DS3505
ZBAA,1990-08-08 23:00,ZBAA 082300Z AUTO 00000KT 2SM 23/21 A2965 RMK T02300210 IEM_DS3505
ZBAA,1990-08-09 00:00,ZBAA 090000Z AUTO 36002KT 7SM 24/20 A2968 RMK SLP058 T02400197 52001 IEM_DS3505
ZBAA,1990-08-09 01:00,ZBAA 090100Z AUTO 00000KT 5SM 28/20 A2965 RMK T02800200 IEM_DS3505
ZBAA,1990-08-09 02:00,ZBAA 090200Z AUTO 32002KT 7SM 30/20 A2965 RMK T03000200 IEM_DS3505
ZBAA,1990-08-09 03:00,ZBAA 090300Z AUTO 20004KT 2SM 28/19 A2965 RMK SLP054 T02750194 57004 IEM_DS3505
ZBAA,1990-08-09 04:00,ZBAA 090400Z AUTO ////02KT 6SM 33/21 A2965 RMK T03300210 IEM_DS3505
ZBAA,1990-08-09 06:00,ZBAA 090600Z AUTO 16006KT 6SM 28/20 A2959 RMK SLP043 T02830202 4////0205 57011 IEM_DS3505
ZBAA,1990-08-09 07:00,ZBAA 090700Z AUTO ////04KT 6SM 32/22 A2959 RMK T03200220 IEM_DS3505
ZBAA,1990-08-09 08:00,ZBAA 090800Z AUTO ////06KT 7SM 31/21 A2956 RMK T03100210 IEM_DS3505
ZBAA,1990-08-09 09:00,ZBAA 090900Z AUTO 20010KT 6SM 28/20 A2956 RMK SLP031 T02800203 57012 IEM_DS3505
ZBAA,1990-08-09 10:00,ZBAA 091000Z AUTO ////04KT 7SM 30/21 A2956 RMK T03000210 IEM_DS3505
ZBAA,1990-08-09 11:00,ZBAA 091100Z AUTO 21002KT 6SM 28/20 A2956 RMK T02800200 IEM_DS3505
ZBAA,1990-08-09 12:00,ZBAA 091200Z AUTO 20006KT 2 1/2SM 26/20 A2959 RMK SLP032 T02570198 52001 IEM_DS3505
ZBAA,1990-08-09 13:00,ZBAA 091300Z AUTO 29016G33KT 7SM 24/14 A2968 RMK T02400140 IEM_DS3505
ZBAA,1990-08-09 14:00,ZBAA 091400Z AUTO ////04KT 7SM 19/17 A2968 RMK T01900170 IEM_DS3505
ZBAA,1990-08-09 15:00,ZBAA 091500Z AUTO 02004KT 6SM 19/17 A2962 RMK SLP048 T01900167 52016 IEM_DS3505
ZBAA,1990-08-09 16:00,ZBAA 091600Z AUTO ////02KT 7SM 19/18 A2962 RMK T01900180 IEM_DS3505
ZBAA,1990-08-09 18:00,ZBAA 091800Z AUTO 00000KT 9SM 18/17 RMK 60016 SLP040 T01850167 40296//// 57008 IEM_DS3505
ZBAA,1990-08-09 20:00,ZBAA 092000Z AUTO 22002KT 7SM 18/16 A2959 RMK T01800160 IEM_DS3505
ZBAA,1990-08-09 21:00,ZBAA 092100Z AUTO 00000KT 9SM 18/16 A2959 RMK 70016 SLP039 T01770162 57001 IEM_DS3505
ZBAA,1990-08-09 22:00,ZBAA 092200Z AUTO 32002KT 7SM 18/17 A2962 RMK T01800170 IEM_DS3505
ZBAA,1990-08-09 23:00,ZBAA 092300Z AUTO 00000KT 7SM 22/16 A2962 RMK T02200160 IEM_DS3505
ZBAA,1990-08-10 00:00,ZBAA 100000Z AUTO 00000KT 11SM 22/16 A2962 RMK 70016 SLP041 T02150163 52002 IEM_DS3505
ZBAA,1990-08-10 02:00,ZBAA 100200Z AUTO ////02KT 6SM 30/17 A2962 RMK T03000170 IEM_DS3505
ZBAA,1990-08-10 03:00,ZBAA 100300Z AUTO 20006KT 6SM 26/17 RMK SLP042 T02590170 52001 IEM_DS3505
ZBAA,1990-08-10 04:00,ZBAA 100400Z AUTO ////02KT 6SM 30/17 A2959 RMK T03000170 IEM_DS3505
ZBAA,1990-08-10 05:00,ZBAA 100500Z AUTO 00000KT 6SM 30/19 A2959 RMK T03000190 IEM_DS3505
ZBAA,1990-08-10 06:00,ZBAA 100600Z AUTO 18004KT 9SM 27/18 A2959 RMK SLP031 T02660182 4////0171 57011 IEM_DS3505
ZBAA,1990-08-10 07:00,ZBAA 100700Z AUTO ////02KT 6SM 32/19 A2956 RMK T03200190 IEM_DS3505
ZBAA,1990-08-10 08:00,ZBAA 100800Z AUTO ////02KT 6SM 31/19 A2956 RMK T03100190 IEM_DS3505
ZBAA,1990-08-10 09:00,ZBAA 100900Z AUTO 16008KT 6SM 28/19 A2956 RMK SLP027 T02770190 57004 IEM_DS3505
ZBAA,1990-08-10 10:00,ZBAA 101000Z AUTO ////06KT 6SM 28/20 A2956 RMK T02800200 IEM_DS3505
ZBAA,1990-08-10 11:00,ZBAA 101100Z AUTO 15002KT 6SM 26/20 A2959 RMK T02600200 IEM_DS3505
ZBAA,1990-08-10 12:00,ZBAA 101200Z AUTO 16004KT 6SM 25/20 A2959 RMK SLP033 T02490200 52006 IEM_DS3505
ZBAA,1990-08-10 13:00,ZBAA 101300Z AUTO 15002KT 6SM 25/20 A2962 RMK T02500200 IEM_DS3505
ZBAA,1990-08-10 13:08,ZBAA 101308Z AUTO 15002KT 6SM 25/20 A2962 RMK T02500200 IEM_DS3505
ZBAA,1990-08-10 14:00,ZBAA 101400Z AUTO 12002KT 6SM 24/20 A2962 RMK T02400200 IEM_DS3505
ZBAA,1990-08-10 15:00,ZBAA 101500Z AUTO 00000KT 4SM 23/20 A2962 RMK SLP041 T02270204 52008 IEM_DS3505
ZBAA,1990-08-10 16:00,ZBAA 101600Z AUTO 09002KT 6SM 23/20 A2962 RMK T02300200 IEM_DS3505
ZBAA,1990-08-10 17:00,ZBAA 101700Z AUTO 00000KT 6SM 23/20 A2962 RMK T02300200 IEM_DS3505
ZBAA,1990-08-10 18:00,ZBAA 101800Z AUTO 00000KT 4SM 23/21 RMK SLP041 T02280207 40289//// 54000 IEM_DS3505
ZBAA,1990-08-10 20:00,ZBAA 102000Z AUTO 00000KT 4SM 23/20 A2962 RMK T02300200 IEM_DS3505
ZBAA,1990-08-10 21:00,ZBAA 102100Z AUTO 00000KT 2 1/2SM 22/20 A2962 RMK SLP039 T02250205 57002 IEM_DS3505
ZBAA,1990-08-10 22:00,ZBAA 102200Z AUTO 02002KT 4SM 23/20 A2959 RMK T02300200 IEM_DS3505
ZBAA,1990-08-10 23:00,ZBAA 102300Z AUTO ////04KT 5SM 24/20 A2962 RMK T02400200 IEM_DS3505
ZBAA,1990-08-11 00:00,ZBAA 110000Z AUTO 07002KT 2 1/2SM 24/20 RMK SLP040 T02350198 52001 IEM_DS3505
ZBAA,1990-08-11 01:00,ZBAA 110100Z AUTO 00000KT 5SM 25/21 A2965 RMK T02500210 IEM_DS3505
ZBAA,1990-08-11 02:00,ZBAA 110200Z AUTO 00000KT 5SM 26/21 A2965 RMK T02600210 IEM_DS3505
ZBAA,1990-08-11 03:00,ZBAA 110300Z AUTO 36002KT 3SM 24/21 A2962 RMK SLP044 T02370208 52004 IEM_DS3505
ZBAA,1990-08-11 04:00,ZBAA 110400Z AUTO ////04KT 3SM 25/21 A2962 RMK T02500210 IEM_DS3505
ZBAA,1990-08-11 05:00,ZBAA 110500Z AUTO ////06KT 4SM 29/22 A2959 RMK T02900220 IEM_DS3505
ZBAA,1990-08-11 06:00,ZBAA 110600Z AUTO 07002KT 3SM 27/21 A2959 RMK 60000 SLP034 T02680213 4////0222 57010 IEM_DS3505
ZBAA,1990-08-11 07:00,ZBAA 110700Z AUTO 00000KT 3SM 26/22 A2959 RMK T02600220 IEM_DS3505
ZBAA,1990-08-11 08:00,ZBAA 110800Z AUTO 00000KT 3SM 27/22 A2959 RMK T02700220 IEM_DS3505
ZBAA,1990-08-11 09:00,ZBAA 110900Z AUTO 36006KT 2 1/2SM 25/22 A2959 RMK SLP034 T02540225 54000 IEM_DS3505
ZBAA,1990-08-11 10:00,ZBAA 111000Z AUTO ////02KT 7SM 26/21 A2959 RMK T02600210 IEM_DS3505
ZBAA,1990-08-11 11:00,ZBAA 111100Z AUTO 00000KT 7SM 25/21 A2959 RMK T02500210 IEM_DS3505
ZBAA,1990-08-11 12:00,ZBAA 111200Z AUTO 07004KT 2 1/2SM 24/22 A2959 RMK SLP034 T02430221 54000 IEM_DS3505
ZBAA,1990-08-11 13:00,ZBAA 111300Z AUTO 00000KT 7SM 25/22 A2965 RMK T02500220 IEM_DS3505
ZBAA,1990-08-11 14:00,ZBAA 111400Z AUTO 00000KT 7SM 25/22 A2962 RMK T02500220 IEM_DS3505
ZBAA,1990-08-11 15:00,ZBAA 111500Z AUTO 36004KT 2 1/2SM 24/22 A2965 RMK SLP049 T02360218 52015 IEM_DS3505
ZBAA,1990-08-11 16:00,ZBAA 111600Z AUTO ////02KT 5SM 25/22 RMK T02500220 IEM_DS3505
ZBAA,1990-08-11 18:00,ZBAA 111800Z AUTO 32006KT 3SM 23/22 RMK 60012 SLP040 T02290220 40269//// 57009 IEM_DS3505
ZBAA,1990-08-11 20:00,ZBAA 112000Z AUTO 00000KT 5SM 23/21 A2962 RMK T02300210 IEM_DS3505
ZBAA,1990-08-11 21:00,ZBAA 112100Z AUTO 00000KT 2SM 22/22 A2965 RMK 70012 SLP055 T02250216 52015 IEM_DS3505
ZBAA,1990-08-11 22:00,ZBAA 112200Z AUTO 16004KT 2SM 23/22 A2968 RMK T02300220 IEM_DS3505
ZBAA,1990-08-11 23:00,ZBAA 112300Z AUTO 00000KT 2 1/2SM 24/22 A2968 RMK T02400220 IEM_DS3505
ZBAA,1990-08-12 00:00,ZBAA 120000Z AUTO 00000KT 1SM 24/22 A2971 RMK 70012 SLP066 T02370224 52011 IEM_DS3505
ZBAA,1990-08-12 01:00,ZBAA 120100Z AUTO ////02KT 5SM 27/22 A2971 RMK T02700220 IEM_DS3505
ZBAA,1990-08-12 02:00,ZBAA 120200Z AUTO 00000KT 7SM 27/22 A2971 RMK T02700220 IEM_DS3505
ZBAA,1990-08-12 03:00,ZBAA 120300Z AUTO 02002KT 2 1/2SM 27/22 RMK SLP067 T02680224 52001 IEM_DS3505
ZBAA,1990-08-12 04:00,ZBAA 120400Z AUTO ////02KT 7SM 31/23 A2968 RMK T03100230 IEM_DS3505
ZBAA,1990-08-12 05:00,ZBAA 120500Z AUTO ////02KT 7SM 33/23 A2968 RMK T03300230 IEM_DS3505
ZBAA,1990-08-12 06:00,ZBAA 120600Z AUTO 36002KT 3SM 29/23 A2968 RMK SLP060 T02930228 57007 IEM_DS3505
ZBAA,1990-08-12 07:00,ZBAA 120700Z AUTO ////04KT 6SM 34/23 A2965 RMK T03400230 IEM_DS3505
ZBAA,1990-08-12 08:00,ZBAA 120800Z AUTO 00000KT 6SM 34/23 A2965 RMK T03400230 IEM_DS3505
ZBAA,1990-08-12 09:00,ZBAA 120900Z AUTO 00000KT 4SM 30/22 A2965 RMK SLP050 T03050224 57009 IEM_DS3505
ZBAA,1990-08-12 10:00,ZBAA 121000Z AUTO 00000KT 6SM 31/24 A2965 RMK T03100240 IEM_DS3505
ZBAA,1990-08-12 11:00,ZBAA 121100Z AUTO 12004KT 4SM 29/24 A2965 RMK T02900240 IEM_DS3505
ZBAA,1990-08-12 12:00,ZBAA 121200Z AUTO 09002KT 2SM 28/24 A2965 RMK SLP056 T02790240 52005 IEM_DS3505
ZBAA,1990-08-12 13:00,ZBAA 121300Z AUTO 14002KT 3SM 27/24 A2968 RMK T02700240 IEM_DS3505
ZBAA,1990-08-12 14:00,ZBAA 121400Z AUTO 00000KT 3SM 27/24 A2968 RMK T02700240 IEM_DS3505
ZBAA,1990-08-12 15:00,ZBAA 121500Z AUTO 00000KT 2 1/2SM 26/24 A2968 RMK SLP064 T02650242 52008 IEM_DS3505
ZBAA,1990-08-12 18:00,ZBAA 121800Z AUTO 04002KT 1 1/4SM 26/24 RMK SLP054 T02580242 40311//// 57009 IEM_DS3505
ZBAA,1990-08-12 20:00,ZBAA 122000Z AUTO 32004KT 2 1/2SM 26/23 A2965 RMK T02600230 IEM_DS3505
ZBAA,1990-08-12 21:00,ZBAA 122100Z AUTO 34002KT 1 1/2SM 25/24 A2965 RMK 70004 SLP058 T02490237 52004 IEM_DS3505
ZBAA,1990-08-12 22:00,ZBAA 122200Z AUTO ////06KT 2 1/2SM 24/22 A2968 RMK T02400220 IEM_DS3505
ZBAA,1990-08-12 23:00,ZBAA 122300Z AUTO ////06KT 7SM 22/19 A2971 RMK T02200190 IEM_DS3505
ZBAA,1990-08-13 00:00,ZBAA 130000Z AUTO 04006KT 7SM 22/19 A2974 RMK 60008 70008 SLP077 T02210186 52018 IEM_DS3505
ZBAA,1990-08-13 01:00,ZBAA 130100Z AUTO 31004KT 7SM 22/20 A2974 RMK T02200200 IEM_DS3505
ZBAA,1990-08-13 02:00,ZBAA 130200Z AUTO ////02KT 6SM 24/21 A2971 RMK T02400210 IEM_DS3505
ZBAA,1990-08-13 03:00,ZBAA 130300Z AUTO 32002KT 11SM 24/19 A2971 RMK SLP074 T02450186 57003 IEM_DS3505
ZBAA,1990-08-13 04:00,ZBAA 130400Z AUTO ////04KT 6SM 28/19 A2968 RMK T02800190 IEM_DS3505
ZBAA,1990-08-13 05:00,ZBAA 130500Z AUTO ////04KT 6SM 30/19 A2968 RMK T03000190 IEM_DS3505
ZBAA,1990-08-13 06:00,ZBAA 130600Z AUTO 29002KT 12SM 28/16 A2965 RMK SLP059 T02780155 4////0219 57014 IEM_DS3505
ZBAA,1990-08-13 07:00,ZBAA 130700Z AUTO ////02KT 6SM 32/20 A2965 RMK T03200200 IEM_DS3505
ZBAA,1990-08-13 08:00,ZBAA 130800Z AUTO 26002KT 6SM 31/19 A2962 RMK T03100190 IEM_DS3505
ZBAA,1990-08-13 09:00,ZBAA 130900Z AUTO 20002KT 9SM 29/15 A2962 RMK SLP046 T02880154 57013 IEM_DS3505
ZBAA,1990-08-13 10:00,ZBAA 131000Z AUTO 00000KT 6SM 28/21 A2962 RMK T02800210 IEM_DS3505
ZBAA,1990-08-13 11:00,ZBAA 131100Z AUTO 17002KT 6SM 26/19 A2962 RMK T02600190 IEM_DS3505
ZBAA,1990-08-13 12:00,ZBAA 131200Z AUTO 20002KT 9SM 25/20 A2962 RMK SLP046 T02520202 57001 IEM_DS3505
ZBAA,1990-08-13 15:00,ZBAA 131500Z AUTO 18002KT 7SM 23/21 RMK SLP051 T02330212 52005 IEM_DS3505
ZBAA,1990-08-13 18:00,ZBAA 131800Z AUTO 36002KT 6SM 22/21 RMK SLP050 T02220207 40295//// 57001 IEM_DS3505
ZBAA,1990-08-13 20:00,ZBAA 132000Z AUTO 00000KT 2SM 22/20 A2965 RMK T02200200 IEM_DS3505
ZBAA,1990-08-13 21:00,ZBAA 132100Z AUTO 02002KT 4SM 21/20 RMK 70004 SLP050 T02120201 54000 IEM_DS3505
ZBAA,1990-08-13 22:00,ZBAA 132200Z AUTO 00000KT 2 1/2SM 22/20 A2965 RMK T02200200 IEM_DS3505
ZBAA,1990-08-13 23:00,ZBAA 132300Z AUTO 34004KT 6SM 22/20 A2965 RMK T02200200 IEM_DS3505
ZBAA,1990-08-14 00:00,ZBAA 140000Z AUTO 07004KT 7SM 24/20 A2965 RMK SLP088 T02350205 IEM_DS3505
ZBAA,1990-08-14 01:00,ZBAA 140100Z AUTO ////02KT 6SM 27/21 A2965 RMK T02700210 IEM_DS3505
ZBAA,1990-08-14 03:00,ZBAA 140300Z AUTO 20002KT 7SM 29/20 A2968 RMK SLP059 T02880196 52002 IEM_DS3505
ZBAA,1990-08-14 04:00,ZBAA 140400Z AUTO ////02KT 6SM 35/20 A2965 RMK T03500200 IEM_DS3505
ZBAA,1990-08-14 05:00,ZBAA 140500Z AUTO ////04KT 6SM 35/23 A2965 RMK T03500230 IEM_DS3505
ZBAA,1990-08-14 06:00,ZBAA 140600Z AUTO 20004KT 6SM 36/23 A2965 RMK T03600230 4////0209 57007 IEM_DS3505
ZBAA,1990-08-14 07:00,ZBAA 140700Z AUTO ////04KT 7SM 37/22 A2962 RMK T03700220 IEM_DS3505
ZBAA,1990-08-14 08:00,ZBAA 140800Z AUTO ////06KT 7SM 35/23 A2962 RMK T03500230 IEM_DS3505
ZBAA,1990-08-14 09:00,ZBAA 140900Z AUTO 20008KT 7SM 32/22 A2962 RMK SLP045 T03170221 57006 IEM_DS3505
ZBAA,1990-08-14 10:00,ZBAA 141000Z AUTO ////04KT 7SM 32/23 A2962 RMK T03200230 IEM_DS3505
ZBAA,1990-08-14 11:00,ZBAA 141100Z AUTO ////04KT 6SM 30/23 A2965 RMK T03000230 IEM_DS3505
ZBAA,1990-08-14 12:00,ZBAA 141200Z AUTO 20006KT 6SM 28/23 A2965 RMK SLP056 T02840234 52010 IEM_DS3505
ZBAA,1990-08-14 13:00,ZBAA 141300Z AUTO 06002KT 7SM 27/24 A2971 RMK T02700240 IEM_DS3505
ZBAA,1990-08-14 14:00,ZBAA 141400Z AUTO 16004KT 6SM 27/24 A2971 RMK T02700240 IEM_DS3505
ZBAA,1990-08-14 15:00,ZBAA 141500Z AUTO 18006KT 9SM 28/15 A2971 RMK SLP066 T02780153 52011 IEM_DS3505
ZBAA,1990-08-14 18:00,ZBAA 141800Z AUTO 00000KT 9SM 23/18 RMK SLP080 T02270185 40326//// 52014 IEM_DS3505
ZBAA,1990-08-14 20:00,ZBAA 142000Z AUTO ////02KT 2SM 25/23 A2977 RMK T02500230 IEM_DS3505
ZBAA,1990-08-14 21:00,ZBAA 142100Z AUTO 02004KT 2SM 23/16 A2977 RMK SLP091 T02310159 IEM_DS3505
ZBAA,1990-08-14 22:00,ZBAA 142200Z AUTO ////04KT 2SM 24/22 A2980 RMK T02400220 IEM_DS3505
ZBAA,1990-08-14 23:00,ZBAA 142300Z AUTO ////02KT 2 1/2SM 25/22 A2983 RMK T02500220 IEM_DS3505
ZBAA,1990-08-15 00:00,ZBAA 150000Z AUTO 00000KT 2 1/2SM 24/21 A2983 RMK SLP109 T02370213 52018 IEM_DS3505
ZBAA,1990-08-15 01:00,ZBAA 150100Z AUTO ////02KT 3SM 27/23 A2983 RMK T02700230 IEM_DS3505
ZBAA,1990-08-15 02:00,ZBAA 150200Z AUTO ////02KT 3SM 27/23 A2985 RMK T02700230 IEM_DS3505
ZBAA,1990-08-15 03:00,ZBAA 150300Z AUTO 36004KT 1 1/4SM 25/23 A2985 RMK SLP117 T02500226 52008 IEM_DS3505
ZBAA,1990-08-15 04:00,ZBAA 150400Z AUTO 00000KT 4SM 28/24 A2985 RMK T02800240 IEM_DS3505
ZBAA,1990-08-15 05:00,ZBAA 150500Z AUTO 00000KT 4SM 30/24 A2985 RMK T03000240 IEM_DS3505
ZBAA,1990-08-15 06:00,ZBAA 150600Z AUTO 00000KT 2SM 27/23 A2985 RMK SLP116 T02730234 4////0227 57001 IEM_DS3505
ZBAA,1990-08-15 07:00,ZBAA 150700Z AUTO 15002KT 4SM 31/24 A2983 RMK T03100240 IEM_DS3505
ZBAA,1990-08-15 08:00,ZBAA 150800Z AUTO 00000KT 4SM 30/24 A2985 RMK T03000240 IEM_DS3505
ZBAA,1990-08-15 09:00,ZBAA 150900Z AUTO 34002KT 2SM 28/24 A2983 RMK SLP114 T02770237 57002 IEM_DS3505
ZBAA,1990-08-15 10:00,ZBAA 151000Z AUTO 15002KT 4SM 29/24 A2985 RMK T02900240 IEM_DS3505
ZBAA,1990-08-15 11:00,ZBAA 151100Z AUTO ////06KT 4SM 28/23 A2985 RMK T02800230 IEM_DS3505
ZBAA,1990-08-15 12:00,ZBAA 151200Z AUTO 16006KT 1 1/4SM 26/22 A2988 RMK SLP126 T02560225 52012 IEM_DS3505
ZBAA,1990-08-15 13:00,ZBAA 151300Z AUTO ////04KT 7SM 26/22 A2988 RMK T02600220 IEM_DS3505
ZBAA,1990-08-15 14:00,ZBAA 151400Z AUTO 19002KT 7SM 25/22 A2991 RMK T02500220 IEM_DS3505
ZBAA,1990-08-15 15:00,ZBAA 151500Z AUTO 00000KT 2SM 24/21 A2988 RMK SLP129 T02430213 52003 IEM_DS3505
ZBAA,1990-08-15 18:00,ZBAA 151800Z AUTO 00000KT 7SM 24/21 RMK SLP136 T02420207 40280//// 52007 IEM_DS3505
ZBAA,1990-08-15 20:00,ZBAA 152000Z AUTO 00000KT 7SM 24/22 A2991 RMK T02400220 IEM_DS3505
ZBAA,1990-08-15 21:00,ZBAA 152100Z AUTO 20004KT 9SM 23/19 A2991 RMK SLP136 T02310187 54000 IEM_DS3505
ZBAA,1990-08-15 22:00,ZBAA 152200Z AUTO ////04KT 7SM 23/21 A2991 RMK T02300210 IEM_DS3505
ZBAA,1990-08-15 23:00,ZBAA 152300Z AUTO ////04KT 24/21 A2991 RMK T02400210 IEM_DS3505
ZBAA,1990-08-16 00:00,ZBAA 160000Z AUTO 00000KT 6SM 24/20 A2991 RMK SLP140 T02410195 52004 IEM_DS3505
ZBAA,1990-08-16 02:00,ZBAA 160200Z AUTO 00000KT 7SM 30/19 A2991 RMK T03000190 IEM_DS3505
ZBAA,1990-08-16 03:00,ZBAA 160300Z AUTO 22008KT 9SM 28/15 A2991 RMK SLP138 T02830153 57002 IEM_DS3505
ZBAA,1990-08-16 04:00,ZBAA 160400Z AUTO 00000KT 6SM 33/21 A2991 RMK T03300210 IEM_DS3505
ZBAA,1990-08-16 05:00,ZBAA 160500Z AUTO ////02KT 6SM 34/18 A2988 RMK T03400180 IEM_DS3505
ZBAA,1990-08-16 06:00,ZBAA 160600Z AUTO 20008KT 12SM 30/17 A2985 RMK SLP128 T03010167 4////0222 57010 IEM_DS3505
ZBAA,1990-08-16 07:00,ZBAA 160700Z AUTO 18008KT 6SM 34/18 A2985 RMK T03400180 IEM_DS3505
ZBAA,1990-08-16 08:00,ZBAA 160800Z AUTO ////06KT 6SM 32/18 A2985 RMK T03200180 IEM_DS3505
ZBAA,1990-08-16 09:00,ZBAA 160900Z AUTO 20008KT 16SM 29/17 A2985 RMK SLP119 T02880170 57009 IEM_DS3505
ZBAA,1990-08-16 10:00,ZBAA 161000Z AUTO ////06KT 7SM 29/18 A2985 RMK T02900180 IEM_DS3505
ZBAA,1990-08-16 12:00,ZBAA 161200Z AUTO 18008KT 12SM 26/19 A2985 RMK SLP126 T02600189 52007 IEM_DS3505
ZBAA,1990-08-16 14:00,ZBAA 161400Z AUTO 12002KT 7SM 24/19 A2988 RMK T02400190 IEM_DS3505
ZBAA,1990-08-16 15:00,ZBAA 161500Z AUTO 20002KT 12SM 24/19 RMK SLP129 T02410186 52003 IEM_DS3505
ZBAA,1990-08-16 18:00,ZBAA 161800Z AUTO 00000KT 6SM 22/20 RMK SLP126 T02220197 40302//// 57003 IEM_DS3505
ZBAA,1990-08-16 21:00,ZBAA 162100Z AUTO 00000KT 5SM 22/20 A2985 RMK SLP126 T02200197 54000 IEM_DS3505
ZBAA,1990-08-16 23:00,ZBAA 162300Z AUTO 35002KT 7SM 24/20 A2988 RMK T02400200 IEM_DS3505
ZBAA,1990-08-17 00:00,ZBAA 170000Z AUTO 00000KT 5SM 24/19 A2988 RMK SLP130 T02410193 52004 IEM_DS3505
ZBAA,1990-08-17 01:00,ZBAA 170100Z AUTO ////04KT 6SM 29/21 A2988 RMK T02900210 IEM_DS3505
ZBAA,1990-08-17 02:00,ZBAA 170200Z AUTO ////02KT 6SM 31/21 A2988 RMK T03100210 IEM_DS3505
ZBAA,1990-08-17 03:00,ZBAA 170300Z AUTO 00000KT 4SM 27/20 A2985 RMK SLP125 T02720197 57005 IEM_DS3505
ZBAA,1990-08-17 04:00,ZBAA 170400Z AUTO ////02KT 6SM 23/20 A2985 RMK T02300200 IEM_DS3505
ZBAA,1990-08-17 05:00,ZBAA 170500Z AUTO ////04KT 6SM A2983 RMK IEM_DS3505
ZBAA,1990-08-17 06:00,ZBAA 170600Z AUTO 14002KT 4SM 30/19 A2980 RMK SLP103 T03000194 4////0215 57022 IEM_DS3505
ZBAA,1990-08-17 07:00,ZBAA 170700Z AUTO ////04KT 6SM 34/20 A2980 RMK T03400200 IEM_DS3505
ZBAA,1990-08-17 08:00,ZBAA 170800Z AUTO ////04KT 6SM 33/21 A2977 RMK T03300210 IEM_DS3505
ZBAA,1990-08-17 09:00,ZBAA 170900Z AUTO 18002KT 4SM 29/20 A2977 RMK SLP090 T02940203 57013 IEM_DS3505
ZBAA,1990-08-17 10:00,ZBAA 171000Z AUTO ////04KT 6SM 30/21 A2977 RMK T03000210 IEM_DS3505
ZBAA,1990-08-17 11:00,ZBAA 171100Z AUTO ////02KT 6SM 29/21 A2977 RMK T02900210 IEM_DS3505
ZBAA,1990-08-17 12:00,ZBAA 171200Z AUTO 20006KT 6SM 27/20 A2977 RMK SLP096 T02700202 IEM_DS3505
ZBAA,1990-08-17 13:00,ZBAA 171300Z AUTO 17002KT 6SM 27/21 A2980 RMK T02700210 IEM_DS3505
ZBAA,1990-08-17 14:00,ZBAA 171400Z AUTO ////02KT 6SM 27/21 A2980 RMK T02700210 IEM_DS3505
ZBAA,1990-08-17 15:00,ZBAA 171500Z AUTO 18004KT 5SM 25/21 RMK SLP096 T02540207 54000 IEM_DS3505
ZBAA,1990-08-17 18:00,ZBAA 171800Z AUTO 14002KT 4SM 25/21 RMK SLP086 T02480206 40304//// 57010 IEM_DS3505
ZBAA,1990-08-17 20:00,ZBAA 172000Z AUTO ////04KT 6SM 24/21 A2971 RMK T02400210 IEM_DS3505
ZBAA,1990-08-17 21:00,ZBAA 172100Z AUTO 00000KT 4SM 24/21 A2971 RMK SLP076 T02370210 57010 IEM_DS3505
ZBAA,1990-08-17 22:00,ZBAA 172200Z AUTO 12004KT 6SM 23/20 A2971 RMK T02300200 IEM_DS3505
ZBAA,1990-08-17 23:00,ZBAA 172300Z AUTO ////04KT 7SM 24/20 A2971 RMK T02400200 IEM_DS3505
ZBAA,1990-08-18 00:00,ZBAA 180000Z AUTO ////04KT 3SM 24/21 A2971 RMK SLP077 T02350209 52001 IEM_DS3505
ZBAA,1990-08-18 01:00,ZBAA 180100Z AUTO ////02KT 4SM 25/21 A2971 RMK T02500210 IEM_DS3505
ZBAA,1990-08-18 02:00,ZBAA 180200Z AUTO ////02KT 5SM 26/21 A2971 RMK T02600210 IEM_DS3505
ZBAA,1990-08-18 03:00,ZBAA 180300Z AUTO 20002KT 4SM 26/22 A2971 RMK SLP073 T02600217 57004 IEM_DS3505
ZBAA,1990-08-18 04:00,ZBAA 180400Z AUTO ////04KT 5SM 29/21 A2968 RMK T02900210 IEM_DS3505
ZBAA,1990-08-18 05:00,ZBAA 180500Z AUTO ////04KT 7SM 31/22 A2968 RMK T03100220 IEM_DS3505
ZBAA,1990-08-18 06:00,ZBAA 180600Z AUTO 18006KT 4SM 28/21 A2965 RMK SLP056 T02850209 4////0230 57016 IEM_DS3505
ZBAA,1990-08-18 07:00,ZBAA 180700Z AUTO ////04KT 7SM 31/21 A2965 RMK T03100210 IEM_DS3505
ZBAA,1990-08-18 08:00,ZBAA 180800Z AUTO ////06KT 7SM 30/21 A2962 RMK T03000210 IEM_DS3505
ZBAA,1990-08-18 09:00,ZBAA 180900Z AUTO 16004KT 4SM 28/21 A2962 RMK SLP044 T02760209 57013 IEM_DS3505
ZBAA,1990-08-18 10:00,ZBAA 181000Z AUTO ////04KT 6SM 28/19 A2962 RMK T02800190 IEM_DS3505
ZBAA,1990-08-18 11:00,ZBAA 181100Z AUTO 11002KT 6SM 26/19 A2962 RMK T02600190 IEM_DS3505
ZBAA,1990-08-18 12:00,ZBAA 181200Z AUTO 16004KT 4SM 26/21 A2962 RMK SLP048 T02620206 52004 IEM_DS3505
ZBAA,1990-08-18 13:00,ZBAA 181300Z AUTO 10002KT 6SM 25/20 A2965 RMK T02500200 IEM_DS3505
ZBAA,1990-08-18 14:00,ZBAA 181400Z AUTO 20004KT 6SM 25/20 A2965 RMK T02500200 IEM_DS3505
ZBAA,1990-08-18 15:00,ZBAA 181500Z AUTO 20006KT 3SM 24/20 A2965 RMK SLP051 T02440203 52003 IEM_DS3505
ZBAA,1990-08-18 18:00,ZBAA 181800Z AUTO 00000KT 2 1/2SM 22/20 RMK SLP047 T02240204 40288//// 57004 IEM_DS3505
ZBAA,1990-08-18 20:00,ZBAA 182000Z AUTO 00000KT 5SM 22/19 A2962 RMK T02200190 IEM_DS3505
ZBAA,1990-08-18 21:00,ZBAA 182100Z AUTO 00000KT 2 1/2SM 22/20 A2962 RMK SLP043 T02180203 57004 IEM_DS3505
ZBAA,1990-08-18 22:00,ZBAA 182200Z AUTO 00000KT 2SM 21/19 A2962 RMK T02100190 IEM_DS3505
ZBAA,1990-08-18 23:00,ZBAA 182300Z AUTO ////02KT 2 1/2SM 23/20 A2962 RMK T02300200 IEM_DS3505
ZBAA,1990-08-19 00:00,ZBAA 190000Z AUTO 00000KT 3SM 24/21 RMK SLP044 T02350206 52001 IEM_DS3505
ZBAA,1990-08-19 02:00,ZBAA 190200Z AUTO ////02KT 7SM 31/21 A2962 RMK T03100210 IEM_DS3505
ZBAA,1990-08-19 03:00,ZBAA 190300Z AUTO 00000KT 3SM 28/21 RMK SLP042 T02840210 57001 IEM_DS3505
ZBAA,1990-08-19 04:00,ZBAA 190400Z AUTO ////02KT 6SM 34/22 A2959 RMK T03400220 IEM_DS3505
ZBAA,1990-08-19 05:00,ZBAA 190500Z AUTO ////04KT 6SM RMK IEM_DS3505
ZBAA,1990-08-19 06:00,ZBAA 190600Z AUTO 16006KT 3SM 31/21 A2956 RMK SLP030 T03140213 4////0210 57012 IEM_DS3505
ZBAA,1990-08-19 07:00,ZBAA 190700Z AUTO ////04KT 6SM 36/23 A2956 RMK T03600230 IEM_DS3505
ZBAA,1990-08-19 08:00,ZBAA 190800Z AUTO ////04KT 6SM 35/23 A2956 RMK T03500230 IEM_DS3505
ZBAA,1990-08-19 09:00,ZBAA 190900Z AUTO ////04KT 3SM 33/23 A2956 RMK SLP021 T03300230 57009 IEM_DS3505
ZBAA,1990-08-19 10:00,ZBAA 191000Z AUTO ////04KT 6SM 32/24 A2956 RMK T03200240 IEM_DS3505
ZBAA,1990-08-19 11:00,ZBAA 191100Z AUTO ////04KT 6SM 30/24 A2956 RMK T03000240 IEM_DS3505
ZBAA,1990-08-19 12:00,ZBAA 191200Z AUTO 18006KT 3SM 29/24 A2959 RMK SLP032 T02900239 52011 IEM_DS3505
ZBAA,1990-08-19 15:00,ZBAA 191500Z AUTO 20004KT 4SM 27/24 RMK SLP041 T02680241 52009 IEM_DS3505
ZBAA,1990-08-19 18:00,ZBAA 191800Z AUTO 02004KT 4SM 25/23 RMK SLP041 T02530233 40322//// 54000 IEM_DS3505
ZBAA,1990-08-19 20:00,ZBAA 192000Z AUTO 00000KT 4SM 25/23 A2962 RMK T02500230 IEM_DS3505
ZBAA,1990-08-19 21:00,ZBAA 192100Z AUTO 32002KT 3SM 25/23 A2965 RMK SLP045 T02460228 52004 IEM_DS3505
ZBAA,1990-08-19 22:00,ZBAA 192200Z AUTO 08002KT 4SM 25/23 A2965 RMK T02500230 IEM_DS3505
ZBAA,1990-08-19 23:00,ZBAA 192300Z AUTO 00000KT 4SM 26/23 A2968 RMK T02600230 IEM_DS3505
ZBAA,1990-08-20 00:00,ZBAA 200000Z AUTO 36006KT 3SM 26/23 A2968 RMK SLP057 T02580226 52012 IEM_DS3505
ZBAA,1990-08-20 01:00,ZBAA 200100Z AUTO ////02KT 4SM 28/22 A2968 RMK T02800220 IEM_DS3505
ZBAA,1990-08-20 02:00,ZBAA 200200Z AUTO ////02KT 5SM 29/23 A2968 RMK T02900230 IEM_DS3505
ZBAA,1990-08-20 03:00,ZBAA 200300Z AUTO 00000KT 3SM 28/24 A2968 RMK SLP058 T02820238 52001 IEM_DS3505
ZBAA,1990-08-20 04:00,ZBAA 200400Z AUTO 17002KT 5SM 34/24 A2965 RMK T03400240 IEM_DS3505
ZBAA,1990-08-20 06:00,ZBAA 200600Z AUTO 09004KT 3SM 31/24 RMK SLP044 T03080237 4////0238 57014 IEM_DS3505
ZBAA,1990-08-20 07:00,ZBAA 200700Z AUTO ////04KT 7SM 35/23 A2959 RMK T03500230 IEM_DS3505
ZBAA,1990-08-20 09:00,ZBAA 200900Z AUTO 36012KT 6SM 23/17 RMK SLP050 T02330172 52005 IEM_DS3505
ZBAA,1990-08-20 10:00,ZBAA 201000Z AUTO ////04KT 3SM 21/20 A2968 RMK T02100200 IEM_DS3505
ZBAA,1990-08-20 11:00,ZBAA 201100Z AUTO ////04KT 7SM 21/20 A2971 RMK T02100200 IEM_DS3505
ZBAA,1990-08-20 12:00,ZBAA 201200Z AUTO 36004KT 12SM 21/20 A2968 RMK 60083 SLP065 T02070195 52015 IEM_DS3505
ZBAA,1990-08-20 13:00,ZBAA 201300Z AUTO ////02KT 7SM 21/20 A2968 RMK T02100200 IEM_DS3505
ZBAA,1990-08-20 14:00,ZBAA 201400Z AUTO 30002KT 7SM 21/20 A2968 RMK T02100200 IEM_DS3505
ZBAA,1990-08-20 15:00,ZBAA 201500Z AUTO 00000KT 9SM 20/19 A2968 RMK SLP059 T02010190 57006 IEM_DS3505
ZBAA,1990-08-20 18:00,ZBAA 201800Z AUTO 02004KT 7SM 20/19 RMK SLP060 T02010190 40314//// 52001 IEM_DS3505
ZBAA,1990-08-20 20:00,ZBAA 202000Z AUTO 34002KT 6SM 21/20 A2968 RMK T02100200 IEM_DS3505
ZBAA,1990-08-20 21:00,ZBAA 202100Z AUTO 00000KT 12SM 20/18 A2965 RMK 70087 SLP058 T01960185 57003 IEM_DS3505
ZBAA,1990-08-20 22:00,ZBAA 202200Z AUTO 31002KT 6SM 20/20 A2962 RMK T02000200 IEM_DS3505
ZBAA,1990-08-20 23:00,ZBAA 202300Z AUTO 00000KT 6SM 22/21 A2962 RMK T02200210 IEM_DS3505
ZBAA,1990-08-21 00:00,ZBAA 210000Z AUTO 00000KT 9SM 22/18 A2962 RMK 60004 SLP044 T02180178 57014 IEM_DS3505
ZBAA,1990-08-21 01:00,ZBAA 210100Z AUTO ////02KT 7SM 27/19 A2959 RMK T02700190 IEM_DS3505
ZBAA,1990-08-21 02:00,ZBAA 210200Z AUTO ////02KT 7SM 30/19 A2959 RMK T03000190 IEM_DS3505
ZBAA,1990-08-21 03:00,ZBAA 210300Z AUTO 11002KT 5SM 27/19 A2959 RMK SLP037 T02670188 57006 IEM_DS3505
ZBAA,1990-08-21 04:00,ZBAA 210400Z AUTO ////02KT 7SM 32/20 A2956 RMK T03200200 IEM_DS3505
ZBAA,1990-08-21 05:00,ZBAA 210500Z AUTO ////02KT 7SM 32/20 A2956 RMK T03200200 IEM_DS3505
ZBAA,1990-08-21 06:00,ZBAA 210600Z AUTO 07002KT 4SM 30/20 A2953 RMK SLP017 T02950202 4////0191 57020 IEM_DS3505
ZBAA,1990-08-21 07:00,ZBAA 210700Z AUTO ////04KT 7SM 34/22 A2950 RMK T03400220 IEM_DS3505
ZBAA,1990-08-21 08:00,ZBAA 210800Z AUTO ////02KT 7SM 33/22 A2950 RMK T03300220 IEM_DS3505
ZBAA,1990-08-21 09:00,ZBAA 210900Z AUTO 25004KT 6SM 29/21 A2947 RMK SLP002 T02930212 57015 IEM_DS3505
ZBAA,1990-08-21 10:00,ZBAA 211000Z AUTO 00000KT 7SM 29/21 A2953 RMK T02900210 IEM_DS3505
ZBAA,1990-08-21 11:00,ZBAA 211100Z AUTO 1 1/2SM 25/18 A2962 RMK T02500180 IEM_DS3505
ZBAA,1990-08-21 12:00,ZBAA 211200Z AUTO 04002KT 19SM 22/14 RMK 60004 SLP018 T02240143 52016 IEM_DS3505
ZBAA,1990-08-21 13:00,ZBAA 211300Z AUTO ////04KT 7SM 20/19 A2956 RMK T02000190 IEM_DS3505
ZBAA,1990-08-21 14:00,ZBAA 211400Z AUTO ////02KT 6SM 20/19 A2953 RMK T02000190 IEM_DS3505
ZBAA,1990-08-21 15:00,ZBAA 211500Z AUTO 34002KT 12SM 20/17 A2953 RMK SLP013 T02050171 57005 IEM_DS3505
ZBAA,1990-08-21 16:00,ZBAA 211600Z AUTO 10002KT 6SM 20/18 A2953 RMK T02000180 IEM_DS3505
ZBAA,1990-08-21 18:00,ZBAA 211800Z AUTO 27004KT 9SM 19/17 RMK SLP012 T01940166 40301//// 57001 IEM_DS3505
ZBAA,1990-08-21 21:00,ZBAA 212100Z AUTO 00000KT 6SM 18/16 A2947 RMK 70004 SLP997 T01830163 57015 IEM_DS3505
ZBAA,1990-08-21 22:00,ZBAA 212200Z AUTO 33002KT 7SM 19/16 A2947 RMK T01900160 IEM_DS3505
ZBAA,1990-08-21 23:00,ZBAA 212300Z AUTO ////02KT 7SM 22/18 A2950 RMK T02200180 IEM_DS3505
ZBAA,1990-08-22 00:00,ZBAA 220000Z AUTO 36004KT 11SM 23/16 A2950 RMK SLP003 T02320157 52006 IEM_DS3505
ZBAA,1990-08-22 01:00,ZBAA 220100Z AUTO ////02KT 7SM 30/17 A2950 RMK T03000170 IEM_DS3505
ZBAA,1990-08-22 02:00,ZBAA 220200Z AUTO ////04KT 7SM 31/17 A2950 RMK T03100170 IEM_DS3505
ZBAA,1990-08-22 03:00,ZBAA 220300Z AUTO 34014KT 16SM 28/16 A2950 RMK SLP010 T02780155 52007 IEM_DS3505
ZBAA,1990-08-22 04:00,ZBAA 220400Z AUTO 32008KT 7SM 32/16 A2950 RMK T03200160 IEM_DS3505
ZBAA,1990-08-22 05:00,ZBAA 220500Z AUTO 32010KT 7SM 32/16 A2950 RMK T03200160 IEM_DS3505
ZBAA,1990-08-22 06:00,ZBAA 220600Z AUTO 34008KT 16SM 30/14 A2947 RMK SLP998 T03020140 4////0177 57012 IEM_DS3505
ZBAA,1990-08-22 07:00,ZBAA 220700Z AUTO 33008KT 7SM 34/16 A2944 RMK T03400160 IEM_DS3505
ZBAA,1990-08-22 08:00,ZBAA 220800Z AUTO 32008KT 7SM 33/16 A2944 RMK T03300160 IEM_DS3505
ZBAA,1990-08-22 09:00,ZBAA 220900Z AUTO 36006KT 16SM 30/15 A2944 RMK T03040147 57007 IEM_DS3505
ZBAA,1990-08-22 10:00,ZBAA 221000Z AUTO ////02KT 7SM 31/17 A2944 RMK T03100170 IEM_DS3505
ZBAA,1990-08-22 11:00,ZBAA 221100Z AUTO 00000KT 7SM 28/18 A2947 RMK T02800180 IEM_DS3505
ZBAA,1990-08-22 12:00,ZBAA 221200Z AUTO 00000KT 19SM 25/17 A2947 RMK SLP001 T02520173 52010 IEM_DS3505
ZBAA,1990-08-22 13:00,ZBAA 221300Z AUTO 27002KT 7SM 24/18 A2950 RMK T02400180 IEM_DS3505
ZBAA,1990-08-22 15:00,ZBAA 221500Z AUTO 00000KT 19SM 22/18 RMK SLP013 T02240178 52012 IEM_DS3505
ZBAA,1990-08-22 18:00,ZBAA 221800Z AUTO 32002KT 19SM 21/17 RMK SLP024 T02070170 40306//// 52011 IEM_DS3505
ZBAA,1990-08-22 21:00,ZBAA 222100Z AUTO 07002KT 19SM 21/15 A2959 RMK SLP035 T02090149 52011 IEM_DS3505
ZBAA,1990-08-22 22:00,ZBAA 222200Z AUTO 00000KT 7SM 20/17 A2962 RMK T02000170 IEM_DS3505
ZBAA,1990-08-22 23:00,ZBAA 222300Z AUTO 00000KT 7SM 23/18 A2962 RMK T02300180 IEM_DS3505
ZBAA,1990-08-23 00:00,ZBAA 230000Z AUTO 00000KT 16SM 24/16 A2965 RMK SLP055 T02410156 52020 IEM_DS3505
ZBAA,1990-08-23 01:00,ZBAA 230100Z AUTO ////02KT 7SM 30/18 A2965 RMK T03000180 IEM_DS3505
ZBAA,1990-08-23 02:00,ZBAA 230200Z AUTO ////02KT 7SM 31/17 A2968 RMK T03100170 IEM_DS3505
ZBAA,1990-08-23 03:00,ZBAA 230300Z AUTO 00000KT 16SM 29/16 A2968 RMK SLP058 T02880162 52003 IEM_DS3505
ZBAA,1990-08-23 04:00,ZBAA 230400Z AUTO ////02KT 7SM 33/16 A2965 RMK T03300160 IEM_DS3505
ZBAA,1990-08-23 05:00,ZBAA 230500Z AUTO ////02KT 7SM 34/17 A2965 RMK T03400170 IEM_DS3505
ZBAA,1990-08-23 06:00,ZBAA 230600Z AUTO 20006KT 12SM 31/15 A2962 RMK SLP050 T03140154 4////0189 57008 IEM_DS3505
ZBAA,1990-08-23 07:00,ZBAA 230700Z AUTO ////04KT 7SM 35/18 A2962 RMK T03500180 IEM_DS3505
ZBAA,1990-08-23 08:00,ZBAA 230800Z AUTO ////04KT 7SM 34/17 A2962 RMK T03400170 IEM_DS3505
ZBAA,1990-08-23 09:00,ZBAA 230900Z AUTO 18006KT 12SM 31/16 A2959 RMK SLP039 T03100163 57011 IEM_DS3505
ZBAA,1990-08-23 10:00,ZBAA 231000Z AUTO ////04KT 6SM 31/19 A2959 RMK T03100190 IEM_DS3505
ZBAA,1990-08-23 11:00,ZBAA 231100Z AUTO ////04KT 6SM 29/20 A2962 RMK T02900200 IEM_DS3505
ZBAA,1990-08-23 12:00,ZBAA 231200Z AUTO ////04KT 6SM 28/19 A2965 RMK SLP047 T02780193 IEM_DS3505
ZBAA,1990-08-23 13:00,ZBAA 231300Z AUTO ////02KT 6SM 26/20 A2965 RMK T02600200 IEM_DS3505
ZBAA,1990-08-23 14:00,ZBAA 231400Z AUTO ////02KT 7SM 26/20 A2968 RMK T02600200 IEM_DS3505
ZBAA,1990-08-23 15:00,ZBAA 231500Z AUTO 16002KT 9SM 26/18 RMK SLP057 T02610183 52011 IEM_DS3505
ZBAA,1990-08-23 18:00,ZBAA 231800Z AUTO 00000KT 9SM 23/20 RMK SLP065 T02320200 40318//// 52008 IEM_DS3505
ZBAA,1990-08-23 20:00,ZBAA 232000Z AUTO 00000KT 6SM 22/19 A2971 RMK T02200190 IEM_DS3505
ZBAA,1990-08-23 21:00,ZBAA 232100Z AUTO 04002KT 7SM 23/19 A2971 RMK SLP073 T02270193 52007 IEM_DS3505
ZBAA,1990-08-23 22:00,ZBAA 232200Z AUTO 00000KT 6SM 22/19 A2974 RMK T02200190 IEM_DS3505
ZBAA,1990-08-23 23:00,ZBAA 232300Z AUTO 33002KT 4SM 23/20 A2974 RMK T02300200 IEM_DS3505
ZBAA,1990-08-24 00:00,ZBAA 240000Z AUTO 04002KT 2 1/2SM 25/19 A2974 RMK SLP083 T02480194 52010 IEM_DS3505
ZBAA,1990-08-24 01:00,ZBAA 240100Z AUTO 6SM 29/21 A2974 RMK T02900210 IEM_DS3505
ZBAA,1990-08-24 02:00,ZBAA 240200Z AUTO ////02KT 6SM 29/21 A2974 RMK T02900210 IEM_DS3505
ZBAA,1990-08-24 03:00,ZBAA 240300Z AUTO 02004KT 4SM 28/20 A2974 RMK SLP079 T02830202 57004 IEM_DS3505
ZBAA,1990-08-24 04:00,ZBAA 240400Z AUTO ////02KT 6SM 33/22 A2974 RMK T03300220 IEM_DS3505
ZBAA,1990-08-24 05:00,ZBAA 240500Z AUTO ////02KT 7SM 34/21 A2971 RMK T03400210 IEM_DS3505
ZBAA,1990-08-24 06:00,ZBAA 240600Z AUTO 00000KT 7SM 35/21 A2971 RMK SLP072 T03500210 4////0222 57006 IEM_DS3505
ZBAA,1990-08-24 07:00,ZBAA 240700Z AUTO ////04KT 7SM 36/22 A2968 RMK T03600220 IEM_DS3505
ZBAA,1990-08-24 08:00,ZBAA 240800Z AUTO ////04KT 7SM 35/22 A2968 RMK T03500220 IEM_DS3505
ZBAA,1990-08-24 09:00,ZBAA 240900Z AUTO 20002KT 6SM 32/21 A2968 RMK SLP069 T03150214 57003 IEM_DS3505
ZBAA,1990-08-24 10:00,ZBAA 241000Z AUTO 15002KT 6SM 32/22 A2971 RMK T03200220 IEM_DS3505
ZBAA,1990-08-24 11:00,ZBAA 241100Z AUTO 17002KT 6SM 30/23 A2971 RMK T03000230 IEM_DS3505
ZBAA,1990-08-24 12:00,ZBAA 241200Z AUTO 00000KT 5SM 29/24 A2974 RMK SLP079 T02860237 52009 IEM_DS3505
ZBAA,1990-08-24 13:00,ZBAA 241300Z AUTO 00000KT 6SM 28/24 A2974 RMK T02800240 IEM_DS3505
ZBAA,1990-08-24 14:00,ZBAA 241400Z AUTO 00000KT 6SM 27/24 A2977 RMK T02700240 IEM_DS3505
ZBAA,1990-08-24 15:00,ZBAA 241500Z AUTO 00000KT 3SM 26/23 A2977 RMK SLP093 T02590231 52014 IEM_DS3505
ZBAA,1990-08-24 16:00,ZBAA 241600Z AUTO 00000KT 6SM 26/23 A2980 RMK T02600230 IEM_DS3505
ZBAA,1990-08-24 17:00,ZBAA 241700Z AUTO 30002KT 6SM 25/23 A2980 RMK T02500230 IEM_DS3505
ZBAA,1990-08-24 18:00,ZBAA 241800Z AUTO 02002KT 4SM 25/22 A2983 RMK SLP105 T02540220 40332//// 52013 IEM_DS3505
ZBAA,1990-08-24 19:00,ZBAA 241900Z AUTO ////02KT 6SM 24/21 A2983 RMK T02400210 IEM_DS3505
ZBAA,1990-08-24 20:00,ZBAA 242000Z AUTO ////02KT 7SM 24/21 A2983 RMK T02400210 IEM_DS3505
ZBAA,1990-08-24 21:00,ZBAA 242100Z AUTO 2 1/2SM 23/21 RMK SLP115 T02330206 52009 IEM_DS3505
ZBAA,1990-08-24 22:00,ZBAA 242200Z AUTO 00000KT 7SM 23/20 A2985 RMK T02300200 IEM_DS3505
ZBAA,1990-08-25 00:00,ZBAA 250000Z AUTO 02002KT 4SM 26/19 A2988 RMK SLP133 T02580186 52018 IEM_DS3505
ZBAA,1990-08-25 01:00,ZBAA 250100Z AUTO ////02KT 7SM 31/20 A2991 RMK T03100200 IEM_DS3505
ZBAA,1990-08-25 02:00,ZBAA 250200Z AUTO ////02KT 7SM 33/20 A2991 RMK T03300200 IEM_DS3505
ZBAA,1990-08-25 03:00,ZBAA 250300Z AUTO 36004KT 6SM 30/19 A2988 RMK SLP133 T02960194 54000 IEM_DS3505
ZBAA,1990-08-25 04:00,ZBAA 250400Z AUTO ////04KT 7SM 35/22 A2988 RMK T03500220 IEM_DS3505
ZBAA,1990-08-25 05:00,ZBAA 250500Z AUTO ////04KT 7SM 35/21 A2988 RMK T03500210 IEM_DS3505
ZBAA,1990-08-25 06:00,ZBAA 250600Z AUTO 16004KT 6SM 32/20 A2985 RMK SLP119 T03220196 4////0224 57013 IEM_DS3505
ZBAA,1990-08-25 07:00,ZBAA 250700Z AUTO ////04KT 7SM 36/21 A2985 RMK T03600210 IEM_DS3505
ZBAA,1990-08-25 08:00,ZBAA 250800Z AUTO ////02KT 7SM 35/22 A2983 RMK T03500220 IEM_DS3505
ZBAA,1990-08-25 09:00,ZBAA 250900Z AUTO 16006KT 6SM 32/21 A2985 RMK SLP118 T03180212 57002 IEM_DS3505
ZBAA,1990-08-25 10:00,ZBAA 251000Z AUTO ////04KT 7SM 32/21 A2985 RMK T03200210 IEM_DS3505
ZBAA,1990-08-25 11:00,ZBAA 251100Z AUTO 14004KT 6SM 30/21 A2985 RMK T03000210 IEM_DS3505
ZBAA,1990-08-25 12:00,ZBAA 251200Z AUTO 14004KT 6SM 29/22 A2988 RMK SLP128 T02900220 IEM_DS3505
ZBAA,1990-08-25 13:00,ZBAA 251300Z AUTO ////02KT 6SM 28/22 A2991 RMK T02800220 IEM_DS3505
ZBAA,1990-08-25 14:00,ZBAA 251400Z AUTO ////02KT 6SM 27/21 A2991 RMK T02700210 IEM_DS3505
ZBAA,1990-08-25 15:00,ZBAA 251500Z AUTO 20002KT 6SM 27/18 A2991 RMK SLP140 T02660178 52012 IEM_DS3505
ZBAA,1990-08-25 16:00,ZBAA 251600Z AUTO 00000KT 6SM 25/21 A2994 RMK T02500210 IEM_DS3505
ZBAA,1990-08-25 17:00,ZBAA 251700Z AUTO 00000KT 6SM 25/20 A2994 RMK T02500200 IEM_DS3505
ZBAA,1990-08-25 18:00,ZBAA 251800Z AUTO 00000KT 6SM 25/20 A2991 RMK SLP139 T02540204 40326//// 57001 IEM_DS3505
ZBAA,1990-08-25 19:00,ZBAA 251900Z AUTO 00000KT 6SM 25/21 A2991 RMK T02500210 IEM_DS3505
ZBAA,1990-08-25 20:00,ZBAA 252000Z AUTO 00000KT 6SM 24/20 A2991 RMK T02400200 IEM_DS3505
ZBAA,1990-08-25 21:00,ZBAA 252100Z AUTO 00000KT 5SM 23/21 A2991 RMK SLP138 T02300209 57001 IEM_DS3505
ZBAA,1990-08-25 22:00,ZBAA 252200Z AUTO 00000KT 6SM 24/21 A2994 RMK T02400210 IEM_DS3505
ZBAA,1990-08-25 23:00,ZBAA 252300Z AUTO 32004KT 6SM 24/20 A2994 RMK T02400200 IEM_DS3505
ZBAA,1990-08-26 00:00,ZBAA 260000Z AUTO 00000KT 2SM 24/21 A2997 RMK 60000 SLP160 T02400214 52022 IEM_DS3505
ZBAA,1990-08-26 01:00,ZBAA 260100Z AUTO ////02KT 6SM 26/21 A2997 RMK T02600210 IEM_DS3505
ZBAA,1990-08-26 02:00,ZBAA 260200Z AUTO ////04KT 6SM 27/21 A2997 RMK T02700210 IEM_DS3505
ZBAA,1990-08-26 03:00,ZBAA 260300Z AUTO 36002KT 6SM 25/20 A2997 RMK SLP158 T02490200 57002 IEM_DS3505
ZBAA,1990-08-26 04:00,ZBAA 260400Z AUTO ////02KT 7SM 28/22 A2994 RMK T02800220 IEM_DS3505
ZBAA,1990-08-26 05:00,ZBAA 260500Z AUTO ////04KT 6SM 29/20 A2994 RMK T02900200 IEM_DS3505
ZBAA,1990-08-26 06:00,ZBAA 260600Z AUTO 00000KT 7SM 26/19 A2994 RMK 60001 SLP152 T02580188 4////0235 57006 IEM_DS3505
ZBAA,1990-08-26 07:00,ZBAA 260700Z AUTO 30002KT 7SM 27/21 A2994 RMK T02700210 IEM_DS3505
ZBAA,1990-08-26 08:00,ZBAA 260800Z AUTO ////02KT 7SM 26/20 A2994 RMK T02600200 IEM_DS3505
ZBAA,1990-08-26 09:00,ZBAA 260900Z AUTO 34006KT 9SM 25/18 RMK SLP142 T02540180 57010 IEM_DS3505
ZBAA,1990-08-26 10:00,ZBAA 261000Z AUTO ////06KT 6SM 27/20 A2991 RMK T02700200 IEM_DS3505
ZBAA,1990-08-26 12:00,ZBAA 261200Z AUTO 00000KT 9SM 24/18 A2994 RMK 60000 T02420184 52005 IEM_DS3505
ZBAA,1990-08-26 13:00,ZBAA 261300Z AUTO 00000KT 6SM 24/18 A2994 RMK T02400180 IEM_DS3505
ZBAA,1990-08-26 14:00,ZBAA 261400Z AUTO 32002KT 6SM 24/18 A2994 RMK T02400180 IEM_DS3505
ZBAA,1990-08-26 15:00,ZBAA 261500Z AUTO 00000KT 7SM 24/18 A2994 RMK SLP152 T02360181 52004 IEM_DS3505
ZBAA,1990-08-26 18:00,ZBAA 261800Z AUTO 02004KT 12SM 24/16 RMK SLP148 T02350160 57003 IEM_DS3505
ZBAA,1990-08-26 20:00,ZBAA 262000Z AUTO 00000KT 7SM 24/19 A2991 RMK T02400190 IEM_DS3505
ZBAA,1990-08-26 21:00,ZBAA 262100Z AUTO 00000KT 12SM 22/18 A2994 RMK 70004 SLP147 T02220182 57002 IEM_DS3505
ZBAA,1990-08-26 22:00,ZBAA 262200Z AUTO ////02KT 7SM 23/19 A2994 RMK T02300190 IEM_DS3505
ZBAA,1990-08-26 23:00,ZBAA 262300Z AUTO ////04KT 7SM 23/19 A2994 RMK T02300190 IEM_DS3505
ZBAA,1990-08-27 00:00,ZBAA 270000Z AUTO 00000KT 6SM 24/19 RMK 60001 70004 SLP152 T02350188 52005 IEM_DS3505
ZBAA,1990-08-27 01:00,ZBAA 270100Z AUTO ////02KT 7SM 25/20 A2997 RMK T02500200 IEM_DS3505
ZBAA,1990-08-27 02:00,ZBAA 270200Z AUTO ////04KT 7SM A2997 RMK IEM_DS3505
ZBAA,1990-08-27 03:00,ZBAA 270300Z AUTO 04002KT 5SM 24/19 A3000 RMK SLP166 T02370194 52014 IEM_DS3505
ZBAA,1990-08-27 04:00,ZBAA 270400Z AUTO 00000KT 7SM 24/20 A3000 RMK T02400200 IEM_DS3505
ZBAA,1990-08-27 05:00,ZBAA 270500Z AUTO ////04KT 7SM 23/21 A2997 RMK T02300210 IEM_DS3505
ZBAA,1990-08-27 06:00,ZBAA 270600Z AUTO 36004KT 4SM 22/20 A2997 RMK SLP162 T02150196 4////0214 57004 IEM_DS3505
ZBAA,1990-08-27 07:00,ZBAA 270700Z AUTO ////02KT 5SM 23/21 A2994 RMK T02300210 IEM_DS3505
ZBAA,1990-08-27 08:00,ZBAA 270800Z AUTO ////04KT 7SM 23/21 A2994 RMK T02300210 IEM_DS3505
ZBAA,1990-08-27 09:00,ZBAA 270900Z AUTO 36004KT 4SM 21/20 A2994 RMK SLP151 T02090200 57011 IEM_DS3505
ZBAA,1990-08-27 10:00,ZBAA 271000Z AUTO ////04KT 4SM 23/20 A2994 RMK T02300200 IEM_DS3505
ZBAA,1990-08-27 11:00,ZBAA 271100Z AUTO 10002KT 7SM 22/19 A2994 RMK T02200190 IEM_DS3505
ZBAA,1990-08-27 12:00,ZBAA 271200Z AUTO 14002KT 3SM 20/19 A2994 RMK 60008 SLP151 T01990194 54000 IEM_DS3505
ZBAA,1990-08-27 13:00,ZBAA 271300Z AUTO 00000KT 2SM 21/20 A2994 RMK T02100200 IEM_DS3505
ZBAA,1990-08-27 14:00,ZBAA 271400Z AUTO 00000KT 1 1/2SM 21/20 A2994 RMK T02100200 IEM_DS3505
ZBAA,1990-08-27 15:00,ZBAA 271500Z AUTO 07002KT 3SM 20/20 A2991 RMK SLP140 T02000195 57011 IEM_DS3505
ZBAA,1990-08-27 16:00,ZBAA 271600Z AUTO 00000KT 3SM 21/20 A2988 RMK T02100200 IEM_DS3505
ZBAA,1990-08-27 18:00,ZBAA 271800Z AUTO 00000KT 1 1/4SM 20/19 RMK 60071 SLP124 T01990193 40245//// 57016 IEM_DS3505
ZBAA,1990-08-27 20:00,ZBAA 272000Z AUTO 19002KT 1 1/2SM 21/20 A2980 RMK T02100200 IEM_DS3505
ZBAA,1990-08-27 21:00,ZBAA 272100Z AUTO 00000KT 1 1/4SM 20/19 RMK SLP104 T01950194 57020 IEM_DS3505
ZBAA,1990-08-27 22:00,ZBAA 272200Z AUTO 00000KT 1SM 21/20 A2980 RMK T02100200 IEM_DS3505
ZBAA,1990-08-27 23:00,ZBAA 272300Z AUTO 13002KT 1SM 21/21 A2977 RMK T02100210 IEM_DS3505
ZBAA,1990-08-28 00:00,ZBAA 280000Z AUTO 18004KT 1 1/4SM 20/20 A2977 RMK 60008 SLP098 T02030197 57006 IEM_DS3505
ZBAA,1990-08-28 01:00,ZBAA 280100Z AUTO ////02KT 1/2SM 22/21 A2977 RMK T02200210 IEM_DS3505
ZBAA,1990-08-28 02:00,ZBAA 280200Z AUTO ////04KT 1SM 22/21 A2977 RMK T02200210 IEM_DS3505
ZBAA,1990-08-28 03:00,ZBAA 280300Z AUTO 29004KT 4SM 21/20 A2977 RMK SLP100 T02090203 52002 IEM_DS3505
ZBAA,1990-08-28 04:00,ZBAA 280400Z AUTO ////04KT 7SM 23/23 A2974 RMK T02300230 IEM_DS3505
ZBAA,1990-08-28 05:00,ZBAA 280500Z AUTO ////02KT 7SM 26/22 A2974 RMK T02600220 IEM_DS3505
ZBAA,1990-08-28 06:00,ZBAA 280600Z AUTO 00000KT 5SM 26/22 A2971 RMK SLP076 T02620222 4////0193 57023 IEM_DS3505
ZBAA,1990-08-28 07:00,ZBAA 280700Z AUTO ////02KT 6SM 32/22 A2974 RMK T03200220 IEM_DS3505
ZBAA,1990-08-28 08:00,ZBAA 280800Z AUTO 00000KT 6SM 32/20 A2974 RMK T03200200 IEM_DS3505
ZBAA,1990-08-28 09:00,ZBAA 280900Z AUTO 20004KT 4SM 28/23 A2974 RMK SLP085 T02780227 52009 IEM_DS3505
ZBAA,1990-08-28 10:00,ZBAA 281000Z AUTO ////06KT 6SM 29/23 A2977 RMK T02900230 IEM_DS3505
ZBAA,1990-08-28 11:00,ZBAA 281100Z AUTO ////02KT 5SM 27/23 A2977 RMK T02700230 IEM_DS3505
ZBAA,1990-08-28 12:00,ZBAA 281200Z AUTO 20002KT 4SM 25/22 A2983 RMK SLP106 T02500225 52020 IEM_DS3505
ZBAA,1990-08-28 13:00,ZBAA 281300Z AUTO 00000KT 6SM 25/22 A2983 RMK T02500220 IEM_DS3505
ZBAA,1990-08-28 14:00,ZBAA 281400Z AUTO 31002KT 6SM 25/23 A2983 RMK T02500230 IEM_DS3505
ZBAA,1990-08-28 15:00,ZBAA 281500Z AUTO 00000KT 4SM 24/22 A2983 RMK SLP114 T02370225 52008 IEM_DS3505
ZBAA,1990-08-28 18:00,ZBAA 281800Z AUTO 00000KT 2 1/2SM 23/22 RMK SLP114 T02310221 40291//// 52001 IEM_DS3505
ZBAA,1990-08-28 21:00,ZBAA 282100Z AUTO 04002KT 4SM 21/21 RMK 70024 SLP115 T02140206 52001 IEM_DS3505
ZBAA,1990-08-28 22:00,ZBAA 282200Z AUTO 00000KT 6SM 22/20 A2985 RMK T02200200 IEM_DS3505
ZBAA,1990-08-28 23:00,ZBAA 282300Z AUTO ////06KT 6SM 23/20 A2985 RMK T02300200 IEM_DS3505
ZBAA,1990-08-29 00:00,ZBAA 290000Z AUTO 00000KT 4SM 24/21 A2985 RMK 70020 SLP124 T02410214 52009 IEM_DS3505
ZBAA,1990-08-29 03:00,ZBAA 290300Z AUTO 02002KT 7SM 29/18 A2985 RMK SLP120 T02930185 57004 IEM_DS3505
ZBAA,1990-08-29 04:00,ZBAA 290400Z AUTO ////02KT 7SM 34/19 A2983 RMK T03400190 IEM_DS3505
ZBAA,1990-08-29 05:00,ZBAA 290500Z AUTO ////02KT 7SM 35/19 A2983 RMK T03500190 IEM_DS3505
ZBAA,1990-08-29 06:00,ZBAA 290600Z AUTO 20006KT 12SM 32/18 A2980 RMK SLP106 T03220183 4////0211 57014 IEM_DS3505
ZBAA,1990-08-29 07:00,ZBAA 290700Z AUTO 00000KT 7SM 37/20 A2980 RMK T03700200 IEM_DS3505
ZBAA,1990-08-29 08:00,ZBAA 290800Z AUTO ////04KT 7SM 35/20 A2977 RMK T03500200 IEM_DS3505
ZBAA,1990-08-29 09:00,ZBAA 290900Z AUTO ////04KT 12SM 31/19 A2977 RMK SLP097 T03130190 IEM_DS3505
ZBAA,1990-08-29 10:00,ZBAA 291000Z AUTO ////04KT 7SM 31/21 A2977 RMK T03100210 IEM_DS3505
ZBAA,1990-08-29 11:00,ZBAA 291100Z AUTO ////04KT 7SM 29/21 A2977 RMK T02900210 IEM_DS3505
ZBAA,1990-08-29 12:00,ZBAA 291200Z AUTO 20002KT 12SM 27/21 A2980 RMK SLP107 T02730207 52004 IEM_DS3505
ZBAA,1990-08-29 13:00,ZBAA 291300Z AUTO 11002KT 7SM 26/22 A2983 RMK T02600220 IEM_DS3505
ZBAA,1990-08-29 14:00,ZBAA 291400Z AUTO 13002KT 7SM 25/21 A2980 RMK T02500210 IEM_DS3505
ZBAA,1990-08-29 15:00,ZBAA 291500Z AUTO 16002KT 7SM 24/21 RMK SLP102 T02430213 52001 IEM_DS3505
ZBAA,1990-08-29 18:00,ZBAA 291800Z AUTO 07002KT 6SM 22/21 RMK SLP100 T02230208 40324//// 57002 IEM_DS3505
ZBAA,1990-08-29 20:00,ZBAA 292000Z AUTO 00000KT 4SM 22/20 A2977 RMK T02200200 IEM_DS3505
ZBAA,1990-08-29 21:00,ZBAA 292100Z AUTO 00000KT 5SM 21/20 A2977 RMK SLP092 T02090198 57008 IEM_DS3505
ZBAA,1990-08-29 22:00,ZBAA 292200Z AUTO 00000KT 3SM 21/19 A2977 RMK T02100190 IEM_DS3505
ZBAA,1990-08-29 23:00,ZBAA 292300Z AUTO 00000KT 2 1/2SM 22/21 A2980 RMK T02200210 IEM_DS3505
ZBAA,1990-08-30 00:00,ZBAA 300000Z AUTO 00000KT 4SM 24/21 A2980 RMK SLP098 T02360207 52006 IEM_DS3505
ZBAA,1990-08-30 01:00,ZBAA 300100Z AUTO 00000KT 6SM 28/19 A2980 RMK T02800190 IEM_DS3505
ZBAA,1990-08-30 02:00,ZBAA 300200Z AUTO 00000KT 6SM 31/20 A2980 RMK T03100200 IEM_DS3505
ZBAA,1990-08-30 03:00,ZBAA 300300Z AUTO 32004KT 4SM 28/19 A2977 RMK SLP094 T02790186 57004 IEM_DS3505
ZBAA,1990-08-30 04:00,ZBAA 300400Z AUTO ////02KT 6SM 34/20 A2974 RMK T03400200 IEM_DS3505
ZBAA,1990-08-30 05:00,ZBAA 300500Z AUTO ////02KT 6SM 34/19 A2974 RMK T03400190 IEM_DS3505
ZBAA,1990-08-30 06:00,ZBAA 300600Z AUTO 18004KT 7SM 32/19 A2971 RMK SLP076 T03160190 4////0201 57010 IEM_DS3505
ZBAA,1990-08-30 07:00,ZBAA 300700Z AUTO ////04KT 6SM 35/22 A2971 RMK T03500220 IEM_DS3505
ZBAA,1990-08-30 08:00,ZBAA 300800Z AUTO ////06KT 6SM 34/22 A2968 RMK T03400220 IEM_DS3505
ZBAA,1990-08-30 09:00,ZBAA 300900Z AUTO 20008KT 7SM 31/21 A2968 RMK SLP064 T03120207 57012 IEM_DS3505
ZBAA,1990-08-30 10:00,ZBAA 301000Z AUTO 21002KT 7SM 31/23 A2968 RMK T03100230 IEM_DS3505
ZBAA,1990-08-30 11:00,ZBAA 301100Z AUTO 00000KT 6SM 29/23 A2968 RMK T02900230 IEM_DS3505
ZBAA,1990-08-30 12:00,ZBAA 301200Z AUTO 27004G23KT 6SM 28/23 A2980 RMK SLP079 T02850227 52015 IEM_DS3505
ZBAA,1990-08-30 13:00,ZBAA 301300Z AUTO ////06KT 7SM A2983 RMK IEM_DS3505
ZBAA,1990-08-30 14:00,ZBAA 301400Z AUTO ////06KT 7SM 20/18 A2980 RMK T02000180 IEM_DS3505
ZBAA,1990-08-30 15:00,ZBAA 301500Z AUTO 00000KT 6SM 20/18 A2983 RMK SLP112 T01990180 52033 IEM_DS3505
ZBAA,1990-08-30 16:00,ZBAA 301600Z AUTO ////02KT 6SM 19/18 A2983 RMK T01900180 IEM_DS3505
ZBAA,1990-08-30 18:00,ZBAA 301800Z AUTO 00000KT 6SM 19/17 RMK 60024 SLP111 T01910166 40321//// 57001 IEM_DS3505
ZBAA,1990-08-30 21:00,ZBAA 302100Z AUTO 04002KT 7SM 18/17 RMK 70024 SLP103 T01820171 57008 IEM_DS3505
ZBAA,1990-08-30 22:00,ZBAA 302200Z AUTO ////02KT 7SM 18/17 A2980 RMK T01800170 IEM_DS3505
ZBAA,1990-08-30 23:00,ZBAA 302300Z AUTO ////02KT 7SM 20/18 A2983 RMK T02000180 IEM_DS3505
ZBAA,1990-08-31 00:00,ZBAA 310000Z AUTO 29002KT 9SM 22/17 A2983 RMK 70024 SLP110 T02150170 IEM_DS3505
ZBAA,1990-08-31 01:00,ZBAA 310100Z AUTO ////02KT 7SM 27/18 A2983 RMK T02700180 IEM_DS3505
ZBAA,1990-08-31 02:00,ZBAA 310200Z AUTO ////02KT 7SM 26/18 A2983 RMK T02600180 IEM_DS3505
ZBAA,1990-08-31 03:00,ZBAA 310300Z AUTO 00000KT 3SM 27/16 A2983 RMK SLP112 T02670164 57001 IEM_DS3505
ZBAA,1990-08-31 04:00,ZBAA 310400Z AUTO ////02KT 7SM 28/18 A2980 RMK T02800180 IEM_DS3505
ZBAA,1990-08-31 05:00,ZBAA 310500Z AUTO ////02KT 7SM 29/17 A2980 RMK T02900170 IEM_DS3505
ZBAA,1990-08-31 06:00,ZBAA 310600Z AUTO 00000KT 4SM 30/15 A2977 RMK SLP095 T02990150 4////0177 57016 IEM_DS3505
ZBAA,1990-08-31 07:00,ZBAA 310700Z AUTO 00000KT 7SM 30/15 A2977 RMK T03000150 IEM_DS3505
ZBAA,1990-08-31 08:00,ZBAA 310800Z AUTO ////02KT 7SM 30/17 A2974 RMK T03000170 IEM_DS3505
ZBAA,1990-08-31 09:00,ZBAA 310900Z AUTO 17002KT 5SM 30/18 A2974 RMK SLP087 T03020176 57008 IEM_DS3505
ZBAA,1990-08-31 10:00,ZBAA 311000Z AUTO 00000KT 6SM 28/18 A2974 RMK T02800180 IEM_DS3505
ZBAA,1990-08-31 11:00,ZBAA 311100Z AUTO 21002KT 6SM 26/19 A2974 RMK T02600190 IEM_DS3505
ZBAA,1990-08-31 12:00,ZBAA 311200Z AUTO 20004KT 6SM 25/21 A2977 RMK SLP090 T02480206 52003 IEM_DS3505
ZBAA,1990-08-31 13:00,ZBAA 311300Z AUTO 00000KT 7SM 24/20 A2980 RMK T02400200 IEM_DS3505
ZBAA,1990-08-31 14:00,ZBAA 311400Z AUTO 00000KT 6SM 23/21 A2980 RMK T02300210 IEM_DS3505
ZBAA,1990-08-31 15:00,ZBAA 311500Z AUTO 00000KT 6SM 22/20 RMK SLP097 T02220197 52007 IEM_DS3505
ZBAA,1990-08-31 18:00,ZBAA 311800Z AUTO 07002KT 6SM 20/18 RMK SLP094 T02000177 40313//// 57003 IEM_DS3505
ZBAA,1990-08-31 20:00,ZBAA 312000Z AUTO 34002KT 7SM 20/17 A2977 RMK T02000170 IEM_DS3505
ZBAA,1990-08-31 21:00,ZBAA 312100Z AUTO 04004KT 4SM 19/17 A2980 RMK SLP095 T01880173 52001 IEM_DS3505
ZBAA,1990-08-31 22:00,ZBAA 312200Z AUTO ////04KT 7SM 19/16 A2980 RMK T01900160 IEM_DS3505
ZBAA,1990-08-31 23:00,ZBAA 312300Z AUTO ////02KT 7SM 21/17 A2980 RMK T02100170 IEM_DS3505
ZBAA,1990-09-01 00:00,ZBAA 010000Z AUTO 02006KT 4SM 22/17 A2983 RMK SLP104 T02220174 52009 IEM_DS3505
ZBAA,1990-09-01 01:00,ZBAA 010100Z AUTO ////06KT 7SM 25/17 A2983 RMK T02500170 IEM_DS3505
ZBAA,1990-09-01 02:00,ZBAA 010200Z AUTO ////04KT 7SM 27/17 A2983 RMK T02700170 IEM_DS3505
ZBAA,1990-09-01 03:00,ZBAA 010300Z AUTO 07004KT 16SM 29/16 A2980 RMK SLP105 T02880160 52001 IEM_DS3505
ZBAA,1990-09-01 04:00,ZBAA 010400Z AUTO ////02KT 7SM 30/18 A2980 RMK T03000180 IEM_DS3505
ZBAA,1990-09-01 05:00,ZBAA 010500Z AUTO ////04KT 7SM 30/20 A2977 RMK T03000200 IEM_DS3505
ZBAA,1990-09-01 06:00,ZBAA 010600Z AUTO 02004KT 19SM 32/13 A2977 RMK SLP095 T03150134 4////0184 57010 IEM_DS3505
ZBAA,1990-09-01 07:00,ZBAA 010700Z AUTO ////02KT 6SM 31/17 A2974 RMK T03100170 IEM_DS3505
ZBAA,1990-09-01 08:00,ZBAA 010800Z AUTO 00000KT 6SM 31/17 A2974 RMK T03100170 IEM_DS3505
ZBAA,1990-09-01 09:00,ZBAA 010900Z AUTO 02004KT 12SM 31/16 A2974 RMK SLP087 T03110156 57008 IEM_DS3505
ZBAA,1990-09-01 10:00,ZBAA 011000Z AUTO ////02KT 6SM 29/19 A2974 RMK T02900190 IEM_DS3505
ZBAA,1990-09-01 11:00,ZBAA 011100Z AUTO 00000KT 6SM 27/19 A2974 RMK T02700190 IEM_DS3505
ZBAA,1990-09-01 12:00,ZBAA 011200Z AUTO 04002KT 12SM 26/15 A2977 RMK SLP095 T02560150 52008 IEM_DS3505
ZBAA,1990-09-01 13:00,ZBAA 011300Z AUTO 32002KT 7SM 25/18 A2980 RMK T02500180 IEM_DS3505
ZBAA,1990-09-01 14:00,ZBAA 011400Z AUTO 08002KT 7SM 24/18 A2980 RMK T02400180 IEM_DS3505
ZBAA,1990-09-01 15:00,ZBAA 011500Z AUTO 00000KT 6SM 22/18 A2980 RMK SLP099 T02250184 52004 IEM_DS3505
ZBAA,1990-09-01 16:00,ZBAA 011600Z AUTO ////04KT 7SM 22/20 A2980 RMK T02200200 IEM_DS3505
ZBAA,1990-09-01 18:00,ZBAA 011800Z AUTO 00000KT 6SM 22/18 RMK SLP097 T02150182 40326//// 57002 IEM_DS3505
ZBAA,1990-09-01 20:00,ZBAA 012000Z AUTO 00000KT 6SM 22/21 A2977 RMK T02200210 IEM_DS3505
ZBAA,1990-09-01 21:00,ZBAA 012100Z AUTO 00000KT 5SM 21/18 A2977 RMK SLP097 T02110181 54000 IEM_DS3505
ZBAA,1990-09-01 22:00,ZBAA 012200Z AUTO 00000KT 2SM 22/21 A2977 RMK T02200210 IEM_DS3505
ZBAA,1990-09-01 23:00,ZBAA 012300Z AUTO 00000KT 1 1/4SM 22/21 A2980 RMK T02200210 IEM_DS3505
ZBAA,1990-09-01 23:10,ZBAA 012310Z AUTO 00000KT 3/8SM RMK IEM_DS3505
ZBAA,1990-09-02 00:00,ZBAA 020000Z AUTO 00000KT 4SM 23/19 A2980 RMK SLP102 T02260193 52005 IEM_DS3505
ZBAA,1990-09-02 01:00,ZBAA 020100Z AUTO 00000KT 4SM 23/22 A2983 RMK SLP102 T02300220 52005 IEM_DS3505
ZBAA,1990-09-02 02:00,ZBAA 020200Z AUTO 18002KT 5SM 26/22 A2980 RMK T02600220 IEM_DS3505
ZBAA,1990-09-02 03:00,ZBAA 020300Z AUTO 18006KT 4SM 26/20 A2980 RMK SLP100 T02580199 57002 IEM_DS3505
ZBAA,1990-09-02 04:00,ZBAA 020400Z AUTO ////04KT 7SM 27/20 A2980 RMK T02700200 IEM_DS3505
ZBAA,1990-09-02 05:00,ZBAA 020500Z AUTO ////04KT 7SM 28/21 A2977 RMK T02800210 IEM_DS3505
ZBAA,1990-09-02 06:00,ZBAA 020600Z AUTO 18004KT 6SM 28/20 A2977 RMK SLP094 T02780203 4////0207 57006 IEM_DS3505
ZBAA,1990-09-02 07:00,ZBAA 020700Z AUTO ////04KT 7SM 29/21 A2974 RMK T02900210 IEM_DS3505
ZBAA,1990-09-02 08:00,ZBAA 020800Z AUTO ////04KT 7SM 28/20 A2974 RMK T02800200 IEM_DS3505
ZBAA,1990-09-02 09:00,ZBAA 020900Z AUTO 16006KT 6SM 28/20 A2971 RMK SLP077 T02780201 57017 IEM_DS3505
ZBAA,1990-09-02 10:00,ZBAA 021000Z AUTO ////02KT 7SM 27/21 A2974 RMK T02700210 IEM_DS3505
ZBAA,1990-09-02 11:00,ZBAA 021100Z AUTO ////02KT 6SM 26/21 A2977 RMK T02600210 IEM_DS3505
ZBAA,1990-09-02 12:00,ZBAA 021200Z AUTO 07002KT 6SM 26/21 A2977 RMK SLP086 T02640209 52009 IEM_DS3505
ZBAA,1990-09-02 13:00,ZBAA 021300Z AUTO ////02KT 7SM 21/20 A2980 RMK T02100200 IEM_DS3505
ZBAA,1990-09-02 14:00,ZBAA 021400Z AUTO ////04KT 7SM 20/20 A2977 RMK T02000200 IEM_DS3505
ZBAA,1990-09-02 15:00,ZBAA 021500Z AUTO 20002KT 3SM 20/19 A2980 RMK SLP100 T02040193 52013 IEM_DS3505
ZBAA,1990-09-02 18:00,ZBAA 021800Z AUTO 00000KT 3SM 20/19 RMK 60094 SLP098 T02050192 40284//// 57001 IEM_DS3505
ZBAA,1990-09-02 20:00,ZBAA 022000Z AUTO 00000KT 4SM 20/19 A2980 RMK T02000190 IEM_DS3505
ZBAA,1990-09-02 21:00,ZBAA 022100Z AUTO 02002KT 3SM 20/20 A2980 RMK 70094 SLP099 T02050196 52001 IEM_DS3505
ZBAA,1990-09-02 22:00,ZBAA 022200Z AUTO 00000KT 4SM 20/19 A2980 RMK T02000190 IEM_DS3505
ZBAA,1990-09-02 23:00,ZBAA 022300Z AUTO 00000KT 3SM 21/19 A2983 RMK T02100190 IEM_DS3505
ZBAA,1990-09-03 00:00,ZBAA 030000Z AUTO 00000KT 2 1/2SM 20/19 A2985 RMK 60008 SLP115 T02030192 52015 IEM_DS3505
ZBAA,1990-09-03 01:00,ZBAA 030100Z AUTO 00000KT 3SM 21/20 A2985 RMK T02100200 IEM_DS3505
ZBAA,1990-09-03 02:00,ZBAA 030200Z AUTO 00000KT 3SM 21/21 A2985 RMK T02100210 IEM_DS3505
ZBAA,1990-09-03 03:00,ZBAA 030300Z AUTO 00000KT 1 1/4SM 22/20 A2988 RMK SLP123 T02150196 52008 IEM_DS3505
ZBAA,1990-09-03 04:00,ZBAA 030400Z AUTO 13010KT 7SM 20/19 A2988 RMK T02000190 IEM_DS3505
ZBAA,1990-09-03 05:00,ZBAA 030500Z AUTO 12008G17KT 7SM 21/17 A2988 RMK T02100170 IEM_DS3505
ZBAA,1990-09-03 06:00,ZBAA 030600Z AUTO 11008KT 4SM 20/17 A2988 RMK 60004 SLP123 T01950169 4////0191 54000 IEM_DS3505
ZBAA,1990-09-03 07:00,ZBAA 030700Z AUTO ////02KT 7SM 20/17 A2988 RMK T02000170 IEM_DS3505
ZBAA,1990-09-03 08:00,ZBAA 030800Z AUTO ////04KT 7SM 21/16 A2988 RMK T02100160 IEM_DS3505
ZBAA,1990-09-03 09:00,ZBAA 030900Z AUTO 04004KT 9SM 20/16 A2988 RMK SLP128 T01950155 52005 IEM_DS3505
ZBAA,1990-09-03 10:00,ZBAA 031000Z AUTO 00000KT 7SM 20/16 A2988 RMK T02000160 IEM_DS3505
ZBAA,1990-09-03 11:00,ZBAA 031100Z AUTO 00000KT 7SM 20/16 A2991 RMK T02000160 IEM_DS3505
ZBAA,1990-09-03 12:00,ZBAA 031200Z AUTO 36002KT 7SM 19/16 A2994 RMK 60002 SLP147 T01910165 52018 IEM_DS3505
ZBAA,1990-09-03 13:00,ZBAA 031300Z AUTO ////02KT 7SM 20/17 A2994 RMK T02000170 IEM_DS3505
ZBAA,1990-09-03 14:00,ZBAA 031400Z AUTO ////04KT 7SM 19/17 A2994 RMK T01900170 IEM_DS3505
ZBAA,1990-09-03 15:00,ZBAA 031500Z AUTO 00000KT 7SM 18/17 RMK SLP145 T01850167 57001 IEM_DS3505
ZBAA,1990-09-03 18:00,ZBAA 031800Z AUTO 00000KT 6SM 18/16 RMK SLP144 T01830163 40223//// 57002 IEM_DS3505
ZBAA,1990-09-03 20:00,ZBAA 032000Z AUTO 34004KT 7SM RMK IEM_DS3505
ZBAA,1990-09-03 21:00,ZBAA 032100Z AUTO 04002KT 5SM 19/16 A2991 RMK 70012 SLP144 T01860159 54000 IEM_DS3505
ZBAA,1990-09-03 22:00,ZBAA 032200Z AUTO 02002KT 7SM 19/16 A2991 RMK T01900160 IEM_DS3505
ZBAA,1990-09-03 23:00,ZBAA 032300Z AUTO 00000KT 7SM 19/17 A2994 RMK T01900170 IEM_DS3505
ZBAA,1990-09-04 00:00,ZBAA 040000Z AUTO 04002KT 4SM 20/16 A2994 RMK 70008 SLP153 T01970164 52009 IEM_DS3505
ZBAA,1990-09-04 01:00,ZBAA 040100Z AUTO 00000KT 6SM 21/17 A2997 RMK T02100170 IEM_DS3505
ZBAA,1990-09-04 02:00,ZBAA 040200Z AUTO ////02KT 6SM 22/16 A2997 RMK T02200160 IEM_DS3505
ZBAA,1990-09-04 02:26,ZBAA 040226Z AUTO ////02KT 6SM 22/16 A2997 RMK T02200160 IEM_DS3505
ZBAA,1990-09-04 03:00,ZBAA 040300Z AUTO 02004KT 6SM 22/16 A2997 RMK SLP156 T02180164 52003 IEM_DS3505
ZBAA,1990-09-04 04:00,ZBAA 040400Z AUTO ////02KT 6SM 24/15 A2994 RMK T02400150 IEM_DS3505
ZBAA,1990-09-04 05:00,ZBAA 040500Z AUTO ////04KT 6SM 24/15 RMK T02400150 IEM_DS3505
ZBAA,1990-09-04 06:00,ZBAA 040600Z AUTO 36004KT 6SM 23/15 A2991 RMK SLP146 T02280151 4////0179 57009 IEM_DS3505
ZBAA,1990-09-04 07:00,ZBAA 040700Z AUTO ////04KT 6SM 25/17 A2991 RMK T02500170 IEM_DS3505
ZBAA,1990-09-04 08:00,ZBAA 040800Z AUTO ////02KT 6SM 24/17 A2988 RMK T02400170 IEM_DS3505
ZBAA,1990-09-04 09:00,ZBAA 040900Z AUTO 32002KT 6SM 23/17 A2988 RMK T02300172 57011 IEM_DS3505
ZBAA,1990-09-04 10:00,ZBAA 041000Z AUTO 17002KT 6SM 23/17 A2988 RMK T02300170 IEM_DS3505
ZBAA,1990-09-04 11:00,ZBAA 041100Z AUTO 18002KT 7SM 22/19 RMK T02200190 IEM_DS3505
ZBAA,1990-09-04 12:00,ZBAA 041200Z AUTO 14002KT 6SM 22/18 A2991 RMK SLP141 T02210183 52006 IEM_DS3505
ZBAA,1990-09-04 13:00,ZBAA 041300Z AUTO 17004KT 6SM 22/18 A2994 RMK T02200180 IEM_DS3505
ZBAA,1990-09-04 14:00,ZBAA 041400Z AUTO ////04KT 6SM 21/18 A2991 RMK T02100180 IEM_DS3505
ZBAA,1990-09-04 15:00,ZBAA 041500Z AUTO 18004KT 2 1/2SM 21/19 RMK SLP144 T02110186 52003 IEM_DS3505
ZBAA,1990-09-04 18:00,ZBAA 041800Z AUTO 00000KT 2 1/2SM 21/19 A2991 RMK SLP141 T02060189 40237//// 57003 IEM_DS3505
ZBAA,1990-09-04 21:00,ZBAA 042100Z AUTO 00000KT 2 1/2SM 20/19 A2991 RMK SLP141 T02040188 54000 IEM_DS3505
ZBAA,1990-09-04 22:00,ZBAA 042200Z AUTO 00000KT 1 1/4SM 20/19 A2991 RMK T02000190 IEM_DS3505
ZBAA,1990-09-04 23:00,ZBAA 042300Z AUTO 00000KT 1 1/2SM 20/19 A2994 RMK T02000190 IEM_DS3505
ZBAA,1990-09-05 00:00,ZBAA 050000Z AUTO 00000KT 1 1/4SM 20/19 A2994 RMK SLP148 T02050192 52007 IEM_DS3505
ZBAA,1990-09-05 01:00,ZBAA 050100Z AUTO 00000KT 2SM 21/20 A2994 RMK T02100200 IEM_DS3505
ZBAA,1990-09-05 02:00,ZBAA 050200Z AUTO ////02KT 2 1/2SM 22/20 A2994 RMK T02200200 IEM_DS3505
ZBAA,1990-09-05 03:00,ZBAA 050300Z AUTO 16002KT 4SM 23/18 A2994 RMK SLP151 T02290181 52003 IEM_DS3505
ZBAA,1990-09-05 04:00,ZBAA 050400Z AUTO ////02KT 7SM 23/20 A2994 RMK T02300200 IEM_DS3505
ZBAA,1990-09-05 05:00,ZBAA 050500Z AUTO 09002KT 7SM 25/19 A2991 RMK T02500190 IEM_DS3505
ZBAA,1990-09-05 06:00,ZBAA 050600Z AUTO 00000KT 4SM 24/19 A2991 RMK SLP141 T02430190 4////0196 57010 IEM_DS3505
ZBAA,1990-09-05 07:00,ZBAA 050700Z AUTO ////02KT 6SM 25/18 A2991 RMK T02500180 IEM_DS3505
ZBAA,1990-09-05 08:00,ZBAA 050800Z AUTO ////02KT 6SM 26/19 RMK T02600190 IEM_DS3505
ZBAA,1990-09-05 09:00,ZBAA 050900Z AUTO 20004KT 5SM 24/19 A2991 RMK SLP137 T02450192 57004 IEM_DS3505
ZBAA,1990-09-05 10:00,ZBAA 051000Z AUTO ////02KT 6SM 24/19 A2988 RMK T02400190 IEM_DS3505
ZBAA,1990-09-05 11:00,ZBAA 051100Z AUTO 00000KT 6SM 23/20 A2991 RMK SLP149 T02330198 52012 IEM_DS3505
ZBAA,1990-09-05 12:00,ZBAA 051200Z AUTO 14002KT 4SM 24/20 A2994 RMK T02400200 IEM_DS3505
ZBAA,1990-09-05 13:00,ZBAA 051300Z AUTO 16002KT 4SM 23/20 A2997 RMK T02300200 IEM_DS3505
ZBAA,1990-09-05 15:00,ZBAA 051500Z AUTO 00000KT 4SM 23/20 RMK SLP157 T02280200 52008 IEM_DS3505
ZBAA,1990-09-05 18:00,ZBAA 051800Z AUTO 20002KT 4SM 22/20 RMK SLP156 T02170203 40253//// 57001 IEM_DS3505
ZBAA,1990-09-05 21:00,ZBAA 052100Z AUTO 00000KT 1 1/4SM 21/20 RMK SLP156 T02060197 54000 IEM_DS3505
ZBAA,1990-09-05 22:00,ZBAA 052200Z AUTO 00000KT 2SM 22/20 A2997 RMK T02200200 IEM_DS3505
ZBAA,1990-09-05 23:00,ZBAA 052300Z AUTO ////04KT 1 1/2SM 22/20 A3000 RMK T02200200 IEM_DS3505
ZBAA,1990-09-06 00:00,ZBAA 060000Z AUTO 07002KT 1SM 22/20 A3000 RMK SLP170 T02190205 52014 IEM_DS3505
ZBAA,1990-09-06 02:00,ZBAA 060200Z AUTO ////04KT 4SM 25/21 A3003 RMK T02500210 IEM_DS3505
ZBAA,1990-09-06 03:00,ZBAA 060300Z AUTO 09004KT 2SM 25/21 A3003 RMK SLP177 T02490208 52007 IEM_DS3505
ZBAA,1990-09-06 04:00,ZBAA 060400Z AUTO ////02KT 4SM 26/21 A3003 RMK T02600210 IEM_DS3505
ZBAA,1990-09-06 05:00,ZBAA 060500Z AUTO ////04KT 4SM 28/21 A3000 RMK T02800210 IEM_DS3505
ZBAA,1990-09-06 06:00,ZBAA 060600Z AUTO 16006KT 4SM 27/20 A2997 RMK SLP168 T02730205 4////0201 57009 IEM_DS3505
ZBAA,1990-09-06 07:00,ZBAA 060700Z AUTO ////04KT 4SM 28/21 A2997 RMK T02800210 IEM_DS3505
ZBAA,1990-09-06 08:00,ZBAA 060800Z AUTO ////04KT 5SM 28/22 A2997 RMK T02800220 IEM_DS3505
ZBAA,1990-09-06 09:00,ZBAA 060900Z AUTO 16006KT 4SM 27/20 A2997 RMK SLP159 T02710201 57009 IEM_DS3505
ZBAA,1990-09-06 10:00,ZBAA 061000Z AUTO ////04KT 7SM 26/20 A2997 RMK T02600200 IEM_DS3505
ZBAA,1990-09-06 11:00,ZBAA 061100Z AUTO ////04KT 6SM 25/19 A3000 RMK T02500190 IEM_DS3505
ZBAA,1990-09-06 12:00,ZBAA 061200Z AUTO 16002KT 5SM 24/18 A3000 RMK 60000 SLP172 T02450185 52013 IEM_DS3505
ZBAA,1990-09-06 15:00,ZBAA 061500Z AUTO 11002KT 5SM 22/20 RMK SLP186 T02250197 52014 IEM_DS3505
ZBAA,1990-09-06 18:00,ZBAA 061800Z AUTO 00000KT 4SM 22/20 RMK SLP183 T02200205 40281//// 57003 IEM_DS3505
ZBAA,1990-09-06 21:00,ZBAA 062100Z AUTO 00000KT 1 1/4SM 22/21 A3000 RMK SLP178 T02190207 57005 IEM_DS3505
ZBAA,1990-09-06 22:00,ZBAA 062200Z AUTO ////02KT 2 1/2SM 22/21 A3003 RMK T02200210 IEM_DS3505
ZBAA,1990-09-06 23:00,ZBAA 062300Z AUTO ////02KT 2SM 22/21 A3003 RMK T02200210 IEM_DS3505
ZBAA,1990-09-07 00:00,ZBAA 070000Z AUTO 20004KT 2SM 22/21 A3003 RMK 60008 70008 SLP180 T02250210 52002 IEM_DS3505
ZBAA,1990-09-07 01:00,ZBAA 070100Z AUTO ////02KT 2 1/2SM 24/22 A3003 RMK T02400220 IEM_DS3505
ZBAA,1990-09-07 02:00,ZBAA 070200Z AUTO ////04KT 4SM 26/22 A3006 RMK T02600220 IEM_DS3505
ZBAA,1990-09-07 03:00,ZBAA 070300Z AUTO 18006KT 2 1/2SM 26/21 A3003 RMK SLP179 T02580213 57001 IEM_DS3505
ZBAA,1990-09-07 04:00,ZBAA 070400Z AUTO ////04KT 7SM 29/22 A3000 RMK T02900220 IEM_DS3505
ZBAA,1990-09-07 05:00,ZBAA 070500Z AUTO ////04KT 7SM 28/21 A3000 RMK T02800210 IEM_DS3505
ZBAA,1990-09-07 06:00,ZBAA 070600Z AUTO 20006KT 2SM 27/20 A2997 RMK SLP163 T02690202 4////0211 57016 IEM_DS3505
ZBAA,1990-09-07 07:00,ZBAA 070700Z AUTO ////02KT 7SM 27/21 A2994 RMK T02700210 IEM_DS3505
ZBAA,1990-09-07 08:00,ZBAA 070800Z AUTO ////04KT 7SM 28/21 A2991 RMK T02800210 IEM_DS3505
ZBAA,1990-09-07 09:00,ZBAA 070900Z AUTO 22006KT 3SM 27/20 A2991 RMK SLP144 T02730200 57018 IEM_DS3505
ZBAA,1990-09-07 10:00,ZBAA 071000Z AUTO 15002KT 7SM 27/21 A2991 RMK T02700210 IEM_DS3505
ZBAA,1990-09-07 11:00,ZBAA 071100Z AUTO 00000KT 6SM 25/22 A2991 RMK T02500220 IEM_DS3505
ZBAA,1990-09-07 12:00,ZBAA 071200Z AUTO 20004KT 6SM 25/21 A2994 RMK SLP147 T02490208 52002 IEM_DS3505
ZBAA,1990-09-07 13:00,ZBAA 071300Z AUTO 00000KT 6SM 24/21 A2994 RMK T02400210 IEM_DS3505
ZBAA,1990-09-07 14:00,ZBAA 071400Z AUTO 17002KT 6SM 24/21 A2994 RMK T02400210 IEM_DS3505
ZBAA,1990-09-07 15:00,ZBAA 071500Z AUTO 00000KT 6SM 23/22 RMK SLP150 T02340216 52003 IEM_DS3505
ZBAA,1990-09-07 18:00,ZBAA 071800Z AUTO 34008KT 7SM 23/15 RMK SLP155 T02270154 40282//// 52006 IEM_DS3505
ZBAA,1990-09-07 20:00,ZBAA 072000Z AUTO ////06KT 7SM 19/18 A2997 RMK T01900180 IEM_DS3505
ZBAA,1990-09-07 21:00,ZBAA 072100Z AUTO 02008KT 5SM 18/17 A3000 RMK 70024 SLP165 T01830170 52009 IEM_DS3505
ZBAA,1990-09-07 23:00,ZBAA 072300Z AUTO ////06KT 7SM 19/18 A3000 RMK T01900180 IEM_DS3505
ZBAA,1990-09-08 00:00,ZBAA 080000Z AUTO 04004KT 8SM 19/17 A3003 RMK 60043 SLP175 T01900172 52010 IEM_DS3505
ZBAA,1990-09-08 01:00,ZBAA 080100Z AUTO 33004KT 7SM 19/18 A3003 RMK T01900180 IEM_DS3505
ZBAA,1990-09-08 02:00,ZBAA 080200Z AUTO 31004KT 7SM 19/19 A3003 RMK T01900190 IEM_DS3505
ZBAA,1990-09-08 03:00,ZBAA 080300Z AUTO 04004KT 7SM 20/17 A3003 RMK SLP179 T02020174 52004 IEM_DS3505
ZBAA,1990-09-08 04:00,ZBAA 080400Z AUTO 00000KT 6SM 22/18 A3000 RMK T02200180 IEM_DS3505
ZBAA,1990-09-08 05:00,ZBAA 080500Z AUTO ////04KT 6SM 25/18 A3000 RMK T02500180 IEM_DS3505
ZBAA,1990-09-08 06:00,ZBAA 080600Z AUTO 04006KT 16SM 25/15 A2997 RMK 60004 SLP160 T02510152 4////0179 57019 IEM_DS3505
ZBAA,1990-09-08 07:00,ZBAA 080700Z AUTO 00000KT 6SM 25/16 A2997 RMK T02500160 IEM_DS3505
ZBAA,1990-09-08 08:00,ZBAA 080800Z AUTO ////04KT 6SM 25/17 A2994 RMK T02500170 IEM_DS3505
ZBAA,1990-09-08 09:00,ZBAA 080900Z AUTO 18006KT 9SM 25/16 A2994 RMK SLP149 T02500164 57011 IEM_DS3505
ZBAA,1990-09-08 10:00,ZBAA 081000Z AUTO 18004KT 6SM 23/17 A2994 RMK T02300170 IEM_DS3505
ZBAA,1990-09-08 11:00,ZBAA 081100Z AUTO 16004KT 6SM 22/17 A2994 RMK T02200170 IEM_DS3505
ZBAA,1990-09-08 12:00,ZBAA 081200Z AUTO 20008KT 9SM 22/17 RMK SLP161 T02210171 52012 IEM_DS3505
ZBAA,1990-09-08 13:00,ZBAA 081300Z AUTO ////02KT 6SM 21/18 A2997 RMK T02100180 IEM_DS3505
ZBAA,1990-09-08 15:00,ZBAA 081500Z AUTO 20004KT 9SM 20/17 A2997 RMK SLP168 T01970166 52006 IEM_DS3505
ZBAA,1990-09-08 18:00,ZBAA 081800Z AUTO 22002KT 6SM 19/17 RMK SLP162 T01920174 40268//// 57005 IEM_DS3505
ZBAA,1990-09-08 21:00,ZBAA 082100Z AUTO 07002KT 5SM 18/17 RMK 70024 SLP158 T01810171 57004 IEM_DS3505
ZBAA,1990-09-08 22:00,ZBAA 082200Z AUTO ////02KT 2 1/2SM 18/16 A2997 RMK T01800160 IEM_DS3505
ZBAA,1990-09-08 23:00,ZBAA 082300Z AUTO 33002KT 3SM 18/17 A2997 RMK T01800170 IEM_DS3505
ZBAA,1990-09-09 00:00,ZBAA 090000Z AUTO 36004KT 5SM 19/18 A2997 RMK 70004 SLP158 T01930177 54000 IEM_DS3505
ZBAA,1990-09-09 01:00,ZBAA 090100Z AUTO ////02KT 6SM 22/18 A2997 RMK T02200180 IEM_DS3505
ZBAA,1990-09-09 02:00,ZBAA 090200Z AUTO ////04KT 6SM 23/18 A2997 RMK T02300180 IEM_DS3505
ZBAA,1990-09-09 03:00,ZBAA 090300Z AUTO 00000KT 4SM 24/17 A2994 RMK SLP154 T02400169 57004 IEM_DS3505
ZBAA,1990-09-09 04:00,ZBAA 090400Z AUTO 00000KT 6SM 26/16 A2994 RMK T02600160 IEM_DS3505
ZBAA,1990-09-09 05:00,ZBAA 090500Z AUTO ////04KT 6SM A2991 RMK IEM_DS3505
ZBAA,1990-09-09 06:00,ZBAA 090600Z AUTO 20004KT 5SM 25/15 A2991 RMK SLP145 T02540148 4////0175 57009 IEM_DS3505
ZBAA,1990-09-09 07:00,ZBAA 090700Z AUTO ////04KT 6SM 26/16 A2991 RMK T02600160 IEM_DS3505
ZBAA,1990-09-09 08:00,ZBAA 090800Z AUTO ////04KT 6SM 26/16 A2988 RMK T02600160 IEM_DS3505
ZBAA,1990-09-09 09:00,ZBAA 090900Z AUTO 20006KT 6SM 25/13 A2988 RMK SLP135 T02470129 57010 IEM_DS3505
ZBAA,1990-09-09 10:00,ZBAA 091000Z AUTO 17002KT 6SM 23/16 A2988 RMK T02300160 IEM_DS3505
ZBAA,1990-09-09 11:00,ZBAA 091100Z AUTO 16004KT 6SM 23/16 A2988 RMK T02300160 IEM_DS3505
ZBAA,1990-09-09 12:00,ZBAA 091200Z AUTO 20004KT 6SM 22/17 A2991 RMK SLP137 T02200170 52002 IEM_DS3505
ZBAA,1990-09-09 13:00,ZBAA 091300Z AUTO 14002KT 6SM 21/17 A2991 RMK T02100170 IEM_DS3505
ZBAA,1990-09-09 14:00,ZBAA 091400Z AUTO 19002KT 6SM 20/17 A2991 RMK T02000170 IEM_DS3505
ZBAA,1990-09-09 15:00,ZBAA 091500Z AUTO 00000KT 6SM 20/17 A2991 RMK SLP139 T02030174 52002 IEM_DS3505
ZBAA,1990-09-09 18:00,ZBAA 091800Z AUTO 04002KT 5SM 18/16 RMK SLP137 T01850158 40266//// 57002 IEM_DS3505
ZBAA,1990-09-09 20:00,ZBAA 092000Z AUTO 00000KT 5SM 17/15 A2988 RMK T01700150 IEM_DS3505
ZBAA,1990-09-09 21:00,ZBAA 092100Z AUTO 00000KT 6SM 18/15 A2988 RMK SLP134 T01750151 57003 IEM_DS3505
ZBAA,1990-09-09 22:00,ZBAA 092200Z AUTO 32002KT 6SM 17/15 A2988 RMK T01700150 IEM_DS3505
ZBAA,1990-09-09 23:00,ZBAA 092300Z AUTO 33004KT 6SM 18/15 A2988 RMK T01800150 IEM_DS3505
ZBAA,1990-09-10 00:00,ZBAA 100000Z AUTO 00000KT 2 1/2SM 20/16 A2988 RMK SLP137 T01960163 52003 IEM_DS3505
ZBAA,1990-09-10 01:00,ZBAA 100100Z AUTO ////04KT 7SM 22/16 A2988 RMK T02200160 IEM_DS3505
ZBAA,1990-09-10 02:00,ZBAA 100200Z AUTO ////02KT 7SM 23/16 A2988 RMK T02300160 IEM_DS3505
ZBAA,1990-09-10 03:00,ZBAA 100300Z AUTO 00000KT 5SM 25/14 A2985 RMK SLP132 T02470143 57005 IEM_DS3505
ZBAA,1990-09-10 04:00,ZBAA 100400Z AUTO ////02KT 6SM 26/15 A2985 RMK T02600150 IEM_DS3505
ZBAA,1990-09-10 05:00,ZBAA 100500Z AUTO ////04KT 6SM 27/15 A2983 RMK T02700150 IEM_DS3505
ZBAA,1990-09-10 06:00,ZBAA 100600Z AUTO 29002KT 6SM 27/16 A2980 RMK SLP110 T02740156 4////0166 57022 IEM_DS3505
ZBAA,1990-09-10 07:00,ZBAA 100700Z AUTO ////04KT 6SM 28/15 A2983 RMK T02800150 IEM_DS3505
ZBAA,1990-09-10 08:00,ZBAA 100800Z AUTO ////06KT 6SM 27/17 A2980 RMK T02700170 IEM_DS3505
ZBAA,1990-09-10 09:00,ZBAA 100900Z AUTO 20006KT 6SM 25/15 A2980 RMK SLP109 T02530153 57001 IEM_DS3505
ZBAA,1990-09-10 10:00,ZBAA 101000Z AUTO ////04KT 6SM 24/16 A2983 RMK T02400160 IEM_DS3505
ZBAA,1990-09-10 11:00,ZBAA 101100Z AUTO ////04KT 6SM 23/16 A2983 RMK T02300160 IEM_DS3505
ZBAA,1990-09-10 12:00,ZBAA 101200Z AUTO 20004KT 6SM 22/16 A2985 RMK SLP116 T02220158 52007 IEM_DS3505
ZBAA,1990-09-10 13:00,ZBAA 101300Z AUTO 18002KT 6SM 21/16 A2985 RMK T02100160 IEM_DS3505
ZBAA,1990-09-10 14:00,ZBAA 101400Z AUTO 00000KT 6SM 20/17 A2985 RMK T02000170 IEM_DS3505
ZBAA,1990-09-10 15:00,ZBAA 101500Z AUTO 00000KT 5SM 20/17 A2985 RMK SLP117 T01950167 52001 IEM_DS3505
ZBAA,1990-09-10 16:00,ZBAA 101600Z AUTO 00000KT 6SM 19/17 A2985 RMK T01900170 IEM_DS3505
ZBAA,1990-09-10 17:00,ZBAA 101700Z AUTO 00000KT 6SM 18/16 A2983 RMK T01800160 IEM_DS3505
ZBAA,1990-09-10 18:00,ZBAA 101800Z AUTO 07002KT 4SM 19/16 RMK SLP115 T01870164 40284//// 57002 IEM_DS3505
ZBAA,1990-09-10 20:00,ZBAA 102000Z AUTO 00000KT 4SM 17/16 A2980 RMK T01700160 IEM_DS3505
ZBAA,1990-09-10 21:00,ZBAA 102100Z AUTO 31002KT 4SM 17/16 A2983 RMK SLP112 T01710159 57003 IEM_DS3505
ZBAA,1990-09-10 22:00,ZBAA 102200Z AUTO 31004KT 3SM 17/16 A2983 RMK T01700160 IEM_DS3505
ZBAA,1990-09-10 23:00,ZBAA 102300Z AUTO 32004KT 4SM 18/16 A2983 RMK T01800160 IEM_DS3505
ZBAA,1990-09-11 00:00,ZBAA 110000Z AUTO 00000KT 2SM 19/17 A2983 RMK SLP114 T01910170 52002 IEM_DS3505
ZBAA,1990-09-11 01:00,ZBAA 110100Z AUTO ////04KT 7SM 23/17 A2983 RMK T02300170 IEM_DS3505
ZBAA,1990-09-11 03:00,ZBAA 110300Z AUTO 00000KT 4SM 26/16 A2980 RMK SLP106 T02610159 57008 IEM_DS3505
ZBAA,1990-09-11 04:00,ZBAA 110400Z AUTO 00000KT 7SM 28/18 A2977 RMK T02800180 IEM_DS3505
ZBAA,1990-09-11 05:00,ZBAA 110500Z AUTO ////02KT 7SM 29/17 A2974 RMK T02900170 IEM_DS3505
ZBAA,1990-09-11 06:00,ZBAA 110600Z AUTO 20004KT 5SM 30/16 RMK SLP087 T03020165 4////0165 57018 IEM_DS3505
ZBAA,1990-09-11 07:00,ZBAA 110700Z AUTO ////04KT 7SM 30/17 A2971 RMK T03000170 IEM_DS3505
ZBAA,1990-09-11 08:00,ZBAA 110800Z AUTO ////04KT 6SM 30/16 A2971 RMK T03000160 IEM_DS3505
ZBAA,1990-09-11 09:00,ZBAA 110900Z AUTO 22006KT 7SM 30/16 A2971 RMK SLP079 T02950155 57008 IEM_DS3505
ZBAA,1990-09-11 10:00,ZBAA 111000Z AUTO 17002KT 6SM 27/17 A2974 RMK T02700170 IEM_DS3505
ZBAA,1990-09-11 11:00,ZBAA 111100Z AUTO ////02KT 7SM 26/16 A2974 RMK T02600160 IEM_DS3505
ZBAA,1990-09-11 12:00,ZBAA 111200Z AUTO 22002KT 12SM 20/16 A2977 RMK 60000 SLP086 T02000157 52006 IEM_DS3505
ZBAA,1990-09-11 13:00,ZBAA 111300Z AUTO 32004KT 7SM 22/13 A2977 RMK T02200130 IEM_DS3505
ZBAA,1990-09-11 14:00,ZBAA 111400Z AUTO ////04KT 7SM 22/14 A2980 RMK T02200140 IEM_DS3505
ZBAA,1990-09-11 15:00,ZBAA 111500Z AUTO 00000KT 12SM 19/15 A2980 RMK SLP099 T01920150 52013 IEM_DS3505
ZBAA,1990-09-11 18:00,ZBAA 111800Z AUTO 32002KT 7SM 18/14 RMK SLP107 T01850144 40308//// 52009 IEM_DS3505
ZBAA,1990-09-11 20:00,ZBAA 112000Z AUTO ////02KT 7SM 18/14 A2983 RMK T01800140 IEM_DS3505
ZBAA,1990-09-11 21:00,ZBAA 112100Z AUTO 02004KT 9SM 19/14 A2983 RMK SLP113 T01900136 52006 IEM_DS3505
ZBAA,1990-09-11 22:00,ZBAA 112200Z AUTO ////02KT 6SM 18/14 A2983 RMK T01800140 IEM_DS3505
ZBAA,1990-09-11 23:00,ZBAA 112300Z AUTO ////02KT 6SM 19/15 A2985 RMK T01900150 IEM_DS3505
ZBAA,1990-09-12 00:00,ZBAA 120000Z AUTO 07002KT 6SM 20/15 A2985 RMK SLP125 T02040152 52011 IEM_DS3505
ZBAA,1990-09-12 01:00,ZBAA 120100Z AUTO ////02KT 6SM 24/15 A2988 RMK T02400150 IEM_DS3505
ZBAA,1990-09-12 02:00,ZBAA 120200Z AUTO ////02KT 7SM 26/16 A2988 RMK T02600160 IEM_DS3505
ZBAA,1990-09-12 03:00,ZBAA 120300Z AUTO 04004KT 6SM 26/14 RMK SLP131 T02590140 52006 IEM_DS3505
ZBAA,1990-09-12 04:00,ZBAA 120400Z AUTO ////02KT 7SM 28/15 A2988 RMK T02800150 IEM_DS3505
ZBAA,1990-09-12 05:00,ZBAA 120500Z AUTO ////04KT 7SM 29/17 A2985 RMK T02900170 IEM_DS3505
ZBAA,1990-09-12 06:00,ZBAA 120600Z AUTO 14004KT 7SM 28/15 A2985 RMK SLP125 T02850148 4////0170 57006 IEM_DS3505
ZBAA,1990-09-12 07:00,ZBAA 120700Z AUTO ////04KT 7SM 30/13 A2985 RMK T03000130 IEM_DS3505
ZBAA,1990-09-12 08:00,ZBAA 120800Z AUTO ////06KT 6SM 29/13 A2983 RMK T02900130 IEM_DS3505
ZBAA,1990-09-12 09:00,ZBAA 120900Z AUTO 16002KT 7SM 28/16 A2985 RMK SLP121 T02830155 57004 IEM_DS3505
ZBAA,1990-09-12 10:00,ZBAA 121000Z AUTO 17002KT 6SM 27/15 A2985 RMK T02700150 IEM_DS3505
ZBAA,1990-09-12 11:00,ZBAA 121100Z AUTO 14002KT 6SM 25/16 A2985 RMK T02500160 IEM_DS3505
ZBAA,1990-09-12 12:00,ZBAA 121200Z AUTO 00000KT 6SM 24/19 A2988 RMK SLP132 T02450186 52011 IEM_DS3505
ZBAA,1990-09-12 13:00,ZBAA 121300Z AUTO 00000KT 6SM 24/17 A2994 RMK T02400170 IEM_DS3505
ZBAA,1990-09-12 14:00,ZBAA 121400Z AUTO ////06KT 7SM 23/17 A2997 RMK T02300170 IEM_DS3505
ZBAA,1990-09-12 15:00,ZBAA 121500Z AUTO 16006G17KT 9SM 20/16 A2988 RMK SLP143 T01990155 52011 IEM_DS3505
ZBAA,1990-09-12 16:00,ZBAA 121600Z AUTO ////04KT 6SM 20/18 A2991 RMK T02000180 IEM_DS3505
ZBAA,1990-09-12 17:00,ZBAA 121700Z AUTO ////04KT 6SM 19/17 A2991 RMK T01900170 IEM_DS3505
ZBAA,1990-09-12 18:00,ZBAA 121800Z AUTO 07002KT 9SM 20/16 A2991 RMK 60002 SLP138 T02030163 40293//// 57004 IEM_DS3505
ZBAA,1990-09-12 20:00,ZBAA 122000Z AUTO 10002KT 6SM 19/16 A2991 RMK T01900160 IEM_DS3505
ZBAA,1990-09-12 21:00,ZBAA 122100Z AUTO 00000KT 4SM 20/17 A2994 RMK 70004 SLP140 T01960172 52001 IEM_DS3505
ZBAA,1990-09-12 22:00,ZBAA 122200Z AUTO ////02KT 7SM 19/19 A2991 RMK T01900190 IEM_DS3505
ZBAA,1990-09-12 23:00,ZBAA 122300Z AUTO ////06KT 3SM 19/18 A2997 RMK T01900180 IEM_DS3505
ZBAA,1990-09-13 00:00,ZBAA 130000Z AUTO 04002KT 2 1/2SM 19/17 A2994 RMK 60004 70008 SLP148 T01890173 52008 IEM_DS3505
ZBAA,1990-09-13 01:00,ZBAA 130100Z AUTO ////02KT 7SM 20/19 A2994 RMK T02000190 IEM_DS3505
ZBAA,1990-09-13 02:00,ZBAA 130200Z AUTO ////04KT 7SM 21/21 A2997 RMK T02100210 IEM_DS3505
ZBAA,1990-09-13 03:00,ZBAA 130300Z AUTO 36004KT 2SM 20/18 A2994 RMK SLP152 T01990185 52003 IEM_DS3505
ZBAA,1990-09-13 04:00,ZBAA 130400Z AUTO ////04KT 7SM 24/20 A2991 RMK T02400200 IEM_DS3505
ZBAA,1990-09-13 05:00,ZBAA 130500Z AUTO ////04KT 7SM 26/21 A2988 RMK T02600210 IEM_DS3505
ZBAA,1990-09-13 06:00,ZBAA 130600Z AUTO 36004KT 3SM 23/19 A2988 RMK SLP135 T02280194 4////0180 57016 IEM_DS3505
ZBAA,1990-09-13 07:00,ZBAA 130700Z AUTO 00000KT 6SM 26/21 A2985 RMK T02600210 IEM_DS3505
ZBAA,1990-09-13 08:00,ZBAA 130800Z AUTO ////02KT 7SM 26/21 A2985 RMK T02600210 IEM_DS3505
ZBAA,1990-09-13 09:00,ZBAA 130900Z AUTO 11002KT 2SM 22/19 A2985 RMK SLP129 T02190192 57006 IEM_DS3505
ZBAA,1990-09-13 10:00,ZBAA 131000Z AUTO ////02KT 7SM 23/20 A2985 RMK T02300200 IEM_DS3505
ZBAA,1990-09-13 11:00,ZBAA 131100Z AUTO ////02KT 7SM 23/20 A2985 RMK T02300200 IEM_DS3505
ZBAA,1990-09-13 12:00,ZBAA 131200Z AUTO 07004KT 2SM 22/19 A2988 RMK 60004 SLP126 T02150190 57003 IEM_DS3505
ZBAA,1990-09-13 13:00,ZBAA 131300Z AUTO 07002KT 7SM 22/19 A2991 RMK T02200190 IEM_DS3505
ZBAA,1990-09-13 15:00,ZBAA 131500Z AUTO 02002KT 1 1/4SM 20/19 A2988 RMK SLP136 T02050191 52010 IEM_DS3505
ZBAA,1990-09-13 18:00,ZBAA 131800Z AUTO 36012KT 2 1/2SM 18/14 RMK 60000 SLP151 T01830145 52015 IEM_DS3505
ZBAA,1990-09-13 19:00,ZBAA 131900Z AUTO ////02KT 6SM 18/17 A2985 RMK T01800170 IEM_DS3505
ZBAA,1990-09-13 20:00,ZBAA 132000Z AUTO 31002KT 6SM 17/16 A2988 RMK T01700160 IEM_DS3505
ZBAA,1990-09-13 21:00,ZBAA 132100Z AUTO 00000KT 2 1/2SM 17/14 A2991 RMK 70012 SLP140 T01720139 57012 IEM_DS3505
ZBAA,1990-09-13 22:00,ZBAA 132200Z AUTO ////02KT 7SM 16/15 A2994 RMK T01600150 IEM_DS3505
ZBAA,1990-09-13 23:00,ZBAA 132300Z AUTO 31008KT 7SM 19/14 A2994 RMK T01900140 IEM_DS3505
ZBAA,1990-09-14 00:00,ZBAA 140000Z AUTO 07002KT 12SM 20/14 A2994 RMK 60001 70008 SLP157 T02010135 52018 IEM_DS3505
ZBAA,1990-09-14 01:00,ZBAA 140100Z AUTO 33008KT 7SM 23/11 A2997 RMK T02300110 IEM_DS3505
ZBAA,1990-09-14 02:00,ZBAA 140200Z AUTO ////04KT 7SM 24/13 A2997 RMK T02400130 IEM_DS3505
ZBAA,1990-09-14 03:00,ZBAA 140300Z AUTO 36010KT 17SM 23/10 A3000 RMK SLP164 T02330098 52007 IEM_DS3505
ZBAA,1990-09-14 04:00,ZBAA 140400Z AUTO 32008KT 7SM 25/09 A2997 RMK T02500090 IEM_DS3505
ZBAA,1990-09-14 05:00,ZBAA 140500Z AUTO 34010KT 7SM 25/09 A2997 RMK T02500090 IEM_DS3505
ZBAA,1990-09-14 06:00,ZBAA 140600Z AUTO 36012KT 19SM 25/08 A2997 RMK T02510079 4////0196 IEM_DS3505
ZBAA,1990-09-14 07:00,ZBAA 140700Z AUTO ////04KT 7SM 25/08 A2997 RMK T02500080 IEM_DS3505
ZBAA,1990-09-14 08:00,ZBAA 140800Z AUTO ////04KT 7SM 25/08 A2997 RMK T02500080 IEM_DS3505
ZBAA,1990-09-14 09:00,ZBAA 140900Z AUTO 04004KT 19SM 25/09 A2997 RMK SLP161 T02480090 52001 IEM_DS3505
ZBAA,1990-09-14 10:00,ZBAA 141000Z AUTO ////02KT 7SM 23/08 A3000 RMK T02300080 IEM_DS3505
ZBAA,1990-09-14 11:00,ZBAA 141100Z AUTO 00000KT 7SM 20/09 A3000 RMK T02000090 IEM_DS3505
ZBAA,1990-09-14 12:00,ZBAA 141200Z AUTO 25004KT 19SM 20/11 RMK SLP180 T01960106 52018 IEM_DS3505
ZBAA,1990-09-14 13:00,ZBAA 141300Z AUTO 00000KT 7SM 19/09 A3003 RMK T01900090 IEM_DS3505
ZBAA,1990-09-14 14:00,ZBAA 141400Z AUTO 27002KT 7SM 16/12 A3003 RMK T01600120 IEM_DS3505
ZBAA,1990-09-14 15:00,ZBAA 141500Z AUTO 29002KT 19SM 16/11 A3006 RMK SLP183 T01610113 52003 IEM_DS3505
ZBAA,1990-09-14 18:00,ZBAA 141800Z AUTO 00000KT 6SM 16/12 RMK SLP186 T01550116 40257//// 52003 IEM_DS3505
ZBAA,1990-09-14 20:00,ZBAA 142000Z AUTO 00000KT 7SM 14/11 A3006 RMK T01400110 IEM_DS3505
ZBAA,1990-09-14 21:00,ZBAA 142100Z AUTO 04002KT 5SM 15/11 A3006 RMK SLP186 T01460112 54000 IEM_DS3505
ZBAA,1990-09-14 23:00,ZBAA 142300Z AUTO ////02KT 7SM 16/12 A3006 RMK T01600120 IEM_DS3505
ZBAA,1990-09-15 00:00,ZBAA 150000Z AUTO 07002KT 7SM 17/11 A3006 RMK SLP190 T01680109 52004 IEM_DS3505
ZBAA,1990-09-15 01:00,ZBAA 150100Z AUTO 00000KT 4SM 17/15 A3006 RMK T01700150 IEM_DS3505
ZBAA,1990-09-15 02:00,ZBAA 150200Z AUTO ////04KT 4SM 20/16 A3006 RMK T02000160 IEM_DS3505
ZBAA,1990-09-15 03:00,ZBAA 150300Z AUTO 20002KT 4SM 22/13 A3003 RMK SLP175 T02230133 57015 IEM_DS3505
ZBAA,1990-09-15 04:00,ZBAA 150400Z AUTO ////04KT 5SM 24/15 A3000 RMK T02400150 IEM_DS3505
ZBAA,1990-09-15 05:00,ZBAA 150500Z AUTO ////06KT 6SM 26/15 A2997 RMK T02600150 IEM_DS3505
ZBAA,1990-09-15 06:00,ZBAA 150600Z AUTO 20008KT 9SM 26/12 A2994 RMK SLP146 T02570118 4////0130 57028 IEM_DS3505
ZBAA,1990-09-15 07:00,ZBAA 150700Z AUTO ////04KT 6SM 27/15 A2991 RMK T02700150 IEM_DS3505
ZBAA,1990-09-15 08:00,ZBAA 150800Z AUTO ////04KT 6SM 26/15 A2988 RMK T02600150 IEM_DS3505
ZBAA,1990-09-15 09:00,ZBAA 150900Z AUTO 20010KT 9SM 25/14 A2988 RMK SLP133 T02520140 57013 IEM_DS3505
ZBAA,1990-09-15 10:00,ZBAA 151000Z AUTO ////04KT 6SM 24/16 A2988 RMK T02400160 IEM_DS3505
ZBAA,1990-09-15 11:00,ZBAA 151100Z AUTO ////04KT 6SM 23/16 A2988 RMK T02300160 IEM_DS3505
ZBAA,1990-09-15 12:00,ZBAA 151200Z AUTO 20006KT 9SM 23/16 A2988 RMK SLP132 T02290164 57001 IEM_DS3505
ZBAA,1990-09-15 13:00,ZBAA 151300Z AUTO ////04KT 6SM 21/16 A2988 RMK T02100160 IEM_DS3505
ZBAA,1990-09-15 14:00,ZBAA 151400Z AUTO ////04KT 6SM 20/16 A2988 RMK T02000160 IEM_DS3505
ZBAA,1990-09-15 15:00,ZBAA 151500Z AUTO 18004KT 7SM 21/16 A2988 RMK SLP132 T02090159 54000 IEM_DS3505
ZBAA,1990-09-15 16:00,ZBAA 151600Z AUTO ////04KT 6SM 19/16 A2988 RMK T01900160 IEM_DS3505
ZBAA,1990-09-15 18:00,ZBAA 151800Z AUTO 07002KT 6SM 18/16 RMK SLP123 T01820162 40266//// 57009 IEM_DS3505
ZBAA,1990-09-15 20:00,ZBAA 152000Z AUTO ////04KT 7SM 17/15 A2983 RMK T01700150 IEM_DS3505
ZBAA,1990-09-15 21:00,ZBAA 152100Z AUTO 04004KT 5SM 18/16 A2983 RMK SLP109 T01760156 57014 IEM_DS3505
ZBAA,1990-09-15 23:00,ZBAA 152300Z AUTO 08002KT 7SM 17/15 A2983 RMK T01700150 IEM_DS3505
ZBAA,1990-09-16 00:00,ZBAA 160000Z AUTO 04006KT 4SM 19/15 A2983 RMK SLP107 T01860149 57002 IEM_DS3505
ZBAA,1990-09-16 01:00,ZBAA 160100Z AUTO ////02KT 7SM 22/16 A2980 RMK T02200160 IEM_DS3505
ZBAA,1990-09-16 02:00,ZBAA 160200Z AUTO ////06KT 6SM 23/16 A2977 RMK T02300160 IEM_DS3505
ZBAA,1990-09-16 03:00,ZBAA 160300Z AUTO 07004KT 4SM 22/14 A2974 RMK SLP086 T02200144 57021 IEM_DS3505
ZBAA,1990-09-16 04:00,ZBAA 160400Z AUTO ////04KT 5SM 23/17 A2971 RMK T02300170 IEM_DS3505
ZBAA,1990-09-16 05:00,ZBAA 160500Z AUTO ////06KT 5SM 24/18 A2965 RMK T02400180 IEM_DS3505
ZBAA,1990-09-16 06:00,ZBAA 160600Z AUTO 34002KT 2 1/2SM 22/16 A2965 RMK SLP061 T02190165 4////0171 57025 IEM_DS3505
ZBAA,1990-09-16 07:00,ZBAA 160700Z AUTO 32008KT 5SM 17/16 A2971 RMK T01700160 IEM_DS3505
ZBAA,1990-09-16 08:00,ZBAA 160800Z AUTO 35008KT 6SM 17/15 A2971 RMK T01700150 IEM_DS3505
ZBAA,1990-09-16 09:00,ZBAA 160900Z AUTO 34008KT 16SM 19/10 A2971 RMK SLP078 T01910105 52017 IEM_DS3505
ZBAA,1990-09-16 10:00,ZBAA 161000Z AUTO 33012G23KT 6SM 18/08 A2977 RMK T01800080 IEM_DS3505
ZBAA,1990-09-16 11:00,ZBAA 161100Z AUTO ////02KT 6SM 17/09 A2983 RMK T01700090 IEM_DS3505
ZBAA,1990-09-16 12:00,ZBAA 161200Z AUTO 34010KT 19SM 17/05 A2988 RMK 60031 SLP136 T01710053 52057 IEM_DS3505
ZBAA,1990-09-16 13:00,ZBAA 161300Z AUTO 31010G23KT 6SM 17/04 A2988 RMK T01700040 IEM_DS3505
ZBAA,1990-09-16 14:00,ZBAA 161400Z AUTO 31008G19KT 6SM 16/04 A2991 RMK T01600040 IEM_DS3505
ZBAA,1990-09-16 15:00,ZBAA 161500Z AUTO 29006KT 19SM 15/04 A2991 RMK SLP144 T01470041 52008 IEM_DS3505
ZBAA,1990-09-16 16:00,ZBAA 161600Z AUTO ////06KT 6SM 15/04 A2991 RMK T01500040 IEM_DS3505
ZBAA,1990-09-16 17:00,ZBAA 161700Z AUTO 31010KT 7SM 15/04 A2991 RMK T01500040 IEM_DS3505
ZBAA,1990-09-16 18:00,ZBAA 161800Z AUTO 32006KT 19SM 15/02 RMK SLP145 T01530023 40236//// 52001 IEM_DS3505
ZBAA,1990-09-16 20:00,ZBAA 162000Z AUTO ////04KT 7SM 13/05 A2991 RMK T01300050 IEM_DS3505
ZBAA,1990-09-16 21:00,ZBAA 162100Z AUTO 34006KT 19SM 14/04 A2991 RMK 70031 SLP146 T01390035 52001 IEM_DS3505
ZBAA,1990-09-16 22:00,ZBAA 162200Z AUTO ////04KT 7SM 12/05 A2991 RMK T01200050 IEM_DS3505
ZBAA,1990-09-16 23:00,ZBAA 162300Z AUTO 00000KT 7SM 13/06 A2991 RMK T01300060 IEM_DS3505
ZBAA,1990-09-17 00:00,ZBAA 170000Z AUTO 32010KT 19SM 16/02 A2994 RMK 70071 SLP148 T01620015 52002 IEM_DS3505
ZBAA,1990-09-17 01:00,ZBAA 170100Z AUTO 29008KT 6SM 18/04 A2994 RMK T01800040 IEM_DS3505
ZBAA,1990-09-17 02:00,ZBAA 170200Z AUTO 32014G25KT 6SM 19/02 A2994 RMK T01900020 IEM_DS3505
ZBAA,1990-09-17 03:00,ZBAA 170300Z AUTO 36012G29KT 19SM 19/01 A2994 RMK SLP160 T01880013 52012 IEM_DS3505
ZBAA,1990-09-17 04:00,ZBAA 170400Z AUTO 32016G25KT 6SM 21/01 A2994 RMK T02100010 IEM_DS3505
ZBAA,1990-09-17 05:00,ZBAA 170500Z AUTO 32014G23KT 6SM 21/01 A2994 RMK T02100010 IEM_DS3505
ZBAA,1990-09-17 06:00,ZBAA 170600Z AUTO 36012G23KT 19SM 20/01 A2991 RMK SLP150 T02050009 4////0129 57010 IEM_DS3505
ZBAA,1990-09-17 07:00,ZBAA 170700Z AUTO 31012G25KT 6SM 20/00 A2991 RMK T02000000 IEM_DS3505
ZBAA,1990-09-17 08:00,ZBAA 170800Z AUTO 33012KT 6SM 20/00 A2991 RMK T02000000 IEM_DS3505
ZBAA,1990-09-17 09:00,ZBAA 170900Z AUTO 34008KT 19SM 20/02 A2991 RMK SLP146 T01990019 57004 IEM_DS3505
ZBAA,1990-09-17 10:00,ZBAA 171000Z AUTO 33008KT 6SM 19/01 A2991 RMK T01900010 IEM_DS3505
ZBAA,1990-09-17 11:00,ZBAA 171100Z AUTO ////04KT 7SM 17/00 A2994 RMK T01700000 IEM_DS3505
ZBAA,1990-09-17 12:00,ZBAA 171200Z AUTO 20002KT 16SM 14/07 A2994 RMK SLP155 T01350072 52008 IEM_DS3505
ZBAA,1990-09-17 13:00,ZBAA 171300Z AUTO 22002KT 7SM 13/04 A2997 RMK T01300040 IEM_DS3505
ZBAA,1990-09-17 15:00,ZBAA 171500Z AUTO 20002KT 16SM 11/08 A2997 RMK SLP158 T01140077 52003 IEM_DS3505
ZBAA,1990-09-17 16:00,ZBAA 171600Z AUTO 00000KT 7SM 12/04 A2994 RMK T01200040 IEM_DS3505
ZBAA,1990-09-17 18:00,ZBAA 171800Z AUTO 7SM 10/08 RMK SLP151 T01020079 40208//// 57007 IEM_DS3505
ZBAA,1990-09-17 20:00,ZBAA 172000Z AUTO 06002KT 7SM 09/07 A2991 RMK T00900070 IEM_DS3505
ZBAA,1990-09-17 21:00,ZBAA 172100Z AUTO 00000KT 9SM 09/08 A2991 RMK SLP140 T00880075 57011 IEM_DS3505
ZBAA,1990-09-17 22:00,ZBAA 172200Z AUTO 07002KT 7SM 09/07 A2991 RMK T00900070 IEM_DS3505
ZBAA,1990-09-17 23:00,ZBAA 172300Z AUTO 07002KT 7SM 10/08 A2991 RMK T01000080 IEM_DS3505
ZBAA,1990-09-18 00:00,ZBAA 180000Z AUTO 00000KT 7SM 12/08 A2988 RMK SLP138 T01180077 57002 IEM_DS3505
ZBAA,1990-09-18 01:00,ZBAA 180100Z AUTO ////02KT 7SM 15/09 A2988 RMK T01500090 IEM_DS3505
ZBAA,1990-09-18 02:00,ZBAA 180200Z AUTO 00000KT 7SM 18/09 A2988 RMK T01800090 IEM_DS3505
ZBAA,1990-09-18 03:00,ZBAA 180300Z AUTO 20010KT 11SM 20/05 A2985 RMK SLP123 T02030051 57014 IEM_DS3505
ZBAA,1990-09-18 04:00,ZBAA 180400Z AUTO 19008KT 7SM 23/07 A2983 RMK T02300070 IEM_DS3505
ZBAA,1990-09-18 05:00,ZBAA 180500Z AUTO 17008KT 6SM 24/08 A2980 RMK T02400080 IEM_DS3505
ZBAA,1990-09-18 06:00,ZBAA 180600Z AUTO 20008KT 11SM 23/07 A2977 RMK SLP088 T02290070 4////0081 57035 IEM_DS3505
ZBAA,1990-09-18 07:00,ZBAA 180700Z AUTO ////06KT 6SM 24/09 A2974 RMK T02400090 IEM_DS3505
ZBAA,1990-09-18 08:00,ZBAA 180800Z AUTO ////06KT 6SM 24/09 A2971 RMK T02400090 IEM_DS3505
ZBAA,1990-09-18 09:00,ZBAA 180900Z AUTO 20006KT 9SM 23/08 A2971 RMK SLP073 T02340083 57015 IEM_DS3505
ZBAA,1990-09-18 10:00,ZBAA 181000Z AUTO 15002KT 6SM 22/10 A2971 RMK T02200100 IEM_DS3505
ZBAA,1990-09-18 11:00,ZBAA 181100Z AUTO ////04KT 7SM 20/10 A2971 RMK T02000100 IEM_DS3505
ZBAA,1990-09-18 12:00,ZBAA 181200Z AUTO 16004KT 7SM 19/11 RMK SLP083 T01930107 52010 IEM_DS3505
ZBAA,1990-09-18 13:00,ZBAA 181300Z AUTO ////06KT 7SM 17/11 A2977 RMK T01700110 IEM_DS3505
ZBAA,1990-09-18 14:00,ZBAA 181400Z AUTO ////04KT 7SM 16/11 A2977 RMK T01600110 IEM_DS3505
ZBAA,1990-09-18 15:00,ZBAA 181500Z AUTO 00000KT 5SM 16/13 A2977 RMK SLP089 T01640128 52007 IEM_DS3505
ZBAA,1990-09-18 18:00,ZBAA 181800Z AUTO 04004KT 4SM 15/11 RMK SLP089 T01490114 40239//// 54000 IEM_DS3505
ZBAA,1990-09-18 20:00,ZBAA 182000Z AUTO 09002KT 7SM 14/10 A2977 RMK T01400100 IEM_DS3505
ZBAA,1990-09-18 21:00,ZBAA 182100Z AUTO 02004KT 4SM 14/11 A2977 RMK SLP088 T01450109 57001 IEM_DS3505
ZBAA,1990-09-18 22:00,ZBAA 182200Z AUTO 00000KT 6SM 13/10 A2977 RMK T01300100 IEM_DS3505
ZBAA,1990-09-18 23:00,ZBAA 182300Z AUTO 00000KT 6SM 14/11 A2980 RMK T01400110 IEM_DS3505
ZBAA,1990-09-19 00:00,ZBAA 190000Z AUTO 36004KT 4SM 15/11 A2980 RMK SLP096 T01530112 52007 IEM_DS3505
ZBAA,1990-09-19 01:00,ZBAA 190100Z AUTO ////02KT 6SM 18/12 A2980 RMK T01800120 IEM_DS3505
ZBAA,1990-09-19 02:00,ZBAA 190200Z AUTO ////04KT 6SM 20/12 A2980 RMK T02000120 IEM_DS3505
ZBAA,1990-09-19 03:00,ZBAA 190300Z AUTO 36002KT 4SM 19/11 A2980 RMK SLP095 T01900114 57001 IEM_DS3505
ZBAA,1990-09-19 04:00,ZBAA 190400Z AUTO ////04KT 6SM 22/12 A2977 RMK T02200120 IEM_DS3505
ZBAA,1990-09-19 05:00,ZBAA 190500Z AUTO ////04KT 6SM 22/12 A2977 RMK T02200120 IEM_DS3505
ZBAA,1990-09-19 06:00,ZBAA 190600Z AUTO 02002KT 4SM 22/12 A2974 RMK SLP087 T02210123 4////0137 57007 IEM_DS3505
ZBAA,1990-09-19 07:00,ZBAA 190700Z AUTO ////04KT 6SM 24/12 A2974 RMK T02400120 IEM_DS3505
ZBAA,1990-09-19 08:00,ZBAA 190800Z AUTO 13002KT 6SM 23/12 A2974 RMK T02300120 IEM_DS3505
ZBAA,1990-09-19 09:00,ZBAA 190900Z AUTO 00000KT 4SM 23/13 A2974 RMK SLP083 T02260131 57004 IEM_DS3505
ZBAA,1990-09-19 10:00,ZBAA 191000Z AUTO 00000KT 6SM 21/14 A2974 RMK T02100140 IEM_DS3505
ZBAA,1990-09-19 11:00,ZBAA 191100Z AUTO 00000KT 4SM 18/14 A2977 RMK SLP101 T01850138 52017 IEM_DS3505
ZBAA,1990-09-19 12:00,ZBAA 191200Z AUTO 00000KT 4SM 18/14 A2980 RMK SLP101 T01850138 52017 IEM_DS3505
ZBAA,1990-09-19 13:00,ZBAA 191300Z AUTO ////02KT 6SM 18/14 A2983 RMK T01800140 IEM_DS3505
ZBAA,1990-09-19 14:00,ZBAA 191400Z AUTO ////02KT 6SM 19/13 A2983 RMK T01900130 IEM_DS3505
ZBAA,1990-09-19 15:00,ZBAA 191500Z AUTO 00000KT 3SM 19/13 A2980 RMK SLP101 T01880134 52001 IEM_DS3505
ZBAA,1990-09-19 16:00,ZBAA 191600Z AUTO ////04KT 6SM 18/14 A2980 RMK T01800140 IEM_DS3505
ZBAA,1990-09-19 18:00,ZBAA 191800Z AUTO 04002KT 3SM 16/14 RMK SLP101 T01630140 40231//// 54000 IEM_DS3505
ZBAA,1990-09-19 20:00,ZBAA 192000Z AUTO 00000KT 6SM 16/14 A2977 RMK T01600140 IEM_DS3505
ZBAA,1990-09-19 21:00,ZBAA 192100Z AUTO 04002KT 2SM 17/14 A2977 RMK SLP096 T01690136 IEM_DS3505
ZBAA,1990-09-19 23:00,ZBAA 192300Z AUTO 00000KT 6SM 16/14 RMK T01600140 IEM_DS3505
ZBAA,1990-09-20 00:00,ZBAA 200000Z AUTO ////06KT 1 1/4SM A2983 RMK SLP116 52019 IEM_DS3505
ZBAA,1990-09-20 01:00,ZBAA 200100Z AUTO ////02KT 6SM 19/15 A2983 RMK T01900150 IEM_DS3505
ZBAA,1990-09-20 02:00,ZBAA 200200Z AUTO 33008KT 6SM 21/15 A2985 RMK T02100150 IEM_DS3505
ZBAA,1990-09-20 03:00,ZBAA 200300Z AUTO 04004KT 5SM 22/14 A2985 RMK SLP122 T02230144 52007 IEM_DS3505
ZBAA,1990-09-20 04:00,ZBAA 200400Z AUTO ////04KT 6SM 24/15 A2983 RMK T02400150 IEM_DS3505
ZBAA,1990-09-20 05:00,ZBAA 200500Z AUTO ////02KT 6SM 25/13 A2983 RMK T02500130 IEM_DS3505
ZBAA,1990-09-20 06:00,ZBAA 200600Z AUTO 07006KT 6SM 25/13 A2980 RMK SLP111 T02520131 4////0159 57011 IEM_DS3505
ZBAA,1990-09-20 07:00,ZBAA 200700Z AUTO 6SM 25/14 A2980 RMK T02500140 IEM_DS3505
ZBAA,1990-09-20 08:00,ZBAA 200800Z AUTO ////02KT 6SM 23/13 A2983 RMK T02300130 IEM_DS3505
ZBAA,1990-09-20 09:00,ZBAA 200900Z AUTO 09004KT 6SM 23/13 A2985 RMK SLP116 T02310129 52005 IEM_DS3505
ZBAA,1990-09-20 10:00,ZBAA 201000Z AUTO 00000KT 7SM 21/14 A2988 RMK T02100140 IEM_DS3505
ZBAA,1990-09-20 11:00,ZBAA 201100Z AUTO 00000KT 7SM 20/14 A2988 RMK T02000140 IEM_DS3505
ZBAA,1990-09-20 12:00,ZBAA 201200Z AUTO 00000KT 6SM 20/15 A2988 RMK SLP134 T02050146 52017 IEM_DS3505
ZBAA,1990-09-20 13:00,ZBAA 201300Z AUTO 00000KT 7SM 19/15 A2991 RMK T01900150 IEM_DS3505
ZBAA,1990-09-20 14:00,ZBAA 201400Z AUTO 33002KT 6SM 18/15 A2991 RMK T01800150 IEM_DS3505
ZBAA,1990-09-20 15:00,ZBAA 201500Z AUTO 00000KT 5SM 18/15 A2991 RMK SLP142 T01770151 52009 IEM_DS3505
ZBAA,1990-09-20 16:00,ZBAA 201600Z AUTO 32002KT 6SM 18/15 A2994 RMK T01800150 IEM_DS3505
ZBAA,1990-09-20 18:00,ZBAA 201800Z AUTO 02004KT 6SM 17/14 RMK T01680142 52003 IEM_DS3505
ZBAA,1990-09-20 20:00,ZBAA 202000Z AUTO ////02KT 7SM 17/13 A2994 RMK T01700130 IEM_DS3505
ZBAA,1990-09-20 21:00,ZBAA 202100Z AUTO 04004KT 6SM 17/14 A2997 RMK SLP157 T01690136 52011 IEM_DS3505
ZBAA,1990-09-20 22:00,ZBAA 202200Z AUTO ////04KT 6SM 17/11 A3000 RMK T01700110 IEM_DS3505
ZBAA,1990-09-20 23:00,ZBAA 202300Z AUTO ////04KT 7SM 18/09 A3000 RMK T01800090 IEM_DS3505
ZBAA,1990-09-21 00:00,ZBAA 210000Z AUTO 04006KT 6SM 20/11 A3003 RMK SLP174 T01950107 52017 IEM_DS3505
ZBAA,1990-09-21 01:00,ZBAA 210100Z AUTO ////04KT 7SM 22/07 A3003 RMK T02200070 IEM_DS3505
ZBAA,1990-09-21 02:00,ZBAA 210200Z AUTO ////06KT 7SM 23/07 A3006 RMK T02300070 IEM_DS3505
ZBAA,1990-09-21 03:00,ZBAA 210300Z AUTO 04002KT 19SM 23/07 A3003 RMK SLP181 T02330072 52007 IEM_DS3505
ZBAA,1990-09-21 04:00,ZBAA 210400Z AUTO ////04KT 6SM 25/05 A3003 RMK T02500050 IEM_DS3505
ZBAA,1990-09-21 05:00,ZBAA 210500Z AUTO ////04KT 6SM 26/05 A3000 RMK T02600050 IEM_DS3505
ZBAA,1990-09-21 06:00,ZBAA 210600Z AUTO 04006KT 19SM 25/06 A3000 RMK SLP168 T02500055 4////0158 57012 IEM_DS3505
ZBAA,1990-09-21 07:00,ZBAA 210700Z AUTO ////04KT 6SM 26/06 A2997 RMK T02600060 IEM_DS3505
ZBAA,1990-09-21 08:00,ZBAA 210800Z AUTO ////02KT 6SM 26/05 A2997 RMK T02600050 IEM_DS3505
ZBAA,1990-09-21 09:00,ZBAA 210900Z AUTO 07002KT 19SM 24/05 A2997 RMK SLP165 T02410054 57003 IEM_DS3505
ZBAA,1990-09-21 10:00,ZBAA 211000Z AUTO 00000KT 6SM 22/08 A2997 RMK T02200080 IEM_DS3505
ZBAA,1990-09-21 11:00,ZBAA 211100Z AUTO 00000KT 6SM 21/10 A3000 RMK T02100100 IEM_DS3505
ZBAA,1990-09-21 12:00,ZBAA 211200Z AUTO 00000KT 12SM 20/13 A3000 RMK SLP173 T01990127 52007 IEM_DS3505
ZBAA,1990-09-21 13:00,ZBAA 211300Z AUTO ////06KT 6SM 21/14 A3003 RMK T02100140 IEM_DS3505
ZBAA,1990-09-21 14:00,ZBAA 211400Z AUTO 16004KT 6SM 20/15 A3003 RMK T02000150 IEM_DS3505
ZBAA,1990-09-21 15:00,ZBAA 211500Z AUTO 20004KT 9SM 20/14 A3006 RMK SLP184 T01980141 52012 IEM_DS3505
ZBAA,1990-09-21 18:00,ZBAA 211800Z AUTO 00000KT 7SM 20/12 RMK SLP182 T01960125 40258//// 57002 IEM_DS3505
ZBAA,1990-09-21 20:00,ZBAA 212000Z AUTO 00000KT 6SM 17/14 A3000 RMK T01700140 IEM_DS3505
ZBAA,1990-09-21 21:00,ZBAA 212100Z AUTO 00000KT 6SM 18/15 A3003 RMK SLP177 T01810147 57005 IEM_DS3505
ZBAA,1990-09-21 22:00,ZBAA 212200Z AUTO 00000KT 6SM 17/14 A3003 RMK T01700140 IEM_DS3505
ZBAA,1990-09-21 23:00,ZBAA 212300Z AUTO 00000KT 6SM 18/14 A3003 RMK T01800140 IEM_DS3505
ZBAA,1990-09-22 00:00,ZBAA 220000Z AUTO 00000KT 6SM 18/15 A3003 RMK SLP180 T01800147 52002 IEM_DS3505
ZBAA,1990-09-22 01:00,ZBAA 220100Z AUTO ////02KT 6SM 18/14 A3003 RMK T01800140 IEM_DS3505
ZBAA,1990-09-22 02:00,ZBAA 220200Z AUTO ////02KT 6SM 19/14 A3003 RMK T01900140 IEM_DS3505
ZBAA,1990-09-22 03:00,ZBAA 220300Z AUTO 02004KT 5SM 20/14 A3003 RMK SLP178 T01970142 57002 IEM_DS3505
ZBAA,1990-09-22 04:00,ZBAA 220400Z AUTO ////02KT 7SM 21/13 A3000 RMK T02100130 IEM_DS3505
ZBAA,1990-09-22 05:00,ZBAA 220500Z AUTO 36002KT 6SM 22/13 A3000 RMK T02200130 IEM_DS3505
ZBAA,1990-09-22 06:00,ZBAA 220600Z AUTO 07002KT 7SM 21/13 A3000 RMK SLP170 T02130133 4////0174 57008 IEM_DS3505
ZBAA,1990-09-22 07:00,ZBAA 220700Z AUTO 00000KT 6SM 22/12 A2997 RMK T02200120 IEM_DS3505
ZBAA,1990-09-22 08:00,ZBAA 220800Z AUTO 17002KT 6SM 22/13 A2997 RMK T02200130 IEM_DS3505
ZBAA,1990-09-22 09:00,ZBAA 220900Z AUTO 16002KT 7SM 21/13 A2997 RMK SLP166 T02120128 57005 IEM_DS3505
ZBAA,1990-09-22 10:00,ZBAA 221000Z AUTO 00000KT 6SM 20/14 A2997 RMK T02000140 IEM_DS3505
ZBAA,1990-09-22 11:00,ZBAA 221100Z AUTO 00000KT 7SM 19/14 A3000 RMK T01900140 IEM_DS3505
ZBAA,1990-09-22 12:00,ZBAA 221200Z AUTO 00000KT 6SM 18/14 A3000 RMK SLP174 T01800144 52008 IEM_DS3505
ZBAA,1990-09-22 13:00,ZBAA 221300Z AUTO 00000KT 6SM 17/14 A3003 RMK T01700140 IEM_DS3505
ZBAA,1990-09-22 14:00,ZBAA 221400Z AUTO 00000KT 6SM 17/14 A3003 RMK T01700140 IEM_DS3505
ZBAA,1990-09-22 15:00,ZBAA 221500Z AUTO 00000KT 4SM 16/14 A3003 RMK SLP178 T01630140 52004 IEM_DS3505
ZBAA,1990-09-22 16:00,ZBAA 221600Z AUTO 00000KT 6SM 15/14 A3003 RMK T01500140 IEM_DS3505
ZBAA,1990-09-22 17:00,ZBAA 221700Z AUTO 00000KT 6SM 15/13 A3003 RMK T01500130 IEM_DS3505
ZBAA,1990-09-22 18:00,ZBAA 221800Z AUTO 04002KT 2 1/2SM 15/14 RMK SLP183 T01470136 40216//// 52005 IEM_DS3505
ZBAA,1990-09-22 20:00,ZBAA 222000Z AUTO 04002KT 2 1/2SM 15/14 A3003 RMK SLP183 T01470136 52005 IEM_DS3505
ZBAA,1990-09-22 21:00,ZBAA 222100Z AUTO 00000KT 2SM 14/13 RMK SLP180 T01350126 57003 IEM_DS3505
ZBAA,1990-09-22 22:00,ZBAA 222200Z AUTO ////02KT 7SM 14/12 A3003 RMK T01400120 IEM_DS3505
ZBAA,1990-09-22 23:00,ZBAA 222300Z AUTO 33004KT 7SM 15/13 A3006 RMK T01500130 IEM_DS3505
ZBAA,1990-09-23 00:00,ZBAA 230000Z AUTO 07002KT 2SM 16/14 A3006 RMK SLP190 T01590140 52010 IEM_DS3505
ZBAA,1990-09-23 01:00,ZBAA 230100Z AUTO ////02KT 7SM 19/14 A3009 RMK T01900140 IEM_DS3505
ZBAA,1990-09-23 02:00,ZBAA 230200Z AUTO ////02KT 7SM 21/13 A3009 RMK T02100130 IEM_DS3505
ZBAA,1990-09-23 03:00,ZBAA 230300Z AUTO 11006KT 7SM 21/11 A3009 RMK SLP196 T02100108 52006 IEM_DS3505
ZBAA,1990-09-23 04:00,ZBAA 230400Z AUTO ////04KT 6SM 24/11 A3006 RMK T02400110 IEM_DS3505
ZBAA,1990-09-23 05:00,ZBAA 230500Z AUTO ////04KT 6SM 24/12 A3006 RMK T02400120 IEM_DS3505
ZBAA,1990-09-23 06:00,ZBAA 230600Z AUTO 09004KT 9SM 23/09 A3003 RMK SLP183 T02290092 4////0130 57013 IEM_DS3505
ZBAA,1990-09-23 07:00,ZBAA 230700Z AUTO ////04KT 6SM 25/10 A3003 RMK T02500100 IEM_DS3505
ZBAA,1990-09-23 08:00,ZBAA 230800Z AUTO ////04KT 6SM 24/09 A3000 RMK T02400090 IEM_DS3505
ZBAA,1990-09-23 09:00,ZBAA 230900Z AUTO 14002KT 9SM 23/10 A3003 RMK SLP177 T02310100 57006 IEM_DS3505
ZBAA,1990-09-23 10:00,ZBAA 231000Z AUTO ////02KT 6SM 20/10 A3003 RMK T02000100 IEM_DS3505
ZBAA,1990-09-23 11:00,ZBAA 231100Z AUTO 00000KT 6SM 20/10 A3006 RMK T02000100 IEM_DS3505
ZBAA,1990-09-23 12:00,ZBAA 231200Z AUTO 09002KT 7SM 21/13 A3009 RMK SLP195 T02060130 52018 IEM_DS3505
ZBAA,1990-09-23 13:00,ZBAA 231300Z AUTO 00000KT 6SM 19/12 A3009 RMK T01900120 IEM_DS3505
ZBAA,1990-09-23 14:00,ZBAA 231400Z AUTO 00000KT 6SM 18/12 A3012 RMK T01800120 IEM_DS3505
ZBAA,1990-09-23 15:00,ZBAA 231500Z AUTO 34002KT 6SM 18/15 A3012 RMK SLP212 T01760147 52017 IEM_DS3505
ZBAA,1990-09-23 18:00,ZBAA 231800Z AUTO 04002KT 6SM 16/14 RMK 60008 SLP210 T01620141 40244//// 57002 IEM_DS3505
ZBAA,1990-09-23 19:00,ZBAA 231900Z AUTO 00000KT 6SM 15/12 A3012 RMK T01500120 IEM_DS3505
ZBAA,1990-09-23 20:00,ZBAA 232000Z AUTO 00000KT 6SM 14/11 A3012 RMK T01400110 IEM_DS3505
ZBAA,1990-09-23 21:00,ZBAA 232100Z AUTO 00000KT 4SM 15/14 A3012 RMK 70008 T01500136 57001 IEM_DS3505
ZBAA,1990-09-23 22:00,ZBAA 232200Z AUTO 32004KT 6SM 14/12 A3012 RMK T01400120 IEM_DS3505
ZBAA,1990-09-23 23:00,ZBAA 232300Z AUTO 00000KT 6SM 15/13 A3015 RMK T01500130 IEM_DS3505
ZBAA,1990-09-24 00:00,ZBAA 240000Z AUTO 04004KT 5SM 16/12 A3015 RMK SLP218 T01610125 52009 IEM_DS3505
ZBAA,1990-09-24 01:00,ZBAA 240100Z AUTO 00000KT 6SM 18/12 A3015 RMK T01800120 IEM_DS3505
ZBAA,1990-09-24 02:00,ZBAA 240200Z AUTO ////02KT 6SM 18/13 A3015 RMK T01800130 IEM_DS3505
ZBAA,1990-09-24 03:00,ZBAA 240300Z AUTO 00000KT 6SM 19/13 A3015 RMK SLP219 T01870127 52001 IEM_DS3505
ZBAA,1990-09-24 04:00,ZBAA 240400Z AUTO ////02KT 6SM 22/12 A3015 RMK T02200120 IEM_DS3505
ZBAA,1990-09-24 05:00,ZBAA 240500Z AUTO ////04KT 6SM 23/13 A3012 RMK T02300130 IEM_DS3505
ZBAA,1990-09-24 06:00,ZBAA 240600Z AUTO 20004KT 6SM 21/13 RMK SLP208 T02080127 4////0142 57011 IEM_DS3505
ZBAA,1990-09-24 07:00,ZBAA 240700Z AUTO ////02KT 6SM 22/13 A3009 RMK T02200130 IEM_DS3505
ZBAA,1990-09-24 08:00,ZBAA 240800Z AUTO ////02KT 6SM 22/13 A3009 RMK T02200130 IEM_DS3505
ZBAA,1990-09-24 09:00,ZBAA 240900Z AUTO 20004KT 7SM 21/14 A3009 RMK SLP198 T02120138 57010 IEM_DS3505
ZBAA,1990-09-24 10:00,ZBAA 241000Z AUTO 00000KT 6SM 21/13 A3009 RMK T02100130 IEM_DS3505
ZBAA,1990-09-24 11:00,ZBAA 241100Z AUTO 16002KT 6SM 21/13 A3009 RMK T02100130 IEM_DS3505
ZBAA,1990-09-24 12:00,ZBAA 241200Z AUTO 00000KT 6SM 18/14 A3012 RMK SLP207 T01810145 52008 IEM_DS3505
ZBAA,1990-09-24 13:00,ZBAA 241300Z AUTO 00000KT 6SM 18/14 A3012 RMK T01810145 IEM_DS3505
ZBAA,1990-09-24 14:00,ZBAA 241400Z AUTO ////02KT 6SM 19/14 A3012 RMK T01900140 IEM_DS3505
ZBAA,1990-09-24 15:00,ZBAA 241500Z AUTO 11002KT 6SM 18/14 A3012 RMK SLP206 T01840139 54000 IEM_DS3505
ZBAA,1990-09-24 16:00,ZBAA 241600Z AUTO ////04KT 6SM 18/14 A3012 RMK T01800140 IEM_DS3505
ZBAA,1990-09-24 18:00,ZBAA 241800Z AUTO 00000KT 4SM 18/15 RMK SLP207 T01750147 40218//// 52001 IEM_DS3505
ZBAA,1990-09-24 21:00,ZBAA 242100Z AUTO 00000KT 2SM 16/14 RMK SLP206 T01550141 57001 IEM_DS3505
ZBAA,1990-09-24 22:00,ZBAA 242200Z AUTO 12002KT 6SM 16/14 A3012 RMK T01600140 IEM_DS3505
ZBAA,1990-09-24 23:00,ZBAA 242300Z AUTO ////02KT 6SM 16/14 A3012 RMK T01600140 IEM_DS3505
ZBAA,1990-09-25 00:00,ZBAA 250000Z AUTO 36004KT 4SM 16/14 A3015 RMK SLP215 T01620143 52008 IEM_DS3505
ZBAA,1990-09-25 01:00,ZBAA 250100Z AUTO ////02KT 6SM 18/14 A3015 RMK T01800140 IEM_DS3505
ZBAA,1990-09-25 02:00,ZBAA 250200Z AUTO ////02KT 6SM 19/14 A3018 RMK T01900140 IEM_DS3505
ZBAA,1990-09-25 03:00,ZBAA 250300Z AUTO 02004KT 2SM 18/15 A3015 RMK SLP224 T01830149 52010 IEM_DS3505
ZBAA,1990-09-25 04:00,ZBAA 250400Z AUTO 08002KT 6SM 20/14 A3018 RMK T02000140 IEM_DS3505
ZBAA,1990-09-25 05:00,ZBAA 250500Z AUTO 00000KT 6SM 20/14 A3015 RMK T02000140 IEM_DS3505
ZBAA,1990-09-25 06:00,ZBAA 250600Z AUTO 07002KT 3SM 20/15 A3015 RMK SLP218 T01990152 4////0147 57006 IEM_DS3505
ZBAA,1990-09-25 07:00,ZBAA 250700Z AUTO 08002KT 6SM 20/14 A3015 RMK T02000140 IEM_DS3505
ZBAA,1990-09-25 08:00,ZBAA 250800Z AUTO ////02KT 6SM 20/15 A3012 RMK T02000150 IEM_DS3505
ZBAA,1990-09-25 09:00,ZBAA 250900Z AUTO 07002KT 4SM 20/16 A3012 RMK SLP215 T01990155 57003 IEM_DS3505
ZBAA,1990-09-25 10:00,ZBAA 251000Z AUTO 00000KT 5SM 20/15 A3015 RMK T02000150 IEM_DS3505
ZBAA,1990-09-25 11:00,ZBAA 251100Z AUTO 11002KT 19/14 A3015 RMK T01900140 IEM_DS3505
ZBAA,1990-09-25 12:00,ZBAA 251200Z AUTO 00000KT 2 1/2SM 18/16 A3018 RMK SLP225 T01840159 52009 IEM_DS3505
ZBAA,1990-09-25 13:00,ZBAA 251300Z AUTO 00000KT 5SM 19/14 A3018 RMK T01900140 IEM_DS3505
ZBAA,1990-09-25 14:00,ZBAA 251400Z AUTO 16004KT 5SM 18/14 A3018 RMK T01800140 IEM_DS3505
ZBAA,1990-09-25 15:00,ZBAA 251500Z AUTO 00000KT 4SM 16/14 A3021 RMK SLP234 T01650140 52009 IEM_DS3505
ZBAA,1990-09-25 18:00,ZBAA 251800Z AUTO 00000KT 6SM 16/15 RMK 60004 SLP229 T01620150 40202//// 57004 IEM_DS3505
ZBAA,1990-09-25 20:00,ZBAA 252000Z AUTO 00000KT 6SM 16/14 A3015 RMK T01600140 IEM_DS3505
ZBAA,1990-09-25 21:00,ZBAA 252100Z AUTO 00000KT 4SM 16/15 A3012 RMK 70004 SLP216 T01640147 57010 IEM_DS3505
ZBAA,1990-09-25 22:00,ZBAA 252200Z AUTO 00000KT 7SM 16/14 A3012 RMK T01600140 IEM_DS3505
ZBAA,1990-09-25 23:00,ZBAA 252300Z AUTO 21004KT 4SM 16/14 A3015 RMK T01600140 IEM_DS3505
ZBAA,1990-09-26 00:00,ZBAA 260000Z AUTO 00000KT 4SM 16/15 A3012 RMK 60002 SLP214 T01640150 57002 IEM_DS3505
ZBAA,1990-09-26 01:00,ZBAA 260100Z AUTO 07002KT 4SM 16/16 RMK T01600160 IEM_DS3505
ZBAA,1990-09-26 02:00,ZBAA 260200Z AUTO ////04KT 4SM 17/17 A3012 RMK T01700170 IEM_DS3505
ZBAA,1990-09-26 03:00,ZBAA 260300Z AUTO 04002KT 1SM 16/15 A3012 RMK SLP211 T01610151 57004 IEM_DS3505
ZBAA,1990-09-26 04:00,ZBAA 260400Z AUTO 00000KT 3SM 17/17 A3009 RMK T01700170 IEM_DS3505
ZBAA,1990-09-26 05:00,ZBAA 260500Z AUTO 35002KT 3SM 17/17 A3006 RMK T01700170 IEM_DS3505
ZBAA,1990-09-26 06:00,ZBAA 260600Z AUTO 02004KT 1 1/4SM 16/15 A3006 RMK 60020 T01650151 4////0155 57012 IEM_DS3505
ZBAA,1990-09-26 07:00,ZBAA 260700Z AUTO ////06KT 3SM 17/16 A3006 RMK T01700160 IEM_DS3505
ZBAA,1990-09-26 08:00,ZBAA 260800Z AUTO 00000KT 7SM 17/16 A3006 RMK T01700160 IEM_DS3505
ZBAA,1990-09-26 09:00,ZBAA 260900Z AUTO 25002KT 1 1/4SM 17/15 A3006 RMK SLP192 T01670153 57007 IEM_DS3505
ZBAA,1990-09-26 10:00,ZBAA 261000Z AUTO 33002KT 4SM 17/16 A3006 RMK T01700160 IEM_DS3505
ZBAA,1990-09-26 11:00,ZBAA 261100Z AUTO 00000KT 2 1/2SM 16/16 A3003 RMK T01600160 IEM_DS3505
ZBAA,1990-09-26 12:00,ZBAA 261200Z AUTO 00000KT 2SM 16/15 A3003 RMK 60004 SLP182 T01580149 57018 IEM_DS3505
ZBAA,1990-09-26 13:00,ZBAA 261300Z AUTO 32002KT 1 1/4SM 16/16 A3003 RMK T01600160 IEM_DS3505
ZBAA,1990-09-26 14:00,ZBAA 261400Z AUTO 00000KT 1 1/4SM 16/16 A3003 RMK T01600160 IEM_DS3505
ZBAA,1990-09-26 15:00,ZBAA 261500Z AUTO 02002KT 1SM 16/15 A3003 RMK SLP185 T01580149 52003 IEM_DS3505
ZBAA,1990-09-26 18:00,ZBAA 261800Z AUTO 00000KT 1SM 16/15 RMK SLP178 T01560147 40170//// 57007 IEM_DS3505
ZBAA,1990-09-26 21:00,ZBAA 262100Z AUTO 00000KT 3/8SM 14/14 A3000 RMK 70028 SLP175 T01410137 57003 IEM_DS3505
ZBAA,1990-09-26 22:00,ZBAA 262200Z AUTO 00000KT 1/8SM 14/14 A3000 RMK T01400140 IEM_DS3505
ZBAA,1990-09-26 23:00,ZBAA 262300Z AUTO 04002KT 1/8SM 14/14 A3003 RMK T01400140 IEM_DS3505
ZBAA,1990-09-27 00:00,ZBAA 270000Z AUTO 20002KT 1/2SM 15/14 A3003 RMK SLP178 T01470143 52003 IEM_DS3505
ZBAA,1990-09-27 01:00,ZBAA 270100Z AUTO 00000KT 1/8SM 15/15 A3003 RMK T01500150 IEM_DS3505
ZBAA,1990-09-27 02:00,ZBAA 270200Z AUTO 33002KT 1 1/4SM 16/16 A3003 RMK T01600160 IEM_DS3505
ZBAA,1990-09-27 03:00,ZBAA 270300Z AUTO 34002KT 4SM 22/14 A3000 RMK SLP173 T02250136 57004 IEM_DS3505
ZBAA,1990-09-27 04:00,ZBAA 270400Z AUTO ////02KT 7SM 23/15 A3000 RMK T02300150 IEM_DS3505
ZBAA,1990-09-27 06:00,ZBAA 270600Z AUTO 32006KT 19SM 26/07 A2994 RMK SLP152 T02620073 4////0135 57020 IEM_DS3505
ZBAA,1990-09-27 07:00,ZBAA 270700Z AUTO ////06KT 7SM 26/07 A2991 RMK T02600070 IEM_DS3505
ZBAA,1990-09-27 08:00,ZBAA 270800Z AUTO 29008KT 7SM 26/06 A2991 RMK T02600060 IEM_DS3505
ZBAA,1990-09-27 09:00,ZBAA 270900Z AUTO 20004KT 19SM 26/10 A2991 RMK SLP149 T02560100 57004 IEM_DS3505
ZBAA,1990-09-27 10:00,ZBAA 271000Z AUTO 23002KT 7SM 21/09 A2991 RMK T02100090 IEM_DS3505
ZBAA,1990-09-27 11:00,ZBAA 271100Z AUTO 21004KT 7SM 20/10 A2994 RMK T02000100 IEM_DS3505
ZBAA,1990-09-27 12:00,ZBAA 271200Z AUTO 22004KT 16SM 19/12 A2994 RMK SLP156 T01940121 52007 IEM_DS3505
ZBAA,1990-09-27 13:00,ZBAA 271300Z AUTO 00000KT 7SM 17/12 A2997 RMK T01700120 IEM_DS3505
ZBAA,1990-09-27 14:00,ZBAA 271400Z AUTO 00000KT 7SM 16/12 A3000 RMK T01600120 IEM_DS3505
ZBAA,1990-09-27 15:00,ZBAA 271500Z AUTO 22002KT 12SM 17/12 A3000 RMK SLP164 T01710116 52008 IEM_DS3505
ZBAA,1990-09-27 16:00,ZBAA 271600Z AUTO ////02KT 7SM 14/12 A3000 RMK T01400120 IEM_DS3505
ZBAA,1990-09-27 18:00,ZBAA 271800Z AUTO 02004KT 12SM 14/11 RMK SLP169 T01420112 40265//// 52005 IEM_DS3505
ZBAA,1990-09-27 20:00,ZBAA 272000Z AUTO 00000KT 7SM 13/11 A3000 RMK T01300110 IEM_DS3505
ZBAA,1990-09-27 20:54,ZBAA 272054Z AUTO 00000KT 7SM 13/11 A3000 RMK T01300110 IEM_DS3505
ZBAA,1990-09-27 21:00,ZBAA 272100Z AUTO 00000KT 16SM 12/11 A3000 RMK SLP170 T01220107 52001 IEM_DS3505
ZBAA,1990-09-27 22:00,ZBAA 272200Z AUTO 00000KT 7SM 12/12 A3003 RMK T01200120 IEM_DS3505
ZBAA,1990-09-27 23:00,ZBAA 272300Z AUTO 00000KT 7SM 13/12 A3003 RMK T01300120 IEM_DS3505
ZBAA,1990-09-28 00:00,ZBAA 280000Z AUTO 04004KT 16SM 16/10 A3003 RMK SLP183 T01600103 52013 IEM_DS3505
ZBAA,1990-09-28 01:00,ZBAA 280100Z AUTO ////02KT 7SM 18/12 A3006 RMK T01800120 IEM_DS3505
ZBAA,1990-09-28 02:00,ZBAA 280200Z AUTO ////04KT 7SM 21/13 A3006 RMK T02100130 IEM_DS3505
ZBAA,1990-09-28 03:00,ZBAA 280300Z AUTO 09002KT 10SM 21/12 A3003 RMK SLP182 T02120120 57001 IEM_DS3505
ZBAA,1990-09-28 04:00,ZBAA 280400Z AUTO ////02KT 7SM 24/13 A3000 RMK T02400130 IEM_DS3505
ZBAA,1990-09-28 05:00,ZBAA 280500Z AUTO ////02KT 7SM 25/12 A2997 RMK T02500120 IEM_DS3505
ZBAA,1990-09-28 06:00,ZBAA 280600Z AUTO 20006KT 6SM 25/12 A2997 RMK SLP156 T02530119 4////0116 57026 IEM_DS3505
ZBAA,1990-09-28 07:00,ZBAA 280700Z AUTO ////04KT 7SM 26/13 A2994 RMK T02600130 IEM_DS3505
ZBAA,1990-09-28 08:00,ZBAA 280800Z AUTO 21008KT 7SM 26/11 A2994 RMK T02600110 IEM_DS3505
ZBAA,1990-09-28 09:00,ZBAA 280900Z AUTO 20006KT 6SM 26/10 A2994 RMK SLP151 T02560100 57005 IEM_DS3505
ZBAA,1990-09-28 10:00,ZBAA 281000Z AUTO ////04KT 7SM 23/12 A2994 RMK T02300120 IEM_DS3505
ZBAA,1990-09-28 11:00,ZBAA 281100Z AUTO 17004KT 7SM 22/11 A2994 RMK T02200110 IEM_DS3505
ZBAA,1990-09-28 12:00,ZBAA 281200Z AUTO 20004KT 6SM 21/12 A2997 RMK SLP155 T02060119 52004 IEM_DS3505
ZBAA,1990-09-28 14:00,ZBAA 281400Z AUTO 10002KT 7SM 17/12 A2997 RMK T01700120 IEM_DS3505
ZBAA,1990-09-28 15:00,ZBAA 281500Z AUTO 20004KT 7SM 19/12 RMK SLP158 T01880120 52003 IEM_DS3505
ZBAA,1990-09-28 18:00,ZBAA 281800Z AUTO 04004KT 6SM 16/13 RMK SLP155 T01590128 40267//// 57002 IEM_DS3505
ZBAA,1990-09-28 20:00,ZBAA 282000Z AUTO 32002KT 7SM 14/11 A2997 RMK T01400110 IEM_DS3505
ZBAA,1990-09-28 21:00,ZBAA 282100Z AUTO 04002KT 6SM 16/11 A2997 RMK SLP156 T01550112 52001 IEM_DS3505
ZBAA,1990-09-28 22:00,ZBAA 282200Z AUTO 34002KT 7SM 14/11 A2997 RMK T01400110 IEM_DS3505
ZBAA,1990-09-28 23:00,ZBAA 282300Z AUTO 33004KT 7SM 14/12 A3000 RMK T01400120 IEM_DS3505
ZBAA,1990-09-29 00:00,ZBAA 290000Z AUTO 36006KT 4SM 16/12 A3003 RMK SLP174 T01630125 52017 IEM_DS3505
ZBAA,1990-09-29 01:00,ZBAA 290100Z AUTO ////02KT 7SM 20/13 A3003 RMK T02000130 IEM_DS3505
ZBAA,1990-09-29 02:00,ZBAA 290200Z AUTO ////04KT 7SM 22/10 A3003 RMK T02200100 IEM_DS3505
ZBAA,1990-09-29 03:00,ZBAA 290300Z AUTO 36010KT 19SM 23/06 A3000 RMK SLP172 T02280056 57001 IEM_DS3505
ZBAA,1990-09-29 04:00,ZBAA 290400Z AUTO ////02KT 7SM 24/10 A3000 RMK T02400100 IEM_DS3505
ZBAA,1990-09-29 05:00,ZBAA 290500Z AUTO ////02KT 7SM 25/09 A2997 RMK T02500090 IEM_DS3505
ZBAA,1990-09-29 06:00,ZBAA 290600Z AUTO 36006KT 19SM 25/06 A2997 RMK SLP158 T02490056 4////0140 57014 IEM_DS3505
ZBAA,1990-09-29 07:00,ZBAA 290700Z AUTO ////02KT 6SM 25/08 A2994 RMK T02500080 IEM_DS3505
ZBAA,1990-09-29 08:00,ZBAA 290800Z AUTO ////02KT 6SM 25/07 A2994 RMK T02500070 IEM_DS3505
ZBAA,1990-09-29 09:00,ZBAA 290900Z AUTO 36004KT 12SM 24/06 A2994 RMK SLP154 T02420059 57005 IEM_DS3505
ZBAA,1990-09-29 10:00,ZBAA 291000Z AUTO 00000KT 6SM 22/08 A2997 RMK T02200080 IEM_DS3505
ZBAA,1990-09-29 11:00,ZBAA 291100Z AUTO ////04KT 6SM 21/07 A2997 RMK T02100070 IEM_DS3505
ZBAA,1990-09-29 12:00,ZBAA 291200Z AUTO 36006KT 19SM 20/04 A3000 RMK SLP174 T02050045 52020 IEM_DS3505
ZBAA,1990-09-29 13:00,ZBAA 291300Z AUTO ////04KT 6SM 19/09 A3003 RMK T01900090 IEM_DS3505
ZBAA,1990-09-29 14:00,ZBAA 291400Z AUTO 31002KT 6SM 18/09 A3006 RMK T01800090 IEM_DS3505
ZBAA,1990-09-29 15:00,ZBAA 291500Z AUTO 36008KT 12SM 19/02 A3006 RMK SLP184 T01930021 52011 IEM_DS3505
ZBAA,1990-09-29 18:00,ZBAA 291800Z AUTO 36010KT 12SM 18/M02 RMK 60000 SLP201 T01801018 40254//// 52016 IEM_DS3505
ZBAA,1990-09-29 20:00,ZBAA 292000Z AUTO ////06KT 6SM 16/M03 A3012 RMK T01601030 IEM_DS3505
ZBAA,1990-09-29 21:00,ZBAA 292100Z AUTO 04004KT 12SM 14/M01 A3012 RMK SLP212 T01441009 52011 IEM_DS3505
ZBAA,1990-09-29 22:00,ZBAA 292200Z AUTO 34004KT 7SM 13/M02 A3015 RMK T01301020 IEM_DS3505
ZBAA,1990-09-29 23:00,ZBAA 292300Z AUTO ////06KT 7SM 14/M01 A3018 RMK T01401010 IEM_DS3505
ZBAA,1990-09-30 00:00,ZBAA 300000Z AUTO 34006KT 9SM 15/01 A3018 RMK SLP233 T01470013 52020 IEM_DS3505
ZBAA,1990-09-30 01:00,ZBAA 300100Z AUTO 31008KT 7SM 18/M03 A3021 RMK T01801030 IEM_DS3505
ZBAA,1990-09-30 02:00,ZBAA 300200Z AUTO 32008KT 7SM 20/M03 A3021 RMK T02001030 IEM_DS3505
ZBAA,1990-09-30 03:00,ZBAA 300300Z AUTO 32004KT 19SM 19/M04 A3018 RMK SLP233 T01931043 52001 IEM_DS3505
ZBAA,1990-09-30 05:00,ZBAA 300500Z AUTO 31008KT 7SM 22/M03 A3012 RMK T02201030 IEM_DS3505
ZBAA,1990-09-30 06:00,ZBAA 300600Z AUTO 32006KT 16SM 22/M04 RMK SLP210 T02151042 4////0126 57023 IEM_DS3505
ZBAA,1990-09-30 07:00,ZBAA 300700Z AUTO 29008KT 7SM 23/M03 A3009 RMK T02301030 IEM_DS3505
ZBAA,1990-09-30 08:00,ZBAA 300800Z AUTO 29008KT 7SM 22/M03 A3006 RMK T02201030 IEM_DS3505
ZBAA,1990-09-30 09:00,ZBAA 300900Z AUTO 29008KT 16SM 22/M02 A3006 RMK SLP199 T02221015 57011 IEM_DS3505
ZBAA,1990-09-30 10:00,ZBAA 301000Z AUTO ////02KT 7SM 19/00 A3006 RMK T01900000 IEM_DS3505
ZBAA,1990-09-30 11:20,ZBAA 301120Z AUTO 23002KT 7SM 16/03 A3009 RMK T01600030 IEM_DS3505
ZBAA,1990-09-30 12:00,ZBAA 301200Z AUTO 00000KT 12SM 16/03 A3012 RMK SLP211 T01560033 52011 IEM_DS3505
ZBAA,1990-09-30 14:00,ZBAA 301400Z AUTO 00000KT 7SM 13/04 A3015 RMK T01300040 IEM_DS3505
ZBAA,1990-09-30 15:00,ZBAA 301500Z AUTO 36002KT 12SM 11/05 A3018 RMK SLP226 T01140051 52015 IEM_DS3505
ZBAA,1990-09-30 18:00,ZBAA 301800Z AUTO 36004KT 16SM 13/00 RMK SLP232 T01310004 52006 IEM_DS3505
ZBAA,1990-09-30 20:00,ZBAA 302000Z AUTO ////04KT 7SM 12/M01 A3018 RMK T01201010 IEM_DS3505
ZBAA,1990-09-30 21:00,ZBAA 302100Z AUTO 00000KT 12SM 09/02 A3018 RMK SLP236 T00940023 52004 IEM_DS3505
ZBAA,1990-09-30 22:00,ZBAA 302200Z AUTO ////06KT 7SM 11/M01 A3021 RMK T01101010 IEM_DS3505
ZBAA,1990-09-30 23:00,ZBAA 302300Z AUTO ////04KT 7SM 12/M02 A3021 RMK T01201020 IEM_DS3505
ZBAA,1990-10-01 00:00,ZBAA 010000Z AUTO 00000KT 12SM 13/02 RMK SLP244 T01290020 52008 IEM_DS3505
ZBAA,1990-10-01 01:00,ZBAA 010100Z AUTO ////02KT 7SM 16/03 A3024 RMK T01600030 IEM_DS3505
ZBAA,1990-10-01 02:00,ZBAA 010200Z AUTO 33008KT 7SM 20/M02 A3021 RMK T02001020 IEM_DS3505
ZBAA,1990-10-01 03:00,ZBAA 010300Z AUTO 02002KT 19SM 20/M02 A3021 RMK SLP241 T01991016 57003 IEM_DS3505
ZBAA,1990-10-01 04:00,ZBAA 010400Z AUTO ////06KT 7SM 23/M02 A3018 RMK T02301020 IEM_DS3505
ZBAA,1990-10-01 05:00,ZBAA 010500Z AUTO ////04KT 7SM 23/M01 A3015 RMK T02301010 IEM_DS3505
ZBAA,1990-10-01 06:00,ZBAA 010600Z AUTO 20006KT 19SM 24/M01 A3012 RMK SLP212 T02351012 4////0081 57028 IEM_DS3505
ZBAA,1990-10-01 07:00,ZBAA 010700Z AUTO ////04KT 7SM 24/M02 A3009 RMK T02401020 IEM_DS3505
ZBAA,1990-10-01 08:00,ZBAA 010800Z AUTO ////04KT 7SM 24/M02 A3006 RMK T02401020 IEM_DS3505
ZBAA,1990-10-01 09:00,ZBAA 010900Z AUTO 20008KT 19SM 22/M01 A3006 RMK SLP201 T02251013 57012 IEM_DS3505
ZBAA,1990-10-01 10:00,ZBAA 011000Z AUTO 20004KT 7SM 20/02 A3006 RMK T02000020 IEM_DS3505
ZBAA,1990-10-01 11:00,ZBAA 011100Z AUTO 18004KT 7SM 18/02 A3009 RMK T01800020 IEM_DS3505
ZBAA,1990-10-01 12:00,ZBAA 011200Z AUTO 22006KT 19SM 18/02 A3009 RMK SLP206 T01840015 52005 IEM_DS3505
ZBAA,1990-10-01 13:00,ZBAA 011300Z AUTO 00000KT 7SM 15/02 A3012 RMK T01500020 IEM_DS3505
ZBAA,1990-10-01 14:00,ZBAA 011400Z AUTO 08002KT 7SM 13/04 A3012 RMK T01300040 IEM_DS3505
ZBAA,1990-10-01 15:00,ZBAA 011500Z AUTO 00000KT 19SM 14/05 RMK SLP211 T01420047 52005 IEM_DS3505
ZBAA,1990-10-01 18:00,ZBAA 011800Z AUTO 04004KT 19SM 11/06 RMK SLP216 T01100056 40241//// 52005 IEM_DS3505
ZBAA,1990-10-01 19:00,ZBAA 011900Z AUTO ////02KT 7SM 10/06 A3012 RMK T01000060 IEM_DS3505
ZBAA,1990-10-01 20:00,ZBAA 012000Z AUTO 00000KT 7SM 09/05 A3012 RMK T00900050 IEM_DS3505
ZBAA,1990-10-01 21:00,ZBAA 012100Z AUTO 00000KT 16SM 09/05 A3012 RMK SLP209 T00940052 57007 IEM_DS3505
ZBAA,1990-10-01 22:00,ZBAA 012200Z AUTO 33004KT 7SM 09/05 A3012 RMK T00900050 IEM_DS3505
ZBAA,1990-10-01 23:00,ZBAA 012300Z AUTO 33004KT 7SM 11/06 A3012 RMK T01100060 IEM_DS3505
ZBAA,1990-10-02 00:00,ZBAA 020000Z AUTO 00000KT 7SM 12/07 A3012 RMK SLP215 T01250069 52006 IEM_DS3505
ZBAA,1990-10-02 01:00,ZBAA 020100Z AUTO ////02KT 7SM 16/08 A3012 RMK T01600080 IEM_DS3505
ZBAA,1990-10-02 02:00,ZBAA 020200Z AUTO 00000KT 6SM 19/08 A3015 RMK T01900080 IEM_DS3505
ZBAA,1990-10-02 03:00,ZBAA 020300Z AUTO 18002KT 4SM 22/04 A3012 RMK SLP209 T02150037 57005 IEM_DS3505
ZBAA,1990-10-02 04:00,ZBAA 020400Z AUTO 24002KT 6SM 22/05 A3009 RMK T02200050 IEM_DS3505
ZBAA,1990-10-02 05:00,ZBAA 020500Z AUTO ////04KT 6SM 25/04 A3006 RMK T02500040 IEM_DS3505
ZBAA,1990-10-02 06:00,ZBAA 020600Z AUTO 20012KT 7SM 25/00 RMK SLP180 T02510005 4////0082 57029 IEM_DS3505
ZBAA,1990-10-02 07:00,ZBAA 020700Z AUTO ////06KT 6SM 26/02 A3000 RMK T02600020 IEM_DS3505
ZBAA,1990-10-02 08:00,ZBAA 020800Z AUTO ////04KT 6SM 24/02 A3000 RMK T02400020 IEM_DS3505
ZBAA,1990-10-02 09:00,ZBAA 020900Z AUTO 20010KT 6SM 23/05 A3000 RMK SLP172 T02270048 57009 IEM_DS3505
ZBAA,1990-10-02 10:00,ZBAA 021000Z AUTO ////04KT 6SM 21/06 A3000 RMK T02100060 IEM_DS3505
ZBAA,1990-10-02 11:00,ZBAA 021100Z AUTO ////04KT 6SM 20/07 A3000 RMK T02000070 IEM_DS3505
ZBAA,1990-10-02 12:00,ZBAA 021200Z AUTO 20008KT 6SM 19/08 RMK SLP177 T01930079 52005 IEM_DS3505
ZBAA,1990-10-02 13:00,ZBAA 021300Z AUTO 14002KT 6SM 18/08 A3003 RMK T01800080 IEM_DS3505
ZBAA,1990-10-02 14:00,ZBAA 021400Z AUTO ////04KT 6SM 18/08 A3003 RMK T01800080 IEM_DS3505
ZBAA,1990-10-02 15:00,ZBAA 021500Z AUTO 25002KT 6SM 17/10 A3003 RMK SLP183 T01680100 52007 IEM_DS3505
ZBAA,1990-10-02 16:00,ZBAA 021600Z AUTO 11002KT 6SM 15/09 A3003 RMK T01500090 IEM_DS3505
ZBAA,1990-10-02 17:00,ZBAA 021700Z AUTO 00000KT 6SM 14/09 A3003 RMK T01400090 IEM_DS3505
ZBAA,1990-10-02 18:00,ZBAA 021800Z AUTO 00000KT 6SM 14/11 RMK SLP180 T01440108 40254//// 57003 IEM_DS3505
ZBAA,1990-10-02 21:00,ZBAA 022100Z AUTO 02002KT 6SM 14/09 RMK SLP179 T01360093 57001 IEM_DS3505
ZBAA,1990-10-02 22:00,ZBAA 022200Z AUTO 00000KT 6SM 12/09 A3003 RMK T01200090 IEM_DS3505
ZBAA,1990-10-02 23:00,ZBAA 022300Z AUTO 00000KT 6SM 12/09 A3003 RMK T01200090 IEM_DS3505
ZBAA,1990-10-03 00:00,ZBAA 030000Z AUTO 02002KT 2 1/2SM 14/10 RMK SLP184 T01380099 52005 IEM_DS3505
ZBAA,1990-10-03 01:00,ZBAA 030100Z AUTO ////02KT 5SM 16/11 A3006 RMK T01600110 IEM_DS3505
ZBAA,1990-10-03 02:00,ZBAA 030200Z AUTO ////02KT 5SM 18/11 A3006 RMK T01800110 IEM_DS3505
ZBAA,1990-10-03 03:00,ZBAA 030300Z AUTO 00000KT 2 1/2SM 20/10 A3003 RMK SLP184 T01990101 54000 IEM_DS3505
ZBAA,1990-10-03 04:00,ZBAA 030400Z AUTO 00000KT 5SM 21/11 A3000 RMK T02100110 IEM_DS3505
ZBAA,1990-10-03 05:00,ZBAA 030500Z AUTO ////02KT 6SM 23/11 A2997 RMK T02300110 IEM_DS3505
ZBAA,1990-10-03 06:00,ZBAA 030600Z AUTO 20008KT 6SM 23/08 A2994 RMK SLP156 T02340080 4////0123 57028 IEM_DS3505
ZBAA,1990-10-03 07:00,ZBAA 030700Z AUTO 18008KT 6SM 25/09 A2994 RMK T02500090 IEM_DS3505
ZBAA,1990-10-03 08:00,ZBAA 030800Z AUTO ////06KT 6SM 23/10 A2991 RMK T02300100 IEM_DS3505
ZBAA,1990-10-03 09:00,ZBAA 030900Z AUTO 20008KT 6SM 22/11 A2994 RMK SLP149 T02220106 57007 IEM_DS3505
ZBAA,1990-10-03 10:00,ZBAA 031000Z AUTO ////04KT 6SM 21/10 A2994 RMK T02100100 IEM_DS3505
ZBAA,1990-10-03 11:00,ZBAA 031100Z AUTO 18004KT 6SM 19/10 A2994 RMK T01900100 IEM_DS3505
ZBAA,1990-10-03 12:00,ZBAA 031200Z AUTO 20006KT 7SM 19/12 A2997 RMK SLP158 T01890115 52009 IEM_DS3505
ZBAA,1990-10-03 13:00,ZBAA 031300Z AUTO 12002KT 6SM 17/10 A2997 RMK T01700100 IEM_DS3505
ZBAA,1990-10-03 15:00,ZBAA 031500Z AUTO 20004KT 7SM 17/12 RMK SLP165 T01730123 52007 IEM_DS3505
ZBAA,1990-10-03 15:18,ZBAA 031518Z AUTO 12002KT 6SM 15/11 A3000 RMK T01500110 IEM_DS3505
ZBAA,1990-10-03 18:00,ZBAA 031800Z AUTO 07002KT 6SM 14/12 RMK SLP161 T01430123 40243//// 57004 IEM_DS3505
ZBAA,1990-10-03 21:00,ZBAA 032100Z AUTO 02004KT 5SM 14/11 RMK SLP161 T01410111 54000 IEM_DS3505
ZBAA,1990-10-04 00:00,ZBAA 040000Z AUTO 36002KT 3SM 15/12 RMK SLP164 T01470119 52003 IEM_DS3505
ZBAA,1990-10-04 01:00,ZBAA 040100Z AUTO ////02KT 2 1/2SM 16/13 A3000 RMK T01600130 IEM_DS3505
ZBAA,1990-10-04 02:00,ZBAA 040200Z AUTO 00000KT 3SM 19/13 A2997 RMK T01900130 IEM_DS3505
ZBAA,1990-10-04 03:00,ZBAA 040300Z AUTO 36002KT 2 1/2SM 21/13 A2997 RMK SLP160 T02130127 57004 IEM_DS3505
ZBAA,1990-10-04 04:00,ZBAA 040400Z AUTO ////02KT 4SM 24/14 A2994 RMK T02400140 IEM_DS3505
ZBAA,1990-10-04 05:00,ZBAA 040500Z AUTO ////02KT 5SM 24/13 A2991 RMK T02400130 IEM_DS3505
ZBAA,1990-10-04 06:00,ZBAA 040600Z AUTO 18004KT 3SM 25/13 A2991 RMK SLP137 T02500128 4////0133 57022 IEM_DS3505
ZBAA,1990-10-04 07:00,ZBAA 040700Z AUTO ////04KT 4SM 25/13 A2988 RMK T02500130 IEM_DS3505
ZBAA,1990-10-04 09:00,ZBAA 040900Z AUTO 20004KT 5SM 25/12 A2988 RMK SLP136 T02490125 57002 IEM_DS3505
ZBAA,1990-10-04 10:00,ZBAA 041000Z AUTO 00000KT 4SM 21/14 A2988 RMK T02100140 IEM_DS3505
ZBAA,1990-10-04 11:00,ZBAA 041100Z AUTO 00000KT 5SM 19/14 A2991 RMK T01900140 IEM_DS3505
ZBAA,1990-10-04 12:00,ZBAA 041200Z AUTO 00000KT 4SM 18/14 A2991 RMK SLP143 T01830145 52007 IEM_DS3505
ZBAA,1990-10-04 13:00,ZBAA 041300Z AUTO 00000KT 2 1/2SM 18/14 A2994 RMK T01800140 IEM_DS3505
ZBAA,1990-10-04 14:00,ZBAA 041400Z AUTO 00000KT 4SM 17/14 A2994 RMK T01700140 IEM_DS3505
ZBAA,1990-10-04 15:00,ZBAA 041500Z AUTO 04002KT 3SM 18/14 A2994 RMK SLP148 T01760138 52005 IEM_DS3505
ZBAA,1990-10-04 18:00,ZBAA 041800Z AUTO 04002KT 2 1/2SM 16/13 RMK SLP146 T01600131 40261//// 57001 IEM_DS3505
ZBAA,1990-10-04 20:00,ZBAA 042000Z AUTO 34002KT 4SM 15/13 A2991 RMK T01500130 IEM_DS3505
ZBAA,1990-10-04 21:00,ZBAA 042100Z AUTO 00000KT 2SM 14/12 A2994 RMK SLP145 T01370122 57002 IEM_DS3505
ZBAA,1990-10-04 22:00,ZBAA 042200Z AUTO 00000KT 2SM 14/12 A2994 RMK T01400120 IEM_DS3505
ZBAA,1990-10-04 23:00,ZBAA 042300Z AUTO 00000KT 2 1/2SM 14/13 A2994 RMK T01400130 IEM_DS3505
ZBAA,1990-10-05 00:00,ZBAA 050000Z AUTO 00000KT 1 1/4SM 15/13 A2997 RMK SLP157 T01460130 52012 IEM_DS3505
ZBAA,1990-10-05 01:00,ZBAA 050100Z AUTO ////02KT 3SM 19/14 A2997 RMK T01900140 IEM_DS3505
ZBAA,1990-10-05 02:00,ZBAA 050200Z AUTO 02002KT 4SM 21/13 A2997 RMK T02100130 IEM_DS3505
ZBAA,1990-10-05 03:00,ZBAA 050300Z AUTO 11002KT 2 1/2SM 24/14 A2997 RMK SLP156 T02430142 54000 IEM_DS3505
ZBAA,1990-10-05 04:00,ZBAA 050400Z AUTO 00000KT 5SM 26/15 A2994 RMK T02600150 IEM_DS3505
ZBAA,1990-10-05 05:00,ZBAA 050500Z AUTO ////04KT 5SM 27/14 A2994 RMK T02700140 IEM_DS3505
ZBAA,1990-10-05 06:00,ZBAA 050600Z AUTO 20004KT 3SM 28/14 RMK SLP141 T02830141 4////0130 57015 IEM_DS3505
ZBAA,1990-10-05 07:00,ZBAA 050700Z AUTO ////04KT 3SM 29/15 A2988 RMK T02900150 IEM_DS3505
ZBAA,1990-10-05 08:00,ZBAA 050800Z AUTO ////04KT 4SM 28/14 A2991 RMK T02800140 IEM_DS3505
ZBAA,1990-10-05 09:00,ZBAA 050900Z AUTO 20002KT 4SM 28/14 A2991 RMK SLP143 T02780142 52002 IEM_DS3505
ZBAA,1990-10-05 10:00,ZBAA 051000Z AUTO ////02KT 4SM 24/15 A2994 RMK T02400150 IEM_DS3505
ZBAA,1990-10-05 11:00,ZBAA 051100Z AUTO ////04KT 7SM 24/08 A3003 RMK T02400080 IEM_DS3505
ZBAA,1990-10-05 12:00,ZBAA 051200Z AUTO 34006KT 6SM 22/04 RMK SLP195 T02230038 52051 IEM_DS3505
ZBAA,1990-10-05 14:00,ZBAA 051400Z AUTO ////04KT 7SM 19/01 A3015 RMK T01900010 IEM_DS3505
ZBAA,1990-10-05 15:00,ZBAA 051500Z AUTO 34008KT 7SM 18/01 RMK SLP233 T01790013 52038 IEM_DS3505
ZBAA,1990-10-05 16:00,ZBAA 051600Z AUTO ////04KT 7SM 17/01 A3021 RMK T01700010 IEM_DS3505
ZBAA,1990-10-05 18:00,ZBAA 051800Z AUTO 02010KT 9SM 16/M00 RMK SLP250 T01651002 40291//// 52017 IEM_DS3505
ZBAA,1990-10-05 20:00,ZBAA 052000Z AUTO ////02KT 7SM 13/00 A3027 RMK T01300000 IEM_DS3505
ZBAA,1990-10-05 21:00,ZBAA 052100Z AUTO 04006KT 9SM 15/M00 A3030 RMK SLP260 T01471004 52010 IEM_DS3505
ZBAA,1990-10-05 22:00,ZBAA 052200Z AUTO ////02KT 7SM 12/00 A3030 RMK T01200000 IEM_DS3505
ZBAA,1990-10-05 23:00,ZBAA 052300Z AUTO 33002KT 7SM 13/01 A3033 RMK T01300010 IEM_DS3505
ZBAA,1990-10-06 00:00,ZBAA 060000Z AUTO 02004KT 12SM 15/02 A3033 RMK SLP278 T01520017 52017 IEM_DS3505
ZBAA,1990-10-06 01:00,ZBAA 060100Z AUTO ////04KT 7SM 18/01 A3033 RMK T01800010 IEM_DS3505
ZBAA,1990-10-06 02:00,ZBAA 060200Z AUTO ////04KT 6SM 20/00 A3033 RMK T02000000 IEM_DS3505
ZBAA,1990-10-06 03:00,ZBAA 060300Z AUTO 02004KT 19SM 20/M01 A3033 RMK SLP276 T01961007 57002 IEM_DS3505
ZBAA,1990-10-06 04:00,ZBAA 060400Z AUTO ////02KT 6SM 21/00 A3030 RMK T02100000 IEM_DS3505
ZBAA,1990-10-06 05:00,ZBAA 060500Z AUTO ////02KT 6SM 21/M01 A3024 RMK T02101010 IEM_DS3505
ZBAA,1990-10-06 06:00,ZBAA 060600Z AUTO 18002KT 19SM 22/M02 A3021 RMK SLP243 T02181017 4////0109 57032 IEM_DS3505
ZBAA,1990-10-06 07:00,ZBAA 060700Z AUTO ////02KT 6SM 21/M02 A3021 RMK T02101020 IEM_DS3505
ZBAA,1990-10-06 08:00,ZBAA 060800Z AUTO ////04KT 6SM 21/M02 A3018 RMK T02101020 IEM_DS3505
ZBAA,1990-10-06 09:00,ZBAA 060900Z AUTO 18004KT 16SM 21/M00 A3018 RMK SLP229 T02081001 57015 IEM_DS3505
ZBAA,1990-10-06 10:00,ZBAA 061000Z AUTO 17002KT 6SM 18/01 A3015 RMK T01800010 IEM_DS3505
ZBAA,1990-10-06 11:00,ZBAA 061100Z AUTO 00000KT 6SM 16/02 A3018 RMK T01600020 IEM_DS3505
ZBAA,1990-10-06 12:00,ZBAA 061200Z AUTO 20002KT 16SM 18/02 A3018 RMK SLP230 T01750020 52001 IEM_DS3505
ZBAA,1990-10-06 14:00,ZBAA 061400Z AUTO 00000KT 6SM 12/06 A3018 RMK T01200060 IEM_DS3505
ZBAA,1990-10-06 15:00,ZBAA 061500Z AUTO 00000KT 16SM 12/06 A3018 RMK SLP229 T01230062 57001 IEM_DS3505
ZBAA,1990-10-06 16:00,ZBAA 061600Z AUTO 00000KT 6SM 11/05 A3018 RMK T01100050 IEM_DS3505
ZBAA,1990-10-06 17:00,ZBAA 061700Z AUTO 00000KT 6SM A3018 RMK IEM_DS3505
ZBAA,1990-10-06 18:00,ZBAA 061800Z AUTO 02002KT 16SM 10/07 RMK SLP229 T01040066 40226//// 54000 IEM_DS3505
ZBAA,1990-10-06 21:00,ZBAA 062100Z AUTO 00000KT 16SM 10/06 A3012 RMK SLP217 T00950055 57012 IEM_DS3505
ZBAA,1990-10-06 22:00,ZBAA 062200Z AUTO ////02KT 6SM 09/05 A3012 RMK T00900050 IEM_DS3505
ZBAA,1990-10-06 23:00,ZBAA 062300Z AUTO 32004KT 6SM 10/05 A3012 RMK T01000050 IEM_DS3505
ZBAA,1990-10-07 00:00,ZBAA 070000Z AUTO 36002KT 12SM 12/05 A3012 RMK SLP217 T01240053 54000 IEM_DS3505
ZBAA,1990-10-07 01:00,ZBAA 070100Z AUTO ////04KT 6SM 14/06 A3012 RMK T01400060 IEM_DS3505
ZBAA,1990-10-07 02:00,ZBAA 070200Z AUTO ////04KT 6SM 17/07 A3012 RMK T01700070 IEM_DS3505
ZBAA,1990-10-07 03:00,ZBAA 070300Z AUTO 04004KT 9SM 20/05 A3009 RMK SLP206 T01990050 57011 IEM_DS3505
ZBAA,1990-10-07 05:00,ZBAA 070500Z AUTO ////02KT 6SM 23/03 A3006 RMK T02300030 IEM_DS3505
ZBAA,1990-10-07 06:00,ZBAA 070600Z AUTO 00000KT 6SM 25/04 A3003 RMK SLP187 T02460041 4////0082 57018 IEM_DS3505
ZBAA,1990-10-07 07:00,ZBAA 070700Z AUTO ////02KT 6SM 25/01 A3003 RMK T02500010 IEM_DS3505
ZBAA,1990-10-07 08:00,ZBAA 070800Z AUTO 00000KT 6SM 25/M01 A3003 RMK T02501010 IEM_DS3505
ZBAA,1990-10-07 09:00,ZBAA 070900Z AUTO 20002KT 6SM 24/05 A3003 RMK T02400049 57004 IEM_DS3505
ZBAA,1990-10-07 10:00,ZBAA 071000Z AUTO 17002KT 6SM A3003 RMK 40251//// 52015 IEM_DS3505
ZBAA,1990-10-07 11:00,ZBAA 071100Z AUTO 00000KT 6SM 18/06 A3006 RMK T01800060 IEM_DS3505
ZBAA,1990-10-07 12:00,ZBAA 071200Z AUTO 00000KT 6SM 16/09 A3009 RMK SLP195 T01630087 52011 IEM_DS3505
ZBAA,1990-10-07 13:00,ZBAA 071300Z AUTO 00000KT 6SM 16/06 A3009 RMK T01600060 IEM_DS3505
ZBAA,1990-10-07 15:00,ZBAA 071500Z AUTO 07004KT 6SM 14/06 A3015 RMK SLP215 T01390064 52020 IEM_DS3505
ZBAA,1990-10-07 18:00,ZBAA 071800Z AUTO 36002KT 6SM 12/07 RMK SLP229 T01210066 40251//// 52015 IEM_DS3505
ZBAA,1990-10-07 20:00,ZBAA 072000Z AUTO 32002KT 6SM 11/08 A3021 RMK T01100080 IEM_DS3505
ZBAA,1990-10-07 21:00,ZBAA 072100Z AUTO 02004KT 6SM 12/07 A3024 RMK SLP246 T01150066 52016 IEM_DS3505
ZBAA,1990-10-07 22:00,ZBAA 072200Z AUTO 31002KT 7SM 10/07 A3027 RMK T01000070 IEM_DS3505
ZBAA,1990-10-07 23:00,ZBAA 072300Z AUTO 32002KT 7SM 11/07 A3030 RMK T01100070 IEM_DS3505
ZBAA,1990-10-08 00:00,ZBAA 080000Z AUTO 00000KT 5SM 12/08 A3030 RMK T01230076 52026 IEM_DS3505
ZBAA,1990-10-08 01:00,ZBAA 080100Z AUTO 00000KT 7SM 17/09 A3033 RMK T01700090 IEM_DS3505
ZBAA,1990-10-08 02:00,ZBAA 080200Z AUTO ////04KT 7SM 19/06 A3033 RMK T01900060 IEM_DS3505
ZBAA,1990-10-08 03:00,ZBAA 080300Z AUTO 14004KT 5SM 20/05 A3033 RMK SLP279 T01960050 52007 IEM_DS3505
ZBAA,1990-10-08 06:00,ZBAA 080600Z AUTO 20004KT 16SM 22/06 RMK SLP260 T02230064 4////0096 57019 IEM_DS3505
ZBAA,1990-10-08 08:00,ZBAA 080800Z AUTO ////04KT 6SM 21/04 A3024 RMK T02100040 IEM_DS3505
ZBAA,1990-10-08 09:00,ZBAA 080900Z AUTO 16004KT 9SM 21/06 RMK SLP251 T02130065 57009 IEM_DS3505
ZBAA,1990-10-08 12:00,ZBAA 081200Z AUTO 20004KT 9SM 17/08 A3033 RMK SLP278 T01690075 52026 IEM_DS3505
ZBAA,1990-10-08 13:00,ZBAA 081300Z AUTO ////04KT 6SM 15/07 A3036 RMK T01500070 IEM_DS3505
ZBAA,1990-10-08 14:00,ZBAA 081400Z AUTO ////02KT 6SM 14/07 A3039 RMK T01400070 IEM_DS3505
ZBAA,1990-10-08 15:00,ZBAA 081500Z AUTO 16002KT 9SM 14/08 RMK SLP299 T01400079 52022 IEM_DS3505
ZBAA,1990-10-08 18:00,ZBAA 081800Z AUTO 00000KT 7SM 12/08 RMK SLP323 T01160079 40224//// 52024 IEM_DS3505
ZBAA,1990-10-08 20:00,ZBAA 082000Z AUTO 28002KT 7SM 09/06 A3047 RMK T00900060 IEM_DS3505
ZBAA,1990-10-08 21:00,ZBAA 082100Z AUTO 02002KT 7SM 10/08 A3050 RMK SLP334 T01030076 52010 IEM_DS3505
ZBAA,1990-10-08 22:00,ZBAA 082200Z AUTO ////02KT 7SM 08/06 A3050 RMK T00800060 IEM_DS3505
ZBAA,1990-10-08 23:00,ZBAA 082300Z AUTO 33002KT 6SM 09/07 A3050 RMK T00900070 IEM_DS3505
ZBAA,1990-10-09 00:00,ZBAA 090000Z AUTO 00000KT 6SM 11/07 A3053 RMK SLP347 T01120072 52013 IEM_DS3505
ZBAA,1990-10-09 01:00,ZBAA 090100Z AUTO 00000KT 6SM 13/00 A3056 RMK T01300000 IEM_DS3505
ZBAA,1990-10-09 02:00,ZBAA 090200Z AUTO ////02KT 6SM 16/M03 A3053 RMK T01601030 IEM_DS3505
ZBAA,1990-10-09 03:00,ZBAA 090300Z AUTO 18006KT 5SM 16/02 A3053 RMK SLP345 T01650025 57002 IEM_DS3505
ZBAA,1990-10-09 04:00,ZBAA 090400Z AUTO ////04KT 6SM 18/01 A3050 RMK T01800010 IEM_DS3505
ZBAA,1990-10-09 05:00,ZBAA 090500Z AUTO ////04KT 6SM 19/01 A3047 RMK T01900010 IEM_DS3505
ZBAA,1990-10-09 06:00,ZBAA 090600Z AUTO 16006KT 7SM 19/04 A3045 RMK SLP318 T01890039 4////0084 57027 IEM_DS3505
ZBAA,1990-10-09 07:00,ZBAA 090700Z AUTO ////02KT 6SM 19/00 A3042 RMK T01900000 IEM_DS3505
ZBAA,1990-10-09 08:00,ZBAA 090800Z AUTO ////04KT 6SM 19/03 A3042 RMK T01900030 IEM_DS3505
ZBAA,1990-10-09 09:00,ZBAA 090900Z AUTO 20008KT 8SM 18/05 A3042 RMK SLP307 T01810053 57011 IEM_DS3505
ZBAA,1990-10-09 10:00,ZBAA 091000Z AUTO 16002KT 6SM 17/05 A3042 RMK T01700050 IEM_DS3505
ZBAA,1990-10-09 11:00,ZBAA 091100Z AUTO 16004KT 7SM 16/04 A3042 RMK T01600040 IEM_DS3505
ZBAA,1990-10-09 12:00,ZBAA 091200Z AUTO 18006KT 9SM 16/06 A3042 RMK SLP311 T01560058 IEM_DS3505
ZBAA,1990-10-09 14:00,ZBAA 091400Z AUTO 09002KT 7SM 11/06 A3045 RMK T01100060 IEM_DS3505
ZBAA,1990-10-09 15:00,ZBAA 091500Z AUTO 20004KT 9SM 13/07 A3045 RMK SLP312 T01300070 52001 IEM_DS3505
ZBAA,1990-10-09 16:00,ZBAA 091600Z AUTO 09002KT 6SM 09/05 A3042 RMK T00900050 IEM_DS3505
ZBAA,1990-10-09 18:00,ZBAA 091800Z AUTO 07002KT 4SM 10/08 RMK SLP307 T01020077 40196//// 57005 IEM_DS3505
ZBAA,1990-10-09 20:00,ZBAA 092000Z AUTO 00000KT 6SM 09/04 A3039 RMK T00900040 IEM_DS3505
ZBAA,1990-10-09 21:00,ZBAA 092100Z AUTO 02002KT 3SM 10/05 A3039 RMK SLP301 T00990052 57006 IEM_DS3505
ZBAA,1990-10-09 22:00,ZBAA 092200Z AUTO 00000KT 6SM 08/04 A3039 RMK T00800040 IEM_DS3505
ZBAA,1990-10-09 23:00,ZBAA 092300Z AUTO 00000KT 6SM 09/04 A3039 RMK T00900040 IEM_DS3505
ZBAA,1990-10-10 00:00,ZBAA 100000Z AUTO 02002KT 4SM 10/06 A3039 RMK SLP302 T00990055 52001 IEM_DS3505
ZBAA,1990-10-10 01:00,ZBAA 100100Z AUTO ////02KT 5SM 10/06 A3039 RMK T01000060 IEM_DS3505
ZBAA,1990-10-10 02:00,ZBAA 100200Z AUTO 00000KT 5SM 11/06 A3039 RMK T01100060 IEM_DS3505
ZBAA,1990-10-10 03:00,ZBAA 100300Z AUTO 34002KT 3SM 13/06 A3039 RMK SLP300 T01270061 57002 IEM_DS3505
ZBAA,1990-10-10 04:00,ZBAA 100400Z AUTO 00000KT 5SM 14/08 A3036 RMK T01400080 IEM_DS3505
ZBAA,1990-10-10 05:00,ZBAA 100500Z AUTO ////04KT 5SM 16/08 A3033 RMK T01600080 IEM_DS3505
ZBAA,1990-10-10 06:00,ZBAA 100600Z AUTO 22008KT 3SM 17/07 A3030 RMK T01680067 4////0091 57033 IEM_DS3505
ZBAA,1990-10-10 07:00,ZBAA 100700Z AUTO ////04KT 6SM 18/06 A3027 RMK T01800060 IEM_DS3505
ZBAA,1990-10-10 08:00,ZBAA 100800Z AUTO ////06KT 6SM 17/04 A3027 RMK T01700040 IEM_DS3505
ZBAA,1990-10-10 09:00,ZBAA 100900Z AUTO 20008KT 4SM 16/04 A3027 RMK SLP258 T01620042 57009 IEM_DS3505
ZBAA,1990-10-10 10:00,ZBAA 101000Z AUTO 18002KT 7SM 16/05 A3027 RMK T01600050 IEM_DS3505
ZBAA,1990-10-10 11:00,ZBAA 101100Z AUTO 00000KT 7SM 16/06 A3027 RMK T01600060 IEM_DS3505
ZBAA,1990-10-10 12:00,ZBAA 101200Z AUTO 20004KT 6SM 15/05 A3027 RMK SLP261 T01500047 52003 IEM_DS3505
ZBAA,1990-10-10 13:00,ZBAA 101300Z AUTO 00000KT 7SM 13/09 A3027 RMK T01300090 IEM_DS3505
ZBAA,1990-10-10 14:00,ZBAA 101400Z AUTO 13002KT 7SM 13/10 A3030 RMK T01300100 IEM_DS3505
ZBAA,1990-10-10 15:00,ZBAA 101500Z AUTO 00000KT 6SM 13/08 RMK SLP261 T01340077 54000 IEM_DS3505
ZBAA,1990-10-10 18:00,ZBAA 101800Z AUTO 04004KT 3SM 12/08 RMK SLP255 T01250082 40168//// 57005 IEM_DS3505
ZBAA,1990-10-10 20:00,ZBAA 102000Z AUTO 00000KT 5SM 12/08 A3024 RMK T01200080 IEM_DS3505
ZBAA,1990-10-10 21:00,ZBAA 102100Z AUTO 04004KT 3SM 12/08 A3024 RMK SLP248 T01240084 57007 IEM_DS3505
ZBAA,1990-10-10 22:00,ZBAA 102200Z AUTO 00000KT 5SM 12/09 A3024 RMK T01200090 IEM_DS3505
ZBAA,1990-10-10 23:00,ZBAA 102300Z AUTO 00000KT 4SM 11/08 A3024 RMK T01100080 IEM_DS3505
ZBAA,1990-10-11 00:00,ZBAA 110000Z AUTO 04002KT 2 1/2SM 12/08 A3024 RMK SLP251 T01250085 52002 IEM_DS3505
ZBAA,1990-10-11 01:00,ZBAA 110100Z AUTO 00000KT 7SM 14/09 A3024 RMK T01400090 IEM_DS3505
ZBAA,1990-10-11 02:00,ZBAA 110200Z AUTO 10002KT 7SM 16/09 A3024 RMK T01600090 IEM_DS3505
ZBAA,1990-10-11 03:00,ZBAA 110300Z AUTO 34002KT 3SM 17/07 A3024 RMK SLP247 T01730071 57003 IEM_DS3505
ZBAA,1990-10-11 04:00,ZBAA 110400Z AUTO ////02KT 6SM 19/08 A3021 RMK T01900080 IEM_DS3505
ZBAA,1990-10-11 05:00,ZBAA 110500Z AUTO ////04KT 6SM 21/09 A3015 RMK T02100090 IEM_DS3505
ZBAA,1990-10-11 06:00,ZBAA 110600Z AUTO 16004KT 2 1/2SM 21/09 A3012 RMK SLP215 T02090093 4////0111 57032 IEM_DS3505
ZBAA,1990-10-11 07:00,ZBAA 110700Z AUTO ////02KT 4SM 21/09 A3012 RMK T02100090 IEM_DS3505
ZBAA,1990-10-11 08:00,ZBAA 110800Z AUTO 19002KT 4SM 21/09 A3012 RMK T02100090 IEM_DS3505
ZBAA,1990-10-11 09:00,ZBAA 110900Z AUTO 20006KT 4SM 21/09 A3009 RMK SLP208 T02080089 57007 IEM_DS3505
ZBAA,1990-10-11 10:00,ZBAA 111000Z AUTO 00000KT 3SM 18/10 A3012 RMK T01800100 IEM_DS3505
ZBAA,1990-10-11 11:00,ZBAA 111100Z AUTO 00000KT 2SM 16/11 A3012 RMK T01600110 IEM_DS3505
ZBAA,1990-10-11 12:00,ZBAA 111200Z AUTO 18004KT 3SM 17/10 A3015 RMK SLP219 T01710103 52011 IEM_DS3505
ZBAA,1990-10-11 13:00,ZBAA 111300Z AUTO 07002KT 2SM 14/11 A3015 RMK T01400110 IEM_DS3505
ZBAA,1990-10-11 14:00,ZBAA 111400Z AUTO 08002KT 2SM 13/11 A3015 RMK T01300110 IEM_DS3505
ZBAA,1990-10-11 15:00,ZBAA 111500Z AUTO 02004KT 2SM 14/10 A3015 RMK SLP221 T01350104 52002 IEM_DS3505
ZBAA,1990-10-11 18:00,ZBAA 111800Z AUTO 00000KT 1 1/4SM 12/10 A3012 RMK SLP216 T01250098 40221//// 57005 IEM_DS3505
ZBAA,1990-10-11 19:00,ZBAA 111900Z AUTO 00000KT 2SM 11/09 A3012 RMK T01100090 IEM_DS3505
ZBAA,1990-10-11 20:00,ZBAA 112000Z AUTO 00000KT 2SM 11/09 A3012 RMK T01100090 IEM_DS3505
ZBAA,1990-10-11 21:00,ZBAA 112100Z AUTO 00000KT 1 1/4SM 11/09 A3012 RMK T01100090 57002 IEM_DS3505
ZBAA,1990-10-11 22:00,ZBAA 112200Z AUTO 35002KT 1 1/2SM 11/09 A3012 RMK T01100090 IEM_DS3505
ZBAA,1990-10-11 23:00,ZBAA 112300Z AUTO 00000KT 2SM 11/10 A3012 RMK T01100100 IEM_DS3505
ZBAA,1990-10-12 00:00,ZBAA 120000Z AUTO 00000KT 1 1/2SM 13/10 A3012 RMK SLP215 T01310100 52001 IEM_DS3505
ZBAA,1990-10-12 01:00,ZBAA 120100Z AUTO 32002KT 3SM 15/11 A3015 RMK T01500110 IEM_DS3505
ZBAA,1990-10-12 03:00,ZBAA 120300Z AUTO 36002KT 2SM 18/11 A3012 RMK SLP210 T01750110 57005 IEM_DS3505
ZBAA,1990-10-12 04:00,ZBAA 120400Z AUTO 00000KT 5SM 20/11 A3009 RMK T02000110 IEM_DS3505
ZBAA,1990-10-12 05:00,ZBAA 120500Z AUTO 20002KT 5SM 20/11 A3006 RMK T02000110 IEM_DS3505
ZBAA,1990-10-12 06:00,ZBAA 120600Z AUTO 18006KT 2 1/2SM 21/10 A3003 RMK SLP185 T02110103 4////0101 57024 IEM_DS3505
ZBAA,1990-10-12 07:00,ZBAA 120700Z AUTO ////02KT 5SM 21/11 A3003 RMK T02100110 IEM_DS3505
ZBAA,1990-10-12 08:00,ZBAA 120800Z AUTO 00000KT 3SM 21/12 A3003 RMK T02100120 IEM_DS3505
ZBAA,1990-10-12 09:00,ZBAA 120900Z AUTO 20004KT 2 1/2SM 20/10 A3000 RMK SLP177 T02050104 57009 IEM_DS3505
ZBAA,1990-10-12 10:00,ZBAA 121000Z AUTO 00000KT 3SM 18/12 A3000 RMK T01800120 IEM_DS3505
ZBAA,1990-10-12 11:00,ZBAA 121100Z AUTO 00000KT 2 1/2SM 17/12 A3003 RMK T01700120 IEM_DS3505
ZBAA,1990-10-12 12:00,ZBAA 121200Z AUTO 00000KT 2 1/2SM 16/12 A3003 RMK SLP181 T01590119 52004 IEM_DS3505
ZBAA,1990-10-12 13:00,ZBAA 121300Z AUTO 00000KT 2SM 16/13 A3003 RMK T01600130 IEM_DS3505
ZBAA,1990-10-12 14:00,ZBAA 121400Z AUTO 00000KT 1 1/4SM 15/12 A3003 RMK T01500120 IEM_DS3505
ZBAA,1990-10-12 15:00,ZBAA 121500Z AUTO 00000KT 2SM 14/12 A3003 RMK SLP180 T01450119 57001 IEM_DS3505
ZBAA,1990-10-12 18:00,ZBAA 121800Z AUTO 02002KT 2SM 13/11 RMK SLP169 T01310114 40220//// 57010 IEM_DS3505
ZBAA,1990-10-12 20:00,ZBAA 122000Z AUTO 00000KT 1 1/4SM 12/11 A2997 RMK T01200110 IEM_DS3505
ZBAA,1990-10-12 21:00,ZBAA 122100Z AUTO 00000KT 1 1/4SM 12/11 A2997 RMK SLP157 T01250112 57012 IEM_DS3505
ZBAA,1990-10-12 22:00,ZBAA 122200Z AUTO 00000KT 1 1/4SM 11/10 A2997 RMK T01100100 IEM_DS3505
ZBAA,1990-10-13 00:00,ZBAA 130000Z AUTO 00000KT 1SM 13/12 A2997 RMK SLP163 T01300115 52005 IEM_DS3505
ZBAA,1990-10-13 01:00,ZBAA 130100Z AUTO ////02KT 2SM 18/13 A2997 RMK T01800130 IEM_DS3505
ZBAA,1990-10-13 02:00,ZBAA 130200Z AUTO ////02KT 3SM 21/13 A2997 RMK T02100130 IEM_DS3505
ZBAA,1990-10-13 03:00,ZBAA 130300Z AUTO 36002KT 2SM 22/10 A2997 RMK SLP159 T02230101 57003 IEM_DS3505
ZBAA,1990-10-13 04:00,ZBAA 130400Z AUTO ////04KT 6SM 25/10 A2994 RMK T02500100 IEM_DS3505
ZBAA,1990-10-13 05:00,ZBAA 130500Z AUTO ////06KT 6SM 26/09 A2991 RMK T02600090 IEM_DS3505
ZBAA,1990-10-13 06:00,ZBAA 130600Z AUTO 34002KT 19SM 27/07 A2988 RMK SLP141 T02660074 4////0114 57017 IEM_DS3505
ZBAA,1990-10-13 07:00,ZBAA 130700Z AUTO ////04KT 6SM 27/06 A2988 RMK T02700060 IEM_DS3505
ZBAA,1990-10-13 08:00,ZBAA 130800Z AUTO ////02KT 6SM 26/06 A2991 RMK T02600060 IEM_DS3505
ZBAA,1990-10-13 09:00,ZBAA 130900Z AUTO 36017KT 4SM 22/06 A2991 RMK SLP152 T02220058 52010 IEM_DS3505
ZBAA,1990-10-13 10:00,ZBAA 131000Z AUTO ////06KT 7SM 21/07 A2994 RMK T02100070 IEM_DS3505
ZBAA,1990-10-13 11:00,ZBAA 131100Z AUTO ////04KT 6SM 20/08 A2997 RMK T02000080 IEM_DS3505
ZBAA,1990-10-13 12:00,ZBAA 131200Z AUTO ////04KT 9SM 20/08 A3000 RMK 60001 SLP182 T02000080 52029 IEM_DS3505
ZBAA,1990-10-13 13:00,ZBAA 131300Z AUTO ////02KT 6SM 19/08 RMK T01900080 IEM_DS3505
ZBAA,1990-10-13 15:00,ZBAA 131500Z AUTO 07002KT 9SM 14/10 A3003 RMK SLP184 T01450101 52003 IEM_DS3505
ZBAA,1990-10-13 16:00,ZBAA 131600Z AUTO ////02KT 6SM 18/08 A3003 RMK T01800080 IEM_DS3505
ZBAA,1990-10-13 18:00,ZBAA 131800Z AUTO 04004KT 9SM 14/09 RMK SLP186 T01430086 40276//// 52002 IEM_DS3505
ZBAA,1990-10-13 20:00,ZBAA 132000Z AUTO ////02KT 6SM 14/09 A3006 RMK T01400090 IEM_DS3505
ZBAA,1990-10-13 21:00,ZBAA 132100Z AUTO 00000KT 9SM 14/08 A3009 RMK SLP196 T01390081 52010 IEM_DS3505
ZBAA,1990-10-13 22:00,ZBAA 132200Z AUTO ////04KT 6SM 16/08 A3009 RMK T01600080 IEM_DS3505
ZBAA,1990-10-13 23:00,ZBAA 132300Z AUTO ////04KT 6SM 15/08 A3012 RMK T01500080 IEM_DS3505
ZBAA,1990-10-14 00:00,ZBAA 140000Z AUTO 04004KT 7SM 15/09 A3015 RMK SLP220 T01480089 52023 IEM_DS3505
ZBAA,1990-10-14 01:00,ZBAA 140100Z AUTO ////02KT 7SM 19/09 RMK T01900090 IEM_DS3505
ZBAA,1990-10-14 02:00,ZBAA 140200Z AUTO ////04KT 7SM 21/07 A3018 RMK T02100070 IEM_DS3505
ZBAA,1990-10-14 03:00,ZBAA 140300Z AUTO 04002KT 9SM 21/08 A3018 RMK SLP226 T02100085 52007 IEM_DS3505
ZBAA,1990-10-14 04:00,ZBAA 140400Z AUTO ////02KT 7SM 23/04 A3015 RMK T02300040 IEM_DS3505
ZBAA,1990-10-14 05:00,ZBAA 140500Z AUTO ////04KT 7SM 25/05 A3012 RMK T02500050 IEM_DS3505
ZBAA,1990-10-14 06:00,ZBAA 140600Z AUTO 11002KT 12SM 24/06 A3012 RMK SLP210 T02430057 4////0106 57016 IEM_DS3505
ZBAA,1990-10-14 07:00,ZBAA 140700Z AUTO ////06KT 7SM 24/05 A3009 RMK T02400050 IEM_DS3505
ZBAA,1990-10-14 08:00,ZBAA 140800Z AUTO ////04KT 7SM 24/05 A3009 RMK T02400050 IEM_DS3505
ZBAA,1990-10-14 09:00,ZBAA 140900Z AUTO 20004KT 16SM 23/06 A3009 RMK SLP204 T02310055 57006 IEM_DS3505
ZBAA,1990-10-14 10:00,ZBAA 141000Z AUTO 17004KT 7SM 21/05 A3012 RMK T02100050 IEM_DS3505
ZBAA,1990-10-14 11:00,ZBAA 141100Z AUTO 18004KT 7SM 20/06 A3012 RMK T02000060 IEM_DS3505
ZBAA,1990-10-14 12:00,ZBAA 141200Z AUTO 20008KT 9SM 19/04 A3015 RMK T01910043 52012 IEM_DS3505
ZBAA,1990-10-14 13:00,ZBAA 141300Z AUTO 17006KT 7SM 18/04 A3015 RMK T01800040 IEM_DS3505
ZBAA,1990-10-14 14:00,ZBAA 141400Z AUTO 18004KT 7SM 16/05 A3015 RMK T01600050 IEM_DS3505
ZBAA,1990-10-14 15:00,ZBAA 141500Z AUTO 20006KT 7SM 17/06 RMK SLP220 T01710055 52004 IEM_DS3505
ZBAA,1990-10-14 18:00,ZBAA 141800Z AUTO 16002KT 7SM 14/08 RMK SLP225 T01400077 40251//// 52005 IEM_DS3505
ZBAA,1990-10-14 20:00,ZBAA 142000Z AUTO 00000KT 7SM 11/07 A3015 RMK T01100070 IEM_DS3505
ZBAA,1990-10-14 21:00,ZBAA 142100Z AUTO 02004KT 9SM 12/07 RMK SLP224 T01220072 57001 IEM_DS3505
ZBAA,1990-10-14 22:00,ZBAA 142200Z AUTO 00000KT 7SM 10/07 A3018 RMK T01000070 IEM_DS3505
ZBAA,1990-10-14 23:00,ZBAA 142300Z AUTO 00000KT 7SM 11/08 A3018 RMK T01100080 IEM_DS3505
ZBAA,1990-10-15 00:00,ZBAA 150000Z AUTO 04002KT 5SM 14/08 A3018 RMK SLP229 T01430076 52004 IEM_DS3505
ZBAA,1990-10-15 01:00,ZBAA 150100Z AUTO ////04KT 6SM 16/08 A3018 RMK T01600080 IEM_DS3505
ZBAA,1990-10-15 02:00,ZBAA 150200Z AUTO ////02KT 6SM 18/08 A3018 RMK T01800080 IEM_DS3505
ZBAA,1990-10-15 03:00,ZBAA 150300Z AUTO 09002KT 4SM 20/07 A3015 RMK SLP221 T01950074 57007 IEM_DS3505
ZBAA,1990-10-15 04:00,ZBAA 150400Z AUTO 00000KT 7SM 22/07 A3015 RMK T02200070 IEM_DS3505
ZBAA,1990-10-15 05:00,ZBAA 150500Z AUTO ////02KT 6SM 24/08 A3009 RMK T02400080 IEM_DS3505
ZBAA,1990-10-15 06:00,ZBAA 150600Z AUTO 22004KT 4SM 24/08 A3006 RMK SLP192 T02450075 4////0114 57029 IEM_DS3505
ZBAA,1990-10-15 07:00,ZBAA 150700Z AUTO ////04KT 7SM 26/07 A3003 RMK T02600070 IEM_DS3505
ZBAA,1990-10-15 08:00,ZBAA 150800Z AUTO ////04KT 7SM 21/11 A3006 RMK T02100110 IEM_DS3505
ZBAA,1990-10-15 09:00,ZBAA 150900Z AUTO 00000KT 6SM 21/11 A3003 RMK SLP188 T02090107 57005 IEM_DS3505
ZBAA,1990-10-15 10:00,ZBAA 151000Z AUTO 22002KT 6SM 19/08 A3003 RMK T01900080 IEM_DS3505
ZBAA,1990-10-15 11:00,ZBAA 151100Z AUTO 00000KT 6SM 17/08 A3006 RMK T01700080 IEM_DS3505
ZBAA,1990-10-15 12:00,ZBAA 151200Z AUTO 00000KT 6SM 16/10 A3006 RMK SLP191 T01580099 52003 IEM_DS3505
ZBAA,1990-10-15 13:00,ZBAA 151300Z AUTO 25002KT 5SM 16/09 A3006 RMK T01600090 IEM_DS3505
ZBAA,1990-10-15 15:00,ZBAA 151500Z AUTO 07002KT 6SM 13/09 A3006 RMK SLP196 T01270089 52005 IEM_DS3505
ZBAA,1990-10-15 18:00,ZBAA 151800Z AUTO 02004KT 9SM 15/05 RMK SLP198 T01520053 40247//// 52003 IEM_DS3505
ZBAA,1990-10-15 20:00,ZBAA 152000Z AUTO 28002KT 7SM 11/07 A3009 RMK T01100070 IEM_DS3505
ZBAA,1990-10-15 21:00,ZBAA 152100Z AUTO 02006KT 9SM 16/04 A3012 RMK SLP205 T01640042 52007 IEM_DS3505
ZBAA,1990-10-15 22:00,ZBAA 152200Z AUTO 01002KT 7SM 11/05 A3012 RMK T01100050 IEM_DS3505
ZBAA,1990-10-15 23:00,ZBAA 152300Z AUTO 00000KT 7SM 13/04 A3015 RMK T01300040 IEM_DS3505
ZBAA,1990-10-16 00:00,ZBAA 160000Z AUTO 07004KT 17SM 17/01 A3018 RMK SLP226 T01700014 52020 IEM_DS3505
ZBAA,1990-10-16 01:00,ZBAA 160100Z AUTO ////02KT 7SM 19/05 A3018 RMK T01900050 IEM_DS3505
ZBAA,1990-10-16 02:00,ZBAA 160200Z AUTO ////04KT 7SM 21/01 A3018 RMK T02100010 IEM_DS3505
ZBAA,1990-10-16 03:00,ZBAA 160300Z AUTO 02004KT 19SM 23/01 A3018 RMK SLP227 T02260009 52001 IEM_DS3505
ZBAA,1990-10-16 04:00,ZBAA 160400Z AUTO ////02KT 7SM 23/02 A3015 RMK T02300020 IEM_DS3505
ZBAA,1990-10-16 05:00,ZBAA 160500Z AUTO ////02KT 7SM 24/02 A3012 RMK T02400020 IEM_DS3505
ZBAA,1990-10-16 06:00,ZBAA 160600Z AUTO 14004KT 19SM 24/02 A3009 RMK SLP198 T02450022 4////0114 57028 IEM_DS3505
ZBAA,1990-10-16 07:00,ZBAA 160700Z AUTO ////04KT 7SM 25/02 A3006 RMK T02500020 IEM_DS3505
ZBAA,1990-10-16 08:00,ZBAA 160800Z AUTO ////04KT 7SM 24/01 A3006 RMK T02400010 IEM_DS3505
ZBAA,1990-10-16 09:00,ZBAA 160900Z AUTO 18004KT 12SM 23/03 A3006 RMK SLP190 T02290026 57008 IEM_DS3505
ZBAA,1990-10-16 10:00,ZBAA 161000Z AUTO 19002KT 7SM 19/05 A3006 RMK T01900050 IEM_DS3505
ZBAA,1990-10-16 11:00,ZBAA 161100Z AUTO 19002KT 7SM 18/04 A3009 RMK T01800040 IEM_DS3505
ZBAA,1990-10-16 12:00,ZBAA 161200Z AUTO 18002KT 12SM 16/07 A3009 RMK SLP205 T01570070 52014 IEM_DS3505
ZBAA,1990-10-16 13:00,ZBAA 161300Z AUTO 06002KT 7SM 16/07 A3012 RMK T01600070 IEM_DS3505
ZBAA,1990-10-16 14:00,ZBAA 161400Z AUTO ////06KT 7SM 15/09 A3015 RMK T01500090 IEM_DS3505
ZBAA,1990-10-16 15:00,ZBAA 161500Z AUTO 07002KT 12SM 16/05 A3018 RMK SLP225 T01550052 52021 IEM_DS3505
ZBAA,1990-10-16 18:00,ZBAA 161800Z AUTO 36004KT 9SM 13/09 RMK SLP251 T01260092 40255//// 52026 IEM_DS3505
ZBAA,1990-10-16 20:00,ZBAA 162000Z AUTO 29002KT 6SM 12/09 A3027 RMK T01200090 IEM_DS3505
ZBAA,1990-10-16 21:00,ZBAA 162100Z AUTO 00000KT 9SM 13/09 A3027 RMK SLP261 T01280086 52009 IEM_DS3505
ZBAA,1990-10-16 22:00,ZBAA 162200Z AUTO 00000KT 7SM 13/10 A3030 RMK T01300100 IEM_DS3505
ZBAA,1990-10-16 23:00,ZBAA 162300Z AUTO 00000KT 7SM 14/09 A3033 RMK T01400090 IEM_DS3505
ZBAA,1990-10-17 00:00,ZBAA 170000Z AUTO 00000KT 4SM 14/10 A3033 RMK SLP281 T01380095 52019 IEM_DS3505
ZBAA,1990-10-17 01:00,ZBAA 170100Z AUTO ////02KT 6SM 17/04 A3036 RMK T01700040 IEM_DS3505
ZBAA,1990-10-17 02:00,ZBAA 170200Z AUTO ////02KT 6SM 18/00 A3036 RMK T01800000 IEM_DS3505
ZBAA,1990-10-17 03:00,ZBAA 170300Z AUTO 00000KT 5SM 18/07 A3033 RMK SLP281 T01810074 52001 IEM_DS3505
ZBAA,1990-10-17 04:00,ZBAA 170400Z AUTO 00000KT 7SM 19/04 A3033 RMK T01900040 IEM_DS3505
ZBAA,1990-10-17 05:00,ZBAA 170500Z AUTO ////02KT 7SM 20/04 A3030 RMK T02000040 IEM_DS3505
ZBAA,1990-10-17 06:00,ZBAA 170600Z AUTO 22004KT 6SM 20/07 A3027 RMK SLP257 T02030072 4////0118 57024 IEM_DS3505
ZBAA,1990-10-17 07:00,ZBAA 170700Z AUTO ////02KT 7SM 20/01 A3027 RMK T02000010 IEM_DS3505
ZBAA,1990-10-17 08:00,ZBAA 170800Z AUTO ////02KT 7SM 20/02 A3024 RMK T02000020 IEM_DS3505
ZBAA,1990-10-17 09:00,ZBAA 170900Z AUTO 16004KT 6SM 19/01 A3024 RMK SLP250 T01890010 57002 IEM_DS3505
ZBAA,1990-10-17 10:00,ZBAA 171000Z AUTO 19002KT 7SM 16/06 A3027 RMK T01600060 IEM_DS3505
ZBAA,1990-10-17 11:00,ZBAA 171100Z AUTO 18002KT 7SM 16/06 A3027 RMK T01600060 IEM_DS3505
ZBAA,1990-10-17 12:00,ZBAA 171200Z AUTO 22002KT 6SM 16/08 A3027 RMK SLP263 T01580083 52008 IEM_DS3505
ZBAA,1990-10-17 13:00,ZBAA 171300Z AUTO 19002KT 7SM 14/06 A3030 RMK T01400060 IEM_DS3505
ZBAA,1990-10-17 14:00,ZBAA 171400Z AUTO 5SM 11/08 RMK T01100081 40208//// IEM_DS3505
ZBAA,1990-10-17 15:00,ZBAA 171500Z AUTO 20002KT 6SM 14/08 A3030 RMK SLP265 T01390083 52002 IEM_DS3505
ZBAA,1990-10-17 16:00,ZBAA 171600Z AUTO 18002KT 7SM 13/07 A3030 RMK T01300070 IEM_DS3505
ZBAA,1990-10-17 18:00,ZBAA 171800Z AUTO 00000KT 5SM 11/08 RMK SLP266 T01100081 40208//// 52001 IEM_DS3505
ZBAA,1990-10-17 20:00,ZBAA 172000Z AUTO 05002KT 7SM 09/06 A3027 RMK T00900060 IEM_DS3505
ZBAA,1990-10-17 21:00,ZBAA 172100Z AUTO 00000KT 3SM 08/06 A3027 RMK SLP263 T00800060 57003 IEM_DS3505
ZBAA,1990-10-17 22:00,ZBAA 172200Z AUTO 00000KT 7SM 08/06 A3027 RMK T00800060 IEM_DS3505
ZBAA,1990-10-18 00:00,ZBAA 180000Z AUTO 36002KT 4SM 10/07 RMK SLP268 T01050071 52005 IEM_DS3505
ZBAA,1990-10-18 01:00,ZBAA 180100Z AUTO ////02KT 7SM 13/07 A3030 RMK T01300070 IEM_DS3505
ZBAA,1990-10-18 02:00,ZBAA 180200Z AUTO ////02KT 7SM 15/07 A3027 RMK T01500070 IEM_DS3505
ZBAA,1990-10-18 03:00,ZBAA 180300Z AUTO 04002KT 3SM 17/08 A3027 RMK SLP258 T01660076 57009 IEM_DS3505
ZBAA,1990-10-18 04:00,ZBAA 180400Z AUTO 14002KT 7SM 19/08 A3024 RMK T01900080 IEM_DS3505
ZBAA,1990-10-18 05:00,ZBAA 180500Z AUTO ////02KT 7SM 20/08 A3018 RMK T02000080 IEM_DS3505
ZBAA,1990-10-18 06:00,ZBAA 180600Z AUTO 20004KT 4SM 20/08 A3015 RMK SLP223 T02020081 57035 IEM_DS3505
ZBAA,1990-10-18 07:00,ZBAA 180700Z AUTO ////02KT 7SM 20/08 A3012 RMK T02000080 IEM_DS3505
ZBAA,1990-10-18 08:00,ZBAA 180800Z AUTO ////04KT 7SM 20/07 A3012 RMK T02000070 IEM_DS3505
ZBAA,1990-10-18 09:00,ZBAA 180900Z AUTO 20004KT 8SM 20/07 A3012 RMK SLP210 T01970074 57013 IEM_DS3505
ZBAA,1990-10-18 10:00,ZBAA 181000Z AUTO 00000KT 7SM 16/08 A3012 RMK T01600080 IEM_DS3505
ZBAA,1990-10-18 11:00,ZBAA 181100Z AUTO 15002KT 7SM 17/07 A3012 RMK T01700070 IEM_DS3505
ZBAA,1990-10-18 12:00,ZBAA 181200Z AUTO 20004KT 12SM 16/07 A3012 RMK SLP212 T01650068 52002 IEM_DS3505
ZBAA,1990-10-18 13:00,ZBAA 181300Z AUTO 09002KT 7SM 13/08 A3012 RMK T01300080 IEM_DS3505
ZBAA,1990-10-18 14:00,ZBAA 181400Z AUTO 05002KT 7SM 12/08 A3012 RMK T01200080 IEM_DS3505
ZBAA,1990-10-18 15:00,ZBAA 181500Z AUTO 00000KT 7SM 12/08 A3012 RMK SLP211 T01190080 57001 IEM_DS3505
ZBAA,1990-10-18 18:00,ZBAA 181800Z AUTO 02004KT 6SM 12/08 RMK SLP206 T01230080 40208//// 57005 IEM_DS3505
ZBAA,1990-10-18 21:00,ZBAA 182100Z AUTO 04002KT 4SM 10/08 A3009 RMK SLP199 T00990076 57007 IEM_DS3505
ZBAA,1990-10-18 22:00,ZBAA 182200Z AUTO ////02KT 7SM 09/09 A3009 RMK T00900090 IEM_DS3505
ZBAA,1990-10-18 23:00,ZBAA 182300Z AUTO 00000KT 5SM 09/07 A3009 RMK T00900070 IEM_DS3505
ZBAA,1990-10-19 00:00,ZBAA 190000Z AUTO 04002KT 3SM 12/08 A3009 RMK T01210076 52002 IEM_DS3505
ZBAA,1990-10-19 01:00,ZBAA 190100Z AUTO 03002KT 7SM 14/09 A3009 RMK T01400090 IEM_DS3505
ZBAA,1990-10-19 02:00,ZBAA 190200Z AUTO ////02KT 7SM 16/09 A3006 RMK T01600090 IEM_DS3505
ZBAA,1990-10-19 03:00,ZBAA 190300Z AUTO 04004KT 4SM 17/08 A3006 RMK SLP195 T01740082 57006 IEM_DS3505
ZBAA,1990-10-19 04:00,ZBAA 190400Z AUTO 00000KT 7SM 20/09 A3003 RMK T02000090 IEM_DS3505
ZBAA,1990-10-19 05:00,ZBAA 190500Z AUTO ////02KT 7SM 20/08 A3003 RMK T02000080 IEM_DS3505
ZBAA,1990-10-19 06:00,ZBAA 190600Z AUTO 02002KT 4SM 21/08 A2997 RMK SLP169 T02090076 4////0088 57025 IEM_DS3505
ZBAA,1990-10-19 07:00,ZBAA 190700Z AUTO 00000KT 7SM 22/08 A2997 RMK T02200080 IEM_DS3505
ZBAA,1990-10-19 08:00,ZBAA 190800Z AUTO 13002KT 7SM 21/07 A2997 RMK T02100070 IEM_DS3505
ZBAA,1990-10-19 09:00,ZBAA 190900Z AUTO 18002KT 4SM 20/09 A2997 RMK SLP161 T02050093 57009 IEM_DS3505
ZBAA,1990-10-19 10:00,ZBAA 191000Z AUTO 00000KT 7SM 17/09 A2997 RMK T01700090 IEM_DS3505
ZBAA,1990-10-19 11:00,ZBAA 191100Z AUTO 00000KT 7SM 16/09 A3000 RMK T01600090 IEM_DS3505
ZBAA,1990-10-19 12:00,ZBAA 191200Z AUTO 00000KT 2 1/2SM 14/10 RMK SLP171 T01450103 52010 IEM_DS3505
ZBAA,1990-10-19 13:00,ZBAA 191300Z AUTO 00000KT 6SM 14/09 A3000 RMK T01400090 IEM_DS3505
ZBAA,1990-10-19 15:00,ZBAA 191500Z AUTO 00000KT 1 1/2SM 13/10 RMK SLP179 T01290102 52008 IEM_DS3505
ZBAA,1990-10-19 18:00,ZBAA 191800Z AUTO 36002KT 1 1/4SM 12/09 RMK SLP184 T01200092 40223//// 52005 IEM_DS3505
ZBAA,1990-10-19 20:00,ZBAA 192000Z AUTO 33002KT 7SM 10/08 A3003 RMK T01000080 IEM_DS3505
ZBAA,1990-10-19 21:00,ZBAA 192100Z AUTO 00000KT 2SM 12/09 A3003 RMK SLP185 T01150087 52001 IEM_DS3505
ZBAA,1990-10-19 22:00,ZBAA 192200Z AUTO 00000KT 7SM 11/08 A3006 RMK T01100080 IEM_DS3505
ZBAA,1990-10-19 23:00,ZBAA 192300Z AUTO 32002KT 4SM 11/09 A3006 RMK T01100090 IEM_DS3505
ZBAA,1990-10-20 00:00,ZBAA 200000Z AUTO 00000KT 1SM 11/10 A3009 RMK SLP197 T01100096 52012 IEM_DS3505
ZBAA,1990-10-20 01:00,ZBAA 200100Z AUTO 00000KT 1SM 11/10 A3009 RMK SLP197 T01100096 52012 IEM_DS3505
ZBAA,1990-10-20 02:00,ZBAA 200200Z AUTO ////02KT 5SM 17/09 A3009 RMK T01700090 IEM_DS3505
ZBAA,1990-10-20 03:00,ZBAA 200300Z AUTO 04002KT 4SM 19/09 A3009 RMK SLP200 T01920089 52003 IEM_DS3505
ZBAA,1990-10-20 04:00,ZBAA 200400Z AUTO 00000KT 7SM 21/09 A3009 RMK T02100090 IEM_DS3505
ZBAA,1990-10-20 05:00,ZBAA 200500Z AUTO 00000KT 7SM 22/09 A3006 RMK T02200090 IEM_DS3505
ZBAA,1990-10-20 06:00,ZBAA 200600Z AUTO 18002KT 5SM 23/ A3003 RMK SLP183 4////0096 57016 IEM_DS3505
ZBAA,1990-10-20 07:00,ZBAA 200700Z AUTO 19004KT 7SM 22/09 A3003 RMK T02200090 IEM_DS3505
ZBAA,1990-10-20 08:00,ZBAA 200800Z AUTO 19004KT 7SM 22/09 A3003 RMK T02200090 IEM_DS3505
ZBAA,1990-10-20 09:00,ZBAA 200900Z AUTO 00000KT 4SM 21/10 A3006 RMK SLP191 T02130096 52007 IEM_DS3505
ZBAA,1990-10-20 10:00,ZBAA 201000Z AUTO 17002KT 4SM 18/10 A3006 RMK T01800100 IEM_DS3505
ZBAA,1990-10-20 11:00,ZBAA 201100Z AUTO 00000KT 4SM 17/10 A3009 RMK T01700100 IEM_DS3505
ZBAA,1990-10-20 12:00,ZBAA 201200Z AUTO 00000KT 1 1/4SM 15/11 A3012 RMK T01510114 52019 IEM_DS3505
ZBAA,1990-10-20 13:00,ZBAA 201300Z AUTO 00000KT 4SM 14/11 A3015 RMK T01400110 IEM_DS3505
ZBAA,1990-10-20 14:00,ZBAA 201400Z AUTO 04002KT 4SM 14/11 A3015 RMK T01400110 IEM_DS3505
ZBAA,1990-10-20 15:00,ZBAA 201500Z AUTO 04004KT 3SM 14/11 A3015 RMK SLP224 T01390107 52014 IEM_DS3505
ZBAA,1990-10-20 16:00,ZBAA 201600Z AUTO 05002KT 4SM 13/10 A3015 RMK T01300100 IEM_DS3505
ZBAA,1990-10-20 18:00,ZBAA 201800Z AUTO 04002KT 3SM 13/10 RMK SLP229 T01270100 40235//// 52006 IEM_DS3505
ZBAA,1990-10-20 20:00,ZBAA 202000Z AUTO 08002KT 4SM 12/09 A3018 RMK T01200090 IEM_DS3505
ZBAA,1990-10-20 21:00,ZBAA 202100Z AUTO 00000KT 2 1/2SM 11/09 A3018 RMK SLP232 T01090091 52002 IEM_DS3505
ZBAA,1990-10-20 22:00,ZBAA 202200Z AUTO 00000KT 4SM 11/08 A3021 RMK T01100080 IEM_DS3505
ZBAA,1990-10-20 23:00,ZBAA 202300Z AUTO 00000KT 5SM 11/09 A3021 RMK T01100090 IEM_DS3505
ZBAA,1990-10-21 00:00,ZBAA 210000Z AUTO 00000KT 2SM 12/07 A3024 RMK SLP291 T01170070 52018 IEM_DS3505
ZBAA,1990-10-21 01:00,ZBAA 210100Z AUTO 05002KT 5SM 15/10 A3024 RMK T01500100 IEM_DS3505
ZBAA,1990-10-21 02:00,ZBAA 210200Z AUTO ////04KT 5SM 18/10 A3024 RMK T01800100 IEM_DS3505
ZBAA,1990-10-21 03:00,ZBAA 210300Z AUTO 36004KT 2SM 17/11 A3021 RMK SLP245 T01720109 57005 IEM_DS3505
ZBAA,1990-10-21 04:00,ZBAA 210400Z AUTO ////04KT 4SM 20/12 A3021 RMK T02000120 IEM_DS3505
ZBAA,1990-10-21 05:00,ZBAA 210500Z AUTO ////04KT 4SM 21/12 A3018 RMK T02100120 IEM_DS3505
ZBAA,1990-10-21 06:00,ZBAA 210600Z AUTO 14004KT 2SM 20/11 A3018 RMK SLP230 T02050113 4////0099 57015 IEM_DS3505
ZBAA,1990-10-21 07:00,ZBAA 210700Z AUTO ////04KT 3SM 21/11 A3015 RMK T02100110 IEM_DS3505
ZBAA,1990-10-21 08:00,ZBAA 210800Z AUTO ////04KT 3SM 21/11 A3015 RMK T02100110 IEM_DS3505
ZBAA,1990-10-21 09:00,ZBAA 210900Z AUTO 20002KT 2 1/2SM 20/11 A3015 RMK SLP223 T02030110 57007 IEM_DS3505
ZBAA,1990-10-21 10:00,ZBAA 211000Z AUTO ////04KT 2 1/2SM 18/12 A3015 RMK T01800120 IEM_DS3505
ZBAA,1990-10-21 11:00,ZBAA 211100Z AUTO 12004KT 2 1/2SM 17/12 A3018 RMK T01700120 IEM_DS3505
ZBAA,1990-10-21 12:00,ZBAA 211200Z AUTO 14004KT 2SM 18/13 A3018 RMK SLP227 T01780132 IEM_DS3505
ZBAA,1990-10-21 13:00,ZBAA 211300Z AUTO ////06KT 3SM 16/13 A3018 RMK T01600130 IEM_DS3505
ZBAA,1990-10-21 14:00,ZBAA 211400Z AUTO ////04KT 2 1/2SM 16/14 A3018 RMK T01600140 IEM_DS3505
ZBAA,1990-10-21 15:00,ZBAA 211500Z AUTO 16002KT 1 1/4SM 16/15 A3018 RMK SLP230 T01630146 52003 IEM_DS3505
ZBAA,1990-10-21 18:00,ZBAA 211800Z AUTO 00000KT 1SM 16/14 RMK SLP228 T01610144 40211//// 57001 IEM_DS3505
ZBAA,1990-10-21 20:00,ZBAA 212000Z AUTO ////02KT 2 1/2SM 15/13 A3015 RMK T01500130 IEM_DS3505
ZBAA,1990-10-21 21:00,ZBAA 212100Z AUTO 07002KT 1SM 15/14 A3015 RMK SLP217 T01510139 57011 IEM_DS3505
ZBAA,1990-10-21 22:00,ZBAA 212200Z AUTO ////04KT 2 1/2SM 15/13 A3012 RMK T01500130 IEM_DS3505
ZBAA,1990-10-21 23:00,ZBAA 212300Z AUTO ////04KT 2 1/2SM 15/13 A3012 RMK T01500130 IEM_DS3505
ZBAA,1990-10-22 00:00,ZBAA 220000Z AUTO 00000KT 1SM 15/14 A3015 RMK SLP221 T01500139 52003 IEM_DS3505
ZBAA,1990-10-22 01:00,ZBAA 220100Z AUTO ////02KT 1SM 15/13 A3015 RMK T01500130 IEM_DS3505
ZBAA,1990-10-22 02:00,ZBAA 220200Z AUTO 14002KT 1SM 15/14 A3015 RMK T01500140 IEM_DS3505
ZBAA,1990-10-22 03:00,ZBAA 220300Z AUTO 09002KT 1SM 16/14 A3015 RMK SLP218 T01570139 57003 IEM_DS3505
ZBAA,1990-10-22 04:00,ZBAA 220400Z AUTO 06002KT 1SM 15/14 A3012 RMK T01500140 IEM_DS3505
ZBAA,1990-10-22 05:00,ZBAA 220500Z AUTO ////02KT 1SM 17/14 A3009 RMK T01700140 IEM_DS3505
ZBAA,1990-10-22 06:00,ZBAA 220600Z AUTO 07002KT 2SM 18/13 A3009 RMK SLP200 T01760132 4////0145 57018 IEM_DS3505
ZBAA,1990-10-22 07:00,ZBAA 220700Z AUTO ////04KT 1 1/2SM 18/14 A3009 RMK T01800140 IEM_DS3505
ZBAA,1990-10-22 08:00,ZBAA 220800Z AUTO ////04KT 1 1/2SM 18/14 A3009 RMK T01800140 IEM_DS3505
ZBAA,1990-10-22 09:00,ZBAA 220900Z AUTO 07002KT 1 1/2SM 17/14 A3009 RMK SLP198 T01690135 57002 IEM_DS3505
ZBAA,1990-10-22 10:00,ZBAA 221000Z AUTO 00000KT 1 1/4SM 16/14 A3009 RMK T01600140 IEM_DS3505
ZBAA,1990-10-22 11:00,ZBAA 221100Z AUTO 00000KT 1 1/4SM 15/13 A3012 RMK T01500130 IEM_DS3505
ZBAA,1990-10-22 12:00,ZBAA 221200Z AUTO 00000KT 1 1/4SM 15/14 A3012 RMK SLP210 T01530135 52012 IEM_DS3505
ZBAA,1990-10-22 13:00,ZBAA 221300Z AUTO 33002KT 1SM 14/13 A3012 RMK T01400130 IEM_DS3505
ZBAA,1990-10-22 14:00,ZBAA 221400Z AUTO 00000KT 1SM 14/13 A3015 RMK T01400130 IEM_DS3505
ZBAA,1990-10-22 15:00,ZBAA 221500Z AUTO 00000KT 3/8SM 14/13 RMK SLP218 T01390128 52008 IEM_DS3505
ZBAA,1990-10-22 18:00,ZBAA 221800Z AUTO 04002KT 1/2SM 13/12 RMK SLP218 T01320123 40178//// 54000 IEM_DS3505
ZBAA,1990-10-22 20:00,ZBAA 222000Z AUTO 33004KT 1SM 12/11 A3015 RMK T01200110 IEM_DS3505
ZBAA,1990-10-22 21:00,ZBAA 222100Z AUTO 04004KT 1SM 12/11 A3012 RMK SLP214 T01200108 57004 IEM_DS3505
ZBAA,1990-10-22 22:00,ZBAA 222200Z AUTO 34002KT 1SM 10/09 A3012 RMK T01000090 IEM_DS3505
ZBAA,1990-10-22 23:00,ZBAA 222300Z AUTO ////02KT 1SM 12/10 A3015 RMK T01200100 IEM_DS3505
ZBAA,1990-10-23 00:00,ZBAA 230000Z AUTO 04002KT 1SM 11/10 A3015 RMK SLP223 T01090101 52008 IEM_DS3505
ZBAA,1990-10-23 01:00,ZBAA 230100Z AUTO ////02KT 1SM 14/12 A3015 RMK T01400120 IEM_DS3505
ZBAA,1990-10-23 02:00,ZBAA 230200Z AUTO ////02KT 3SM 16/12 A3015 RMK T01600120 IEM_DS3505
ZBAA,1990-10-23 03:00,ZBAA 230300Z AUTO 00000KT 2SM 17/11 A3015 RMK SLP225 T01670111 52003 IEM_DS3505
ZBAA,1990-10-23 04:00,ZBAA 230400Z AUTO ////02KT 5SM 19/11 A3012 RMK T01900110 IEM_DS3505
ZBAA,1990-10-23 05:00,ZBAA 230500Z AUTO ////02KT 5SM 20/10 A3012 RMK T02000100 IEM_DS3505
ZBAA,1990-10-23 06:00,ZBAA 230600Z AUTO 32002KT 6SM 20/10 A3009 RMK SLP203 T01990099 4////0091 57022 IEM_DS3505
ZBAA,1990-10-23 07:00,ZBAA 230700Z AUTO 6SM 21/ A3009 RMK IEM_DS3505
ZBAA,1990-10-23 08:00,ZBAA 230800Z AUTO 00000KT 6SM 21/09 A3006 RMK T02100090 IEM_DS3505
ZBAA,1990-10-23 09:00,ZBAA 230900Z AUTO 00000KT 3SM 18/10 A3009 RMK SLP204 T01850105 52001 IEM_DS3505
ZBAA,1990-10-23 10:00,ZBAA 231000Z AUTO 00000KT 6SM 17/10 A3009 RMK T01700100 IEM_DS3505
ZBAA,1990-10-23 11:00,ZBAA 231100Z AUTO 31002KT 6SM 17/08 A3012 RMK T01700080 IEM_DS3505
ZBAA,1990-10-23 12:00,ZBAA 231200Z AUTO 32008KT 6SM 18/02 A3015 RMK SLP223 T01780025 52019 IEM_DS3505
ZBAA,1990-10-23 13:00,ZBAA 231300Z AUTO 31010G19KT 6SM 18/01 A3018 RMK T01800010 IEM_DS3505
ZBAA,1990-10-23 14:00,ZBAA 231400Z AUTO 31008KT 6SM 17/00 A3024 RMK T01700000 IEM_DS3505
ZBAA,1990-10-23 15:00,ZBAA 231500Z AUTO 34008KT 7SM 15/02 A3024 RMK SLP256 T01500021 52033 IEM_DS3505
ZBAA,1990-10-23 16:00,ZBAA 231600Z AUTO 31008KT 6SM 15/M01 A3024 RMK T01501010 IEM_DS3505
ZBAA,1990-10-23 17:00,ZBAA 231700Z AUTO 32010KT 6SM 15/M02 A3024 RMK T01501020 IEM_DS3505
ZBAA,1990-10-23 18:00,ZBAA 231800Z AUTO 36008KT 9SM 14/M02 RMK SLP258 T01371015 40208//// 52002 IEM_DS3505
ZBAA,1990-10-23 20:00,ZBAA 232000Z AUTO 33008KT 6SM 13/M04 A3030 RMK T01301040 IEM_DS3505
ZBAA,1990-10-23 21:00,ZBAA 232100Z AUTO 36012KT 11SM 12/M07 A3030 RMK SLP267 T01211068 52009 IEM_DS3505
ZBAA,1990-10-23 22:00,ZBAA 232200Z AUTO ////04KT 6SM 12/M04 A3030 RMK T01201040 IEM_DS3505
ZBAA,1990-10-23 23:00,ZBAA 232300Z AUTO ////04KT 6SM 12/M05 A3033 RMK T01201050 IEM_DS3505
ZBAA,1990-10-24 00:00,ZBAA 240000Z AUTO 36008KT 16SM 11/M08 A3033 RMK SLP280 T01121078 52012 IEM_DS3505
ZBAA,1990-10-24 01:00,ZBAA 240100Z AUTO ////06KT 6SM 12/M07 A3036 RMK T01201070 IEM_DS3505
ZBAA,1990-10-24 02:00,ZBAA 240200Z AUTO ////06KT 6SM 13/M08 A3036 RMK T01301080 IEM_DS3505
ZBAA,1990-10-24 03:00,ZBAA 240300Z AUTO 36014KT 19SM 12/M10 A3036 RMK SLP290 T01181098 52010 IEM_DS3505
ZBAA,1990-10-24 04:00,ZBAA 240400Z AUTO ////04KT 6SM 13/M08 A3036 RMK T01301080 IEM_DS3505
ZBAA,1990-10-24 05:00,ZBAA 240500Z AUTO 6SM 14/M08 A3033 RMK T01401080 IEM_DS3505
ZBAA,1990-10-24 06:00,ZBAA 240600Z AUTO 36008KT 19SM 15/M07 A3027 RMK SLP264 T01501070 57025 IEM_DS3505
ZBAA,1990-10-24 07:00,ZBAA 240700Z AUTO ////04KT 7SM 15/M08 A3027 RMK T01501080 IEM_DS3505
ZBAA,1990-10-24 08:00,ZBAA 240800Z AUTO ////04KT 7SM 14/M07 A3024 RMK T01401070 IEM_DS3505
ZBAA,1990-10-24 09:00,ZBAA 240900Z AUTO 27004KT 19SM 15/M07 A3024 RMK SLP248 T01501067 57017 IEM_DS3505
ZBAA,1990-10-24 10:00,ZBAA 241000Z AUTO ////04KT 7SM 12/M05 A3021 RMK T01201050 IEM_DS3505
ZBAA,1990-10-24 11:00,ZBAA 241100Z AUTO 15004KT 7SM 11/M05 A3024 RMK T01101050 IEM_DS3505
ZBAA,1990-10-24 12:00,ZBAA 241200Z AUTO 20006KT 19SM 11/M04 A3021 RMK SLP246 T01121040 57002 IEM_DS3505
ZBAA,1990-10-24 13:00,ZBAA 241300Z AUTO 00000KT 7SM 07/M03 A3021 RMK T00701030 IEM_DS3505
ZBAA,1990-10-24 14:00,ZBAA 241400Z AUTO 00000KT 7SM 07/M02 A3021 RMK T00701020 IEM_DS3505
ZBAA,1990-10-24 15:00,ZBAA 241500Z AUTO 29002KT 19SM 08/02 RMK SLP241 T00810015 57005 IEM_DS3505
ZBAA,1990-10-24 18:00,ZBAA 241800Z AUTO 22002KT 7SM 05/02 RMK SLP230 T00490016 40162//// 57011 IEM_DS3505
ZBAA,1990-10-24 20:00,ZBAA 242000Z AUTO 00000KT 7SM 04/M01 A3012 RMK T00401010 IEM_DS3505
ZBAA,1990-10-24 21:00,ZBAA 242100Z AUTO 00000KT 5SM 04/02 A3012 RMK SLP217 T00430015 57013 IEM_DS3505
ZBAA,1990-10-24 22:00,ZBAA 242200Z AUTO 00000KT 7SM 03/00 A3012 RMK T00300000 IEM_DS3505
ZBAA,1990-10-24 23:00,ZBAA 242300Z AUTO 00000KT 6SM 04/00 A3012 RMK T00400000 IEM_DS3505
ZBAA,1990-10-25 00:00,ZBAA 250000Z AUTO 18002KT 5SM 08/04 A3015 RMK SLP218 T00810037 52001 IEM_DS3505
ZBAA,1990-10-25 01:00,ZBAA 250100Z AUTO 34006KT 19SM A3015 RMK SLP190 4////0037 52010 IEM_DS3505
ZBAA,1990-10-25 02:00,ZBAA 250200Z AUTO ////04KT 7SM 16/01 A3012 RMK T01600010 IEM_DS3505
ZBAA,1990-10-25 03:00,ZBAA 250300Z AUTO 00000KT 19SM 18/M02 A3012 RMK SLP209 T01831020 57008 IEM_DS3505
ZBAA,1990-10-25 04:00,ZBAA 250400Z AUTO 30008KT 7SM 20/M05 A3009 RMK T02001050 IEM_DS3505
ZBAA,1990-10-25 05:00,ZBAA 250500Z AUTO 29008KT 7SM 21/M05 A3006 RMK T02101050 IEM_DS3505
ZBAA,1990-10-25 06:00,ZBAA 250600Z AUTO 34006KT 19SM 21/M06 A3003 RMK SLP189 T02081060 4////0037 57020 IEM_DS3505
ZBAA,1990-10-25 06:06,ZBAA 250606Z AUTO 30006KT 7SM RMK IEM_DS3505
ZBAA,1990-10-25 07:00,ZBAA 250700Z AUTO 29006KT 7SM 21/M05 A3003 RMK T02101050 IEM_DS3505
ZBAA,1990-10-25 08:00,ZBAA 250800Z AUTO ////02KT 7SM 21/M03 A3003 RMK T02101030 IEM_DS3505
ZBAA,1990-10-25 09:00,ZBAA 250900Z AUTO 32004KT 19SM 20/M03 A3003 RMK SLP187 T02031028 57002 IEM_DS3505
ZBAA,1990-10-25 10:00,ZBAA 251000Z AUTO 00000KT 7SM 15/M01 A3006 RMK T01501010 IEM_DS3505
ZBAA,1990-10-25 11:00,ZBAA 251100Z AUTO ////04KT 7SM 15/M02 A3009 RMK T01501020 IEM_DS3505
ZBAA,1990-10-25 12:00,ZBAA 251200Z AUTO 04002KT 19SM 13/03 A3012 RMK SLP210 T01280028 52022 IEM_DS3505
ZBAA,1990-10-25 13:00,ZBAA 251300Z AUTO 34002KT 7SM 11/00 A3015 RMK T01100000 IEM_DS3505
ZBAA,1990-10-25 14:00,ZBAA 251400Z AUTO 00000KT 7SM 10/00 A3015 RMK T01000000 IEM_DS3505
ZBAA,1990-10-25 15:00,ZBAA 251500Z AUTO 00000KT 19SM 09/04 A3018 RMK SLP226 T00900042 52017 IEM_DS3505
ZBAA,1990-10-25 18:00,ZBAA 251800Z AUTO 27002KT 12SM 07/03 RMK SLP238 T00740034 40216//// 52012 IEM_DS3505
ZBAA,1990-10-25 20:00,ZBAA 252000Z AUTO 00000KT 7SM 07/00 A3021 RMK T00700000 IEM_DS3505
ZBAA,1990-10-25 21:00,ZBAA 252100Z AUTO 00000KT 12SM 07/02 A3021 RMK SLP242 T00680019 52003 IEM_DS3505
ZBAA,1990-10-25 22:00,ZBAA 252200Z AUTO 00000KT 7SM 06/00 A3024 RMK T00600000 IEM_DS3505
ZBAA,1990-10-25 23:00,ZBAA 252300Z AUTO 00000KT 7SM 06/00 A3024 RMK T00600000 IEM_DS3505
ZBAA,1990-10-26 00:00,ZBAA 260000Z AUTO 00000KT 6SM 09/01 A3027 RMK SLP256 T00900010 52014 IEM_DS3505
ZBAA,1990-10-26 01:00,ZBAA 260100Z AUTO ////02KT 7SM 13/02 A3027 RMK T01300020 IEM_DS3505
ZBAA,1990-10-26 02:00,ZBAA 260200Z AUTO ////02KT 7SM 16/02 A3027 RMK T01600020 IEM_DS3505
ZBAA,1990-10-26 03:00,ZBAA 260300Z AUTO 00000KT 6SM 17/02 A3024 RMK SLP256 T01670022 54000 IEM_DS3505
ZBAA,1990-10-26 04:00,ZBAA 260400Z AUTO ////02KT 7SM 19/M01 A3021 RMK T01901010 IEM_DS3505
ZBAA,1990-10-26 05:00,ZBAA 260500Z AUTO ////04KT 7SM 20/00 A3018 RMK T02000000 IEM_DS3505
ZBAA,1990-10-26 06:00,ZBAA 260600Z AUTO ////02KT 6SM 19/00 A3015 RMK SLP227 T01920005 4////0049 57029 IEM_DS3505
ZBAA,1990-10-26 07:00,ZBAA 260700Z AUTO ////04KT 7SM 19/M01 A3015 RMK T01901010 IEM_DS3505
ZBAA,1990-10-26 08:00,ZBAA 260800Z AUTO ////02KT 7SM 19/M01 A3015 RMK T01901010 IEM_DS3505
ZBAA,1990-10-26 09:00,ZBAA 260900Z AUTO 20004KT 6SM 18/03 A3015 RMK SLP220 T01780028 57007 IEM_DS3505
ZBAA,1990-10-26 10:00,ZBAA 261000Z AUTO 13002KT 7SM 15/01 A3015 RMK T01500010 IEM_DS3505
ZBAA,1990-10-26 11:00,ZBAA 261100Z AUTO 13002KT 7SM 12/02 A3015 RMK T01200020 IEM_DS3505
ZBAA,1990-10-26 12:00,ZBAA 261200Z AUTO 00000KT 6SM 13/05 A3015 RMK SLP225 T01260053 52005 IEM_DS3505
ZBAA,1990-10-26 13:00,ZBAA 261300Z AUTO 13002KT 7SM 13/00 A3018 RMK T01300000 IEM_DS3505
ZBAA,1990-10-26 14:00,ZBAA 261400Z AUTO 11002KT 7SM 10/01 A3018 RMK T01000010 IEM_DS3505
ZBAA,1990-10-26 15:00,ZBAA 261500Z AUTO 00000KT 4SM 09/06 A3018 RMK SLP230 T00860057 52005 IEM_DS3505
ZBAA,1990-10-26 18:00,ZBAA 261800Z AUTO 04002KT 4SM 08/04 RMK SLP230 T00750038 40193//// 54000 IEM_DS3505
ZBAA,1990-10-26 20:00,ZBAA 262000Z AUTO 32004KT 7SM 07/03 A3018 RMK T00700030 IEM_DS3505
ZBAA,1990-10-26 21:00,ZBAA 262100Z AUTO 04002KT 4SM 08/04 A3018 RMK SLP230 T00750038 54000 IEM_DS3505
ZBAA,1990-10-26 22:00,ZBAA 262200Z AUTO 00000KT 7SM 06/02 A3018 RMK T00600020 IEM_DS3505
ZBAA,1990-10-26 23:00,ZBAA 262300Z AUTO 00000KT 7SM 07/03 A3018 RMK T00700030 IEM_DS3505
ZBAA,1990-10-27 00:00,ZBAA 270000Z AUTO 00000KT 2 1/2SM 06/04 A3021 RMK SLP237 T00650042 52008 IEM_DS3505
ZBAA,1990-10-27 01:00,ZBAA 270100Z AUTO 03002KT 7SM 11/04 A3021 RMK T01100040 IEM_DS3505
ZBAA,1990-10-27 02:00,ZBAA 270200Z AUTO ////02KT 7SM 14/04 A3021 RMK T01400040 IEM_DS3505
ZBAA,1990-10-27 03:00,ZBAA 270300Z AUTO 04004KT 4SM 15/03 A3018 RMK SLP234 T01530029 57003 IEM_DS3505
ZBAA,1990-10-27 04:00,ZBAA 270400Z AUTO ////02KT 7SM 18/05 A3015 RMK T01800050 IEM_DS3505
ZBAA,1990-10-27 05:00,ZBAA 270500Z AUTO ////02KT 7SM 18/05 A3012 RMK T01800050 IEM_DS3505
ZBAA,1990-10-27 06:00,ZBAA 270600Z AUTO 20004KT 4SM 20/03 A3009 RMK SLP205 T01950028 4////0048 57028 IEM_DS3505
ZBAA,1990-10-27 07:00,ZBAA 270700Z AUTO ////02KT 7SM 19/06 A3009 RMK T01900060 IEM_DS3505
ZBAA,1990-10-27 08:00,ZBAA 270800Z AUTO ////04KT 7SM 19/04 A3009 RMK T01900040 IEM_DS3505
ZBAA,1990-10-27 09:00,ZBAA 270900Z AUTO 00000KT 4SM 18/06 A3009 RMK SLP201 T01800063 57005 IEM_DS3505
ZBAA,1990-10-27 10:00,ZBAA 271000Z AUTO 10002KT 7SM 14/05 A3009 RMK T01400050 IEM_DS3505
ZBAA,1990-10-27 11:00,ZBAA 271100Z AUTO 10002KT 7SM 13/06 A3009 RMK T01300060 IEM_DS3505
ZBAA,1990-10-27 12:00,ZBAA 271200Z AUTO 00000KT 2SM 11/07 A3009 RMK SLP205 T01110069 52004 IEM_DS3505
ZBAA,1990-10-27 13:00,ZBAA 271300Z AUTO 00000KT 7SM 10/06 A3009 RMK T01000060 IEM_DS3505
ZBAA,1990-10-27 14:00,ZBAA 271400Z AUTO 03002KT 7SM 11/06 A3012 RMK T01100060 IEM_DS3505
ZBAA,1990-10-27 15:00,ZBAA 271500Z AUTO 07002KT 1 1/4SM 09/06 A3012 RMK SLP206 T00910065 52001 IEM_DS3505
ZBAA,1990-10-27 16:00,ZBAA 271600Z AUTO 00000KT 7SM 09/06 A3009 RMK T00900060 IEM_DS3505
ZBAA,1990-10-27 17:00,ZBAA 271700Z AUTO 00000KT 7SM 09/05 A3009 RMK T00900050 IEM_DS3505
ZBAA,1990-10-27 18:00,ZBAA 271800Z AUTO 07002KT 2SM 10/05 RMK SLP202 T00970050 40199//// 57003 IEM_DS3505
ZBAA,1990-10-27 21:00,ZBAA 272100Z AUTO 00000KT 2 1/2SM 07/05 A3009 RMK SLP204 T00690048 52001 IEM_DS3505
ZBAA,1990-10-27 22:00,ZBAA 272200Z AUTO 00000KT 7SM 08/05 A3009 RMK T00800050 IEM_DS3505
ZBAA,1990-10-27 23:00,ZBAA 272300Z AUTO 00000KT 4SM 07/05 A3009 RMK T00700050 IEM_DS3505
ZBAA,1990-10-28 00:00,ZBAA 280000Z AUTO 00000KT 1 1/4SM 07/05 A3012 RMK SLP211 T00660050 52007 IEM_DS3505
ZBAA,1990-10-28 01:00,ZBAA 280100Z AUTO 00000KT 4SM 11/07 A3012 RMK T01100070 IEM_DS3505
ZBAA,1990-10-28 02:00,ZBAA 280200Z AUTO ////02KT 4SM 13/06 A3012 RMK T01300060 IEM_DS3505
ZBAA,1990-10-28 03:00,ZBAA 280300Z AUTO 02002KT 2SM 15/07 A3012 RMK SLP208 T01530070 57003 IEM_DS3505
ZBAA,1990-10-28 04:00,ZBAA 280400Z AUTO ////04KT 5SM 18/08 A3009 RMK T01800080 IEM_DS3505
ZBAA,1990-10-28 05:00,ZBAA 280500Z AUTO 18002KT 2SM 18/08 A3006 RMK SLP187 T01800080 IEM_DS3505
ZBAA,1990-10-28 06:00,ZBAA 280600Z AUTO 16004KT 2 1/2SM 19/07 A3003 RMK SLP188 T01880074 4////0056 57019 IEM_DS3505
ZBAA,1990-10-28 07:00,ZBAA 280700Z AUTO ////04KT 7SM 19/08 A3003 RMK T01900080 IEM_DS3505
ZBAA,1990-10-28 08:00,ZBAA 280800Z AUTO 16002KT 5SM 18/08 A3003 RMK T01800080 IEM_DS3505
ZBAA,1990-10-28 09:00,ZBAA 280900Z AUTO 18002KT 2SM 17/09 A3003 RMK SLP187 T01720092 57002 IEM_DS3505
ZBAA,1990-10-28 10:00,ZBAA 281000Z AUTO 00000KT 2 1/2SM 14/08 A3006 RMK T01400080 IEM_DS3505
ZBAA,1990-10-28 11:00,ZBAA 281100Z AUTO 09002KT 2SM 13/08 A3006 RMK T01300080 IEM_DS3505
ZBAA,1990-10-28 12:00,ZBAA 281200Z AUTO 00000KT 2SM 11/09 A3006 RMK SLP194 T01100086 52007 IEM_DS3505
ZBAA,1990-10-28 13:00,ZBAA 281300Z AUTO 13004KT 1 1/2SM 12/08 A3006 RMK T01200080 IEM_DS3505
ZBAA,1990-10-28 14:00,ZBAA 281400Z AUTO 12002KT 1 1/4SM 11/08 A3009 RMK T01100080 IEM_DS3505
ZBAA,1990-10-28 15:00,ZBAA 281500Z AUTO 09002KT 1 1/4SM 09/07 RMK SLP195 T00890072 52001 IEM_DS3505
ZBAA,1990-10-28 18:00,ZBAA 281800Z AUTO 04002KT 1 1/2SM 08/07 RMK SLP194 T00850070 40188//// 54000 IEM_DS3505
ZBAA,1990-10-28 21:00,ZBAA 282100Z AUTO 04004KT 1SM 08/06 A3006 RMK SLP194 T00790064 54000 IEM_DS3505
ZBAA,1990-10-28 22:00,ZBAA 282200Z AUTO 00000KT 1 1/4SM 07/06 A3006 RMK T00700060 IEM_DS3505
ZBAA,1990-10-28 23:00,ZBAA 282300Z AUTO 33002KT 1SM 07/05 A3006 RMK T00700050 IEM_DS3505
ZBAA,1990-10-29 00:00,ZBAA 290000Z AUTO 04006KT 1 1/2SM 10/07 A3009 RMK SLP199 T00950067 52004 IEM_DS3505
ZBAA,1990-10-29 01:00,ZBAA 290100Z AUTO 00000KT 1SM 10/09 A3009 RMK T01000090 IEM_DS3505
ZBAA,1990-10-29 03:00,ZBAA 290300Z AUTO 04004KT 2SM 14/07 A3006 RMK SLP196 T01370074 57003 IEM_DS3505
ZBAA,1990-10-29 04:00,ZBAA 290400Z AUTO ////04KT 4SM 17/08 A3003 RMK T01700080 IEM_DS3505
ZBAA,1990-10-29 05:00,ZBAA 290500Z AUTO ////04KT 4SM 18/08 A3000 RMK T01800080 IEM_DS3505
ZBAA,1990-10-29 06:00,ZBAA 290600Z AUTO 11002KT 2SM 17/08 A3000 RMK SLP171 T01710083 4////0070 57024 IEM_DS3505
ZBAA,1990-10-29 07:00,ZBAA 290700Z AUTO ////04KT 4SM 18/08 A3000 RMK T01800080 IEM_DS3505
ZBAA,1990-10-29 08:00,ZBAA 290800Z AUTO ////04KT 5SM 17/07 A3000 RMK T01700070 IEM_DS3505
ZBAA,1990-10-29 09:00,ZBAA 290900Z AUTO 00000KT 1 1/4SM 16/09 A3000 RMK SLP171 T01550091 57001 IEM_DS3505
ZBAA,1990-10-29 10:00,ZBAA 291000Z AUTO 00000KT RMK IEM_DS3505
ZBAA,1990-10-29 11:00,ZBAA 291100Z AUTO 00000KT 2 1/2SM 12/08 A3000 RMK T01200080 IEM_DS3505
ZBAA,1990-10-29 12:00,ZBAA 291200Z AUTO 00000KT 1SM 10/09 A3003 RMK SLP181 T01050087 52010 IEM_DS3505
ZBAA,1990-10-29 13:00,ZBAA 291300Z AUTO 04002KT 1 1/2SM 11/08 A3003 RMK T01100080 IEM_DS3505
ZBAA,1990-10-29 14:00,ZBAA 291400Z AUTO 09002KT 1 1/4SM 10/07 A3003 RMK T01000070 IEM_DS3505
ZBAA,1990-10-29 15:00,ZBAA 291500Z AUTO 09002KT 1SM 09/07 A3003 RMK SLP183 T00860073 52002 IEM_DS3505
ZBAA,1990-10-29 18:00,ZBAA 291800Z AUTO 04002KT 1SM 08/08 RMK SLP178 T00840076 40176//// 57004 IEM_DS3505
ZBAA,1990-10-29 20:00,ZBAA 292000Z AUTO 00000KT 1SM 08/06 A3000 RMK T00800060 IEM_DS3505
ZBAA,1990-10-29 21:00,ZBAA 292100Z AUTO 02004KT 1SM 10/07 A3000 RMK SLP170 T01030074 57008 IEM_DS3505
ZBAA,1990-10-29 23:00,ZBAA 292300Z AUTO 00000KT 1 1/4SM 08/06 A3000 RMK T00800060 IEM_DS3505
ZBAA,1990-10-30 00:00,ZBAA 300000Z AUTO 00000KT 1SM 08/07 RMK SLP179 T00850068 52008 IEM_DS3505
ZBAA,1990-10-30 01:00,ZBAA 300100Z AUTO 00000KT 1 1/2SM 12/09 A3003 RMK T01200090 IEM_DS3505
ZBAA,1990-10-30 02:00,ZBAA 300200Z AUTO ////04KT 2 1/2SM 13/08 A3003 RMK T01300080 IEM_DS3505
ZBAA,1990-10-30 03:00,ZBAA 300300Z AUTO 07004KT 1 1/4SM 15/08 A3000 RMK SLP179 T01460085 54000 IEM_DS3505
ZBAA,1990-10-30 04:00,ZBAA 300400Z AUTO ////02KT 4SM 16/08 A3000 RMK T01600080 IEM_DS3505
ZBAA,1990-10-30 05:00,ZBAA 300500Z AUTO ////06KT 4SM 18/08 A2994 RMK T01800080 IEM_DS3505
ZBAA,1990-10-30 06:00,ZBAA 300600Z AUTO 09002KT 3SM 17/08 A2994 RMK SLP152 T01740080 4////0076 57026 IEM_DS3505
ZBAA,1990-10-30 07:00,ZBAA 300700Z AUTO ////04KT 4SM 17/08 A2994 RMK T01700080 IEM_DS3505
ZBAA,1990-10-30 08:00,ZBAA 300800Z AUTO ////04KT 4SM A2994 RMK IEM_DS3505
ZBAA,1990-10-30 09:00,ZBAA 300900Z AUTO 11002KT 2SM 16/09 A2994 RMK SLP151 T01570091 57001 IEM_DS3505
ZBAA,1990-10-30 10:00,ZBAA 301000Z AUTO 00000KT 3SM 13/08 A2994 RMK T01300080 IEM_DS3505
ZBAA,1990-10-30 12:00,ZBAA 301200Z AUTO 00000KT 2SM 11/09 A2997 RMK SLP158 T01100088 52006 IEM_DS3505
ZBAA,1990-10-30 13:00,ZBAA 301300Z AUTO 00000KT 2SM 11/08 A2997 RMK T01100080 IEM_DS3505
ZBAA,1990-10-30 14:00,ZBAA 301400Z AUTO 00000KT 2SM 11/08 A2997 RMK T01100080 IEM_DS3505
ZBAA,1990-10-30 15:00,ZBAA 301500Z AUTO 00000KT 1 1/4SM 09/08 A2994 RMK SLP157 T00940084 54000 IEM_DS3505
ZBAA,1990-10-30 18:00,ZBAA 301800Z AUTO 00000KT 1 1/4SM 08/07 RMK SLP151 T00830072 40176//// 57006 IEM_DS3505
ZBAA,1990-10-30 20:00,ZBAA 302000Z AUTO 00000KT 1SM 08/07 A2988 RMK T00800070 IEM_DS3505
ZBAA,1990-10-30 21:00,ZBAA 302100Z AUTO 00000KT 1 1/4SM 08/07 A2991 RMK SLP142 T00790073 57009 IEM_DS3505
ZBAA,1990-10-30 22:00,ZBAA 302200Z AUTO 33002KT 1SM 08/07 A2991 RMK T00800070 IEM_DS3505
ZBAA,1990-10-30 23:00,ZBAA 302300Z AUTO 35002KT 1SM 09/07 A2991 RMK T00900070 IEM_DS3505
ZBAA,1990-10-31 00:00,ZBAA 310000Z AUTO 02004KT 1 1/4SM 12/09 A2994 RMK SLP153 T01190089 52011 IEM_DS3505
ZBAA,1990-10-31 01:00,ZBAA 310100Z AUTO ////02KT 1 1/2SM 12/09 A2997 RMK T01200090 IEM_DS3505
ZBAA,1990-10-31 03:00,ZBAA 310300Z AUTO 36010KT 2 1/2SM 17/07 A2997 RMK SLP156 T01710074 52003 IEM_DS3505
ZBAA,1990-10-31 04:00,ZBAA 310400Z AUTO ////04KT 4SM 19/08 A2994 RMK T01900080 IEM_DS3505
ZBAA,1990-10-31 05:00,ZBAA 310500Z AUTO ////04KT 6SM 21/07 A2994 RMK T02100070 IEM_DS3505
ZBAA,1990-10-31 06:00,ZBAA 310600Z AUTO 04010KT 9SM 20/01 A2991 RMK SLP148 T01990012 4////0076 57008 IEM_DS3505
ZBAA,1990-10-31 07:00,ZBAA 310700Z AUTO ////04KT 6SM 21/04 A2991 RMK T02100040 IEM_DS3505
ZBAA,1990-10-31 08:00,ZBAA 310800Z AUTO ////04KT 6SM 20/01 A2994 RMK T02000010 IEM_DS3505
ZBAA,1990-10-31 09:00,ZBAA 310900Z AUTO 04004KT 9SM 18/03 A2994 RMK SLP152 T01830031 52004 IEM_DS3505
ZBAA,1990-10-31 10:00,ZBAA 311000Z AUTO ////02KT 6SM 15/M01 A2997 RMK T01501010 IEM_DS3505
ZBAA,1990-10-31 11:00,ZBAA 311100Z AUTO ////02KT 6SM 14/M01 A3000 RMK T01401010 IEM_DS3505
ZBAA,1990-10-31 12:00,ZBAA 311200Z AUTO 02006KT 12SM 19/M01 A3003 RMK SLP185 T01911011 52033 IEM_DS3505
ZBAA,1990-10-31 13:00,ZBAA 311300Z AUTO ////06KT 6SM 15/M05 A3006 RMK T01501050 IEM_DS3505
ZBAA,1990-10-31 14:00,ZBAA 311400Z AUTO ////04KT 6SM 13/M06 A3006 RMK T01301060 IEM_DS3505
ZBAA,1990-10-31 15:00,ZBAA 311500Z AUTO 36004KT 11SM 12/M03 RMK SLP198 T01251027 52013 IEM_DS3505
ZBAA,1990-10-31 18:00,ZBAA 311800Z AUTO 02008KT 12SM 11/M06 RMK SLP203 T01141062 40201//// 52005 IEM_DS3505
ZBAA,1990-10-31 21:00,ZBAA 312100Z AUTO 04004KT 12SM 11/M08 A3015 RMK SLP217 T01101076 52014 IEM_DS3505
ZBAA,1990-10-31 22:00,ZBAA 312200Z AUTO ////06G16KT 6SM 11/M07 A3018 RMK T01101070 IEM_DS3505
ZBAA,1990-10-31 23:00,ZBAA 312300Z AUTO ////06KT 6SM 11/M08 A3021 RMK T01101080 IEM_DS3505
ZBAA,1990-11-01 00:00,ZBAA 010000Z AUTO 04008KT 19SM 10/M08 A3024 RMK SLP246 T01051077 52028 IEM_DS3505
ZBAA,1990-11-01 01:00,ZBAA 010100Z AUTO ////06KT 6SM 12/M07 A3027 RMK T01201070 IEM_DS3505
ZBAA,1990-11-01 02:00,ZBAA 010200Z AUTO ////06KT 6SM 13/M07 A3027 RMK T01301070 IEM_DS3505
ZBAA,1990-11-01 03:00,ZBAA 010300Z AUTO 07006KT 19SM 13/M08 A3027 RMK SLP256 T01291075 52010 IEM_DS3505
ZBAA,1990-11-01 04:00,ZBAA 010400Z AUTO ////04KT 6SM 15/M08 A3024 RMK T01501080 IEM_DS3505
ZBAA,1990-11-01 05:00,ZBAA 010500Z AUTO ////04KT 6SM 14/M08 A3021 RMK T01401080 IEM_DS3505
ZBAA,1990-11-01 06:00,ZBAA 010600Z AUTO ////04KT 6SM 15/M08 A3021 RMK SLP239 T01471080 57017 IEM_DS3505
ZBAA,1990-11-01 07:00,ZBAA 010700Z AUTO ////04KT 6SM 16/M09 A3021 RMK T01601090 IEM_DS3505
ZBAA,1990-11-01 08:00,ZBAA 010800Z AUTO ////04KT 6SM 15/M08 A3021 RMK T01501080 IEM_DS3505
ZBAA,1990-11-01 09:00,ZBAA 010900Z AUTO 11002KT 19SM 14/M06 A3021 RMK SLP244 T01391062 52005 IEM_DS3505
ZBAA,1990-11-01 10:00,ZBAA 011000Z AUTO 00000KT 6SM 12/M07 A3024 RMK T01201070 IEM_DS3505
ZBAA,1990-11-01 12:00,ZBAA 011200Z AUTO 00000KT 6SM 10/00 RMK SLP259 T01030004 52015 IEM_DS3505
ZBAA,1990-11-01 13:00,ZBAA 011300Z AUTO ////02KT 6SM 11/M03 A3030 RMK T01101030 IEM_DS3505
ZBAA,1990-11-01 14:00,ZBAA 011400Z AUTO 09002KT 6SM 10/M03 A3030 RMK T01001030 IEM_DS3505
ZBAA,1990-11-01 15:00,ZBAA 011500Z AUTO 16002KT 7SM 11/M03 A3033 RMK SLP270 T01141032 52011 IEM_DS3505
ZBAA,1990-11-01 16:00,ZBAA 011600Z AUTO ////04KT 6SM 09/M01 A3033 RMK T00901010 IEM_DS3505
ZBAA,1990-11-01 17:00,ZBAA 011700Z AUTO ////04KT 6SM 09/00 A3030 RMK T00900000 IEM_DS3505
ZBAA,1990-11-01 18:00,ZBAA 011800Z AUTO 16006KT 7SM 10/M01 A3030 RMK SLP269 T01011012 40150//// 57001 IEM_DS3505
ZBAA,1990-11-01 19:00,ZBAA 011900Z AUTO 14002KT 6SM 09/00 A3030 RMK T00900000 IEM_DS3505
ZBAA,1990-11-01 21:00,ZBAA 012100Z AUTO 18004KT 9SM 08/M01 A3030 RMK SLP264 T00801010 57005 IEM_DS3505
ZBAA,1990-11-01 22:00,ZBAA 012200Z AUTO ////04KT 6SM 08/M01 A3027 RMK T00801010 IEM_DS3505
ZBAA,1990-11-01 23:00,ZBAA 012300Z AUTO 08002KT 6SM 07/M01 A3030 RMK T00701010 IEM_DS3505
ZBAA,1990-11-02 00:00,ZBAA 020000Z AUTO 20010KT 9SM 08/03 A3030 RMK SLP271 T00760033 52006 IEM_DS3505
ZBAA,1990-11-02 01:00,ZBAA 020100Z AUTO ////06KT 6SM 09/03 A3033 RMK T00900030 IEM_DS3505
ZBAA,1990-11-02 02:00,ZBAA 020200Z AUTO ////06KT 6SM 10/03 A3030 RMK T01000030 IEM_DS3505
ZBAA,1990-11-02 03:00,ZBAA 020300Z AUTO 20008KT 9SM 10/03 A3027 RMK SLP261 T00990026 57009 IEM_DS3505
ZBAA,1990-11-02 03:15,ZBAA 020315Z AUTO ////04KT 7SM 10/03 A3027 RMK T01000030 IEM_DS3505
ZBAA,1990-11-02 03:30,ZBAA 020330Z AUTO ////04KT 7SM 10/03 A3027 RMK T01000030 IEM_DS3505
ZBAA,1990-11-02 04:00,ZBAA 020400Z AUTO ////04KT 7SM 11/03 A3024 RMK T01100030 IEM_DS3505
ZBAA,1990-11-02 05:00,ZBAA 020500Z AUTO ////04KT 7SM 11/03 A3021 RMK T01100030 IEM_DS3505
ZBAA,1990-11-02 06:00,ZBAA 020600Z AUTO 20010KT 7SM 12/04 A3018 RMK SLP235 T01200037 4////0072 57026 IEM_DS3505
ZBAA,1990-11-02 07:00,ZBAA 020700Z AUTO ////04KT 6SM 12/04 A3018 RMK T01200040 IEM_DS3505
ZBAA,1990-11-02 08:00,ZBAA 020800Z AUTO ////04KT 6SM 12/04 A3018 RMK T01200040 IEM_DS3505
ZBAA,1990-11-02 09:00,ZBAA 020900Z AUTO 18006KT 6SM 10/04 A3015 RMK SLP226 T01030045 57009 IEM_DS3505
ZBAA,1990-11-02 10:00,ZBAA 021000Z AUTO ////04KT 6SM 11/04 A3015 RMK T01100040 IEM_DS3505
ZBAA,1990-11-02 11:00,ZBAA 021100Z AUTO ////04KT 6SM 10/04 A3018 RMK T01000040 IEM_DS3505
ZBAA,1990-11-02 12:00,ZBAA 021200Z AUTO 18008KT 9SM 10/04 A3018 RMK SLP231 T01000040 52004 IEM_DS3505
ZBAA,1990-11-02 13:00,ZBAA 021300Z AUTO 18002KT 6SM 10/04 A3018 RMK T01000040 IEM_DS3505
ZBAA,1990-11-02 14:00,ZBAA 021400Z AUTO ////02KT 6SM 10/05 A3018 RMK T01000050 IEM_DS3505
ZBAA,1990-11-02 15:00,ZBAA 021500Z AUTO 20004KT 4SM 07/05 RMK SLP229 T00730050 57002 IEM_DS3505
ZBAA,1990-11-02 18:00,ZBAA 021800Z AUTO 00000KT 3SM 06/04 RMK SLP220 T00550041 40124//// 57009 IEM_DS3505
ZBAA,1990-11-02 20:00,ZBAA 022000Z AUTO 00000KT 6SM 05/03 A3012 RMK T00500030 IEM_DS3505
ZBAA,1990-11-02 21:00,ZBAA 022100Z AUTO 00000KT 2 1/2SM 04/04 RMK SLP215 T00400035 57005 IEM_DS3505
ZBAA,1990-11-02 22:00,ZBAA 022200Z AUTO 00000KT 3SM 06/05 A3012 RMK T00600050 IEM_DS3505
ZBAA,1990-11-02 23:00,ZBAA 022300Z AUTO 00000KT 2SM 06/05 A3012 RMK T00600050 IEM_DS3505
ZBAA,1990-11-03 00:00,ZBAA 030000Z AUTO 00000KT 2SM 05/04 A3012 RMK SLP218 T00470040 52003 IEM_DS3505
ZBAA,1990-11-03 01:00,ZBAA 030100Z AUTO 30002KT 2 1/2SM 09/06 A3012 RMK T00900060 IEM_DS3505
ZBAA,1990-11-03 02:00,ZBAA 030200Z AUTO 00000KT 4SM 10/05 A3012 RMK T01000050 IEM_DS3505
ZBAA,1990-11-03 03:00,ZBAA 030300Z AUTO 18006KT 1 1/4SM 11/05 A3012 RMK SLP208 T01070052 57009 IEM_DS3505
ZBAA,1990-11-03 04:00,ZBAA 030400Z AUTO 00000KT 5SM 12/03 A3009 RMK T01200030 IEM_DS3505
ZBAA,1990-11-03 05:00,ZBAA 030500Z AUTO ////02KT 4SM 12/04 A3006 RMK T01200040 IEM_DS3505
ZBAA,1990-11-03 06:00,ZBAA 030600Z AUTO 04002KT 1SM 12/05 A3003 RMK SLP181 T01150052 4////0030 57027 IEM_DS3505
ZBAA,1990-11-03 07:00,ZBAA 030700Z AUTO ////04KT 4SM 13/04 A3000 RMK T01300040 IEM_DS3505
ZBAA,1990-11-03 08:00,ZBAA 030800Z AUTO ////04KT 4SM 12/04 A3000 RMK T01200040 IEM_DS3505
ZBAA,1990-11-03 09:00,ZBAA 030900Z AUTO 18006KT 2SM 11/05 RMK SLP166 T01100051 57015 IEM_DS3505
ZBAA,1990-11-03 10:00,ZBAA 031000Z AUTO 17004KT 4SM 10/04 A3000 RMK T01000040 IEM_DS3505
ZBAA,1990-11-03 11:00,ZBAA 031100Z AUTO 16004KT 3SM 10/04 A3000 RMK T01000040 IEM_DS3505
ZBAA,1990-11-03 12:00,ZBAA 031200Z AUTO 20004KT 4SM 10/05 RMK SLP171 T00950053 52004 IEM_DS3505
ZBAA,1990-11-03 13:00,ZBAA 031300Z AUTO ////04KT 4SM 08/04 A3000 RMK T00800040 IEM_DS3505
ZBAA,1990-11-03 15:00,ZBAA 031500Z AUTO 18004KT 4SM 09/06 A2997 RMK SLP165 T00900055 57005 IEM_DS3505
ZBAA,1990-11-03 18:00,ZBAA 031800Z AUTO 16002KT 4SM 09/06 RMK SLP147 T00900057 40122//// 57018 IEM_DS3505
ZBAA,1990-11-03 20:00,ZBAA 032000Z AUTO ////04KT 5SM 09/06 A2988 RMK T00900060 IEM_DS3505
ZBAA,1990-11-03 21:00,ZBAA 032100Z AUTO 18004KT 4SM 09/06 RMK SLP130 T00910058 57017 IEM_DS3505
ZBAA,1990-11-03 22:00,ZBAA 032200Z AUTO ////02KT 5SM 09/06 A2985 RMK T00900060 IEM_DS3505
ZBAA,1990-11-03 23:00,ZBAA 032300Z AUTO 15002KT 2SM 09/08 A2985 RMK T00900080 IEM_DS3505
ZBAA,1990-11-04 00:00,ZBAA 040000Z AUTO 36002KT 4SM 09/07 RMK SLP126 T00890070 57004 IEM_DS3505
ZBAA,1990-11-04 01:00,ZBAA 040100Z AUTO 11002KT 1 1/4SM 09/09 A2985 RMK T00900090 IEM_DS3505
ZBAA,1990-11-04 03:00,ZBAA 040300Z AUTO 04006KT 2 1/2SM 10/07 A2985 RMK SLP126 T01020073 54000 IEM_DS3505
ZBAA,1990-11-04 04:00,ZBAA 040400Z AUTO ////02KT 1 1/2SM 10/09 A2983 RMK T01000090 IEM_DS3505
ZBAA,1990-11-04 05:00,ZBAA 040500Z AUTO 13002KT 2 1/2SM 13/08 A2980 RMK T01300080 IEM_DS3505
ZBAA,1990-11-04 06:00,ZBAA 040600Z AUTO 04004KT 2 1/2SM 14/07 A2980 RMK 60001 SLP105 T01350072 4////0084 57020 IEM_DS3505
ZBAA,1990-11-04 08:00,ZBAA 040800Z AUTO ////02KT 3SM 13/08 A2983 RMK T01300080 IEM_DS3505
ZBAA,1990-11-04 09:00,ZBAA 040900Z AUTO 36006KT 19SM 14/M01 A2983 RMK SLP114 T01401011 52009 IEM_DS3505
ZBAA,1990-11-04 10:00,ZBAA 041000Z AUTO ////04KT 6SM 11/00 A2988 RMK T01100000 IEM_DS3505
ZBAA,1990-11-04 11:00,ZBAA 041100Z AUTO 32004KT 19SM 10/M01 A2988 RMK SLP149 T01021010 52034 IEM_DS3505
ZBAA,1990-11-04 12:00,ZBAA 041200Z AUTO 32004KT 19SM 10/M01 A2994 RMK SLP149 T01021010 52034 IEM_DS3505
ZBAA,1990-11-04 13:00,ZBAA 041300Z AUTO 34008KT 7SM 11/M03 A2994 RMK T01101030 IEM_DS3505
ZBAA,1990-11-04 14:00,ZBAA 041400Z AUTO 33006KT 7SM 10/M04 A2997 RMK T01001040 IEM_DS3505
ZBAA,1990-11-04 15:00,ZBAA 041500Z AUTO 36006KT 11SM 09/M02 A2997 RMK SLP159 T00931020 52010 IEM_DS3505
ZBAA,1990-11-04 18:00,ZBAA 041800Z AUTO 00000KT 4SM RMK 40094//// 57007 IEM_DS3505
ZBAA,1990-11-04 20:00,ZBAA 042000Z AUTO 12002KT 6SM 05/M02 A2994 RMK T00501020 IEM_DS3505
ZBAA,1990-11-04 21:00,ZBAA 042100Z AUTO 00000KT 7SM 05/01 A2994 RMK T00460007 57005 IEM_DS3505
ZBAA,1990-11-04 22:00,ZBAA 042200Z AUTO 00000KT 6SM 03/M02 A2994 RMK T00301020 IEM_DS3505
ZBAA,1990-11-04 23:00,ZBAA 042300Z AUTO 27002KT 6SM 03/M01 A2994 RMK T00301010 IEM_DS3505
ZBAA,1990-11-05 00:00,ZBAA 050000Z AUTO 00000KT 6SM 04/02 A2997 RMK SLP160 T00410015 52005 IEM_DS3505
ZBAA,1990-11-05 01:00,ZBAA 050100Z AUTO ////02KT 6SM 09/00 A2997 RMK T00900000 IEM_DS3505
ZBAA,1990-11-05 02:00,ZBAA 050200Z AUTO ////02KT 6SM 10/00 A2997 RMK T01000000 IEM_DS3505
ZBAA,1990-11-05 03:00,ZBAA 050300Z AUTO 20006KT 4SM 10/02 A2994 RMK SLP154 T01040016 57005 IEM_DS3505
ZBAA,1990-11-05 04:00,ZBAA 050400Z AUTO ////04KT 6SM 11/00 A2994 RMK T01100000 IEM_DS3505
ZBAA,1990-11-05 05:00,ZBAA 050500Z AUTO ////02KT 6SM 12/M02 A2991 RMK T01201020 IEM_DS3505
ZBAA,1990-11-05 06:00,ZBAA 050600Z AUTO 16004KT 4SM 13/M00 A2988 RMK T01271001 57020 IEM_DS3505
ZBAA,1990-11-05 07:00,ZBAA 050700Z AUTO ////06KT 6SM 13/00 A2988 RMK T01300000 IEM_DS3505
ZBAA,1990-11-05 08:00,ZBAA 050800Z AUTO 13002KT 6SM 12/M01 A2985 RMK T01201010 IEM_DS3505
ZBAA,1990-11-05 09:00,ZBAA 050900Z AUTO 16004KT 4SM 12/M00 A2988 RMK SLP128 T01201002 57006 IEM_DS3505
ZBAA,1990-11-05 10:00,ZBAA 051000Z AUTO 00000KT 7SM 10/00 A2988 RMK T01000000 IEM_DS3505
ZBAA,1990-11-05 11:00,ZBAA 051100Z AUTO ////04KT 7SM 09/05 A2994 RMK T00900050 IEM_DS3505
ZBAA,1990-11-05 12:00,ZBAA 051200Z AUTO 00000KT 6SM 10/04 A2991 RMK SLP143 T00980036 52015 IEM_DS3505
ZBAA,1990-11-05 13:00,ZBAA 051300Z AUTO 00000KT 6SM 07/05 A2991 RMK T00700050 IEM_DS3505
ZBAA,1990-11-05 14:00,ZBAA 051400Z AUTO 00000KT 6SM 06/04 A2994 RMK T00600040 IEM_DS3505
ZBAA,1990-11-05 15:00,ZBAA 051500Z AUTO 09002KT 6SM 08/03 A2994 RMK SLP150 T00790032 52007 IEM_DS3505
ZBAA,1990-11-05 18:00,ZBAA 051800Z AUTO 00000KT 6SM 05/03 RMK SLP149 T00460031 40129//// 57001 IEM_DS3505
ZBAA,1990-11-05 20:00,ZBAA 052000Z AUTO 00000KT 2SM 03/01 A2994 RMK T00300010 IEM_DS3505
ZBAA,1990-11-05 21:00,ZBAA 052100Z AUTO 00000KT 6SM 03/02 A2991 RMK SLP147 T00330020 57002 IEM_DS3505
ZBAA,1990-11-05 22:00,ZBAA 052200Z AUTO 00000KT 2SM 02/00 A2994 RMK T00200000 IEM_DS3505
ZBAA,1990-11-05 23:00,ZBAA 052300Z AUTO 00000KT 1 1/2SM 02/00 A2994 RMK T00200000 IEM_DS3505
ZBAA,1990-11-06 00:00,ZBAA 060000Z AUTO 16004KT 2 1/2SM 05/03 A2997 RMK SLP159 T00500028 52012 IEM_DS3505
ZBAA,1990-11-06 01:00,ZBAA 060100Z AUTO 03002KT 7SM 07/07 A2997 RMK T00700070 IEM_DS3505
ZBAA,1990-11-06 03:00,ZBAA 060300Z AUTO 04004KT 9SM 14/M01 A3000 RMK SLP168 T01451014 52009 IEM_DS3505
ZBAA,1990-11-06 04:00,ZBAA 060400Z AUTO ////04KT 7SM 15/M04 A3000 RMK T01501040 IEM_DS3505
ZBAA,1990-11-06 05:00,ZBAA 060500Z AUTO 34004KT 7SM 16/M05 A2997 RMK T01601050 IEM_DS3505
ZBAA,1990-11-06 06:00,ZBAA 060600Z AUTO 32008KT 19SM 18/M03 A2997 RMK SLP161 T01771032 4////0025 57007 IEM_DS3505
ZBAA,1990-11-06 09:00,ZBAA 060900Z AUTO 14002KT 5SM 15/00 A3000 RMK SLP165 T01520005 52004 IEM_DS3505
ZBAA,1990-11-06 10:00,ZBAA 061000Z AUTO 11004KT 6SM 13/M04 A3000 RMK T01301040 IEM_DS3505
ZBAA,1990-11-06 11:00,ZBAA 061100Z AUTO 00000KT 6SM 10/M03 A3003 RMK T01001030 IEM_DS3505
ZBAA,1990-11-06 12:00,ZBAA 061200Z AUTO 00000KT 5SM 10/03 A3006 RMK SLP189 T00960031 52023 IEM_DS3505
ZBAA,1990-11-06 13:00,ZBAA 061300Z AUTO 00000KT 6SM 09/M03 A3006 RMK T00901030 IEM_DS3505
ZBAA,1990-11-06 14:00,ZBAA 061400Z AUTO 03002KT 6SM 09/M03 A3009 RMK T00901030 IEM_DS3505
ZBAA,1990-11-06 15:00,ZBAA 061500Z AUTO 00000KT 12SM 08/00 RMK SLP204 T00800004 52016 IEM_DS3505
ZBAA,1990-11-06 18:00,ZBAA 061800Z AUTO 00000KT 16SM 06/00 RMK SLP214 T00630004 40183//// 52010 IEM_DS3505
ZBAA,1990-11-06 21:00,ZBAA 062100Z AUTO 02004KT 12SM 08/M02 A3015 RMK SLP221 T00751016 52007 IEM_DS3505
ZBAA,1990-11-06 22:00,ZBAA 062200Z AUTO 00000KT 6SM 06/M02 A3015 RMK T00601020 IEM_DS3505
ZBAA,1990-11-06 23:00,ZBAA 062300Z AUTO 00000KT 6SM 05/M01 A3018 RMK T00501010 IEM_DS3505
ZBAA,1990-11-07 00:00,ZBAA 070000Z AUTO 00000KT 9SM 06/01 A3021 RMK SLP240 T00650006 52019 IEM_DS3505
ZBAA,1990-11-07 01:00,ZBAA 070100Z AUTO 00000KT 6SM 09/M01 A3024 RMK T00901010 IEM_DS3505
ZBAA,1990-11-07 02:00,ZBAA 070200Z AUTO 34002KT 6SM 09/M01 A3024 RMK T00901010 IEM_DS3505
ZBAA,1990-11-07 03:00,ZBAA 070300Z AUTO 36004KT 12SM 10/M01 A3024 RMK SLP250 T00991012 52009 IEM_DS3505
ZBAA,1990-11-07 04:00,ZBAA 070400Z AUTO 01002KT 6SM 11/M01 A3024 RMK T01101010 IEM_DS3505
ZBAA,1990-11-07 05:00,ZBAA 070500Z AUTO 01002KT 6SM 11/00 A3024 RMK T01100000 IEM_DS3505
ZBAA,1990-11-07 06:00,ZBAA 070600Z AUTO 02004KT 6SM 10/M02 A3021 RMK SLP241 T01051016 4////0046 57009 IEM_DS3505
ZBAA,1990-11-07 07:00,ZBAA 070700Z AUTO 12006KT 6SM 11/M01 A3021 RMK T01101010 IEM_DS3505
ZBAA,1990-11-07 08:00,ZBAA 070800Z AUTO 11004KT 6SM 11/01 A3024 RMK T01100010 IEM_DS3505
ZBAA,1990-11-07 09:00,ZBAA 070900Z AUTO 36004KT 7SM 10/02 A3024 RMK SLP250 T00990017 52009 IEM_DS3505
ZBAA,1990-11-07 10:00,ZBAA 071000Z AUTO 00000KT 6SM 10/01 A3027 RMK T01000010 IEM_DS3505
ZBAA,1990-11-07 11:00,ZBAA 071100Z AUTO 00000KT 6SM 10/01 A3027 RMK T01000010 IEM_DS3505
ZBAA,1990-11-07 12:00,ZBAA 071200Z AUTO 36004KT 6SM 08/04 A3030 RMK SLP265 T00800043 52015 IEM_DS3505
ZBAA,1990-11-07 13:00,ZBAA 071300Z AUTO 00000KT 6SM 09/01 A3030 RMK T00900010 IEM_DS3505
ZBAA,1990-11-07 14:00,ZBAA 071400Z AUTO 13002KT 6SM 09/M01 A3033 RMK T00901010 IEM_DS3505
ZBAA,1990-11-07 15:00,ZBAA 071500Z AUTO 02004KT 6SM 08/04 RMK SLP278 T00840037 52013 IEM_DS3505
ZBAA,1990-11-07 18:00,ZBAA 071800Z AUTO 00000KT 6SM 08/05 RMK SLP280 T00790047 40111//// 52002 IEM_DS3505
ZBAA,1990-11-07 21:00,ZBAA 072100Z AUTO 00000KT 5SM 07/06 RMK SLP286 T00730055 52006 IEM_DS3505
ZBAA,1990-11-07 22:00,ZBAA 072200Z AUTO 00000KT 4SM 07/07 A3036 RMK T00700070 IEM_DS3505
ZBAA,1990-11-07 23:00,ZBAA 072300Z AUTO 34002KT 4SM 07/06 A3039 RMK T00700060 IEM_DS3505
ZBAA,1990-11-08 00:00,ZBAA 080000Z AUTO 04004KT 4SM 07/05 A3039 RMK 60012 70012 SLP300 T00680052 52014 IEM_DS3505
ZBAA,1990-11-08 01:00,ZBAA 080100Z AUTO 00000KT 6SM 08/08 A3042 RMK T00800080 IEM_DS3505
ZBAA,1990-11-08 02:00,ZBAA 080200Z AUTO 00000KT 6SM 08/08 A3042 RMK T00800080 IEM_DS3505
ZBAA,1990-11-08 03:00,ZBAA 080300Z AUTO 36008KT 2 1/2SM 09/06 A3042 RMK SLP304 T00890056 52004 IEM_DS3505
ZBAA,1990-11-08 04:00,ZBAA 080400Z AUTO 32010KT 6SM 10/M02 A3039 RMK T01001020 IEM_DS3505
ZBAA,1990-11-08 05:00,ZBAA 080500Z AUTO 31012G19KT 6SM 11/M06 A3039 RMK T01101060 IEM_DS3505
ZBAA,1990-11-08 06:00,ZBAA 080600Z AUTO 36012KT 16SM 11/M06 A3039 RMK 60000 SLP298 T01111065 4////0065 57006 IEM_DS3505
ZBAA,1990-11-08 07:00,ZBAA 080700Z AUTO 33012KT 6SM 11/M07 A3042 RMK T01101070 IEM_DS3505
ZBAA,1990-11-08 08:00,ZBAA 080800Z AUTO 34008KT 6SM 10/M09 A3042 RMK T01001090 IEM_DS3505
ZBAA,1990-11-08 09:00,ZBAA 080900Z AUTO 34012KT 12SM 08/M16 A3045 RMK SLP316 T00771160 52018 IEM_DS3505
ZBAA,1990-11-08 10:00,ZBAA 081000Z AUTO 35008KT 6SM 07/M15 A3047 RMK T00701150 IEM_DS3505
ZBAA,1990-11-08 12:00,ZBAA 081200Z AUTO 02008G23KT 11SM 03/M18 A3056 RMK SLP361 T00321178 52044 IEM_DS3505
ZBAA,1990-11-08 14:00,ZBAA 081400Z AUTO 33014KT 6SM 02/M16 A3062 RMK T00201160 IEM_DS3505
ZBAA,1990-11-08 15:00,ZBAA 081500Z AUTO 02010KT 9SM 01/M19 A3062 RMK SLP380 T00071188 52018 IEM_DS3505
ZBAA,1990-11-08 18:00,ZBAA 081800Z AUTO 36010KT 9SM M01/M20 RMK SLP377 T10081198 40111//// 57002 IEM_DS3505
ZBAA,1990-11-08 21:00,ZBAA 082100Z AUTO 36008KT 12SM M02/M18 RMK SLP378 T10241176 54000 IEM_DS3505
ZBAA,1990-11-08 22:00,ZBAA 082200Z AUTO ////06KT 6SM M02/M17 A3062 RMK T10201170 IEM_DS3505
ZBAA,1990-11-08 23:00,ZBAA 082300Z AUTO 32008KT 6SM M03/M17 A3059 RMK T10301170 IEM_DS3505
ZBAA,1990-11-09 00:00,ZBAA 090000Z AUTO 02006KT 19SM M02/M20 A3062 RMK SLP375 T10231203 57004 IEM_DS3505
ZBAA,1990-11-09 01:00,ZBAA 090100Z AUTO 18008KT 19SM 05/M16 A3059 RMK SLP300 T00481163 4////1035 57049 IEM_DS3505
ZBAA,1990-11-09 02:00,ZBAA 090200Z AUTO 33010KT 6SM 00/M20 A3056 RMK T00001200 IEM_DS3505
ZBAA,1990-11-09 03:00,ZBAA 090300Z AUTO 09006KT 19SM 01/M20 A3053 RMK SLP349 T00081205 57025 IEM_DS3505
ZBAA,1990-11-09 04:00,ZBAA 090400Z AUTO 18008KT 19SM 05/M16 A3047 RMK SLP300 T00481163 57049 IEM_DS3505
ZBAA,1990-11-09 05:00,ZBAA 090500Z AUTO ////04KT 6SM 04/M18 A3045 RMK T00401180 IEM_DS3505
ZBAA,1990-11-09 06:00,ZBAA 090600Z AUTO 18008KT 19SM 05/M16 A3039 RMK SLP300 T00481163 4////1035 57049 IEM_DS3505
ZBAA,1990-11-09 07:00,ZBAA 090700Z AUTO 20002KT 7SM 04/M17 A3036 RMK T00401170 IEM_DS3505
ZBAA,1990-11-09 08:00,ZBAA 090800Z AUTO ////06KT 7SM 03/M15 A3033 RMK T00301150 IEM_DS3505
ZBAA,1990-11-09 09:00,ZBAA 090900Z AUTO 20010KT 16SM 03/M13 A3030 RMK SLP272 T00281131 57028 IEM_DS3505
ZBAA,1990-11-09 10:00,ZBAA 091000Z AUTO 18004KT 7SM 02/M12 A3030 RMK T00201120 IEM_DS3505
ZBAA,1990-11-09 12:00,ZBAA 091200Z AUTO 20006KT 12SM 01/M08 A3030 RMK SLP267 T00111075 57005 IEM_DS3505
ZBAA,1990-11-09 13:00,ZBAA 091300Z AUTO 04002KT 7SM M01/M09 A3030 RMK T10101090 IEM_DS3505
ZBAA,1990-11-09 15:00,ZBAA 091500Z AUTO 36002KT 11SM M01/M10 A3027 RMK SLP264 T10111099 57003 IEM_DS3505
ZBAA,1990-11-09 18:00,ZBAA 091800Z AUTO 04004KT 9SM M02/M10 RMK SLP265 T10181105 40054//// 52001 IEM_DS3505
ZBAA,1990-11-09 20:00,ZBAA 092000Z AUTO 00000KT 7SM M03/M10 A3027 RMK T10301100 IEM_DS3505
ZBAA,1990-11-09 21:00,ZBAA 092100Z AUTO 04002KT 9SM M02/M10 A3030 RMK SLP267 T10221100 52002 IEM_DS3505
ZBAA,1990-11-09 22:00,ZBAA 092200Z AUTO 00000KT 7SM M02/M10 A3030 RMK T10201100 IEM_DS3505
ZBAA,1990-11-09 23:00,ZBAA 092300Z AUTO 36002KT 7SM M02/M10 A3030 RMK T10201100 IEM_DS3505
ZBAA,1990-11-10 00:00,ZBAA 100000Z AUTO 07002KT 12SM M01/M10 A3033 RMK SLP275 T10121100 52008 IEM_DS3505
ZBAA,1990-11-10 01:00,ZBAA 100100Z AUTO ////04KT 7SM 01/M07 A3033 RMK T00101070 IEM_DS3505
ZBAA,1990-11-10 02:00,ZBAA 100200Z AUTO 03002KT 7SM 05/M09 A3033 RMK T00501090 IEM_DS3505
ZBAA,1990-11-10 03:00,ZBAA 100300Z AUTO 00000KT 4SM 06/M11 A3030 RMK SLP273 T00631110 57001 IEM_DS3505
ZBAA,1990-11-10 04:00,ZBAA 100400Z AUTO ////04KT 7SM 08/M10 A3027 RMK T00801100 IEM_DS3505
ZBAA,1990-11-10 05:00,ZBAA 100500Z AUTO ////04KT 7SM 09/M10 A3024 RMK T00901100 IEM_DS3505
ZBAA,1990-11-10 06:00,ZBAA 100600Z AUTO 20008KT 5SM 08/M11 A3021 RMK SLP240 T00841109 57033 IEM_DS3505
ZBAA,1990-11-10 07:00,ZBAA 100700Z AUTO ////06KT 4SM 09/M08 A3018 RMK T00901080 IEM_DS3505
ZBAA,1990-11-10 08:00,ZBAA 100800Z AUTO ////06KT 6SM 08/M09 A3018 RMK T00801090 IEM_DS3505
ZBAA,1990-11-10 09:00,ZBAA 100900Z AUTO 20006KT 5SM 07/M07 A3018 RMK SLP229 T00701070 57011 IEM_DS3505
ZBAA,1990-11-10 11:00,ZBAA 101100Z AUTO 14004KT 3SM 05/M05 A3018 RMK T00501050 IEM_DS3505
ZBAA,1990-11-10 12:00,ZBAA 101200Z AUTO 20004KT 6SM 05/M02 A3018 RMK SLP228 T00491024 57001 IEM_DS3505
ZBAA,1990-11-10 13:00,ZBAA 101300Z AUTO 14004KT 3SM 03/M05 A3015 RMK T00301050 IEM_DS3505
ZBAA,1990-11-10 14:00,ZBAA 101400Z AUTO 12004KT 3SM 03/M05 A3015 RMK T00301050 IEM_DS3505
ZBAA,1990-11-10 15:00,ZBAA 101500Z AUTO 00000KT 6SM 02/M02 RMK SLP219 T00151017 57009 IEM_DS3505
ZBAA,1990-11-10 18:00,ZBAA 101800Z AUTO 02004KT 4SM 02/M03 RMK SLP211 T00161032 40088//// 57007 IEM_DS3505
ZBAA,1990-11-10 20:00,ZBAA 102000Z AUTO 34004KT 4SM 00/M05 A3009 RMK T00001050 IEM_DS3505
ZBAA,1990-11-10 21:00,ZBAA 102100Z AUTO 00000KT 4SM M00/M03 RMK SLP205 T10031034 57007 IEM_DS3505
ZBAA,1990-11-10 22:00,ZBAA 102200Z AUTO 00000KT 2 1/2SM M01/M05 A3009 RMK T10101050 IEM_DS3505
ZBAA,1990-11-10 23:00,ZBAA 102300Z AUTO 32004KT 4SM 00/M05 A3009 RMK T00001050 IEM_DS3505
ZBAA,1990-11-11 00:00,ZBAA 110000Z AUTO 00000KT 2SM M00/M04 RMK SLP205 T10011035 54000 IEM_DS3505
ZBAA,1990-11-11 03:00,ZBAA 110300Z AUTO 00000KT 2SM 10/M02 RMK SLP199 T01011022 57005 IEM_DS3505
ZBAA,1990-11-11 04:00,ZBAA 110400Z AUTO 00000KT 7SM 11/00 A3003 RMK T01100000 IEM_DS3505
ZBAA,1990-11-11 05:00,ZBAA 110500Z AUTO 23002KT 7SM 12/00 A3000 RMK T01200000 IEM_DS3505
ZBAA,1990-11-11 06:00,ZBAA 110600Z AUTO 20004KT 2 1/2SM 15/00 A3000 RMK SLP171 T01480003 4////1018 57027 IEM_DS3505
ZBAA,1990-11-11 07:00,ZBAA 110700Z AUTO 15004KT 7SM 14/M01 A2997 RMK T01401010 IEM_DS3505
ZBAA,1990-11-11 08:00,ZBAA 110800Z AUTO 14002KT 7SM 14/01 A2997 RMK T01400010 IEM_DS3505
ZBAA,1990-11-11 09:00,ZBAA 110900Z AUTO 18004KT 4SM 11/01 A2997 RMK SLP167 T01100010 57005 IEM_DS3505
ZBAA,1990-11-11 10:00,ZBAA 111000Z AUTO 17004KT 2 1/2SM 10/01 A3000 RMK T01000010 IEM_DS3505
ZBAA,1990-11-11 11:00,ZBAA 111100Z AUTO ////02KT 2 1/2SM 09/01 A3003 RMK T00900010 IEM_DS3505
ZBAA,1990-11-11 12:00,ZBAA 111200Z AUTO 00000KT 2SM 09/01 A3003 RMK SLP182 T00870014 52015 IEM_DS3505
ZBAA,1990-11-11 13:00,ZBAA 111300Z AUTO 00000KT 1 1/4SM 06/00 A3003 RMK T00600000 IEM_DS3505
ZBAA,1990-11-11 14:00,ZBAA 111400Z AUTO 07002KT 1 1/4SM 05/00 A3006 RMK T00500000 IEM_DS3505
ZBAA,1990-11-11 15:00,ZBAA 111500Z AUTO 00000KT 2SM 04/02 A3006 RMK SLP194 T00430015 52012 IEM_DS3505
ZBAA,1990-11-11 18:00,ZBAA 111800Z AUTO 04002KT 1 1/2SM 03/00 RMK SLP198 T00260004 52005 IEM_DS3505
ZBAA,1990-11-11 21:00,ZBAA 112100Z AUTO 20002KT 2SM 02/01 A3006 RMK SLP197 T00250009 57002 IEM_DS3505
ZBAA,1990-11-11 22:00,ZBAA 112200Z AUTO 00000KT 2SM 02/M02 A3006 RMK T00201020 IEM_DS3505
ZBAA,1990-11-11 23:00,ZBAA 112300Z AUTO 01004KT 2SM 04/00 A3009 RMK T00400000 IEM_DS3505
ZBAA,1990-11-12 00:00,ZBAA 120000Z AUTO 11002KT 1 1/4SM 02/00 A3012 RMK SLP210 T00240005 52013 IEM_DS3505
ZBAA,1990-11-12 01:00,ZBAA 120100Z AUTO 03004KT 4SM 09/01 A3012 RMK T00900010 IEM_DS3505
ZBAA,1990-11-12 02:00,ZBAA 120200Z AUTO ////04KT 7SM 12/00 A3012 RMK T01200000 IEM_DS3505
ZBAA,1990-11-12 03:00,ZBAA 120300Z AUTO 20002KT 2SM 15/M01 A3009 RMK SLP209 T01541006 54000 IEM_DS3505
ZBAA,1990-11-12 04:00,ZBAA 120400Z AUTO 03002KT 7SM 18/00 A3009 RMK T01800000 IEM_DS3505
ZBAA,1990-11-12 05:00,ZBAA 120500Z AUTO 00000KT 7SM 19/M01 A3006 RMK T01901010 IEM_DS3505
ZBAA,1990-11-12 06:00,ZBAA 120600Z AUTO 20006KT 5SM 18/M02 A3003 RMK SLP192 T01781022 4////0009 57017 IEM_DS3505
ZBAA,1990-11-12 07:00,ZBAA 120700Z AUTO 20004KT 7SM 19/00 A3003 RMK T01900000 IEM_DS3505
ZBAA,1990-11-12 08:00,ZBAA 120800Z AUTO 19006KT 7SM 17/00 A3003 RMK T01700000 IEM_DS3505
ZBAA,1990-11-12 09:00,ZBAA 120900Z AUTO 18006KT 2SM 15/03 A3003 RMK SLP187 T01490032 57005 IEM_DS3505
ZBAA,1990-11-12 10:00,ZBAA 121000Z AUTO 20004KT 4SM 13/02 A3003 RMK T01300020 IEM_DS3505
ZBAA,1990-11-12 11:00,ZBAA 121100Z AUTO 19002KT 4SM 12/02 A3006 RMK T01200020 IEM_DS3505
ZBAA,1990-11-12 12:00,ZBAA 121200Z AUTO 20002KT 5SM 12/05 RMK SLP192 T01170054 52004 IEM_DS3505
ZBAA,1990-11-12 13:00,ZBAA 121300Z AUTO 00000KT 2 1/2SM 07/03 A3006 RMK T00700030 IEM_DS3505
ZBAA,1990-11-12 14:00,ZBAA 121400Z AUTO 11002KT 2 1/2SM A3006 RMK IEM_DS3505
ZBAA,1990-11-12 15:00,ZBAA 121500Z AUTO 36002KT 5SM 07/03 A3006 RMK SLP192 T00660033 52001 IEM_DS3505
ZBAA,1990-11-12 16:00,ZBAA 121600Z AUTO 11004KT 3SM 07/02 A3006 RMK T00700020 IEM_DS3505
ZBAA,1990-11-12 18:00,ZBAA 121800Z AUTO 04004KT 4SM 07/03 RMK SLP190 T00730027 40185//// 57001 IEM_DS3505
ZBAA,1990-11-12 20:00,ZBAA 122000Z AUTO 00000KT 2SM 03/00 A3003 RMK T00300000 IEM_DS3505
ZBAA,1990-11-12 21:00,ZBAA 122100Z AUTO 34002KT 6SM 03/01 A3003 RMK SLP188 T00290010 57003 IEM_DS3505
ZBAA,1990-11-12 22:00,ZBAA 122200Z AUTO 00000KT 1 1/2SM 02/M01 A3003 RMK T00201010 IEM_DS3505
ZBAA,1990-11-12 23:00,ZBAA 122300Z AUTO 00000KT 1SM 02/00 A3006 RMK T00200000 IEM_DS3505
ZBAA,1990-11-13 00:00,ZBAA 130000Z AUTO 00000KT 2SM 03/01 A3006 RMK SLP198 T00290013 52009 IEM_DS3505
ZBAA,1990-11-13 01:00,ZBAA 130100Z AUTO 00000KT 1 1/2SM 06/02 A3009 RMK T00600020 IEM_DS3505
ZBAA,1990-11-13 02:00,ZBAA 130200Z AUTO 00000KT 2 1/2SM 08/03 A3006 RMK T00800030 IEM_DS3505
ZBAA,1990-11-13 03:00,ZBAA 130300Z AUTO 20002KT 1 1/2SM 12/03 A3006 RMK SLP196 T01250027 57001 IEM_DS3505
ZBAA,1990-11-13 04:00,ZBAA 130400Z AUTO 13002KT 2 1/2SM 14/05 A3003 RMK T01400050 IEM_DS3505
ZBAA,1990-11-13 05:00,ZBAA 130500Z AUTO 13002KT 2 1/2SM 15/06 A3003 RMK T01500060 IEM_DS3505
ZBAA,1990-11-13 06:00,ZBAA 130600Z AUTO 20004KT 1 1/2SM 17/05 A3000 RMK SLP181 T01690050 4////0018 57014 IEM_DS3505
ZBAA,1990-11-13 07:00,ZBAA 130700Z AUTO 16004KT 2SM 16/06 A3000 RMK T01600060 IEM_DS3505
ZBAA,1990-11-13 08:00,ZBAA 130800Z AUTO 16004KT 1 1/2SM 14/07 A3003 RMK T01400070 IEM_DS3505
ZBAA,1990-11-13 09:00,ZBAA 130900Z AUTO 20004KT 2SM 14/06 A3003 RMK T01430059 52006 IEM_DS3505
ZBAA,1990-11-13 10:00,ZBAA 131000Z AUTO 09002KT 2SM 09/06 A3006 RMK T00900060 IEM_DS3505
ZBAA,1990-11-13 11:00,ZBAA 131100Z AUTO 09004KT 1 1/2SM 07/06 A3009 RMK T00700060 IEM_DS3505
ZBAA,1990-11-13 12:00,ZBAA 131200Z AUTO 00000KT 2SM 10/07 A3009 RMK SLP206 T00960068 52017 IEM_DS3505
ZBAA,1990-11-13 13:00,ZBAA 131300Z AUTO 00000KT 1SM 06/04 A3012 RMK T00600040 IEM_DS3505
ZBAA,1990-11-13 14:00,ZBAA 131400Z AUTO 00000KT 1SM 05/04 A3012 RMK T00500040 IEM_DS3505
ZBAA,1990-11-13 15:00,ZBAA 131500Z AUTO 00000KT 1SM 06/05 A3012 RMK SLP207 T00620048 52002 IEM_DS3505
ZBAA,1990-11-13 18:00,ZBAA 131800Z AUTO 00000KT 1/2SM 05/04 RMK SLP204 T00470037 40185//// 57003 IEM_DS3505
ZBAA,1990-11-13 20:00,ZBAA 132000Z AUTO 00000KT 0SM 00/00 A3009 RMK T00000000 IEM_DS3505
ZBAA,1990-11-13 21:00,ZBAA 132100Z AUTO 00000KT 1SM 04/03 RMK SLP201 T00350027 57003 IEM_DS3505
ZBAA,1990-11-13 22:00,ZBAA 132200Z AUTO 10006KT 0SM 01/01 A3012 RMK T00100010 IEM_DS3505
ZBAA,1990-11-13 23:00,ZBAA 132300Z AUTO 12006KT 1/8SM 02/M03 A3021 RMK T00201030 IEM_DS3505
ZBAA,1990-11-14 00:00,ZBAA 140000Z AUTO 34002KT 3/8SM 04/04 RMK SLP227 T00450035 52025 IEM_DS3505
ZBAA,1990-11-14 01:00,ZBAA 140100Z AUTO ////04KT 1SM A3021 RMK IEM_DS3505
ZBAA,1990-11-14 02:00,ZBAA 140200Z AUTO 31004KT 2 1/2SM 07/06 A3021 RMK T00700060 IEM_DS3505
ZBAA,1990-11-14 03:00,ZBAA 140300Z AUTO 36004KT 2SM 10/04 A3021 RMK SLP238 T00960039 52011 IEM_DS3505
ZBAA,1990-11-14 04:00,ZBAA 140400Z AUTO 24002KT 7SM 12/02 A3018 RMK T01200020 IEM_DS3505
ZBAA,1990-11-14 05:00,ZBAA 140500Z AUTO 20002KT 6SM 13/02 A3015 RMK T01300020 IEM_DS3505
ZBAA,1990-11-14 06:00,ZBAA 140600Z AUTO 18004KT 4SM 12/02 A3015 RMK SLP221 T01240025 4////0026 57017 IEM_DS3505
ZBAA,1990-11-14 07:00,ZBAA 140700Z AUTO 14004KT 6SM 13/02 A3015 RMK T01300020 IEM_DS3505
ZBAA,1990-11-14 08:00,ZBAA 140800Z AUTO 18004KT 6SM 12/02 A3015 RMK T01200020 IEM_DS3505
ZBAA,1990-11-14 09:00,ZBAA 140900Z AUTO 20004KT 1 1/2SM 12/04 A3018 RMK SLP232 T01150039 52010 IEM_DS3505
ZBAA,1990-11-14 10:00,ZBAA 141000Z AUTO 00000KT 6SM 10/03 A3021 RMK T01000030 IEM_DS3505
ZBAA,1990-11-14 12:00,ZBAA 141200Z AUTO 00000KT 2SM 07/04 A3024 RMK SLP251 T00700042 52019 IEM_DS3505
ZBAA,1990-11-14 13:00,ZBAA 141300Z AUTO 00000KT 4SM 07/03 A3027 RMK T00700030 IEM_DS3505
ZBAA,1990-11-14 14:00,ZBAA 141400Z AUTO 16004KT 4SM 08/03 A3030 RMK T00800030 IEM_DS3505
ZBAA,1990-11-14 15:00,ZBAA 141500Z AUTO 18006KT 4SM 08/03 A3030 RMK SLP270 T00830034 52019 IEM_DS3505
ZBAA,1990-11-14 16:00,ZBAA 141600Z AUTO 19004KT 5SM 06/02 A3030 RMK T00600020 IEM_DS3505
ZBAA,1990-11-14 18:00,ZBAA 141800Z AUTO 20006KT 6SM 07/M01 RMK SLP272 T00731009 40126//// 52002 IEM_DS3505
ZBAA,1990-11-14 21:00,ZBAA 142100Z AUTO 18006KT 7SM 07/M03 A3030 RMK SLP268 T00681030 57004 IEM_DS3505
ZBAA,1990-11-14 22:00,ZBAA 142200Z AUTO 18004KT 7SM 05/M02 A3030 RMK T00501020 IEM_DS3505
ZBAA,1990-11-14 23:00,ZBAA 142300Z AUTO 19002KT 7SM 04/M02 A3030 RMK T00401020 IEM_DS3505
ZBAA,1990-11-15 00:00,ZBAA 150000Z AUTO 22002KT 6SM 06/M05 RMK SLP273 T00621047 52005 IEM_DS3505
ZBAA,1990-11-15 01:00,ZBAA 150100Z AUTO 20002KT 7SM 06/M03 A3033 RMK T00601030 IEM_DS3505
ZBAA,1990-11-15 02:00,ZBAA 150200Z AUTO ////06KT 7SM 08/M04 A3030 RMK T00801040 IEM_DS3505
ZBAA,1990-11-15 03:00,ZBAA 150300Z AUTO 16002KT 5SM 10/M02 A3030 RMK SLP264 T00971022 57009 IEM_DS3505
ZBAA,1990-11-15 04:00,ZBAA 150400Z AUTO ////04KT 7SM 11/M01 A3024 RMK T01101010 IEM_DS3505
ZBAA,1990-11-15 05:00,ZBAA 150500Z AUTO ////06KT 7SM 12/01 A3021 RMK T01200010 IEM_DS3505
ZBAA,1990-11-15 06:00,ZBAA 150600Z AUTO 22006KT 6SM 12/03 A3015 RMK SLP223 T01240028 4////0058 57040 IEM_DS3505
ZBAA,1990-11-15 07:00,ZBAA 150700Z AUTO 17006KT 7SM 12/03 A3015 RMK T01200030 IEM_DS3505
ZBAA,1990-11-15 08:00,ZBAA 150800Z AUTO ////06KT 7SM 12/03 A3012 RMK T01200030 IEM_DS3505
ZBAA,1990-11-15 09:00,ZBAA 150900Z AUTO 18004KT 6SM 11/04 A3012 RMK SLP215 T01120035 57008 IEM_DS3505
ZBAA,1990-11-15 10:00,ZBAA 151000Z AUTO 00000KT 7SM 08/03 A3012 RMK T00800030 IEM_DS3505
ZBAA,1990-11-15 11:00,ZBAA 151100Z AUTO 03002KT 7SM 06/01 A3015 RMK T00600010 IEM_DS3505
ZBAA,1990-11-15 12:00,ZBAA 151200Z AUTO 00000KT 6SM 07/03 RMK SLP217 T00670028 52002 IEM_DS3505
ZBAA,1990-11-15 13:00,ZBAA 151300Z AUTO 10004KT 4SM 07/04 A3015 RMK T00700040 IEM_DS3505
ZBAA,1990-11-15 14:00,ZBAA 151400Z AUTO 11004KT 4SM 07/04 A3015 RMK T00700040 IEM_DS3505
ZBAA,1990-11-15 15:00,ZBAA 151500Z AUTO 00000KT 4SM 05/02 RMK SLP215 T00490024 57002 IEM_DS3505
ZBAA,1990-11-15 18:00,ZBAA 151800Z AUTO 02002KT 3SM 05/03 RMK SLP214 T00490032 40128//// 57001 IEM_DS3505
ZBAA,1990-11-15 20:00,ZBAA 152000Z AUTO 13002KT 2SM 06/05 A3009 RMK T00600050 IEM_DS3505
ZBAA,1990-11-15 21:00,ZBAA 152100Z AUTO 04002KT 3SM 07/04 A3009 RMK SLP206 T00730040 57007 IEM_DS3505
ZBAA,1990-11-15 23:00,ZBAA 152300Z AUTO 00000KT 2SM 07/05 A3012 RMK T00700050 IEM_DS3505
ZBAA,1990-11-16 00:00,ZBAA 160000Z AUTO 04002KT 2SM 06/04 A3015 RMK SLP218 T00650044 52011 IEM_DS3505
ZBAA,1990-11-16 01:00,ZBAA 160100Z AUTO 00000KT 2SM 08/06 A3018 RMK T00800060 IEM_DS3505
ZBAA,1990-11-16 02:00,ZBAA 160200Z AUTO 00000KT 2 1/2SM 09/06 A3018 RMK T00900060 IEM_DS3505
ZBAA,1990-11-16 03:00,ZBAA 160300Z AUTO 34002KT 3SM 10/05 A3018 RMK SLP231 T01030052 52013 IEM_DS3505
ZBAA,1990-11-16 04:00,ZBAA 160400Z AUTO 12002KT 4SM 11/06 A3018 RMK T01100060 IEM_DS3505
ZBAA,1990-11-16 05:00,ZBAA 160500Z AUTO 12004KT 3SM 12/06 A3018 RMK T01200060 IEM_DS3505
ZBAA,1990-11-16 06:00,ZBAA 160600Z AUTO 09004KT 4SM 12/05 A3018 RMK SLP224 T01210049 57007 IEM_DS3505
ZBAA,1990-11-16 07:00,ZBAA 160700Z AUTO 06002KT 5SM 12/06 A3018 RMK T01200060 IEM_DS3505
ZBAA,1990-11-16 08:00,ZBAA 160800Z AUTO 10002KT 5SM 12/05 A3018 RMK T01200050 IEM_DS3505
ZBAA,1990-11-16 09:00,ZBAA 160900Z AUTO 04004KT 4SM 11/05 A3021 RMK SLP240 T01130049 52016 IEM_DS3505
ZBAA,1990-11-16 10:00,ZBAA 161000Z AUTO 10002KT 4SM 09/06 A3021 RMK T00900060 IEM_DS3505
ZBAA,1990-11-16 11:00,ZBAA 161100Z AUTO 00000KT 4SM 09/06 A3024 RMK T00900060 IEM_DS3505
ZBAA,1990-11-16 12:00,ZBAA 161200Z AUTO 36002KT 3SM 10/06 A3024 RMK SLP254 T00950058 IEM_DS3505
ZBAA,1990-11-16 13:00,ZBAA 161300Z AUTO 00000KT 4SM 10/05 A3027 RMK T01000050 IEM_DS3505
ZBAA,1990-11-16 14:00,ZBAA 161400Z AUTO 16004KT 6SM 11/03 A3030 RMK T01100030 IEM_DS3505
ZBAA,1990-11-16 15:00,ZBAA 161500Z AUTO 20004KT 4SM 11/03 RMK SLP274 T01110033 52021 IEM_DS3505
ZBAA,1990-11-16 16:00,ZBAA 161600Z AUTO 19002KT 6SM 10/05 A3033 RMK T01000050 IEM_DS3505
ZBAA,1990-11-16 18:00,ZBAA 161800Z AUTO 20006KT 9SM 10/02 RMK P0047 60047 SLP274 T01020024 54000 IEM_DS3505
ZBAA,1990-11-16 20:00,ZBAA 162000Z AUTO 19004KT 6SM 09/03 A3030 RMK T00900030 IEM_DS3505
ZBAA,1990-11-16 21:00,ZBAA 162100Z AUTO 20004KT 12SM 09/02 RMK SLP267 T00940025 57007 IEM_DS3505
ZBAA,1990-11-16 22:00,ZBAA 162200Z AUTO 19002KT 6SM 09/03 A3030 RMK T00900030 IEM_DS3505
ZBAA,1990-11-16 23:00,ZBAA 162300Z AUTO 19004KT 6SM 09/03 A3030 RMK T00900030 IEM_DS3505
ZBAA,1990-11-17 00:00,ZBAA 170000Z AUTO 20006KT 6SM 09/01 A3030 RMK SLP271 T00920014 52003 IEM_DS3505
ZBAA,1990-11-17 01:00,ZBAA 170100Z AUTO 19004KT 6SM 09/03 A3033 RMK T00900030 IEM_DS3505
ZBAA,1990-11-17 02:00,ZBAA 170200Z AUTO 19006KT 6SM 10/02 A3030 RMK T01000020 IEM_DS3505
ZBAA,1990-11-17 03:00,ZBAA 170300Z AUTO 20006KT 5SM 10/M01 A3030 RMK SLP267 T00971011 57003 IEM_DS3505
ZBAA,1990-11-17 04:00,ZBAA 170400Z AUTO ////04KT 6SM 11/01 A3027 RMK T01100010 IEM_DS3505
ZBAA,1990-11-17 05:00,ZBAA 170500Z AUTO 17006KT 6SM 10/00 A3024 RMK T01000000 IEM_DS3505
ZBAA,1990-11-17 06:00,ZBAA 170600Z AUTO 18010KT 7SM 11/01 A3021 RMK SLP240 T01100010 4////0088 57027 IEM_DS3505
ZBAA,1990-11-17 07:00,ZBAA 170700Z AUTO ////06KT 6SM 11/00 A3021 RMK T01100000 IEM_DS3505
ZBAA,1990-11-17 08:00,ZBAA 170800Z AUTO 16004KT 6SM 10/00 A3018 RMK T01000000 IEM_DS3505
ZBAA,1990-11-17 09:00,ZBAA 170900Z AUTO 20006KT 9SM 09/M00 A3018 RMK SLP233 T00911003 57007 IEM_DS3505
ZBAA,1990-11-17 10:00,ZBAA 171000Z AUTO 16002KT 6SM 08/00 A3018 RMK T00800000 IEM_DS3505
ZBAA,1990-11-17 11:00,ZBAA 171100Z AUTO 18002KT 6SM 08/00 A3021 RMK T00800000 IEM_DS3505
ZBAA,1990-11-17 12:00,ZBAA 171200Z AUTO 20004KT 5SM 07/00 A3021 RMK SLP243 T00730004 52009 IEM_DS3505
ZBAA,1990-11-17 13:00,ZBAA 171300Z AUTO 00000KT 5SM 06/00 RMK T00600000 IEM_DS3505
ZBAA,1990-11-17 14:00,ZBAA 171400Z AUTO 00000KT 5SM 06/01 A3024 RMK T00600010 IEM_DS3505
ZBAA,1990-11-17 15:00,ZBAA 171500Z AUTO 00000KT 2 1/2SM 06/01 A3024 RMK SLP246 T00650012 52003 IEM_DS3505
ZBAA,1990-11-17 16:00,ZBAA 171600Z AUTO 00000KT 4SM 05/01 A3024 RMK T00500010 IEM_DS3505
ZBAA,1990-11-17 18:00,ZBAA 171800Z AUTO 36002KT 2SM 05/01 RMK SLP248 T00470014 40107//// 52002 IEM_DS3505
ZBAA,1990-11-17 20:00,ZBAA 172000Z AUTO 33002KT 4SM 04/01 A3021 RMK T00400010 IEM_DS3505
ZBAA,1990-11-17 21:00,ZBAA 172100Z AUTO 00000KT 2 1/2SM 04/01 A3021 RMK SLP241 T00390013 57007 IEM_DS3505
ZBAA,1990-11-17 22:00,ZBAA 172200Z AUTO 34002KT 4SM 04/01 A3021 RMK T00400010 IEM_DS3505
ZBAA,1990-11-17 23:00,ZBAA 172300Z AUTO ////02KT 4SM 04/01 A3021 RMK T00400010 IEM_DS3505
ZBAA,1990-11-18 00:00,ZBAA 180000Z AUTO 00000KT 2SM 04/02 A3024 RMK SLP249 T00360015 52007 IEM_DS3505
ZBAA,1990-11-18 01:00,ZBAA 180100Z AUTO 12002KT 6SM 07/02 A3027 RMK T00700020 IEM_DS3505
ZBAA,1990-11-18 02:00,ZBAA 180200Z AUTO 19002KT 6SM 07/02 A3027 RMK T00700020 IEM_DS3505
ZBAA,1990-11-18 03:00,ZBAA 180300Z AUTO 36004KT 1 1/4SM 09/02 A3027 RMK SLP255 T00900020 52007 IEM_DS3505
ZBAA,1990-11-18 04:00,ZBAA 180400Z AUTO 06004KT 6SM 09/02 A3024 RMK T00900020 IEM_DS3505
ZBAA,1990-11-18 05:00,ZBAA 180500Z AUTO 05004KT 6SM 10/03 A3021 RMK T01000030 IEM_DS3505
ZBAA,1990-11-18 06:00,ZBAA 180600Z AUTO 07006KT 4SM 10/02 A3021 RMK SLP240 T01040018 4////0027 57015 IEM_DS3505
ZBAA,1990-11-18 07:00,ZBAA 180700Z AUTO 13002KT 6SM 11/02 A3021 RMK T01100020 IEM_DS3505
ZBAA,1990-11-18 08:00,ZBAA 180800Z AUTO 16002KT 6SM 10/02 A3021 RMK T01000020 IEM_DS3505
ZBAA,1990-11-18 09:00,ZBAA 180900Z AUTO 00000KT 2 1/2SM 10/03 A3018 RMK SLP238 T00960028 IEM_DS3505
ZBAA,1990-11-18 10:00,ZBAA 181000Z AUTO 16002KT 5SM 08/01 A3021 RMK T00800010 IEM_DS3505
ZBAA,1990-11-18 11:00,ZBAA 181100Z AUTO 00000KT 5SM 06/02 A3021 RMK T00600020 IEM_DS3505
ZBAA,1990-11-18 12:00,ZBAA 181200Z AUTO 00000KT 2SM 06/03 A3021 RMK SLP242 T00570030 52004 IEM_DS3505
ZBAA,1990-11-18 13:00,ZBAA 181300Z AUTO 16002KT 4SM 05/02 A3021 RMK T00500020 IEM_DS3505
ZBAA,1990-11-18 14:00,ZBAA 181400Z AUTO 16002KT 5SM 05/02 A3024 RMK T00500020 IEM_DS3505
ZBAA,1990-11-18 15:00,ZBAA 181500Z AUTO 00000KT 1 1/4SM 05/03 A3024 RMK SLP243 T00470030 52002 IEM_DS3505
ZBAA,1990-11-18 18:00,ZBAA 181800Z AUTO 00000KT 3SM 05/02 RMK SLP234 T00470022 40107//// 57009 IEM_DS3505
ZBAA,1990-11-18 21:00,ZBAA 182100Z AUTO 34002KT 1 1/4SM 04/02 A3015 RMK SLP218 T00370019 57016 IEM_DS3505
ZBAA,1990-11-18 22:00,ZBAA 182200Z AUTO 33004KT 3SM 03/01 A3012 RMK T00300010 IEM_DS3505
ZBAA,1990-11-18 23:00,ZBAA 182300Z AUTO 23002KT 2 1/2SM 03/01 A3015 RMK T00300010 IEM_DS3505
ZBAA,1990-11-19 00:00,ZBAA 190000Z AUTO 00000KT 1 1/4SM 05/02 A3015 RMK SLP220 T00470025 52002 IEM_DS3505
ZBAA,1990-11-19 01:00,ZBAA 190100Z AUTO 00000KT 2SM RMK IEM_DS3505
ZBAA,1990-11-19 02:00,ZBAA 190200Z AUTO 00000KT 2SM 05/02 A3018 RMK T00500020 IEM_DS3505
ZBAA,1990-11-19 03:00,ZBAA 190300Z AUTO 32002KT 1SM 08/03 A3018 RMK SLP227 T00830034 52007 IEM_DS3505
ZBAA,1990-11-19 04:00,ZBAA 190400Z AUTO 30002KT 2 1/2SM 08/04 A3015 RMK T00800040 IEM_DS3505
ZBAA,1990-11-19 05:00,ZBAA 190500Z AUTO 00000KT 2 1/2SM 09/04 A3012 RMK T00900040 IEM_DS3505
ZBAA,1990-11-19 06:00,ZBAA 190600Z AUTO 18006KT 1SM 12/03 A3012 RMK SLP213 T01150033 4////0032 57014 IEM_DS3505
ZBAA,1990-11-19 07:00,ZBAA 190700Z AUTO 35002KT 2 1/2SM 11/04 A3012 RMK T01100040 IEM_DS3505
ZBAA,1990-11-19 08:00,ZBAA 190800Z AUTO 31002KT 2 1/2SM 12/04 A3015 RMK T01200040 IEM_DS3505
ZBAA,1990-11-19 09:00,ZBAA 190900Z AUTO 34010G23KT 9SM 13/ A3018 RMK SLP243 52030 IEM_DS3505
ZBAA,1990-11-19 10:00,ZBAA 191000Z AUTO 33014KT 6SM 11/M02 A3027 RMK T01101020 IEM_DS3505
ZBAA,1990-11-19 11:00,ZBAA 191100Z AUTO 34016G25KT 6SM 10/M16 A3033 RMK T01001160 IEM_DS3505
ZBAA,1990-11-19 12:00,ZBAA 191200Z AUTO 04008G25KT 12SM 08/M20 A3039 RMK SLP305 T00781197 52061 IEM_DS3505
ZBAA,1990-11-19 13:00,ZBAA 191300Z AUTO 33017G29KT 6SM 05/ A3042 RMK IEM_DS3505
ZBAA,1990-11-19 14:00,ZBAA 191400Z AUTO 32017G29KT 6SM RMK IEM_DS3505
ZBAA,1990-11-19 15:00,ZBAA 191500Z AUTO 02006KT 16SM 04/M21 RMK SLP347 T00351210 52042 IEM_DS3505
ZBAA,1990-11-19 18:00,ZBAA 191800Z AUTO 36012KT 19SM 00/M26 RMK SLP379 T00051259 40138//// 52028 IEM_DS3505
ZBAA,1990-11-19 20:00,ZBAA 192000Z AUTO 32017G29KT 7SM M01/M24 A3065 RMK T10101240 IEM_DS3505
ZBAA,1990-11-19 21:00,ZBAA 192100Z AUTO 36012G29KT 19SM M02/ A3065 RMK SLP389 52014 IEM_DS3505
ZBAA,1990-11-19 22:00,ZBAA 192200Z AUTO 32016G27KT 7SM M02/M24 A3071 RMK T10201240 IEM_DS3505
ZBAA,1990-11-19 23:00,ZBAA 192300Z AUTO 32016G27KT 7SM M02/M25 A3074 RMK T10201250 IEM_DS3505
ZBAA,1990-11-20 00:00,ZBAA 200000Z AUTO 02012KT 12SM M03/M25 RMK SLP423 T10291252 52033 IEM_DS3505
ZBAA,1990-11-20 01:00,ZBAA 200100Z AUTO 32012G23KT 7SM M01/M23 A3077 RMK T10101230 IEM_DS3505
ZBAA,1990-11-20 02:00,ZBAA 200200Z AUTO 32014G27KT 7SM 00/M23 RMK T00001230 IEM_DS3505
ZBAA,1990-11-20 03:00,ZBAA 200300Z AUTO 36008KT 19SM 00/ A3077 RMK SLP428 52004 IEM_DS3505
ZBAA,1990-11-20 04:00,ZBAA 200400Z AUTO 33016KT 7SM 02/M23 A3074 RMK T00201230 IEM_DS3505
ZBAA,1990-11-20 06:00,ZBAA 200600Z AUTO 34008KT 19SM 03/M31 A3068 RMK SLP400 T00301313 4////1035 57027 IEM_DS3505
ZBAA,1990-11-20 07:00,ZBAA 200700Z AUTO 28012KT 7SM 03/M21 A3068 RMK T00301210 IEM_DS3505
ZBAA,1990-11-20 08:00,ZBAA 200800Z AUTO 28010KT 7SM A3065 RMK IEM_DS3505
ZBAA,1990-11-20 09:00,ZBAA 200900Z AUTO 27006KT 19SM 02/M28 A3065 RMK SLP398 T00211284 57003 IEM_DS3505
ZBAA,1990-11-20 10:00,ZBAA 201000Z AUTO ////06KT 7SM 00/M20 A3068 RMK T00001200 IEM_DS3505
ZBAA,1990-11-20 11:00,ZBAA 201100Z AUTO 27008KT 7SM 01/M20 A3068 RMK T00101200 IEM_DS3505
ZBAA,1990-11-20 12:00,ZBAA 201200Z AUTO 20004KT 12SM 00/M20 A3068 RMK SLP401 T00001203 52003 IEM_DS3505
ZBAA,1990-11-20 13:00,ZBAA 201300Z AUTO 26004KT 7SM 00/M20 A3068 RMK T00001200 IEM_DS3505
ZBAA,1990-11-20 15:00,ZBAA 201500Z AUTO 00000KT 9SM M02/M13 RMK SLP397 T10241133 57004 IEM_DS3505
ZBAA,1990-11-20 18:00,ZBAA 201800Z AUTO 22002KT 11SM M02/M13 RMK SLP393 T10231129 57004 IEM_DS3505
ZBAA,1990-11-20 21:00,ZBAA 202100Z AUTO 20002KT 9SM M06/M12 A3059 RMK SLP368 T10571115 57025 IEM_DS3505
ZBAA,1990-11-20 22:00,ZBAA 202200Z AUTO 00000KT 7SM M04/M19 A3059 RMK T10401190 IEM_DS3505
ZBAA,1990-11-20 23:00,ZBAA 202300Z AUTO 00000KT 7SM M05/M17 A3056 RMK T10501170 IEM_DS3505
ZBAA,1990-11-21 00:00,ZBAA 210000Z AUTO 20004KT 6SM M05/M11 A3056 RMK SLP355 T10471106 57013 IEM_DS3505
ZBAA,1990-11-21 01:00,ZBAA 210100Z AUTO ////02KT 7SM 00/M15 A3056 RMK T00001150 IEM_DS3505
ZBAA,1990-11-21 02:00,ZBAA 210200Z AUTO 29004KT 7SM 04/M16 A3053 RMK T00401160 IEM_DS3505
ZBAA,1990-11-21 03:00,ZBAA 210300Z AUTO 22004KT 5SM 06/M18 A3050 RMK SLP337 T00551180 57017 IEM_DS3505
ZBAA,1990-11-21 04:00,ZBAA 210400Z AUTO ////06KT 7SM 07/M18 A3047 RMK T00701180 IEM_DS3505
ZBAA,1990-11-21 05:00,ZBAA 210500Z AUTO 21004KT 7SM 08/M16 RMK T00801160 IEM_DS3505
ZBAA,1990-11-21 06:00,ZBAA 210600Z AUTO 18006KT 6SM 08/M17 A3039 RMK SLP293 T00821170 4////1067 57043 IEM_DS3505
ZBAA,1990-11-21 07:00,ZBAA 210700Z AUTO ////04KT 7SM 08/M15 A3033 RMK T00801150 IEM_DS3505
ZBAA,1990-11-21 08:00,ZBAA 210800Z AUTO ////06KT 7SM 08/M13 A3033 RMK T00801130 IEM_DS3505
ZBAA,1990-11-21 09:00,ZBAA 210900Z AUTO 18004KT 6SM 06/M13 A3030 RMK SLP275 T00631129 57019 IEM_DS3505
ZBAA,1990-11-21 10:00,ZBAA 211000Z AUTO ////04KT 7SM 04/M13 A3030 RMK T00401130 IEM_DS3505
ZBAA,1990-11-21 11:00,ZBAA 211100Z AUTO 20002KT 7SM 03/M12 A3030 RMK T00301120 IEM_DS3505
ZBAA,1990-11-21 12:00,ZBAA 211200Z AUTO 18008KT 9SM 04/M12 A3030 RMK SLP266 T00441115 57009 IEM_DS3505
ZBAA,1990-11-21 13:00,ZBAA 211300Z AUTO 21004KT 7SM 02/M11 A3027 RMK T00201110 IEM_DS3505
ZBAA,1990-11-21 14:00,ZBAA 211400Z AUTO 21006KT 7SM 02/M10 A3027 RMK T00201100 IEM_DS3505
ZBAA,1990-11-21 15:00,ZBAA 211500Z AUTO 16002KT 9SM 02/M08 A3027 RMK SLP258 T00171084 57007 IEM_DS3505
ZBAA,1990-11-21 18:00,ZBAA 211800Z AUTO 09002KT 9SM M00/M08 RMK SLP258 T10051076 40089//// 54000 IEM_DS3505
ZBAA,1990-11-21 20:00,ZBAA 212000Z AUTO 27004KT 7SM 04/M18 A3027 RMK T00401180 IEM_DS3505
ZBAA,1990-11-21 21:00,ZBAA 212100Z AUTO 04002KT 9SM M01/ A3027 RMK SLP258 54000 IEM_DS3505
ZBAA,1990-11-21 22:00,ZBAA 212200Z AUTO 31012KT 7SM 06/M19 A3027 RMK T00601190 IEM_DS3505
ZBAA,1990-11-21 23:00,ZBAA 212300Z AUTO 31012KT 7SM 07/M19 A3030 RMK T00701190 IEM_DS3505
ZBAA,1990-11-22 00:00,ZBAA 220000Z AUTO 04006KT 12SM 05/M13 A3033 RMK SLP275 T00481132 52017 IEM_DS3505
ZBAA,1990-11-22 01:00,ZBAA 220100Z AUTO 33008KT 7SM 09/M17 A3036 RMK T00901170 IEM_DS3505
ZBAA,1990-11-22 02:00,ZBAA 220200Z AUTO 00000KT 7SM 10/M16 A3036 RMK T01001160 IEM_DS3505
ZBAA,1990-11-22 03:00,ZBAA 220300Z AUTO 36008KT 19SM 11/M21 A3036 RMK SLP282 T01141209 52008 IEM_DS3505
ZBAA,1990-11-22 04:00,ZBAA 220400Z AUTO 33012KT 7SM 13/M15 A3033 RMK T01301150 IEM_DS3505
ZBAA,1990-11-22 06:00,ZBAA 220600Z AUTO 36006KT 19SM 15/M18 A3030 RMK SLP267 T01471185 4////1030 57015 IEM_DS3505
ZBAA,1990-11-22 07:00,ZBAA 220700Z AUTO 32008KT 7SM 14/M14 A3030 RMK T01401140 IEM_DS3505
ZBAA,1990-11-22 08:00,ZBAA 220800Z AUTO 34006KT 7SM 14/M15 A3033 RMK T01401150 IEM_DS3505
ZBAA,1990-11-22 09:00,ZBAA 220900Z AUTO 20002KT 12SM 11/M12 A3036 RMK SLP282 T01131118 52014 IEM_DS3505
ZBAA,1990-11-22 10:00,ZBAA 221000Z AUTO 20004KT 7SM 08/M11 A3036 RMK T00801110 IEM_DS3505
ZBAA,1990-11-22 11:00,ZBAA 221100Z AUTO 00000KT 7SM 07/M12 A3039 RMK T00701120 IEM_DS3505
ZBAA,1990-11-22 12:00,ZBAA 221200Z AUTO 25002KT 11SM 07/M05 A3039 RMK SLP296 T00721052 52014 IEM_DS3505
ZBAA,1990-11-22 13:00,ZBAA 221300Z AUTO 27002KT 7SM 04/M11 A3042 RMK T00401110 IEM_DS3505
ZBAA,1990-11-22 14:00,ZBAA 221400Z AUTO 23002KT 7SM 04/M10 A3042 RMK T00401100 IEM_DS3505
ZBAA,1990-11-22 15:00,ZBAA 221500Z AUTO 00000KT 7SM 03/M05 A3042 RMK SLP299 T00281054 52004 IEM_DS3505
ZBAA,1990-11-22 18:00,ZBAA 221800Z AUTO 32002KT 4SM 01/M06 RMK SLP303 T00131063 40150//// 52004 IEM_DS3505
ZBAA,1990-11-22 20:00,ZBAA 222000Z AUTO 31002KT 7SM 00/M08 A3042 RMK T00001080 IEM_DS3505
ZBAA,1990-11-22 21:00,ZBAA 222100Z AUTO 00000KT 5SM M01/M06 A3042 RMK SLP304 T10091064 54000 IEM_DS3505
ZBAA,1990-11-22 22:00,ZBAA 222200Z AUTO 01002KT 7SM 00/M08 A3042 RMK T00001080 IEM_DS3505
ZBAA,1990-11-22 23:00,ZBAA 222300Z AUTO 01002KT 6SM 00/M08 A3042 RMK T00001080 IEM_DS3505
ZBAA,1990-11-23 00:00,ZBAA 230000Z AUTO 02002KT 2 1/2SM M01/M06 A3045 RMK SLP312 T10111055 52007 IEM_DS3505
ZBAA,1990-11-23 02:00,ZBAA 230200Z AUTO ////02KT 6SM 07/M06 A3045 RMK T00701060 IEM_DS3505
ZBAA,1990-11-23 03:00,ZBAA 230300Z AUTO 02006KT 4SM 09/M08 A3042 RMK SLP308 T00901079 57003 IEM_DS3505
ZBAA,1990-11-23 04:00,ZBAA 230400Z AUTO 10004KT 7SM 11/M08 A3039 RMK T01101080 IEM_DS3505
ZBAA,1990-11-23 05:00,ZBAA 230500Z AUTO 11004KT 7SM 12/M07 A3036 RMK T01201070 IEM_DS3505
ZBAA,1990-11-23 06:00,ZBAA 230600Z AUTO 36002KT 2SM 12/M06 A3033 RMK SLP278 T01201060 57029 IEM_DS3505
ZBAA,1990-11-23 07:00,ZBAA 230700Z AUTO 13004KT 7SM 12/M06 A3033 RMK T01201060 IEM_DS3505
ZBAA,1990-11-23 08:00,ZBAA 230800Z AUTO 17004KT 6SM 11/M06 A3033 RMK T01101060 IEM_DS3505
ZBAA,1990-11-23 09:00,ZBAA 230900Z AUTO 00000KT 2SM 09/M03 A3033 RMK SLP275 T00931029 57004 IEM_DS3505
ZBAA,1990-11-23 10:00,ZBAA 231000Z AUTO 00000KT 5SM 07/M05 A3033 RMK T00701050 IEM_DS3505
ZBAA,1990-11-23 11:00,ZBAA 231100Z AUTO 00000KT 5SM 07/M04 A3033 RMK T00701040 IEM_DS3505
ZBAA,1990-11-23 12:00,ZBAA 231200Z AUTO 20004KT 2SM 08/M03 A3033 RMK SLP278 T00831029 52003 IEM_DS3505
ZBAA,1990-11-23 13:00,ZBAA 231300Z AUTO 00000KT 4SM 06/M04 A3033 RMK T00601040 IEM_DS3505
ZBAA,1990-11-23 15:00,ZBAA 231500Z AUTO 00000KT 2SM 08/M00 RMK SLP273 T00771003 57004 IEM_DS3505
ZBAA,1990-11-23 18:00,ZBAA 231800Z AUTO 00000KT 1 1/4SM 06/01 RMK SLP263 T00650006 40127//// 57010 IEM_DS3505
ZBAA,1990-11-23 20:00,ZBAA 232000Z AUTO 00000KT 5SM 05/M01 A3027 RMK T00501010 IEM_DS3505
ZBAA,1990-11-23 21:00,ZBAA 232100Z AUTO 17002KT 5SM 04/M01 A3027 RMK T00401010 IEM_DS3505
ZBAA,1990-11-23 22:00,ZBAA 232200Z AUTO 00000KT 6SM 04/M01 A3027 RMK T00401010 IEM_DS3505
ZBAA,1990-11-23 23:00,ZBAA 232300Z AUTO 00000KT 2SM 02/M02 A3027 RMK T00201020 IEM_DS3505
ZBAA,1990-11-24 00:00,ZBAA 240000Z AUTO 32002KT 1 1/2SM 03/M02 A3027 RMK SLP255 T00271016 52001 IEM_DS3505
ZBAA,1990-11-24 01:00,ZBAA 240100Z AUTO 00000KT 1SM 04/M01 A3027 RMK T00401010 IEM_DS3505
ZBAA,1990-11-24 02:00,ZBAA 240200Z AUTO 00000KT 1 1/4SM 06/00 A3027 RMK T00600000 IEM_DS3505
ZBAA,1990-11-24 03:00,ZBAA 240300Z AUTO 00000KT 1 1/4SM 08/M02 A3024 RMK SLP248 T00841017 57006 IEM_DS3505
ZBAA,1990-11-24 04:00,ZBAA 240400Z AUTO 00000KT 1 1/4SM 09/02 A3021 RMK T00900020 IEM_DS3505
ZBAA,1990-11-24 06:00,ZBAA 240600Z AUTO 32010KT 5SM 12/M02 A3018 RMK SLP231 T01221021 4////0022 57016 IEM_DS3505
ZBAA,1990-11-24 07:00,ZBAA 240700Z AUTO ////06KT 5SM 13/M02 A3018 RMK T01301020 IEM_DS3505
ZBAA,1990-11-24 08:00,ZBAA 240800Z AUTO 28008KT 7SM 12/M03 A3018 RMK T01201030 IEM_DS3505
ZBAA,1990-11-24 09:00,ZBAA 240900Z AUTO 32008KT 7SM 11/M04 A3021 RMK SLP238 T01111041 52006 IEM_DS3505
ZBAA,1990-11-24 10:00,ZBAA 241000Z AUTO ////06KT 7SM 09/M03 A3021 RMK T00901030 IEM_DS3505
ZBAA,1990-11-24 11:00,ZBAA 241100Z AUTO 28006KT 7SM 09/M04 A3021 RMK T00901040 IEM_DS3505
ZBAA,1990-11-24 12:00,ZBAA 241200Z AUTO 00000KT 12SM 07/M02 A3024 RMK SLP245 T00701016 52006 IEM_DS3505
ZBAA,1990-11-24 13:00,ZBAA 241300Z AUTO 26004KT 7SM 06/M04 A3024 RMK T00601040 IEM_DS3505
ZBAA,1990-11-24 14:00,ZBAA 241400Z AUTO 26004KT 7SM 05/M04 A3024 RMK T00501040 IEM_DS3505
ZBAA,1990-11-24 15:00,ZBAA 241500Z AUTO 20002KT 6SM 05/M01 RMK SLP247 T00471014 52003 IEM_DS3505
ZBAA,1990-11-24 18:00,ZBAA 241800Z AUTO 02004KT 6SM 07/M03 RMK SLP255 T00711029 40130//// 52008 IEM_DS3505
ZBAA,1990-11-24 20:00,ZBAA 242000Z AUTO 00000KT 7SM 01/M04 A3027 RMK T00101040 IEM_DS3505
ZBAA,1990-11-24 21:00,ZBAA 242100Z AUTO 07004KT 6SM 06/M04 RMK SLP260 T00561036 52005 IEM_DS3505
ZBAA,1990-11-24 22:00,ZBAA 242200Z AUTO ////04KT 7SM 03/M03 A3030 RMK T00301030 IEM_DS3505
ZBAA,1990-11-24 23:00,ZBAA 242300Z AUTO 34002KT 7SM 02/M04 A3030 RMK T00201040 IEM_DS3505
ZBAA,1990-11-25 00:00,ZBAA 250000Z AUTO 02004KT 6SM 05/M04 A3033 RMK SLP273 T00531045 52012 IEM_DS3505
ZBAA,1990-11-25 01:00,ZBAA 250100Z AUTO 01004KT 7SM 06/M02 A3033 RMK T00601020 IEM_DS3505
ZBAA,1990-11-25 02:00,ZBAA 250200Z AUTO ////04KT 7SM 09/M02 A3033 RMK T00901020 IEM_DS3505
ZBAA,1990-11-25 03:00,ZBAA 250300Z AUTO 36004KT 6SM 10/M05 A3033 RMK SLP277 T01021050 52005 IEM_DS3505
ZBAA,1990-11-25 04:00,ZBAA 250400Z AUTO ////06KT 7SM 12/M04 A3030 RMK T01201040 IEM_DS3505
ZBAA,1990-11-25 05:00,ZBAA 250500Z AUTO 01004KT 7SM 13/M04 A3027 RMK T01301040 IEM_DS3505
ZBAA,1990-11-25 06:00,ZBAA 250600Z AUTO 00000KT 5SM 14/M05 A3024 RMK SLP251 T01411048 57025 IEM_DS3505
ZBAA,1990-11-25 07:00,ZBAA 250700Z AUTO 20002KT 7SM 13/M06 A3024 RMK T01301060 IEM_DS3505
ZBAA,1990-11-25 08:00,ZBAA 250800Z AUTO 00000KT 7SM 12/M05 A3024 RMK T01201050 IEM_DS3505
ZBAA,1990-11-25 09:00,ZBAA 250900Z AUTO 20008KT 4SM 11/M03 A3024 RMK SLP254 T01071028 52002 IEM_DS3505
ZBAA,1990-11-25 10:00,ZBAA 251000Z AUTO 18002KT 6SM 09/M04 A3027 RMK T00901040 IEM_DS3505
ZBAA,1990-11-25 11:00,ZBAA 251100Z AUTO 09002KT 6SM 06/M04 A3030 RMK T00601040 IEM_DS3505
ZBAA,1990-11-25 12:00,ZBAA 251200Z AUTO 20006KT 5SM 08/M02 A3030 RMK SLP265 T00811018 52011 IEM_DS3505
ZBAA,1990-11-25 13:00,ZBAA 251300Z AUTO 19002KT 6SM 05/M03 A3030 RMK T00501030 IEM_DS3505
ZBAA,1990-11-25 15:00,ZBAA 251500Z AUTO 34002KT 7SM 04/M02 RMK SLP264 T00431015 57001 IEM_DS3505
ZBAA,1990-11-25 18:00,ZBAA 251800Z AUTO 07002KT 7SM 04/M02 RMK SLP261 T00451020 40141//// 57003 IEM_DS3505
ZBAA,1990-11-25 20:00,ZBAA 252000Z AUTO 19002KT 7SM 02/M04 A3027 RMK T00201040 IEM_DS3505
ZBAA,1990-11-25 21:00,ZBAA 252100Z AUTO 07002KT 7SM 04/M03 A3027 RMK SLP257 T00381029 57004 IEM_DS3505
ZBAA,1990-11-25 23:00,ZBAA 252300Z AUTO 02002KT 7SM 01/M03 A3027 RMK T00101030 IEM_DS3505
ZBAA,1990-11-26 00:00,ZBAA 260000Z AUTO 09002KT 5SM 04/M03 A3027 RMK SLP261 T00421027 52004 IEM_DS3505
ZBAA,1990-11-26 01:00,ZBAA 260100Z AUTO ////02KT 7SM 03/M02 A3027 RMK T00301020 IEM_DS3505
ZBAA,1990-11-26 02:00,ZBAA 260200Z AUTO 04004KT 7SM 05/M01 A3027 RMK T00501010 IEM_DS3505
ZBAA,1990-11-26 03:00,ZBAA 260300Z AUTO 02004KT 4SM 08/M03 A3027 RMK SLP260 T00751027 57001 IEM_DS3505
ZBAA,1990-11-26 04:00,ZBAA 260400Z AUTO 06002KT 7SM 08/M01 A3024 RMK T00801010 IEM_DS3505
ZBAA,1990-11-26 05:00,ZBAA 260500Z AUTO 11004KT 7SM 10/M01 A3021 RMK T01001010 IEM_DS3505
ZBAA,1990-11-26 06:00,ZBAA 260600Z AUTO 07002KT 3SM 11/M01 A3021 RMK T01141006 4////0024 57025 IEM_DS3505
ZBAA,1990-11-26 07:00,ZBAA 260700Z AUTO 12002KT 5SM 11/M01 A3018 RMK T01101010 IEM_DS3505
ZBAA,1990-11-26 08:00,ZBAA 260800Z AUTO 12004KT 5SM 10/M01 A3018 RMK T01001010 IEM_DS3505
ZBAA,1990-11-26 09:00,ZBAA 260900Z AUTO 00000KT 2SM 09/01 A3018 RMK SLP228 T00890007 57007 IEM_DS3505
ZBAA,1990-11-26 10:00,ZBAA 261000Z AUTO 00000KT 4SM 06/M01 A3018 RMK T00601010 IEM_DS3505
ZBAA,1990-11-26 11:00,ZBAA 261100Z AUTO 00000KT 4SM 05/M01 A3021 RMK T00501010 IEM_DS3505
ZBAA,1990-11-26 12:00,ZBAA 261200Z AUTO 00000KT 2SM 04/M00 RMK SLP239 T00431003 52010 IEM_DS3505
ZBAA,1990-11-26 13:00,ZBAA 261300Z AUTO 00000KT 3SM 04/M01 A3021 RMK T00401010 IEM_DS3505
ZBAA,1990-11-26 14:00,ZBAA 261400Z AUTO 00000KT 3SM 04/M01 A3021 RMK T00401010 IEM_DS3505
ZBAA,1990-11-26 18:00,ZBAA 261800Z AUTO 00000KT 2SM 01/M02 RMK SLP234 T00111015 40115//// 57005 IEM_DS3505
ZBAA,1990-11-26 20:00,ZBAA 262000Z AUTO 33002KT 2 1/2SM 00/M03 A3018 RMK T00001030 IEM_DS3505
ZBAA,1990-11-26 21:00,ZBAA 262100Z AUTO 00000KT 2SM 00/M02 A3018 RMK SLP233 T00021022 57002 IEM_DS3505
ZBAA,1990-11-27 00:00,ZBAA 270000Z AUTO 00000KT 1 1/4SM 00/M02 A3021 RMK SLP243 T00011023 52010 IEM_DS3505
ZBAA,1990-11-27 02:00,ZBAA 270200Z AUTO 36002KT 2SM 04/M01 A3024 RMK T00401010 IEM_DS3505
ZBAA,1990-11-27 03:00,ZBAA 270300Z AUTO 04002KT 3SM 08/M02 A3021 RMK SLP240 T00751016 57002 IEM_DS3505
ZBAA,1990-11-27 04:00,ZBAA 270400Z AUTO 00000KT 2SM 07/01 A3018 RMK T00700010 IEM_DS3505
ZBAA,1990-11-27 05:00,ZBAA 270500Z AUTO 10002KT 2SM 09/02 A3015 RMK T00900020 IEM_DS3505
ZBAA,1990-11-27 06:00,ZBAA 270600Z AUTO 00000KT 2SM 11/01 A3015 RMK SLP216 T01080009 4////1007 57024 IEM_DS3505
ZBAA,1990-11-27 07:00,ZBAA 270700Z AUTO 12002KT 1 1/2SM 10/03 A3012 RMK T01000030 IEM_DS3505
ZBAA,1990-11-27 08:00,ZBAA 270800Z AUTO 12002KT 1 1/2SM 09/03 A3012 RMK T00900030 IEM_DS3505
ZBAA,1990-11-27 09:00,ZBAA 270900Z AUTO 00000KT 1 1/4SM 08/02 A3012 RMK SLP215 T00830017 57002 IEM_DS3505
ZBAA,1990-11-27 10:00,ZBAA 271000Z AUTO 12002KT 1 1/4SM 07/03 A3015 RMK T00700030 IEM_DS3505
ZBAA,1990-11-27 11:00,ZBAA 271100Z AUTO 12002KT 1SM 06/02 A3015 RMK T00600020 IEM_DS3505
ZBAA,1990-11-27 12:00,ZBAA 271200Z AUTO 00000KT 1SM 04/01 A3018 RMK SLP225 T00410010 52010 IEM_DS3505
ZBAA,1990-11-27 13:00,ZBAA 271300Z AUTO 12002KT 1SM 03/02 A3018 RMK T00300020 IEM_DS3505
ZBAA,1990-11-27 14:00,ZBAA 271400Z AUTO 11004KT 0SM 02/02 A3018 RMK T00200020 IEM_DS3505
ZBAA,1990-11-27 15:00,ZBAA 271500Z AUTO 00000KT 1 1/4SM 03/00 RMK SLP232 T00260004 52007 IEM_DS3505
ZBAA,1990-11-27 18:00,ZBAA 271800Z AUTO 07002KT 1 1/4SM 04/00 RMK SLP238 T00350000 40114//// 52007 IEM_DS3505
ZBAA,1990-11-27 21:00,ZBAA 272100Z AUTO 00000KT 3/8SM 01/01 A3021 RMK SLP241 T00130010 52002 IEM_DS3505
ZBAA,1990-11-27 22:00,ZBAA 272200Z AUTO 00000KT 0SM M01/M01 A3024 RMK T10101010 IEM_DS3505
ZBAA,1990-11-28 00:00,ZBAA 280000Z AUTO 00000KT 1/2SM M01/M01 A3027 RMK SLP257 T10091009 52015 IEM_DS3505
ZBAA,1990-11-28 01:00,ZBAA 280100Z AUTO 00000KT 1/8SM 00/00 A3030 RMK T00000000 IEM_DS3505
ZBAA,1990-11-28 02:00,ZBAA 280200Z AUTO 11002KT 0SM 00/00 A3030 RMK T00000000 IEM_DS3505
ZBAA,1990-11-28 03:00,ZBAA 280300Z AUTO 32002KT 1SM 06/01 A3030 RMK SLP269 T00640011 52013 IEM_DS3505
ZBAA,1990-11-28 04:00,ZBAA 280400Z AUTO 00000KT 0SM 03/03 A3027 RMK T00300030 IEM_DS3505
ZBAA,1990-11-28 05:00,ZBAA 280500Z AUTO 17002KT 1/4SM 04/04 A3027 RMK T00400040 IEM_DS3505
ZBAA,1990-11-28 06:00,ZBAA 280600Z AUTO 09002KT 1SM 09/03 A3024 RMK T00920028 4////1016 57016 IEM_DS3505
ZBAA,1990-11-28 07:00,ZBAA 280700Z AUTO 14004KT 1SM 05/04 A3024 RMK T00500040 IEM_DS3505
ZBAA,1990-11-28 08:00,ZBAA 280800Z AUTO 12004KT 1/8SM 04/03 A3027 RMK T00400030 IEM_DS3505
ZBAA,1990-11-28 09:00,ZBAA 280900Z AUTO 11004KT 1/2SM 04/04 A3030 RMK SLP267 T00400040 52014 IEM_DS3505
ZBAA,1990-11-28 10:00,ZBAA 281000Z AUTO ////02KT 3/8SM 05/04 A3033 RMK T00500040 IEM_DS3505
ZBAA,1990-11-28 11:00,ZBAA 281100Z AUTO ////04KT 1SM 05/04 A3036 RMK T00500040 IEM_DS3505
ZBAA,1990-11-28 12:00,ZBAA 281200Z AUTO 34002KT 1/4SM 05/04 A3039 RMK SLP299 T00500045 52031 IEM_DS3505
ZBAA,1990-11-28 13:00,ZBAA 281300Z AUTO 21002KT 1SM 04/03 A3039 RMK T00400030 IEM_DS3505
ZBAA,1990-11-28 14:00,ZBAA 281400Z AUTO 29004KT 1SM 04/03 A3042 RMK T00400030 IEM_DS3505
ZBAA,1990-11-28 15:00,ZBAA 281500Z AUTO 00000KT 3/8SM 04/03 RMK SLP306 T00350030 52008 IEM_DS3505
ZBAA,1990-11-28 18:00,ZBAA 281800Z AUTO 00000KT 1 1/2SM 04/03 RMK SLP307 T00400030 40093//// 52001 IEM_DS3505
ZBAA,1990-11-28 20:00,ZBAA 282000Z AUTO 00000KT 1SM 02/02 A3039 RMK T00200020 IEM_DS3505
ZBAA,1990-11-28 21:00,ZBAA 282100Z AUTO 25002KT 2 1/2SM 05/02 A3039 RMK SLP304 T00530020 57003 IEM_DS3505
ZBAA,1990-11-28 23:00,ZBAA 282300Z AUTO 05004KT 1SM 02/02 A3039 RMK T00200020 IEM_DS3505
ZBAA,1990-11-29 00:00,ZBAA 290000Z AUTO 00000KT 2 1/2SM 06/02 RMK SLP304 T00640016 54000 IEM_DS3505
ZBAA,1990-11-29 01:00,ZBAA 290100Z AUTO 00000KT 1SM 04/02 A3042 RMK T00400020 IEM_DS3505
ZBAA,1990-11-29 02:00,ZBAA 290200Z AUTO 00000KT 1SM 05/03 A3042 RMK T00500030 IEM_DS3505
ZBAA,1990-11-29 03:00,ZBAA 290300Z AUTO 04002KT 2 1/2SM 07/02 A3039 RMK SLP303 T00710019 57001 IEM_DS3505
ZBAA,1990-11-29 04:00,ZBAA 290400Z AUTO 00000KT 1SM 06/03 A3039 RMK T00600030 IEM_DS3505
ZBAA,1990-11-29 05:00,ZBAA 290500Z AUTO 10004KT 1 1/4SM 06/03 A3036 RMK T00600030 IEM_DS3505
ZBAA,1990-11-29 06:00,ZBAA 290600Z AUTO 00000KT 2 1/2SM 07/01 A3033 RMK SLP283 T00740014 4////0027 57020 IEM_DS3505
ZBAA,1990-11-29 07:00,ZBAA 290700Z AUTO 31002KT 1 1/2SM 07/02 A3033 RMK T00700020 IEM_DS3505
ZBAA,1990-11-29 08:00,ZBAA 290800Z AUTO 33004KT 1 1/2SM 06/03 A3036 RMK T00600030 IEM_DS3505
ZBAA,1990-11-29 09:00,ZBAA 290900Z AUTO 02002KT 1SM 05/04 A3039 RMK SLP299 T00530036 52016 IEM_DS3505
ZBAA,1990-11-29 10:00,ZBAA 291000Z AUTO 29012KT 6SM 05/03 A3039 RMK T00500030 IEM_DS3505
ZBAA,1990-11-29 11:00,ZBAA 291100Z AUTO 29012KT 6SM 05/00 A3042 RMK T00500000 IEM_DS3505
ZBAA,1990-11-29 12:00,ZBAA 291200Z AUTO 02012KT 6SM 05/M02 A3045 RMK 60002 SLP316 T00481016 52017 IEM_DS3505
ZBAA,1990-11-29 13:00,ZBAA 291300Z AUTO 31008KT 6SM 04/M01 A3045 RMK T00401010 IEM_DS3505
ZBAA,1990-11-29 14:00,ZBAA 291400Z AUTO 31010KT 6SM 04/M03 A3045 RMK T00401030 IEM_DS3505
ZBAA,1990-11-29 15:00,ZBAA 291500Z AUTO 02010KT 9SM 04/M05 A3045 RMK SLP322 T00411051 52006 IEM_DS3505
ZBAA,1990-11-29 16:00,ZBAA 291600Z AUTO 31010KT 6SM 04/M09 A3045 RMK T00401090 IEM_DS3505
ZBAA,1990-11-29 17:00,ZBAA 291700Z AUTO 31012KT 6SM 04/M10 A3045 RMK T00401100 IEM_DS3505
ZBAA,1990-11-29 18:00,ZBAA 291800Z AUTO 32010KT 6SM 03/M11 RMK SLP328 T00281113 40076//// 52006 IEM_DS3505
ZBAA,1990-11-29 20:00,ZBAA 292000Z AUTO 29012G21KT 6SM 01/M12 A3047 RMK T00101120 IEM_DS3505
ZBAA,1990-11-29 21:00,ZBAA 292100Z AUTO 34014G25KT 6SM M00/M23 A3047 RMK SLP333 T10041230 52004 IEM_DS3505
ZBAA,1990-11-29 23:00,ZBAA 292300Z AUTO 29010KT 6SM M01/M16 A3050 RMK T10101160 IEM_DS3505
ZBAA,1990-11-30 00:00,ZBAA 300000Z AUTO 34012KT 9SM M03/M24 A3050 RMK 70004 SLP335 T10261237 52002 IEM_DS3505
ZBAA,1990-11-30 01:00,ZBAA 300100Z AUTO 30016G27KT 6SM M02/M17 A3050 RMK T10201170 IEM_DS3505
ZBAA,1990-11-30 02:00,ZBAA 300200Z AUTO 32016G25KT 6SM RMK IEM_DS3505
ZBAA,1990-11-30 03:00,ZBAA 300300Z AUTO 36012G25KT 9SM M02/M22 A3047 RMK SLP334 T10161225 57001 IEM_DS3505
ZBAA,1990-11-30 04:00,ZBAA 300400Z AUTO 31017G29KT 6SM 00/M18 A3042 RMK T00001180 IEM_DS3505
ZBAA,1990-11-30 05:00,ZBAA 300500Z AUTO 31017G27KT 6SM 00/M19 A3039 RMK T00001190 IEM_DS3505
ZBAA,1990-11-30 06:00,ZBAA 300600Z AUTO 32010G31KT 19SM 00/M19 A3036 RMK SLP305 T00001190 4////1031 57029 IEM_DS3505
ZBAA,1990-11-30 07:00,ZBAA 300700Z AUTO 31019G33KT 6SM M01/M20 A3036 RMK T10101200 IEM_DS3505
ZBAA,1990-11-30 08:00,ZBAA 300800Z AUTO 31017G29KT 6SM M02/M20 A3036 RMK T10201200 IEM_DS3505
ZBAA,1990-11-30 09:00,ZBAA 300900Z AUTO 34014G33KT 19SM M04/M25 A3036 RMK SLP304 T10451252 57002 IEM_DS3505
ZBAA,1990-11-30 10:00,ZBAA 301000Z AUTO 31016G27KT 6SM M05/M21 A3039 RMK T10501210 IEM_DS3505
ZBAA,1990-11-30 12:00,ZBAA 301200Z AUTO 34014G21KT 19SM M05/M27 A3039 RMK T10541272 IEM_DS3505
ZBAA,1990-11-30 13:00,ZBAA 301300Z AUTO 31012G21KT 6SM M05/M21 A3039 RMK T10501210 IEM_DS3505
ZBAA,1990-11-30 14:00,ZBAA 301400Z AUTO 31012KT 6SM M06/M21 A3036 RMK T10601210 IEM_DS3505
ZBAA,1990-11-30 15:00,ZBAA 301500Z AUTO 36014KT 19SM M06/M26 RMK SLP301 T10601263 57003 IEM_DS3505
ZBAA,1990-11-30 18:00,ZBAA 301800Z AUTO 34014KT 19SM M06/M27 RMK SLP293 T10621271 40027//// 57008 IEM_DS3505
ZBAA,1990-11-30 20:00,ZBAA 302000Z AUTO 31014G29KT 6SM M06/M21 A3033 RMK T10601210 IEM_DS3505
ZBAA,1990-11-30 21:00,ZBAA 302100Z AUTO 34010G31KT 19SM M06/M24 A3033 RMK SLP285 T10621240 57009 IEM_DS3505
ZBAA,1990-12-01 00:00,ZBAA 010000Z AUTO 34016G23KT 19SM M06/M30 A3033 RMK SLP286 T10561301 52001 IEM_DS3505
ZBAA,1990-12-01 01:00,ZBAA 010100Z AUTO 31017G29KT 6SM M05/M22 A3033 RMK T10501220 IEM_DS3505
ZBAA,1990-12-01 02:00,ZBAA 010200Z AUTO 31014G25KT 6SM M03/M21 A3036 RMK T10301210 IEM_DS3505
ZBAA,1990-12-01 03:00,ZBAA 010300Z AUTO 34012G23KT 19SM M02/M29 A3036 RMK SLP285 T10191286 54000 IEM_DS3505
ZBAA,1990-12-01 04:00,ZBAA 010400Z AUTO 30016G25KT 6SM M02/M21 A3033 RMK T10201210 IEM_DS3505
ZBAA,1990-12-01 05:00,ZBAA 010500Z AUTO 30014G25KT 7SM M01/M22 A3030 RMK T10101220 IEM_DS3505
ZBAA,1990-12-01 06:00,ZBAA 010600Z AUTO 34014KT 19SM M00/ A3033 RMK SLP287 52002 IEM_DS3505
ZBAA,1990-12-01 07:00,ZBAA 010700Z AUTO 29016G29KT 7SM 00/M21 A3033 RMK T00001210 IEM_DS3505
ZBAA,1990-12-01 08:00,ZBAA 010800Z AUTO 29010KT 7SM M01/M20 A3036 RMK T10101200 IEM_DS3505
ZBAA,1990-12-01 09:00,ZBAA 010900Z AUTO 32010KT 19SM M01/M24 RMK SLP297 T10111245 52010 IEM_DS3505
ZBAA,1990-12-01 10:00,ZBAA 011000Z AUTO 31012G21KT 7SM M02/M22 A3039 RMK T10201220 IEM_DS3505
ZBAA,1990-12-01 11:00,ZBAA 011100Z AUTO 32014G23KT 7SM M02/M22 A3042 RMK T10201220 IEM_DS3505
ZBAA,1990-12-01 12:00,ZBAA 011200Z AUTO 36006KT 19SM M02/M19 A3045 RMK SLP320 T10241194 52023 IEM_DS3505
ZBAA,1990-12-01 14:00,ZBAA 011400Z AUTO 32012KT 7SM M04/M19 A3047 RMK T10401190 IEM_DS3505
ZBAA,1990-12-01 15:00,ZBAA 011500Z AUTO 34010G21KT 19SM M04/M20 A3047 RMK SLP334 T10351195 52014 IEM_DS3505
ZBAA,1990-12-01 16:00,ZBAA 011600Z AUTO 31014KT 7SM M04/M18 A3047 RMK T10401180 IEM_DS3505
ZBAA,1990-12-01 17:00,ZBAA 011700Z AUTO 31014KT 7SM M04/M18 A3050 RMK T10401180 IEM_DS3505
ZBAA,1990-12-01 18:00,ZBAA 011800Z AUTO 34008KT 19SM M03/M20 RMK SLP343 T10311205 41001//// 52009 IEM_DS3505
ZBAA,1990-12-01 20:00,ZBAA 012000Z AUTO 30012KT 7SM M04/M17 A3050 RMK T10401170 IEM_DS3505
ZBAA,1990-12-01 21:00,ZBAA 012100Z AUTO 36008KT 19SM M04/M19 RMK SLP343 T10351186 54000 IEM_DS3505
ZBAA,1990-12-01 22:00,ZBAA 012200Z AUTO 30010KT 7SM A3053 RMK IEM_DS3505
ZBAA,1990-12-01 23:00,ZBAA 012300Z AUTO 31010KT 7SM M04/M17 A3053 RMK T10401170 IEM_DS3505
ZBAA,1990-12-02 00:00,ZBAA 020000Z AUTO 36008KT 19SM M04/M18 A3059 RMK SLP364 T10381184 52021 IEM_DS3505
ZBAA,1990-12-02 01:00,ZBAA 020100Z AUTO 31010KT 7SM M02/M16 A3059 RMK T10201160 IEM_DS3505
ZBAA,1990-12-02 02:00,ZBAA 020200Z AUTO 31012KT 7SM 00/M17 A3059 RMK T00001170 IEM_DS3505
ZBAA,1990-12-02 03:00,ZBAA 020300Z AUTO 36010KT 19SM 01/M15 A3059 RMK SLP373 T00081151 52009 IEM_DS3505
ZBAA,1990-12-02 04:00,ZBAA 020400Z AUTO 30012KT 7SM 02/M17 A3056 RMK T00201170 IEM_DS3505
ZBAA,1990-12-02 05:00,ZBAA 020500Z AUTO 29010G19KT 7SM 02/M16 A3056 RMK T00201160 IEM_DS3505
ZBAA,1990-12-02 06:00,ZBAA 020600Z AUTO 34006KT 19SM 04/M18 A3053 RMK SLP349 T00351178 4////1043 57024 IEM_DS3505
ZBAA,1990-12-02 07:00,ZBAA 020700Z AUTO 28012KT 7SM 03/M15 A3050 RMK T00301150 IEM_DS3505
ZBAA,1990-12-02 08:00,ZBAA 020800Z AUTO 28008KT 7SM 03/M15 A3050 RMK T00301150 IEM_DS3505
ZBAA,1990-12-02 09:00,ZBAA 020900Z AUTO 27006KT 19SM 02/M15 A3050 RMK SLP346 T00191154 57003 IEM_DS3505
ZBAA,1990-12-02 10:00,ZBAA 021000Z AUTO 27004KT 7SM 00/M14 A3050 RMK T00001140 IEM_DS3505
ZBAA,1990-12-02 11:00,ZBAA 021100Z AUTO 27006KT 7SM M01/M14 A3053 RMK T10101140 IEM_DS3505
ZBAA,1990-12-02 12:00,ZBAA 021200Z AUTO 20006KT 19SM M00/M12 A3053 RMK SLP350 T10051123 52004 IEM_DS3505
ZBAA,1990-12-02 13:00,ZBAA 021300Z AUTO 25002KT 7SM M02/M13 A3053 RMK T10201130 IEM_DS3505
ZBAA,1990-12-02 14:00,ZBAA 021400Z AUTO 25002KT 7SM M02/M13 A3053 RMK T10201130 IEM_DS3505
ZBAA,1990-12-02 15:00,ZBAA 021500Z AUTO 18002KT 16SM M02/M11 A3050 RMK SLP348 T10231111 57002 IEM_DS3505
ZBAA,1990-12-02 18:00,ZBAA 021800Z AUTO 00000KT 12SM M04/M12 RMK SLP343 T10371117 40041//// 57005 IEM_DS3505
ZBAA,1990-12-02 20:00,ZBAA 022000Z AUTO 02002KT 7SM M05/M12 A3047 RMK T10501120 IEM_DS3505
ZBAA,1990-12-02 21:00,ZBAA 022100Z AUTO 00000KT 9SM M06/M11 RMK SLP332 T10571110 57011 IEM_DS3505
ZBAA,1990-12-02 22:00,ZBAA 022200Z AUTO 01002KT 7SM M06/M12 A3047 RMK T10601120 IEM_DS3505
ZBAA,1990-12-02 23:00,ZBAA 022300Z AUTO 01002KT 7SM M06/M11 A3047 RMK T10601110 IEM_DS3505
ZBAA,1990-12-03 00:00,ZBAA 030000Z AUTO 00000KT 4SM M06/M11 A3050 RMK SLP334 T10561108 52002 IEM_DS3505
ZBAA,1990-12-03 01:00,ZBAA 030100Z AUTO 01002KT 7SM M03/M09 A3050 RMK T10301090 IEM_DS3505
ZBAA,1990-12-03 02:00,ZBAA 030200Z AUTO 01002KT 7SM 00/M09 A3050 RMK T00001090 IEM_DS3505
ZBAA,1990-12-03 03:00,ZBAA 030300Z AUTO 07002KT 1 1/4SM 04/M10 A3047 RMK SLP332 T00401095 57001 IEM_DS3505
ZBAA,1990-12-03 04:00,ZBAA 030400Z AUTO 30006KT 7SM 06/M11 A3045 RMK T00601110 IEM_DS3505
ZBAA,1990-12-03 05:00,ZBAA 030500Z AUTO 33004KT 7SM 08/M11 A3042 RMK T00801110 IEM_DS3505
ZBAA,1990-12-03 06:00,ZBAA 030600Z AUTO 16002KT 1 1/4SM 07/M10 A3039 RMK SLP305 T00701095 4////1069 57027 IEM_DS3505
ZBAA,1990-12-03 07:00,ZBAA 030700Z AUTO 21004KT 7SM 08/M11 A3039 RMK T00801110 IEM_DS3505
ZBAA,1990-12-03 08:00,ZBAA 030800Z AUTO 19004KT 7SM 06/ A3039 RMK IEM_DS3505
ZBAA,1990-12-03 09:00,ZBAA 030900Z AUTO 18004KT 3SM 05/M09 A3039 RMK SLP303 T00511090 57002 IEM_DS3505
ZBAA,1990-12-03 10:00,ZBAA 031000Z AUTO 20004KT 7SM 03/M10 A3039 RMK T00301100 IEM_DS3505
ZBAA,1990-12-03 11:00,ZBAA 031100Z AUTO 00000KT 7SM 02/M07 A3039 RMK SLP317 T00191072 IEM_DS3505
ZBAA,1990-12-03 12:00,ZBAA 031200Z AUTO 24004KT 2 1/2SM 02/M07 A3042 RMK SLP311 T00191072 52007 IEM_DS3505
ZBAA,1990-12-03 13:00,ZBAA 031300Z AUTO 24004KT 7SM 00/M09 A3042 RMK T00001090 IEM_DS3505
ZBAA,1990-12-03 14:00,ZBAA 031400Z AUTO 24002KT 7SM 00/M09 A3042 RMK T00001090 IEM_DS3505
ZBAA,1990-12-03 15:00,ZBAA 031500Z AUTO 00000KT 1 1/4SM M02/M07 A3042 RMK SLP308 T10181072 57002 IEM_DS3505
ZBAA,1990-12-03 16:00,ZBAA 031600Z AUTO 24002KT 7SM M02/M09 A3042 RMK T10201090 IEM_DS3505
ZBAA,1990-12-03 18:00,ZBAA 031800Z AUTO 34002KT 1 1/4SM M04/M08 RMK SLP305 T10391081 40081//// 57003 IEM_DS3505
ZBAA,1990-12-03 20:00,ZBAA 032000Z AUTO 00000KT 7SM M05/M09 A3036 RMK T10501090 IEM_DS3505
ZBAA,1990-12-03 21:00,ZBAA 032100Z AUTO 00000KT 1 1/4SM M05/M08 A3036 RMK SLP292 T10461082 57013 IEM_DS3505
ZBAA,1990-12-03 22:00,ZBAA 032200Z AUTO ////06KT 7SM M04/M09 A3036 RMK T10401090 IEM_DS3505
ZBAA,1990-12-03 23:00,ZBAA 032300Z AUTO 01006KT 7SM M02/M09 A3036 RMK T10201090 IEM_DS3505
ZBAA,1990-12-04 00:00,ZBAA 040000Z AUTO 00000KT 1 1/4SM M05/M08 A3036 RMK SLP293 T10491084 54000 IEM_DS3505
ZBAA,1990-12-04 01:00,ZBAA 040100Z AUTO 02006KT 7SM 01/M08 A3036 RMK T00101080 IEM_DS3505
ZBAA,1990-12-04 02:00,ZBAA 040200Z AUTO 36006KT 7SM 03/M09 A3036 RMK T00301090 IEM_DS3505
ZBAA,1990-12-04 03:00,ZBAA 040300Z AUTO 00000KT 3SM 06/M09 A3033 RMK SLP288 T00581086 57004 IEM_DS3505
ZBAA,1990-12-04 04:00,ZBAA 040400Z AUTO 33008KT 7SM 08/M10 A3030 RMK T00801100 IEM_DS3505
ZBAA,1990-12-04 05:00,ZBAA 040500Z AUTO 31008KT 7SM 10/M12 A3027 RMK T01001120 IEM_DS3505
ZBAA,1990-12-04 06:00,ZBAA 040600Z AUTO 22004KT 4SM 05/M18 A3024 RMK SLP261 T00511184 4////1060 57026 IEM_DS3505
ZBAA,1990-12-04 07:00,ZBAA 040700Z AUTO 22006KT 7SM 09/M11 A3024 RMK T00901110 IEM_DS3505
ZBAA,1990-12-04 08:00,ZBAA 040800Z AUTO 22004KT 5SM 08/M11 A3024 RMK T00801110 IEM_DS3505
ZBAA,1990-12-04 09:00,ZBAA 040900Z AUTO 20006KT 4SM 06/M09 A3024 RMK SLP259 T00601093 57003 IEM_DS3505
ZBAA,1990-12-04 10:00,ZBAA 041000Z AUTO 20002KT 5SM 04/M10 A3024 RMK T00401100 IEM_DS3505
ZBAA,1990-12-04 11:00,ZBAA 041100Z AUTO 20004KT 4SM 03/M09 A3027 RMK T00301090 IEM_DS3505
ZBAA,1990-12-04 12:00,ZBAA 041200Z AUTO 20004KT 4SM 03/M07 A3027 RMK SLP262 T00321069 52003 IEM_DS3505
ZBAA,1990-12-04 13:00,ZBAA 041300Z AUTO 22004KT 4SM 02/M08 A3027 RMK T00201080 IEM_DS3505
ZBAA,1990-12-04 14:00,ZBAA 041400Z AUTO ////02KT 4SM M01/M08 A3027 RMK T10101080 IEM_DS3505
ZBAA,1990-12-04 15:00,ZBAA 041500Z AUTO 18004KT 4SM 02/M07 A3027 RMK SLP260 T00161067 57001 IEM_DS3505
ZBAA,1990-12-04 18:00,ZBAA 041800Z AUTO 00000KT 4SM M03/M08 RMK SLP253 T10271075 40094//// 57007 IEM_DS3505
ZBAA,1990-12-04 20:00,ZBAA 042000Z AUTO 00000KT 4SM M04/M09 A3021 RMK T10401090 IEM_DS3505
ZBAA,1990-12-04 21:00,ZBAA 042100Z AUTO 00000KT 3SM M04/M08 A3021 RMK SLP246 T10391075 57008 IEM_DS3505
ZBAA,1990-12-04 22:00,ZBAA 042200Z AUTO 34002KT 4SM M03/M08 A3021 RMK T10301080 IEM_DS3505
ZBAA,1990-12-04 23:00,ZBAA 042300Z AUTO 35002KT 4SM M03/M08 A3021 RMK T10301080 IEM_DS3505
ZBAA,1990-12-05 00:00,ZBAA 050000Z AUTO 29002KT 2SM M03/M07 A3021 RMK SLP249 T10331074 IEM_DS3505
ZBAA,1990-12-05 01:00,ZBAA 050100Z AUTO 01004KT 4SM 00/M07 A3021 RMK T00001070 IEM_DS3505
ZBAA,1990-12-05 02:00,ZBAA 050200Z AUTO 11002KT 4SM 03/M07 A3024 RMK T00301070 IEM_DS3505
ZBAA,1990-12-05 03:00,ZBAA 050300Z AUTO 00000KT 3SM 06/M10 A3021 RMK SLP244 T00611102 57004 IEM_DS3505
ZBAA,1990-12-05 04:00,ZBAA 050400Z AUTO 00000KT 7SM 07/M07 A3018 RMK T00701070 IEM_DS3505
ZBAA,1990-12-05 05:00,ZBAA 050500Z AUTO 21002KT 7SM 09/M08 A3015 RMK T00901080 IEM_DS3505
ZBAA,1990-12-05 06:00,ZBAA 050600Z AUTO 20008KT 5SM 09/M13 A3012 RMK SLP221 T00931132 4////1051 57023 IEM_DS3505
ZBAA,1990-12-05 07:00,ZBAA 050700Z AUTO 18004KT 4SM 09/M09 A3012 RMK T00901090 IEM_DS3505
ZBAA,1990-12-05 08:00,ZBAA 050800Z AUTO 17004KT 4SM 08/M09 A3012 RMK T00801090 IEM_DS3505
ZBAA,1990-12-05 09:00,ZBAA 050900Z AUTO 20004KT 4SM 06/M08 A3012 RMK SLP215 T00631085 57006 IEM_DS3505
ZBAA,1990-12-05 10:00,ZBAA 051000Z AUTO 16002KT 4SM 04/M09 A3012 RMK T00401090 IEM_DS3505
ZBAA,1990-12-05 11:00,ZBAA 051100Z AUTO 18002KT 3SM 04/M09 A3012 RMK T00401090 IEM_DS3505
ZBAA,1990-12-05 12:00,ZBAA 051200Z AUTO 20004KT 2 1/2SM 02/M07 A3012 RMK SLP216 T00211068 54000 IEM_DS3505
ZBAA,1990-12-05 13:00,ZBAA 051300Z AUTO 09002KT 3SM M01/M08 A3012 RMK T10101080 IEM_DS3505
ZBAA,1990-12-05 18:00,ZBAA 051800Z AUTO 02004KT 4SM 00/M08 RMK SLP204 T00041080 40096//// 57008 IEM_DS3505
ZBAA,1990-12-05 20:00,ZBAA 052000Z AUTO 00000KT 3SM M03/M08 A3006 RMK T10301080 IEM_DS3505
ZBAA,1990-12-05 21:00,ZBAA 052100Z AUTO 07004KT 4SM M00/M08 RMK SLP196 T10041083 57009 IEM_DS3505
ZBAA,1990-12-05 22:00,ZBAA 052200Z AUTO 00000KT 3SM M04/M08 A3006 RMK T10401080 IEM_DS3505
ZBAA,1990-12-05 23:00,ZBAA 052300Z AUTO 00000KT 3SM M04/M08 A3009 RMK T10401080 IEM_DS3505
ZBAA,1990-12-06 00:00,ZBAA 060000Z AUTO 00000KT 2 1/2SM M03/M08 A3009 RMK SLP209 T10331080 52012 IEM_DS3505
ZBAA,1990-12-06 01:00,ZBAA 060100Z AUTO 34004KT 4SM 00/M06 A3009 RMK T00001060 IEM_DS3505
ZBAA,1990-12-06 02:00,ZBAA 060200Z AUTO 35002KT 7SM 02/M05 A3009 RMK T00201050 IEM_DS3505
ZBAA,1990-12-06 03:00,ZBAA 060300Z AUTO 07002KT 1 1/2SM 06/M07 A3009 RMK SLP203 T00571068 57005 IEM_DS3505
ZBAA,1990-12-06 04:00,ZBAA 060400Z AUTO 05002KT 5SM 06/M05 A3006 RMK T00601050 IEM_DS3505
ZBAA,1990-12-06 05:00,ZBAA 060500Z AUTO 08002KT 5SM 07/M05 A3003 RMK T00701050 IEM_DS3505
ZBAA,1990-12-06 06:00,ZBAA 060600Z AUTO 00000KT 2SM 10/M06 A3003 RMK SLP180 T00961060 57022 IEM_DS3505
ZBAA,1990-12-06 07:00,ZBAA 060700Z AUTO 00000KT 5SM 09/M05 A3003 RMK T00901050 IEM_DS3505
ZBAA,1990-12-06 08:00,ZBAA 060800Z AUTO 00000KT 5SM 08/M05 A3003 RMK T00801050 IEM_DS3505
ZBAA,1990-12-06 09:00,ZBAA 060900Z AUTO 22004KT 1SM 06/M05 A3006 RMK SLP196 T00651050 52015 IEM_DS3505
ZBAA,1990-12-06 10:00,ZBAA 061000Z AUTO 00000KT 4SM 03/M05 A3006 RMK T00301050 IEM_DS3505
ZBAA,1990-12-06 11:00,ZBAA 061100Z AUTO 00000KT 3SM 02/M05 A3009 RMK T00201050 IEM_DS3505
ZBAA,1990-12-06 12:00,ZBAA 061200Z AUTO 20004KT 1SM 03/M04 A3012 RMK SLP215 T00331043 52018 IEM_DS3505
ZBAA,1990-12-06 13:00,ZBAA 061300Z AUTO 00000KT 5SM 01/M05 A3012 RMK T00101050 IEM_DS3505
ZBAA,1990-12-06 14:00,ZBAA 061400Z AUTO 02004KT 5SM 02/M06 A3015 RMK T00201060 IEM_DS3505
ZBAA,1990-12-06 15:00,ZBAA 061500Z AUTO 00000KT 1SM 02/M04 A3015 RMK SLP226 T00151041 52012 IEM_DS3505
ZBAA,1990-12-06 18:00,ZBAA 061800Z AUTO 04002KT 1SM M00/M05 RMK SLP228 T10011046 40104//// 52002 IEM_DS3505
ZBAA,1990-12-06 20:00,ZBAA 062000Z AUTO 36006KT 7SM 05/M08 A3018 RMK T00501080 IEM_DS3505
ZBAA,1990-12-06 21:00,ZBAA 062100Z AUTO 34002KT 6SM 03/M07 A3021 RMK SLP237 T00331072 52009 IEM_DS3505
ZBAA,1990-12-06 22:00,ZBAA 062200Z AUTO 02006KT 7SM 01/M08 A3021 RMK T00101080 IEM_DS3505
ZBAA,1990-12-06 23:00,ZBAA 062300Z AUTO 02004KT 7SM 01/M08 A3021 RMK T00101080 IEM_DS3505
ZBAA,1990-12-07 00:00,ZBAA 070000Z AUTO 36006KT 4SM 03/M08 A3024 RMK SLP251 T00341080 52014 IEM_DS3505
ZBAA,1990-12-07 01:00,ZBAA 070100Z AUTO 36004KT 7SM 06/M06 A3024 RMK T00601060 IEM_DS3505
ZBAA,1990-12-07 02:00,ZBAA 070200Z AUTO 35004KT 7SM 07/M06 A3027 RMK T00701060 IEM_DS3505
ZBAA,1990-12-07 03:00,ZBAA 070300Z AUTO 04004KT 5SM 09/M09 A3024 RMK SLP255 T00931093 52004 IEM_DS3505
ZBAA,1990-12-07 04:00,ZBAA 070400Z AUTO 01006KT 7SM 12/M08 A3024 RMK T01201080 IEM_DS3505
ZBAA,1990-12-07 05:00,ZBAA 070500Z AUTO 04004KT 7SM 13/M07 A3021 RMK T01301070 IEM_DS3505
ZBAA,1990-12-07 06:00,ZBAA 070600Z AUTO 11002KT 7SM 12/M10 A3018 RMK SLP234 T01231096 4////1008 57020 IEM_DS3505
ZBAA,1990-12-07 07:00,ZBAA 070700Z AUTO 12006KT 7SM 12/M06 A3018 RMK T01201060 IEM_DS3505
ZBAA,1990-12-07 08:00,ZBAA 070800Z AUTO 16002KT 7SM 11/M08 A3018 RMK T01101080 IEM_DS3505
ZBAA,1990-12-07 09:00,ZBAA 070900Z AUTO 00000KT 7SM 09/M05 A3018 RMK SLP233 T00901050 57001 IEM_DS3505
ZBAA,1990-12-07 10:00,ZBAA 071000Z AUTO 14004KT 7SM 07/M06 A3018 RMK T00701060 IEM_DS3505
ZBAA,1990-12-07 11:00,ZBAA 071100Z AUTO 15004KT 7SM 07/M04 A3021 RMK T00701040 IEM_DS3505
ZBAA,1990-12-07 12:00,ZBAA 071200Z AUTO 14004KT 6SM 08/M02 A3021 RMK SLP240 T00751016 52007 IEM_DS3505
ZBAA,1990-12-07 13:00,ZBAA 071300Z AUTO 19004KT 7SM 04/M01 A3021 RMK T00401010 IEM_DS3505
ZBAA,1990-12-07 14:00,ZBAA 071400Z AUTO 00000KT 7SM 02/M02 RMK T00201020 IEM_DS3505
ZBAA,1990-12-07 15:00,ZBAA 071500Z AUTO 00000KT 6SM 04/M01 A3021 RMK SLP240 T00371013 54000 IEM_DS3505
ZBAA,1990-12-07 18:00,ZBAA 071800Z AUTO 07002KT 6SM 01/M01 RMK SLP228 T00131013 40130//// 57012 IEM_DS3505
ZBAA,1990-12-07 20:00,ZBAA 072000Z AUTO 33002KT 2 1/2SM M02/M03 A3015 RMK T10201030 IEM_DS3505
ZBAA,1990-12-07 21:00,ZBAA 072100Z AUTO 00000KT 5SM M00/M03 A3012 RMK SLP220 T10031034 57009 IEM_DS3505
ZBAA,1990-12-07 22:00,ZBAA 072200Z AUTO 00000KT 2 1/2SM M01/M03 A3012 RMK T10101030 IEM_DS3505
ZBAA,1990-12-07 23:00,ZBAA 072300Z AUTO 00000KT 2 1/2SM M01/M04 A3012 RMK T10101040 IEM_DS3505
ZBAA,1990-12-08 00:00,ZBAA 080000Z AUTO 00000KT 2SM M01/M03 A3015 RMK SLP221 T10071032 52001 IEM_DS3505
ZBAA,1990-12-08 02:00,ZBAA 080200Z AUTO 00000KT 2SM 02/M01 A3015 RMK T00201010 IEM_DS3505
ZBAA,1990-12-08 03:00,ZBAA 080300Z AUTO 00000KT 1 1/4SM 06/M01 A3012 RMK SLP217 T00581009 57003 IEM_DS3505
ZBAA,1990-12-08 04:00,ZBAA 080400Z AUTO ////02KT 4SM 06/00 A3009 RMK T00600000 IEM_DS3505
ZBAA,1990-12-08 05:00,ZBAA 080500Z AUTO 00000KT 4SM 06/00 A3006 RMK T00600000 IEM_DS3505
ZBAA,1990-12-08 06:00,ZBAA 080600Z AUTO 20002KT 1SM 08/M00 A3006 RMK SLP193 T00831001 4////1011 57024 IEM_DS3505
ZBAA,1990-12-08 07:00,ZBAA 080700Z AUTO 21002KT 5SM 07/00 A3003 RMK T00700000 IEM_DS3505
ZBAA,1990-12-08 08:00,ZBAA 080800Z AUTO 00000KT 5SM 07/M01 A3003 RMK T00701010 IEM_DS3505
ZBAA,1990-12-08 09:00,ZBAA 080900Z AUTO 18002KT 1 1/4SM 07/M01 A3003 RMK SLP190 T00691007 57004 IEM_DS3505
ZBAA,1990-12-08 10:00,ZBAA 081000Z AUTO 08002KT 19SM 03/M01 A3003 RMK SLP189 T00271009 57001 IEM_DS3505
ZBAA,1990-12-08 12:00,ZBAA 081200Z AUTO 11002KT 1SM 03/M01 A3003 RMK SLP189 T00271009 57001 IEM_DS3505
ZBAA,1990-12-08 13:00,ZBAA 081300Z AUTO 11002KT 1 1/4SM 01/M01 A3006 RMK T00101010 IEM_DS3505
ZBAA,1990-12-08 14:00,ZBAA 081400Z AUTO 00000KT 1 1/4SM 00/M02 A3003 RMK T00001020 IEM_DS3505
ZBAA,1990-12-08 15:00,ZBAA 081500Z AUTO 00000KT 1SM 00/M02 A3003 RMK SLP186 T00011020 57003 IEM_DS3505
ZBAA,1990-12-08 16:00,ZBAA 081600Z AUTO 00000KT 1 1/4SM M01/M03 A3003 RMK T10101030 IEM_DS3505
ZBAA,1990-12-08 18:00,ZBAA 081800Z AUTO 00000KT 1SM M01/M03 RMK SLP171 T10081026 40087//// 57014 IEM_DS3505
ZBAA,1990-12-08 20:00,ZBAA 082000Z AUTO 00000KT 1SM M03/M03 A2997 RMK T10301030 IEM_DS3505
ZBAA,1990-12-08 21:00,ZBAA 082100Z AUTO 07002KT 1SM 00/M02 A2997 RMK SLP165 T00021022 57006 IEM_DS3505
ZBAA,1990-12-08 23:00,ZBAA 082300Z AUTO 00000KT 1SM M03/M05 A2997 RMK T10301050 IEM_DS3505
ZBAA,1990-12-09 00:00,ZBAA 090000Z AUTO 07002KT 1 1/4SM M02/M03 A2997 RMK SLP167 T10171033 52001 IEM_DS3505
ZBAA,1990-12-09 01:00,ZBAA 090100Z AUTO 00000KT 1SM A2997 RMK IEM_DS3505
ZBAA,1990-12-09 02:00,ZBAA 090200Z AUTO 00000KT 1SM 00/00 A2997 RMK T00000000 IEM_DS3505
ZBAA,1990-12-09 03:00,ZBAA 090300Z AUTO 04004KT 1 1/4SM 04/M01 A2997 RMK SLP165 T00351006 57002 IEM_DS3505
ZBAA,1990-12-09 04:00,ZBAA 090400Z AUTO 00000KT 1SM 03/01 A2994 RMK T00300010 IEM_DS3505
ZBAA,1990-12-09 05:00,ZBAA 090500Z AUTO 10002KT 1SM 03/01 A2991 RMK T00300010 IEM_DS3505
ZBAA,1990-12-09 06:00,ZBAA 090600Z AUTO 07002KT 2SM 06/00 A2988 RMK SLP142 T00570000 4////1023 57023 IEM_DS3505
ZBAA,1990-12-09 07:00,ZBAA 090700Z AUTO 00000KT 1SM 04/01 A2988 RMK T00400010 IEM_DS3505
ZBAA,1990-12-09 08:00,ZBAA 090800Z AUTO 21002KT 1SM 03/00 A2988 RMK T00300000 IEM_DS3505
ZBAA,1990-12-09 09:00,ZBAA 090900Z AUTO 09002KT 1SM 04/00 A2991 RMK SLP145 T00420005 52003 IEM_DS3505
ZBAA,1990-12-09 10:00,ZBAA 091000Z AUTO 00000KT 0SM M02/M02 A2991 RMK T10201020 IEM_DS3505
ZBAA,1990-12-09 11:00,ZBAA 091100Z AUTO 00000KT 0SM M02/M02 A2994 RMK T10201020 IEM_DS3505
ZBAA,1990-12-09 12:00,ZBAA 091200Z AUTO 00000KT 1SM 02/M00 A2997 RMK SLP166 T00151002 52021 IEM_DS3505
ZBAA,1990-12-09 13:00,ZBAA 091300Z AUTO 24002KT 1/4SM M03/M04 A3000 RMK T10301040 IEM_DS3505
ZBAA,1990-12-09 14:00,ZBAA 091400Z AUTO ////02KT 1SM M01/M01 A3000 RMK T10101010 IEM_DS3505
ZBAA,1990-12-09 15:00,ZBAA 091500Z AUTO 07002KT 1SM M00/M01 RMK SLP180 T10021011 52014 IEM_DS3505
ZBAA,1990-12-09 18:00,ZBAA 091800Z AUTO 00000KT 3/8SM 00/M01 RMK SLP217 T00051006 52037 IEM_DS3505
ZBAA,1990-12-09 20:00,ZBAA 092000Z AUTO 10002KT 1 1/2SM M01/M01 A3018 RMK T10101010 IEM_DS3505
ZBAA,1990-12-09 21:00,ZBAA 092100Z AUTO 11004KT 2 1/2SM 01/M02 A3024 RMK SLP244 T00081025 52027 IEM_DS3505
ZBAA,1990-12-09 22:00,ZBAA 092200Z AUTO 02010KT 4SM M01/M07 A3027 RMK T10101070 IEM_DS3505
ZBAA,1990-12-09 23:00,ZBAA 092300Z AUTO 36008KT 7SM M01/M08 A3036 RMK T10101080 IEM_DS3505
ZBAA,1990-12-10 00:00,ZBAA 100000Z AUTO 36017KT 7SM M02/M12 A3042 RMK 60001 SLP300 T10191123 52055 IEM_DS3505
ZBAA,1990-12-10 01:00,ZBAA 100100Z AUTO 01008KT 4SM M02/M09 A3045 RMK T10201090 IEM_DS3505
ZBAA,1990-12-10 02:00,ZBAA 100200Z AUTO 33016KT 7SM M02/M17 A3047 RMK T10201170 IEM_DS3505
ZBAA,1990-12-10 03:00,ZBAA 100300Z AUTO 36012G23KT 19SM M02/M21 A3050 RMK SLP342 T10211206 52041 IEM_DS3505
ZBAA,1990-12-10 04:00,ZBAA 100400Z AUTO 32014KT 6SM M02/M19 A3053 RMK T10201190 IEM_DS3505
ZBAA,1990-12-10 05:00,ZBAA 100500Z AUTO 31014KT 6SM M02/M20 A3053 RMK T10201200 IEM_DS3505
ZBAA,1990-12-10 06:00,ZBAA 100600Z AUTO 34014KT 19SM M02/M26 A3056 RMK SLP353 T10251264 4////1035 52011 IEM_DS3505
ZBAA,1990-12-10 07:00,ZBAA 100700Z AUTO 32014G23KT 6SM M02/M21 A3056 RMK T10201210 IEM_DS3505
ZBAA,1990-12-10 08:00,ZBAA 100800Z AUTO 32014G23KT 6SM M04/M22 A3056 RMK T10401220 IEM_DS3505
ZBAA,1990-12-10 09:00,ZBAA 100900Z AUTO 34014G23KT 19SM M04/M27 A3062 RMK SLP376 T10451271 52023 IEM_DS3505
ZBAA,1990-12-10 10:00,ZBAA 101000Z AUTO 32012G21KT 7SM M06/M23 A3065 RMK T10601230 IEM_DS3505
ZBAA,1990-12-10 11:00,ZBAA 101100Z AUTO 32014G23KT 7SM M06/M23 A3068 RMK T10601230 IEM_DS3505
ZBAA,1990-12-10 12:00,ZBAA 101200Z AUTO 36014G23KT 19SM M06/M30 A3071 RMK SLP404 T10591301 52027 IEM_DS3505
ZBAA,1990-12-10 13:00,ZBAA 101300Z AUTO 32012KT 7SM M07/M24 A3071 RMK T10701240 IEM_DS3505
ZBAA,1990-12-10 14:00,ZBAA 101400Z AUTO 34010KT 7SM M08/M24 A3071 RMK T10801240 IEM_DS3505
ZBAA,1990-12-10 15:00,ZBAA 101500Z AUTO 34004KT 19SM M08/M30 A3074 RMK SLP414 T10771303 52010 IEM_DS3505
ZBAA,1990-12-10 16:00,ZBAA 101600Z AUTO 32008KT 7SM M08/M24 A3074 RMK T10801240 IEM_DS3505
ZBAA,1990-12-10 18:00,ZBAA 101800Z AUTO 02004KT 16SM M09/M28 RMK SLP412 T10861281 40013//// 57002 IEM_DS3505
ZBAA,1990-12-10 20:00,ZBAA 102000Z AUTO 01006KT 7SM M10/M22 A3068 RMK T11001220 IEM_DS3505
ZBAA,1990-12-10 21:00,ZBAA 102100Z AUTO 36004KT 16SM M08/M29 A3068 RMK SLP403 T10831287 57010 IEM_DS3505
ZBAA,1990-12-10 22:00,ZBAA 102200Z AUTO ////06KT 7SM M10/M22 A3068 RMK T11001220 IEM_DS3505
ZBAA,1990-12-10 23:00,ZBAA 102300Z AUTO 01006KT 7SM M10/M22 A3068 RMK T11001220 IEM_DS3505
ZBAA,1990-12-11 00:00,ZBAA 110000Z AUTO 02006KT 16SM M08/M26 A3068 RMK SLP401 T10851260 57002 IEM_DS3505
ZBAA,1990-12-11 01:00,ZBAA 110100Z AUTO 02006KT 7SM M08/M20 A3068 RMK T10801200 IEM_DS3505
ZBAA,1990-12-11 02:00,ZBAA 110200Z AUTO 01006KT 7SM M05/M20 A3068 RMK T10501200 IEM_DS3505
ZBAA,1990-12-11 03:00,ZBAA 110300Z AUTO 22006KT 16SM M04/ A3068 RMK SLP401 54000 IEM_DS3505
ZBAA,1990-12-11 04:00,ZBAA 110400Z AUTO 36002KT 7SM M04/M22 A3065 RMK T10401220 IEM_DS3505
ZBAA,1990-12-11 05:00,ZBAA 110500Z AUTO ////02KT 7SM M03/M22 A3059 RMK T10301220 IEM_DS3505
ZBAA,1990-12-11 06:00,ZBAA 110600Z AUTO 18002KT 7SM M01/M23 A3053 RMK SLP353 T10131227 4////1096 57047 IEM_DS3505
ZBAA,1990-12-11 07:00,ZBAA 110700Z AUTO 18002KT 7SM M02/M22 A3050 RMK T10201220 IEM_DS3505
ZBAA,1990-12-11 08:00,ZBAA 110800Z AUTO 17006KT 7SM M02/M21 A3047 RMK T10201210 IEM_DS3505
ZBAA,1990-12-11 09:00,ZBAA 110900Z AUTO 22004KT 6SM M03/M18 A3047 RMK SLP337 T10311175 57016 IEM_DS3505
ZBAA,1990-12-11 10:00,ZBAA 111000Z AUTO 18004KT 7SM M04/M19 A3047 RMK T10401190 IEM_DS3505
ZBAA,1990-12-11 11:00,ZBAA 111100Z AUTO 00000KT 7SM M05/M17 A3047 RMK T10501170 IEM_DS3505
ZBAA,1990-12-11 12:00,ZBAA 111200Z AUTO 18006KT 6SM M05/M14 A3021 RMK SLP335 T10491145 57002 IEM_DS3505
ZBAA,1990-12-11 15:00,ZBAA 111500Z AUTO 00000KT 5SM M07/M13 RMK SLP324 T10731133 57011 IEM_DS3505
ZBAA,1990-12-11 18:00,ZBAA 111800Z AUTO 00000KT 4SM M08/M14 RMK SLP313 T10811138 41003//// 57011 IEM_DS3505
ZBAA,1990-12-11 20:00,ZBAA 112000Z AUTO 00000KT 7SM M09/M15 A3042 RMK T10901150 IEM_DS3505
ZBAA,1990-12-11 21:00,ZBAA 112100Z AUTO 29002KT 4SM M09/M15 A3039 RMK SLP306 T10881149 57007 IEM_DS3505
ZBAA,1990-12-11 22:00,ZBAA 112200Z AUTO 26002KT 7SM M09/M15 A3039 RMK T10901150 IEM_DS3505
ZBAA,1990-12-11 23:00,ZBAA 112300Z AUTO 33004KT 7SM M09/M16 A3039 RMK T10901160 IEM_DS3505
ZBAA,1990-12-12 00:00,ZBAA 120000Z AUTO 00000KT 1 1/2SM M08/M13 A3039 RMK SLP302 T10751130 57004 IEM_DS3505
ZBAA,1990-12-12 01:00,ZBAA 120100Z AUTO 25002KT 7SM M06/M15 A3039 RMK T10601150 IEM_DS3505
ZBAA,1990-12-12 03:00,ZBAA 120300Z AUTO 20002KT 2 1/2SM M00/M18 A3039 RMK SLP304 T10011175 52003 IEM_DS3505
ZBAA,1990-12-12 04:00,ZBAA 120400Z AUTO ////06KT 7SM 02/M14 A3036 RMK T00201140 IEM_DS3505
ZBAA,1990-12-12 05:00,ZBAA 120500Z AUTO 25004KT 7SM 04/M15 A3033 RMK T00401150 IEM_DS3505
ZBAA,1990-12-12 06:00,ZBAA 120600Z AUTO 22004KT 4SM 05/M16 A3027 RMK SLP272 T00501160 4////1099 57032 IEM_DS3505
ZBAA,1990-12-12 07:00,ZBAA 120700Z AUTO 23004KT 7SM 05/M15 A3027 RMK T00501150 IEM_DS3505
ZBAA,1990-12-12 08:00,ZBAA 120800Z AUTO 18004KT 7SM 03/M13 A3027 RMK T00301130 IEM_DS3505
ZBAA,1990-12-12 09:00,ZBAA 120900Z AUTO 20006KT 7SM 01/M20 A3027 RMK SLP263 T00121202 57009 IEM_DS3505
ZBAA,1990-12-12 10:00,ZBAA 121000Z AUTO 18004KT 7SM 00/M13 A3024 RMK T00001130 IEM_DS3505
ZBAA,1990-12-12 11:00,ZBAA 121100Z AUTO 18002KT 6SM 00/M12 A3024 RMK T00001120 IEM_DS3505
ZBAA,1990-12-12 12:00,ZBAA 121200Z AUTO 22002KT 6SM M02/M11 A3027 RMK SLP263 T10161109 54000 IEM_DS3505
ZBAA,1990-12-12 13:00,ZBAA 121300Z AUTO 00000KT 6SM M03/M10 A3027 RMK T10301100 IEM_DS3505
ZBAA,1990-12-12 14:00,ZBAA 121400Z AUTO 13004KT 6SM M03/M09 A3024 RMK T10301090 IEM_DS3505
ZBAA,1990-12-12 15:00,ZBAA 121500Z AUTO 00000KT 6SM M03/M09 A3024 RMK SLP252 T10281092 57010 IEM_DS3505
ZBAA,1990-12-12 18:00,ZBAA 121800Z AUTO 00000KT 1SM M04/M10 RMK SLP236 T10451097 40045//// 57016 IEM_DS3505
ZBAA,1990-12-12 20:00,ZBAA 122000Z AUTO 01002KT 6SM M04/M09 A3015 RMK T10401090 IEM_DS3505
ZBAA,1990-12-12 21:00,ZBAA 122100Z AUTO 00000KT 1 1/4SM M04/M09 A3015 RMK SLP225 T10411090 57011 IEM_DS3505
ZBAA,1990-12-12 22:00,ZBAA 122200Z AUTO 01002KT 6SM M04/M09 A3015 RMK T10401090 IEM_DS3505
ZBAA,1990-12-12 23:00,ZBAA 122300Z AUTO 34002KT 4SM M05/M09 A3015 RMK T10501090 IEM_DS3505
ZBAA,1990-12-13 00:00,ZBAA 130000Z AUTO 00000KT 1 1/4SM M04/M08 A3015 RMK SLP226 T10391080 52001 IEM_DS3505
ZBAA,1990-12-13 01:00,ZBAA 130100Z AUTO 23002KT 1 1/4SM M03/M08 A3018 RMK T10301080 IEM_DS3505
ZBAA,1990-12-13 02:00,ZBAA 130200Z AUTO 00000KT 2SM M01/M07 A3018 RMK T10101070 IEM_DS3505
ZBAA,1990-12-13 03:00,ZBAA 130300Z AUTO 00000KT 1 1/2SM 02/M08 A3018 RMK SLP236 T00171084 52010 IEM_DS3505
ZBAA,1990-12-13 04:00,ZBAA 130400Z AUTO 28002KT 3SM 05/M07 A3015 RMK T00501070 IEM_DS3505
ZBAA,1990-12-13 05:00,ZBAA 130500Z AUTO 29010KT 6SM 08/M11 A3012 RMK T00801110 IEM_DS3505
ZBAA,1990-12-13 06:00,ZBAA 130600Z AUTO 36002KT 12SM 08/M15 A3012 RMK SLP222 T00831146 4////1055 57013 IEM_DS3505
ZBAA,1990-12-13 07:00,ZBAA 130700Z AUTO 28010KT 7SM 08/M13 A3012 RMK T00801130 IEM_DS3505
ZBAA,1990-12-13 08:00,ZBAA 130800Z AUTO 29006KT 7SM 07/M13 A3015 RMK T00701130 IEM_DS3505
ZBAA,1990-12-13 09:00,ZBAA 130900Z AUTO 34006KT 16SM 05/M14 A3018 RMK SLP238 T00511145 52015 IEM_DS3505
ZBAA,1990-12-13 10:00,ZBAA 131000Z AUTO 26006KT 6SM 03/M13 A3021 RMK T00301130 IEM_DS3505
ZBAA,1990-12-13 11:00,ZBAA 131100Z AUTO 32008KT 6SM 04/M15 A3024 RMK T00401150 IEM_DS3505
ZBAA,1990-12-13 12:00,ZBAA 131200Z AUTO 33010KT 19SM 04/M17 A3027 RMK SLP265 T00401169 52027 IEM_DS3505
ZBAA,1990-12-13 13:00,ZBAA 131300Z AUTO 33006KT 7SM 02/M16 A3030 RMK T00201160 IEM_DS3505
ZBAA,1990-12-13 14:00,ZBAA 131400Z AUTO 33006KT 7SM 01/M16 A3033 RMK T00101160 IEM_DS3505
ZBAA,1990-12-13 15:00,ZBAA 131500Z AUTO 29017KT 19SM 02/M22 A3036 RMK SLP287 T00241215 52022 IEM_DS3505
ZBAA,1990-12-13 18:00,ZBAA 131800Z AUTO 32006KT 19SM 01/M16 RMK SLP306 T00071159 40084//// 52020 IEM_DS3505
ZBAA,1990-12-13 20:00,ZBAA 132000Z AUTO ////06KT 7SM M02/M15 A3042 RMK T10201150 IEM_DS3505
ZBAA,1990-12-13 21:00,ZBAA 132100Z AUTO 34010KT 19SM M01/M20 A3045 RMK SLP316 T10101203 52009 IEM_DS3505
ZBAA,1990-12-13 22:00,ZBAA 132200Z AUTO 33008KT 7SM M02/M17 RMK T10201170 IEM_DS3505
ZBAA,1990-12-13 23:00,ZBAA 132300Z AUTO 31010KT 7SM M02/M20 A3047 RMK T10201200 IEM_DS3505
ZBAA,1990-12-14 00:00,ZBAA 140000Z AUTO ////06KT 19SM M03/M22 A3050 RMK T10271215 IEM_DS3505
ZBAA,1990-12-14 01:00,ZBAA 140100Z AUTO 28008KT 7SM M02/M17 A3053 RMK T10201170 IEM_DS3505
ZBAA,1990-12-14 02:00,ZBAA 140200Z AUTO 29012KT 7SM M01/M18 A3053 RMK T10101180 IEM_DS3505
ZBAA,1990-12-14 03:00,ZBAA 140300Z AUTO 36012KT 19SM 00/M16 A3056 RMK SLP354 T00031165 52014 IEM_DS3505
ZBAA,1990-12-14 04:00,ZBAA 140400Z AUTO 30010KT 7SM 01/M19 A3053 RMK T00101190 IEM_DS3505
ZBAA,1990-12-14 05:00,ZBAA 140500Z AUTO 30010G19KT 7SM 02/M19 A3050 RMK T00201190 IEM_DS3505
ZBAA,1990-12-14 06:00,ZBAA 140600Z AUTO 02008KT 19SM 03/M22 A3047 RMK SLP335 T00301218 4////1032 57019 IEM_DS3505
ZBAA,1990-12-14 07:00,ZBAA 140700Z AUTO 31010G19KT 7SM 03/M19 A3047 RMK T00301190 IEM_DS3505
ZBAA,1990-12-14 08:00,ZBAA 140800Z AUTO 30008KT 7SM 02/M19 A3047 RMK T00201190 IEM_DS3505
ZBAA,1990-12-14 09:00,ZBAA 140900Z AUTO 22004KT 19SM 01/M19 A3047 RMK SLP334 T00101190 57001 IEM_DS3505
ZBAA,1990-12-14 10:00,ZBAA 141000Z AUTO 27004KT 7SM M01/M19 A3047 RMK T10101190 IEM_DS3505
ZBAA,1990-12-14 12:00,ZBAA 141200Z AUTO 00000KT 19SM M01/M13 A3047 RMK SLP337 T10141127 52002 IEM_DS3505
ZBAA,1990-12-14 13:00,ZBAA 141300Z AUTO 26004KT 7SM M03/M19 A3047 RMK T10301190 IEM_DS3505
ZBAA,1990-12-14 15:00,ZBAA 141500Z AUTO 00000KT 12SM M04/M12 RMK SLP337 T10351115 54000 IEM_DS3505
ZBAA,1990-12-14 18:00,ZBAA 141800Z AUTO 20002KT 6SM M06/M12 RMK SLP330 T10561125 40034//// 57007 IEM_DS3505
ZBAA,1990-12-14 20:00,ZBAA 142000Z AUTO 00000KT 7SM M08/M16 A3045 RMK T10801160 IEM_DS3505
ZBAA,1990-12-14 21:00,ZBAA 142100Z AUTO 34002KT 6SM M07/ RMK SLP317 57013 IEM_DS3505
ZBAA,1990-12-14 22:00,ZBAA 142200Z AUTO 00000KT 7SM M08/M14 A3042 RMK T10801140 IEM_DS3505
ZBAA,1990-12-14 23:00,ZBAA 142300Z AUTO 35002KT 7SM M07/M14 A3045 RMK T10701140 IEM_DS3505
ZBAA,1990-12-15 00:00,ZBAA 150000Z AUTO 00000KT 2 1/2SM M08/M13 A3045 RMK SLP319 T10761131 52001 IEM_DS3505
ZBAA,1990-12-15 01:00,ZBAA 150100Z AUTO 34002KT 7SM M05/M12 A3045 RMK T10501120 IEM_DS3505
ZBAA,1990-12-15 02:00,ZBAA 150200Z AUTO 00000KT 7SM M03/M11 RMK T10301110 IEM_DS3505
ZBAA,1990-12-15 03:00,ZBAA 150300Z AUTO 36002KT 2SM 00/M11 A3042 RMK SLP316 T00051110 57002 IEM_DS3505
ZBAA,1990-12-15 04:00,ZBAA 150400Z AUTO 34002KT 7SM 01/M13 A3039 RMK T00101130 IEM_DS3505
ZBAA,1990-12-15 05:00,ZBAA 150500Z AUTO 34002KT 7SM 03/M13 A3036 RMK T00301130 IEM_DS3505
ZBAA,1990-12-15 06:00,ZBAA 150600Z AUTO 00000KT 5SM 04/M14 A3033 RMK SLP287 T00421140 4////1082 57028 IEM_DS3505
ZBAA,1990-12-15 07:00,ZBAA 150700Z AUTO 27002KT 7SM 05/M16 A3033 RMK T00501160 IEM_DS3505
ZBAA,1990-12-15 08:00,ZBAA 150800Z AUTO 34002KT 7SM 04/M17 A3033 RMK T00401170 IEM_DS3505
ZBAA,1990-12-15 09:00,ZBAA 150900Z AUTO 18004KT 3SM 02/M12 A3036 RMK SLP292 T00201117 52004 IEM_DS3505
ZBAA,1990-12-15 10:00,ZBAA 151000Z AUTO 07002KT 7SM 00/M14 A3036 RMK T00001140 IEM_DS3505
ZBAA,1990-12-15 11:00,ZBAA 151100Z AUTO 07002KT 7SM M02/M14 A3039 RMK T10201140 IEM_DS3505
ZBAA,1990-12-15 12:00,ZBAA 151200Z AUTO 22004KT 6SM 00/M12 A3039 RMK SLP305 T00051116 52013 IEM_DS3505
ZBAA,1990-12-15 13:00,ZBAA 151300Z AUTO 00000KT 7SM M03/M13 A3039 RMK T10301130 IEM_DS3505
ZBAA,1990-12-15 15:00,ZBAA 151500Z AUTO 00000KT 4SM M04/M10 A3045 RMK SLP318 T10391099 52013 IEM_DS3505
ZBAA,1990-12-15 16:00,ZBAA 151600Z AUTO 02002KT 7SM M03/M14 A3045 RMK T10301140 IEM_DS3505
ZBAA,1990-12-15 18:00,ZBAA 151800Z AUTO 04002KT 4SM M02/M13 RMK SLP321 T10251134 40047//// 52004 IEM_DS3505
ZBAA,1990-12-15 20:00,ZBAA 152000Z AUTO 01006KT 7SM M04/M13 A3045 RMK T10401130 IEM_DS3505
ZBAA,1990-12-15 21:00,ZBAA 152100Z AUTO 07004KT 3SM M03/M15 A3045 RMK SLP323 T10281152 52002 IEM_DS3505
ZBAA,1990-12-15 22:00,ZBAA 152200Z AUTO 01004KT 7SM M04/M14 A3047 RMK T10401140 IEM_DS3505
ZBAA,1990-12-15 23:00,ZBAA 152300Z AUTO 02006KT 6SM M06/M13 A3047 RMK T10601130 IEM_DS3505
ZBAA,1990-12-16 00:00,ZBAA 160000Z AUTO 04002KT 7SM M03/M14 A3047 RMK SLP331 T10331135 52007 IEM_DS3505
ZBAA,1990-12-16 01:00,ZBAA 160100Z AUTO ////06KT 6SM M02/M12 A3050 RMK T10201120 IEM_DS3505
ZBAA,1990-12-16 02:00,ZBAA 160200Z AUTO 12002KT 6SM M01/M11 A3050 RMK T10101110 IEM_DS3505
ZBAA,1990-12-16 03:00,ZBAA 160300Z AUTO 07002KT 7SM 01/M14 A3050 RMK SLP337 T00111143 52006 IEM_DS3505
ZBAA,1990-12-16 04:00,ZBAA 160400Z AUTO ////06KT 6SM 02/M10 A3047 RMK T00201100 IEM_DS3505
ZBAA,1990-12-16 05:00,ZBAA 160500Z AUTO ////04KT 6SM 03/M10 A3045 RMK T00301100 IEM_DS3505
ZBAA,1990-12-16 06:00,ZBAA 160600Z AUTO 00000KT 6SM 04/M10 A3042 RMK SLP310 T00391102 4////1053 57026 IEM_DS3505
ZBAA,1990-12-16 07:00,ZBAA 160700Z AUTO ////04KT 6SM 03/M11 A3039 RMK T00301110 IEM_DS3505
ZBAA,1990-12-16 08:00,ZBAA 160800Z AUTO 18002KT 6SM 02/M11 A3039 RMK T00201110 IEM_DS3505
ZBAA,1990-12-16 09:00,ZBAA 160900Z AUTO 10002KT 5SM 02/M12 A3036 RMK SLP293 T00241121 57017 IEM_DS3505
ZBAA,1990-12-16 10:00,ZBAA 161000Z AUTO 00000KT 6SM M01/M10 A3036 RMK T10101100 IEM_DS3505
ZBAA,1990-12-16 11:00,ZBAA 161100Z AUTO 00000KT 6SM 00/M10 A3036 RMK T00001100 IEM_DS3505
ZBAA,1990-12-16 12:00,ZBAA 161200Z AUTO 00000KT 4SM 00/M08 A3036 RMK SLP291 T00011085 57003 IEM_DS3505
ZBAA,1990-12-16 13:00,ZBAA 161300Z AUTO 10002KT 6SM M01/M09 A3033 RMK T10101090 IEM_DS3505
ZBAA,1990-12-16 14:00,ZBAA 161400Z AUTO 00000KT 6SM 00/M08 A3033 RMK T00001080 IEM_DS3505
ZBAA,1990-12-16 15:00,ZBAA 161500Z AUTO 34002KT 4SM 01/M07 A3033 RMK SLP280 T00091073 57010 IEM_DS3505
ZBAA,1990-12-16 18:00,ZBAA 161800Z AUTO 00000KT 5SM M01/M10 RMK SLP275 T10081099 40039//// 57005 IEM_DS3505
ZBAA,1990-12-16 20:00,ZBAA 162000Z AUTO 30008KT 6SM M01/M10 A3027 RMK T10101100 IEM_DS3505
ZBAA,1990-12-16 21:00,ZBAA 162100Z AUTO 34002KT 5SM M02/M12 A3027 RMK T10211118 57009 IEM_DS3505
ZBAA,1990-12-16 22:00,ZBAA 162200Z AUTO 31008KT 7SM M01/M15 A3027 RMK T10101150 IEM_DS3505
ZBAA,1990-12-17 00:00,ZBAA 170000Z AUTO 22002KT 7SM M02/M15 A3027 RMK SLP266 T10251152 54000 IEM_DS3505
ZBAA,1990-12-17 01:00,ZBAA 170100Z AUTO 00000KT 7SM 00/M15 A3030 RMK T00001150 IEM_DS3505
ZBAA,1990-12-17 03:00,ZBAA 170300Z AUTO 22002KT 4SM 02/M16 A3027 RMK SLP268 T00221159 52002 IEM_DS3505
ZBAA,1990-12-17 04:00,ZBAA 170400Z AUTO 31012G21KT 7SM 04/M17 A3024 RMK T00401170 IEM_DS3505
ZBAA,1990-12-17 05:00,ZBAA 170500Z AUTO 28010KT 7SM 05/M17 A3021 RMK T00501170 IEM_DS3505
ZBAA,1990-12-17 06:00,ZBAA 170600Z AUTO 29002KT 8SM 07/M15 A3018 RMK SLP234 T00731153 4////1035 57033 IEM_DS3505
ZBAA,1990-12-17 07:00,ZBAA 170700Z AUTO 27010KT 7SM 06/M16 A3018 RMK T00601160 IEM_DS3505
ZBAA,1990-12-17 08:00,ZBAA 170800Z AUTO 28008KT 7SM 05/M16 A3018 RMK T00501160 IEM_DS3505
ZBAA,1990-12-17 09:00,ZBAA 170900Z AUTO 20002KT 6SM 04/M17 A3018 RMK SLP239 T00411166 52004 IEM_DS3505
ZBAA,1990-12-17 10:00,ZBAA 171000Z AUTO 27006KT 7SM 03/M15 A3021 RMK T00301150 IEM_DS3505
ZBAA,1990-12-17 11:00,ZBAA 171100Z AUTO ////06KT 7SM 03/M14 A3024 RMK T00301140 IEM_DS3505
ZBAA,1990-12-17 12:00,ZBAA 171200Z AUTO 00000KT 6SM 01/M10 A3024 RMK SLP252 T00131101 52013 IEM_DS3505
ZBAA,1990-12-17 13:00,ZBAA 171300Z AUTO 29002KT 7SM 01/M14 A3024 RMK T00101140 IEM_DS3505
ZBAA,1990-12-17 14:00,ZBAA 171400Z AUTO 31006KT 7SM 02/M14 A3027 RMK T00201140 IEM_DS3505
ZBAA,1990-12-17 15:00,ZBAA 171500Z AUTO 14004KT 6SM M01/M09 RMK SLP268 T10091086 52016 IEM_DS3505
ZBAA,1990-12-17 18:00,ZBAA 171800Z AUTO 02004KT 19SM 00/M14 RMK SLP282 T00001145 40076//// 52015 IEM_DS3505
ZBAA,1990-12-17 20:00,ZBAA 172000Z AUTO 03004KT 7SM M04/M14 A3036 RMK T10401140 IEM_DS3505
ZBAA,1990-12-17 21:00,ZBAA 172100Z AUTO 04006KT 19SM M01/M15 A3036 RMK SLP288 T10091150 52005 IEM_DS3505
ZBAA,1990-12-17 22:00,ZBAA 172200Z AUTO 03004KT 7SM M04/M14 A3036 RMK T10401140 IEM_DS3505
ZBAA,1990-12-17 23:00,ZBAA 172300Z AUTO 02008KT 7SM M03/M14 A3036 RMK T10301140 IEM_DS3505
ZBAA,1990-12-18 00:00,ZBAA 180000Z AUTO 04004KT 16SM M02/M14 A3039 RMK SLP299 T10171145 52011 IEM_DS3505
ZBAA,1990-12-18 01:00,ZBAA 180100Z AUTO 03006KT 7SM M01/M13 A3039 RMK T10101130 IEM_DS3505
ZBAA,1990-12-18 02:00,ZBAA 180200Z AUTO 03008KT 7SM 02/M14 A3042 RMK T00201140 IEM_DS3505
ZBAA,1990-12-18 03:00,ZBAA 180300Z AUTO 02004KT 7SM 03/M14 A3039 RMK SLP300 T00311139 52001 IEM_DS3505
ZBAA,1990-12-18 04:00,ZBAA 180400Z AUTO ////06KT 7SM 04/M14 A3036 RMK T00401140 IEM_DS3505
ZBAA,1990-12-18 05:00,ZBAA 180500Z AUTO 03002KT 7SM 05/M14 A3033 RMK T00501140 IEM_DS3505
ZBAA,1990-12-18 06:00,ZBAA 180600Z AUTO 18006KT 6SM 06/M16 A3030 RMK SLP276 T00561156 4////1024 57023 IEM_DS3505
ZBAA,1990-12-18 07:00,ZBAA 180700Z AUTO ////04KT 7SM 06/M14 A3030 RMK T00601140 IEM_DS3505
ZBAA,1990-12-18 08:00,ZBAA 180800Z AUTO 19004KT 7SM 04/M14 A3030 RMK T00401140 IEM_DS3505
ZBAA,1990-12-18 09:00,ZBAA 180900Z AUTO 16004KT 5SM 03/M14 A3030 RMK SLP270 T00301140 57007 IEM_DS3505
ZBAA,1990-12-18 10:00,ZBAA 181000Z AUTO 00000KT 7SM 01/M13 A3030 RMK T00101130 IEM_DS3505
ZBAA,1990-12-18 11:00,ZBAA 181100Z AUTO 00000KT 7SM 00/M13 A3027 RMK T00001130 IEM_DS3505
ZBAA,1990-12-18 12:00,ZBAA 181200Z AUTO 20004KT 4SM 01/M10 RMK SLP268 T00061097 57002 IEM_DS3505
ZBAA,1990-12-18 13:00,ZBAA 181300Z AUTO 00000KT 7SM M02/M13 A3030 RMK T10201130 IEM_DS3505
ZBAA,1990-12-18 15:00,ZBAA 181500Z AUTO 07002KT 2 1/2SM M00/M09 RMK SLP269 T10041088 52001 IEM_DS3505
ZBAA,1990-12-18 18:00,ZBAA 181800Z AUTO 36002KT 2 1/2SM M03/M11 RMK SLP265 T10341108 40063//// 58004 IEM_DS3505
ZBAA,1990-12-18 20:00,ZBAA 182000Z AUTO 00000KT 7SM M05/M12 A3024 RMK T10501120 IEM_DS3505
ZBAA,1990-12-18 21:00,ZBAA 182100Z AUTO 04002KT 2 1/2SM M04/M12 A3021 RMK SLP244 T10361121 57021 IEM_DS3505
ZBAA,1990-12-18 22:00,ZBAA 182200Z AUTO 01002KT 7SM M05/M11 A3021 RMK T10501110 IEM_DS3505
ZBAA,1990-12-18 23:00,ZBAA 182300Z AUTO 00000KT 7SM M07/M11 A3021 RMK T10701110 IEM_DS3505
ZBAA,1990-12-19 00:00,ZBAA 190000Z AUTO 32002KT 2SM M06/M11 A3021 RMK SLP245 T10551112 52001 IEM_DS3505
ZBAA,1990-12-19 01:00,ZBAA 190100Z AUTO 00000KT 4SM M05/M10 A3021 RMK T10501100 IEM_DS3505
ZBAA,1990-12-19 02:00,ZBAA 190200Z AUTO 05002KT 4SM M02/M09 A3021 RMK T10201090 IEM_DS3505
ZBAA,1990-12-19 03:00,ZBAA 190300Z AUTO 09004KT 1 1/2SM M00/M10 A3018 RMK SLP231 T10011098 57014 IEM_DS3505
ZBAA,1990-12-19 04:00,ZBAA 190400Z AUTO 03002KT 4SM M01/M09 A3015 RMK T10101090 IEM_DS3505
ZBAA,1990-12-19 05:00,ZBAA 190500Z AUTO 07002KT 4SM 00/M09 A3012 RMK T00001090 IEM_DS3505
ZBAA,1990-12-19 06:00,ZBAA 190600Z AUTO 11002KT 2SM 01/M10 A3009 RMK SLP204 T00091102 4////1061 57027 IEM_DS3505
ZBAA,1990-12-19 07:00,ZBAA 190700Z AUTO 00000KT 4SM 01/M09 A3009 RMK T00101090 IEM_DS3505
ZBAA,1990-12-19 08:00,ZBAA 190800Z AUTO 00000KT 4SM 01/M09 A3006 RMK T00101090 IEM_DS3505
ZBAA,1990-12-19 09:00,ZBAA 190900Z AUTO 00000KT 3SM 00/M09 A3006 RMK SLP199 T00051093 57005 IEM_DS3505
ZBAA,1990-12-19 10:00,ZBAA 191000Z AUTO 00000KT 4SM M01/M10 A3009 RMK T10101100 IEM_DS3505
ZBAA,1990-12-19 11:00,ZBAA 191100Z AUTO 00000KT 3SM M02/M10 A3009 RMK T10201100 IEM_DS3505
ZBAA,1990-12-19 12:00,ZBAA 191200Z AUTO 20002KT 2SM M02/M08 A3006 RMK SLP204 T10201084 52004 IEM_DS3505
ZBAA,1990-12-19 13:00,ZBAA 191300Z AUTO 00000KT 3SM M04/M09 A3006 RMK T10401090 IEM_DS3505
ZBAA,1990-12-19 14:00,ZBAA 191400Z AUTO 00000KT 3SM M05/M09 A3006 RMK T10501090 IEM_DS3505
ZBAA,1990-12-19 15:00,ZBAA 191500Z AUTO 00000KT 1 1/4SM M03/M09 A3006 RMK SLP197 T10291088 57006 IEM_DS3505
ZBAA,1990-12-19 18:00,ZBAA 191800Z AUTO 00000KT 1 1/4SM M05/M09 RMK SLP186 T10461094 40015//// 57011 IEM_DS3505
ZBAA,1990-12-19 20:00,ZBAA 192000Z AUTO 00000KT 1 1/4SM M08/M10 A3000 RMK T10801100 IEM_DS3505
ZBAA,1990-12-19 21:00,ZBAA 192100Z AUTO 25004KT 3SM M06/M10 A2997 RMK SLP170 T10601103 57016 IEM_DS3505
ZBAA,1990-12-19 23:00,ZBAA 192300Z AUTO 23002KT 1 1/2SM M09/M11 A2997 RMK T10901110 IEM_DS3505
ZBAA,1990-12-20 00:00,ZBAA 200000Z AUTO 00000KT 1 1/4SM M06/M10 A2997 RMK SLP166 T10641098 57004 IEM_DS3505
ZBAA,1990-12-20 01:00,ZBAA 200100Z AUTO 34002KT 1 1/2SM M05/M09 A2997 RMK T10501090 IEM_DS3505
ZBAA,1990-12-20 02:00,ZBAA 200200Z AUTO 00000KT 2SM M03/M08 A2997 RMK T10301080 IEM_DS3505
ZBAA,1990-12-20 03:00,ZBAA 200300Z AUTO 20006KT 2SM 02/M04 A2994 RMK SLP162 T00181040 57003 IEM_DS3505
ZBAA,1990-12-20 04:00,ZBAA 200400Z AUTO 00000KT 3SM 03/M07 A2991 RMK T00301070 IEM_DS3505
ZBAA,1990-12-20 05:00,ZBAA 200500Z AUTO 19002KT 2 1/2SM 04/M07 A2988 RMK T00401070 IEM_DS3505
ZBAA,1990-12-20 06:00,ZBAA 200600Z AUTO 18006KT 2SM 08/M11 A2988 RMK SLP134 T00761107 4////1073 57028 IEM_DS3505
ZBAA,1990-12-20 07:00,ZBAA 200700Z AUTO 20006KT 2 1/2SM 07/M08 A2985 RMK T00701080 IEM_DS3505
ZBAA,1990-12-20 08:00,ZBAA 200800Z AUTO 18002KT 2 1/2SM 06/M08 A2985 RMK T00601080 IEM_DS3505
ZBAA,1990-12-20 09:00,ZBAA 200900Z AUTO 20004KT 3SM 06/M10 A2985 RMK SLP135 T00561099 52001 IEM_DS3505
ZBAA,1990-12-20 10:00,ZBAA 201000Z AUTO 16008KT 2SM 04/M08 A2988 RMK T00401080 IEM_DS3505
ZBAA,1990-12-20 11:00,ZBAA 201100Z AUTO 12002KT 2SM 01/M08 A2988 RMK T00101080 IEM_DS3505
ZBAA,1990-12-20 12:00,ZBAA 201200Z AUTO 25004KT 2SM 00/M08 A2988 RMK SLP144 T00001080 52008 IEM_DS3505
ZBAA,1990-12-20 13:00,ZBAA 201300Z AUTO 12006KT 2SM M01/M07 A2988 RMK T10101070 IEM_DS3505
ZBAA,1990-12-20 14:00,ZBAA 201400Z AUTO 10004KT 2SM M01/M07 A2988 RMK T10101070 IEM_DS3505
ZBAA,1990-12-20 15:00,ZBAA 201500Z AUTO 20002KT 2SM 00/M05 A2988 RMK SLP134 T00011051 57009 IEM_DS3505
ZBAA,1990-12-20 18:00,ZBAA 201800Z AUTO 02004KT 2SM M00/M04 RMK SLP107 T10031042 40081//// 57026 IEM_DS3505
ZBAA,1990-12-20 20:00,ZBAA 202000Z AUTO 29010G21KT 3SM M01/M06 A2983 RMK T10101060 IEM_DS3505
ZBAA,1990-12-20 21:00,ZBAA 202100Z AUTO 29023KT 1 1/4SM 04/M09 A2983 RMK SLP118 T00411091 52011 IEM_DS3505
ZBAA,1990-12-20 23:00,ZBAA 202300Z AUTO 30017G33KT 6SM 04/M20 A2985 RMK T00401200 IEM_DS3505
ZBAA,1990-12-21 00:00,ZBAA 210000Z AUTO 34012G25KT 6SM 03/M17 A2988 RMK SLP144 T00281173 52025 IEM_DS3505
ZBAA,1990-12-21 01:00,ZBAA 210100Z AUTO 29014G23KT 6SM 03/M17 A2991 RMK T00301170 IEM_DS3505
ZBAA,1990-12-21 02:00,ZBAA 210200Z AUTO 29012G25KT 6SM 04/M16 A2991 RMK T00401160 IEM_DS3505
ZBAA,1990-12-21 03:00,ZBAA 210300Z AUTO 32017G29KT 6SM 04/M18 A2991 RMK SLP156 T00401180 52012 IEM_DS3505
ZBAA,1990-12-21 04:00,ZBAA 210400Z AUTO 28017G27KT 6SM 04/M16 A2991 RMK T00401160 IEM_DS3505
ZBAA,1990-12-21 05:00,ZBAA 210500Z AUTO 29017G29KT 6SM 05/M18 A2988 RMK T00501180 IEM_DS3505
ZBAA,1990-12-21 06:00,ZBAA 210600Z AUTO 29014G31KT 7SM 06/ A2988 RMK SLP144 4////1025 57011 IEM_DS3505
ZBAA,1990-12-21 07:00,ZBAA 210700Z AUTO 30016G31KT 6SM 07/M17 A2985 RMK T00701170 IEM_DS3505
ZBAA,1990-12-21 08:00,ZBAA 210800Z AUTO 31016G31KT 6SM 07/M16 RMK T00701160 IEM_DS3505
ZBAA,1990-12-21 09:00,ZBAA 210900Z AUTO 30012G23KT 6SM 00/M17 A2991 RMK SLP143 T00001166 57001 IEM_DS3505
ZBAA,1990-12-21 10:00,ZBAA 211000Z AUTO 28004KT 6SM 05/M14 A2994 RMK T00501140 IEM_DS3505
ZBAA,1990-12-21 11:00,ZBAA 211100Z AUTO 32004KT 6SM 04/M13 A2997 RMK T00401130 IEM_DS3505
ZBAA,1990-12-21 12:00,ZBAA 211200Z AUTO 29014KT 6SM 06/M17 A3000 RMK SLP170 T00621169 52027 IEM_DS3505
ZBAA,1990-12-21 13:00,ZBAA 211300Z AUTO 31006KT 6SM 04/M10 A3003 RMK T00401100 IEM_DS3505
ZBAA,1990-12-21 14:00,ZBAA 211400Z AUTO 29014G27KT 6SM 05/M15 A3003 RMK T00501150 IEM_DS3505
ZBAA,1990-12-21 15:00,ZBAA 211500Z AUTO 29016G29KT 5SM 03/M15 A3009 RMK SLP211 T00341148 52040 IEM_DS3505
ZBAA,1990-12-21 16:00,ZBAA 211600Z AUTO 33016G25KT 6SM 01/M18 A3015 RMK T00101180 IEM_DS3505
ZBAA,1990-12-21 17:00,ZBAA 211700Z AUTO 33019G33KT 6SM 01/M17 A3018 RMK T00101170 IEM_DS3505
ZBAA,1990-12-21 18:00,ZBAA 211800Z AUTO 32010KT 9SM 00/M22 RMK SLP242 T00031225 40071//// 52031 IEM_DS3505
ZBAA,1990-12-21 20:00,ZBAA 212000Z AUTO 32012G25KT 7SM M01/M19 A3021 RMK T10101190 IEM_DS3505
ZBAA,1990-12-21 21:00,ZBAA 212100Z AUTO 32014KT 9SM M01/M21 A3024 RMK SLP254 T10061210 52012 IEM_DS3505
ZBAA,1990-12-21 22:00,ZBAA 212200Z AUTO 33012KT 7SM M01/M20 A3027 RMK T10101200 IEM_DS3505
ZBAA,1990-12-21 23:00,ZBAA 212300Z AUTO 33017G27KT 7SM M01/M21 A3030 RMK T10101210 IEM_DS3505
ZBAA,1990-12-22 00:00,ZBAA 220000Z AUTO 32019KT 16SM M01/M29 RMK SLP272 T10091287 52018 IEM_DS3505
ZBAA,1990-12-22 01:00,ZBAA 220100Z AUTO 33014G23KT 7SM M01/M21 A3033 RMK T10101210 IEM_DS3505
ZBAA,1990-12-22 02:00,ZBAA 220200Z AUTO 32014G23KT 7SM 00/M21 A3036 RMK T00001210 IEM_DS3505
ZBAA,1990-12-22 03:00,ZBAA 220300Z AUTO 34006G19KT 19SM 02/M26 A3036 RMK SLP291 T00151260 52018 IEM_DS3505
ZBAA,1990-12-22 04:00,ZBAA 220400Z AUTO 32008KT 7SM 02/M20 A3036 RMK T00201200 IEM_DS3505
ZBAA,1990-12-22 05:00,ZBAA 220500Z AUTO 29012KT 7SM 03/M20 A3036 RMK T00301200 IEM_DS3505
ZBAA,1990-12-22 06:00,ZBAA 220600Z AUTO 34008KT 19SM 04/M23 A3033 RMK SLP285 T00381234 4////1014 57006 IEM_DS3505
ZBAA,1990-12-22 07:00,ZBAA 220700Z AUTO ////06KT 7SM 03/M20 A3033 RMK T00301200 IEM_DS3505
ZBAA,1990-12-22 08:00,ZBAA 220800Z AUTO 27002KT 7SM 04/M19 A3030 RMK T00401190 IEM_DS3505
ZBAA,1990-12-22 09:00,ZBAA 220900Z AUTO 21002KT 19SM 03/M23 A3030 RMK SLP274 T00301228 57011 IEM_DS3505
ZBAA,1990-12-22 10:00,ZBAA 221000Z AUTO ////06KT 7SM 02/M19 A3030 RMK T00201190 IEM_DS3505
ZBAA,1990-12-22 11:00,ZBAA 221100Z AUTO 15004KT 7SM 01/M19 A3030 RMK T00101190 IEM_DS3505
ZBAA,1990-12-22 12:00,ZBAA 221200Z AUTO 20004KT 19SM 01/M18 A3030 RMK SLP270 T00091179 57004 IEM_DS3505
ZBAA,1990-12-22 13:00,ZBAA 221300Z AUTO 07004KT 7SM M03/M17 A3030 RMK T10301170 IEM_DS3505
ZBAA,1990-12-22 14:00,ZBAA 221400Z AUTO 07004KT 7SM M03/M18 A3030 RMK T10301180 IEM_DS3505
ZBAA,1990-12-22 15:00,ZBAA 221500Z AUTO 04004KT 16SM M01/M17 A3030 RMK SLP268 T10081171 57002 IEM_DS3505
ZBAA,1990-12-22 16:00,ZBAA 221600Z AUTO 02004KT 7SM M04/M16 A3030 RMK T10401160 IEM_DS3505
ZBAA,1990-12-22 17:00,ZBAA 221700Z AUTO 00000KT 7SM M04/M15 A3030 RMK T10401150 IEM_DS3505
ZBAA,1990-12-22 18:00,ZBAA 221800Z AUTO 04004KT 12SM M02/M18 RMK SLP279 T10211175 40056//// 52011 IEM_DS3505
ZBAA,1990-12-22 21:00,ZBAA 222100Z AUTO 07004KT 9SM M03/M17 A3036 RMK SLP287 T10321169 52008 IEM_DS3505
ZBAA,1990-12-22 23:00,ZBAA 222300Z AUTO 32002KT 7SM M06/M15 A3039 RMK T10601150 IEM_DS3505
ZBAA,1990-12-23 00:00,ZBAA 230000Z AUTO 34002KT 7SM M05/M15 A3039 RMK SLP303 T10491151 52015 IEM_DS3505
ZBAA,1990-12-23 01:00,ZBAA 230100Z AUTO 00000KT 7SM M03/M11 A3042 RMK T10301110 IEM_DS3505
ZBAA,1990-12-23 02:00,ZBAA 230200Z AUTO 36002KT 7SM 00/M11 A3042 RMK T00001110 IEM_DS3505
ZBAA,1990-12-23 03:00,ZBAA 230300Z AUTO 09002KT 6SM 01/M14 A3042 RMK SLP306 T00131138 52004 IEM_DS3505
ZBAA,1990-12-23 04:00,ZBAA 230400Z AUTO ////04KT 7SM 04/M14 A3039 RMK T00401140 IEM_DS3505
ZBAA,1990-12-23 05:00,ZBAA 230500Z AUTO 12002KT 7SM 04/M14 A3036 RMK T00401140 IEM_DS3505
ZBAA,1990-12-23 06:00,ZBAA 230600Z AUTO 18004KT 4SM 04/M14 A3033 RMK SLP284 T00391135 4////1060 57022 IEM_DS3505
ZBAA,1990-12-23 07:00,ZBAA 230700Z AUTO ////04KT 7SM 04/M14 A3030 RMK T00401140 IEM_DS3505
ZBAA,1990-12-23 08:00,ZBAA 230800Z AUTO ////06KT 7SM 03/M14 A3030 RMK T00301140 IEM_DS3505
ZBAA,1990-12-23 09:00,ZBAA 230900Z AUTO 20008KT 6SM 02/M13 A3030 RMK SLP273 T00211133 57011 IEM_DS3505
ZBAA,1990-12-23 10:00,ZBAA 231000Z AUTO 19004KT 7SM 00/M14 A3030 RMK T00001140 IEM_DS3505
ZBAA,1990-12-23 12:00,ZBAA 231200Z AUTO 18004KT 6SM M00/M13 A3030 RMK SLP270 T10011127 57004 IEM_DS3505
ZBAA,1990-12-23 13:00,ZBAA 231300Z AUTO 15004KT 7SM 00/M13 A3030 RMK T00001130 IEM_DS3505
ZBAA,1990-12-23 14:00,ZBAA 231400Z AUTO 14006KT 7SM M02/M13 A3027 RMK T10201130 IEM_DS3505
ZBAA,1990-12-23 15:00,ZBAA 231500Z AUTO 16004KT 6SM M01/M13 RMK SLP265 T10141129 57004 IEM_DS3505
ZBAA,1990-12-23 18:00,ZBAA 231800Z AUTO 04004KT 6SM M04/M12 RMK SLP259 T10441123 40044//// 57006 IEM_DS3505
ZBAA,1990-12-23 20:00,ZBAA 232000Z AUTO 00000KT 7SM M06/M12 A3024 RMK T10601120 IEM_DS3505
ZBAA,1990-12-23 21:00,ZBAA 232100Z AUTO 02004KT 7SM M04/M13 A3021 RMK SLP244 T10421131 57015 IEM_DS3505
ZBAA,1990-12-23 22:00,ZBAA 232200Z AUTO 00000KT 7SM M06/M12 A3021 RMK T10601120 IEM_DS3505
ZBAA,1990-12-23 23:00,ZBAA 232300Z AUTO 10002KT 6SM M07/M12 A3018 RMK T10701120 IEM_DS3505
ZBAA,1990-12-24 00:00,ZBAA 240000Z AUTO 00000KT 4SM M05/M13 A3021 RMK SLP242 T10471128 57002 IEM_DS3505
ZBAA,1990-12-24 01:00,ZBAA 240100Z AUTO 00000KT 5SM M05/M10 A3021 RMK T10501100 IEM_DS3505
ZBAA,1990-12-24 02:00,ZBAA 240200Z AUTO 03002KT 4SM M03/M10 A3018 RMK T10301100 IEM_DS3505
ZBAA,1990-12-24 03:00,ZBAA 240300Z AUTO 04004KT 5SM M01/M12 A3015 RMK SLP229 T10061125 57013 IEM_DS3505
ZBAA,1990-12-24 04:00,ZBAA 240400Z AUTO 08002KT 6SM 00/M09 A3012 RMK T00001090 IEM_DS3505
ZBAA,1990-12-24 05:00,ZBAA 240500Z AUTO 09002KT 6SM 01/M10 A3009 RMK T00101100 IEM_DS3505
ZBAA,1990-12-24 06:00,ZBAA 240600Z AUTO 02002KT 4SM 01/M11 A3006 RMK SLP198 T00141109 4////1062 57031 IEM_DS3505
ZBAA,1990-12-24 07:00,ZBAA 240700Z AUTO 00000KT 6SM 02/M09 A3003 RMK T00201090 IEM_DS3505
ZBAA,1990-12-24 08:00,ZBAA 240800Z AUTO 00000KT 6SM 02/M09 A3003 RMK T00201090 IEM_DS3505
ZBAA,1990-12-24 09:00,ZBAA 240900Z AUTO 32002KT 2SM 00/M08 A3003 RMK SLP186 T00021083 57012 IEM_DS3505
ZBAA,1990-12-24 10:00,ZBAA 241000Z AUTO 30002KT 4SM M01/M10 A3003 RMK T10101100 IEM_DS3505
ZBAA,1990-12-24 11:00,ZBAA 241100Z AUTO 32004KT 4SM M01/M10 A3003 RMK T10101100 IEM_DS3505
ZBAA,1990-12-24 12:00,ZBAA 241200Z AUTO 34002KT 6SM M02/M08 A3003 RMK T10251085 52004 IEM_DS3505
ZBAA,1990-12-24 13:00,ZBAA 241300Z AUTO 00000KT 4SM M03/M10 A3006 RMK T10301100 IEM_DS3505
ZBAA,1990-12-24 15:00,ZBAA 241500Z AUTO 07002KT 6SM M01/M11 RMK SLP193 T10111109 52003 IEM_DS3505
ZBAA,1990-12-24 18:00,ZBAA 241800Z AUTO 34006KT 12SM 01/M10 RMK SLP213 T00091100 40020//// 52021 IEM_DS3505
ZBAA,1990-12-24 20:00,ZBAA 242000Z AUTO 31016G25KT 7SM M02/M17 A3018 RMK T10201170 IEM_DS3505
ZBAA,1990-12-24 21:00,ZBAA 242100Z AUTO 34008KT 7SM M02/M20 A3021 RMK T10231200 IEM_DS3505
ZBAA,1990-12-24 22:00,ZBAA 242200Z AUTO 32014G23KT 7SM M03/M20 A3024 RMK T10301200 IEM_DS3505
ZBAA,1990-12-24 23:00,ZBAA 242300Z AUTO 32016G27KT 7SM M04/M20 A3027 RMK T10401200 IEM_DS3505
ZBAA,1990-12-25 00:00,ZBAA 250000Z AUTO 34012G27KT 19SM M04/M23 A3030 RMK SLP276 T10431230 52027 IEM_DS3505
ZBAA,1990-12-25 01:00,ZBAA 250100Z AUTO 31017G29KT 7SM M04/M24 A3036 RMK T10401240 IEM_DS3505
ZBAA,1990-12-25 02:00,ZBAA 250200Z AUTO 32014G27KT 7SM M03/M24 A3036 RMK T10301240 IEM_DS3505
ZBAA,1990-12-25 03:00,ZBAA 250300Z AUTO 36012KT 19SM M03/M30 RMK SLP290 T10281297 52014 IEM_DS3505
ZBAA,1990-12-25 04:00,ZBAA 250400Z AUTO 32019G33KT 7SM M03/M26 A3033 RMK T10301260 IEM_DS3505
ZBAA,1990-12-25 05:00,ZBAA 250500Z AUTO 31021G33KT 7SM M03/M26 A3033 RMK T10301260 IEM_DS3505
ZBAA,1990-12-25 06:00,ZBAA 250600Z AUTO 34014G33KT 19SM M03/M31 A3033 RMK SLP281 T10271314 4////1048 57007 IEM_DS3505
ZBAA,1990-12-25 07:00,ZBAA 250700Z AUTO 32017G31KT 7SM M03/M26 A3033 RMK T10301260 IEM_DS3505
ZBAA,1990-12-25 09:00,ZBAA 250900Z AUTO 34010G27KT 19SM M04/M31 A3036 RMK SLP288 T10381313 52006 IEM_DS3505
ZBAA,1990-12-25 11:00,ZBAA 251100Z AUTO 33016G27KT 7SM M05/M26 A3039 RMK T10501260 IEM_DS3505
ZBAA,1990-12-25 12:00,ZBAA 251200Z AUTO 04004KT 12SM M05/M24 RMK T10511245 52011 IEM_DS3505
ZBAA,1990-12-25 15:00,ZBAA 251500Z AUTO 16002G19KT 12SM M04/M27 A3045 RMK SLP317 T10451268 52012 IEM_DS3505
ZBAA,1990-12-25 18:00,ZBAA 251800Z AUTO 04004KT 16SM M06/M26 RMK SLP323 T10551260 40007//// 52006 IEM_DS3505
ZBAA,1990-12-25 20:00,ZBAA 252000Z AUTO 32008KT 7SM M06/M26 A3047 RMK T10601260 IEM_DS3505
ZBAA,1990-12-25 21:00,ZBAA 252100Z AUTO 02008KT 16SM M08/M21 A3047 RMK SLP336 T10831207 52012 IEM_DS3505
ZBAA,1990-12-25 22:00,ZBAA 252200Z AUTO 32010KT 7SM M07/M27 A3050 RMK T10701270 IEM_DS3505
ZBAA,1990-12-25 23:00,ZBAA 252300Z AUTO 00000KT 7SM M09/M25 A3053 RMK T10901250 IEM_DS3505
ZBAA,1990-12-26 00:00,ZBAA 260000Z AUTO 36008KT 16SM M08/M27 A3056 RMK SLP357 T10751272 52021 IEM_DS3505
ZBAA,1990-12-26 01:00,ZBAA 260100Z AUTO 30012KT 7SM M06/M27 A3059 RMK T10601270 IEM_DS3505
ZBAA,1990-12-26 02:00,ZBAA 260200Z AUTO 32014G25KT 7SM M05/M27 A3059 RMK T10501270 IEM_DS3505
ZBAA,1990-12-26 03:00,ZBAA 260300Z AUTO 36008KT 19SM M04/M29 A3059 RMK SLP368 T10381294 52011 IEM_DS3505
ZBAA,1990-12-26 04:00,ZBAA 260400Z AUTO 31012G23KT 7SM M03/M26 A3056 RMK T10301260 IEM_DS3505
ZBAA,1990-12-26 05:00,ZBAA 260500Z AUTO 28010KT 7SM M02/M25 A3056 RMK T10201250 IEM_DS3505
ZBAA,1990-12-26 06:00,ZBAA 260600Z AUTO 04008KT 19SM M02/M29 A3053 RMK SLP354 T10161293 4////1093 57014 IEM_DS3505
ZBAA,1990-12-26 07:00,ZBAA 260700Z AUTO 30010KT 7SM M01/M25 A3053 RMK T10101250 IEM_DS3505
ZBAA,1990-12-26 08:00,ZBAA 260800Z AUTO 30008KT 7SM M02/M25 A3056 RMK T10201250 IEM_DS3505
ZBAA,1990-12-26 09:00,ZBAA 260900Z AUTO 36008KT 16SM M02/M26 A3053 RMK SLP356 T10211262 52002 IEM_DS3505
ZBAA,1990-12-26 10:00,ZBAA 261000Z AUTO 36004KT 6SM M04/M25 RMK T10401250 IEM_DS3505
ZBAA,1990-12-26 11:00,ZBAA 261100Z AUTO 01002KT 7SM M05/M25 A3056 RMK T10501250 IEM_DS3505
ZBAA,1990-12-26 12:00,ZBAA 261200Z AUTO 36004KT 19SM M05/M22 A3056 RMK SLP360 T10461217 52004 IEM_DS3505
ZBAA,1990-12-26 14:00,ZBAA 261400Z AUTO 02004KT 7SM M07/M23 A3056 RMK T10701230 IEM_DS3505
ZBAA,1990-12-26 15:00,ZBAA 261500Z AUTO 00000KT 19SM M07/M18 RMK SLP362 T10741185 52002 IEM_DS3505
ZBAA,1990-12-26 16:00,ZBAA 261600Z AUTO 02004KT 7SM M07/M21 A3056 RMK T10701210 IEM_DS3505
ZBAA,1990-12-26 18:00,ZBAA 261800Z AUTO 07004KT 12SM M06/M21 RMK SLP362 T10611214 54000 IEM_DS3505
ZBAA,1990-12-26 21:00,ZBAA 262100Z AUTO 02002KT 12SM M08/M19 A3053 RMK SLP354 T10801189 57008 IEM_DS3505
ZBAA,1990-12-26 22:00,ZBAA 262200Z AUTO 01004KT 6SM M10/M20 A3053 RMK T11001200 IEM_DS3505
ZBAA,1990-12-27 00:00,ZBAA 270000Z AUTO 04002KT 7SM M07/M10 A3053 RMK SLP349 T10741104 57005 IEM_DS3505
ZBAA,1990-12-27 01:00,ZBAA 270100Z AUTO 04002KT 7SM M07/M20 A3050 RMK SLP349 T10741204 57005 IEM_DS3505
ZBAA,1990-12-27 02:00,ZBAA 270200Z AUTO 03004KT 6SM M06/M18 A3053 RMK T10601180 IEM_DS3505
ZBAA,1990-12-27 03:00,ZBAA 270300Z AUTO 07002KT 6SM M05/M20 A3050 RMK SLP342 T10501195 57007 IEM_DS3505
ZBAA,1990-12-27 04:00,ZBAA 270400Z AUTO 10004KT 6SM M04/M20 A3047 RMK T10401200 IEM_DS3505
ZBAA,1990-12-27 05:00,ZBAA 270500Z AUTO 11004KT 6SM M03/M19 A3045 RMK T10301190 IEM_DS3505
ZBAA,1990-12-27 06:00,ZBAA 270600Z AUTO 09002KT 5SM M03/M18 A3042 RMK SLP306 T10261180 4////1096 57050 IEM_DS3505
ZBAA,1990-12-27 07:00,ZBAA 270700Z AUTO 17004KT 6SM M03/M21 A3039 RMK T10301210 IEM_DS3505
ZBAA,1990-12-27 08:00,ZBAA 270800Z AUTO 19004KT 6SM M03/M20 A3042 RMK T10301200 IEM_DS3505
ZBAA,1990-12-27 09:00,ZBAA 270900Z AUTO 00000KT 4SM M04/M20 A3039 RMK SLP303 T10401200 57004 IEM_DS3505
ZBAA,1990-12-27 10:00,ZBAA 271000Z AUTO 04002KT 6SM M05/M18 A3039 RMK SLP284 T10521181 41023//// 57009 IEM_DS3505
ZBAA,1990-12-27 11:00,ZBAA 271100Z AUTO 00000KT 6SM M04/M18 A3039 RMK T10401180 IEM_DS3505
ZBAA,1990-12-27 12:00,ZBAA 271200Z AUTO 36002KT 5SM M04/M17 A3039 RMK SLP302 T10401170 57001 IEM_DS3505
ZBAA,1990-12-27 13:00,ZBAA 271300Z AUTO 00000KT 6SM M05/M18 A3039 RMK T10501180 IEM_DS3505
ZBAA,1990-12-27 14:00,ZBAA 271400Z AUTO 00000KT 6SM M06/M18 A3036 RMK T10601180 IEM_DS3505
ZBAA,1990-12-27 18:00,ZBAA 271800Z AUTO 04002KT 6SM M05/M18 RMK SLP284 T10521181 41023//// 57009 IEM_DS3505
ZBAA,1990-12-27 20:00,ZBAA 272000Z AUTO 00000KT 6SM M07/M16 A3033 RMK T10701160 IEM_DS3505
ZBAA,1990-12-27 21:00,ZBAA 272100Z AUTO 02004KT 6SM M05/M19 A3033 RMK SLP282 T10531192 57002 IEM_DS3505
ZBAA,1990-12-27 23:00,ZBAA 272300Z AUTO 00000KT 5SM M07/M16 A3036 RMK T10701160 IEM_DS3505
ZBAA,1990-12-28 00:00,ZBAA 280000Z AUTO 02006KT 4SM M05/M21 A3036 RMK SLP293 T10481210 52011 IEM_DS3505
ZBAA,1990-12-28 03:00,ZBAA 280300Z AUTO 36004KT 4SM M03/M21 A3036 RMK SLP295 T10321207 52002 IEM_DS3505
ZBAA,1990-12-28 04:00,ZBAA 280400Z AUTO 32002KT 7SM M02/M16 A3036 RMK T10201160 IEM_DS3505
ZBAA,1990-12-28 05:00,ZBAA 280500Z AUTO 00000KT 7SM M01/M16 A3033 RMK T10101160 IEM_DS3505
ZBAA,1990-12-28 06:00,ZBAA 280600Z AUTO 04002KT 4SM M01/M16 A3030 RMK SLP276 T10111162 4////1067 57019 IEM_DS3505
ZBAA,1990-12-28 07:00,ZBAA 280700Z AUTO 11002KT 7SM M01/M17 A3033 RMK T10101170 IEM_DS3505
ZBAA,1990-12-28 08:00,ZBAA 280800Z AUTO 00000KT 7SM M01/M17 A3036 RMK T10101170 IEM_DS3505
ZBAA,1990-12-28 09:00,ZBAA 280900Z AUTO 00000KT 4SM M02/M15 A3036 RMK SLP289 T10191149 52013 IEM_DS3505
ZBAA,1990-12-28 10:00,ZBAA 281000Z AUTO 00000KT 7SM M04/M16 A3039 RMK T10401160 IEM_DS3505
ZBAA,1990-12-28 11:00,ZBAA 281100Z AUTO 00000KT 7SM M04/M17 A3039 RMK T10401170 IEM_DS3505
ZBAA,1990-12-28 12:00,ZBAA 281200Z AUTO 00000KT 2 1/2SM M05/M15 A3042 RMK SLP311 T10481149 52021 IEM_DS3505
ZBAA,1990-12-28 14:00,ZBAA 281400Z AUTO 00000KT 7SM M07/M15 A3042 RMK T10701150 IEM_DS3505
ZBAA,1990-12-28 15:00,ZBAA 281500Z AUTO 00000KT 2SM M07/M15 A3047 RMK SLP325 T10661154 52014 IEM_DS3505
ZBAA,1990-12-28 18:00,ZBAA 281800Z AUTO 00000KT 1 1/4SM M08/M15 RMK SLP328 T10791148 41004//// 52003 IEM_DS3505
ZBAA,1990-12-28 20:00,ZBAA 282000Z AUTO 07002KT 5SM M09/M15 A3047 RMK T10901150 IEM_DS3505
ZBAA,1990-12-28 21:00,ZBAA 282100Z AUTO 00000KT 1 1/4SM M08/M16 A3047 RMK SLP329 T10851158 52001 IEM_DS3505
ZBAA,1990-12-28 22:00,ZBAA 282200Z AUTO 14004KT 1SM M08/M09 A3050 RMK T10801090 IEM_DS3505
ZBAA,1990-12-28 23:00,ZBAA 282300Z AUTO 00000KT 1SM M08/M09 A3050 RMK T10801090 IEM_DS3505
ZBAA,1990-12-29 00:00,ZBAA 290000Z AUTO 02002KT 1 1/2SM M09/M14 A3045 RMK SLP343 T10901145 52014 IEM_DS3505
ZBAA,1990-12-29 01:00,ZBAA 290100Z AUTO 12004KT 1 1/4SM M07/M08 A3053 RMK T10701080 IEM_DS3505
ZBAA,1990-12-29 02:00,ZBAA 290200Z AUTO 08002KT 1 1/2SM M06/M07 A3053 RMK T10601070 IEM_DS3505
ZBAA,1990-12-29 03:00,ZBAA 290300Z AUTO 04006KT 3SM M07/M09 A3053 RMK SLP351 T10671093 52008 IEM_DS3505
ZBAA,1990-12-29 04:00,ZBAA 290400Z AUTO 10004KT 3SM M04/M07 A3050 RMK T10401070 IEM_DS3505
ZBAA,1990-12-29 05:00,ZBAA 290500Z AUTO 12002KT M03/M08 A3047 RMK T10301080 IEM_DS3505
ZBAA,1990-12-29 06:00,ZBAA 290600Z AUTO 07004KT 1SM M04/M08 A3045 RMK SLP318 T10381083 4////1098 57033 IEM_DS3505
ZBAA,1990-12-29 07:00,ZBAA 290700Z AUTO 00000KT 4SM M02/M08 A3042 RMK T10201080 IEM_DS3505
ZBAA,1990-12-29 08:00,ZBAA 290800Z AUTO 00000KT 4SM M02/M09 A3042 RMK T10201090 IEM_DS3505
ZBAA,1990-12-29 09:00,ZBAA 290900Z AUTO 34002KT 1SM M04/M08 RMK SLP309 T10431080 57009 IEM_DS3505
ZBAA,1990-12-29 10:00,ZBAA 291000Z AUTO 04002KT 3SM M05/M09 A3042 RMK T10501090 IEM_DS3505
ZBAA,1990-12-29 11:00,ZBAA 291100Z AUTO 00000KT 2 1/2SM M05/M08 A3042 RMK T10501080 IEM_DS3505
ZBAA,1990-12-29 12:00,ZBAA 291200Z AUTO 36004KT 1SM M05/M09 A3042 RMK SLP309 T10521093 54000 IEM_DS3505
ZBAA,1990-12-29 13:00,ZBAA 291300Z AUTO 00000KT 2SM A3039 RMK IEM_DS3505
ZBAA,1990-12-29 14:00,ZBAA 291400Z AUTO 01002KT 2SM M05/M08 A3039 RMK T10501080 IEM_DS3505
ZBAA,1990-12-29 15:00,ZBAA 291500Z AUTO 00000KT 1 1/4SM M04/M09 A3039 RMK SLP301 T10411092 57008 IEM_DS3505
ZBAA,1990-12-29 18:00,ZBAA 291800Z AUTO 34002KT 2SM M04/M09 RMK SLP287 T10361094 41031//// 57013 IEM_DS3505
ZBAA,1990-12-29 21:00,ZBAA 292100Z AUTO 34004KT 2SM M03/M09 A3030 RMK SLP270 T10331087 57017 IEM_DS3505
ZBAA,1990-12-29 22:00,ZBAA 292200Z AUTO 00000KT 2 1/2SM M04/M08 A3027 RMK T10401080 IEM_DS3505
ZBAA,1990-12-29 23:00,ZBAA 292300Z AUTO 32002KT 2 1/2SM M04/M08 A3027 RMK T10401080 IEM_DS3505
ZBAA,1990-12-30 00:00,ZBAA 300000Z AUTO 04004KT 2SM M03/M08 A3027 RMK SLP267 T10301083 57006 IEM_DS3505
ZBAA,1990-12-30 01:00,ZBAA 300100Z AUTO 32002KT 2 1/2SM M03/M08 A3030 RMK T10301080 IEM_DS3505
ZBAA,1990-12-30 02:00,ZBAA 300200Z AUTO 00000KT 2 1/2SM M02/M08 A3030 RMK T10201080 IEM_DS3505
ZBAA,1990-12-30 03:00,ZBAA 300300Z AUTO 36004KT 2 1/2SM M02/M08 A3027 RMK SLP266 T10171079 57001 IEM_DS3505
ZBAA,1990-12-30 04:00,ZBAA 300400Z AUTO 00000KT 2 1/2SM M01/M06 A3024 RMK T10101060 IEM_DS3505
ZBAA,1990-12-30 05:00,ZBAA 300500Z AUTO 11002KT 2 1/2SM M01/M06 A3021 RMK T10101060 IEM_DS3505
ZBAA,1990-12-30 06:00,ZBAA 300600Z AUTO 00000KT 2 1/2SM M00/M07 A3018 RMK SLP239 T10011070 4////1059 57026 IEM_DS3505
ZBAA,1990-12-30 07:00,ZBAA 300700Z AUTO 00000KT 2 1/2SM 00/M06 A3018 RMK T00001060 IEM_DS3505
ZBAA,1990-12-30 08:00,ZBAA 300800Z AUTO 00000KT 2 1/2SM 00/M06 A3018 RMK T00001060 IEM_DS3505
ZBAA,1990-12-30 09:00,ZBAA 300900Z AUTO 00000KT 2SM M00/M07 A3018 RMK SLP230 T10031073 57006 IEM_DS3505
ZBAA,1990-12-30 10:00,ZBAA 301000Z AUTO 02002KT 2 1/2SM 00/M06 A3018 RMK T00001060 IEM_DS3505
ZBAA,1990-12-30 11:00,ZBAA 301100Z AUTO 02002KT 2 1/2SM M01/M06 A3018 RMK T10101060 IEM_DS3505
ZBAA,1990-12-30 12:00,ZBAA 301200Z AUTO 00000KT 2SM M00/M06 A3018 RMK SLP237 T10051063 52004 IEM_DS3505
ZBAA,1990-12-30 13:00,ZBAA 301300Z AUTO 00000KT 2 1/2SM M01/M06 A3018 RMK T10101060 IEM_DS3505
ZBAA,1990-12-30 14:00,ZBAA 301400Z AUTO 00000KT 4SM M01/M06 A3018 RMK T10101060 IEM_DS3505
ZBAA,1990-12-30 15:00,ZBAA 301500Z AUTO 00000KT 1 1/4SM M01/M06 A3018 RMK SLP236 T10081059 57001 IEM_DS3505
ZBAA,1990-12-30 17:00,ZBAA 301700Z AUTO 3SM M01/M07 RMK SLP230 T10061068 40004//// 57006 IEM_DS3505
ZBAA,1990-12-30 18:00,ZBAA 301800Z AUTO 36002KT 3SM M01/M07 RMK SLP230 T10061068 40004//// 57006 IEM_DS3505
ZBAA,1990-12-30 20:00,ZBAA 302000Z AUTO 30002KT 4SM M01/M06 A3015 RMK T10101060 IEM_DS3505
ZBAA,1990-12-30 21:00,ZBAA 302100Z AUTO 00000KT 1 1/4SM M01/M07 A3012 RMK SLP215 T10091068 57015 IEM_DS3505
ZBAA,1990-12-30 22:00,ZBAA 302200Z AUTO 31002KT 4SM M01/M06 A3012 RMK T10101060 IEM_DS3505
ZBAA,1990-12-30 23:00,ZBAA 302300Z AUTO 32004KT 4SM M01/M07 A3012 RMK T10101070 IEM_DS3505
