station,valid,metar
ZBAA,1983-01-01 00:00,ZBAA 010000Z AUTO 04002KT 1 1/2SM M05/M09 RMK SLP303 T10491092 52010 IEM_DS3505
ZBAA,1983-01-01 03:00,ZBAA 010300Z AUTO 00000KT 2 1/2SM M01/M08 RMK SLP306 T10071083 52003 IEM_DS3505
ZBAA,1983-01-01 04:00,ZBAA 010400Z AUTO 00000KT 7SM 00/M12 A3036 RMK T00001120 IEM_DS3505
ZBAA,1983-01-01 05:00,ZBAA 010500Z AUTO 00000KT 7SM 01/M10 A3030 RMK T00101100 IEM_DS3505
ZBAA,1983-01-01 06:00,ZBAA 010600Z AUTO 00000KT 7SM 02/M09 A3030 RMK SLP277 T00201090 4////1052 57028 IEM_DS3505
ZBAA,1983-01-01 07:00,ZBAA 010700Z AUTO 00000KT 7SM 02/M09 A3030 RMK T00201090 IEM_DS3505
ZBAA,1983-01-01 08:00,ZBAA 010800Z AUTO 00000KT 7SM 02/M09 A3030 RMK T00201090 IEM_DS3505
ZBAA,1983-01-01 09:00,ZBAA 010900Z AUTO 20002KT 4SM 01/M07 A3030 RMK SLP280 T00091068 52002 IEM_DS3505
ZBAA,1983-01-01 10:00,ZBAA 011000Z AUTO 00000KT 7SM M01/M09 A3030 RMK T10101090 IEM_DS3505
ZBAA,1983-01-01 12:00,ZBAA 011200Z AUTO 00000KT 3SM M04/M08 RMK SLP291 T10351076 52011 IEM_DS3505
ZBAA,1983-01-01 15:00,ZBAA 011500Z AUTO 00000KT 2SM M05/M08 RMK SLP296 T10511079 52005 IEM_DS3505
ZBAA,1983-01-01 18:00,ZBAA 011800Z AUTO 04004KT 1 1/4SM M07/M10 RMK SLP295 T10711096 40032//// 57001 IEM_DS3505
ZBAA,1983-01-01 21:00,ZBAA 012100Z AUTO 00000KT 1 1/4SM M08/M10 RMK SLP298 T10831105 52003 IEM_DS3505
ZBAA,1983-01-02 00:00,ZBAA 020000Z AUTO 34004KT 1 1/4SM M08/M10 RMK SLP305 T10771105 52006 IEM_DS3505
ZBAA,1983-01-02 03:00,ZBAA 020300Z AUTO 34002KT 3SM 01/M13 RMK SLP311 T00131130 52007 IEM_DS3505
ZBAA,1983-01-02 06:00,ZBAA 020600Z AUTO 22002KT 5SM 06/M13 RMK SLP294 T00561130 4////1091 57016 IEM_DS3505
ZBAA,1983-01-02 09:00,ZBAA 020900Z AUTO 20006KT 3SM 04/M10 RMK SLP300 T00351096 52005 IEM_DS3505
ZBAA,1983-01-02 12:00,ZBAA 021200Z AUTO 20004KT 3SM M00/M08 RMK SLP310 T10041083 52010 IEM_DS3505
ZBAA,1983-01-02 15:00,ZBAA 021500Z AUTO 00000KT 2SM M04/M09 RMK SLP310 T10411087 54000 IEM_DS3505
ZBAA,1983-01-02 18:00,ZBAA 021800Z AUTO 00000KT 2SM M06/M10 RMK SLP307 T10631105 40062//// 57002 IEM_DS3505
ZBAA,1983-01-02 21:00,ZBAA 022100Z AUTO 36002KT 2SM M05/M12 RMK SLP302 T10541119 57005 IEM_DS3505
ZBAA,1983-01-03 00:00,ZBAA 030000Z AUTO 04004KT 1 1/4SM M06/M13 RMK SLP308 T10581130 52005 IEM_DS3505
ZBAA,1983-01-03 03:00,ZBAA 030300Z AUTO 07004KT 2 1/2SM M01/M12 RMK SLP309 T10101124 52001 IEM_DS3505
ZBAA,1983-01-03 06:00,ZBAA 030600Z AUTO 04004KT 2SM 02/M10 RMK SLP280 T00231105 4////1077 57029 IEM_DS3505
ZBAA,1983-01-03 09:00,ZBAA 030900Z AUTO 04002KT 1 1/4SM 02/M08 RMK SLP283 T00161083 52003 IEM_DS3505
ZBAA,1983-01-03 12:00,ZBAA 031200Z AUTO 36002KT 1 1/4SM M01/M08 RMK SLP289 T10091076 52006 IEM_DS3505
ZBAA,1983-01-03 15:00,ZBAA 031500Z AUTO 36004KT 1 1/4SM M01/M08 RMK SLP288 T10071083 54000 IEM_DS3505
ZBAA,1983-01-03 18:00,ZBAA 031800Z AUTO 02004KT 2SM 00/M09 RMK SLP287 T00031087 40026//// 57001 IEM_DS3505
ZBAA,1983-01-03 21:00,ZBAA 032100Z AUTO 36008KT 2 1/2SM M01/M10 RMK SLP290 T10111105 52003 IEM_DS3505
ZBAA,1983-01-04 00:00,ZBAA 040000Z AUTO 36014KT 7SM 01/M18 RMK SLP297 T00061175 52007 IEM_DS3505
ZBAA,1983-01-04 03:00,ZBAA 040300Z AUTO 36012KT 16SM 02/M18 A3039 RMK SLP302 T00231183 52005 IEM_DS3505
ZBAA,1983-01-04 04:00,ZBAA 040400Z AUTO 34004KT 7SM 03/M12 A3036 RMK T00301120 IEM_DS3505
ZBAA,1983-01-04 06:00,ZBAA 040600Z AUTO 36012KT 16SM 04/M18 A3027 RMK SLP267 T00451175 4////1033 57035 IEM_DS3505
ZBAA,1983-01-04 07:00,ZBAA 040700Z AUTO 02010KT 6SM 04/M12 A3027 RMK T00401120 IEM_DS3505
ZBAA,1983-01-04 08:00,ZBAA 040800Z AUTO 05008KT 6SM 04/M13 A3027 RMK T00401130 IEM_DS3505
ZBAA,1983-01-04 09:00,ZBAA 040900Z AUTO 04004KT 9SM 03/M15 RMK SLP267 T00341154 54000 IEM_DS3505
ZBAA,1983-01-04 12:00,ZBAA 041200Z AUTO 00000KT 6SM M03/M11 RMK SLP275 T10271114 52007 IEM_DS3505
ZBAA,1983-01-04 15:00,ZBAA 041500Z AUTO 00000KT 4SM M04/M12 RMK SLP268 T10451119 57007 IEM_DS3505
ZBAA,1983-01-04 18:00,ZBAA 041800Z AUTO 00000KT 4SM M05/M10 RMK SLP257 T10541105 40048//// 57010 IEM_DS3505
ZBAA,1983-01-04 21:00,ZBAA 042100Z AUTO 34004KT 4SM M06/M12 RMK SLP245 T10631124 57013 IEM_DS3505
ZBAA,1983-01-05 00:00,ZBAA 050000Z AUTO 36006KT 1SM M05/M09 RMK SLP243 T10541087 57002 IEM_DS3505
ZBAA,1983-01-05 03:00,ZBAA 050300Z AUTO 34004KT 1SM M02/M06 RMK SLP233 T10221058 57010 IEM_DS3505
ZBAA,1983-01-05 06:00,ZBAA 050600Z AUTO 04004KT 1SM M02/M06 RMK SLP199 T10151065 4////1070 57033 IEM_DS3505
ZBAA,1983-01-05 09:00,ZBAA 050900Z AUTO 25002KT 1SM M02/M06 RMK SLP202 T10191065 52003 IEM_DS3505
ZBAA,1983-01-05 12:00,ZBAA 051200Z AUTO 02006KT 1SM M02/M06 RMK SLP214 T10181058 52012 IEM_DS3505
ZBAA,1983-01-05 15:00,ZBAA 051500Z AUTO 36006KT 1SM M02/M06 RMK SLP217 T10191055 52003 IEM_DS3505
ZBAA,1983-01-05 18:00,ZBAA 051800Z AUTO 36006KT 1SM M02/M06 RMK SLP221 T10251058 41009//// 52003 IEM_DS3505
ZBAA,1983-01-05 21:00,ZBAA 052100Z AUTO 34006KT 1SM M02/M06 RMK SLP226 T10181065 52005 IEM_DS3505
ZBAA,1983-01-06 00:00,ZBAA 060000Z AUTO 36006KT 1SM M03/M07 RMK SLP240 T10341068 52014 IEM_DS3505
ZBAA,1983-01-06 03:00,ZBAA 060300Z AUTO 36006KT 2 1/2SM M00/M09 RMK SLP256 T10041087 52016 IEM_DS3505
ZBAA,1983-01-06 06:00,ZBAA 060600Z AUTO 02006KT 4SM 02/M09 RMK SLP232 T00201087 4////1038 57023 IEM_DS3505
ZBAA,1983-01-06 09:00,ZBAA 060900Z AUTO 36006KT 4SM 01/M11 RMK SLP239 T00121114 52007 IEM_DS3505
ZBAA,1983-01-06 12:00,ZBAA 061200Z AUTO 36006KT 4SM M01/M11 RMK SLP255 T10111109 52015 IEM_DS3505
ZBAA,1983-01-06 15:00,ZBAA 061500Z AUTO 34019KT 4SM 00/M16 RMK SLP265 T00001160 52011 IEM_DS3505
ZBAA,1983-01-06 18:00,ZBAA 061800Z AUTO 34016KT 6SM M04/M18 RMK SLP291 T10371183 40022//// 52026 IEM_DS3505
ZBAA,1983-01-06 21:00,ZBAA 062100Z AUTO 34019KT 6SM M07/M29 RMK SLP309 T10671292 52017 IEM_DS3505
ZBAA,1983-01-07 00:00,ZBAA 070000Z AUTO 34014KT 9SM M10/M29 RMK SLP355 T11011292 52045 IEM_DS3505
ZBAA,1983-01-07 03:00,ZBAA 070300Z AUTO 34016KT 9SM M09/M34 RMK SLP376 T10901339 52021 IEM_DS3505
ZBAA,1983-01-07 06:00,ZBAA 070600Z AUTO 32029KT 9SM M08/M37 RMK SLP349 T10821374 4////1107 57027 IEM_DS3505
ZBAA,1983-01-07 09:00,ZBAA 070900Z AUTO 34014KT 11SM M08/M34 RMK SLP367 T10811339 52017 IEM_DS3505
ZBAA,1983-01-07 12:00,ZBAA 071200Z AUTO 02010KT 19SM M09/M34 RMK SLP381 T10931339 52014 IEM_DS3505
ZBAA,1983-01-07 15:00,ZBAA 071500Z AUTO 36008KT 19SM M10/M29 RMK SLP384 T10991292 52003 IEM_DS3505
ZBAA,1983-01-07 18:00,ZBAA 071800Z AUTO 20006KT 12SM M12/M27 RMK SLP388 T11191274 41034//// 52004 IEM_DS3505
ZBAA,1983-01-07 21:00,ZBAA 072100Z AUTO 18004KT 9SM M12/M27 RMK SLP383 T11251274 57005 IEM_DS3505
ZBAA,1983-01-08 00:00,ZBAA 080000Z AUTO 00000KT 4SM M14/M26 RMK SLP385 T11431258 52001 IEM_DS3505
ZBAA,1983-01-08 03:00,ZBAA 080300Z AUTO 20010KT 4SM M08/M29 RMK SLP394 T10821292 52010 IEM_DS3505
ZBAA,1983-01-08 06:00,ZBAA 080600Z AUTO 16008KT 5SM M05/M26 RMK SLP365 T10471258 4////1150 57029 IEM_DS3505
ZBAA,1983-01-08 09:00,ZBAA 080900Z AUTO 20006KT 4SM M05/M27 RMK SLP363 T10501274 57002 IEM_DS3505
ZBAA,1983-01-08 12:00,ZBAA 081200Z AUTO 00000KT 4SM M09/M20 RMK SLP371 T10871200 52007 IEM_DS3505
ZBAA,1983-01-08 15:00,ZBAA 081500Z AUTO 02002KT 4SM M09/M20 RMK SLP376 T10861200 52006 IEM_DS3505
ZBAA,1983-01-08 18:00,ZBAA 081800Z AUTO 00000KT 3SM M11/M19 RMK SLP373 T11121191 41038//// 57003 IEM_DS3505
ZBAA,1983-01-08 21:00,ZBAA 082100Z AUTO 02004KT 3SM M12/M18 RMK SLP371 T11151175 57002 IEM_DS3505
ZBAA,1983-01-09 00:00,ZBAA 090000Z AUTO 07004KT 3SM M12/M18 RMK SLP385 T11231183 52014 IEM_DS3505
ZBAA,1983-01-09 03:00,ZBAA 090300Z AUTO 02006KT 4SM M06/M23 RMK SLP400 T10561231 52015 IEM_DS3505
ZBAA,1983-01-09 06:00,ZBAA 090600Z AUTO 04008KT 5SM M02/M20 RMK SLP381 T10211200 4////1133 57018 IEM_DS3505
ZBAA,1983-01-09 09:00,ZBAA 090900Z AUTO 00000KT 4SM M03/M19 RMK SLP392 T10281191 52010 IEM_DS3505
ZBAA,1983-01-09 12:00,ZBAA 091200Z AUTO 00000KT 2 1/2SM M07/M16 RMK SLP409 T10731160 52017 IEM_DS3505
ZBAA,1983-01-09 15:00,ZBAA 091500Z AUTO 00000KT 2 1/2SM M09/M17 RMK SLP424 T10861167 52014 IEM_DS3505
ZBAA,1983-01-09 18:00,ZBAA 091800Z AUTO 02008KT 5SM M08/M27 RMK SLP424 T10761274 41006//// 52002 IEM_DS3505
ZBAA,1983-01-09 21:00,ZBAA 092100Z AUTO 32002KT 4SM M12/M21 RMK SLP427 T11201210 52001 IEM_DS3505
ZBAA,1983-01-10 00:00,ZBAA 100000Z AUTO 04002KT 2 1/2SM M12/M21 RMK SLP430 T11241210 52003 IEM_DS3505
ZBAA,1983-01-10 03:00,ZBAA 100300Z AUTO 02002KT 4SM M05/M22 RMK SLP427 T10491220 57002 IEM_DS3505
ZBAA,1983-01-10 06:00,ZBAA 100600Z AUTO 18006KT 6SM M01/M26 RMK SLP390 T10121258 4////1130 57036 IEM_DS3505
ZBAA,1983-01-10 09:00,ZBAA 100900Z AUTO 20006KT 4SM M02/M23 RMK SLP378 T10201231 57012 IEM_DS3505
ZBAA,1983-01-10 12:00,ZBAA 101200Z AUTO 20004KT 3SM M05/M20 RMK SLP381 T10481200 52002 IEM_DS3505
ZBAA,1983-01-10 15:00,ZBAA 101500Z AUTO 00000KT 2 1/2SM M09/M16 RMK SLP375 T10871160 57005 IEM_DS3505
ZBAA,1983-01-10 18:00,ZBAA 101800Z AUTO 07002KT 2SM M10/M17 RMK SLP366 T11011167 41005//// 57009 IEM_DS3505
ZBAA,1983-01-10 21:00,ZBAA 102100Z AUTO 25002KT 2SM M11/M17 RMK SLP351 T11071167 57015 IEM_DS3505
ZBAA,1983-01-11 00:00,ZBAA 110000Z AUTO 20002KT 5SM M06/M19 RMK SLP351 T10641191 54000 IEM_DS3505
ZBAA,1983-01-11 03:00,ZBAA 110300Z AUTO 34004KT 7SM M00/M23 RMK SLP351 T10031231 54000 IEM_DS3505
ZBAA,1983-01-11 06:00,ZBAA 110600Z AUTO 34010KT 19SM 03/M23 RMK SLP314 T00291231 4////1116 57036 IEM_DS3505
ZBAA,1983-01-11 09:00,ZBAA 110900Z AUTO 34006KT 16SM 01/M21 RMK SLP314 T00081210 54000 IEM_DS3505
ZBAA,1983-01-11 12:00,ZBAA 111200Z AUTO 00000KT 7SM M04/M18 RMK SLP323 T10381175 52008 IEM_DS3505
ZBAA,1983-01-11 15:00,ZBAA 111500Z AUTO 18004KT 6SM M05/M16 RMK SLP319 T10461160 57003 IEM_DS3505
ZBAA,1983-01-11 18:00,ZBAA 111800Z AUTO 00000KT 3SM M08/M15 RMK SLP311 T10781154 40030//// 57008 IEM_DS3505
ZBAA,1983-01-11 21:00,ZBAA 112100Z AUTO 04004KT 3SM M07/M18 RMK SLP296 T10721175 57015 IEM_DS3505
ZBAA,1983-01-12 00:00,ZBAA 120000Z AUTO 34002KT 1SM M07/M15 RMK SLP297 T10741147 54000 IEM_DS3505
ZBAA,1983-01-12 03:00,ZBAA 120300Z AUTO 02006KT 2 1/2SM 01/M22 RMK SLP300 T00061220 52004 IEM_DS3505
ZBAA,1983-01-12 06:00,ZBAA 120600Z AUTO 27010KT 7SM 05/M29 RMK SLP267 T00521292 4////1093 57033 IEM_DS3505
ZBAA,1983-01-12 09:00,ZBAA 120900Z AUTO 32008KT 9SM 03/M23 RMK SLP274 T00321231 52007 IEM_DS3505
ZBAA,1983-01-12 12:00,ZBAA 121200Z AUTO 36010KT 6SM M00/M18 RMK SLP293 T10021183 52019 IEM_DS3505
ZBAA,1983-01-12 15:00,ZBAA 121500Z AUTO 36012KT 6SM M01/M20 RMK SLP310 T10141200 52018 IEM_DS3505
ZBAA,1983-01-12 18:00,ZBAA 121800Z AUTO 36008KT 9SM M04/M19 RMK SLP315 T10411191 40055//// 52005 IEM_DS3505
ZBAA,1983-01-12 21:00,ZBAA 122100Z AUTO 36008KT 6SM M04/M19 RMK SLP316 T10401191 52001 IEM_DS3505
ZBAA,1983-01-13 00:00,ZBAA 130000Z AUTO 34004KT 12SM M06/M19 RMK SLP315 T10551191 57002 IEM_DS3505
ZBAA,1983-01-13 03:00,ZBAA 130300Z AUTO 22004KT 2 1/2SM 01/M17 RMK SLP319 T00101167 52005 IEM_DS3505
ZBAA,1983-01-13 06:00,ZBAA 130600Z AUTO 22010KT 4SM 03/M22 RMK SLP280 T00281220 4////1063 57039 IEM_DS3505
ZBAA,1983-01-13 09:00,ZBAA 130900Z AUTO 22008KT 3SM 02/M19 RMK SLP264 T00241191 57016 IEM_DS3505
ZBAA,1983-01-13 12:00,ZBAA 131200Z AUTO 20006KT 3SM M02/M15 RMK SLP264 T10151147 57001 IEM_DS3505
ZBAA,1983-01-13 15:00,ZBAA 131500Z AUTO 00000KT 4SM M05/M15 RMK SLP264 T10461147 54000 IEM_DS3505
ZBAA,1983-01-13 18:00,ZBAA 131800Z AUTO 07004KT 4SM M01/M18 RMK SLP267 T10141183 40037//// 52004 IEM_DS3505
ZBAA,1983-01-13 21:00,ZBAA 132100Z AUTO 36014KT 7SM M01/M21 RMK SLP279 T10111210 52012 IEM_DS3505
ZBAA,1983-01-14 00:00,ZBAA 140000Z AUTO 02010KT 6SM M03/M21 RMK SLP304 T10281210 52024 IEM_DS3505
ZBAA,1983-01-14 03:00,ZBAA 140300Z AUTO 04012KT 7SM M00/M22 RMK SLP313 T10021220 52009 IEM_DS3505
ZBAA,1983-01-14 06:00,ZBAA 140600Z AUTO 07006KT 12SM 03/M18 RMK SLP292 T00281175 4////1061 57020 IEM_DS3505
ZBAA,1983-01-14 09:00,ZBAA 140900Z AUTO 09002KT 8SM 02/M15 RMK SLP294 T00201154 52002 IEM_DS3505
ZBAA,1983-01-14 12:00,ZBAA 141200Z AUTO 18006KT 4SM M01/M16 RMK SLP312 T10061160 52017 IEM_DS3505
ZBAA,1983-01-14 15:00,ZBAA 141500Z AUTO 22004KT 6SM M03/M14 RMK SLP319 T10311135 52007 IEM_DS3505
ZBAA,1983-01-14 18:00,ZBAA 141800Z AUTO 00000KT 5SM M03/M12 RMK SLP314 T10301119 40030//// 57004 IEM_DS3505
ZBAA,1983-01-14 21:00,ZBAA 142100Z AUTO 00000KT 2 1/2SM M06/M13 RMK SLP308 T10551130 57007 IEM_DS3505
ZBAA,1983-01-15 00:00,ZBAA 150000Z AUTO 36004KT 1 1/2SM M05/M11 RMK SLP308 T10471114 54000 IEM_DS3505
ZBAA,1983-01-15 03:00,ZBAA 150300Z AUTO 04004KT 1 1/4SM M03/M12 RMK SLP314 T10271124 52006 IEM_DS3505
ZBAA,1983-01-15 06:00,ZBAA 150600Z AUTO 18004KT 5SM 01/M08 RMK SLP278 T00121083 4////1066 57035 IEM_DS3505
ZBAA,1983-01-15 09:00,ZBAA 150900Z AUTO 18006KT 5SM 01/M08 RMK SLP274 T00081079 57005 IEM_DS3505
ZBAA,1983-01-15 12:00,ZBAA 151200Z AUTO 00000KT 4SM M02/M09 RMK SLP276 T10221092 52002 IEM_DS3505
ZBAA,1983-01-15 15:00,ZBAA 151500Z AUTO 36002KT 4SM M03/M10 RMK SLP284 T10321096 52008 IEM_DS3505
ZBAA,1983-01-15 18:00,ZBAA 151800Z AUTO 32002KT 3SM M07/M10 RMK SLP289 T10681105 40023//// 52005 IEM_DS3505
ZBAA,1983-01-15 21:00,ZBAA 152100Z AUTO 36002KT 3SM M06/M11 RMK SLP290 T10621109 52001 IEM_DS3505
ZBAA,1983-01-16 00:00,ZBAA 160000Z AUTO 00000KT 1 1/4SM M07/M11 RMK SLP306 T10711114 52016 IEM_DS3505
ZBAA,1983-01-16 03:00,ZBAA 160300Z AUTO 00000KT 1SM M02/M09 RMK SLP322 T10191087 52016 IEM_DS3505
ZBAA,1983-01-16 06:00,ZBAA 160600Z AUTO 32008KT 3SM 06/M14 RMK SLP304 T00581141 4////1088 57017 IEM_DS3505
ZBAA,1983-01-16 09:00,ZBAA 160900Z AUTO 25006KT 3SM 04/M12 RMK SLP307 T00381124 52002 IEM_DS3505
ZBAA,1983-01-16 12:00,ZBAA 161200Z AUTO 20004KT 4SM 01/M11 RMK SLP327 T00081109 52019 IEM_DS3505
ZBAA,1983-01-16 15:00,ZBAA 161500Z AUTO 36004KT 3SM M01/M10 RMK SLP341 T10121100 52015 IEM_DS3505
ZBAA,1983-01-16 18:00,ZBAA 161800Z AUTO 07004KT 3SM M02/M13 RMK SLP329 T10181130 40064//// 57011 IEM_DS3505
ZBAA,1983-01-16 21:00,ZBAA 162100Z AUTO 36002KT 2 1/2SM M04/M15 RMK SLP326 T10421154 57004 IEM_DS3505
ZBAA,1983-01-17 00:00,ZBAA 170000Z AUTO 04002KT 2SM M06/M15 RMK SLP331 T10611147 52005 IEM_DS3505
ZBAA,1983-01-17 03:00,ZBAA 170300Z AUTO 20006KT 1 1/4SM 00/M08 RMK SLP336 T00011079 52005 IEM_DS3505
ZBAA,1983-01-17 06:00,ZBAA 170600Z AUTO 16006KT 4SM 03/M10 RMK SLP307 T00261100 4////1065 57028 IEM_DS3505
ZBAA,1983-01-17 09:00,ZBAA 170900Z AUTO 16004KT 4SM 02/M11 RMK SLP305 T00171114 57003 IEM_DS3505
ZBAA,1983-01-17 12:00,ZBAA 171200Z AUTO 00000KT 2 1/2SM M03/M10 RMK SLP319 T10311105 52014 IEM_DS3505
ZBAA,1983-01-17 15:00,ZBAA 171500Z AUTO 18004KT 3SM M03/M07 RMK SLP330 T10321068 52011 IEM_DS3505
ZBAA,1983-01-17 18:00,ZBAA 171800Z AUTO 34004KT 3SM M06/M09 RMK SLP333 T10651092 40031//// 52003 IEM_DS3505
ZBAA,1983-01-17 21:00,ZBAA 172100Z AUTO 36002KT 2 1/2SM M06/M09 RMK SLP341 T10611092 52008 IEM_DS3505
ZBAA,1983-01-18 00:00,ZBAA 180000Z AUTO 36008KT 2SM M05/M11 RMK SLP354 T10471109 52012 IEM_DS3505
ZBAA,1983-01-18 03:00,ZBAA 180300Z AUTO 02010KT 16SM M03/M21 RMK SLP373 T10321210 52019 IEM_DS3505
ZBAA,1983-01-18 06:00,ZBAA 180600Z AUTO 34010KT 17SM M00/M22 RMK SLP354 T10041220 4////1069 57019 IEM_DS3505
ZBAA,1983-01-18 09:00,ZBAA 180900Z AUTO 32012KT 12SM M02/M22 RMK SLP362 T10161220 52008 IEM_DS3505
ZBAA,1983-01-18 12:00,ZBAA 181200Z AUTO 34006KT 12SM M03/M23 RMK SLP378 T10301231 52016 IEM_DS3505
ZBAA,1983-01-18 15:00,ZBAA 181500Z AUTO 34010KT 12SM M04/M24 RMK SLP386 T10431244 52008 IEM_DS3505
ZBAA,1983-01-18 18:00,ZBAA 181800Z AUTO 34008KT 12SM M06/M23 RMK SLP388 T10631231 41001//// 52002 IEM_DS3505
ZBAA,1983-01-18 21:00,ZBAA 182100Z AUTO 32006KT 12SM M07/M24 RMK SLP384 T10681244 57004 IEM_DS3505
ZBAA,1983-01-19 00:00,ZBAA 190000Z AUTO 02010KT 9SM M07/M23 RMK SLP390 T10721231 52006 IEM_DS3505
ZBAA,1983-01-19 03:00,ZBAA 190300Z AUTO 32016KT 19SM M04/M26 RMK SLP401 T10351258 52011 IEM_DS3505
ZBAA,1983-01-19 06:00,ZBAA 190600Z AUTO 32014KT 19SM M02/M29 RMK SLP382 T10241292 4////1079 57019 IEM_DS3505
ZBAA,1983-01-19 09:00,ZBAA 190900Z AUTO 34010KT 17SM M03/M29 RMK SLP386 T10301292 52004 IEM_DS3505
ZBAA,1983-01-19 12:00,ZBAA 191200Z AUTO 36006KT 16SM M06/M27 RMK SLP390 T10551274 52004 IEM_DS3505
ZBAA,1983-01-19 15:00,ZBAA 191500Z AUTO 04006KT 16SM M07/M27 RMK SLP391 T10691274 52001 IEM_DS3505
ZBAA,1983-01-19 18:00,ZBAA 191800Z AUTO 29004KT 12SM M10/M24 RMK SLP391 T11031244 41018//// 54000 IEM_DS3505
ZBAA,1983-01-19 21:00,ZBAA 192100Z AUTO 00000KT 9SM M12/M22 RMK SLP387 T11181220 57005 IEM_DS3505
ZBAA,1983-01-20 00:00,ZBAA 200000Z AUTO 02002KT 6SM M10/M21 RMK SLP388 T11031210 52001 IEM_DS3505
ZBAA,1983-01-20 01:00,ZBAA 200100Z AUTO 02002KT 6SM M10/M21 RMK SLP388 T11031210 52001 IEM_DS3505
ZBAA,1983-01-20 03:00,ZBAA 200300Z AUTO 04006KT 4SM M05/M27 RMK SLP388 T10521274 52001 IEM_DS3505
ZBAA,1983-01-20 06:00,ZBAA 200600Z AUTO 00000KT 6SM M01/M24 RMK SLP357 T10081244 4////1128 57031 IEM_DS3505
ZBAA,1983-01-20 09:00,ZBAA 200900Z AUTO 34008KT 12SM M01/M21 RMK SLP361 T10111210 52004 IEM_DS3505
ZBAA,1983-01-20 12:00,ZBAA 201200Z AUTO 36006KT 12SM M04/M21 RMK SLP383 T10421210 52021 IEM_DS3505
ZBAA,1983-01-20 15:00,ZBAA 201500Z AUTO 34010KT 12SM M05/M22 RMK SLP398 T10521220 52016 IEM_DS3505
ZBAA,1983-01-20 18:00,ZBAA 201800Z AUTO 34010KT 12SM M07/M22 RMK SLP410 T10671220 52012 IEM_DS3505
ZBAA,1983-01-20 21:00,ZBAA 202100Z AUTO 02010KT 12SM M07/M21 RMK SLP410 T10691210 54000 IEM_DS3505
ZBAA,1983-01-21 00:00,ZBAA 210000Z AUTO 36006KT 7SM M07/M22 RMK SLP426 T10711220 52015 IEM_DS3505
ZBAA,1983-01-21 03:00,ZBAA 210300Z AUTO 34006KT 7SM M03/M22 RMK SLP429 T10271220 52004 IEM_DS3505
ZBAA,1983-01-21 06:00,ZBAA 210600Z AUTO 20006KT 6SM 00/M22 RMK SLP406 T00011220 4////1082 57023 IEM_DS3505
ZBAA,1983-01-21 09:00,ZBAA 210900Z AUTO 20006KT 6SM M01/M21 RMK SLP403 T10061210 57003 IEM_DS3505
ZBAA,1983-01-21 12:00,ZBAA 211200Z AUTO 20006KT 6SM M02/M21 RMK SLP410 T10241210 52007 IEM_DS3505
ZBAA,1983-01-21 15:00,ZBAA 211500Z AUTO 25006KT 6SM M05/M18 RMK SLP410 T10521183 54000 IEM_DS3505
ZBAA,1983-01-21 18:00,ZBAA 211800Z AUTO 04006KT 6SM M08/M16 RMK SLP401 T10821160 40014//// 57009 IEM_DS3505
ZBAA,1983-01-21 21:00,ZBAA 212100Z AUTO 18002KT 4SM M10/M17 RMK SLP395 T10971167 57006 IEM_DS3505
ZBAA,1983-01-22 00:00,ZBAA 220000Z AUTO 00000KT 2 1/2SM M10/M17 RMK SLP399 T10991167 52004 IEM_DS3505
ZBAA,1983-01-22 03:00,ZBAA 220300Z AUTO 04002KT 2SM M01/M17 RMK SLP401 T10101167 52002 IEM_DS3505
ZBAA,1983-01-22 06:00,ZBAA 220600Z AUTO 18002KT 4SM 04/M16 RMK SLP368 T00411160 4////1105 57032 IEM_DS3505
ZBAA,1983-01-22 09:00,ZBAA 220900Z AUTO 20006KT 4SM 03/M18 RMK SLP359 T00301183 57010 IEM_DS3505
ZBAA,1983-01-22 12:00,ZBAA 221200Z AUTO 18004KT 2 1/2SM M00/M14 RMK SLP364 T10031141 52005 IEM_DS3505
ZBAA,1983-01-22 15:00,ZBAA 221500Z AUTO 00000KT 2SM M04/M16 RMK SLP357 T10401160 57006 IEM_DS3505
ZBAA,1983-01-22 18:00,ZBAA 221800Z AUTO 00000KT 2SM M07/M14 RMK SLP341 T10731135 40047//// 57016 IEM_DS3505
ZBAA,1983-01-22 21:00,ZBAA 222100Z AUTO 00000KT 2SM M09/M14 RMK SLP326 T10881135 57015 IEM_DS3505
ZBAA,1983-01-23 00:00,ZBAA 230000Z AUTO 00000KT 2SM M10/M14 RMK SLP324 T10981135 57003 IEM_DS3505
ZBAA,1983-01-23 03:00,ZBAA 230300Z AUTO 36006KT 4SM 03/M15 RMK SLP323 T00281154 54000 IEM_DS3505
ZBAA,1983-01-23 06:00,ZBAA 230600Z AUTO 22004KT 5SM 07/M15 RMK SLP292 T00731154 4////1106 57030 IEM_DS3505
ZBAA,1983-01-23 09:00,ZBAA 230900Z AUTO 22002KT 4SM 05/M14 RMK SLP295 T00521141 52002 IEM_DS3505
ZBAA,1983-01-23 12:00,ZBAA 231200Z AUTO 00000KT 4SM M02/M14 RMK SLP308 T10231141 52012 IEM_DS3505
ZBAA,1983-01-23 15:00,ZBAA 231500Z AUTO 36002KT 2SM M05/M12 RMK SLP309 T10521124 52002 IEM_DS3505
ZBAA,1983-01-23 18:00,ZBAA 231800Z AUTO 00000KT 1 1/4SM M07/M11 RMK SLP303 T10671114 40079//// 57005 IEM_DS3505
ZBAA,1983-01-23 21:00,ZBAA 232100Z AUTO 00000KT 2SM M09/M13 RMK SLP297 T10861130 57007 IEM_DS3505
ZBAA,1983-01-24 00:00,ZBAA 240000Z AUTO 04002KT 1 1/4SM M09/M14 RMK SLP303 T10861140 52005 IEM_DS3505
ZBAA,1983-01-24 03:00,ZBAA 240300Z AUTO 04002KT 2SM 03/M17 RMK SLP304 T00291167 52002 IEM_DS3505
ZBAA,1983-01-24 06:00,ZBAA 240600Z AUTO 18006KT 2 1/2SM 08/M16 RMK SLP275 T00781160 4////1095 57028 IEM_DS3505
ZBAA,1983-01-24 09:00,ZBAA 240900Z AUTO 20006KT 2 1/2SM 07/M18 RMK SLP268 T00661183 57007 IEM_DS3505
ZBAA,1983-01-24 12:00,ZBAA 241200Z AUTO 18004KT 4SM 01/M12 RMK SLP275 T00121124 52006 IEM_DS3505
ZBAA,1983-01-24 15:00,ZBAA 241500Z AUTO 00000KT 2 1/2SM M04/M12 RMK SLP273 T10391124 57001 IEM_DS3505
ZBAA,1983-01-24 18:00,ZBAA 241800Z AUTO 02006KT 6SM M05/M12 RMK SLP265 T10501124 40085//// 57008 IEM_DS3505
ZBAA,1983-01-24 21:00,ZBAA 242100Z AUTO 00000KT 4SM M07/M14 RMK SLP258 T10661135 57007 IEM_DS3505
ZBAA,1983-01-25 00:00,ZBAA 250000Z AUTO 07006KT 2SM M05/M17 RMK SLP266 T10491167 52007 IEM_DS3505
ZBAA,1983-01-25 03:00,ZBAA 250300Z AUTO 36010KT 3SM 05/M18 RMK SLP266 T00471183 52001 IEM_DS3505
ZBAA,1983-01-25 06:00,ZBAA 250600Z AUTO 36008KT 7SM 10/M18 RMK SLP244 T01051175 4////1086 57022 IEM_DS3505
ZBAA,1983-01-25 09:00,ZBAA 250900Z AUTO 00000KT 2SM 08/M10 RMK SLP249 T00771105 52005 IEM_DS3505
ZBAA,1983-01-25 12:00,ZBAA 251200Z AUTO 00000KT 2SM 01/M12 RMK SLP269 T00101119 52019 IEM_DS3505
ZBAA,1983-01-25 15:00,ZBAA 251500Z AUTO 36004KT 1 1/4SM M02/M10 RMK SLP281 T10251096 52010 IEM_DS3505
ZBAA,1983-01-25 18:00,ZBAA 251800Z AUTO 34004KT 2 1/2SM M03/M12 RMK SLP287 T10311124 40112//// 52007 IEM_DS3505
ZBAA,1983-01-25 21:00,ZBAA 252100Z AUTO 00000KT 2 1/2SM M03/M12 RMK SLP288 T10341119 54000 IEM_DS3505
ZBAA,1983-01-26 00:00,ZBAA 260000Z AUTO 27002KT 1 1/2SM M05/M11 RMK SLP303 T10461109 52014 IEM_DS3505
ZBAA,1983-01-26 03:00,ZBAA 260300Z AUTO 18004KT 4SM 04/M09 RMK SLP307 T00361092 52005 IEM_DS3505
ZBAA,1983-01-26 06:00,ZBAA 260600Z AUTO 18008KT 4SM 06/M15 RMK SLP279 T00581154 4////1057 57028 IEM_DS3505
ZBAA,1983-01-26 09:00,ZBAA 260900Z AUTO 20006KT 4SM 05/M14 RMK SLP277 T00461135 57003 IEM_DS3505
ZBAA,1983-01-26 12:00,ZBAA 261200Z AUTO 00000KT 2 1/2SM M00/M10 RMK SLP286 T10041096 52009 IEM_DS3505
ZBAA,1983-01-26 15:00,ZBAA 261500Z AUTO 18002KT 1 1/4SM M03/M08 RMK SLP287 T10341079 52002 IEM_DS3505
ZBAA,1983-01-26 18:00,ZBAA 261800Z AUTO 00000KT 1 1/4SM M05/M09 RMK SLP281 T10481087 40063//// 57006 IEM_DS3505
ZBAA,1983-01-26 21:00,ZBAA 262100Z AUTO 07004KT 2SM M04/M14 RMK SLP272 T10431141 57009 IEM_DS3505
ZBAA,1983-01-27 00:00,ZBAA 270000Z AUTO 00000KT 1SM M07/M11 RMK SLP278 T10711109 52005 IEM_DS3505
ZBAA,1983-01-27 03:00,ZBAA 270300Z AUTO 00000KT 1 1/4SM 02/M12 RMK SLP276 T00231124 57001 IEM_DS3505
ZBAA,1983-01-27 06:00,ZBAA 270600Z AUTO 16004KT 4SM 07/M13 RMK SLP244 T00681130 4////1076 57032 IEM_DS3505
ZBAA,1983-01-27 09:00,ZBAA 270900Z AUTO 18004KT 4SM 06/M13 RMK SLP233 T00621130 57011 IEM_DS3505
ZBAA,1983-01-27 12:00,ZBAA 271200Z AUTO 18002KT 2 1/2SM 01/M08 RMK SLP232 T00071079 57002 IEM_DS3505
ZBAA,1983-01-27 15:00,ZBAA 271500Z AUTO 07002KT 2 1/2SM M03/M10 RMK SLP226 T10321096 57005 IEM_DS3505
ZBAA,1983-01-27 18:00,ZBAA 271800Z AUTO 36004KT 2 1/2SM M04/M11 RMK SLP217 T10391114 40080//// 57008 IEM_DS3505
ZBAA,1983-01-27 21:00,ZBAA 272100Z AUTO 02004KT 2 1/2SM M05/M10 RMK SLP203 T10521105 57014 IEM_DS3505
ZBAA,1983-01-28 00:00,ZBAA 280000Z AUTO 02004KT 1SM M05/M11 RMK SLP202 T10521114 57002 IEM_DS3505
ZBAA,1983-01-28 03:00,ZBAA 280300Z AUTO 04004KT 2SM 02/M10 RMK SLP195 T00171096 57006 IEM_DS3505
ZBAA,1983-01-28 06:00,ZBAA 280600Z AUTO 00000KT 4SM 06/M10 RMK SLP159 T00611100 4////1067 57036 IEM_DS3505
ZBAA,1983-01-28 09:00,ZBAA 280900Z AUTO 00000KT 2 1/2SM 06/M07 RMK SLP150 T00641072 57009 IEM_DS3505
ZBAA,1983-01-28 12:00,ZBAA 281200Z AUTO 00000KT 4SM M01/M08 RMK SLP155 T10061083 52004 IEM_DS3505
ZBAA,1983-01-28 15:00,ZBAA 281500Z AUTO 36008KT 4SM 02/M11 RMK SLP159 T00181114 52005 IEM_DS3505
ZBAA,1983-01-28 18:00,ZBAA 281800Z AUTO 02008KT 2SM 01/M11 RMK SLP159 T00111114 40071//// 52001 IEM_DS3505
ZBAA,1983-01-28 21:00,ZBAA 282100Z AUTO 36014KT 4SM 05/M11 RMK SLP174 T00521114 52015 IEM_DS3505
ZBAA,1983-01-29 00:00,ZBAA 290000Z AUTO 34014KT 7SM 04/M12 RMK SLP211 T00441124 52036 IEM_DS3505
ZBAA,1983-01-29 03:00,ZBAA 290300Z AUTO 34016KT 6SM 07/M17 A3018 RMK SLP239 T00711167 52028 IEM_DS3505
ZBAA,1983-01-29 04:00,ZBAA 290400Z AUTO 03023KT 7SM 08/M23 A3018 RMK T00801230 IEM_DS3505
ZBAA,1983-01-29 06:00,ZBAA 290600Z AUTO 34012KT 12SM 09/M18 RMK SLP237 T00931183 4////1020 57002 IEM_DS3505
ZBAA,1983-01-29 09:00,ZBAA 290900Z AUTO 36008KT 9SM 09/M15 RMK SLP246 T00861154 52009 IEM_DS3505
ZBAA,1983-01-29 12:00,ZBAA 291200Z AUTO 36016KT 16SM 04/M24 RMK SLP281 T00371244 52035 IEM_DS3505
ZBAA,1983-01-29 15:00,ZBAA 291500Z AUTO 36012KT 19SM 01/M26 RMK SLP302 T00061258 52021 IEM_DS3505
ZBAA,1983-01-29 18:00,ZBAA 291800Z AUTO 02008KT 19SM M02/M26 RMK SLP308 T10161258 40099//// 52006 IEM_DS3505
ZBAA,1983-01-29 21:00,ZBAA 292100Z AUTO 36006KT 16SM M05/M22 RMK SLP317 T10491220 52008 IEM_DS3505
ZBAA,1983-01-30 00:00,ZBAA 300000Z AUTO 29002KT 7SM M07/M20 RMK SLP324 T10741200 52006 IEM_DS3505
ZBAA,1983-01-30 03:00,ZBAA 300300Z AUTO 02004KT 6SM 00/M22 RMK SLP319 T00021220 57004 IEM_DS3505
ZBAA,1983-01-30 06:00,ZBAA 300600Z AUTO 20010KT 6SM 03/M22 RMK SLP286 T00341220 4////1080 57033 IEM_DS3505
ZBAA,1983-01-30 09:00,ZBAA 300900Z AUTO 20010KT 6SM 03/M13 RMK SLP271 T00331130 57015 IEM_DS3505
ZBAA,1983-01-30 12:00,ZBAA 301200Z AUTO 18006KT 6SM 00/M15 RMK SLP273 T00051154 52001 IEM_DS3505
ZBAA,1983-01-30 15:00,ZBAA 301500Z AUTO 00000KT 6SM M03/M12 RMK SLP270 T10321124 57003 IEM_DS3505
ZBAA,1983-01-30 18:00,ZBAA 301800Z AUTO 00000KT 5SM M05/M14 RMK SLP262 T10481135 40040//// 57007 IEM_DS3505
ZBAA,1983-01-30 21:00,ZBAA 302100Z AUTO 04004KT 5SM M05/M18 RMK SLP250 T10521183 57012 IEM_DS3505
ZBAA,1983-01-31 00:00,ZBAA 310000Z AUTO 34002KT 2 1/2SM M07/M15 RMK SLP247 T10741147 57004 IEM_DS3505
ZBAA,1983-01-31 03:00,ZBAA 310300Z AUTO 02006KT 2SM M01/M16 RMK SLP244 T10101160 57003 IEM_DS3505
ZBAA,1983-01-31 06:00,ZBAA 310600Z AUTO 04002KT 3SM 01/M14 RMK SLP211 T00121141 4////1081 57032 IEM_DS3505
ZBAA,1983-01-31 09:00,ZBAA 310900Z AUTO 36004KT 2 1/2SM 01/M14 RMK SLP206 T00111141 57005 IEM_DS3505
ZBAA,1983-01-31 12:00,ZBAA 311200Z AUTO 04004KT 3SM 01/M14 RMK SLP221 T00071135 52014 IEM_DS3505
ZBAA,1983-01-31 15:00,ZBAA 311500Z AUTO 02006KT 3SM 00/M12 RMK SLP223 T00041124 52003 IEM_DS3505
ZBAA,1983-01-31 18:00,ZBAA 311800Z AUTO 34002KT 5SM M01/M05 RMK SLP229 T10111052 40016//// 52006 IEM_DS3505
ZBAA,1983-01-31 21:00,ZBAA 312100Z AUTO 32002KT 6SM M01/M04 RMK SLP227 T10111045 57002 IEM_DS3505
ZBAA,1983-02-01 00:00,ZBAA 010000Z AUTO 09008KT 2 1/2SM M00/M06 RMK 60001 SLP249 T10021055 52022 IEM_DS3505
ZBAA,1983-02-01 03:00,ZBAA 010300Z AUTO 29002KT 1 1/4SM M00/M02 RMK SLP259 T10051023 52010 IEM_DS3505
ZBAA,1983-02-01 04:00,ZBAA 010400Z AUTO 35006KT 5SM 00/M02 A3024 RMK T00001020 IEM_DS3505
ZBAA,1983-02-01 05:00,ZBAA 010500Z AUTO 03004KT 4SM 01/M02 A3021 RMK T00101020 IEM_DS3505
ZBAA,1983-02-01 06:00,ZBAA 010600Z AUTO 07004KT 2SM 01/M02 A3021 RMK 60002 SLP249 T00081015 4////1019 57010 IEM_DS3505
ZBAA,1983-02-01 08:00,ZBAA 010800Z AUTO 01008KT 7SM 01/M03 A3018 RMK T00101030 IEM_DS3505
ZBAA,1983-02-01 09:00,ZBAA 010900Z AUTO 02006KT 4SM 01/M02 RMK SLP241 T00101020 57008 IEM_DS3505
ZBAA,1983-02-01 15:00,ZBAA 011500Z AUTO 00000KT 4SM M03/M06 RMK SLP263 T10311058 52004 IEM_DS3505
ZBAA,1983-02-01 18:00,ZBAA 011800Z AUTO 34006KT 6SM M03/M11 RMK SLP268 T10281114 40015//// 52006 IEM_DS3505
ZBAA,1983-02-01 21:00,ZBAA 012100Z AUTO 36010KT 9SM M05/M15 RMK SLP268 T10471154 57001 IEM_DS3505
ZBAA,1983-02-02 00:00,ZBAA 020000Z AUTO 34008KT 9SM M06/M18 RMK SLP283 T10601183 52015 IEM_DS3505
ZBAA,1983-02-02 03:00,ZBAA 020300Z AUTO 36012KT 19SM M01/M19 RMK SLP284 T10081191 52001 IEM_DS3505
ZBAA,1983-02-02 06:00,ZBAA 020600Z AUTO 34010KT 19SM 02/M20 RMK SLP260 T00241200 4////1063 57023 IEM_DS3505
ZBAA,1983-02-02 09:00,ZBAA 020900Z AUTO 36014KT 12SM 02/M21 RMK SLP265 T00161210 52004 IEM_DS3505
ZBAA,1983-02-02 12:00,ZBAA 021200Z AUTO 34006KT 12SM M02/M17 RMK SLP275 T10221167 52010 IEM_DS3505
ZBAA,1983-02-02 15:00,ZBAA 021500Z AUTO 36012KT 11SM M02/M18 RMK SLP271 T10241175 57004 IEM_DS3505
ZBAA,1983-02-02 18:00,ZBAA 021800Z AUTO 36006KT 12SM M04/M17 RMK SLP264 T10361167 40030//// 57006 IEM_DS3505
ZBAA,1983-02-02 21:00,ZBAA 022100Z AUTO 36004KT 9SM M04/M18 RMK SLP254 T10351175 57010 IEM_DS3505
ZBAA,1983-02-03 00:00,ZBAA 030000Z AUTO 00000KT 6SM M04/M17 RMK SLP256 T10381167 52001 IEM_DS3505
ZBAA,1983-02-03 03:00,ZBAA 030300Z AUTO 00000KT 4SM 01/M16 RMK SLP253 T00111160 57002 IEM_DS3505
ZBAA,1983-02-03 06:00,ZBAA 030600Z AUTO 00000KT 5SM 05/M13 RMK SLP220 T00511130 4////1043 57033 IEM_DS3505
ZBAA,1983-02-03 09:00,ZBAA 030900Z AUTO 22002KT 3SM 04/M12 RMK SLP212 T00431124 57007 IEM_DS3505
ZBAA,1983-02-03 12:00,ZBAA 031200Z AUTO 02004KT 6SM M00/M14 RMK SLP218 T10011141 52005 IEM_DS3505
ZBAA,1983-02-03 15:00,ZBAA 031500Z AUTO 00000KT 6SM M05/M11 RMK SLP213 T10471114 57005 IEM_DS3505
ZBAA,1983-02-03 18:00,ZBAA 031800Z AUTO 02004KT 4SM M05/M13 RMK SLP203 T10491130 40061//// 57009 IEM_DS3505
ZBAA,1983-02-03 21:00,ZBAA 032100Z AUTO 00000KT 4SM M06/M12 RMK SLP196 T10631124 57007 IEM_DS3505
ZBAA,1983-02-04 00:00,ZBAA 040000Z AUTO 36004KT 6SM M05/M13 RMK SLP194 T10461130 57003 IEM_DS3505
ZBAA,1983-02-04 03:00,ZBAA 040300Z AUTO 20006KT 5SM 03/M13 RMK SLP189 T00331130 57004 IEM_DS3505
ZBAA,1983-02-04 06:00,ZBAA 040600Z AUTO 22012KT 7SM 07/M12 RMK SLP150 T00711124 4////1065 57039 IEM_DS3505
ZBAA,1983-02-04 09:00,ZBAA 040900Z AUTO 20010KT 6SM 07/M12 RMK SLP139 T00661124 57011 IEM_DS3505
ZBAA,1983-02-04 12:00,ZBAA 041200Z AUTO 00000KT 4SM 02/M08 RMK SLP151 T00221083 52011 IEM_DS3505
ZBAA,1983-02-04 15:00,ZBAA 041500Z AUTO 00000KT 4SM M02/M08 RMK SLP152 T10211079 52002 IEM_DS3505
ZBAA,1983-02-04 18:00,ZBAA 041800Z AUTO 27002KT 2 1/2SM M03/M08 RMK SLP152 T10341079 40076//// 54000 IEM_DS3505
ZBAA,1983-02-04 21:00,ZBAA 042100Z AUTO 00000KT 2 1/2SM M03/M09 RMK SLP145 T10341092 57007 IEM_DS3505
ZBAA,1983-02-05 00:00,ZBAA 050000Z AUTO 34004KT 1 1/4SM M05/M10 RMK SLP156 T10531096 52010 IEM_DS3505
ZBAA,1983-02-05 03:00,ZBAA 050300Z AUTO 27002KT 2 1/2SM 04/M10 A2997 RMK SLP169 T00421096 52014 IEM_DS3505
ZBAA,1983-02-05 04:00,ZBAA 050400Z AUTO 29017G27KT 7SM 06/M16 A2994 RMK T00601160 IEM_DS3505
ZBAA,1983-02-05 05:00,ZBAA 050500Z AUTO 31017G27KT 7SM 06/M21 A2994 RMK T00601210 IEM_DS3505
ZBAA,1983-02-05 06:00,ZBAA 050600Z AUTO 32017KT 6SM 06/M16 A2994 RMK SLP158 T00651160 4////1060 57011 IEM_DS3505
ZBAA,1983-02-05 07:00,ZBAA 050700Z AUTO 31019G29KT 7SM 05/M22 A2994 RMK T00501220 IEM_DS3505
ZBAA,1983-02-05 08:00,ZBAA 050800Z AUTO 31019G29KT 7SM 05/M22 A2997 RMK T00501220 IEM_DS3505
ZBAA,1983-02-05 09:00,ZBAA 050900Z AUTO 36012KT 9SM 04/M18 A3000 RMK SLP181 T00391175 52023 IEM_DS3505
ZBAA,1983-02-05 10:00,ZBAA 051000Z AUTO 33019G29KT 7SM 02/M19 A3003 RMK T00201190 IEM_DS3505
ZBAA,1983-02-05 12:00,ZBAA 051200Z AUTO 36008KT 12SM 01/M11 RMK SLP208 T00141114 52026 IEM_DS3505
ZBAA,1983-02-05 15:00,ZBAA 051500Z AUTO 32014KT 12SM 01/M20 RMK SLP226 T00091200 52018 IEM_DS3505
ZBAA,1983-02-05 18:00,ZBAA 051800Z AUTO 34010KT 12SM M01/M18 RMK SLP244 T10121175 40072//// 52018 IEM_DS3505
ZBAA,1983-02-05 21:00,ZBAA 052100Z AUTO 04010KT 12SM M02/M18 RMK SLP253 T10161175 52009 IEM_DS3505
ZBAA,1983-02-06 00:00,ZBAA 060000Z AUTO 04010KT 19SM M02/M17 RMK SLP273 T10241167 52020 IEM_DS3505
ZBAA,1983-02-06 03:00,ZBAA 060300Z AUTO 34016KT 19SM 02/M19 RMK SLP278 T00191191 52005 IEM_DS3505
ZBAA,1983-02-06 06:00,ZBAA 060600Z AUTO 32010KT 19SM 04/M19 RMK SLP265 T00351191 4////1027 57013 IEM_DS3505
ZBAA,1983-02-06 09:00,ZBAA 060900Z AUTO 29010KT 19SM 02/M19 RMK SLP268 T00211191 52003 IEM_DS3505
ZBAA,1983-02-06 12:00,ZBAA 061200Z AUTO 34008KT 19SM 00/M19 RMK SLP289 T00021191 52020 IEM_DS3505
ZBAA,1983-02-06 15:00,ZBAA 061500Z AUTO 32008KT 16SM M02/M18 RMK SLP294 T10151175 52006 IEM_DS3505
ZBAA,1983-02-06 18:00,ZBAA 061800Z AUTO 29014KT 12SM M02/M18 RMK SLP294 T10211183 40043//// 54000 IEM_DS3505
ZBAA,1983-02-06 21:00,ZBAA 062100Z AUTO 29014KT 16SM M03/M21 RMK SLP284 T10341210 57010 IEM_DS3505
ZBAA,1983-02-07 00:00,ZBAA 070000Z AUTO 00000KT 9SM M05/M18 RMK SLP274 T10531183 57011 IEM_DS3505
ZBAA,1983-02-07 03:00,ZBAA 070300Z AUTO 20006KT 4SM 00/M22 RMK SLP247 T00011220 57026 IEM_DS3505
ZBAA,1983-02-07 06:00,ZBAA 070600Z AUTO 25008KT 6SM 03/M23 RMK SLP198 T00261231 4////1063 57048 IEM_DS3505
ZBAA,1983-02-07 09:00,ZBAA 070900Z AUTO 32016KT 3SM 01/M18 RMK SLP208 T00071183 52009 IEM_DS3505
ZBAA,1983-02-07 12:00,ZBAA 071200Z AUTO 32014KT 6SM M02/M22 RMK SLP239 T10241220 52030 IEM_DS3505
ZBAA,1983-02-07 15:00,ZBAA 071500Z AUTO 32010KT 9SM M03/M23 RMK SLP235 T10341231 57004 IEM_DS3505
ZBAA,1983-02-07 18:00,ZBAA 071800Z AUTO 22006KT 12SM M05/M20 RMK SLP221 T10461200 40031//// 57013 IEM_DS3505
ZBAA,1983-02-07 21:00,ZBAA 072100Z AUTO 16004KT 12SM M06/M23 RMK SLP196 T10581231 57025 IEM_DS3505
ZBAA,1983-02-08 00:00,ZBAA 080000Z AUTO 00000KT 5SM M08/M16 RMK SLP194 T10841160 57003 IEM_DS3505
ZBAA,1983-02-08 03:00,ZBAA 080300Z AUTO 34006KT 12SM 00/M18 RMK SLP189 T00011175 57004 IEM_DS3505
ZBAA,1983-02-08 06:00,ZBAA 080600Z AUTO 34012KT 19SM 00/M22 RMK SLP168 T00031220 4////1093 57021 IEM_DS3505
ZBAA,1983-02-08 09:00,ZBAA 080900Z AUTO 29017KT 16SM 00/M22 RMK SLP179 T00011220 52011 IEM_DS3505
ZBAA,1983-02-08 12:00,ZBAA 081200Z AUTO 32014KT 19SM M03/M26 RMK SLP210 T10281258 52030 IEM_DS3505
ZBAA,1983-02-08 15:00,ZBAA 081500Z AUTO 32008KT 19SM M04/M24 RMK SLP222 T10441244 52012 IEM_DS3505
ZBAA,1983-02-08 18:00,ZBAA 081800Z AUTO 32008KT 19SM M04/M22 RMK SLP219 T10371220 40026//// 57002 IEM_DS3505
ZBAA,1983-02-08 21:00,ZBAA 082100Z AUTO 00000KT 16SM M06/M21 RMK SLP215 T10581210 57004 IEM_DS3505
ZBAA,1983-02-09 00:00,ZBAA 090000Z AUTO 22006KT 16SM M05/M18 RMK SLP221 T10501175 52005 IEM_DS3505
ZBAA,1983-02-09 03:00,ZBAA 090300Z AUTO 32012KT 16SM M00/M26 RMK SLP226 T10041258 52005 IEM_DS3505
ZBAA,1983-02-09 06:00,ZBAA 090600Z AUTO 34016KT 16SM 01/M26 RMK SLP209 T00101258 4////1074 57016 IEM_DS3505
ZBAA,1983-02-09 09:00,ZBAA 090900Z AUTO 34012KT 12SM 00/M26 RMK SLP210 T00051258 52001 IEM_DS3505
ZBAA,1983-02-09 12:00,ZBAA 091200Z AUTO 36006KT 16SM M02/M23 RMK SLP236 T10221231 52025 IEM_DS3505
ZBAA,1983-02-09 15:00,ZBAA 091500Z AUTO 36010KT 16SM M04/M24 RMK SLP228 T10371244 57008 IEM_DS3505
ZBAA,1983-02-09 18:00,ZBAA 091800Z AUTO 04008KT 12SM M04/M23 RMK SLP229 T10381231 40015//// 52001 IEM_DS3505
ZBAA,1983-02-09 21:00,ZBAA 092100Z AUTO 04004KT 9SM M05/M22 RMK SLP244 T10511220 52015 IEM_DS3505
ZBAA,1983-02-10 00:00,ZBAA 100000Z AUTO 04004KT 7SM M06/M12 RMK SLP267 T10601124 52023 IEM_DS3505
ZBAA,1983-02-10 03:00,ZBAA 100300Z AUTO 04004KT 16SM M02/M19 RMK SLP277 T10191191 52010 IEM_DS3505
ZBAA,1983-02-10 06:00,ZBAA 100600Z AUTO 36019KT 19SM M00/M29 RMK SLP254 T10031292 4////1077 57023 IEM_DS3505
ZBAA,1983-02-10 09:00,ZBAA 100900Z AUTO 34008KT 19SM M01/M22 RMK SLP259 T10091220 52005 IEM_DS3505
ZBAA,1983-02-10 12:00,ZBAA 101200Z AUTO 32006KT 19SM M04/M21 RMK SLP273 T10361210 52014 IEM_DS3505
ZBAA,1983-02-10 15:00,ZBAA 101500Z AUTO 34008KT 19SM M05/M20 RMK SLP282 T10461200 52009 IEM_DS3505
ZBAA,1983-02-10 18:00,ZBAA 101800Z AUTO 32010KT 19SM M06/M26 RMK SLP290 T10631258 40005//// 52008 IEM_DS3505
ZBAA,1983-02-10 21:00,ZBAA 102100Z AUTO 29006KT 16SM M08/M26 RMK SLP283 T10771258 57007 IEM_DS3505
ZBAA,1983-02-11 00:00,ZBAA 110000Z AUTO 32002KT 16SM M10/M20 RMK SLP282 T10991200 57002 IEM_DS3505
ZBAA,1983-02-11 03:00,ZBAA 110300Z AUTO 20002KT 7SM M02/M20 RMK SLP279 T10201200 57002 IEM_DS3505
ZBAA,1983-02-11 06:00,ZBAA 110600Z AUTO 00000KT 16SM 01/M22 RMK SLP258 T00091220 4////1104 57021 IEM_DS3505
ZBAA,1983-02-11 09:00,ZBAA 110900Z AUTO 20008KT 16SM 01/M19 RMK SLP255 T00121191 57003 IEM_DS3505
ZBAA,1983-02-11 12:00,ZBAA 111200Z AUTO 07006KT 12SM M03/M26 RMK SLP282 T10281258 52026 IEM_DS3505
ZBAA,1983-02-11 15:00,ZBAA 111500Z AUTO 02008KT 12SM M05/M23 RMK SLP299 T10471231 52018 IEM_DS3505
ZBAA,1983-02-11 18:00,ZBAA 111800Z AUTO 07006KT 16SM M07/M24 RMK SLP310 T10701244 40022//// 52011 IEM_DS3505
ZBAA,1983-02-11 21:00,ZBAA 112100Z AUTO 07006KT 16SM M09/M27 RMK SLP320 T10941274 52010 IEM_DS3505
ZBAA,1983-02-12 00:00,ZBAA 120000Z AUTO 02006KT 9SM M10/M22 RMK SLP339 T11041220 52018 IEM_DS3505
ZBAA,1983-02-12 03:00,ZBAA 120300Z AUTO 02010KT 16SM M06/M31 RMK SLP338 T10551313 57001 IEM_DS3505
ZBAA,1983-02-12 06:00,ZBAA 120600Z AUTO 22006KT 6SM M01/M18 RMK SLP311 T10101183 4////1111 57026 IEM_DS3505
ZBAA,1983-02-12 09:00,ZBAA 120900Z AUTO 20010KT 7SM M01/M26 RMK SLP303 T10121258 57009 IEM_DS3505
ZBAA,1983-02-12 12:00,ZBAA 121200Z AUTO 20010KT 6SM M04/M23 RMK SLP310 T10391231 52007 IEM_DS3505
ZBAA,1983-02-12 15:00,ZBAA 121500Z AUTO 29004KT 6SM M06/M22 RMK SLP316 T10641220 52006 IEM_DS3505
ZBAA,1983-02-12 18:00,ZBAA 121800Z AUTO 27002KT 4SM M08/M19 RMK SLP310 T10831191 40000//// 57005 IEM_DS3505
ZBAA,1983-02-12 21:00,ZBAA 122100Z AUTO 04004KT 3SM M09/M23 RMK SLP302 T10891231 57009 IEM_DS3505
ZBAA,1983-02-13 00:00,ZBAA 130000Z AUTO 36002KT 2 1/2SM M11/M18 RMK SLP301 T11071175 57001 IEM_DS3505
ZBAA,1983-02-13 03:00,ZBAA 130300Z AUTO 04006KT 5SM M05/M18 RMK SLP293 T10491175 57008 IEM_DS3505
ZBAA,1983-02-13 06:00,ZBAA 130600Z AUTO 02004KT 3SM M01/M18 RMK SLP256 T10141183 4////1122 57036 IEM_DS3505
ZBAA,1983-02-13 09:00,ZBAA 130900Z AUTO 02006KT 2SM M01/M18 RMK SLP243 T10061175 57013 IEM_DS3505
ZBAA,1983-02-13 12:00,ZBAA 131200Z AUTO 36002KT 3SM M02/M17 RMK SLP240 T10211167 57004 IEM_DS3505
ZBAA,1983-02-13 15:00,ZBAA 131500Z AUTO 36004KT 3SM M01/M18 RMK SLP230 T10141175 57009 IEM_DS3505
ZBAA,1983-02-13 18:00,ZBAA 131800Z AUTO 36008KT 2 1/2SM M02/M14 RMK SLP212 T10171141 41001//// 57017 IEM_DS3505
ZBAA,1983-02-13 21:00,ZBAA 132100Z AUTO 04004KT 2 1/2SM M02/M10 RMK SLP201 T10211100 57011 IEM_DS3505
ZBAA,1983-02-14 00:00,ZBAA 140000Z AUTO 32006KT 6SM M01/M15 RMK SLP213 T10071147 52012 IEM_DS3505
ZBAA,1983-02-14 03:00,ZBAA 140300Z AUTO 34012KT 19SM 02/M20 RMK SLP224 T00231200 52011 IEM_DS3505
ZBAA,1983-02-14 06:00,ZBAA 140600Z AUTO 34017KT 19SM 04/M19 RMK SLP213 T00411191 4////1030 57010 IEM_DS3505
ZBAA,1983-02-14 09:00,ZBAA 140900Z AUTO 32010KT 19SM 04/M18 RMK SLP218 T00431175 52005 IEM_DS3505
ZBAA,1983-02-14 12:00,ZBAA 141200Z AUTO 34008KT 16SM 00/M12 RMK SLP227 T00051124 52008 IEM_DS3505
ZBAA,1983-02-14 15:00,ZBAA 141500Z AUTO 07002KT 16SM M02/M14 RMK SLP229 T10161135 52002 IEM_DS3505
ZBAA,1983-02-14 18:00,ZBAA 141800Z AUTO 00000KT 12SM M04/M12 RMK SLP231 T10451124 40052//// 52002 IEM_DS3505
ZBAA,1983-02-14 21:00,ZBAA 142100Z AUTO 04004KT 9SM M06/M14 RMK SLP222 T10621135 57009 IEM_DS3505
ZBAA,1983-02-15 00:00,ZBAA 150000Z AUTO 04004KT 1 1/4SM M06/M10 RMK SLP225 T10631096 52002 IEM_DS3505
ZBAA,1983-02-15 03:00,ZBAA 150300Z AUTO 07008KT 3SM M01/M08 A3012 RMK SLP214 T10141083 57010 IEM_DS3505
ZBAA,1983-02-15 04:00,ZBAA 150400Z AUTO 12004KT 7SM 01/M09 A3006 RMK T00101090 IEM_DS3505
ZBAA,1983-02-15 05:00,ZBAA 150500Z AUTO 09006KT 7SM 02/M09 A3006 RMK T00201090 IEM_DS3505
ZBAA,1983-02-15 06:00,ZBAA 150600Z AUTO 02006KT 4SM 03/M09 A3000 RMK SLP179 T00301087 4////1074 57034 IEM_DS3505
ZBAA,1983-02-15 08:00,ZBAA 150800Z AUTO 00000KT 7SM 05/M12 A2997 RMK T00501120 IEM_DS3505
ZBAA,1983-02-15 09:00,ZBAA 150900Z AUTO 36006KT 4SM 04/M10 A3000 RMK SLP172 T00441096 57007 IEM_DS3505
ZBAA,1983-02-15 10:00,ZBAA 151000Z AUTO 00000KT 7SM 03/M11 A3000 RMK T00301110 IEM_DS3505
ZBAA,1983-02-15 11:00,ZBAA 151100Z AUTO 12004KT 7SM M01/M09 A3003 RMK T10101090 IEM_DS3505
ZBAA,1983-02-15 12:00,ZBAA 151200Z AUTO 04004KT 4SM 01/M09 RMK SLP189 T00121092 52016 IEM_DS3505
ZBAA,1983-02-15 15:00,ZBAA 151500Z AUTO 32002KT 3SM M03/M06 RMK SLP197 T10321065 52008 IEM_DS3505
ZBAA,1983-02-15 18:00,ZBAA 151800Z AUTO 25002KT 3SM M04/M06 RMK SLP196 T10371061 40057//// 54000 IEM_DS3505
ZBAA,1983-02-15 21:00,ZBAA 152100Z AUTO 14004KT 4SM M03/M06 RMK SLP192 T10321065 57004 IEM_DS3505
ZBAA,1983-02-16 00:00,ZBAA 160000Z AUTO 20004KT 4SM M02/M07 RMK SLP184 T10251072 57008 IEM_DS3505
ZBAA,1983-02-16 03:00,ZBAA 160300Z AUTO 20002KT 3SM M02/M06 RMK SLP172 T10161065 57013 IEM_DS3505
ZBAA,1983-02-16 06:00,ZBAA 160600Z AUTO 00000KT 2SM M01/M06 RMK SLP151 T10131065 4////1048 57021 IEM_DS3505
ZBAA,1983-02-16 09:00,ZBAA 160900Z AUTO 18006KT 1 1/2SM M00/M06 RMK SLP155 T10051058 52004 IEM_DS3505
ZBAA,1983-02-16 12:00,ZBAA 161200Z AUTO 32017KT 6SM M01/M21 RMK SLP186 T10101210 52031 IEM_DS3505
ZBAA,1983-02-16 15:00,ZBAA 161500Z AUTO 34012KT 6SM M04/M21 RMK SLP209 T10401210 52023 IEM_DS3505
ZBAA,1983-02-16 18:00,ZBAA 161800Z AUTO 36010KT 12SM M05/M21 RMK SLP207 T10501210 40002//// 57002 IEM_DS3505
ZBAA,1983-02-16 21:00,ZBAA 162100Z AUTO 32008KT 12SM M06/M22 RMK SLP210 T10611220 52003 IEM_DS3505
ZBAA,1983-02-17 00:00,ZBAA 170000Z AUTO 32016KT 12SM M06/M26 RMK SLP225 T10591258 52014 IEM_DS3505
ZBAA,1983-02-17 03:00,ZBAA 170300Z AUTO 32014KT 19SM M04/M23 RMK SLP233 T10381231 52008 IEM_DS3505
ZBAA,1983-02-17 06:00,ZBAA 170600Z AUTO 32017KT 12SM M03/M23 RMK SLP229 T10261231 4////1068 57004 IEM_DS3505
ZBAA,1983-02-17 09:00,ZBAA 170900Z AUTO 34014KT 12SM M04/M26 RMK SLP239 T10391258 52010 IEM_DS3505
ZBAA,1983-02-17 12:00,ZBAA 171200Z AUTO 34016KT 12SM M07/M27 RMK SLP283 T10681274 52043 IEM_DS3505
ZBAA,1983-02-17 15:00,ZBAA 171500Z AUTO 34014KT 19SM M10/M29 RMK SLP302 T10961292 52019 IEM_DS3505
ZBAA,1983-02-17 18:00,ZBAA 171800Z AUTO 36010KT 16SM M11/M24 RMK SLP312 T11131244 41022//// 52010 IEM_DS3505
ZBAA,1983-02-17 21:00,ZBAA 172100Z AUTO 34010KT 16SM M12/M23 RMK SLP316 T11171231 52004 IEM_DS3505
ZBAA,1983-02-18 00:00,ZBAA 180000Z AUTO 34010KT 16SM M12/M23 RMK SLP317 T11221231 54000 IEM_DS3505
ZBAA,1983-02-18 03:00,ZBAA 180300Z AUTO 36004KT 19SM M06/M31 RMK SLP311 T10601313 57005 IEM_DS3505
ZBAA,1983-02-18 06:00,ZBAA 180600Z AUTO 34002KT 19SM M04/M29 RMK SLP279 T10381292 4////1130 57032 IEM_DS3505
ZBAA,1983-02-18 09:00,ZBAA 180900Z AUTO 02004KT 19SM M04/M31 RMK SLP264 T10351313 57015 IEM_DS3505
ZBAA,1983-02-18 12:00,ZBAA 181200Z AUTO 18004KT 12SM M05/M26 RMK SLP265 T10471258 52001 IEM_DS3505
ZBAA,1983-02-18 15:00,ZBAA 181500Z AUTO 20006KT 9SM M06/M24 RMK SLP259 T10651244 57006 IEM_DS3505
ZBAA,1983-02-18 18:00,ZBAA 181800Z AUTO 18006KT 9SM M07/M29 RMK SLP246 T10721292 41025//// 57013 IEM_DS3505
ZBAA,1983-02-18 21:00,ZBAA 182100Z AUTO 02006KT 6SM M08/M23 RMK SLP249 T10841231 52003 IEM_DS3505
ZBAA,1983-02-19 00:00,ZBAA 190000Z AUTO 34016KT 6SM M07/M24 RMK SLP292 T10731244 52043 IEM_DS3505
ZBAA,1983-02-19 03:00,ZBAA 190300Z AUTO 34023KT 12SM M06/M34 RMK SLP318 T10621339 52026 IEM_DS3505
ZBAA,1983-02-19 04:00,ZBAA 190400Z AUTO 33016KT 7SM M06/M32 A3039 RMK T10601320 IEM_DS3505
ZBAA,1983-02-19 05:00,ZBAA 190500Z AUTO 34019KT 7SM A3039 RMK IEM_DS3505
ZBAA,1983-02-19 06:00,ZBAA 190600Z AUTO 34017KT 12SM M05/M34 A3039 RMK SLP319 T10501339 4////1091 52001 IEM_DS3505
ZBAA,1983-02-19 08:00,ZBAA 190800Z AUTO 31019KT 7SM M07/M32 A3045 RMK T10701320 IEM_DS3505
ZBAA,1983-02-19 09:00,ZBAA 190900Z AUTO 32017KT 16SM M07/M34 RMK SLP341 T10691339 52021 IEM_DS3505
ZBAA,1983-02-19 12:00,ZBAA 191200Z AUTO 34014KT 16SM M09/M34 RMK SLP371 T10911339 52030 IEM_DS3505
ZBAA,1983-02-19 15:00,ZBAA 191500Z AUTO 34010KT 19SM M10/M22 RMK SLP382 T11011220 52011 IEM_DS3505
ZBAA,1983-02-19 18:00,ZBAA 191800Z AUTO 34008KT 19SM M10/M29 RMK SLP387 T11001292 41047//// 52005 IEM_DS3505
ZBAA,1983-02-19 21:00,ZBAA 192100Z AUTO 34008KT 19SM M10/M27 RMK SLP388 T11051274 52001 IEM_DS3505
ZBAA,1983-02-20 00:00,ZBAA 200000Z AUTO 02006KT 12SM M10/M29 RMK SLP402 T11001292 52014 IEM_DS3505
ZBAA,1983-02-20 03:00,ZBAA 200300Z AUTO 20008KT 19SM M05/M29 RMK SLP402 T10521292 54000 IEM_DS3505
ZBAA,1983-02-20 06:00,ZBAA 200600Z AUTO 25006KT 19SM M01/M31 RMK SLP374 T10131313 4////1118 57027 IEM_DS3505
ZBAA,1983-02-20 09:00,ZBAA 200900Z AUTO 29004KT 19SM M01/M23 RMK SLP364 T10111231 57010 IEM_DS3505
ZBAA,1983-02-20 12:00,ZBAA 201200Z AUTO 00000KT 19SM M05/M23 RMK SLP370 T10491231 52005 IEM_DS3505
ZBAA,1983-02-20 15:00,ZBAA 201500Z AUTO 18004KT 19SM M06/M20 RMK SLP369 T10601200 54000 IEM_DS3505
ZBAA,1983-02-20 18:00,ZBAA 201800Z AUTO 00000KT 16SM M10/M20 RMK SLP363 T10971200 41001//// 57006 IEM_DS3505
ZBAA,1983-02-20 21:00,ZBAA 202100Z AUTO 36006KT 12SM M10/M22 RMK SLP350 T10951220 57013 IEM_DS3505
ZBAA,1983-02-21 00:00,ZBAA 210000Z AUTO 00000KT 4SM M10/M22 RMK SLP353 T11031220 52002 IEM_DS3505
ZBAA,1983-02-21 03:00,ZBAA 210300Z AUTO 11002KT 4SM M03/M23 RMK SLP340 T10331231 57012 IEM_DS3505
ZBAA,1983-02-21 06:00,ZBAA 210600Z AUTO 20016KT 6SM M00/M24 RMK SLP306 T10011244 57033 IEM_DS3505
ZBAA,1983-02-21 09:00,ZBAA 210900Z AUTO 20010KT 6SM 00/M29 RMK SLP294 T00031292 57012 IEM_DS3505
ZBAA,1983-02-21 12:00,ZBAA 211200Z AUTO 16006KT 6SM M02/M26 RMK SLP303 T10181258 52008 IEM_DS3505
ZBAA,1983-02-21 15:00,ZBAA 211500Z AUTO 00000KT 6SM M06/M19 RMK SLP305 T10581191 52003 IEM_DS3505
ZBAA,1983-02-21 18:00,ZBAA 211800Z AUTO 02006KT 6SM M05/M22 RMK SLP308 T10541220 40007//// 52003 IEM_DS3505
ZBAA,1983-02-21 21:00,ZBAA 212100Z AUTO 02008KT 6SM M07/M17 RMK SLP304 T10731167 58004 IEM_DS3505
ZBAA,1983-02-22 00:00,ZBAA 220000Z AUTO 02006KT 2 1/2SM M06/M16 RMK SLP315 T10631160 52011 IEM_DS3505
ZBAA,1983-02-22 03:00,ZBAA 220300Z AUTO 04006KT 2 1/2SM M00/M21 RMK SLP319 T10031210 52004 IEM_DS3505
ZBAA,1983-02-22 06:00,ZBAA 220600Z AUTO 11004KT 4SM 04/M18 RMK SLP297 T00401183 4////1085 57021 IEM_DS3505
ZBAA,1983-02-22 09:00,ZBAA 220900Z AUTO 20002KT 3SM 04/M16 RMK SLP296 T00411160 57002 IEM_DS3505
ZBAA,1983-02-22 12:00,ZBAA 221200Z AUTO 04002KT 3SM 00/M12 RMK SLP308 T00011124 52012 IEM_DS3505
ZBAA,1983-02-22 15:00,ZBAA 221500Z AUTO 00000KT 3SM M01/M12 RMK SLP321 T10091119 52013 IEM_DS3505
ZBAA,1983-02-22 18:00,ZBAA 221800Z AUTO 04002KT 2 1/2SM M01/M15 RMK SLP321 T10071154 40049//// 52001 IEM_DS3505
ZBAA,1983-02-22 21:00,ZBAA 222100Z AUTO 02006KT 2SM M01/M21 RMK SLP318 T10061210 57003 IEM_DS3505
ZBAA,1983-02-23 00:00,ZBAA 230000Z AUTO 04008KT 3SM M00/M20 RMK SLP334 T10041200 52015 IEM_DS3505
ZBAA,1983-02-23 03:00,ZBAA 230300Z AUTO 36010KT 9SM 04/M18 RMK SLP339 T00431183 52006 IEM_DS3505
ZBAA,1983-02-23 06:00,ZBAA 230600Z AUTO 36012KT 6SM 07/M18 RMK SLP318 T00681175 4////1018 57020 IEM_DS3505
ZBAA,1983-02-23 09:00,ZBAA 230900Z AUTO 07004KT 12SM 07/M17 RMK SLP310 T00661167 57008 IEM_DS3505
ZBAA,1983-02-23 12:00,ZBAA 231200Z AUTO 32002KT 6SM M00/M12 RMK SLP326 T10021124 52014 IEM_DS3505
ZBAA,1983-02-23 15:00,ZBAA 231500Z AUTO 36006KT 12SM 00/M15 RMK SLP338 T00021154 52013 IEM_DS3505
ZBAA,1983-02-23 18:00,ZBAA 231800Z AUTO 36004KT M02/M16 RMK SLP342 T10181160 40075//// 52004 IEM_DS3505
ZBAA,1983-02-23 21:00,ZBAA 232100Z AUTO 36010KT 9SM M03/M19 RMK SLP334 T10321191 57008 IEM_DS3505
ZBAA,1983-02-24 00:00,ZBAA 240000Z AUTO 36008KT 12SM M03/M19 RMK SLP340 T10271191 52005 IEM_DS3505
ZBAA,1983-02-24 03:00,ZBAA 240300Z AUTO 36010KT 16SM 03/M19 RMK SLP331 T00321191 57008 IEM_DS3505
ZBAA,1983-02-24 06:00,ZBAA 240600Z AUTO 34008KT 16SM 07/M24 RMK SLP293 T00671244 4////1042 57038 IEM_DS3505
ZBAA,1983-02-24 09:00,ZBAA 240900Z AUTO 29008KT 14SM 07/M23 RMK SLP283 T00701231 57010 IEM_DS3505
ZBAA,1983-02-24 12:00,ZBAA 241200Z AUTO 34004KT 12SM 00/M12 RMK SLP296 T00041119 52012 IEM_DS3505
ZBAA,1983-02-24 15:00,ZBAA 241500Z AUTO 36010KT 12SM 01/M18 RMK SLP308 T00111183 52013 IEM_DS3505
ZBAA,1983-02-24 18:00,ZBAA 241800Z AUTO 36004KT 12SM M01/M17 RMK SLP308 T10131167 40078//// 54000 IEM_DS3505
ZBAA,1983-02-24 21:00,ZBAA 242100Z AUTO 04004KT 9SM M02/M16 RMK SLP308 T10171160 54000 IEM_DS3505
ZBAA,1983-02-25 00:00,ZBAA 250000Z AUTO 02006KT 5SM M02/M20 RMK SLP325 T10231200 52016 IEM_DS3505
ZBAA,1983-02-25 03:00,ZBAA 250300Z AUTO 02010KT 11SM 04/M20 RMK SLP325 T00381200 52001 IEM_DS3505
ZBAA,1983-02-25 06:00,ZBAA 250600Z AUTO 36004KT 12SM 07/M20 RMK SLP304 T00711200 4////1036 57021 IEM_DS3505
ZBAA,1983-02-25 09:00,ZBAA 250900Z AUTO 16004KT 7SM 07/M19 RMK SLP293 T00721191 57011 IEM_DS3505
ZBAA,1983-02-25 12:00,ZBAA 251200Z AUTO 18006KT 6SM 04/M18 RMK SLP305 T00411183 52012 IEM_DS3505
ZBAA,1983-02-25 15:00,ZBAA 251500Z AUTO 22004KT 4SM M01/M09 RMK SLP319 T10091087 52014 IEM_DS3505
ZBAA,1983-02-25 18:00,ZBAA 251800Z AUTO 07004KT 4SM M03/M09 RMK SLP327 T10261092 40083//// 52008 IEM_DS3505
ZBAA,1983-02-25 21:00,ZBAA 252100Z AUTO 02004KT 4SM M04/M11 RMK SLP327 T10451109 54000 IEM_DS3505
ZBAA,1983-02-26 00:00,ZBAA 260000Z AUTO 00000KT 2SM M04/M08 RMK SLP343 T10441083 52015 IEM_DS3505
ZBAA,1983-02-26 03:00,ZBAA 260300Z AUTO 07006KT 2 1/2SM 03/M11 A3050 RMK SLP347 T00281109 52005 IEM_DS3505
ZBAA,1983-02-26 04:00,ZBAA 260400Z AUTO 00000KT 5SM 04/M11 A3050 RMK T00401110 IEM_DS3505
ZBAA,1983-02-26 05:00,ZBAA 260500Z AUTO 18004KT 6SM 05/M14 A3047 RMK T00501140 IEM_DS3505
ZBAA,1983-02-26 06:00,ZBAA 260600Z AUTO 07002KT 3SM 06/M11 A3045 RMK SLP328 T00571114 4////1052 57019 IEM_DS3505
ZBAA,1983-02-26 07:00,ZBAA 260700Z AUTO 22006KT 7SM 07/M13 A3042 RMK T00701130 IEM_DS3505
ZBAA,1983-02-26 08:00,ZBAA 260800Z AUTO 20006KT 7SM 07/M13 A3042 RMK T00701130 IEM_DS3505
ZBAA,1983-02-26 09:00,ZBAA 260900Z AUTO 16006KT 4SM 07/M14 A3042 RMK SLP321 T00681135 57007 IEM_DS3505
ZBAA,1983-02-26 12:00,ZBAA 261200Z AUTO 16004KT 3SM 04/M10 RMK SLP333 T00391100 52011 IEM_DS3505
ZBAA,1983-02-26 15:00,ZBAA 261500Z AUTO 20002KT 2 1/2SM 02/M10 RMK SLP339 T00211100 52007 IEM_DS3505
ZBAA,1983-02-26 18:00,ZBAA 261800Z AUTO 16004KT 6SM M00/M11 RMK SLP335 T10031114 40076//// 57004 IEM_DS3505
ZBAA,1983-02-26 21:00,ZBAA 262100Z AUTO 02004KT 4SM M04/M08 RMK SLP330 T10391083 57005 IEM_DS3505
ZBAA,1983-02-27 00:00,ZBAA 270000Z AUTO 00000KT 2SM M03/M09 RMK SLP340 T10271092 52009 IEM_DS3505
ZBAA,1983-02-27 03:00,ZBAA 270300Z AUTO 02006KT 2 1/2SM 04/M13 RMK SLP336 T00371130 57003 IEM_DS3505
ZBAA,1983-02-27 06:00,ZBAA 270600Z AUTO 00000KT 5SM 07/M10 RMK SLP309 T00741105 4////1044 57026 IEM_DS3505
ZBAA,1983-02-27 09:00,ZBAA 270900Z AUTO 11004KT 4SM 08/M10 RMK SLP302 T00811096 57008 IEM_DS3505
ZBAA,1983-02-27 12:00,ZBAA 271200Z AUTO 36002KT 4SM 02/M08 RMK SLP311 T00221076 52009 IEM_DS3505
ZBAA,1983-02-27 15:00,ZBAA 271500Z AUTO 04004KT 3SM 01/M09 RMK SLP318 T00101092 52007 IEM_DS3505
ZBAA,1983-02-27 21:00,ZBAA 272100Z AUTO 02004KT 4SM M02/M09 RMK SLP302 T10201092 57013 IEM_DS3505
ZBAA,1983-02-28 00:00,ZBAA 280000Z AUTO 32002KT 1SM M03/M08 RMK SLP309 T10321079 52006 IEM_DS3505
ZBAA,1983-02-28 03:00,ZBAA 280300Z AUTO 09004KT 2 1/2SM 06/M11 RMK SLP304 T00571109 57004 IEM_DS3505
ZBAA,1983-02-28 06:00,ZBAA 280600Z AUTO 18002KT 2 1/2SM 10/M10 RMK SLP275 T00971100 4////1041 57029 IEM_DS3505
ZBAA,1983-02-28 09:00,ZBAA 280900Z AUTO 18008KT 2 1/2SM 10/M08 RMK SLP263 T01031076 57012 IEM_DS3505
ZBAA,1983-02-28 12:00,ZBAA 281200Z AUTO 16006KT 2 1/2SM 08/M06 RMK SLP270 T00821055 52006 IEM_DS3505
ZBAA,1983-02-28 15:00,ZBAA 281500Z AUTO 20006KT 2 1/2SM 07/M05 RMK SLP269 T00661048 54000 IEM_DS3505
ZBAA,1983-02-28 18:00,ZBAA 281800Z AUTO 20012KT 3SM 06/M05 RMK SLP264 T00581052 40112//// 57004 IEM_DS3505
ZBAA,1983-02-28 21:00,ZBAA 282100Z AUTO 18004KT 3SM 04/M02 RMK SLP249 T00391018 57015 IEM_DS3505
ZBAA,1983-03-01 00:00,ZBAA 010000Z AUTO 00000KT 2SM 03/M01 RMK SLP251 T00341008 52001 IEM_DS3505
ZBAA,1983-03-01 03:00,ZBAA 010300Z AUTO 36006KT 1 1/4SM 05/M01 A3021 RMK SLP245 T00521013 57006 IEM_DS3505
ZBAA,1983-03-01 04:00,ZBAA 010400Z AUTO 00000KT 2 1/2SM 06/M02 A3018 RMK T00601020 IEM_DS3505
ZBAA,1983-03-01 05:00,ZBAA 010500Z AUTO 00000KT 3SM 07/00 A3015 RMK T00700000 IEM_DS3505
ZBAA,1983-03-01 06:00,ZBAA 010600Z AUTO 00000KT 1 1/4SM 07/00 A3012 RMK SLP221 T00670001 4////0030 57024 IEM_DS3505
ZBAA,1983-03-01 07:00,ZBAA 010700Z AUTO 00000KT 2 1/2SM 07/00 A3012 RMK T00700000 IEM_DS3505
ZBAA,1983-03-01 08:00,ZBAA 010800Z AUTO 00000KT 2 1/2SM 07/00 A3012 RMK T00700000 IEM_DS3505
ZBAA,1983-03-01 09:00,ZBAA 010900Z AUTO 18006KT 2 1/2SM 07/01 RMK SLP213 T00690014 57007 IEM_DS3505
ZBAA,1983-03-01 12:00,ZBAA 011200Z AUTO 18002KT 2SM 05/02 RMK SLP212 T00540016 57001 IEM_DS3505
ZBAA,1983-03-01 15:00,ZBAA 011500Z AUTO 18006KT 1 1/2SM 03/02 RMK SLP213 T00340018 52001 IEM_DS3505
ZBAA,1983-03-01 18:00,ZBAA 011800Z AUTO 00000KT 1SM 02/00 RMK SLP204 T00150004 40072//// 57009 IEM_DS3505
ZBAA,1983-03-01 21:00,ZBAA 012100Z AUTO 27002KT 1SM 02/00 RMK SLP198 T00150001 57006 IEM_DS3505
ZBAA,1983-03-02 00:00,ZBAA 020000Z AUTO 00000KT 1SM 02/01 RMK 60001 SLP215 T00230006 52017 IEM_DS3505
ZBAA,1983-03-02 03:00,ZBAA 020300Z AUTO 04006KT 3SM 07/01 RMK SLP224 T00740006 52008 IEM_DS3505
ZBAA,1983-03-02 06:00,ZBAA 020600Z AUTO 11004KT 5SM 11/M03 RMK SLP200 T01081026 4////0007 57023 IEM_DS3505
ZBAA,1983-03-02 09:00,ZBAA 020900Z AUTO 20010KT 4SM 11/M03 RMK SLP209 T01121026 52009 IEM_DS3505
ZBAA,1983-03-02 12:00,ZBAA 021200Z AUTO 20006KT 5SM 08/M01 RMK SLP239 T00781010 52029 IEM_DS3505
ZBAA,1983-03-02 15:00,ZBAA 021500Z AUTO 34004KT 2 1/2SM 03/M02 RMK SLP256 T00321018 52017 IEM_DS3505
ZBAA,1983-03-02 18:00,ZBAA 021800Z AUTO 36014KT 6SM 05/M07 RMK SLP268 T00471072 40133//// 52013 IEM_DS3505
ZBAA,1983-03-02 21:00,ZBAA 022100Z AUTO 36014KT 6SM 03/M11 RMK SLP278 T00341114 52010 IEM_DS3505
ZBAA,1983-03-03 00:00,ZBAA 030000Z AUTO 36010KT 12SM 03/M16 RMK SLP305 T00341160 52026 IEM_DS3505
ZBAA,1983-03-03 03:00,ZBAA 030300Z AUTO 02019KT 6SM 05/M17 RMK SLP320 T00541167 52014 IEM_DS3505
ZBAA,1983-03-03 06:00,ZBAA 030600Z AUTO 07010KT 12SM 08/M17 RMK SLP303 T00781167 4////0019 57016 IEM_DS3505
ZBAA,1983-03-03 09:00,ZBAA 030900Z AUTO 32010KT 12SM 07/M17 RMK SLP304 T00741167 52001 IEM_DS3505
ZBAA,1983-03-03 12:00,ZBAA 031200Z AUTO 34012KT 9SM 04/M16 RMK SLP336 T00421160 52031 IEM_DS3505
ZBAA,1983-03-03 15:00,ZBAA 031500Z AUTO 36014KT 12SM 01/M18 RMK SLP357 T00141183 52021 IEM_DS3505
ZBAA,1983-03-03 18:00,ZBAA 031800Z AUTO 36008KT 16SM M00/M18 RMK SLP360 T10041175 40086//// 52003 IEM_DS3505
ZBAA,1983-03-03 21:00,ZBAA 032100Z AUTO 36014KT 16SM M00/M16 RMK SLP355 T10051160 57005 IEM_DS3505
ZBAA,1983-03-04 00:00,ZBAA 040000Z AUTO 34012KT 12SM 00/M16 RMK SLP364 T00031160 52009 IEM_DS3505
ZBAA,1983-03-04 03:00,ZBAA 040300Z AUTO 34014KT 16SM 06/M18 RMK SLP360 T00641183 57004 IEM_DS3505
ZBAA,1983-03-04 06:00,ZBAA 040600Z AUTO 34010KT 16SM 10/M15 RMK SLP331 T01021154 4////1017 57029 IEM_DS3505
ZBAA,1983-03-04 09:00,ZBAA 040900Z AUTO 32010KT 12SM 11/M14 RMK SLP310 T01061141 57020 IEM_DS3505
ZBAA,1983-03-04 12:00,ZBAA 041200Z AUTO 36021KT 12SM 08/M18 RMK SLP313 T00801175 52003 IEM_DS3505
ZBAA,1983-03-04 15:00,ZBAA 041500Z AUTO 04004KT 16SM 05/M15 RMK SLP314 T00531154 52001 IEM_DS3505
ZBAA,1983-03-04 18:00,ZBAA 041800Z AUTO 36002KT 12SM 02/M12 RMK SLP298 T00241119 40116//// 57016 IEM_DS3505
ZBAA,1983-03-04 21:00,ZBAA 042100Z AUTO 36008KT 12SM 03/M15 RMK SLP281 T00341154 57016 IEM_DS3505
ZBAA,1983-03-05 00:00,ZBAA 050000Z AUTO 02006KT 9SM 02/M11 RMK SLP284 T00241114 52002 IEM_DS3505
ZBAA,1983-03-05 03:00,ZBAA 050300Z AUTO 36012KT 9SM 10/M18 RMK SLP264 T01001183 57019 IEM_DS3505
ZBAA,1983-03-05 04:00,ZBAA 050400Z AUTO 33016KT 7SM 11/M24 A3024 RMK T01101240 IEM_DS3505
ZBAA,1983-03-05 05:00,ZBAA 050500Z AUTO 34014KT 7SM 13/M19 A3018 RMK T01301190 IEM_DS3505
ZBAA,1983-03-05 06:00,ZBAA 050600Z AUTO 32014KT 16SM 14/M20 A3015 RMK SLP233 T01361200 4////0002 57031 IEM_DS3505
ZBAA,1983-03-05 08:00,ZBAA 050800Z AUTO 29012KT 7SM 14/M19 A3012 RMK T01401190 IEM_DS3505
ZBAA,1983-03-05 09:00,ZBAA 050900Z AUTO 32012KT 12SM 14/M18 A3009 RMK SLP212 T01361183 57020 IEM_DS3505
ZBAA,1983-03-05 10:00,ZBAA 051000Z AUTO 33012KT 7SM 12/M18 A3009 RMK T01201180 IEM_DS3505
ZBAA,1983-03-05 12:00,ZBAA 051200Z AUTO 34008KT 12SM 08/M10 RMK SLP223 T00781105 52009 IEM_DS3505
ZBAA,1983-03-05 15:00,ZBAA 051500Z AUTO 34010KT 9SM 08/M16 RMK SLP233 T00771160 52011 IEM_DS3505
ZBAA,1983-03-05 18:00,ZBAA 051800Z AUTO 34006KT 11SM 04/M14 RMK SLP233 T00401141 40146//// 54000 IEM_DS3505
ZBAA,1983-03-05 21:00,ZBAA 052100Z AUTO 34004KT 11SM 02/M12 RMK SLP230 T00231124 57003 IEM_DS3505
ZBAA,1983-03-06 00:00,ZBAA 060000Z AUTO 02010KT 11SM 04/M16 RMK SLP243 T00391160 52012 IEM_DS3505
ZBAA,1983-03-06 03:00,ZBAA 060300Z AUTO 34017KT 19SM 09/M24 RMK SLP243 T00911244 52001 IEM_DS3505
ZBAA,1983-03-06 06:00,ZBAA 060600Z AUTO 34017KT 19SM 12/M24 RMK SLP231 T01211244 4////0008 57012 IEM_DS3505
ZBAA,1983-03-06 09:00,ZBAA 060900Z AUTO 29010KT 19SM 13/M22 RMK SLP225 T01271220 57006 IEM_DS3505
ZBAA,1983-03-06 12:00,ZBAA 061200Z AUTO 34004KT 19SM 09/M15 RMK SLP246 T00921147 52020 IEM_DS3505
ZBAA,1983-03-06 15:00,ZBAA 061500Z AUTO 34010KT 16SM 06/M16 RMK SLP269 T00651160 52024 IEM_DS3505
ZBAA,1983-03-06 18:00,ZBAA 061800Z AUTO 36010KT 9SM 04/M14 RMK SLP283 T00411141 40133//// 52014 IEM_DS3505
ZBAA,1983-03-06 21:00,ZBAA 062100Z AUTO 07006KT 9SM 03/M15 RMK SLP302 T00281154 52019 IEM_DS3505
ZBAA,1983-03-07 00:00,ZBAA 070000Z AUTO 02008KT 7SM 03/M14 RMK SLP325 T00261141 52022 IEM_DS3505
ZBAA,1983-03-07 03:00,ZBAA 070300Z AUTO 16012KT 5SM 05/M15 RMK SLP342 T00471147 52017 IEM_DS3505
ZBAA,1983-03-07 06:00,ZBAA 070600Z AUTO 16014KT 5SM 06/M15 RMK SLP328 T00621154 4////0010 57014 IEM_DS3505
ZBAA,1983-03-07 09:00,ZBAA 070900Z AUTO 18016KT 4SM 05/M12 RMK SLP325 T00501119 57004 IEM_DS3505
ZBAA,1983-03-07 12:00,ZBAA 071200Z AUTO 18010KT 6SM 00/M11 RMK SLP341 T00031114 52016 IEM_DS3505
ZBAA,1983-03-07 15:00,ZBAA 071500Z AUTO 18008KT 9SM M02/M10 RMK SLP345 T10151096 52004 IEM_DS3505
ZBAA,1983-03-07 18:00,ZBAA 071800Z AUTO 18006KT 6SM M02/M10 RMK SLP339 T10241096 40068//// 57006 IEM_DS3505
ZBAA,1983-03-07 21:00,ZBAA 072100Z AUTO 16006KT 6SM M03/M09 RMK SLP318 T10271092 57021 IEM_DS3505
ZBAA,1983-03-08 00:00,ZBAA 080000Z AUTO 18002KT 4SM M03/M08 RMK SLP321 T10311079 52002 IEM_DS3505
ZBAA,1983-03-08 03:00,ZBAA 080300Z AUTO 20010KT 7SM 01/M12 RMK SLP310 T00101124 57010 IEM_DS3505
ZBAA,1983-03-08 06:00,ZBAA 080600Z AUTO 20014KT 7SM 04/M12 RMK SLP277 T00391119 4////1039 57033 IEM_DS3505
ZBAA,1983-03-08 07:00,ZBAA 080700Z AUTO 20008KT 6SM 04/M13 A3027 RMK T00401130 IEM_DS3505
ZBAA,1983-03-08 08:00,ZBAA 080800Z AUTO 19010KT 6SM 04/M12 A3027 RMK T00401120 IEM_DS3505
ZBAA,1983-03-08 09:00,ZBAA 080900Z AUTO 20010KT 7SM 04/M12 A3024 RMK SLP261 T00451124 57016 IEM_DS3505
ZBAA,1983-03-08 10:00,ZBAA 081000Z AUTO 18008KT 6SM 03/M11 A3027 RMK T00301110 IEM_DS3505
ZBAA,1983-03-08 12:00,ZBAA 081200Z AUTO 18006KT 6SM 03/M11 RMK SLP264 T00281109 52003 IEM_DS3505
ZBAA,1983-03-08 15:00,ZBAA 081500Z AUTO 16006KT 9SM 01/M10 RMK SLP266 T00081105 52002 IEM_DS3505
ZBAA,1983-03-08 18:00,ZBAA 081800Z AUTO 00000KT 6SM M02/M07 RMK SLP260 T10251068 40048//// 57006 IEM_DS3505
ZBAA,1983-03-08 21:00,ZBAA 082100Z AUTO 02006KT 2 1/2SM M03/M07 RMK SLP245 T10271068 57015 IEM_DS3505
ZBAA,1983-03-09 00:00,ZBAA 090000Z AUTO 02004KT 2SM M02/M07 RMK SLP243 T10211068 57002 IEM_DS3505
ZBAA,1983-03-09 03:00,ZBAA 090300Z AUTO 07006KT 2 1/2SM 03/M07 RMK SLP234 T00331068 57009 IEM_DS3505
ZBAA,1983-03-09 06:00,ZBAA 090600Z AUTO 00000KT 4SM 08/M08 RMK SLP204 T00821083 4////1043 57029 IEM_DS3505
ZBAA,1983-03-09 09:00,ZBAA 090900Z AUTO 22010KT 4SM 09/M07 RMK SLP188 T00881072 57015 IEM_DS3505
ZBAA,1983-03-09 12:00,ZBAA 091200Z AUTO 20006KT 4SM 06/M06 RMK SLP193 T00631065 52004 IEM_DS3505
ZBAA,1983-03-09 15:00,ZBAA 091500Z AUTO 36004KT 4SM 02/M04 RMK SLP199 T00171045 52006 IEM_DS3505
ZBAA,1983-03-09 18:00,ZBAA 091800Z AUTO 36002KT 4SM 00/M06 RMK SLP197 T00051058 40096//// 57001 IEM_DS3505
ZBAA,1983-03-09 21:00,ZBAA 092100Z AUTO 00000KT 2 1/2SM M02/M06 RMK SLP193 T10171061 57004 IEM_DS3505
ZBAA,1983-03-10 00:00,ZBAA 100000Z AUTO 34002KT 1SM M01/M05 RMK SLP200 T10111052 52006 IEM_DS3505
ZBAA,1983-03-10 03:00,ZBAA 100300Z AUTO 00000KT 1 1/4SM 13/M06 RMK SLP196 T01291061 57002 IEM_DS3505
ZBAA,1983-03-10 06:00,ZBAA 100600Z AUTO 20010KT 6SM 16/M14 RMK SLP167 T01621141 4////1037 57029 IEM_DS3505
ZBAA,1983-03-10 09:00,ZBAA 100900Z AUTO 18008KT 6SM 16/M12 RMK SLP156 T01561124 57011 IEM_DS3505
ZBAA,1983-03-10 12:00,ZBAA 101200Z AUTO 16006KT 4SM 12/M10 RMK SLP154 T01241096 57003 IEM_DS3505
ZBAA,1983-03-10 15:00,ZBAA 101500Z AUTO 11002KT 2SM 05/M01 RMK SLP164 T00501008 52011 IEM_DS3505
ZBAA,1983-03-10 18:00,ZBAA 101800Z AUTO 04006KT 2SM 02/M03 RMK SLP162 T00241026 40177//// 57002 IEM_DS3505
ZBAA,1983-03-10 21:00,ZBAA 102100Z AUTO 06006KT 1 1/2SM 02/M03 RMK SLP141 T00231034 57021 IEM_DS3505
ZBAA,1983-03-11 00:00,ZBAA 110000Z AUTO 09010KT 2 1/2SM 02/M05 RMK SLP141 T00241048 54000 IEM_DS3505
ZBAA,1983-03-11 03:00,ZBAA 110300Z AUTO 04008KT 3SM 07/M04 RMK SLP142 T00661037 54000 IEM_DS3505
ZBAA,1983-03-11 06:00,ZBAA 110600Z AUTO 09006KT 4SM 09/M02 RMK SLP122 T00921015 4////0014 57020 IEM_DS3505
ZBAA,1983-03-11 09:00,ZBAA 110900Z AUTO 11008KT 2 1/2SM 07/M06 RMK SLP124 T00721055 52002 IEM_DS3505
ZBAA,1983-03-11 12:00,ZBAA 111200Z AUTO 18004KT 4SM 04/M08 RMK SLP156 T00431083 52032 IEM_DS3505
ZBAA,1983-03-11 15:00,ZBAA 111500Z AUTO 16006KT 4SM 03/M12 RMK SLP179 T00291119 52023 IEM_DS3505
ZBAA,1983-03-11 18:00,ZBAA 111800Z AUTO 16008KT 5SM 02/M10 RMK SLP195 T00181105 40097//// 52016 IEM_DS3505
ZBAA,1983-03-11 21:00,ZBAA 112100Z AUTO 18002KT 5SM 00/M06 RMK SLP200 T00001065 52005 IEM_DS3505
ZBAA,1983-03-12 00:00,ZBAA 120000Z AUTO 18008KT 4SM M01/M05 RMK SLP228 T10061048 52026 IEM_DS3505
ZBAA,1983-03-12 03:00,ZBAA 120300Z AUTO 18006KT 2 1/2SM 01/M05 A3018 RMK SLP241 T00131048 52013 IEM_DS3505
ZBAA,1983-03-12 04:00,ZBAA 120400Z AUTO 03008KT 6SM 03/M09 A3018 RMK T00301090 IEM_DS3505
ZBAA,1983-03-12 05:00,ZBAA 120500Z AUTO 36008KT 6SM 05/M11 A3018 RMK T00501110 IEM_DS3505
ZBAA,1983-03-12 06:00,ZBAA 120600Z AUTO 34006KT 5SM 04/M07 A3015 RMK SLP231 T00441072 4////1011 57009 IEM_DS3505
ZBAA,1983-03-12 08:00,ZBAA 120800Z AUTO 00000KT 6SM 05/M06 A3015 RMK T00501060 IEM_DS3505
ZBAA,1983-03-12 09:00,ZBAA 120900Z AUTO 00000KT 5SM 05/M04 A3015 RMK SLP232 T00511039 54000 IEM_DS3505
ZBAA,1983-03-12 10:00,ZBAA 121000Z AUTO 00000KT 6SM 05/M06 A3018 RMK T00501060 IEM_DS3505
ZBAA,1983-03-12 12:00,ZBAA 121200Z AUTO 22006KT 5SM 03/M04 RMK SLP249 T00261042 52017 IEM_DS3505
ZBAA,1983-03-12 15:00,ZBAA 121500Z AUTO 20004KT 4SM 01/M04 RMK SLP268 T00081045 52019 IEM_DS3505
ZBAA,1983-03-12 18:00,ZBAA 121800Z AUTO 34008KT 2 1/2SM 02/M14 RMK SLP273 T00161141 40053//// 52006 IEM_DS3505
ZBAA,1983-03-12 21:00,ZBAA 122100Z AUTO 6SM M00/M18 RMK SLP279 T10051175 52005 IEM_DS3505
ZBAA,1983-03-13 00:00,ZBAA 130000Z AUTO 02012KT 7SM 00/M21 RMK SLP305 T00001210 52026 IEM_DS3505
ZBAA,1983-03-13 03:00,ZBAA 130300Z AUTO 36010KT 12SM 05/M21 RMK SLP301 T00521210 57003 IEM_DS3505
ZBAA,1983-03-13 06:00,ZBAA 130600Z AUTO 36004KT 12SM 09/M18 RMK SLP267 T00901175 4////1015 57034 IEM_DS3505
ZBAA,1983-03-13 09:00,ZBAA 130900Z AUTO 20010KT 12SM 10/M15 RMK SLP248 T00971154 57019 IEM_DS3505
ZBAA,1983-03-13 12:00,ZBAA 131200Z AUTO 20010KT 16SM 06/M16 RMK SLP238 T00651160 57010 IEM_DS3505
ZBAA,1983-03-13 15:00,ZBAA 131500Z AUTO 20010KT 16SM 04/M15 RMK SLP231 T00421154 57007 IEM_DS3505
ZBAA,1983-03-13 18:00,ZBAA 131800Z AUTO 25004KT 9SM 01/M11 RMK SLP214 T00081114 40111//// 57016 IEM_DS3505
ZBAA,1983-03-13 21:00,ZBAA 132100Z AUTO 02004KT 5SM M01/M10 RMK SLP197 T10061105 57017 IEM_DS3505
ZBAA,1983-03-14 00:00,ZBAA 140000Z AUTO 02002KT 2SM 00/M10 RMK SLP197 T00031105 54000 IEM_DS3505
ZBAA,1983-03-14 03:00,ZBAA 140300Z AUTO 07006KT 2SM 06/M11 RMK SLP189 T00641109 57008 IEM_DS3505
ZBAA,1983-03-14 06:00,ZBAA 140600Z AUTO 04002KT 2SM 13/M10 RMK SLP161 T01321100 4////1021 57027 IEM_DS3505
ZBAA,1983-03-14 09:00,ZBAA 140900Z AUTO 18008KT 4SM 14/M10 RMK SLP152 T01421105 57010 IEM_DS3505
ZBAA,1983-03-14 12:00,ZBAA 141200Z AUTO 29002KT 6SM 08/M05 RMK SLP167 T00821052 52015 IEM_DS3505
ZBAA,1983-03-14 18:00,ZBAA 141800Z AUTO 02006KT 6SM 05/M08 RMK SLP183 T00461079 40146//// 54000 IEM_DS3505
ZBAA,1983-03-14 21:00,ZBAA 142100Z AUTO 36006KT 4SM 02/M07 RMK SLP180 T00231072 57003 IEM_DS3505
ZBAA,1983-03-15 00:00,ZBAA 150000Z AUTO 09004KT 3SM 03/M07 RMK SLP200 T00271072 52019 IEM_DS3505
ZBAA,1983-03-15 03:00,ZBAA 150300Z AUTO 11010KT 4SM 06/M08 A3003 RMK SLP191 T00561076 57009 IEM_DS3505
ZBAA,1983-03-15 05:00,ZBAA 150500Z AUTO 13012KT 6SM 08/M07 A3000 RMK T00801070 IEM_DS3505
ZBAA,1983-03-15 06:00,ZBAA 150600Z AUTO 16004KT 5SM 10/M03 A2994 RMK SLP153 T00991028 4////0008 57037 IEM_DS3505
ZBAA,1983-03-15 07:00,ZBAA 150700Z AUTO 11010KT 6SM 10/M03 A2991 RMK T01001030 IEM_DS3505
ZBAA,1983-03-15 09:00,ZBAA 150900Z AUTO 34006KT 4SM 09/M03 A2985 RMK SLP130 T00881031 57024 IEM_DS3505
ZBAA,1983-03-15 10:00,ZBAA 151000Z AUTO 12010KT 6SM 10/M02 A2985 RMK T01001020 IEM_DS3505
ZBAA,1983-03-15 12:00,ZBAA 151200Z AUTO 02008KT 4SM 08/M03 RMK SLP129 T00841034 57001 IEM_DS3505
ZBAA,1983-03-15 15:00,ZBAA 151500Z AUTO 36010KT 2 1/2SM 03/02 RMK SLP138 T00330018 52009 IEM_DS3505
ZBAA,1983-03-15 18:00,ZBAA 151800Z AUTO 34014KT 7SM 04/M04 RMK 60024 SLP141 T00401037 40105//// 52004 IEM_DS3505
ZBAA,1983-03-15 21:00,ZBAA 152100Z AUTO 34023KT 6SM 02/M08 RMK SLP175 T00251083 52033 IEM_DS3505
ZBAA,1983-03-16 00:00,ZBAA 160000Z AUTO 34023KT 16SM 01/M17 RMK 70024 SLP213 T00091167 52038 IEM_DS3505
ZBAA,1983-03-16 03:00,ZBAA 160300Z AUTO 34019KT 12SM 03/M16 RMK SLP232 T00281160 52018 IEM_DS3505
ZBAA,1983-03-16 06:00,ZBAA 160600Z AUTO 34023KT 12SM 05/M18 RMK SLP230 T00501175 4////0006 57002 IEM_DS3505
ZBAA,1983-03-16 09:00,ZBAA 160900Z AUTO 34019KT 14SM 05/M21 RMK SLP240 T00461210 52010 IEM_DS3505
ZBAA,1983-03-16 12:00,ZBAA 161200Z AUTO 02010KT 12SM 02/M16 RMK SLP259 T00241160 52018 IEM_DS3505
ZBAA,1983-03-16 15:00,ZBAA 161500Z AUTO 36004KT 12SM 01/M13 RMK SLP257 T00091130 57002 IEM_DS3505
ZBAA,1983-03-16 18:00,ZBAA 161800Z AUTO 00000KT 12SM M01/M16 RMK SLP248 T10121160 40053//// 57009 IEM_DS3505
ZBAA,1983-03-16 21:00,ZBAA 162100Z AUTO 36004KT 12SM M02/M10 RMK SLP240 T10151100 57008 IEM_DS3505
ZBAA,1983-03-17 00:00,ZBAA 170000Z AUTO 09004KT 4SM 03/M13 RMK SLP244 T00261130 52004 IEM_DS3505
ZBAA,1983-03-17 03:00,ZBAA 170300Z AUTO 22002KT 9SM 08/M14 RMK SLP236 T00791135 57007 IEM_DS3505
ZBAA,1983-03-17 06:00,ZBAA 170600Z AUTO 00000KT 9SM 11/M14 RMK SLP212 T01081135 4////1026 57023 IEM_DS3505
ZBAA,1983-03-17 09:00,ZBAA 170900Z AUTO 27010KT 12SM 13/M15 RMK SLP195 T01291147 57017 IEM_DS3505
ZBAA,1983-03-17 12:00,ZBAA 171200Z AUTO 20006KT 12SM 08/M06 RMK SLP198 T00761065 52003 IEM_DS3505
ZBAA,1983-03-17 15:00,ZBAA 171500Z AUTO 20006KT 9SM 06/M07 RMK SLP198 T00551072 54000 IEM_DS3505
ZBAA,1983-03-17 18:00,ZBAA 171800Z AUTO 02002KT 6SM 01/M06 RMK SLP197 T00141061 40135//// 57001 IEM_DS3505
ZBAA,1983-03-17 21:00,ZBAA 172100Z AUTO 36002KT 5SM M01/M06 RMK SLP189 T10121058 57008 IEM_DS3505
ZBAA,1983-03-18 00:00,ZBAA 180000Z AUTO 02006KT 4SM 02/M05 RMK SLP189 T00161052 54000 IEM_DS3505
ZBAA,1983-03-18 03:00,ZBAA 180300Z AUTO 07004KT 7SM 08/M06 RMK SLP184 T00851058 57004 IEM_DS3505
ZBAA,1983-03-18 06:00,ZBAA 180600Z AUTO 16006KT 5SM 13/M06 RMK SLP153 T01311065 4////1020 57031 IEM_DS3505
ZBAA,1983-03-18 09:00,ZBAA 180900Z AUTO 18010KT 7SM 15/M10 RMK SLP130 T01511096 57023 IEM_DS3505
ZBAA,1983-03-18 12:00,ZBAA 181200Z AUTO 11004KT 4SM 10/M05 RMK SLP136 T01001048 52005 IEM_DS3505
ZBAA,1983-03-18 15:00,ZBAA 181500Z AUTO 18006KT 4SM 08/M02 RMK SLP134 T00831015 57001 IEM_DS3505
ZBAA,1983-03-18 18:00,ZBAA 181800Z AUTO 16004KT 4SM 09/M04 RMK SLP122 T00891045 40156//// 57011 IEM_DS3505
ZBAA,1983-03-18 21:00,ZBAA 182100Z AUTO 32002KT 4SM 06/M04 RMK SLP118 T00611037 57005 IEM_DS3505
ZBAA,1983-03-19 00:00,ZBAA 190000Z AUTO 02008KT 2 1/2SM 05/M02 RMK SLP127 T00521020 52009 IEM_DS3505
ZBAA,1983-03-19 03:00,ZBAA 190300Z AUTO 02008KT 2SM 06/M02 A2988 RMK SLP134 T00651023 52007 IEM_DS3505
ZBAA,1983-03-19 05:00,ZBAA 190500Z AUTO 02008KT 6SM 10/M04 A2985 RMK T01001040 IEM_DS3505
ZBAA,1983-03-19 06:00,ZBAA 190600Z AUTO 02008KT 4SM 10/M02 A2985 RMK SLP123 T00961023 4////0045 57011 IEM_DS3505
ZBAA,1983-03-19 07:00,ZBAA 190700Z AUTO 12010KT 6SM 12/M03 A2983 RMK T01201030 IEM_DS3505
ZBAA,1983-03-19 08:00,ZBAA 190800Z AUTO 11006KT 6SM 13/M03 A2983 RMK T01301030 IEM_DS3505
ZBAA,1983-03-19 09:00,ZBAA 190900Z AUTO 04002KT 3SM 12/M02 A2983 RMK SLP118 T01181015 57005 IEM_DS3505
ZBAA,1983-03-19 12:00,ZBAA 191200Z AUTO 34004KT 2 1/2SM 07/01 RMK SLP129 T00730010 52010 IEM_DS3505
ZBAA,1983-03-19 15:00,ZBAA 191500Z AUTO 00000KT 4SM 06/00 RMK SLP143 T00630004 52014 IEM_DS3505
ZBAA,1983-03-19 18:00,ZBAA 191800Z AUTO 02002KT 5SM 05/00 RMK SLP143 T00490001 40120//// 52001 IEM_DS3505
ZBAA,1983-03-19 21:00,ZBAA 192100Z AUTO 00000KT 4SM 02/M00 RMK SLP145 T00231003 52002 IEM_DS3505
ZBAA,1983-03-20 00:00,ZBAA 200000Z AUTO 02006KT 4SM 07/M02 RMK SLP163 T00711018 52018 IEM_DS3505
ZBAA,1983-03-20 03:00,ZBAA 200300Z AUTO 36010KT 8SM 14/M09 RMK SLP164 T01441092 52001 IEM_DS3505
ZBAA,1983-03-20 06:00,ZBAA 200600Z AUTO 02010KT 11SM 18/M10 RMK SLP142 T01771096 4////0011 57021 IEM_DS3505
ZBAA,1983-03-20 09:00,ZBAA 200900Z AUTO 25006KT 11SM 18/M10 RMK SLP137 T01821100 57006 IEM_DS3505
ZBAA,1983-03-20 12:00,ZBAA 201200Z AUTO 18004KT 9SM 14/M05 RMK SLP161 T01421052 52024 IEM_DS3505
ZBAA,1983-03-20 15:00,ZBAA 201500Z AUTO 20002KT 7SM 10/M04 RMK SLP170 T01041045 52010 IEM_DS3505
ZBAA,1983-03-20 18:00,ZBAA 201800Z AUTO 36004KT 4SM 05/M01 RMK SLP187 T00531013 40191//// 52017 IEM_DS3505
ZBAA,1983-03-20 21:00,ZBAA 202100Z AUTO 04002KT 3SM 05/01 RMK T00500012 52006 IEM_DS3505
ZBAA,1983-03-21 00:00,ZBAA 210000Z AUTO 07002KT 1 1/4SM 05/02 RMK SLP204 T00540022 52010 IEM_DS3505
ZBAA,1983-03-21 03:00,ZBAA 210300Z AUTO 02006KT 1 1/2SM 10/04 RMK SLP202 T00970036 57002 IEM_DS3505
ZBAA,1983-03-21 06:00,ZBAA 210600Z AUTO 16006KT 4SM 13/03 RMK SLP180 T01330032 4////0037 57022 IEM_DS3505
ZBAA,1983-03-21 09:00,ZBAA 210900Z AUTO 18010KT 4SM 15/00 RMK SLP161 T01460001 57019 IEM_DS3505
ZBAA,1983-03-21 12:00,ZBAA 211200Z AUTO 18010KT 5SM 13/00 RMK SLP170 T01260004 52009 IEM_DS3505
ZBAA,1983-03-21 15:00,ZBAA 211500Z AUTO 00000KT 4SM 10/04 RMK SLP178 T00970041 52008 IEM_DS3505
ZBAA,1983-03-21 18:00,ZBAA 211800Z AUTO 00000KT 3SM 08/03 RMK SLP181 T00840032 40152//// 52003 IEM_DS3505
ZBAA,1983-03-21 21:00,ZBAA 212100Z AUTO 34016KT 4SM 09/02 RMK SLP181 T00880021 52001 IEM_DS3505
ZBAA,1983-03-22 00:00,ZBAA 220000Z AUTO 36016KT 16SM 08/M01 RMK SLP195 T00851008 52013 IEM_DS3505
ZBAA,1983-03-22 03:00,ZBAA 220300Z AUTO 34016KT 19SM 10/M08 A3009 RMK SLP211 T01051076 52016 IEM_DS3505
ZBAA,1983-03-22 04:00,ZBAA 220400Z AUTO 36016KT 6SM 12/M10 A3009 RMK T01201100 IEM_DS3505
ZBAA,1983-03-22 05:00,ZBAA 220500Z AUTO 06014KT 6SM 12/M13 A3006 RMK T01201130 IEM_DS3505
ZBAA,1983-03-22 06:00,ZBAA 220600Z AUTO 02012KT 19SM 12/M08 A3006 RMK SLP196 T01251076 4////0081 57015 IEM_DS3505
ZBAA,1983-03-22 07:00,ZBAA 220700Z AUTO 04012KT 6SM 13/M13 A3006 RMK T01301130 IEM_DS3505
ZBAA,1983-03-22 08:00,ZBAA 220800Z AUTO 03010KT 6SM 13/M12 A3006 RMK T01301120 IEM_DS3505
ZBAA,1983-03-22 09:00,ZBAA 220900Z AUTO 07006KT 19SM 13/M09 RMK SLP197 T01261087 52001 IEM_DS3505
ZBAA,1983-03-22 12:00,ZBAA 221200Z AUTO 20004KT 16SM 08/03 RMK SLP210 T00790026 52013 IEM_DS3505
ZBAA,1983-03-22 15:00,ZBAA 221500Z AUTO 00000KT 9SM 05/02 RMK SLP221 T00540022 52010 IEM_DS3505
ZBAA,1983-03-22 18:00,ZBAA 221800Z AUTO 36008KT 9SM 07/M09 RMK SLP225 T00691087 40132//// 52004 IEM_DS3505
ZBAA,1983-03-22 21:00,ZBAA 222100Z AUTO 36012KT 6SM 06/M10 RMK SLP230 T00571105 52005 IEM_DS3505
ZBAA,1983-03-23 00:00,ZBAA 230000Z AUTO 34012KT 16SM 06/M12 RMK SLP244 T00641119 52014 IEM_DS3505
ZBAA,1983-03-23 03:00,ZBAA 230300Z AUTO 36010KT 19SM 09/M16 RMK SLP244 T00941160 54000 IEM_DS3505
ZBAA,1983-03-23 06:00,ZBAA 230600Z AUTO 04014KT 16SM 12/M14 RMK SLP218 T01251141 4////0045 57026 IEM_DS3505
ZBAA,1983-03-23 09:00,ZBAA 230900Z AUTO 04010KT 12SM 12/M14 RMK SLP207 T01251135 57010 IEM_DS3505
ZBAA,1983-03-23 12:00,ZBAA 231200Z AUTO 29004KT 9SM 09/M09 RMK SLP220 T00871087 52012 IEM_DS3505
ZBAA,1983-03-23 15:00,ZBAA 231500Z AUTO 36002KT 9SM 04/M05 RMK SLP233 T00451052 52013 IEM_DS3505
ZBAA,1983-03-23 18:00,ZBAA 231800Z AUTO 36006KT 9SM 07/M10 RMK SLP240 T00681105 40137//// 52007 IEM_DS3505
ZBAA,1983-03-23 21:00,ZBAA 232100Z AUTO 34006KT 9SM 05/M09 RMK SLP241 T00541092 52001 IEM_DS3505
ZBAA,1983-03-24 00:00,ZBAA 240000Z AUTO 34008KT 12SM 06/M09 RMK SLP252 T00651087 52011 IEM_DS3505
ZBAA,1983-03-24 03:00,ZBAA 240300Z AUTO 36002KT 16SM 10/M12 RMK SLP249 T01051124 57003 IEM_DS3505
ZBAA,1983-03-24 06:00,ZBAA 240600Z AUTO 29004KT 16SM 13/M15 RMK SLP224 T01331147 4////0041 57025 IEM_DS3505
ZBAA,1983-03-24 09:00,ZBAA 240900Z AUTO 16004KT 9SM 14/M10 RMK SLP209 T01371105 57014 IEM_DS3505
ZBAA,1983-03-24 12:00,ZBAA 241200Z AUTO 18004KT 7SM 11/M09 RMK SLP224 T01071092 52014 IEM_DS3505
ZBAA,1983-03-24 15:00,ZBAA 241500Z AUTO 16008KT 6SM 08/M09 RMK SLP235 T00781092 52011 IEM_DS3505
ZBAA,1983-03-24 18:00,ZBAA 241800Z AUTO 18004KT 6SM 04/M06 RMK SLP238 T00381055 52003 IEM_DS3505
ZBAA,1983-03-24 21:00,ZBAA 242100Z AUTO 07004KT 6SM 02/M04 RMK SLP238 T00241045 54000 IEM_DS3505
ZBAA,1983-03-25 00:00,ZBAA 250000Z AUTO 36006KT 5SM 02/M05 RMK SLP246 T00251052 52007 IEM_DS3505
ZBAA,1983-03-25 03:00,ZBAA 250300Z AUTO 00000KT 4SM 07/M06 RMK SLP246 T00741055 52001 IEM_DS3505
ZBAA,1983-03-25 06:00,ZBAA 250600Z AUTO 18006KT 4SM 11/M04 RMK SLP222 T01141042 4////0007 57024 IEM_DS3505
ZBAA,1983-03-25 09:00,ZBAA 250900Z AUTO 18010KT 6SM 12/M02 RMK SLP205 T01211023 57016 IEM_DS3505
ZBAA,1983-03-25 12:00,ZBAA 251200Z AUTO 00000KT 5SM 08/01 RMK SLP217 T00850006 52011 IEM_DS3505
ZBAA,1983-03-25 15:00,ZBAA 251500Z AUTO 00000KT 4SM 07/M01 RMK SLP228 T00661006 52011 IEM_DS3505
ZBAA,1983-03-25 18:00,ZBAA 251800Z AUTO 16008KT 7SM 07/M04 RMK SLP225 T00681045 40122//// 57003 IEM_DS3505
ZBAA,1983-03-25 21:00,ZBAA 252100Z AUTO 00000KT 5SM 05/M03 RMK SLP225 T00461026 54000 IEM_DS3505
ZBAA,1983-03-26 00:00,ZBAA 260000Z AUTO 04004KT 1 1/2SM 05/M01 RMK SLP231 T00471010 52005 IEM_DS3505
ZBAA,1983-03-26 03:00,ZBAA 260300Z AUTO 00000KT 6SM 09/M02 A3015 RMK SLP228 T00901020 57002 IEM_DS3505
ZBAA,1983-03-26 04:00,ZBAA 260400Z AUTO 00000KT 6SM 10/M04 A3015 RMK T01001040 IEM_DS3505
ZBAA,1983-03-26 05:00,ZBAA 260500Z AUTO 18004KT 6SM RMK IEM_DS3505
ZBAA,1983-03-26 06:00,ZBAA 260600Z AUTO 21012KT 6SM 13/M09 A3009 RMK SLP207 T01301090 4////0035 57020 IEM_DS3505
ZBAA,1983-03-26 07:00,ZBAA 260700Z AUTO 29008KT 6SM 13/M11 A3009 RMK T01301110 IEM_DS3505
ZBAA,1983-03-26 08:00,ZBAA 260800Z AUTO 21010KT 6SM 13/M12 A3006 RMK T01301120 IEM_DS3505
ZBAA,1983-03-26 09:00,ZBAA 260900Z AUTO 20008KT 6SM 13/M11 A3006 RMK SLP192 T01301110 57015 IEM_DS3505
ZBAA,1983-03-26 12:00,ZBAA 261200Z AUTO 16004KT 9SM 10/M08 RMK SLP205 T01051076 52013 IEM_DS3505
ZBAA,1983-03-26 15:00,ZBAA 261500Z AUTO 18006KT 12SM 08/M05 RMK SLP220 T00791052 52014 IEM_DS3505
ZBAA,1983-03-26 18:00,ZBAA 261800Z AUTO 20004KT 12SM 06/M03 RMK SLP220 T00571034 40142//// 54000 IEM_DS3505
ZBAA,1983-03-26 21:00,ZBAA 262100Z AUTO 04004KT 9SM 04/M03 RMK SLP220 T00361034 54000 IEM_DS3505
ZBAA,1983-03-27 00:00,ZBAA 270000Z AUTO 04006KT 5SM 05/M03 RMK SLP230 T00481026 52010 IEM_DS3505
ZBAA,1983-03-27 03:00,ZBAA 270300Z AUTO 36006KT 4SM 10/M02 RMK SLP238 T01021023 52008 IEM_DS3505
ZBAA,1983-03-27 06:00,ZBAA 270600Z AUTO 18008KT 4SM 14/M03 RMK SLP221 T01361031 4////0027 57017 IEM_DS3505
ZBAA,1983-03-27 09:00,ZBAA 270900Z AUTO 20010KT 6SM 14/M04 RMK SLP212 T01441045 57008 IEM_DS3505
ZBAA,1983-03-27 12:00,ZBAA 271200Z AUTO 20006KT 5SM 11/M02 RMK SLP227 T01121023 52015 IEM_DS3505
ZBAA,1983-03-27 15:00,ZBAA 271500Z AUTO 18006KT 5SM 09/M04 RMK SLP245 T00941045 52018 IEM_DS3505
ZBAA,1983-03-27 18:00,ZBAA 271800Z AUTO 02002KT 4SM 05/M02 RMK SLP251 T00511015 40151//// 52006 IEM_DS3505
ZBAA,1983-03-27 21:00,ZBAA 272100Z AUTO 07006KT 4SM 04/M03 RMK SLP255 T00411026 52004 IEM_DS3505
ZBAA,1983-03-28 00:00,ZBAA 280000Z AUTO 00000KT 2SM 06/M02 RMK SLP269 T00631023 52014 IEM_DS3505
ZBAA,1983-03-28 03:00,ZBAA 280300Z AUTO 04006KT 4SM 13/M02 RMK SLP271 T01331023 52003 IEM_DS3505
ZBAA,1983-03-28 06:00,ZBAA 280600Z AUTO 14004KT 4SM 17/M03 RMK SLP248 T01711028 4////0034 57023 IEM_DS3505
ZBAA,1983-03-28 09:00,ZBAA 280900Z AUTO 18004KT 5SM 17/M03 RMK SLP239 T01691028 57010 IEM_DS3505
ZBAA,1983-03-28 12:00,ZBAA 281200Z AUTO 18004KT 4SM 14/M00 RMK SLP251 T01361003 52012 IEM_DS3505
ZBAA,1983-03-28 15:00,ZBAA 281500Z AUTO 20004KT 4SM 10/00 RMK SLP261 T00980004 52011 IEM_DS3505
ZBAA,1983-03-28 18:00,ZBAA 281800Z AUTO 00000KT 4SM 07/00 RMK SLP264 T00720004 40178//// 52003 IEM_DS3505
ZBAA,1983-03-28 21:00,ZBAA 282100Z AUTO 36006KT 4SM 07/M00 RMK SLP260 T00661001 57004 IEM_DS3505
ZBAA,1983-03-29 00:00,ZBAA 290000Z AUTO 02004KT 3SM 08/M01 RMK SLP274 T00771010 52013 IEM_DS3505
ZBAA,1983-03-29 01:00,ZBAA 290100Z AUTO 00000KT 4SM 09/M01 A3030 RMK T00901010 IEM_DS3505
ZBAA,1983-03-29 03:00,ZBAA 290300Z AUTO 07002KT 4SM 14/M01 A3027 RMK SLP266 T01371006 57007 IEM_DS3505
ZBAA,1983-03-29 04:00,ZBAA 290400Z AUTO 00000KT 7SM 15/01 A3024 RMK T01500010 IEM_DS3505
ZBAA,1983-03-29 05:00,ZBAA 290500Z AUTO 16006KT 5SM 17/00 A3021 RMK T01700000 IEM_DS3505
ZBAA,1983-03-29 06:00,ZBAA 290600Z AUTO 22006KT 6SM 18/M02 A3018 RMK SLP233 T01821020 4////0050 57033 IEM_DS3505
ZBAA,1983-03-29 07:00,ZBAA 290700Z AUTO 23006KT 4SM 19/M03 A3015 RMK T01901030 IEM_DS3505
ZBAA,1983-03-29 09:00,ZBAA 290900Z AUTO 22010KT 7SM 18/M02 RMK SLP214 T01801020 57018 IEM_DS3505
ZBAA,1983-03-29 12:00,ZBAA 291200Z AUTO 20006KT 5SM 15/M01 RMK SLP219 T01481006 52004 IEM_DS3505
ZBAA,1983-03-29 15:00,ZBAA 291500Z AUTO 18008KT 6SM 11/M02 RMK SLP225 T01141020 52006 IEM_DS3505
ZBAA,1983-03-29 18:00,ZBAA 291800Z AUTO 00000KT 6SM 07/00 RMK SLP223 T00730004 40188//// 57002 IEM_DS3505
ZBAA,1983-03-29 21:00,ZBAA 292100Z AUTO 02006KT 6SM 06/M00 RMK SLP213 T00631003 57009 IEM_DS3505
ZBAA,1983-03-30 00:00,ZBAA 300000Z AUTO 02006KT 2 1/2SM 08/M01 RMK SLP219 T00761010 52005 IEM_DS3505
ZBAA,1983-03-30 03:00,ZBAA 300300Z AUTO 07002KT 2 1/2SM 12/01 RMK SLP205 T01240010 57013 IEM_DS3505
ZBAA,1983-03-30 06:00,ZBAA 300600Z AUTO 20014KT 4SM 18/00 RMK SLP168 T01820001 4////0056 57037 IEM_DS3505
ZBAA,1983-03-30 09:00,ZBAA 300900Z AUTO 18014KT 4SM 19/M01 RMK SLP144 T01861008 57024 IEM_DS3505
ZBAA,1983-03-30 12:00,ZBAA 301200Z AUTO 18010KT 4SM 16/01 RMK SLP144 T01590010 54000 IEM_DS3505
ZBAA,1983-03-30 15:00,ZBAA 301500Z AUTO 18010KT 4SM 13/M00 RMK SLP146 T01321001 52002 IEM_DS3505
ZBAA,1983-03-30 18:00,ZBAA 301800Z AUTO 20010KT 5SM 11/01 RMK SLP132 T01100006 40192//// 57014 IEM_DS3505
ZBAA,1983-03-30 21:00,ZBAA 302100Z AUTO 20004KT 6SM 09/01 RMK SLP122 T00910012 57010 IEM_DS3505
ZBAA,1983-03-31 00:00,ZBAA 310000Z AUTO 00000KT 6SM 09/01 RMK SLP131 T00940014 52009 IEM_DS3505
ZBAA,1983-03-31 03:00,ZBAA 310300Z AUTO 02006KT 4SM 13/02 RMK SLP129 T01300016 57002 IEM_DS3505
ZBAA,1983-03-31 06:00,ZBAA 310600Z AUTO 11006KT 4SM 17/03 RMK SLP104 T01700026 4////0084 57024 IEM_DS3505
ZBAA,1983-03-31 09:00,ZBAA 310900Z AUTO 18006KT 5SM 17/02 RMK SLP086 T01710021 57018 IEM_DS3505
ZBAA,1983-03-31 12:00,ZBAA 311200Z AUTO 00000KT 3SM 13/05 RMK SLP099 T01320048 52012 IEM_DS3505
ZBAA,1983-03-31 15:00,ZBAA 311500Z AUTO 04002KT 3SM 12/05 RMK SLP100 T01220053 52001 IEM_DS3505
ZBAA,1983-03-31 18:00,ZBAA 311800Z AUTO 36002KT 3SM 10/05 RMK SLP087 T01020051 40177//// 57012 IEM_DS3505
ZBAA,1983-03-31 21:00,ZBAA 312100Z AUTO 07002KT 3SM 09/05 RMK SLP066 T00870046 57022 IEM_DS3505
ZBAA,1983-04-01 00:00,ZBAA 010000Z AUTO 36006KT 3SM 10/04 RMK SLP083 T00960044 52017 IEM_DS3505
ZBAA,1983-04-01 03:00,ZBAA 010300Z AUTO 34019KT 4SM 13/M13 RMK SLP109 T01341130 52026 IEM_DS3505
ZBAA,1983-04-01 06:00,ZBAA 010600Z AUTO 29023KT 5SM 15/M19 RMK SLP120 T01461191 4////0070 52011 IEM_DS3505
ZBAA,1983-04-01 09:00,ZBAA 010900Z AUTO 32017KT 5SM 13/M21 RMK SLP138 T01261210 52017 IEM_DS3505
ZBAA,1983-04-01 12:00,ZBAA 011200Z AUTO 34010KT 6SM 11/M24 RMK SLP164 T01061244 52026 IEM_DS3505
ZBAA,1983-04-01 15:00,ZBAA 011500Z AUTO 32014KT 9SM 08/M20 RMK SLP189 T00811200 52025 IEM_DS3505
ZBAA,1983-04-01 18:00,ZBAA 011800Z AUTO 02010KT 9SM 06/M21 RMK SLP192 T00571210 40152//// 52003 IEM_DS3505
ZBAA,1983-04-02 00:00,ZBAA 020000Z AUTO 29006KT 16SM 06/M22 RMK SLP178 T00641220 57006 IEM_DS3505
ZBAA,1983-04-02 03:00,ZBAA 020300Z AUTO 25012KT 7SM 11/M22 A2994 RMK SLP161 T01101220 57017 IEM_DS3505
ZBAA,1983-04-02 04:00,ZBAA 020400Z AUTO 11004KT 6SM 11/ RMK IEM_DS3505
ZBAA,1983-04-02 05:00,ZBAA 020500Z AUTO 24014KT 7SM 12/M21 A2988 RMK T01201210 IEM_DS3505
ZBAA,1983-04-02 06:00,ZBAA 020600Z AUTO 22012KT 7SM 14/M14 A2983 RMK SLP114 T01371135 4////0005 57046 IEM_DS3505
ZBAA,1983-04-02 07:00,ZBAA 020700Z AUTO 24012KT 6SM 14/M14 A2977 RMK T01401140 IEM_DS3505
ZBAA,1983-04-02 08:00,ZBAA 020800Z AUTO 23016KT 6SM 14/M14 A2974 RMK T01401140 IEM_DS3505
ZBAA,1983-04-02 09:00,ZBAA 020900Z AUTO 20014KT 7SM 14/M10 A2971 RMK SLP085 T01411105 57030 IEM_DS3505
ZBAA,1983-04-02 12:00,ZBAA 021200Z AUTO 25006KT 7SM 11/M04 RMK SLP090 T01131045 52005 IEM_DS3505
ZBAA,1983-04-02 15:00,ZBAA 021500Z AUTO 34014KT 7SM 09/M18 RMK SLP106 T00921175 52017 IEM_DS3505
ZBAA,1983-04-02 18:00,ZBAA 021800Z AUTO 34012KT 9SM 07/M22 RMK SLP114 T00741220 40145//// 52008 IEM_DS3505
ZBAA,1983-04-02 21:00,ZBAA 022100Z AUTO 36010KT 9SM 06/M17 RMK SLP110 T00591167 57004 IEM_DS3505
ZBAA,1983-04-03 00:00,ZBAA 030000Z AUTO 36008KT 19SM 07/M18 RMK SLP124 T00701183 52013 IEM_DS3505
ZBAA,1983-04-03 03:00,ZBAA 030300Z AUTO 18006KT 19SM 11/M19 RMK SLP117 T01111191 57007 IEM_DS3505
ZBAA,1983-04-03 06:00,ZBAA 030600Z AUTO 22010KT 16SM 15/M14 RMK SLP087 T01511141 4////0043 57029 IEM_DS3505
ZBAA,1983-04-03 09:00,ZBAA 030900Z AUTO 20006KT 6SM 16/M11 RMK SLP072 T01591114 57015 IEM_DS3505
ZBAA,1983-04-03 12:00,ZBAA 031200Z AUTO 34002KT 6SM 13/M05 RMK SLP086 T01291048 52014 IEM_DS3505
ZBAA,1983-04-03 15:00,ZBAA 031500Z AUTO 34002KT 6SM 10/M05 RMK SLP100 T00951052 52014 IEM_DS3505
ZBAA,1983-04-03 18:00,ZBAA 031800Z AUTO 04004KT 6SM 06/M05 RMK SLP099 T00641048 40167//// 57001 IEM_DS3505
ZBAA,1983-04-03 21:00,ZBAA 032100Z AUTO 02004KT 6SM 07/M08 RMK SLP100 T00691083 52001 IEM_DS3505
ZBAA,1983-04-04 00:00,ZBAA 040000Z AUTO 00000KT 5SM 08/M03 RMK SLP115 T00841034 52015 IEM_DS3505
ZBAA,1983-04-04 03:00,ZBAA 040300Z AUTO 16004KT 4SM 16/M09 RMK SLP112 T01561087 57003 IEM_DS3505
ZBAA,1983-04-04 06:00,ZBAA 040600Z AUTO 18010KT 7SM 17/M06 RMK SLP085 T01691065 4////0043 57027 IEM_DS3505
ZBAA,1983-04-04 09:00,ZBAA 040900Z AUTO 16008KT 7SM 18/M08 RMK SLP066 T01781079 57019 IEM_DS3505
ZBAA,1983-04-04 12:00,ZBAA 041200Z AUTO 11004KT 5SM 14/M00 RMK SLP067 T01351003 52001 IEM_DS3505
ZBAA,1983-04-04 15:00,ZBAA 041500Z AUTO 16010KT 7SM 12/M03 RMK SLP066 T01191034 54000 IEM_DS3505
ZBAA,1983-04-04 18:00,ZBAA 041800Z AUTO 04008KT 6SM 08/M02 RMK SLP053 T00811018 40185//// 57014 IEM_DS3505
ZBAA,1983-04-04 21:00,ZBAA 042100Z AUTO 02006KT 6SM 07/M01 RMK SLP036 T00721010 57017 IEM_DS3505
ZBAA,1983-04-05 00:00,ZBAA 050000Z AUTO 02004KT 4SM 10/00 RMK SLP036 T00980004 54000 IEM_DS3505
ZBAA,1983-04-05 03:00,ZBAA 050300Z AUTO 07004KT 5SM 15/M00 RMK SLP029 T01521001 57006 IEM_DS3505
ZBAA,1983-04-05 04:00,ZBAA 050400Z AUTO 13006KT 5SM 17/03 A2956 RMK T01700030 IEM_DS3505
ZBAA,1983-04-05 05:00,ZBAA 050500Z AUTO 14008KT 5SM 19/02 A2953 RMK T01900020 IEM_DS3505
ZBAA,1983-04-05 06:00,ZBAA 050600Z AUTO 36002KT 4SM 19/01 A2950 RMK SLP001 T01910014 4////0065 57028 IEM_DS3505
ZBAA,1983-04-05 07:00,ZBAA 050700Z AUTO 21010KT 6SM 22/03 A2947 RMK T02200030 IEM_DS3505
ZBAA,1983-04-05 08:00,ZBAA 050800Z AUTO 19008KT 5SM 22/03 A2944 RMK T02200030 IEM_DS3505
ZBAA,1983-04-05 09:00,ZBAA 050900Z AUTO 20006KT 4SM 22/02 A2944 RMK SLP977 T02180021 57024 IEM_DS3505
ZBAA,1983-04-05 12:00,ZBAA 051200Z AUTO 36006KT 4SM 18/05 RMK SLP993 T01760048 52016 IEM_DS3505
ZBAA,1983-04-05 15:00,ZBAA 051500Z AUTO 11002KT 4SM 17/04 RMK SLP997 T01700037 52005 IEM_DS3505
ZBAA,1983-04-05 18:00,ZBAA 051800Z AUTO 02004KT 2 1/2SM 15/05 RMK SLP001 T01540048 40223//// 52004 IEM_DS3505
ZBAA,1983-04-05 21:00,ZBAA 052100Z AUTO 00000KT 2 1/2SM 13/05 RMK SLP000 T01270054 57001 IEM_DS3505
ZBAA,1983-04-06 00:00,ZBAA 060000Z AUTO 18008KT 1SM 17/04 RMK SLP015 T01690043 52015 IEM_DS3505
ZBAA,1983-04-06 03:00,ZBAA 060300Z AUTO 29017KT 5SM 20/M11 RMK SLP088 T01981114 52073 IEM_DS3505
ZBAA,1983-04-06 06:00,ZBAA 060600Z AUTO 34014KT 9SM 20/M09 RMK SLP095 T01981087 4////0119 52007 IEM_DS3505
ZBAA,1983-04-06 09:00,ZBAA 060900Z AUTO 32012KT 19SM 20/M19 RMK SLP106 T01961191 52010 IEM_DS3505
ZBAA,1983-04-06 12:00,ZBAA 061200Z AUTO 14012KT 12SM 29/ RMK SLP106 57015 IEM_DS3505
ZBAA,1983-04-06 15:00,ZBAA 061500Z AUTO 18012KT 16SM RMK SLP155 52026 IEM_DS3505
ZBAA,1983-04-06 18:00,ZBAA 061800Z AUTO 20006KT 12SM 08/M02 RMK SLP174 T00751015 40206//// 52019 IEM_DS3505
ZBAA,1983-04-06 21:00,ZBAA 062100Z AUTO 36004KT 8SM 05/M01 RMK SLP169 T00521008 57005 IEM_DS3505
ZBAA,1983-04-07 00:00,ZBAA 070000Z AUTO 04004KT 4SM 08/M00 RMK SLP174 T00801001 52005 IEM_DS3505
ZBAA,1983-04-07 03:00,ZBAA 070300Z AUTO 16006KT 5SM 14/M04 RMK SLP162 T01411037 57012 IEM_DS3505
ZBAA,1983-04-07 06:00,ZBAA 070600Z AUTO 16012KT 9SM 16/M03 RMK SLP129 T01641028 4////0049 57033 IEM_DS3505
ZBAA,1983-04-07 09:00,ZBAA 070900Z AUTO 16008KT 7SM 17/M05 RMK SLP100 T01741052 57029 IEM_DS3505
ZBAA,1983-04-07 12:00,ZBAA 071200Z AUTO 16006KT 6SM 15/M06 RMK SLP110 T01481055 52010 IEM_DS3505
ZBAA,1983-04-07 15:00,ZBAA 071500Z AUTO 16004KT 6SM 12/M02 RMK SLP111 T01181023 52002 IEM_DS3505
ZBAA,1983-04-07 18:00,ZBAA 071800Z AUTO 36006KT 9SM 11/00 RMK SLP114 T01100001 40177//// 52003 IEM_DS3505
ZBAA,1983-04-07 21:00,ZBAA 072100Z AUTO 00000KT 6SM 09/01 RMK SLP088 T00880014 57026 IEM_DS3505
ZBAA,1983-04-08 00:00,ZBAA 080000Z AUTO 36002KT 5SM 10/00 RMK SLP096 T00980004 52007 IEM_DS3505
ZBAA,1983-04-08 03:00,ZBAA 080300Z AUTO 36008KT 4SM 12/M00 RMK SLP098 T01231001 52002 IEM_DS3505
ZBAA,1983-04-08 06:00,ZBAA 080600Z AUTO 04006KT 6SM 14/01 RMK SLP092 T01370008 4////0075 57006 IEM_DS3505
ZBAA,1983-04-08 09:00,ZBAA 080900Z AUTO 04004KT 3SM 14/03 RMK SLP093 T01370026 52001 IEM_DS3505
ZBAA,1983-04-08 11:00,ZBAA 081100Z AUTO 25006KT 2SM 09/07 RMK SLP125 T00920072 52017 IEM_DS3505
ZBAA,1983-04-08 12:00,ZBAA 081200Z AUTO 02002KT 4SM 13/02 RMK SLP107 T01260022 52014 IEM_DS3505
ZBAA,1983-04-08 15:00,ZBAA 081500Z AUTO 25006KT 2SM 09/07 RMK SLP125 T00920072 52017 IEM_DS3505
ZBAA,1983-04-08 18:00,ZBAA 081800Z AUTO 36008KT 4SM 09/07 RMK 60051 SLP128 T00920067 52004 IEM_DS3505
ZBAA,1983-04-08 21:00,ZBAA 082100Z AUTO 34010KT 3SM 09/08 RMK SLP130 T00920078 52002 IEM_DS3505
ZBAA,1983-04-09 00:00,ZBAA 090000Z AUTO 36008KT 6SM 11/06 RMK 60008 SLP138 T01060065 52008 IEM_DS3505
ZBAA,1983-04-09 03:00,ZBAA 090300Z AUTO 02006KT 19SM 15/06 RMK SLP149 T01460059 52011 IEM_DS3505
ZBAA,1983-04-09 06:00,ZBAA 090600Z AUTO 14008KT 7SM 17/08 A2988 RMK SLP135 T01680085 4////0088 57014 IEM_DS3505
ZBAA,1983-04-09 07:00,ZBAA 090700Z AUTO 14012KT 6SM 16/08 A2988 RMK T01600080 IEM_DS3505
ZBAA,1983-04-09 08:00,ZBAA 090800Z AUTO 13010KT 6SM 15/07 A2985 RMK T01500070 IEM_DS3505
ZBAA,1983-04-09 09:00,ZBAA 090900Z AUTO 16006KT 9SM 15/07 RMK SLP127 T01520069 57008 IEM_DS3505
ZBAA,1983-04-09 12:00,ZBAA 091200Z AUTO 18006KT 9SM 13/08 RMK SLP139 T01300080 52012 IEM_DS3505
ZBAA,1983-04-09 15:00,ZBAA 091500Z AUTO 20008KT 4SM 12/07 RMK SLP143 T01160072 52004 IEM_DS3505
ZBAA,1983-04-09 18:00,ZBAA 091800Z AUTO 18004KT 5SM 10/07 RMK SLP131 T01040069 40172//// 57012 IEM_DS3505
ZBAA,1983-04-09 21:00,ZBAA 092100Z AUTO 29002KT 3SM 10/08 A2988 RMK SLP137 T01020083 52006 IEM_DS3505
ZBAA,1983-04-10 00:00,ZBAA 100000Z AUTO 02006KT 2SM 12/08 RMK SLP146 T01160080 52009 IEM_DS3505
ZBAA,1983-04-10 03:00,ZBAA 100300Z AUTO 02012KT 12SM 18/M03 RMK SLP146 T01761028 54000 IEM_DS3505
ZBAA,1983-04-10 06:00,ZBAA 100600Z AUTO 02010KT 12SM 20/M04 RMK SLP128 T01951045 4////0092 57018 IEM_DS3505
ZBAA,1983-04-10 09:00,ZBAA 100900Z AUTO 20006KT 6SM 19/05 RMK SLP119 T01870049 57009 IEM_DS3505
ZBAA,1983-04-10 12:00,ZBAA 101200Z AUTO 18004KT 6SM 16/09 RMK SLP133 T01550094 52014 IEM_DS3505
ZBAA,1983-04-10 15:00,ZBAA 101500Z AUTO 18002KT 5SM 13/09 RMK SLP139 T01270094 52006 IEM_DS3505
ZBAA,1983-04-10 18:00,ZBAA 101800Z AUTO 34002KT 3SM 10/07 RMK SLP140 T01010074 40202//// 52001 IEM_DS3505
ZBAA,1983-04-10 21:00,ZBAA 102100Z AUTO 36004KT 3SM 08/06 RMK SLP146 T00840057 52006 IEM_DS3505
ZBAA,1983-04-11 00:00,ZBAA 110000Z AUTO 04004KT 4SM 11/05 RMK SLP152 T01070048 52006 IEM_DS3505
ZBAA,1983-04-11 03:00,ZBAA 110300Z AUTO 18006KT 4SM 16/04 RMK SLP136 T01590036 57016 IEM_DS3505
ZBAA,1983-04-11 06:00,ZBAA 110600Z AUTO 10012KT 6SM 20/07 RMK SLP103 T02040067 4////0074 57032 IEM_DS3505
ZBAA,1983-04-11 09:00,ZBAA 110900Z AUTO 20014KT 6SM 21/04 RMK SLP081 T02140043 57022 IEM_DS3505
ZBAA,1983-04-11 12:00,ZBAA 111200Z AUTO 18010KT 6SM 19/05 RMK SLP082 T01910053 52001 IEM_DS3505
ZBAA,1983-04-11 15:00,ZBAA 111500Z AUTO 22004KT 6SM 16/07 RMK SLP086 T01560074 52004 IEM_DS3505
ZBAA,1983-04-11 18:00,ZBAA 111800Z AUTO 27002KT 5SM 13/08 RMK SLP085 T01270075 57010 IEM_DS3505
ZBAA,1983-04-11 21:00,ZBAA 112100Z AUTO 00000KT 4SM 11/06 RMK SLP087 T01070065 52002 IEM_DS3505
ZBAA,1983-04-12 00:00,ZBAA 120000Z AUTO 04006KT 2 1/2SM 12/06 RMK SLP101 T01190064 52014 IEM_DS3505
ZBAA,1983-04-12 02:00,ZBAA 120200Z AUTO 18006KT 7SM 17/09 A2980 RMK T01700090 IEM_DS3505
ZBAA,1983-04-12 03:00,ZBAA 120300Z AUTO 04004KT 2SM 18/08 A2980 RMK SLP108 T01760081 52007 IEM_DS3505
ZBAA,1983-04-12 04:00,ZBAA 120400Z AUTO 15008KT 7SM 19/10 A2980 RMK T01900100 IEM_DS3505
ZBAA,1983-04-12 05:00,ZBAA 120500Z AUTO 17008KT 7SM 22/10 A2977 RMK T02200100 IEM_DS3505
ZBAA,1983-04-12 06:00,ZBAA 120600Z AUTO 19010KT 7SM 22/09 A2977 RMK SLP084 T02200090 4////0097 57023 IEM_DS3505
ZBAA,1983-04-12 07:00,ZBAA 120700Z AUTO 20012KT 6SM 24/09 A2971 RMK T02400090 IEM_DS3505
ZBAA,1983-04-12 08:00,ZBAA 120800Z AUTO 21010KT 7SM 26/07 A2971 RMK T02600070 IEM_DS3505
ZBAA,1983-04-12 09:00,ZBAA 120900Z AUTO 20012KT 6SM 25/06 A2968 RMK SLP063 T02520065 57021 IEM_DS3505
ZBAA,1983-04-12 12:00,ZBAA 121200Z AUTO 18010KT 6SM 22/05 RMK SLP077 T02200049 52014 IEM_DS3505
ZBAA,1983-04-12 15:00,ZBAA 121500Z AUTO 18012KT 6SM 18/08 RMK SLP098 T01820081 52021 IEM_DS3505
ZBAA,1983-04-12 18:00,ZBAA 121800Z AUTO 18008KT 6SM 16/10 RMK SLP093 T01600104 40253//// 57005 IEM_DS3505
ZBAA,1983-04-12 21:00,ZBAA 122100Z AUTO 14006KT 6SM 14/10 RMK SLP095 T01350103 52002 IEM_DS3505
ZBAA,1983-04-13 00:00,ZBAA 130000Z AUTO 22004KT 2 1/2SM 14/09 RMK SLP105 T01350094 52010 IEM_DS3505
ZBAA,1983-04-13 03:00,ZBAA 130300Z AUTO 16010KT 1 1/2SM 19/12 RMK SLP108 T01900116 52003 IEM_DS3505
ZBAA,1983-04-13 06:00,ZBAA 130600Z AUTO 18006KT 6SM 21/08 RMK SLP086 T02110082 4////0127 57022 IEM_DS3505
ZBAA,1983-04-13 09:00,ZBAA 130900Z AUTO 14008KT 4SM 19/07 RMK SLP076 T01870074 57011 IEM_DS3505
ZBAA,1983-04-13 12:00,ZBAA 131200Z AUTO 16006KT 6SM 16/M00 RMK SLP091 T01581001 52015 IEM_DS3505
ZBAA,1983-04-13 15:00,ZBAA 131500Z AUTO 11006KT 6SM 13/03 RMK SLP101 T01340028 52010 IEM_DS3505
ZBAA,1983-04-13 18:00,ZBAA 131800Z AUTO 09002KT 6SM 12/04 RMK SLP095 T01190044 40215//// 57006 IEM_DS3505
ZBAA,1983-04-13 21:00,ZBAA 132100Z AUTO 02006KT 6SM 10/06 RMK SLP087 T01050065 57008 IEM_DS3505
ZBAA,1983-04-14 00:00,ZBAA 140000Z AUTO 02012KT 19SM 10/01 RMK SLP110 T01010008 52023 IEM_DS3505
ZBAA,1983-04-14 03:00,ZBAA 140300Z AUTO 34014KT 19SM 10/M06 RMK SLP134 T00981065 52023 IEM_DS3505
ZBAA,1983-04-14 06:00,ZBAA 140600Z AUTO 34017KT 19SM 12/M13 RMK SLP143 T01181130 4////0092 52009 IEM_DS3505
ZBAA,1983-04-14 09:00,ZBAA 140900Z AUTO 34019KT 19SM 11/M18 RMK SLP156 T01131175 52012 IEM_DS3505
ZBAA,1983-04-14 12:00,ZBAA 141200Z AUTO 34021KT 19SM 09/M16 RMK SLP188 T00911160 52032 IEM_DS3505
ZBAA,1983-04-14 15:00,ZBAA 141500Z AUTO 34017KT 19SM 08/M13 RMK SLP211 T00811130 52023 IEM_DS3505
ZBAA,1983-04-14 18:00,ZBAA 141800Z AUTO 32004KT 19SM 07/M10 RMK SLP199 T00661105 40132//// 57012 IEM_DS3505
ZBAA,1983-04-14 21:00,ZBAA 142100Z AUTO 27006KT 16SM 08/M13 RMK SLP188 T00781130 57011 IEM_DS3505
ZBAA,1983-04-15 00:00,ZBAA 150000Z AUTO 34004KT 16SM 11/M12 RMK SLP189 T01111119 52001 IEM_DS3505
ZBAA,1983-04-15 03:00,ZBAA 150300Z AUTO 34016KT 16SM 14/M15 RMK SLP188 T01431147 54000 IEM_DS3505
ZBAA,1983-04-15 06:00,ZBAA 150600Z AUTO 32016KT 19SM 18/M10 RMK SLP165 T01761100 4////0061 57023 IEM_DS3505
ZBAA,1983-04-15 09:00,ZBAA 150900Z AUTO 29014KT 19SM 18/M14 RMK SLP150 T01851135 57015 IEM_DS3505
ZBAA,1983-04-15 12:00,ZBAA 151200Z AUTO 22006KT 16SM 15/M06 RMK SLP153 T01491061 52003 IEM_DS3505
ZBAA,1983-04-15 15:00,ZBAA 151500Z AUTO 20004KT 9SM 12/M03 RMK SLP158 T01161028 52005 IEM_DS3505
ZBAA,1983-04-15 18:00,ZBAA 151800Z AUTO 00000KT 9SM 08/M02 RMK SLP153 T00761015 40193//// 57005 IEM_DS3505
ZBAA,1983-04-15 21:00,ZBAA 152100Z AUTO 00000KT 7SM 05/M01 RMK SLP138 T00521013 57015 IEM_DS3505
ZBAA,1983-04-16 00:00,ZBAA 160000Z AUTO 00000KT 3SM 10/M02 RMK SLP147 T01051015 52009 IEM_DS3505
ZBAA,1983-04-16 02:00,ZBAA 160200Z AUTO 00000KT 7SM 16/M02 A2991 RMK T01601020 IEM_DS3505
ZBAA,1983-04-16 03:00,ZBAA 160300Z AUTO 18006KT 4SM 19/M07 A2988 RMK SLP135 T01931072 57012 IEM_DS3505
ZBAA,1983-04-16 04:00,ZBAA 160400Z AUTO 16002KT 6SM 20/M07 A2985 RMK T02001070 IEM_DS3505
ZBAA,1983-04-16 05:00,ZBAA 160500Z AUTO 19010KT 7SM 21/M09 A2983 RMK T02101090 IEM_DS3505
ZBAA,1983-04-16 06:00,ZBAA 160600Z AUTO 20012KT 12SM 22/M09 A2980 RMK SLP099 T02161092 4////0048 57035 IEM_DS3505
ZBAA,1983-04-16 07:00,ZBAA 160700Z AUTO 21014KT 7SM 23/M10 A2977 RMK T02301100 IEM_DS3505
ZBAA,1983-04-16 08:00,ZBAA 160800Z AUTO 21012KT 7SM 23/M10 A2971 RMK T02301100 IEM_DS3505
ZBAA,1983-04-16 09:00,ZBAA 160900Z AUTO 20016KT 9SM 21/M08 A2971 RMK SLP076 T02141079 IEM_DS3505
ZBAA,1983-04-16 10:00,ZBAA 161000Z AUTO 21017KT 7SM 21/M08 A2971 RMK T02101080 IEM_DS3505
ZBAA,1983-04-16 11:00,ZBAA 161100Z AUTO 22012KT 7SM 19/M06 A2971 RMK T01901060 IEM_DS3505
ZBAA,1983-04-16 12:00,ZBAA 161200Z AUTO 18012KT 9SM 18/M03 RMK SLP081 T01781034 52005 IEM_DS3505
ZBAA,1983-04-16 15:00,ZBAA 161500Z AUTO 18010KT 9SM 15/M01 RMK SLP093 T01511013 52013 IEM_DS3505
ZBAA,1983-04-16 18:00,ZBAA 161800Z AUTO 20006KT 9SM 12/M01 RMK SLP095 T01241010 40230//// 52002 IEM_DS3505
ZBAA,1983-04-16 21:00,ZBAA 162100Z AUTO 16004KT 6SM 10/M00 RMK SLP106 T00951001 52010 IEM_DS3505
ZBAA,1983-04-17 00:00,ZBAA 170000Z AUTO 00000KT 4SM 12/02 RMK SLP134 T01160016 52027 IEM_DS3505
ZBAA,1983-04-17 03:00,ZBAA 170300Z AUTO 16006KT 6SM 16/04 A2991 RMK SLP144 T01600040 52010 IEM_DS3505
ZBAA,1983-04-17 04:00,ZBAA 170400Z AUTO 18006KT 6SM 17/03 A2991 RMK T01700030 IEM_DS3505
ZBAA,1983-04-17 06:00,ZBAA 170600Z AUTO 22012KT 6SM 20/03 RMK SLP127 T01980030 4////0080 57017 IEM_DS3505
ZBAA,1983-04-17 09:00,ZBAA 170900Z AUTO 20006KT 2 1/2SM 20/04 RMK SLP113 T02040041 57013 IEM_DS3505
ZBAA,1983-04-17 12:00,ZBAA 171200Z AUTO 18008KT 4SM 19/04 RMK SLP128 T01920037 52014 IEM_DS3505
ZBAA,1983-04-17 15:00,ZBAA 171500Z AUTO 18012KT 6SM 17/03 RMK SLP147 T01660026 52019 IEM_DS3505
ZBAA,1983-04-17 18:00,ZBAA 171800Z AUTO 20008KT 9SM 13/04 RMK SLP156 T01340044 40211//// 52009 IEM_DS3505
ZBAA,1983-04-17 21:00,ZBAA 172100Z AUTO 18004KT 6SM 12/05 RMK SLP170 T01220053 52014 IEM_DS3505
ZBAA,1983-04-18 00:00,ZBAA 180000Z AUTO 36004KT 2SM 12/06 RMK SLP188 T01240057 52018 IEM_DS3505
ZBAA,1983-04-18 03:00,ZBAA 180300Z AUTO 32002KT 3SM 16/05 RMK SLP195 T01600051 52007 IEM_DS3505
ZBAA,1983-04-18 06:00,ZBAA 180600Z AUTO 07002KT 4SM 18/07 RMK SLP183 T01820069 4////0115 57012 IEM_DS3505
ZBAA,1983-04-18 09:00,ZBAA 180900Z AUTO 16006KT 4SM 20/05 RMK SLP165 T02040048 57018 IEM_DS3505
ZBAA,1983-04-18 12:00,ZBAA 181200Z AUTO 18004KT 3SM 18/07 RMK SLP173 T01770069 52008 IEM_DS3505
ZBAA,1983-04-18 15:00,ZBAA 181500Z AUTO 00000KT 2 1/2SM 14/07 RMK SLP194 T01440074 52021 IEM_DS3505
ZBAA,1983-04-18 18:00,ZBAA 181800Z AUTO 36010KT 6SM 14/05 RMK SLP205 T01410053 40207//// 52011 IEM_DS3505
ZBAA,1983-04-18 21:00,ZBAA 182100Z AUTO 34008KT 12SM 14/M06 RMK SLP227 T01411065 51022 IEM_DS3505
ZBAA,1983-04-19 00:00,ZBAA 190000Z AUTO 02010KT 16SM 14/M06 RMK SLP260 T01431065 52033 IEM_DS3505
ZBAA,1983-04-19 03:00,ZBAA 190300Z AUTO 04012KT 6SM 16/M14 A3030 RMK SLP267 T01601140 52007 IEM_DS3505
ZBAA,1983-04-19 04:00,ZBAA 190400Z AUTO 04010KT 6SM 17/M16 A3027 RMK T01701160 IEM_DS3505
ZBAA,1983-04-19 05:00,ZBAA 190500Z AUTO 06008KT 6SM 17/M15 A3024 RMK T01701150 IEM_DS3505
ZBAA,1983-04-19 06:00,ZBAA 190600Z AUTO 36008KT 16SM 19/M12 A3021 RMK SLP243 T01891119 4////0115 57024 IEM_DS3505
ZBAA,1983-04-19 07:00,ZBAA 190700Z AUTO 30004KT 6SM 19/M09 A3018 RMK T01901090 IEM_DS3505
ZBAA,1983-04-19 08:00,ZBAA 190800Z AUTO 00000KT 6SM 18/M10 A3018 RMK T01801100 IEM_DS3505
ZBAA,1983-04-19 09:00,ZBAA 190900Z AUTO 32008KT 19SM 19/M16 A3015 RMK SLP232 T01901160 57011 IEM_DS3505
ZBAA,1983-04-19 12:00,ZBAA 191200Z AUTO 22004KT 12SM 15/M09 RMK SLP238 T01531092 52005 IEM_DS3505
ZBAA,1983-04-19 15:00,ZBAA 191500Z AUTO 34004KT 12SM 09/M02 RMK SLP249 T00931020 52011 IEM_DS3505
ZBAA,1983-04-19 18:00,ZBAA 191800Z AUTO 36002KT 12SM 09/M04 RMK SLP251 T00901045 40200//// 52002 IEM_DS3505
ZBAA,1983-04-19 21:00,ZBAA 192100Z AUTO 02002KT 11SM 06/M06 RMK SLP250 T00621055 57001 IEM_DS3505
ZBAA,1983-04-20 00:00,ZBAA 200000Z AUTO 00000KT 11SM 13/M06 RMK SLP256 T01301055 52006 IEM_DS3505
ZBAA,1983-04-20 03:00,ZBAA 200300Z AUTO 20006KT 6SM 19/M12 RMK SLP239 T01901124 57017 IEM_DS3505
ZBAA,1983-04-20 06:00,ZBAA 200600Z AUTO 20010KT 8SM 21/M10 RMK SLP196 T02121096 4////0050 57042 IEM_DS3505
ZBAA,1983-04-20 09:00,ZBAA 200900Z AUTO 20014KT 7SM 20/M08 RMK SLP167 T02031083 57029 IEM_DS3505
ZBAA,1983-04-20 12:00,ZBAA 201200Z AUTO 20010KT 7SM 18/03 RMK SLP158 T01800026 57009 IEM_DS3505
ZBAA,1983-04-20 15:00,ZBAA 201500Z AUTO 20012KT 9SM 16/00 RMK SLP145 T01590001 57012 IEM_DS3505
ZBAA,1983-04-20 18:00,ZBAA 201800Z AUTO 18010KT 6SM 14/03 RMK SLP117 T01370026 40220//// 57028 IEM_DS3505
ZBAA,1983-04-20 21:00,ZBAA 202100Z AUTO 20010KT 6SM 14/05 RMK SLP090 T01430049 57026 IEM_DS3505
ZBAA,1983-04-21 00:00,ZBAA 210000Z AUTO 20016KT 5SM 10/07 RMK 60004 70004 SLP095 T00960067 52004 IEM_DS3505
ZBAA,1983-04-21 03:00,ZBAA 210300Z AUTO 20010KT 5SM 10/06 RMK SLP085 T00960064 57011 IEM_DS3505
ZBAA,1983-04-21 06:00,ZBAA 210600Z AUTO 20006KT 4SM 10/08 RMK 60016 SLP069 T00970077 4////0087 57016 IEM_DS3505
ZBAA,1983-04-21 09:00,ZBAA 210900Z AUTO 00000KT 4SM 11/08 RMK SLP045 T01090081 57024 IEM_DS3505
ZBAA,1983-04-21 12:00,ZBAA 211200Z AUTO 00000KT 2 1/2SM 10/09 RMK 60000 SLP038 T01040086 57007 IEM_DS3505
ZBAA,1983-04-21 15:00,ZBAA 211500Z AUTO 00000KT 1 1/4SM 10/09 RMK SLP033 T00960086 57005 IEM_DS3505
ZBAA,1983-04-21 18:00,ZBAA 211800Z AUTO 34014KT 7SM 13/M04 RMK SLP038 T01291037 40147//// 52005 IEM_DS3505
ZBAA,1983-04-21 21:00,ZBAA 212100Z AUTO 32014KT 12SM 13/M11 RMK SLP052 T01291109 52014 IEM_DS3505
ZBAA,1983-04-22 00:00,ZBAA 220000Z AUTO 02006KT 19SM 14/M07 RMK 70016 SLP081 T01361072 52029 IEM_DS3505
ZBAA,1983-04-22 03:00,ZBAA 220300Z AUTO 29014KT 12SM 18/M06 RMK SLP084 T01791065 52004 IEM_DS3505
ZBAA,1983-04-22 06:00,ZBAA 220600Z AUTO 20010KT 16SM 21/M04 RMK SLP059 T02101037 4////0085 57024 IEM_DS3505
ZBAA,1983-04-22 09:00,ZBAA 220900Z AUTO 16006KT 12SM 21/M03 RMK SLP039 T02081034 57021 IEM_DS3505
ZBAA,1983-04-22 12:00,ZBAA 221200Z AUTO 14004KT 12SM 18/M01 RMK SLP037 T01771008 57002 IEM_DS3505
ZBAA,1983-04-22 15:00,ZBAA 221500Z AUTO 02006KT 12SM 14/02 RMK SLP039 T01390018 52002 IEM_DS3505
ZBAA,1983-04-22 18:00,ZBAA 221800Z AUTO 02004KT 6SM 12/03 RMK SLP037 T01180028 57002 IEM_DS3505
ZBAA,1983-04-22 21:00,ZBAA 222100Z AUTO 00000KT 6SM 10/03 RMK SLP042 T00960028 52005 IEM_DS3505
ZBAA,1983-04-23 00:00,ZBAA 230000Z AUTO 00000KT 5SM 14/03 RMK SLP051 T01430032 52009 IEM_DS3505
ZBAA,1983-04-23 03:00,ZBAA 230300Z AUTO 16006KT 1 1/4SM 23/04 A2965 RMK SLP047 T02320043 57003 IEM_DS3505
ZBAA,1983-04-23 04:00,ZBAA 230400Z AUTO 12004KT 7SM 24/02 RMK T02400020 IEM_DS3505
ZBAA,1983-04-23 05:00,ZBAA 230500Z AUTO 22008KT 7SM 26/00 A2959 RMK T02600000 IEM_DS3505
ZBAA,1983-04-23 06:00,ZBAA 230600Z AUTO 20006KT 7SM 28/M03 A2956 RMK SLP023 T02781028 4////0080 57024 IEM_DS3505
ZBAA,1983-04-23 07:00,ZBAA 230700Z AUTO 19010KT 7SM 29/M05 A2956 RMK T02901050 IEM_DS3505
ZBAA,1983-04-23 08:00,ZBAA 230800Z AUTO 18010KT 7SM 29/M07 A2953 RMK T02901070 IEM_DS3505
ZBAA,1983-04-23 09:00,ZBAA 230900Z AUTO 20016KT 7SM 28/M03 RMK SLP003 T02851028 57019 IEM_DS3505
ZBAA,1983-04-23 12:00,ZBAA 231200Z AUTO 22008KT 6SM 24/02 RMK SLP019 T02390022 IEM_DS3505
ZBAA,1983-04-23 15:00,ZBAA 231500Z AUTO 20008KT 6SM 20/03 RMK SLP032 T02010030 52013 IEM_DS3505
ZBAA,1983-04-23 18:00,ZBAA 231800Z AUTO 20010KT 7SM 19/07 RMK SLP031 T01920072 40293//// 54000 IEM_DS3505
ZBAA,1983-04-23 21:00,ZBAA 232100Z AUTO 00000KT 6SM 15/10 RMK SLP040 T01460098 52008 IEM_DS3505
ZBAA,1983-04-24 00:00,ZBAA 240000Z AUTO 07004KT 2 1/2SM 18/07 RMK SLP063 T01760074 52023 IEM_DS3505
ZBAA,1983-04-24 03:00,ZBAA 240300Z AUTO 04004KT 3SM 24/09 RMK SLP072 T02400089 52009 IEM_DS3505
ZBAA,1983-04-24 06:00,ZBAA 240600Z AUTO 16006KT 4SM 30/04 RMK SLP054 T02950044 4////0136 57017 IEM_DS3505
ZBAA,1983-04-24 09:00,ZBAA 240900Z AUTO 22010KT 6SM 30/M04 RMK SLP047 T02991042 57008 IEM_DS3505
ZBAA,1983-04-24 12:00,ZBAA 241200Z AUTO 16004KT 5SM 26/01 RMK SLP062 T02620014 52015 IEM_DS3505
ZBAA,1983-04-24 15:00,ZBAA 241500Z AUTO 18004KT 5SM 22/05 RMK SLP072 T02160049 52010 IEM_DS3505
ZBAA,1983-04-24 18:00,ZBAA 241800Z AUTO 20010KT 6SM 22/10 RMK SLP068 T02170098 40303//// 57003 IEM_DS3505
ZBAA,1983-04-24 21:00,ZBAA 242100Z AUTO 00000KT 5SM 17/11 RMK SLP067 T01710114 57001 IEM_DS3505
ZBAA,1983-04-25 00:00,ZBAA 250000Z AUTO 00000KT 2SM 19/12 RMK SLP081 T01880124 52013 IEM_DS3505
ZBAA,1983-04-25 03:00,ZBAA 250300Z AUTO 34006KT 4SM 22/13 RMK SLP079 T02200128 57002 IEM_DS3505
ZBAA,1983-04-25 06:00,ZBAA 250600Z AUTO 36010KT 2SM 20/16 RMK 60012 SLP053 T02000155 4////0163 57026 IEM_DS3505
ZBAA,1983-04-25 09:00,ZBAA 250900Z AUTO 09004KT 2SM 18/16 RMK SLP043 T01840164 57010 IEM_DS3505
ZBAA,1983-04-25 12:00,ZBAA 251200Z AUTO 02004KT 1 1/4SM 16/15 RMK 60079 SLP025 T01570150 57018 IEM_DS3505
ZBAA,1983-04-25 15:00,ZBAA 251500Z AUTO 36008KT 2 1/2SM 16/16 RMK SLP001 T01600155 57023 IEM_DS3505
ZBAA,1983-04-25 18:00,ZBAA 251800Z AUTO 36008KT 7SM 15/13 RMK 60083 SLP963 T01480128 40227//// 57039 IEM_DS3505
ZBAA,1983-04-25 21:00,ZBAA 252100Z AUTO 34008KT 6SM 14/11 RMK SLP937 T01440112 57026 IEM_DS3505
ZBAA,1983-04-26 00:00,ZBAA 260000Z AUTO 34023KT 6SM 15/08 RMK 60012 70181 SLP938 T01500083 52001 IEM_DS3505
ZBAA,1983-04-26 02:00,ZBAA 260200Z AUTO 35016KT 7SM 15/08 A2929 RMK T01500080 IEM_DS3505
ZBAA,1983-04-26 03:00,ZBAA 260300Z AUTO 34014KT 9SM 18/05 A2929 RMK SLP932 T01820051 57006 IEM_DS3505
ZBAA,1983-04-26 04:00,ZBAA 260400Z AUTO 02017G27KT 7SM 18/05 A2929 RMK T01800050 IEM_DS3505
ZBAA,1983-04-26 05:00,ZBAA 260500Z AUTO 03012KT 6SM 19/07 A2929 RMK T01900070 IEM_DS3505
ZBAA,1983-04-26 06:00,ZBAA 260600Z AUTO 18008KT 9SM 19/10 A2932 RMK 60016 SLP945 T01900096 4////0138 52013 IEM_DS3505
ZBAA,1983-04-26 08:00,ZBAA 260800Z AUTO 22008KT 6SM 20/12 A2935 RMK T02000120 IEM_DS3505
ZBAA,1983-04-26 09:00,ZBAA 260900Z AUTO 22004KT 6SM 24/12 A2935 RMK SLP954 T02350115 52010 IEM_DS3505
ZBAA,1983-04-26 12:00,ZBAA 261200Z AUTO 27004KT 6SM 24/02 RMK SLP996 T02350018 52042 IEM_DS3505
ZBAA,1983-04-26 15:00,ZBAA 261500Z AUTO 25004KT 6SM 19/06 RMK SLP028 T01910059 52031 IEM_DS3505
ZBAA,1983-04-26 18:00,ZBAA 261800Z AUTO 00000KT 4SM 16/08 RMK SLP028 T01550082 40256//// 54000 IEM_DS3505
ZBAA,1983-04-27 00:00,ZBAA 270000Z AUTO 02004KT 3SM 17/09 RMK SLP052 T01740090 52021 IEM_DS3505
ZBAA,1983-04-27 03:00,ZBAA 270300Z AUTO 02002KT 3SM 22/10 RMK SLP051 T02240100 57001 IEM_DS3505
ZBAA,1983-04-27 06:00,ZBAA 270600Z AUTO 16008KT 4SM 25/13 RMK SLP024 T02520134 4////0124 57027 IEM_DS3505
ZBAA,1983-04-27 09:00,ZBAA 270900Z AUTO 16010KT 4SM 26/12 RMK SLP004 T02620121 57019 IEM_DS3505
ZBAA,1983-04-27 12:00,ZBAA 271200Z AUTO 18008KT 6SM 22/17 RMK SLP005 T02210166 52001 IEM_DS3505
ZBAA,1983-04-27 15:00,ZBAA 271500Z AUTO 16010KT 6SM 20/16 RMK SLP011 T01980158 52006 IEM_DS3505
ZBAA,1983-04-27 18:00,ZBAA 271800Z AUTO 20010KT 5SM 18/15 RMK SLP007 T01790150 40265//// 57004 IEM_DS3505
ZBAA,1983-04-27 21:00,ZBAA 272100Z AUTO 29014KT 3SM 16/15 RMK SLP021 T01640154 52013 IEM_DS3505
ZBAA,1983-04-28 00:00,ZBAA 280000Z AUTO 02010KT 5SM 13/07 RMK 60035 70035 SLP034 T01310074 52013 IEM_DS3505
ZBAA,1983-04-28 03:00,ZBAA 280300Z AUTO 32004KT 5SM 15/04 RMK SLP059 T01540037 52025 IEM_DS3505
ZBAA,1983-04-28 06:00,ZBAA 280600Z AUTO 34014KT 6SM 15/01 RMK SLP069 T01500012 4////0126 52009 IEM_DS3505
ZBAA,1983-04-28 09:00,ZBAA 280900Z AUTO 32004KT 2 1/2SM 13/M01 RMK SLP059 T01311013 57010 IEM_DS3505
ZBAA,1983-04-28 12:00,ZBAA 281200Z AUTO 32014KT 19SM 08/02 RMK 60002 SLP107 T00800018 52047 IEM_DS3505
ZBAA,1983-04-28 15:00,ZBAA 281500Z AUTO 29012KT 19SM 07/M07 RMK SLP163 T00741068 52056 IEM_DS3505
ZBAA,1983-04-28 18:00,ZBAA 281800Z AUTO 34012KT 19SM 08/M11 RMK SLP164 T00841114 40179//// 52001 IEM_DS3505
ZBAA,1983-04-28 21:00,ZBAA 282100Z AUTO 34008KT 19SM 08/M12 RMK SLP164 T00851119 57001 IEM_DS3505
ZBAA,1983-04-29 00:00,ZBAA 290000Z AUTO 25010KT 11SM 10/M08 RMK 70004 SLP166 T01051079 52002 IEM_DS3505
ZBAA,1983-04-29 03:00,ZBAA 290300Z AUTO 32016KT 6SM 14/M04 RMK SLP151 T01431045 57015 IEM_DS3505
ZBAA,1983-04-29 06:00,ZBAA 290600Z AUTO 27014KT 9SM 17/M09 RMK SLP133 T01671087 4////0069 57018 IEM_DS3505
ZBAA,1983-04-29 09:00,ZBAA 290900Z AUTO 18008KT 12SM 18/M04 RMK SLP105 T01771045 57027 IEM_DS3505
ZBAA,1983-04-29 12:00,ZBAA 291200Z AUTO 00000KT 9SM 16/02 RMK SLP102 T01610024 57003 IEM_DS3505
ZBAA,1983-04-29 15:00,ZBAA 291500Z AUTO 29004KT 6SM 17/M02 RMK SLP117 T01661020 52014 IEM_DS3505
ZBAA,1983-04-29 18:00,ZBAA 291800Z AUTO 02004KT 9SM 12/01 RMK SLP121 T01210006 40190//// 52004 IEM_DS3505
ZBAA,1983-04-29 21:00,ZBAA 292100Z AUTO 00000KT 7SM 09/03 RMK SLP118 T00870034 57003 IEM_DS3505
ZBAA,1983-04-30 00:00,ZBAA 300000Z AUTO 07002KT 3SM 12/01 RMK SLP122 T01250006 52004 IEM_DS3505
ZBAA,1983-04-30 03:00,ZBAA 300300Z AUTO 14002KT 3SM 17/03 RMK SLP114 T01720026 57007 IEM_DS3505
ZBAA,1983-04-30 04:00,ZBAA 300400Z AUTO 18004KT 6SM 18/03 A2980 RMK T01800030 IEM_DS3505
ZBAA,1983-04-30 05:00,ZBAA 300500Z AUTO 25004KT 6SM 20/02 A2977 RMK T02000020 IEM_DS3505
ZBAA,1983-04-30 06:00,ZBAA 300600Z AUTO 21008KT 6SM 21/04 A2974 RMK SLP085 T02100040 4////0084 57029 IEM_DS3505
ZBAA,1983-04-30 07:00,ZBAA 300700Z AUTO 18012KT 6SM 21/06 A2971 RMK T02100060 IEM_DS3505
ZBAA,1983-04-30 08:00,ZBAA 300800Z AUTO 18010KT 6SM 21/06 A2971 RMK T02100060 IEM_DS3505
ZBAA,1983-04-30 09:00,ZBAA 300900Z AUTO 18010KT 5SM 20/04 A2971 RMK SLP070 T02040041 57015 IEM_DS3505
ZBAA,1983-04-30 12:00,ZBAA 301200Z AUTO 20008KT 6SM 18/06 RMK SLP077 T01760057 52007 IEM_DS3505
ZBAA,1983-04-30 15:00,ZBAA 301500Z AUTO 20006KT 6SM 15/08 RMK SLP093 T01460085 52016 IEM_DS3505
ZBAA,1983-04-30 18:00,ZBAA 301800Z AUTO 00000KT 4SM 12/09 RMK SLP094 T01240086 40213//// 52001 IEM_DS3505
ZBAA,1983-04-30 21:00,ZBAA 302100Z AUTO 00000KT 3SM 10/08 RMK SLP102 T01000081 52008 IEM_DS3505
ZBAA,1983-05-01 00:00,ZBAA 010000Z AUTO 04004KT 2 1/2SM 14/08 RMK T01380085 52019 IEM_DS3505
ZBAA,1983-05-01 03:00,ZBAA 010300Z AUTO 00000KT 4SM 20/06 RMK SLP120 T02050065 57001 IEM_DS3505
ZBAA,1983-05-01 06:00,ZBAA 010600Z AUTO 22010KT 6SM 23/05 RMK SLP105 T02340053 4////0096 57014 IEM_DS3505
ZBAA,1983-05-01 09:00,ZBAA 010900Z AUTO 20016KT 6SM 24/05 RMK SLP098 T02360053 57008 IEM_DS3505
ZBAA,1983-05-01 12:00,ZBAA 011200Z AUTO 18010KT 6SM 22/04 RMK SLP110 T02180044 52013 IEM_DS3505
ZBAA,1983-05-01 15:00,ZBAA 011500Z AUTO 20002KT 6SM 19/07 RMK SLP131 T01860072 52020 IEM_DS3505
ZBAA,1983-05-01 18:00,ZBAA 011800Z AUTO 00000KT 6SM 14/08 RMK SLP132 T01440085 40244//// 52001 IEM_DS3505
ZBAA,1983-05-01 21:00,ZBAA 012100Z AUTO 00000KT 5SM 12/09 RMK SLP142 T01190089 52010 IEM_DS3505
ZBAA,1983-05-02 00:00,ZBAA 020000Z AUTO 02004KT 6SM 17/08 RMK SLP163 T01740078 52021 IEM_DS3505
ZBAA,1983-05-02 03:00,ZBAA 020300Z AUTO 04006KT 6SM 23/07 RMK SLP159 T02330068 57003 IEM_DS3505
ZBAA,1983-05-02 06:00,ZBAA 020600Z AUTO 18012KT 5SM 26/08 RMK SLP146 T02600083 4////0114 57014 IEM_DS3505
ZBAA,1983-05-02 09:00,ZBAA 020900Z AUTO 20010KT 6SM 26/08 RMK SLP132 T02580081 57014 IEM_DS3505
ZBAA,1983-05-02 12:00,ZBAA 021200Z AUTO 00000KT 6SM 22/12 RMK SLP141 T02240116 52009 IEM_DS3505
ZBAA,1983-05-02 15:00,ZBAA 021500Z AUTO 20006KT 9SM 20/12 RMK SLP147 T02030115 52007 IEM_DS3505
ZBAA,1983-05-02 18:00,ZBAA 021800Z AUTO 22004KT 6SM 17/13 RMK SLP150 T01740133 40267//// 52003 IEM_DS3505
ZBAA,1983-05-02 21:00,ZBAA 022100Z AUTO 00000KT 5SM 15/12 RMK SLP159 T01460121 52008 IEM_DS3505
ZBAA,1983-05-03 00:00,ZBAA 030000Z AUTO 36006KT 3SM 16/13 A3000 RMK SLP174 T01640126 52015 IEM_DS3505
ZBAA,1983-05-03 01:00,ZBAA 030100Z AUTO 09004KT 7SM 19/13 A3000 RMK T01900130 IEM_DS3505
ZBAA,1983-05-03 02:00,ZBAA 030200Z AUTO 00000KT 7SM 19/13 A3000 RMK T01900130 IEM_DS3505
ZBAA,1983-05-03 03:00,ZBAA 030300Z AUTO 14008KT 7SM 21/13 A3000 RMK SLP171 T02100130 57003 IEM_DS3505
ZBAA,1983-05-03 04:00,ZBAA 030400Z AUTO 16004KT 7SM 22/12 A3000 RMK T02200120 IEM_DS3505
ZBAA,1983-05-03 05:00,ZBAA 030500Z AUTO 17006KT 6SM 23/13 A2997 RMK T02300130 IEM_DS3505
ZBAA,1983-05-03 06:00,ZBAA 030600Z AUTO 16006KT 4SM 24/13 A2994 RMK SLP154 T02420133 4////0141 57017 IEM_DS3505
ZBAA,1983-05-03 07:00,ZBAA 030700Z AUTO 18008KT 6SM 24/14 A2994 RMK T02400140 IEM_DS3505
ZBAA,1983-05-03 08:00,ZBAA 030800Z AUTO 12004KT 6SM 25/15 A2991 RMK T02500150 IEM_DS3505
ZBAA,1983-05-03 09:00,ZBAA 030900Z AUTO 16006KT 4SM 25/14 A2991 RMK SLP142 T02530141 57012 IEM_DS3505
ZBAA,1983-05-03 10:00,ZBAA 031000Z AUTO 12006KT 6SM 24/15 A2991 RMK T02400150 IEM_DS3505
ZBAA,1983-05-03 11:00,ZBAA 031100Z AUTO 14008KT 6SM 24/16 A2991 RMK T02400160 IEM_DS3505
ZBAA,1983-05-03 12:00,ZBAA 031200Z AUTO 20004KT 4SM 23/16 RMK SLP146 T02290157 52004 IEM_DS3505
ZBAA,1983-05-03 15:00,ZBAA 031500Z AUTO 00000KT 5SM 20/16 RMK SLP159 T02050158 52013 IEM_DS3505
ZBAA,1983-05-03 18:00,ZBAA 031800Z AUTO 00000KT 3SM 17/15 RMK SLP156 T01680148 40258//// 57003 IEM_DS3505
ZBAA,1983-05-03 21:00,ZBAA 032100Z AUTO 02004KT 16/14 RMK SLP159 T01600145 52003 IEM_DS3505
ZBAA,1983-05-04 00:00,ZBAA 040000Z AUTO 02004KT 1 1/2SM 17/14 RMK SLP172 T01720141 52013 IEM_DS3505
ZBAA,1983-05-04 03:00,ZBAA 040300Z AUTO 02006KT 1 1/2SM 21/14 RMK SLP169 T02130136 57003 IEM_DS3505
ZBAA,1983-05-04 06:00,ZBAA 040600Z AUTO 20006KT 6SM 25/10 RMK SLP150 T02510096 4////0150 57018 IEM_DS3505
ZBAA,1983-05-04 09:00,ZBAA 040900Z AUTO 16006KT 6SM 25/10 RMK SLP142 T02500104 57009 IEM_DS3505
ZBAA,1983-05-04 12:00,ZBAA 041200Z AUTO 16008KT 6SM 22/10 RMK SLP151 T02190105 52009 IEM_DS3505
ZBAA,1983-05-04 15:00,ZBAA 041500Z AUTO 09004KT 6SM 19/13 RMK SLP159 T01920133 52008 IEM_DS3505
ZBAA,1983-05-04 18:00,ZBAA 041800Z AUTO 07004KT 5SM 17/13 RMK SLP155 T01730130 40258//// 57003 IEM_DS3505
ZBAA,1983-05-04 21:00,ZBAA 042100Z AUTO 02006KT 5SM 16/13 RMK SLP146 T01610131 57010 IEM_DS3505
ZBAA,1983-05-05 00:00,ZBAA 050000Z AUTO 00000KT 5SM 16/13 RMK SLP154 T01650126 52008 IEM_DS3505
ZBAA,1983-05-05 03:00,ZBAA 050300Z AUTO 00000KT 6SM 19/12 RMK SLP153 T01880116 57001 IEM_DS3505
ZBAA,1983-05-05 06:00,ZBAA 050600Z AUTO 20004KT 6SM 21/10 RMK 60004 SLP136 T02140099 4////0159 57015 IEM_DS3505
ZBAA,1983-05-05 09:00,ZBAA 050900Z AUTO 16008KT 9SM 21/12 RMK SLP113 T02110115 57012 IEM_DS3505
ZBAA,1983-05-05 12:00,ZBAA 051200Z AUTO 16010KT 9SM 16/10 RMK SLP124 T01620098 52009 IEM_DS3505
ZBAA,1983-05-05 15:00,ZBAA 051500Z AUTO 18004KT 9SM 15/10 RMK SLP125 T01530098 52002 IEM_DS3505
ZBAA,1983-05-05 18:00,ZBAA 051800Z AUTO 20002KT 9SM 15/10 RMK SLP109 T01500105 40222//// 57015 IEM_DS3505
ZBAA,1983-05-05 21:00,ZBAA 052100Z AUTO 20002KT 9SM 14/11 RMK SLP098 T01420114 57011 IEM_DS3505
ZBAA,1983-05-06 00:00,ZBAA 060000Z AUTO 20004KT 4SM 16/11 RMK SLP100 T01560112 52001 IEM_DS3505
ZBAA,1983-05-06 03:00,ZBAA 060300Z AUTO 20010KT 4SM 18/12 RMK SLP082 T01760119 57018 IEM_DS3505
ZBAA,1983-05-06 06:00,ZBAA 060600Z AUTO 20017KT 4SM 18/12 RMK SLP040 T01830121 4////0139 57042 IEM_DS3505
ZBAA,1983-05-06 09:00,ZBAA 060900Z AUTO 16004KT 4SM 21/14 RMK SLP027 T02090137 57012 IEM_DS3505
ZBAA,1983-05-06 12:00,ZBAA 061200Z AUTO 32017KT 1 1/4SM 24/M07 RMK SLP054 T02401072 52027 IEM_DS3505
ZBAA,1983-05-06 15:00,ZBAA 061500Z AUTO 02008KT 6SM 19/M03 RMK SLP094 T01901028 52040 IEM_DS3505
ZBAA,1983-05-06 18:00,ZBAA 061800Z AUTO 16002KT 12SM 16/M00 RMK SLP086 T01611003 40256//// 57008 IEM_DS3505
ZBAA,1983-05-06 21:00,ZBAA 062100Z AUTO 20008KT 9SM 15/M02 RMK SLP076 T01481020 57010 IEM_DS3505
ZBAA,1983-05-07 00:00,ZBAA 070000Z AUTO 20014KT 7SM 18/M03 RMK SLP072 T01851028 57004 IEM_DS3505
ZBAA,1983-05-07 02:00,ZBAA 070200Z AUTO 23010KT 7SM 22/01 A2971 RMK T02200010 IEM_DS3505
ZBAA,1983-05-07 03:00,ZBAA 070300Z AUTO 04014KT 7SM 21/00 A2971 RMK SLP060 T02100000 57012 IEM_DS3505
ZBAA,1983-05-07 04:00,ZBAA 070400Z AUTO 06008KT 7SM 23/01 A2968 RMK T02300010 IEM_DS3505
ZBAA,1983-05-07 05:00,ZBAA 070500Z AUTO 34021G33KT 7SM 27/M01 A2965 RMK T02701010 IEM_DS3505
ZBAA,1983-05-07 06:00,ZBAA 070600Z AUTO 34014KT 12SM 28/M01 A2965 RMK SLP052 T02761013 4////0129 57008 IEM_DS3505
ZBAA,1983-05-07 07:00,ZBAA 070700Z AUTO 36019KT 7SM 27/M01 A2965 RMK T02701010 IEM_DS3505
ZBAA,1983-05-07 08:00,ZBAA 070800Z AUTO 36016KT 7SM 27/01 A2962 RMK T02700010 IEM_DS3505
ZBAA,1983-05-07 09:00,ZBAA 070900Z AUTO 02010KT 9SM 27/00 A2962 RMK SLP047 T02740004 57005 IEM_DS3505
ZBAA,1983-05-07 10:00,ZBAA 071000Z AUTO 36012KT 7SM 26/01 A2965 RMK T02600010 IEM_DS3505
ZBAA,1983-05-07 12:00,ZBAA 071200Z AUTO 07008KT 6SM 24/04 RMK SLP074 T02350036 52027 IEM_DS3505
ZBAA,1983-05-07 15:00,ZBAA 071500Z AUTO 25002KT 9SM 19/05 RMK SLP107 T01860048 52033 IEM_DS3505
ZBAA,1983-05-07 18:00,ZBAA 071800Z AUTO 00000KT 6SM 14/08 RMK SLP111 T01450080 40284//// 52004 IEM_DS3505
ZBAA,1983-05-07 21:00,ZBAA 072100Z AUTO 07006KT 6SM 12/08 RMK SLP122 T01240080 52010 IEM_DS3505
ZBAA,1983-05-08 00:00,ZBAA 080000Z AUTO 04006KT 2SM 16/07 RMK SLP141 T01590068 IEM_DS3505
ZBAA,1983-05-08 03:00,ZBAA 080300Z AUTO 02008KT 2 1/2SM 20/07 RMK SLP134 T02040069 57007 IEM_DS3505
ZBAA,1983-05-08 06:00,ZBAA 080600Z AUTO 16008KT 5SM 24/06 RMK SLP105 T02410060 4////0123 57028 IEM_DS3505
ZBAA,1983-05-08 09:00,ZBAA 080900Z AUTO 16008KT 6SM 26/06 RMK SLP080 T02560057 57025 IEM_DS3505
ZBAA,1983-05-08 12:00,ZBAA 081200Z AUTO 11008KT 7SM 22/06 RMK SLP081 T02150065 52007 IEM_DS3505
ZBAA,1983-05-08 15:00,ZBAA 081500Z AUTO 14002KT 6SM 17/07 RMK SLP092 T01740074 52011 IEM_DS3505
ZBAA,1983-05-08 18:00,ZBAA 081800Z AUTO 02006KT 6SM 16/06 RMK SLP076 T01610056 40259//// 57016 IEM_DS3505
ZBAA,1983-05-08 21:00,ZBAA 082100Z AUTO 02004KT 6SM 15/06 RMK SLP059 T01500060 57017 IEM_DS3505
ZBAA,1983-05-09 00:00,ZBAA 090000Z AUTO 04004KT 5SM 17/06 RMK SLP058 T01690060 57001 IEM_DS3505
ZBAA,1983-05-09 03:00,ZBAA 090300Z AUTO 00000KT 4SM 21/09 RMK SLP042 T02060090 57016 IEM_DS3505
ZBAA,1983-05-09 06:00,ZBAA 090600Z AUTO 00000KT 5SM 24/11 RMK SLP012 T02390110 4////0144 57029 IEM_DS3505
ZBAA,1983-05-09 09:00,ZBAA 090900Z AUTO 20004KT 4SM 25/13 RMK SLP997 T02490128 57015 IEM_DS3505
ZBAA,1983-05-09 12:00,ZBAA 091200Z AUTO 00000KT 3SM 22/15 RMK SLP001 T02210151 52004 IEM_DS3505
ZBAA,1983-05-09 15:00,ZBAA 091500Z AUTO 00000KT 3SM 20/15 RMK SLP007 T02000149 52006 IEM_DS3505
ZBAA,1983-05-09 18:00,ZBAA 091800Z AUTO 02002KT 3SM 20/14 RMK SLP996 T01990139 40252//// 57011 IEM_DS3505
ZBAA,1983-05-09 21:00,ZBAA 092100Z AUTO 04002KT 2SM 19/15 RMK SLP996 T01940154 54000 IEM_DS3505
ZBAA,1983-05-10 00:00,ZBAA 100000Z AUTO 36004KT 2SM 20/16 RMK SLP014 T02040157 52017 IEM_DS3505
ZBAA,1983-05-10 02:00,ZBAA 100200Z AUTO 10008KT 6SM 22/17 A2956 RMK T02200170 IEM_DS3505
ZBAA,1983-05-10 03:00,ZBAA 100300Z AUTO 36002KT 3SM 24/17 A2956 RMK SLP018 T02360172 52004 IEM_DS3505
ZBAA,1983-05-10 04:00,ZBAA 100400Z AUTO 08008KT 5SM 24/19 A2953 RMK T02400190 IEM_DS3505
ZBAA,1983-05-10 05:00,ZBAA 100500Z AUTO 05008KT 5SM 26/19 A2953 RMK T02600190 IEM_DS3505
ZBAA,1983-05-10 06:00,ZBAA 100600Z AUTO 00000KT 2 1/2SM 27/19 A2950 RMK SLP998 T02680188 4////0188 57018 IEM_DS3505
ZBAA,1983-05-10 07:00,ZBAA 100700Z AUTO 17008KT 5SM 28/19 A2947 RMK T02800190 IEM_DS3505
ZBAA,1983-05-10 08:00,ZBAA 100800Z AUTO 20008KT 5SM 29/19 RMK T02900190 IEM_DS3505
ZBAA,1983-05-10 09:00,ZBAA 100900Z AUTO 07010KT 3SM 26/20 A2953 RMK SLP985 T02570201 57014 IEM_DS3505
ZBAA,1983-05-10 10:00,ZBAA 101000Z AUTO 13008KT 4SM 25/20 A2944 RMK T02500200 IEM_DS3505
ZBAA,1983-05-10 12:00,ZBAA 101200Z AUTO 02004KT 2SM 25/20 RMK SLP002 T02490203 52017 IEM_DS3505
ZBAA,1983-05-10 15:00,ZBAA 101500Z AUTO 18004KT 1 1/4SM 23/20 RMK SLP023 T02300199 52021 IEM_DS3505
ZBAA,1983-05-10 18:00,ZBAA 101800Z AUTO 00000KT 2 1/2SM 23/18 RMK SLP026 T02260185 40286//// 52003 IEM_DS3505
ZBAA,1983-05-10 21:00,ZBAA 102100Z AUTO 18006KT 4SM 22/17 RMK SLP036 T02250174 52010 IEM_DS3505
ZBAA,1983-05-11 00:00,ZBAA 110000Z AUTO 14004KT 4SM 22/16 RMK SLP063 T02220163 52027 IEM_DS3505
ZBAA,1983-05-11 01:00,ZBAA 110100Z AUTO 02010KT 6SM 22/16 RMK SLP068 T02160160 57003 IEM_DS3505
ZBAA,1983-05-11 03:00,ZBAA 110300Z AUTO 02006KT 2 1/2SM 23/18 RMK SLP071 T02270176 52007 IEM_DS3505
ZBAA,1983-05-11 06:00,ZBAA 110600Z AUTO 02010KT 6SM 22/16 RMK SLP068 T02160160 4////0205 57003 IEM_DS3505
ZBAA,1983-05-11 09:00,ZBAA 110900Z AUTO 07012KT 4SM 22/15 RMK SLP059 T02150149 57009 IEM_DS3505
ZBAA,1983-05-11 12:00,ZBAA 111200Z AUTO 02004KT 4SM 19/16 RMK 60002 SLP073 T01880157 52014 IEM_DS3505
ZBAA,1983-05-11 15:00,ZBAA 111500Z AUTO 00000KT 5SM 17/17 RMK SLP081 T01710166 52008 IEM_DS3505
ZBAA,1983-05-11 18:00,ZBAA 111800Z AUTO 04004KT 4SM 17/17 RMK SLP071 T01710166 57018 IEM_DS3505
ZBAA,1983-05-11 21:00,ZBAA 112100Z AUTO 00000KT 3SM 17/16 RMK 70067 SLP072 T01710163 52001 IEM_DS3505
ZBAA,1983-05-12 00:00,ZBAA 120000Z AUTO 00000KT 7SM 20/16 RMK 70067 SLP072 T01960156 54000 IEM_DS3505
ZBAA,1983-05-12 03:00,ZBAA 120300Z AUTO 00000KT 3SM 24/17 RMK SLP074 T02360168 52002 IEM_DS3505
ZBAA,1983-05-12 06:00,ZBAA 120600Z AUTO 14002KT 2SM 25/18 RMK SLP064 T02520183 4////0168 57010 IEM_DS3505
ZBAA,1983-05-12 09:00,ZBAA 120900Z AUTO 20010KT 2 1/2SM 24/18 RMK SLP063 T02420183 57001 IEM_DS3505
ZBAA,1983-05-12 12:00,ZBAA 121200Z AUTO 25004KT 6SM 22/15 RMK SLP084 T02240148 52021 IEM_DS3505
ZBAA,1983-05-12 15:00,ZBAA 121500Z AUTO 34010KT 9SM 21/04 RMK SLP111 T02070037 52027 IEM_DS3505
ZBAA,1983-05-12 18:00,ZBAA 121800Z AUTO 04004KT 6SM 18/04 RMK SLP128 T01760037 40255//// 52017 IEM_DS3505
ZBAA,1983-05-12 21:00,ZBAA 122100Z AUTO 36006KT 9SM 17/02 RMK SLP149 T01660022 52020 IEM_DS3505
ZBAA,1983-05-13 00:00,ZBAA 130000Z AUTO 02006KT 12SM 18/04 RMK SLP166 T01810041 52017 IEM_DS3505
ZBAA,1983-05-13 01:00,ZBAA 130100Z AUTO 18004KT 19SM RMK SLP146 4////0150 57021 IEM_DS3505
ZBAA,1983-05-13 03:00,ZBAA 130300Z AUTO 02002KT 19SM 22/00 RMK SLP166 T02200001 52001 IEM_DS3505
ZBAA,1983-05-13 06:00,ZBAA 130600Z AUTO 18004KT 12SM 23/00 RMK SLP146 T02330004 4////0150 57021 IEM_DS3505
ZBAA,1983-05-13 09:00,ZBAA 130900Z AUTO 18008KT 12SM 23/01 RMK SLP137 T02320008 57009 IEM_DS3505
ZBAA,1983-05-13 12:00,ZBAA 131200Z AUTO 20006KT 12SM 20/07 RMK SLP138 T02040067 52001 IEM_DS3505
ZBAA,1983-05-13 15:00,ZBAA 131500Z AUTO 20006KT 12SM 19/08 RMK SLP144 T01900082 52006 IEM_DS3505
ZBAA,1983-05-13 18:00,ZBAA 131800Z AUTO 22002KT 9SM 18/12 RMK SLP136 T01760120 40242//// 57008 IEM_DS3505
ZBAA,1983-05-13 21:00,ZBAA 132100Z AUTO 20006KT 9SM 16/10 RMK SLP130 T01610100 57006 IEM_DS3505
ZBAA,1983-05-14 00:00,ZBAA 140000Z AUTO 20006KT 6SM 16/11 RMK SLP137 T01650114 52007 IEM_DS3505
ZBAA,1983-05-14 03:00,ZBAA 140300Z AUTO 36002KT 5SM 19/13 RMK SLP147 T01860130 52010 IEM_DS3505
ZBAA,1983-05-14 04:00,ZBAA 140400Z AUTO 35006KT 6SM RMK IEM_DS3505
ZBAA,1983-05-14 06:00,ZBAA 140600Z AUTO 00000KT 4SM 21/14 A2991 RMK SLP137 T02080140 4////0158 57010 IEM_DS3505
ZBAA,1983-05-14 07:00,ZBAA 140700Z AUTO 07004KT 6SM 21/14 A2988 RMK T02100140 IEM_DS3505
ZBAA,1983-05-14 08:00,ZBAA 140800Z AUTO 00000KT 6SM 21/14 A2988 RMK T02100140 IEM_DS3505
ZBAA,1983-05-14 09:00,ZBAA 140900Z AUTO 24010KT 6SM 21/08 A2988 RMK SLP133 T02100080 57004 IEM_DS3505
ZBAA,1983-05-14 10:00,ZBAA 141000Z AUTO 21010KT 6SM 20/08 A2991 RMK T02000080 IEM_DS3505
ZBAA,1983-05-14 12:00,ZBAA 141200Z AUTO 20008KT 12SM 18/10 RMK SLP143 T01780101 52010 IEM_DS3505
ZBAA,1983-05-14 15:00,ZBAA 141500Z AUTO 20004KT 9SM 16/11 RMK SLP163 T01550113 52020 IEM_DS3505
ZBAA,1983-05-14 18:00,ZBAA 141800Z AUTO 00000KT 6SM 14/12 RMK SLP166 T01370116 40222//// 52003 IEM_DS3505
ZBAA,1983-05-14 21:00,ZBAA 142100Z AUTO 00000KT 5SM 12/11 RMK SLP166 T01200106 57001 IEM_DS3505
ZBAA,1983-05-15 00:00,ZBAA 150000Z AUTO 00000KT 3SM 17/12 RMK SLP171 T01660125 52006 IEM_DS3505
ZBAA,1983-05-15 03:00,ZBAA 150300Z AUTO 22006KT 4SM 22/11 RMK SLP168 T02180108 57003 IEM_DS3505
ZBAA,1983-05-15 06:00,ZBAA 150600Z AUTO 20010KT 7SM 25/06 RMK SLP136 T02500059 4////0113 57032 IEM_DS3505
ZBAA,1983-05-15 09:00,ZBAA 150900Z AUTO 20010KT 9SM 25/07 RMK SLP110 T02500071 57025 IEM_DS3505
ZBAA,1983-05-15 10:00,ZBAA 151000Z AUTO 20010KT 9SM 25/07 RMK SLP110 T02500071 IEM_DS3505
ZBAA,1983-05-15 12:00,ZBAA 151200Z AUTO 20010KT 9SM 22/12 RMK SLP111 T02160116 52001 IEM_DS3505
ZBAA,1983-05-15 15:00,ZBAA 151500Z AUTO 25004KT 9SM 19/13 RMK SLP119 T01870133 52007 IEM_DS3505
ZBAA,1983-05-15 18:00,ZBAA 151800Z AUTO 00000KT 5SM 15/13 RMK SLP118 T01510129 40259//// 57001 IEM_DS3505
ZBAA,1983-05-15 21:00,ZBAA 152100Z AUTO 36002KT 4SM 14/12 RMK SLP113 T01400122 57004 IEM_DS3505
ZBAA,1983-05-16 00:00,ZBAA 160000Z AUTO 02006KT 6SM 20/12 RMK SLP133 T01970125 52019 IEM_DS3505
ZBAA,1983-05-16 03:00,ZBAA 160300Z AUTO 04008KT 7SM 24/09 RMK SLP142 T02450089 52010 IEM_DS3505
ZBAA,1983-05-16 06:00,ZBAA 160600Z AUTO 16012KT 7SM 25/07 RMK SLP149 T02500071 4////0138 52006 IEM_DS3505
ZBAA,1983-05-16 09:00,ZBAA 160900Z AUTO 18008KT 6SM 22/07 RMK SLP157 T02210068 52008 IEM_DS3505
ZBAA,1983-05-16 12:00,ZBAA 161200Z AUTO 20004KT 6SM 19/06 RMK SLP174 T01860059 52017 IEM_DS3505
ZBAA,1983-05-16 15:00,ZBAA 161500Z AUTO 20006KT 6SM 15/05 RMK SLP187 T01540048 52013 IEM_DS3505
ZBAA,1983-05-16 18:00,ZBAA 161800Z AUTO 16006KT 6SM 14/06 RMK SLP186 T01380056 40251//// 57001 IEM_DS3505
ZBAA,1983-05-16 21:00,ZBAA 162100Z AUTO 16002KT 5SM 13/06 RMK SLP183 T01270059 57003 IEM_DS3505
ZBAA,1983-05-17 00:00,ZBAA 170000Z AUTO 00000KT 2SM 14/08 RMK SLP187 T01420085 52003 IEM_DS3505
ZBAA,1983-05-17 03:00,ZBAA 170300Z AUTO 16006KT 9SM 20/02 RMK SLP178 T01950018 57008 IEM_DS3505
ZBAA,1983-05-17 04:00,ZBAA 170400Z AUTO 16012KT 6SM 20/03 A3000 RMK T02000030 IEM_DS3505
ZBAA,1983-05-17 05:00,ZBAA 170500Z AUTO 19016KT 6SM 21/ A2997 RMK IEM_DS3505
ZBAA,1983-05-17 06:00,ZBAA 170600Z AUTO 18008KT 12SM 21/04 A2994 RMK SLP146 T02080041 4////0117 57032 IEM_DS3505
ZBAA,1983-05-17 07:00,ZBAA 170700Z AUTO 14006KT 6SM 22/05 A2991 RMK T02200050 IEM_DS3505
ZBAA,1983-05-17 08:00,ZBAA 170800Z AUTO 15014KT 6SM 22/01 A2985 RMK T02200010 IEM_DS3505
ZBAA,1983-05-17 09:00,ZBAA 170900Z AUTO 16008KT 12SM 22/04 A2983 RMK SLP109 T02190043 57036 IEM_DS3505
ZBAA,1983-05-17 10:00,ZBAA 171000Z AUTO 15012KT 6SM 21/03 A2983 RMK T02100030 IEM_DS3505
ZBAA,1983-05-17 12:00,ZBAA 171200Z AUTO 14004KT 6SM 19/02 RMK SLP113 T01930018 52003 IEM_DS3505
ZBAA,1983-05-17 15:00,ZBAA 171500Z AUTO 00000KT 6SM 18/04 RMK SLP107 T01760037 57005 IEM_DS3505
ZBAA,1983-05-17 18:00,ZBAA 171800Z AUTO 36004KT 7SM 14/08 RMK 60002 SLP086 T01410080 57021 IEM_DS3505
ZBAA,1983-05-17 21:00,ZBAA 172100Z AUTO 00000KT 5SM 11/10 RMK SLP068 T01140096 57019 IEM_DS3505
ZBAA,1983-05-18 00:00,ZBAA 180000Z AUTO 29004KT 4SM 12/10 RMK 60047 70047 SLP067 T01240099 57001 IEM_DS3505
ZBAA,1983-05-18 03:00,ZBAA 180300Z AUTO 20004KT 3SM 18/13 RMK SLP064 T01810132 57002 IEM_DS3505
ZBAA,1983-05-18 06:00,ZBAA 180600Z AUTO 16004KT 5SM 23/16 RMK SLP047 T02310161 4////0112 57017 IEM_DS3505
ZBAA,1983-05-18 09:00,ZBAA 180900Z AUTO 20006KT 6SM 26/17 RMK SLP037 T02620170 57010 IEM_DS3505
ZBAA,1983-05-18 12:00,ZBAA 181200Z AUTO 00000KT 6SM 24/17 RMK SLP052 T02380174 52015 IEM_DS3505
ZBAA,1983-05-18 15:00,ZBAA 181500Z AUTO 02004KT 5SM 20/18 RMK SLP071 T01970178 52019 IEM_DS3505
ZBAA,1983-05-18 18:00,ZBAA 181800Z AUTO 00000KT 1SM 17/16 RMK SLP070 T01720162 40265//// 57001 IEM_DS3505
ZBAA,1983-05-18 21:00,ZBAA 182100Z AUTO 00000KT 2 1/2SM 15/12 RMK SLP063 T01520125 57007 IEM_DS3505
ZBAA,1983-05-19 00:00,ZBAA 190000Z AUTO 07006KT 3SM 19/14 RMK SLP068 T01920138 52005 IEM_DS3505
ZBAA,1983-05-19 03:00,ZBAA 190300Z AUTO 00000KT 1 1/4SM 23/17 RMK SLP062 T02310166 57006 IEM_DS3505
ZBAA,1983-05-19 06:00,ZBAA 190600Z AUTO 20006KT 4SM 26/15 RMK SLP032 T02630146 4////0146 57030 IEM_DS3505
ZBAA,1983-05-19 09:00,ZBAA 190900Z AUTO 20012KT 6SM 28/12 RMK SLP002 T02750119 57029 IEM_DS3505
ZBAA,1983-05-19 12:00,ZBAA 191200Z AUTO 18006KT 7SM 25/10 RMK SLP005 T02530096 52003 IEM_DS3505
ZBAA,1983-05-19 15:00,ZBAA 191500Z AUTO 16008KT 7SM 23/10 RMK SLP008 T02300104 52004 IEM_DS3505
ZBAA,1983-05-19 18:00,ZBAA 191800Z AUTO 00000KT 7SM 20/10 RMK SLP001 T01990104 40279//// 57007 IEM_DS3505
ZBAA,1983-05-19 21:00,ZBAA 192100Z AUTO 02006KT 6SM 18/15 RMK SLP994 T01820149 57008 IEM_DS3505
ZBAA,1983-05-20 00:00,ZBAA 200000Z AUTO 04006KT 5SM 19/14 RMK SLP002 T01880144 52008 IEM_DS3505
ZBAA,1983-05-20 03:00,ZBAA 200300Z AUTO 36006KT 6SM 21/14 RMK SLP010 T02070140 52008 IEM_DS3505
ZBAA,1983-05-20 06:00,ZBAA 200600Z AUTO 04008KT 6SM 23/14 RMK SLP012 T02340139 4////0176 52002 IEM_DS3505
ZBAA,1983-05-20 09:00,ZBAA 200900Z AUTO 11006KT 5SM 24/16 RMK SLP022 T02380156 52009 IEM_DS3505
ZBAA,1983-05-20 12:00,ZBAA 201200Z AUTO 11006KT 5SM 20/15 RMK SLP061 T02040150 52039 IEM_DS3505
ZBAA,1983-05-20 15:00,ZBAA 201500Z AUTO 00000KT 4SM 19/14 RMK SLP093 T01860145 52032 IEM_DS3505
ZBAA,1983-05-20 18:00,ZBAA 201800Z AUTO 00000KT 4SM 17/15 RMK SLP100 T01670147 40247//// 52007 IEM_DS3505
ZBAA,1983-05-20 21:00,ZBAA 202100Z AUTO 16002KT 4SM 18/15 RMK SLP112 T01800149 52012 IEM_DS3505
ZBAA,1983-05-21 00:00,ZBAA 210000Z AUTO 18002KT 4SM 18/14 RMK SLP139 T01800144 52026 IEM_DS3505
ZBAA,1983-05-21 03:00,ZBAA 210300Z AUTO 30004KT 5SM 21/13 A2991 RMK SLP140 T02100130 52001 IEM_DS3505
ZBAA,1983-05-21 04:00,ZBAA 210400Z AUTO 34004KT 5SM 22/15 A2991 RMK T02200150 IEM_DS3505
ZBAA,1983-05-21 05:00,ZBAA 210500Z AUTO 34004KT 6SM 22/15 A2991 RMK T02200150 IEM_DS3505
ZBAA,1983-05-21 06:00,ZBAA 210600Z AUTO 36008KT 2SM 21/17 A2991 RMK SLP142 T02100168 4////0166 52002 IEM_DS3505
ZBAA,1983-05-21 07:00,ZBAA 210700Z AUTO 33006KT 5SM 21/15 A2991 RMK T02100150 IEM_DS3505
ZBAA,1983-05-21 08:00,ZBAA 210800Z AUTO 00000KT 6SM 21/15 A2991 RMK T02100150 IEM_DS3505
ZBAA,1983-05-21 09:00,ZBAA 210900Z AUTO 36006KT 7SM 21/14 RMK SLP135 T02130138 57007 IEM_DS3505
ZBAA,1983-05-21 12:00,ZBAA 211200Z AUTO 36006KT 5SM 20/14 RMK SLP144 T02000136 52009 IEM_DS3505
ZBAA,1983-05-21 15:00,ZBAA 211500Z AUTO 00000KT 5SM 18/13 RMK SLP153 T01760132 52009 IEM_DS3505
ZBAA,1983-05-21 18:00,ZBAA 211800Z AUTO 00000KT 4SM 16/14 RMK 60004 SLP152 T01630142 40217//// 57001 IEM_DS3505
ZBAA,1983-05-21 21:00,ZBAA 212100Z AUTO 00000KT 4SM 16/14 RMK 70008 SLP147 T01560135 57005 IEM_DS3505
ZBAA,1983-05-22 00:00,ZBAA 220000Z AUTO 16004KT 2 1/2SM 16/13 RMK 60004 70008 SLP162 T01650133 52015 IEM_DS3505
ZBAA,1983-05-22 03:00,ZBAA 220300Z AUTO 00000KT 3SM 19/14 RMK SLP166 T01900138 52004 IEM_DS3505
ZBAA,1983-05-22 06:00,ZBAA 220600Z AUTO 00000KT 9SM 21/10 RMK 60000 SLP153 T02060096 4////0152 57013 IEM_DS3505
ZBAA,1983-05-22 09:00,ZBAA 220900Z AUTO 00000KT 9SM 21/12 RMK SLP140 T02090123 57013 IEM_DS3505
ZBAA,1983-05-22 12:00,ZBAA 221200Z AUTO 20006KT 5SM 19/15 RMK SLP148 T01860152 52008 IEM_DS3505
ZBAA,1983-05-22 15:00,ZBAA 221500Z AUTO 20006KT 4SM 18/15 RMK SLP153 T01770151 52005 IEM_DS3505
ZBAA,1983-05-22 18:00,ZBAA 221800Z AUTO 00000KT 3SM 17/16 RMK SLP149 T01670155 40217//// 57004 IEM_DS3505
ZBAA,1983-05-22 21:00,ZBAA 222100Z AUTO 00000KT 2 1/2SM 16/14 RMK 70028 SLP142 T01640143 57007 IEM_DS3505
ZBAA,1983-05-23 00:00,ZBAA 230000Z AUTO 04002KT 2 1/2SM 19/14 RMK SLP150 T01920138 52008 IEM_DS3505
ZBAA,1983-05-23 03:00,ZBAA 230300Z AUTO 00000KT 6SM 24/13 RMK SLP138 T02380128 57012 IEM_DS3505
ZBAA,1983-05-23 06:00,ZBAA 230600Z AUTO 00000KT 9SM 27/13 RMK SLP116 T02710131 4////0160 57021 IEM_DS3505
ZBAA,1983-05-23 09:00,ZBAA 230900Z AUTO 20010KT 6SM 27/14 RMK SLP106 T02700141 57010 IEM_DS3505
ZBAA,1983-05-23 12:00,ZBAA 231200Z AUTO 20008KT 6SM 23/17 RMK SLP110 T02310166 52004 IEM_DS3505
ZBAA,1983-05-23 15:00,ZBAA 231500Z AUTO 20006KT 7SM 20/18 RMK SLP117 T02050176 52007 IEM_DS3505
ZBAA,1983-05-23 18:00,ZBAA 231800Z AUTO 20004KT 4SM 18/ RMK SLP120 40281//// IEM_DS3505
ZBAA,1983-05-23 21:00,ZBAA 232100Z AUTO 02006KT 1 1/4SM 17/17 RMK SLP131 T01740168 52011 IEM_DS3505
ZBAA,1983-05-24 00:00,ZBAA 240000Z AUTO 36004KT 4SM 22/17 RMK SLP145 T02190174 52014 IEM_DS3505
ZBAA,1983-05-24 03:00,ZBAA 240300Z AUTO 02010KT 9SM 27/04 RMK SLP153 T02730044 52008 IEM_DS3505
ZBAA,1983-05-24 04:00,ZBAA 240400Z AUTO 04016KT 6SM 28/M02 A2994 RMK T02801020 IEM_DS3505
ZBAA,1983-05-24 05:00,ZBAA 240500Z AUTO 05014KT 6SM 29/M01 A2994 RMK T02901010 IEM_DS3505
ZBAA,1983-05-24 06:00,ZBAA 240600Z AUTO 07006KT 19SM 29/02 A2994 RMK SLP145 T02900024 4////0171 57008 IEM_DS3505
ZBAA,1983-05-24 07:00,ZBAA 240700Z AUTO 08008KT 6SM 30/02 A2991 RMK T03000020 IEM_DS3505
ZBAA,1983-05-24 08:00,ZBAA 240800Z AUTO 13006KT 6SM 30/02 A2991 RMK T03000020 IEM_DS3505
ZBAA,1983-05-24 09:00,ZBAA 240900Z AUTO 04006KT 16SM 29/03 A2991 RMK SLP144 T02920028 57001 IEM_DS3505
ZBAA,1983-05-24 10:00,ZBAA 241000Z AUTO 18008KT 6SM 29/06 A2991 RMK T02900060 IEM_DS3505
ZBAA,1983-05-24 11:00,ZBAA 241100Z AUTO 19010KT 6SM 27/09 A2994 RMK T02700090 IEM_DS3505
ZBAA,1983-05-24 12:00,ZBAA 241200Z AUTO 20002KT 11SM 25/12 RMK SLP159 T02510115 52015 IEM_DS3505
ZBAA,1983-05-24 15:00,ZBAA 241500Z AUTO 20004KT 9SM 21/13 RMK SLP184 T02090133 52025 IEM_DS3505
ZBAA,1983-05-24 21:00,ZBAA 242100Z AUTO 00000KT 5SM 16/13 RMK SLP184 T01580126 57004 IEM_DS3505
ZBAA,1983-05-25 00:00,ZBAA 250000Z AUTO 00000KT 6SM 22/13 RMK SLP191 T02160131 52007 IEM_DS3505
ZBAA,1983-05-25 03:00,ZBAA 250300Z AUTO 04002KT 4SM 28/12 RMK SLP184 T02760119 57007 IEM_DS3505
ZBAA,1983-05-25 06:00,ZBAA 250600Z AUTO 14006KT 7SM 29/08 RMK SLP161 T02900082 4////0156 57023 IEM_DS3505
ZBAA,1983-05-25 09:00,ZBAA 250900Z AUTO 18008KT 8SM 29/08 RMK SLP137 T02870077 57024 IEM_DS3505
ZBAA,1983-05-25 12:00,ZBAA 251200Z AUTO 16008KT 7SM 26/12 RMK SLP137 T02580122 54000 IEM_DS3505
ZBAA,1983-05-25 15:00,ZBAA 251500Z AUTO 16006KT 7SM 23/12 RMK SLP138 T02270124 52002 IEM_DS3505
ZBAA,1983-05-25 18:00,ZBAA 251800Z AUTO 00000KT 6SM 21/15 RMK SLP126 T02110147 40296//// 57012 IEM_DS3505
ZBAA,1983-05-25 21:00,ZBAA 252100Z AUTO 02004KT 9SM 19/15 RMK SLP120 T01920146 57007 IEM_DS3505
ZBAA,1983-05-26 00:00,ZBAA 260000Z AUTO 36004KT 5SM 18/16 RMK 60002 70004 SLP117 T01850158 57003 IEM_DS3505
ZBAA,1983-05-26 03:00,ZBAA 260300Z AUTO 20004KT 2 1/2SM 21/16 RMK SLP108 T02090165 57009 IEM_DS3505
ZBAA,1983-05-26 06:00,ZBAA 260600Z AUTO 20008KT 5SM 22/16 RMK 60002 SLP089 T02220163 4////0182 57019 IEM_DS3505
ZBAA,1983-05-26 09:00,ZBAA 260900Z AUTO 20008KT 4SM 22/17 RMK SLP070 T02230168 57019 IEM_DS3505
ZBAA,1983-05-26 12:00,ZBAA 261200Z AUTO 18008KT 4SM 21/17 RMK SLP069 T02060174 57001 IEM_DS3505
ZBAA,1983-05-26 15:00,ZBAA 261500Z AUTO 20004KT 3SM 19/18 RMK SLP074 T01940175 52005 IEM_DS3505
ZBAA,1983-05-26 18:00,ZBAA 261800Z AUTO 18002KT 2SM 19/18 RMK SLP059 T01880178 40229//// 57015 IEM_DS3505
ZBAA,1983-05-26 21:00,ZBAA 262100Z AUTO 34002KT 1SM 19/18 RMK SLP055 T01870177 57004 IEM_DS3505
ZBAA,1983-05-27 00:00,ZBAA 270000Z AUTO 00000KT 1SM 21/18 RMK 70004 SLP050 T02100178 57005 IEM_DS3505
ZBAA,1983-05-27 01:00,ZBAA 270100Z AUTO 00000KT 1SM 21/18 RMK SLP050 T02100178 57005 IEM_DS3505
ZBAA,1983-05-27 03:00,ZBAA 270300Z AUTO 20006KT 2SM 23/18 RMK SLP040 T02320176 57010 IEM_DS3505
ZBAA,1983-05-27 06:00,ZBAA 270600Z AUTO 20008KT 5SM 27/18 RMK SLP010 T02730181 4////0180 57028 IEM_DS3505
ZBAA,1983-05-27 09:00,ZBAA 270900Z AUTO 20012KT 5SM 29/19 RMK SLP981 T02930186 57029 IEM_DS3505
ZBAA,1983-05-27 12:00,ZBAA 271200Z AUTO 20006KT 4SM 28/18 RMK SLP979 T02810176 57002 IEM_DS3505
ZBAA,1983-05-27 15:00,ZBAA 271500Z AUTO 02004KT 3SM 23/20 RMK SLP993 T02330197 52014 IEM_DS3505
ZBAA,1983-05-27 18:00,ZBAA 271800Z AUTO 02006KT 2 1/2SM 22/19 RMK SLP990 T02180190 40298//// 57003 IEM_DS3505
ZBAA,1983-05-27 21:00,ZBAA 272100Z AUTO 02006KT 1 1/4SM 21/18 RMK SLP991 T02090183 52001 IEM_DS3505
ZBAA,1983-05-28 00:00,ZBAA 280000Z AUTO 00000KT 2SM 24/18 RMK SLP001 T02360177 52010 IEM_DS3505
ZBAA,1983-05-28 03:00,ZBAA 280300Z AUTO 20002KT 3SM 28/18 A2947 RMK SLP992 T02840182 57009 IEM_DS3505
ZBAA,1983-05-28 04:00,ZBAA 280400Z AUTO 17004KT 7SM 29/18 A2947 RMK T02900180 IEM_DS3505
ZBAA,1983-05-28 05:00,ZBAA 280500Z AUTO 16010KT 7SM 31/19 A2947 RMK T03100190 IEM_DS3505
ZBAA,1983-05-28 06:00,ZBAA 280600Z AUTO 18008KT 4SM 32/19 A2944 RMK SLP970 T03150189 4////0206 57022 IEM_DS3505
ZBAA,1983-05-28 07:00,ZBAA 280700Z AUTO 17012KT 7SM 32/18 A2938 RMK T03200180 IEM_DS3505
ZBAA,1983-05-28 08:00,ZBAA 280800Z AUTO 18012KT 7SM 34/20 A2935 RMK T03400200 IEM_DS3505
ZBAA,1983-05-28 09:00,ZBAA 280900Z AUTO 20008KT 5SM 34/18 RMK SLP944 T03360178 57026 IEM_DS3505
ZBAA,1983-05-28 12:00,ZBAA 281200Z AUTO 20012KT 5SM 30/16 RMK SLP944 T03030162 54000 IEM_DS3505
ZBAA,1983-05-28 15:00,ZBAA 281500Z AUTO 22008KT 12SM 28/14 RMK SLP958 T02770135 52014 IEM_DS3505
ZBAA,1983-05-28 18:00,ZBAA 281800Z AUTO 20004KT 9SM 24/14 RMK SLP953 T02370145 40340//// 57005 IEM_DS3505
ZBAA,1983-05-28 21:00,ZBAA 282100Z AUTO 04004KT 5SM 21/ RMK SLP959 52006 IEM_DS3505
ZBAA,1983-05-29 00:00,ZBAA 290000Z AUTO 02004KT 2 1/2SM 24/16 RMK SLP971 T02410157 52012 IEM_DS3505
ZBAA,1983-05-29 03:00,ZBAA 290300Z AUTO 07002KT 2 1/2SM 28/17 RMK SLP971 T02840171 54000 IEM_DS3505
ZBAA,1983-05-29 06:00,ZBAA 290600Z AUTO 14004KT 4SM 32/18 RMK SLP959 T03240182 4////0202 57012 IEM_DS3505
ZBAA,1983-05-29 09:00,ZBAA 290900Z AUTO 20006KT 5SM 35/18 RMK SLP941 T03520176 57018 IEM_DS3505
ZBAA,1983-05-29 12:00,ZBAA 291200Z AUTO 20010KT 6SM 32/18 RMK SLP948 T03180178 52007 IEM_DS3505
ZBAA,1983-05-29 15:00,ZBAA 291500Z AUTO 20008KT 6SM 27/19 RMK SLP956 T02730189 52008 IEM_DS3505
ZBAA,1983-05-29 18:00,ZBAA 291800Z AUTO 00000KT 5SM 24/19 RMK SLP957 T02390191 40368//// 52001 IEM_DS3505
ZBAA,1983-05-29 21:00,ZBAA 292100Z AUTO 36004KT 3SM 21/19 RMK SLP966 T02140187 52009 IEM_DS3505
ZBAA,1983-05-30 00:00,ZBAA 300000Z AUTO 04008KT 4SM 25/18 RMK SLP982 T02460176 52016 IEM_DS3505
ZBAA,1983-05-30 03:00,ZBAA 300300Z AUTO 07004KT 3SM 29/19 RMK SLP982 T02920190 54000 IEM_DS3505
ZBAA,1983-05-30 06:00,ZBAA 300600Z AUTO 20010KT 2SM 34/20 RMK SLP969 T03410202 4////0211 57012 IEM_DS3505
ZBAA,1983-05-30 09:00,ZBAA 300900Z AUTO 20010KT 4SM 35/18 RMK SLP961 T03540183 57009 IEM_DS3505
ZBAA,1983-05-30 12:00,ZBAA 301200Z AUTO 34004KT 5SM 31/23 RMK SLP979 T03090231 52018 IEM_DS3505
ZBAA,1983-05-30 15:00,ZBAA 301500Z AUTO 34008KT 6SM 29/22 RMK SLP007 T02900218 52029 IEM_DS3505
ZBAA,1983-05-30 18:00,ZBAA 301800Z AUTO 34012KT 6SM 29/M00 RMK SLP020 T02861001 40357//// 52012 IEM_DS3505
ZBAA,1983-05-30 21:00,ZBAA 302100Z AUTO 36014KT 12SM 27/M02 RMK SLP034 T02741020 52014 IEM_DS3505
ZBAA,1983-05-31 00:00,ZBAA 310000Z AUTO 07010KT 9SM 26/01 RMK SLP068 T02600014 52034 IEM_DS3505
ZBAA,1983-05-31 03:00,ZBAA 310300Z AUTO 06016KT 6SM 28/M02 A2980 RMK SLP085 T02801020 52017 IEM_DS3505
ZBAA,1983-05-31 04:00,ZBAA 310400Z AUTO 04012KT 7SM 30/M05 RMK T03001050 IEM_DS3505
ZBAA,1983-05-31 05:00,ZBAA 310500Z AUTO 02010KT 6SM 29/M05 A2977 RMK T02901050 IEM_DS3505
ZBAA,1983-05-31 06:00,ZBAA 310600Z AUTO 07006KT 12SM 30/02 A2974 RMK SLP081 T03020024 4////0256 57004 IEM_DS3505
ZBAA,1983-05-31 08:00,ZBAA 310800Z AUTO 04008KT 6SM 30/04 A2971 RMK T03000040 IEM_DS3505
ZBAA,1983-05-31 09:00,ZBAA 310900Z AUTO 34004KT 9SM 30/08 RMK SLP075 T02950080 57006 IEM_DS3505
ZBAA,1983-05-31 12:00,ZBAA 311200Z AUTO 16008KT 7SM 26/08 RMK SLP077 T02620082 52001 IEM_DS3505
ZBAA,1983-05-31 15:00,ZBAA 311500Z AUTO 20006KT 7SM 24/07 RMK SLP082 T02400074 52005 IEM_DS3505
ZBAA,1983-05-31 18:00,ZBAA 311800Z AUTO 04004KT 6SM 21/10 RMK SLP078 T02090104 40311//// 57004 IEM_DS3505
ZBAA,1983-05-31 21:00,ZBAA 312100Z AUTO 36002KT 6SM 19/10 RMK SLP078 T01940101 54000 IEM_DS3505
ZBAA,1983-06-01 00:00,ZBAA 010000Z AUTO 36004KT 2 1/2SM 23/09 RMK SLP075 T02330094 57003 IEM_DS3505
ZBAA,1983-06-01 03:00,ZBAA 010300Z AUTO 07002KT 2 1/2SM 28/11 RMK SLP063 T02820108 57012 IEM_DS3505
ZBAA,1983-06-01 06:00,ZBAA 010600Z AUTO 16008KT 7SM 31/11 RMK SLP043 T03060111 4////0187 57020 IEM_DS3505
ZBAA,1983-06-01 09:00,ZBAA 010900Z AUTO 16008KT 6SM 32/12 RMK SLP020 T03180120 57023 IEM_DS3505
ZBAA,1983-06-01 12:00,ZBAA 011200Z AUTO 16004KT 6SM 29/16 RMK SLP022 T02920157 52002 IEM_DS3505
ZBAA,1983-06-01 15:00,ZBAA 011500Z AUTO 16002KT 6SM 25/18 RMK SLP022 T02530180 54000 IEM_DS3505
ZBAA,1983-06-01 18:00,ZBAA 011800Z AUTO 02004KT 7SM 23/19 RMK SLP024 T02310187 40321//// 52002 IEM_DS3505
ZBAA,1983-06-01 21:00,ZBAA 012100Z AUTO 04004KT 6SM 22/18 RMK SLP024 T02200179 54000 IEM_DS3505
ZBAA,1983-06-02 00:00,ZBAA 020000Z AUTO 02004KT 6SM 25/18 RMK SLP039 T02500177 52016 IEM_DS3505
ZBAA,1983-06-02 03:00,ZBAA 020300Z AUTO 02002KT 4SM 28/19 RMK SLP042 T02850192 52002 IEM_DS3505
ZBAA,1983-06-02 06:00,ZBAA 020600Z AUTO 00000KT 5SM RMK SLP022 4////0216 57019 IEM_DS3505
ZBAA,1983-06-02 09:00,ZBAA 020900Z AUTO 20008KT 7SM 34/17 RMK SLP012 T03390170 57010 IEM_DS3505
ZBAA,1983-06-02 12:00,ZBAA 021200Z AUTO 18006KT 6SM 31/18 RMK SLP011 T03070177 57001 IEM_DS3505
ZBAA,1983-06-02 15:00,ZBAA 021500Z AUTO 14012KT 9SM 27/19 RMK SLP033 T02710188 52022 IEM_DS3505
ZBAA,1983-06-02 18:00,ZBAA 021800Z AUTO 02006KT 5SM 24/19 RMK SLP036 T02430189 40342//// 52003 IEM_DS3505
ZBAA,1983-06-02 21:00,ZBAA 022100Z AUTO 02006KT 2 1/2SM 22/18 RMK SLP041 T02240176 52005 IEM_DS3505
ZBAA,1983-06-03 00:00,ZBAA 030000Z AUTO 04006KT 2SM 24/18 RMK SLP063 T02360183 52022 IEM_DS3505
ZBAA,1983-06-03 03:00,ZBAA 030300Z AUTO 07006KT 5SM 28/20 RMK SLP072 T02800195 52009 IEM_DS3505
ZBAA,1983-06-03 06:00,ZBAA 030600Z AUTO 14014KT 6SM 29/21 RMK SLP060 T02940206 4////0220 57013 IEM_DS3505
ZBAA,1983-06-03 09:00,ZBAA 030900Z AUTO 16008KT 5SM 27/15 RMK SLP059 T02720149 57001 IEM_DS3505
ZBAA,1983-06-03 12:00,ZBAA 031200Z AUTO 18006KT 7SM 24/14 RMK SLP069 T02420137 52010 IEM_DS3505
ZBAA,1983-06-03 15:00,ZBAA 031500Z AUTO 14004KT 9SM 23/12 RMK SLP070 T02260119 52001 IEM_DS3505
ZBAA,1983-06-03 18:00,ZBAA 031800Z AUTO 11004KT 7SM 21/12 RMK SLP054 T02100117 40311//// 57016 IEM_DS3505
ZBAA,1983-06-03 21:00,ZBAA 032100Z AUTO 02002KT 7SM 19/12 RMK SLP037 T01900121 57017 IEM_DS3505
ZBAA,1983-06-04 00:00,ZBAA 040000Z AUTO 02010KT 7SM 20/12 RMK SLP040 T02050115 52002 IEM_DS3505
ZBAA,1983-06-04 03:00,ZBAA 040300Z AUTO 00000KT 6SM 24/12 A2962 RMK SLP039 T02400120 57001 IEM_DS3505
ZBAA,1983-06-04 04:00,ZBAA 040400Z AUTO 00000KT 6SM 24/13 A2959 RMK T02400130 IEM_DS3505
ZBAA,1983-06-04 05:00,ZBAA 040500Z AUTO 22004KT 6SM 25/14 A2959 RMK T02500140 IEM_DS3505
ZBAA,1983-06-04 06:00,ZBAA 040600Z AUTO 20002KT 4SM 26/16 A2956 RMK SLP027 T02550157 4////0182 57011 IEM_DS3505
ZBAA,1983-06-04 07:00,ZBAA 040700Z AUTO 22008KT 7SM 25/14 A2956 RMK T02500140 IEM_DS3505
ZBAA,1983-06-04 08:00,ZBAA 040800Z AUTO 22006KT 5SM 24/14 A2956 RMK T02400140 IEM_DS3505
ZBAA,1983-06-04 09:00,ZBAA 040900Z AUTO 18008KT 3SM 25/16 RMK SLP029 T02460157 52001 IEM_DS3505
ZBAA,1983-06-04 12:00,ZBAA 041200Z AUTO 20006KT 6SM 23/16 RMK SLP030 T02310161 52001 IEM_DS3505
ZBAA,1983-06-04 15:00,ZBAA 041500Z AUTO 00000KT 6SM 22/14 RMK SLP042 T02160137 52012 IEM_DS3505
ZBAA,1983-06-04 18:00,ZBAA 041800Z AUTO 29012KT 9SM 23/01 RMK SLP063 T02260010 40257//// 52022 IEM_DS3505
ZBAA,1983-06-04 21:00,ZBAA 042100Z AUTO 29014KT 19SM 20/03 RMK SLP074 T02020032 52010 IEM_DS3505
ZBAA,1983-06-05 00:00,ZBAA 050000Z AUTO 34017KT 19SM 20/02 RMK SLP096 T02030022 52022 IEM_DS3505
ZBAA,1983-06-05 03:00,ZBAA 050300Z AUTO 34006KT 19SM 24/03 RMK SLP093 T02370032 57003 IEM_DS3505
ZBAA,1983-06-05 06:00,ZBAA 050600Z AUTO 32010KT 19SM 27/01 RMK SLP076 T02710012 4////0194 57016 IEM_DS3505
ZBAA,1983-06-05 09:00,ZBAA 050900Z AUTO 34014KT 19SM 27/M01 RMK SLP070 T02691013 57006 IEM_DS3505
ZBAA,1983-06-05 12:00,ZBAA 051200Z AUTO 32004KT 19SM 24/01 RMK SLP079 T02350008 52008 IEM_DS3505
ZBAA,1983-06-05 15:00,ZBAA 051500Z AUTO 36006KT 19SM 20/M01 RMK SLP107 T01991013 52028 IEM_DS3505
ZBAA,1983-06-05 18:00,ZBAA 051800Z AUTO 25004KT 12SM 15/04 RMK SLP107 T01530039 40276//// 54000 IEM_DS3505
ZBAA,1983-06-05 21:00,ZBAA 052100Z AUTO 20004KT 11SM 14/03 RMK SLP101 T01430030 57006 IEM_DS3505
ZBAA,1983-06-06 00:00,ZBAA 060000Z AUTO 29002KT 9SM 23/01 RMK SLP104 T02340006 52004 IEM_DS3505
ZBAA,1983-06-06 03:00,ZBAA 060300Z AUTO 20008KT 6SM 27/M00 RMK SLP090 T02741001 57014 IEM_DS3505
ZBAA,1983-06-06 06:00,ZBAA 060600Z AUTO 18008KT 9SM 29/M01 RMK SLP062 T02921013 4////0141 57029 IEM_DS3505
ZBAA,1983-06-06 09:00,ZBAA 060900Z AUTO 20010KT 11SM 30/M01 RMK SLP032 T02961013 57030 IEM_DS3505
ZBAA,1983-06-06 12:00,ZBAA 061200Z AUTO 20012KT 12SM 26/01 RMK SLP030 T02600014 57001 IEM_DS3505
ZBAA,1983-06-06 15:00,ZBAA 061500Z AUTO 20010KT 12SM 23/04 RMK SLP031 T02330041 52001 IEM_DS3505
ZBAA,1983-06-06 18:00,ZBAA 061800Z AUTO 20006KT 11SM 20/06 RMK SLP013 T02020060 40301//// 57018 IEM_DS3505
ZBAA,1983-06-06 21:00,ZBAA 062100Z AUTO 02002KT 9SM 16/07 RMK SLP007 T01620072 57006 IEM_DS3505
ZBAA,1983-06-07 00:00,ZBAA 070000Z AUTO 07004KT 9SM 21/07 RMK SLP006 T02140074 54000 IEM_DS3505
ZBAA,1983-06-07 03:00,ZBAA 070300Z AUTO 24006KT 6SM 27/08 A2950 RMK SLP996 T02700080 57010 IEM_DS3505
ZBAA,1983-06-07 04:00,ZBAA 070400Z AUTO 32023G35KT 7SM 30/M03 A2947 RMK T03001030 IEM_DS3505
ZBAA,1983-06-07 05:00,ZBAA 070500Z AUTO 31021G35KT 7SM 31/M02 A2947 RMK T03101020 IEM_DS3505
ZBAA,1983-06-07 06:00,ZBAA 070600Z AUTO 32019KT 9SM 30/03 A2947 RMK SLP993 T02960030 57003 IEM_DS3505
ZBAA,1983-06-07 07:00,ZBAA 070700Z AUTO 32017G29KT 7SM 30/M02 A2947 RMK T03001020 IEM_DS3505
ZBAA,1983-06-07 09:00,ZBAA 070900Z AUTO 32014KT 12SM 28/M01 A2947 RMK SLP006 T02821013 52012 IEM_DS3505
ZBAA,1983-06-07 10:00,ZBAA 071000Z AUTO 30016G25KT 7SM 28/M04 A2950 RMK T02801040 IEM_DS3505
ZBAA,1983-06-07 12:00,ZBAA 071200Z AUTO 36010KT 19SM 25/M01 RMK SLP035 T02491010 52029 IEM_DS3505
ZBAA,1983-06-07 15:00,ZBAA 071500Z AUTO 02008KT 19SM 22/03 RMK SLP060 T02170026 52025 IEM_DS3505
ZBAA,1983-06-07 18:00,ZBAA 071800Z AUTO 00000KT 19SM 19/04 RMK SLP070 T01860043 40304//// 52010 IEM_DS3505
ZBAA,1983-06-07 21:00,ZBAA 072100Z AUTO 04002KT 19SM 18/05 RMK SLP078 T01760048 52007 IEM_DS3505
ZBAA,1983-06-08 00:00,ZBAA 080000Z AUTO 02002KT 19SM 22/05 RMK SLP090 T02210054 52013 IEM_DS3505
ZBAA,1983-06-08 03:00,ZBAA 080300Z AUTO 04008KT 19SM 26/03 RMK SLP087 T02590026 57003 IEM_DS3505
ZBAA,1983-06-08 06:00,ZBAA 080600Z AUTO 18012KT 19SM 28/04 RMK SLP068 T02850039 4////0167 57019 IEM_DS3505
ZBAA,1983-06-08 09:00,ZBAA 080900Z AUTO 18006KT 19SM 28/03 RMK SLP049 T02840034 57019 IEM_DS3505
ZBAA,1983-06-08 12:00,ZBAA 081200Z AUTO 18010KT 9SM 26/04 RMK SLP057 T02610037 52008 IEM_DS3505
ZBAA,1983-06-08 15:00,ZBAA 081500Z AUTO 20006KT 9SM 22/07 RMK SLP065 T02200067 52008 IEM_DS3505
ZBAA,1983-06-08 18:00,ZBAA 081800Z AUTO 00000KT 7SM 18/08 RMK SLP063 T01810085 40294//// 57002 IEM_DS3505
ZBAA,1983-06-08 21:00,ZBAA 082100Z AUTO 00000KT 7SM 16/09 RMK SLP070 T01600089 52006 IEM_DS3505
ZBAA,1983-06-09 00:00,ZBAA 090000Z AUTO 00000KT 5SM 22/11 RMK SLP076 T02160108 52007 IEM_DS3505
ZBAA,1983-06-09 03:00,ZBAA 090300Z AUTO 20004KT 3SM 28/11 RMK SLP070 T02830107 57006 IEM_DS3505
ZBAA,1983-06-09 06:00,ZBAA 090600Z AUTO 18008KT 9SM 33/06 RMK SLP049 T03330062 4////0153 57021 IEM_DS3505
ZBAA,1983-06-09 09:00,ZBAA 090900Z AUTO 20010KT 9SM 34/03 RMK SLP034 T03440030 57015 IEM_DS3505
ZBAA,1983-06-09 12:00,ZBAA 091200Z AUTO 20006KT 12SM 30/06 RMK SLP041 T02960064 52007 IEM_DS3505
ZBAA,1983-06-09 15:00,ZBAA 091500Z AUTO 11008KT 9SM 27/06 RMK SLP057 T02740059 52017 IEM_DS3505
ZBAA,1983-06-09 18:00,ZBAA 091800Z AUTO 18008KT 11SM 23/07 RMK SLP053 T02260074 40348//// 57004 IEM_DS3505
ZBAA,1983-06-09 21:00,ZBAA 092100Z AUTO 00000KT 6SM 19/10 RMK SLP067 T01880105 52013 IEM_DS3505
ZBAA,1983-06-10 00:00,ZBAA 100000Z AUTO 36004KT 5SM 21/13 RMK SLP085 T02120128 52018 IEM_DS3505
ZBAA,1983-06-10 03:00,ZBAA 100300Z AUTO 11004KT 4SM 27/12 RMK SLP084 T02730123 54000 IEM_DS3505
ZBAA,1983-06-10 06:00,ZBAA 100600Z AUTO 16004KT 6SM 32/12 RMK SLP057 T03180117 4////0173 57027 IEM_DS3505
ZBAA,1983-06-10 09:00,ZBAA 100900Z AUTO 11012KT 6SM 33/12 RMK SLP034 T03260123 57024 IEM_DS3505
ZBAA,1983-06-10 12:00,ZBAA 101200Z AUTO 11008KT 5SM 27/13 RMK SLP049 T02740131 52010 IEM_DS3505
ZBAA,1983-06-10 15:00,ZBAA 101500Z AUTO 07010KT 4SM 25/14 RMK SLP070 T02460140 52021 IEM_DS3505
ZBAA,1983-06-10 18:00,ZBAA 101800Z AUTO 02004KT 7SM 22/12 RMK SLP067 T02250124 40338//// 57002 IEM_DS3505
ZBAA,1983-06-10 21:00,ZBAA 102100Z AUTO 27002KT 6SM 20/14 RMK SLP065 T02040143 57003 IEM_DS3505
ZBAA,1983-06-11 00:00,ZBAA 110000Z AUTO 00000KT 2SM 24/16 RMK SLP066 T02360157 52001 IEM_DS3505
ZBAA,1983-06-11 03:00,ZBAA 110300Z AUTO 00000KT 5SM 25/15 A2971 RMK SLP073 T02490152 52007 IEM_DS3505
ZBAA,1983-06-11 04:00,ZBAA 110400Z AUTO 00000KT 6SM 27/15 A2971 RMK T02700150 IEM_DS3505
ZBAA,1983-06-11 05:00,ZBAA 110500Z AUTO 00000KT 6SM 27/14 A2971 RMK T02700140 IEM_DS3505
ZBAA,1983-06-11 06:00,ZBAA 110600Z AUTO 36010KT 7SM 28/10 A2968 RMK SLP063 T02830103 4////0201 57010 IEM_DS3505
ZBAA,1983-06-11 07:00,ZBAA 110700Z AUTO 36010KT 6SM 28/09 A2968 RMK T02800090 IEM_DS3505
ZBAA,1983-06-11 08:00,ZBAA 110800Z AUTO 31012KT 6SM 29/07 RMK T02900070 IEM_DS3505
ZBAA,1983-06-11 09:00,ZBAA 110900Z AUTO 36008KT 12SM 26/07 A2968 RMK SLP055 T02630069 57008 IEM_DS3505
ZBAA,1983-06-11 10:00,ZBAA 111000Z AUTO 30004KT 6SM 26/08 A2965 RMK T02600080 IEM_DS3505
ZBAA,1983-06-11 11:00,ZBAA 111100Z AUTO 00000KT 6SM 25/10 A2965 RMK T02500100 IEM_DS3505
ZBAA,1983-06-11 12:00,ZBAA 111200Z AUTO 20002KT 19SM 25/09 A2965 RMK SLP056 T02480091 52001 IEM_DS3505
ZBAA,1983-06-11 15:00,ZBAA 111500Z AUTO 36008KT 12SM 21/11 RMK SLP070 T02070107 52013 IEM_DS3505
ZBAA,1983-06-11 18:00,ZBAA 111800Z AUTO 34008KT 12SM 24/04 RMK SLP075 T02370039 40288//// 52006 IEM_DS3505
ZBAA,1983-06-11 21:00,ZBAA 112100Z AUTO 34006KT 19SM 21/05 RMK SLP077 T02110046 52002 IEM_DS3505
ZBAA,1983-06-12 00:00,ZBAA 120000Z AUTO 02006KT 19SM 25/07 RMK SLP084 T02500068 52007 IEM_DS3505
ZBAA,1983-06-12 03:00,ZBAA 120300Z AUTO 36008KT 19SM 29/06 RMK SLP076 T02910060 57008 IEM_DS3505
ZBAA,1983-06-12 06:00,ZBAA 120600Z AUTO 32010KT 19SM 32/06 RMK SLP055 T03180056 4////0191 57020 IEM_DS3505
ZBAA,1983-06-12 09:00,ZBAA 120900Z AUTO 32008KT 19SM 33/04 RMK SLP035 T03330043 57020 IEM_DS3505
ZBAA,1983-06-12 12:00,ZBAA 121200Z AUTO 00000KT 19SM 28/10 RMK SLP046 T02800100 52010 IEM_DS3505
ZBAA,1983-06-12 15:00,ZBAA 121500Z AUTO 00000KT 19SM 21/12 RMK SLP059 T02130120 52013 IEM_DS3505
ZBAA,1983-06-12 18:00,ZBAA 121800Z AUTO 00000KT 19SM 19/12 RMK SLP060 T01880122 40333//// 52001 IEM_DS3505
ZBAA,1983-06-12 21:00,ZBAA 122100Z AUTO 00000KT 19SM 18/11 RMK SLP065 T01760112 52005 IEM_DS3505
ZBAA,1983-06-13 00:00,ZBAA 130000Z AUTO 00000KT 5SM 28/11 RMK SLP073 T02790113 52009 IEM_DS3505
ZBAA,1983-06-13 03:00,ZBAA 130300Z AUTO 00000KT 16SM 34/08 RMK SLP070 T03410075 57003 IEM_DS3505
ZBAA,1983-06-13 05:00,ZBAA 130500Z AUTO 20006KT 19SM 36/04 RMK SLP032 T03590036 57021 IEM_DS3505
ZBAA,1983-06-13 06:00,ZBAA 130600Z AUTO 36002KT 19SM 36/02 RMK SLP052 T03590024 4////0169 57018 IEM_DS3505
ZBAA,1983-06-13 09:00,ZBAA 130900Z AUTO 20006KT 19SM 36/04 RMK SLP032 T03590036 57021 IEM_DS3505
ZBAA,1983-06-13 12:00,ZBAA 131200Z AUTO 20008KT 19SM 32/05 RMK SLP032 T03180048 52001 IEM_DS3505
ZBAA,1983-06-13 15:00,ZBAA 131500Z AUTO 25006KT 12SM 28/04 RMK SLP039 T02820036 52007 IEM_DS3505
ZBAA,1983-06-13 18:00,ZBAA 131800Z AUTO 20010KT 9SM 26/03 RMK SLP033 T02640030 40369//// 57006 IEM_DS3505
ZBAA,1983-06-13 21:00,ZBAA 132100Z AUTO 20006KT 9SM 23/05 RMK SLP032 T02280051 57001 IEM_DS3505
ZBAA,1983-06-14 00:00,ZBAA 140000Z AUTO 00000KT 3SM 26/11 RMK SLP036 T02600113 52004 IEM_DS3505
ZBAA,1983-06-14 02:00,ZBAA 140200Z AUTO 15002KT 4SM 30/10 A2959 RMK T03000100 IEM_DS3505
ZBAA,1983-06-14 03:00,ZBAA 140300Z AUTO 18010KT 5SM 32/10 A2959 RMK SLP033 T03200100 57003 IEM_DS3505
ZBAA,1983-06-14 04:00,ZBAA 140400Z AUTO 18012KT 5SM 35/07 A2959 RMK T03500070 IEM_DS3505
ZBAA,1983-06-14 05:00,ZBAA 140500Z AUTO 18012KT 6SM 35/08 A2956 RMK T03500080 IEM_DS3505
ZBAA,1983-06-14 06:00,ZBAA 140600Z AUTO 20012KT 7SM 37/07 A2953 RMK SLP007 T03680074 4////0218 57025 IEM_DS3505
ZBAA,1983-06-14 07:00,ZBAA 140700Z AUTO 19016KT 6SM 37/02 A2950 RMK T03700020 IEM_DS3505
ZBAA,1983-06-14 08:00,ZBAA 140800Z AUTO 20012KT 6SM 36/04 A2950 RMK T03600040 IEM_DS3505
ZBAA,1983-06-14 09:00,ZBAA 140900Z AUTO 18014KT 12SM 36/05 A2947 RMK SLP995 T03590054 57012 IEM_DS3505
ZBAA,1983-06-14 12:00,ZBAA 141200Z AUTO 18006KT 12SM 32/06 RMK SLP999 T03220064 52004 IEM_DS3505
ZBAA,1983-06-14 15:00,ZBAA 141500Z AUTO 20008KT 7SM 28/08 RMK SLP022 T02820085 52022 IEM_DS3505
ZBAA,1983-06-14 18:00,ZBAA 141800Z AUTO 20006KT 6SM 25/15 RMK SLP023 T02520152 40371//// 52001 IEM_DS3505
ZBAA,1983-06-14 21:00,ZBAA 142100Z AUTO 18008KT 6SM 24/16 RMK SLP026 T02400158 52003 IEM_DS3505
ZBAA,1983-06-15 00:00,ZBAA 150000Z AUTO 20008KT 2 1/2SM 25/18 RMK SLP044 T02530176 52018 IEM_DS3505
ZBAA,1983-06-15 03:00,ZBAA 150300Z AUTO 18010KT 6SM 30/16 RMK SLP044 T03040162 54000 IEM_DS3505
ZBAA,1983-06-15 06:00,ZBAA 150600Z AUTO 18012KT 11SM 33/12 RMK SLP032 T03260115 4////0234 57012 IEM_DS3505
ZBAA,1983-06-15 09:00,ZBAA 150900Z AUTO 18010KT 11SM 33/11 RMK SLP015 T03340113 57017 IEM_DS3505
ZBAA,1983-06-15 12:00,ZBAA 151200Z AUTO 16008KT 9SM 31/11 RMK SLP022 T03090113 52007 IEM_DS3505
ZBAA,1983-06-15 15:00,ZBAA 151500Z AUTO 36006KT 7SM 27/16 RMK SLP047 T02720157 52025 IEM_DS3505
ZBAA,1983-06-15 18:00,ZBAA 151800Z AUTO 20008KT 6SM 26/15 RMK SLP037 T02560149 40340//// 57010 IEM_DS3505
ZBAA,1983-06-15 21:00,ZBAA 152100Z AUTO 20012KT 6SM 24/13 RMK SLP039 T02360134 52002 IEM_DS3505
ZBAA,1983-06-16 00:00,ZBAA 160000Z AUTO 20010KT 6SM 24/13 RMK SLP063 T02350134 52024 IEM_DS3505
ZBAA,1983-06-16 03:00,ZBAA 160300Z AUTO 20008KT 5SM 24/15 RMK SLP060 T02420153 57004 IEM_DS3505
ZBAA,1983-06-16 06:00,ZBAA 160600Z AUTO 04002KT 6SM 29/15 RMK T02880152 4////0227 57019 IEM_DS3505
ZBAA,1983-06-16 09:00,ZBAA 160900Z AUTO 18006KT 6SM 30/16 RMK SLP022 T02980165 57019 IEM_DS3505
ZBAA,1983-06-16 12:00,ZBAA 161200Z AUTO 16006KT 4SM 28/17 RMK SLP020 T02770169 57002 IEM_DS3505
ZBAA,1983-06-16 15:00,ZBAA 161500Z AUTO 16006KT 5SM 21/19 RMK SLP043 T02130194 52022 IEM_DS3505
ZBAA,1983-06-16 18:00,ZBAA 161800Z AUTO 00000KT 5SM 21/19 RMK 60020 SLP037 T02080189 57005 IEM_DS3505
ZBAA,1983-06-16 21:00,ZBAA 162100Z AUTO 02004KT 6SM 20/17 RMK SLP037 T01960173 54000 IEM_DS3505
ZBAA,1983-06-17 00:00,ZBAA 170000Z AUTO 20004KT 6SM 21/18 RMK 70020 SLP049 T02100181 52012 IEM_DS3505
ZBAA,1983-06-17 03:00,ZBAA 170300Z AUTO 04004KT 2 1/2SM 23/19 RMK SLP049 T02290189 57001 IEM_DS3505
ZBAA,1983-06-17 06:00,ZBAA 170600Z AUTO 16004KT 4SM 26/18 RMK SLP037 T02600175 4////0194 57011 IEM_DS3505
ZBAA,1983-06-17 09:00,ZBAA 170900Z AUTO 04004KT 4SM 27/19 RMK SLP030 T02700194 57007 IEM_DS3505
ZBAA,1983-06-17 12:00,ZBAA 171200Z AUTO 04004KT 4SM 25/20 RMK SLP036 T02490200 52006 IEM_DS3505
ZBAA,1983-06-17 15:00,ZBAA 171500Z AUTO 02002KT 4SM 22/19 RMK SLP055 T02240194 52018 IEM_DS3505
ZBAA,1983-06-17 18:00,ZBAA 171800Z AUTO 00000KT 3SM 21/19 RMK SLP059 T02080191 40273//// 52005 IEM_DS3505
ZBAA,1983-06-17 21:00,ZBAA 172100Z AUTO 00000KT 4SM 19/18 RMK SLP063 T01900180 52004 IEM_DS3505
ZBAA,1983-06-18 00:00,ZBAA 180000Z AUTO 02004KT 4SM 23/19 RMK SLP071 T02330189 52008 IEM_DS3505
ZBAA,1983-06-18 03:00,ZBAA 180300Z AUTO 05008KT 6SM 29/10 A2971 RMK SLP071 T02900100 54000 IEM_DS3505
ZBAA,1983-06-18 04:00,ZBAA 180400Z AUTO 04010KT 6SM 31/05 A2968 RMK T03100050 IEM_DS3505
ZBAA,1983-06-18 05:00,ZBAA 180500Z AUTO 05010KT 6SM 32/05 A2968 RMK T03200050 IEM_DS3505
ZBAA,1983-06-18 06:00,ZBAA 180600Z AUTO 14002KT 19SM 31/10 A2965 RMK SLP056 T03140098 4////0188 57015 IEM_DS3505
ZBAA,1983-06-18 07:00,ZBAA 180700Z AUTO 00000KT 6SM 32/08 A2965 RMK T03200080 IEM_DS3505
ZBAA,1983-06-18 08:00,ZBAA 180800Z AUTO 15012KT 6SM 32/09 A2965 RMK T03200090 IEM_DS3505
ZBAA,1983-06-18 09:00,ZBAA 180900Z AUTO 20004KT 12SM 38/19 A2965 RMK SLP050 T03770189 57006 IEM_DS3505
ZBAA,1983-06-18 12:00,ZBAA 181200Z AUTO 25002KT 4SM 28/17 RMK SLP055 T02820168 52005 IEM_DS3505
ZBAA,1983-06-18 15:00,ZBAA 181500Z AUTO 20008KT 6SM 24/19 RMK SLP073 T02380188 52018 IEM_DS3505
ZBAA,1983-06-18 18:00,ZBAA 181800Z AUTO 00000KT 5SM 22/20 RMK 60004 SLP072 T02230201 40322//// 57001 IEM_DS3505
ZBAA,1983-06-18 21:00,ZBAA 182100Z AUTO 04004KT 3SM 20/19 RMK SLP085 T02010190 52013 IEM_DS3505
ZBAA,1983-06-19 00:00,ZBAA 190000Z AUTO 02006KT 2SM 19/18 RMK 60110 70110 SLP097 T01860178 52012 IEM_DS3505
ZBAA,1983-06-19 03:00,ZBAA 190300Z AUTO 04006KT 4SM 20/19 RMK SLP099 T02030186 52001 IEM_DS3505
ZBAA,1983-06-19 06:00,ZBAA 190600Z AUTO 02006KT 5SM 21/19 RMK 60000 SLP099 T02080187 4////0184 54000 IEM_DS3505
ZBAA,1983-06-19 09:00,ZBAA 190900Z AUTO 9SM 22/17 RMK SLP090 T02210172 57009 IEM_DS3505
ZBAA,1983-06-19 12:00,ZBAA 191200Z AUTO 02002KT 6SM 21/18 RMK SLP083 T02130181 57007 IEM_DS3505
ZBAA,1983-06-19 15:00,ZBAA 191500Z AUTO 00000KT 5SM 19/18 RMK SLP089 T01910180 52006 IEM_DS3505
ZBAA,1983-06-19 18:00,ZBAA 191800Z AUTO 00000KT 1 1/4SM 18/17 RMK SLP090 T01780170 40226//// 52001 IEM_DS3505
ZBAA,1983-06-19 21:00,ZBAA 192100Z AUTO 00000KT 5SM 17/16 RMK SLP095 T01720165 52005 IEM_DS3505
ZBAA,1983-06-20 00:00,ZBAA 200000Z AUTO 02006KT 6SM 22/17 RMK SLP102 T02230170 52007 IEM_DS3505
ZBAA,1983-06-20 03:00,ZBAA 200300Z AUTO 16002KT 7SM 26/18 RMK SLP096 T02610176 57006 IEM_DS3505
ZBAA,1983-06-20 06:00,ZBAA 200600Z AUTO 20002KT 6SM 29/19 RMK SLP074 T02900189 4////0169 57021 IEM_DS3505
ZBAA,1983-06-20 09:00,ZBAA 200900Z AUTO 20006KT 7SM 30/19 RMK SLP066 T02980191 57008 IEM_DS3505
ZBAA,1983-06-20 12:00,ZBAA 201200Z AUTO 20004KT 7SM 27/20 RMK SLP073 T02730199 52007 IEM_DS3505
ZBAA,1983-06-20 15:00,ZBAA 201500Z AUTO 20002KT 6SM 24/20 RMK SLP088 T02360199 52015 IEM_DS3505
ZBAA,1983-06-20 18:00,ZBAA 201800Z AUTO 00000KT 4SM 21/19 RMK SLP089 T02110194 40302//// 52001 IEM_DS3505
ZBAA,1983-06-20 21:00,ZBAA 202100Z AUTO 02006KT 2 1/2SM 21/19 RMK SLP091 T02070193 52002 IEM_DS3505
ZBAA,1983-06-21 00:00,ZBAA 210000Z AUTO 00000KT 2 1/2SM 25/19 RMK T02500191 IEM_DS3505
ZBAA,1983-06-21 03:00,ZBAA 210300Z AUTO 22002KT 2SM 30/20 A2977 RMK SLP096 T03050199 57003 IEM_DS3505
ZBAA,1983-06-21 04:00,ZBAA 210400Z AUTO 25002KT 6SM 31/20 A2977 RMK T03100200 IEM_DS3505
ZBAA,1983-06-21 05:00,ZBAA 210500Z AUTO 00000KT 6SM 32/20 A2977 RMK T03200200 IEM_DS3505
ZBAA,1983-06-21 06:00,ZBAA 210600Z AUTO 22006KT 6SM 33/18 A2974 RMK SLP084 T03280183 4////0199 57012 IEM_DS3505
ZBAA,1983-06-21 07:00,ZBAA 210700Z AUTO 18006KT 6SM 34/15 A2974 RMK T03400150 IEM_DS3505
ZBAA,1983-06-21 08:00,ZBAA 210800Z AUTO 18006KT 6SM 34/17 A2974 RMK T03400170 IEM_DS3505
ZBAA,1983-06-21 09:00,ZBAA 210900Z AUTO 18006KT 9SM 34/11 RMK SLP076 T03390106 57008 IEM_DS3505
ZBAA,1983-06-21 12:00,ZBAA 211200Z AUTO 18002KT 9SM 30/17 RMK SLP080 T02990172 52004 IEM_DS3505
ZBAA,1983-06-21 15:00,ZBAA 211500Z AUTO 34002KT 4SM 24/19 RMK SLP088 T02360191 52008 IEM_DS3505
ZBAA,1983-06-21 18:00,ZBAA 211800Z AUTO 00000KT 4SM 22/17 RMK SLP089 T02190171 40342//// 52001 IEM_DS3505
ZBAA,1983-06-21 21:00,ZBAA 212100Z AUTO 02002KT 6SM 22/16 RMK SLP089 T02190158 54000 IEM_DS3505
ZBAA,1983-06-22 00:00,ZBAA 220000Z AUTO 00000KT 6SM 23/18 RMK SLP098 T02330184 52008 IEM_DS3505
ZBAA,1983-06-22 03:00,ZBAA 220300Z AUTO 29004KT 4SM 27/16 RMK SLP099 T02690165 52001 IEM_DS3505
ZBAA,1983-06-22 06:00,ZBAA 220600Z AUTO 02004KT 5SM 29/18 RMK SLP089 T02940180 4////0205 57010 IEM_DS3505
ZBAA,1983-06-22 09:00,ZBAA 220900Z AUTO 16006KT 6SM 30/13 RMK SLP080 T03040134 57009 IEM_DS3505
ZBAA,1983-06-22 12:00,ZBAA 221200Z AUTO 20004KT 9SM 27/16 RMK SLP084 T02720159 52004 IEM_DS3505
ZBAA,1983-06-22 15:00,ZBAA 221500Z AUTO 20002KT 6SM 26/16 RMK SLP086 T02580165 52002 IEM_DS3505
ZBAA,1983-06-22 18:00,ZBAA 221800Z AUTO 00000KT 7SM 25/16 RMK SLP079 T02520165 40306//// 57006 IEM_DS3505
ZBAA,1983-06-22 21:00,ZBAA 222100Z AUTO 00000KT 5SM 23/19 RMK T02290189 57001 IEM_DS3505
ZBAA,1983-06-23 00:00,ZBAA 230000Z AUTO 34006KT 3SM 25/19 RMK SLP085 T02480189 52006 IEM_DS3505
ZBAA,1983-06-23 03:00,ZBAA 230300Z AUTO 34004KT 5SM 28/18 RMK SLP082 T02850176 57002 IEM_DS3505
ZBAA,1983-06-23 06:00,ZBAA 230600Z AUTO 20004KT 6SM 31/16 RMK SLP068 T03140158 4////0226 57014 IEM_DS3505
ZBAA,1983-06-23 09:00,ZBAA 230900Z AUTO 18006KT 6SM 31/17 RMK SLP064 T03120168 57004 IEM_DS3505
ZBAA,1983-06-23 12:00,ZBAA 231200Z AUTO 14002KT 6SM 29/19 RMK SLP072 T02920186 52008 IEM_DS3505
ZBAA,1983-06-23 15:00,ZBAA 231500Z AUTO 14002KT 6SM 26/17 RMK SLP087 T02650170 52015 IEM_DS3505
ZBAA,1983-06-23 18:00,ZBAA 231800Z AUTO 00000KT 5SM 24/17 RMK SLP093 T02380172 40326//// 52006 IEM_DS3505
ZBAA,1983-06-23 21:00,ZBAA 232100Z AUTO 00000KT 5SM 23/18 RMK SLP098 T02260183 52004 IEM_DS3505
ZBAA,1983-06-24 00:00,ZBAA 240000Z AUTO 04002KT 4SM 25/18 RMK SLP110 T02470177 52013 IEM_DS3505
ZBAA,1983-06-24 03:00,ZBAA 240300Z AUTO 07006KT 4SM 24/19 RMK SLP127 T02410188 52016 IEM_DS3505
ZBAA,1983-06-24 06:00,ZBAA 240600Z AUTO 00000KT 6SM 24/18 RMK 60001 SLP131 T02350185 4////0225 52003 IEM_DS3505
ZBAA,1983-06-24 09:00,ZBAA 240900Z AUTO 36002KT 5SM 23/19 RMK SLP117 T02340186 57014 IEM_DS3505
ZBAA,1983-06-24 12:00,ZBAA 241200Z AUTO 00000KT 5SM 23/18 RMK SLP118 T02260185 52001 IEM_DS3505
ZBAA,1983-06-24 15:00,ZBAA 241500Z AUTO 00000KT 4SM 22/19 RMK SLP118 T02220187 54000 IEM_DS3505
ZBAA,1983-06-24 18:00,ZBAA 241800Z AUTO 00000KT 3SM 21/19 RMK SLP107 T02110191 40252//// 57011 IEM_DS3505
ZBAA,1983-06-24 21:00,ZBAA 242100Z AUTO 00000KT 2SM 21/19 RMK SLP096 T02100191 57011 IEM_DS3505
ZBAA,1983-06-25 00:00,ZBAA 250000Z AUTO 00000KT 2SM 22/20 RMK 60001 SLP095 T02230195 57001 IEM_DS3505
ZBAA,1983-06-25 02:00,ZBAA 250200Z AUTO 15006KT 6SM 25/16 A2977 RMK T02500160 IEM_DS3505
ZBAA,1983-06-25 03:00,ZBAA 250300Z AUTO 18004KT 6SM 26/16 A2977 RMK SLP087 T02600160 57007 IEM_DS3505
ZBAA,1983-06-25 04:00,ZBAA 250400Z AUTO 16008KT 6SM 27/16 A2974 RMK T02700160 IEM_DS3505
ZBAA,1983-06-25 05:00,ZBAA 250500Z AUTO 20008KT 6SM 28/16 A2971 RMK T02800160 IEM_DS3505
ZBAA,1983-06-25 06:00,ZBAA 250600Z AUTO 22006KT 6SM 29/17 A2971 RMK SLP063 T02880172 4////0206 57024 IEM_DS3505
ZBAA,1983-06-25 07:00,ZBAA 250700Z AUTO 16010KT 7SM 29/17 A2965 RMK T02900170 IEM_DS3505
ZBAA,1983-06-25 08:00,ZBAA 250800Z AUTO 18012KT 7SM 30/18 A2962 RMK T03000180 IEM_DS3505
ZBAA,1983-06-25 09:00,ZBAA 250900Z AUTO 20008KT 6SM 31/17 RMK SLP031 T03060172 57032 IEM_DS3505
ZBAA,1983-06-25 12:00,ZBAA 251200Z AUTO 20010KT 7SM 26/18 RMK 60000 SLP033 T02620184 52002 IEM_DS3505
ZBAA,1983-06-25 15:00,ZBAA 251500Z AUTO 22008KT 7SM 25/18 RMK SLP032 T02540182 57001 IEM_DS3505
ZBAA,1983-06-25 18:00,ZBAA 251800Z AUTO 00000KT 6SM 23/19 RMK SLP022 T02300193 40312//// 57010 IEM_DS3505
ZBAA,1983-06-25 21:00,ZBAA 252100Z AUTO 36002KT 5SM 21/20 RMK SLP021 T02120195 57001 IEM_DS3505
ZBAA,1983-06-26 00:00,ZBAA 260000Z AUTO 00000KT 5SM 26/20 RMK SLP021 T02590200 54000 IEM_DS3505
ZBAA,1983-06-26 03:00,ZBAA 260300Z AUTO 32006KT 19SM 29/15 RMK SLP024 T02880148 52004 IEM_DS3505
ZBAA,1983-06-26 06:00,ZBAA 260600Z AUTO 34004KT 19SM 30/16 RMK SLP015 T02990155 4////0210 57010 IEM_DS3505
ZBAA,1983-06-26 09:00,ZBAA 260900Z AUTO 07004KT 19SM RMK SLP008 57006 IEM_DS3505
ZBAA,1983-06-26 12:00,ZBAA 261200Z AUTO 14006KT 19SM 28/14 RMK SLP017 T02820138 52009 IEM_DS3505
ZBAA,1983-06-26 15:00,ZBAA 261500Z AUTO 00000KT 19SM 24/17 RMK SLP031 T02390172 52013 IEM_DS3505
ZBAA,1983-06-26 18:00,ZBAA 261800Z AUTO 00000KT 5SM 21/18 RMK SLP033 T02100175 40325//// 52002 IEM_DS3505
ZBAA,1983-06-26 21:00,ZBAA 262100Z AUTO 00000KT 4SM 19/18 RMK SLP029 T01940175 57004 IEM_DS3505
ZBAA,1983-06-27 00:00,ZBAA 270000Z AUTO 00000KT 2 1/2SM 25/18 RMK SLP024 T02460180 57005 IEM_DS3505
ZBAA,1983-06-27 03:00,ZBAA 270300Z AUTO 00000KT 2 1/2SM 29/18 RMK SLP014 T02880185 57010 IEM_DS3505
ZBAA,1983-06-27 06:00,ZBAA 270600Z AUTO 18006KT 7SM 32/18 RMK SLP980 T03200175 4////0192 57033 IEM_DS3505
ZBAA,1983-06-27 09:00,ZBAA 270900Z AUTO 02019KT 3/8SM RMK SLP011 52029 IEM_DS3505
ZBAA,1983-06-27 12:00,ZBAA 271200Z AUTO 16004KT 6SM 19/18 RMK 60126 T01940183 57005 IEM_DS3505
ZBAA,1983-06-27 15:00,ZBAA 271500Z AUTO 00000KT 6SM 19/17 RMK SLP002 T01920174 57002 IEM_DS3505
ZBAA,1983-06-27 18:00,ZBAA 271800Z AUTO 00000KT 9SM 19/17 RMK SLP004 T01880170 40332//// 52002 IEM_DS3505
ZBAA,1983-06-27 21:00,ZBAA 272100Z AUTO 02006KT 4SM 18/17 RMK SLP008 T01750168 52002 IEM_DS3505
ZBAA,1983-06-28 00:00,ZBAA 280000Z AUTO 00000KT 2 1/2SM 19/17 RMK 70126 SLP008 T01940173 52001 IEM_DS3505
ZBAA,1983-06-28 01:00,ZBAA 280100Z AUTO 00000KT 6SM 22/18 A2953 RMK T02200180 IEM_DS3505
ZBAA,1983-06-28 02:00,ZBAA 280200Z AUTO 08004KT 6SM 24/18 A2953 RMK T02400180 IEM_DS3505
ZBAA,1983-06-28 03:00,ZBAA 280300Z AUTO 36002KT 6SM 25/18 A2953 RMK SLP008 T02500180 54000 IEM_DS3505
ZBAA,1983-06-28 04:00,ZBAA 280400Z AUTO 07006KT 7SM 27/19 A2950 RMK T02700190 IEM_DS3505
ZBAA,1983-06-28 05:00,ZBAA 280500Z AUTO 12008KT 7SM 28/19 A2950 RMK T02800190 IEM_DS3505
ZBAA,1983-06-28 06:00,ZBAA 280600Z AUTO 16002KT 4SM 28/19 A2947 RMK SLP999 T02810192 4////0161 57008 IEM_DS3505
ZBAA,1983-06-28 08:00,ZBAA 280800Z AUTO 18008KT 6SM 29/18 A2944 RMK T02900180 IEM_DS3505
ZBAA,1983-06-28 09:00,ZBAA 280900Z AUTO 00000KT 6SM 29/20 A2947 RMK SLP986 T02880201 57013 IEM_DS3505
ZBAA,1983-06-28 10:00,ZBAA 281000Z AUTO 03008KT 6SM 29/18 A2950 RMK T02900180 IEM_DS3505
ZBAA,1983-06-28 12:00,ZBAA 281200Z AUTO 27004KT 4SM 25/22 RMK 60002 SLP004 T02520221 52017 IEM_DS3505
ZBAA,1983-06-28 15:00,ZBAA 281500Z AUTO 00000KT 2 1/2SM 24/22 RMK SLP003 T02400219 54000 IEM_DS3505
ZBAA,1983-06-28 18:00,ZBAA 281800Z AUTO 00000KT 1 1/4SM 23/22 RMK SLP014 T02340218 40294//// 52010 IEM_DS3505
ZBAA,1983-06-28 21:00,ZBAA 282100Z AUTO 29004KT 2SM 22/20 RMK SLP021 T02160202 52007 IEM_DS3505
ZBAA,1983-06-29 00:00,ZBAA 290000Z AUTO 04006KT 1 1/4SM 23/21 RMK 70004 SLP020 T02340214 57001 IEM_DS3505
ZBAA,1983-06-29 03:00,ZBAA 290300Z AUTO 11004KT 5SM 27/20 RMK SLP028 T02730202 52008 IEM_DS3505
ZBAA,1983-06-29 06:00,ZBAA 290600Z AUTO 11004KT 6SM 29/20 RMK SLP022 T02940196 4////0215 57006 IEM_DS3505
ZBAA,1983-06-29 09:00,ZBAA 290900Z AUTO 14002KT 6SM 30/20 RMK SLP006 T03050196 57015 IEM_DS3505
ZBAA,1983-06-29 12:00,ZBAA 291200Z AUTO 16004KT 7SM 28/20 RMK 60000 SLP017 T02750198 52010 IEM_DS3505
ZBAA,1983-06-29 15:00,ZBAA 291500Z AUTO 11006KT 6SM 26/22 RMK SLP027 T02600215 52010 IEM_DS3505
ZBAA,1983-06-29 18:00,ZBAA 291800Z AUTO 07002KT 4SM 25/23 RMK SLP020 T02470226 40306//// 57006 IEM_DS3505
ZBAA,1983-06-29 21:00,ZBAA 292100Z AUTO 11004KT 4SM 24/19 RMK SLP023 T02370192 52003 IEM_DS3505
ZBAA,1983-06-30 00:00,ZBAA 300000Z AUTO 20002KT 3SM 24/20 RMK 60000 SLP048 T02350201 52024 IEM_DS3505
ZBAA,1983-06-30 03:00,ZBAA 300300Z AUTO 32002KT 3SM 26/21 RMK SLP045 T02590208 57003 IEM_DS3505
ZBAA,1983-06-30 06:00,ZBAA 300600Z AUTO 36002KT 3SM 29/22 RMK SLP028 T02910218 4////0226 57017 IEM_DS3505
ZBAA,1983-06-30 09:00,ZBAA 300900Z AUTO 20008KT 4SM 30/21 RMK SLP009 T03050214 57018 IEM_DS3505
ZBAA,1983-06-30 12:00,ZBAA 301200Z AUTO 20002KT 5SM 29/22 RMK SLP019 T02920222 52009 IEM_DS3505
ZBAA,1983-06-30 15:00,ZBAA 301500Z AUTO 36004KT 6SM 25/18 RMK SLP044 T02500181 52025 IEM_DS3505
ZBAA,1983-06-30 18:00,ZBAA 301800Z AUTO 00000KT 5SM 23/20 RMK SLP029 T02340197 40313//// 57015 IEM_DS3505
ZBAA,1983-06-30 21:00,ZBAA 302100Z AUTO 36004KT 4SM 22/20 RMK SLP028 T02240203 57001 IEM_DS3505
ZBAA,1983-07-01 00:00,ZBAA 010000Z AUTO 02002KT 3SM 24/20 RMK SLP028 T02400197 54000 IEM_DS3505
ZBAA,1983-07-01 03:00,ZBAA 010300Z AUTO 02006KT 3SM 26/20 RMK SLP027 T02550202 57001 IEM_DS3505
ZBAA,1983-07-01 06:00,ZBAA 010600Z AUTO 36004KT 2 1/2SM 26/22 RMK 60001 SLP013 T02640224 4////0221 57014 IEM_DS3505
ZBAA,1983-07-01 09:00,ZBAA 010900Z AUTO 36002KT 3SM 27/23 RMK SLP996 T02710229 57016 IEM_DS3505
ZBAA,1983-07-01 12:00,ZBAA 011200Z AUTO 16004KT 5SM 26/19 RMK SLP002 T02620191 52006 IEM_DS3505
ZBAA,1983-07-01 15:00,ZBAA 011500Z AUTO 16006KT 6SM 24/19 RMK SLP013 T02440191 52010 IEM_DS3505
ZBAA,1983-07-01 18:00,ZBAA 011800Z AUTO 00000KT 5SM 23/19 RMK SLP992 T02260191 40277//// 57020 IEM_DS3505
ZBAA,1983-07-01 21:00,ZBAA 012100Z AUTO 00000KT 4SM 22/20 RMK SLP984 T02200200 57008 IEM_DS3505
ZBAA,1983-07-02 00:00,ZBAA 020000Z AUTO 00000KT 2 1/2SM 23/20 RMK SLP977 T02330199 57007 IEM_DS3505
ZBAA,1983-07-02 02:00,ZBAA 020200Z AUTO 25004KT 7SM 26/20 A2941 RMK T02600200 IEM_DS3505
ZBAA,1983-07-02 03:00,ZBAA 020300Z AUTO 00000KT 4SM 26/20 A2938 RMK SLP961 T02640197 57016 IEM_DS3505
ZBAA,1983-07-02 04:00,ZBAA 020400Z AUTO 24004KT 4SM 25/19 A2935 RMK T02500190 IEM_DS3505
ZBAA,1983-07-02 05:00,ZBAA 020500Z AUTO 17008KT 7SM 26/19 A2935 RMK T02600190 IEM_DS3505
ZBAA,1983-07-02 06:00,ZBAA 020600Z AUTO 20008KT 7SM 24/19 A2932 RMK 60008 SLP940 T02450194 4////0217 57021 IEM_DS3505
ZBAA,1983-07-02 07:00,ZBAA 020700Z AUTO 31008KT 7SM 25/19 A2929 RMK T02500190 IEM_DS3505
ZBAA,1983-07-02 08:00,ZBAA 020800Z AUTO 31004KT 7SM 25/20 A2929 RMK T02500200 IEM_DS3505
ZBAA,1983-07-02 09:00,ZBAA 020900Z AUTO 22010KT 6SM 26/18 RMK SLP931 T02580176 57009 IEM_DS3505
ZBAA,1983-07-02 10:00,ZBAA 021000Z AUTO 00000KT 6SM 25/20 A2929 RMK T02500200 IEM_DS3505
ZBAA,1983-07-02 12:00,ZBAA 021200Z AUTO 00000KT 7SM 24/18 RMK SLP927 T02380180 57004 IEM_DS3505
ZBAA,1983-07-02 15:00,ZBAA 021500Z AUTO 00000KT 6SM 22/19 RMK SLP921 T02230194 57006 IEM_DS3505
ZBAA,1983-07-02 18:00,ZBAA 021800Z AUTO 20006KT 5SM 22/20 RMK SLP907 T02170200 40268//// 57014 IEM_DS3505
ZBAA,1983-07-02 21:00,ZBAA 022100Z AUTO 20006KT 4SM 21/19 RMK SLP907 T02110192 54000 IEM_DS3505
ZBAA,1983-07-03 00:00,ZBAA 030000Z AUTO 20006KT 5SM 22/19 RMK 60001 70008 SLP919 T02220191 52012 IEM_DS3505
ZBAA,1983-07-03 03:00,ZBAA 030300Z AUTO 34014KT 19SM 28/15 RMK SLP914 T02760150 57005 IEM_DS3505
ZBAA,1983-07-03 06:00,ZBAA 030600Z AUTO 34012KT 19SM 30/14 RMK SLP910 T02990135 4////0207 57003 IEM_DS3505
ZBAA,1983-07-03 09:00,ZBAA 030900Z AUTO 36010KT 19SM 32/13 RMK SLP913 T03170127 52002 IEM_DS3505
ZBAA,1983-07-03 12:00,ZBAA 031200Z AUTO 34002KT 19SM 28/15 RMK SLP943 T02780153 52030 IEM_DS3505
ZBAA,1983-07-03 15:00,ZBAA 031500Z AUTO 29002KT 19SM 24/15 RMK SLP963 T02400147 52020 IEM_DS3505
ZBAA,1983-07-03 18:00,ZBAA 031800Z AUTO 34004KT 19SM 22/14 RMK SLP967 T02230138 52004 IEM_DS3505
ZBAA,1983-07-03 21:00,ZBAA 032100Z AUTO 36006KT 19SM 21/14 RMK SLP976 T02130142 58009 IEM_DS3505
ZBAA,1983-07-04 00:00,ZBAA 040000Z AUTO 34006KT 19SM 26/13 RMK SLP987 T02560132 52011 IEM_DS3505
ZBAA,1983-07-04 03:00,ZBAA 040300Z AUTO 36008KT 19SM 29/11 RMK SLP984 T02900113 57003 IEM_DS3505
ZBAA,1983-07-04 06:00,ZBAA 040600Z AUTO 02006KT 19SM 31/13 RMK SLP976 T03070129 4////0211 57008 IEM_DS3505
ZBAA,1983-07-04 09:00,ZBAA 040900Z AUTO 36010KT 19SM 32/10 RMK SLP971 T03170098 57005 IEM_DS3505
ZBAA,1983-07-04 12:00,ZBAA 041200Z AUTO 00000KT 19SM 28/13 RMK SLP986 T02810130 52015 IEM_DS3505
ZBAA,1983-07-04 15:00,ZBAA 041500Z AUTO 00000KT 16SM 24/17 RMK SLP000 T02390170 52014 IEM_DS3505
ZBAA,1983-07-04 18:00,ZBAA 041800Z AUTO 00000KT 12SM 22/18 RMK SLP006 T02180175 40319//// 52006 IEM_DS3505
ZBAA,1983-07-04 21:00,ZBAA 042100Z AUTO 00000KT 19SM 20/16 RMK SLP019 T02050158 52012 IEM_DS3505
ZBAA,1983-07-05 00:00,ZBAA 050000Z AUTO 00000KT 9SM 26/16 RMK SLP031 T02600156 52013 IEM_DS3505
ZBAA,1983-07-05 03:00,ZBAA 050300Z AUTO 02004KT 19SM 29/15 RMK SLP030 T02930147 57002 IEM_DS3505
ZBAA,1983-07-05 06:00,ZBAA 050600Z AUTO 09004KT 19SM 31/15 RMK SLP020 T03140146 4////0199 57010 IEM_DS3505
ZBAA,1983-07-05 09:00,ZBAA 050900Z AUTO 02004KT 19SM 32/16 RMK SLP020 T03170158 54000 IEM_DS3505
ZBAA,1983-07-05 12:00,ZBAA 051200Z AUTO 00000KT 19SM 29/16 RMK SLP024 T02890165 52005 IEM_DS3505
ZBAA,1983-07-05 15:00,ZBAA 051500Z AUTO 18006KT 19SM 27/18 RMK SLP040 T02710175 52016 IEM_DS3505
ZBAA,1983-07-05 18:00,ZBAA 051800Z AUTO 00000KT 19SM 24/18 RMK SLP041 T02430178 40321//// 52001 IEM_DS3505
ZBAA,1983-07-05 21:00,ZBAA 052100Z AUTO 02006KT 7SM 22/18 RMK SLP043 T02210181 52002 IEM_DS3505
ZBAA,1983-07-06 00:00,ZBAA 060000Z AUTO 02006KT 7SM 25/18 RMK SLP052 T02460182 52009 IEM_DS3505
ZBAA,1983-07-06 03:00,ZBAA 060300Z AUTO 07004KT 9SM 28/18 RMK SLP046 T02850183 57005 IEM_DS3505
ZBAA,1983-07-06 06:00,ZBAA 060600Z AUTO 00000KT 11SM 31/17 RMK SLP025 T03120166 4////0217 57021 IEM_DS3505
ZBAA,1983-07-06 09:00,ZBAA 060900Z AUTO 00000KT 9SM 32/16 RMK SLP012 T03240156 57013 IEM_DS3505
ZBAA,1983-07-06 12:00,ZBAA 061200Z AUTO 16002KT 5SM 30/17 RMK SLP014 T03000168 52002 IEM_DS3505
ZBAA,1983-07-06 15:00,ZBAA 061500Z AUTO 00000KT 5SM 26/19 RMK SLP016 T02620194 52002 IEM_DS3505
ZBAA,1983-07-06 18:00,ZBAA 061800Z AUTO 16002KT 6SM 26/18 RMK SLP012 T02630183 40328//// 57004 IEM_DS3505
ZBAA,1983-07-06 21:00,ZBAA 062100Z AUTO 00000KT 4SM 24/19 RMK SLP013 T02420189 52001 IEM_DS3505
ZBAA,1983-07-07 00:00,ZBAA 070000Z AUTO 02004KT 4SM 26/19 RMK SLP017 T02550189 52004 IEM_DS3505
ZBAA,1983-07-07 03:00,ZBAA 070300Z AUTO 00000KT 4SM 28/19 RMK SLP019 T02750189 52001 IEM_DS3505
ZBAA,1983-07-07 06:00,ZBAA 070600Z AUTO 00000KT 4SM 30/19 RMK SLP004 T03030191 4////0237 57014 IEM_DS3505
ZBAA,1983-07-07 09:00,ZBAA 070900Z AUTO 20008KT 4SM 33/19 RMK SLP980 T03280193 57024 IEM_DS3505
ZBAA,1983-07-07 12:00,ZBAA 071200Z AUTO 18006KT 5SM 30/20 RMK SLP984 T03000199 52004 IEM_DS3505
ZBAA,1983-07-07 15:00,ZBAA 071500Z AUTO 11010KT 6SM 27/19 RMK SLP019 T02690191 52035 IEM_DS3505
ZBAA,1983-07-07 18:00,ZBAA 071800Z AUTO 00000KT 6SM 24/18 RMK SLP029 T02360179 40331//// 52010 IEM_DS3505
ZBAA,1983-07-07 21:00,ZBAA 072100Z AUTO 00000KT 7SM 22/18 RMK SLP025 T02150185 57004 IEM_DS3505
ZBAA,1983-07-08 00:00,ZBAA 080000Z AUTO 04006KT 4SM 26/19 RMK SLP034 T02590189 52009 IEM_DS3505
ZBAA,1983-07-08 03:00,ZBAA 080300Z AUTO 02004KT 7SM 30/19 RMK SLP039 T02990191 52005 IEM_DS3505
ZBAA,1983-07-08 06:00,ZBAA 080600Z AUTO 07004KT 19SM 33/18 RMK SLP032 T03290176 4////0212 57007 IEM_DS3505
ZBAA,1983-07-08 09:00,ZBAA 080900Z AUTO 18006KT 12SM 33/18 RMK SLP024 T03310183 57008 IEM_DS3505
ZBAA,1983-07-08 12:00,ZBAA 081200Z AUTO 00000KT 6SM 30/20 RMK SLP034 T03050203 52010 IEM_DS3505
ZBAA,1983-07-08 15:00,ZBAA 081500Z AUTO 16004KT 6SM 28/19 RMK SLP057 T02830189 52023 IEM_DS3505
ZBAA,1983-07-08 18:00,ZBAA 081800Z AUTO 00000KT 6SM 26/20 RMK SLP067 T02620200 40344//// 52010 IEM_DS3505
ZBAA,1983-07-08 21:00,ZBAA 082100Z AUTO 00000KT 6SM 24/20 RMK SLP075 T02400197 52008 IEM_DS3505
ZBAA,1983-07-09 00:00,ZBAA 090000Z AUTO 36002KT 5SM 26/20 RMK T02580202 52007 IEM_DS3505
ZBAA,1983-07-09 03:00,ZBAA 090300Z AUTO 04002KT 2SM 29/20 RMK SLP082 T02940201 54000 IEM_DS3505
ZBAA,1983-07-09 05:00,ZBAA 090500Z AUTO 24004KT 6SM 31/18 A2974 RMK T03100180 IEM_DS3505
ZBAA,1983-07-09 06:00,ZBAA 090600Z AUTO 20006KT 4SM 30/20 RMK SLP076 T02960200 4////0235 57006 IEM_DS3505
ZBAA,1983-07-09 07:00,ZBAA 090700Z AUTO 21008KT 6SM 30/17 A2971 RMK T03000170 IEM_DS3505
ZBAA,1983-07-09 08:00,ZBAA 090800Z AUTO 21004KT 6SM 30/20 A2971 RMK T03000200 IEM_DS3505
ZBAA,1983-07-09 09:00,ZBAA 090900Z AUTO 20014KT 5SM 29/14 A2971 RMK SLP076 T02880144 57001 IEM_DS3505
ZBAA,1983-07-09 10:00,ZBAA 091000Z AUTO 21010KT 6SM 29/13 A2971 RMK T02900130 IEM_DS3505
ZBAA,1983-07-09 12:00,ZBAA 091200Z AUTO 20010KT 12SM 27/14 RMK SLP079 T02690135 52003 IEM_DS3505
ZBAA,1983-07-09 15:00,ZBAA 091500Z AUTO 20006KT 12SM 24/16 RMK SLP086 T02450163 52008 IEM_DS3505
ZBAA,1983-07-09 18:00,ZBAA 091800Z AUTO 22006KT 9SM 22/18 RMK SLP088 T02250179 40307//// 52001 IEM_DS3505
ZBAA,1983-07-09 21:00,ZBAA 092100Z AUTO 20002KT 4SM 21/19 RMK SLP090 T02120190 52002 IEM_DS3505
ZBAA,1983-07-10 00:00,ZBAA 100000Z AUTO 00000KT 3SM 24/19 RMK SLP096 T02450194 52006 IEM_DS3505
ZBAA,1983-07-10 03:00,ZBAA 100300Z AUTO 18002KT 5SM 29/18 RMK SLP090 T02900178 57006 IEM_DS3505
ZBAA,1983-07-10 06:00,ZBAA 100600Z AUTO 18008KT 8SM 31/17 RMK SLP080 T03140168 4////0209 57009 IEM_DS3505
ZBAA,1983-07-10 09:00,ZBAA 100900Z AUTO 18010KT 9SM 32/18 RMK SLP070 T03190175 57011 IEM_DS3505
ZBAA,1983-07-10 12:00,ZBAA 101200Z AUTO 20008KT 6SM 29/18 RMK SLP077 T02890184 52007 IEM_DS3505
ZBAA,1983-07-10 15:00,ZBAA 101500Z AUTO 20004KT 6SM 26/20 RMK SLP084 T02600197 52008 IEM_DS3505
ZBAA,1983-07-10 18:00,ZBAA 101800Z AUTO 18002KT 6SM 25/20 RMK SLP081 T02460200 40326//// 57003 IEM_DS3505
ZBAA,1983-07-10 21:00,ZBAA 102100Z AUTO 00000KT 3SM 24/21 RMK SLP080 T02360209 57001 IEM_DS3505
ZBAA,1983-07-11 00:00,ZBAA 110000Z AUTO 00000KT 2 1/2SM 25/21 RMK SLP080 T02510213 54000 IEM_DS3505
ZBAA,1983-07-11 03:00,ZBAA 110300Z AUTO 18010KT 4SM 29/21 RMK SLP071 T02930210 57009 IEM_DS3505
ZBAA,1983-07-11 06:00,ZBAA 110600Z AUTO 18010KT 5SM 31/20 RMK SLP055 T03100196 4////0227 57016 IEM_DS3505
ZBAA,1983-07-11 09:00,ZBAA 110900Z AUTO 20012KT 6SM 31/19 RMK SLP049 T03060194 57006 IEM_DS3505
ZBAA,1983-07-11 12:00,ZBAA 111200Z AUTO 00000KT 5SM 28/21 RMK SLP049 T02770213 57001 IEM_DS3505
ZBAA,1983-07-11 15:00,ZBAA 111500Z AUTO 00000KT 4SM 26/22 RMK SLP053 T02630223 52005 IEM_DS3505
ZBAA,1983-07-11 18:00,ZBAA 111800Z AUTO 00000KT 3SM 26/22 RMK SLP052 T02570218 40314//// 57001 IEM_DS3505
ZBAA,1983-07-11 21:00,ZBAA 112100Z AUTO 00000KT 2 1/2SM 25/22 RMK SLP052 T02490224 54000 IEM_DS3505
ZBAA,1983-07-12 00:00,ZBAA 120000Z AUTO 02002KT 1 1/2SM 27/22 RMK SLP063 T02740223 52011 IEM_DS3505
ZBAA,1983-07-12 02:00,ZBAA 120200Z AUTO 00000KT 4SM 29/22 A2968 RMK T02900220 IEM_DS3505
ZBAA,1983-07-12 03:00,ZBAA 120300Z AUTO 34004KT 4SM 30/22 A2968 RMK SLP059 T03000220 57004 IEM_DS3505
ZBAA,1983-07-12 04:00,ZBAA 120400Z AUTO 02004KT 6SM 30/19 A2965 RMK T03000190 IEM_DS3505
ZBAA,1983-07-12 05:00,ZBAA 120500Z AUTO 00000KT 6SM 30/20 A2965 RMK T03000200 IEM_DS3505
ZBAA,1983-07-12 06:00,ZBAA 120600Z AUTO 00000KT 4SM 30/21 A2965 RMK SLP050 T02960210 4////0246 57009 IEM_DS3505
ZBAA,1983-07-12 08:00,ZBAA 120800Z AUTO 13006KT 6SM 30/20 A2962 RMK T03000200 IEM_DS3505
ZBAA,1983-07-12 09:00,ZBAA 120900Z AUTO 18006KT 4SM 29/21 A2962 RMK SLP046 T02930210 57004 IEM_DS3505
ZBAA,1983-07-12 12:00,ZBAA 121200Z AUTO 18008KT 1 1/4SM 27/23 RMK SLP049 T02670234 52003 IEM_DS3505
ZBAA,1983-07-12 15:00,ZBAA 121500Z AUTO 16006KT 1 1/4SM 25/23 RMK SLP057 T02520229 52008 IEM_DS3505
ZBAA,1983-07-12 18:00,ZBAA 121800Z AUTO 18004KT 1 1/4SM 23/21 RMK SLP059 T02330210 40303//// 52001 IEM_DS3505
ZBAA,1983-07-12 21:00,ZBAA 122100Z AUTO 16004KT 1 1/4SM 23/21 RMK SLP055 T02270211 57004 IEM_DS3505
ZBAA,1983-07-13 00:00,ZBAA 130000Z AUTO 20004KT 3SM 22/20 RMK 60004 70004 SLP045 T02230205 57010 IEM_DS3505
ZBAA,1983-07-13 03:00,ZBAA 130300Z AUTO 00000KT 1 1/4SM 22/21 RMK SLP028 T02190210 57017 IEM_DS3505
ZBAA,1983-07-13 06:00,ZBAA 130600Z AUTO 00000KT 3SM 23/22 RMK 60043 SLP013 T02270218 4////0214 57015 IEM_DS3505
ZBAA,1983-07-13 09:00,ZBAA 130900Z AUTO 00000KT 3SM 25/22 RMK SLP999 T02470220 57013 IEM_DS3505
ZBAA,1983-07-13 12:00,ZBAA 131200Z AUTO 00000KT 4SM 24/22 RMK 60001 SLP002 T02390219 52003 IEM_DS3505
ZBAA,1983-07-13 15:00,ZBAA 131500Z AUTO 16004KT 5SM 23/22 RMK SLP997 T02300218 57006 IEM_DS3505
ZBAA,1983-07-13 18:00,ZBAA 131800Z AUTO 18006KT 2 1/2SM 22/22 RMK 60001 SLP976 T02240216 40251//// 57021 IEM_DS3505
ZBAA,1983-07-13 21:00,ZBAA 132100Z AUTO 36002KT 3SM 20/19 RMK SLP981 T01970187 52005 IEM_DS3505
ZBAA,1983-07-14 00:00,ZBAA 140000Z AUTO 00000KT 3SM 22/17 RMK 70043 SLP990 T02170168 52009 IEM_DS3505
ZBAA,1983-07-14 03:00,ZBAA 140300Z AUTO 29016KT 19SM 26/09 RMK SLP999 T02570090 52010 IEM_DS3505
ZBAA,1983-07-14 06:00,ZBAA 140600Z AUTO 34010KT 19SM 27/12 RMK SLP984 T02680119 4////0185 57015 IEM_DS3505
ZBAA,1983-07-14 09:00,ZBAA 140900Z AUTO 20006KT 19SM 30/11 RMK SLP966 T02980108 57008 IEM_DS3505
ZBAA,1983-07-14 12:00,ZBAA 141200Z AUTO 20008KT 19SM 27/14 RMK SLP964 T02660137 57002 IEM_DS3505
ZBAA,1983-07-14 15:00,ZBAA 141500Z AUTO 00000KT 9SM 22/16 RMK SLP985 T02250161 52021 IEM_DS3505
ZBAA,1983-07-14 18:00,ZBAA 141800Z AUTO 27002KT 9SM 23/11 RMK SLP987 T02320112 40312//// 52002 IEM_DS3505
ZBAA,1983-07-14 21:00,ZBAA 142100Z AUTO 27002KT 19SM 23/11 RMK SLP991 T02310110 52004 IEM_DS3505
ZBAA,1983-07-15 00:00,ZBAA 150000Z AUTO 27004KT 19SM 27/10 RMK SLP999 T02710104 52008 IEM_DS3505
ZBAA,1983-07-15 03:00,ZBAA 150300Z AUTO 29006KT 19SM 30/10 RMK SLP995 T03030099 57004 IEM_DS3505
ZBAA,1983-07-15 06:00,ZBAA 150600Z AUTO 34006KT 19SM 33/12 RMK SLP982 T03260115 4////0210 57013 IEM_DS3505
ZBAA,1983-07-15 09:00,ZBAA 150900Z AUTO 27008KT 19SM 33/10 RMK SLP976 T03290096 57006 IEM_DS3505
ZBAA,1983-07-15 12:00,ZBAA 151200Z AUTO 09004KT 19SM 29/17 RMK SLP983 T02910168 52007 IEM_DS3505
ZBAA,1983-07-15 15:00,ZBAA 151500Z AUTO 00000KT 9SM 24/18 RMK SLP003 T02370182 52020 IEM_DS3505
ZBAA,1983-07-15 18:00,ZBAA 151800Z AUTO 09004KT 6SM 22/18 RMK SLP002 T02180181 40332//// 57001 IEM_DS3505
ZBAA,1983-07-15 21:00,ZBAA 152100Z AUTO 04004KT 19SM 21/15 RMK SLP005 T02070152 IEM_DS3505
ZBAA,1983-07-16 00:00,ZBAA 160000Z AUTO 02006KT 19SM 26/15 RMK SLP017 T02580153 52012 IEM_DS3505
ZBAA,1983-07-16 03:00,ZBAA 160300Z AUTO 36006KT 16SM 31/15 RMK SLP017 T03140148 54000 IEM_DS3505
ZBAA,1983-07-16 06:00,ZBAA 160600Z AUTO 09002KT 19SM 34/15 RMK SLP009 T03350150 4////0196 57008 IEM_DS3505
ZBAA,1983-07-16 09:00,ZBAA 160900Z AUTO 11004KT 12SM 34/15 RMK SLP007 T03350150 57002 IEM_DS3505
ZBAA,1983-07-16 12:00,ZBAA 161200Z AUTO 16004KT 12SM 31/16 RMK SLP012 T03080158 52005 IEM_DS3505
ZBAA,1983-07-16 15:00,ZBAA 161500Z AUTO 00000KT 12SM 26/19 RMK SLP023 T02550194 52011 IEM_DS3505
ZBAA,1983-07-16 18:00,ZBAA 161800Z AUTO 02004KT 12SM 23/19 RMK SLP026 T02340192 40348//// 52003 IEM_DS3505
ZBAA,1983-07-16 21:00,ZBAA 162100Z AUTO 02004KT 7SM 23/18 RMK SLP027 T02290180 52001 IEM_DS3505
ZBAA,1983-07-17 00:00,ZBAA 170000Z AUTO 04006KT 6SM 26/17 RMK SLP038 T02610172 52011 IEM_DS3505
ZBAA,1983-07-17 03:00,ZBAA 170300Z AUTO 02004KT 6SM 31/18 RMK SLP039 T03120180 52001 IEM_DS3505
ZBAA,1983-07-17 06:00,ZBAA 170600Z AUTO 16008KT 6SM 34/19 RMK SLP028 T03440189 4////0225 57011 IEM_DS3505
ZBAA,1983-07-17 09:00,ZBAA 170900Z AUTO 20010KT 7SM 37/14 RMK SLP015 T03720138 57013 IEM_DS3505
ZBAA,1983-07-17 12:00,ZBAA 171200Z AUTO 22008KT 9SM 33/18 RMK SLP029 T03270184 52014 IEM_DS3505
ZBAA,1983-07-17 15:00,ZBAA 171500Z AUTO 16006KT 9SM 30/19 RMK SLP042 T02950193 52013 IEM_DS3505
ZBAA,1983-07-17 18:00,ZBAA 171800Z AUTO 34006KT 9SM 26/18 RMK SLP062 T02560183 40372//// 52020 IEM_DS3505
ZBAA,1983-07-17 21:00,ZBAA 172100Z AUTO 22002KT 7SM 23/18 RMK SLP060 T02280180 57002 IEM_DS3505
ZBAA,1983-07-18 00:00,ZBAA 180000Z AUTO 18006KT 4SM 27/17 RMK SLP062 T02720167 52002 IEM_DS3505
ZBAA,1983-07-18 03:00,ZBAA 180300Z AUTO 18006KT 6SM 31/19 RMK SLP058 T03120191 57004 IEM_DS3505
ZBAA,1983-07-18 06:00,ZBAA 180600Z AUTO 16012KT 9SM 33/16 RMK SLP049 T03310163 4////0223 57009 IEM_DS3505
ZBAA,1983-07-18 09:00,ZBAA 180900Z AUTO 16006KT 9SM 32/17 RMK SLP044 T03250172 57005 IEM_DS3505
ZBAA,1983-07-18 12:00,ZBAA 181200Z AUTO 20010KT 7SM 30/19 RMK SLP046 T02990191 52002 IEM_DS3505
ZBAA,1983-07-18 15:00,ZBAA 181500Z AUTO 20010KT 12SM 26/17 RMK SLP052 T02640172 52006 IEM_DS3505
ZBAA,1983-07-18 18:00,ZBAA 181800Z AUTO 20008KT 6SM 24/17 RMK SLP042 T02440167 40344//// 57010 IEM_DS3505
ZBAA,1983-07-18 21:00,ZBAA 182100Z AUTO 16004KT 6SM 23/18 RMK SLP024 T02300184 57018 IEM_DS3505
ZBAA,1983-07-19 00:00,ZBAA 190000Z AUTO 02002KT 4SM 24/19 RMK SLP027 T02390194 52002 IEM_DS3505
ZBAA,1983-07-19 01:00,ZBAA 190100Z AUTO 28004KT 6SM 24/19 A2956 RMK T02400190 IEM_DS3505
ZBAA,1983-07-19 02:00,ZBAA 190200Z AUTO 00000KT 7SM 27/19 A2956 RMK T02700190 IEM_DS3505
ZBAA,1983-07-19 03:00,ZBAA 190300Z AUTO 00000KT 7SM 28/19 A2956 RMK SLP014 T02800190 57012 IEM_DS3505
ZBAA,1983-07-19 04:00,ZBAA 190400Z AUTO 12008KT 7SM 29/19 A2953 RMK T02900190 IEM_DS3505
ZBAA,1983-07-19 05:00,ZBAA 190500Z AUTO 16004KT 7SM 29/20 A2953 RMK T02900200 IEM_DS3505
ZBAA,1983-07-19 06:00,ZBAA 190600Z AUTO 16008KT 4SM 30/20 RMK SLP998 T02950199 4////0224 57016 IEM_DS3505
ZBAA,1983-07-19 07:00,ZBAA 190700Z AUTO 18008KT 7SM 30/20 A2947 RMK T03000200 IEM_DS3505
ZBAA,1983-07-19 08:00,ZBAA 190800Z AUTO 22010KT 7SM 30/19 A2947 RMK T03000190 IEM_DS3505
ZBAA,1983-07-19 09:00,ZBAA 190900Z AUTO 22008KT 6SM 31/19 RMK SLP984 T03090191 57014 IEM_DS3505
ZBAA,1983-07-19 10:00,ZBAA 191000Z AUTO 18012KT 7SM 30/19 A2944 RMK T03000190 IEM_DS3505
ZBAA,1983-07-19 12:00,ZBAA 191200Z AUTO 18006KT 6SM 29/19 RMK SLP979 T02890188 57005 IEM_DS3505
ZBAA,1983-07-19 15:00,ZBAA 191500Z AUTO 20006KT 6SM 27/19 RMK SLP985 T02660189 52006 IEM_DS3505
ZBAA,1983-07-19 18:00,ZBAA 191800Z AUTO 20006KT 6SM 25/19 RMK SLP985 T02470193 40311//// 54000 IEM_DS3505
ZBAA,1983-07-19 21:00,ZBAA 192100Z AUTO 00000KT 5SM 22/19 RMK SLP983 T02160193 57002 IEM_DS3505
ZBAA,1983-07-20 00:00,ZBAA 200000Z AUTO 02008KT 6SM 25/20 RMK SLP990 T02480199 52007 IEM_DS3505
ZBAA,1983-07-20 03:00,ZBAA 200300Z AUTO 02004KT 2 1/2SM 29/21 RMK SLP986 T02880207 57004 IEM_DS3505
ZBAA,1983-07-20 06:00,ZBAA 200600Z AUTO 16008KT 4SM 33/20 RMK SLP970 T03280200 57016 IEM_DS3505
ZBAA,1983-07-20 09:00,ZBAA 200900Z AUTO 18008KT 9SM 34/19 RMK SLP962 T03400189 57008 IEM_DS3505
ZBAA,1983-07-20 12:00,ZBAA 201200Z AUTO 18004KT 9SM 31/20 RMK SLP962 T03080205 54000 IEM_DS3505
ZBAA,1983-07-20 15:00,ZBAA 201500Z AUTO 20002KT 6SM 28/22 RMK SLP967 T02790220 52005 IEM_DS3505
ZBAA,1983-07-20 18:00,ZBAA 201800Z AUTO 00000KT 4SM 26/22 RMK SLP966 T02590221 40342//// 54000 IEM_DS3505
ZBAA,1983-07-20 21:00,ZBAA 202100Z AUTO 34004KT 4SM 24/21 RMK SLP974 T02360212 52007 IEM_DS3505
ZBAA,1983-07-21 00:00,ZBAA 210000Z AUTO 04004KT 4SM 28/21 RMK SLP988 T02780212 52015 IEM_DS3505
ZBAA,1983-07-21 03:00,ZBAA 210300Z AUTO 02008KT 12SM 34/12 RMK SLP990 T03400115 52002 IEM_DS3505
ZBAA,1983-07-21 06:00,ZBAA 210600Z AUTO 02008KT 19SM 35/11 RMK SLP980 T03540108 4////0232 57010 IEM_DS3505
ZBAA,1983-07-21 09:00,ZBAA 210900Z AUTO 16008KT 16SM 35/12 RMK SLP978 T03500122 57002 IEM_DS3505
ZBAA,1983-07-21 12:00,ZBAA 211200Z AUTO 14004KT 9SM 32/14 RMK SLP986 T03230141 52008 IEM_DS3505
ZBAA,1983-07-21 15:00,ZBAA 211500Z AUTO 16008KT 7SM 29/16 RMK SLP999 T02900159 52013 IEM_DS3505
ZBAA,1983-07-21 18:00,ZBAA 211800Z AUTO 02004KT 6SM 25/19 RMK SLP000 T02530193 40366//// 52001 IEM_DS3505
ZBAA,1983-07-21 21:00,ZBAA 212100Z AUTO 02006KT 1 1/4SM 24/22 RMK SLP000 T02450224 54000 IEM_DS3505
ZBAA,1983-07-22 00:00,ZBAA 220000Z AUTO 02008KT 2 1/2SM 26/22 RMK SLP013 T02640221 52012 IEM_DS3505
ZBAA,1983-07-22 03:00,ZBAA 220300Z AUTO 07006KT 4SM 31/23 RMK SLP017 T03090230 52004 IEM_DS3505
ZBAA,1983-07-22 06:00,ZBAA 220600Z AUTO 36004KT 6SM 35/19 RMK SLP006 T03530189 4////0238 57010 IEM_DS3505
ZBAA,1983-07-22 09:00,ZBAA 220900Z AUTO 16004KT 6SM 36/14 RMK SLP998 T03640145 57008 IEM_DS3505
ZBAA,1983-07-22 12:00,ZBAA 221200Z AUTO 00000KT 6SM 34/19 RMK SLP003 T03350189 52005 IEM_DS3505
ZBAA,1983-07-22 15:00,ZBAA 221500Z AUTO 20008KT 9SM 31/20 RMK SLP010 T03090203 52007 IEM_DS3505
ZBAA,1983-07-22 18:00,ZBAA 221800Z AUTO 20008KT 7SM 28/21 RMK SLP005 T02820209 40368//// 57005 IEM_DS3505
ZBAA,1983-07-22 21:00,ZBAA 222100Z AUTO 00000KT 6SM 26/22 RMK SLP008 T02590219 52003 IEM_DS3505
ZBAA,1983-07-23 00:00,ZBAA 230000Z AUTO 36006KT 4SM 27/23 RMK SLP020 T02670226 52011 IEM_DS3505
ZBAA,1983-07-23 03:00,ZBAA 230300Z AUTO 00000KT 5SM 31/24 A2956 RMK SLP017 T03100240 57003 IEM_DS3505
ZBAA,1983-07-23 04:00,ZBAA 230400Z AUTO 12006KT 5SM 33/24 A2956 RMK T03300240 IEM_DS3505
ZBAA,1983-07-23 05:00,ZBAA 230500Z AUTO 08008KT 7SM 34/23 A2953 RMK T03400230 IEM_DS3505
ZBAA,1983-07-23 06:00,ZBAA 230600Z AUTO 09006KT 6SM 36/19 A2953 RMK SLP001 T03590194 4////0252 57015 IEM_DS3505
ZBAA,1983-07-23 07:00,ZBAA 230700Z AUTO 16006KT 6SM 35/22 A2950 RMK T03500220 IEM_DS3505
ZBAA,1983-07-23 08:00,ZBAA 230800Z AUTO 13008KT 6SM 36/22 A2947 RMK T03600220 IEM_DS3505
ZBAA,1983-07-23 09:00,ZBAA 230900Z AUTO 18004KT 6SM 37/18 A2947 RMK SLP991 T03660182 57010 IEM_DS3505
ZBAA,1983-07-23 10:00,ZBAA 231000Z AUTO 11004KT 6SM 34/24 A2947 RMK T03400240 IEM_DS3505
ZBAA,1983-07-23 12:00,ZBAA 231200Z AUTO 20004KT 5SM 33/20 RMK SLP003 T03300203 52012 IEM_DS3505
ZBAA,1983-07-23 15:00,ZBAA 231500Z AUTO 20008KT 6SM 30/21 RMK SLP016 T03000206 52012 IEM_DS3505
ZBAA,1983-07-23 18:00,ZBAA 231800Z AUTO 14006KT 5SM 27/22 RMK SLP015 T02720220 40367//// 57001 IEM_DS3505
ZBAA,1983-07-23 21:00,ZBAA 232100Z AUTO 00000KT 3SM 25/22 RMK SLP015 T02530223 54000 IEM_DS3505
ZBAA,1983-07-24 00:00,ZBAA 240000Z AUTO 34002KT 1 1/2SM 26/24 RMK T02650237 52016 IEM_DS3505
ZBAA,1983-07-24 03:00,ZBAA 240300Z AUTO 11010KT 1 1/4SM 29/25 RMK SLP034 T02870246 52003 IEM_DS3505
ZBAA,1983-07-24 06:00,ZBAA 240600Z AUTO 14008KT 5SM 30/22 RMK SLP022 T03050225 4////0248 57012 IEM_DS3505
ZBAA,1983-07-24 09:00,ZBAA 240900Z AUTO 16010KT 6SM 30/22 RMK SLP014 T02970219 57008 IEM_DS3505
ZBAA,1983-07-24 12:00,ZBAA 241200Z AUTO 14006KT 6SM 28/21 RMK SLP026 T02800208 52012 IEM_DS3505
ZBAA,1983-07-24 15:00,ZBAA 241500Z AUTO 18006KT 6SM 26/22 RMK SLP030 T02560221 52004 IEM_DS3505
ZBAA,1983-07-24 18:00,ZBAA 241800Z AUTO 16002KT 6SM 24/22 RMK SLP027 T02390216 40309//// 57003 IEM_DS3505
ZBAA,1983-07-24 21:00,ZBAA 242100Z AUTO 20006KT 6SM 24/21 RMK SLP023 T02350214 57005 IEM_DS3505
ZBAA,1983-07-25 00:00,ZBAA 250000Z AUTO 18002KT 2 1/2SM 24/22 RMK SLP029 T02370219 52006 IEM_DS3505
ZBAA,1983-07-25 03:00,ZBAA 250300Z AUTO 20006KT 4SM 25/22 RMK SLP027 T02540221 57002 IEM_DS3505
ZBAA,1983-07-25 06:00,ZBAA 250600Z AUTO 16010KT 4SM 29/23 RMK SLP017 T02870234 4////0228 57010 IEM_DS3505
ZBAA,1983-07-25 09:00,ZBAA 250900Z AUTO 20008KT 4SM 31/22 RMK SLP004 T03090223 57012 IEM_DS3505
ZBAA,1983-07-25 12:00,ZBAA 251200Z AUTO 36002KT 5SM 27/23 RMK 60001 SLP007 T02730229 52003 IEM_DS3505
ZBAA,1983-07-25 15:00,ZBAA 251500Z AUTO 00000KT 5SM 25/20 RMK SLP031 T02540203 52023 IEM_DS3505
ZBAA,1983-07-25 18:00,ZBAA 251800Z AUTO 04004KT 4SM 25/22 RMK SLP030 T02510223 40317//// 57001 IEM_DS3505
ZBAA,1983-07-25 21:00,ZBAA 252100Z AUTO 04006KT 4SM 25/22 RMK SLP032 T02460224 52003 IEM_DS3505
ZBAA,1983-07-26 00:00,ZBAA 260000Z AUTO 04006KT 6SM 24/19 RMK SLP053 T02410190 52020 IEM_DS3505
ZBAA,1983-07-26 02:00,ZBAA 260200Z AUTO 02004KT 6SM 27/20 A2965 RMK T02700200 IEM_DS3505
ZBAA,1983-07-26 03:00,ZBAA 260300Z AUTO 00000KT 6SM 29/21 A2965 RMK SLP049 T02900211 57003 IEM_DS3505
ZBAA,1983-07-26 04:00,ZBAA 260400Z AUTO 00000KT 7SM 29/23 A2965 RMK T02900230 IEM_DS3505
ZBAA,1983-07-26 05:00,ZBAA 260500Z AUTO 11006KT 6SM 31/24 A2962 RMK T03100240 IEM_DS3505
ZBAA,1983-07-26 06:00,ZBAA 260600Z AUTO 00000KT 6SM 31/24 A2962 RMK SLP036 T03100240 4////0227 57013 IEM_DS3505
ZBAA,1983-07-26 07:00,ZBAA 260700Z AUTO 15006KT 6SM 31/24 A2959 RMK T03100240 IEM_DS3505
ZBAA,1983-07-26 08:00,ZBAA 260800Z AUTO 13006KT 6SM 32/25 A2959 RMK T03200250 IEM_DS3505
ZBAA,1983-07-26 09:00,ZBAA 260900Z AUTO 02004KT 5SM 33/25 RMK SLP025 T03260253 57011 IEM_DS3505
ZBAA,1983-07-26 12:00,ZBAA 261200Z AUTO 36002KT 5SM 30/25 RMK SLP034 T02980253 52009 IEM_DS3505
ZBAA,1983-07-26 15:00,ZBAA 261500Z AUTO 00000KT 4SM 28/25 RMK SLP039 T02800253 52005 IEM_DS3505
ZBAA,1983-07-26 18:00,ZBAA 261800Z AUTO 02004KT 1SM 27/25 RMK SLP042 T02700247 40336//// 52003 IEM_DS3505
ZBAA,1983-07-26 21:00,ZBAA 262100Z AUTO 36004KT 1 1/4SM 26/24 RMK SLP050 T02620245 52008 IEM_DS3505
ZBAA,1983-07-27 00:00,ZBAA 270000Z AUTO 36002KT 1 1/2SM 27/25 RMK SLP056 T02740247 52006 IEM_DS3505
ZBAA,1983-07-27 03:00,ZBAA 270300Z AUTO 04002KT 1SM 31/26 RMK SLP052 T03070255 57004 IEM_DS3505
ZBAA,1983-07-27 06:00,ZBAA 270600Z AUTO 11004KT 5SM 34/23 RMK SLP021 T03410228 4////0258 57031 IEM_DS3505
ZBAA,1983-07-27 09:00,ZBAA 270900Z AUTO 29010KT 3SM 24/23 RMK SLP041 T02430233 52019 IEM_DS3505
ZBAA,1983-07-27 12:00,ZBAA 271200Z AUTO 09004KT 9SM 25/23 RMK 60020 SLP041 T02490234 54000 IEM_DS3505
ZBAA,1983-07-27 15:00,ZBAA 271500Z AUTO 00000KT 6SM 24/23 RMK SLP036 T02400227 57004 IEM_DS3505
ZBAA,1983-07-27 18:00,ZBAA 271800Z AUTO 00000KT 4SM 24/23 RMK SLP037 T02400228 40345//// 52001 IEM_DS3505
ZBAA,1983-07-27 21:00,ZBAA 272100Z AUTO 00000KT 4SM 24/23 RMK 70020 SLP029 T02390229 57009 IEM_DS3505
ZBAA,1983-07-28 00:00,ZBAA 280000Z AUTO 00000KT 2 1/2SM 25/23 RMK SLP030 T02480230 52001 IEM_DS3505
ZBAA,1983-07-28 03:00,ZBAA 280300Z AUTO 00000KT 2SM 26/23 RMK SLP026 T02640230 57004 IEM_DS3505
ZBAA,1983-07-28 06:00,ZBAA 280600Z AUTO 00000KT 1SM 26/24 RMK 60004 SLP018 T02650241 4////0236 57008 IEM_DS3505
ZBAA,1983-07-28 09:00,ZBAA 280900Z AUTO 00000KT 2SM 28/24 RMK SLP004 T02770241 57013 IEM_DS3505
ZBAA,1983-07-28 12:00,ZBAA 281200Z AUTO 00000KT 2SM 27/24 RMK SLP004 T02680243 54000 IEM_DS3505
ZBAA,1983-07-28 15:00,ZBAA 281500Z AUTO 02004KT 1SM 26/24 RMK SLP006 T02590243 52002 IEM_DS3505
ZBAA,1983-07-28 18:00,ZBAA 281800Z AUTO 00000KT 1SM 26/24 RMK SLP010 T02560242 40286//// 52004 IEM_DS3505
ZBAA,1983-07-28 21:00,ZBAA 282100Z AUTO 02004KT 1SM 25/24 RMK SLP008 T02520239 57002 IEM_DS3505
ZBAA,1983-07-29 00:00,ZBAA 290000Z AUTO 00000KT 1SM 27/24 RMK 70004 SLP014 T02660242 52005 IEM_DS3505
ZBAA,1983-07-29 03:00,ZBAA 290300Z AUTO 00000KT 2SM 31/24 RMK SLP016 T03080237 52003 IEM_DS3505
ZBAA,1983-07-29 06:00,ZBAA 290600Z AUTO 18004KT 4SM 34/24 RMK SLP002 T03370238 4////0249 57013 IEM_DS3505
ZBAA,1983-07-29 09:00,ZBAA 290900Z AUTO 20002KT 2 1/2SM 33/24 RMK SLP995 T03340241 57007 IEM_DS3505
ZBAA,1983-07-29 12:00,ZBAA 291200Z AUTO 18002KT 2 1/2SM 32/25 RMK SLP003 T03160251 52008 IEM_DS3505
ZBAA,1983-07-29 15:00,ZBAA 291500Z AUTO 16004KT 2 1/2SM 30/25 RMK SLP009 T02990250 52006 IEM_DS3505
ZBAA,1983-07-29 18:00,ZBAA 291800Z AUTO 00000KT 2SM 28/26 RMK SLP006 T02810260 40344//// 57003 IEM_DS3505
ZBAA,1983-07-29 21:00,ZBAA 292100Z AUTO 02004KT 1SM 27/26 RMK SLP012 T02700260 52005 IEM_DS3505
ZBAA,1983-07-30 00:00,ZBAA 300000Z AUTO 02004KT 1SM 28/26 RMK SLP021 T02780260 52009 IEM_DS3505
ZBAA,1983-07-30 03:00,ZBAA 300300Z AUTO 36004KT 1SM 28/26 RMK SLP026 T02830265 52005 IEM_DS3505
ZBAA,1983-07-30 05:00,ZBAA 300500Z AUTO 36004KT 1SM 28/27 A2959 RMK T02800270 IEM_DS3505
ZBAA,1983-07-30 06:00,ZBAA 300600Z AUTO 34004KT 7SM 25/23 A2962 RMK 60020 T02540234 4////0252 52010 IEM_DS3505
ZBAA,1983-07-30 07:00,ZBAA 300700Z AUTO 35008KT 7SM 26/23 A2962 RMK T02600230 IEM_DS3505
ZBAA,1983-07-30 08:00,ZBAA 300800Z AUTO 00000KT 7SM 26/22 A2965 RMK T02600220 IEM_DS3505
ZBAA,1983-07-30 09:00,ZBAA 300900Z AUTO 00000KT 9SM 25/21 RMK SLP045 T02490207 52008 IEM_DS3505
ZBAA,1983-07-30 12:00,ZBAA 301200Z AUTO 36008KT 19SM 24/19 RMK 60008 SLP042 T02390188 57003 IEM_DS3505
ZBAA,1983-07-30 15:00,ZBAA 301500Z AUTO 00000KT 19SM 24/20 RMK SLP053 T02370199 52011 IEM_DS3505
ZBAA,1983-07-30 18:00,ZBAA 301800Z AUTO 00000KT 5SM 23/20 RMK SLP051 T02310203 40287//// 57002 IEM_DS3505
ZBAA,1983-07-30 21:00,ZBAA 302100Z AUTO 00000KT 19SM 23/21 RMK SLP052 T02270207 52001 IEM_DS3505
ZBAA,1983-07-31 00:00,ZBAA 310000Z AUTO 00000KT 12SM 25/20 RMK 70024 SLP065 T02540196 52013 IEM_DS3505
ZBAA,1983-07-31 03:00,ZBAA 310300Z AUTO 00000KT 12SM 31/17 RMK SLP067 T03060168 52003 IEM_DS3505
ZBAA,1983-07-31 06:00,ZBAA 310600Z AUTO 00000KT 19SM 33/17 RMK SLP060 T03340168 4////0223 57007 IEM_DS3505
ZBAA,1983-07-31 09:00,ZBAA 310900Z AUTO 20006KT 12SM 33/18 RMK SLP057 T03280181 57003 IEM_DS3505
ZBAA,1983-07-31 12:00,ZBAA 311200Z AUTO 20002KT 12SM 30/21 RMK SLP063 T02980212 52006 IEM_DS3505
ZBAA,1983-07-31 15:00,ZBAA 311500Z AUTO 20004KT 7SM 28/22 RMK SLP068 T02790220 52005 IEM_DS3505
ZBAA,1983-07-31 18:00,ZBAA 311800Z AUTO 00000KT 6SM 26/22 RMK SLP066 T02590224 40346//// 57002 IEM_DS3505
ZBAA,1983-08-01 00:00,ZBAA 010000Z AUTO 36008KT 6SM 22/21 RMK 60012 70012 SLP082 T02190207 52007 IEM_DS3505
ZBAA,1983-08-01 03:00,ZBAA 010300Z AUTO 02006KT 11SM 25/21 RMK SLP069 T02470214 57013 IEM_DS3505
ZBAA,1983-08-01 06:00,ZBAA 010600Z AUTO 16004KT 6SM 28/20 RMK SLP052 T02820205 4////0215 57016 IEM_DS3505
ZBAA,1983-08-01 09:00,ZBAA 010900Z AUTO 16006KT 8SM 28/22 RMK SLP043 T02850217 57010 IEM_DS3505
ZBAA,1983-08-01 12:00,ZBAA 011200Z AUTO 16006KT 6SM 28/22 RMK SLP042 T02790223 57001 IEM_DS3505
ZBAA,1983-08-01 15:00,ZBAA 011500Z AUTO 18006KT 5SM 26/22 RMK SLP048 T02640224 52006 IEM_DS3505
ZBAA,1983-08-01 18:00,ZBAA 011800Z AUTO 20004KT 3SM 25/23 A2962 RMK SLP044 T02500226 40295//// 57004 IEM_DS3505
ZBAA,1983-08-01 18:10,ZBAA 011810Z AUTO 15004KT 5SM 24/23 A2962 RMK T02400230 IEM_DS3505
ZBAA,1983-08-01 21:00,ZBAA 012100Z AUTO 00000KT 3SM 24/23 RMK SLP041 T02410226 57003 IEM_DS3505
ZBAA,1983-08-02 00:00,ZBAA 020000Z AUTO 02004KT 1SM 25/23 RMK SLP048 T02490233 52007 IEM_DS3505
ZBAA,1983-08-02 03:00,ZBAA 020300Z AUTO 00000KT 1 1/4SM 28/23 A2965 RMK SLP046 T02800234 57001 IEM_DS3505
ZBAA,1983-08-02 04:00,ZBAA 020400Z AUTO 15008KT 2SM 27/24 A2965 RMK T02700240 IEM_DS3505
ZBAA,1983-08-02 05:00,ZBAA 020500Z AUTO 13002KT 2 1/2SM 27/24 A2965 RMK T02700240 IEM_DS3505
ZBAA,1983-08-02 06:00,ZBAA 020600Z AUTO 16004KT 2SM 29/24 A2965 RMK SLP034 T02880241 4////0236 57013 IEM_DS3505
ZBAA,1983-08-02 07:00,ZBAA 020700Z AUTO 13002KT 3SM 28/25 A2959 RMK T02800250 IEM_DS3505
ZBAA,1983-08-02 08:00,ZBAA 020800Z AUTO 00000KT 4SM 29/25 A2959 RMK T02900250 IEM_DS3505
ZBAA,1983-08-02 09:00,ZBAA 020900Z AUTO 14004KT 3SM 30/24 RMK SLP027 T03000243 57006 IEM_DS3505
ZBAA,1983-08-02 12:00,ZBAA 021200Z AUTO 00000KT 3SM 29/25 RMK SLP029 T02880253 52001 IEM_DS3505
ZBAA,1983-08-02 15:00,ZBAA 021500Z AUTO 00000KT 1 1/4SM 27/25 RMK SLP031 T02740254 52003 IEM_DS3505
ZBAA,1983-08-02 18:00,ZBAA 021800Z AUTO 00000KT 1SM 26/25 RMK SLP025 T02630251 40303//// 57006 IEM_DS3505
ZBAA,1983-08-02 21:00,ZBAA 022100Z AUTO 36004KT 1SM 26/25 RMK SLP025 T02610252 54000 IEM_DS3505
ZBAA,1983-08-03 00:00,ZBAA 030000Z AUTO 36006KT 1 1/4SM 27/26 RMK SLP032 T02740259 52007 IEM_DS3505
ZBAA,1983-08-03 03:00,ZBAA 030300Z AUTO 36002KT 1SM 30/27 RMK SLP037 T03000266 52005 IEM_DS3505
ZBAA,1983-08-03 06:00,ZBAA 030600Z AUTO 18004KT 4SM 33/26 RMK SLP021 T03340255 4////0259 57016 IEM_DS3505
ZBAA,1983-08-03 09:00,ZBAA 030900Z AUTO 36010KT 4SM 27/24 RMK SLP028 T02700235 54000 IEM_DS3505
ZBAA,1983-08-03 12:00,ZBAA 031200Z AUTO 02002KT 6SM 27/23 RMK SLP031 T02660231 52010 IEM_DS3505
ZBAA,1983-08-03 15:00,ZBAA 031500Z AUTO 00000KT 4SM 26/24 RMK SLP044 T02590242 52013 IEM_DS3505
ZBAA,1983-08-03 18:00,ZBAA 031800Z AUTO 00000KT 2 1/2SM 26/24 RMK SLP044 T02550242 40336//// 54000 IEM_DS3505
ZBAA,1983-08-03 21:00,ZBAA 032100Z AUTO 00000KT 3SM 25/24 RMK SLP049 T02530240 52004 IEM_DS3505
ZBAA,1983-08-04 00:00,ZBAA 040000Z AUTO 02006KT 5SM 25/23 RMK SLP061 T02540226 52012 IEM_DS3505
ZBAA,1983-08-04 03:00,ZBAA 040300Z AUTO 00000KT 5SM 27/23 RMK SLP061 T02680229 54000 IEM_DS3505
ZBAA,1983-08-04 06:00,ZBAA 040600Z AUTO 36008KT 5SM 30/25 RMK SLP051 T03050254 4////0243 57009 IEM_DS3505
ZBAA,1983-08-04 09:00,ZBAA 040900Z AUTO 25008KT 1SM 25/23 RMK SLP039 T02500234 57013 IEM_DS3505
ZBAA,1983-08-04 12:00,ZBAA 041200Z AUTO 09004KT 5SM 26/24 RMK 60118 SLP043 T02580245 52004 IEM_DS3505
ZBAA,1983-08-04 15:00,ZBAA 041500Z AUTO 02004KT 5SM 24/23 RMK SLP042 T02370234 57001 IEM_DS3505
ZBAA,1983-08-04 18:00,ZBAA 041800Z AUTO 36004KT 4SM 24/23 RMK 60252 SLP047 T02350230 40314//// 52006 IEM_DS3505
ZBAA,1983-08-04 21:00,ZBAA 042100Z AUTO 36006KT 1 1/4SM 24/23 RMK SLP049 T02350230 52001 IEM_DS3505
ZBAA,1983-08-05 00:00,ZBAA 050000Z AUTO 00000KT 1 1/4SM 25/24 RMK 70370 SLP059 T02460237 52010 IEM_DS3505
ZBAA,1983-08-05 03:00,ZBAA 050300Z AUTO 34002KT 2 1/2SM 27/24 RMK SLP064 T02740241 52005 IEM_DS3505
ZBAA,1983-08-05 06:00,ZBAA 050600Z AUTO 00000KT 4SM 29/24 RMK SLP057 T02940238 4////0226 57007 IEM_DS3505
ZBAA,1983-08-05 09:00,ZBAA 050900Z AUTO 20006KT 6SM 31/24 RMK SLP040 T03090236 57016 IEM_DS3505
ZBAA,1983-08-05 12:00,ZBAA 051200Z AUTO 11006KT 2SM 28/25 RMK SLP050 T02790253 52009 IEM_DS3505
ZBAA,1983-08-05 15:00,ZBAA 051500Z AUTO 09010KT 3SM 24/22 RMK SLP067 T02360223 52017 IEM_DS3505
ZBAA,1983-08-05 18:00,ZBAA 051800Z AUTO 02004KT 3SM 22/22 RMK 60201 SLP070 T02200215 40314//// 52003 IEM_DS3505
ZBAA,1983-08-05 21:00,ZBAA 052100Z AUTO 04006KT 3SM 21/20 RMK 70213 SLP077 T02100204 52007 IEM_DS3505
ZBAA,1983-08-06 00:00,ZBAA 060000Z AUTO 02006KT 6SM 22/19 RMK 60016 70213 SLP092 T02150193 52015 IEM_DS3505
ZBAA,1983-08-06 03:00,ZBAA 060300Z AUTO 04004KT 16SM 25/19 A2980 RMK SLP100 T02530194 52008 IEM_DS3505
ZBAA,1983-08-06 04:00,ZBAA 060400Z AUTO 06012KT 6SM 26/19 A2980 RMK T02600190 IEM_DS3505
ZBAA,1983-08-06 05:00,ZBAA 060500Z AUTO 07010KT 6SM 27/19 A2980 RMK T02700190 IEM_DS3505
ZBAA,1983-08-06 06:00,ZBAA 060600Z AUTO 00000KT 19SM 28/20 A2980 RMK SLP097 T02790199 4////0206 57003 IEM_DS3505
ZBAA,1983-08-06 07:00,ZBAA 060700Z AUTO 00000KT 6SM 28/20 A2980 RMK T02800200 IEM_DS3505
ZBAA,1983-08-06 09:00,ZBAA 060900Z AUTO 11006KT 16SM 28/22 RMK SLP096 T02830215 57001 IEM_DS3505
ZBAA,1983-08-06 12:00,ZBAA 061200Z AUTO 18006KT 9SM 25/21 RMK SLP114 T02540212 52017 IEM_DS3505
ZBAA,1983-08-06 15:00,ZBAA 061500Z AUTO 11006KT 5SM 24/21 RMK SLP144 T02360209 52030 IEM_DS3505
ZBAA,1983-08-06 18:00,ZBAA 061800Z AUTO 04004KT 4SM 22/20 RMK SLP143 T02220197 40296//// 54000 IEM_DS3505
ZBAA,1983-08-06 21:00,ZBAA 062100Z AUTO 00000KT 2 1/2SM 21/20 RMK SLP144 T02120203 54000 IEM_DS3505
ZBAA,1983-08-07 00:00,ZBAA 070000Z AUTO 36006KT 12SM 24/20 RMK SLP151 T02350195 52007 IEM_DS3505
ZBAA,1983-08-07 03:00,ZBAA 070300Z AUTO 36006KT 19SM 26/14 RMK SLP148 T02640135 57002 IEM_DS3505
ZBAA,1983-08-07 06:00,ZBAA 070600Z AUTO 02006KT 19SM 28/15 RMK SLP145 T02770154 4////0207 57003 IEM_DS3505
ZBAA,1983-08-07 09:00,ZBAA 070900Z AUTO 04006KT 19SM 28/14 RMK SLP137 T02820136 57009 IEM_DS3505
ZBAA,1983-08-07 12:00,ZBAA 071200Z AUTO 00000KT 19SM 25/18 RMK SLP136 T02520176 57001 IEM_DS3505
ZBAA,1983-08-07 15:00,ZBAA 071500Z AUTO 00000KT 16SM 22/18 RMK SLP139 T02190183 52003 IEM_DS3505
ZBAA,1983-08-07 18:00,ZBAA 071800Z AUTO 00000KT 9SM 20/17 RMK SLP138 T02000174 40285//// 57001 IEM_DS3505
ZBAA,1983-08-07 21:00,ZBAA 072100Z AUTO 36002KT 6SM 19/16 RMK SLP139 T01890163 52001 IEM_DS3505
ZBAA,1983-08-08 00:00,ZBAA 080000Z AUTO 04004KT 6SM 22/17 RMK SLP146 T02210171 52007 IEM_DS3505
ZBAA,1983-08-08 03:00,ZBAA 080300Z AUTO 32002KT 6SM 27/18 RMK SLP142 T02660175 57004 IEM_DS3505
ZBAA,1983-08-08 06:00,ZBAA 080600Z AUTO 20002KT 6SM 30/16 RMK SLP120 T02960155 57022 IEM_DS3505
ZBAA,1983-08-08 09:00,ZBAA 080900Z AUTO 16004KT 6SM 29/18 RMK SLP108 T02880177 57011 IEM_DS3505
ZBAA,1983-08-08 12:00,ZBAA 081200Z AUTO 16002KT 6SM 26/19 RMK SLP115 T02640189 52006 IEM_DS3505
ZBAA,1983-08-08 15:00,ZBAA 081500Z AUTO 00000KT 5SM 23/20 RMK SLP126 T02270204 52011 IEM_DS3505
ZBAA,1983-08-08 18:00,ZBAA 081800Z AUTO 36002KT 3SM 22/18 RMK SLP123 T02250184 40304//// 57002 IEM_DS3505
ZBAA,1983-08-08 21:00,ZBAA 082100Z AUTO 00000KT 4SM 21/18 RMK SLP119 T02100185 57005 IEM_DS3505
ZBAA,1983-08-09 00:00,ZBAA 090000Z AUTO 04004KT 7SM 23/18 RMK SLP127 T02310180 52008 IEM_DS3505
ZBAA,1983-08-09 03:00,ZBAA 090300Z AUTO 36004KT 5SM 26/20 RMK SLP126 T02630204 57001 IEM_DS3505
ZBAA,1983-08-09 04:00,ZBAA 090400Z AUTO 00000KT 6SM 28/21 A2985 RMK T02800210 IEM_DS3505
ZBAA,1983-08-09 05:00,ZBAA 090500Z AUTO 00000KT 6SM 29/21 A2983 RMK T02900210 IEM_DS3505
ZBAA,1983-08-09 06:00,ZBAA 090600Z AUTO 16010KT 6SM 29/20 A2983 RMK SLP110 T02900203 4////0204 57015 IEM_DS3505
ZBAA,1983-08-09 07:00,ZBAA 090700Z AUTO 18010KT 6SM 29/20 A2980 RMK T02900200 IEM_DS3505
ZBAA,1983-08-09 08:00,ZBAA 090800Z AUTO 17012KT 7SM 29/20 A2980 RMK T02900200 IEM_DS3505
ZBAA,1983-08-09 09:00,ZBAA 090900Z AUTO 20008KT 9SM 29/19 A2980 RMK SLP100 T02900191 57010 IEM_DS3505
ZBAA,1983-08-09 12:00,ZBAA 091200Z AUTO 18002KT 6SM 27/20 RMK SLP103 T02670202 52003 IEM_DS3505
ZBAA,1983-08-09 15:00,ZBAA 091500Z AUTO 16004KT 4SM 25/21 RMK SLP112 T02470206 52009 IEM_DS3505
ZBAA,1983-08-09 18:00,ZBAA 091800Z AUTO 00000KT 4SM 22/21 RMK SLP111 T02240209 40297//// 57001 IEM_DS3505
ZBAA,1983-08-10 00:00,ZBAA 100000Z AUTO 36006KT 2 1/2SM 24/21 RMK SLP124 T02450209 52008 IEM_DS3505
ZBAA,1983-08-10 01:00,ZBAA 100100Z AUTO 22004KT 5SM 31/19 RMK SLP111 T03060194 4////0218 57011 IEM_DS3505
ZBAA,1983-08-10 03:00,ZBAA 100300Z AUTO 22002KT 3SM 28/21 RMK SLP122 T02810209 57002 IEM_DS3505
ZBAA,1983-08-10 06:00,ZBAA 100600Z AUTO 22004KT 5SM 31/19 RMK SLP111 T03060194 4////0218 57011 IEM_DS3505
ZBAA,1983-08-10 09:00,ZBAA 100900Z AUTO 18006KT 7SM 30/20 RMK SLP105 T02990200 57006 IEM_DS3505
ZBAA,1983-08-10 12:00,ZBAA 101200Z AUTO 18002KT 4SM 27/20 RMK SLP108 T02740205 52003 IEM_DS3505
ZBAA,1983-08-10 15:00,ZBAA 101500Z AUTO 16006KT 4SM 26/21 RMK SLP119 T02590206 52011 IEM_DS3505
ZBAA,1983-08-10 18:00,ZBAA 101800Z AUTO 00000KT 3SM 24/22 RMK SLP121 T02360216 40310//// 52002 IEM_DS3505
ZBAA,1983-08-10 21:00,ZBAA 102100Z AUTO 00000KT 2 1/2SM 22/21 RMK SLP124 T02240209 52003 IEM_DS3505
ZBAA,1983-08-11 00:00,ZBAA 110000Z AUTO 36002KT 2SM 24/22 RMK SLP131 T02420215 52007 IEM_DS3505
ZBAA,1983-08-11 03:00,ZBAA 110300Z AUTO 18004KT 2 1/2SM 27/21 RMK SLP134 T02740207 52003 IEM_DS3505
ZBAA,1983-08-11 06:00,ZBAA 110600Z AUTO 20008KT 6SM 30/20 RMK SLP119 T02980199 4////0221 57015 IEM_DS3505
ZBAA,1983-08-11 09:00,ZBAA 110900Z AUTO 20006KT 6SM 30/19 RMK SLP110 T03000189 57009 IEM_DS3505
ZBAA,1983-08-11 12:00,ZBAA 111200Z AUTO 16002KT 3SM 28/21 RMK SLP110 T02790207 54000 IEM_DS3505
ZBAA,1983-08-11 15:00,ZBAA 111500Z AUTO 16004KT 4SM 25/20 RMK SLP120 T02530199 52010 IEM_DS3505
ZBAA,1983-08-11 18:00,ZBAA 111800Z AUTO 16004KT 4SM 24/20 RMK SLP121 T02400199 40304//// 52001 IEM_DS3505
ZBAA,1983-08-11 21:00,ZBAA 112100Z AUTO 00000KT 4SM 22/20 RMK SLP121 T02220203 54000 IEM_DS3505
ZBAA,1983-08-12 00:00,ZBAA 120000Z AUTO 04002KT 1 1/4SM 24/21 RMK SLP126 T02430211 52005 IEM_DS3505
ZBAA,1983-08-12 03:00,ZBAA 120300Z AUTO 18006KT 4SM 27/22 RMK SLP122 T02690220 57004 IEM_DS3505
ZBAA,1983-08-12 06:00,ZBAA 120600Z AUTO 20008KT 6SM 29/22 RMK SLP100 T02940218 4////0215 57022 IEM_DS3505
ZBAA,1983-08-12 09:00,ZBAA 120900Z AUTO 20002KT 6SM 30/22 RMK SLP083 T03030218 57017 IEM_DS3505
ZBAA,1983-08-12 12:00,ZBAA 121200Z AUTO 16002KT 5SM 28/21 RMK SLP080 T02810212 57003 IEM_DS3505
ZBAA,1983-08-12 15:00,ZBAA 121500Z AUTO 00000KT 4SM 25/22 RMK SLP087 T02490218 52007 IEM_DS3505
ZBAA,1983-08-12 18:00,ZBAA 121800Z AUTO 18002KT 2SM 24/22 RMK SLP093 T02430221 40307//// 52006 IEM_DS3505
ZBAA,1983-08-12 21:00,ZBAA 122100Z AUTO 00000KT 1 1/2SM 24/22 RMK SLP091 T02400219 57001 IEM_DS3505
ZBAA,1983-08-13 00:00,ZBAA 130000Z AUTO 36004KT 1 1/4SM 25/23 RMK SLP098 T02520227 52006 IEM_DS3505
ZBAA,1983-08-13 03:00,ZBAA 130300Z AUTO 34002KT 2 1/2SM 30/23 A2977 RMK SLP091 T02950231 57006 IEM_DS3505
ZBAA,1983-08-13 04:00,ZBAA 130400Z AUTO 01002KT 4SM 30/23 A2977 RMK T03000230 IEM_DS3505
ZBAA,1983-08-13 05:00,ZBAA 130500Z AUTO 15008KT 7SM 31/22 A2974 RMK T03100220 IEM_DS3505
ZBAA,1983-08-13 06:00,ZBAA 130600Z AUTO 20002KT 4SM 31/22 A2971 RMK SLP075 T03140221 4////0235 57016 IEM_DS3505
ZBAA,1983-08-13 08:00,ZBAA 130800Z AUTO 15006KT 7SM 32/22 A2971 RMK T03200220 IEM_DS3505
ZBAA,1983-08-13 09:00,ZBAA 130900Z AUTO 20006KT 4SM 32/22 A2968 RMK SLP064 T03200218 57001 IEM_DS3505
ZBAA,1983-08-13 12:00,ZBAA 131200Z AUTO 16002KT 3SM 30/23 RMK SLP066 T02970226 52002 IEM_DS3505
ZBAA,1983-08-13 15:00,ZBAA 131500Z AUTO 00000KT 2 1/2SM 28/24 RMK SLP076 T02760235 52010 IEM_DS3505
ZBAA,1983-08-13 18:00,ZBAA 131800Z AUTO 00000KT 2SM 26/23 RMK SLP080 T02570234 40326//// 52004 IEM_DS3505
ZBAA,1983-08-13 21:00,ZBAA 132100Z AUTO 00000KT 1 1/4SM 25/23 RMK SLP081 T02470234 52001 IEM_DS3505
ZBAA,1983-08-14 00:00,ZBAA 140000Z AUTO 02006KT 1SM 25/24 RMK SLP088 T02520237 52007 IEM_DS3505
ZBAA,1983-08-14 03:00,ZBAA 140300Z AUTO 02004KT 1 1/4SM 29/24 RMK SLP083 T02930244 57005 IEM_DS3505
ZBAA,1983-08-14 06:00,ZBAA 140600Z AUTO 16006KT 9SM 32/22 RMK SLP066 T03240218 4////0242 57017 IEM_DS3505
ZBAA,1983-08-14 09:00,ZBAA 140900Z AUTO 20006KT 7SM 31/21 RMK SLP055 T03140214 57011 IEM_DS3505
ZBAA,1983-08-14 12:00,ZBAA 141200Z AUTO 18004KT 6SM 30/23 RMK SLP062 T03020227 52007 IEM_DS3505
ZBAA,1983-08-14 15:00,ZBAA 141500Z AUTO 07004KT 6SM 28/23 RMK SLP064 T02820227 52002 IEM_DS3505
ZBAA,1983-08-14 18:00,ZBAA 141800Z AUTO 04002KT 4SM 27/23 RMK SLP056 T02690234 40329//// 57008 IEM_DS3505
ZBAA,1983-08-14 21:00,ZBAA 142100Z AUTO 00000KT 4SM 26/24 RMK SLP051 T02630237 57005 IEM_DS3505
ZBAA,1983-08-15 00:00,ZBAA 150000Z AUTO 36004KT 2 1/2SM 26/24 RMK SLP052 T02630243 52001 IEM_DS3505
ZBAA,1983-08-15 03:00,ZBAA 150300Z AUTO 36002KT 2 1/2SM 29/25 RMK SLP051 T02870247 57001 IEM_DS3505
ZBAA,1983-08-15 06:00,ZBAA 150600Z AUTO 18002KT 6SM 27/24 RMK SLP053 T02710235 4////0254 52002 IEM_DS3505
ZBAA,1983-08-15 09:00,ZBAA 150900Z AUTO 00000KT 12SM 28/24 RMK SLP043 T02790237 57010 IEM_DS3505
ZBAA,1983-08-15 12:00,ZBAA 151200Z AUTO 00000KT 5SM 27/25 RMK 60020 SLP051 T02680247 52007 IEM_DS3505
ZBAA,1983-08-15 15:00,ZBAA 151500Z AUTO 36006KT 9SM 26/23 RMK SLP059 T02620226 52009 IEM_DS3505
ZBAA,1983-08-15 18:00,ZBAA 151800Z AUTO 02008KT 12SM 26/15 RMK SLP071 T02560151 40299//// 52011 IEM_DS3505
ZBAA,1983-08-15 21:00,ZBAA 152100Z AUTO 36012KT 12SM 26/13 RMK SLP081 T02560132 52010 IEM_DS3505
ZBAA,1983-08-16 00:00,ZBAA 160000Z AUTO 36010KT 19SM 24/14 RMK SLP103 T02430138 52022 IEM_DS3505
ZBAA,1983-08-16 03:00,ZBAA 160300Z AUTO 36014KT 19SM 27/11 RMK SLP104 T02730114 52001 IEM_DS3505
ZBAA,1983-08-16 04:00,ZBAA 160400Z AUTO 03014KT 7SM 28/13 A2980 RMK T02800130 IEM_DS3505
ZBAA,1983-08-16 05:00,ZBAA 160500Z AUTO 01008KT 6SM 29/12 A2977 RMK T02900120 IEM_DS3505
ZBAA,1983-08-16 06:00,ZBAA 160600Z AUTO 36010KT 19SM 24/14 A2977 RMK 70020 SLP103 T02430138 52022 IEM_DS3505
ZBAA,1983-08-16 07:00,ZBAA 160700Z AUTO 13006KT 6SM 29/13 A2974 RMK T02900130 IEM_DS3505
ZBAA,1983-08-16 08:00,ZBAA 160800Z AUTO 10004KT 6SM 29/13 A2974 RMK T02900130 IEM_DS3505
ZBAA,1983-08-16 09:00,ZBAA 160900Z AUTO 32006KT 19SM 30/09 A2974 RMK SLP079 T02980088 57006 IEM_DS3505
ZBAA,1983-08-16 10:00,ZBAA 161000Z AUTO 06004KT 6SM 28/14 A2971 RMK T02800140 IEM_DS3505
ZBAA,1983-08-16 12:00,ZBAA 161200Z AUTO 34004KT 16SM 25/16 RMK SLP092 T02460165 52012 IEM_DS3505
ZBAA,1983-08-16 15:00,ZBAA 161500Z AUTO 34006KT 9SM 25/10 RMK SLP103 T02500099 52011 IEM_DS3505
ZBAA,1983-08-16 18:00,ZBAA 161800Z AUTO 34006KT 12SM 23/11 RMK SLP106 T02310112 40304//// 52003 IEM_DS3505
ZBAA,1983-08-16 21:00,ZBAA 162100Z AUTO 36004KT 9SM 23/10 RMK SLP109 T02290100 52003 IEM_DS3505
ZBAA,1983-08-17 00:00,ZBAA 170000Z AUTO 36004KT 12SM 23/13 RMK SLP123 T02300126 52013 IEM_DS3505
ZBAA,1983-08-17 03:00,ZBAA 170300Z AUTO 36008KT 19SM 27/11 RMK SLP129 T02700112 52007 IEM_DS3505
ZBAA,1983-08-17 06:00,ZBAA 170600Z AUTO 36008KT 19SM 30/10 RMK SLP113 T02970096 4////0221 57016 IEM_DS3505
ZBAA,1983-08-17 09:00,ZBAA 170900Z AUTO 18008KT 19SM 30/09 RMK SLP100 T03050094 57013 IEM_DS3505
ZBAA,1983-08-17 12:00,ZBAA 171200Z AUTO 18004KT 12SM 26/13 RMK SLP105 T02600129 52005 IEM_DS3505
ZBAA,1983-08-17 15:00,ZBAA 171500Z AUTO 00000KT 11SM 21/16 RMK SLP114 T02100163 52008 IEM_DS3505
ZBAA,1983-08-17 18:00,ZBAA 171800Z AUTO 04004KT 7SM 20/16 RMK SLP112 T01950157 40312//// 57001 IEM_DS3505
ZBAA,1983-08-17 21:00,ZBAA 172100Z AUTO 29002KT 7SM 18/16 RMK SLP122 T01800155 52009 IEM_DS3505
ZBAA,1983-08-18 00:00,ZBAA 180000Z AUTO 02006KT 6SM 23/14 RMK SLP136 T02260144 52014 IEM_DS3505
ZBAA,1983-08-18 03:00,ZBAA 180300Z AUTO 36004KT 9SM 26/15 RMK SLP140 T02590151 52004 IEM_DS3505
ZBAA,1983-08-18 06:00,ZBAA 180600Z AUTO 00000KT 9SM 28/16 RMK SLP130 T02790160 4////0176 57010 IEM_DS3505
ZBAA,1983-08-18 09:00,ZBAA 180900Z AUTO 04002KT 8SM 28/19 RMK SLP115 T02810186 57015 IEM_DS3505
ZBAA,1983-08-18 12:00,ZBAA 181200Z AUTO 00000KT 5SM 25/19 RMK SLP118 T02500191 52003 IEM_DS3505
ZBAA,1983-08-18 15:00,ZBAA 181500Z AUTO 00000KT 5SM 24/20 RMK SLP120 T02360201 52002 IEM_DS3505
ZBAA,1983-08-18 18:00,ZBAA 181800Z AUTO 00000KT 5SM 22/18 RMK SLP115 T02240180 40286//// 57004 IEM_DS3505
ZBAA,1983-08-18 21:00,ZBAA 182100Z AUTO 36002KT 5SM 22/17 RMK SLP112 T02170172 57030 IEM_DS3505
ZBAA,1983-08-19 00:00,ZBAA 190000Z AUTO 04004KT 5SM 23/19 RMK SLP118 T02330188 52005 IEM_DS3505
ZBAA,1983-08-19 03:00,ZBAA 190300Z AUTO 04006KT 6SM 28/17 RMK SLP116 T02810168 57001 IEM_DS3505
ZBAA,1983-08-19 06:00,ZBAA 190600Z AUTO 36004KT 9SM 31/19 RMK SLP094 T03100186 4////0214 57022 IEM_DS3505
ZBAA,1983-08-19 12:00,ZBAA 191200Z AUTO 16002KT 6SM 26/18 RMK SLP091 T02630175 52005 IEM_DS3505
ZBAA,1983-08-19 15:00,ZBAA 191500Z AUTO 16004KT 6SM 24/17 RMK SLP091 T02360174 52005 IEM_DS3505
ZBAA,1983-08-19 18:00,ZBAA 191800Z AUTO 07002KT 5SM 23/18 RMK SLP096 T02280183 40317//// 57001 IEM_DS3505
ZBAA,1983-08-19 21:00,ZBAA 192100Z AUTO 02004KT 4SM 21/19 RMK SLP097 T02110189 52001 IEM_DS3505
ZBAA,1983-08-20 00:00,ZBAA 200000Z AUTO 00000KT 4SM 23/20 RMK SLP106 T02320195 52009 IEM_DS3505
ZBAA,1983-08-20 03:00,ZBAA 200300Z AUTO 00000KT 7SM 28/19 A2980 RMK SLP105 T02800190 57001 IEM_DS3505
ZBAA,1983-08-20 04:00,ZBAA 200400Z AUTO 09004KT 7SM 29/19 A2980 RMK T02900190 IEM_DS3505
ZBAA,1983-08-20 05:00,ZBAA 200500Z AUTO 12008KT 7SM 30/19 A2977 RMK T03000190 IEM_DS3505
ZBAA,1983-08-20 06:00,ZBAA 200600Z AUTO 11004KT 5SM 31/19 RMK SLP088 T03100189 4////0205 57017 IEM_DS3505
ZBAA,1983-08-20 07:00,ZBAA 200700Z AUTO 14004KT 7SM 31/20 A2974 RMK T03100200 IEM_DS3505
ZBAA,1983-08-20 08:00,ZBAA 200800Z AUTO 18004KT 7SM 31/19 A2974 RMK T03100190 IEM_DS3505
ZBAA,1983-08-20 09:00,ZBAA 200900Z AUTO 18006KT 9SM 31/18 RMK SLP081 T03120176 57007 IEM_DS3505
ZBAA,1983-08-20 12:00,ZBAA 201200Z AUTO 22002KT 6SM 26/17 RMK SLP084 T02630173 52003 IEM_DS3505
ZBAA,1983-08-20 15:00,ZBAA 201500Z AUTO 00000KT 5SM 24/18 RMK SLP095 T02380180 52011 IEM_DS3505
ZBAA,1983-08-20 18:00,ZBAA 201800Z AUTO 04004KT 5SM 22/18 RMK SLP100 T02220184 40315//// 52005 IEM_DS3505
ZBAA,1983-08-20 21:00,ZBAA 202100Z AUTO 36006KT 4SM 21/19 RMK SLP108 T02060191 52008 IEM_DS3505
ZBAA,1983-08-21 00:00,ZBAA 210000Z AUTO 02004KT 2 1/2SM 22/19 RMK SLP116 T02210193 52007 IEM_DS3505
ZBAA,1983-08-21 03:00,ZBAA 210300Z AUTO 34004KT 5SM 25/20 RMK SLP114 T02530198 57002 IEM_DS3505
ZBAA,1983-08-21 06:00,ZBAA 210600Z AUTO 02004KT 6SM 28/19 RMK SLP099 T02850194 4////0203 57014 IEM_DS3505
ZBAA,1983-08-21 09:00,ZBAA 210900Z AUTO 32004KT 5SM 24/20 RMK SLP094 T02390199 57006 IEM_DS3505
ZBAA,1983-08-21 12:00,ZBAA 211200Z AUTO 02002KT 4SM 23/20 RMK 60001 SLP096 T02340199 52002 IEM_DS3505
ZBAA,1983-08-21 15:00,ZBAA 211500Z AUTO 00000KT 3SM 24/20 RMK SLP101 T02360204 52006 IEM_DS3505
ZBAA,1983-08-21 18:00,ZBAA 211800Z AUTO 25008KT 17SM 23/18 RMK SLP102 T02330183 40292//// 52001 IEM_DS3505
ZBAA,1983-08-21 21:00,ZBAA 212100Z AUTO 34002KT 6SM 21/18 RMK SLP099 T02100185 57004 IEM_DS3505
ZBAA,1983-08-22 00:00,ZBAA 220000Z AUTO 00000KT 12SM 21/18 RMK 60004 70004 SLP108 T02070176 52009 IEM_DS3505
ZBAA,1983-08-22 03:00,ZBAA 220300Z AUTO 00000KT 4SM 23/18 RMK SLP116 T02260180 52008 IEM_DS3505
ZBAA,1983-08-22 06:00,ZBAA 220600Z AUTO 32002KT 7SM 24/16 RMK 60000 SLP102 T02400157 4////0205 57013 IEM_DS3505
ZBAA,1983-08-22 09:00,ZBAA 220900Z AUTO 34004KT 9SM 23/16 RMK SLP092 T02300163 57011 IEM_DS3505
ZBAA,1983-08-22 12:00,ZBAA 221200Z AUTO 34004KT 9SM 20/18 RMK 60004 SLP092 T01990178 54000 IEM_DS3505
ZBAA,1983-08-22 15:00,ZBAA 221500Z AUTO 36002KT 6SM 20/18 RMK SLP095 T01980179 52003 IEM_DS3505
ZBAA,1983-08-22 18:00,ZBAA 221800Z AUTO 00000KT 6SM 20/19 RMK 60002 SLP087 T01980189 40245//// 57008 IEM_DS3505
ZBAA,1983-08-22 21:00,ZBAA 222100Z AUTO 04002KT 5SM 20/18 RMK 70008 SLP086 T01960183 57011 IEM_DS3505
ZBAA,1983-08-23 00:00,ZBAA 230000Z AUTO 36006KT 7SM 21/18 RMK 60000 SLP076 T02100181 54000 IEM_DS3505
ZBAA,1983-08-23 01:00,ZBAA 230100Z AUTO 02010KT 6SM 22/18 A2971 RMK T02200180 IEM_DS3505
ZBAA,1983-08-23 02:00,ZBAA 230200Z AUTO 02010KT 6SM 23/19 A2971 RMK T02300190 IEM_DS3505
ZBAA,1983-08-23 03:00,ZBAA 230300Z AUTO 36002KT 12SM 22/18 A2971 RMK SLP077 T02240180 52001 IEM_DS3505
ZBAA,1983-08-23 04:00,ZBAA 230400Z AUTO 02010KT 6SM 23/18 A2971 RMK T02300180 IEM_DS3505
ZBAA,1983-08-23 06:00,ZBAA 230600Z AUTO 02008KT 16SM 24/18 A2968 RMK SLP064 T02400180 4////0193 57013 IEM_DS3505
ZBAA,1983-08-23 07:00,ZBAA 230700Z AUTO 34008KT 6SM 24/19 A2965 RMK T02400190 IEM_DS3505
ZBAA,1983-08-23 09:00,ZBAA 230900Z AUTO 36004KT 19SM 24/18 RMK SLP053 T02380181 57011 IEM_DS3505
ZBAA,1983-08-23 12:00,ZBAA 231200Z AUTO 36004KT 12SM 22/18 RMK SLP057 T02250179 52004 IEM_DS3505
ZBAA,1983-08-23 15:00,ZBAA 231500Z AUTO 00000KT 9SM 21/18 RMK SLP059 T02090175 52002 IEM_DS3505
ZBAA,1983-08-23 18:00,ZBAA 231800Z AUTO 36004KT 6SM RMK SLP057 40252//// 57007 IEM_DS3505
ZBAA,1983-08-23 21:00,ZBAA 232100Z AUTO 32002KT 5SM 20/18 RMK SLP057 T02030184 57001 IEM_DS3505
ZBAA,1983-08-24 00:00,ZBAA 240000Z AUTO 02002KT 2SM 21/19 RMK SLP060 T02100194 52003 IEM_DS3505
ZBAA,1983-08-24 03:00,ZBAA 240300Z AUTO 09004KT 4SM 23/19 RMK SLP064 T02320190 52004 IEM_DS3505
ZBAA,1983-08-24 06:00,ZBAA 240600Z AUTO 20006KT 5SM 27/19 RMK SLP050 T02680189 4////0201 57013 IEM_DS3505
ZBAA,1983-08-24 09:00,ZBAA 240900Z AUTO 18006KT 6SM 27/19 RMK SLP039 T02690187 IEM_DS3505
ZBAA,1983-08-24 12:00,ZBAA 241200Z AUTO 11010KT 5SM 24/19 RMK SLP050 T02400189 52010 IEM_DS3505
ZBAA,1983-08-24 15:00,ZBAA 241500Z AUTO 00000KT 5SM 21/19 RMK SLP062 T02120190 52012 IEM_DS3505
ZBAA,1983-08-24 18:00,ZBAA 241800Z AUTO 04002KT 5SM 21/18 RMK SLP061 T02060177 40274//// 54000 IEM_DS3505
ZBAA,1983-08-24 21:00,ZBAA 242100Z AUTO 36006KT 3SM 20/19 RMK SLP063 T01950189 52002 IEM_DS3505
ZBAA,1983-08-25 00:00,ZBAA 250000Z AUTO 36004KT 2SM 19/18 RMK 60075 70075 SLP072 T01900182 52008 IEM_DS3505
ZBAA,1983-08-25 03:00,ZBAA 250300Z AUTO 00000KT 2 1/2SM 20/19 RMK SLP081 T01970189 52009 IEM_DS3505
ZBAA,1983-08-25 06:00,ZBAA 250600Z AUTO 32002KT 5SM 21/20 RMK 60008 SLP074 T02130199 4////0185 57007 IEM_DS3505
ZBAA,1983-08-25 09:00,ZBAA 250900Z AUTO 36004KT 5SM 21/19 RMK SLP065 T02120193 57009 IEM_DS3505
ZBAA,1983-08-25 12:00,ZBAA 251200Z AUTO 36006KT 5SM 20/18 RMK 60012 SLP070 T02010185 52005 IEM_DS3505
ZBAA,1983-08-25 15:00,ZBAA 251500Z AUTO 04004KT 5SM 20/19 RMK SLP073 T02030186 52003 IEM_DS3505
ZBAA,1983-08-25 18:00,ZBAA 251800Z AUTO 36004KT 4SM 20/19 RMK SLP065 T01980186 40215//// 57008 IEM_DS3505
ZBAA,1983-08-25 21:00,ZBAA 252100Z AUTO 36002KT 2 1/2SM 19/18 RMK SLP064 T01890184 57001 IEM_DS3505
ZBAA,1983-08-26 00:00,ZBAA 260000Z AUTO 36002KT 6SM 20/19 RMK 60098 SLP066 T02030190 IEM_DS3505
ZBAA,1983-08-26 03:00,ZBAA 260300Z AUTO 02008KT 6SM 23/20 RMK SLP066 T02320200 54000 IEM_DS3505
ZBAA,1983-08-26 06:00,ZBAA 260600Z AUTO 36006KT 11SM 25/20 RMK 60002 SLP051 T02540204 4////0187 57015 IEM_DS3505
ZBAA,1983-08-26 09:00,ZBAA 260900Z AUTO 00000KT 9SM 25/21 RMK SLP045 T02490208 57006 IEM_DS3505
ZBAA,1983-08-26 12:00,ZBAA 261200Z AUTO 00000KT 6SM 23/21 RMK 60000 SLP046 T02280210 52001 IEM_DS3505
ZBAA,1983-08-26 15:00,ZBAA 261500Z AUTO 00000KT 4SM 22/21 RMK SLP055 T02180209 52009 IEM_DS3505
ZBAA,1983-08-26 18:00,ZBAA 261800Z AUTO 00000KT 1SM 21/20 RMK 60024 SLP053 T02090203 40267//// 57001 IEM_DS3505
ZBAA,1983-08-26 21:00,ZBAA 262100Z AUTO 07004KT 1 1/4SM 21/20 RMK SLP051 T02090203 57003 IEM_DS3505
ZBAA,1983-08-27 00:00,ZBAA 270000Z AUTO 36006KT 1 1/4SM 21/20 RMK 60001 70028 SLP058 T02100202 52007 IEM_DS3505
ZBAA,1983-08-27 03:00,ZBAA 270300Z AUTO 00000KT 2 1/2SM 24/21 A2968 RMK SLP057 T02440211 54000 IEM_DS3505
ZBAA,1983-08-27 04:00,ZBAA 270400Z AUTO 00000KT 7SM 26/21 A2965 RMK T02600210 IEM_DS3505
ZBAA,1983-08-27 05:00,ZBAA 270500Z AUTO 16004KT 7SM 28/21 A2962 RMK T02800210 IEM_DS3505
ZBAA,1983-08-27 06:00,ZBAA 270600Z AUTO 16004KT 4SM 27/20 A2959 RMK SLP036 T02700201 4////0202 57021 IEM_DS3505
ZBAA,1983-08-27 07:00,ZBAA 270700Z AUTO 24004KT 7SM 28/21 A2959 RMK T02800210 IEM_DS3505
ZBAA,1983-08-27 08:00,ZBAA 270800Z AUTO 20002KT 7SM 28/20 A2959 RMK T02800200 IEM_DS3505
ZBAA,1983-08-27 09:00,ZBAA 270900Z AUTO 18006KT 6SM 27/20 A2956 RMK SLP026 T02730195 57010 IEM_DS3505
ZBAA,1983-08-27 12:00,ZBAA 271200Z AUTO 00000KT 4SM 24/21 RMK SLP034 T02430211 52007 IEM_DS3505
ZBAA,1983-08-27 15:00,ZBAA 271500Z AUTO 00000KT 2 1/2SM 23/21 RMK SLP039 T02320211 52006 IEM_DS3505
ZBAA,1983-08-27 18:00,ZBAA 271800Z AUTO 00000KT 4SM 21/18 RMK SLP030 T02120185 40281//// 57009 IEM_DS3505
ZBAA,1983-08-27 21:00,ZBAA 272100Z AUTO 00000KT 3SM 20/18 RMK SLP032 T01960183 52002 IEM_DS3505
ZBAA,1983-08-28 00:00,ZBAA 280000Z AUTO 36004KT 1 1/4SM 21/19 RMK SLP037 T02080192 52004 IEM_DS3505
ZBAA,1983-08-28 03:00,ZBAA 280300Z AUTO 09002KT 2 1/2SM 26/21 RMK SLP035 T02560214 57001 IEM_DS3505
ZBAA,1983-08-28 06:00,ZBAA 280600Z AUTO 22006KT 4SM 27/20 RMK SLP018 T02710200 4////0194 57017 IEM_DS3505
ZBAA,1983-08-28 09:00,ZBAA 280900Z AUTO 25004KT 6SM 24/18 RMK SLP007 T02440177 57011 IEM_DS3505
ZBAA,1983-08-28 12:00,ZBAA 281200Z AUTO 32004KT 9SM 20/15 RMK 60043 SLP017 T02000153 52009 IEM_DS3505
ZBAA,1983-08-28 15:00,ZBAA 281500Z AUTO 25004KT 9SM 20/17 RMK SLP031 T01960172 52014 IEM_DS3505
ZBAA,1983-08-28 18:00,ZBAA 281800Z AUTO 00000KT 9SM 20/12 RMK 60002 SLP028 T01970118 IEM_DS3505
ZBAA,1983-08-28 21:00,ZBAA 282100Z AUTO 00000KT 4SM 18/17 RMK SLP031 T01810172 52002 IEM_DS3505
ZBAA,1983-08-29 00:00,ZBAA 290000Z AUTO 00000KT 3SM 20/18 RMK 70043 SLP035 T01950179 52004 IEM_DS3505
ZBAA,1983-08-29 03:00,ZBAA 290300Z AUTO 11004KT 4SM 26/18 RMK SLP033 T02610185 57002 IEM_DS3505
ZBAA,1983-08-29 06:00,ZBAA 290600Z AUTO 22010KT 7SM 30/16 RMK SLP022 T02960165 4////0177 57010 IEM_DS3505
ZBAA,1983-08-29 09:00,ZBAA 290900Z AUTO 29004KT 9SM 29/18 RMK SLP021 T02900183 57001 IEM_DS3505
ZBAA,1983-08-29 12:00,ZBAA 291200Z AUTO 00000KT 12SM 24/17 RMK SLP039 T02400173 52017 IEM_DS3505
ZBAA,1983-08-29 15:00,ZBAA 291500Z AUTO 00000KT 9SM 22/17 RMK SLP049 T02160168 52011 IEM_DS3505
ZBAA,1983-08-29 18:00,ZBAA 291800Z AUTO 29002KT 6SM 21/16 RMK SLP056 T02100159 40301//// 52007 IEM_DS3505
ZBAA,1983-08-29 21:00,ZBAA 292100Z AUTO 20004KT 9SM 22/15 RMK SLP066 T02170147 52010 IEM_DS3505
ZBAA,1983-08-30 00:00,ZBAA 300000Z AUTO 20004KT 19SM 25/14 RMK SLP087 T02540136 52021 IEM_DS3505
ZBAA,1983-08-30 03:00,ZBAA 300300Z AUTO 29002KT 19SM 29/14 A2977 RMK SLP090 T02880140 52003 IEM_DS3505
ZBAA,1983-08-30 05:00,ZBAA 300500Z AUTO 29008KT 6SM 30/13 A2974 RMK T03000130 IEM_DS3505
ZBAA,1983-08-30 06:00,ZBAA 300600Z AUTO 25002KT 19SM 31/ A2974 RMK SLP084 4////0194 57006 IEM_DS3505
ZBAA,1983-08-30 07:00,ZBAA 300700Z AUTO 27012KT 6SM 31/14 A2971 RMK T03100140 IEM_DS3505
ZBAA,1983-08-30 08:00,ZBAA 300800Z AUTO 26012KT 6SM 31/13 A2971 RMK T03100130 IEM_DS3505
ZBAA,1983-08-30 09:00,ZBAA 300900Z AUTO 22004KT 19SM 31/14 RMK SLP080 T03120145 57004 IEM_DS3505
ZBAA,1983-08-30 12:00,ZBAA 301200Z AUTO 20002KT 11SM 26/18 RMK SLP090 T02550180 52010 IEM_DS3505
ZBAA,1983-08-30 15:00,ZBAA 301500Z AUTO 18004KT 6SM 24/18 RMK SLP095 T02380178 52005 IEM_DS3505
ZBAA,1983-08-30 18:00,ZBAA 301800Z AUTO 00000KT 4SM 22/19 RMK SLP100 T02230187 40315//// 52005 IEM_DS3505
ZBAA,1983-08-30 21:00,ZBAA 302100Z AUTO 36002KT 5SM 20/18 RMK SLP096 T01980179 57004 IEM_DS3505
ZBAA,1983-08-31 00:00,ZBAA 310000Z AUTO 07004KT 4SM 22/17 RMK SLP100 T02230172 52004 IEM_DS3505
ZBAA,1983-08-31 03:00,ZBAA 310300Z AUTO 02002KT 7SM 27/18 RMK SLP103 T02730176 52003 IEM_DS3505
ZBAA,1983-08-31 06:00,ZBAA 310600Z AUTO 16004KT 9SM 30/17 RMK SLP082 T03010171 4////0195 57021 IEM_DS3505
ZBAA,1983-08-31 09:00,ZBAA 310900Z AUTO 20006KT 11SM 30/18 RMK SLP073 T03010184 57009 IEM_DS3505
ZBAA,1983-08-31 12:00,ZBAA 311200Z AUTO 00000KT 7SM 27/19 RMK SLP077 T02720192 52004 IEM_DS3505
ZBAA,1983-08-31 15:00,ZBAA 311500Z AUTO 04008KT 7SM 23/18 RMK SLP090 T02320180 52013 IEM_DS3505
ZBAA,1983-08-31 18:00,ZBAA 311800Z AUTO 34002KT 6SM 21/20 RMK 60008 SLP081 T02110199 40311//// 57009 IEM_DS3505
ZBAA,1983-08-31 21:00,ZBAA 312100Z AUTO 00000KT 6SM 21/18 RMK SLP092 T02100183 52011 IEM_DS3505
ZBAA,1983-09-01 00:00,ZBAA 010000Z AUTO 00000KT 6SM 21/18 RMK 60002 70012 SLP103 T02090180 52011 IEM_DS3505
ZBAA,1983-09-01 03:00,ZBAA 010300Z AUTO 36008KT 16SM 24/19 RMK SLP083 T02450191 57020 IEM_DS3505
ZBAA,1983-09-01 06:00,ZBAA 010600Z AUTO 36004KT 19SM 29/15 RMK SLP071 T02910154 4////0202 57012 IEM_DS3505
ZBAA,1983-09-01 09:00,ZBAA 010900Z AUTO 22004KT 16SM 31/16 RMK SLP071 T03070162 54000 IEM_DS3505
ZBAA,1983-09-01 12:00,ZBAA 011200Z AUTO 16006KT 19SM 25/18 RMK SLP082 T02480180 52010 IEM_DS3505
ZBAA,1983-09-01 15:00,ZBAA 011500Z AUTO 36004KT 16SM 22/19 RMK SLP088 T02180194 52007 IEM_DS3505
ZBAA,1983-09-01 18:00,ZBAA 011800Z AUTO 36004KT 16SM 20/18 RMK SLP088 T02020181 40309//// 54000 IEM_DS3505
ZBAA,1983-09-01 21:00,ZBAA 012100Z AUTO 34004KT 19SM 19/15 RMK SLP090 T01920148 52002 IEM_DS3505
ZBAA,1983-09-02 00:00,ZBAA 020000Z AUTO 36008KT 19SM 22/14 RMK SLP103 T02210137 52013 IEM_DS3505
ZBAA,1983-09-02 03:00,ZBAA 020300Z AUTO 36010KT 19SM 27/11 RMK SLP104 T02740113 52001 IEM_DS3505
ZBAA,1983-09-02 06:00,ZBAA 020600Z AUTO 32004KT 19SM 30/12 RMK SLP092 T02950121 4////0186 57012 IEM_DS3505
ZBAA,1983-09-02 09:00,ZBAA 020900Z AUTO 22008KT 19SM 31/12 RMK SLP085 T03090125 57007 IEM_DS3505
ZBAA,1983-09-02 12:00,ZBAA 021200Z AUTO 22006KT 16SM 25/15 RMK SLP097 T02500153 52012 IEM_DS3505
ZBAA,1983-09-02 15:00,ZBAA 021500Z AUTO 25004KT 12SM 22/13 RMK SLP106 T02160129 52009 IEM_DS3505
ZBAA,1983-09-02 18:00,ZBAA 021800Z AUTO 00000KT 7SM 18/15 RMK SLP110 T01840148 40310//// 52004 IEM_DS3505
ZBAA,1983-09-02 21:00,ZBAA 022100Z AUTO 02002KT 7SM 17/15 RMK SLP116 T01680151 52005 IEM_DS3505
ZBAA,1983-09-03 00:00,ZBAA 030000Z AUTO 04004KT 19SM 22/14 RMK SLP128 T02190135 52012 IEM_DS3505
ZBAA,1983-09-03 03:00,ZBAA 030300Z AUTO 04006KT 16SM 28/15 A2988 RMK SLP127 T02760148 57001 IEM_DS3505
ZBAA,1983-09-03 04:00,ZBAA 030400Z AUTO 06004KT 7SM 29/14 A2985 RMK T02900140 IEM_DS3505
ZBAA,1983-09-03 05:00,ZBAA 030500Z AUTO 07004KT 7SM 30/15 A2985 RMK T03000150 IEM_DS3505
ZBAA,1983-09-03 06:00,ZBAA 030600Z AUTO 16004KT 6SM 30/12 RMK SLP115 T03010117 4////0164 57012 IEM_DS3505
ZBAA,1983-09-03 07:00,ZBAA 030700Z AUTO 12008KT 6SM 31/11 A2983 RMK T03100110 IEM_DS3505
ZBAA,1983-09-03 09:00,ZBAA 030900Z AUTO 20004KT 9SM 30/15 RMK SLP108 T02980147 57006 IEM_DS3505
ZBAA,1983-09-03 12:00,ZBAA 031200Z AUTO 00000KT 9SM 25/18 RMK SLP118 T02540182 52009 IEM_DS3505
ZBAA,1983-09-03 15:00,ZBAA 031500Z AUTO 00000KT 6SM 22/19 RMK SLP130 T02230189 52013 IEM_DS3505
ZBAA,1983-09-03 18:00,ZBAA 031800Z AUTO 00000KT 5SM 21/17 RMK SLP133 T02070173 40306//// 52003 IEM_DS3505
ZBAA,1983-09-03 21:00,ZBAA 032100Z AUTO 04002KT 7SM 20/16 RMK SLP133 T02010158 54000 IEM_DS3505
ZBAA,1983-09-04 00:00,ZBAA 040000Z AUTO 36004KT 5SM 22/16 RMK SLP140 T02160165 52006 IEM_DS3505
ZBAA,1983-09-04 03:00,ZBAA 040300Z AUTO 02002KT 5SM 26/19 RMK SLP139 T02550186 57001 IEM_DS3505
ZBAA,1983-09-04 06:00,ZBAA 040600Z AUTO 16006KT 6SM 29/20 RMK SLP124 T02920195 4////0189 57014 IEM_DS3505
ZBAA,1983-09-04 09:00,ZBAA 040900Z AUTO 16008KT 9SM 30/18 RMK SLP105 T02980184 57019 IEM_DS3505
ZBAA,1983-09-04 12:00,ZBAA 041200Z AUTO 16006KT 7SM 27/19 RMK SLP111 T02730186 52006 IEM_DS3505
ZBAA,1983-09-04 15:00,ZBAA 041500Z AUTO 18006KT 6SM 24/16 RMK SLP115 T02390165 52003 IEM_DS3505
ZBAA,1983-09-04 18:00,ZBAA 041800Z AUTO 14004KT 6SM 22/17 RMK SLP110 T02210166 40317//// 57004 IEM_DS3505
ZBAA,1983-09-04 21:00,ZBAA 042100Z AUTO 00000KT 5SM 21/17 RMK SLP106 T02080167 57004 IEM_DS3505
ZBAA,1983-09-05 00:00,ZBAA 050000Z AUTO 34004KT 6SM 21/18 RMK SLP118 T02080177 52011 IEM_DS3505
ZBAA,1983-09-05 03:00,ZBAA 050300Z AUTO 34010KT 5SM 21/18 RMK SLP122 T02140177 52004 IEM_DS3505
ZBAA,1983-09-05 06:00,ZBAA 050600Z AUTO 36008KT 6SM 20/19 RMK 60028 SLP111 T02030187 4////0197 57011 IEM_DS3505
ZBAA,1983-09-05 09:00,ZBAA 050900Z AUTO 07004KT 6SM 21/18 RMK SLP114 T02140184 52003 IEM_DS3505
ZBAA,1983-09-05 12:00,ZBAA 051200Z AUTO 36002KT 6SM 20/18 RMK SLP127 T01960175 52012 IEM_DS3505
ZBAA,1983-09-05 15:00,ZBAA 051500Z AUTO 02002KT 6SM 18/17 RMK SLP134 T01850172 52007 IEM_DS3505
ZBAA,1983-09-05 18:00,ZBAA 051800Z AUTO 00000KT 5SM 18/17 RMK SLP136 T01750168 40233//// 52002 IEM_DS3505
ZBAA,1983-09-05 21:00,ZBAA 052100Z AUTO 25002KT 1 1/4SM 17/16 RMK SLP138 T01660163 52002 IEM_DS3505
ZBAA,1983-09-06 00:00,ZBAA 060000Z AUTO 04004KT 5SM 20/17 RMK 70028 SLP152 T01960168 52014 IEM_DS3505
ZBAA,1983-09-06 03:00,ZBAA 060300Z AUTO 00000KT 9SM 24/16 A2994 RMK SLP150 T02430162 57001 IEM_DS3505
ZBAA,1983-09-06 04:00,ZBAA 060400Z AUTO 00000KT 7SM 26/16 A2994 RMK T02600160 IEM_DS3505
ZBAA,1983-09-06 05:00,ZBAA 060500Z AUTO 30008KT 7SM 27/15 A2994 RMK T02700150 IEM_DS3505
ZBAA,1983-09-06 06:00,ZBAA 060600Z AUTO 18004KT 9SM 27/15 A2991 RMK SLP136 T02730147 4////0159 57014 IEM_DS3505
ZBAA,1983-09-06 07:00,ZBAA 060700Z AUTO 00000KT 7SM 28/15 A2988 RMK T02800150 IEM_DS3505
ZBAA,1983-09-06 08:00,ZBAA 060800Z AUTO 18004KT 7SM 28/15 A2988 RMK T02800150 IEM_DS3505
ZBAA,1983-09-06 09:00,ZBAA 060900Z AUTO 22004KT 9SM 28/16 RMK SLP125 T02800163 57011 IEM_DS3505
ZBAA,1983-09-06 10:00,ZBAA 061000Z AUTO 00000KT 6SM 26/17 A2985 RMK T02600170 IEM_DS3505
ZBAA,1983-09-06 12:00,ZBAA 061200Z AUTO 18004KT 6SM 24/17 RMK SLP137 T02370173 52012 IEM_DS3505
ZBAA,1983-09-06 15:00,ZBAA 061500Z AUTO 00000KT 5SM 21/18 RMK SLP145 T02090179 52008 IEM_DS3505
ZBAA,1983-09-06 18:00,ZBAA 061800Z AUTO 36002KT 5SM 19/17 RMK SLP147 T01920169 40289//// 52002 IEM_DS3505
ZBAA,1983-09-06 21:00,ZBAA 062100Z AUTO 02002KT 5SM 18/15 RMK SLP147 T01790150 54000 IEM_DS3505
ZBAA,1983-09-07 00:00,ZBAA 070000Z AUTO 04008KT 5SM 21/17 RMK SLP155 T02120167 52008 IEM_DS3505
ZBAA,1983-09-07 03:00,ZBAA 070300Z AUTO 36006KT 6SM 24/17 RMK SLP159 T02440167 52004 IEM_DS3505
ZBAA,1983-09-07 06:00,ZBAA 070600Z AUTO 00000KT 5SM 26/19 RMK SLP140 T02630187 4////0174 57019 IEM_DS3505
ZBAA,1983-09-07 09:00,ZBAA 070900Z AUTO 00000KT 4SM 25/20 RMK T02530201 IEM_DS3505
ZBAA,1983-09-07 12:00,ZBAA 071200Z AUTO 00000KT 5SM 24/21 RMK SLP140 T02350212 52002 IEM_DS3505
ZBAA,1983-09-07 15:00,ZBAA 071500Z AUTO 00000KT 5SM 21/19 RMK SLP142 T02060187 52002 IEM_DS3505
ZBAA,1983-09-07 18:00,ZBAA 071800Z AUTO 00000KT 4SM 19/18 RMK 60024 SLP143 T01910176 40265//// 52001 IEM_DS3505
ZBAA,1983-09-07 21:00,ZBAA 072100Z AUTO 07002KT 3SM 18/17 RMK SLP137 T01840174 57006 IEM_DS3505
ZBAA,1983-09-08 00:00,ZBAA 080000Z AUTO 00000KT 1SM 18/18 RMK 60016 70039 SLP140 T01830175 52002 IEM_DS3505
ZBAA,1983-09-08 03:00,ZBAA 080300Z AUTO 11002KT 1SM 18/18 RMK SLP138 T01800175 57002 IEM_DS3505
ZBAA,1983-09-08 06:00,ZBAA 080600Z AUTO 00000KT 1 1/4SM 18/18 RMK 60024 SLP128 T01840179 4////0176 57010 IEM_DS3505
ZBAA,1983-09-08 09:00,ZBAA 080900Z AUTO 02004KT 1 1/4SM 19/18 RMK SLP120 T01860180 57008 IEM_DS3505
ZBAA,1983-09-08 12:00,ZBAA 081200Z AUTO 02002KT 1 1/4SM 19/18 RMK 60001 SLP123 T01860180 52003 IEM_DS3505
ZBAA,1983-09-08 15:00,ZBAA 081500Z AUTO 00000KT 1 1/4SM 18/18 RMK SLP123 T01820179 54000 IEM_DS3505
ZBAA,1983-09-08 18:00,ZBAA 081800Z AUTO 00000KT 1 1/4SM 18/18 RMK 60002 SLP122 T01830178 40193//// 57001 IEM_DS3505
ZBAA,1983-09-08 21:00,ZBAA 082100Z AUTO 00000KT 1 1/4SM 18/17 RMK SLP109 T01780173 57012 IEM_DS3505
ZBAA,1983-09-09 00:00,ZBAA 090000Z AUTO 00000KT 1SM 19/18 RMK 70028 SLP113 T01880181 52004 IEM_DS3505
ZBAA,1983-09-09 03:00,ZBAA 090300Z AUTO 00000KT 5SM 23/18 RMK SLP107 T02340175 57006 IEM_DS3505
ZBAA,1983-09-09 06:00,ZBAA 090600Z AUTO 22006KT 5SM 26/19 RMK SLP086 T02590186 4////0167 57021 IEM_DS3505
ZBAA,1983-09-09 09:00,ZBAA 090900Z AUTO 22010KT 6SM 26/18 RMK SLP076 T02550183 4////0167 57010 IEM_DS3505
ZBAA,1983-09-09 12:00,ZBAA 091200Z AUTO 20008KT 9SM 23/19 RMK SLP080 T02270186 52004 IEM_DS3505
ZBAA,1983-09-09 15:00,ZBAA 091500Z AUTO 00000KT 4SM 21/19 RMK SLP084 T02070188 52004 IEM_DS3505
ZBAA,1983-09-09 18:00,ZBAA 091800Z AUTO 00000KT 2SM 19/18 RMK SLP083 T01890181 40266//// 57001 IEM_DS3505
ZBAA,1983-09-09 21:00,ZBAA 092100Z AUTO 02002KT 2SM 19/18 RMK SLP083 T01890181 54000 IEM_DS3505
ZBAA,1983-09-10 00:00,ZBAA 100000Z AUTO 02004KT 1SM 20/19 RMK SLP086 T02040189 52003 IEM_DS3505
ZBAA,1983-09-10 01:00,ZBAA 100100Z AUTO 02004KT 1SM 20/19 RMK SLP086 T02040189 52003 IEM_DS3505
ZBAA,1983-09-10 02:00,ZBAA 100200Z AUTO 00000KT 6SM 23/19 RMK T02300190 IEM_DS3505
ZBAA,1983-09-10 03:00,ZBAA 100300Z AUTO 00000KT 4SM 25/16 A2974 RMK SLP081 T02480163 57005 IEM_DS3505
ZBAA,1983-09-10 04:00,ZBAA 100400Z AUTO 31006KT 6SM 26/17 A2971 RMK T02600170 IEM_DS3505
ZBAA,1983-09-10 05:00,ZBAA 100500Z AUTO 01006KT 6SM 28/17 A2971 RMK T02800170 IEM_DS3505
ZBAA,1983-09-10 06:00,ZBAA 100600Z AUTO 06002KT 6SM 27/18 A2968 RMK SLP063 T02700180 4////0181 57017 IEM_DS3505
ZBAA,1983-09-10 07:00,ZBAA 100700Z AUTO 12002KT 6SM 27/18 A2968 RMK T02700180 IEM_DS3505
ZBAA,1983-09-10 08:00,ZBAA 100800Z AUTO 10002KT 6SM 27/19 A2965 RMK T02700190 IEM_DS3505
ZBAA,1983-09-10 09:00,ZBAA 100900Z AUTO 20006KT 5SM 27/20 A2965 RMK SLP056 T02720196 57007 IEM_DS3505
ZBAA,1983-09-10 10:00,ZBAA 101000Z AUTO 16012KT 6SM 26/20 A2965 RMK T02600200 IEM_DS3505
ZBAA,1983-09-10 11:00,ZBAA 101100Z AUTO 00000KT 6SM 24/19 A2965 RMK T02400190 IEM_DS3505
ZBAA,1983-09-10 12:00,ZBAA 101200Z AUTO 20004KT 4SM 24/19 RMK SLP061 T02400190 52004 IEM_DS3505
ZBAA,1983-09-10 15:00,ZBAA 101500Z AUTO 00000KT 4SM 21/18 RMK SLP066 T02100175 52005 IEM_DS3505
ZBAA,1983-09-10 18:00,ZBAA 101800Z AUTO 00000KT 4SM 19/18 RMK SLP066 T01910175 40286//// 52001 IEM_DS3505
ZBAA,1983-09-10 21:00,ZBAA 102100Z AUTO 00000KT 5SM 18/16 RMK SLP067 T01780155 54000 IEM_DS3505
ZBAA,1983-09-11 00:00,ZBAA 110000Z AUTO 34004KT 16SM 21/15 RMK SLP073 T02130153 52006 IEM_DS3505
ZBAA,1983-09-11 03:00,ZBAA 110300Z AUTO 36004KT 12SM 25/15 RMK SLP076 T02490152 52004 IEM_DS3505
ZBAA,1983-09-11 06:00,ZBAA 110600Z AUTO 25002KT 19SM 28/15 RMK SLP070 T02820148 4////0172 57006 IEM_DS3505
ZBAA,1983-09-11 09:00,ZBAA 110900Z AUTO 00000KT 16SM 29/15 RMK SLP067 T02900151 57003 IEM_DS3505
ZBAA,1983-09-11 12:00,ZBAA 111200Z AUTO 18004KT 16SM 24/18 RMK SLP070 T02440180 52002 IEM_DS3505
ZBAA,1983-09-11 15:00,ZBAA 111500Z AUTO 00000KT 12SM 21/18 RMK SLP080 T02090183 52010 IEM_DS3505
ZBAA,1983-09-11 18:00,ZBAA 111800Z AUTO 00000KT 4SM 19/17 RMK SLP083 T01890172 40296//// 52004 IEM_DS3505
ZBAA,1983-09-11 21:00,ZBAA 112100Z AUTO 00000KT 4SM 18/16 RMK SLP090 T01750162 52007 IEM_DS3505
ZBAA,1983-09-12 00:00,ZBAA 120000Z AUTO 00000KT 4SM 20/18 RMK SLP096 T02050176 52005 IEM_DS3505
ZBAA,1983-09-12 03:00,ZBAA 120300Z AUTO 00000KT 5SM 26/16 RMK SLP101 T02640157 52006 IEM_DS3505
ZBAA,1983-09-12 06:00,ZBAA 120600Z AUTO 18006KT 6SM 30/18 RMK SLP091 T02980179 4////0165 57010 IEM_DS3505
ZBAA,1983-09-12 09:00,ZBAA 120900Z AUTO 20006KT 6SM 28/19 RMK SLP084 T02830189 57008 IEM_DS3505
ZBAA,1983-09-12 12:00,ZBAA 121200Z AUTO 18004KT 5SM 25/20 RMK SLP095 T02480196 52011 IEM_DS3505
ZBAA,1983-09-12 15:00,ZBAA 121500Z AUTO 00000KT 5SM 22/19 RMK SLP098 T02230194 52004 IEM_DS3505
ZBAA,1983-09-12 18:00,ZBAA 121800Z AUTO 36004KT 5SM 19/18 RMK SLP104 T01920176 40301//// 52006 IEM_DS3505
ZBAA,1983-09-12 21:00,ZBAA 122100Z AUTO 36006KT 5SM 19/14 RMK SLP111 T01900142 52007 IEM_DS3505
ZBAA,1983-09-13 00:00,ZBAA 130000Z AUTO 02008KT 9SM 22/11 RMK SLP129 T02170114 52017 IEM_DS3505
ZBAA,1983-09-13 03:00,ZBAA 130300Z AUTO 36010KT 12SM 26/06 RMK SLP129 T02570059 54000 IEM_DS3505
ZBAA,1983-09-13 05:00,ZBAA 130500Z AUTO 02006KT 7SM 28/07 A2983 RMK T02800070 IEM_DS3505
ZBAA,1983-09-13 06:00,ZBAA 130600Z AUTO 04006KT 19SM 29/09 A2980 RMK T02860091 4////0185 57022 IEM_DS3505
ZBAA,1983-09-13 07:00,ZBAA 130700Z AUTO 08004KT 7SM 29/09 A2977 RMK T02900090 IEM_DS3505
ZBAA,1983-09-13 08:00,ZBAA 130800Z AUTO 11004KT 6SM 29/09 A2977 RMK T02900090 IEM_DS3505
ZBAA,1983-09-13 09:00,ZBAA 130900Z AUTO 18004KT 9SM 28/12 RMK SLP090 T02810116 57016 IEM_DS3505
ZBAA,1983-09-13 12:00,ZBAA 131200Z AUTO 29004KT 9SM 22/16 RMK SLP093 T02220162 52002 IEM_DS3505
ZBAA,1983-09-13 15:00,ZBAA 131500Z AUTO 00000KT 6SM 21/16 RMK SLP096 T02100161 52004 IEM_DS3505
ZBAA,1983-09-13 18:00,ZBAA 131800Z AUTO 00000KT 9SM 21/14 RMK SLP080 T02110141 40297//// 57016 IEM_DS3505
ZBAA,1983-09-13 21:00,ZBAA 132100Z AUTO 29004KT 6SM 20/15 RMK SLP075 T01960148 57005 IEM_DS3505
ZBAA,1983-09-14 00:00,ZBAA 140000Z AUTO 34004KT 5SM 21/16 RMK SLP082 T02070163 52006 IEM_DS3505
ZBAA,1983-09-14 03:00,ZBAA 140300Z AUTO 04004KT 6SM 26/15 RMK SLP073 T02580148 57008 IEM_DS3505
ZBAA,1983-09-14 06:00,ZBAA 140600Z AUTO 20006KT 5SM 29/15 RMK SLP052 T02910154 4////0177 57021 IEM_DS3505
ZBAA,1983-09-14 09:00,ZBAA 140900Z AUTO 18006KT 6SM 28/19 RMK SLP041 T02820186 57011 IEM_DS3505
ZBAA,1983-09-14 12:00,ZBAA 141200Z AUTO 32004KT 7SM 19/17 RMK 60020 SLP068 T01890169 52027 IEM_DS3505
ZBAA,1983-09-14 15:00,ZBAA 141500Z AUTO 00000KT 6SM 18/16 RMK SLP076 T01810157 52008 IEM_DS3505
ZBAA,1983-09-14 18:00,ZBAA 141800Z AUTO 00000KT 2 1/2SM 18/16 RMK SLP078 T01750160 40299//// 52003 IEM_DS3505
ZBAA,1983-09-14 21:00,ZBAA 142100Z AUTO 04004KT 6SM 17/14 RMK SLP080 T01710143 52001 IEM_DS3505
ZBAA,1983-09-15 00:00,ZBAA 150000Z AUTO 02004KT 6SM 19/15 RMK 70020 SLP091 T01930146 52011 IEM_DS3505
ZBAA,1983-09-15 03:00,ZBAA 150300Z AUTO 04006KT 9SM 25/13 RMK SLP091 T02510134 54000 IEM_DS3505
ZBAA,1983-09-15 06:00,ZBAA 150600Z AUTO 02006KT 19SM 28/10 RMK SLP080 T02810096 4////0162 57011 IEM_DS3505
ZBAA,1983-09-15 09:00,ZBAA 150900Z AUTO 36002KT 19SM 29/12 RMK SLP079 T02880120 54000 IEM_DS3505
ZBAA,1983-09-15 12:00,ZBAA 151200Z AUTO 00000KT 12SM 22/16 RMK SLP093 T02230164 52013 IEM_DS3505
ZBAA,1983-09-15 15:00,ZBAA 151500Z AUTO 00000KT 9SM 20/16 RMK SLP104 T01950162 52011 IEM_DS3505
ZBAA,1983-09-15 18:00,ZBAA 151800Z AUTO 00000KT 9SM 20/16 RMK SLP104 T01950162 40293//// 52011 IEM_DS3505
ZBAA,1983-09-15 20:00,ZBAA 152000Z AUTO 34004KT 6SM 19/15 RMK SLP108 T01910148 IEM_DS3505
ZBAA,1983-09-15 21:00,ZBAA 152100Z AUTO 34004KT 6SM 19/15 RMK SLP108 T01910148 52005 IEM_DS3505
ZBAA,1983-09-16 00:00,ZBAA 160000Z AUTO 00000KT 2 1/2SM 21/17 RMK SLP119 T02080169 52010 IEM_DS3505
ZBAA,1983-09-16 03:00,ZBAA 160300Z AUTO 02004KT 5SM 25/17 RMK SLP122 T02480173 52003 IEM_DS3505
ZBAA,1983-09-16 06:00,ZBAA 160600Z AUTO 09002KT 5SM 27/20 RMK SLP102 T02720197 4////0185 57019 IEM_DS3505
ZBAA,1983-09-16 09:00,ZBAA 160900Z AUTO 18006KT 4SM 27/22 RMK SLP094 T02710216 57008 IEM_DS3505
ZBAA,1983-09-16 12:00,ZBAA 161200Z AUTO 00000KT 4SM 24/22 RMK SLP104 T02390215 52009 IEM_DS3505
ZBAA,1983-09-16 15:00,ZBAA 161500Z AUTO 14002KT 2 1/2SM 22/20 RMK SLP109 T02200200 52006 IEM_DS3505
ZBAA,1983-09-16 18:00,ZBAA 161800Z AUTO 36002KT 1 1/4SM 20/19 RMK SLP109 T02000186 40285//// 54000 IEM_DS3505
ZBAA,1983-09-16 21:00,ZBAA 162100Z AUTO 00000KT 1/4SM 21/20 RMK SLP108 T02060203 57001 IEM_DS3505
ZBAA,1983-09-17 00:00,ZBAA 170000Z AUTO 34002KT 3/8SM 21/20 RMK SLP123 T02090204 52014 IEM_DS3505
ZBAA,1983-09-17 03:00,ZBAA 170300Z AUTO 00000KT 2SM 26/21 A2983 RMK SLP119 T02580207 57004 IEM_DS3505
ZBAA,1983-09-17 04:00,ZBAA 170400Z AUTO 19004KT 4SM 28/21 A2983 RMK T02800210 IEM_DS3505
ZBAA,1983-09-17 05:00,ZBAA 170500Z AUTO 21004KT 4SM 30/20 A2983 RMK T03000200 IEM_DS3505
ZBAA,1983-09-17 06:00,ZBAA 170600Z AUTO 20006KT 4SM 30/19 A2980 RMK SLP101 T02970189 4////0194 57017 IEM_DS3505
ZBAA,1983-09-17 07:00,ZBAA 170700Z AUTO 18010KT 5SM 30/20 A2980 RMK T03000200 IEM_DS3505
ZBAA,1983-09-17 08:00,ZBAA 170800Z AUTO 18012KT 5SM 30/19 A2977 RMK T03000190 IEM_DS3505
ZBAA,1983-09-17 09:00,ZBAA 170900Z AUTO 18006KT 6SM 29/19 A2977 RMK SLP095 T02890190 57006 IEM_DS3505
ZBAA,1983-09-17 12:00,ZBAA 171200Z AUTO 20006KT 6SM 26/19 RMK SLP105 T02590188 52010 IEM_DS3505
ZBAA,1983-09-17 15:00,ZBAA 171500Z AUTO 16006KT 4SM 25/19 RMK SLP110 T02490190 52005 IEM_DS3505
ZBAA,1983-09-17 18:00,ZBAA 171800Z AUTO 20004KT 4SM 23/19 RMK SLP107 T02280192 40305//// 57003 IEM_DS3505
ZBAA,1983-09-17 21:00,ZBAA 172100Z AUTO 00000KT 2 1/2SM 21/19 RMK SLP108 T02140192 52001 IEM_DS3505
ZBAA,1983-09-18 00:00,ZBAA 180000Z AUTO 04002KT 2 1/2SM 22/20 RMK SLP118 T02240199 52009 IEM_DS3505
ZBAA,1983-09-18 03:00,ZBAA 180300Z AUTO 36012KT 6SM 25/15 RMK SLP131 T02500148 52014 IEM_DS3505
ZBAA,1983-09-18 06:00,ZBAA 180600Z AUTO 36012KT 9SM 22/14 RMK SLP138 T02150144 4////0207 52006 IEM_DS3505
ZBAA,1983-09-18 09:00,ZBAA 180900Z AUTO 36010KT 12SM 19/15 RMK SLP148 T01940150 52009 IEM_DS3505
ZBAA,1983-09-18 12:00,ZBAA 181200Z AUTO 36006KT 19SM 19/16 RMK 60001 SLP155 T01870158 52007 IEM_DS3505
ZBAA,1983-09-18 15:00,ZBAA 181500Z AUTO 02006KT 19SM 18/15 RMK SLP159 T01820149 52005 IEM_DS3505
ZBAA,1983-09-18 18:00,ZBAA 181800Z AUTO 36002KT 16SM 16/14 RMK SLP163 T01600141 40252//// 52003 IEM_DS3505
ZBAA,1983-09-18 21:00,ZBAA 182100Z AUTO 00000KT 6SM 14/14 RMK SLP170 T01420136 52006 IEM_DS3505
ZBAA,1983-09-19 00:00,ZBAA 190000Z AUTO 36006KT 16SM 19/13 RMK SLP185 T01900130 52016 IEM_DS3505
ZBAA,1983-09-19 03:00,ZBAA 190300Z AUTO 02012KT 19SM 24/06 RMK SLP189 T02420064 52005 IEM_DS3505
ZBAA,1983-09-19 06:00,ZBAA 190600Z AUTO 32006KT 19SM 20/00 RMK SLP170 T02000002 4////0138 57019 IEM_DS3505
ZBAA,1983-09-19 09:00,ZBAA 190900Z AUTO 36006KT 19SM 26/08 RMK SLP164 T02620077 57007 IEM_DS3505
ZBAA,1983-09-19 12:00,ZBAA 191200Z AUTO 34002KT 12SM 19/11 RMK SLP181 T01940111 52017 IEM_DS3505
ZBAA,1983-09-19 15:00,ZBAA 191500Z AUTO 00000KT 12SM 17/10 RMK SLP190 T01690101 52009 IEM_DS3505
ZBAA,1983-09-19 18:00,ZBAA 191800Z AUTO 34004KT 9SM 15/10 RMK SLP193 T01510100 40267//// 51003 IEM_DS3505
ZBAA,1983-09-19 21:00,ZBAA 192100Z AUTO 04004KT 6SM 16/11 RMK SLP195 T01650112 IEM_DS3505
ZBAA,1983-09-20 00:00,ZBAA 200000Z AUTO 04006KT 6SM 18/10 RMK SLP204 T01850096 52008 IEM_DS3505
ZBAA,1983-09-20 01:00,ZBAA 200100Z AUTO 02008KT 7SM 19/11 A3009 RMK T01900110 IEM_DS3505
ZBAA,1983-09-20 03:00,ZBAA 200300Z AUTO 00000KT 7SM 23/12 A3009 RMK SLP200 T02270117 57004 IEM_DS3505
ZBAA,1983-09-20 04:00,ZBAA 200400Z AUTO 21006KT 6SM 24/14 A3006 RMK T02400140 IEM_DS3505
ZBAA,1983-09-20 05:00,ZBAA 200500Z AUTO 14004KT 6SM 24/14 A3003 RMK T02400140 IEM_DS3505
ZBAA,1983-09-20 06:00,ZBAA 200600Z AUTO 16006KT 6SM 24/14 A3000 RMK SLP170 T02360140 4////0147 57030 IEM_DS3505
ZBAA,1983-09-20 07:00,ZBAA 200700Z AUTO 21006KT 6SM 24/14 A2997 RMK T02400140 IEM_DS3505
ZBAA,1983-09-20 08:00,ZBAA 200800Z AUTO 00000KT 6SM 24/13 A2997 RMK T02400130 IEM_DS3505
ZBAA,1983-09-20 09:00,ZBAA 200900Z AUTO 16006KT 7SM 24/13 A2994 RMK SLP157 T02400132 57013 IEM_DS3505
ZBAA,1983-09-20 10:00,ZBAA 201000Z AUTO 16004KT 7SM 24/13 RMK SLP158 T02400132 57101 IEM_DS3505
ZBAA,1983-09-20 12:00,ZBAA 201200Z AUTO 16008KT 9SM 22/18 RMK SLP159 T02220175 52002 IEM_DS3505
ZBAA,1983-09-20 15:00,ZBAA 201500Z AUTO 20004KT 6SM 20/14 RMK SLP157 T02040139 57001 IEM_DS3505
ZBAA,1983-09-20 18:00,ZBAA 201800Z AUTO 32002KT 6SM 20/15 RMK SLP153 T01960148 40246//// 57004 IEM_DS3505
ZBAA,1983-09-20 21:00,ZBAA 202100Z AUTO 04002KT 5SM 18/16 RMK SLP153 T01820158 54000 IEM_DS3505
ZBAA,1983-09-21 00:00,ZBAA 210000Z AUTO 00000KT 2 1/2SM 18/16 RMK 60001 SLP160 T01840163 52006 IEM_DS3505
ZBAA,1983-09-21 03:00,ZBAA 210300Z AUTO 27004KT 3SM 21/15 RMK SLP157 T02100149 57003 IEM_DS3505
ZBAA,1983-09-21 06:00,ZBAA 210600Z AUTO 20006KT 7SM 23/14 RMK SLP141 T02330144 4////0179 57015 IEM_DS3505
ZBAA,1983-09-21 09:00,ZBAA 210900Z AUTO 18006KT 9SM 24/15 RMK SLP130 T02350147 57012 IEM_DS3505
ZBAA,1983-09-21 12:00,ZBAA 211200Z AUTO 20006KT 9SM 20/16 RMK SLP138 T02030155 52008 IEM_DS3505
ZBAA,1983-09-21 15:00,ZBAA 211500Z AUTO 20004KT 7SM 18/16 RMK SLP138 T01830160 54000 IEM_DS3505
ZBAA,1983-09-21 18:00,ZBAA 211800Z AUTO 00000KT 5SM 16/15 RMK SLP138 T01630153 40243//// 54000 IEM_DS3505
ZBAA,1983-09-21 21:00,ZBAA 212100Z AUTO 00000KT 4SM 15/14 RMK SLP140 T01520143 52002 IEM_DS3505
ZBAA,1983-09-22 00:00,ZBAA 220000Z AUTO 00000KT 3SM 18/15 RMK SLP145 T01760152 52005 IEM_DS3505
ZBAA,1983-09-22 03:00,ZBAA 220300Z AUTO 11002KT 6SM 23/16 RMK SLP144 T02310161 57001 IEM_DS3505
ZBAA,1983-09-22 06:00,ZBAA 220600Z AUTO 18004KT 5SM 24/16 RMK SLP129 T02430160 4////0150 57015 IEM_DS3505
ZBAA,1983-09-22 09:00,ZBAA 220900Z AUTO 16002KT 5SM 24/16 RMK SLP122 T02380165 57007 IEM_DS3505
ZBAA,1983-09-22 12:00,ZBAA 221200Z AUTO 16004KT 4SM 22/17 RMK SLP123 T02170170 52001 IEM_DS3505
ZBAA,1983-09-22 15:00,ZBAA 221500Z AUTO 00000KT 4SM 20/17 RMK SLP128 T01960173 52006 IEM_DS3505
ZBAA,1983-09-22 18:00,ZBAA 221800Z AUTO 00000KT 1SM 17/16 RMK SLP127 T01740164 40250//// 57002 IEM_DS3505
ZBAA,1983-09-22 21:00,ZBAA 222100Z AUTO 00000KT 1SM 17/16 RMK SLP123 T01660159 57004 IEM_DS3505
ZBAA,1983-09-23 00:00,ZBAA 230000Z AUTO 00000KT 1SM 17/16 RMK SLP129 T01710163 52006 IEM_DS3505
ZBAA,1983-09-23 03:00,ZBAA 230300Z AUTO 00000KT 2 1/2SM 23/17 RMK SLP117 T02280170 57011 IEM_DS3505
ZBAA,1983-09-23 06:00,ZBAA 230600Z AUTO 18008KT 3SM 26/18 RMK SLP089 T02650179 4////0160 57028 IEM_DS3505
ZBAA,1983-09-23 09:00,ZBAA 230900Z AUTO 18008KT 3SM 26/17 RMK SLP075 T02580172 57014 IEM_DS3505
ZBAA,1983-09-23 12:00,ZBAA 231200Z AUTO 18004KT 6SM 23/17 RMK SLP076 T02280173 52001 IEM_DS3505
ZBAA,1983-09-23 15:00,ZBAA 231500Z AUTO 02006KT 6SM 20/18 RMK SLP091 T02020175 52015 IEM_DS3505
ZBAA,1983-09-23 18:00,ZBAA 231800Z AUTO 36004KT 7SM 20/12 RMK SLP098 T01990125 40274//// 52008 IEM_DS3505
ZBAA,1983-09-23 21:00,ZBAA 232100Z AUTO 36008KT 16SM 17/01 RMK SLP112 T01740006 52013 IEM_DS3505
ZBAA,1983-09-24 00:00,ZBAA 240000Z AUTO 02004KT 12SM 19/03 RMK SLP127 T01880034 52014 IEM_DS3505
ZBAA,1983-09-24 03:00,ZBAA 240300Z AUTO 36008KT 16SM 24/01 RMK SLP123 T02400010 57003 IEM_DS3505
ZBAA,1983-09-24 06:00,ZBAA 240600Z AUTO 18006KT 19SM 27/01 RMK SLP104 T02660008 4////0156 57018 IEM_DS3505
ZBAA,1983-09-24 07:00,ZBAA 240700Z AUTO 22008KT 7SM 28/02 A2980 RMK T02800020 IEM_DS3505
ZBAA,1983-09-24 08:00,ZBAA 240800Z AUTO 20010KT 7SM 27/00 A2977 RMK T02700000 IEM_DS3505
ZBAA,1983-09-24 09:00,ZBAA 240900Z AUTO 16008KT 16SM 26/05 A2977 RMK SLP093 T02630048 57012 IEM_DS3505
ZBAA,1983-09-24 10:00,ZBAA 241000Z AUTO 16006KT 7SM 23/08 A2977 RMK T02300080 IEM_DS3505
ZBAA,1983-09-24 11:00,ZBAA 241100Z AUTO 00000KT 7SM 21/07 A2977 RMK T02100070 IEM_DS3505
ZBAA,1983-09-24 12:00,ZBAA 241200Z AUTO 20008KT 12SM 22/07 A2977 RMK SLP093 T02150067 54000 IEM_DS3505
ZBAA,1983-09-24 15:00,ZBAA 241500Z AUTO 00000KT 12SM 18/08 RMK SLP094 T01830085 52001 IEM_DS3505
ZBAA,1983-09-24 18:00,ZBAA 241800Z AUTO 04004KT 9SM 16/08 RMK SLP100 T01630078 52006 IEM_DS3505
ZBAA,1983-09-24 21:00,ZBAA 242100Z AUTO 00000KT 5SM 13/08 RMK SLP111 T01270085 52011 IEM_DS3505
ZBAA,1983-09-25 00:00,ZBAA 250000Z AUTO 36004KT 6SM 16/08 RMK SLP125 T01630083 52013 IEM_DS3505
ZBAA,1983-09-25 03:00,ZBAA 250300Z AUTO 02008KT 8SM 24/05 RMK SLP127 T02440054 52003 IEM_DS3505
ZBAA,1983-09-25 06:00,ZBAA 250600Z AUTO 00000KT 12SM 27/06 RMK SLP106 T02720056 4////0116 57021 IEM_DS3505
ZBAA,1983-09-25 09:00,ZBAA 250900Z AUTO 16006KT 7SM 27/06 RMK SLP101 T02700056 57005 IEM_DS3505
ZBAA,1983-09-25 12:00,ZBAA 251200Z AUTO 18002KT 6SM 22/08 RMK SLP116 T02180085 52010 IEM_DS3505
ZBAA,1983-09-25 15:00,ZBAA 251500Z AUTO 18006KT 6SM 21/09 RMK SLP125 T02070086 52010 IEM_DS3505
ZBAA,1983-09-25 18:00,ZBAA 251800Z AUTO 04004KT 11SM 19/10 RMK SLP136 T01870101 40286//// 52011 IEM_DS3505
ZBAA,1983-09-25 21:00,ZBAA 252100Z AUTO 36006KT 5SM 16/13 RMK SLP160 T01590127 52024 IEM_DS3505
ZBAA,1983-09-26 00:00,ZBAA 260000Z AUTO 36006KT 4SM 19/17 RMK SLP179 T01890166 52018 IEM_DS3505
ZBAA,1983-09-26 03:00,ZBAA 260300Z AUTO 02010KT 9SM 24/06 RMK SLP187 T02360062 52009 IEM_DS3505
ZBAA,1983-09-26 06:00,ZBAA 260600Z AUTO 04004KT 12SM 26/08 RMK SLP178 T02570077 4////0155 57009 IEM_DS3505
ZBAA,1983-09-26 09:00,ZBAA 260900Z AUTO 07004KT 12SM 25/03 RMK SLP182 T02470028 52003 IEM_DS3505
ZBAA,1983-09-26 12:00,ZBAA 261200Z AUTO 02002KT 9SM 20/08 RMK SLP203 T02040085 52021 IEM_DS3505
ZBAA,1983-09-26 15:00,ZBAA 261500Z AUTO 18010KT 6SM 20/11 RMK SLP222 T02040112 52019 IEM_DS3505
ZBAA,1983-09-26 18:00,ZBAA 261800Z AUTO 16004KT 6SM 19/08 RMK SLP229 T01910081 40259//// 52007 IEM_DS3505
ZBAA,1983-09-26 21:00,ZBAA 262100Z AUTO 16004KT 6SM 18/08 RMK SLP225 T01750083 57004 IEM_DS3505
ZBAA,1983-09-27 00:00,ZBAA 270000Z AUTO 20004KT 6SM 18/07 RMK SLP230 T01750069 52005 IEM_DS3505
ZBAA,1983-09-27 03:00,ZBAA 270300Z AUTO 16006KT 11SM 20/01 RMK SLP230 T02010006 54000 IEM_DS3505
ZBAA,1983-09-27 05:00,ZBAA 270500Z AUTO 20006KT 6SM 21/02 A3012 RMK T02100020 IEM_DS3505
ZBAA,1983-09-27 06:00,ZBAA 270600Z AUTO 16010KT 12SM 21/01 A3012 RMK SLP209 T02090010 4////0165 57021 IEM_DS3505
ZBAA,1983-09-27 08:00,ZBAA 270800Z AUTO 21008KT 6SM 21/02 A3006 RMK T02100020 IEM_DS3505
ZBAA,1983-09-27 09:00,ZBAA 270900Z AUTO 16008KT 12SM 20/01 A3006 RMK SLP199 T02000014 57010 IEM_DS3505
ZBAA,1983-09-27 10:00,ZBAA 271000Z AUTO 18006KT 6SM 19/03 A3009 RMK T01900030 IEM_DS3505
ZBAA,1983-09-27 11:00,ZBAA 271100Z AUTO 18004KT 6SM 18/05 A3006 RMK T01800050 IEM_DS3505
ZBAA,1983-09-27 12:00,ZBAA 271200Z AUTO 18004KT 6SM 18/04 A3006 RMK SLP200 T01800040 52001 IEM_DS3505
ZBAA,1983-09-27 15:00,ZBAA 271500Z AUTO 22002KT 9SM 16/08 RMK SLP197 T01650081 57003 IEM_DS3505
ZBAA,1983-09-27 18:00,ZBAA 271800Z AUTO 00000KT 5SM 16/10 RMK SLP191 T01570100 40214//// 57006 IEM_DS3505
ZBAA,1983-09-27 21:00,ZBAA 272100Z AUTO 07002KT 5SM 15/10 RMK SLP177 T01480103 57014 IEM_DS3505
ZBAA,1983-09-28 00:00,ZBAA 280000Z AUTO 00000KT 3SM 15/11 RMK SLP184 T01510106 52006 IEM_DS3505
ZBAA,1983-09-28 03:00,ZBAA 280300Z AUTO 20004KT 4SM 21/07 RMK SLP178 T02060072 57005 IEM_DS3505
ZBAA,1983-09-28 06:00,ZBAA 280600Z AUTO 16008KT 12SM 22/11 RMK SLP156 T02240112 4////0136 57022 IEM_DS3505
ZBAA,1983-09-28 09:00,ZBAA 280900Z AUTO 20010KT 7SM 22/12 RMK SLP142 T02210123 57014 IEM_DS3505
ZBAA,1983-09-28 12:00,ZBAA 281200Z AUTO 18004KT 7SM 19/13 RMK SLP160 T01930132 52018 IEM_DS3505
ZBAA,1983-09-28 15:00,ZBAA 281500Z AUTO 25004KT 6SM 16/15 RMK SLP171 T01600149 52011 IEM_DS3505
ZBAA,1983-09-28 18:00,ZBAA 281800Z AUTO 00000KT 4SM 14/14 RMK 60008 SLP160 T01450136 40230//// 57011 IEM_DS3505
ZBAA,1983-09-28 21:00,ZBAA 282100Z AUTO 00000KT 1SM 13/13 RMK 70008 SLP161 T01340127 52001 IEM_DS3505
ZBAA,1983-09-29 00:00,ZBAA 290000Z AUTO 00000KT 4SM 16/15 RMK 70008 SLP171 T01580148 52010 IEM_DS3505
ZBAA,1983-09-29 03:00,ZBAA 290300Z AUTO 00000KT 2SM 20/15 RMK SLP170 T01980148 57001 IEM_DS3505
ZBAA,1983-09-29 06:00,ZBAA 290600Z AUTO 04004KT 1 1/4SM 22/16 RMK SLP146 T02160160 4////0125 57024 IEM_DS3505
ZBAA,1983-09-29 09:00,ZBAA 290900Z AUTO 18006KT 6SM 24/15 RMK SLP126 T02360151 57020 IEM_DS3505
ZBAA,1983-09-29 12:00,ZBAA 291200Z AUTO 20006KT 6SM 20/16 RMK SLP124 T02050157 57002 IEM_DS3505
ZBAA,1983-09-29 15:00,ZBAA 291500Z AUTO 02002KT 2SM 18/16 RMK SLP132 T01800158 52008 IEM_DS3505
ZBAA,1983-09-29 18:00,ZBAA 291800Z AUTO 02006KT 6SM 17/14 RMK SLP143 T01680144 40238//// 52011 IEM_DS3505
ZBAA,1983-09-29 21:00,ZBAA 292100Z AUTO 02006KT 5SM 16/14 RMK SLP133 T01570143 57010 IEM_DS3505
ZBAA,1983-09-30 00:00,ZBAA 300000Z AUTO 00000KT 3SM 17/15 RMK 60000 SLP154 T01710150 52021 IEM_DS3505
ZBAA,1983-09-30 03:00,ZBAA 300300Z AUTO 14002KT 5SM 23/15 RMK SLP153 T02310151 57001 IEM_DS3505
ZBAA,1983-09-30 06:00,ZBAA 300600Z AUTO 18002KT 6SM 26/16 RMK SLP134 T02580159 4////0150 57018 IEM_DS3505
ZBAA,1983-09-30 09:00,ZBAA 300900Z AUTO 16004KT 6SM 25/14 RMK SLP132 T02530141 57003 IEM_DS3505
ZBAA,1983-09-30 12:00,ZBAA 301200Z AUTO 11014KT 5SM 21/17 RMK SLP151 T02060170 52019 IEM_DS3505
ZBAA,1983-09-30 15:00,ZBAA 301500Z AUTO 11008KT 6SM 18/14 RMK SLP176 T01760145 52025 IEM_DS3505
ZBAA,1983-09-30 18:00,ZBAA 301800Z AUTO 04002KT 2 1/2SM 16/14 RMK SLP174 T01600141 40264//// 57002 IEM_DS3505
ZBAA,1983-09-30 21:00,ZBAA 302100Z AUTO 32002KT 2 1/2SM 15/14 RMK SLP162 T01510144 57012 IEM_DS3505
ZBAA,1983-10-01 00:00,ZBAA 010000Z AUTO 36002KT 4SM 16/14 RMK 60001 SLP157 T01590145 57005 IEM_DS3505
ZBAA,1983-10-01 02:00,ZBAA 010200Z AUTO 00000KT 7SM 17/14 A2994 RMK T01700140 IEM_DS3505
ZBAA,1983-10-01 03:00,ZBAA 010300Z AUTO 34006KT 4SM 17/15 A2994 RMK SLP153 T01700146 57004 IEM_DS3505
ZBAA,1983-10-01 04:00,ZBAA 010400Z AUTO 00000KT 7SM 19/14 A2991 RMK T01900140 IEM_DS3505
ZBAA,1983-10-01 05:00,ZBAA 010500Z AUTO 00000KT 7SM 19/15 A2991 RMK T01900150 IEM_DS3505
ZBAA,1983-10-01 06:00,ZBAA 010600Z AUTO 07002KT 4SM 19/15 A2988 RMK SLP133 T01910154 4////0148 57020 IEM_DS3505
ZBAA,1983-10-01 07:00,ZBAA 010700Z AUTO 00000KT 6SM 22/15 A2985 RMK T02200150 IEM_DS3505
ZBAA,1983-10-01 08:00,ZBAA 010800Z AUTO 00000KT 6SM 22/15 A2983 RMK T02200150 IEM_DS3505
ZBAA,1983-10-01 09:00,ZBAA 010900Z AUTO 20012KT 2SM 21/16 A2983 RMK SLP140 T02080157 52007 IEM_DS3505
ZBAA,1983-10-01 12:00,ZBAA 011200Z AUTO 00000KT 6SM 18/16 RMK 60028 SLP128 T01790161 57013 IEM_DS3505
ZBAA,1983-10-01 15:00,ZBAA 011500Z AUTO 00000KT 4SM 16/15 RMK SLP145 T01580148 52017 IEM_DS3505
ZBAA,1983-10-01 18:00,ZBAA 011800Z AUTO 04004KT 3SM 16/14 RMK SLP149 T01550145 40217//// 52005 IEM_DS3505
ZBAA,1983-10-01 21:00,ZBAA 012100Z AUTO 34004KT 4SM 15/13 RMK 70028 SLP158 T01520127 52009 IEM_DS3505
ZBAA,1983-10-02 00:00,ZBAA 020000Z AUTO 02008KT 19SM 17/07 RMK SLP178 T01740068 52020 IEM_DS3505
ZBAA,1983-10-02 03:00,ZBAA 020300Z AUTO 04008KT 19SM 21/06 RMK SLP193 T02060056 52015 IEM_DS3505
ZBAA,1983-10-02 06:00,ZBAA 020600Z AUTO 00000KT 19SM 24/05 RMK SLP167 T02380051 4////0147 57026 IEM_DS3505
ZBAA,1983-10-02 09:00,ZBAA 020900Z AUTO 20006KT 19SM 23/08 RMK SLP156 T02320082 57011 IEM_DS3505
ZBAA,1983-10-02 12:00,ZBAA 021200Z AUTO 18004KT 19SM 19/ RMK SLP164 52008 IEM_DS3505
ZBAA,1983-10-02 15:00,ZBAA 021500Z AUTO 18006KT 16SM 17/11 RMK SLP171 T01670114 52007 IEM_DS3505
ZBAA,1983-10-02 18:00,ZBAA 021800Z AUTO 00000KT 9SM 15/12 RMK SLP168 T01500123 40247//// 57003 IEM_DS3505
ZBAA,1983-10-02 21:00,ZBAA 022100Z AUTO 02002KT 7SM 14/12 RMK SLP161 T01420122 57007 IEM_DS3505
ZBAA,1983-10-03 00:00,ZBAA 030000Z AUTO 02002KT 8SM 15/11 RMK SLP164 T01500113 52002 IEM_DS3505
ZBAA,1983-10-03 03:00,ZBAA 030300Z AUTO 02004KT 6SM 20/13 RMK SLP160 T01990133 57003 IEM_DS3505
ZBAA,1983-10-03 06:00,ZBAA 030600Z AUTO 22004KT 6SM 24/13 RMK SLP133 T02350134 4////0136 57027 IEM_DS3505
ZBAA,1983-10-03 09:00,ZBAA 030900Z AUTO 18004KT 6SM 24/14 RMK SLP125 T02430145 57008 IEM_DS3505
ZBAA,1983-10-03 12:00,ZBAA 031200Z AUTO 00000KT 6SM 19/15 RMK SLP134 T01940154 52009 IEM_DS3505
ZBAA,1983-10-03 15:00,ZBAA 031500Z AUTO 36004KT 4SM 17/15 RMK SLP139 T01730148 52005 IEM_DS3505
ZBAA,1983-10-03 18:00,ZBAA 031800Z AUTO 36004KT 4SM 15/14 RMK SLP138 T01500136 40250//// 57001 IEM_DS3505
ZBAA,1983-10-03 21:00,ZBAA 032100Z AUTO 02004KT 1 1/4SM 14/13 RMK SLP144 T01420131 52006 IEM_DS3505
ZBAA,1983-10-04 00:00,ZBAA 040000Z AUTO 36006KT 2 1/2SM 16/12 RMK SLP171 T01640121 52027 IEM_DS3505
ZBAA,1983-10-04 03:00,ZBAA 040300Z AUTO 36012KT 16SM 24/02 A3003 RMK SLP180 T02420018 52009 IEM_DS3505
ZBAA,1983-10-04 05:00,ZBAA 040500Z AUTO 34014KT 7SM 28/M04 A3000 RMK T02801040 IEM_DS3505
ZBAA,1983-10-04 06:00,ZBAA 040600Z AUTO 36012KT 19SM 27/M00 A3000 RMK SLP169 T02661003 4////0136 57011 IEM_DS3505
ZBAA,1983-10-04 07:00,ZBAA 040700Z AUTO 34017KT 7SM 29/M05 A2997 RMK T02901050 IEM_DS3505
ZBAA,1983-10-04 08:00,ZBAA 040800Z AUTO 31008KT 7SM 28/M03 A2997 RMK T02801030 IEM_DS3505
ZBAA,1983-10-04 09:00,ZBAA 040900Z AUTO 34002KT 19SM 25/02 A2997 RMK SLP171 T02520021 52002 IEM_DS3505
ZBAA,1983-10-04 12:00,ZBAA 041200Z AUTO 00000KT 16SM 18/ RMK 52024 IEM_DS3505
ZBAA,1983-10-04 15:00,ZBAA 041500Z AUTO 36010KT 12SM 19/M01 RMK SLP217 T01881013 52022 IEM_DS3505
ZBAA,1983-10-04 18:00,ZBAA 041800Z AUTO 04006KT 12SM 16/M04 RMK SLP243 T01631045 40270//// 52026 IEM_DS3505
ZBAA,1983-10-04 21:00,ZBAA 042100Z AUTO 00000KT 12SM 10/03 RMK SLP259 T01050032 52015 IEM_DS3505
ZBAA,1983-10-05 00:00,ZBAA 050000Z AUTO 00000KT 16SM 12/05 RMK SLP272 T01230054 52013 IEM_DS3505
ZBAA,1983-10-05 03:00,ZBAA 050300Z AUTO 00000KT 16SM 19/M04 RMK SLP274 T01911037 52003 IEM_DS3505
ZBAA,1983-10-05 06:00,ZBAA 050600Z AUTO 14006KT 12SM 22/M02 RMK SLP242 T02161018 4////0089 57032 IEM_DS3505
ZBAA,1983-10-05 09:00,ZBAA 050900Z AUTO 18006KT 12SM RMK SLP227 57016 IEM_DS3505
ZBAA,1983-10-05 12:00,ZBAA 051200Z AUTO 20002KT 9SM 16/05 RMK SLP229 T01600051 52001 IEM_DS3505
ZBAA,1983-10-05 15:00,ZBAA 051500Z AUTO 16002KT 7SM 13/07 RMK SLP230 T01300072 52002 IEM_DS3505
ZBAA,1983-10-05 18:00,ZBAA 051800Z AUTO 00000KT 7SM 12/05 RMK SLP230 T01190054 40220//// 54000 IEM_DS3505
ZBAA,1983-10-05 21:00,ZBAA 052100Z AUTO 36004KT 5SM 10/05 RMK SLP227 T00960046 57003 IEM_DS3505
ZBAA,1983-10-06 00:00,ZBAA 060000Z AUTO 02004KT 6SM 12/05 RMK SLP233 T01240046 52005 IEM_DS3505
ZBAA,1983-10-06 03:00,ZBAA 060300Z AUTO 02004KT 9SM 17/05 RMK SLP228 T01730051 57004 IEM_DS3505
ZBAA,1983-10-06 06:00,ZBAA 060600Z AUTO 00000KT 11SM 20/08 RMK SLP203 T02030078 4////0091 57025 IEM_DS3505
ZBAA,1983-10-06 09:00,ZBAA 060900Z AUTO 00000KT 6SM 20/10 RMK SLP195 T02020096 57008 IEM_DS3505
ZBAA,1983-10-06 12:00,ZBAA 061200Z AUTO 00000KT 4SM 16/12 RMK SLP201 T01650115 52006 IEM_DS3505
ZBAA,1983-10-06 15:00,ZBAA 061500Z AUTO 00000KT 3SM 16/12 RMK SLP202 T01550122 52001 IEM_DS3505
ZBAA,1983-10-06 18:00,ZBAA 061800Z AUTO 00000KT 4SM 15/12 RMK SLP201 T01490115 40213//// 54000 IEM_DS3505
ZBAA,1983-10-06 21:00,ZBAA 062100Z AUTO 00000KT 4SM 14/12 RMK SLP196 T01420117 57005 IEM_DS3505
ZBAA,1983-10-07 00:00,ZBAA 070000Z AUTO 36002KT 2 1/2SM 15/12 RMK SLP207 T01480119 52010 IEM_DS3505
ZBAA,1983-10-07 03:00,ZBAA 070300Z AUTO 11006KT 5SM 15/11 RMK SLP210 T01520113 52003 IEM_DS3505
ZBAA,1983-10-07 06:00,ZBAA 070600Z AUTO 02006KT 3SM 15/12 RMK 60004 SLP187 T01470124 4////0141 57023 IEM_DS3505
ZBAA,1983-10-07 09:00,ZBAA 070900Z AUTO 11006KT 5SM 15/11 RMK SLP186 T01460108 57001 IEM_DS3505
ZBAA,1983-10-07 12:00,ZBAA 071200Z AUTO 00000KT 4SM 14/12 RMK 60002 SLP191 T01350119 52005 IEM_DS3505
ZBAA,1983-10-07 15:00,ZBAA 071500Z AUTO 00000KT 5SM 13/12 RMK SLP193 T01320123 52002 IEM_DS3505
ZBAA,1983-10-07 18:00,ZBAA 071800Z AUTO 00000KT 6SM 12/12 RMK 60004 SLP185 T01250115 40162//// 57008 IEM_DS3505
ZBAA,1983-10-07 21:00,ZBAA 072100Z AUTO 00000KT 4SM 11/11 RMK 70008 SLP177 T01140106 57008 IEM_DS3505
ZBAA,1983-10-08 00:00,ZBAA 080000Z AUTO 00000KT 2 1/2SM 12/12 RMK 70008 SLP179 T01220116 52002 IEM_DS3505
ZBAA,1983-10-08 03:00,ZBAA 080300Z AUTO 18004KT 5SM 17/11 A3003 RMK SLP179 T01660113 54000 IEM_DS3505
ZBAA,1983-10-08 04:00,ZBAA 080400Z AUTO 26004KT 5SM 17/11 A3000 RMK T01700110 IEM_DS3505
ZBAA,1983-10-08 05:00,ZBAA 080500Z AUTO 19006KT 4SM 19/11 A2997 RMK T01900110 IEM_DS3505
ZBAA,1983-10-08 06:00,ZBAA 080600Z AUTO 18006KT 7SM 19/10 RMK SLP154 T01880101 4////0107 57025 IEM_DS3505
ZBAA,1983-10-08 07:00,ZBAA 080700Z AUTO 18008KT 6SM 19/10 A2994 RMK T01900100 IEM_DS3505
ZBAA,1983-10-08 08:00,ZBAA 080800Z AUTO 19006KT 6SM 19/10 A2991 RMK T01900100 IEM_DS3505
ZBAA,1983-10-08 09:00,ZBAA 080900Z AUTO 20004KT 9SM 19/10 A2994 RMK SLP148 T01860105 57006 IEM_DS3505
ZBAA,1983-10-08 12:00,ZBAA 081200Z AUTO 18006KT 9SM 16/11 RMK SLP156 T01590108 52008 IEM_DS3505
ZBAA,1983-10-08 15:00,ZBAA 081500Z AUTO 18004KT 9SM 14/11 RMK SLP160 T01380107 52004 IEM_DS3505
ZBAA,1983-10-08 18:00,ZBAA 081800Z AUTO 00000KT 5SM 11/10 RMK SLP161 T01110099 40194//// 52001 IEM_DS3505
ZBAA,1983-10-08 21:00,ZBAA 082100Z AUTO 36002KT 3SM 11/10 RMK SLP163 T01100103 52002 IEM_DS3505
ZBAA,1983-10-09 00:00,ZBAA 090000Z AUTO 36002KT 1 1/4SM 12/11 RMK SLP170 T01200108 52007 IEM_DS3505
ZBAA,1983-10-09 03:00,ZBAA 090300Z AUTO 02004KT 4SM 16/12 RMK SLP173 T01600116 52003 IEM_DS3505
ZBAA,1983-10-09 06:00,ZBAA 090600Z AUTO 04002KT 3SM 18/12 RMK SLP158 T01830121 4////0103 57015 IEM_DS3505
ZBAA,1983-10-09 09:00,ZBAA 090900Z AUTO 18002KT 4SM 19/14 RMK SLP157 T01870135 57001 IEM_DS3505
ZBAA,1983-10-09 12:00,ZBAA 091200Z AUTO 36002KT 2SM 17/15 RMK SLP166 T01720148 52009 IEM_DS3505
ZBAA,1983-10-09 15:00,ZBAA 091500Z AUTO 36002KT 1 1/4SM 17/15 RMK SLP169 T01660152 52003 IEM_DS3505
ZBAA,1983-10-09 18:00,ZBAA 091800Z AUTO 36006KT 1 1/4SM 16/14 RMK 60000 SLP173 T01640145 40191//// 52005 IEM_DS3505
ZBAA,1983-10-09 21:00,ZBAA 092100Z AUTO 02008KT 1SM 17/14 RMK SLP186 T01670135 52013 IEM_DS3505
ZBAA,1983-10-10 00:00,ZBAA 100000Z AUTO 02012KT 11SM 16/06 RMK SLP225 T01650064 52038 IEM_DS3505
ZBAA,1983-10-10 03:00,ZBAA 100300Z AUTO 34008KT 19SM 17/04 RMK SLP260 T01720036 52035 IEM_DS3505
ZBAA,1983-10-10 06:00,ZBAA 100600Z AUTO 34012KT 19SM 18/M01 RMK SLP262 T01801008 4////0159 52002 IEM_DS3505
ZBAA,1983-10-10 09:00,ZBAA 100900Z AUTO 34006KT 19SM 18/M02 RMK SLP268 T01781018 52006 IEM_DS3505
ZBAA,1983-10-10 12:00,ZBAA 101200Z AUTO 14002KT 19SM 14/00 RMK SLP298 T01350001 52022 IEM_DS3505
ZBAA,1983-10-10 15:00,ZBAA 101500Z AUTO 36010KT 19SM 13/M03 RMK SLP309 T01271034 52019 IEM_DS3505
ZBAA,1983-10-10 18:00,ZBAA 101800Z AUTO 36012KT 19SM 11/M04 RMK SLP318 T01071042 40187//// 52008 IEM_DS3505
ZBAA,1983-10-10 21:00,ZBAA 102100Z AUTO 36006KT 16SM 09/M02 RMK SLP321 T00871023 52003 IEM_DS3505
ZBAA,1983-10-11 00:00,ZBAA 110000Z AUTO 36006KT 19SM 10/M03 RMK SLP331 T00981028 52009 IEM_DS3505
ZBAA,1983-10-11 03:00,ZBAA 110300Z AUTO 02012KT 19SM 15/M06 RMK SLP319 T01531058 57011 IEM_DS3505
ZBAA,1983-10-11 05:00,ZBAA 110500Z AUTO 28008KT 7SM 17/M04 A3036 RMK T01701040 IEM_DS3505
ZBAA,1983-10-11 06:00,ZBAA 110600Z AUTO 00000KT 19SM 18/M03 A3033 RMK SLP282 T01761028 4////0085 57037 IEM_DS3505
ZBAA,1983-10-11 07:00,ZBAA 110700Z AUTO 00000KT 7SM 19/M03 A3030 RMK T01901030 IEM_DS3505
ZBAA,1983-10-11 08:00,ZBAA 110800Z AUTO 20006KT 7SM 18/M05 A3027 RMK T01801050 IEM_DS3505
ZBAA,1983-10-11 09:00,ZBAA 110900Z AUTO 18006KT 11SM 17/M02 A3024 RMK SLP264 T01681018 57018 IEM_DS3505
ZBAA,1983-10-11 12:00,ZBAA 111200Z AUTO 20004KT 9SM 12/03 RMK SLP260 T01240026 57004 IEM_DS3505
ZBAA,1983-10-11 15:00,ZBAA 111500Z AUTO 00000KT 7SM 09/04 RMK SLP245 T00930036 57015 IEM_DS3505
ZBAA,1983-10-11 18:00,ZBAA 111800Z AUTO 00000KT 7SM 06/04 RMK SLP230 T00640037 40188//// 57015 IEM_DS3505
ZBAA,1983-10-11 21:00,ZBAA 112100Z AUTO 00000KT 5SM 05/04 RMK SLP208 T00510037 57012 IEM_DS3505
ZBAA,1983-10-12 00:00,ZBAA 120000Z AUTO 00000KT 2 1/2SM 08/06 RMK SLP214 T00820062 57004 IEM_DS3505
ZBAA,1983-10-12 03:00,ZBAA 120300Z AUTO 00000KT 4SM 15/00 RMK SLP202 T01490004 57011 IEM_DS3505
ZBAA,1983-10-12 05:00,ZBAA 120500Z AUTO 28008KT 7SM 17/M04 A3036 RMK T01701040 IEM_DS3505
ZBAA,1983-10-12 06:00,ZBAA 120600Z AUTO 20006KT 5SM 15/04 RMK SLP173 T01540043 4////0056 57030 IEM_DS3505
ZBAA,1983-10-12 09:00,ZBAA 120900Z AUTO 20006KT 5SM 15/06 RMK SLP161 T01460060 57012 IEM_DS3505
ZBAA,1983-10-12 12:00,ZBAA 121200Z AUTO 00000KT 4SM 11/07 RMK SLP165 T01100072 52004 IEM_DS3505
ZBAA,1983-10-12 15:00,ZBAA 121500Z AUTO 00000KT 4SM 09/07 RMK SLP169 T00890069 52005 IEM_DS3505
ZBAA,1983-10-12 18:00,ZBAA 121800Z AUTO 00000KT 3SM 07/06 RMK SLP171 T00720059 40163//// 52002 IEM_DS3505
ZBAA,1983-10-12 21:00,ZBAA 122100Z AUTO 04004KT 4SM 07/05 RMK SLP185 T00700049 52013 IEM_DS3505
ZBAA,1983-10-13 00:00,ZBAA 130000Z AUTO 02004KT 12SM 12/02 RMK SLP207 T01160024 52023 IEM_DS3505
ZBAA,1983-10-13 03:00,ZBAA 130300Z AUTO 34010KT 19SM 20/M02 RMK SLP215 T01951018 52008 IEM_DS3505
ZBAA,1983-10-13 06:00,ZBAA 130600Z AUTO 36008KT 19SM 22/M02 RMK SLP200 T02151018 4////0055 57015 IEM_DS3505
ZBAA,1983-10-13 09:00,ZBAA 130900Z AUTO 20006KT 16SM 21/01 RMK SLP197 T02090010 57003 IEM_DS3505
ZBAA,1983-10-13 12:00,ZBAA 131200Z AUTO 18004KT 12SM 14/03 RMK SLP211 T01430030 52014 IEM_DS3505
ZBAA,1983-10-13 15:00,ZBAA 131500Z AUTO 00000KT 6SM 10/04 RMK SLP218 T01050043 52007 IEM_DS3505
ZBAA,1983-10-13 18:00,ZBAA 131800Z AUTO 36002KT 5SM 08/05 RMK SLP221 T00810051 40228//// 52002 IEM_DS3505
ZBAA,1983-10-13 21:00,ZBAA 132100Z AUTO 32002KT 5SM 06/04 RMK SLP224 T00650039 52003 IEM_DS3505
ZBAA,1983-10-14 00:00,ZBAA 140000Z AUTO 00000KT 7SM 11/03 RMK SLP234 T01090028 52010 IEM_DS3505
ZBAA,1983-10-14 03:00,ZBAA 140300Z AUTO 07002KT 5SM 17/03 RMK SLP229 T01680026 57005 IEM_DS3505
ZBAA,1983-10-14 06:00,ZBAA 140600Z AUTO 18008KT 5SM 20/04 RMK SLP201 T02020037 4////0060 57027 IEM_DS3505
ZBAA,1983-10-14 09:00,ZBAA 140900Z AUTO 18004KT 4SM 18/05 RMK SLP192 T01820053 57009 IEM_DS3505
ZBAA,1983-10-14 12:00,ZBAA 141200Z AUTO 16002KT 4SM 15/07 RMK SLP194 T01470067 52002 IEM_DS3505
ZBAA,1983-10-14 15:00,ZBAA 141500Z AUTO 00000KT 3SM 12/08 RMK SLP192 T01230078 57002 IEM_DS3505
ZBAA,1983-10-14 18:00,ZBAA 141800Z AUTO 00000KT 3SM 12/08 RMK SLP183 T01180075 40205//// 57009 IEM_DS3505
ZBAA,1983-10-14 21:00,ZBAA 142100Z AUTO 00000KT 3SM 12/07 RMK SLP178 T01170071 57005 IEM_DS3505
ZBAA,1983-10-15 00:00,ZBAA 150000Z AUTO 00000KT 2 1/2SM 11/08 RMK SLP183 T01140081 52005 IEM_DS3505
ZBAA,1983-10-15 02:00,ZBAA 150200Z AUTO 00000KT 4SM 15/07 A3003 RMK T01500070 IEM_DS3505
ZBAA,1983-10-15 03:00,ZBAA 150300Z AUTO 07004KT 5SM 18/06 A3000 RMK SLP179 T01750062 57004 IEM_DS3505
ZBAA,1983-10-15 04:00,ZBAA 150400Z AUTO 00000KT 6SM 19/05 A3000 RMK T01900050 IEM_DS3505
ZBAA,1983-10-15 05:00,ZBAA 150500Z AUTO 00000KT 7SM 22/04 A2997 RMK T02200040 IEM_DS3505
ZBAA,1983-10-15 06:00,ZBAA 150600Z AUTO 20004KT 4SM 22/06 A2994 RMK SLP159 T02200060 4////0106 57020 IEM_DS3505
ZBAA,1983-10-15 07:00,ZBAA 150700Z AUTO 00000KT 7SM 22/05 A2994 RMK T02200050 IEM_DS3505
ZBAA,1983-10-15 08:00,ZBAA 150800Z AUTO 00000KT 7SM 22/05 A2994 RMK T02200050 IEM_DS3505
ZBAA,1983-10-15 09:00,ZBAA 150900Z AUTO 18004KT 7SM 21/08 A2994 RMK SLP155 T02080075 57004 IEM_DS3505
ZBAA,1983-10-15 12:00,ZBAA 151200Z AUTO 20004KT 6SM 16/09 RMK SLP165 T01600090 52010 IEM_DS3505
ZBAA,1983-10-15 15:00,ZBAA 151500Z AUTO 00000KT 6SM 13/09 RMK SLP173 T01260090 52008 IEM_DS3505
ZBAA,1983-10-15 18:00,ZBAA 151800Z AUTO 36006KT 5SM 13/08 RMK T01290077 40228//// 52002 IEM_DS3505
ZBAA,1983-10-15 21:00,ZBAA 152100Z AUTO 00000KT 4SM 11/08 RMK SLP175 T01130078 54000 IEM_DS3505
ZBAA,1983-10-16 00:00,ZBAA 160000Z AUTO 02002KT 1 1/4SM 12/09 RMK SLP183 T01150090 52008 IEM_DS3505
ZBAA,1983-10-16 03:00,ZBAA 160300Z AUTO 04006KT 4SM 18/06 RMK SLP188 T01840062 52005 IEM_DS3505
ZBAA,1983-10-16 06:00,ZBAA 160600Z AUTO 22002KT 3SM 22/09 A2997 RMK SLP166 T02160089 4////0099 57021 IEM_DS3505
ZBAA,1983-10-16 07:00,ZBAA 160700Z AUTO 00000KT 6SM 21/09 A2997 RMK T02100090 IEM_DS3505
ZBAA,1983-10-16 08:00,ZBAA 160800Z AUTO 21006KT 3SM 21/10 A2997 RMK T02100100 IEM_DS3505
ZBAA,1983-10-16 09:00,ZBAA 160900Z AUTO 22004KT 3SM 20/08 A2997 RMK SLP163 T01960081 57004 IEM_DS3505
ZBAA,1983-10-16 10:00,ZBAA 161000Z AUTO 00000KT 2SM 18/11 A2997 RMK T01800110 IEM_DS3505
ZBAA,1983-10-16 12:00,ZBAA 161200Z AUTO 18004KT 2 1/2SM 17/10 RMK SLP172 T01660100 52009 IEM_DS3505
ZBAA,1983-10-16 15:00,ZBAA 161500Z AUTO 00000KT 2 1/2SM 14/11 RMK SLP184 T01440108 52012 IEM_DS3505
ZBAA,1983-10-16 18:00,ZBAA 161800Z AUTO 09008KT 2 1/2SM 15/11 RMK SLP203 T01460106 40216//// 52020 IEM_DS3505
ZBAA,1983-10-16 21:00,ZBAA 162100Z AUTO 18006KT 4SM 14/05 RMK SLP228 T01360048 52024 IEM_DS3505
ZBAA,1983-10-17 00:00,ZBAA 170000Z AUTO 16008KT 9SM 11/02 RMK SLP257 T01090022 52028 IEM_DS3505
ZBAA,1983-10-17 03:00,ZBAA 170300Z AUTO 18006KT 5SM 08/05 RMK SLP283 T00800048 52026 IEM_DS3505
ZBAA,1983-10-17 06:00,ZBAA 170600Z AUTO 11006KT 5SM 06/02 RMK 60012 SLP284 T00580021 4////0055 54000 IEM_DS3505
ZBAA,1983-10-17 09:00,ZBAA 170900Z AUTO 32002KT 5SM 06/04 RMK SLP285 T00570037 52001 IEM_DS3505
ZBAA,1983-10-17 12:00,ZBAA 171200Z AUTO 00000KT 4SM 10/04 RMK 60016 SLP290 T00960044 52005 IEM_DS3505
ZBAA,1983-10-17 15:00,ZBAA 171500Z AUTO 00000KT 4SM 06/05 RMK SLP294 T00620046 52004 IEM_DS3505
ZBAA,1983-10-17 18:00,ZBAA 171800Z AUTO 00000KT 4SM 06/04 RMK 60002 SLP294 T00630037 40157//// 57001 IEM_DS3505
ZBAA,1983-10-17 21:00,ZBAA 172100Z AUTO 27002KT 6SM 06/03 RMK SLP285 T00620026 57009 IEM_DS3505
ZBAA,1983-10-18 00:00,ZBAA 180000Z AUTO 36002KT 6SM 06/03 RMK 70031 SLP290 T00650032 52005 IEM_DS3505
ZBAA,1983-10-18 03:00,ZBAA 180300Z AUTO 34002KT 7SM 09/02 RMK SLP285 T00890022 57004 IEM_DS3505
ZBAA,1983-10-18 05:00,ZBAA 180500Z AUTO 00000KT 6SM 10/M02 A3039 RMK T01001020 IEM_DS3505
ZBAA,1983-10-18 06:00,ZBAA 180600Z AUTO 00000KT 7SM 10/00 RMK SLP254 T01030001 4////0054 57031 IEM_DS3505
ZBAA,1983-10-18 09:00,ZBAA 180900Z AUTO 18006KT 6SM 10/01 RMK SLP241 T00950006 57013 IEM_DS3505
ZBAA,1983-10-18 10:00,ZBAA 181000Z AUTO 6SM 09/03 A3018 RMK T00900030 IEM_DS3505
ZBAA,1983-10-18 12:00,ZBAA 181200Z AUTO 20002KT 6SM 07/03 RMK SLP241 T00720026 57001 IEM_DS3505
ZBAA,1983-10-18 15:00,ZBAA 181500Z AUTO 00000KT 5SM 05/04 RMK SLP236 T00540037 57004 IEM_DS3505
ZBAA,1983-10-18 18:00,ZBAA 181800Z AUTO 00000KT 3SM 04/03 RMK SLP225 T00370030 40110//// 57011 IEM_DS3505
ZBAA,1983-10-18 21:00,ZBAA 182100Z AUTO 00000KT 3SM 03/03 RMK SLP212 T00340026 57013 IEM_DS3505
ZBAA,1983-10-19 00:00,ZBAA 190000Z AUTO 00000KT 4SM 05/03 RMK SLP217 T00490032 52005 IEM_DS3505
ZBAA,1983-10-19 03:00,ZBAA 190300Z AUTO 22002KT 4SM 14/07 RMK SLP223 T01380068 52006 IEM_DS3505
ZBAA,1983-10-19 06:00,ZBAA 190600Z AUTO 00000KT 12SM 20/04 RMK SLP199 T01990044 4////0026 57022 IEM_DS3505
ZBAA,1983-10-19 09:00,ZBAA 190900Z AUTO 20002KT 7SM 19/08 RMK SLP196 T01870075 57003 IEM_DS3505
ZBAA,1983-10-19 12:00,ZBAA 191200Z AUTO 34004KT 11SM 11/08 RMK SLP209 T01090085 52012 IEM_DS3505
ZBAA,1983-10-19 18:00,ZBAA 191800Z AUTO 36006KT 16SM 09/04 RMK SLP236 T00860037 40209//// 52008 IEM_DS3505
ZBAA,1983-10-19 21:00,ZBAA 192100Z AUTO 02006KT 16SM 10/04 RMK SLP236 T00950036 54000 IEM_DS3505
ZBAA,1983-10-20 00:00,ZBAA 200000Z AUTO 02004KT 12SM 10/04 RMK SLP246 T01000044 52009 IEM_DS3505
ZBAA,1983-10-20 03:00,ZBAA 200300Z AUTO 36006KT 12SM 16/03 RMK SLP238 T01600026 57007 IEM_DS3505
ZBAA,1983-10-20 06:00,ZBAA 200600Z AUTO 02002KT 6SM 18/06 RMK SLP210 T01820057 4////0074 57027 IEM_DS3505
ZBAA,1983-10-20 09:00,ZBAA 200900Z AUTO 20004KT 5SM 17/07 RMK SLP198 T01680069 57012 IEM_DS3505
ZBAA,1983-10-20 12:00,ZBAA 201200Z AUTO 20004KT 5SM 12/07 RMK SLP201 T01230074 52003 IEM_DS3505
ZBAA,1983-10-20 15:00,ZBAA 201500Z AUTO 02002KT 4SM 10/07 RMK SLP200 T01020068 57001 IEM_DS3505
ZBAA,1983-10-20 18:00,ZBAA 201800Z AUTO 00000KT 3SM 08/06 RMK SLP200 T00810059 40191//// 54000 IEM_DS3505
ZBAA,1983-10-20 21:00,ZBAA 202100Z AUTO 00000KT 3SM 06/05 RMK SLP201 T00590051 52001 IEM_DS3505
ZBAA,1983-10-21 00:00,ZBAA 210000Z AUTO 00000KT 4SM 07/07 RMK SLP202 T00740067 54000 IEM_DS3505
ZBAA,1983-10-21 03:00,ZBAA 210300Z AUTO 00000KT 5SM 18/07 RMK SLP199 T01810069 57002 IEM_DS3505
ZBAA,1983-10-21 06:00,ZBAA 210600Z AUTO 09004KT 11SM 22/04 RMK SLP182 T02200041 57017 IEM_DS3505
ZBAA,1983-10-21 09:00,ZBAA 210900Z AUTO 25004KT 19SM 21/03 RMK SLP182 T02110028 54000 IEM_DS3505
ZBAA,1983-10-21 12:00,ZBAA 211200Z AUTO 34010KT 19SM 17/M02 RMK SLP209 T01691018 52027 IEM_DS3505
ZBAA,1983-10-21 15:00,ZBAA 211500Z AUTO 34010KT 19SM 14/M02 RMK SLP242 T01421023 52033 IEM_DS3505
ZBAA,1983-10-21 18:00,ZBAA 211800Z AUTO 02014KT 19SM 13/M03 RMK SLP270 T01261028 40229//// 52028 IEM_DS3505
ZBAA,1983-10-21 21:00,ZBAA 212100Z AUTO 07002KT 19SM 09/M01 RMK SLP276 T00901010 52006 IEM_DS3505
ZBAA,1983-10-22 00:00,ZBAA 220000Z AUTO 04004KT 12SM 10/M04 RMK SLP303 T00961039 52026 IEM_DS3505
ZBAA,1983-10-22 02:00,ZBAA 220200Z AUTO 07014KT 7SM 13/M07 A3042 RMK T01301070 IEM_DS3505
ZBAA,1983-10-22 03:00,ZBAA 220300Z AUTO 09004KT 19SM 14/M04 A3039 RMK SLP307 T01361039 52004 IEM_DS3505
ZBAA,1983-10-22 04:00,ZBAA 220400Z AUTO 04006KT 7SM 15/M07 A3039 RMK T01501070 IEM_DS3505
ZBAA,1983-10-22 06:00,ZBAA 220600Z AUTO 16004KT 12SM 16/M03 A3033 RMK SLP287 T01581026 4////0060 57020 IEM_DS3505
ZBAA,1983-10-22 07:00,ZBAA 220700Z AUTO 00000KT 7SM 16/M05 A3033 RMK T01601050 IEM_DS3505
ZBAA,1983-10-22 09:00,ZBAA 220900Z AUTO 18004KT 7SM 14/M02 A3030 RMK SLP280 T01401020 57007 IEM_DS3505
ZBAA,1983-10-22 10:00,ZBAA 221000Z AUTO 20006KT 7SM 13/M01 A3030 RMK T01301010 IEM_DS3505
ZBAA,1983-10-22 11:00,ZBAA 221100Z AUTO 20006KT 7SM 11/01 A3033 RMK T01100010 IEM_DS3505
ZBAA,1983-10-22 12:00,ZBAA 221200Z AUTO 00000KT 6SM 10/03 RMK SLP291 T00960032 52010 IEM_DS3505
ZBAA,1983-10-22 15:00,ZBAA 221500Z AUTO 00000KT 3SM 06/03 RMK SLP301 T00640034 52010 IEM_DS3505
ZBAA,1983-10-22 18:00,ZBAA 221800Z AUTO 00000KT 2 1/2SM 05/03 RMK SLP305 T00460032 40164//// 52004 IEM_DS3505
ZBAA,1983-10-22 21:00,ZBAA 222100Z AUTO 02004KT 2 1/2SM 03/02 RMK SLP298 T00340016 57007 IEM_DS3505
ZBAA,1983-10-23 00:00,ZBAA 230000Z AUTO 00000KT 6SM 04/02 RMK SLP308 T00450022 52010 IEM_DS3505
ZBAA,1983-10-23 03:00,ZBAA 230300Z AUTO 07004KT 7SM 14/M04 RMK SLP303 T01381039 57005 IEM_DS3505
ZBAA,1983-10-23 06:00,ZBAA 230600Z AUTO 07002KT 9SM 16/M02 RMK SLP277 T01641020 4////0024 57026 IEM_DS3505
ZBAA,1983-10-23 09:00,ZBAA 230900Z AUTO 18006KT 9SM 15/M01 RMK SLP270 T01521006 57007 IEM_DS3505
ZBAA,1983-10-23 12:00,ZBAA 231200Z AUTO 00000KT 7SM 09/04 RMK SLP282 T00920039 52011 IEM_DS3505
ZBAA,1983-10-23 15:00,ZBAA 231500Z AUTO 02004KT 4SM 07/03 RMK SLP291 T00740034 52010 IEM_DS3505
ZBAA,1983-10-23 18:00,ZBAA 231800Z AUTO 36004KT 3SM 07/02 RMK SLP294 T00710018 40176//// 52005 IEM_DS3505
ZBAA,1983-10-23 21:00,ZBAA 232100Z AUTO 36004KT 2 1/2SM 06/03 RMK SLP300 T00600034 52005 IEM_DS3505
ZBAA,1983-10-24 00:00,ZBAA 240000Z AUTO 00000KT 4SM 07/04 RMK SLP308 T00740039 52008 IEM_DS3505
ZBAA,1983-10-24 03:00,ZBAA 240300Z AUTO 02006KT 4SM 12/02 RMK SLP307 T01160021 57001 IEM_DS3505
ZBAA,1983-10-24 06:00,ZBAA 240600Z AUTO 14002KT 4SM 14/04 RMK SLP281 T01450039 4////0050 57026 IEM_DS3505
ZBAA,1983-10-24 09:00,ZBAA 240900Z AUTO 18004KT 4SM 14/05 RMK SLP272 T01390054 57009 IEM_DS3505
ZBAA,1983-10-24 12:00,ZBAA 241200Z AUTO 18004KT 2SM 13/06 RMK SLP277 T01260060 52005 IEM_DS3505
ZBAA,1983-10-24 15:00,ZBAA 241500Z AUTO 18010KT 4SM 12/06 RMK SLP278 T01180059 52002 IEM_DS3505
ZBAA,1983-10-24 18:00,ZBAA 241800Z AUTO 18010KT 6SM 10/07 RMK SLP277 T01040068 40151//// 57001 IEM_DS3505
ZBAA,1983-10-24 21:00,ZBAA 242100Z AUTO 16008KT 6SM 10/07 RMK SLP264 T00980068 57013 IEM_DS3505
ZBAA,1983-10-25 00:00,ZBAA 250000Z AUTO 16006KT 6SM 10/07 RMK 60001 SLP268 T00950072 52004 IEM_DS3505
ZBAA,1983-10-25 03:00,ZBAA 250300Z AUTO 16006KT 5SM 10/07 RMK SLP265 T01000071 57004 IEM_DS3505
ZBAA,1983-10-25 04:00,ZBAA 250400Z AUTO 15008KT 4SM 10/08 A3027 RMK T01000080 IEM_DS3505
ZBAA,1983-10-25 05:00,ZBAA 250500Z AUTO 18004KT 4SM 10/09 A3024 RMK T01000090 IEM_DS3505
ZBAA,1983-10-25 06:00,ZBAA 250600Z AUTO 20002KT 4SM 10/08 A3021 RMK 60001 SLP245 T01030075 4////0093 57020 IEM_DS3505
ZBAA,1983-10-25 07:00,ZBAA 250700Z AUTO 00000KT 4SM 10/09 A3018 RMK T01000090 IEM_DS3505
ZBAA,1983-10-25 08:00,ZBAA 250800Z AUTO 00000KT 2 1/2SM 10/09 A3018 RMK T01000090 IEM_DS3505
ZBAA,1983-10-25 09:00,ZBAA 250900Z AUTO 00000KT 3SM 11/09 A3018 RMK T01080086 57011 IEM_DS3505
ZBAA,1983-10-25 10:00,ZBAA 251000Z AUTO 07004KT 1 1/4SM 10/10 A3018 RMK T01000100 IEM_DS3505
ZBAA,1983-10-25 12:00,ZBAA 251200Z AUTO 36004KT 2SM 10/09 RMK SLP239 T01010086 52005 IEM_DS3505
ZBAA,1983-10-25 15:00,ZBAA 251500Z AUTO 00000KT 1 1/4SM 09/08 RMK SLP239 T00930082 54000 IEM_DS3505
ZBAA,1983-10-25 18:00,ZBAA 251800Z AUTO 32002KT 1/2SM 06/05 RMK 60000 SLP235 T00560051 40110//// 57004 IEM_DS3505
ZBAA,1983-10-25 21:00,ZBAA 252100Z AUTO 00000KT 7SM 06/05 RMK SLP235 T00640048 54000 IEM_DS3505
ZBAA,1983-10-26 00:00,ZBAA 260000Z AUTO 00000KT 11SM 07/04 RMK SLP245 T00700043 52010 IEM_DS3505
ZBAA,1983-10-26 03:00,ZBAA 260300Z AUTO 36010KT 16SM 15/00 RMK SLP246 T01510004 52002 IEM_DS3505
ZBAA,1983-10-26 06:00,ZBAA 260600Z AUTO 29010KT 19SM 17/M01 RMK SLP237 T01741008 4////0052 57009 IEM_DS3505
ZBAA,1983-10-26 09:00,ZBAA 260900Z AUTO 32006KT 19SM 17/01 RMK SLP235 T01690008 57002 IEM_DS3505
ZBAA,1983-10-26 12:00,ZBAA 261200Z AUTO 20004KT 16SM 12/04 RMK SLP252 T01180037 52016 IEM_DS3505
ZBAA,1983-10-26 15:00,ZBAA 261500Z AUTO 00000KT 12SM 07/04 RMK SLP263 T00740044 52012 IEM_DS3505
ZBAA,1983-10-26 18:00,ZBAA 261800Z AUTO 00000KT 12SM 06/03 RMK SLP269 T00550030 40181//// 52006 IEM_DS3505
ZBAA,1983-10-26 21:00,ZBAA 262100Z AUTO 34002KT 12SM 06/02 RMK SLP271 T00550022 52002 IEM_DS3505
ZBAA,1983-10-27 00:00,ZBAA 270000Z AUTO 36002KT 9SM 07/04 RMK SLP278 T00720039 52006 IEM_DS3505
ZBAA,1983-10-27 03:00,ZBAA 270300Z AUTO 18006KT 5SM 17/02 RMK SLP272 T01670021 57005 IEM_DS3505
ZBAA,1983-10-27 06:00,ZBAA 270600Z AUTO 20006KT 12SM 19/01 RMK SLP249 T01930006 4////0044 57023 IEM_DS3505
ZBAA,1983-10-27 09:00,ZBAA 270900Z AUTO 20006KT 11SM 17/01 RMK SLP241 T01720012 57008 IEM_DS3505
ZBAA,1983-10-27 12:00,ZBAA 271200Z AUTO 20006KT 9SM 13/03 RMK SLP245 T01290034 52003 IEM_DS3505
ZBAA,1983-10-27 15:00,ZBAA 271500Z AUTO 00000KT 6SM 10/04 RMK SLP245 T01000039 52001 IEM_DS3505
ZBAA,1983-10-27 18:00,ZBAA 271800Z AUTO 04002KT 6SM 06/04 RMK SLP242 T00650037 40198//// 57003 IEM_DS3505
ZBAA,1983-10-27 21:00,ZBAA 272100Z AUTO 00000KT 5SM 05/04 RMK SLP237 T00520037 57005 IEM_DS3505
ZBAA,1983-10-28 00:00,ZBAA 280000Z AUTO 00000KT 2 1/2SM 06/04 RMK SLP245 T00580041 52007 IEM_DS3505
ZBAA,1983-10-28 03:00,ZBAA 280300Z AUTO 07004KT 5SM 16/04 RMK SLP243 T01590036 57001 IEM_DS3505
ZBAA,1983-10-28 06:00,ZBAA 280600Z AUTO 18006KT 6SM 19/03 RMK SLP227 T01930028 4////0046 57016 IEM_DS3505
ZBAA,1983-10-28 09:00,ZBAA 280900Z AUTO 20004KT 4SM 17/06 RMK SLP225 T01710056 57002 IEM_DS3505
ZBAA,1983-10-28 12:00,ZBAA 281200Z AUTO 22004KT 5SM 13/05 RMK SLP239 T01320051 52013 IEM_DS3505
ZBAA,1983-10-28 15:00,ZBAA 281500Z AUTO 00000KT 3SM 09/05 RMK SLP247 T00920049 52009 IEM_DS3505
ZBAA,1983-10-28 18:00,ZBAA 281800Z AUTO 36006KT 4SM 08/06 RMK SLP274 T00800056 40198//// 52027 IEM_DS3505
ZBAA,1983-10-28 21:00,ZBAA 282100Z AUTO 04002KT 4SM 07/05 RMK SLP290 T00740046 52016 IEM_DS3505
ZBAA,1983-10-29 00:00,ZBAA 290000Z AUTO 18004KT 9SM 08/M02 RMK SLP313 T00781023 52022 IEM_DS3505
ZBAA,1983-10-29 03:00,ZBAA 290300Z AUTO 18004KT 11SM 08/M04 A3045 RMK SLP323 T00751042 52009 IEM_DS3505
ZBAA,1983-10-29 04:00,ZBAA 290400Z AUTO 18002KT 7SM 08/M05 A3045 RMK T00801050 IEM_DS3505
ZBAA,1983-10-29 05:00,ZBAA 290500Z AUTO 00000KT 7SM 08/M04 A3042 RMK T00801040 IEM_DS3505
ZBAA,1983-10-29 06:00,ZBAA 290600Z AUTO 14002KT 7SM 08/M06 A3039 RMK SLP304 T00771055 4////0066 57018 IEM_DS3505
ZBAA,1983-10-29 08:00,ZBAA 290800Z AUTO 00000KT 7SM 08/M04 A3036 RMK T00801040 IEM_DS3505
ZBAA,1983-10-29 09:00,ZBAA 290900Z AUTO 11002KT 5SM 08/M03 RMK SLP294 T00791034 57010 IEM_DS3505
ZBAA,1983-10-29 12:00,ZBAA 291200Z AUTO 00000KT 6SM 07/M02 RMK SLP255 T00741018 52001 IEM_DS3505
ZBAA,1983-10-29 15:00,ZBAA 291500Z AUTO 00000KT 5SM 07/00 RMK SLP291 T00720004 57004 IEM_DS3505
ZBAA,1983-10-29 18:00,ZBAA 291800Z AUTO 36006KT 4SM 07/M01 RMK SLP284 T00701013 40084//// 57007 IEM_DS3505
ZBAA,1983-10-29 21:00,ZBAA 292100Z AUTO 02004KT 4SM 07/02 RMK SLP270 T00710018 57014 IEM_DS3505
ZBAA,1983-10-30 00:00,ZBAA 300000Z AUTO 36002KT 5SM 06/02 RMK SLP273 T00550022 52002 IEM_DS3505
ZBAA,1983-10-30 03:00,ZBAA 300300Z AUTO 36004KT 6SM 11/02 RMK SLP265 T01130018 57007 IEM_DS3505
ZBAA,1983-10-30 06:00,ZBAA 300600Z AUTO 14002KT 6SM 16/02 RMK SLP238 T01650021 4////0046 57026 IEM_DS3505
ZBAA,1983-10-30 09:00,ZBAA 300900Z AUTO 20006KT 5SM 13/05 RMK SLP239 T01340053 54000 IEM_DS3505
ZBAA,1983-10-30 12:00,ZBAA 301200Z AUTO 20002KT 4SM 10/06 RMK SLP249 T01010062 52010 IEM_DS3505
ZBAA,1983-10-30 15:00,ZBAA 301500Z AUTO 11002KT 3SM 08/05 RMK SLP258 T00770054 52009 IEM_DS3505
ZBAA,1983-10-30 18:00,ZBAA 301800Z AUTO 00000KT 1 1/4SM 07/05 RMK SLP253 T00660054 40172//// 57004 IEM_DS3505
ZBAA,1983-10-30 21:00,ZBAA 302100Z AUTO 02006KT 1 1/4SM 08/04 RMK SLP249 T00750036 57005 IEM_DS3505
ZBAA,1983-10-31 00:00,ZBAA 310000Z AUTO 36002KT 1 1/4SM 07/04 RMK SLP257 T00660043 52008 IEM_DS3505
ZBAA,1983-10-31 03:00,ZBAA 310300Z AUTO 00000KT 2 1/2SM 12/06 RMK SLP253 T01190057 57004 IEM_DS3505
ZBAA,1983-10-31 06:00,ZBAA 310600Z AUTO 22006KT 4SM 16/06 RMK SLP220 T01590057 4////0059 57032 IEM_DS3505
ZBAA,1983-10-31 09:00,ZBAA 310900Z AUTO 29010KT 19SM 17/M05 RMK SLP211 T01701048 57008 IEM_DS3505
ZBAA,1983-10-31 12:00,ZBAA 311200Z AUTO 32006KT 19SM 15/M03 RMK SLP219 T01511034 52006 IEM_DS3505
ZBAA,1983-10-31 15:00,ZBAA 311500Z AUTO 22006KT 6SM 10/05 RMK SLP220 T00970048 52001 IEM_DS3505
ZBAA,1983-10-31 18:00,ZBAA 311800Z AUTO 25002KT 9SM 07/04 RMK SLP215 T00660036 40178//// 57003 IEM_DS3505
ZBAA,1983-10-31 21:00,ZBAA 312100Z AUTO 32006KT 16SM 14/M04 RMK SLP211 T01391045 57004 IEM_DS3505
ZBAA,1983-11-01 00:00,ZBAA 010000Z AUTO 00000KT 5SM 09/02 RMK SLP220 T00880018 52008 IEM_DS3505
ZBAA,1983-11-01 03:00,ZBAA 010300Z AUTO 00000KT 6SM 18/00 RMK SLP211 T01820001 57008 IEM_DS3505
ZBAA,1983-11-01 06:00,ZBAA 010600Z AUTO 20010KT 8SM 20/M03 RMK SLP177 T01971031 4////0052 57034 IEM_DS3505
ZBAA,1983-11-01 09:00,ZBAA 010900Z AUTO 18002KT 7SM 18/01 RMK SLP164 T01780010 57013 IEM_DS3505
ZBAA,1983-11-01 12:00,ZBAA 011200Z AUTO 18006KT 7SM 12/02 RMK SLP164 T01230016 57001 IEM_DS3505
ZBAA,1983-11-01 15:00,ZBAA 011500Z AUTO 00000KT 6SM 08/03 RMK SLP164 T00760026 52001 IEM_DS3505
ZBAA,1983-11-01 18:00,ZBAA 011800Z AUTO 00000KT 6SM 05/03 RMK SLP159 T00510028 40202//// 57005 IEM_DS3505
ZBAA,1983-11-01 21:00,ZBAA 012100Z AUTO 00000KT 6SM 04/01 RMK SLP157 T00410014 57002 IEM_DS3505
ZBAA,1983-11-02 00:00,ZBAA 020000Z AUTO 00000KT 5SM 06/03 RMK SLP168 T00600034 52010 IEM_DS3505
ZBAA,1983-11-02 03:00,ZBAA 020300Z AUTO 02008KT 6SM 13/M01 RMK SLP173 T01331008 52005 IEM_DS3505
ZBAA,1983-11-02 06:00,ZBAA 020600Z AUTO 04006KT 7SM 19/M00 RMK SLP160 T01871003 4////0039 57012 IEM_DS3505
ZBAA,1983-11-02 09:00,ZBAA 020900Z AUTO 00000KT 6SM 17/02 RMK SLP172 T01670021 52011 IEM_DS3505
ZBAA,1983-11-02 12:00,ZBAA 021200Z AUTO 11008KT 6SM 12/04 RMK SLP202 T01250036 52030 IEM_DS3505
ZBAA,1983-11-02 15:00,ZBAA 021500Z AUTO 00000KT 9SM 09/04 RMK SLP228 T00870039 52026 IEM_DS3505
ZBAA,1983-11-02 18:00,ZBAA 021800Z AUTO 00000KT 7SM 06/03 RMK SLP230 T00570030 40190//// 52002 IEM_DS3505
ZBAA,1983-11-02 21:00,ZBAA 022100Z AUTO 00000KT 5SM 04/03 RMK SLP229 T00410030 57002 IEM_DS3505
ZBAA,1983-11-03 00:00,ZBAA 030000Z AUTO 18002KT 6SM 08/M02 RMK SLP244 T00781018 52015 IEM_DS3505
ZBAA,1983-11-03 03:00,ZBAA 030300Z AUTO 00000KT 6SM 11/M04 RMK SLP243 T01121045 57001 IEM_DS3505
ZBAA,1983-11-03 06:00,ZBAA 030600Z AUTO 16006KT 6SM 14/03 RMK SLP216 T01440028 4////0038 57026 IEM_DS3505
ZBAA,1983-11-03 09:00,ZBAA 030900Z AUTO 20004KT 6SM 13/06 RMK SLP211 T01340056 57005 IEM_DS3505
ZBAA,1983-11-03 12:00,ZBAA 031200Z AUTO 36002KT 5SM 08/05 RMK SLP223 T00840054 52011 IEM_DS3505
ZBAA,1983-11-03 15:00,ZBAA 031500Z AUTO 00000KT 5SM 07/05 RMK SLP229 T00670046 52006 IEM_DS3505
ZBAA,1983-11-03 18:00,ZBAA 031800Z AUTO 00000KT 4SM 05/04 RMK SLP226 T00510039 40152//// IEM_DS3505
ZBAA,1983-11-03 21:00,ZBAA 032100Z AUTO 04002KT 2 1/2SM 05/02 RMK SLP221 T00460022 57005 IEM_DS3505
ZBAA,1983-11-04 00:00,ZBAA 040000Z AUTO 00000KT 1 1/4SM 05/03 RMK SLP231 T00470032 52009 IEM_DS3505
ZBAA,1983-11-04 03:00,ZBAA 040300Z AUTO 00000KT 2 1/2SM 11/05 RMK SLP228 T01130049 57002 IEM_DS3505
ZBAA,1983-11-04 06:00,ZBAA 040600Z AUTO 16006KT 2 1/2SM 15/06 RMK SLP203 T01490065 4////0038 57024 IEM_DS3505
ZBAA,1983-11-04 09:00,ZBAA 040900Z AUTO 18002KT 2 1/2SM 14/08 RMK SLP199 T01390081 57004 IEM_DS3505
ZBAA,1983-11-04 12:00,ZBAA 041200Z AUTO 00000KT 2 1/2SM 09/07 RMK SLP211 T00900071 52011 IEM_DS3505
ZBAA,1983-11-04 15:00,ZBAA 041500Z AUTO 36002KT 2SM 07/06 RMK SLP225 T00690057 52014 IEM_DS3505
ZBAA,1983-11-04 18:00,ZBAA 041800Z AUTO 00000KT 2SM 06/04 RMK SLP227 T00550043 40155//// 52002 IEM_DS3505
ZBAA,1983-11-04 21:00,ZBAA 042100Z AUTO 00000KT 1 1/4SM 04/03 RMK SLP229 T00370032 52002 IEM_DS3505
ZBAA,1983-11-05 00:00,ZBAA 050000Z AUTO 00000KT 1 1/2SM 05/05 RMK SLP243 T00540046 52014 IEM_DS3505
ZBAA,1983-11-05 03:00,ZBAA 050300Z AUTO 02008KT 11SM 16/M01 A3021 RMK SLP242 T01581013 54000 IEM_DS3505
ZBAA,1983-11-05 04:00,ZBAA 050400Z AUTO 03008KT 7SM 17/01 A3018 RMK T01700010 IEM_DS3505
ZBAA,1983-11-05 05:00,ZBAA 050500Z AUTO 04010KT 7SM 18/M04 A3018 RMK T01801040 IEM_DS3505
ZBAA,1983-11-05 06:00,ZBAA 050600Z AUTO 36008KT 19SM 19/M04 A3015 RMK SLP222 T01861039 4////0028 57020 IEM_DS3505
ZBAA,1983-11-05 07:00,ZBAA 050700Z AUTO 06010KT 7SM 18/M04 A3015 RMK T01801040 IEM_DS3505
ZBAA,1983-11-05 08:00,ZBAA 050800Z AUTO 07008KT 7SM 17/M03 A3015 RMK T01701030 IEM_DS3505
ZBAA,1983-11-05 09:00,ZBAA 050900Z AUTO 09004KT 6SM 16/02 A3015 RMK SLP226 T01630021 52003 IEM_DS3505
ZBAA,1983-11-05 10:00,ZBAA 051000Z AUTO 00000KT 7SM 13/00 A3018 RMK T01300000 IEM_DS3505
ZBAA,1983-11-05 11:00,ZBAA 051100Z AUTO 00000KT 7SM 11/02 A3018 RMK T01100020 IEM_DS3505
ZBAA,1983-11-05 12:00,ZBAA 051200Z AUTO 00000KT 4SM 09/03 A3018 RMK SLP240 T00920034 52014 IEM_DS3505
ZBAA,1983-11-05 15:00,ZBAA 051500Z AUTO 07002KT 3SM 07/03 RMK SLP245 T00680026 52006 IEM_DS3505
ZBAA,1983-11-05 18:00,ZBAA 051800Z AUTO 34004KT 2 1/2SM 06/02 RMK SLP252 T00550022 40187//// 52007 IEM_DS3505
ZBAA,1983-11-05 21:00,ZBAA 052100Z AUTO 02004KT 2 1/2SM 06/03 RMK SLP253 T00600034 52001 IEM_DS3505
ZBAA,1983-11-06 00:00,ZBAA 060000Z AUTO 02002KT 2SM 06/03 RMK SLP266 T00620030 52012 IEM_DS3505
ZBAA,1983-11-06 03:00,ZBAA 060300Z AUTO 02004KT 2 1/2SM 12/06 RMK SLP262 T01160059 57004 IEM_DS3505
ZBAA,1983-11-06 06:00,ZBAA 060600Z AUTO 00000KT 2 1/2SM 14/05 RMK SLP235 T01430046 4////0049 57027 IEM_DS3505
ZBAA,1983-11-06 09:00,ZBAA 060900Z AUTO 00000KT 2SM 13/06 RMK SLP231 T01300057 57004 IEM_DS3505
ZBAA,1983-11-06 12:00,ZBAA 061200Z AUTO 00000KT 2SM 08/06 RMK SLP236 T00780057 52005 IEM_DS3505
ZBAA,1983-11-06 15:00,ZBAA 061500Z AUTO 02002KT 2 1/2SM 08/05 RMK SLP242 T00820048 52006 IEM_DS3505
ZBAA,1983-11-06 18:00,ZBAA 061800Z AUTO 36002KT 2 1/2SM 05/M04 RMK SLP243 T00531043 40148//// 52001 IEM_DS3505
ZBAA,1983-11-06 21:00,ZBAA 062100Z AUTO 04002KT 2 1/2SM 06/04 RMK SLP242 T00550037 57001 IEM_DS3505
ZBAA,1983-11-07 00:00,ZBAA 070000Z AUTO 00000KT 1 1/4SM 05/04 RMK SLP254 T00490037 52011 IEM_DS3505
ZBAA,1983-11-07 03:00,ZBAA 070300Z AUTO 04008KT 2SM 10/07 RMK SLP253 T01040072 54000 IEM_DS3505
ZBAA,1983-11-07 06:00,ZBAA 070600Z AUTO 00000KT 4SM 13/08 RMK SLP233 T01310081 4////0043 57020 IEM_DS3505
ZBAA,1983-11-07 09:00,ZBAA 070900Z AUTO 00000KT 2SM 12/08 RMK SLP236 T01220080 52003 IEM_DS3505
ZBAA,1983-11-07 12:00,ZBAA 071200Z AUTO 34002KT 2 1/2SM 08/07 RMK SLP249 T00810068 52012 IEM_DS3505
ZBAA,1983-11-07 15:00,ZBAA 071500Z AUTO 00000KT 2SM 06/05 RMK SLP254 T00620054 52006 IEM_DS3505
ZBAA,1983-11-07 18:00,ZBAA 071800Z AUTO 00000KT 2SM 06/05 RMK SLP260 T00630054 40138//// 52006 IEM_DS3505
ZBAA,1983-11-07 21:00,ZBAA 072100Z AUTO 04002KT 2SM 07/06 RMK SLP258 T00690060 57002 IEM_DS3505
ZBAA,1983-11-08 00:00,ZBAA 080000Z AUTO 02002KT 2SM 08/07 RMK SLP262 T00820071 52004 IEM_DS3505
ZBAA,1983-11-08 03:00,ZBAA 080300Z AUTO 02002KT 1 1/4SM 09/07 A3024 RMK SLP261 T00930074 57001 IEM_DS3505
ZBAA,1983-11-08 05:00,ZBAA 080500Z AUTO 00000KT 1 1/2SM 09/08 A3021 RMK T00900080 IEM_DS3505
ZBAA,1983-11-08 06:00,ZBAA 080600Z AUTO 36002KT 1 1/4SM 09/08 A3018 RMK SLP240 T00890078 4////0055 57021 IEM_DS3505
ZBAA,1983-11-08 07:00,ZBAA 080700Z AUTO 02006KT 1 1/2SM 10/08 A3018 RMK T01000080 IEM_DS3505
ZBAA,1983-11-08 08:00,ZBAA 080800Z AUTO 01004KT 1 1/4SM 09/08 A3018 RMK T00900080 IEM_DS3505
ZBAA,1983-11-08 09:00,ZBAA 080900Z AUTO 36002KT 1 1/4SM 09/08 A3018 RMK SLP236 T00890081 57004 IEM_DS3505
ZBAA,1983-11-08 10:00,ZBAA 081000Z AUTO 00000KT 1 1/4SM 09/09 A3018 RMK T00900090 IEM_DS3505
ZBAA,1983-11-08 11:00,ZBAA 081100Z AUTO 32004KT 1 1/2SM 09/09 A3018 RMK T00900090 IEM_DS3505
ZBAA,1983-11-08 12:00,ZBAA 081200Z AUTO 36004KT 1 1/4SM 09/08 RMK 60000 SLP238 T00910082 52002 IEM_DS3505
ZBAA,1983-11-08 15:00,ZBAA 081500Z AUTO 36004KT 4SM 10/08 RMK SLP238 T00970082 54000 IEM_DS3505
ZBAA,1983-11-08 18:00,ZBAA 081800Z AUTO 00000KT 4SM 10/08 RMK SLP236 T00950085 40100//// 57002 IEM_DS3505
ZBAA,1983-11-08 21:00,ZBAA 082100Z AUTO 00000KT 4SM 10/08 RMK SLP225 T00950085 57011 IEM_DS3505
ZBAA,1983-11-09 00:00,ZBAA 090000Z AUTO 00000KT 1 1/2SM 10/09 RMK SLP225 T00980088 54000 IEM_DS3505
ZBAA,1983-11-09 03:00,ZBAA 090300Z AUTO 00000KT 1 1/4SM 11/09 RMK SLP225 T01080090 54000 IEM_DS3505
ZBAA,1983-11-09 06:00,ZBAA 090600Z AUTO 20004KT 1 1/4SM 11/09 RMK SLP191 T01120086 4////0088 57033 IEM_DS3505
ZBAA,1983-11-09 09:00,ZBAA 090900Z AUTO 18004KT 1SM 11/08 RMK SLP176 T01070082 57015 IEM_DS3505
ZBAA,1983-11-09 12:00,ZBAA 091200Z AUTO 20006KT 1SM 10/09 RMK 60008 SLP173 T00970091 57003 IEM_DS3505
ZBAA,1983-11-09 15:00,ZBAA 091500Z AUTO 32012KT 6SM 09/01 RMK SLP179 T00920012 52006 IEM_DS3505
ZBAA,1983-11-09 18:00,ZBAA 091800Z AUTO 29014KT 6SM 08/M11 RMK SLP182 T00811114 40115//// 52003 IEM_DS3505
ZBAA,1983-11-09 21:00,ZBAA 092100Z AUTO 32010KT 6SM 07/M11 RMK SLP189 T00741114 52007 IEM_DS3505
ZBAA,1983-11-10 00:00,ZBAA 100000Z AUTO 36016KT 12SM 07/M14 RMK 70008 SLP195 T00731141 52006 IEM_DS3505
ZBAA,1983-11-10 03:00,ZBAA 100300Z AUTO 32017KT 19SM 10/M15 RMK SLP193 T01001147 57002 IEM_DS3505
ZBAA,1983-11-10 06:00,ZBAA 100600Z AUTO 32010KT 19SM 11/M11 RMK SLP172 T01121109 57021 IEM_DS3505
ZBAA,1983-11-10 09:00,ZBAA 100900Z AUTO 32006KT 12SM 10/M09 RMK SLP167 T01021092 57005 IEM_DS3505
ZBAA,1983-11-10 12:00,ZBAA 101200Z AUTO 22002KT 12SM 04/M03 RMK SLP169 T00441026 52001 IEM_DS3505
ZBAA,1983-11-10 15:00,ZBAA 101500Z AUTO 25004KT 7SM 04/M03 RMK SLP161 T00411028 57007 IEM_DS3505
ZBAA,1983-11-10 18:00,ZBAA 101800Z AUTO 00000KT 1 1/4SM 01/ RMK SLP139 40121//// 57023 IEM_DS3505
ZBAA,1983-11-10 21:00,ZBAA 102100Z AUTO 02004KT 2 1/2SM 01/M04 RMK SLP134 T00111045 57005 IEM_DS3505
ZBAA,1983-11-11 00:00,ZBAA 110000Z AUTO 32010KT 2 1/2SM 09/M10 RMK SLP152 T00861100 52018 IEM_DS3505
ZBAA,1983-11-11 03:00,ZBAA 110300Z AUTO 34017KT 16SM 10/M11 RMK SLP168 T00961109 52016 IEM_DS3505
ZBAA,1983-11-11 06:00,ZBAA 110600Z AUTO 32016KT 19SM 09/M12 RMK SLP180 T00931124 4////1002 52012 IEM_DS3505
ZBAA,1983-11-11 09:00,ZBAA 110900Z AUTO 19SM 07/M14 RMK SLP210 T00731135 52030 IEM_DS3505
ZBAA,1983-11-11 12:00,ZBAA 111200Z AUTO 34010KT 19SM 06/M11 RMK SLP234 T00561109 52024 IEM_DS3505
ZBAA,1983-11-11 15:00,ZBAA 111500Z AUTO 34010KT 19SM 06/M14 RMK SLP246 T00581135 52012 IEM_DS3505
ZBAA,1983-11-11 18:00,ZBAA 111800Z AUTO 36008KT 19SM 04/M12 RMK SLP254 T00441119 40104//// 52007 IEM_DS3505
ZBAA,1983-11-11 21:00,ZBAA 112100Z AUTO 34004KT 19SM 02/M08 RMK SLP264 T00221083 52010 IEM_DS3505
ZBAA,1983-11-12 00:00,ZBAA 120000Z AUTO 36010KT 19SM 04/M12 RMK SLP272 T00411124 52008 IEM_DS3505
ZBAA,1983-11-12 03:00,ZBAA 120300Z AUTO 36010KT 19SM 08/M11 RMK SLP273 T00841114 52002 IEM_DS3505
ZBAA,1983-11-12 06:00,ZBAA 120600Z AUTO 34010KT 19SM 11/M16 RMK SLP256 T01111160 4////0009 57017 IEM_DS3505
ZBAA,1983-11-12 09:00,ZBAA 120900Z AUTO 32004KT 19SM 10/M10 RMK SLP255 T00971100 57002 IEM_DS3505
ZBAA,1983-11-12 12:00,ZBAA 121200Z AUTO 22006KT 19SM 07/M08 RMK SLP262 T00701079 52007 IEM_DS3505
ZBAA,1983-11-12 15:00,ZBAA 121500Z AUTO 20002KT 9SM 05/M07 RMK SLP264 T00511068 52002 IEM_DS3505
ZBAA,1983-11-12 18:00,ZBAA 121800Z AUTO 00000KT 6SM 01/M05 RMK SLP264 T00111052 40119//// 54000 IEM_DS3505
ZBAA,1983-11-12 21:00,ZBAA 122100Z AUTO 00000KT 6SM M01/M05 RMK SLP263 T10091052 57001 IEM_DS3505
ZBAA,1983-11-13 00:00,ZBAA 130000Z AUTO 02006KT 12SM 01/M05 RMK SLP268 T00101051 52005 IEM_DS3505
ZBAA,1983-11-13 03:00,ZBAA 130300Z AUTO 02008KT 12SM 12/M06 RMK SLP263 T01161065 57004 IEM_DS3505
ZBAA,1983-11-13 06:00,ZBAA 130600Z AUTO 22004KT 9SM 15/M06 RMK SLP240 T01471061 4////1015 57023 IEM_DS3505
ZBAA,1983-11-13 09:00,ZBAA 130900Z AUTO 18006KT 3SM 11/M03 RMK SLP237 T01101034 57004 IEM_DS3505
ZBAA,1983-11-13 12:00,ZBAA 131200Z AUTO 00000KT 3SM 07/M02 RMK SLP243 T00731023 52006 IEM_DS3505
ZBAA,1983-11-13 15:00,ZBAA 131500Z AUTO 07004KT 3SM 04/M03 RMK SLP243 T00441026 52001 IEM_DS3505
ZBAA,1983-11-13 18:00,ZBAA 131800Z AUTO 02004KT 2 1/2SM 03/M03 RMK SLP240 T00341031 40150//// 57003 IEM_DS3505
ZBAA,1983-11-13 21:00,ZBAA 132100Z AUTO 04006KT 4SM 03/M05 RMK SLP230 T00321048 57010 IEM_DS3505
ZBAA,1983-11-14 00:00,ZBAA 140000Z AUTO 00000KT 1 1/4SM 01/M03 RMK SLP231 T00071034 54000 IEM_DS3505
ZBAA,1983-11-14 03:00,ZBAA 140300Z AUTO 00000KT 3SM 08/M03 RMK SLP220 T00791034 57011 IEM_DS3505
ZBAA,1983-11-14 06:00,ZBAA 140600Z AUTO 04004KT 4SM 11/M02 RMK SLP177 T01121018 4////0006 57041 IEM_DS3505
ZBAA,1983-11-14 09:00,ZBAA 140900Z AUTO 34002KT 2 1/2SM 09/01 RMK SLP168 T00870006 57010 IEM_DS3505
ZBAA,1983-11-14 12:00,ZBAA 141200Z AUTO 00000KT 2 1/2SM 04/M00 RMK SLP171 T00451001 52002 IEM_DS3505
ZBAA,1983-11-14 15:00,ZBAA 141500Z AUTO 00000KT 2 1/2SM 03/M01 RMK SLP167 T00261008 57003 IEM_DS3505
ZBAA,1983-11-14 18:00,ZBAA 141800Z AUTO 32012KT 12SM 12/M10 RMK SLP158 T01151096 40122//// 57007 IEM_DS3505
ZBAA,1983-11-14 21:00,ZBAA 142100Z AUTO 29012KT 12SM 09/M10 RMK SLP168 T00941096 52009 IEM_DS3505
ZBAA,1983-11-15 00:00,ZBAA 150000Z AUTO 36010KT 19SM 08/M08 RMK SLP190 T00771079 52021 IEM_DS3505
ZBAA,1983-11-15 02:00,ZBAA 150200Z AUTO 33010KT 7SM 10/M07 RMK T01001070 IEM_DS3505
ZBAA,1983-11-15 03:00,ZBAA 150300Z AUTO 34014KT 19SM 11/M09 A3006 RMK SLP197 T01061087 52007 IEM_DS3505
ZBAA,1983-11-15 04:00,ZBAA 150400Z AUTO 30019G29KT 6SM 11/M09 A3006 RMK T01101090 IEM_DS3505
ZBAA,1983-11-15 05:00,ZBAA 150500Z AUTO 6SM 10/M10 A3003 RMK T01001100 IEM_DS3505
ZBAA,1983-11-15 06:00,ZBAA 150600Z AUTO 34019G29KT 6SM 09/M13 A3006 RMK SLP198 T00901130 4////0021 52002 IEM_DS3505
ZBAA,1983-11-15 07:00,ZBAA 150700Z AUTO 34019G29KT 7SM 07/M21 A3006 RMK T00701210 IEM_DS3505
ZBAA,1983-11-15 08:00,ZBAA 150800Z AUTO 32019G29KT 7SM 06/M22 A3009 RMK T00601220 IEM_DS3505
ZBAA,1983-11-15 09:00,ZBAA 150900Z AUTO 32023KT 19SM 05/ A3012 RMK SLP213 52015 IEM_DS3505
ZBAA,1983-11-15 10:00,ZBAA 151000Z AUTO 35014KT 7SM 03/M19 A3015 RMK T00301190 IEM_DS3505
ZBAA,1983-11-15 11:00,ZBAA 151100Z AUTO 35016KT 7SM 01/M16 A3018 RMK T00101160 IEM_DS3505
ZBAA,1983-11-15 12:00,ZBAA 151200Z AUTO 32004KT 19SM 01/M26 RMK SLP249 T00081258 52034 IEM_DS3505
ZBAA,1983-11-15 15:00,ZBAA 151500Z AUTO 32008KT 19SM M00/M29 RMK SLP254 T10041292 52005 IEM_DS3505
ZBAA,1983-11-15 18:00,ZBAA 151800Z AUTO 32016KT 19SM M01/M34 RMK SLP254 T10101339 40117//// 54000 IEM_DS3505
ZBAA,1983-11-15 21:00,ZBAA 152100Z AUTO 32012KT 19SM M02/M29 RMK SLP252 T10221292 57003 IEM_DS3505
ZBAA,1983-11-16 00:00,ZBAA 160000Z AUTO 32017KT 19SM M02/M31 RMK SLP258 T10211313 52006 IEM_DS3505
ZBAA,1983-11-16 03:00,ZBAA 160300Z AUTO 32014KT 19SM M00/M31 RMK SLP264 T10051313 52006 IEM_DS3505
ZBAA,1983-11-16 06:00,ZBAA 160600Z AUTO 29019KT 9SM 02/M29 RMK SLP240 T00161292 4////1025 57024 IEM_DS3505
ZBAA,1983-11-16 09:00,ZBAA 160900Z AUTO 34010KT 5SM 02/M31 RMK SLP246 T00201313 52006 IEM_DS3505
ZBAA,1983-11-16 12:00,ZBAA 161200Z AUTO 34019KT 6SM 01/M26 RMK SLP267 T00121258 52021 IEM_DS3505
ZBAA,1983-11-16 15:00,ZBAA 161500Z AUTO 34014KT 12SM 00/M23 RMK SLP273 T00021231 52006 IEM_DS3505
ZBAA,1983-11-16 18:00,ZBAA 161800Z AUTO 32012KT 19SM 00/M23 RMK SLP267 T00021231 40020//// 57006 IEM_DS3505
ZBAA,1983-11-16 21:00,ZBAA 162100Z AUTO 00000KT 19SM M01/M15 RMK SLP275 T10121147 52008 IEM_DS3505
ZBAA,1983-11-17 00:00,ZBAA 170000Z AUTO 00000KT 4SM M03/M12 RMK SLP287 T10291124 52012 IEM_DS3505
ZBAA,1983-11-17 03:00,ZBAA 170300Z AUTO 00000KT 19SM 04/M21 RMK SLP288 T00391210 52001 IEM_DS3505
ZBAA,1983-11-17 06:00,ZBAA 170600Z AUTO 18002KT 19SM 08/M19 RMK SLP268 T00801191 57019 IEM_DS3505
ZBAA,1983-11-17 09:00,ZBAA 170900Z AUTO 20006KT 19SM 06/M14 RMK SLP261 T00551141 57008 IEM_DS3505
ZBAA,1983-11-17 12:00,ZBAA 171200Z AUTO 20002KT 16SM 02/M10 RMK SLP255 T00221105 57006 IEM_DS3505
ZBAA,1983-11-17 15:00,ZBAA 171500Z AUTO 22002KT 12SM 00/M11 RMK SLP246 T00051114 57009 IEM_DS3505
ZBAA,1983-11-17 18:00,ZBAA 171800Z AUTO 00000KT 9SM M02/M11 RMK SLP235 T10181114 40086//// 57010 IEM_DS3505
ZBAA,1983-11-17 21:00,ZBAA 172100Z AUTO 00000KT 6SM M04/M09 RMK SLP232 T10421092 57003 IEM_DS3505
ZBAA,1983-11-18 00:00,ZBAA 180000Z AUTO 00000KT 1 1/2SM M02/M11 RMK SLP234 T10171109 52002 IEM_DS3505
ZBAA,1983-11-18 03:00,ZBAA 180300Z AUTO 00000KT 4SM 07/M12 RMK SLP230 T00701124 57003 IEM_DS3505
ZBAA,1983-11-18 06:00,ZBAA 180600Z AUTO 16004KT 2SM 11/M11 RMK SLP206 T01101109 4////1043 57023 IEM_DS3505
ZBAA,1983-11-18 09:00,ZBAA 180900Z AUTO 16004KT 3SM 09/M10 RMK SLP209 T00911100 52002 IEM_DS3505
ZBAA,1983-11-18 12:00,ZBAA 181200Z AUTO 00000KT 2SM 02/M07 RMK SLP226 T00161068 52016 IEM_DS3505
ZBAA,1983-11-18 15:00,ZBAA 181500Z AUTO 00000KT 1 1/4SM M01/M07 RMK SLP233 T10081068 52008 IEM_DS3505
ZBAA,1983-11-18 18:00,ZBAA 181800Z AUTO 00000KT 1 1/4SM M02/M06 RMK SLP238 T10201065 40113//// 52005 IEM_DS3505
ZBAA,1983-11-18 20:00,ZBAA 182000Z AUTO 00000KT 1 1/4SM RMK SLP243 52005 IEM_DS3505
ZBAA,1983-11-18 21:00,ZBAA 182100Z AUTO 00000KT 1 1/4SM M03/M06 RMK SLP243 T10321065 52005 IEM_DS3505
ZBAA,1983-11-19 00:00,ZBAA 190000Z AUTO 00000KT 1SM M03/M07 RMK SLP253 T10271072 52009 IEM_DS3505
ZBAA,1983-11-19 03:00,ZBAA 190300Z AUTO 00000KT 7SM 08/M06 A3024 RMK T00801060 IEM_DS3505
ZBAA,1983-11-19 04:00,ZBAA 190400Z AUTO 00000KT 7SM 11/M11 A3024 RMK T01101110 IEM_DS3505
ZBAA,1983-11-19 05:00,ZBAA 190500Z AUTO 00000KT 7SM 12/M09 A3021 RMK T01201090 IEM_DS3505
ZBAA,1983-11-19 06:00,ZBAA 190600Z AUTO 20004KT 4SM 14/M10 A3018 RMK SLP243 T01431096 4////1037 57018 IEM_DS3505
ZBAA,1983-11-19 07:00,ZBAA 190700Z AUTO 00000KT 2 1/2SM 14/M04 A3018 RMK T01401040 IEM_DS3505
ZBAA,1983-11-19 08:00,ZBAA 190800Z AUTO 00000KT 2 1/2SM 13/M01 A3018 RMK T01301010 IEM_DS3505
ZBAA,1983-11-19 09:00,ZBAA 190900Z AUTO 18004KT 2 1/2SM 11/M06 A3018 RMK SLP248 T01081058 52005 IEM_DS3505
ZBAA,1983-11-19 10:00,ZBAA 191000Z AUTO 00000KT 2 1/2SM 07/M03 A3021 RMK T00701030 IEM_DS3505
ZBAA,1983-11-19 11:00,ZBAA 191100Z AUTO 00000KT 2SM 06/M03 A3024 RMK T00601030 IEM_DS3505
ZBAA,1983-11-19 12:00,ZBAA 191200Z AUTO 25002KT 2 1/2SM 07/M05 RMK SLP263 T00671052 52010 IEM_DS3505
ZBAA,1983-11-19 15:00,ZBAA 191500Z AUTO 00000KT 2 1/2SM 01/M04 RMK SLP273 T00131042 52011 IEM_DS3505
ZBAA,1983-11-19 18:00,ZBAA 191800Z AUTO 00000KT 2 1/2SM 01/M04 RMK SLP282 T00111045 4////1014 52010 IEM_DS3505
ZBAA,1983-11-19 21:00,ZBAA 192100Z AUTO 04004KT 2 1/2SM 01/M06 RMK SLP292 T00081061 52009 IEM_DS3505
ZBAA,1983-11-20 00:00,ZBAA 200000Z AUTO 00000KT 2SM 02/M05 RMK SLP322 T00181052 52029 IEM_DS3505
ZBAA,1983-11-20 03:00,ZBAA 200300Z AUTO 07002KT 2SM 08/M06 RMK SLP330 T00811055 52008 IEM_DS3505
ZBAA,1983-11-20 06:00,ZBAA 200600Z AUTO 16004KT 3SM 09/00 RMK SLP307 T00910001 4////1015 57022 IEM_DS3505
ZBAA,1983-11-20 09:00,ZBAA 200900Z AUTO 00000KT 2 1/2SM 09/02 RMK SLP301 T00880018 57006 IEM_DS3505
ZBAA,1983-11-20 12:00,ZBAA 201200Z AUTO 16004KT 4SM 08/02 RMK SLP311 T00770021 52010 IEM_DS3505
ZBAA,1983-11-20 18:00,ZBAA 201800Z AUTO 00000KT 3SM 06/00 RMK SLP306 T00580004 40097//// 57003 IEM_DS3505
ZBAA,1983-11-20 21:00,ZBAA 202100Z AUTO 02004KT 2SM 04/01 RMK SLP301 T00420008 57006 IEM_DS3505
ZBAA,1983-11-21 00:00,ZBAA 210000Z AUTO 04002KT 1SM 01/M01 RMK SLP309 T00101008 52008 IEM_DS3505
ZBAA,1983-11-21 03:00,ZBAA 210300Z AUTO 36006KT 2 1/2SM 08/M02 RMK SLP306 T00821023 57002 IEM_DS3505
ZBAA,1983-11-21 06:00,ZBAA 210600Z AUTO 36004KT 9SM 11/M08 RMK SLP283 T01111083 4////0008 57023 IEM_DS3505
ZBAA,1983-11-21 09:00,ZBAA 210900Z AUTO 00000KT 2SM 09/01 RMK SLP284 T00920012 54000 IEM_DS3505
ZBAA,1983-11-21 12:00,ZBAA 211200Z AUTO 00000KT 2 1/2SM 04/00 RMK SLP293 T00440004 52008 IEM_DS3505
ZBAA,1983-11-21 15:00,ZBAA 211500Z AUTO 00000KT 2 1/2SM 02/M00 RMK SLP293 T00221003 52001 IEM_DS3505
ZBAA,1983-11-21 18:00,ZBAA 211800Z AUTO 02004KT 2 1/2SM 04/M03 RMK SLP292 T00351028 40115//// 54000 IEM_DS3505
ZBAA,1983-11-21 21:00,ZBAA 212100Z AUTO 00000KT 2 1/2SM 00/M03 RMK SLP285 T00031028 57008 IEM_DS3505
ZBAA,1983-11-22 00:00,ZBAA 220000Z AUTO 00000KT 1 1/4SM M01/M03 RMK SLP294 T10071026 52008 IEM_DS3505
ZBAA,1983-11-22 03:00,ZBAA 220300Z AUTO 11002KT 2 1/2SM 09/M05 RMK SLP291 T00861048 57002 IEM_DS3505
ZBAA,1983-11-22 04:00,ZBAA 220400Z AUTO 03004KT 6SM 10/M06 A3030 RMK T01001060 IEM_DS3505
ZBAA,1983-11-22 05:00,ZBAA 220500Z AUTO 12002KT 6SM 10/M05 A3027 RMK T01001050 IEM_DS3505
ZBAA,1983-11-22 06:00,ZBAA 220600Z AUTO 18006KT 1 1/4SM 11/M04 A3024 RMK SLP260 T01071039 4////1011 57030 IEM_DS3505
ZBAA,1983-11-22 07:00,ZBAA 220700Z AUTO 00000KT 6SM 11/M04 A3024 RMK T01101040 IEM_DS3505
ZBAA,1983-11-22 08:00,ZBAA 220800Z AUTO 18004KT 6SM 10/M03 A3024 RMK T01001030 IEM_DS3505
ZBAA,1983-11-22 09:00,ZBAA 220900Z AUTO 20004KT 2SM 09/M01 A3024 RMK SLP255 T00881013 57006 IEM_DS3505
ZBAA,1983-11-22 12:00,ZBAA 221200Z AUTO 00000KT 1 1/4SM 05/M01 RMK SLP256 T00481006 54000 IEM_DS3505
ZBAA,1983-11-22 15:00,ZBAA 221500Z AUTO 00000KT 1SM 02/M01 RMK SLP251 T00191010 57004 IEM_DS3505
ZBAA,1983-11-22 18:00,ZBAA 221800Z AUTO 02002KT 3SM 02/M03 RMK SLP239 T00221028 40110//// 57012 IEM_DS3505
ZBAA,1983-11-22 21:00,ZBAA 222100Z AUTO 00000KT 2SM M02/M04 RMK SLP227 T10161039 57012 IEM_DS3505
ZBAA,1983-11-23 00:00,ZBAA 230000Z AUTO 00000KT 1 1/4SM M01/M03 RMK SLP231 T10121028 52003 IEM_DS3505
ZBAA,1983-11-23 03:00,ZBAA 230300Z AUTO 32008KT 6SM RMK SLP233 52003 IEM_DS3505
ZBAA,1983-11-23 06:00,ZBAA 230600Z AUTO 34010KT 7SM 11/M09 RMK SLP236 T01101092 4////1023 52003 IEM_DS3505
ZBAA,1983-11-23 09:00,ZBAA 230900Z AUTO 36008KT 9SM 08/M12 RMK SLP264 T00841124 52028 IEM_DS3505
ZBAA,1983-11-23 12:00,ZBAA 231200Z AUTO 34012KT 12SM 06/M12 RMK SLP299 T00631119 52034 IEM_DS3505
ZBAA,1983-11-23 15:00,ZBAA 231500Z AUTO 34012KT 19SM 04/M20 RMK SLP319 T00371200 52021 IEM_DS3505
ZBAA,1983-11-23 18:00,ZBAA 231800Z AUTO 36010KT 19SM 02/M21 RMK SLP330 T00161210 40127//// 52011 IEM_DS3505
ZBAA,1983-11-23 21:00,ZBAA 232100Z AUTO 36010KT 19SM 00/M18 RMK SLP328 T00021175 57003 IEM_DS3505
ZBAA,1983-11-24 00:00,ZBAA 240000Z AUTO 00000KT 7SM M02/M19 RMK SLP329 T10191191 52001 IEM_DS3505
ZBAA,1983-11-24 03:00,ZBAA 240300Z AUTO 18002KT 9SM 06/M14 RMK SLP319 T00651141 57009 IEM_DS3505
ZBAA,1983-11-24 06:00,ZBAA 240600Z AUTO 32010KT 12SM 09/M18 RMK SLP284 T00871175 4////1024 57035 IEM_DS3505
ZBAA,1983-11-24 09:00,ZBAA 240900Z AUTO 18006KT 7SM 05/M11 RMK SLP281 T00541109 57004 IEM_DS3505
ZBAA,1983-11-24 12:00,ZBAA 241200Z AUTO 20006KT 9SM 04/M10 RMK SLP284 T00411105 52003 IEM_DS3505
ZBAA,1983-11-24 15:00,ZBAA 241500Z AUTO 18006KT 9SM 01/M09 RMK SLP275 T00131092 57008 IEM_DS3505
ZBAA,1983-11-24 18:00,ZBAA 241800Z AUTO 20004KT 7SM M02/M09 RMK SLP265 T10181087 40091//// 57010 IEM_DS3505
ZBAA,1983-11-24 21:00,ZBAA 242100Z AUTO 02004KT 7SM 05/M18 RMK SLP273 T00471175 52008 IEM_DS3505
ZBAA,1983-11-25 00:00,ZBAA 250000Z AUTO 34008KT 19SM 05/M18 RMK SLP290 T00481175 52017 IEM_DS3505
ZBAA,1983-11-25 03:00,ZBAA 250300Z AUTO 34014KT 19SM 07/M18 RMK SLP304 T00661175 52014 IEM_DS3505
ZBAA,1983-11-25 06:00,ZBAA 250600Z AUTO 34016KT 19SM 08/M19 RMK SLP301 T00761191 4////1025 57004 IEM_DS3505
ZBAA,1983-11-25 09:00,ZBAA 250900Z AUTO 32012KT 19SM 06/M19 RMK SLP319 T00621191 52019 IEM_DS3505
ZBAA,1983-11-25 12:00,ZBAA 251200Z AUTO 32008KT 19SM 04/M18 RMK SLP338 T00411183 52018 IEM_DS3505
ZBAA,1983-11-25 15:00,ZBAA 251500Z AUTO 32008KT 19SM 02/M17 RMK SLP350 T00231167 52012 IEM_DS3505
ZBAA,1983-11-25 18:00,ZBAA 251800Z AUTO 32004KT 9SM M00/M16 RMK SLP354 T10031160 40081//// 52004 IEM_DS3505
ZBAA,1983-11-25 21:00,ZBAA 252100Z AUTO 18004KT 6SM M02/M12 RMK SLP357 T10251119 52003 IEM_DS3505
ZBAA,1983-11-26 00:00,ZBAA 260000Z AUTO 00000KT 5SM M04/M11 RMK SLP365 T10421114 52007 IEM_DS3505
ZBAA,1983-11-26 03:00,ZBAA 260300Z AUTO 14004KT 4SM 06/M11 A3056 RMK SLP364 T00651109 54000 IEM_DS3505
ZBAA,1983-11-26 04:00,ZBAA 260400Z AUTO 00000KT 7SM 08/M14 A3053 RMK T00801140 IEM_DS3505
ZBAA,1983-11-26 05:00,ZBAA 260500Z AUTO 00000KT 7SM 09/M13 A3050 RMK T00901130 IEM_DS3505
ZBAA,1983-11-26 06:00,ZBAA 260600Z AUTO 20008KT 6SM 10/M13 A3047 RMK SLP341 T00951130 4////1047 57023 IEM_DS3505
ZBAA,1983-11-26 07:00,ZBAA 260700Z AUTO 22008KT 7SM 09/M16 A3047 RMK T00901160 IEM_DS3505
ZBAA,1983-11-26 08:00,ZBAA 260800Z AUTO 22004KT 7SM 09/M14 A3047 RMK T00901140 IEM_DS3505
ZBAA,1983-11-26 09:00,ZBAA 260900Z AUTO 18004KT 5SM 06/M11 A3047 RMK SLP335 T00601110 57006 IEM_DS3505
ZBAA,1983-11-26 10:00,ZBAA 261000Z AUTO 00000KT 5SM 04/M10 A3047 RMK T00401100 IEM_DS3505
ZBAA,1983-11-26 12:00,ZBAA 261200Z AUTO 00000KT 5SM 02/M07 RMK SLP339 T00171068 52003 IEM_DS3505
ZBAA,1983-11-26 15:00,ZBAA 261500Z AUTO 00000KT 5SM 01/M10 RMK SLP339 T00141096 52001 IEM_DS3505
ZBAA,1983-11-26 18:00,ZBAA 261800Z AUTO 00000KT 4SM M03/M08 RMK SLP335 T10291083 40101//// 57004 IEM_DS3505
ZBAA,1983-11-26 21:00,ZBAA 262100Z AUTO 00000KT 4SM M02/M09 RMK SLP335 T10241087 54000 IEM_DS3505
ZBAA,1983-11-27 00:00,ZBAA 270000Z AUTO 00000KT 1 1/4SM M04/M08 RMK SLP351 T10351079 52015 IEM_DS3505
ZBAA,1983-11-27 03:00,ZBAA 270300Z AUTO 02002KT 4SM 06/M09 RMK SLP351 T00641087 52001 IEM_DS3505
ZBAA,1983-11-27 06:00,ZBAA 270600Z AUTO 00000KT 4SM 11/M08 RMK SLP329 T01071079 4////1036 57022 IEM_DS3505
ZBAA,1983-11-27 09:00,ZBAA 270900Z AUTO 00000KT 2SM 09/M04 RMK SLP327 T00871042 57002 IEM_DS3505
ZBAA,1983-11-27 12:00,ZBAA 271200Z AUTO 00000KT 2 1/2SM 02/M06 RMK SLP338 T00191058 52010 IEM_DS3505
ZBAA,1983-11-27 15:00,ZBAA 271500Z AUTO 00000KT 3SM 00/M05 RMK SLP334 T00001048 57003 IEM_DS3505
ZBAA,1983-11-27 18:00,ZBAA 271800Z AUTO 02004KT 3SM 02/M06 RMK SLP325 T00181065 40119//// 57008 IEM_DS3505
ZBAA,1983-11-27 21:00,ZBAA 272100Z AUTO 04006KT 2SM M00/M04 RMK SLP312 T10031042 57013 IEM_DS3505
ZBAA,1983-11-28 00:00,ZBAA 280000Z AUTO 00000KT 1SM 00/M03 RMK SLP316 T00041026 52003 IEM_DS3505
ZBAA,1983-11-28 03:00,ZBAA 280300Z AUTO 04004KT 1 1/4SM 05/M04 RMK SLP304 T00461037 57012 IEM_DS3505
ZBAA,1983-11-28 06:00,ZBAA 280600Z AUTO 04004KT 2SM 06/M03 RMK SLP269 T00651026 4////1013 57034 IEM_DS3505
ZBAA,1983-11-28 09:00,ZBAA 280900Z AUTO 18002KT 1SM 06/M01 RMK SLP260 T00581013 57010 IEM_DS3505
ZBAA,1983-11-28 12:00,ZBAA 281200Z AUTO 00000KT 1 1/4SM 03/M02 RMK SLP265 T00301015 52005 IEM_DS3505
ZBAA,1983-11-28 15:00,ZBAA 281500Z AUTO 02002KT 3SM 03/M03 RMK SLP256 T00331026 57008 IEM_DS3505
ZBAA,1983-11-28 18:00,ZBAA 281800Z AUTO 36004KT 2 1/2SM 01/M03 RMK SLP250 T00061034 40070//// 57006 IEM_DS3505
ZBAA,1983-11-28 21:00,ZBAA 282100Z AUTO 34010KT 12SM 09/M01 RMK SLP249 T00881014 54000 IEM_DS3505
ZBAA,1983-11-29 00:00,ZBAA 290000Z AUTO 32016KT 16SM 07/M10 RMK SLP269 T00731096 52019 IEM_DS3505
ZBAA,1983-11-29 03:00,ZBAA 290300Z AUTO 32017KT 19SM 09/M11 A3030 RMK SLP284 T00861114 52015 IEM_DS3505
ZBAA,1983-11-29 04:00,ZBAA 290400Z AUTO 35016KT 6SM 09/M12 A3030 RMK T00901120 IEM_DS3505
ZBAA,1983-11-29 05:00,ZBAA 290500Z AUTO 33017KT 6SM 09/M13 A3027 RMK T00901130 IEM_DS3505
ZBAA,1983-11-29 06:00,ZBAA 290600Z AUTO 32014KT 16SM 09/M14 A3027 RMK SLP281 T00881135 4////1002 57003 IEM_DS3505
ZBAA,1983-11-29 07:00,ZBAA 290700Z AUTO 32017KT 6SM 08/M14 A3030 RMK T00801140 IEM_DS3505
ZBAA,1983-11-29 08:00,ZBAA 290800Z AUTO 34014KT 6SM 07/M17 A3033 RMK T00701170 IEM_DS3505
ZBAA,1983-11-29 09:00,ZBAA 290900Z AUTO 32019KT 6SM 05/M18 A3033 RMK T00541176 IEM_DS3505
ZBAA,1983-11-29 12:00,ZBAA 291200Z AUTO 32019KT 19SM 02/M22 RMK SLP330 T00221220 52028 IEM_DS3505
ZBAA,1983-11-29 15:00,ZBAA 291500Z AUTO 32017KT 19SM 00/M22 RMK SLP356 T00011220 52026 IEM_DS3505
ZBAA,1983-11-29 18:00,ZBAA 291800Z AUTO 32016KT 19SM M00/M26 RMK SLP353 T10041258 40094//// 57003 IEM_DS3505
ZBAA,1983-11-29 21:00,ZBAA 292100Z AUTO 34006KT 19SM 00/M22 RMK SLP346 T00001220 57007 IEM_DS3505
ZBAA,1983-11-30 00:00,ZBAA 300000Z AUTO 02004KT 11SM M01/M18 RMK SLP352 T10071175 52005 IEM_DS3505
ZBAA,1983-11-30 03:00,ZBAA 300300Z AUTO 18004KT 4SM 04/M15 RMK SLP352 T00391154 52001 IEM_DS3505
ZBAA,1983-11-30 06:00,ZBAA 300600Z AUTO 18006KT 6SM 06/M15 RMK SLP317 T00631147 4////1010 57034 IEM_DS3505
ZBAA,1983-11-30 09:00,ZBAA 300900Z AUTO 18004KT 2 1/2SM 05/M12 RMK SLP310 T00531119 57008 IEM_DS3505
ZBAA,1983-11-30 12:00,ZBAA 301200Z AUTO 25004KT 6SM 04/M10 RMK SLP299 T00361100 57011 IEM_DS3505
ZBAA,1983-11-30 15:00,ZBAA 301500Z AUTO 00000KT 6SM 01/M09 RMK SLP303 T00061087 52004 IEM_DS3505
ZBAA,1983-11-30 18:00,ZBAA 301800Z AUTO 00000KT 6SM 00/M10 RMK SLP300 T00011100 40073//// 57002 IEM_DS3505
ZBAA,1983-11-30 21:00,ZBAA 302100Z AUTO 29006KT 9SM M01/M10 RMK SLP295 T10121100 57006 IEM_DS3505
ZBAA,1983-12-01 00:00,ZBAA 010000Z AUTO 02006KT 6SM 03/M13 RMK SLP288 T00291130 57006 IEM_DS3505
ZBAA,1983-12-01 03:00,ZBAA 010300Z AUTO 20006KT 6SM 10/M13 RMK SLP279 T00961130 57009 IEM_DS3505
ZBAA,1983-12-01 05:00,ZBAA 010500Z AUTO 20006KT 5SM 08/M08 RMK SLP233 T00821083 57014 IEM_DS3505
ZBAA,1983-12-01 06:00,ZBAA 010600Z AUTO 20006KT 5SM 12/M10 RMK SLP247 T01161105 4////1015 57032 IEM_DS3505
ZBAA,1983-12-01 09:00,ZBAA 010900Z AUTO 20006KT 5SM 08/M08 RMK SLP233 T00821083 57014 IEM_DS3505
ZBAA,1983-12-01 12:00,ZBAA 011200Z AUTO 20006KT 9SM 06/M09 RMK SLP228 T00611087 57005 IEM_DS3505
ZBAA,1983-12-01 15:00,ZBAA 011500Z AUTO 29002KT 9SM 05/M08 RMK SLP219 T00461079 57008 IEM_DS3505
ZBAA,1983-12-01 18:00,ZBAA 011800Z AUTO 18002KT 9SM 04/M10 RMK SLP209 T00441096 40120//// 57009 IEM_DS3505
ZBAA,1983-12-01 21:00,ZBAA 012100Z AUTO 27004KT 9SM 05/M12 RMK SLP199 T00501119 57011 IEM_DS3505
ZBAA,1983-12-02 00:00,ZBAA 020000Z AUTO 34004KT 4SM 03/M10 RMK SLP203 T00261100 52004 IEM_DS3505
ZBAA,1983-12-02 03:00,ZBAA 020300Z AUTO 00000KT 16SM 11/M12 RMK SLP210 T01111124 52008 IEM_DS3505
ZBAA,1983-12-02 06:00,ZBAA 020600Z AUTO 34008KT 19SM 13/M16 RMK SLP199 T01301160 4////0010 57011 IEM_DS3505
ZBAA,1983-12-02 09:00,ZBAA 020900Z AUTO 32008KT 19SM 12/M17 RMK SLP213 T01181167 52014 IEM_DS3505
ZBAA,1983-12-02 12:00,ZBAA 021200Z AUTO 32004KT 16SM 07/M09 RMK SLP236 T00711092 52021 IEM_DS3505
ZBAA,1983-12-02 15:00,ZBAA 021500Z AUTO 36006KT 16SM 07/M11 RMK SLP260 T00701109 52025 IEM_DS3505
ZBAA,1983-12-02 18:00,ZBAA 021800Z AUTO 34006KT 16SM 04/M09 RMK SLP274 T00351087 40134//// 52014 IEM_DS3505
ZBAA,1983-12-02 21:00,ZBAA 022100Z AUTO 36008KT 16SM 04/M12 RMK SLP281 T00451119 52007 IEM_DS3505
ZBAA,1983-12-03 00:00,ZBAA 030000Z AUTO 34002KT 16SM 03/M09 RMK SLP301 T00291092 52019 IEM_DS3505
ZBAA,1983-12-03 03:00,ZBAA 030300Z AUTO 04010KT 7SM 08/M08 A3042 RMK SLP313 T00801080 52013 IEM_DS3505
ZBAA,1983-12-03 04:00,ZBAA 030400Z AUTO 04010KT 7SM 10/M08 A3039 RMK T01001080 IEM_DS3505
ZBAA,1983-12-03 05:00,ZBAA 030500Z AUTO 08004KT 7SM 10/M07 A3036 RMK T01001070 IEM_DS3505
ZBAA,1983-12-03 06:00,ZBAA 030600Z AUTO 16006KT 5SM 11/M09 A3036 RMK SLP296 T01121087 4////0025 57017 IEM_DS3505
ZBAA,1983-12-03 07:00,ZBAA 030700Z AUTO 23006KT 7SM 11/M09 A3033 RMK T01101090 IEM_DS3505
ZBAA,1983-12-03 08:00,ZBAA 030800Z AUTO 00000KT 7SM 10/M07 A3033 RMK T01001070 IEM_DS3505
ZBAA,1983-12-03 09:00,ZBAA 030900Z AUTO 20004KT 5SM 08/M07 A3036 RMK SLP294 T00801068 57003 IEM_DS3505
ZBAA,1983-12-03 12:00,ZBAA 031200Z AUTO 20002KT 7SM 05/M06 RMK SLP297 T00521055 52003 IEM_DS3505
ZBAA,1983-12-03 15:00,ZBAA 031500Z AUTO 00000KT 4SM 01/M05 RMK SLP293 T00121052 57004 IEM_DS3505
ZBAA,1983-12-03 18:00,ZBAA 031800Z AUTO 00000KT 6SM M00/M04 RMK SLP288 T10051037 40113//// 57005 IEM_DS3505
ZBAA,1983-12-03 21:00,ZBAA 032100Z AUTO 04002KT 6SM M01/M06 RMK SLP279 T10101061 57009 IEM_DS3505
ZBAA,1983-12-04 00:00,ZBAA 040000Z AUTO 00000KT 1 1/4SM M02/M05 RMK SLP280 T10241048 54000 IEM_DS3505
ZBAA,1983-12-04 03:00,ZBAA 040300Z AUTO 00000KT 1 1/2SM 07/M04 RMK SLP273 T00681037 57006 IEM_DS3505
ZBAA,1983-12-04 06:00,ZBAA 040600Z AUTO 20002KT 3SM 12/M07 RMK SLP243 T01181072 4////1029 57030 IEM_DS3505
ZBAA,1983-12-04 09:00,ZBAA 040900Z AUTO 20004KT 1 1/4SM 09/M03 RMK SLP233 T00921034 57010 IEM_DS3505
ZBAA,1983-12-04 12:00,ZBAA 041200Z AUTO 22002KT 1 1/4SM 06/M02 RMK SLP238 T00591021 52004 IEM_DS3505
ZBAA,1983-12-04 15:00,ZBAA 041500Z AUTO 32002KT 1 1/4SM 02/M03 RMK SLP238 T00151028 52001 IEM_DS3505
ZBAA,1983-12-04 18:00,ZBAA 041800Z AUTO 00000KT 2 1/2SM 02/M04 RMK SLP240 T00161037 40123//// 52002 IEM_DS3505
ZBAA,1983-12-04 21:00,ZBAA 042100Z AUTO 02006KT 2SM 05/M07 RMK SLP238 T00541068 57001 IEM_DS3505
ZBAA,1983-12-05 00:00,ZBAA 050000Z AUTO 04006KT 1 1/4SM 06/M10 RMK SLP251 T00551096 52012 IEM_DS3505
ZBAA,1983-12-05 03:00,ZBAA 050300Z AUTO 04002KT 4SM 09/M08 RMK SLP266 T00931076 52015 IEM_DS3505
ZBAA,1983-12-05 06:00,ZBAA 050600Z AUTO 07006KT 7SM 11/M10 RMK SLP254 T01141100 4////0009 57012 IEM_DS3505
ZBAA,1983-12-05 09:00,ZBAA 050900Z AUTO 16002KT 4SM 09/M03 RMK SLP261 T00931031 52008 IEM_DS3505
ZBAA,1983-12-05 12:00,ZBAA 051200Z AUTO 18004KT 2 1/2SM 06/M01 RMK SLP284 T00621010 52022 IEM_DS3505
ZBAA,1983-12-05 15:00,ZBAA 051500Z AUTO 14006KT 3SM 03/M00 RMK SLP293 T00341001 52009 IEM_DS3505
ZBAA,1983-12-05 18:00,ZBAA 051800Z AUTO 00000KT 2 1/2SM 02/M00 RMK SLP298 T00171003 40120//// 52005 IEM_DS3505
ZBAA,1983-12-05 21:00,ZBAA 052100Z AUTO 00000KT 2 1/2SM M01/M02 RMK SLP288 T10071023 57010 IEM_DS3505
ZBAA,1983-12-06 00:00,ZBAA 060000Z AUTO 00000KT 1SM M02/M03 RMK SLP292 T10181028 52003 IEM_DS3505
ZBAA,1983-12-06 03:00,ZBAA 060300Z AUTO 00000KT 1 1/4SM 05/M01 A3033 RMK SLP292 T00491010 52001 IEM_DS3505
ZBAA,1983-12-06 04:00,ZBAA 060400Z AUTO 00000KT 7SM 07/M03 A3033 RMK T00701030 IEM_DS3505
ZBAA,1983-12-06 05:00,ZBAA 060500Z AUTO 00000KT 7SM 08/M05 A3030 RMK T00801050 IEM_DS3505
ZBAA,1983-12-06 06:00,ZBAA 060600Z AUTO 20002KT 2 1/2SM 10/M01 A3027 RMK SLP271 T01011010 4////1018 57021 IEM_DS3505
ZBAA,1983-12-06 07:00,ZBAA 060700Z AUTO 10002KT 7SM 09/M05 A3027 RMK T00901050 IEM_DS3505
ZBAA,1983-12-06 08:00,ZBAA 060800Z AUTO 00000KT 7SM 09/M04 A3027 RMK T00901040 IEM_DS3505
ZBAA,1983-12-06 09:00,ZBAA 060900Z AUTO 20002KT 3SM 07/01 A3039 RMK SLP273 T00720012 52002 IEM_DS3505
ZBAA,1983-12-06 12:00,ZBAA 061200Z AUTO 00000KT 3SM 02/M00 RMK SLP285 T00221001 52011 IEM_DS3505
ZBAA,1983-12-06 15:00,ZBAA 061500Z AUTO 34004KT 5SM 05/M07 RMK SLP293 T00461068 52009 IEM_DS3505
ZBAA,1983-12-06 18:00,ZBAA 061800Z AUTO 02002KT 7SM 04/M09 RMK SLP291 T00361087 40104//// 57002 IEM_DS3505
ZBAA,1983-12-06 21:00,ZBAA 062100Z AUTO 36008KT 6SM 04/M11 RMK SLP291 T00361114 54000 IEM_DS3505
ZBAA,1983-12-07 00:00,ZBAA 070000Z AUTO 00000KT 7SM 02/M08 RMK SLP298 T00161083 52006 IEM_DS3505
ZBAA,1983-12-07 01:00,ZBAA 070100Z AUTO 02006KT 4SM 09/M11 RMK SLP297 T00931114 52001 IEM_DS3505
ZBAA,1983-12-07 03:00,ZBAA 070300Z AUTO 02006KT 4SM 09/M11 RMK SLP297 T00931114 52001 IEM_DS3505
ZBAA,1983-12-07 06:00,ZBAA 070600Z AUTO 20006KT 4SM 12/M09 RMK SLP278 T01151092 4////0010 57019 IEM_DS3505
ZBAA,1983-12-07 09:00,ZBAA 070900Z AUTO 22004KT 3SM 08/M05 RMK SLP277 T00781052 57002 IEM_DS3505
ZBAA,1983-12-07 12:00,ZBAA 071200Z AUTO 20004KT 5SM 04/M04 RMK SLP274 T00431037 57003 IEM_DS3505
ZBAA,1983-12-07 15:00,ZBAA 071500Z AUTO 00000KT 2 1/2SM 01/M04 RMK SLP273 T00081045 57001 IEM_DS3505
ZBAA,1983-12-07 18:00,ZBAA 071800Z AUTO 00000KT 1 1/4SM M01/M05 RMK SLP263 T10061048 40134//// 57010 IEM_DS3505
ZBAA,1983-12-07 21:00,ZBAA 072100Z AUTO 02004KT 2SM M03/M07 RMK SLP255 T10261068 57009 IEM_DS3505
ZBAA,1983-12-08 00:00,ZBAA 080000Z AUTO 00000KT 1SM 00/M09 RMK SLP256 T00011087 52001 IEM_DS3505
ZBAA,1983-12-08 03:00,ZBAA 080300Z AUTO 07006KT 4SM 07/M11 RMK SLP252 T00701109 57003 IEM_DS3505
ZBAA,1983-12-08 06:00,ZBAA 080600Z AUTO 00000KT 4SM 11/M06 RMK SLP221 T01141061 4////1028 57031 IEM_DS3505
ZBAA,1983-12-08 09:00,ZBAA 080900Z AUTO 20006KT 1 1/4SM 08/M06 RMK SLP223 T00791065 52001 IEM_DS3505
ZBAA,1983-12-08 12:00,ZBAA 081200Z AUTO 18002KT 1 1/4SM 05/M04 RMK SLP229 T00491042 52006 IEM_DS3505
ZBAA,1983-12-08 15:00,ZBAA 081500Z AUTO 00000KT 1 1/4SM 01/M06 RMK SLP226 T00081055 57002 IEM_DS3505
ZBAA,1983-12-08 18:00,ZBAA 081800Z AUTO 04002KT 2SM 01/M06 RMK SLP221 T00081058 40121//// 57005 IEM_DS3505
ZBAA,1983-12-08 21:00,ZBAA 082100Z AUTO 02004KT 1SM 01/M06 RMK SLP209 T00061061 57011 IEM_DS3505
ZBAA,1983-12-09 00:00,ZBAA 090000Z AUTO 00000KT 1SM M00/M05 RMK SLP205 T10041052 57005 IEM_DS3505
ZBAA,1983-12-09 03:00,ZBAA 090300Z AUTO 00000KT 1SM 04/M01 RMK SLP197 T00441010 57008 IEM_DS3505
ZBAA,1983-12-09 06:00,ZBAA 090600Z AUTO 20004KT 1 1/4SM 09/M03 RMK SLP168 T00901028 4////1012 57028 IEM_DS3505
ZBAA,1983-12-09 09:00,ZBAA 090900Z AUTO 20002KT 1 1/4SM 07/M02 RMK SLP164 T00661023 57004 IEM_DS3505
ZBAA,1983-12-09 12:00,ZBAA 091200Z AUTO 29008KT 1 1/4SM 03/M03 RMK SLP179 T00331028 52014 IEM_DS3505
ZBAA,1983-12-09 15:00,ZBAA 091500Z AUTO 34014KT 9SM 07/M11 RMK SLP187 T00701114 52009 IEM_DS3505
ZBAA,1983-12-09 18:00,ZBAA 091800Z AUTO 34016KT 16SM 04/M17 RMK SLP208 T00421167 40097//// 52021 IEM_DS3505
ZBAA,1983-12-09 21:00,ZBAA 092100Z AUTO 34017KT 12SM 02/M18 RMK SLP227 T00181175 52018 IEM_DS3505
ZBAA,1983-12-10 00:00,ZBAA 100000Z AUTO 34004KT 19SM 01/M14 RMK SLP244 T00131135 52016 IEM_DS3505
ZBAA,1983-12-10 03:00,ZBAA 100300Z AUTO 29014KT 19SM 04/M20 RMK SLP249 T00421200 52006 IEM_DS3505
ZBAA,1983-12-10 06:00,ZBAA 100600Z AUTO 32014KT 19SM 06/M21 RMK SLP234 T00561210 57015 IEM_DS3505
ZBAA,1983-12-10 09:00,ZBAA 100900Z AUTO 32010KT 12SM 04/M19 RMK SLP246 T00441191 52012 IEM_DS3505
ZBAA,1983-12-10 12:00,ZBAA 101200Z AUTO 32008KT 12SM 03/M18 RMK SLP269 T00281175 50023 IEM_DS3505
ZBAA,1983-12-10 15:00,ZBAA 101500Z AUTO 32006KT 12SM 02/M19 RMK SLP284 T00151191 52015 IEM_DS3505
ZBAA,1983-12-10 18:00,ZBAA 101800Z AUTO 34004KT 12SM 01/M21 RMK SLP282 T00101210 40060//// 57001 IEM_DS3505
ZBAA,1983-12-10 21:00,ZBAA 102100Z AUTO 20002KT 9SM M02/M14 RMK SLP273 T10241135 57010 IEM_DS3505
ZBAA,1983-12-11 00:00,ZBAA 110000Z AUTO 20010KT 7SM M01/M18 RMK SLP271 T10061175 57002 IEM_DS3505
ZBAA,1983-12-11 03:00,ZBAA 110300Z AUTO 20008KT 6SM 04/M18 RMK SLP264 T00401175 57007 IEM_DS3505
ZBAA,1983-12-11 06:00,ZBAA 110600Z AUTO 20010KT 7SM 08/M15 RMK SLP227 T00761147 4////1032 57036 IEM_DS3505
ZBAA,1983-12-11 09:00,ZBAA 110900Z AUTO 20006KT 7SM 06/M12 RMK SLP214 T00551124 57013 IEM_DS3505
ZBAA,1983-12-11 12:00,ZBAA 111200Z AUTO 18004KT 5SM 02/M09 RMK SLP209 T00241092 57005 IEM_DS3505
ZBAA,1983-12-11 15:00,ZBAA 111500Z AUTO 02002KT 5SM M01/M09 RMK SLP196 T10121087 57013 IEM_DS3505
ZBAA,1983-12-11 18:00,ZBAA 111800Z AUTO 02002KT 5SM M01/M11 RMK SLP183 T10061114 40081//// 57012 IEM_DS3505
ZBAA,1983-12-11 21:00,ZBAA 112100Z AUTO 00000KT 4SM M04/M08 RMK SLP172 T10451079 57012 IEM_DS3505
ZBAA,1983-12-12 00:00,ZBAA 120000Z AUTO 00000KT 1SM M03/M10 RMK SLP174 T10311105 52002 IEM_DS3505
ZBAA,1983-12-12 03:00,ZBAA 120300Z AUTO 00000KT 1 1/4SM 04/M08 RMK SLP179 T00451083 52005 IEM_DS3505
ZBAA,1983-12-12 06:00,ZBAA 120600Z AUTO 20006KT 4SM 09/M10 RMK SLP153 T00901105 4////1057 57025 IEM_DS3505
ZBAA,1983-12-12 09:00,ZBAA 120900Z AUTO 20006KT 3SM 06/M09 RMK SLP159 T00591092 52005 IEM_DS3505
ZBAA,1983-12-12 12:00,ZBAA 121200Z AUTO 20006KT 3SM 04/M09 RMK SLP168 T00441087 52009 IEM_DS3505
ZBAA,1983-12-12 15:00,ZBAA 121500Z AUTO 00000KT 3SM 03/M08 RMK SLP177 T00341076 52010 IEM_DS3505
ZBAA,1983-12-12 18:00,ZBAA 121800Z AUTO 07002KT 5SM 02/M09 RMK SLP188 T00181087 40094//// 52011 IEM_DS3505
ZBAA,1983-12-12 21:00,ZBAA 122100Z AUTO 32010KT 9SM 07/M12 RMK SLP195 T00701124 52007 IEM_DS3505
ZBAA,1983-12-13 00:00,ZBAA 130000Z AUTO 32008KT 6SM 03/M13 RMK SLP236 T00311130 52040 IEM_DS3505
ZBAA,1983-12-13 01:00,ZBAA 130100Z AUTO 34012KT 12SM 07/M15 RMK SLP262 T00701147 4////0000 57002 IEM_DS3505
ZBAA,1983-12-13 02:00,ZBAA 130200Z AUTO 00000KT 5SM 04/ RMK IEM_DS3505
ZBAA,1983-12-13 03:00,ZBAA 130300Z AUTO 34014KT 9SM 06/M16 A3027 RMK SLP264 T00621160 52028 IEM_DS3505
ZBAA,1983-12-13 05:00,ZBAA 130500Z AUTO 00000KT 7SM 07/M09 A3027 RMK T00701090 IEM_DS3505
ZBAA,1983-12-13 06:00,ZBAA 130600Z AUTO 34012KT 12SM 07/M15 A3024 RMK SLP262 T00701147 4////0000 57002 IEM_DS3505
ZBAA,1983-12-13 07:00,ZBAA 130700Z AUTO 33014KT 7SM 07/M16 A3027 RMK T00701160 IEM_DS3505
ZBAA,1983-12-13 08:00,ZBAA 130800Z AUTO 33012KT 7SM 06/M16 A3030 RMK T00601160 IEM_DS3505
ZBAA,1983-12-13 10:00,ZBAA 131000Z AUTO 34008KT 7SM 02/M14 A3033 RMK T00201140 IEM_DS3505
ZBAA,1983-12-13 12:00,ZBAA 131200Z AUTO 34008KT 19SM 02/M18 RMK SLP314 T00181175 52028 IEM_DS3505
ZBAA,1983-12-13 15:00,ZBAA 131500Z AUTO 36008KT 19SM M00/M19 RMK SLP335 T10041191 52021 IEM_DS3505
ZBAA,1983-12-13 18:00,ZBAA 131800Z AUTO 02008KT 12SM M00/M18 RMK SLP343 T10041175 40076//// 52008 IEM_DS3505
ZBAA,1983-12-13 21:00,ZBAA 132100Z AUTO 02006KT 12SM M02/M16 RMK SLP343 T10161160 54000 IEM_DS3505
ZBAA,1983-12-14 00:00,ZBAA 140000Z AUTO 00000KT 1 1/4SM M05/M14 RMK SLP349 T10471135 52005 IEM_DS3505
ZBAA,1983-12-14 03:00,ZBAA 140300Z AUTO 00000KT 3SM 02/M14 RMK SLP346 T00211141 57003 IEM_DS3505
ZBAA,1983-12-14 06:00,ZBAA 140600Z AUTO 22006KT 5SM 04/M09 RMK SLP307 T00381092 4////1050 57038 IEM_DS3505
ZBAA,1983-12-14 09:00,ZBAA 140900Z AUTO 20008KT 6SM 02/M14 RMK SLP302 T00161135 57005 IEM_DS3505
ZBAA,1983-12-14 12:00,ZBAA 141200Z AUTO 18002KT 3SM M01/M11 RMK SLP306 T10111109 52003 IEM_DS3505
ZBAA,1983-12-14 15:00,ZBAA 141500Z AUTO 25002KT 3SM M03/M11 RMK SLP305 T10301109 54000 IEM_DS3505
ZBAA,1983-12-14 18:00,ZBAA 141800Z AUTO 02002KT 7SM M01/M15 RMK SLP304 T10071154 40041//// 57001 IEM_DS3505
ZBAA,1983-12-14 21:00,ZBAA 142100Z AUTO 02008KT 12SM M01/M17 RMK SLP303 T10091167 57001 IEM_DS3505
ZBAA,1983-12-15 00:00,ZBAA 150000Z AUTO 36010KT 12SM M00/M19 RMK SLP311 T10031191 52008 IEM_DS3505
ZBAA,1983-12-15 03:00,ZBAA 150300Z AUTO 34006KT 12SM 03/M17 RMK SLP319 T00311167 52008 IEM_DS3505
ZBAA,1983-12-15 06:00,ZBAA 150600Z AUTO 34006KT 19SM 05/M18 RMK SLP291 T00521175 4////1045 57028 IEM_DS3505
ZBAA,1983-12-15 09:00,ZBAA 150900Z AUTO 20006KT 6SM 03/M14 RMK SLP290 T00321141 57001 IEM_DS3505
ZBAA,1983-12-15 12:00,ZBAA 151200Z AUTO 20006KT 6SM 01/M11 RMK SLP291 T00081114 52001 IEM_DS3505
ZBAA,1983-12-15 15:00,ZBAA 151500Z AUTO 20002KT 4SM M01/M10 RMK SLP288 T10131096 57003 IEM_DS3505
ZBAA,1983-12-15 18:00,ZBAA 151800Z AUTO 02004KT 4SM M02/M12 RMK SLP287 T10221124 40058//// 57001 IEM_DS3505
ZBAA,1983-12-15 21:00,ZBAA 152100Z AUTO 00000KT 4SM M06/M12 RMK SLP281 T10561124 57007 IEM_DS3505
ZBAA,1983-12-16 00:00,ZBAA 160000Z AUTO 36010KT 3SM M01/M15 RMK SLP288 T10101154 52008 IEM_DS3505
ZBAA,1983-12-16 03:00,ZBAA 160300Z AUTO 36006KT 9SM 03/M15 RMK SLP290 T00331154 52002 IEM_DS3505
ZBAA,1983-12-16 06:00,ZBAA 160600Z AUTO 36010KT 12SM 06/M18 RMK SLP264 T00611175 4////1063 57026 IEM_DS3505
ZBAA,1983-12-16 09:00,ZBAA 160900Z AUTO 32004KT 12SM 04/M15 RMK SLP272 T00391154 52008 IEM_DS3505
ZBAA,1983-12-16 12:00,ZBAA 161200Z AUTO 34006KT 6SM 01/M15 RMK SLP297 T00131147 52025 IEM_DS3505
ZBAA,1983-12-16 15:00,ZBAA 161500Z AUTO 34004KT 6SM M01/M12 RMK SLP319 T10071124 52022 IEM_DS3505
ZBAA,1983-12-16 18:00,ZBAA 161800Z AUTO 02006KT 16SM M01/M15 RMK SLP327 T10061154 40065//// 52008 IEM_DS3505
ZBAA,1983-12-16 21:00,ZBAA 162100Z AUTO 14002KT 12SM M02/M14 RMK SLP334 T10161135 52007 IEM_DS3505
ZBAA,1983-12-17 00:00,ZBAA 170000Z AUTO 36010KT 16SM M02/M15 RMK SLP349 T10171154 52014 IEM_DS3505
ZBAA,1983-12-17 03:00,ZBAA 170300Z AUTO 36004KT 19SM 03/M14 A3053 RMK SLP354 T00291141 52006 IEM_DS3505
ZBAA,1983-12-17 04:00,ZBAA 170400Z AUTO 36006KT 7SM 03/M10 A3050 RMK T00301100 IEM_DS3505
ZBAA,1983-12-17 05:00,ZBAA 170500Z AUTO 32012KT 7SM 04/M16 A3045 RMK T00401160 IEM_DS3505
ZBAA,1983-12-17 06:00,ZBAA 170600Z AUTO 02004KT 19SM 05/M14 A3042 RMK SLP322 T00531135 4////1022 57020 IEM_DS3505
ZBAA,1983-12-17 07:00,ZBAA 170700Z AUTO 30014KT 7SM 05/M16 A3042 RMK T00501160 IEM_DS3505
ZBAA,1983-12-17 08:00,ZBAA 170800Z AUTO 30012KT 7SM 05/M16 A3042 RMK T00501160 IEM_DS3505
ZBAA,1983-12-17 09:00,ZBAA 170900Z AUTO 20006KT 7SM 03/M10 A3042 RMK SLP317 T00341105 57005 IEM_DS3505
ZBAA,1983-12-17 10:00,ZBAA 171000Z AUTO 25004KT 7SM 01/ A3042 RMK IEM_DS3505
ZBAA,1983-12-17 11:00,ZBAA 171100Z AUTO 24004KT 7SM 01/M10 A3042 RMK T00101100 IEM_DS3505
ZBAA,1983-12-17 12:00,ZBAA 171200Z AUTO 20006KT 6SM 01/M09 A3042 RMK SLP315 T00101092 40063//// 57002 IEM_DS3505
ZBAA,1983-12-17 15:00,ZBAA 171500Z AUTO 20004KT 6SM M01/M09 RMK SLP306 T10101087 57009 IEM_DS3505
ZBAA,1983-12-17 18:00,ZBAA 171800Z AUTO 00000KT 3SM M04/M09 RMK SLP296 T10421092 40063//// 57010 IEM_DS3505
ZBAA,1983-12-17 21:00,ZBAA 172100Z AUTO 00000KT 2SM M07/M10 RMK SLP292 T10681100 57005 IEM_DS3505
ZBAA,1983-12-18 00:00,ZBAA 180000Z AUTO 00000KT 1SM M07/M10 RMK SLP288 T10701100 57004 IEM_DS3505
ZBAA,1983-12-18 03:00,ZBAA 180300Z AUTO 02006KT 5SM 03/M13 RMK SLP287 T00331130 54000 IEM_DS3505
ZBAA,1983-12-18 06:00,ZBAA 180600Z AUTO 36002KT 6SM 08/M13 RMK SLP260 T00761130 4////1074 57027 IEM_DS3505
ZBAA,1983-12-18 09:00,ZBAA 180900Z AUTO 22002KT 2 1/2SM 05/M08 RMK SLP257 T00501079 57003 IEM_DS3505
ZBAA,1983-12-18 12:00,ZBAA 181200Z AUTO 4SM M01/M09 RMK SLP260 T10101092 52002 IEM_DS3505
ZBAA,1983-12-18 15:00,ZBAA 181500Z AUTO 00000KT 2SM M03/M08 RMK SLP263 T10281079 52004 IEM_DS3505
ZBAA,1983-12-18 18:00,ZBAA 181800Z AUTO 36002KT 2SM M06/M09 RMK SLP266 T10551087 40093//// 52003 IEM_DS3505
ZBAA,1983-12-18 21:00,ZBAA 182100Z AUTO 00000KT 4SM M03/M15 RMK SLP264 T10341147 57002 IEM_DS3505
ZBAA,1983-12-19 00:00,ZBAA 190000Z AUTO 36002KT 1SM M07/M10 RMK SLP279 T10671105 52014 IEM_DS3505
ZBAA,1983-12-19 03:00,ZBAA 190300Z AUTO 04006KT 4SM 01/M12 RMK SLP286 T00131124 52008 IEM_DS3505
ZBAA,1983-12-19 06:00,ZBAA 190600Z AUTO 04002KT 5SM 04/M08 RMK SLP260 T00421083 4////1070 57026 IEM_DS3505
ZBAA,1983-12-19 09:00,ZBAA 190900Z AUTO 02002KT 4SM 03/M09 RMK SLP264 T00291087 52004 IEM_DS3505
ZBAA,1983-12-19 12:00,ZBAA 191200Z AUTO 32002KT 2 1/2SM M02/M08 RMK SLP281 T10211079 52016 IEM_DS3505
ZBAA,1983-12-19 15:00,ZBAA 191500Z AUTO 00000KT 3SM M02/M11 RMK SLP287 T10201114 52007 IEM_DS3505
ZBAA,1983-12-19 18:00,ZBAA 191800Z AUTO 00000KT 4SM M05/M09 RMK SLP289 T10461092 40046//// 52002 IEM_DS3505
ZBAA,1983-12-19 21:00,ZBAA 192100Z AUTO 04002KT 5SM M03/M10 RMK SLP287 T10331096 57002 IEM_DS3505
ZBAA,1983-12-20 00:00,ZBAA 200000Z AUTO 00000KT 1 1/4SM M04/M10 RMK SLP298 T10361100 52010 IEM_DS3505
ZBAA,1983-12-20 03:00,ZBAA 200300Z AUTO 32002KT 1SM M01/M03 RMK SLP295 T10061028 57003 IEM_DS3505
ZBAA,1983-12-20 04:00,ZBAA 200400Z AUTO 00000KT 5SM 01/M09 A3033 RMK T00101090 IEM_DS3505
ZBAA,1983-12-20 05:00,ZBAA 200500Z AUTO 00000KT 5SM 03/M06 A3030 RMK T00301060 IEM_DS3505
ZBAA,1983-12-20 06:00,ZBAA 200600Z AUTO 00000KT 3SM 03/M04 A3027 RMK SLP271 T00331045 4////1055 57023 IEM_DS3505
ZBAA,1983-12-20 07:00,ZBAA 200700Z AUTO 00000KT 5SM 03/M04 A3027 RMK T00301040 IEM_DS3505
ZBAA,1983-12-20 08:00,ZBAA 200800Z AUTO 00000KT 5SM 02/M03 A3027 RMK T00201030 IEM_DS3505
ZBAA,1983-12-20 09:00,ZBAA 200900Z AUTO 02002KT 1 1/4SM 01/M06 A3027 RMK SLP265 T00141055 57006 IEM_DS3505
ZBAA,1983-12-20 10:00,ZBAA 201000Z AUTO 00000KT 4SM M01/M03 A3027 RMK T10101030 IEM_DS3505
ZBAA,1983-12-20 12:00,ZBAA 201200Z AUTO 00000KT 1 1/4SM M00/M05 RMK SLP271 T10051048 52005 IEM_DS3505
ZBAA,1983-12-20 15:00,ZBAA 201500Z AUTO 00000KT 1 1/4SM M00/M05 RMK SLP270 T10041052 54000 IEM_DS3505
ZBAA,1983-12-20 18:00,ZBAA 201800Z AUTO 00000KT 1 1/4SM M01/M05 RMK SLP271 T10091048 40039//// 52001 IEM_DS3505
ZBAA,1983-12-20 21:00,ZBAA 202100Z AUTO 36010KT 2 1/2SM 02/M06 RMK SLP269 T00171058 57002 IEM_DS3505
ZBAA,1983-12-21 00:00,ZBAA 210000Z AUTO 36014KT 5SM 02/M14 RMK SLP281 T00201135 52012 IEM_DS3505
ZBAA,1983-12-21 03:00,ZBAA 210300Z AUTO 36012KT 19SM 02/M16 RMK SLP297 T00221160 52016 IEM_DS3505
ZBAA,1983-12-21 06:00,ZBAA 210600Z AUTO 34012KT 19SM 04/M18 RMK SLP276 T00371175 4////1014 57021 IEM_DS3505
ZBAA,1983-12-21 09:00,ZBAA 210900Z AUTO 34006KT 19SM 02/M18 RMK SLP280 T00161183 52004 IEM_DS3505
ZBAA,1983-12-21 12:00,ZBAA 211200Z AUTO 34008KT 16SM M01/M19 RMK SLP300 T10061191 52020 IEM_DS3505
ZBAA,1983-12-21 15:00,ZBAA 211500Z AUTO 36006KT 16SM M03/M20 RMK SLP306 T10261200 52006 IEM_DS3505
ZBAA,1983-12-21 18:00,ZBAA 211800Z AUTO 29014KT 19SM M02/M22 RMK SLP302 T10241220 40040//// 57004 IEM_DS3505
ZBAA,1983-12-21 21:00,ZBAA 212100Z AUTO 29012KT 19SM M04/M23 RMK SLP310 T10411231 52007 IEM_DS3505
ZBAA,1983-12-22 00:00,ZBAA 220000Z AUTO 29010KT 19SM M06/M29 RMK SLP333 T10601292 52022 IEM_DS3505
ZBAA,1983-12-22 03:00,ZBAA 220300Z AUTO 34014KT 19SM M04/M42 RMK SLP345 T10431424 52012 IEM_DS3505
ZBAA,1983-12-22 06:00,ZBAA 220600Z AUTO 34010KT 12SM M03/M34 RMK SLP332 T10281339 4////1063 57012 IEM_DS3505
ZBAA,1983-12-22 09:00,ZBAA 220900Z AUTO 32004KT 12SM M04/M29 RMK SLP331 T10361292 57002 IEM_DS3505
ZBAA,1983-12-22 12:00,ZBAA 221200Z AUTO 00000KT 9SM M06/M24 RMK SLP339 T10591244 52008 IEM_DS3505
ZBAA,1983-12-22 15:00,ZBAA 221500Z AUTO 00000KT 6SM M07/M20 RMK SLP340 T10721200 52001 IEM_DS3505
ZBAA,1983-12-22 18:00,ZBAA 221800Z AUTO 00000KT 5SM M10/M18 RMK SLP326 T10991183 41019//// 57014 IEM_DS3505
ZBAA,1983-12-22 21:00,ZBAA 222100Z AUTO 00000KT 5SM M11/M17 RMK SLP304 T11121167 57022 IEM_DS3505
ZBAA,1983-12-23 00:00,ZBAA 230000Z AUTO 00000KT 1 1/4SM M12/M15 RMK SLP294 T11171154 57010 IEM_DS3505
ZBAA,1983-12-23 03:00,ZBAA 230300Z AUTO 00000KT 1SM M05/M18 RMK SLP280 T10471175 57014 IEM_DS3505
ZBAA,1983-12-23 06:00,ZBAA 230600Z AUTO 29016KT 6SM 00/M26 RMK SLP271 T00021258 4////1122 57008 IEM_DS3505
ZBAA,1983-12-23 09:00,ZBAA 230900Z AUTO 29012KT 6SM M02/M29 RMK SLP289 T10231292 52017 IEM_DS3505
ZBAA,1983-12-23 12:00,ZBAA 231200Z AUTO 32016KT 9SM M04/M37 RMK SLP313 T10381374 52024 IEM_DS3505
ZBAA,1983-12-23 15:00,ZBAA 231500Z AUTO 34012KT 9SM M05/M37 RMK SLP335 T10491374 52022 IEM_DS3505
ZBAA,1983-12-23 18:00,ZBAA 231800Z AUTO 36006KT 19SM M07/M29 RMK SLP343 T10711292 40007//// 52008 IEM_DS3505
ZBAA,1983-12-23 21:00,ZBAA 232100Z AUTO 00000KT 19SM M08/M29 RMK SLP340 T10801292 57003 IEM_DS3505
ZBAA,1983-12-24 00:00,ZBAA 240000Z AUTO 07004KT 5SM M08/M24 RMK SLP351 T10851244 52011 IEM_DS3505
ZBAA,1983-12-24 03:00,ZBAA 240300Z AUTO 16006KT 7SM M03/M23 RMK SLP355 T10301231 52004 IEM_DS3505
ZBAA,1983-12-24 04:00,ZBAA 240400Z AUTO 30012KT 7SM M03/M22 A3047 RMK T10301220 IEM_DS3505
ZBAA,1983-12-24 05:00,ZBAA 240500Z AUTO 30012KT 7SM M02/M22 A3045 RMK T10201220 IEM_DS3505
ZBAA,1983-12-24 06:00,ZBAA 240600Z AUTO 22004KT 16SM M01/M29 A3042 RMK SLP320 T10081292 4////1094 57034 IEM_DS3505
ZBAA,1983-12-24 07:00,ZBAA 240700Z AUTO 30012KT 7SM M01/M22 A3042 RMK T10101220 IEM_DS3505
ZBAA,1983-12-24 08:00,ZBAA 240800Z AUTO 30010KT 7SM M02/M24 A3042 RMK T10201240 IEM_DS3505
ZBAA,1983-12-24 09:00,ZBAA 240900Z AUTO 27004KT 16SM M02/M23 A3042 RMK SLP316 T10241231 57005 IEM_DS3505
ZBAA,1983-12-24 10:00,ZBAA 241000Z AUTO 00000KT 7SM M04/M23 A3042 RMK T10401230 IEM_DS3505
ZBAA,1983-12-24 11:00,ZBAA 241100Z AUTO 21006KT 7SM M05/M23 A3042 RMK T10501230 IEM_DS3505
ZBAA,1983-12-24 12:00,ZBAA 241200Z AUTO 18002KT 6SM M04/M21 RMK SLP320 T10421210 52004 IEM_DS3505
ZBAA,1983-12-24 15:00,ZBAA 241500Z AUTO 18006KT 6SM M05/M21 RMK SLP315 T10461210 57004 IEM_DS3505
ZBAA,1983-12-24 18:00,ZBAA 241800Z AUTO 22004KT 6SM M06/M19 RMK SLP301 T10621191 40002//// 57014 IEM_DS3505
ZBAA,1983-12-24 21:00,ZBAA 242100Z AUTO 00000KT 6SM M09/M18 RMK SLP284 T10891183 57018 IEM_DS3505
ZBAA,1983-12-25 00:00,ZBAA 250000Z AUTO 00000KT 4SM M10/M16 RMK SLP285 T11021160 52001 IEM_DS3505
ZBAA,1983-12-25 03:00,ZBAA 250300Z AUTO 32006KT 1 1/4SM M01/M18 RMK SLP277 T10091183 57007 IEM_DS3505
ZBAA,1983-12-25 06:00,ZBAA 250600Z AUTO 32008KT 12SM 03/M24 RMK SLP249 T00281244 4////1109 57028 IEM_DS3505
ZBAA,1983-12-25 09:00,ZBAA 250900Z AUTO 29010KT 11SM 02/M23 RMK SLP252 T00201231 52003 IEM_DS3505
ZBAA,1983-12-25 12:00,ZBAA 251200Z AUTO 00000KT 6SM M01/M15 RMK SLP269 T10141147 52016 IEM_DS3505
ZBAA,1983-12-25 15:00,ZBAA 251500Z AUTO 02002KT 11SM M04/M15 RMK SLP280 T10351154 52012 IEM_DS3505
ZBAA,1983-12-25 18:00,ZBAA 251800Z AUTO 36006KT 9SM M03/M21 RMK SLP287 T10301210 40033//// 52008 IEM_DS3505
ZBAA,1983-12-25 21:00,ZBAA 252100Z AUTO 36006KT 7SM M05/M18 RMK SLP290 T10511175 52002 IEM_DS3505
ZBAA,1983-12-26 00:00,ZBAA 260000Z AUTO 02006KT 4SM M04/M18 RMK SLP300 T10451183 52010 IEM_DS3505
ZBAA,1983-12-26 03:00,ZBAA 260300Z AUTO 02008KT 6SM M01/M19 RMK SLP312 T10081191 52012 IEM_DS3505
ZBAA,1983-12-26 06:00,ZBAA 260600Z AUTO 36006KT 12SM 02/M20 RMK SLP286 T00201200 4////1062 57025 IEM_DS3505
ZBAA,1983-12-26 09:00,ZBAA 260900Z AUTO 34004KT 9SM 01/M20 RMK SLP296 T00061200 52009 IEM_DS3505
ZBAA,1983-12-26 12:00,ZBAA 261200Z AUTO 00000KT 4SM M02/M17 RMK SLP312 T10251167 52016 IEM_DS3505
ZBAA,1983-12-26 15:00,ZBAA 261500Z AUTO 00000KT 4SM M06/M17 RMK SLP315 T10641167 52003 IEM_DS3505
ZBAA,1983-12-26 18:00,ZBAA 261800Z AUTO 00000KT 5SM M09/M15 RMK SLP316 T10861147 40024//// 52001 IEM_DS3505
ZBAA,1983-12-26 21:00,ZBAA 262100Z AUTO 00000KT 4SM M08/M15 RMK SLP311 T10751147 57005 IEM_DS3505
ZBAA,1983-12-27 00:00,ZBAA 270000Z AUTO 00000KT 6SM M05/M16 RMK SLP325 T10541160 52013 IEM_DS3505
ZBAA,1983-12-27 03:00,ZBAA 270300Z AUTO 34010KT 16SM M00/M19 A3047 RMK SLP346 T10011191 52021 IEM_DS3505
ZBAA,1983-12-27 04:00,ZBAA 270400Z AUTO 33019KT 7SM 00/M23 A3047 RMK T00001230 IEM_DS3505
ZBAA,1983-12-27 05:00,ZBAA 270500Z AUTO 31017G29KT 7SM 01/M25 A3045 RMK T00101250 IEM_DS3505
ZBAA,1983-12-27 06:00,ZBAA 270600Z AUTO 34014KT 16SM 00/M22 A3045 RMK SLP338 T00031220 4////1092 57008 IEM_DS3505
ZBAA,1983-12-27 07:00,ZBAA 270700Z AUTO 31019KT 6SM 00/M22 A3047 RMK T00001220 IEM_DS3505
ZBAA,1983-12-27 08:00,ZBAA 270800Z AUTO 32019KT 6SM 00/ A3047 RMK IEM_DS3505
ZBAA,1983-12-27 09:00,ZBAA 270900Z AUTO 34012KT 16SM M01/M26 A3053 RMK SLP363 T10121258 52025 IEM_DS3505
ZBAA,1983-12-27 12:00,ZBAA 271200Z AUTO 36006KT 19SM M03/M26 RMK SLP391 T10341258 52028 IEM_DS3505
ZBAA,1983-12-27 15:00,ZBAA 271500Z AUTO 04004KT 16SM M05/M23 RMK SLP398 T10481231 52008 IEM_DS3505
ZBAA,1983-12-27 18:00,ZBAA 271800Z AUTO 36004KT 9SM M08/M18 RMK SLP395 T10801183 40008//// 57004 IEM_DS3505
ZBAA,1983-12-27 21:00,ZBAA 272100Z AUTO 20004KT 6SM M09/M15 RMK SLP393 T10871154 57002 IEM_DS3505
ZBAA,1983-12-28 00:00,ZBAA 280000Z AUTO 22006KT 2SM M08/M18 RMK SLP397 T10831175 52004 IEM_DS3505
ZBAA,1983-12-28 03:00,ZBAA 280300Z AUTO 18008KT 4SM M02/M21 RMK SLP396 T10171210 57001 IEM_DS3505
ZBAA,1983-12-28 06:00,ZBAA 280600Z AUTO 00000KT 6SM 01/M23 RMK SLP363 T00101231 4////1096 57033 IEM_DS3505
ZBAA,1983-12-28 09:00,ZBAA 280900Z AUTO 20004KT 6SM M01/M21 RMK SLP365 T10071210 52002 IEM_DS3505
ZBAA,1983-12-28 12:00,ZBAA 281200Z AUTO 00000KT 6SM M05/M17 RMK SLP370 T10501167 52005 IEM_DS3505
ZBAA,1983-12-28 15:00,ZBAA 281500Z AUTO 04004KT 6SM M06/M18 RMK SLP381 T10571175 52011 IEM_DS3505
ZBAA,1983-12-28 18:00,ZBAA 281800Z AUTO 00000KT 6SM M08/M14 RMK SLP403 T10751135 40015//// 52022 IEM_DS3505
ZBAA,1983-12-28 21:00,ZBAA 282100Z AUTO 36006KT 6SM M09/M14 RMK SLP396 T10891141 57007 IEM_DS3505
ZBAA,1983-12-29 00:00,ZBAA 290000Z AUTO 00000KT 1 1/4SM M10/M12 RMK SLP400 T10981124 52003 IEM_DS3505
ZBAA,1983-12-29 03:00,ZBAA 290300Z AUTO 00000KT 2 1/2SM M06/M14 RMK SLP400 T10581141 52001 IEM_DS3505
ZBAA,1983-12-29 06:00,ZBAA 290600Z AUTO 00000KT 4SM M04/M16 RMK SLP369 T10441156 4////1102 57031 IEM_DS3505
ZBAA,1983-12-29 09:00,ZBAA 290900Z AUTO 20002KT 2 1/2SM M05/M16 RMK SLP367 T10491160 57002 IEM_DS3505
ZBAA,1983-12-29 12:00,ZBAA 291200Z AUTO 00000KT 2 1/2SM RMK 52002 IEM_DS3505
ZBAA,1983-12-29 15:00,ZBAA 291500Z AUTO 00000KT 2SM M10/M13 RMK SLP370 T11011130 54000 IEM_DS3505
ZBAA,1983-12-29 18:00,ZBAA 291800Z AUTO 00000KT 1 1/4SM M12/M13 RMK SLP361 T11151130 41035//// 57009 IEM_DS3505
ZBAA,1983-12-29 21:00,ZBAA 292100Z AUTO 00000KT 1 1/4SM M12/M14 RMK SLP355 T11191135 57006 IEM_DS3505
ZBAA,1983-12-30 00:00,ZBAA 300000Z AUTO 36004KT 4SM M13/M14 RMK SLP355 T11261135 54000 IEM_DS3505
ZBAA,1983-12-30 03:00,ZBAA 300300Z AUTO 36006KT 6SM M04/M23 RMK SLP355 T10421231 54000 IEM_DS3505
ZBAA,1983-12-30 06:00,ZBAA 300600Z AUTO 22002KT 6SM 00/M23 RMK SLP327 T00021231 4////1133 57027 IEM_DS3505
ZBAA,1983-12-30 09:00,ZBAA 300900Z AUTO 20004KT 2 1/2SM M02/M18 RMK SLP324 T10181183 57003 IEM_DS3505
ZBAA,1983-12-30 12:00,ZBAA 301200Z AUTO 00000KT 2 1/2SM M06/M15 RMK SLP324 T10631154 57001 IEM_DS3505
ZBAA,1983-12-30 15:00,ZBAA 301500Z AUTO 00000KT 2 1/2SM M09/M14 RMK SLP320 T10891141 57003 IEM_DS3505
ZBAA,1983-12-30 18:00,ZBAA 301800Z AUTO 00000KT 2 1/2SM M10/M15 RMK SLP316 T10951154 40003//// IEM_DS3505
ZBAA,1983-12-30 21:00,ZBAA 302100Z AUTO 00000KT 2SM M11/M14 RMK SLP308 T11131141 57009 IEM_DS3505
