station,valid,metar
ZBAA,1984-01-01 00:00,ZBAA 010000Z AUTO 00000KT 1 1/4SM M11/M15 RMK SLP244 T11061147 57002 IEM_DS3505
ZBAA,1984-01-01 03:00,ZBAA 010300Z AUTO 04002KT 3SM M02/M21 RMK SLP245 T10221210 52002 IEM_DS3505
ZBAA,1984-01-01 06:00,ZBAA 010600Z AUTO 36006KT 4SM 03/M15 RMK SLP214 T00261147 4////1111 57030 IEM_DS3505
ZBAA,1984-01-01 09:00,ZBAA 010900Z AUTO 00000KT 2 1/2SM 01/M12 RMK SLP211 T00121119 57003 IEM_DS3505
ZBAA,1984-01-01 12:00,ZBAA 011200Z AUTO 00000KT 2SM M00/M13 RMK SLP219 T10021130 52007 IEM_DS3505
ZBAA,1984-01-01 15:00,ZBAA 011500Z AUTO 11002KT 1 1/4SM M03/M10 RMK SLP227 T10331105 52008 IEM_DS3505
ZBAA,1984-01-01 18:00,ZBAA 011800Z AUTO 07004KT 1 1/4SM M05/M11 RMK SLP239 T10491114 40028//// 52012 IEM_DS3505
ZBAA,1984-01-01 21:00,ZBAA 012100Z AUTO 02004KT 1 1/4SM M04/M12 RMK SLP249 T10401124 52010 IEM_DS3505
ZBAA,1984-01-02 00:00,ZBAA 020000Z AUTO 34012KT 4SM M03/M15 RMK SLP269 T10271147 52020 IEM_DS3505
ZBAA,1984-01-02 03:00,ZBAA 020300Z AUTO 34017KT 9SM M02/M20 RMK SLP289 T10181200 52020 IEM_DS3505
ZBAA,1984-01-02 06:00,ZBAA 020600Z AUTO 32012KT 9SM M01/M23 RMK SLP287 T10101231 4////1052 57002 IEM_DS3505
ZBAA,1984-01-02 09:00,ZBAA 020900Z AUTO 34010KT 9SM M03/M24 RMK SLP303 T10281244 52016 IEM_DS3505
ZBAA,1984-01-02 12:00,ZBAA 021200Z AUTO 36006KT 6SM M04/M21 RMK SLP319 T10421210 52016 IEM_DS3505
ZBAA,1984-01-02 15:00,ZBAA 021500Z AUTO 02006KT 6SM M05/M26 RMK SLP344 T10511258 52024 IEM_DS3505
ZBAA,1984-01-02 18:00,ZBAA 021800Z AUTO 02004KT 12SM M07/M24 RMK SLP345 T10701244 52001 IEM_DS3505
ZBAA,1984-01-02 21:00,ZBAA 022100Z AUTO 07006KT 12SM M07/M22 RMK SLP340 T10701220 57005 IEM_DS3505
ZBAA,1984-01-03 00:00,ZBAA 030000Z AUTO 02004KT 9SM M07/M22 RMK T10681218 IEM_DS3505
ZBAA,1984-01-03 03:00,ZBAA 030300Z AUTO 22010KT 5SM M03/M23 RMK SLP357 T10301231 52010 IEM_DS3505
ZBAA,1984-01-03 05:00,ZBAA 030500Z AUTO 30016KT 7SM M01/M25 A3047 RMK T10101250 IEM_DS3505
ZBAA,1984-01-03 06:00,ZBAA 030600Z AUTO 22006KT 7SM 01/M24 A3050 RMK SLP335 T00141244 4////1082 57021 IEM_DS3505
ZBAA,1984-01-03 08:00,ZBAA 030800Z AUTO 30016KT 7SM 01/M25 A3045 RMK T00101250 IEM_DS3505
ZBAA,1984-01-03 09:00,ZBAA 030900Z AUTO 22002KT 5SM M00/M20 RMK SLP339 T10041200 52003 IEM_DS3505
ZBAA,1984-01-03 12:00,ZBAA 031200Z AUTO 00000KT 4SM M06/M15 RMK SLP349 T10561154 52010 IEM_DS3505
ZBAA,1984-01-03 15:00,ZBAA 031500Z AUTO 36004KT 4SM M05/M18 RMK SLP358 T10531183 52009 IEM_DS3505
ZBAA,1984-01-03 18:00,ZBAA 031800Z AUTO 02004KT 5SM M05/M18 RMK SLP359 T10491175 40017//// 52002 IEM_DS3505
ZBAA,1984-01-03 21:00,ZBAA 032100Z AUTO 02004KT 5SM M07/M19 RMK SLP364 T10721191 52004 IEM_DS3505
ZBAA,1984-01-04 00:00,ZBAA 040000Z AUTO 07004KT 5SM M07/M18 RMK SLP372 T10741183 52008 IEM_DS3505
ZBAA,1984-01-04 03:00,ZBAA 040300Z AUTO 07006KT 6SM M02/M19 RMK SLP375 T10191191 52003 IEM_DS3505
ZBAA,1984-01-04 06:00,ZBAA 040600Z AUTO 20002KT 5SM 02/M22 RMK SLP345 T00151220 4////1082 57029 IEM_DS3505
ZBAA,1984-01-04 09:00,ZBAA 040900Z AUTO 20006KT 5SM M01/M20 RMK SLP340 T10101200 57006 IEM_DS3505
ZBAA,1984-01-04 12:00,ZBAA 041200Z AUTO 20004KT 5SM M03/M18 RMK SLP342 T10331175 52002 IEM_DS3505
ZBAA,1984-01-04 15:00,ZBAA 041500Z AUTO 00000KT 4SM M07/M14 RMK SLP342 T10701141 54000 IEM_DS3505
ZBAA,1984-01-04 18:00,ZBAA 041800Z AUTO 00000KT 3SM M09/M14 RMK SLP340 T10871141 40016//// 57002 IEM_DS3505
ZBAA,1984-01-04 21:00,ZBAA 042100Z AUTO 04002KT 4SM M08/M18 RMK SLP333 T10811175 57007 IEM_DS3505
ZBAA,1984-01-05 00:00,ZBAA 050000Z AUTO 36002KT 2SM M08/M17 RMK SLP336 T10821167 52003 IEM_DS3505
ZBAA,1984-01-05 03:00,ZBAA 050300Z AUTO 02006KT 2 1/2SM M06/M17 RMK SLP343 T10571167 52007 IEM_DS3505
ZBAA,1984-01-05 06:00,ZBAA 050600Z AUTO 02006KT 3SM M03/M15 RMK SLP316 T10301154 4////1087 57027 IEM_DS3505
ZBAA,1984-01-05 09:00,ZBAA 050900Z AUTO 34002KT 2SM M03/M15 RMK SLP315 T10281147 57001 IEM_DS3505
ZBAA,1984-01-05 15:00,ZBAA 051500Z AUTO 36002KT 2SM M06/M14 RMK SLP316 T10631141 57006 IEM_DS3505
ZBAA,1984-01-05 18:00,ZBAA 051800Z AUTO 00000KT 4SM M09/M15 RMK SLP303 T10931147 41023//// 57013 IEM_DS3505
ZBAA,1984-01-05 21:00,ZBAA 052100Z AUTO 02002KT 3SM M09/M15 RMK T10911154 57007 IEM_DS3505
ZBAA,1984-01-06 00:00,ZBAA 060000Z AUTO 00000KT 1 1/4SM M10/M15 RMK SLP299 T11011147 52003 IEM_DS3505
ZBAA,1984-01-06 03:00,ZBAA 060300Z AUTO 36010KT 5SM M00/M20 RMK SLP295 T10041200 57003 IEM_DS3505
ZBAA,1984-01-06 06:00,ZBAA 060600Z AUTO 32008KT 12SM 03/M23 RMK SLP273 T00281231 4////1107 57022 IEM_DS3505
ZBAA,1984-01-06 09:00,ZBAA 060900Z AUTO 34008KT 12SM 01/M19 RMK SLP279 T00101191 52006 IEM_DS3505
ZBAA,1984-01-06 12:00,ZBAA 061200Z AUTO 34006KT 11SM M02/M21 RMK SLP296 T10241210 52016 IEM_DS3505
ZBAA,1984-01-06 15:00,ZBAA 061500Z AUTO 36006KT 9SM M03/M20 RMK SLP303 T10341200 52008 IEM_DS3505
ZBAA,1984-01-06 18:00,ZBAA 061800Z AUTO 00000KT 11SM M04/M19 RMK T10381191 40030//// 57001 IEM_DS3505
ZBAA,1984-01-06 21:00,ZBAA 062100Z AUTO 02008KT 11SM M04/M20 RMK SLP293 T10371200 57009 IEM_DS3505
ZBAA,1984-01-07 00:00,ZBAA 070000Z AUTO 11002KT 7SM M06/M20 A3036 RMK SLP294 T10561200 52001 IEM_DS3505
ZBAA,1984-01-07 01:00,ZBAA 070100Z AUTO 02012KT 7SM M06/M20 A3036 RMK T10601200 IEM_DS3505
ZBAA,1984-01-07 02:00,ZBAA 070200Z AUTO 01012KT 7SM M03/M21 A3036 RMK T10301210 IEM_DS3505
ZBAA,1984-01-07 03:00,ZBAA 070300Z AUTO 36012KT 7SM M01/M21 A3036 RMK SLP297 T10101210 52003 IEM_DS3505
ZBAA,1984-01-07 04:00,ZBAA 070400Z AUTO 01012KT 7SM 01/M21 A3033 RMK T00101210 IEM_DS3505
ZBAA,1984-01-07 05:00,ZBAA 070500Z AUTO 03008KT 7SM 01/M21 A3030 RMK T00101210 IEM_DS3505
ZBAA,1984-01-07 06:00,ZBAA 070600Z AUTO 18004KT 5SM 02/M18 A3027 RMK SLP264 T00211183 4////1060 57032 IEM_DS3505
ZBAA,1984-01-07 07:00,ZBAA 070700Z AUTO 11008KT 7SM 02/M14 A3024 RMK T00201140 IEM_DS3505
ZBAA,1984-01-07 08:00,ZBAA 070800Z AUTO 09006KT 7SM 02/M20 A3024 RMK T00201200 IEM_DS3505
ZBAA,1984-01-07 09:00,ZBAA 070900Z AUTO 18004KT 3SM 01/M17 A3024 RMK SLP257 T00091167 57008 IEM_DS3505
ZBAA,1984-01-07 10:00,ZBAA 071000Z AUTO 03002KT 7SM M02/M19 A3024 RMK T10201190 IEM_DS3505
ZBAA,1984-01-07 11:00,ZBAA 071100Z AUTO 04002KT 7SM M03/M13 A3024 RMK T10301130 IEM_DS3505
ZBAA,1984-01-07 12:00,ZBAA 071200Z AUTO 18004KT 4SM M02/M14 A3024 RMK SLP256 T10201141 57001 IEM_DS3505
ZBAA,1984-01-07 15:00,ZBAA 071500Z AUTO 04002KT 4SM M06/M15 RMK SLP256 T10631147 54000 IEM_DS3505
ZBAA,1984-01-07 18:00,ZBAA 071800Z AUTO 25002KT 4SM M07/M15 RMK SLP248 T10721147 40027//// 57008 IEM_DS3505
ZBAA,1984-01-07 21:00,ZBAA 072100Z AUTO 36006KT 5SM M05/M18 RMK SLP236 T10531175 57012 IEM_DS3505
ZBAA,1984-01-08 00:00,ZBAA 080000Z AUTO 04004KT 5SM M03/M17 RMK SLP236 T10281167 54000 IEM_DS3505
ZBAA,1984-01-08 03:00,ZBAA 080300Z AUTO 18004KT 4SM 03/M14 RMK SLP233 T00311141 57003 IEM_DS3505
ZBAA,1984-01-08 06:00,ZBAA 080600Z AUTO 34006KT 6SM 07/M18 RMK SLP195 T00731175 4////1080 57036 IEM_DS3505
ZBAA,1984-01-08 09:00,ZBAA 080900Z AUTO 18006KT 6SM 05/M15 RMK SLP184 T00471147 57011 IEM_DS3505
ZBAA,1984-01-08 12:00,ZBAA 081200Z AUTO 29014KT 5SM 01/M11 RMK SLP176 T00071109 57009 IEM_DS3505
ZBAA,1984-01-08 15:00,ZBAA 081500Z AUTO 18002KT 4SM 02/M12 RMK SLP174 T00151124 57001 IEM_DS3505
ZBAA,1984-01-08 18:00,ZBAA 081800Z AUTO 32006KT 6SM M01/M11 RMK SLP166 T10131109 40077//// 57007 IEM_DS3505
ZBAA,1984-01-08 21:00,ZBAA 082100Z AUTO 09002KT 6SM 00/M14 RMK SLP154 T00021135 57013 IEM_DS3505
ZBAA,1984-01-09 00:00,ZBAA 090000Z AUTO 11002KT 1SM M04/M11 RMK SLP160 T10361109 52005 IEM_DS3505
ZBAA,1984-01-09 03:00,ZBAA 090300Z AUTO 20004KT 1SM M00/M10 RMK SLP161 T10031096 52002 IEM_DS3505
ZBAA,1984-01-09 06:00,ZBAA 090600Z AUTO 18004KT 5SM 08/M11 RMK SLP128 T00751109 4////1038 57032 IEM_DS3505
ZBAA,1984-01-09 09:00,ZBAA 090900Z AUTO 00000KT 5SM 07/M08 RMK SLP125 T00701079 57003 IEM_DS3505
ZBAA,1984-01-09 12:00,ZBAA 091200Z AUTO 20008KT 5SM 04/M11 RMK SLP143 T00391114 52018 IEM_DS3505
ZBAA,1984-01-09 15:00,ZBAA 091500Z AUTO 02002KT 4SM M02/M11 RMK SLP162 T10201109 52018 IEM_DS3505
ZBAA,1984-01-09 18:00,ZBAA 091800Z AUTO 00000KT 6SM 04/M14 RMK SLP177 T00391135 40093//// 52017 IEM_DS3505
ZBAA,1984-01-09 21:00,ZBAA 092100Z AUTO 07008KT 6SM 02/M14 RMK SLP193 T00191141 52016 IEM_DS3505
ZBAA,1984-01-09 22:00,ZBAA 092200Z AUTO 02008KT 7SM M02/M14 A3009 RMK T10201140 IEM_DS3505
ZBAA,1984-01-10 00:00,ZBAA 100000Z AUTO 04006KT 5SM M00/M14 A3015 RMK SLP226 T10011135 52031 IEM_DS3505
ZBAA,1984-01-10 01:00,ZBAA 100100Z AUTO 04010KT 7SM 00/M16 A3018 RMK T00001160 IEM_DS3505
ZBAA,1984-01-10 02:00,ZBAA 100200Z AUTO 04017KT 7SM 02/M15 A3018 RMK T00201150 IEM_DS3505
ZBAA,1984-01-10 03:00,ZBAA 100300Z AUTO 07008KT 7SM 04/M15 A3018 RMK SLP240 T00351147 52014 IEM_DS3505
ZBAA,1984-01-10 04:00,ZBAA 100400Z AUTO 05014KT 6SM 04/M11 A3018 RMK T00401110 IEM_DS3505
ZBAA,1984-01-10 05:00,ZBAA 100500Z AUTO 05014KT 7SM 05/M10 A3012 RMK T00501100 IEM_DS3505
ZBAA,1984-01-10 06:00,ZBAA 100600Z AUTO 09002KT 9SM 05/M15 A3012 RMK SLP221 T00531147 4////1025 57018 IEM_DS3505
ZBAA,1984-01-10 07:00,ZBAA 100700Z AUTO 00000KT 7SM 05/M13 A3012 RMK T00501130 IEM_DS3505
ZBAA,1984-01-10 08:00,ZBAA 100800Z AUTO 00000KT 7SM 05/M13 A3012 RMK T00501130 IEM_DS3505
ZBAA,1984-01-10 09:00,ZBAA 100900Z AUTO 16006KT 5SM 04/M13 A3015 RMK SLP222 T00451130 52001 IEM_DS3505
ZBAA,1984-01-10 12:00,ZBAA 101200Z AUTO 00000KT 4SM M01/M09 RMK SLP231 T10091092 52008 IEM_DS3505
ZBAA,1984-01-10 15:00,ZBAA 101500Z AUTO 00000KT 3SM M04/M11 RMK SLP241 T10381109 52010 IEM_DS3505
ZBAA,1984-01-10 18:00,ZBAA 101800Z AUTO 00000KT 3SM M05/M12 RMK SLP244 T10531119 40065//// 52003 IEM_DS3505
ZBAA,1984-01-10 21:00,ZBAA 102100Z AUTO 07002KT 3SM M05/M14 RMK SLP242 T10511141 57002 IEM_DS3505
ZBAA,1984-01-11 00:00,ZBAA 110000Z AUTO 02002KT 2 1/2SM M04/M10 RMK SLP247 T10451096 52004 IEM_DS3505
ZBAA,1984-01-11 03:00,ZBAA 110300Z AUTO 36006KT 3SM M02/M10 RMK SLP246 T10201100 57001 IEM_DS3505
ZBAA,1984-01-11 06:00,ZBAA 110600Z AUTO 04006KT 2SM 01/M10 RMK SLP212 T00061100 4////1060 57033 IEM_DS3505
ZBAA,1984-01-11 09:00,ZBAA 110900Z AUTO 34002KT 1 1/4SM M00/M08 RMK SLP210 T10031079 57002 IEM_DS3505
ZBAA,1984-01-11 12:00,ZBAA 111200Z AUTO 00000KT 2 1/2SM M04/M08 RMK SLP228 T10351079 52017 IEM_DS3505
ZBAA,1984-01-11 15:00,ZBAA 111500Z AUTO 00000KT 2 1/2SM M03/M10 RMK SLP248 T10301096 52020 IEM_DS3505
ZBAA,1984-01-11 18:00,ZBAA 111800Z AUTO 32004KT 2 1/2SM M02/M12 RMK SLP251 T10171124 40013//// 52004 IEM_DS3505
ZBAA,1984-01-11 21:00,ZBAA 112100Z AUTO 36008KT 2 1/2SM M01/M15 RMK SLP260 T10121147 52009 IEM_DS3505
ZBAA,1984-01-12 00:00,ZBAA 120000Z AUTO 07004KT 9SM M02/M15 RMK SLP276 T10221154 52015 IEM_DS3505
ZBAA,1984-01-12 03:00,ZBAA 120300Z AUTO 34010KT 12SM 03/M18 RMK SLP283 T00281175 52008 IEM_DS3505
ZBAA,1984-01-12 06:00,ZBAA 120600Z AUTO 36004KT 19SM 05/M16 RMK SLP248 T00501160 4////1049 57035 IEM_DS3505
ZBAA,1984-01-12 09:00,ZBAA 120900Z AUTO 18006KT 9SM 04/M14 RMK SLP238 T00431141 57010 IEM_DS3505
ZBAA,1984-01-12 12:00,ZBAA 121200Z AUTO 00000KT 6SM M01/ RMK SLP239 54000 IEM_DS3505
ZBAA,1984-01-12 15:00,ZBAA 121500Z AUTO 18006KT 6SM M01/M12 RMK SLP224 T10111124 57014 IEM_DS3505
ZBAA,1984-01-12 18:00,ZBAA 121800Z AUTO 00000KT 6SM M04/M13 RMK SLP196 T10391130 40060//// 57027 IEM_DS3505
ZBAA,1984-01-12 21:00,ZBAA 122100Z AUTO 02004KT 6SM M06/M15 RMK SLP170 T10611154 57026 IEM_DS3505
ZBAA,1984-01-13 00:00,ZBAA 130000Z AUTO 34002KT 3SM M07/M15 RMK SLP162 T10721154 57009 IEM_DS3505
ZBAA,1984-01-13 03:00,ZBAA 130300Z AUTO 04002KT 2 1/2SM M01/M16 RMK SLP150 T10141160 57012 IEM_DS3505
ZBAA,1984-01-13 06:00,ZBAA 130600Z AUTO 04006KT 4SM 04/M12 RMK SLP108 T00351119 4////1073 57041 IEM_DS3505
ZBAA,1984-01-13 09:00,ZBAA 130900Z AUTO 16004KT 1 1/4SM 03/M12 RMK SLP105 T00301124 57003 IEM_DS3505
ZBAA,1984-01-13 12:00,ZBAA 131200Z AUTO 18006KT 1 1/2SM M00/M12 RMK SLP118 T10011119 52012 IEM_DS3505
ZBAA,1984-01-13 15:00,ZBAA 131500Z AUTO 02002KT 1 1/4SM M04/M11 RMK SLP132 T10441109 52014 IEM_DS3505
ZBAA,1984-01-13 18:00,ZBAA 131800Z AUTO 34010KT 2 1/2SM M01/M15 RMK SLP149 T10091154 40049//// 52018 IEM_DS3505
ZBAA,1984-01-13 21:00,ZBAA 132100Z AUTO 32017KT 6SM 01/M20 RMK SLP176 T00091200 52027 IEM_DS3505
ZBAA,1984-01-14 00:00,ZBAA 140000Z AUTO 34016KT 6SM M02/M31 RMK SLP217 T10161313 52041 IEM_DS3505
ZBAA,1984-01-14 03:00,ZBAA 140300Z AUTO 34017KT 19SM M03/M24 A3024 RMK SLP252 T10291244 52033 IEM_DS3505
ZBAA,1984-01-14 04:00,ZBAA 140400Z AUTO 30012KT 6SM M03/M24 A3021 RMK T10301240 IEM_DS3505
ZBAA,1984-01-14 05:00,ZBAA 140500Z AUTO 33016KT 6SM M03/M25 A3021 RMK T10301250 IEM_DS3505
ZBAA,1984-01-14 06:00,ZBAA 140600Z AUTO 32006KT 19SM M02/M26 A3018 RMK SLP247 T10221258 4////1058 57005 IEM_DS3505
ZBAA,1984-01-14 07:00,ZBAA 140700Z AUTO 33016KT 6SM M02/M27 A3021 RMK T10201270 IEM_DS3505
ZBAA,1984-01-14 08:00,ZBAA 140800Z AUTO 34016KT 6SM M02/M25 A3021 RMK T10201250 IEM_DS3505
ZBAA,1984-01-14 09:00,ZBAA 140900Z AUTO 34010KT 12SM M02/M27 A3024 RMK SLP265 T10211274 52019 IEM_DS3505
ZBAA,1984-01-14 12:00,ZBAA 141200Z AUTO 34014KT 16SM M05/M29 RMK SLP307 T10511292 52041 IEM_DS3505
ZBAA,1984-01-14 15:00,ZBAA 141500Z AUTO 34016KT 16SM M07/M31 RMK SLP331 T10741313 52023 IEM_DS3505
ZBAA,1984-01-14 18:00,ZBAA 141800Z AUTO 34014KT 16SM M08/M34 RMK SLP333 T10801339 40028//// 52002 IEM_DS3505
ZBAA,1984-01-14 21:00,ZBAA 142100Z AUTO 32010KT 16SM M08/M37 RMK 70787 SLP337 T10841374 52004 IEM_DS3505
ZBAA,1984-01-15 00:00,ZBAA 150000Z AUTO 29021KT 6SM M07/M34 RMK SLP340 T10721339 52003 IEM_DS3505
ZBAA,1984-01-15 03:00,ZBAA 150300Z AUTO 32012KT 16SM M04/M34 RMK SLP349 T10441339 52009 IEM_DS3505
ZBAA,1984-01-15 06:00,ZBAA 150600Z AUTO 34014KT 16SM M03/M37 RMK SLP320 T10301374 4////1090 57029 IEM_DS3505
ZBAA,1984-01-15 09:00,ZBAA 150900Z AUTO 29010KT 9SM M03/M34 RMK SLP313 T10271339 57007 IEM_DS3505
ZBAA,1984-01-15 12:00,ZBAA 151200Z AUTO 34006KT 9SM M04/M29 RMK SLP330 T10441292 52017 IEM_DS3505
ZBAA,1984-01-15 15:00,ZBAA 151500Z AUTO 29008KT 9SM M04/M31 RMK SLP340 T10441313 52010 IEM_DS3505
ZBAA,1984-01-15 18:00,ZBAA 151800Z AUTO 36006KT 12SM M08/M27 RMK SLP343 T10781274 41022//// 52003 IEM_DS3505
ZBAA,1984-01-15 21:00,ZBAA 152100Z AUTO 02006KT 12SM M09/M31 RMK SLP335 T10911313 57008 IEM_DS3505
ZBAA,1984-01-16 00:00,ZBAA 160000Z AUTO 02008KT 11SM M10/M31 RMK SLP341 T10991313 52005 IEM_DS3505
ZBAA,1984-01-16 03:00,ZBAA 160300Z AUTO 00000KT 5SM M06/M29 RMK SLP343 T10601292 52003 IEM_DS3505
ZBAA,1984-01-16 06:00,ZBAA 160600Z AUTO 20006KT 6SM M03/M29 RMK SLP302 T10321292 4////1103 57041 IEM_DS3505
ZBAA,1984-01-16 09:00,ZBAA 160900Z AUTO 20006KT 6SM M04/M31 RMK SLP294 T10371313 57008 IEM_DS3505
ZBAA,1984-01-16 12:00,ZBAA 161200Z AUTO 00000KT 4SM M07/M24 RMK SLP299 T10661244 52005 IEM_DS3505
ZBAA,1984-01-16 15:00,ZBAA 161500Z AUTO 00000KT 4SM M10/M21 RMK SLP305 T10981210 52006 IEM_DS3505
ZBAA,1984-01-16 18:00,ZBAA 161800Z AUTO 00000KT 2 1/2SM M11/M18 RMK SLP302 T11141175 41023//// 57003 IEM_DS3505
ZBAA,1984-01-16 21:00,ZBAA 162100Z AUTO 04002KT 2 1/2SM M10/M20 RMK SLP292 T11041200 57010 IEM_DS3505
ZBAA,1984-01-17 00:00,ZBAA 170000Z AUTO 00000KT 2 1/2SM M13/M20 RMK SLP308 T11321200 52015 IEM_DS3505
ZBAA,1984-01-17 03:00,ZBAA 170300Z AUTO 02004KT 2 1/2SM M06/M26 A3042 RMK SLP313 T10611258 52006 IEM_DS3505
ZBAA,1984-01-17 04:00,ZBAA 170400Z AUTO 04006KT 7SM M05/M25 A3036 RMK T10501250 IEM_DS3505
ZBAA,1984-01-17 05:00,ZBAA 170500Z AUTO 01002KT 7SM M04/M21 A3033 RMK T10401210 IEM_DS3505
ZBAA,1984-01-17 06:00,ZBAA 170600Z AUTO 00000KT 5SM M03/M27 A3030 RMK SLP279 T10261274 4////1133 57034 IEM_DS3505
ZBAA,1984-01-17 08:00,ZBAA 170800Z AUTO 00000KT 7SM M02/M21 A3030 RMK T10201210 IEM_DS3505
ZBAA,1984-01-17 09:00,ZBAA 170900Z AUTO 00000KT 4SM M02/M21 A3030 RMK SLP272 T10251210 57007 IEM_DS3505
ZBAA,1984-01-17 12:00,ZBAA 171200Z AUTO 00000KT 5SM M07/M19 RMK SLP285 T10661191 52012 IEM_DS3505
ZBAA,1984-01-17 15:00,ZBAA 171500Z AUTO 36002KT 5SM M09/M17 RMK SLP292 T10941167 52008 IEM_DS3505
ZBAA,1984-01-17 18:00,ZBAA 171800Z AUTO 02002KT 4SM M08/M22 RMK SLP293 T10811220 41012//// 52001 IEM_DS3505
ZBAA,1984-01-17 21:00,ZBAA 172100Z AUTO 34002KT 4SM M11/M18 RMK SLP292 T11131183 57001 IEM_DS3505
ZBAA,1984-01-18 00:00,ZBAA 180000Z AUTO 36006KT 1 1/4SM M08/M23 RMK SLP298 T10791231 52006 IEM_DS3505
ZBAA,1984-01-18 03:00,ZBAA 180300Z AUTO 36012KT 11SM M03/M29 RMK SLP299 T10321292 52001 IEM_DS3505
ZBAA,1984-01-18 06:00,ZBAA 180600Z AUTO 02008KT 16SM M01/M31 RMK SLP277 T10071313 4////1118 57021 IEM_DS3505
ZBAA,1984-01-18 09:00,ZBAA 180900Z AUTO 36006KT 16SM M01/M26 RMK SLP277 T10111258 57001 IEM_DS3505
ZBAA,1984-01-18 12:00,ZBAA 181200Z AUTO 00000KT 9SM M04/M23 RMK SLP290 T10451231 52013 IEM_DS3505
ZBAA,1984-01-18 15:00,ZBAA 181500Z AUTO 36006KT 9SM M06/M26 RMK SLP306 T10601258 52017 IEM_DS3505
ZBAA,1984-01-18 18:00,ZBAA 181800Z AUTO 04002KT 16SM M07/M31 RMK SLP318 T10701313 40000//// 52012 IEM_DS3505
ZBAA,1984-01-18 21:00,ZBAA 182100Z AUTO 02004KT 12SM M08/M26 RMK SLP314 T10821258 57004 IEM_DS3505
ZBAA,1984-01-19 00:00,ZBAA 190000Z AUTO 34008KT 9SM M08/M29 RMK SLP314 T10771292 57001 IEM_DS3505
ZBAA,1984-01-19 03:00,ZBAA 190300Z AUTO 36004KT 9SM M03/M34 RMK SLP316 T10311339 52003 IEM_DS3505
ZBAA,1984-01-19 06:00,ZBAA 190600Z AUTO 20004KT 9SM 00/M26 RMK SLP288 T00051258 4////1090 57028 IEM_DS3505
ZBAA,1984-01-19 09:00,ZBAA 190900Z AUTO 20006KT 5SM M02/M26 RMK SLP287 T10191258 57002 IEM_DS3505
ZBAA,1984-01-19 12:00,ZBAA 191200Z AUTO 22002KT 5SM M05/M22 RMK SLP297 T10491220 52010 IEM_DS3505
ZBAA,1984-01-19 15:00,ZBAA 191500Z AUTO 36002KT 6SM M09/M18 RMK SLP298 T10901175 52001 IEM_DS3505
ZBAA,1984-01-19 18:00,ZBAA 191800Z AUTO 00000KT 2 1/2SM M10/M17 RMK SLP299 T10961167 40007//// 52002 IEM_DS3505
ZBAA,1984-01-19 21:00,ZBAA 192100Z AUTO 36002KT 2 1/2SM M11/M17 RMK SLP293 T11141167 57007 IEM_DS3505
ZBAA,1984-01-20 00:00,ZBAA 200000Z AUTO 36006KT 4SM M09/M21 RMK SLP295 T10861210 52002 IEM_DS3505
ZBAA,1984-01-20 03:00,ZBAA 200300Z AUTO 02006KT 6SM M02/M29 RMK SLP296 T10211292 52001 IEM_DS3505
ZBAA,1984-01-20 06:00,ZBAA 200600Z AUTO 34004KT 16SM 01/M26 RMK SLP266 T00131258 4////1120 57029 IEM_DS3505
ZBAA,1984-01-20 09:00,ZBAA 200900Z AUTO 22004KT 6SM M00/M23 RMK SLP263 T10021231 57004 IEM_DS3505
ZBAA,1984-01-20 12:00,ZBAA 201200Z AUTO 20006KT 6SM M03/ RMK SLP264 52001 IEM_DS3505
ZBAA,1984-01-20 15:00,ZBAA 201500Z AUTO 32006KT 6SM M04/M24 RMK SLP279 T10361244 52016 IEM_DS3505
ZBAA,1984-01-20 18:00,ZBAA 201800Z AUTO 32006KT 6SM M06/M26 RMK SLP290 T10551258 40017//// 52011 IEM_DS3505
ZBAA,1984-01-20 21:00,ZBAA 202100Z AUTO 04004KT 9SM M07/M24 RMK SLP283 T10711244 57007 IEM_DS3505
ZBAA,1984-01-21 00:00,ZBAA 210000Z AUTO 34010KT 9SM M07/M26 RMK SLP297 T10711258 52014 IEM_DS3505
ZBAA,1984-01-21 03:00,ZBAA 210300Z AUTO 34017KT 19SM M06/M29 A3039 RMK SLP308 T10601292 52011 IEM_DS3505
ZBAA,1984-01-21 04:00,ZBAA 210400Z AUTO 33021KT 7SM M06/M35 A3036 RMK T10601350 IEM_DS3505
ZBAA,1984-01-21 05:00,ZBAA 210500Z AUTO 34019G29KT 7SM M05/M32 A3033 RMK T10501320 IEM_DS3505
ZBAA,1984-01-21 06:00,ZBAA 210600Z AUTO 32010KT 19SM M05/M32 A3030 RMK SLP284 T10501320 4////1079 57025 IEM_DS3505
ZBAA,1984-01-21 07:00,ZBAA 210700Z AUTO 34016KT 7SM M05/M30 A3030 RMK T10501300 IEM_DS3505
ZBAA,1984-01-21 08:00,ZBAA 210800Z AUTO 34012KT 7SM M05/M23 A3021 RMK T10501230 IEM_DS3505
ZBAA,1984-01-21 09:00,ZBAA 210900Z AUTO 32010KT 12SM M05/M29 A3027 RMK SLP276 T10471292 57008 IEM_DS3505
ZBAA,1984-01-21 12:00,ZBAA 211200Z AUTO 32014KT 16SM M05/M27 RMK SLP281 T10531274 52005 IEM_DS3505
ZBAA,1984-01-21 15:00,ZBAA 211500Z AUTO 29016KT 16SM M06/M27 RMK SLP285 T10611274 52004 IEM_DS3505
ZBAA,1984-01-21 18:00,ZBAA 211800Z AUTO 29002KT 16SM M07/M23 RMK SLP276 T10661231 41040//// 57009 IEM_DS3505
ZBAA,1984-01-21 21:00,ZBAA 212100Z AUTO 20006KT 16SM M09/M26 RMK SLP261 T10901258 57015 IEM_DS3505
ZBAA,1984-01-22 00:00,ZBAA 220000Z AUTO 18002KT 5SM M12/M21 RMK SLP262 T11171210 52001 IEM_DS3505
ZBAA,1984-01-22 03:00,ZBAA 220300Z AUTO 16006KT 4SM M04/M22 RMK SLP263 T10351220 52002 IEM_DS3505
ZBAA,1984-01-22 06:00,ZBAA 220600Z AUTO 00000KT 9SM M00/M23 RMK SLP231 T10011231 4////1119 57032 IEM_DS3505
ZBAA,1984-01-22 09:00,ZBAA 220900Z AUTO 20006KT 9SM M01/M26 RMK SLP233 T10091258 52002 IEM_DS3505
ZBAA,1984-01-22 12:00,ZBAA 221200Z AUTO 22002KT 6SM M05/M18 RMK SLP247 T10461183 52013 IEM_DS3505
ZBAA,1984-01-22 15:00,ZBAA 221500Z AUTO 32010KT 9SM M03/M29 RMK SLP266 T10261292 52020 IEM_DS3505
ZBAA,1984-01-22 18:00,ZBAA 221800Z AUTO 34006KT 19SM M04/M27 RMK SLP274 T10451274 40008//// 52008 IEM_DS3505
ZBAA,1984-01-22 21:00,ZBAA 222100Z AUTO 00000KT 19SM M08/M21 RMK SLP281 T10791210 52007 IEM_DS3505
ZBAA,1984-01-23 00:00,ZBAA 230000Z AUTO 02002KT 5SM M10/M20 RMK SLP302 T11021200 52020 IEM_DS3505
ZBAA,1984-01-23 03:00,ZBAA 230300Z AUTO 32006KT 19SM M02/M26 RMK SLP311 T10211258 52010 IEM_DS3505
ZBAA,1984-01-23 06:00,ZBAA 230600Z AUTO 34012KT 19SM M00/M24 RMK SLP286 T10011244 4////1107 57025 IEM_DS3505
ZBAA,1984-01-23 09:00,ZBAA 230900Z AUTO 34008KT 16SM M01/M27 RMK SLP299 T10101274 52013 IEM_DS3505
ZBAA,1984-01-23 12:00,ZBAA 231200Z AUTO 32002KT 12SM M04/M19 RMK SLP320 T10401191 52020 IEM_DS3505
ZBAA,1984-01-23 15:00,ZBAA 231500Z AUTO 00000KT 9SM M08/M17 RMK SLP332 T10761167 52012 IEM_DS3505
ZBAA,1984-01-23 18:00,ZBAA 231800Z AUTO 00000KT 6SM M09/M17 RMK SLP334 T10911167 40004//// 52002 IEM_DS3505
ZBAA,1984-01-23 21:00,ZBAA 232100Z AUTO 34006KT 6SM M06/M21 RMK SLP337 T10571210 IEM_DS3505
ZBAA,1984-01-24 00:00,ZBAA 240000Z AUTO 32006KT 12SM M06/M27 A3053 RMK SLP355 T10561274 52018 IEM_DS3505
ZBAA,1984-01-24 01:00,ZBAA 240100Z AUTO 13004KT 4SM M09/M16 A3053 RMK T10901160 IEM_DS3505
ZBAA,1984-01-24 02:00,ZBAA 240200Z AUTO 30019KT 7SM M05/M22 RMK T10501220 IEM_DS3505
ZBAA,1984-01-24 03:00,ZBAA 240300Z AUTO 30016KT 7SM M04/M27 A3053 RMK SLP359 T10401270 52004 IEM_DS3505
ZBAA,1984-01-24 04:00,ZBAA 240400Z AUTO 30016KT 7SM M03/M27 A3053 RMK T10301270 IEM_DS3505
ZBAA,1984-01-24 06:00,ZBAA 240600Z AUTO 34012KT 19SM M02/M27 RMK SLP328 T10211274 4////1097 57031 IEM_DS3505
ZBAA,1984-01-24 07:00,ZBAA 240700Z AUTO 33010KT 6SM M02/M27 A3045 RMK T10201270 IEM_DS3505
ZBAA,1984-01-24 08:00,ZBAA 240800Z AUTO 30010KT 6SM M02/M25 A3045 RMK T10201250 IEM_DS3505
ZBAA,1984-01-24 09:00,ZBAA 240900Z AUTO 29012KT 12SM M03/M27 A3045 RMK SLP332 T10261274 52004 IEM_DS3505
ZBAA,1984-01-24 12:00,ZBAA 241200Z AUTO 36004KT 12SM M06/M23 RMK SLP346 T10551231 52014 IEM_DS3505
ZBAA,1984-01-24 15:00,ZBAA 241500Z AUTO 29006KT 12SM M07/M21 RMK SLP360 T10691210 52014 IEM_DS3505
ZBAA,1984-01-24 18:00,ZBAA 241800Z AUTO 07002KT 12SM M07/M24 RMK SLP359 T10691244 41013//// 57001 IEM_DS3505
ZBAA,1984-01-24 21:00,ZBAA 242100Z AUTO 36006KT 9SM M08/M26 RMK SLP357 T10791258 57002 IEM_DS3505
ZBAA,1984-01-25 00:00,ZBAA 250000Z AUTO 00000KT 6SM M08/M23 RMK SLP370 T10811231 52013 IEM_DS3505
ZBAA,1984-01-25 03:00,ZBAA 250300Z AUTO 00000KT 4SM M05/M24 RMK SLP372 T10471244 52002 IEM_DS3505
ZBAA,1984-01-25 06:00,ZBAA 250600Z AUTO 00000KT 7SM M03/M24 RMK SLP335 T10271244 4////1090 57037 IEM_DS3505
ZBAA,1984-01-25 09:00,ZBAA 250900Z AUTO 34006KT 9SM M03/M26 RMK SLP339 T10291258 52004 IEM_DS3505
ZBAA,1984-01-25 11:00,ZBAA 251100Z AUTO 32002KT 12SM M06/M23 RMK SLP358 T10641231 52018 IEM_DS3505
ZBAA,1984-01-25 12:00,ZBAA 251200Z AUTO 32002KT 12SM M06/M23 RMK SLP358 T10641231 52018 IEM_DS3505
ZBAA,1984-01-25 15:00,ZBAA 251500Z AUTO 32014KT 19SM M05/M31 RMK SLP377 T10541313 52020 IEM_DS3505
ZBAA,1984-01-25 18:00,ZBAA 251800Z AUTO 34012KT 19SM M08/M31 RMK SLP389 T10831313 41013//// 52012 IEM_DS3505
ZBAA,1984-01-26 00:00,ZBAA 260000Z AUTO 34006KT 9SM M11/M24 RMK SLP407 T11091244 52008 IEM_DS3505
ZBAA,1984-01-26 03:00,ZBAA 260300Z AUTO 32006KT 12SM M06/M31 RMK SLP412 T10581313 52006 IEM_DS3505
ZBAA,1984-01-26 06:00,ZBAA 260600Z AUTO 36014KT 12SM M04/M31 RMK SLP376 T10431313 4////1113 57036 IEM_DS3505
ZBAA,1984-01-26 09:00,ZBAA 260900Z AUTO 32006KT 12SM M04/M31 RMK SLP377 T10401313 52001 IEM_DS3505
ZBAA,1984-01-26 12:00,ZBAA 261200Z AUTO 00000KT 9SM M08/M22 RMK SLP395 T10811220 52017 IEM_DS3505
ZBAA,1984-01-26 15:00,ZBAA 261500Z AUTO 00000KT 6SM M11/M23 RMK SLP404 T11081231 52009 IEM_DS3505
ZBAA,1984-01-26 18:00,ZBAA 261800Z AUTO 36004KT 6SM M09/M26 RMK SLP399 T10931258 40036//// 57004 IEM_DS3505
ZBAA,1984-01-26 21:00,ZBAA 262100Z AUTO 02004KT 7SM M11/M24 RMK SLP397 T11121244 57003 IEM_DS3505
ZBAA,1984-01-27 00:00,ZBAA 270000Z AUTO 04004KT 7SM M11/M24 RMK SLP404 T11091244 52007 IEM_DS3505
ZBAA,1984-01-27 03:00,ZBAA 270300Z AUTO 36006KT 6SM M08/M34 RMK SLP403 T10771339 57001 IEM_DS3505
ZBAA,1984-01-27 06:00,ZBAA 270600Z AUTO 16002KT 9SM M05/M29 RMK SLP367 T10471292 4////1119 57035 IEM_DS3505
ZBAA,1984-01-27 09:00,ZBAA 270900Z AUTO 00000KT 7SM M05/M34 RMK SLP362 T10501339 57006 IEM_DS3505
ZBAA,1984-01-27 12:00,ZBAA 271200Z AUTO 27006KT 6SM M08/M27 RMK SLP377 T10781274 52015 IEM_DS3505
ZBAA,1984-01-27 15:00,ZBAA 271500Z AUTO 00000KT 6SM M10/M26 RMK SLP395 T10971258 52018 IEM_DS3505
ZBAA,1984-01-27 18:00,ZBAA 271800Z AUTO 36006KT 12SM M10/ RMK SLP397 41034//// 52002 IEM_DS3505
ZBAA,1984-01-27 21:00,ZBAA 272100Z AUTO 36010KT 12SM M10/M26 RMK SLP399 T11021258 52002 IEM_DS3505
ZBAA,1984-01-28 00:00,ZBAA 280000Z AUTO 34002KT 9SM M11/M27 RMK SLP411 T11091274 52012 IEM_DS3505
ZBAA,1984-01-28 03:00,ZBAA 280300Z AUTO 34008KT 16SM M07/M37 A3068 RMK SLP409 T10681374 57002 IEM_DS3505
ZBAA,1984-01-28 04:00,ZBAA 280400Z AUTO 05010KT 6SM M07/M28 A3065 RMK T10701280 IEM_DS3505
ZBAA,1984-01-28 05:00,ZBAA 280500Z AUTO 04010KT 7SM M06/M28 A3062 RMK T10601280 IEM_DS3505
ZBAA,1984-01-28 06:00,ZBAA 280600Z AUTO 02006KT 16SM M04/ A3059 RMK SLP377 4////1114 57031 IEM_DS3505
ZBAA,1984-01-28 07:00,ZBAA 280700Z AUTO 02006KT 7SM M05/M25 A3059 RMK T10501250 IEM_DS3505
ZBAA,1984-01-28 08:00,ZBAA 280800Z AUTO 04006KT 7SM M05/M25 A3059 RMK T10501250 IEM_DS3505
ZBAA,1984-01-28 09:00,ZBAA 280900Z AUTO 07004KT 9SM M04/M31 A3059 RMK SLP376 T10421313 57002 IEM_DS3505
ZBAA,1984-01-28 10:00,ZBAA 281000Z AUTO 05004KT 7SM M09/M24 A3059 RMK T10901240 IEM_DS3505
ZBAA,1984-01-28 11:00,ZBAA 281100Z AUTO 00000KT 7SM M08/M27 A3059 RMK T10801270 IEM_DS3505
ZBAA,1984-01-28 12:00,ZBAA 281200Z AUTO 09002KT 6SM M07/M26 RMK SLP390 T10681258 52014 IEM_DS3505
ZBAA,1984-01-28 15:00,ZBAA 281500Z AUTO 00000KT 6SM M10/M21 RMK SLP400 T10991210 52010 IEM_DS3505
ZBAA,1984-01-28 18:00,ZBAA 281800Z AUTO 00000KT 5SM M08/M24 RMK SLP391 T10831244 41033//// 57008 IEM_DS3505
ZBAA,1984-01-28 21:00,ZBAA 282100Z AUTO 00000KT 5SM M09/M22 RMK SLP375 T10891220 57016 IEM_DS3505
ZBAA,1984-01-29 00:00,ZBAA 290000Z AUTO 00000KT 2 1/2SM M09/M20 RMK SLP381 T10921200 52005 IEM_DS3505
ZBAA,1984-01-29 03:00,ZBAA 290300Z AUTO 34004KT 2SM M07/M26 RMK SLP385 T10701258 52004 IEM_DS3505
ZBAA,1984-01-29 06:00,ZBAA 290600Z AUTO 27002KT 4SM M05/M15 RMK SLP351 T10481154 4////1105 57033 IEM_DS3505
ZBAA,1984-01-29 09:00,ZBAA 290900Z AUTO 20006KT 6SM M05/M16 RMK SLP339 T10461160 57012 IEM_DS3505
ZBAA,1984-01-29 12:00,ZBAA 291200Z AUTO 29002KT 6SM M06/M15 RMK SLP355 T10631151 52015 IEM_DS3505
ZBAA,1984-01-29 15:00,ZBAA 291500Z AUTO 00000KT 6SM M08/M15 RMK SLP358 T10851154 52003 IEM_DS3505
ZBAA,1984-01-29 18:00,ZBAA 291800Z AUTO 00000KT 5SM M10/M19 RMK SLP346 T10951191 41040//// 57012 IEM_DS3505
ZBAA,1984-01-29 21:00,ZBAA 292100Z AUTO 00000KT 4SM M11/M18 RMK SLP345 T11141183 57001 IEM_DS3505
ZBAA,1984-01-30 00:00,ZBAA 300000Z AUTO 00000KT 1 1/4SM M12/M17 RMK SLP351 T11241167 52006 IEM_DS3505
ZBAA,1984-01-30 03:00,ZBAA 300300Z AUTO 00000KT 1 1/4SM M05/M16 RMK SLP347 T10511160 57003 IEM_DS3505
ZBAA,1984-01-30 06:00,ZBAA 300600Z AUTO 18006KT 2SM M01/M17 RMK SLP304 T10081167 4////1134 57043 IEM_DS3505
ZBAA,1984-01-30 09:00,ZBAA 300900Z AUTO 18006KT 3SM M02/M16 RMK SLP294 T10201160 57010 IEM_DS3505
ZBAA,1984-01-30 11:00,ZBAA 301100Z AUTO 20006KT 2 1/2SM M05/M16 RMK SLP306 T10461160 52012 IEM_DS3505
ZBAA,1984-01-30 12:00,ZBAA 301200Z AUTO 20006KT 2 1/2SM M05/M16 RMK SLP306 T10461160 52012 IEM_DS3505
ZBAA,1984-01-30 15:00,ZBAA 301500Z AUTO 00000KT 2 1/2SM M07/M15 RMK SLP305 T10711154 57001 IEM_DS3505
ZBAA,1984-01-30 18:00,ZBAA 301800Z AUTO 36006KT 2SM M08/M16 RMK SLP295 T10761160 41001//// 57009 IEM_DS3505
ZBAA,1984-01-30 21:00,ZBAA 302100Z AUTO 04004KT 2SM M08/M16 RMK SLP283 T10751160 57012 IEM_DS3505
ZBAA,1984-01-31 00:00,ZBAA 310000Z AUTO 34012KT 4SM M05/M23 RMK SLP278 T10491231 57005 IEM_DS3505
ZBAA,1984-01-31 03:00,ZBAA 310300Z AUTO 02004KT 6SM M02/M27 RMK SLP280 T10241274 52002 IEM_DS3505
ZBAA,1984-01-31 04:00,ZBAA 310400Z AUTO 33012KT 7SM M01/M17 A3027 RMK T10101170 IEM_DS3505
ZBAA,1984-01-31 05:00,ZBAA 310500Z AUTO 30006KT 6SM 00/M23 A3024 RMK T00001230 IEM_DS3505
ZBAA,1984-01-31 06:00,ZBAA 310600Z AUTO 20002KT 5SM M00/M21 A3021 RMK SLP245 T10041210 4////1089 57035 IEM_DS3505
ZBAA,1984-01-31 07:00,ZBAA 310700Z AUTO 27008KT 6SM 01/M20 A3018 RMK T00101200 IEM_DS3505
ZBAA,1984-01-31 08:00,ZBAA 310800Z AUTO 21004KT 7SM 00/M24 A3018 RMK T00001240 IEM_DS3505
ZBAA,1984-01-31 09:00,ZBAA 310900Z AUTO 00000KT 5SM M00/M22 A3015 RMK SLP230 T10041220 57015 IEM_DS3505
ZBAA,1984-01-31 12:00,ZBAA 311200Z AUTO 34002KT 4SM M01/M20 RMK SLP238 T10141200 52008 IEM_DS3505
ZBAA,1984-01-31 15:00,ZBAA 311500Z AUTO 32012KT 6SM M02/M17 RMK SLP250 T10191167 52012 IEM_DS3505
ZBAA,1984-01-31 18:00,ZBAA 311800Z AUTO 34012KT 6SM M05/M29 RMK SLP260 T10481292 40005//// 52010 IEM_DS3505
ZBAA,1984-01-31 21:00,ZBAA 312100Z AUTO 32010KT 6SM M07/M31 RMK SLP273 T10741313 52013 IEM_DS3505
ZBAA,1984-02-01 00:00,ZBAA 010000Z AUTO 32017KT 9SM M09/M29 RMK SLP305 T10881292 52031 IEM_DS3505
ZBAA,1984-02-01 03:00,ZBAA 010300Z AUTO 34016KT 12SM M07/M34 RMK SLP317 T10661339 52013 IEM_DS3505
ZBAA,1984-02-01 06:00,ZBAA 010600Z AUTO 32016KT 9SM M05/M34 RMK SLP299 T10491339 4////1088 57018 IEM_DS3505
ZBAA,1984-02-01 09:00,ZBAA 010900Z AUTO 29016KT 9SM M05/M34 RMK SLP307 T10511339 52007 IEM_DS3505
ZBAA,1984-02-01 12:00,ZBAA 011200Z AUTO 32008KT 16SM M06/M37 RMK SLP324 T10631374 52016 IEM_DS3505
ZBAA,1984-02-01 15:00,ZBAA 011500Z AUTO 36008KT 16SM M09/M37 RMK SLP349 T10861374 52025 IEM_DS3505
ZBAA,1984-02-01 18:00,ZBAA 011800Z AUTO 32002KT 16SM M11/M34 RMK SLP354 T11131339 41040//// 52005 IEM_DS3505
ZBAA,1984-02-01 21:00,ZBAA 012100Z AUTO 02002KT 16SM M13/M27 RMK SLP351 T11281274 57003 IEM_DS3505
ZBAA,1984-02-02 00:00,ZBAA 020000Z AUTO 00000KT 9SM M12/M26 RMK SLP366 T11161258 52015 IEM_DS3505
ZBAA,1984-02-02 03:00,ZBAA 020300Z AUTO 20008KT 7SM M05/M42 RMK SLP368 T10531424 52003 IEM_DS3505
ZBAA,1984-02-02 06:00,ZBAA 020600Z AUTO 32010KT 16SM M02/M37 RMK SLP336 T10201374 4////1142 57032 IEM_DS3505
ZBAA,1984-02-02 09:00,ZBAA 020900Z AUTO 25002KT 12SM M02/M31 RMK SLP330 T10211313 57007 IEM_DS3505
ZBAA,1984-02-02 12:00,ZBAA 021200Z AUTO 20008KT 12SM M06/M34 RMK SLP342 T10571339 52012 IEM_DS3505
ZBAA,1984-02-02 15:00,ZBAA 021500Z AUTO 22004KT 9SM M08/M24 RMK SLP349 T10791244 52008 IEM_DS3505
ZBAA,1984-02-02 18:00,ZBAA 021800Z AUTO 00000KT 6SM M11/M26 RMK SLP345 T11091258 41013//// 57004 IEM_DS3505
ZBAA,1984-02-02 21:00,ZBAA 022100Z AUTO 00000KT 6SM M12/M27 RMK SLP333 T11151274 57012 IEM_DS3505
ZBAA,1984-02-03 00:00,ZBAA 030000Z AUTO 00000KT 2 1/2SM M14/M22 RMK SLP333 T11391220 57001 IEM_DS3505
ZBAA,1984-02-03 03:00,ZBAA 030300Z AUTO 00000KT 2 1/2SM M06/M27 RMK SLP330 T10561274 57002 IEM_DS3505
ZBAA,1984-02-03 06:00,ZBAA 030600Z AUTO 14002KT 6SM M01/M29 RMK SLP290 T10111292 57040 IEM_DS3505
ZBAA,1984-02-03 09:00,ZBAA 030900Z AUTO 20008KT 6SM M01/M26 RMK SLP276 T10121258 57014 IEM_DS3505
ZBAA,1984-02-03 12:00,ZBAA 031200Z AUTO 00000KT 6SM M04/M21 RMK T10361210 52001 IEM_DS3505
ZBAA,1984-02-03 15:00,ZBAA 031500Z AUTO 00000KT 6SM M06/M23 RMK SLP275 T10571231 57002 IEM_DS3505
ZBAA,1984-02-03 18:00,ZBAA 031800Z AUTO 02004KT 5SM M07/M23 RMK SLP267 T10731231 41006//// 57007 IEM_DS3505
ZBAA,1984-02-03 21:00,ZBAA 032100Z AUTO 00000KT 6SM M08/M23 RMK SLP253 T10781231 57014 IEM_DS3505
ZBAA,1984-02-04 00:00,ZBAA 040000Z AUTO 00000KT 2 1/2SM M11/M21 RMK SLP254 T11121210 54000 IEM_DS3505
ZBAA,1984-02-04 03:00,ZBAA 040300Z AUTO 36002KT 4SM M03/M31 A3024 RMK SLP256 T10271313 52003 IEM_DS3505
ZBAA,1984-02-04 04:00,ZBAA 040400Z AUTO 02006KT 7SM M01/M24 A3021 RMK T10101240 IEM_DS3505
ZBAA,1984-02-04 05:00,ZBAA 040500Z AUTO 01004KT 7SM 01/M23 A3018 RMK T00101230 IEM_DS3505
ZBAA,1984-02-04 06:00,ZBAA 040600Z AUTO 20004KT 4SM 03/M26 A3015 RMK SLP227 T00301258 4////1115 57029 IEM_DS3505
ZBAA,1984-02-04 08:00,ZBAA 040800Z AUTO 22008KT 7SM 03/M27 A3015 RMK T00301270 IEM_DS3505
ZBAA,1984-02-04 09:00,ZBAA 040900Z AUTO 29006KT 7SM 03/M22 A3015 RMK SLP228 T00321220 52001 IEM_DS3505
ZBAA,1984-02-04 12:00,ZBAA 041200Z AUTO 32012KT 12SM 01/M37 RMK SLP265 T00091374 52036 IEM_DS3505
ZBAA,1984-02-04 15:00,ZBAA 041500Z AUTO 32012KT 19SM M01/ RMK SLP297 52033 IEM_DS3505
ZBAA,1984-02-04 18:00,ZBAA 041800Z AUTO 36014KT 19SM M06/M34 RMK SLP325 T10581339 40038//// 52028 IEM_DS3505
ZBAA,1984-02-04 21:00,ZBAA 042100Z AUTO 34006KT 19SM M08/M29 RMK SLP344 T10841292 52019 IEM_DS3505
ZBAA,1984-02-05 00:00,ZBAA 050000Z AUTO 36010KT 19SM M09/M27 RMK SLP372 T10891274 52027 IEM_DS3505
ZBAA,1984-02-05 03:00,ZBAA 050300Z AUTO 34010KT 19SM M05/M29 RMK SLP376 T10541292 52004 IEM_DS3505
ZBAA,1984-02-05 06:00,ZBAA 050600Z AUTO 32012KT 19SM M03/M29 RMK SLP342 T10261292 4////1095 57034 IEM_DS3505
ZBAA,1984-02-05 09:00,ZBAA 050900Z AUTO 29021KT 16SM M03/M29 RMK SLP333 T10261292 57009 IEM_DS3505
ZBAA,1984-02-05 12:00,ZBAA 051200Z AUTO 29008KT 16SM M05/M34 RMK SLP363 T10511339 52030 IEM_DS3505
ZBAA,1984-02-05 15:00,ZBAA 051500Z AUTO 34010KT 19SM M06/ RMK SLP386 52023 IEM_DS3505
ZBAA,1984-02-05 18:00,ZBAA 051800Z AUTO 34010KT 19SM M08/M37 RMK SLP395 T10831374 41016//// 52009 IEM_DS3505
ZBAA,1984-02-06 00:00,ZBAA 060000Z AUTO 02002KT 12SM M10/M29 RMK SLP389 T10951292 52007 IEM_DS3505
ZBAA,1984-02-06 03:00,ZBAA 060300Z AUTO 34010KT 16SM M04/M37 RMK SLP380 T10401374 57008 IEM_DS3505
ZBAA,1984-02-06 06:00,ZBAA 060600Z AUTO 29012KT 16SM M02/M31 RMK SLP336 T10161313 4////1103 57044 IEM_DS3505
ZBAA,1984-02-06 09:00,ZBAA 060900Z AUTO 29008KT 12SM M01/M34 RMK SLP322 T10101339 57014 IEM_DS3505
ZBAA,1984-02-06 12:00,ZBAA 061200Z AUTO 36008KT 16SM M04/M34 RMK SLP335 T10381339 52013 IEM_DS3505
ZBAA,1984-02-06 15:00,ZBAA 061500Z AUTO 32002KT 12SM M08/M34 RMK SLP354 T10791339 52019 IEM_DS3505
ZBAA,1984-02-06 18:00,ZBAA 061800Z AUTO 00000KT 12SM M08/M31 RMK SLP350 T10821313 41003//// 57004 IEM_DS3505
ZBAA,1984-02-06 21:00,ZBAA 062100Z AUTO 04006KT 12SM M09/M34 RMK SLP340 T10861339 57010 IEM_DS3505
ZBAA,1984-02-07 00:00,ZBAA 070000Z AUTO 02006KT 9SM M09/M27 RMK SLP350 T10911274 52010 IEM_DS3505
ZBAA,1984-02-07 03:00,ZBAA 070300Z AUTO 32012KT 19SM M03/M34 RMK SLP338 T10311339 57012 IEM_DS3505
ZBAA,1984-02-07 05:00,ZBAA 070500Z AUTO 30016KT 7SM M02/M28 A3039 RMK T10201280 IEM_DS3505
ZBAA,1984-02-07 06:00,ZBAA 070600Z AUTO 32016KT 19SM 00/M28 A3036 RMK SLP297 T00001280 4////1100 57040 IEM_DS3505
ZBAA,1984-02-07 07:00,ZBAA 070700Z AUTO 30014KT 7SM 00/M25 A3033 RMK T00001250 IEM_DS3505
ZBAA,1984-02-07 08:00,ZBAA 070800Z AUTO 30014KT 7SM 00/M27 A3033 RMK T00001270 IEM_DS3505
ZBAA,1984-02-07 09:00,ZBAA 070900Z AUTO 32010KT 19SM 01/M34 RMK SLP280 T00071339 57017 IEM_DS3505
ZBAA,1984-02-07 12:00,ZBAA 071200Z AUTO 00000KT 12SM M04/M23 RMK SLP293 T10381231 52012 IEM_DS3505
ZBAA,1984-02-07 15:00,ZBAA 071500Z AUTO 32004KT 9SM M03/M26 RMK SLP298 T10341258 52006 IEM_DS3505
ZBAA,1984-02-07 18:00,ZBAA 071800Z AUTO 02008KT 12SM M05/M29 RMK SLP308 T10491292 40011//// 52010 IEM_DS3505
ZBAA,1984-02-07 21:00,ZBAA 072100Z AUTO 34010KT 9SM M06/M29 RMK SLP307 T10631292 57001 IEM_DS3505
ZBAA,1984-02-08 00:00,ZBAA 080000Z AUTO 36008KT 12SM M07/M27 RMK SLP321 T10671274 52013 IEM_DS3505
ZBAA,1984-02-08 03:00,ZBAA 080300Z AUTO 36008KT 19SM M02/M27 RMK SLP314 T10181274 57006 IEM_DS3505
ZBAA,1984-02-08 06:00,ZBAA 080600Z AUTO 32008KT 19SM 02/M26 RMK SLP285 T00151258 4////1081 57029 IEM_DS3505
ZBAA,1984-02-08 09:00,ZBAA 080900Z AUTO 27006KT 16SM 02/M20 RMK SLP277 T00161200 57008 IEM_DS3505
ZBAA,1984-02-08 12:00,ZBAA 081200Z AUTO 00000KT 19SM M02/M26 RMK SLP290 T10211258 52013 IEM_DS3505
ZBAA,1984-02-08 15:00,ZBAA 081500Z AUTO 32004KT 19SM M04/M24 RMK SLP310 T10451244 52020 IEM_DS3505
ZBAA,1984-02-08 18:00,ZBAA 081800Z AUTO 36008KT 19SM M05/M24 RMK SLP317 T10471244 40026//// 52007 IEM_DS3505
ZBAA,1984-02-08 21:00,ZBAA 082100Z AUTO 36010KT 9SM M05/M29 RMK SLP323 T10511292 52006 IEM_DS3505
ZBAA,1984-02-09 00:00,ZBAA 090000Z AUTO 00000KT 9SM M06/M26 RMK SLP336 T10651258 52012 IEM_DS3505
ZBAA,1984-02-09 03:00,ZBAA 090300Z AUTO 36008KT 19SM M01/M26 RMK SLP334 T10141258 57001 IEM_DS3505
ZBAA,1984-02-09 06:00,ZBAA 090600Z AUTO 11002KT 19SM 02/M29 RMK SLP302 T00151292 4////1075 57032 IEM_DS3505
ZBAA,1984-02-09 09:00,ZBAA 090900Z AUTO 20004KT 7SM 02/M24 RMK SLP296 T00161244 57006 IEM_DS3505
ZBAA,1984-02-09 12:00,ZBAA 091200Z AUTO 16002KT 6SM M01/M22 RMK SLP305 T10141220 52009 IEM_DS3505
ZBAA,1984-02-09 15:00,ZBAA 091500Z AUTO 00000KT 6SM M04/M19 RMK SLP307 T10411191 52002 IEM_DS3505
ZBAA,1984-02-09 18:00,ZBAA 091800Z AUTO 00000KT 6SM M08/M18 RMK SLP309 T10841183 40033//// 52002 IEM_DS3505
ZBAA,1984-02-09 21:00,ZBAA 092100Z AUTO 00000KT 6SM M09/M20 RMK SLP309 T10871200 54000 IEM_DS3505
ZBAA,1984-02-10 00:00,ZBAA 100000Z AUTO 02004KT 4SM M09/M22 RMK SLP315 T10891220 52005 IEM_DS3505
ZBAA,1984-02-10 03:00,ZBAA 100300Z AUTO 34004KT 2SM M06/M19 RMK SLP320 T10601191 52005 IEM_DS3505
ZBAA,1984-02-10 06:00,ZBAA 100600Z AUTO 34006KT 2SM M04/M14 RMK SLP292 T10371141 4////1100 57028 IEM_DS3505
ZBAA,1984-02-10 09:00,ZBAA 100900Z AUTO 32002KT 2SM M03/M14 RMK SLP284 T10271135 57008 IEM_DS3505
ZBAA,1984-02-10 12:00,ZBAA 101200Z AUTO 00000KT 2SM M03/M14 RMK SLP292 T10301135 52008 IEM_DS3505
ZBAA,1984-02-10 15:00,ZBAA 101500Z AUTO 00000KT 1 1/2SM M04/M13 RMK SLP288 T10381130 57003 IEM_DS3505
ZBAA,1984-02-10 18:00,ZBAA 101800Z AUTO 00000KT 3SM M05/M08 RMK 60000 SLP283 T10481083 41022//// 57005 IEM_DS3505
ZBAA,1984-02-10 21:00,ZBAA 102100Z AUTO 36004KT 2SM M06/M09 RMK SLP277 T10571092 57006 IEM_DS3505
ZBAA,1984-02-11 00:00,ZBAA 110000Z AUTO 36004KT 1 1/4SM M06/M08 RMK 60001 SLP281 T10551083 52004 IEM_DS3505
ZBAA,1984-02-11 03:00,ZBAA 110300Z AUTO 04004KT 3SM M04/M07 A3030 RMK SLP281 T10381068 54000 IEM_DS3505
ZBAA,1984-02-11 04:00,ZBAA 110400Z AUTO 00000KT 3SM M03/M05 A3030 RMK T10301050 IEM_DS3505
ZBAA,1984-02-11 05:00,ZBAA 110500Z AUTO 00000KT 4SM M02/M07 A3027 RMK T10201070 IEM_DS3505
ZBAA,1984-02-11 06:00,ZBAA 110600Z AUTO 04004KT 3SM M01/M07 A3024 RMK SLP255 T10121072 4////1061 57026 IEM_DS3505
ZBAA,1984-02-11 07:00,ZBAA 110700Z AUTO 00000KT 3SM M01/M06 A3021 RMK T10101060 IEM_DS3505
ZBAA,1984-02-11 08:00,ZBAA 110800Z AUTO 03004KT 3SM M01/M04 A3021 RMK T10101040 IEM_DS3505
ZBAA,1984-02-11 09:00,ZBAA 110900Z AUTO 00000KT 4SM M00/M07 A3021 RMK SLP250 T10041072 57005 IEM_DS3505
ZBAA,1984-02-11 10:00,ZBAA 111000Z AUTO 36004KT 4SM M03/M06 A3021 RMK T10301060 IEM_DS3505
ZBAA,1984-02-11 12:00,ZBAA 111200Z AUTO 02002KT 2 1/2SM M04/M07 RMK SLP265 T10371072 52015 IEM_DS3505
ZBAA,1984-02-11 15:00,ZBAA 111500Z AUTO 02002KT 2 1/2SM M03/M08 RMK SLP266 T10341076 52001 IEM_DS3505
ZBAA,1984-02-11 18:00,ZBAA 111800Z AUTO 00000KT 1 1/4SM M07/M08 RMK SLP265 T10681076 40001//// 57002 IEM_DS3505
ZBAA,1984-02-11 21:00,ZBAA 112100Z AUTO 07002KT 1SM M08/M10 RMK SLP257 T10771096 57007 IEM_DS3505
ZBAA,1984-02-12 00:00,ZBAA 120000Z AUTO 32002KT 1SM M09/M11 RMK SLP265 T10891109 52007 IEM_DS3505
ZBAA,1984-02-12 03:00,ZBAA 120300Z AUTO 34002KT 3SM M01/M11 RMK SLP270 T10071109 52006 IEM_DS3505
ZBAA,1984-02-12 06:00,ZBAA 120600Z AUTO 20004KT 6SM 04/M11 RMK SLP243 T00371114 4////1092 57027 IEM_DS3505
ZBAA,1984-02-12 09:00,ZBAA 120900Z AUTO 20006KT 4SM 04/M12 RMK SLP238 T00361119 57005 IEM_DS3505
ZBAA,1984-02-12 12:00,ZBAA 121200Z AUTO 00000KT 2 1/2SM 00/M09 RMK SLP252 T00041092 52014 IEM_DS3505
ZBAA,1984-02-12 15:00,ZBAA 121500Z AUTO 04002KT 1 1/4SM M04/M10 RMK SLP267 T10441100 52015 IEM_DS3505
ZBAA,1984-02-12 18:00,ZBAA 121800Z AUTO 00000KT 2 1/2SM M05/M09 RMK SLP268 T10541092 40045//// 52002 IEM_DS3505
ZBAA,1984-02-12 21:00,ZBAA 122100Z AUTO 02006KT 2 1/2SM M05/M14 RMK SLP273 T10511135 52005 IEM_DS3505
ZBAA,1984-02-13 00:00,ZBAA 130000Z AUTO 00000KT 1 1/4SM M07/M10 RMK SLP288 T10691105 52014 IEM_DS3505
ZBAA,1984-02-13 03:00,ZBAA 130300Z AUTO 04006KT 2 1/2SM 00/M10 RMK SLP292 T00021100 52004 IEM_DS3505
ZBAA,1984-02-13 06:00,ZBAA 130600Z AUTO 36014KT 12SM 05/M23 RMK SLP262 T00491231 4////1077 57029 IEM_DS3505
ZBAA,1984-02-13 09:00,ZBAA 130900Z AUTO 32016KT 19SM 04/M31 RMK SLP260 T00411313 57002 IEM_DS3505
ZBAA,1984-02-13 12:00,ZBAA 131200Z AUTO 34010KT 19SM 01/M23 RMK SLP286 T00091231 52025 IEM_DS3505
ZBAA,1984-02-13 15:00,ZBAA 131500Z AUTO 32008KT 19SM M00/M29 RMK SLP303 T10041292 52018 IEM_DS3505
ZBAA,1984-02-13 18:00,ZBAA 131800Z AUTO 36012KT 19SM M03/M26 RMK SLP312 T10261258 40056//// 52009 IEM_DS3505
ZBAA,1984-02-13 21:00,ZBAA 132100Z AUTO 36008KT 16SM M05/M22 RMK SLP307 T10491220 57005 IEM_DS3505
ZBAA,1984-02-14 00:00,ZBAA 140000Z AUTO 36010KT 12SM M05/M24 RMK SLP311 T10471244 52003 IEM_DS3505
ZBAA,1984-02-14 03:00,ZBAA 140300Z AUTO 04006KT 9SM M03/M22 RMK SLP302 T10341220 57009 IEM_DS3505
ZBAA,1984-02-14 06:00,ZBAA 140600Z AUTO 20004KT 7SM M00/M22 RMK SLP273 T10041220 4////1055 57029 IEM_DS3505
ZBAA,1984-02-14 09:00,ZBAA 140900Z AUTO 18004KT 6SM M01/M19 RMK SLP256 T10121191 57017 IEM_DS3505
ZBAA,1984-02-14 12:00,ZBAA 141200Z AUTO 20006KT 6SM M04/M13 RMK SLP263 T10371130 52007 IEM_DS3505
ZBAA,1984-02-14 15:00,ZBAA 141500Z AUTO 00000KT 4SM M07/M12 RMK SLP265 T10691124 52001 IEM_DS3505
ZBAA,1984-02-14 18:00,ZBAA 141800Z AUTO 00000KT 3SM M09/M13 RMK SLP265 T10861130 41002//// 52001 IEM_DS3505
ZBAA,1984-02-14 21:00,ZBAA 142100Z AUTO 36008KT 6SM M06/M22 RMK SLP269 T10581220 52004 IEM_DS3505
ZBAA,1984-02-15 00:00,ZBAA 150000Z AUTO 04008KT 6SM M06/M22 RMK SLP288 T10641220 52018 IEM_DS3505
ZBAA,1984-02-15 03:00,ZBAA 150300Z AUTO 04010KT 7SM M01/M27 RMK SLP284 T10111274 57003 IEM_DS3505
ZBAA,1984-02-15 06:00,ZBAA 150600Z AUTO 11002KT 6SM 02/M21 RMK SLP262 T00161210 4////1087 57022 IEM_DS3505
ZBAA,1984-02-15 09:00,ZBAA 150900Z AUTO 6SM 01/M20 RMK SLP251 T00071200 57011 IEM_DS3505
ZBAA,1984-02-15 12:00,ZBAA 151200Z AUTO 18006KT 6SM M00/M22 RMK SLP258 T10041220 52007 IEM_DS3505
ZBAA,1984-02-15 15:00,ZBAA 151500Z AUTO 18008KT 9SM M04/M12 RMK SLP262 T10361119 52004 IEM_DS3505
ZBAA,1984-02-15 18:00,ZBAA 151800Z AUTO 16004KT 7SM M04/M12 RMK SLP253 T10451124 40020//// 57009 IEM_DS3505
ZBAA,1984-02-15 21:00,ZBAA 152100Z AUTO 14002KT 7SM M05/M10 RMK SLP241 T10481105 57012 IEM_DS3505
ZBAA,1984-02-16 00:00,ZBAA 160000Z AUTO 34004KT 2 1/2SM M05/M10 RMK SLP255 T10481105 52014 IEM_DS3505
ZBAA,1984-02-16 03:00,ZBAA 160300Z AUTO 34004KT 4SM M03/M11 RMK SLP248 T10321114 57007 IEM_DS3505
ZBAA,1984-02-16 06:00,ZBAA 160600Z AUTO 00000KT 4SM M01/M10 RMK SLP223 T10121105 4////1052 57025 IEM_DS3505
ZBAA,1984-02-16 09:00,ZBAA 160900Z AUTO 02002KT 4SM M01/M11 RMK SLP222 T10081114 57001 IEM_DS3505
ZBAA,1984-02-16 12:00,ZBAA 161200Z AUTO 36004KT 4SM M03/M11 RMK SLP249 T10261109 52027 IEM_DS3505
ZBAA,1984-02-16 15:00,ZBAA 161500Z AUTO 34012KT 9SM M02/M18 RMK SLP278 T10221183 52029 IEM_DS3505
ZBAA,1984-02-16 18:00,ZBAA 161800Z AUTO 02002KT 16SM M04/M18 RMK SLP298 T10411175 41003//// 52020 IEM_DS3505
ZBAA,1984-02-16 21:00,ZBAA 162100Z AUTO 02006KT 16SM M04/M19 RMK SLP308 T10411191 52010 IEM_DS3505
ZBAA,1984-02-17 00:00,ZBAA 170000Z AUTO 36006KT 16SM M04/M19 RMK SLP329 T10431191 52020 IEM_DS3505
ZBAA,1984-02-17 03:00,ZBAA 170300Z AUTO 36016KT 19SM 01/M21 RMK SLP330 T00081210 52002 IEM_DS3505
ZBAA,1984-02-17 06:00,ZBAA 170600Z AUTO 34012KT 19SM 04/M21 RMK SLP308 T00361210 4////1047 57021 IEM_DS3505
ZBAA,1984-02-17 09:00,ZBAA 170900Z AUTO 32008KT 19SM 04/M21 RMK SLP296 T00371210 57012 IEM_DS3505
ZBAA,1984-02-17 12:00,ZBAA 171200Z AUTO 29004KT 19SM M01/M19 RMK SLP299 T10101191 52002 IEM_DS3505
ZBAA,1984-02-17 15:00,ZBAA 171500Z AUTO 32002KT 16SM M03/M16 RMK SLP309 T10341160 52010 IEM_DS3505
ZBAA,1984-02-17 18:00,ZBAA 171800Z AUTO 34006KT 16SM M03/M20 RMK SLP312 T10321200 40047//// 52004 IEM_DS3505
ZBAA,1984-02-17 21:00,ZBAA 172100Z AUTO 02004KT 16SM M03/M22 RMK SLP308 T10331220 57004 IEM_DS3505
ZBAA,1984-02-18 00:00,ZBAA 180000Z AUTO 02008KT 7SM M03/M22 RMK SLP320 T10311220 52011 IEM_DS3505
ZBAA,1984-02-18 03:00,ZBAA 180300Z AUTO 07006KT 7SM 02/M24 A3045 RMK SLP319 T00251244 54000 IEM_DS3505
ZBAA,1984-02-18 04:00,ZBAA 180400Z AUTO 36008KT 7SM 03/M25 A3042 RMK T00301250 IEM_DS3505
ZBAA,1984-02-18 05:00,ZBAA 180500Z AUTO 35006KT 7SM 04/M19 A3036 RMK T00401190 IEM_DS3505
ZBAA,1984-02-18 06:00,ZBAA 180600Z AUTO 00000KT 7SM 05/M16 A3033 RMK SLP289 T00531160 4////1044 57030 IEM_DS3505
ZBAA,1984-02-18 07:00,ZBAA 180700Z AUTO 23004KT 7SM 06/M23 A3030 RMK T00601230 IEM_DS3505
ZBAA,1984-02-18 08:00,ZBAA 180800Z AUTO 24004KT 7SM 06/M24 A3030 RMK T00601240 IEM_DS3505
ZBAA,1984-02-18 09:00,ZBAA 180900Z AUTO 18008KT 7SM 05/M21 A3030 RMK SLP275 T00481210 57014 IEM_DS3505
ZBAA,1984-02-18 10:00,ZBAA 181000Z AUTO 17004KT 6SM 02/M23 A3030 RMK T00201230 IEM_DS3505
ZBAA,1984-02-18 12:00,ZBAA 181200Z AUTO 18004KT 5SM RMK SLP280 52004 IEM_DS3505
ZBAA,1984-02-18 15:00,ZBAA 181500Z AUTO 16006KT 6SM M01/M20 RMK SLP285 T10131200 52006 IEM_DS3505
ZBAA,1984-02-18 18:00,ZBAA 181800Z AUTO 04006KT 6SM M03/M15 RMK SLP287 T10341154 40058//// 52002 IEM_DS3505
ZBAA,1984-02-18 21:00,ZBAA 182100Z AUTO 36006KT 4SM M04/M12 RMK SLP271 T10351119 57016 IEM_DS3505
ZBAA,1984-02-19 00:00,ZBAA 190000Z AUTO 36004KT 5SM M04/M11 RMK SLP277 T10431114 52005 IEM_DS3505
ZBAA,1984-02-19 03:00,ZBAA 190300Z AUTO 09002KT 5SM 00/M10 RMK SLP274 T00011100 57002 IEM_DS3505
ZBAA,1984-02-19 06:00,ZBAA 190600Z AUTO 07002KT 5SM 05/M10 RMK SLP245 T00531105 4////1047 57029 IEM_DS3505
ZBAA,1984-02-19 09:00,ZBAA 190900Z AUTO 20006KT 5SM 06/M11 RMK SLP238 T00621114 57007 IEM_DS3505
ZBAA,1984-02-19 12:00,ZBAA 191200Z AUTO 00000KT 5SM 00/M09 RMK SLP251 T00001087 52012 IEM_DS3505
ZBAA,1984-02-19 15:00,ZBAA 191500Z AUTO 02006KT 5SM 00/M12 RMK SLP259 T00041124 52009 IEM_DS3505
ZBAA,1984-02-19 18:00,ZBAA 191800Z AUTO 00000KT 4SM M04/M10 RMK SLP271 T10391096 40067//// 52012 IEM_DS3505
ZBAA,1984-02-19 21:00,ZBAA 192100Z AUTO 00000KT 4SM M06/M11 RMK SLP264 T10561109 57007 IEM_DS3505
ZBAA,1984-02-20 00:00,ZBAA 200000Z AUTO 02004KT 4SM M00/M17 RMK SLP288 T10041167 52024 IEM_DS3505
ZBAA,1984-02-20 03:00,ZBAA 200300Z AUTO 11006KT 4SM 04/M15 RMK SLP299 T00361154 52011 IEM_DS3505
ZBAA,1984-02-20 06:00,ZBAA 200600Z AUTO 16006KT 4SM 06/M14 RMK SLP257 T00581141 4////1061 57042 IEM_DS3505
ZBAA,1984-02-20 09:00,ZBAA 200900Z AUTO 16006KT 4SM 05/M14 RMK SLP238 T00511135 57019 IEM_DS3505
ZBAA,1984-02-20 12:00,ZBAA 201200Z AUTO 16006KT 4SM 04/M13 RMK SLP249 T00351130 52011 IEM_DS3505
ZBAA,1984-02-20 15:00,ZBAA 201500Z AUTO 22004KT 4SM 01/M08 RMK SLP249 T00081079 54000 IEM_DS3505
ZBAA,1984-02-20 18:00,ZBAA 201800Z AUTO 07002KT 4SM M02/M08 RMK SLP244 T10241079 40060//// 57005 IEM_DS3505
ZBAA,1984-02-20 21:00,ZBAA 202100Z AUTO 02002KT 2 1/2SM M02/M10 RMK SLP241 T10241096 57003 IEM_DS3505
ZBAA,1984-02-21 00:00,ZBAA 210000Z AUTO 00000KT 2SM M04/M09 RMK SLP264 T10391087 52023 IEM_DS3505
ZBAA,1984-02-21 03:00,ZBAA 210300Z AUTO 04006KT 4SM 04/M12 RMK SLP265 T00381124 52001 IEM_DS3505
ZBAA,1984-02-21 05:00,ZBAA 210500Z AUTO 11008KT 6SM 06/M15 A3024 RMK T00601150 IEM_DS3505
ZBAA,1984-02-21 06:00,ZBAA 210600Z AUTO 07006KT 5SM 06/M15 A3021 RMK SLP250 T00561154 4////1040 57015 IEM_DS3505
ZBAA,1984-02-21 07:00,ZBAA 210700Z AUTO 14014KT 6SM 06/M21 A3021 RMK T00601210 IEM_DS3505
ZBAA,1984-02-21 08:00,ZBAA 210800Z AUTO 18012KT 6SM 06/M23 A3021 RMK T00601230 IEM_DS3505
ZBAA,1984-02-21 09:00,ZBAA 210900Z AUTO 16008KT 5SM 05/M12 A3021 RMK SLP251 T00491119 52001 IEM_DS3505
ZBAA,1984-02-21 12:00,ZBAA 211200Z AUTO 20008KT 5SM 03/M15 RMK SLP260 T00301154 52009 IEM_DS3505
ZBAA,1984-02-21 15:00,ZBAA 211500Z AUTO 18008KT 7SM 02/M16 RMK SLP271 T00231160 52012 IEM_DS3505
ZBAA,1984-02-21 18:00,ZBAA 211800Z AUTO 16006KT 9SM 01/M08 RMK SLP261 T00121079 40062//// 57010 IEM_DS3505
ZBAA,1984-02-21 21:00,ZBAA 212100Z AUTO 16002KT 4SM M01/M05 RMK SLP242 T10111048 57020 IEM_DS3505
ZBAA,1984-02-22 00:00,ZBAA 220000Z AUTO 00000KT 1SM M01/M04 RMK SLP241 T10101045 57001 IEM_DS3505
ZBAA,1984-02-22 03:00,ZBAA 220300Z AUTO 16006KT 4SM 00/M07 RMK SLP239 T00031072 57002 IEM_DS3505
ZBAA,1984-02-22 06:00,ZBAA 220600Z AUTO 00000KT 4SM 00/M08 RMK SLP212 T00051079 4////1017 57026 IEM_DS3505
ZBAA,1984-02-22 09:00,ZBAA 220900Z AUTO 20006KT 4SM M01/M04 RMK SLP216 T10111042 52003 IEM_DS3505
ZBAA,1984-02-22 12:00,ZBAA 221200Z AUTO 20006KT 4SM M02/M04 RMK SLP225 T10211045 52008 IEM_DS3505
ZBAA,1984-02-22 15:00,ZBAA 221500Z AUTO 00000KT 2SM M03/M05 RMK SLP229 T10321052 52004 IEM_DS3505
ZBAA,1984-02-22 18:00,ZBAA 221800Z AUTO 02004KT 4SM M02/M08 RMK SLP232 T10231076 40014//// 52003 IEM_DS3505
ZBAA,1984-02-22 21:00,ZBAA 222100Z AUTO 34006KT 5SM M01/M12 RMK SLP227 T10071119 57005 IEM_DS3505
ZBAA,1984-02-23 00:00,ZBAA 230000Z AUTO 02002KT 5SM M00/M16 RMK SLP251 T10051160 52023 IEM_DS3505
ZBAA,1984-02-23 03:00,ZBAA 230300Z AUTO 34008KT 7SM 02/M15 RMK SLP253 T00251147 52003 IEM_DS3505
ZBAA,1984-02-23 06:00,ZBAA 230600Z AUTO 34002KT 11SM 06/M19 RMK SLP236 T00571191 4////1044 57017 IEM_DS3505
ZBAA,1984-02-23 09:00,ZBAA 230900Z AUTO 36006KT 11SM 05/M18 RMK SLP231 T00471183 57005 IEM_DS3505
ZBAA,1984-02-23 12:00,ZBAA 231200Z AUTO 20004KT 7SM 02/M09 RMK SLP248 T00251092 52017 IEM_DS3505
ZBAA,1984-02-23 15:00,ZBAA 231500Z AUTO 36004KT 6SM M01/M10 RMK SLP261 T10131096 52013 IEM_DS3505
ZBAA,1984-02-23 18:00,ZBAA 231800Z AUTO 00000KT 6SM 01/M15 RMK SLP263 T00061147 40063//// 52003 IEM_DS3505
ZBAA,1984-02-23 21:00,ZBAA 232100Z AUTO 07004KT 5SM 01/M15 RMK SLP235 T00141154 57028 IEM_DS3505
ZBAA,1984-02-24 00:00,ZBAA 240000Z AUTO 36002KT 2 1/2SM 02/M14 RMK SLP288 T00171135 52052 IEM_DS3505
ZBAA,1984-02-24 03:00,ZBAA 240300Z AUTO 02010KT 2 1/2SM 04/M12 RMK SLP288 T00421119 54000 IEM_DS3505
ZBAA,1984-02-24 06:00,ZBAA 240600Z AUTO 02002KT 5SM 05/M13 RMK SLP263 T00541130 4////1013 57024 IEM_DS3505
ZBAA,1984-02-24 09:00,ZBAA 240900Z AUTO 00000KT 2SM 05/M10 RMK SLP265 T00481105 52002 IEM_DS3505
ZBAA,1984-02-24 12:00,ZBAA 241200Z AUTO 00000KT 3SM 02/M08 RMK SLP275 T00211076 52009 IEM_DS3505
ZBAA,1984-02-24 15:00,ZBAA 241500Z AUTO 14004KT 3SM 02/M08 RMK SLP282 T00151083 52007 IEM_DS3505
ZBAA,1984-02-24 18:00,ZBAA 241800Z AUTO 00000KT 3SM M00/M08 RMK SLP269 T10021076 40060//// 57013 IEM_DS3505
ZBAA,1984-02-24 21:00,ZBAA 242100Z AUTO 00000KT 2 1/2SM M02/M06 RMK SLP258 T10211055 57011 IEM_DS3505
ZBAA,1984-02-25 00:00,ZBAA 250000Z AUTO 00000KT 1 1/4SM M01/M05 RMK SLP270 T10121052 52012 IEM_DS3505
ZBAA,1984-02-25 01:00,ZBAA 250100Z AUTO 00000KT 2SM M02/M07 A3030 RMK T10201070 IEM_DS3505
ZBAA,1984-02-25 02:00,ZBAA 250200Z AUTO 00000KT 2SM M01/M06 A3030 RMK T10101060 IEM_DS3505
ZBAA,1984-02-25 03:00,ZBAA 250300Z AUTO 34006KT 4SM 04/M08 A3027 RMK SLP270 T00401079 54000 IEM_DS3505
ZBAA,1984-02-25 04:00,ZBAA 250400Z AUTO 31017KT 6SM 05/M16 A3027 RMK T00501160 IEM_DS3505
ZBAA,1984-02-25 05:00,ZBAA 250500Z AUTO 33016KT 6SM 05/M19 A3024 RMK T00501190 IEM_DS3505
ZBAA,1984-02-25 06:00,ZBAA 250600Z AUTO 32014KT 7SM 05/M19 RMK SLP259 T00471191 4////1023 57011 IEM_DS3505
ZBAA,1984-02-25 07:00,ZBAA 250700Z AUTO 27014KT 6SM 05/M17 A3021 RMK T00501170 IEM_DS3505
ZBAA,1984-02-25 08:00,ZBAA 250800Z AUTO 30017KT 6SM 05/M16 A3021 RMK T00501160 IEM_DS3505
ZBAA,1984-02-25 09:00,ZBAA 250900Z AUTO 34010KT 7SM 05/M19 A3021 RMK SLP254 T00471191 57005 IEM_DS3505
ZBAA,1984-02-25 12:00,ZBAA 251200Z AUTO 32016KT 4SM 03/M27 RMK SLP282 T00301274 52028 IEM_DS3505
ZBAA,1984-02-25 15:00,ZBAA 251500Z AUTO 34014KT 12SM 00/M29 RMK SLP299 T00001292 52017 IEM_DS3505
ZBAA,1984-02-25 18:00,ZBAA 251800Z AUTO 34016KT 7SM M02/M27 RMK SLP305 T10171274 52006 IEM_DS3505
ZBAA,1984-02-25 21:00,ZBAA 252100Z AUTO 29008KT 7SM M05/M27 RMK SLP300 T10461274 57005 IEM_DS3505
ZBAA,1984-02-26 00:00,ZBAA 260000Z AUTO 34014KT 12SM M04/M29 RMK SLP313 T10381292 52013 IEM_DS3505
ZBAA,1984-02-26 03:00,ZBAA 260300Z AUTO 34016KT 9SM M00/M31 RMK SLP312 T10051313 57001 IEM_DS3505
ZBAA,1984-02-26 06:00,ZBAA 260600Z AUTO 34014KT 12SM 01/M31 RMK SLP293 T00141313 4////1046 57019 IEM_DS3505
ZBAA,1984-02-26 09:00,ZBAA 260900Z AUTO 32012KT 12SM 02/M26 RMK SLP295 T00171258 52001 IEM_DS3505
ZBAA,1984-02-26 12:00,ZBAA 261200Z AUTO 32004KT 12SM M00/M26 RMK SLP312 T10041258 52017 IEM_DS3505
ZBAA,1984-02-26 15:00,ZBAA 261500Z AUTO 00000KT 12SM M05/M23 RMK SLP323 T10491231 52011 IEM_DS3505
ZBAA,1984-02-26 18:00,ZBAA 261800Z AUTO 34004KT 12SM M06/M20 RMK SLP327 T10611200 40019//// 52004 IEM_DS3505
ZBAA,1984-02-26 21:00,ZBAA 262100Z AUTO 04004KT 11SM M06/M26 RMK SLP332 T10641258 52005 IEM_DS3505
ZBAA,1984-02-27 00:00,ZBAA 270000Z AUTO 02004KT 6SM M06/M29 RMK SLP346 T10571292 52013 IEM_DS3505
ZBAA,1984-02-27 03:00,ZBAA 270300Z AUTO 36002KT 6SM M00/M23 RMK SLP340 T10041231 57005 IEM_DS3505
ZBAA,1984-02-27 06:00,ZBAA 270600Z AUTO 00000KT 6SM 03/M23 RMK SLP307 T00321231 4////1068 57033 IEM_DS3505
ZBAA,1984-02-27 09:00,ZBAA 270900Z AUTO 20010KT 7SM 03/M26 RMK SLP292 T00321258 57015 IEM_DS3505
ZBAA,1984-02-27 12:00,ZBAA 271200Z AUTO 20006KT 6SM 01/M21 RMK SLP297 T00061210 52005 IEM_DS3505
ZBAA,1984-02-27 15:00,ZBAA 271500Z AUTO 18002KT 5SM M00/M18 RMK SLP293 T10021183 57003 IEM_DS3505
ZBAA,1984-02-27 18:00,ZBAA 271800Z AUTO 36012KT 5SM M01/M23 RMK SLP307 T10071231 40046//// 52014 IEM_DS3505
ZBAA,1984-02-27 21:00,ZBAA 272100Z AUTO 36010KT 7SM M01/M18 RMK SLP309 T10111175 52002 IEM_DS3505
ZBAA,1984-02-28 00:00,ZBAA 280000Z AUTO 34014KT 19SM M03/M31 RMK SLP332 T10271313 52022 IEM_DS3505
ZBAA,1984-02-28 01:00,ZBAA 280100Z AUTO 34019G29KT 7SM M02/M30 A3045 RMK T10201300 IEM_DS3505
ZBAA,1984-02-28 02:00,ZBAA 280200Z AUTO 33025G39KT 7SM M02/M32 A3042 RMK T10201320 IEM_DS3505
ZBAA,1984-02-28 03:00,ZBAA 280300Z AUTO 32017KT 7SM M02/M24 A3045 RMK SLP330 T10191244 57002 IEM_DS3505
ZBAA,1984-02-28 04:00,ZBAA 280400Z AUTO 34021G35KT 7SM M01/M32 A3042 RMK T10101320 IEM_DS3505
ZBAA,1984-02-28 05:00,ZBAA 280500Z AUTO 34025G35KT 7SM M01/M28 A3042 RMK T10101280 IEM_DS3505
ZBAA,1984-02-28 06:00,ZBAA 280600Z AUTO 32017KT 7SM M00/M34 RMK SLP313 T10031339 4////1030 57016 IEM_DS3505
ZBAA,1984-02-28 07:00,ZBAA 280700Z AUTO 33021G31KT 7SM 00/M28 A3039 RMK T00001280 IEM_DS3505
ZBAA,1984-02-28 08:00,ZBAA 280800Z AUTO 31016G27KT 7SM 00/M25 A3036 RMK T00001250 IEM_DS3505
ZBAA,1984-02-28 09:00,ZBAA 280900Z AUTO 34008KT 6SM 00/M29 A3036 RMK SLP304 T00021292 57009 IEM_DS3505
ZBAA,1984-02-28 12:00,ZBAA 281200Z AUTO 32006KT 9SM M02/M29 RMK SLP311 T10151292 52006 IEM_DS3505
ZBAA,1984-02-28 15:00,ZBAA 281500Z AUTO 29006KT 12SM M02/M26 RMK SLP304 T10201258 57007 IEM_DS3505
ZBAA,1984-02-28 18:00,ZBAA 281800Z AUTO 18006KT 6SM M05/M22 RMK SLP291 T10481220 40007//// 57013 IEM_DS3505
ZBAA,1984-02-28 21:00,ZBAA 282100Z AUTO 20004KT 6SM M06/M21 RMK SLP264 T10621210 57027 IEM_DS3505
ZBAA,1984-02-29 00:00,ZBAA 290000Z AUTO 00000KT 4SM M06/M21 RMK SLP258 T10591210 57006 IEM_DS3505
ZBAA,1984-02-29 03:00,ZBAA 290300Z AUTO 20008KT 6SM 03/M34 RMK SLP236 T00271339 57021 IEM_DS3505
ZBAA,1984-02-29 06:00,ZBAA 290600Z AUTO 20006KT 7SM 06/M23 RMK SLP189 T00571231 4////1078 57046 IEM_DS3505
ZBAA,1984-02-29 09:00,ZBAA 290900Z AUTO 20006KT 7SM 06/M26 RMK SLP170 T00551258 57019 IEM_DS3505
ZBAA,1984-02-29 12:00,ZBAA 291200Z AUTO 32010KT 7SM 04/M22 RMK SLP183 T00381220 52012 IEM_DS3505
ZBAA,1984-02-29 15:00,ZBAA 291500Z AUTO 32012KT 12SM 03/M27 RMK SLP193 T00281274 52011 IEM_DS3505
ZBAA,1984-02-29 18:00,ZBAA 291800Z AUTO 34004KT 12SM 00/M20 RMK SLP180 T00051200 40067//// 57012 IEM_DS3505
ZBAA,1984-02-29 21:00,ZBAA 292100Z AUTO 36002KT 9SM M01/M18 RMK SLP173 T10121183 57008 IEM_DS3505
ZBAA,1984-03-01 00:00,ZBAA 010000Z AUTO 34002KT 7SM M01/M13 RMK SLP197 T10081130 52024 IEM_DS3505
ZBAA,1984-03-01 03:00,ZBAA 010300Z AUTO 34012KT 16SM 03/M18 RMK SLP208 T00271183 52011 IEM_DS3505
ZBAA,1984-03-01 06:00,ZBAA 010600Z AUTO 32010KT 19SM 04/M26 RMK SLP196 T00441258 4////1021 57012 IEM_DS3505
ZBAA,1984-03-01 09:00,ZBAA 010900Z AUTO 29017KT 19SM 04/M19 RMK SLP192 T00431191 57004 IEM_DS3505
ZBAA,1984-03-01 12:00,ZBAA 011200Z AUTO 29006KT 16SM 03/M19 RMK SLP198 T00321191 52006 IEM_DS3505
ZBAA,1984-03-01 15:00,ZBAA 011500Z AUTO 29004KT 16SM 00/M07 RMK SLP192 T00041068 57006 IEM_DS3505
ZBAA,1984-03-01 18:00,ZBAA 011800Z AUTO 16004KT 12SM M00/M06 RMK SLP188 T10031065 40056//// 57004 IEM_DS3505
ZBAA,1984-03-01 21:00,ZBAA 012100Z AUTO 34002KT 9SM M04/M07 RMK SLP180 T10361068 57008 IEM_DS3505
ZBAA,1984-03-02 00:00,ZBAA 020000Z AUTO 02012KT 16SM 00/M15 RMK SLP216 T00011147 52036 IEM_DS3505
ZBAA,1984-03-02 03:00,ZBAA 020300Z AUTO 36017KT 6SM 02/M23 RMK SLP240 T00231231 52023 IEM_DS3505
ZBAA,1984-03-02 06:00,ZBAA 020600Z AUTO 36017KT 16SM 04/M23 RMK SLP242 T00411231 4////1040 52002 IEM_DS3505
ZBAA,1984-03-02 09:00,ZBAA 020900Z AUTO 32017KT 12SM 03/M24 RMK SLP256 T00311244 52014 IEM_DS3505
ZBAA,1984-03-02 12:00,ZBAA 021200Z AUTO 32017KT 9SM 01/M20 RMK SLP281 T00081200 52025 IEM_DS3505
ZBAA,1984-03-02 15:00,ZBAA 021500Z AUTO 32004KT 6SM M00/M20 RMK SLP294 T10031200 52013 IEM_DS3505
ZBAA,1984-03-02 18:00,ZBAA 021800Z AUTO 32004KT 7SM M01/M20 RMK SLP290 T10091200 40050//// 57004 IEM_DS3505
ZBAA,1984-03-02 21:00,ZBAA 022100Z AUTO 29004KT 6SM M02/M18 RMK SLP274 T10171183 57016 IEM_DS3505
ZBAA,1984-03-03 00:00,ZBAA 030000Z AUTO 25004KT 12SM M01/M22 RMK SLP291 T10141220 52017 IEM_DS3505
ZBAA,1984-03-03 03:00,ZBAA 030300Z AUTO 34012KT 16SM 04/M24 A3030 RMK SLP286 T00371244 57005 IEM_DS3505
ZBAA,1984-03-03 04:00,ZBAA 030400Z AUTO 29012KT 7SM 04/M22 A3030 RMK T00401220 IEM_DS3505
ZBAA,1984-03-03 05:00,ZBAA 030500Z AUTO 29016KT 7SM 05/M35 A3027 RMK T00501350 IEM_DS3505
ZBAA,1984-03-03 06:00,ZBAA 030600Z AUTO 32010KT 19SM 06/M29 A3024 RMK SLP261 T00551292 4////1044 57025 IEM_DS3505
ZBAA,1984-03-03 07:00,ZBAA 030700Z AUTO 32016KT 7SM 07/M30 A3021 RMK T00701300 IEM_DS3505
ZBAA,1984-03-03 08:00,ZBAA 030800Z AUTO 34017KT 7SM 06/M32 A3021 RMK T00601320 IEM_DS3505
ZBAA,1984-03-03 09:00,ZBAA 030900Z AUTO 32006KT 19SM 06/M27 A3021 RMK SLP254 T00631274 57007 IEM_DS3505
ZBAA,1984-03-03 10:00,ZBAA 031000Z AUTO 35008KT 7SM 04/M27 A3024 RMK T00401270 IEM_DS3505
ZBAA,1984-03-03 12:00,ZBAA 031200Z AUTO 36004KT 12SM 02/M18 RMK SLP263 T00251175 52009 IEM_DS3505
ZBAA,1984-03-03 15:00,ZBAA 031500Z AUTO 09002KT 7SM M01/M14 RMK SLP274 T10091141 52011 IEM_DS3505
ZBAA,1984-03-03 18:00,ZBAA 031800Z AUTO 34002KT 6SM M04/M17 RMK SLP268 T10421167 40067//// 57006 IEM_DS3505
ZBAA,1984-03-03 21:00,ZBAA 032100Z AUTO 36004KT 5SM M03/M12 RMK SLP257 T10281124 57011 IEM_DS3505
ZBAA,1984-03-04 00:00,ZBAA 040000Z AUTO 36002KT 2 1/2SM M02/M16 RMK SLP259 T10151160 52002 IEM_DS3505
ZBAA,1984-03-04 03:00,ZBAA 040300Z AUTO 36010KT 6SM 01/M19 RMK SLP257 T00141191 57002 IEM_DS3505
ZBAA,1984-03-04 06:00,ZBAA 040600Z AUTO 02006KT 12SM 04/M21 RMK SLP240 T00431210 4////1045 57017 IEM_DS3505
ZBAA,1984-03-04 09:00,ZBAA 040900Z AUTO 02008KT 11SM 05/M17 RMK SLP237 T00521167 57003 IEM_DS3505
ZBAA,1984-03-04 12:00,ZBAA 041200Z AUTO 02006KT 12SM 02/M11 RMK SLP261 T00241109 52024 IEM_DS3505
ZBAA,1984-03-04 15:00,ZBAA 041500Z AUTO 02016KT 12SM 00/M22 RMK SLP277 T00051220 52016 IEM_DS3505
ZBAA,1984-03-04 18:00,ZBAA 041800Z AUTO 36010KT 12SM M02/M18 RMK SLP286 T10181175 40057//// 52009 IEM_DS3505
ZBAA,1984-03-04 21:00,ZBAA 042100Z AUTO 36006KT 12SM M03/M18 RMK SLP279 T10281175 57007 IEM_DS3505
ZBAA,1984-03-05 00:00,ZBAA 050000Z AUTO 36004KT 6SM M02/M19 RMK SLP288 T10251191 52009 IEM_DS3505
ZBAA,1984-03-05 03:00,ZBAA 050300Z AUTO 34008KT 19SM 02/M19 RMK SLP291 T00231191 52003 IEM_DS3505
ZBAA,1984-03-05 06:00,ZBAA 050600Z AUTO 34010KT 19SM 05/M18 RMK SLP263 T00461183 4////1047 57028 IEM_DS3505
ZBAA,1984-03-05 09:00,ZBAA 050900Z AUTO 34006KT 19SM 06/M18 RMK SLP255 T00571175 57008 IEM_DS3505
ZBAA,1984-03-05 12:00,ZBAA 051200Z AUTO 18006KT 16SM 03/M18 RMK SLP278 T00311175 52023 IEM_DS3505
ZBAA,1984-03-05 15:00,ZBAA 051500Z AUTO 29002KT 9SM M01/M17 RMK SLP294 T10131167 52016 IEM_DS3505
ZBAA,1984-03-05 18:00,ZBAA 051800Z AUTO 34002KT 11SM M03/M14 RMK SLP294 T10281135 40063//// 54000 IEM_DS3505
ZBAA,1984-03-05 21:00,ZBAA 052100Z AUTO 00000KT 11SM M03/M15 RMK SLP293 T10321147 57001 IEM_DS3505
ZBAA,1984-03-06 00:00,ZBAA 060000Z AUTO 02002KT 5SM M02/M14 RMK SLP306 T10171141 52013 IEM_DS3505
ZBAA,1984-03-06 03:00,ZBAA 060300Z AUTO 00000KT 5SM 04/M15 A3039 RMK SLP303 T00381154 57003 IEM_DS3505
ZBAA,1984-03-06 04:00,ZBAA 060400Z AUTO 00000KT 7SM 05/M17 A3036 RMK T00501170 IEM_DS3505
ZBAA,1984-03-06 05:00,ZBAA 060500Z AUTO 21010KT 7SM 06/M20 A3033 RMK T00601200 IEM_DS3505
ZBAA,1984-03-06 06:00,ZBAA 060600Z AUTO 16002KT 6SM 06/M14 RMK SLP275 T00651141 4////1044 57028 IEM_DS3505
ZBAA,1984-03-06 07:00,ZBAA 060700Z AUTO 21006KT 7SM 08/M19 A3027 RMK T00801190 IEM_DS3505
ZBAA,1984-03-06 08:00,ZBAA 060800Z AUTO 25010KT 7SM 08/M21 A3024 RMK T00801210 IEM_DS3505
ZBAA,1984-03-06 09:00,ZBAA 060900Z AUTO 18006KT 6SM 04/M15 RMK SLP270 T00411154 52008 IEM_DS3505
ZBAA,1984-03-06 15:00,ZBAA 061500Z AUTO 20004KT 4SM 02/M15 RMK SLP273 T00171154 52003 IEM_DS3505
ZBAA,1984-03-06 18:00,ZBAA 061800Z AUTO 29002KT 4SM M02/M12 RMK SLP275 T10241119 40076//// 52002 IEM_DS3505
ZBAA,1984-03-07 00:00,ZBAA 070000Z AUTO 34004KT 9SM 00/M14 RMK SLP280 T00001135 52012 IEM_DS3505
ZBAA,1984-03-07 03:00,ZBAA 070300Z AUTO 32014KT 16SM 06/M23 RMK SLP277 T00641231 57002 IEM_DS3505
ZBAA,1984-03-07 06:00,ZBAA 070600Z AUTO 34012KT 16SM 08/M27 RMK SLP251 T00821274 4////1039 57027 IEM_DS3505
ZBAA,1984-03-07 09:00,ZBAA 070900Z AUTO 32006KT 9SM 09/M20 RMK SLP232 T00911200 57018 IEM_DS3505
ZBAA,1984-03-07 12:00,ZBAA 071200Z AUTO 22004KT 9SM 05/M18 RMK SLP234 T00481175 52001 IEM_DS3505
ZBAA,1984-03-07 15:00,ZBAA 071500Z AUTO 25004KT 7SM 02/M15 RMK SLP247 T00211147 52014 IEM_DS3505
ZBAA,1984-03-07 18:00,ZBAA 071800Z AUTO 00000KT 6SM M01/M13 RMK SLP244 T10111130 40097//// 57003 IEM_DS3505
ZBAA,1984-03-07 21:00,ZBAA 072100Z AUTO 02002KT 5SM 00/M16 RMK T00001160 57011 IEM_DS3505
ZBAA,1984-03-08 00:00,ZBAA 080000Z AUTO 04004KT 2 1/2SM 01/M19 RMK SLP232 T00131191 57001 IEM_DS3505
ZBAA,1984-03-08 03:00,ZBAA 080300Z AUTO 02006KT 2SM 03/M18 RMK SLP222 T00341175 57011 IEM_DS3505
ZBAA,1984-03-08 06:00,ZBAA 080600Z AUTO 34006KT 4SM 05/M11 RMK SLP194 T00541109 4////1020 57027 IEM_DS3505
ZBAA,1984-03-08 09:00,ZBAA 080900Z AUTO 36006KT 4SM 10/07 RMK SLP158 T00980071 57011 IEM_DS3505
ZBAA,1984-03-08 12:00,ZBAA 081200Z AUTO 36006KT 4SM 02/M03 RMK SLP202 T00211026 52020 IEM_DS3505
ZBAA,1984-03-08 15:00,ZBAA 081500Z AUTO 36008KT 6SM 02/M06 RMK SLP210 T00221055 52008 IEM_DS3505
ZBAA,1984-03-08 18:00,ZBAA 081800Z AUTO 24008KT 6SM M00/M19 RMK SLP226 T10011191 52015 IEM_DS3505
ZBAA,1984-03-08 21:00,ZBAA 082100Z AUTO 34008KT 12SM M02/M17 RMK SLP227 T10181167 52001 IEM_DS3505
ZBAA,1984-03-09 00:00,ZBAA 090000Z AUTO 32004KT 7SM M03/M17 RMK SLP242 T10281167 52015 IEM_DS3505
ZBAA,1984-03-09 03:00,ZBAA 090300Z AUTO 32012KT 9SM 02/M26 RMK SLP235 T00221258 57007 IEM_DS3505
ZBAA,1984-03-09 06:00,ZBAA 090600Z AUTO 29016KT 9SM 04/M24 RMK SLP214 T00431244 4////1035 57020 IEM_DS3505
ZBAA,1984-03-09 09:00,ZBAA 090900Z AUTO 32016KT 12SM 04/M26 RMK SLP210 T00441258 57004 IEM_DS3505
ZBAA,1984-03-09 12:00,ZBAA 091200Z AUTO 36008KT 16SM 01/M20 RMK SLP230 T00121200 52019 IEM_DS3505
ZBAA,1984-03-09 15:00,ZBAA 091500Z AUTO 00000KT 16SM M02/M15 RMK SLP231 T10231154 52001 IEM_DS3505
ZBAA,1984-03-09 18:00,ZBAA 091800Z AUTO 22002KT 12SM M05/M13 RMK SLP222 T10471130 40053//// 57009 IEM_DS3505
ZBAA,1984-03-09 21:00,ZBAA 092100Z AUTO 00000KT 12SM M04/M16 RMK T10371160 57013 IEM_DS3505
ZBAA,1984-03-10 00:00,ZBAA 100000Z AUTO 04002KT 4SM 05/M12 RMK SLP186 T00481124 57019 IEM_DS3505
ZBAA,1984-03-10 03:00,ZBAA 100300Z AUTO 04002KT 4SM 05/M12 A3006 RMK SLP186 T00481124 57019 IEM_DS3505
ZBAA,1984-03-10 04:00,ZBAA 100400Z AUTO 32010KT 6SM 05/M18 A3000 RMK T00501180 IEM_DS3505
ZBAA,1984-03-10 05:00,ZBAA 100500Z AUTO 27016KT 6SM 06/M17 A2997 RMK T00601170 IEM_DS3505
ZBAA,1984-03-10 06:00,ZBAA 100600Z AUTO 22008KT 9SM 07/M20 A2991 RMK SLP150 T00711200 4////1058 57036 IEM_DS3505
ZBAA,1984-03-10 07:00,ZBAA 100700Z AUTO 24014KT 6SM 07/M22 A2991 RMK T00701220 IEM_DS3505
ZBAA,1984-03-10 09:00,ZBAA 100900Z AUTO 22006KT 7SM 07/M17 A2985 RMK SLP131 T00711167 57019 IEM_DS3505
ZBAA,1984-03-10 12:00,ZBAA 101200Z AUTO 00000KT 7SM 04/M10 RMK SLP132 T00431100 52001 IEM_DS3505
ZBAA,1984-03-10 15:00,ZBAA 101500Z AUTO 04002KT 2 1/2SM 01/M10 RMK SLP127 T00071105 57005 IEM_DS3505
ZBAA,1984-03-10 18:00,ZBAA 101800Z AUTO 36002KT 2SM 00/M14 RMK SLP109 T00051135 40079//// 57017 IEM_DS3505
ZBAA,1984-03-10 21:00,ZBAA 102100Z AUTO 02004KT 2SM M01/M14 RMK SLP089 T10121135 57020 IEM_DS3505
ZBAA,1984-03-11 00:00,ZBAA 110000Z AUTO 36006KT 2 1/2SM 00/M12 RMK SLP103 T00041124 52014 IEM_DS3505
ZBAA,1984-03-11 03:00,ZBAA 110300Z AUTO 36004KT 5SM 08/M12 RMK SLP102 T00791124 57001 IEM_DS3505
ZBAA,1984-03-11 06:00,ZBAA 110600Z AUTO 34017KT 9SM 12/M20 RMK SLP084 T01211200 4////1022 57017 IEM_DS3505
ZBAA,1984-03-11 09:00,ZBAA 110900Z AUTO 34010KT 12SM 12/M17 RMK SLP094 T01171167 52010 IEM_DS3505
ZBAA,1984-03-11 12:00,ZBAA 111200Z AUTO 02004KT 9SM 08/M14 RMK SLP136 T00761135 52041 IEM_DS3505
ZBAA,1984-03-11 15:00,ZBAA 111500Z AUTO 09004KT 7SM 04/M07 RMK SLP182 T00361072 52046 IEM_DS3505
ZBAA,1984-03-11 18:00,ZBAA 111800Z AUTO 00000KT 7SM 01/M10 RMK SLP203 T00061096 40128//// 52021 IEM_DS3505
ZBAA,1984-03-11 21:00,ZBAA 112100Z AUTO 00000KT 5SM M02/M07 RMK SLP210 T10241072 52007 IEM_DS3505
ZBAA,1984-03-12 00:00,ZBAA 120000Z AUTO 00000KT 1 1/4SM M00/M08 RMK SLP234 T10021083 52023 IEM_DS3505
ZBAA,1984-03-12 03:00,ZBAA 120300Z AUTO 00000KT 4SM 06/M12 RMK SLP235 T00591124 52001 IEM_DS3505
ZBAA,1984-03-12 06:00,ZBAA 120600Z AUTO 36002KT 7SM 08/M18 RMK SLP205 T00821175 4////1038 57029 IEM_DS3505
ZBAA,1984-03-12 09:00,ZBAA 120900Z AUTO 20006KT 6SM 08/M17 RMK SLP198 T00811167 57008 IEM_DS3505
ZBAA,1984-03-12 12:00,ZBAA 121200Z AUTO 18006KT 4SM 06/M11 RMK SLP205 T00611114 52012 IEM_DS3505
ZBAA,1984-03-12 15:00,ZBAA 121500Z AUTO 20006KT 4SM 05/M10 RMK SLP217 T00461105 52008 IEM_DS3505
ZBAA,1984-03-12 18:00,ZBAA 121800Z AUTO 20008KT 5SM 04/M11 RMK SLP213 T00361114 40092//// 57004 IEM_DS3505
ZBAA,1984-03-12 21:00,ZBAA 122100Z AUTO 18002KT 5SM 02/M10 RMK SLP202 T00161096 57011 IEM_DS3505
ZBAA,1984-03-13 00:00,ZBAA 130000Z AUTO 16004KT 2 1/2SM 02/M10 RMK SLP210 T00161096 52008 IEM_DS3505
ZBAA,1984-03-13 03:00,ZBAA 130300Z AUTO 00000KT 2SM 03/M08 RMK SLP210 T00271079 54000 IEM_DS3505
ZBAA,1984-03-13 05:00,ZBAA 130500Z AUTO 15008KT 6SM 04/M17 A3006 RMK T00401170 IEM_DS3505
ZBAA,1984-03-13 06:00,ZBAA 130600Z AUTO 14006KT 5SM 05/M12 A3003 RMK SLP184 T00461119 4////0004 57026 IEM_DS3505
ZBAA,1984-03-13 07:00,ZBAA 130700Z AUTO 13006KT 6SM 05/M12 A3003 RMK T00501120 IEM_DS3505
ZBAA,1984-03-13 08:00,ZBAA 130800Z AUTO 14004KT 6SM 04/M09 A3003 RMK T00401090 IEM_DS3505
ZBAA,1984-03-13 09:00,ZBAA 130900Z AUTO 20006KT 5SM 04/M10 A3003 RMK SLP184 T00381105 57001 IEM_DS3505
ZBAA,1984-03-13 10:00,ZBAA 131000Z AUTO 00000KT 6SM 04/M08 A3003 RMK T00401080 IEM_DS3505
ZBAA,1984-03-13 12:00,ZBAA 131200Z AUTO 25008KT 5SM 01/M02 RMK SLP199 T00131023 52015 IEM_DS3505
ZBAA,1984-03-13 15:00,ZBAA 131500Z AUTO 00000KT 1 1/4SM 00/M01 RMK SLP200 T00021008 52001 IEM_DS3505
ZBAA,1984-03-13 18:00,ZBAA 131800Z AUTO 20002KT 4SM 00/ RMK 60008 SLP192 57008 IEM_DS3505
ZBAA,1984-03-13 21:00,ZBAA 132100Z AUTO 28004KT 4SM 00/M02 RMK SLP183 T00011018 57009 IEM_DS3505
ZBAA,1984-03-14 00:00,ZBAA 140000Z AUTO 18006KT 1 1/4SM 00/M02 RMK SLP184 T00021020 52001 IEM_DS3505
ZBAA,1984-03-14 03:00,ZBAA 140300Z AUTO 22002KT 3SM 01/M02 RMK SLP183 T00111018 57001 IEM_DS3505
ZBAA,1984-03-14 06:00,ZBAA 140600Z AUTO 18004KT 3SM 04/M02 RMK SLP165 T00421018 4////1003 57018 IEM_DS3505
ZBAA,1984-03-14 09:00,ZBAA 140900Z AUTO 18012KT 3SM 06/M03 RMK SLP151 T00571028 57014 IEM_DS3505
ZBAA,1984-03-14 12:00,ZBAA 141200Z AUTO 18010KT 4SM 03/M01 RMK SLP157 T00271013 52006 IEM_DS3505
ZBAA,1984-03-14 15:00,ZBAA 141500Z AUTO 16006KT 2 1/2SM 02/M01 RMK SLP161 T00171008 52004 IEM_DS3505
ZBAA,1984-03-14 18:00,ZBAA 141800Z AUTO 20002KT 2 1/2SM 01/M01 RMK SLP149 T00081010 40062//// 57012 IEM_DS3505
ZBAA,1984-03-14 21:00,ZBAA 142100Z AUTO 00000KT 2SM 01/M01 RMK SLP137 T00081008 57011 IEM_DS3505
ZBAA,1984-03-15 00:00,ZBAA 150000Z AUTO 00000KT 2SM 03/M01 RMK SLP121 T00281013 57012 IEM_DS3505
ZBAA,1984-03-15 06:00,ZBAA 150600Z AUTO 36006KT 2SM 05/M01 RMK SLP099 T00471008 4////0006 57021 IEM_DS3505
ZBAA,1984-03-15 09:00,ZBAA 150900Z AUTO 04004KT 2SM 05/M01 RMK SLP099 T00501008 54000 IEM_DS3505
ZBAA,1984-03-15 12:00,ZBAA 151200Z AUTO 29027KT 2SM 08/M17 RMK SLP134 T00841167 52035 IEM_DS3505
ZBAA,1984-03-15 15:00,ZBAA 151500Z AUTO 32014KT 6SM 06/M15 RMK SLP165 T00611154 52031 IEM_DS3505
ZBAA,1984-03-15 18:00,ZBAA 151800Z AUTO 32010KT 12SM 04/M18 RMK SLP180 T00391175 40097//// 52015 IEM_DS3505
ZBAA,1984-03-15 21:00,ZBAA 152100Z AUTO 34017KT 12SM 03/M26 RMK SLP187 T00321258 52007 IEM_DS3505
ZBAA,1984-03-16 00:00,ZBAA 160000Z AUTO 34010KT 19SM 03/M20 RMK SLP204 T00331200 52017 IEM_DS3505
ZBAA,1984-03-16 03:00,ZBAA 160300Z AUTO 34010KT 19SM 07/M21 RMK SLP209 T00711210 52005 IEM_DS3505
ZBAA,1984-03-16 06:00,ZBAA 160600Z AUTO 32008KT 19SM 09/M23 RMK SLP181 T00941231 4////0020 57028 IEM_DS3505
ZBAA,1984-03-16 09:00,ZBAA 160900Z AUTO 32010KT 19SM 11/M19 RMK SLP165 T01061191 57016 IEM_DS3505
ZBAA,1984-03-16 12:00,ZBAA 161200Z AUTO 25002KT 16SM 05/M11 RMK SLP172 T00491114 52007 IEM_DS3505
ZBAA,1984-03-16 15:00,ZBAA 161500Z AUTO 11002KT 9SM 01/M10 RMK SLP174 T00141100 52002 IEM_DS3505
ZBAA,1984-03-16 18:00,ZBAA 161800Z AUTO 02002KT 6SM 02/M14 RMK SLP170 T00201141 40113//// 57004 IEM_DS3505
ZBAA,1984-03-16 21:00,ZBAA 162100Z AUTO 02004KT 6SM 02/M17 RMK SLP159 T00201167 57011 IEM_DS3505
ZBAA,1984-03-17 00:00,ZBAA 170000Z AUTO 02004KT 4SM 01/M14 RMK SLP168 T00071141 52008 IEM_DS3505
ZBAA,1984-03-17 03:00,ZBAA 170300Z AUTO 02006KT 2 1/2SM 06/M13 RMK SLP167 T00561130 54000 IEM_DS3505
ZBAA,1984-03-17 06:00,ZBAA 170600Z AUTO 16004KT 4SM 11/M10 A2988 RMK SLP133 T01081096 4////1012 57034 IEM_DS3505
ZBAA,1984-03-17 07:00,ZBAA 170700Z AUTO 13014KT 7SM 11/M12 A2985 RMK T01101120 IEM_DS3505
ZBAA,1984-03-17 08:00,ZBAA 170800Z AUTO 14014KT 7SM 10/M12 A2985 RMK T01001120 IEM_DS3505
ZBAA,1984-03-17 09:00,ZBAA 170900Z AUTO 11014KT 4SM 09/M11 A2985 RMK SLP125 T00871114 57008 IEM_DS3505
ZBAA,1984-03-17 12:00,ZBAA 171200Z AUTO 16008KT 4SM 04/M12 RMK SLP160 T00421124 52034 IEM_DS3505
ZBAA,1984-03-17 15:00,ZBAA 171500Z AUTO 09008KT 4SM 02/M19 RMK SLP170 T00151191 52011 IEM_DS3505
ZBAA,1984-03-17 18:00,ZBAA 171800Z AUTO 00000KT 5SM 00/M15 RMK SLP163 T00051147 57007 IEM_DS3505
ZBAA,1984-03-17 21:00,ZBAA 172100Z AUTO 00000KT 5SM 00/M12 RMK SLP160 T00001124 57003 IEM_DS3505
ZBAA,1984-03-18 00:00,ZBAA 180000Z AUTO 34004KT 4SM 01/M11 RMK SLP172 T00081114 52011 IEM_DS3505
ZBAA,1984-03-18 03:00,ZBAA 180300Z AUTO 02006KT 6SM 05/M11 RMK SLP181 T00531114 52010 IEM_DS3505
ZBAA,1984-03-18 06:00,ZBAA 180600Z AUTO 07004KT 6SM 10/M10 RMK SLP159 T01051096 4////1015 57022 IEM_DS3505
ZBAA,1984-03-18 09:00,ZBAA 180900Z AUTO 14006KT 6SM 11/M09 RMK SLP166 T01081092 52007 IEM_DS3505
ZBAA,1984-03-18 12:00,ZBAA 181200Z AUTO 14006KT 5SM 06/M05 RMK SLP208 T00611048 52042 IEM_DS3505
ZBAA,1984-03-18 15:00,ZBAA 181500Z AUTO 11002KT 4SM 02/M04 RMK SLP249 T00231045 52040 IEM_DS3505
ZBAA,1984-03-18 18:00,ZBAA 181800Z AUTO 20002KT 4SM 00/M06 RMK SLP256 T00031058 40118//// 52007 IEM_DS3505
ZBAA,1984-03-18 21:00,ZBAA 182100Z AUTO 00000KT 4SM M00/M07 RMK SLP254 T10041072 57002 IEM_DS3505
ZBAA,1984-03-19 00:00,ZBAA 190000Z AUTO 16004KT 2SM 06/M07 RMK SLP248 T00641068 57012 IEM_DS3505
ZBAA,1984-03-19 06:00,ZBAA 190600Z AUTO 20008KT 4SM 09/M06 RMK SLP211 T00931065 4////1034 57036 IEM_DS3505
ZBAA,1984-03-19 09:00,ZBAA 190900Z AUTO 20017KT 5SM 10/M08 RMK SLP188 T00961083 57023 IEM_DS3505
ZBAA,1984-03-19 12:00,ZBAA 191200Z AUTO 18016KT 9SM 08/M08 RMK SLP183 T00831076 57005 IEM_DS3505
ZBAA,1984-03-19 15:00,ZBAA 191500Z AUTO 22010KT 12SM 07/M04 RMK SLP188 T00661045 52005 IEM_DS3505
ZBAA,1984-03-19 18:00,ZBAA 191800Z AUTO 32017KT 9SM 06/M09 RMK SLP182 T00561087 40108//// 57005 IEM_DS3505
ZBAA,1984-03-19 21:00,ZBAA 192100Z AUTO 32016KT 7SM M00/M24 RMK SLP214 T10051244 52031 IEM_DS3505
ZBAA,1984-03-20 00:00,ZBAA 200000Z AUTO 34025KT 5SM M02/M29 RMK SLP240 T10231292 52026 IEM_DS3505
ZBAA,1984-03-20 02:00,ZBAA 200200Z AUTO 33023G37KT 7SM 01/M24 A3021 RMK T00101240 IEM_DS3505
ZBAA,1984-03-20 03:00,ZBAA 200300Z AUTO 34023KT 4SM 02/M27 A3024 RMK SLP262 T00181274 52022 IEM_DS3505
ZBAA,1984-03-20 05:00,ZBAA 200500Z AUTO 02019KT 6SM RMK IEM_DS3505
ZBAA,1984-03-20 06:00,ZBAA 200600Z AUTO 34019KT 5SM 05/M26 A3033 RMK SLP289 T00481258 4////1027 52027 IEM_DS3505
ZBAA,1984-03-20 07:00,ZBAA 200700Z AUTO 36012KT 6SM 06/M17 A3033 RMK T00601170 IEM_DS3505
ZBAA,1984-03-20 08:00,ZBAA 200800Z AUTO 20012KT 6SM 06/M17 A3033 RMK T00601170 IEM_DS3505
ZBAA,1984-03-20 09:00,ZBAA 200900Z AUTO 32014KT 6SM 06/M20 A3036 RMK SLP302 T00561200 52012 IEM_DS3505
ZBAA,1984-03-20 12:00,ZBAA 201200Z AUTO 34012KT 12SM 03/M22 RMK SLP332 T00281220 52029 IEM_DS3505
ZBAA,1984-03-20 15:00,ZBAA 201500Z AUTO 34010KT 19SM 01/M18 RMK SLP353 T00081183 52002 IEM_DS3505
ZBAA,1984-03-20 18:00,ZBAA 201800Z AUTO 36006KT 19SM M00/M20 RMK SLP359 T10051200 40065//// 52006 IEM_DS3505
ZBAA,1984-03-20 21:00,ZBAA 202100Z AUTO 02006KT 19SM M02/M18 RMK SLP355 T10201175 57004 IEM_DS3505
ZBAA,1984-03-21 00:00,ZBAA 210000Z AUTO 02004KT 6SM M01/M21 RMK SLP351 T10081210 57004 IEM_DS3505
ZBAA,1984-03-21 03:00,ZBAA 210300Z AUTO 16004KT 6SM 04/M19 RMK SLP323 T00381191 57028 IEM_DS3505
ZBAA,1984-03-21 06:00,ZBAA 210600Z AUTO 20014KT 7SM 05/M17 RMK SLP278 T00511167 4////1046 57045 IEM_DS3505
ZBAA,1984-03-21 09:00,ZBAA 210900Z AUTO 20008KT 7SM 06/M15 RMK SLP244 T00551154 57034 IEM_DS3505
ZBAA,1984-03-21 12:00,ZBAA 211200Z AUTO 16006KT 6SM 05/M10 RMK SLP236 T00541100 57008 IEM_DS3505
ZBAA,1984-03-21 15:00,ZBAA 211500Z AUTO 18006KT 6SM 04/M10 RMK SLP225 T00371100 57010 IEM_DS3505
ZBAA,1984-03-21 18:00,ZBAA 211800Z AUTO 34002KT 6SM M00/M08 RMK SLP210 T10041079 40059//// 57015 IEM_DS3505
ZBAA,1984-03-21 21:00,ZBAA 212100Z AUTO 02002KT 4SM M01/M06 RMK SLP192 T10081065 57018 IEM_DS3505
ZBAA,1984-03-22 00:00,ZBAA 220000Z AUTO 04004KT 2 1/2SM 00/M08 RMK SLP193 T00041076 52001 IEM_DS3505
ZBAA,1984-03-22 03:00,ZBAA 220300Z AUTO 02004KT 4SM 05/M07 RMK SLP189 T00511072 57003 IEM_DS3505
ZBAA,1984-03-22 06:00,ZBAA 220600Z AUTO 16004KT 4SM 10/M08 RMK SLP165 T00981079 4////1012 57024 IEM_DS3505
ZBAA,1984-03-22 09:00,ZBAA 220900Z AUTO 18006KT 5SM 10/M07 RMK SLP158 T00971072 57007 IEM_DS3505
ZBAA,1984-03-22 12:00,ZBAA 221200Z AUTO 00000KT 3SM 06/M04 RMK SLP174 T00641037 52016 IEM_DS3505
ZBAA,1984-03-22 15:00,ZBAA 221500Z AUTO 00000KT 2 1/2SM 03/M03 RMK SLP180 T00341034 52006 IEM_DS3505
ZBAA,1984-03-22 18:00,ZBAA 221800Z AUTO 02004KT 4SM 06/M04 RMK SLP183 T00581037 40103//// 52004 IEM_DS3505
ZBAA,1984-03-22 21:00,ZBAA 222100Z AUTO 34004KT 4SM 04/M03 RMK SLP185 T00441034 52002 IEM_DS3505
ZBAA,1984-03-23 00:00,ZBAA 230000Z AUTO 34012KT 5SM 07/M03 RMK SLP198 T00661026 52012 IEM_DS3505
ZBAA,1984-03-23 03:00,ZBAA 230300Z AUTO 34012KT 19SM 11/M13 RMK SLP214 T01081130 52017 IEM_DS3505
ZBAA,1984-03-23 06:00,ZBAA 230600Z AUTO 32016KT 19SM 12/M21 RMK SLP218 T01181210 4////0031 52003 IEM_DS3505
ZBAA,1984-03-23 09:00,ZBAA 230900Z AUTO 29008KT 7SM 10/M26 RMK SLP231 T00961258 52013 IEM_DS3505
ZBAA,1984-03-23 12:00,ZBAA 231200Z AUTO 36008KT 7SM 06/M23 RMK SLP262 T00561231 52030 IEM_DS3505
ZBAA,1984-03-23 15:00,ZBAA 231500Z AUTO 00000KT 6SM 02/M16 RMK SLP271 T00231160 52009 IEM_DS3505
ZBAA,1984-03-23 18:00,ZBAA 231800Z AUTO 00000KT 6SM M02/M12 RMK SLP259 T10241124 40127//// 57012 IEM_DS3505
ZBAA,1984-03-23 21:00,ZBAA 232100Z AUTO 00000KT 6SM M04/M10 RMK SLP239 T10361105 57020 IEM_DS3505
ZBAA,1984-03-24 00:00,ZBAA 240000Z AUTO 22006KT 6SM 02/M20 RMK SLP231 T00181200 57008 IEM_DS3505
ZBAA,1984-03-24 03:00,ZBAA 240300Z AUTO 20016KT 6SM 08/M22 A3009 RMK SLP208 T00851220 57022 IEM_DS3505
ZBAA,1984-03-24 04:00,ZBAA 240400Z AUTO 28010KT 7SM 10/ A3006 RMK IEM_DS3505
ZBAA,1984-03-24 05:00,ZBAA 240500Z AUTO 32014G23KT 6SM 12/M20 A3003 RMK T01201200 IEM_DS3505
ZBAA,1984-03-24 06:00,ZBAA 240600Z AUTO 07004KT 11SM 12/M15 A2997 RMK SLP168 T01171154 4////1039 57040 IEM_DS3505
ZBAA,1984-03-24 07:00,ZBAA 240700Z AUTO 30016G25KT 6SM 12/M19 A2994 RMK T01201190 IEM_DS3505
ZBAA,1984-03-24 08:00,ZBAA 240800Z AUTO 34014KT 6SM A2994 RMK IEM_DS3505
ZBAA,1984-03-24 09:00,ZBAA 240900Z AUTO 32014KT 5SM 13/M23 A2994 RMK SLP155 T01271231 57013 IEM_DS3505
ZBAA,1984-03-24 12:00,ZBAA 241200Z AUTO 32006KT 9SM 10/M20 RMK SLP187 T00991200 52032 IEM_DS3505
ZBAA,1984-03-24 15:00,ZBAA 241500Z AUTO 34004KT 7SM 07/M19 RMK SLP213 T00741191 52027 IEM_DS3505
ZBAA,1984-03-24 18:00,ZBAA 241800Z AUTO 36006KT 6SM 04/M18 RMK SLP224 T00421175 40135//// 52010 IEM_DS3505
ZBAA,1984-03-24 21:00,ZBAA 242100Z AUTO 02014KT 9SM M01/M27 RMK SLP237 T10071274 52012 IEM_DS3505
ZBAA,1984-03-25 00:00,ZBAA 250000Z AUTO 04010KT 9SM M02/M31 RMK SLP259 T10171313 52023 IEM_DS3505
ZBAA,1984-03-25 03:00,ZBAA 250300Z AUTO 07010KT 9SM 02/M23 RMK SLP275 T00241231 52016 IEM_DS3505
ZBAA,1984-03-25 06:00,ZBAA 250600Z AUTO 11004KT 12SM 05/M22 RMK SLP251 T00541220 4////1027 57024 IEM_DS3505
ZBAA,1984-03-25 09:00,ZBAA 250900Z AUTO 18010KT 7SM 06/M20 RMK SLP237 T00571200 57015 IEM_DS3505
ZBAA,1984-03-25 12:00,ZBAA 251200Z AUTO 16006KT 6SM 05/M09 RMK SLP242 T00461091 52005 IEM_DS3505
ZBAA,1984-03-25 15:00,ZBAA 251500Z AUTO 18008KT 9SM 00/M10 RMK SLP258 T00021100 52016 IEM_DS3505
ZBAA,1984-03-25 18:00,ZBAA 251800Z AUTO 14002KT 12SM M00/M12 RMK SLP247 T10031119 40063//// 57011 IEM_DS3505
ZBAA,1984-03-25 21:00,ZBAA 252100Z AUTO 36004KT 12SM M03/M09 RMK SLP238 T10261087 57009 IEM_DS3505
ZBAA,1984-03-26 00:00,ZBAA 260000Z AUTO 34004KT 6SM M01/M09 RMK SLP245 T10091092 52007 IEM_DS3505
ZBAA,1984-03-26 03:00,ZBAA 260300Z AUTO 07004KT 7SM 04/M11 RMK SLP243 T00381114 57002 IEM_DS3505
ZBAA,1984-03-26 06:00,ZBAA 260600Z AUTO 14004KT 7SM 08/M11 RMK SLP213 T00811109 4////1033 57028 IEM_DS3505
ZBAA,1984-03-26 09:00,ZBAA 260900Z AUTO 18010KT 6SM 09/M10 RMK SLP202 T00921105 57011 IEM_DS3505
ZBAA,1984-03-26 12:00,ZBAA 261200Z AUTO 18002KT 6SM 07/M08 RMK SLP233 T00691083 52030 IEM_DS3505
ZBAA,1984-03-26 15:00,ZBAA 261500Z AUTO 09002KT 6SM 05/M08 RMK SLP263 T00471079 52030 IEM_DS3505
ZBAA,1984-03-26 18:00,ZBAA 261800Z AUTO 02002KT 9SM 05/M18 RMK SLP281 T00521183 40097//// 52018 IEM_DS3505
ZBAA,1984-03-26 21:00,ZBAA 262100Z AUTO 34002KT 9SM M01/M11 RMK SLP282 T10111114 52001 IEM_DS3505
ZBAA,1984-03-27 00:00,ZBAA 270000Z AUTO 29002KT 5SM 03/M09 A3036 RMK SLP297 T00291092 52015 IEM_DS3505
ZBAA,1984-03-27 01:00,ZBAA 270100Z AUTO 00000KT 7SM 05/M10 A3036 RMK T00501100 IEM_DS3505
ZBAA,1984-03-27 02:00,ZBAA 270200Z AUTO 21004KT 7SM 08/M10 A3036 RMK T00801100 IEM_DS3505
ZBAA,1984-03-27 03:00,ZBAA 270300Z AUTO 18008KT 6SM 09/ A3033 RMK SLP288 57009 IEM_DS3505
ZBAA,1984-03-27 04:00,ZBAA 270400Z AUTO 21012KT 7SM 11/M14 A3030 RMK T01101140 IEM_DS3505
ZBAA,1984-03-27 05:00,ZBAA 270500Z AUTO 20012KT 7SM 11/M14 A3027 RMK T01101140 IEM_DS3505
ZBAA,1984-03-27 06:00,ZBAA 270600Z AUTO 18010KT 6SM 12/M22 RMK SLP239 T01161220 4////1016 57048 IEM_DS3505
ZBAA,1984-03-27 07:00,ZBAA 270700Z AUTO 19016KT 6SM 12/M15 A3015 RMK T01201150 IEM_DS3505
ZBAA,1984-03-27 09:00,ZBAA 270900Z AUTO 20008KT 6SM 12/M14 A3012 RMK SLP213 T01171141 57026 IEM_DS3505
ZBAA,1984-03-27 12:00,ZBAA 271200Z AUTO 16010KT 6SM 10/M12 RMK SLP201 T01041119 57012 IEM_DS3505
ZBAA,1984-03-27 18:00,ZBAA 271800Z AUTO 04002KT 4SM 02/M06 RMK SLP184 T00171055 40127//// 57021 IEM_DS3505
ZBAA,1984-03-27 21:00,ZBAA 272100Z AUTO 02002KT 4SM 00/M04 RMK SLP157 T00051045 57027 IEM_DS3505
ZBAA,1984-03-28 00:00,ZBAA 280000Z AUTO 02006KT 3SM 02/M06 RMK SLP147 T00251061 57010 IEM_DS3505
ZBAA,1984-03-28 03:00,ZBAA 280300Z AUTO 36004KT 4SM 08/M03 RMK SLP126 T00821034 57021 IEM_DS3505
ZBAA,1984-03-28 06:00,ZBAA 280600Z AUTO 18006KT 4SM 15/M03 RMK SLP077 T01491034 4////0001 57048 IEM_DS3505
ZBAA,1984-03-28 09:00,ZBAA 280900Z AUTO 20008KT 4SM 18/M05 RMK SLP041 T01781048 57035 IEM_DS3505
ZBAA,1984-03-28 12:00,ZBAA 281200Z AUTO 04002KT 3SM 14/M01 RMK SLP039 T01351006 57003 IEM_DS3505
ZBAA,1984-03-28 15:00,ZBAA 281500Z AUTO 00000KT 3SM 10/01 RMK SLP030 T00970006 57008 IEM_DS3505
ZBAA,1984-03-28 18:00,ZBAA 281800Z AUTO 36006KT 3SM 10/M03 RMK SLP020 T00991026 57010 IEM_DS3505
ZBAA,1984-03-28 21:00,ZBAA 282100Z AUTO 04002KT 3SM 07/ RMK SLP014 57005 IEM_DS3505
ZBAA,1984-03-29 00:00,ZBAA 290000Z AUTO 00000KT 2 1/2SM 09/03 RMK SLP015 T00900033 52036 IEM_DS3505
ZBAA,1984-03-29 03:00,ZBAA 290300Z AUTO 11004KT 4SM 13/01 RMK SLP067 T01300006 52016 IEM_DS3505
ZBAA,1984-03-29 06:00,ZBAA 290600Z AUTO 16006KT 2 1/2SM 15/02 RMK SLP056 T01480024 4////0042 57011 IEM_DS3505
ZBAA,1984-03-29 12:00,ZBAA 291200Z AUTO 18010KT 2 1/2SM 10/00 RMK SLP078 T01040004 52027 IEM_DS3505
ZBAA,1984-03-29 15:00,ZBAA 291500Z AUTO 16004KT 4SM 08/M00 RMK SLP105 T00831001 52027 IEM_DS3505
ZBAA,1984-03-29 18:00,ZBAA 291800Z AUTO 22002KT 5SM 06/M02 RMK SLP118 T00621023 40155//// 52012 IEM_DS3505
ZBAA,1984-03-29 21:00,ZBAA 292100Z AUTO 00000KT 5SM 04/M01 RMK SLP131 T00391008 52013 IEM_DS3505
ZBAA,1984-03-30 00:00,ZBAA 300000Z AUTO 22004KT 3SM 07/M02 RMK SLP171 T00731023 52040 IEM_DS3505
ZBAA,1984-03-30 01:00,ZBAA 300100Z AUTO 20006KT 4SM 13/M04 RMK SLP189 T01281042 57006 IEM_DS3505
ZBAA,1984-03-30 03:00,ZBAA 300300Z AUTO 20006KT 4SM 11/M06 RMK SLP195 T01061065 52024 IEM_DS3505
ZBAA,1984-03-30 06:00,ZBAA 300600Z AUTO 20006KT 4SM 13/M04 RMK SLP189 T01281042 4////0029 57006 IEM_DS3505
ZBAA,1984-03-30 09:00,ZBAA 300900Z AUTO 20012KT 5SM 13/M04 RMK SLP190 T01261045 52001 IEM_DS3505
ZBAA,1984-03-30 12:00,ZBAA 301200Z AUTO 18014KT 6SM RMK SLP215 52025 IEM_DS3505
ZBAA,1984-03-30 15:00,ZBAA 301500Z AUTO 20012KT 6SM 06/M03 RMK SLP249 T00601031 52033 IEM_DS3505
ZBAA,1984-03-30 18:00,ZBAA 301800Z AUTO 18004KT 6SM 10/M06 RMK SLP244 T00951061 40132//// 57005 IEM_DS3505
ZBAA,1984-03-30 21:00,ZBAA 302100Z AUTO 20010KT 9SM 05/M07 RMK SLP241 T00511072 57003 IEM_DS3505
ZBAA,1984-03-31 00:00,ZBAA 310000Z AUTO 18008KT 6SM 04/M04 RMK SLP252 T00441039 52010 IEM_DS3505
ZBAA,1984-03-31 03:00,ZBAA 310300Z AUTO 14002KT 4SM 05/M04 A3024 RMK SLP257 T00531039 52005 IEM_DS3505
ZBAA,1984-03-31 04:00,ZBAA 310400Z AUTO 00000KT 6SM 07/M07 A3024 RMK T00701070 IEM_DS3505
ZBAA,1984-03-31 05:00,ZBAA 310500Z AUTO 20004KT 6SM 08/M06 A3021 RMK T00801060 IEM_DS3505
ZBAA,1984-03-31 06:00,ZBAA 310600Z AUTO 18004KT 6SM 10/M07 A3018 RMK SLP234 T00951072 4////0038 57022 IEM_DS3505
ZBAA,1984-03-31 07:00,ZBAA 310700Z AUTO 00000KT 6SM 09/M06 A3018 RMK T00901060 IEM_DS3505
ZBAA,1984-03-31 08:00,ZBAA 310800Z AUTO 00000KT 6SM 09/M05 A3015 RMK T00901050 IEM_DS3505
ZBAA,1984-03-31 09:00,ZBAA 310900Z AUTO 02004KT 5SM 10/M05 A3015 RMK SLP222 T00961052 57012 IEM_DS3505
ZBAA,1984-03-31 12:00,ZBAA 311200Z AUTO 07002KT 3SM 07/M04 RMK SLP234 T00711039 52011 IEM_DS3505
ZBAA,1984-03-31 15:00,ZBAA 311500Z AUTO 00000KT 2 1/2SM 04/M03 RMK SLP247 T00361031 52013 IEM_DS3505
ZBAA,1984-03-31 18:00,ZBAA 311800Z AUTO 00000KT 2 1/2SM 01/M03 RMK SLP234 T00081026 40105//// 57013 IEM_DS3505
ZBAA,1984-03-31 21:00,ZBAA 312100Z AUTO 00000KT 2SM 00/M03 RMK SLP222 T00021028 57012 IEM_DS3505
ZBAA,1984-04-01 00:00,ZBAA 010000Z AUTO 00000KT 1 1/2SM 04/M03 RMK SLP222 T00351034 54000 IEM_DS3505
ZBAA,1984-04-01 03:00,ZBAA 010300Z AUTO 18008KT 4SM 10/M10 RMK SLP214 T00981096 57007 IEM_DS3505
ZBAA,1984-04-01 06:00,ZBAA 010600Z AUTO 20014KT 6SM 13/M10 RMK SLP182 T01261105 4////1010 57032 IEM_DS3505
ZBAA,1984-04-01 09:00,ZBAA 010900Z AUTO 18012KT 6SM 11/M06 RMK SLP170 T01141065 57012 IEM_DS3505
ZBAA,1984-04-01 12:00,ZBAA 011200Z AUTO 7SM 06/03 RMK 60012 SLP171 T00560030 52001 IEM_DS3505
ZBAA,1984-04-01 15:00,ZBAA 011500Z AUTO 00000KT 5SM 06/04 RMK SLP177 T00590036 52007 IEM_DS3505
ZBAA,1984-04-01 18:00,ZBAA 011800Z AUTO 36004KT 4SM 06/03 RMK SLP169 T00570028 40134//// 57008 IEM_DS3505
ZBAA,1984-04-01 21:00,ZBAA 012100Z AUTO 36002KT 3SM 05/03 RMK SLP158 T00490030 57011 IEM_DS3505
ZBAA,1984-04-02 00:00,ZBAA 020000Z AUTO 00000KT 2SM 06/03 RMK SLP165 T00580032 52006 IEM_DS3505
ZBAA,1984-04-02 03:00,ZBAA 020300Z AUTO 18006KT 4SM 08/03 RMK SLP167 T00840030 52003 IEM_DS3505
ZBAA,1984-04-02 06:00,ZBAA 020600Z AUTO 18012KT 2 1/2SM 13/01 RMK SLP136 T01300014 4////0046 57031 IEM_DS3505
ZBAA,1984-04-02 09:00,ZBAA 020900Z AUTO 18012KT 2 1/2SM 14/M02 RMK SLP118 T01401018 57018 IEM_DS3505
ZBAA,1984-04-02 12:00,ZBAA 021200Z AUTO 20008KT 3SM 12/01 RMK SLP124 T01190012 52006 IEM_DS3505
ZBAA,1984-04-02 15:00,ZBAA 021500Z AUTO 20004KT 4SM 10/01 RMK SLP126 T01030012 52002 IEM_DS3505
ZBAA,1984-04-02 18:00,ZBAA 021800Z AUTO 07004KT 5SM 08/02 RMK SLP130 T00820016 40143//// 52004 IEM_DS3505
ZBAA,1984-04-02 21:00,ZBAA 022100Z AUTO 02004KT 4SM 06/03 RMK SLP128 T00560030 57002 IEM_DS3505
ZBAA,1984-04-03 00:00,ZBAA 030000Z AUTO 34004KT 1 1/2SM 06/04 RMK SLP139 T00590041 52011 IEM_DS3505
ZBAA,1984-04-03 03:00,ZBAA 030300Z AUTO 07006KT 1SM 08/05 RMK SLP139 T00790049 54000 IEM_DS3505
ZBAA,1984-04-03 05:00,ZBAA 030500Z AUTO 00000KT 2 1/2SM 14/07 A2988 RMK T01400070 IEM_DS3505
ZBAA,1984-04-03 06:00,ZBAA 030600Z AUTO 04006KT 1 1/4SM 14/06 A2983 RMK SLP117 T01360056 4////0044 57022 IEM_DS3505
ZBAA,1984-04-03 07:00,ZBAA 030700Z AUTO 13012KT 4SM 17/05 A2980 RMK T01700050 IEM_DS3505
ZBAA,1984-04-03 08:00,ZBAA 030800Z AUTO 13012KT 4SM 18/06 A2980 RMK T01800060 IEM_DS3505
ZBAA,1984-04-03 09:00,ZBAA 030900Z AUTO 34006KT 1 1/4SM 16/06 A2980 RMK SLP098 T01560062 57018 IEM_DS3505
ZBAA,1984-04-03 10:00,ZBAA 031000Z AUTO 12016KT 2 1/2SM 14/08 A2980 RMK T01400080 IEM_DS3505
ZBAA,1984-04-03 12:00,ZBAA 031200Z AUTO 36006KT 2 1/2SM 13/08 RMK SLP117 T01340078 52018 IEM_DS3505
ZBAA,1984-04-03 15:00,ZBAA 031500Z AUTO 02004KT 3SM 11/07 RMK SLP130 T01130071 52013 IEM_DS3505
ZBAA,1984-04-03 18:00,ZBAA 031800Z AUTO 02002KT 2 1/2SM 10/08 RMK SLP137 T01030075 40170//// IEM_DS3505
ZBAA,1984-04-03 21:00,ZBAA 032100Z AUTO 04004KT 3SM 10/07 RMK SLP132 T00960072 57005 IEM_DS3505
ZBAA,1984-04-04 00:00,ZBAA 040000Z AUTO 04004KT 2 1/2SM 10/07 RMK SLP130 T01000072 57002 IEM_DS3505
ZBAA,1984-04-04 03:00,ZBAA 040300Z AUTO 14004KT 2SM 12/07 RMK SLP139 T01220072 52009 IEM_DS3505
ZBAA,1984-04-04 06:00,ZBAA 040600Z AUTO 16002KT 2 1/2SM 15/08 RMK SLP115 T01470077 4////0089 57024 IEM_DS3505
ZBAA,1984-04-04 09:00,ZBAA 040900Z AUTO 14006KT 3SM 15/07 RMK SLP097 T01540069 57018 IEM_DS3505
ZBAA,1984-04-04 12:00,ZBAA 041200Z AUTO 14006KT 3SM 12/05 RMK SLP108 T01220046 52011 IEM_DS3505
ZBAA,1984-04-04 15:00,ZBAA 041500Z AUTO 34006KT 3SM 09/06 RMK SLP140 T00880059 52031 IEM_DS3505
ZBAA,1984-04-04 18:00,ZBAA 041800Z AUTO 34012KT 6SM 08/M08 RMK 60031 SLP167 T00751083 40155//// 52028 IEM_DS3505
ZBAA,1984-04-04 21:00,ZBAA 042100Z AUTO 36010KT 6SM 03/M18 RMK SLP194 T00261175 52026 IEM_DS3505
ZBAA,1984-04-05 00:00,ZBAA 050000Z AUTO 36017KT 19SM 03/M22 RMK SLP216 T00341220 52022 IEM_DS3505
ZBAA,1984-04-05 03:00,ZBAA 050300Z AUTO 34014KT 9SM 06/M23 RMK SLP226 T00631231 52009 IEM_DS3505
ZBAA,1984-04-05 06:00,ZBAA 050600Z AUTO 32010KT 7SM 10/M29 RMK SLP211 T00961292 4////0017 57014 IEM_DS3505
ZBAA,1984-04-05 09:00,ZBAA 050900Z AUTO 29012KT 6SM 12/M20 RMK SLP202 T01161200 57009 IEM_DS3505
ZBAA,1984-04-05 12:00,ZBAA 051200Z AUTO 29004KT 12SM 09/M14 RMK SLP208 T00881135 52005 IEM_DS3505
ZBAA,1984-04-05 15:00,ZBAA 051500Z AUTO 25004KT 9SM 06/M11 RMK SLP220 T00601109 52011 IEM_DS3505
ZBAA,1984-04-05 18:00,ZBAA 051800Z AUTO 11SM 02/M07 RMK T00241072 IEM_DS3505
ZBAA,1984-04-05 21:00,ZBAA 052100Z AUTO 00000KT 5SM M00/M06 RMK SLP216 T10011055 57008 IEM_DS3505
ZBAA,1984-04-06 00:00,ZBAA 060000Z AUTO 00000KT 2SM 04/M04 RMK SLP222 T00441045 52005 IEM_DS3505
ZBAA,1984-04-06 03:00,ZBAA 060300Z AUTO 18008KT 2 1/2SM 13/M11 RMK SLP210 T01261109 57010 IEM_DS3505
ZBAA,1984-04-06 06:00,ZBAA 060600Z AUTO 16012KT 6SM 16/M18 RMK SLP177 T01571175 4////1010 57033 IEM_DS3505
ZBAA,1984-04-06 09:00,ZBAA 060900Z AUTO 20010KT 12SM 16/M16 RMK SLP152 T01641160 57025 IEM_DS3505
ZBAA,1984-04-06 12:00,ZBAA 061200Z AUTO 20008KT 12SM 13/M08 RMK SLP158 T01291079 52006 IEM_DS3505
ZBAA,1984-04-06 15:00,ZBAA 061500Z AUTO 20010KT 9SM 11/M03 RMK SLP167 T01061034 52010 IEM_DS3505
ZBAA,1984-04-06 21:00,ZBAA 062100Z AUTO 00000KT 6SM 04/01 A3000 RMK SLP179 T00380006 52008 IEM_DS3505
ZBAA,1984-04-06 22:00,ZBAA 062200Z AUTO 13004KT 7SM 03/M01 A3003 RMK T00301010 IEM_DS3505
ZBAA,1984-04-07 00:00,ZBAA 070000Z AUTO 02006KT 3SM 05/M01 A3006 RMK SLP203 T00541006 52024 IEM_DS3505
ZBAA,1984-04-07 01:00,ZBAA 070100Z AUTO 00000KT 7SM 08/01 A3009 RMK T00800010 IEM_DS3505
ZBAA,1984-04-07 03:00,ZBAA 070300Z AUTO 07002KT 3SM 11/02 A3006 RMK SLP199 T01120018 57004 IEM_DS3505
ZBAA,1984-04-07 04:00,ZBAA 070400Z AUTO 13014KT 7SM 14/02 A3006 RMK T01400020 IEM_DS3505
ZBAA,1984-04-07 05:00,ZBAA 070500Z AUTO 16010KT 7SM 15/03 A3006 RMK T01500030 IEM_DS3505
ZBAA,1984-04-07 06:00,ZBAA 070600Z AUTO 16010KT 5SM 16/03 RMK SLP179 T01630026 4////0028 57019 IEM_DS3505
ZBAA,1984-04-07 09:00,ZBAA 070900Z AUTO 16004KT 5SM 18/M01 RMK SLP164 T01781006 57016 IEM_DS3505
ZBAA,1984-04-07 12:00,ZBAA 071200Z AUTO 14008KT 4SM 15/02 RMK SLP182 T01460022 52018 IEM_DS3505
ZBAA,1984-04-07 15:00,ZBAA 071500Z AUTO 09008KT 4SM 10/00 RMK SLP215 T00980004 52033 IEM_DS3505
ZBAA,1984-04-07 18:00,ZBAA 071800Z AUTO 04004KT 3SM 08/M01 RMK SLP220 T00791006 40180//// 52005 IEM_DS3505
ZBAA,1984-04-07 21:00,ZBAA 072100Z AUTO 04004KT 3SM 07/M02 RMK SLP217 T00681018 57003 IEM_DS3505
ZBAA,1984-04-08 00:00,ZBAA 080000Z AUTO 00000KT 4SM 07/M02 RMK SLP209 T00721018 57008 IEM_DS3505
ZBAA,1984-04-08 03:00,ZBAA 080300Z AUTO 32004KT 2 1/2SM 09/M01 RMK SLP211 T00881008 52002 IEM_DS3505
ZBAA,1984-04-08 06:00,ZBAA 080600Z AUTO 07002KT 2SM 10/02 RMK SLP202 T01010018 4////0065 57009 IEM_DS3505
ZBAA,1984-04-08 09:00,ZBAA 080900Z AUTO 02006KT 1 1/4SM 10/03 RMK SLP199 T00950030 57003 IEM_DS3505
ZBAA,1984-04-08 12:00,ZBAA 081200Z AUTO 02002KT 2SM 09/04 RMK SLP207 T00900037 52008 IEM_DS3505
ZBAA,1984-04-08 15:00,ZBAA 081500Z AUTO 02002KT 2SM 09/04 RMK T00900037 52008 IEM_DS3505
ZBAA,1984-04-08 18:00,ZBAA 081800Z AUTO 07002KT 2SM 08/05 RMK SLP218 T00750048 40114//// 52003 IEM_DS3505
ZBAA,1984-04-09 00:00,ZBAA 090000Z AUTO 00000KT 1 1/4SM 08/05 RMK SLP224 T00830054 52010 IEM_DS3505
ZBAA,1984-04-09 03:00,ZBAA 090300Z AUTO 11004KT 3SM 14/04 RMK SLP221 T01400043 57002 IEM_DS3505
ZBAA,1984-04-09 06:00,ZBAA 090600Z AUTO 20010KT 5SM 17/05 RMK SLP204 T01720046 4////0041 57016 IEM_DS3505
ZBAA,1984-04-09 09:00,ZBAA 090900Z AUTO 18008KT 6SM 17/01 RMK SLP183 T01720012 57021 IEM_DS3505
ZBAA,1984-04-09 12:00,ZBAA 091200Z AUTO 20004KT 6SM 15/05 RMK SLP185 T01490049 52002 IEM_DS3505
ZBAA,1984-04-09 15:00,ZBAA 091500Z AUTO 16004KT 5SM 14/05 RMK SLP190 T01420053 52005 IEM_DS3505
ZBAA,1984-04-09 18:00,ZBAA 091800Z AUTO 04004KT 4SM 13/04 RMK SLP189 T01280043 40180//// 57001 IEM_DS3505
ZBAA,1984-04-09 21:00,ZBAA 092100Z AUTO 29004KT 3SM 11/05 RMK SLP190 T01060049 52001 IEM_DS3505
ZBAA,1984-04-10 00:00,ZBAA 100000Z AUTO 04004KT 2SM 12/05 RMK SLP191 T01220046 52001 IEM_DS3505
ZBAA,1984-04-10 03:00,ZBAA 100300Z AUTO 25002KT 1 1/2SM 18/05 A3003 RMK SLP182 T01840053 57009 IEM_DS3505
ZBAA,1984-04-10 04:00,ZBAA 100400Z AUTO 21008KT 3SM 19/06 A3000 RMK T01900060 IEM_DS3505
ZBAA,1984-04-10 05:00,ZBAA 100500Z AUTO 21014KT 7SM 21/02 A2997 RMK T02100020 IEM_DS3505
ZBAA,1984-04-10 06:00,ZBAA 100600Z AUTO 20008KT 6SM 22/02 A2994 RMK SLP152 T02160024 4////0091 57029 IEM_DS3505
ZBAA,1984-04-10 07:00,ZBAA 100700Z AUTO 20010KT 7SM 23/02 A2991 RMK T02300020 IEM_DS3505
ZBAA,1984-04-10 08:00,ZBAA 100800Z AUTO 24008KT 7SM 23/03 A2991 RMK T02300030 IEM_DS3505
ZBAA,1984-04-10 09:00,ZBAA 100900Z AUTO 20010KT 5SM 22/04 A2991 RMK SLP135 T02200037 57018 IEM_DS3505
ZBAA,1984-04-10 12:00,ZBAA 101200Z AUTO 20008KT 5SM 18/06 RMK SLP148 T01830060 52013 IEM_DS3505
ZBAA,1984-04-10 15:00,ZBAA 101500Z AUTO 11006KT 4SM 16/06 RMK SLP171 T01600065 52024 IEM_DS3505
ZBAA,1984-04-10 18:00,ZBAA 101800Z AUTO 36004KT 5SM 12/06 RMK SLP195 T01170064 40226//// 52023 IEM_DS3505
ZBAA,1984-04-10 21:00,ZBAA 102100Z AUTO 02004KT 5SM 11/06 RMK SLP196 T01100059 52001 IEM_DS3505
ZBAA,1984-04-11 00:00,ZBAA 110000Z AUTO 04004KT 3SM 12/05 RMK SLP209 T01170054 52013 IEM_DS3505
ZBAA,1984-04-11 03:00,ZBAA 110300Z AUTO 04002KT 4SM 16/06 RMK SLP204 T01580057 57005 IEM_DS3505
ZBAA,1984-04-11 06:00,ZBAA 110600Z AUTO 14006KT 4SM 19/07 RMK SLP176 T01860069 4////0099 57028 IEM_DS3505
ZBAA,1984-04-11 09:00,ZBAA 110900Z AUTO 20006KT 4SM 20/07 RMK SLP149 T02010068 57027 IEM_DS3505
ZBAA,1984-04-11 12:00,ZBAA 111200Z AUTO 16004KT 6SM 18/08 RMK SLP149 T01760075 54000 IEM_DS3505
ZBAA,1984-04-11 15:00,ZBAA 111500Z AUTO 16008KT 5SM 16/07 RMK SLP152 T01570072 52003 IEM_DS3505
ZBAA,1984-04-11 18:00,ZBAA 111800Z AUTO 18006KT 6SM 13/06 RMK SLP136 T01290064 40203//// 57016 IEM_DS3505
ZBAA,1984-04-11 21:00,ZBAA 112100Z AUTO 16002KT 6SM 11/06 RMK SLP131 T01090062 57005 IEM_DS3505
ZBAA,1984-04-12 00:00,ZBAA 120000Z AUTO 00000KT 3SM 12/07 RMK SLP142 T01210074 52011 IEM_DS3505
ZBAA,1984-04-12 03:00,ZBAA 120300Z AUTO 34002KT 1 1/4SM 13/08 RMK SLP153 T01330077 52011 IEM_DS3505
ZBAA,1984-04-12 06:00,ZBAA 120600Z AUTO 20010KT 2 1/2SM 14/09 RMK SLP152 T01420089 4////0103 57001 IEM_DS3505
ZBAA,1984-04-12 09:00,ZBAA 120900Z AUTO 20006KT 7SM 16/06 RMK SLP134 T01580057 57018 IEM_DS3505
ZBAA,1984-04-12 12:00,ZBAA 121200Z AUTO 18002KT 6SM RMK SLP150 IEM_DS3505
ZBAA,1984-04-12 15:00,ZBAA 121500Z AUTO 00000KT 7SM 12/07 RMK SLP152 T01200068 52002 IEM_DS3505
ZBAA,1984-04-12 18:00,ZBAA 121800Z AUTO 02002KT 9SM 10/07 RMK SLP145 T00990069 40163//// 57007 IEM_DS3505
ZBAA,1984-04-12 21:00,ZBAA 122100Z AUTO 36004KT 7SM 09/06 RMK SLP137 T00930062 57008 IEM_DS3505
ZBAA,1984-04-13 00:00,ZBAA 130000Z AUTO 00000KT 5SM 13/06 RMK SLP141 T01270064 52004 IEM_DS3505
ZBAA,1984-04-13 03:00,ZBAA 130300Z AUTO 16008KT 2 1/2SM 17/06 RMK SLP139 T01690060 57002 IEM_DS3505
ZBAA,1984-04-13 06:00,ZBAA 130600Z AUTO 18012KT 4SM 20/09 RMK SLP104 T01960089 4////0091 57034 IEM_DS3505
ZBAA,1984-04-13 09:00,ZBAA 130900Z AUTO 18010KT 4SM 21/09 RMK SLP071 T02110091 57033 IEM_DS3505
ZBAA,1984-04-13 12:00,ZBAA 131200Z AUTO 18010KT 4SM 20/10 RMK SLP062 T01950105 57009 IEM_DS3505
ZBAA,1984-04-13 15:00,ZBAA 131500Z AUTO 18008KT 4SM 18/10 RMK SLP078 T01780098 52017 IEM_DS3505
ZBAA,1984-04-13 18:00,ZBAA 131800Z AUTO 18006KT 4SM 16/10 RMK SLP070 T01580099 40216//// 57008 IEM_DS3505
ZBAA,1984-04-13 21:00,ZBAA 132100Z AUTO 00000KT 2 1/2SM 13/09 A2971 RMK SLP064 T01290094 57006 IEM_DS3505
ZBAA,1984-04-13 22:00,ZBAA 132200Z AUTO 07006KT 7SM 11/08 A2971 RMK T01100080 IEM_DS3505
ZBAA,1984-04-13 23:00,ZBAA 132300Z AUTO 00000KT 7SM 12/09 A2971 RMK T01200090 IEM_DS3505
ZBAA,1984-04-14 00:00,ZBAA 140000Z AUTO 00000KT 1 1/4SM 14/10 RMK SLP081 T01370105 52016 IEM_DS3505
ZBAA,1984-04-14 01:00,ZBAA 140100Z AUTO 07004KT 7SM 17/08 A2974 RMK T01700080 IEM_DS3505
ZBAA,1984-04-14 02:00,ZBAA 140200Z AUTO 00000KT 7SM 19/09 A2977 RMK T01900090 IEM_DS3505
ZBAA,1984-04-14 03:00,ZBAA 140300Z AUTO 04004KT 2 1/2SM 20/10 A2977 RMK SLP087 T02010095 52007 IEM_DS3505
ZBAA,1984-04-14 04:00,ZBAA 140400Z AUTO 00000KT 6SM 21/09 A2974 RMK T02100090 IEM_DS3505
ZBAA,1984-04-14 05:00,ZBAA 140500Z AUTO 15002KT 6SM 23/09 A2971 RMK T02300090 IEM_DS3505
ZBAA,1984-04-14 06:00,ZBAA 140600Z AUTO 16004KT 3SM 24/09 A2971 RMK SLP065 T02410091 4////0117 57022 IEM_DS3505
ZBAA,1984-04-14 07:00,ZBAA 140700Z AUTO 15006KT 6SM 25/06 A2968 RMK T02500060 IEM_DS3505
ZBAA,1984-04-14 09:00,ZBAA 140900Z AUTO 16008KT 9SM 26/02 RMK SLP055 T02560024 57010 IEM_DS3505
ZBAA,1984-04-14 12:00,ZBAA 141200Z AUTO 18006KT 9SM 23/05 RMK SLP061 T02300046 52006 IEM_DS3505
ZBAA,1984-04-14 18:00,ZBAA 141800Z AUTO 14004KT 9SM 15/09 RMK SLP073 T01470090 40264//// 52002 IEM_DS3505
ZBAA,1984-04-14 21:00,ZBAA 142100Z AUTO 09004KT 7SM 14/08 RMK SLP059 T01400081 57014 IEM_DS3505
ZBAA,1984-04-15 00:00,ZBAA 150000Z AUTO 07006KT 3SM 14/07 RMK SLP075 T01390069 52016 IEM_DS3505
ZBAA,1984-04-15 03:00,ZBAA 150300Z AUTO 09002KT 5SM 17/07 RMK SLP080 T01700072 52005 IEM_DS3505
ZBAA,1984-04-15 06:00,ZBAA 150600Z AUTO 09006KT 5SM 17/07 RMK SLP077 T01700071 4////0133 57004 IEM_DS3505
ZBAA,1984-04-15 09:00,ZBAA 150900Z AUTO 14004KT 5SM 16/06 RMK SLP079 T01550065 52002 IEM_DS3505
ZBAA,1984-04-15 12:00,ZBAA 151200Z AUTO 18004KT 5SM 12/06 RMK SLP128 T01240065 40178//// 54000 IEM_DS3505
ZBAA,1984-04-15 15:00,ZBAA 151500Z AUTO 00000KT 4SM 13/06 RMK SLP128 T01330062 52025 IEM_DS3505
ZBAA,1984-04-15 18:00,ZBAA 151800Z AUTO 18004KT 5SM 12/06 RMK SLP128 T01240065 40178//// 54000 IEM_DS3505
ZBAA,1984-04-15 21:00,ZBAA 152100Z AUTO 20004KT 5SM 11/10 RMK SLP129 T01110101 52001 IEM_DS3505
ZBAA,1984-04-16 00:00,ZBAA 160000Z AUTO 00000KT 2 1/2SM 11/09 RMK 60004 SLP142 T01110089 52013 IEM_DS3505
ZBAA,1984-04-16 03:00,ZBAA 160300Z AUTO 00000KT 1SM 11/10 RMK SLP152 T01060098 52010 IEM_DS3505
ZBAA,1984-04-16 06:00,ZBAA 160600Z AUTO 00000KT 1SM 11/10 RMK 60059 SLP136 T01120104 4////0103 57016 IEM_DS3505
ZBAA,1984-04-16 09:00,ZBAA 160900Z AUTO 00000KT 1 1/4SM 13/11 RMK SLP126 T01300113 57010 IEM_DS3505
ZBAA,1984-04-16 12:00,ZBAA 161200Z AUTO 20006KT 2SM 13/11 RMK 60001 SLP135 T01280113 52009 IEM_DS3505
ZBAA,1984-04-16 15:00,ZBAA 161500Z AUTO 20002KT 2SM 12/11 RMK SLP148 T01230112 52013 IEM_DS3505
ZBAA,1984-04-16 18:00,ZBAA 161800Z AUTO 36004KT 1SM 11/10 RMK SLP149 T01100104 40133//// 52001 IEM_DS3505
ZBAA,1984-04-16 21:00,ZBAA 162100Z AUTO 32010KT 11SM 13/M00 RMK SLP166 T01311001 52017 IEM_DS3505
ZBAA,1984-04-17 00:00,ZBAA 170000Z AUTO 36014KT 12SM 14/M07 RMK SLP189 T01431072 52023 IEM_DS3505
ZBAA,1984-04-17 03:00,ZBAA 170300Z AUTO 36010KT 12SM 16/M06 RMK SLP199 T01601055 52010 IEM_DS3505
ZBAA,1984-04-17 06:00,ZBAA 170600Z AUTO 02008KT 12SM 18/M04 RMK SLP199 T01791039 4////0103 54000 IEM_DS3505
ZBAA,1984-04-17 09:00,ZBAA 170900Z AUTO 36008KT 12SM 18/M04 RMK SLP175 T01821039 57024 IEM_DS3505
ZBAA,1984-04-17 12:00,ZBAA 171200Z AUTO 18004KT 7SM 15/02 RMK SLP185 T01500022 52010 IEM_DS3505
ZBAA,1984-04-17 15:00,ZBAA 171500Z AUTO 16004KT 6SM 11/03 RMK SLP205 T01120030 52020 IEM_DS3505
ZBAA,1984-04-17 18:00,ZBAA 171800Z AUTO 04004KT 7SM 09/03 RMK SLP210 T00860026 40186//// 52005 IEM_DS3505
ZBAA,1984-04-17 21:00,ZBAA 172100Z AUTO 02004KT 6SM 06/03 RMK SLP204 T00620028 57006 IEM_DS3505
ZBAA,1984-04-18 00:00,ZBAA 180000Z AUTO 36004KT 7SM 09/01 RMK SLP200 T00890010 57004 IEM_DS3505
ZBAA,1984-04-18 03:00,ZBAA 180300Z AUTO 00000KT 2 1/2SM 13/02 RMK SLP188 T01330021 57012 IEM_DS3505
ZBAA,1984-04-18 06:00,ZBAA 180600Z AUTO 20012KT 7SM 18/M01 RMK SLP149 T01841006 4////0053 57039 IEM_DS3505
ZBAA,1984-04-18 09:00,ZBAA 180900Z AUTO 20014KT 9SM 19/M02 RMK SLP118 T01891018 57031 IEM_DS3505
ZBAA,1984-04-18 12:00,ZBAA 181200Z AUTO 16004KT 6SM 16/02 RMK SLP117 T01620018 57001 IEM_DS3505
ZBAA,1984-04-18 15:00,ZBAA 181500Z AUTO 16006KT 5SM 14/M01 RMK SLP122 T01441008 52005 IEM_DS3505
ZBAA,1984-04-18 18:00,ZBAA 181800Z AUTO 18004KT 6SM 11/M02 RMK SLP123 T01111020 40199//// 52001 IEM_DS3505
ZBAA,1984-04-18 21:00,ZBAA 182100Z AUTO 34004KT 6SM 07/03 RMK SLP115 T00690026 57008 IEM_DS3505
ZBAA,1984-04-19 00:00,ZBAA 190000Z AUTO 04004KT 6SM 11/02 RMK SLP123 T01070021 52008 IEM_DS3505
ZBAA,1984-04-19 03:00,ZBAA 190300Z AUTO 04002KT 4SM 16/M01 RMK SLP114 T01561008 57008 IEM_DS3505
ZBAA,1984-04-19 06:00,ZBAA 190600Z AUTO 20012KT 7SM 21/04 RMK SLP085 T02080044 4////0065 57029 IEM_DS3505
ZBAA,1984-04-19 09:00,ZBAA 190900Z AUTO 20012KT 7SM 22/06 RMK SLP058 T02170059 57027 IEM_DS3505
ZBAA,1984-04-19 10:00,ZBAA 191000Z AUTO 18010KT 9SM 18/01 RMK SLP075 T01770014 52011 IEM_DS3505
ZBAA,1984-04-19 12:00,ZBAA 191200Z AUTO 18010KT 9SM 20/01 RMK SLP064 T01960008 52006 IEM_DS3505
ZBAA,1984-04-19 15:00,ZBAA 191500Z AUTO 18010KT 9SM 18/01 RMK SLP075 T01770014 52011 IEM_DS3505
ZBAA,1984-04-19 18:00,ZBAA 191800Z AUTO 20010KT 9SM 16/03 RMK SLP069 T01560034 40226//// 57005 IEM_DS3505
ZBAA,1984-04-19 21:00,ZBAA 192100Z AUTO 27002KT 5SM 14/07 RMK SLP092 T01370067 52023 IEM_DS3505
ZBAA,1984-04-20 00:00,ZBAA 200000Z AUTO 36008KT 12SM 11/02 RMK 60004 SLP139 T01140021 52045 IEM_DS3505
ZBAA,1984-04-20 03:00,ZBAA 200300Z AUTO 36014KT 7SM 15/M04 RMK SLP156 T01501037 52017 IEM_DS3505
ZBAA,1984-04-20 05:00,ZBAA 200500Z AUTO 02010KT 16SM 18/M10 RMK SLP153 T01801100 57001 IEM_DS3505
ZBAA,1984-04-20 06:00,ZBAA 200600Z AUTO 34010KT 16SM 17/M11 RMK SLP154 T01741114 4////0111 57002 IEM_DS3505
ZBAA,1984-04-20 09:00,ZBAA 200900Z AUTO 02010KT 16SM 18/M10 RMK SLP153 T01801100 57001 IEM_DS3505
ZBAA,1984-04-20 12:00,ZBAA 201200Z AUTO 16002KT 16SM 16/M04 RMK SLP177 T01601045 52024 IEM_DS3505
ZBAA,1984-04-20 15:00,ZBAA 201500Z AUTO 18006KT 12SM 13/04 RMK SLP200 T01280039 52023 IEM_DS3505
ZBAA,1984-04-20 18:00,ZBAA 201800Z AUTO 18004KT 9SM 12/02 RMK SLP196 T01160021 40182//// 57004 IEM_DS3505
ZBAA,1984-04-20 21:00,ZBAA 202100Z AUTO 09004KT 6SM 07/06 A3006 RMK T00700060 IEM_DS3505
ZBAA,1984-04-20 22:00,ZBAA 202200Z AUTO 00000KT 7SM 07/05 A3006 RMK T00700050 IEM_DS3505
ZBAA,1984-04-20 23:00,ZBAA 202300Z AUTO 14006KT 6SM 08/06 A3006 RMK T00800060 IEM_DS3505
ZBAA,1984-04-21 00:00,ZBAA 210000Z AUTO 02008KT 2SM 09/07 A3009 RMK SLP206 T00940067 52009 IEM_DS3505
ZBAA,1984-04-21 01:00,ZBAA 210100Z AUTO 05006KT 6SM 11/07 A3012 RMK T01100070 IEM_DS3505
ZBAA,1984-04-21 02:00,ZBAA 210200Z AUTO 05006KT 7SM 13/07 A3012 RMK T01300070 IEM_DS3505
ZBAA,1984-04-21 03:00,ZBAA 210300Z AUTO 04006KT 3SM 14/07 A3009 RMK SLP207 T01360068 52001 IEM_DS3505
ZBAA,1984-04-21 04:00,ZBAA 210400Z AUTO 14006KT 7SM 16/06 A3009 RMK T01600060 IEM_DS3505
ZBAA,1984-04-21 06:00,ZBAA 210600Z AUTO 20006KT 3SM 19/05 RMK SLP177 T01940049 4////0080 57030 IEM_DS3505
ZBAA,1984-04-21 09:00,ZBAA 210900Z AUTO 18008KT 4SM 21/01 RMK SLP153 T02100012 57024 IEM_DS3505
ZBAA,1984-04-21 12:00,ZBAA 211200Z AUTO 22004KT 3SM 18/06 RMK SLP152 T01800056 57001 IEM_DS3505
ZBAA,1984-04-21 15:00,ZBAA 211500Z AUTO 36004KT 3SM 16/06 RMK SLP162 T01620057 52010 IEM_DS3505
ZBAA,1984-04-21 18:00,ZBAA 211800Z AUTO 02004KT 3SM 14/06 RMK SLP171 T01360060 40214//// 52009 IEM_DS3505
ZBAA,1984-04-21 21:00,ZBAA 212100Z AUTO 04006KT 4SM 11/06 RMK SLP180 T01100064 52009 IEM_DS3505
ZBAA,1984-04-22 00:00,ZBAA 220000Z AUTO 02006KT 4SM 16/00 RMK SLP196 T01590004 52017 IEM_DS3505
ZBAA,1984-04-22 03:00,ZBAA 220300Z AUTO 11002KT 6SM 22/M07 RMK SLP202 T02161068 52006 IEM_DS3505
ZBAA,1984-04-22 06:00,ZBAA 220600Z AUTO 16008KT 6SM 23/00 RMK SLP186 T02300001 4////0104 57016 IEM_DS3505
ZBAA,1984-04-22 09:00,ZBAA 220900Z AUTO 20012KT 6SM 23/M03 RMK SLP161 T02341026 57025 IEM_DS3505
ZBAA,1984-04-22 12:00,ZBAA 221200Z AUTO 16008KT 7SM 20/M03 RMK SLP170 T01981026 52009 IEM_DS3505
ZBAA,1984-04-22 15:00,ZBAA 221500Z AUTO 14006KT 7SM 16/M01 RMK SLP188 T01561008 52018 IEM_DS3505
ZBAA,1984-04-22 18:00,ZBAA 221800Z AUTO 36004KT 6SM 11/02 RMK SLP187 T01110022 40243//// 57001 IEM_DS3505
ZBAA,1984-04-22 21:00,ZBAA 222100Z AUTO 00000KT 5SM 09/04 RMK SLP183 T00930037 57005 IEM_DS3505
ZBAA,1984-04-23 00:00,ZBAA 230000Z AUTO 00000KT 3SM 14/02 RMK SLP185 T01450024 52002 IEM_DS3505
ZBAA,1984-04-23 03:00,ZBAA 230300Z AUTO 04004KT 5SM 20/M02 RMK SLP177 T01951023 57007 IEM_DS3505
ZBAA,1984-04-23 06:00,ZBAA 230600Z AUTO 16002KT 4SM 23/01 RMK SLP153 T02260014 4////0083 57025 IEM_DS3505
ZBAA,1984-04-23 09:00,ZBAA 230900Z AUTO 18004KT 4SM 23/04 RMK SLP130 T02330037 57023 IEM_DS3505
ZBAA,1984-04-23 12:00,ZBAA 231200Z AUTO 00000KT 4SM 19/07 RMK SLP131 T01910074 52001 IEM_DS3505
ZBAA,1984-04-23 15:00,ZBAA 231500Z AUTO 09004KT 4SM 17/05 RMK SLP143 T01680051 52013 IEM_DS3505
ZBAA,1984-04-23 18:00,ZBAA 231800Z AUTO 04004KT 4SM 14/03 RMK SLP136 T01410030 40236//// 57007 IEM_DS3505
ZBAA,1984-04-23 21:00,ZBAA 232100Z AUTO 04004KT 5SM 13/03 RMK SLP126 T01300034 57010 IEM_DS3505
ZBAA,1984-04-24 00:00,ZBAA 240000Z AUTO 36004KT 3SM 13/05 RMK SLP130 T01320053 52003 IEM_DS3505
ZBAA,1984-04-24 03:00,ZBAA 240300Z AUTO 04006KT 3SM 15/05 A2985 RMK SLP122 T01510053 57008 IEM_DS3505
ZBAA,1984-04-24 04:00,ZBAA 240400Z AUTO 12010KT 7SM 17/07 A2983 RMK T01700070 IEM_DS3505
ZBAA,1984-04-24 05:00,ZBAA 240500Z AUTO 00000KT 6SM 17/09 A2980 RMK T01700090 IEM_DS3505
ZBAA,1984-04-24 06:00,ZBAA 240600Z AUTO 00000KT 4SM 17/07 A2980 RMK 60000 SLP102 T01660068 4////0123 57019 IEM_DS3505
ZBAA,1984-04-24 07:00,ZBAA 240700Z AUTO 00000KT 6SM 18/08 A2977 RMK T01800080 IEM_DS3505
ZBAA,1984-04-24 08:00,ZBAA 240800Z AUTO 19008KT 6SM 18/07 A2974 RMK T01800070 IEM_DS3505
ZBAA,1984-04-24 09:00,ZBAA 240900Z AUTO 18006KT 4SM 18/08 A2974 RMK SLP084 T01750080 57018 IEM_DS3505
ZBAA,1984-04-24 10:00,ZBAA 241000Z AUTO 17008KT 6SM 17/09 A2977 RMK T01700090 IEM_DS3505
ZBAA,1984-04-24 12:00,ZBAA 241200Z AUTO 16004KT 4SM 16/11 RMK 60008 SLP094 T01610110 52010 IEM_DS3505
ZBAA,1984-04-24 15:00,ZBAA 241500Z AUTO 20008KT 5SM 15/10 RMK SLP095 T01490101 52001 IEM_DS3505
ZBAA,1984-04-24 18:00,ZBAA 241800Z AUTO 16006KT 5SM 14/10 RMK SLP089 T01430099 40177//// 57006 IEM_DS3505
ZBAA,1984-04-24 21:00,ZBAA 242100Z AUTO 16008KT 4SM 13/10 RMK SLP085 T01310098 57004 IEM_DS3505
ZBAA,1984-04-25 00:00,ZBAA 250000Z AUTO 16006KT 1SM 13/09 RMK SLP098 T01340091 52013 IEM_DS3505
ZBAA,1984-04-25 03:00,ZBAA 250300Z AUTO 00000KT 3SM 14/10 RMK SLP106 T01440098 52008 IEM_DS3505
ZBAA,1984-04-25 06:00,ZBAA 250600Z AUTO 00000KT 1SM 14/12 RMK 60000 SLP103 T01380117 4////0128 57003 IEM_DS3505
ZBAA,1984-04-25 09:00,ZBAA 250900Z AUTO 36002KT 1/8SM 13/12 RMK SLP096 T01270122 57008 IEM_DS3505
ZBAA,1984-04-25 12:00,ZBAA 251200Z AUTO 00000KT 3/8SM 13/12 RMK 60012 SLP108 T01290125 52013 IEM_DS3505
ZBAA,1984-04-25 15:00,ZBAA 251500Z AUTO 34004KT 1SM 13/13 RMK SLP118 T01290127 52009 IEM_DS3505
ZBAA,1984-04-25 18:00,ZBAA 251800Z AUTO 04002KT 1/2SM 13/12 RMK 60004 SLP114 T01310125 40148//// 57003 IEM_DS3505
ZBAA,1984-04-25 21:00,ZBAA 252100Z AUTO 36008KT 2 1/2SM 12/10 RMK SLP118 T01250104 52003 IEM_DS3505
ZBAA,1984-04-26 00:00,ZBAA 260000Z AUTO 36004KT 1SM 12/11 RMK 60002 SLP137 T01170107 52019 IEM_DS3505
ZBAA,1984-04-26 03:00,ZBAA 260300Z AUTO 36012KT 1SM 12/04 RMK SLP151 T01250044 52014 IEM_DS3505
ZBAA,1984-04-26 06:00,ZBAA 260600Z AUTO 36012KT 2 1/2SM 11/00 RMK 60004 SLP167 T01120001 4////0108 52016 IEM_DS3505
ZBAA,1984-04-26 09:00,ZBAA 260900Z AUTO 36012KT 2 1/2SM 21/00 RMK 60004 SLP167 T02120001 52016 IEM_DS3505
ZBAA,1984-04-26 12:00,ZBAA 261200Z AUTO 02010KT 6SM 09/M01 RMK SLP211 T00901008 52023 IEM_DS3505
ZBAA,1984-04-26 15:00,ZBAA 261500Z AUTO 36006KT 6SM 08/M03 RMK SLP230 T00811031 52018 IEM_DS3505
ZBAA,1984-04-26 18:00,ZBAA 261800Z AUTO 00000KT 9SM 05/M03 RMK SLP230 T00461028 40131//// 54000 IEM_DS3505
ZBAA,1984-04-26 21:00,ZBAA 262100Z AUTO 27002KT 7SM 02/M01 RMK SLP236 T00231010 52005 IEM_DS3505
ZBAA,1984-04-27 00:00,ZBAA 270000Z AUTO 00000KT 2SM 05/02 RMK SLP242 T00520016 52007 IEM_DS3505
ZBAA,1984-04-27 06:00,ZBAA 270600Z AUTO 20010KT 9SM 15/M06 RMK SLP194 T01531058 4////0015 57032 IEM_DS3505
ZBAA,1984-04-27 09:00,ZBAA 270900Z AUTO 20014KT 9SM 15/M06 RMK SLP177 T01491058 57017 IEM_DS3505
ZBAA,1984-04-27 11:00,ZBAA 271100Z AUTO 9SM 12/M03 RMK SLP177 T01241034 54000 IEM_DS3505
ZBAA,1984-04-27 12:00,ZBAA 271200Z AUTO 20010KT 9SM 12/M03 RMK SLP177 T01241034 54000 IEM_DS3505
ZBAA,1984-04-27 15:00,ZBAA 271500Z AUTO 16008KT 9SM 10/M02 RMK SLP169 T00961023 57007 IEM_DS3505
ZBAA,1984-04-27 18:00,ZBAA 271800Z AUTO 16004KT 9SM 07/M02 RMK SLP161 T00681015 40158//// 57008 IEM_DS3505
ZBAA,1984-04-27 21:00,ZBAA 272100Z AUTO 36002KT 6SM 06/00 A2994 RMK SLP157 T00560001 57005 IEM_DS3505
ZBAA,1984-04-27 22:00,ZBAA 272200Z AUTO 00000KT 7SM 04/M01 A2994 RMK T00401010 IEM_DS3505
ZBAA,1984-04-27 23:00,ZBAA 272300Z AUTO 00000KT 7SM 05/M01 A2997 RMK T00501010 IEM_DS3505
ZBAA,1984-04-28 00:00,ZBAA 280000Z AUTO 00000KT 4SM 08/01 A2997 RMK SLP161 T00790012 52004 IEM_DS3505
ZBAA,1984-04-28 01:00,ZBAA 280100Z AUTO 02004KT 7SM 09/M01 A2997 RMK T00901010 IEM_DS3505
ZBAA,1984-04-28 03:00,ZBAA 280300Z AUTO 07002KT 5SM 14/M01 A2994 RMK SLP154 T01391013 57006 IEM_DS3505
ZBAA,1984-04-28 04:00,ZBAA 280400Z AUTO 00000KT 6SM 15/01 A2994 RMK T01500010 IEM_DS3505
ZBAA,1984-04-28 05:00,ZBAA 280500Z AUTO 00000KT 7SM 16/01 A2991 RMK T01600010 IEM_DS3505
ZBAA,1984-04-28 06:00,ZBAA 280600Z AUTO 18004KT 6SM 18/M01 RMK SLP128 T01761013 4////0043 57026 IEM_DS3505
ZBAA,1984-04-28 09:00,ZBAA 280900Z AUTO 20010KT 5SM 18/01 RMK SLP115 T01830012 57013 IEM_DS3505
ZBAA,1984-04-28 12:00,ZBAA 281200Z AUTO 18004KT 4SM 16/05 RMK SLP119 T01600049 52004 IEM_DS3505
ZBAA,1984-04-28 15:00,ZBAA 281500Z AUTO 16006KT 4SM 13/01 RMK SLP127 T01300014 52008 IEM_DS3505
ZBAA,1984-04-28 18:00,ZBAA 281800Z AUTO 07006KT 4SM 11/01 RMK SLP115 T01130010 57003 IEM_DS3505
ZBAA,1984-04-28 21:00,ZBAA 282100Z AUTO 36004KT 4SM 09/02 RMK SLP117 T00900024 57008 IEM_DS3505
ZBAA,1984-04-29 00:00,ZBAA 290000Z AUTO 36010KT 5SM 12/01 RMK SLP126 T01200008 52009 IEM_DS3505
ZBAA,1984-04-29 03:00,ZBAA 290300Z AUTO 09004KT 5SM 17/01 RMK SLP118 T01720010 57008 IEM_DS3505
ZBAA,1984-04-29 06:00,ZBAA 290600Z AUTO 18010KT 5SM 22/M02 RMK SLP093 T02151018 4////0085 57024 IEM_DS3505
ZBAA,1984-04-29 09:00,ZBAA 290900Z AUTO 20014KT 6SM 22/01 RMK SLP073 T02180010 57020 IEM_DS3505
ZBAA,1984-04-29 12:00,ZBAA 291200Z AUTO 20008KT 6SM 19/M00 RMK SLP068 T01921001 57005 IEM_DS3505
ZBAA,1984-04-29 15:00,ZBAA 291500Z AUTO 20006KT 9SM 17/01 RMK SLP074 T01690010 52007 IEM_DS3505
ZBAA,1984-04-29 18:00,ZBAA 291800Z AUTO 02006KT 9SM 12/08 RMK SLP103 T01230085 40225//// 52028 IEM_DS3505
ZBAA,1984-04-29 21:00,ZBAA 292100Z AUTO 36014KT 9SM 13/M11 RMK SLP117 T01271109 52014 IEM_DS3505
ZBAA,1984-04-30 00:00,ZBAA 300000Z AUTO 36014KT 12SM 14/M11 RMK SLP150 T01361109 52032 IEM_DS3505
ZBAA,1984-04-30 03:00,ZBAA 300300Z AUTO 36017KT 12SM 14/M14 RMK SLP171 T01371141 52021 IEM_DS3505
ZBAA,1984-04-30 06:00,ZBAA 300600Z AUTO 32016KT 12SM 17/M15 RMK SLP160 T01711147 4////0111 57011 IEM_DS3505
ZBAA,1984-04-30 09:00,ZBAA 300900Z AUTO 36010KT 9SM 18/M11 RMK SLP153 T01791109 57007 IEM_DS3505
ZBAA,1984-04-30 12:00,ZBAA 301200Z AUTO 36010KT 7SM 16/M12 RMK SLP166 T01571124 52013 IEM_DS3505
ZBAA,1984-04-30 15:00,ZBAA 301500Z AUTO 34008KT 11SM 14/M13 RMK SLP186 T01451130 52020 IEM_DS3505
ZBAA,1984-04-30 18:00,ZBAA 301800Z AUTO 34008KT 12SM 13/M10 RMK SLP196 T01301105 40186//// 52010 IEM_DS3505
ZBAA,1984-04-30 21:00,ZBAA 302100Z AUTO 36006KT 12SM 10/M06 RMK SLP210 T01021058 52014 IEM_DS3505
ZBAA,1984-05-01 00:00,ZBAA 010000Z AUTO 36008KT 9SM 14/M04 RMK SLP220 T01381042 52009 IEM_DS3505
ZBAA,1984-05-01 02:00,ZBAA 010200Z AUTO 04010KT 6SM 17/M04 A3015 RMK T01701040 IEM_DS3505
ZBAA,1984-05-01 03:00,ZBAA 010300Z AUTO 36008KT 19SM 18/M03 A3015 RMK SLP217 T01821034 57002 IEM_DS3505
ZBAA,1984-05-01 04:00,ZBAA 010400Z AUTO 03008KT 6SM 19/00 A3012 RMK T01900000 IEM_DS3505
ZBAA,1984-05-01 05:00,ZBAA 010500Z AUTO 15006KT 6SM 20/01 A3009 RMK T02000010 IEM_DS3505
ZBAA,1984-05-01 06:00,ZBAA 010600Z AUTO 32004KT 19SM 20/01 A3006 RMK SLP194 T02010012 4////0099 57023 IEM_DS3505
ZBAA,1984-05-01 07:00,ZBAA 010700Z AUTO 19004KT 6SM 21/00 A3006 RMK T02100000 IEM_DS3505
ZBAA,1984-05-01 08:00,ZBAA 010800Z AUTO 19004KT 6SM 22/01 A3003 RMK T02200010 IEM_DS3505
ZBAA,1984-05-01 09:00,ZBAA 010900Z AUTO 11006KT 19SM 21/01 RMK SLP178 T02080006 57016 IEM_DS3505
ZBAA,1984-05-01 12:00,ZBAA 011200Z AUTO 20002KT 9SM 18/03 RMK SLP186 T01780030 52008 IEM_DS3505
ZBAA,1984-05-01 15:00,ZBAA 011500Z AUTO 00000KT 7SM 16/04 RMK SLP199 T01620043 52014 IEM_DS3505
ZBAA,1984-05-01 18:00,ZBAA 011800Z AUTO 18002KT 6SM 16/03 RMK SLP189 T01580028 40215//// 57010 IEM_DS3505
ZBAA,1984-05-01 21:00,ZBAA 012100Z AUTO 16006KT 6SM 15/02 RMK SLP188 T01520024 57001 IEM_DS3505
ZBAA,1984-05-02 00:00,ZBAA 020000Z AUTO 22006KT 6SM 16/03 RMK SLP219 T01560034 52030 IEM_DS3505
ZBAA,1984-05-02 03:00,ZBAA 020300Z AUTO 22010KT 7SM 16/04 RMK SLP226 T01590041 52007 IEM_DS3505
ZBAA,1984-05-02 06:00,ZBAA 020600Z AUTO 20004KT 7SM 15/06 RMK SLP218 T01500056 4////0142 57008 IEM_DS3505
ZBAA,1984-05-02 09:00,ZBAA 020900Z AUTO 20008KT 9SM 16/05 RMK SLP199 T01640054 57019 IEM_DS3505
ZBAA,1984-05-02 12:00,ZBAA 021200Z AUTO 18006KT 11SM 14/06 RMK SLP193 T01430062 57006 IEM_DS3505
ZBAA,1984-05-02 15:00,ZBAA 021500Z AUTO 18002KT 11SM 12/07 RMK SLP193 T01200068 54000 IEM_DS3505
ZBAA,1984-05-02 18:00,ZBAA 021800Z AUTO 00000KT 6SM 10/07 RMK SLP183 T00970069 57010 IEM_DS3505
ZBAA,1984-05-02 21:00,ZBAA 022100Z AUTO 00000KT 4SM 08/06 RMK SLP179 T00790064 57004 IEM_DS3505
ZBAA,1984-05-03 00:00,ZBAA 030000Z AUTO 00000KT 2 1/2SM 13/08 RMK SLP181 T01290078 52002 IEM_DS3505
ZBAA,1984-05-03 03:00,ZBAA 030300Z AUTO 20004KT 5SM 18/06 RMK SLP174 T01850065 57007 IEM_DS3505
ZBAA,1984-05-03 06:00,ZBAA 030600Z AUTO 18008KT 9SM 21/07 RMK SLP151 T02140068 4////0076 57023 IEM_DS3505
ZBAA,1984-05-03 09:00,ZBAA 030900Z AUTO 20010KT 9SM 22/07 RMK SLP134 T02200072 57017 IEM_DS3505
ZBAA,1984-05-03 12:00,ZBAA 031200Z AUTO 18004KT 6SM 19/08 RMK SLP158 T01890081 52016 IEM_DS3505
ZBAA,1984-05-03 15:00,ZBAA 031500Z AUTO 18010KT 6SM 16/08 RMK SLP159 T01620080 52010 IEM_DS3505
ZBAA,1984-05-03 18:00,ZBAA 031800Z AUTO 22004KT 6SM 14/08 RMK SLP165 T01350083 40223//// 52006 IEM_DS3505
ZBAA,1984-05-03 21:00,ZBAA 032100Z AUTO 00000KT 6SM 11/08 RMK SLP170 T01100083 52004 IEM_DS3505
ZBAA,1984-05-04 00:00,ZBAA 040000Z AUTO 00000KT 5SM 15/10 RMK SLP176 T01530095 52007 IEM_DS3505
ZBAA,1984-05-04 03:00,ZBAA 040300Z AUTO 16004KT 4SM 21/10 RMK SLP179 T02100098 52003 IEM_DS3505
ZBAA,1984-05-04 06:00,ZBAA 040600Z AUTO 18006KT 6SM 24/10 RMK SLP161 T02360096 4////0108 57018 IEM_DS3505
ZBAA,1984-05-04 09:00,ZBAA 040900Z AUTO 18010KT 6SM 24/10 RMK SLP147 T02410098 57014 IEM_DS3505
ZBAA,1984-05-04 12:00,ZBAA 041200Z AUTO 20008KT 6SM 21/09 RMK SLP154 T02090094 52007 IEM_DS3505
ZBAA,1984-05-04 15:00,ZBAA 041500Z AUTO 20008KT 5SM 18/11 RMK SLP167 T01780106 52013 IEM_DS3505
ZBAA,1984-05-04 20:00,ZBAA 042000Z AUTO 00000KT 7SM 12/10 A3009 RMK T01200100 IEM_DS3505
ZBAA,1984-05-04 21:00,ZBAA 042100Z AUTO 16002KT 4SM 13/10 A2991 RMK SLP146 T01270104 57009 IEM_DS3505
ZBAA,1984-05-04 22:00,ZBAA 042200Z AUTO 00000KT 2 1/2SM 11/10 A2991 RMK T01100100 IEM_DS3505
ZBAA,1984-05-04 23:00,ZBAA 042300Z AUTO 00000KT 2 1/2SM 13/10 A2991 RMK T01300100 IEM_DS3505
ZBAA,1984-05-05 00:00,ZBAA 050000Z AUTO 18002KT 2 1/2SM 15/11 A2991 RMK SLP140 T01510110 57006 IEM_DS3505
ZBAA,1984-05-05 01:00,ZBAA 050100Z AUTO 00000KT 2SM 17/12 A2988 RMK T01700120 IEM_DS3505
ZBAA,1984-05-05 02:00,ZBAA 050200Z AUTO 21010KT 2 1/2SM 21/10 A2988 RMK T02100100 IEM_DS3505
ZBAA,1984-05-05 03:00,ZBAA 050300Z AUTO 20010KT 4SM 22/10 A2985 RMK SLP121 T02250104 57019 IEM_DS3505
ZBAA,1984-05-05 04:00,ZBAA 050400Z AUTO 20010KT 4SM 25/07 A2983 RMK T02500070 IEM_DS3505
ZBAA,1984-05-05 05:00,ZBAA 050500Z AUTO 18012KT 5SM 26/07 A2980 RMK T02600070 IEM_DS3505
ZBAA,1984-05-05 06:00,ZBAA 050600Z AUTO 20019KT 6SM 26/08 RMK SLP088 T02570085 4////0118 57032 IEM_DS3505
ZBAA,1984-05-05 09:00,ZBAA 050900Z AUTO 20010KT 6SM 26/11 RMK SLP067 T02620110 57021 IEM_DS3505
ZBAA,1984-05-05 12:00,ZBAA 051200Z AUTO 20006KT 6SM 23/11 RMK SLP088 T02330106 52020 IEM_DS3505
ZBAA,1984-05-05 15:00,ZBAA 051500Z AUTO 36002KT 6SM 19/12 RMK SLP108 T01920125 52020 IEM_DS3505
ZBAA,1984-05-05 18:00,ZBAA 051800Z AUTO 00000KT 3SM 15/12 RMK SLP108 T01520117 40269//// 54000 IEM_DS3505
ZBAA,1984-05-05 21:00,ZBAA 052100Z AUTO 32002KT 2 1/2SM 13/11 RMK SLP108 T01280107 54000 IEM_DS3505
ZBAA,1984-05-06 00:00,ZBAA 060000Z AUTO 00000KT 1 1/4SM 20/09 RMK SLP110 T01960089 52002 IEM_DS3505
ZBAA,1984-05-06 03:00,ZBAA 060300Z AUTO 18008KT 6SM 26/04 RMK SLP104 T02630036 57006 IEM_DS3505
ZBAA,1984-05-06 06:00,ZBAA 060600Z AUTO 18019KT 6SM 29/01 RMK SLP071 T02860006 4////0122 57033 IEM_DS3505
ZBAA,1984-05-06 09:00,ZBAA 060900Z AUTO 18023KT 6SM 28/05 RMK SLP037 T02810054 57034 IEM_DS3505
ZBAA,1984-05-06 12:00,ZBAA 061200Z AUTO 20012KT 6SM 25/05 RMK SLP029 T02490054 57008 IEM_DS3505
ZBAA,1984-05-06 15:00,ZBAA 061500Z AUTO 22010KT 6SM 23/09 RMK SLP018 T02280091 57010 IEM_DS3505
ZBAA,1984-05-06 18:00,ZBAA 061800Z AUTO 18002KT 5SM 20/10 RMK SLP006 T02020105 40292//// 57011 IEM_DS3505
ZBAA,1984-05-06 21:00,ZBAA 062100Z AUTO 00000KT 5SM 16/10 RMK T01610105 57003 IEM_DS3505
ZBAA,1984-05-07 00:00,ZBAA 070000Z AUTO 36004KT 5SM 19/14 RMK SLP004 T01920136 54000 IEM_DS3505
ZBAA,1984-05-07 03:00,ZBAA 070300Z AUTO 00000KT 4SM 24/13 RMK SLP987 T02350134 57016 IEM_DS3505
ZBAA,1984-05-07 06:00,ZBAA 070600Z AUTO 18004KT 5SM 32/15 RMK SLP950 T03160151 4////0152 57037 IEM_DS3505
ZBAA,1984-05-07 09:00,ZBAA 070900Z AUTO 20010KT 5SM 34/10 RMK SLP935 T03360101 57015 IEM_DS3505
ZBAA,1984-05-07 12:00,ZBAA 071200Z AUTO 18006KT 5SM 30/14 RMK SLP955 T02990135 52020 IEM_DS3505
ZBAA,1984-05-07 15:00,ZBAA 071500Z AUTO 36002KT 6SM 25/14 RMK SLP972 T02530141 52017 IEM_DS3505
ZBAA,1984-05-07 18:00,ZBAA 071800Z AUTO 36004KT 9SM 25/07 RMK SLP981 T02500071 52014 IEM_DS3505
ZBAA,1984-05-07 21:00,ZBAA 072100Z AUTO 36010KT 16SM 24/ RMK SLP007 52021 IEM_DS3505
ZBAA,1984-05-08 00:00,ZBAA 080000Z AUTO 09004KT 5SM 24/12 RMK SLP053 T02450115 52046 IEM_DS3505
ZBAA,1984-05-08 03:00,ZBAA 080300Z AUTO 04002KT 4SM 28/07 A2971 RMK SLP070 T02810072 52016 IEM_DS3505
ZBAA,1984-05-08 04:00,ZBAA 080400Z AUTO 10010KT 6SM 29/10 A2968 RMK T02900100 IEM_DS3505
ZBAA,1984-05-08 05:00,ZBAA 080500Z AUTO 08010KT 6SM 29/08 A2968 RMK T02900080 IEM_DS3505
ZBAA,1984-05-08 06:00,ZBAA 080600Z AUTO 09008KT 7SM 30/06 A2968 RMK SLP060 T02960060 4////0203 57009 IEM_DS3505
ZBAA,1984-05-08 07:00,ZBAA 080700Z AUTO 13008KT 6SM 30/04 A2968 RMK T03000040 IEM_DS3505
ZBAA,1984-05-08 08:00,ZBAA 080800Z AUTO 15010KT 6SM 29/03 A2968 RMK T02900030 IEM_DS3505
ZBAA,1984-05-08 09:00,ZBAA 080900Z AUTO 18008KT 6SM 29/08 A2968 RMK SLP059 T02880081 57002 IEM_DS3505
ZBAA,1984-05-08 10:00,ZBAA 081000Z AUTO 16012KT 6SM 27/09 A2968 RMK T02700090 IEM_DS3505
ZBAA,1984-05-08 12:00,ZBAA 081200Z AUTO 18012KT 6SM 22/04 RMK SLP089 T02230043 52030 IEM_DS3505
ZBAA,1984-05-08 15:00,ZBAA 081500Z AUTO 20006KT 6SM 20/03 RMK SLP115 T01990034 52025 IEM_DS3505
ZBAA,1984-05-08 18:00,ZBAA 081800Z AUTO 16006KT 6SM 18/04 RMK SLP123 T01840036 40302//// 52008 IEM_DS3505
ZBAA,1984-05-08 21:00,ZBAA 082100Z AUTO 00000KT 7SM 14/06 RMK SLP123 T01440059 54000 IEM_DS3505
ZBAA,1984-05-09 00:00,ZBAA 090000Z AUTO 07002KT 4SM 20/02 RMK SLP133 T02020018 52010 IEM_DS3505
ZBAA,1984-05-09 03:00,ZBAA 090300Z AUTO 16008KT 7SM 23/M02 RMK SLP135 T02301015 52002 IEM_DS3505
ZBAA,1984-05-09 06:00,ZBAA 090600Z AUTO 18008KT 7SM 25/03 RMK SLP111 T02510032 4////0136 57024 IEM_DS3505
ZBAA,1984-05-09 09:00,ZBAA 090900Z AUTO 18008KT 7SM 25/07 RMK SLP088 T02500068 57023 IEM_DS3505
ZBAA,1984-05-09 12:00,ZBAA 091200Z AUTO 14008KT 7SM 22/04 RMK SLP092 T02200037 52004 IEM_DS3505
ZBAA,1984-05-09 15:00,ZBAA 091500Z AUTO 20006KT 9SM 19/05 RMK SLP093 T01910053 52001 IEM_DS3505
ZBAA,1984-05-09 18:00,ZBAA 091800Z AUTO 16002KT 9SM 18/04 RMK SLP080 T01750043 40262//// 57013 IEM_DS3505
ZBAA,1984-05-09 21:00,ZBAA 092100Z AUTO 00000KT 11SM 14/06 RMK SLP072 T01450057 57008 IEM_DS3505
ZBAA,1984-05-10 00:00,ZBAA 100000Z AUTO 25002KT 4SM 18/06 RMK SLP084 T01850060 52012 IEM_DS3505
ZBAA,1984-05-10 03:00,ZBAA 100300Z AUTO 04002KT 3SM 24/06 RMK SLP083 T02450065 57001 IEM_DS3505
ZBAA,1984-05-10 06:00,ZBAA 100600Z AUTO 04004KT 7SM 28/07 RMK SLP060 T02850069 4////0136 57022 IEM_DS3505
ZBAA,1984-05-10 09:00,ZBAA 100900Z AUTO 00000KT 7SM 29/08 RMK SLP053 T02900082 57008 IEM_DS3505
ZBAA,1984-05-10 12:00,ZBAA 101200Z AUTO 00000KT 6SM 25/12 RMK SLP056 T02480115 52003 IEM_DS3505
ZBAA,1984-05-10 15:00,ZBAA 101500Z AUTO 11012KT 6SM 22/13 RMK SLP079 T02230126 52024 IEM_DS3505
ZBAA,1984-05-10 18:00,ZBAA 101800Z AUTO 00000KT 5SM 15/11 RMK 60002 SLP101 T01530112 40298//// 52021 IEM_DS3505
ZBAA,1984-05-10 21:00,ZBAA 102100Z AUTO 16006KT 3SM 15/12 RMK SLP103 T01540115 52002 IEM_DS3505
ZBAA,1984-05-11 00:00,ZBAA 110000Z AUTO 20006KT 4SM 15/10 RMK SLP135 T01500103 52031 IEM_DS3505
ZBAA,1984-05-11 03:00,ZBAA 110300Z AUTO 20006KT 4SM 16/10 RMK SLP142 T01640100 52007 IEM_DS3505
ZBAA,1984-05-11 06:00,ZBAA 110600Z AUTO 20008KT 6SM 20/11 RMK SLP127 T02010106 4////0147 57015 IEM_DS3505
ZBAA,1984-05-11 09:00,ZBAA 110900Z AUTO 18008KT 7SM 21/11 RMK SLP125 T02060113 57002 IEM_DS3505
ZBAA,1984-05-11 12:00,ZBAA 111200Z AUTO 20008KT 6SM 18/12 RMK SLP140 T01820120 52014 IEM_DS3505
ZBAA,1984-05-11 15:00,ZBAA 111500Z AUTO 18002KT 6SM 17/11 RMK SLP147 T01660108 52007 IEM_DS3505
ZBAA,1984-05-11 18:00,ZBAA 111800Z AUTO 02004KT 3SM 15/11 RMK SLP144 T01460108 57001 IEM_DS3505
ZBAA,1984-05-11 21:00,ZBAA 112100Z AUTO 02004KT 3SM 13/10 A2991 RMK SLP144 T01300100 57001 IEM_DS3505
ZBAA,1984-05-11 22:00,ZBAA 112200Z AUTO 35004KT 4SM 13/10 A2991 RMK T01300100 IEM_DS3505
ZBAA,1984-05-11 23:00,ZBAA 112300Z AUTO 33006KT 6SM 15/09 A2991 RMK T01500090 IEM_DS3505
ZBAA,1984-05-12 00:00,ZBAA 120000Z AUTO 00000KT 2 1/2SM 17/11 A2991 RMK SLP147 T01690114 52003 IEM_DS3505
ZBAA,1984-05-12 01:00,ZBAA 120100Z AUTO 02008KT 6SM 21/08 RMK T02100080 IEM_DS3505
ZBAA,1984-05-12 02:00,ZBAA 120200Z AUTO 36008KT 6SM 21/09 A2991 RMK T02100090 IEM_DS3505
ZBAA,1984-05-12 03:00,ZBAA 120300Z AUTO 18004KT 9SM 23/06 A2991 RMK SLP137 T02280060 57010 IEM_DS3505
ZBAA,1984-05-12 04:00,ZBAA 120400Z AUTO 22004KT 7SM 25/06 A2988 RMK T02500060 IEM_DS3505
ZBAA,1984-05-12 06:00,ZBAA 120600Z AUTO 18010KT 9SM 26/03 RMK SLP108 T02610028 4////0133 57028 IEM_DS3505
ZBAA,1984-05-12 09:00,ZBAA 120900Z AUTO 18012KT 9SM 25/06 RMK SLP092 T02470062 57016 IEM_DS3505
ZBAA,1984-05-12 12:00,ZBAA 121200Z AUTO 18006KT 12SM 22/08 RMK SLP094 T02160080 52002 IEM_DS3505
ZBAA,1984-05-12 15:00,ZBAA 121500Z AUTO 00000KT 9SM 18/10 RMK SLP104 T01850104 52010 IEM_DS3505
ZBAA,1984-05-12 18:00,ZBAA 121800Z AUTO 00000KT 6SM 15/11 RMK SLP102 T01510106 40264//// 57002 IEM_DS3505
ZBAA,1984-05-12 21:00,ZBAA 122100Z AUTO 00000KT 6SM 13/10 RMK SLP102 T01260099 54000 IEM_DS3505
ZBAA,1984-05-13 00:00,ZBAA 130000Z AUTO 36004KT 5SM 20/09 RMK SLP108 T02020086 52006 IEM_DS3505
ZBAA,1984-05-13 03:00,ZBAA 130300Z AUTO 34008KT 16SM 25/M05 RMK SLP102 T02501052 57006 IEM_DS3505
ZBAA,1984-05-13 06:00,ZBAA 130600Z AUTO 27012KT 16SM 27/M10 RMK SLP075 T02741096 4////0120 57027 IEM_DS3505
ZBAA,1984-05-13 09:00,ZBAA 130900Z AUTO 20014KT 9SM 26/04 RMK SLP059 T02640044 57016 IEM_DS3505
ZBAA,1984-05-13 12:00,ZBAA 131200Z AUTO 20010KT 7SM 23/09 RMK SLP062 T02300091 52003 IEM_DS3505
ZBAA,1984-05-13 15:00,ZBAA 131500Z AUTO 20002KT 7SM 20/10 RMK SLP075 T02020101 52013 IEM_DS3505
ZBAA,1984-05-13 18:00,ZBAA 131800Z AUTO 36004KT 7SM 20/04 RMK SLP078 T01970044 40284//// 52004 IEM_DS3505
ZBAA,1984-05-13 21:00,ZBAA 132100Z AUTO 34012KT 12SM 20/00 RMK SLP094 T02040004 52016 IEM_DS3505
ZBAA,1984-05-14 00:00,ZBAA 140000Z AUTO 34006KT 19SM 19/00 RMK SLP115 T01940004 52020 IEM_DS3505
ZBAA,1984-05-14 03:00,ZBAA 140300Z AUTO 36004KT 19SM 23/M03 RMK SLP126 T02271034 52011 IEM_DS3505
ZBAA,1984-05-14 06:00,ZBAA 140600Z AUTO 29006KT 19SM 25/M01 RMK SLP110 T02521013 4////0168 57016 IEM_DS3505
ZBAA,1984-05-14 09:00,ZBAA 140900Z AUTO 18010KT 19SM 24/01 RMK SLP101 T02440014 57009 IEM_DS3505
ZBAA,1984-05-14 12:00,ZBAA 141200Z AUTO 20008KT 19SM 22/01 RMK SLP116 T02150010 52014 IEM_DS3505
ZBAA,1984-05-14 15:00,ZBAA 141500Z AUTO 20006KT 16SM 19/03 RMK SLP134 T01900034 52018 IEM_DS3505
ZBAA,1984-05-14 18:00,ZBAA 141800Z AUTO 00000KT 12SM 14/06 RMK SLP124 T01420060 40261//// 54000 IEM_DS3505
ZBAA,1984-05-14 21:00,ZBAA 142100Z AUTO 00000KT 12SM 12/06 RMK SLP130 T01240057 52006 IEM_DS3505
ZBAA,1984-05-15 00:00,ZBAA 150000Z AUTO 36010KT 19SM 20/00 RMK SLP144 T02050001 52015 IEM_DS3505
ZBAA,1984-05-15 03:00,ZBAA 150300Z AUTO 04006KT 19SM 26/M00 RMK SLP142 T02561003 57002 IEM_DS3505
ZBAA,1984-05-15 04:00,ZBAA 150400Z AUTO 03006KT 7SM 26/M06 A2988 RMK T02601060 IEM_DS3505
ZBAA,1984-05-15 05:00,ZBAA 150500Z AUTO 06008KT 7SM 27/M04 A2988 RMK T02701040 IEM_DS3505
ZBAA,1984-05-15 06:00,ZBAA 150600Z AUTO 14002KT 19SM 27/M03 A2985 RMK SLP123 T02721034 4////0116 57020 IEM_DS3505
ZBAA,1984-05-15 07:00,ZBAA 150700Z AUTO 13008KT 6SM 28/M01 A2983 RMK T02801010 IEM_DS3505
ZBAA,1984-05-15 08:00,ZBAA 150800Z AUTO 00000KT 6SM 28/M04 A2983 RMK T02801040 IEM_DS3505
ZBAA,1984-05-15 09:00,ZBAA 150900Z AUTO 18008KT 19SM 27/M00 A2980 RMK SLP111 T02701003 57011 IEM_DS3505
ZBAA,1984-05-15 12:00,ZBAA 151200Z AUTO 22006KT 16SM 24/01 RMK SLP118 T02390008 52007 IEM_DS3505
ZBAA,1984-05-15 15:00,ZBAA 151500Z AUTO 18006KT 9SM 20/05 RMK SLP132 T02030054 52014 IEM_DS3505
ZBAA,1984-05-15 18:00,ZBAA 151800Z AUTO 00000KT 7SM 16/08 RMK SLP139 T01550085 40279//// 52007 IEM_DS3505
ZBAA,1984-05-15 21:00,ZBAA 152100Z AUTO 36004KT 8SM 16/07 RMK SLP140 T01580069 52001 IEM_DS3505
ZBAA,1984-05-16 00:00,ZBAA 160000Z AUTO 02006KT 5SM 20/06 RMK SLP149 T01990056 52009 IEM_DS3505
ZBAA,1984-05-16 03:00,ZBAA 160300Z AUTO 18004KT 4SM 25/06 RMK SLP150 T02510064 52001 IEM_DS3505
ZBAA,1984-05-16 06:00,ZBAA 160600Z AUTO 16012KT 9SM 28/04 RMK SLP131 T02810041 4////0143 57019 IEM_DS3505
ZBAA,1984-05-16 09:00,ZBAA 160900Z AUTO 20017KT 7SM 27/02 RMK SLP119 T02710021 57012 IEM_DS3505
ZBAA,1984-05-16 12:00,ZBAA 161200Z AUTO 20008KT 19SM 24/06 RMK SLP121 T02360059 52002 IEM_DS3505
ZBAA,1984-05-16 15:00,ZBAA 161500Z AUTO 18008KT 19SM 20/06 RMK SLP126 T02020060 52005 IEM_DS3505
ZBAA,1984-05-16 18:00,ZBAA 161800Z AUTO 20006KT 9SM 17/07 RMK SLP129 T01700071 40288//// 52003 IEM_DS3505
ZBAA,1984-05-16 21:00,ZBAA 162100Z AUTO 14002KT 5SM 15/08 RMK SLP134 T01460075 52004 IEM_DS3505
ZBAA,1984-05-17 00:00,ZBAA 170000Z AUTO 36002KT 3SM 19/08 RMK SLP137 T01940083 52004 IEM_DS3505
ZBAA,1984-05-17 03:00,ZBAA 170300Z AUTO 18010KT 9SM 25/08 RMK SLP129 T02500083 57008 IEM_DS3505
ZBAA,1984-05-17 06:00,ZBAA 170600Z AUTO 16008KT 9SM 26/08 RMK SLP107 T02560082 4////0136 57022 IEM_DS3505
ZBAA,1984-05-17 09:00,ZBAA 170900Z AUTO 20012KT 9SM 24/09 RMK SLP094 T02400089 57013 IEM_DS3505
ZBAA,1984-05-17 12:00,ZBAA 171200Z AUTO 18006KT 9SM 21/07 RMK SLP097 T02080068 52003 IEM_DS3505
ZBAA,1984-05-17 15:00,ZBAA 171500Z AUTO 14006KT 9SM 20/07 RMK SLP111 T01960068 52014 IEM_DS3505
ZBAA,1984-05-17 18:00,ZBAA 171800Z AUTO 00000KT 7SM 16/11 RMK SLP115 T01590111 40269//// 52003 IEM_DS3505
ZBAA,1984-05-17 21:00,ZBAA 172100Z AUTO 00000KT 8SM 15/12 RMK SLP110 T01510116 57004 IEM_DS3505
ZBAA,1984-05-18 00:00,ZBAA 180000Z AUTO 00000KT 4SM 20/13 RMK SLP121 T01990129 52010 IEM_DS3505
ZBAA,1984-05-18 03:00,ZBAA 180300Z AUTO 09004KT 7SM 25/07 RMK SLP112 T02500068 57008 IEM_DS3505
ZBAA,1984-05-18 06:00,ZBAA 180600Z AUTO 14008KT 7SM 27/08 RMK SLP090 T02730075 57022 IEM_DS3505
ZBAA,1984-05-18 09:00,ZBAA 180900Z AUTO 16012KT 7SM 26/10 RMK SLP083 T02640103 57007 IEM_DS3505
ZBAA,1984-05-18 12:00,ZBAA 181200Z AUTO 16004KT 6SM 20/13 RMK SLP123 T01990129 52039 IEM_DS3505
ZBAA,1984-05-18 15:00,ZBAA 181500Z AUTO 18006KT 6SM 18/12 RMK SLP138 T01830122 52016 IEM_DS3505
ZBAA,1984-05-18 18:00,ZBAA 181800Z AUTO 11006KT 12SM 17/12 RMK SLP139 T01700117 52001 IEM_DS3505
ZBAA,1984-05-18 21:00,ZBAA 182100Z AUTO 00000KT 5SM 16/13 RMK SLP136 T01560129 57003 IEM_DS3505
ZBAA,1984-05-19 00:00,ZBAA 190000Z AUTO 16002KT 5SM 18/13 RMK SLP145 T01750133 52008 IEM_DS3505
ZBAA,1984-05-19 03:00,ZBAA 190300Z AUTO 20004KT 5SM 21/12 A2988 RMK SLP135 T02130120 57010 IEM_DS3505
ZBAA,1984-05-19 04:00,ZBAA 190400Z AUTO 15008KT 7SM 23/11 A2988 RMK T02300110 IEM_DS3505
ZBAA,1984-05-19 05:00,ZBAA 190500Z AUTO 20008KT 6SM 24/10 A2985 RMK T02400100 IEM_DS3505
ZBAA,1984-05-19 06:00,ZBAA 190600Z AUTO 16012KT 7SM 24/10 RMK SLP109 T02450099 4////0149 57025 IEM_DS3505
ZBAA,1984-05-19 07:00,ZBAA 190700Z AUTO 19010KT 6SM 25/11 A2980 RMK T02500110 IEM_DS3505
ZBAA,1984-05-19 08:00,ZBAA 190800Z AUTO 19012KT 6SM 25/11 A2980 RMK T02500110 IEM_DS3505
ZBAA,1984-05-19 09:00,ZBAA 190900Z AUTO 16010KT 9SM 25/11 A2977 RMK SLP096 T02460112 57013 IEM_DS3505
ZBAA,1984-05-19 12:00,ZBAA 191200Z AUTO 18006KT 9SM 23/11 RMK SLP105 T02260112 52009 IEM_DS3505
ZBAA,1984-05-19 15:00,ZBAA 191500Z AUTO 16006KT 7SM 20/11 RMK SLP121 T01990113 52015 IEM_DS3505
ZBAA,1984-05-19 18:00,ZBAA 191800Z AUTO 11004KT 6SM 18/11 RMK SLP127 T01790107 40257//// 52007 IEM_DS3505
ZBAA,1984-05-19 21:00,ZBAA 192100Z AUTO 02006KT 6SM 16/11 RMK SLP128 T01630107 54000 IEM_DS3505
ZBAA,1984-05-20 00:00,ZBAA 200000Z AUTO 04004KT 5SM 18/10 RMK SLP132 T01790103 52004 IEM_DS3505
ZBAA,1984-05-20 03:00,ZBAA 200300Z AUTO 04010KT 5SM 22/12 RMK SLP130 T02180122 57002 IEM_DS3505
ZBAA,1984-05-20 06:00,ZBAA 200600Z AUTO 16006KT 5SM 25/14 RMK SLP110 T02500144 4////0159 57019 IEM_DS3505
ZBAA,1984-05-20 09:00,ZBAA 200900Z AUTO 11008KT 5SM 23/14 RMK SLP100 T02340139 57010 IEM_DS3505
ZBAA,1984-05-20 12:00,ZBAA 201200Z AUTO 02002KT 7SM 18/14 RMK 60001 SLP128 T01770135 52028 IEM_DS3505
ZBAA,1984-05-20 15:00,ZBAA 201500Z AUTO 02004KT 6SM 18/14 RMK SLP138 T01830136 52010 IEM_DS3505
ZBAA,1984-05-20 18:00,ZBAA 201800Z AUTO 07006KT 6SM 18/10 RMK SLP133 T01780101 40257//// 57004 IEM_DS3505
ZBAA,1984-05-20 21:00,ZBAA 202100Z AUTO 04004KT 6SM 17/11 RMK SLP138 T01690110 52004 IEM_DS3505
ZBAA,1984-05-21 00:00,ZBAA 210000Z AUTO 07004KT 5SM 16/12 RMK SLP149 T01650117 52011 IEM_DS3505
ZBAA,1984-05-21 03:00,ZBAA 210300Z AUTO 36004KT 3SM 17/13 RMK SLP153 T01740128 52004 IEM_DS3505
ZBAA,1984-05-21 06:00,ZBAA 210600Z AUTO 36004KT 2 1/2SM 20/15 RMK 60016 SLP161 T01970147 4////0149 52007 IEM_DS3505
ZBAA,1984-05-21 09:00,ZBAA 210900Z AUTO 27002KT 1 1/4SM 16/15 RMK SLP161 T01640147 54000 IEM_DS3505
ZBAA,1984-05-21 12:00,ZBAA 211200Z AUTO 04004KT 1 1/4SM 17/15 RMK 60012 SLP169 T01660154 52008 IEM_DS3505
ZBAA,1984-05-21 15:00,ZBAA 211500Z AUTO 36004KT 1SM 15/14 RMK SLP180 T01500143 52011 IEM_DS3505
ZBAA,1984-05-21 18:00,ZBAA 211800Z AUTO 00000KT 1SM 16/15 RMK SLP177 T01600151 40179//// 57003 IEM_DS3505
ZBAA,1984-05-21 21:00,ZBAA 212100Z AUTO 07002KT 2 1/2SM 16/14 RMK SLP179 T01610144 52002 IEM_DS3505
ZBAA,1984-05-22 00:00,ZBAA 220000Z AUTO 00000KT 2SM 17/14 RMK SLP190 T01680144 52011 IEM_DS3505
ZBAA,1984-05-22 03:00,ZBAA 220300Z AUTO 00000KT 3SM 20/14 A3003 RMK SLP183 T01990145 57006 IEM_DS3505
ZBAA,1984-05-22 04:00,ZBAA 220400Z AUTO 31008KT 7SM 21/14 A3000 RMK T02100140 IEM_DS3505
ZBAA,1984-05-22 06:00,ZBAA 220600Z AUTO 16008KT 3SM 22/15 A2997 RMK SLP162 T02200146 4////0146 57021 IEM_DS3505
ZBAA,1984-05-22 07:00,ZBAA 220700Z AUTO 17008KT 4SM 23/15 A2994 RMK T02300150 IEM_DS3505
ZBAA,1984-05-22 08:00,ZBAA 220800Z AUTO 16006KT 4SM 24/15 A2991 RMK T02400150 IEM_DS3505
ZBAA,1984-05-22 09:00,ZBAA 220900Z AUTO 20008KT 2 1/2SM 22/15 A2991 RMK SLP147 T02210151 57015 IEM_DS3505
ZBAA,1984-05-22 12:00,ZBAA 221200Z AUTO 18004KT 2SM 20/16 RMK SLP145 T02050157 57002 IEM_DS3505
ZBAA,1984-05-22 15:00,ZBAA 221500Z AUTO 18006KT 3SM 19/16 RMK SLP144 T01870158 57001 IEM_DS3505
ZBAA,1984-05-22 18:00,ZBAA 221800Z AUTO 00000KT 2 1/2SM 16/15 RMK SLP139 T01630153 40234//// 57005 IEM_DS3505
ZBAA,1984-05-22 21:00,ZBAA 222100Z AUTO 00000KT 1 1/4SM 15/15 RMK SLP139 T01540146 54000 IEM_DS3505
ZBAA,1984-05-23 00:00,ZBAA 230000Z AUTO 00000KT 1 1/4SM 18/17 RMK SLP150 T01840166 52011 IEM_DS3505
ZBAA,1984-05-23 03:00,ZBAA 230300Z AUTO 04006KT 1 1/4SM 22/17 RMK SLP152 T02230170 52002 IEM_DS3505
ZBAA,1984-05-23 06:00,ZBAA 230600Z AUTO 00000KT 2SM 24/16 RMK SLP133 T02440163 4////0145 57019 IEM_DS3505
ZBAA,1984-05-23 09:00,ZBAA 230900Z AUTO 20004KT 12SM 26/14 RMK SLP116 T02580142 57017 IEM_DS3505
ZBAA,1984-05-23 12:00,ZBAA 231200Z AUTO 20004KT 4SM 24/16 RMK SLP121 T02380160 52006 IEM_DS3505
ZBAA,1984-05-23 15:00,ZBAA 231500Z AUTO 16004KT 3SM 22/16 RMK SLP133 T02250163 52012 IEM_DS3505
ZBAA,1984-05-23 18:00,ZBAA 231800Z AUTO 00000KT 2 1/2SM 20/17 RMK SLP128 T01980168 40261//// 57005 IEM_DS3505
ZBAA,1984-05-23 21:00,ZBAA 232100Z AUTO 00000KT 4SM 18/15 RMK SLP130 T01810150 52002 IEM_DS3505
ZBAA,1984-05-24 00:00,ZBAA 240000Z AUTO 07002KT 2SM 20/17 RMK SLP143 T01990166 52013 IEM_DS3505
ZBAA,1984-05-24 03:00,ZBAA 240300Z AUTO 04004KT 3SM 24/15 RMK SLP144 T02420149 52001 IEM_DS3505
ZBAA,1984-05-24 06:00,ZBAA 240600Z AUTO 11008KT 6SM 26/15 RMK SLP129 T02570147 4////0174 57015 IEM_DS3505
ZBAA,1984-05-24 09:00,ZBAA 240900Z AUTO 14006KT 6SM 26/11 RMK SLP118 T02560111 57011 IEM_DS3505
ZBAA,1984-05-24 12:00,ZBAA 241200Z AUTO 00000KT 5SM 20/13 RMK SLP132 T02050132 52013 IEM_DS3505
ZBAA,1984-05-24 15:00,ZBAA 241500Z AUTO 11006KT 6SM 18/15 RMK SLP151 T01830153 52020 IEM_DS3505
ZBAA,1984-05-24 18:00,ZBAA 241800Z AUTO 14004KT 4SM RMK SLP152 40265//// 52001 IEM_DS3505
ZBAA,1984-05-24 21:00,ZBAA 242100Z AUTO 29002KT 4SM 14/13 RMK SLP157 T01440130 52004 IEM_DS3505
ZBAA,1984-05-25 00:00,ZBAA 250000Z AUTO 00000KT 3SM 15/13 RMK 60002 SLP164 T01520128 52007 IEM_DS3505
ZBAA,1984-05-25 03:00,ZBAA 250300Z AUTO 11006KT 4SM 16/13 RMK SLP170 T01630127 52006 IEM_DS3505
ZBAA,1984-05-25 06:00,ZBAA 250600Z AUTO 00000KT 5SM 18/13 RMK SLP151 T01820127 4////0140 57019 IEM_DS3505
ZBAA,1984-05-25 09:00,ZBAA 250900Z AUTO 16008KT 6SM 16/13 RMK SLP138 T01650126 57014 IEM_DS3505
ZBAA,1984-05-25 12:00,ZBAA 251200Z AUTO 18006KT 5SM 16/13 RMK SLP147 T01600130 52009 IEM_DS3505
ZBAA,1984-05-25 15:00,ZBAA 251500Z AUTO 14006KT 4SM 15/14 RMK SLP153 T01500136 52006 IEM_DS3505
ZBAA,1984-05-25 18:00,ZBAA 251800Z AUTO 18004KT 4SM 15/13 RMK SLP138 T01500128 40185//// 57015 IEM_DS3505
ZBAA,1984-05-25 21:00,ZBAA 252100Z AUTO 16002KT 2 1/2SM 15/13 RMK SLP135 T01480128 57003 IEM_DS3505
ZBAA,1984-05-26 00:00,ZBAA 260000Z AUTO 16004KT 3SM 16/13 RMK SLP137 T01550134 52002 IEM_DS3505
ZBAA,1984-05-26 03:00,ZBAA 260300Z AUTO 22002KT 2SM 18/14 A2988 RMK SLP134 T01820140 57003 IEM_DS3505
ZBAA,1984-05-26 04:00,ZBAA 260400Z AUTO 19006KT 2SM 20/14 A2985 RMK T02000140 IEM_DS3505
ZBAA,1984-05-26 05:00,ZBAA 260500Z AUTO 17012KT 2 1/2SM A2985 RMK IEM_DS3505
ZBAA,1984-05-26 06:00,ZBAA 260600Z AUTO 20008KT 6SM 20/14 A2983 RMK SLP107 T01980140 4////0147 57025 IEM_DS3505
ZBAA,1984-05-26 07:00,ZBAA 260700Z AUTO 17010KT 4SM 22/14 A2980 RMK T02200140 IEM_DS3505
ZBAA,1984-05-26 08:00,ZBAA 260800Z AUTO 18008KT 7SM 22/14 A2977 RMK T02200140 IEM_DS3505
ZBAA,1984-05-26 09:00,ZBAA 260900Z AUTO 16010KT 6SM 21/14 A2974 RMK SLP085 T02120142 57022 IEM_DS3505
ZBAA,1984-05-26 12:00,ZBAA 261200Z AUTO 18002KT 5SM 20/15 RMK SLP082 T01950148 57003 IEM_DS3505
ZBAA,1984-05-26 15:00,ZBAA 261500Z AUTO 16004KT 6SM 19/16 RMK SLP084 T01870157 52002 IEM_DS3505
ZBAA,1984-05-26 18:00,ZBAA 261800Z AUTO 00000KT 5SM 18/16 RMK SLP073 T01840159 40219//// 57011 IEM_DS3505
ZBAA,1984-05-26 21:00,ZBAA 262100Z AUTO 14002KT 3SM 17/15 RMK SLP059 T01720148 57014 IEM_DS3505
ZBAA,1984-05-27 00:00,ZBAA 270000Z AUTO 09002KT 2SM 18/15 RMK SLP059 T01790147 54000 IEM_DS3505
ZBAA,1984-05-27 03:00,ZBAA 270300Z AUTO 02004KT 2SM 22/15 RMK SLP044 T02210148 57015 IEM_DS3505
ZBAA,1984-05-27 06:00,ZBAA 270600Z AUTO 18006KT 2 1/2SM 25/16 RMK SLP020 T02530161 4////0168 57024 IEM_DS3505
ZBAA,1984-05-27 09:00,ZBAA 270900Z AUTO 18006KT 4SM 26/16 RMK SLP998 T02580165 57021 IEM_DS3505
ZBAA,1984-05-27 12:00,ZBAA 271200Z AUTO 25004KT 3SM 23/17 RMK SLP995 T02340172 57003 IEM_DS3505
ZBAA,1984-05-27 15:00,ZBAA 271500Z AUTO 18006KT 6SM 22/12 RMK SLP011 T02170117 52016 IEM_DS3505
ZBAA,1984-05-27 18:00,ZBAA 271800Z AUTO 20006KT 9SM 19/11 RMK SLP000 T01920114 40262//// 57011 IEM_DS3505
ZBAA,1984-05-27 21:00,ZBAA 272100Z AUTO 34002KT 5SM 15/12 RMK SLP000 T01480124 54000 IEM_DS3505
ZBAA,1984-05-28 00:00,ZBAA 280000Z AUTO 00000KT 3SM 21/13 RMK SLP015 T02060133 52014 IEM_DS3505
ZBAA,1984-05-28 03:00,ZBAA 280300Z AUTO 32006KT 12SM 27/07 RMK SLP017 T02700069 52003 IEM_DS3505
ZBAA,1984-05-28 06:00,ZBAA 280600Z AUTO 22002KT 12SM 29/08 RMK SLP001 T02940083 4////0144 57015 IEM_DS3505
ZBAA,1984-05-28 09:00,ZBAA 280900Z AUTO 34002KT 12SM 30/06 RMK SLP993 T02960064 57009 IEM_DS3505
ZBAA,1984-05-28 12:00,ZBAA 281200Z AUTO 34002KT 12SM 25/08 RMK SLP006 T02510083 52013 IEM_DS3505
ZBAA,1984-05-28 15:00,ZBAA 281500Z AUTO 22004KT 9SM 22/08 RMK SLP018 T02180085 52012 IEM_DS3505
ZBAA,1984-05-28 18:00,ZBAA 281800Z AUTO 00000KT 9SM 17/10 RMK SLP021 T01730100 40309//// 52003 IEM_DS3505
ZBAA,1984-05-28 21:00,ZBAA 282100Z AUTO 18004KT 12SM 16/09 RMK SLP024 T01640086 52003 IEM_DS3505
ZBAA,1984-05-29 00:00,ZBAA 290000Z AUTO 04004KT 7SM 24/08 A2959 RMK SLP033 T02400082 52009 IEM_DS3505
ZBAA,1984-05-29 01:00,ZBAA 290100Z AUTO 01008KT 7SM 24/01 A2959 RMK T02400010 IEM_DS3505
ZBAA,1984-05-29 02:00,ZBAA 290200Z AUTO 04004KT 7SM 27/08 A2959 RMK T02700080 IEM_DS3505
ZBAA,1984-05-29 03:00,ZBAA 290300Z AUTO 36002KT 7SM 29/09 A2959 RMK SLP029 T02860089 57004 IEM_DS3505
ZBAA,1984-05-29 04:00,ZBAA 290400Z AUTO 24008KT 7SM 32/07 A2956 RMK T03200070 IEM_DS3505
ZBAA,1984-05-29 05:00,ZBAA 290500Z AUTO 24006KT 7SM 32/04 A2956 RMK T03200040 IEM_DS3505
ZBAA,1984-05-29 06:00,ZBAA 290600Z AUTO 18008KT 7SM 32/06 A2953 RMK SLP008 T03170064 4////0156 57020 IEM_DS3505
ZBAA,1984-05-29 07:00,ZBAA 290700Z AUTO 21010KT 6SM 33/05 A2950 RMK T03300050 IEM_DS3505
ZBAA,1984-05-29 08:00,ZBAA 290800Z AUTO 18010KT 6SM 33/03 A2947 RMK T03300030 IEM_DS3505
ZBAA,1984-05-29 09:00,ZBAA 290900Z AUTO 20008KT 11SM 32/06 RMK SLP995 T03180065 57013 IEM_DS3505
ZBAA,1984-05-29 12:00,ZBAA 291200Z AUTO 20008KT 6SM 27/15 RMK SLP008 T02680154 52013 IEM_DS3505
ZBAA,1984-05-29 15:00,ZBAA 291500Z AUTO 18008KT 6SM 24/14 RMK SLP035 T02350136 52026 IEM_DS3505
ZBAA,1984-05-29 18:00,ZBAA 291800Z AUTO 00000KT 6SM 20/16 RMK SLP055 T02010156 40324//// 52020 IEM_DS3505
ZBAA,1984-05-29 21:00,ZBAA 292100Z AUTO 02004KT 7SM 19/14 RMK SLP066 T01860143 52011 IEM_DS3505
ZBAA,1984-05-30 00:00,ZBAA 300000Z AUTO 36002KT 6SM 27/16 RMK SLP080 T02660156 57004 IEM_DS3505
ZBAA,1984-05-30 06:00,ZBAA 300600Z AUTO 16010KT 6SM 30/13 RMK SLP069 T03020133 4////0174 57011 IEM_DS3505
ZBAA,1984-05-30 09:00,ZBAA 300900Z AUTO 20016KT 7SM 32/13 RMK SLP051 T03150129 57018 IEM_DS3505
ZBAA,1984-05-30 12:00,ZBAA 301200Z AUTO 18008KT 12SM 29/12 RMK SLP056 T02860124 52005 IEM_DS3505
ZBAA,1984-05-30 15:00,ZBAA 301500Z AUTO 20008KT 6SM 25/13 RMK SLP067 T02520134 52011 IEM_DS3505
ZBAA,1984-05-30 18:00,ZBAA 301800Z AUTO 00000KT 6SM 21/14 RMK SLP061 T02060141 40322//// 57006 IEM_DS3505
ZBAA,1984-05-30 21:00,ZBAA 302100Z AUTO 00000KT 5SM 19/15 RMK SLP064 T01890147 52003 IEM_DS3505
ZBAA,1984-05-31 00:00,ZBAA 310000Z AUTO 07004KT 4SM 24/16 RMK SLP075 T02370155 52011 IEM_DS3505
ZBAA,1984-05-31 03:00,ZBAA 310300Z AUTO 20002KT 4SM 29/15 RMK SLP069 T02920149 57005 IEM_DS3505
ZBAA,1984-05-31 06:00,ZBAA 310600Z AUTO 20012KT 6SM 33/14 RMK SLP051 T03310135 4////0183 57019 IEM_DS3505
ZBAA,1984-05-31 09:00,ZBAA 310900Z AUTO 20010KT 9SM 35/14 RMK SLP042 T03470140 57010 IEM_DS3505
ZBAA,1984-05-31 12:00,ZBAA 311200Z AUTO 18006KT 6SM 30/15 RMK SLP041 T03030154 52001 IEM_DS3505
ZBAA,1984-05-31 15:00,ZBAA 311500Z AUTO 18012KT 7SM 27/15 RMK SLP053 T02710152 52012 IEM_DS3505
ZBAA,1984-05-31 18:00,ZBAA 311800Z AUTO 18010KT 9SM 24/15 RMK SLP058 T02390153 40340//// 52005 IEM_DS3505
ZBAA,1984-05-31 21:00,ZBAA 312100Z AUTO 18006KT 5SM 21/16 RMK SLP062 T02110158 52004 IEM_DS3505
ZBAA,1984-06-01 00:00,ZBAA 010000Z AUTO 36006KT 4SM 24/17 RMK SLP071 T02430166 52009 IEM_DS3505
ZBAA,1984-06-01 03:00,ZBAA 010300Z AUTO 22010KT 5SM 28/17 RMK SLP064 T02800168 57007 IEM_DS3505
ZBAA,1984-06-01 06:00,ZBAA 010600Z AUTO 18014KT 6SM 31/14 RMK SLP041 T03130140 4////0206 57023 IEM_DS3505
ZBAA,1984-06-01 09:00,ZBAA 010900Z AUTO 20012KT 6SM 31/13 RMK SLP023 T03120132 57019 IEM_DS3505
ZBAA,1984-06-01 12:00,ZBAA 011200Z AUTO 18004KT 7SM 29/14 RMK SLP024 T02860137 52001 IEM_DS3505
ZBAA,1984-06-01 15:00,ZBAA 011500Z AUTO 18008KT 7SM 25/13 RMK SLP033 T02530133 52009 IEM_DS3505
ZBAA,1984-06-01 18:00,ZBAA 011800Z AUTO 18014KT 12SM 23/14 RMK SLP024 T02340137 40324//// 57008 IEM_DS3505
ZBAA,1984-06-01 21:00,ZBAA 012100Z AUTO 18006KT 5SM 21/16 A2956 RMK SLP020 T02120159 57005 IEM_DS3505
ZBAA,1984-06-01 22:00,ZBAA 012200Z AUTO 15004KT 6SM 20/15 A2956 RMK T02000150 IEM_DS3505
ZBAA,1984-06-01 23:00,ZBAA 012300Z AUTO 14004KT 6SM 22/16 A2956 RMK T02200160 IEM_DS3505
ZBAA,1984-06-02 00:00,ZBAA 020000Z AUTO 20006KT 4SM 22/17 RMK SLP027 T02240169 52007 IEM_DS3505
ZBAA,1984-06-02 01:00,ZBAA 020100Z AUTO 18008KT 6SM 24/17 A2956 RMK T02400170 IEM_DS3505
ZBAA,1984-06-02 02:00,ZBAA 020200Z AUTO 17006KT 6SM 26/18 A2956 RMK T02600180 IEM_DS3505
ZBAA,1984-06-02 03:00,ZBAA 020300Z AUTO 16010KT 5SM 27/18 A2953 RMK SLP013 T02660178 57014 IEM_DS3505
ZBAA,1984-06-02 04:00,ZBAA 020400Z AUTO 18006KT 6SM 29/19 A2953 RMK T02900190 IEM_DS3505
ZBAA,1984-06-02 05:00,ZBAA 020500Z AUTO 21014KT 6SM 30/18 A2950 RMK T03000180 IEM_DS3505
ZBAA,1984-06-02 06:00,ZBAA 020600Z AUTO 20010KT 6SM 29/19 A2947 RMK SLP988 T02900187 4////0206 57024 IEM_DS3505
ZBAA,1984-06-02 08:00,ZBAA 020800Z AUTO 20008KT 6SM 30/17 A2944 RMK T03000170 IEM_DS3505
ZBAA,1984-06-02 09:00,ZBAA 020900Z AUTO 20010KT 5SM 30/17 A2938 RMK SLP963 T02990172 57025 IEM_DS3505
ZBAA,1984-06-02 12:00,ZBAA 021200Z AUTO 18008KT 5SM 29/17 RMK SLP954 T02880174 57009 IEM_DS3505
ZBAA,1984-06-02 15:00,ZBAA 021500Z AUTO 16008KT 5SM 25/18 RMK SLP964 T02520185 52010 IEM_DS3505
ZBAA,1984-06-02 17:00,ZBAA 021700Z AUTO 16004KT 5SM 22/17 RMK 60024 SLP968 T02160172 40300//// 52004 IEM_DS3505
ZBAA,1984-06-02 18:00,ZBAA 021800Z AUTO 16004KT 4SM 22/17 RMK 60008 T02160172 40300//// 52004 IEM_DS3505
ZBAA,1984-06-02 21:00,ZBAA 022100Z AUTO 14002KT 5SM 21/17 RMK SLP968 T02100169 54000 IEM_DS3505
ZBAA,1984-06-03 00:00,ZBAA 030000Z AUTO 02006KT 4SM 22/18 RMK SLP982 T02170179 52014 IEM_DS3505
ZBAA,1984-06-03 01:00,ZBAA 030100Z AUTO 14008KT 4SM 25/19 RMK SLP000 T02520194 52007 IEM_DS3505
ZBAA,1984-06-03 03:00,ZBAA 030300Z AUTO 02006KT 4SM 24/18 RMK SLP989 T02440176 52007 IEM_DS3505
ZBAA,1984-06-03 06:00,ZBAA 030600Z AUTO 09006KT 4SM 27/18 RMK SLP993 T02660178 52004 IEM_DS3505
ZBAA,1984-06-03 09:00,ZBAA 030900Z AUTO 14008KT 4SM 25/19 RMK SLP000 T02520194 52007 IEM_DS3505
ZBAA,1984-06-03 12:00,ZBAA 031200Z AUTO 14006KT 4SM 22/20 RMK 60004 SLP014 T02200199 52012 IEM_DS3505
ZBAA,1984-06-03 15:00,ZBAA 031500Z AUTO 00000KT 4SM 20/18 RMK SLP041 T02010176 52027 IEM_DS3505
ZBAA,1984-06-03 18:00,ZBAA 031800Z AUTO 22002KT 5SM 19/18 RMK 60002 SLP029 T01930175 40274//// 57011 IEM_DS3505
ZBAA,1984-06-03 21:00,ZBAA 032100Z AUTO 18002KT 4SM 18/17 RMK SLP024 T01830173 57006 IEM_DS3505
ZBAA,1984-06-04 00:00,ZBAA 040000Z AUTO 22004KT 4SM 21/18 RMK SLP032 T02110179 52008 IEM_DS3505
ZBAA,1984-06-04 03:00,ZBAA 040300Z AUTO 14006KT 5SM 24/18 RMK SLP035 T02400180 52003 IEM_DS3505
ZBAA,1984-06-04 06:00,ZBAA 040600Z AUTO 20010KT 5SM 26/18 RMK SLP025 T02650179 4////0176 57010 IEM_DS3505
ZBAA,1984-06-04 09:00,ZBAA 040900Z AUTO 20010KT 6SM 27/18 RMK SLP004 T02680179 57020 IEM_DS3505
ZBAA,1984-06-04 12:00,ZBAA 041200Z AUTO 18006KT 6SM 25/18 RMK SLP010 T02530176 52007 IEM_DS3505
ZBAA,1984-06-04 15:00,ZBAA 041500Z AUTO 11006KT 5SM 22/17 RMK SLP033 T02230173 52022 IEM_DS3505
ZBAA,1984-06-04 18:00,ZBAA 041800Z AUTO 04004KT 6SM 21/17 RMK SLP026 T02120173 40272//// 57007 IEM_DS3505
ZBAA,1984-06-04 21:00,ZBAA 042100Z AUTO 11006KT 5SM 20/17 RMK SLP045 T02050168 52019 IEM_DS3505
ZBAA,1984-06-05 00:00,ZBAA 050000Z AUTO 32004KT 5SM 22/18 RMK SLP063 T02160178 52018 IEM_DS3505
ZBAA,1984-06-05 03:00,ZBAA 050300Z AUTO 34010KT 6SM 25/04 A2968 RMK SLP058 T02530039 57005 IEM_DS3505
ZBAA,1984-06-05 04:00,ZBAA 050400Z AUTO 30012KT 6SM 26/03 A2968 RMK T02600030 IEM_DS3505
ZBAA,1984-06-05 05:00,ZBAA 050500Z AUTO 35014KT 6SM 28/01 A2965 RMK T02800010 IEM_DS3505
ZBAA,1984-06-05 06:00,ZBAA 050600Z AUTO 34008KT 9SM 28/01 A2965 RMK SLP050 T02760008 4////0200 57008 IEM_DS3505
ZBAA,1984-06-05 07:00,ZBAA 050700Z AUTO 31010KT 6SM 28/00 A2965 RMK T02800000 IEM_DS3505
ZBAA,1984-06-05 08:00,ZBAA 050800Z AUTO 29008KT 6SM 28/03 A2965 RMK T02800030 IEM_DS3505
ZBAA,1984-06-05 09:00,ZBAA 050900Z AUTO 32006KT 12SM 26/M02 A2962 RMK SLP047 T02641018 57003 IEM_DS3505
ZBAA,1984-06-05 12:00,ZBAA 051200Z AUTO 00000KT 19SM 23/07 RMK SLP055 T02260074 52007 IEM_DS3505
ZBAA,1984-06-05 15:00,ZBAA 051500Z AUTO 00000KT 19SM 20/08 RMK SLP071 T01980081 52016 IEM_DS3505
ZBAA,1984-06-05 18:00,ZBAA 051800Z AUTO 00000KT 19SM 18/06 RMK SLP074 T01770065 52003 IEM_DS3505
ZBAA,1984-06-05 21:00,ZBAA 052100Z AUTO 00000KT 19SM 15/09 RMK SLP070 T01500091 57004 IEM_DS3505
ZBAA,1984-06-06 00:00,ZBAA 060000Z AUTO 22002KT 7SM 23/06 RMK SLP072 T02290062 52002 IEM_DS3505
ZBAA,1984-06-06 03:00,ZBAA 060300Z AUTO 20012KT 8SM 28/07 RMK SLP061 T02750072 57010 IEM_DS3505
ZBAA,1984-06-06 06:00,ZBAA 060600Z AUTO 20010KT 9SM 31/06 RMK SLP034 T03100062 4////0143 57027 IEM_DS3505
ZBAA,1984-06-06 09:00,ZBAA 060900Z AUTO 20014KT 6SM 31/06 RMK SLP015 T03120056 57019 IEM_DS3505
ZBAA,1984-06-06 12:00,ZBAA 061200Z AUTO 18012KT 9SM 28/08 RMK SLP014 T02790085 57001 IEM_DS3505
ZBAA,1984-06-06 15:00,ZBAA 061500Z AUTO 20010KT 12SM 24/14 RMK SLP024 T02370135 52010 IEM_DS3505
ZBAA,1984-06-06 18:00,ZBAA 061800Z AUTO 20004KT 9SM 20/14 RMK SLP036 T01970142 40321//// 52012 IEM_DS3505
ZBAA,1984-06-06 21:00,ZBAA 062100Z AUTO 02006KT 6SM 18/13 RMK SLP049 T01840131 52013 IEM_DS3505
ZBAA,1984-06-07 00:00,ZBAA 070000Z AUTO 07002KT 6SM 25/13 RMK SLP065 T02460130 52016 IEM_DS3505
ZBAA,1984-06-07 03:00,ZBAA 070300Z AUTO 04004KT 7SM 32/07 RMK SLP054 T03250069 57010 IEM_DS3505
ZBAA,1984-06-07 06:00,ZBAA 070600Z AUTO 22010KT 9SM 34/10 RMK SLP041 T03400103 4////0169 57014 IEM_DS3505
ZBAA,1984-06-07 09:00,ZBAA 070900Z AUTO 22012KT 11SM 34/06 RMK SLP030 T03440062 57011 IEM_DS3505
ZBAA,1984-06-07 12:00,ZBAA 071200Z AUTO 20010KT 9SM 30/10 RMK SLP031 T03040098 52002 IEM_DS3505
ZBAA,1984-06-07 15:00,ZBAA 071500Z AUTO 18010KT 7SM 28/12 RMK SLP037 T02760123 52006 IEM_DS3505
ZBAA,1984-06-07 18:00,ZBAA 071800Z AUTO 00000KT 6SM 22/14 RMK SLP043 T02220139 52011 IEM_DS3505
ZBAA,1984-06-08 00:00,ZBAA 080000Z AUTO 34006KT 7SM 25/14 RMK SLP063 T02500137 52020 IEM_DS3505
ZBAA,1984-06-08 03:00,ZBAA 080300Z AUTO 36012KT 9SM 28/08 RMK SLP072 T02750081 52009 IEM_DS3505
ZBAA,1984-06-08 06:00,ZBAA 080600Z AUTO 36006KT 12SM 31/07 RMK SLP060 T03060069 4////0212 57012 IEM_DS3505
ZBAA,1984-06-08 09:00,ZBAA 080900Z AUTO 36006KT 12SM 29/09 RMK SLP048 T02940091 57013 IEM_DS3505
ZBAA,1984-06-08 12:00,ZBAA 081200Z AUTO 00000KT 12SM 28/11 RMK SLP049 T02750110 52001 IEM_DS3505
ZBAA,1984-06-08 15:00,ZBAA 081500Z AUTO 22004KT 6SM 24/12 RMK SLP057 T02380115 52008 IEM_DS3505
ZBAA,1984-06-08 18:00,ZBAA 081800Z AUTO 29002KT 6SM 21/12 RMK SLP048 T02120116 40312//// 57009 IEM_DS3505
ZBAA,1984-06-08 21:00,ZBAA 082100Z AUTO 18006KT 5SM 22/11 RMK SLP037 T02180106 57011 IEM_DS3505
ZBAA,1984-06-09 00:00,ZBAA 090000Z AUTO 00000KT 4SM 23/13 RMK SLP036 T02280128 57001 IEM_DS3505
ZBAA,1984-06-09 02:00,ZBAA 090200Z AUTO 10004KT 7SM 26/14 A2959 RMK T02600140 IEM_DS3505
ZBAA,1984-06-09 03:00,ZBAA 090300Z AUTO 36004KT 2 1/2SM 30/12 A2959 RMK SLP026 T03020124 57009 IEM_DS3505
ZBAA,1984-06-09 04:00,ZBAA 090400Z AUTO 23004KT 7SM 31/08 A2959 RMK T03100080 IEM_DS3505
ZBAA,1984-06-09 05:00,ZBAA 090500Z AUTO 09006KT 6SM 32/10 A2956 RMK T03200100 IEM_DS3505
ZBAA,1984-06-09 06:00,ZBAA 090600Z AUTO 34010KT 12SM 33/01 A2953 RMK SLP006 T03330014 4////0188 57020 IEM_DS3505
ZBAA,1984-06-09 07:00,ZBAA 090700Z AUTO 02004KT 6SM 34/05 A2950 RMK T03400050 IEM_DS3505
ZBAA,1984-06-09 08:00,ZBAA 090800Z AUTO 30008KT 6SM 35/02 A2947 RMK T03500020 IEM_DS3505
ZBAA,1984-06-09 09:00,ZBAA 090900Z AUTO 34016KT 12SM 34/M04 A2947 RMK SLP000 T03391039 57006 IEM_DS3505
ZBAA,1984-06-09 10:00,ZBAA 091000Z AUTO 27006KT 6SM 33/M01 A2950 RMK T03301010 IEM_DS3505
ZBAA,1984-06-09 12:00,ZBAA 091200Z AUTO 07008KT 19SM 30/01 RMK SLP034 T02980014 52033 IEM_DS3505
ZBAA,1984-06-09 15:00,ZBAA 091500Z AUTO 16002KT 19SM 21/10 RMK SLP075 T02090099 52041 IEM_DS3505
ZBAA,1984-06-09 18:00,ZBAA 091800Z AUTO 04004KT 6SM 19/11 RMK SLP071 T01860111 40346//// 57004 IEM_DS3505
ZBAA,1984-06-09 21:00,ZBAA 092100Z AUTO 36004KT 12SM 16/11 RMK SLP062 T01580112 57009 IEM_DS3505
ZBAA,1984-06-10 00:00,ZBAA 100000Z AUTO 07002KT 9SM 21/11 RMK SLP063 T02140110 52001 IEM_DS3505
ZBAA,1984-06-10 03:00,ZBAA 100300Z AUTO 02006KT 6SM 26/12 RMK SLP053 T02550115 57010 IEM_DS3505
ZBAA,1984-06-10 06:00,ZBAA 100600Z AUTO 18006KT 6SM 28/14 RMK SLP024 T02850138 4////0152 57029 IEM_DS3505
ZBAA,1984-06-10 09:00,ZBAA 100900Z AUTO 16006KT 6SM 31/12 RMK SLP006 T03070120 57017 IEM_DS3505
ZBAA,1984-06-10 12:00,ZBAA 101200Z AUTO 09006KT 6SM 29/16 RMK SLP015 T02920162 52008 IEM_DS3505
ZBAA,1984-06-10 15:00,ZBAA 101500Z AUTO 11004KT 6SM 25/19 RMK SLP034 T02520186 52019 IEM_DS3505
ZBAA,1984-06-10 18:00,ZBAA 101800Z AUTO 00000KT 5SM 24/19 RMK SLP030 T02360186 40314//// 57004 IEM_DS3505
ZBAA,1984-06-10 21:00,ZBAA 102100Z AUTO 09002KT 2 1/2SM 22/17 RMK SLP040 T02220174 52010 IEM_DS3505
ZBAA,1984-06-11 00:00,ZBAA 110000Z AUTO 07004KT 2 1/2SM 23/17 RMK SLP048 T02340173 52008 IEM_DS3505
ZBAA,1984-06-11 03:00,ZBAA 110300Z AUTO 04008KT 4SM 27/17 RMK SLP046 T02660172 57002 IEM_DS3505
ZBAA,1984-06-11 06:00,ZBAA 110600Z AUTO 09006KT 6SM 27/18 RMK SLP046 T02740177 4////0217 54000 IEM_DS3505
ZBAA,1984-06-11 09:00,ZBAA 110900Z AUTO 20004KT 5SM 27/18 RMK SLP047 T02680183 52001 IEM_DS3505
ZBAA,1984-06-11 12:00,ZBAA 111200Z AUTO 07004KT 5SM 25/17 RMK SLP056 T02530174 52009 IEM_DS3505
ZBAA,1984-06-11 15:00,ZBAA 111500Z AUTO 00000KT 4SM 23/17 RMK SLP068 T02340168 52012 IEM_DS3505
ZBAA,1984-06-11 18:00,ZBAA 111800Z AUTO 20010KT 4SM 23/15 RMK SLP089 T02340149 40299//// 52021 IEM_DS3505
ZBAA,1984-06-11 21:00,ZBAA 112100Z AUTO 02008KT 2 1/2SM 19/17 RMK SLP082 T01910173 57007 IEM_DS3505
ZBAA,1984-06-12 00:00,ZBAA 120000Z AUTO 02006KT 2 1/2SM 20/17 RMK 60008 SLP096 T01970172 52013 IEM_DS3505
ZBAA,1984-06-12 02:00,ZBAA 120200Z AUTO 00000KT 6SM 21/18 A2980 RMK T02100180 IEM_DS3505
ZBAA,1984-06-12 03:00,ZBAA 120300Z AUTO 14004KT 2 1/2SM 22/18 A2980 RMK SLP103 T02160181 52007 IEM_DS3505
ZBAA,1984-06-12 04:00,ZBAA 120400Z AUTO 17012KT 6SM 22/18 A2980 RMK T02200180 IEM_DS3505
ZBAA,1984-06-12 05:00,ZBAA 120500Z AUTO 18006KT 6SM 22/18 A2980 RMK T02200180 IEM_DS3505
ZBAA,1984-06-12 06:00,ZBAA 120600Z AUTO 20004KT 3SM 24/17 A2977 RMK 60012 SLP090 T02380174 4////0182 57012 IEM_DS3505
ZBAA,1984-06-12 07:00,ZBAA 120700Z AUTO 12008KT 6SM 24/18 A2974 RMK T02400180 IEM_DS3505
ZBAA,1984-06-12 09:00,ZBAA 120900Z AUTO 11006KT 4SM 24/18 RMK SLP082 T02360181 57009 IEM_DS3505
ZBAA,1984-06-12 12:00,ZBAA 121200Z AUTO 07004KT 2 1/2SM 22/18 RMK SLP104 T02210178 52020 IEM_DS3505
ZBAA,1984-06-12 15:00,ZBAA 121500Z AUTO 04004KT 2SM 21/18 RMK SLP112 T02070175 52008 IEM_DS3505
ZBAA,1984-06-12 18:00,ZBAA 121800Z AUTO 00000KT 2SM 21/18 RMK SLP100 T02060179 40248//// 57012 IEM_DS3505
ZBAA,1984-06-12 21:00,ZBAA 122100Z AUTO 04004KT 2SM 20/17 RMK SLP099 T02050174 57001 IEM_DS3505
ZBAA,1984-06-13 00:00,ZBAA 130000Z AUTO 11006KT 4SM 20/16 RMK SLP115 T02050158 52016 IEM_DS3505
ZBAA,1984-06-13 03:00,ZBAA 130300Z AUTO 02006KT 7SM 21/15 RMK SLP119 T02100148 52003 IEM_DS3505
ZBAA,1984-06-13 06:00,ZBAA 130600Z AUTO 36006KT 9SM 23/15 RMK 60000 T02330146 57017 IEM_DS3505
ZBAA,1984-06-13 09:00,ZBAA 130900Z AUTO 36006KT 9SM 24/15 RMK SLP090 T02440146 57011 IEM_DS3505
ZBAA,1984-06-13 12:00,ZBAA 131200Z AUTO 36002KT 7SM 24/16 RMK SLP090 T02350157 54000 IEM_DS3505
ZBAA,1984-06-13 15:00,ZBAA 131500Z AUTO 00000KT 6SM 22/17 RMK SLP091 T02150172 52001 IEM_DS3505
ZBAA,1984-06-13 18:00,ZBAA 131800Z AUTO 00000KT 5SM 21/16 RMK SLP089 T02080157 57002 IEM_DS3505
ZBAA,1984-06-13 21:00,ZBAA 132100Z AUTO 02004KT 5SM 19/16 RMK SLP086 T01880158 57003 IEM_DS3505
ZBAA,1984-06-14 00:00,ZBAA 140000Z AUTO 32002KT 4SM 21/16 RMK SLP085 T02140158 57001 IEM_DS3505
ZBAA,1984-06-14 03:00,ZBAA 140300Z AUTO 36006KT 6SM 25/16 RMK SLP070 T02500155 57014 IEM_DS3505
ZBAA,1984-06-14 06:00,ZBAA 140600Z AUTO 16004KT 6SM 27/17 RMK SLP051 T02730167 4////0183 57019 IEM_DS3505
ZBAA,1984-06-14 09:00,ZBAA 140900Z AUTO 22002KT 7SM 28/17 RMK SLP033 T02850166 57018 IEM_DS3505
ZBAA,1984-06-14 12:00,ZBAA 141200Z AUTO 14010KT 6SM 27/17 RMK SLP030 T02700170 57003 IEM_DS3505
ZBAA,1984-06-14 15:00,ZBAA 141500Z AUTO 16004KT 7SM 24/16 RMK SLP040 T02350157 52010 IEM_DS3505
ZBAA,1984-06-14 18:00,ZBAA 141800Z AUTO 11004KT 6SM 22/16 RMK SLP034 T02240158 40289//// 57006 IEM_DS3505
ZBAA,1984-06-14 21:00,ZBAA 142100Z AUTO 02004KT 1SM 19/18 RMK SLP028 T01920179 57006 IEM_DS3505
ZBAA,1984-06-15 00:00,ZBAA 150000Z AUTO 04004KT 1SM 18/17 RMK 60016 SLP028 T01820168 57001 IEM_DS3505
ZBAA,1984-06-15 03:00,ZBAA 150300Z AUTO 36006KT 1 1/2SM 19/18 RMK SLP024 T01860176 57004 IEM_DS3505
ZBAA,1984-06-15 06:00,ZBAA 150600Z AUTO 36006KT 1SM 19/18 RMK 60012 SLP024 T01880183 4////0179 54000 IEM_DS3505
ZBAA,1984-06-15 09:00,ZBAA 150900Z AUTO 02004KT 2 1/2SM 20/18 RMK SLP006 T02010182 57017 IEM_DS3505
ZBAA,1984-06-15 12:00,ZBAA 151200Z AUTO 02002KT 4SM 20/18 RMK SLP009 T02050183 52003 IEM_DS3505
ZBAA,1984-06-15 15:00,ZBAA 151500Z AUTO 00000KT 4SM 19/17 RMK SLP016 T01900172 52006 IEM_DS3505
ZBAA,1984-06-15 18:00,ZBAA 151800Z AUTO 27004KT 3SM 18/17 RMK 60001 SLP000 T01830170 57016 IEM_DS3505
ZBAA,1984-06-15 21:00,ZBAA 152100Z AUTO 36004KT 3SM 18/17 RMK SLP979 T01790168 57020 IEM_DS3505
ZBAA,1984-06-16 00:00,ZBAA 160000Z AUTO 36006KT 5SM 21/18 A2941 RMK 70012 SLP972 T02060176 57007 IEM_DS3505
ZBAA,1984-06-16 01:00,ZBAA 160100Z AUTO 35006KT 6SM 21/18 A2938 RMK T02100180 IEM_DS3505
ZBAA,1984-06-16 02:00,ZBAA 160200Z AUTO 00000KT 6SM 23/18 A2938 RMK T02300180 IEM_DS3505
ZBAA,1984-06-16 03:00,ZBAA 160300Z AUTO 36006KT 12SM 26/17 A2935 RMK SLP958 T02630173 57014 IEM_DS3505
ZBAA,1984-06-16 04:00,ZBAA 160400Z AUTO 36006KT 6SM 26/18 A2935 RMK T02600180 IEM_DS3505
ZBAA,1984-06-16 05:00,ZBAA 160500Z AUTO 32004KT 6SM 28/18 A2932 RMK T02800180 IEM_DS3505
ZBAA,1984-06-16 06:00,ZBAA 160600Z AUTO 09004KT 12SM 29/17 A2929 RMK SLP933 T02910168 4////0172 57024 IEM_DS3505
ZBAA,1984-06-16 07:00,ZBAA 160700Z AUTO 04008KT 6SM 30/17 A2929 RMK T03000170 IEM_DS3505
ZBAA,1984-06-16 08:00,ZBAA 160800Z AUTO 05006KT 7SM 29/17 A2926 RMK T02900170 IEM_DS3505
ZBAA,1984-06-16 09:00,ZBAA 160900Z AUTO 34002KT 12SM 30/18 A2926 RMK SLP921 T03040177 57012 IEM_DS3505
ZBAA,1984-06-16 12:00,ZBAA 161200Z AUTO 07002KT 12SM 28/18 RMK SLP934 T02790176 52013 IEM_DS3505
ZBAA,1984-06-16 15:00,ZBAA 161500Z AUTO 34002KT 6SM 24/16 RMK SLP947 T02360156 52013 IEM_DS3505
ZBAA,1984-06-16 18:00,ZBAA 161800Z AUTO 18002KT 12SM 20/16 RMK SLP942 T02010160 40308//// 57005 IEM_DS3505
ZBAA,1984-06-16 21:00,ZBAA 162100Z AUTO 18004KT 19SM 22/12 RMK SLP935 T02180124 57007 IEM_DS3505
ZBAA,1984-06-17 00:00,ZBAA 170000Z AUTO 27012KT 19SM 27/10 RMK SLP936 T02740100 52001 IEM_DS3505
ZBAA,1984-06-17 03:00,ZBAA 170300Z AUTO 36008KT 19SM 30/11 RMK SLP931 T02990110 57005 IEM_DS3505
ZBAA,1984-06-17 06:00,ZBAA 170600Z AUTO 27010KT 19SM 32/12 RMK SLP912 T03250121 4////0185 57019 IEM_DS3505
ZBAA,1984-06-17 09:00,ZBAA 170900Z AUTO 27012KT 19SM 33/09 RMK SLP906 T03310091 57005 IEM_DS3505
ZBAA,1984-06-17 12:00,ZBAA 171200Z AUTO 34006KT 19SM 30/11 RMK SLP928 T02970108 52021 IEM_DS3505
ZBAA,1984-06-17 15:00,ZBAA 171500Z AUTO 34004KT 19SM 28/11 RMK SLP941 T02750107 52013 IEM_DS3505
ZBAA,1984-06-17 18:00,ZBAA 171800Z AUTO 22006KT 19SM 26/12 RMK SLP949 T02580120 40333//// 52009 IEM_DS3505
ZBAA,1984-06-17 21:00,ZBAA 172100Z AUTO 00000KT 16SM 21/14 RMK SLP953 T02090143 52003 IEM_DS3505
ZBAA,1984-06-18 00:00,ZBAA 180000Z AUTO 02006KT 16SM 27/15 RMK SLP962 T02690151 52009 IEM_DS3505
ZBAA,1984-06-18 03:00,ZBAA 180300Z AUTO 36010KT 19SM 30/13 RMK SLP960 T02980127 57002 IEM_DS3505
ZBAA,1984-06-18 06:00,ZBAA 180600Z AUTO 27002KT 19SM 32/14 RMK SLP948 T03160135 4////0203 57012 IEM_DS3505
ZBAA,1984-06-18 09:00,ZBAA 180900Z AUTO 18006KT 19SM 32/14 RMK SLP938 T03210143 57010 IEM_DS3505
ZBAA,1984-06-18 10:00,ZBAA 181000Z AUTO 34012KT 7SM 27/13 RMK SLP955 T02690133 52017 IEM_DS3505
ZBAA,1984-06-18 12:00,ZBAA 181200Z AUTO 34012KT 7SM 27/13 RMK SLP955 T02690133 52017 IEM_DS3505
ZBAA,1984-06-18 15:00,ZBAA 181500Z AUTO 04002KT 5SM 20/18 RMK SLP996 T01990178 52041 IEM_DS3505
ZBAA,1984-06-18 18:00,ZBAA 181800Z AUTO 02006KT 4SM 20/18 RMK 60083 SLP005 T01980183 40331//// 52009 IEM_DS3505
ZBAA,1984-06-18 21:00,ZBAA 182100Z AUTO 00000KT 9SM 20/18 RMK SLP023 T01980180 52017 IEM_DS3505
ZBAA,1984-06-19 00:00,ZBAA 190000Z AUTO 09002KT 7SM 24/19 RMK SLP039 T02390188 52016 IEM_DS3505
ZBAA,1984-06-19 03:00,ZBAA 190300Z AUTO 07004KT 6SM 26/18 A2965 RMK SLP052 T02600182 52013 IEM_DS3505
ZBAA,1984-06-19 04:00,ZBAA 190400Z AUTO 15008KT 6SM 27/20 A2965 RMK T02700200 IEM_DS3505
ZBAA,1984-06-19 05:00,ZBAA 190500Z AUTO 18006KT 7SM 28/19 A2965 RMK T02800190 IEM_DS3505
ZBAA,1984-06-19 06:00,ZBAA 190600Z AUTO 09002KT 7SM 27/18 A2965 RMK SLP048 T02740184 4////0190 57004 IEM_DS3505
ZBAA,1984-06-19 07:00,ZBAA 190700Z AUTO 00000KT 6SM 28/18 A2965 RMK T02800180 IEM_DS3505
ZBAA,1984-06-19 08:00,ZBAA 190800Z AUTO 15004KT 6SM 28/19 A2965 RMK T02800190 IEM_DS3505
ZBAA,1984-06-19 09:00,ZBAA 190900Z AUTO 11004KT 6SM 29/19 A2965 RMK SLP049 T02860186 52001 IEM_DS3505
ZBAA,1984-06-19 12:00,ZBAA 191200Z AUTO 07010KT 19SM 23/19 RMK SLP078 T02260189 52029 IEM_DS3505
ZBAA,1984-06-19 15:00,ZBAA 191500Z AUTO 36004KT 12SM 22/19 RMK SLP095 T02150194 52017 IEM_DS3505
ZBAA,1984-06-19 18:00,ZBAA 191800Z AUTO 00000KT 9SM 22/20 RMK 60004 SLP099 T02170200 40291//// 52004 IEM_DS3505
ZBAA,1984-06-19 21:00,ZBAA 192100Z AUTO 00000KT 9SM 22/20 RMK SLP107 T02180196 52008 IEM_DS3505
ZBAA,1984-06-20 00:00,ZBAA 200000Z AUTO 00000KT 6SM 23/16 RMK SLP116 T02290160 52008 IEM_DS3505
ZBAA,1984-06-20 03:00,ZBAA 200300Z AUTO 00000KT 6SM 24/17 RMK SLP114 T02420172 57002 IEM_DS3505
ZBAA,1984-06-20 06:00,ZBAA 200600Z AUTO 18006KT 6SM 26/15 RMK SLP105 T02560151 4////0207 57008 IEM_DS3505
ZBAA,1984-06-20 09:00,ZBAA 200900Z AUTO 16006KT 12SM 25/14 RMK SLP097 T02510138 57008 IEM_DS3505
ZBAA,1984-06-20 12:00,ZBAA 201200Z AUTO 20006KT 6SM 23/16 RMK SLP096 T02340161 57001 IEM_DS3505
ZBAA,1984-06-20 15:00,ZBAA 201500Z AUTO 20004KT 6SM 22/16 RMK SLP095 T02220162 57001 IEM_DS3505
ZBAA,1984-06-20 18:00,ZBAA 201800Z AUTO 20004KT 6SM 21/16 RMK SLP087 T02130164 40265//// 57008 IEM_DS3505
ZBAA,1984-06-20 21:00,ZBAA 202100Z AUTO 20004KT 6SM 20/18 RMK SLP090 T02020176 52002 IEM_DS3505
ZBAA,1984-06-21 00:00,ZBAA 210000Z AUTO 22002KT 7SM 21/16 RMK 60001 SLP093 T02060160 52003 IEM_DS3505
ZBAA,1984-06-21 03:00,ZBAA 210300Z AUTO 20002KT 11SM 22/13 RMK SLP092 T02170132 57001 IEM_DS3505
ZBAA,1984-06-21 06:00,ZBAA 210600Z AUTO 18004KT 9SM 21/15 RMK SLP088 T02130149 4////0195 57004 IEM_DS3505
ZBAA,1984-06-21 09:00,ZBAA 210900Z AUTO 18004KT 6SM 20/17 RMK SLP082 T02030174 57006 IEM_DS3505
ZBAA,1984-06-21 12:00,ZBAA 211200Z AUTO 18002KT 6SM 19/17 RMK 60000 SLP085 T01930172 52003 IEM_DS3505
ZBAA,1984-06-21 15:00,ZBAA 211500Z AUTO 20004KT 5SM 19/17 RMK SLP090 T01870172 52005 IEM_DS3505
ZBAA,1984-06-21 18:00,ZBAA 211800Z AUTO 18002KT 4SM 18/17 RMK 60001 SLP086 T01830172 40219//// 57004 IEM_DS3505
ZBAA,1984-06-21 21:00,ZBAA 212100Z AUTO 00000KT 1SM 18/17 RMK SLP084 T01820172 57002 IEM_DS3505
ZBAA,1984-06-22 00:00,ZBAA 220000Z AUTO 09002KT 1SM 20/18 RMK SLP083 T02010176 57001 IEM_DS3505
ZBAA,1984-06-22 03:00,ZBAA 220300Z AUTO 25006KT 1SM 24/18 RMK SLP081 T02380181 57002 IEM_DS3505
ZBAA,1984-06-22 06:00,ZBAA 220600Z AUTO 36002KT 2SM 27/19 RMK SLP071 T02710189 57010 IEM_DS3505
ZBAA,1984-06-22 09:00,ZBAA 220900Z AUTO 18006KT 1 1/4SM 29/19 RMK SLP058 T02900187 57012 IEM_DS3505
ZBAA,1984-06-22 12:00,ZBAA 221200Z AUTO 16004KT 4SM 26/25 RMK SLP067 T02600251 52009 IEM_DS3505
ZBAA,1984-06-22 15:00,ZBAA 221500Z AUTO 14002KT 4SM 24/20 RMK SLP078 T02410200 52011 IEM_DS3505
ZBAA,1984-06-22 18:00,ZBAA 221800Z AUTO 20002KT 2 1/2SM 22/20 RMK SLP081 T02200200 40296//// 52003 IEM_DS3505
ZBAA,1984-06-22 21:00,ZBAA 222100Z AUTO 00000KT 1 1/4SM 20/19 RMK SLP082 T02040191 52010 IEM_DS3505
ZBAA,1984-06-23 00:00,ZBAA 230000Z AUTO 02002KT 2SM 24/21 RMK SLP085 T02380206 52003 IEM_DS3505
ZBAA,1984-06-23 02:00,ZBAA 230200Z AUTO 13006KT 1 1/2SM 25/21 A2974 RMK T02500210 IEM_DS3505
ZBAA,1984-06-23 03:00,ZBAA 230300Z AUTO 18006KT 2 1/2SM 27/20 A2974 RMK SLP078 T02710198 57007 IEM_DS3505
ZBAA,1984-06-23 04:00,ZBAA 230400Z AUTO 14006KT 2 1/2SM 27/20 A2971 RMK T02700200 IEM_DS3505
ZBAA,1984-06-23 05:00,ZBAA 230500Z AUTO 16008KT 5SM 29/20 A2971 RMK T02900200 IEM_DS3505
ZBAA,1984-06-23 06:00,ZBAA 230600Z AUTO 18010KT 6SM 30/20 A2968 RMK SLP060 T02950199 4////0198 57018 IEM_DS3505
ZBAA,1984-06-23 07:00,ZBAA 230700Z AUTO 18010KT 7SM 29/19 A2965 RMK T02900190 IEM_DS3505
ZBAA,1984-06-23 08:00,ZBAA 230800Z AUTO 19010KT 6SM 29/20 A2965 RMK T02900200 IEM_DS3505
ZBAA,1984-06-23 09:00,ZBAA 230900Z AUTO 18008KT 6SM 30/19 A2962 RMK SLP038 T02980190 57022 IEM_DS3505
ZBAA,1984-06-23 12:00,ZBAA 231200Z AUTO 16006KT 7SM 28/18 RMK SLP036 T02780182 57002 IEM_DS3505
ZBAA,1984-06-23 15:00,ZBAA 231500Z AUTO 20008KT 6SM 25/19 RMK SLP037 T02520194 52001 IEM_DS3505
ZBAA,1984-06-23 18:00,ZBAA 231800Z AUTO 16006KT 6SM 24/20 RMK SLP021 T02380200 40304//// 57016 IEM_DS3505
ZBAA,1984-06-23 21:00,ZBAA 232100Z AUTO 16008KT 3SM 23/20 RMK SLP008 T02260205 57012 IEM_DS3505
ZBAA,1984-06-24 00:00,ZBAA 240000Z AUTO 16010KT 2 1/2SM 22/21 RMK 60002 SLP004 T02220208 57004 IEM_DS3505
ZBAA,1984-06-24 03:00,ZBAA 240300Z AUTO 20010KT 4SM 25/21 RMK SLP003 T02470211 57001 IEM_DS3505
ZBAA,1984-06-24 06:00,ZBAA 240600Z AUTO 16006KT 6SM 31/20 RMK SLP989 T03070199 57006 IEM_DS3505
ZBAA,1984-06-24 11:00,ZBAA 241100Z AUTO 18004KT 2SM 28/21 RMK SLP003 T02760214 52014 IEM_DS3505
ZBAA,1984-06-24 12:00,ZBAA 241200Z AUTO 18004KT 2SM 28/21 RMK SLP003 T02760214 52014 IEM_DS3505
ZBAA,1984-06-24 15:00,ZBAA 241500Z AUTO 34002KT 2SM 25/20 RMK SLP030 T02480204 52026 IEM_DS3505
ZBAA,1984-06-24 18:00,ZBAA 241800Z AUTO 34002KT 4SM 22/13 RMK SLP040 T02190131 40308//// 52010 IEM_DS3505
ZBAA,1984-06-24 21:00,ZBAA 242100Z AUTO 00000KT 12SM 19/11 RMK SLP032 T01890111 57008 IEM_DS3505
ZBAA,1984-06-25 00:00,ZBAA 250000Z AUTO 25016KT 16SM 26/05 RMK SLP046 T02590054 52014 IEM_DS3505
ZBAA,1984-06-25 03:00,ZBAA 250300Z AUTO 29016KT 19SM 28/06 RMK SLP046 T02790062 54000 IEM_DS3505
ZBAA,1984-06-25 06:00,ZBAA 250600Z AUTO 34012KT 19SM 30/07 RMK SLP026 T03000071 4////0177 57020 IEM_DS3505
ZBAA,1984-06-25 09:00,ZBAA 250900Z AUTO 32014KT 19SM 31/07 RMK SLP019 T03120072 57007 IEM_DS3505
ZBAA,1984-06-25 12:00,ZBAA 251200Z AUTO 32004KT 19SM 28/09 RMK SLP031 T02820088 52013 IEM_DS3505
ZBAA,1984-06-25 15:00,ZBAA 251500Z AUTO 29006KT 12SM 24/10 RMK SLP044 T02440105 52012 IEM_DS3505
ZBAA,1984-06-25 18:00,ZBAA 251800Z AUTO 29004KT 9SM 21/14 RMK SLP043 T02090137 40318//// 57001 IEM_DS3505
ZBAA,1984-06-26 00:00,ZBAA 260000Z AUTO 32004KT 16SM 26/10 RMK SLP056 T02650096 52007 IEM_DS3505
ZBAA,1984-06-26 03:00,ZBAA 260300Z AUTO 36008KT 19SM 29/10 A2965 RMK SLP059 T02920104 52002 IEM_DS3505
ZBAA,1984-06-26 04:00,ZBAA 260400Z AUTO 32014KT 6SM 30/10 A2965 RMK T03000100 IEM_DS3505
ZBAA,1984-06-26 05:00,ZBAA 260500Z AUTO 35012KT 6SM 30/12 A2965 RMK T03000120 IEM_DS3505
ZBAA,1984-06-26 06:00,ZBAA 260600Z AUTO 36012KT 19SM 32/11 A2962 RMK SLP045 T03160114 4////0199 57014 IEM_DS3505
ZBAA,1984-06-26 07:00,ZBAA 260700Z AUTO 34012KT 6SM 32/10 A2962 RMK T03200100 IEM_DS3505
ZBAA,1984-06-26 08:00,ZBAA 260800Z AUTO 33012KT 6SM 31/10 A2962 RMK T03100100 IEM_DS3505
ZBAA,1984-06-26 09:00,ZBAA 260900Z AUTO 36008KT 19SM 31/12 A2962 RMK SLP039 T03100120 57006 IEM_DS3505
ZBAA,1984-06-26 10:00,ZBAA 261000Z AUTO 02008KT 6SM 30/12 A2962 RMK T03000120 IEM_DS3505
ZBAA,1984-06-26 11:00,ZBAA 261100Z AUTO 04006KT 6SM 29/14 A2962 RMK T02900140 IEM_DS3505
ZBAA,1984-06-26 12:00,ZBAA 261200Z AUTO 36006KT 19SM 29/12 RMK SLP049 T02870121 52011 IEM_DS3505
ZBAA,1984-06-26 15:00,ZBAA 261500Z AUTO 00000KT 19SM 24/14 RMK SLP063 T02400143 52013 IEM_DS3505
ZBAA,1984-06-26 18:00,ZBAA 261800Z AUTO 00000KT 12SM 22/15 RMK SLP065 T02170148 40324//// 52002 IEM_DS3505
ZBAA,1984-06-26 21:00,ZBAA 262100Z AUTO 02004KT 19SM 21/15 RMK SLP063 T02120148 57002 IEM_DS3505
ZBAA,1984-06-27 00:00,ZBAA 270000Z AUTO 04002KT 12SM 25/14 RMK SLP073 T02460142 52010 IEM_DS3505
ZBAA,1984-06-27 03:00,ZBAA 270300Z AUTO 04002KT 7SM 28/14 RMK SLP067 T02790138 57006 IEM_DS3505
ZBAA,1984-06-27 06:00,ZBAA 270600Z AUTO 00000KT 11SM 30/13 RMK SLP054 T03000134 4////0202 57013 IEM_DS3505
ZBAA,1984-06-27 09:00,ZBAA 270900Z AUTO 16006KT 6SM 29/15 RMK SLP043 T02920148 57011 IEM_DS3505
ZBAA,1984-06-27 12:00,ZBAA 271200Z AUTO 00000KT 6SM 28/16 RMK SLP044 T02770163 52001 IEM_DS3505
ZBAA,1984-06-27 15:00,ZBAA 271500Z AUTO 00000KT 6SM 24/18 RMK SLP046 T02350181 52002 IEM_DS3505
ZBAA,1984-06-27 18:00,ZBAA 271800Z AUTO 00000KT 4SM 21/18 RMK SLP038 T02080176 40306//// 57008 IEM_DS3505
ZBAA,1984-06-27 20:00,ZBAA 272000Z AUTO 00000KT 6SM 20/16 RMK SLP033 T02010160 57005 IEM_DS3505
ZBAA,1984-06-27 21:00,ZBAA 272100Z AUTO 00000KT 6SM 20/16 RMK SLP033 T02010160 57005 IEM_DS3505
ZBAA,1984-06-28 00:00,ZBAA 280000Z AUTO 04006KT 4SM 26/15 RMK SLP033 T02560153 54000 IEM_DS3505
ZBAA,1984-06-28 03:00,ZBAA 280300Z AUTO 00000KT 6SM 30/15 RMK SLP025 T02990150 57008 IEM_DS3505
ZBAA,1984-06-28 06:00,ZBAA 280600Z AUTO 20004KT 6SM 34/14 RMK SLP009 T03350139 4////0193 57015 IEM_DS3505
ZBAA,1984-06-28 09:00,ZBAA 280900Z AUTO 16006KT 6SM 34/12 RMK SLP994 T03420116 57015 IEM_DS3505
ZBAA,1984-06-28 12:00,ZBAA 281200Z AUTO 16006KT 9SM 32/12 RMK SLP992 T03170115 57002 IEM_DS3505
ZBAA,1984-06-28 15:00,ZBAA 281500Z AUTO 20006KT 9SM 28/14 RMK SLP013 T02780141 52021 IEM_DS3505
ZBAA,1984-06-28 18:00,ZBAA 281800Z AUTO 18017KT 12SM 26/15 RMK SLP999 T02570152 40344//// 57013 IEM_DS3505
ZBAA,1984-06-28 21:00,ZBAA 282100Z AUTO 20008KT 12SM 25/16 RMK SLP003 T02490163 52004 IEM_DS3505
ZBAA,1984-06-29 00:00,ZBAA 290000Z AUTO 22008KT 6SM 26/18 RMK SLP013 T02650183 52009 IEM_DS3505
ZBAA,1984-06-29 03:00,ZBAA 290300Z AUTO 16010KT 9SM 31/17 RMK SLP007 T03140167 57005 IEM_DS3505
ZBAA,1984-06-29 06:00,ZBAA 290600Z AUTO 20010KT 16SM 34/14 RMK SLP999 T03400144 4////0241 57008 IEM_DS3505
ZBAA,1984-06-29 09:00,ZBAA 290900Z AUTO 20010KT 16SM 34/17 RMK SLP991 T03440167 57008 IEM_DS3505
ZBAA,1984-06-29 12:00,ZBAA 291200Z AUTO 18006KT 6SM 32/17 RMK SLP997 T03160173 52006 IEM_DS3505
ZBAA,1984-06-29 15:00,ZBAA 291500Z AUTO 16006KT 6SM 29/17 RMK SLP016 T02910174 52018 IEM_DS3505
ZBAA,1984-06-29 18:00,ZBAA 291800Z AUTO 18008KT 9SM 27/18 RMK SLP015 T02670183 40347//// 57001 IEM_DS3505
ZBAA,1984-06-29 21:00,ZBAA 292100Z AUTO 20002KT 4SM 24/19 RMK SLP018 T02440194 52003 IEM_DS3505
ZBAA,1984-06-30 00:00,ZBAA 300000Z AUTO 20004KT 4SM 26/21 RMK SLP030 T02620206 52012 IEM_DS3505
ZBAA,1984-06-30 02:00,ZBAA 300200Z AUTO 20006KT 5SM 29/22 A2959 RMK T02900220 IEM_DS3505
ZBAA,1984-06-30 03:00,ZBAA 300300Z AUTO 18008KT 5SM 31/22 A2959 RMK SLP024 T03120215 57006 IEM_DS3505
ZBAA,1984-06-30 04:00,ZBAA 300400Z AUTO 19010KT 6SM 32/22 A2956 RMK T03200220 IEM_DS3505
ZBAA,1984-06-30 05:00,ZBAA 300500Z AUTO 18012KT 6SM 33/20 A2956 RMK T03300200 IEM_DS3505
ZBAA,1984-06-30 06:00,ZBAA 300600Z AUTO 20014KT 6SM 34/18 A2953 RMK SLP010 T03410185 4////0238 57013 IEM_DS3505
ZBAA,1984-06-30 07:00,ZBAA 300700Z AUTO 20010KT 6SM 34/19 A2953 RMK T03400190 IEM_DS3505
ZBAA,1984-06-30 08:00,ZBAA 300800Z AUTO 17014KT 6SM 34/19 A2950 RMK T03400190 IEM_DS3505
ZBAA,1984-06-30 09:00,ZBAA 300900Z AUTO 20012KT 6SM 35/18 RMK SLP992 T03500183 57018 IEM_DS3505
ZBAA,1984-06-30 12:00,ZBAA 301200Z AUTO 16006KT 6SM 33/18 RMK SLP997 T03280177 52005 IEM_DS3505
ZBAA,1984-06-30 15:00,ZBAA 301500Z AUTO 16006KT 6SM 30/21 RMK SLP018 T02960210 52020 IEM_DS3505
ZBAA,1984-06-30 18:00,ZBAA 301800Z AUTO 34004KT 5SM 26/21 RMK SLP023 T02560214 40352//// 52005 IEM_DS3505
ZBAA,1984-06-30 21:00,ZBAA 302100Z AUTO 36006KT 4SM 24/22 RMK SLP024 T02410217 52001 IEM_DS3505
ZBAA,1984-07-01 00:00,ZBAA 010000Z AUTO 36006KT 4SM 25/22 RMK SLP025 T02540215 52001 IEM_DS3505
ZBAA,1984-07-01 03:00,ZBAA 010300Z AUTO 36006KT 2 1/2SM 28/22 RMK SLP020 T02750221 57005 IEM_DS3505
ZBAA,1984-07-01 06:00,ZBAA 010600Z AUTO 36008KT 9SM 23/22 RMK 60039 SLP017 T02300218 4////0223 57004 IEM_DS3505
ZBAA,1984-07-01 09:00,ZBAA 010900Z AUTO 04006KT 6SM 25/22 RMK SLP011 T02480221 57005 IEM_DS3505
ZBAA,1984-07-01 12:00,ZBAA 011200Z AUTO 36006KT 16SM 24/20 RMK SLP025 T02370202 52013 IEM_DS3505
ZBAA,1984-07-01 15:00,ZBAA 011500Z AUTO 02002KT 16SM 23/20 RMK SLP037 T02340205 52012 IEM_DS3505
ZBAA,1984-07-01 18:00,ZBAA 011800Z AUTO 02002KT 12SM 23/20 RMK SLP028 T02340202 40277//// 57009 IEM_DS3505
ZBAA,1984-07-01 21:00,ZBAA 012100Z AUTO 00000KT 17SM 22/21 RMK SLP031 T02250207 52003 IEM_DS3505
ZBAA,1984-07-02 00:00,ZBAA 020000Z AUTO 00000KT 6SM 24/20 RMK SLP031 T02400205 54000 IEM_DS3505
ZBAA,1984-07-02 03:00,ZBAA 020300Z AUTO 02004KT 9SM 26/21 RMK SLP040 T02640210 52009 IEM_DS3505
ZBAA,1984-07-02 06:00,ZBAA 020600Z AUTO 00000KT 16SM 30/18 RMK SLP034 T03010183 4////0220 57006 IEM_DS3505
ZBAA,1984-07-02 09:00,ZBAA 020900Z AUTO 14008KT 16SM 29/19 RMK SLP033 T02920188 57001 IEM_DS3505
ZBAA,1984-07-02 12:00,ZBAA 021200Z AUTO 16010KT 7SM 27/19 RMK SLP044 T02710193 52011 IEM_DS3505
ZBAA,1984-07-02 15:00,ZBAA 021500Z AUTO 20006KT 6SM 24/20 RMK SLP062 T02440200 52018 IEM_DS3505
ZBAA,1984-07-02 18:00,ZBAA 021800Z AUTO 18006KT 6SM 23/19 RMK SLP067 T02270193 40311//// 52005 IEM_DS3505
ZBAA,1984-07-02 21:00,ZBAA 022100Z AUTO 00000KT 4SM 21/19 RMK SLP070 T02100193 52003 IEM_DS3505
ZBAA,1984-07-03 00:00,ZBAA 030000Z AUTO 36008KT 3SM 25/20 RMK SLP085 T02480205 52015 IEM_DS3505
ZBAA,1984-07-03 03:00,ZBAA 030300Z AUTO 04006KT 9SM 28/14 A2956 RMK SLP082 T02820140 57003 IEM_DS3505
ZBAA,1984-07-03 04:00,ZBAA 030400Z AUTO 05006KT 7SM 28/15 A2974 RMK T02800150 IEM_DS3505
ZBAA,1984-07-03 05:00,ZBAA 030500Z AUTO 05008KT 7SM 29/15 A2971 RMK T02900150 IEM_DS3505
ZBAA,1984-07-03 06:00,ZBAA 030600Z AUTO 02008KT 12SM 30/16 A2971 RMK SLP065 T03030164 4////0204 57017 IEM_DS3505
ZBAA,1984-07-03 07:00,ZBAA 030700Z AUTO 10010KT 7SM 30/15 A2968 RMK T03000150 IEM_DS3505
ZBAA,1984-07-03 08:00,ZBAA 030800Z AUTO 07008KT 7SM 30/12 A2968 RMK T03000120 IEM_DS3505
ZBAA,1984-07-03 09:00,ZBAA 030900Z AUTO 07002KT 19SM 30/15 RMK SLP058 T03050150 57007 IEM_DS3505
ZBAA,1984-07-03 10:00,ZBAA 031000Z AUTO 12008KT 7SM 29/17 A2968 RMK T02900170 IEM_DS3505
ZBAA,1984-07-03 11:00,ZBAA 031100Z AUTO 13008KT 7SM 28/19 A2968 RMK T02800190 IEM_DS3505
ZBAA,1984-07-03 12:00,ZBAA 031200Z AUTO 14008KT 19SM 28/15 RMK SLP071 T02850148 52010 IEM_DS3505
ZBAA,1984-07-03 15:00,ZBAA 031500Z AUTO 20004KT 19SM 25/20 RMK SLP088 T02490200 52017 IEM_DS3505
ZBAA,1984-07-03 18:00,ZBAA 031800Z AUTO 20002KT 3SM 23/20 RMK SLP081 T02340203 40309//// 57007 IEM_DS3505
ZBAA,1984-07-03 21:00,ZBAA 032100Z AUTO 00000KT 3SM 22/20 RMK SLP085 T02200195 52004 IEM_DS3505
ZBAA,1984-07-04 00:00,ZBAA 040000Z AUTO 34004KT 2SM 23/20 RMK SLP031 T02340203 52009 IEM_DS3505
ZBAA,1984-07-04 03:00,ZBAA 040300Z AUTO 07002KT 3SM 29/21 RMK SLP088 T02900207 57005 IEM_DS3505
ZBAA,1984-07-04 06:00,ZBAA 040600Z AUTO 16006KT 6SM 32/20 RMK SLP072 T03190198 4////0215 57016 IEM_DS3505
ZBAA,1984-07-04 09:00,ZBAA 040900Z AUTO 14006KT 6SM 32/19 RMK SLP059 T03180194 57014 IEM_DS3505
ZBAA,1984-07-04 12:00,ZBAA 041200Z AUTO 16004KT 7SM 30/20 RMK SLP065 T03040197 52006 IEM_DS3505
ZBAA,1984-07-04 15:00,ZBAA 041500Z AUTO 07004KT 6SM 28/21 RMK SLP082 T02750212 52018 IEM_DS3505
ZBAA,1984-07-04 18:00,ZBAA 041800Z AUTO 18006KT 6SM 26/20 RMK SLP077 T02550195 40334//// 57005 IEM_DS3505
ZBAA,1984-07-04 21:00,ZBAA 042100Z AUTO 00000KT 5SM 23/20 RMK SLP078 T02290195 52001 IEM_DS3505
ZBAA,1984-07-05 00:00,ZBAA 050000Z AUTO 02006KT 3SM 25/20 RMK SLP082 T02460202 52004 IEM_DS3505
ZBAA,1984-07-05 03:00,ZBAA 050300Z AUTO 11002KT 2 1/2SM 30/21 RMK SLP072 T03040214 57010 IEM_DS3505
ZBAA,1984-07-05 06:00,ZBAA 050600Z AUTO 18010KT 6SM 35/16 RMK SLP053 T03470165 4////0224 57019 IEM_DS3505
ZBAA,1984-07-05 09:00,ZBAA 050900Z AUTO 18010KT 9SM 34/18 RMK SLP043 T03380181 57010 IEM_DS3505
ZBAA,1984-07-05 12:00,ZBAA 051200Z AUTO 20008KT 9SM 31/16 RMK SLP055 T03100165 52012 IEM_DS3505
ZBAA,1984-07-05 15:00,ZBAA 051500Z AUTO 18008KT 6SM 28/18 RMK SLP071 T02750183 52016 IEM_DS3505
ZBAA,1984-07-05 18:00,ZBAA 051800Z AUTO 20004KT 6SM 25/19 RMK SLP070 T02520186 57001 IEM_DS3505
ZBAA,1984-07-05 21:00,ZBAA 052100Z AUTO 00000KT 4SM 23/19 RMK SLP075 T02300191 52005 IEM_DS3505
ZBAA,1984-07-06 00:00,ZBAA 060000Z AUTO 36008KT 3SM 24/20 RMK SLP085 T02420199 52010 IEM_DS3505
ZBAA,1984-07-06 03:00,ZBAA 060300Z AUTO 04004KT 3SM 27/19 RMK SLP078 T02740194 57007 IEM_DS3505
ZBAA,1984-07-06 06:00,ZBAA 060600Z AUTO 14010KT 6SM 30/17 RMK SLP057 T03020167 4////0223 57021 IEM_DS3505
ZBAA,1984-07-06 09:00,ZBAA 060900Z AUTO 14006KT 6SM 30/17 RMK SLP044 T02990168 57014 IEM_DS3505
ZBAA,1984-07-06 12:00,ZBAA 061200Z AUTO 20016KT 6SM 26/18 RMK SLP051 T02600175 52007 IEM_DS3505
ZBAA,1984-07-06 15:00,ZBAA 061500Z AUTO 18014KT 6SM 24/17 RMK SLP058 T02380171 52007 IEM_DS3505
ZBAA,1984-07-06 18:00,ZBAA 061800Z AUTO 12008KT 12SM 22/18 RMK SLP051 T02210178 40314//// 57007 IEM_DS3505
ZBAA,1984-07-06 21:00,ZBAA 062100Z AUTO 18004KT 9SM 22/18 RMK SLP047 T02150185 57004 IEM_DS3505
ZBAA,1984-07-06 22:00,ZBAA 062200Z AUTO 18004KT 9SM 22/18 RMK SLP047 T02150185 57004 IEM_DS3505
ZBAA,1984-07-07 00:00,ZBAA 070000Z AUTO 18006KT 5SM 22/19 RMK SLP050 T02210186 52003 IEM_DS3505
ZBAA,1984-07-07 02:00,ZBAA 070200Z AUTO 19006KT 5SM 23/19 A2965 RMK T02300190 IEM_DS3505
ZBAA,1984-07-07 03:00,ZBAA 070300Z AUTO 18006KT 7SM 25/18 A2965 RMK SLP049 T02490175 57001 IEM_DS3505
ZBAA,1984-07-07 04:00,ZBAA 070400Z AUTO 17008KT 7SM 25/17 A2965 RMK T02500170 IEM_DS3505
ZBAA,1984-07-07 05:00,ZBAA 070500Z AUTO 22008KT 7SM 26/17 A2962 RMK T02600170 IEM_DS3505
ZBAA,1984-07-07 06:00,ZBAA 070600Z AUTO 18006KT 6SM 27/17 A2959 RMK SLP030 T02700172 4////0212 57019 IEM_DS3505
ZBAA,1984-07-07 07:00,ZBAA 070700Z AUTO 20006KT 7SM 28/17 A2956 RMK T02800170 IEM_DS3505
ZBAA,1984-07-07 08:00,ZBAA 070800Z AUTO 13008KT 7SM 27/17 A2956 RMK T02700170 IEM_DS3505
ZBAA,1984-07-07 09:00,ZBAA 070900Z AUTO 11004KT 7SM 27/17 A2953 RMK SLP010 T02690169 57019 IEM_DS3505
ZBAA,1984-07-07 12:00,ZBAA 071200Z AUTO 11004KT 6SM 26/18 RMK SLP028 T02610176 52017 IEM_DS3505
ZBAA,1984-07-07 15:00,ZBAA 071500Z AUTO 18006KT 6SM 24/18 RMK SLP023 T02400185 57005 IEM_DS3505
ZBAA,1984-07-07 18:00,ZBAA 071800Z AUTO 18006KT 4SM 22/19 RMK SLP016 T02230190 40279//// 57007 IEM_DS3505
ZBAA,1984-07-07 21:00,ZBAA 072100Z AUTO 00000KT 3SM 21/19 RMK SLP025 T02120193 52009 IEM_DS3505
ZBAA,1984-07-08 00:00,ZBAA 080000Z AUTO 02004KT 1 1/2SM 22/20 RMK SLP034 T02250197 52009 IEM_DS3505
ZBAA,1984-07-08 03:00,ZBAA 080300Z AUTO 00000KT 3SM 27/19 RMK SLP030 T02680193 57004 IEM_DS3505
ZBAA,1984-07-08 06:00,ZBAA 080600Z AUTO 00000KT 3SM 31/21 RMK SLP011 T03130214 4////0203 57018 IEM_DS3505
ZBAA,1984-07-08 09:00,ZBAA 080900Z AUTO 20008KT 3SM 34/22 RMK SLP995 T03350219 57016 IEM_DS3505
ZBAA,1984-07-08 12:00,ZBAA 081200Z AUTO 02008KT 6SM 27/19 RMK SLP026 T02700190 52030 IEM_DS3505
ZBAA,1984-07-08 15:00,ZBAA 081500Z AUTO 36006KT 5SM 22/20 RMK SLP046 T02190199 52020 IEM_DS3505
ZBAA,1984-07-08 18:00,ZBAA 081800Z AUTO 00000KT 7SM 22/19 RMK 60012 SLP038 T02180186 40336//// 57008 IEM_DS3505
ZBAA,1984-07-08 21:00,ZBAA 082100Z AUTO 02002KT 5SM 21/19 RMK SLP036 T02130194 57001 IEM_DS3505
ZBAA,1984-07-09 00:00,ZBAA 090000Z AUTO 16002KT 2 1/2SM 23/20 RMK 60000 SLP054 T02310199 52017 IEM_DS3505
ZBAA,1984-07-09 03:00,ZBAA 090300Z AUTO 29002KT 2 1/2SM 25/21 RMK SLP061 T02490207 52007 IEM_DS3505
ZBAA,1984-07-09 06:00,ZBAA 090600Z AUTO 00000KT 2SM 28/21 RMK SLP056 T02750212 4////0208 57005 IEM_DS3505
ZBAA,1984-07-09 09:00,ZBAA 090900Z AUTO 16004KT 4SM 31/19 RMK SLP046 T03090191 57010 IEM_DS3505
ZBAA,1984-07-09 11:00,ZBAA 091100Z AUTO 00000KT 5SM 25/22 RMK SLP068 T02480224 40316//// 54000 IEM_DS3505
ZBAA,1984-07-09 12:00,ZBAA 091200Z AUTO 00000KT 3SM 28/21 RMK SLP050 T02800212 52004 IEM_DS3505
ZBAA,1984-07-09 18:00,ZBAA 091800Z AUTO 00000KT 5SM 25/22 RMK SLP068 T02480224 40316//// 54000 IEM_DS3505
ZBAA,1984-07-09 21:00,ZBAA 092100Z AUTO 00000KT 2 1/2SM 24/22 RMK SLP073 T02430222 52006 IEM_DS3505
ZBAA,1984-07-10 00:00,ZBAA 100000Z AUTO 00000KT 1SM 24/22 RMK SLP086 T02400225 52012 IEM_DS3505
ZBAA,1984-07-10 03:00,ZBAA 100300Z AUTO 00000KT 1SM 24/23 RMK SLP086 T02380229 54000 IEM_DS3505
ZBAA,1984-07-10 04:00,ZBAA 100400Z AUTO 17002KT 2SM 25/23 A2974 RMK T02500230 IEM_DS3505
ZBAA,1984-07-10 05:00,ZBAA 100500Z AUTO 14006KT 2SM 25/23 A2974 RMK T02500230 IEM_DS3505
ZBAA,1984-07-10 06:00,ZBAA 100600Z AUTO 16004KT 1 1/4SM 26/23 A2974 RMK SLP076 T02650233 4////0233 57010 IEM_DS3505
ZBAA,1984-07-10 07:00,ZBAA 100700Z AUTO 14008KT 2SM 26/23 A2971 RMK T02600230 IEM_DS3505
ZBAA,1984-07-10 09:00,ZBAA 100900Z AUTO 14004KT 1 1/4SM 27/24 A2971 RMK SLP065 T02670235 57011 IEM_DS3505
ZBAA,1984-07-10 10:00,ZBAA 101000Z AUTO 12006KT 2 1/2SM 26/23 A2971 RMK T02600230 IEM_DS3505
ZBAA,1984-07-10 12:00,ZBAA 101200Z AUTO 16002KT 1SM 23/22 RMK 60020 SLP073 T02330219 52008 IEM_DS3505
ZBAA,1984-07-10 15:00,ZBAA 101500Z AUTO 18002KT 1SM 24/22 RMK SLP076 T02360219 52003 IEM_DS3505
ZBAA,1984-07-10 18:00,ZBAA 101800Z AUTO 00000KT 1SM 23/22 RMK 60004 SLP065 T02320223 40269//// 57011 IEM_DS3505
ZBAA,1984-07-10 21:00,ZBAA 102100Z AUTO 00000KT 1SM 22/21 RMK SLP057 T02190211 57008 IEM_DS3505
ZBAA,1984-07-11 00:00,ZBAA 110000Z AUTO 20006KT 1SM 21/20 RMK 60039 SLP065 T02100201 52007 IEM_DS3505
ZBAA,1984-07-11 03:00,ZBAA 110300Z AUTO 18004KT 2 1/2SM 21/20 RMK SLP064 T02110200 57001 IEM_DS3505
ZBAA,1984-07-11 06:00,ZBAA 110600Z AUTO 18002KT 2 1/2SM 21/20 RMK 60055 SLP051 T02110203 4////0203 57013 IEM_DS3505
ZBAA,1984-07-11 09:00,ZBAA 110900Z AUTO 04004KT 1 1/4SM 21/21 RMK SLP033 T02120206 57018 IEM_DS3505
ZBAA,1984-07-11 12:00,ZBAA 111200Z AUTO 36002KT 1 1/4SM 21/20 RMK 60106 SLP029 T02060203 57004 IEM_DS3505
ZBAA,1984-07-11 15:00,ZBAA 111500Z AUTO 34004KT 2SM 20/20 RMK SLP018 T02050202 57011 IEM_DS3505
ZBAA,1984-07-11 18:00,ZBAA 111800Z AUTO 02004KT 3SM 21/20 RMK 60012 SLP999 T02060201 40232//// 57018 IEM_DS3505
ZBAA,1984-07-11 21:00,ZBAA 112100Z AUTO 20004KT 4SM 21/ RMK 70114 SLP986 57013 IEM_DS3505
ZBAA,1984-07-12 00:00,ZBAA 120000Z AUTO 18006KT 3SM 22/20 RMK SLP979 T02220203 57007 IEM_DS3505
ZBAA,1984-07-12 03:00,ZBAA 120300Z AUTO 20006KT 6SM 26/22 RMK SLP965 T02600217 57013 IEM_DS3505
ZBAA,1984-07-12 06:00,ZBAA 120600Z AUTO 20008KT 6SM 30/24 RMK SLP946 T03030243 4////0202 57019 IEM_DS3505
ZBAA,1984-07-12 09:00,ZBAA 120900Z AUTO 20008KT 7SM 32/24 RMK SLP925 T03230245 57021 IEM_DS3505
ZBAA,1984-07-12 12:00,ZBAA 121200Z AUTO 00000KT 9SM 31/26 RMK SLP929 T03060257 52004 IEM_DS3505
ZBAA,1984-07-12 15:00,ZBAA 121500Z AUTO 00000KT 6SM 28/25 RMK SLP947 T02750252 52018 IEM_DS3505
ZBAA,1984-07-12 18:00,ZBAA 121800Z AUTO 00000KT 5SM 25/23 RMK SLP962 T02520230 40325//// 52015 IEM_DS3505
ZBAA,1984-07-12 21:00,ZBAA 122100Z AUTO 04002KT 19SM 23/19 RMK SLP973 T02340191 52011 IEM_DS3505
ZBAA,1984-07-13 00:00,ZBAA 130000Z AUTO 04010KT 19SM 26/16 RMK SLP982 T02600165 52009 IEM_DS3505
ZBAA,1984-07-13 03:00,ZBAA 130300Z AUTO 11002KT 19SM 29/16 RMK SLP979 T02930165 57003 IEM_DS3505
ZBAA,1984-07-13 06:00,ZBAA 130600Z AUTO 18008KT 19SM 31/17 RMK SLP962 T03140168 4////0225 57017 IEM_DS3505
ZBAA,1984-07-13 09:00,ZBAA 130900Z AUTO 16010KT 16SM 31/22 RMK SLP942 T03100221 57020 IEM_DS3505
ZBAA,1984-07-13 12:00,ZBAA 131200Z AUTO 14004KT 16SM 29/22 RMK SLP944 T02920222 52002 IEM_DS3505
ZBAA,1984-07-13 15:00,ZBAA 131500Z AUTO 07004KT 5SM 26/22 RMK SLP950 T02640216 52006 IEM_DS3505
ZBAA,1984-07-13 18:00,ZBAA 131800Z AUTO 00000KT 5SM 24/22 RMK SLP952 T02410217 40326//// 52002 IEM_DS3505
ZBAA,1984-07-13 21:00,ZBAA 132100Z AUTO 04002KT 5SM 23/21 RMK SLP951 T02280210 57001 IEM_DS3505
ZBAA,1984-07-14 00:00,ZBAA 140000Z AUTO 34002KT 3SM 26/21 RMK SLP950 T02610213 57001 IEM_DS3505
ZBAA,1984-07-14 02:00,ZBAA 140200Z AUTO 36002KT 6SM 29/20 A2935 RMK T02900200 IEM_DS3505
ZBAA,1984-07-14 03:00,ZBAA 140300Z AUTO 02006KT 19SM 32/14 A2935 RMK SLP942 T03210141 57007 IEM_DS3505
ZBAA,1984-07-14 04:00,ZBAA 140400Z AUTO 33008KT 6SM 32/13 A2932 RMK T03200130 IEM_DS3505
ZBAA,1984-07-14 05:00,ZBAA 140500Z AUTO 33008KT 6SM 33/12 A2932 RMK T03300120 IEM_DS3505
ZBAA,1984-07-14 06:00,ZBAA 140600Z AUTO 20006KT 19SM 34/11 A2929 RMK SLP930 T03410110 4////0217 57012 IEM_DS3505
ZBAA,1984-07-14 07:00,ZBAA 140700Z AUTO 00000KT 6SM 34/12 A2929 RMK T03400120 IEM_DS3505
ZBAA,1984-07-14 08:00,ZBAA 140800Z AUTO 00000KT 6SM 35/13 A2926 RMK T03500130 IEM_DS3505
ZBAA,1984-07-14 09:00,ZBAA 140900Z AUTO 20006KT 19SM 35/11 A2926 RMK SLP913 T03500114 57018 IEM_DS3505
ZBAA,1984-07-14 12:00,ZBAA 141200Z AUTO 34006KT 9SM 30/16 RMK SLP916 T03010155 52003 IEM_DS3505
ZBAA,1984-07-14 15:00,ZBAA 141500Z AUTO 36006KT 9SM 23/16 RMK SLP948 T02270162 52032 IEM_DS3505
ZBAA,1984-07-14 18:00,ZBAA 141800Z AUTO 02006KT 12SM 22/15 RMK SLP944 T02210151 40356//// 57004 IEM_DS3505
ZBAA,1984-07-14 21:00,ZBAA 142100Z AUTO 29004KT 19SM 21/14 RMK SLP953 T02090143 52009 IEM_DS3505
ZBAA,1984-07-15 00:00,ZBAA 150000Z AUTO 34010KT 19SM 25/15 RMK 60002 SLP965 T02530153 52012 IEM_DS3505
ZBAA,1984-07-15 03:00,ZBAA 150300Z AUTO 36014KT 19SM 29/13 RMK SLP973 T02900131 52008 IEM_DS3505
ZBAA,1984-07-15 06:00,ZBAA 150600Z AUTO 36010KT 19SM 32/12 RMK SLP969 T03180122 4////0194 57004 IEM_DS3505
ZBAA,1984-07-15 09:00,ZBAA 150900Z AUTO 34002KT 19SM 33/16 RMK SLP965 T03340156 57004 IEM_DS3505
ZBAA,1984-07-15 12:00,ZBAA 151200Z AUTO 16004KT 16SM 30/16 RMK SLP982 T03010165 52017 IEM_DS3505
ZBAA,1984-07-15 15:00,ZBAA 151500Z AUTO 20002KT 12SM 25/19 RMK SLP996 T02530186 52014 IEM_DS3505
ZBAA,1984-07-15 18:00,ZBAA 151800Z AUTO 04004KT 9SM 24/19 RMK SLP008 T02370186 40334//// 52012 IEM_DS3505
ZBAA,1984-07-15 21:00,ZBAA 152100Z AUTO 36002KT 12SM 21/18 RMK SLP018 T02130184 52010 IEM_DS3505
ZBAA,1984-07-16 00:00,ZBAA 160000Z AUTO 02004KT 9SM 27/17 RMK SLP034 T02700167 52016 IEM_DS3505
ZBAA,1984-07-16 03:00,ZBAA 160300Z AUTO 36002KT 7SM 32/16 RMK SLP033 T03160165 57001 IEM_DS3505
ZBAA,1984-07-16 06:00,ZBAA 160600Z AUTO 16006KT 6SM 35/16 RMK SLP024 T03480160 4////0207 57009 IEM_DS3505
ZBAA,1984-07-16 09:00,ZBAA 160900Z AUTO 18008KT 9SM 35/14 RMK SLP018 T03500144 57006 IEM_DS3505
ZBAA,1984-07-16 12:00,ZBAA 161200Z AUTO 16006KT 9SM 32/17 RMK SLP026 T03220172 52008 IEM_DS3505
ZBAA,1984-07-16 15:00,ZBAA 161500Z AUTO 16008KT 6SM 30/18 RMK SLP041 T02950175 52015 IEM_DS3505
ZBAA,1984-07-16 18:00,ZBAA 161800Z AUTO 00000KT 6SM 25/19 RMK SLP041 T02510189 40354//// 54000 IEM_DS3505
ZBAA,1984-07-16 21:00,ZBAA 162100Z AUTO 00000KT 6SM 25/18 RMK SLP012 T02520178 54000 IEM_DS3505
ZBAA,1984-07-17 00:00,ZBAA 170000Z AUTO 04004KT 3SM 30/22 RMK SLP058 T02990223 57001 IEM_DS3505
ZBAA,1984-07-17 04:00,ZBAA 170400Z AUTO 12008KT 7SM 31/23 A2968 RMK T03100230 IEM_DS3505
ZBAA,1984-07-17 05:00,ZBAA 170500Z AUTO 12008KT 7SM 33/22 A2965 RMK T03300220 IEM_DS3505
ZBAA,1984-07-17 06:00,ZBAA 170600Z AUTO 16010KT 6SM 34/20 A2965 RMK SLP045 T03400201 4////0230 57013 IEM_DS3505
ZBAA,1984-07-17 07:00,ZBAA 170700Z AUTO 18008KT 7SM 34/21 A2962 RMK T03400210 IEM_DS3505
ZBAA,1984-07-17 08:00,ZBAA 170800Z AUTO 18012KT 7SM 35/21 A2962 RMK T03500210 IEM_DS3505
ZBAA,1984-07-17 09:00,ZBAA 170900Z AUTO 20010KT 9SM 35/20 A2959 RMK SLP033 T03510202 57012 IEM_DS3505
ZBAA,1984-07-17 10:00,ZBAA 171000Z AUTO 18012KT 7SM 34/20 A2959 RMK T03400200 IEM_DS3505
ZBAA,1984-07-17 11:00,ZBAA 171100Z AUTO 20004KT 12SM 33/21 A2959 RMK SLP057 T03300210 40355//// 52003 IEM_DS3505
ZBAA,1984-07-17 12:00,ZBAA 171200Z AUTO 18008KT 9SM 32/17 RMK SLP038 T03220172 52005 IEM_DS3505
ZBAA,1984-07-17 15:00,ZBAA 171500Z AUTO 20008KT 9SM 28/16 RMK SLP054 T02780163 52016 IEM_DS3505
ZBAA,1984-07-17 18:00,ZBAA 171800Z AUTO 20004KT 12SM 25/17 RMK SLP057 T02480168 40355//// 52003 IEM_DS3505
ZBAA,1984-07-17 21:00,ZBAA 172100Z AUTO 02006KT 9SM 24/18 RMK SLP061 T02360183 52004 IEM_DS3505
ZBAA,1984-07-18 00:00,ZBAA 180000Z AUTO 04004KT 6SM 26/17 RMK SLP070 T02580172 52009 IEM_DS3505
ZBAA,1984-07-18 03:00,ZBAA 180300Z AUTO 32002KT 5SM 30/19 RMK SLP069 T03030192 57001 IEM_DS3505
ZBAA,1984-07-18 06:00,ZBAA 180600Z AUTO 20008KT 5SM 33/18 RMK SLP055 T03320183 4////0218 57014 IEM_DS3505
ZBAA,1984-07-18 09:00,ZBAA 180900Z AUTO 18010KT 8SM 33/16 RMK SLP042 T03310159 57013 IEM_DS3505
ZBAA,1984-07-18 12:00,ZBAA 181200Z AUTO 20008KT 9SM 30/18 RMK SLP046 T03040175 52004 IEM_DS3505
ZBAA,1984-07-18 15:00,ZBAA 181500Z AUTO 20002KT 6SM 26/19 RMK SLP049 T02600187 52003 IEM_DS3505
ZBAA,1984-07-18 18:00,ZBAA 181800Z AUTO 00000KT 6SM 24/19 RMK SLP050 T02390193 40340//// 52001 IEM_DS3505
ZBAA,1984-07-18 21:00,ZBAA 182100Z AUTO 36002KT 6SM 22/19 RMK T02250191 54000 IEM_DS3505
ZBAA,1984-07-19 00:00,ZBAA 190000Z AUTO 02004KT 5SM 26/19 RMK SLP055 T02610191 52005 IEM_DS3505
ZBAA,1984-07-19 03:00,ZBAA 190300Z AUTO 09004KT 4SM 30/20 RMK SLP055 T03030196 54000 IEM_DS3505
ZBAA,1984-07-19 06:00,ZBAA 190600Z AUTO 18006KT 6SM 33/17 RMK SLP039 T03260167 4////0217 57016 IEM_DS3505
ZBAA,1984-07-19 09:00,ZBAA 190900Z AUTO 20010KT 6SM 33/17 RMK SLP031 T03270172 57008 IEM_DS3505
ZBAA,1984-07-19 12:00,ZBAA 191200Z AUTO 18008KT 7SM 29/17 RMK SLP033 T02930168 52002 IEM_DS3505
ZBAA,1984-07-19 15:00,ZBAA 191500Z AUTO 16004KT 6SM 28/18 RMK SLP042 T02800179 52009 IEM_DS3505
ZBAA,1984-07-19 18:00,ZBAA 191800Z AUTO 20004KT 6SM 27/18 RMK T02660176 57002 IEM_DS3505
ZBAA,1984-07-19 21:00,ZBAA 192100Z AUTO 00000KT 6SM 25/19 RMK SLP040 T02510192 IEM_DS3505
ZBAA,1984-07-20 00:00,ZBAA 200000Z AUTO 00000KT 2 1/2SM 26/20 RMK SLP048 T02580199 52008 IEM_DS3505
ZBAA,1984-07-20 03:00,ZBAA 200300Z AUTO 00000KT 2 1/2SM 26/21 RMK SLP049 T02650209 52001 IEM_DS3505
ZBAA,1984-07-20 06:00,ZBAA 200600Z AUTO 16006KT 4SM 30/19 RMK SLP040 T02970192 4////0246 57009 IEM_DS3505
ZBAA,1984-07-20 09:00,ZBAA 200900Z AUTO 16006KT 4SM 29/19 RMK SLP033 T02940192 57007 IEM_DS3505
ZBAA,1984-07-20 12:00,ZBAA 201200Z AUTO 16006KT 4SM 28/20 RMK SLP041 T02800195 52007 IEM_DS3505
ZBAA,1984-07-20 15:00,ZBAA 201500Z AUTO 16004KT 3SM 26/20 RMK SLP044 T02600199 52003 IEM_DS3505
ZBAA,1984-07-20 18:00,ZBAA 201800Z AUTO 00000KT 3SM 24/20 RMK SLP044 T02350203 40308//// 54000 IEM_DS3505
ZBAA,1984-07-20 21:00,ZBAA 202100Z AUTO 02004KT 2 1/2SM 23/20 RMK SLP046 T02280202 52002 IEM_DS3505
ZBAA,1984-07-21 00:00,ZBAA 210000Z AUTO 34004KT 2 1/2SM 25/21 RMK SLP051 T02460207 52005 IEM_DS3505
ZBAA,1984-07-21 02:00,ZBAA 210200Z AUTO 19002KT 7SM 28/22 A2968 RMK T02800220 IEM_DS3505
ZBAA,1984-07-21 03:00,ZBAA 210300Z AUTO 11002KT 1 1/4SM 28/21 A2965 RMK SLP053 T02840212 52003 IEM_DS3505
ZBAA,1984-07-21 04:00,ZBAA 210400Z AUTO 15008KT 7SM 29/21 A2965 RMK T02900210 IEM_DS3505
ZBAA,1984-07-21 05:00,ZBAA 210500Z AUTO 16006KT 7SM 31/22 A2965 RMK T03100220 IEM_DS3505
ZBAA,1984-07-21 06:00,ZBAA 210600Z AUTO 16008KT 4SM 32/20 A2962 RMK SLP040 T03180200 4////0222 57013 IEM_DS3505
ZBAA,1984-07-21 07:00,ZBAA 210700Z AUTO 13008KT 7SM 31/21 A2959 RMK T03100210 IEM_DS3505
ZBAA,1984-07-21 08:00,ZBAA 210800Z AUTO 12008KT 7SM 31/21 A2959 RMK T03100210 IEM_DS3505
ZBAA,1984-07-21 09:00,ZBAA 210900Z AUTO 16008KT 5SM 32/21 RMK SLP025 T03160206 57015 IEM_DS3505
ZBAA,1984-07-21 12:00,ZBAA 211200Z AUTO 11010KT 5SM 29/20 RMK SLP035 T02920205 52009 IEM_DS3505
ZBAA,1984-07-21 15:00,ZBAA 211500Z AUTO 18002KT 6SM 26/19 RMK SLP043 T02620194 52009 IEM_DS3505
ZBAA,1984-07-21 18:00,ZBAA 211800Z AUTO 14002KT 5SM 25/21 RMK SLP043 T02500212 40323//// 54000 IEM_DS3505
ZBAA,1984-07-21 21:00,ZBAA 212100Z AUTO 04002KT 3SM 24/22 RMK SLP044 T02410216 52001 IEM_DS3505
ZBAA,1984-07-22 00:00,ZBAA 220000Z AUTO 16004KT 3SM 24/22 RMK SLP044 T02430219 57001 IEM_DS3505
ZBAA,1984-07-22 01:00,ZBAA 220100Z AUTO 16004KT 3SM 24/22 RMK SLP044 T02430219 57001 IEM_DS3505
ZBAA,1984-07-22 03:00,ZBAA 220300Z AUTO 04004KT 1 1/4SM 26/22 RMK SLP047 T02640223 52003 IEM_DS3505
ZBAA,1984-07-22 06:00,ZBAA 220600Z AUTO 18006KT 2 1/2SM 29/21 RMK 60004 SLP030 T02910212 4////0232 57016 IEM_DS3505
ZBAA,1984-07-22 12:00,ZBAA 221200Z AUTO 00000KT 3SM 30/21 RMK SLP026 T02960210 52009 IEM_DS3505
ZBAA,1984-07-22 15:00,ZBAA 221500Z AUTO 02004KT 6SM 25/19 RMK SLP035 T02540189 52008 IEM_DS3505
ZBAA,1984-07-22 18:00,ZBAA 221800Z AUTO 36002KT 2 1/2SM 23/20 RMK SLP037 T02310205 40313//// 52002 IEM_DS3505
ZBAA,1984-07-22 21:00,ZBAA 222100Z AUTO 04002KT 2 1/2SM 23/20 RMK SLP037 T02320205 52001 IEM_DS3505
ZBAA,1984-07-23 00:00,ZBAA 230000Z AUTO 04006KT 2 1/2SM 24/20 RMK SLP044 T02430202 52007 IEM_DS3505
ZBAA,1984-07-23 03:00,ZBAA 230300Z AUTO 00000KT 5SM 28/21 RMK SLP042 T02750206 57003 IEM_DS3505
ZBAA,1984-07-23 06:00,ZBAA 230600Z AUTO 00000KT 5SM 30/21 RMK SLP028 T03040207 4////0224 57014 IEM_DS3505
ZBAA,1984-07-23 09:00,ZBAA 230900Z AUTO 20004KT 5SM 31/22 RMK SLP015 T03130221 57012 IEM_DS3505
ZBAA,1984-07-23 12:00,ZBAA 231200Z AUTO 20004KT 6SM 28/19 RMK SLP014 T02850189 57002 IEM_DS3505
ZBAA,1984-07-23 15:00,ZBAA 231500Z AUTO 20002KT 4SM 26/21 RMK SLP018 T02630214 52004 IEM_DS3505
ZBAA,1984-07-23 18:00,ZBAA 231800Z AUTO 02002KT 2SM 26/21 RMK SLP015 T02590214 40313//// 57002 IEM_DS3505
ZBAA,1984-07-23 21:00,ZBAA 232100Z AUTO 34002KT 1 1/4SM 24/22 RMK SLP015 T02450224 54000 IEM_DS3505
ZBAA,1984-07-24 00:00,ZBAA 240000Z AUTO 36002KT 1 1/4SM 25/22 RMK SLP017 T02510221 52001 IEM_DS3505
ZBAA,1984-07-24 03:00,ZBAA 240300Z AUTO 36002KT 1 1/4SM 29/23 RMK SLP018 T02900229 52002 IEM_DS3505
ZBAA,1984-07-24 04:00,ZBAA 240400Z AUTO 10004KT 3SM 29/22 A2956 RMK T02900220 IEM_DS3505
ZBAA,1984-07-24 05:00,ZBAA 240500Z AUTO 11004KT 3SM 31/22 A2953 RMK T03100220 IEM_DS3505
ZBAA,1984-07-24 06:00,ZBAA 240600Z AUTO 16008KT 4SM 33/19 A2950 RMK SLP999 T03330188 4////0241 57018 IEM_DS3505
ZBAA,1984-07-24 07:00,ZBAA 240700Z AUTO 18012KT 7SM 33/20 RMK T03300200 IEM_DS3505
ZBAA,1984-07-24 08:00,ZBAA 240800Z AUTO 19012KT 7SM 33/21 A2947 RMK T03300210 IEM_DS3505
ZBAA,1984-07-24 09:00,ZBAA 240900Z AUTO 16010KT 4SM 32/20 RMK SLP988 T03180198 57012 IEM_DS3505
ZBAA,1984-07-24 12:00,ZBAA 241200Z AUTO 18008KT 2 1/2SM 29/21 RMK SLP002 T02870211 52014 IEM_DS3505
ZBAA,1984-07-24 15:00,ZBAA 241500Z AUTO 16004KT 4SM 27/21 RMK SLP010 T02730207 52008 IEM_DS3505
ZBAA,1984-07-24 18:00,ZBAA 241800Z AUTO 00000KT 3SM 25/20 RMK SLP006 T02480205 40342//// 57003 IEM_DS3505
ZBAA,1984-07-24 21:00,ZBAA 242100Z AUTO 19002KT 2 1/2SM 23/20 RMK SLP007 T02330202 54000 IEM_DS3505
ZBAA,1984-07-25 00:00,ZBAA 250000Z AUTO 36002KT 2SM 25/21 RMK SLP016 T02520213 52009 IEM_DS3505
ZBAA,1984-07-25 03:00,ZBAA 250300Z AUTO 18004KT 2 1/2SM 29/21 RMK SLP016 T02910206 54000 IEM_DS3505
ZBAA,1984-07-25 06:00,ZBAA 250600Z AUTO 14008KT 6SM 31/19 RMK SLP000 T03120191 4////0225 57016 IEM_DS3505
ZBAA,1984-07-25 09:00,ZBAA 250900Z AUTO 16006KT 6SM 31/18 RMK SLP991 T03070175 57009 IEM_DS3505
ZBAA,1984-07-25 12:00,ZBAA 251200Z AUTO 18002KT 4SM 29/17 RMK SLP994 T02880174 52003 IEM_DS3505
ZBAA,1984-07-25 15:00,ZBAA 251500Z AUTO 14004KT 4SM 28/21 RMK SLP996 T02750207 52002 IEM_DS3505
ZBAA,1984-07-25 18:00,ZBAA 251800Z AUTO 00000KT 4SM 28/21 RMK SLP992 T02750207 40321//// 57004 IEM_DS3505
ZBAA,1984-07-25 21:00,ZBAA 252100Z AUTO 36002KT 3SM 24/21 RMK SLP991 T02410209 57001 IEM_DS3505
ZBAA,1984-07-26 00:00,ZBAA 260000Z AUTO 36004KT 4SM 25/21 RMK SLP989 T02470209 57002 IEM_DS3505
ZBAA,1984-07-26 03:00,ZBAA 260300Z AUTO 18004KT 1 1/4SM 27/21 RMK SLP987 T02720206 57002 IEM_DS3505
ZBAA,1984-07-26 06:00,ZBAA 260600Z AUTO 16010KT 4SM 29/20 RMK SLP972 T02890205 4////0232 57015 IEM_DS3505
ZBAA,1984-07-26 09:00,ZBAA 260900Z AUTO 16010KT 6SM 30/20 RMK SLP961 T02960203 57011 IEM_DS3505
ZBAA,1984-07-26 12:00,ZBAA 261200Z AUTO 16008KT 6SM 28/20 RMK SLP964 T02750201 52003 IEM_DS3505
ZBAA,1984-07-26 15:00,ZBAA 261500Z AUTO 20006KT 6SM 26/20 RMK SLP983 T02550205 52019 IEM_DS3505
ZBAA,1984-07-26 18:00,ZBAA 261800Z AUTO 07006KT 4SM 25/22 RMK SLP979 T02470216 40303//// 57004 IEM_DS3505
ZBAA,1984-07-26 21:00,ZBAA 262100Z AUTO 02002KT 6SM 22/17 RMK SLP980 T02230170 52001 IEM_DS3505
ZBAA,1984-07-27 00:00,ZBAA 270000Z AUTO 02002KT 4SM 26/18 RMK SLP987 T02560183 52007 IEM_DS3505
ZBAA,1984-07-27 03:00,ZBAA 270300Z AUTO 16006KT 3SM 29/20 RMK SLP985 T02920199 57002 IEM_DS3505
ZBAA,1984-07-27 06:00,ZBAA 270600Z AUTO 16006KT 5SM 32/21 RMK SLP978 T03170206 4////0218 57007 IEM_DS3505
ZBAA,1984-07-27 12:00,ZBAA 271200Z AUTO 34012KT 9SM 29/15 RMK 60000 SLP988 T02880148 52021 IEM_DS3505
ZBAA,1984-07-27 15:00,ZBAA 271500Z AUTO 02004KT 6SM 21/19 RMK SLP029 T02070193 52040 IEM_DS3505
ZBAA,1984-07-27 18:00,ZBAA 271800Z AUTO 14002KT 6SM 20/19 RMK 60028 SLP023 T02030189 40338//// 57006 IEM_DS3505
ZBAA,1984-07-27 21:00,ZBAA 272100Z AUTO 00000KT 2SM 20/19 RMK SLP023 T01980190 54000 IEM_DS3505
ZBAA,1984-07-28 00:00,ZBAA 280000Z AUTO 00000KT 5SM 24/18 RMK SLP031 T02430185 52008 IEM_DS3505
ZBAA,1984-07-28 01:00,ZBAA 280100Z AUTO 00000KT 5SM 24/18 RMK 70028 SLP031 T02430185 52008 IEM_DS3505
ZBAA,1984-07-28 02:00,ZBAA 280200Z AUTO 06006KT 7SM 27/19 A2959 RMK T02700190 IEM_DS3505
ZBAA,1984-07-28 03:00,ZBAA 280300Z AUTO 16006KT 2 1/2SM 28/20 A2962 RMK SLP040 T02830205 52009 IEM_DS3505
ZBAA,1984-07-28 04:00,ZBAA 280400Z AUTO 00000KT 7SM 30/19 A2962 RMK T03000190 IEM_DS3505
ZBAA,1984-07-28 05:00,ZBAA 280500Z AUTO 20008KT 7SM 30/20 A2962 RMK T03000200 IEM_DS3505
ZBAA,1984-07-28 06:00,ZBAA 280600Z AUTO 18008KT 6SM 30/20 A2959 RMK SLP034 T03050199 4////0193 57006 IEM_DS3505
ZBAA,1984-07-28 07:00,ZBAA 280700Z AUTO 19006KT 7SM 31/22 A2959 RMK T03100220 IEM_DS3505
ZBAA,1984-07-28 08:00,ZBAA 280800Z AUTO 18008KT 7SM 31/22 A2959 RMK T03100220 IEM_DS3505
ZBAA,1984-07-28 09:00,ZBAA 280900Z AUTO 16004KT 9SM 32/21 A2938 RMK SLP032 T03160208 57002 IEM_DS3505
ZBAA,1984-07-28 12:00,ZBAA 281200Z AUTO 18002KT 16SM 29/21 RMK SLP039 T02890207 52007 IEM_DS3505
ZBAA,1984-07-28 15:00,ZBAA 281500Z AUTO 00000KT 9SM 25/22 RMK SLP054 T02520221 52015 IEM_DS3505
ZBAA,1984-07-28 18:00,ZBAA 281800Z AUTO 00000KT 3SM 24/22 RMK SLP063 T02400219 40321//// 52010 IEM_DS3505
ZBAA,1984-07-29 00:00,ZBAA 290000Z AUTO 04004KT 2SM 24/22 RMK SLP087 T02440220 52017 IEM_DS3505
ZBAA,1984-07-29 03:00,ZBAA 290300Z AUTO 04004KT 3SM 28/22 RMK SLP091 T02850216 52004 IEM_DS3505
ZBAA,1984-07-29 06:00,ZBAA 290600Z AUTO 02004KT 4SM 31/22 RMK SLP080 T03130219 4////0227 57010 IEM_DS3505
ZBAA,1984-07-29 09:00,ZBAA 290900Z AUTO 14004KT 5SM 32/22 RMK SLP070 T03160220 57010 IEM_DS3505
ZBAA,1984-07-29 12:00,ZBAA 291200Z AUTO 00000KT 4SM 29/23 RMK SLP077 T02940227 52006 IEM_DS3505
ZBAA,1984-07-29 15:00,ZBAA 291500Z AUTO 00000KT 3SM 27/24 RMK SLP090 T02680236 52014 IEM_DS3505
ZBAA,1984-07-29 18:00,ZBAA 291800Z AUTO 00000KT 2SM 26/23 RMK SLP095 T02570234 40324//// 52005 IEM_DS3505
ZBAA,1984-07-29 21:00,ZBAA 292100Z AUTO 09002KT 1SM 25/24 RMK T02510238 52003 IEM_DS3505
ZBAA,1984-07-30 00:00,ZBAA 300000Z AUTO 00000KT 1 1/4SM 26/24 RMK SLP103 T02560237 52005 IEM_DS3505
ZBAA,1984-07-30 03:00,ZBAA 300300Z AUTO 07002KT 3SM 30/23 RMK SLP104 T02990228 52001 IEM_DS3505
ZBAA,1984-07-30 06:00,ZBAA 300600Z AUTO 16008KT 7SM 32/22 RMK SLP087 T03170216 4////0243 57017 IEM_DS3505
ZBAA,1984-07-30 09:00,ZBAA 300900Z AUTO 18004KT 7SM 32/20 RMK SLP073 T03220203 57014 IEM_DS3505
ZBAA,1984-07-30 12:00,ZBAA 301200Z AUTO 18006KT 6SM 30/22 RMK SLP069 T03040224 57004 IEM_DS3505
ZBAA,1984-07-30 15:00,ZBAA 301500Z AUTO 18002KT 6SM 28/22 RMK SLP080 T02770219 52011 IEM_DS3505
ZBAA,1984-07-30 18:00,ZBAA 301800Z AUTO 16006KT 4SM 25/23 RMK SLP078 T02530230 40325//// 57002 IEM_DS3505
ZBAA,1984-07-30 21:00,ZBAA 302100Z AUTO 11006KT 3SM 25/22 RMK SLP078 T02470223 54000 IEM_DS3505
ZBAA,1984-07-31 00:00,ZBAA 310000Z AUTO 00000KT 3SM 25/23 RMK SLP083 T02490227 52005 IEM_DS3505
ZBAA,1984-07-31 03:00,ZBAA 310300Z AUTO 14004KT 1 1/4SM 28/23 A2974 RMK SLP082 T02820228 57001 IEM_DS3505
ZBAA,1984-07-31 04:00,ZBAA 310400Z AUTO 10004KT 7SM 28/23 A2974 RMK T02800230 IEM_DS3505
ZBAA,1984-07-31 05:00,ZBAA 310500Z AUTO 13006KT 7SM 29/23 A2971 RMK T02900230 IEM_DS3505
ZBAA,1984-07-31 06:00,ZBAA 310600Z AUTO 11008KT 1 1/4SM 31/23 RMK SLP070 T03100231 4////0241 57012 IEM_DS3505
ZBAA,1984-07-31 07:00,ZBAA 310700Z AUTO 14008KT 6SM 31/23 A2971 RMK T03100230 IEM_DS3505
ZBAA,1984-07-31 09:00,ZBAA 310900Z AUTO 20002KT 4SM 31/23 RMK SLP056 T03140232 57014 IEM_DS3505
ZBAA,1984-07-31 12:00,ZBAA 311200Z AUTO 16004KT 4SM 30/24 RMK SLP058 T02990236 52002 IEM_DS3505
ZBAA,1984-07-31 15:00,ZBAA 311500Z AUTO 00000KT 4SM 29/24 RMK SLP064 T02880236 52006 IEM_DS3505
ZBAA,1984-07-31 18:00,ZBAA 311800Z AUTO 16004KT 2 1/2SM 27/23 RMK SLP064 T02740233 40317//// 54000 IEM_DS3505
ZBAA,1984-07-31 21:00,ZBAA 312100Z AUTO 00000KT 3SM 26/23 RMK T02600232 52003 IEM_DS3505
ZBAA,1984-08-01 00:00,ZBAA 010000Z AUTO 04004KT 1 1/2SM 27/24 RMK SLP072 T02680241 52005 IEM_DS3505
ZBAA,1984-08-01 03:00,ZBAA 010300Z AUTO 09002KT 2 1/2SM 31/24 RMK SLP068 T03100237 57004 IEM_DS3505
ZBAA,1984-08-01 06:00,ZBAA 010600Z AUTO 16006KT 6SM 33/23 RMK SLP054 T03300231 4////0252 57014 IEM_DS3505
ZBAA,1984-08-01 09:00,ZBAA 010900Z AUTO 18006KT 6SM 34/22 RMK SLP038 T03350219 57016 IEM_DS3505
ZBAA,1984-08-01 12:00,ZBAA 011200Z AUTO 16004KT 4SM 31/23 RMK SLP041 T03120230 52003 IEM_DS3505
ZBAA,1984-08-01 15:00,ZBAA 011500Z AUTO 18004KT 4SM 28/23 RMK SLP056 T02840233 52015 IEM_DS3505
ZBAA,1984-08-01 18:00,ZBAA 011800Z AUTO 09002KT 3SM 27/24 RMK SLP059 T02680238 40339//// 52003 IEM_DS3505
ZBAA,1984-08-01 21:00,ZBAA 012100Z AUTO 07004KT 2 1/2SM 26/24 RMK SLP059 T02560235 54000 IEM_DS3505
ZBAA,1984-08-02 00:00,ZBAA 020000Z AUTO 07004KT 4SM 27/23 RMK SLP062 T02690230 52003 IEM_DS3505
ZBAA,1984-08-02 03:00,ZBAA 020300Z AUTO 02004KT 3SM 28/22 RMK SLP058 T02840223 57004 IEM_DS3505
ZBAA,1984-08-02 06:00,ZBAA 020600Z AUTO 02004KT 5SM 29/22 RMK SLP048 T02940224 4////0252 57010 IEM_DS3505
ZBAA,1984-08-02 09:00,ZBAA 020900Z AUTO 04006KT 6SM 21/21 RMK SLP033 T02130211 57011 IEM_DS3505
ZBAA,1984-08-02 12:00,ZBAA 021200Z AUTO 36002KT 5SM 28/24 RMK SLP038 T02810236 52001 IEM_DS3505
ZBAA,1984-08-02 15:00,ZBAA 021500Z AUTO 14004KT 5SM 27/24 RMK SLP041 T02670241 52003 IEM_DS3505
ZBAA,1984-08-02 18:00,ZBAA 021800Z AUTO 11004KT 6SM 26/23 RMK 60008 SLP038 T02580233 40297//// 57003 IEM_DS3505
ZBAA,1984-08-02 21:00,ZBAA 022100Z AUTO 00000KT 3SM 25/23 RMK SLP028 T02470234 57010 IEM_DS3505
ZBAA,1984-08-03 00:00,ZBAA 030000Z AUTO 34004KT 2 1/2SM 27/24 RMK SLP026 T02660240 57002 IEM_DS3505
ZBAA,1984-08-03 03:00,ZBAA 030300Z AUTO 22006KT 5SM 29/23 RMK SLP022 T02860228 57004 IEM_DS3505
ZBAA,1984-08-03 06:00,ZBAA 030600Z AUTO 16004KT 5SM 32/23 RMK SLP004 T03150231 4////0242 57018 IEM_DS3505
ZBAA,1984-08-03 09:00,ZBAA 030900Z AUTO 20008KT 5SM 31/23 RMK SLP995 T03100231 57009 IEM_DS3505
ZBAA,1984-08-03 12:00,ZBAA 031200Z AUTO 20004KT 6SM 30/23 RMK SLP997 T02960234 52002 IEM_DS3505
ZBAA,1984-08-03 15:00,ZBAA 031500Z AUTO 22002KT 5SM 28/24 RMK SLP007 T02850242 52010 IEM_DS3505
ZBAA,1984-08-03 18:00,ZBAA 031800Z AUTO 36004KT 5SM 26/24 RMK 60008 SLP015 T02580241 40329//// 52008 IEM_DS3505
ZBAA,1984-08-03 21:00,ZBAA 032100Z AUTO 34004KT 4SM 25/24 RMK SLP013 T02480235 57002 IEM_DS3505
ZBAA,1984-08-03 22:00,ZBAA 032200Z AUTO 33006KT 7SM 24/23 A2953 RMK T02400230 IEM_DS3505
ZBAA,1984-08-03 23:00,ZBAA 032300Z AUTO 00000KT 7SM 24/23 A2956 RMK T02400230 IEM_DS3505
ZBAA,1984-08-04 00:00,ZBAA 040000Z AUTO 00000KT 6SM 25/23 A2956 RMK 60024 SLP024 T02460231 52011 IEM_DS3505
ZBAA,1984-08-04 01:00,ZBAA 040100Z AUTO 06006KT 6SM 25/23 A2956 RMK T02500230 IEM_DS3505
ZBAA,1984-08-04 02:00,ZBAA 040200Z AUTO 03008KT 6SM 27/23 A2959 RMK T02700230 IEM_DS3505
ZBAA,1984-08-04 03:00,ZBAA 040300Z AUTO 00000KT 4SM 27/24 A2959 RMK SLP031 T02680239 52007 IEM_DS3505
ZBAA,1984-08-04 04:00,ZBAA 040400Z AUTO 02004KT 6SM 28/24 A2959 RMK T02800240 IEM_DS3505
ZBAA,1984-08-04 05:00,ZBAA 040500Z AUTO 01004KT 6SM 30/24 A2956 RMK T03000240 IEM_DS3505
ZBAA,1984-08-04 06:00,ZBAA 040600Z AUTO 00000KT 12SM 32/21 A2956 RMK SLP021 T03200211 4////0238 57010 IEM_DS3505
ZBAA,1984-08-04 07:00,ZBAA 040700Z AUTO 00000KT 7SM 33/22 A2956 RMK T03300220 IEM_DS3505
ZBAA,1984-08-04 08:00,ZBAA 040800Z AUTO 14008KT 7SM 32/22 A2953 RMK T03200220 IEM_DS3505
ZBAA,1984-08-04 09:00,ZBAA 040900Z AUTO 20008KT 7SM 33/23 A2953 RMK SLP016 T03260227 57005 IEM_DS3505
ZBAA,1984-08-04 10:00,ZBAA 041000Z AUTO 15006KT 7SM 31/23 A2956 RMK T03100230 IEM_DS3505
ZBAA,1984-08-04 12:00,ZBAA 041200Z AUTO 18004KT 6SM 30/24 RMK SLP026 T02950239 52010 IEM_DS3505
ZBAA,1984-08-04 15:00,ZBAA 041500Z AUTO 16004KT 6SM 27/24 RMK SLP035 T02700241 52008 IEM_DS3505
ZBAA,1984-08-04 18:00,ZBAA 041800Z AUTO 00000KT 5SM 26/24 RMK SLP037 T02580242 40331//// 52003 IEM_DS3505
ZBAA,1984-08-04 21:00,ZBAA 042100Z AUTO 02004KT 3SM 25/24 RMK SLP042 T02480235 52005 IEM_DS3505
ZBAA,1984-08-05 00:00,ZBAA 050000Z AUTO 36004KT 3SM 26/23 RMK SLP053 T02610233 52011 IEM_DS3505
ZBAA,1984-08-05 03:00,ZBAA 050300Z AUTO 00000KT 3SM 31/24 RMK SLP050 T03100243 57003 IEM_DS3505
ZBAA,1984-08-05 06:00,ZBAA 050600Z AUTO 11006KT 5SM 34/24 RMK SLP034 T03390242 4////0244 57016 IEM_DS3505
ZBAA,1984-08-05 09:00,ZBAA 050900Z AUTO 20008KT 7SM 39/22 RMK SLP021 T03930222 57013 IEM_DS3505
ZBAA,1984-08-05 12:00,ZBAA 051200Z AUTO 16004KT 6SM 32/24 RMK SLP026 T03250243 52005 IEM_DS3505
ZBAA,1984-08-05 15:00,ZBAA 051500Z AUTO 07002KT 5SM 29/25 RMK SLP033 T02860252 52007 IEM_DS3505
ZBAA,1984-08-05 18:00,ZBAA 051800Z AUTO 36004KT 2 1/2SM 28/25 RMK SLP026 T02760249 40356//// 57007 IEM_DS3505
ZBAA,1984-08-05 21:00,ZBAA 052100Z AUTO 02006KT 2SM 26/25 RMK SLP026 T02640250 54000 IEM_DS3505
ZBAA,1984-08-06 00:00,ZBAA 060000Z AUTO 02004KT 2 1/2SM 28/25 RMK SLP033 T02810247 52007 IEM_DS3505
ZBAA,1984-08-06 03:00,ZBAA 060300Z AUTO 36006KT 2 1/2SM 32/25 RMK SLP025 T03220248 57008 IEM_DS3505
ZBAA,1984-08-06 06:00,ZBAA 060600Z AUTO 22006KT 4SM 36/24 RMK SLP005 T03560244 4////0258 57019 IEM_DS3505
ZBAA,1984-08-06 09:00,ZBAA 060900Z AUTO 16008KT 5SM 35/25 RMK SLP991 T03510252 57014 IEM_DS3505
ZBAA,1984-08-06 12:00,ZBAA 061200Z AUTO 07006KT 9SM 25/18 RMK 60008 SLP028 T02530180 52035 IEM_DS3505
ZBAA,1984-08-06 18:00,ZBAA 061800Z AUTO 36002KT 4SM 22/20 RMK 60002 SLP059 T02210196 40361//// 52006 IEM_DS3505
ZBAA,1984-08-06 21:00,ZBAA 062100Z AUTO 29002KT 4SM 22/20 RMK SLP064 T02200199 52005 IEM_DS3505
ZBAA,1984-08-07 00:00,ZBAA 070000Z AUTO 04002KT 4SM 24/20 RMK SLP066 T02440198 52001 IEM_DS3505
ZBAA,1984-08-07 03:00,ZBAA 070300Z AUTO 18010KT 7SM 29/20 RMK SLP060 T02930203 57006 IEM_DS3505
ZBAA,1984-08-07 06:00,ZBAA 070600Z AUTO 16010KT 9SM 30/21 RMK SLP049 T03050214 4////0215 57011 IEM_DS3505
ZBAA,1984-08-07 09:00,ZBAA 070900Z AUTO 18010KT 7SM 30/22 RMK SLP048 T03000219 57001 IEM_DS3505
ZBAA,1984-08-07 12:00,ZBAA 071200Z AUTO 11002KT 6SM 29/23 RMK SLP060 T02860228 52012 IEM_DS3505
ZBAA,1984-08-07 15:00,ZBAA 071500Z AUTO 32021KT 6SM 24/18 RMK SLP091 T02430185 52031 IEM_DS3505
ZBAA,1984-08-07 18:00,ZBAA 071800Z AUTO 00000KT 6SM 24/22 RMK 60047 SLP069 T02390216 40312//// 57021 IEM_DS3505
ZBAA,1984-08-07 21:00,ZBAA 072100Z AUTO 27004KT 5SM 24/22 RMK SLP070 T02360221 54000 IEM_DS3505
ZBAA,1984-08-08 00:00,ZBAA 080000Z AUTO 00000KT 3SM 26/23 RMK SLP074 T02620226 52005 IEM_DS3505
ZBAA,1984-08-08 03:00,ZBAA 080300Z AUTO 16006KT 6SM 29/23 RMK SLP074 T02900229 57001 IEM_DS3505
ZBAA,1984-08-08 06:00,ZBAA 080600Z AUTO 16008KT 6SM 32/24 RMK SLP065 T03170235 4////0205 57008 IEM_DS3505
ZBAA,1984-08-08 09:00,ZBAA 080900Z AUTO 14008KT 7SM 32/23 RMK SLP055 T03230228 57010 IEM_DS3505
ZBAA,1984-08-08 12:00,ZBAA 081200Z AUTO 22004KT 5SM 27/22 RMK SLP073 T02730223 52017 IEM_DS3505
ZBAA,1984-08-08 15:00,ZBAA 081500Z AUTO 32004KT 4SM 26/23 RMK SLP076 T02550234 52004 IEM_DS3505
ZBAA,1984-08-08 18:00,ZBAA 081800Z AUTO 29008KT 4SM 25/23 RMK 60000 SLP075 T02500234 40327//// 57001 IEM_DS3505
ZBAA,1984-08-08 21:00,ZBAA 082100Z AUTO 04006KT 1SM 22/22 RMK SLP075 T02180216 54000 IEM_DS3505
ZBAA,1984-08-09 00:00,ZBAA 090000Z AUTO 34002KT 7SM 23/22 RMK 60602 SLP082 T02280222 52006 IEM_DS3505
ZBAA,1984-08-09 03:00,ZBAA 090300Z AUTO 00000KT 3SM 25/23 RMK SLP085 T02490231 52003 IEM_DS3505
ZBAA,1984-08-09 06:00,ZBAA 090600Z AUTO 02006KT 3SM 26/23 RMK SLP068 T02620233 57017 IEM_DS3505
ZBAA,1984-08-09 09:00,ZBAA 090900Z AUTO 36004KT 2 1/2SM 25/24 RMK SLP068 T02520242 54000 IEM_DS3505
ZBAA,1984-08-09 12:00,ZBAA 091200Z AUTO 04002KT 3SM 24/23 RMK 60012 SLP069 T02400228 52001 IEM_DS3505
ZBAA,1984-08-09 15:00,ZBAA 091500Z AUTO 36002KT 3SM 24/23 RMK SLP064 T02350226 57005 IEM_DS3505
ZBAA,1984-08-09 18:00,ZBAA 091800Z AUTO 02006KT 2SM 23/23 RMK 60035 SLP039 T02310226 40264//// 57025 IEM_DS3505
ZBAA,1984-08-09 21:00,ZBAA 092100Z AUTO 02010KT 2SM 23/22 RMK SLP006 T02260218 57032 IEM_DS3505
ZBAA,1984-08-10 00:00,ZBAA 100000Z AUTO 36010KT 4SM 22/22 RMK 60157 SLP987 T02230217 57019 IEM_DS3505
ZBAA,1984-08-10 03:00,ZBAA 100300Z AUTO 36008KT 19SM 27/22 RMK SLP979 T02690223 57008 IEM_DS3505
ZBAA,1984-08-10 06:00,ZBAA 100600Z AUTO 36006KT 19SM 31/20 RMK 60004 SLP978 T03140205 4////0219 57001 IEM_DS3505
ZBAA,1984-08-10 09:00,ZBAA 100900Z AUTO 11006KT 19SM 31/22 RMK SLP983 T03120223 52005 IEM_DS3505
ZBAA,1984-08-10 12:00,ZBAA 101200Z AUTO 14006KT 19SM 29/23 RMK SLP007 T02870226 52024 IEM_DS3505
ZBAA,1984-08-10 15:00,ZBAA 101500Z AUTO 07004KT 12SM 27/23 RMK SLP036 T02730229 52029 IEM_DS3505
ZBAA,1984-08-10 18:00,ZBAA 101800Z AUTO 36004KT 12SM 24/22 RMK SLP052 T02440219 40323//// 52016 IEM_DS3505
ZBAA,1984-08-10 21:00,ZBAA 102100Z AUTO 36004KT 12SM 24/22 RMK SLP062 T02380218 52010 IEM_DS3505
ZBAA,1984-08-10 23:00,ZBAA 102300Z AUTO 01004KT 7SM 24/22 A2971 RMK T02400220 IEM_DS3505
ZBAA,1984-08-11 00:00,ZBAA 110000Z AUTO 02006KT 19SM 26/22 A2971 RMK T02600217 52012 IEM_DS3505
ZBAA,1984-08-11 01:00,ZBAA 110100Z AUTO 07004KT 6SM 28/22 A2974 RMK T02800220 IEM_DS3505
ZBAA,1984-08-11 02:00,ZBAA 110200Z AUTO 12008KT 7SM 27/23 A2974 RMK T02700230 IEM_DS3505
ZBAA,1984-08-11 03:00,ZBAA 110300Z AUTO 02006KT 7SM 29/23 A2974 RMK SLP081 T02860228 52007 IEM_DS3505
ZBAA,1984-08-11 04:00,ZBAA 110400Z AUTO 05008KT 6SM 29/24 A2974 RMK T02900240 IEM_DS3505
ZBAA,1984-08-11 05:00,ZBAA 110500Z AUTO 13008KT 7SM 29/25 A2974 RMK T02900250 IEM_DS3505
ZBAA,1984-08-11 06:00,ZBAA 110600Z AUTO 07006KT 7SM 30/25 A2974 RMK SLP078 T03000251 4////0231 57003 IEM_DS3505
ZBAA,1984-08-11 07:00,ZBAA 110700Z AUTO 17006KT 7SM 30/26 A2974 RMK T03000260 IEM_DS3505
ZBAA,1984-08-11 08:00,ZBAA 110800Z AUTO 11004KT 7SM 31/26 A2971 RMK T03100260 IEM_DS3505
ZBAA,1984-08-11 09:00,ZBAA 110900Z AUTO 16004KT 6SM 32/25 A2968 RMK SLP061 T03150247 57017 IEM_DS3505
ZBAA,1984-08-11 10:00,ZBAA 111000Z AUTO 12008KT 7SM 30/27 A2965 RMK T03000270 IEM_DS3505
ZBAA,1984-08-11 12:00,ZBAA 111200Z AUTO 25006KT 9SM 26/22 RMK SLP075 T02600220 52013 IEM_DS3505
ZBAA,1984-08-11 15:00,ZBAA 111500Z AUTO 04004KT 4SM 23/22 RMK SLP077 T02340222 52002 IEM_DS3505
ZBAA,1984-08-11 18:00,ZBAA 111800Z AUTO 20002KT 3SM 24/22 RMK 60079 SLP088 T02360224 40317//// 52011 IEM_DS3505
ZBAA,1984-08-11 21:00,ZBAA 112100Z AUTO 04002KT 4SM 23/22 RMK SLP078 T02270216 57009 IEM_DS3505
ZBAA,1984-08-12 00:00,ZBAA 120000Z AUTO 36004KT 4SM 23/21 RMK SLP076 T02290211 57003 IEM_DS3505
ZBAA,1984-08-12 03:00,ZBAA 120300Z AUTO 11002KT 3SM 24/22 RMK SLP074 T02430218 57002 IEM_DS3505
ZBAA,1984-08-12 06:00,ZBAA 120600Z AUTO 36004KT 3SM 25/22 RMK SLP050 T02510224 4////0219 57024 IEM_DS3505
ZBAA,1984-08-12 09:00,ZBAA 120900Z AUTO 07004KT 4SM 25/23 RMK SLP049 T02520231 57001 IEM_DS3505
ZBAA,1984-08-12 12:00,ZBAA 121200Z AUTO 00000KT 1 1/4SM 25/23 RMK 60001 SLP043 T02460234 57006 IEM_DS3505
ZBAA,1984-08-12 15:00,ZBAA 121500Z AUTO 00000KT 1SM 24/24 RMK SLP048 T02420236 52005 IEM_DS3505
ZBAA,1984-08-12 18:00,ZBAA 121800Z AUTO 00000KT 1SM 24/23 RMK SLP037 T02390233 40258//// 57011 IEM_DS3505
ZBAA,1984-08-12 21:00,ZBAA 122100Z AUTO 20002KT 1 1/4SM 22/22 RMK SLP028 T02230217 57009 IEM_DS3505
ZBAA,1984-08-13 00:00,ZBAA 130000Z AUTO 16002KT 1 1/4SM 26/22 RMK 60000 T02550216 52016 IEM_DS3505
ZBAA,1984-08-13 03:00,ZBAA 130300Z AUTO 16002KT 1 1/4SM 26/22 RMK 60000 SLP044 T02550216 52016 IEM_DS3505
ZBAA,1984-08-13 06:00,ZBAA 130600Z AUTO 29016KT 19SM 31/10 RMK SLP048 T03080104 4////0220 52001 IEM_DS3505
ZBAA,1984-08-13 09:00,ZBAA 130900Z AUTO 34010KT 19SM 29/10 RMK SLP064 T02880103 52015 IEM_DS3505
ZBAA,1984-08-13 12:00,ZBAA 131200Z AUTO 34008KT 19SM 24/10 RMK SLP086 T02360099 52022 IEM_DS3505
ZBAA,1984-08-13 15:00,ZBAA 131500Z AUTO 36010KT 19SM 22/08 RMK SLP099 T02240083 52013 IEM_DS3505
ZBAA,1984-08-13 18:00,ZBAA 131800Z AUTO 36002KT 19SM 20/10 RMK SLP108 T01970104 40308//// 52009 IEM_DS3505
ZBAA,1984-08-13 21:00,ZBAA 132100Z AUTO 34004KT 19SM 18/10 RMK SLP108 T01770105 54000 IEM_DS3505
ZBAA,1984-08-14 00:00,ZBAA 140000Z AUTO 36004KT 19SM 22/11 RMK SLP118 T02210106 52009 IEM_DS3505
ZBAA,1984-08-14 03:00,ZBAA 140300Z AUTO 02012KT 19SM 26/09 RMK SLP123 T02610086 52005 IEM_DS3505
ZBAA,1984-08-14 04:00,ZBAA 140400Z AUTO 02008KT 7SM 26/13 A2985 RMK T02600130 IEM_DS3505
ZBAA,1984-08-14 05:00,ZBAA 140500Z AUTO 08008KT 6SM 26/12 A2983 RMK T02600120 IEM_DS3505
ZBAA,1984-08-14 06:00,ZBAA 140600Z AUTO 02008KT 19SM 28/10 A2983 RMK SLP106 T02830105 4////0165 57016 IEM_DS3505
ZBAA,1984-08-14 07:00,ZBAA 140700Z AUTO 29008KT 7SM 24/13 A2983 RMK T02400130 IEM_DS3505
ZBAA,1984-08-14 08:00,ZBAA 140800Z AUTO 27006KT 6SM 25/11 A2980 RMK T02500110 IEM_DS3505
ZBAA,1984-08-14 09:00,ZBAA 140900Z AUTO 00000KT 19SM 26/12 A2980 RMK SLP103 T02650116 57004 IEM_DS3505
ZBAA,1984-08-14 11:00,ZBAA 141100Z AUTO 00000KT 16SM 22/ RMK SLP115 52012 IEM_DS3505
ZBAA,1984-08-14 12:00,ZBAA 141200Z AUTO 00000KT 16SM 22/14 RMK 60001 SLP115 T02200140 52012 IEM_DS3505
ZBAA,1984-08-14 15:00,ZBAA 141500Z AUTO 00000KT 12SM 19/16 RMK SLP124 T01860157 52009 IEM_DS3505
ZBAA,1984-08-14 18:00,ZBAA 141800Z AUTO 34002KT 9SM 17/15 RMK SLP127 T01730149 40285//// 52003 IEM_DS3505
ZBAA,1984-08-14 21:00,ZBAA 142100Z AUTO 00000KT 9SM 16/14 RMK SLP129 T01640145 52002 IEM_DS3505
ZBAA,1984-08-15 00:00,ZBAA 150000Z AUTO 00000KT 9SM 22/14 RMK SLP133 T02170136 52004 IEM_DS3505
ZBAA,1984-08-15 03:00,ZBAA 150300Z AUTO 02006KT 12SM 27/13 RMK SLP130 T02670132 57003 IEM_DS3505
ZBAA,1984-08-15 06:00,ZBAA 150600Z AUTO 09004KT 19SM 29/11 RMK SLP108 T02900111 4////0155 57021 IEM_DS3505
ZBAA,1984-08-15 09:00,ZBAA 150900Z AUTO 16004KT 12SM 28/12 RMK SLP098 T02810123 57011 IEM_DS3505
ZBAA,1984-08-15 12:00,ZBAA 151200Z AUTO 18006KT 12SM 25/14 RMK SLP103 T02470144 52006 IEM_DS3505
ZBAA,1984-08-15 15:00,ZBAA 151500Z AUTO 20006KT 12SM 22/15 RMK SLP107 T02220148 52004 IEM_DS3505
ZBAA,1984-08-15 18:00,ZBAA 151800Z AUTO 00000KT 12SM 20/15 RMK SLP108 T01960150 40297//// 52001 IEM_DS3505
ZBAA,1984-08-15 21:00,ZBAA 152100Z AUTO 00000KT 9SM 18/16 RMK SLP114 T01800157 52005 IEM_DS3505
ZBAA,1984-08-16 00:00,ZBAA 160000Z AUTO 36006KT 5SM 21/16 RMK SLP120 T02060155 52006 IEM_DS3505
ZBAA,1984-08-16 03:00,ZBAA 160300Z AUTO 00000KT 4SM 26/16 RMK SLP117 T02640161 57003 IEM_DS3505
ZBAA,1984-08-16 06:00,ZBAA 160600Z AUTO 20012KT 7SM 29/14 RMK SLP109 T02880144 4////0173 57007 IEM_DS3505
ZBAA,1984-08-16 09:00,ZBAA 160900Z AUTO 16010KT 9SM 28/14 RMK SLP103 T02770142 57007 IEM_DS3505
ZBAA,1984-08-16 12:00,ZBAA 161200Z AUTO 18006KT 6SM 25/17 RMK SLP116 T02530167 52013 IEM_DS3505
ZBAA,1984-08-16 15:00,ZBAA 161500Z AUTO 18002KT 4SM 23/17 RMK SLP124 T02260173 52008 IEM_DS3505
ZBAA,1984-08-16 18:00,ZBAA 161800Z AUTO 16004KT 4SM 21/16 RMK SLP125 T02140162 40292//// 52002 IEM_DS3505
ZBAA,1984-08-16 21:00,ZBAA 162100Z AUTO 20002KT 5SM 20/16 RMK SLP126 T02040164 54000 IEM_DS3505
ZBAA,1984-08-17 00:00,ZBAA 170000Z AUTO 00000KT 4SM 22/17 RMK SLP138 T02180173 52012 IEM_DS3505
ZBAA,1984-08-17 03:00,ZBAA 170300Z AUTO 20002KT 4SM 26/17 RMK SLP141 T02550174 52003 IEM_DS3505
ZBAA,1984-08-17 06:00,ZBAA 170600Z AUTO 18010KT 9SM 27/14 RMK SLP138 T02690144 4////0197 57003 IEM_DS3505
ZBAA,1984-08-17 09:00,ZBAA 170900Z AUTO 20006KT 9SM 27/16 RMK SLP133 T02730155 57005 IEM_DS3505
ZBAA,1984-08-17 12:00,ZBAA 171200Z AUTO 16004KT 7SM 25/17 RMK SLP137 T02510169 52004 IEM_DS3505
ZBAA,1984-08-17 15:00,ZBAA 171500Z AUTO 00000KT 6SM 22/19 RMK SLP142 T02200186 52005 IEM_DS3505
ZBAA,1984-08-17 18:00,ZBAA 171800Z AUTO 36004KT 5SM 20/18 RMK SLP147 T02050184 40279//// 52005 IEM_DS3505
ZBAA,1984-08-17 21:00,ZBAA 172100Z AUTO 00000KT 4SM 20/18 A2994 RMK SLP151 T01980180 52004 IEM_DS3505
ZBAA,1984-08-17 22:00,ZBAA 172200Z AUTO 02004KT 4SM 18/17 A2994 RMK T01800170 IEM_DS3505
ZBAA,1984-08-17 23:00,ZBAA 172300Z AUTO 02006KT 4SM 19/18 A2994 RMK T01900180 IEM_DS3505
ZBAA,1984-08-18 00:00,ZBAA 180000Z AUTO 02004KT 4SM 21/18 A2997 RMK SLP160 T02140179 52009 IEM_DS3505
ZBAA,1984-08-18 01:00,ZBAA 180100Z AUTO 12002KT 6SM 22/19 A2997 RMK T02200190 IEM_DS3505
ZBAA,1984-08-18 03:00,ZBAA 180300Z AUTO 00000KT 2 1/2SM 26/18 A2997 RMK SLP161 T02580183 52001 IEM_DS3505
ZBAA,1984-08-18 04:00,ZBAA 180400Z AUTO 00000KT 6SM 26/19 A2994 RMK T02600190 IEM_DS3505
ZBAA,1984-08-18 05:00,ZBAA 180500Z AUTO 17004KT 6SM 27/18 A2994 RMK T02700180 IEM_DS3505
ZBAA,1984-08-18 06:00,ZBAA 180600Z AUTO 20008KT 6SM 28/16 A2991 RMK SLP142 T02760161 4////0192 57019 IEM_DS3505
ZBAA,1984-08-18 07:00,ZBAA 180700Z AUTO 19010KT 6SM 28/16 A2991 RMK T02800160 IEM_DS3505
ZBAA,1984-08-18 08:00,ZBAA 180800Z AUTO 19008KT 6SM 28/16 A2988 RMK T02800160 IEM_DS3505
ZBAA,1984-08-18 09:00,ZBAA 180900Z AUTO 18006KT 6SM 27/16 RMK SLP130 T02730161 57012 IEM_DS3505
ZBAA,1984-08-18 10:00,ZBAA 181000Z AUTO 18006KT 6SM 26/17 A2988 RMK T02600170 IEM_DS3505
ZBAA,1984-08-18 12:00,ZBAA 181200Z AUTO 16004KT 7SM 25/16 RMK SLP132 T02520165 52002 IEM_DS3505
ZBAA,1984-08-18 15:00,ZBAA 181500Z AUTO 00000KT 6SM 23/17 RMK SLP136 T02300174 52004 IEM_DS3505
ZBAA,1984-08-18 18:00,ZBAA 181800Z AUTO 00000KT 6SM 21/18 RMK SLP132 T02100175 40281//// 57004 IEM_DS3505
ZBAA,1984-08-18 21:00,ZBAA 182100Z AUTO 00000KT 5SM 20/17 RMK SLP124 T02050174 57008 IEM_DS3505
ZBAA,1984-08-19 00:00,ZBAA 190000Z AUTO 36002KT 2 1/2SM 21/18 RMK SLP129 T02120185 52005 IEM_DS3505
ZBAA,1984-08-19 03:00,ZBAA 190300Z AUTO 00000KT 4SM 23/19 RMK SLP128 T02300186 57001 IEM_DS3505
ZBAA,1984-08-19 06:00,ZBAA 190600Z AUTO 00000KT 5SM 24/19 RMK 60000 SLP119 T02360188 4////0196 57009 IEM_DS3505
ZBAA,1984-08-19 09:00,ZBAA 190900Z AUTO 00000KT 2 1/2SM 23/21 RMK SLP107 T02300207 57012 IEM_DS3505
ZBAA,1984-08-19 12:00,ZBAA 191200Z AUTO 00000KT 2 1/2SM 22/20 RMK 60001 SLP105 T02210205 57002 IEM_DS3505
ZBAA,1984-08-19 15:00,ZBAA 191500Z AUTO 02002KT 2 1/2SM 21/20 RMK SLP107 T02130196 52002 IEM_DS3505
ZBAA,1984-08-19 18:00,ZBAA 191800Z AUTO 00000KT 2 1/2SM 21/19 RMK SLP100 T02080192 40242//// 57007 IEM_DS3505
ZBAA,1984-08-19 21:00,ZBAA 192100Z AUTO 02002KT 3SM 21/19 RMK SLP092 T02080191 57008 IEM_DS3505
ZBAA,1984-08-20 00:00,ZBAA 200000Z AUTO 00000KT 2 1/2SM 21/20 RMK SLP093 T02140197 52001 IEM_DS3505
ZBAA,1984-08-20 03:00,ZBAA 200300Z AUTO 00000KT 1 1/2SM 24/19 RMK SLP089 T02360189 57004 IEM_DS3505
ZBAA,1984-08-20 06:00,ZBAA 200600Z AUTO 34002KT 3SM 28/19 RMK SLP064 T02770191 4////0202 57024 IEM_DS3505
ZBAA,1984-08-20 09:00,ZBAA 200900Z AUTO 20004KT 1 1/2SM 28/21 RMK SLP048 T02800207 57016 IEM_DS3505
ZBAA,1984-08-20 12:00,ZBAA 201200Z AUTO 18006KT 2SM 26/22 RMK SLP049 T02570217 52001 IEM_DS3505
ZBAA,1984-08-20 15:00,ZBAA 201500Z AUTO 02006KT 1 1/4SM 24/20 RMK SLP046 T02390199 57003 IEM_DS3505
ZBAA,1984-08-20 18:00,ZBAA 201800Z AUTO 02002KT 1SM 22/21 RMK SLP039 T02220207 40291//// 57007 IEM_DS3505
ZBAA,1984-08-20 21:00,ZBAA 202100Z AUTO 02002KT 1 1/4SM 20/19 RMK SLP029 T02030192 57010 IEM_DS3505
ZBAA,1984-08-21 00:00,ZBAA 210000Z AUTO 34004KT 4SM 23/18 RMK SLP031 T02280177 52002 IEM_DS3505
ZBAA,1984-08-21 02:00,ZBAA 210200Z AUTO 00000KT 7SM 26/19 A2959 RMK T02600190 IEM_DS3505
ZBAA,1984-08-21 03:00,ZBAA 210300Z AUTO 22006KT 6SM 28/17 A2956 RMK SLP022 T02750171 57009 IEM_DS3505
ZBAA,1984-08-21 04:00,ZBAA 210400Z AUTO 27006KT 7SM 29/17 A2953 RMK T02900170 IEM_DS3505
ZBAA,1984-08-21 05:00,ZBAA 210500Z AUTO 25006KT 7SM 30/18 A2953 RMK T03000180 IEM_DS3505
ZBAA,1984-08-21 06:00,ZBAA 210600Z AUTO 22002KT 6SM 31/19 A2950 RMK SLP999 T03110188 4////0190 57022 IEM_DS3505
ZBAA,1984-08-21 07:00,ZBAA 210700Z AUTO 00000KT 7SM 32/15 A2947 RMK T03200150 IEM_DS3505
ZBAA,1984-08-21 08:00,ZBAA 210800Z AUTO 00000KT 7SM 32/16 A2947 RMK T03200160 IEM_DS3505
ZBAA,1984-08-21 09:00,ZBAA 210900Z AUTO 20008KT 9SM 31/18 A2947 RMK SLP987 T03080180 57012 IEM_DS3505
ZBAA,1984-08-21 11:00,ZBAA 211100Z AUTO 20006KT 6SM 27/20 RMK SLP989 T02710196 52002 IEM_DS3505
ZBAA,1984-08-21 12:00,ZBAA 211200Z AUTO 20006KT 6SM 27/20 RMK SLP989 T02710196 52002 IEM_DS3505
ZBAA,1984-08-21 15:00,ZBAA 211500Z AUTO 18004KT 7SM 25/20 RMK SLP002 T02460203 52013 IEM_DS3505
ZBAA,1984-08-21 18:00,ZBAA 211800Z AUTO 00000KT 5SM 22/20 RMK SLP005 T02250202 40315//// 52003 IEM_DS3505
ZBAA,1984-08-21 21:00,ZBAA 212100Z AUTO 02004KT 4SM 22/20 RMK SLP008 T02180203 52003 IEM_DS3505
ZBAA,1984-08-22 00:00,ZBAA 220000Z AUTO 34006KT 4SM 22/20 RMK SLP022 T02230201 52013 IEM_DS3505
ZBAA,1984-08-22 03:00,ZBAA 220300Z AUTO 09002KT 1 1/2SM 24/21 RMK SLP030 T02350212 52008 IEM_DS3505
ZBAA,1984-08-22 06:00,ZBAA 220600Z AUTO 04006KT 3SM 25/21 RMK 60000 SLP018 T02540207 IEM_DS3505
ZBAA,1984-08-22 09:00,ZBAA 220900Z AUTO 11004KT 5SM 26/19 RMK SLP020 T02610189 52002 IEM_DS3505
ZBAA,1984-08-22 12:00,ZBAA 221200Z AUTO 34002KT 9SM 20/18 RMK 60043 SLP034 T01960180 52013 IEM_DS3505
ZBAA,1984-08-22 15:00,ZBAA 221500Z AUTO 36004KT 6SM 20/17 RMK SLP035 T01970169 52001 IEM_DS3505
ZBAA,1984-08-22 18:00,ZBAA 221800Z AUTO 00000KT 6SM 20/18 RMK 60000 SLP039 T01950176 40265//// IEM_DS3505
ZBAA,1984-08-22 21:00,ZBAA 222100Z AUTO 36006KT 6SM 18/17 RMK SLP042 T01830168 52003 IEM_DS3505
ZBAA,1984-08-23 00:00,ZBAA 230000Z AUTO 00000KT 7SM 21/17 RMK SLP053 T02100171 52011 IEM_DS3505
ZBAA,1984-08-23 03:00,ZBAA 230300Z AUTO 00000KT 7SM 25/18 RMK SLP048 T02540180 57005 IEM_DS3505
ZBAA,1984-08-23 06:00,ZBAA 230600Z AUTO 00000KT 7SM 29/19 RMK SLP031 T02870191 4////0176 57016 IEM_DS3505
ZBAA,1984-08-23 09:00,ZBAA 230900Z AUTO 15004KT 6SM 28/20 RMK SLP027 T02840198 57004 IEM_DS3505
ZBAA,1984-08-23 12:00,ZBAA 231200Z AUTO 16002KT 6SM 25/20 RMK SLP032 T02540203 52005 IEM_DS3505
ZBAA,1984-08-23 15:00,ZBAA 231500Z AUTO 00000KT 6SM 24/21 RMK SLP041 T02400210 52009 IEM_DS3505
ZBAA,1984-08-23 18:00,ZBAA 231800Z AUTO 02004KT 4SM 22/20 RMK SLP040 T02240203 57001 IEM_DS3505
ZBAA,1984-08-23 21:00,ZBAA 232100Z AUTO 00000KT 6SM 18/18 RMK SLP039 T01790178 57001 IEM_DS3505
ZBAA,1984-08-24 00:00,ZBAA 240000Z AUTO 36004KT 9SM 22/18 RMK SLP040 T02230179 52001 IEM_DS3505
ZBAA,1984-08-24 03:00,ZBAA 240300Z AUTO 02004KT 9SM 27/18 RMK SLP044 T02720175 52004 IEM_DS3505
ZBAA,1984-08-24 06:00,ZBAA 240600Z AUTO 20006KT 9SM 29/16 RMK SLP036 T02940162 4////0187 57008 IEM_DS3505
ZBAA,1984-08-24 09:00,ZBAA 240900Z AUTO 20004KT 7SM 30/16 RMK SLP029 T02990161 57007 IEM_DS3505
ZBAA,1984-08-24 12:00,ZBAA 241200Z AUTO 18004KT 6SM 27/18 RMK SLP035 T02710183 52006 IEM_DS3505
ZBAA,1984-08-24 15:00,ZBAA 241500Z AUTO 00000KT 4SM 24/20 RMK SLP053 T02370203 52018 IEM_DS3505
ZBAA,1984-08-24 18:00,ZBAA 241800Z AUTO 34004KT 5SM 22/19 RMK SLP053 T02210190 40303//// 54000 IEM_DS3505
ZBAA,1984-08-24 21:00,ZBAA 242100Z AUTO 02006KT 5SM 22/18 RMK SLP062 T02150182 52009 IEM_DS3505
ZBAA,1984-08-25 00:00,ZBAA 250000Z AUTO 02006KT 4SM 23/18 RMK SLP072 T02280184 52010 IEM_DS3505
ZBAA,1984-08-25 02:00,ZBAA 250200Z AUTO 17002KT 6SM 26/19 A2974 RMK T02600190 IEM_DS3505
ZBAA,1984-08-25 03:00,ZBAA 250300Z AUTO 07008KT 6SM 27/21 A2974 RMK T02700210 IEM_DS3505
ZBAA,1984-08-25 04:00,ZBAA 250400Z AUTO 07004KT 7SM 28/23 A2974 RMK T02800230 IEM_DS3505
ZBAA,1984-08-25 05:00,ZBAA 250500Z AUTO 12008KT 4SM 29/23 A2971 RMK T02900230 IEM_DS3505
ZBAA,1984-08-25 06:00,ZBAA 250600Z AUTO 07002KT 5SM 30/21 A2971 RMK SLP067 T03030214 4////0200 57012 IEM_DS3505
ZBAA,1984-08-25 07:00,ZBAA 250700Z AUTO 17008KT 5SM 31/22 RMK T03100220 IEM_DS3505
ZBAA,1984-08-25 08:00,ZBAA 250800Z AUTO 00000KT 7SM 29/23 A2971 RMK T02900230 IEM_DS3505
ZBAA,1984-08-25 09:00,ZBAA 250900Z AUTO 09006KT 9SM A2971 RMK SLP073 52005 IEM_DS3505
ZBAA,1984-08-25 10:00,ZBAA 251000Z AUTO 16008KT 6SM 23/20 A2971 RMK T02300200 IEM_DS3505
ZBAA,1984-08-25 11:00,ZBAA 251100Z AUTO 30008KT 6SM 23/20 A2971 RMK T02300200 IEM_DS3505
ZBAA,1984-08-25 12:00,ZBAA 251200Z AUTO 00000KT 7SM 22/19 A2974 RMK 60051 SLP079 T02160193 52006 IEM_DS3505
ZBAA,1984-08-25 15:00,ZBAA 251500Z AUTO 00000KT 6SM 22/19 RMK SLP094 T02150194 52016 IEM_DS3505
ZBAA,1984-08-25 18:00,ZBAA 251800Z AUTO 02002KT 7SM 22/20 RMK SLP092 T02200195 40306//// 57002 IEM_DS3505
ZBAA,1984-08-25 21:00,ZBAA 252100Z AUTO 02004KT 5SM 21/19 RMK SLP095 T02140189 52002 IEM_DS3505
ZBAA,1984-08-26 00:00,ZBAA 260000Z AUTO 02004KT 2 1/2SM 23/21 RMK SLP105 T02340210 52010 IEM_DS3505
ZBAA,1984-08-26 03:00,ZBAA 260300Z AUTO 04004KT 2SM 27/23 RMK SLP108 T02710226 52004 IEM_DS3505
ZBAA,1984-08-26 06:00,ZBAA 260600Z AUTO 16006KT 4SM 31/21 RMK SLP098 T03060211 4////0208 57010 IEM_DS3505
ZBAA,1984-08-26 09:00,ZBAA 260900Z AUTO 16004KT 6SM 30/22 RMK SLP093 T03040223 57005 IEM_DS3505
ZBAA,1984-08-26 11:00,ZBAA 261100Z AUTO 6SM 28/22 RMK SLP100 T02780216 52007 IEM_DS3505
ZBAA,1984-08-26 12:00,ZBAA 261200Z AUTO 14006KT 6SM 28/22 RMK SLP100 T02780216 52001 IEM_DS3505
ZBAA,1984-08-26 15:00,ZBAA 261500Z AUTO 00000KT 4SM 26/23 RMK SLP110 T02550233 52010 IEM_DS3505
ZBAA,1984-08-26 18:00,ZBAA 261800Z AUTO 09004KT 1SM 24/23 RMK SLP111 T02390229 40313//// 52002 IEM_DS3505
ZBAA,1984-08-26 21:00,ZBAA 262100Z AUTO 00000KT 1SM 23/21 RMK SLP108 T02300211 57004 IEM_DS3505
ZBAA,1984-08-27 00:00,ZBAA 270000Z AUTO 36002KT 1SM 23/21 RMK SLP113 T02330213 52005 IEM_DS3505
ZBAA,1984-08-27 03:00,ZBAA 270300Z AUTO 09002KT 2 1/2SM 27/22 RMK SLP114 T02660216 52001 IEM_DS3505
ZBAA,1984-08-27 06:00,ZBAA 270600Z AUTO 02006KT 4SM 28/22 RMK SLP098 T02850224 4////0220 57016 IEM_DS3505
ZBAA,1984-08-27 09:00,ZBAA 270900Z AUTO 09004KT 6SM 29/22 RMK SLP080 T02900221 57018 IEM_DS3505
ZBAA,1984-08-27 12:00,ZBAA 271200Z AUTO 02010KT 12SM 22/16 RMK SLP111 T02160163 52030 IEM_DS3505
ZBAA,1984-08-27 15:00,ZBAA 271500Z AUTO 02006KT 9SM 21/17 RMK SLP119 T02080172 52008 IEM_DS3505
ZBAA,1984-08-27 18:00,ZBAA 271800Z AUTO 00000KT 19SM 20/18 RMK 60008 SLP106 T02020175 40292//// 57013 IEM_DS3505
ZBAA,1984-08-27 19:00,ZBAA 271900Z AUTO 00000KT 20/18 RMK T02030175 57013 IEM_DS3505
ZBAA,1984-08-27 21:00,ZBAA 272100Z AUTO 04006KT 19SM 20/18 RMK SLP101 T02020175 57005 IEM_DS3505
ZBAA,1984-08-28 00:00,ZBAA 280000Z AUTO 36006KT 12SM 21/16 RMK SLP109 T02130164 52007 IEM_DS3505
ZBAA,1984-08-28 03:00,ZBAA 280300Z AUTO 36010KT 19SM 26/18 RMK SLP106 T02620177 57002 IEM_DS3505
ZBAA,1984-08-28 04:00,ZBAA 280400Z AUTO 35008KT 6SM 27/17 A2980 RMK T02700170 IEM_DS3505
ZBAA,1984-08-28 05:00,ZBAA 280500Z AUTO 04002KT 6SM 28/18 A2980 RMK T02800180 IEM_DS3505
ZBAA,1984-08-28 06:00,ZBAA 280600Z AUTO 02006KT 19SM 29/17 A2977 RMK SLP091 T02870171 4////0196 57015 IEM_DS3505
ZBAA,1984-08-28 07:00,ZBAA 280700Z AUTO 03004KT 6SM 29/17 A2977 RMK T02900170 IEM_DS3505
ZBAA,1984-08-28 08:00,ZBAA 280800Z AUTO 21002KT 6SM 30/16 A2977 RMK T03000160 IEM_DS3505
ZBAA,1984-08-28 09:00,ZBAA 280900Z AUTO 18004KT 16SM 29/16 A2974 RMK SLP085 T02930163 57006 IEM_DS3505
ZBAA,1984-08-28 10:00,ZBAA 281000Z AUTO 16006KT 6SM 28/18 A2977 RMK T02800180 IEM_DS3505
ZBAA,1984-08-28 12:00,ZBAA 281200Z AUTO 08004KT 9SM RMK SLP090 52005 IEM_DS3505
ZBAA,1984-08-28 15:00,ZBAA 281500Z AUTO 00000KT 6SM 23/20 RMK SLP090 T02270201 54000 IEM_DS3505
ZBAA,1984-08-28 18:00,ZBAA 281800Z AUTO 00000KT 4SM 23/19 RMK SLP085 T02270191 40299//// 57005 IEM_DS3505
ZBAA,1984-08-28 21:00,ZBAA 282100Z AUTO 00000KT 3SM 22/19 RMK SLP083 T02220189 57002 IEM_DS3505
ZBAA,1984-08-29 00:00,ZBAA 290000Z AUTO 02004KT 4SM 23/19 RMK SLP088 T02320189 52005 IEM_DS3505
ZBAA,1984-08-29 03:00,ZBAA 290300Z AUTO 16002KT 3SM 26/20 RMK SLP086 T02590201 57002 IEM_DS3505
ZBAA,1984-08-29 06:00,ZBAA 290600Z AUTO 18006KT 5SM 28/21 RMK SLP069 T02810208 4////0214 57017 IEM_DS3505
ZBAA,1984-08-29 09:00,ZBAA 290900Z AUTO 20010KT 6SM 28/20 RMK SLP063 T02810201 57006 IEM_DS3505
ZBAA,1984-08-29 12:00,ZBAA 291200Z AUTO 18004KT 5SM 26/22 RMK SLP066 T02580216 52003 IEM_DS3505
ZBAA,1984-08-29 15:00,ZBAA 291500Z AUTO 20002KT 5SM 24/22 RMK SLP079 T02430218 52013 IEM_DS3505
ZBAA,1984-08-29 18:00,ZBAA 291800Z AUTO 36006KT 3SM 23/22 RMK SLP082 T02300216 40285//// 52003 IEM_DS3505
ZBAA,1984-08-29 21:00,ZBAA 292100Z AUTO 00000KT 3SM 21/20 RMK SLP087 T02100196 52005 IEM_DS3505
ZBAA,1984-08-30 00:00,ZBAA 300000Z AUTO 34006KT 19SM RMK SLP098 52011 IEM_DS3505
ZBAA,1984-08-30 03:00,ZBAA 300300Z AUTO 36006KT 19SM 28/14 RMK SLP095 T02760145 57003 IEM_DS3505
ZBAA,1984-08-30 06:00,ZBAA 300600Z AUTO 29012KT 19SM 31/13 RMK SLP082 T03100126 4////0196 57012 IEM_DS3505
ZBAA,1984-08-30 09:00,ZBAA 300900Z AUTO 32004KT 19SM 31/12 RMK SLP079 T03080122 57004 IEM_DS3505
ZBAA,1984-08-30 12:00,ZBAA 301200Z AUTO 00000KT 12SM 26/18 RMK SLP092 T02600180 52013 IEM_DS3505
ZBAA,1984-08-30 15:00,ZBAA 301500Z AUTO 36006KT 12SM 24/14 RMK SLP103 T02360144 52011 IEM_DS3505
ZBAA,1984-08-30 18:00,ZBAA 301800Z AUTO 36004KT 12SM 22/12 RMK SLP112 T02210121 40314//// 52009 IEM_DS3505
ZBAA,1984-08-30 21:00,ZBAA 302100Z AUTO 34008KT 19SM 21/12 RMK SLP114 T02100120 52002 IEM_DS3505
ZBAA,1984-08-31 00:00,ZBAA 310000Z AUTO 36008KT 19SM 23/13 RMK SLP122 T02290131 52007 IEM_DS3505
ZBAA,1984-08-31 03:00,ZBAA 310300Z AUTO 34012KT 19SM 26/13 RMK SLP128 T02650129 52007 IEM_DS3505
ZBAA,1984-08-31 06:00,ZBAA 310600Z AUTO 02006KT 19SM 28/13 RMK SLP116 T02800133 4////0205 57012 IEM_DS3505
ZBAA,1984-08-31 09:00,ZBAA 310900Z AUTO 02006KT 19SM 29/11 RMK SLP103 T02870113 57013 IEM_DS3505
ZBAA,1984-08-31 12:00,ZBAA 311200Z AUTO 00000KT 19SM 24/16 RMK SLP102 T02370164 57001 IEM_DS3505
ZBAA,1984-08-31 15:00,ZBAA 311500Z AUTO 34002KT 19SM 22/17 RMK SLP112 T02160168 52010 IEM_DS3505
ZBAA,1984-08-31 18:00,ZBAA 311800Z AUTO 00000KT 12SM 21/16 RMK SLP117 T02130160 40289//// 52004 IEM_DS3505
ZBAA,1984-08-31 21:00,ZBAA 312100Z AUTO 00000KT 9SM 20/17 RMK SLP116 T02010167 57001 IEM_DS3505
ZBAA,1984-09-01 00:00,ZBAA 010000Z AUTO 02006KT 19SM 22/15 RMK SLP122 T02220148 52006 IEM_DS3505
ZBAA,1984-09-01 02:00,ZBAA 010200Z AUTO 03006KT 6SM 24/15 A2985 RMK T02400150 IEM_DS3505
ZBAA,1984-09-01 03:00,ZBAA 010300Z AUTO 34006KT 19SM 25/12 A2985 RMK SLP119 T02540124 57003 IEM_DS3505
ZBAA,1984-09-01 04:00,ZBAA 010400Z AUTO 04008KT 6SM 27/14 A2983 RMK T02700140 IEM_DS3505
ZBAA,1984-09-01 05:00,ZBAA 010500Z AUTO 03010KT 6SM 28/13 A2983 RMK T02800130 IEM_DS3505
ZBAA,1984-09-01 06:00,ZBAA 010600Z AUTO 04008KT 19SM 28/12 RMK SLP098 T02750122 4////0195 57020 IEM_DS3505
ZBAA,1984-09-01 07:00,ZBAA 010700Z AUTO 11006KT 6SM 28/14 A2977 RMK T02800140 IEM_DS3505
ZBAA,1984-09-01 08:00,ZBAA 010800Z AUTO 10008KT 6SM 27/12 A2977 RMK T02700120 IEM_DS3505
ZBAA,1984-09-01 09:00,ZBAA 010900Z AUTO 07006KT 19SM 28/11 A2977 RMK SLP086 T02800112 57012 IEM_DS3505
ZBAA,1984-09-01 10:00,ZBAA 011000Z AUTO 14006KT 6SM 27/14 A2977 RMK T02700140 IEM_DS3505
ZBAA,1984-09-01 12:00,ZBAA 011200Z AUTO 16004KT 19SM 24/15 RMK SLP095 T02410148 52009 IEM_DS3505
ZBAA,1984-09-01 15:00,ZBAA 011500Z AUTO 18004KT 16SM 22/14 RMK SLP105 T02220145 52010 IEM_DS3505
ZBAA,1984-09-01 18:00,ZBAA 011800Z AUTO 00000KT 12SM 20/16 RMK SLP107 T02010162 40284//// 52002 IEM_DS3505
ZBAA,1984-09-01 21:00,ZBAA 012100Z AUTO 34002KT 9SM 20/16 RMK SLP108 T02030158 52001 IEM_DS3505
ZBAA,1984-09-02 00:00,ZBAA 020000Z AUTO 00000KT 9SM 23/16 RMK SLP112 T02280156 52004 IEM_DS3505
ZBAA,1984-09-02 03:00,ZBAA 020300Z AUTO 02006KT 19SM 26/08 RMK SLP114 T02600078 52001 IEM_DS3505
ZBAA,1984-09-02 06:00,ZBAA 020600Z AUTO 09006KT 19SM 27/09 RMK SLP097 T02730091 4////0193 57016 IEM_DS3505
ZBAA,1984-09-02 09:00,ZBAA 020900Z AUTO 36002KT 19SM 28/08 RMK SLP089 T02780081 57008 IEM_DS3505
ZBAA,1984-09-02 12:00,ZBAA 021200Z AUTO 22004KT 19SM 23/13 RMK SLP099 T02330128 52010 IEM_DS3505
ZBAA,1984-09-02 15:00,ZBAA 021500Z AUTO 00000KT 9SM 20/14 RMK SLP105 T02010145 52006 IEM_DS3505
ZBAA,1984-09-02 18:00,ZBAA 021800Z AUTO 02004KT 6SM 18/14 RMK SLP115 T01850138 40279//// 52009 IEM_DS3505
ZBAA,1984-09-02 21:00,ZBAA 022100Z AUTO 00000KT 6SM 16/14 RMK SLP114 T01630138 57001 IEM_DS3505
ZBAA,1984-09-03 00:00,ZBAA 030000Z AUTO 36004KT 5SM 21/14 RMK SLP124 T02060137 52010 IEM_DS3505
ZBAA,1984-09-03 03:00,ZBAA 030300Z AUTO 04006KT 9SM 26/11 RMK SLP126 T02600108 52002 IEM_DS3505
ZBAA,1984-09-03 06:00,ZBAA 030600Z AUTO 04004KT 19SM 28/08 RMK SLP111 T02840082 4////0161 57014 IEM_DS3505
ZBAA,1984-09-03 09:00,ZBAA 030900Z AUTO 04004KT 19SM 28/09 RMK SLP111 T02840092 57014 IEM_DS3505
ZBAA,1984-09-03 12:00,ZBAA 031200Z AUTO 20004KT 19SM 24/12 RMK SLP114 T02390116 52009 IEM_DS3505
ZBAA,1984-09-03 15:00,ZBAA 031500Z AUTO 18002KT 12SM 21/13 RMK SLP123 T02080130 52009 IEM_DS3505
ZBAA,1984-09-03 18:00,ZBAA 031800Z AUTO 00000KT 7SM 18/15 RMK SLP125 T01750146 40288//// 52002 IEM_DS3505
ZBAA,1984-09-03 21:00,ZBAA 032100Z AUTO 02002KT 7SM 16/14 RMK SLP127 T01580135 52002 IEM_DS3505
ZBAA,1984-09-04 00:00,ZBAA 040000Z AUTO 00000KT 9SM 20/13 RMK SLP139 T02020132 52012 IEM_DS3505
ZBAA,1984-09-04 03:00,ZBAA 040300Z AUTO 16004KT 9SM 27/09 RMK SLP139 T02720093 54000 IEM_DS3505
ZBAA,1984-09-04 05:00,ZBAA 040500Z AUTO 21006KT 7SM 29/12 A2988 RMK T02900120 IEM_DS3505
ZBAA,1984-09-04 06:00,ZBAA 040600Z AUTO 22006KT 16SM 30/08 A2985 RMK SLP124 T03000082 4////0149 57015 IEM_DS3505
ZBAA,1984-09-04 07:00,ZBAA 040700Z AUTO 19008KT 7SM 30/09 A2985 RMK T03000090 IEM_DS3505
ZBAA,1984-09-04 08:00,ZBAA 040800Z AUTO 20008KT 7SM 30/10 A2985 RMK T03000100 IEM_DS3505
ZBAA,1984-09-04 09:00,ZBAA 040900Z AUTO 20006KT 16SM 29/09 A2985 RMK SLP120 T02890091 57004 IEM_DS3505
ZBAA,1984-09-04 11:00,ZBAA 041100Z AUTO 21006KT 7SM 25/12 A2985 RMK T02500120 IEM_DS3505
ZBAA,1984-09-04 12:00,ZBAA 041200Z AUTO 20008KT 12SM 24/12 RMK SLP131 T02430124 52011 IEM_DS3505
ZBAA,1984-09-04 15:00,ZBAA 041500Z AUTO 20004KT 9SM 21/13 RMK SLP135 T02120132 52004 IEM_DS3505
ZBAA,1984-09-04 18:00,ZBAA 041800Z AUTO 22002KT 12SM 19/14 RMK SLP135 T01890141 40304//// IEM_DS3505
ZBAA,1984-09-04 21:00,ZBAA 042100Z AUTO 04002KT 9SM 17/13 RMK SLP136 T01710132 52001 IEM_DS3505
ZBAA,1984-09-05 00:00,ZBAA 050000Z AUTO 36002KT 5SM 19/15 RMK SLP145 T01930148 52009 IEM_DS3505
ZBAA,1984-09-05 03:00,ZBAA 050300Z AUTO 18006KT 3SM 25/15 RMK SLP139 T02540148 57006 IEM_DS3505
ZBAA,1984-09-05 06:00,ZBAA 050600Z AUTO 20014KT 9SM 27/14 RMK SLP120 T02740142 4////0153 57019 IEM_DS3505
ZBAA,1984-09-05 09:00,ZBAA 050900Z AUTO 25008KT 7SM 23/15 RMK SLP117 T02310146 57004 IEM_DS3505
ZBAA,1984-09-05 12:00,ZBAA 051200Z AUTO 16002KT 7SM 19/17 RMK 60008 T01940168 54000 IEM_DS3505
ZBAA,1984-09-05 15:00,ZBAA 051500Z AUTO 16006KT 5SM 18/18 RMK SLP114 T01820176 57002 IEM_DS3505
ZBAA,1984-09-05 18:00,ZBAA 051800Z AUTO 18004KT 5SM 18/17 RMK 60031 SLP102 T01840172 40279//// 57012 IEM_DS3505
ZBAA,1984-09-05 21:00,ZBAA 052100Z AUTO 20004KT 3SM 18/17 RMK SLP104 T01840174 52002 IEM_DS3505
ZBAA,1984-09-06 00:00,ZBAA 060000Z AUTO 02002KT 2SM 19/18 RMK SLP110 T01900179 52006 IEM_DS3505
ZBAA,1984-09-06 03:00,ZBAA 060300Z AUTO 07002KT 3SM 21/18 RMK SLP113 T02070176 52003 IEM_DS3505
ZBAA,1984-09-06 04:00,ZBAA 060400Z AUTO 04002KT 5SM 24/18 RMK SLP099 T02400178 4////0178 57014 IEM_DS3505
ZBAA,1984-09-06 06:00,ZBAA 060600Z AUTO 04002KT 5SM 24/18 RMK SLP099 T02400178 4////0178 57014 IEM_DS3505
ZBAA,1984-09-06 09:00,ZBAA 060900Z AUTO 18004KT 3SM 24/18 RMK SLP094 T02380180 57005 IEM_DS3505
ZBAA,1984-09-06 12:00,ZBAA 061200Z AUTO 00000KT 2 1/2SM 21/15 RMK SLP095 T02090151 52001 IEM_DS3505
ZBAA,1984-09-06 15:00,ZBAA 061500Z AUTO 00000KT 1SM 19/18 RMK SLP098 T01940183 52003 IEM_DS3505
ZBAA,1984-09-06 18:00,ZBAA 061800Z AUTO 00000KT 1/2SM 19/18 RMK SLP089 T01890181 40246//// 57009 IEM_DS3505
ZBAA,1984-09-06 21:00,ZBAA 062100Z AUTO 02004KT 1SM 20/19 RMK SLP087 T02040190 57002 IEM_DS3505
ZBAA,1984-09-07 00:00,ZBAA 070000Z AUTO 04002KT 1SM 21/20 RMK SLP087 T02090195 54000 IEM_DS3505
ZBAA,1984-09-07 03:00,ZBAA 070300Z AUTO 02004KT 2SM 24/20 RMK SLP089 T02360204 52002 IEM_DS3505
ZBAA,1984-09-07 06:00,ZBAA 070600Z AUTO 16006KT 2SM 26/21 RMK SLP067 T02620206 4////0184 57022 IEM_DS3505
ZBAA,1984-09-07 09:00,ZBAA 070900Z AUTO 16006KT 5SM 26/20 RMK SLP045 T02570205 57021 IEM_DS3505
ZBAA,1984-09-07 12:00,ZBAA 071200Z AUTO 00000KT 5SM 20/18 RMK 60001 SLP065 T02020176 52019 IEM_DS3505
ZBAA,1984-09-07 15:00,ZBAA 071500Z AUTO 29002KT 4SM 19/18 RMK SLP072 T01900176 52007 IEM_DS3505
ZBAA,1984-09-07 18:00,ZBAA 071800Z AUTO 36002KT 5SM 19/17 RMK SLP075 T01890166 40266//// 52003 IEM_DS3505
ZBAA,1984-09-07 21:00,ZBAA 072100Z AUTO 36008KT 6SM 19/15 RMK SLP075 T01920148 54000 IEM_DS3505
ZBAA,1984-09-08 00:00,ZBAA 080000Z AUTO 36008KT 19SM 21/12 RMK SLP091 T02110121 52016 IEM_DS3505
ZBAA,1984-09-08 03:00,ZBAA 080300Z AUTO 02008KT 16SM 22/10 RMK SLP103 T02240100 52012 IEM_DS3505
ZBAA,1984-09-08 06:00,ZBAA 080600Z AUTO 04006KT 19SM 25/10 RMK SLP092 T02500104 4////0177 57011 IEM_DS3505
ZBAA,1984-09-08 09:00,ZBAA 080900Z AUTO 07004KT 12SM 25/11 RMK SLP084 T02530111 57008 IEM_DS3505
ZBAA,1984-09-08 12:00,ZBAA 081200Z AUTO 22004KT 12SM 20/14 RMK SLP094 T02050136 52010 IEM_DS3505
ZBAA,1984-09-08 15:00,ZBAA 081500Z AUTO 36004KT 12SM 18/12 RMK SLP103 T01850125 52009 IEM_DS3505
ZBAA,1984-09-08 18:00,ZBAA 081800Z AUTO 34006KT 9SM 18/08 RMK SLP112 T01840077 40254//// 52009 IEM_DS3505
ZBAA,1984-09-08 21:00,ZBAA 082100Z AUTO 36004KT 7SM 16/09 RMK SLP111 T01650094 57001 IEM_DS3505
ZBAA,1984-09-09 00:00,ZBAA 090000Z AUTO 00000KT 5SM 19/11 RMK SLP116 T01900114 52004 IEM_DS3505
ZBAA,1984-09-09 03:00,ZBAA 090300Z AUTO 34010KT 11SM 24/06 RMK SLP110 T02410060 57005 IEM_DS3505
ZBAA,1984-09-09 06:00,ZBAA 090600Z AUTO 32008KT 12SM 26/04 RMK SLP096 T02570037 4////0151 57014 IEM_DS3505
ZBAA,1984-09-09 09:00,ZBAA 090900Z AUTO 29010KT 12SM 26/05 RMK SLP090 T02570051 57006 IEM_DS3505
ZBAA,1984-09-09 12:00,ZBAA 091200Z AUTO 29006KT 9SM 22/04 RMK SLP100 T02200037 52010 IEM_DS3505
ZBAA,1984-09-09 15:00,ZBAA 091500Z AUTO 00000KT 6SM 18/10 RMK SLP112 T01800104 52012 IEM_DS3505
ZBAA,1984-09-09 18:00,ZBAA 091800Z AUTO 29002KT 9SM 16/09 RMK SLP119 T01620086 40266//// 52007 IEM_DS3505
ZBAA,1984-09-09 21:00,ZBAA 092100Z AUTO 34002KT 7SM 16/06 RMK SLP123 T01550060 52003 IEM_DS3505
ZBAA,1984-09-10 00:00,ZBAA 100000Z AUTO 32004KT 7SM 19/06 RMK SLP131 T01910064 52008 IEM_DS3505
ZBAA,1984-09-10 03:00,ZBAA 100300Z AUTO 34006KT 9SM 24/05 RMK SLP131 T02360053 54000 IEM_DS3505
ZBAA,1984-09-10 06:00,ZBAA 100600Z AUTO 32008KT 9SM 26/02 RMK SLP116 T02560024 4////0147 57015 IEM_DS3505
ZBAA,1984-09-10 09:00,ZBAA 100900Z AUTO 32008KT 12SM 26/01 RMK SLP116 T02560010 54000 IEM_DS3505
ZBAA,1984-09-10 12:00,ZBAA 101200Z AUTO 32002KT 12SM 18/09 RMK SLP133 T01830088 52017 IEM_DS3505
ZBAA,1984-09-10 15:00,ZBAA 101500Z AUTO 00000KT 7SM 15/10 RMK SLP138 T01500100 52005 IEM_DS3505
ZBAA,1984-09-10 18:00,ZBAA 101800Z AUTO 00000KT 5SM 13/10 RMK SLP142 T01340095 40263//// 52004 IEM_DS3505
ZBAA,1984-09-10 21:00,ZBAA 102100Z AUTO 00000KT 9SM 12/10 RMK SLP145 T01250095 52003 IEM_DS3505
ZBAA,1984-09-11 00:00,ZBAA 110000Z AUTO 00000KT 12SM 19/07 RMK SLP157 T01900074 52012 IEM_DS3505
ZBAA,1984-09-11 01:00,ZBAA 110100Z AUTO 30010KT 7SM 21/08 A2997 RMK T02100080 IEM_DS3505
ZBAA,1984-09-11 02:00,ZBAA 110200Z AUTO 35012KT 7SM 23/07 A2997 RMK T02300070 IEM_DS3505
ZBAA,1984-09-11 03:00,ZBAA 110300Z AUTO 36008KT 19SM 24/08 A2994 RMK SLP159 T02390080 52002 IEM_DS3505
ZBAA,1984-09-11 04:00,ZBAA 110400Z AUTO 33008KT 6SM 25/08 A2994 RMK T02500080 IEM_DS3505
ZBAA,1984-09-11 05:00,ZBAA 110500Z AUTO 34010KT 6SM 26/07 A2991 RMK T02600070 IEM_DS3505
ZBAA,1984-09-11 06:00,ZBAA 110600Z AUTO 32006KT 19SM 26/07 A2991 RMK SLP141 T02640068 4////0113 57018 IEM_DS3505
ZBAA,1984-09-11 07:00,ZBAA 110700Z AUTO 03006KT 6SM 25/09 A2991 RMK T02500090 IEM_DS3505
ZBAA,1984-09-11 08:00,ZBAA 110800Z AUTO 01008KT 6SM 27/08 A2991 RMK T02700080 IEM_DS3505
ZBAA,1984-09-11 09:00,ZBAA 110900Z AUTO 32002KT 19SM 26/09 A2991 RMK SLP141 T02630086 54000 IEM_DS3505
ZBAA,1984-09-11 10:00,ZBAA 111000Z AUTO 02004KT 19SM A2991 RMK SLP175 40268//// 52005 IEM_DS3505
ZBAA,1984-09-11 12:00,ZBAA 111200Z AUTO 36004KT 19SM 22/10 RMK SLP156 T02220100 52016 IEM_DS3505
ZBAA,1984-09-11 15:00,ZBAA 111500Z AUTO 27002KT 19SM 17/12 RMK SLP171 T01740122 52014 IEM_DS3505
ZBAA,1984-09-11 18:00,ZBAA 111800Z AUTO 02004KT 19SM 17/11 RMK SLP175 T01700111 40268//// 52005 IEM_DS3505
ZBAA,1984-09-11 21:00,ZBAA 112100Z AUTO 36006KT 19SM 18/10 RMK SLP177 T01750100 52002 IEM_DS3505
ZBAA,1984-09-12 00:00,ZBAA 120000Z AUTO 36006KT 19SM 21/11 RMK SLP192 T02070114 52015 IEM_DS3505
ZBAA,1984-09-12 03:00,ZBAA 120300Z AUTO 02006KT 19SM 24/11 RMK SLP192 T02420107 57001 IEM_DS3505
ZBAA,1984-09-12 06:00,ZBAA 120600Z AUTO 07004KT 19SM 26/07 RMK SLP165 T02620071 4////0160 57026 IEM_DS3505
ZBAA,1984-09-12 09:00,ZBAA 120900Z AUTO 16002KT 16SM 27/10 RMK SLP149 T02740095 57016 IEM_DS3505
ZBAA,1984-09-12 12:00,ZBAA 121200Z AUTO 20006KT 16SM 22/12 RMK SLP150 T02220115 52001 IEM_DS3505
ZBAA,1984-09-12 15:00,ZBAA 121500Z AUTO 22004KT 9SM 19/13 RMK SLP147 T01880128 57003 IEM_DS3505
ZBAA,1984-09-12 21:00,ZBAA 122100Z AUTO 00000KT 7SM 15/12 RMK SLP143 T01490120 57001 IEM_DS3505
ZBAA,1984-09-13 00:00,ZBAA 130000Z AUTO 04006KT 12SM RMK SLP119 4////0136 57023 IEM_DS3505
ZBAA,1984-09-13 03:00,ZBAA 130300Z AUTO 02008KT 12SM 25/12 RMK SLP142 T02490121 57003 IEM_DS3505
ZBAA,1984-09-13 06:00,ZBAA 130600Z AUTO 04006KT 19SM 27/09 RMK SLP119 T02740093 4////0136 57023 IEM_DS3505
ZBAA,1984-09-13 09:00,ZBAA 130900Z AUTO 20006KT 9SM 27/12 RMK SLP112 T02660115 57007 IEM_DS3505
ZBAA,1984-09-13 12:00,ZBAA 131200Z AUTO 20004KT 7SM 22/11 RMK SLP116 T02200108 52003 IEM_DS3505
ZBAA,1984-09-13 15:00,ZBAA 131500Z AUTO 00000KT 6SM 19/12 RMK SLP121 T01870119 52006 IEM_DS3505
ZBAA,1984-09-13 18:00,ZBAA 131800Z AUTO 18004KT 6SM 16/12 RMK SLP122 T01630123 40277//// 52001 IEM_DS3505
ZBAA,1984-09-13 21:00,ZBAA 132100Z AUTO 00000KT 5SM 15/12 RMK SLP124 T01530119 52002 IEM_DS3505
ZBAA,1984-09-14 00:00,ZBAA 140000Z AUTO 34002KT 2 1/2SM 17/13 RMK SLP137 T01660134 52012 IEM_DS3505
ZBAA,1984-09-14 03:00,ZBAA 140300Z AUTO 09002KT 4SM 23/14 RMK SLP140 T02310136 52003 IEM_DS3505
ZBAA,1984-09-14 06:00,ZBAA 140600Z AUTO 18008KT 7SM 26/12 RMK SLP117 T02650125 4////0134 57022 IEM_DS3505
ZBAA,1984-09-14 09:00,ZBAA 140900Z AUTO 22004KT 9SM 25/14 RMK SLP116 T02490144 57002 IEM_DS3505
ZBAA,1984-09-14 12:00,ZBAA 141200Z AUTO 11006KT 5SM 20/16 RMK 60004 SLP133 T02000157 52017 IEM_DS3505
ZBAA,1984-09-14 15:00,ZBAA 141500Z AUTO 09006KT 6SM 18/14 RMK SLP151 T01820137 52018 IEM_DS3505
ZBAA,1984-09-14 18:00,ZBAA 141800Z AUTO 11004KT 4SM 17/14 RMK SLP151 T01680138 40267//// 52001 IEM_DS3505
ZBAA,1984-09-14 21:00,ZBAA 142100Z AUTO 00000KT 3SM 15/14 RMK SLP163 T01530141 52011 IEM_DS3505
ZBAA,1984-09-15 00:00,ZBAA 150000Z AUTO 02004KT 4SM 17/14 RMK SLP170 T01740143 52007 IEM_DS3505
ZBAA,1984-09-15 02:00,ZBAA 150200Z AUTO 11004KT 7SM 21/15 A3000 RMK T02100150 IEM_DS3505
ZBAA,1984-09-15 03:00,ZBAA 150300Z AUTO 18002KT 3SM 23/14 A3000 RMK SLP172 T02280144 52002 IEM_DS3505
ZBAA,1984-09-15 04:00,ZBAA 150400Z AUTO 24002KT 7SM 24/14 A3000 RMK T02400140 IEM_DS3505
ZBAA,1984-09-15 05:00,ZBAA 150500Z AUTO 21006KT 7SM 25/14 A3000 RMK T02500140 IEM_DS3505
ZBAA,1984-09-15 06:00,ZBAA 150600Z AUTO 18006KT 5SM 25/15 A2997 RMK SLP160 T02500146 4////0143 57012 IEM_DS3505
ZBAA,1984-09-15 07:00,ZBAA 150700Z AUTO 23008KT 7SM 26/15 A2994 RMK T02600150 IEM_DS3505
ZBAA,1984-09-15 08:00,ZBAA 150800Z AUTO 15002KT 7SM 25/14 A2994 RMK T02500140 IEM_DS3505
ZBAA,1984-09-15 09:00,ZBAA 150900Z AUTO 20006KT 7SM 25/14 A2994 RMK SLP153 T02510136 57007 IEM_DS3505
ZBAA,1984-09-15 12:00,ZBAA 151200Z AUTO 18004KT 5SM 21/14 RMK SLP160 T02120144 52007 IEM_DS3505
ZBAA,1984-09-15 15:00,ZBAA 151500Z AUTO 20006KT 6SM 19/15 RMK SLP171 T01940147 52012 IEM_DS3505
ZBAA,1984-09-15 18:00,ZBAA 151800Z AUTO 00000KT 4SM 17/15 RMK SLP171 T01680148 40262//// 57001 IEM_DS3505
ZBAA,1984-09-15 21:00,ZBAA 152100Z AUTO 02002KT 4SM 16/15 RMK SLP171 T01610146 54000 IEM_DS3505
ZBAA,1984-09-16 00:00,ZBAA 160000Z AUTO 00000KT 3SM 18/15 RMK SLP173 T01780153 52002 IEM_DS3505
ZBAA,1984-09-16 03:00,ZBAA 160300Z AUTO 34004KT 2SM 22/16 RMK SLP170 T02240162 57003 IEM_DS3505
ZBAA,1984-09-16 06:00,ZBAA 160600Z AUTO 18010KT 5SM 26/16 RMK SLP134 T02610159 4////0156 57035 IEM_DS3505
ZBAA,1984-09-16 09:00,ZBAA 160900Z AUTO 18008KT 6SM 24/16 RMK SLP124 T02450163 57011 IEM_DS3505
ZBAA,1984-09-16 12:00,ZBAA 161200Z AUTO 09008KT 6SM 22/14 RMK SLP141 T02150144 52017 IEM_DS3505
ZBAA,1984-09-16 15:00,ZBAA 161500Z AUTO 00000KT 6SM 18/15 RMK SLP143 T01830149 52002 IEM_DS3505
ZBAA,1984-09-16 18:00,ZBAA 161800Z AUTO 04006KT 2 1/2SM 17/15 RMK 60028 SLP141 T01700149 40266//// 57001 IEM_DS3505
ZBAA,1984-09-16 21:00,ZBAA 162100Z AUTO 27002KT 4SM 16/15 RMK SLP134 T01620152 57008 IEM_DS3505
ZBAA,1984-09-17 00:00,ZBAA 170000Z AUTO 07004KT 6SM 18/15 RMK 60004 SLP155 T01800148 52021 IEM_DS3505
ZBAA,1984-09-17 03:00,ZBAA 170300Z AUTO 02008KT 16SM 21/13 RMK SLP166 T02140127 52011 IEM_DS3505
ZBAA,1984-09-17 06:00,ZBAA 170600Z AUTO 16006KT 9SM 23/15 RMK SLP152 T02340149 4////0157 57014 IEM_DS3505
ZBAA,1984-09-17 09:00,ZBAA 170900Z AUTO 18006KT 6SM 22/14 RMK SLP144 T02240143 57008 IEM_DS3505
ZBAA,1984-09-17 12:00,ZBAA 171200Z AUTO 18004KT 6SM 20/14 RMK SLP160 T02020144 52016 IEM_DS3505
ZBAA,1984-09-17 15:00,ZBAA 171500Z AUTO 20004KT 7SM 18/13 RMK SLP171 T01800134 52011 IEM_DS3505
ZBAA,1984-09-17 18:00,ZBAA 171800Z AUTO 16004KT 6SM 17/13 RMK SLP171 T01680134 40241//// 54000 IEM_DS3505
ZBAA,1984-09-17 21:00,ZBAA 172100Z AUTO 02002KT 5SM 15/13 RMK SLP173 T01520134 52002 IEM_DS3505
ZBAA,1984-09-18 00:00,ZBAA 180000Z AUTO 36004KT 2SM 16/14 RMK SLP181 T01630144 52008 IEM_DS3505
ZBAA,1984-09-18 03:00,ZBAA 180300Z AUTO 14002KT 2SM 20/15 A3003 RMK SLP182 T02010147 52001 IEM_DS3505
ZBAA,1984-09-18 04:00,ZBAA 180400Z AUTO 20008KT 7SM 22/14 A3000 RMK T02200140 IEM_DS3505
ZBAA,1984-09-18 05:00,ZBAA 180500Z AUTO 20010KT 7SM 23/14 A3000 RMK T02300140 IEM_DS3505
ZBAA,1984-09-18 06:00,ZBAA 180600Z AUTO 20006KT 6SM 21/15 A2997 RMK 60024 SLP166 T02090147 4////0144 57016 IEM_DS3505
ZBAA,1984-09-18 07:00,ZBAA 180700Z AUTO 24010KT 7SM 23/13 A2994 RMK T02300130 IEM_DS3505
ZBAA,1984-09-18 08:00,ZBAA 180800Z AUTO 28010KT 6SM 22/14 A2994 RMK T02200140 IEM_DS3505
ZBAA,1984-09-18 09:00,ZBAA 180900Z AUTO 20004KT 6SM 20/14 A2991 RMK SLP147 T02040137 57019 IEM_DS3505
ZBAA,1984-09-18 10:00,ZBAA 181000Z AUTO 00000KT 6SM 21/14 A2991 RMK T02100140 IEM_DS3505
ZBAA,1984-09-18 11:00,ZBAA 181100Z AUTO 00000KT 7SM 19/15 A2991 RMK T01900150 IEM_DS3505
ZBAA,1984-09-18 12:00,ZBAA 181200Z AUTO 20004KT 4SM 18/14 RMK SLP150 T01770142 52003 IEM_DS3505
ZBAA,1984-09-18 15:00,ZBAA 181500Z AUTO 25002KT 3SM 15/13 RMK SLP156 T01500130 52006 IEM_DS3505
ZBAA,1984-09-18 18:00,ZBAA 181800Z AUTO 00000KT 2 1/2SM 14/13 RMK SLP157 T01380127 52001 IEM_DS3505
ZBAA,1984-09-19 00:00,ZBAA 190000Z AUTO 00000KT 2SM 14/13 RMK SLP171 T01440131 52011 IEM_DS3505
ZBAA,1984-09-19 03:00,ZBAA 190300Z AUTO 00000KT 3SM 21/14 RMK SLP173 T02090135 52003 IEM_DS3505
ZBAA,1984-09-19 06:00,ZBAA 190600Z AUTO 18006KT 3SM 24/14 RMK SLP150 T02380142 4////0116 57023 IEM_DS3505
ZBAA,1984-09-19 09:00,ZBAA 190900Z AUTO 20006KT 9SM 24/14 RMK SLP142 T02400135 57008 IEM_DS3505
ZBAA,1984-09-19 12:00,ZBAA 191200Z AUTO 20006KT 7SM 20/14 RMK SLP149 T01980138 52007 IEM_DS3505
ZBAA,1984-09-19 15:00,ZBAA 191500Z AUTO 18004KT 7SM 17/14 RMK SLP157 T01720137 52008 IEM_DS3505
ZBAA,1984-09-19 18:00,ZBAA 191800Z AUTO 00000KT 6SM 14/13 RMK SLP161 T01430127 40246//// 52004 IEM_DS3505
ZBAA,1984-09-19 21:00,ZBAA 192100Z AUTO 00000KT 6SM 14/12 RMK SLP175 T01380125 52014 IEM_DS3505
ZBAA,1984-09-20 00:00,ZBAA 200000Z AUTO 07002KT 4SM 22/14 RMK SLP193 T02150142 52006 IEM_DS3505
ZBAA,1984-09-20 06:00,ZBAA 200600Z AUTO 18006KT 6SM 26/14 RMK SLP176 T02580137 4////0128 57017 IEM_DS3505
ZBAA,1984-09-20 09:00,ZBAA 200900Z AUTO 18004KT 7SM 26/13 RMK SLP174 T02580129 57002 IEM_DS3505
ZBAA,1984-09-20 11:00,ZBAA 201100Z AUTO 18006KT 6SM 18/14 RMK SLP197 T01850144 52010 IEM_DS3505
ZBAA,1984-09-20 12:00,ZBAA 201200Z AUTO 20006KT 6SM 22/14 RMK SLP187 T02150142 52013 IEM_DS3505
ZBAA,1984-09-20 15:00,ZBAA 201500Z AUTO 18006KT 6SM 18/14 RMK SLP197 T01850144 52010 IEM_DS3505
ZBAA,1984-09-20 18:00,ZBAA 201800Z AUTO 00000KT 4SM 16/14 RMK SLP204 T01580139 40263//// 52007 IEM_DS3505
ZBAA,1984-09-20 21:00,ZBAA 202100Z AUTO 02002KT 2 1/2SM 15/ RMK SLP212 52008 IEM_DS3505
ZBAA,1984-09-21 00:00,ZBAA 210000Z AUTO 00000KT 2SM 16/15 RMK SLP224 T01610146 52011 IEM_DS3505
ZBAA,1984-09-21 03:00,ZBAA 210300Z AUTO 07002KT 6SM 23/15 RMK SLP222 T02290153 57001 IEM_DS3505
ZBAA,1984-09-21 06:00,ZBAA 210600Z AUTO 20006KT 6SM 27/12 RMK SLP199 T02690115 4////0136 57022 IEM_DS3505
ZBAA,1984-09-21 09:00,ZBAA 210900Z AUTO 18006KT 6SM 26/14 RMK SLP191 T02610135 57009 IEM_DS3505
ZBAA,1984-09-21 12:00,ZBAA 211200Z AUTO 18008KT 6SM 22/16 RMK T02230155 52005 IEM_DS3505
ZBAA,1984-09-21 15:00,ZBAA 211500Z AUTO 00000KT 6SM 20/15 RMK SLP193 T01970153 57002 IEM_DS3505
ZBAA,1984-09-21 18:00,ZBAA 211800Z AUTO 00000KT 5SM 18/14 RMK SLP190 T01820140 40275//// 57003 IEM_DS3505
ZBAA,1984-09-21 21:00,ZBAA 212100Z AUTO 09002KT 4SM 16/14 RMK SLP180 T01600145 57010 IEM_DS3505
ZBAA,1984-09-22 00:00,ZBAA 220000Z AUTO 36002KT 1SM 17/16 RMK SLP183 T01720155 52002 IEM_DS3505
ZBAA,1984-09-22 02:00,ZBAA 220200Z AUTO 15006KT 2 1/2SM 18/16 A3003 RMK T01800160 IEM_DS3505
ZBAA,1984-09-22 03:00,ZBAA 220300Z AUTO 18002KT 2SM 19/16 A3003 RMK SLP178 T01870160 57005 IEM_DS3505
ZBAA,1984-09-22 04:00,ZBAA 220400Z AUTO 12008KT 2SM 19/17 A3000 RMK T01900170 IEM_DS3505
ZBAA,1984-09-22 05:00,ZBAA 220500Z AUTO 12004KT 2SM 19/17 A2997 RMK T01900170 IEM_DS3505
ZBAA,1984-09-22 06:00,ZBAA 220600Z AUTO 36004KT 2 1/2SM 18/17 A2994 RMK 60002 SLP151 T01840168 4////0153 57027 IEM_DS3505
ZBAA,1984-09-22 07:00,ZBAA 220700Z AUTO 12004KT 2 1/2SM 19/17 A2994 RMK T01900170 IEM_DS3505
ZBAA,1984-09-22 08:00,ZBAA 220800Z AUTO 10012KT 4SM 19/17 A2991 RMK T01900170 IEM_DS3505
ZBAA,1984-09-22 09:00,ZBAA 220900Z AUTO 36004KT 2SM 19/17 A2991 RMK SLP138 T01860166 57013 IEM_DS3505
ZBAA,1984-09-22 10:00,ZBAA 221000Z AUTO 02006KT 2SM 19/17 A2991 RMK T01900170 IEM_DS3505
ZBAA,1984-09-22 11:00,ZBAA 221100Z AUTO 03006KT 1 1/2SM 18/17 A2991 RMK T01800170 IEM_DS3505
ZBAA,1984-09-22 12:00,ZBAA 221200Z AUTO 36004KT 2SM 18/16 RMK 60000 SLP145 T01820162 52007 IEM_DS3505
ZBAA,1984-09-22 15:00,ZBAA 221500Z AUTO 36002KT 2SM 17/16 RMK SLP144 T01740156 57001 IEM_DS3505
ZBAA,1984-09-22 18:00,ZBAA 221800Z AUTO 36002KT 1SM 16/15 RMK SLP141 T01550148 40193//// 57003 IEM_DS3505
ZBAA,1984-09-22 21:00,ZBAA 222100Z AUTO 00000KT 3/8SM 14/13 RMK SLP142 T01370133 54000 IEM_DS3505
ZBAA,1984-09-23 00:00,ZBAA 230000Z AUTO 36004KT 1 1/4SM 17/15 RMK SLP147 T01670151 52006 IEM_DS3505
ZBAA,1984-09-23 03:00,ZBAA 230300Z AUTO 36006KT 4SM 23/13 RMK SLP144 T02310127 57003 IEM_DS3505
ZBAA,1984-09-23 06:00,ZBAA 230600Z AUTO 04002KT 9SM 27/06 RMK SLP118 T02660057 4////0127 57025 IEM_DS3505
ZBAA,1984-09-23 09:00,ZBAA 230900Z AUTO 18004KT 9SM 25/07 RMK T02480067 57012 IEM_DS3505
ZBAA,1984-09-23 12:00,ZBAA 231200Z AUTO 20004KT 6SM 22/ RMK SLP112 52006 IEM_DS3505
ZBAA,1984-09-23 15:00,ZBAA 231500Z AUTO 00000KT 6SM 19/13 RMK SLP115 T01880132 52003 IEM_DS3505
ZBAA,1984-09-23 18:00,ZBAA 231800Z AUTO 00000KT 4SM 15/12 RMK SLP117 T01540123 40277//// 52002 IEM_DS3505
ZBAA,1984-09-23 21:00,ZBAA 232100Z AUTO 00000KT 4SM 14/11 RMK SLP127 T01370108 52009 IEM_DS3505
ZBAA,1984-09-24 00:00,ZBAA 240000Z AUTO 36010KT 7SM 18/07 RMK SLP156 T01820071 52029 IEM_DS3505
ZBAA,1984-09-24 03:00,ZBAA 240300Z AUTO 36008KT 19SM 21/M01 RMK SLP172 T02141006 52016 IEM_DS3505
ZBAA,1984-09-24 06:00,ZBAA 240600Z AUTO 36008KT 19SM 25/02 RMK SLP159 T02460018 4////0129 57013 IEM_DS3505
ZBAA,1984-09-24 09:00,ZBAA 240900Z AUTO 02004KT 19SM 23/M03 RMK SLP161 T02301026 52002 IEM_DS3505
ZBAA,1984-09-24 12:00,ZBAA 241200Z AUTO 36002KT 19SM 16/08 RMK SLP182 T01590078 52021 IEM_DS3505
ZBAA,1984-09-24 15:00,ZBAA 241500Z AUTO 02004KT 16SM 16/M01 RMK SLP204 T01601006 52022 IEM_DS3505
ZBAA,1984-09-24 18:00,ZBAA 241800Z AUTO 02004KT 16SM 15/M03 RMK SLP216 T01501028 40246//// 52012 IEM_DS3505
ZBAA,1984-09-24 21:00,ZBAA 242100Z AUTO 36006KT 11SM 13/M02 RMK SLP227 T01311020 52010 IEM_DS3505
ZBAA,1984-09-25 00:00,ZBAA 250000Z AUTO 36006KT 12SM 14/M01 RMK SLP245 T01361010 52017 IEM_DS3505
ZBAA,1984-09-25 02:00,ZBAA 250200Z AUTO 04008KT 6SM 18/M04 A3024 RMK T01801040 IEM_DS3505
ZBAA,1984-09-25 03:00,ZBAA 250300Z AUTO 02006KT 16SM 19/M05 A3024 RMK SLP250 T01901048 52006 IEM_DS3505
ZBAA,1984-09-25 04:00,ZBAA 250400Z AUTO 00000KT 7SM A3021 RMK IEM_DS3505
ZBAA,1984-09-25 05:00,ZBAA 250500Z AUTO 25008KT 6SM 22/M01 A3018 RMK T02201010 IEM_DS3505
ZBAA,1984-09-25 06:00,ZBAA 250600Z AUTO 16006KT 12SM 21/M02 RMK SLP225 T02131020 4////0112 57025 IEM_DS3505
ZBAA,1984-09-25 07:00,ZBAA 250700Z AUTO 18004KT 6SM 22/M02 A3015 RMK T02201020 IEM_DS3505
ZBAA,1984-09-25 08:00,ZBAA 250800Z AUTO 20008KT 6SM 22/M01 A3012 RMK T02201010 IEM_DS3505
ZBAA,1984-09-25 09:00,ZBAA 250900Z AUTO 20008KT 12SM 21/02 A3012 RMK SLP210 T02140016 57014 IEM_DS3505
ZBAA,1984-09-25 11:00,ZBAA 251100Z AUTO 02014KT 4SM RMK SLP222 52002 IEM_DS3505
ZBAA,1984-09-25 12:00,ZBAA 251200Z AUTO 20004KT 12SM 17/ RMK SLP215 55004 IEM_DS3505
ZBAA,1984-09-25 15:00,ZBAA 251500Z AUTO 25002KT 12SM 15/10 RMK SLP220 T01540101 52005 IEM_DS3505
ZBAA,1984-09-25 18:00,ZBAA 251800Z AUTO 02002KT 6SM 12/09 RMK SLP222 T01160094 40221//// 52002 IEM_DS3505
ZBAA,1984-09-25 21:00,ZBAA 252100Z AUTO 02004KT 6SM 12/08 RMK SLP223 T01160081 52001 IEM_DS3505
ZBAA,1984-09-26 00:00,ZBAA 260000Z AUTO 36006KT 6SM 14/08 RMK SLP229 T01420081 52006 IEM_DS3505
ZBAA,1984-09-26 03:00,ZBAA 260300Z AUTO 36002KT 3SM 19/10 RMK SLP227 T01900101 57002 IEM_DS3505
ZBAA,1984-09-26 06:00,ZBAA 260600Z AUTO 14010KT 6SM 23/06 RMK SLP201 T02290065 4////0104 57025 IEM_DS3505
ZBAA,1984-09-26 09:00,ZBAA 260900Z AUTO 18004KT 6SM 22/10 RMK SLP195 T02230099 57006 IEM_DS3505
ZBAA,1984-09-26 12:00,ZBAA 261200Z AUTO 18004KT 6SM RMK SLP195 57006 IEM_DS3505
ZBAA,1984-09-26 15:00,ZBAA 261500Z AUTO 20010KT 7SM 18/09 RMK SLP219 T01820094 52010 IEM_DS3505
ZBAA,1984-09-26 18:00,ZBAA 261800Z AUTO 20010KT 9SM 18/06 RMK SLP225 T01780064 40236//// 52007 IEM_DS3505
ZBAA,1984-09-26 21:00,ZBAA 262100Z AUTO 18006KT 9SM 16/08 RMK SLP227 T01630083 52002 IEM_DS3505
ZBAA,1984-09-27 00:00,ZBAA 270000Z AUTO 20002KT 11SM 17/09 RMK SLP231 T01700089 52003 IEM_DS3505
ZBAA,1984-09-27 03:00,ZBAA 270300Z AUTO 16004KT 4SM 20/07 RMK SLP228 T01960071 57003 IEM_DS3505
ZBAA,1984-09-27 06:00,ZBAA 270600Z AUTO 14002KT 9SM 20/08 RMK SLP205 T02030075 4////0156 57022 IEM_DS3505
ZBAA,1984-09-27 09:00,ZBAA 270900Z AUTO 16002KT 7SM 19/07 RMK SLP200 T01900072 57005 IEM_DS3505
ZBAA,1984-09-27 12:00,ZBAA 271200Z AUTO 00000KT 4SM 14/12 RMK 60020 SLP216 T01370121 52015 IEM_DS3505
ZBAA,1984-09-27 15:00,ZBAA 271500Z AUTO 36006KT 6SM 12/11 RMK SLP206 T01250112 57010 IEM_DS3505
ZBAA,1984-09-27 18:00,ZBAA 271800Z AUTO 34002KT 5SM 12/11 RMK 60020 SLP191 T01170111 40212//// 57015 IEM_DS3505
ZBAA,1984-09-27 21:00,ZBAA 272100Z AUTO 36004KT 5SM 12/11 RMK SLP165 T01190111 57026 IEM_DS3505
ZBAA,1984-09-28 00:00,ZBAA 280000Z AUTO 00000KT 5SM 13/12 RMK 60004 SLP154 T01280116 57011 IEM_DS3505
ZBAA,1984-09-28 03:00,ZBAA 280300Z AUTO 22004KT 2 1/2SM 17/12 RMK SLP129 T01680123 57025 IEM_DS3505
ZBAA,1984-09-28 06:00,ZBAA 280600Z AUTO 20010KT 9SM 19/12 RMK SLP101 T01910124 4////0113 57027 IEM_DS3505
ZBAA,1984-09-28 09:00,ZBAA 280900Z AUTO 20008KT 7SM 19/12 RMK SLP079 T01940119 57022 IEM_DS3505
ZBAA,1984-09-28 12:00,ZBAA 281200Z AUTO 20002KT 7SM 16/12 RMK SLP083 T01640116 52004 IEM_DS3505
ZBAA,1984-09-28 15:00,ZBAA 281500Z AUTO 11002KT 5SM 14/12 RMK SLP095 T01370121 52012 IEM_DS3505
ZBAA,1984-09-28 18:00,ZBAA 281800Z AUTO 27002KT 9SM 15/07 RMK SLP103 T01480067 40203//// 52009 IEM_DS3505
ZBAA,1984-09-28 21:00,ZBAA 282100Z AUTO 25004KT 7SM 14/04 RMK SLP109 T01350041 52005 IEM_DS3505
ZBAA,1984-09-29 00:00,ZBAA 290000Z AUTO 00000KT 9SM 17/06 A2985 RMK SLP120 T01710056 52010 IEM_DS3505
ZBAA,1984-09-29 01:00,ZBAA 290100Z AUTO 06008KT 6SM 16/11 A2985 RMK T01600110 IEM_DS3505
ZBAA,1984-09-29 02:00,ZBAA 290200Z AUTO 05006KT 6SM 19/09 A2985 RMK T01900090 IEM_DS3505
ZBAA,1984-09-29 03:00,ZBAA 290300Z AUTO 18004KT 6SM 21/10 A2985 RMK SLP122 T02090104 52003 IEM_DS3505
ZBAA,1984-09-29 04:00,ZBAA 290400Z AUTO 22004KT 6SM 22/07 A2983 RMK T02200070 IEM_DS3505
ZBAA,1984-09-29 05:00,ZBAA 290500Z AUTO 22010KT 6SM RMK IEM_DS3505
ZBAA,1984-09-29 06:00,ZBAA 290600Z AUTO 18008KT 6SM 22/08 RMK SLP099 T02190075 4////0110 57022 IEM_DS3505
ZBAA,1984-09-29 09:00,ZBAA 290900Z AUTO 18008KT 9SM 23/07 RMK SLP088 T02280071 57011 IEM_DS3505
ZBAA,1984-09-29 12:00,ZBAA 291200Z AUTO 18008KT 9SM 19/10 RMK SLP094 T01900104 52006 IEM_DS3505
ZBAA,1984-09-29 15:00,ZBAA 291500Z AUTO 04002KT 6SM 15/12 RMK SLP096 T01460116 52002 IEM_DS3505
ZBAA,1984-09-29 18:00,ZBAA 291800Z AUTO 36002KT 5SM 14/10 RMK SLP101 T01350105 40233//// 52005 IEM_DS3505
ZBAA,1984-09-29 21:00,ZBAA 292100Z AUTO 02006KT 4SM 12/10 RMK SLP105 T01200099 52004 IEM_DS3505
ZBAA,1984-09-30 00:00,ZBAA 300000Z AUTO 04002KT 2 1/2SM 14/11 RMK SLP119 T01430111 52012 IEM_DS3505
ZBAA,1984-09-30 03:00,ZBAA 300300Z AUTO 11002KT 2 1/2SM 20/12 RMK SLP113 T01980124 57004 IEM_DS3505
ZBAA,1984-09-30 06:00,ZBAA 300600Z AUTO 20002KT 4SM 24/11 RMK SLP103 T02420112 4////0107 57010 IEM_DS3505
ZBAA,1984-09-30 09:00,ZBAA 300900Z AUTO 16002KT 4SM 24/14 RMK SLP092 T02360136 57011 IEM_DS3505
ZBAA,1984-09-30 12:00,ZBAA 301200Z AUTO 18004KT 3SM 18/15 RMK SLP109 T01800149 52016 IEM_DS3505
ZBAA,1984-09-30 15:00,ZBAA 301500Z AUTO 00000KT 3SM 16/14 RMK SLP123 T01610140 52014 IEM_DS3505
ZBAA,1984-09-30 18:00,ZBAA 301800Z AUTO 04002KT 1 1/4SM 16/13 RMK SLP134 T01560133 40249//// 52011 IEM_DS3505
ZBAA,1984-09-30 21:00,ZBAA 302100Z AUTO 02002KT 1 1/4SM 15/13 RMK SLP136 T01460128 52002 IEM_DS3505
ZBAA,1984-10-01 00:00,ZBAA 010000Z AUTO 00000KT 1 1/4SM 16/13 RMK SLP152 T01580129 52015 IEM_DS3505
ZBAA,1984-10-01 03:00,ZBAA 010300Z AUTO 04006KT 2SM 20/16 RMK SLP162 T02010162 52011 IEM_DS3505
ZBAA,1984-10-01 06:00,ZBAA 010600Z AUTO 18004KT 3SM 23/16 RMK SLP150 T02290155 4////0134 57012 IEM_DS3505
ZBAA,1984-10-01 09:00,ZBAA 010900Z AUTO 16008KT 9SM 23/12 RMK SLP140 T02330117 57010 IEM_DS3505
ZBAA,1984-10-01 12:00,ZBAA 011200Z AUTO 14008KT 7SM 19/16 RMK SLP156 T01890157 52016 IEM_DS3505
ZBAA,1984-10-01 15:00,ZBAA 011500Z AUTO 18002KT 7SM 17/15 RMK SLP158 T01710150 52002 IEM_DS3505
ZBAA,1984-10-01 18:00,ZBAA 011800Z AUTO 11004KT 6SM 17/14 RMK SLP152 T01660144 40245//// 57006 IEM_DS3505
ZBAA,1984-10-01 21:00,ZBAA 012100Z AUTO 36004KT 6SM 15/13 RMK SLP148 T01540131 57004 IEM_DS3505
ZBAA,1984-10-02 00:00,ZBAA 020000Z AUTO 00000KT 7SM 16/13 RMK SLP141 T01560133 57007 IEM_DS3505
ZBAA,1984-10-02 03:00,ZBAA 020300Z AUTO 34012KT 9SM 20/M05 A2991 RMK SLP146 T01981048 52005 IEM_DS3505
ZBAA,1984-10-02 04:00,ZBAA 020400Z AUTO 29010KT 6SM 20/M04 A2991 RMK T02001040 IEM_DS3505
ZBAA,1984-10-02 05:00,ZBAA 020500Z AUTO 28012KT 6SM 19/M03 A2994 RMK T01901030 IEM_DS3505
ZBAA,1984-10-02 06:00,ZBAA 020600Z AUTO 34010KT 9SM 21/M01 A2991 RMK SLP143 T02121006 4////0149 57003 IEM_DS3505
ZBAA,1984-10-02 07:00,ZBAA 020700Z AUTO 30008KT 6SM 20/M04 A2988 RMK T02001040 IEM_DS3505
ZBAA,1984-10-02 08:00,ZBAA 020800Z AUTO 30012KT 6SM 21/M05 A2991 RMK T02101050 IEM_DS3505
ZBAA,1984-10-02 09:00,ZBAA 020900Z AUTO 29012KT 19SM 19/M03 RMK SLP153 T01911031 52010 IEM_DS3505
ZBAA,1984-10-02 12:00,ZBAA 021200Z AUTO 29010KT 19SM 15/M02 RMK SLP196 T01521015 52042 IEM_DS3505
ZBAA,1984-10-02 15:00,ZBAA 021500Z AUTO 02006KT 19SM 14/M02 RMK SLP215 T01391018 52019 IEM_DS3505
ZBAA,1984-10-02 18:00,ZBAA 021800Z AUTO 32010KT 19SM 14/M05 RMK SLP220 T01421052 40213//// 52005 IEM_DS3505
ZBAA,1984-10-02 21:00,ZBAA 022100Z AUTO 34014KT 19SM 14/M05 RMK SLP220 T01361052 54000 IEM_DS3505
ZBAA,1984-10-03 00:00,ZBAA 030000Z AUTO 04006KT 19SM 14/M05 RMK SLP231 T01361052 52010 IEM_DS3505
ZBAA,1984-10-03 03:00,ZBAA 030300Z AUTO 34012KT 19SM 17/M10 RMK SLP222 T01691096 57008 IEM_DS3505
ZBAA,1984-10-03 06:00,ZBAA 030600Z AUTO 27012KT 19SM 20/M06 RMK SLP197 T01951065 4////0123 57025 IEM_DS3505
ZBAA,1984-10-03 09:00,ZBAA 030900Z AUTO 25008KT 19SM 19/M07 RMK SLP181 T01931072 57016 IEM_DS3505
ZBAA,1984-10-03 12:00,ZBAA 031200Z AUTO 25002KT 19SM 14/01 RMK SLP185 T01420010 52004 IEM_DS3505
ZBAA,1984-10-03 15:00,ZBAA 031500Z AUTO 32004KT 19SM 14/M04 RMK SLP198 T01421039 52013 IEM_DS3505
ZBAA,1984-10-03 18:00,ZBAA 031800Z AUTO 29006KT 19SM 14/M06 RMK SLP207 T01421065 40204//// 52009 IEM_DS3505
ZBAA,1984-10-03 21:00,ZBAA 032100Z AUTO 32006KT 19SM 13/M05 RMK SLP207 T01261052 54000 IEM_DS3505
ZBAA,1984-10-04 00:00,ZBAA 040000Z AUTO 27006KT 19SM 15/M03 RMK SLP217 T01461031 52009 IEM_DS3505
ZBAA,1984-10-04 03:00,ZBAA 040300Z AUTO 32004KT 19SM 18/M04 RMK SLP216 T01821039 54000 IEM_DS3505
ZBAA,1984-10-04 06:00,ZBAA 040600Z AUTO 20006KT 19SM 21/M04 RMK SLP192 T02071039 4////0112 57023 IEM_DS3505
ZBAA,1984-10-04 09:00,ZBAA 040900Z AUTO 20006KT 16SM 20/M02 RMK SLP180 T01971018 57013 IEM_DS3505
ZBAA,1984-10-04 12:00,ZBAA 041200Z AUTO 00000KT 16SM 14/03 RMK SLP185 T01380026 52005 IEM_DS3505
ZBAA,1984-10-04 15:00,ZBAA 041500Z AUTO 20006KT 16SM 13/01 RMK SLP186 T01320010 52001 IEM_DS3505
ZBAA,1984-10-04 18:00,ZBAA 041800Z AUTO 02004KT 9SM 10/02 RMK SLP186 T00980021 40211//// 54000 IEM_DS3505
ZBAA,1984-10-04 21:00,ZBAA 042100Z AUTO 04002KT 9SM 07/03 RMK T00690026 57003 IEM_DS3505
ZBAA,1984-10-04 22:00,ZBAA 042200Z AUTO 04002KT 9SM 07/03 RMK T00690026 57003 IEM_DS3505
ZBAA,1984-10-05 00:00,ZBAA 050000Z AUTO 04004KT 6SM 10/03 RMK SLP196 T01030034 52013 IEM_DS3505
ZBAA,1984-10-05 03:00,ZBAA 050300Z AUTO 04006KT 9SM 20/01 RMK SLP199 T01970006 52003 IEM_DS3505
ZBAA,1984-10-05 06:00,ZBAA 050600Z AUTO 20006KT 12SM 23/01 RMK SLP180 T02340006 4////0054 57019 IEM_DS3505
ZBAA,1984-10-05 09:00,ZBAA 050900Z AUTO 18006KT 9SM 22/01 RMK SLP174 T02180006 57006 IEM_DS3505
ZBAA,1984-10-05 12:00,ZBAA 051200Z AUTO 16006KT 12SM 18/02 RMK SLP188 T01800016 52014 IEM_DS3505
ZBAA,1984-10-05 15:00,ZBAA 051500Z AUTO 09002KT 12SM 12/04 RMK SLP200 T01220043 52012 IEM_DS3505
ZBAA,1984-10-05 18:00,ZBAA 051800Z AUTO 36002KT 5SM 09/06 RMK SLP215 T00930057 40237//// 52015 IEM_DS3505
ZBAA,1984-10-05 21:00,ZBAA 052100Z AUTO 36006KT 4SM 10/07 RMK SLP218 T01020069 52003 IEM_DS3505
ZBAA,1984-10-06 00:00,ZBAA 060000Z AUTO 04004KT 5SM 12/08 RMK SLP227 T01250078 52009 IEM_DS3505
ZBAA,1984-10-06 02:00,ZBAA 060200Z AUTO 12008KT 7SM 16/09 A3018 RMK T01600090 IEM_DS3505
ZBAA,1984-10-06 03:00,ZBAA 060300Z AUTO 02006KT 3SM 17/08 A3015 RMK SLP225 T01700082 57003 IEM_DS3505
ZBAA,1984-10-06 04:00,ZBAA 060400Z AUTO 16008KT 7SM 20/07 A3015 RMK T02000070 IEM_DS3505
ZBAA,1984-10-06 05:00,ZBAA 060500Z AUTO 19008KT 7SM 21/07 A3012 RMK T02100070 IEM_DS3505
ZBAA,1984-10-06 06:00,ZBAA 060600Z AUTO 20008KT 6SM 21/06 A3006 RMK SLP194 T02130064 4////0085 57030 IEM_DS3505
ZBAA,1984-10-06 07:00,ZBAA 060700Z AUTO 20010KT 7SM 22/06 A3006 RMK T02200060 IEM_DS3505
ZBAA,1984-10-06 08:00,ZBAA 060800Z AUTO 18010KT 7SM 22/05 A3003 RMK T02200050 IEM_DS3505
ZBAA,1984-10-06 09:00,ZBAA 060900Z AUTO 20006KT 6SM 21/06 A3003 RMK SLP180 T02080056 57014 IEM_DS3505
ZBAA,1984-10-06 10:00,ZBAA 061000Z AUTO 00000KT 7SM 19/09 A3003 RMK T01900090 IEM_DS3505
ZBAA,1984-10-06 12:00,ZBAA 061200Z AUTO 16004KT 7SM 18/07 RMK SLP192 T01760067 52012 IEM_DS3505
ZBAA,1984-10-06 15:00,ZBAA 061500Z AUTO 18008KT 7SM 15/05 RMK SLP196 T01540054 52004 IEM_DS3505
ZBAA,1984-10-06 18:00,ZBAA 061800Z AUTO 20004KT 7SM 12/07 RMK SLP195 T01210071 40221//// 57001 IEM_DS3505
ZBAA,1984-10-06 21:00,ZBAA 062100Z AUTO 00000KT 6SM 10/07 RMK SLP195 T00960072 54000 IEM_DS3505
ZBAA,1984-10-07 00:00,ZBAA 070000Z AUTO 00000KT 3SM 12/08 RMK SLP203 T01150077 52008 IEM_DS3505
ZBAA,1984-10-07 03:00,ZBAA 070300Z AUTO 00000KT 4SM 17/08 RMK SLP202 T01690083 57001 IEM_DS3505
ZBAA,1984-10-07 06:00,ZBAA 070600Z AUTO 18006KT 6SM 21/08 RMK SLP178 T02130085 4////0086 57024 IEM_DS3505
ZBAA,1984-10-07 09:00,ZBAA 070900Z AUTO 20004KT 6SM 20/10 RMK SLP167 T02030098 57011 IEM_DS3505
ZBAA,1984-10-07 12:00,ZBAA 071200Z AUTO 14002KT 6SM 16/11 RMK SLP182 T01580112 52015 IEM_DS3505
ZBAA,1984-10-07 15:00,ZBAA 071500Z AUTO 00000KT 5SM 13/11 RMK SLP190 T01330106 52008 IEM_DS3505
ZBAA,1984-10-07 18:00,ZBAA 071800Z AUTO 07002KT 1 1/2SM 11/10 RMK SLP191 T01130098 40218//// 52001 IEM_DS3505
ZBAA,1984-10-07 21:00,ZBAA 072100Z AUTO 04002KT 2SM 11/09 RMK SLP191 T01080090 54000 IEM_DS3505
ZBAA,1984-10-08 00:00,ZBAA 080000Z AUTO 36004KT 1 1/4SM 12/10 RMK SLP198 T01240099 52007 IEM_DS3505
ZBAA,1984-10-08 03:00,ZBAA 080300Z AUTO 00000KT 2SM 17/11 RMK SLP202 T01700111 52004 IEM_DS3505
ZBAA,1984-10-08 06:00,ZBAA 080600Z AUTO 18008KT 4SM 20/13 RMK SLP182 T02010133 4////0103 57020 IEM_DS3505
ZBAA,1984-10-08 09:00,ZBAA 080900Z AUTO 20004KT 4SM 21/13 RMK SLP174 T02070126 57008 IEM_DS3505
ZBAA,1984-10-08 12:00,ZBAA 081200Z AUTO 16002KT 3SM 18/12 RMK SLP179 T01750120 52005 IEM_DS3505
ZBAA,1984-10-08 15:00,ZBAA 081500Z AUTO 34004KT 2SM 15/12 RMK SLP188 T01480121 52009 IEM_DS3505
ZBAA,1984-10-08 18:00,ZBAA 081800Z AUTO 00000KT 2 1/2SM 13/11 RMK SLP183 T01270114 40219//// 57005 IEM_DS3505
ZBAA,1984-10-08 21:00,ZBAA 082100Z AUTO 02004KT 2SM 12/12 RMK SLP182 T01250115 57001 IEM_DS3505
ZBAA,1984-10-09 00:00,ZBAA 090000Z AUTO 34002KT 1SM 13/12 RMK SLP191 T01320121 52009 IEM_DS3505
ZBAA,1984-10-09 03:00,ZBAA 090300Z AUTO 07002KT 2SM 19/13 RMK SLP190 T01860132 57001 IEM_DS3505
ZBAA,1984-10-09 06:00,ZBAA 090600Z AUTO 16004KT 3SM 22/13 RMK SLP171 T02180134 4////0117 57018 IEM_DS3505
ZBAA,1984-10-09 09:00,ZBAA 090900Z AUTO 20002KT 4SM 22/14 RMK SLP164 T02230140 57007 IEM_DS3505
ZBAA,1984-10-09 12:00,ZBAA 091200Z AUTO 00000KT 2 1/2SM 17/14 RMK SLP177 T01660142 52012 IEM_DS3505
ZBAA,1984-10-09 15:00,ZBAA 091500Z AUTO 00000KT 1 1/4SM 14/13 RMK SLP180 T01450130 52003 IEM_DS3505
ZBAA,1984-10-09 18:00,ZBAA 091800Z AUTO 00000KT 1 1/4SM 13/12 RMK SLP181 T01280119 40228//// 52002 IEM_DS3505
ZBAA,1984-10-09 21:00,ZBAA 092100Z AUTO 04002KT 1SM 13/12 RMK SLP183 T01310122 52002 IEM_DS3505
ZBAA,1984-10-10 00:00,ZBAA 100000Z AUTO 00000KT 1 1/4SM 13/13 RMK SLP199 T01320126 52015 IEM_DS3505
ZBAA,1984-10-10 03:00,ZBAA 100300Z AUTO 22002KT 1 1/4SM 18/15 RMK SLP204 T01800149 52005 IEM_DS3505
ZBAA,1984-10-10 06:00,ZBAA 100600Z AUTO 16006KT 1 1/2SM 18/15 RMK SLP192 T01810152 4////0119 57012 IEM_DS3505
ZBAA,1984-10-10 09:00,ZBAA 100900Z AUTO 00000KT 1 1/2SM 20/16 RMK SLP186 T01950157 57006 IEM_DS3505
ZBAA,1984-10-10 12:00,ZBAA 101200Z AUTO 36002KT 1 1/4SM 16/15 RMK SLP199 T01560148 52013 IEM_DS3505
ZBAA,1984-10-10 15:00,ZBAA 101500Z AUTO 00000KT 1SM 14/13 RMK SLP202 T01380132 52003 IEM_DS3505
ZBAA,1984-10-10 18:00,ZBAA 101800Z AUTO 18004KT 1SM 14/14 RMK SLP203 T01450138 40199//// 52001 IEM_DS3505
ZBAA,1984-10-10 21:00,ZBAA 102100Z AUTO 00000KT 1/8SM 13/12 RMK SLP198 T01270125 57005 IEM_DS3505
ZBAA,1984-10-11 00:00,ZBAA 110000Z AUTO 16002KT 1SM 13/13 RMK SLP193 T01320128 57005 IEM_DS3505
ZBAA,1984-10-11 03:00,ZBAA 110300Z AUTO 20008KT 3SM 16/13 RMK SLP195 T01620134 52002 IEM_DS3505
ZBAA,1984-10-11 06:00,ZBAA 110600Z AUTO 18008KT 4SM 17/13 RMK SLP178 T01690128 4////0120 57017 IEM_DS3505
ZBAA,1984-10-11 09:00,ZBAA 110900Z AUTO 20008KT 1 1/2SM 16/14 RMK SLP180 T01550141 52002 IEM_DS3505
ZBAA,1984-10-11 12:00,ZBAA 111200Z AUTO 04002KT 2SM 14/13 RMK 60024 SLP212 T01370130 52032 IEM_DS3505
ZBAA,1984-10-11 15:00,ZBAA 111500Z AUTO 36006KT 3SM 12/10 RMK SLP224 T01230095 52011 IEM_DS3505
ZBAA,1984-10-11 18:00,ZBAA 111800Z AUTO 34002KT 12SM 11/09 RMK 60008 SLP234 T01080091 40171//// 52010 IEM_DS3505
ZBAA,1984-10-11 21:00,ZBAA 112100Z AUTO 02006KT 16SM 10/05 RMK SLP250 T01020054 52016 IEM_DS3505
ZBAA,1984-10-12 00:00,ZBAA 120000Z AUTO 34004KT 19SM 12/01 RMK 70031 SLP277 T01170006 52027 IEM_DS3505
ZBAA,1984-10-12 03:00,ZBAA 120300Z AUTO 34006KT 19SM 15/M04 RMK SLP278 T01501037 52001 IEM_DS3505
ZBAA,1984-10-12 06:00,ZBAA 120600Z AUTO 36004KT 19SM 18/M02 RMK SLP248 T01771023 4////0084 57030 IEM_DS3505
ZBAA,1984-10-12 09:00,ZBAA 120900Z AUTO 18004KT 19SM 18/00 RMK SLP272 T01750001 57016 IEM_DS3505
ZBAA,1984-10-12 12:00,ZBAA 121200Z AUTO 20004KT 16SM 12/03 RMK SLP242 T01220034 52010 IEM_DS3505
ZBAA,1984-10-12 15:00,ZBAA 121500Z AUTO 18004KT 12SM 11/02 RMK SLP236 T01130024 57006 IEM_DS3505
ZBAA,1984-10-12 18:00,ZBAA 121800Z AUTO 18004KT 9SM 10/ RMK SLP222 40189//// 57014 IEM_DS3505
ZBAA,1984-10-12 21:00,ZBAA 122100Z AUTO 07002KT 7SM 07/04 RMK SLP211 T00740041 57010 IEM_DS3505
ZBAA,1984-10-13 00:00,ZBAA 130000Z AUTO 36002KT 3SM 07/05 RMK SLP218 T00700048 52005 IEM_DS3505
ZBAA,1984-10-13 02:00,ZBAA 130200Z AUTO 36002KT 7SM 11/05 A3015 RMK T01100050 IEM_DS3505
ZBAA,1984-10-13 03:00,ZBAA 130300Z AUTO 04002KT 4SM 14/04 A3012 RMK SLP210 T01380039 57006 IEM_DS3505
ZBAA,1984-10-13 04:00,ZBAA 130400Z AUTO 18004KT 4SM 16/04 A3009 RMK T01600040 IEM_DS3505
ZBAA,1984-10-13 05:00,ZBAA 130500Z AUTO 15002KT 2 1/2SM 17/05 A3006 RMK T01700050 IEM_DS3505
ZBAA,1984-10-13 06:00,ZBAA 130600Z AUTO 20008KT 6SM 18/06 A3003 RMK SLP183 T01810060 4////0052 57027 IEM_DS3505
ZBAA,1984-10-13 07:00,ZBAA 130700Z AUTO 23006KT 5SM 19/06 A3003 RMK T01900060 IEM_DS3505
ZBAA,1984-10-13 08:00,ZBAA 130800Z AUTO 21006KT 7SM 19/06 A3003 RMK T01900060 IEM_DS3505
ZBAA,1984-10-13 09:00,ZBAA 130900Z AUTO 20004KT 6SM 18/08 A3000 RMK SLP176 T01780078 57007 IEM_DS3505
ZBAA,1984-10-13 10:00,ZBAA 131000Z AUTO 00000KT 4SM 15/09 A3003 RMK T01500090 IEM_DS3505
ZBAA,1984-10-13 11:00,ZBAA 131100Z AUTO 04006KT 5SM 13/09 A3003 RMK T01300090 IEM_DS3505
ZBAA,1984-10-13 12:00,ZBAA 131200Z AUTO 04002KT 6SM 12/09 RMK SLP184 T01230088 52007 IEM_DS3505
ZBAA,1984-10-13 15:00,ZBAA 131500Z AUTO 02004KT 6SM 11/07 RMK SLP195 T01130074 52012 IEM_DS3505
ZBAA,1984-10-13 18:00,ZBAA 131800Z AUTO 00000KT 5SM 09/07 RMK SLP199 T00890069 40191//// 52004 IEM_DS3505
ZBAA,1984-10-13 21:00,ZBAA 132100Z AUTO 00000KT 4SM 08/06 RMK T00770064 52001 IEM_DS3505
ZBAA,1984-10-14 00:00,ZBAA 140000Z AUTO 00000KT 3SM 10/08 RMK SLP214 T01040077 52014 IEM_DS3505
ZBAA,1984-10-14 03:00,ZBAA 140300Z AUTO 04004KT 2SM 18/08 RMK SLP223 T01750077 52008 IEM_DS3505
ZBAA,1984-10-14 06:00,ZBAA 140600Z AUTO 04002KT 4SM 22/09 RMK SLP203 T02160086 4////0073 57019 IEM_DS3505
ZBAA,1984-10-14 09:00,ZBAA 140900Z AUTO 18004KT 4SM 20/10 RMK SLP200 T02030098 57003 IEM_DS3505
ZBAA,1984-10-14 12:00,ZBAA 141200Z AUTO 00000KT 2 1/2SM 14/11 RMK SLP207 T01380112 52007 IEM_DS3505
ZBAA,1984-10-14 15:00,ZBAA 141500Z AUTO 00000KT 1SM 11/10 RMK SLP209 T01130101 52002 IEM_DS3505
ZBAA,1984-10-14 18:00,ZBAA 141800Z AUTO 02002KT 3/8SM 10/09 RMK SLP208 T01020094 40224//// 57001 IEM_DS3505
ZBAA,1984-10-14 21:00,ZBAA 142100Z AUTO 04004KT 3/8SM 10/09 RMK SLP200 T00980090 57008 IEM_DS3505
ZBAA,1984-10-15 00:00,ZBAA 150000Z AUTO 36004KT 1 1/4SM 11/10 RMK SLP199 T01090095 57001 IEM_DS3505
ZBAA,1984-10-15 03:00,ZBAA 150300Z AUTO 00000KT 2SM 16/11 RMK SLP187 T01580106 57012 IEM_DS3505
ZBAA,1984-10-15 06:00,ZBAA 150600Z AUTO 18010KT 5SM 21/09 RMK SLP146 T02100093 4////0086 57041 IEM_DS3505
ZBAA,1984-10-15 09:00,ZBAA 150900Z AUTO 20002KT 4SM 20/10 RMK SLP134 T01990101 57012 IEM_DS3505
ZBAA,1984-10-15 12:00,ZBAA 151200Z AUTO 36002KT 2SM 17/12 RMK SLP142 T01660115 52008 IEM_DS3505
ZBAA,1984-10-15 15:00,ZBAA 151500Z AUTO 36008KT 4SM 17/08 RMK SLP161 T01700078 52019 IEM_DS3505
ZBAA,1984-10-15 18:00,ZBAA 151800Z AUTO 34008KT 19SM 17/M01 RMK SLP159 T01671008 40215//// 57001 IEM_DS3505
ZBAA,1984-10-15 21:00,ZBAA 152100Z AUTO 07002KT 16SM 11/02 RMK SLP156 T01100024 57004 IEM_DS3505
ZBAA,1984-10-16 00:00,ZBAA 160000Z AUTO 29008KT 4SM 14/03 RMK SLP158 T01400026 52002 IEM_DS3505
ZBAA,1984-10-16 01:00,ZBAA 160100Z AUTO 30008KT 7SM 18/02 A2997 RMK T01800020 IEM_DS3505
ZBAA,1984-10-16 02:00,ZBAA 160200Z AUTO 30010KT 7SM 20/00 A2994 RMK T02000000 IEM_DS3505
ZBAA,1984-10-16 03:00,ZBAA 160300Z AUTO 18008KT 12SM 21/M00 A2991 RMK SLP144 T02101003 57013 IEM_DS3505
ZBAA,1984-10-16 04:00,ZBAA 160400Z AUTO 28012KT 7SM 22/M07 A2988 RMK T02201070 IEM_DS3505
ZBAA,1984-10-16 05:00,ZBAA 160500Z AUTO 21010KT 7SM 23/M03 A2985 RMK T02301030 IEM_DS3505
ZBAA,1984-10-16 06:00,ZBAA 160600Z AUTO 20008KT 19SM 23/00 A2983 RMK SLP112 T02290001 4////0084 57031 IEM_DS3505
ZBAA,1984-10-16 07:00,ZBAA 160700Z AUTO 29017KT 7SM 24/M09 A2980 RMK T02401090 IEM_DS3505
ZBAA,1984-10-16 08:00,ZBAA 160800Z AUTO 30014KT 7SM 24/M08 A2977 RMK T02401080 IEM_DS3505
ZBAA,1984-10-16 09:00,ZBAA 160900Z AUTO 20008KT 16SM 22/M00 RMK SLP094 T02181001 57019 IEM_DS3505
ZBAA,1984-10-16 11:00,ZBAA 161100Z AUTO 33004KT 7SM 17/02 A2980 RMK T01700020 IEM_DS3505
ZBAA,1984-10-16 12:00,ZBAA 161200Z AUTO 25004KT 16SM 18/01 A2980 RMK SLP099 T01780012 52005 IEM_DS3505
ZBAA,1984-10-16 13:00,ZBAA 161300Z AUTO 26006KT 7SM 16/02 A2980 RMK T01600020 IEM_DS3505
ZBAA,1984-10-16 15:00,ZBAA 161500Z AUTO 29004KT 12SM 16/M02 RMK SLP115 T01651015 52016 IEM_DS3505
ZBAA,1984-10-16 18:00,ZBAA 161800Z AUTO 34006KT 12SM 16/M02 RMK SLP117 T01571018 40241//// 52002 IEM_DS3505
ZBAA,1984-10-16 21:00,ZBAA 162100Z AUTO 27006KT 12SM 10/02 RMK SLP118 T01040018 54000 IEM_DS3505
ZBAA,1984-10-17 00:00,ZBAA 170000Z AUTO 08008KT 9SM 15/02 RMK SLP149 T01490024 IEM_DS3505
ZBAA,1984-10-17 03:00,ZBAA 170300Z AUTO 36002KT 19SM 22/00 RMK SLP138 T02190001 54000 IEM_DS3505
ZBAA,1984-10-17 06:00,ZBAA 170600Z AUTO 02004KT 19SM 23/M01 RMK SLP121 T02341008 4////0097 57017 IEM_DS3505
ZBAA,1984-10-17 09:00,ZBAA 170900Z AUTO 16004KT 12SM 22/00 RMK SLP123 T02200001 52001 IEM_DS3505
ZBAA,1984-10-17 12:00,ZBAA 171200Z AUTO 22002KT 12SM 15/05 RMK SLP132 T01520048 52009 IEM_DS3505
ZBAA,1984-10-17 15:00,ZBAA 171500Z AUTO 34004KT 9SM 11/06 RMK SLP150 T01140060 52018 IEM_DS3505
ZBAA,1984-10-17 18:00,ZBAA 171800Z AUTO 04004KT 6SM 12/04 RMK SLP156 T01150044 40238//// 52007 IEM_DS3505
ZBAA,1984-10-17 21:00,ZBAA 172100Z AUTO 36002KT 4SM 09/05 RMK SLP186 T00860053 52029 IEM_DS3505
ZBAA,1984-10-18 00:00,ZBAA 180000Z AUTO 07004KT 5SM 11/04 RMK SLP213 T01100043 52027 IEM_DS3505
ZBAA,1984-10-18 03:00,ZBAA 180300Z AUTO 09004KT 5SM 13/03 RMK SLP219 T01320032 52005 IEM_DS3505
ZBAA,1984-10-18 06:00,ZBAA 180600Z AUTO 04002KT 5SM 14/04 RMK SLP199 T01390039 4////0080 57019 IEM_DS3505
ZBAA,1984-10-18 09:00,ZBAA 180900Z AUTO 09008KT 4SM 14/04 RMK SLP194 T01380044 57005 IEM_DS3505
ZBAA,1984-10-18 11:00,ZBAA 181100Z AUTO 16010KT 6SM 11/04 RMK SLP199 T01140041 52005 IEM_DS3505
ZBAA,1984-10-18 12:00,ZBAA 181200Z AUTO 16010KT 6SM 11/04 RMK SLP199 T01140041 52005 IEM_DS3505
ZBAA,1984-10-18 15:00,ZBAA 181500Z AUTO 16012KT 2SM 10/06 RMK SLP180 T00950060 57019 IEM_DS3505
ZBAA,1984-10-18 18:00,ZBAA 181800Z AUTO 34002KT 5SM 08/07 RMK 60028 SLP171 T00820069 40144//// 57009 IEM_DS3505
ZBAA,1984-10-18 21:00,ZBAA 182100Z AUTO 34012KT 16SM 10/M02 RMK SLP180 T00961018 52009 IEM_DS3505
ZBAA,1984-10-19 00:00,ZBAA 190000Z AUTO 32008KT 19SM 11/M04 RMK SLP206 T01071039 52026 IEM_DS3505
ZBAA,1984-10-19 03:00,ZBAA 190300Z AUTO 34012KT 19SM 12/M06 RMK SLP231 T01251065 52024 IEM_DS3505
ZBAA,1984-10-19 06:00,ZBAA 190600Z AUTO 32010KT 19SM 14/M06 RMK SLP237 T01431065 4////0070 52006 IEM_DS3505
ZBAA,1984-10-19 09:00,ZBAA 190900Z AUTO 29006KT 19SM 14/M10 RMK SLP247 T01361100 52010 IEM_DS3505
ZBAA,1984-10-19 12:00,ZBAA 191200Z AUTO 34006KT 19SM 11/M06 RMK T01141065 52025 IEM_DS3505
ZBAA,1984-10-19 15:00,ZBAA 191500Z AUTO 34002KT 19SM 06/M03 RMK SLP276 T00651031 52003 IEM_DS3505
ZBAA,1984-10-19 18:00,ZBAA 191800Z AUTO 00000KT 19SM 04/M00 RMK SLP275 T00361003 40147//// 57001 IEM_DS3505
ZBAA,1984-10-19 21:00,ZBAA 192100Z AUTO 20006KT 16SM 04/M03 RMK SLP256 T00441026 57019 IEM_DS3505
ZBAA,1984-10-20 00:00,ZBAA 200000Z AUTO 18006KT 6SM 07/M04 RMK SLP249 T00711037 57007 IEM_DS3505
ZBAA,1984-10-20 02:00,ZBAA 200200Z AUTO 27004KT 7SM 11/M02 A3021 RMK T01101020 IEM_DS3505
ZBAA,1984-10-20 03:00,ZBAA 200300Z AUTO 16002KT 6SM 15/M03 A3018 RMK SLP236 T01471034 57013 IEM_DS3505
ZBAA,1984-10-20 04:00,ZBAA 200400Z AUTO 00000KT 7SM 16/M03 A3018 RMK T01601030 IEM_DS3505
ZBAA,1984-10-20 05:00,ZBAA 200500Z AUTO 02006KT 7SM 17/M01 A3015 RMK T01701010 IEM_DS3505
ZBAA,1984-10-20 06:00,ZBAA 200600Z AUTO 20006KT 9SM 18/M02 A3012 RMK SLP209 T01761018 4////0032 57026 IEM_DS3505
ZBAA,1984-10-20 07:00,ZBAA 200700Z AUTO 29008KT 7SM 18/M01 A3009 RMK T01801010 IEM_DS3505
ZBAA,1984-10-20 08:00,ZBAA 200800Z AUTO 12010KT 7SM 17/00 A3009 RMK T01700000 IEM_DS3505
ZBAA,1984-10-20 09:00,ZBAA 200900Z AUTO 18004KT 7SM 17/01 RMK SLP202 T01710008 57007 IEM_DS3505
ZBAA,1984-10-20 10:00,ZBAA 201000Z AUTO 00000KT 7SM 13/03 A3009 RMK T01300030 IEM_DS3505
ZBAA,1984-10-20 12:00,ZBAA 201200Z AUTO 02002KT 6SM 10/04 RMK SLP211 T01040036 52009 IEM_DS3505
ZBAA,1984-10-20 15:00,ZBAA 201500Z AUTO 07002KT 6SM 07/04 RMK SLP229 T00690036 52017 IEM_DS3505
ZBAA,1984-10-20 18:00,ZBAA 201800Z AUTO 34002KT 6SM 07/01 RMK SLP235 T00670012 40184//// 52007 IEM_DS3505
ZBAA,1984-10-20 21:00,ZBAA 202100Z AUTO 02002KT 6SM 05/01 RMK SLP224 T00510012 57011 IEM_DS3505
ZBAA,1984-10-21 00:00,ZBAA 210000Z AUTO 00000KT 5SM 06/03 RMK SLP213 T00610030 57011 IEM_DS3505
ZBAA,1984-10-21 03:00,ZBAA 210300Z AUTO 02006KT 7SM 12/02 RMK SLP196 T01150024 57017 IEM_DS3505
ZBAA,1984-10-21 06:00,ZBAA 210600Z AUTO 14002KT 7SM 15/05 RMK SLP154 T01470053 4////0033 57042 IEM_DS3505
ZBAA,1984-10-21 09:00,ZBAA 210900Z AUTO 20004KT 6SM 14/06 RMK SLP137 T01450062 57017 IEM_DS3505
ZBAA,1984-10-21 12:00,ZBAA 211200Z AUTO 00000KT 5SM 09/07 RMK SLP140 T00920068 52003 IEM_DS3505
ZBAA,1984-10-21 15:00,ZBAA 211500Z AUTO 02002KT 5SM 08/06 RMK SLP133 T00810057 57007 IEM_DS3505
ZBAA,1984-10-21 18:00,ZBAA 211800Z AUTO 00000KT 4SM 06/05 RMK SLP111 T00580046 40162//// 57021 IEM_DS3505
ZBAA,1984-10-21 21:00,ZBAA 212100Z AUTO 00000KT 3SM 06/05 RMK SLP092 T00600048 57019 IEM_DS3505
ZBAA,1984-10-22 00:00,ZBAA 220000Z AUTO 07002KT 1 1/4SM 07/05 RMK SLP095 T00670053 52002 IEM_DS3505
ZBAA,1984-10-22 03:00,ZBAA 220300Z AUTO 36006KT 2 1/2SM 16/06 RMK SLP097 T01650056 52003 IEM_DS3505
ZBAA,1984-10-22 06:00,ZBAA 220600Z AUTO 36008KT 12SM 24/00 RMK SLP077 T02350004 4////0049 57019 IEM_DS3505
ZBAA,1984-10-22 09:00,ZBAA 220900Z AUTO 32008KT 16SM 21/M00 RMK SLP084 T02131001 52007 IEM_DS3505
ZBAA,1984-10-22 12:00,ZBAA 221200Z AUTO 00000KT 12SM 13/04 RMK SLP108 T01340038 52022 IEM_DS3505
ZBAA,1984-10-22 15:00,ZBAA 221500Z AUTO 34002KT 9SM 09/05 RMK SLP124 T00940053 52017 IEM_DS3505
ZBAA,1984-10-22 18:00,ZBAA 221800Z AUTO 02002KT 7SM 09/03 RMK SLP134 T00920034 40237//// 52010 IEM_DS3505
ZBAA,1984-10-22 21:00,ZBAA 222100Z AUTO 04002KT 7SM 08/03 RMK SLP138 T00790032 52004 IEM_DS3505
ZBAA,1984-10-23 00:00,ZBAA 230000Z AUTO 00000KT 4SM 08/05 RMK SLP155 T00800051 52016 IEM_DS3505
ZBAA,1984-10-23 03:00,ZBAA 230300Z AUTO 02006KT 5SM 16/08 RMK SLP157 T01640082 52003 IEM_DS3505
ZBAA,1984-10-23 04:00,ZBAA 230400Z AUTO 00000KT 7SM 18/10 A2994 RMK T01800100 IEM_DS3505
ZBAA,1984-10-23 05:00,ZBAA 230500Z AUTO 00000KT 7SM 20/10 A2994 RMK T02000100 IEM_DS3505
ZBAA,1984-10-23 06:00,ZBAA 230600Z AUTO 16002KT 4SM 21/07 A2991 RMK SLP138 T02080069 4////0059 57019 IEM_DS3505
ZBAA,1984-10-23 07:00,ZBAA 230700Z AUTO 22002KT 7SM 21/06 A2988 RMK T02100060 IEM_DS3505
ZBAA,1984-10-23 08:00,ZBAA 230800Z AUTO 00000KT 7SM 21/08 A2988 RMK T02100080 IEM_DS3505
ZBAA,1984-10-23 09:00,ZBAA 230900Z AUTO 00000KT 2 1/2SM 20/10 A2991 RMK SLP136 T01970096 57002 IEM_DS3505
ZBAA,1984-10-23 12:00,ZBAA 231200Z AUTO 00000KT 3SM 13/10 RMK SLP153 T01290096 52016 IEM_DS3505
ZBAA,1984-10-23 15:00,ZBAA 231500Z AUTO 00000KT 2 1/2SM 10/08 RMK SLP161 T00980083 52009 IEM_DS3505
ZBAA,1984-10-23 18:00,ZBAA 231800Z AUTO 04002KT 2SM 10/08 RMK SLP158 T01000075 40216//// 57003 IEM_DS3505
ZBAA,1984-10-23 21:00,ZBAA 232100Z AUTO 00000KT 2SM 08/06 RMK SLP158 T00750064 54000 IEM_DS3505
ZBAA,1984-10-24 00:00,ZBAA 240000Z AUTO 00000KT 1 1/4SM 09/07 RMK SLP167 T00930074 52009 IEM_DS3505
ZBAA,1984-10-24 03:00,ZBAA 240300Z AUTO 07006KT 3SM 18/08 RMK SLP161 T01750075 57006 IEM_DS3505
ZBAA,1984-10-24 06:00,ZBAA 240600Z AUTO 09002KT 4SM 21/09 RMK SLP139 T02140086 4////0066 57022 IEM_DS3505
ZBAA,1984-10-24 09:00,ZBAA 240900Z AUTO 00000KT 3SM 19/12 RMK SLP137 T01910122 57002 IEM_DS3505
ZBAA,1984-10-24 12:00,ZBAA 241200Z AUTO 00000KT 2SM 13/11 RMK SLP149 T01310108 52012 IEM_DS3505
ZBAA,1984-10-24 15:00,ZBAA 241500Z AUTO 00000KT 2SM 11/10 RMK SLP162 T01130095 52013 IEM_DS3505
ZBAA,1984-10-24 18:00,ZBAA 241800Z AUTO 07002KT 1 1/2SM 10/09 RMK SLP174 T01020086 40217//// 52012 IEM_DS3505
ZBAA,1984-10-24 21:00,ZBAA 242100Z AUTO 02006KT 1 1/2SM 12/09 RMK SLP196 T01170089 52020 IEM_DS3505
ZBAA,1984-10-25 00:00,ZBAA 250000Z AUTO 14002KT 5SM 14/08 RMK SLP236 T01400085 52039 IEM_DS3505
ZBAA,1984-10-25 03:00,ZBAA 250300Z AUTO 18008KT 6SM 14/07 RMK SLP247 T01370069 52011 IEM_DS3505
ZBAA,1984-10-25 06:00,ZBAA 250600Z AUTO 16006KT 7SM 13/06 RMK SLP238 T01300064 4////0096 57009 IEM_DS3505
ZBAA,1984-10-25 09:00,ZBAA 250900Z AUTO 00000KT 6SM 12/08 RMK SLP237 T01240077 57001 IEM_DS3505
ZBAA,1984-10-25 12:00,ZBAA 251200Z AUTO 14004KT 5SM 12/05 RMK SLP240 T01240048 52003 IEM_DS3505
ZBAA,1984-10-25 15:00,ZBAA 251500Z AUTO 16006KT 4SM 12/02 RMK SLP242 T01150018 52002 IEM_DS3505
ZBAA,1984-10-25 18:00,ZBAA 251800Z AUTO 20002KT 5SM 10/03 RMK SLP235 T01020030 40152//// 57007 IEM_DS3505
ZBAA,1984-10-25 21:00,ZBAA 252100Z AUTO 20002KT 5SM 09/05 RMK SLP223 T00940053 57013 IEM_DS3505
ZBAA,1984-10-26 00:00,ZBAA 260000Z AUTO 20002KT 5SM 09/05 RMK SLP226 T00880054 52003 IEM_DS3505
ZBAA,1984-10-26 03:00,ZBAA 260300Z AUTO 20004KT 4SM 11/05 RMK SLP214 T01060051 57010 IEM_DS3505
ZBAA,1984-10-26 06:00,ZBAA 260600Z AUTO 22008KT 6SM 15/08 RMK SLP182 T01490075 4////0084 57032 IEM_DS3505
ZBAA,1984-10-26 09:00,ZBAA 260900Z AUTO 20008KT 4SM 14/08 RMK SLP172 T01420078 57010 IEM_DS3505
ZBAA,1984-10-26 12:00,ZBAA 261200Z AUTO 29004KT 4SM 12/07 RMK SLP182 T01170072 52009 IEM_DS3505
ZBAA,1984-10-26 15:00,ZBAA 261500Z AUTO 32008KT 6SM 12/M02 RMK SLP198 T01161023 52017 IEM_DS3505
ZBAA,1984-10-26 18:00,ZBAA 261800Z AUTO 29006KT 12SM 11/M04 RMK SLP204 T01111037 40156//// 52006 IEM_DS3505
ZBAA,1984-10-26 21:00,ZBAA 262100Z AUTO 34006KT 16SM 10/M06 RMK SLP203 T01021058 57001 IEM_DS3505
ZBAA,1984-10-27 00:00,ZBAA 270000Z AUTO 04004KT 7SM 10/M04 RMK SLP211 T01011045 52007 IEM_DS3505
ZBAA,1984-10-27 02:00,ZBAA 270200Z AUTO 36010KT 7SM 13/M10 A3012 RMK T01301100 IEM_DS3505
ZBAA,1984-10-27 03:00,ZBAA 270300Z AUTO 34012KT 19SM 14/M06 RMK SLP205 T01401058 57005 IEM_DS3505
ZBAA,1984-10-27 04:00,ZBAA 270400Z AUTO 35010KT 7SM 14/M10 A3009 RMK T01401100 IEM_DS3505
ZBAA,1984-10-27 05:00,ZBAA 270500Z AUTO 31017KT 7SM 15/M10 A3006 RMK T01501100 IEM_DS3505
ZBAA,1984-10-27 06:00,ZBAA 270600Z AUTO 34017KT 19SM 15/M06 A3006 RMK SLP191 T01481058 4////0072 57014 IEM_DS3505
ZBAA,1984-10-27 07:00,ZBAA 270700Z AUTO 32014KT 7SM 15/M09 A3006 RMK T01501090 IEM_DS3505
ZBAA,1984-10-27 08:00,ZBAA 270800Z AUTO 31017KT 7SM 15/M08 A3006 RMK T01501080 IEM_DS3505
ZBAA,1984-10-27 09:00,ZBAA 270900Z AUTO 29010KT 19SM 12/M06 A3006 RMK SLP197 T01241065 52006 IEM_DS3505
ZBAA,1984-10-27 10:00,ZBAA 271000Z AUTO 34010KT 7SM 11/M07 A3009 RMK T01101070 IEM_DS3505
ZBAA,1984-10-27 11:00,ZBAA 271100Z AUTO 34016KT 7SM 10/M11 A3015 RMK T01001110 IEM_DS3505
ZBAA,1984-10-27 12:00,ZBAA 271200Z AUTO 34004KT 19SM 09/M05 A3015 RMK SLP224 T00891052 52025 IEM_DS3505
ZBAA,1984-10-27 15:00,ZBAA 271500Z AUTO 34006KT 19SM 07/M05 RMK SLP244 T00671052 52020 IEM_DS3505
ZBAA,1984-10-27 18:00,ZBAA 271800Z AUTO 36008KT 19SM 06/M04 RMK SLP212 T00641039 40153//// 57002 IEM_DS3505
ZBAA,1984-10-27 21:00,ZBAA 272100Z AUTO 34004KT 19SM 06/M03 RMK T00571034 52001 IEM_DS3505
ZBAA,1984-10-28 00:00,ZBAA 280000Z AUTO 04004KT 19SM 08/M02 RMK SLP248 T00751015 52005 IEM_DS3505
ZBAA,1984-10-28 03:00,ZBAA 280300Z AUTO 34012KT 19SM 12/M07 RMK SLP250 T01151072 52002 IEM_DS3505
ZBAA,1984-10-28 06:00,ZBAA 280600Z AUTO 29010KT 19SM 13/M07 RMK SLP236 T01291072 4////0040 57014 IEM_DS3505
ZBAA,1984-10-28 09:00,ZBAA 280900Z AUTO 32008KT 19SM 12/M09 RMK SLP225 T01211087 57011 IEM_DS3505
ZBAA,1984-10-28 12:00,ZBAA 281200Z AUTO 36006KT 19SM 08/M06 RMK SLP236 T00831058 52011 IEM_DS3505
ZBAA,1984-10-28 15:00,ZBAA 281500Z AUTO 02006KT 19SM 07/M04 RMK SLP250 T00711045 52014 IEM_DS3505
ZBAA,1984-10-28 18:00,ZBAA 281800Z AUTO 36002KT 19SM 04/M04 RMK SLP248 T00361039 40134//// 57002 IEM_DS3505
ZBAA,1984-10-28 21:00,ZBAA 282100Z AUTO 18002KT 12SM 02/M03 RMK SLP250 T00161028 52001 IEM_DS3505
ZBAA,1984-10-29 00:00,ZBAA 290000Z AUTO 00000KT 4SM 05/M02 RMK SLP253 T00471023 52003 IEM_DS3505
ZBAA,1984-10-29 03:00,ZBAA 290300Z AUTO 20006KT 6SM 12/M06 RMK SLP246 T01151055 57006 IEM_DS3505
ZBAA,1984-10-29 06:00,ZBAA 290600Z AUTO 22004KT 12SM 14/M06 RMK SLP222 T01351058 4////0008 57024 IEM_DS3505
ZBAA,1984-10-29 09:00,ZBAA 290900Z AUTO 20004KT 9SM 12/M04 RMK SLP220 T01231042 57002 IEM_DS3505
ZBAA,1984-10-29 12:00,ZBAA 291200Z AUTO 00000KT 6SM 06/01 RMK T00560006 52015 IEM_DS3505
ZBAA,1984-10-29 15:00,ZBAA 291500Z AUTO 00000KT 6SM 03/01 RMK SLP250 T00320008 52015 IEM_DS3505
ZBAA,1984-10-29 18:00,ZBAA 291800Z AUTO 07002KT 4SM 03/M02 RMK SLP261 T00341018 40141//// 52011 IEM_DS3505
ZBAA,1984-10-29 21:00,ZBAA 292100Z AUTO 02002KT 4SM 01/M02 RMK T00091018 52002 IEM_DS3505
ZBAA,1984-10-30 00:00,ZBAA 300000Z AUTO 02002KT 4SM 03/M01 RMK SLP277 T00271013 52013 IEM_DS3505
ZBAA,1984-10-30 03:00,ZBAA 300300Z AUTO 02002KT 3SM 11/M04 RMK SLP273 T01091037 57003 IEM_DS3505
ZBAA,1984-10-30 04:00,ZBAA 300400Z AUTO 15004KT 7SM 13/M04 A3030 RMK T01301040 IEM_DS3505
ZBAA,1984-10-30 05:00,ZBAA 300500Z AUTO 11006KT 7SM 14/M03 A3024 RMK T01401030 IEM_DS3505
ZBAA,1984-10-30 06:00,ZBAA 300600Z AUTO 09002KT 4SM 14/M02 A3021 RMK SLP238 T01441015 4////0003 57035 IEM_DS3505
ZBAA,1984-10-30 07:00,ZBAA 300700Z AUTO 17006KT 7SM 15/M03 A3018 RMK T01501030 IEM_DS3505
ZBAA,1984-10-30 08:00,ZBAA 300800Z AUTO 20006KT 7SM 14/M02 A3018 RMK T01401020 IEM_DS3505
ZBAA,1984-10-30 09:00,ZBAA 300900Z AUTO 18002KT 4SM 13/01 A3018 RMK SLP226 T01310008 57012 IEM_DS3505
ZBAA,1984-10-30 10:00,ZBAA 301000Z AUTO 00000KT 3SM 11/02 A3015 RMK T01100020 IEM_DS3505
ZBAA,1984-10-30 11:00,ZBAA 301100Z AUTO 00000KT 2 1/2SM 08/02 A3015 RMK T00800020 IEM_DS3505
ZBAA,1984-10-30 12:00,ZBAA 301200Z AUTO 00000KT 2 1/2SM 07/03 A3018 RMK SLP227 T00740032 54000 IEM_DS3505
ZBAA,1984-10-30 15:00,ZBAA 301500Z AUTO 04002KT 2 1/2SM 08/01 RMK SLP225 T00850010 57001 IEM_DS3505
ZBAA,1984-10-30 18:00,ZBAA 301800Z AUTO 00000KT 2 1/2SM 06/02 RMK SLP215 T00610024 40148//// 57009 IEM_DS3505
ZBAA,1984-10-30 21:00,ZBAA 302100Z AUTO 02002KT 2 1/2SM 07/01 RMK SLP212 T00690010 57003 IEM_DS3505
ZBAA,1984-10-31 00:00,ZBAA 310000Z AUTO 07002KT 2SM 09/00 RMK SLP220 T00930004 52007 IEM_DS3505
ZBAA,1984-10-31 03:00,ZBAA 310300Z AUTO 29006KT 9SM 17/M01 RMK SLP220 T01711008 52001 IEM_DS3505
ZBAA,1984-10-31 06:00,ZBAA 310600Z AUTO 29014KT 12SM 19/M09 RMK SLP202 T01861092 57017 IEM_DS3505
ZBAA,1984-10-31 09:00,ZBAA 310900Z AUTO 32012KT 12SM 17/M07 RMK SLP200 T01701068 57002 IEM_DS3505
ZBAA,1984-10-31 12:00,ZBAA 311200Z AUTO 32008KT 9SM 15/M10 RMK SLP222 T01541105 52021 IEM_DS3505
ZBAA,1984-10-31 15:00,ZBAA 311500Z AUTO 18002KT 9SM 13/M06 RMK SLP241 T01281058 52020 IEM_DS3505
ZBAA,1984-10-31 18:00,ZBAA 311800Z AUTO 34004KT 9SM 11/M08 RMK SLP249 T01091076 40192//// 52007 IEM_DS3505
ZBAA,1984-10-31 21:00,ZBAA 312100Z AUTO 36008KT 9SM 07/M06 RMK SLP256 T00671055 52007 IEM_DS3505
ZBAA,1984-11-01 00:00,ZBAA 010000Z AUTO 32004KT 19SM 10/M09 RMK SLP274 T01001087 52018 IEM_DS3505
ZBAA,1984-11-01 03:00,ZBAA 010300Z AUTO 34002KT 19SM 15/M09 RMK SLP271 T01461087 57003 IEM_DS3505
ZBAA,1984-11-01 06:00,ZBAA 010600Z AUTO 27010KT 19SM 18/M11 RMK SLP249 T01771114 4////0063 57022 IEM_DS3505
ZBAA,1984-11-01 09:00,ZBAA 010900Z AUTO 20010KT 19SM 15/M08 RMK SLP246 T01541076 57003 IEM_DS3505
ZBAA,1984-11-01 12:00,ZBAA 011200Z AUTO 20006KT 19SM 11/M04 RMK SLP254 T01131039 52007 IEM_DS3505
ZBAA,1984-11-01 15:00,ZBAA 011500Z AUTO 20004KT 16SM 09/M02 RMK SLP255 T00911023 52002 IEM_DS3505
ZBAA,1984-11-01 18:00,ZBAA 011800Z AUTO 18002KT 9SM 04/M00 RMK SLP255 T00391001 40181//// 57001 IEM_DS3505
ZBAA,1984-11-01 21:00,ZBAA 012100Z AUTO 34004KT 9SM 03/M03 RMK SLP251 T00331026 57004 IEM_DS3505
ZBAA,1984-11-02 00:00,ZBAA 020000Z AUTO 02004KT 4SM 05/M02 RMK SLP252 T00501023 52001 IEM_DS3505
ZBAA,1984-11-02 03:00,ZBAA 020300Z AUTO 04004KT 4SM 12/M01 RMK SLP240 T01171013 57012 IEM_DS3505
ZBAA,1984-11-02 06:00,ZBAA 020600Z AUTO 18002KT 4SM 17/M01 RMK SLP204 T01691008 4////0023 57035 IEM_DS3505
ZBAA,1984-11-02 09:00,ZBAA 020900Z AUTO 16004KT 4SM 15/01 RMK SLP193 T01470010 57011 IEM_DS3505
ZBAA,1984-11-02 11:00,ZBAA 021100Z AUTO 07002KT 1SM 05/02 RMK SLP187 T00540016 57006 IEM_DS3505
ZBAA,1984-11-02 12:00,ZBAA 021200Z AUTO 00000KT 3SM 08/03 RMK SLP196 T00770026 52002 IEM_DS3505
ZBAA,1984-11-02 15:00,ZBAA 021500Z AUTO 00000KT 2 1/2SM 05/03 RMK SLP194 T00510026 57001 IEM_DS3505
ZBAA,1984-11-02 18:00,ZBAA 021800Z AUTO 07002KT 2 1/2SM 05/M01 RMK SLP187 T00541006 40170//// 57006 IEM_DS3505
ZBAA,1984-11-02 21:00,ZBAA 022100Z AUTO 00000KT 2 1/2SM 02/00 RMK SLP179 T00250001 57009 IEM_DS3505
ZBAA,1984-11-03 00:00,ZBAA 030000Z AUTO 00000KT 1 1/4SM 03/00 RMK SLP179 T00310004 57001 IEM_DS3505
ZBAA,1984-11-03 01:00,ZBAA 030100Z AUTO 01004KT 3SM 07/00 A3003 RMK T00700000 IEM_DS3505
ZBAA,1984-11-03 02:00,ZBAA 030200Z AUTO 00000KT 3SM 11/02 A3000 RMK T01100020 IEM_DS3505
ZBAA,1984-11-03 03:00,ZBAA 030300Z AUTO 00000KT 2SM 16/03 RMK SLP168 T01550026 57010 IEM_DS3505
ZBAA,1984-11-03 04:00,ZBAA 030400Z AUTO 22004KT 4SM 17/M01 A2997 RMK T01701010 IEM_DS3505
ZBAA,1984-11-03 06:00,ZBAA 030600Z AUTO 18004KT 2 1/2SM 18/M02 A2991 RMK SLP136 T01851023 4////0012 57031 IEM_DS3505
ZBAA,1984-11-03 07:00,ZBAA 030700Z AUTO 18008KT 6SM 19/M03 A2988 RMK T01901030 IEM_DS3505
ZBAA,1984-11-03 08:00,ZBAA 030800Z AUTO 19008KT 5SM 18/M01 A2988 RMK T01801010 IEM_DS3505
ZBAA,1984-11-03 09:00,ZBAA 030900Z AUTO 20002KT 2 1/2SM 16/02 A2988 RMK SLP126 T01640022 57011 IEM_DS3505
ZBAA,1984-11-03 12:00,ZBAA 031200Z AUTO 00000KT 2SM 11/02 RMK SLP125 T01140024 57001 IEM_DS3505
ZBAA,1984-11-03 15:00,ZBAA 031500Z AUTO 07002KT 2 1/2SM 10/01 RMK SLP118 T00970014 57006 IEM_DS3505
ZBAA,1984-11-03 18:00,ZBAA 031800Z AUTO 07004KT 07/01 RMK SLP105 T00660008 57013 IEM_DS3505
ZBAA,1984-11-03 21:00,ZBAA 032100Z AUTO 00000KT 2SM 06/01 RMK SLP109 T00560010 52004 IEM_DS3505
ZBAA,1984-11-04 00:00,ZBAA 040000Z AUTO 20002KT 5SM 11/M01 RMK SLP138 T01061013 52029 IEM_DS3505
ZBAA,1984-11-04 03:00,ZBAA 040300Z AUTO 27010KT 7SM 18/M07 RMK SLP143 T01821068 52005 IEM_DS3505
ZBAA,1984-11-04 06:00,ZBAA 040600Z AUTO 16008KT 6SM 21/M05 RMK SLP134 T02061052 4////0048 57009 IEM_DS3505
ZBAA,1984-11-04 09:00,ZBAA 040900Z AUTO 18004KT 5SM 18/M01 RMK SLP136 T01801008 52002 IEM_DS3505
ZBAA,1984-11-04 12:00,ZBAA 041200Z AUTO 18002KT 4SM 10/03 RMK SLP152 T01010030 52015 IEM_DS3505
ZBAA,1984-11-04 15:00,ZBAA 041500Z AUTO 00000KT 3SM 08/01 RMK SLP166 T00790014 52015 IEM_DS3505
ZBAA,1984-11-04 18:00,ZBAA 041800Z AUTO 07002KT 2 1/2SM 05/01 RMK SLP173 T00540008 40214//// 52007 IEM_DS3505
ZBAA,1984-11-04 21:00,ZBAA 042100Z AUTO 02002KT 2 1/2SM 06/M01 RMK SLP177 T00601013 52004 IEM_DS3505
ZBAA,1984-11-05 00:00,ZBAA 050000Z AUTO 04002KT 2SM 05/M00 RMK SLP193 T00521003 52015 IEM_DS3505
ZBAA,1984-11-05 01:00,ZBAA 050100Z AUTO 09004KT 2 1/2SM RMK SLP172 IEM_DS3505
ZBAA,1984-11-05 03:00,ZBAA 050300Z AUTO 36004KT 2 1/2SM 14/M02 RMK SLP197 T01361023 52004 IEM_DS3505
ZBAA,1984-11-05 06:00,ZBAA 050600Z AUTO 09004KT 2 1/2SM 17/02 RMK SLP172 T01720022 4////0031 57024 IEM_DS3505
ZBAA,1984-11-05 09:00,ZBAA 050900Z AUTO 34002KT 1 1/4SM 15/05 RMK SLP163 T01520054 57010 IEM_DS3505
ZBAA,1984-11-05 12:00,ZBAA 051200Z AUTO 34002KT 1 1/4SM 12/05 RMK SLP170 T01190053 52007 IEM_DS3505
ZBAA,1984-11-05 15:00,ZBAA 051500Z AUTO 02004KT 2 1/2SM 11/05 RMK SLP168 T01060049 57001 IEM_DS3505
ZBAA,1984-11-05 18:00,ZBAA 051800Z AUTO 09004KT 2SM 12/05 RMK SLP175 T01170049 40182//// 52007 IEM_DS3505
ZBAA,1984-11-05 21:00,ZBAA 052100Z AUTO 36008KT 2SM 14/M06 RMK SLP187 T01391055 52012 IEM_DS3505
ZBAA,1984-11-06 00:00,ZBAA 060000Z AUTO 34012KT 3SM 12/M11 RMK SLP203 T01241109 52016 IEM_DS3505
ZBAA,1984-11-06 03:00,ZBAA 060300Z AUTO 36008KT 5SM 15/M11 RMK SLP209 T01491114 52006 IEM_DS3505
ZBAA,1984-11-06 06:00,ZBAA 060600Z AUTO 34010KT 5SM 17/M12 RMK SLP189 T01681119 4////0101 57020 IEM_DS3505
ZBAA,1984-11-06 09:00,ZBAA 060900Z AUTO 36006KT 3SM 15/M08 RMK SLP186 T01481079 57003 IEM_DS3505
ZBAA,1984-11-06 12:00,ZBAA 061200Z AUTO 00000KT 2 1/2SM 10/M02 RMK SLP198 T00961015 52012 IEM_DS3505
ZBAA,1984-11-06 15:00,ZBAA 061500Z AUTO 00000KT 2 1/2SM 09/M03 RMK SLP200 T00901026 52002 IEM_DS3505
ZBAA,1984-11-06 18:00,ZBAA 061800Z AUTO 00000KT 2 1/2SM 05/M00 RMK SLP197 T00521003 40174//// 57003 IEM_DS3505
ZBAA,1984-11-06 21:00,ZBAA 062100Z AUTO 00000KT 2 1/2SM 03/M02 RMK SLP191 T00321020 57007 IEM_DS3505
ZBAA,1984-11-07 00:00,ZBAA 070000Z AUTO 00000KT 1 1/4SM 03/M01 RMK SLP194 T00341010 52002 IEM_DS3505
ZBAA,1984-11-07 03:00,ZBAA 070300Z AUTO 18004KT 1 1/4SM 13/M04 RMK SLP190 T01331039 57002 IEM_DS3505
ZBAA,1984-11-07 06:00,ZBAA 070600Z AUTO 22004KT 4SM 17/M04 RMK SLP159 T01691037 4////0025 57031 IEM_DS3505
ZBAA,1984-11-07 09:00,ZBAA 070900Z AUTO 20004KT 2 1/2SM 14/M01 RMK SLP146 T01431006 57014 IEM_DS3505
ZBAA,1984-11-07 12:00,ZBAA 071200Z AUTO 16004KT 2SM 10/00 RMK SLP151 T01040004 52004 IEM_DS3505
ZBAA,1984-11-07 15:00,ZBAA 071500Z AUTO 36002KT 1SM 07/02 RMK SLP150 T00700024 54000 IEM_DS3505
ZBAA,1984-11-07 18:00,ZBAA 071800Z AUTO 07002KT 1 1/4SM 08/M01 RMK SLP153 T00771013 40169//// 52004 IEM_DS3505
ZBAA,1984-11-07 21:00,ZBAA 072100Z AUTO 36008KT 4SM 12/M06 RMK SLP162 T01211061 52009 IEM_DS3505
ZBAA,1984-11-08 00:00,ZBAA 080000Z AUTO 36008KT 4SM 12/M12 RMK SLP191 T01151124 52029 IEM_DS3505
ZBAA,1984-11-08 03:00,ZBAA 080300Z AUTO 34014KT 6SM 15/M14 RMK SLP200 T01461141 52008 IEM_DS3505
ZBAA,1984-11-08 06:00,ZBAA 080600Z AUTO 34008KT 6SM 16/M14 RMK SLP184 T01601141 4////0042 57015 IEM_DS3505
ZBAA,1984-11-08 09:00,ZBAA 080900Z AUTO 34006KT 5SM 13/M08 RMK SLP185 T01321076 52001 IEM_DS3505
ZBAA,1984-11-08 12:00,ZBAA 081200Z AUTO 22006KT 3SM 08/M03 RMK SLP196 T00791028 52010 IEM_DS3505
ZBAA,1984-11-08 15:00,ZBAA 081500Z AUTO 18004KT 5SM 09/M06 RMK SLP203 T00931061 52008 IEM_DS3505
ZBAA,1984-11-08 18:00,ZBAA 081800Z AUTO 20004KT 4SM 06/M05 RMK SLP205 T00641048 40161//// 52002 IEM_DS3505
ZBAA,1984-11-08 21:00,ZBAA 082100Z AUTO 04002KT 4SM 06/M06 RMK SLP207 T00571065 52001 IEM_DS3505
ZBAA,1984-11-09 00:00,ZBAA 090000Z AUTO 04002KT 3SM 05/M06 RMK SLP223 T00501061 52014 IEM_DS3505
ZBAA,1984-11-09 03:00,ZBAA 090300Z AUTO 00000KT 1 1/4SM 11/M03 RMK SLP230 T01081034 52008 IEM_DS3505
ZBAA,1984-11-09 06:00,ZBAA 090600Z AUTO 16006KT 2SM 13/M04 RMK SLP209 T01311045 4////0027 57020 IEM_DS3505
ZBAA,1984-11-09 09:00,ZBAA 090900Z AUTO 16006KT 1 1/2SM 13/M03 RMK SLP197 T01321034 57012 IEM_DS3505
ZBAA,1984-11-09 12:00,ZBAA 091200Z AUTO 00000KT 1 1/4SM 08/M03 RMK SLP205 T00761026 52007 IEM_DS3505
ZBAA,1984-11-09 15:00,ZBAA 091500Z AUTO 00000KT 2SM 06/M01 RMK SLP206 T00581013 52002 IEM_DS3505
ZBAA,1984-11-09 18:00,ZBAA 091800Z AUTO 04004KT 1SM 06/M01 RMK SLP204 T00581008 40149//// 57002 IEM_DS3505
ZBAA,1984-11-09 21:00,ZBAA 092100Z AUTO 07004KT 2SM 05/M03 RMK SLP191 T00511028 57013 IEM_DS3505
ZBAA,1984-11-10 00:00,ZBAA 100000Z AUTO 32002KT 1SM 03/M02 RMK SLP196 T00331015 52004 IEM_DS3505
ZBAA,1984-11-10 01:00,ZBAA 100100Z AUTO 35004KT 4SM 06/M02 A3009 RMK T00601020 IEM_DS3505
ZBAA,1984-11-10 02:00,ZBAA 100200Z AUTO 00000KT 5SM 09/01 A3006 RMK T00900010 IEM_DS3505
ZBAA,1984-11-10 03:00,ZBAA 100300Z AUTO 02004KT 2SM 12/M02 A3006 RMK SLP190 T01181023 57005 IEM_DS3505
ZBAA,1984-11-10 04:00,ZBAA 100400Z AUTO 00000KT 5SM 13/02 A3003 RMK T01300020 IEM_DS3505
ZBAA,1984-11-10 05:00,ZBAA 100500Z AUTO 00000KT 5SM 15/02 A3003 RMK T01500020 IEM_DS3505
ZBAA,1984-11-10 06:00,ZBAA 100600Z AUTO 20002KT 3SM 16/M03 A3000 RMK SLP169 T01621034 4////0029 57020 IEM_DS3505
ZBAA,1984-11-10 07:00,ZBAA 100700Z AUTO 00000KT 5SM 16/02 A2997 RMK T01600020 IEM_DS3505
ZBAA,1984-11-10 08:00,ZBAA 100800Z AUTO 00000KT 5SM 16/02 A2997 RMK T01600020 IEM_DS3505
ZBAA,1984-11-10 09:00,ZBAA 100900Z AUTO 20004KT 2SM 14/M00 A2997 RMK SLP168 T01391001 57002 IEM_DS3505
ZBAA,1984-11-10 10:00,ZBAA 101000Z AUTO 00000KT 4SM 12/02 A3000 RMK T01200020 IEM_DS3505
ZBAA,1984-11-10 11:00,ZBAA 101100Z AUTO 00000KT 4SM 09/02 A3003 RMK T00900020 IEM_DS3505
ZBAA,1984-11-10 12:00,ZBAA 101200Z AUTO 34008KT 4SM 10/M01 RMK SLP190 T01041008 52021 IEM_DS3505
ZBAA,1984-11-10 15:00,ZBAA 101500Z AUTO 00000KT 4SM 06/00 RMK SLP202 T00630004 52013 IEM_DS3505
ZBAA,1984-11-10 18:00,ZBAA 101800Z AUTO 36014KT 6SM 10/M06 RMK SLP210 T00961058 40173//// 52009 IEM_DS3505
ZBAA,1984-11-10 21:00,ZBAA 102100Z AUTO 04006KT 12SM 06/M09 RMK SLP224 T00631092 52002 IEM_DS3505
ZBAA,1984-11-11 00:00,ZBAA 110000Z AUTO 07008KT 9SM 06/M14 RMK SLP254 T00581141 52030 IEM_DS3505
ZBAA,1984-11-11 03:00,ZBAA 110300Z AUTO 02004KT 9SM 09/M14 RMK SLP268 T00891135 52014 IEM_DS3505
ZBAA,1984-11-11 06:00,ZBAA 110600Z AUTO 18008KT 7SM 12/M10 RMK SLP249 T01241105 4////0048 57018 IEM_DS3505
ZBAA,1984-11-11 09:00,ZBAA 110900Z AUTO 16008KT 7SM 10/M08 RMK SLP252 T01051076 52002 IEM_DS3505
ZBAA,1984-11-11 12:00,ZBAA 111200Z AUTO 16008KT 6SM 08/01 RMK SLP271 T00780006 52018 IEM_DS3505
ZBAA,1984-11-11 15:00,ZBAA 111500Z AUTO 14004KT 4SM 07/00 RMK SLP284 T00660001 52014 IEM_DS3505
ZBAA,1984-11-11 18:00,ZBAA 111800Z AUTO 11004KT 4SM 06/M02 RMK SLP289 T00561015 40125//// 52005 IEM_DS3505
ZBAA,1984-11-11 21:00,ZBAA 112100Z AUTO 09002KT 7SM 05/M02 RMK SLP292 T00511023 52003 IEM_DS3505
ZBAA,1984-11-12 00:00,ZBAA 120000Z AUTO 02004KT 6SM 05/M03 RMK SLP309 T00491028 52016 IEM_DS3505
ZBAA,1984-11-12 03:00,ZBAA 120300Z AUTO 07006KT 4SM 04/M01 RMK SLP323 T00391008 52014 IEM_DS3505
ZBAA,1984-11-12 06:00,ZBAA 120600Z AUTO 04004KT 4SM 03/M00 RMK SLP307 T00341001 4////0031 57016 IEM_DS3505
ZBAA,1984-11-12 12:00,ZBAA 121200Z AUTO 36004KT 4SM 02/00 RMK SLP323 T00230004 52014 IEM_DS3505
ZBAA,1984-11-12 15:00,ZBAA 121500Z AUTO 04004KT 3SM 02/01 RMK SLP319 T00170008 57004 IEM_DS3505
ZBAA,1984-11-12 18:00,ZBAA 121800Z AUTO 00000KT 3SM 02/00 RMK 60004 SLP311 T00170004 40056//// 57008 IEM_DS3505
ZBAA,1984-11-12 21:00,ZBAA 122100Z AUTO 36004KT 2 1/2SM 02/01 RMK SLP301 T00190012 57010 IEM_DS3505
ZBAA,1984-11-13 00:00,ZBAA 130000Z AUTO 36002KT 2SM 02/02 RMK 60002 SLP304 T00220016 52003 IEM_DS3505
ZBAA,1984-11-13 03:00,ZBAA 130300Z AUTO 32002KT 2SM 03/02 RMK SLP304 T00260021 54000 IEM_DS3505
ZBAA,1984-11-13 05:00,ZBAA 130500Z AUTO 15004KT 3SM 03/02 A3033 RMK T00300020 IEM_DS3505
ZBAA,1984-11-13 06:00,ZBAA 130600Z AUTO 16002KT 2SM 04/02 A3030 RMK 60001 SLP274 T00350018 4////0013 57030 IEM_DS3505
ZBAA,1984-11-13 07:00,ZBAA 130700Z AUTO 14008KT 3SM 03/02 A3030 RMK T00300020 IEM_DS3505
ZBAA,1984-11-13 08:00,ZBAA 130800Z AUTO 18006KT 2 1/2SM 03/02 A3030 RMK T00300020 IEM_DS3505
ZBAA,1984-11-13 09:00,ZBAA 130900Z AUTO 16004KT 2SM 04/02 A3030 RMK SLP270 T00350016 57004 IEM_DS3505
ZBAA,1984-11-13 12:00,ZBAA 131200Z AUTO 14002KT 2SM 03/02 RMK SLP271 T00330021 52001 IEM_DS3505
ZBAA,1984-11-13 15:00,ZBAA 131500Z AUTO 00000KT 1 1/4SM 03/02 RMK SLP266 T00290021 57005 IEM_DS3505
ZBAA,1984-11-13 18:00,ZBAA 131800Z AUTO 00000KT 1SM 03/02 RMK SLP257 T00310021 40036//// 57008 IEM_DS3505
ZBAA,1984-11-13 21:00,ZBAA 132100Z AUTO 00000KT 3/8SM 03/02 RMK SLP239 T00320024 57018 IEM_DS3505
ZBAA,1984-11-14 00:00,ZBAA 140000Z AUTO 00000KT 1SM 04/03 RMK SLP239 T00360026 54000 IEM_DS3505
ZBAA,1984-11-14 03:00,ZBAA 140300Z AUTO 00000KT 1 1/4SM 05/02 RMK SLP235 T00500024 57004 IEM_DS3505
ZBAA,1984-11-14 06:00,ZBAA 140600Z AUTO 00000KT 2 1/2SM 06/02 RMK SLP210 T00560021 4////0026 57024 IEM_DS3505
ZBAA,1984-11-14 09:00,ZBAA 140900Z AUTO 00000KT 1 1/2SM 06/02 RMK SLP204 T00570024 57006 IEM_DS3505
ZBAA,1984-11-14 12:00,ZBAA 141200Z AUTO 29002KT 1 1/4SM 05/02 RMK SLP205 T00530021 52001 IEM_DS3505
ZBAA,1984-11-14 15:00,ZBAA 141500Z AUTO 20002KT 1 1/4SM 05/02 RMK SLP204 T00510021 57001 IEM_DS3505
ZBAA,1984-11-14 18:00,ZBAA 141800Z AUTO 18002KT 1 1/2SM 05/02 RMK SLP200 T00480022 40060//// 57004 IEM_DS3505
ZBAA,1984-11-14 21:00,ZBAA 142100Z AUTO 00000KT 1 1/4SM 05/03 RMK SLP197 T00460028 57003 IEM_DS3505
ZBAA,1984-11-15 00:00,ZBAA 150000Z AUTO 34002KT 1 1/4SM 05/03 RMK SLP211 T00480030 52014 IEM_DS3505
ZBAA,1984-11-15 03:00,ZBAA 150300Z AUTO 00000KT 1SM 06/03 RMK SLP224 T00550028 52012 IEM_DS3505
ZBAA,1984-11-15 06:00,ZBAA 150600Z AUTO 16006KT 1SM 05/04 RMK SLP212 T00530041 4////0043 57011 IEM_DS3505
ZBAA,1984-11-15 09:00,ZBAA 150900Z AUTO 16006KT 1SM 06/05 RMK SLP212 T00570049 54000 IEM_DS3505
ZBAA,1984-11-15 12:00,ZBAA 151200Z AUTO 18002KT 1SM 06/06 RMK 60002 SLP214 T00600056 52002 IEM_DS3505
ZBAA,1984-11-15 15:00,ZBAA 151500Z AUTO 11006KT 1SM 06/05 RMK SLP206 T00550051 57008 IEM_DS3505
ZBAA,1984-11-15 18:00,ZBAA 151800Z AUTO 04006KT 1SM 05/04 RMK 60002 SLP197 T00500043 40062//// 57009 IEM_DS3505
ZBAA,1984-11-15 21:00,ZBAA 152100Z AUTO 36004KT 3/8SM 04/04 RMK SLP195 T00410036 IEM_DS3505
ZBAA,1984-11-16 00:00,ZBAA 160000Z AUTO 04002KT 1SM 05/04 RMK 60001 SLP206 T00470039 52011 IEM_DS3505
ZBAA,1984-11-16 03:00,ZBAA 160300Z AUTO 36008KT 5SM 10/04 RMK SLP208 T00960039 52003 IEM_DS3505
ZBAA,1984-11-16 06:00,ZBAA 160600Z AUTO 36010KT 9SM 13/M03 RMK SLP190 T01341034 4////0038 57018 IEM_DS3505
ZBAA,1984-11-16 09:00,ZBAA 160900Z AUTO 00000KT 7SM 11/M01 RMK SLP198 T01101008 52008 IEM_DS3505
ZBAA,1984-11-16 12:00,ZBAA 161200Z AUTO 02006KT 12SM 08/M06 RMK SLP231 T00791065 52031 IEM_DS3505
ZBAA,1984-11-16 15:00,ZBAA 161500Z AUTO 04010KT 16SM 06/M10 RMK SLP246 T00591105 52016 IEM_DS3505
ZBAA,1984-11-16 18:00,ZBAA 161800Z AUTO 02010KT 16SM 05/M14 RMK SLP254 T00511135 40136//// 52008 IEM_DS3505
ZBAA,1984-11-16 21:00,ZBAA 162100Z AUTO 12SM 05/M08 RMK SLP261 T00461083 52007 IEM_DS3505
ZBAA,1984-11-17 00:00,ZBAA 170000Z AUTO 18004KT 4SM 04/M04 RMK SLP277 T00441045 52015 IEM_DS3505
ZBAA,1984-11-17 01:00,ZBAA 170100Z AUTO 18004KT 6SM 04/M06 A3033 RMK T00401060 IEM_DS3505
ZBAA,1984-11-17 02:00,ZBAA 170200Z AUTO 15008KT 6SM 03/M07 A3033 RMK T00301070 IEM_DS3505
ZBAA,1984-11-17 03:00,ZBAA 170300Z AUTO 16008KT 5SM 04/M08 A3033 RMK SLP282 T00351079 52005 IEM_DS3505
ZBAA,1984-11-17 04:00,ZBAA 170400Z AUTO 17010KT 6SM 03/M08 A3030 RMK T00301080 IEM_DS3505
ZBAA,1984-11-17 05:00,ZBAA 170500Z AUTO 18006KT 6SM 03/M07 A3030 RMK T00301070 IEM_DS3505
ZBAA,1984-11-17 06:00,ZBAA 170600Z AUTO 25002KT 4SM 03/M07 A3027 RMK SLP260 T00321068 4////0028 57022 IEM_DS3505
ZBAA,1984-11-17 07:00,ZBAA 170700Z AUTO 18006KT 6SM 03/M07 A3024 RMK T00301070 IEM_DS3505
ZBAA,1984-11-17 08:00,ZBAA 170800Z AUTO 00000KT 6SM 03/M07 A3027 RMK T00301070 IEM_DS3505
ZBAA,1984-11-17 09:00,ZBAA 170900Z AUTO 18004KT 3SM 03/M07 A3027 RMK SLP259 T00301068 57001 IEM_DS3505
ZBAA,1984-11-17 10:00,ZBAA 171000Z AUTO 16006KT 6SM 02/M07 A3027 RMK T00201070 IEM_DS3505
ZBAA,1984-11-17 11:00,ZBAA 171100Z AUTO 15004KT 7SM 02/M06 A3027 RMK T00201060 IEM_DS3505
ZBAA,1984-11-17 12:00,ZBAA 171200Z AUTO 16006KT 3SM 02/M06 A3030 RMK SLP263 T00251061 52004 IEM_DS3505
ZBAA,1984-11-17 13:00,ZBAA 171300Z AUTO 13006KT 6SM 02/M06 A3027 RMK T00201060 IEM_DS3505
ZBAA,1984-11-17 15:00,ZBAA 171500Z AUTO 00000KT 5SM 02/M08 RMK SLP265 T00181079 52001 IEM_DS3505
ZBAA,1984-11-17 18:00,ZBAA 171800Z AUTO 04002KT 6SM 01/M08 RMK 60000 SLP264 T00121079 40052//// 57001 IEM_DS3505
ZBAA,1984-11-17 21:00,ZBAA 172100Z AUTO 36006KT 1SM M02/M03 RMK SLP270 T10161028 52016 IEM_DS3505
ZBAA,1984-11-18 00:00,ZBAA 180000Z AUTO 36006KT 1 1/4SM M01/M03 RMK 60016 SLP295 T10101026 52025 IEM_DS3505
ZBAA,1984-11-18 03:00,ZBAA 180300Z AUTO 07008KT 4SM 02/M03 RMK SLP317 T00181028 52022 IEM_DS3505
ZBAA,1984-11-18 06:00,ZBAA 180600Z AUTO 02010KT 9SM 03/M07 RMK 60001 SLP321 T00271072 4////1019 52004 IEM_DS3505
ZBAA,1984-11-18 09:00,ZBAA 180900Z AUTO 02004KT 9SM 02/M07 RMK SLP346 T00231072 52024 IEM_DS3505
ZBAA,1984-11-18 12:00,ZBAA 181200Z AUTO 36008KT 9SM 00/M06 RMK SLP368 T00001058 52022 IEM_DS3505
ZBAA,1984-11-18 15:00,ZBAA 181500Z AUTO 02012KT 16SM M01/M15 RMK SLP380 T10101147 52012 IEM_DS3505
ZBAA,1984-11-18 18:00,ZBAA 181800Z AUTO 36010KT 19SM M02/M17 RMK SLP381 T10221167 40032//// 52001 IEM_DS3505
ZBAA,1984-11-18 21:00,ZBAA 182100Z AUTO 00000KT 19SM M03/M15 RMK SLP380 T10341147 57001 IEM_DS3505
ZBAA,1984-11-19 00:00,ZBAA 190000Z AUTO 02006KT 12SM M03/M18 RMK SLP385 T10301175 52005 IEM_DS3505
ZBAA,1984-11-19 03:00,ZBAA 190300Z AUTO 36006KT 9SM 01/M17 RMK SLP381 T00121167 57004 IEM_DS3505
ZBAA,1984-11-19 06:00,ZBAA 190600Z AUTO 27002KT 6SM 04/M14 RMK SLP346 T00441141 4////1042 57034 IEM_DS3505
ZBAA,1984-11-19 09:00,ZBAA 190900Z AUTO 20004KT 3SM 02/M08 RMK SLP339 T00211083 57008 IEM_DS3505
ZBAA,1984-11-19 12:00,ZBAA 191200Z AUTO 4SM 00/M06 RMK SLP340 T00001058 52001 IEM_DS3505
ZBAA,1984-11-19 15:00,ZBAA 191500Z AUTO 18002KT 2 1/2SM M02/M06 RMK SLP334 T10191055 57006 IEM_DS3505
ZBAA,1984-11-19 18:00,ZBAA 191800Z AUTO 00000KT 2 1/2SM M03/M05 RMK SLP325 T10291052 40049//// 57009 IEM_DS3505
ZBAA,1984-11-19 21:00,ZBAA 192100Z AUTO 00000KT 2 1/2SM M03/M06 RMK SLP315 T10331065 52002 IEM_DS3505
ZBAA,1984-11-20 03:00,ZBAA 200300Z AUTO 09002KT 2 1/2SM 02/M09 RMK SLP311 T00161092 57003 IEM_DS3505
ZBAA,1984-11-20 05:00,ZBAA 200500Z AUTO 30004KT 6SM 03/M07 A3036 RMK T00301070 IEM_DS3505
ZBAA,1984-11-20 06:00,ZBAA 200600Z AUTO 20004KT 2 1/2SM 04/M07 A3033 RMK SLP286 T00421072 4////1039 57025 IEM_DS3505
ZBAA,1984-11-20 08:00,ZBAA 200800Z AUTO 00000KT 6SM 03/M07 A3033 RMK T00301070 IEM_DS3505
ZBAA,1984-11-20 09:00,ZBAA 200900Z AUTO 20004KT 2SM 02/M04 A3033 RMK SLP284 T00231045 57002 IEM_DS3505
ZBAA,1984-11-20 10:00,ZBAA 201000Z AUTO 00000KT 6SM 01/M03 A3033 RMK T00101030 IEM_DS3505
ZBAA,1984-11-20 11:00,ZBAA 201100Z AUTO 00000KT 6SM 00/M06 A3033 RMK T00001060 IEM_DS3505
ZBAA,1984-11-20 12:00,ZBAA 201200Z AUTO 20002KT 1 1/4SM 01/M03 A3036 RMK SLP291 T00061031 52006 IEM_DS3505
ZBAA,1984-11-20 13:00,ZBAA 201300Z AUTO 00000KT 7SM M02/M05 A3036 RMK T10201050 IEM_DS3505
ZBAA,1984-11-20 14:00,ZBAA 201400Z AUTO 00000KT 7SM M02/M05 A3039 RMK T10201050 IEM_DS3505
ZBAA,1984-11-20 15:00,ZBAA 201500Z AUTO 00000KT 1SM M02/M04 RMK SLP299 T10171037 52009 IEM_DS3505
ZBAA,1984-11-20 18:00,ZBAA 201800Z AUTO 00000KT 2SM M02/M05 RMK SLP300 T10151052 40047//// 52001 IEM_DS3505
ZBAA,1984-11-20 21:00,ZBAA 202100Z AUTO 00000KT 1 1/4SM M04/M05 RMK SLP301 T10391052 52001 IEM_DS3505
ZBAA,1984-11-21 00:00,ZBAA 210000Z AUTO 00000KT 1SM M04/M05 RMK SLP318 T10401052 52016 IEM_DS3505
ZBAA,1984-11-21 03:00,ZBAA 210300Z AUTO 07004KT 2SM 04/M06 RMK SLP322 T00401061 52005 IEM_DS3505
ZBAA,1984-11-21 06:00,ZBAA 210600Z AUTO 04002KT 6SM 06/M06 RMK SLP302 T00651058 4////1047 57020 IEM_DS3505
ZBAA,1984-11-21 09:00,ZBAA 210900Z AUTO 14004KT 2SM 05/M04 RMK SLP297 T00501042 57005 IEM_DS3505
ZBAA,1984-11-21 12:00,ZBAA 211200Z AUTO 00000KT 2SM 00/M03 RMK SLP306 T00031031 52008 IEM_DS3505
ZBAA,1984-11-21 15:00,ZBAA 211500Z AUTO 00000KT 2SM M01/M04 RMK SLP307 T10101039 52002 IEM_DS3505
ZBAA,1984-11-21 18:00,ZBAA 211800Z AUTO 00000KT 1 1/2SM M02/M04 RMK SLP303 T10201039 40069//// 57004 IEM_DS3505
ZBAA,1984-11-21 21:00,ZBAA 212100Z AUTO 00000KT 1 1/4SM M03/M04 RMK SLP297 T10281045 57006 IEM_DS3505
ZBAA,1984-11-22 00:00,ZBAA 220000Z AUTO 00000KT 1SM M03/M04 RMK SLP300 T10281045 52002 IEM_DS3505
ZBAA,1984-11-22 03:00,ZBAA 220300Z AUTO 00000KT 1SM 03/M03 RMK SLP296 T00291028 57003 IEM_DS3505
ZBAA,1984-11-22 06:00,ZBAA 220600Z AUTO 04002KT 1SM 04/M02 RMK SLP273 T00411018 4////1036 57023 IEM_DS3505
ZBAA,1984-11-22 09:00,ZBAA 220900Z AUTO 18004KT 1SM 04/M01 RMK SLP274 T00391010 52001 IEM_DS3505
ZBAA,1984-11-22 12:00,ZBAA 221200Z AUTO 00000KT 1 1/4SM 03/M01 RMK SLP280 T00281006 52006 IEM_DS3505
ZBAA,1984-11-22 15:00,ZBAA 221500Z AUTO 00000KT 1SM 02/M00 RMK SLP282 T00251003 52002 IEM_DS3505
ZBAA,1984-11-22 18:00,ZBAA 221800Z AUTO 02004KT 1SM 03/M01 RMK SLP280 T00301013 40046//// 57001 IEM_DS3505
ZBAA,1984-11-22 21:00,ZBAA 222100Z AUTO 00000KT 1SM 02/M00 RMK SLP282 T00241001 52002 IEM_DS3505
ZBAA,1984-11-23 00:00,ZBAA 230000Z AUTO 02004KT 1 1/2SM 04/M01 RMK SLP287 T00441010 52005 IEM_DS3505
ZBAA,1984-11-23 03:00,ZBAA 230300Z AUTO 36016KT 7SM 07/M09 RMK SLP300 T00721087 52013 IEM_DS3505
ZBAA,1984-11-23 06:00,ZBAA 230600Z AUTO 34012KT 19SM 09/M10 RMK SLP297 T00861096 4////0019 57003 IEM_DS3505
ZBAA,1984-11-23 09:00,ZBAA 230900Z AUTO 34004KT 9SM 07/M08 RMK SLP302 T00701079 52005 IEM_DS3505
ZBAA,1984-11-23 11:00,ZBAA 231100Z AUTO 36006KT 12SM 05/M08 RMK SLP329 T00501083 52026 IEM_DS3505
ZBAA,1984-11-23 12:00,ZBAA 231200Z AUTO 36006KT 12SM 05/M08 RMK SLP329 T00501083 52026 IEM_DS3505
ZBAA,1984-11-23 15:00,ZBAA 231500Z AUTO 36010KT 16SM 04/M10 RMK SLP346 T00371105 52018 IEM_DS3505
ZBAA,1984-11-23 18:00,ZBAA 231800Z AUTO 36006KT 19SM 02/M10 RMK SLP360 T00181096 40096//// 52014 IEM_DS3505
ZBAA,1984-11-23 21:00,ZBAA 232100Z AUTO 36010KT 19SM 01/M11 RMK SLP361 T00071109 54000 IEM_DS3505
ZBAA,1984-11-24 00:00,ZBAA 240000Z AUTO 34004KT 7SM M00/M10 A3059 RMK SLP375 T10021105 52014 IEM_DS3505
ZBAA,1984-11-24 01:00,ZBAA 240100Z AUTO 03010KT 7SM 01/M18 A3062 RMK T00101180 IEM_DS3505
ZBAA,1984-11-24 02:00,ZBAA 240200Z AUTO 04012KT 7SM 02/M19 A3062 RMK T00201190 IEM_DS3505
ZBAA,1984-11-24 03:00,ZBAA 240300Z AUTO 04008KT 16SM 03/M14 A3062 RMK SLP378 T00291141 52003 IEM_DS3505
ZBAA,1984-11-24 04:00,ZBAA 240400Z AUTO 04010KT 7SM 03/M15 A3059 RMK T00301150 IEM_DS3505
ZBAA,1984-11-24 05:00,ZBAA 240500Z AUTO 06010KT 7SM 04/M13 A3056 RMK T00401130 IEM_DS3505
ZBAA,1984-11-24 06:00,ZBAA 240600Z AUTO 07006KT 16SM 05/M14 A3053 RMK SLP356 T00491135 4////1009 57022 IEM_DS3505
ZBAA,1984-11-24 07:00,ZBAA 240700Z AUTO 05010KT 7SM 05/M15 A3053 RMK T00501150 IEM_DS3505
ZBAA,1984-11-24 08:00,ZBAA 240800Z AUTO 05008KT 7SM 04/M17 A3053 RMK T00401170 IEM_DS3505
ZBAA,1984-11-24 09:00,ZBAA 240900Z AUTO 20002KT 7SM 04/M10 RMK SLP356 T00361105 54000 IEM_DS3505
ZBAA,1984-11-24 10:00,ZBAA 241000Z AUTO 27002KT 7SM 02/M14 A3053 RMK T00201140 IEM_DS3505
ZBAA,1984-11-24 11:00,ZBAA 241100Z AUTO 00000KT 7SM 03/00 A3047 RMK T00300000 IEM_DS3505
ZBAA,1984-11-24 12:00,ZBAA 241200Z AUTO 6SM M01/M08 RMK SLP364 T10081079 52007 IEM_DS3505
ZBAA,1984-11-24 15:00,ZBAA 241500Z AUTO 00000KT 6SM M03/M07 RMK SLP366 T10321072 52002 IEM_DS3505
ZBAA,1984-11-24 18:00,ZBAA 241800Z AUTO 00000KT 5SM M04/M08 RMK SLP363 T10421076 40052//// 57003 IEM_DS3505
ZBAA,1984-11-24 21:00,ZBAA 242100Z AUTO 00000KT 3SM M05/M07 RMK SLP350 T10501072 57013 IEM_DS3505
ZBAA,1984-11-25 00:00,ZBAA 250000Z AUTO 00000KT 1 1/4SM M05/M08 RMK SLP352 T10511083 52002 IEM_DS3505
ZBAA,1984-11-25 03:00,ZBAA 250300Z AUTO 04002KT 3SM 02/M11 RMK SLP349 T00221114 57003 IEM_DS3505
ZBAA,1984-11-25 06:00,ZBAA 250600Z AUTO 20006KT 5SM 06/M09 RMK SLP318 T00561087 4////1060 57030 IEM_DS3505
ZBAA,1984-11-25 09:00,ZBAA 250900Z AUTO 18004KT 4SM 04/M05 RMK SLP307 T00431052 57011 IEM_DS3505
ZBAA,1984-11-25 12:00,ZBAA 251200Z AUTO 00000KT 5SM 00/M05 RMK SLP304 T00001048 57004 IEM_DS3505
ZBAA,1984-11-25 15:00,ZBAA 251500Z AUTO 02002KT 6SM M00/M06 RMK SLP297 T10031065 57006 IEM_DS3505
ZBAA,1984-11-25 18:00,ZBAA 251800Z AUTO 04002KT 2 1/2SM M01/M06 RMK SLP281 T10061065 40062//// 57016 IEM_DS3505
ZBAA,1984-11-25 21:00,ZBAA 252100Z AUTO 36002KT 2 1/2SM M02/M06 RMK SLP272 T10221065 57009 IEM_DS3505
ZBAA,1984-11-26 00:00,ZBAA 260000Z AUTO 36010KT 12SM 06/M13 RMK SLP297 T00561130 52025 IEM_DS3505
ZBAA,1984-11-26 03:00,ZBAA 260300Z AUTO 34017KT 7SM 04/M11 RMK SLP344 T00371114 52047 IEM_DS3505
ZBAA,1984-11-26 06:00,ZBAA 260600Z AUTO 34019KT 7SM 05/M15 RMK SLP339 T00491147 4////1028 57005 IEM_DS3505
ZBAA,1984-11-26 09:00,ZBAA 260900Z AUTO 34017KT 12SM 02/M22 RMK SLP363 T00221220 52023 IEM_DS3505
ZBAA,1984-11-26 12:00,ZBAA 261200Z AUTO 34012KT 12SM M00/M24 RMK SLP396 T10041244 52034 IEM_DS3505
ZBAA,1984-11-26 15:00,ZBAA 261500Z AUTO 34008KT 16SM M03/M23 RMK SLP424 T10321231 52027 IEM_DS3505
ZBAA,1984-11-26 18:00,ZBAA 261800Z AUTO 02004KT 19SM M04/M22 RMK SLP410 T10421220 40057//// 57014 IEM_DS3505
ZBAA,1984-11-26 21:00,ZBAA 262100Z AUTO 02010KT 19SM M05/M22 RMK SLP385 T10461220 57025 IEM_DS3505
ZBAA,1984-11-27 00:00,ZBAA 270000Z AUTO 22002KT 5SM M07/M16 RMK SLP381 T10691160 57005 IEM_DS3505
ZBAA,1984-11-27 01:00,ZBAA 270100Z AUTO 03008KT 7SM M04/M20 A3042 RMK T10401200 IEM_DS3505
ZBAA,1984-11-27 02:00,ZBAA 270200Z AUTO 00000KT 7SM M02/M20 A3059 RMK T10201200 IEM_DS3505
ZBAA,1984-11-27 03:00,ZBAA 270300Z AUTO 20008KT 6SM 00/M24 A3059 RMK SLP363 T00031244 57017 IEM_DS3505
ZBAA,1984-11-27 04:00,ZBAA 270400Z AUTO 25006KT 7SM 02/M22 A3053 RMK T00201220 IEM_DS3505
ZBAA,1984-11-27 05:00,ZBAA 270500Z AUTO 22008KT 7SM 03/M22 A3047 RMK T00301220 IEM_DS3505
ZBAA,1984-11-27 06:00,ZBAA 270600Z AUTO 20008KT 7SM 02/M18 A3045 RMK SLP327 T00231183 4////1076 57036 IEM_DS3505
ZBAA,1984-11-27 07:00,ZBAA 270700Z AUTO 23008KT 7SM 02/M21 A3042 RMK T00201210 IEM_DS3505
ZBAA,1984-11-27 08:00,ZBAA 270800Z AUTO 22008KT 7SM 02/M20 A3042 RMK T00201200 IEM_DS3505
ZBAA,1984-11-27 09:00,ZBAA 270900Z AUTO 18004KT 5SM 01/M15 A3042 RMK SLP311 T00121154 57016 IEM_DS3505
ZBAA,1984-11-27 10:00,ZBAA 271000Z AUTO 00000KT 7SM M02/M11 A3042 RMK T10201110 IEM_DS3505
ZBAA,1984-11-27 12:00,ZBAA 271200Z AUTO 20004KT 5SM M02/M11 RMK SLP307 T10151109 57004 IEM_DS3505
ZBAA,1984-11-27 15:00,ZBAA 271500Z AUTO 11002KT 4SM M05/M10 RMK SLP301 T10521105 57006 IEM_DS3505
ZBAA,1984-11-27 18:00,ZBAA 271800Z AUTO 00000KT 4SM M06/M10 RMK SLP287 T10631105 40028//// 57014 IEM_DS3505
ZBAA,1984-11-27 21:00,ZBAA 272100Z AUTO 00000KT 5SM M08/M11 RMK SLP270 T10771109 57017 IEM_DS3505
ZBAA,1984-11-28 00:00,ZBAA 280000Z AUTO 00000KT 1SM M07/M10 RMK SLP274 T10741105 52004 IEM_DS3505
ZBAA,1984-11-28 03:00,ZBAA 280300Z AUTO 00000KT 1SM 02/M08 RMK SLP269 T00161076 57005 IEM_DS3505
ZBAA,1984-11-28 06:00,ZBAA 280600Z AUTO 20006KT 2 1/2SM 06/M15 RMK SLP245 T00601147 57023 IEM_DS3505
ZBAA,1984-11-28 09:00,ZBAA 280900Z AUTO 18006KT 2SM 03/M11 RMK SLP246 T00301109 54000 IEM_DS3505
ZBAA,1984-11-28 12:00,ZBAA 281200Z AUTO 20004KT 2SM M00/M09 RMK SLP242 T10021092 57004 IEM_DS3505
ZBAA,1984-11-28 15:00,ZBAA 281500Z AUTO 20004KT 2SM M03/M10 RMK SLP240 T10271096 57001 IEM_DS3505
ZBAA,1984-11-28 18:00,ZBAA 281800Z AUTO 34002KT 2SM M04/M10 RMK SLP237 T10391100 40060//// 57003 IEM_DS3505
ZBAA,1984-11-28 21:00,ZBAA 282100Z AUTO 02002KT 1 1/4SM M05/M10 RMK SLP230 T10541100 57008 IEM_DS3505
ZBAA,1984-11-29 00:00,ZBAA 290000Z AUTO 00000KT 1SM M06/M10 RMK SLP235 T10621096 52005 IEM_DS3505
ZBAA,1984-11-29 03:00,ZBAA 290300Z AUTO 36004KT 1 1/2SM 03/M10 RMK SLP230 T00261105 57004 IEM_DS3505
ZBAA,1984-11-29 06:00,ZBAA 290600Z AUTO 00000KT 1 1/4SM 04/M08 RMK SLP210 T00421083 4////1072 57019 IEM_DS3505
ZBAA,1984-11-29 09:00,ZBAA 290900Z AUTO 20004KT 1SM 03/M06 RMK SLP213 T00281058 52002 IEM_DS3505
ZBAA,1984-11-29 12:00,ZBAA 291200Z AUTO 00000KT 1SM M01/M07 RMK T10141068 52008 IEM_DS3505
ZBAA,1984-11-29 15:00,ZBAA 291500Z AUTO 18004KT 1SM M02/M06 RMK SLP221 T10191055 54000 IEM_DS3505
ZBAA,1984-11-29 18:00,ZBAA 291800Z AUTO 04004KT 2SM M01/M08 RMK SLP213 T10121076 57007 IEM_DS3505
ZBAA,1984-11-29 21:00,ZBAA 292100Z AUTO 18002KT 1 1/4SM M04/M07 RMK SLP211 T10351072 57002 IEM_DS3505
ZBAA,1984-11-30 00:00,ZBAA 300000Z AUTO 20006KT 1 1/4SM 01/M08 RMK SLP217 T00101079 52006 IEM_DS3505
ZBAA,1984-11-30 03:00,ZBAA 300300Z AUTO 32014KT 12SM 09/M12 RMK SLP223 T00901124 52006 IEM_DS3505
ZBAA,1984-11-30 06:00,ZBAA 300600Z AUTO 32012KT 12SM 09/M10 RMK SLP215 T00941105 4////1039 57007 IEM_DS3505
ZBAA,1984-11-30 09:00,ZBAA 300900Z AUTO 29010KT 12SM 07/M08 RMK SLP224 T00711083 52007 IEM_DS3505
ZBAA,1984-11-30 12:00,ZBAA 301200Z AUTO 32008KT 16SM 06/M10 RMK SLP238 T00611100 52015 IEM_DS3505
ZBAA,1984-11-30 15:00,ZBAA 301500Z AUTO 29002KT 16SM 02/M10 RMK SLP246 T00231100 52008 IEM_DS3505
ZBAA,1984-11-30 18:00,ZBAA 301800Z AUTO 00000KT 12SM 00/M08 RMK T00041079 40100//// 52001 IEM_DS3505
ZBAA,1984-11-30 21:00,ZBAA 302100Z AUTO 34002KT 12SM M02/M09 RMK SLP247 T10221087 57001 IEM_DS3505
ZBAA,1984-12-01 00:00,ZBAA 010000Z AUTO 34004KT 6SM M00/M10 RMK SLP256 T10041096 52009 IEM_DS3505
ZBAA,1984-12-01 02:00,ZBAA 010200Z AUTO 30012KT 7SM 06/M12 A3024 RMK T00601120 IEM_DS3505
ZBAA,1984-12-01 03:00,ZBAA 010300Z AUTO 34004KT 12SM 07/M11 A3024 RMK SLP258 T00731114 52003 IEM_DS3505
ZBAA,1984-12-01 04:00,ZBAA 010400Z AUTO 30012KT 6SM 08/M14 A3024 RMK T00801140 IEM_DS3505
ZBAA,1984-12-01 05:00,ZBAA 010500Z AUTO 30010KT 6SM 09/M15 A3021 RMK T00901150 IEM_DS3505
ZBAA,1984-12-01 06:00,ZBAA 010600Z AUTO 04002KT 19SM 10/M11 A3018 RMK SLP236 T00961114 4////1032 57022 IEM_DS3505
ZBAA,1984-12-01 07:00,ZBAA 010700Z AUTO 36006KT 7SM 09/M14 A3015 RMK T00901140 IEM_DS3505
ZBAA,1984-12-01 08:00,ZBAA 010800Z AUTO 00000KT 7SM 09/M08 A3018 RMK T00901080 IEM_DS3505
ZBAA,1984-12-01 09:00,ZBAA 010900Z AUTO 00000KT 10SM 07/M09 A3015 RMK SLP228 T00741087 57009 IEM_DS3505
ZBAA,1984-12-01 10:00,ZBAA 011000Z AUTO 10004KT 7SM 03/M04 A3015 RMK T00301040 IEM_DS3505
ZBAA,1984-12-01 12:00,ZBAA 011200Z AUTO 18002KT 6SM RMK SLP234 52006 IEM_DS3505
ZBAA,1984-12-01 15:00,ZBAA 011500Z AUTO 00000KT 5SM M02/M06 RMK SLP235 T10151061 52001 IEM_DS3505
ZBAA,1984-12-01 18:00,ZBAA 011800Z AUTO 02004KT 3SM M01/M08 RMK SLP227 T10121076 40111//// 57007 IEM_DS3505
ZBAA,1984-12-01 21:00,ZBAA 012100Z AUTO 04004KT 3SM M01/M09 RMK SLP217 T10101087 57009 IEM_DS3505
ZBAA,1984-12-02 00:00,ZBAA 020000Z AUTO 04004KT 2SM M02/M06 RMK SLP222 T10221065 52003 IEM_DS3505
ZBAA,1984-12-02 03:00,ZBAA 020300Z AUTO 07004KT 2SM 01/M08 RMK SLP218 T00131076 57003 IEM_DS3505
ZBAA,1984-12-02 06:00,ZBAA 020600Z AUTO 04006KT 1 1/4SM 04/M06 RMK SLP196 T00421058 4////1044 57022 IEM_DS3505
ZBAA,1984-12-02 09:00,ZBAA 020900Z AUTO 36006KT 1 1/4SM 03/M07 RMK SLP197 T00301072 52001 IEM_DS3505
ZBAA,1984-12-02 12:00,ZBAA 021200Z AUTO 36002KT 2SM 01/M05 RMK SLP206 T00071048 52009 IEM_DS3505
ZBAA,1984-12-02 15:00,ZBAA 021500Z AUTO 34002KT 1 1/4SM M01/M04 RMK SLP210 T10091045 52004 IEM_DS3505
ZBAA,1984-12-02 18:00,ZBAA 021800Z AUTO 02004KT 2 1/2SM 01/ RMK SLP211 40045//// 52001 IEM_DS3505
ZBAA,1984-12-02 21:00,ZBAA 022100Z AUTO 02002KT 3SM 01/M06 RMK SLP211 T00091061 54000 IEM_DS3505
ZBAA,1984-12-03 00:00,ZBAA 030000Z AUTO 04004KT 1 1/2SM 01/M05 RMK SLP226 T00111052 52014 IEM_DS3505
ZBAA,1984-12-03 03:00,ZBAA 030300Z AUTO 02006KT 2SM 05/M04 RMK SLP229 T00541042 52003 IEM_DS3505
ZBAA,1984-12-03 06:00,ZBAA 030600Z AUTO 36010KT 4SM 10/M06 RMK SLP217 T00991065 4////1016 57010 IEM_DS3505
ZBAA,1984-12-03 09:00,ZBAA 030900Z AUTO 36016KT 6SM 08/M11 RMK SLP239 T00811109 52021 IEM_DS3505
ZBAA,1984-12-03 12:00,ZBAA 031200Z AUTO 36017KT 6SM 04/M06 RMK SLP304 T00401065 52064 IEM_DS3505
ZBAA,1984-12-03 15:00,ZBAA 031500Z AUTO 36016KT 9SM 02/M11 RMK SLP323 T00181109 52019 IEM_DS3505
ZBAA,1984-12-03 18:00,ZBAA 031800Z AUTO 34019KT 19SM M01/M20 RMK SLP353 T10131200 40104//// 52030 IEM_DS3505
ZBAA,1984-12-03 21:00,ZBAA 032100Z AUTO 36012KT 19SM M05/M27 RMK SLP374 T10481274 52021 IEM_DS3505
ZBAA,1984-12-04 00:00,ZBAA 040000Z AUTO 02016KT 19SM M05/M37 RMK SLP386 T10531374 52011 IEM_DS3505
ZBAA,1984-12-04 03:00,ZBAA 040300Z AUTO 34010KT 19SM M02/M29 RMK SLP378 T10211292 57008 IEM_DS3505
ZBAA,1984-12-04 05:00,ZBAA 040500Z AUTO 31017KT 7SM M01/M25 A3050 RMK T10101250 IEM_DS3505
ZBAA,1984-12-04 06:00,ZBAA 040600Z AUTO 36008KT 16SM 01/M29 A3047 RMK SLP337 T00091292 4////1065 57041 IEM_DS3505
ZBAA,1984-12-04 07:00,ZBAA 040700Z AUTO 30016KT 7SM 01/M28 A3045 RMK T00101280 IEM_DS3505
ZBAA,1984-12-04 08:00,ZBAA 040800Z AUTO 28016KT 7SM 00/M25 A3045 RMK T00001250 IEM_DS3505
ZBAA,1984-12-04 09:00,ZBAA 040900Z AUTO 27008KT 12SM M00/M23 RMK SLP323 T10041231 57014 IEM_DS3505
ZBAA,1984-12-04 12:00,ZBAA 041200Z AUTO 20008KT 6SM M02/M18 RMK SLP320 T10221183 57003 IEM_DS3505
ZBAA,1984-12-04 15:00,ZBAA 041500Z AUTO 18004KT 6SM M04/M15 RMK SLP317 T10361154 57003 IEM_DS3505
ZBAA,1984-12-04 18:00,ZBAA 041800Z AUTO 18004KT 5SM M04/M18 RMK SLP303 T10421175 40018//// 57014 IEM_DS3505
ZBAA,1984-12-04 21:00,ZBAA 042100Z AUTO 34004KT 4SM M05/M16 RMK SLP300 T10491160 57003 IEM_DS3505
ZBAA,1984-12-05 00:00,ZBAA 050000Z AUTO 02006KT 3SM M04/M18 RMK SLP309 T10421183 52009 IEM_DS3505
ZBAA,1984-12-05 03:00,ZBAA 050300Z AUTO 02008KT 16SM 02/M24 RMK SLP307 T00231244 57001 IEM_DS3505
ZBAA,1984-12-05 06:00,ZBAA 050600Z AUTO 20008KT 6SM 04/M23 RMK SLP285 T00391231 4////1068 57022 IEM_DS3505
ZBAA,1984-12-05 09:00,ZBAA 050900Z AUTO 20006KT 6SM 02/M17 RMK SLP279 T00151167 57007 IEM_DS3505
ZBAA,1984-12-05 12:00,ZBAA 051200Z AUTO 20004KT 4SM M01/M15 RMK SLP283 T10111147 52004 IEM_DS3505
ZBAA,1984-12-05 15:00,ZBAA 051500Z AUTO 00000KT 2 1/2SM M03/M11 RMK SLP286 T10331114 52004 IEM_DS3505
ZBAA,1984-12-05 18:00,ZBAA 051800Z AUTO 00000KT 2SM M06/M09 RMK SLP286 T10581092 40053//// 54000 IEM_DS3505
ZBAA,1984-12-05 21:00,ZBAA 052100Z AUTO 04002KT 2SM M05/M14 RMK SLP281 T10511141 57006 IEM_DS3505
ZBAA,1984-12-06 00:00,ZBAA 060000Z AUTO 00000KT 1 1/2SM M07/M11 RMK SLP283 T10711109 52002 IEM_DS3505
ZBAA,1984-12-06 03:00,ZBAA 060300Z AUTO 04004KT 3SM M00/M18 RMK SLP284 T10021183 52001 IEM_DS3505
ZBAA,1984-12-06 06:00,ZBAA 060600Z AUTO 20002KT 2 1/2SM 03/M13 RMK SLP260 T00301130 4////1078 57024 IEM_DS3505
ZBAA,1984-12-06 09:00,ZBAA 060900Z AUTO 18002KT 2 1/2SM 02/M11 RMK SLP262 T00181109 52002 IEM_DS3505
ZBAA,1984-12-06 12:00,ZBAA 061200Z AUTO 00000KT 4SM M01/M10 RMK SLP274 T10121105 52012 IEM_DS3505
ZBAA,1984-12-06 15:00,ZBAA 061500Z AUTO 02002KT 3SM M03/M11 RMK SLP274 T10291109 54000 IEM_DS3505
ZBAA,1984-12-06 18:00,ZBAA 061800Z AUTO 34002KT 2 1/2SM M05/M10 RMK SLP270 T10481100 40034//// 57003 IEM_DS3505
ZBAA,1984-12-06 21:00,ZBAA 062100Z AUTO 00000KT 2SM M05/M11 RMK SLP265 T10481114 57006 IEM_DS3505
ZBAA,1984-12-07 00:00,ZBAA 070000Z AUTO 00000KT 1 1/4SM M05/M10 RMK SLP276 T10541100 52011 IEM_DS3505
ZBAA,1984-12-07 03:00,ZBAA 070300Z AUTO 04006KT 3SM 01/M12 RMK SLP282 T00061119 52006 IEM_DS3505
ZBAA,1984-12-07 06:00,ZBAA 070600Z AUTO 04002KT 4SM 02/M09 RMK SLP261 T00211087 4////1063 57021 IEM_DS3505
ZBAA,1984-12-07 09:00,ZBAA 070900Z AUTO 02002KT 2 1/2SM 01/M06 RMK SLP269 T00101065 52008 IEM_DS3505
ZBAA,1984-12-07 12:00,ZBAA 071200Z AUTO 02004KT 3SM 00/M07 RMK SLP277 T00021072 52008 IEM_DS3505
ZBAA,1984-12-07 15:00,ZBAA 071500Z AUTO 00000KT 2 1/2SM M01/M06 RMK SLP279 T10121058 52003 IEM_DS3505
ZBAA,1984-12-07 18:00,ZBAA 071800Z AUTO 29002KT 1 1/4SM M02/M05 RMK SLP286 T10211052 40022//// 52007 IEM_DS3505
ZBAA,1984-12-07 21:00,ZBAA 072100Z AUTO 07002KT 1SM M02/M08 RMK SLP276 T10231083 57010 IEM_DS3505
ZBAA,1984-12-08 00:00,ZBAA 080000Z AUTO 32002KT 1SM M05/M08 RMK SLP289 T10511079 52012 IEM_DS3505
ZBAA,1984-12-08 01:00,ZBAA 080100Z AUTO 34006KT 1SM M03/M07 A3036 RMK T10301070 IEM_DS3505
ZBAA,1984-12-08 02:00,ZBAA 080200Z AUTO 03008KT 2SM 00/M07 A3036 RMK T00001070 IEM_DS3505
ZBAA,1984-12-08 03:00,ZBAA 080300Z AUTO 02002KT 1 1/4SM 02/M08 A3033 RMK SLP288 T00191076 54000 IEM_DS3505
ZBAA,1984-12-08 04:00,ZBAA 080400Z AUTO 36002KT 3SM 04/M07 A3033 RMK T00401070 IEM_DS3505
ZBAA,1984-12-08 05:00,ZBAA 080500Z AUTO 15004KT 4SM 04/M07 A3030 RMK T00401070 IEM_DS3505
ZBAA,1984-12-08 06:00,ZBAA 080600Z AUTO 00000KT 1 1/4SM 05/M08 A3027 RMK SLP263 T00481083 4////1058 57025 IEM_DS3505
ZBAA,1984-12-08 07:00,ZBAA 080700Z AUTO 00000KT 4SM 05/M05 A3027 RMK T00501050 IEM_DS3505
ZBAA,1984-12-08 08:00,ZBAA 080800Z AUTO 00000KT 4SM 04/M05 A3027 RMK T00401050 IEM_DS3505
ZBAA,1984-12-08 09:00,ZBAA 080900Z AUTO 00000KT 1 1/4SM 04/M06 A3027 RMK SLP264 T00391058 52001 IEM_DS3505
ZBAA,1984-12-08 10:00,ZBAA 081000Z AUTO 00000KT 3SM 02/M05 A3027 RMK T00201050 IEM_DS3505
ZBAA,1984-12-08 12:00,ZBAA 081200Z AUTO 00000KT 1 1/2SM 02/M04 RMK SLP270 T00191045 52005 IEM_DS3505
ZBAA,1984-12-08 15:00,ZBAA 081500Z AUTO 04002KT 1SM 02/M04 RMK SLP268 T00171039 57001 IEM_DS3505
ZBAA,1984-12-08 18:00,ZBAA 081800Z AUTO 00000KT 1 1/4SM 01/M04 RMK SLP258 T00121042 40053//// 57009 IEM_DS3505
ZBAA,1984-12-08 21:00,ZBAA 082100Z AUTO 36002KT 1SM M00/M01 RMK SLP242 T10011013 57017 IEM_DS3505
ZBAA,1984-12-09 00:00,ZBAA 090000Z AUTO 02006KT 1 1/4SM 01/M01 RMK 60004 SLP236 T00111010 57006 IEM_DS3505
ZBAA,1984-12-09 03:00,ZBAA 090300Z AUTO 04006KT 1 1/4SM 02/M01 RMK SLP230 T00161013 57006 IEM_DS3505
ZBAA,1984-12-09 06:00,ZBAA 090600Z AUTO 04006KT 3SM 03/M00 RMK SLP204 T00321003 4////1004 57025 IEM_DS3505
ZBAA,1984-12-09 09:00,ZBAA 090900Z AUTO 02004KT 4SM 03/M01 RMK SLP208 T00271008 52004 IEM_DS3505
ZBAA,1984-12-09 12:00,ZBAA 091200Z AUTO 34002KT 4SM 00/M02 RMK SLP220 T00001018 52011 IEM_DS3505
ZBAA,1984-12-09 15:00,ZBAA 091500Z AUTO 29002KT 2 1/2SM M01/M02 RMK SLP231 T10131023 52011 IEM_DS3505
ZBAA,1984-12-09 18:00,ZBAA 091800Z AUTO 36002KT 2SM M02/M04 RMK SLP230 T10251037 40043//// 57001 IEM_DS3505
ZBAA,1984-12-09 21:00,ZBAA 092100Z AUTO 25002KT 1 1/4SM M03/M04 RMK SLP234 T10291042 52004 IEM_DS3505
ZBAA,1984-12-10 00:00,ZBAA 100000Z AUTO 00000KT 1SM M03/M04 RMK SLP251 T10301039 52016 IEM_DS3505
ZBAA,1984-12-10 03:00,ZBAA 100300Z AUTO 00000KT 3/8SM 03/00 RMK SLP257 T00270001 52007 IEM_DS3505
ZBAA,1984-12-10 06:00,ZBAA 100600Z AUTO 00000KT 2SM 07/M01 RMK SLP239 T00721013 4////1040 57018 IEM_DS3505
ZBAA,1984-12-10 09:00,ZBAA 100900Z AUTO 16004KT 1 1/4SM 05/M01 RMK SLP242 T00521010 52003 IEM_DS3505
ZBAA,1984-12-10 12:00,ZBAA 101200Z AUTO 00000KT 1 1/4SM 01/M02 RMK SLP255 T00081018 52012 IEM_DS3505
ZBAA,1984-12-10 15:00,ZBAA 101500Z AUTO 00000KT 3/8SM M02/M03 RMK SLP259 T10171028 52005 IEM_DS3505
ZBAA,1984-12-10 18:00,ZBAA 101800Z AUTO 00000KT 1 1/4SM M01/M03 RMK SLP252 T10131034 40075//// 57006 IEM_DS3505
ZBAA,1984-12-10 21:00,ZBAA 102100Z AUTO 20004KT 3/8SM M03/M03 RMK SLP248 T10271034 57005 IEM_DS3505
ZBAA,1984-12-11 00:00,ZBAA 110000Z AUTO 22002KT 1/8SM M03/M03 RMK SLP247 T10301031 57002 IEM_DS3505
ZBAA,1984-12-11 03:00,ZBAA 110300Z AUTO 00000KT 1/2SM M01/M02 A3021 RMK SLP246 T10091023 57001 IEM_DS3505
ZBAA,1984-12-11 04:00,ZBAA 110400Z AUTO 00000KT 2SM M01/M03 A3018 RMK T10101030 IEM_DS3505
ZBAA,1984-12-11 05:00,ZBAA 110500Z AUTO 00000KT 1SM 00/M01 A3018 RMK T00001010 IEM_DS3505
ZBAA,1984-12-11 06:00,ZBAA 110600Z AUTO 00000KT 1/4SM 01/M00 A3015 RMK 60001 SLP227 T00091003 4////1036 57018 IEM_DS3505
ZBAA,1984-12-11 07:00,ZBAA 110700Z AUTO 04006KT 1SM 00/M01 A3015 RMK T00001010 IEM_DS3505
ZBAA,1984-12-11 08:00,ZBAA 110800Z AUTO 03006KT 1SM 00/M01 A3018 RMK T00001010 IEM_DS3505
ZBAA,1984-12-11 09:00,ZBAA 110900Z AUTO 14002KT 1SM 01/M01 A3018 RMK SLP231 T00091008 52004 IEM_DS3505
ZBAA,1984-12-11 10:00,ZBAA 111000Z AUTO 03008KT 1SM M02/M02 A3021 RMK T10201020 IEM_DS3505
ZBAA,1984-12-11 11:00,ZBAA 111100Z AUTO 00000KT 3/8SM M01/M02 A3018 RMK SLP241 T10131020 52009 IEM_DS3505
ZBAA,1984-12-11 12:00,ZBAA 111200Z AUTO 00000KT 3/8SM M01/M02 A3021 RMK SLP241 T10131020 52009 IEM_DS3505
ZBAA,1984-12-11 13:00,ZBAA 111300Z AUTO 25002KT 2 1/2SM M02/M03 A3021 RMK T10201030 IEM_DS3505
ZBAA,1984-12-11 15:00,ZBAA 111500Z AUTO 34002KT 1 1/4SM M05/M05 RMK SLP254 T10461052 52013 IEM_DS3505
ZBAA,1984-12-11 17:00,ZBAA 111700Z AUTO 36008KT 6SM M02/M05 A3027 RMK T10201050 IEM_DS3505
ZBAA,1984-12-11 18:00,ZBAA 111800Z AUTO 36008KT 12SM 01/M08 A3030 RMK SLP266 T00101076 40024//// 52013 IEM_DS3505
ZBAA,1984-12-11 19:00,ZBAA 111900Z AUTO 01008KT 7SM M01/M08 A3030 RMK T10101080 IEM_DS3505
ZBAA,1984-12-11 20:00,ZBAA 112000Z AUTO 34008KT 7SM M02/M09 A3030 RMK T10201090 IEM_DS3505
ZBAA,1984-12-11 21:00,ZBAA 112100Z AUTO 02004KT 12SM M00/M09 RMK SLP271 T10041087 52005 IEM_DS3505
ZBAA,1984-12-11 22:00,ZBAA 112200Z AUTO 36006KT 7SM M02/M09 A3030 RMK T10201090 IEM_DS3505
ZBAA,1984-12-11 23:00,ZBAA 112300Z AUTO 34008KT 7SM M03/M09 A3030 RMK T10301090 IEM_DS3505
ZBAA,1984-12-12 00:00,ZBAA 120000Z AUTO 02006KT 12SM M01/M10 RMK SLP287 T10081100 52015 IEM_DS3505
ZBAA,1984-12-12 01:00,ZBAA 120100Z AUTO 01008KT 7SM M01/M09 A3036 RMK T10101090 IEM_DS3505
ZBAA,1984-12-12 02:00,ZBAA 120200Z AUTO 03010KT 6SM 02/M09 A3039 RMK T00201090 IEM_DS3505
ZBAA,1984-12-12 03:00,ZBAA 120300Z AUTO 04006KT 9SM 03/M11 A3039 RMK SLP295 T00311109 52009 IEM_DS3505
ZBAA,1984-12-12 04:00,ZBAA 120400Z AUTO 03008KT 6SM 04/M09 A3036 RMK T00401090 IEM_DS3505
ZBAA,1984-12-12 06:00,ZBAA 120600Z AUTO 18006KT 7SM 07/M09 RMK SLP268 T00671087 4////1049 57026 IEM_DS3505
ZBAA,1984-12-12 09:00,ZBAA 120900Z AUTO 18006KT 6SM 03/M07 RMK SLP267 T00301072 57002 IEM_DS3505
ZBAA,1984-12-12 12:00,ZBAA 121200Z AUTO 18002KT 6SM 02/M06 RMK SLP267 T00171058 54000 IEM_DS3505
ZBAA,1984-12-12 15:00,ZBAA 121500Z AUTO 18010KT 6SM 01/M04 RMK SLP259 T00131042 57008 IEM_DS3505
ZBAA,1984-12-12 18:00,ZBAA 121800Z AUTO 00000KT 5SM 00/M03 RMK SLP242 T00021034 40069//// 57016 IEM_DS3505
ZBAA,1984-12-12 21:00,ZBAA 122100Z AUTO 36002KT 5SM M01/M03 RMK SLP227 T10111031 57016 IEM_DS3505
ZBAA,1984-12-13 00:00,ZBAA 130000Z AUTO 02004KT 2 1/2SM M01/M04 RMK SLP229 T10141039 52002 IEM_DS3505
ZBAA,1984-12-13 03:00,ZBAA 130300Z AUTO 00000KT 2 1/2SM 02/M04 RMK SLP228 T00191039 57001 IEM_DS3505
ZBAA,1984-12-13 06:00,ZBAA 130600Z AUTO 18002KT 3SM 05/M05 RMK SLP218 T00511048 4////1017 57009 IEM_DS3505
ZBAA,1984-12-13 09:00,ZBAA 130900Z AUTO 25004KT 2 1/2SM 03/M02 RMK SLP236 T00311015 52017 IEM_DS3505
ZBAA,1984-12-13 12:00,ZBAA 131200Z AUTO 36012KT 12SM 02/M15 RMK SLP257 T00221147 52021 IEM_DS3505
ZBAA,1984-12-13 15:00,ZBAA 131500Z AUTO 04012KT 16SM 01/M15 RMK SLP295 T00071147 52038 IEM_DS3505
ZBAA,1984-12-13 18:00,ZBAA 131800Z AUTO 02010KT 16SM M02/M15 RMK SLP308 T10161154 40051//// 52013 IEM_DS3505
ZBAA,1984-12-13 21:00,ZBAA 132100Z AUTO 04008KT 16SM M04/M14 RMK SLP319 T10381141 52011 IEM_DS3505
ZBAA,1984-12-14 00:00,ZBAA 140000Z AUTO 02008KT 7SM M05/M18 RMK SLP345 T10491183 52025 IEM_DS3505
ZBAA,1984-12-14 03:00,ZBAA 140300Z AUTO 02008KT 9SM M02/M19 RMK SLP361 T10221191 52016 IEM_DS3505
ZBAA,1984-12-14 06:00,ZBAA 140600Z AUTO 04002KT 12SM M00/M18 RMK SLP348 T10041175 4////1051 57013 IEM_DS3505
ZBAA,1984-12-14 09:00,ZBAA 140900Z AUTO 04004KT 6SM M01/M17 RMK SLP351 T10101167 52003 IEM_DS3505
ZBAA,1984-12-14 12:00,ZBAA 141200Z AUTO 22002KT 6SM M02/M15 RMK SLP370 T10221147 52018 IEM_DS3505
ZBAA,1984-12-14 15:00,ZBAA 141500Z AUTO 36002KT 6SM M04/M13 RMK SLP379 T10381130 52010 IEM_DS3505
ZBAA,1984-12-14 18:00,ZBAA 141800Z AUTO 34002KT 4SM M04/M11 RMK SLP374 T10421114 41001//// 57005 IEM_DS3505
ZBAA,1984-12-14 21:00,ZBAA 142100Z AUTO 36006KT 3SM M05/M09 RMK SLP368 T10481087 57006 IEM_DS3505
ZBAA,1984-12-15 00:00,ZBAA 150000Z AUTO 04004KT 2SM M04/M10 A3059 RMK SLP369 T10421100 54000 IEM_DS3505
ZBAA,1984-12-15 01:00,ZBAA 150100Z AUTO 00000KT 5SM M05/M10 A3059 RMK T10501100 IEM_DS3505
ZBAA,1984-12-15 02:00,ZBAA 150200Z AUTO 13002KT 6SM M04/M11 A3059 RMK T10401110 IEM_DS3505
ZBAA,1984-12-15 03:00,ZBAA 150300Z AUTO 36002KT 3SM M04/M10 A3059 RMK SLP366 T10361100 57003 IEM_DS3505
ZBAA,1984-12-15 04:00,ZBAA 150400Z AUTO 03002KT 7SM M04/M10 RMK T10401100 IEM_DS3505
ZBAA,1984-12-15 05:00,ZBAA 150500Z AUTO 06002KT 7SM M03/M10 A3050 RMK T10301100 IEM_DS3505
ZBAA,1984-12-15 06:00,ZBAA 150600Z AUTO 00000KT 3SM M03/M09 A3047 RMK SLP329 T10301087 4////1051 57037 IEM_DS3505
ZBAA,1984-12-15 07:00,ZBAA 150700Z AUTO 00000KT 6SM M03/M10 A3045 RMK T10301100 IEM_DS3505
ZBAA,1984-12-15 08:00,ZBAA 150800Z AUTO 01002KT 7SM M03/M09 A3042 RMK T10301090 IEM_DS3505
ZBAA,1984-12-15 09:00,ZBAA 150900Z AUTO 00000KT 1SM M03/M06 A3042 RMK SLP320 T10321058 57008 IEM_DS3505
ZBAA,1984-12-15 10:00,ZBAA 151000Z AUTO 00000KT 7SM M04/M08 A3042 RMK T10401080 IEM_DS3505
ZBAA,1984-12-15 12:00,ZBAA 151200Z AUTO 04004KT 2SM M04/M06 RMK 60002 SLP319 T10391061 57001 IEM_DS3505
ZBAA,1984-12-15 15:00,ZBAA 151500Z AUTO 00000KT 2SM M04/M06 RMK SLP315 T10431061 57004 IEM_DS3505
ZBAA,1984-12-15 18:00,ZBAA 151800Z AUTO 00000KT 1 1/2SM M04/M06 RMK 60004 SLP301 T10431058 41027//// 57014 IEM_DS3505
ZBAA,1984-12-15 21:00,ZBAA 152100Z AUTO 02002KT 1 1/4SM M04/M06 RMK SLP286 T10451065 57015 IEM_DS3505
ZBAA,1984-12-16 00:00,ZBAA 160000Z AUTO 36004KT 1SM M05/M07 RMK 60000 SLP288 T10491068 52002 IEM_DS3505
ZBAA,1984-12-16 03:00,ZBAA 160300Z AUTO 00000KT 2SM M04/M07 RMK SLP285 T10391072 57003 IEM_DS3505
ZBAA,1984-12-16 06:00,ZBAA 160600Z AUTO 00000KT 1 1/4SM M03/M07 RMK SLP252 T10311068 4////1055 57033 IEM_DS3505
ZBAA,1984-12-16 09:00,ZBAA 160900Z AUTO 20006KT 1 1/4SM 03/M06 RMK SLP254 T00321065 52002 IEM_DS3505
ZBAA,1984-12-16 12:00,ZBAA 161200Z AUTO 20002KT 1 1/2SM M04/M07 RMK SLP261 T10361068 52007 IEM_DS3505
ZBAA,1984-12-16 15:00,ZBAA 161500Z AUTO 00000KT 1 1/4SM M04/M06 RMK SLP259 T10411061 57002 IEM_DS3505
ZBAA,1984-12-16 18:00,ZBAA 161800Z AUTO 02010KT 12SM M04/M11 RMK 60001 SLP253 T10431109 41029//// 57006 IEM_DS3505
ZBAA,1984-12-16 21:00,ZBAA 162100Z AUTO 36017KT 16SM M05/M15 RMK SLP256 T10511151 52003 IEM_DS3505
ZBAA,1984-12-17 00:00,ZBAA 170000Z AUTO 34019KT 19SM M06/M21 RMK SLP280 T10651210 52023 IEM_DS3505
ZBAA,1984-12-17 03:00,ZBAA 170300Z AUTO 32019KT 19SM M06/M22 RMK SLP306 T10651220 52026 IEM_DS3505
ZBAA,1984-12-17 06:00,ZBAA 170600Z AUTO 32025KT 19SM M06/M24 RMK SLP279 T10551244 4////1075 57026 IEM_DS3505
ZBAA,1984-12-17 09:00,ZBAA 170900Z AUTO 32008KT 12SM M06/M22 RMK SLP290 T10591220 52010 IEM_DS3505
ZBAA,1984-12-17 12:00,ZBAA 171200Z AUTO 34010KT 12SM M06/M23 RMK SLP291 T10591231 52001 IEM_DS3505
ZBAA,1984-12-17 15:00,ZBAA 171500Z AUTO 32010KT 12SM M06/M24 RMK SLP299 T10591244 52008 IEM_DS3505
ZBAA,1984-12-17 18:00,ZBAA 171800Z AUTO 32002KT 12SM M07/M22 RMK SLP297 T10741220 41043//// 57002 IEM_DS3505
ZBAA,1984-12-17 21:00,ZBAA 172100Z AUTO 00000KT 9SM M09/M19 RMK SLP281 T10861191 57016 IEM_DS3505
ZBAA,1984-12-18 00:00,ZBAA 180000Z AUTO 00000KT 2 1/2SM M10/M18 RMK SLP292 T10971175 52011 IEM_DS3505
ZBAA,1984-12-18 03:00,ZBAA 180300Z AUTO 18004KT 6SM M02/M21 A3036 RMK SLP290 T10191210 57001 IEM_DS3505
ZBAA,1984-12-18 04:00,ZBAA 180400Z AUTO 29010KT 7SM M03/M20 A3033 RMK T10301200 IEM_DS3505
ZBAA,1984-12-18 05:00,ZBAA 180500Z AUTO 29014KT 7SM M03/M20 A3027 RMK T10301200 IEM_DS3505
ZBAA,1984-12-18 06:00,ZBAA 180600Z AUTO 20004KT 9SM M00/M20 RMK SLP262 T10051200 4////1101 57028 IEM_DS3505
ZBAA,1984-12-18 07:00,ZBAA 180700Z AUTO 30014G23KT 7SM M02/M22 A3027 RMK T10201220 IEM_DS3505
ZBAA,1984-12-18 08:00,ZBAA 180800Z AUTO 31010KT 7SM M02/M25 A3024 RMK T10201250 IEM_DS3505
ZBAA,1984-12-18 09:00,ZBAA 180900Z AUTO 20006KT 6SM M02/ A3024 RMK SLP263 54000 IEM_DS3505
ZBAA,1984-12-18 10:00,ZBAA 181000Z AUTO 32012KT 7SM M04/M24 A3027 RMK T10401240 IEM_DS3505
ZBAA,1984-12-18 12:00,ZBAA 181200Z AUTO 34002KT 6SM M05/M18 RMK SLP273 T10541175 52010 IEM_DS3505
ZBAA,1984-12-18 15:00,ZBAA 181500Z AUTO 00000KT 6SM M06/M13 RMK SLP277 T10561130 52005 IEM_DS3505
ZBAA,1984-12-18 18:00,ZBAA 181800Z AUTO 16002KT 7SM M07/M12 RMK SLP268 T10701124 41001//// 57009 IEM_DS3505
ZBAA,1984-12-18 21:00,ZBAA 182100Z AUTO 00000KT 7SM RMK SLP264 57005 IEM_DS3505
ZBAA,1984-12-19 00:00,ZBAA 190000Z AUTO 00000KT 6SM M06/M17 RMK SLP270 T10611167 52006 IEM_DS3505
ZBAA,1984-12-19 03:00,ZBAA 190300Z AUTO 18002KT 3SM M02/M15 RMK SLP273 T10161154 52004 IEM_DS3505
ZBAA,1984-12-19 06:00,ZBAA 190600Z AUTO 16002KT 6SM 01/M18 RMK SLP245 T00111175 4////1083 57028 IEM_DS3505
ZBAA,1984-12-19 09:00,ZBAA 190900Z AUTO 20006KT 4SM M02/M16 RMK SLP251 T10151160 52006 IEM_DS3505
ZBAA,1984-12-19 12:00,ZBAA 191200Z AUTO 22006KT 4SM M03/M14 RMK SLP263 T10341135 52012 IEM_DS3505
ZBAA,1984-12-19 15:00,ZBAA 191500Z AUTO 27002KT 2SM M06/M11 RMK SLP273 T10571109 52010 IEM_DS3505
ZBAA,1984-12-19 18:00,ZBAA 191800Z AUTO 18004KT 2SM M07/M13 RMK SLP272 T10681130 40016//// 57001 IEM_DS3505
ZBAA,1984-12-19 21:00,ZBAA 192100Z AUTO 36002KT 2SM M08/M14 RMK SLP270 T10771135 57002 IEM_DS3505
ZBAA,1984-12-20 00:00,ZBAA 200000Z AUTO 00000KT 1SM M08/M11 RMK SLP284 T10841114 52013 IEM_DS3505
ZBAA,1984-12-20 03:00,ZBAA 200300Z AUTO 00000KT 2 1/2SM 00/M15 RMK SLP290 T00031154 52007 IEM_DS3505
ZBAA,1984-12-20 06:00,ZBAA 200600Z AUTO 29016KT 9SM 03/M21 RMK SLP273 T00311210 4////1094 57017 IEM_DS3505
ZBAA,1984-12-20 09:00,ZBAA 200900Z AUTO 32014KT 8SM 00/M22 RMK SLP285 T00021220 52012 IEM_DS3505
ZBAA,1984-12-20 12:00,ZBAA 201200Z AUTO 32016KT 19SM RMK SLP329 52043 IEM_DS3505
ZBAA,1984-12-20 15:00,ZBAA 201500Z AUTO 29010KT 19SM M05/M27 RMK SLP354 T10531274 52026 IEM_DS3505
ZBAA,1984-12-20 18:00,ZBAA 201800Z AUTO 32004KT 19SM M08/M22 RMK SLP365 T10781220 40031//// 52011 IEM_DS3505
ZBAA,1984-12-20 21:00,ZBAA 202100Z AUTO 34016KT 19SM M09/M26 RMK SLP366 T10861258 54000 IEM_DS3505
ZBAA,1984-12-21 00:00,ZBAA 210000Z AUTO 02006KT 16SM M09/M26 RMK SLP372 T10931258 52006 IEM_DS3505
ZBAA,1984-12-21 03:00,ZBAA 210300Z AUTO 32010KT 16SM M06/M29 RMK SLP378 T10601292 52006 IEM_DS3505
ZBAA,1984-12-21 06:00,ZBAA 210600Z AUTO 34014KT 16SM M05/M29 RMK SLP355 T10491292 4////1098 57023 IEM_DS3505
ZBAA,1984-12-21 09:00,ZBAA 210900Z AUTO 32010KT 16SM M06/M31 RMK SLP358 T10641313 52002 IEM_DS3505
ZBAA,1984-12-21 12:00,ZBAA 211200Z AUTO 32008KT 16SM M08/M27 RMK SLP361 T10761274 52003 IEM_DS3505
ZBAA,1984-12-21 15:00,ZBAA 211500Z AUTO 29008KT 19SM M08/M29 RMK SLP362 T10851292 52001 IEM_DS3505
ZBAA,1984-12-21 18:00,ZBAA 211800Z AUTO 32014KT 12SM M10/M31 RMK SLP357 T10991313 41047//// 57005 IEM_DS3505
ZBAA,1984-12-21 21:00,ZBAA 212100Z AUTO 29014KT 19SM M10/M29 RMK SLP347 T11041292 57010 IEM_DS3505
ZBAA,1984-12-22 00:00,ZBAA 220000Z AUTO 32017KT 19SM M11/M27 A3047 RMK SLP337 T11071274 57010 IEM_DS3505
ZBAA,1984-12-22 01:00,ZBAA 220100Z AUTO 32008KT 7SM M11/M27 A3047 RMK T11101270 IEM_DS3505
ZBAA,1984-12-22 02:00,ZBAA 220200Z AUTO 31014KT 7SM M10/M30 A3050 RMK T11001300 IEM_DS3505
ZBAA,1984-12-22 03:00,ZBAA 220300Z AUTO 34017KT 9SM M09/ A3047 RMK SLP341 52004 IEM_DS3505
ZBAA,1984-12-22 04:00,ZBAA 220400Z AUTO 29017G27KT 7SM M09/M30 A3045 RMK T10901300 IEM_DS3505
ZBAA,1984-12-22 05:00,ZBAA 220500Z AUTO 30017KT 7SM M08/M28 A3042 RMK T10801280 IEM_DS3505
ZBAA,1984-12-22 06:00,ZBAA 220600Z AUTO 29019KT 7SM M07/ A3042 RMK SLP307 4////1114 57033 IEM_DS3505
ZBAA,1984-12-22 07:00,ZBAA 220700Z AUTO 31017KT 7SM M08/M23 A3039 RMK T10801230 IEM_DS3505
ZBAA,1984-12-22 08:00,ZBAA 220800Z AUTO 30016KT 4SM M08/M32 A3039 RMK T10801320 IEM_DS3505
ZBAA,1984-12-22 09:00,ZBAA 220900Z AUTO 34012KT 6SM M07/M37 RMK SLP306 T10701374 57001 IEM_DS3505
ZBAA,1984-12-22 12:00,ZBAA 221200Z AUTO 32016KT 12SM M07/M31 RMK SLP318 T10731313 52012 IEM_DS3505
ZBAA,1984-12-22 15:00,ZBAA 221500Z AUTO 32025KT 12SM M08/M31 RMK SLP321 T10801313 52003 IEM_DS3505
ZBAA,1984-12-22 18:00,ZBAA 221800Z AUTO 32008KT 12SM M09/M26 RMK SLP323 T10861258 41062//// 52001 IEM_DS3505
ZBAA,1984-12-22 21:00,ZBAA 222100Z AUTO 34008KT 11SM M09/M29 RMK SLP325 T10931292 52002 IEM_DS3505
ZBAA,1984-12-23 00:00,ZBAA 230000Z AUTO 32014KT 12SM M05/M37 RMK SLP328 T10501374 4////1099 57018 IEM_DS3505
ZBAA,1984-12-23 03:00,ZBAA 230300Z AUTO 32012KT 12SM M06/M34 RMK SLP347 T10621339 52012 IEM_DS3505
ZBAA,1984-12-23 06:00,ZBAA 230600Z AUTO 32014KT 12SM M05/M37 RMK SLP328 T10501374 4////1099 57018 IEM_DS3505
ZBAA,1984-12-23 09:00,ZBAA 230900Z AUTO 32008KT 9SM M06/M27 RMK SLP331 T10571274 52002 IEM_DS3505
ZBAA,1984-12-23 12:00,ZBAA 231200Z AUTO 34008KT 9SM M06/M29 RMK SLP348 T10591292 52017 IEM_DS3505
ZBAA,1984-12-23 15:00,ZBAA 231500Z AUTO 34014KT 12SM M07/M34 RMK SLP360 T10661339 52013 IEM_DS3505
ZBAA,1984-12-23 18:00,ZBAA 231800Z AUTO 02008KT 12SM M08/M26 RMK SLP363 T10851258 41046//// 52003 IEM_DS3505
ZBAA,1984-12-23 21:00,ZBAA 232100Z AUTO 29006KT 11SM M10/M23 RMK SLP361 T10991231 57003 IEM_DS3505
ZBAA,1984-12-24 00:00,ZBAA 240000Z AUTO 02002KT 3SM M10/M23 RMK SLP371 T10961231 52010 IEM_DS3505
ZBAA,1984-12-24 03:00,ZBAA 240300Z AUTO 14004KT 12SM M04/M24 RMK SLP373 T10421244 52003 IEM_DS3505
ZBAA,1984-12-24 06:00,ZBAA 240600Z AUTO 04002KT 16SM M03/M27 RMK SLP344 T10291274 4////1112 57029 IEM_DS3505
ZBAA,1984-12-24 09:00,ZBAA 240900Z AUTO 36002KT 16SM M04/M26 RMK SLP343 T10441258 57002 IEM_DS3505
ZBAA,1984-12-24 12:00,ZBAA 241200Z AUTO 25002KT 16SM M06/M24 RMK SLP346 T10551244 52003 IEM_DS3505
ZBAA,1984-12-24 15:00,ZBAA 241500Z AUTO 18004KT 12SM M07/M19 RMK SLP345 T10701191 54000 IEM_DS3505
ZBAA,1984-12-24 18:00,ZBAA 241800Z AUTO 00000KT 9SM M10/M18 RMK SLP337 T10971183 41020//// 57008 IEM_DS3505
ZBAA,1984-12-24 21:00,ZBAA 242100Z AUTO 04004KT 6SM M11/M18 RMK SLP328 T11091175 57010 IEM_DS3505
ZBAA,1984-12-25 00:00,ZBAA 250000Z AUTO 32006KT 9SM M07/M26 RMK SLP329 T10691258 52002 IEM_DS3505
ZBAA,1984-12-25 03:00,ZBAA 250300Z AUTO 34012KT 12SM M03/M29 RMK SLP325 T10311292 57004 IEM_DS3505
ZBAA,1984-12-25 05:00,ZBAA 250500Z AUTO 31010G19KT 7SM M03/M28 A3039 RMK T10301280 IEM_DS3505
ZBAA,1984-12-25 06:00,ZBAA 250600Z AUTO 32010KT 12SM M02/M29 A3036 RMK SLP294 T10171292 4////1121 57031 IEM_DS3505
ZBAA,1984-12-25 08:00,ZBAA 250800Z AUTO 30014KT 7SM M03/M27 A3036 RMK T10301270 IEM_DS3505
ZBAA,1984-12-25 09:00,ZBAA 250900Z AUTO 29010KT 9SM M03/M27 A3036 RMK SLP299 T10301274 52005 IEM_DS3505
ZBAA,1984-12-25 11:00,ZBAA 251100Z AUTO 33010KT 7SM M05/M22 A3039 RMK T10501220 IEM_DS3505
ZBAA,1984-12-25 12:00,ZBAA 251200Z AUTO 32006KT 12SM M05/M27 RMK SLP318 T10471274 52019 IEM_DS3505
ZBAA,1984-12-25 15:00,ZBAA 251500Z AUTO 02004KT 12SM M06/M26 RMK SLP332 T10631258 52014 IEM_DS3505
ZBAA,1984-12-25 18:00,ZBAA 251800Z AUTO 00000KT 19SM M08/M24 RMK SLP341 T10761244 41016//// 52009 IEM_DS3505
ZBAA,1984-12-25 21:00,ZBAA 252100Z AUTO 02008KT 19SM M08/M29 RMK SLP336 T10791292 57005 IEM_DS3505
ZBAA,1984-12-26 00:00,ZBAA 260000Z AUTO 36008KT 19SM M02/M29 RMK SLP335 T10211292 4////1094 57030 IEM_DS3505
ZBAA,1984-12-26 03:00,ZBAA 260300Z AUTO 02008KT 19SM M05/M27 RMK SLP365 T10481274 52004 IEM_DS3505
ZBAA,1984-12-26 06:00,ZBAA 260600Z AUTO 36008KT 19SM M02/M29 RMK SLP335 T10211292 4////1094 57030 IEM_DS3505
ZBAA,1984-12-26 09:00,ZBAA 260900Z AUTO 07004KT 9SM M03/M29 RMK SLP335 T10271292 54000 IEM_DS3505
ZBAA,1984-12-26 12:00,ZBAA 261200Z AUTO 00000KT 5SM M05/M20 RMK SLP348 T10481200 52013 IEM_DS3505
ZBAA,1984-12-26 15:00,ZBAA 261500Z AUTO 00000KT 4SM M06/M18 RMK SLP349 T10611183 52001 IEM_DS3505
ZBAA,1984-12-26 18:00,ZBAA 261800Z AUTO 36008KT 5SM M07/M21 RMK SLP337 T10661210 41016//// 57012 IEM_DS3505
ZBAA,1984-12-26 21:00,ZBAA 262100Z AUTO 00000KT 4SM M08/M18 RMK SLP335 T10751183 57002 IEM_DS3505
ZBAA,1984-12-27 00:00,ZBAA 270000Z AUTO 32002KT 6SM M08/M20 RMK SLP337 T10781200 52002 IEM_DS3505
ZBAA,1984-12-27 03:00,ZBAA 270300Z AUTO 34012KT 7SM M03/M27 RMK SLP340 T10281274 52003 IEM_DS3505
ZBAA,1984-12-27 06:00,ZBAA 270600Z AUTO 29017KT 6SM M03/M26 RMK SLP318 T10261258 4////1102 57021 IEM_DS3505
ZBAA,1984-12-27 09:00,ZBAA 270900Z AUTO 32017KT 9SM M05/M31 RMK SLP342 T10481313 52023 IEM_DS3505
ZBAA,1984-12-27 12:00,ZBAA 271200Z AUTO 34008KT 12SM M07/M31 RMK SLP360 T10701313 52017 IEM_DS3505
ZBAA,1984-12-27 15:00,ZBAA 271500Z AUTO 36006KT 12SM M09/M26 RMK SLP372 T10861258 52013 IEM_DS3505
ZBAA,1984-12-27 18:00,ZBAA 271800Z AUTO 34012KT 12SM M10/M26 RMK SLP372 T10961258 41015//// 54000 IEM_DS3505
ZBAA,1984-12-27 21:00,ZBAA 272100Z AUTO 02008KT 12SM M09/M26 RMK SLP366 T10921258 57006 IEM_DS3505
ZBAA,1984-12-28 00:00,ZBAA 280000Z AUTO 34004KT 12SM M10/M26 RMK SLP376 T10971258 52009 IEM_DS3505
ZBAA,1984-12-28 03:00,ZBAA 280300Z AUTO 32010KT 16SM M06/M31 RMK SLP374 T10631313 57002 IEM_DS3505
ZBAA,1984-12-28 06:00,ZBAA 280600Z AUTO 32017KT 12SM M05/M37 RMK SLP344 T10501374 4////1114 57030 IEM_DS3505
ZBAA,1984-12-28 09:00,ZBAA 280900Z AUTO 32010KT 12SM M06/M34 RMK SLP339 T10561339 57005 IEM_DS3505
ZBAA,1984-12-28 12:00,ZBAA 281200Z AUTO 29006KT 12SM M09/M23 RMK SLP341 T10891231 52002 IEM_DS3505
ZBAA,1984-12-28 15:00,ZBAA 281500Z AUTO 00000KT 12SM M10/M21 RMK SLP338 T10991210 57003 IEM_DS3505
ZBAA,1984-12-28 18:00,ZBAA 281800Z AUTO 32012KT 19SM M07/M29 RMK SLP328 T10671292 41047//// 57009 IEM_DS3505
ZBAA,1984-12-28 21:00,ZBAA 282100Z AUTO 32008KT 19SM M08/M34 RMK SLP323 T10791339 57005 IEM_DS3505
ZBAA,1984-12-29 00:00,ZBAA 290000Z AUTO 00000KT 19SM M10/M26 RMK SLP331 T10961258 52007 IEM_DS3505
ZBAA,1984-12-29 01:00,ZBAA 290100Z AUTO 33012KT 7SM M10/M24 A3047 RMK T11001240 IEM_DS3505
ZBAA,1984-12-29 02:00,ZBAA 290200Z AUTO 32012KT 7SM M08/M29 A3047 RMK T10801290 IEM_DS3505
ZBAA,1984-12-29 03:00,ZBAA 290300Z AUTO 29006KT 11SM M05/M37 A3045 RMK SLP327 T10541374 57004 IEM_DS3505
ZBAA,1984-12-29 04:00,ZBAA 290400Z AUTO 33008KT 7SM M05/M30 A3042 RMK T10501300 IEM_DS3505
ZBAA,1984-12-29 05:00,ZBAA 290500Z AUTO 31008KT 7SM M04/M32 A3036 RMK T10401320 IEM_DS3505
ZBAA,1984-12-29 06:00,ZBAA 290600Z AUTO 20006KT 7SM M02/M31 A3033 RMK SLP286 T10251313 4////1119 57039 IEM_DS3505
ZBAA,1984-12-29 07:00,ZBAA 290700Z AUTO 32014KT 7SM M03/M32 A3033 RMK T10301320 IEM_DS3505
ZBAA,1984-12-29 08:00,ZBAA 290800Z AUTO 26012KT 7SM M03/M30 A3030 RMK T10301300 IEM_DS3505
ZBAA,1984-12-29 09:00,ZBAA 290900Z AUTO 20006KT 6SM M04/M24 A3030 RMK SLP281 T10441244 57006 IEM_DS3505
ZBAA,1984-12-29 12:00,ZBAA 291200Z AUTO 18006KT 6SM M06/M22 RMK SLP280 T10641220 57001 IEM_DS3505
ZBAA,1984-12-29 15:00,ZBAA 291500Z AUTO 20008KT 9SM M06/M26 RMK SLP276 T10651258 57004 IEM_DS3505
ZBAA,1984-12-29 18:00,ZBAA 291800Z AUTO 00000KT 7SM M10/M21 RMK SLP271 T10951210 41021//// 57005 IEM_DS3505
ZBAA,1984-12-29 21:00,ZBAA 292100Z AUTO 00000KT 5SM M11/M18 RMK SLP260 T11121183 57011 IEM_DS3505
ZBAA,1984-12-30 00:00,ZBAA 300000Z AUTO 34006KT 5SM M10/M18 RMK SLP266 T10981175 52006 IEM_DS3505
ZBAA,1984-12-30 03:00,ZBAA 300300Z AUTO 34016KT 9SM M00/M24 RMK SLP268 T10011244 52003 IEM_DS3505
ZBAA,1984-12-30 06:00,ZBAA 300600Z AUTO 32002KT 12SM 02/M22 RMK SLP246 T00191220 4////1120 57022 IEM_DS3505
ZBAA,1984-12-30 09:00,ZBAA 300900Z AUTO 20006KT 9SM 00/M22 RMK SLP256 T00001220 52009 IEM_DS3505
ZBAA,1984-12-30 12:00,ZBAA 301200Z AUTO 22004KT 12SM M03/M20 RMK SLP269 T10301200 52013 IEM_DS3505
ZBAA,1984-12-30 15:00,ZBAA 301500Z AUTO 20002KT 9SM M05/M18 RMK SLP275 T10541175 52007 IEM_DS3505
ZBAA,1984-12-30 18:00,ZBAA 301800Z AUTO 00000KT 3SM M09/M16 RMK SLP283 T10891160 40025//// 52008 IEM_DS3505
ZBAA,1984-12-30 21:00,ZBAA 302100Z AUTO 11002KT 5SM M07/M18 RMK SLP280 T10741183 57003 IEM_DS3505
