station,valid,metar
ZJSY,2003-01-01 00:00,ZJSY 010000Z 09001MPS 5000 BR NSC 20/16 Q1019 NOSIG
ZJSY,2003-01-01 01:00,ZJSY 010100Z 08003MPS 7000 NSC 23/17 Q1020 NOSIG
ZJSY,2003-01-01 02:00,ZJSY 010200Z 07007MPS 7000 NSC 24/17 Q1020 NOSIG
ZJSY,2003-01-01 03:00,ZJSY 010300Z 08006MPS 8000 NSC 26/17 Q1019 NOSIG
ZJSY,2003-01-01 04:00,ZJSY 010400Z 09006MPS 8000 NSC 26/16 Q1019 NOSIG
ZJSY,2003-01-01 05:00,ZJSY 010500Z 10005MPS 8000 NSC 26/17 Q1018 NOSIG
ZJSY,2003-01-01 06:00,ZJSY 010600Z 09007MPS 8000 NSC 26/17 Q1017 NOSIG
ZJSY,2003-01-01 07:00,ZJSY 010700Z 09007MPS 8000 NSC 26/17 Q1017 NOSIG
ZJSY,2003-01-01 08:00,ZJSY 010800Z 09007MPS CAVOK 25/17 Q1017 NOSIG
ZJSY,2003-01-01 09:00,ZJSY 010900Z 10006MPS CAVOK 24/18 Q1017 NOSIG
ZJSY,2003-01-01 10:00,ZJSY 011000Z 08006MPS CAVOK 23/18 Q1017 NOSIG
ZJSY,2003-01-01 11:00,ZJSY 011100Z 08006MPS CAVOK 23/18 Q1018 NOSIG
ZJSY,2003-01-01 12:00,ZJSY 011200Z 08005MPS CAVOK 23/18 Q1018 NOSIG
ZJSY,2003-01-01 13:00,ZJSY 011300Z 07004MPS CAVOK 23/17 Q1019 NOSIG
ZJSY,2003-01-01 14:00,ZJSY 011400Z 08003MPS CAVOK 23/17 Q1019 NOSIG
ZJSY,2003-01-01 15:00,ZJSY 011500Z 07002MPS CAVOK 22/17 Q1020 NOSIG
ZJSY,2003-01-01 16:00,ZJSY 011600Z 08003MPS CAVOK 22/17 Q1020 NOSIG
ZJSY,2003-01-01 17:00,ZJSY 011700Z 08004MPS CAVOK 21/17 Q1019 NOSIG
ZJSY,2003-01-01 18:00,ZJSY 011800Z AUTO 09003MPS //// // ////// 22/17 Q1019 NOSIG
ZJSY,2003-01-01 19:00,ZJSY 011900Z AUTO 08002MPS //// // ////// 21/17 Q1019 NOSIG
ZJSY,2003-01-01 20:00,ZJSY 012000Z AUTO 07005MPS //// // ////// 22/18 Q1018 NOSIG
ZJSY,2003-01-01 21:00,ZJSY 012100Z AUTO 08005MPS //// // ////// 21/18 Q1018 NOSIG
ZJSY,2003-01-01 22:00,ZJSY 012200Z 08004MPS CAVOK 21/18 Q1018 NOSIG
ZJSY,2003-01-01 23:00,ZJSY 012300Z 08004MPS CAVOK 21/18 Q1019 NOSIG
ZJSY,2003-01-02 00:00,ZJSY 020000Z 08004MPS 9999 SCT040 21/18 Q1020 NOSIG
ZJSY,2003-01-02 01:00,ZJSY 020100Z 08006MPS CAVOK 23/18 Q1020 NOSIG
ZJSY,2003-01-02 02:00,ZJSY 020200Z 08006MPS 9999 FEW016 25/18 Q1020 NOSIG
ZJSY,2003-01-02 03:00,ZJSY 020300Z 10006MPS 9999 SCT016 25/18 Q1020 NOSIG
ZJSY,2003-01-02 04:00,ZJSY 020400Z 09006MPS 9999 SCT017 25/17 Q1019 NOSIG
ZJSY,2003-01-02 05:00,ZJSY 020500Z 08007MPS 9999 BKN018 27/17 Q1019 NOSIG
ZJSY,2003-01-02 06:00,ZJSY 020600Z 10005MPS 9999 BKN018 27/17 Q1018 NOSIG
ZJSY,2003-01-02 07:00,ZJSY 020700Z 07005MPS 9999 BKN018 SCT030 26/17 Q1017 NOSIG
ZJSY,2003-01-02 08:00,ZJSY 020800Z 07006MPS 9999 SCT018 SCT030 26/17 Q1018 NOSIG
ZJSY,2003-01-02 09:00,ZJSY 020900Z 07006MPS 9999 FEW016 25/17 Q1018 NOSIG
ZJSY,2003-01-02 10:00,ZJSY 021000Z 08005MPS CAVOK 24/17 Q1018 NOSIG
ZJSY,2003-01-02 11:00,ZJSY 021100Z 08004MPS CAVOK 23/18 Q1019 NOSIG
ZJSY,2003-01-02 12:00,ZJSY 021200Z 05003MPS CAVOK 23/18 Q1020 NOSIG
ZJSY,2003-01-02 13:00,ZJSY 021300Z 04002MPS CAVOK 23/18 Q1020 NOSIG
ZJSY,2003-01-02 14:00,ZJSY 021400Z 05003MPS 9999 FEW016 SCT100 23/18 Q1021 NOSIG
ZJSY,2003-01-02 15:00,ZJSY 021500Z 06001MPS 9999 FEW016 SCT100 23/18 Q1020 NOSIG
ZJSY,2003-01-02 16:00,ZJSY 021600Z 05002MPS 9999 FEW016 SCT100 23/18 Q1021 NOSIG
ZJSY,2003-01-02 17:00,ZJSY 021700Z 01001MPS 9999 FEW016 BKN100 23/17 Q1021 NOSIG
ZJSY,2003-01-02 18:00,ZJSY 021800Z 02002MPS 9999 FEW016 BKN100 23/17 Q1020 NOSIG
ZJSY,2003-01-02 19:00,ZJSY 021900Z AUTO 00000MPS //// // ////// 22/17 Q1020 NOSIG
ZJSY,2003-01-02 20:00,ZJSY 022000Z AUTO 34001MPS //// // ////// 21/18 Q1020 NOSIG
ZJSY,2003-01-02 21:00,ZJSY 022100Z AUTO 10001MPS //// // ////// 22/18 Q1020 NOSIG
ZJSY,2003-01-02 22:00,ZJSY 022200Z 06001MPS 9999 FEW016 BKN100 22/17 Q1020 NOSIG
ZJSY,2003-01-02 23:00,ZJSY 022300Z 34001MPS 9999 FEW016 BKN100 21/18 Q1020 NOSIG
ZJSY,2003-01-03 00:00,ZJSY 030000Z 08003MPS 9999 FEW016 SCT043 BKN100 22/18 Q1021 NOSIG
ZJSY,2003-01-03 01:00,ZJSY 030100Z 06002MPS 9999 FEW015 SCT043 OVC060 22/16 Q1022 NOSIG
ZJSY,2003-01-03 02:00,ZJSY 030200Z 23001MPS 9999 FEW015 BKN033 OVC060 22/16 Q1022 NOSIG
ZJSY,2003-01-03 03:00,ZJSY 030300Z 08003MPS 9999 BKN033 OVC060 23/16 Q1022 NOSIG
ZJSY,2003-01-03 04:00,ZJSY 030400Z 07004MPS 9999 BKN033 OVC060 23/15 Q1021 NOSIG
ZJSY,2003-01-03 05:00,ZJSY 030500Z 07005MPS 9999 BKN033 OVC060 23/15 Q1020 NOSIG
ZJSY,2003-01-03 06:00,ZJSY 030600Z 08005MPS 9999 BKN033 OVC060 22/14 Q1019 NOSIG
ZJSY,2003-01-03 07:00,ZJSY 030700Z 06003MPS 9999 BKN033 OVC060 22/15 Q1019 NOSIG
ZJSY,2003-01-03 08:00,ZJSY 030800Z 06003MPS 9999 SCT043 OVC100 23/14 Q1019 NOSIG
ZJSY,2003-01-03 09:00,ZJSY 030900Z 06003MPS 9999 SCT043 OVC100 22/15 Q1019 NOSIG
ZJSY,2003-01-03 10:00,ZJSY 031000Z 06003MPS 9999 SCT040 OVC050 22/14 Q1019 NOSIG
ZJSY,2003-01-03 11:00,ZJSY 031100Z 05002MPS 9999 BKN033 OVC050 21/15 Q1020 NOSIG
ZJSY,2003-01-03 12:00,ZJSY 031200Z 04002MPS 9999 BKN033 OVC050 21/15 Q1021 NOSIG
ZJSY,2003-01-03 13:00,ZJSY 031300Z 06002MPS 9999 SCT033 OVC043 21/15 Q1021 NOSIG
ZJSY,2003-01-03 14:00,ZJSY 031400Z 08002MPS 9999 SCT033 OVC043 21/15 Q1021 NOSIG
ZJSY,2003-01-03 15:00,ZJSY 031500Z 06003MPS 9999 FEW013 SCT033 OVC043 21/15 Q1020 NOSIG
ZJSY,2003-01-03 16:00,ZJSY 031600Z 04003MPS 9999 FEW013 SCT033 OVC043 21/15 Q1020 NOSIG
ZJSY,2003-01-03 17:00,ZJSY 031700Z 06004MPS 9999 SCT033 OVC050 21/15 Q1020 NOSIG
ZJSY,2003-01-03 18:00,ZJSY 031800Z AUTO 06004MPS //// // ////// 21/15 Q1020 NOSIG
ZJSY,2003-01-03 19:00,ZJSY 031900Z AUTO 05004MPS //// // ////// 21/15 Q1019 NOSIG
ZJSY,2003-01-03 20:00,ZJSY 032000Z AUTO 05005MPS //// // ////// 21/15 Q1019 NOSIG
ZJSY,2003-01-03 21:00,ZJSY 032100Z AUTO 06004MPS //// // ////// 21/14 Q1019 NOSIG
ZJSY,2003-01-03 22:00,ZJSY 032200Z 11001MPS 9999 FEW013 SCT033 OVC050 21/15 Q1019 NOSIG
ZJSY,2003-01-03 23:00,ZJSY 032300Z 12001MPS 9999 BKN036 OVC050 20/15 Q1020 NOSIG
ZJSY,2003-01-04 00:00,ZJSY 040000Z 06001MPS 9999 BKN040 BKN066 21/15 Q1020 NOSIG
ZJSY,2003-01-04 01:00,ZJSY 040100Z 06005MPS CAVOK 22/15 Q1020 NOSIG
ZJSY,2003-01-04 02:00,ZJSY 040200Z 05006MPS CAVOK 23/15 Q1021 NOSIG
ZJSY,2003-01-04 03:00,ZJSY 040300Z 06005MPS CAVOK 24/15 Q1021 NOSIG
ZJSY,2003-01-04 04:00,ZJSY 040400Z 08006MPS 9999 BKN043 BKN060 24/15 Q1021 NOSIG
ZJSY,2003-01-04 05:00,ZJSY 040500Z 07007MPS 9999 BKN043 BKN060 24/15 Q1020 NOSIG
ZJSY,2003-01-04 06:00,ZJSY 040600Z 05005MPS 9999 BKN040 BKN060 24/16 Q1019 NOSIG
ZJSY,2003-01-04 07:00,ZJSY 040700Z 07006MPS 9999 BKN040 BKN060 24/16 Q1018 NOSIG
ZJSY,2003-01-04 08:00,ZJSY 040800Z 06006MPS 9999 BKN040 BKN060 24/16 Q1018 NOSIG
ZJSY,2003-01-04 09:00,ZJSY 040900Z 07007MPS 9999 BKN040 BKN060 23/15 Q1019 NOSIG
ZJSY,2003-01-04 10:00,ZJSY 041000Z 06004MPS 9999 SCT016 BKN033 BKN060 22/15 Q1019 NOSIG
ZJSY,2003-01-04 11:00,ZJSY 041100Z 07004MPS 9999 SCT016 BKN033 BKN060 22/15 Q1019 NOSIG
ZJSY,2003-01-04 12:00,ZJSY 041200Z 07004MPS 9999 SCT016 BKN033 BKN060 21/15 Q1020 NOSIG
ZJSY,2003-01-04 13:00,ZJSY 041300Z 07006MPS 9999 BKN033 BKN060 22/15 Q1020 NOSIG
ZJSY,2003-01-04 14:00,ZJSY 041400Z 04005MPS 9999 BKN033 BKN060 22/15 Q1021 NOSIG
ZJSY,2003-01-04 15:00,ZJSY 041500Z 05004MPS 9999 BKN033 BKN060 22/15 Q1021 NOSIG
ZJSY,2003-01-04 16:00,ZJSY 041600Z 05003MPS 9999 FEW016 BKN033 BKN060 22/16 Q1021 NOSIG
ZJSY,2003-01-04 17:00,ZJSY 041700Z 06003MPS 9999 FEW016 BKN033 BKN060 22/16 Q1021 NOSIG
ZJSY,2003-01-04 18:00,ZJSY 041800Z AUTO 07003MPS //// // ////// 21/16 Q1020 NOSIG
ZJSY,2003-01-04 19:00,ZJSY 041900Z AUTO 05004MPS //// // ////// 22/16 Q1020 NOSIG
ZJSY,2003-01-04 20:00,ZJSY 042000Z AUTO 05004MPS //// // ////// 22/16 Q1019 NOSIG
ZJSY,2003-01-04 21:00,ZJSY 042100Z AUTO 06002MPS //// // ////// 22/16 Q1019 NOSIG
ZJSY,2003-01-04 22:00,ZJSY 042200Z 05003MPS 9999 BKN033 BKN060 22/16 Q1020 NOSIG
ZJSY,2003-01-04 23:00,ZJSY 042300Z 05004MPS 9999 BKN033 BKN060 22/16 Q1020 NOSIG
ZJSY,2003-01-05 00:00,ZJSY 050000Z 08003MPS 9999 BKN040 BKN060 22/16 Q1020 NOSIG
ZJSY,2003-01-05 01:00,ZJSY 050100Z 07005MPS 9999 BKN040 BKN066 22/16 Q1021 NOSIG
ZJSY,2003-01-05 02:00,ZJSY 050200Z 07009MPS CAVOK 24/16 Q1021 NOSIG
ZJSY,2003-01-05 03:00,ZJSY 050300Z 07010MPS CAVOK 25/16 Q1021 NOSIG
ZJSY,2003-01-05 04:00,ZJSY 050400Z 07009MPS CAVOK 25/16 Q1020 NOSIG
ZJSY,2003-01-05 05:00,ZJSY 050500Z 07010MPS 9999 SCT014 BKN110 24/16 Q1019 NOSIG
ZJSY,2003-01-05 06:00,ZJSY 050600Z 08009G14MPS 8000 BKN014 BKN110 24/16 Q1018 NOSIG
ZJSY,2003-01-05 07:00,ZJSY 050700Z 08009MPS 8000 BKN014 BKN110 24/17 Q1018 NOSIG
ZJSY,2003-01-05 08:00,ZJSY 050800Z 08009MPS 8000 BKN014 BKN110 23/17 Q1018 NOSIG
ZJSY,2003-01-05 09:00,ZJSY 050900Z 07008MPS 8000 SCT014 SCT040 BKN110 23/17 Q1018 NOSIG
ZJSY,2003-01-05 10:00,ZJSY 051000Z 08007MPS 8000 SCT014 SCT040 BKN110 23/17 Q1019 NOSIG
ZJSY,2003-01-05 11:00,ZJSY 051100Z 08007MPS 8000 SCT014 SCT040 BKN060 23/16 Q1019 NOSIG
ZJSY,2003-01-05 12:00,ZJSY 051200Z 07008MPS 8000 FEW014 BKN060 22/17 Q1019 NOSIG
ZJSY,2003-01-05 13:00,ZJSY 051300Z 08007MPS 8000 NSC 22/16 Q1020 NOSIG
ZJSY,2003-01-05 15:00,ZJSY 051500Z 07008MPS 8000 NSC 22/17 Q1019 NOSIG
ZJSY,2003-01-05 16:00,ZJSY 051600Z 07007MPS CAVOK 22/17 Q1019 NOSIG
ZJSY,2003-01-05 17:00,ZJSY 051700Z 08006MPS CAVOK 22/17 Q1019 NOSIG
ZJSY,2003-01-05 18:00,ZJSY 051800Z AUTO 06006MPS //// // ////// 21/18 Q1018 NOSIG
ZJSY,2003-01-05 19:00,ZJSY 051900Z AUTO 06004MPS //// // ////// 20/18 Q1017 NOSIG
ZJSY,2003-01-05 20:00,ZJSY 052000Z AUTO 07004MPS //// // ////// 20/18 Q1017 NOSIG
ZJSY,2003-01-05 21:00,ZJSY 052100Z AUTO 02003MPS //// // ////// 20/18 Q1017 NOSIG
ZJSY,2003-01-05 22:00,ZJSY 052200Z 03002MPS CAVOK 21/18 Q1017 NOSIG
ZJSY,2003-01-06 02:00,ZJSY 060200Z 06004MPS 9999 BKN046 BKN230 23/19 Q1018 NOSIG
ZJSY,2003-01-06 03:00,ZJSY 060300Z 07003MPS 9999 SCT018 BKN046 24/19 Q1018 NOSIG
ZJSY,2003-01-06 04:00,ZJSY 060400Z 05002MPS 8000 DZ BKN016 BKN040 23/20 Q1018 NOSIG
ZJSY,2003-01-06 05:00,ZJSY 060500Z 30001MPS 9999 BKN016 BKN043 23/20 Q1017 REDZ NOSIG
ZJSY,2003-01-06 06:00,ZJSY 060600Z 28004MPS 9999 -RA BKN013 BKN040 22/18 Q1016 NOSIG
ZJSY,2003-01-06 07:00,ZJSY 060700Z 34003MPS 9999 DZ BKN015 BKN040 22/18 Q1015 NOSIG
ZJSY,2003-01-06 08:00,ZJSY 060800Z 31002MPS 6000 DZ BKN013 BKN040 20/17 Q1016 NOSIG
ZJSY,2003-01-06 09:00,ZJSY 060900Z 34004MPS 9999 BKN013 BKN040 18/16 Q1017 NOSIG
ZJSY,2003-01-06 10:00,ZJSY 061000Z 33003MPS 9999 BKN013 BKN040 18/15 Q1017
ZJSY,2003-01-06 11:00,ZJSY 061100Z 28001MPS 6000 -RA SCT013 BKN040 17/14 Q1018 NOSIG
ZJSY,2003-01-06 12:00,ZJSY 061200Z 36001MPS 8000 -RA BKN015 BKN033 17/14 Q1019 NOSIG
ZJSY,2003-01-06 13:00,ZJSY 061300Z 36001MPS 6000 -RA BKN013 BKN033 16/15 Q1020 NOSIG
ZJSY,2003-01-06 14:00,ZJSY 061400Z 08001MPS 8000 SCT010 BKN033 17/15 Q1021 NOSIG
ZJSY,2003-01-06 15:00,ZJSY 061500Z 27001MPS 8000 SCT010 BKN043 16/13 Q1021 NOSIG
ZJSY,2003-01-06 16:00,ZJSY 061600Z 31002MPS 9999 SCT013 BKN050 16/15 Q1021 NOSIG
ZJSY,2003-01-06 17:00,ZJSY 061700Z 32002MPS 9999 SCT013 BKN050 16/14 Q1021 NOSIG
ZJSY,2003-01-06 18:00,ZJSY 061800Z AUTO 29001MPS //// // ////// 16/14 Q1021 NOSIG
ZJSY,2003-01-06 19:00,ZJSY 061900Z AUTO 31002MPS //// // ////// 16/13 Q1020 NOSIG
ZJSY,2003-01-06 20:00,ZJSY 062000Z AUTO 31001MPS //// // ////// 16/13 Q1020 NOSIG
ZJSY,2003-01-06 21:00,ZJSY 062100Z AUTO 33004MPS //// // ////// 15/12 Q1020 NOSIG
ZJSY,2003-01-06 22:00,ZJSY 062200Z 35002MPS CAVOK 14/11 Q1021 NOSIG
ZJSY,2003-01-06 23:00,ZJSY 062300Z 35002MPS CAVOK 14/10 Q1021 NOSIG
ZJSY,2003-01-07 00:00,ZJSY 070000Z 36002MPS 9999 FEW040 14/10 Q1022 NOSIG
ZJSY,2003-01-07 01:00,ZJSY 070100Z 36002MPS 9999 FEW018 16/11 Q1022 NOSIG
ZJSY,2003-01-07 02:00,ZJSY 070200Z 31002MPS CAVOK 18/12 Q1023 NOSIG
ZJSY,2003-01-07 03:00,ZJSY 070300Z 17001MPS 9999 FEW018 20/13 Q1022 NOSIG
ZJSY,2003-01-07 04:00,ZJSY 070400Z 19002MPS 9999 FEW018 SCT260 19/13 Q1022 NOSIG
ZJSY,2003-01-07 05:00,ZJSY 070500Z 18002MPS 9999 FEW018 SCT260 20/13 Q1020 NOSIG
ZJSY,2003-01-07 06:00,ZJSY 070600Z 20003MPS 9999 FEW018 SCT260 20/12 Q1019 NOSIG
ZJSY,2003-01-07 07:00,ZJSY 070700Z 20003MPS 9999 SCT018 SCT033 21/13 Q1019 NOSIG
ZJSY,2003-01-07 08:00,ZJSY 070800Z 19003MPS 9999 BKN018 BKN033 20/14 Q1018 NOSIG
ZJSY,2003-01-07 09:00,ZJSY 070900Z 20002MPS 9999 BKN018 BKN033 19/13 Q1019 NOSIG
ZJSY,2003-01-07 10:00,ZJSY 071000Z 14002MPS 9999 SCT018 BKN040 19/14 Q1019 NOSIG
ZJSY,2003-01-07 11:00,ZJSY 071100Z 09003MPS 9999 SCT018 BKN046 18/13 Q1020 NOSIG
ZJSY,2003-01-07 12:00,ZJSY 071200Z 10003MPS 9999 FEW018 BKN050 18/13 Q1021 NOSIG
ZJSY,2003-01-07 13:00,ZJSY 071300Z 10003MPS 9999 FEW018 BKN050 18/12 Q1021 NOSIG
ZJSY,2003-01-07 14:00,ZJSY 071400Z 09002MPS 9999 FEW018 BKN050 17/12 Q1022 NOSIG
ZJSY,2003-01-07 15:00,ZJSY 071500Z 10003MPS 9999 FEW018 BKN050 16/12 Q1022 NOSIG
ZJSY,2003-01-07 16:00,ZJSY 071600Z 08004MPS 9999 FEW018 BKN050 16/11 Q1022 NOSIG
ZJSY,2003-01-07 17:00,ZJSY 071700Z 08005MPS 9999 FEW020 BKN050 15/10 Q1022 NOSIG
ZJSY,2003-01-07 18:00,ZJSY 071800Z AUTO 07004MPS //// // ////// 15/10 Q1021 NOSIG
ZJSY,2003-01-07 19:00,ZJSY 071900Z AUTO 04002MPS //// // ////// 16/11 Q1021 NOSIG
ZJSY,2003-01-07 20:00,ZJSY 072000Z AUTO 06002MPS //// // ////// 15/11 Q1021 NOSIG
ZJSY,2003-01-07 21:00,ZJSY 072100Z AUTO 01002MPS //// // ////// 14/11 Q1021 NOSIG
ZJSY,2003-01-07 22:00,ZJSY 072200Z 01002MPS 9999 FEW020 SCT050 BKN110 14/11 Q1021 NOSIG
ZJSY,2003-01-07 23:00,ZJSY 072300Z 33001MPS CAVOK 14/12 Q1022 NOSIG
ZJSY,2003-01-08 00:00,ZJSY 080000Z 00000MPS 9999 SCT040 BKN060 15/13 Q1022 NOSIG
ZJSY,2003-01-08 01:00,ZJSY 080100Z 04002MPS CAVOK 17/11 Q1023 NOSIG
ZJSY,2003-01-08 02:00,ZJSY 080200Z 07003MPS CAVOK 19/10 Q1023 NOSIG
ZJSY,2003-01-08 04:00,ZJSY 080400Z 12003MPS CAVOK 21/10 Q1022 NOSIG
ZJSY,2003-01-08 05:00,ZJSY 080500Z 12003MPS CAVOK 21/10 Q1021 NOSIG
ZJSY,2003-01-08 06:00,ZJSY 080600Z 18003MPS CAVOK 21/10 Q1020 NOSIG
ZJSY,2003-01-08 07:00,ZJSY 080700Z 22003MPS CAVOK 21/11 Q1019 NOSIG
ZJSY,2003-01-08 08:00,ZJSY 080800Z 19002MPS CAVOK 21/11 Q1019 NOSIG
ZJSY,2003-01-08 09:00,ZJSY 080900Z 22001MPS CAVOK 20/11 Q1019 NOSIG
ZJSY,2003-01-08 10:00,ZJSY 081000Z 14001MPS CAVOK 20/10 Q1019 NOSIG
ZJSY,2003-01-08 11:00,ZJSY 081100Z 10001MPS CAVOK 20/11 Q1019 NOSIG
ZJSY,2003-01-08 12:00,ZJSY 081200Z 05003MPS CAVOK 17/12 Q1020 NOSIG
ZJSY,2003-01-08 13:00,ZJSY 081300Z 35002MPS CAVOK 16/12 Q1020 NOSIG
ZJSY,2003-01-08 14:00,ZJSY 081400Z 35002MPS CAVOK 15/12 Q1020 NOSIG
ZJSY,2003-01-08 15:00,ZJSY 081500Z 34002MPS CAVOK 15/12 Q1021 NOSIG
ZJSY,2003-01-08 16:00,ZJSY 081600Z 35002MPS CAVOK 14/12 Q1020 NOSIG
ZJSY,2003-01-08 17:00,ZJSY 081700Z 36002MPS CAVOK 14/12 Q1020 NOSIG
ZJSY,2003-01-08 18:00,ZJSY 081800Z AUTO 35002MPS //// // ////// 14/11 Q1019 NOSIG
ZJSY,2003-01-08 19:00,ZJSY 081900Z AUTO 34003MPS //// // ////// 14/12 Q1019 NOSIG
ZJSY,2003-01-08 20:00,ZJSY 082000Z AUTO 35001MPS //// // ////// 13/11 Q1019 NOSIG
ZJSY,2003-01-08 21:00,ZJSY 082100Z AUTO 36002MPS //// // ////// 13/11 Q1019 NOSIG
ZJSY,2003-01-08 22:00,ZJSY 082200Z 34002MPS CAVOK 13/11 Q1019 NOSIG
ZJSY,2003-01-08 23:00,ZJSY 082300Z 34004MPS CAVOK 13/11 Q1020 NOSIG
ZJSY,2003-01-09 00:00,ZJSY 090000Z 33003MPS CAVOK 14/11 Q1020 NOSIG
ZJSY,2003-01-09 01:00,ZJSY 090100Z 13001MPS CAVOK 17/13 Q1021 NOSIG
ZJSY,2003-01-09 02:00,ZJSY 090200Z 16001MPS CAVOK 20/12 Q1022 NOSIG
ZJSY,2003-01-09 03:00,ZJSY 090300Z 21001MPS CAVOK 23/11 Q1022 NOSIG
ZJSY,2003-01-09 04:00,ZJSY 090400Z 19002MPS CAVOK 23/11 Q1021 NOSIG
ZJSY,2003-01-09 05:00,ZJSY 090500Z 22003MPS CAVOK 23/12 Q1020 NOSIG
ZJSY,2003-01-09 06:00,ZJSY 090600Z 21004MPS CAVOK 24/12 Q1019 NOSIG
ZJSY,2003-01-09 07:00,ZJSY 090700Z 23004MPS CAVOK 23/12 Q1018 NOSIG
ZJSY,2003-01-09 08:00,ZJSY 090800Z 24003MPS CAVOK 23/12 Q1017 NOSIG
ZJSY,2003-01-09 09:00,ZJSY 090900Z 22002MPS CAVOK 23/13 Q1018 NOSIG
ZJSY,2003-01-09 10:00,ZJSY 091000Z 22001MPS CAVOK 22/13 Q1018 NOSIG
ZJSY,2003-01-09 11:00,ZJSY 091100Z 33002MPS CAVOK 20/14 Q1019 NOSIG
ZJSY,2003-01-09 12:00,ZJSY 091200Z 35001MPS CAVOK 19/15 Q1020 NOSIG
ZJSY,2003-01-09 13:00,ZJSY 091300Z 34002MPS CAVOK 18/14 Q1020 NOSIG
ZJSY,2003-01-09 14:00,ZJSY 091400Z 36001MPS CAVOK 19/14 Q1021 NOSIG
ZJSY,2003-01-09 15:00,ZJSY 091500Z 34002MPS CAVOK 19/15 Q1021 NOSIG
ZJSY,2003-01-09 16:00,ZJSY 091600Z 08001MPS CAVOK 20/15 Q1021 NOSIG
ZJSY,2003-01-09 17:00,ZJSY 091700Z 00000MPS CAVOK 19/15 Q1021 NOSIG
ZJSY,2003-01-09 18:00,ZJSY 091800Z AUTO 34001MPS //// // ////// 19/15 Q1020 NOSIG
ZJSY,2003-01-09 19:00,ZJSY 091900Z AUTO 33002MPS //// // ////// 19/15 Q1019 NOSIG
ZJSY,2003-01-09 20:00,ZJSY 092000Z AUTO 12001MPS //// // ////// 19/14 Q1019 NOSIG
ZJSY,2003-01-09 21:00,ZJSY 092100Z AUTO 03001MPS //// // ////// 18/15 Q1019 NOSIG
ZJSY,2003-01-09 22:00,ZJSY 092200Z 10002MPS 9999 SCT040 BKN060 19/15 Q1020 NOSIG
ZJSY,2003-01-09 23:00,ZJSY 092300Z 36001MPS 9999 SCT040 BKN060 18/15 Q1020 NOSIG
ZJSY,2003-01-10 00:00,ZJSY 100000Z 06001MPS 9999 SCT040 BKN050 19/14 Q1020 NOSIG
ZJSY,2003-01-10 01:00,ZJSY 100100Z 05004MPS 9999 SCT040 BKN050 20/12 Q1021 NOSIG
ZJSY,2003-01-10 02:00,ZJSY 100200Z 34002MPS 9999 SCT040 BKN050 22/10 Q1021 NOSIG
ZJSY,2003-01-10 03:00,ZJSY 100300Z 23003MPS CAVOK 23/12 Q1020 NOSIG
ZJSY,2003-01-10 04:00,ZJSY 100400Z 25005MPS CAVOK 24/12 Q1020 NOSIG
ZJSY,2003-01-10 05:00,ZJSY 100500Z 33006MPS CAVOK 26/09 Q1019 NOSIG
ZJSY,2003-01-10 06:00,ZJSY 100600Z 35005MPS CAVOK 26/08 Q1017 NOSIG
ZJSY,2003-01-10 07:00,ZJSY 100700Z 25005MPS CAVOK 25/13 Q1016 NOSIG
ZJSY,2003-01-10 08:00,ZJSY 100800Z 24006MPS CAVOK 24/14 Q1016 NOSIG
ZJSY,2003-01-10 09:00,ZJSY 100900Z 18005MPS CAVOK 22/14 Q1017 NOSIG
ZJSY,2003-01-10 10:00,ZJSY 101000Z 14003MPS CAVOK 21/15 Q1018 NOSIG
ZJSY,2003-01-10 11:00,ZJSY 101100Z 14002MPS CAVOK 20/14 Q1018 NOSIG
ZJSY,2003-01-10 12:00,ZJSY 101200Z 11002MPS CAVOK 20/14 Q1019 NOSIG
ZJSY,2003-01-10 13:00,ZJSY 101300Z 34002MPS CAVOK 18/15 Q1020 NOSIG
ZJSY,2003-01-10 14:00,ZJSY 101400Z 34002MPS CAVOK 17/14 Q1020 NOSIG
ZJSY,2003-01-10 15:00,ZJSY 101500Z 34003MPS CAVOK 17/14 Q1020 NOSIG
ZJSY,2003-01-10 16:00,ZJSY 101600Z 34003MPS CAVOK 17/14 Q1020 NOSIG
ZJSY,2003-01-10 17:00,ZJSY 101700Z 33002MPS CAVOK 18/15 Q1020 NOSIG
ZJSY,2003-01-10 18:00,ZJSY 101800Z AUTO 33002MPS //// // ////// 17/14 Q1019 NOSIG
ZJSY,2003-01-10 19:00,ZJSY 101900Z AUTO 34002MPS //// // ////// 16/14 Q1019 NOSIG
ZJSY,2003-01-10 20:00,ZJSY 102000Z AUTO 33001MPS //// // ////// 16/14 Q1018 NOSIG
ZJSY,2003-01-10 21:00,ZJSY 102100Z AUTO 14001MPS //// // ////// 15/13 Q1019 NOSIG
ZJSY,2003-01-10 22:00,ZJSY 102200Z 06003MPS CAVOK 16/13 Q1019 NOSIG
ZJSY,2003-01-10 23:00,ZJSY 102300Z 05001MPS 9999 SCT043 SCT230 15/13 Q1020 NOSIG
ZJSY,2003-01-11 00:00,ZJSY 110000Z 06003MPS CAVOK 15/12 Q1021 NOSIG
ZJSY,2003-01-11 02:00,ZJSY 110200Z 04005MPS CAVOK 19/08 Q1022 NOSIG
ZJSY,2003-01-11 03:00,ZJSY 110300Z 05004MPS CAVOK 21/07 Q1022 NOSIG
ZJSY,2003-01-11 04:00,ZJSY 110400Z 09004MPS CAVOK 21/08 Q1022 NOSIG
ZJSY,2003-01-11 05:00,ZJSY 110500Z 11004MPS CAVOK 22/08 Q1021 NOSIG
ZJSY,2003-01-11 06:00,ZJSY 110600Z 15003MPS CAVOK 22/07 Q1020 NOSIG
ZJSY,2003-01-11 07:00,ZJSY 110700Z 20003MPS CAVOK 22/09 Q1019 NOSIG
ZJSY,2003-01-11 08:00,ZJSY 110800Z 22003MPS CAVOK 22/11 Q1019 NOSIG
ZJSY,2003-01-11 09:00,ZJSY 110900Z 24004MPS CAVOK 21/12 Q1019 NOSIG
ZJSY,2003-01-11 10:00,ZJSY 111000Z 23002MPS CAVOK 20/12 Q1020 NOSIG
ZJSY,2003-01-11 11:00,ZJSY 111100Z 23001MPS CAVOK 19/12 Q1020 NOSIG
ZJSY,2003-01-11 12:00,ZJSY 111200Z 34001MPS CAVOK 17/13 Q1021 NOSIG
ZJSY,2003-01-11 13:00,ZJSY 111300Z 02001MPS CAVOK 17/12 Q1021 NOSIG
ZJSY,2003-01-11 14:00,ZJSY 111400Z 34002MPS CAVOK 15/12 Q1021 NOSIG
ZJSY,2003-01-11 15:00,ZJSY 111500Z 35002MPS CAVOK 15/12 Q1021 NOSIG
ZJSY,2003-01-11 16:00,ZJSY 111600Z 34002MPS CAVOK 14/12 Q1021 NOSIG
ZJSY,2003-01-11 17:00,ZJSY 111700Z 34002MPS CAVOK 14/12 Q1021 NOSIG
ZJSY,2003-01-11 18:00,ZJSY 111800Z AUTO 30001MPS //// // ////// 14/12 Q1020 NOSIG
ZJSY,2003-01-11 19:00,ZJSY 111900Z AUTO 34003MPS //// // ////// 14/12 Q1020 NOSIG
ZJSY,2003-01-11 20:00,ZJSY 112000Z AUTO 09001MPS //// // ////// 15/12 Q1019 NOSIG
ZJSY,2003-01-11 21:00,ZJSY 112100Z AUTO 34003MPS //// // ////// 14/12 Q1019 NOSIG
ZJSY,2003-01-11 22:00,ZJSY 112200Z 34004MPS CAVOK 14/11 Q1019 NOSIG
ZJSY,2003-01-11 23:00,ZJSY 112300Z 32001MPS CAVOK 13/10 Q1020 NOSIG
ZJSY,2003-01-12 00:00,ZJSY 120000Z 05002MPS CAVOK 14/11 Q1021 NOSIG
ZJSY,2003-01-12 01:00,ZJSY 120100Z 00000MPS CAVOK 17/13 Q1022 NOSIG
ZJSY,2003-01-12 02:00,ZJSY 120200Z 00000MPS CAVOK 19/13 Q1023 NOSIG
ZJSY,2003-01-12 03:00,ZJSY 120300Z 10002MPS CAVOK 21/09 Q1022 NOSIG
ZJSY,2003-01-12 04:00,ZJSY 120400Z 10002MPS CAVOK 22/08 Q1022 NOSIG
ZJSY,2003-01-12 05:00,ZJSY 120500Z 18002MPS CAVOK 23/10 Q1021 NOSIG
ZJSY,2003-01-12 06:00,ZJSY 120600Z 20003MPS CAVOK 23/11 Q1020 NOSIG
ZJSY,2003-01-12 07:00,ZJSY 120700Z 22003MPS CAVOK 23/11 Q1019 NOSIG
ZJSY,2003-01-12 08:00,ZJSY 120800Z 23004MPS CAVOK 23/11 Q1019 NOSIG
ZJSY,2003-01-12 09:00,ZJSY 120900Z 24004MPS CAVOK 22/13 Q1019 NOSIG
ZJSY,2003-01-12 10:00,ZJSY 121000Z 24003MPS CAVOK 21/13 Q1019 NOSIG
ZJSY,2003-01-12 11:00,ZJSY 121100Z 24001MPS 8000 NSC 20/14 Q1019 NOSIG
ZJSY,2003-01-12 12:00,ZJSY 121200Z 34002MPS 8000 NSC 18/13 Q1020 NOSIG
ZJSY,2003-01-12 13:00,ZJSY 121300Z 34002MPS 8000 NSC 17/13 Q1020 NOSIG
ZJSY,2003-01-12 14:00,ZJSY 121400Z 34002MPS 8000 NSC 16/14 Q1021 NOSIG
ZJSY,2003-01-12 15:00,ZJSY 121500Z 34002MPS 8000 NSC 16/13 Q1020 NOSIG
ZJSY,2003-01-12 16:00,ZJSY 121600Z 35001MPS 8000 NSC 16/13 Q1020 NOSIG
ZJSY,2003-01-12 17:00,ZJSY 121700Z 34002MPS 8000 FEW014 16/13 Q1020 NOSIG
ZJSY,2003-01-12 18:00,ZJSY 121800Z AUTO 36001MPS //// // ////// 16/14 Q1019 NOSIG
ZJSY,2003-01-12 19:00,ZJSY 121900Z AUTO 35002MPS //// // ////// 16/13 Q1019 NOSIG
ZJSY,2003-01-12 20:00,ZJSY 122000Z AUTO 34002MPS //// // ////// 15/13 Q1018 NOSIG
ZJSY,2003-01-12 21:00,ZJSY 122100Z AUTO 33001MPS //// // ////// 15/13 Q1018 NOSIG
ZJSY,2003-01-12 22:00,ZJSY 122200Z 34003MPS 0000 SKC 15/12 Q1018 NOSIG
ZJSY,2003-01-12 23:00,ZJSY 122300Z 36001MPS 6000 SKC 15/12 Q1019 NOSIG
ZJSY,2003-01-13 00:00,ZJSY 130000Z 34002MPS 6000 NSC 15/13 Q1019 NOSIG
ZJSY,2003-01-13 01:00,ZJSY 130100Z 34002MPS 7000 NSC 17/14 Q1020 NOSIG
ZJSY,2003-01-13 02:00,ZJSY 130200Z 16001MPS 7000 NSC 21/14 Q1020 NOSIG
ZJSY,2003-01-13 03:00,ZJSY 130300Z 09002MPS 7000 NSC 22/11 Q1020 NOSIG
ZJSY,2003-01-13 04:00,ZJSY 130400Z 15003MPS CAVOK 24/12 Q1019 NOSIG
ZJSY,2003-01-13 05:00,ZJSY 130500Z 17003MPS CAVOK 23/13 Q1019 NOSIG
ZJSY,2003-01-13 06:00,ZJSY 130600Z 18003MPS CAVOK 23/13 Q1018 NOSIG
ZJSY,2003-01-13 07:00,ZJSY 130700Z 18003MPS CAVOK 23/13 Q1017 NOSIG
ZJSY,2003-01-13 08:00,ZJSY 130800Z 18002MPS CAVOK 23/14 Q1016 NOSIG
ZJSY,2003-01-13 09:00,ZJSY 130900Z 17002MPS CAVOK 22/15 Q1016 NOSIG
ZJSY,2003-01-13 10:00,ZJSY 131000Z 22001MPS CAVOK 22/15 Q1017 NOSIG
ZJSY,2003-01-13 11:00,ZJSY 131100Z 30001MPS CAVOK 20/15 Q1017 NOSIG
ZJSY,2003-01-13 12:00,ZJSY 131200Z 34003MPS CAVOK 18/15 Q1018 NOSIG
ZJSY,2003-01-13 13:00,ZJSY 131300Z 03001MPS CAVOK 19/15 Q1019 NOSIG
ZJSY,2003-01-13 14:00,ZJSY 131400Z 35001MPS CAVOK 18/15 Q1019 NOSIG
ZJSY,2003-01-13 15:00,ZJSY 131500Z 01002MPS CAVOK 18/15 Q1019 NOSIG
ZJSY,2003-01-13 16:00,ZJSY 131600Z 35001MPS CAVOK 18/15 Q1019 NOSIG
ZJSY,2003-01-13 17:00,ZJSY 131700Z 36002MPS CAVOK 16/14 Q1018 NOSIG
ZJSY,2003-01-13 18:00,ZJSY 131800Z AUTO 02002MPS //// // ////// 16/14 Q1019 NOSIG
ZJSY,2003-01-13 19:00,ZJSY 131900Z 33003MPS CAVOK 16/14 Q1018 NOSIG
ZJSY,2003-01-13 20:00,ZJSY 132000Z AUTO 33003MPS //// // ////// 16/14 Q1018 NOSIG
ZJSY,2003-01-13 21:00,ZJSY 132100Z AUTO 01001MPS //// // ////// 16/14 Q1017 NOSIG
ZJSY,2003-01-13 22:00,ZJSY 132200Z 34003MPS CAVOK 16/14 Q1018 NOSIG
ZJSY,2003-01-13 23:00,ZJSY 132300Z 33002MPS 9999 BKN040 BKN230 17/14 Q1019 NOSIG
ZJSY,2003-01-14 00:00,ZJSY 140000Z 34002MPS CAVOK 18/14 Q1019 NOSIG
ZJSY,2003-01-14 01:00,ZJSY 140100Z 32001MPS CAVOK 19/15 Q1020 NOSIG
ZJSY,2003-01-14 02:00,ZJSY 140200Z 02001MPS CAVOK 22/14 Q1020 NOSIG
ZJSY,2003-01-14 03:00,ZJSY 140300Z 05004MPS CAVOK 24/15 Q1020 NOSIG
ZJSY,2003-01-14 04:00,ZJSY 140400Z 08004MPS CAVOK 24/15 Q1019 NOSIG
ZJSY,2003-01-14 05:00,ZJSY 140500Z 09004MPS CAVOK 25/15 Q1018 NOSIG
ZJSY,2003-01-14 06:00,ZJSY 140600Z 12004MPS CAVOK 26/16 Q1017 NOSIG
ZJSY,2003-01-14 07:00,ZJSY 140700Z 15003MPS CAVOK 25/16 Q1017 NOSIG
ZJSY,2003-01-14 08:00,ZJSY 140800Z 15003MPS CAVOK 24/17 Q1017 NOSIG
ZJSY,2003-01-14 09:00,ZJSY 140900Z 07005MPS CAVOK 25/17 Q1017 NOSIG
ZJSY,2003-01-14 10:00,ZJSY 141000Z 07006MPS CAVOK 23/17 Q1018 NOSIG
ZJSY,2003-01-14 11:00,ZJSY 141100Z 08005MPS CAVOK 22/17 Q1018 NOSIG
ZJSY,2003-01-14 12:00,ZJSY 141200Z 07004MPS CAVOK 22/17 Q1019 NOSIG
ZJSY,2003-01-14 13:00,ZJSY 141300Z 06002MPS CAVOK 21/17 Q1019 NOSIG
ZJSY,2003-01-14 14:00,ZJSY 141400Z 07003MPS CAVOK 21/17 Q1020 NOSIG
ZJSY,2003-01-14 15:00,ZJSY 141500Z 06004MPS CAVOK 20/16 Q1020 NOSIG
ZJSY,2003-01-14 16:00,ZJSY 141600Z 05002MPS CAVOK 20/16 Q1020 NOSIG
ZJSY,2003-01-14 17:00,ZJSY 141700Z 06003MPS CAVOK 19/15 Q1019 NOSIG
ZJSY,2003-01-14 18:00,ZJSY 141800Z AUTO 05003MPS //// // ////// 19/15 Q1019 NOSIG
ZJSY,2003-01-14 19:00,ZJSY 141900Z AUTO 34001MPS //// // ////// 17/15 Q1019 NOSIG
ZJSY,2003-01-14 20:00,ZJSY 142000Z AUTO 01001MPS //// // ////// 17/15 Q1019 NOSIG
ZJSY,2003-01-14 21:00,ZJSY 142100Z AUTO 34001MPS //// // ////// 17/15 Q1019 NOSIG
ZJSY,2003-01-14 22:00,ZJSY 142200Z 08003MPS CAVOK 19/15 Q1019 NOSIG
ZJSY,2003-01-14 23:00,ZJSY 142300Z 06003MPS CAVOK 18/14 Q1019 NOSIG
ZJSY,2003-01-15 00:00,ZJSY 150000Z 04004MPS CAVOK 19/14 Q1020 NOSIG
ZJSY,2003-01-15 01:00,ZJSY 150100Z 06007MPS 8000 NSC 21/14 Q1021 NOSIG
ZJSY,2003-01-15 03:00,ZJSY 150300Z 06006MPS CAVOK 24/14 Q1022 NOSIG
ZJSY,2003-01-15 04:00,ZJSY 150400Z 06008MPS CAVOK 26/12 Q1021 NOSIG
ZJSY,2003-01-15 05:00,ZJSY 150500Z 09006MPS CAVOK 26/13 Q1020 NOSIG
ZJSY,2003-01-15 06:00,ZJSY 150600Z 09006MPS CAVOK 26/13 Q1019 NOSIG
ZJSY,2003-01-15 07:00,ZJSY 150700Z 10006MPS 9999 FEW016 26/13 Q1018 NOSIG
ZJSY,2003-01-15 08:00,ZJSY 150800Z 10006MPS CAVOK 26/13 Q1018 NOSIG
ZJSY,2003-01-15 09:00,ZJSY 150900Z 10006MPS CAVOK 25/15 Q1018 NOSIG
ZJSY,2003-01-15 10:00,ZJSY 151000Z 09007MPS CAVOK 23/15 Q1018 NOSIG
ZJSY,2003-01-15 11:00,ZJSY 151100Z 06006MPS CAVOK 22/16 Q1019 NOSIG
ZJSY,2003-01-15 12:00,ZJSY 151200Z 01002MPS CAVOK 21/15 Q1020 NOSIG
ZJSY,2003-01-15 13:00,ZJSY 151300Z 10002MPS CAVOK 21/15 Q1021 NOSIG
ZJSY,2003-01-15 14:00,ZJSY 151400Z 10002MPS CAVOK 20/15 Q1021 NOSIG
ZJSY,2003-01-15 15:00,ZJSY 151500Z 36001MPS CAVOK 19/15 Q1022 NOSIG
ZJSY,2003-01-15 16:00,ZJSY 151600Z 07004MPS CAVOK 19/15 Q1021 NOSIG
ZJSY,2003-01-15 17:00,ZJSY 151700Z 06002MPS CAVOK 18/14 Q1021 NOSIG
ZJSY,2003-01-15 18:00,ZJSY 151800Z AUTO 09001MPS //// // ////// 19/14 Q1020 NOSIG
ZJSY,2003-01-15 19:00,ZJSY 151900Z AUTO 27001MPS //// // ////// 18/14 Q1020 NOSIG
ZJSY,2003-01-15 20:00,ZJSY 152000Z AUTO 34001MPS //// // ////// 18/14 Q1020 NOSIG
ZJSY,2003-01-15 21:00,ZJSY 152100Z AUTO 04002MPS //// // ////// 18/15 Q1019 NOSIG
ZJSY,2003-01-15 22:00,ZJSY 152200Z 04001MPS CAVOK 19/14 Q1020 NOSIG
ZJSY,2003-01-15 23:00,ZJSY 152300Z 33003MPS CAVOK 16/14 Q1020 NOSIG
ZJSY,2003-01-16 00:00,ZJSY 160000Z 01001MPS CAVOK 17/14 Q1020 NOSIG
ZJSY,2003-01-16 01:00,ZJSY 160100Z 31001MPS CAVOK 20/14 Q1021 NOSIG
ZJSY,2003-01-16 02:00,ZJSY 160200Z 04003MPS CAVOK 24/14 Q1022 NOSIG
ZJSY,2003-01-16 03:00,ZJSY 160300Z 08004MPS CAVOK 25/14 Q1021 NOSIG
ZJSY,2003-01-16 04:00,ZJSY 160400Z 09005MPS CAVOK 26/14 Q1021 NOSIG
ZJSY,2003-01-16 05:00,ZJSY 160500Z 11004MPS CAVOK 27/16 Q1020 NOSIG
ZJSY,2003-01-16 06:00,ZJSY 160600Z 16004MPS CAVOK 27/16 Q1019 NOSIG
ZJSY,2003-01-16 07:00,ZJSY 160700Z 23006MPS 9999 BKN020 SCT260 25/17 Q1018 NOSIG
ZJSY,2003-01-16 08:00,ZJSY 160800Z 23004MPS 9999 BKN020 SCT260 24/17 Q1018 NOSIG
ZJSY,2003-01-16 09:00,ZJSY 160900Z 25004MPS 9999 SCT020 BKN100 24/16 Q1019 NOSIG
ZJSY,2003-01-16 10:00,ZJSY 161000Z 27003MPS 9999 SCT020 BKN100 23/17 Q1019 NOSIG
ZJSY,2003-01-16 11:00,ZJSY 161100Z 25003MPS 9999 FEW020 SCT040 BKN100 23/18 Q1019 NOSIG
ZJSY,2003-01-16 12:00,ZJSY 161200Z 33001MPS 9999 FEW020 SCT040 BKN100 22/17 Q1020 NOSIG
ZJSY,2003-01-16 15:00,ZJSY 161500Z 35001MPS CAVOK 19/17 Q1020 NOSIG
ZJSY,2003-01-16 18:00,ZJSY 161800Z AUTO 36001MPS //// // ////// 18/16 Q1019 NOSIG
ZJSY,2003-01-16 19:00,ZJSY 161900Z AUTO 30001MPS //// // ////// 18/16 Q1019 NOSIG
ZJSY,2003-01-16 20:00,ZJSY 162000Z AUTO 07001MPS //// // ////// 18/16 Q1019 NOSIG
ZJSY,2003-01-16 21:00,ZJSY 162100Z AUTO 34001MPS //// // ////// 18/16 Q1019 NOSIG
ZJSY,2003-01-16 22:00,ZJSY 162200Z 04001MPS CAVOK 18/16 Q1019 NOSIG
ZJSY,2003-01-16 23:00,ZJSY 162300Z 00000MPS 9999 BKN040 19/16 Q1019 NOSIG
ZJSY,2003-01-17 00:00,ZJSY 170000Z 00000MPS 9999 FEW020 BKN040 BKN060 19/17 Q1020 NOSIG
ZJSY,2003-01-17 01:00,ZJSY 170100Z 07002MPS CAVOK 22/17 Q1021 NOSIG
ZJSY,2003-01-17 02:00,ZJSY 170200Z 07005MPS CAVOK 23/17 Q1022 NOSIG
ZJSY,2003-01-17 03:00,ZJSY 170300Z 08007MPS CAVOK 24/16 Q1022 NOSIG
ZJSY,2003-01-17 04:00,ZJSY 170400Z 08006MPS CAVOK 25/16 Q1021 NOSIG
ZJSY,2003-01-17 05:00,ZJSY 170500Z 10006MPS 9999 FEW020 26/16 Q1020 NOSIG
ZJSY,2003-01-17 06:00,ZJSY 170600Z 10005MPS 9999 FEW020 26/15 Q1019 NOSIG
ZJSY,2003-01-17 07:00,ZJSY 170700Z 10006MPS 9999 FEW020 26/14 Q1018 NOSIG
ZJSY,2003-01-17 08:00,ZJSY 170800Z 08007MPS 9999 FEW020 27/15 Q1018 NOSIG
ZJSY,2003-01-17 09:00,ZJSY 170900Z 09006MPS CAVOK 25/15 Q1018 NOSIG
ZJSY,2003-01-17 10:00,ZJSY 171000Z 08007MPS CAVOK 23/16 Q1018 NOSIG
ZJSY,2003-01-17 11:00,ZJSY 171100Z 08005MPS CAVOK 22/16 Q1019 NOSIG
ZJSY,2003-01-17 12:00,ZJSY 171200Z 08005MPS CAVOK 21/17 Q1020 NOSIG
ZJSY,2003-01-17 13:00,ZJSY 171300Z 07004MPS CAVOK 21/17 Q1020 NOSIG
ZJSY,2003-01-17 14:00,ZJSY 171400Z 06004MPS CAVOK 21/16 Q1020 NOSIG
ZJSY,2003-01-17 15:00,ZJSY 171500Z 07003MPS CAVOK 20/16 Q1020 NOSIG
ZJSY,2003-01-17 16:00,ZJSY 171600Z 10001MPS CAVOK 19/15 Q1020 NOSIG
ZJSY,2003-01-17 17:00,ZJSY 171700Z 00000MPS CAVOK 20/16 Q1020 NOSIG
ZJSY,2003-01-17 18:00,ZJSY 171800Z 11001MPS CAVOK 21/15 Q1020 NOSIG
ZJSY,2003-01-17 19:00,ZJSY 171900Z AUTO 10001MPS //// // ////// 19/16 Q1020 NOSIG
ZJSY,2003-01-17 20:00,ZJSY 172000Z AUTO 33001MPS //// // ////// 18/16 Q1020 NOSIG
ZJSY,2003-01-17 21:00,ZJSY 172100Z AUTO 34003MPS //// // ////// 18/15 Q1020 NOSIG
ZJSY,2003-01-17 22:00,ZJSY 172200Z 34004MPS CAVOK 17/15 Q1020 NOSIG
ZJSY,2003-01-17 23:00,ZJSY 172300Z 35002MPS CAVOK 16/14 Q1020 NOSIG
ZJSY,2003-01-18 00:00,ZJSY 180000Z 34002MPS CAVOK 17/14 Q1021 NOSIG
ZJSY,2003-01-18 01:00,ZJSY 180100Z 00000MPS CAVOK 20/15 Q1022 NOSIG
ZJSY,2003-01-18 02:00,ZJSY 180200Z 15001MPS CAVOK 23/15 Q1022 NOSIG
ZJSY,2003-01-18 03:00,ZJSY 180300Z 14002MPS CAVOK 24/15 Q1022 NOSIG
ZJSY,2003-01-18 04:00,ZJSY 180400Z 14003MPS CAVOK 26/14 Q1021 NOSIG
ZJSY,2003-01-18 05:00,ZJSY 180500Z 20004MPS CAVOK 25/16 Q1020 NOSIG
ZJSY,2003-01-18 06:00,ZJSY 180600Z 17003MPS CAVOK 24/17 Q1019 NOSIG
ZJSY,2003-01-18 07:00,ZJSY 180700Z 15003MPS 9999 SCT020 BKN060 25/17 Q1018 NOSIG
ZJSY,2003-01-18 08:00,ZJSY 180800Z 16003MPS 9999 SCT020 BKN060 26/17 Q1018 NOSIG
ZJSY,2003-01-18 09:00,ZJSY 180900Z 06003MPS 9999 SCT020 BKN033 24/16 Q1019 NOSIG
ZJSY,2003-01-18 10:00,ZJSY 181000Z 00000MPS 9999 SCT020 BKN033 24/17 Q1019 NOSIG
ZJSY,2003-01-18 11:00,ZJSY 181100Z 27001MPS 9999 SCT020 BKN033 23/16 Q1020 NOSIG
ZJSY,2003-01-18 12:00,ZJSY 181200Z 03001MPS 9999 SCT020 BKN033 23/17 Q1020 NOSIG
ZJSY,2003-01-18 13:00,ZJSY 181300Z 00000MPS 9999 SCT020 BKN050 23/17 Q1021 NOSIG
ZJSY,2003-01-18 14:00,ZJSY 181400Z 01002MPS 9999 FEW020 BKN050 22/17 Q1022 NOSIG
ZJSY,2003-01-18 15:00,ZJSY 181500Z 07002MPS 9999 FEW020 BKN050 21/17 Q1021 NOSIG
ZJSY,2003-01-18 16:00,ZJSY 181600Z 02001MPS 9999 FEW020 BKN050 21/17 Q1021 NOSIG
ZJSY,2003-01-18 17:00,ZJSY 181700Z 33001MPS 9999 FEW020 BKN050 21/17 Q1021 NOSIG
ZJSY,2003-01-18 18:00,ZJSY 181800Z AUTO 35001MPS //// // ////// 20/17 Q1021 NOSIG
ZJSY,2003-01-18 19:00,ZJSY 181900Z AUTO 34002MPS //// // ////// 19/15 Q1020 NOSIG
ZJSY,2003-01-18 20:00,ZJSY 182000Z AUTO 36001MPS //// // ////// 19/14 Q1020 NOSIG
ZJSY,2003-01-18 21:00,ZJSY 182100Z AUTO 34001MPS //// // ////// 18/14 Q1019 NOSIG
ZJSY,2003-01-18 22:00,ZJSY 182200Z 03001MPS 9999 FEW020 BKN050 18/14 Q1020 NOSIG
ZJSY,2003-01-18 23:00,ZJSY 182300Z 00000MPS 9999 SCT033 BKN070 19/11 Q1020 NOSIG
ZJSY,2003-01-19 00:00,ZJSY 190000Z 03006MPS CAVOK 22/07 Q1020 NOSIG
ZJSY,2003-01-19 01:00,ZJSY 190100Z 08003MPS CAVOK 23/08 Q1021 NOSIG
ZJSY,2003-01-19 02:00,ZJSY 190200Z 06005MPS CAVOK 25/07 Q1021 NOSIG
ZJSY,2003-01-19 03:00,ZJSY 190300Z 07007MPS CAVOK 26/06 Q1021 NOSIG
ZJSY,2003-01-19 04:00,ZJSY 190400Z 07006MPS CAVOK 26/08 Q1020 NOSIG
ZJSY,2003-01-19 05:00,ZJSY 190500Z 09005MPS CAVOK 26/06 Q1019 NOSIG
ZJSY,2003-01-19 06:00,ZJSY 190600Z 08004MPS CAVOK 27/07 Q1017 NOSIG
ZJSY,2003-01-19 07:00,ZJSY 190700Z 10004MPS CAVOK 27/08 Q1016 NOSIG
ZJSY,2003-01-19 08:00,ZJSY 190800Z 11004MPS CAVOK 26/08 Q1015 NOSIG
ZJSY,2003-01-19 09:00,ZJSY 190900Z 12004MPS CAVOK 25/11 Q1016 NOSIG
ZJSY,2003-01-19 10:00,ZJSY 191000Z 10003MPS CAVOK 24/09 Q1016 NOSIG
ZJSY,2003-01-19 11:00,ZJSY 191100Z 07004MPS CAVOK 22/11 Q1016 NOSIG
ZJSY,2003-01-19 12:00,ZJSY 191200Z 33001MPS CAVOK 21/11 Q1017 NOSIG
ZJSY,2003-01-19 13:00,ZJSY 191300Z 03001MPS CAVOK 21/11 Q1017 NOSIG
ZJSY,2003-01-19 14:00,ZJSY 191400Z 02002MPS CAVOK 18/12 Q1017 NOSIG
ZJSY,2003-01-19 15:00,ZJSY 191500Z 01002MPS CAVOK 17/12 Q1017 NOSIG
ZJSY,2003-01-19 16:00,ZJSY 191600Z 35002MPS CAVOK 17/13 Q1017 NOSIG
ZJSY,2003-01-19 17:00,ZJSY 191700Z 35002MPS CAVOK 16/13 Q1017 NOSIG
ZJSY,2003-01-19 18:00,ZJSY 191800Z 32003MPS CAVOK 16/13 Q1016 NOSIG
ZJSY,2003-01-19 19:00,ZJSY 191900Z AUTO 32002MPS //// // ////// 17/13 Q1016 NOSIG
ZJSY,2003-01-19 20:00,ZJSY 192000Z AUTO 33003MPS //// // ////// 17/14 Q1016 NOSIG
ZJSY,2003-01-19 21:00,ZJSY 192100Z 34002MPS CAVOK 16/13 Q1016 NOSIG
ZJSY,2003-01-19 22:00,ZJSY 192200Z 36001MPS CAVOK 16/13 Q1016 NOSIG
ZJSY,2003-01-19 23:00,ZJSY 192300Z 34002MPS CAVOK 16/13 Q1017 NOSIG
ZJSY,2003-01-20 00:00,ZJSY 200000Z 34002MPS CAVOK 17/13 Q1017 NOSIG
ZJSY,2003-01-20 01:00,ZJSY 200100Z 31002MPS 7000 FEW015 BKN053 19/13 Q1018 NOSIG
ZJSY,2003-01-20 02:00,ZJSY 200200Z 21001MPS 7000 NSC 21/13 Q1018 NOSIG
ZJSY,2003-01-20 03:00,ZJSY 200300Z 13001MPS 7000 NSC 24/15 Q1018 NOSIG
ZJSY,2003-01-20 04:00,ZJSY 200400Z 10004MPS 7000 NSC 25/15 Q1017 NOSIG
ZJSY,2003-01-20 05:00,ZJSY 200500Z 12003MPS 7000 NSC 26/14 Q1016 NOSIG
ZJSY,2003-01-20 06:00,ZJSY 200600Z 16003MPS 7000 NSC 26/16 Q1015 NOSIG
ZJSY,2003-01-20 07:00,ZJSY 200700Z 15003MPS 7000 NSC 26/15 Q1014 NOSIG
ZJSY,2003-01-20 08:00,ZJSY 200800Z 10004MPS 9999 FEW016 BKN230 26/15 Q1014 NOSIG
ZJSY,2003-01-20 09:00,ZJSY 200900Z 10005MPS CAVOK 25/15 Q1014 NOSIG
ZJSY,2003-01-20 10:00,ZJSY 201000Z 09005MPS 9999 FEW016 BKN260 23/15 Q1015 NOSIG
ZJSY,2003-01-20 11:00,ZJSY 201100Z 09003MPS 8000 SCT030 BKN260 22/16 Q1015 NOSIG
ZJSY,2003-01-20 12:00,ZJSY 201200Z 08003MPS 8000 SCT030 BKN260 21/16 Q1016 NOSIG
ZJSY,2003-01-20 13:00,ZJSY 201300Z 09001MPS 8000 SCT030 BKN260 21/15 Q1017 NOSIG
ZJSY,2003-01-20 14:00,ZJSY 201400Z 06002MPS 8000 FEW033 BKN260 20/14 Q1017 NOSIG
ZJSY,2003-01-20 15:00,ZJSY 201500Z 05002MPS 9000 NSC 21/13 Q1017 NOSIG
ZJSY,2003-01-20 16:00,ZJSY 201600Z 03002MPS CAVOK 20/13 Q1017 NOSIG
ZJSY,2003-01-20 17:00,ZJSY 201700Z 35001MPS CAVOK 19/14 Q1016 NOSIG
ZJSY,2003-01-20 18:00,ZJSY 201800Z 00000MPS CAVOK 18/13 Q1016 NOSIG
ZJSY,2003-01-20 19:00,ZJSY 201900Z 33001MPS CAVOK 18/13 Q1016 NOSIG
ZJSY,2003-01-20 20:00,ZJSY 202000Z 34001MPS CAVOK 19/13 Q1015 NOSIG
ZJSY,2003-01-20 21:00,ZJSY 202100Z AUTO 35001MPS //// // ////// 18/13 Q1015 NOSIG
ZJSY,2003-01-20 22:00,ZJSY 202200Z 05002MPS CAVOK 20/13 Q1015 NOSIG
ZJSY,2003-01-20 23:00,ZJSY 202300Z 05003MPS CAVOK 20/13 Q1016 NOSIG
ZJSY,2003-01-21 00:00,ZJSY 210000Z 27001MPS CAVOK 19/14 Q1016 NOSIG
ZJSY,2003-01-21 01:00,ZJSY 210100Z 05003MPS CAVOK 23/14 Q1016 NOSIG
ZJSY,2003-01-21 02:00,ZJSY 210200Z 08004MPS CAVOK 24/15 Q1016 NOSIG
ZJSY,2003-01-21 03:00,ZJSY 210300Z 09004MPS CAVOK 25/15 Q1016 NOSIG
ZJSY,2003-01-21 04:00,ZJSY 210400Z 12003MPS CAVOK 25/15 Q1015 NOSIG
ZJSY,2003-01-21 05:00,ZJSY 210500Z 17004MPS CAVOK 25/17 Q1014 NOSIG
ZJSY,2003-01-21 06:00,ZJSY 210600Z 16004MPS CAVOK 25/16 Q1013 NOSIG
ZJSY,2003-01-21 07:00,ZJSY 210700Z 15004MPS CAVOK 25/15 Q1013 NOSIG
ZJSY,2003-01-21 08:00,ZJSY 210800Z 15003MPS CAVOK 25/17 Q1013 NOSIG
ZJSY,2003-01-21 09:00,ZJSY 210900Z 14004MPS CAVOK 24/14 Q1012 NOSIG
ZJSY,2003-01-21 10:00,ZJSY 211000Z 13002MPS CAVOK 23/16 Q1012 NOSIG
ZJSY,2003-01-21 11:00,ZJSY 211100Z 12002MPS CAVOK 22/16 Q1013 NOSIG
ZJSY,2003-01-21 12:00,ZJSY 211200Z 08002MPS CAVOK 21/16 Q1013 NOSIG
ZJSY,2003-01-21 13:00,ZJSY 211300Z 36001MPS CAVOK 19/16 Q1013 NOSIG
ZJSY,2003-01-21 14:00,ZJSY 211400Z 34002MPS CAVOK 18/16 Q1014 NOSIG
ZJSY,2003-01-21 15:00,ZJSY 211500Z 36001MPS CAVOK 18/15 Q1013 NOSIG
ZJSY,2003-01-21 16:00,ZJSY 211600Z 35001MPS CAVOK 18/15 Q1013 NOSIG
ZJSY,2003-01-21 17:00,ZJSY 211700Z 34002MPS CAVOK 18/15 Q1013 NOSIG
ZJSY,2003-01-21 21:00,ZJSY 212100Z AUTO 35001MPS //// // ////// 17/15 Q1013 NOSIG
ZJSY,2003-01-21 22:00,ZJSY 212200Z AUTO 35002MPS //// // ////// 17/15 Q1013 NOSIG
ZJSY,2003-01-21 23:00,ZJSY 212300Z 35002MPS CAVOK 18/16 Q1014 NOSIG
ZJSY,2003-01-22 00:00,ZJSY 220000Z 35002MPS CAVOK 18/16 Q1014 NOSIG
ZJSY,2003-01-22 01:00,ZJSY 220100Z 12001MPS 6000 BKN016 21/17 Q1015 NOSIG
ZJSY,2003-01-22 02:00,ZJSY 220200Z 07004MPS 6000 SCT016 BKN040 23/18 Q1015 NOSIG
ZJSY,2003-01-22 03:00,ZJSY 220300Z 07003MPS 7000 SCT016 BKN040 24/17 Q1015 NOSIG
ZJSY,2003-01-22 04:00,ZJSY 220400Z 11002MPS 7000 SCT016 25/18 Q1014 NOSIG
ZJSY,2003-01-22 05:00,ZJSY 220500Z 12003MPS 7000 SCT016 26/18 Q1013 NOSIG
ZJSY,2003-01-22 06:00,ZJSY 220600Z 15002MPS 9999 FEW016 SCT230 26/18 Q1012 NOSIG
ZJSY,2003-01-22 07:00,ZJSY 220700Z 17003MPS 9999 FEW016 SCT230 25/18 Q1011 NOSIG
ZJSY,2003-01-22 08:00,ZJSY 220800Z 13003MPS CAVOK 25/18 Q1011 NOSIG
ZJSY,2003-01-22 09:00,ZJSY 220900Z 14004MPS CAVOK 24/18 Q1011 NOSIG
ZJSY,2003-01-22 10:00,ZJSY 221000Z 13003MPS CAVOK 23/18 Q1011 NOSIG
ZJSY,2003-01-22 11:00,ZJSY 221100Z 13002MPS CAVOK 23/18 Q1012 NOSIG
ZJSY,2003-01-22 12:00,ZJSY 221200Z 02001MPS CAVOK 21/18 Q1013 NOSIG
ZJSY,2003-01-22 13:00,ZJSY 221300Z 34002MPS CAVOK 20/17 Q1013 NOSIG
ZJSY,2003-01-22 14:00,ZJSY 221400Z 34002MPS CAVOK 21/18 Q1014 NOSIG
ZJSY,2003-01-22 15:00,ZJSY 221500Z 34002MPS CAVOK 20/17 Q1014 NOSIG
ZJSY,2003-01-22 16:00,ZJSY 221600Z 34003MPS CAVOK 19/17 Q1014 NOSIG
ZJSY,2003-01-22 17:00,ZJSY 221700Z 34003MPS CAVOK 19/17 Q1014 NOSIG
ZJSY,2003-01-22 18:00,ZJSY 221800Z 35002MPS CAVOK 18/16 Q1013 NOSIG
ZJSY,2003-01-22 19:00,ZJSY 221900Z 34002MPS CAVOK 19/16 Q1013 NOSIG
ZJSY,2003-01-22 20:00,ZJSY 222000Z AUTO 34003MPS //// // ////// 18/16 Q1013 NOSIG
ZJSY,2003-01-22 21:00,ZJSY 222100Z AUTO 34002MPS //// // ////// 18/16 Q1013 NOSIG
ZJSY,2003-01-22 22:00,ZJSY 222200Z 33003MPS CAVOK 18/16 Q1013 NOSIG
ZJSY,2003-01-22 23:00,ZJSY 222300Z AUTO 35001MPS //// // ////// 17/15 Q1014 NOSIG
ZJSY,2003-01-23 00:00,ZJSY 230000Z 33002MPS CAVOK 18/16 Q1014 NOSIG
ZJSY,2003-01-23 01:00,ZJSY 230100Z 35001MPS CAVOK 20/18 Q1015 NOSIG
ZJSY,2003-01-23 02:00,ZJSY 230200Z 09002MPS CAVOK 24/17 Q1015 NOSIG
ZJSY,2003-01-23 03:00,ZJSY 230300Z 15002MPS CAVOK 24/18 Q1015 NOSIG
ZJSY,2003-01-23 04:00,ZJSY 230400Z 17003MPS 9999 FEW018 BKN120 25/18 Q1014 NOSIG
ZJSY,2003-01-23 05:00,ZJSY 230500Z 16003MPS 9999 FEW018 BKN120 25/17 Q1013 NOSIG
ZJSY,2003-01-23 06:00,ZJSY 230600Z 17003MPS 9999 FEW018 SCT260 25/18 Q1012 NOSIG
ZJSY,2003-01-23 07:00,ZJSY 230700Z 17003MPS CAVOK 24/17 Q1011 NOSIG
ZJSY,2003-01-23 08:00,ZJSY 230800Z 16003MPS CAVOK 24/17 Q1011 NOSIG
ZJSY,2003-01-23 09:00,ZJSY 230900Z 14003MPS CAVOK 24/18 Q1011 NOSIG
ZJSY,2003-01-23 10:00,ZJSY 231000Z 14002MPS CAVOK 23/18 Q1011 NOSIG
ZJSY,2003-01-23 11:00,ZJSY 231100Z 11002MPS CAVOK 22/18 Q1011 NOSIG
ZJSY,2003-01-23 12:00,ZJSY 231200Z 08002MPS CAVOK 21/17 Q1012 NOSIG
ZJSY,2003-01-23 13:00,ZJSY 231300Z 05002MPS CAVOK 20/17 Q1013 NOSIG
ZJSY,2003-01-23 14:00,ZJSY 231400Z 02001MPS CAVOK 20/17 Q1013 NOSIG
ZJSY,2003-01-23 15:00,ZJSY 231500Z 35001MPS CAVOK 20/17 Q1013 NOSIG
ZJSY,2003-01-23 16:00,ZJSY 231600Z 36001MPS CAVOK 19/17 Q1012 NOSIG
ZJSY,2003-01-23 17:00,ZJSY 231700Z 03001MPS CAVOK 20/17 Q1012 NOSIG
ZJSY,2003-01-23 18:00,ZJSY 231800Z AUTO 00000MPS //// // ////// 19/17 Q1012 NOSIG
ZJSY,2003-01-23 19:00,ZJSY 231900Z 06004MPS CAVOK 21/18 Q1012 NOSIG
ZJSY,2003-01-23 20:00,ZJSY 232000Z 07003MPS CAVOK 20/18 Q1011 NOSIG
ZJSY,2003-01-23 21:00,ZJSY 232100Z AUTO 07004MPS //// // ////// 21/18 Q1012 NOSIG
ZJSY,2003-01-23 22:00,ZJSY 232200Z 06003MPS CAVOK 21/18 Q1012 NOSIG
ZJSY,2003-01-23 23:00,ZJSY 232300Z 07004MPS CAVOK 21/18 Q1012 NOSIG
ZJSY,2003-01-24 00:00,ZJSY 240000Z 06004MPS CAVOK 21/18 Q1013 NOSIG
ZJSY,2003-01-24 01:00,ZJSY 240100Z 07004MPS 9999 SCT043 BKN100 22/18 Q1014 NOSIG
ZJSY,2003-01-24 02:00,ZJSY 240200Z 09004MPS 9999 FEW043 BKN100 24/18 Q1014 NOSIG
ZJSY,2003-01-24 03:00,ZJSY 240300Z 11005MPS 9999 SCT016 BKN230 25/18 Q1014 NOSIG
ZJSY,2003-01-24 04:00,ZJSY 240400Z 12005MPS 9999 SCT016 BKN230 25/18 Q1013 NOSIG
ZJSY,2003-01-24 05:00,ZJSY 240500Z 12005MPS 9999 SCT016 BKN230 25/18 Q1013 NOSIG
ZJSY,2003-01-24 06:00,ZJSY 240600Z 13004MPS 9999 FEW016 BKN230 26/18 Q1012 NOSIG
ZJSY,2003-01-24 07:00,ZJSY 240700Z 13004MPS 9999 FEW020 BKN230 25/18 Q1011 NOSIG
ZJSY,2003-01-24 08:00,ZJSY 240800Z 13004MPS 9999 SCT020 SCT230 25/18 Q1011 NOSIG
ZJSY,2003-01-24 09:00,ZJSY 240900Z 12004MPS 9999 FEW020 BKN230 25/18 Q1011 NOSIG
ZJSY,2003-01-24 10:00,ZJSY 241000Z 12003MPS CAVOK 24/18 Q1011 NOSIG
ZJSY,2003-01-24 11:00,ZJSY 241100Z 10003MPS CAVOK 23/18 Q1012 NOSIG
ZJSY,2003-01-24 12:00,ZJSY 241200Z 08004MPS CAVOK 22/18 Q1012 NOSIG
ZJSY,2003-01-24 13:00,ZJSY 241300Z 06004MPS CAVOK 22/18 Q1013 NOSIG
ZJSY,2003-01-24 14:00,ZJSY 241400Z 08004MPS CAVOK 21/18 Q1013 NOSIG
ZJSY,2003-01-24 15:00,ZJSY 241500Z 07003MPS CAVOK 22/18 Q1013 NOSIG
ZJSY,2003-01-24 16:00,ZJSY 241600Z 05004MPS CAVOK 22/18 Q1013 NOSIG
ZJSY,2003-01-24 17:00,ZJSY 241700Z 05003MPS CAVOK 21/18 Q1013 NOSIG
ZJSY,2003-01-24 18:00,ZJSY 241800Z 05003MPS CAVOK 22/18 Q1013 NOSIG
ZJSY,2003-01-24 19:00,ZJSY 241900Z AUTO 05003MPS //// // ////// 22/18 Q1012 NOSIG
ZJSY,2003-01-24 20:00,ZJSY 242000Z AUTO 06003MPS //// // ////// 21/18 Q1012 NOSIG
ZJSY,2003-01-24 21:00,ZJSY 242100Z AUTO 05003MPS //// // ////// 21/18 Q1012 NOSIG
ZJSY,2003-01-24 22:00,ZJSY 242200Z 05002MPS CAVOK 21/18 Q1013 NOSIG
ZJSY,2003-01-24 23:00,ZJSY 242300Z 06003MPS CAVOK 21/18 Q1013 NOSIG
ZJSY,2003-01-25 00:00,ZJSY 250000Z 06003MPS 5000 BR NSC 21/18 Q1014 NOSIG
ZJSY,2003-01-25 01:00,ZJSY 250100Z 05003MPS 5000 BR NSC 23/19 Q1014 NOSIG
ZJSY,2003-01-25 02:00,ZJSY 250200Z 07004MPS 7000 SCT046 BKN230 24/19 Q1015 NOSIG
ZJSY,2003-01-25 03:00,ZJSY 250300Z 12002MPS 7000 BKN020 BKN230 25/19 Q1015 NOSIG
ZJSY,2003-01-25 04:00,ZJSY 250400Z 12003MPS 7000 SCT020 BKN230 26/19 Q1014 NOSIG
ZJSY,2003-01-25 05:00,ZJSY 250500Z 13003MPS 7000 SCT020 BKN230 26/18 Q1013 NOSIG
ZJSY,2003-01-25 06:00,ZJSY 250600Z 16003MPS 9000 SCT020 BKN230 26/19 Q1011 NOSIG
ZJSY,2003-01-25 07:00,ZJSY 250700Z 13004MPS 9999 FEW020 SCT230 26/18 Q1010 NOSIG
ZJSY,2003-01-25 08:00,ZJSY 250800Z 16003MPS 9999 FEW020 SCT230 26/19 Q1010 NOSIG
ZJSY,2003-01-25 09:00,ZJSY 250900Z 15003MPS 9999 FEW020 SCT230 25/19 Q1010 NOSIG
ZJSY,2003-01-25 10:00,ZJSY 251000Z 12003MPS 9999 FEW020 BKN060 25/19 Q1010 NOSIG
ZJSY,2003-01-25 11:00,ZJSY 251100Z 11002MPS 9999 FEW020 BKN070 24/19 Q1011 NOSIG
ZJSY,2003-01-25 12:00,ZJSY 251200Z 09002MPS CAVOK 24/19 Q1012 NOSIG
ZJSY,2003-01-25 13:00,ZJSY 251300Z 07003MPS CAVOK 22/18 Q1012 NOSIG
ZJSY,2003-01-25 14:00,ZJSY 251400Z 06002MPS CAVOK 22/19 Q1012 NOSIG
ZJSY,2003-01-25 15:00,ZJSY 251500Z 06003MPS CAVOK 22/18 Q1012 NOSIG
ZJSY,2003-01-25 16:00,ZJSY 251600Z 09001MPS CAVOK 22/18 Q1012 NOSIG
ZJSY,2003-01-25 17:00,ZJSY 251700Z 07002MPS CAVOK 21/19 Q1012 NOSIG
ZJSY,2003-01-25 18:00,ZJSY 251800Z 06001MPS CAVOK 22/18 Q1012 NOSIG
ZJSY,2003-01-25 19:00,ZJSY 251900Z AUTO 08002MPS //// // ////// 22/18 Q1012 NOSIG
ZJSY,2003-01-25 20:00,ZJSY 252000Z AUTO 04001MPS //// // ////// 22/18 Q1012 NOSIG
ZJSY,2003-01-25 21:00,ZJSY 252100Z AUTO 06001MPS //// // ////// 21/18 Q1012 NOSIG
ZJSY,2003-01-25 22:00,ZJSY 252200Z 36001MPS CAVOK 20/18 Q1012 NOSIG
ZJSY,2003-01-25 23:00,ZJSY 252300Z 06002MPS 9999 FEW015 BKN050 21/18 Q1013 NOSIG
ZJSY,2003-01-26 00:00,ZJSY 260000Z 04003MPS 9999 FEW016 22/18 Q1013 NOSIG
ZJSY,2003-01-26 01:00,ZJSY 260100Z 06003MPS 9999 FEW016 24/19 Q1014 NOSIG
ZJSY,2003-01-26 02:00,ZJSY 260200Z 08004MPS 9999 FEW016 25/19 Q1014 NOSIG
ZJSY,2003-01-26 03:00,ZJSY 260300Z 10003MPS 9999 FEW016 26/19 Q1014 NOSIG
ZJSY,2003-01-26 04:00,ZJSY 260400Z 15003MPS 9999 FEW016 26/19 Q1014 NOSIG
ZJSY,2003-01-26 05:00,ZJSY 260500Z 17003MPS 9999 FEW016 27/19 Q1013 NOSIG
ZJSY,2003-01-26 06:00,ZJSY 260600Z 16002MPS 9999 SCT016 26/19 Q1012 NOSIG
ZJSY,2003-01-26 07:00,ZJSY 260700Z 16002MPS 9999 SCT016 26/19 Q1011 NOSIG
ZJSY,2003-01-26 08:00,ZJSY 260800Z 13002MPS 9999 FEW016 SCT130 26/19 Q1010 NOSIG
ZJSY,2003-01-26 09:00,ZJSY 260900Z 12001MPS 9999 FEW030 26/19 Q1011 NOSIG
ZJSY,2003-01-26 10:00,ZJSY 261000Z 15001MPS CAVOK 25/19 Q1011 NOSIG
ZJSY,2003-01-26 11:00,ZJSY 261100Z 13002MPS CAVOK 24/20 Q1011 NOSIG
ZJSY,2003-01-26 12:00,ZJSY 261200Z 10002MPS CAVOK 23/19 Q1012 NOSIG
ZJSY,2003-01-26 13:00,ZJSY 261300Z 06002MPS CAVOK 22/19 Q1013 NOSIG
ZJSY,2003-01-26 14:00,ZJSY 261400Z 06003MPS CAVOK 22/19 Q1013 NOSIG
ZJSY,2003-01-26 15:00,ZJSY 261500Z 04002MPS CAVOK 22/19 Q1013 NOSIG
ZJSY,2003-01-26 16:00,ZJSY 261600Z 04001MPS CAVOK 21/18 Q1013 NOSIG
ZJSY,2003-01-26 17:00,ZJSY 261700Z 34001MPS CAVOK 20/18 Q1013 NOSIG
ZJSY,2003-01-26 18:00,ZJSY 261800Z 35002MPS CAVOK 19/17 Q1013 NOSIG
ZJSY,2003-01-26 19:00,ZJSY 261900Z 34002MPS CAVOK 19/17 Q1013 NOSIG
ZJSY,2003-01-26 20:00,ZJSY 262000Z 34002MPS CAVOK 18/16 Q1013 NOSIG
ZJSY,2003-01-26 21:00,ZJSY 262100Z 33002MPS CAVOK 19/16 Q1013 NOSIG
ZJSY,2003-01-26 22:00,ZJSY 262200Z 33003MPS CAVOK 18/16 Q1014 NOSIG
ZJSY,2003-01-26 23:00,ZJSY 262300Z 35001MPS CAVOK 18/16 Q1015 NOSIG
ZJSY,2003-01-27 00:00,ZJSY 270000Z 32002MPS CAVOK 18/16 Q1016 NOSIG
ZJSY,2003-01-27 01:00,ZJSY 270100Z 34001MPS CAVOK 21/17 Q1017 NOSIG
ZJSY,2003-01-27 02:00,ZJSY 270200Z 14001MPS CAVOK 24/17 Q1018 NOSIG
ZJSY,2003-01-27 03:00,ZJSY 270300Z 18002MPS 9999 SCT046 BKN230 25/18 Q1018 NOSIG
ZJSY,2003-01-27 04:00,ZJSY 270400Z 20002MPS CAVOK 26/18 Q1017 NOSIG
ZJSY,2003-01-27 05:00,ZJSY 270500Z 24004MPS CAVOK 26/19 Q1016 NOSIG
ZJSY,2003-01-27 06:00,ZJSY 270600Z 22004MPS CAVOK 25/20 Q1016 NOSIG
ZJSY,2003-01-27 07:00,ZJSY 270700Z 25004MPS CAVOK 26/19 Q1015 NOSIG
ZJSY,2003-01-27 08:00,ZJSY 270800Z 09002MPS 9999 SCT018 BKN043 25/17 Q1015 NOSIG
ZJSY,2003-01-27 09:00,ZJSY 270900Z 09005MPS 9999 FEW018 BKN043 24/16 Q1015 NOSIG
ZJSY,2003-01-27 10:00,ZJSY 271000Z 08007MPS 9999 FEW018 BKN043 23/15 Q1016 NOSIG
ZJSY,2003-01-27 11:00,ZJSY 271100Z 08007MPS 9999 FEW016 OVC040 21/14 Q1017 NOSIG
ZJSY,2003-01-27 12:00,ZJSY 271200Z 08006MPS 9999 FEW013 OVC040 20/14 Q1018 NOSIG
ZJSY,2003-01-27 13:00,ZJSY 271300Z 08007MPS 9999 SCT013 OVC040 19/13 Q1019 NOSIG
ZJSY,2003-01-27 14:00,ZJSY 271400Z 08006MPS 9999 -RA SCT011 OVC033 19/13 Q1019 NOSIG
ZJSY,2003-01-27 15:00,ZJSY 271500Z 08004MPS 9999 SCT013 OVC033 19/13 Q1020 NOSIG
ZJSY,2003-01-27 16:00,ZJSY 271600Z 07004MPS 9999 SCT013 OVC033 19/13 Q1020 NOSIG
ZJSY,2003-01-27 17:00,ZJSY 271700Z 09003MPS 9999 FEW013 OVC036 19/13 Q1020 NOSIG
ZJSY,2003-01-27 18:00,ZJSY 271800Z 07004MPS 9999 FEW013 OVC040 19/13 Q1019 NOSIG
ZJSY,2003-01-27 19:00,ZJSY 271900Z AUTO 08003MPS //// // ////// 19/12 Q1019 NOSIG
ZJSY,2003-01-27 20:00,ZJSY 272000Z AUTO 08004MPS //// // ////// 19/12 Q1019 NOSIG
ZJSY,2003-01-27 21:00,ZJSY 272100Z AUTO 06005MPS //// // ////// 19/12 Q1019 NOSIG
ZJSY,2003-01-27 22:00,ZJSY 272200Z 07005MPS 9999 SCT013 BKN040 19/12 Q1020 NOSIG
ZJSY,2003-01-27 23:00,ZJSY 272300Z 08004MPS 9999 OVC030 18/12 Q1021 NOSIG
ZJSY,2003-01-28 00:00,ZJSY 280000Z 06007MPS 9999 BKN033 18/11 Q1021 NOSIG
ZJSY,2003-01-28 01:00,ZJSY 280100Z 06007MPS 9999 FEW033 BKN100 19/11 Q1022 NOSIG
ZJSY,2003-01-28 02:00,ZJSY 280200Z 05005MPS 9999 BKN040 BKN100 20/12 Q1023 NOSIG
ZJSY,2003-01-28 03:00,ZJSY 280300Z 05006MPS 9999 BKN040 BKN100 21/12 Q1023 NOSIG
ZJSY,2003-01-28 04:00,ZJSY 280400Z 09004MPS 9999 BKN043 BKN100 22/12 Q1022 NOSIG
ZJSY,2003-01-28 05:00,ZJSY 280500Z 12002MPS 9999 FEW040 SCT130 23/13 Q1021 NOSIG
ZJSY,2003-01-28 06:00,ZJSY 280600Z 15002MPS 9999 FEW020 BKN040 23/14 Q1020 NOSIG
ZJSY,2003-01-28 07:00,ZJSY 280700Z 18003MPS 9999 FEW020 BKN130 24/14 Q1019 NOSIG
ZJSY,2003-01-28 09:00,ZJSY 280900Z 23003MPS 9999 SCT018 SCT040 BKN120 23/15 Q1019 NOSIG
ZJSY,2003-01-28 10:00,ZJSY 281000Z 25004MPS 9999 SCT015 SCT040 BKN120 22/15 Q1020 NOSIG
ZJSY,2003-01-28 11:00,ZJSY 281100Z 25002MPS 9999 BKN015 SCT040 BKN120 21/15 Q1020 NOSIG
ZJSY,2003-01-28 12:00,ZJSY 281200Z 08005MPS 9999 BKN015 SCT040 BKN120 20/14 Q1020 NOSIG
ZJSY,2003-01-28 13:00,ZJSY 281300Z 08004MPS 9999 SCT015 SCT040 19/14 Q1021
ZJSY,2003-01-28 14:00,ZJSY 281400Z 08004MPS 9999 SCT015 SCT040 20/14 Q1021 NOSIG
ZJSY,2003-01-28 15:00,ZJSY 281500Z 08004MPS 9999 BKN015 SCT040 19/13 Q1021 NOSIG
ZJSY,2003-01-28 16:00,ZJSY 281600Z 08003MPS 9999 BKN015 SCT040 19/14 Q1021 NOSIG
ZJSY,2003-01-28 17:00,ZJSY 281700Z 06002MPS 9999 BKN016 SCT040 20/14 Q1021 NOSIG
ZJSY,2003-01-28 18:00,ZJSY 281800Z 06004MPS 9999 BKN016 SCT040 20/13 Q1020 NOSIG
ZJSY,2003-01-28 19:00,ZJSY 281900Z 06004MPS 9999 BKN016 SCT040 20/13 Q1020 NOSIG
ZJSY,2003-01-28 20:00,ZJSY 282000Z AUTO 07004MPS //// // ////// 19/13 Q1019 NOSIG
ZJSY,2003-01-28 21:00,ZJSY 282100Z AUTO 06004MPS //// // ////// 19/13 Q1019 NOSIG
ZJSY,2003-01-28 22:00,ZJSY 282200Z 06004MPS CAVOK 20/13 Q1019 NOSIG
ZJSY,2003-01-28 23:00,ZJSY 282300Z 06004MPS CAVOK 19/13 Q1020 NOSIG
ZJSY,2003-01-29 00:00,ZJSY 290000Z 06005MPS 9999 FEW040 20/13 Q1020 NOSIG
ZJSY,2003-01-29 01:00,ZJSY 290100Z 07006MPS 9999 FEW020 SCT040 23/13 Q1021 NOSIG
ZJSY,2003-01-29 02:00,ZJSY 290200Z 08006MPS CAVOK 23/14 Q1021 NOSIG
ZJSY,2003-01-29 03:00,ZJSY 290300Z 09007MPS CAVOK 24/14 Q1021 NOSIG
ZJSY,2003-01-29 04:00,ZJSY 290400Z 10006MPS CAVOK 25/14 Q1020 NOSIG
ZJSY,2003-01-29 05:00,ZJSY 290500Z 10006MPS CAVOK 25/15 Q1020 NOSIG
ZJSY,2003-01-29 06:00,ZJSY 290600Z 10006MPS 9999 FEW020 26/15 Q1018 NOSIG
ZJSY,2003-01-29 07:00,ZJSY 290700Z 09007MPS CAVOK 26/15 Q1017 NOSIG
ZJSY,2003-01-29 08:00,ZJSY 290800Z 10007MPS CAVOK 25/15 Q1017 NOSIG
ZJSY,2003-01-29 09:00,ZJSY 290900Z 09007MPS CAVOK 24/16 Q1017 NOSIG
ZJSY,2003-01-29 10:00,ZJSY 291000Z 09006MPS CAVOK 22/15 Q1018 NOSIG
ZJSY,2003-01-29 11:00,ZJSY 291100Z 09005MPS CAVOK 21/15 Q1018 NOSIG
ZJSY,2003-01-29 12:00,ZJSY 291200Z 08005MPS CAVOK 20/15 Q1018 NOSIG
ZJSY,2003-01-29 13:00,ZJSY 291300Z 08005MPS CAVOK 20/14 Q1019 NOSIG
ZJSY,2003-01-29 14:00,ZJSY 291400Z 08006MPS CAVOK 19/14 Q1020 NOSIG
ZJSY,2003-01-29 15:00,ZJSY 291500Z 07004MPS CAVOK 19/14 Q1020 NOSIG
ZJSY,2003-01-29 16:00,ZJSY 291600Z 06004MPS CAVOK 19/14 Q1020 NOSIG
ZJSY,2003-01-29 17:00,ZJSY 291700Z 08003MPS CAVOK 19/14 Q1020 NOSIG
ZJSY,2003-01-29 18:00,ZJSY 291800Z 05004MPS CAVOK 19/14 Q1020 NOSIG
ZJSY,2003-01-29 19:00,ZJSY 291900Z AUTO 05002MPS //// // ////// 18/14 Q1020 NOSIG
ZJSY,2003-01-29 20:00,ZJSY 292000Z AUTO 05003MPS //// // ////// 18/14 Q1019 NOSIG
ZJSY,2003-01-29 21:00,ZJSY 292100Z AUTO 04002MPS //// // ////// 17/13 Q1019 NOSIG
ZJSY,2003-01-29 22:00,ZJSY 292200Z 05003MPS CAVOK 18/13 Q1019 NOSIG
ZJSY,2003-01-29 23:00,ZJSY 292300Z 05001MPS CAVOK 17/13 Q1019 NOSIG
ZJSY,2003-01-30 00:00,ZJSY 300000Z 03002MPS CAVOK 17/14 Q1020 NOSIG
ZJSY,2003-01-30 01:00,ZJSY 300100Z 04004MPS CAVOK 21/14 Q1020 NOSIG
ZJSY,2003-01-30 02:00,ZJSY 300200Z 08005MPS CAVOK 23/14 Q1021 NOSIG
ZJSY,2003-01-30 03:00,ZJSY 300300Z 08004MPS CAVOK 25/14 Q1020 NOSIG
ZJSY,2003-01-30 04:00,ZJSY 300400Z 11003MPS CAVOK 26/13 Q1020 NOSIG
ZJSY,2003-01-30 05:00,ZJSY 300500Z 12003MPS CAVOK 26/14 Q1019 NOSIG
ZJSY,2003-01-30 06:00,ZJSY 300600Z 16003MPS CAVOK 26/14 Q1017 NOSIG
ZJSY,2003-01-30 07:00,ZJSY 300700Z 16003MPS 9999 FEW016 BKN230 27/14 Q1017 NOSIG
ZJSY,2003-01-30 08:00,ZJSY 300800Z 11004MPS CAVOK 26/14 Q1016 NOSIG
ZJSY,2003-01-30 09:00,ZJSY 300900Z 12004MPS CAVOK 26/17 Q1016 NOSIG
ZJSY,2003-01-30 10:00,ZJSY 301000Z 10005MPS CAVOK 24/16 Q1017 NOSIG
ZJSY,2003-01-30 11:00,ZJSY 301100Z 08005MPS CAVOK 22/16 Q1017 NOSIG
ZJSY,2003-01-30 12:00,ZJSY 301200Z 08004MPS CAVOK 21/17 Q1018 NOSIG
ZJSY,2003-01-30 13:00,ZJSY 301300Z 07004MPS CAVOK 21/17 Q1018 NOSIG
ZJSY,2003-01-30 14:00,ZJSY 301400Z 07003MPS 9999 FEW013 SCT230 21/17 Q1019 NOSIG
ZJSY,2003-01-30 15:00,ZJSY 301500Z 06003MPS 9999 FEW013 SCT230 22/17 Q1019 NOSIG
ZJSY,2003-01-30 16:00,ZJSY 301600Z 05002MPS 9999 SCT013 SCT230 22/17 Q1019 NOSIG
ZJSY,2003-01-30 17:00,ZJSY 301700Z 06002MPS 9999 FEW013 SCT230 21/17 Q1018 NOSIG
ZJSY,2003-01-30 18:00,ZJSY 301800Z 05003MPS 9999 FEW013 SCT230 20/17 Q1018 NOSIG
ZJSY,2003-01-30 19:00,ZJSY 301900Z 05002MPS CAVOK 20/16 Q1018 NOSIG
ZJSY,2003-01-30 20:00,ZJSY 302000Z 04002MPS CAVOK 20/16 Q1017 NOSIG
ZJSY,2003-01-30 21:00,ZJSY 302100Z 02001MPS CAVOK 19/16 Q1017 NOSIG
ZJSY,2003-01-30 22:00,ZJSY 302200Z 02001MPS CAVOK 19/16 Q1018 NOSIG
ZJSY,2003-01-30 23:00,ZJSY 302300Z 35001MPS CAVOK 18/16 Q1018 NOSIG
ZJSY,2003-01-31 00:00,ZJSY 310000Z 35001MPS CAVOK 19/16 Q1018 NOSIG
ZJSY,2003-01-31 01:00,ZJSY 310100Z 33001MPS CAVOK 21/17 Q1019 NOSIG
ZJSY,2003-01-31 02:00,ZJSY 310200Z 06003MPS CAVOK 24/16 Q1019 NOSIG
ZJSY,2003-01-31 03:00,ZJSY 310300Z 11002MPS CAVOK 25/16 Q1019 NOSIG
ZJSY,2003-01-31 04:00,ZJSY 310400Z 14003MPS CAVOK 26/17 Q1018 NOSIG
ZJSY,2003-01-31 05:00,ZJSY 310500Z 18003MPS CAVOK 26/17 Q1017 NOSIG
ZJSY,2003-01-31 06:00,ZJSY 310600Z 19004MPS CAVOK 26/18 Q1016 NOSIG
ZJSY,2003-01-31 07:00,ZJSY 310700Z 16004MPS CAVOK 25/18 Q1016 NOSIG
ZJSY,2003-01-31 08:00,ZJSY 310800Z 15003MPS CAVOK 25/18 Q1015 NOSIG
ZJSY,2003-01-31 09:00,ZJSY 310900Z 15003MPS CAVOK 24/18 Q1015 NOSIG
ZJSY,2003-01-31 10:00,ZJSY 311000Z 14002MPS CAVOK 24/18 Q1015 NOSIG
ZJSY,2003-01-31 11:00,ZJSY 311100Z 15002MPS CAVOK 23/19 Q1016 NOSIG
ZJSY,2003-01-31 12:00,ZJSY 311200Z 09002MPS CAVOK 22/18 Q1017 NOSIG
ZJSY,2003-01-31 13:00,ZJSY 311300Z 10002MPS CAVOK 22/18 Q1017 NOSIG
ZJSY,2003-01-31 14:00,ZJSY 311400Z 02001MPS CAVOK 21/18 Q1017 NOSIG
ZJSY,2003-01-31 15:00,ZJSY 311500Z 08002MPS CAVOK 20/17 Q1018 NOSIG
ZJSY,2003-01-31 16:00,ZJSY 311600Z 08003MPS CAVOK 20/18 Q1017 NOSIG
ZJSY,2003-01-31 17:00,ZJSY 311700Z 08004MPS CAVOK 21/18 Q1017 NOSIG
ZJSY,2003-01-31 18:00,ZJSY 311800Z 07002MPS CAVOK 19/17 Q1017 NOSIG
ZJSY,2003-01-31 19:00,ZJSY 311900Z AUTO 35002MPS //// // ////// 19/17 Q1017 NOSIG
ZJSY,2003-01-31 20:00,ZJSY 312000Z AUTO 36002MPS //// // ////// 19/17 Q1017 NOSIG
ZJSY,2003-01-31 21:00,ZJSY 312100Z AUTO 04002MPS //// // ////// 20/17 Q1017 NOSIG
ZJSY,2003-01-31 22:00,ZJSY 312200Z 34001MPS CAVOK 19/16 Q1017 NOSIG
ZJSY,2003-01-31 23:00,ZJSY 312300Z 34002MPS CAVOK 18/16 Q1017 NOSIG
ZJSY,2003-02-01 00:00,ZJSY 010000Z 34003MPS CAVOK 18/16 Q1018 NOSIG
ZJSY,2003-02-01 01:00,ZJSY 010100Z 00000MPS CAVOK 22/17 Q1019 NOSIG
ZJSY,2003-02-01 02:00,ZJSY 010200Z 17001MPS CAVOK 24/17 Q1019 NOSIG
ZJSY,2003-02-01 03:00,ZJSY 010300Z 17002MPS CAVOK 25/18 Q1019 NOSIG
ZJSY,2003-02-01 04:00,ZJSY 010400Z 17003MPS CAVOK 26/18 Q1019 NOSIG
ZJSY,2003-02-01 05:00,ZJSY 010500Z 18004MPS 9999 SCT020 26/19 Q1018 NOSIG
ZJSY,2003-02-01 06:00,ZJSY 010600Z 16004MPS 9999 SCT020 26/19 Q1017 NOSIG
ZJSY,2003-02-01 08:00,ZJSY 010800Z 16003MPS 9999 SCT020 BKN230 26/18 Q1016 NOSIG
ZJSY,2003-02-01 09:00,ZJSY 010900Z 17002MPS 9999 BKN020 BKN230 26/18 Q1016 NOSIG
ZJSY,2003-02-01 10:00,ZJSY 011000Z 16003MPS 9999 SCT016 FEW026TCU BKN230 24/19 Q1017 NOSIG
ZJSY,2003-02-01 11:00,ZJSY 011100Z 13001MPS 9999 SCT016 FEW026TCU BKN230 23/18 Q1018 NOSIG
ZJSY,2003-02-01 12:00,ZJSY 011200Z 08002MPS 9999 SCT016 FEW026TCU BKN230 23/17 Q1018 NOSIG
ZJSY,2003-02-01 13:00,ZJSY 011300Z 07003MPS 9999 SCT016 BKN230 22/18 Q1019 NOSIG
ZJSY,2003-02-01 14:00,ZJSY 011400Z 08003MPS 9999 SCT016 BKN230 22/18 Q1019 NOSIG
ZJSY,2003-02-01 15:00,ZJSY 011500Z 08003MPS 9999 SCT016 SCT230 21/17 Q1020 NOSIG
ZJSY,2003-02-01 18:00,ZJSY 011800Z 03001MPS 9999 SCT016 SCT230 20/17 Q1019 NOSIG
ZJSY,2003-02-01 19:00,ZJSY 011900Z 07002MPS 9999 SCT016 SCT230 20/17 Q1019 NOSIG
ZJSY,2003-02-01 20:00,ZJSY 012000Z AUTO 00000MPS //// // ////// 19/17 Q1019 NOSIG
ZJSY,2003-02-01 21:00,ZJSY 012100Z AUTO 07003MPS //// // ////// 20/17 Q1019 NOSIG
ZJSY,2003-02-01 22:00,ZJSY 012200Z 08004MPS 9999 SCT016 SCT230 20/17 Q1019 NOSIG
ZJSY,2003-02-01 23:00,ZJSY 012300Z 07002MPS 9999 SCT016 SCT230 20/17 Q1020 NOSIG
ZJSY,2003-02-02 00:00,ZJSY 020000Z 10003MPS CAVOK 20/16 Q1020 NOSIG
ZJSY,2003-02-02 01:00,ZJSY 020100Z 09003MPS CAVOK 22/15 Q1021 NOSIG
ZJSY,2003-02-02 02:00,ZJSY 020200Z 08004MPS CAVOK 24/14 Q1021 NOSIG
ZJSY,2003-02-02 03:00,ZJSY 020300Z 08006MPS CAVOK 26/14 Q1021 NOSIG
ZJSY,2003-02-02 04:00,ZJSY 020400Z 10006MPS CAVOK 26/14 Q1020 NOSIG
ZJSY,2003-02-02 05:00,ZJSY 020500Z 11006MPS CAVOK 27/16 Q1019 NOSIG
ZJSY,2003-02-02 06:00,ZJSY 020600Z 11006MPS CAVOK 27/15 Q1018 NOSIG
ZJSY,2003-02-02 07:00,ZJSY 020700Z 09006MPS CAVOK 27/15 Q1017 NOSIG
ZJSY,2003-02-02 08:00,ZJSY 020800Z 10006MPS 9999 FEW020 27/15 Q1017 NOSIG
ZJSY,2003-02-02 09:00,ZJSY 020900Z 09006MPS 9999 SCT020 26/16 Q1017 NOSIG
ZJSY,2003-02-02 10:00,ZJSY 021000Z 10004MPS 9999 SCT020 24/17 Q1017 NOSIG
ZJSY,2003-02-02 11:00,ZJSY 021100Z 09004MPS 9999 SCT020 BKN033 23/17 Q1017 NOSIG
ZJSY,2003-02-02 12:00,ZJSY 021200Z 08005MPS 9999 SCT020 BKN033 22/17 Q1018 NOSIG
ZJSY,2003-02-02 13:00,ZJSY 021300Z 08005MPS 9999 FEW020 BKN033 22/17 Q1018 NOSIG
ZJSY,2003-02-02 14:00,ZJSY 021400Z 08004MPS 9999 FEW020 BKN033 22/17 Q1019 NOSIG
ZJSY,2003-02-02 15:00,ZJSY 021500Z 08005MPS 9999 FEW020 BKN033 22/17 Q1019 NOSIG
ZJSY,2003-02-02 16:00,ZJSY 021600Z 10003MPS 9999 BKN033 21/17 Q1019 NOSIG
ZJSY,2003-02-02 17:00,ZJSY 021700Z 10002MPS 9999 BKN033 21/17 Q1019 NOSIG
ZJSY,2003-02-02 18:00,ZJSY 021800Z 06002MPS 9999 BKN033 21/17 Q1019 NOSIG
ZJSY,2003-02-02 19:00,ZJSY 021900Z AUTO 07002MPS //// // ////// 21/17 Q1019 NOSIG
ZJSY,2003-02-02 20:00,ZJSY 022000Z AUTO 00000MPS //// // ////// 21/17 Q1018 NOSIG
ZJSY,2003-02-02 21:00,ZJSY 022100Z AUTO 10001MPS //// // ////// 21/16 Q1019 NOSIG
ZJSY,2003-02-02 22:00,ZJSY 022200Z 11001MPS 9999 BKN033 21/17 Q1019 NOSIG
ZJSY,2003-02-02 23:00,ZJSY 022300Z 08002MPS 9999 BKN040 20/17 Q1020 NOSIG
ZJSY,2003-02-03 00:00,ZJSY 030000Z 08003MPS 9999 FEW016 BKN040 21/17 Q1020 NOSIG
ZJSY,2003-02-03 01:00,ZJSY 030100Z 09003MPS CAVOK 23/17 Q1021 NOSIG
ZJSY,2003-02-03 02:00,ZJSY 030200Z 08007MPS CAVOK 24/16 Q1021 NOSIG
ZJSY,2003-02-03 03:00,ZJSY 030300Z 08008MPS 9999 FEW017 26/15 Q1021 NOSIG
ZJSY,2003-02-03 04:00,ZJSY 030400Z 08007MPS 9999 SCT017 26/16 Q1020 NOSIG
ZJSY,2003-02-03 05:00,ZJSY 030500Z 10006MPS 9999 SCT018 27/17 Q1019 NOSIG
ZJSY,2003-02-03 06:00,ZJSY 030600Z 10006MPS 9999 SCT018 26/15 Q1018 NOSIG
ZJSY,2003-02-03 07:00,ZJSY 030700Z 09006MPS 9999 SCT018 SCT033 27/17 Q1017 NOSIG
ZJSY,2003-02-03 08:00,ZJSY 030800Z 09006MPS 9999 FEW018 BKN050 24/16 Q1017 NOSIG
ZJSY,2003-02-03 09:00,ZJSY 030900Z 08008MPS 9999 SCT018 BKN050 24/16 Q1017 NOSIG
ZJSY,2003-02-03 10:00,ZJSY 031000Z 09005MPS 9999 SCT016 BKN040 23/17 Q1018 NOSIG
ZJSY,2003-02-03 11:00,ZJSY 031100Z 09004MPS 9999 SCT016 BKN040 23/16 Q1018 NOSIG
ZJSY,2003-02-03 12:00,ZJSY 031200Z 09005MPS 9999 SCT018 BKN040 22/17 Q1018 NOSIG
ZJSY,2003-02-03 13:00,ZJSY 031300Z 08004MPS 9999 SCT018 BKN040 22/16 Q1019 NOSIG
ZJSY,2003-02-03 14:00,ZJSY 031400Z 08004MPS 9999 SCT016 BKN050 22/16 Q1020 NOSIG
ZJSY,2003-02-03 15:00,ZJSY 031500Z 08004MPS 9999 SCT016 BKN050 22/16 Q1020 NOSIG
ZJSY,2003-02-03 16:00,ZJSY 031600Z 07002MPS 9999 SCT016 BKN050 21/16 Q1020 NOSIG
ZJSY,2003-02-03 17:00,ZJSY 031700Z 04002MPS 9999 SCT016 BKN050 21/16 Q1020 NOSIG
ZJSY,2003-02-03 18:00,ZJSY 031800Z 35001MPS 9999 SCT016 BKN050 21/16 Q1020 NOSIG
ZJSY,2003-02-03 19:00,ZJSY 031900Z AUTO 01001MPS //// // ////// 21/17 Q1019 NOSIG
ZJSY,2003-02-03 20:00,ZJSY 032000Z AUTO 04001MPS //// // ////// 20/16 Q1019 NOSIG
ZJSY,2003-02-03 21:00,ZJSY 032100Z AUTO 32001MPS //// // ////// 20/15 Q1019 NOSIG
ZJSY,2003-02-03 22:00,ZJSY 032200Z 08001MPS 9999 SCT016 BKN110 20/15 Q1020 NOSIG
ZJSY,2003-02-03 23:00,ZJSY 032300Z 00000MPS 9999 SCT016 BKN043 20/16 Q1020 NOSIG
ZJSY,2003-02-04 00:00,ZJSY 040000Z 05001MPS CAVOK 20/15 Q1021 NOSIG
ZJSY,2003-02-04 01:00,ZJSY 040100Z 34001MPS CAVOK 20/16 Q1021 NOSIG
ZJSY,2003-02-04 02:00,ZJSY 040200Z 14002MPS CAVOK 22/15 Q1022 NOSIG
ZJSY,2003-02-04 03:00,ZJSY 040300Z 11002MPS CAVOK 23/14 Q1022 NOSIG
ZJSY,2003-02-04 04:00,ZJSY 040400Z 24003MPS 9999 FEW016 BKN130 24/15 Q1022 NOSIG
ZJSY,2003-02-04 05:00,ZJSY 040500Z 25003MPS 9999 FEW016 BKN130 25/15 Q1021 NOSIG
ZJSY,2003-02-04 06:00,ZJSY 040600Z 22004MPS 9999 FEW016 BKN130 24/16 Q1020 NOSIG
ZJSY,2003-02-04 07:00,ZJSY 040700Z 22004MPS CAVOK 24/16 Q1019 NOSIG
ZJSY,2003-02-04 08:00,ZJSY 040800Z 23003MPS 9999 FEW016 BKN130 24/16 Q1019 NOSIG
ZJSY,2003-02-04 09:00,ZJSY 040900Z 23003MPS 9999 SCT016 BKN130 23/16 Q1019 NOSIG
ZJSY,2003-02-04 10:00,ZJSY 041000Z 21002MPS 9999 FEW013 SCT016 BKN130 22/16 Q1020 NOSIG
ZJSY,2003-02-04 11:00,ZJSY 041100Z 08004MPS 9999 -RA BKN011 SCT016 BKN130 21/15 Q1020 NOSIG
ZJSY,2003-02-04 12:00,ZJSY 041200Z 08005MPS 9999 SCT013 BKN100 20/14 Q1021 NOSIG
ZJSY,2003-02-04 13:00,ZJSY 041300Z 08005MPS 9999 SCT013 BKN100 20/13 Q1022 NOSIG
ZJSY,2003-02-04 14:00,ZJSY 041400Z 08004MPS 9999 SCT013 BKN100 19/13 Q1022 NOSIG
ZJSY,2003-02-04 15:00,ZJSY 041500Z 07002MPS 9999 SCT013 BKN100 19/14 Q1022 NOSIG
ZJSY,2003-02-04 16:00,ZJSY 041600Z 08003MPS 9999 SCT013 OVC100 19/13 Q1022 NOSIG
ZJSY,2003-02-04 17:00,ZJSY 041700Z 08004MPS 9999 SCT013 OVC066 17/14 Q1022 NOSIG
ZJSY,2003-02-04 18:00,ZJSY 041800Z AUTO 08004MPS //// // ////// 18/13 Q1022 NOSIG
ZJSY,2003-02-04 19:00,ZJSY 041900Z AUTO 09003MPS //// // ////// 16/14 Q1021 NOSIG
ZJSY,2003-02-04 20:00,ZJSY 042000Z AUTO 04001MPS //// // ////// 17/14 Q1021 NOSIG
ZJSY,2003-02-04 21:00,ZJSY 042100Z AUTO 07004MPS //// // ////// 16/13 Q1021 NOSIG
ZJSY,2003-02-04 22:00,ZJSY 042200Z 08003MPS CAVOK 16/13 Q1021 NOSIG
ZJSY,2003-02-04 23:00,ZJSY 042300Z AUTO 08004MPS //// // ////// 16/13 Q1022 NOSIG
ZJSY,2003-02-05 00:00,ZJSY 050000Z 08006MPS 9999 BKN043 SCT230 16/12 Q1023 NOSIG
ZJSY,2003-02-05 01:00,ZJSY 050100Z 07005MPS CAVOK 18/12 Q1024 NOSIG
ZJSY,2003-02-05 02:00,ZJSY 050200Z 06007MPS CAVOK 20/11 Q1024 NOSIG
ZJSY,2003-02-05 03:00,ZJSY 050300Z 08005MPS CAVOK 22/11 Q1024 NOSIG
ZJSY,2003-02-05 04:00,ZJSY 050400Z 09006MPS CAVOK 23/11 Q1023 NOSIG
ZJSY,2003-02-05 05:00,ZJSY 050500Z 12004MPS CAVOK 24/12 Q1022 NOSIG
ZJSY,2003-02-05 06:00,ZJSY 050600Z 13003MPS CAVOK 24/11 Q1021 NOSIG
ZJSY,2003-02-05 07:00,ZJSY 050700Z 16003MPS 9999 BKN043 23/12 Q1020 NOSIG
ZJSY,2003-02-05 08:00,ZJSY 050800Z 16003MPS 9999 BKN043 SCT230 23/13 Q1019 NOSIG
ZJSY,2003-02-05 09:00,ZJSY 050900Z 08003MPS 9999 SCT020 BKN043 22/12 Q1020 NOSIG
ZJSY,2003-02-05 10:00,ZJSY 051000Z 10004MPS 9999 SCT020 BKN043 21/12 Q1020 NOSIG
ZJSY,2003-02-05 11:00,ZJSY 051100Z 08006MPS 9999 BKN020 BKN043 20/11 Q1021 NOSIG
ZJSY,2003-02-05 12:00,ZJSY 051200Z 08007MPS 9999 BKN020 BKN043 19/11 Q1021 NOSIG
ZJSY,2003-02-05 13:00,ZJSY 051300Z 08007MPS 9999 SCT020 BKN043 19/11 Q1022 NOSIG
ZJSY,2003-02-05 14:00,ZJSY 051400Z 07005MPS 9999 SCT020 BKN043 18/12 Q1022 NOSIG
ZJSY,2003-02-05 15:00,ZJSY 051500Z 05005MPS 9999 SCT020 BKN050 19/11 Q1022 NOSIG
ZJSY,2003-02-05 16:00,ZJSY 051600Z 06003MPS 9999 SCT020 BKN050 19/11 Q1022 NOSIG
ZJSY,2003-02-05 17:00,ZJSY 051700Z 07002MPS 9999 SCT020 BKN050 19/12 Q1022 NOSIG
ZJSY,2003-02-05 18:00,ZJSY 051800Z 08003MPS 9999 SCT020 BKN050 18/10 Q1022 NOSIG
ZJSY,2003-02-05 19:00,ZJSY 051900Z AUTO 07004MPS //// // ////// 19/08 Q1021 NOSIG
ZJSY,2003-02-05 20:00,ZJSY 052000Z AUTO 05004MPS //// // ////// 19/07 Q1021 NOSIG
ZJSY,2003-02-05 21:00,ZJSY 052100Z AUTO 05004MPS //// // ////// 19/07 Q1020 NOSIG
ZJSY,2003-02-05 22:00,ZJSY 052200Z 04005MPS 9999 SCT030 19/08 Q1021 NOSIG
ZJSY,2003-02-05 23:00,ZJSY 052300Z 06006MPS 9999 SCT033 BKN050 19/09 Q1022 NOSIG
ZJSY,2003-02-06 00:00,ZJSY 060000Z 05007MPS CAVOK 20/11 Q1022 NOSIG
ZJSY,2003-02-06 01:00,ZJSY 060100Z 06006MPS CAVOK 21/11 Q1022 NOSIG
ZJSY,2003-02-06 02:00,ZJSY 060200Z 05007MPS CAVOK 22/11 Q1022 NOSIG
ZJSY,2003-02-06 03:00,ZJSY 060300Z 05007MPS CAVOK 23/11 Q1022 NOSIG
ZJSY,2003-02-06 04:00,ZJSY 060400Z 07005MPS CAVOK 25/11 Q1022 NOSIG
ZJSY,2003-02-06 05:00,ZJSY 060500Z 09006MPS CAVOK 25/12 Q1021 NOSIG
ZJSY,2003-02-06 06:00,ZJSY 060600Z 10005MPS CAVOK 25/12 Q1019 NOSIG
ZJSY,2003-02-06 07:00,ZJSY 060700Z 10005MPS CAVOK 25/13 Q1018 NOSIG
ZJSY,2003-02-06 08:00,ZJSY 060800Z 11005MPS CAVOK 25/13 Q1018 NOSIG
ZJSY,2003-02-06 09:00,ZJSY 060900Z 12002MPS 9999 FEW020 BKN050 24/13 Q1018 NOSIG
ZJSY,2003-02-06 10:00,ZJSY 061000Z 10003MPS 9999 SCT020 BKN033 22/14 Q1018 NOSIG
ZJSY,2003-02-06 11:00,ZJSY 061100Z 08003MPS 9999 SCT020 BKN033 21/14 Q1018 NOSIG
ZJSY,2003-02-06 12:00,ZJSY 061200Z 10002MPS 9999 SCT020 BKN033 21/14 Q1019 NOSIG
ZJSY,2003-02-06 13:00,ZJSY 061300Z 09004MPS 9999 SCT020 BKN033 20/13 Q1019 NOSIG
ZJSY,2003-02-06 14:00,ZJSY 061400Z 08004MPS 9999 FEW020 BKN033 19/13 Q1019 NOSIG
ZJSY,2003-02-06 15:00,ZJSY 061500Z 05001MPS 9999 FEW020 BKN033 18/13 Q1019 NOSIG
ZJSY,2003-02-06 16:00,ZJSY 061600Z 03002MPS 9999 FEW020 BKN033 18/13 Q1019 NOSIG
ZJSY,2003-02-06 17:00,ZJSY 061700Z 36001MPS 9999 FEW020 BKN033 17/13 Q1018 NOSIG
ZJSY,2003-02-06 18:00,ZJSY 061800Z 00000MPS 9999 FEW020 BKN033 17/13 Q1017 NOSIG
ZJSY,2003-02-06 19:00,ZJSY 061900Z AUTO 00000MPS //// // ////// 17/13 Q1016 NOSIG
ZJSY,2003-02-06 20:00,ZJSY 062000Z AUTO 35001MPS //// // ////// 17/13 Q1016 NOSIG
ZJSY,2003-02-06 21:00,ZJSY 062100Z 12001MPS 9999 FEW020 BKN033 17/13 Q1016 NOSIG
ZJSY,2003-02-06 23:00,ZJSY 062300Z 31002MPS 9999 FEW020 BKN033 18/14 Q1016 NOSIG
ZJSY,2003-02-07 01:00,ZJSY 070100Z 00000MPS 9999 BKN040 20/14 Q1017 NOSIG
ZJSY,2003-02-07 02:00,ZJSY 070200Z 18001MPS 9999 BKN040 21/15 Q1017 NOSIG
ZJSY,2003-02-07 03:00,ZJSY 070300Z 08002MPS 9999 BKN040 23/14 Q1017 NOSIG
ZJSY,2003-02-07 04:00,ZJSY 070400Z 10003MPS CAVOK 25/15 Q1016 NOSIG
ZJSY,2003-02-07 05:00,ZJSY 070500Z 11004MPS CAVOK 26/15 Q1015 NOSIG
ZJSY,2003-02-07 06:00,ZJSY 070600Z 18004MPS CAVOK 25/18 Q1014 NOSIG
ZJSY,2003-02-07 07:00,ZJSY 070700Z 24006MPS CAVOK 24/16 Q1013 NOSIG
ZJSY,2003-02-07 08:00,ZJSY 070800Z 25005MPS CAVOK 24/16 Q1013 NOSIG
ZJSY,2003-02-07 09:00,ZJSY 070900Z 22004MPS CAVOK 24/17 Q1013 NOSIG
ZJSY,2003-02-07 10:00,ZJSY 071000Z 19002MPS CAVOK 23/17 Q1013 NOSIG
ZJSY,2003-02-07 11:00,ZJSY 071100Z 00000MPS CAVOK 22/17 Q1013 NOSIG
ZJSY,2003-02-07 12:00,ZJSY 071200Z 35001MPS CAVOK 20/17 Q1014 NOSIG
ZJSY,2003-02-07 13:00,ZJSY 071300Z 34002MPS CAVOK 19/16 Q1014 NOSIG
ZJSY,2003-02-07 14:00,ZJSY 071400Z 01001MPS CAVOK 19/16 Q1014 NOSIG
ZJSY,2003-02-07 15:00,ZJSY 071500Z 03001MPS CAVOK 19/16 Q1014 NOSIG
ZJSY,2003-02-07 16:00,ZJSY 071600Z 04001MPS CAVOK 19/16 Q1014 NOSIG
ZJSY,2003-02-07 17:00,ZJSY 071700Z 35001MPS CAVOK 18/15 Q1014 NOSIG
ZJSY,2003-02-07 18:00,ZJSY 071800Z 34002MPS CAVOK 17/15 Q1014 NOSIG
ZJSY,2003-02-07 19:00,ZJSY 071900Z AUTO 34003MPS //// // ////// 17/15 Q1013 NOSIG
ZJSY,2003-02-07 20:00,ZJSY 072000Z 36001MPS CAVOK 17/15 Q1013 NOSIG
ZJSY,2003-02-07 21:00,ZJSY 072100Z 33002MPS CAVOK 17/15 Q1013 NOSIG
ZJSY,2003-02-07 22:00,ZJSY 072200Z 34001MPS CAVOK 17/15 Q1013 NOSIG
ZJSY,2003-02-07 23:00,ZJSY 072300Z 34002MPS CAVOK 16/14 Q1013 NOSIG
ZJSY,2003-02-08 00:00,ZJSY 080000Z 33002MPS CAVOK 17/15 Q1014 NOSIG
ZJSY,2003-02-08 01:00,ZJSY 080100Z 34001MPS CAVOK 20/17 Q1015 NOSIG
ZJSY,2003-02-08 02:00,ZJSY 080200Z 14001MPS CAVOK 23/17 Q1015 NOSIG
ZJSY,2003-02-08 03:00,ZJSY 080300Z 16002MPS CAVOK 24/17 Q1015 NOSIG
ZJSY,2003-02-08 04:00,ZJSY 080400Z 18002MPS CAVOK 24/16 Q1015 NOSIG
ZJSY,2003-02-08 05:00,ZJSY 080500Z 18003MPS CAVOK 24/16 Q1014 NOSIG
ZJSY,2003-02-08 06:00,ZJSY 080600Z 19003MPS CAVOK 25/17 Q1013 NOSIG
ZJSY,2003-02-08 07:00,ZJSY 080700Z 21003MPS CAVOK 25/17 Q1012 NOSIG
ZJSY,2003-02-08 08:00,ZJSY 080800Z 20003MPS CAVOK 25/17 Q1011 NOSIG
ZJSY,2003-02-08 09:00,ZJSY 080900Z 21003MPS CAVOK 25/17 Q1011 NOSIG
ZJSY,2003-02-08 10:00,ZJSY 081000Z 20002MPS CAVOK 24/17 Q1012 NOSIG
ZJSY,2003-02-08 11:00,ZJSY 081100Z 21001MPS CAVOK 23/18 Q1012 NOSIG
ZJSY,2003-02-08 12:00,ZJSY 081200Z 18001MPS CAVOK 22/17 Q1012 NOSIG
ZJSY,2003-02-08 13:00,ZJSY 081300Z 35002MPS CAVOK 19/17 Q1013 NOSIG
ZJSY,2003-02-08 14:00,ZJSY 081400Z 35002MPS CAVOK 19/17 Q1014 NOSIG
ZJSY,2003-02-08 15:00,ZJSY 081500Z 12001MPS CAVOK 19/17 Q1014 NOSIG
ZJSY,2003-02-08 16:00,ZJSY 081600Z 34001MPS CAVOK 19/16 Q1014 NOSIG
ZJSY,2003-02-08 17:00,ZJSY 081700Z 35001MPS CAVOK 18/16 Q1014 NOSIG
ZJSY,2003-02-08 18:00,ZJSY 081800Z 36001MPS CAVOK 18/16 Q1013 NOSIG
ZJSY,2003-02-08 19:00,ZJSY 081900Z 34002MPS CAVOK 18/16 Q1013 NOSIG
ZJSY,2003-02-08 20:00,ZJSY 082000Z 00000MPS CAVOK 17/15 Q1013 NOSIG
ZJSY,2003-02-08 21:00,ZJSY 082100Z 35002MPS CAVOK 17/15 Q1013 NOSIG
ZJSY,2003-02-08 22:00,ZJSY 082200Z 33002MPS 9999 SCT043 18/16 Q1013 NOSIG
ZJSY,2003-02-08 23:00,ZJSY 082300Z 00000MPS 9999 SCT046 BKN100 19/17 Q1014 NOSIG
ZJSY,2003-02-09 00:00,ZJSY 090000Z 34002MPS 9999 SCT018 BKN033 19/17 Q1015 NOSIG
ZJSY,2003-02-09 01:00,ZJSY 090100Z 04002MPS 9999 FEW018 23/18 Q1015 NOSIG
ZJSY,2003-02-09 02:00,ZJSY 090200Z 07003MPS CAVOK 25/17 Q1016 NOSIG
ZJSY,2003-02-09 03:00,ZJSY 090300Z 13002MPS 9999 FEW018 SCT260 26/17 Q1016 NOSIG
ZJSY,2003-02-09 05:00,ZJSY 090500Z 17003MPS 9999 FEW020 26/19 Q1015 NOSIG
ZJSY,2003-02-09 06:00,ZJSY 090600Z 16004MPS 9999 FEW020 26/20 Q1014 NOSIG
ZJSY,2003-02-09 07:00,ZJSY 090700Z 15003MPS 9999 FEW018 26/19 Q1013 NOSIG
ZJSY,2003-02-09 08:00,ZJSY 090800Z 15003MPS CAVOK 26/19 Q1012 NOSIG
ZJSY,2003-02-09 09:00,ZJSY 090900Z 16002MPS CAVOK 26/18 Q1012 NOSIG
ZJSY,2003-02-09 10:00,ZJSY 091000Z 16002MPS CAVOK 25/19 Q1012 NOSIG
ZJSY,2003-02-09 11:00,ZJSY 091100Z 13003MPS CAVOK 23/19 Q1012 NOSIG
ZJSY,2003-02-09 12:00,ZJSY 091200Z 11002MPS CAVOK 23/19 Q1013 NOSIG
ZJSY,2003-02-09 13:00,ZJSY 091300Z 09003MPS CAVOK 22/19 Q1014 NOSIG
ZJSY,2003-02-09 14:00,ZJSY 091400Z 08004MPS CAVOK 21/18 Q1014 NOSIG
ZJSY,2003-02-09 15:00,ZJSY 091500Z 08004MPS CAVOK 21/18 Q1014 NOSIG
ZJSY,2003-02-09 16:00,ZJSY 091600Z 08003MPS CAVOK 21/19 Q1014 NOSIG
ZJSY,2003-02-09 17:00,ZJSY 091700Z 06003MPS CAVOK 21/19 Q1014 NOSIG
ZJSY,2003-02-09 18:00,ZJSY 091800Z 03002MPS CAVOK 21/18 Q1014 NOSIG
ZJSY,2003-02-09 19:00,ZJSY 091900Z 34002MPS CAVOK 20/18 Q1014 NOSIG
ZJSY,2003-02-09 20:00,ZJSY 092000Z 01002MPS CAVOK 20/18 Q1013 NOSIG
ZJSY,2003-02-09 21:00,ZJSY 092100Z AUTO 03002MPS //// // ////// 20/18 Q1013 NOSIG
ZJSY,2003-02-09 22:00,ZJSY 092200Z 00000MPS 9999 SCT020 20/18 Q1014 NOSIG
ZJSY,2003-02-09 23:00,ZJSY 092300Z AUTO 00000MPS //// // ////// 21/18 Q1015 NOSIG
ZJSY,2003-02-10 00:00,ZJSY 100000Z 33003MPS 9999 SCT015 BKN040 22/18 Q1015 NOSIG
ZJSY,2003-02-10 01:00,ZJSY 100100Z 04002MPS 9999 FEW018 BKN040 24/19 Q1015 NOSIG
ZJSY,2003-02-10 02:00,ZJSY 100200Z 33002MPS 9999 BKN040 25/19 Q1016 NOSIG
ZJSY,2003-02-10 03:00,ZJSY 100300Z 07003MPS 9999 BKN046 26/19 Q1016 NOSIG
ZJSY,2003-02-10 04:00,ZJSY 100400Z 11002MPS 9999 BKN046 27/19 Q1016 NOSIG
ZJSY,2003-02-10 05:00,ZJSY 100500Z 12002MPS 9999 FEW018 BKN046 27/19 Q1015 NOSIG
ZJSY,2003-02-10 06:00,ZJSY 100600Z 16002MPS 9999 FEW018 BKN046 27/20 Q1014 NOSIG
ZJSY,2003-02-10 07:00,ZJSY 100700Z 15002MPS 9999 SCT018 BKN040 26/21 Q1013 NOSIG
ZJSY,2003-02-10 08:00,ZJSY 100800Z 16002MPS 9999 FEW018 BKN040 26/21 Q1013 NOSIG
ZJSY,2003-02-10 09:00,ZJSY 100900Z 15002MPS 9999 BKN046 26/21 Q1013 NOSIG
ZJSY,2003-02-10 10:00,ZJSY 101000Z 13003MPS CAVOK 25/21 Q1013 NOSIG
ZJSY,2003-02-10 11:00,ZJSY 101100Z 12001MPS CAVOK 24/20 Q1013 NOSIG
ZJSY,2003-02-10 12:00,ZJSY 101200Z 08004MPS CAVOK 23/20 Q1014 NOSIG
ZJSY,2003-02-10 13:00,ZJSY 101300Z 08005MPS CAVOK 23/20 Q1014 NOSIG
ZJSY,2003-02-10 14:00,ZJSY 101400Z 07004MPS CAVOK 23/20 Q1015 NOSIG
ZJSY,2003-02-10 15:00,ZJSY 101500Z 07004MPS CAVOK 23/20 Q1015 NOSIG
ZJSY,2003-02-10 16:00,ZJSY 101600Z 08003MPS CAVOK 22/19 Q1015 NOSIG
ZJSY,2003-02-10 17:00,ZJSY 101700Z 09002MPS CAVOK 22/20 Q1015 NOSIG
ZJSY,2003-02-10 18:00,ZJSY 101800Z 09002MPS CAVOK 22/20 Q1014 NOSIG
ZJSY,2003-02-10 19:00,ZJSY 101900Z 08002MPS CAVOK 22/20 Q1014 NOSIG
ZJSY,2003-02-10 20:00,ZJSY 102000Z 36001MPS CAVOK 20/18 Q1014 NOSIG
ZJSY,2003-02-10 21:00,ZJSY 102100Z 35001MPS CAVOK 20/18 Q1014 NOSIG
ZJSY,2003-02-10 22:00,ZJSY 102200Z 36001MPS CAVOK 19/18 Q1015 NOSIG
ZJSY,2003-02-10 23:00,ZJSY 102300Z 36001MPS CAVOK 20/18 Q1015 NOSIG
ZJSY,2003-02-11 00:00,ZJSY 110000Z 02002MPS 9999 SCT040 BKN053 22/20 Q1016 NOSIG
ZJSY,2003-02-11 01:00,ZJSY 110100Z 36001MPS 9999 FEW020 SCT100 23/20 Q1017 NOSIG
ZJSY,2003-02-11 02:00,ZJSY 110200Z 08004MPS 9999 FEW020 BKN060 26/20 Q1017 NOSIG
ZJSY,2003-02-11 03:00,ZJSY 110300Z 10003MPS 9999 FEW020 BKN050 26/20 Q1017 NOSIG
ZJSY,2003-02-11 04:00,ZJSY 110400Z 11003MPS 9999 FEW020 BKN050 27/20 Q1016 NOSIG
ZJSY,2003-02-11 05:00,ZJSY 110500Z 16004MPS 9999 FEW020 SCT060 27/20 Q1015 NOSIG
ZJSY,2003-02-11 06:00,ZJSY 110600Z 15004MPS 9999 FEW020 27/21 Q1014 NOSIG
ZJSY,2003-02-11 07:00,ZJSY 110700Z 14004MPS 9999 FEW020 27/21 Q1013 NOSIG
ZJSY,2003-02-11 08:00,ZJSY 110800Z 14004MPS 9999 FEW020 26/21 Q1013 NOSIG
ZJSY,2003-02-11 09:00,ZJSY 110900Z 14006MPS 9999 FEW020 25/20 Q1013 NOSIG
ZJSY,2003-02-11 10:00,ZJSY 111000Z 10005MPS 9999 FEW020 26/19 Q1014 NOSIG
ZJSY,2003-02-11 11:00,ZJSY 111100Z 09005MPS CAVOK 24/19 Q1014 NOSIG
ZJSY,2003-02-11 12:00,ZJSY 111200Z 09005MPS CAVOK 23/19 Q1015 NOSIG
ZJSY,2003-02-11 13:00,ZJSY 111300Z 08005MPS CAVOK 23/19 Q1016 NOSIG
ZJSY,2003-02-11 14:00,ZJSY 111400Z 08004MPS CAVOK 22/19 Q1016 NOSIG
ZJSY,2003-02-11 15:00,ZJSY 111500Z 08004MPS CAVOK 22/19 Q1016 NOSIG
ZJSY,2003-02-11 16:00,ZJSY 111600Z 08004MPS CAVOK 22/18 Q1016 NOSIG
ZJSY,2003-02-11 17:00,ZJSY 111700Z 07003MPS CAVOK 21/17 Q1016 NOSIG
ZJSY,2003-02-11 18:00,ZJSY 111800Z 09002MPS CAVOK 21/17 Q1016 NOSIG
ZJSY,2003-02-11 19:00,ZJSY 111900Z AUTO 08003MPS //// // ////// 21/17 Q1015 NOSIG
ZJSY,2003-02-11 20:00,ZJSY 112000Z AUTO 08002MPS //// // ////// 20/17 Q1015 NOSIG
ZJSY,2003-02-11 21:00,ZJSY 112100Z AUTO 08003MPS //// // ////// 20/17 Q1015 NOSIG
ZJSY,2003-02-11 22:00,ZJSY 112200Z 09002MPS CAVOK 20/18 Q1015 NOSIG
ZJSY,2003-02-11 23:00,ZJSY 112300Z 05002MPS CAVOK 20/18 Q1016 NOSIG
ZJSY,2003-02-12 00:00,ZJSY 120000Z 07003MPS CAVOK 21/18 Q1017 NOSIG
ZJSY,2003-02-12 01:00,ZJSY 120100Z 08004MPS CAVOK 24/17 Q1018 NOSIG
ZJSY,2003-02-12 02:00,ZJSY 120200Z 09006MPS CAVOK 25/17 Q1018 NOSIG
ZJSY,2003-02-12 03:00,ZJSY 120300Z 10006MPS CAVOK 26/17 Q1018 NOSIG
ZJSY,2003-02-12 04:00,ZJSY 120400Z 09007MPS 9999 FEW018 27/17 Q1017 NOSIG
ZJSY,2003-02-12 05:00,ZJSY 120500Z 10007MPS 9999 SCT018 27/17 Q1016 NOSIG
ZJSY,2003-02-12 06:00,ZJSY 120600Z 09008MPS 9999 FEW018 26/17 Q1016 NOSIG
ZJSY,2003-02-12 07:00,ZJSY 120700Z 09007MPS 9999 FEW018 27/17 Q1015 NOSIG
ZJSY,2003-02-12 08:00,ZJSY 120800Z 08007MPS CAVOK 27/17 Q1014 NOSIG
ZJSY,2003-02-12 09:00,ZJSY 120900Z 10006MPS CAVOK 26/17 Q1014 NOSIG
ZJSY,2003-02-12 10:00,ZJSY 121000Z 09007MPS CAVOK 25/16 Q1014 NOSIG
ZJSY,2003-02-12 11:00,ZJSY 121100Z 09006MPS CAVOK 24/17 Q1015 NOSIG
ZJSY,2003-02-12 12:00,ZJSY 121200Z 09005MPS CAVOK 23/18 Q1016 NOSIG
ZJSY,2003-02-12 13:00,ZJSY 121300Z 09004MPS CAVOK 23/18 Q1017 NOSIG
ZJSY,2003-02-12 14:00,ZJSY 121400Z 08005MPS CAVOK 22/18 Q1017 NOSIG
ZJSY,2003-02-12 15:00,ZJSY 121500Z 08006MPS 9999 FEW017 SCT260 22/18 Q1017 NOSIG
ZJSY,2003-02-12 16:00,ZJSY 121600Z 08006MPS 9999 FEW017 SCT260 22/18 Q1017 NOSIG
ZJSY,2003-02-12 17:00,ZJSY 121700Z 08006MPS 9999 SCT017 SCT260 23/18 Q1017 NOSIG
ZJSY,2003-02-12 18:00,ZJSY 121800Z 08005MPS 9999 SCT018 SCT260 23/18 Q1017 NOSIG
ZJSY,2003-02-12 19:00,ZJSY 121900Z AUTO 09004MPS //// // ////// 23/18 Q1016 NOSIG
ZJSY,2003-02-12 20:00,ZJSY 122000Z AUTO 10004MPS //// // ////// 22/18 Q1016 NOSIG
ZJSY,2003-02-12 21:00,ZJSY 122100Z AUTO 08005MPS //// // ////// 22/18 Q1015 NOSIG
ZJSY,2003-02-12 22:00,ZJSY 122200Z 08006MPS 9999 SCT016 SCT260 22/18 Q1015 NOSIG
ZJSY,2003-02-12 23:00,ZJSY 122300Z 07006MPS 9999 SCT016 SCT260 22/18 Q1016 NOSIG
ZJSY,2003-02-13 00:00,ZJSY 130000Z 07006MPS 9999 FEW018 BKN260 22/18 Q1017 NOSIG
ZJSY,2003-02-13 01:00,ZJSY 130100Z 08006MPS 9999 FEW018 BKN060 24/18 Q1018 NOSIG
ZJSY,2003-02-13 02:00,ZJSY 130200Z 08007MPS 9999 SCT018 SCT260 25/19 Q1018 NOSIG
ZJSY,2003-02-13 03:00,ZJSY 130300Z 08007MPS 9999 BKN018 BKN043 25/18 Q1019 NOSIG
ZJSY,2003-02-13 04:00,ZJSY 130400Z 07008MPS 9999 SCT018 BKN260 27/18 Q1018 NOSIG
ZJSY,2003-02-13 05:00,ZJSY 130500Z 09008MPS 9999 BKN018 FEW026TCU BKN050 26/18 Q1017 NOSIG
ZJSY,2003-02-13 06:00,ZJSY 130600Z 07008MPS 9999 BKN018 BKN050 27/18 Q1016 NOSIG
ZJSY,2003-02-13 07:00,ZJSY 130700Z 08006MPS 9999 SCT018 SCT040 BKN060 27/18 Q1015 NOSIG
ZJSY,2003-02-13 08:00,ZJSY 130800Z 08007MPS 9999 FEW020 BKN050 27/18 Q1015 NOSIG
ZJSY,2003-02-13 09:00,ZJSY 130900Z 10006MPS 9999 FEW020 BKN050 25/18 Q1015 NOSIG
ZJSY,2003-02-13 10:00,ZJSY 131000Z 10006MPS 9999 FEW020 SCT100 24/19 Q1016 NOSIG
ZJSY,2003-02-13 11:00,ZJSY 131100Z 09006MPS 9999 FEW020 BKN230 23/18 Q1016 NOSIG
ZJSY,2003-02-13 12:00,ZJSY 131200Z 10004MPS CAVOK 23/18 Q1017 NOSIG
ZJSY,2003-02-13 13:00,ZJSY 131300Z 09005MPS CAVOK 23/18 Q1017 NOSIG
ZJSY,2003-02-13 14:00,ZJSY 131400Z 08006MPS CAVOK 23/18 Q1018 NOSIG
ZJSY,2003-02-13 15:00,ZJSY 131500Z 08007MPS CAVOK 23/18 Q1017 NOSIG
ZJSY,2003-02-13 16:00,ZJSY 131600Z 07004MPS CAVOK 23/18 Q1017 NOSIG
ZJSY,2003-02-13 17:00,ZJSY 131700Z 10003MPS CAVOK 22/18 Q1017 NOSIG
ZJSY,2003-02-13 18:00,ZJSY 131800Z 09004MPS CAVOK 22/19 Q1016 NOSIG
ZJSY,2003-02-13 19:00,ZJSY 131900Z AUTO 08005MPS //// // ////// 23/19 Q1015 NOSIG
ZJSY,2003-02-13 20:00,ZJSY 132000Z AUTO 08005MPS //// // ////// 22/19 Q1015 NOSIG
ZJSY,2003-02-13 21:00,ZJSY 132100Z AUTO 09004MPS //// // ////// 22/19 Q1015 NOSIG
ZJSY,2003-02-13 22:00,ZJSY 132200Z 07004MPS 9999 SCT020 22/19 Q1015 NOSIG
ZJSY,2003-02-13 23:00,ZJSY 132300Z 09004MPS 9999 FEW020 BKN040 23/19 Q1016 NOSIG
ZJSY,2003-02-14 00:00,ZJSY 140000Z 09003MPS 9999 FEW020 BKN040 23/19 Q1017 NOSIG
ZJSY,2003-02-14 01:00,ZJSY 140100Z 10003MPS 9999 SCT012 BKN020 23/20 Q1017 NOSIG
ZJSY,2003-02-14 02:00,ZJSY 140200Z 07004MPS 9999 SCT012 BKN025 24/20 Q1018 NOSIG
ZJSY,2003-02-14 03:00,ZJSY 140300Z 08005MPS 9999 SCT014 BKN053 25/20 Q1018 NOSIG
ZJSY,2003-02-14 04:00,ZJSY 140400Z 08006MPS 9999 SCT016 BKN100 26/20 Q1017 NOSIG
ZJSY,2003-02-14 05:00,ZJSY 140500Z 08004G09MPS 9999 SCT016 BKN100 27/20 Q1016 NOSIG
ZJSY,2003-02-14 06:00,ZJSY 140600Z 14003MPS 9999 BKN016 BKN100 26/21 Q1016 NOSIG
ZJSY,2003-02-14 07:00,ZJSY 140700Z 14003MPS 9999 BKN016 BKN100 26/21 Q1015 NOSIG
ZJSY,2003-02-14 08:00,ZJSY 140800Z 13003MPS 9999 SCT018 BKN260 26/20 Q1014 NOSIG
ZJSY,2003-02-14 09:00,ZJSY 140900Z 12004MPS 9999 FEW018 BKN260 26/20 Q1014 NOSIG
ZJSY,2003-02-14 10:00,ZJSY 141000Z 08005MPS 9999 FEW015 BKN260 25/20 Q1014 NOSIG
ZJSY,2003-02-14 11:00,ZJSY 141100Z 08004MPS 9999 FEW015 BKN260 24/20 Q1015 NOSIG
ZJSY,2003-02-14 12:00,ZJSY 141200Z 08004MPS CAVOK 23/20 Q1015 NOSIG
ZJSY,2003-02-14 13:00,ZJSY 141300Z 08004MPS CAVOK 23/20 Q1016 NOSIG
ZJSY,2003-02-14 14:00,ZJSY 141400Z 08004MPS CAVOK 23/20 Q1016 NOSIG
ZJSY,2003-02-14 15:00,ZJSY 141500Z 07005MPS CAVOK 23/20 Q1016 NOSIG
ZJSY,2003-02-14 16:00,ZJSY 141600Z 08004MPS 9999 FEW015 23/20 Q1016 NOSIG
ZJSY,2003-02-14 17:00,ZJSY 141700Z 08004MPS CAVOK 23/20 Q1016 NOSIG
ZJSY,2003-02-14 18:00,ZJSY 141800Z 08003MPS CAVOK 22/19 Q1015 NOSIG
ZJSY,2003-02-14 19:00,ZJSY 141900Z AUTO 08003MPS //// // ////// 22/19 Q1015 NOSIG
ZJSY,2003-02-14 20:00,ZJSY 142000Z AUTO 10003MPS //// // ////// 22/20 Q1014 NOSIG
ZJSY,2003-02-14 21:00,ZJSY 142100Z AUTO 08003MPS //// // ////// 23/20 Q1014 NOSIG
ZJSY,2003-02-14 22:00,ZJSY 142200Z 07003MPS CAVOK 23/20 Q1014 NOSIG
ZJSY,2003-02-14 23:00,ZJSY 142300Z 08003MPS 9999 BKN013 SCT016 22/20 Q1015 NOSIG
ZJSY,2003-02-15 00:00,ZJSY 150000Z 06003MPS 9999 SCT011 SCT016 23/20 Q1015 NOSIG
ZJSY,2003-02-15 01:00,ZJSY 150100Z 07004MPS 9999 SCT018 BKN043 24/19 Q1016 NOSIG
ZJSY,2003-02-15 02:00,ZJSY 150200Z 07005MPS 9999 SCT018 BKN050 26/19 Q1016 NOSIG
ZJSY,2003-02-15 03:00,ZJSY 150300Z 14003MPS 9999 SCT018 BKN260 26/20 Q1016 NOSIG
ZJSY,2003-02-15 04:00,ZJSY 150400Z 15004MPS 9999 FEW018 BKN260 27/20 Q1016 NOSIG
ZJSY,2003-02-15 05:00,ZJSY 150500Z 15004MPS 9999 FEW018 BKN260 27/20 Q1015 NOSIG
ZJSY,2003-02-15 06:00,ZJSY 150600Z 15004MPS 9999 FEW018 BKN260 26/20 Q1014 NOSIG
ZJSY,2003-02-15 07:00,ZJSY 150700Z 16004MPS CAVOK 27/20 Q1013 NOSIG
ZJSY,2003-02-15 08:00,ZJSY 150800Z 16003MPS CAVOK 26/20 Q1012 NOSIG
ZJSY,2003-02-15 09:00,ZJSY 150900Z 15003MPS CAVOK 26/20 Q1013 NOSIG
ZJSY,2003-02-15 10:00,ZJSY 151000Z 13003MPS CAVOK 25/20 Q1013 NOSIG
ZJSY,2003-02-15 11:00,ZJSY 151100Z 14002MPS CAVOK 24/20 Q1013 NOSIG
ZJSY,2003-02-15 12:00,ZJSY 151200Z 08003MPS CAVOK 24/19 Q1014 NOSIG
ZJSY,2003-02-15 13:00,ZJSY 151300Z 08002MPS CAVOK 23/20 Q1015 NOSIG
ZJSY,2003-02-15 14:00,ZJSY 151400Z 08003MPS CAVOK 22/19 Q1015 NOSIG
ZJSY,2003-02-15 15:00,ZJSY 151500Z 08003MPS CAVOK 22/19 Q1015 NOSIG
ZJSY,2003-02-15 16:00,ZJSY 151600Z 07003MPS CAVOK 22/19 Q1015 NOSIG
ZJSY,2003-02-15 18:00,ZJSY 151800Z 08002MPS CAVOK 22/19 Q1014 NOSIG
ZJSY,2003-02-15 19:00,ZJSY 151900Z 35001MPS 9999 SCT030 BKN050 22/19 Q1013 NOSIG
ZJSY,2003-02-15 20:00,ZJSY 152000Z AUTO 36001MPS //// // ////// 23/19 Q1013 NOSIG
ZJSY,2003-02-15 21:00,ZJSY 152100Z AUTO 35001MPS //// // ////// 22/19 Q1013 NOSIG
ZJSY,2003-02-15 22:00,ZJSY 152200Z 02001MPS 9999 SCT016 BKN050 22/19 Q1013 NOSIG
ZJSY,2003-02-15 23:00,ZJSY 152300Z 34002MPS 9999 SCT016 BKN040 22/19 Q1013 NOSIG
ZJSY,2003-02-16 00:00,ZJSY 160000Z 35001MPS 9999 BKN040 23/20 Q1014 NOSIG
ZJSY,2003-02-16 01:00,ZJSY 160100Z 05002MPS 9999 SCT013 BKN040 25/20 Q1015 NOSIG
ZJSY,2003-02-16 02:00,ZJSY 160200Z 12002MPS 9999 FEW016 BKN050 26/20 Q1015 NOSIG
ZJSY,2003-02-16 03:00,ZJSY 160300Z 14002MPS 9999 SCT016 BKN050 26/20 Q1015 NOSIG
ZJSY,2003-02-16 04:00,ZJSY 160400Z 16002MPS 9999 FEW016 BKN050 27/21 Q1015 NOSIG
ZJSY,2003-02-16 05:00,ZJSY 160500Z 17003MPS 9999 SCT016 SCT050 27/20 Q1014 NOSIG
ZJSY,2003-02-16 06:00,ZJSY 160600Z 17004MPS 9999 FEW016 27/21 Q1013 NOSIG
ZJSY,2003-02-16 07:00,ZJSY 160700Z 16004MPS 9999 FEW016 27/21 Q1012 NOSIG
ZJSY,2003-02-16 08:00,ZJSY 160800Z 16003MPS 9999 FEW016 SCT040 26/21 Q1012 NOSIG
ZJSY,2003-02-16 09:00,ZJSY 160900Z 15003MPS CAVOK 26/21 Q1012 NOSIG
ZJSY,2003-02-16 10:00,ZJSY 161000Z 13002MPS 9999 FEW016 SCT040 25/21 Q1012 NOSIG
ZJSY,2003-02-16 11:00,ZJSY 161100Z 12002MPS 9999 BKN040 SCT260 25/21 Q1013 NOSIG
ZJSY,2003-02-16 12:00,ZJSY 161200Z 14002MPS 9999 SCT043 BKN260 25/21 Q1014 NOSIG
ZJSY,2003-02-16 13:00,ZJSY 161300Z 08004MPS 9999 FEW017 SCT040 24/21 Q1014 NOSIG
ZJSY,2003-02-16 14:00,ZJSY 161400Z 09002MPS 9999 FEW017 SCT040 24/20 Q1015 NOSIG
ZJSY,2003-02-16 15:00,ZJSY 161500Z 10002MPS CAVOK 24/21 Q1015 NOSIG
ZJSY,2003-02-16 16:00,ZJSY 161600Z 08002MPS CAVOK 23/20 Q1015 NOSIG
ZJSY,2003-02-16 17:00,ZJSY 161700Z 07003MPS 9999 SCT016 SCT260 23/20 Q1015 NOSIG
ZJSY,2003-02-16 18:00,ZJSY 161800Z AUTO 08002MPS //// // ////// 22/20 Q1015 NOSIG
ZJSY,2003-02-16 19:00,ZJSY 161900Z AUTO 06002MPS //// // ////// 23/20 Q1014 NOSIG
ZJSY,2003-02-16 20:00,ZJSY 162000Z AUTO 06002MPS //// // ////// 22/20 Q1014 NOSIG
ZJSY,2003-02-16 21:00,ZJSY 162100Z AUTO 05002MPS //// // ////// 23/20 Q1014 NOSIG
ZJSY,2003-02-16 22:00,ZJSY 162200Z AUTO 08002MPS //// // ////// 22/20 Q1014 NOSIG
ZJSY,2003-02-16 23:00,ZJSY 162300Z 08002MPS CAVOK 22/20 Q1014 NOSIG
ZJSY,2003-02-17 00:00,ZJSY 170000Z 08001MPS CAVOK 22/20 Q1015 NOSIG
ZJSY,2003-02-17 01:00,ZJSY 170100Z 11002MPS CAVOK 25/21 Q1016 NOSIG
ZJSY,2003-02-17 02:00,ZJSY 170200Z 11003MPS 9999 SCT020 BKN050 25/20 Q1017 NOSIG
ZJSY,2003-02-17 03:00,ZJSY 170300Z 12002MPS 9999 SCT020 BKN050 27/21 Q1017 NOSIG
ZJSY,2003-02-17 04:00,ZJSY 170400Z 17003MPS 9999 SCT020 FEW023TCU BKN050 26/21 Q1017 NOSIG
ZJSY,2003-02-17 05:00,ZJSY 170500Z 16003MPS 9999 SCT020 FEW023TCU BKN050 25/21 Q1017 NOSIG
ZJSY,2003-02-17 06:00,ZJSY 170600Z 14004MPS 9999 SCT020 BKN050 25/20 Q1015 NOSIG
ZJSY,2003-02-17 07:00,ZJSY 170700Z 14004MPS 9999 SCT020 BKN050 26/21 Q1014 NOSIG
ZJSY,2003-02-17 08:00,ZJSY 170800Z 15005MPS 9999 FEW020 SCT100 26/20 Q1013 NOSIG
ZJSY,2003-02-17 09:00,ZJSY 170900Z 14004MPS 9999 SCT020 26/21 Q1014 NOSIG
ZJSY,2003-02-17 10:00,ZJSY 171000Z 14004MPS 9999 SCT020 BKN053 25/21 Q1014 NOSIG
ZJSY,2003-02-17 11:00,ZJSY 171100Z 11003MPS 9999 SCT020 BKN053 24/20 Q1014 NOSIG
ZJSY,2003-02-17 12:00,ZJSY 171200Z 08004MPS 9999 SCT020 24/20 Q1015 NOSIG
ZJSY,2003-02-17 13:00,ZJSY 171300Z 08004MPS 9999 FEW020 SCT260 23/20 Q1016 NOSIG
ZJSY,2003-02-17 14:00,ZJSY 171400Z 08003MPS CAVOK 22/20 Q1016 NOSIG
ZJSY,2003-02-17 15:00,ZJSY 171500Z 08003MPS CAVOK 22/20 Q1016 NOSIG
ZJSY,2003-02-17 17:00,ZJSY 171700Z 08002MPS CAVOK 22/19 Q1015 NOSIG
ZJSY,2003-02-17 18:00,ZJSY 171800Z 10001MPS CAVOK 22/19 Q1015 NOSIG
ZJSY,2003-02-17 19:00,ZJSY 171900Z AUTO 09002MPS //// // ////// 22/19 Q1014 NOSIG
ZJSY,2003-02-17 20:00,ZJSY 172000Z AUTO 07002MPS //// // ////// 21/19 Q1014 NOSIG
ZJSY,2003-02-17 21:00,ZJSY 172100Z AUTO 07003MPS //// // ////// 21/19 Q1014 NOSIG
ZJSY,2003-02-17 22:00,ZJSY 172200Z 06002MPS 9999 FEW018 22/20 Q1014 NOSIG
ZJSY,2003-02-17 23:00,ZJSY 172300Z 06002MPS 9999 BKN018 22/20 Q1015 NOSIG
ZJSY,2003-02-18 00:00,ZJSY 180000Z 07002MPS 9999 BKN018 22/20 Q1016 NOSIG
ZJSY,2003-02-18 01:00,ZJSY 180100Z 08004MPS 9999 FEW018 24/20 Q1017 NOSIG
ZJSY,2003-02-18 02:00,ZJSY 180200Z 10004MPS 9999 BKN018 FEW026TCU 25/20 Q1017 NOSIG
ZJSY,2003-02-18 03:00,ZJSY 180300Z 12003MPS 9999 BKN018 FEW026TCU BKN026 25/20 Q1018 NOSIG
ZJSY,2003-02-18 04:00,ZJSY 180400Z 14004MPS 9999 BKN018 BKN260 27/20 Q1017 NOSIG
ZJSY,2003-02-18 05:00,ZJSY 180500Z 15004MPS 9999 BKN018 27/20 Q1016 NOSIG
ZJSY,2003-02-18 06:00,ZJSY 180600Z 15005MPS 9999 BKN020 27/20 Q1015 NOSIG
ZJSY,2003-02-18 07:00,ZJSY 180700Z 14005MPS 9999 SCT020 26/20 Q1014 NOSIG
ZJSY,2003-02-18 08:00,ZJSY 180800Z 15006MPS 9999 FEW020 26/20 Q1014 NOSIG
ZJSY,2003-02-18 09:00,ZJSY 180900Z 14006MPS 9999 SCT020 25/20 Q1014 NOSIG
ZJSY,2003-02-18 10:00,ZJSY 181000Z 13004MPS 9999 SCT020 SCT050 25/20 Q1014 NOSIG
ZJSY,2003-02-18 11:00,ZJSY 181100Z 10002MPS 9999 FEW016 BKN230 24/19 Q1014 NOSIG
ZJSY,2003-02-18 12:00,ZJSY 181200Z 08004MPS CAVOK 23/19 Q1015 NOSIG
ZJSY,2003-02-18 13:00,ZJSY 181300Z 07003MPS CAVOK 23/19 Q1015 NOSIG
ZJSY,2003-02-18 14:00,ZJSY 181400Z 08003MPS CAVOK 22/19 Q1015 NOSIG
ZJSY,2003-02-18 15:00,ZJSY 181500Z 06003MPS CAVOK 22/19 Q1015 NOSIG
ZJSY,2003-02-18 16:00,ZJSY 181600Z 07003MPS CAVOK 21/19 Q1015 NOSIG
ZJSY,2003-02-18 17:00,ZJSY 181700Z 08003MPS CAVOK 21/19 Q1014 NOSIG
ZJSY,2003-02-18 18:00,ZJSY 181800Z AUTO 07003MPS //// // ////// 21/19 Q1014 NOSIG
ZJSY,2003-02-18 19:00,ZJSY 181900Z AUTO 05002MPS //// // ////// 21/18 Q1013 NOSIG
ZJSY,2003-02-18 20:00,ZJSY 182000Z AUTO 04002MPS //// // ////// 21/19 Q1013 NOSIG
ZJSY,2003-02-18 21:00,ZJSY 182100Z AUTO 07003MPS //// // ////// 21/18 Q1013 NOSIG
ZJSY,2003-02-18 22:00,ZJSY 182200Z 10001MPS CAVOK 21/18 Q1013 NOSIG
ZJSY,2003-02-18 23:00,ZJSY 182300Z 08002MPS CAVOK 21/18 Q1014 NOSIG
ZJSY,2003-02-19 00:00,ZJSY 190000Z 06001MPS CAVOK 22/19 Q1015 NOSIG
ZJSY,2003-02-19 01:00,ZJSY 190100Z 07003MPS CAVOK 24/19 Q1016 NOSIG
ZJSY,2003-02-19 02:00,ZJSY 190200Z 10004MPS 9999 FEW016 26/19 Q1016 NOSIG
ZJSY,2003-02-19 03:00,ZJSY 190300Z 11005MPS 9999 FEW018 26/19 Q1017 NOSIG
ZJSY,2003-02-19 04:00,ZJSY 190400Z 10004MPS 9999 SCT018 27/19 Q1016 NOSIG
ZJSY,2003-02-19 05:00,ZJSY 190500Z 14004MPS 9999 SCT018 27/19 Q1015 NOSIG
ZJSY,2003-02-19 06:00,ZJSY 190600Z 15005MPS 9999 SCT018 27/20 Q1014 NOSIG
ZJSY,2003-02-19 07:00,ZJSY 190700Z 15005MPS 9999 SCT018 27/19 Q1013 NOSIG
ZJSY,2003-02-19 08:00,ZJSY 190800Z 15004MPS 9999 FEW018 SCT300 26/20 Q1013 NOSIG
ZJSY,2003-02-19 09:00,ZJSY 190900Z 15004MPS CAVOK 26/20 Q1013 NOSIG
ZJSY,2003-02-19 10:00,ZJSY 191000Z 13004MPS CAVOK 25/19 Q1013 NOSIG
ZJSY,2003-02-19 11:00,ZJSY 191100Z 08005MPS CAVOK 24/18 Q1014 NOSIG
ZJSY,2003-02-19 12:00,ZJSY 191200Z 08005MPS CAVOK 23/19 Q1014 NOSIG
ZJSY,2003-02-19 13:00,ZJSY 191300Z 08004MPS CAVOK 23/19 Q1015 NOSIG
ZJSY,2003-02-19 14:00,ZJSY 191400Z 08003MPS CAVOK 23/19 Q1015 NOSIG
ZJSY,2003-02-19 15:00,ZJSY 191500Z 06004MPS CAVOK 23/19 Q1015 NOSIG
ZJSY,2003-02-19 16:00,ZJSY 191600Z 08002MPS CAVOK 22/18 Q1015 NOSIG
ZJSY,2003-02-19 17:00,ZJSY 191700Z 10003MPS CAVOK 22/19 Q1015 NOSIG
ZJSY,2003-02-19 18:00,ZJSY 191800Z 06002MPS CAVOK 22/19 Q1015 NOSIG
ZJSY,2003-02-19 19:00,ZJSY 191900Z 05003MPS CAVOK 21/18 Q1015 NOSIG
ZJSY,2003-02-19 20:00,ZJSY 192000Z AUTO 04003MPS //// // ////// 21/18 Q1014 NOSIG
ZJSY,2003-02-19 21:00,ZJSY 192100Z AUTO 04003MPS //// // ////// 21/18 Q1014 NOSIG
ZJSY,2003-02-19 22:00,ZJSY 192200Z 05003MPS CAVOK 21/18 Q1014 NOSIG
ZJSY,2003-02-19 23:00,ZJSY 192300Z 04002MPS CAVOK 21/18 Q1015 NOSIG
ZJSY,2003-02-20 00:00,ZJSY 200000Z 00000MPS 9999 SCT013 SCT040 21/18 Q1016 NOSIG
ZJSY,2003-02-20 01:00,ZJSY 200100Z 08002MPS 9999 SCT018 SCT050 24/19 Q1017 NOSIG
ZJSY,2003-02-20 02:00,ZJSY 200200Z 07006MPS 9999 FEW020 26/18 Q1017 NOSIG
ZJSY,2003-02-20 03:00,ZJSY 200300Z 08006MPS 9999 FEW020 27/19 Q1017 NOSIG
ZJSY,2003-02-20 04:00,ZJSY 200400Z 11004MPS 9999 FEW020 27/19 Q1016 NOSIG
ZJSY,2003-02-20 05:00,ZJSY 200500Z 09006MPS 9999 SCT020 28/19 Q1015 NOSIG
ZJSY,2003-02-20 06:00,ZJSY 200600Z 11006MPS 9999 SCT020 28/18 Q1014 NOSIG
ZJSY,2003-02-20 07:00,ZJSY 200700Z 13006MPS 9999 SCT020 27/19 Q1014 NOSIG
ZJSY,2003-02-20 08:00,ZJSY 200800Z 11006MPS 9999 FEW020 27/18 Q1013 NOSIG
ZJSY,2003-02-20 09:00,ZJSY 200900Z 10005MPS CAVOK 27/18 Q1013 NOSIG
ZJSY,2003-02-20 10:00,ZJSY 201000Z 10005MPS 9999 FEW020 SCT260 25/19 Q1013 NOSIG
ZJSY,2003-02-20 11:00,ZJSY 201100Z 08004MPS CAVOK 24/19 Q1014 NOSIG
ZJSY,2003-02-20 12:00,ZJSY 201200Z 07005MPS CAVOK 23/19 Q1015 NOSIG
ZJSY,2003-02-20 13:00,ZJSY 201300Z 07005MPS CAVOK 23/19 Q1016 NOSIG
ZJSY,2003-02-20 14:00,ZJSY 201400Z 07005MPS CAVOK 23/19 Q1016 NOSIG
ZJSY,2003-02-20 15:00,ZJSY 201500Z 08004MPS CAVOK 23/19 Q1016 NOSIG
ZJSY,2003-02-20 16:00,ZJSY 201600Z 09004MPS CAVOK 23/20 Q1016 NOSIG
ZJSY,2003-02-20 17:00,ZJSY 201700Z 08004MPS CAVOK 23/20 Q1016 NOSIG
ZJSY,2003-02-20 18:00,ZJSY 201800Z AUTO 08004MPS //// // ////// 23/20 Q1015 NOSIG
ZJSY,2003-02-20 19:00,ZJSY 201900Z AUTO 08004MPS //// // ////// 22/20 Q1015 NOSIG
ZJSY,2003-02-20 20:00,ZJSY 202000Z AUTO 07003MPS //// // ////// 22/19 Q1015 NOSIG
ZJSY,2003-02-20 21:00,ZJSY 202100Z AUTO 07003MPS //// // ////// 22/19 Q1015 NOSIG
ZJSY,2003-02-20 22:00,ZJSY 202200Z 08003MPS 9999 SCT020 SCT260 22/19 Q1016 NOSIG
ZJSY,2003-02-20 23:00,ZJSY 202300Z 09004MPS 9999 FEW020 SCT260 23/19 Q1016 NOSIG
ZJSY,2003-02-21 00:00,ZJSY 210000Z 08004MPS 9999 FEW020 SCT260 23/19 Q1017 NOSIG
ZJSY,2003-02-21 01:00,ZJSY 210100Z 09005MPS CAVOK 25/19 Q1018 NOSIG
ZJSY,2003-02-21 02:00,ZJSY 210200Z 10005MPS CAVOK 26/18 Q1018 NOSIG
ZJSY,2003-02-21 03:00,ZJSY 210300Z 12005MPS 9999 SCT020 27/19 Q1018 NOSIG
ZJSY,2003-02-21 04:00,ZJSY 210400Z 12005MPS 9999 SCT020 27/19 Q1017 NOSIG
ZJSY,2003-02-21 05:00,ZJSY 210500Z 12005MPS 9999 SCT020 28/19 Q1016 NOSIG
ZJSY,2003-02-21 06:00,ZJSY 210600Z 14005MPS 9999 FEW020 SCT260 28/19 Q1015 NOSIG
ZJSY,2003-02-21 07:00,ZJSY 210700Z 14005MPS 9999 FEW020 SCT260 27/20 Q1014 NOSIG
ZJSY,2003-02-21 08:00,ZJSY 210800Z 14005MPS 9999 FEW020 SCT260 26/19 Q1014 NOSIG
ZJSY,2003-02-21 09:00,ZJSY 210900Z 14004MPS CAVOK 26/19 Q1014 NOSIG
ZJSY,2003-02-21 10:00,ZJSY 211000Z 12004MPS 9999 FEW020 25/19 Q1014 NOSIG
ZJSY,2003-02-21 11:00,ZJSY 211100Z 12003MPS CAVOK 24/19 Q1014 NOSIG
ZJSY,2003-02-21 12:00,ZJSY 211200Z 08004MPS CAVOK 23/19 Q1015 NOSIG
ZJSY,2003-02-21 13:00,ZJSY 211300Z 07003MPS CAVOK 23/19 Q1016 NOSIG
ZJSY,2003-02-21 14:00,ZJSY 211400Z 08003MPS CAVOK 22/19 Q1016 NOSIG
ZJSY,2003-02-21 15:00,ZJSY 211500Z 08003MPS CAVOK 22/19 Q1016 NOSIG
ZJSY,2003-02-21 16:00,ZJSY 211600Z 07002MPS CAVOK 22/19 Q1016 NOSIG
ZJSY,2003-02-21 17:00,ZJSY 211700Z 06003MPS CAVOK 22/19 Q1015 NOSIG
ZJSY,2003-02-21 18:00,ZJSY 211800Z 07003MPS CAVOK 22/19 Q1015 NOSIG
ZJSY,2003-02-21 19:00,ZJSY 211900Z AUTO 07002MPS //// // ////// 22/19 Q1014 NOSIG
ZJSY,2003-02-21 20:00,ZJSY 212000Z AUTO 06002MPS //// // ////// 22/19 Q1014 NOSIG
ZJSY,2003-02-21 21:00,ZJSY 212100Z AUTO 06002MPS //// // ////// 22/20 Q1014 NOSIG
ZJSY,2003-02-21 22:00,ZJSY 212200Z 06003MPS 9999 BKN016 BKN100 22/19 Q1014 NOSIG
ZJSY,2003-02-21 23:00,ZJSY 212300Z 09001MPS 9999 BKN016 BKN100 22/19 Q1015 NOSIG
ZJSY,2003-02-22 00:00,ZJSY 220000Z 09002MPS 9999 BKN016 BKN100 23/19 Q1016 NOSIG
ZJSY,2003-02-22 01:00,ZJSY 220100Z 07004MPS 9999 FEW013 SCT016 BKN230 24/19 Q1016 NOSIG
ZJSY,2003-02-22 02:00,ZJSY 220200Z 10003MPS 9999 FEW013 SCT016 25/20 Q1016 NOSIG
ZJSY,2003-02-22 03:00,ZJSY 220300Z 14003MPS 9999 FEW013 SCT016 26/20 Q1016 NOSIG
ZJSY,2003-02-22 04:00,ZJSY 220400Z 16003MPS 9999 FEW013 SCT016 27/20 Q1016 NOSIG
ZJSY,2003-02-22 05:00,ZJSY 220500Z 16004MPS 9999 FEW016 26/20 Q1015 NOSIG
ZJSY,2003-02-22 06:00,ZJSY 220600Z 15004MPS 9999 FEW016 27/20 Q1014 NOSIG
ZJSY,2003-02-22 07:00,ZJSY 220700Z 15005MPS CAVOK 26/20 Q1013 NOSIG
ZJSY,2003-02-22 08:00,ZJSY 220800Z 15004MPS CAVOK 26/20 Q1012 NOSIG
ZJSY,2003-02-22 09:00,ZJSY 220900Z 14004MPS CAVOK 25/20 Q1012 NOSIG
ZJSY,2003-02-22 10:00,ZJSY 221000Z 14003MPS CAVOK 25/20 Q1012 NOSIG
ZJSY,2003-02-22 11:00,ZJSY 221100Z 13004MPS CAVOK 24/20 Q1012 NOSIG
ZJSY,2003-02-22 12:00,ZJSY 221200Z 08004MPS CAVOK 24/20 Q1013 NOSIG
ZJSY,2003-02-22 13:00,ZJSY 221300Z 08004MPS CAVOK 23/19 Q1014 NOSIG
ZJSY,2003-02-22 14:00,ZJSY 221400Z 09004MPS CAVOK 23/19 Q1014 NOSIG
ZJSY,2003-02-22 15:00,ZJSY 221500Z 10003MPS CAVOK 23/20 Q1014 NOSIG
ZJSY,2003-02-22 16:00,ZJSY 221600Z 10003MPS CAVOK 23/19 Q1014 NOSIG
ZJSY,2003-02-22 17:00,ZJSY 221700Z 09003MPS CAVOK 22/19 Q1014 NOSIG
ZJSY,2003-02-22 18:00,ZJSY 221800Z AUTO 08002MPS //// // ////// 22/18 Q1013 NOSIG
ZJSY,2003-02-22 19:00,ZJSY 221900Z AUTO 07002MPS //// // ////// 21/19 Q1013 NOSIG
ZJSY,2003-02-22 20:00,ZJSY 222000Z AUTO 05002MPS //// // ////// 21/18 Q1013 NOSIG
ZJSY,2003-02-22 21:00,ZJSY 222100Z AUTO 05002MPS //// // ////// 21/18 Q1013 NOSIG
ZJSY,2003-02-22 23:00,ZJSY 222300Z 36001MPS CAVOK 20/18 Q1014 NOSIG
ZJSY,2003-02-23 00:00,ZJSY 230000Z 02001MPS CAVOK 22/19 Q1014 NOSIG
ZJSY,2003-02-23 01:00,ZJSY 230100Z 06003MPS 9999 SCT020 BKN260 24/20 Q1015 NOSIG
ZJSY,2003-02-23 02:00,ZJSY 230200Z 11003MPS 9999 SCT020 BKN260 25/20 Q1015 NOSIG
ZJSY,2003-02-23 03:00,ZJSY 230300Z 11003MPS 9999 FEW020 26/19 Q1015 NOSIG
ZJSY,2003-02-23 04:00,ZJSY 230400Z 14002MPS 9999 FEW020 26/20 Q1014 NOSIG
ZJSY,2003-02-23 05:00,ZJSY 230500Z 16003MPS 9999 FEW020 27/20 Q1013 NOSIG
ZJSY,2003-02-23 06:00,ZJSY 230600Z 17003MPS 9999 FEW020 28/19 Q1012 NOSIG
ZJSY,2003-02-23 07:00,ZJSY 230700Z 17003MPS 9999 FEW020 27/20 Q1011 NOSIG
ZJSY,2003-02-23 08:00,ZJSY 230800Z 15003MPS CAVOK 26/20 Q1011 NOSIG
ZJSY,2003-02-23 09:00,ZJSY 230900Z 15002MPS CAVOK 26/21 Q1011 NOSIG
ZJSY,2003-02-23 10:00,ZJSY 231000Z 15002MPS CAVOK 25/20 Q1011 NOSIG
ZJSY,2003-02-23 11:00,ZJSY 231100Z 11001MPS CAVOK 24/21 Q1011 NOSIG
ZJSY,2003-02-23 12:00,ZJSY 231200Z 11001MPS CAVOK 24/20 Q1012 NOSIG
ZJSY,2003-02-23 13:00,ZJSY 231300Z 34001MPS CAVOK 23/20 Q1012 NOSIG
ZJSY,2003-02-23 14:00,ZJSY 231400Z 35002MPS CAVOK 23/20 Q1012 NOSIG
ZJSY,2003-02-23 15:00,ZJSY 231500Z 01001MPS CAVOK 23/20 Q1013 NOSIG
ZJSY,2003-02-23 16:00,ZJSY 231600Z 02001MPS CAVOK 22/19 Q1013 NOSIG
ZJSY,2003-02-23 17:00,ZJSY 231700Z 01001MPS CAVOK 21/19 Q1013 NOSIG
ZJSY,2003-02-23 18:00,ZJSY 231800Z AUTO 02001MPS //// // ////// 21/19 Q1012 NOSIG
ZJSY,2003-02-23 19:00,ZJSY 231900Z AUTO 04002MPS //// // ////// 23/20 Q1012 NOSIG
ZJSY,2003-02-23 20:00,ZJSY 232000Z AUTO 03001MPS //// // ////// 21/19 Q1011 NOSIG
ZJSY,2003-02-23 21:00,ZJSY 232100Z AUTO 34002MPS //// // ////// 21/19 Q1011 NOSIG
ZJSY,2003-02-23 22:00,ZJSY 232200Z 01001MPS CAVOK 21/19 Q1011 NOSIG
ZJSY,2003-02-23 23:00,ZJSY 232300Z 01001MPS CAVOK 20/19 Q1012 NOSIG
ZJSY,2003-02-24 00:00,ZJSY 240000Z 34001MPS CAVOK 21/19 Q1013 NOSIG
ZJSY,2003-02-24 01:00,ZJSY 240100Z 05002MPS 9999 SCT018 25/20 Q1014 NOSIG
ZJSY,2003-02-24 02:00,ZJSY 240200Z 09003MPS 9999 BKN018 26/20 Q1014 NOSIG
ZJSY,2003-02-24 03:00,ZJSY 240300Z 11002MPS 9999 SCT018 28/20 Q1014 NOSIG
ZJSY,2003-02-24 04:00,ZJSY 240400Z 18003MPS 9999 SCT018 27/21 Q1014 NOSIG
ZJSY,2003-02-24 05:00,ZJSY 240500Z 17003MPS 9999 FEW020 27/21 Q1013 NOSIG
ZJSY,2003-02-24 06:00,ZJSY 240600Z 16004MPS 9999 FEW020 27/21 Q1012 NOSIG
ZJSY,2003-02-24 07:00,ZJSY 240700Z 16005MPS 9999 SCT026 BKN100 26/21 Q1012 NOSIG
ZJSY,2003-02-24 08:00,ZJSY 240800Z 15004MPS 9999 SCT020 SCT033 26/21 Q1011 NOSIG
ZJSY,2003-02-24 09:00,ZJSY 240900Z 14004MPS 9999 BKN018 SCT033 25/21 Q1011 NOSIG
ZJSY,2003-02-24 10:00,ZJSY 241000Z 14003MPS 9999 SCT013 SCT018 25/21 Q1012 NOSIG
ZJSY,2003-02-24 11:00,ZJSY 241100Z 13003MPS 9999 BKN013 SCT018 25/21 Q1012 NOSIG
ZJSY,2003-02-24 12:00,ZJSY 241200Z 09004MPS 9999 SCT013 SCT033 25/20 Q1012 NOSIG
ZJSY,2003-02-24 13:00,ZJSY 241300Z 07003MPS 9999 FEW033 SCT230 23/20 Q1013 NOSIG
ZJSY,2003-02-24 14:00,ZJSY 241400Z 08003MPS 9999 FEW013 SCT230 23/20 Q1013 NOSIG
ZJSY,2003-02-24 15:00,ZJSY 241500Z 09002MPS 9999 FEW013 SCT230 24/20 Q1013 NOSIG
ZJSY,2003-02-24 16:00,ZJSY 241600Z 08003MPS 9999 FEW013 SCT230 23/20 Q1013 NOSIG
ZJSY,2003-02-24 17:00,ZJSY 241700Z 08003MPS 9999 FEW013 SCT230 22/20 Q1013 NOSIG
ZJSY,2003-02-24 18:00,ZJSY 241800Z AUTO 07002MPS //// // ////// 22/19 Q1013 NOSIG
ZJSY,2003-02-24 19:00,ZJSY 241900Z AUTO 05002MPS //// // ////// 22/19 Q1012 NOSIG
ZJSY,2003-02-24 20:00,ZJSY 242000Z AUTO 07001MPS //// // ////// 21/18 Q1012 NOSIG
ZJSY,2003-02-24 21:00,ZJSY 242100Z AUTO 05002MPS //// // ////// 20/18 Q1012 NOSIG
ZJSY,2003-02-24 22:00,ZJSY 242200Z 06002MPS CAVOK 21/18 Q1013 NOSIG
ZJSY,2003-02-24 23:00,ZJSY 242300Z 07002MPS CAVOK 21/18 Q1013 NOSIG
ZJSY,2003-02-25 00:00,ZJSY 250000Z 06003MPS CAVOK 22/19 Q1014 NOSIG
ZJSY,2003-02-25 01:00,ZJSY 250100Z 07004MPS CAVOK 25/20 Q1014 NOSIG
ZJSY,2003-02-25 02:00,ZJSY 250200Z 08006MPS CAVOK 26/19 Q1014 NOSIG
ZJSY,2003-02-25 03:00,ZJSY 250300Z 08007MPS 9999 SCT020 BKN260 27/19 Q1014 NOSIG
ZJSY,2003-02-25 04:00,ZJSY 250400Z 09005MPS 9999 FEW020 BKN260 29/19 Q1014 NOSIG
ZJSY,2003-02-25 05:00,ZJSY 250500Z 08006MPS 9999 FEW020 BKN260 29/19 Q1013 NOSIG
ZJSY,2003-02-25 06:00,ZJSY 250600Z 08005MPS 9999 SCT016 BKN230 28/19 Q1013 NOSIG
ZJSY,2003-02-25 07:00,ZJSY 250700Z 12006MPS 9999 SCT016 SCT230 28/20 Q1012 NOSIG
ZJSY,2003-02-25 08:00,ZJSY 250800Z 12006MPS 9999 SCT016 SCT230 27/19 Q1012 NOSIG
ZJSY,2003-02-25 09:00,ZJSY 250900Z 10006MPS 9999 SCT016 SCT230 27/19 Q1012 NOSIG
ZJSY,2003-02-25 10:00,ZJSY 251000Z 08006MPS 9999 SCT016 SCT230 26/19 Q1012 NOSIG
ZJSY,2003-02-25 11:00,ZJSY 251100Z 08006MPS 9999 SCT016 SCT230 24/19 Q1013 NOSIG
ZJSY,2003-02-25 12:00,ZJSY 251200Z 08005MPS 9999 SCT016 SCT230 24/19 Q1013 NOSIG
ZJSY,2003-02-25 13:00,ZJSY 251300Z 08005MPS CAVOK 24/19 Q1014 NOSIG
ZJSY,2003-02-25 14:00,ZJSY 251400Z 08005MPS CAVOK 24/20 Q1014 NOSIG
ZJSY,2003-02-25 15:00,ZJSY 251500Z 08004MPS CAVOK 23/20 Q1015 NOSIG
ZJSY,2003-02-25 16:00,ZJSY 251600Z 07004MPS CAVOK 23/19 Q1014 NOSIG
ZJSY,2003-02-25 17:00,ZJSY 251700Z 08004MPS CAVOK 23/19 Q1014 NOSIG
ZJSY,2003-02-25 18:00,ZJSY 251800Z AUTO 05003MPS //// // ////// 23/19 Q1013 NOSIG
ZJSY,2003-02-25 19:00,ZJSY 251900Z AUTO 06003MPS //// // ////// 22/19 Q1013 NOSIG
ZJSY,2003-02-25 20:00,ZJSY 252000Z AUTO 04003MPS //// // ////// 22/19 Q1013 NOSIG
ZJSY,2003-02-25 21:00,ZJSY 252100Z AUTO 06003MPS //// // ////// 22/18 Q1013 NOSIG
ZJSY,2003-02-25 22:00,ZJSY 252200Z 05002MPS CAVOK 21/18 Q1013 NOSIG
ZJSY,2003-02-25 23:00,ZJSY 252300Z 00000MPS CAVOK 21/18 Q1014 NOSIG
ZJSY,2003-02-26 00:00,ZJSY 260000Z 08003MPS CAVOK 22/19 Q1014 NOSIG
ZJSY,2003-02-26 01:00,ZJSY 260100Z 06004MPS CAVOK 25/19 Q1014 NOSIG
ZJSY,2003-02-26 02:00,ZJSY 260200Z 08006MPS CAVOK 27/19 Q1015 NOSIG
ZJSY,2003-02-26 03:00,ZJSY 260300Z 08005MPS 9999 FEW016 BKN066 27/20 Q1015 NOSIG
ZJSY,2003-02-26 04:00,ZJSY 260400Z 10005MPS 9999 FEW016 BKN066 27/19 Q1015 NOSIG
ZJSY,2003-02-26 05:00,ZJSY 260500Z 09006MPS 9999 FEW016 BKN066 28/19 Q1014 NOSIG
ZJSY,2003-02-26 06:00,ZJSY 260600Z 12005MPS 9999 FEW016 BKN100 28/19 Q1014 NOSIG
ZJSY,2003-02-26 07:00,ZJSY 260700Z 12005MPS 9999 FEW020 BKN100 26/19 Q1013 NOSIG
ZJSY,2003-02-26 08:00,ZJSY 260800Z 10005MPS 9999 FEW020 BKN070 26/19 Q1013 NOSIG
ZJSY,2003-02-26 09:00,ZJSY 260900Z 10005MPS 9999 FEW020 SCT070 26/20 Q1012 NOSIG
ZJSY,2003-02-26 10:00,ZJSY 261000Z 08005MPS 9999 FEW020 SCT230 26/20 Q1013 NOSIG
ZJSY,2003-02-26 11:00,ZJSY 261100Z 08005MPS CAVOK 24/19 Q1013 NOSIG
ZJSY,2003-02-26 12:00,ZJSY 261200Z 08004MPS CAVOK 23/19 Q1014 NOSIG
ZJSY,2003-02-26 13:00,ZJSY 261300Z 08004MPS CAVOK 23/19 Q1014 NOSIG
ZJSY,2003-02-26 14:00,ZJSY 261400Z 08005MPS CAVOK 23/19 Q1014 NOSIG
ZJSY,2003-02-26 15:00,ZJSY 261500Z 08004MPS CAVOK 23/19 Q1014 NOSIG
ZJSY,2003-02-26 16:00,ZJSY 261600Z 08004MPS CAVOK 22/19 Q1015 NOSIG
ZJSY,2003-02-26 17:00,ZJSY 261700Z 07003MPS CAVOK 22/19 Q1014 NOSIG
ZJSY,2003-02-26 18:00,ZJSY 261800Z AUTO 08002MPS //// // ////// 22/19 Q1014 NOSIG
ZJSY,2003-02-26 19:00,ZJSY 261900Z AUTO 07002MPS //// // ////// 21/18 Q1013 NOSIG
ZJSY,2003-02-26 20:00,ZJSY 262000Z AUTO 02001MPS //// // ////// 21/18 Q1013 NOSIG
ZJSY,2003-02-26 21:00,ZJSY 262100Z AUTO 00000MPS //// // ////// 21/18 Q1013 NOSIG
ZJSY,2003-02-26 22:00,ZJSY 262200Z 04002MPS CAVOK 21/17 Q1013 NOSIG
ZJSY,2003-02-26 23:00,ZJSY 262300Z 36001MPS CAVOK 20/17 Q1014 NOSIG
ZJSY,2003-02-27 00:00,ZJSY 270000Z 35001MPS CAVOK 21/18 Q1015 NOSIG
ZJSY,2003-02-27 01:00,ZJSY 270100Z 08003MPS CAVOK 24/18 Q1016 NOSIG
ZJSY,2003-02-27 02:00,ZJSY 270200Z 08005MPS CAVOK 26/18 Q1016 NOSIG
ZJSY,2003-02-27 03:00,ZJSY 270300Z 10004MPS 9999 FEW016 27/19 Q1016 NOSIG
ZJSY,2003-02-27 04:00,ZJSY 270400Z 14004MPS 9999 FEW016 27/19 Q1016 NOSIG
ZJSY,2003-02-27 05:00,ZJSY 270500Z 16004MPS CAVOK 27/20 Q1015 NOSIG
ZJSY,2003-02-27 06:00,ZJSY 270600Z 15005MPS CAVOK 27/20 Q1014 NOSIG
ZJSY,2003-02-27 07:00,ZJSY 270700Z 14006MPS CAVOK 28/19 Q1012 NOSIG
ZJSY,2003-02-27 08:00,ZJSY 270800Z 13005MPS CAVOK 27/19 Q1012 NOSIG
ZJSY,2003-02-27 09:00,ZJSY 270900Z 10005MPS CAVOK 27/18 Q1012 NOSIG
ZJSY,2003-02-27 10:00,ZJSY 271000Z 10005MPS CAVOK 26/18 Q1013 NOSIG
ZJSY,2003-02-27 11:00,ZJSY 271100Z 08004MPS 9999 FEW016 24/18 Q1013 NOSIG
ZJSY,2003-02-27 12:00,ZJSY 271200Z 08005MPS CAVOK 24/19 Q1014 NOSIG
ZJSY,2003-02-27 13:00,ZJSY 271300Z 08004MPS CAVOK 23/19 Q1015 NOSIG
ZJSY,2003-02-27 14:00,ZJSY 271400Z 07004MPS CAVOK 23/19 Q1015 NOSIG
ZJSY,2003-02-27 15:00,ZJSY 271500Z 06004MPS CAVOK 23/19 Q1015 NOSIG
ZJSY,2003-02-27 16:00,ZJSY 271600Z 06004MPS CAVOK 23/18 Q1015 NOSIG
ZJSY,2003-02-27 17:00,ZJSY 271700Z 06002MPS CAVOK 22/18 Q1015 NOSIG
ZJSY,2003-02-27 18:00,ZJSY 271800Z 07003MPS CAVOK 21/18 Q1014 NOSIG
ZJSY,2003-02-27 19:00,ZJSY 271900Z AUTO 06003MPS //// // ////// 22/18 Q1014 NOSIG
ZJSY,2003-02-27 20:00,ZJSY 272000Z AUTO 07003MPS //// // ////// 21/18 Q1013 NOSIG
ZJSY,2003-02-27 21:00,ZJSY 272100Z AUTO 06002MPS //// // ////// 21/18 Q1013 NOSIG
ZJSY,2003-02-27 22:00,ZJSY 272200Z 06004MPS CAVOK 21/18 Q1013 NOSIG
ZJSY,2003-02-27 23:00,ZJSY 272300Z 05003MPS CAVOK 21/18 Q1013 NOSIG
ZJSY,2003-02-28 00:00,ZJSY 280000Z 06004MPS CAVOK 22/18 Q1014 NOSIG
ZJSY,2003-02-28 01:00,ZJSY 280100Z 07005MPS CAVOK 25/18 Q1014 NOSIG
ZJSY,2003-02-28 02:00,ZJSY 280200Z 08005MPS CAVOK 26/18 Q1015 NOSIG
ZJSY,2003-02-28 03:00,ZJSY 280300Z 10003MPS CAVOK 27/18 Q1016 NOSIG
ZJSY,2003-02-28 04:00,ZJSY 280400Z 17003MPS CAVOK 27/19 Q1015 NOSIG
ZJSY,2003-02-28 05:00,ZJSY 280500Z 16004MPS CAVOK 27/20 Q1014 NOSIG
ZJSY,2003-02-28 06:00,ZJSY 280600Z 16005MPS CAVOK 26/20 Q1013 NOSIG
ZJSY,2003-02-28 07:00,ZJSY 280700Z 16004MPS CAVOK 26/20 Q1012 NOSIG
ZJSY,2003-02-28 08:00,ZJSY 280800Z 15003MPS CAVOK 26/20 Q1011 NOSIG
ZJSY,2003-02-28 09:00,ZJSY 280900Z 15003MPS CAVOK 26/19 Q1010 NOSIG
ZJSY,2003-02-28 10:00,ZJSY 281000Z 16002MPS CAVOK 25/19 Q1011 NOSIG
ZJSY,2003-02-28 11:00,ZJSY 281100Z 15001MPS CAVOK 24/19 Q1011 NOSIG
ZJSY,2003-02-28 12:00,ZJSY 281200Z 11001MPS CAVOK 24/20 Q1011 NOSIG
ZJSY,2003-02-28 13:00,ZJSY 281300Z 09002MPS CAVOK 24/19 Q1012 NOSIG
ZJSY,2003-02-28 14:00,ZJSY 281400Z 09004MPS CAVOK 24/20 Q1012 NOSIG
ZJSY,2003-02-28 15:00,ZJSY 281500Z 08003MPS CAVOK 24/19 Q1013 NOSIG
ZJSY,2003-02-28 16:00,ZJSY 281600Z 09003MPS CAVOK 23/19 Q1013 NOSIG
ZJSY,2003-02-28 17:00,ZJSY 281700Z 10002MPS CAVOK 23/20 Q1012 NOSIG
ZJSY,2003-02-28 18:00,ZJSY 281800Z AUTO 05002MPS //// // ////// 22/19 Q1012 NOSIG
ZJSY,2003-02-28 19:00,ZJSY 281900Z AUTO 04002MPS //// // ////// 22/19 Q1011 NOSIG
ZJSY,2003-02-28 20:00,ZJSY 282000Z AUTO 00000MPS //// // ////// 21/19 Q1011 NOSIG
ZJSY,2003-02-28 21:00,ZJSY 282100Z AUTO 00000MPS //// // ////// 20/18 Q1011 NOSIG
ZJSY,2003-02-28 22:00,ZJSY 282200Z 34002MPS CAVOK 20/18 Q1011 NOSIG
ZJSY,2003-02-28 23:00,ZJSY 282300Z 35002MPS CAVOK 20/18 Q1012 NOSIG
ZJSY,2003-03-01 00:00,ZJSY 010000Z 34002MPS CAVOK 21/18 Q1012 NOSIG
ZJSY,2003-03-01 01:00,ZJSY 010100Z 10002MPS CAVOK 25/19 Q1013 NOSIG
ZJSY,2003-03-01 02:00,ZJSY 010200Z 10003MPS 9999 FEW016 26/19 Q1013 NOSIG
ZJSY,2003-03-01 03:00,ZJSY 010300Z 13003MPS 9999 SCT016 27/19 Q1013 NOSIG
ZJSY,2003-03-01 04:00,ZJSY 010400Z 17003MPS 9999 SCT016 27/20 Q1013 NOSIG
ZJSY,2003-03-01 05:00,ZJSY 010500Z 17004MPS 9999 FEW016 27/20 Q1012 NOSIG
ZJSY,2003-03-01 06:00,ZJSY 010600Z 16005MPS 9999 FEW016 27/20 Q1011 NOSIG
ZJSY,2003-03-01 07:00,ZJSY 010700Z 15004MPS 9999 FEW016 26/20 Q1010 NOSIG
ZJSY,2003-03-01 08:00,ZJSY 010800Z 14004MPS CAVOK 27/21 Q1009 NOSIG
ZJSY,2003-03-01 09:00,ZJSY 010900Z 15004MPS CAVOK 26/20 Q1009 NOSIG
ZJSY,2003-03-01 10:00,ZJSY 011000Z 15003MPS CAVOK 25/20 Q1009 NOSIG
ZJSY,2003-03-01 11:00,ZJSY 011100Z 13002MPS CAVOK 24/21 Q1010 NOSIG
ZJSY,2003-03-01 12:00,ZJSY 011200Z 12002MPS CAVOK 24/20 Q1010 NOSIG
ZJSY,2003-03-01 13:00,ZJSY 011300Z 06003MPS CAVOK 23/20 Q1011 NOSIG
ZJSY,2003-03-01 15:00,ZJSY 011500Z 07003MPS CAVOK 22/20 Q1011 NOSIG
ZJSY,2003-03-01 17:00,ZJSY 011700Z AUTO 06002MPS //// // ////// 22/20 Q1011 NOSIG
ZJSY,2003-03-01 18:00,ZJSY 011800Z AUTO 05002MPS //// // ////// 22/19 Q1010 NOSIG
ZJSY,2003-03-01 19:00,ZJSY 011900Z AUTO 05002MPS //// // ////// 21/19 Q1010 NOSIG
ZJSY,2003-03-01 20:00,ZJSY 012000Z AUTO 35001MPS //// // ////// 21/19 Q1010 NOSIG
ZJSY,2003-03-01 21:00,ZJSY 012100Z AUTO 36001MPS //// // ////// 21/18 Q1010 NOSIG
ZJSY,2003-03-01 22:00,ZJSY 012200Z 36001MPS CAVOK 20/18 Q1010 NOSIG
ZJSY,2003-03-01 23:00,ZJSY 012300Z 07001MPS 9999 SCT013 BKN230 21/18 Q1010 NOSIG
ZJSY,2003-03-02 00:00,ZJSY 020000Z 00000MPS 9999 SCT013 SCT230 22/19 Q1011 NOSIG
ZJSY,2003-03-02 01:00,ZJSY 020100Z 07004MPS 9999 FEW016 SCT230 25/20 Q1012 NOSIG
ZJSY,2003-03-02 02:00,ZJSY 020200Z 08003MPS 9999 SCT016 SCT230 27/20 Q1012 NOSIG
ZJSY,2003-03-02 03:00,ZJSY 020300Z 12003MPS 9999 SCT016 SCT230 27/20 Q1013 NOSIG
ZJSY,2003-03-02 04:00,ZJSY 020400Z 13004MPS 9999 SCT016 SCT230 27/20 Q1012 NOSIG
ZJSY,2003-03-02 05:00,ZJSY 020500Z 15004MPS 9999 FEW016 SCT230 28/20 Q1011 NOSIG
ZJSY,2003-03-02 06:00,ZJSY 020600Z 15003MPS 9999 FEW016 SCT230 28/21 Q1010 NOSIG
ZJSY,2003-03-02 07:00,ZJSY 020700Z 15004MPS 9999 FEW016 SCT230 27/21 Q1009 NOSIG
ZJSY,2003-03-02 08:00,ZJSY 020800Z 13004MPS 9999 FEW020 SCT230 27/20 Q1008 NOSIG
ZJSY,2003-03-02 09:00,ZJSY 020900Z 14004MPS 9999 FEW020 27/20 Q1008 NOSIG
ZJSY,2003-03-02 10:00,ZJSY 021000Z 14004MPS 9999 FEW020 26/20 Q1008 NOSIG
ZJSY,2003-03-02 11:00,ZJSY 021100Z 11003MPS 9999 FEW020 26/19 Q1008 NOSIG
ZJSY,2003-03-02 12:00,ZJSY 021200Z 09003MPS 9999 FEW020 25/19 Q1008 NOSIG
ZJSY,2003-03-02 13:00,ZJSY 021300Z 08004MPS 9999 FEW020 24/20 Q1009 NOSIG
ZJSY,2003-03-02 14:00,ZJSY 021400Z 07004MPS 9999 FEW020 24/20 Q1010 NOSIG
ZJSY,2003-03-02 15:00,ZJSY 021500Z 06003MPS 9999 FEW020 24/20 Q1010 NOSIG
ZJSY,2003-03-02 16:00,ZJSY 021600Z 05003MPS 9999 FEW020 BKN230 25/20 Q1010 NOSIG
ZJSY,2003-03-02 17:00,ZJSY 021700Z 05003MPS 9999 FEW020 SCT230 24/20 Q1009 NOSIG
ZJSY,2003-03-02 18:00,ZJSY 021800Z AUTO 05003MPS //// // ////// 25/20 Q1009 NOSIG
ZJSY,2003-03-02 19:00,ZJSY 021900Z AUTO 05002MPS //// // ////// 25/20 Q1009 NOSIG
ZJSY,2003-03-02 20:00,ZJSY 022000Z AUTO 08003MPS //// // ////// 25/21 Q1008 NOSIG
ZJSY,2003-03-02 21:00,ZJSY 022100Z AUTO 05002MPS //// // ////// 25/21 Q1008 NOSIG
ZJSY,2003-03-02 22:00,ZJSY 022200Z 04002MPS 9999 FEW020 SCT230 25/21 Q1008 NOSIG
ZJSY,2003-03-02 23:00,ZJSY 022300Z 05003MPS CAVOK 24/20 Q1009 NOSIG
ZJSY,2003-03-03 00:00,ZJSY 030000Z 06002MPS 9999 FEW020 SCT230 25/20 Q1009 NOSIG
ZJSY,2003-03-03 01:00,ZJSY 030100Z 08003MPS 9999 SCT015 BKN033 26/20 Q1010 NOSIG
ZJSY,2003-03-03 02:00,ZJSY 030200Z 11002MPS 9999 SCT016 BKN040 26/21 Q1011 NOSIG
ZJSY,2003-03-03 03:00,ZJSY 030300Z 10002MPS 9999 SCT016 BKN040 26/21 Q1011 NOSIG
ZJSY,2003-03-03 04:00,ZJSY 030400Z 12002MPS 9999 SCT016 BKN040 26/21 Q1010 NOSIG
ZJSY,2003-03-03 05:00,ZJSY 030500Z 12002MPS 9999 SCT016 BKN040 26/22 Q1009 NOSIG
ZJSY,2003-03-03 06:00,ZJSY 030600Z 10002MPS 9999 SCT016 OVC040 26/22 Q1008 NOSIG
ZJSY,2003-03-03 07:00,ZJSY 030700Z 11002MPS 9999 SCT016 OVC040 27/22 Q1006 NOSIG
ZJSY,2003-03-03 08:00,ZJSY 030800Z 11002MPS 9999 FEW016 OVC040 26/22 Q1005 NOSIG
ZJSY,2003-03-03 09:00,ZJSY 030900Z 12002MPS 9999 FEW016 OVC040 26/22 Q1005 NOSIG
ZJSY,2003-03-03 10:00,ZJSY 031000Z 10002MPS 9999 SCT016 BKN033 26/22 Q1005 NOSIG
ZJSY,2003-03-03 11:00,ZJSY 031100Z 11002MPS 9999 BKN016 BKN033 26/22 Q1005 NOSIG
ZJSY,2003-03-03 12:00,ZJSY 031200Z 11002MPS 9999 BKN016 BKN033 25/22 Q1006 NOSIG
ZJSY,2003-03-03 13:00,ZJSY 031300Z 08003MPS 9999 BKN016 BKN033 25/22 Q1006 NOSIG
ZJSY,2003-03-03 14:00,ZJSY 031400Z 10002MPS 9999 BKN015 BKN033 25/22 Q1007 NOSIG
ZJSY,2003-03-03 15:00,ZJSY 031500Z 08002MPS 9999 BKN015 BKN033 25/22 Q1007 NOSIG
ZJSY,2003-03-03 16:00,ZJSY 031600Z 06002MPS 9999 BKN015 BKN033 25/22 Q1007 NOSIG
ZJSY,2003-03-03 17:00,ZJSY 031700Z 08002MPS 9999 SCT012 BKN015 25/22 Q1007 NOSIG
ZJSY,2003-03-03 18:00,ZJSY 031800Z AUTO 06002MPS //// // ////// 25/22 Q1006 NOSIG
ZJSY,2003-03-03 19:00,ZJSY 031900Z AUTO 04002MPS //// // ////// 25/22 Q1006 NOSIG
ZJSY,2003-03-03 20:00,ZJSY 032000Z AUTO 01001MPS //// // ////// 25/22 Q1006 NOSIG
ZJSY,2003-03-03 21:00,ZJSY 032100Z AUTO 05002MPS //// // ////// 25/21 Q1005 NOSIG
ZJSY,2003-03-03 22:00,ZJSY 032200Z 06002MPS CAVOK 24/21 Q1006 NOSIG
ZJSY,2003-03-03 23:00,ZJSY 032300Z 05002MPS 9999 SCT016 BKN040 24/22 Q1006 NOSIG
ZJSY,2003-03-04 00:00,ZJSY 040000Z 10002MPS 9999 SCT012 BKN016 25/22 Q1007 NOSIG
ZJSY,2003-03-04 01:00,ZJSY 040100Z 09003MPS 9999 SCT012 BKN016 27/22 Q1008 NOSIG
ZJSY,2003-03-04 02:00,ZJSY 040200Z 10002MPS 9999 SCT012 BKN016 27/22 Q1008 NOSIG
ZJSY,2003-03-04 03:00,ZJSY 040300Z 12003MPS 9999 SCT011 BKN016 28/22 Q1009 NOSIG
ZJSY,2003-03-04 04:00,ZJSY 040400Z 12003MPS 9999 SCT015 BKN026 28/22 Q1008 NOSIG
ZJSY,2003-03-04 05:00,ZJSY 040500Z 12003MPS 9999 SCT011 BKN016 28/23 Q1007 NOSIG
ZJSY,2003-03-04 06:00,ZJSY 040600Z 14003MPS 9999 FEW011 BKN026 28/23 Q1006 NOSIG
ZJSY,2003-03-04 07:00,ZJSY 040700Z 15003MPS 9999 BKN033 27/24 Q1005 NOSIG
ZJSY,2003-03-04 08:00,ZJSY 040800Z 14002MPS 9999 FEW011 SCT230 27/23 Q1004 NOSIG
ZJSY,2003-03-04 09:00,ZJSY 040900Z 12003MPS 9999 SCT012 BKN016 27/23 Q1004 NOSIG
ZJSY,2003-03-04 10:00,ZJSY 041000Z 12002MPS 9999 FEW016 BKN020 27/23 Q1004 NOSIG
ZJSY,2003-03-04 11:00,ZJSY 041100Z 14002MPS 9999 SCT013 BKN020 26/23 Q1004 NOSIG
ZJSY,2003-03-04 12:00,ZJSY 041200Z 12002MPS 9999 SCT013 BKN020 26/23 Q1005 NOSIG
ZJSY,2003-03-04 13:00,ZJSY 041300Z 10002MPS 9999 FEW013 BKN020 26/22 Q1005 NOSIG
ZJSY,2003-03-04 14:00,ZJSY 041400Z 06003MPS 9999 SCT016 25/22 Q1006 NOSIG
ZJSY,2003-03-04 15:00,ZJSY 041500Z 08003MPS 9999 SCT016 25/22 Q1006 NOSIG
ZJSY,2003-03-04 16:00,ZJSY 041600Z 06003MPS 9999 SCT018 25/22 Q1007 NOSIG
ZJSY,2003-03-04 17:00,ZJSY 041700Z 04002MPS 9999 SCT018 26/22 Q1007 NOSIG
ZJSY,2003-03-04 18:00,ZJSY 041800Z AUTO 07003MPS //// // ////// 25/22 Q1006 NOSIG
ZJSY,2003-03-04 19:00,ZJSY 041900Z AUTO 06002MPS //// // ////// 25/22 Q1005 NOSIG
ZJSY,2003-03-04 20:00,ZJSY 042000Z AUTO 06003MPS //// // ////// 25/22 Q1005 NOSIG
ZJSY,2003-03-04 21:00,ZJSY 042100Z AUTO 06003MPS //// // ////// 25/22 Q1005 NOSIG
ZJSY,2003-03-04 22:00,ZJSY 042200Z 05003MPS 9999 BKN018 25/22 Q1005 NOSIG
ZJSY,2003-03-04 23:00,ZJSY 042300Z 06003MPS 9999 BKN018 BKN046 25/22 Q1006 NOSIG
ZJSY,2003-03-05 00:00,ZJSY 050000Z 07003MPS 9999 BKN018 BKN046 26/22 Q1007 NOSIG
ZJSY,2003-03-05 01:00,ZJSY 050100Z 08004MPS 9999 BKN018 BKN046 27/22 Q1008 NOSIG
ZJSY,2003-03-05 02:00,ZJSY 050200Z 09003MPS 9999 BKN020 BKN046 27/22 Q1009 NOSIG
ZJSY,2003-03-05 03:00,ZJSY 050300Z 10003MPS 9999 BKN020 BKN046 27/23 Q1009 NOSIG
ZJSY,2003-03-05 04:00,ZJSY 050400Z 12003MPS 9999 BKN020 BKN046 28/23 Q1009 NOSIG
ZJSY,2003-03-05 05:00,ZJSY 050500Z 13003MPS 9999 BKN020 BKN046 29/23 Q1008 NOSIG
ZJSY,2003-03-05 06:00,ZJSY 050600Z 14003MPS 9999 SCT020 SCT230 29/23 Q1007 NOSIG
ZJSY,2003-03-05 07:00,ZJSY 050700Z 13003MPS 9999 FEW020 SCT230 29/23 Q1006 NOSIG
ZJSY,2003-03-05 08:00,ZJSY 050800Z 15004MPS 9999 FEW020 SCT230 29/23 Q1005 NOSIG
ZJSY,2003-03-05 09:00,ZJSY 050900Z 14003MPS 9999 FEW020 SCT230 28/23 Q1005 NOSIG
ZJSY,2003-03-05 10:00,ZJSY 051000Z 14003MPS CAVOK 27/23 Q1005 NOSIG
ZJSY,2003-03-05 11:00,ZJSY 051100Z 13002MPS 9999 FEW015 SCT230 26/23 Q1006 NOSIG
ZJSY,2003-03-05 12:00,ZJSY 051200Z 12002MPS 9999 SCT015 SCT230 26/23 Q1006 NOSIG
ZJSY,2003-03-05 14:00,ZJSY 051400Z 10002MPS 9999 SCT015 SCT230 26/23 Q1008 NOSIG
ZJSY,2003-03-05 15:00,ZJSY 051500Z 09002MPS 9999 FEW015 SCT230 26/23 Q1008 NOSIG
ZJSY,2003-03-05 16:00,ZJSY 051600Z 08002MPS 9999 FEW015 SCT230 26/23 Q1009 NOSIG
ZJSY,2003-03-05 17:00,ZJSY 051700Z AUTO 08002MPS //// // ////// 26/22 Q1009 NOSIG
ZJSY,2003-03-05 18:00,ZJSY 051800Z AUTO 07002MPS //// // ////// 26/22 Q1008 NOSIG
ZJSY,2003-03-05 19:00,ZJSY 051900Z AUTO 04002MPS //// // ////// 26/22 Q1007 NOSIG
ZJSY,2003-03-05 20:00,ZJSY 052000Z AUTO 07002MPS //// // ////// 25/22 Q1007 NOSIG
ZJSY,2003-03-05 21:00,ZJSY 052100Z AUTO 05002MPS //// // ////// 25/22 Q1007 NOSIG
ZJSY,2003-03-05 22:00,ZJSY 052200Z 06003MPS 9999 FEW016 25/22 Q1008 NOSIG
ZJSY,2003-03-06 00:00,ZJSY 060000Z 07003MPS 9999 FEW012 BKN033 25/22 Q1010 NOSIG
ZJSY,2003-03-06 01:00,ZJSY 060100Z 07004MPS 9999 BKN012 BKN033 27/22 Q1010 NOSIG
ZJSY,2003-03-06 02:00,ZJSY 060200Z 10003MPS 9999 BKN012 BKN033 27/22 Q1011 NOSIG
ZJSY,2003-03-06 03:00,ZJSY 060300Z 11002MPS 9999 BKN012 BKN033 27/23 Q1011 NOSIG
ZJSY,2003-03-06 04:00,ZJSY 060400Z 14003MPS 9999 BKN013 BKN033 28/23 Q1011 NOSIG
ZJSY,2003-03-06 05:00,ZJSY 060500Z 15004MPS 9999 SCT014 BKN018 29/23 Q1010 NOSIG
ZJSY,2003-03-06 06:00,ZJSY 060600Z 16004MPS 9999 SCT015 29/23 Q1009 NOSIG
ZJSY,2003-03-06 07:00,ZJSY 060700Z 16004MPS 9999 FEW015 28/23 Q1008 NOSIG
ZJSY,2003-03-06 08:00,ZJSY 060800Z 15003MPS CAVOK 28/23 Q1007 NOSIG
ZJSY,2003-03-06 09:00,ZJSY 060900Z 15003MPS CAVOK 28/23 Q1007 NOSIG
ZJSY,2003-03-06 10:00,ZJSY 061000Z 16003MPS CAVOK 27/23 Q1008 NOSIG
ZJSY,2003-03-06 11:00,ZJSY 061100Z 08005MPS 9999 SCT012 SCT040 BKN200 27/23 Q1008 NOSIG
ZJSY,2003-03-06 12:00,ZJSY 061200Z 08006MPS 9999 SCT012 BKN200 25/22 Q1009 NOSIG
ZJSY,2003-03-06 13:00,ZJSY 061300Z 09005MPS 9999 BKN012 BKN200 25/21 Q1010 NOSIG
ZJSY,2003-03-06 14:00,ZJSY 061400Z 09003MPS 9999 BKN012 BKN200 26/22 Q1011 NOSIG
ZJSY,2003-03-06 15:00,ZJSY 061500Z 11003MPS 9999 BKN012 BKN200 25/22 Q1012 NOSIG
ZJSY,2003-03-06 16:00,ZJSY 061600Z 10003MPS 9999 BKN012 BKN200 25/21 Q1012 NOSIG
ZJSY,2003-03-06 17:00,ZJSY 061700Z 09003MPS 9999 SCT012 BKN200 24/20 Q1012 NOSIG
ZJSY,2003-03-06 18:00,ZJSY 061800Z AUTO 08005MPS //// // ////// 24/19 Q1011 NOSIG
ZJSY,2003-03-06 19:00,ZJSY 061900Z AUTO 08005MPS //// // ////// 23/18 Q1011 NOSIG
ZJSY,2003-03-06 20:00,ZJSY 062000Z AUTO 08005MPS //// // ////// 23/17 Q1011 NOSIG
ZJSY,2003-03-06 21:00,ZJSY 062100Z AUTO 06002MPS //// // ////// 22/18 Q1011 NOSIG
ZJSY,2003-03-06 22:00,ZJSY 062200Z 08004MPS 9999 -RA SCT012 BKN026 20/18 Q1012 NOSIG
ZJSY,2003-03-06 23:00,ZJSY 062300Z 07003MPS 3000 BR -RA SCT011 BKN026 20/18 Q1013 NOSIG
ZJSY,2003-03-07 00:00,ZJSY 070000Z 08003MPS 3000 BR -RA SCT010 OVC026 20/18 Q1014 NOSIG
ZJSY,2003-03-07 01:00,ZJSY 070100Z 08004MPS 3000 BR -RA BKN010 OVC033 20/18 Q1015 NOSIG
ZJSY,2003-03-07 02:00,ZJSY 070200Z 08003MPS 8000 -RA SCT013 OVC033 20/18 Q1016 NOSIG
ZJSY,2003-03-07 03:00,ZJSY 070300Z 09003MPS 6000 DZ SCT013 OVC033 20/17 Q1016 NOSIG
ZJSY,2003-03-07 04:00,ZJSY 070400Z 10003MPS 7000 DZ SCT013 OVC033 20/17 Q1016 NOSIG
ZJSY,2003-03-07 05:00,ZJSY 070500Z 07004MPS 4000 BR DZ SCT013 OVC033 20/18 Q1015 NOSIG
ZJSY,2003-03-07 06:00,ZJSY 070600Z 09003MPS 5000 BR BKN013 OVC033 20/18 Q1014 REDZ NOSIG
ZJSY,2003-03-07 07:00,ZJSY 070700Z 08004MPS 5000 BR DZ BKN013 OVC033 20/17 Q1014 NOSIG
ZJSY,2003-03-07 08:00,ZJSY 070800Z 09005MPS 7000 DZ BKN013 OVC033 20/16 Q1013 NOSIG
ZJSY,2003-03-07 09:00,ZJSY 070900Z 07005MPS 8000 SCT013 OVC033 20/16 Q1013 NOSIG
ZJSY,2003-03-07 10:00,ZJSY 071000Z 08005MPS 8000 SCT013 OVC033 20/16 Q1014 NOSIG
ZJSY,2003-03-07 11:00,ZJSY 071100Z 08004MPS 8000 SCT013 OVC040 19/16 Q1014 NOSIG
ZJSY,2003-03-07 12:00,ZJSY 071200Z 08003MPS 8000 SCT016 OVC040 19/16 Q1015 NOSIG
ZJSY,2003-03-07 13:00,ZJSY 071300Z 07005MPS 8000 SCT016 OVC040 19/15 Q1015 NOSIG
ZJSY,2003-03-07 14:00,ZJSY 071400Z 07003MPS 8000 SCT016 OVC040 19/16 Q1016 NOSIG
ZJSY,2003-03-07 15:00,ZJSY 071500Z 07003MPS 8000 SCT016 OVC040 19/16 Q1016 NOSIG
ZJSY,2003-03-07 16:00,ZJSY 071600Z 06002MPS 9999 SCT016 OVC040 20/16 Q1016 NOSIG
ZJSY,2003-03-07 17:00,ZJSY 071700Z AUTO 08002MPS //// // ////// 19/15 Q1016 NOSIG
ZJSY,2003-03-07 18:00,ZJSY 071800Z AUTO 08004MPS //// // ////// 19/15 Q1016 NOSIG
ZJSY,2003-03-07 19:00,ZJSY 071900Z AUTO 07002MPS //// // ////// 19/15 Q1015 NOSIG
ZJSY,2003-03-07 20:00,ZJSY 072000Z AUTO 07004MPS //// // ////// 19/15 Q1015 NOSIG
ZJSY,2003-03-07 21:00,ZJSY 072100Z AUTO 08003MPS //// // ////// 19/16 Q1015 NOSIG
ZJSY,2003-03-07 22:00,ZJSY 072200Z 02001MPS 9999 SCT016 OVC040 20/15 Q1015 NOSIG
ZJSY,2003-03-07 23:00,ZJSY 072300Z 06003MPS 9999 SCT016 OVC036 20/15 Q1016 NOSIG
ZJSY,2003-03-08 00:00,ZJSY 080000Z 06005MPS 9999 SCT016 OVC036 21/15 Q1017 NOSIG
ZJSY,2003-03-08 01:00,ZJSY 080100Z 03003MPS 9999 SCT020 OVC040 22/15 Q1017 NOSIG
ZJSY,2003-03-08 02:00,ZJSY 080200Z 05005MPS 9999 SCT020 OVC040 22/15 Q1018 NOSIG
ZJSY,2003-03-08 03:00,ZJSY 080300Z 06004MPS 9999 SCT020 OVC040 23/15 Q1018 NOSIG
ZJSY,2003-03-08 04:00,ZJSY 080400Z 05004MPS 9999 SCT020 OVC043 23/15 Q1017 NOSIG
ZJSY,2003-03-08 05:00,ZJSY 080500Z 07005MPS 9999 SCT020 OVC046 23/15 Q1017 NOSIG
ZJSY,2003-03-08 06:00,ZJSY 080600Z 08004MPS 9999 SCT020 OVC046 22/15 Q1016 NOSIG
ZJSY,2003-03-08 07:00,ZJSY 080700Z 10003MPS 8000 SCT020 OVC046 22/15 Q1016 NOSIG
ZJSY,2003-03-08 08:00,ZJSY 080800Z 06004MPS 9999 SCT016 OVC040 22/15 Q1016 NOSIG
ZJSY,2003-03-08 09:00,ZJSY 080900Z 07004MPS 9999 SCT016 OVC040 21/15 Q1016 NOSIG
ZJSY,2003-03-08 10:00,ZJSY 081000Z 07005MPS 9999 BKN016 OVC040 21/15 Q1016 NOSIG
ZJSY,2003-03-08 11:00,ZJSY 081100Z 06004MPS 9999 BKN016 OVC040 20/15 Q1016 NOSIG
ZJSY,2003-03-08 12:00,ZJSY 081200Z 06002MPS 9999 BKN016 BKN040 21/15 Q1017 NOSIG
ZJSY,2003-03-08 13:00,ZJSY 081300Z 00000MPS 9999 BKN016 BKN040 20/16 Q1017 NOSIG
ZJSY,2003-03-08 14:00,ZJSY 081400Z 08004MPS 9999 BKN016 BKN040 21/15 Q1018 NOSIG
ZJSY,2003-03-08 15:00,ZJSY 081500Z 07004MPS 9999 BKN016 BKN040 21/15 Q1018 NOSIG
ZJSY,2003-03-08 16:00,ZJSY 081600Z 01002MPS 9999 SCT017 BKN043 21/15 Q1018 NOSIG
ZJSY,2003-03-08 17:00,ZJSY 081700Z 01001MPS 9999 SCT017 BKN043 20/16 Q1017 NOSIG
ZJSY,2003-03-08 18:00,ZJSY 081800Z AUTO 28001MPS //// // ////// 20/16 Q1017 NOSIG
ZJSY,2003-03-08 19:00,ZJSY 081900Z AUTO 00000MPS //// // ////// 20/17 Q1017 NOSIG
ZJSY,2003-03-08 20:00,ZJSY 082000Z AUTO 28001MPS //// // ////// 20/18 Q1016 NOSIG
ZJSY,2003-03-08 21:00,ZJSY 082100Z AUTO 32001MPS //// // ////// 19/17 Q1016 NOSIG
ZJSY,2003-03-08 22:00,ZJSY 082200Z 27001MPS 9999 SCT017 BKN043 19/17 Q1017 NOSIG
ZJSY,2003-03-08 23:00,ZJSY 082300Z 33002MPS 9999 SCT016 BKN043 20/17 Q1018 NOSIG
ZJSY,2003-03-09 00:00,ZJSY 090000Z 31001MPS 9999 BKN016 BKN040 20/17 Q1018 NOSIG
ZJSY,2003-03-09 01:00,ZJSY 090100Z 00000MPS 9999 BKN040 21/17 Q1019 NOSIG
ZJSY,2003-03-09 02:00,ZJSY 090200Z 12002MPS 9999 FEW016 BKN040 22/16 Q1019 NOSIG
ZJSY,2003-03-09 03:00,ZJSY 090300Z 05004MPS 9999 BKN040 BKN060 24/15 Q1019 NOSIG
ZJSY,2003-03-09 04:00,ZJSY 090400Z 05004MPS 9999 BKN040 BKN060 24/15 Q1019 NOSIG
ZJSY,2003-03-09 05:00,ZJSY 090500Z 06004MPS 9999 FEW016 BKN040 BKN060 25/16 Q1018 NOSIG
ZJSY,2003-03-09 06:00,ZJSY 090600Z 05003MPS 9999 FEW016 BKN040 BKN060 24/16 Q1017 NOSIG
ZJSY,2003-03-09 07:00,ZJSY 090700Z 05003MPS 9999 SCT016 BKN040 BKN060 24/16 Q1017 NOSIG
ZJSY,2003-03-09 08:00,ZJSY 090800Z 24002MPS 9999 SCT016 BKN040 BKN060 23/18 Q1016 NOSIG
ZJSY,2003-03-09 09:00,ZJSY 090900Z 22002MPS 9999 FEW016 BKN040 OVC060 23/17 Q1017 NOSIG
ZJSY,2003-03-09 10:00,ZJSY 091000Z 35002MPS 9999 BKN040 OVC060 22/17 Q1017 NOSIG
ZJSY,2003-03-09 11:00,ZJSY 091100Z 33001MPS 9999 BKN040 OVC060 22/18 Q1017 NOSIG
ZJSY,2003-03-09 12:00,ZJSY 091200Z 05003MPS 9999 BKN040 OVC060 23/16 Q1018 NOSIG
ZJSY,2003-03-09 13:00,ZJSY 091300Z 35002MPS 9999 BKN043 BKN066 22/17 Q1018 NOSIG
ZJSY,2003-03-09 14:00,ZJSY 091400Z 14001MPS 9999 BKN043 BKN066 22/17 Q1018 NOSIG
ZJSY,2003-03-09 15:00,ZJSY 091500Z 29001MPS 9999 BKN043 BKN066 22/16 Q1019 NOSIG
ZJSY,2003-03-09 16:00,ZJSY 091600Z 00000MPS 9999 BKN043 BKN066 22/17 Q1019 NOSIG
ZJSY,2003-03-09 17:00,ZJSY 091700Z 32002MPS 9999 BKN040 BKN060 22/18 Q1019 NOSIG
ZJSY,2003-03-09 18:00,ZJSY 091800Z AUTO 30001MPS //// // ////// 22/18 Q1018 NOSIG
ZJSY,2003-03-09 19:00,ZJSY 091900Z AUTO 28002MPS //// // ////// 21/16 Q1018 NOSIG
ZJSY,2003-03-09 20:00,ZJSY 092000Z AUTO 26001MPS //// // ////// 21/17 Q1017 NOSIG
ZJSY,2003-03-09 21:00,ZJSY 092100Z AUTO 06002MPS //// // ////// 21/17 Q1017 NOSIG
ZJSY,2003-03-09 22:00,ZJSY 092200Z 11002MPS 9999 BKN033 BKN060 21/16 Q1017 NOSIG
ZJSY,2003-03-09 23:00,ZJSY 092300Z 14001MPS 9999 FEW018 BKN033 BKN060 21/16 Q1018 NOSIG
ZJSY,2003-03-10 00:00,ZJSY 100000Z 00000MPS 9999 FEW018 BKN033 BKN060 21/16 Q1019 NOSIG
ZJSY,2003-03-10 01:00,ZJSY 100100Z 15001MPS 9999 FEW016 BKN033 BKN060 22/16 Q1019 NOSIG
ZJSY,2003-03-10 02:00,ZJSY 100200Z 00000MPS 9999 FEW016 BKN033 BKN060 23/16 Q1020 NOSIG
ZJSY,2003-03-10 03:00,ZJSY 100300Z 06004MPS 9999 FEW016 BKN033 BKN060 24/15 Q1020 NOSIG
ZJSY,2003-03-10 04:00,ZJSY 100400Z 05003MPS 9999 FEW016 BKN033 BKN060 25/15 Q1019 NOSIG
ZJSY,2003-03-10 05:00,ZJSY 100500Z 17002MPS 9999 FEW016 BKN033 BKN060 25/15 Q1018 NOSIG
ZJSY,2003-03-10 06:00,ZJSY 100600Z 10003MPS 9999 FEW016 BKN033 BKN060 24/16 Q1018 NOSIG
ZJSY,2003-03-10 07:00,ZJSY 100700Z 01002MPS 9999 FEW016 BKN033 BKN060 23/17 Q1017 NOSIG
ZJSY,2003-03-10 08:00,ZJSY 100800Z 08002MPS 9999 FEW016 BKN033 BKN060 23/17 Q1017 NOSIG
ZJSY,2003-03-10 09:00,ZJSY 100900Z 12002MPS 9999 FEW016 BKN033 BKN060 21/17 Q1017 NOSIG
ZJSY,2003-03-10 10:00,ZJSY 101000Z 08004MPS 9999 FEW016 BKN033 OVC053 21/17 Q1017 NOSIG
ZJSY,2003-03-10 11:00,ZJSY 101100Z 08003MPS 9999 SCT013 BKN033 OVC053 21/17 Q1017 NOSIG
ZJSY,2003-03-10 12:00,ZJSY 101200Z 05001MPS 9999 SCT013 BKN033 OVC053 21/17 Q1018 NOSIG
ZJSY,2003-03-10 13:00,ZJSY 101300Z 00000MPS 9999 SCT013 OVC040 21/17 Q1018 NOSIG
ZJSY,2003-03-10 14:00,ZJSY 101400Z 11001MPS 9999 SCT013 OVC040 21/17 Q1019 NOSIG
ZJSY,2003-03-10 15:00,ZJSY 101500Z 13001MPS 9999 SCT013 OVC040 20/17 Q1019 NOSIG
ZJSY,2003-03-10 16:00,ZJSY 101600Z 24001MPS 9999 SCT013 OVC040 21/17 Q1019 NOSIG
ZJSY,2003-03-10 17:00,ZJSY 101700Z AUTO 31001MPS //// // ////// 20/18 Q1018 NOSIG
ZJSY,2003-03-10 18:00,ZJSY 101800Z AUTO 11001MPS //// // ////// 20/18 Q1018 NOSIG
ZJSY,2003-03-10 19:00,ZJSY 101900Z AUTO 00000MPS //// // ////// 19/18 Q1017 NOSIG
ZJSY,2003-03-10 20:00,ZJSY 102000Z AUTO 00000MPS //// // ////// 20/18 Q1017 NOSIG
ZJSY,2003-03-10 21:00,ZJSY 102100Z AUTO 09003MPS //// // ////// 21/18 Q1016 NOSIG
ZJSY,2003-03-10 22:00,ZJSY 102200Z 09004MPS 9999 SCT013 OVC040 21/18 Q1017 NOSIG
ZJSY,2003-03-10 23:00,ZJSY 102300Z 08004MPS 9999 SCT012 OVC040 21/18 Q1018 NOSIG
ZJSY,2003-03-11 00:00,ZJSY 110000Z 08005MPS 9999 FEW012 SCT050 22/19 Q1018 NOSIG
ZJSY,2003-03-11 01:00,ZJSY 110100Z 08008MPS 9999 SCT012 BKN110 23/19 Q1018 NOSIG
ZJSY,2003-03-11 02:00,ZJSY 110200Z 08008MPS 9999 SCT016 BKN260 25/19 Q1019 NOSIG
ZJSY,2003-03-11 03:00,ZJSY 110300Z 09008MPS 9999 SCT015 SCT260 27/18 Q1019 NOSIG
ZJSY,2003-03-11 04:00,ZJSY 110400Z 09008MPS 9999 SCT015 BKN100 26/17 Q1018 NOSIG
ZJSY,2003-03-11 05:00,ZJSY 110500Z 08008MPS 9999 SCT015 BKN100 27/18 Q1018 NOSIG
ZJSY,2003-03-11 06:00,ZJSY 110600Z 08009G14MPS 9999 SCT016 BKN050 27/18 Q1017 NOSIG
ZJSY,2003-03-11 07:00,ZJSY 110700Z 09009MPS 9999 SCT016 BKN050 26/18 Q1016 NOSIG
ZJSY,2003-03-11 08:00,ZJSY 110800Z 09009MPS 9999 SCT016 BKN073 26/18 Q1016 NOSIG
ZJSY,2003-03-11 09:00,ZJSY 110900Z 08008MPS 9999 SCT016 BKN060 25/18 Q1016 NOSIG
ZJSY,2003-03-11 10:00,ZJSY 111000Z 08008MPS 9999 FEW016 BKN053 24/18 Q1016 NOSIG
ZJSY,2003-03-11 11:00,ZJSY 111100Z 08007MPS 9999 FEW016 BKN053 24/18 Q1017 NOSIG
ZJSY,2003-03-11 12:00,ZJSY 111200Z 08006MPS 9999 FEW013 SCT060 23/18 Q1018 NOSIG
ZJSY,2003-03-11 13:00,ZJSY 111300Z 08006MPS 9999 SCT013 23/18 Q1018 NOSIG
ZJSY,2003-03-11 14:00,ZJSY 111400Z 08006MPS 9999 FEW013 23/18 Q1019 NOSIG
ZJSY,2003-03-11 15:00,ZJSY 111500Z 07007MPS 9999 FEW013 23/18 Q1019 NOSIG
ZJSY,2003-03-11 16:00,ZJSY 111600Z 08006MPS 9999 FEW013 22/18 Q1019 NOSIG
ZJSY,2003-03-11 17:00,ZJSY 111700Z AUTO 07008MPS //// // ////// 23/18 Q1018 NOSIG
ZJSY,2003-03-11 18:00,ZJSY 111800Z AUTO 07007MPS //// // ////// 22/18 Q1018 NOSIG
ZJSY,2003-03-11 19:00,ZJSY 111900Z AUTO 08006MPS //// // ////// 22/18 Q1018 NOSIG
ZJSY,2003-03-11 20:00,ZJSY 112000Z AUTO 06008MPS //// // ////// 22/18 Q1017 NOSIG
ZJSY,2003-03-11 21:00,ZJSY 112100Z AUTO 07006MPS //// // ////// 22/18 Q1017 NOSIG
ZJSY,2003-03-11 22:00,ZJSY 112200Z 07006MPS CAVOK 22/17 Q1018 NOSIG
ZJSY,2003-03-11 23:00,ZJSY 112300Z 07005MPS CAVOK 22/18 Q1019 NOSIG
ZJSY,2003-03-12 00:00,ZJSY 120000Z 07007MPS CAVOK 23/18 Q1019 NOSIG
ZJSY,2003-03-12 01:00,ZJSY 120100Z 08007MPS CAVOK 25/18 Q1020 NOSIG
ZJSY,2003-03-12 02:00,ZJSY 120200Z 08007MPS 9999 FEW016 SCT300 27/18 Q1020 NOSIG
ZJSY,2003-03-12 03:00,ZJSY 120300Z 09007MPS 9999 SCT018 BKN300 28/17 Q1020 NOSIG
ZJSY,2003-03-12 04:00,ZJSY 120400Z 08007MPS 9999 SCT018 BKN300 28/18 Q1020 NOSIG
ZJSY,2003-03-12 05:00,ZJSY 120500Z 09008MPS 9999 FEW018 SCT300 28/17 Q1019 NOSIG
ZJSY,2003-03-12 06:00,ZJSY 120600Z 10007MPS 9999 FEW018 SCT300 29/16 Q1018 NOSIG
ZJSY,2003-03-12 07:00,ZJSY 120700Z 10006MPS 9999 FEW018 SCT300 29/17 Q1017 NOSIG
ZJSY,2003-03-12 08:00,ZJSY 120800Z 08007MPS CAVOK 28/16 Q1017 NOSIG
ZJSY,2003-03-12 09:00,ZJSY 120900Z 09008MPS CAVOK 28/15 Q1017 NOSIG
ZJSY,2003-03-12 10:00,ZJSY 121000Z 09008MPS CAVOK 26/16 Q1017 NOSIG
ZJSY,2003-03-12 11:00,ZJSY 121100Z 10004MPS CAVOK 24/18 Q1018 NOSIG
ZJSY,2003-03-12 12:00,ZJSY 121200Z 09004MPS CAVOK 23/18 Q1018 NOSIG
ZJSY,2003-03-12 13:00,ZJSY 121300Z 08005MPS CAVOK 23/18 Q1019 NOSIG
ZJSY,2003-03-12 14:00,ZJSY 121400Z 08005MPS CAVOK 23/18 Q1020 NOSIG
ZJSY,2003-03-12 15:00,ZJSY 121500Z 07003MPS CAVOK 22/17 Q1021 NOSIG
ZJSY,2003-03-12 16:00,ZJSY 121600Z 08003MPS CAVOK 21/17 Q1020 NOSIG
ZJSY,2003-03-12 17:00,ZJSY 121700Z 10003MPS CAVOK 22/18 Q1020 NOSIG
ZJSY,2003-03-12 18:00,ZJSY 121800Z 08003MPS CAVOK 20/17 Q1019 NOSIG
ZJSY,2003-03-12 19:00,ZJSY 121900Z AUTO 05003MPS //// // ////// 21/17 Q1019 NOSIG
ZJSY,2003-03-12 20:00,ZJSY 122000Z AUTO 07004MPS //// // ////// 21/16 Q1018 NOSIG
ZJSY,2003-03-12 21:00,ZJSY 122100Z AUTO 09002MPS //// // ////// 20/17 Q1019 NOSIG
ZJSY,2003-03-12 22:00,ZJSY 122200Z 10001MPS CAVOK 20/16 Q1019 NOSIG
ZJSY,2003-03-12 23:00,ZJSY 122300Z 05001MPS CAVOK 20/16 Q1020 NOSIG
ZJSY,2003-03-13 00:00,ZJSY 130000Z 00000MPS 9999 FEW018 SCT230 22/17 Q1021 NOSIG
ZJSY,2003-03-13 01:00,ZJSY 130100Z 13001MPS 9999 FEW016 SCT100 23/17 Q1022 NOSIG
ZJSY,2003-03-13 02:00,ZJSY 130200Z 08005MPS 9999 SCT016 26/17 Q1021 NOSIG
ZJSY,2003-03-13 03:00,ZJSY 130300Z 09006MPS 9999 FEW016 SCT050 26/16 Q1021 NOSIG
ZJSY,2003-03-13 04:00,ZJSY 130400Z 09007MPS 9999 FEW016 SCT050 28/16 Q1021 NOSIG
ZJSY,2003-03-13 05:00,ZJSY 130500Z 09006MPS 9999 FEW016 SCT260 29/15 Q1019 NOSIG
ZJSY,2003-03-13 06:00,ZJSY 130600Z 10006MPS 9999 FEW016 SCT260 29/17 Q1019 NOSIG
ZJSY,2003-03-13 07:00,ZJSY 130700Z 09006MPS 9999 FEW020 SCT260 29/16 Q1018 NOSIG
ZJSY,2003-03-13 08:00,ZJSY 130800Z 10006MPS 9999 FEW020 SCT260 28/17 Q1017 NOSIG
ZJSY,2003-03-13 09:00,ZJSY 130900Z 10007MPS CAVOK 28/16 Q1017 NOSIG
ZJSY,2003-03-13 10:00,ZJSY 131000Z 10005MPS CAVOK 26/17 Q1018 NOSIG
ZJSY,2003-03-13 11:00,ZJSY 131100Z 08007MPS CAVOK 24/17 Q1018 NOSIG
ZJSY,2003-03-13 12:00,ZJSY 131200Z 08006MPS CAVOK 24/17 Q1018 NOSIG
ZJSY,2003-03-13 13:00,ZJSY 131300Z 08004MPS CAVOK 22/16 Q1019 NOSIG
ZJSY,2003-03-13 14:00,ZJSY 131400Z 07003MPS CAVOK 22/16 Q1020 NOSIG
ZJSY,2003-03-13 15:00,ZJSY 131500Z 07002MPS CAVOK 22/17 Q1020 NOSIG
ZJSY,2003-03-13 16:00,ZJSY 131600Z 04004MPS CAVOK 23/17 Q1020 NOSIG
ZJSY,2003-03-13 17:00,ZJSY 131700Z AUTO 05004MPS //// // ////// 23/17 Q1019 NOSIG
ZJSY,2003-03-13 18:00,ZJSY 131800Z AUTO 06003MPS //// // ////// 21/17 Q1019 NOSIG
ZJSY,2003-03-13 19:00,ZJSY 131900Z AUTO 04003MPS //// // ////// 22/17 Q1018 NOSIG
ZJSY,2003-03-13 20:00,ZJSY 132000Z AUTO 10002MPS //// // ////// 21/17 Q1018 NOSIG
ZJSY,2003-03-13 21:00,ZJSY 132100Z AUTO 35002MPS //// // ////// 20/17 Q1018 NOSIG
ZJSY,2003-03-13 23:00,ZJSY 132300Z 05003MPS CAVOK 22/17 Q1019 NOSIG
ZJSY,2003-03-14 00:00,ZJSY 140000Z 06003MPS CAVOK 23/17 Q1019 NOSIG
ZJSY,2003-03-14 01:00,ZJSY 140100Z 07007MPS CAVOK 25/17 Q1019 NOSIG
ZJSY,2003-03-14 02:00,ZJSY 140200Z 08007MPS CAVOK 27/17 Q1019 NOSIG
ZJSY,2003-03-14 03:00,ZJSY 140300Z 09006MPS CAVOK 26/17 Q1019 NOSIG
ZJSY,2003-03-14 04:00,ZJSY 140400Z 07006MPS CAVOK 28/18 Q1019 NOSIG
ZJSY,2003-03-14 05:00,ZJSY 140500Z 11005MPS 9999 FEW016 BKN260 28/17 Q1018 NOSIG
ZJSY,2003-03-14 06:00,ZJSY 140600Z 12005MPS CAVOK 29/18 Q1016 NOSIG
ZJSY,2003-03-14 07:00,ZJSY 140700Z 13006MPS CAVOK 27/17 Q1015 NOSIG
ZJSY,2003-03-14 08:00,ZJSY 140800Z 10005MPS CAVOK 27/17 Q1014 NOSIG
ZJSY,2003-03-14 09:00,ZJSY 140900Z 10005MPS CAVOK 26/18 Q1015 NOSIG
ZJSY,2003-03-14 10:00,ZJSY 141000Z 10004MPS CAVOK 25/18 Q1015 NOSIG
ZJSY,2003-03-14 11:00,ZJSY 141100Z 07006MPS CAVOK 24/18 Q1015 NOSIG
ZJSY,2003-03-14 12:00,ZJSY 141200Z 06004MPS CAVOK 23/19 Q1016 NOSIG
ZJSY,2003-03-14 13:00,ZJSY 141300Z 07004MPS CAVOK 23/18 Q1016 NOSIG
ZJSY,2003-03-14 14:00,ZJSY 141400Z 06004MPS CAVOK 23/18 Q1017 NOSIG
ZJSY,2003-03-14 15:00,ZJSY 141500Z 06005MPS CAVOK 23/19 Q1016 NOSIG
ZJSY,2003-03-14 16:00,ZJSY 141600Z 07005MPS CAVOK 22/18 Q1015 NOSIG
ZJSY,2003-03-14 17:00,ZJSY 141700Z 07004MPS CAVOK 22/18 Q1014 NOSIG
ZJSY,2003-03-14 18:00,ZJSY 141800Z AUTO 07005MPS //// // ////// 22/18 Q1013 NOSIG
ZJSY,2003-03-14 19:00,ZJSY 141900Z AUTO 07005MPS //// // ////// 22/19 Q1012 NOSIG
ZJSY,2003-03-14 20:00,ZJSY 142000Z AUTO 33002MPS //// // ////// 22/19 Q1013 NOSIG
ZJSY,2003-03-14 21:00,ZJSY 142100Z AUTO 08002MPS //// // ////// 22/18 Q1013 NOSIG
ZJSY,2003-03-14 22:00,ZJSY 142200Z 05002MPS CAVOK 22/18 Q1013 NOSIG
ZJSY,2003-03-14 23:00,ZJSY 142300Z 05001MPS CAVOK 21/18 Q1013 NOSIG
ZJSY,2003-03-15 00:00,ZJSY 150000Z 34001MPS CAVOK 22/19 Q1014 NOSIG
ZJSY,2003-03-15 01:00,ZJSY 150100Z 06003MPS CAVOK 24/19 Q1015 NOSIG
ZJSY,2003-03-15 02:00,ZJSY 150200Z 07003MPS CAVOK 25/19 Q1015 NOSIG
ZJSY,2003-03-15 03:00,ZJSY 150300Z 09003MPS CAVOK 26/20 Q1015 NOSIG
ZJSY,2003-03-15 04:00,ZJSY 150400Z 10003MPS 9999 SCT016 SCT043 BKN230 27/19 Q1015 NOSIG
ZJSY,2003-03-15 05:00,ZJSY 150500Z 13004MPS 9999 SCT016 SCT043 BKN230 27/19 Q1014 NOSIG
ZJSY,2003-03-15 06:00,ZJSY 150600Z 17004MPS 9999 SCT016 BKN230 26/20 Q1013 NOSIG
ZJSY,2003-03-15 07:00,ZJSY 150700Z 14004MPS CAVOK 27/20 Q1012 NOSIG
ZJSY,2003-03-15 08:00,ZJSY 150800Z 14003MPS CAVOK 27/20 Q1012 NOSIG
ZJSY,2003-03-15 09:00,ZJSY 150900Z 13002MPS CAVOK 26/20 Q1011 NOSIG
ZJSY,2003-03-15 10:00,ZJSY 151000Z 17002MPS CAVOK 26/19 Q1012 NOSIG
ZJSY,2003-03-15 11:00,ZJSY 151100Z 12001MPS CAVOK 25/19 Q1012 NOSIG
ZJSY,2003-03-15 12:00,ZJSY 151200Z 10002MPS CAVOK 24/19 Q1012 NOSIG
ZJSY,2003-03-15 13:00,ZJSY 151300Z 04003MPS CAVOK 24/18 Q1012 NOSIG
ZJSY,2003-03-15 14:00,ZJSY 151400Z 07002MPS CAVOK 23/18 Q1013 NOSIG
ZJSY,2003-03-15 15:00,ZJSY 151500Z 07003MPS CAVOK 22/18 Q1013 NOSIG
ZJSY,2003-03-15 16:00,ZJSY 151600Z 09002MPS CAVOK 22/18 Q1013 NOSIG
ZJSY,2003-03-15 17:00,ZJSY 151700Z 07003MPS CAVOK 22/19 Q1013 NOSIG
ZJSY,2003-03-15 18:00,ZJSY 151800Z AUTO 08003MPS //// // ////// 22/19 Q1012 NOSIG
ZJSY,2003-03-15 19:00,ZJSY 151900Z AUTO 06002MPS //// // ////// 23/19 Q1012 NOSIG
ZJSY,2003-03-15 20:00,ZJSY 152000Z AUTO 04003MPS //// // ////// 24/20 Q1012 NOSIG
ZJSY,2003-03-15 21:00,ZJSY 152100Z AUTO 05001MPS //// // ////// 23/20 Q1012 NOSIG
ZJSY,2003-03-15 22:00,ZJSY 152200Z 04002MPS 9999 FEW018 24/20 Q1012 NOSIG
ZJSY,2003-03-15 23:00,ZJSY 152300Z 05003MPS 9999 BKN018 24/20 Q1013 NOSIG
ZJSY,2003-03-16 00:00,ZJSY 160000Z 06003MPS 9999 BKN018 25/20 Q1014 NOSIG
ZJSY,2003-03-16 01:00,ZJSY 160100Z 09003MPS 9999 SCT018 27/21 Q1015 NOSIG
ZJSY,2003-03-16 02:00,ZJSY 160200Z 12002MPS 9999 BKN018 27/21 Q1016 NOSIG
ZJSY,2003-03-16 03:00,ZJSY 160300Z 12003MPS 9999 SCT020 28/21 Q1016 NOSIG
ZJSY,2003-03-16 04:00,ZJSY 160400Z 14003MPS 9999 SCT020 28/21 Q1015 NOSIG
ZJSY,2003-03-16 05:00,ZJSY 160500Z 12004MPS 9999 SCT020 28/21 Q1014 NOSIG
ZJSY,2003-03-16 06:00,ZJSY 160600Z 13003MPS 9999 SCT020 28/21 Q1013 NOSIG
ZJSY,2003-03-16 07:00,ZJSY 160700Z 14003MPS 9999 SCT020 28/21 Q1012 NOSIG
ZJSY,2003-03-16 08:00,ZJSY 160800Z 13003MPS 9999 SCT020 28/21 Q1012 NOSIG
ZJSY,2003-03-16 09:00,ZJSY 160900Z 12003MPS 9999 FEW020 27/21 Q1012 NOSIG
ZJSY,2003-03-16 10:00,ZJSY 161000Z 12002MPS CAVOK 27/22 Q1012 NOSIG
ZJSY,2003-03-16 11:00,ZJSY 161100Z 10002MPS CAVOK 26/21 Q1012 NOSIG
ZJSY,2003-03-16 12:00,ZJSY 161200Z 10002MPS CAVOK 25/21 Q1013 NOSIG
ZJSY,2003-03-16 13:00,ZJSY 161300Z 06003MPS CAVOK 25/21 Q1013 NOSIG
ZJSY,2003-03-16 14:00,ZJSY 161400Z 07003MPS CAVOK 24/21 Q1014 NOSIG
ZJSY,2003-03-16 15:00,ZJSY 161500Z 06003MPS CAVOK 24/20 Q1014 NOSIG
ZJSY,2003-03-16 16:00,ZJSY 161600Z 04003MPS 9999 FEW013 24/21 Q1014 NOSIG
ZJSY,2003-03-16 17:00,ZJSY 161700Z 05003MPS 9999 FEW013 24/20 Q1014 NOSIG
ZJSY,2003-03-16 18:00,ZJSY 161800Z AUTO 02001MPS //// // ////// 23/20 Q1013 NOSIG
ZJSY,2003-03-16 19:00,ZJSY 161900Z AUTO 36001MPS //// // ////// 23/20 Q1013 NOSIG
ZJSY,2003-03-16 20:00,ZJSY 162000Z AUTO 05002MPS //// // ////// 25/21 Q1013 NOSIG
ZJSY,2003-03-16 21:00,ZJSY 162100Z AUTO 04002MPS //// // ////// 24/21 Q1013 NOSIG
ZJSY,2003-03-16 22:00,ZJSY 162200Z AUTO 05002MPS //// // ////// 24/21 Q1013 NOSIG
ZJSY,2003-03-16 23:00,ZJSY 162300Z 05003MPS 9999 FEW013 BKN200 24/21 Q1014 NOSIG
ZJSY,2003-03-17 00:00,ZJSY 170000Z 05003MPS CAVOK 25/21 Q1015 NOSIG
ZJSY,2003-03-17 01:00,ZJSY 170100Z 08003MPS CAVOK 27/21 Q1015 NOSIG
ZJSY,2003-03-17 02:00,ZJSY 170200Z 11003MPS CAVOK 28/21 Q1016 NOSIG
ZJSY,2003-03-17 03:00,ZJSY 170300Z 12004MPS 9999 FEW018 28/21 Q1016 NOSIG
ZJSY,2003-03-17 04:00,ZJSY 170400Z 14003MPS 9999 FEW018 28/21 Q1016 NOSIG
ZJSY,2003-03-17 05:00,ZJSY 170500Z 16003MPS 9999 FEW018 28/21 Q1015 NOSIG
ZJSY,2003-03-17 06:00,ZJSY 170600Z 14003MPS 9999 FEW018 28/22 Q1014 NOSIG
ZJSY,2003-03-17 07:00,ZJSY 170700Z 14003MPS 9999 FEW018 29/21 Q1013 NOSIG
ZJSY,2003-03-17 08:00,ZJSY 170800Z 14003MPS CAVOK 28/22 Q1013 NOSIG
ZJSY,2003-03-17 09:00,ZJSY 170900Z 13003MPS CAVOK 28/22 Q1013 NOSIG
ZJSY,2003-03-17 10:00,ZJSY 171000Z 12003MPS CAVOK 27/21 Q1013 NOSIG
ZJSY,2003-03-17 11:00,ZJSY 171100Z 12002MPS CAVOK 26/21 Q1013 NOSIG
ZJSY,2003-03-17 12:00,ZJSY 171200Z 10002MPS CAVOK 26/21 Q1014 NOSIG
ZJSY,2003-03-17 13:00,ZJSY 171300Z 07002MPS 9999 FEW020 SCT260 25/21 Q1015 NOSIG
ZJSY,2003-03-17 14:00,ZJSY 171400Z 06003MPS 9999 FEW020 SCT260 25/20 Q1015 NOSIG
ZJSY,2003-03-17 15:00,ZJSY 171500Z 08002MPS CAVOK 24/20 Q1016 NOSIG
ZJSY,2003-03-17 16:00,ZJSY 171600Z 07002MPS CAVOK 23/19 Q1015 NOSIG
ZJSY,2003-03-17 17:00,ZJSY 171700Z AUTO 01001MPS //// // ////// 23/20 Q1015 NOSIG
ZJSY,2003-03-17 21:00,ZJSY 172100Z AUTO 00000MPS //// // ////// 22/19 Q1014 NOSIG
ZJSY,2003-03-17 22:00,ZJSY 172200Z 36001MPS CAVOK 21/18 Q1014 NOSIG
ZJSY,2003-03-17 23:00,ZJSY 172300Z 06001MPS CAVOK 21/19 Q1014 NOSIG
ZJSY,2003-03-18 00:00,ZJSY 180000Z 06001MPS CAVOK 24/20 Q1015 NOSIG
ZJSY,2003-03-18 01:00,ZJSY 180100Z 08004MPS CAVOK 27/21 Q1016 NOSIG
ZJSY,2003-03-18 02:00,ZJSY 180200Z 09003MPS 9999 FEW020 28/21 Q1016 NOSIG
ZJSY,2003-03-18 03:00,ZJSY 180300Z 14003MPS 9999 FEW020 28/21 Q1016 NOSIG
ZJSY,2003-03-18 04:00,ZJSY 180400Z 14004MPS 9999 FEW020 28/21 Q1016 NOSIG
ZJSY,2003-03-18 05:00,ZJSY 180500Z 17003MPS 9999 FEW020 29/21 Q1015 NOSIG
ZJSY,2003-03-18 06:00,ZJSY 180600Z 17004MPS 9999 FEW020 28/21 Q1014 NOSIG
ZJSY,2003-03-18 07:00,ZJSY 180700Z 16004MPS CAVOK 28/22 Q1013 NOSIG
ZJSY,2003-03-18 08:00,ZJSY 180800Z 16004MPS CAVOK 28/22 Q1012 NOSIG
ZJSY,2003-03-18 09:00,ZJSY 180900Z 15004MPS CAVOK 28/22 Q1013 NOSIG
ZJSY,2003-03-18 10:00,ZJSY 181000Z 14004MPS 9999 FEW018 27/21 Q1013 NOSIG
ZJSY,2003-03-18 11:00,ZJSY 181100Z 12003MPS 9999 FEW018 26/21 Q1013 NOSIG
ZJSY,2003-03-18 12:00,ZJSY 181200Z 08004MPS CAVOK 26/21 Q1014 NOSIG
ZJSY,2003-03-18 13:00,ZJSY 181300Z 07005MPS CAVOK 25/22 Q1014 NOSIG
ZJSY,2003-03-18 14:00,ZJSY 181400Z 08004MPS CAVOK 25/22 Q1015 NOSIG
ZJSY,2003-03-18 15:00,ZJSY 181500Z 08003MPS CAVOK 25/22 Q1016 NOSIG
ZJSY,2003-03-18 16:00,ZJSY 181600Z 10002MPS 9999 FEW016 25/22 Q1016 NOSIG
ZJSY,2003-03-18 17:00,ZJSY 181700Z 08003MPS 9999 FEW016 25/22 Q1016 NOSIG
ZJSY,2003-03-18 18:00,ZJSY 181800Z AUTO 09002MPS //// // ////// 25/22 Q1016 NOSIG
ZJSY,2003-03-18 19:00,ZJSY 181900Z AUTO 06003MPS //// // ////// 24/21 Q1015 NOSIG
ZJSY,2003-03-18 20:00,ZJSY 182000Z AUTO 08002MPS //// // ////// 23/21 Q1014 NOSIG
ZJSY,2003-03-18 21:00,ZJSY 182100Z AUTO 08002MPS //// // ////// 23/21 Q1014 NOSIG
ZJSY,2003-03-18 22:00,ZJSY 182200Z 06002MPS 9999 FEW016 23/21 Q1014 NOSIG
ZJSY,2003-03-18 23:00,ZJSY 182300Z 07002MPS 9999 SCT015 BKN260 23/21 Q1015 NOSIG
ZJSY,2003-03-19 00:00,ZJSY 190000Z 06002MPS 9999 SCT016 BKN260 25/21 Q1016 NOSIG
ZJSY,2003-03-19 01:00,ZJSY 190100Z 08004MPS 9999 FEW013 BKN040 26/21 Q1016 NOSIG
ZJSY,2003-03-19 02:00,ZJSY 190200Z 09006MPS 9999 FEW013 SCT200 27/21 Q1017 NOSIG
ZJSY,2003-03-19 03:00,ZJSY 190300Z 09006MPS 9999 FEW013 SCT050 28/21 Q1017 NOSIG
ZJSY,2003-03-19 04:00,ZJSY 190400Z 10005MPS 9999 FEW013 BKN050 28/20 Q1016 NOSIG
ZJSY,2003-03-19 05:00,ZJSY 190500Z 11005MPS 9999 SCT013 SCT016 29/21 Q1015 NOSIG
ZJSY,2003-03-19 06:00,ZJSY 190600Z 09005MPS 9999 FEW013 30/20 Q1013 NOSIG
ZJSY,2003-03-19 07:00,ZJSY 190700Z 10006MPS 9999 FEW013 29/20 Q1012 NOSIG
ZJSY,2003-03-19 08:00,ZJSY 190800Z 12005MPS 9999 SCT016 28/20 Q1012 NOSIG
ZJSY,2003-03-19 09:00,ZJSY 190900Z 12005MPS 9999 FEW013 SCT200 27/20 Q1012 NOSIG
ZJSY,2003-03-19 10:00,ZJSY 191000Z 09004MPS 9999 SCT016 SCT200 27/20 Q1012 NOSIG
ZJSY,2003-03-19 11:00,ZJSY 191100Z 08006MPS 9999 SCT016 SCT200 25/20 Q1013 NOSIG
ZJSY,2003-03-19 12:00,ZJSY 191200Z 08005MPS 9999 SCT016 SCT200 25/20 Q1013 NOSIG
ZJSY,2003-03-19 13:00,ZJSY 191300Z 08004MPS 9999 SCT016 SCT200 24/20 Q1014 NOSIG
ZJSY,2003-03-19 14:00,ZJSY 191400Z 08004MPS 9999 SCT016 SCT200 24/20 Q1014 NOSIG
ZJSY,2003-03-19 15:00,ZJSY 191500Z 08003MPS 9999 SCT016 SCT200 24/20 Q1014 NOSIG
ZJSY,2003-03-19 16:00,ZJSY 191600Z 08004MPS CAVOK 24/20 Q1014 NOSIG
ZJSY,2003-03-19 17:00,ZJSY 191700Z 08004MPS CAVOK 23/20 Q1014 NOSIG
ZJSY,2003-03-19 18:00,ZJSY 191800Z AUTO 08003MPS //// // ////// 23/20 Q1013 NOSIG
ZJSY,2003-03-19 20:00,ZJSY 192000Z AUTO 06004MPS //// // ////// 23/20 Q1012 NOSIG
ZJSY,2003-03-19 21:00,ZJSY 192100Z AUTO 07003MPS //// // ////// 23/20 Q1012 NOSIG
ZJSY,2003-03-19 22:00,ZJSY 192200Z 08003MPS 9999 BKN017 BKN200 24/20 Q1013 NOSIG
ZJSY,2003-03-19 23:00,ZJSY 192300Z 08003MPS 9999 BKN017 BKN200 24/20 Q1013 NOSIG
ZJSY,2003-03-20 00:00,ZJSY 200000Z 07003MPS 9999 SCT017 BKN046 BKN230 24/20 Q1014 NOSIG
ZJSY,2003-03-20 01:00,ZJSY 200100Z 06004MPS 9999 SCT017 BKN040 BKN230 25/20 Q1015 NOSIG
ZJSY,2003-03-20 02:00,ZJSY 200200Z 06005MPS CAVOK 27/20 Q1015 NOSIG
ZJSY,2003-03-20 03:00,ZJSY 200300Z 10003MPS 9999 FEW020 BKN046 BKN230 27/20 Q1015 NOSIG
ZJSY,2003-03-20 05:00,ZJSY 200500Z 16004MPS 9999 SCT020 BKN230 28/20 Q1014 NOSIG
ZJSY,2003-03-20 06:00,ZJSY 200600Z 16004MPS 9999 FEW020 SCT050 BKN230 28/20 Q1013 NOSIG
ZJSY,2003-03-20 07:00,ZJSY 200700Z 16004MPS 9999 SCT020 BKN046 BKN230 28/21 Q1013 NOSIG
ZJSY,2003-03-20 08:00,ZJSY 200800Z 14004MPS 9999 SCT020 SCT046 BKN230 27/20 Q1012 NOSIG
ZJSY,2003-03-20 09:00,ZJSY 200900Z 14003MPS 9999 FEW020 BKN046 BKN230 27/20 Q1012 NOSIG
ZJSY,2003-03-20 10:00,ZJSY 201000Z 13003MPS 9999 FEW020 BKN100 26/20 Q1012 NOSIG
ZJSY,2003-03-20 11:00,ZJSY 201100Z 13003MPS 9999 SCT012 SCT040 BKN100 26/21 Q1013 NOSIG
ZJSY,2003-03-20 12:00,ZJSY 201200Z 08003MPS 9999 FEW012 SCT040 BKN100 25/20 Q1013 NOSIG
ZJSY,2003-03-20 13:00,ZJSY 201300Z 08003MPS 9999 FEW012 SCT040 BKN100 25/21 Q1014 NOSIG
ZJSY,2003-03-20 14:00,ZJSY 201400Z 08002MPS 9999 FEW012 BKN050 25/21 Q1015 NOSIG
ZJSY,2003-03-20 15:00,ZJSY 201500Z 08004MPS 9999 FEW012 BKN050 24/21 Q1014 NOSIG
ZJSY,2003-03-20 17:00,ZJSY 201700Z AUTO 08003MPS //// // ////// 24/20 Q1015 NOSIG
ZJSY,2003-03-20 18:00,ZJSY 201800Z AUTO 08004MPS //// // ////// 24/19 Q1014 NOSIG
ZJSY,2003-03-20 19:00,ZJSY 201900Z AUTO 06004MPS //// // ////// 23/19 Q1014 NOSIG
ZJSY,2003-03-20 20:00,ZJSY 202000Z AUTO 07002MPS //// // ////// 23/19 Q1013 NOSIG
ZJSY,2003-03-20 21:00,ZJSY 202100Z AUTO 08004MPS //// // ////// 23/19 Q1013 NOSIG
ZJSY,2003-03-20 22:00,ZJSY 202200Z 07004MPS 9999 FEW013 BKN050 23/19 Q1013 NOSIG
ZJSY,2003-03-20 23:00,ZJSY 202300Z 08004MPS 9999 FEW013 SCT050 BKN230 22/18 Q1015 NOSIG
ZJSY,2003-03-21 00:00,ZJSY 210000Z 05006MPS 9999 FEW013 SCT050 BKN230 24/19 Q1015 NOSIG
ZJSY,2003-03-21 01:00,ZJSY 210100Z 07006MPS 9999 FEW018 SCT050 BKN230 25/19 Q1016 NOSIG
ZJSY,2003-03-21 02:00,ZJSY 210200Z 06007MPS 9999 FEW018 BKN050 BKN230 25/19 Q1017 NOSIG
ZJSY,2003-03-21 03:00,ZJSY 210300Z 07006MPS 9999 FEW018 BKN043 BKN230 26/19 Q1017 NOSIG
ZJSY,2003-03-21 04:00,ZJSY 210400Z 06005MPS 9999 FEW018 BKN043 BKN230 27/19 Q1017 NOSIG
ZJSY,2003-03-21 05:00,ZJSY 210500Z 08006MPS 9999 FEW018 BKN043 BKN230 26/19 Q1016 NOSIG
ZJSY,2003-03-21 06:00,ZJSY 210600Z 08005MPS 9999 FEW018 BKN050 BKN230 27/19 Q1015 NOSIG
ZJSY,2003-03-21 07:00,ZJSY 210700Z 06005MPS 9999 FEW018 BKN043 BKN230 26/19 Q1015 NOSIG
ZJSY,2003-03-21 08:00,ZJSY 210800Z 06005MPS 9999 FEW018 BKN040 BKN230 26/19 Q1014 NOSIG
ZJSY,2003-03-21 09:00,ZJSY 210900Z 08006MPS 9999 SCT018 BKN043 BKN230 26/19 Q1014 NOSIG
ZJSY,2003-03-21 10:00,ZJSY 211000Z 07005MPS 9999 BKN043 25/19 Q1015 NOSIG
ZJSY,2003-03-21 11:00,ZJSY 211100Z 07004MPS 9999 FEW018 BKN043 25/19 Q1015 NOSIG
ZJSY,2003-03-21 12:00,ZJSY 211200Z 08004MPS 9999 FEW013 OVC043 24/19 Q1016 NOSIG
ZJSY,2003-03-21 13:00,ZJSY 211300Z 08005MPS 9999 FEW013 OVC043 24/19 Q1016 NOSIG
ZJSY,2003-03-21 14:00,ZJSY 211400Z 08004MPS 9999 SCT013 OVC043 23/19 Q1017 NOSIG
ZJSY,2003-03-21 15:00,ZJSY 211500Z 10002MPS 9999 -RA SCT011 OVC040 23/20 Q1018 NOSIG
ZJSY,2003-03-21 16:00,ZJSY 211600Z 10003MPS 9999 SCT011 OVC040 22/19 Q1018 NOSIG
ZJSY,2003-03-21 17:00,ZJSY 211700Z 09001MPS 9999 FEW013 OVC040 22/20 Q1017 NOSIG
ZJSY,2003-03-21 18:00,ZJSY 211800Z AUTO 10002MPS //// // ////// 22/19 Q1017 NOSIG
ZJSY,2003-03-21 19:00,ZJSY 211900Z AUTO 11001MPS //// // ////// 22/20 Q1016 NOSIG
ZJSY,2003-03-21 20:00,ZJSY 212000Z AUTO 07003MPS //// // ////// 22/19 Q1016 NOSIG
ZJSY,2003-03-21 21:00,ZJSY 212100Z AUTO 08002MPS //// // ////// 22/19 Q1015 NOSIG
ZJSY,2003-03-21 22:00,ZJSY 212200Z 08002MPS 9999 FEW013 OVC040 23/19 Q1015 NOSIG
ZJSY,2003-03-21 23:00,ZJSY 212300Z 08002MPS 9999 FEW018 OVC040 23/19 Q1016 NOSIG
ZJSY,2003-03-22 00:00,ZJSY 220000Z 06003MPS 9999 SCT013 BKN033 OVC040 23/19 Q1016 NOSIG
ZJSY,2003-03-22 01:00,ZJSY 220100Z 06003MPS 8000 -RA SCT012 OVC026 23/19 Q1017 NOSIG
ZJSY,2003-03-22 02:00,ZJSY 220200Z 19002MPS 8000 SCT012 OVC026 23/20 Q1018 NOSIG
ZJSY,2003-03-22 03:00,ZJSY 220300Z 08004MPS 8000 BKN012 BKN033 25/20 Q1018 NOSIG
ZJSY,2003-03-22 04:00,ZJSY 220400Z 09005MPS 9999 BKN014 BKN033 25/20 Q1017 NOSIG
ZJSY,2003-03-22 05:00,ZJSY 220500Z 09005MPS 9999 BKN014 BKN033 25/20 Q1017 NOSIG
ZJSY,2003-03-22 06:00,ZJSY 220600Z 06006MPS 9999 SCT014 BKN033 26/20 Q1016 NOSIG
ZJSY,2003-03-22 07:00,ZJSY 220700Z 10007MPS 9999 SCT018 BKN260 28/19 Q1015 NOSIG
ZJSY,2003-03-22 08:00,ZJSY 220800Z 09007MPS 9999 SCT016 BKN040 27/19 Q1015 NOSIG
ZJSY,2003-03-22 09:00,ZJSY 220900Z 08006MPS 9999 SCT016 BKN040 26/19 Q1015 NOSIG
ZJSY,2003-03-22 10:00,ZJSY 221000Z 10004MPS CAVOK 25/19 Q1015 NOSIG
ZJSY,2003-03-22 11:00,ZJSY 221100Z 08006MPS CAVOK 24/18 Q1016 NOSIG
ZJSY,2003-03-22 12:00,ZJSY 221200Z 07005MPS CAVOK 24/18 Q1016 NOSIG
ZJSY,2003-03-22 13:00,ZJSY 221300Z 08004MPS CAVOK 24/18 Q1017 NOSIG
ZJSY,2003-03-22 14:00,ZJSY 221400Z 07004MPS CAVOK 24/18 Q1017 NOSIG
ZJSY,2003-03-22 15:00,ZJSY 221500Z 08003MPS CAVOK 23/18 Q1018 NOSIG
ZJSY,2003-03-22 16:00,ZJSY 221600Z 08004MPS 9999 FEW016 SCT043 BKN230 23/18 Q1017 NOSIG
ZJSY,2003-03-22 17:00,ZJSY 221700Z AUTO 07002MPS //// // ////// 23/18 Q1017 NOSIG
ZJSY,2003-03-22 18:00,ZJSY 221800Z AUTO 06004MPS //// // ////// 23/18 Q1016 NOSIG
ZJSY,2003-03-22 19:00,ZJSY 221900Z AUTO 10001MPS //// // ////// 23/18 Q1016 NOSIG
ZJSY,2003-03-22 20:00,ZJSY 222000Z AUTO 10002MPS //// // ////// 22/18 Q1015 NOSIG
ZJSY,2003-03-22 21:00,ZJSY 222100Z AUTO 07005MPS //// // ////// 23/18 Q1015 NOSIG
ZJSY,2003-03-22 22:00,ZJSY 222200Z 10002MPS CAVOK 22/18 Q1015 NOSIG
ZJSY,2003-03-22 23:00,ZJSY 222300Z 06004MPS CAVOK 22/18 Q1016 NOSIG
ZJSY,2003-03-23 00:00,ZJSY 230000Z 05005MPS CAVOK 24/17 Q1016 NOSIG
ZJSY,2003-03-23 01:00,ZJSY 230100Z 05006MPS CAVOK 26/18 Q1017 NOSIG
ZJSY,2003-03-23 02:00,ZJSY 230200Z 08006MPS CAVOK 28/18 Q1017 NOSIG
ZJSY,2003-03-23 03:00,ZJSY 230300Z 09007MPS CAVOK 28/18 Q1017 NOSIG
ZJSY,2003-03-23 04:00,ZJSY 230400Z 10006MPS CAVOK 29/19 Q1016 NOSIG
ZJSY,2003-03-23 05:00,ZJSY 230500Z 10006MPS CAVOK 29/20 Q1016 NOSIG
ZJSY,2003-03-23 06:00,ZJSY 230600Z 10006MPS CAVOK 30/20 Q1014 NOSIG
ZJSY,2003-03-23 07:00,ZJSY 230700Z 09008MPS CAVOK 29/18 Q1014 NOSIG
ZJSY,2003-03-23 08:00,ZJSY 230800Z 09006MPS CAVOK 29/18 Q1013 NOSIG
ZJSY,2003-03-23 09:00,ZJSY 230900Z 07008MPS CAVOK 28/19 Q1013 NOSIG
ZJSY,2003-03-23 10:00,ZJSY 231000Z 07007MPS CAVOK 27/18 Q1014 NOSIG
ZJSY,2003-03-23 11:00,ZJSY 231100Z 09004MPS CAVOK 26/20 Q1015 NOSIG
ZJSY,2003-03-23 12:00,ZJSY 231200Z 08003MPS CAVOK 25/20 Q1015 NOSIG
ZJSY,2003-03-23 13:00,ZJSY 231300Z 15001MPS CAVOK 25/20 Q1016 NOSIG
ZJSY,2003-03-23 14:00,ZJSY 231400Z 07002MPS CAVOK 24/20 Q1017 NOSIG
ZJSY,2003-03-23 15:00,ZJSY 231500Z 06002MPS CAVOK 25/20 Q1017 NOSIG
ZJSY,2003-03-23 16:00,ZJSY 231600Z 08003MPS CAVOK 24/20 Q1017 NOSIG
ZJSY,2003-03-23 17:00,ZJSY 231700Z 08003MPS CAVOK 24/20 Q1016 NOSIG
ZJSY,2003-03-23 18:00,ZJSY 231800Z 06002MPS CAVOK 23/20 Q1015 NOSIG
ZJSY,2003-03-23 19:00,ZJSY 231900Z AUTO 35001MPS //// // ////// 23/19 Q1015 NOSIG
ZJSY,2003-03-23 20:00,ZJSY 232000Z AUTO 14001MPS //// // ////// 22/19 Q1014 NOSIG
ZJSY,2003-03-23 21:00,ZJSY 232100Z AUTO 34002MPS //// // ////// 22/19 Q1014 NOSIG
ZJSY,2003-03-23 22:00,ZJSY 232200Z 32002MPS CAVOK 21/19 Q1015 NOSIG
ZJSY,2003-03-23 23:00,ZJSY 232300Z 36001MPS CAVOK 21/19 Q1015 NOSIG
ZJSY,2003-03-24 00:00,ZJSY 240000Z 00000MPS CAVOK 23/20 Q1016 NOSIG
ZJSY,2003-03-24 01:00,ZJSY 240100Z 08003MPS CAVOK 26/20 Q1016 NOSIG
ZJSY,2003-03-24 02:00,ZJSY 240200Z 07005MPS CAVOK 28/19 Q1017 NOSIG
ZJSY,2003-03-24 03:00,ZJSY 240300Z 07005MPS 9999 FEW016 BKN100 28/19 Q1017 NOSIG
ZJSY,2003-03-24 04:00,ZJSY 240400Z 10003MPS 9999 SCT016 BKN130 29/19 Q1016 NOSIG
ZJSY,2003-03-24 05:00,ZJSY 240500Z 24006MPS 9999 FEW013 SCT016 BKN130 26/20 Q1015 NOSIG
ZJSY,2003-03-24 06:00,ZJSY 240600Z 25005MPS 9999 SCT013 SCT016 BKN130 26/21 Q1014 NOSIG
ZJSY,2003-03-24 07:00,ZJSY 240700Z 21002MPS 9999 SCT013 SCT016 BKN130 26/21 Q1014 NOSIG
ZJSY,2003-03-24 08:00,ZJSY 240800Z 19002MPS 9999 SCT013 SCT016 BKN130 26/21 Q1013 NOSIG
ZJSY,2003-03-24 09:00,ZJSY 240900Z 11003MPS 3000 SARA BKN011 FEW023CB OVC033 23/21 Q1014 NOSIG
ZJSY,2003-03-24 10:00,ZJSY 241000Z 02003MPS 8000 -RA SCT011 OVC036 23/21 Q1014 RERA NOSIG
ZJSY,2003-03-24 11:00,ZJSY 241100Z 05002MPS 9999 BKN043 23/20 Q1015 NOSIG
ZJSY,2003-03-24 12:00,ZJSY 241200Z 05002MPS 9999 BKN043 23/19 Q1015 NOSIG
ZJSY,2003-03-24 13:00,ZJSY 241300Z 02002MPS 9999 BKN046 23/19 Q1016 NOSIG
ZJSY,2003-03-24 14:00,ZJSY 241400Z 06003MPS 9999 BKN046 24/19 Q1016 NOSIG
ZJSY,2003-03-24 15:00,ZJSY 241500Z 06002MPS 9999 BKN046 24/18 Q1017 NOSIG
ZJSY,2003-03-24 16:00,ZJSY 241600Z 06003MPS CAVOK 23/18 Q1017 NOSIG
ZJSY,2003-03-24 17:00,ZJSY 241700Z 05003MPS CAVOK 23/18 Q1016 NOSIG
ZJSY,2003-03-24 18:00,ZJSY 241800Z AUTO 07002MPS //// // ////// 22/18 Q1016 NOSIG
ZJSY,2003-03-24 19:00,ZJSY 241900Z AUTO 14001MPS //// // ////// 22/18 Q1016 NOSIG
ZJSY,2003-03-24 20:00,ZJSY 242000Z AUTO 05002MPS //// // ////// 22/18 Q1015 NOSIG
ZJSY,2003-03-24 21:00,ZJSY 242100Z AUTO 07003MPS //// // ////// 22/18 Q1015 NOSIG
ZJSY,2003-03-24 22:00,ZJSY 242200Z 06004MPS CAVOK 23/17 Q1015 NOSIG
ZJSY,2003-03-24 23:00,ZJSY 242300Z 05005MPS CAVOK 23/17 Q1015 NOSIG
ZJSY,2003-03-25 00:00,ZJSY 250000Z 06004MPS CAVOK 24/17 Q1016 NOSIG
ZJSY,2003-03-25 01:00,ZJSY 250100Z 06006MPS CAVOK 25/18 Q1017 NOSIG
ZJSY,2003-03-25 03:00,ZJSY 250300Z 05007MPS CAVOK 28/17 Q1017 NOSIG
ZJSY,2003-03-25 04:00,ZJSY 250400Z 06005MPS CAVOK 29/17 Q1017 NOSIG
ZJSY,2003-03-25 05:00,ZJSY 250500Z 11005MPS CAVOK 30/18 Q1016 NOSIG
ZJSY,2003-03-25 06:00,ZJSY 250600Z 10006MPS CAVOK 29/18 Q1015 NOSIG
ZJSY,2003-03-25 07:00,ZJSY 250700Z 09006MPS CAVOK 29/19 Q1014 NOSIG
ZJSY,2003-03-25 08:00,ZJSY 250800Z 10006MPS CAVOK 28/19 Q1014 NOSIG
ZJSY,2003-03-25 09:00,ZJSY 250900Z 10006MPS CAVOK 27/19 Q1014 NOSIG
ZJSY,2003-03-25 10:00,ZJSY 251000Z 09007MPS 9999 FEW020 BKN260 27/19 Q1014 NOSIG
ZJSY,2003-03-25 11:00,ZJSY 251100Z 09006MPS 9999 FEW020 BKN260 25/19 Q1015 NOSIG
ZJSY,2003-03-25 12:00,ZJSY 251200Z 07005MPS 9999 FEW020 BKN260 24/19 Q1015 NOSIG
ZJSY,2003-03-25 13:00,ZJSY 251300Z 08004MPS CAVOK 24/19 Q1016 NOSIG
ZJSY,2003-03-25 14:00,ZJSY 251400Z 06002MPS CAVOK 23/19 Q1016 NOSIG
ZJSY,2003-03-25 15:00,ZJSY 251500Z 00000MPS CAVOK 23/18 Q1017 NOSIG
ZJSY,2003-03-25 16:00,ZJSY 251600Z 06002MPS CAVOK 23/18 Q1017 NOSIG
ZJSY,2003-03-25 17:00,ZJSY 251700Z 04004MPS CAVOK 23/18 Q1016 NOSIG
ZJSY,2003-03-25 18:00,ZJSY 251800Z AUTO 05003MPS //// // ////// 23/18 Q1016 NOSIG
ZJSY,2003-03-25 19:00,ZJSY 251900Z AUTO 06004MPS //// // ////// 23/18 Q1015 NOSIG
ZJSY,2003-03-25 20:00,ZJSY 252000Z AUTO 04005MPS //// // ////// 23/18 Q1014 NOSIG
ZJSY,2003-03-25 21:00,ZJSY 252100Z AUTO 06003MPS //// // ////// 23/18 Q1015 NOSIG
ZJSY,2003-03-25 22:00,ZJSY 252200Z 05003MPS CAVOK 23/18 Q1015 NOSIG
ZJSY,2003-03-25 23:00,ZJSY 252300Z 06004MPS CAVOK 23/18 Q1016 NOSIG
ZJSY,2003-03-26 00:00,ZJSY 260000Z 06003MPS CAVOK 25/18 Q1016 NOSIG
ZJSY,2003-03-26 01:00,ZJSY 260100Z 08006MPS CAVOK 27/19 Q1017 NOSIG
ZJSY,2003-03-26 02:00,ZJSY 260200Z 08007MPS CAVOK 27/19 Q1017 NOSIG
ZJSY,2003-03-26 03:00,ZJSY 260300Z 09005MPS 9999 FEW020 BKN100 29/19 Q1017 NOSIG
ZJSY,2003-03-26 04:00,ZJSY 260400Z 09005MPS 9999 FEW020 BKN100 29/19 Q1016 NOSIG
ZJSY,2003-03-26 05:00,ZJSY 260500Z 09004MPS 9999 FEW020 BKN100 29/19 Q1015 NOSIG
ZJSY,2003-03-26 06:00,ZJSY 260600Z 13003MPS 9999 FEW020 BKN100 30/19 Q1014 NOSIG
ZJSY,2003-03-26 07:00,ZJSY 260700Z 14003MPS 9999 FEW020 BKN100 28/20 Q1014 NOSIG
ZJSY,2003-03-26 08:00,ZJSY 260800Z 14004MPS CAVOK 28/20 Q1013 NOSIG
ZJSY,2003-03-26 09:00,ZJSY 260900Z 12003MPS CAVOK 27/20 Q1013 NOSIG
ZJSY,2003-03-26 10:00,ZJSY 261000Z 08005MPS CAVOK 27/20 Q1013 NOSIG
ZJSY,2003-03-26 11:00,ZJSY 261100Z 08005MPS 9999 BKN040 BKN100 26/20 Q1014 NOSIG
ZJSY,2003-03-26 12:00,ZJSY 261200Z 10002MPS 9999 FEW013 SCT040 25/20 Q1015 NOSIG
ZJSY,2003-03-26 13:00,ZJSY 261300Z 08004MPS 9999 SCT040 SCT200 24/20 Q1015 NOSIG
ZJSY,2003-03-26 14:00,ZJSY 261400Z 09003MPS CAVOK 25/20 Q1015 NOSIG
ZJSY,2003-03-26 15:00,ZJSY 261500Z 08004MPS CAVOK 24/20 Q1015 NOSIG
ZJSY,2003-03-26 16:00,ZJSY 261600Z 07003MPS CAVOK 24/20 Q1015 NOSIG
ZJSY,2003-03-26 17:00,ZJSY 261700Z 08003MPS CAVOK 24/20 Q1014 NOSIG
ZJSY,2003-03-26 18:00,ZJSY 261800Z AUTO 06003MPS //// // ////// 23/20 Q1014 NOSIG
ZJSY,2003-03-26 19:00,ZJSY 261900Z AUTO 05002MPS //// // ////// 23/20 Q1014 NOSIG
ZJSY,2003-03-26 20:00,ZJSY 262000Z AUTO 00000MPS //// // ////// 23/20 Q1013 NOSIG
ZJSY,2003-03-27 01:00,ZJSY 270100Z 14001MPS 9999 BKN046 26/21 Q1016 NOSIG
ZJSY,2003-03-27 02:00,ZJSY 270200Z 08002MPS CAVOK 28/21 Q1016 NOSIG
ZJSY,2003-03-27 03:00,ZJSY 270300Z 11003MPS 9999 FEW015 SCT046 BKN200 29/21 Q1016 NOSIG
ZJSY,2003-03-27 04:00,ZJSY 270400Z 16003MPS 9999 SCT015 BKN200 28/21 Q1015 NOSIG
ZJSY,2003-03-27 05:00,ZJSY 270500Z 17004MPS 9999 SCT015 BKN230 29/21 Q1014 NOSIG
ZJSY,2003-03-27 06:00,ZJSY 270600Z 16004MPS 9999 FEW015 BKN230 28/22 Q1013 NOSIG
ZJSY,2003-03-27 07:00,ZJSY 270700Z 16004MPS 9999 FEW015 BKN230 28/22 Q1012 NOSIG
ZJSY,2003-03-27 08:00,ZJSY 270800Z 17004MPS 9999 SCT018 FEW026TCU BKN230 27/22 Q1012 NOSIG
ZJSY,2003-03-27 09:00,ZJSY 270900Z 15003MPS 9999 FEW018 BKN043 BKN230 27/22 Q1012 NOSIG
ZJSY,2003-03-27 10:00,ZJSY 271000Z 16002MPS 9999 FEW018 BKN043 BKN230 26/22 Q1012 NOSIG
ZJSY,2003-03-27 11:00,ZJSY 271100Z 14002MPS 9999 FEW018 BKN043 BKN230 26/22 Q1012 NOSIG
ZJSY,2003-03-27 12:00,ZJSY 271200Z 09004MPS 9999 FEW016 BKN043 BKN230 25/21 Q1012 NOSIG
ZJSY,2003-03-27 13:00,ZJSY 271300Z 09003MPS 9999 FEW016 BKN043 BKN230 25/21 Q1013 NOSIG
ZJSY,2003-03-27 14:00,ZJSY 271400Z 10003MPS 9999 FEW016 BKN043 BKN230 25/21 Q1013 NOSIG
ZJSY,2003-03-27 15:00,ZJSY 271500Z 07003MPS 9999 FEW016 BKN043 BKN230 24/21 Q1013 NOSIG
ZJSY,2003-03-27 16:00,ZJSY 271600Z 05002MPS 9999 BKN043 BKN230 25/21 Q1013 NOSIG
ZJSY,2003-03-27 17:00,ZJSY 271700Z AUTO 10001MPS //// // ////// 25/21 Q1013 NOSIG
ZJSY,2003-03-27 18:00,ZJSY 271800Z AUTO 00000MPS //// // ////// 25/21 Q1012 NOSIG
ZJSY,2003-03-27 20:00,ZJSY 272000Z AUTO 08001MPS //// // ////// 24/21 Q1012 NOSIG
ZJSY,2003-03-27 21:00,ZJSY 272100Z AUTO 00000MPS //// // ////// 24/21 Q1012 NOSIG
ZJSY,2003-03-27 22:00,ZJSY 272200Z 00000MPS 9999 BKN043 BKN230 24/21 Q1012 NOSIG
ZJSY,2003-03-27 23:00,ZJSY 272300Z 02001MPS 9999 FEW016 BKN043 BKN230 24/21 Q1012 NOSIG
ZJSY,2003-03-28 00:00,ZJSY 280000Z 02001MPS 9999 BKN043 BKN230 25/21 Q1013 NOSIG
ZJSY,2003-03-28 08:00,ZJSY 280800Z 19003MPS CAVOK 27/22 Q1010 NOSIG
ZJSY,2003-03-28 09:00,ZJSY 280900Z 18003MPS 9999 FEW018 SCT260 26/22 Q1010 NOSIG
ZJSY,2003-03-28 10:00,ZJSY 281000Z 17002MPS 9999 SCT016 SCT260 26/23 Q1010 NOSIG
ZJSY,2003-03-28 11:00,ZJSY 281100Z 17002MPS 9999 BKN015 BKN030 25/22 Q1010 NOSIG
ZJSY,2003-03-28 12:00,ZJSY 281200Z 15002MPS 9999 SCT015 BKN030 25/22 Q1010 NOSIG
ZJSY,2003-03-28 13:00,ZJSY 281300Z 06003MPS 9999 SCT015 SCT040 25/21 Q1011 NOSIG
ZJSY,2003-03-28 14:00,ZJSY 281400Z 08004MPS 9999 SCT015 SCT050 25/21 Q1012 NOSIG
ZJSY,2003-03-28 15:00,ZJSY 281500Z 07003MPS 9999 FEW016 SCT050 24/20 Q1012 NOSIG
ZJSY,2003-03-28 16:00,ZJSY 281600Z 06002MPS CAVOK 24/20 Q1012 NOSIG
ZJSY,2003-03-28 17:00,ZJSY 281700Z 09002MPS CAVOK 24/20 Q1012 NOSIG
ZJSY,2003-03-28 18:00,ZJSY 281800Z AUTO 01001MPS //// // ////// 24/20 Q1011 NOSIG
ZJSY,2003-03-28 19:00,ZJSY 281900Z AUTO 36001MPS //// // ////// 23/20 Q1010 NOSIG
ZJSY,2003-03-28 20:00,ZJSY 282000Z AUTO 01001MPS //// // ////// 24/20 Q1010 NOSIG
ZJSY,2003-03-28 21:00,ZJSY 282100Z AUTO 09001MPS //// // ////// 24/20 Q1010 NOSIG
ZJSY,2003-03-28 22:00,ZJSY 282200Z 00000MPS CAVOK 23/20 Q1010 NOSIG
ZJSY,2003-03-28 23:00,ZJSY 282300Z 33001MPS CAVOK 22/20 Q1010 NOSIG
ZJSY,2003-03-29 00:00,ZJSY 290000Z 32001MPS CAVOK 24/20 Q1011 NOSIG
ZJSY,2003-03-29 01:00,ZJSY 290100Z 08003MPS CAVOK 27/20 Q1012 NOSIG
ZJSY,2003-03-29 02:00,ZJSY 290200Z 13002MPS CAVOK 27/20 Q1012 NOSIG
ZJSY,2003-03-29 03:00,ZJSY 290300Z 15003MPS CAVOK 28/20 Q1012 NOSIG
ZJSY,2003-03-29 04:00,ZJSY 290400Z 19003MPS 9999 FEW016 BKN260 28/21 Q1012 NOSIG
ZJSY,2003-03-29 05:00,ZJSY 290500Z 16004MPS 9999 FEW016 BKN260 29/22 Q1011 NOSIG
ZJSY,2003-03-29 06:00,ZJSY 290600Z 15005MPS CAVOK 29/21 Q1010 NOSIG
ZJSY,2003-03-29 07:00,ZJSY 290700Z 15005MPS CAVOK 29/21 Q1009 NOSIG
ZJSY,2003-03-29 08:00,ZJSY 290800Z 15005MPS 9999 FEW016 29/22 Q1009 NOSIG
ZJSY,2003-03-29 09:00,ZJSY 290900Z 14004MPS 9999 FEW016 28/22 Q1009 NOSIG
ZJSY,2003-03-29 10:00,ZJSY 291000Z 13004MPS CAVOK 27/22 Q1009 NOSIG
ZJSY,2003-03-29 11:00,ZJSY 291100Z 12003MPS CAVOK 27/20 Q1010 NOSIG
ZJSY,2003-03-29 12:00,ZJSY 291200Z 09003MPS CAVOK 26/21 Q1010 NOSIG
ZJSY,2003-03-29 13:00,ZJSY 291300Z 07003MPS CAVOK 25/22 Q1011 NOSIG
ZJSY,2003-03-29 14:00,ZJSY 291400Z 07003MPS CAVOK 25/21 Q1011 NOSIG
ZJSY,2003-03-29 15:00,ZJSY 291500Z 06003MPS CAVOK 25/21 Q1012 NOSIG
ZJSY,2003-03-29 16:00,ZJSY 291600Z 07002MPS CAVOK 24/21 Q1011 NOSIG
ZJSY,2003-03-29 17:00,ZJSY 291700Z AUTO 02001MPS //// // ////// 24/21 Q1011 NOSIG
ZJSY,2003-03-29 18:00,ZJSY 291800Z AUTO 34002MPS //// // ////// 23/20 Q1011 NOSIG
ZJSY,2003-03-29 19:00,ZJSY 291900Z AUTO 34002MPS //// // ////// 23/20 Q1010 NOSIG
ZJSY,2003-03-29 20:00,ZJSY 292000Z AUTO 00000MPS //// // ////// 24/21 Q1010 NOSIG
ZJSY,2003-03-29 21:00,ZJSY 292100Z AUTO 06001MPS //// // ////// 23/20 Q1010 NOSIG
ZJSY,2003-03-29 22:00,ZJSY 292200Z 06002MPS CAVOK 23/20 Q1010 NOSIG
ZJSY,2003-03-29 23:00,ZJSY 292300Z 34001MPS CAVOK 23/20 Q1011 NOSIG
ZJSY,2003-03-30 00:00,ZJSY 300000Z 06002MPS CAVOK 25/22 Q1012 NOSIG
ZJSY,2003-03-30 01:00,ZJSY 300100Z 08004MPS 9999 SCT018 SCT300 27/21 Q1013 NOSIG
ZJSY,2003-03-30 02:00,ZJSY 300200Z 13003MPS 9999 SCT018 SCT300 28/21 Q1013 NOSIG
ZJSY,2003-03-30 03:00,ZJSY 300300Z 16003MPS 9999 SCT018 SCT120 27/21 Q1013 NOSIG
ZJSY,2003-03-30 04:00,ZJSY 300400Z 16003MPS 9999 FEW020 SCT300 28/22 Q1013 NOSIG
ZJSY,2003-03-30 05:00,ZJSY 300500Z 16003MPS 9999 FEW020 SCT300 28/22 Q1012 NOSIG
ZJSY,2003-03-30 06:00,ZJSY 300600Z 17003MPS 9999 FEW020 SCT300 28/22 Q1011 NOSIG
ZJSY,2003-03-30 07:00,ZJSY 300700Z 17004MPS CAVOK 28/21 Q1010 NOSIG
ZJSY,2003-03-30 08:00,ZJSY 300800Z 16003MPS CAVOK 28/22 Q1010 NOSIG
ZJSY,2003-03-30 09:00,ZJSY 300900Z 17003MPS CAVOK 28/22 Q1010 NOSIG
ZJSY,2003-03-30 10:00,ZJSY 301000Z 15002MPS CAVOK 27/21 Q1010 NOSIG
ZJSY,2003-03-30 11:00,ZJSY 301100Z 13003MPS CAVOK 26/22 Q1010 NOSIG
ZJSY,2003-03-30 12:00,ZJSY 301200Z 14002MPS CAVOK 26/22 Q1010 NOSIG
ZJSY,2003-03-30 13:00,ZJSY 301300Z 05002MPS CAVOK 26/21 Q1011 NOSIG
ZJSY,2003-03-30 14:00,ZJSY 301400Z 06002MPS CAVOK 26/21 Q1012 NOSIG
ZJSY,2003-03-30 15:00,ZJSY 301500Z 36001MPS CAVOK 25/21 Q1012 NOSIG
ZJSY,2003-03-30 16:00,ZJSY 301600Z 34002MPS CAVOK 24/21 Q1012 NOSIG
ZJSY,2003-03-30 17:00,ZJSY 301700Z 01001MPS CAVOK 24/21 Q1011 NOSIG
ZJSY,2003-03-30 18:00,ZJSY 301800Z AUTO 00000MPS //// // ////// 24/21 Q1010 NOSIG
ZJSY,2003-03-30 19:00,ZJSY 301900Z AUTO 35001MPS //// // ////// 24/21 Q1010 NOSIG
ZJSY,2003-03-30 20:00,ZJSY 302000Z AUTO 04001MPS //// // ////// 25/22 Q1010 NOSIG
ZJSY,2003-03-30 21:00,ZJSY 302100Z AUTO 03001MPS //// // ////// 25/22 Q1010 NOSIG
ZJSY,2003-03-30 22:00,ZJSY 302200Z 34001MPS 9999 FEW020 SCT230 25/22 Q1011 NOSIG
ZJSY,2003-03-30 23:00,ZJSY 302300Z 35001MPS 9999 SCT013 BKN040 25/22 Q1011 NOSIG
ZJSY,2003-03-31 00:00,ZJSY 310000Z 06002MPS 9999 SCT015 BKN050 27/22 Q1012 NOSIG
ZJSY,2003-03-31 01:00,ZJSY 310100Z 10001MPS 9999 SCT015 BKN050 27/23 Q1012 NOSIG
ZJSY,2003-03-31 02:00,ZJSY 310200Z 12002MPS 9999 BKN016 BKN053 28/22 Q1013 NOSIG
ZJSY,2003-03-31 03:00,ZJSY 310300Z 15002MPS 9999 SCT016 BKN053 28/23 Q1013 NOSIG
ZJSY,2003-03-31 04:00,ZJSY 310400Z 15003MPS 9999 SCT016 BKN053 28/23 Q1012 NOSIG
ZJSY,2003-03-31 05:00,ZJSY 310500Z 14003MPS 9999 SCT016 BKN230 29/24 Q1011 NOSIG
ZJSY,2003-03-31 06:00,ZJSY 310600Z 16003MPS 9999 SCT016 BKN230 28/23 Q1010 NOSIG
ZJSY,2003-03-31 07:00,ZJSY 310700Z 19002MPS 9999 FEW016 BKN230 28/23 Q1009 NOSIG
ZJSY,2003-03-31 08:00,ZJSY 310800Z 19001MPS 9999 FEW016 BKN230 28/23 Q1008 NOSIG
ZJSY,2003-03-31 09:00,ZJSY 310900Z 14002MPS CAVOK 28/22 Q1008 NOSIG
ZJSY,2003-03-31 10:00,ZJSY 311000Z 17001MPS CAVOK 28/22 Q1008 NOSIG
ZJSY,2003-03-31 11:00,ZJSY 311100Z 11001MPS CAVOK 27/22 Q1008 NOSIG
ZJSY,2003-03-31 12:00,ZJSY 311200Z 12002MPS CAVOK 26/22 Q1008 NOSIG
ZJSY,2003-03-31 13:00,ZJSY 311300Z 09002MPS CAVOK 26/23 Q1009 NOSIG
ZJSY,2003-03-31 14:00,ZJSY 311400Z 01001MPS CAVOK 25/22 Q1010 NOSIG
ZJSY,2003-03-31 15:00,ZJSY 311500Z 35001MPS 9999 SCT013 25/22 Q1010 NOSIG
ZJSY,2003-03-31 16:00,ZJSY 311600Z 35001MPS CAVOK 25/22 Q1010 NOSIG
ZJSY,2003-03-31 17:00,ZJSY 311700Z AUTO 36001MPS //// // ////// 25/22 Q1010 NOSIG
ZJSY,2003-03-31 18:00,ZJSY 311800Z AUTO 35001MPS //// // ////// 25/22 Q1009 NOSIG
ZJSY,2003-03-31 19:00,ZJSY 311900Z AUTO 35002MPS //// // ////// 25/22 Q1008 NOSIG
ZJSY,2003-03-31 20:00,ZJSY 312000Z AUTO 33001MPS //// // ////// 25/22 Q1008 NOSIG
ZJSY,2003-03-31 21:00,ZJSY 312100Z AUTO 33001MPS //// // ////// 25/22 Q1008 NOSIG
ZJSY,2003-03-31 22:00,ZJSY 312200Z 34001MPS 9999 BKN013 SCT016 25/22 Q1008 NOSIG
ZJSY,2003-03-31 23:00,ZJSY 312300Z 01001MPS 9999 SCT016 BKN200 25/22 Q1009 NOSIG
ZJSY,2003-04-01 01:00,ZJSY 010100Z 10002MPS 9999 SCT016 BKN043 27/23 Q1010 NOSIG
ZJSY,2003-04-01 02:00,ZJSY 010200Z 14002MPS 9999 BKN015 BKN043 28/23 Q1010 NOSIG
ZJSY,2003-04-01 03:00,ZJSY 010300Z 16001MPS 9999 BKN015 BKN043 28/23 Q1010 NOSIG
ZJSY,2003-04-01 04:00,ZJSY 010400Z 15002MPS 9999 BKN015 BKN043 27/23 Q1010 NOSIG
ZJSY,2003-04-01 05:00,ZJSY 010500Z 18002MPS 9999 BKN015 BKN043 28/23 Q1009 NOSIG
ZJSY,2003-04-01 06:00,ZJSY 010600Z 18003MPS 9999 FEW018 SCT500 29/23 Q1008 NOSIG
ZJSY,2003-04-01 07:00,ZJSY 010700Z 18004MPS 9999 FEW018 SCT230 28/23 Q1007 NOSIG
ZJSY,2003-04-01 08:00,ZJSY 010800Z 19003MPS 9999 SCT018 SCT230 28/23 Q1006 NOSIG
ZJSY,2003-04-01 09:00,ZJSY 010900Z 19003MPS 9999 SCT018 28/23 Q1005 NOSIG
ZJSY,2003-04-01 10:00,ZJSY 011000Z 17002MPS 9999 FEW018 BKN230 27/23 Q1005 NOSIG
ZJSY,2003-04-01 11:00,ZJSY 011100Z 14001MPS 9999 FEW018 BKN230 27/23 Q1006 NOSIG
ZJSY,2003-04-01 12:00,ZJSY 011200Z 14002MPS 9999 FEW018 BKN230 26/23 Q1006 NOSIG
ZJSY,2003-04-01 13:00,ZJSY 011300Z 12001MPS 9999 FEW018 BKN230 26/23 Q1007 NOSIG
ZJSY,2003-04-01 14:00,ZJSY 011400Z 10001MPS 9999 SCT018 BKN230 26/23 Q1007 NOSIG
ZJSY,2003-04-01 15:00,ZJSY 011500Z 10002MPS 9999 SCT018 BKN230 26/23 Q1008 NOSIG
ZJSY,2003-04-01 16:00,ZJSY 011600Z 10001MPS 9999 SCT018 BKN230 26/23 Q1008 NOSIG
ZJSY,2003-04-01 17:00,ZJSY 011700Z AUTO 13001MPS //// // ////// 27/23 Q1007 NOSIG
ZJSY,2003-04-01 18:00,ZJSY 011800Z AUTO 16001MPS //// // ////// 26/23 Q1007 NOSIG
ZJSY,2003-04-01 19:00,ZJSY 011900Z AUTO 17002MPS //// // ////// 27/23 Q1006 NOSIG
ZJSY,2003-04-01 20:00,ZJSY 012000Z AUTO 07001MPS //// // ////// 26/23 Q1006 NOSIG
ZJSY,2003-04-01 21:00,ZJSY 012100Z AUTO 00000MPS //// // ////// 26/23 Q1005 NOSIG
ZJSY,2003-04-01 22:00,ZJSY 012200Z 12001MPS 9999 SCT016 BKN230 26/23 Q1006 NOSIG
ZJSY,2003-04-01 23:00,ZJSY 012300Z 11001MPS 9999 BKN016 FEW026TCU BKN230 26/23 Q1007 NOSIG
ZJSY,2003-04-02 00:00,ZJSY 020000Z 15001MPS 9999 SCT016 FEW026TCU BKN230 27/23 Q1008 NOSIG
ZJSY,2003-04-02 01:00,ZJSY 020100Z 13002MPS 9999 SCT016 BKN043 27/23 Q1009 NOSIG
ZJSY,2003-04-02 02:00,ZJSY 020200Z 15002MPS 9999 SCT016 SCT043 28/23 Q1009 NOSIG
ZJSY,2003-04-02 03:00,ZJSY 020300Z 15002MPS 9999 SCT016 FEW023TCU BKN043 28/24 Q1009 NOSIG
ZJSY,2003-04-02 05:00,ZJSY 020500Z 18002MPS 9999 SCT016 FEW023TCU SCT043 29/24 Q1008 NOSIG
ZJSY,2003-04-02 06:00,ZJSY 020600Z 20002MPS 9999 BKN016 FEW023TCU 28/24 Q1007 NOSIG
ZJSY,2003-04-02 07:00,ZJSY 020700Z 19002MPS 9999 SCT016 FEW023TCU 28/24 Q1006 NOSIG
ZJSY,2003-04-02 08:00,ZJSY 020800Z 16002MPS 9999 SCT016 29/24 Q1005 NOSIG
ZJSY,2003-04-02 09:00,ZJSY 020900Z 16002MPS 9999 FEW016 SCT300 28/24 Q1004 NOSIG
ZJSY,2003-04-02 10:00,ZJSY 021000Z 17002MPS 9999 FEW014 SCT300 28/24 Q1005 NOSIG
ZJSY,2003-04-02 11:00,ZJSY 021100Z 14001MPS 9999 FEW015 SCT300 27/24 Q1005 NOSIG
ZJSY,2003-04-02 12:00,ZJSY 021200Z 12002MPS 9999 FEW015 SCT300 27/24 Q1005 NOSIG
ZJSY,2003-04-02 13:00,ZJSY 021300Z 13002MPS 9999 FEW015 SCT300 26/24 Q1006 NOSIG
ZJSY,2003-04-02 14:00,ZJSY 021400Z 10001MPS 9999 BKN015 SCT300 27/24 Q1007 NOSIG
ZJSY,2003-04-02 15:00,ZJSY 021500Z 00000MPS CAVOK 26/24 Q1007 NOSIG
ZJSY,2003-04-02 16:00,ZJSY 021600Z 05001MPS CAVOK 26/23 Q1007 NOSIG
ZJSY,2003-04-02 17:00,ZJSY 021700Z 35001MPS 9999 BKN015 BKN300 26/23 Q1006 NOSIG
ZJSY,2003-04-02 18:00,ZJSY 021800Z AUTO 36001MPS //// // ////// 26/23 Q1006 NOSIG
ZJSY,2003-04-02 23:00,ZJSY 022300Z 06002MPS 9999 SCT012 BKN016 26/23 Q1007 NOSIG
ZJSY,2003-04-03 00:00,ZJSY 030000Z 08002MPS 9999 SCT012 BKN016 27/23 Q1008 NOSIG
ZJSY,2003-04-03 01:00,ZJSY 030100Z 11002MPS 9999 SCT013 SCT016 29/24 Q1009 NOSIG
ZJSY,2003-04-03 02:00,ZJSY 030200Z 12003MPS 9999 SCT013 SCT016 29/23 Q1009 NOSIG
ZJSY,2003-04-03 03:00,ZJSY 030300Z 12002MPS 9999 FEW013 SCT016 29/24 Q1009 NOSIG
ZJSY,2003-04-03 04:00,ZJSY 030400Z 13003MPS 9999 FEW013 SCT016 29/24 Q1008 NOSIG
ZJSY,2003-04-03 05:00,ZJSY 030500Z 16002MPS 9999 FEW013 BKN016 29/24 Q1008 NOSIG
ZJSY,2003-04-03 06:00,ZJSY 030600Z 14002MPS 9999 FEW013 BKN016 29/24 Q1006 NOSIG
ZJSY,2003-04-03 07:00,ZJSY 030700Z 14002MPS 9999 FEW016 29/24 Q1006 NOSIG
ZJSY,2003-04-03 08:00,ZJSY 030800Z 16002MPS CAVOK 29/24 Q1005 NOSIG
ZJSY,2003-04-03 09:00,ZJSY 030900Z 17002MPS CAVOK 29/24 Q1004 NOSIG
ZJSY,2003-04-03 10:00,ZJSY 031000Z 17002MPS CAVOK 28/24 Q1004 NOSIG
ZJSY,2003-04-03 11:00,ZJSY 031100Z 14001MPS CAVOK 27/24 Q1004 NOSIG
ZJSY,2003-04-03 12:00,ZJSY 031200Z 12001MPS CAVOK 27/24 Q1005
ZJSY,2003-04-03 13:00,ZJSY 031300Z 14002MPS CAVOK 27/24 Q1006
ZJSY,2003-04-03 14:00,ZJSY 031400Z 12002MPS 9999 SCT015 BKN200 27/24 Q1007
ZJSY,2003-04-03 15:00,ZJSY 031500Z 11002MPS 9999 BKN018 SCT200 27/24 Q1007
ZJSY,2003-04-03 16:00,ZJSY 031600Z 06003MPS 9999 BKN018 SCT200 27/24 Q1007
ZJSY,2003-04-03 17:00,ZJSY 031700Z AUTO 05002MPS //// // ////// 27/24 Q1007
ZJSY,2003-04-03 18:00,ZJSY 031800Z AUTO 09001MPS //// // ////// 27/24 Q1006
ZJSY,2003-04-03 19:00,ZJSY 031900Z AUTO 09002MPS //// // ////// 27/24 Q1006
ZJSY,2003-04-03 20:00,ZJSY 032000Z AUTO 05002MPS //// // ////// 27/24 Q1006
ZJSY,2003-04-03 21:00,ZJSY 032100Z AUTO 36001MPS //// // ////// 26/23 Q1006
ZJSY,2003-04-03 22:00,ZJSY 032200Z 34002MPS CAVOK 26/23 Q1007
ZJSY,2003-04-03 23:00,ZJSY 032300Z 34001MPS CAVOK 25/23 Q1007
ZJSY,2003-04-04 00:00,ZJSY 040000Z 00000MPS CAVOK 27/23 Q1008
ZJSY,2003-04-04 01:00,ZJSY 040100Z 11002MPS CAVOK 29/23 Q1009
ZJSY,2003-04-04 02:00,ZJSY 040200Z 15001MPS CAVOK 30/24 Q1009
ZJSY,2003-04-04 03:00,ZJSY 040300Z 14002MPS 9999 FEW014 BKN260 29/24 Q1009
ZJSY,2003-04-04 04:00,ZJSY 040400Z 18002MPS 9999 BKN015 29/24 Q1009
ZJSY,2003-04-04 05:00,ZJSY 040500Z 15002MPS 9999 BKN015 30/24 Q1008
ZJSY,2003-04-04 06:00,ZJSY 040600Z 16002MPS 9999 BKN015 29/24 Q1007
ZJSY,2003-04-04 07:00,ZJSY 040700Z 18003MPS 9999 BKN015 29/24 Q1006
ZJSY,2003-04-04 08:00,ZJSY 040800Z 16003MPS 9999 BKN015 29/24 Q1006
ZJSY,2003-04-04 09:00,ZJSY 040900Z 17003MPS 9999 SCT015 28/24 Q1006
ZJSY,2003-04-04 10:00,ZJSY 041000Z 16002MPS 9999 FEW015 28/24 Q1006
ZJSY,2003-04-04 11:00,ZJSY 041100Z 15001MPS 9999 FEW015 SCT260 28/24 Q1006
ZJSY,2003-04-04 12:00,ZJSY 041200Z 16001MPS 9999 FEW015 SCT260 27/24 Q1007
ZJSY,2003-04-04 13:00,ZJSY 041300Z 12001MPS 9999 FEW020 SCT260 27/24 Q1007
ZJSY,2003-04-04 14:00,ZJSY 041400Z 14001MPS 9999 FEW020 SCT260 27/24 Q1008
ZJSY,2003-04-04 15:00,ZJSY 041500Z 08002MPS 9999 SCT020 BKN260 27/24 Q1008
ZJSY,2003-04-04 16:00,ZJSY 041600Z 07002MPS 9999 SCT020 BKN260 27/24 Q1008
ZJSY,2003-04-04 17:00,ZJSY 041700Z AUTO 10002MPS //// // ////// 26/24 Q1008
ZJSY,2003-04-04 18:00,ZJSY 041800Z AUTO 07001MPS //// // ////// 26/24 Q1007
ZJSY,2003-04-04 19:00,ZJSY 041900Z AUTO 05002MPS //// // ////// 26/23 Q1007
ZJSY,2003-04-04 21:00,ZJSY 042100Z AUTO 08003MPS //// // ////// 26/23 Q1008
ZJSY,2003-04-04 22:00,ZJSY 042200Z 10003MPS 9999 SCT015 BKN060 26/23 Q1009
ZJSY,2003-04-04 23:00,ZJSY 042300Z 10003MPS 9999 SCT015 BKN100 26/23 Q1010
ZJSY,2003-04-05 00:00,ZJSY 050000Z 09002MPS 9999 SCT015 SCT050 27/23 Q1011
ZJSY,2003-04-05 01:00,ZJSY 050100Z 10003MPS CAVOK 28/22 Q1011
ZJSY,2003-04-05 02:00,ZJSY 050200Z 09005MPS CAVOK 30/22 Q1012
ZJSY,2003-04-05 03:00,ZJSY 050300Z 05005MPS CAVOK 31/22 Q1012
ZJSY,2003-04-05 04:00,ZJSY 050400Z 10006MPS 9999 SCT016 SCT043 BKN230 31/21 Q1011
ZJSY,2003-04-05 05:00,ZJSY 050500Z 09006MPS 9999 SCT016 BKN043 BKN230 32/22 Q1011
ZJSY,2003-04-05 06:00,ZJSY 050600Z 10006MPS CAVOK 32/22 Q1010
ZJSY,2003-04-05 07:00,ZJSY 050700Z 10007MPS CAVOK 31/22 Q1009
ZJSY,2003-04-05 08:00,ZJSY 050800Z 09008MPS CAVOK 31/22 Q1009
ZJSY,2003-04-05 09:00,ZJSY 050900Z 09008MPS 9999 SCT016 BKN230 29/21 Q1008
ZJSY,2003-04-05 10:00,ZJSY 051000Z 09006MPS 9999 SCT016 BKN066 29/22 Q1009
ZJSY,2003-04-05 11:00,ZJSY 051100Z 08007MPS 9999 SCT016 SCT066 27/20 Q1010
ZJSY,2003-04-05 12:00,ZJSY 051200Z 08006MPS 9999 SCT016 SCT066 27/20 Q1011
ZJSY,2003-04-05 13:00,ZJSY 051300Z 08006MPS 9999 FEW013 SCT200 26/20 Q1011
ZJSY,2003-04-05 14:00,ZJSY 051400Z 07005MPS 9999 FEW013 SCT200 26/20 Q1012
ZJSY,2003-04-05 15:00,ZJSY 051500Z 08004MPS 9999 FEW013 SCT200 25/21 Q1012
ZJSY,2003-04-05 16:00,ZJSY 051600Z 08003MPS CAVOK 26/21 Q1012
ZJSY,2003-04-05 17:00,ZJSY 051700Z AUTO 08003MPS //// // ////// 25/21 Q1011
ZJSY,2003-04-05 18:00,ZJSY 051800Z AUTO 08003MPS //// // ////// 24/21 Q1011
ZJSY,2003-04-05 19:00,ZJSY 051900Z AUTO 09003MPS //// // ////// 26/21 Q1011
ZJSY,2003-04-05 20:00,ZJSY 052000Z AUTO 06003MPS //// // ////// 26/21 Q1010
ZJSY,2003-04-05 21:00,ZJSY 052100Z AUTO 09002MPS //// // ////// 25/21 Q1010
ZJSY,2003-04-05 22:00,ZJSY 052200Z 06003MPS 9999 SCT013 SCT016 OVC040 26/21 Q1011
ZJSY,2003-04-05 23:00,ZJSY 052300Z 08002MPS CAVOK 25/21 Q1011
ZJSY,2003-04-06 00:00,ZJSY 060000Z 07004MPS CAVOK 27/22 Q1012
ZJSY,2003-04-06 01:00,ZJSY 060100Z 06005MPS CAVOK 28/22 Q1013
ZJSY,2003-04-06 02:00,ZJSY 060200Z 08005MPS CAVOK 29/22 Q1013
ZJSY,2003-04-06 03:00,ZJSY 060300Z 08006MPS CAVOK 30/23 Q1013
ZJSY,2003-04-06 04:00,ZJSY 060400Z 10005MPS 9999 FEW016 BKN110 31/23 Q1012
ZJSY,2003-04-06 05:00,ZJSY 060500Z 14006MPS 9999 SCT016 SCT230 30/23 Q1012
ZJSY,2003-04-06 06:00,ZJSY 060600Z 14005MPS 9999 SCT016 SCT230 30/23 Q1011
ZJSY,2003-04-06 07:00,ZJSY 060700Z 14005MPS 9999 SCT016 FEW026TCU SCT230 30/23 Q1010
ZJSY,2003-04-06 08:00,ZJSY 060800Z 15004MPS 9999 SCT016 FEW026TCU BKN230 28/24 Q1009
ZJSY,2003-04-06 09:00,ZJSY 060900Z 15003MPS 9999 FEW016 BKN230 29/24 Q1009
ZJSY,2003-04-06 10:00,ZJSY 061000Z 15002MPS 9999 FEW016 BKN230 28/24 Q1009
ZJSY,2003-04-06 11:00,ZJSY 061100Z 13002MPS 9999 FEW016 BKN230 27/24 Q1010
ZJSY,2003-04-06 12:00,ZJSY 061200Z 10002MPS 9999 SCT016 BKN230 27/24 Q1011
ZJSY,2003-04-06 13:00,ZJSY 061300Z 11002MPS 9999 SCT016 BKN230 27/24 Q1011
ZJSY,2003-04-06 14:00,ZJSY 061400Z 11002MPS 9999 SCT016 BKN230 27/24 Q1012
ZJSY,2003-04-06 15:00,ZJSY 061500Z 13001MPS 9999 SCT016 BKN230 27/24 Q1012
ZJSY,2003-04-06 16:00,ZJSY 061600Z 10002MPS 9999 SCT018 BKN230 27/24 Q1012
ZJSY,2003-04-06 17:00,ZJSY 061700Z 06002MPS 9999 FEW018 SCT230 26/24 Q1011
ZJSY,2003-04-06 18:00,ZJSY 061800Z AUTO 04001MPS //// // ////// 26/23 Q1010
ZJSY,2003-04-06 19:00,ZJSY 061900Z AUTO 08001MPS //// // ////// 25/23 Q1010
ZJSY,2003-04-06 20:00,ZJSY 062000Z AUTO 03001MPS //// // ////// 25/23 Q1010
ZJSY,2003-04-06 21:00,ZJSY 062100Z AUTO 09002MPS //// // ////// 26/23 Q1011
ZJSY,2003-04-06 22:00,ZJSY 062200Z 06002MPS 9999 BKN016 BKN043 26/23 Q1011
ZJSY,2003-04-06 23:00,ZJSY 062300Z 05002MPS 9999 BKN016 BKN043 26/23 Q1011
ZJSY,2003-04-07 00:00,ZJSY 070000Z 06003MPS 9999 BKN016 BKN050 27/23 Q1011
ZJSY,2003-04-07 01:00,ZJSY 070100Z 08003MPS 9999 SCT016 BKN050 28/23 Q1012
ZJSY,2003-04-07 02:00,ZJSY 070200Z 12003MPS 9999 SCT015 BKN050 29/23 Q1012
ZJSY,2003-04-07 03:00,ZJSY 070300Z 14003MPS 9999 SCT015 BKN050 29/23 Q1012
ZJSY,2003-04-07 04:00,ZJSY 070400Z 13003MPS 9999 SCT016 BKN070 29/23 Q1012
ZJSY,2003-04-07 05:00,ZJSY 070500Z 14003MPS 9999 SCT016 BKN070 29/23 Q1011
ZJSY,2003-04-07 06:00,ZJSY 070600Z 14003MPS 9999 SCT016 BKN070 29/23 Q1010
ZJSY,2003-04-07 07:00,ZJSY 070700Z 16002MPS 9999 SCT016 BKN070 29/23 Q1009
ZJSY,2003-04-07 08:00,ZJSY 070800Z 14002MPS 9999 SCT016 BKN070 29/23 Q1009
ZJSY,2003-04-07 09:00,ZJSY 070900Z 15002MPS 9999 SCT016 BKN070 28/23 Q1008
ZJSY,2003-04-07 10:00,ZJSY 071000Z 11002MPS 9999 SCT016 BKN070 28/23 Q1008
ZJSY,2003-04-07 11:00,ZJSY 071100Z 11002MPS CAVOK 27/23 Q1009
ZJSY,2003-04-07 12:00,ZJSY 071200Z 12002MPS CAVOK 27/23 Q1010
ZJSY,2003-04-07 13:00,ZJSY 071300Z 07002MPS CAVOK 27/23 Q1010
ZJSY,2003-04-07 14:00,ZJSY 071400Z 05003MPS 9999 FEW016 BKN230 27/22 Q1010
ZJSY,2003-04-07 15:00,ZJSY 071500Z 05002MPS CAVOK 27/22 Q1011
ZJSY,2003-04-07 16:00,ZJSY 071600Z 04002MPS CAVOK 26/22 Q1011
ZJSY,2003-04-07 17:00,ZJSY 071700Z AUTO 05002MPS //// // ////// 26/23 Q1010
ZJSY,2003-04-07 18:00,ZJSY 071800Z AUTO 01001MPS //// // ////// 26/23 Q1009
ZJSY,2003-04-07 19:00,ZJSY 071900Z AUTO 35001MPS //// // ////// 25/22 Q1009
ZJSY,2003-04-07 20:00,ZJSY 072000Z AUTO 36001MPS //// // ////// 25/22 Q1009
ZJSY,2003-04-07 21:00,ZJSY 072100Z AUTO 06002MPS //// // ////// 25/22 Q1009
ZJSY,2003-04-07 22:00,ZJSY 072200Z 04001MPS 9999 SCT018 BKN230 25/22 Q1009
ZJSY,2003-04-07 23:00,ZJSY 072300Z 07002MPS 9999 FEW018 SCT053 BKN230 24/21 Q1010
ZJSY,2003-04-08 00:00,ZJSY 080000Z 06003MPS CAVOK 27/22 Q1010
ZJSY,2003-04-08 01:00,ZJSY 080100Z 06004MPS CAVOK 28/22 Q1011
ZJSY,2003-04-08 02:00,ZJSY 080200Z 08004MPS CAVOK 29/23 Q1011
ZJSY,2003-04-08 03:00,ZJSY 080300Z 10004MPS 9999 SCT013 SCT016 29/23 Q1011
ZJSY,2003-04-08 04:00,ZJSY 080400Z 14003MPS 9999 SCT013 SCT016 29/24 Q1011
ZJSY,2003-04-08 05:00,ZJSY 080500Z 15004MPS 9999 FEW013 SCT040 30/24 Q1010
ZJSY,2003-04-08 06:00,ZJSY 080600Z 15004MPS 9999 FEW013 SCT050 29/23 Q1009
ZJSY,2003-04-08 07:00,ZJSY 080700Z 15003MPS 9999 FEW013 BKN053 29/23 Q1009
ZJSY,2003-04-08 08:00,ZJSY 080800Z 15004MPS 9999 FEW013 BKN053 29/23 Q1008
ZJSY,2003-04-08 09:00,ZJSY 080900Z 15003MPS CAVOK 28/23 Q1008
ZJSY,2003-04-08 10:00,ZJSY 081000Z 14003MPS 9999 FEW016 BKN100 28/24 Q1008
ZJSY,2003-04-08 11:00,ZJSY 081100Z 13002MPS CAVOK 27/24 Q1008
ZJSY,2003-04-08 12:00,ZJSY 081200Z 11002MPS CAVOK 27/23 Q1009
ZJSY,2003-04-08 13:00,ZJSY 081300Z 06002MPS CAVOK 27/23 Q1010
ZJSY,2003-04-08 14:00,ZJSY 081400Z 06003MPS 9999 FEW016 BKN230 27/23 Q1011 NOSIG
ZJSY,2003-04-08 15:00,ZJSY 081500Z 06002MPS 9999 FEW016 BKN230 26/22 Q1011 NOSIG
ZJSY,2003-04-08 16:00,ZJSY 081600Z 07002MPS CAVOK 26/22 Q1011 NOSIG
ZJSY,2003-04-08 17:00,ZJSY 081700Z 06002MPS CAVOK 26/22 Q1011 NOSIG
ZJSY,2003-04-08 19:00,ZJSY 081900Z AUTO 06002MPS //// // ////// 26/22 Q1010 NOSIG
ZJSY,2003-04-08 20:00,ZJSY 082000Z AUTO 05003MPS //// // ////// 26/22 Q1010 NOSIG
ZJSY,2003-04-08 21:00,ZJSY 082100Z AUTO 05002MPS //// // ////// 26/22 Q1010 NOSIG
ZJSY,2003-04-08 22:00,ZJSY 082200Z 06002MPS 9999 FEW015 BKN230 26/23 Q1011 NOSIG
ZJSY,2003-04-08 23:00,ZJSY 082300Z 07002MPS CAVOK 25/22 Q1011 NOSIG
ZJSY,2003-04-09 00:00,ZJSY 090000Z 06003MPS 9999 FEW015 BKN230 27/23 Q1012 NOSIG
ZJSY,2003-04-09 01:00,ZJSY 090100Z 09004MPS 9999 FEW015 BKN230 28/23 Q1012 NOSIG
ZJSY,2003-04-09 02:00,ZJSY 090200Z 11003MPS 9999 FEW016 BKN230 29/23 Q1013 NOSIG
ZJSY,2003-04-09 03:00,ZJSY 090300Z 12003MPS 9999 SCT016 BKN230 30/23 Q1012 NOSIG
ZJSY,2003-04-09 04:00,ZJSY 090400Z 14003MPS 9999 SCT016 SCT043 BKN230 30/23 Q1012 NOSIG
ZJSY,2003-04-09 05:00,ZJSY 090500Z 15003MPS 9999 SCT016 SCT043 BKN230 30/24 Q1011 NOSIG
ZJSY,2003-04-09 06:00,ZJSY 090600Z 13004MPS 9999 SCT016 SCT043 BKN230 29/23 Q1010 NOSIG
ZJSY,2003-04-09 07:00,ZJSY 090700Z 12003MPS 9999 SCT016 SCT043 BKN230 29/24 Q1009 NOSIG
ZJSY,2003-04-09 08:00,ZJSY 090800Z 14003MPS CAVOK 29/23 Q1009 NOSIG
ZJSY,2003-04-09 09:00,ZJSY 090900Z 15003MPS CAVOK 29/24 Q1009 NOSIG
ZJSY,2003-04-09 11:00,ZJSY 091100Z 12003MPS 9999 FEW016 BKN230 28/23 Q1009 NOSIG
ZJSY,2003-04-09 12:00,ZJSY 091200Z 10003MPS 9999 FEW016 BKN230 28/23 Q1010 NOSIG
ZJSY,2003-04-09 13:00,ZJSY 091300Z 08004MPS 9999 FEW016 BKN230 27/23 Q1011 NOSIG
ZJSY,2003-04-09 14:00,ZJSY 091400Z 08004MPS 9999 FEW015 BKN230 27/23 Q1011 NOSIG
ZJSY,2003-04-09 15:00,ZJSY 091500Z 08004MPS 9999 FEW015 BKN230 27/23 Q1012 NOSIG
ZJSY,2003-04-09 16:00,ZJSY 091600Z 08003MPS 9999 FEW015 BKN230 26/23 Q1012 NOSIG
ZJSY,2003-04-09 17:00,ZJSY 091700Z 07003MPS 9999 FEW015 BKN230 26/23 Q1012 NOSIG
ZJSY,2003-04-09 18:00,ZJSY 091800Z 05002MPS 9999 FEW015 BKN230 26/23 Q1011 NOSIG
ZJSY,2003-04-09 19:00,ZJSY 091900Z AUTO 06003MPS //// // ////// 26/23 Q1011 NOSIG
ZJSY,2003-04-09 20:00,ZJSY 092000Z AUTO 08003MPS //// // ////// 26/23 Q1011 NOSIG
ZJSY,2003-04-09 21:00,ZJSY 092100Z AUTO 08003MPS //// // ////// 26/23 Q1011 NOSIG
ZJSY,2003-04-10 00:00,ZJSY 100000Z 05003MPS CAVOK 27/23 Q1013 NOSIG
ZJSY,2003-04-10 01:00,ZJSY 100100Z 10003MPS 9999 SCT018 BKN260 28/23 Q1014 NOSIG
ZJSY,2003-04-10 02:00,ZJSY 100200Z 12004MPS 9999 FEW018 BKN260 29/23 Q1014 NOSIG
ZJSY,2003-04-10 03:00,ZJSY 100300Z 13004MPS 9999 FEW020 BKN260 29/22 Q1014 NOSIG
ZJSY,2003-04-10 04:00,ZJSY 100400Z 14003MPS 9999 FEW020 BKN260 30/23 Q1014 NOSIG
ZJSY,2003-04-10 05:00,ZJSY 100500Z 15003MPS 9999 FEW020 BKN260 30/23 Q1013 NOSIG
ZJSY,2003-04-10 06:00,ZJSY 100600Z 14003MPS 9999 FEW020 BKN260 30/23 Q1012 NOSIG
ZJSY,2003-04-10 07:00,ZJSY 100700Z 14003MPS 9999 FEW020 BKN260 30/23 Q1012 NOSIG
ZJSY,2003-04-10 08:00,ZJSY 100800Z 14003MPS 9999 FEW020 BKN260 29/23 Q1011 NOSIG
ZJSY,2003-04-10 10:00,ZJSY 101000Z 12002MPS 9999 FEW020 BKN260 28/23 Q1011 NOSIG
ZJSY,2003-04-10 11:00,ZJSY 101100Z 13002MPS CAVOK 28/23 Q1011 NOSIG
ZJSY,2003-04-10 12:00,ZJSY 101200Z 09002MPS CAVOK 27/22 Q1012 NOSIG
ZJSY,2003-04-10 13:00,ZJSY 101300Z 06003MPS CAVOK 27/22 Q1012 NOSIG
ZJSY,2003-04-10 17:00,ZJSY 101700Z 04002MPS CAVOK 27/22 Q1013 NOSIG
ZJSY,2003-04-10 18:00,ZJSY 101800Z 04002MPS CAVOK 26/22 Q1012 NOSIG
ZJSY,2003-04-10 19:00,ZJSY 101900Z 06002MPS CAVOK 25/22 Q1011 NOSIG
ZJSY,2003-04-10 20:00,ZJSY 102000Z 03001MPS CAVOK 25/21 Q1011 NOSIG
ZJSY,2003-04-10 21:00,ZJSY 102100Z AUTO 09002MPS //// // ////// 25/22 Q1010 NOSIG
ZJSY,2003-04-10 22:00,ZJSY 102200Z 03003MPS 9999 SCT013 BKN260 26/22 Q1012 NOSIG
ZJSY,2003-04-10 23:00,ZJSY 102300Z 09002MPS 9999 FEW013 SCT260 26/22 Q1012 NOSIG
ZJSY,2003-04-11 00:00,ZJSY 110000Z 05002MPS 9999 FEW013 BKN260 27/22 Q1013 NOSIG
ZJSY,2003-04-11 01:00,ZJSY 110100Z 10002MPS 9999 FEW018 BKN260 28/23 Q1013 NOSIG
ZJSY,2003-04-11 02:00,ZJSY 110200Z 12002MPS 9999 BKN018 BKN260 29/23 Q1014 NOSIG
ZJSY,2003-04-11 03:00,ZJSY 110300Z 12003MPS 9999 FEW018 BKN230 29/23 Q1013 NOSIG
ZJSY,2003-04-11 04:00,ZJSY 110400Z 16003MPS 9999 FEW018 BKN230 29/23 Q1013 NOSIG
ZJSY,2003-04-11 05:00,ZJSY 110500Z 15003MPS 9999 SCT018 BKN230 29/23 Q1013 NOSIG
ZJSY,2003-04-11 06:00,ZJSY 110600Z 14003MPS 9999 SCT018 BKN230 29/23 Q1011 NOSIG
ZJSY,2003-04-11 07:00,ZJSY 110700Z 13002MPS 9999 FEW018 BKN230 30/23 Q1011 NOSIG
ZJSY,2003-04-11 08:00,ZJSY 110800Z 13002MPS 9999 FEW018 SCT230 30/23 Q1010 NOSIG
ZJSY,2003-04-11 09:00,ZJSY 110900Z 14002MPS 9999 FEW018 SCT230 29/23 Q1010 NOSIG
ZJSY,2003-04-11 10:00,ZJSY 111000Z 12003MPS 9999 SCT018 SCT230 28/23 Q1010 NOSIG
ZJSY,2003-04-11 11:00,ZJSY 111100Z 11002MPS 9999 FEW015 SCT230 28/23 Q1010 NOSIG
ZJSY,2003-04-11 12:00,ZJSY 111200Z 11002MPS 9999 FEW015 SCT230 28/23 Q1010 NOSIG
ZJSY,2003-04-11 13:00,ZJSY 111300Z 08002MPS 9999 SCT015 BKN230 27/23 Q1011 NOSIG
ZJSY,2003-04-11 14:00,ZJSY 111400Z 06003MPS 9999 SCT013 BKN230 27/23 Q1011 NOSIG
ZJSY,2003-04-11 15:00,ZJSY 111500Z 05003MPS 9999 SCT013 BKN230 27/23 Q1012 NOSIG
ZJSY,2003-04-11 16:00,ZJSY 111600Z 06002MPS 9999 SCT013 BKN230 27/23 Q1012 NOSIG
ZJSY,2003-04-11 17:00,ZJSY 111700Z 06003MPS 9999 BKN015 BKN230 27/23 Q1011 NOSIG
ZJSY,2003-04-11 18:00,ZJSY 111800Z AUTO 06003MPS //// // ////// 27/23 Q1010 NOSIG
ZJSY,2003-04-11 19:00,ZJSY 111900Z AUTO 08003MPS //// // ////// 27/23 Q1010 NOSIG
ZJSY,2003-04-11 20:00,ZJSY 112000Z AUTO 09002MPS //// // ////// 26/23 Q1009 NOSIG
ZJSY,2003-04-11 21:00,ZJSY 112100Z AUTO 07002MPS //// // ////// 26/23 Q1010 NOSIG
ZJSY,2003-04-11 22:00,ZJSY 112200Z 04003MPS 9999 BKN015 BKN230 27/23 Q1010 NOSIG
ZJSY,2003-04-11 23:00,ZJSY 112300Z 06002MPS 9999 BKN015 BKN260 27/23 Q1011 NOSIG
ZJSY,2003-04-12 00:00,ZJSY 120000Z 08003MPS 9999 BKN015 BKN260 28/23 Q1011 NOSIG
ZJSY,2003-04-12 01:00,ZJSY 120100Z 11003MPS 9999 SCT016 29/23 Q1012 NOSIG
ZJSY,2003-04-12 02:00,ZJSY 120200Z 12003MPS 9999 SCT016 29/23 Q1013 NOSIG
ZJSY,2003-04-12 03:00,ZJSY 120300Z 16002MPS 9999 SCT016 30/23 Q1012 NOSIG
ZJSY,2003-04-12 04:00,ZJSY 120400Z 13004MPS 9999 SCT016 30/23 Q1012 NOSIG
ZJSY,2003-04-12 05:00,ZJSY 120500Z 13003MPS 9999 BKN016 29/23 Q1011 NOSIG
ZJSY,2003-04-12 06:00,ZJSY 120600Z 13003MPS 9999 BKN016 30/24 Q1010 NOSIG
ZJSY,2003-04-12 07:00,ZJSY 120700Z 16002MPS 9999 BKN016 29/24 Q1009 NOSIG
ZJSY,2003-04-12 08:00,ZJSY 120800Z 16002MPS 9999 BKN016 FEW023TCU 29/24 Q1008 NOSIG
ZJSY,2003-04-12 09:00,ZJSY 120900Z 13002MPS 9999 SCT016 FEW023TCU 29/24 Q1008 NOSIG
ZJSY,2003-04-12 11:00,ZJSY 121100Z 11003MPS 9999 FEW016 SCT230 28/24 Q1008 NOSIG
ZJSY,2003-04-12 12:00,ZJSY 121200Z 11002MPS 9999 FEW016 SCT230 28/23 Q1009 NOSIG
ZJSY,2003-04-12 15:00,ZJSY 121500Z 05003MPS 9999 FEW016 BKN230 27/23 Q1010 NOSIG
ZJSY,2003-04-12 16:00,ZJSY 121600Z 04002MPS 9999 FEW016 BKN230 27/23 Q1010 NOSIG
ZJSY,2003-04-12 17:00,ZJSY 121700Z 05002MPS 9999 FEW016 SCT230 27/23 Q1009 NOSIG
ZJSY,2003-04-12 18:00,ZJSY 121800Z AUTO 05002MPS //// // ////// 27/23 Q1008 NOSIG
ZJSY,2003-04-12 19:00,ZJSY 121900Z AUTO 04002MPS //// // ////// 26/23 Q1008 NOSIG
ZJSY,2003-04-12 20:00,ZJSY 122000Z AUTO 36001MPS //// // ////// 25/23 Q1007 NOSIG
ZJSY,2003-04-12 21:00,ZJSY 122100Z AUTO 36001MPS //// // ////// 25/22 Q1008 NOSIG
ZJSY,2003-04-12 22:00,ZJSY 122200Z 04001MPS CAVOK 25/22 Q1008 NOSIG
ZJSY,2003-04-12 23:00,ZJSY 122300Z 05002MPS CAVOK 25/22 Q1008 NOSIG
ZJSY,2003-04-13 00:00,ZJSY 130000Z 05003MPS CAVOK 28/23 Q1009 NOSIG
ZJSY,2003-04-13 01:00,ZJSY 130100Z 10002MPS 9999 FEW016 BKN230 29/23 Q1010 NOSIG
ZJSY,2003-04-13 03:00,ZJSY 130300Z 11002MPS 9999 FEW016 30/23 Q1010 NOSIG
ZJSY,2003-04-13 05:00,ZJSY 130500Z 11003MPS 9999 SCT016 30/23 Q1009 NOSIG
ZJSY,2003-04-13 06:00,ZJSY 130600Z 10002MPS 9999 FEW013 SCT016 30/24 Q1008 NOSIG
ZJSY,2003-04-13 07:00,ZJSY 130700Z 14002MPS 9999 FEW013 SCT016 30/23 Q1007 NOSIG
ZJSY,2003-04-13 08:00,ZJSY 130800Z 12002MPS 9999 FEW013 SCT016 29/24 Q1006 NOSIG
ZJSY,2003-04-13 09:00,ZJSY 130900Z 12002MPS 9999 FEW016 29/24 Q1006 NOSIG
ZJSY,2003-04-13 10:00,ZJSY 131000Z 12002MPS 9999 FEW016 28/23 Q1006 NOSIG
ZJSY,2003-04-13 11:00,ZJSY 131100Z 12001MPS 9999 SCT018 SCT230 28/24 Q1007 NOSIG
ZJSY,2003-04-13 12:00,ZJSY 131200Z 10001MPS 9999 SCT018 SCT230 28/24 Q1007 NOSIG
ZJSY,2003-04-13 13:00,ZJSY 131300Z 10002MPS 9999 SCT018 SCT230 27/24 Q1008 NOSIG
ZJSY,2003-04-13 14:00,ZJSY 131400Z 07002MPS 9999 SCT018 27/23 Q1009 NOSIG
ZJSY,2003-04-13 15:00,ZJSY 131500Z 05002MPS 9999 FEW018 27/23 Q1009 NOSIG
ZJSY,2003-04-13 16:00,ZJSY 131600Z 08002MPS 9999 SCT018 BKN043 27/24 Q1009 NOSIG
ZJSY,2003-04-13 17:00,ZJSY 131700Z AUTO 07001MPS //// // ////// 27/24 Q1009 NOSIG
ZJSY,2003-04-13 18:00,ZJSY 131800Z AUTO 08001MPS //// // ////// 27/24 Q1008 NOSIG
ZJSY,2003-04-13 19:00,ZJSY 131900Z AUTO 05002MPS //// // ////// 27/24 Q1008 NOSIG
ZJSY,2003-04-13 20:00,ZJSY 132000Z AUTO 36001MPS //// // ////// 26/23 Q1008 NOSIG
ZJSY,2003-04-13 21:00,ZJSY 132100Z AUTO 35002MPS //// // ////// 25/23 Q1009 NOSIG
ZJSY,2003-04-13 22:00,ZJSY 132200Z 02003MPS CAVOK 26/23 Q1009 NOSIG
ZJSY,2003-04-13 23:00,ZJSY 132300Z 36001MPS CAVOK 26/23 Q1010 NOSIG
ZJSY,2003-04-14 00:00,ZJSY 140000Z 02002MPS CAVOK 28/22 Q1011 NOSIG
ZJSY,2003-04-14 01:00,ZJSY 140100Z 08004MPS CAVOK 30/22 Q1011 NOSIG
ZJSY,2003-04-14 02:00,ZJSY 140200Z 12003MPS CAVOK 30/22 Q1012 NOSIG
ZJSY,2003-04-14 03:00,ZJSY 140300Z 16002MPS CAVOK 30/23 Q1012 NOSIG
ZJSY,2003-04-14 04:00,ZJSY 140400Z 16004MPS CAVOK 30/23 Q1011 NOSIG
ZJSY,2003-04-14 05:00,ZJSY 140500Z 16004MPS CAVOK 31/23 Q1011 NOSIG
ZJSY,2003-04-14 06:00,ZJSY 140600Z 16005MPS CAVOK 31/22 Q1010 NOSIG
ZJSY,2003-04-14 07:00,ZJSY 140700Z 16004MPS CAVOK 31/23 Q1009
ZJSY,2003-04-14 08:00,ZJSY 140800Z 15004MPS CAVOK 30/23 Q1009
ZJSY,2003-04-14 09:00,ZJSY 140900Z 14004MPS CAVOK 29/24 Q1009
ZJSY,2003-04-14 10:00,ZJSY 141000Z 14002MPS CAVOK 29/23 Q1009
ZJSY,2003-04-14 12:00,ZJSY 141200Z 09003MPS CAVOK 27/22 Q1011
ZJSY,2003-04-14 13:00,ZJSY 141300Z 07004MPS CAVOK 26/22 Q1011
ZJSY,2003-04-14 14:00,ZJSY 141400Z 07004MPS 9999 FEW016 SCT230 26/22 Q1012
ZJSY,2003-04-14 15:00,ZJSY 141500Z 08004MPS 9999 FEW016 SCT230 26/22 Q1012
ZJSY,2003-04-14 16:00,ZJSY 141600Z 06003MPS 9999 FEW016 SCT230 26/22 Q1013
ZJSY,2003-04-14 17:00,ZJSY 141700Z AUTO 10002MPS //// // ////// 26/22 Q1012
ZJSY,2003-04-14 18:00,ZJSY 141800Z AUTO 09003MPS //// // ////// 26/21 Q1011
ZJSY,2003-04-14 19:00,ZJSY 141900Z AUTO 07003MPS //// // ////// 26/22 Q1011
ZJSY,2003-04-14 20:00,ZJSY 142000Z AUTO 08005MPS //// // ////// 25/21 Q1010
ZJSY,2003-04-14 21:00,ZJSY 142100Z AUTO 08004MPS //// // ////// 25/21 Q1011
ZJSY,2003-04-14 22:00,ZJSY 142200Z 08004MPS 9999 SCT016 SCT230 25/21 Q1011
ZJSY,2003-04-14 23:00,ZJSY 142300Z 08004MPS 9999 SCT015 BKN050 25/21 Q1012
ZJSY,2003-04-15 00:00,ZJSY 150000Z 09003MPS 9999 SCT015 BKN050 26/21 Q1013
ZJSY,2003-04-15 01:00,ZJSY 150100Z 07005MPS 9999 BKN026 BKN050 26/21 Q1014
ZJSY,2003-04-15 02:00,ZJSY 150200Z 08004MPS 9999 BKN033 BKN050 28/21 Q1014
ZJSY,2003-04-15 03:00,ZJSY 150300Z 09004MPS 9999 FEW018 BKN066 29/21 Q1014
ZJSY,2003-04-15 04:00,ZJSY 150400Z 12003MPS 9999 FEW018 BKN066 30/21 Q1014 NOSIG
ZJSY,2003-04-15 05:00,ZJSY 150500Z 14002MPS 9999 FEW002 BKN100 30/21 Q1014 NOSIG
ZJSY,2003-04-15 06:00,ZJSY 150600Z 15004MPS 9999 SCT020 BKN260 31/22 Q1013 NOSIG
ZJSY,2003-04-15 07:00,ZJSY 150700Z 14003MPS 9999 FEW020 BKN100 29/22 Q1012 NOSIG
ZJSY,2003-04-15 21:00,ZJSY 152100Z AUTO 02001MPS //// // ////// 24/21 Q1013 NOSIG
ZJSY,2003-04-16 07:00,ZJSY 160700Z 17005MPS CAVOK 29/23 Q1013 NOSIG
ZJSY,2003-04-16 14:00,ZJSY 161400Z 08003MPS CAVOK 26/22 Q1014 NOSIG
ZJSY,2003-04-16 15:00,ZJSY 161500Z 05003MPS CAVOK 26/22 Q1014 NOSIG
ZJSY,2003-04-16 16:00,ZJSY 161600Z 07002MPS CAVOK 26/22 Q1014 NOSIG
ZJSY,2003-04-16 17:00,ZJSY 161700Z AUTO 06003MPS //// // ////// 26/22 Q1014 NOSIG
ZJSY,2003-04-16 18:00,ZJSY 161800Z AUTO 08003MPS //// // ////// 25/22 Q1013 NOSIG
ZJSY,2003-04-16 19:00,ZJSY 161900Z AUTO 06002MPS //// // ////// 26/22 Q1013 NOSIG
ZJSY,2003-04-16 20:00,ZJSY 162000Z AUTO 07003MPS //// // ////// 26/22 Q1012 NOSIG
ZJSY,2003-04-16 21:00,ZJSY 162100Z AUTO 07003MPS //// // ////// 26/23 Q1012 NOSIG
ZJSY,2003-04-16 22:00,ZJSY 162200Z 07003MPS CAVOK 25/23 Q1013 NOSIG
ZJSY,2003-04-16 23:00,ZJSY 162300Z 04003MPS 9999 SCT016 FEW020TCU 27/23 Q1013 NOSIG
ZJSY,2003-04-17 00:00,ZJSY 170000Z 07004MPS CAVOK 28/23 Q1014 NOSIG
ZJSY,2003-04-17 01:00,ZJSY 170100Z 10003MPS 9999 SCT016 29/23 Q1014 NOSIG
ZJSY,2003-04-17 02:00,ZJSY 170200Z 14004MPS 9999 SCT016 29/23 Q1014 NOSIG
ZJSY,2003-04-17 03:00,ZJSY 170300Z 13004MPS 9999 FEW016 30/23 Q1014 NOSIG
ZJSY,2003-04-17 04:00,ZJSY 170400Z 15004MPS 9999 FEW016 31/23 Q1014 NOSIG
ZJSY,2003-04-17 05:00,ZJSY 170500Z 14004MPS 9999 FEW016 31/23 Q1013 NOSIG
ZJSY,2003-04-17 06:00,ZJSY 170600Z 15004MPS 9999 FEW016 30/23 Q1012 NOSIG
ZJSY,2003-04-17 07:00,ZJSY 170700Z 14004MPS CAVOK 30/23 Q1011 NOSIG
ZJSY,2003-04-17 09:00,ZJSY 170900Z 16003MPS CAVOK 29/23 Q1010 NOSIG
ZJSY,2003-04-17 10:00,ZJSY 171000Z 12002MPS CAVOK 29/23 Q1010 NOSIG
ZJSY,2003-04-17 11:00,ZJSY 171100Z 13002MPS CAVOK 28/23 Q1010 NOSIG
ZJSY,2003-04-17 12:00,ZJSY 171200Z 12003MPS CAVOK 28/23 Q1010 NOSIG
ZJSY,2003-04-17 13:00,ZJSY 171300Z 07003MPS 9999 FEW016 SCT300 27/23 Q1011 NOSIG
ZJSY,2003-04-17 14:00,ZJSY 171400Z 06003MPS 9999 FEW016 SCT300 27/22 Q1011 NOSIG
ZJSY,2003-04-17 15:00,ZJSY 171500Z 06004MPS 9999 FEW016 SCT300 26/22 Q1011 NOSIG
ZJSY,2003-04-17 16:00,ZJSY 171600Z 06003MPS CAVOK 26/22 Q1011 NOSIG
ZJSY,2003-04-17 17:00,ZJSY 171700Z 07003MPS CAVOK 25/22 Q1011 NOSIG
ZJSY,2003-04-17 18:00,ZJSY 171800Z AUTO 06002MPS //// // ////// 25/22 Q1011 NOSIG
ZJSY,2003-04-17 19:00,ZJSY 171900Z AUTO 06003MPS //// // ////// 26/22 Q1010 NOSIG
ZJSY,2003-04-17 20:00,ZJSY 172000Z AUTO 05003MPS //// // ////// 26/22 Q1010 NOSIG
ZJSY,2003-04-17 21:00,ZJSY 172100Z AUTO 05003MPS //// // ////// 26/22 Q1010 NOSIG
ZJSY,2003-04-17 22:00,ZJSY 172200Z 05002MPS 9999 SCT018 BKN300 26/22 Q1010 NOSIG
ZJSY,2003-04-17 23:00,ZJSY 172300Z 06002MPS 9999 SCT018 BKN300 26/22 Q1011 NOSIG
ZJSY,2003-04-18 00:00,ZJSY 180000Z 07004MPS 9999 SCT016 BKN300 28/23 Q1011 NOSIG
ZJSY,2003-04-18 01:00,ZJSY 180100Z 11003MPS 9999 FEW013 SCT016 28/23 Q1012 NOSIG
ZJSY,2003-04-18 02:00,ZJSY 180200Z 15003MPS 9999 SCT016 29/23 Q1013 NOSIG
ZJSY,2003-04-18 03:00,ZJSY 180300Z 13003MPS 9999 FEW016 30/23 Q1013 NOSIG
ZJSY,2003-04-18 04:00,ZJSY 180400Z 15004MPS 9999 FEW020 30/23 Q1012 NOSIG
ZJSY,2003-04-18 05:00,ZJSY 180500Z 15003MPS 9999 FEW020 31/22 Q1011 NOSIG
ZJSY,2003-04-18 06:00,ZJSY 180600Z 16005MPS CAVOK 30/23 Q1010 NOSIG
ZJSY,2003-04-18 07:00,ZJSY 180700Z 16003MPS CAVOK 30/23 Q1010 NOSIG
ZJSY,2003-04-18 08:00,ZJSY 180800Z 15003MPS CAVOK 29/23 Q1009 NOSIG
ZJSY,2003-04-18 09:00,ZJSY 180900Z 15003MPS CAVOK 29/23 Q1008 NOSIG
ZJSY,2003-04-18 10:00,ZJSY 181000Z 14002MPS CAVOK 29/23 Q1008 NOSIG
ZJSY,2003-04-18 11:00,ZJSY 181100Z 14002MPS CAVOK 28/23 Q1009 NOSIG
ZJSY,2003-04-18 12:00,ZJSY 181200Z 10002MPS CAVOK 27/23 Q1009 NOSIG
ZJSY,2003-04-18 13:00,ZJSY 181300Z 08004MPS CAVOK 27/23 Q1009 NOSIG
ZJSY,2003-04-18 14:00,ZJSY 181400Z 07003MPS CAVOK 26/22 Q1009 NOSIG
ZJSY,2003-04-18 15:00,ZJSY 181500Z 05002MPS CAVOK 26/22 Q1010 NOSIG
ZJSY,2003-04-18 16:00,ZJSY 181600Z 07002MPS CAVOK 25/22 Q1009 NOSIG
ZJSY,2003-04-18 17:00,ZJSY 181700Z AUTO 07003MPS //// // ////// 25/22 Q1009 NOSIG
ZJSY,2003-04-18 18:00,ZJSY 181800Z AUTO 04002MPS //// // ////// 26/22 Q1009 NOSIG
ZJSY,2003-04-18 19:00,ZJSY 181900Z AUTO 06002MPS //// // ////// 26/22 Q1008 NOSIG
ZJSY,2003-04-18 20:00,ZJSY 182000Z AUTO 05003MPS //// // ////// 26/22 Q1008 NOSIG
ZJSY,2003-04-18 21:00,ZJSY 182100Z AUTO 05003MPS //// // ////// 26/22 Q1007 NOSIG
ZJSY,2003-04-18 22:00,ZJSY 182200Z 05003MPS 9999 SCT013 26/22 Q1007 NOSIG
ZJSY,2003-04-18 23:00,ZJSY 182300Z 07001MPS 9999 SCT013 26/22 Q1008 NOSIG
ZJSY,2003-04-19 00:00,ZJSY 190000Z 07003MPS 9999 SCT013 28/23 Q1008 NOSIG
ZJSY,2003-04-19 01:00,ZJSY 190100Z 11003MPS 9999 SCT016 29/23 Q1009 NOSIG
ZJSY,2003-04-19 02:00,ZJSY 190200Z 13003MPS 9999 SCT016 30/23 Q1009 NOSIG
ZJSY,2003-04-19 07:00,ZJSY 190700Z 17003MPS 9999 SCT016 SCT260 30/23 Q1007 NOSIG
ZJSY,2003-04-19 08:00,ZJSY 190800Z 15003MPS 9999 SCT016 SCT260 30/23 Q1006 NOSIG
ZJSY,2003-04-19 09:00,ZJSY 190900Z 15003MPS 9999 SCT016 SCT260 29/23 Q1006 NOSIG
ZJSY,2003-04-19 11:00,ZJSY 191100Z 12003MPS 9999 FEW016 SCT260 28/23 Q1005 NOSIG
ZJSY,2003-04-19 12:00,ZJSY 191200Z 10003MPS CAVOK 28/22 Q1007 NOSIG
ZJSY,2003-04-19 13:00,ZJSY 191300Z 09003MPS CAVOK 28/22 Q1007 NOSIG
ZJSY,2003-04-19 14:00,ZJSY 191400Z 06003MPS 9999 FEW016 SCT260 27/22 Q1008 NOSIG
ZJSY,2003-04-19 15:00,ZJSY 191500Z 07003MPS 9999 FEW016 SCT260 27/22 Q1008 NOSIG
ZJSY,2003-04-19 16:00,ZJSY 191600Z 06003MPS 9999 FEW016 SCT260 27/22 Q1008 NOSIG
ZJSY,2003-04-19 17:00,ZJSY 191700Z AUTO 05003MPS //// // ////// 27/23 Q1008 NOSIG
ZJSY,2003-04-19 18:00,ZJSY 191800Z AUTO 07003MPS //// // ////// 27/23 Q1008 NOSIG
ZJSY,2003-04-19 19:00,ZJSY 191900Z AUTO 08002MPS //// // ////// 27/23 Q1007 NOSIG
ZJSY,2003-04-19 20:00,ZJSY 192000Z AUTO 07003MPS //// // ////// 26/23 Q1007 NOSIG
ZJSY,2003-04-19 21:00,ZJSY 192100Z AUTO 05003MPS //// // ////// 27/23 Q1007 NOSIG
ZJSY,2003-04-19 22:00,ZJSY 192200Z 07003MPS 9999 FEW015 BKN060 27/23 Q1007 NOSIG
ZJSY,2003-04-19 23:00,ZJSY 192300Z 05003MPS 9999 FEW015 BKN070 27/23 Q1008 NOSIG
ZJSY,2003-04-20 00:00,ZJSY 200000Z 08004MPS 9999 SCT015 SCT070 28/23 Q1009 NOSIG
ZJSY,2003-04-20 01:00,ZJSY 200100Z 11003MPS 9999 SCT020 30/24 Q1010 NOSIG
ZJSY,2003-04-20 02:00,ZJSY 200200Z 13003MPS 9999 SCT020 SCT120 30/23 Q1010 NOSIG
ZJSY,2003-04-20 03:00,ZJSY 200300Z 14003MPS 9999 FEW020 SCT120 30/24 Q1011 NOSIG
ZJSY,2003-04-20 04:00,ZJSY 200400Z 15003MPS 9999 FEW020 31/24 Q1011 NOSIG
ZJSY,2003-04-20 05:00,ZJSY 200500Z 16004MPS 9999 FEW020 SCT300 31/23 Q1010 NOSIG
ZJSY,2003-04-20 06:00,ZJSY 200600Z 15003MPS 9999 FEW020 SCT300 30/23 Q1009 NOSIG
ZJSY,2003-04-20 07:00,ZJSY 200700Z 15003MPS 9999 FEW020 SCT300 31/22 Q1009 NOSIG
ZJSY,2003-04-20 08:00,ZJSY 200800Z 12004MPS CAVOK 31/22 Q1008 NOSIG
ZJSY,2003-04-20 09:00,ZJSY 200900Z 13004MPS CAVOK 31/21 Q1008 NOSIG
ZJSY,2003-04-20 10:00,ZJSY 201000Z 14003MPS CAVOK 30/22 Q1008 NOSIG
ZJSY,2003-04-20 11:00,ZJSY 201100Z 09003MPS CAVOK 29/21 Q1008 NOSIG
ZJSY,2003-04-20 12:00,ZJSY 201200Z 09003MPS CAVOK 29/22 Q1009 NOSIG
ZJSY,2003-04-20 13:00,ZJSY 201300Z 08004MPS CAVOK 27/23 Q1009 NOSIG
ZJSY,2003-04-20 14:00,ZJSY 201400Z 09003MPS CAVOK 27/23 Q1010 NOSIG
ZJSY,2003-04-20 15:00,ZJSY 201500Z 08004MPS CAVOK 27/23 Q1010 NOSIG
ZJSY,2003-04-20 16:00,ZJSY 201600Z 08003MPS CAVOK 27/24 Q1011 NOSIG
ZJSY,2003-04-20 17:00,ZJSY 201700Z AUTO 09002MPS //// // ////// 27/24 Q1010 NOSIG
ZJSY,2003-04-20 18:00,ZJSY 201800Z AUTO 08003MPS //// // ////// 27/24 Q1010 NOSIG
ZJSY,2003-04-20 19:00,ZJSY 201900Z AUTO 07003MPS //// // ////// 26/23 Q1010 NOSIG
ZJSY,2003-04-20 20:00,ZJSY 202000Z AUTO 07003MPS //// // ////// 26/23 Q1010 NOSIG
ZJSY,2003-04-20 21:00,ZJSY 202100Z 07003MPS 9999 FEW016 SCT200 26/24 Q1011 NOSIG
ZJSY,2003-04-20 22:00,ZJSY 202200Z 06002MPS CAVOK 26/23 Q1011 NOSIG
ZJSY,2003-04-20 23:00,ZJSY 202300Z 08002MPS 9999 FEW016 SCT200 26/23 Q1012 NOSIG
ZJSY,2003-04-21 00:00,ZJSY 210000Z 08003MPS 9999 FEW016 SCT200 28/24 Q1013 NOSIG
ZJSY,2003-04-21 01:00,ZJSY 210100Z 10003MPS 9999 FEW013 BKN018 29/23 Q1013 NOSIG
ZJSY,2003-04-21 02:00,ZJSY 210200Z 12004MPS 9999 BKN018 SCT230 29/23 Q1013 NOSIG
ZJSY,2003-04-21 03:00,ZJSY 210300Z 14004MPS 9999 BKN018 SCT230 29/23 Q1013 NOSIG
ZJSY,2003-04-21 04:00,ZJSY 210400Z 14004MPS 9999 BKN018 SCT230 30/23 Q1013 NOSIG
ZJSY,2003-04-21 05:00,ZJSY 210500Z 15005MPS 9999 SCT018 SCT230 31/23 Q1012 NOSIG
ZJSY,2003-04-21 06:00,ZJSY 210600Z 15005MPS 9999 SCT018 SCT230 31/23 Q1011 NOSIG
ZJSY,2003-04-21 07:00,ZJSY 210700Z 15006MPS 9999 FEW018 SCT230 30/23 Q1010 NOSIG
ZJSY,2003-04-21 08:00,ZJSY 210800Z 15005MPS 9999 FEW018 30/23 Q1010 NOSIG
ZJSY,2003-04-21 09:00,ZJSY 210900Z 14005MPS 9999 FEW018 30/22 Q1010 NOSIG
ZJSY,2003-04-21 11:00,ZJSY 211100Z 08005MPS 9999 FEW018 SCT260 28/21 Q1010 NOSIG
ZJSY,2003-04-21 12:00,ZJSY 211200Z 08006MPS 9999 FEW018 SCT260 27/21 Q1011 NOSIG
ZJSY,2003-04-21 13:00,ZJSY 211300Z 08006MPS 9999 FEW018 SCT260 27/22 Q1011 NOSIG
ZJSY,2003-04-21 14:00,ZJSY 211400Z 07004MPS 9999 FEW018 SCT260 26/22 Q1012 NOSIG
ZJSY,2003-04-21 15:00,ZJSY 211500Z 07005MPS 9999 FEW018 SCT260 26/22 Q1012 NOSIG
ZJSY,2003-04-21 16:00,ZJSY 211600Z 07005MPS 9999 FEW018 SCT260 26/21 Q1012 NOSIG
ZJSY,2003-04-21 17:00,ZJSY 211700Z AUTO 07004MPS //// // ////// 25/21 Q1012 NOSIG
ZJSY,2003-04-21 18:00,ZJSY 211800Z AUTO 04003MPS //// // ////// 26/21 Q1012 NOSIG
ZJSY,2003-04-21 19:00,ZJSY 211900Z AUTO 06003MPS //// // ////// 26/21 Q1012 NOSIG
ZJSY,2003-04-21 20:00,ZJSY 212000Z AUTO 05003MPS //// // ////// 26/21 Q1011 NOSIG
ZJSY,2003-04-21 21:00,ZJSY 212100Z AUTO 05003MPS //// // ////// 26/21 Q1011 NOSIG
ZJSY,2003-04-21 22:00,ZJSY 212200Z 06003MPS CAVOK 26/21 Q1012 NOSIG
ZJSY,2003-04-21 23:00,ZJSY 212300Z 05002MPS CAVOK 26/21 Q1013 NOSIG
ZJSY,2003-04-22 00:00,ZJSY 220000Z 05003MPS CAVOK 28/21 Q1014 NOSIG
ZJSY,2003-04-22 01:00,ZJSY 220100Z 08005MPS CAVOK 29/22 Q1014 NOSIG
ZJSY,2003-04-22 02:00,ZJSY 220200Z 09004MPS 9999 FEW020 31/21 Q1014 NOSIG
ZJSY,2003-04-22 03:00,ZJSY 220300Z 10005MPS 9999 FEW020 32/20 Q1014 NOSIG
ZJSY,2003-04-22 04:00,ZJSY 220400Z 15005MPS 9999 SCT020 31/22 Q1013 NOSIG
ZJSY,2003-04-22 05:00,ZJSY 220500Z 15005MPS 9999 SCT020 31/23 Q1013 NOSIG
ZJSY,2003-04-22 06:00,ZJSY 220600Z 15005MPS 9999 SCT020 32/22 Q1012 NOSIG
ZJSY,2003-04-22 07:00,ZJSY 220700Z 14005MPS 9999 FEW020 31/22 Q1011 NOSIG
ZJSY,2003-04-22 08:00,ZJSY 220800Z 15005MPS 9999 FEW020 31/22 Q1010 NOSIG
ZJSY,2003-04-22 09:00,ZJSY 220900Z 14005MPS 9999 FEW020 30/22 Q1010 NOSIG
ZJSY,2003-04-22 10:00,ZJSY 221000Z 14004MPS 9999 SCT020 29/23 Q1010 NOSIG
ZJSY,2003-04-22 11:00,ZJSY 221100Z 10005MPS 9999 SCT016 29/22 Q1010 NOSIG
ZJSY,2003-04-22 12:00,ZJSY 221200Z 08004MPS 9999 FEW016 SCT260 28/23 Q1011 NOSIG
ZJSY,2003-04-22 13:00,ZJSY 221300Z 08004MPS 9999 FEW016 SCT260 27/23 Q1012 NOSIG
ZJSY,2003-04-22 15:00,ZJSY 221500Z 08003MPS CAVOK 26/23 Q1013 NOSIG
ZJSY,2003-04-22 16:00,ZJSY 221600Z 08003MPS CAVOK 26/22 Q1013 NOSIG
ZJSY,2003-04-22 17:00,ZJSY 221700Z 08003MPS CAVOK 26/23 Q1012 NOSIG
ZJSY,2003-04-22 18:00,ZJSY 221800Z AUTO 08003MPS //// // ////// 25/22 Q1011 NOSIG
ZJSY,2003-04-22 19:00,ZJSY 221900Z AUTO 07003MPS //// // ////// 26/22 Q1011 NOSIG
ZJSY,2003-04-22 20:00,ZJSY 222000Z AUTO 06003MPS //// // ////// 26/23 Q1011 NOSIG
ZJSY,2003-04-22 21:00,ZJSY 222100Z AUTO 07003MPS //// // ////// 25/22 Q1011 NOSIG
ZJSY,2003-04-22 22:00,ZJSY 222200Z 08003MPS 9999 FEW016 SCT260 25/22 Q1011 NOSIG
ZJSY,2003-04-22 23:00,ZJSY 222300Z 07003MPS 9999 FEW016 BKN260 26/23 Q1011 NOSIG
ZJSY,2003-04-23 00:00,ZJSY 230000Z 07004MPS 9999 SCT015 SCT260 28/23 Q1012 NOSIG
ZJSY,2003-04-23 01:00,ZJSY 230100Z 08004MPS 9999 FEW016 29/23 Q1012 NOSIG
ZJSY,2003-04-23 02:00,ZJSY 230200Z 09003MPS 9999 FEW015 SCT016 31/23 Q1012 NOSIG
ZJSY,2003-04-23 03:00,ZJSY 230300Z 12003MPS 9999 SCT016 31/22 Q1012 NOSIG
ZJSY,2003-04-23 04:00,ZJSY 230400Z 15004MPS 9999 SCT016 30/24 Q1012 NOSIG
ZJSY,2003-04-23 05:00,ZJSY 230500Z 15005MPS 9999 FEW016 31/23 Q1011 NOSIG
ZJSY,2003-04-23 06:00,ZJSY 230600Z 15005MPS 9999 FEW016 31/23 Q1010 NOSIG
ZJSY,2003-04-23 07:00,ZJSY 230700Z 16005MPS 9999 FEW016 FEW030CB 31/23 Q1010 NOSIG
ZJSY,2003-04-23 08:00,ZJSY 230800Z 16004MPS 9999 FEW016 FEW030CB 30/24 Q1009 NOSIG
ZJSY,2003-04-23 09:00,ZJSY 230900Z 16004MPS 9999 FEW016 29/23 Q1009 NOSIG
ZJSY,2003-04-23 10:00,ZJSY 231000Z 15003MPS 9999 FEW016 29/24 Q1009 NOSIG
ZJSY,2003-04-23 11:00,ZJSY 231100Z 14003MPS 9999 FEW016 28/24 Q1009 NOSIG
ZJSY,2003-04-23 12:00,ZJSY 231200Z 14002MPS CAVOK 28/24 Q1009 NOSIG
ZJSY,2003-04-23 13:00,ZJSY 231300Z 12002MPS CAVOK 28/24 Q1010 NOSIG
ZJSY,2003-04-23 14:00,ZJSY 231400Z 05002MPS CAVOK 27/23 Q1011 NOSIG
ZJSY,2003-04-23 15:00,ZJSY 231500Z 04002MPS CAVOK 27/23 Q1011 NOSIG
ZJSY,2003-04-23 16:00,ZJSY 231600Z 07002MPS CAVOK 27/23 Q1011 NOSIG
ZJSY,2003-04-23 17:00,ZJSY 231700Z AUTO 06003MPS //// // ////// 26/23 Q1010 NOSIG
ZJSY,2003-04-23 18:00,ZJSY 231800Z AUTO 09002MPS //// // ////// 26/23 Q1009 NOSIG
ZJSY,2003-04-23 19:00,ZJSY 231900Z AUTO 07002MPS //// // ////// 25/22 Q1009 NOSIG
ZJSY,2003-04-23 20:00,ZJSY 232000Z AUTO 05002MPS //// // ////// 25/23 Q1008 NOSIG
ZJSY,2003-04-23 21:00,ZJSY 232100Z AUTO 33002MPS //// // ////// 25/22 Q1009 NOSIG
ZJSY,2003-04-23 22:00,ZJSY 232200Z 04002MPS CAVOK 26/23 Q1009 NOSIG
ZJSY,2003-04-23 23:00,ZJSY 232300Z 33002MPS 9999 BKN018 25/23 Q1010 NOSIG
ZJSY,2003-04-24 00:00,ZJSY 240000Z 08003MPS 9999 SCT018 28/23 Q1010 NOSIG
ZJSY,2003-04-24 01:00,ZJSY 240100Z 12003MPS 9999 SCT018 FEW026TCU SCT260 29/23 Q1011 NOSIG
ZJSY,2003-04-24 02:00,ZJSY 240200Z 15003MPS 9999 SCT018 30/23 Q1011 NOSIG
ZJSY,2003-04-24 03:00,ZJSY 240300Z 15004MPS 9999 SCT018 30/24 Q1011 NOSIG
ZJSY,2003-04-24 04:00,ZJSY 240400Z 15004MPS 9999 SCT018 30/23 Q1011 NOSIG
ZJSY,2003-04-24 05:00,ZJSY 240500Z 16004MPS 9999 SCT018 31/23 Q1010 NOSIG
ZJSY,2003-04-24 06:00,ZJSY 240600Z 17004MPS 9999 SCT018 30/23 Q1009 NOSIG
ZJSY,2003-04-24 07:00,ZJSY 240700Z 16004MPS 9999 SCT018 30/23 Q1008 NOSIG
ZJSY,2003-04-24 08:00,ZJSY 240800Z 16004MPS 9999 FEW018 30/23 Q1008 NOSIG
ZJSY,2003-04-24 09:00,ZJSY 240900Z 15003MPS 9999 FEW018 30/23 Q1007 NOSIG
ZJSY,2003-04-24 10:00,ZJSY 241000Z 16002MPS 9999 FEW018 SCT230 29/23 Q1007 NOSIG
ZJSY,2003-04-24 11:00,ZJSY 241100Z 14003MPS CAVOK 28/23 Q1008 NOSIG
ZJSY,2003-04-24 12:00,ZJSY 241200Z 12002MPS CAVOK 28/23 Q1008 NOSIG
ZJSY,2003-04-24 13:00,ZJSY 241300Z 11002MPS CAVOK 28/23 Q1009 NOSIG
ZJSY,2003-04-24 14:00,ZJSY 241400Z 06002MPS CAVOK 27/23 Q1010 NOSIG
ZJSY,2003-04-24 15:00,ZJSY 241500Z 05002MPS CAVOK 27/23 Q1010 NOSIG
ZJSY,2003-04-24 16:00,ZJSY 241600Z 35001MPS CAVOK 26/23 Q1010 NOSIG
ZJSY,2003-04-24 17:00,ZJSY 241700Z AUTO 01001MPS //// // ////// 26/23 Q1010 NOSIG
ZJSY,2003-04-24 18:00,ZJSY 241800Z AUTO 34001MPS //// // ////// 26/23 Q1010 NOSIG
ZJSY,2003-04-24 19:00,ZJSY 241900Z AUTO 33003MPS //// // ////// 25/22 Q1009 NOSIG
ZJSY,2003-04-24 20:00,ZJSY 242000Z AUTO 34002MPS //// // ////// 25/22 Q1009 NOSIG
ZJSY,2003-04-24 21:00,ZJSY 242100Z AUTO 36001MPS //// // ////// 25/22 Q1009 NOSIG
ZJSY,2003-04-24 22:00,ZJSY 242200Z 34002MPS CAVOK 25/22 Q1009 NOSIG
ZJSY,2003-04-24 23:00,ZJSY 242300Z 34002MPS 9999 FEW020 BKN230 25/22 Q1010 NOSIG
ZJSY,2003-04-25 01:00,ZJSY 250100Z 07004MPS CAVOK 29/22 Q1011 NOSIG
ZJSY,2003-04-25 02:00,ZJSY 250200Z 14003MPS 9999 SCT020 BKN260 30/22 Q1011 NOSIG
ZJSY,2003-04-25 03:00,ZJSY 250300Z 15003MPS 9999 FEW020TCU SCT020 BKN260 30/23 Q1011 NOSIG
ZJSY,2003-04-25 04:00,ZJSY 250400Z 16004MPS 9999 FEW020TCU SCT020 BKN260 30/24 Q1011 NOSIG
ZJSY,2003-04-25 05:00,ZJSY 250500Z 16003MPS 9999 SCT021 BKN260 30/24 Q1010 NOSIG
ZJSY,2003-04-25 06:00,ZJSY 250600Z 16004MPS 9999 SCT021 BKN260 30/24 Q1010 NOSIG
ZJSY,2003-04-25 07:00,ZJSY 250700Z 17004MPS 9999 SCT018 BKN260 30/24 Q1009 NOSIG
ZJSY,2003-04-25 08:00,ZJSY 250800Z 16004MPS 9999 SCT018 SCT260 30/24 Q1008 NOSIG
ZJSY,2003-04-25 09:00,ZJSY 250900Z 16003MPS 9999 SCT018 BKN260 29/24 Q1008 NOSIG
ZJSY,2003-04-25 10:00,ZJSY 251000Z 15003MPS 9999 SCT013 BKN100 29/23 Q1008 NOSIG
ZJSY,2003-04-25 11:00,ZJSY 251100Z 15003MPS 9999 SCT013 BKN060 29/24 Q1009 NOSIG
ZJSY,2003-04-25 12:00,ZJSY 251200Z 14002MPS 9999 SCT013 BKN060 29/23 Q1010 NOSIG
ZJSY,2003-04-25 13:00,ZJSY 251300Z 11002MPS 9999 SCT013 BKN060 28/23 Q1010 NOSIG
ZJSY,2003-04-25 14:00,ZJSY 251400Z 08003MPS 9999 FEW015 SCT230 28/23 Q1010 NOSIG
ZJSY,2003-04-25 15:00,ZJSY 251500Z 06003MPS 9999 SCT015 SCT230 28/23 Q1011 NOSIG
ZJSY,2003-04-25 16:00,ZJSY 251600Z 06002MPS 9999 SCT015 SCT230 27/23 Q1011 NOSIG
ZJSY,2003-04-25 17:00,ZJSY 251700Z AUTO 07002MPS //// // ////// 27/23 Q1010 NOSIG
ZJSY,2003-04-25 18:00,ZJSY 251800Z AUTO 04002MPS //// // ////// 27/23 Q1010 NOSIG
ZJSY,2003-04-25 19:00,ZJSY 251900Z AUTO 04002MPS //// // ////// 26/22 Q1009 NOSIG
ZJSY,2003-04-25 20:00,ZJSY 252000Z AUTO 06002MPS //// // ////// 26/23 Q1009 NOSIG
ZJSY,2003-04-25 21:00,ZJSY 252100Z AUTO 35001MPS //// // ////// 25/22 Q1009 NOSIG
ZJSY,2003-04-25 22:00,ZJSY 252200Z 34001MPS CAVOK 25/22 Q1009 NOSIG
ZJSY,2003-04-25 23:00,ZJSY 252300Z 36001MPS CAVOK 25/22 Q1010 NOSIG
ZJSY,2003-04-26 00:00,ZJSY 260000Z 07004MPS CAVOK 28/22 Q1011 NOSIG
ZJSY,2003-04-26 01:00,ZJSY 260100Z 08004MPS CAVOK 29/22 Q1011 NOSIG
ZJSY,2003-04-26 02:00,ZJSY 260200Z 13003MPS 9999 SCT018 BKN260 30/22 Q1012 NOSIG
ZJSY,2003-04-26 03:00,ZJSY 260300Z 16003MPS 9999 FEW018 SCT260 31/21 Q1012 NOSIG
ZJSY,2003-04-26 04:00,ZJSY 260400Z 16004MPS 9999 FEW018 SCT260 31/23 Q1011 NOSIG
ZJSY,2003-04-26 05:00,ZJSY 260500Z 16005MPS 9999 FEW018 SCT260 31/23 Q1011 NOSIG
ZJSY,2003-04-26 06:00,ZJSY 260600Z 16005MPS 9999 FEW018 SCT260 30/22 Q1010 NOSIG
ZJSY,2003-04-26 07:00,ZJSY 260700Z 15005MPS 9999 FEW018 31/23 Q1009 NOSIG
ZJSY,2003-04-26 08:00,ZJSY 260800Z 15005MPS CAVOK 30/23 Q1008 NOSIG
ZJSY,2003-04-26 09:00,ZJSY 260900Z 15005MPS CAVOK 30/23 Q1008 NOSIG
ZJSY,2003-04-26 10:00,ZJSY 261000Z 13006MPS 9999 SCT018 SCT260 30/22 Q1008 NOSIG
ZJSY,2003-04-26 11:00,ZJSY 261100Z 11004MPS 9999 SCT018 SCT260 29/22 Q1009 NOSIG
ZJSY,2003-04-26 12:00,ZJSY 261200Z 08005MPS 9999 FEW018 SCT260 28/22 Q1010 NOSIG
ZJSY,2003-04-26 13:00,ZJSY 261300Z 06003MPS 9999 FEW018 SCT260 27/23 Q1011 NOSIG
ZJSY,2003-04-26 14:00,ZJSY 261400Z 07003MPS 9999 FEW018 SCT260 27/23 Q1012 NOSIG
ZJSY,2003-04-26 15:00,ZJSY 261500Z 07003MPS 9999 FEW018 SCT260 27/23 Q1012 NOSIG
ZJSY,2003-04-26 16:00,ZJSY 261600Z 08003MPS 9999 FEW018 SCT260 27/23 Q1011 NOSIG
ZJSY,2003-04-26 17:00,ZJSY 261700Z AUTO 07004MPS //// // ////// 27/23 Q1010 NOSIG
ZJSY,2003-04-26 18:00,ZJSY 261800Z AUTO 06003MPS //// // ////// 27/23 Q1010 NOSIG
ZJSY,2003-04-26 19:00,ZJSY 261900Z AUTO 06002MPS //// // ////// 26/22 Q1009 NOSIG
ZJSY,2003-04-26 20:00,ZJSY 262000Z AUTO 05002MPS //// // ////// 26/22 Q1009 NOSIG
ZJSY,2003-04-26 21:00,ZJSY 262100Z AUTO 06003MPS //// // ////// 26/22 Q1009 NOSIG
ZJSY,2003-04-26 22:00,ZJSY 262200Z AUTO 07003MPS //// // ////// 26/22 Q1010 NOSIG
ZJSY,2003-04-26 23:00,ZJSY 262300Z 07004MPS 9999 FEW018 BKN050 BKN260 27/22 Q1010 NOSIG
ZJSY,2003-04-27 00:00,ZJSY 270000Z 07005MPS CAVOK 28/22 Q1011 NOSIG
ZJSY,2003-04-27 01:00,ZJSY 270100Z 07006MPS 9999 FEW020 BKN060 30/21 Q1012 NOSIG
ZJSY,2003-04-27 03:00,ZJSY 270300Z 09006MPS 9999 SCT021 BKN300 32/21 Q1012 NOSIG
ZJSY,2003-04-27 04:00,ZJSY 270400Z 13005MPS 9999 SCT021 BKN300 31/22 Q1012 NOSIG
ZJSY,2003-04-27 05:00,ZJSY 270500Z 10006MPS 9999 SCT021 BKN300 33/20 Q1011 NOSIG
ZJSY,2003-04-27 06:00,ZJSY 270600Z 14006MPS 9999 SCT023 SCT300 31/22 Q1010 NOSIG
ZJSY,2003-04-27 07:00,ZJSY 270700Z 14005MPS 9999 SCT023 SCT300 32/21 Q1009 NOSIG
ZJSY,2003-04-27 08:00,ZJSY 270800Z 14005MPS 9999 SCT023 SCT300 31/21 Q1009 NOSIG
ZJSY,2003-04-27 09:00,ZJSY 270900Z 10005MPS 9999 FEW023 SCT300 32/20 Q1008 NOSIG
ZJSY,2003-04-27 10:00,ZJSY 271000Z 08008MPS 9999 FEW023 SCT300 30/19 Q1009 NOSIG
ZJSY,2003-04-27 11:00,ZJSY 271100Z 08007MPS 9999 FEW023 SCT300 29/21 Q1009 NOSIG
ZJSY,2003-04-27 12:00,ZJSY 271200Z 08005MPS CAVOK 28/22 Q1009 NOSIG
ZJSY,2003-04-27 13:00,ZJSY 271300Z 07005MPS CAVOK 27/22 Q1011 NOSIG
ZJSY,2003-04-27 14:00,ZJSY 271400Z 08003MPS CAVOK 27/22 Q1011 NOSIG
ZJSY,2003-04-27 15:00,ZJSY 271500Z 06003MPS CAVOK 27/22 Q1011 NOSIG
ZJSY,2003-04-27 16:00,ZJSY 271600Z 06002MPS CAVOK 27/21 Q1012 NOSIG
ZJSY,2003-04-27 17:00,ZJSY 271700Z AUTO 06002MPS //// // ////// 26/21 Q1011 NOSIG
ZJSY,2003-04-27 18:00,ZJSY 271800Z AUTO 07002MPS //// // ////// 25/21 Q1011 NOSIG
ZJSY,2003-04-27 19:00,ZJSY 271900Z AUTO 06002MPS //// // ////// 25/21 Q1010 NOSIG
ZJSY,2003-04-27 20:00,ZJSY 272000Z AUTO 05003MPS //// // ////// 26/21 Q1010 NOSIG
ZJSY,2003-04-27 21:00,ZJSY 272100Z AUTO 12001MPS //// // ////// 25/21 Q1010 NOSIG
ZJSY,2003-04-27 22:00,ZJSY 272200Z AUTO 06002MPS //// // ////// 25/21 Q1010 NOSIG
ZJSY,2003-04-27 23:00,ZJSY 272300Z 07002MPS CAVOK 25/21 Q1011 NOSIG
ZJSY,2003-04-28 00:00,ZJSY 280000Z 06003MPS CAVOK 28/22 Q1012 NOSIG
ZJSY,2003-04-28 01:00,ZJSY 280100Z 07005MPS CAVOK 30/21 Q1012 NOSIG
ZJSY,2003-04-28 02:00,ZJSY 280200Z 09005MPS CAVOK 29/21 Q1013 NOSIG
ZJSY,2003-04-28 03:00,ZJSY 280300Z 12004MPS 9999 FEW015 SCT060 29/21 Q1013 NOSIG
ZJSY,2003-04-28 04:00,ZJSY 280400Z 05006MPS 9999 -RA FEW013 SCT020 29/21 Q1012 NOSIG
ZJSY,2003-04-28 05:00,ZJSY 280500Z 04004MPS 9999 -RA SCT013 SCT020 30/22 Q1012 NOSIG
ZJSY,2003-04-28 06:00,ZJSY 280600Z 14004MPS 9999 FEW013 SCT020 30/22 Q1011 NOSIG
ZJSY,2003-04-28 07:00,ZJSY 280700Z 12004MPS 9999 FEW013 SCT020 30/22 Q1010 NOSIG
ZJSY,2003-04-28 08:00,ZJSY 280800Z 09005MPS 9999 FEW013 SCT020 31/22 Q1009 NOSIG
ZJSY,2003-04-28 09:00,ZJSY 280900Z 07007MPS 9999 FEW013 BKN053 30/21 Q1009 NOSIG
ZJSY,2003-04-28 10:00,ZJSY 281000Z 09005MPS 9999 SCT018 BKN230 30/22 Q1009 NOSIG
ZJSY,2003-04-28 11:00,ZJSY 281100Z 07005MPS CAVOK 28/21 Q1010 NOSIG
ZJSY,2003-04-28 12:00,ZJSY 281200Z 08004MPS CAVOK 27/23 Q1011 NOSIG
ZJSY,2003-04-28 13:00,ZJSY 281300Z 08003MPS CAVOK 27/22 Q1011 NOSIG
ZJSY,2003-04-28 14:00,ZJSY 281400Z 07003MPS CAVOK 27/22 Q1012 NOSIG
ZJSY,2003-04-28 15:00,ZJSY 281500Z 05002MPS CAVOK 26/22 Q1013 NOSIG
ZJSY,2003-04-28 16:00,ZJSY 281600Z 06003MPS CAVOK 26/22 Q1012 NOSIG
ZJSY,2003-04-28 17:00,ZJSY 281700Z AUTO 09002MPS //// // ////// 25/22 Q1012 NOSIG
ZJSY,2003-04-28 18:00,ZJSY 281800Z AUTO 03001MPS //// // ////// 25/21 Q1011 NOSIG
ZJSY,2003-04-28 19:00,ZJSY 281900Z AUTO 06002MPS //// // ////// 25/21 Q1011 NOSIG
ZJSY,2003-04-28 20:00,ZJSY 282000Z AUTO 06002MPS //// // ////// 25/21 Q1010 NOSIG
ZJSY,2003-04-28 21:00,ZJSY 282100Z AUTO 05003MPS //// // ////// 25/21 Q1010 NOSIG
ZJSY,2003-04-28 22:00,ZJSY 282200Z 06002MPS CAVOK 25/21 Q1011 NOSIG
ZJSY,2003-04-28 23:00,ZJSY 282300Z 04003MPS CAVOK 26/21 Q1012 NOSIG
ZJSY,2003-04-29 00:00,ZJSY 290000Z 05004MPS CAVOK 28/21 Q1013 NOSIG
ZJSY,2003-04-29 03:00,ZJSY 290300Z 18004MPS CAVOK 31/23 Q1013 NOSIG
ZJSY,2003-04-29 04:00,ZJSY 290400Z 16005MPS 9999 FEW020 31/24 Q1013 NOSIG
ZJSY,2003-04-29 05:00,ZJSY 290500Z 17004MPS 9999 SCT020 SCT230 31/23 Q1013 NOSIG
ZJSY,2003-04-29 06:00,ZJSY 290600Z 16005MPS 9999 SCT020 SCT230 30/23 Q1012 NOSIG
ZJSY,2003-04-29 07:00,ZJSY 290700Z 13004MPS 9999 FEW020 SCT043 30/22 Q1011 RETS NOSIG
ZJSY,2003-04-29 08:00,ZJSY 290800Z 11003MPS 9999 FEW020 SCT230 31/22 Q1010 NOSIG
ZJSY,2003-04-29 09:00,ZJSY 290900Z 13002MPS 9999 SCT020 FEW026TCU BKN230 30/22 Q1010 NOSIG
ZJSY,2003-04-29 10:00,ZJSY 291000Z 14004MPS 9999 SCT013 SCT026CB BKN230 27/23 Q1010 NOSIG
ZJSY,2003-04-29 11:00,ZJSY 291100Z 09003MPS 9999 SCT013 SCT026CB BKN230 27/21 Q1011 NOSIG
ZJSY,2003-04-29 12:00,ZJSY 291200Z 29001MPS 9999 SCT013 FEW026CB BKN230 26/23 Q1012 NOSIG
ZJSY,2003-04-29 13:00,ZJSY 291300Z 34002MPS 9999 SCT015 BKN230 26/23 Q1013 NOSIG
ZJSY,2003-04-29 14:00,ZJSY 291400Z 36001MPS 9999 FEW015 BKN230 25/22 Q1013 NOSIG
ZJSY,2003-04-29 15:00,ZJSY 291500Z 00000MPS 9999 FEW015 BKN230 25/22 Q1014 NOSIG
ZJSY,2003-04-29 16:00,ZJSY 291600Z 35002MPS 9999 FEW015 BKN230 25/22 Q1014 NOSIG
ZJSY,2003-04-29 17:00,ZJSY 291700Z AUTO 32001MPS //// // ////// 25/22 Q1013 NOSIG
ZJSY,2003-04-29 18:00,ZJSY 291800Z AUTO 34002MPS //// // ////// 25/22 Q1013 NOSIG
ZJSY,2003-04-29 19:00,ZJSY 291900Z AUTO 32001MPS //// // ////// 25/22 Q1012 NOSIG
ZJSY,2003-04-29 20:00,ZJSY 292000Z AUTO 01001MPS //// // ////// 25/22 Q1012 NOSIG
ZJSY,2003-04-29 21:00,ZJSY 292100Z AUTO 32001MPS //// // ////// 24/21 Q1012 NOSIG
ZJSY,2003-04-29 22:00,ZJSY 292200Z 35001MPS CAVOK 24/21 Q1013 NOSIG
ZJSY,2003-04-29 23:00,ZJSY 292300Z AUTO 35001MPS //// // ////// 24/21 Q1013 NOSIG
ZJSY,2003-04-30 00:00,ZJSY 300000Z 35001MPS CAVOK 28/21 Q1014 NOSIG
ZJSY,2003-04-30 01:00,ZJSY 300100Z 12002MPS CAVOK 29/21 Q1014 NOSIG
ZJSY,2003-04-30 02:00,ZJSY 300200Z 18002MPS CAVOK 30/20 Q1014 NOSIG
ZJSY,2003-04-30 03:00,ZJSY 300300Z 21003MPS 9999 FEW018 SCT260 30/21 Q1014 NOSIG
ZJSY,2003-04-30 04:00,ZJSY 300400Z 20004MPS 9999 SCT018 30/21 Q1013 NOSIG
ZJSY,2003-04-30 05:00,ZJSY 300500Z 21005MPS 9999 FEW020TCU SCT020 29/21 Q1013 NOSIG
ZJSY,2003-04-30 06:00,ZJSY 300600Z 21005MPS 9999 FEW020TCU SCT020 30/22 Q1012 NOSIG
ZJSY,2003-04-30 07:00,ZJSY 300700Z 20003MPS 9999 SCT020 FEW021TCU SCT260 30/22 Q1011 NOSIG
ZJSY,2003-04-30 08:00,ZJSY 300800Z 21004MPS 9999 SCT018 FEW021CB 30/22 Q1011 NOSIG
ZJSY,2003-04-30 09:00,ZJSY 300900Z 11005MPS 9999 BKN012 FEW021TCU FEW028CB 25/22 Q1011 TEMPO -TSRA
ZJSY,2003-04-30 10:00,ZJSY 301000Z 01002MPS 7000 -SHRA BKN012 FEW033CB OVC053 24/21 Q1011
ZJSY,2003-04-30 11:00,ZJSY 301100Z 28001MPS 9999 -RA BKN012 BKN053 24/22 Q1011
ZJSY,2003-04-30 12:00,ZJSY 301200Z 12001MPS 9999 SCT013 BKN053 24/22 Q1012
ZJSY,2003-04-30 13:00,ZJSY 301300Z 01002MPS 9999 FEW013 BKN053 25/22 Q1012
ZJSY,2003-04-30 14:00,ZJSY 301400Z 07003MPS 9999 FEW013 BKN053 25/22 Q1012
ZJSY,2003-04-30 15:00,ZJSY 301500Z 06003MPS 9999 FEW013 BKN053 25/22 Q1013
ZJSY,2003-04-30 16:00,ZJSY 301600Z 32001MPS 9999 FEW013 BKN053 25/22 Q1012
ZJSY,2003-04-30 17:00,ZJSY 301700Z AUTO 00000MPS //// // ////// 24/22 Q1012
ZJSY,2003-04-30 18:00,ZJSY 301800Z AUTO 05001MPS //// // ////// 24/22 Q1011
ZJSY,2003-04-30 19:00,ZJSY 301900Z AUTO 33001MPS //// // ////// 24/22 Q1011
ZJSY,2003-04-30 20:00,ZJSY 302000Z AUTO 08002MPS //// // ////// 24/21 Q1010
ZJSY,2003-04-30 21:00,ZJSY 302100Z AUTO 10001MPS //// // ////// 24/21 Q1010
ZJSY,2003-04-30 22:00,ZJSY 302200Z 36001MPS 5000 BR NSC 23/21 Q1010
ZJSY,2003-04-30 23:00,ZJSY 302300Z 00000MPS 4000 BR NSC 23/21 Q1010
ZJSY,2003-05-01 00:00,ZJSY 010000Z 11001MPS 4000 BR NSC 25/21 Q1011
ZJSY,2003-05-01 01:00,ZJSY 010100Z 20001MPS 4000 BR NSC 27/21 Q1012
ZJSY,2003-05-01 02:00,ZJSY 010200Z 19002MPS 5000 BR SCT013 BKN200 28/22 Q1012
ZJSY,2003-05-01 03:00,ZJSY 010300Z 20002MPS 5000 BR SCT013 BKN200 29/21 Q1012
ZJSY,2003-05-01 04:00,ZJSY 010400Z 20003MPS 5000 BR SCT013 BKN200 30/22 Q1012
ZJSY,2003-05-01 05:00,ZJSY 010500Z 24004MPS 5000 BR SCT013 BKN200 30/22 Q1011
ZJSY,2003-05-01 06:00,ZJSY 010600Z 21004MPS 5000 BR FEW013 BKN200 29/21 Q1010
ZJSY,2003-05-01 07:00,ZJSY 010700Z 20003MPS 5000 BR FEW013 BKN200 29/21 Q1009
ZJSY,2003-05-01 08:00,ZJSY 010800Z 10005MPS 9999 BKN013 BKN040 28/22 Q1009
ZJSY,2003-05-01 09:00,ZJSY 010900Z 08006MPS 9999 BKN013 BKN046 26/22 Q1009
ZJSY,2003-05-01 10:00,ZJSY 011000Z 07005MPS 9999 BKN013 BKN046 26/22 Q1009
ZJSY,2003-05-01 11:00,ZJSY 011100Z 08004MPS 9999 BKN013 BKN046 26/22 Q1009
ZJSY,2003-05-01 12:00,ZJSY 011200Z 03002MPS 9999 SCT013 BKN043 BKN060 26/22 Q1010
ZJSY,2003-05-01 13:00,ZJSY 011300Z 04002MPS 9999 SCT013 BKN043 BKN060 26/21 Q1010
ZJSY,2003-05-01 14:00,ZJSY 011400Z 06003MPS 9999 SCT015 BKN043 BKN060 26/21 Q1011
ZJSY,2003-05-01 15:00,ZJSY 011500Z 05002MPS 9999 SCT015 BKN040 BKN060 26/21 Q1011
ZJSY,2003-05-01 16:00,ZJSY 011600Z 05003MPS 9999 SCT015 BKN040 BKN060 26/21 Q1011
ZJSY,2003-05-01 17:00,ZJSY 011700Z AUTO 06002MPS //// // ////// 26/21 Q1010
ZJSY,2003-05-01 18:00,ZJSY 011800Z AUTO 02001MPS //// // ////// 26/21 Q1010
ZJSY,2003-05-01 19:00,ZJSY 011900Z AUTO 08003MPS //// // ////// 25/22 Q1009
ZJSY,2003-05-01 20:00,ZJSY 012000Z AUTO 01001MPS //// // ////// 25/22 Q1008
ZJSY,2003-05-01 21:00,ZJSY 012100Z AUTO 02001MPS //// // ////// 25/22 Q1009
ZJSY,2003-05-01 22:00,ZJSY 012200Z 07003MPS CAVOK 24/22 Q1009
ZJSY,2003-05-01 23:00,ZJSY 012300Z 06001MPS CAVOK 25/22 Q1009
ZJSY,2003-05-02 00:00,ZJSY 020000Z 07002MPS CAVOK 28/22 Q1010
ZJSY,2003-05-02 01:00,ZJSY 020100Z 08003MPS CAVOK 29/21 Q1010
ZJSY,2003-05-02 02:00,ZJSY 020200Z 15002MPS CAVOK 29/21 Q1011
ZJSY,2003-05-02 03:00,ZJSY 020300Z 16002MPS 9999 FEW016 BKN230 30/21 Q1010
ZJSY,2003-05-02 04:00,ZJSY 020400Z 18003MPS 9999 FEW016 BKN230 30/21 Q1010
ZJSY,2003-05-02 05:00,ZJSY 020500Z 19003MPS 9999 FEW016 SCT230 30/22 Q1009
ZJSY,2003-05-02 06:00,ZJSY 020600Z 17004MPS 9999 FEW016 SCT230 30/22 Q1008
ZJSY,2003-05-02 08:00,ZJSY 020800Z 16004MPS 9999 FEW016 SCT230 30/23 Q1007
ZJSY,2003-05-02 09:00,ZJSY 020900Z 16003MPS 9999 FEW016 SCT230 29/23 Q1006
ZJSY,2003-05-02 10:00,ZJSY 021000Z 15002MPS 9999 FEW016 SCT260 29/23 Q1006 NOSIG
ZJSY,2003-05-02 11:00,ZJSY 021100Z 13003MPS CAVOK 28/23 Q1006 NOSIG
ZJSY,2003-05-02 12:00,ZJSY 021200Z 12002MPS CAVOK 28/22 Q1007 NOSIG
ZJSY,2003-05-02 13:00,ZJSY 021300Z 07003MPS CAVOK 27/23 Q1007 NOSIG
ZJSY,2003-05-02 14:00,ZJSY 021400Z 06003MPS CAVOK 27/22 Q1008 NOSIG
ZJSY,2003-05-02 15:00,ZJSY 021500Z 06002MPS CAVOK 26/22 Q1008 NOSIG
ZJSY,2003-05-02 16:00,ZJSY 021600Z 06002MPS CAVOK 26/22 Q1008 NOSIG
ZJSY,2003-05-02 17:00,ZJSY 021700Z AUTO 07002MPS //// // ////// 26/23 Q1008 NOSIG
ZJSY,2003-05-02 18:00,ZJSY 021800Z AUTO 04003MPS //// // ////// 26/23 Q1007 NOSIG
ZJSY,2003-05-02 19:00,ZJSY 021900Z AUTO 04002MPS //// // ////// 27/23 Q1007 NOSIG
ZJSY,2003-05-02 20:00,ZJSY 022000Z AUTO 06003MPS //// // ////// 26/23 Q1006 NOSIG
ZJSY,2003-05-02 21:00,ZJSY 022100Z AUTO 05003MPS //// // ////// 27/23 Q1007 NOSIG
ZJSY,2003-05-02 22:00,ZJSY 022200Z 03002MPS 9999 SCT014 SCT260 26/23 Q1007 NOSIG
ZJSY,2003-05-02 23:00,ZJSY 022300Z 32001MPS 9999 SCT014 SCT100 BKN260 26/23 Q1007 NOSIG
ZJSY,2003-05-03 00:00,ZJSY 030000Z 05002MPS 9999 SCT014 BKN100 27/24 Q1008 NOSIG
ZJSY,2003-05-03 01:00,ZJSY 030100Z 08002MPS 9999 FEW014 OVC100 28/24 Q1009 NOSIG
ZJSY,2003-05-03 02:00,ZJSY 030200Z 08002MPS 9999 -RA SCT013 OVC100 28/24 Q1009 NOSIG
ZJSY,2003-05-03 03:00,ZJSY 030300Z 00000MPS 9999 -RA BKN011 OVC100 27/24 Q1008 NOSIG
ZJSY,2003-05-03 04:00,ZJSY 030400Z 34001MPS 9999 -RA BKN011 OVC100 27/24 Q1009 NOSIG
ZJSY,2003-05-03 05:00,ZJSY 030500Z 12004MPS 2000 TSRA BKN010 FEW026CB OVC100 25/22 Q1008 NOSIG
ZJSY,2003-05-03 06:00,ZJSY 030600Z 32003MPS 3000 TSRA BKN010 FEW026CB OVC100 23/22 Q1008 NOSIG
ZJSY,2003-05-03 07:00,ZJSY 030700Z 00000MPS 4000 RA BKN010 FEW033CB OVC100 24/22 Q1008 RETS
ZJSY,2003-05-03 08:00,ZJSY 030800Z 06004MPS 9999 SCT010 FEW033CB OVC100 24/23 Q1006 RERA
ZJSY,2003-05-03 09:00,ZJSY 030900Z 09003MPS 9999 FEW010 SCT033 OVC100 25/23 Q1006 RETS
ZJSY,2003-05-03 10:00,ZJSY 031000Z 09003MPS 9999 FEW015 BKN043 BKN100 25/22 Q1006
ZJSY,2003-05-03 11:00,ZJSY 031100Z 10003MPS 9999 FEW015 BKN043 BKN100 25/22 Q1006
ZJSY,2003-05-03 12:00,ZJSY 031200Z 09003MPS 9999 BKN046 BKN200 25/22 Q1006
ZJSY,2003-05-03 13:00,ZJSY 031300Z 08003MPS 9999 BKN046 BKN200 24/22 Q1007
ZJSY,2003-05-03 14:00,ZJSY 031400Z 06002MPS 9999 BKN046 BKN200 24/22 Q1007
ZJSY,2003-05-03 15:00,ZJSY 031500Z 05002MPS 9999 BKN046 BKN200 25/22 Q1007
ZJSY,2003-05-03 16:00,ZJSY 031600Z 06002MPS 9999 BKN046 BKN200 25/22 Q1007
ZJSY,2003-05-03 17:00,ZJSY 031700Z AUTO 06002MPS //// // ////// 25/22 Q1007
ZJSY,2003-05-03 18:00,ZJSY 031800Z AUTO 03001MPS //// // ////// 25/22 Q1006
ZJSY,2003-05-03 19:00,ZJSY 031900Z AUTO 05002MPS //// // ////// 25/23 Q1005
ZJSY,2003-05-03 20:00,ZJSY 032000Z AUTO 36002MPS //// // ////// 25/23 Q1005
ZJSY,2003-05-03 21:00,ZJSY 032100Z AUTO 05001MPS //// // ////// 26/23 Q1005
ZJSY,2003-05-03 22:00,ZJSY 032200Z 01001MPS 9999 BKN046 BKN200 26/23 Q1006
ZJSY,2003-05-03 23:00,ZJSY 032300Z 02001MPS 9999 BKN046 BKN200 26/24 Q1006
ZJSY,2003-05-04 00:00,ZJSY 040000Z 04002MPS 9999 SCT015 BKN200 27/24 Q1007
ZJSY,2003-05-04 01:00,ZJSY 040100Z 08001MPS 9999 SCT015 BKN043 BKN200 29/25 Q1007
ZJSY,2003-05-04 02:00,ZJSY 040200Z 14002MPS 9999 SCT016 BKN043 BKN200 29/25 Q1007
ZJSY,2003-05-04 03:00,ZJSY 040300Z 13002MPS 9999 SCT016 BKN043 BKN200 30/25 Q1007
ZJSY,2003-05-04 04:00,ZJSY 040400Z 14002MPS 9999 SCT016 BKN043 BKN200 30/25 Q1007
ZJSY,2003-05-04 05:00,ZJSY 040500Z 17002MPS 9999 SCT016 BKN043 BKN200 30/26 Q1006
ZJSY,2003-05-04 06:00,ZJSY 040600Z 19003MPS 9999 SCT016 BKN043 BKN200 30/26 Q1005
ZJSY,2003-05-04 07:00,ZJSY 040700Z 19003MPS 9999 SCT016 SCT200 30/26 Q1004
ZJSY,2003-05-04 08:00,ZJSY 040800Z 20003MPS 9999 SCT016 SCT200 30/26 Q1003
ZJSY,2003-05-04 09:00,ZJSY 040900Z 19003MPS 9999 FEW016 SCT260 30/25 Q1003
ZJSY,2003-05-04 10:00,ZJSY 041000Z 18003MPS 9999 FEW015 FEW023TCU SCT260 29/26 Q1003
ZJSY,2003-05-04 11:00,ZJSY 041100Z 18002MPS 9999 FEW015 BKN260 29/25 Q1003
ZJSY,2003-05-04 12:00,ZJSY 041200Z 12001MPS 9999 FEW015 BKN260 28/25 Q1004
ZJSY,2003-05-04 13:00,ZJSY 041300Z 10002MPS 9999 FEW015 SCT260 28/25 Q1005
ZJSY,2003-05-04 14:00,ZJSY 041400Z 06002MPS 9999 FEW016 SCT260 28/25 Q1005
ZJSY,2003-05-04 15:00,ZJSY 041500Z 06003MPS 9999 FEW016 SCT260 28/24 Q1006
ZJSY,2003-05-04 16:00,ZJSY 041600Z 07003MPS 9999 FEW016 SCT260 28/24 Q1006
ZJSY,2003-05-04 17:00,ZJSY 041700Z AUTO 05002MPS //// // ////// 28/24 Q1005
ZJSY,2003-05-04 18:00,ZJSY 041800Z AUTO 05003MPS //// // ////// 28/24 Q1005
ZJSY,2003-05-04 19:00,ZJSY 041900Z AUTO 05002MPS //// // ////// 28/24 Q1004
ZJSY,2003-05-04 20:00,ZJSY 042000Z AUTO 04001MPS //// // ////// 27/24 Q1004
ZJSY,2003-05-04 21:00,ZJSY 042100Z AUTO 06002MPS //// // ////// 28/24 Q1003
ZJSY,2003-05-04 22:00,ZJSY 042200Z 10001MPS 9999 SCT012 BKN040 28/24 Q1004
ZJSY,2003-05-04 23:00,ZJSY 042300Z 07002MPS 9999 SCT013 BKN050 28/24 Q1005
ZJSY,2003-05-05 00:00,ZJSY 050000Z 08003MPS 9999 FEW015 SCT060 29/25 Q1005
ZJSY,2003-05-05 01:00,ZJSY 050100Z 13002MPS 9999 SCT016 SCT260 30/26 Q1006
ZJSY,2003-05-05 02:00,ZJSY 050200Z 16002MPS 9999 SCT016 BKN300 30/25 Q1006
ZJSY,2003-05-05 03:00,ZJSY 050300Z 17002MPS 9999 SCT016 BKN300 31/25 Q1006
ZJSY,2003-05-05 04:00,ZJSY 050400Z 16002MPS 9999 SCT016 BKN300 31/25 Q1006 NOSIG
ZJSY,2003-05-05 05:00,ZJSY 050500Z 21002MPS 9999 SCT018 BKN300 31/25 Q1005 NOSIG
ZJSY,2003-05-05 06:00,ZJSY 050600Z 22003MPS 9999 FEW020 BKN300 31/25 Q1004 NOSIG
ZJSY,2003-05-05 07:00,ZJSY 050700Z 19002MPS 9999 FEW020 BKN300 30/24 Q1003 NOSIG
ZJSY,2003-05-05 08:00,ZJSY 050800Z 20002MPS CAVOK 31/25 Q1003 NOSIG
ZJSY,2003-05-05 09:00,ZJSY 050900Z 16002MPS CAVOK 30/26 Q1002 NOSIG
ZJSY,2003-05-05 10:00,ZJSY 051000Z 16002MPS CAVOK 30/26 Q1002 NOSIG
ZJSY,2003-05-05 11:00,ZJSY 051100Z 13002MPS CAVOK 29/26 Q1003 NOSIG
ZJSY,2003-05-05 12:00,ZJSY 051200Z 13002MPS CAVOK 29/26 Q1003 NOSIG
ZJSY,2003-05-05 13:00,ZJSY 051300Z 12002MPS CAVOK 29/26 Q1004 NOSIG
ZJSY,2003-05-05 14:00,ZJSY 051400Z 11003MPS 9999 FEW013 29/25 Q1004 NOSIG
ZJSY,2003-05-05 15:00,ZJSY 051500Z 06002MPS 9999 FEW013 28/25 Q1005 NOSIG
ZJSY,2003-05-05 16:00,ZJSY 051600Z 08002MPS 9999 SCT013 28/25 Q1005 NOSIG
ZJSY,2003-05-05 17:00,ZJSY 051700Z AUTO 08001MPS //// // ////// 28/25 Q1005 NOSIG
ZJSY,2003-05-05 18:00,ZJSY 051800Z AUTO 08001MPS //// // ////// 28/25 Q1004 NOSIG
ZJSY,2003-05-05 19:00,ZJSY 051900Z AUTO 10001MPS //// // ////// 28/25 Q1004 NOSIG
ZJSY,2003-05-05 20:00,ZJSY 052000Z AUTO 06002MPS //// // ////// 28/25 Q1003 NOSIG
ZJSY,2003-05-05 21:00,ZJSY 052100Z AUTO 34002MPS //// // ////// 28/25 Q1004 NOSIG
ZJSY,2003-05-05 22:00,ZJSY 052200Z 04001MPS CAVOK 28/25 Q1004 NOSIG
ZJSY,2003-05-05 23:00,ZJSY 052300Z 06001MPS 9999 FEW013 SCT230 28/25 Q1005 NOSIG
ZJSY,2003-05-06 00:00,ZJSY 060000Z 08002MPS 9999 SCT013 29/25 Q1005 NOSIG
ZJSY,2003-05-06 01:00,ZJSY 060100Z 13002MPS 9999 SCT013 30/25 Q1006 NOSIG
ZJSY,2003-05-06 02:00,ZJSY 060200Z 12002MPS 9999 SCT013 31/25 Q1006 NOSIG
ZJSY,2003-05-06 03:00,ZJSY 060300Z 15003MPS 9999 SCT013 31/25 Q1006 NOSIG
ZJSY,2003-05-06 04:00,ZJSY 060400Z 17003MPS 9999 SCT015 31/26 Q1005 NOSIG
ZJSY,2003-05-06 05:00,ZJSY 060500Z 16002MPS 9999 FEW015 31/26 Q1005 NOSIG
ZJSY,2003-05-06 06:00,ZJSY 060600Z 16002MPS 9999 FEW015 31/26 Q1004 NOSIG
ZJSY,2003-05-06 07:00,ZJSY 060700Z 16003MPS CAVOK 31/26 Q1003 NOSIG
ZJSY,2003-05-06 08:00,ZJSY 060800Z 18003MPS CAVOK 31/26 Q1003 NOSIG
ZJSY,2003-05-06 09:00,ZJSY 060900Z 16002MPS CAVOK 30/26 Q1002 NOSIG
ZJSY,2003-05-06 10:00,ZJSY 061000Z 16002MPS CAVOK 30/26 Q1002 NOSIG
ZJSY,2003-05-06 11:00,ZJSY 061100Z 16002MPS CAVOK 29/26 Q1003 NOSIG
ZJSY,2003-05-06 12:00,ZJSY 061200Z 13001MPS CAVOK 29/26 Q1003 NOSIG
ZJSY,2003-05-06 13:00,ZJSY 061300Z 10001MPS CAVOK 29/26 Q1004 NOSIG
ZJSY,2003-05-06 14:00,ZJSY 061400Z 11002MPS 9999 FEW016 29/26 Q1004 NOSIG
ZJSY,2003-05-06 15:00,ZJSY 061500Z 11002MPS 9999 FEW016 29/26 Q1005 NOSIG
ZJSY,2003-05-06 16:00,ZJSY 061600Z 07002MPS 9999 FEW016 SCT230 28/26 Q1005 NOSIG
ZJSY,2003-05-06 17:00,ZJSY 061700Z AUTO 08002MPS //// // ////// 28/25 Q1005 NOSIG
ZJSY,2003-05-06 18:00,ZJSY 061800Z AUTO 08002MPS //// // ////// 28/25 Q1004 NOSIG
ZJSY,2003-05-06 19:00,ZJSY 061900Z AUTO 10001MPS //// // ////// 28/25 Q1004 NOSIG
ZJSY,2003-05-06 20:00,ZJSY 062000Z AUTO 09002MPS //// // ////// 28/25 Q1004 NOSIG
ZJSY,2003-05-06 21:00,ZJSY 062100Z AUTO 04002MPS //// // ////// 28/25 Q1004 NOSIG
ZJSY,2003-05-06 22:00,ZJSY 062200Z 06003MPS CAVOK 28/25 Q1005 NOSIG
ZJSY,2003-05-06 23:00,ZJSY 062300Z 06003MPS 9999 SCT015 28/25 Q1005 NOSIG
ZJSY,2003-05-07 00:00,ZJSY 070000Z 06003MPS 9999 SCT015 30/25 Q1006 NOSIG
ZJSY,2003-05-07 01:00,ZJSY 070100Z 11002MPS 9999 SCT015 30/26 Q1007 NOSIG
ZJSY,2003-05-07 02:00,ZJSY 070200Z 12003MPS 9999 SCT015 31/26 Q1008 NOSIG
ZJSY,2003-05-07 03:00,ZJSY 070300Z 13003MPS 9999 BKN018 31/26 Q1007 NOSIG
ZJSY,2003-05-07 04:00,ZJSY 070400Z 15003MPS 9999 BKN018 31/26 Q1007 NOSIG
ZJSY,2003-05-07 05:00,ZJSY 070500Z 15003MPS 9999 BKN018 31/26 Q1007 NOSIG
ZJSY,2003-05-07 06:00,ZJSY 070600Z 13003MPS 9999 SCT018 31/26 Q1006 NOSIG
ZJSY,2003-05-07 07:00,ZJSY 070700Z 13003MPS 9999 FEW018 SCT060 31/26 Q1005 NOSIG
ZJSY,2003-05-07 08:00,ZJSY 070800Z 14002MPS 9999 FEW018 SCT060 31/26 Q1005 NOSIG
ZJSY,2003-05-07 09:00,ZJSY 070900Z 14003MPS 9999 SCT018 31/26 Q1004 NOSIG
ZJSY,2003-05-07 10:00,ZJSY 071000Z 14003MPS 9999 SCT018 30/26 Q1004 NOSIG
ZJSY,2003-05-07 11:00,ZJSY 071100Z 14003MPS 9999 FEW018 30/26 Q1005 NOSIG
ZJSY,2003-05-07 12:00,ZJSY 071200Z 12003MPS 9999 SCT018 SCT260 29/26 Q1006 NOSIG
ZJSY,2003-05-07 13:00,ZJSY 071300Z 11003MPS 9999 SCT018 SCT260 29/26 Q1006 NOSIG
ZJSY,2003-05-07 14:00,ZJSY 071400Z 14003MPS 9999 SCT018 SCT260 29/26 Q1007 NOSIG
ZJSY,2003-05-07 15:00,ZJSY 071500Z 12003MPS 9999 SCT016 SCT260 29/26 Q1008 NOSIG
ZJSY,2003-05-07 16:00,ZJSY 071600Z 06002MPS 9999 BKN016 29/26 Q1008 NOSIG
ZJSY,2003-05-07 17:00,ZJSY 071700Z AUTO 11002MPS //// // ////// 29/26 Q1007 NOSIG
ZJSY,2003-05-07 18:00,ZJSY 071800Z AUTO 10002MPS //// // ////// 29/26 Q1007 NOSIG
ZJSY,2003-05-07 19:00,ZJSY 071900Z AUTO 08003MPS //// // ////// 29/25 Q1006 NOSIG
ZJSY,2003-05-07 20:00,ZJSY 072000Z AUTO 05003MPS //// // ////// 28/25 Q1007 NOSIG
ZJSY,2003-05-07 21:00,ZJSY 072100Z AUTO 06003MPS //// // ////// 28/25 Q1007 NOSIG
ZJSY,2003-05-07 22:00,ZJSY 072200Z 08003MPS 9999 SCT016 27/25 Q1008 NOSIG
ZJSY,2003-05-07 23:00,ZJSY 072300Z 06003MPS 9999 SCT016 28/25 Q1008 NOSIG
ZJSY,2003-05-08 00:00,ZJSY 080000Z 07003MPS 9999 BKN016 29/25 Q1009 NOSIG
ZJSY,2003-05-08 01:00,ZJSY 080100Z 10003MPS 9999 FEW013 BKN016 30/25 Q1010 NOSIG
ZJSY,2003-05-08 02:00,ZJSY 080200Z 13004MPS 9999 FEW016 BKN043 30/25 Q1010 NOSIG
ZJSY,2003-05-08 03:00,ZJSY 080300Z 13005MPS 9999 FEW016 SCT043 31/26 Q1011 NOSIG
ZJSY,2003-05-08 04:00,ZJSY 080400Z 15004MPS 9999 FEW016 31/26 Q1010 NOSIG
ZJSY,2003-05-08 05:00,ZJSY 080500Z 15003MPS 9999 FEW016 SCT230 31/26 Q1010 NOSIG
ZJSY,2003-05-08 06:00,ZJSY 080600Z 16004MPS CAVOK 31/25 Q1009 NOSIG
ZJSY,2003-05-08 07:00,ZJSY 080700Z 15004MPS CAVOK 32/24 Q1008 NOSIG
ZJSY,2003-05-08 08:00,ZJSY 080800Z 15004MPS CAVOK 31/25 Q1008 NOSIG
ZJSY,2003-05-08 09:00,ZJSY 080900Z 12004MPS CAVOK 31/25 Q1008 NOSIG
ZJSY,2003-05-08 10:00,ZJSY 081000Z 13002MPS CAVOK 31/24 Q1008 NOSIG
ZJSY,2003-05-08 11:00,ZJSY 081100Z 13003MPS CAVOK 30/24 Q1008 NOSIG
ZJSY,2003-05-08 12:00,ZJSY 081200Z 15002MPS CAVOK 29/25 Q1009 NOSIG
ZJSY,2003-05-08 13:00,ZJSY 081300Z 08003MPS CAVOK 28/24 Q1010
ZJSY,2003-05-08 14:00,ZJSY 081400Z 09003MPS CAVOK 28/24 Q1010
ZJSY,2003-05-08 15:00,ZJSY 081500Z 10002MPS CAVOK 28/24 Q1011
ZJSY,2003-05-08 16:00,ZJSY 081600Z 07003MPS CAVOK 27/25 Q1010
ZJSY,2003-05-08 17:00,ZJSY 081700Z AUTO 10002MPS //// // ////// 28/25 Q1010
ZJSY,2003-05-08 18:00,ZJSY 081800Z 08004MPS CAVOK 27/25 Q1010
ZJSY,2003-05-08 19:00,ZJSY 081900Z AUTO 08002MPS //// // ////// 27/25 Q1010
ZJSY,2003-05-08 20:00,ZJSY 082000Z AUTO 06002MPS //// // ////// 27/25 Q1010
ZJSY,2003-05-08 21:00,ZJSY 082100Z AUTO 05003MPS //// // ////// 28/24 Q1010
ZJSY,2003-05-08 22:00,ZJSY 082200Z 06003MPS 9999 BKN015 27/25 Q1011
ZJSY,2003-05-08 23:00,ZJSY 082300Z 05002MPS 9999 SCT015 BKN230 28/24 Q1012
ZJSY,2003-05-09 00:00,ZJSY 090000Z 07003MPS 9999 SCT015 BKN230 29/25 Q1013
ZJSY,2003-05-09 01:00,ZJSY 090100Z 10003MPS 9999 SCT015 FEW026TCU BKN230 30/24 Q1013
ZJSY,2003-05-09 02:00,ZJSY 090200Z 09004MPS 9999 SCT015 SCT230 31/24 Q1013
ZJSY,2003-05-09 03:00,ZJSY 090300Z 0904MPS G10 9999 SCT015 SCT230 33/24 Q1013
ZJSY,2003-05-09 04:00,ZJSY 090400Z 10005MPS 9999 SCT016 SCT230 33/22 Q1013
ZJSY,2003-05-09 05:00,ZJSY 090500Z 11005MPS 9999 SCT016 SCT230 34/21 Q1012
ZJSY,2003-05-09 06:00,ZJSY 090600Z 14005MPS 9999 SCT016 SCT230 32/23 Q1011
ZJSY,2003-05-09 07:00,ZJSY 090700Z 10006MPS 9999 SCT016 SCT230 34/18 Q1011
ZJSY,2003-05-09 08:00,ZJSY 090800Z 10005MPS CAVOK 33/20 Q1010
ZJSY,2003-05-09 09:00,ZJSY 090900Z 10006MPS CAVOK 32/22 Q1009
ZJSY,2003-05-09 10:00,ZJSY 091000Z 08007MPS 9999 FEW016 SCT230 31/23 Q1010
ZJSY,2003-05-09 11:00,ZJSY 091100Z 08008MPS 9999 FEW016 SCT230 29/23 Q1010
ZJSY,2003-05-09 12:00,ZJSY 091200Z 08006MPS 9999 FEW016 SCT230 29/23 Q1011
ZJSY,2003-05-09 13:00,ZJSY 091300Z 07004MPS 9999 FEW016 SCT230 28/24 Q1012
ZJSY,2003-05-09 14:00,ZJSY 091400Z 06004MPS 9999 FEW016 SCT230 28/23 Q1013
ZJSY,2003-05-09 15:00,ZJSY 091500Z 06004MPS 9999 FEW016 SCT230 28/23 Q1014
ZJSY,2003-05-09 16:00,ZJSY 091600Z 06004MPS CAVOK 27/22 Q1014
ZJSY,2003-05-09 17:00,ZJSY 091700Z AUTO 07002MPS //// // ////// 26/22 Q1014
ZJSY,2003-05-09 18:00,ZJSY 091800Z AUTO 35001MPS //// // ////// 26/21 Q1013
ZJSY,2003-05-09 19:00,ZJSY 091900Z AUTO 05003MPS //// // ////// 27/21 Q1012
ZJSY,2003-05-09 20:00,ZJSY 092000Z AUTO 00000MPS //// // ////// 25/22 Q1012
ZJSY,2003-05-09 21:00,ZJSY 092100Z AUTO 04001MPS //// // ////// 25/21 Q1012
ZJSY,2003-05-09 22:00,ZJSY 092200Z 00000MPS CAVOK 25/21 Q1012
ZJSY,2003-05-09 23:00,ZJSY 092300Z 00000MPS CAVOK 26/22 Q1012
ZJSY,2003-05-10 00:00,ZJSY 100000Z 06004MPS CAVOK 29/22 Q1013
ZJSY,2003-05-10 01:00,ZJSY 100100Z 06006MPS 9999 FEW018 30/22 Q1013 NOSIG
ZJSY,2003-05-10 02:00,ZJSY 100200Z 08006MPS 9999 FEW018 31/22 Q1013 NOSIG
ZJSY,2003-05-10 03:00,ZJSY 100300Z 10006MPS 9999 SCT020 32/22 Q1013 NOSIG
ZJSY,2003-05-10 04:00,ZJSY 100400Z 10005MPS 9999 SCT020 32/22 Q1012 NOSIG
ZJSY,2003-05-10 05:00,ZJSY 100500Z 10006MPS 9999 SCT020 33/21 Q1011 NOSIG
ZJSY,2003-05-10 06:00,ZJSY 100600Z 10005MPS 9999 SCT020 33/22 Q1011 NOSIG
ZJSY,2003-05-10 07:00,ZJSY 100700Z 11005MPS 9999 SCT020 33/22 Q1010 NOSIG
ZJSY,2003-05-10 08:00,ZJSY 100800Z 10006MPS 9999 FEW020 32/22 Q1009 NOSIG
ZJSY,2003-05-10 09:00,ZJSY 100900Z 09006MPS 9999 FEW020 SCT300 32/22 Q1009 NOSIG
ZJSY,2003-05-10 10:00,ZJSY 101000Z 07007MPS 9999 SCT020 30/22 Q1010 NOSIG
ZJSY,2003-05-10 11:00,ZJSY 101100Z 09006MPS 9999 SCT020 29/23 Q1010 NOSIG
ZJSY,2003-05-10 12:00,ZJSY 101200Z 08006MPS 9999 FEW013 SCT100 28/23 Q1011 NOSIG
ZJSY,2003-05-10 13:00,ZJSY 101300Z 07005MPS CAVOK 28/23 Q1012 NOSIG
ZJSY,2003-05-10 14:00,ZJSY 101400Z 08004MPS CAVOK 28/23 Q1013 NOSIG
ZJSY,2003-05-10 15:00,ZJSY 101500Z 08003MPS CAVOK 27/23 Q1013 NOSIG
ZJSY,2003-05-10 16:00,ZJSY 101600Z 08002MPS CAVOK 27/23 Q1013 NOSIG
ZJSY,2003-05-10 17:00,ZJSY 101700Z AUTO 06003MPS //// // ////// 27/23 Q1012 NOSIG
ZJSY,2003-05-10 18:00,ZJSY 101800Z AUTO 05003MPS //// // ////// 27/22 Q1011 NOSIG
ZJSY,2003-05-10 19:00,ZJSY 101900Z AUTO 05003MPS //// // ////// 27/22 Q1011 NOSIG
ZJSY,2003-05-10 20:00,ZJSY 102000Z AUTO 06003MPS //// // ////// 26/22 Q1010 NOSIG
ZJSY,2003-05-10 21:00,ZJSY 102100Z AUTO 06003MPS //// // ////// 26/22 Q1010 NOSIG
ZJSY,2003-05-10 22:00,ZJSY 102200Z 05003MPS CAVOK 27/22 Q1010 NOSIG
ZJSY,2003-05-10 23:00,ZJSY 102300Z 03002MPS CAVOK 27/22 Q1011 NOSIG
ZJSY,2003-05-11 00:00,ZJSY 110000Z 06003MPS CAVOK 29/22 Q1011 NOSIG
ZJSY,2003-05-11 01:00,ZJSY 110100Z 08005MPS CAVOK 30/22 Q1012 NOSIG
ZJSY,2003-05-11 02:00,ZJSY 110200Z 08006MPS CAVOK 31/22 Q1012 NOSIG
ZJSY,2003-05-11 03:00,ZJSY 110300Z 10005MPS 9999 SCT018 32/22 Q1012 NOSIG
ZJSY,2003-05-11 04:00,ZJSY 110400Z 09006MPS 9999 SCT018 33/22 Q1011 NOSIG
ZJSY,2003-05-11 05:00,ZJSY 110500Z 10006MPS 9999 SCT018 33/23 Q1011 NOSIG
ZJSY,2003-05-11 06:00,ZJSY 110600Z 11005MPS 9999 SCT018 33/22 Q1010 NOSIG
ZJSY,2003-05-11 08:00,ZJSY 110800Z 10006MPS 9999 SCT018 32/22 Q1008 NOSIG
ZJSY,2003-05-11 10:00,ZJSY 111000Z 10005MPS 9999 FEW018 30/22 Q1008 NOSIG
ZJSY,2003-05-11 11:00,ZJSY 111100Z 08007MPS 9999 FEW018 SCT230 29/22 Q1009 NOSIG
ZJSY,2003-05-11 12:00,ZJSY 111200Z 08006MPS 9999 FEW018 SCT230 28/23 Q1010 NOSIG
ZJSY,2003-05-11 13:00,ZJSY 111300Z 08004MPS 9999 FEW018 SCT230 28/23 Q1011 NOSIG
ZJSY,2003-05-11 14:00,ZJSY 111400Z 08004MPS 9999 FEW018 SCT230 28/23 Q1011 NOSIG
ZJSY,2003-05-11 15:00,ZJSY 111500Z 07006MPS 9999 FEW018 SCT230 28/23 Q1012 NOSIG
ZJSY,2003-05-11 16:00,ZJSY 111600Z 08004MPS 9999 FEW018 SCT230 27/23 Q1011 NOSIG
ZJSY,2003-05-11 17:00,ZJSY 111700Z AUTO 07004MPS //// // ////// 27/23 Q1011 NOSIG
ZJSY,2003-05-11 18:00,ZJSY 111800Z AUTO 07004MPS //// // ////// 27/23 Q1010 NOSIG
ZJSY,2003-05-11 19:00,ZJSY 111900Z AUTO 07004MPS //// // ////// 27/23 Q1010 NOSIG
ZJSY,2003-05-11 20:00,ZJSY 112000Z AUTO 06004MPS //// // ////// 27/23 Q1010 NOSIG
ZJSY,2003-05-11 21:00,ZJSY 112100Z AUTO 08002MPS //// // ////// 27/23 Q1011 NOSIG
ZJSY,2003-05-11 22:00,ZJSY 112200Z 05002MPS 9999 FEW018 BKN043 BKN230 27/22 Q1010 NOSIG
ZJSY,2003-05-11 23:00,ZJSY 112300Z 07006MPS 9999 FEW018 BKN043 BKN230 26/22 Q1010 NOSIG
ZJSY,2003-05-12 00:00,ZJSY 120000Z 10005MPS 9999 SCT040 BKN053 BKN230 27/23 Q1011 NOSIG
ZJSY,2003-05-12 01:00,ZJSY 120100Z 09005MPS 9999 FEW016 SCT040 BKN100 28/22 Q1012 NOSIG
ZJSY,2003-05-12 02:00,ZJSY 120200Z 08004MPS 9999 FEW016 BKN100 30/22 Q1012 NOSIG
ZJSY,2003-05-12 03:00,ZJSY 120300Z 07005MPS 9999 FEW016 BKN100 31/22 Q1012 NOSIG
ZJSY,2003-05-12 04:00,ZJSY 120400Z 10004MPS 9999 FEW016 BKN100 31/22 Q1011 NOSIG
ZJSY,2003-05-12 05:00,ZJSY 120500Z 13003MPS 9999 FEW016 SCT130 32/22 Q1010 NOSIG
ZJSY,2003-05-12 06:00,ZJSY 120600Z 18003MPS 9999 FEW016 SCT130 31/23 Q1009 NOSIG
ZJSY,2003-05-12 07:00,ZJSY 120700Z 17004MPS 9999 FEW016 SCT260 32/24 Q1009 NOSIG
ZJSY,2003-05-12 08:00,ZJSY 120800Z 15004MPS 9999 FEW016 SCT260 31/24 Q1008 NOSIG
ZJSY,2003-05-12 09:00,ZJSY 120900Z 14004MPS CAVOK 30/24 Q1008 NOSIG
ZJSY,2003-05-12 10:00,ZJSY 121000Z 14004MPS CAVOK 30/24 Q1008 NOSIG
ZJSY,2003-05-12 11:00,ZJSY 121100Z 09004MPS CAVOK 30/23 Q1009 NOSIG
ZJSY,2003-05-12 12:00,ZJSY 121200Z 06005MPS CAVOK 29/23 Q1009 NOSIG
ZJSY,2003-05-12 13:00,ZJSY 121300Z 07004MPS 9999 FEW016 SCT260 28/23 Q1010 NOSIG
ZJSY,2003-05-12 14:00,ZJSY 121400Z 08004MPS 9999 FEW016 SCT260 28/24 Q1010 NOSIG
ZJSY,2003-05-12 15:00,ZJSY 121500Z 08003MPS CAVOK 27/24 Q1011 NOSIG
ZJSY,2003-05-12 16:00,ZJSY 121600Z 08003MPS CAVOK 27/24 Q1010 NOSIG
ZJSY,2003-05-12 17:00,ZJSY 121700Z AUTO 09001MPS //// // ////// 27/24 Q1010 NOSIG
ZJSY,2003-05-12 18:00,ZJSY 121800Z AUTO 08002MPS //// // ////// 27/23 Q1010 NOSIG
ZJSY,2003-05-12 19:00,ZJSY 121900Z AUTO 06002MPS //// // ////// 27/23 Q1009 NOSIG
ZJSY,2003-05-12 20:00,ZJSY 122000Z AUTO 06002MPS //// // ////// 26/23 Q1009 NOSIG
ZJSY,2003-05-12 21:00,ZJSY 122100Z AUTO 07003MPS //// // ////// 27/24 Q1009 NOSIG
ZJSY,2003-05-12 22:00,ZJSY 122200Z 16001MPS 6000 -TSRA BKN008 FEW030CB OVC030 26/24 Q1010 NOSIG
ZJSY,2003-05-12 23:00,ZJSY 122300Z 00000MPS 9999 BKN018 26/24 Q1010 RETS NOSIG
ZJSY,2003-05-13 00:00,ZJSY 130000Z 06001MPS CAVOK 27/25 Q1011 NOSIG
ZJSY,2003-05-13 01:00,ZJSY 130100Z 08003MPS 9999 BKN020 29/25 Q1011 NOSIG
ZJSY,2003-05-13 02:00,ZJSY 130200Z 10004MPS 9999 SCT020 SCT230 30/24 Q1011 NOSIG
ZJSY,2003-05-13 03:00,ZJSY 130300Z 11003MPS 9999 SCT020 31/24 Q1011 NOSIG
ZJSY,2003-05-13 04:00,ZJSY 130400Z 14003MPS 0000 FEW018 SCT230 31/24 Q1011 NOSIG
ZJSY,2003-05-13 05:00,ZJSY 130500Z 15003MPS 9999 FEW018 SCT230 32/25 Q1011 NOSIG
ZJSY,2003-05-13 06:00,ZJSY 130600Z 16004MPS 9999 FEW018 BKN230 31/25 Q1010 NOSIG
ZJSY,2003-05-13 07:00,ZJSY 130700Z 14004MPS CAVOK 31/24 Q1009 NOSIG
ZJSY,2003-05-13 08:00,ZJSY 130800Z 14004MPS 9999 FEW018 SCT230 31/23 Q1008 NOSIG
ZJSY,2003-05-13 09:00,ZJSY 130900Z 15004MPS 9999 FEW018 SCT230 31/24 Q1007 NOSIG
ZJSY,2003-05-13 10:00,ZJSY 131000Z 14004MPS 9999 FEW018 BKN260 30/24 Q1008 NOSIG
ZJSY,2003-05-13 11:00,ZJSY 131100Z 10004MPS 9999 FEW018 BKN260 30/24 Q1008 NOSIG
ZJSY,2003-05-13 12:00,ZJSY 131200Z 09003MPS 9999 FEW018 BKN260 29/24 Q1009 NOSIG
ZJSY,2003-05-13 13:00,ZJSY 131300Z 08004MPS CAVOK 28/24 Q1009 NOSIG
ZJSY,2003-05-13 14:00,ZJSY 131400Z 07003MPS CAVOK 28/24 Q1010 NOSIG
ZJSY,2003-05-13 15:00,ZJSY 131500Z 07003MPS CAVOK 28/24 Q1010 NOSIG
ZJSY,2003-05-13 16:00,ZJSY 131600Z 06003MPS CAVOK 28/24 Q1010 NOSIG
ZJSY,2003-05-13 17:00,ZJSY 131700Z AUTO 04002MPS //// // ////// 28/24 Q1009 NOSIG
ZJSY,2003-05-13 18:00,ZJSY 131800Z AUTO 06002MPS //// // ////// 27/25 Q1009 NOSIG
ZJSY,2003-05-13 19:00,ZJSY 131900Z AUTO 02001MPS //// // ////// 27/25 Q1008 NOSIG
ZJSY,2003-05-13 20:00,ZJSY 132000Z AUTO 04002MPS //// // ////// 27/24 Q1008 NOSIG
ZJSY,2003-05-13 21:00,ZJSY 132100Z AUTO 32001MPS //// // ////// 26/24 Q1008 NOSIG
ZJSY,2003-05-13 22:00,ZJSY 132200Z 36001MPS 9999 FEW018TCU SCT018 SCT260 27/25 Q1009 NOSIG
ZJSY,2003-05-13 23:00,ZJSY 132300Z 06002MPS 9999 FEW018TCU FEW018 SCT260 28/25 Q1009 NOSIG
ZJSY,2003-05-14 00:00,ZJSY 140000Z 07002MPS 9999 FEW018TCU FEW018 SCT260 29/25 Q1009 NOSIG
ZJSY,2003-05-14 01:00,ZJSY 140100Z 15002MPS 9999 FEW018 SCT260 30/25 Q1010 NOSIG
ZJSY,2003-05-14 02:00,ZJSY 140200Z 15003MPS 9999 FEW018 SCT260 30/25 Q1010 NOSIG
ZJSY,2003-05-14 03:00,ZJSY 140300Z 16003MPS 9999 FEW018 SCT260 31/25 Q1010 NOSIG
ZJSY,2003-05-14 04:00,ZJSY 140400Z 16003MPS 9999 FEW018 SCT260 30/25 Q1010 NOSIG
ZJSY,2003-05-14 05:00,ZJSY 140500Z 16003MPS 9999 FEW018 SCT260 31/26 Q1009 NOSIG
ZJSY,2003-05-14 06:00,ZJSY 140600Z 17003MPS 9999 FEW016 SCT260 31/25 Q1008 NOSIG
ZJSY,2003-05-14 07:00,ZJSY 140700Z 16003MPS 9999 FEW016 SCT260 31/24 Q1007 NOSIG
ZJSY,2003-05-14 08:00,ZJSY 140800Z 16003MPS 9999 FEW016 SCT260 31/24 Q1006 NOSIG
ZJSY,2003-05-14 09:00,ZJSY 140900Z 15003MPS CAVOK 31/24 Q1006 NOSIG
ZJSY,2003-05-14 10:00,ZJSY 141000Z 12003MPS CAVOK 30/24 Q1006 NOSIG
ZJSY,2003-05-14 11:00,ZJSY 141100Z 12003MPS CAVOK 29/24 Q1006 NOSIG
ZJSY,2003-05-14 12:00,ZJSY 141200Z 10003MPS CAVOK 29/23 Q1007 NOSIG
ZJSY,2003-05-14 13:00,ZJSY 141300Z 08003MPS CAVOK 28/24 Q1007 NOSIG
ZJSY,2003-05-14 14:00,ZJSY 141400Z 06003MPS CAVOK 28/24 Q1008 NOSIG
ZJSY,2003-05-14 15:00,ZJSY 141500Z 04002MPS CAVOK 28/24 Q1008 NOSIG
ZJSY,2003-05-14 16:00,ZJSY 141600Z 06003MPS CAVOK 28/24 Q1008 NOSIG
ZJSY,2003-05-14 17:00,ZJSY 141700Z AUTO 08002MPS //// // ////// 27/24 Q1008 NOSIG
ZJSY,2003-05-14 18:00,ZJSY 141800Z AUTO 05002MPS //// // ////// 27/24 Q1007 NOSIG
ZJSY,2003-05-14 19:00,ZJSY 141900Z AUTO 05003MPS //// // ////// 28/24 Q1007 NOSIG
ZJSY,2003-05-14 20:00,ZJSY 142000Z AUTO 35001MPS //// // ////// 27/24 Q1007 NOSIG
ZJSY,2003-05-14 21:00,ZJSY 142100Z AUTO 06002MPS //// // ////// 27/24 Q1007 NOSIG
ZJSY,2003-05-14 22:00,ZJSY 142200Z 06001MPS 9999 SCT015 SCT260 27/24 Q1007 NOSIG
ZJSY,2003-05-14 23:00,ZJSY 142300Z 34001MPS 9999 SCT015 SCT260 28/25 Q1008 NOSIG
ZJSY,2003-05-15 00:00,ZJSY 150000Z 11001MPS 9999 SCT015 29/25 Q1008 NOSIG
ZJSY,2003-05-15 01:00,ZJSY 150100Z 14002MPS 9999 SCT016 30/25 Q1009 NOSIG
ZJSY,2003-05-15 02:00,ZJSY 150200Z 15003MPS 9999 SCT016 31/25 Q1009 NOSIG
ZJSY,2003-05-15 03:00,ZJSY 150300Z 15003MPS 9999 SCT017 31/25 Q1009 NOSIG
ZJSY,2003-05-15 04:00,ZJSY 150400Z 16003MPS 9999 SCT017 SCT300 31/25 Q1009 NOSIG
ZJSY,2003-05-15 05:00,ZJSY 150500Z 16003MPS 9999 SCT017 SCT300 31/25 Q1008 NOSIG
ZJSY,2003-05-15 06:00,ZJSY 150600Z 16003MPS 9999 SCT018 SCT300 31/25 Q1007 NOSIG
ZJSY,2003-05-15 07:00,ZJSY 150700Z 16003MPS 9999 SCT018 SCT300 31/24 Q1006 NOSIG
ZJSY,2003-05-15 08:00,ZJSY 150800Z 16002MPS 9999 SCT018 SCT300 31/24 Q1006 NOSIG
ZJSY,2003-05-15 09:00,ZJSY 150900Z 16002MPS 9999 SCT018 BKN300 31/25 Q1005 NOSIG
ZJSY,2003-05-15 10:00,ZJSY 151000Z 14003MPS 9999 FEW018 BKN300 30/25 Q1005 NOSIG
ZJSY,2003-05-15 11:00,ZJSY 151100Z 14002MPS 9999 FEW018 BKN300 30/25 Q1006 NOSIG
ZJSY,2003-05-15 12:00,ZJSY 151200Z 13002MPS CAVOK 29/24 Q1006 NOSIG
ZJSY,2003-05-15 13:00,ZJSY 151300Z 09003MPS CAVOK 29/25 Q1007 NOSIG
ZJSY,2003-05-15 14:00,ZJSY 151400Z 06003MPS CAVOK 29/25 Q1008 NOSIG
ZJSY,2003-05-15 15:00,ZJSY 151500Z 06002MPS 9999 FEW018 28/25 Q1009 NOSIG
ZJSY,2003-05-15 16:00,ZJSY 151600Z 09002MPS 9999 FEW018 28/24 Q1009 NOSIG
ZJSY,2003-05-15 17:00,ZJSY 151700Z AUTO 14002MPS //// // ////// 29/25 Q1008 NOSIG
ZJSY,2003-05-15 18:00,ZJSY 151800Z AUTO 15003MPS //// // ////// 29/25 Q1007 NOSIG
ZJSY,2003-05-15 19:00,ZJSY 151900Z AUTO 15002MPS //// // ////// 29/25 Q1007 NOSIG
ZJSY,2003-05-15 20:00,ZJSY 152000Z AUTO 15002MPS //// // ////// 29/25 Q1007 NOSIG
ZJSY,2003-05-15 21:00,ZJSY 152100Z AUTO 16003MPS //// // ////// 29/24 Q1007 NOSIG
ZJSY,2003-05-15 22:00,ZJSY 152200Z 19002MPS 9999 FEW013 SCT230 29/25 Q1007 NOSIG
ZJSY,2003-05-15 23:00,ZJSY 152300Z 17001MPS 9999 FEW016 SCT230 29/25 Q1008 NOSIG
ZJSY,2003-05-16 00:00,ZJSY 160000Z 18002MPS 9999 FEW016 SCT230 30/25 Q1008 NOSIG
ZJSY,2003-05-16 01:00,ZJSY 160100Z 17001MPS 9999 SCT018 30/25 Q1009 NOSIG
ZJSY,2003-05-16 02:00,ZJSY 160200Z 18002MPS 9999 FEW018 31/24 Q1009 NOSIG
ZJSY,2003-05-16 03:00,ZJSY 160300Z 15002MPS 9999 FEW018 31/24 Q1008 NOSIG
ZJSY,2003-05-16 04:00,ZJSY 160400Z 16002MPS CAVOK 32/25 Q1008 NOSIG
ZJSY,2003-05-16 05:00,ZJSY 160500Z 14003MPS CAVOK 32/23 Q1007 NOSIG
ZJSY,2003-05-16 06:00,ZJSY 160600Z 16003MPS CAVOK 31/25 Q1006 NOSIG
ZJSY,2003-05-16 07:00,ZJSY 160700Z 15003MPS 9999 FEW018 31/25 Q1006 NOSIG
ZJSY,2003-05-16 08:00,ZJSY 160800Z 15003MPS 9999 BKN018 31/25 Q1005 NOSIG
ZJSY,2003-05-16 10:00,ZJSY 161000Z 16003MPS 9999 BKN016 SCT300 30/25 Q1005 NOSIG
ZJSY,2003-05-16 11:00,ZJSY 161100Z 15003MPS 9999 SCT016 BKN300 30/25 Q1005 NOSIG
ZJSY,2003-05-16 12:00,ZJSY 161200Z 16003MPS 9999 SCT016 BKN300 29/25 Q1005 NOSIG
ZJSY,2003-05-16 13:00,ZJSY 161300Z 14003MPS 9999 SCT016 BKN300 29/25 Q1006 NOSIG
ZJSY,2003-05-16 14:00,ZJSY 161400Z 12002MPS 9999 SCT016 BKN300 29/25 Q1006 NOSIG
ZJSY,2003-05-16 16:00,ZJSY 161600Z 08002MPS 9999 BKN016 BKN300 29/25 Q1007 NOSIG
ZJSY,2003-05-16 22:00,ZJSY 162200Z 17001MPS 9999 SCT018 BKN300 29/25 Q1005 NOSIG
ZJSY,2003-05-16 23:00,ZJSY 162300Z 16001MPS 9999 SCT018 SCT300 29/25 Q1005 NOSIG
ZJSY,2003-05-17 00:00,ZJSY 170000Z 15002MPS 9999 BKN018 SCT300 30/25 Q1006 NOSIG
ZJSY,2003-05-17 01:00,ZJSY 170100Z 16002MPS 9999 BKN016 SCT300 30/25 Q1006 NOSIG
ZJSY,2003-05-17 02:00,ZJSY 170200Z 13002MPS 9999 BKN016 31/25 Q1006 NOSIG
ZJSY,2003-05-17 03:00,ZJSY 170300Z 14002MPS 9999 BKN020 FEW023TCU 31/26 Q1006 NOSIG
ZJSY,2003-05-17 04:00,ZJSY 170400Z 16002MPS 9999 BKN020 FEW023TCU 32/26 Q1006 NOSIG
ZJSY,2003-05-17 05:00,ZJSY 170500Z 20003MPS 9999 BKN020 FEW023TCU 31/26 Q1006 NOSIG
ZJSY,2003-05-17 06:00,ZJSY 170600Z 19003MPS 9999 BKN020 FEW023TCU 31/26 Q1005 NOSIG
ZJSY,2003-05-17 07:00,ZJSY 170700Z 19004MPS 9999 BKN020 FEW023TCU 31/26 Q1004 NOSIG
ZJSY,2003-05-17 08:00,ZJSY 170800Z 21004MPS 9999 SCT020 FEW023TCU SCT300 31/26 Q1004 NOSIG
ZJSY,2003-05-17 09:00,ZJSY 170900Z 21003MPS 9999 SCT020 BKN300 31/25 Q1003 NOSIG
ZJSY,2003-05-17 10:00,ZJSY 171000Z 22002MPS 9999 FEW020 BKN230 30/25 Q1003 NOSIG
ZJSY,2003-05-17 11:00,ZJSY 171100Z 23002MPS 9999 FEW020 BKN230 30/25 Q1003 NOSIG
ZJSY,2003-05-17 12:00,ZJSY 171200Z 00000MPS 9999 FEW020 BKN230 29/25 Q1003 NOSIG
ZJSY,2003-05-17 13:00,ZJSY 171300Z 00000MPS 9999 FEW020 BKN230 29/25 Q1004 NOSIG
ZJSY,2003-05-17 14:00,ZJSY 171400Z 34001MPS 9999 BKN043 BKN230 28/25 Q1005 NOSIG
ZJSY,2003-05-17 15:00,ZJSY 171500Z 35001MPS 9999 BKN043 BKN230 28/25 Q1006 NOSIG
ZJSY,2003-05-17 16:00,ZJSY 171600Z 32001MPS 9999 BKN043 BKN230 27/25 Q1006 NOSIG
ZJSY,2003-05-17 17:00,ZJSY 171700Z AUTO 35001MPS //// // ////// 27/25 Q1006 NOSIG
ZJSY,2003-05-17 18:00,ZJSY 171800Z AUTO 34002MPS //// // ////// 28/25 Q1005 NOSIG
ZJSY,2003-05-17 19:00,ZJSY 171900Z AUTO 34001MPS //// // ////// 28/25 Q1005 NOSIG
ZJSY,2003-05-17 20:00,ZJSY 172000Z AUTO 33002MPS //// // ////// 27/25 Q1005 NOSIG
ZJSY,2003-05-17 23:00,ZJSY 172300Z 34002MPS CAVOK 27/25 Q1005 NOSIG
ZJSY,2003-05-18 00:00,ZJSY 180000Z 35001MPS CAVOK 29/25 Q1006 NOSIG
ZJSY,2003-05-18 01:00,ZJSY 180100Z 32001MPS CAVOK 31/25 Q1005 NOSIG
ZJSY,2003-05-18 02:00,ZJSY 180200Z 26002MPS CAVOK 32/24 Q1006 NOSIG
ZJSY,2003-05-18 03:00,ZJSY 180300Z 21003MPS CAVOK 32/25 Q1006 NOSIG
ZJSY,2003-05-18 04:00,ZJSY 180400Z 22004MPS CAVOK 32/25 Q1005 NOSIG
ZJSY,2003-05-18 05:00,ZJSY 180500Z 22006MPS CAVOK 33/25 Q1005 NOSIG
ZJSY,2003-05-18 06:00,ZJSY 180600Z 24006MPS CAVOK 33/25 Q1004 NOSIG
ZJSY,2003-05-18 07:00,ZJSY 180700Z 22006MPS CAVOK 32/25 Q1004 NOSIG
ZJSY,2003-05-18 08:00,ZJSY 180800Z 24005MPS CAVOK 32/26 Q1003 NOSIG
ZJSY,2003-05-18 09:00,ZJSY 180900Z 22004MPS CAVOK 31/25 Q1003 NOSIG
ZJSY,2003-05-18 10:00,ZJSY 181000Z 21003MPS 9999 SCT020 BKN230 31/26 Q1003 NOSIG
ZJSY,2003-05-18 11:00,ZJSY 181100Z 22002MPS 9999 FEW020 BKN230 30/25 Q1004 NOSIG
ZJSY,2003-05-18 12:00,ZJSY 181200Z 22001MPS 9999 FEW020 BKN230 30/26 Q1005 NOSIG
ZJSY,2003-05-18 13:00,ZJSY 181300Z 03002MPS 9999 FEW020 FEW040CB BKN230 30/25 Q1006 NOSIG
ZJSY,2003-05-18 14:00,ZJSY 181400Z 35001MPS 9999 FEW020 FEW040CB BKN230 30/26 Q1006 NOSIG
ZJSY,2003-05-18 15:00,ZJSY 181500Z 00000MPS 9999 FEW020 BKN230 30/26 Q1007 NOSIG
ZJSY,2003-05-18 16:00,ZJSY 181600Z 31001MPS 9999 FEW020 BKN230 29/26 Q1007 NOSIG
ZJSY,2003-05-18 17:00,ZJSY 181700Z AUTO 09001MPS //// // ////// 29/26 Q1007 NOSIG
ZJSY,2003-05-18 18:00,ZJSY 181800Z AUTO 00000MPS //// // ////// 29/26 Q1007 NOSIG
ZJSY,2003-05-18 19:00,ZJSY 181900Z AUTO 19002MPS //// // ////// 29/27 Q1007 NOSIG
ZJSY,2003-05-18 20:00,ZJSY 182000Z AUTO 21002MPS //// // ////// 29/26 Q1007 NOSIG
ZJSY,2003-05-18 21:00,ZJSY 182100Z AUTO 25002MPS //// // ////// 29/25 Q1007 NOSIG
ZJSY,2003-05-18 22:00,ZJSY 182200Z 02002MPS 9999 FEW020 BKN230 28/24 Q1007 NOSIG
ZJSY,2003-05-18 23:00,ZJSY 182300Z 33001MPS 9999 FEW020 BKN230 28/24 Q1008 NOSIG
ZJSY,2003-05-19 00:00,ZJSY 190000Z 09001MPS 9999 BKN046 BKN230 28/24 Q1009 NOSIG
ZJSY,2003-05-19 01:00,ZJSY 190100Z 03001MPS 9999 BKN046 BKN230 31/24 Q1009 NOSIG
ZJSY,2003-05-19 02:00,ZJSY 190200Z 13002MPS 9999 BKN046 BKN230 32/25 Q1009 NOSIG
ZJSY,2003-05-19 03:00,ZJSY 190300Z 17002MPS CAVOK 31/24 Q1009 NOSIG
ZJSY,2003-05-19 04:00,ZJSY 190400Z 17003MPS CAVOK 32/26 Q1009 NOSIG
ZJSY,2003-05-19 05:00,ZJSY 190500Z 16004MPS CAVOK 31/26 Q1009 NOSIG
ZJSY,2003-05-19 06:00,ZJSY 190600Z 14003MPS 9999 FEW020 FEW026CB BKN230 30/26 Q1009 NOSIG
ZJSY,2003-05-19 07:00,ZJSY 190700Z 06003MPS 9999 FEW020 FEW026CB BKN230 31/23 Q1008 NOSIG
ZJSY,2003-05-19 08:00,ZJSY 190800Z 05002MPS CAVOK 31/23 Q1008 NOSIG
ZJSY,2003-05-19 09:00,ZJSY 190900Z 08003MPS CAVOK 31/24 Q1008 NOSIG
ZJSY,2003-05-19 11:00,ZJSY 191100Z 31001MPS 9999 FEW020 BKN200 30/23 Q1008 NOSIG
ZJSY,2003-05-19 12:00,ZJSY 191200Z 12001MPS 9999 FEW020 BKN200 29/23 Q1009 NOSIG
ZJSY,2003-05-19 13:00,ZJSY 191300Z 04001MPS CAVOK 29/24 Q1010 NOSIG
ZJSY,2003-05-19 14:00,ZJSY 191400Z 08003MPS CAVOK 27/23 Q1010 NOSIG
ZJSY,2003-05-19 15:00,ZJSY 191500Z 07004MPS CAVOK 28/23 Q1011 NOSIG
ZJSY,2003-05-19 16:00,ZJSY 191600Z 08003MPS CAVOK 27/23 Q1011 NOSIG
ZJSY,2003-05-19 17:00,ZJSY 191700Z AUTO 06002MPS //// // ////// 28/23 Q1011 NOSIG
ZJSY,2003-05-19 18:00,ZJSY 191800Z AUTO 05003MPS //// // ////// 28/23 Q1010 NOSIG
ZJSY,2003-05-19 19:00,ZJSY 191900Z AUTO 05003MPS //// // ////// 27/23 Q1010 NOSIG
ZJSY,2003-05-19 20:00,ZJSY 192000Z AUTO 11001MPS //// // ////// 27/23 Q1010 NOSIG
ZJSY,2003-05-19 21:00,ZJSY 192100Z AUTO 08002MPS //// // ////// 27/23 Q1010 NOSIG
ZJSY,2003-05-19 22:00,ZJSY 192200Z 06002MPS CAVOK 27/23 Q1010 NOSIG
ZJSY,2003-05-19 23:00,ZJSY 192300Z 08003MPS CAVOK 27/23 Q1011 NOSIG
ZJSY,2003-05-20 00:00,ZJSY 200000Z 05002MPS CAVOK 29/23 Q1012 NOSIG
ZJSY,2003-05-20 01:00,ZJSY 200100Z 09003MPS CAVOK 31/23 Q1012 NOSIG
ZJSY,2003-05-20 02:00,ZJSY 200200Z 08003MPS CAVOK 33/22 Q1012 NOSIG
ZJSY,2003-05-20 03:00,ZJSY 200300Z 16003MPS 9999 FEW023 BKN300 32/23 Q1012 NOSIG
ZJSY,2003-05-20 04:00,ZJSY 200400Z 17004MPS 9999 SCT023 BKN260 31/24 Q1011 NOSIG
ZJSY,2003-05-20 05:00,ZJSY 200500Z 17004MPS 9999 FEW024 BKN260 33/25 Q1010 NOSIG
ZJSY,2003-05-20 06:00,ZJSY 200600Z 18004MPS 9999 FEW024 BKN260 32/25 Q1009 NOSIG
ZJSY,2003-05-20 07:00,ZJSY 200700Z 18005MPS 9999 FEW024 BKN260 31/25 Q1008 NOSIG
ZJSY,2003-05-20 08:00,ZJSY 200800Z 17005MPS 9999 SCT020 BKN260 32/26 Q1008 NOSIG
ZJSY,2003-05-20 09:00,ZJSY 200900Z 15004MPS 9999 SCT018 FEW020TCU BKN260 30/26 Q1008 NOSIG
ZJSY,2003-05-20 10:00,ZJSY 201000Z 07005MPS 9999 SCT013 SCT016 FEW020TCU BKN260 30/24 Q1009 NOSIG
ZJSY,2003-05-20 11:00,ZJSY 201100Z 07005MPS 9999 FEW013 FEW033CB BKN230 30/24 Q1009 NOSIG
ZJSY,2003-05-20 12:00,ZJSY 201200Z 07005MPS CAVOK 29/24 Q1009 NOSIG
ZJSY,2003-05-20 13:00,ZJSY 201300Z 08005MPS CAVOK 29/24 Q1011 NOSIG
ZJSY,2003-05-20 14:00,ZJSY 201400Z 07003MPS CAVOK 28/24 Q1011 NOSIG
ZJSY,2003-05-20 15:00,ZJSY 201500Z 07003MPS CAVOK 28/24 Q1011 NOSIG
ZJSY,2003-05-20 16:00,ZJSY 201600Z 05003MPS CAVOK 28/23 Q1012 NOSIG
ZJSY,2003-05-20 17:00,ZJSY 201700Z AUTO 08003MPS //// // ////// 27/23 Q1011 NOSIG
ZJSY,2003-05-20 18:00,ZJSY 201800Z AUTO 07002MPS //// // ////// 27/23 Q1010 NOSIG
ZJSY,2003-05-20 19:00,ZJSY 201900Z AUTO 16003G8MPS //// // ////// 27/22 Q1010 NOSIG
ZJSY,2003-05-20 20:00,ZJSY 202000Z AUTO 06002MPS //// // ////// 27/22 Q1010 NOSIG
ZJSY,2003-05-20 21:00,ZJSY 202100Z AUTO 02001MPS //// // ////// 26/23 Q1010 NOSIG
ZJSY,2003-05-20 22:00,ZJSY 202200Z AUTO 36002MPS //// // ////// 26/23 Q1010 NOSIG
ZJSY,2003-05-20 23:00,ZJSY 202300Z 02001MPS CAVOK 26/23 Q1010 NOSIG
ZJSY,2003-05-21 00:00,ZJSY 210000Z 00000MPS CAVOK 27/23 Q1011 NOSIG
ZJSY,2003-05-21 01:00,ZJSY 210100Z 05003MPS 9999 FEW020 FEW043CB BKN043 BKN230 28/23 Q1012 NOSIG
ZJSY,2003-05-21 02:00,ZJSY 210200Z 08005MPS 9999 FEW020 FEW043CB BKN043 BKN230 28/24 Q1012 NOSIG
ZJSY,2003-05-21 03:00,ZJSY 210300Z 06004MPS 9999 FEW046CB BKN046 BKN230 28/24 Q1012 NOSIG
ZJSY,2003-05-21 04:00,ZJSY 210400Z 30001MPS 9999 -RA BKN040 BKN230 28/25 Q1010 NOSIG
ZJSY,2003-05-21 05:00,ZJSY 210500Z 09002MPS 9999 BKN046 BKN230 29/24 Q1010 NOSIG
ZJSY,2003-05-21 06:00,ZJSY 210600Z 24001MPS 9999 FEW018 BKN230 30/24 Q1009 NOSIG
ZJSY,2003-05-21 07:00,ZJSY 210700Z 20003MPS 9999 FEW018 BKN260 30/24 Q1009 NOSIG
ZJSY,2003-05-21 08:00,ZJSY 210800Z 17004MPS 9999 FEW018 BKN260 30/25 Q1008 NOSIG
ZJSY,2003-05-21 09:00,ZJSY 210900Z 16003MPS CAVOK 29/24 Q1007 NOSIG
ZJSY,2003-05-21 10:00,ZJSY 211000Z 17002MPS CAVOK 29/24 Q1007 NOSIG
ZJSY,2003-05-21 11:00,ZJSY 211100Z 14001MPS CAVOK 29/24 Q1008 NOSIG
ZJSY,2003-05-21 12:00,ZJSY 211200Z 10002MPS CAVOK 28/24 Q1008 NOSIG
ZJSY,2003-05-21 13:00,ZJSY 211300Z 08004MPS CAVOK 27/24 Q1008 NOSIG
ZJSY,2003-05-21 14:00,ZJSY 211400Z 10003MPS CAVOK 27/24 Q1009 NOSIG
ZJSY,2003-05-21 15:00,ZJSY 211500Z 10003MPS CAVOK 27/24 Q1010 NOSIG
ZJSY,2003-05-21 16:00,ZJSY 211600Z 10002MPS CAVOK 27/24 Q1010 NOSIG
ZJSY,2003-05-21 17:00,ZJSY 211700Z AUTO 07003MPS //// // ////// 27/24 Q1009 NOSIG
ZJSY,2003-05-21 18:00,ZJSY 211800Z AUTO 04002MPS //// // ////// 27/23 Q1009 NOSIG
ZJSY,2003-05-21 19:00,ZJSY 211900Z AUTO 01002MPS //// // ////// 26/23 Q1008 NOSIG
ZJSY,2003-05-21 20:00,ZJSY 212000Z AUTO 30001MPS //// // ////// 26/23 Q1008 NOSIG
ZJSY,2003-05-21 21:00,ZJSY 212100Z AUTO 03001MPS //// // ////// 25/23 Q1008 NOSIG
ZJSY,2003-05-21 22:00,ZJSY 212200Z 33002MPS 9999 BKN016 FEW023TCU BKN260 25/23 Q1008 NOSIG
ZJSY,2003-05-21 23:00,ZJSY 212300Z AUTO 35001MPS //// // ////// 27/23 Q1009 NOSIG
ZJSY,2003-05-22 00:00,ZJSY 220000Z 05002MPS CAVOK 30/23 Q1009 NOSIG
ZJSY,2003-05-22 01:00,ZJSY 220100Z 10002MPS 9999 FEW016 SCT260 30/24 Q1010 NOSIG
ZJSY,2003-05-22 02:00,ZJSY 220200Z 10002MPS 9999 FEW015 FEW023TCU SCT260 29/24 Q1010 NOSIG
ZJSY,2003-05-22 03:00,ZJSY 220300Z 15002MPS 9999 FEW016 SCT260 30/24 Q1010 NOSIG
ZJSY,2003-05-22 04:00,ZJSY 220400Z 15002MPS 9999 FEW016 SCT260 31/23 Q1009 NOSIG
ZJSY,2003-05-22 05:00,ZJSY 220500Z 15003MPS 9999 FEW016 SCT260 31/24 Q1008 NOSIG
ZJSY,2003-05-22 06:00,ZJSY 220600Z 18003MPS 9999 FEW016 SCT260 32/24 Q1008 NOSIG
ZJSY,2003-05-22 07:00,ZJSY 220700Z 17003MPS 9999 FEW016 SCT260 31/24 Q1006 NOSIG
ZJSY,2003-05-22 08:00,ZJSY 220800Z 18003MPS 9999 FEW016 SCT260 31/25 Q1006 NOSIG
ZJSY,2003-05-22 09:00,ZJSY 220900Z 19003MPS 9999 FEW016 FEW020TCU SCT260 30/25 Q1006 NOSIG
ZJSY,2003-05-22 10:00,ZJSY 221000Z 15002MPS 9999 FEW018 SCT260 30/25 Q1006 NOSIG
ZJSY,2003-05-22 11:00,ZJSY 221100Z 16001MPS 9999 FEW018 SCT260 30/25 Q1006 NOSIG
ZJSY,2003-05-22 12:00,ZJSY 221200Z 14001MPS CAVOK 29/25 Q1007 NOSIG
ZJSY,2003-05-22 13:00,ZJSY 221300Z 13002MPS CAVOK 29/25 Q1007 NOSIG
ZJSY,2003-05-22 14:00,ZJSY 221400Z 08002MPS CAVOK 28/25 Q1008 NOSIG
ZJSY,2003-05-22 15:00,ZJSY 221500Z 05002MPS CAVOK 28/24 Q1008 NOSIG
ZJSY,2003-05-22 16:00,ZJSY 221600Z 34002MPS CAVOK 27/24 Q1008 NOSIG
ZJSY,2003-05-22 17:00,ZJSY 221700Z AUTO 35001MPS //// // ////// 27/24 Q1008 NOSIG
ZJSY,2003-05-22 18:00,ZJSY 221800Z AUTO 34002MPS //// // ////// 27/24 Q1007 NOSIG
ZJSY,2003-05-22 19:00,ZJSY 221900Z AUTO 34003MPS //// // ////// 27/24 Q1007 NOSIG
ZJSY,2003-05-22 20:00,ZJSY 222000Z AUTO 33002MPS //// // ////// 26/24 Q1007 NOSIG
ZJSY,2003-05-22 21:00,ZJSY 222100Z AUTO 33002MPS //// // ////// 26/24 Q1007 NOSIG
ZJSY,2003-05-22 22:00,ZJSY 222200Z 35001MPS 9999 FEW016 BKN260 26/24 Q1007 NOSIG
ZJSY,2003-05-22 23:00,ZJSY 222300Z 33003MPS CAVOK 26/24 Q1008 NOSIG
ZJSY,2003-05-23 00:00,ZJSY 230000Z 01001MPS CAVOK 29/24 Q1008 NOSIG
ZJSY,2003-05-23 01:00,ZJSY 230100Z 15002MPS 9999 SCT016 SCT260 31/24 Q1009 NOSIG
ZJSY,2003-05-23 02:00,ZJSY 230200Z 16002MPS 9999 FEW016 BKN260 30/24 Q1009 NOSIG
ZJSY,2003-05-23 03:00,ZJSY 230300Z 15002MPS 9999 FEW016 BKN260 31/24 Q1009 NOSIG
ZJSY,2003-05-23 04:00,ZJSY 230400Z 14003MPS CAVOK 32/25 Q1008 NOSIG
ZJSY,2003-05-23 05:00,ZJSY 230500Z 17003MPS CAVOK 32/24 Q1007 NOSIG
ZJSY,2003-05-23 06:00,ZJSY 230600Z 19004MPS CAVOK 32/25 Q1006 NOSIG
ZJSY,2003-05-23 07:00,ZJSY 230700Z 18003MPS CAVOK 31/25 Q1005 NOSIG
ZJSY,2003-05-23 08:00,ZJSY 230800Z 17004MPS CAVOK 31/25 Q1005 NOSIG
ZJSY,2003-05-23 09:00,ZJSY 230900Z 17004MPS CAVOK 31/25 Q1005 NOSIG
ZJSY,2003-05-23 10:00,ZJSY 231000Z 16003MPS CAVOK 31/25 Q1005 NOSIG
ZJSY,2003-05-23 11:00,ZJSY 231100Z 15002MPS CAVOK 30/25 Q1006 NOSIG
ZJSY,2003-05-23 12:00,ZJSY 231200Z 12003MPS CAVOK 29/25 Q1006 NOSIG
ZJSY,2003-05-23 13:00,ZJSY 231300Z 09002MPS CAVOK 29/25 Q1007 NOSIG
ZJSY,2003-05-23 14:00,ZJSY 231400Z 05002MPS CAVOK 29/25 Q1007 NOSIG
ZJSY,2003-05-23 15:00,ZJSY 231500Z 36001MPS CAVOK 28/24 Q1008 NOSIG
ZJSY,2003-05-23 16:00,ZJSY 231600Z 34001MPS CAVOK 28/25 Q1007 NOSIG
ZJSY,2003-05-23 17:00,ZJSY 231700Z 34001MPS CAVOK 27/24 Q1006 NOSIG
ZJSY,2003-05-23 18:00,ZJSY 231800Z 10001MPS CAVOK 27/25 Q1006 NOSIG
ZJSY,2003-05-23 22:00,ZJSY 232200Z 34002MPS 9999 SCT018 BKN260 26/24 Q1006 NOSIG
ZJSY,2003-05-23 23:00,ZJSY 232300Z 08001MPS 9999 SCT018 FEW026TCU BKN260 26/24 Q1006 NOSIG
ZJSY,2003-05-24 00:00,ZJSY 240000Z 00000MPS 9999 FEW018 BKN260 28/25 Q1007 NOSIG
ZJSY,2003-05-24 01:00,ZJSY 240100Z 23001MPS 9999 FEW018 BKN260 30/25 Q1007 NOSIG
ZJSY,2003-05-24 02:00,ZJSY 240200Z 20002MPS 9999 FEW018 BKN260 30/24 Q1007 NOSIG
ZJSY,2003-05-24 03:00,ZJSY 240300Z 20003MPS 9999 FEW018 BKN260 31/24 Q1007 NOSIG
ZJSY,2003-05-24 04:00,ZJSY 240400Z 21004MPS 9999 FEW018 BKN260 31/25 Q1006 NOSIG
ZJSY,2003-05-24 05:00,ZJSY 240500Z 20004MPS 9999 FEW018 BKN260 32/25 Q1006 NOSIG
ZJSY,2003-05-24 06:00,ZJSY 240600Z 20004MPS 9999 FEW018 BKN260 32/25 Q1005 NOSIG
ZJSY,2003-05-24 07:00,ZJSY 240700Z 20004MPS CAVOK 32/26 Q1004 NOSIG
ZJSY,2003-05-24 08:00,ZJSY 240800Z 22004MPS CAVOK 31/24 Q1004 NOSIG
ZJSY,2003-05-24 09:00,ZJSY 240900Z 20002MPS 9999 FEW018 SCT050 BKN260 30/25 Q1004 NOSIG
ZJSY,2003-05-24 10:00,ZJSY 241000Z 20002MPS 9999 FEW018 SCT050 BKN260 30/24 Q1004 NOSIG
ZJSY,2003-05-24 11:00,ZJSY 241100Z 22001MPS 9999 FEW015 BKN260 30/25 Q1005 NOSIG
ZJSY,2003-05-24 12:00,ZJSY 241200Z 00000MPS 9999 FEW015 BKN260 29/24 Q1005 NOSIG
ZJSY,2003-05-24 13:00,ZJSY 241300Z 35001MPS 9999 FEW015 BKN260 28/25 Q1006 NOSIG
ZJSY,2003-05-24 14:00,ZJSY 241400Z 32001MPS CAVOK 28/25 Q1007 NOSIG
ZJSY,2003-05-24 15:00,ZJSY 241500Z 34001MPS CAVOK 27/25 Q1008 NOSIG
ZJSY,2003-05-24 16:00,ZJSY 241600Z 35001MPS CAVOK 27/24 Q1007 NOSIG
ZJSY,2003-05-24 17:00,ZJSY 241700Z AUTO 35002MPS //// // ////// 27/24 Q1006 NOSIG
ZJSY,2003-05-24 18:00,ZJSY 241800Z AUTO 34003MPS //// // ////// 27/24 Q1005 NOSIG
ZJSY,2003-05-24 19:00,ZJSY 241900Z AUTO 35002MPS //// // ////// 27/24 Q1005 NOSIG
ZJSY,2003-05-24 20:00,ZJSY 242000Z AUTO 33002MPS //// // ////// 27/24 Q1005 NOSIG
ZJSY,2003-05-24 21:00,ZJSY 242100Z AUTO 04001MPS //// // ////// 27/24 Q1004 NOSIG
ZJSY,2003-05-24 22:00,ZJSY 242200Z 33002MPS 9999 FEW015 SCT260 26/24 Q1005 NOSIG
ZJSY,2003-05-24 23:00,ZJSY 242300Z 32002MPS CAVOK 27/24 Q1005 NOSIG
ZJSY,2003-05-25 00:00,ZJSY 250000Z 34002MPS CAVOK 29/25 Q1006 NOSIG
ZJSY,2003-05-25 01:00,ZJSY 250100Z 16001MPS CAVOK 30/25 Q1007 NOSIG
ZJSY,2003-05-25 02:00,ZJSY 250200Z 18002MPS 9999 FEW016 BKN260 31/25 Q1007 NOSIG
ZJSY,2003-05-25 03:00,ZJSY 250300Z 21002MPS CAVOK 32/25 Q1006 NOSIG
ZJSY,2003-05-25 04:00,ZJSY 250400Z 20003MPS CAVOK 32/24 Q1006 NOSIG
ZJSY,2003-05-25 05:00,ZJSY 250500Z 21004MPS CAVOK 32/25 Q1005 NOSIG
ZJSY,2003-05-25 06:00,ZJSY 250600Z 21004MPS CAVOK 33/25 Q1004 NOSIG
ZJSY,2003-05-25 07:00,ZJSY 250700Z 21005MPS CAVOK 32/25 Q1003 NOSIG
ZJSY,2003-05-25 09:00,ZJSY 250900Z 23004MPS 9999 FEW013 BKN260 31/25 Q1003 NOSIG
ZJSY,2003-05-25 10:00,ZJSY 251000Z 24004MPS 9999 SCT014 BKN260 30/25 Q1003 NOSIG
ZJSY,2003-05-25 11:00,ZJSY 251100Z 26003MPS 9999 SCT016 FEW020TCU BKN260 30/25 Q1004 NOSIG
ZJSY,2003-05-25 12:00,ZJSY 251200Z 23001MPS 9999 SCT016 FEW020TCU BKN260 30/25 Q1005 NOSIG
ZJSY,2003-05-25 13:00,ZJSY 251300Z 09003MPS 9999 SCT016 FEW020TCU BKN260 28/23 Q1005 NOSIG
ZJSY,2003-05-25 14:00,ZJSY 251400Z 06001MPS 9999 SCT016 BKN260 28/23 Q1006 NOSIG
ZJSY,2003-05-25 15:00,ZJSY 251500Z 00000MPS 9999 FEW018 BKN260 28/24 Q1006 NOSIG
ZJSY,2003-05-25 16:00,ZJSY 251600Z 07001MPS 9999 FEW018 BKN260 27/24 Q1006 NOSIG
ZJSY,2003-05-25 17:00,ZJSY 251700Z AUTO 33002MPS //// // ////// 27/24 Q1005 NOSIG
ZJSY,2003-05-25 18:00,ZJSY 251800Z AUTO 32002MPS //// // ////// 27/24 Q1005 NOSIG
ZJSY,2003-05-25 19:00,ZJSY 251900Z AUTO 01001MPS //// // ////// 27/24 Q1004 NOSIG
ZJSY,2003-05-25 20:00,ZJSY 252000Z AUTO 34001MPS //// // ////// 26/24 Q1004 NOSIG
ZJSY,2003-05-25 21:00,ZJSY 252100Z AUTO 33002MPS //// // ////// 26/24 Q1004 NOSIG
ZJSY,2003-05-25 22:00,ZJSY 252200Z 34002MPS 9999 SCT013 BKN230 26/24 Q1003 NOSIG
ZJSY,2003-05-25 23:00,ZJSY 252300Z 35001MPS 9999 FEW015 BKN230 26/24 Q1004 NOSIG
ZJSY,2003-05-26 00:00,ZJSY 260000Z 35001MPS CAVOK 28/25 Q1004 NOSIG
ZJSY,2003-05-26 01:00,ZJSY 260100Z 14001MPS 9999 FEW018 BKN043 BKN260 30/25 Q1005 NOSIG
ZJSY,2003-05-26 02:00,ZJSY 260200Z 17002MPS 9999 FEW018 SCT043 BKN260 32/25 Q1005 NOSIG
ZJSY,2003-05-26 03:00,ZJSY 260300Z 18003MPS 9999 SCT018 FEW030TCU BKN260 31/25 Q1005 NOSIG
ZJSY,2003-05-26 04:00,ZJSY 260400Z 19004MPS 9999 SCT018 FEW030TCU BKN260 31/25 Q1004 NOSIG
ZJSY,2003-05-26 05:00,ZJSY 260500Z 16003MPS 9999 SCT018 FEW030TCU BKN260 30/25 Q1004 NOSIG
ZJSY,2003-05-26 06:00,ZJSY 260600Z 27001MPS 9999 SCT018 FEW043CB BKN260 BKN430 30/25 Q1003 NOSIG
ZJSY,2003-05-26 07:00,ZJSY 260700Z 22002MPS 9999 BKN015 FEW033CB BKN260 31/25 Q1002 NOSIG
ZJSY,2003-05-26 08:00,ZJSY 260800Z 18002MPS 9999 SCT015 FEW043CB BKN260 30/25 Q1001 NOSIG
ZJSY,2003-05-26 09:00,ZJSY 260900Z 11002MPS 9999 SCT015 FEW040CB BKN260 30/25 Q1001 NOSIG
ZJSY,2003-05-26 10:00,ZJSY 261000Z 10002MPS 9999 -RA SCT015 FEW040CB BKN260 30/25 Q1001 NOSIG
ZJSY,2003-05-26 11:00,ZJSY 261100Z 32001MPS 9999 SCT015 FEW040CB BKN260 28/26 Q1001 NOSIG
ZJSY,2003-05-26 12:00,ZJSY 261200Z 00000MPS 9999 SCT019 FEW040CB BKN260 28/26 Q1001 NOSIG
ZJSY,2003-05-26 13:00,ZJSY 261300Z 03002MPS 9999 SCT016 SCT043 BKN230 28/25 Q1002 NOSIG
ZJSY,2003-05-26 14:00,ZJSY 261400Z 07001MPS 9999 SCT016 SCT043 BKN230 27/25 Q1002 NOSIG
ZJSY,2003-05-26 15:00,ZJSY 261500Z 06002MPS 9999 SCT016 SCT043 BKN230 27/24 Q1003 NOSIG
ZJSY,2003-05-26 16:00,ZJSY 261600Z 06002MPS 9999 SCT016 SCT043 BKN230 27/24 Q1003 NOSIG
ZJSY,2003-05-26 17:00,ZJSY 261700Z AUTO 36001MPS //// // ////// 27/24 Q1002 NOSIG
ZJSY,2003-05-26 18:00,ZJSY 261800Z AUTO 35001MPS //// // ////// 27/24 Q1001 NOSIG
ZJSY,2003-05-26 19:00,ZJSY 261900Z AUTO 34002MPS //// // ////// 27/24 Q1000 NOSIG
ZJSY,2003-05-26 20:00,ZJSY 262000Z AUTO 34003MPS //// // ////// 27/24 Q1000 NOSIG
ZJSY,2003-05-26 21:00,ZJSY 262100Z AUTO 02001MPS //// // ////// 27/23 Q1000 NOSIG
ZJSY,2003-05-26 22:00,ZJSY 262200Z 26003MPS 3000 RA BKN015 FEW030CB BKN033 25/23 Q1000 NOSIG
ZJSY,2003-05-26 23:00,ZJSY 262300Z 36001MPS 9999 FEW015 BKN040 BKN230 25/23 Q1000 NOSIG
ZJSY,2003-05-27 00:00,ZJSY 270000Z 11003MPS 9999 SCT015 BKN046 BKN230 26/24 Q1001 NOSIG
ZJSY,2003-05-27 01:00,ZJSY 270100Z 06002MPS CAVOK 28/24 Q1001 NOSIG
ZJSY,2003-05-27 02:00,ZJSY 270200Z 03001MPS 9999 SCT013 OVC073 29/23 Q1002 NOSIG
ZJSY,2003-05-27 03:00,ZJSY 270300Z 04001MPS 9999 FEW017 OVC073 31/25 Q1002 NOSIG
ZJSY,2003-05-27 04:00,ZJSY 270400Z 17002MPS 9999 FEW020TCU SCT020 BKN120 31/25 Q1002 NOSIG
ZJSY,2003-05-27 05:00,ZJSY 270500Z 18004MPS 9999 SCT020 FEW022CB BKN120 31/25 Q1001 NOSIG
ZJSY,2003-05-27 06:00,ZJSY 270600Z 19003MPS 9999 FEW020 FEW022TCU BKN120 30/25 Q1000 NOSIG
ZJSY,2003-05-27 07:00,ZJSY 270700Z 20003MPS 9999 SCT020 FEW022TCU BKN230 30/26 Q0999 NOSIG
ZJSY,2003-05-27 08:00,ZJSY 270800Z 19003MPS 9999 FEW020TCU FEW020 BKN230 30/26 Q0998 NOSIG
ZJSY,2003-05-27 09:00,ZJSY 270900Z 22002MPS 9999 SCT018 FEW025CB BKN230 30/25 Q0998 NOSIG
ZJSY,2003-05-27 10:00,ZJSY 271000Z 23001MPS 9999 FEW018 BKN230 30/25 Q0998 NOSIG
ZJSY,2003-05-27 11:00,ZJSY 271100Z 05002MPS 9999 SCT033 OVC230 30/24 Q0999 NOSIG
ZJSY,2003-05-27 12:00,ZJSY 271200Z 08003MPS 9999 SCT033 OVC230 28/24 Q0999 NOSIG
ZJSY,2003-05-27 13:00,ZJSY 271300Z 05001MPS 9999 SCT033 OVC230 28/24 Q1000 NOSIG
ZJSY,2003-05-27 14:00,ZJSY 271400Z 00000MPS 9999 SCT033 OVC230 28/25 Q1001 NOSIG
ZJSY,2003-05-27 15:00,ZJSY 271500Z 07002MPS CAVOK 27/25 Q1001 NOSIG
ZJSY,2003-05-27 16:00,ZJSY 271600Z 00000MPS CAVOK 28/24 Q1001 NOSIG
ZJSY,2003-05-27 17:00,ZJSY 271700Z 04002MPS CAVOK 27/24 Q1000 NOSIG
ZJSY,2003-05-27 22:00,ZJSY 272200Z 01001MPS 9999 SCT015 BKN230 26/24 Q0999 NOSIG
ZJSY,2003-05-27 23:00,ZJSY 272300Z 04003MPS 9999 SCT016 BKN230 27/23 Q0999 NOSIG
ZJSY,2003-05-28 00:00,ZJSY 280000Z 35001MPS 9999 SCT016 BKN260 28/24 Q1000 NOSIG
ZJSY,2003-05-28 01:00,ZJSY 280100Z 07003MPS CAVOK 30/24 Q1001 NOSIG
ZJSY,2003-05-28 02:00,ZJSY 280200Z 07003MPS CAVOK 31/24 Q1001 NOSIG
ZJSY,2003-05-28 03:00,ZJSY 280300Z 09002MPS 9999 FEW018 BKN260 32/25 Q1001 NOSIG
ZJSY,2003-05-28 04:00,ZJSY 280400Z 17002MPS 9999 FEW013 BKN260 33/24 Q1000 NOSIG
ZJSY,2003-05-28 05:00,ZJSY 280500Z 16003MPS 9999 FEW013 SCT018 BKN260 31/25 Q1000 NOSIG
ZJSY,2003-05-28 06:00,ZJSY 280600Z 17003MPS 9999 FEW018 BKN260 32/25 Q0999 NOSIG
ZJSY,2003-05-28 07:00,ZJSY 280700Z 13005MPS 9999 SCT013 SCT020 FEW023CB BKN260 30/25 Q0999 NOSIG
ZJSY,2003-05-28 08:00,ZJSY 280800Z 08005MPS 9999 SCT013 BKN200 29/25 Q0999 NOSIG
ZJSY,2003-05-28 09:00,ZJSY 280900Z 05005MPS 9999 FEW013 SCT033 BKN200 30/24 Q0999 NOSIG
ZJSY,2003-05-28 10:00,ZJSY 281000Z 07004MPS CAVOK 29/23 Q0999 NOSIG
ZJSY,2003-05-28 11:00,ZJSY 281100Z 06004MPS CAVOK 29/23 Q1000 NOSIG
ZJSY,2003-05-28 12:00,ZJSY 281200Z 07004MPS CAVOK 29/24 Q1000 NOSIG
ZJSY,2003-05-28 13:00,ZJSY 281300Z 08003MPS CAVOK 28/24 Q1001 NOSIG
ZJSY,2003-05-28 14:00,ZJSY 281400Z 11002MPS CAVOK 27/24 Q1002 NOSIG
ZJSY,2003-05-28 15:00,ZJSY 281500Z 08003MPS CAVOK 27/24 Q1002 NOSIG
ZJSY,2003-05-28 16:00,ZJSY 281600Z 06002MPS CAVOK 27/23 Q1003 NOSIG
ZJSY,2003-05-28 17:00,ZJSY 281700Z AUTO 06001MPS //// // ////// 27/23 Q1002 NOSIG
ZJSY,2003-05-28 18:00,ZJSY 281800Z AUTO 00000MPS //// // ////// 26/23 Q1001 NOSIG
ZJSY,2003-05-28 19:00,ZJSY 281900Z AUTO 10002MPS //// // ////// 26/23 Q1001 NOSIG
ZJSY,2003-05-28 20:00,ZJSY 282000Z AUTO 06003MPS //// // ////// 26/23 Q1001 NOSIG
ZJSY,2003-05-28 21:00,ZJSY 282100Z AUTO 07002MPS //// // ////// 27/23 Q1001 NOSIG
ZJSY,2003-05-28 22:00,ZJSY 282200Z 06005MPS CAVOK 28/23 Q1001 NOSIG
ZJSY,2003-05-28 23:00,ZJSY 282300Z 08004MPS CAVOK 28/23 Q1002 NOSIG
ZJSY,2003-05-29 00:00,ZJSY 290000Z 05005MPS CAVOK 30/23 Q1002 NOSIG
ZJSY,2003-05-29 01:00,ZJSY 290100Z 10003MPS CAVOK 30/24 Q1003 NOSIG
ZJSY,2003-05-29 02:00,ZJSY 290200Z 10005MPS CAVOK 31/23 Q1004 NOSIG
ZJSY,2003-05-29 03:00,ZJSY 290300Z 11003MPS CAVOK 32/24 Q1003 NOSIG
ZJSY,2003-05-29 04:00,ZJSY 290400Z 13004MPS 9999 FEW020 BKN230 32/24 Q1003 NOSIG
ZJSY,2003-05-29 05:00,ZJSY 290500Z 18004MPS 9999 SCT020 SCT230 31/25 Q1003 NOSIG
ZJSY,2003-05-29 06:00,ZJSY 290600Z 34005MPS 9999 BKN016 FEW026CB BKN230 28/23 Q1003 NOSIG
ZJSY,2003-05-29 07:00,ZJSY 290700Z 31004MPS 9999 -TSRA BKN016 FEW026CB BKN040 27/23 Q1003 NOSIG
ZJSY,2003-05-29 08:00,ZJSY 290800Z 33002MPS 9999 -TSRA BKN015 FEW026CB BKN040 26/24 Q1003 NOSIG
ZJSY,2003-05-29 09:00,ZJSY 290900Z 00000MPS 9999 BKN016 FEW026CB BKN040 27/23 Q1003 RETS NOSIG
ZJSY,2003-05-29 10:00,ZJSY 291000Z 04003MPS 9999 -RA FEW015 BKN040 BKN230 26/23 Q1003 NOSIG
ZJSY,2003-05-29 11:00,ZJSY 291100Z 00000MPS 9999 FEW015 BKN040 BKN230 26/24 Q1003 NOSIG
ZJSY,2003-05-29 12:00,ZJSY 291200Z 08001MPS 9999 FEW015 BKN040 BKN230 26/24 Q1003 NOSIG
ZJSY,2003-05-29 13:00,ZJSY 291300Z 00000MPS 9999 FEW015 SCT230 26/24 Q1004 NOSIG
ZJSY,2003-05-29 14:00,ZJSY 291400Z 35001MPS 9999 FEW015 SCT230 26/23 Q1005 NOSIG
ZJSY,2003-05-29 15:00,ZJSY 291500Z 32002MPS CAVOK 26/23 Q1006 NOSIG
ZJSY,2003-05-29 16:00,ZJSY 291600Z 34001MPS CAVOK 26/23 Q1006 NOSIG
ZJSY,2003-05-29 17:00,ZJSY 291700Z AUTO 01001MPS //// // ////// 26/23 Q1005 NOSIG
ZJSY,2003-05-29 18:00,ZJSY 291800Z AUTO 33003MPS //// // ////// 25/23 Q1005 NOSIG
ZJSY,2003-05-29 19:00,ZJSY 291900Z AUTO 36001MPS //// // ////// 25/23 Q1004 NOSIG
ZJSY,2003-05-29 20:00,ZJSY 292000Z AUTO 35001MPS //// // ////// 25/23 Q1004 NOSIG
ZJSY,2003-05-29 21:00,ZJSY 292100Z AUTO 33001MPS //// // ////// 24/23 Q1004 NOSIG
ZJSY,2003-05-29 22:00,ZJSY 292200Z 04001MPS 8000 NSC 24/22 Q1004 NOSIG
ZJSY,2003-05-29 23:00,ZJSY 292300Z 33002MPS 8000 NSC 25/23 Q1004 NOSIG
ZJSY,2003-05-30 00:00,ZJSY 300000Z 00000MPS CAVOK 27/23 Q1005 NOSIG
ZJSY,2003-05-30 01:00,ZJSY 300100Z 00000MPS CAVOK 29/23 Q1005 NOSIG
ZJSY,2003-05-30 02:00,ZJSY 300200Z 16001MPS CAVOK 30/24 Q1005 NOSIG
ZJSY,2003-05-30 03:00,ZJSY 300300Z 20002MPS CAVOK 31/23 Q1005 NOSIG
ZJSY,2003-05-30 04:00,ZJSY 300400Z 20003MPS 9999 FEW018 BKN300 30/23 Q1005 NOSIG
ZJSY,2003-05-30 05:00,ZJSY 300500Z 21004MPS 9999 FEW018 BKN300 31/23 Q1005 NOSIG
ZJSY,2003-05-30 06:00,ZJSY 300600Z 20003MPS 9999 FEW018 SCT300 31/23 Q1004 NOSIG
ZJSY,2003-05-30 07:00,ZJSY 300700Z 20004MPS 9999 FEW018 31/24 Q1004 NOSIG
ZJSY,2003-05-30 08:00,ZJSY 300800Z 22004MPS 9999 FEW018 SCT300 31/24 Q1003 NOSIG
ZJSY,2003-05-30 09:00,ZJSY 300900Z 22004MPS 9999 FEW018 SCT300 31/25 Q1003 NOSIG
ZJSY,2003-05-30 10:00,ZJSY 301000Z 22003MPS 9999 FEW018 SCT300 30/24 Q1003 NOSIG
ZJSY,2003-05-30 11:00,ZJSY 301100Z 19002MPS 9999 FEW013 FEW020TCU BKN300 29/24 Q1004 NOSIG
ZJSY,2003-05-30 12:00,ZJSY 301200Z 16002MPS 9999 FEW013 FEW020TCU SCT300 29/25 Q1005 NOSIG
ZJSY,2003-05-30 13:00,ZJSY 301300Z 07002MPS 9999 FEW013 FEW020TCU SCT300 28/25 Q1005 NOSIG
ZJSY,2003-05-30 14:00,ZJSY 301400Z 35001MPS 9999 SCT013 BKN200 27/24 Q1006 NOSIG
ZJSY,2003-05-30 15:00,ZJSY 301500Z 36001MPS 9999 SCT013 BKN200 27/25 Q1007 NOSIG
ZJSY,2003-05-30 16:00,ZJSY 301600Z 01001MPS 9999 SCT013 BKN200 27/24 Q1006 NOSIG
ZJSY,2003-05-30 17:00,ZJSY 301700Z AUTO 08002MPS //// // ////// 27/24 Q1006 NOSIG
ZJSY,2003-05-30 18:00,ZJSY 301800Z AUTO 00000MPS //// // ////// 27/24 Q1005 NOSIG
ZJSY,2003-05-30 19:00,ZJSY 301900Z AUTO 34001MPS //// // ////// 26/24 Q1005 NOSIG
ZJSY,2003-05-30 20:00,ZJSY 302000Z AUTO 31001MPS //// // ////// 26/24 Q1005 NOSIG
ZJSY,2003-05-30 21:00,ZJSY 302100Z AUTO 00000MPS //// // ////// 26/24 Q1005 NOSIG
ZJSY,2003-05-30 22:00,ZJSY 302200Z AUTO 33001MPS //// // ////// 26/24 Q1005 NOSIG
ZJSY,2003-05-30 23:00,ZJSY 302300Z 00000MPS 4000 BR NSC 26/24 Q1006 NOSIG
ZJSY,2003-05-31 00:00,ZJSY 310000Z 00000MPS 4000 BR NSC 28/24 Q1006 NOSIG
ZJSY,2003-05-31 01:00,ZJSY 310100Z 12001MPS 5000 BR SCT040 BKN200 28/24 Q1007 NOSIG
ZJSY,2003-05-31 02:00,ZJSY 310200Z 22001MPS 5000 BR SCT040 BKN200 29/24 Q1007 NOSIG
ZJSY,2003-05-31 03:00,ZJSY 310300Z 24001MPS 5000 BR BKN043 BKN200 30/24 Q1007 NOSIG
ZJSY,2003-05-31 04:00,ZJSY 310400Z 19002MPS 5000 BR SCT015 BKN043 BKN200 31/24 Q1007 NOSIG
ZJSY,2003-05-31 05:00,ZJSY 310500Z 24003MPS 5000 BR SCT001 BKN200 29/24 Q1006 NOSIG
ZJSY,2003-05-31 06:00,ZJSY 310600Z 23002MPS 5000 BR SCT001 BKN200 30/24 Q1006 NOSIG
ZJSY,2003-05-31 07:00,ZJSY 310700Z 17003MPS 5000 BR SCT015 BKN200 30/25 Q1005 NOSIG
ZJSY,2003-05-31 08:00,ZJSY 310800Z 16003MPS 6000 FEW015 BKN200 29/24 Q1004 NOSIG
ZJSY,2003-05-31 09:00,ZJSY 310900Z 06006MPS 3000 TSRA SCT013 FEW033CB BKN033 26/24 Q1004 NOSIG
ZJSY,2003-05-31 10:00,ZJSY 311000Z 36001MPS 8000 -TSRA SCT013 FEW033CB BKN040 26/24 Q1004
ZJSY,2003-05-31 11:00,ZJSY 311100Z 34003MPS 8000 BKN013 FEW033CB BKN040 26/24 Q1004
ZJSY,2003-05-31 12:00,ZJSY 311200Z 36001MPS 8000 BKN013 BKN040 27/24 Q1005
ZJSY,2003-05-31 13:00,ZJSY 311300Z 36001MPS 8000 BKN013 BKN040 27/24 Q1005
ZJSY,2003-05-31 14:00,ZJSY 311400Z 00000MPS 8000 BKN013 BKN040 26/24 Q1006
ZJSY,2003-05-31 15:00,ZJSY 311500Z 06003MPS 9999 SCT015 BKN040 27/24 Q1006 NOSIG
ZJSY,2003-05-31 16:00,ZJSY 311600Z 06005MPS 9999 SCT015 BKN040 27/23 Q1006 NOSIG
ZJSY,2003-05-31 17:00,ZJSY 311700Z AUTO 09002MPS //// // ////// 27/23 Q1006 NOSIG
ZJSY,2003-05-31 18:00,ZJSY 311800Z AUTO 06001MPS //// // ////// 26/23 Q1006 NOSIG
ZJSY,2003-05-31 19:00,ZJSY 311900Z AUTO 05003MPS //// // ////// 25/22 Q1006 NOSIG
ZJSY,2003-05-31 20:00,ZJSY 312000Z AUTO 04003MPS //// // ////// 25/22 Q1005 NOSIG
ZJSY,2003-05-31 21:00,ZJSY 312100Z AUTO 04001MPS //// // ////// 26/21 Q1005 NOSIG
ZJSY,2003-05-31 22:00,ZJSY 312200Z 05004MPS 8000 NSC 26/21 Q1005 NOSIG
ZJSY,2003-05-31 23:00,ZJSY 312300Z 27001MPS 8000 NSC 25/21 Q1006 NOSIG
ZJSY,2003-06-01 00:00,ZJSY 010000Z 24001MPS 8000 NSC 27/22 Q1006 NOSIG
ZJSY,2003-06-01 01:00,ZJSY 010100Z 04002MPS 8000 NSC 30/21 Q1007 NOSIG
ZJSY,2003-06-01 02:00,ZJSY 010200Z 14002MPS 8000 NSC 30/22 Q1007 NOSIG
ZJSY,2003-06-01 03:00,ZJSY 010300Z 18002MPS 6000 NSC 31/22 Q1007 NOSIG
ZJSY,2003-06-01 04:00,ZJSY 010400Z 21003MPS 6000 NSC 30/22 Q1007 NOSIG
ZJSY,2003-06-01 05:00,ZJSY 010500Z 20003MPS 6000 NSC 31/22 Q1006 NOSIG
ZJSY,2003-06-01 06:00,ZJSY 010600Z 19002MPS 6000 NSC 31/23 Q1005 NOSIG
ZJSY,2003-06-01 07:00,ZJSY 010700Z 20002MPS 6000 NSC 32/23 Q1004 NOSIG
ZJSY,2003-06-01 08:00,ZJSY 010800Z 12004MPS 8000 SCT016 SCT043 BKN230 33/19 Q1004 NOSIG
ZJSY,2003-06-01 09:00,ZJSY 010900Z 12004MPS 8000 NSC 32/21 Q1003 NOSIG
ZJSY,2003-06-01 10:00,ZJSY 011000Z 10004MPS 8000 NSC 31/20 Q1003 NOSIG
ZJSY,2003-06-01 11:00,ZJSY 011100Z 08004MPS 8000 FEW026TCU BKN230 30/21 Q1004 NOSIG
ZJSY,2003-06-01 12:00,ZJSY 011200Z 08004MPS 8000 FEW043CB BKN230 29/22 Q1005 NOSIG
ZJSY,2003-06-01 13:00,ZJSY 011300Z 08003MPS 8000 SCT043 BKN230 28/22 Q1006 NOSIG
ZJSY,2003-06-01 14:00,ZJSY 011400Z 07003MPS 8000 -RA BKN040 BKN230 27/23 Q1007 NOSIG
ZJSY,2003-06-01 15:00,ZJSY 011500Z 04003MPS 8000 BKN046 BKN230 27/23 Q1007 NOSIG
ZJSY,2003-06-01 16:00,ZJSY 011600Z 02003MPS 8000 NSC 27/22 Q1008 NOSIG
ZJSY,2003-06-01 17:00,ZJSY 011700Z AUTO 02001MPS //// // ////// 28/22 Q1007 NOSIG
ZJSY,2003-06-01 18:00,ZJSY 011800Z AUTO 06003MPS //// // ////// 27/22 Q1006 NOSIG
ZJSY,2003-06-01 19:00,ZJSY 011900Z AUTO 04003MPS //// // ////// 27/21 Q1006 NOSIG
ZJSY,2003-06-01 20:00,ZJSY 012000Z AUTO 32002MPS //// // ////// 27/22 Q1006 NOSIG
ZJSY,2003-06-01 21:00,ZJSY 012100Z AUTO 36001MPS //// // ////// 26/21 Q1006 NOSIG
ZJSY,2003-06-01 22:00,ZJSY 012200Z 33002MPS 8000 BKN046 BKN230 25/21 Q1006 NOSIG
ZJSY,2003-06-01 23:00,ZJSY 012300Z 35002MPS 5000 FEW015 BKN230 26/21 Q1006 NOSIG
ZJSY,2003-06-02 00:00,ZJSY 020000Z 36001MPS 8000 NSC 27/22 Q1006 NOSIG
ZJSY,2003-06-02 01:00,ZJSY 020100Z 07002MPS 8000 NSC 30/20 Q1007 NOSIG
ZJSY,2003-06-02 02:00,ZJSY 020200Z 12002MPS 7000 NSC 31/21 Q1007 NOSIG
ZJSY,2003-06-02 03:00,ZJSY 020300Z 16002MPS 7000 NSC 31/20 Q1007 NOSIG
ZJSY,2003-06-02 04:00,ZJSY 020400Z 18003MPS 7000 NSC 31/22 Q1006 NOSIG
ZJSY,2003-06-02 05:00,ZJSY 020500Z 19004MPS 7000 NSC 31/22 Q1006 NOSIG
ZJSY,2003-06-02 06:00,ZJSY 020600Z 16004MPS 7000 NSC 31/23 Q1005 NOSIG
ZJSY,2003-06-02 07:00,ZJSY 020700Z 17004MPS 7000 NSC 30/23 Q1004 NOSIG
ZJSY,2003-06-02 08:00,ZJSY 020800Z 16004MPS 7000 NSC 30/23 Q1004 NOSIG
ZJSY,2003-06-02 09:00,ZJSY 020900Z 16002MPS 7000 NSC 30/21 Q1004 NOSIG
ZJSY,2003-06-02 10:00,ZJSY 021000Z 15004MPS 7000 NSC 30/22 Q1004 NOSIG
ZJSY,2003-06-02 11:00,ZJSY 021100Z 12003MPS 7000 NSC 29/22 Q1005 NOSIG
ZJSY,2003-06-02 12:00,ZJSY 021200Z 09003MPS 7000 NSC 28/22 Q1006 NOSIG
ZJSY,2003-06-02 13:00,ZJSY 021300Z 07003MPS 7000 NSC 27/22 Q1006 NOSIG
ZJSY,2003-06-02 14:00,ZJSY 021400Z 04003MPS 7000 NSC 27/22 Q1007 NOSIG
ZJSY,2003-06-02 15:00,ZJSY 021500Z 03002MPS 8000 NSC 27/22 Q1008 NOSIG
ZJSY,2003-06-02 16:00,ZJSY 021600Z 04003MPS 8000 NSC 27/22 Q1008 NOSIG
ZJSY,2003-06-02 17:00,ZJSY 021700Z AUTO 05002MPS //// // ////// 26/21 Q1007 NOSIG
ZJSY,2003-06-02 18:00,ZJSY 021800Z AUTO 03001MPS //// // ////// 25/22 Q1006 NOSIG
ZJSY,2003-06-02 19:00,ZJSY 021900Z AUTO 33002MPS //// // ////// 25/21 Q1006 NOSIG
ZJSY,2003-06-02 20:00,ZJSY 022000Z AUTO 34001MPS //// // ////// 26/22 Q1006 NOSIG
ZJSY,2003-06-02 21:00,ZJSY 022100Z AUTO 34002MPS //// // ////// 25/21 Q1005 NOSIG
ZJSY,2003-06-02 22:00,ZJSY 022200Z 36001MPS 7000 NSC 24/21 Q1006 NOSIG
ZJSY,2003-06-02 23:00,ZJSY 022300Z 34001MPS 7000 NSC 24/21 Q1007 NOSIG
ZJSY,2003-06-03 00:00,ZJSY 030000Z 33001MPS 7000 NSC 27/22 Q1007 NOSIG
ZJSY,2003-06-03 01:00,ZJSY 030100Z 07004MPS CAVOK 29/21 Q1008 NOSIG
ZJSY,2003-06-03 02:00,ZJSY 030200Z 09003MPS CAVOK 30/21 Q1008 NOSIG
ZJSY,2003-06-03 03:00,ZJSY 030300Z 11002MPS CAVOK 32/21 Q1008 NOSIG
ZJSY,2003-06-03 04:00,ZJSY 030400Z 18003MPS CAVOK 31/22 Q1008 NOSIG
ZJSY,2003-06-03 05:00,ZJSY 030500Z 18003MPS CAVOK 31/20 Q1008 NOSIG
ZJSY,2003-06-03 06:00,ZJSY 030600Z 17004MPS CAVOK 31/22 Q1007 NOSIG
ZJSY,2003-06-03 07:00,ZJSY 030700Z 16005MPS CAVOK 31/23 Q1006 NOSIG
ZJSY,2003-06-03 08:00,ZJSY 030800Z 16004MPS CAVOK 31/23 Q1005 NOSIG
ZJSY,2003-06-03 09:00,ZJSY 030900Z 15003MPS CAVOK 31/21 Q1005 NOSIG
ZJSY,2003-06-03 10:00,ZJSY 031000Z 14004MPS CAVOK 30/23 Q1005 NOSIG
ZJSY,2003-06-03 11:00,ZJSY 031100Z 13004MPS CAVOK 29/22 Q1006 NOSIG
ZJSY,2003-06-03 12:00,ZJSY 031200Z 09003MPS CAVOK 29/22 Q1007 NOSIG
ZJSY,2003-06-03 13:00,ZJSY 031300Z 05003MPS CAVOK 28/22 Q1007 NOSIG
ZJSY,2003-06-03 14:00,ZJSY 031400Z 06002MPS CAVOK 27/22 Q1008 NOSIG
ZJSY,2003-06-03 15:00,ZJSY 031500Z 07003MPS CAVOK 26/22 Q1008 NOSIG
ZJSY,2003-06-03 16:00,ZJSY 031600Z 05002MPS CAVOK 26/22 Q1008 NOSIG
ZJSY,2003-06-03 18:00,ZJSY 031800Z AUTO 05001MPS //// // ////// 26/22 Q1009 NOSIG
ZJSY,2003-06-03 19:00,ZJSY 031900Z AUTO 35001MPS //// // ////// 25/22 Q1008 NOSIG
ZJSY,2003-06-03 20:00,ZJSY 032000Z AUTO 01001MPS //// // ////// 25/22 Q1008 NOSIG
ZJSY,2003-06-03 21:00,ZJSY 032100Z AUTO 03002MPS //// // ////// 26/22 Q1008 NOSIG
ZJSY,2003-06-03 22:00,ZJSY 032200Z 00000MPS 7000 NSC 25/21 Q1008 NOSIG
ZJSY,2003-06-04 00:00,ZJSY 040000Z 00000MPS 6000 NSC 26/22 Q1009 NOSIG
ZJSY,2003-06-04 01:00,ZJSY 040100Z 06003MPS 6000 SKC 30/21 Q1009 NOSIG
ZJSY,2003-06-04 02:00,ZJSY 040200Z 10002MPS 7000 SKC 31/22 Q1010 NOSIG
ZJSY,2003-06-04 03:00,ZJSY 040300Z 08003MPS 7000 SKC 33/19 Q1009 NOSIG
ZJSY,2003-06-04 04:00,ZJSY 040400Z 16003MPS 7000 NSC 32/23 Q1009 NOSIG
ZJSY,2003-06-04 05:00,ZJSY 040500Z 15005MPS 9000 NSC 32/23 Q1008 NOSIG
ZJSY,2003-06-04 06:00,ZJSY 040600Z 13004MPS 9000 NSC 34/19 Q1007 NOSIG
ZJSY,2003-06-04 07:00,ZJSY 040700Z 15005MPS CAVOK 32/24 Q1007 NOSIG
ZJSY,2003-06-04 08:00,ZJSY 040800Z 14006MPS CAVOK 31/23 Q1006 NOSIG
ZJSY,2003-06-04 09:00,ZJSY 040900Z 14005MPS CAVOK 31/22 Q1006 NOSIG
ZJSY,2003-06-04 10:00,ZJSY 041000Z 09005MPS CAVOK 31/21 Q1006 NOSIG
ZJSY,2003-06-04 11:00,ZJSY 041100Z 09004MPS CAVOK 29/21 Q1007 NOSIG
ZJSY,2003-06-04 12:00,ZJSY 041200Z 08004MPS CAVOK 28/22 Q1008 NOSIG
ZJSY,2003-06-04 13:00,ZJSY 041300Z 07004MPS CAVOK 28/23 Q1008 NOSIG
ZJSY,2003-06-04 14:00,ZJSY 041400Z 06003MPS CAVOK 28/22 Q1009 NOSIG
ZJSY,2003-06-04 15:00,ZJSY 041500Z 06003MPS CAVOK 28/22 Q1009 NOSIG
ZJSY,2003-06-04 16:00,ZJSY 041600Z 06003MPS CAVOK 27/22 Q1009 NOSIG
ZJSY,2003-06-04 17:00,ZJSY 041700Z AUTO 34001MPS //// // ////// 26/22 Q1008 NOSIG
ZJSY,2003-06-04 18:00,ZJSY 041800Z AUTO 36001MPS //// // ////// 27/22 Q1008 NOSIG
ZJSY,2003-06-04 19:00,ZJSY 041900Z AUTO 02002MPS //// // ////// 27/22 Q1007 NOSIG
ZJSY,2003-06-04 20:00,ZJSY 042000Z AUTO 11003MPS //// // ////// 27/23 Q1008 NOSIG
ZJSY,2003-06-04 22:00,ZJSY 042200Z 08003MPS 9999 -RA SCT016 BKN100 26/23 Q1008 NOSIG
ZJSY,2003-06-04 23:00,ZJSY 042300Z 06002MPS 9999 SCT040 BKN230 26/24 Q1008 NOSIG
ZJSY,2003-06-05 00:00,ZJSY 050000Z 00000MPS CAVOK 27/24 Q1008 NOSIG
ZJSY,2003-06-05 01:00,ZJSY 050100Z 31002MPS CAVOK 28/24 Q1009 NOSIG
ZJSY,2003-06-05 02:00,ZJSY 050200Z 14002MPS 9999 FEW013 BKN050 BKN230 28/24 Q1009 NOSIG
ZJSY,2003-06-05 03:00,ZJSY 050300Z 18002MPS CAVOK 30/24 Q1009 NOSIG
ZJSY,2003-06-05 04:00,ZJSY 050400Z 18003MPS CAVOK 30/24 Q1009 NOSIG
ZJSY,2003-06-05 05:00,ZJSY 050500Z 20003MPS CAVOK 31/24 Q1008 NOSIG
ZJSY,2003-06-05 06:00,ZJSY 050600Z 22003MPS CAVOK 31/23 Q1007 NOSIG
ZJSY,2003-06-05 07:00,ZJSY 050700Z 20003MPS CAVOK 31/25 Q1006 NOSIG
ZJSY,2003-06-05 09:00,ZJSY 050900Z 18003MPS CAVOK 30/25 Q1005 NOSIG
ZJSY,2003-06-05 10:00,ZJSY 051000Z 18002MPS 9999 FEW020 BKN230 29/25 Q1005 NOSIG
ZJSY,2003-06-05 11:00,ZJSY 051100Z 20002MPS 9999 SCT018 BKN230 29/25 Q1006 NOSIG
ZJSY,2003-06-05 12:00,ZJSY 051200Z 20001MPS 9999 FEW018 BKN230 29/25 Q1006 NOSIG
ZJSY,2003-06-05 13:00,ZJSY 051300Z 35001MPS 9999 BKN016 BKN230 29/25 Q1007 NOSIG
ZJSY,2003-06-05 14:00,ZJSY 051400Z 36001MPS 9999 FEW016 BKN230 28/25 Q1008 NOSIG
ZJSY,2003-06-05 15:00,ZJSY 051500Z 34001MPS CAVOK 28/25 Q1008 NOSIG
ZJSY,2003-06-05 16:00,ZJSY 051600Z 34002MPS CAVOK 27/25 Q1008 NOSIG
ZJSY,2003-06-05 17:00,ZJSY 051700Z AUTO 34002MPS //// // ////// 27/24 Q1007 NOSIG
ZJSY,2003-06-05 18:00,ZJSY 051800Z AUTO 32002MPS //// // ////// 27/24 Q1006 NOSIG
ZJSY,2003-06-05 19:00,ZJSY 051900Z AUTO 34002MPS //// // ////// 27/25 Q1006 NOSIG
ZJSY,2003-06-05 20:00,ZJSY 052000Z AUTO 32001MPS //// // ////// 28/25 Q1005 NOSIG
ZJSY,2003-06-05 21:00,ZJSY 052100Z AUTO 27001MPS //// // ////// 28/25 Q1005 NOSIG
ZJSY,2003-06-05 22:00,ZJSY 052200Z 24001MPS 9999 BKN015 BKN260 28/26 Q1005 NOSIG
ZJSY,2003-06-05 23:00,ZJSY 052300Z 24001MPS 9999 BKN015 BKN260 28/26 Q1006 NOSIG
ZJSY,2003-06-06 00:00,ZJSY 060000Z 23001MPS 9999 FEW018TCU FEW018 BKN260 30/25 Q1006 NOSIG
ZJSY,2003-06-06 01:00,ZJSY 060100Z 24002MPS 9999 FEW018TCU SCT018 BKN260 30/25 Q1006 NOSIG
ZJSY,2003-06-06 02:00,ZJSY 060200Z 23003MPS 9999 FEW018TCU SCT018 BKN260 31/26 Q1007 NOSIG
ZJSY,2003-06-06 03:00,ZJSY 060300Z 23003MPS 9999 FEW018TCU SCT018 BKN260 31/26 Q1006 NOSIG
ZJSY,2003-06-06 04:00,ZJSY 060400Z 22003MPS 9999 FEW018TCU SCT018 BKN040 BKN260 31/27 Q1006 NOSIG
ZJSY,2003-06-06 05:00,ZJSY 060500Z 21004MPS 9999 FEW018TCU SCT018 BKN260 32/27 Q1005 NOSIG
ZJSY,2003-06-06 06:00,ZJSY 060600Z 23004MPS 9999 FEW018TCU FEW018 SCT260 32/26 Q1005 NOSIG
ZJSY,2003-06-06 07:00,ZJSY 060700Z 22004MPS 9999 FEW018TCU FEW018 SCT260 32/26 Q1004 NOSIG
ZJSY,2003-06-06 08:00,ZJSY 060800Z 24005MPS 9999 FEW018TCU FEW018 SCT260 32/25 Q1003 NOSIG
ZJSY,2003-06-06 09:00,ZJSY 060900Z 24004MPS CAVOK 31/24 Q1003 NOSIG
ZJSY,2003-06-06 10:00,ZJSY 061000Z 24004MPS CAVOK 32/23 Q1003 NOSIG
ZJSY,2003-06-06 11:00,ZJSY 061100Z 24002MPS CAVOK 31/24 Q1003 NOSIG
ZJSY,2003-06-06 12:00,ZJSY 061200Z 26002MPS CAVOK 30/23 Q1003 NOSIG
ZJSY,2003-06-06 13:00,ZJSY 061300Z 24001MPS CAVOK 30/24 Q1004 NOSIG
ZJSY,2003-06-06 14:00,ZJSY 061400Z 32001MPS CAVOK 29/24 Q1005 NOSIG
ZJSY,2003-06-06 15:00,ZJSY 061500Z 35001MPS CAVOK 28/24 Q1006 NOSIG
ZJSY,2003-06-06 16:00,ZJSY 061600Z 33002MPS CAVOK 28/24 Q1005 NOSIG
ZJSY,2003-06-06 17:00,ZJSY 061700Z AUTO 28001MPS //// // ////// 29/26 Q1005 NOSIG
ZJSY,2003-06-06 18:00,ZJSY 061800Z AUTO 31001MPS //// // ////// 29/26 Q1004 NOSIG
ZJSY,2003-06-06 19:00,ZJSY 061900Z AUTO 31001MPS //// // ////// 29/26 Q1004 NOSIG
ZJSY,2003-06-06 20:00,ZJSY 062000Z AUTO 31001MPS //// // ////// 29/26 Q1004 NOSIG
ZJSY,2003-06-06 21:00,ZJSY 062100Z AUTO 33001MPS //// // ////// 29/26 Q1004 NOSIG
ZJSY,2003-06-06 22:00,ZJSY 062200Z 28001MPS 9999 SCT020 SCT036 BKN260 29/26 Q1004 NOSIG
ZJSY,2003-06-06 23:00,ZJSY 062300Z 28001MPS 9999 SCT016 SCT036 BKN260 29/26 Q1005 NOSIG
ZJSY,2003-06-07 00:00,ZJSY 070000Z 25001MPS 9999 SCT016 SCT040 BKN230 30/27 Q1005 NOSIG
ZJSY,2003-06-07 01:00,ZJSY 070100Z 25002MPS 9999 FEW016 SCT040 BKN110 31/26 Q1005 NOSIG
ZJSY,2003-06-07 02:00,ZJSY 070200Z 25004MPS 9999 FEW016 SCT040 BKN230 32/25 Q1006 NOSIG
ZJSY,2003-06-07 03:00,ZJSY 070300Z 25004MPS 9999 FEW016 SCT230 32/25 Q1006 NOSIG
ZJSY,2003-06-07 04:00,ZJSY 070400Z 25006MPS 9999 FEW016 SCT230 33/25 Q1005 NOSIG
ZJSY,2003-06-07 05:00,ZJSY 070500Z 26006MPS 9999 FEW016 SCT230 33/25 Q1005 NOSIG
ZJSY,2003-06-07 06:00,ZJSY 070600Z 25006MPS 9999 FEW016 BKN230 33/25 Q1004 NOSIG
ZJSY,2003-06-07 07:00,ZJSY 070700Z 25007MPS 9999 FEW016 BKN230 33/25 Q1003 NOSIG
ZJSY,2003-06-07 08:00,ZJSY 070800Z 24006MPS CAVOK 32/24 Q1003 NOSIG
ZJSY,2003-06-07 09:00,ZJSY 070900Z 26005MPS CAVOK 32/24 Q1002 NOSIG
ZJSY,2003-06-07 10:00,ZJSY 071000Z 25005MPS CAVOK 31/24 Q1002 NOSIG
ZJSY,2003-06-07 11:00,ZJSY 071100Z 27003MPS CAVOK 31/24 Q1003 NOSIG
ZJSY,2003-06-07 12:00,ZJSY 071200Z 27002MPS CAVOK 30/24 Q1004 NOSIG
ZJSY,2003-06-07 13:00,ZJSY 071300Z 30001MPS CAVOK 30/24 Q1004 NOSIG
ZJSY,2003-06-07 15:00,ZJSY 071500Z 00000MPS CAVOK 29/24 Q1005 NOSIG
ZJSY,2003-06-07 16:00,ZJSY 071600Z 34002MPS CAVOK 28/24 Q1005 NOSIG
ZJSY,2003-06-07 17:00,ZJSY 071700Z AUTO 33001MPS //// // ////// 27/23 Q1004 NOSIG
ZJSY,2003-06-07 18:00,ZJSY 071800Z AUTO 32001MPS //// // ////// 27/23 Q1004 NOSIG
ZJSY,2003-06-07 19:00,ZJSY 071900Z AUTO 33001MPS //// // ////// 27/24 Q1004 NOSIG
ZJSY,2003-06-07 20:00,ZJSY 072000Z AUTO 36001MPS //// // ////// 27/24 Q1004 NOSIG
ZJSY,2003-06-07 21:00,ZJSY 072100Z AUTO 00000MPS //// // ////// 27/24 Q1004 NOSIG
ZJSY,2003-06-07 22:00,ZJSY 072200Z 36001MPS CAVOK 27/24 Q1004 NOSIG
ZJSY,2003-06-07 23:00,ZJSY 072300Z 34001MPS CAVOK 27/25 Q1005 NOSIG
ZJSY,2003-06-08 00:00,ZJSY 080000Z 34002MPS CAVOK 30/25 Q1005 NOSIG
ZJSY,2003-06-08 01:00,ZJSY 080100Z 22001MPS CAVOK 32/25 Q1005 NOSIG
ZJSY,2003-06-08 02:00,ZJSY 080200Z 20003MPS CAVOK 32/25 Q1006 NOSIG
ZJSY,2003-06-08 03:00,ZJSY 080300Z 22003MPS CAVOK 32/25 Q1005 NOSIG
ZJSY,2003-06-08 04:00,ZJSY 080400Z 24004MPS CAVOK 33/24 Q1005 NOSIG
ZJSY,2003-06-08 05:00,ZJSY 080500Z 22005MPS CAVOK 33/25 Q1004 NOSIG
ZJSY,2003-06-08 06:00,ZJSY 080600Z 23005MPS CAVOK 33/25 Q1004 NOSIG
ZJSY,2003-06-08 07:00,ZJSY 080700Z 22006MPS CAVOK 33/25 Q1004 NOSIG
ZJSY,2003-06-08 08:00,ZJSY 080800Z 24006MPS CAVOK 33/25 Q1003 NOSIG
ZJSY,2003-06-08 09:00,ZJSY 080900Z 23005MPS CAVOK 32/24 Q1003 NOSIG
ZJSY,2003-06-08 10:00,ZJSY 081000Z 23004MPS CAVOK 31/24 Q1003 NOSIG
ZJSY,2003-06-08 11:00,ZJSY 081100Z 23002MPS CAVOK 31/24 Q1004 NOSIG
ZJSY,2003-06-08 12:00,ZJSY 081200Z 22001MPS CAVOK 30/25 Q1004 NOSIG
ZJSY,2003-06-08 13:00,ZJSY 081300Z 32001MPS CAVOK 29/25 Q1004 NOSIG
ZJSY,2003-06-08 14:00,ZJSY 081400Z 33001MPS CAVOK 29/25 Q1004 NOSIG
ZJSY,2003-06-08 15:00,ZJSY 081500Z 36001MPS CAVOK 28/24 Q1004 NOSIG
ZJSY,2003-06-08 16:00,ZJSY 081600Z 33002MPS CAVOK 28/24 Q1004 NOSIG
ZJSY,2003-06-08 17:00,ZJSY 081700Z AUTO 33002MPS //// // ////// 28/24 Q1004 NOSIG
ZJSY,2003-06-08 21:00,ZJSY 082100Z AUTO 33002MPS //// // ////// 28/24 Q1004 NOSIG
ZJSY,2003-06-08 22:00,ZJSY 082200Z AUTO 35001MPS //// // ////// 27/24 Q1004 NOSIG
ZJSY,2003-06-08 23:00,ZJSY 082300Z 33002MPS CAVOK 28/25 Q1005 NOSIG
ZJSY,2003-06-09 00:00,ZJSY 090000Z 29001MPS CAVOK 31/26 Q1005 NOSIG
ZJSY,2003-06-09 01:00,ZJSY 090100Z 24002MPS CAVOK 32/25 Q1005 NOSIG
ZJSY,2003-06-09 02:00,ZJSY 090200Z 22003MPS CAVOK 32/25 Q1005 NOSIG
ZJSY,2003-06-09 03:00,ZJSY 090300Z 23003MPS CAVOK 33/25 Q1004 NOSIG
ZJSY,2003-06-09 04:00,ZJSY 090400Z 24005MPS CAVOK 33/24 Q1004 NOSIG
ZJSY,2003-06-09 05:00,ZJSY 090500Z 23005MPS CAVOK 33/24 Q1003 NOSIG
ZJSY,2003-06-09 06:00,ZJSY 090600Z 25005MPS CAVOK 33/24 Q1003 NOSIG
ZJSY,2003-06-09 07:00,ZJSY 090700Z 25006MPS CAVOK 33/25 Q1002 NOSIG
ZJSY,2003-06-09 08:00,ZJSY 090800Z 26004MPS CAVOK 33/24 Q1002 NOSIG
ZJSY,2003-06-09 09:00,ZJSY 090900Z 25005MPS CAVOK 32/24 Q1002 NOSIG
ZJSY,2003-06-09 10:00,ZJSY 091000Z 23003MPS CAVOK 31/25 Q1001 NOSIG
ZJSY,2003-06-09 11:00,ZJSY 091100Z 21001MPS CAVOK 31/24 Q1002 NOSIG
ZJSY,2003-06-09 12:00,ZJSY 091200Z 00000MPS CAVOK 30/24 Q1003 NOSIG
ZJSY,2003-06-09 13:00,ZJSY 091300Z 34002MPS CAVOK 29/24 Q1003 NOSIG
ZJSY,2003-06-09 14:00,ZJSY 091400Z 36001MPS CAVOK 29/24 Q1003 NOSIG
ZJSY,2003-06-09 15:00,ZJSY 091500Z 34002MPS CAVOK 28/23 Q1004 NOSIG
ZJSY,2003-06-09 16:00,ZJSY 091600Z 34002MPS CAVOK 28/23 Q1003 NOSIG
ZJSY,2003-06-09 17:00,ZJSY 091700Z 34001MPS CAVOK 29/23 Q1003 NOSIG
ZJSY,2003-06-09 18:00,ZJSY 091800Z AUTO 35001MPS //// // ////// 28/24 Q1003 NOSIG
ZJSY,2003-06-09 19:00,ZJSY 091900Z AUTO 34002MPS //// // ////// 28/24 Q1002 NOSIG
ZJSY,2003-06-09 20:00,ZJSY 092000Z AUTO 33002MPS //// // ////// 28/25 Q1002 NOSIG
ZJSY,2003-06-09 21:00,ZJSY 092100Z AUTO 01001MPS //// // ////// 28/25 Q1002 NOSIG
ZJSY,2003-06-09 22:00,ZJSY 092200Z 34001MPS CAVOK 28/25 Q1002 NOSIG
ZJSY,2003-06-09 23:00,ZJSY 092300Z 34002MPS CAVOK 28/25 Q1003 NOSIG
ZJSY,2003-06-10 00:00,ZJSY 100000Z 31001MPS CAVOK 31/26 Q1003 NOSIG
ZJSY,2003-06-10 01:00,ZJSY 100100Z 18002MPS CAVOK 31/27 Q1003 NOSIG
ZJSY,2003-06-10 02:00,ZJSY 100200Z 22003MPS CAVOK 32/26 Q1003 NOSIG
ZJSY,2003-06-10 03:00,ZJSY 100300Z 24004MPS CAVOK 33/25 Q1003 NOSIG
ZJSY,2003-06-10 04:00,ZJSY 100400Z 24005MPS CAVOK 33/25 Q1003 NOSIG
ZJSY,2003-06-10 05:00,ZJSY 100500Z 25006MPS CAVOK 33/24 Q1003 NOSIG
ZJSY,2003-06-10 06:00,ZJSY 100600Z 24006MPS CAVOK 33/24 Q1002 NOSIG
ZJSY,2003-06-10 07:00,ZJSY 100700Z 24006MPS CAVOK 33/24 Q1001 NOSIG
ZJSY,2003-06-10 08:00,ZJSY 100800Z 25005MPS CAVOK 33/24 Q1001 NOSIG
ZJSY,2003-06-10 09:00,ZJSY 100900Z 24003MPS CAVOK 32/24 Q1001 NOSIG
ZJSY,2003-06-10 10:00,ZJSY 101000Z 24002MPS CAVOK 32/24 Q1001 NOSIG
ZJSY,2003-06-10 11:00,ZJSY 101100Z 25001MPS CAVOK 31/24 Q1001 NOSIG
ZJSY,2003-06-10 12:00,ZJSY 101200Z 28001MPS CAVOK 31/24 Q1001 NOSIG
ZJSY,2003-06-10 13:00,ZJSY 101300Z 34001MPS CAVOK 30/24 Q1002 NOSIG
ZJSY,2003-06-10 14:00,ZJSY 101400Z 36001MPS CAVOK 29/24 Q1003 NOSIG
ZJSY,2003-06-10 15:00,ZJSY 101500Z 02001MPS CAVOK 29/24 Q1003 NOSIG
ZJSY,2003-06-10 16:00,ZJSY 101600Z 34002MPS CAVOK 28/24 Q1003 NOSIG
ZJSY,2003-06-10 17:00,ZJSY 101700Z AUTO 01001MPS //// // ////// 28/24 Q1003 NOSIG
ZJSY,2003-06-10 18:00,ZJSY 101800Z AUTO 34002MPS //// // ////// 28/25 Q1002 NOSIG
ZJSY,2003-06-10 19:00,ZJSY 101900Z AUTO 34002MPS //// // ////// 28/25 Q1002 NOSIG
ZJSY,2003-06-10 20:00,ZJSY 102000Z AUTO 35001MPS //// // ////// 28/25 Q1002 NOSIG
ZJSY,2003-06-10 21:00,ZJSY 102100Z AUTO 34002MPS //// // ////// 28/26 Q1002 NOSIG
ZJSY,2003-06-10 22:00,ZJSY 102200Z 35001MPS CAVOK 28/25 Q1002 NOSIG
ZJSY,2003-06-10 23:00,ZJSY 102300Z 35001MPS CAVOK 29/26 Q1003 NOSIG
ZJSY,2003-06-11 00:00,ZJSY 110000Z 11001MPS CAVOK 31/26 Q1003 NOSIG
ZJSY,2003-06-11 01:00,ZJSY 110100Z 23002MPS 9999 FEW020 SCT260 32/26 Q1004 NOSIG
ZJSY,2003-06-11 02:00,ZJSY 110200Z 25004MPS 9999 FEW020 BKN260 33/25 Q1004 NOSIG
ZJSY,2003-06-11 03:00,ZJSY 110300Z 25005MPS 9999 FEW020 BKN260 33/25 Q1004 NOSIG
ZJSY,2003-06-11 04:00,ZJSY 110400Z 24006MPS 9999 FEW020 BKN260 33/25 Q1004 NOSIG
ZJSY,2003-06-11 05:00,ZJSY 110500Z 24006MPS 9999 FEW020 SCT130 BKN260 33/25 Q1004 NOSIG
ZJSY,2003-06-11 06:00,ZJSY 110600Z 24007MPS 9999 FEW020 SCT130 BKN260 33/24 Q1003 NOSIG
ZJSY,2003-06-11 07:00,ZJSY 110700Z 24005MPS 9999 FEW020 SCT130 BKN260 33/25 Q1002 NOSIG
ZJSY,2003-06-11 08:00,ZJSY 110800Z 24006MPS CAVOK 33/25 Q1002 NOSIG
ZJSY,2003-06-11 09:00,ZJSY 110900Z 24004MPS CAVOK 32/24 Q1001 NOSIG
ZJSY,2003-06-11 10:00,ZJSY 111000Z 23003MPS CAVOK 32/24 Q1002 NOSIG
ZJSY,2003-06-11 11:00,ZJSY 111100Z 23002MPS CAVOK 31/24 Q1003 NOSIG
ZJSY,2003-06-11 12:00,ZJSY 111200Z 28001MPS CAVOK 30/24 Q1003 NOSIG
ZJSY,2003-06-11 13:00,ZJSY 111300Z 35001MPS CAVOK 30/23 Q1003 NOSIG
ZJSY,2003-06-11 14:00,ZJSY 111400Z 33001MPS CAVOK 30/23 Q1004 NOSIG
ZJSY,2003-06-11 15:00,ZJSY 111500Z 33002MPS CAVOK 29/23 Q1005 NOSIG
ZJSY,2003-06-11 16:00,ZJSY 111600Z 34002MPS CAVOK 28/23 Q1005 NOSIG
ZJSY,2003-06-11 17:00,ZJSY 111700Z AUTO 33001MPS //// // ////// 28/23 Q1004 NOSIG
ZJSY,2003-06-11 18:00,ZJSY 111800Z AUTO 35001MPS //// // ////// 28/24 Q1004 NOSIG
ZJSY,2003-06-11 19:00,ZJSY 111900Z AUTO 35001MPS //// // ////// 29/24 Q1004 NOSIG
ZJSY,2003-06-11 20:00,ZJSY 112000Z AUTO 35001MPS //// // ////// 28/24 Q1004 NOSIG
ZJSY,2003-06-11 21:00,ZJSY 112100Z AUTO 34001MPS //// // ////// 29/25 Q1004 NOSIG
ZJSY,2003-06-11 22:00,ZJSY 112200Z 34001MPS 9999 FEW013 BKN200 29/25 Q1003 NOSIG
ZJSY,2003-06-11 23:00,ZJSY 112300Z 00000MPS 9999 FEW010 SCT016 BKN200 29/26 Q1004 NOSIG
ZJSY,2003-06-12 00:00,ZJSY 120000Z 35002MPS 9999 FEW010 FEW016TCU BKN200 30/26 Q1005 NOSIG
ZJSY,2003-06-12 01:00,ZJSY 120100Z 23002MPS 9999 FEW013 FEW023TCU BKN200 31/25 Q1005 NOSIG
ZJSY,2003-06-12 02:00,ZJSY 120200Z 24003MPS 9999 FEW013 BKN200 32/25 Q1006 NOSIG
ZJSY,2003-06-12 03:00,ZJSY 120300Z 24004MPS 9999 FEW013 BKN200 32/25 Q1006 NOSIG
ZJSY,2003-06-12 04:00,ZJSY 120400Z 23005MPS 9999 FEW013 BKN200 32/24 Q1006 NOSIG
ZJSY,2003-06-12 05:00,ZJSY 120500Z 24005MPS 9999 FEW013 BKN200 32/24 Q1005 NOSIG
ZJSY,2003-06-12 06:00,ZJSY 120600Z 25007MPS 9999 FEW013 BKN200 32/24 Q1005 NOSIG
ZJSY,2003-06-12 07:00,ZJSY 120700Z 24005MPS 9999 FEW013 BKN200 32/24 Q1004 NOSIG
ZJSY,2003-06-12 08:00,ZJSY 120800Z 25006MPS CAVOK 31/24 Q1003 NOSIG
ZJSY,2003-06-12 09:00,ZJSY 120900Z 24005MPS CAVOK 31/25 Q1003 NOSIG
ZJSY,2003-06-12 11:00,ZJSY 121100Z 26003MPS CAVOK 30/24 Q1004 NOSIG
ZJSY,2003-06-12 12:00,ZJSY 121200Z 33001MPS CAVOK 30/23 Q1004 NOSIG
ZJSY,2003-06-12 13:00,ZJSY 121300Z 34002MPS CAVOK 29/23 Q1005 NOSIG
ZJSY,2003-06-12 14:00,ZJSY 121400Z 34001MPS 9999 SCT020 BKN230 29/23 Q1006 NOSIG
ZJSY,2003-06-12 15:00,ZJSY 121500Z 34002MPS 9999 SCT020 BKN230 27/23 Q1006 NOSIG
ZJSY,2003-06-12 16:00,ZJSY 121600Z 00000MPS 9999 SCT020 BKN230 27/23 Q1007 NOSIG
ZJSY,2003-06-12 17:00,ZJSY 121700Z AUTO 33001MPS //// // ////// 27/22 Q1006 NOSIG
ZJSY,2003-06-12 18:00,ZJSY 121800Z AUTO 02002MPS //// // ////// 27/23 Q1006 NOSIG
ZJSY,2003-06-12 19:00,ZJSY 121900Z AUTO 34002MPS //// // ////// 27/23 Q1006 NOSIG
ZJSY,2003-06-12 20:00,ZJSY 122000Z AUTO 33002MPS //// // ////// 27/23 Q1006 NOSIG
ZJSY,2003-06-12 21:00,ZJSY 122100Z AUTO 33002MPS //// // ////// 27/24 Q1006 NOSIG
ZJSY,2003-06-12 22:00,ZJSY 122200Z 34002MPS 9999 BKN015 BKN230 27/24 Q1006 NOSIG
ZJSY,2003-06-12 23:00,ZJSY 122300Z 34001MPS 9999 SCT016 BKN230 28/25 Q1006 NOSIG
ZJSY,2003-06-13 00:00,ZJSY 130000Z 08001MPS 9999 SCT016 BKN260 31/26 Q1006 NOSIG
ZJSY,2003-06-13 01:00,ZJSY 130100Z 18001MPS 9999 SCT016 BKN260 31/26 Q1006 NOSIG
ZJSY,2003-06-13 02:00,ZJSY 130200Z 16002MPS 9999 SCT016 SCT043 BKN260 31/27 Q1007 NOSIG
ZJSY,2003-06-13 03:00,ZJSY 130300Z 19002MPS 9999 SCT016 BKN260 33/27 Q1007 NOSIG
ZJSY,2003-06-13 04:00,ZJSY 130400Z 19003MPS 9999 SCT016 SCT260 32/27 Q1007 NOSIG
ZJSY,2003-06-13 05:00,ZJSY 130500Z 20004MPS 9999 SCT016 SCT260 33/27 Q1006 NOSIG
ZJSY,2003-06-13 06:00,ZJSY 130600Z 21004MPS 9999 SCT016 SCT260 33/27 Q1006 NOSIG
ZJSY,2003-06-13 07:00,ZJSY 130700Z 23004MPS 9999 SCT016 SCT260 33/25 Q1005 NOSIG
ZJSY,2003-06-13 08:00,ZJSY 130800Z 22004MPS 9999 SCT016 SCT260 32/24 Q1004 NOSIG
ZJSY,2003-06-13 09:00,ZJSY 130900Z 23003MPS CAVOK 32/24 Q1004 NOSIG
ZJSY,2003-06-13 10:00,ZJSY 131000Z 24002MPS CAVOK 31/24 Q1004 NOSIG
ZJSY,2003-06-13 11:00,ZJSY 131100Z 27002MPS CAVOK 31/24 Q1005 NOSIG
ZJSY,2003-06-13 12:00,ZJSY 131200Z 16001MPS CAVOK 30/25 Q1005 NOSIG
ZJSY,2003-06-13 13:00,ZJSY 131300Z 35001MPS CAVOK 29/23 Q1005 NOSIG
ZJSY,2003-06-13 14:00,ZJSY 131400Z 33001MPS CAVOK 29/23 Q1006 NOSIG
ZJSY,2003-06-13 15:00,ZJSY 131500Z 34002MPS CAVOK 28/23 Q1007 NOSIG
ZJSY,2003-06-13 16:00,ZJSY 131600Z 00000MPS CAVOK 28/23 Q1007 NOSIG
ZJSY,2003-06-13 17:00,ZJSY 131700Z AUTO 00000MPS //// // ////// 28/23 Q1006 NOSIG
ZJSY,2003-06-13 18:00,ZJSY 131800Z AUTO 01001MPS //// // ////// 28/23 Q1006 NOSIG
ZJSY,2003-06-13 19:00,ZJSY 131900Z AUTO 00000MPS //// // ////// 28/24 Q1006 NOSIG
ZJSY,2003-06-13 20:00,ZJSY 132000Z AUTO 35001MPS //// // ////// 28/24 Q1006 NOSIG
ZJSY,2003-06-13 21:00,ZJSY 132100Z AUTO 05001MPS //// // ////// 29/25 Q1005 NOSIG
ZJSY,2003-06-13 22:00,ZJSY 132200Z 34001MPS 9999 FEW013 BKN260 28/25 Q1005 NOSIG
ZJSY,2003-06-13 23:00,ZJSY 132300Z 33002MPS 9999 SCT013 FEW026TCU BKN260 29/26 Q1007 NOSIG
ZJSY,2003-06-14 00:00,ZJSY 140000Z 00000MPS 9999 BKN013 BKN260 31/26 Q1006 NOSIG
ZJSY,2003-06-14 01:00,ZJSY 140100Z 22002MPS 9999 SCT013 FEW023TCU BKN260 31/26 Q1007 NOSIG
ZJSY,2003-06-14 02:00,ZJSY 140200Z 23002MPS 9999 SCT013 FEW023TCU BKN200 31/27 Q1007 NOSIG
ZJSY,2003-06-14 03:00,ZJSY 140300Z 36005MPS 8000 -SHRA BKN010 FEW023CB BKN200 26/22 Q1007 NOSIG
ZJSY,2003-06-14 04:00,ZJSY 140400Z 04003MPS 8000 BKN010 FEW023CB BKN200 25/22 Q1007 RETS NOSIG
ZJSY,2003-06-14 05:00,ZJSY 140500Z 36002MPS CAVOK 27/23 Q1006 NOSIG
ZJSY,2003-06-14 06:00,ZJSY 140600Z 24001MPS CAVOK 31/23 Q1005 NOSIG
ZJSY,2003-06-14 07:00,ZJSY 140700Z 13001MPS 9999 FEW016 OVC200 31/24 Q1005 NOSIG
ZJSY,2003-06-14 08:00,ZJSY 140800Z 22002MPS 9999 FEW016 OVC200 31/24 Q1004 NOSIG
ZJSY,2003-06-14 09:00,ZJSY 140900Z 24003MPS 9999 FEW040 OVC200 30/25 Q1004 NOSIG
ZJSY,2003-06-14 10:00,ZJSY 141000Z 23002MPS 9999 SCT040 OVC200 30/25 Q1004 NOSIG
ZJSY,2003-06-14 11:00,ZJSY 141100Z 20002MPS 9999 SCT040 OVC200 29/25 Q1004 NOSIG
ZJSY,2003-06-14 12:00,ZJSY 141200Z 24002MPS 9999 SCT040 OVC200 29/25 Q1005 NOSIG
ZJSY,2003-06-14 13:00,ZJSY 141300Z 24002MPS 9999 SCT040 OVC200 29/25 Q1005 NOSIG
ZJSY,2003-06-14 14:00,ZJSY 141400Z 24002MPS 9999 FEW016 SCT040 BKN200 29/25 Q1005 NOSIG
ZJSY,2003-06-14 15:00,ZJSY 141500Z 24002MPS 9999 FEW016 SCT040 BKN200 29/25 Q1005 NOSIG
ZJSY,2003-06-14 16:00,ZJSY 141600Z 24002MPS 9999 FEW016 SCT040 BKN200 29/25 Q1005 NOSIG
ZJSY,2003-06-14 17:00,ZJSY 141700Z AUTO 24002MPS //// // ////// 29/25 Q1005 NOSIG
ZJSY,2003-06-14 18:00,ZJSY 141800Z AUTO 24002MPS //// // ////// 29/25 Q1005 NOSIG
ZJSY,2003-06-14 19:00,ZJSY 141900Z AUTO 24002MPS //// // ////// 29/25 Q1005 NOSIG
ZJSY,2003-06-14 20:00,ZJSY 142000Z AUTO 24002MPS //// // ////// 29/25 Q1005 NOSIG
ZJSY,2003-06-14 21:00,ZJSY 142100Z AUTO 24002MPS //// // ////// 29/25 Q1005 NOSIG
ZJSY,2003-06-14 22:00,ZJSY 142200Z 24002MPS 9999 FEW016 BKN040 OVC200 29/25 Q1005 NOSIG
ZJSY,2003-06-14 23:00,ZJSY 142300Z 24002MPS CAVOK 29/25 Q1005 NOSIG
ZJSY,2003-06-15 00:00,ZJSY 150000Z 24002MPS CAVOK 29/25 Q1005 NOSIG
ZJSY,2003-06-15 01:00,ZJSY 150100Z 27003MPS CAVOK 30/24 Q1005 NOSIG
ZJSY,2003-06-15 02:00,ZJSY 150200Z 22005MPS 9999 FEW016 SCT130 30/25 Q1005 NOSIG
ZJSY,2003-06-15 03:00,ZJSY 150300Z 24005MPS 9999 SCT016 SCT260 31/25 Q1005 NOSIG
ZJSY,2003-06-15 04:00,ZJSY 150400Z 24006MPS 9999 SCT016 SCT260 32/25 Q1005 NOSIG
ZJSY,2003-06-15 05:00,ZJSY 150500Z 23005MPS 9999 SCT016 SCT130 31/25 Q1004 NOSIG
ZJSY,2003-06-15 06:00,ZJSY 150600Z 24006MPS 9999 SCT016 SCT130 32/25 Q1004 NOSIG
ZJSY,2003-06-15 07:00,ZJSY 150700Z 24006MPS 9999 SCT016 SCT130 31/24 Q1003 NOSIG
ZJSY,2003-06-15 08:00,ZJSY 150800Z 24007MPS 9999 SCT016 FEW021TCU BKN230 30/24 Q1002 NOSIG
ZJSY,2003-06-15 09:00,ZJSY 150900Z 2409MPS G15 9999 SCT012 BKN016 SCT023CB 29/23 Q1003 NOSIG
ZJSY,2003-06-15 10:00,ZJSY 151000Z 29004MPS 9999 SCT012 BKN016 SCT023CB 27/22 Q1003 NOSIG
ZJSY,2003-06-15 11:00,ZJSY 151100Z 22001MPS 9999 FEW015 SCT016 BKN230 28/21 Q1003 NOSIG
ZJSY,2003-06-15 12:00,ZJSY 151200Z 25002MPS 9999 SCT016 BKN230 27/22 Q1004 NOSIG
ZJSY,2003-06-15 13:00,ZJSY 151300Z 36002MPS 9999 SCT016 BKN230 27/22 Q1004 NOSIG
ZJSY,2003-06-15 14:00,ZJSY 151400Z 18001MPS 9999 FEW016 BKN230 27/22 Q1004 NOSIG
ZJSY,2003-06-15 15:00,ZJSY 151500Z 00000MPS 9999 FEW016 BKN230 26/22 Q1005 NOSIG
ZJSY,2003-06-15 16:00,ZJSY 151600Z 20001MPS 9999 FEW016 BKN230 26/22 Q1005 NOSIG
ZJSY,2003-06-15 17:00,ZJSY 151700Z AUTO 36001MPS //// // ////// 26/22 Q1005 NOSIG
ZJSY,2003-06-15 18:00,ZJSY 151800Z AUTO 36001MPS //// // ////// 26/23 Q1004 NOSIG
ZJSY,2003-06-15 19:00,ZJSY 151900Z AUTO 33001MPS //// // ////// 26/23 Q1004 NOSIG
ZJSY,2003-06-15 20:00,ZJSY 152000Z AUTO 33002MPS //// // ////// 26/23 Q1003 NOSIG
ZJSY,2003-06-15 21:00,ZJSY 152100Z AUTO 00000MPS //// // ////// 26/23 Q1004 NOSIG
ZJSY,2003-06-15 22:00,ZJSY 152200Z 32001MPS CAVOK 26/23 Q1003 NOSIG
ZJSY,2003-06-15 23:00,ZJSY 152300Z 24001MPS CAVOK 26/23 Q1004 NOSIG
ZJSY,2003-06-16 00:00,ZJSY 160000Z 23001MPS CAVOK 28/24 Q1004 NOSIG
ZJSY,2003-06-16 01:00,ZJSY 160100Z 25002MPS 9999 FEW016 BKN230 30/24 Q1004 NOSIG
ZJSY,2003-06-16 02:00,ZJSY 160200Z 21005MPS 9999 SCT016 FEW030TCU BKN230 29/24 Q1005 NOSIG
ZJSY,2003-06-16 03:00,ZJSY 160300Z 22003MPS 9999 SCT016 FEW030TCU BKN230 29/24 Q1005 NOSIG
ZJSY,2003-06-16 04:00,ZJSY 160400Z 22003MPS 9999 SCT016 FEW030TCU BKN230 30/24 Q1005 NOSIG
ZJSY,2003-06-16 05:00,ZJSY 160500Z 20004MPS 9999 SCT016 FEW030CB BKN230 30/24 Q1005 NOSIG
ZJSY,2003-06-16 06:00,ZJSY 160600Z 22003MPS 9999 -TSRA SCT016 FEW033CB BKN230 28/24 Q1004 NOSIG
ZJSY,2003-06-16 07:00,ZJSY 160700Z 29002MPS 9999 -RA SCT016 FEW033CB BKN033 BKN230 27/25 Q1004 RETS NOSIG
ZJSY,2003-06-16 08:00,ZJSY 160800Z 31001MPS 9999 FEW018 BKN040 BKN230 28/24 Q1003 NOSIG
ZJSY,2003-06-16 09:00,ZJSY 160900Z 28001MPS 9999 FEW018 SCT040 BKN230 28/24 Q1003 NOSIG
ZJSY,2003-06-16 10:00,ZJSY 161000Z 24002MPS 9999 FEW015 BKN230 28/24 Q1003 NOSIG
ZJSY,2003-06-16 11:00,ZJSY 161100Z 28001MPS CAVOK 28/24 Q1004 NOSIG
ZJSY,2003-06-16 12:00,ZJSY 161200Z 00000MPS CAVOK 28/24 Q1004 NOSIG
ZJSY,2003-06-16 13:00,ZJSY 161300Z 00000MPS CAVOK 27/23 Q1005 NOSIG
ZJSY,2003-06-16 14:00,ZJSY 161400Z 34001MPS CAVOK 26/24 Q1005 NOSIG
ZJSY,2003-06-16 15:00,ZJSY 161500Z 36001MPS CAVOK 26/24 Q1006 NOSIG
ZJSY,2003-06-16 16:00,ZJSY 161600Z 36001MPS CAVOK 26/24 Q1006 NOSIG
ZJSY,2003-06-16 17:00,ZJSY 161700Z AUTO 35001MPS //// // ////// 26/23 Q1006 NOSIG
ZJSY,2003-06-16 18:00,ZJSY 161800Z AUTO 34002MPS //// // ////// 25/23 Q1005 NOSIG
ZJSY,2003-06-16 19:00,ZJSY 161900Z AUTO 34001MPS //// // ////// 25/23 Q1005 NOSIG
ZJSY,2003-06-16 20:00,ZJSY 162000Z AUTO 33002MPS //// // ////// 25/23 Q1005 NOSIG
ZJSY,2003-06-16 21:00,ZJSY 162100Z AUTO 35001MPS //// // ////// 25/23 Q1005 NOSIG
ZJSY,2003-06-16 22:00,ZJSY 162200Z 00000MPS CAVOK 25/23 Q1005 NOSIG
ZJSY,2003-06-16 23:00,ZJSY 162300Z 00000MPS CAVOK 25/23 Q1005 NOSIG
ZJSY,2003-06-17 00:00,ZJSY 170000Z 16001MPS CAVOK 27/24 Q1006 NOSIG
ZJSY,2003-06-17 01:00,ZJSY 170100Z 23001MPS CAVOK 29/24 Q1006 NOSIG
ZJSY,2003-06-17 02:00,ZJSY 170200Z 18002MPS 9999 SCT016 BKN230 30/25 Q1006 NOSIG
ZJSY,2003-06-17 03:00,ZJSY 170300Z 23004MPS 9999 SCT016 BKN230 30/24 Q1006 NOSIG
ZJSY,2003-06-17 04:00,ZJSY 170400Z 22006MPS 9999 FEW016 BKN230 30/25 Q1006 NOSIG
ZJSY,2003-06-17 05:00,ZJSY 170500Z 23005MPS 9999 FEW016 BKN230 31/24 Q1006 NOSIG
ZJSY,2003-06-17 06:00,ZJSY 170600Z 23006MPS 9999 FEW016 BKN230 31/23 Q1005 NOSIG
ZJSY,2003-06-17 07:00,ZJSY 170700Z 22006MPS 9999 FEW016 BKN230 30/23 Q1005 NOSIG
ZJSY,2003-06-17 08:00,ZJSY 170800Z 24005MPS CAVOK 30/25 Q1004 NOSIG
ZJSY,2003-06-17 09:00,ZJSY 170900Z 24005MPS CAVOK 30/24 Q1004 NOSIG
ZJSY,2003-06-17 10:00,ZJSY 171000Z 24004MPS 9999 FEW016 BKN260 29/24 Q1005 NOSIG
ZJSY,2003-06-17 11:00,ZJSY 171100Z 26003MPS CAVOK 29/24 Q1005 NOSIG
ZJSY,2003-06-17 12:00,ZJSY 171200Z 26002MPS CAVOK 28/24 Q1005 NOSIG
ZJSY,2003-06-17 13:00,ZJSY 171300Z 25001MPS CAVOK 28/24 Q1006 NOSIG
ZJSY,2003-06-17 14:00,ZJSY 171400Z 00000MPS CAVOK 28/24 Q1007 NOSIG
ZJSY,2003-06-17 15:00,ZJSY 171500Z 36001MPS CAVOK 27/24 Q1008 NOSIG
ZJSY,2003-06-17 16:00,ZJSY 171600Z 34001MPS CAVOK 27/24 Q1008 NOSIG
ZJSY,2003-06-17 17:00,ZJSY 171700Z AUTO 33002MPS //// // ////// 27/24 Q1008 NOSIG
ZJSY,2003-06-17 18:00,ZJSY 171800Z AUTO 34001MPS //// // ////// 26/24 Q1007 NOSIG
ZJSY,2003-06-17 19:00,ZJSY 171900Z AUTO 34001MPS //// // ////// 26/24 Q1007 NOSIG
ZJSY,2003-06-17 20:00,ZJSY 172000Z AUTO 35001MPS //// // ////// 26/23 Q1006 NOSIG
ZJSY,2003-06-17 21:00,ZJSY 172100Z AUTO 34002MPS //// // ////// 26/24 Q1006 NOSIG
ZJSY,2003-06-17 22:00,ZJSY 172200Z 36001MPS 9999 SCT040 BKN066 26/24 Q1007 NOSIG
ZJSY,2003-06-17 23:00,ZJSY 172300Z 00000MPS 9999 BKN040 BKN120 26/24 Q1007 NOSIG
ZJSY,2003-06-18 00:00,ZJSY 180000Z 32002MPS CAVOK 27/24 Q1007 NOSIG
ZJSY,2003-06-18 01:00,ZJSY 180100Z 27003MPS CAVOK 30/23 Q1007 NOSIG
ZJSY,2003-06-18 02:00,ZJSY 180200Z 19003MPS 9999 FEW016 BKN120 30/25 Q1007 NOSIG
ZJSY,2003-06-18 03:00,ZJSY 180300Z 22003MPS 9999 FEW016 BKN120 31/24 Q1007 NOSIG
ZJSY,2003-06-18 04:00,ZJSY 180400Z 22005MPS CAVOK 30/24 Q1006 NOSIG
ZJSY,2003-06-18 05:00,ZJSY 180500Z 22006MPS CAVOK 30/24 Q1006 NOSIG
ZJSY,2003-06-18 06:00,ZJSY 180600Z 23006MPS CAVOK 31/25 Q1005 NOSIG
ZJSY,2003-06-18 07:00,ZJSY 180700Z 24005MPS 9999 FEW016 BKN230 30/25 Q1005 NOSIG
ZJSY,2003-06-18 08:00,ZJSY 180800Z 24004MPS 9999 FEW016 BKN200 29/25 Q1004 NOSIG
ZJSY,2003-06-18 09:00,ZJSY 180900Z 22003MPS 9999 FEW016 SCT060 BKN200 29/25 Q1004 NOSIG
ZJSY,2003-06-18 10:00,ZJSY 181000Z 23001MPS CAVOK 29/25 Q1004 NOSIG
ZJSY,2003-06-18 11:00,ZJSY 181100Z 27001MPS CAVOK 29/25 Q1004 NOSIG
ZJSY,2003-06-18 12:00,ZJSY 181200Z 28002MPS CAVOK 28/25 Q1005 NOSIG
ZJSY,2003-06-18 13:00,ZJSY 181300Z 02001MPS CAVOK 28/25 Q1005 NOSIG
ZJSY,2003-06-18 14:00,ZJSY 181400Z 00000MPS CAVOK 28/25 Q1005 NOSIG
ZJSY,2003-06-18 15:00,ZJSY 181500Z 29001MPS CAVOK 27/24 Q1006 NOSIG
ZJSY,2003-06-18 16:00,ZJSY 181600Z 32002MPS CAVOK 27/25 Q1006 NOSIG
ZJSY,2003-06-18 17:00,ZJSY 181700Z AUTO 34002MPS //// // ////// 27/24 Q1006 NOSIG
ZJSY,2003-06-18 18:00,ZJSY 181800Z AUTO 33002MPS //// // ////// 27/25 Q1005 NOSIG
ZJSY,2003-06-18 19:00,ZJSY 181900Z AUTO 34001MPS //// // ////// 27/25 Q1005 NOSIG
ZJSY,2003-06-18 20:00,ZJSY 182000Z AUTO 28002MPS //// // ////// 25/23 Q1005 NOSIG
ZJSY,2003-06-18 21:00,ZJSY 182100Z AUTO 34003MPS //// // ////// 25/23 Q1004 NOSIG
ZJSY,2003-06-18 22:00,ZJSY 182200Z 00000MPS CAVOK 25/23 Q1004 NOSIG
ZJSY,2003-06-18 23:00,ZJSY 182300Z 34002MPS CAVOK 25/23 Q1004 NOSIG
ZJSY,2003-06-19 00:00,ZJSY 190000Z 33002MPS CAVOK 27/24 Q1005 NOSIG
ZJSY,2003-06-19 01:00,ZJSY 190100Z 00000MPS CAVOK 29/24 Q1005 NOSIG
ZJSY,2003-06-19 02:00,ZJSY 190200Z 22002MPS 9999 FEW016 SCT200 30/25 Q1005 NOSIG
ZJSY,2003-06-19 03:00,ZJSY 190300Z 20003MPS 9999 FEW016 SCT200 30/25 Q1005 NOSIG
ZJSY,2003-06-19 04:00,ZJSY 190400Z 21002MPS 9999 FEW016 SCT200 30/24 Q1004 NOSIG
ZJSY,2003-06-19 05:00,ZJSY 190500Z 23005MPS 9999 FEW016 30/24 Q1004 NOSIG
ZJSY,2003-06-19 06:00,ZJSY 190600Z 24007MPS 9999 FEW016 31/24 Q1003 NOSIG
ZJSY,2003-06-19 07:00,ZJSY 190700Z 24006MPS CAVOK 31/24 Q1003 NOSIG
ZJSY,2003-06-19 08:00,ZJSY 190800Z 25005MPS 9999 FEW023TCU FEW230 29/24 Q1002 NOSIG
ZJSY,2003-06-19 09:00,ZJSY 190900Z 24004MPS CAVOK 30/24 Q1002 NOSIG
ZJSY,2003-06-19 10:00,ZJSY 191000Z 25002MPS CAVOK 30/24 Q1002 NOSIG
ZJSY,2003-06-19 11:00,ZJSY 191100Z 27003MPS CAVOK 29/24 Q1002 NOSIG
ZJSY,2003-06-19 12:00,ZJSY 191200Z 00000MPS CAVOK 29/24 Q1002 NOSIG
ZJSY,2003-06-19 13:00,ZJSY 191300Z 33001MPS CAVOK 28/24 Q1003 NOSIG
ZJSY,2003-06-19 14:00,ZJSY 191400Z 00000MPS CAVOK 28/24 Q1004 NOSIG
ZJSY,2003-06-19 15:00,ZJSY 191500Z 34001MPS CAVOK 27/24 Q1004 NOSIG
ZJSY,2003-06-19 16:00,ZJSY 191600Z 00000MPS CAVOK 27/24 Q1004 NOSIG
ZJSY,2003-06-19 17:00,ZJSY 191700Z AUTO 34002MPS //// // ////// 27/24 Q1004 NOSIG
ZJSY,2003-06-19 18:00,ZJSY 191800Z AUTO 34001MPS //// // ////// 27/24 Q1003 NOSIG
ZJSY,2003-06-19 19:00,ZJSY 191900Z AUTO 00000MPS //// // ////// 27/24 Q1003 NOSIG
ZJSY,2003-06-19 20:00,ZJSY 192000Z AUTO 30001MPS //// // ////// 26/23 Q1002 NOSIG
ZJSY,2003-06-19 21:00,ZJSY 192100Z AUTO 35002MPS //// // ////// 26/24 Q1002 NOSIG
ZJSY,2003-06-19 22:00,ZJSY 192200Z 00000MPS 9999 SCT016 BKN040 BKN230 26/24 Q1002 NOSIG
ZJSY,2003-06-19 23:00,ZJSY 192300Z 33001MPS 9999 FEW016 BKN040 BKN230 26/24 Q1003 NOSIG
ZJSY,2003-06-20 00:00,ZJSY 200000Z 00000MPS 9999 FEW016 BKN040 BKN230 28/25 Q1004 NOSIG
ZJSY,2003-06-20 01:00,ZJSY 200100Z 18001MPS 9999 SCT016 SCT040 30/26 Q1004 NOSIG
ZJSY,2003-06-20 02:00,ZJSY 200200Z 17001MPS 9999 SCT016 SCT230 31/25 Q1004 NOSIG
ZJSY,2003-06-20 03:00,ZJSY 200300Z 20004MPS 9999 SCT016 SCT230 30/25 Q1004 NOSIG
ZJSY,2003-06-20 04:00,ZJSY 200400Z 21004MPS 9999 SCT016 SCT230 31/25 Q1004 NOSIG
ZJSY,2003-06-20 05:00,ZJSY 200500Z 22004MPS 9999 FEW016 SCT230 31/25 Q1003 NOSIG
ZJSY,2003-06-20 06:00,ZJSY 200600Z 24006MPS 9999 FEW016 SCT230 32/25 Q1002 NOSIG
ZJSY,2003-06-20 07:00,ZJSY 200700Z 24006MPS 9999 FEW016 SCT230 31/24 Q1002 NOSIG
ZJSY,2003-06-20 08:00,ZJSY 200800Z 23005MPS 9999 FEW016 SCT230 31/24 Q1002 NOSIG
ZJSY,2003-06-20 09:00,ZJSY 200900Z 23004MPS 9999 FEW016 SCT230 30/24 Q1001 NOSIG
ZJSY,2003-06-20 10:00,ZJSY 201000Z 24003MPS 9999 SCT016 BKN230 29/25 Q1002 NOSIG
ZJSY,2003-06-20 11:00,ZJSY 201100Z 26002MPS 9999 SCT015 BKN040 29/25 Q1002 NOSIG
ZJSY,2003-06-20 12:00,ZJSY 201200Z 30001MPS 9999 SCT015 BKN040 29/25 Q1003 NOSIG
ZJSY,2003-06-20 13:00,ZJSY 201300Z 16001MPS 9999 SCT015 BKN040 29/25 Q1003 NOSIG
ZJSY,2003-06-20 14:00,ZJSY 201400Z 08001MPS 9999 SCT015 BKN040 29/25 Q1003 NOSIG
ZJSY,2003-06-20 15:00,ZJSY 201500Z 36001MPS 9999 SCT015 BKN230 28/25 Q1004 NOSIG
ZJSY,2003-06-20 16:00,ZJSY 201600Z 34001MPS 9999 SCT015 BKN230 28/24 Q1004 NOSIG
ZJSY,2003-06-20 17:00,ZJSY 201700Z AUTO 23001MPS //// // ////// 28/24 Q1004 NOSIG
ZJSY,2003-06-20 18:00,ZJSY 201800Z AUTO 07002MPS //// // ////// 28/24 Q1003 NOSIG
ZJSY,2003-06-20 19:00,ZJSY 201900Z AUTO 34002MPS //// // ////// 28/24 Q1002 NOSIG
ZJSY,2003-06-20 20:00,ZJSY 202000Z AUTO 17006G12MPS //// // ////// 27/24 Q1002 NOSIG
ZJSY,2003-06-20 21:00,ZJSY 202100Z AUTO 31003MPS //// // ////// 25/23 Q1003 NOSIG
ZJSY,2003-06-20 22:00,ZJSY 202200Z 02002MPS 3000 TSRA SCT011 BKN016 SCT026CB OVC033 26/23 Q1003 NOSIG
ZJSY,2003-06-20 23:00,ZJSY 202300Z 05002MPS 6000 -TSRA SCT011 FEW026CB OVC033 26/24 Q1004 RETSRA
ZJSY,2003-06-21 00:00,ZJSY 210000Z 01002MPS 8000 -RA SCT011 OVC033 26/23 Q1004 RETS
ZJSY,2003-06-21 01:00,ZJSY 210100Z 33003MPS 9999 FEW011 BKN040 BKN200 26/24 Q1004
ZJSY,2003-06-21 02:00,ZJSY 210200Z 07002MPS 9999 FEW011 BKN040 BKN200 27/24 Q1003
ZJSY,2003-06-21 03:00,ZJSY 210300Z 32001MPS 9999 FEW015 BKN040 BKN200 28/24 Q1004
ZJSY,2003-06-21 04:00,ZJSY 210400Z 08003MPS 9999 FEW015 BKN040 BKN200 29/25 Q1003
ZJSY,2003-06-21 05:00,ZJSY 210500Z 13002MPS 9999 FEW015 BKN040 BKN200 29/24 Q1003
ZJSY,2003-06-21 06:00,ZJSY 210600Z 16002MPS 9999 FEW015 BKN046 BKN200 28/25 Q1003
ZJSY,2003-06-21 07:00,ZJSY 210700Z 13002MPS 9999 FEW015 FEW043CB BKN043 BKN200 29/25 Q1003
ZJSY,2003-06-21 08:00,ZJSY 210800Z 13004MPS 9999 FEW015 BKN043 BKN200 27/24 Q1003
ZJSY,2003-06-21 09:00,ZJSY 210900Z 12003MPS 9999 -RA FEW015 BKN040 BKN200 27/24 Q1003
ZJSY,2003-06-21 10:00,ZJSY 211000Z 09003MPS 9999 -RA SCT013 BKN040 BKN200 28/25 Q1003
ZJSY,2003-06-21 11:00,ZJSY 211100Z 07003MPS 9999 -RA SCT013 SCT033 BKN200 27/25 Q1004
ZJSY,2003-06-21 12:00,ZJSY 211200Z 08003MPS 9999 -RA SCT013 SCT033 BKN200 27/25 Q1005
ZJSY,2003-06-21 13:00,ZJSY 211300Z 10002MPS 9999 SCT013 SCT033 BKN200 27/25 Q1005
ZJSY,2003-06-21 14:00,ZJSY 211400Z 07002MPS 9999 FEW013 SCT033 BKN200 27/25 Q1005
ZJSY,2003-06-21 15:00,ZJSY 211500Z 06002MPS 9999 FEW013 BKN200 27/24 Q1005
ZJSY,2003-06-21 16:00,ZJSY 211600Z 07002MPS 9999 FEW013 BKN200 27/24 Q1005
ZJSY,2003-06-21 17:00,ZJSY 211700Z AUTO 05003MPS //// // ////// 27/24 Q1005
ZJSY,2003-06-21 18:00,ZJSY 211800Z AUTO 05003MPS //// // ////// 28/24 Q1005
ZJSY,2003-06-21 19:00,ZJSY 211900Z AUTO 09002MPS //// // ////// 28/25 Q1005
ZJSY,2003-06-21 20:00,ZJSY 212000Z AUTO 04001MPS //// // ////// 27/25 Q1005
ZJSY,2003-06-21 21:00,ZJSY 212100Z AUTO 08002MPS //// // ////// 27/25 Q1005
ZJSY,2003-06-21 22:00,ZJSY 212200Z 10002MPS 9999 BKN013 FEW026CB BKN040 27/25 Q1005
ZJSY,2003-06-21 23:00,ZJSY 212300Z 00000MPS 9999 BKN011 FEW026CB SCT040 27/25 Q1005
ZJSY,2003-06-22 00:00,ZJSY 220000Z 11002MPS 9999 BKN011 SCT016 FEW026CB BKN040 28/25 Q1006 RETS
ZJSY,2003-06-22 01:00,ZJSY 220100Z 00000MPS 9999 SCT011 FEW026CB BKN040 BKN230 28/25 Q1007
ZJSY,2003-06-22 02:00,ZJSY 220200Z 14003MPS 9999 SCT015 FEW026CB BKN040 BKN230 29/25 Q1007
ZJSY,2003-06-22 03:00,ZJSY 220300Z 06002MPS 9999 SCT015 BKN040 BKN230 29/25 Q1008
ZJSY,2003-06-22 04:00,ZJSY 220400Z 06002MPS 9999 SCT015 BKN043 29/25 Q1008
ZJSY,2003-06-22 05:00,ZJSY 220500Z 06002MPS 9999 FEW015 BKN043 BKN230 29/25 Q1008
ZJSY,2003-06-22 06:00,ZJSY 220600Z 06002MPS 9999 FEW015 BKN043 BKN230 29/25 Q1008
ZJSY,2003-06-22 07:00,ZJSY 220700Z 06002MPS 9999 FEW015 BKN043 BKN230 29/25 Q1008
ZJSY,2003-06-22 08:00,ZJSY 220800Z 06002MPS 9999 SCT015 BKN040 BKN230 29/25 Q1008
ZJSY,2003-06-22 09:00,ZJSY 220900Z 12003MPS 9999 SCT016 BKN040 BKN230 29/26 Q1005
ZJSY,2003-06-22 10:00,ZJSY 221000Z 12004MPS 9999 BKN016 BKN260 29/25 Q1005
ZJSY,2003-06-22 11:00,ZJSY 221100Z 12003MPS 9999 BKN016 BKN260 29/25 Q1006
ZJSY,2003-06-22 12:00,ZJSY 221200Z 12002MPS 9999 BKN016 BKN260 29/25 Q1007
ZJSY,2003-06-22 13:00,ZJSY 221300Z 11002MPS 9999 BKN016 BKN260 29/26 Q1007
ZJSY,2003-06-22 14:00,ZJSY 221400Z 09002MPS 9999 BKN017 BKN260 29/25 Q1007
ZJSY,2003-06-22 15:00,ZJSY 221500Z 08003MPS 9999 BKN017 BKN260 28/25 Q1008
ZJSY,2003-06-22 16:00,ZJSY 221600Z 09002MPS 9999 BKN017 BKN260 28/25 Q1008 NOSIG
ZJSY,2003-06-22 17:00,ZJSY 221700Z 12003MPS 9999 BKN017 BKN260 28/25 Q1008 NOSIG
ZJSY,2003-06-22 18:00,ZJSY 221800Z AUTO 12002MPS //// // ////// 28/25 Q1007 NOSIG
ZJSY,2003-06-22 19:00,ZJSY 221900Z AUTO 13003MPS //// // ////// 28/25 Q1007 NOSIG
ZJSY,2003-06-22 20:00,ZJSY 222000Z AUTO 12002MPS //// // ////// 28/25 Q1007 NOSIG
ZJSY,2003-06-22 21:00,ZJSY 222100Z AUTO 13004MPS //// // ////// 28/25 Q1007 NOSIG
ZJSY,2003-06-22 22:00,ZJSY 222200Z AUTO 13003MPS //// // ////// 28/25 Q1007 NOSIG
ZJSY,2003-06-22 23:00,ZJSY 222300Z 14003MPS 9999 BKN017 BKN260 28/25 Q1008 NOSIG
ZJSY,2003-06-23 00:00,ZJSY 230000Z 14004MPS 9999 BKN015 FEW025CB BKN260 29/25 Q1008 NOSIG
ZJSY,2003-06-23 01:00,ZJSY 230100Z 13004MPS 9999 BKN015 FEW030CB BKN260 30/25 Q1009 NOSIG
ZJSY,2003-06-23 02:00,ZJSY 230200Z 14003MPS 9999 SCT016 FEW030CB BKN260 30/25 Q1009 NOSIG
ZJSY,2003-06-23 03:00,ZJSY 230300Z 14004MPS 9999 SCT012 BKN016 FEW020TCU BKN260 30/25 Q1010 NOSIG
ZJSY,2003-06-23 04:00,ZJSY 230400Z 15005MPS 9999 SCT016 FEW020TCU BKN066 30/25 Q1010 NOSIG
ZJSY,2003-06-23 05:00,ZJSY 230500Z 15004MPS 9999 SCT016 FEW020TCU SCT300 31/26 Q1009 NOSIG
ZJSY,2003-06-23 06:00,ZJSY 230600Z 15004MPS 9999 SCT016 FEW020TCU SCT300 31/26 Q1009 NOSIG
ZJSY,2003-06-23 07:00,ZJSY 230700Z 16004MPS 9999 SCT018 FEW021CB SCT300 31/26 Q1008 NOSIG
ZJSY,2003-06-23 08:00,ZJSY 230800Z 27004MPS 9999 BKN016 FEW021TCU FEW023CB 28/23 Q1008 NOSIG
ZJSY,2003-06-23 09:00,ZJSY 230900Z 24001MPS 9999 FEW018TCU SCT018 SCT300 31/23 Q1007 NOSIG
ZJSY,2003-06-23 10:00,ZJSY 231000Z 11002MPS 9999 FEW018TCU SCT018 SCT300 30/24 Q1007 NOSIG
ZJSY,2003-06-23 11:00,ZJSY 231100Z 13002MPS 9999 -SHRA BKN013 FEW026TCU 29/25 Q1008 NOSIG
ZJSY,2003-06-23 12:00,ZJSY 231200Z 13001MPS 9999 SCT013 29/25 Q1008 NOSIG
ZJSY,2003-06-23 13:00,ZJSY 231300Z 12002MPS 9999 SCT013 28/26 Q1009 NOSIG
ZJSY,2003-06-23 14:00,ZJSY 231400Z 11003MPS 9999 SCT013 29/25 Q1009 NOSIG
ZJSY,2003-06-23 15:00,ZJSY 231500Z 11003MPS 9999 SCT013 29/25 Q1009 NOSIG
ZJSY,2003-06-23 16:00,ZJSY 231600Z 12002MPS 9999 SCT013 28/25 Q1009 NOSIG
ZJSY,2003-06-23 17:00,ZJSY 231700Z AUTO 11001MPS //// // ////// 28/25 Q1008 NOSIG
ZJSY,2003-06-23 18:00,ZJSY 231800Z AUTO 12002MPS //// // ////// 28/25 Q1008 NOSIG
ZJSY,2003-06-23 19:00,ZJSY 231900Z AUTO 08001MPS //// // ////// 28/25 Q1007 NOSIG
ZJSY,2003-06-23 20:00,ZJSY 232000Z AUTO 35001MPS //// // ////// 27/25 Q1007 NOSIG
ZJSY,2003-06-23 21:00,ZJSY 232100Z AUTO 29001MPS //// // ////// 27/25 Q1007 NOSIG
ZJSY,2003-06-23 22:00,ZJSY 232200Z 04001MPS 9999 SCT015 FEW026TCU 27/25 Q1007 NOSIG
ZJSY,2003-06-23 23:00,ZJSY 232300Z 04001MPS 9999 SCT013 BKN018 FEW026TCU 28/25 Q1008 NOSIG
ZJSY,2003-06-24 00:00,ZJSY 240000Z 14001MPS 9999 SCT013 BKN018 29/25 Q1008 NOSIG
ZJSY,2003-06-24 01:00,ZJSY 240100Z 17002MPS 9999 FEW013 SCT018 BKN300 30/25 Q1009 NOSIG
ZJSY,2003-06-24 02:00,ZJSY 240200Z 15003MPS 9999 FEW018 BKN230 30/25 Q1009 NOSIG
ZJSY,2003-06-24 03:00,ZJSY 240300Z 17002MPS 9999 FEW013 SCT018 BKN060 31/25 Q1009 NOSIG
ZJSY,2003-06-24 04:00,ZJSY 240400Z 15003MPS 9999 FEW018 BKN230 31/25 Q1009 NOSIG
ZJSY,2003-06-24 05:00,ZJSY 240500Z 19003MPS 9999 FEW018 BKN230 32/25 Q1008 NOSIG
ZJSY,2003-06-24 06:00,ZJSY 240600Z 16003MPS 9999 FEW018 SCT230 31/26 Q1007 NOSIG
ZJSY,2003-06-24 07:00,ZJSY 240700Z 18003MPS 9999 FEW018 31/26 Q1006 NOSIG
ZJSY,2003-06-24 08:00,ZJSY 240800Z 18003MPS 9999 FEW013 SCT018 32/26 Q1005 NOSIG
ZJSY,2003-06-24 09:00,ZJSY 240900Z 16003MPS 9999 FEW013 SCT018 31/26 Q1005 NOSIG
ZJSY,2003-06-24 10:00,ZJSY 241000Z 17002MPS 9999 SCT018 BKN260 30/26 Q1005 ADDED VHHHYFYX
ZJSY,2003-06-24 11:00,ZJSY 241100Z 16002MPS 9999 SCT018 BKN260 29/26 Q1005
ZJSY,2003-06-24 12:00,ZJSY 241200Z 18001MPS 9999 SCT018 BKN260 29/26 Q1005
ZJSY,2003-06-24 13:00,ZJSY 241300Z 09001MPS 9999 SCT018 BKN260 29/26 Q1006
ZJSY,2003-06-24 14:00,ZJSY 241400Z 12001MPS 9999 SCT018 BKN260 29/26 Q1006
ZJSY,2003-06-24 15:00,ZJSY 241500Z 35001MPS 9999 SCT018 BKN260 28/25 Q1006
ZJSY,2003-06-24 16:00,ZJSY 241600Z 34002MPS 9999 SCT018 BKN260 28/25 Q1007
ZJSY,2003-06-24 17:00,ZJSY 241700Z AUTO 14001MPS //// // ////// 29/26 Q1006
ZJSY,2003-06-24 18:00,ZJSY 241800Z AUTO 17002MPS //// // ////// 29/26 Q1005
ZJSY,2003-06-24 19:00,ZJSY 241900Z AUTO 17003MPS //// // ////// 29/26 Q1005
ZJSY,2003-06-24 20:00,ZJSY 242000Z AUTO 18002MPS //// // ////// 29/26 Q1004
ZJSY,2003-06-24 21:00,ZJSY 242100Z AUTO 18002MPS //// // ////// 29/25 Q1004
ZJSY,2003-06-24 22:00,ZJSY 242200Z 29001MPS 9999 FEW018 BKN260 28/25 Q1004
ZJSY,2003-06-24 23:00,ZJSY 242300Z 36001MPS 9999 FEW018 BKN260 28/25 Q1005
ZJSY,2003-06-25 00:00,ZJSY 250000Z 28001MPS 9999 FEW018 BKN260 30/25 Q1005
ZJSY,2003-06-25 01:00,ZJSY 250100Z 21002MPS 9999 SCT018 SCT260 30/26 Q1005
ZJSY,2003-06-25 02:00,ZJSY 250200Z 17002MPS 9999 SCT016 SCT260 31/26 Q1005
ZJSY,2003-06-25 03:00,ZJSY 250300Z 18002MPS 9999 SCT016 SCT260 31/26 Q1005
ZJSY,2003-06-25 05:00,ZJSY 250500Z 21003MPS 9999 SCT016 32/26 Q1004
ZJSY,2003-06-25 06:00,ZJSY 250600Z 22003MPS 9999 SCT016 31/26 Q1003
ZJSY,2003-06-25 07:00,ZJSY 250700Z 18004MPS 9999 SCT016 31/26 Q1003
ZJSY,2003-06-25 08:00,ZJSY 250800Z 19003MPS 9999 FEW016 31/26 Q1003
ZJSY,2003-06-25 09:00,ZJSY 250900Z 20003MPS CAVOK 32/25 Q1002
ZJSY,2003-06-25 10:00,ZJSY 251000Z 19002MPS CAVOK 31/26 Q1002 NOSIG
ZJSY,2003-06-25 11:00,ZJSY 251100Z 14001MPS CAVOK 30/26 Q1003 NOSIG
ZJSY,2003-06-25 12:00,ZJSY 251200Z 15002MPS CAVOK 30/26 Q1003 NOSIG
ZJSY,2003-06-25 13:00,ZJSY 251300Z 14002MPS CAVOK 30/26 Q1004 NOSIG
ZJSY,2003-06-25 14:00,ZJSY 251400Z 13002MPS CAVOK 29/26 Q1005 NOSIG
ZJSY,2003-06-25 15:00,ZJSY 251500Z 12002MPS CAVOK 29/26 Q1005 NOSIG
ZJSY,2003-06-25 16:00,ZJSY 251600Z 11002MPS CAVOK 29/26 Q1005 NOSIG
ZJSY,2003-06-25 17:00,ZJSY 251700Z AUTO 12002MPS //// // ////// 29/26 Q1005 NOSIG
ZJSY,2003-06-25 18:00,ZJSY 251800Z AUTO 14002MPS //// // ////// 29/26 Q1004 NOSIG
ZJSY,2003-06-25 19:00,ZJSY 251900Z AUTO 14001MPS //// // ////// 29/26 Q1004 NOSIG
ZJSY,2003-06-25 20:00,ZJSY 252000Z AUTO 16002MPS //// // ////// 29/26 Q1004 NOSIG
ZJSY,2003-06-25 21:00,ZJSY 252100Z AUTO 18003MPS //// // ////// 29/26 Q1004 NOSIG
ZJSY,2003-06-25 22:00,ZJSY 252200Z 19003MPS 9999 BKN018 SCT033 BKN260 29/26 Q1004 NOSIG
ZJSY,2003-06-25 23:00,ZJSY 252300Z 21001MPS 9999 BKN018 SCT033 BKN260 30/26 Q1005 NOSIG
ZJSY,2003-06-26 00:00,ZJSY 260000Z 14001MPS 9999 BKN015 BKN260 30/27 Q1005 NOSIG
ZJSY,2003-06-26 01:00,ZJSY 260100Z 18001MPS 9999 SCT016 BKN260 31/26 Q1006 NOSIG
ZJSY,2003-06-26 02:00,ZJSY 260200Z 22002MPS CAVOK 32/26 Q1006 NOSIG
ZJSY,2003-06-26 03:00,ZJSY 260300Z 23003MPS 9999 FEW016 BKN260 33/26 Q1005 NOSIG
ZJSY,2003-06-26 04:00,ZJSY 260400Z 19003MPS 9999 FEW016 32/25 Q1005 NOSIG
ZJSY,2003-06-26 05:00,ZJSY 260500Z 22004MPS 9999 FEW016 33/26 Q1004 NOSIG
ZJSY,2003-06-26 06:00,ZJSY 260600Z 22005MPS 9999 FEW016 33/24 Q1004 NOSIG
ZJSY,2003-06-26 07:00,ZJSY 260700Z 23005MPS 9999 FEW016 33/24 Q1004 NOSIG
ZJSY,2003-06-26 08:00,ZJSY 260800Z 23004MPS CAVOK 32/24 Q1003 NOSIG
ZJSY,2003-06-26 09:00,ZJSY 260900Z 25003MPS CAVOK 32/24 Q1003 NOSIG
ZJSY,2003-06-26 10:00,ZJSY 261000Z 20003MPS CAVOK 31/25 Q1003 NOSIG
ZJSY,2003-06-26 11:00,ZJSY 261100Z 18002MPS CAVOK 31/25 Q1003 NOSIG
ZJSY,2003-06-26 12:00,ZJSY 261200Z 14002MPS CAVOK 30/27 Q1004 NOSIG
ZJSY,2003-06-26 13:00,ZJSY 261300Z 14003MPS 9999 FEW013 SCT200 30/26 Q1004 NOSIG
ZJSY,2003-06-26 14:00,ZJSY 261400Z 15003MPS CAVOK 30/26 Q1005 NOSIG
ZJSY,2003-06-26 15:00,ZJSY 261500Z 15002MPS CAVOK 29/26 Q1006 NOSIG
ZJSY,2003-06-26 16:00,ZJSY 261600Z 14001MPS CAVOK 29/26 Q1006 NOSIG
ZJSY,2003-06-26 17:00,ZJSY 261700Z AUTO 14001MPS //// // ////// 29/26 Q1005 NOSIG
ZJSY,2003-06-26 18:00,ZJSY 261800Z AUTO 16001MPS //// // ////// 29/26 Q1005 NOSIG
ZJSY,2003-06-26 19:00,ZJSY 261900Z AUTO 15001MPS //// // ////// 30/26 Q1005 NOSIG
ZJSY,2003-06-26 20:00,ZJSY 262000Z AUTO 16001MPS //// // ////// 30/26 Q1005 NOSIG
ZJSY,2003-06-26 21:00,ZJSY 262100Z AUTO 16001MPS //// // ////// 29/26 Q1005 NOSIG
ZJSY,2003-06-26 22:00,ZJSY 262200Z 16001MPS 9999 BKN013 SCT016 29/26 Q1005 NOSIG
ZJSY,2003-06-26 23:00,ZJSY 262300Z 12001MPS 9999 BKN013 SCT016 BKN040 29/26 Q1006 NOSIG
ZJSY,2003-06-27 00:00,ZJSY 270000Z 12002MPS 9999 SCT013 SCT016 30/26 Q1006 NOSIG
ZJSY,2003-06-27 01:00,ZJSY 270100Z 14001MPS 9999 SCT016 BKN040 BKN230 31/27 Q1006 NOSIG
ZJSY,2003-06-27 02:00,ZJSY 270200Z 16001MPS 9999 SCT016 BKN040 BKN230 31/26 Q1006 NOSIG
ZJSY,2003-06-27 03:00,ZJSY 270300Z 20002MPS 9999 SCT016 BKN040 BKN230 32/26 Q1006 NOSIG
ZJSY,2003-06-27 04:00,ZJSY 270400Z 24006MPS 9999 FEW016 BKN060 BKN230 33/25 Q1006 NOSIG
ZJSY,2003-06-27 05:00,ZJSY 270500Z 22005MPS 9999 FEW016 BKN060 BKN230 32/25 Q1006 NOSIG
ZJSY,2003-06-27 06:00,ZJSY 270600Z 22004MPS 9999 FEW016 BKN060 BKN230 32/25 Q1006 NOSIG
ZJSY,2003-06-27 07:00,ZJSY 270700Z 24004MPS 9999 FEW016 BKN060 BKN230 32/24 Q1005 NOSIG
ZJSY,2003-06-27 08:00,ZJSY 270800Z 23004MPS 9999 FEW016 BKN053 BKN230 32/24 Q1005 NOSIG
ZJSY,2003-06-27 09:00,ZJSY 270900Z 26004MPS CAVOK 32/22 Q1004 NOSIG
ZJSY,2003-06-27 10:00,ZJSY 271000Z 25003MPS CAVOK 31/23 Q1005 NOSIG
ZJSY,2003-06-27 11:00,ZJSY 271100Z 23002MPS 9999 FEW013 BKN040 BKN230 30/25 Q1005 NOSIG
ZJSY,2003-06-27 12:00,ZJSY 271200Z 19001MPS 9999 FEW013 BKN040 BKN230 30/25 Q1006 NOSIG
ZJSY,2003-06-27 13:00,ZJSY 271300Z 16001MPS 9999 FEW013 BKN040 BKN230 30/26 Q1006 NOSIG
ZJSY,2003-06-27 14:00,ZJSY 271400Z 14002MPS 9999 FEW013 SCT040 BKN230 29/26 Q1006 NOSIG
ZJSY,2003-06-27 15:00,ZJSY 271500Z 08002MPS 9999 FEW013 SCT040 BKN230 29/26 Q1007 NOSIG
ZJSY,2003-06-27 16:00,ZJSY 271600Z 05002MPS 9999 FEW013 SCT040 BKN230 29/25 Q1007 NOSIG
ZJSY,2003-06-27 17:00,ZJSY 271700Z AUTO 06002MPS //// // ////// 29/25 Q1006 NOSIG
ZJSY,2003-06-27 18:00,ZJSY 271800Z AUTO 06002MPS //// // ////// 29/25 Q1006 NOSIG
ZJSY,2003-06-27 19:00,ZJSY 271900Z AUTO 04002MPS //// // ////// 29/25 Q1006 NOSIG
ZJSY,2003-06-27 20:00,ZJSY 272000Z AUTO 35001MPS //// // ////// 28/25 Q1005 NOSIG
ZJSY,2003-06-27 21:00,ZJSY 272100Z AUTO 06001MPS //// // ////// 29/25 Q1005 NOSIG
ZJSY,2003-06-27 22:00,ZJSY 272200Z 08002MPS 9999 SCT012 BKN033 28/25 Q1005 NOSIG
ZJSY,2003-06-27 23:00,ZJSY 272300Z 12001MPS 9999 SCT012 BKN033 29/26 Q1006 NOSIG
ZJSY,2003-06-28 00:00,ZJSY 280000Z 17003MPS 9999 SCT012 OVC033 30/26 Q1007 NOSIG
ZJSY,2003-06-28 01:00,ZJSY 280100Z 17004MPS 9999 -TS BKN012 FEW023CB BKN200 30/26 Q1007
ZJSY,2003-06-28 02:00,ZJSY 280200Z 15003MPS 9999 BKN012 FEW023CB BKN200 29/26 Q1007 RETS
ZJSY,2003-06-28 03:00,ZJSY 280300Z 14003MPS 9999 BKN013 FEW023CB BKN200 29/26 Q1007 NOSIG
ZJSY,2003-06-28 04:00,ZJSY 280400Z 11003MPS 9999 BKN013 FEW023CB BKN200 29/27 Q1008 NOSIG
ZJSY,2003-06-28 05:00,ZJSY 280500Z 34002MPS 9999 SCT013 FEW020CB BKN200 29/24 Q1007 NOSIG
ZJSY,2003-06-28 06:00,ZJSY 280600Z 11001MPS 9999 SCT013 FEW020TCU BKN200 30/25 Q1007 NOSIG
ZJSY,2003-06-28 07:00,ZJSY 280700Z 18003MPS 9999 SCT013 FEW020TCU BKN200 30/26 Q1006 NOSIG
ZJSY,2003-06-28 08:00,ZJSY 280800Z 18004MPS 9999 SCT013 FEW020TCU BKN230 30/26 Q1006 NOSIG
ZJSY,2003-06-28 09:00,ZJSY 280900Z 18004MPS 9999 SCT014 FEW020TCU BKN230 30/26 Q1006 NOSIG
ZJSY,2003-06-28 10:00,ZJSY 281000Z 18003MPS 9999 FEW016 BKN230 30/26 Q1006 NOSIG
ZJSY,2003-06-28 11:00,ZJSY 281100Z 17002MPS 9999 FEW016 BKN230 30/25 Q1006 NOSIG
ZJSY,2003-06-28 12:00,ZJSY 281200Z 16002MPS 9999 FEW016 BKN230 29/26 Q1006 NOSIG
ZJSY,2003-06-28 13:00,ZJSY 281300Z 15002MPS 9999 SCT016 BKN230 29/25 Q1007 NOSIG
ZJSY,2003-06-28 14:00,ZJSY 281400Z 15002MPS 9999 SCT016 BKN230 29/26 Q1008 NOSIG
ZJSY,2003-06-28 15:00,ZJSY 281500Z 13002MPS 9999 SCT016 BKN230 29/26 Q1008 NOSIG
ZJSY,2003-06-28 16:00,ZJSY 281600Z 14003MPS 9999 SCT016 BKN230 29/26 Q1008 NOSIG
ZJSY,2003-06-28 17:00,ZJSY 281700Z AUTO 15002MPS //// // ////// 29/25 Q1008 NOSIG
ZJSY,2003-06-28 18:00,ZJSY 281800Z AUTO 12003MPS //// // ////// 29/25 Q1007 NOSIG
ZJSY,2003-06-28 19:00,ZJSY 281900Z AUTO 13003MPS //// // ////// 29/25 Q1007 NOSIG
ZJSY,2003-06-28 20:00,ZJSY 282000Z AUTO 14003MPS //// // ////// 29/25 Q1007 NOSIG
ZJSY,2003-06-28 22:00,ZJSY 282200Z 15003MPS 9999 FEW016 BKN033 BKN230 29/25 Q1006 NOSIG
ZJSY,2003-06-28 23:00,ZJSY 282300Z 16003MPS 9999 BKN016 FEW030CB BKN030 BKN230 29/25 Q1007 NOSIG
ZJSY,2003-06-29 00:00,ZJSY 290000Z 15004MPS 9999 BKN016 FEW026TCU BKN230 29/25 Q1007 NOSIG
ZJSY,2003-06-29 01:00,ZJSY 290100Z 14003MPS 7000 -TSRA BKN010 SCT016 SCT026CB 29/25 Q1008 NOSIG
ZJSY,2003-06-29 02:00,ZJSY 290200Z 14002MPS 7000 -TSRA BKN010 SCT016 FEW026CB 28/25 Q1008 NOSIG
ZJSY,2003-06-29 03:00,ZJSY 290300Z 16004MPS 7000 -SHRA BKN010 SCT016 FEW026CB 29/26 Q1009 RETS NOSIG
ZJSY,2003-06-29 04:00,ZJSY 290400Z 18004MPS 9999 -SHRA BKN010 SCT016 FEW026CB 29/26 Q1009 NOSIG
ZJSY,2003-06-29 05:00,ZJSY 290500Z 18005MPS 8000 -TSRA BKN010 SCT016 FEW026CB 29/26 Q1008 NOSIG
ZJSY,2003-06-29 06:00,ZJSY 290600Z 17005MPS 6000 -TSRA BKN010 SCT016 SCT026CB 29/26 Q1008 NOSIG
ZJSY,2003-06-29 07:00,ZJSY 290700Z 17004MPS 6000 -TSRA BKN010 SCT016 SCT026CB 28/26 Q1007 NOSIG
ZJSY,2003-06-29 08:00,ZJSY 290800Z 35002MPS 6000 -SHRA BKN010 SCT016 SCT033CB 27/25 Q1007 RETS NOSIG
ZJSY,2003-06-29 09:00,ZJSY 290900Z 02001MPS 8000 -SHRA BKN010 SCT016 FEW033CB 27/25 Q1006 NOSIG
ZJSY,2003-06-29 10:00,ZJSY 291000Z 01001MPS 9999 BKN016 FEW033CB 27/24 Q1007 NOSIG
ZJSY,2003-06-29 11:00,ZJSY 291100Z 36001MPS 9999 BKN016 FEW033CB 27/24 Q1007 NOSIG
ZJSY,2003-06-29 12:00,ZJSY 291200Z 02001MPS 9999 BKN016 FEW033CB BKN040 26/24 Q1007 NOSIG
ZJSY,2003-06-29 13:00,ZJSY 291300Z 08003MPS 9999 -RA BKN016 FEW033CB BKN040 26/24 Q1008 NOSIG
ZJSY,2003-06-29 14:00,ZJSY 291400Z 03002MPS 9999 -RA BKN016 FEW033CB BKN040 27/24 Q1008 NOSIG
ZJSY,2003-06-29 15:00,ZJSY 291500Z 07002MPS 9999 -RA BKN016 FEW033CB BKN040 27/25 Q1009 NOSIG
ZJSY,2003-06-29 16:00,ZJSY 291600Z 36002MPS 9999 BKN016 FEW033CB BKN040 27/25 Q1009 NOSIG
ZJSY,2003-06-29 17:00,ZJSY 291700Z AUTO 06002MPS //// // ////// 27/25 Q1008 NOSIG
ZJSY,2003-06-29 18:00,ZJSY 291800Z AUTO 09002MPS //// // ////// 27/25 Q1008 NOSIG
ZJSY,2003-06-29 19:00,ZJSY 291900Z AUTO 12001MPS //// // ////// 28/25 Q1008 NOSIG
ZJSY,2003-06-29 20:00,ZJSY 292000Z AUTO 11002MPS //// // ////// 26/23 Q1008 NOSIG
ZJSY,2003-06-29 21:00,ZJSY 292100Z AUTO 35002MPS //// // ////// 26/23 Q1008 NOSIG
ZJSY,2003-06-29 22:00,ZJSY 292200Z 05004MPS 8000 RA BKN012 FEW033CB OVC040 26/23 Q1008 NOSIG
ZJSY,2003-06-29 23:00,ZJSY 292300Z 33003MPS 9999 -TS BKN013 FEW033CB OVC040 26/23 Q1008 NOSIG
ZJSY,2003-06-30 00:00,ZJSY 300000Z 33003MPS 9999 BKN013 FEW033CB BKN040 27/24 Q1009 RETS NOSIG
ZJSY,2003-06-30 01:00,ZJSY 300100Z 32002MPS 9999 BKN016 FEW026TCU FEW033CB 27/24 Q1008 NOSIG
ZJSY,2003-06-30 02:00,ZJSY 300200Z 16003MPS 5000 -SHRA BKN013 FEW026TCU FEW033CB 27/23 Q1009 NOSIG
ZJSY,2003-06-30 03:00,ZJSY 300300Z 26001MPS 9999 SCT013 BKN018 FEW026TCU FEW033CB 28/25 Q1009 NOSIG
ZJSY,2003-06-30 04:00,ZJSY 300400Z 13002MPS 9999 SCT013 BKN018 FEW026TCU 29/24 Q1009 NOSIG
ZJSY,2003-06-30 05:00,ZJSY 300500Z 17005MPS 9999 BKN018 FEW026TCU 30/25 Q1009 NOSIG
ZJSY,2003-06-30 06:00,ZJSY 300600Z 17004MPS 9999 SCT018 31/26 Q1008 NOSIG
ZJSY,2003-06-30 07:00,ZJSY 300700Z 18004MPS 9999 SCT018 31/25 Q1008 NOSIG
ZJSY,2003-06-30 08:00,ZJSY 300800Z 16004MPS 9999 SCT018 FEW026TCU 30/25 Q1007 NOSIG
ZJSY,2003-06-30 09:00,ZJSY 300900Z 15002MPS 9999 SCT018 30/25 Q1007 NOSIG
ZJSY,2003-06-30 10:00,ZJSY 301000Z 15003MPS 9999 SCT020 30/24 Q1007 NOSIG
ZJSY,2003-06-30 11:00,ZJSY 301100Z 14002MPS 9999 SCT020 29/24 Q1007 NOSIG
ZJSY,2003-06-30 12:00,ZJSY 301200Z 11002MPS 9999 SCT020 29/24 Q1008 NOSIG
ZJSY,2003-06-30 13:00,ZJSY 301300Z 08003MPS 9999 SCT020 28/24 Q1009 NOSIG
ZJSY,2003-06-30 14:00,ZJSY 301400Z 06003MPS 9999 FEW020 27/24 Q1009 NOSIG
ZJSY,2003-06-30 15:00,ZJSY 301500Z 08003MPS 9999 FEW018 27/24 Q1010 NOSIG
ZJSY,2003-06-30 16:00,ZJSY 301600Z 06003MPS 9999 SCT016 27/24 Q1010 NOSIG
ZJSY,2003-06-30 17:00,ZJSY 301700Z 06003MPS 9999 SCT016 27/24 Q1010 NOSIG
ZJSY,2003-06-30 18:00,ZJSY 301800Z AUTO 07003MPS //// // ////// 27/24 Q1009 NOSIG
ZJSY,2003-06-30 19:00,ZJSY 301900Z AUTO 07003MPS //// // ////// 27/24 Q1009 NOSIG
ZJSY,2003-06-30 20:00,ZJSY 302000Z AUTO 08002MPS //// // ////// 27/24 Q1009 NOSIG
ZJSY,2003-06-30 21:00,ZJSY 302100Z AUTO 00000MPS //// // ////// 27/24 Q1009 NOSIG
ZJSY,2003-06-30 22:00,ZJSY 302200Z 05001MPS 9999 -SHRA BKN015 FEW020TCU FEW026CB 26/24 Q1009 NOSIG
ZJSY,2003-06-30 23:00,ZJSY 302300Z 34002MPS 9999 SCT018 FEW020CB 26/24 Q1009 NOSIG
ZJSY,2003-07-01 00:00,ZJSY 010000Z 08002MPS 9999 SCT016 FEW020CB SCT260 28/24 Q1010 NOSIG
ZJSY,2003-07-01 01:00,ZJSY 010100Z 11002MPS 9999 FEW016 FEW020TCU 30/25 Q1010 NOSIG
ZJSY,2003-07-01 02:00,ZJSY 010200Z 12003MPS 9999 FEW015 FEW016TCU 30/25 Q1010 NOSIG
ZJSY,2003-07-01 03:00,ZJSY 010300Z 16003MPS 9999 FEW015 FEW016TCU 31/24 Q1011 NOSIG
ZJSY,2003-07-01 04:00,ZJSY 010400Z 16003MPS 9999 FEW015 FEW016TCU 31/24 Q1010 NOSIG
ZJSY,2003-07-01 05:00,ZJSY 010500Z 14003MPS 9999 FEW015 FEW020CB 31/23 Q1010 NOSIG
ZJSY,2003-07-01 06:00,ZJSY 010600Z 16002MPS 9999 FEW015 FEW020CB 30/24 Q1010
ZJSY,2003-07-01 07:00,ZJSY 010700Z 15002MPS 9999 FEW015 FEW020CB 29/23 Q1010
ZJSY,2003-07-01 08:00,ZJSY 010800Z 15002MPS 9999 FEW015 FEW020TCU SCT230 29/24 Q1009
ZJSY,2003-07-01 09:00,ZJSY 010900Z 16002MPS 9999 FEW013 SCT230 30/24 Q1008
ZJSY,2003-07-01 10:00,ZJSY 011000Z 14003MPS 9999 FEW013 SCT230 30/24 Q1008
ZJSY,2003-07-01 11:00,ZJSY 011100Z 11003MPS 9999 FEW013 29/24 Q1008
ZJSY,2003-07-01 12:00,ZJSY 011200Z 09003MPS CAVOK 29/24 Q1009
ZJSY,2003-07-01 13:00,ZJSY 011300Z 08003MPS CAVOK 27/24 Q1009
ZJSY,2003-07-01 14:00,ZJSY 011400Z 05002MPS CAVOK 28/24 Q1010
ZJSY,2003-07-01 15:00,ZJSY 011500Z 05003MPS CAVOK 27/23 Q1011
ZJSY,2003-07-01 16:00,ZJSY 011600Z 05004MPS CAVOK 27/23 Q1011
ZJSY,2003-07-01 17:00,ZJSY 011700Z AUTO 08003MPS //// // ////// 27/23 Q1010
ZJSY,2003-07-01 18:00,ZJSY 011800Z AUTO 05003MPS //// // ////// 27/24 Q1010
ZJSY,2003-07-01 19:00,ZJSY 011900Z AUTO 01002MPS //// // ////// 27/24 Q1010
ZJSY,2003-07-01 20:00,ZJSY 012000Z AUTO 35001MPS //// // ////// 26/24 Q1010
ZJSY,2003-07-01 21:00,ZJSY 012100Z AUTO 02001MPS //// // ////// 26/24 Q1010
ZJSY,2003-07-01 22:00,ZJSY 012200Z 02001MPS 9999 BKN011 SCT016 FEW023CB 26/24 Q1010
ZJSY,2003-07-01 23:00,ZJSY 012300Z 07003MPS 9999 -RA BKN011 SCT016 FEW023CB 25/23 Q1011
ZJSY,2003-07-02 00:00,ZJSY 020000Z 36001MPS 9999 -SHRA SCT011 FEW023TCU BKN200 26/24 Q1011
ZJSY,2003-07-02 01:00,ZJSY 020100Z 33002MPS 9999 SCT040 BKN260 27/24 Q1012
ZJSY,2003-07-02 02:00,ZJSY 020200Z 11002MPS 9999 SCT040 BKN260 29/24 Q1012
ZJSY,2003-07-02 03:00,ZJSY 020300Z 15003MPS 9999 FEW040 BKN260 30/24 Q1012
ZJSY,2003-07-02 04:00,ZJSY 020400Z 18002MPS 9999 SCT016 BKN040 BKN260 27/24 Q1012 RERA
ZJSY,2003-07-02 05:00,ZJSY 020500Z 08003MPS 9999 FEW016 SCT040 BKN260 27/23 Q1011
ZJSY,2003-07-02 06:00,ZJSY 020600Z 06003MPS 9999 FEW016 SCT040 BKN260 30/23 Q1011
ZJSY,2003-07-02 07:00,ZJSY 020700Z 14003MPS 9999 FEW016 SCT040 BKN260 30/24 Q1011
ZJSY,2003-07-02 08:00,ZJSY 020800Z 15003MPS CAVOK 31/24 Q1010
ZJSY,2003-07-02 09:00,ZJSY 020900Z 14004MPS 9999 FEW016 BKN260 30/24 Q1010
ZJSY,2003-07-02 10:00,ZJSY 021000Z 15003MPS 9999 FEW016 SCT260 30/24 Q1009
ZJSY,2003-07-02 11:00,ZJSY 021100Z 14003MPS 9999 FEW016 SCT260 29/24 Q1010
ZJSY,2003-07-02 12:00,ZJSY 021200Z 12003MPS 9999 FEW016 SCT260 28/24 Q1011
ZJSY,2003-07-02 13:00,ZJSY 021300Z 06003MPS 9999 FEW016 SCT260 28/24 Q1011
ZJSY,2003-07-02 14:00,ZJSY 021400Z 08003MPS CAVOK 27/24 Q1011
ZJSY,2003-07-02 15:00,ZJSY 021500Z 07003MPS CAVOK 27/24 Q1012
ZJSY,2003-07-02 16:00,ZJSY 021600Z 09001MPS CAVOK 26/24 Q1012
ZJSY,2003-07-02 17:00,ZJSY 021700Z AUTO 06001MPS //// // ////// 26/24 Q1012
ZJSY,2003-07-02 18:00,ZJSY 021800Z AUTO 06001MPS //// // ////// 27/24 Q1011
ZJSY,2003-07-02 19:00,ZJSY 021900Z AUTO 05001MPS //// // ////// 26/24 Q1011
ZJSY,2003-07-02 20:00,ZJSY 022000Z AUTO 04002MPS //// // ////// 26/24 Q1011
ZJSY,2003-07-02 21:00,ZJSY 022100Z AUTO 03001MPS //// // ////// 27/24 Q1011
ZJSY,2003-07-02 22:00,ZJSY 022200Z AUTO 32001MPS //// // ////// 26/24 Q1011
ZJSY,2003-07-02 23:00,ZJSY 022300Z 35001MPS 9999 FEW015 SCT120 27/24 Q1011
ZJSY,2003-07-03 00:00,ZJSY 030000Z 02001MPS 9999 SCT015 29/24 Q1011
ZJSY,2003-07-03 01:00,ZJSY 030100Z 12002MPS 9999 FEW018TCU SCT018 30/24 Q1012
ZJSY,2003-07-03 02:00,ZJSY 030200Z 14001MPS 9999 SCT020 30/24 Q1011
ZJSY,2003-07-03 03:00,ZJSY 030300Z 16001MPS 9999 SCT020 30/24 Q1012 NOSIG
ZJSY,2003-07-03 04:00,ZJSY 030400Z 15002MPS 9999 FEW023TCU SCT023 31/24 Q1011 NOSIG
ZJSY,2003-07-03 05:00,ZJSY 030500Z 17003MPS 9999 FEW023TCU SCT023 31/24 Q1011 NOSIG
ZJSY,2003-07-03 06:00,ZJSY 030600Z 19004MPS 9999 FEW023TCU SCT023 31/24 Q1010 NOSIG
ZJSY,2003-07-03 07:00,ZJSY 030700Z 18003MPS 9999 SCT023 FEW026CB 31/24 Q1010 NOSIG
ZJSY,2003-07-03 08:00,ZJSY 030800Z 16003MPS 9999 FEW023 FEW030CB 30/24 Q1009 NOSIG
ZJSY,2003-07-03 09:00,ZJSY 030900Z 00000MPS 9999 FEW020 SCT260 31/25 Q1009 NOSIG
ZJSY,2003-07-03 10:00,ZJSY 031000Z 16003MPS 9999 FEW020 SCT260 30/24 Q1009 NOSIG
ZJSY,2003-07-03 11:00,ZJSY 031100Z 16002MPS 9999 FEW020 29/25 Q1009 NOSIG
ZJSY,2003-07-03 12:00,ZJSY 031200Z 14002MPS CAVOK 29/24 Q1009 NOSIG
ZJSY,2003-07-03 13:00,ZJSY 031300Z 14002MPS CAVOK 29/25 Q1010 NOSIG
ZJSY,2003-07-03 14:00,ZJSY 031400Z 12003MPS CAVOK 29/25 Q1010 NOSIG
ZJSY,2003-07-03 15:00,ZJSY 031500Z 06003MPS CAVOK 28/24 Q1010 NOSIG
ZJSY,2003-07-03 16:00,ZJSY 031600Z 07003MPS CAVOK 28/24 Q1011 NOSIG
ZJSY,2003-07-03 17:00,ZJSY 031700Z AUTO 04002MPS //// // ////// 27/24 Q1010 NOSIG
ZJSY,2003-07-03 18:00,ZJSY 031800Z AUTO 01001MPS //// // ////// 27/24 Q1010 NOSIG
ZJSY,2003-07-03 19:00,ZJSY 031900Z AUTO 36001MPS //// // ////// 27/24 Q1010 NOSIG
ZJSY,2003-07-03 20:00,ZJSY 032000Z AUTO 36001MPS //// // ////// 26/24 Q1009 NOSIG
ZJSY,2003-07-03 21:00,ZJSY 032100Z AUTO 34002MPS //// // ////// 26/24 Q1010 NOSIG
ZJSY,2003-07-03 22:00,ZJSY 032200Z 35001MPS 9999 SCT020 26/24 Q1010 NOSIG
ZJSY,2003-07-03 23:00,ZJSY 032300Z 33002MPS 9999 SCT020 26/24 Q1010 NOSIG
ZJSY,2003-07-04 00:00,ZJSY 040000Z 35001MPS 9999 SCT020 28/24 Q1010 NOSIG
ZJSY,2003-07-04 01:00,ZJSY 040100Z 00000MPS 9999 FEW015 SCT020 29/24 Q1010 NOSIG
ZJSY,2003-07-04 02:00,ZJSY 040200Z 11002MPS 9999 FEW020 30/25 Q1010 NOSIG
ZJSY,2003-07-04 03:00,ZJSY 040300Z 20002MPS 9999 FEW020 30/24 Q1010 NOSIG
ZJSY,2003-07-04 04:00,ZJSY 040400Z 16003MPS 9999 FEW020 31/25 Q1009 NOSIG
ZJSY,2003-07-04 05:00,ZJSY 040500Z 18004MPS 9999 FEW020 31/25 Q1009 NOSIG
ZJSY,2003-07-04 06:00,ZJSY 040600Z 19004MPS CAVOK 31/24 Q1008 NOSIG
ZJSY,2003-07-04 07:00,ZJSY 040700Z 18004MPS CAVOK 31/25 Q1008 NOSIG
ZJSY,2003-07-04 08:00,ZJSY 040800Z 18003MPS CAVOK 31/25 Q1007 NOSIG
ZJSY,2003-07-04 09:00,ZJSY 040900Z 16003MPS CAVOK 31/24 Q1007 NOSIG
ZJSY,2003-07-04 10:00,ZJSY 041000Z 18003MPS CAVOK 30/24 Q1007 NOSIG
ZJSY,2003-07-04 11:00,ZJSY 041100Z 14002MPS CAVOK 29/24 Q1007 NOSIG
ZJSY,2003-07-04 12:00,ZJSY 041200Z 14002MPS CAVOK 29/24 Q1008 NOSIG
ZJSY,2003-07-04 13:00,ZJSY 041300Z 06002MPS CAVOK 28/24 Q1008 NOSIG
ZJSY,2003-07-04 14:00,ZJSY 041400Z 06003MPS CAVOK 28/24 Q1009 NOSIG
ZJSY,2003-07-04 15:00,ZJSY 041500Z 06003MPS CAVOK 28/24 Q1009 NOSIG
ZJSY,2003-07-04 16:00,ZJSY 041600Z 05002MPS CAVOK 28/24 Q1009 NOSIG
ZJSY,2003-07-04 17:00,ZJSY 041700Z AUTO 05002MPS //// // ////// 27/23 Q1009 NOSIG
ZJSY,2003-07-04 18:00,ZJSY 041800Z AUTO 34001MPS //// // ////// 27/24 Q1009 NOSIG
ZJSY,2003-07-04 19:00,ZJSY 041900Z AUTO 33002MPS //// // ////// 27/24 Q1008 NOSIG
ZJSY,2003-07-04 20:00,ZJSY 042000Z AUTO 34002MPS //// // ////// 26/24 Q1008 NOSIG
ZJSY,2003-07-04 21:00,ZJSY 042100Z AUTO 34001MPS //// // ////// 26/24 Q1008 NOSIG
ZJSY,2003-07-04 22:00,ZJSY 042200Z AUTO 35001MPS //// // ////// 26/24 Q1009 NOSIG
ZJSY,2003-07-04 23:00,ZJSY 042300Z 33002MPS 9999 FEW020 SCT230 27/24 Q1009 NOSIG
ZJSY,2003-07-05 00:00,ZJSY 050000Z 07003MPS 9999 -RA SCT020 FEW026CB BKN230 27/25 Q1010 NOSIG
ZJSY,2003-07-05 01:00,ZJSY 050100Z 08002MPS 9999 SCT020 FEW023TCU SCT230 29/25 Q1010 NOSIG
ZJSY,2003-07-05 02:00,ZJSY 050200Z 16002MPS 9999 SCT018 FEW021TCU 29/25 Q1010 NOSIG
ZJSY,2003-07-05 03:00,ZJSY 050300Z 18003MPS 9999 SCT018 FEW021TCU 31/24 Q1010 NOSIG
ZJSY,2003-07-05 04:00,ZJSY 050400Z 17003MPS 9999 FEW018 SCT260 31/25 Q1010 NOSIG
ZJSY,2003-07-05 05:00,ZJSY 050500Z 17003MPS 9999 FEW018 SCT260 31/25 Q1009 NOSIG
ZJSY,2003-07-05 06:00,ZJSY 050600Z 16004MPS 9999 FEW018 SCT260 31/25 Q1008 NOSIG
ZJSY,2003-07-05 07:00,ZJSY 050700Z 16003MPS 9999 FEW018 FEW023TCU BKN260 30/25 Q1008 NOSIG
ZJSY,2003-07-05 08:00,ZJSY 050800Z 16003MPS 9999 FEW018 FEW023TCU BKN260 31/24 Q1008 NOSIG
ZJSY,2003-07-05 09:00,ZJSY 050900Z 16003MPS 9999 FEW018 BKN260 31/25 Q1007 NOSIG
ZJSY,2003-07-05 10:00,ZJSY 051000Z 14003MPS 9999 SCT018 BKN260 30/25 Q1007 NOSIG
ZJSY,2003-07-05 11:00,ZJSY 051100Z 14003MPS 9999 FEW016 BKN260 29/24 Q1007 NOSIG
ZJSY,2003-07-05 12:00,ZJSY 051200Z 13002MPS 9999 FEW016 BKN260 29/24 Q1008 NOSIG
ZJSY,2003-07-05 13:00,ZJSY 051300Z 12003MPS 9999 BKN016 BKN260 29/25 Q1008 NOSIG
ZJSY,2003-07-05 14:00,ZJSY 051400Z 10001MPS 9999 BKN016 BKN260 28/25 Q1009 NOSIG
ZJSY,2003-07-05 15:00,ZJSY 051500Z 36002MPS 9999 SCT017 BKN260 28/25 Q1009 NOSIG
ZJSY,2003-07-05 16:00,ZJSY 051600Z 08002MPS 9999 SCT017 BKN260 27/25 Q1009 NOSIG
ZJSY,2003-07-05 17:00,ZJSY 051700Z AUTO 05002MPS //// // ////// 27/24 Q1009 NOSIG
ZJSY,2003-07-05 18:00,ZJSY 051800Z AUTO 24003MPS //// // ////// 27/25 Q1009 NOSIG
ZJSY,2003-07-05 19:00,ZJSY 051900Z AUTO 20002MPS //// // ////// 26/23 Q1009 NOSIG
ZJSY,2003-07-05 20:00,ZJSY 052000Z AUTO 34003MPS //// // ////// 26/24 Q1008 NOSIG
ZJSY,2003-07-05 21:00,ZJSY 052100Z AUTO 34001MPS //// // ////// 26/24 Q1009 NOSIG
ZJSY,2003-07-05 22:00,ZJSY 052200Z 35001MPS 9999 SCT016 FEW018TCU SCT260 26/24 Q1009 NOSIG
ZJSY,2003-07-05 23:00,ZJSY 052300Z 34002MPS 9999 BKN016 FEW018TCU SCT260 27/24 Q1009 NOSIG
ZJSY,2003-07-06 00:00,ZJSY 060000Z 33001MPS 9999 SCT016 FEW018TCU SCT260 28/25 Q1009 NOSIG
ZJSY,2003-07-06 01:00,ZJSY 060100Z 14002MPS 9999 SCT016 FEW018TCU SCT260 30/25 Q1009 NOSIG
ZJSY,2003-07-06 02:00,ZJSY 060200Z 17002MPS 9999 SCT018 29/25 Q1009 NOSIG
ZJSY,2003-07-06 03:00,ZJSY 060300Z 16003MPS 9999 SCT018 30/24 Q1009 NOSIG
ZJSY,2003-07-06 04:00,ZJSY 060400Z 17003MPS 9999 SCT018 31/25 Q1009 NOSIG
ZJSY,2003-07-06 05:00,ZJSY 060500Z 17003MPS 9999 SCT018 31/25 Q1009 NOSIG
ZJSY,2003-07-06 06:00,ZJSY 060600Z 16003MPS 9999 SCT018 31/25 Q1008 NOSIG
ZJSY,2003-07-06 07:00,ZJSY 060700Z 16003MPS 9999 FEW018 31/25 Q1008 NOSIG
ZJSY,2003-07-06 08:00,ZJSY 060800Z 15002MPS 9999 FEW018 31/24 Q1007 NOSIG
ZJSY,2003-07-06 09:00,ZJSY 060900Z 15003MPS 9999 FEW018 31/24 Q1007 NOSIG
ZJSY,2003-07-06 10:00,ZJSY 061000Z 14003MPS 9999 FEW018 30/24 Q1007 NOSIG
ZJSY,2003-07-06 11:00,ZJSY 061100Z 13003MPS 9999 FEW018 SCT260 30/25 Q1008 NOSIG
ZJSY,2003-07-06 12:00,ZJSY 061200Z 12003MPS 9999 FEW018 SCT260 29/25 Q1008 NOSIG
ZJSY,2003-07-06 13:00,ZJSY 061300Z 13002MPS 9999 FEW018 SCT260 29/25 Q1009 NOSIG
ZJSY,2003-07-06 14:00,ZJSY 061400Z 13002MPS 9999 FEW018 29/24 Q1009 NOSIG
ZJSY,2003-07-06 15:00,ZJSY 061500Z 15002MPS 9999 FEW018 29/24 Q1009 NOSIG
ZJSY,2003-07-06 16:00,ZJSY 061600Z 09002MPS 9999 FEW018 28/24 Q1009 NOSIG
ZJSY,2003-07-06 17:00,ZJSY 061700Z AUTO 34002MPS //// // ////// 28/24 Q1009 NOSIG
ZJSY,2003-07-06 18:00,ZJSY 061800Z AUTO 28002MPS //// // ////// 27/24 Q1008 NOSIG
ZJSY,2003-07-06 19:00,ZJSY 061900Z AUTO 00000MPS //// // ////// 27/24 Q1008 NOSIG
ZJSY,2003-07-06 20:00,ZJSY 062000Z AUTO 35001MPS //// // ////// 27/24 Q1008 NOSIG
ZJSY,2003-07-06 21:00,ZJSY 062100Z AUTO 01001MPS //// // ////// 27/24 Q1008 NOSIG
ZJSY,2003-07-06 22:00,ZJSY 062200Z 35001MPS 9999 FEW015 SCT230 27/24 Q1008 NOSIG
ZJSY,2003-07-06 23:00,ZJSY 062300Z 04001MPS 9999 SCT018 28/24 Q1008 NOSIG
ZJSY,2003-07-07 01:00,ZJSY 070100Z 14002MPS 9999 SCT016 FEW018CB 29/24 Q1009 NOSIG
ZJSY,2003-07-07 02:00,ZJSY 070200Z 17002MPS 9999 SCT018 FEW020CB 30/25 Q1009 NOSIG
ZJSY,2003-07-07 03:00,ZJSY 070300Z 17002MPS 9999 SCT018 31/24 Q1009 NOSIG
ZJSY,2003-07-07 04:00,ZJSY 070400Z 16002MPS 9999 SCT020 31/25 Q1008 NOSIG
ZJSY,2003-07-07 05:00,ZJSY 070500Z 19003MPS 9999 SCT022 31/25 Q1008 NOSIG
ZJSY,2003-07-07 07:00,ZJSY 070700Z 18003MPS 9999 SCT022 FEW025CB 31/25 Q1007 NOSIG
ZJSY,2003-07-07 08:00,ZJSY 070800Z 17003MPS 9999 SCT022 FEW033CB 31/25 Q1007 NOSIG
ZJSY,2003-07-07 09:00,ZJSY 070900Z 16004MPS 9999 FEW020TCU SCT020 31/25 Q1006 NOSIG
ZJSY,2003-07-07 10:00,ZJSY 071000Z 16003MPS 9999 FEW013 31/25 Q1006 NOSIG
ZJSY,2003-07-07 11:00,ZJSY 071100Z 16002MPS 9999 SCT013 FEW023TCU 30/25 Q1007 NOSIG
ZJSY,2003-07-07 12:00,ZJSY 071200Z 13003MPS 9999 FEW013 29/25 Q1007 NOSIG
ZJSY,2003-07-07 13:00,ZJSY 071300Z 14003MPS 9999 FEW013 29/25 Q1008 NOSIG
ZJSY,2003-07-07 14:00,ZJSY 071400Z 08002MPS 9999 FEW013 29/25 Q1008 NOSIG
ZJSY,2003-07-07 15:00,ZJSY 071500Z 05002MPS CAVOK 28/25 Q1009 NOSIG
ZJSY,2003-07-07 16:00,ZJSY 071600Z 05002MPS CAVOK 28/25 Q1009 NOSIG
ZJSY,2003-07-07 17:00,ZJSY 071700Z AUTO 32001MPS //// // ////// 28/25 Q1009 NOSIG
ZJSY,2003-07-07 18:00,ZJSY 071800Z AUTO 04002MPS //// // ////// 28/25 Q1008 NOSIG
ZJSY,2003-07-07 19:00,ZJSY 071900Z AUTO 06001MPS //// // ////// 28/25 Q1008 NOSIG
ZJSY,2003-07-07 20:00,ZJSY 072000Z AUTO 35001MPS //// // ////// 27/25 Q1008 NOSIG
ZJSY,2003-07-07 23:00,ZJSY 072300Z 33002MPS 9999 SCT013 SCT016 28/25 Q1008 NOSIG
ZJSY,2003-07-08 00:00,ZJSY 080000Z 34001MPS 9999 FEW013 SCT016 29/25 Q1009 NOSIG
ZJSY,2003-07-08 01:00,ZJSY 080100Z 15001MPS 9999 SCT016 30/25 Q1009 NOSIG
ZJSY,2003-07-08 02:00,ZJSY 080200Z 20002MPS 9999 SCT016 30/25 Q1009 NOSIG
ZJSY,2003-07-08 03:00,ZJSY 080300Z 20002MPS 9999 SCT016 FEW026CB 31/25 Q1008 NOSIG
ZJSY,2003-07-08 04:00,ZJSY 080400Z 22003MPS 9999 SCT016 32/26 Q1008 NOSIG
ZJSY,2003-07-08 05:00,ZJSY 080500Z 20003MPS CAVOK 32/24 Q1007 NOSIG
ZJSY,2003-07-08 06:00,ZJSY 080600Z 20004MPS CAVOK 31/25 Q1006 NOSIG
ZJSY,2003-07-08 07:00,ZJSY 080700Z 21004MPS CAVOK 32/25 Q1006 NOSIG
ZJSY,2003-07-08 08:00,ZJSY 080800Z 20003MPS CAVOK 31/25 Q1005 NOSIG
ZJSY,2003-07-08 09:00,ZJSY 080900Z 18003MPS CAVOK 31/25 Q1005 NOSIG
ZJSY,2003-07-08 10:00,ZJSY 081000Z 18003MPS CAVOK 31/24 Q1006 NOSIG
ZJSY,2003-07-08 11:00,ZJSY 081100Z 14002MPS CAVOK 30/24 Q1006 NOSIG
ZJSY,2003-07-08 12:00,ZJSY 081200Z 12001MPS CAVOK 29/25 Q1006 NOSIG
ZJSY,2003-07-08 13:00,ZJSY 081300Z 06002MPS CAVOK 29/24 Q1007 NOSIG
ZJSY,2003-07-08 14:00,ZJSY 081400Z 06002MPS CAVOK 29/24 Q1008 NOSIG
ZJSY,2003-07-08 15:00,ZJSY 081500Z 35001MPS CAVOK 28/24 Q1008 NOSIG
ZJSY,2003-07-08 16:00,ZJSY 081600Z 35001MPS CAVOK 27/24 Q1008 NOSIG
ZJSY,2003-07-08 17:00,ZJSY 081700Z AUTO 34001MPS //// // ////// 27/24 Q1008 NOSIG
ZJSY,2003-07-08 18:00,ZJSY 081800Z AUTO 33002MPS //// // ////// 27/24 Q1007 NOSIG
ZJSY,2003-07-08 20:00,ZJSY 082000Z AUTO 35001MPS //// // ////// 27/24 Q1007 NOSIG
ZJSY,2003-07-08 21:00,ZJSY 082100Z AUTO 01001MPS //// // ////// 27/24 Q1007 NOSIG
ZJSY,2003-07-08 22:00,ZJSY 082200Z 36001MPS CAVOK 27/24 Q1007 NOSIG
ZJSY,2003-07-08 23:00,ZJSY 082300Z 35001MPS 9999 SCT018 SCT260 28/25 Q1008 NOSIG
ZJSY,2003-07-09 00:00,ZJSY 090000Z 06003MPS 9999 SCT018 SCT260 29/25 Q1008 NOSIG
ZJSY,2003-07-09 01:00,ZJSY 090100Z 12001MPS 9999 FEW013 SCT018 31/25 Q1008 NOSIG
ZJSY,2003-07-09 02:00,ZJSY 090200Z 17002MPS 9999 SCT018 31/25 Q1009 NOSIG
ZJSY,2003-07-09 03:00,ZJSY 090300Z 18003MPS 9999 FEW018 31/25 Q1009 NOSIG
ZJSY,2003-07-09 04:00,ZJSY 090400Z 19003MPS 9999 FEW018 31/25 Q1009 NOSIG
ZJSY,2003-07-09 05:00,ZJSY 090500Z 18003MPS 9999 FEW018 31/25 Q1008 NOSIG
ZJSY,2003-07-09 06:00,ZJSY 090600Z 18003MPS 9999 FEW018 32/25 Q1007 NOSIG
ZJSY,2003-07-09 07:00,ZJSY 090700Z 22003MPS 9999 FEW018 32/25 Q1006 NOSIG
ZJSY,2003-07-09 08:00,ZJSY 090800Z 18002MPS CAVOK 31/25 Q1006 NOSIG
ZJSY,2003-07-09 09:00,ZJSY 090900Z 16002MPS 9999 FEW020TCU BKN230 30/25 Q1006 NOSIG
ZJSY,2003-07-09 10:00,ZJSY 091000Z 12002MPS 9999 FEW020TCU BKN230 30/24 Q1006 NOSIG
ZJSY,2003-07-09 11:00,ZJSY 091100Z 12002MPS CAVOK 30/25 Q1006 NOSIG
ZJSY,2003-07-09 12:00,ZJSY 091200Z 08002MPS CAVOK 29/25 Q1007 NOSIG
ZJSY,2003-07-09 13:00,ZJSY 091300Z 06003MPS CAVOK 29/24 Q1007 NOSIG
ZJSY,2003-07-09 14:00,ZJSY 091400Z 06002MPS CAVOK 29/24 Q1007 NOSIG
ZJSY,2003-07-09 15:00,ZJSY 091500Z 34002MPS CAVOK 28/24 Q1008 NOSIG
ZJSY,2003-07-09 16:00,ZJSY 091600Z 35002MPS 9999 FEW016 BKN230 27/24 Q1008 NOSIG
ZJSY,2003-07-09 17:00,ZJSY 091700Z AUTO 09002MPS //// // ////// 27/24 Q1007 NOSIG
ZJSY,2003-07-09 18:00,ZJSY 091800Z AUTO 35001MPS //// // ////// 27/24 Q1006 NOSIG
ZJSY,2003-07-09 19:00,ZJSY 091900Z AUTO 01001MPS //// // ////// 27/24 Q1006 NOSIG
ZJSY,2003-07-09 20:00,ZJSY 092000Z AUTO 36001MPS //// // ////// 27/24 Q1006 NOSIG
ZJSY,2003-07-09 21:00,ZJSY 092100Z AUTO 34002MPS //// // ////// 27/24 Q1006 NOSIG
ZJSY,2003-07-09 22:00,ZJSY 092200Z 35002MPS CAVOK 27/24 Q1006 NOSIG
ZJSY,2003-07-09 23:00,ZJSY 092300Z 35001MPS 9999 FEW016 FEW020TCU SCT230 27/24 Q1007 NOSIG
ZJSY,2003-07-10 00:00,ZJSY 100000Z 10001MPS 9999 FEW016 FEW020TCU SCT230 29/25 Q1007 NOSIG
ZJSY,2003-07-10 01:00,ZJSY 100100Z 11001MPS 9999 SCT016 FEW020TCU SCT230 31/24 Q1007 NOSIG
ZJSY,2003-07-10 02:00,ZJSY 100200Z 18003MPS 9999 SCT016 FEW020TCU SCT230 29/24 Q1008 NOSIG
ZJSY,2003-07-10 03:00,ZJSY 100300Z 13003MPS 9999 FEW020 SCT230 31/24 Q1007 NOSIG
ZJSY,2003-07-10 04:00,ZJSY 100400Z 15004MPS 9999 FEW020 SCT230 31/24 Q1007 NOSIG
ZJSY,2003-07-10 05:00,ZJSY 100500Z 16004MPS CAVOK 31/24 Q1007 NOSIG
ZJSY,2003-07-10 06:00,ZJSY 100600Z 16003MPS CAVOK 32/24 Q1006 NOSIG
ZJSY,2003-07-10 07:00,ZJSY 100700Z 16003MPS CAVOK 32/23 Q1005 NOSIG
ZJSY,2003-07-10 08:00,ZJSY 100800Z 15003MPS CAVOK 31/24 Q1004 NOSIG
ZJSY,2003-07-10 09:00,ZJSY 100900Z 16003MPS CAVOK 31/24 Q1004 NOSIG
ZJSY,2003-07-10 10:00,ZJSY 101000Z 17001MPS 9999 FEW020 BKN260 30/24 Q1003 NOSIG
ZJSY,2003-07-10 11:00,ZJSY 101100Z 14001MPS 9999 FEW020 BKN260 30/24 Q1004 NOSIG
ZJSY,2003-07-10 12:00,ZJSY 101200Z 17001MPS CAVOK 30/24 Q1004 NOSIG
ZJSY,2003-07-10 13:00,ZJSY 101300Z 14001MPS CAVOK 29/24 Q1005 NOSIG
ZJSY,2003-07-10 14:00,ZJSY 101400Z 06003MPS 9999 SCT018 BKN260 29/24 Q1006 NOSIG
ZJSY,2003-07-10 15:00,ZJSY 101500Z 07003MPS 9999 SCT018 BKN260 28/24 Q1006 NOSIG
ZJSY,2003-07-10 16:00,ZJSY 101600Z 05003MPS 9999 FEW020 BKN260 28/24 Q1006 NOSIG
ZJSY,2003-07-10 17:00,ZJSY 101700Z 08003MPS 9999 FEW020 BKN260 28/24 Q1006 NOSIG
ZJSY,2003-07-10 18:00,ZJSY 101800Z AUTO 08002MPS //// // ////// 28/24 Q1006 NOSIG
ZJSY,2003-07-10 19:00,ZJSY 101900Z AUTO 09001MPS //// // ////// 28/25 Q1005 NOSIG
ZJSY,2003-07-10 20:00,ZJSY 102000Z AUTO 17004MPS //// // ////// 28/25 Q1005 NOSIG
ZJSY,2003-07-10 21:00,ZJSY 102100Z AUTO 12003MPS //// // ////// 28/24 Q1005 NOSIG
ZJSY,2003-07-10 22:00,ZJSY 102200Z 32002MPS 9999 SCT013 SCT016 BKN260 27/24 Q1005 NOSIG
ZJSY,2003-07-10 23:00,ZJSY 102300Z 36001MPS 9999 SCT013 SCT016 BKN260 27/24 Q1005 NOSIG
ZJSY,2003-07-11 00:00,ZJSY 110000Z 06002MPS 9999 SCT014 BKN130 28/25 Q1006 NOSIG
ZJSY,2003-07-11 01:00,ZJSY 110100Z 36001MPS 9999 SCT016 BKN120 29/26 Q1006 NOSIG
ZJSY,2003-07-11 02:00,ZJSY 110200Z 14002MPS 9999 SCT016 BKN120 31/24 Q1007 NOSIG
ZJSY,2003-07-11 03:00,ZJSY 110300Z 14003MPS 9999 SCT016 SCT120 32/24 Q1007 NOSIG
ZJSY,2003-07-11 04:00,ZJSY 110400Z 17004MPS 9999 SCT016 FEW020TCU FEW023CB SCT230 32/25 Q1006 NOSIG
ZJSY,2003-07-11 05:00,ZJSY 110500Z 16001MPS 7000 -TSRA SCT013 FEW023CB OVC030 26/23 Q1006 NOSIG
ZJSY,2003-07-11 06:00,ZJSY 110600Z 16002MPS 8000 -TS SCT013 SCT020TCU FEW023CB OVC030 28/23 Q1006 NOSIG
ZJSY,2003-07-11 07:00,ZJSY 110700Z 03004MPS 9999 SCT016 SCT040 27/24 Q1005 RETS
ZJSY,2003-07-11 08:00,ZJSY 110800Z 04003MPS 9999 SCT016 SCT230 30/24 Q1004
ZJSY,2003-07-11 09:00,ZJSY 110900Z 09002MPS 9999 FEW016 SCT230 31/25 Q1004
ZJSY,2003-07-11 10:00,ZJSY 111000Z 10004MPS 9999 SCT016 SCT230 30/25 Q1003
ZJSY,2003-07-11 11:00,ZJSY 111100Z 12004MPS 9999 FEW013 30/24 Q1004
ZJSY,2003-07-11 12:00,ZJSY 111200Z 11003MPS 9999 FEW013 29/25 Q1005
ZJSY,2003-07-11 13:00,ZJSY 111300Z 05003MPS 9999 SCT013 29/24 Q1005
ZJSY,2003-07-11 14:00,ZJSY 111400Z 06004MPS 9999 SCT013 28/25 Q1006
ZJSY,2003-07-11 15:00,ZJSY 111500Z 04003MPS 9999 SCT013 SCT040 27/24 Q1006 RERA
ZJSY,2003-07-11 16:00,ZJSY 111600Z 07004MPS 9999 SCT013 SCT016 27/24 Q1006
ZJSY,2003-07-11 17:00,ZJSY 111700Z AUTO 08002MPS //// // ////// 28/25 Q1006
ZJSY,2003-07-11 18:00,ZJSY 111800Z AUTO 15004MPS //// // ////// 28/25 Q1006
ZJSY,2003-07-11 19:00,ZJSY 111900Z AUTO 18005MPS //// // ////// 29/25 Q1005
ZJSY,2003-07-11 20:00,ZJSY 112000Z AUTO 17004MPS //// // ////// 29/25 Q1005
ZJSY,2003-07-11 21:00,ZJSY 112100Z AUTO 10002MPS //// // ////// 27/24 Q1005
ZJSY,2003-07-11 22:00,ZJSY 112200Z 04002MPS 9999 -SHRA BKN010 SCT016 FEW023TCU 27/24 Q1005
ZJSY,2003-07-11 23:00,ZJSY 112300Z 11001MPS 9999 BKN010 SCT016 FEW023TCU 27/25 Q1006
ZJSY,2003-07-12 00:00,ZJSY 120000Z 14003MPS 9999 SCT010 FEW023TCU BKN200 29/25 Q1006
ZJSY,2003-07-12 01:00,ZJSY 120100Z 14005MPS 9999 SCT010 FEW023TCU BKN040 BKN200 28/25 Q1007
ZJSY,2003-07-12 02:00,ZJSY 120200Z 17004MPS 9999 SCT010 FEW023TCU BKN040 BKN200 30/25 Q1008
ZJSY,2003-07-12 03:00,ZJSY 120300Z 12003MPS 9999 SCT010 FEW023TCU BKN040 BKN200 30/25 Q1008
ZJSY,2003-07-12 04:00,ZJSY 120400Z 15004MPS 9999 -RA SCT013 FEW023TCU BKN040 BKN200 29/25 Q1008
ZJSY,2003-07-12 05:00,ZJSY 120500Z 14005MPS 9999 -RA SCT011 FEW023CB BKN033 BKN200 28/25 Q1008
ZJSY,2003-07-12 06:00,ZJSY 120600Z 11001MPS 9999 -TSRA BKN011 FEW023CB OVC033 28/24 Q1008
ZJSY,2003-07-12 07:00,ZJSY 120700Z 32001MPS 9999 -TSRA BKN011 FEW023CB OVC040 26/24 Q1008
ZJSY,2003-07-12 08:00,ZJSY 120800Z 18002MPS 9999 -RA BKN013 FEW023CB BKN040 BKN230 27/25 Q1007 RETS
ZJSY,2003-07-12 09:00,ZJSY 120900Z 35002MPS 9999 SCT013 FEW023CB SCT040 BKN230 28/24 Q1006
ZJSY,2003-07-12 10:00,ZJSY 121000Z 04003MPS 9999 SCT013 SCT230 29/25 Q1006
ZJSY,2003-07-12 11:00,ZJSY 121100Z 07002MPS 9999 SCT013 SCT230 28/25 Q1006
ZJSY,2003-07-12 12:00,ZJSY 121200Z 08001MPS 9999 FEW013 SCT230 28/25 Q1007
ZJSY,2003-07-12 13:00,ZJSY 121300Z 05002MPS 9999 FEW015 28/25 Q1008
ZJSY,2003-07-12 14:00,ZJSY 121400Z 06002MPS 9999 FEW015 27/25 Q1008
ZJSY,2003-07-12 15:00,ZJSY 121500Z 06002MPS 9999 SCT015 27/25 Q1009 NOSIG
ZJSY,2003-07-12 16:00,ZJSY 121600Z 06003MPS 9999 SCT015 FEW020TCU 28/25 Q1009 NOSIG
ZJSY,2003-07-12 17:00,ZJSY 121700Z AUTO 08002MPS //// // ////// 27/25 Q1009 NOSIG
ZJSY,2003-07-12 18:00,ZJSY 121800Z 12003MPS 5000 -TSRA SCT015 FEW023CB BKN033 26/24 Q1008 NOSIG
ZJSY,2003-07-12 19:00,ZJSY 121900Z AUTO 10002MPS //// // ////// 27/25 Q1007 NOSIG
ZJSY,2003-07-12 20:00,ZJSY 122000Z AUTO 07003MPS //// // ////// 27/25 Q1007 NOSIG
ZJSY,2003-07-12 21:00,ZJSY 122100Z AUTO 06002MPS //// // ////// 27/25 Q1007 NOSIG
ZJSY,2003-07-12 22:00,ZJSY 122200Z 04001MPS 9999 SCT013 27/25 Q1008 NOSIG
ZJSY,2003-07-12 23:00,ZJSY 122300Z 10001MPS 9999 SCT013 27/25 Q1008 NOSIG
ZJSY,2003-07-13 00:00,ZJSY 130000Z 10002MPS 9999 SCT015 FEW020TCU 29/25 Q1009 NOSIG
ZJSY,2003-07-13 01:00,ZJSY 130100Z 07003MPS 9999 SCT014 FEW020TCU FEW021CB 28/25 Q1009 TEMPO 5000 -TSRA
ZJSY,2003-07-13 02:00,ZJSY 130200Z 10001MPS 9999 SCT016 FEW020CB 30/25 Q1010
ZJSY,2003-07-13 03:00,ZJSY 130300Z 15002MPS 9999 SCT016 FEW020CB 30/25 Q1010 NOSIG
ZJSY,2003-07-13 04:00,ZJSY 130400Z 17003MPS 9999 SCT018 FEW020TCU 31/25 Q1010 NOSIG
ZJSY,2003-07-13 05:00,ZJSY 130500Z 14003MPS 9999 SCT018 FEW020TCU 31/25 Q1010 NOSIG
ZJSY,2003-07-13 06:00,ZJSY 130600Z 17003MPS 9999 SCT018 FEW020TCU 31/25 Q1009 NOSIG
ZJSY,2003-07-13 07:00,ZJSY 130700Z 15003MPS 9999 FEW020TCU SCT020 SCT260 31/26 Q1009 NOSIG
ZJSY,2003-07-13 08:00,ZJSY 130800Z 16004MPS 9999 FEW020TCU SCT020 SCT260 31/26 Q1008 NOSIG
ZJSY,2003-07-13 09:00,ZJSY 130900Z 13003MPS 9999 FEW020TCU SCT020 31/25 Q1007 NOSIG
ZJSY,2003-07-13 10:00,ZJSY 131000Z 14003MPS 9999 FEW020 30/25 Q1007 NOSIG
ZJSY,2003-07-13 11:00,ZJSY 131100Z 14003MPS CAVOK 30/25 Q1007 NOSIG
ZJSY,2003-07-13 12:00,ZJSY 131200Z 09002MPS CAVOK 29/24 Q1008 NOSIG
ZJSY,2003-07-13 13:00,ZJSY 131300Z 09001MPS CAVOK 28/24 Q1009 NOSIG
ZJSY,2003-07-13 14:00,ZJSY 131400Z 06003MPS CAVOK 28/25 Q1010 NOSIG
ZJSY,2003-07-13 15:00,ZJSY 131500Z 06003MPS 9999 FEW018 28/24 Q1010 NOSIG
ZJSY,2003-07-13 16:00,ZJSY 131600Z 05002MPS 9999 FEW018 28/24 Q1010 NOSIG
ZJSY,2003-07-13 17:00,ZJSY 131700Z AUTO 06002MPS //// // ////// 27/24 Q1009 NOSIG
ZJSY,2003-07-13 18:00,ZJSY 131800Z AUTO 00000MPS //// // ////// 27/24 Q1009 NOSIG
ZJSY,2003-07-13 19:00,ZJSY 131900Z AUTO 36001MPS //// // ////// 27/24 Q1009 NOSIG
ZJSY,2003-07-13 20:00,ZJSY 132000Z AUTO 06002MPS //// // ////// 27/24 Q1009 NOSIG
ZJSY,2003-07-13 21:00,ZJSY 132100Z AUTO 04001MPS //// // ////// 27/24 Q1009 NOSIG
ZJSY,2003-07-13 22:00,ZJSY 132200Z 06002MPS 9999 FEW018 FEW026TCU SCT260 27/24 Q1009 NOSIG
ZJSY,2003-07-13 23:00,ZJSY 132300Z 33002MPS 9999 SCT018 FEW026TCU SCT260 27/24 Q1009 NOSIG
ZJSY,2003-07-14 00:00,ZJSY 140000Z 05002MPS 9999 -TS BKN016 FEW026TCU FEW033CB SCT260 28/25 Q1010 NOSIG
ZJSY,2003-07-14 01:00,ZJSY 140100Z 00000MPS 9999 FEW013 SCT016 FEW026TCU 28/24 Q1010 RETS NOSIG
ZJSY,2003-07-14 02:00,ZJSY 140200Z 19001MPS 9999 FEW013 SCT016 30/25 Q1010 NOSIG
ZJSY,2003-07-14 03:00,ZJSY 140300Z 18002MPS 9999 SCT016 31/25 Q1010 NOSIG
ZJSY,2003-07-14 04:00,ZJSY 140400Z 19002MPS 9999 FEW016 31/25 Q1010 NOSIG
ZJSY,2003-07-14 05:00,ZJSY 140500Z 18003MPS 9999 FEW016 31/25 Q1010 NOSIG
ZJSY,2003-07-14 06:00,ZJSY 140600Z 19003MPS 9999 FEW016 31/25 Q1009 NOSIG
ZJSY,2003-07-14 07:00,ZJSY 140700Z 19003MPS 9999 FEW016 31/25 Q1008 NOSIG
ZJSY,2003-07-14 08:00,ZJSY 140800Z 18003MPS 9999 FEW016 31/25 Q1008 NOSIG
ZJSY,2003-07-14 09:00,ZJSY 140900Z 19003MPS 9999 FEW016 31/25 Q1008 NOSIG
ZJSY,2003-07-14 10:00,ZJSY 141000Z 18002MPS CAVOK 30/25 Q1008 NOSIG
ZJSY,2003-07-14 11:00,ZJSY 141100Z 17001MPS CAVOK 29/24 Q1007 NOSIG
ZJSY,2003-07-14 12:00,ZJSY 141200Z 13001MPS CAVOK 29/24 Q1008 NOSIG
ZJSY,2003-07-14 13:00,ZJSY 141300Z 35001MPS CAVOK 28/25 Q1009 NOSIG
ZJSY,2003-07-14 14:00,ZJSY 141400Z 35001MPS CAVOK 27/24 Q1009 NOSIG
ZJSY,2003-07-14 15:00,ZJSY 141500Z 33002MPS CAVOK 27/24 Q1010 NOSIG
ZJSY,2003-07-14 16:00,ZJSY 141600Z 34001MPS CAVOK 27/24 Q1009 NOSIG
ZJSY,2003-07-14 17:00,ZJSY 141700Z AUTO 01001MPS //// // ////// 27/24 Q1009 NOSIG
ZJSY,2003-07-14 18:00,ZJSY 141800Z AUTO 35001MPS //// // ////// 26/24 Q1009 NOSIG
ZJSY,2003-07-14 19:00,ZJSY 141900Z AUTO 34002MPS //// // ////// 26/24 Q1009 NOSIG
ZJSY,2003-07-14 20:00,ZJSY 142000Z AUTO 36001MPS //// // ////// 26/24 Q1009 NOSIG
ZJSY,2003-07-14 21:00,ZJSY 142100Z AUTO 34002MPS //// // ////// 26/24 Q1009 NOSIG
ZJSY,2003-07-14 22:00,ZJSY 142200Z AUTO 33002MPS //// // ////// 26/24 Q1009 NOSIG
ZJSY,2003-07-14 23:00,ZJSY 142300Z 35001MPS 9999 -RA SCT013 BKN033 BKN230 27/24 Q1010 NOSIG
ZJSY,2003-07-15 00:00,ZJSY 150000Z 31001MPS 9999 SCT015 BKN230 28/24 Q1010 NOSIG
ZJSY,2003-07-15 01:00,ZJSY 150100Z 00000MPS 9999 SCT016 30/25 Q1010 NOSIG
ZJSY,2003-07-15 02:00,ZJSY 150200Z 23003MPS 9999 SCT016 30/25 Q1010 NOSIG
ZJSY,2003-07-15 03:00,ZJSY 150300Z 23003MPS 9999 SCT016 30/25 Q1010 NOSIG
ZJSY,2003-07-15 04:00,ZJSY 150400Z 23003MPS 9999 FEW016 30/23 Q1010 NOSIG
ZJSY,2003-07-15 05:00,ZJSY 150500Z 22004MPS 9999 FEW016 31/25 Q1010 NOSIG
ZJSY,2003-07-15 06:00,ZJSY 150600Z 22004MPS 9999 FEW016 31/25 Q1009 NOSIG
ZJSY,2003-07-15 07:00,ZJSY 150700Z 21004MPS CAVOK 31/24 Q1008 NOSIG
ZJSY,2003-07-15 08:00,ZJSY 150800Z 22003MPS CAVOK 31/24 Q1007 NOSIG
ZJSY,2003-07-15 09:00,ZJSY 150900Z 21002MPS CAVOK 30/25 Q1007 NOSIG
ZJSY,2003-07-15 10:00,ZJSY 151000Z 21003MPS CAVOK 30/24 Q1007 NOSIG
ZJSY,2003-07-15 11:00,ZJSY 151100Z 19001MPS CAVOK 30/24 Q1007 NOSIG
ZJSY,2003-07-15 12:00,ZJSY 151200Z 18001MPS CAVOK 29/24 Q1008 NOSIG
ZJSY,2003-07-15 13:00,ZJSY 151300Z 33001MPS CAVOK 28/24 Q1008 NOSIG
ZJSY,2003-07-15 14:00,ZJSY 151400Z 35001MPS 9999 FEW015 SCT260 27/24 Q1009 NOSIG
ZJSY,2003-07-15 15:00,ZJSY 151500Z 34001MPS CAVOK 27/24 Q1009 NOSIG
ZJSY,2003-07-15 16:00,ZJSY 151600Z 34002MPS CAVOK 27/24 Q1009 NOSIG
ZJSY,2003-07-15 17:00,ZJSY 151700Z 34002MPS 9999 FEW015 26/24 Q1009 NOSIG
ZJSY,2003-07-15 18:00,ZJSY 151800Z AUTO 01001MPS //// // ////// 26/24 Q1009 NOSIG
ZJSY,2003-07-15 19:00,ZJSY 151900Z AUTO 33002MPS //// // ////// 26/24 Q1008 NOSIG
ZJSY,2003-07-15 20:00,ZJSY 152000Z AUTO 33002MPS //// // ////// 26/24 Q1009 NOSIG
ZJSY,2003-07-15 21:00,ZJSY 152100Z AUTO 35002MPS //// // ////// 26/24 Q1009 NOSIG
ZJSY,2003-07-15 22:00,ZJSY 152200Z 34002MPS 9999 FEW018TCU FEW018 SCT260 26/24 Q1009 NOSIG
ZJSY,2003-07-15 23:00,ZJSY 152300Z 35002MPS 9999 FEW018TCU SCT018 26/24 Q1009 NOSIG
ZJSY,2003-07-16 00:00,ZJSY 160000Z 30001MPS 9999 FEW018TCU SCT018 29/25 Q1010 NOSIG
ZJSY,2003-07-16 01:00,ZJSY 160100Z 22002MPS 9999 SCT018 30/25 Q1011 NOSIG
ZJSY,2003-07-16 02:00,ZJSY 160200Z 19002MPS 9999 FEW018 30/24 Q1011 NOSIG
ZJSY,2003-07-16 03:00,ZJSY 160300Z 18002MPS 9999 FEW018 30/24 Q1010 NOSIG
ZJSY,2003-07-16 04:00,ZJSY 160400Z 17002MPS CAVOK 31/24 Q1010 NOSIG
ZJSY,2003-07-16 05:00,ZJSY 160500Z 18002MPS CAVOK 31/24 Q1009 NOSIG
ZJSY,2003-07-16 06:00,ZJSY 160600Z 16002MPS CAVOK 31/24 Q1008 NOSIG
ZJSY,2003-07-16 07:00,ZJSY 160700Z 19003MPS CAVOK 31/24 Q1008 NOSIG
ZJSY,2003-07-16 08:00,ZJSY 160800Z 18002MPS CAVOK 31/24 Q1007 NOSIG
ZJSY,2003-07-16 09:00,ZJSY 160900Z 18002MPS CAVOK 31/24 Q1007 NOSIG
ZJSY,2003-07-16 10:00,ZJSY 161000Z 19002MPS CAVOK 30/24 Q1007 NOSIG
ZJSY,2003-07-16 11:00,ZJSY 161100Z 19001MPS 9999 FEW018 30/24 Q1007 NOSIG
ZJSY,2003-07-16 12:00,ZJSY 161200Z 00000MPS 9999 FEW018 SCT300 29/24 Q1008 NOSIG
ZJSY,2003-07-16 13:00,ZJSY 161300Z 31001MPS 9999 FEW018 SCT300 28/25 Q1009 NOSIG
ZJSY,2003-07-16 14:00,ZJSY 161400Z 35001MPS 9999 FEW018 SCT300 28/25 Q1009 NOSIG
ZJSY,2003-07-16 15:00,ZJSY 161500Z 03001MPS 9999 FEW020 SCT300 28/25 Q1009 NOSIG
ZJSY,2003-07-16 16:00,ZJSY 161600Z 34002MPS 9999 FEW020 SCT300 27/24 Q1010 NOSIG
ZJSY,2003-07-16 17:00,ZJSY 161700Z 00000MPS 9999 FEW020 SCT100 27/24 Q1009 NOSIG
ZJSY,2003-07-16 18:00,ZJSY 161800Z 34001MPS 9999 SCT020 SCT300 27/24 Q1009 NOSIG
ZJSY,2003-07-16 19:00,ZJSY 161900Z AUTO 32002MPS //// // ////// 27/24 Q1009 NOSIG
ZJSY,2003-07-16 20:00,ZJSY 162000Z AUTO 34002MPS //// // ////// 27/24 Q1009 NOSIG
ZJSY,2003-07-16 21:00,ZJSY 162100Z AUTO 34002MPS //// // ////// 26/24 Q1008 NOSIG
ZJSY,2003-07-16 22:00,ZJSY 162200Z 33002MPS 9999 SCT018 SCT300 26/24 Q1008 NOSIG
ZJSY,2003-07-16 23:00,ZJSY 162300Z 34001MPS 9999 FEW018 SCT300 26/24 Q1009 NOSIG
ZJSY,2003-07-17 00:00,ZJSY 170000Z 00000MPS 9999 FEW018 29/25 Q1009 NOSIG
ZJSY,2003-07-17 01:00,ZJSY 170100Z 19001MPS 9999 FEW016 30/24 Q1010 NOSIG
ZJSY,2003-07-17 02:00,ZJSY 170200Z 21002MPS 9999 SCT016 30/24 Q1010 NOSIG
ZJSY,2003-07-17 03:00,ZJSY 170300Z 18002MPS 9999 FEW016 31/25 Q1010 NOSIG
ZJSY,2003-07-17 04:00,ZJSY 170400Z 18003MPS 9999 FEW016 31/24 Q1010 NOSIG
ZJSY,2003-07-17 05:00,ZJSY 170500Z 19003MPS 9999 FEW016 31/24 Q1009 NOSIG
ZJSY,2003-07-17 06:00,ZJSY 170600Z 19003MPS 9999 FEW016 31/25 Q1008 NOSIG
ZJSY,2003-07-17 07:00,ZJSY 170700Z 19004MPS CAVOK 31/24 Q1008 NOSIG
ZJSY,2003-07-17 08:00,ZJSY 170800Z 19003MPS CAVOK 31/24 Q1008 NOSIG
ZJSY,2003-07-17 09:00,ZJSY 170900Z 19003MPS CAVOK 31/24 Q1007 NOSIG
ZJSY,2003-07-17 10:00,ZJSY 171000Z 20002MPS CAVOK 30/24 Q1007 NOSIG
ZJSY,2003-07-17 11:00,ZJSY 171100Z 15001MPS CAVOK 30/24 Q1007 NOSIG
ZJSY,2003-07-17 12:00,ZJSY 171200Z 13001MPS CAVOK 29/24 Q1007 NOSIG
ZJSY,2003-07-17 13:00,ZJSY 171300Z 11001MPS CAVOK 29/24 Q1007 NOSIG
ZJSY,2003-07-17 14:00,ZJSY 171400Z 35002MPS CAVOK 28/24 Q1008 NOSIG
ZJSY,2003-07-17 15:00,ZJSY 171500Z 33002MPS CAVOK 27/24 Q1008 NOSIG
ZJSY,2003-07-17 16:00,ZJSY 171600Z 35002MPS CAVOK 27/24 Q1008 NOSIG
ZJSY,2003-07-17 17:00,ZJSY 171700Z AUTO 33002MPS //// // ////// 26/24 Q1008 NOSIG
ZJSY,2003-07-17 18:00,ZJSY 171800Z AUTO 34002MPS //// // ////// 26/24 Q1007 NOSIG
ZJSY,2003-07-17 19:00,ZJSY 171900Z AUTO 34002MPS //// // ////// 26/24 Q1006 NOSIG
ZJSY,2003-07-17 20:00,ZJSY 172000Z AUTO 31001MPS //// // ////// 26/24 Q1006 NOSIG
ZJSY,2003-07-17 21:00,ZJSY 172100Z AUTO 34002MPS //// // ////// 26/24 Q1007 NOSIG
ZJSY,2003-07-17 22:00,ZJSY 172200Z 34002MPS CAVOK 26/24 Q1007 NOSIG
ZJSY,2003-07-17 23:00,ZJSY 172300Z AUTO 34001MPS //// // ////// 27/24 Q1007 NOSIG
ZJSY,2003-07-18 00:00,ZJSY 180000Z 36001MPS 9999 FEW018 29/25 Q1007 NOSIG
ZJSY,2003-07-18 01:00,ZJSY 180100Z 15001MPS 9999 FEW015 30/25 Q1007 NOSIG
ZJSY,2003-07-18 02:00,ZJSY 180200Z 16002MPS 9999 FEW018 30/24 Q1008 NOSIG
ZJSY,2003-07-18 03:00,ZJSY 180300Z 17002MPS 9999 FEW018 31/24 Q1007 NOSIG
ZJSY,2003-07-18 04:00,ZJSY 180400Z 19003MPS 9999 FEW018 31/24 Q1007 NOSIG
ZJSY,2003-07-18 05:00,ZJSY 180500Z 21003MPS CAVOK 31/24 Q1006 NOSIG
ZJSY,2003-07-18 06:00,ZJSY 180600Z 20004MPS CAVOK 31/25 Q1005 NOSIG
ZJSY,2003-07-18 07:00,ZJSY 180700Z 20004MPS CAVOK 31/24 Q1005 NOSIG
ZJSY,2003-07-18 08:00,ZJSY 180800Z 21003MPS CAVOK 31/25 Q1004 NOSIG
ZJSY,2003-07-18 09:00,ZJSY 180900Z 20003MPS CAVOK 31/24 Q1004 NOSIG
ZJSY,2003-07-18 10:00,ZJSY 181000Z 19002MPS CAVOK 30/24 Q1004 NOSIG
ZJSY,2003-07-18 11:00,ZJSY 181100Z 16001MPS CAVOK 30/24 Q1004 NOSIG
ZJSY,2003-07-18 12:00,ZJSY 181200Z 11001MPS 9999 FEW025CB 29/24 Q1004 NOSIG
ZJSY,2003-07-18 13:00,ZJSY 181300Z 11001MPS CAVOK 29/24 Q1005 NOSIG
ZJSY,2003-07-18 14:00,ZJSY 181400Z 34002MPS CAVOK 28/24 Q1005 NOSIG
ZJSY,2003-07-18 15:00,ZJSY 181500Z 34002MPS CAVOK 27/24 Q1006 NOSIG
ZJSY,2003-07-18 16:00,ZJSY 181600Z 34001MPS CAVOK 27/24 Q1005 NOSIG
ZJSY,2003-07-18 17:00,ZJSY 181700Z AUTO 35001MPS //// // ////// 27/24 Q1006 NOSIG
ZJSY,2003-07-18 18:00,ZJSY 181800Z AUTO 08001MPS //// // ////// 27/24 Q1005 NOSIG
ZJSY,2003-07-18 19:00,ZJSY 181900Z AUTO 00000MPS //// // ////// 27/24 Q1005 NOSIG
ZJSY,2003-07-18 20:00,ZJSY 182000Z AUTO 35001MPS //// // ////// 27/24 Q1004 NOSIG
ZJSY,2003-07-18 21:00,ZJSY 182100Z AUTO 34002MPS //// // ////// 26/24 Q1004 NOSIG
ZJSY,2003-07-18 22:00,ZJSY 182200Z 35001MPS 9999 FEW013 26/24 Q1004 NOSIG
ZJSY,2003-07-18 23:00,ZJSY 182300Z 32002MPS 9999 SCT015 SCT043 BKN230 27/24 Q1005 NOSIG
ZJSY,2003-07-19 00:00,ZJSY 190000Z 34001MPS CAVOK 29/25 Q1005 NOSIG
ZJSY,2003-07-19 01:00,ZJSY 190100Z 09001MPS 9999 FEW016 BKN230 31/24 Q1005 NOSIG
ZJSY,2003-07-19 02:00,ZJSY 190200Z 17002MPS 9999 FEW016 BKN230 30/24 Q1005 NOSIG
ZJSY,2003-07-19 03:00,ZJSY 190300Z 18003MPS 9999 FEW016 SCT230 31/24 Q1004 NOSIG
ZJSY,2003-07-19 04:00,ZJSY 190400Z 20003MPS 9999 FEW016 SCT230 31/24 Q1004 NOSIG
ZJSY,2003-07-19 05:00,ZJSY 190500Z 19003MPS CAVOK 31/24 Q1003 NOSIG
ZJSY,2003-07-19 06:00,ZJSY 190600Z 19003MPS CAVOK 31/24 Q1003 NOSIG
ZJSY,2003-07-19 07:00,ZJSY 190700Z 16003MPS CAVOK 31/24 Q1003 NOSIG
ZJSY,2003-07-19 08:00,ZJSY 190800Z 16004MPS 9999 FEW023TCU BKN230 31/24 Q1003 NOSIG
ZJSY,2003-07-19 09:00,ZJSY 190900Z 15003MPS CAVOK 31/25 Q1002 NOSIG
ZJSY,2003-07-19 10:00,ZJSY 191000Z 15003MPS 9999 FEW016 FEW023TCU BKN230 30/24 Q1002 NOSIG
ZJSY,2003-07-19 11:00,ZJSY 191100Z 08003MPS 9999 FEW016 BKN230 30/24 Q1002 NOSIG
ZJSY,2003-07-19 12:00,ZJSY 191200Z 10003MPS CAVOK 29/24 Q1002 NOSIG
ZJSY,2003-07-19 13:00,ZJSY 191300Z 08003MPS CAVOK 29/24 Q1003 NOSIG
ZJSY,2003-07-19 14:00,ZJSY 191400Z 06003MPS CAVOK 28/24 Q1003 NOSIG
ZJSY,2003-07-19 15:00,ZJSY 191500Z 08002MPS CAVOK 28/24 Q1004 NOSIG
ZJSY,2003-07-19 16:00,ZJSY 191600Z 06003MPS CAVOK 27/24 Q1004 NOSIG
ZJSY,2003-07-19 17:00,ZJSY 191700Z 04002MPS CAVOK 28/24 Q1004 NOSIG
ZJSY,2003-07-19 18:00,ZJSY 191800Z AUTO 05002MPS //// // ////// 27/24 Q1004 NOSIG
ZJSY,2003-07-19 19:00,ZJSY 191900Z AUTO 06002MPS //// // ////// 27/24 Q1004 NOSIG
ZJSY,2003-07-19 20:00,ZJSY 192000Z AUTO 34003MPS //// // ////// 26/24 Q1003 NOSIG
ZJSY,2003-07-19 21:00,ZJSY 192100Z AUTO 35002MPS //// // ////// 26/23 Q1003 NOSIG
ZJSY,2003-07-19 22:00,ZJSY 192200Z 36002MPS 9999 FEW016 26/23 Q1003 NOSIG
ZJSY,2003-07-19 23:00,ZJSY 192300Z 36001MPS 9999 SCT043 26/23 Q1003 NOSIG
ZJSY,2003-07-20 00:00,ZJSY 200000Z 33002MPS 9999 SCT043 28/23 Q1004 NOSIG
ZJSY,2003-07-20 01:00,ZJSY 200100Z 34002MPS CAVOK 30/23 Q1004 NOSIG
ZJSY,2003-07-20 02:00,ZJSY 200200Z 25001MPS CAVOK 32/23 Q1004 NOSIG
ZJSY,2003-07-20 03:00,ZJSY 200300Z 22003MPS CAVOK 32/23 Q1004 NOSIG
ZJSY,2003-07-20 04:00,ZJSY 200400Z 20004MPS CAVOK 32/22 Q1004 NOSIG
ZJSY,2003-07-20 05:00,ZJSY 200500Z 22004MPS CAVOK 32/22 Q1003 NOSIG
ZJSY,2003-07-20 06:00,ZJSY 200600Z 20003MPS 9999 FEW020 BKN210 32/24 Q1002 NOSIG
ZJSY,2003-07-20 07:00,ZJSY 200700Z 20003MPS 9999 FEW020 BKN200 31/25 Q1001 NOSIG
ZJSY,2003-07-20 08:00,ZJSY 200800Z 20003MPS 9999 FEW020 BKN200 31/25 Q1001 NOSIG
ZJSY,2003-07-20 09:00,ZJSY 200900Z 19002MPS 9999 FEW020 BKN200 30/25 Q1001 NOSIG
ZJSY,2003-07-20 10:00,ZJSY 201000Z 14002MPS 9999 BKN013 SCT020 30/25 Q1001 NOSIG
ZJSY,2003-07-20 11:00,ZJSY 201100Z 09002MPS 9999 SCT013 BKN200 30/23 Q1001
ZJSY,2003-07-20 12:00,ZJSY 201200Z 07001MPS 9999 FEW013 BKN200 30/24 Q1002
ZJSY,2003-07-20 13:00,ZJSY 201300Z 35001MPS 9999 FEW013 BKN200 29/25 Q1003
ZJSY,2003-07-20 14:00,ZJSY 201400Z 31002MPS 9999 SCT013 BKN200 28/24 Q1003
ZJSY,2003-07-20 15:00,ZJSY 201500Z 33002MPS 9999 SCT013 BKN200 28/24 Q1003
ZJSY,2003-07-20 16:00,ZJSY 201600Z 34001MPS 9999 SCT013 BKN200 28/24 Q1003
ZJSY,2003-07-20 17:00,ZJSY 201700Z 32003MPS 9999 SCT013 BKN200 28/24 Q1002
ZJSY,2003-07-20 18:00,ZJSY 201800Z AUTO 34001MPS //// // ////// 29/23 Q1001
ZJSY,2003-07-20 19:00,ZJSY 201900Z AUTO 15001MPS //// // ////// 28/23 Q1001
ZJSY,2003-07-20 20:00,ZJSY 202000Z AUTO 22002MPS //// // ////// 29/24 Q1000
ZJSY,2003-07-20 21:00,ZJSY 202100Z AUTO 25002MPS //// // ////// 29/23 Q1000
ZJSY,2003-07-20 22:00,ZJSY 202200Z 22001MPS 9999 BKN040 28/23 Q1000
ZJSY,2003-07-20 23:00,ZJSY 202300Z 29004MPS 9999 FEW013 BKN040 OVC200 29/22 Q0999
ZJSY,2003-07-21 00:00,ZJSY 210000Z 30004MPS 9999 FEW013 BKN040 OVC200 30/22 Q0999
ZJSY,2003-07-21 01:00,ZJSY 210100Z 32004MPS 9999 SCT013 BKN040 OVC200 30/22 Q0999
ZJSY,2003-07-21 02:00,ZJSY 210200Z 26004MPS 9999 SCT013 BKN040 OVC200 29/22 Q0999
ZJSY,2003-07-21 03:00,ZJSY 210300Z 24003MPS 7000 -RA SCT013 OVC033 27/24 Q0999
ZJSY,2003-07-21 04:00,ZJSY 210400Z 30004MPS 8000 -RA SCT013 OVC033 28/25 Q0999 NOSIG
ZJSY,2003-07-21 05:00,ZJSY 210500Z 28008MPS 9999 SCT013 OVC033 28/24 Q0997 NOSIG
ZJSY,2003-07-21 06:00,ZJSY 210600Z 28007MPS 9999 FEW010 SCT015 OVC033 28/23 Q0996 NOSIG
ZJSY,2003-07-21 07:00,ZJSY 210700Z 26009G14MPS 9999 SCT010 SCT015 OVC033 27/24 Q0995 NOSIG
ZJSY,2003-07-21 08:00,ZJSY 210800Z 27009MPS 9999 BKN008 SCT015 OVC033 27/24 Q0994 NOSIG
ZJSY,2003-07-21 09:00,ZJSY 210900Z 27009G15MPS 7000 BKN008 SCT015 FEW025CB OVC033 28/25 Q0992 NOSIG
ZJSY,2003-07-21 10:00,ZJSY 211000Z 27009G14MPS 5000 -RA BKN008 SCT015 OVC033 27/24 Q0992 NOSIG
ZJSY,2003-07-21 11:00,ZJSY 211100Z 26013G18MPS 2000 +RA BKN008 BKN015 OVC030 27/24 Q0990 NOSIG
ZJSY,2003-07-21 12:00,ZJSY 211200Z 26015G21MPS 1500 +RA BKN008 BKN015 OVC030 26/24 Q0990 NOSIG
ZJSY,2003-07-21 13:00,ZJSY 211300Z 26016MPS 1500 +RA BKN008 BKN015 OVC030 25/24 Q0991 NOSIG
ZJSY,2003-07-21 14:00,ZJSY 211400Z 26013G19MPS 1500 +RA BKN008 BKN015 OVC030 25/24 Q0991 NOSIG
ZJSY,2003-07-21 15:00,ZJSY 211500Z 25013G18MPS 1000 +RA BKN008 BKN015 OVC030 25/24 Q0992 NOSIG
ZJSY,2003-07-21 16:00,ZJSY 211600Z 23012G17MPS 1000 +RA BKN008 BKN015 OVC030 26/24 Q0994 NOSIG
ZJSY,2003-07-21 17:00,ZJSY 211700Z AUTO 21014G20MPS //// // ////// 25/24 Q0995 NOSIG
ZJSY,2003-07-21 18:00,ZJSY 211800Z AUTO 21009MPS //// // ////// 26/24 Q0997 NOSIG
ZJSY,2003-07-21 19:00,ZJSY 211900Z AUTO 20007MPS //// // ////// 26/23 Q0998 NOSIG
ZJSY,2003-07-21 20:00,ZJSY 212000Z AUTO 18004MPS //// // ////// 26/24 Q0999 NOSIG
ZJSY,2003-07-21 21:00,ZJSY 212100Z AUTO 15004MPS //// // ////// 26/24 Q0999 NOSIG
ZJSY,2003-07-21 22:00,ZJSY 212200Z 18005MPS 6000 -RA BKN010 OVC033 25/23 Q1000 NOSIG
ZJSY,2003-07-21 23:00,ZJSY 212300Z 12002MPS 9000 -RA BKN007 SCT020TCU OVC033 25/23 Q1000 NOSIG
ZJSY,2003-07-22 00:00,ZJSY 220000Z 17004MPS 4000 RA BKN007 SCT020TCU OVC033 25/23 Q1001 NOSIG
ZJSY,2003-07-22 01:00,ZJSY 220100Z 09002MPS 4000 -RA FEW007 SCT013 OVC033 25/23 Q1002
ZJSY,2003-07-22 02:00,ZJSY 220200Z 05003MPS 4000 -RA SCT007 OVC033 26/24 Q1003
ZJSY,2003-07-22 03:00,ZJSY 220300Z 04001MPS 5000 -RA BKN007 OVC033 27/24 Q1002 TEMPO 2000 RA
ZJSY,2003-07-22 04:00,ZJSY 220400Z 09004MPS 4000 -RA BKN007 OVC033 27/25 Q1002
ZJSY,2003-07-22 05:00,ZJSY 220500Z 13003MPS 4000 SCT007 FEW020TCU OVC033 28/26 Q1003 RERA
ZJSY,2003-07-22 06:00,ZJSY 220600Z 29005MPS 4000 BKN007 OVC033 26/24 Q1002
ZJSY,2003-07-22 07:00,ZJSY 220700Z 32002MPS 5000 SCT008 FEW020CB BKN033 26/24 Q1002 RERA
ZJSY,2003-07-22 08:00,ZJSY 220800Z 34004MPS 6000 SCT008 BKN033 27/24 Q1002
ZJSY,2003-07-22 09:00,ZJSY 220900Z 35001MPS 6000 FEW020 SCT120 BKN230 28/25 Q1002
ZJSY,2003-07-22 11:00,ZJSY 221100Z 35002MPS 9999 SCT018 BKN230 28/25 Q1002 NOSIG
ZJSY,2003-07-22 12:00,ZJSY 221200Z 04002MPS 9999 SCT018 BKN210 28/25 Q1002 NOSIG
ZJSY,2003-07-22 13:00,ZJSY 221300Z 07004MPS 9999 SCT018 BKN210 27/25 Q1003 NOSIG
ZJSY,2003-07-22 14:00,ZJSY 221400Z 09003MPS 9999 SCT018 BKN210 28/26 Q1003 NOSIG
ZJSY,2003-07-22 15:00,ZJSY 221500Z 09004MPS CAVOK 28/25 Q1004 NOSIG
ZJSY,2003-07-22 16:00,ZJSY 221600Z 09002MPS CAVOK 28/25 Q1004 NOSIG
ZJSY,2003-07-22 17:00,ZJSY 221700Z 07002MPS CAVOK 27/25 Q1004 NOSIG
ZJSY,2003-07-22 18:00,ZJSY 221800Z AUTO 09003MPS //// // ////// 27/25 Q1003 NOSIG
ZJSY,2003-07-22 19:00,ZJSY 221900Z AUTO 06004MPS //// // ////// 27/24 Q1003 NOSIG
ZJSY,2003-07-22 20:00,ZJSY 222000Z AUTO 09001MPS //// // ////// 27/24 Q1003 NOSIG
ZJSY,2003-07-22 21:00,ZJSY 222100Z AUTO 05002MPS //// // ////// 26/24 Q1003 NOSIG
ZJSY,2003-07-22 22:00,ZJSY 222200Z 08002MPS CAVOK 26/24 Q1003 NOSIG
ZJSY,2003-07-22 23:00,ZJSY 222300Z 33001MPS CAVOK 26/23 Q1003 NOSIG
ZJSY,2003-07-23 00:00,ZJSY 230000Z 28001MPS CAVOK 28/23 Q1003 NOSIG
ZJSY,2003-07-23 01:00,ZJSY 230100Z 16001MPS CAVOK 28/24 Q1004 NOSIG
ZJSY,2003-07-23 02:00,ZJSY 230200Z 22002MPS CAVOK 29/24 Q1003 NOSIG
ZJSY,2003-07-23 03:00,ZJSY 230300Z 23003MPS CAVOK 30/25 Q1003 NOSIG
ZJSY,2003-07-23 04:00,ZJSY 230400Z 25005MPS CAVOK 31/25 Q1002 NOSIG
ZJSY,2003-07-23 05:00,ZJSY 230500Z 24005MPS CAVOK 31/25 Q1002 NOSIG
ZJSY,2003-07-23 06:00,ZJSY 230600Z 25007MPS CAVOK 31/24 Q1001 NOSIG
ZJSY,2003-07-23 07:00,ZJSY 230700Z 25005MPS 9999 FEW016 BKN230 32/24 Q1000 NOSIG
ZJSY,2003-07-23 08:00,ZJSY 230800Z 26006MPS 9999 FEW013 FEW026CB BKN230 33/24 Q0999 NOSIG
ZJSY,2003-07-23 09:00,ZJSY 230900Z 27002MPS 9999 -TS SCT013 SCT026CB BKN230 31/25 Q0999 NOSIG
ZJSY,2003-07-23 10:00,ZJSY 231000Z 34004G10MPS 5000 -TSRA SCT011 FEW026CB BKN230 30/25 Q0999 NOSIG
ZJSY,2003-07-23 11:00,ZJSY 231100Z 26001MPS 8000 SCT015 SCT033 BKN230 28/25 Q0998 RETS NOSIG
ZJSY,2003-07-23 12:00,ZJSY 231200Z 26003MPS 8000 SCT016 SCT033 BKN230 29/25 Q0998 NOSIG
ZJSY,2003-07-23 13:00,ZJSY 231300Z 26004MPS 8000 SCT016 SCT033 OVC230 28/25 Q0999 NOSIG
ZJSY,2003-07-23 14:00,ZJSY 231400Z 26005MPS 8000 -RA SCT013 SCT033 OVC230 28/24 Q1000 NOSIG
ZJSY,2003-07-23 15:00,ZJSY 231500Z 26003MPS 8000 -RA SCT013 OVC033 29/24 Q1000 NOSIG
ZJSY,2003-07-23 16:00,ZJSY 231600Z 29003MPS 8000 -RA SCT013 OVC033 28/24 Q1000 NOSIG
ZJSY,2003-07-23 17:00,ZJSY 231700Z 30007MPS 8000 SCT016 OVC033 28/24 Q0999 RERA NOSIG
ZJSY,2003-07-23 18:00,ZJSY 231800Z AUTO 30005MPS //// // ////// 28/23 Q0998 NOSIG
ZJSY,2003-07-23 19:00,ZJSY 231900Z AUTO 30007MPS //// // ////// 28/21 Q0997 NOSIG
ZJSY,2003-07-23 20:00,ZJSY 232000Z AUTO 29005MPS //// // ////// 27/21 Q0997 NOSIG
ZJSY,2003-07-23 21:00,ZJSY 232100Z AUTO 30007MPS //// // ////// 27/22 Q0997 NOSIG
ZJSY,2003-07-23 22:00,ZJSY 232200Z 29007MPS 7000 -RA SCT011 OVC033 27/24 Q0996 NOSIG
ZJSY,2003-07-23 23:00,ZJSY 232300Z 27007MPS 8000 -RA SCT010 SCT011 FEW020TCU OVC033 28/24 Q0997 NOSIG
ZJSY,2003-07-24 00:00,ZJSY 240000Z 28006MPS 7000 -RA SCT010 FEW026CB OVC033 27/23 Q0998 RERA NOSIG
ZJSY,2003-07-24 01:00,ZJSY 240100Z 26006MPS 4000 RA BKN010 SCT020TCU OVC033 26/23 Q0999 NOSIG
ZJSY,2003-07-24 02:00,ZJSY 240200Z 26006MPS 5000 -RA BKN008 SCT020TCU OVC033 26/23 Q1000 RERA NOSIG
ZJSY,2003-07-24 03:00,ZJSY 240300Z 25004MPS 8000 -RA SCT009 BKN020 OVC033 26/24 Q1000 NOSIG
ZJSY,2003-07-24 04:00,ZJSY 240400Z 26003MPS 1000 +RA BKN007 BKN020 FEW023CB OVC030 25/23 Q1000 NOSIG
ZJSY,2003-07-24 05:00,ZJSY 240500Z 23006MPS 1500 +TSRA BKN007 BKN020 FEW023CB OVC030 25/24 Q1000 NOSIG
ZJSY,2003-07-24 06:00,ZJSY 240600Z 26006MPS 7000 -RA BKN009 BKN020 OVC030 26/24 Q0999 RETSRA
ZJSY,2003-07-24 07:00,ZJSY 240700Z 26006MPS 9999 -RA SCT010 BKN020 OVC030 27/24 Q1000
ZJSY,2003-07-24 08:00,ZJSY 240800Z 24004MPS 9999 SCT010 BKN016 OVC030 28/25 Q0999
ZJSY,2003-07-24 09:00,ZJSY 240900Z 26005MPS 9999 SCT011 OVC040 28/24 Q0999
ZJSY,2003-07-24 10:00,ZJSY 241000Z 26003MPS 9999 SCT010 OVC040 28/24 Q1000
ZJSY,2003-07-24 11:00,ZJSY 241100Z 27002MPS 9999 SCT010 OVC040 27/24 Q1001
ZJSY,2003-07-24 12:00,ZJSY 241200Z 11001MPS 9999 SCT010 OVC040 27/24 Q1001
ZJSY,2003-07-24 14:00,ZJSY 241400Z 36001MPS 9999 FEW010 OVC040 27/24 Q1003
ZJSY,2003-07-24 15:00,ZJSY 241500Z 09001MPS 9999 BKN010 BKN046 27/24 Q1004
ZJSY,2003-07-24 16:00,ZJSY 241600Z 08002MPS 9999 -RA BKN010 OVC040 27/24 Q1005
ZJSY,2003-07-24 17:00,ZJSY 241700Z 06002MPS 9999 -RA BKN010 OVC040 27/24 Q1004
ZJSY,2003-07-24 18:00,ZJSY 241800Z 15002MPS 9999 BKN010 OVC040 27/24 Q1004
ZJSY,2003-07-24 19:00,ZJSY 241900Z 08002MPS 9999 SCT010 OVC040 27/24 Q1003
ZJSY,2003-07-24 20:00,ZJSY 242000Z 09002MPS 9999 SCT013 OVC040 28/24 Q1003
ZJSY,2003-07-24 21:00,ZJSY 242100Z 10001MPS 9999 FEW013 OVC040 28/24 Q1003
ZJSY,2003-07-24 22:00,ZJSY 242200Z 27001MPS 9999 FEW013 OVC040 27/24 Q1003
ZJSY,2003-07-24 23:00,ZJSY 242300Z 26002MPS 9999 OVC040 28/24 Q1004
ZJSY,2003-07-25 00:00,ZJSY 250000Z 33001MPS 9999 SCT033 OVC040 28/25 Q1005
ZJSY,2003-07-25 01:00,ZJSY 250100Z 00000MPS 9999 SCT040 OVC050 29/24 Q1006
ZJSY,2003-07-25 02:00,ZJSY 250200Z 09001MPS 9999 SCT040 OVC050 29/25 Q1006
ZJSY,2003-07-25 03:00,ZJSY 250300Z 24001MPS CAVOK 30/24 Q1006
ZJSY,2003-07-25 04:00,ZJSY 250400Z 16002MPS CAVOK 30/25 Q1006
ZJSY,2003-07-25 05:00,ZJSY 250500Z 22003MPS CAVOK 32/24 Q1006
ZJSY,2003-07-25 06:00,ZJSY 250600Z 23002MPS CAVOK 31/23 Q1006
ZJSY,2003-07-25 08:00,ZJSY 250800Z 26004MPS CAVOK 31/22 Q1005
ZJSY,2003-07-25 09:00,ZJSY 250900Z 28004MPS CAVOK 31/23 Q1005
ZJSY,2003-07-25 10:00,ZJSY 251000Z 26003MPS CAVOK 30/22 Q1005
ZJSY,2003-07-25 11:00,ZJSY 251100Z 20001MPS CAVOK 30/22 Q1006
ZJSY,2003-07-25 12:00,ZJSY 251200Z 00000MPS CAVOK 29/23 Q1006
ZJSY,2003-07-25 13:00,ZJSY 251300Z 07002MPS CAVOK 28/23 Q1007
ZJSY,2003-07-25 14:00,ZJSY 251400Z 04003MPS CAVOK 28/24 Q1008
ZJSY,2003-07-25 15:00,ZJSY 251500Z 06003MPS CAVOK 28/23 Q1009
ZJSY,2003-07-25 17:00,ZJSY 251700Z AUTO 06002MPS //// // ////// 27/23 Q1008
ZJSY,2003-07-25 18:00,ZJSY 251800Z AUTO 06002MPS //// // ////// 26/23 Q1008
ZJSY,2003-07-25 19:00,ZJSY 251900Z AUTO 06003MPS //// // ////// 27/24 Q1008
ZJSY,2003-07-25 20:00,ZJSY 252000Z AUTO 05002MPS //// // ////// 28/24 Q1008
ZJSY,2003-07-25 21:00,ZJSY 252100Z AUTO 06003MPS //// // ////// 27/24 Q1008
ZJSY,2003-07-25 22:00,ZJSY 252200Z 05001MPS CAVOK 27/24 Q1009
ZJSY,2003-07-25 23:00,ZJSY 252300Z 06002MPS 9999 FEW018 27/24 Q1009
ZJSY,2003-07-26 00:00,ZJSY 260000Z 08002MPS 9999 FEW018 29/25 Q1010
ZJSY,2003-07-26 01:00,ZJSY 260100Z 08003MPS 9999 FEW018 30/25 Q1010
ZJSY,2003-07-26 02:00,ZJSY 260200Z 14002MPS 9999 FEW018 31/25 Q1010
ZJSY,2003-07-26 03:00,ZJSY 260300Z 16003MPS 9999 SCT018 31/24 Q1010
ZJSY,2003-07-26 04:00,ZJSY 260400Z 16003MPS 9999 SCT018 31/25 Q1010
ZJSY,2003-07-26 05:00,ZJSY 260500Z 16003MPS 9999 FEW018 31/25 Q1009
ZJSY,2003-07-26 06:00,ZJSY 260600Z 18003MPS CAVOK 30/26 Q1009
ZJSY,2003-07-26 07:00,ZJSY 260700Z 18003MPS CAVOK 30/26 Q1008
ZJSY,2003-07-26 08:00,ZJSY 260800Z 16003MPS CAVOK 30/26 Q1008
ZJSY,2003-07-26 09:00,ZJSY 260900Z 16003MPS CAVOK 30/26 Q1007
ZJSY,2003-07-26 10:00,ZJSY 261000Z 16003MPS 9999 FEW018 29/26 Q1007
ZJSY,2003-07-26 11:00,ZJSY 261100Z 14003MPS 9999 FEW018 29/25 Q1008
ZJSY,2003-07-26 12:00,ZJSY 261200Z 13003MPS 9999 FEW018 29/25 Q1008
ZJSY,2003-07-26 13:00,ZJSY 261300Z 10002MPS CAVOK 29/25 Q1009
ZJSY,2003-07-26 14:00,ZJSY 261400Z 06002MPS 9999 SCT015 29/25 Q1010
ZJSY,2003-07-26 15:00,ZJSY 261500Z 08003MPS CAVOK 28/25 Q1011
ZJSY,2003-07-26 16:00,ZJSY 261600Z 05003MPS CAVOK 28/25 Q1011
ZJSY,2003-07-26 17:00,ZJSY 261700Z AUTO 06002MPS //// // ////// 28/25 Q1011
ZJSY,2003-07-26 21:00,ZJSY 262100Z AUTO 04002MPS //// // ////// 27/24 Q1009
ZJSY,2003-07-26 22:00,ZJSY 262200Z 06002MPS CAVOK 27/24 Q1010
ZJSY,2003-07-26 23:00,ZJSY 262300Z 02001MPS 9999 FEW015 SCT260 27/24 Q1010
ZJSY,2003-07-27 00:00,ZJSY 270000Z 06002MPS CAVOK 29/24 Q1010
ZJSY,2003-07-27 01:00,ZJSY 270100Z 09003MPS 9999 FEW015 SCT260 30/25 Q1011
ZJSY,2003-07-27 02:00,ZJSY 270200Z 13003MPS 9999 FEW015 FEW020TCU SCT260 31/24 Q1011
ZJSY,2003-07-27 04:00,ZJSY 270400Z 14003MPS 9999 FEW018 SCT260 30/24 Q1011
ZJSY,2003-07-27 05:00,ZJSY 270500Z 16003MPS 9999 FEW018 31/24 Q1010
ZJSY,2003-07-27 06:00,ZJSY 270600Z 17003MPS 9999 FEW018 31/25 Q1010
ZJSY,2003-07-27 07:00,ZJSY 270700Z 16003MPS 9999 FEW018 30/24 Q1009
ZJSY,2003-07-27 08:00,ZJSY 270800Z 17004MPS 9999 FEW018 FEW023TCU 30/26 Q1008
ZJSY,2003-07-27 09:00,ZJSY 270900Z 16003MPS 9999 FEW018 FEW021TCU 29/25 Q1007
ZJSY,2003-07-27 10:00,ZJSY 271000Z 15004MPS 9999 FEW018 FEW020TCU 30/25 Q1007
ZJSY,2003-07-27 11:00,ZJSY 271100Z 21002MPS 9999 SCT018 FEW020TCU 29/25 Q1007
ZJSY,2003-07-27 12:00,ZJSY 271200Z 15002MPS 9999 FEW018 FEW020TCU 28/25 Q1007
ZJSY,2003-07-27 13:00,ZJSY 271300Z 10001MPS 9999 FEW018 SCT230 28/24 Q1008
ZJSY,2003-07-27 14:00,ZJSY 271400Z 34001MPS 9999 FEW016 SCT230 28/25 Q1010
ZJSY,2003-07-27 15:00,ZJSY 271500Z 12001MPS 9999 FEW016 SCT230 28/24 Q1010
ZJSY,2003-07-27 16:00,ZJSY 271600Z 02001MPS 9999 FEW016 SCT230 27/24 Q1011
ZJSY,2003-07-27 17:00,ZJSY 271700Z 36001MPS 9999 FEW016 27/24 Q1010
ZJSY,2003-07-27 18:00,ZJSY 271800Z AUTO 34002MPS //// // ////// 26/24 Q1009
ZJSY,2003-07-27 19:00,ZJSY 271900Z AUTO 04002MPS //// // ////// 27/24 Q1009
ZJSY,2003-07-27 20:00,ZJSY 272000Z AUTO 32001MPS //// // ////// 26/23 Q1009
ZJSY,2003-07-27 21:00,ZJSY 272100Z AUTO 05002MPS //// // ////// 27/23 Q1009
ZJSY,2003-07-27 22:00,ZJSY 272200Z 10002MPS 9999 FEW016 SCT040 26/23 Q1009
ZJSY,2003-07-27 23:00,ZJSY 272300Z 35001MPS CAVOK 26/23 Q1009
ZJSY,2003-07-28 00:00,ZJSY 280000Z 02001MPS CAVOK 28/24 Q1009
ZJSY,2003-07-28 01:00,ZJSY 280100Z 08003MPS CAVOK 30/24 Q1010
ZJSY,2003-07-28 02:00,ZJSY 280200Z 11002MPS 9999 SCT020 30/24 Q1010
ZJSY,2003-07-28 06:00,ZJSY 280600Z 19004MPS 9999 SCT020 30/25 Q1009
ZJSY,2003-07-28 07:00,ZJSY 280700Z 18004MPS 9999 FEW020 30/25 Q1008
ZJSY,2003-07-28 08:00,ZJSY 280800Z 19003MPS 9999 FEW020 30/25 Q1007
ZJSY,2003-07-28 09:00,ZJSY 280900Z 21002MPS 9999 SCT020 30/24 Q1007
ZJSY,2003-07-28 10:00,ZJSY 281000Z 19001MPS 9999 FEW013 FEW023CB BKN200 29/24 Q1007 NOSIG
ZJSY,2003-07-28 11:00,ZJSY 281100Z 19001MPS 9999 FEW013 FEW023CB BKN200 28/25 Q1007 NOSIG
ZJSY,2003-07-28 12:00,ZJSY 281200Z 18001MPS 9999 FEW013 FEW023CB BKN200 28/25 Q1008 NOSIG
ZJSY,2003-07-28 13:00,ZJSY 281300Z 10002MPS 9999 -RA SCT010 FEW023CB BKN200 28/25 Q1009 NOSIG
ZJSY,2003-07-28 14:00,ZJSY 281400Z 04002MPS CAVOK 28/25 Q1009 NOSIG
ZJSY,2003-07-28 15:00,ZJSY 281500Z 35002MPS CAVOK 27/24 Q1010 NOSIG
ZJSY,2003-07-28 16:00,ZJSY 281600Z 35001MPS CAVOK 26/24 Q1010 NOSIG
ZJSY,2003-07-28 17:00,ZJSY 281700Z AUTO 33002MPS //// // ////// 26/24 Q1009 NOSIG
ZJSY,2003-07-28 18:00,ZJSY 281800Z AUTO 33002MPS //// // ////// 26/24 Q1009 NOSIG
ZJSY,2003-07-28 19:00,ZJSY 281900Z AUTO 33002MPS //// // ////// 26/23 Q1008 NOSIG
ZJSY,2003-07-28 20:00,ZJSY 282000Z AUTO 34001MPS //// // ////// 26/24 Q1008 NOSIG
ZJSY,2003-07-28 21:00,ZJSY 282100Z AUTO 33002MPS //// // ////// 26/24 Q1008 NOSIG
ZJSY,2003-07-28 22:00,ZJSY 282200Z 32001MPS 9999 FEW013 BKN050 26/23 Q1008 NOSIG
ZJSY,2003-07-28 23:00,ZJSY 282300Z 34001MPS CAVOK 26/24 Q1008 NOSIG
ZJSY,2003-07-29 00:00,ZJSY 290000Z 00000MPS CAVOK 27/24 Q1009 NOSIG
ZJSY,2003-07-29 01:00,ZJSY 290100Z 00000MPS 9999 FEW020TCU BKN100 29/24 Q1009 NOSIG
ZJSY,2003-07-29 02:00,ZJSY 290200Z 14001MPS 9999 FEW020 SCT120 BKN210 30/24 Q1009 NOSIG
ZJSY,2003-07-29 03:00,ZJSY 290300Z 18002MPS 9999 FEW020 SCT120 30/24 Q1009 NOSIG
ZJSY,2003-07-29 04:00,ZJSY 290400Z 18002MPS 9999 FEW020 FEW025CB 30/25 Q1009 NOSIG
ZJSY,2003-07-29 05:00,ZJSY 290500Z 18003MPS 9999 -TS BKN020 FEW025CB SCT210 29/25 Q1009 NOSIG
ZJSY,2003-07-29 06:00,ZJSY 290600Z 19003MPS 9999 -TS BKN020 FEW025CB SCT210 29/24 Q1008 NOSIG
ZJSY,2003-07-29 07:00,ZJSY 290700Z 16001MPS 9999 BKN020 FEW025CB SCT210 29/24 Q1007 RETS NOSIG
ZJSY,2003-07-29 08:00,ZJSY 290800Z 35002MPS 9999 BKN020 SCT030 29/25 Q1007 NOSIG
ZJSY,2003-07-29 09:00,ZJSY 290900Z 34001MPS 9999 BKN020 FEW025CB BKN033 29/24 Q1007 NOSIG
ZJSY,2003-07-29 10:00,ZJSY 291000Z 12002MPS 9999 BKN020 FEW025CB BKN050 28/23 Q1007 NOSIG
ZJSY,2003-07-29 11:00,ZJSY 291100Z 10002MPS 9999 SCT020 FEW025CB BKN050 BKN230 28/23 Q1007 NOSIG
ZJSY,2003-07-29 12:00,ZJSY 291200Z 06002MPS 9999 SCT020 FEW025CB BKN050 BKN230 28/23 Q1007 NOSIG
ZJSY,2003-07-29 13:00,ZJSY 291300Z 05002MPS 9999 FEW020 SCT050 BKN230 27/24 Q1008 NOSIG
ZJSY,2003-07-29 14:00,ZJSY 291400Z 05002MPS 9999 FEW020 SCT050 BKN230 27/24 Q1009 NOSIG
ZJSY,2003-07-29 15:00,ZJSY 291500Z 00000MPS 9999 FEW020 SCT230 26/24 Q1009 NOSIG
ZJSY,2003-07-29 16:00,ZJSY 291600Z 36001MPS 9999 FEW020 SCT230 26/23 Q1010 NOSIG
ZJSY,2003-07-29 17:00,ZJSY 291700Z AUTO 35002MPS //// // ////// 26/23 Q1009 NOSIG
ZJSY,2003-07-29 18:00,ZJSY 291800Z AUTO 32002MPS //// // ////// 26/23 Q1008 NOSIG
ZJSY,2003-07-29 19:00,ZJSY 291900Z AUTO 30001MPS //// // ////// 26/23 Q1007 NOSIG
ZJSY,2003-07-29 20:00,ZJSY 292000Z AUTO 34002MPS //// // ////// 26/24 Q1007 NOSIG
ZJSY,2003-07-29 21:00,ZJSY 292100Z AUTO 33003MPS //// // ////// 26/24 Q1007 NOSIG
ZJSY,2003-07-29 22:00,ZJSY 292200Z 32002MPS 9999 FEW015 BKN043 27/24 Q1007 NOSIG
ZJSY,2003-07-29 23:00,ZJSY 292300Z 33002MPS 9999 FEW015 BKN043 26/24 Q1007 NOSIG
ZJSY,2003-07-30 00:00,ZJSY 300000Z 12001MPS 9999 FEW015 SCT040 BKN060 28/24 Q1007 NOSIG
ZJSY,2003-07-30 01:00,ZJSY 300100Z 12001MPS 9999 BKN040 SCT120 29/25 Q1007 NOSIG
ZJSY,2003-07-30 02:00,ZJSY 300200Z 16001MPS 9999 FEW040 SCT120 29/25 Q1008 NOSIG
ZJSY,2003-07-30 03:00,ZJSY 300300Z 21002MPS 9999 FEW020 SCT120 30/25 Q1008 NOSIG
ZJSY,2003-07-30 04:00,ZJSY 300400Z 20003MPS 9999 FEW020 FEW021TCU 30/25 Q1007 NOSIG
ZJSY,2003-07-30 05:00,ZJSY 300500Z 20004MPS 9999 FEW020 FEW025CB 30/26 Q1007 NOSIG
ZJSY,2003-07-30 06:00,ZJSY 300600Z 22005MPS 9999 FEW020 FEW025CB 30/25 Q1006 NOSIG
ZJSY,2003-07-30 07:00,ZJSY 300700Z 23005MPS 9999 FEW016 FEW025CB 31/25 Q1006 NOSIG
ZJSY,2003-07-30 08:00,ZJSY 300800Z 25005MPS 9999 FEW016 FEW025CB SCT230 30/24 Q1005 NOSIG
ZJSY,2003-07-30 09:00,ZJSY 300900Z 24004MPS 9999 FEW016 SCT066 BKN230 30/24 Q1006 NOSIG
ZJSY,2003-07-30 10:00,ZJSY 301000Z 24003MPS 9999 FEW018 SCT100 BKN230 29/24 Q1005 NOSIG
ZJSY,2003-07-30 11:00,ZJSY 301100Z 29002MPS 9999 FEW018 BKN100 BKN230 29/24 Q1006 NOSIG
ZJSY,2003-07-30 12:00,ZJSY 301200Z 01002MPS CAVOK 28/24 Q1006 NOSIG
ZJSY,2003-07-30 13:00,ZJSY 301300Z 31001MPS CAVOK 27/24 Q1006 NOSIG
ZJSY,2003-07-30 14:00,ZJSY 301400Z 32001MPS CAVOK 27/24 Q1007 NOSIG
ZJSY,2003-07-30 15:00,ZJSY 301500Z 34002MPS CAVOK 26/23 Q1007 NOSIG
ZJSY,2003-07-30 16:00,ZJSY 301600Z 32002MPS CAVOK 26/23 Q1007 NOSIG
ZJSY,2003-07-30 17:00,ZJSY 301700Z AUTO 33003MPS //// // ////// 26/23 Q1007 NOSIG
ZJSY,2003-07-30 18:00,ZJSY 301800Z AUTO 34003MPS //// // ////// 26/23 Q1007 NOSIG
ZJSY,2003-07-30 19:00,ZJSY 301900Z AUTO 34002MPS //// // ////// 26/23 Q1006 NOSIG
ZJSY,2003-07-30 20:00,ZJSY 302000Z AUTO 33002MPS //// // ////// 26/23 Q1006 NOSIG
ZJSY,2003-07-30 21:00,ZJSY 302100Z AUTO 33002MPS //// // ////// 26/24 Q1006 NOSIG
ZJSY,2003-07-30 22:00,ZJSY 302200Z 31002MPS CAVOK 27/24 Q1006 NOSIG
ZJSY,2003-07-30 23:00,ZJSY 302300Z 31001MPS 9999 FEW020 SCT100 27/24 Q1006 NOSIG
ZJSY,2003-07-31 00:00,ZJSY 310000Z 32001MPS 9999 FEW020 SCT230 29/24 Q1006 NOSIG
ZJSY,2003-07-31 01:00,ZJSY 310100Z 24002MPS 9999 FEW013 29/24 Q1006 NOSIG
ZJSY,2003-07-31 02:00,ZJSY 310200Z 23003MPS 9999 FEW013 SCT016 29/25 Q1006 NOSIG
ZJSY,2003-07-31 03:00,ZJSY 310300Z 24004MPS 9999 FEW016 30/25 Q1006 NOSIG
ZJSY,2003-07-31 04:00,ZJSY 310400Z 23005MPS 9999 FEW016 31/25 Q1006 NOSIG
ZJSY,2003-07-31 05:00,ZJSY 310500Z 24005MPS 9999 FEW016 31/24 Q1006 NOSIG
ZJSY,2003-07-31 06:00,ZJSY 310600Z 23006MPS 9999 FEW016 30/24 Q1005 NOSIG
ZJSY,2003-07-31 07:00,ZJSY 310700Z 24006MPS CAVOK 31/24 Q1004 NOSIG
ZJSY,2003-07-31 08:00,ZJSY 310800Z 23006MPS 9999 FEW016 FEW023TCU 30/24 Q1004 NOSIG
ZJSY,2003-07-31 09:00,ZJSY 310900Z 24005MPS 9999 FEW013 FEW023TCU SCT200 30/25 Q1003 NOSIG
ZJSY,2003-07-31 10:00,ZJSY 311000Z 23002MPS 9999 FEW013 FEW025CB 29/24 Q1004 NOSIG
ZJSY,2003-07-31 11:00,ZJSY 311100Z 24003MPS 9999 FEW016 SCT230 29/24 Q1004 NOSIG
ZJSY,2003-07-31 12:00,ZJSY 311200Z 26002MPS 9999 FEW016 SCT230 28/24 Q1004 NOSIG
ZJSY,2003-07-31 13:00,ZJSY 311300Z 36001MPS 9999 FEW016 SCT230 28/24 Q1005 NOSIG
ZJSY,2003-07-31 14:00,ZJSY 311400Z 33001MPS 9999 FEW016 SCT230 28/24 Q1005 NOSIG
ZJSY,2003-07-31 15:00,ZJSY 311500Z 34001MPS 9999 FEW016 SCT230 28/24 Q1006 NOSIG
ZJSY,2003-07-31 16:00,ZJSY 311600Z 34003MPS CAVOK 27/23 Q1005 NOSIG
ZJSY,2003-07-31 17:00,ZJSY 311700Z 04001MPS CAVOK 28/22 Q1005 NOSIG
ZJSY,2003-07-31 18:00,ZJSY 311800Z 30001MPS 9999 FEW016 SCT230 27/23 Q1005 NOSIG
ZJSY,2003-07-31 19:00,ZJSY 311900Z 26001MPS CAVOK 27/22 Q1004 NOSIG
ZJSY,2003-07-31 20:00,ZJSY 312000Z AUTO 35001MPS //// // ////// 26/22 Q1004 NOSIG
ZJSY,2003-07-31 21:00,ZJSY 312100Z AUTO 13001MPS //// // ////// 27/23 Q1004 NOSIG
ZJSY,2003-07-31 22:00,ZJSY 312200Z 19001MPS 9999 FEW016 27/23 Q1005 NOSIG
ZJSY,2003-07-31 23:00,ZJSY 312300Z 31001MPS 9999 FEW015 SCT230 27/24 Q1005 NOSIG
ZJSY,2003-08-01 00:00,ZJSY 010000Z 33001MPS CAVOK 29/25 Q1006 NOSIG
ZJSY,2003-08-01 01:00,ZJSY 010100Z 24003MPS 9999 SCT016 FEW021TCU 30/25 Q1006 NOSIG
ZJSY,2003-08-01 02:00,ZJSY 010200Z 23003MPS 9999 SCT016 FEW021TCU 31/26 Q1006 NOSIG
ZJSY,2003-08-01 03:00,ZJSY 010300Z 22003MPS 9999 SCT016 30/25 Q1005 NOSIG
ZJSY,2003-08-01 04:00,ZJSY 010400Z 21003MPS 9999 FEW016 31/25 Q1005 NOSIG
ZJSY,2003-08-01 05:00,ZJSY 010500Z 22004MPS 9999 FEW016 31/25 Q1004 NOSIG
ZJSY,2003-08-01 06:00,ZJSY 010600Z 23004MPS CAVOK 31/25 Q1003 NOSIG
ZJSY,2003-08-01 07:00,ZJSY 010700Z 23005MPS CAVOK 31/25 Q1002 NOSIG
ZJSY,2003-08-01 08:00,ZJSY 010800Z 22003MPS CAVOK 31/25 Q1002 NOSIG
ZJSY,2003-08-01 09:00,ZJSY 010900Z 21003MPS 9999 FEW016 31/25 Q1002 NOSIG
ZJSY,2003-08-01 10:00,ZJSY 011000Z 20003MPS 9999 FEW013 FEW023CB SCT200 30/25 Q1002 NOSIG
ZJSY,2003-08-01 11:00,ZJSY 011100Z 20002MPS 9999 BKN013 FEW023CB BKN200 30/25 Q1002 NOSIG
ZJSY,2003-08-01 12:00,ZJSY 011200Z 05005MPS 9999 BKN010 FEW023CB BKN200 29/24 Q1003 NOSIG
ZJSY,2003-08-01 13:00,ZJSY 011300Z 33001MPS 9999 SCT010 SCT200 28/24 Q1004 NOSIG
ZJSY,2003-08-01 14:00,ZJSY 011400Z 34002MPS 9999 SCT010 SCT200 28/24 Q1004 NOSIG
ZJSY,2003-08-01 15:00,ZJSY 011500Z 35002MPS 9999 SCT010 SCT200 28/24 Q1005 NOSIG
ZJSY,2003-08-01 16:00,ZJSY 011600Z 03003MPS 9999 SCT010 SCT200 28/24 Q1005 NOSIG
ZJSY,2003-08-01 17:00,ZJSY 011700Z 06005MPS 9999 -RA SCT010 SCT200 26/24 Q1005 NOSIG
ZJSY,2003-08-01 18:00,ZJSY 011800Z 04002MPS 9999 SCT010 SCT200 26/24 Q1004 NOSIG
ZJSY,2003-08-01 20:00,ZJSY 012000Z AUTO 00000MPS //// // ////// 26/23 Q1003 NOSIG
ZJSY,2003-08-01 21:00,ZJSY 012100Z AUTO 00000MPS //// // ////// 26/24 Q1003 NOSIG
ZJSY,2003-08-01 22:00,ZJSY 012200Z 33003MPS 9999 FEW010 SCT200 25/23 Q1003 NOSIG
ZJSY,2003-08-01 23:00,ZJSY 012300Z 33003MPS 9999 FEW015 SCT200 26/23 Q1003 NOSIG
ZJSY,2003-08-02 00:00,ZJSY 020000Z 34002MPS 9999 FEW026TCU SCT050 SCT200 27/24 Q1003 NOSIG
ZJSY,2003-08-02 01:00,ZJSY 020100Z 12001MPS 9999 FEW020TCU SCT050 SCT200 30/26 Q1004 NOSIG
ZJSY,2003-08-02 02:00,ZJSY 020200Z 17001MPS 9999 FEW018 FEW020TCU SCT050 31/25 Q1004 NOSIG
ZJSY,2003-08-02 03:00,ZJSY 020300Z 17002MPS 9999 FEW018 FEW020TCU SCT200 31/24 Q1004 NOSIG
ZJSY,2003-08-02 04:00,ZJSY 020400Z 17002MPS 9999 FEW018 FEW020TCU 32/26 Q1004 NOSIG
ZJSY,2003-08-02 05:00,ZJSY 020500Z 17003MPS 9999 FEW018 FEW020TCU 31/25 Q1003 NOSIG
ZJSY,2003-08-02 06:00,ZJSY 020600Z 16003MPS 9999 FEW018 FEW020TCU 31/25 Q1003 NOSIG
ZJSY,2003-08-02 07:00,ZJSY 020700Z 16003MPS 9999 FEW018 FEW020TCU 31/26 Q1002 NOSIG
ZJSY,2003-08-02 08:00,ZJSY 020800Z 18002MPS 9999 SCT020 FEW025CB 31/25 Q1002 NOSIG
ZJSY,2003-08-02 09:00,ZJSY 020900Z 16002MPS 9999 FEW020 FEW025TCU SCT210 31/24 Q1001 NOSIG
ZJSY,2003-08-02 10:00,ZJSY 021000Z 17002MPS 9999 FEW020 FEW025TCU FEW030CB 31/25 Q1002 NOSIG
ZJSY,2003-08-02 11:00,ZJSY 021100Z 07003MPS 9999 FEW020 FEW025TCU SCT230 30/24 Q1002 NOSIG
ZJSY,2003-08-02 12:00,ZJSY 021200Z 10001MPS 9999 FEW020 SCT230 29/24 Q1003 NOSIG
ZJSY,2003-08-02 13:00,ZJSY 021300Z 07003MPS CAVOK 28/24 Q1004 NOSIG
ZJSY,2003-08-02 14:00,ZJSY 021400Z 08002MPS CAVOK 27/24 Q1004 NOSIG
ZJSY,2003-08-02 15:00,ZJSY 021500Z 08003MPS CAVOK 27/23 Q1005 NOSIG
ZJSY,2003-08-02 16:00,ZJSY 021600Z 06003MPS CAVOK 27/23 Q1005 NOSIG
ZJSY,2003-08-02 17:00,ZJSY 021700Z 05002MPS CAVOK 27/24 Q1005 NOSIG
ZJSY,2003-08-02 18:00,ZJSY 021800Z AUTO 07001MPS //// // ////// 27/24 Q1004 NOSIG
ZJSY,2003-08-02 19:00,ZJSY 021900Z AUTO 33002MPS //// // ////// 27/24 Q1004 NOSIG
ZJSY,2003-08-02 20:00,ZJSY 022000Z AUTO 01001MPS //// // ////// 27/24 Q1003 NOSIG
ZJSY,2003-08-02 21:00,ZJSY 022100Z AUTO 33002MPS //// // ////// 26/24 Q1003 NOSIG
ZJSY,2003-08-02 22:00,ZJSY 022200Z 07001MPS 9999 FEW015 27/24 Q1003 NOSIG
ZJSY,2003-08-02 23:00,ZJSY 022300Z 34002MPS 9999 FEW015 FEW021TCU 27/24 Q1004 NOSIG
ZJSY,2003-08-03 00:00,ZJSY 030000Z 02002MPS 9999 FEW015 29/25 Q1004 NOSIG
ZJSY,2003-08-03 01:00,ZJSY 030100Z 07004MPS 9999 FEW015 FEW025CB 30/24 Q1004 NOSIG
ZJSY,2003-08-03 02:00,ZJSY 030200Z 08004MPS 9999 SCT016 FEW025CB 30/24 Q1005 NOSIG
ZJSY,2003-08-03 03:00,ZJSY 030300Z 10002MPS 9999 SCT018 FEW020TCU 31/24 Q1005 NOSIG
ZJSY,2003-08-03 04:00,ZJSY 030400Z 17003MPS 9999 BKN018 FEW026CB 30/24 Q1005 NOSIG
ZJSY,2003-08-03 05:00,ZJSY 030500Z 08001MPS 9000 -RA SCT013 SCT015 FEW021TCU 28/24 Q1005 NOSIG
ZJSY,2003-08-03 06:00,ZJSY 030600Z 13002MPS 9999 SCT016 FEW021TCU 31/24 Q1004 RERA NOSIG
ZJSY,2003-08-03 07:00,ZJSY 030700Z 20002MPS 9999 SCT016 FEW021TCU 31/23 Q1003 NOSIG
ZJSY,2003-08-03 08:00,ZJSY 030800Z 16003MPS 9999 SCT016 FEW021TCU 31/25 Q1002 NOSIG
ZJSY,2003-08-03 09:00,ZJSY 030900Z 14002MPS 9999 SCT016 FEW026CB 31/23 Q1002 NOSIG
ZJSY,2003-08-03 10:00,ZJSY 031000Z 15002MPS 9999 SCT020 FEW026CB 30/24 Q1002 NOSIG
ZJSY,2003-08-03 11:00,ZJSY 031100Z 06003MPS 9999 FEW013 SCT200 29/24 Q1003 NOSIG
ZJSY,2003-08-03 12:00,ZJSY 031200Z 01001MPS 9999 FEW020TCU SCT200 28/24 Q1003 NOSIG
ZJSY,2003-08-03 13:00,ZJSY 031300Z 08002MPS CAVOK 28/24 Q1004 NOSIG
ZJSY,2003-08-03 14:00,ZJSY 031400Z 01001MPS CAVOK 28/24 Q1005 NOSIG
ZJSY,2003-08-03 15:00,ZJSY 031500Z 04002MPS CAVOK 28/24 Q1005 NOSIG
ZJSY,2003-08-03 16:00,ZJSY 031600Z 34002MPS CAVOK 27/24 Q1005 NOSIG
ZJSY,2003-08-03 17:00,ZJSY 031700Z 05002MPS CAVOK 27/24 Q1005 NOSIG
ZJSY,2003-08-03 18:00,ZJSY 031800Z AUTO 07002MPS //// // ////// 26/24 Q1004 NOSIG
ZJSY,2003-08-03 19:00,ZJSY 031900Z AUTO 35002MPS //// // ////// 26/24 Q1004 NOSIG
ZJSY,2003-08-03 20:00,ZJSY 032000Z AUTO 36001MPS //// // ////// 26/23 Q1004 NOSIG
ZJSY,2003-08-03 21:00,ZJSY 032100Z AUTO 34002MPS //// // ////// 26/23 Q1004 NOSIG
ZJSY,2003-08-03 22:00,ZJSY 032200Z 32002MPS CAVOK 25/23 Q1004 NOSIG
ZJSY,2003-08-03 23:00,ZJSY 032300Z 34002MPS CAVOK 25/23 Q1005 NOSIG
ZJSY,2003-08-04 00:00,ZJSY 040000Z 32002MPS 9999 FEW018 28/24 Q1005 NOSIG
ZJSY,2003-08-04 01:00,ZJSY 040100Z 32001MPS CAVOK 30/24 Q1005 NOSIG
ZJSY,2003-08-04 02:00,ZJSY 040200Z 14002MPS 9999 FEW015 SCT018 31/24 Q1005 NOSIG
ZJSY,2003-08-04 03:00,ZJSY 040300Z 18002MPS 9999 FEW015 SCT018 31/25 Q1005 NOSIG
ZJSY,2003-08-04 04:00,ZJSY 040400Z 19003MPS 9999 SCT018 31/25 Q1005 NOSIG
ZJSY,2003-08-04 05:00,ZJSY 040500Z 21003MPS 9999 FEW018 31/24 Q1004 NOSIG
ZJSY,2003-08-04 06:00,ZJSY 040600Z 22004MPS 9999 FEW018 31/25 Q1004 NOSIG
ZJSY,2003-08-04 07:00,ZJSY 040700Z 22004MPS CAVOK 31/25 Q1003 NOSIG
ZJSY,2003-08-04 08:00,ZJSY 040800Z 22004MPS CAVOK 31/24 Q1003 NOSIG
ZJSY,2003-08-04 09:00,ZJSY 040900Z 24004MPS CAVOK 31/25 Q1002 NOSIG
ZJSY,2003-08-04 10:00,ZJSY 041000Z 24005MPS 9999 SCT018 FEW020TCU BKN200 30/25 Q1002 NOSIG
ZJSY,2003-08-04 11:00,ZJSY 041100Z 25003MPS 9999 SCT018 SCT230 30/25 Q1002 NOSIG
ZJSY,2003-08-04 12:00,ZJSY 041200Z 25002MPS 9999 FEW016 29/25 Q1003 NOSIG
ZJSY,2003-08-04 13:00,ZJSY 041300Z 26001MPS 9999 FEW016 29/25 Q1003 NOSIG
ZJSY,2003-08-04 14:00,ZJSY 041400Z 32001MPS 9999 FEW016 28/25 Q1004 NOSIG
ZJSY,2003-08-04 15:00,ZJSY 041500Z 35001MPS 9999 FEW016 SCT230 28/25 Q1004 NOSIG
ZJSY,2003-08-04 16:00,ZJSY 041600Z 36001MPS CAVOK 27/24 Q1004 NOSIG
ZJSY,2003-08-04 17:00,ZJSY 041700Z 35001MPS CAVOK 27/25 Q1004 NOSIG
ZJSY,2003-08-04 18:00,ZJSY 041800Z 32002MPS CAVOK 26/24 Q1004 NOSIG
ZJSY,2003-08-04 19:00,ZJSY 041900Z 34001MPS CAVOK 26/24 Q1003 NOSIG
ZJSY,2003-08-04 20:00,ZJSY 042000Z AUTO 32002MPS //// // ////// 26/24 Q1003 NOSIG
ZJSY,2003-08-04 21:00,ZJSY 042100Z AUTO 33002MPS //// // ////// 26/24 Q1002 NOSIG
ZJSY,2003-08-04 22:00,ZJSY 042200Z 34002MPS 9999 FEW016 27/24 Q1003 NOSIG
ZJSY,2003-08-04 23:00,ZJSY 042300Z 32002MPS 9999 FEW016 BKN230 27/24 Q1003 NOSIG
ZJSY,2003-08-05 00:00,ZJSY 050000Z 33002MPS CAVOK 28/24 Q1004 NOSIG
ZJSY,2003-08-05 01:00,ZJSY 050100Z 01001MPS CAVOK 30/24 Q1003 NOSIG
ZJSY,2003-08-05 02:00,ZJSY 050200Z 27002MPS CAVOK 31/24 Q1004 NOSIG
ZJSY,2003-08-05 03:00,ZJSY 050300Z 24003MPS CAVOK 31/25 Q1004 NOSIG
ZJSY,2003-08-05 04:00,ZJSY 050400Z 23004MPS 9999 FEW016 BKN230 31/25 Q1003 NOSIG
ZJSY,2003-08-05 05:00,ZJSY 050500Z 22004MPS 9999 FEW016 BKN230 31/25 Q1003 NOSIG
ZJSY,2003-08-05 06:00,ZJSY 050600Z 24004MPS 9999 FEW015 FEW021TCU BKN230 31/26 Q1002 NOSIG
ZJSY,2003-08-05 07:00,ZJSY 050700Z 23005MPS 9999 FEW015 FEW021TCU BKN230 31/25 Q1001 NOSIG
ZJSY,2003-08-05 08:00,ZJSY 050800Z 22004MPS 9999 FEW013 FEW021TCU BKN230 30/26 Q1000 NOSIG
ZJSY,2003-08-05 09:00,ZJSY 050900Z 24004MPS CAVOK 30/26 Q1000 NOSIG
ZJSY,2003-08-05 10:00,ZJSY 051000Z 24003MPS CAVOK 30/26 Q0999 NOSIG
ZJSY,2003-08-05 11:00,ZJSY 051100Z 24003MPS CAVOK 29/26 Q1000 NOSIG
ZJSY,2003-08-05 12:00,ZJSY 051200Z 25003MPS 9999 FEW013 BKN230 29/25 Q1001 NOSIG
ZJSY,2003-08-05 13:00,ZJSY 051300Z 28002MPS 9999 FEW013 BKN230 29/25 Q1001 NOSIG
ZJSY,2003-08-05 14:00,ZJSY 051400Z 32001MPS 9999 FEW013 SCT230 29/25 Q1002 NOSIG
ZJSY,2003-08-05 15:00,ZJSY 051500Z 32001MPS CAVOK 28/25 Q1002 NOSIG
ZJSY,2003-08-05 16:00,ZJSY 051600Z 00000MPS CAVOK 28/25 Q1002 NOSIG
ZJSY,2003-08-05 17:00,ZJSY 051700Z 00000MPS CAVOK 28/25 Q1002 NOSIG
ZJSY,2003-08-05 18:00,ZJSY 051800Z AUTO 00000MPS //// // ////// 28/25 Q1002 NOSIG
ZJSY,2003-08-05 19:00,ZJSY 051900Z AUTO 00000MPS //// // ////// 28/25 Q1002 NOSIG
ZJSY,2003-08-05 20:00,ZJSY 052000Z AUTO 00000MPS //// // ////// 28/25 Q1002 NOSIG
ZJSY,2003-08-05 21:00,ZJSY 052100Z AUTO 00000MPS //// // ////// 28/25 Q1002 NOSIG
ZJSY,2003-08-05 22:00,ZJSY 052200Z 00000MPS 9999 SCT013 BKN200 28/25 Q1002 NOSIG
ZJSY,2003-08-05 23:00,ZJSY 052300Z 34002MPS 9999 SCT015 BKN200 28/25 Q1002 NOSIG
ZJSY,2003-08-06 00:00,ZJSY 060000Z 34002MPS 9999 FEW013 BKN200 29/25 Q1001 NOSIG
ZJSY,2003-08-06 01:00,ZJSY 060100Z 28002MPS 9999 FEW013 SCT016 FEW025TCU BKN200 30/25 Q1002 NOSIG
ZJSY,2003-08-06 02:00,ZJSY 060200Z 24002MPS 9999 FEW016 FEW025TCU BKN200 31/25 Q1002 NOSIG
ZJSY,2003-08-06 03:00,ZJSY 060300Z 24003MPS 9999 FEW016 FEW025TCU BKN200 31/25 Q1002 NOSIG
ZJSY,2003-08-06 04:00,ZJSY 060400Z 23003MPS 9999 FEW016 BKN200 31/26 Q1002 NOSIG
ZJSY,2003-08-06 05:00,ZJSY 060500Z 22004MPS 9999 FEW016 BKN200 32/26 Q1001 NOSIG
ZJSY,2003-08-06 06:00,ZJSY 060600Z 22005MPS 9999 FEW016 BKN200 32/26 Q1001 NOSIG
ZJSY,2003-08-06 07:00,ZJSY 060700Z 22005MPS 9999 FEW016 FEW025TCU BKN200 31/25 Q1000 NOSIG
ZJSY,2003-08-06 08:00,ZJSY 060800Z 24005MPS 9999 FEW016 BKN200 31/25 Q1000 NOSIG
ZJSY,2003-08-06 09:00,ZJSY 060900Z 24004MPS 9999 FEW016 BKN200 31/25 Q0999 NOSIG
ZJSY,2003-08-06 10:00,ZJSY 061000Z 24002MPS CAVOK 30/25 Q0999 NOSIG
ZJSY,2003-08-06 11:00,ZJSY 061100Z 23003MPS CAVOK 30/25 Q1000 NOSIG
ZJSY,2003-08-06 12:00,ZJSY 061200Z 25001MPS CAVOK 29/25 Q1000 NOSIG
ZJSY,2003-08-06 13:00,ZJSY 061300Z 35001MPS CAVOK 29/25 Q1002 NOSIG
ZJSY,2003-08-06 14:00,ZJSY 061400Z 34002MPS CAVOK 28/25 Q1002 NOSIG
ZJSY,2003-08-06 15:00,ZJSY 061500Z 00000MPS CAVOK 28/25 Q1003 NOSIG
ZJSY,2003-08-06 16:00,ZJSY 061600Z 32001MPS CAVOK 27/25 Q1003 NOSIG
ZJSY,2003-08-06 17:00,ZJSY 061700Z 34002MPS CAVOK 27/25 Q1003 NOSIG
ZJSY,2003-08-06 18:00,ZJSY 061800Z AUTO 32002MPS //// // ////// 27/25 Q1002 NOSIG
ZJSY,2003-08-06 19:00,ZJSY 061900Z AUTO 06002MPS //// // ////// 28/25 Q1001 NOSIG
ZJSY,2003-08-06 20:00,ZJSY 062000Z AUTO 33003MPS //// // ////// 27/25 Q1001 NOSIG
ZJSY,2003-08-06 21:00,ZJSY 062100Z AUTO 32002MPS //// // ////// 28/25 Q1001 NOSIG
ZJSY,2003-08-06 22:00,ZJSY 062200Z 36001MPS 9999 SCT016 BKN200 28/26 Q1001 NOSIG
ZJSY,2003-08-06 23:00,ZJSY 062300Z AUTO 34001MPS //// // ////// 28/26 Q1002 NOSIG
ZJSY,2003-08-07 00:00,ZJSY 070000Z 34002MPS 9999 FEW016 SCT017 FEW020TCU BKN200 29/26 Q1002 NOSIG
ZJSY,2003-08-07 01:00,ZJSY 070100Z 30002MPS 9999 SCT015 FEW020TCU FEW026CB SCT200 30/26 Q1002 NOSIG
ZJSY,2003-08-07 02:00,ZJSY 070200Z 17002MPS 9999 SCT013 FEW020TCU FEW026CB 31/26 Q1003 NOSIG
ZJSY,2003-08-07 03:00,ZJSY 070300Z 20003MPS 9999 SCT013 FEW020TCU FEW026CB 32/26 Q1003 NOSIG
ZJSY,2003-08-07 04:00,ZJSY 070400Z 20003MPS 9999 FEW016 FEW020TCU FEW026CB 32/26 Q1003 NOSIG
ZJSY,2003-08-07 05:00,ZJSY 070500Z 21004MPS 9999 FEW016 FEW020TCU FEW026CB 31/25 Q1003 NOSIG
ZJSY,2003-08-07 06:00,ZJSY 070600Z 20004MPS 9999 FEW016 FEW020TCU FEW026CB 31/25 Q1002 NOSIG
ZJSY,2003-08-07 07:00,ZJSY 070700Z 21003MPS 9999 FEW016 FEW020TCU SCT060 31/26 Q1002 NOSIG
ZJSY,2003-08-07 08:00,ZJSY 070800Z 25003MPS 9999 FEW016 SCT053 31/25 Q1002 NOSIG
ZJSY,2003-08-07 09:00,ZJSY 070900Z 24003MPS 9999 FEW016 FEW020TCU SCT230 31/26 Q1002 NOSIG
ZJSY,2003-08-07 10:00,ZJSY 071000Z 26002MPS 9999 FEW016 FEW020TCU FEW030CB SCT200 30/25 Q1002 NOSIG
ZJSY,2003-08-07 11:00,ZJSY 071100Z 24002MPS 9999 FEW016 FEW023TCU BKN200 30/25 Q1003 NOSIG
ZJSY,2003-08-07 12:00,ZJSY 071200Z 36001MPS 9999 FEW016 BKN230 29/25 Q1003 NOSIG
ZJSY,2003-08-07 13:00,ZJSY 071300Z 34001MPS 9999 FEW016 SCT230 28/25 Q1004 NOSIG
ZJSY,2003-08-07 14:00,ZJSY 071400Z 34002MPS 9999 FEW016 SCT230 28/25 Q1004 NOSIG
ZJSY,2003-08-07 15:00,ZJSY 071500Z 34002MPS CAVOK 28/24 Q1005 NOSIG
ZJSY,2003-08-07 16:00,ZJSY 071600Z 33002MPS CAVOK 27/24 Q1005 NOSIG
ZJSY,2003-08-07 17:00,ZJSY 071700Z 34002MPS CAVOK 27/24 Q1004 NOSIG
ZJSY,2003-08-07 21:00,ZJSY 072100Z AUTO 09001MPS //// // ////// 27/25 Q1003 NOSIG
ZJSY,2003-08-07 22:00,ZJSY 072200Z 32003MPS 5000 -TSRA SCT010 FEW020TCU SCT025CB OVC033 27/25 Q1003 NOSIG
ZJSY,2003-08-07 23:00,ZJSY 072300Z 34004MPS 5000 TSRA BKN008 FEW020TCU SCT025CB OVC030 26/24 Q1004 NOSIG
ZJSY,2003-08-08 00:00,ZJSY 080000Z 32003MPS 9999 -TS SCT012 FEW020TCU FEW025CB BKN040 26/25 Q1004 RETS
ZJSY,2003-08-08 01:00,ZJSY 080100Z 34001MPS 9999 -RA SCT010 FEW025CB BKN200 27/25 Q1004 RETS
ZJSY,2003-08-08 02:00,ZJSY 080200Z 00000MPS CAVOK 29/26 Q1004
ZJSY,2003-08-08 03:00,ZJSY 080300Z 21001MPS 9999 FEW013 BKN200 31/26 Q1004
ZJSY,2003-08-08 04:00,ZJSY 080400Z 19003MPS 9999 FEW013 BKN200 31/26 Q1004
ZJSY,2003-08-08 05:00,ZJSY 080500Z 22004MPS 9999 FEW023TCU SCT200 31/26 Q1004
ZJSY,2003-08-08 06:00,ZJSY 080600Z 21004MPS 9999 FEW023TCU FEW026CB SCT200 31/26 Q1003
ZJSY,2003-08-08 07:00,ZJSY 080700Z 23004MPS 9999 FEW013 FEW023TCU SCT200 31/26 Q1003
ZJSY,2003-08-08 08:00,ZJSY 080800Z 23004MPS 9999 FEW013 BKN200 31/25 Q1002
ZJSY,2003-08-08 09:00,ZJSY 080900Z 24004MPS 9999 FEW013 BKN200 31/25 Q1002
ZJSY,2003-08-08 10:00,ZJSY 081000Z 25004MPS 9999 FEW013 SCT060 BKN200 30/24 Q1002
ZJSY,2003-08-08 11:00,ZJSY 081100Z 26002MPS 9999 FEW016 BKN060 BKN200 30/24 Q1003
ZJSY,2003-08-08 12:00,ZJSY 081200Z 32001MPS 9999 FEW016 BKN060 BKN200 29/24 Q1003
ZJSY,2003-08-08 13:00,ZJSY 081300Z 34002MPS 9999 FEW016 BKN200 28/24 Q1003
ZJSY,2003-08-08 14:00,ZJSY 081400Z 33002MPS 9999 FEW016 SCT200 28/24 Q1003
ZJSY,2003-08-08 15:00,ZJSY 081500Z 34002MPS 9999 FEW016 SCT200 28/24 Q1004
ZJSY,2003-08-08 16:00,ZJSY 081600Z 33002MPS 9999 FEW016 SCT200 27/24 Q1004
ZJSY,2003-08-08 17:00,ZJSY 081700Z 33002MPS 9999 FEW016 SCT200 27/25 Q1004
ZJSY,2003-08-08 18:00,ZJSY 081800Z AUTO 35002MPS //// // ////// 28/25 Q1003
ZJSY,2003-08-08 19:00,ZJSY 081900Z AUTO 03001MPS //// // ////// 28/26 Q1002
ZJSY,2003-08-08 20:00,ZJSY 082000Z AUTO 33003MPS //// // ////// 27/25 Q1002
ZJSY,2003-08-08 21:00,ZJSY 082100Z AUTO 33002MPS //// // ////// 27/25 Q1002
ZJSY,2003-08-08 22:00,ZJSY 082200Z 34002MPS 9999 FEW013 27/25 Q1002
ZJSY,2003-08-08 23:00,ZJSY 082300Z 34002MPS CAVOK 27/25 Q1003
ZJSY,2003-08-09 00:00,ZJSY 090000Z 33002MPS CAVOK 29/26 Q1003
ZJSY,2003-08-09 01:00,ZJSY 090100Z 20001MPS 9999 FEW018 FEW021TCU 31/26 Q1004
ZJSY,2003-08-09 02:00,ZJSY 090200Z 20001MPS 9999 FEW018 FEW021TCU 32/27 Q1004
ZJSY,2003-08-09 03:00,ZJSY 090300Z 21003MPS 9999 FEW018 FEW021TCU 31/26 Q1004
ZJSY,2003-08-09 04:00,ZJSY 090400Z 21003MPS 9999 FEW018 FEW021TCU 32/26 Q1003
ZJSY,2003-08-09 05:00,ZJSY 090500Z 20002MPS 9999 FEW018 FEW021TCU 32/27 Q1002
ZJSY,2003-08-09 06:00,ZJSY 090600Z 23005MPS 9999 FEW018 FEW021TCU 32/26 Q1002
ZJSY,2003-08-09 07:00,ZJSY 090700Z 23005MPS 9999 FEW018 FEW021TCU 32/26 Q1001
ZJSY,2003-08-09 08:00,ZJSY 090800Z 23005MPS 9999 FEW018 FEW021TCU SCT230 32/26 Q1001
ZJSY,2003-08-09 09:00,ZJSY 090900Z 24004MPS 9999 FEW018 FEW021TCU SCT230 32/25 Q1000
ZJSY,2003-08-09 10:00,ZJSY 091000Z 24004MPS 9999 FEW018 SCT230 31/26 Q1000
ZJSY,2003-08-09 11:00,ZJSY 091100Z 25003MPS CAVOK 30/25 Q1001
ZJSY,2003-08-09 12:00,ZJSY 091200Z 23001MPS CAVOK 30/25 Q1001
ZJSY,2003-08-09 13:00,ZJSY 091300Z 34002MPS CAVOK 29/25 Q1003
ZJSY,2003-08-09 14:00,ZJSY 091400Z 35001MPS CAVOK 28/25 Q1003
ZJSY,2003-08-09 15:00,ZJSY 091500Z 34002MPS CAVOK 28/25 Q1003
ZJSY,2003-08-09 16:00,ZJSY 091600Z 34001MPS CAVOK 28/25 Q1004
ZJSY,2003-08-09 17:00,ZJSY 091700Z AUTO 34001MPS //// // ////// 28/25 Q1004
ZJSY,2003-08-09 18:00,ZJSY 091800Z AUTO 33001MPS //// // ////// 28/25 Q1003
ZJSY,2003-08-09 19:00,ZJSY 091900Z AUTO 35001MPS //// // ////// 28/25 Q1003
ZJSY,2003-08-09 20:00,ZJSY 092000Z AUTO 35001MPS //// // ////// 27/25 Q1002
ZJSY,2003-08-09 21:00,ZJSY 092100Z AUTO 00000MPS //// // ////// 28/26 Q1002
ZJSY,2003-08-09 22:00,ZJSY 092200Z 06001MPS 9999 -TS BKN013 FEW021TCU FEW025CB BKN040 28/26 Q1001
ZJSY,2003-08-09 23:00,ZJSY 092300Z 16002MPS 7000 -TSRA BKN010 FEW021TCU FEW025CB OVC040 26/24 Q1003 RERA
ZJSY,2003-08-10 00:00,ZJSY 100000Z 05002MPS 9999 SCT012 FEW021TCU BKN050 26/24 Q1003 RETS
ZJSY,2003-08-10 01:00,ZJSY 100100Z 00000MPS 9999 -RA FEW012 BKN050 27/25 Q1003
ZJSY,2003-08-10 02:00,ZJSY 100200Z 08002MPS CAVOK 28/25 Q1004
ZJSY,2003-08-10 03:00,ZJSY 100300Z 32001MPS CAVOK 29/25 Q1004
ZJSY,2003-08-10 04:00,ZJSY 100400Z 18002MPS CAVOK 30/26 Q1003
ZJSY,2003-08-10 05:00,ZJSY 100500Z 24004MPS 9999 FEW016 BKN050 31/25 Q1003
ZJSY,2003-08-10 06:00,ZJSY 100600Z 24003MPS 9999 FEW016 BKN060 31/26 Q1002
ZJSY,2003-08-10 07:00,ZJSY 100700Z 24005MPS 9999 FEW016 BKN050 31/26 Q1002
ZJSY,2003-08-10 08:00,ZJSY 100800Z 24005MPS 9999 FEW016 BKN050 30/25 Q1001
ZJSY,2003-08-10 09:00,ZJSY 100900Z 25005MPS 9999 FEW016 BKN210 31/25 Q1001
ZJSY,2003-08-10 10:00,ZJSY 101000Z 24004MPS 9999 FEW013 BKN200 30/25 Q1001
ZJSY,2003-08-10 11:00,ZJSY 101100Z 27003MPS 9999 FEW013 BKN200 29/25 Q1001
ZJSY,2003-08-10 12:00,ZJSY 101200Z 34001MPS CAVOK 29/24 Q1001
ZJSY,2003-08-10 13:00,ZJSY 101300Z 34002MPS CAVOK 28/24 Q1002
ZJSY,2003-08-10 14:00,ZJSY 101400Z 32002MPS CAVOK 28/24 Q1003
ZJSY,2003-08-10 15:00,ZJSY 101500Z 34001MPS CAVOK 28/24 Q1003
ZJSY,2003-08-10 16:00,ZJSY 101600Z 34002MPS CAVOK 27/25 Q1004
ZJSY,2003-08-10 17:00,ZJSY 101700Z 33002MPS 9999 FEW013 SCT230 27/25 Q1004
ZJSY,2003-08-10 18:00,ZJSY 101800Z 34002MPS CAVOK 27/25 Q1003
ZJSY,2003-08-10 19:00,ZJSY 101900Z 35001MPS CAVOK 27/25 Q1002
ZJSY,2003-08-10 20:00,ZJSY 102000Z 33001MPS 9999 FEW013 BKN100 27/25 Q1002
ZJSY,2003-08-10 21:00,ZJSY 102100Z AUTO 34001MPS //// // ////// 28/25 Q1002
ZJSY,2003-08-10 22:00,ZJSY 102200Z 00000MPS 9999 SCT013 BKN040 28/25 Q1003
ZJSY,2003-08-10 23:00,ZJSY 102300Z 00000MPS 9999 SCT013 BKN040 28/25 Q1003
ZJSY,2003-08-11 00:00,ZJSY 110000Z 09002MPS 9999 BKN040 28/25 Q1004
ZJSY,2003-08-11 01:00,ZJSY 110100Z 00000MPS 9999 FEW016 SCT120 BKN230 31/26 Q1004
ZJSY,2003-08-11 02:00,ZJSY 110200Z 20001MPS 9999 FEW016 FEW025TCU SCT040 BKN230 30/25 Q1004
ZJSY,2003-08-11 03:00,ZJSY 110300Z 21004MPS 9999 SCT013 FEW026CB BKN040 29/24 Q1004
ZJSY,2003-08-11 04:00,ZJSY 110400Z 30003MPS 9999 -TSRA SCT013 FEW026CB BKN040 30/25 Q1005
ZJSY,2003-08-11 05:00,ZJSY 110500Z 28001MPS 9999 -RA SCT013 FEW026CB BKN040 30/25 Q1004 RETS
ZJSY,2003-08-11 06:00,ZJSY 110600Z 24004MPS 9999 SCT013 FEW020TCU SCT040 30/25 Q1003 RERA
ZJSY,2003-08-11 07:00,ZJSY 110700Z 25004MPS 9999 SCT013 FEW025CB SCT040 30/25 Q1003
ZJSY,2003-08-11 09:00,ZJSY 110900Z 27002MPS 9999 FEW013 BKN040 30/25 Q1002
ZJSY,2003-08-11 10:00,ZJSY 111000Z 30002MPS CAVOK 30/25 Q1002
ZJSY,2003-08-11 11:00,ZJSY 111100Z 26002MPS CAVOK 29/25 Q1003
ZJSY,2003-08-11 12:00,ZJSY 111200Z 29001MPS CAVOK 29/25 Q1003
ZJSY,2003-08-11 13:00,ZJSY 111300Z 33002MPS CAVOK 28/26 Q1004
ZJSY,2003-08-11 14:00,ZJSY 111400Z 34001MPS CAVOK 28/25 Q1005
ZJSY,2003-08-11 15:00,ZJSY 111500Z 35002MPS CAVOK 27/25 Q1005 NOSIG
ZJSY,2003-08-11 16:00,ZJSY 111600Z 00000MPS CAVOK 27/25 Q1005 NOSIG
ZJSY,2003-08-11 17:00,ZJSY 111700Z 04001MPS CAVOK 28/25 Q1005 NOSIG
ZJSY,2003-08-11 18:00,ZJSY 111800Z AUTO 36001MPS //// // ////// 27/25 Q1004 NOSIG
ZJSY,2003-08-11 19:00,ZJSY 111900Z AUTO 32002MPS //// // ////// 27/24 Q1004 NOSIG
ZJSY,2003-08-11 20:00,ZJSY 112000Z AUTO 32001MPS //// // ////// 27/24 Q1003 NOSIG
ZJSY,2003-08-11 21:00,ZJSY 112100Z AUTO 00000MPS //// // ////// 27/24 Q1004 NOSIG
ZJSY,2003-08-11 22:00,ZJSY 112200Z 34002MPS CAVOK 27/24 Q1004 NOSIG
ZJSY,2003-08-11 23:00,ZJSY 112300Z 00000MPS 9999 SCT013 BKN050 27/25 Q1004 NOSIG
ZJSY,2003-08-12 00:00,ZJSY 120000Z 00000MPS 9999 FEW013 BKN050 27/25 Q1005 NOSIG
ZJSY,2003-08-12 01:00,ZJSY 120100Z 14001MPS 7000 VCSH SCT010 FEW026CB BKN200 27/25 Q1005 NOSIG
ZJSY,2003-08-12 02:00,ZJSY 120200Z 17003MPS 9999 BKN010 FEW026CB BKN200 27/25 Q1006 NOSIG
ZJSY,2003-08-12 03:00,ZJSY 120300Z 22001MPS 9999 BKN010 FEW026CB 28/25 Q1006 NOSIG
ZJSY,2003-08-12 04:00,ZJSY 120400Z 32002MPS 9999 -TSRA BKN010 FEW026CB 27/24 Q1006 NOSIG
ZJSY,2003-08-12 05:00,ZJSY 120500Z 36002MPS 9999 -SHRA BKN010 FEW026CB 27/25 Q1006 NOSIG
ZJSY,2003-08-12 06:00,ZJSY 120600Z 35002MPS 9999 -SHRA SCT010 FEW026CB BKN200 28/25 Q1005 NOSIG
ZJSY,2003-08-12 07:00,ZJSY 120700Z 29003MPS 9999 FEW010 BKN200 30/25 Q1004 NOSIG
ZJSY,2003-08-12 08:00,ZJSY 120800Z 23003MPS 9999 FEW010 BKN200 30/25 Q1004 NOSIG
ZJSY,2003-08-12 09:00,ZJSY 120900Z 24003MPS 9999 FEW010 BKN200 29/25 Q1003 NOSIG
ZJSY,2003-08-12 10:00,ZJSY 121000Z 23003MPS 9999 FEW015 SCT120 BKN200 29/25 Q1003 NOSIG
ZJSY,2003-08-12 11:00,ZJSY 121100Z 21002MPS 9999 SCT013 FEW025CB BKN200 28/25 Q1004 NOSIG
ZJSY,2003-08-12 12:00,ZJSY 121200Z 26001MPS 9999 SCT013 FEW025CB BKN200 28/25 Q1004 NOSIG
ZJSY,2003-08-12 13:00,ZJSY 121300Z 00000MPS 9999 SCT013 FEW020TCU BKN200 28/25 Q1005 NOSIG
ZJSY,2003-08-12 14:00,ZJSY 121400Z 35001MPS 9999 SCT013 BKN200 27/25 Q1006 NOSIG
ZJSY,2003-08-12 15:00,ZJSY 121500Z 32001MPS 9999 FEW016 BKN200 27/25 Q1006 NOSIG
ZJSY,2003-08-12 16:00,ZJSY 121600Z 01001MPS 9999 FEW016 BKN200 27/25 Q1007 NOSIG
ZJSY,2003-08-12 17:00,ZJSY 121700Z AUTO 32001MPS //// // ////// 27/25 Q1006 NOSIG
ZJSY,2003-08-12 18:00,ZJSY 121800Z AUTO 34001MPS //// // ////// 26/25 Q1006 NOSIG
ZJSY,2003-08-12 19:00,ZJSY 121900Z AUTO 35002MPS //// // ////// 26/24 Q1006 NOSIG
ZJSY,2003-08-12 20:00,ZJSY 122000Z AUTO 32001MPS //// // ////// 26/25 Q1006 NOSIG
ZJSY,2003-08-12 21:00,ZJSY 122100Z AUTO 30001MPS //// // ////// 26/25 Q1005 NOSIG
ZJSY,2003-08-12 22:00,ZJSY 122200Z 25008MPS 4000 TSRA BKN008 FEW025CB OVC033 25/23 Q1006 NOSIG
ZJSY,2003-08-12 23:00,ZJSY 122300Z 02003MPS 9999 -RA SCT013 FEW025CB BKN040 25/24 Q1007 NOSIG
ZJSY,2003-08-13 00:00,ZJSY 130000Z 35001MPS 9999 FEW013 BKN120 26/25 Q1007 RERA NOSIG
ZJSY,2003-08-13 01:00,ZJSY 130100Z 00000MPS 9999 SCT012 BKN050 BKN210 28/25 Q1007 NOSIG
ZJSY,2003-08-13 02:00,ZJSY 130200Z 00000MPS 9999 SCT015 SCT100 BKN210 31/25 Q1007 NOSIG
ZJSY,2003-08-13 03:00,ZJSY 130300Z 12002MPS 9999 SCT013 SCT100 BKN210 31/26 Q1007 NOSIG
ZJSY,2003-08-13 04:00,ZJSY 130400Z 15002MPS 9999 SCT013 BKN100 31/26 Q1007 NOSIG
ZJSY,2003-08-13 05:00,ZJSY 130500Z 19002MPS 9999 SCT015 SCT100 BKN200 31/26 Q1007 NOSIG
ZJSY,2003-08-13 06:00,ZJSY 130600Z 20002MPS 9999 SCT015 FEW021TCU SCT100 BKN200 31/25 Q1006 NOSIG
ZJSY,2003-08-13 07:00,ZJSY 130700Z 21002MPS 9999 SCT015 FEW021TCU BKN200 31/25 Q1005 NOSIG
ZJSY,2003-08-13 08:00,ZJSY 130800Z 23002MPS 9999 FEW015 BKN200 31/25 Q1005 NOSIG
ZJSY,2003-08-13 09:00,ZJSY 130900Z 22003MPS 9999 FEW015 BKN200 31/24 Q1005 NOSIG
ZJSY,2003-08-13 10:00,ZJSY 131000Z 20002MPS CAVOK 30/24 Q1004 NOSIG
ZJSY,2003-08-13 11:00,ZJSY 131100Z 21001MPS CAVOK 29/25 Q1005 NOSIG
ZJSY,2003-08-13 12:00,ZJSY 131200Z 08002MPS CAVOK 28/25 Q1005 NOSIG
ZJSY,2003-08-13 13:00,ZJSY 131300Z 36001MPS CAVOK 28/25 Q1006 NOSIG
ZJSY,2003-08-13 14:00,ZJSY 131400Z 01001MPS CAVOK 28/25 Q1007 NOSIG
ZJSY,2003-08-13 15:00,ZJSY 131500Z 34002MPS CAVOK 27/24 Q1008 NOSIG
ZJSY,2003-08-13 16:00,ZJSY 131600Z 34002MPS CAVOK 26/24 Q1008 NOSIG
ZJSY,2003-08-13 17:00,ZJSY 131700Z AUTO 34002MPS //// // ////// 26/24 Q1008 NOSIG
ZJSY,2003-08-13 19:00,ZJSY 131900Z AUTO 33002MPS //// // ////// 27/24 Q1007 NOSIG
ZJSY,2003-08-13 20:00,ZJSY 132000Z AUTO 34002MPS //// // ////// 27/24 Q1006 NOSIG
ZJSY,2003-08-13 21:00,ZJSY 132100Z AUTO 34002MPS //// // ////// 27/25 Q1006 NOSIG
ZJSY,2003-08-13 22:00,ZJSY 132200Z 34002MPS 9999 SCT011 SCT200 27/25 Q1006 NOSIG
ZJSY,2003-08-13 23:00,ZJSY 132300Z AUTO 33002MPS //// // ////// 27/25 Q1006 NOSIG
ZJSY,2003-08-14 00:00,ZJSY 140000Z 36001MPS 9999 BKN013 SCT016 29/26 Q1007 NOSIG
ZJSY,2003-08-14 01:00,ZJSY 140100Z 19001MPS 9999 SCT013 FEW025TCU 30/26 Q1007 NOSIG
ZJSY,2003-08-14 02:00,ZJSY 140200Z 20001MPS 9999 FEW013 FEW025TCU BKN100 30/26 Q1007 NOSIG
ZJSY,2003-08-14 03:00,ZJSY 140300Z 22002MPS 9999 SCT013 FEW025TCU SCT100 31/26 Q1008 NOSIG
ZJSY,2003-08-14 04:00,ZJSY 140400Z 21002MPS 9999 FEW017 FEW025TCU BKN230 31/26 Q1007 NOSIG
ZJSY,2003-08-14 05:00,ZJSY 140500Z 22003MPS 9999 FEW017 FEW025TCU 31/26 Q1007 NOSIG
ZJSY,2003-08-14 06:00,ZJSY 140600Z 19002MPS 9999 FEW017 32/27 Q1006 NOSIG
ZJSY,2003-08-14 07:00,ZJSY 140700Z 19003MPS 9999 FEW017 31/26 Q1005 NOSIG
ZJSY,2003-08-14 08:00,ZJSY 140800Z 20003MPS 9999 FEW017 SCT230 31/26 Q1005 NOSIG
ZJSY,2003-08-14 09:00,ZJSY 140900Z 20003MPS 9999 FEW017 SCT230 31/26 Q1004 NOSIG
ZJSY,2003-08-14 10:00,ZJSY 141000Z 19002MPS 9999 FEW017 SCT230 31/26 Q1004 NOSIG
ZJSY,2003-08-14 11:00,ZJSY 141100Z 17001MPS 9999 FEW017 SCT230 30/26 Q1004 NOSIG
ZJSY,2003-08-14 12:00,ZJSY 141200Z 12001MPS 9999 FEW017 SCT230 30/26 Q1005 NOSIG
ZJSY,2003-08-14 13:00,ZJSY 141300Z 03001MPS 9999 FEW015 SCT230 29/26 Q1005 NOSIG
ZJSY,2003-08-14 14:00,ZJSY 141400Z 34001MPS 9999 FEW015 BKN230 28/26 Q1005 NOSIG
ZJSY,2003-08-14 15:00,ZJSY 141500Z 35001MPS 9999 FEW015 BKN230 28/25 Q1006 NOSIG
ZJSY,2003-08-14 16:00,ZJSY 141600Z 35001MPS 9999 FEW015 BKN230 28/25 Q1006 NOSIG
ZJSY,2003-08-14 17:00,ZJSY 141700Z 36001MPS 9999 SCT015 BKN230 28/25 Q1006 NOSIG
ZJSY,2003-08-14 18:00,ZJSY 141800Z 34001MPS 9999 SCT015 BKN230 28/25 Q1006 NOSIG
ZJSY,2003-08-14 19:00,ZJSY 141900Z AUTO 34001MPS //// // ////// 28/26 Q1005 NOSIG
ZJSY,2003-08-14 20:00,ZJSY 142000Z AUTO 00000MPS //// // ////// 28/26 Q1005 NOSIG
ZJSY,2003-08-14 21:00,ZJSY 142100Z AUTO 31001MPS //// // ////// 28/26 Q1005 NOSIG
ZJSY,2003-08-14 22:00,ZJSY 142200Z 00000MPS 9999 SCT015 FEW021TCU FEW025CB SCT230 28/26 Q1005 NOSIG
ZJSY,2003-08-14 23:00,ZJSY 142300Z 33001MPS 9999 SCT015 SCT020TCU 28/25 Q1005 NOSIG
ZJSY,2003-08-15 00:00,ZJSY 150000Z 00000MPS 9999 SCT011 FEW020TCU SCT230 30/27 Q1005 NOSIG
ZJSY,2003-08-15 01:00,ZJSY 150100Z 21001MPS 9999 FEW011 SCT017 FEW020TCU 30/26 Q1006 NOSIG
ZJSY,2003-08-15 02:00,ZJSY 150200Z 18002MPS 9999 SCT017 FEW020TCU 31/27 Q1006 NOSIG
ZJSY,2003-08-15 03:00,ZJSY 150300Z 22002MPS 9999 FEW011 FEW020TCU SCT200 31/26 Q1006 NOSIG
ZJSY,2003-08-15 04:00,ZJSY 150400Z 20003MPS 9999 FEW017 SCT200 31/26 Q1006 NOSIG
ZJSY,2003-08-15 05:00,ZJSY 150500Z 21002MPS 9999 FEW018 SCT230 32/27 Q1005 NOSIG
ZJSY,2003-08-15 06:00,ZJSY 150600Z 18003MPS 9999 FEW018 SCT230 32/27 Q1005 NOSIG
ZJSY,2003-08-15 07:00,ZJSY 150700Z 19003MPS CAVOK 31/26 Q1004 NOSIG
ZJSY,2003-08-15 08:00,ZJSY 150800Z 18003MPS CAVOK 31/26 Q1003 NOSIG
ZJSY,2003-08-15 09:00,ZJSY 150900Z 20002MPS CAVOK 32/26 Q1003 NOSIG
ZJSY,2003-08-15 10:00,ZJSY 151000Z 18002MPS CAVOK 30/26 Q1003 NOSIG
ZJSY,2003-08-15 11:00,ZJSY 151100Z 18001MPS 9999 SCT015 BKN210 30/26 Q1003 NOSIG
ZJSY,2003-08-15 12:00,ZJSY 151200Z 15001MPS 9999 SCT017 BKN210 30/26 Q1004 NOSIG
ZJSY,2003-08-15 13:00,ZJSY 151300Z 35002MPS 9999 FEW015 BKN210 29/26 Q1005 NOSIG
ZJSY,2003-08-15 14:00,ZJSY 151400Z 33002MPS 9999 FEW015 BKN210 29/26 Q1005 NOSIG
ZJSY,2003-08-15 15:00,ZJSY 151500Z 06001MPS 9999 FEW015 BKN210 29/26 Q1006 NOSIG
ZJSY,2003-08-15 16:00,ZJSY 151600Z 35002MPS 9999 FEW015 BKN210 28/26 Q1006 NOSIG
ZJSY,2003-08-15 17:00,ZJSY 151700Z 00000MPS 9999 FEW015 BKN210 28/26 Q1005 NOSIG
ZJSY,2003-08-15 18:00,ZJSY 151800Z 04003MPS 9999 FEW015 BKN210 29/26 Q1005 NOSIG
ZJSY,2003-08-15 19:00,ZJSY 151900Z AUTO 00000MPS //// // ////// 28/26 Q1004 NOSIG
ZJSY,2003-08-15 20:00,ZJSY 152000Z AUTO 00000MPS //// // ////// 28/26 Q1004 NOSIG
ZJSY,2003-08-15 21:00,ZJSY 152100Z AUTO 12002MPS //// // ////// 28/24 Q1004 NOSIG
ZJSY,2003-08-15 22:00,ZJSY 152200Z 36003MPS 9999 RA SCT015 SCT017 BKN026 27/25 Q1005 NOSIG
ZJSY,2003-08-15 23:00,ZJSY 152300Z 34003MPS 9999 FEW017 BKN200 26/25 Q1004 NOSIG
ZJSY,2003-08-16 00:00,ZJSY 160000Z 36001MPS 9999 FEW017 FEW020TCU BKN200 30/27 Q1005 NOSIG
ZJSY,2003-08-16 01:00,ZJSY 160100Z 16002MPS 9999 -RA BKN010 SCT017 FEW020TCU BKN200 28/26 Q1006 NOSIG
ZJSY,2003-08-16 02:00,ZJSY 160200Z 08001MPS 9999 FEW010 BKN200 31/26 Q1006 NOSIG
ZJSY,2003-08-16 03:00,ZJSY 160300Z 17001MPS 9999 FEW017 BKN200 32/26 Q1006 NOSIG
ZJSY,2003-08-16 04:00,ZJSY 160400Z 16002MPS 9999 FEW017 BKN200 32/26 Q1005 NOSIG
ZJSY,2003-08-16 05:00,ZJSY 160500Z 19003MPS 9999 FEW023CB BKN200 32/26 Q1005 NOSIG
ZJSY,2003-08-16 06:00,ZJSY 160600Z 19002MPS 9999 FEW026CB BKN200 31/27 Q1004 NOSIG
ZJSY,2003-08-16 07:00,ZJSY 160700Z 19002MPS 9999 SCT010 FEW026CB BKN200 31/27 Q1004 NOSIG
ZJSY,2003-08-16 08:00,ZJSY 160800Z 19002MPS 9999 SCT010 FEW023TCU FEW033CB BKN200 30/26 Q1003 NOSIG
ZJSY,2003-08-16 09:00,ZJSY 160900Z 19001MPS 9999 FEW010 FEW023TCU BKN200 30/25 Q1003 NOSIG
ZJSY,2003-08-16 10:00,ZJSY 161000Z 00000MPS 9999 FEW010 BKN200 30/26 Q1004 NOSIG
ZJSY,2003-08-16 11:00,ZJSY 161100Z 03002MPS 9999 FEW016 SCT120 BKN200 30/26 Q1004 NOSIG
ZJSY,2003-08-16 12:00,ZJSY 161200Z 08002MPS 9999 FEW016 SCT120 BKN200 29/26 Q1005 NOSIG
ZJSY,2003-08-16 13:00,ZJSY 161300Z 08002MPS 9999 SCT016 BKN200 29/26 Q1005 NOSIG
ZJSY,2003-08-16 14:00,ZJSY 161400Z 10002MPS 9999 SCT016 BKN200 29/25 Q1006 NOSIG
ZJSY,2003-08-16 15:00,ZJSY 161500Z 35002MPS 9999 FEW016 BKN200 28/25 Q1006 NOSIG
ZJSY,2003-08-16 16:00,ZJSY 161600Z 33003MPS 9999 FEW016 BKN200 28/25 Q1007 NOSIG
ZJSY,2003-08-16 17:00,ZJSY 161700Z AUTO 01002MPS //// // ////// 29/25 Q1006 NOSIG
ZJSY,2003-08-16 18:00,ZJSY 161800Z AUTO 35001MPS //// // ////// 28/25 Q1005 NOSIG
ZJSY,2003-08-16 19:00,ZJSY 161900Z AUTO 12002MPS //// // ////// 28/24 Q1005 NOSIG
ZJSY,2003-08-16 20:00,ZJSY 162000Z AUTO 24006MPS //// // ////// 27/24 Q1006 NOSIG
ZJSY,2003-08-16 21:00,ZJSY 162100Z AUTO 29002MPS //// // ////// 24/23 Q1007 NOSIG
ZJSY,2003-08-16 22:00,ZJSY 162200Z 36002MPS 9999 BKN013 SCT015 FEW026CB 24/23 Q1006 NOSIG
ZJSY,2003-08-16 23:00,ZJSY 162300Z 26001MPS 9999 -RA BKN013 FEW026CB 25/23 Q1007 NOSIG
ZJSY,2003-08-17 00:00,ZJSY 170000Z 06002MPS 9000 -RA BKN013 FEW023TCU SCT200 25/23 Q1007 NOSIG
ZJSY,2003-08-17 01:00,ZJSY 170100Z 00000MPS 9000 -RA FEW013 SCT040 OVC140 25/23 Q1007 NOSIG
ZJSY,2003-08-17 02:00,ZJSY 170200Z 30001MPS 9999 FEW013 SCT040 BKN140 26/23 Q1007 NOSIG
ZJSY,2003-08-17 03:00,ZJSY 170300Z 22001MPS 9999 FEW015 SCT040 BKN130 27/24 Q1006 NOSIG
ZJSY,2003-08-17 04:00,ZJSY 170400Z 24002MPS 9999 FEW015 SCT050 BKN130 28/24 Q1006 NOSIG
ZJSY,2003-08-17 05:00,ZJSY 170500Z 22002MPS 9999 FEW015 BKN050 BKN130 28/24 Q1007 NOSIG
ZJSY,2003-08-17 06:00,ZJSY 170600Z 20002MPS 9999 FEW015 BKN050 BKN130 28/23 Q1007 NOSIG
ZJSY,2003-08-17 07:00,ZJSY 170700Z 22002MPS 9999 FEW015 FEW020TCU BKN050 BKN100 29/24 Q1006 NOSIG
ZJSY,2003-08-17 08:00,ZJSY 170800Z 22003MPS 9999 SCT015 FEW020TCU SCT050 BKN100 29/24 Q1006 NOSIG
ZJSY,2003-08-17 09:00,ZJSY 170900Z 24003MPS 9999 FEW015 BKN050 BKN100 29/24 Q1005 NOSIG
ZJSY,2003-08-17 10:00,ZJSY 171000Z 27003MPS 9999 FEW015 BKN050 BKN100 28/24 Q1005 NOSIG
ZJSY,2003-08-17 11:00,ZJSY 171100Z 27002MPS 9999 FEW013 BKN050 BKN100 28/24 Q1006 NOSIG
ZJSY,2003-08-17 12:00,ZJSY 171200Z 26002MPS 9999 FEW013 BKN050 BKN100 27/24 Q1006 NOSIG
ZJSY,2003-08-17 13:00,ZJSY 171300Z 30002MPS CAVOK 27/24 Q1007 NOSIG
ZJSY,2003-08-17 14:00,ZJSY 171400Z 33001MPS 9999 FEW013 SCT050 BKN100 27/24 Q1007 NOSIG
ZJSY,2003-08-17 15:00,ZJSY 171500Z 00000MPS 9999 FEW013 SCT050 BKN100 27/24 Q1008 NOSIG
ZJSY,2003-08-17 16:00,ZJSY 171600Z 34001MPS 9999 FEW013 SCT050 BKN100 27/24 Q1008 NOSIG
ZJSY,2003-08-17 17:00,ZJSY 171700Z 34001MPS 9999 SCT013 SCT050 BKN100 26/24 Q1007 NOSIG
ZJSY,2003-08-17 18:00,ZJSY 171800Z 32001MPS CAVOK 26/24 Q1007 NOSIG
ZJSY,2003-08-17 19:00,ZJSY 171900Z 34002MPS CAVOK 26/24 Q1006 NOSIG
ZJSY,2003-08-17 20:00,ZJSY 172000Z AUTO 00000MPS //// // ////// 26/24 Q1006 NOSIG
ZJSY,2003-08-17 21:00,ZJSY 172100Z AUTO 34002MPS //// // ////// 26/24 Q1006 NOSIG
ZJSY,2003-08-17 22:00,ZJSY 172200Z 36001MPS 9999 FEW013 FEW026CB BKN200 26/24 Q1006 NOSIG
ZJSY,2003-08-17 23:00,ZJSY 172300Z 32002MPS 9999 SCT013 FEW026CB BKN200 26/24 Q1006 NOSIG
ZJSY,2003-08-18 00:00,ZJSY 180000Z 26004MPS 5000 SHRA BKN009 FEW026CB 26/24 Q1007 NOSIG
ZJSY,2003-08-18 01:00,ZJSY 180100Z 23001MPS 9000 BKN010 FEW026CB SCT040 27/24 Q1008 RERA NOSIG
ZJSY,2003-08-18 02:00,ZJSY 180200Z 30002MPS 9999 FEW016 SCT040 28/24 Q1008 NOSIG
ZJSY,2003-08-18 03:00,ZJSY 180300Z 26001MPS 9999 FEW016 BKN100 28/24 Q1008 NOSIG
ZJSY,2003-08-18 04:00,ZJSY 180400Z 24003MPS 9999 FEW016 BKN100 29/24 Q1007 NOSIG
ZJSY,2003-08-18 05:00,ZJSY 180500Z 24004MPS 9999 FEW016 FEW021TCU BKN100 30/25 Q1007 NOSIG
ZJSY,2003-08-18 06:00,ZJSY 180600Z 24006MPS 9999 SCT016 FEW025CB SCT100 29/24 Q1006 NOSIG
ZJSY,2003-08-18 07:00,ZJSY 180700Z 24005MPS 9999 SCT013 FEW025CB SCT100 28/24 Q1006 NOSIG
ZJSY,2003-08-18 08:00,ZJSY 180800Z 24004MPS 9999 SCT013 FEW025CB SCT100 28/25 Q1005 NOSIG
ZJSY,2003-08-18 09:00,ZJSY 180900Z 26003MPS 9999 FEW016 BKN100 29/24 Q1004 NOSIG
ZJSY,2003-08-18 10:00,ZJSY 181000Z 24004MPS 9999 FEW016 SCT100 BKN200 29/25 Q1003 NOSIG
ZJSY,2003-08-18 11:00,ZJSY 181100Z 24004MPS 9999 FEW016 BKN200 28/25 Q1003 NOSIG
ZJSY,2003-08-18 12:00,ZJSY 181200Z 25004MPS 9999 FEW016 BKN200 28/25 Q1004 NOSIG
ZJSY,2003-08-18 13:00,ZJSY 181300Z 28002MPS 9999 FEW016 BKN200 27/24 Q1005 NOSIG
ZJSY,2003-08-18 14:00,ZJSY 181400Z 28002MPS 9999 FEW016 BKN200 27/24 Q1006 NOSIG
ZJSY,2003-08-18 15:00,ZJSY 181500Z 00000MPS 9999 FEW016 BKN200 27/24 Q1006 NOSIG
ZJSY,2003-08-18 16:00,ZJSY 181600Z 36001MPS CAVOK 26/24 Q1006 NOSIG
ZJSY,2003-08-18 17:00,ZJSY 181700Z AUTO 35001MPS //// // ////// 25/24 Q1005 NOSIG
ZJSY,2003-08-18 18:00,ZJSY 181800Z AUTO 34001MPS //// // ////// 25/23 Q1004 NOSIG
ZJSY,2003-08-18 19:00,ZJSY 181900Z AUTO 34002MPS //// // ////// 25/23 Q1004 NOSIG
ZJSY,2003-08-18 20:00,ZJSY 182000Z 33001MPS CAVOK 25/23 Q1003 NOSIG
ZJSY,2003-08-18 21:00,ZJSY 182100Z 33002MPS CAVOK 25/23 Q1003 NOSIG
ZJSY,2003-08-18 22:00,ZJSY 182200Z 36002MPS CAVOK 26/23 Q1003 NOSIG
ZJSY,2003-08-18 23:00,ZJSY 182300Z 35001MPS 9999 FEW013 SCT130 BKN230 25/23 Q1003 NOSIG
ZJSY,2003-08-19 00:00,ZJSY 190000Z 00000MPS 9999 FEW015 BKN060 BKN230 27/24 Q1004 NOSIG
ZJSY,2003-08-19 01:00,ZJSY 190100Z 00000MPS 9999 SCT013 FEW026TCU BKN050 27/25 Q1004 NOSIG
ZJSY,2003-08-19 02:00,ZJSY 190200Z 25004MPS 9999 SCT013 FEW026CB BKN050 26/23 Q1005 NOSIG
ZJSY,2003-08-19 03:00,ZJSY 190300Z 27004MPS 9999 SCT018 SCT060 BKN120 28/23 Q1004 NOSIG
ZJSY,2003-08-19 04:00,ZJSY 190400Z 25003MPS 9999 FEW018 BKN050 BKN120 29/25 Q1004 NOSIG
ZJSY,2003-08-19 06:00,ZJSY 190600Z 23003MPS 9999 FEW018 BKN050 BKN120 28/25 Q1002 NOSIG
ZJSY,2003-08-19 07:00,ZJSY 190700Z 25003MPS 9999 SCT018 FEW030CB BKN050 29/25 Q1002 NOSIG
ZJSY,2003-08-19 08:00,ZJSY 190800Z 25003MPS 9999 -SHRA SCT018 FEW030CB OVC100 28/25 Q1002 NOSIG
ZJSY,2003-08-19 09:00,ZJSY 190900Z 25002MPS 9999 -SHRA FEW018 SCT040 OVC100 28/25 Q1002 NOSIG
ZJSY,2003-08-19 10:00,ZJSY 191000Z 25001MPS 9999 FEW018 SCT040 OVC100 28/25 Q1001 NOSIG
ZJSY,2003-08-19 11:00,ZJSY 191100Z 00000MPS 9999 FEW018 SCT040 OVC110 28/25 Q1002 NOSIG
ZJSY,2003-08-19 12:00,ZJSY 191200Z 08002MPS 9999 FEW018 SCT040 OVC110 27/25 Q1002 NOSIG
ZJSY,2003-08-19 13:00,ZJSY 191300Z 04002MPS 9999 FEW018 SCT040 OVC110 27/25 Q1002 NOSIG
ZJSY,2003-08-19 14:00,ZJSY 191400Z 36001MPS 9999 FEW018 SCT040 OVC120 27/24 Q1003 NOSIG
ZJSY,2003-08-19 15:00,ZJSY 191500Z 34001MPS 9999 FEW018 SCT040 OVC120 27/24 Q1002 NOSIG
ZJSY,2003-08-19 16:00,ZJSY 191600Z 00000MPS 9999 FEW018 SCT040 OVC120 27/25 Q1003 NOSIG
ZJSY,2003-08-19 17:00,ZJSY 191700Z 01001MPS 9999 FEW018 SCT040 OVC120 27/25 Q1002 NOSIG
ZJSY,2003-08-19 18:00,ZJSY 191800Z AUTO 35002MPS //// // ////// 26/24 Q1001 NOSIG
ZJSY,2003-08-19 19:00,ZJSY 191900Z AUTO 34002MPS //// // ////// 26/24 Q1001 NOSIG
ZJSY,2003-08-19 20:00,ZJSY 192000Z AUTO 33002MPS //// // ////// 26/24 Q1001 NOSIG
ZJSY,2003-08-19 21:00,ZJSY 192100Z AUTO 31001MPS //// // ////// 26/24 Q1000 NOSIG
ZJSY,2003-08-19 22:00,ZJSY 192200Z 34001MPS CAVOK 25/24 Q1000 NOSIG
ZJSY,2003-08-19 23:00,ZJSY 192300Z 32002MPS CAVOK 25/24 Q1001 NOSIG
ZJSY,2003-08-20 00:00,ZJSY 200000Z 32001MPS CAVOK 27/24 Q1002 NOSIG
ZJSY,2003-08-20 01:00,ZJSY 200100Z 26001MPS CAVOK 29/24 Q1002 NOSIG
ZJSY,2003-08-20 02:00,ZJSY 200200Z 21002MPS CAVOK 29/24 Q1003 NOSIG
ZJSY,2003-08-20 03:00,ZJSY 200300Z 23002MPS 9999 FEW011 BKN200 29/25 Q1003 NOSIG
ZJSY,2003-08-20 04:00,ZJSY 200400Z 23003MPS 9999 SCT015 BKN200 29/25 Q1003 NOSIG
ZJSY,2003-08-20 05:00,ZJSY 200500Z 23004MPS 9999 FEW013 FEW020TCU BKN200 29/25 Q1002 NOSIG
ZJSY,2003-08-20 06:00,ZJSY 200600Z 27006MPS 9999 FEW013 FEW020TCU BKN200 30/25 Q1002 NOSIG
ZJSY,2003-08-20 07:00,ZJSY 200700Z 28005MPS 9999 SCT013 FEW020TCU BKN200 30/25 Q1002 NOSIG
ZJSY,2003-08-20 08:00,ZJSY 200800Z 28003MPS 9999 FEW016 FEW026CB BKN200 30/23 Q1001 NOSIG
ZJSY,2003-08-20 09:00,ZJSY 200900Z 27003MPS 9999 FEW013 FEW030CB BKN200 29/24 Q1001 NOSIG
ZJSY,2003-08-20 10:00,ZJSY 201000Z 29002MPS 9999 SCT016 FEW030CB BKN200 28/23 Q1002 NOSIG
ZJSY,2003-08-20 11:00,ZJSY 201100Z 33002MPS 9999 -RA FEW040CB BKN040 BKN200 26/23 Q1002 NOSIG
ZJSY,2003-08-20 12:00,ZJSY 201200Z 00000MPS 9999 BKN043 BKN200 26/23 Q1002 NOSIG
ZJSY,2003-08-20 13:00,ZJSY 201300Z 33002MPS 9999 BKN043 BKN200 26/24 Q1003 NOSIG
ZJSY,2003-08-20 14:00,ZJSY 201400Z 31001MPS 9999 SCT046 BKN200 26/23 Q1004 NOSIG
ZJSY,2003-08-20 15:00,ZJSY 201500Z 33002MPS CAVOK 26/23 Q1004 NOSIG
ZJSY,2003-08-20 16:00,ZJSY 201600Z 33002MPS CAVOK 26/23 Q1004 NOSIG
ZJSY,2003-08-20 17:00,ZJSY 201700Z 31002MPS CAVOK 25/23 Q1004 NOSIG
ZJSY,2003-08-20 18:00,ZJSY 201800Z AUTO 32001MPS //// // ////// 26/23 Q1004 NOSIG
ZJSY,2003-08-20 19:00,ZJSY 201900Z AUTO 32001MPS //// // ////// 27/23 Q1003 NOSIG
ZJSY,2003-08-20 20:00,ZJSY 202000Z AUTO 28003MPS //// // ////// 26/23 Q1003 NOSIG
ZJSY,2003-08-20 21:00,ZJSY 202100Z AUTO 26002MPS //// // ////// 26/23 Q1003 NOSIG
ZJSY,2003-08-20 22:00,ZJSY 202200Z 31002MPS CAVOK 26/23 Q1003 NOSIG
ZJSY,2003-08-20 23:00,ZJSY 202300Z 33002MPS 9999 FEW018 SCT230 26/23 Q1003 NOSIG
ZJSY,2003-08-21 00:00,ZJSY 210000Z 34001MPS CAVOK 27/24 Q1004 NOSIG
ZJSY,2003-08-21 01:00,ZJSY 210100Z 27001MPS 9999 FEW015 SCT120 BKN230 29/25 Q1005 NOSIG
ZJSY,2003-08-21 02:00,ZJSY 210200Z 24003MPS 9999 FEW015 SCT021TCU FEW025CB BKN230 29/25 Q1005 NOSIG
ZJSY,2003-08-21 03:00,ZJSY 210300Z 24003MPS 9999 FEW015 SCT021TCU FEW025CB BKN230 29/25 Q1005 NOSIG
ZJSY,2003-08-21 04:00,ZJSY 210400Z 25004MPS 9999 FEW015 SCT021TCU FEW025CB BKN230 30/25 Q1005 NOSIG
ZJSY,2003-08-21 05:00,ZJSY 210500Z 24006MPS 9999 FEW015 SCT021TCU FEW025CB BKN230 30/25 Q1005 NOSIG
ZJSY,2003-08-21 06:00,ZJSY 210600Z 24005MPS 9999 FEW015 SCT021TCU FEW025CB BKN230 31/25 Q1004 NOSIG
ZJSY,2003-08-21 07:00,ZJSY 210700Z 24006MPS 9999 SCT015 SCT021TCU BKN230 30/25 Q1003 NOSIG
ZJSY,2003-08-21 08:00,ZJSY 210800Z 24005MPS 9999 FEW015 FEW021TCU BKN230 30/25 Q1003 NOSIG
ZJSY,2003-08-21 09:00,ZJSY 210900Z 24005MPS 9999 FEW016 FEW023TCU BKN230 29/25 Q1003 NOSIG
ZJSY,2003-08-21 10:00,ZJSY 211000Z 25005MPS 9999 SCT018 BKN230 29/25 Q1003 NOSIG
ZJSY,2003-08-21 11:00,ZJSY 211100Z 26003MPS 9999 SCT018 BKN230 29/24 Q1004 NOSIG
ZJSY,2003-08-21 12:00,ZJSY 211200Z 26002MPS 9999 SCT018 BKN230 28/25 Q1005 NOSIG
ZJSY,2003-08-21 13:00,ZJSY 211300Z 33001MPS 9999 SCT018 BKN230 28/25 Q1006 NOSIG
ZJSY,2003-08-21 14:00,ZJSY 211400Z 34002MPS CAVOK 27/25 Q1006 NOSIG
ZJSY,2003-08-21 15:00,ZJSY 211500Z 34002MPS CAVOK 27/24 Q1006 NOSIG
ZJSY,2003-08-21 16:00,ZJSY 211600Z 34002MPS CAVOK 27/24 Q1007 NOSIG
ZJSY,2003-08-21 17:00,ZJSY 211700Z 34002MPS CAVOK 27/24 Q1006 NOSIG
ZJSY,2003-08-21 18:00,ZJSY 211800Z 35002MPS CAVOK 26/24 Q1006 NOSIG
ZJSY,2003-08-21 19:00,ZJSY 211900Z AUTO 00000MPS //// // ////// 26/24 Q1006 NOSIG
ZJSY,2003-08-21 20:00,ZJSY 212000Z AUTO 28003MPS //// // ////// 25/23 Q1006 NOSIG
ZJSY,2003-08-21 21:00,ZJSY 212100Z AUTO 34003MPS //// // ////// 25/23 Q1006 NOSIG
ZJSY,2003-08-21 22:00,ZJSY 212200Z 00000MPS 9999 SCT016 BKN040 26/24 Q1007 NOSIG
ZJSY,2003-08-21 23:00,ZJSY 212300Z 32002MPS 9999 -RA SCT015 BKN040 25/23 Q1007 NOSIG
ZJSY,2003-08-22 00:00,ZJSY 220000Z 34002MPS 9999 SCT016 SCT043 BKN130 26/23 Q1008 NOSIG
ZJSY,2003-08-22 01:00,ZJSY 220100Z 34002MPS 9999 SCT016 SCT040 BKN120 27/23 Q1008 NOSIG
ZJSY,2003-08-22 02:00,ZJSY 220200Z 02001MPS 9999 SCT016 SCT050 BKN120 27/24 Q1009 NOSIG
ZJSY,2003-08-22 03:00,ZJSY 220300Z 36001MPS 9999 -SHRA SCT016 SCT050 BKN120 28/24 Q1008 NOSIG
ZJSY,2003-08-22 04:00,ZJSY 220400Z 32005MPS 9999 -SHRA SCT016 FEW026CB SCT050 BKN120 28/23 Q1008 NOSIG
ZJSY,2003-08-22 05:00,ZJSY 220500Z 36001MPS 9999 -SHRA SCT016 SCT043 BKN066 27/24 Q1008 NOSIG
ZJSY,2003-08-22 06:00,ZJSY 220600Z 36002MPS 9999 SCT016 SCT050 BKN130 28/24 Q1007 NOSIG
ZJSY,2003-08-22 10:00,ZJSY 221000Z 14001MPS 9999 BKN013 SCT016 BKN120 28/24 Q1005 NOSIG
ZJSY,2003-08-22 11:00,ZJSY 221100Z 06001MPS 9999 FEW013 SCT016 BKN200 27/25 Q1006 NOSIG
ZJSY,2003-08-22 12:00,ZJSY 221200Z 01001MPS 9999 FEW013 SCT016 BKN200 27/25 Q1006 NOSIG
ZJSY,2003-08-22 13:00,ZJSY 221300Z 33002MPS 9999 FEW013 SCT200 26/24 Q1007 NOSIG
ZJSY,2003-08-22 14:00,ZJSY 221400Z 36001MPS 9999 FEW013 FEW026CB SCT200 26/24 Q1007 NOSIG
ZJSY,2003-08-22 15:00,ZJSY 221500Z 01001MPS 9999 SCT011 FEW026CB SCT200 26/24 Q1008 NOSIG
ZJSY,2003-08-22 16:00,ZJSY 221600Z 36001MPS 9999 FEW011 FEW026CB SCT200 26/24 Q1008 NOSIG
ZJSY,2003-08-22 17:00,ZJSY 221700Z 28001MPS 9999 SCT011 FEW026CB SCT200 26/24 Q1007 NOSIG
ZJSY,2003-08-22 18:00,ZJSY 221800Z 10001MPS 9999 SCT011 FEW026CB SCT200 26/24 Q1007 NOSIG
ZJSY,2003-08-22 19:00,ZJSY 221900Z AUTO 03001MPS //// // ////// 26/24 Q1005 NOSIG
ZJSY,2003-08-22 20:00,ZJSY 222000Z 32001MPS 9999 FEW011 FEW026CB SCT200 25/24 Q1005 NOSIG
ZJSY,2003-08-22 21:00,ZJSY 222100Z 00000MPS 9999 FEW011 FEW026CB SCT200 25/24 Q1005 NOSIG
ZJSY,2003-08-22 22:00,ZJSY 222200Z 00000MPS 9999 BKN011 FEW026CB SCT200 25/24 Q1005 NOSIG
ZJSY,2003-08-22 23:00,ZJSY 222300Z 32001MPS 9999 SCT011 FEW026CB BKN200 25/24 Q1006 NOSIG
ZJSY,2003-08-23 00:00,ZJSY 230000Z 12001MPS 9999 SCT011 FEW026CB BKN200 27/25 Q1006 NOSIG
ZJSY,2003-08-23 01:00,ZJSY 230100Z 11001MPS 9999 SCT015 FEW040CB SCT040 BKN230 27/24 Q1007 NOSIG
ZJSY,2003-08-23 02:00,ZJSY 230200Z 09001MPS 9999 SCT015 FEW040CB SCT040 BKN230 27/24 Q1007 NOSIG
ZJSY,2003-08-23 03:00,ZJSY 230300Z 05002MPS 9999 SCT015 FEW040CB SCT040 BKN230 28/24 Q1007 NOSIG
ZJSY,2003-08-23 04:00,ZJSY 230400Z 07002MPS 9999 -RA SCT013 FEW033CB SCT033 BKN230 27/25 Q1006 NOSIG
ZJSY,2003-08-23 05:00,ZJSY 230500Z 11002MPS 9999 -RA SCT012 FEW018TCU BKN033 27/24 Q1006 NOSIG
ZJSY,2003-08-23 06:00,ZJSY 230600Z 17001MPS 9999 -RA SCT012 FEW020TCU BKN033 27/25 Q1005 NOSIG
ZJSY,2003-08-23 07:00,ZJSY 230700Z 18002MPS 9999 -RA SCT012 BKN016 FEW020TCU BKN033 27/24 Q1004 NOSIG
ZJSY,2003-08-23 08:00,ZJSY 230800Z 15001MPS 9999 SCT014 SCT016 FEW020TCU BKN050 28/24 Q1004 NOSIG
ZJSY,2003-08-23 09:00,ZJSY 230900Z 00000MPS 9999 SCT014 SCT016 FEW020TCU BKN050 27/24 Q1003 NOSIG
ZJSY,2003-08-23 10:00,ZJSY 231000Z 16001MPS 9999 SCT012 FEW020TCU BKN050 BKN230 27/24 Q1003 NOSIG
ZJSY,2003-08-23 11:00,ZJSY 231100Z 18001MPS 9999 SCT012 FEW020TCU BKN040 BKN230 27/24 Q1003 NOSIG
ZJSY,2003-08-23 12:00,ZJSY 231200Z 34001MPS 9999 SCT012 FEW020TCU BKN040 BKN230 26/24 Q1004 NOSIG
ZJSY,2003-08-23 13:00,ZJSY 231300Z 36001MPS 9999 SCT012 FEW020TCU BKN040 BKN230 26/24 Q1005 NOSIG
ZJSY,2003-08-23 14:00,ZJSY 231400Z 05001MPS 9999 SCT012 BKN050 BKN230 26/24 Q1006 NOSIG
ZJSY,2003-08-23 15:00,ZJSY 231500Z 00000MPS 9999 SCT012 BKN050 BKN230 26/24 Q1006 NOSIG
ZJSY,2003-08-23 16:00,ZJSY 231600Z 35001MPS 9999 SCT012 BKN050 BKN230 25/23 Q1005 NOSIG
ZJSY,2003-08-23 17:00,ZJSY 231700Z AUTO 31002MPS //// // ////// 25/23 Q1005 NOSIG
ZJSY,2003-08-23 18:00,ZJSY 231800Z AUTO 34001MPS //// // ////// 25/23 Q1004 NOSIG
ZJSY,2003-08-23 19:00,ZJSY 231900Z AUTO 34002MPS //// // ////// 24/23 Q1003 NOSIG
ZJSY,2003-08-23 20:00,ZJSY 232000Z AUTO 31002MPS //// // ////// 24/23 Q1002 NOSIG
ZJSY,2003-08-23 21:00,ZJSY 232100Z AUTO 34001MPS //// // ////// 24/23 Q1002 NOSIG
ZJSY,2003-08-23 22:00,ZJSY 232200Z 26001MPS 9999 FEW015 SCT230 24/22 Q1002 NOSIG
ZJSY,2003-08-23 23:00,ZJSY 232300Z 00000MPS 9999 FEW015 SCT230 25/22 Q1002 NOSIG
ZJSY,2003-08-24 00:00,ZJSY 240000Z 13001MPS 9999 FEW015 BKN040 BKN230 25/22 Q1003 NOSIG
ZJSY,2003-08-24 01:00,ZJSY 240100Z 34001MPS 9999 -RA BKN010 SCT033 OVC230 25/23 Q1004 NOSIG
ZJSY,2003-08-24 02:00,ZJSY 240200Z 20001MPS 9999 FEW010 BKN033 OVC230 25/23 Q1003 NOSIG
ZJSY,2003-08-24 03:00,ZJSY 240300Z 32001MPS 9999 SCT040 BKN230 27/24 Q1002 NOSIG
ZJSY,2003-08-24 04:00,ZJSY 240400Z 26003MPS 9999 FEW013 BKN040 BKN230 28/24 Q1002 NOSIG
ZJSY,2003-08-24 05:00,ZJSY 240500Z 32001MPS 9999 -RA SCT010 BKN036 OVC230 28/24 Q1001 NOSIG
ZJSY,2003-08-24 06:00,ZJSY 240600Z 15001MPS 9999 FEW010 BKN036 OVC230 27/24 Q1001 NOSIG
ZJSY,2003-08-24 07:00,ZJSY 240700Z 36001MPS 9999 FEW010 BKN033 OVC230 28/25 Q0999 NOSIG
ZJSY,2003-08-24 08:00,ZJSY 240800Z 24002MPS 9999 SCT040 BKN230 28/24 Q0998 NOSIG
ZJSY,2003-08-24 09:00,ZJSY 240900Z 27005MPS 9999 FEW010 FEW026CB SCT036 BKN230 28/24 Q0998 NOSIG
ZJSY,2003-08-24 10:00,ZJSY 241000Z 27002MPS 9999 -RA SCT013 FEW026CB BKN036 OVC060 26/24 Q0998 NOSIG
ZJSY,2003-08-24 11:00,ZJSY 241100Z 26004MPS 9999 -RA SCT013 FEW026CB BKN036 OVC060 26/24 Q0999 NOSIG
ZJSY,2003-08-24 12:00,ZJSY 241200Z 26004MPS 9000 -RA SCT011 FEW026CB BKN036 OVC060 26/24 Q0999 NOSIG
ZJSY,2003-08-24 13:00,ZJSY 241300Z 26003MPS 8000 -RA SCT010 FEW026CB BKN033 OVC060 26/24 Q0999 NOSIG
ZJSY,2003-08-24 14:00,ZJSY 241400Z 32001MPS 8000 -RA SCT010 FEW026CB BKN033 OVC060 26/24 Q1000 NOSIG
ZJSY,2003-08-24 15:00,ZJSY 241500Z 29005MPS 7000 -TSRA SCT010 FEW026CB BKN033 OVC050 25/23 Q0999 NOSIG
ZJSY,2003-08-24 16:00,ZJSY 241600Z 25003MPS 9000 -TSRA SCT010 FEW026CB BKN033 OVC050 25/23 Q0998 NOSIG
ZJSY,2003-08-24 17:00,ZJSY 241700Z 27003MPS 8000 -TSRA SCT010 FEW026CB BKN033 OVC050 25/24 Q0997 NOSIG
ZJSY,2003-08-24 18:00,ZJSY 241800Z 26006MPS 8000 -TSRA SCT010 FEW026CB BKN033 OVC050 26/24 Q0997 NOSIG
ZJSY,2003-08-24 19:00,ZJSY 241900Z 26007MPS 9999 -TS SCT010 FEW026CB BKN033 OVC050 25/23 Q0996 NOSIG
ZJSY,2003-08-24 20:00,ZJSY 242000Z AUTO 25003MPS //// // ////// 25/23 Q0995 NOSIG
ZJSY,2003-08-24 21:00,ZJSY 242100Z AUTO 29007MPS //// // ////// 25/23 Q0995 NOSIG
ZJSY,2003-08-24 22:00,ZJSY 242200Z 25010MPS 9999 -RA SCT010 BKN033 OVC050 25/23 Q0995 NOSIG
ZJSY,2003-08-24 23:00,ZJSY 242300Z 25007MPS 9999 -RA SCT010 BKN033 OVC050 25/24 Q0996 NOSIG
ZJSY,2003-08-25 00:00,ZJSY 250000Z 25009MPS 6000 -RA SCT009 BKN033 OVC050 25/23 Q0997 NOSIG
ZJSY,2003-08-25 01:00,ZJSY 250100Z 25009MPS 2000 +RA BKN006 FEW023CB OVC023 26/24 Q0997 TEMPO 0800 +SHRA
ZJSY,2003-08-25 02:00,ZJSY 250200Z 25010G15MPS 2000 +RA BKN006 FEW023CB OVC023 25/23 Q0998 TEMPO 0800 +SHRA
ZJSY,2003-08-25 03:00,ZJSY 250300Z 24009MPS 4000 RA BKN006 FEW026CB OVC026 26/24 Q0998 RERA TEMPO 0800 +SHRA
ZJSY,2003-08-25 04:00,ZJSY 250400Z 22010MPS 4000 -RA BKN006 FEW026CB OVC026 26/25 Q0999 RERA TEMPO 0800 +SHRA
ZJSY,2003-08-25 05:00,ZJSY 250500Z 23009MPS 8000 -RA BKN009 FEW030CB OVC030 27/24 Q0999 TEMPO 2000 SHRA
ZJSY,2003-08-25 06:00,ZJSY 250600Z 21007MPS 8000 -RA BKN011 OVC033 27/24 Q0999 TEMPO 3000 SHRA
ZJSY,2003-08-25 07:00,ZJSY 250700Z 22007MPS 9999 FEW015 BKN033 OVC053 27/24 Q0999
ZJSY,2003-08-25 08:00,ZJSY 250800Z 22006MPS 9999 FEW015 BKN033 OVC053 28/24 Q0999
ZJSY,2003-08-25 09:00,ZJSY 250900Z 21007MPS 8000 -SHRA SCT013 OVC033 28/24 Q0999
ZJSY,2003-08-25 10:00,ZJSY 251000Z 20006MPS 9999 SCT013 OVC040 28/24 Q1000
ZJSY,2003-08-25 11:00,ZJSY 251100Z 20006G12MPS 6000 -RA BKN013 OVC033 28/24 Q1001
ZJSY,2003-08-25 12:00,ZJSY 251200Z 19001MPS 9999 SCT013 OVC036 27/25 Q1001
ZJSY,2003-08-25 13:00,ZJSY 251300Z 19003MPS 9999 SCT013 OVC036 28/25 Q1002
ZJSY,2003-08-25 14:00,ZJSY 251400Z 13001MPS 9999 FEW013 BKN043 BKN230 28/25 Q1003
ZJSY,2003-08-25 15:00,ZJSY 251500Z 09001MPS 9999 FEW013 BKN043 BKN230 27/25 Q1004
ZJSY,2003-08-25 16:00,ZJSY 251600Z 05001MPS 9999 BKN043 BKN230 27/25 Q1004
ZJSY,2003-08-25 17:00,ZJSY 251700Z 08002MPS 9999 BKN043 BKN230 27/25 Q1004
ZJSY,2003-08-25 18:00,ZJSY 251800Z 08001MPS 9999 BKN043 BKN230 27/26 Q1004
ZJSY,2003-08-25 19:00,ZJSY 251900Z 10002MPS 9999 SCT043 BKN230 28/25 Q1004
ZJSY,2003-08-25 20:00,ZJSY 252000Z AUTO 07001MPS //// // ////// 27/25 Q1004
ZJSY,2003-08-25 21:00,ZJSY 252100Z 07002MPS 9999 FEW013 SCT043 BKN230 27/25 Q1004
ZJSY,2003-08-25 22:00,ZJSY 252200Z 01001MPS 9999 FEW013 SCT043 BKN230 27/25 Q1004
ZJSY,2003-08-25 23:00,ZJSY 252300Z 00000MPS 9999 FEW013 OVC036 27/25 Q1005
ZJSY,2003-08-26 00:00,ZJSY 260000Z 08001MPS 9999 FEW013 OVC036 28/26 Q1006
ZJSY,2003-08-26 01:00,ZJSY 260100Z 09001MPS 9999 FEW013 BKN030 BKN100 29/26 Q1007
ZJSY,2003-08-26 02:00,ZJSY 260200Z 11001MPS 9999 FEW013 SCT033 BKN100 29/25 Q1007
ZJSY,2003-08-26 03:00,ZJSY 260300Z 15001MPS 9999 FEW013 BKN043 30/26 Q1008
ZJSY,2003-08-26 04:00,ZJSY 260400Z 20002MPS 9999 FEW013 BKN050 30/26 Q1008
ZJSY,2003-08-26 05:00,ZJSY 260500Z 20002MPS 9999 FEW015 SCT060 BKN100 30/25 Q1007
ZJSY,2003-08-26 06:00,ZJSY 260600Z 26004MPS 9999 FEW015 SCT060 BKN100 31/23 Q1006
ZJSY,2003-08-26 07:00,ZJSY 260700Z 27005MPS 9999 FEW015 BKN200 32/22 Q1006
ZJSY,2003-08-26 08:00,ZJSY 260800Z 27004MPS 9999 FEW015 BKN120 31/23 Q1006
ZJSY,2003-08-26 09:00,ZJSY 260900Z 28002MPS 9999 FEW015 BKN120 30/23 Q1006
ZJSY,2003-08-26 10:00,ZJSY 261000Z 25001MPS CAVOK 31/24 Q1006
ZJSY,2003-08-26 11:00,ZJSY 261100Z 00000MPS CAVOK 29/23 Q1006
ZJSY,2003-08-26 12:00,ZJSY 261200Z 34001MPS CAVOK 27/24 Q1007
ZJSY,2003-08-26 13:00,ZJSY 261300Z 04001MPS CAVOK 26/24 Q1008
ZJSY,2003-08-26 14:00,ZJSY 261400Z 03002MPS CAVOK 26/23 Q1009
ZJSY,2003-08-26 15:00,ZJSY 261500Z 35002MPS CAVOK 26/23 Q1009
ZJSY,2003-08-26 16:00,ZJSY 261600Z 02002MPS CAVOK 26/23 Q1009
ZJSY,2003-08-26 17:00,ZJSY 261700Z 08001MPS CAVOK 25/23 Q1009
ZJSY,2003-08-26 18:00,ZJSY 261800Z AUTO 01002MPS //// // ////// 25/23 Q1008
ZJSY,2003-08-26 19:00,ZJSY 261900Z AUTO 07003MPS //// // ////// 25/22 Q1008
ZJSY,2003-08-26 20:00,ZJSY 262000Z AUTO 31001MPS //// // ////// 26/23 Q1008
ZJSY,2003-08-26 21:00,ZJSY 262100Z AUTO 35002MPS //// // ////// 26/23 Q1008
ZJSY,2003-08-26 22:00,ZJSY 262200Z 34002MPS 9999 FEW015 SCT230 26/24 Q1008
ZJSY,2003-08-26 23:00,ZJSY 262300Z 35001MPS 9999 FEW015 SCT230 26/24 Q1009
ZJSY,2003-08-27 00:00,ZJSY 270000Z 34001MPS 9999 FEW015 BKN060 27/25 Q1009
ZJSY,2003-08-27 01:00,ZJSY 270100Z 01001MPS 9999 FEW015 BKN060 29/25 Q1010
ZJSY,2003-08-27 02:00,ZJSY 270200Z 13001MPS 9999 FEW016 BKN100 30/26 Q1010
ZJSY,2003-08-27 03:00,ZJSY 270300Z 15002MPS 9999 FEW016TCU FEW016 SCT230 30/26 Q1009
ZJSY,2003-08-27 04:00,ZJSY 270400Z 19002MPS 9999 FEW016 SCT230 30/26 Q1009
ZJSY,2003-08-27 05:00,ZJSY 270500Z 20003MPS 9999 FEW016 SCT230 31/26 Q1009
ZJSY,2003-08-27 06:00,ZJSY 270600Z 25005MPS 9999 FEW016 SCT230 31/24 Q1008
ZJSY,2003-08-27 07:00,ZJSY 270700Z 25005MPS 9999 FEW016 SCT230 31/23 Q1007
ZJSY,2003-08-27 08:00,ZJSY 270800Z 24004MPS CAVOK 31/24 Q1007
ZJSY,2003-08-27 09:00,ZJSY 270900Z 24003MPS CAVOK 31/23 Q1007
ZJSY,2003-08-27 10:00,ZJSY 271000Z 26002MPS CAVOK 29/24 Q1007
ZJSY,2003-08-27 11:00,ZJSY 271100Z 24002MPS CAVOK 29/23 Q1007
ZJSY,2003-08-27 12:00,ZJSY 271200Z 09001MPS CAVOK 28/24 Q1007
ZJSY,2003-08-27 13:00,ZJSY 271300Z 33002MPS CAVOK 26/24 Q1008
ZJSY,2003-08-27 14:00,ZJSY 271400Z 34002MPS CAVOK 26/23 Q1009
ZJSY,2003-08-27 15:00,ZJSY 271500Z 36001MPS CAVOK 26/23 Q1010
ZJSY,2003-08-27 16:00,ZJSY 271600Z 34003MPS CAVOK 26/23 Q1010
ZJSY,2003-08-27 17:00,ZJSY 271700Z 35001MPS CAVOK 26/23 Q1009
ZJSY,2003-08-27 19:00,ZJSY 271900Z AUTO 00000MPS //// // ////// 26/24 Q1008
ZJSY,2003-08-27 20:00,ZJSY 272000Z AUTO 36001MPS //// // ////// 26/24 Q1008
ZJSY,2003-08-27 21:00,ZJSY 272100Z AUTO 34002MPS //// // ////// 26/24 Q1008
ZJSY,2003-08-27 22:00,ZJSY 272200Z 34001MPS 9999 SCT011 BKN033 27/24 Q1008
ZJSY,2003-08-27 23:00,ZJSY 272300Z 35002MPS 9999 SCT011 BKN040 27/25 Q1008
ZJSY,2003-08-28 00:00,ZJSY 280000Z 05002MPS 9999 BKN011 SCT016 FEW023TCU 28/25 Q1009
ZJSY,2003-08-28 01:00,ZJSY 280100Z 09002MPS 9999 SCT013 BKN020 FEW023TCU 30/25 Q1009
ZJSY,2003-08-28 02:00,ZJSY 280200Z 17003MPS 9999 BKN016 FEW023TCU FEW030CB BKN230 28/24 Q1009
ZJSY,2003-08-28 03:00,ZJSY 280300Z 10002MPS 9999 SCT016 BKN230 30/25 Q1009
ZJSY,2003-08-28 04:00,ZJSY 280400Z 16002MPS 9999 FEW016 BKN230 31/25 Q1009
ZJSY,2003-08-28 05:00,ZJSY 280500Z 16001MPS 9999 FEW016 SCT100 BKN230 31/25 Q1009
ZJSY,2003-08-28 06:00,ZJSY 280600Z 19002MPS 9999 FEW016 BKN230 31/25 Q1008
ZJSY,2003-08-28 07:00,ZJSY 280700Z 19002MPS 9999 FEW016 FEW026TCU BKN230 30/25 Q1007
ZJSY,2003-08-28 08:00,ZJSY 280800Z 15002MPS 9999 FEW016 BKN230 30/26 Q1007
ZJSY,2003-08-28 09:00,ZJSY 280900Z 16002MPS 9999 FEW020 SCT230 30/26 Q1007
ZJSY,2003-08-28 10:00,ZJSY 281000Z 15002MPS 9999 SCT020 SCT260 30/26 Q1006 NOSIG
ZJSY,2003-08-28 11:00,ZJSY 281100Z 14002MPS 9999 BKN018 SCT260 29/26 Q1007 NOSIG
ZJSY,2003-08-28 12:00,ZJSY 281200Z 12002MPS 9999 SCT018 FEW020TCU SCT260 29/25 Q1008 NOSIG
ZJSY,2003-08-28 13:00,ZJSY 281300Z 12003MPS 9999 SCT018 FEW020TCU SCT260 29/24 Q1008 NOSIG
ZJSY,2003-08-28 14:00,ZJSY 281400Z 10002MPS 9999 FEW018 SCT260 28/25 Q1009 NOSIG
ZJSY,2003-08-28 15:00,ZJSY 281500Z 05002MPS 9999 BKN016 SCT260 28/25 Q1010 NOSIG
ZJSY,2003-08-28 16:00,ZJSY 281600Z 06002MPS 9999 SCT016 SCT260 28/25 Q1010 NOSIG
ZJSY,2003-08-28 17:00,ZJSY 281700Z 08002MPS 9999 SCT016 SCT260 27/25 Q1009 NOSIG
ZJSY,2003-08-28 18:00,ZJSY 281800Z AUTO 08002MPS //// // ////// 26/24 Q1009 NOSIG
ZJSY,2003-08-28 19:00,ZJSY 281900Z AUTO 34002MPS //// // ////// 26/24 Q1009 NOSIG
ZJSY,2003-08-28 20:00,ZJSY 282000Z AUTO 04003MPS //// // ////// 27/24 Q1009 NOSIG
ZJSY,2003-08-28 21:00,ZJSY 282100Z AUTO 32002MPS //// // ////// 26/24 Q1009 NOSIG
ZJSY,2003-08-28 22:00,ZJSY 282200Z 36001MPS 9999 FEW016 SCT260 26/24 Q1009 NOSIG
ZJSY,2003-08-28 23:00,ZJSY 282300Z 30001MPS 9999 FEW016 SCT260 26/24 Q1010 NOSIG
ZJSY,2003-08-29 00:00,ZJSY 290000Z 05003MPS 9999 FEW016 SCT260 28/25 Q1010 NOSIG
ZJSY,2003-08-29 01:00,ZJSY 290100Z 07003MPS 9999 SCT018 29/25 Q1010 NOSIG
ZJSY,2003-08-29 02:00,ZJSY 290200Z 10002MPS 9999 SCT020 29/24 Q1010 NOSIG
ZJSY,2003-08-29 03:00,ZJSY 290300Z 14002MPS 9999 SCT020 30/25 Q1010 NOSIG
ZJSY,2003-08-29 04:00,ZJSY 290400Z 17003MPS 9999 FEW020TCU SCT020 31/24 Q1011 NOSIG
ZJSY,2003-08-29 05:00,ZJSY 290500Z 16004MPS 9999 FEW020TCU SCT020 30/25 Q1010 NOSIG
ZJSY,2003-08-29 06:00,ZJSY 290600Z 15004MPS 9999 FEW020TCU SCT020 30/26 Q1009 NOSIG
ZJSY,2003-08-29 07:00,ZJSY 290700Z 15003MPS 9999 FEW022 SCT300 30/25 Q1009 NOSIG
ZJSY,2003-08-29 08:00,ZJSY 290800Z 14004MPS 9999 SCT022 BKN300 30/24 Q1008 NOSIG
ZJSY,2003-08-29 09:00,ZJSY 290900Z 15004MPS 9999 SCT020 BKN300 30/25 Q1008 NOSIG
ZJSY,2003-08-29 10:00,ZJSY 291000Z 14003MPS 9999 SCT020 SCT300 29/25 Q1007 NOSIG
ZJSY,2003-08-29 11:00,ZJSY 291100Z 11003MPS 9999 SCT020 SCT300 29/24 Q1008 NOSIG
ZJSY,2003-08-29 12:00,ZJSY 291200Z 09003MPS 9999 SCT020 SCT260 28/24 Q1009 NOSIG
ZJSY,2003-08-29 14:00,ZJSY 291400Z 06002MPS 9999 FEW020 SCT260 27/24 Q1010 NOSIG
ZJSY,2003-08-29 15:00,ZJSY 291500Z 07003MPS 9999 FEW020 SCT260 27/24 Q1010 NOSIG
ZJSY,2003-08-29 16:00,ZJSY 291600Z 06003MPS 9999 FEW020 SCT260 27/24 Q1009 NOSIG
ZJSY,2003-08-29 17:00,ZJSY 291700Z 04002MPS 9999 FEW020 SCT260 27/24 Q1009 NOSIG
ZJSY,2003-08-29 18:00,ZJSY 291800Z AUTO 06002MPS //// // ////// 27/24 Q1009 NOSIG
ZJSY,2003-08-29 19:00,ZJSY 291900Z AUTO 35001MPS //// // ////// 26/24 Q1009 NOSIG
ZJSY,2003-08-29 20:00,ZJSY 292000Z AUTO 04002MPS //// // ////// 26/24 Q1009 NOSIG
ZJSY,2003-08-29 21:00,ZJSY 292100Z AUTO 26001MPS //// // ////// 27/23 Q1008 NOSIG
ZJSY,2003-08-29 22:00,ZJSY 292200Z AUTO 35002MPS //// // ////// 26/23 Q1009 NOSIG
ZJSY,2003-08-29 23:00,ZJSY 292300Z 01001MPS 9999 SCT021 SCT260 26/24 Q1009 NOSIG
ZJSY,2003-08-30 00:00,ZJSY 300000Z 06003MPS 9999 SCT016 SCT260 28/24 Q1009 NOSIG
ZJSY,2003-08-30 01:00,ZJSY 300100Z 02001MPS 4000 SHRA BKN010 SCT016 FEW026CB 25/23 Q1011 NOSIG
ZJSY,2003-08-30 02:00,ZJSY 300200Z 35002MPS 9999 -SHRA SCT010 FEW026CB BKN200 25/23 Q1011 RETSRA NOSIG
ZJSY,2003-08-30 03:00,ZJSY 300300Z 04003MPS 9999 SCT010 FEW026CB BKN200 26/23 Q1011 NOSIG
ZJSY,2003-08-30 04:00,ZJSY 300400Z 05003MPS 9999 FEW013 BKN200 28/24 Q1011 NOSIG
ZJSY,2003-08-30 05:00,ZJSY 300500Z 09002MPS 9999 FEW013 SCT053 BKN200 29/24 Q1010 NOSIG
ZJSY,2003-08-30 06:00,ZJSY 300600Z 10001MPS 9999 FEW013 SCT200 30/23 Q1009 NOSIG
ZJSY,2003-08-30 07:00,ZJSY 300700Z 14002MPS 9999 FEW016 SCT200 30/23 Q1008 NOSIG
ZJSY,2003-08-30 08:00,ZJSY 300800Z 16002MPS 9999 FEW016 30/24 Q1007 NOSIG
ZJSY,2003-08-30 09:00,ZJSY 300900Z 17002MPS CAVOK 30/24 Q1007 NOSIG
ZJSY,2003-08-30 10:00,ZJSY 301000Z 16002MPS CAVOK 29/25 Q1007 NOSIG
ZJSY,2003-08-30 11:00,ZJSY 301100Z 13002MPS CAVOK 28/24 Q1007 NOSIG
ZJSY,2003-08-30 12:00,ZJSY 301200Z 11002MPS CAVOK 28/24 Q1007 NOSIG
ZJSY,2003-08-30 13:00,ZJSY 301300Z 05002MPS CAVOK 27/24 Q1008 NOSIG
ZJSY,2003-08-30 14:00,ZJSY 301400Z 36002MPS CAVOK 27/24 Q1008 NOSIG
ZJSY,2003-08-30 15:00,ZJSY 301500Z 36001MPS CAVOK 26/24 Q1009 NOSIG
ZJSY,2003-08-30 16:00,ZJSY 301600Z 35001MPS CAVOK 26/24 Q1009 NOSIG
ZJSY,2003-08-30 17:00,ZJSY 301700Z AUTO 33002MPS //// // ////// 26/23 Q1009 NOSIG
ZJSY,2003-08-30 18:00,ZJSY 301800Z AUTO 34002MPS //// // ////// 26/23 Q1009 NOSIG
ZJSY,2003-08-30 19:00,ZJSY 301900Z AUTO 33002MPS //// // ////// 25/23 Q1008 NOSIG
ZJSY,2003-08-30 20:00,ZJSY 302000Z AUTO 35001MPS //// // ////// 25/23 Q1008 NOSIG
ZJSY,2003-08-30 21:00,ZJSY 302100Z AUTO 35002MPS //// // ////// 25/23 Q1008 NOSIG
ZJSY,2003-08-30 22:00,ZJSY 302200Z 34003MPS 9999 SCT018 FEW026TCU 25/23 Q1008 NOSIG
ZJSY,2003-08-30 23:00,ZJSY 302300Z 32002MPS 9999 FEW018 FEW026TCU 25/23 Q1008 NOSIG
ZJSY,2003-08-31 00:00,ZJSY 310000Z 35001MPS CAVOK 28/24 Q1008 NOSIG
ZJSY,2003-08-31 03:00,ZJSY 310300Z 17002MPS 9999 FEW018 30/24 Q1008 NOSIG
ZJSY,2003-08-31 04:00,ZJSY 310400Z 19003MPS 9999 FEW018 30/25 Q1008 NOSIG
ZJSY,2003-08-31 05:00,ZJSY 310500Z 20003MPS 9999 FEW020 31/25 Q1008 NOSIG
ZJSY,2003-08-31 06:00,ZJSY 310600Z 19004MPS 9999 FEW020 30/26 Q1007 NOSIG
ZJSY,2003-08-31 07:00,ZJSY 310700Z 21003MPS 9999 FEW020 FEW021TCU 30/26 Q1006 NOSIG
ZJSY,2003-08-31 08:00,ZJSY 310800Z 19002MPS 9999 SCT020 FEW021TCU 30/25 Q1006 NOSIG
ZJSY,2003-08-31 09:00,ZJSY 310900Z 20002MPS 9999 SCT020 SCT025 FEW030CB 29/24 Q1005 NOSIG
ZJSY,2003-08-31 10:00,ZJSY 311000Z 19001MPS 9999 FEW023 SCT040 BKN260 29/24 Q1005 NOSIG
ZJSY,2003-08-31 11:00,ZJSY 311100Z 18001MPS 9999 FEW023 BKN040 BKN260 29/24 Q1006 NOSIG
ZJSY,2003-08-31 12:00,ZJSY 311200Z 14001MPS 9999 FEW020 BKN040 BKN260 29/25 Q1006 NOSIG
ZJSY,2003-08-31 13:00,ZJSY 311300Z 06001MPS 9999 FEW020 SCT040 BKN260 28/25 Q1007 NOSIG
ZJSY,2003-08-31 14:00,ZJSY 311400Z 03002MPS 9999 FEW020 BKN260 28/24 Q1007 NOSIG
ZJSY,2003-08-31 15:00,ZJSY 311500Z 34002MPS 9999 FEW020 BKN260 27/24 Q1008 NOSIG
ZJSY,2003-08-31 16:00,ZJSY 311600Z 32001MPS 9999 FEW020 BKN260 27/24 Q1008 NOSIG
ZJSY,2003-08-31 17:00,ZJSY 311700Z 32001MPS 9999 FEW020 BKN260 26/24 Q1008 NOSIG
ZJSY,2003-08-31 21:00,ZJSY 312100Z AUTO 02001MPS //// // ////// 26/24 Q1007 NOSIG
ZJSY,2003-08-31 22:00,ZJSY 312200Z 36001MPS 9999 FEW018 SCT040 BKN110 26/24 Q1007 NOSIG
ZJSY,2003-08-31 23:00,ZJSY 312300Z 00000MPS 9999 FEW040 BKN260 26/24 Q1007 NOSIG
ZJSY,2003-09-01 00:00,ZJSY 010000Z 07001MPS CAVOK 27/24 Q1007 NOSIG
ZJSY,2003-09-01 01:00,ZJSY 010100Z 25001MPS CAVOK 29/23 Q1007 NOSIG
ZJSY,2003-09-01 02:00,ZJSY 010200Z 19002MPS CAVOK 30/24 Q1007 NOSIG
ZJSY,2003-09-01 03:00,ZJSY 010300Z 22003MPS CAVOK 30/25 Q1007 NOSIG
ZJSY,2003-09-01 04:00,ZJSY 010400Z 21004MPS CAVOK 30/25 Q1007 NOSIG
ZJSY,2003-09-01 05:00,ZJSY 010500Z 25004MPS CAVOK 31/25 Q1006 NOSIG
ZJSY,2003-09-01 06:00,ZJSY 010600Z 23005MPS 9999 FEW026TCU SCT300 30/25 Q1005 NOSIG
ZJSY,2003-09-01 07:00,ZJSY 010700Z 23005MPS 9999 FEW020 FEW026TCU BKN300 30/25 Q1004 NOSIG
ZJSY,2003-09-01 08:00,ZJSY 010800Z 24004MPS 9999 SCT020 FEW026TCU BKN300 30/25 Q1004 NOSIG
ZJSY,2003-09-01 09:00,ZJSY 010900Z 24004MPS 9999 FEW020 FEW026TCU BKN300 30/25 Q1003 NOSIG
ZJSY,2003-09-01 10:00,ZJSY 011000Z 25003MPS 9999 SCT011 FEW026TCU BKN200 29/24 Q1003 NOSIG
ZJSY,2003-09-01 11:00,ZJSY 011100Z 27002MPS 9999 SCT011 BKN200 29/25 Q1004 NOSIG
ZJSY,2003-09-01 12:00,ZJSY 011200Z 29001MPS 9999 SCT011 SCT200 28/24 Q1005 NOSIG
ZJSY,2003-09-01 13:00,ZJSY 011300Z 32002MPS 9999 SCT011 SCT200 28/25 Q1005 NOSIG
ZJSY,2003-09-01 14:00,ZJSY 011400Z 31002MPS 9999 FEW011 FEW026CB SCT200 28/24 Q1006 NOSIG
ZJSY,2003-09-01 15:00,ZJSY 011500Z 03001MPS 9999 FEW011 FEW026CB SCT200 27/25 Q1005 NOSIG
ZJSY,2003-09-01 16:00,ZJSY 011600Z 24001MPS 9999 FEW011 SCT200 27/25 Q1005 NOSIG
ZJSY,2003-09-01 17:00,ZJSY 011700Z AUTO 32001MPS //// // ////// 27/24 Q1004 NOSIG
ZJSY,2003-09-01 18:00,ZJSY 011800Z AUTO 29001MPS //// // ////// 26/24 Q1004 NOSIG
ZJSY,2003-09-01 19:00,ZJSY 011900Z AUTO 26001MPS //// // ////// 26/24 Q1003 NOSIG
ZJSY,2003-09-01 20:00,ZJSY 012000Z AUTO 34002MPS //// // ////// 26/24 Q1003 NOSIG
ZJSY,2003-09-01 21:00,ZJSY 012100Z AUTO 30001MPS //// // ////// 27/24 Q1003 NOSIG
ZJSY,2003-09-01 22:00,ZJSY 012200Z 33002MPS 9999 SCT016 SCT200 26/24 Q1004 NOSIG
ZJSY,2003-09-01 23:00,ZJSY 012300Z 27002MPS 9999 SCT013 BKN016 27/24 Q1004 NOSIG
ZJSY,2003-09-02 00:00,ZJSY 020000Z 28002MPS CAVOK 28/25 Q1004 NOSIG
ZJSY,2003-09-02 01:00,ZJSY 020100Z 29004MPS CAVOK 30/25 Q1005 NOSIG
ZJSY,2003-09-02 02:00,ZJSY 020200Z 29004MPS 9999 FEW017 BKN230 31/25 Q1005 NOSIG
ZJSY,2003-09-02 03:00,ZJSY 020300Z 28005MPS 9999 FEW017 BKN230 32/24 Q1004 NOSIG
ZJSY,2003-09-02 04:00,ZJSY 020400Z 29004MPS 9999 FEW017 33/24 Q1004 NOSIG
ZJSY,2003-09-02 05:00,ZJSY 020500Z 24006MPS 9999 FEW017 BKN230 31/25 Q1003 NOSIG
ZJSY,2003-09-02 06:00,ZJSY 020600Z 24007MPS 9999 FEW017 BKN230 31/25 Q1002 NOSIG
ZJSY,2003-09-02 07:00,ZJSY 020700Z 24006MPS 9999 FEW017 BKN230 31/26 Q1001 NOSIG
ZJSY,2003-09-02 08:00,ZJSY 020800Z 24005MPS CAVOK 31/25 Q1000 NOSIG
ZJSY,2003-09-02 09:00,ZJSY 020900Z 26004MPS CAVOK 31/25 Q0999 NOSIG
ZJSY,2003-09-02 10:00,ZJSY 021000Z 25004MPS CAVOK 31/25 Q1000 NOSIG
ZJSY,2003-09-02 11:00,ZJSY 021100Z 30001MPS CAVOK 30/25 Q1000 NOSIG
ZJSY,2003-09-02 12:00,ZJSY 021200Z 26003MPS CAVOK 29/24 Q1001 NOSIG
ZJSY,2003-09-02 13:00,ZJSY 021300Z 27003MPS CAVOK 29/24 Q1002 NOSIG
ZJSY,2003-09-02 14:00,ZJSY 021400Z 26003MPS CAVOK 28/24 Q1003 NOSIG
ZJSY,2003-09-02 15:00,ZJSY 021500Z 27002MPS CAVOK 28/24 Q1002 NOSIG
ZJSY,2003-09-02 16:00,ZJSY 021600Z 24003MPS CAVOK 28/24 Q1002 NOSIG
ZJSY,2003-09-02 17:00,ZJSY 021700Z AUTO 27003MPS //// // ////// 27/23 Q1002 NOSIG
ZJSY,2003-09-02 18:00,ZJSY 021800Z AUTO 31003MPS //// // ////// 28/24 Q1002 NOSIG
ZJSY,2003-09-02 19:00,ZJSY 021900Z AUTO 18001MPS //// // ////// 27/24 Q1001 NOSIG
ZJSY,2003-09-02 20:00,ZJSY 022000Z AUTO 29003MPS //// // ////// 28/23 Q1001 NOSIG
ZJSY,2003-09-02 21:00,ZJSY 022100Z AUTO 28003MPS //// // ////// 27/24 Q1001 NOSIG
ZJSY,2003-09-02 22:00,ZJSY 022200Z 26003MPS CAVOK 27/24 Q1001 NOSIG
ZJSY,2003-09-02 23:00,ZJSY 022300Z 29003MPS 9999 FEW015 BKN200 28/24 Q1002 NOSIG
ZJSY,2003-09-03 00:00,ZJSY 030000Z 24003MPS 9999 SCT013 FEW023CB BKN200 26/23 Q1003 NOSIG
ZJSY,2003-09-03 03:00,ZJSY 030300Z 31002MPS 9999 SCT016 BKN200 30/24 Q1003 NOSIG
ZJSY,2003-09-03 04:00,ZJSY 030400Z 26003MPS 9999 FEW018 SCT040 BKN100 30/23 Q1003 NOSIG
ZJSY,2003-09-03 05:00,ZJSY 030500Z 24002MPS 9999 FEW018 BKN040 BKN100 30/25 Q1003 NOSIG
ZJSY,2003-09-03 06:00,ZJSY 030600Z 22005MPS CAVOK 30/24 Q1002 NOSIG
ZJSY,2003-09-03 07:00,ZJSY 030700Z 23003MPS 9999 FEW018 FEW023TCU BKN160 29/25 Q1002 NOSIG
ZJSY,2003-09-03 08:00,ZJSY 030800Z 24005MPS 9999 FEW018 FEW023TCU BKN160 29/25 Q1002 NOSIG
ZJSY,2003-09-03 09:00,ZJSY 030900Z 26003MPS 9999 FEW018 FEW023TCU BKN130 29/25 Q1002 NOSIG
ZJSY,2003-09-03 10:00,ZJSY 031000Z 24002MPS 9999 FEW018 BKN130 28/25 Q1002 NOSIG
ZJSY,2003-09-03 11:00,ZJSY 031100Z 26002MPS 9999 FEW018 BKN130 28/25 Q1003 NOSIG
ZJSY,2003-09-03 12:00,ZJSY 031200Z 00000MPS 9999 FEW018 BKN130 28/25 Q1004 NOSIG
ZJSY,2003-09-03 13:00,ZJSY 031300Z 07002MPS 9999 FEW018 BKN130 27/25 Q1005 NOSIG
ZJSY,2003-09-03 14:00,ZJSY 031400Z 36001MPS 9999 FEW018 BKN130 28/25 Q1006 NOSIG
ZJSY,2003-09-03 15:00,ZJSY 031500Z 03003MPS 9999 FEW018 BKN230 28/25 Q1006 NOSIG
ZJSY,2003-09-03 16:00,ZJSY 031600Z 09002MPS 9999 FEW018 BKN230 27/25 Q1006 NOSIG
ZJSY,2003-09-03 17:00,ZJSY 031700Z 02002MPS 9999 -TS BKN016 FEW026CB BKN230 27/25 Q1006 NOSIG
ZJSY,2003-09-03 18:00,ZJSY 031800Z 36002MPS 9999 -TS SCT016 FEW026CB BKN230 26/23 Q1006 NOSIG
ZJSY,2003-09-03 19:00,ZJSY 031900Z AUTO 36001MPS //// // ////// 26/23 Q1005 NOSIG
ZJSY,2003-09-03 20:00,ZJSY 032000Z AUTO 35001MPS //// // ////// 25/23 Q1005 NOSIG
ZJSY,2003-09-03 21:00,ZJSY 032100Z AUTO 33001MPS //// // ////// 25/23 Q1005 NOSIG
ZJSY,2003-09-03 22:00,ZJSY 032200Z 02001MPS CAVOK 25/23 Q1006 RETS NOSIG
ZJSY,2003-09-03 23:00,ZJSY 032300Z 35001MPS CAVOK 25/23 Q1006 NOSIG
ZJSY,2003-09-04 00:00,ZJSY 040000Z 02001MPS 9999 FEW016 BKN150 26/24 Q1007 NOSIG
ZJSY,2003-09-04 01:00,ZJSY 040100Z 06001MPS 9999 FEW013 FEW026CB BKN200 29/25 Q1008 NOSIG
ZJSY,2003-09-04 02:00,ZJSY 040200Z 27005MPS 9999 BKN013 FEW026TCU 27/23 Q1008 NOSIG
ZJSY,2003-09-04 03:00,ZJSY 040300Z 27001MPS 9999 FEW013 FEW026TCU SCT200 29/23 Q1008 NOSIG
ZJSY,2003-09-04 04:00,ZJSY 040400Z 21003MPS 9999 FEW016 BKN200 31/23 Q1008 NOSIG
ZJSY,2003-09-04 05:00,ZJSY 040500Z 20002MPS 9999 FEW016 BKN200 31/23 Q1007 NOSIG
ZJSY,2003-09-04 06:00,ZJSY 040600Z 19003MPS 9999 FEW016 FEW023TCU FEW026CB BKN200 31/24 Q1006 NOSIG
ZJSY,2003-09-04 07:00,ZJSY 040700Z 16002MPS 9999 FEW016 FEW023TCU BKN200 31/24 Q1005 NOSIG
ZJSY,2003-09-04 08:00,ZJSY 040800Z 18002MPS 9999 FEW016 FEW026CB BKN200 29/24 Q1005 NOSIG
ZJSY,2003-09-04 09:00,ZJSY 040900Z 19002MPS 9999 FEW026CB BKN200 29/25 Q1005 NOSIG
ZJSY,2003-09-04 10:00,ZJSY 041000Z 06006MPS 9999 -TS SCT016 FEW023TCU FEW040CB BKN260 27/22 Q1006 NOSIG
ZJSY,2003-09-04 11:00,ZJSY 041100Z 34001MPS 9999 FEW016 FEW040CB SCT040 BKN260 27/23 Q1006
ZJSY,2003-09-04 12:00,ZJSY 041200Z 14001MPS 9999 FEW018 FEW023CB SCT050 BKN260 27/23 Q1007 NOSIG
ZJSY,2003-09-04 13:00,ZJSY 041300Z 36001MPS 9999 FEW018 BKN260 26/23 Q1008 NOSIG
ZJSY,2003-09-04 14:00,ZJSY 041400Z 01001MPS 9999 FEW018 SCT130 BKN260 26/23 Q1009 NOSIG
ZJSY,2003-09-04 15:00,ZJSY 041500Z 01001MPS CAVOK 26/23 Q1009 NOSIG
ZJSY,2003-09-04 16:00,ZJSY 041600Z 35001MPS CAVOK 26/23 Q1008 NOSIG
ZJSY,2003-09-04 17:00,ZJSY 041700Z 32001MPS CAVOK 25/23 Q1008 NOSIG
ZJSY,2003-09-04 18:00,ZJSY 041800Z 30001MPS 9999 SCT015 BKN260 25/23 Q1008 NOSIG
ZJSY,2003-09-04 19:00,ZJSY 041900Z AUTO 04001MPS //// // ////// 26/23 Q1007 NOSIG
ZJSY,2003-09-04 20:00,ZJSY 042000Z AUTO 03001MPS //// // ////// 26/23 Q1007 NOSIG
ZJSY,2003-09-04 21:00,ZJSY 042100Z AUTO 06002MPS //// // ////// 26/23 Q1007 NOSIG
ZJSY,2003-09-04 22:00,ZJSY 042200Z 19001MPS 9999 SCT012 BKN015 FEW020CB 25/23 Q1007 NOSIG
ZJSY,2003-09-04 23:00,ZJSY 042300Z 30002MPS 9999 SCT012 BKN015 FEW020CB 25/23 Q1008 NOSIG
ZJSY,2003-09-05 00:00,ZJSY 050000Z 00000MPS 9999 SCT014 FEW030CB SCT033 BKN230 25/23 Q1008 NOSIG
ZJSY,2003-09-05 01:00,ZJSY 050100Z 07002MPS 9999 SCT014 SCT033 BKN230 26/23 Q1008 NOSIG
ZJSY,2003-09-05 02:00,ZJSY 050200Z 13001MPS 9999 -SHRA SCT014 BKN033 26/23 Q1009 NOSIG
ZJSY,2003-09-05 03:00,ZJSY 050300Z 00000MPS 9999 -SHRA SCT014 BKN033 26/24 Q1009 NOSIG
ZJSY,2003-09-05 04:00,ZJSY 050400Z 30001MPS 9999 -SHRA SCT014 BKN033 27/24 Q1008 NOSIG
ZJSY,2003-09-05 05:00,ZJSY 050500Z 20003MPS 9999 SCT018 FEW021TCU BKN230 29/25 Q1007 NOSIG
ZJSY,2003-09-05 06:00,ZJSY 050600Z 20003MPS 9999 SCT018 FEW021TCU SCT230 29/24 Q1007 NOSIG
ZJSY,2003-09-05 07:00,ZJSY 050700Z 20003MPS 9999 FEW018 FEW021TCU BKN230 29/24 Q1006 NOSIG
ZJSY,2003-09-05 08:00,ZJSY 050800Z 23004MPS 9999 FEW018 FEW021TCU BKN230 29/23 Q1006 NOSIG
ZJSY,2003-09-05 09:00,ZJSY 050900Z 25003MPS 9999 SCT018 FEW021TCU FEW026CB SCT230 28/24 Q1006 NOSIG
ZJSY,2003-09-05 10:00,ZJSY 051000Z 28002MPS 9999 SCT018 SCT230 27/24 Q1006 NOSIG
ZJSY,2003-09-05 11:00,ZJSY 051100Z 00000MPS 9999 -SHRA SCT011 FEW026CB BKN200 27/24 Q1006 NOSIG
ZJSY,2003-09-05 12:00,ZJSY 051200Z 26001MPS 9999 -RA FEW011 SCT033 BKN200 26/24 Q1007 NOSIG
ZJSY,2003-09-05 13:00,ZJSY 051300Z 36001MPS 9999 SCT033 BKN200 26/24 Q1007 NOSIG
ZJSY,2003-09-05 14:00,ZJSY 051400Z 34002MPS 9999 FEW013 BKN200 26/24 Q1008 NOSIG
ZJSY,2003-09-05 15:00,ZJSY 051500Z 34002MPS 9999 FEW013 SCT200 25/24 Q1008 NOSIG
ZJSY,2003-09-05 16:00,ZJSY 051600Z 34001MPS CAVOK 25/23 Q1008 NOSIG
ZJSY,2003-09-05 17:00,ZJSY 051700Z 34001MPS CAVOK 25/23 Q1007 NOSIG
ZJSY,2003-09-05 18:00,ZJSY 051800Z 34002MPS CAVOK 25/23 Q1006 NOSIG
ZJSY,2003-09-05 19:00,ZJSY 051900Z AUTO 35002MPS //// // ////// 24/23 Q1006 NOSIG
ZJSY,2003-09-05 20:00,ZJSY 052000Z AUTO 00000MPS //// // ////// 25/22 Q1005 NOSIG
ZJSY,2003-09-05 21:00,ZJSY 052100Z AUTO 07003MPS //// // ////// 24/22 Q1005 NOSIG
ZJSY,2003-09-05 22:00,ZJSY 052200Z 01001MPS 9999 FEW016 FEW023TCU SCT230 24/22 Q1005 NOSIG
ZJSY,2003-09-05 23:00,ZJSY 052300Z 01002MPS 9999 FEW016 FEW023TCU BKN230 24/22 Q1006 NOSIG
ZJSY,2003-09-06 00:00,ZJSY 060000Z 05003MPS 9999 FEW023TCU BKN230 27/23 Q1006 NOSIG
ZJSY,2003-09-06 01:00,ZJSY 060100Z 07003MPS 9999 FEW020 FEW023TCU BKN260 29/23 Q1007 NOSIG
ZJSY,2003-09-06 02:00,ZJSY 060200Z 02001MPS 9999 SCT020 FEW030TCU BKN260 30/24 Q1007 NOSIG
ZJSY,2003-09-06 03:00,ZJSY 060300Z 16002MPS 9999 SCT020 FEW025CB BKN040 29/24 Q1007 NOSIG
ZJSY,2003-09-06 04:00,ZJSY 060400Z 17002MPS 9999 SCT023 FEW026CB BKN110 30/24 Q1006 NOSIG
ZJSY,2003-09-06 05:00,ZJSY 060500Z 22004MPS 9999 SCT023 FEW026CB BKN260 30/24 Q1005 NOSIG
ZJSY,2003-09-06 06:00,ZJSY 060600Z 23005MPS 9999 -TS SCT014 BKN018 SCT020TCU FEW030CB 29/23 Q1004 TEMPO TSRA 5000
ZJSY,2003-09-06 07:00,ZJSY 060700Z 30003MPS 9999 -TSRA SCT012 BKN018 SCT026TCU FEW040CB 27/24 Q1004 TEMPO TSRA 5000
ZJSY,2003-09-06 08:00,ZJSY 060800Z 06003MPS 9999 -SHRA SCT012 BKN015 SCT026TCU FEW040CB 26/24 Q1004
ZJSY,2003-09-06 09:00,ZJSY 060900Z 01001MPS 9999 -SHRA SCT015 FEW040CB BKN040 26/24 Q1004 NOSIG
ZJSY,2003-09-06 10:00,ZJSY 061000Z 00000MPS 9999 SCT015 FEW040CB BKN040 26/24 Q1004 NOSIG
ZJSY,2003-09-06 11:00,ZJSY 061100Z 04001MPS 9999 -SHRA SCT015 FEW040CB BKN040 26/24 Q1003 NOSIG
ZJSY,2003-09-06 12:00,ZJSY 061200Z 08001MPS 9999 SCT015 BKN040 26/23 Q1004 NOSIG
ZJSY,2003-09-06 13:00,ZJSY 061300Z 00000MPS 9999 SCT015 BKN040 25/24 Q1004 NOSIG
ZJSY,2003-09-06 15:00,ZJSY 061500Z 32001MPS 9999 SCT015 SCT040 25/23 Q1005 NOSIG
ZJSY,2003-09-06 16:00,ZJSY 061600Z 00000MPS 9999 SCT015 BKN050 25/24 Q1005 NOSIG
ZJSY,2003-09-06 17:00,ZJSY 061700Z AUTO 00000MPS //// // ////// 25/24 Q1004 NOSIG
ZJSY,2003-09-06 18:00,ZJSY 061800Z AUTO 00000MPS //// // ////// 25/23 Q1004 NOSIG
ZJSY,2003-09-06 19:00,ZJSY 061900Z AUTO 00000MPS //// // ////// 25/23 Q1003 NOSIG
ZJSY,2003-09-06 20:00,ZJSY 062000Z AUTO 31001MPS //// // ////// 25/23 Q1002 NOSIG
ZJSY,2003-09-06 21:00,ZJSY 062100Z AUTO 00000MPS //// // ////// 25/23 Q1002 NOSIG
ZJSY,2003-09-06 22:00,ZJSY 062200Z 34001MPS 9999 FEW013 FEW030CB BKN050 25/23 Q1002 NOSIG
ZJSY,2003-09-06 23:00,ZJSY 062300Z 34001MPS 9999 FEW015 SCT040 BKN200 25/23 Q1003 NOSIG
ZJSY,2003-09-07 00:00,ZJSY 070000Z 00000MPS 9999 FEW015 SCT040 BKN200 26/24 Q1004 NOSIG
ZJSY,2003-09-07 01:00,ZJSY 070100Z 06002MPS 9999 FEW018 BKN200 27/24 Q1004 NOSIG
ZJSY,2003-09-07 02:00,ZJSY 070200Z 10002MPS 9999 FEW018 BKN200 28/24 Q1004 NOSIG
ZJSY,2003-09-07 03:00,ZJSY 070300Z 10001MPS 9999 FEW018 BKN200 29/23 Q1004 NOSIG
ZJSY,2003-09-07 04:00,ZJSY 070400Z 20002MPS 9999 BKN018 BKN200 29/24 Q1003 NOSIG
ZJSY,2003-09-07 05:00,ZJSY 070500Z 20003MPS 9999 SCT018 BKN200 29/24 Q1003 NOSIG
ZJSY,2003-09-07 06:00,ZJSY 070600Z 19003MPS 9999 SCT018 BKN200 30/25 Q1002 NOSIG
ZJSY,2003-09-07 07:00,ZJSY 070700Z 16002MPS 9999 -SHRA SCT013 FEW033CB BKN033 BKN200 27/24 Q1001 NOSIG
ZJSY,2003-09-07 08:00,ZJSY 070800Z 02002MPS 2000 RA BKN010 FEW033CB BKN033 25/24 Q1001 NOSIG
ZJSY,2003-09-07 09:00,ZJSY 070900Z 30002MPS 6000 -RA BKN010 FEW030CB BKN030 25/24 Q1001 RERA NOSIG
ZJSY,2003-09-07 10:00,ZJSY 071000Z 35002MPS 9999 BKN013 BKN030 25/24 Q1001 NOSIG
ZJSY,2003-09-07 11:00,ZJSY 071100Z 35001MPS 9999 -RA SCT013 BKN036 25/23 Q1002 NOSIG
ZJSY,2003-09-07 12:00,ZJSY 071200Z 36001MPS 9999 -RA SCT013 BKN036 25/23 Q1001 NOSIG
ZJSY,2003-09-07 13:00,ZJSY 071300Z 00000MPS 9999 BKN043 BKN200 25/23 Q1002 NOSIG
ZJSY,2003-09-07 14:00,ZJSY 071400Z 36001MPS 9999 BKN043 BKN200 25/24 Q1003 NOSIG
ZJSY,2003-09-07 15:00,ZJSY 071500Z 35002MPS 9999 SCT043 BKN200 25/23 Q1004 NOSIG
ZJSY,2003-09-07 16:00,ZJSY 071600Z 33002MPS 9999 BKN040 BKN200 25/23 Q1004 NOSIG
ZJSY,2003-09-07 17:00,ZJSY 071700Z 35001MPS 9999 BKN040 BKN200 25/23 Q1003 NOSIG
ZJSY,2003-09-07 18:00,ZJSY 071800Z AUTO 10002MPS //// // ////// 25/23 Q1002 NOSIG
ZJSY,2003-09-07 19:00,ZJSY 071900Z AUTO 04003MPS //// // ////// 24/23 Q1001 NOSIG
ZJSY,2003-09-07 20:00,ZJSY 072000Z AUTO 33002MPS //// // ////// 24/23 Q1001 NOSIG
ZJSY,2003-09-07 21:00,ZJSY 072100Z AUTO 34001MPS //// // ////// 24/23 Q1001 NOSIG
ZJSY,2003-09-07 22:00,ZJSY 072200Z 34002MPS 9999 -RA FEW010 FEW030CB BKN030 BKN200 25/23 Q1001 NOSIG
ZJSY,2003-09-07 23:00,ZJSY 072300Z 06002MPS 9999 FEW010 FEW020TCU FEW030CB BKN043 25/23 Q1001 NOSIG
ZJSY,2003-09-08 00:00,ZJSY 080000Z 11001MPS 9999 FEW013 FEW026TCU BKN046 BKN200 25/24 Q1002 NOSIG
ZJSY,2003-09-08 01:00,ZJSY 080100Z 08004MPS 5000 -SHRA FEW013 FEW026CB BKN030 BKN200 26/24 Q1003 NOSIG
ZJSY,2003-09-08 02:00,ZJSY 080200Z 08005MPS 8000 -SHRA FEW013 FEW026CB BKN033 BKN200 25/24 Q1004 NOSIG
ZJSY,2003-09-08 03:00,ZJSY 080300Z 06003MPS 9999 FEW013 FEW026TCU BKN100 BKN200 26/24 Q1004 NOSIG
ZJSY,2003-09-08 04:00,ZJSY 080400Z 09004MPS 9999 FEW013 FEW026TCU BKN100 BKN200 27/24 Q1004 NOSIG
ZJSY,2003-09-08 05:00,ZJSY 080500Z 08005MPS 9999 FEW015 SCT017 BKN200 29/25 Q1003 NOSIG
ZJSY,2003-09-08 06:00,ZJSY 080600Z 07007MPS 9999 FEW015 SCT017 BKN210 30/24 Q1002 NOSIG
ZJSY,2003-09-08 07:00,ZJSY 080700Z 08006MPS 9999 SCT017 SCT050 BKN210 30/24 Q1002 NOSIG
ZJSY,2003-09-08 08:00,ZJSY 080800Z 08007MPS 9999 VCSH FEW016 BKN033 BKN200 26/24 Q1001 RERA NOSIG
ZJSY,2003-09-08 09:00,ZJSY 080900Z 14005MPS 2000 SHRA BKN005 SCT020CB OVC020 26/24 Q1002 TEMPO 1000 +SHRA
ZJSY,2003-09-08 10:00,ZJSY 081000Z 06004MPS 6000 -RA SCT010 FEW030CB BKN030 BKN200 26/24 Q1002 TEMPO 1000 +SHRA
ZJSY,2003-09-08 11:00,ZJSY 081100Z 06005MPS 8000 -RA BKN005 FEW030CB BKN030 BKN200 25/24 Q1002 RERA TEMPO 1000 +SHRA
ZJSY,2003-09-08 12:00,ZJSY 081200Z 06004MPS 9999 -RA BKN010 FEW033CB BKN033 BKN200 26/24 Q1003 RERA
ZJSY,2003-09-08 13:00,ZJSY 081300Z 08004MPS 9999 SCT043 BKN200 26/24 Q1004
ZJSY,2003-09-08 14:00,ZJSY 081400Z 07003MPS 9999 SCT015 BKN040 BKN200 26/24 Q1005
ZJSY,2003-09-08 15:00,ZJSY 081500Z 08004MPS 9999 SCT015 BKN200 26/24 Q1005
ZJSY,2003-09-08 16:00,ZJSY 081600Z 07004MPS 9999 -RA SCT015 BKN040 BKN200 26/25 Q1005
ZJSY,2003-09-08 17:00,ZJSY 081700Z 07004MPS 9999 FEW015 BKN043 BKN200 26/24 Q1005
ZJSY,2003-09-08 18:00,ZJSY 081800Z 08004MPS 5000 RA SCT015 BKN033 BKN200 26/24 Q1005
ZJSY,2003-09-08 19:00,ZJSY 081900Z AUTO 06002MPS //// // ////// 26/24 Q1004
ZJSY,2003-09-08 20:00,ZJSY 082000Z AUTO 03002MPS //// // ////// 25/24 Q1003
ZJSY,2003-09-08 21:00,ZJSY 082100Z AUTO 01001MPS //// // ////// 25/24 Q1004
ZJSY,2003-09-08 22:00,ZJSY 082200Z 25003MPS 6000 -RA SCT010 BKN030 BKN200 25/24 Q1004 RERA
ZJSY,2003-09-08 23:00,ZJSY 082300Z 29001MPS 8000 -RA BKN010 OVC030 25/24 Q1004
ZJSY,2003-09-09 00:00,ZJSY 090000Z 00000MPS 8000 -TSRA BKN010 FEW033CB BKN200 27/25 Q1005
ZJSY,2003-09-09 01:00,ZJSY 090100Z 08005MPS 9999 SCT013 SCT060 28/25 Q1005 RETS
ZJSY,2003-09-09 02:00,ZJSY 090200Z 07006MPS 9999 FEW013 SCT060 29/25 Q1006
ZJSY,2003-09-09 03:00,ZJSY 090300Z 09005MPS 9999 FEW013 SCT230 30/25 Q1005
ZJSY,2003-09-09 04:00,ZJSY 090400Z 09004MPS 9999 SCT015 SCT021TCU FEW025CB 31/25 Q1005
ZJSY,2003-09-09 05:00,ZJSY 090500Z 09004MPS 8000 -SHRA SCT015 SCT021TCU FEW025CB 30/25 Q1005
ZJSY,2003-09-09 06:00,ZJSY 090600Z 10004MPS 9999 FEW016 FEW021TCU SCT230 31/25 Q1004
ZJSY,2003-09-09 07:00,ZJSY 090700Z 09005MPS 9999 FEW016 FEW021TCU SCT230 31/24 Q1003
ZJSY,2003-09-09 08:00,ZJSY 090800Z 10005MPS 9999 FEW016 FEW021TCU SCT230 31/24 Q1003
ZJSY,2003-09-09 09:00,ZJSY 090900Z 08005MPS 9999 FEW016 FEW021TCU FEW026CB SCT230 31/25 Q1003
ZJSY,2003-09-09 10:00,ZJSY 091000Z 06007MPS 9999 FEW016 FEW021TCU FEW026CB SCT230 27/24 Q1003
ZJSY,2003-09-09 11:00,ZJSY 091100Z 07006MPS 9999 SCT013 FEW021TCU BKN230 27/24 Q1004
ZJSY,2003-09-09 12:00,ZJSY 091200Z 08004MPS 9999 FEW013 SCT230 27/24 Q1004
ZJSY,2003-09-09 13:00,ZJSY 091300Z 07004MPS CAVOK 26/24 Q1005
ZJSY,2003-09-09 14:00,ZJSY 091400Z 07004MPS 9999 BKN013 SCT016 27/24 Q1006
ZJSY,2003-09-09 15:00,ZJSY 091500Z 09003MPS 9999 SCT013 SCT230 27/24 Q1007
ZJSY,2003-09-09 16:00,ZJSY 091600Z 08004MPS 9999 FEW013 SCT230 26/24 Q1007
ZJSY,2003-09-09 17:00,ZJSY 091700Z AUTO 07004MPS //// // ////// 27/25 Q1006
ZJSY,2003-09-09 18:00,ZJSY 091800Z AUTO 07004MPS //// // ////// 27/24 Q1005
ZJSY,2003-09-09 19:00,ZJSY 091900Z AUTO 06003MPS //// // ////// 26/25 Q1005
ZJSY,2003-09-09 20:00,ZJSY 092000Z AUTO 34002MPS //// // ////// 26/24 Q1005
ZJSY,2003-09-09 21:00,ZJSY 092100Z AUTO 35003MPS //// // ////// 24/22 Q1005
ZJSY,2003-09-09 22:00,ZJSY 092200Z 34002MPS 9999 -RA BKN013 SCT016 25/23 Q1005
ZJSY,2003-09-09 23:00,ZJSY 092300Z 00000MPS 9999 -RA SCT010 FEW026CB BKN200 25/23 Q1006
ZJSY,2003-09-10 00:00,ZJSY 100000Z 32001MPS 9999 FEW016 BKN200 26/24 Q1006
ZJSY,2003-09-10 01:00,ZJSY 100100Z 33001MPS 9999 FEW016 FEW026TCU BKN200 28/24 Q1007
ZJSY,2003-09-10 02:00,ZJSY 100200Z 20001MPS 9999 FEW016 FEW026TCU BKN200 30/24 Q1007
ZJSY,2003-09-10 03:00,ZJSY 100300Z 20002MPS 9999 FEW020 FEW026CB BKN060 30/24 Q1007
ZJSY,2003-09-10 04:00,ZJSY 100400Z 19002MPS 9999 FEW020 FEW026CB BKN060 29/24 Q1007
ZJSY,2003-09-10 05:00,ZJSY 100500Z 21005MPS 9999 SCT020 FEW026TCU FEW028CB BKN260 28/25 Q1007
ZJSY,2003-09-10 06:00,ZJSY 100600Z 22002MPS 9999 SCT020 FEW026TCU FEW028CB BKN260 27/23 Q1006
ZJSY,2003-09-10 07:00,ZJSY 100700Z 34001MPS 9999 FEW020 FEW023TCU SCT040 BKN260 27/23 Q1005 NOSIG
ZJSY,2003-09-10 08:00,ZJSY 100800Z 04002MPS 9999 FEW020 FEW023TCU BKN260 28/23 Q1005 NOSIG
ZJSY,2003-09-10 09:00,ZJSY 100900Z 02001MPS 9999 FEW020 FEW023TCU BKN260 28/24 Q1004 NOSIG
ZJSY,2003-09-10 10:00,ZJSY 101000Z 33001MPS 9999 FEW016 BKN200 28/24 Q1004 NOSIG
ZJSY,2003-09-10 11:00,ZJSY 101100Z 30001MPS 9999 FEW016 BKN200 28/24 Q1005 NOSIG
ZJSY,2003-09-10 12:00,ZJSY 101200Z 00000MPS CAVOK 27/24 Q1005 NOSIG
ZJSY,2003-09-10 13:00,ZJSY 101300Z 01001MPS CAVOK 26/24 Q1006 NOSIG
ZJSY,2003-09-10 14:00,ZJSY 101400Z 00000MPS CAVOK 26/23 Q1007 NOSIG
ZJSY,2003-09-10 15:00,ZJSY 101500Z 33002MPS CAVOK 25/23 Q1007 NOSIG
ZJSY,2003-09-10 16:00,ZJSY 101600Z 35002MPS CAVOK 25/23 Q1007 NOSIG
ZJSY,2003-09-10 17:00,ZJSY 101700Z 35001MPS CAVOK 25/23 Q1006 NOSIG
ZJSY,2003-09-10 18:00,ZJSY 101800Z AUTO 01001MPS //// // ////// 25/23 Q1006 NOSIG
ZJSY,2003-09-10 19:00,ZJSY 101900Z AUTO 32002MPS //// // ////// 25/23 Q1005 NOSIG
ZJSY,2003-09-10 20:00,ZJSY 102000Z AUTO 35002MPS //// // ////// 25/23 Q1005 NOSIG
ZJSY,2003-09-10 21:00,ZJSY 102100Z AUTO 32002MPS //// // ////// 24/23 Q1005 NOSIG
ZJSY,2003-09-10 22:00,ZJSY 102200Z 35001MPS CAVOK 24/23 Q1006 NOSIG
ZJSY,2003-09-10 23:00,ZJSY 102300Z 00000MPS 9999 FEW016 24/23 Q1006 NOSIG
ZJSY,2003-09-11 00:00,ZJSY 110000Z 00000MPS 9999 FEW016 FEW021TCU 27/24 Q1007 NOSIG
ZJSY,2003-09-11 01:00,ZJSY 110100Z 18001MPS 9999 FEW016 FEW026TCU SCT260 29/24 Q1007 NOSIG
ZJSY,2003-09-11 02:00,ZJSY 110200Z 20002MPS 9999 SCT016 FEW026TCU SCT260 30/24 Q1007 NOSIG
ZJSY,2003-09-11 03:00,ZJSY 110300Z 21003MPS 9999 SCT016 FEW026TCU BKN260 29/25 Q1007 NOSIG
ZJSY,2003-09-11 04:00,ZJSY 110400Z 24005MPS 9999 FEW016 FEW025CB SCT200 30/24 Q1007 NOSIG
ZJSY,2003-09-11 05:00,ZJSY 110500Z 22004MPS 9999 FEW016 FEW026TCU BKN230 30/24 Q1006 NOSIG
ZJSY,2003-09-11 06:00,ZJSY 110600Z 24005MPS 9999 FEW016 FEW026TCU SCT230 30/24 Q1005 NOSIG
ZJSY,2003-09-11 07:00,ZJSY 110700Z 24004MPS 9999 FEW016 FEW026TCU SCT230 30/24 Q1004 NOSIG
ZJSY,2003-09-11 08:00,ZJSY 110800Z 23004MPS 9999 FEW016 FEW026TCU FEW033CB SCT230 30/24 Q1004 NOSIG
ZJSY,2003-09-11 09:00,ZJSY 110900Z 22002MPS 9999 FEW016 FEW026TCU FEW033CB SCT230 29/24 Q1004 NOSIG
ZJSY,2003-09-11 10:00,ZJSY 111000Z 20001MPS 9999 FEW016 FEW026TCU FEW033CB SCT230 29/24 Q1004 NOSIG
ZJSY,2003-09-11 11:00,ZJSY 111100Z 21002MPS 9999 SCT016 FEW033CB BKN260 28/24 Q1004 NOSIG
ZJSY,2003-09-11 12:00,ZJSY 111200Z 00000MPS 9999 SCT018 FEW033CB BKN260 28/24 Q1005 NOSIG
ZJSY,2003-09-11 13:00,ZJSY 111300Z 00000MPS 9999 FEW018 FEW025TCU SCT040 BKN260 27/24 Q1005 NOSIG
ZJSY,2003-09-11 14:00,ZJSY 111400Z 00000MPS 9999 SCT016 FEW025TCU SCT040 BKN260 27/24 Q1006 NOSIG
ZJSY,2003-09-11 15:00,ZJSY 111500Z 08001MPS 9999 SCT016 FEW025TCU BKN260 27/24 Q1007 NOSIG
ZJSY,2003-09-11 16:00,ZJSY 111600Z 32001MPS 9999 FEW020 FEW025CB BKN100 26/24 Q1007 NOSIG
ZJSY,2003-09-11 17:00,ZJSY 111700Z AUTO 35001MPS //// // ////// 26/24 Q1006 NOSIG
ZJSY,2003-09-11 18:00,ZJSY 111800Z AUTO 00000MPS //// // ////// 26/24 Q1006 NOSIG
ZJSY,2003-09-11 19:00,ZJSY 111900Z AUTO 09001MPS //// // ////// 26/23 Q1005 NOSIG
ZJSY,2003-09-11 20:00,ZJSY 112000Z AUTO 36001MPS //// // ////// 25/23 Q1005 NOSIG
ZJSY,2003-09-11 21:00,ZJSY 112100Z AUTO 33002MPS //// // ////// 25/23 Q1005 NOSIG
ZJSY,2003-09-11 22:00,ZJSY 112200Z 30002MPS 9999 SCT018 FEW020TCU BKN260 25/23 Q1006 NOSIG
ZJSY,2003-09-11 23:00,ZJSY 112300Z 33001MPS 9999 SCT018 FEW020TCU BKN260 25/23 Q1006 NOSIG
ZJSY,2003-09-12 00:00,ZJSY 120000Z 36001MPS 9999 FEW020 SCT050 BKN260 26/24 Q1006 NOSIG
ZJSY,2003-09-12 01:00,ZJSY 120100Z 32001MPS CAVOK 27/24 Q1007 NOSIG
ZJSY,2003-09-12 02:00,ZJSY 120200Z 14001MPS 9999 FEW016 BKN260 30/23 Q1007 NOSIG
ZJSY,2003-09-12 03:00,ZJSY 120300Z 18002MPS 9999 FEW016 FEW026TCU SCT260 30/23 Q1007 NOSIG
ZJSY,2003-09-12 04:00,ZJSY 120400Z 19003MPS 9999 FEW016 FEW026TCU BKN260 30/23 Q1007 NOSIG
ZJSY,2003-09-12 05:00,ZJSY 120500Z 19003MPS 9999 FEW013 BKN260 31/23 Q1006 NOSIG
ZJSY,2003-09-12 06:00,ZJSY 120600Z 18003MPS 9999 FEW016 FEW023TCU BKN200 30/25 Q1005 NOSIG
ZJSY,2003-09-12 07:00,ZJSY 120700Z 19004MPS 9999 FEW013 FEW026CB BKN200 30/24 Q1005 NOSIG
ZJSY,2003-09-12 08:00,ZJSY 120800Z 15002MPS 9999 BKN013 FEW026CB BKN200 29/24 Q1004 NOSIG
ZJSY,2003-09-12 09:00,ZJSY 120900Z 08003MPS 9999 -SHRA BKN011 FEW023TCU BKN200 28/24 Q1004 NOSIG
ZJSY,2003-09-12 10:00,ZJSY 121000Z 29002MPS 9999 -SHRA SCT023 SCT200 28/25 Q1004 NOSIG
ZJSY,2003-09-12 11:00,ZJSY 121100Z 01002MPS 9999 FEW023 SCT200 27/24 Q1005 NOSIG
ZJSY,2003-09-12 12:00,ZJSY 121200Z 07002MPS 9999 FEW023 SCT200 27/24 Q1006 NOSIG
ZJSY,2003-09-12 13:00,ZJSY 121300Z 04002MPS 9999 FEW023 SCT200 27/24 Q1007 NOSIG
ZJSY,2003-09-12 14:00,ZJSY 121400Z 05003MPS CAVOK 27/24 Q1007 NOSIG
ZJSY,2003-09-12 15:00,ZJSY 121500Z 06003MPS CAVOK 27/23 Q1007 NOSIG
ZJSY,2003-09-12 16:00,ZJSY 121600Z 05001MPS CAVOK 27/23 Q1007 NOSIG
ZJSY,2003-09-12 17:00,ZJSY 121700Z 07002MPS CAVOK 27/23 Q1006 NOSIG
ZJSY,2003-09-12 21:00,ZJSY 122100Z AUTO 09003MPS //// // ////// 25/23 Q1006 NOSIG
ZJSY,2003-09-12 22:00,ZJSY 122200Z 07004MPS 9999 -SHRA SCT010 FEW030CB BKN030 24/22 Q1006 NOSIG
ZJSY,2003-09-12 23:00,ZJSY 122300Z 05002MPS 8000 -RA SCT010 FEW030CB BKN030 25/23 Q1006 NOSIG
ZJSY,2003-09-13 00:00,ZJSY 130000Z 01001MPS 9999 -RA FEW015 FEW040CB BKN040 25/24 Q1007 NOSIG
ZJSY,2003-09-13 01:00,ZJSY 130100Z 36001MPS 9999 -RA SCT015 FEW040CB BKN040 26/24 Q1007 NOSIG
ZJSY,2003-09-13 02:00,ZJSY 130200Z 05003MPS 9999 FEW016 SCT060 BKN200 28/24 Q1007 NOSIG
ZJSY,2003-09-13 03:00,ZJSY 130300Z 05004MPS 9999 FEW016 SCT060 BKN200 29/24 Q1007 NOSIG
ZJSY,2003-09-13 04:00,ZJSY 130400Z 07004MPS 9999 FEW016 BKN230 30/24 Q1007 NOSIG
ZJSY,2003-09-13 05:00,ZJSY 130500Z 09004MPS 9999 FEW016 FEW021TCU SCT230 31/25 Q1006 NOSIG
ZJSY,2003-09-13 06:00,ZJSY 130600Z 07005MPS 9999 FEW016 FEW021TCU SCT230 31/25 Q1006 NOSIG
ZJSY,2003-09-13 07:00,ZJSY 130700Z 09005MPS 9999 FEW016 FEW021TCU SCT230 32/24 Q1005 NOSIG
ZJSY,2003-09-13 08:00,ZJSY 130800Z 08005MPS 9999 FEW016 FEW021TCU SCT230 31/24 Q1005 NOSIG
ZJSY,2003-09-13 09:00,ZJSY 130900Z 10004MPS 9999 FEW016 SCT230 31/24 Q1005 NOSIG
ZJSY,2003-09-13 10:00,ZJSY 131000Z 08005MPS 9999 FEW013 FEW023TCU BKN230 29/24 Q1005 NOSIG
ZJSY,2003-09-13 11:00,ZJSY 131100Z 08004MPS 9999 FEW013 FEW026CB BKN230 28/24 Q1005 NOSIG
ZJSY,2003-09-13 12:00,ZJSY 131200Z 08003MPS 9999 FEW013 BKN230 28/24 Q1006 NOSIG
ZJSY,2003-09-13 13:00,ZJSY 131300Z 08003MPS CAVOK 27/24 Q1006 NOSIG
ZJSY,2003-09-13 14:00,ZJSY 131400Z 08004MPS CAVOK 27/24 Q1007 NOSIG
ZJSY,2003-09-13 15:00,ZJSY 131500Z 08004MPS CAVOK 27/23 Q1007 NOSIG
ZJSY,2003-09-13 16:00,ZJSY 131600Z 07003MPS CAVOK 27/23 Q1007 NOSIG
ZJSY,2003-09-13 17:00,ZJSY 131700Z AUTO 07002MPS //// // ////// 27/23 Q1007 NOSIG
ZJSY,2003-09-13 18:00,ZJSY 131800Z AUTO 07002MPS //// // ////// 26/23 Q1006 NOSIG
ZJSY,2003-09-13 19:00,ZJSY 131900Z AUTO 08001MPS //// // ////// 27/23 Q1006 NOSIG
ZJSY,2003-09-13 20:00,ZJSY 132000Z AUTO 04001MPS //// // ////// 27/23 Q1006 NOSIG
ZJSY,2003-09-13 21:00,ZJSY 132100Z AUTO 05003MPS //// // ////// 26/24 Q1006 NOSIG
ZJSY,2003-09-13 22:00,ZJSY 132200Z 05003MPS 9999 FEW013 SCT200 26/23 Q1006 NOSIG
ZJSY,2003-09-13 23:00,ZJSY 132300Z 22001MPS 9999 -SHRA SCT012 FEW023TCU BKN200 25/23 Q1006 NOSIG
ZJSY,2003-09-14 00:00,ZJSY 140000Z 11001MPS 9999 -SHRA SCT012 FEW023TCU BKN200 26/24 Q1007 NOSIG
ZJSY,2003-09-14 01:00,ZJSY 140100Z 10002MPS 9999 BKN014 FEW020TCU BKN033 26/24 Q1008 NOSIG
ZJSY,2003-09-14 02:00,ZJSY 140200Z 02001MPS 9999 SCT015 FEW020TCU BKN040 27/24 Q1008 NOSIG
ZJSY,2003-09-14 03:00,ZJSY 140300Z 08002MPS 9999 BKN015 FEW023CB BKN040 28/24 Q1008 NOSIG
ZJSY,2003-09-14 04:00,ZJSY 140400Z 04004MPS 9999 -SHRA SCT016 SCT040 BKN100 26/23 Q1008 NOSIG
ZJSY,2003-09-14 05:00,ZJSY 140500Z 01002MPS 9999 -RA FEW016 SCT040 BKN100 27/24 Q1007 NOSIG
ZJSY,2003-09-14 06:00,ZJSY 140600Z 06001MPS 9999 FEW018 BKN260 31/24 Q1005 NOSIG
ZJSY,2003-09-14 07:00,ZJSY 140700Z 05003MPS 9999 FEW018 BKN260 30/23 Q1005 NOSIG
ZJSY,2003-09-14 08:00,ZJSY 140800Z 05002MPS 9999 FEW018 BKN260 31/23 Q1004 NOSIG
ZJSY,2003-09-14 09:00,ZJSY 140900Z 26002MPS 9999 FEW020 BKN260 30/24 Q1004 NOSIG
ZJSY,2003-09-14 10:00,ZJSY 141000Z 24002MPS 9999 FEW016 BKN230 28/25 Q1004 NOSIG
ZJSY,2003-09-14 11:00,ZJSY 141100Z 30002MPS 9999 BKN013 FEW033CB BKN033 28/25 Q1005 NOSIG
ZJSY,2003-09-14 12:00,ZJSY 141200Z 28002MPS 9999 SCT016 BKN200 26/23 Q1005 NOSIG
ZJSY,2003-09-14 13:00,ZJSY 141300Z 30002MPS 9999 TS BKN016 SCT025CB BKN033 25/23 Q1006 NOSIG
ZJSY,2003-09-14 14:00,ZJSY 141400Z 34001MPS 9999 SCT016 FEW025CB BKN050 26/23 Q1006 RETS NOSIG
ZJSY,2003-09-14 15:00,ZJSY 141500Z 35002MPS 9999 -TS SCT016 FEW025CB BKN050 26/23 Q1007 NOSIG
ZJSY,2003-09-14 16:00,ZJSY 141600Z 36001MPS 9999 -TS SCT016 FEW025CB BKN050 26/23 Q1007 NOSIG
ZJSY,2003-09-14 17:00,ZJSY 141700Z 34001MPS 9999 SCT016 FEW025CB BKN050 25/23 Q1006 RETS NOSIG
ZJSY,2003-09-14 18:00,ZJSY 141800Z AUTO 32001MPS //// // ////// 25/23 Q1005 NOSIG
ZJSY,2003-09-14 19:00,ZJSY 141900Z AUTO 34002MPS //// // ////// 25/23 Q1005 NOSIG
ZJSY,2003-09-14 20:00,ZJSY 142000Z AUTO 36001MPS //// // ////// 25/24 Q1005 NOSIG
ZJSY,2003-09-14 21:00,ZJSY 142100Z AUTO 22001MPS //// // ////// 26/24 Q1005 NOSIG
ZJSY,2003-09-14 22:00,ZJSY 142200Z 30001MPS 9999 SCT013 BKN050 26/24 Q1005 NOSIG
ZJSY,2003-09-14 23:00,ZJSY 142300Z 32003MPS 9999 SCT013 SCT050 BKN230 26/24 Q1005 NOSIG
ZJSY,2003-09-15 00:00,ZJSY 150000Z 30002MPS 9999 FEW013 SCT050 BKN230 27/23 Q1005 NOSIG
ZJSY,2003-09-15 01:00,ZJSY 150100Z 27003MPS 9999 FEW013 BKN046 27/23 Q1006 NOSIG
ZJSY,2003-09-15 02:00,ZJSY 150200Z 26003MPS 9999 BKN046 28/24 Q1006 NOSIG
ZJSY,2003-09-15 03:00,ZJSY 150300Z 26003MPS 9999 BKN046 OVC200 28/24 Q1006 NOSIG
ZJSY,2003-09-15 04:00,ZJSY 150400Z 25003MPS 9999 BKN046 OVC200 28/24 Q1006 NOSIG
ZJSY,2003-09-15 05:00,ZJSY 150500Z 27004MPS 9999 BKN046 OVC200 28/24 Q1005 NOSIG
ZJSY,2003-09-15 06:00,ZJSY 150600Z 27005MPS 9999 FEW015 BKN043 OVC200 29/24 Q1004 NOSIG
ZJSY,2003-09-15 07:00,ZJSY 150700Z 28003MPS 9999 -TS BKN015 FEW030CB BKN043 29/24 Q1004 NOSIG
ZJSY,2003-09-15 08:00,ZJSY 150800Z 34001MPS 9999 -SHRA SCT013 FEW030CB BKN043 OVC200 27/24 Q1004 RETS
ZJSY,2003-09-15 09:00,ZJSY 150900Z 31002MPS 9999 -RA FEW013 BKN040 OVC200 27/23 Q1004
ZJSY,2003-09-15 10:00,ZJSY 151000Z 00000MPS 9999 FEW015 SCT030 OVC040 27/24 Q1004
ZJSY,2003-09-15 11:00,ZJSY 151100Z 28001MPS 9999 SCT015 SCT030 OVC040 26/24 Q1004
ZJSY,2003-09-15 12:00,ZJSY 151200Z 33001MPS 9999 SCT015 SCT033 BKN050 26/24 Q1005 NOSIG
ZJSY,2003-09-15 13:00,ZJSY 151300Z 34001MPS 9999 SCT015 SCT033 BKN050 26/24 Q1005 NOSIG
ZJSY,2003-09-15 14:00,ZJSY 151400Z 03001MPS 9999 SCT015 SCT033 BKN050 26/23 Q1006 NOSIG
ZJSY,2003-09-15 15:00,ZJSY 151500Z 00000MPS 9999 SCT015 SCT033 BKN050 25/24 Q1007 NOSIG
ZJSY,2003-09-15 16:00,ZJSY 151600Z 33002MPS 9999 FEW016 BKN050 BKN100 25/23 Q1007 NOSIG
ZJSY,2003-09-15 17:00,ZJSY 151700Z 00000MPS 9999 FEW016 BKN050 BKN100 25/23 Q1006 NOSIG
ZJSY,2003-09-15 19:00,ZJSY 151900Z AUTO 29001MPS //// // ////// 26/24 Q1006 NOSIG
ZJSY,2003-09-15 20:00,ZJSY 152000Z AUTO 33002MPS //// // ////// 26/24 Q1005 NOSIG
ZJSY,2003-09-15 21:00,ZJSY 152100Z AUTO 26006MPS //// // ////// 24/23 Q1006 NOSIG
ZJSY,2003-09-15 22:00,ZJSY 152200Z 27003MPS 9999 -TSRA SCT012 FEW023TCU FEW025CB BKN033 25/23 Q1006
ZJSY,2003-09-15 23:00,ZJSY 152300Z AUTO 34003MPS //// // ////// 24/23 Q1007
ZJSY,2003-09-16 00:00,ZJSY 160000Z 29003MPS 0800 TSRA BKN012 FEW023TCU FEW025CB BKN030 24/23 Q1008 NOSIG
ZJSY,2003-09-16 01:00,ZJSY 160100Z 33003MPS 4000 -SHRA SCT012 FEW033CB BKN033 24/23 Q1009
ZJSY,2003-09-16 02:00,ZJSY 160200Z 32002MPS 5000 -TSRA BKN011 FEW026CB OVC030 25/24 Q1009
ZJSY,2003-09-16 03:00,ZJSY 160300Z 02001MPS 6000 -SHRA BKN011 FEW026CB OVC030 25/23 Q1009 RETS
ZJSY,2003-09-16 04:00,ZJSY 160400Z 36001MPS 9999 -RA SCT011 OVC033 27/24 Q1009
ZJSY,2003-09-16 05:00,ZJSY 160500Z 36001MPS 9999 -TSRA SCT011 FEW026CB OVC033 28/24 Q1008
ZJSY,2003-09-16 06:00,ZJSY 160600Z 13002MPS 6000 -TSRA SCT011 FEW026CB OVC033 26/25 Q1007
ZJSY,2003-09-16 07:00,ZJSY 160700Z 12001MPS 8000 -SHRA SCT011 FEW026CB OVC033 26/24 Q1007 RETS
ZJSY,2003-09-16 08:00,ZJSY 160800Z 11001MPS 9999 SCT011 BKN040 27/24 Q1006
ZJSY,2003-09-16 09:00,ZJSY 160900Z 04001MPS 9999 FEW013 SCT050 BKN200 28/24 Q1006
ZJSY,2003-09-16 10:00,ZJSY 161000Z 24001MPS CAVOK 28/24 Q1007
ZJSY,2003-09-16 11:00,ZJSY 161100Z 04001MPS CAVOK 27/25 Q1008
ZJSY,2003-09-16 12:00,ZJSY 161200Z 36001MPS CAVOK 26/24 Q1008 N0SIG
ZJSY,2003-09-16 13:00,ZJSY 161300Z 34002MPS CAVOK 25/24 Q1009
ZJSY,2003-09-16 14:00,ZJSY 161400Z 34002MPS CAVOK 25/23 Q1009
ZJSY,2003-09-16 15:00,ZJSY 161500Z 34002MPS CAVOK 25/23 Q1009
ZJSY,2003-09-16 16:00,ZJSY 161600Z 34002MPS CAVOK 25/23 Q1009
ZJSY,2003-09-16 17:00,ZJSY 161700Z 36001MPS CAVOK 24/23 Q1008
ZJSY,2003-09-16 18:00,ZJSY 161800Z 01001MPS CAVOK 24/23 Q1008
ZJSY,2003-09-16 19:00,ZJSY 161900Z AUTO 33001MPS //// // ////// 24/22 Q1008
ZJSY,2003-09-16 20:00,ZJSY 162000Z AUTO 34002MPS //// // ////// 24/22 Q1008
ZJSY,2003-09-16 21:00,ZJSY 162100Z AUTO 36001MPS //// // ////// 24/22 Q1008
ZJSY,2003-09-16 22:00,ZJSY 162200Z 34002MPS CAVOK 24/22 Q1009
ZJSY,2003-09-16 23:00,ZJSY 162300Z 36002MPS 9999 FEW026TCU SCT200 24/22 Q1009
ZJSY,2003-09-17 00:00,ZJSY 170000Z 34002MPS CAVOK 25/23 Q1009
ZJSY,2003-09-17 01:00,ZJSY 170100Z 05001MPS CAVOK 29/24 Q1010
ZJSY,2003-09-17 02:00,ZJSY 170200Z 08002MPS CAVOK 30/24 Q1010
ZJSY,2003-09-17 03:00,ZJSY 170300Z 12003MPS 9999 FEW016 BKN200 31/24 Q1010
ZJSY,2003-09-17 04:00,ZJSY 170400Z 16003MPS 9999 SCT016 FEW021TCU BKN230 31/25 Q1010
ZJSY,2003-09-17 05:00,ZJSY 170500Z 15004MPS 9999 SCT016 FEW021TCU BKN230 31/25 Q1009
ZJSY,2003-09-17 06:00,ZJSY 170600Z 14004MPS 9999 SCT016 FEW021TCU BKN230 31/25 Q1008
ZJSY,2003-09-17 07:00,ZJSY 170700Z 14003MPS 9999 FEW016 FEW021TCU BKN230 31/25 Q1008
ZJSY,2003-09-17 08:00,ZJSY 170800Z 14004MPS 9999 FEW016 FEW025TCU BKN230 30/25 Q1007
ZJSY,2003-09-17 09:00,ZJSY 170900Z 14004MPS 9999 SCT016 FEW025TCU BKN230 30/24 Q1007
ZJSY,2003-09-17 10:00,ZJSY 171000Z 06004MPS 9999 FEW016 FEW025TCU BKN230 29/24 Q1008
ZJSY,2003-09-17 11:00,ZJSY 171100Z 08004MPS 9999 FEW013 FEW025TCU BKN230 28/24 Q1008
ZJSY,2003-09-17 12:00,ZJSY 171200Z 05003MPS CAVOK 27/24 Q1008
ZJSY,2003-09-17 13:00,ZJSY 171300Z 08003MPS CAVOK 27/24 Q1009
ZJSY,2003-09-17 14:00,ZJSY 171400Z 07002MPS CAVOK 27/24 Q1009
ZJSY,2003-09-17 15:00,ZJSY 171500Z 04002MPS CAVOK 27/24 Q1010
ZJSY,2003-09-17 16:00,ZJSY 171600Z 00000MPS 9999 FEW013 SCT230 26/24 Q1010
ZJSY,2003-09-17 17:00,ZJSY 171700Z 33002MPS 9999 FEW013 SCT230 26/23 Q1010
ZJSY,2003-09-17 18:00,ZJSY 171800Z AUTO 35002MPS //// // ////// 26/23 Q1009
ZJSY,2003-09-17 19:00,ZJSY 171900Z AUTO 06002MPS //// // ////// 26/23 Q1009
ZJSY,2003-09-17 20:00,ZJSY 172000Z AUTO 07002MPS //// // ////// 26/23 Q1009
ZJSY,2003-09-17 21:00,ZJSY 172100Z AUTO 06002MPS //// // ////// 26/23 Q1009
ZJSY,2003-09-17 22:00,ZJSY 172200Z 10003MPS 9999 SCT013 FEW023TCU BKN230 26/24 Q1010
ZJSY,2003-09-17 23:00,ZJSY 172300Z 36001MPS 9999 SCT013 FEW026CB BKN230 25/24 Q1010
ZJSY,2003-09-18 00:00,ZJSY 180000Z 03001MPS 9999 FEW013 FEW026CB BKN230 26/24 Q1010
ZJSY,2003-09-18 01:00,ZJSY 180100Z 07005MPS 9999 FEW016 FEW026TCU SCT083 BKN230 27/24 Q1011
ZJSY,2003-09-18 02:00,ZJSY 180200Z 07004MPS CAVOK 30/24 Q1011
ZJSY,2003-09-18 03:00,ZJSY 180300Z 10003MPS 9999 FEW017 SCT230 30/23 Q1011
ZJSY,2003-09-18 04:00,ZJSY 180400Z 15003MPS 9999 SCT020 BKN260 31/25 Q1011 NOSIG
ZJSY,2003-09-18 05:00,ZJSY 180500Z 17004MPS 9999 FEW020 FEW021CB BKN260 30/24 Q1010 NOSIG
ZJSY,2003-09-18 06:00,ZJSY 180600Z 16003MPS 9999 FEW020 FEW021CB BKN260 30/24 Q1009 NOSIG
ZJSY,2003-09-18 07:00,ZJSY 180700Z 16002MPS 9999 FEW020 FEW021CB BKN260 30/23 Q1008 NOSIG
ZJSY,2003-09-18 08:00,ZJSY 180800Z 18002MPS 9999 FEW020 FEW030TCU BKN260 30/24 Q1007 NOSIG
ZJSY,2003-09-18 09:00,ZJSY 180900Z 16002MPS 9999 FEW020 FEW030TCU BKN260 30/25 Q1007 NOSIG
ZJSY,2003-09-18 10:00,ZJSY 181000Z 15002MPS 9999 FEW020 BKN260 29/24 Q1007 NOSIG
ZJSY,2003-09-18 11:00,ZJSY 181100Z 16002MPS 9999 SCT016 FEW030CB BKN260 28/24 Q1007 NOSIG
ZJSY,2003-09-18 12:00,ZJSY 181200Z 08002MPS 9999 FEW016 FEW030CB BKN260 28/24 Q1008 NOSIG
ZJSY,2003-09-18 13:00,ZJSY 181300Z 36001MPS 9999 FEW016 BKN260 27/24 Q1009 NOSIG
ZJSY,2003-09-18 14:00,ZJSY 181400Z 07002MPS 9999 FEW016 BKN260 27/24 Q1009 NOSIG
ZJSY,2003-09-18 15:00,ZJSY 181500Z 06002MPS 9999 FEW016 BKN260 27/24 Q1010 NOSIG
ZJSY,2003-09-18 16:00,ZJSY 181600Z 05001MPS 9999 FEW016 BKN260 27/24 Q1010 NOSIG
ZJSY,2003-09-18 17:00,ZJSY 181700Z AUTO 05002MPS //// // ////// 26/23 Q1010 NOSIG
ZJSY,2003-09-18 18:00,ZJSY 181800Z AUTO 34001MPS //// // ////// 25/23 Q1009 NOSIG
ZJSY,2003-09-18 19:00,ZJSY 181900Z AUTO 01002MPS //// // ////// 25/23 Q1009 NOSIG
ZJSY,2003-09-18 20:00,ZJSY 182000Z AUTO 35001MPS //// // ////// 25/23 Q1008 NOSIG
ZJSY,2003-09-18 21:00,ZJSY 182100Z AUTO 35002MPS //// // ////// 25/23 Q1008 NOSIG
ZJSY,2003-09-18 22:00,ZJSY 182200Z 36002MPS CAVOK 24/23 Q1009 NOSIG
ZJSY,2003-09-18 23:00,ZJSY 182300Z 34003MPS CAVOK 24/22 Q1009 NOSIG
ZJSY,2003-09-19 00:00,ZJSY 190000Z 33002MPS CAVOK 26/23 Q1009 NOSIG
ZJSY,2003-09-19 01:00,ZJSY 190100Z 34001MPS CAVOK 28/24 Q1010 NOSIG
ZJSY,2003-09-19 02:00,ZJSY 190200Z 14001MPS 9999 FEW016 BKN260 29/24 Q1010 NOSIG
ZJSY,2003-09-19 03:00,ZJSY 190300Z 17002MPS 9999 FEW016 BKN260 30/23 Q1010 NOSIG
ZJSY,2003-09-19 04:00,ZJSY 190400Z 18001MPS 9999 FEW018 BKN260 31/23 Q1010 NOSIG
ZJSY,2003-09-19 05:00,ZJSY 190500Z 20002MPS 9999 FEW018 BKN260 31/23 Q1009 NOSIG
ZJSY,2003-09-19 06:00,ZJSY 190600Z 19003MPS 9999 FEW020 BKN260 31/24 Q1009 NOSIG
ZJSY,2003-09-19 07:00,ZJSY 190700Z 19003MPS 9999 FEW020 BKN260 30/24 Q1008 NOSIG
ZJSY,2003-09-19 08:00,ZJSY 190800Z 18002MPS 9999 FEW020 BKN260 30/25 Q1008 NOSIG
ZJSY,2003-09-19 09:00,ZJSY 190900Z 17002MPS CAVOK 30/24 Q1008 NOSIG
ZJSY,2003-09-19 10:00,ZJSY 191000Z 16001MPS 9999 FEW020 BKN260 29/24 Q1008 NOSIG
ZJSY,2003-09-19 11:00,ZJSY 191100Z 00000MPS CAVOK 28/24 Q1008 NOSIG
ZJSY,2003-09-19 12:00,ZJSY 191200Z 00000MPS CAVOK 27/24 Q1008 NOSIG
ZJSY,2003-09-19 13:00,ZJSY 191300Z 34001MPS CAVOK 27/24 Q1009 NOSIG
ZJSY,2003-09-19 14:00,ZJSY 191400Z 36001MPS CAVOK 27/24 Q1010 NOSIG
ZJSY,2003-09-19 15:00,ZJSY 191500Z 00000MPS CAVOK 26/24 Q1010 NOSIG
ZJSY,2003-09-19 17:00,ZJSY 191700Z 34002MPS CAVOK 25/24 Q1010 NOSIG
ZJSY,2003-09-19 18:00,ZJSY 191800Z AUTO 34002MPS //// // ////// 25/23 Q1009 NOSIG
ZJSY,2003-09-19 19:00,ZJSY 191900Z AUTO 33003MPS //// // ////// 25/23 Q1009 NOSIG
ZJSY,2003-09-19 20:00,ZJSY 192000Z AUTO 35001MPS //// // ////// 25/23 Q1010 NOSIG
ZJSY,2003-09-19 21:00,ZJSY 192100Z AUTO 34003MPS //// // ////// 25/23 Q1009 NOSIG
ZJSY,2003-09-19 22:00,ZJSY 192200Z 32002MPS 9999 SCT020 FEW021TCU BKN260 25/24 Q1009 NOSIG
ZJSY,2003-09-19 23:00,ZJSY 192300Z 35002MPS 9999 SCT020 BKN260 25/23 Q1010 NOSIG
ZJSY,2003-09-20 00:00,ZJSY 200000Z 32002MPS 9999 FEW020 BKN260 27/24 Q1010 NOSIG
ZJSY,2003-09-20 01:00,ZJSY 200100Z 32001MPS 9999 FEW020 SCT260 29/24 Q1011 NOSIG
ZJSY,2003-09-20 02:00,ZJSY 200200Z 14001MPS 9999 FEW020 SCT260 30/23 Q1012 NOSIG
ZJSY,2003-09-20 03:00,ZJSY 200300Z 19002MPS 9999 FEW020 SCT260 31/24 Q1012 NOSIG
ZJSY,2003-09-20 04:00,ZJSY 200400Z 19002MPS CAVOK 31/22 Q1011 NOSIG
ZJSY,2003-09-20 05:00,ZJSY 200500Z 19003MPS CAVOK 31/25 Q1011 NOSIG
ZJSY,2003-09-20 06:00,ZJSY 200600Z 18003MPS CAVOK 31/24 Q1010 NOSIG
ZJSY,2003-09-20 07:00,ZJSY 200700Z 19002MPS CAVOK 31/25 Q1009 NOSIG
ZJSY,2003-09-20 08:00,ZJSY 200800Z 19003MPS CAVOK 31/24 Q1008 NOSIG
ZJSY,2003-09-20 09:00,ZJSY 200900Z 19002MPS CAVOK 30/24 Q1008 NOSIG
ZJSY,2003-09-20 10:00,ZJSY 201000Z 18001MPS CAVOK 30/24 Q1008 NOSIG
ZJSY,2003-09-20 11:00,ZJSY 201100Z 21001MPS CAVOK 29/24 Q1008 NOSIG
ZJSY,2003-09-20 12:00,ZJSY 201200Z 21001MPS CAVOK 29/24 Q1009 NOSIG
ZJSY,2003-09-20 13:00,ZJSY 201300Z 34001MPS CAVOK 27/24 Q1010 NOSIG
ZJSY,2003-09-20 14:00,ZJSY 201400Z 36001MPS CAVOK 27/24 Q1011 NOSIG
ZJSY,2003-09-20 15:00,ZJSY 201500Z 34002MPS CAVOK 26/24 Q1012 NOSIG
ZJSY,2003-09-20 16:00,ZJSY 201600Z 34002MPS CAVOK 26/24 Q1012 NOSIG
ZJSY,2003-09-20 17:00,ZJSY 201700Z 34002MPS CAVOK 26/24 Q1012 NOSIG
ZJSY,2003-09-20 18:00,ZJSY 201800Z AUTO 33002MPS //// // ////// 26/24 Q1011 NOSIG
ZJSY,2003-09-20 19:00,ZJSY 201900Z AUTO 34002MPS //// // ////// 26/24 Q1010 NOSIG
ZJSY,2003-09-20 20:00,ZJSY 202000Z AUTO 33002MPS //// // ////// 26/23 Q1010 NOSIG
ZJSY,2003-09-20 21:00,ZJSY 202100Z AUTO 33002MPS //// // ////// 25/24 Q1010 NOSIG
ZJSY,2003-09-20 22:00,ZJSY 202200Z 35002MPS CAVOK 25/23 Q1010 NOSIG
ZJSY,2003-09-20 23:00,ZJSY 202300Z 33002MPS CAVOK 25/23 Q1010 NOSIG
ZJSY,2003-09-21 00:00,ZJSY 210000Z 33002MPS CAVOK 27/24 Q1011 NOSIG
ZJSY,2003-09-21 01:00,ZJSY 210100Z 28001MPS CAVOK 30/25 Q1011 NOSIG
ZJSY,2003-09-21 02:00,ZJSY 210200Z 21001MPS CAVOK 30/25 Q1012 NOSIG
ZJSY,2003-09-21 03:00,ZJSY 210300Z 21003MPS 9999 FEW018 31/24 Q1012 NOSIG
ZJSY,2003-09-21 04:00,ZJSY 210400Z 23004MPS 9999 FEW020 31/24 Q1012 NOSIG
ZJSY,2003-09-21 05:00,ZJSY 210500Z 23004MPS 9999 FEW020 31/24 Q1011 NOSIG
ZJSY,2003-09-21 06:00,ZJSY 210600Z 22004MPS 9999 FEW020 31/24 Q1010 NOSIG
ZJSY,2003-09-21 07:00,ZJSY 210700Z 24005MPS 9999 FEW020 31/24 Q1009 NOSIG
ZJSY,2003-09-21 08:00,ZJSY 210800Z 24005MPS 9999 FEW020 FEW023TCU 30/24 Q1009 NOSIG
ZJSY,2003-09-21 09:00,ZJSY 210900Z 25004MPS 9999 FEW020 30/24 Q1009 NOSIG
ZJSY,2003-09-21 10:00,ZJSY 211000Z 26002MPS 9999 FEW020 29/24 Q1009 NOSIG
ZJSY,2003-09-21 11:00,ZJSY 211100Z 25001MPS 9999 FEW020 29/24 Q1009 NOSIG
ZJSY,2003-09-21 12:00,ZJSY 211200Z 06003MPS 9999 FEW020 28/24 Q1009 NOSIG
ZJSY,2003-09-21 13:00,ZJSY 211300Z 01001MPS 9999 FEW020 BKN260 28/24 Q1010 NOSIG
ZJSY,2003-09-21 14:00,ZJSY 211400Z 02001MPS 9999 FEW020 BKN260 28/24 Q1011 NOSIG
ZJSY,2003-09-21 15:00,ZJSY 211500Z 35002MPS 9999 FEW020 BKN260 27/24 Q1011 NOSIG
ZJSY,2003-09-21 16:00,ZJSY 211600Z 03001MPS 9999 FEW020 BKN260 28/24 Q1011 NOSIG
ZJSY,2003-09-21 17:00,ZJSY 211700Z 36001MPS 9999 FEW020 BKN260 27/24 Q1011 NOSIG
ZJSY,2003-09-21 18:00,ZJSY 211800Z AUTO 33002MPS //// // ////// 26/23 Q1010 NOSIG
ZJSY,2003-09-21 19:00,ZJSY 211900Z AUTO 35001MPS //// // ////// 26/24 Q1010 NOSIG
ZJSY,2003-09-21 20:00,ZJSY 212000Z AUTO 33003MPS //// // ////// 26/23 Q1009 NOSIG
ZJSY,2003-09-21 21:00,ZJSY 212100Z AUTO 36001MPS //// // ////// 26/23 Q1010 NOSIG
ZJSY,2003-09-21 22:00,ZJSY 212200Z 35002MPS 9999 FEW020 SCT040 25/23 Q1010 NOSIG
ZJSY,2003-09-21 23:00,ZJSY 212300Z 34002MPS CAVOK 25/23 Q1010 NOSIG
ZJSY,2003-09-22 00:00,ZJSY 220000Z 34002MPS CAVOK 27/24 Q1011 NOSIG
ZJSY,2003-09-22 01:00,ZJSY 220100Z 12001MPS CAVOK 30/24 Q1012 NOSIG
ZJSY,2003-09-22 02:00,ZJSY 220200Z 19002MPS CAVOK 30/25 Q1012 NOSIG
ZJSY,2003-09-22 03:00,ZJSY 220300Z 19003MPS 9999 FEW020 FEW026TCU SCT260 31/24 Q1012 NOSIG
ZJSY,2003-09-22 04:00,ZJSY 220400Z 20003MPS 9999 FEW020 FEW026TCU SCT260 30/26 Q1011 NOSIG
ZJSY,2003-09-22 05:00,ZJSY 220500Z 21004MPS 9999 SCT021 SCT300 31/25 Q1010 NOSIG
ZJSY,2003-09-22 06:00,ZJSY 220600Z 21004MPS 9999 FEW021TCU SCT021 SCT300 31/25 Q1009 NOSIG
ZJSY,2003-09-22 07:00,ZJSY 220700Z 21004MPS 9999 -TS SCT021 FEW030CB BKN000 31/25 Q1008 NOSIG
ZJSY,2003-09-22 08:00,ZJSY 220800Z 22001MPS 9999 -TS SCT016 FEW026TCU FEW030CB 30/24 Q1008 NOSIG
ZJSY,2003-09-22 09:00,ZJSY 220900Z 35001MPS 9999 SCT016 FEW033CB BKN260 28/24 Q1008 NOSIG
ZJSY,2003-09-22 10:00,ZJSY 221000Z 02002MPS 9999 SCT016 FEW033CB BKN050 28/23 Q1008 NOSIG
ZJSY,2003-09-22 11:00,ZJSY 221100Z 07002MPS 9999 SCT016 FEW033CB SCT050 BKN260 27/23 Q1008 NOSIG
ZJSY,2003-09-22 12:00,ZJSY 221200Z 09002MPS 9999 SCT016 SCT050 BKN260 27/23 Q1009 NOSIG
ZJSY,2003-09-22 13:00,ZJSY 221300Z 08004MPS 9999 SCT016 SCT050 BKN260 27/23 Q1010 NOSIG
ZJSY,2003-09-22 14:00,ZJSY 221400Z 01001MPS 9999 SCT016 SCT050 BKN260 27/23 Q1011 NOSIG
ZJSY,2003-09-22 15:00,ZJSY 221500Z 00000MPS 9999 SCT016 SCT050 BKN260 27/23 Q1011 NOSIG
ZJSY,2003-09-22 16:00,ZJSY 221600Z 09003MPS 9999 SCT016 BKN260 27/22 Q1011 NOSIG
ZJSY,2003-09-22 17:00,ZJSY 221700Z 06002MPS 9999 SCT016 BKN260 27/22 Q1011 NOSIG
ZJSY,2003-09-22 18:00,ZJSY 221800Z AUTO 33002MPS //// // ////// 26/23 Q1010 NOSIG
ZJSY,2003-09-22 19:00,ZJSY 221900Z AUTO 31001MPS //// // ////// 25/23 Q1010 NOSIG
ZJSY,2003-09-22 20:00,ZJSY 222000Z AUTO 34001MPS //// // ////// 25/22 Q1009 NOSIG
ZJSY,2003-09-22 21:00,ZJSY 222100Z AUTO 36002MPS //// // ////// 24/22 Q1009 NOSIG
ZJSY,2003-09-22 22:00,ZJSY 222200Z 32001MPS 9999 FEW016 BKN260 24/22 Q1009 NOSIG
ZJSY,2003-09-22 23:00,ZJSY 222300Z 33002MPS CAVOK 24/22 Q1010 NOSIG
ZJSY,2003-09-23 00:00,ZJSY 230000Z 31001MPS CAVOK 26/23 Q1010 NOSIG
ZJSY,2003-09-23 01:00,ZJSY 230100Z 31001MPS CAVOK 28/23 Q1011 NOSIG
ZJSY,2003-09-23 02:00,ZJSY 230200Z 22002MPS CAVOK 29/23 Q1011 NOSIG
ZJSY,2003-09-23 03:00,ZJSY 230300Z 21002MPS 9999 FEW016 BKN260 30/23 Q1011 NOSIG
ZJSY,2003-09-23 04:00,ZJSY 230400Z 20004MPS 9999 FEW016 BKN260 30/23 Q1010 NOSIG
ZJSY,2003-09-23 05:00,ZJSY 230500Z 24003MPS 9999 FEW016 BKN260 31/25 Q1010 NOSIG
ZJSY,2003-09-23 06:00,ZJSY 230600Z 23003MPS 9999 FEW016 BKN260 30/23 Q1009 NOSIG
ZJSY,2003-09-23 07:00,ZJSY 230700Z 22003MPS 9999 FEW016 FEW026CB BKN040 BKN260 30/24 Q1008 NOSIG
ZJSY,2003-09-23 08:00,ZJSY 230800Z 21001MPS 9999 -RA SCT016 FEW026TCU BKN260 27/24 Q1008 NOSIG
ZJSY,2003-09-23 09:00,ZJSY 230900Z 21001MPS 9999 BKN016 FEW026TCU BKN260 27/24 Q1008 NOSIG
ZJSY,2003-09-23 10:00,ZJSY 231000Z 21001MPS 9999 -TS SCT016 FEW025TCU FEW026CB BKN260 27/24 Q1008 NOSIG
ZJSY,2003-09-23 11:00,ZJSY 231100Z 21001MPS 9999 TS SCT012 BKN014 FEW025TCU SCT026CB 27/24 Q1008 TEMPO 2000 +TSRA BKN010 SCT026CB
ZJSY,2003-09-23 12:00,ZJSY 231200Z 21001MPS 9999 TS SCT012 BKN014 FEW025TCU SCT026CB 27/24 Q1008 TEMPO 2000 +TSRA BKN010 SCT026CB
ZJSY,2003-09-23 13:00,ZJSY 231300Z 21001MPS 8000 TSRA SCT012 BKN014 FEW025TCU SCT026CB 23/22 Q1011 TEMPO 5000 TSRA BKN010 SCT033CB
ZJSY,2003-09-23 14:00,ZJSY 231400Z 00000MPS 9999 -SHRA SCT013 FEW025TCU FEW033CB BKN033 24/22 Q1011 NOSIG
ZJSY,2003-09-23 15:00,ZJSY 231500Z 34001MPS 9999 SCT015 FEW025TCU BKN040 24/23 Q1011 NOSIG
ZJSY,2003-09-23 16:00,ZJSY 231600Z 30001MPS 9999 SCT015 BKN040 24/23 Q1011 NOSIG
ZJSY,2003-09-23 17:00,ZJSY 231700Z 31001MPS 9999 SCT015 BKN040 24/23 Q1011 NOSIG
ZJSY,2003-09-23 18:00,ZJSY 231800Z 34003MPS 9999 SCT015 BKN040 24/23 Q1010 NOSIG
ZJSY,2003-09-23 19:00,ZJSY 231900Z AUTO 33002MPS //// // ////// 24/23 Q1010 NOSIG
ZJSY,2003-09-23 20:00,ZJSY 232000Z AUTO 34002MPS //// // ////// 25/23 Q1009 NOSIG
ZJSY,2003-09-23 21:00,ZJSY 232100Z AUTO 00000MPS //// // ////// 25/22 Q1009 NOSIG
ZJSY,2003-09-23 22:00,ZJSY 232200Z 05001MPS 9999 SCT013 BKN016 FEW020TCU BKN040 26/22 Q1010 NOSIG
ZJSY,2003-09-23 23:00,ZJSY 232300Z 12001MPS 9999 SCT016 SCT040 BKN260 25/23 Q1010 NOSIG
ZJSY,2003-09-24 00:00,ZJSY 240000Z 00000MPS 9999 FEW016 SCT040 BKN260 25/23 Q1010 NOSIG
ZJSY,2003-09-24 01:00,ZJSY 240100Z 00000MPS 9999 FEW016 SCT040 BKN260 26/23 Q1011 NOSIG
ZJSY,2003-09-24 02:00,ZJSY 240200Z 06002MPS 9999 FEW016 BKN040 28/23 Q1012 NOSIG
ZJSY,2003-09-24 03:00,ZJSY 240300Z 10002MPS 9999 FEW016 SCT040 BKN050 28/23 Q1012 NOSIG
ZJSY,2003-09-24 04:00,ZJSY 240400Z 26001MPS 9999 FEW016 SCT040 BKN050 28/23 Q1012 NOSIG
ZJSY,2003-09-24 05:00,ZJSY 240500Z 27001MPS 9999 FEW016 SCT040 BKN050 29/24 Q1011 NOSIG
ZJSY,2003-09-24 06:00,ZJSY 240600Z 20001MPS 9999 FEW016 SCT040 BKN050 29/24 Q1010 NOSIG
ZJSY,2003-09-24 07:00,ZJSY 240700Z 31002MPS 9999 FEW016 BKN060 30/25 Q1009 NOSIG
ZJSY,2003-09-24 08:00,ZJSY 240800Z 20002MPS 9999 FEW016 SCT050 BKN100 29/24 Q1008 NOSIG
ZJSY,2003-09-24 09:00,ZJSY 240900Z 26003MPS 9999 FEW016 SCT050 BKN100 29/24 Q1008 NOSIG
ZJSY,2003-09-24 10:00,ZJSY 241000Z 20001MPS 9999 SCT016 FEW040CB BKN040 BKN100 28/24 Q1008 NOSIG
ZJSY,2003-09-24 11:00,ZJSY 241100Z 07003MPS 9999 SCT015 FEW033CB BKN033 BKN100 28/23 Q1009 NOSIG
ZJSY,2003-09-24 12:00,ZJSY 241200Z 26003MPS 9999 SCT015 FEW036CB BKN036 BKN100 26/23 Q1010 NOSIG
ZJSY,2003-09-24 13:00,ZJSY 241300Z 00000MPS 9999 SCT015 SCT230 26/23 Q1010 NOSIG
ZJSY,2003-09-24 14:00,ZJSY 241400Z 30002MPS 9999 SCT015 SCT230 25/24 Q1011 NOSIG
ZJSY,2003-09-24 15:00,ZJSY 241500Z 30001MPS 9999 FEW015 SCT230 25/23 Q1012 NOSIG
ZJSY,2003-09-24 16:00,ZJSY 241600Z 32002MPS 9999 SCT015 BKN046 25/23 Q1012 NOSIG
ZJSY,2003-09-24 21:00,ZJSY 242100Z AUTO 36001MPS //// // ////// 24/23 Q1009 NOSIG
ZJSY,2003-09-24 22:00,ZJSY 242200Z 00000MPS 9999 FEW015 BKN040 BKN230 24/22 Q1010 NOSIG
ZJSY,2003-09-24 23:00,ZJSY 242300Z 32002MPS CAVOK 24/22 Q1010 NOSIG
ZJSY,2003-09-25 00:00,ZJSY 250000Z 31001MPS 9999 BKN043 BKN230 25/22 Q1011 NOSIG
ZJSY,2003-09-25 01:00,ZJSY 250100Z 34002MPS 9999 FEW013 FEW033CB BKN043 25/23 Q1012 NOSIG
ZJSY,2003-09-25 02:00,ZJSY 250200Z 10001MPS 9999 FEW013 FEW033CB BKN060 26/22 Q1012 NOSIG
ZJSY,2003-09-25 03:00,ZJSY 250300Z 10001MPS 9999 FEW013 FEW033CB BKN060 26/22 Q1012 NOSIG
ZJSY,2003-09-25 04:00,ZJSY 250400Z 09001MPS 9999 SCT013 FEW033CB BKN050 26/23 Q1012 NOSIG
ZJSY,2003-09-25 05:00,ZJSY 250500Z 04003MPS 9999 -SHRA SCT013 FEW033CB BKN050 26/23 Q1011 NOSIG
ZJSY,2003-09-25 06:00,ZJSY 250600Z 09001MPS 8000 -SHRA SCT013 FEW033CB BKN040 25/24 Q1010 NOSIG
ZJSY,2003-09-25 07:00,ZJSY 250700Z 13001MPS 8000 -SHRA SCT013 FEW033CB BKN040 25/23 Q1010 NOSIG
ZJSY,2003-09-25 08:00,ZJSY 250800Z 32001MPS 9999 SCT013 BKN043 26/23 Q1010 NOSIG
ZJSY,2003-09-25 09:00,ZJSY 250900Z 10001MPS 8000 -SHRA SCT013 OVC043 26/24 Q1009 NOSIG
ZJSY,2003-09-25 10:00,ZJSY 251000Z 02001MPS 8000 -SHRA SCT013 OVC043 26/23 Q1009 NOSIG
ZJSY,2003-09-25 11:00,ZJSY 251100Z 00000MPS 8000 SCT013 OVC043 26/23 Q1009 NOSIG
ZJSY,2003-09-25 12:00,ZJSY 251200Z 33003MPS 8000 SCT013 OVC043 25/23 Q1009 NOSIG
ZJSY,2003-09-25 13:00,ZJSY 251300Z 00000MPS 8000 SCT013 OVC050 25/23 Q1010 NOSIG
ZJSY,2003-09-25 14:00,ZJSY 251400Z 34002MPS 8000 SCT013 OVC050 24/23 Q1011 NOSIG
ZJSY,2003-09-25 15:00,ZJSY 251500Z 33002MPS 9999 SCT015 OVC050 24/22 Q1011 NOSIG
ZJSY,2003-09-25 16:00,ZJSY 251600Z 34002MPS 9999 SCT015 OVC050 24/22 Q1011 NOSIG
ZJSY,2003-09-25 17:00,ZJSY 251700Z 35002MPS 9999 SCT015 OVC050 24/22 Q1010 NOSIG
ZJSY,2003-09-25 18:00,ZJSY 251800Z AUTO 33002MPS //// // ////// 24/22 Q1009 NOSIG
ZJSY,2003-09-25 19:00,ZJSY 251900Z AUTO 35001MPS //// // ////// 24/22 Q1008 NOSIG
ZJSY,2003-09-25 20:00,ZJSY 252000Z AUTO 32001MPS //// // ////// 24/22 Q1008 NOSIG
ZJSY,2003-09-25 21:00,ZJSY 252100Z AUTO 32002MPS //// // ////// 24/21 Q1008 NOSIG
ZJSY,2003-09-25 22:00,ZJSY 252200Z 34001MPS 9999 SCT015 OVC050 24/22 Q1009 NOSIG
ZJSY,2003-09-25 23:00,ZJSY 252300Z 24001MPS 9999 SCT040 OVC053 24/22 Q1009 NOSIG
ZJSY,2003-09-26 00:00,ZJSY 260000Z 06001MPS 9999 SCT040 OVC053 25/22 Q1009 NOSIG
ZJSY,2003-09-26 01:00,ZJSY 260100Z 00000MPS 9999 SCT040 BKN060 26/23 Q1010 NOSIG
ZJSY,2003-09-26 02:00,ZJSY 260200Z 00000MPS 9999 FEW030TCU SCT040 BKN060 26/23 Q1011 NOSIG
ZJSY,2003-09-26 03:00,ZJSY 260300Z 36001MPS 9999 -RA FEW030TCU SCT040 BKN060 25/23 Q1011 NOSIG
ZJSY,2003-09-26 04:00,ZJSY 260400Z 00000MPS 9999 -RA FEW030TCU SCT040 BKN060 26/23 Q1010 NOSIG
ZJSY,2003-09-26 05:00,ZJSY 260500Z 30001MPS 9999 -RA FEW030TCU SCT040 OVC053 26/23 Q1010 NOSIG
ZJSY,2003-09-26 06:00,ZJSY 260600Z 00000MPS 9999 -RA FEW018 SCT040 BKN053 26/23 Q1009 NOSIG
ZJSY,2003-09-26 07:00,ZJSY 260700Z 00000MPS 9999 -RA FEW018 SCT040 BKN053 27/23 Q1009 NOSIG
ZJSY,2003-09-26 08:00,ZJSY 260800Z 00000MPS 9999 FEW018 SCT040 BKN053 27/24 Q1008 NOSIG
ZJSY,2003-09-26 09:00,ZJSY 260900Z 00000MPS 9999 FEW018 SCT040 BKN053 27/25 Q1007 NOSIG
ZJSY,2003-09-26 10:00,ZJSY 261000Z 00000MPS 9999 FEW018 SCT040 BKN053 27/24 Q1007 NOSIG
ZJSY,2003-09-26 11:00,ZJSY 261100Z 00000MPS 9999 FEW018 SCT040 BKN053 26/24 Q1008 NOSIG
ZJSY,2003-09-26 12:00,ZJSY 261200Z 00000MPS 9999 FEW018 SCT040 BKN053 26/24 Q1009 NOSIG
ZJSY,2003-09-26 13:00,ZJSY 261300Z 36001MPS CAVOK 26/24 Q1009 NOSIG
ZJSY,2003-09-26 14:00,ZJSY 261400Z 04001MPS CAVOK 26/24 Q1010 NOSIG
ZJSY,2003-09-26 15:00,ZJSY 261500Z 36001MPS CAVOK 25/24 Q1010 NOSIG
ZJSY,2003-09-26 16:00,ZJSY 261600Z 00000MPS CAVOK 25/23 Q1010 NOSIG
ZJSY,2003-09-26 17:00,ZJSY 261700Z 03001MPS CAVOK 25/23 Q1010 NOSIG
ZJSY,2003-09-26 18:00,ZJSY 261800Z 02001MPS CAVOK 25/23 Q1009 NOSIG
ZJSY,2003-09-26 19:00,ZJSY 261900Z 36001MPS CAVOK 24/23 Q1008 NOSIG
ZJSY,2003-09-26 20:00,ZJSY 262000Z AUTO 01001MPS //// // ////// 24/23 Q1008 NOSIG
ZJSY,2003-09-26 21:00,ZJSY 262100Z AUTO 00000MPS //// // ////// 24/22 Q1008 NOSIG
ZJSY,2003-09-26 22:00,ZJSY 262200Z AUTO 02001MPS //// // ////// 24/22 Q1008 NOSIG
ZJSY,2003-09-26 23:00,ZJSY 262300Z 04001MPS 9999 FEW020 BKN260 24/22 Q1008 NOSIG
ZJSY,2003-09-27 00:00,ZJSY 270000Z 34002MPS 9999 FEW020 BKN260 25/23 Q1008 NOSIG
ZJSY,2003-09-27 01:00,ZJSY 270100Z 00000MPS CAVOK 28/24 Q1009 NOSIG
ZJSY,2003-09-27 02:00,ZJSY 270200Z 07001MPS CAVOK 30/23 Q1009 NOSIG
ZJSY,2003-09-27 03:00,ZJSY 270300Z 17002MPS 9999 FEW018 BKN260 31/24 Q1009 NOSIG
ZJSY,2003-09-27 04:00,ZJSY 270400Z 19004MPS 9999 FEW018 BKN260 30/24 Q1009 NOSIG
ZJSY,2003-09-27 05:00,ZJSY 270500Z 19004MPS 9999 FEW018 BKN260 30/24 Q1008 NOSIG
ZJSY,2003-09-27 06:00,ZJSY 270600Z 17003MPS 9999 FEW020 BKN260 31/25 Q1007 NOSIG
ZJSY,2003-09-27 07:00,ZJSY 270700Z 17004MPS 9999 FEW020 FEW026TCU BKN260 30/24 Q1007 NOSIG
ZJSY,2003-09-27 08:00,ZJSY 270800Z 16003MPS 9999 SCT020 FEW026TCU BKN260 30/25 Q1007 NOSIG
ZJSY,2003-09-27 09:00,ZJSY 270900Z 16003MPS 9999 FEW020 FEW026TCU BKN260 29/24 Q1007 NOSIG
ZJSY,2003-09-27 10:00,ZJSY 271000Z 13002MPS 9999 SCT020 FEW026TCU BKN260 29/24 Q1007 NOSIG
ZJSY,2003-09-27 11:00,ZJSY 271100Z 08002MPS 9999 FEW020 BKN260 27/23 Q1007 NOSIG
ZJSY,2003-09-27 12:00,ZJSY 271200Z 33001MPS 9999 FEW020 BKN260 27/23 Q1007 NOSIG
ZJSY,2003-09-27 13:00,ZJSY 271300Z 35002MPS 9999 FEW020 BKN260 26/23 Q1008 NOSIG
ZJSY,2003-09-27 14:00,ZJSY 271400Z 34001MPS 9999 FEW020 BKN260 26/23 Q1008 NOSIG
ZJSY,2003-09-27 15:00,ZJSY 271500Z 36001MPS 9999 FEW016 BKN260 26/23 Q1009 NOSIG
ZJSY,2003-09-27 16:00,ZJSY 271600Z 34001MPS 9999 FEW016 BKN260 25/23 Q1009 NOSIG
ZJSY,2003-09-27 17:00,ZJSY 271700Z AUTO 34001MPS //// // ////// 25/23 Q1008 NOSIG
ZJSY,2003-09-27 18:00,ZJSY 271800Z AUTO 33002MPS //// // ////// 25/23 Q1008 NOSIG
ZJSY,2003-09-27 19:00,ZJSY 271900Z AUTO 34002MPS //// // ////// 25/23 Q1007 NOSIG
ZJSY,2003-09-27 20:00,ZJSY 272000Z AUTO 34001MPS //// // ////// 24/23 Q1007 NOSIG
ZJSY,2003-09-27 21:00,ZJSY 272100Z AUTO 33002MPS //// // ////// 24/23 Q1008 NOSIG
ZJSY,2003-09-27 22:00,ZJSY 272200Z 33002MPS CAVOK 24/22 Q1007 NOSIG
ZJSY,2003-09-27 23:00,ZJSY 272300Z 34002MPS CAVOK 24/22 Q1007 NOSIG
ZJSY,2003-09-28 00:00,ZJSY 280000Z 00000MPS CAVOK 26/23 Q1008 NOSIG
ZJSY,2003-09-28 01:00,ZJSY 280100Z 36001MPS CAVOK 28/23 Q1008 NOSIG
ZJSY,2003-09-28 02:00,ZJSY 280200Z 06002MPS CAVOK 30/23 Q1009 NOSIG
ZJSY,2003-09-28 03:00,ZJSY 280300Z 07002MPS CAVOK 30/22 Q1009 NOSIG
ZJSY,2003-09-28 04:00,ZJSY 280400Z 11002MPS CAVOK 31/23 Q1008 NOSIG
ZJSY,2003-09-28 05:00,ZJSY 280500Z 19003MPS CAVOK 30/23 Q1008 NOSIG
ZJSY,2003-09-28 06:00,ZJSY 280600Z 19004MPS CAVOK 30/24 Q1007 NOSIG
ZJSY,2003-09-28 07:00,ZJSY 280700Z 19002MPS CAVOK 31/24 Q1006 NOSIG
ZJSY,2003-09-28 09:00,ZJSY 280900Z 14002MPS 9999 SCT016 SCT260 30/23 Q1006 NOSIG
ZJSY,2003-09-28 10:00,ZJSY 281000Z 04003MPS 9999 SCT016 FEW040CB SCT260 30/23 Q1006 NOSIG
ZJSY,2003-09-28 11:00,ZJSY 281100Z 08003MPS 9999 FEW016 FEW040CB SCT260 29/25 Q1006 NOSIG
ZJSY,2003-09-28 12:00,ZJSY 281200Z 10003MPS 9999 -SHRA BKN016 FEW040CB BKN260 27/25 Q1007 NOSIG
ZJSY,2003-09-28 13:00,ZJSY 281300Z 07004MPS 9999 FEW016 FEW040CB BKN040 BKN260 27/24 Q1008 NOSIG
ZJSY,2003-09-28 14:00,ZJSY 281400Z 06004MPS 9999 FEW040CB BKN040 BKN260 27/24 Q1009 NOSIG
ZJSY,2003-09-28 15:00,ZJSY 281500Z 04002MPS 9999 FEW040CB BKN040 BKN260 27/23 Q1009 NOSIG
ZJSY,2003-09-28 16:00,ZJSY 281600Z 32001MPS 9999 BKN043 BKN260 27/23 Q1009 NOSIG
ZJSY,2003-09-28 17:00,ZJSY 281700Z 34001MPS 9999 BKN046 BKN260 27/24 Q1009 NOSIG
ZJSY,2003-09-28 18:00,ZJSY 281800Z AUTO 34001MPS //// // ////// 26/24 Q1008 NOSIG
ZJSY,2003-09-28 19:00,ZJSY 281900Z AUTO 36001MPS //// // ////// 26/23 Q1008 NOSIG
ZJSY,2003-09-28 20:00,ZJSY 282000Z AUTO 06001MPS //// // ////// 26/23 Q1007 NOSIG
ZJSY,2003-09-28 21:00,ZJSY 282100Z AUTO 03001MPS //// // ////// 25/23 Q1008 NOSIG
ZJSY,2003-09-28 22:00,ZJSY 282200Z 00000MPS CAVOK 25/23 Q1008 NOSIG
ZJSY,2003-09-28 23:00,ZJSY 282300Z 34001MPS CAVOK 26/23 Q1009 NOSIG
ZJSY,2003-09-29 00:00,ZJSY 290000Z 02001MPS CAVOK 28/24 Q1009 NOSIG
ZJSY,2003-09-29 01:00,ZJSY 290100Z 05002MPS 9999 FEW018 FEW026TCU SCT260 30/24 Q1010 NOSIG
ZJSY,2003-09-29 02:00,ZJSY 290200Z 07004MPS 9999 FEW018 FEW026TCU SCT260 31/24 Q1010 NOSIG
ZJSY,2003-09-29 03:00,ZJSY 290300Z 10003MPS 9999 SCT018 FEW026TCU SCT260 31/24 Q1010 NOSIG
ZJSY,2003-09-29 04:00,ZJSY 290400Z 17003MPS 9999 VCSH SCT010 SCT018 FEW026TCU 29/24 Q1009 NOSIG
ZJSY,2003-09-29 05:00,ZJSY 290500Z 12002MPS 7000 -TSRA SCT010 FEW030CB BKN200 26/24 Q1009 RERA NOSIG
ZJSY,2003-09-29 06:00,ZJSY 290600Z 33002MPS 9999 SCT010 FEW030CB 26/24 Q1009 RETS NOSIG
ZJSY,2003-09-29 07:00,ZJSY 290700Z 36002MPS 9999 SCT010 FEW026CB BKN200 27/24 Q1007 NOSIG
ZJSY,2003-09-29 08:00,ZJSY 290800Z 34002MPS 9999 SCT010 FEW026TCU BKN200 27/24 Q1008 NOSIG
ZJSY,2003-09-29 09:00,ZJSY 290900Z 03003MPS 9999 SCT013 BKN200 28/24 Q1007 NOSIG
ZJSY,2003-09-29 10:00,ZJSY 291000Z 08004MPS 9999 SCT013 BKN200 27/23 Q1007 NOSIG
ZJSY,2003-09-29 11:00,ZJSY 291100Z 08003MPS 9999 SCT013 BKN200 26/23 Q1007 NOSIG
ZJSY,2003-09-29 12:00,ZJSY 291200Z 06002MPS 9999 SCT013 BKN200 26/23 Q1008 NOSIG
ZJSY,2003-09-29 13:00,ZJSY 291300Z 32001MPS 9999 FEW013 BKN200 26/23 Q1009 NOSIG
ZJSY,2003-09-29 14:00,ZJSY 291400Z 05002MPS 9999 FEW013 BKN200 26/23 Q1009 NOSIG
ZJSY,2003-09-29 15:00,ZJSY 291500Z 02001MPS 9999 FEW013 BKN200 26/23 Q1010 NOSIG
ZJSY,2003-09-29 16:00,ZJSY 291600Z 08002MPS 9999 FEW013 BKN200 26/23 Q1010 NOSIG
ZJSY,2003-09-29 17:00,ZJSY 291700Z AUTO 08002MPS //// // ////// 26/23 Q1009 NOSIG
ZJSY,2003-09-29 18:00,ZJSY 291800Z AUTO 05001MPS //// // ////// 26/23 Q1009 NOSIG
ZJSY,2003-09-29 19:00,ZJSY 291900Z AUTO 02001MPS //// // ////// 26/23 Q1009 NOSIG
ZJSY,2003-09-29 20:00,ZJSY 292000Z AUTO 04002MPS //// // ////// 25/23 Q1009 NOSIG
ZJSY,2003-09-29 21:00,ZJSY 292100Z AUTO 00000MPS //// // ////// 25/22 Q1009 NOSIG
ZJSY,2003-09-29 22:00,ZJSY 292200Z 35001MPS 9999 FEW013 BKN200 25/22 Q1010 NOSIG
ZJSY,2003-09-29 23:00,ZJSY 292300Z 00000MPS CAVOK 24/22 Q1010 NOSIG
ZJSY,2003-09-30 00:00,ZJSY 300000Z 06001MPS CAVOK 27/23 Q1011 NOSIG
ZJSY,2003-09-30 01:00,ZJSY 300100Z 08002MPS CAVOK 29/24 Q1011 NOSIG
ZJSY,2003-09-30 02:00,ZJSY 300200Z 08005MPS CAVOK 30/24 Q1011 NOSIG
ZJSY,2003-09-30 03:00,ZJSY 300300Z 09005MPS CAVOK 31/23 Q1011 NOSIG
ZJSY,2003-09-30 04:00,ZJSY 300400Z 08004MPS 9999 FEW015 SCT260 31/22 Q1011 NOSIG
ZJSY,2003-09-30 05:00,ZJSY 300500Z 08004MPS 9999 SCT015 SCT260 31/22 Q1010 NOSIG
ZJSY,2003-09-30 06:00,ZJSY 300600Z 11004MPS 9999 SCT015 SCT260 32/22 Q1009 NOSIG
ZJSY,2003-09-30 07:00,ZJSY 300700Z 10003MPS 9999 FEW015 BKN260 32/22 Q1008 NOSIG
ZJSY,2003-09-30 08:00,ZJSY 300800Z 15004MPS 9999 FEW015 FEW026TCU BKN260 31/24 Q1007 NOSIG
ZJSY,2003-09-30 09:00,ZJSY 300900Z 12004MPS 9999 SCT015 FEW026TCU BKN260 30/23 Q1007 NOSIG
ZJSY,2003-09-30 10:00,ZJSY 301000Z 09003MPS CAVOK 29/24 Q1007 NOSIG
ZJSY,2003-09-30 11:00,ZJSY 301100Z 08005MPS CAVOK 28/23 Q1008 NOSIG
ZJSY,2003-09-30 12:00,ZJSY 301200Z 08002MPS CAVOK 28/22 Q1008 NOSIG
ZJSY,2003-09-30 13:00,ZJSY 301300Z 06002MPS CAVOK 27/22 Q1009 NOSIG
ZJSY,2003-09-30 14:00,ZJSY 301400Z 04002MPS CAVOK 27/22 Q1010 NOSIG
ZJSY,2003-09-30 15:00,ZJSY 301500Z 06002MPS CAVOK 26/22 Q1010 NOSIG
ZJSY,2003-09-30 16:00,ZJSY 301600Z 36001MPS CAVOK 24/22 Q1010 NOSIG
ZJSY,2003-09-30 17:00,ZJSY 301700Z 01002MPS CAVOK 24/22 Q1009 NOSIG
ZJSY,2003-09-30 18:00,ZJSY 301800Z 33002MPS CAVOK 23/21 Q1009 NOSIG
ZJSY,2003-09-30 19:00,ZJSY 301900Z 34001MPS CAVOK 23/21 Q1009 NOSIG
ZJSY,2003-09-30 20:00,ZJSY 302000Z 35001MPS CAVOK 23/21 Q1009 NOSIG
ZJSY,2003-09-30 21:00,ZJSY 302100Z 34002MPS CAVOK 23/21 Q1009 NOSIG
ZJSY,2003-09-30 22:00,ZJSY 302200Z 32002MPS CAVOK 23/20 Q1009 NOSIG
ZJSY,2003-09-30 23:00,ZJSY 302300Z 02002MPS CAVOK 24/20 Q1009 NOSIG
ZJSY,2003-10-01 00:00,ZJSY 010000Z 31001MPS CAVOK 24/21 Q1010 NOSIG
ZJSY,2003-10-01 01:00,ZJSY 010100Z 05005MPS 9999 FEW043CB SCT043 BKN260 27/20 Q1011 NOSIG
ZJSY,2003-10-01 02:00,ZJSY 010200Z 06004MPS 9999 SCT018 BKN043 BKN260 27/21 Q1012 NOSIG
ZJSY,2003-10-01 03:00,ZJSY 010300Z 08004MPS 9999 FEW043CB BKN043 BKN260 26/22 Q1011 NOSIG
ZJSY,2003-10-01 04:00,ZJSY 010400Z 06004MPS 9999 FEW043CB BKN043 BKN260 26/22 Q1012 NOSIG
ZJSY,2003-10-01 05:00,ZJSY 010500Z 10002MPS 9999 FEW018 FEW043CB BKN043 BKN260 26/22 Q1011 NOSIG
ZJSY,2003-10-01 06:00,ZJSY 010600Z 12002MPS 8000 -SHRA FEW018 FEW040CB BKN040 BKN260 26/22 Q1010 NOSIG
ZJSY,2003-10-01 07:00,ZJSY 010700Z 06002MPS 9999 FEW018 BKN043 BKN260 26/23 Q1010 NOSIG
ZJSY,2003-10-01 08:00,ZJSY 010800Z 00000MPS 9999 BKN046 BKN260 27/24 Q1009 NOSIG
ZJSY,2003-10-01 10:00,ZJSY 011000Z 08004MPS CAVOK 28/22 Q1009 NOSIG
ZJSY,2003-10-01 11:00,ZJSY 011100Z 06003MPS CAVOK 26/21 Q1009 NOSIG
ZJSY,2003-10-01 12:00,ZJSY 011200Z 04003MPS CAVOK 26/21 Q1010 NOSIG
ZJSY,2003-10-01 13:00,ZJSY 011300Z 04002MPS CAVOK 26/21 Q1010 NOSIG
ZJSY,2003-10-01 14:00,ZJSY 011400Z 06002MPS CAVOK 26/21 Q1011 NOSIG
ZJSY,2003-10-01 15:00,ZJSY 011500Z 05003MPS CAVOK 26/21 Q1011 NOSIG
ZJSY,2003-10-01 16:00,ZJSY 011600Z 05003MPS CAVOK 26/21 Q1011 NOSIG
ZJSY,2003-10-01 17:00,ZJSY 011700Z 04003MPS CAVOK 26/20 Q1011 NOSIG
ZJSY,2003-10-01 18:00,ZJSY 011800Z 03003MPS CAVOK 26/20 Q1010 NOSIG
ZJSY,2003-10-01 19:00,ZJSY 011900Z 04004MPS CAVOK 26/20 Q1010 NOSIG
ZJSY,2003-10-01 20:00,ZJSY 012000Z AUTO 04004MPS //// // ////// 26/20 Q1010 NOSIG
ZJSY,2003-10-01 21:00,ZJSY 012100Z AUTO 04004MPS //// // ////// 26/20 Q1010 NOSIG
ZJSY,2003-10-01 22:00,ZJSY 012200Z 05003MPS CAVOK 26/20 Q1010 NOSIG
ZJSY,2003-10-01 23:00,ZJSY 012300Z 02002MPS CAVOK 25/20 Q1011 NOSIG
ZJSY,2003-10-02 00:00,ZJSY 020000Z 11001MPS 9999 SCT013 SCT016 25/21 Q1011 NOSIG
ZJSY,2003-10-02 01:00,ZJSY 020100Z 04002MPS 9999 SCT016 BKN230 25/22 Q1012 NOSIG
ZJSY,2003-10-02 02:00,ZJSY 020200Z 04003MPS 9999 SCT016 FEW021TCU BKN230 28/23 Q1013 NOSIG
ZJSY,2003-10-02 03:00,ZJSY 020300Z 05004MPS 9999 SCT016 FEW021TCU SCT230 30/23 Q1012 NOSIG
ZJSY,2003-10-02 04:00,ZJSY 020400Z 07006MPS 9999 SCT016 FEW021TCU SCT230 30/22 Q1012 NOSIG
ZJSY,2003-10-02 05:00,ZJSY 020500Z 07006MPS 9999 FEW016 FEW021TCU 30/22 Q1011 NOSIG
ZJSY,2003-10-02 06:00,ZJSY 020600Z 08006MPS 9999 FEW016 FEW021TCU 32/20 Q1010 NOSIG
ZJSY,2003-10-02 07:00,ZJSY 020700Z 08006MPS 9999 FEW020 32/21 Q1010 NOSIG
ZJSY,2003-10-02 08:00,ZJSY 020800Z 09006MPS 9999 FEW020 31/21 Q1009 NOSIG
ZJSY,2003-10-02 09:00,ZJSY 020900Z 08005MPS CAVOK 30/21 Q1009 NOSIG
ZJSY,2003-10-02 10:00,ZJSY 021000Z 06004MPS CAVOK 30/19 Q1010 NOSIG
ZJSY,2003-10-02 11:00,ZJSY 021100Z 04002MPS 9999 FEW020 BKN260 28/19 Q1011 NOSIG
ZJSY,2003-10-02 12:00,ZJSY 021200Z 05003MPS 9999 FEW020 BKN260 27/21 Q1011 NOSIG
ZJSY,2003-10-02 13:00,ZJSY 021300Z 05002MPS 9999 FEW020 BKN260 27/21 Q1012 NOSIG
ZJSY,2003-10-02 14:00,ZJSY 021400Z 06002MPS 9999 FEW020 BKN260 26/20 Q1013 NOSIG
ZJSY,2003-10-02 15:00,ZJSY 021500Z 06004MPS 9999 FEW020 BKN260 27/20 Q1012 NOSIG
ZJSY,2003-10-02 16:00,ZJSY 021600Z 05003MPS 9999 FEW020 BKN260 27/21 Q1013 NOSIG
ZJSY,2003-10-02 17:00,ZJSY 021700Z 06005MPS 9999 FEW020 BKN260 27/20 Q1012 NOSIG
ZJSY,2003-10-02 18:00,ZJSY 021800Z 06004MPS CAVOK 27/20 Q1012 NOSIG
ZJSY,2003-10-02 19:00,ZJSY 021900Z 08003MPS CAVOK 25/20 Q1012 NOSIG
ZJSY,2003-10-02 20:00,ZJSY 022000Z 06002MPS CAVOK 25/20 Q1012 NOSIG
ZJSY,2003-10-02 21:00,ZJSY 022100Z 06004MPS CAVOK 26/20 Q1012 NOSIG
ZJSY,2003-10-02 23:00,ZJSY 022300Z 04004MPS CAVOK 26/20 Q1013 NOSIG
ZJSY,2003-10-03 00:00,ZJSY 030000Z 06004MPS CAVOK 27/20 Q1014 NOSIG
ZJSY,2003-10-03 01:00,ZJSY 030100Z 06006MPS CAVOK 29/21 Q1014 NOSIG
ZJSY,2003-10-03 02:00,ZJSY 030200Z 06005MPS CAVOK 30/21 Q1014 NOSIG
ZJSY,2003-10-03 03:00,ZJSY 030300Z 07007MPS CAVOK 31/21 Q1014 NOSIG
ZJSY,2003-10-03 04:00,ZJSY 030400Z 09006MPS CAVOK 30/21 Q1013 NOSIG
ZJSY,2003-10-03 05:00,ZJSY 030500Z 08006MPS 9999 FEW016 BKN260 32/21 Q1013 NOSIG
ZJSY,2003-10-03 06:00,ZJSY 030600Z 08006MPS 9999 SCT016 SCT040 BKN260 30/23 Q1012 NOSIG
ZJSY,2003-10-03 07:00,ZJSY 030700Z 10004MPS 9999 FEW016 SCT040 BKN260 31/22 Q1011 NOSIG
ZJSY,2003-10-03 08:00,ZJSY 030800Z 10005MPS 9999 SCT016 BKN260 31/22 Q1011 NOSIG
ZJSY,2003-10-03 09:00,ZJSY 030900Z 08005MPS 9999 FEW016 SCT260 30/22 Q1011 NOSIG
ZJSY,2003-10-03 10:00,ZJSY 031000Z 08004MPS 9999 FEW016 FEW026TCU SCT260 29/22 Q1012 NOSIG
ZJSY,2003-10-03 11:00,ZJSY 031100Z 05002MPS CAVOK 28/21 Q1012 NOSIG
ZJSY,2003-10-03 12:00,ZJSY 031200Z 35001MPS CAVOK 26/22 Q1013 NOSIG
ZJSY,2003-10-03 13:00,ZJSY 031300Z 01001MPS CAVOK 26/22 Q1013 NOSIG
ZJSY,2003-10-03 14:00,ZJSY 031400Z 00000MPS CAVOK 25/21 Q1014 NOSIG
ZJSY,2003-10-03 15:00,ZJSY 031500Z 00000MPS CAVOK 24/21 Q1013 NOSIG
ZJSY,2003-10-03 16:00,ZJSY 031600Z 04002MPS CAVOK 26/20 Q1013 NOSIG
ZJSY,2003-10-03 17:00,ZJSY 031700Z 01001MPS CAVOK 25/21 Q1013 NOSIG
ZJSY,2003-10-03 18:00,ZJSY 031800Z 05003MPS CAVOK 25/20 Q1012 NOSIG
ZJSY,2003-10-03 19:00,ZJSY 031900Z AUTO 06003MPS //// // ////// 25/20 Q1012 NOSIG
ZJSY,2003-10-03 20:00,ZJSY 032000Z AUTO 05004MPS //// // ////// 26/20 Q1012 NOSIG
ZJSY,2003-10-03 21:00,ZJSY 032100Z AUTO 05005MPS //// // ////// 26/20 Q1012 NOSIG
ZJSY,2003-10-03 22:00,ZJSY 032200Z 05003MPS CAVOK 25/20 Q1012 NOSIG
ZJSY,2003-10-03 23:00,ZJSY 032300Z 02001MPS CAVOK 25/19 Q1012 NOSIG
ZJSY,2003-10-04 00:00,ZJSY 040000Z 05001MPS CAVOK 27/21 Q1013 NOSIG
ZJSY,2003-10-04 01:00,ZJSY 040100Z 06005MPS CAVOK 28/20 Q1014 NOSIG
ZJSY,2003-10-04 02:00,ZJSY 040200Z 05007MPS CAVOK 30/21 Q1014 NOSIG
ZJSY,2003-10-04 03:00,ZJSY 040300Z 06005MPS CAVOK 31/20 Q1014 NOSIG
ZJSY,2003-10-04 04:00,ZJSY 040400Z 04006MPS 9999 FEW016 32/21 Q1013 NOSIG
ZJSY,2003-10-04 05:00,ZJSY 040500Z 06004MPS 9999 SCT016 32/21 Q1012 NOSIG
ZJSY,2003-10-04 06:00,ZJSY 040600Z 07006MPS 9999 SCT016 32/21 Q1012 NOSIG
ZJSY,2003-10-04 07:00,ZJSY 040700Z 07005MPS 9999 SCT016 32/22 Q1011 NOSIG
ZJSY,2003-10-04 08:00,ZJSY 040800Z 09005MPS 9999 FEW016 FEW023TCU 31/22 Q1010 NOSIG
ZJSY,2003-10-04 09:00,ZJSY 040900Z 08004MPS CAVOK 31/23 Q1011 NOSIG
ZJSY,2003-10-04 10:00,ZJSY 041000Z 08005MPS 9999 FEW016 FEW023TCU SCT060 29/22 Q1011 NOSIG
ZJSY,2003-10-04 11:00,ZJSY 041100Z 07004MPS 9999 FEW016 BKN060 28/22 Q1012 NOSIG
ZJSY,2003-10-04 12:00,ZJSY 041200Z 06003MPS 9999 FEW016 BKN060 28/22 Q1012 NOSIG
ZJSY,2003-10-04 13:00,ZJSY 041300Z 06002MPS 9999 FEW016 BKN060 28/22 Q1013 NOSIG
ZJSY,2003-10-04 14:00,ZJSY 041400Z 07003MPS 9999 FEW016 SCT060 27/21 Q1013 NOSIG
ZJSY,2003-10-04 15:00,ZJSY 041500Z 04001MPS 9999 FEW016 SCT060 26/22 Q1013 NOSIG
ZJSY,2003-10-04 16:00,ZJSY 041600Z 00000MPS 9999 FEW016 BKN230 25/22 Q1013 NOSIG
ZJSY,2003-10-04 17:00,ZJSY 041700Z AUTO 04002MPS //// // ////// 25/22 Q1012 NOSIG
ZJSY,2003-10-04 18:00,ZJSY 041800Z AUTO 05003MPS //// // ////// 26/22 Q1012 NOSIG
ZJSY,2003-10-04 19:00,ZJSY 041900Z AUTO 03003MPS //// // ////// 24/22 Q1012 NOSIG
ZJSY,2003-10-04 20:00,ZJSY 042000Z AUTO 05004MPS //// // ////// 25/22 Q1011 NOSIG
ZJSY,2003-10-04 21:00,ZJSY 042100Z AUTO 03004MPS //// // ////// 26/22 Q1011 NOSIG
ZJSY,2003-10-04 22:00,ZJSY 042200Z 04003MPS 9999 FEW016 BKN043 BKN230 26/22 Q1011 NOSIG
ZJSY,2003-10-04 23:00,ZJSY 042300Z 07005MPS 9000 -SHRA FEW013 BKN033 BKN230 25/22 Q1012 NOSIG
ZJSY,2003-10-05 00:00,ZJSY 050000Z 03004MPS 9999 FEW013 BKN040 BKN230 26/21 Q1012 NOSIG
ZJSY,2003-10-05 01:00,ZJSY 050100Z 05005MPS 9999 FEW013 BKN040 BKN230 27/22 Q1013 NOSIG
ZJSY,2003-10-05 02:00,ZJSY 050200Z 06007MPS 9999 FEW018 SCT050 BKN260 29/22 Q1013 NOSIG
ZJSY,2003-10-05 03:00,ZJSY 050300Z 06007MPS 9999 FEW018 SCT050 BKN260 29/22 Q1013 NOSIG
ZJSY,2003-10-05 04:00,ZJSY 050400Z 06006MPS 9999 FEW018 SCT050 BKN260 29/22 Q1012 NOSIG
ZJSY,2003-10-05 05:00,ZJSY 050500Z 14001MPS 9999 -RA SCT015 SCT040 BKN100 27/23 Q1012 NOSIG
ZJSY,2003-10-05 06:00,ZJSY 050600Z 12002MPS 9999 SCT015 SCT040 BKN100 27/23 Q1011 NOSIG
ZJSY,2003-10-05 07:00,ZJSY 050700Z 00000MPS 9999 FEW015 SCT040 BKN100 28/24 Q1010 NOSIG
ZJSY,2003-10-05 08:00,ZJSY 050800Z 07003MPS 9999 FEW016 BKN130 BKN260 29/23 Q1010 NOSIG
ZJSY,2003-10-05 09:00,ZJSY 050900Z 09004MPS CAVOK 29/23 Q1010 NOSIG
ZJSY,2003-10-05 10:00,ZJSY 051000Z 10004MPS CAVOK 28/23 Q1010 NOSIG
ZJSY,2003-10-05 11:00,ZJSY 051100Z 07003MPS CAVOK 26/22 Q1011 NOSIG
ZJSY,2003-10-05 12:00,ZJSY 051200Z 08004MPS CAVOK 26/22 Q1012 NOSIG
ZJSY,2003-10-05 13:00,ZJSY 051300Z 08003MPS CAVOK 26/22 Q1012 NOSIG
ZJSY,2003-10-05 14:00,ZJSY 051400Z 06003MPS 9999 FEW016 SCT120 BKN260 26/22 Q1013 NOSIG
ZJSY,2003-10-05 15:00,ZJSY 051500Z 06004MPS 9999 FEW016 SCT120 BKN260 26/22 Q1013 NOSIG
ZJSY,2003-10-05 16:00,ZJSY 051600Z 09002MPS 9999 FEW016 SCT120 BKN260 25/22 Q1013 NOSIG
ZJSY,2003-10-05 17:00,ZJSY 051700Z 04002MPS 9999 FEW016 BKN260 25/21 Q1013 NOSIG
ZJSY,2003-10-05 18:00,ZJSY 051800Z AUTO 10001MPS //// // ////// 25/21 Q1012 NOSIG
ZJSY,2003-10-05 19:00,ZJSY 051900Z AUTO 08002MPS //// // ////// 24/20 Q1012 NOSIG
ZJSY,2003-10-05 20:00,ZJSY 052000Z AUTO 04002MPS //// // ////// 23/21 Q1011 NOSIG
ZJSY,2003-10-05 21:00,ZJSY 052100Z AUTO 06001MPS //// // ////// 23/20 Q1011 NOSIG
ZJSY,2003-10-05 22:00,ZJSY 052200Z 35001MPS 9999 FEW016 BKN260 23/20 Q1011 NOSIG
ZJSY,2003-10-05 23:00,ZJSY 052300Z 28001MPS CAVOK 23/20 Q1012 NOSIG
ZJSY,2003-10-06 00:00,ZJSY 060000Z 35001MPS CAVOK 24/21 Q1013 NOSIG
ZJSY,2003-10-06 01:00,ZJSY 060100Z 28001MPS CAVOK 27/21 Q1013 NOSIG
ZJSY,2003-10-06 02:00,ZJSY 060200Z 21001MPS CAVOK 28/21 Q1013 NOSIG
ZJSY,2003-10-06 03:00,ZJSY 060300Z 24003MPS CAVOK 29/23 Q1013 NOSIG
ZJSY,2003-10-06 04:00,ZJSY 060400Z 24003MPS CAVOK 29/21 Q1012 NOSIG
ZJSY,2003-10-06 05:00,ZJSY 060500Z 24004MPS 9999 FEW018 30/21 Q1012 NOSIG
ZJSY,2003-10-06 06:00,ZJSY 060600Z 25004MPS 9999 FEW018 30/22 Q1011 NOSIG
ZJSY,2003-10-06 07:00,ZJSY 060700Z 24004MPS 9999 FEW018 29/23 Q1010 NOSIG
ZJSY,2003-10-06 08:00,ZJSY 060800Z 24003MPS 9999 SCT018 BKN046 29/22 Q1010 NOSIG
ZJSY,2003-10-06 09:00,ZJSY 060900Z 23002MPS 9999 SCT018 BKN046 28/22 Q1010 NOSIG
ZJSY,2003-10-06 10:00,ZJSY 061000Z 23001MPS 9999 SCT013 BKN046 28/22 Q1011 NOSIG
ZJSY,2003-10-06 11:00,ZJSY 061100Z 35001MPS CAVOK 27/23 Q1011 NOSIG
ZJSY,2003-10-06 12:00,ZJSY 061200Z 35002MPS CAVOK 26/23 Q1012 NOSIG
ZJSY,2003-10-06 13:00,ZJSY 061300Z 01001MPS 9999 SCT013 SCT230 26/23 Q1013 NOSIG
ZJSY,2003-10-06 14:00,ZJSY 061400Z 36001MPS 9999 SCT013 SCT230 26/23 Q1013 NOSIG
ZJSY,2003-10-06 15:00,ZJSY 061500Z 34002MPS CAVOK 25/22 Q1013 NOSIG
ZJSY,2003-10-06 16:00,ZJSY 061600Z 00000MPS CAVOK 24/22 Q1013 NOSIG
ZJSY,2003-10-06 17:00,ZJSY 061700Z AUTO 00000MPS //// // ////// 24/22 Q1013 NOSIG
ZJSY,2003-10-06 18:00,ZJSY 061800Z AUTO 35001MPS //// // ////// 24/22 Q1012 NOSIG
ZJSY,2003-10-06 19:00,ZJSY 061900Z AUTO 09001MPS //// // ////// 24/22 Q1012 NOSIG
ZJSY,2003-10-06 20:00,ZJSY 062000Z AUTO 00000MPS //// // ////// 23/21 Q1012 NOSIG
ZJSY,2003-10-06 21:00,ZJSY 062100Z AUTO 00000MPS //// // ////// 23/21 Q1012 NOSIG
ZJSY,2003-10-06 22:00,ZJSY 062200Z 01001MPS CAVOK 22/20 Q1012 NOSIG
ZJSY,2003-10-06 23:00,ZJSY 062300Z 33002MPS CAVOK 22/20 Q1012 NOSIG
ZJSY,2003-10-07 00:00,ZJSY 070000Z 05001MPS CAVOK 24/20 Q1013 NOSIG
ZJSY,2003-10-07 01:00,ZJSY 070100Z 06002MPS CAVOK 27/20 Q1014 NOSIG
ZJSY,2003-10-07 02:00,ZJSY 070200Z 08003MPS CAVOK 29/20 Q1014 NOSIG
ZJSY,2003-10-07 03:00,ZJSY 070300Z 08003MPS CAVOK 30/20 Q1013 NOSIG
ZJSY,2003-10-07 04:00,ZJSY 070400Z 10002MPS CAVOK 31/19 Q1012 NOSIG
ZJSY,2003-10-07 05:00,ZJSY 070500Z 18003MPS CAVOK 31/21 Q1011 NOSIG
ZJSY,2003-10-07 06:00,ZJSY 070600Z 19004MPS CAVOK 30/21 Q1011 NOSIG
ZJSY,2003-10-07 07:00,ZJSY 070700Z 21004MPS CAVOK 29/22 Q1010 NOSIG
ZJSY,2003-10-07 08:00,ZJSY 070800Z 19003MPS 9999 FEW020 29/22 Q1010 NOSIG
ZJSY,2003-10-07 09:00,ZJSY 070900Z 23002MPS 9999 FEW020 BKN060 28/22 Q1010 NOSIG
ZJSY,2003-10-07 10:00,ZJSY 071000Z 24002MPS 9999 SCT016 FEW030CB BKN060 28/22 Q1011 NOSIG
ZJSY,2003-10-07 11:00,ZJSY 071100Z 30002MPS 9999 SCT015 FEW025TCU BKN060 27/22 Q1011 NOSIG
ZJSY,2003-10-07 12:00,ZJSY 071200Z 33003MPS 9999 SCT015 FEW025TCU BKN060 26/22 Q1011 NOSIG
ZJSY,2003-10-07 13:00,ZJSY 071300Z 34002MPS 9999 SCT016 SCT040 BKN060 26/22 Q1012 NOSIG
ZJSY,2003-10-07 14:00,ZJSY 071400Z 34003MPS 9999 SCT016 SCT040 BKN060 25/22 Q1012 NOSIG
ZJSY,2003-10-07 15:00,ZJSY 071500Z 33002MPS 9999 SCT016 SCT040 BKN060 25/21 Q1012 NOSIG
ZJSY,2003-10-07 16:00,ZJSY 071600Z 34002MPS CAVOK 24/21 Q1012 NOSIG
ZJSY,2003-10-07 17:00,ZJSY 071700Z 33003MPS CAVOK 23/21 Q1012 NOSIG
ZJSY,2003-10-07 18:00,ZJSY 071800Z 35002MPS CAVOK 23/21 Q1011 NOSIG
ZJSY,2003-10-07 19:00,ZJSY 071900Z AUTO 33003MPS //// // ////// 23/21 Q1011 NOSIG
ZJSY,2003-10-07 20:00,ZJSY 072000Z AUTO 00000MPS //// // ////// 23/21 Q1011 NOSIG
ZJSY,2003-10-07 21:00,ZJSY 072100Z AUTO 00000MPS //// // ////// 23/21 Q1011 NOSIG
ZJSY,2003-10-07 22:00,ZJSY 072200Z 33001MPS CAVOK 23/21 Q1011 NOSIG
ZJSY,2003-10-07 23:00,ZJSY 072300Z AUTO 34002MPS //// // ////// 23/21 Q1012 NOSIG
ZJSY,2003-10-08 00:00,ZJSY 080000Z 35001MPS 8000 NSC 25/22 Q1012 NOSIG
ZJSY,2003-10-08 01:00,ZJSY 080100Z 00000MPS 7000 NSC 28/22 Q1013 NOSIG
ZJSY,2003-10-08 02:00,ZJSY 080200Z 19002MPS 7000 FEW016 BKN260 28/22 Q1013 NOSIG
ZJSY,2003-10-08 03:00,ZJSY 080300Z 19003MPS 7000 FEW016 BKN260 29/23 Q1013 NOSIG
ZJSY,2003-10-08 04:00,ZJSY 080400Z 20003MPS 7000 FEW016 BKN260 29/23 Q1012 NOSIG
ZJSY,2003-10-08 05:00,ZJSY 080500Z 21004MPS 7000 FEW016 BKN260 29/24 Q1011 NOSIG
ZJSY,2003-10-08 06:00,ZJSY 080600Z 21003MPS 8000 FEW016 BKN260 30/23 Q1010 NOSIG
ZJSY,2003-10-08 07:00,ZJSY 080700Z 20004MPS 8000 FEW016 BKN260 29/23 Q1010 NOSIG
ZJSY,2003-10-08 08:00,ZJSY 080800Z 20003MPS 8000 FEW016 BKN050 BKN260 29/22 Q1009 NOSIG
ZJSY,2003-10-08 09:00,ZJSY 080900Z 21002MPS 8000 FEW016 BKN050 BKN260 28/22 Q1009 NOSIG
ZJSY,2003-10-08 10:00,ZJSY 081000Z 22002MPS 9999 BKN018 BKN050 28/22 Q1009 NOSIG
ZJSY,2003-10-08 11:00,ZJSY 081100Z 18001MPS 9999 -SHRA BKN016 BKN043 28/22 Q1009 NOSIG
ZJSY,2003-10-08 12:00,ZJSY 081200Z 08003MPS 9999 BKN016 BKN046 26/22 Q1010 NOSIG
ZJSY,2003-10-08 13:00,ZJSY 081300Z 04003MPS 9999 BKN016 BKN046 27/20 Q1011 NOSIG
ZJSY,2003-10-08 14:00,ZJSY 081400Z 07001MPS 9999 FEW016 BKN043 27/21 Q1011 NOSIG
ZJSY,2003-10-08 15:00,ZJSY 081500Z 36001MPS 9999 FEW016 BKN046 26/21 Q1011 NOSIG
ZJSY,2003-10-08 16:00,ZJSY 081600Z 08002MPS 9999 BKN046 25/21 Q1011 NOSIG
ZJSY,2003-10-08 17:00,ZJSY 081700Z 02001MPS CAVOK 25/22 Q1010 NOSIG
ZJSY,2003-10-08 18:00,ZJSY 081800Z AUTO 34002MPS //// // ////// 24/22 Q1010 NOSIG
ZJSY,2003-10-08 19:00,ZJSY 081900Z AUTO 34002MPS //// // ////// 24/22 Q1010 NOSIG
ZJSY,2003-10-08 20:00,ZJSY 082000Z AUTO 33002MPS //// // ////// 24/22 Q1010 NOSIG
ZJSY,2003-10-08 21:00,ZJSY 082100Z AUTO 35001MPS //// // ////// 23/21 Q1010 NOSIG
ZJSY,2003-10-08 22:00,ZJSY 082200Z 36001MPS CAVOK 23/21 Q1010 NOSIG
ZJSY,2003-10-08 23:00,ZJSY 082300Z 34002MPS 6000 SKC 23/21 Q1011 NOSIG
ZJSY,2003-10-09 00:00,ZJSY 090000Z 33002MPS 6000 SKC 25/22 Q1012 NOSIG
ZJSY,2003-10-09 01:00,ZJSY 090100Z 34001MPS 5000 BR SKC 28/22 Q1012 NOSIG
ZJSY,2003-10-09 02:00,ZJSY 090200Z 10001MPS 5000 BR SKC 29/22 Q1012 NOSIG
ZJSY,2003-10-09 03:00,ZJSY 090300Z 17003MPS 5000 BR SKC 29/22 Q1012 NOSIG
ZJSY,2003-10-09 04:00,ZJSY 090400Z 18003MPS 5000 BR SKC 30/23 Q1011 NOSIG
ZJSY,2003-10-09 05:00,ZJSY 090500Z 19003MPS 5000 BR SKC 30/23 Q1010 NOSIG
ZJSY,2003-10-09 06:00,ZJSY 090600Z 19003MPS 5000 BR SKC 30/23 Q1009 NOSIG
ZJSY,2003-10-09 07:00,ZJSY 090700Z 18003MPS 5000 BR SKC 30/23 Q1009 NOSIG
ZJSY,2003-10-09 08:00,ZJSY 090800Z 17003MPS 5000 BR SCT016 29/22 Q1009 NOSIG
ZJSY,2003-10-09 09:00,ZJSY 090900Z 16002MPS 5000 BR SCT016 29/23 Q1009 NOSIG
ZJSY,2003-10-09 10:00,ZJSY 091000Z 14002MPS 5000 BR SKC 28/23 Q1009 NOSIG
ZJSY,2003-10-09 11:00,ZJSY 091100Z 15002MPS 5000 BR FEW015 SCT060 28/23 Q1009 NOSIG
ZJSY,2003-10-09 12:00,ZJSY 091200Z 07002MPS 5000 BR FEW015 BKN200 27/23 Q1010 NOSIG
ZJSY,2003-10-09 14:00,ZJSY 091400Z 09002MPS 5000 BR FEW015 BKN060 27/23 Q1011 NOSIG
ZJSY,2003-10-09 15:00,ZJSY 091500Z 05002MPS 5000 BR FEW015 BKN060 27/23 Q1011 NOSIG
ZJSY,2003-10-09 16:00,ZJSY 091600Z 05001MPS 5000 BR FEW015 BKN050 27/23 Q1011 NOSIG
ZJSY,2003-10-09 18:00,ZJSY 091800Z AUTO 07002MPS //// // ////// 26/23 Q1010 NOSIG
ZJSY,2003-10-09 19:00,ZJSY 091900Z AUTO 06002MPS //// // ////// 26/23 Q1010 NOSIG
ZJSY,2003-10-09 20:00,ZJSY 092000Z AUTO 03001MPS //// // ////// 25/23 Q1010 NOSIG
ZJSY,2003-10-09 21:00,ZJSY 092100Z AUTO 04001MPS //// // ////// 25/22 Q1009 NOSIG
ZJSY,2003-10-09 22:00,ZJSY 092200Z 34001MPS 5000 BR SKC 24/22 Q1009 NOSIG
ZJSY,2003-10-09 23:00,ZJSY 092300Z 33002MPS CAVOK 24/22 Q1010 NOSIG
ZJSY,2003-10-10 00:00,ZJSY 100000Z 33002MPS CAVOK 26/22 Q1010 NOSIG
ZJSY,2003-10-10 01:00,ZJSY 100100Z 27001MPS CAVOK 29/22 Q1011 NOSIG
ZJSY,2003-10-10 02:00,ZJSY 100200Z 20002MPS CAVOK 29/22 Q1011 NOSIG
ZJSY,2003-10-10 03:00,ZJSY 100300Z 20003MPS CAVOK 29/23 Q1011 NOSIG
ZJSY,2003-10-10 04:00,ZJSY 100400Z 19003MPS CAVOK 30/23 Q1010 NOSIG
ZJSY,2003-10-10 05:00,ZJSY 100500Z 19003MPS 9999 FEW018 SCT260 30/23 Q1009 NOSIG
ZJSY,2003-10-10 06:00,ZJSY 100600Z 18003MPS 9999 FEW018 SCT050 30/23 Q1008 NOSIG
ZJSY,2003-10-10 07:00,ZJSY 100700Z 18003MPS 9999 FEW018 SCT050 BKN260 29/23 Q1008 NOSIG
ZJSY,2003-10-10 08:00,ZJSY 100800Z 19003MPS 9999 FEW018 BKN260 30/24 Q1007 NOSIG
ZJSY,2003-10-10 09:00,ZJSY 100900Z 18003MPS 9999 FEW018 SCT260 29/23 Q1008 NOSIG
ZJSY,2003-10-10 10:00,ZJSY 101000Z 16002MPS 9999 FEW018 SCT260 28/23 Q1008 NOSIG
ZJSY,2003-10-10 11:00,ZJSY 101100Z 15001MPS 9999 FEW018 SCT260 28/23 Q1008 NOSIG
ZJSY,2003-10-10 12:00,ZJSY 101200Z 35001MPS 9999 FEW018 SCT260 27/24 Q1008 NOSIG
ZJSY,2003-10-10 13:00,ZJSY 101300Z 36001MPS 9999 SCT018 SCT260 27/23 Q1009 NOSIG
ZJSY,2003-10-10 14:00,ZJSY 101400Z 34002MPS 9999 SCT018 SCT260 26/23 Q1010 NOSIG
ZJSY,2003-10-10 15:00,ZJSY 101500Z 35001MPS 9999 FEW018 BKN260 26/23 Q1010 NOSIG
ZJSY,2003-10-10 16:00,ZJSY 101600Z 06001MPS 9999 FEW018 SCT260 25/23 Q1010 NOSIG
ZJSY,2003-10-10 17:00,ZJSY 101700Z AUTO 33002MPS //// // ////// 25/23 Q1010 NOSIG
ZJSY,2003-10-10 18:00,ZJSY 101800Z AUTO 34002MPS //// // ////// 25/23 Q1009 NOSIG
ZJSY,2003-10-10 19:00,ZJSY 101900Z AUTO 03001MPS //// // ////// 26/23 Q1009 NOSIG
ZJSY,2003-10-10 20:00,ZJSY 102000Z AUTO 34002MPS //// // ////// 25/23 Q1009 NOSIG
ZJSY,2003-10-10 21:00,ZJSY 102100Z AUTO 34002MPS //// // ////// 25/23 Q1008 NOSIG
ZJSY,2003-10-10 22:00,ZJSY 102200Z 34001MPS CAVOK 24/22 Q1009 NOSIG
ZJSY,2003-10-10 23:00,ZJSY 102300Z 00000MPS CAVOK 24/23 Q1009 NOSIG
ZJSY,2003-10-11 00:00,ZJSY 110000Z 00000MPS CAVOK 26/23 Q1010 NOSIG
ZJSY,2003-10-11 01:00,ZJSY 110100Z 13001MPS CAVOK 29/24 Q1010 NOSIG
ZJSY,2003-10-11 02:00,ZJSY 110200Z 12001MPS 9999 SCT018 30/24 Q1010 NOSIG
ZJSY,2003-10-11 03:00,ZJSY 110300Z 14002MPS 9999 SCT018 30/24 Q1010 NOSIG
ZJSY,2003-10-11 04:00,ZJSY 110400Z 19003MPS 9999 SCT018 30/24 Q1010 NOSIG
ZJSY,2003-10-11 05:00,ZJSY 110500Z 18004MPS 9999 FEW018 30/24 Q1009 NOSIG
ZJSY,2003-10-11 06:00,ZJSY 110600Z 19003MPS 9999 FEW018 30/24 Q1008 NOSIG
ZJSY,2003-10-11 07:00,ZJSY 110700Z 19003MPS 9999 FEW018 30/24 Q1007 NOSIG
ZJSY,2003-10-11 08:00,ZJSY 110800Z 16002MPS 9999 BKN018 29/24 Q1006 NOSIG
ZJSY,2003-10-11 09:00,ZJSY 110900Z 17003MPS 9999 SCT018 BKN100 29/24 Q1006 NOSIG
ZJSY,2003-10-11 10:00,ZJSY 111000Z 15003MPS 9999 SCT011 BKN260 28/23 Q1007 NOSIG
ZJSY,2003-10-11 11:00,ZJSY 111100Z 14002MPS 9999 BKN010 SCT016 28/23 Q1007 NOSIG
ZJSY,2003-10-11 12:00,ZJSY 111200Z 13002MPS 9999 BKN010 SCT016 28/23 Q1007 NOSIG
ZJSY,2003-10-11 13:00,ZJSY 111300Z 10002MPS 9999 SCT010 SCT230 27/23 Q1008 NOSIG
ZJSY,2003-10-11 14:00,ZJSY 111400Z 06002MPS CAVOK 27/23 Q1009 NOSIG
ZJSY,2003-10-11 15:00,ZJSY 111500Z 06002MPS CAVOK 26/23 Q1009 NOSIG
ZJSY,2003-10-11 16:00,ZJSY 111600Z 35001MPS 9999 FEW013 SCT230 25/23 Q1009 NOSIG
ZJSY,2003-10-11 17:00,ZJSY 111700Z AUTO 04001MPS //// // ////// 25/22 Q1008 NOSIG
ZJSY,2003-10-11 18:00,ZJSY 111800Z AUTO 06002MPS //// // ////// 25/22 Q1008 NOSIG
ZJSY,2003-10-11 19:00,ZJSY 111900Z AUTO 05002MPS //// // ////// 25/22 Q1008 NOSIG
ZJSY,2003-10-11 20:00,ZJSY 112000Z AUTO 05002MPS //// // ////// 25/22 Q1008 NOSIG
ZJSY,2003-10-11 21:00,ZJSY 112100Z AUTO 00000MPS //// // ////// 24/22 Q1008 NOSIG
ZJSY,2003-10-11 22:00,ZJSY 112200Z AUTO 06001MPS //// // ////// 24/22 Q1008 NOSIG
ZJSY,2003-10-11 23:00,ZJSY 112300Z 31001MPS CAVOK 24/22 Q1009 NOSIG
ZJSY,2003-10-12 00:00,ZJSY 120000Z 05001MPS CAVOK 27/23 Q1009 NOSIG
ZJSY,2003-10-12 01:00,ZJSY 120100Z 08002MPS CAVOK 29/23 Q1010 NOSIG
ZJSY,2003-10-12 02:00,ZJSY 120200Z 14002MPS 9999 FEW016 30/23 Q1010 NOSIG
ZJSY,2003-10-12 03:00,ZJSY 120300Z 13003MPS 9999 FEW020 31/23 Q1010 NOSIG
ZJSY,2003-10-12 04:00,ZJSY 120400Z 15003MPS 9999 FEW020 30/23 Q1010 NOSIG
ZJSY,2003-10-12 05:00,ZJSY 120500Z 17003MPS 9999 FEW020 30/23 Q1009 NOSIG
ZJSY,2003-10-12 06:00,ZJSY 120600Z 17003MPS 9999 FEW020 30/23 Q1008 NOSIG
ZJSY,2003-10-12 07:00,ZJSY 120700Z 17004MPS 9999 FEW020 30/24 Q1008 NOSIG
ZJSY,2003-10-12 08:00,ZJSY 120800Z 16004MPS CAVOK 30/23 Q1008 NOSIG
ZJSY,2003-10-12 09:00,ZJSY 120900Z 13003MPS CAVOK 29/23 Q1008 NOSIG
ZJSY,2003-10-12 10:00,ZJSY 121000Z 12003MPS CAVOK 29/23 Q1007 NOSIG
ZJSY,2003-10-12 11:00,ZJSY 121100Z 08003MPS CAVOK 27/23 Q1008 NOSIG
ZJSY,2003-10-12 12:00,ZJSY 121200Z 05002MPS CAVOK 27/23 Q1008 NOSIG
ZJSY,2003-10-12 13:00,ZJSY 121300Z 06002MPS CAVOK 27/23 Q1009 NOSIG
ZJSY,2003-10-12 14:00,ZJSY 121400Z 01001MPS CAVOK 26/23 Q1010 NOSIG
ZJSY,2003-10-12 15:00,ZJSY 121500Z 34002MPS CAVOK 26/23 Q1011 NOSIG
ZJSY,2003-10-12 16:00,ZJSY 121600Z 34002MPS 9999 FEW018 BKN100 25/22 Q1011 NOSIG
ZJSY,2003-10-12 17:00,ZJSY 121700Z 01001MPS 9999 FEW018 BKN100 26/22 Q1010 NOSIG
ZJSY,2003-10-12 18:00,ZJSY 121800Z 35001MPS 9999 FEW018 BKN100 25/22 Q1010 NOSIG
ZJSY,2003-10-12 19:00,ZJSY 121900Z AUTO 34002MPS //// // ////// 25/22 Q1010 NOSIG
ZJSY,2003-10-12 20:00,ZJSY 122000Z AUTO 35001MPS //// // ////// 25/22 Q1010 NOSIG
ZJSY,2003-10-12 21:00,ZJSY 122100Z AUTO 36001MPS //// // ////// 24/22 Q1010 NOSIG
ZJSY,2003-10-12 22:00,ZJSY 122200Z 34001MPS 9999 FEW018 SCT260 24/22 Q1010 NOSIG
ZJSY,2003-10-12 23:00,ZJSY 122300Z 34002MPS 9999 FEW018 SCT260 25/22 Q1011 NOSIG
ZJSY,2003-10-13 00:00,ZJSY 130000Z 36001MPS CAVOK 28/23 Q1011 NOSIG
ZJSY,2003-10-13 01:00,ZJSY 130100Z 06003MPS CAVOK 30/23 Q1011 NOSIG
ZJSY,2003-10-13 02:00,ZJSY 130200Z 10002MPS 9999 FEW020 SCT260 31/23 Q1012 NOSIG
ZJSY,2003-10-13 03:00,ZJSY 130300Z 14002MPS 9999 FEW020 SCT260 31/24 Q1012 NOSIG
ZJSY,2003-10-13 04:00,ZJSY 130400Z 15003MPS 9999 FEW020 SCT260 31/24 Q1011 NOSIG
ZJSY,2003-10-13 05:00,ZJSY 130500Z 15003MPS 9999 FEW020 SCT260 32/24 Q1011
ZJSY,2003-10-13 06:00,ZJSY 130600Z 15004MPS 9999 FEW020 SCT260 31/24 Q1010 NOSIG
ZJSY,2003-10-13 07:00,ZJSY 130700Z 15004MPS 9999 FEW020 SCT260 31/24 Q1009 NOSIG
ZJSY,2003-10-13 08:00,ZJSY 130800Z 14004MPS 9999 FEW020 SCT260 31/25 Q1009 NOSIG
ZJSY,2003-10-13 09:00,ZJSY 130900Z 14004MPS 9999 SCT020 SCT260 30/25 Q1009 NOSIG
ZJSY,2003-10-13 10:00,ZJSY 131000Z 13003MPS 9999 SCT020 29/24 Q1009 NOSIG
ZJSY,2003-10-13 11:00,ZJSY 131100Z 10003MPS 9999 SCT020 29/24 Q1010 NOSIG
ZJSY,2003-10-13 12:00,ZJSY 131200Z 08003MPS 9999 FEW020 28/24 Q1011 NOSIG
ZJSY,2003-10-13 13:00,ZJSY 131300Z 06003MPS 9999 FEW020 27/24 Q1011 NOSIG
ZJSY,2003-10-13 14:00,ZJSY 131400Z 08003MPS 9999 SCT020 27/24 Q1012 NOSIG
ZJSY,2003-10-13 15:00,ZJSY 131500Z 07003MPS 9999 SCT020 28/24 Q1013 NOSIG
ZJSY,2003-10-13 16:00,ZJSY 131600Z 05002MPS 9999 SCT020 27/24 Q1013 NOSIG
ZJSY,2003-10-13 17:00,ZJSY 131700Z 07003MPS 9999 FEW260 SCT020 27/24 Q1012 NOSIG
ZJSY,2003-10-13 18:00,ZJSY 131800Z 05001MPS 9999 FEW260 SCT020 26/23 Q1012 NOSIG
ZJSY,2003-10-13 19:00,ZJSY 131900Z AUTO 01001MPS //// // ////// 26/23 Q1012 NOSIG
ZJSY,2003-10-13 20:00,ZJSY 132000Z AUTO 05003MPS //// // ////// 26/23 Q1011 NOSIG
ZJSY,2003-10-13 21:00,ZJSY 132100Z AUTO 04002MPS //// // ////// 26/22 Q1011 NOSIG
ZJSY,2003-10-13 22:00,ZJSY 132200Z 04001MPS CAVOK 25/22 Q1012 NOSIG
ZJSY,2003-10-13 23:00,ZJSY 132300Z 08002MPS CAVOK 25/22 Q1013 NOSIG
ZJSY,2003-10-14 00:00,ZJSY 140000Z 26001MPS CAVOK 27/23 Q1013 NOSIG
ZJSY,2003-10-14 01:00,ZJSY 140100Z 09002MPS CAVOK 29/23 Q1014 NOSIG
ZJSY,2003-10-14 02:00,ZJSY 140200Z 05005MPS 9999 FEW018 31/21 Q1014 NOSIG
ZJSY,2003-10-14 03:00,ZJSY 140300Z 06004MPS 9999 FEW018 SCT260 31/21 Q1014 NOSIG
ZJSY,2003-10-14 04:00,ZJSY 140400Z 07002MPS 9999 SCT018 32/21 Q1014 NOSIG
ZJSY,2003-10-14 05:00,ZJSY 140500Z 08005MPS 9999 SCT011 SCT016 31/22 Q1013 NOSIG
ZJSY,2003-10-14 06:00,ZJSY 140600Z 08006MPS 9999 FEW011 BKN050 30/22 Q1011 NOSIG
ZJSY,2003-10-14 07:00,ZJSY 140700Z 08007MPS 9999 FEW011 FEW020TCU SCT060 30/22 Q1011 NOSIG
ZJSY,2003-10-14 08:00,ZJSY 140800Z 08007MPS 9999 SCT011 SCT230 30/22 Q1011 NOSIG
ZJSY,2003-10-14 09:00,ZJSY 140900Z 09005MPS 9999 SCT011 SCT230 29/22 Q1012 NOSIG
ZJSY,2003-10-14 10:00,ZJSY 141000Z 07005MPS 9999 FEW016 SCT230 28/22 Q1012 NOSIG
ZJSY,2003-10-14 11:00,ZJSY 141100Z 08005MPS 9999 FEW016 SCT230 26/21 Q1012 NOSIG
ZJSY,2003-10-14 12:00,ZJSY 141200Z 08005MPS 9999 FEW015 SCT020 BKN230 25/21 Q1013 NOSIG
ZJSY,2003-10-14 13:00,ZJSY 141300Z 05003MPS 9999 FEW015 SCT020 BKN230 25/21 Q1014 NOSIG
ZJSY,2003-10-14 14:00,ZJSY 141400Z 08006MPS 9999 FEW015 SCT020 BKN230 25/20 Q1015 NOSIG
ZJSY,2003-10-14 15:00,ZJSY 141500Z 07006MPS 9999 SCT016 BKN230 24/20 Q1015 NOSIG
ZJSY,2003-10-14 16:00,ZJSY 141600Z 08004MPS 9999 SCT016 BKN230 24/20 Q1015 NOSIG
ZJSY,2003-10-14 17:00,ZJSY 141700Z AUTO 10003MPS //// // ////// 24/19 Q1015 NOSIG
ZJSY,2003-10-14 18:00,ZJSY 141800Z AUTO 11001MPS //// // ////// 23/19 Q1014 NOSIG
ZJSY,2003-10-14 19:00,ZJSY 141900Z AUTO 00000MPS //// // ////// 23/19 Q1014 NOSIG
ZJSY,2003-10-14 20:00,ZJSY 142000Z AUTO 33003MPS //// // ////// 22/20 Q1014 NOSIG
ZJSY,2003-10-14 21:00,ZJSY 142100Z AUTO 00000MPS //// // ////// 22/19 Q1014 NOSIG
ZJSY,2003-10-14 22:00,ZJSY 142200Z 00000MPS CAVOK 22/19 Q1014 NOSIG
ZJSY,2003-10-14 23:00,ZJSY 142300Z 34001MPS CAVOK 22/20 Q1015 NOSIG
ZJSY,2003-10-15 00:00,ZJSY 150000Z 23001MPS CAVOK 24/20 Q1015 NOSIG
ZJSY,2003-10-15 01:00,ZJSY 150100Z 18001MPS CAVOK 26/19 Q1016 NOSIG
ZJSY,2003-10-15 02:00,ZJSY 150200Z 29001MPS CAVOK 29/20 Q1016 NOSIG
ZJSY,2003-10-15 03:00,ZJSY 150300Z 20003MPS 9999 FEW020 SCT260 29/20 Q1016 NOSIG
ZJSY,2003-10-15 04:00,ZJSY 150400Z 22003MPS 9999 FEW020 SCT260 29/20 Q1014 NOSIG
ZJSY,2003-10-15 05:00,ZJSY 150500Z 22003MPS 9999 SCT022 SCT260 30/21 Q1013 NOSIG
ZJSY,2003-10-15 06:00,ZJSY 150600Z 23003MPS 9999 BKN022 SCT260 30/21 Q1013 NOSIG
ZJSY,2003-10-15 07:00,ZJSY 150700Z 28003MPS 9999 BKN020 BKN040 29/21 Q1012 NOSIG
ZJSY,2003-10-15 08:00,ZJSY 150800Z 21002MPS 9999 SCT020 BKN040 28/21 Q1012 NOSIG
ZJSY,2003-10-15 09:00,ZJSY 150900Z 22002MPS 9999 SCT020 BKN040 28/21 Q1013 NOSIG
ZJSY,2003-10-15 10:00,ZJSY 151000Z 28001MPS 9999 SCT020 BKN040 28/21 Q1013 NOSIG
ZJSY,2003-10-15 11:00,ZJSY 151100Z 07003MPS 9999 SCT020 BKN040 26/19 Q1013 NOSIG
ZJSY,2003-10-15 12:00,ZJSY 151200Z 00000MPS 9999 SCT020 BKN040 26/20 Q1014 NOSIG
ZJSY,2003-10-15 13:00,ZJSY 151300Z 07002MPS 9999 FEW020 BKN040 BKN230 26/20 Q1015 NOSIG
ZJSY,2003-10-15 14:00,ZJSY 151400Z 08002MPS 9999 FEW020 BKN040 BKN230 25/20 Q1015 NOSIG
ZJSY,2003-10-15 15:00,ZJSY 151500Z 07001MPS 9999 FEW020 BKN040 BKN230 25/19 Q1015 NOSIG
ZJSY,2003-10-15 16:00,ZJSY 151600Z 09001MPS 9999 FEW020 BKN040 BKN230 25/19 Q1015 NOSIG
ZJSY,2003-10-15 17:00,ZJSY 151700Z 07003MPS 9999 FEW020 BKN040 BKN230 26/19 Q1015 NOSIG
ZJSY,2003-10-15 18:00,ZJSY 151800Z 06003MPS 9999 FEW020 BKN040 BKN230 26/19 Q1014 NOSIG
ZJSY,2003-10-15 19:00,ZJSY 151900Z AUTO 07003MPS //// // ////// 26/19 Q1013 NOSIG
ZJSY,2003-10-15 20:00,ZJSY 152000Z AUTO 07003MPS //// // ////// 26/19 Q1013 NOSIG
ZJSY,2003-10-15 21:00,ZJSY 152100Z AUTO 07002MPS //// // ////// 25/19 Q1013 NOSIG
ZJSY,2003-10-15 22:00,ZJSY 152200Z 22001MPS 9999 FEW020 BKN040 BKN230 24/20 Q1014 NOSIG
ZJSY,2003-10-15 23:00,ZJSY 152300Z 00000MPS 9999 FEW020 BKN040 BKN230 24/20 Q1015 NOSIG
ZJSY,2003-10-16 00:00,ZJSY 160000Z 00000MPS 9999 FEW020 BKN040 BKN230 25/21 Q1015 NOSIG
ZJSY,2003-10-16 01:00,ZJSY 160100Z 21001MPS 9999 FEW020 BKN050 BKN230 27/20 Q1016 NOSIG
ZJSY,2003-10-16 02:00,ZJSY 160200Z 01003MPS CAVOK 30/21 Q1016 NOSIG
ZJSY,2003-10-16 03:00,ZJSY 160300Z 06006MPS CAVOK 30/20 Q1015 NOSIG
ZJSY,2003-10-16 04:00,ZJSY 160400Z 07007MPS CAVOK 29/20 Q1015 NOSIG
ZJSY,2003-10-16 05:00,ZJSY 160500Z 05005MPS CAVOK 31/20 Q1014 NOSIG
ZJSY,2003-10-16 06:00,ZJSY 160600Z 06006MPS 9999 FEW020 BKN230 30/19 Q1013 NOSIG
ZJSY,2003-10-16 07:00,ZJSY 160700Z 07005MPS 9999 FEW020 BKN230 30/20 Q1012 NOSIG
ZJSY,2003-10-16 08:00,ZJSY 160800Z 07005MPS CAVOK 30/20 Q1011 NOSIG
ZJSY,2003-10-16 09:00,ZJSY 160900Z 07003MPS CAVOK 29/20 Q1012 NOSIG
ZJSY,2003-10-16 10:00,ZJSY 161000Z 07003MPS 7000 NSC 28/20 Q1012 NOSIG
ZJSY,2003-10-16 11:00,ZJSY 161100Z 07004MPS 7000 NSC 26/20 Q1013 NOSIG
ZJSY,2003-10-16 12:00,ZJSY 161200Z 08003MPS 7000 FEW010 BKN230 26/19 Q1013 NOSIG
ZJSY,2003-10-16 13:00,ZJSY 161300Z 02002MPS 7000 FEW010 BKN230 26/19 Q1014 NOSIG
ZJSY,2003-10-16 14:00,ZJSY 161400Z 11002MPS 7000 FEW010 BKN230 26/19 Q1014 NOSIG
ZJSY,2003-10-16 15:00,ZJSY 161500Z 10002MPS CAVOK 25/19 Q1014 NOSIG
ZJSY,2003-10-16 16:00,ZJSY 161600Z 07004MPS CAVOK 24/19 Q1014 NOSIG
ZJSY,2003-10-16 17:00,ZJSY 161700Z 06002MPS CAVOK 25/18 Q1014 NOSIG
ZJSY,2003-10-16 18:00,ZJSY 161800Z AUTO 34002MPS //// // ////// 23/19 Q1013 NOSIG
ZJSY,2003-10-16 19:00,ZJSY 161900Z AUTO 35002MPS //// // ////// 22/19 Q1012 NOSIG
ZJSY,2003-10-16 20:00,ZJSY 162000Z AUTO 16001MPS //// // ////// 24/18 Q1012 NOSIG
ZJSY,2003-10-16 21:00,ZJSY 162100Z AUTO 35001MPS //// // ////// 23/19 Q1013 NOSIG
ZJSY,2003-10-16 22:00,ZJSY 162200Z 36001MPS CAVOK 22/18 Q1013 NOSIG
ZJSY,2003-10-16 23:00,ZJSY 162300Z 34002MPS CAVOK 22/19 Q1013 NOSIG
ZJSY,2003-10-17 00:00,ZJSY 170000Z 00000MPS CAVOK 25/19 Q1014 NOSIG
ZJSY,2003-10-17 01:00,ZJSY 170100Z 06002MPS CAVOK 28/19 Q1014 NOSIG
ZJSY,2003-10-17 02:00,ZJSY 170200Z 07005MPS CAVOK 29/19 Q1015 NOSIG
ZJSY,2003-10-17 03:00,ZJSY 170300Z 07005MPS CAVOK 30/20 Q1014 NOSIG
ZJSY,2003-10-17 04:00,ZJSY 170400Z 08005MPS CAVOK 31/19 Q1014 NOSIG
ZJSY,2003-10-17 05:00,ZJSY 170500Z 06005MPS CAVOK 32/19 Q1013 NOSIG
ZJSY,2003-10-17 06:00,ZJSY 170600Z 08004MPS 9999 SCT020 SCT230 31/19 Q1012 NOSIG
ZJSY,2003-10-17 07:00,ZJSY 170700Z 07004MPS 9999 BKN016 FEW025TCU BKN033 31/18 Q1011 NOSIG
ZJSY,2003-10-17 08:00,ZJSY 170800Z 07005MPS 9999 SCT016 BKN050 31/18 Q1011 NOSIG
ZJSY,2003-10-17 09:00,ZJSY 170900Z 08005MPS CAVOK 30/20 Q1011 NOSIG
ZJSY,2003-10-17 10:00,ZJSY 171000Z 08005MPS 8000 FEW033 BKN260 28/20 Q1012 NOSIG
ZJSY,2003-10-17 11:00,ZJSY 171100Z 07005MPS 6000 FEW016 FEW018TCU BKN260 26/20 Q1012 NOSIG
ZJSY,2003-10-17 12:00,ZJSY 171200Z 06004MPS 7000 FEW016 FEW018TCU BKN260 26/20 Q1013 NOSIG
ZJSY,2003-10-17 13:00,ZJSY 171300Z 06005MPS 7000 FEW016 SCT040 BKN260 26/20 Q1014 NOSIG
ZJSY,2003-10-17 14:00,ZJSY 171400Z 05004MPS 7000 FEW016 SCT040 BKN260 26/20 Q1015 NOSIG
ZJSY,2003-10-17 15:00,ZJSY 171500Z 07003MPS 7000 FEW016 SCT040 BKN260 25/20 Q1014 NOSIG
ZJSY,2003-10-17 16:00,ZJSY 171600Z 08002MPS 8000 SCT016 SCT040 BKN260 25/20 Q1014 NOSIG
ZJSY,2003-10-17 17:00,ZJSY 171700Z 09002MPS 8000 SCT016 SCT040 BKN260 25/20 Q1013 NOSIG
ZJSY,2003-10-17 18:00,ZJSY 171800Z 06003MPS 8000 SCT016 SCT040 BKN260 25/20 Q1013 NOSIG
ZJSY,2003-10-17 19:00,ZJSY 171900Z AUTO 08002MPS //// // ////// 24/20 Q1013 NOSIG
ZJSY,2003-10-17 20:00,ZJSY 172000Z AUTO 03001MPS //// // ////// 24/20 Q1013 NOSIG
ZJSY,2003-10-17 21:00,ZJSY 172100Z AUTO 31002MPS //// // ////// 23/21 Q1012 NOSIG
ZJSY,2003-10-17 22:00,ZJSY 172200Z 36001MPS CAVOK 24/20 Q1012 NOSIG
ZJSY,2003-10-17 23:00,ZJSY 172300Z 04001MPS CAVOK 25/19 Q1013 NOSIG
ZJSY,2003-10-18 00:00,ZJSY 180000Z 00000MPS CAVOK 26/19 Q1013 NOSIG
ZJSY,2003-10-18 01:00,ZJSY 180100Z 19001MPS CAVOK 28/19 Q1014 NOSIG
ZJSY,2003-10-18 02:00,ZJSY 180200Z 07005MPS CAVOK 30/16 Q1014 NOSIG
ZJSY,2003-10-18 03:00,ZJSY 180300Z 06005MPS CAVOK 31/15 Q1014 NOSIG
ZJSY,2003-10-18 04:00,ZJSY 180400Z 08006MPS CAVOK 32/15 Q1013 NOSIG
ZJSY,2003-10-18 05:00,ZJSY 180500Z 08005MPS CAVOK 33/16 Q1012 NOSIG
ZJSY,2003-10-18 06:00,ZJSY 180600Z 09005MPS CAVOK 32/16 Q1011 NOSIG
ZJSY,2003-10-18 07:00,ZJSY 180700Z 09005MPS CAVOK 32/18 Q1010 NOSIG
ZJSY,2003-10-18 08:00,ZJSY 180800Z 09006MPS CAVOK 30/19 Q1010 NOSIG
ZJSY,2003-10-18 09:00,ZJSY 180900Z 08007MPS CAVOK 29/18 Q1011 NOSIG
ZJSY,2003-10-18 10:00,ZJSY 181000Z 06005MPS 9999 BKN043 BKN260 28/19 Q1012 NOSIG
ZJSY,2003-10-18 11:00,ZJSY 181100Z 06005MPS 9999 BKN043 BKN260 27/18 Q1012 NOSIG
ZJSY,2003-10-18 12:00,ZJSY 181200Z 06005MPS 9999 BKN043 BKN260 27/18 Q1014 NOSIG
ZJSY,2003-10-18 13:00,ZJSY 181300Z 06004MPS 9999 BKN043 BKN260 26/18 Q1014 NOSIG
ZJSY,2003-10-18 14:00,ZJSY 181400Z 06004MPS 9999 BKN046 BKN260 27/17 Q1014 NOSIG
ZJSY,2003-10-18 15:00,ZJSY 181500Z 06004MPS 9999 BKN046 BKN260 27/17 Q1014 NOSIG
ZJSY,2003-10-18 16:00,ZJSY 181600Z 06005MPS 9999 SCT046 SCT260 26/18 Q1014 NOSIG
ZJSY,2003-10-18 17:00,ZJSY 181700Z 04005MPS CAVOK 26/18 Q1014 NOSIG
ZJSY,2003-10-18 18:00,ZJSY 181800Z AUTO 04005MPS //// // ////// 26/18 Q1013 NOSIG
ZJSY,2003-10-18 19:00,ZJSY 181900Z AUTO 04006MPS //// // ////// 26/17 Q1013 NOSIG
ZJSY,2003-10-18 20:00,ZJSY 182000Z AUTO 06005MPS //// // ////// 25/17 Q1013 NOSIG
ZJSY,2003-10-18 21:00,ZJSY 182100Z AUTO 04002MPS //// // ////// 25/17 Q1013 NOSIG
ZJSY,2003-10-18 22:00,ZJSY 182200Z 06003MPS CAVOK 25/17 Q1013 NOSIG
ZJSY,2003-10-18 23:00,ZJSY 182300Z 05002MPS CAVOK 22/18 Q1014 NOSIG
ZJSY,2003-10-19 00:00,ZJSY 190000Z 32001MPS CAVOK 24/18 Q1014 NOSIG
ZJSY,2003-10-19 01:00,ZJSY 190100Z 05002MPS CAVOK 27/17 Q1015 NOSIG
ZJSY,2003-10-19 02:00,ZJSY 190200Z 06006MPS CAVOK 29/16 Q1015 NOSIG
ZJSY,2003-10-19 03:00,ZJSY 190300Z 08007MPS CAVOK 30/18 Q1014 NOSIG
ZJSY,2003-10-19 04:00,ZJSY 190400Z 06008MPS 9999 SCT020 SCT230 30/19 Q1014 NOSIG
ZJSY,2003-10-19 05:00,ZJSY 190500Z 04007MPS 9999 SCT020 SCT230 29/19 Q1013 NOSIG
ZJSY,2003-10-19 06:00,ZJSY 190600Z 05006MPS 9999 SCT020 SCT230 31/19 Q1012 NOSIG
ZJSY,2003-10-19 07:00,ZJSY 190700Z 06007MPS 9999 FEW020 SCT230 31/19 Q1011 NOSIG
ZJSY,2003-10-19 08:00,ZJSY 190800Z 09006MPS CAVOK 30/19 Q1010 NOSIG
ZJSY,2003-10-19 09:00,ZJSY 190900Z 08006MPS 9999 SCT020 29/19 Q1011 NOSIG
ZJSY,2003-10-19 10:00,ZJSY 191000Z 06004MPS 9999 SCT020 SCT230 28/19 Q1011 NOSIG
ZJSY,2003-10-19 11:00,ZJSY 191100Z 08003MPS 9999 BKN020 BKN230 27/19 Q1012 NOSIG
ZJSY,2003-10-19 12:00,ZJSY 191200Z 07005MPS 9999 SCT020 BKN230 26/19 Q1013 NOSIG
ZJSY,2003-10-19 13:00,ZJSY 191300Z 05004MPS 9999 SCT020 BKN230 26/19 Q1014 NOSIG
ZJSY,2003-10-19 14:00,ZJSY 191400Z 04003MPS 9999 SCT020 BKN230 25/19 Q1014 NOSIG
ZJSY,2003-10-19 15:00,ZJSY 191500Z 05004MPS 9999 SCT020 BKN230 25/19 Q1015 NOSIG
ZJSY,2003-10-19 16:00,ZJSY 191600Z 06003MPS 9999 SCT020 BKN230 25/19 Q1015 NOSIG
ZJSY,2003-10-19 17:00,ZJSY 191700Z 06006MPS 9999 SCT020 BKN230 25/19 Q1014 NOSIG
ZJSY,2003-10-19 18:00,ZJSY 191800Z 05004MPS 9999 SCT020 BKN230 25/19 Q1014 NOSIG
ZJSY,2003-10-19 19:00,ZJSY 191900Z AUTO 04004MPS //// // ////// 25/17 Q1013 NOSIG
ZJSY,2003-10-19 20:00,ZJSY 192000Z AUTO 05005MPS //// // ////// 25/16 Q1013 NOSIG
ZJSY,2003-10-19 21:00,ZJSY 192100Z AUTO 04005MPS //// // ////// 25/16 Q1013 NOSIG
ZJSY,2003-10-19 22:00,ZJSY 192200Z 05005MPS CAVOK 25/16 Q1013 NOSIG
ZJSY,2003-10-19 23:00,ZJSY 192300Z 36003MPS CAVOK 23/17 Q1014 NOSIG
ZJSY,2003-10-20 00:00,ZJSY 200000Z 04002MPS CAVOK 25/17 Q1014 NOSIG
ZJSY,2003-10-20 01:00,ZJSY 200100Z 07002MPS 9000 SKC 27/16 Q1015 NOSIG
ZJSY,2003-10-20 02:00,ZJSY 200200Z 05002MPS 9000 SKC 29/16 Q1015 NOSIG
ZJSY,2003-10-20 03:00,ZJSY 200300Z 07006MPS 9000 SKC 30/14 Q1014 NOSIG
ZJSY,2003-10-20 04:00,ZJSY 200400Z 07006MPS 9000 SKC 31/15 Q1013 NOSIG
ZJSY,2003-10-20 05:00,ZJSY 200500Z 09005MPS CAVOK 31/14 Q1012 NOSIG
ZJSY,2003-10-20 06:00,ZJSY 200600Z 10003MPS CAVOK 31/16 Q1011 NOSIG
ZJSY,2003-10-20 07:00,ZJSY 200700Z 09004MPS 9999 FEW018 SCT260 31/17 Q1010 NOSIG
ZJSY,2003-10-20 08:00,ZJSY 200800Z 32002MPS 9999 BKN018 SCT260 31/18 Q1010 NOSIG
ZJSY,2003-10-20 09:00,ZJSY 200900Z 05005MPS 9999 BKN018 SCT260 28/19 Q1011 NOSIG
ZJSY,2003-10-20 10:00,ZJSY 201000Z 33003MPS 9999 BKN018 BKN260 27/19 Q1011 NOSIG
ZJSY,2003-10-20 11:00,ZJSY 201100Z 10003MPS 9999 BKN018 BKN260 27/20 Q1012 NOSIG
ZJSY,2003-10-20 12:00,ZJSY 201200Z 08004MPS 9999 BKN018 BKN260 25/19 Q1013 NOSIG
ZJSY,2003-10-20 13:00,ZJSY 201300Z 07004MPS 9999 SCT018 BKN260 25/19 Q1014 NOSIG
ZJSY,2003-10-20 14:00,ZJSY 201400Z 08004MPS 9999 SCT018 BKN260 24/19 Q1014 NOSIG
ZJSY,2003-10-20 15:00,ZJSY 201500Z 01001MPS 9999 SCT018 BKN260 24/19 Q1014 NOSIG
ZJSY,2003-10-20 16:00,ZJSY 201600Z 00000MPS 9999 SCT018 BKN260 24/19 Q1014 NOSIG
ZJSY,2003-10-20 17:00,ZJSY 201700Z 06002MPS 9999 FEW018 BKN260 23/19 Q1013 NOSIG
ZJSY,2003-10-20 18:00,ZJSY 201800Z 36001MPS 9999 FEW018 BKN260 22/18 Q1013 NOSIG
ZJSY,2003-10-20 19:00,ZJSY 201900Z AUTO 33003MPS //// // ////// 21/18 Q1012 NOSIG
ZJSY,2003-10-20 20:00,ZJSY 202000Z AUTO 30001MPS //// // ////// 20/18 Q1012 NOSIG
ZJSY,2003-10-20 21:00,ZJSY 202100Z AUTO 36002MPS //// // ////// 20/17 Q1012 NOSIG
ZJSY,2003-10-20 22:00,ZJSY 202200Z 33002MPS 9999 FEW018 BKN260 19/17 Q1013 NOSIG
ZJSY,2003-10-20 23:00,ZJSY 202300Z 00000MPS 7000 NSC 19/16 Q1014 NOSIG
ZJSY,2003-10-21 00:00,ZJSY 210000Z 34002MPS 7000 NSC 21/17 Q1014 NOSIG
ZJSY,2003-10-21 01:00,ZJSY 210100Z 10001MPS 7000 SKC 25/16 Q1015 NOSIG
ZJSY,2003-10-21 02:00,ZJSY 210200Z 06002MPS 7000 SKC 28/15 Q1015 NOSIG
ZJSY,2003-10-21 03:00,ZJSY 210300Z 08004MPS 7000 SKC 30/14 Q1015 NOSIG
ZJSY,2003-10-21 04:00,ZJSY 210400Z 06006MPS 7000 SKC 31/14 Q1013 NOSIG
ZJSY,2003-10-21 05:00,ZJSY 210500Z 07004MPS 7000 SKC 32/15 Q1012 NOSIG
ZJSY,2003-10-21 06:00,ZJSY 210600Z 28004MPS 7000 SKC 31/17 Q1011 NOSIG
ZJSY,2003-10-21 07:00,ZJSY 210700Z 25005MPS 7000 SCT018 30/19 Q1011 NOSIG
ZJSY,2003-10-21 08:00,ZJSY 210800Z 16003MPS 7000 SCT018 29/20 Q1010 NOSIG
ZJSY,2003-10-21 09:00,ZJSY 210900Z 28005MPS 7000 SCT018 BKN100 28/19 Q1011 NOSIG
ZJSY,2003-10-21 10:00,ZJSY 211000Z 30004MPS 5000 HZ SCT016 BKN100 28/18 Q1012 NOSIG
ZJSY,2003-10-21 11:00,ZJSY 211100Z 04002MPS 5000 HZ SCT016 BKN100 27/17 Q1013 NOSIG
ZJSY,2003-10-21 12:00,ZJSY 211200Z 06002MPS 5000 HZ SCT016 BKN100 27/19 Q1013 NOSIG
ZJSY,2003-10-21 13:00,ZJSY 211300Z 04002MPS 5000 HZ SCT016 BKN100 26/19 Q1014 NOSIG
ZJSY,2003-10-21 14:00,ZJSY 211400Z 36001MPS 5000 HZ SCT016 BKN100 25/19 Q1014 NOSIG
ZJSY,2003-10-21 15:00,ZJSY 211500Z 35002MPS 5000 HZ SCT016 BKN100 23/19 Q1015 NOSIG
ZJSY,2003-10-21 16:00,ZJSY 211600Z 35002MPS 5000 HZ SCT016 BKN100 23/19 Q1014 NOSIG
ZJSY,2003-10-21 17:00,ZJSY 211700Z 36001MPS 5000 HZ SCT016 BKN100 23/19 Q1014 NOSIG
ZJSY,2003-10-21 18:00,ZJSY 211800Z 36001MPS 5000 HZ SCT016 BKN100 24/19 Q1014 NOSIG
ZJSY,2003-10-21 19:00,ZJSY 211900Z 34001MPS 5000 HZ SCT016 BKN100 23/19 Q1014 NOSIG
ZJSY,2003-10-21 20:00,ZJSY 212000Z 00000MPS 5000 HZ SCT016 BKN100 22/18 Q1014 NOSIG
ZJSY,2003-10-21 21:00,ZJSY 212100Z AUTO 03001MPS //// // ////// 22/18 Q1014 NOSIG
ZJSY,2003-10-21 22:00,ZJSY 212200Z 33002MPS CAVOK 21/18 Q1014 NOSIG
ZJSY,2003-10-21 23:00,ZJSY 212300Z 04001MPS 5000 HZ NSC 21/18 Q1015 NOSIG
ZJSY,2003-10-22 00:00,ZJSY 220000Z 34001MPS 5000 HZ NSC 22/19 Q1015 NOSIG
ZJSY,2003-10-22 01:00,ZJSY 220100Z 10002MPS 5000 HZ SKC 26/18 Q1016 NOSIG
ZJSY,2003-10-22 02:00,ZJSY 220200Z 06004MPS 5000 HZ SKC 28/16 Q1016 NOSIG
ZJSY,2003-10-22 03:00,ZJSY 220300Z 08004G09MPS 5000 HZ SKC 30/14 Q1016 NOSIG
ZJSY,2003-10-22 04:00,ZJSY 220400Z 08006MPS 5000 HZ SKC 31/13 Q1015 NOSIG
ZJSY,2003-10-22 05:00,ZJSY 220500Z 10003MPS 6000 NSC 32/14 Q1013 NOSIG
ZJSY,2003-10-22 06:00,ZJSY 220600Z 10003MPS 6000 NSC 32/16 Q1012 NOSIG
ZJSY,2003-10-22 07:00,ZJSY 220700Z 17004MPS 8000 NSC 29/19 Q1011 NOSIG
ZJSY,2003-10-22 08:00,ZJSY 220800Z 16003MPS 8000 NSC 29/20 Q1012 NOSIG
ZJSY,2003-10-22 09:00,ZJSY 220900Z 16002MPS 6000 NSC 28/19 Q1012 NOSIG
ZJSY,2003-10-22 10:00,ZJSY 221000Z 08003MPS 6000 SCT020 BKN230 28/19 Q1013 NOSIG
ZJSY,2003-10-22 11:00,ZJSY 221100Z 10002MPS 6000 SCT020 BKN230 27/20 Q1014 NOSIG
ZJSY,2003-10-22 12:00,ZJSY 221200Z 07003MPS 6000 SCT017 BKN050 27/20 Q1015 NOSIG
ZJSY,2003-10-22 13:00,ZJSY 221300Z 03003MPS 6000 SCT017 BKN050 26/20 Q1016 NOSIG
ZJSY,2003-10-22 14:00,ZJSY 221400Z 34001MPS 6000 SCT017 BKN050 25/20 Q1016 NOSIG
ZJSY,2003-10-22 15:00,ZJSY 221500Z 06003MPS 7000 SCT017 BKN050 25/19 Q1017 NOSIG
ZJSY,2003-10-22 16:00,ZJSY 221600Z 36001MPS 7000 SCT017 BKN050 24/20 Q1017 NOSIG
ZJSY,2003-10-22 17:00,ZJSY 221700Z 33002MPS 7000 SCT018 BKN260 24/20 Q1016 NOSIG
ZJSY,2003-10-22 18:00,ZJSY 221800Z 34001MPS 7000 SCT018 BKN260 24/20 Q1016 NOSIG
ZJSY,2003-10-22 19:00,ZJSY 221900Z AUTO 01002MPS //// // ////// 23/20 Q1015 NOSIG
ZJSY,2003-10-22 20:00,ZJSY 222000Z AUTO 01001MPS //// // ////// 23/19 Q1015 NOSIG
ZJSY,2003-10-22 21:00,ZJSY 222100Z AUTO 07002MPS //// // ////// 22/19 Q1015 NOSIG
ZJSY,2003-10-22 22:00,ZJSY 222200Z 00000MPS 6000 NSC 22/19 Q1015 NOSIG
ZJSY,2003-10-22 23:00,ZJSY 222300Z 36001MPS 4000 BR NSC 21/19 Q1016 NOSIG
ZJSY,2003-10-23 00:00,ZJSY 230000Z 33002MPS 4000 BR NSC 22/19 Q1016 NOSIG
ZJSY,2003-10-23 01:00,ZJSY 230100Z 00000MPS 6000 NSC 26/19 Q1017 NOSIG
ZJSY,2003-10-23 02:00,ZJSY 230200Z 20001MPS 6000 NSC 27/18 Q1017 NOSIG
ZJSY,2003-10-23 03:00,ZJSY 230300Z 12002MPS 6000 NSC 29/17 Q1017 NOSIG
ZJSY,2003-10-23 04:00,ZJSY 230400Z 06003MPS 6000 NSC 30/16 Q1016 NOSIG
ZJSY,2003-10-23 05:00,ZJSY 230500Z 10005MPS 6000 NSC 30/17 Q1015 NOSIG
ZJSY,2003-10-23 06:00,ZJSY 230600Z 09004MPS 6000 NSC 30/18 Q1013 NOSIG
ZJSY,2003-10-23 07:00,ZJSY 230700Z 10004MPS 6000 NSC 30/19 Q1013 NOSIG
ZJSY,2003-10-23 08:00,ZJSY 230800Z 08006MPS 6000 NSC 29/19 Q1013 NOSIG
ZJSY,2003-10-23 09:00,ZJSY 230900Z 08006MPS 6000 NSC 28/19 Q1013 NOSIG
ZJSY,2003-10-23 10:00,ZJSY 231000Z 09004MPS 6000 NSC 27/20 Q1013 NOSIG
ZJSY,2003-10-23 11:00,ZJSY 231100Z 06003MPS 6000 BKN043 BKN260 27/20 Q1014 NOSIG
ZJSY,2003-10-23 12:00,ZJSY 231200Z 08003MPS 8000 SCT046 BKN260 26/20 Q1015 NOSIG
ZJSY,2003-10-23 13:00,ZJSY 231300Z 05003MPS CAVOK 26/19 Q1016 NOSIG
ZJSY,2003-10-23 14:00,ZJSY 231400Z 07002MPS CAVOK 26/19 Q1016 NOSIG
ZJSY,2003-10-23 15:00,ZJSY 231500Z 04002MPS CAVOK 25/19 Q1016 NOSIG
ZJSY,2003-10-23 16:00,ZJSY 231600Z 04002MPS CAVOK 25/19 Q1016 NOSIG
ZJSY,2003-10-23 17:00,ZJSY 231700Z 08002MPS CAVOK 24/19 Q1016 NOSIG
ZJSY,2003-10-23 18:00,ZJSY 231800Z AUTO 34002MPS //// // ////// 22/19 Q1015 NOSIG
ZJSY,2003-10-23 19:00,ZJSY 231900Z AUTO 34002MPS //// // ////// 22/19 Q1015 NOSIG
ZJSY,2003-10-23 20:00,ZJSY 232000Z AUTO 33002MPS //// // ////// 21/18 Q1014 NOSIG
ZJSY,2003-10-23 21:00,ZJSY 232100Z AUTO 08001MPS //// // ////// 22/19 Q1014 NOSIG
ZJSY,2003-10-23 22:00,ZJSY 232200Z 36001MPS CAVOK 22/19 Q1015 NOSIG
ZJSY,2003-10-23 23:00,ZJSY 232300Z 05003MPS 7000 NSC 23/19 Q1015 NOSIG
ZJSY,2003-10-24 00:00,ZJSY 240000Z 30002MPS 8000 NSC 24/19 Q1016 NOSIG
ZJSY,2003-10-24 01:00,ZJSY 240100Z 01002MPS 8000 NSC 27/19 Q1016 NOSIG
ZJSY,2003-10-24 02:00,ZJSY 240200Z 06005MPS 8000 SKC 28/16 Q1016 NOSIG
ZJSY,2003-10-24 03:00,ZJSY 240300Z 08004MPS 8000 SKC 29/17 Q1015 NOSIG
ZJSY,2003-10-24 04:00,ZJSY 240400Z 10004MPS 8000 SKC 30/17 Q1015 NOSIG
ZJSY,2003-10-24 05:00,ZJSY 240500Z 12004MPS 8000 NSC 31/17 Q1014 NOSIG
ZJSY,2003-10-24 06:00,ZJSY 240600Z 13004MPS 8000 NSC 29/19 Q1013 NOSIG
ZJSY,2003-10-24 07:00,ZJSY 240700Z 13004MPS 8000 NSC 29/19 Q1012 NOSIG
ZJSY,2003-10-24 08:00,ZJSY 240800Z 11004MPS 8000 NSC 29/18 Q1012 NOSIG
ZJSY,2003-10-24 09:00,ZJSY 240900Z 10004MPS 8000 NSC 28/18 Q1012 NOSIG
ZJSY,2003-10-24 10:00,ZJSY 241000Z 09003MPS 8000 NSC 27/18 Q1012 NOSIG
ZJSY,2003-10-24 11:00,ZJSY 241100Z 08004MPS 8000 NSC 26/18 Q1013 NOSIG
ZJSY,2003-10-24 12:00,ZJSY 241200Z 09003MPS 8000 NSC 26/18 Q1013 NOSIG
ZJSY,2003-10-24 13:00,ZJSY 241300Z 07004MPS 8000 NSC 26/17 Q1014 NOSIG
ZJSY,2003-10-24 14:00,ZJSY 241400Z 08004MPS 8000 NSC 26/17 Q1015 NOSIG
ZJSY,2003-10-24 15:00,ZJSY 241500Z 06002MPS 8000 NSC 25/16 Q1015 NOSIG
ZJSY,2003-10-24 16:00,ZJSY 241600Z 08002MPS 8000 NSC 24/17 Q1015 NOSIG
ZJSY,2003-10-24 17:00,ZJSY 241700Z 08002MPS 8000 NSC 24/17 Q1015 NOSIG
ZJSY,2003-10-24 18:00,ZJSY 241800Z AUTO 06002MPS //// // ////// 24/17 Q1014 NOSIG
ZJSY,2003-10-24 19:00,ZJSY 241900Z AUTO 08002MPS //// // ////// 23/17 Q1014 NOSIG
ZJSY,2003-10-24 20:00,ZJSY 242000Z AUTO 00000MPS //// // ////// 22/18 Q1014 NOSIG
ZJSY,2003-10-24 21:00,ZJSY 242100Z AUTO 00000MPS //// // ////// 22/17 Q1014 NOSIG
ZJSY,2003-10-24 22:00,ZJSY 242200Z 06003MPS 8000 NSC 23/17 Q1014 NOSIG
ZJSY,2003-10-24 23:00,ZJSY 242300Z 03002MPS 8000 SKC 22/17 Q1014 NOSIG
ZJSY,2003-10-25 00:00,ZJSY 250000Z 00000MPS 8000 SKC 23/18 Q1015 NOSIG
ZJSY,2003-10-25 01:00,ZJSY 250100Z 05002MPS 8000 SKC 26/18 Q1016 NOSIG
ZJSY,2003-10-25 02:00,ZJSY 250200Z 08002MPS 8000 SKC 28/16 Q1016 NOSIG
ZJSY,2003-10-25 03:00,ZJSY 250300Z 09004MPS 8000 SKC 29/14 Q1016 NOSIG
ZJSY,2003-10-25 04:00,ZJSY 250400Z 08005MPS CAVOK 30/13 Q1015 NOSIG
ZJSY,2003-10-25 05:00,ZJSY 250500Z 11004MPS CAVOK 30/16 Q1014 NOSIG
ZJSY,2003-10-25 06:00,ZJSY 250600Z 11004MPS CAVOK 30/18 Q1013 NOSIG
ZJSY,2003-10-25 07:00,ZJSY 250700Z 12005MPS 8000 SKC 29/18 Q1012 NOSIG
ZJSY,2003-10-25 08:00,ZJSY 250800Z 10005MPS 7000 SKC 29/18 Q1012 NOSIG
ZJSY,2003-10-25 09:00,ZJSY 250900Z 10004MPS 5000 HZ FEW018 28/18 Q1012 NOSIG
ZJSY,2003-10-25 10:00,ZJSY 251000Z 10004MPS 5000 HZ FEW018 SCT260 27/18 Q1013 NOSIG
ZJSY,2003-10-25 11:00,ZJSY 251100Z 08004MPS 5000 HZ FEW018 SCT260 26/19 Q1013 NOSIG
ZJSY,2003-10-25 12:00,ZJSY 251200Z 06003MPS 5000 HZ FEW018 SCT260 26/19 Q1014 NOSIG
ZJSY,2003-10-25 13:00,ZJSY 251300Z 06004MPS 5000 HZ FEW018 SCT260 26/19 Q1015 NOSIG
ZJSY,2003-10-25 14:00,ZJSY 251400Z 06003MPS 5000 HZ FEW018 BKN260 25/18 Q1015 NOSIG
ZJSY,2003-10-25 15:00,ZJSY 251500Z 05004MPS 5000 HZ FEW018 BKN260 25/18 Q1016 NOSIG
ZJSY,2003-10-25 16:00,ZJSY 251600Z 05003MPS 5000 HZ FEW018 BKN260 24/18 Q1016 NOSIG
ZJSY,2003-10-25 17:00,ZJSY 251700Z AUTO 34001MPS //// // ////// 22/18 Q1015 NOSIG
ZJSY,2003-10-25 18:00,ZJSY 251800Z AUTO 36002MPS //// // ////// 21/18 Q1015 NOSIG
ZJSY,2003-10-25 19:00,ZJSY 251900Z AUTO 36002MPS //// // ////// 21/18 Q1015 NOSIG
ZJSY,2003-10-25 20:00,ZJSY 252000Z AUTO 34002MPS //// // ////// 21/18 Q1015 NOSIG
ZJSY,2003-10-25 21:00,ZJSY 252100Z AUTO 34002MPS //// // ////// 20/17 Q1015 NOSIG
ZJSY,2003-10-25 22:00,ZJSY 252200Z 35002MPS CAVOK 19/17 Q1015 NOSIG
ZJSY,2003-10-25 23:00,ZJSY 252300Z 34002MPS 5000 BR SKC 20/17 Q1016 NOSIG
ZJSY,2003-10-26 00:00,ZJSY 260000Z 34001MPS 5000 BR SKC 22/18 Q1016 NOSIG
ZJSY,2003-10-26 01:00,ZJSY 260100Z 06003MPS 8000 SKC 26/17 Q1016 NOSIG
ZJSY,2003-10-26 02:00,ZJSY 260200Z 09003MPS 9000 SKC 28/17 Q1016 NOSIG
ZJSY,2003-10-26 03:00,ZJSY 260300Z 07006MPS CAVOK 29/15 Q1016 NOSIG
ZJSY,2003-10-26 04:00,ZJSY 260400Z 08004MPS CAVOK 30/14 Q1015 NOSIG
ZJSY,2003-10-26 05:00,ZJSY 260500Z 08005MPS CAVOK 30/15 Q1014 NOSIG
ZJSY,2003-10-26 06:00,ZJSY 260600Z 12004MPS CAVOK 30/16 Q1013 NOSIG
ZJSY,2003-10-26 07:00,ZJSY 260700Z 12005MPS CAVOK 29/18 Q1013 NOSIG
ZJSY,2003-10-26 08:00,ZJSY 260800Z 11004MPS CAVOK 29/18 Q1012 NOSIG
ZJSY,2003-10-26 09:00,ZJSY 260900Z 10005MPS CAVOK 28/17 Q1013 NOSIG
ZJSY,2003-10-26 10:00,ZJSY 261000Z 07006MPS 9999 SCT020 27/16 Q1013 NOSIG
ZJSY,2003-10-26 11:00,ZJSY 261100Z 06003MPS 9999 SCT020 SCT260 26/17 Q1014 NOSIG
ZJSY,2003-10-26 16:00,ZJSY 261600Z 05002MPS CAVOK 24/15 Q1016 NOSIG
ZJSY,2003-10-26 17:00,ZJSY 261700Z 04003MPS CAVOK 24/15 Q1016 NOSIG
ZJSY,2003-10-26 18:00,ZJSY 261800Z AUTO 04003MPS //// // ////// 23/15 Q1015 NOSIG
ZJSY,2003-10-26 19:00,ZJSY 261900Z AUTO 32002MPS //// // ////// 21/16 Q1015 NOSIG
ZJSY,2003-10-26 20:00,ZJSY 262000Z AUTO 35003MPS //// // ////// 20/16 Q1015 NOSIG
ZJSY,2003-10-26 21:00,ZJSY 262100Z AUTO 36001MPS //// // ////// 20/16 Q1015 NOSIG
ZJSY,2003-10-26 22:00,ZJSY 262200Z 33003MPS CAVOK 19/16 Q1015 NOSIG
ZJSY,2003-10-26 23:00,ZJSY 262300Z 32002MPS CAVOK 19/16 Q1016 NOSIG
ZJSY,2003-10-27 00:00,ZJSY 270000Z 32002MPS CAVOK 22/16 Q1017 NOSIG
ZJSY,2003-10-27 01:00,ZJSY 270100Z 31001MPS CAVOK 26/16 Q1018 NOSIG
ZJSY,2003-10-27 02:00,ZJSY 270200Z 02002MPS CAVOK 28/15 Q1018 NOSIG
ZJSY,2003-10-27 03:00,ZJSY 270300Z 19002MPS CAVOK 29/17 Q1018 NOSIG
ZJSY,2003-10-27 04:00,ZJSY 270400Z 20003MPS CAVOK 29/18 Q1017 NOSIG
ZJSY,2003-10-27 05:00,ZJSY 270500Z 22004MPS 9999 SCT020 30/18 Q1016 NOSIG
ZJSY,2003-10-27 06:00,ZJSY 270600Z 23004MPS 9999 BKN020 BKN230 30/19 Q1015 NOSIG
ZJSY,2003-10-27 07:00,ZJSY 270700Z 25004MPS 9999 BKN016 FEW026TCU BKN230 28/19 Q1015 NOSIG
ZJSY,2003-10-27 08:00,ZJSY 270800Z 06005MPS 9999 BKN016 FEW026TCU BKN230 28/20 Q1015 NOSIG
ZJSY,2003-10-27 09:00,ZJSY 270900Z 06003MPS 9999 BKN016 FEW026TCU BKN230 26/22 Q1015 NOSIG
ZJSY,2003-10-27 10:00,ZJSY 271000Z 06003MPS 9999 SCT018 BKN040 BKN260 26/21 Q1015 NOSIG
ZJSY,2003-10-27 11:00,ZJSY 271100Z 06003MPS 9999 SCT018 BKN040 BKN260 25/21 Q1016 NOSIG
ZJSY,2003-10-27 12:00,ZJSY 271200Z 06003MPS 9999 SCT018 BKN040 BKN260 25/21 Q1017 NOSIG
ZJSY,2003-10-27 13:00,ZJSY 271300Z 04004MPS 9999 SCT018 BKN040 BKN260 26/20 Q1018 NOSIG
ZJSY,2003-10-27 14:00,ZJSY 271400Z 04005MPS CAVOK 26/20 Q1018 NOSIG
ZJSY,2003-10-27 15:00,ZJSY 271500Z 02003MPS CAVOK 25/19 Q1018 NOSIG
ZJSY,2003-10-27 16:00,ZJSY 271600Z 05003MPS CAVOK 24/20 Q1018 NOSIG
ZJSY,2003-10-27 17:00,ZJSY 271700Z 35001MPS CAVOK 23/20 Q1018 NOSIG
ZJSY,2003-10-27 18:00,ZJSY 271800Z AUTO 30001MPS //// // ////// 22/20 Q1017 NOSIG
ZJSY,2003-10-27 19:00,ZJSY 271900Z AUTO 26001MPS //// // ////// 22/19 Q1017 NOSIG
ZJSY,2003-10-27 20:00,ZJSY 272000Z AUTO 00000MPS //// // ////// 22/19 Q1017 NOSIG
ZJSY,2003-10-27 21:00,ZJSY 272100Z AUTO 35002MPS //// // ////// 21/18 Q1017 NOSIG
ZJSY,2003-10-27 22:00,ZJSY 272200Z 04001MPS CAVOK 21/18 Q1017 NOSIG
ZJSY,2003-10-27 23:00,ZJSY 272300Z 08002MPS CAVOK 21/18 Q1018 NOSIG
ZJSY,2003-10-28 00:00,ZJSY 280000Z 07001MPS CAVOK 24/19 Q1018 NOSIG
ZJSY,2003-10-28 01:00,ZJSY 280100Z 06002MPS CAVOK 27/18 Q1019 NOSIG
ZJSY,2003-10-28 02:00,ZJSY 280200Z 06005MPS CAVOK 29/17 Q1019 NOSIG
ZJSY,2003-10-28 03:00,ZJSY 280300Z 04005MPS CAVOK 30/17 Q1019 NOSIG
ZJSY,2003-10-28 04:00,ZJSY 280400Z 02004MPS CAVOK 31/17 Q1018 NOSIG
ZJSY,2003-10-28 05:00,ZJSY 280500Z 06004MPS CAVOK 31/16 Q1017 NOSIG
ZJSY,2003-10-28 06:00,ZJSY 280600Z 04003MPS CAVOK 32/15 Q1016 NOSIG
ZJSY,2003-10-28 07:00,ZJSY 280700Z 36002MPS CAVOK 32/14 Q1015 NOSIG
ZJSY,2003-10-28 08:00,ZJSY 280800Z 29006MPS 9999 FEW017 31/20 Q1015 NOSIG
ZJSY,2003-10-28 09:00,ZJSY 280900Z 27006MPS 9999 SCT017 FEW023TCU BKN260 28/21 Q1015 NOSIG
ZJSY,2003-10-28 10:00,ZJSY 281000Z 27002MPS 9999 SCT017 FEW023TCU BKN260 27/20 Q1016 NOSIG
ZJSY,2003-10-28 11:00,ZJSY 281100Z 10003MPS 9999 SCT017 FEW023TCU BKN260 27/20 Q1016 NOSIG
ZJSY,2003-10-28 12:00,ZJSY 281200Z 07004MPS 9999 SCT017 FEW023TCU BKN260 26/19 Q1017 NOSIG
ZJSY,2003-10-28 13:00,ZJSY 281300Z 06003MPS 9999 SCT017 FEW023TCU BKN260 26/19 Q1017 NOSIG
ZJSY,2003-10-28 14:00,ZJSY 281400Z 05004MPS 9999 SCT017 FEW023TCU BKN260 25/18 Q1018 NOSIG
ZJSY,2003-10-28 15:00,ZJSY 281500Z 06002MPS 9999 SCT017 FEW023TCU BKN260 24/18 Q1018 NOSIG
ZJSY,2003-10-28 16:00,ZJSY 281600Z 10002MPS 9999 SCT017 BKN260 24/18 Q1017 NOSIG
ZJSY,2003-10-28 17:00,ZJSY 281700Z AUTO 33002MPS //// // ////// 22/19 Q1017 NOSIG
ZJSY,2003-10-28 18:00,ZJSY 281800Z AUTO 00000MPS //// // ////// 22/19 Q1016 NOSIG
ZJSY,2003-10-28 19:00,ZJSY 281900Z AUTO 02002MPS //// // ////// 22/18 Q1016 NOSIG
ZJSY,2003-10-28 20:00,ZJSY 282000Z AUTO 07002MPS //// // ////// 23/18 Q1015 NOSIG
ZJSY,2003-10-28 21:00,ZJSY 282100Z AUTO 34002MPS //// // ////// 21/18 Q1015 NOSIG
ZJSY,2003-10-28 22:00,ZJSY 282200Z AUTO 35001MPS //// // ////// 21/18 Q1016 NOSIG
ZJSY,2003-10-28 23:00,ZJSY 282300Z 34001MPS 6000 NSC 21/18 Q1016 NOSIG
ZJSY,2003-10-29 00:00,ZJSY 290000Z 35001MPS 6000 NSC 22/19 Q1017 NOSIG
ZJSY,2003-10-29 01:00,ZJSY 290100Z 04002MPS 8000 SKC 27/18 Q1017 NOSIG
ZJSY,2003-10-29 02:00,ZJSY 290200Z 08003MPS 8000 NSC 28/18 Q1017 NOSIG
ZJSY,2003-10-29 03:00,ZJSY 290300Z 07007MPS 8000 FEW017 30/17 Q1017 NOSIG
ZJSY,2003-10-29 04:00,ZJSY 290400Z 07006MPS 8000 SCT017 FEW026TCU 29/18 Q1016 NOSIG
ZJSY,2003-10-29 05:00,ZJSY 290500Z 04005G11MPS 8000 SCT017 30/17 Q1015 NOSIG
ZJSY,2003-10-29 06:00,ZJSY 290600Z 08005MPS 8000 SCT017 31/17 Q1014 NOSIG
ZJSY,2003-10-29 07:00,ZJSY 290700Z 08005MPS 8000 SCT017 31/18 Q1013 NOSIG
ZJSY,2003-10-29 08:00,ZJSY 290800Z 10005MPS 9999 FEW017 30/18 Q1013 NOSIG
ZJSY,2003-10-29 09:00,ZJSY 290900Z 10005MPS CAVOK 29/18 Q1013 NOSIG
ZJSY,2003-10-29 10:00,ZJSY 291000Z 08005MPS CAVOK 28/19 Q1014 NOSIG
ZJSY,2003-10-29 11:00,ZJSY 291100Z 09003MPS CAVOK 26/20 Q1014 NOSIG
ZJSY,2003-10-29 12:00,ZJSY 291200Z 06005MPS CAVOK 27/19 Q1015 NOSIG
ZJSY,2003-10-29 13:00,ZJSY 291300Z 06005MPS CAVOK 26/19 Q1016 NOSIG
ZJSY,2003-10-29 14:00,ZJSY 291400Z 06004MPS CAVOK 26/19 Q1016 NOSIG
ZJSY,2003-10-29 15:00,ZJSY 291500Z 03002MPS CAVOK 25/18 Q1016 NOSIG
ZJSY,2003-10-29 16:00,ZJSY 291600Z 10004MPS CAVOK 24/19 Q1016 NOSIG
ZJSY,2003-10-29 17:00,ZJSY 291700Z 07005MPS CAVOK 23/20 Q1016 NOSIG
ZJSY,2003-10-29 18:00,ZJSY 291800Z AUTO 06001MPS //// // ////// 23/20 Q1015 NOSIG
ZJSY,2003-10-29 19:00,ZJSY 291900Z AUTO 04004MPS //// // ////// 25/19 Q1015 NOSIG
ZJSY,2003-10-29 20:00,ZJSY 292000Z AUTO 06003MPS //// // ////// 25/18 Q1014 NOSIG
ZJSY,2003-10-29 21:00,ZJSY 292100Z AUTO 10002MPS //// // ////// 24/18 Q1014 NOSIG
ZJSY,2003-10-29 22:00,ZJSY 292200Z 08003MPS CAVOK 24/18 Q1014 NOSIG
ZJSY,2003-10-29 23:00,ZJSY 292300Z 06004MPS CAVOK 24/18 Q1015 NOSIG
ZJSY,2003-10-30 00:00,ZJSY 300000Z 09002MPS CAVOK 25/19 Q1015 NOSIG
ZJSY,2003-10-30 01:00,ZJSY 300100Z 07002MPS 8000 SKC 27/19 Q1015 NOSIG
ZJSY,2003-10-30 02:00,ZJSY 300200Z 05006MPS 8000 SKC 29/17 Q1015 NOSIG
ZJSY,2003-10-30 03:00,ZJSY 300300Z 09006MPS 8000 SKC 30/17 Q1015 NOSIG
ZJSY,2003-10-30 04:00,ZJSY 300400Z 08006MPS 8000 SKC 31/17 Q1014 NOSIG
ZJSY,2003-10-30 05:00,ZJSY 300500Z 06006MPS 8000 FEW016 31/17 Q1013 NOSIG
ZJSY,2003-10-30 06:00,ZJSY 300600Z 09004MPS 8000 FEW016 31/18 Q1012 NOSIG
ZJSY,2003-10-30 07:00,ZJSY 300700Z 11005MPS 8000 FEW016 31/19 Q1011 NOSIG
ZJSY,2003-10-30 08:00,ZJSY 300800Z 10005MPS 8000 FEW016 29/19 Q1011 NOSIG
ZJSY,2003-10-30 09:00,ZJSY 300900Z 08007MPS 8000 SCT016 FEW026TCU 28/18 Q1011 NOSIG
ZJSY,2003-10-30 10:00,ZJSY 301000Z 05005MPS 8000 SCT013 SCT016 FEW026TCU 27/19 Q1012 NOSIG
ZJSY,2003-10-30 11:00,ZJSY 301100Z 28002MPS 8000 SCT013 SCT016 FEW026TCU 25/20 Q1013 NOSIG
ZJSY,2003-10-30 12:00,ZJSY 301200Z 35001MPS 8000 FEW013 SCT016 BKN050 25/20 Q1014 NOSIG
ZJSY,2003-10-30 13:00,ZJSY 301300Z 08004MPS 9000 FEW013 SCT016 BKN050 26/18 Q1014 NOSIG
ZJSY,2003-10-30 14:00,ZJSY 301400Z 08003MPS 9000 FEW013 SCT016 BKN050 25/18 Q1015 NOSIG
ZJSY,2003-10-30 15:00,ZJSY 301500Z 06004MPS 8000 FEW015 BKN050 25/18 Q1015 NOSIG
ZJSY,2003-10-30 16:00,ZJSY 301600Z 07004MPS 8000 FEW015 BKN050 25/17 Q1015 NOSIG
ZJSY,2003-10-30 17:00,ZJSY 301700Z 03001MPS 8000 FEW015 BKN050 24/18 Q1014 NOSIG
ZJSY,2003-10-30 18:00,ZJSY 301800Z 33002MPS 8000 FEW015 BKN050 22/19 Q1014 NOSIG
ZJSY,2003-10-30 19:00,ZJSY 301900Z AUTO 07001MPS //// // ////// 21/18 Q1014 NOSIG
ZJSY,2003-10-30 20:00,ZJSY 302000Z 34002MPS 7000 FEW015 BKN260 20/18 Q1013 NOSIG
ZJSY,2003-10-30 21:00,ZJSY 302100Z 34002MPS 7000 FEW015 BKN260 19/17 Q1013 NOSIG
ZJSY,2003-10-30 22:00,ZJSY 302200Z AUTO 32002MPS //// // ////// 19/17 Q1014 NOSIG
ZJSY,2003-10-30 23:00,ZJSY 302300Z 34003MPS 7000 NSC 19/16 Q1014 NOSIG
ZJSY,2003-10-31 00:00,ZJSY 310000Z 34001MPS 9000 NSC 20/17 Q1015 NOSIG
ZJSY,2003-10-31 01:00,ZJSY 310100Z 34001MPS 9000 SKC 24/16 Q1015 NOSIG
ZJSY,2003-10-31 02:00,ZJSY 310200Z 20001MPS 8000 SKC 27/16 Q1015 NOSIG
ZJSY,2003-10-31 03:00,ZJSY 310300Z 21002MPS CAVOK 27/16 Q1015 NOSIG
ZJSY,2003-10-31 04:00,ZJSY 310400Z 21003MPS CAVOK 29/14 Q1014 NOSIG
ZJSY,2003-10-31 05:00,ZJSY 310500Z 24004MPS CAVOK 29/15 Q1013 NOSIG
ZJSY,2003-10-31 06:00,ZJSY 310600Z 23004MPS CAVOK 29/17 Q1012 NOSIG
ZJSY,2003-10-31 07:00,ZJSY 310700Z 23004MPS CAVOK 28/16 Q1012 NOSIG
ZJSY,2003-10-31 08:00,ZJSY 310800Z 24003MPS CAVOK 28/19 Q1011 NOSIG
ZJSY,2003-10-31 09:00,ZJSY 310900Z 24002MPS CAVOK 27/19 Q1012 NOSIG
ZJSY,2003-10-31 10:00,ZJSY 311000Z 32002MPS CAVOK 26/18 Q1012 NOSIG
ZJSY,2003-10-31 11:00,ZJSY 311100Z 34002MPS CAVOK 25/17 Q1013 NOSIG
ZJSY,2003-10-31 12:00,ZJSY 311200Z 34002MPS CAVOK 24/17 Q1013 NOSIG
ZJSY,2003-10-31 13:00,ZJSY 311300Z 32001MPS CAVOK 24/18 Q1014 NOSIG
ZJSY,2003-10-31 14:00,ZJSY 311400Z 01001MPS CAVOK 24/18 Q1014 NOSIG
ZJSY,2003-10-31 15:00,ZJSY 311500Z 34002MPS CAVOK 23/18 Q1014 NOSIG
ZJSY,2003-10-31 16:00,ZJSY 311600Z 34002MPS CAVOK 22/18 Q1014 NOSIG
ZJSY,2003-10-31 17:00,ZJSY 311700Z AUTO 02001MPS //// // ////// 21/18 Q1013 NOSIG
ZJSY,2003-10-31 18:00,ZJSY 311800Z AUTO 34002MPS //// // ////// 21/18 Q1013 NOSIG
ZJSY,2003-10-31 19:00,ZJSY 311900Z AUTO 34001MPS //// // ////// 21/18 Q1013 NOSIG
ZJSY,2003-10-31 20:00,ZJSY 312000Z AUTO 32002MPS //// // ////// 21/18 Q1012 NOSIG
ZJSY,2003-10-31 21:00,ZJSY 312100Z AUTO 34001MPS //// // ////// 20/18 Q1013 NOSIG
ZJSY,2003-10-31 22:00,ZJSY 312200Z 34002MPS 8000 SKC 20/18 Q1013 NOSIG
ZJSY,2003-10-31 23:00,ZJSY 312300Z 02001MPS 8000 SKC 20/18 Q1014 NOSIG
ZJSY,2003-11-01 00:00,ZJSY 010000Z 36001MPS 5000 BR SKC 22/19 Q1014 NOSIG
ZJSY,2003-11-01 01:00,ZJSY 010100Z 08002MPS 5000 HZ SKC 25/19 Q1015 NOSIG
ZJSY,2003-11-01 02:00,ZJSY 010200Z 11002MPS 5000 HZ SKC 27/19 Q1015 NOSIG
ZJSY,2003-11-01 03:00,ZJSY 010300Z 10004MPS 5000 HZ SKC 29/17 Q1015 NOSIG
ZJSY,2003-11-01 04:00,ZJSY 010400Z 14003MPS 5000 HZ SKC 29/17 Q1014 NOSIG
ZJSY,2003-11-01 05:00,ZJSY 010500Z 20003MPS 5000 HZ SKC 29/20 Q1013 NOSIG
ZJSY,2003-11-01 06:00,ZJSY 010600Z 19004MPS 7000 SKC 29/20 Q1013 NOSIG
ZJSY,2003-11-01 07:00,ZJSY 010700Z 18003MPS 7000 SKC 28/20 Q1012 NOSIG
ZJSY,2003-11-01 08:00,ZJSY 010800Z 19003MPS 7000 SKC 28/20 Q1012 NOSIG
ZJSY,2003-11-01 09:00,ZJSY 010900Z 18002MPS 7000 SKC 27/20 Q1012 NOSIG
ZJSY,2003-11-01 10:00,ZJSY 011000Z 22001MPS 7000 SKC 27/20 Q1012 NOSIG
ZJSY,2003-11-01 11:00,ZJSY 011100Z 34002MPS 7000 SKC 25/20 Q1012 NOSIG
ZJSY,2003-11-01 12:00,ZJSY 011200Z 03002MPS 7000 SKC 24/20 Q1013 NOSIG
ZJSY,2003-11-01 13:00,ZJSY 011300Z 34003MPS 8000 SKC 23/20 Q1014 NOSIG
ZJSY,2003-11-01 14:00,ZJSY 011400Z 34002MPS 8000 SKC 23/20 Q1014 NOSIG
ZJSY,2003-11-01 15:00,ZJSY 011500Z 36001MPS 8000 SKC 22/19 Q1014 NOSIG
ZJSY,2003-11-01 16:00,ZJSY 011600Z 36001MPS 8000 SKC 22/19 Q1014 NOSIG
ZJSY,2003-11-01 17:00,ZJSY 011700Z 00000MPS 8000 SCT040 BKN230 22/19 Q1014 NOSIG
ZJSY,2003-11-01 18:00,ZJSY 011800Z 34002MPS 8000 SCT040 BKN230 21/19 Q1013 NOSIG
ZJSY,2003-11-01 19:00,ZJSY 011900Z 33003MPS 8000 SCT040 BKN230 21/19 Q1013 NOSIG
ZJSY,2003-11-01 20:00,ZJSY 012000Z AUTO 00000MPS //// // ////// 21/18 Q1013 NOSIG
ZJSY,2003-11-01 21:00,ZJSY 012100Z AUTO 36002MPS //// // ////// 20/18 Q1013 NOSIG
ZJSY,2003-11-01 22:00,ZJSY 012200Z 34002MPS 7000 SCT040 BKN230 20/18 Q1014 NOSIG
ZJSY,2003-11-01 23:00,ZJSY 012300Z 34002MPS 7000 NSC 20/18 Q1015 NOSIG
ZJSY,2003-11-02 00:00,ZJSY 020000Z 35002MPS 7000 NSC 22/19 Q1015 NOSIG
ZJSY,2003-11-02 01:00,ZJSY 020100Z 34002MPS CAVOK 25/20 Q1016 NOSIG
ZJSY,2003-11-02 02:00,ZJSY 020200Z 07002MPS CAVOK 28/17 Q1016 NOSIG
ZJSY,2003-11-02 03:00,ZJSY 020300Z 16002MPS CAVOK 29/18 Q1015 NOSIG
ZJSY,2003-11-02 04:00,ZJSY 020400Z 21003MPS CAVOK 28/17 Q1015 NOSIG
ZJSY,2003-11-02 05:00,ZJSY 020500Z 19004MPS CAVOK 28/19 Q1014 NOSIG
ZJSY,2003-11-02 06:00,ZJSY 020600Z 20004MPS CAVOK 28/19 Q1013 NOSIG
ZJSY,2003-11-02 07:00,ZJSY 020700Z 19003MPS CAVOK 28/20 Q1012 NOSIG
ZJSY,2003-11-02 08:00,ZJSY 020800Z 20003MPS CAVOK 28/20 Q1013 NOSIG
ZJSY,2003-11-02 09:00,ZJSY 020900Z 23003MPS CAVOK 27/19 Q1013 NOSIG
ZJSY,2003-11-02 10:00,ZJSY 021000Z 22001MPS CAVOK 27/19 Q1013 NOSIG
ZJSY,2003-11-02 11:00,ZJSY 021100Z 34001MPS CAVOK 25/20 Q1014 NOSIG
ZJSY,2003-11-02 12:00,ZJSY 021200Z 34002MPS CAVOK 24/20 Q1014 NOSIG
ZJSY,2003-11-02 13:00,ZJSY 021300Z 34002MPS CAVOK 24/20 Q1015 NOSIG
ZJSY,2003-11-02 14:00,ZJSY 021400Z 35001MPS CAVOK 23/20 Q1015 NOSIG
ZJSY,2003-11-02 15:00,ZJSY 021500Z 35002MPS CAVOK 23/20 Q1015 NOSIG
ZJSY,2003-11-02 16:00,ZJSY 021600Z 35001MPS CAVOK 22/20 Q1015 NOSIG
ZJSY,2003-11-02 17:00,ZJSY 021700Z 34002MPS CAVOK 22/20 Q1015 NOSIG
ZJSY,2003-11-02 18:00,ZJSY 021800Z AUTO 35001MPS //// // ////// 22/19 Q1015 NOSIG
ZJSY,2003-11-02 19:00,ZJSY 021900Z AUTO 35002MPS //// // ////// 21/19 Q1014 NOSIG
ZJSY,2003-11-02 20:00,ZJSY 022000Z AUTO 32002MPS //// // ////// 21/19 Q1014 NOSIG
ZJSY,2003-11-02 21:00,ZJSY 022100Z AUTO 34001MPS //// // ////// 20/18 Q1014 NOSIG
ZJSY,2003-11-02 22:00,ZJSY 022200Z 33003MPS 7000 NSC 20/18 Q1014 NOSIG
ZJSY,2003-11-02 23:00,ZJSY 022300Z 33003MPS 5000 NSC 20/18 Q1015 NOSIG
ZJSY,2003-11-03 00:00,ZJSY 030000Z 00000MPS 5000 BR NSC 22/19 Q1016 NOSIG
ZJSY,2003-11-03 01:00,ZJSY 030100Z 00000MPS 5000 BR SKC 26/20 Q1016 NOSIG
ZJSY,2003-11-03 02:00,ZJSY 030200Z 22002MPS 5000 BR SKC 27/20 Q1016 NOSIG
ZJSY,2003-11-03 03:00,ZJSY 030300Z 21003MPS 8000 SKC 28/21 Q1016 NOSIG
ZJSY,2003-11-03 04:00,ZJSY 030400Z 20004MPS 8000 SKC 28/21 Q1015 NOSIG
ZJSY,2003-11-03 05:00,ZJSY 030500Z 23004MPS 8000 SKC 28/21 Q1014 NOSIG
ZJSY,2003-11-03 06:00,ZJSY 030600Z 21003MPS 8000 SKC 28/21 Q1013 NOSIG
ZJSY,2003-11-03 07:00,ZJSY 030700Z 20003MPS 8000 SKC 28/22 Q1012 NOSIG
ZJSY,2003-11-03 08:00,ZJSY 030800Z 20003MPS 8000 FEW018 28/22 Q1012 NOSIG
ZJSY,2003-11-03 09:00,ZJSY 030900Z 21002MPS 8000 SCT015 27/22 Q1012 NOSIG
ZJSY,2003-11-03 10:00,ZJSY 031000Z 23001MPS 5000 BR SCT015 SCT050 BKN260 27/22 Q1012 NOSIG
ZJSY,2003-11-03 11:00,ZJSY 031100Z 25001MPS 5000 BR SCT015 SCT050 BKN260 26/22 Q1013 NOSIG
ZJSY,2003-11-03 12:00,ZJSY 031200Z 36001MPS 5000 BR SCT015 SCT050 BKN260 25/22 Q1014 NOSIG
ZJSY,2003-11-03 13:00,ZJSY 031300Z 35001MPS 4000 BR SCT015 SCT050 BKN260 24/21 Q1014 NOSIG
ZJSY,2003-11-03 14:00,ZJSY 031400Z 34002MPS 9000 NSC 24/21 Q1015 NOSIG
ZJSY,2003-11-03 15:00,ZJSY 031500Z 35001MPS CAVOK 23/21 Q1015 NOSIG
ZJSY,2003-11-03 16:00,ZJSY 031600Z 34002MPS CAVOK 23/21 Q1014 NOSIG
ZJSY,2003-11-03 17:00,ZJSY 031700Z 34002MPS CAVOK 22/20 Q1014 NOSIG
ZJSY,2003-11-03 18:00,ZJSY 031800Z 35002MPS CAVOK 23/21 Q1013 NOSIG
ZJSY,2003-11-03 19:00,ZJSY 031900Z 34003MPS CAVOK 22/20 Q1013 NOSIG
ZJSY,2003-11-03 20:00,ZJSY 032000Z AUTO 33001MPS //// // ////// 21/20 Q1013 NOSIG
ZJSY,2003-11-03 21:00,ZJSY 032100Z AUTO 33001MPS //// // ////// 21/19 Q1013 NOSIG
ZJSY,2003-11-03 22:00,ZJSY 032200Z AUTO 34003MPS //// // ////// 21/19 Q1014 NOSIG
ZJSY,2003-11-03 23:00,ZJSY 032300Z 34003MPS 4000 BR NSC 21/19 Q1015 NOSIG
ZJSY,2003-11-04 00:00,ZJSY 040000Z 34002MPS 4000 BR NSC 22/19 Q1015 NOSIG
ZJSY,2003-11-04 01:00,ZJSY 040100Z 34001MPS 5000 BR SKC 25/20 Q1015 NOSIG
ZJSY,2003-11-04 02:00,ZJSY 040200Z 10002MPS 5000 BR SKC 28/19 Q1016 NOSIG
ZJSY,2003-11-04 03:00,ZJSY 040300Z 09004MPS 5000 HZ SKC 29/18 Q1015 NOSIG
ZJSY,2003-11-04 04:00,ZJSY 040400Z 10004MPS 5000 HZ SKC 30/18 Q1014 NOSIG
ZJSY,2003-11-04 05:00,ZJSY 040500Z 17003MPS 5000 HZ SKC 29/20 Q1013 NOSIG
ZJSY,2003-11-04 06:00,ZJSY 040600Z 10004MPS 5000 HZ SKC 31/17 Q1012 NOSIG
ZJSY,2003-11-04 07:00,ZJSY 040700Z 11004MPS 7000 SKC 31/13 Q1012 NOSIG
ZJSY,2003-11-04 08:00,ZJSY 040800Z 11004MPS 7000 SKC 30/13 Q1012 NOSIG
ZJSY,2003-11-04 09:00,ZJSY 040900Z 10004MPS 7000 SKC 29/15 Q1012 NOSIG
ZJSY,2003-11-04 10:00,ZJSY 041000Z 08005MPS 9000 NSC 27/18 Q1012 NOSIG
ZJSY,2003-11-04 11:00,ZJSY 041100Z 07003MPS 9000 NSC 25/18 Q1013 NOSIG
ZJSY,2003-11-04 12:00,ZJSY 041200Z 05003MPS 9000 NSC 24/18 Q1013 NOSIG
ZJSY,2003-11-04 13:00,ZJSY 041300Z 06003MPS 9000 NSC 24/19 Q1014 NOSIG
ZJSY,2003-11-04 14:00,ZJSY 041400Z 05003MPS 8000 NSC 25/19 Q1014 NOSIG
ZJSY,2003-11-04 15:00,ZJSY 041500Z 05004MPS 8000 NSC 24/20 Q1015 NOSIG
ZJSY,2003-11-04 16:00,ZJSY 041600Z 05004MPS 8000 SKC 24/19 Q1014 NOSIG
ZJSY,2003-11-04 17:00,ZJSY 041700Z 04002MPS 8000 SKC 23/19 Q1014 NOSIG
ZJSY,2003-11-04 18:00,ZJSY 041800Z AUTO 07002MPS //// // ////// 22/19 Q1013 NOSIG
ZJSY,2003-11-04 19:00,ZJSY 041900Z AUTO 06002MPS //// // ////// 22/19 Q1013 NOSIG
ZJSY,2003-11-04 20:00,ZJSY 042000Z AUTO 00000MPS //// // ////// 21/19 Q1013 NOSIG
ZJSY,2003-11-04 21:00,ZJSY 042100Z AUTO 04001MPS //// // ////// 21/18 Q1013 NOSIG
ZJSY,2003-11-04 22:00,ZJSY 042200Z 02001MPS 8000 SKC 21/18 Q1014 NOSIG
ZJSY,2003-11-04 23:00,ZJSY 042300Z 00000MPS 8000 SKC 21/18 Q1014 NOSIG
ZJSY,2003-11-05 00:00,ZJSY 050000Z 00000MPS 8000 SKC 23/20 Q1015 NOSIG
ZJSY,2003-11-05 01:00,ZJSY 050100Z 06004MPS 6000 SKC 27/18 Q1016 NOSIG
ZJSY,2003-11-05 02:00,ZJSY 050200Z 08002MPS 6000 SKC 28/18 Q1016 NOSIG
ZJSY,2003-11-05 03:00,ZJSY 050300Z 13002MPS 6000 SKC 29/19 Q1016 NOSIG
ZJSY,2003-11-05 04:00,ZJSY 050400Z 18003MPS 6000 SKC 28/18 Q1015 NOSIG
ZJSY,2003-11-05 05:00,ZJSY 050500Z 19004MPS 6000 SKC 28/20 Q1014 NOSIG
ZJSY,2003-11-05 06:00,ZJSY 050600Z 18003MPS 6000 SKC 29/20 Q1013 NOSIG
ZJSY,2003-11-05 07:00,ZJSY 050700Z 16004MPS 6000 FEW016 28/21 Q1012 NOSIG
ZJSY,2003-11-05 08:00,ZJSY 050800Z 16003MPS 6000 FEW016 28/20 Q1012 NOSIG
ZJSY,2003-11-05 09:00,ZJSY 050900Z 14003MPS 8000 FEW016 28/20 Q1011 NOSIG
ZJSY,2003-11-05 10:00,ZJSY 051000Z 11003MPS 8000 FEW016 27/19 Q1012 NOSIG
ZJSY,2003-11-05 11:00,ZJSY 051100Z 09002MPS 8000 FEW016 26/20 Q1012 NOSIG
ZJSY,2003-11-05 12:00,ZJSY 051200Z 05002MPS 8000 FEW016 25/20 Q1013 NOSIG
ZJSY,2003-11-05 13:00,ZJSY 051300Z 34001MPS 9999 FEW016 24/20 Q1013 NOSIG
ZJSY,2003-11-05 14:00,ZJSY 051400Z 01001MPS 9999 FEW016 24/20 Q1014 NOSIG
ZJSY,2003-11-05 15:00,ZJSY 051500Z 33001MPS 9999 FEW016 24/20 Q1014 NOSIG
ZJSY,2003-11-05 16:00,ZJSY 051600Z 35001MPS CAVOK 23/19 Q1013 NOSIG
ZJSY,2003-11-05 17:00,ZJSY 051700Z 34001MPS CAVOK 23/19 Q1013 NOSIG
ZJSY,2003-11-05 18:00,ZJSY 051800Z 00000MPS CAVOK 22/19 Q1012 NOSIG
ZJSY,2003-11-05 19:00,ZJSY 051900Z AUTO 34002MPS //// // ////// 21/18 Q1012 NOSIG
ZJSY,2003-11-05 20:00,ZJSY 052000Z AUTO 35003MPS //// // ////// 20/18 Q1012 NOSIG
ZJSY,2003-11-05 21:00,ZJSY 052100Z AUTO 33002MPS //// // ////// 20/18 Q1012 NOSIG
ZJSY,2003-11-05 22:00,ZJSY 052200Z 33003MPS 8000 SKC 20/18 Q1012 NOSIG
ZJSY,2003-11-05 23:00,ZJSY 052300Z 33002MPS 5000 BR SKC 20/18 Q1013 NOSIG
ZJSY,2003-11-06 00:00,ZJSY 060000Z 34002MPS 5000 BR SKC 23/19 Q1013 NOSIG
ZJSY,2003-11-06 01:00,ZJSY 060100Z 13001MPS CAVOK 27/20 Q1014 NOSIG
ZJSY,2003-11-06 02:00,ZJSY 060200Z 07003MPS CAVOK 28/19 Q1015 NOSIG
ZJSY,2003-11-06 03:00,ZJSY 060300Z 09003MPS 9999 SCT017 28/19 Q1014 NOSIG
ZJSY,2003-11-06 04:00,ZJSY 060400Z 10004MPS 9999 SCT020 30/19 Q1013 NOSIG
ZJSY,2003-11-06 05:00,ZJSY 060500Z 17004MPS 9999 SCT020 29/21 Q1013 NOSIG
ZJSY,2003-11-06 06:00,ZJSY 060600Z 16004MPS 9999 SCT018 29/21 Q1012 NOSIG
ZJSY,2003-11-06 07:00,ZJSY 060700Z 15005MPS 9999 SCT018 29/21 Q1011 NOSIG
ZJSY,2003-11-06 08:00,ZJSY 060800Z 15003MPS 9999 FEW018 28/21 Q1011 NOSIG
ZJSY,2003-11-06 09:00,ZJSY 060900Z 14004MPS 9999 SCT018 28/21 Q1011 NOSIG
ZJSY,2003-11-06 10:00,ZJSY 061000Z 13003MPS 9999 BKN016 SCT230 27/21 Q1011 NOSIG
ZJSY,2003-11-06 11:00,ZJSY 061100Z 09004MPS 9999 FEW013 SCT016 26/21 Q1012 NOSIG
ZJSY,2003-11-06 12:00,ZJSY 061200Z 06002MPS 9999 FEW013 SCT016 25/21 Q1012 NOSIG
ZJSY,2003-11-06 13:00,ZJSY 061300Z 06002MPS 9999 SCT016 25/21 Q1013 NOSIG
ZJSY,2003-11-06 14:00,ZJSY 061400Z 06003MPS CAVOK 24/21 Q1013 NOSIG
ZJSY,2003-11-06 15:00,ZJSY 061500Z 36001MPS CAVOK 24/21 Q1013 NOSIG
ZJSY,2003-11-06 16:00,ZJSY 061600Z 35002MPS CAVOK 23/21 Q1013 NOSIG
ZJSY,2003-11-06 17:00,ZJSY 061700Z 35002MPS CAVOK 23/20 Q1012 NOSIG
ZJSY,2003-11-06 18:00,ZJSY 061800Z 36001MPS CAVOK 22/20 Q1012 NOSIG
ZJSY,2003-11-06 19:00,ZJSY 061900Z AUTO 00000MPS //// // ////// 22/20 Q1011 NOSIG
ZJSY,2003-11-06 20:00,ZJSY 062000Z AUTO 05002MPS //// // ////// 23/20 Q1011 NOSIG
ZJSY,2003-11-06 21:00,ZJSY 062100Z AUTO 34002MPS //// // ////// 22/20 Q1011 NOSIG
ZJSY,2003-11-06 22:00,ZJSY 062200Z 05001MPS CAVOK 22/20 Q1011 NOSIG
ZJSY,2003-11-06 23:00,ZJSY 062300Z 35001MPS CAVOK 22/20 Q1012 NOSIG
ZJSY,2003-11-07 00:00,ZJSY 070000Z 36001MPS CAVOK 24/21 Q1013 NOSIG
ZJSY,2003-11-07 01:00,ZJSY 070100Z 07005MPS CAVOK 27/21 Q1013 NOSIG
ZJSY,2003-11-07 02:00,ZJSY 070200Z 08004MPS 9999 FEW018 28/21 Q1013 NOSIG
ZJSY,2003-11-07 03:00,ZJSY 070300Z 09003MPS 9999 SCT018 29/19 Q1013 NOSIG
ZJSY,2003-11-07 04:00,ZJSY 070400Z 16003MPS 9999 SCT018 29/21 Q1012 NOSIG
ZJSY,2003-11-07 05:00,ZJSY 070500Z 17003MPS 9999 SCT018 29/21 Q1011 NOSIG
ZJSY,2003-11-07 06:00,ZJSY 070600Z 18004MPS 9999 SCT018 29/22 Q1011 NOSIG
ZJSY,2003-11-07 07:00,ZJSY 070700Z 16004MPS 9999 SCT018 29/20 Q1010 NOSIG
ZJSY,2003-11-07 08:00,ZJSY 070800Z 14003MPS 9999 SCT018 29/21 Q1010 NOSIG
ZJSY,2003-11-07 09:00,ZJSY 070900Z 14003MPS 9999 FEW018 28/21 Q1010 NOSIG
ZJSY,2003-11-07 10:00,ZJSY 071000Z 14002MPS 9999 FEW018 27/21 Q1010 NOSIG
ZJSY,2003-11-07 11:00,ZJSY 071100Z 08003MPS 9999 FEW018 SCT260 25/20 Q1011 NOSIG
ZJSY,2003-11-07 12:00,ZJSY 071200Z 08003MPS 9999 FEW018 SCT260 25/20 Q1012 NOSIG
ZJSY,2003-11-07 13:00,ZJSY 071300Z 09001MPS 9999 FEW018 SCT260 25/20 Q1012 NOSIG
ZJSY,2003-11-07 14:00,ZJSY 071400Z 00000MPS CAVOK 23/20 Q1012 NOSIG
ZJSY,2003-11-07 15:00,ZJSY 071500Z 34002MPS CAVOK 22/19 Q1013 NOSIG
ZJSY,2003-11-07 16:00,ZJSY 071600Z 00000MPS 9999 FEW018 SCT260 23/20 Q1012 NOSIG
ZJSY,2003-11-07 17:00,ZJSY 071700Z 02001MPS 9999 SCT016 BKN040 23/20 Q1012 NOSIG
ZJSY,2003-11-07 18:00,ZJSY 071800Z AUTO 08001MPS //// // ////// 24/20 Q1011 NOSIG
ZJSY,2003-11-07 19:00,ZJSY 071900Z AUTO 08002MPS //// // ////// 24/20 Q1011 NOSIG
ZJSY,2003-11-07 20:00,ZJSY 072000Z AUTO 06003MPS //// // ////// 23/19 Q1011 NOSIG
ZJSY,2003-11-07 21:00,ZJSY 072100Z AUTO 06003MPS //// // ////// 22/19 Q1011 NOSIG
ZJSY,2003-11-07 22:00,ZJSY 072200Z 00000MPS CAVOK 21/19 Q1011 NOSIG
ZJSY,2003-11-07 23:00,ZJSY 072300Z 35001MPS CAVOK 20/18 Q1012 NOSIG
ZJSY,2003-11-08 00:00,ZJSY 080000Z 33001MPS CAVOK 23/20 Q1012 NOSIG
ZJSY,2003-11-08 01:00,ZJSY 080100Z 14001MPS CAVOK 27/20 Q1013 NOSIG
ZJSY,2003-11-08 02:00,ZJSY 080200Z 10002MPS CAVOK 28/19 Q1014 NOSIG
ZJSY,2003-11-08 03:00,ZJSY 080300Z 14002MPS CAVOK 28/19 Q1014 NOSIG
ZJSY,2003-11-08 04:00,ZJSY 080400Z 17003MPS CAVOK 28/20 Q1013 NOSIG
ZJSY,2003-11-08 05:00,ZJSY 080500Z 19004MPS CAVOK 28/20 Q1012 NOSIG
ZJSY,2003-11-08 06:00,ZJSY 080600Z 20004MPS CAVOK 28/21 Q1011 NOSIG
ZJSY,2003-11-08 07:00,ZJSY 080700Z 19003MPS CAVOK 28/21 Q1010 NOSIG
ZJSY,2003-11-08 08:00,ZJSY 080800Z 20003MPS CAVOK 28/21 Q1010 NOSIG
ZJSY,2003-11-08 09:00,ZJSY 080900Z 21002MPS CAVOK 27/21 Q1010 NOSIG
ZJSY,2003-11-08 10:00,ZJSY 081000Z 24001MPS 9999 FEW016 SCT110 27/21 Q1011 NOSIG
ZJSY,2003-11-08 11:00,ZJSY 081100Z 32001MPS CAVOK 25/21 Q1011 NOSIG
ZJSY,2003-11-08 12:00,ZJSY 081200Z 33002MPS CAVOK 24/21 Q1011 NOSIG
ZJSY,2003-11-08 13:00,ZJSY 081300Z 33002MPS CAVOK 23/21 Q1012 NOSIG
ZJSY,2003-11-08 14:00,ZJSY 081400Z 34002MPS CAVOK 23/20 Q1012 NOSIG
ZJSY,2003-11-08 15:00,ZJSY 081500Z 33002MPS CAVOK 23/20 Q1013 NOSIG
ZJSY,2003-11-08 16:00,ZJSY 081600Z 00000MPS CAVOK 22/20 Q1012 NOSIG
ZJSY,2003-11-08 17:00,ZJSY 081700Z 34003MPS CAVOK 22/20 Q1012 NOSIG
ZJSY,2003-11-08 18:00,ZJSY 081800Z 34002MPS CAVOK 22/20 Q1012 NOSIG
ZJSY,2003-11-08 19:00,ZJSY 081900Z AUTO 00000MPS //// // ////// 22/20 Q1011 NOSIG
ZJSY,2003-11-08 20:00,ZJSY 082000Z AUTO 35002MPS //// // ////// 22/20 Q1011 NOSIG
ZJSY,2003-11-08 21:00,ZJSY 082100Z AUTO 33002MPS //// // ////// 21/19 Q1011 NOSIG
ZJSY,2003-11-08 22:00,ZJSY 082200Z 33002MPS CAVOK 21/19 Q1011 NOSIG
ZJSY,2003-11-08 23:00,ZJSY 082300Z 33002MPS CAVOK 21/19 Q1012 NOSIG
ZJSY,2003-11-09 00:00,ZJSY 090000Z 32001MPS CAVOK 23/20 Q1012 NOSIG
ZJSY,2003-11-09 01:00,ZJSY 090100Z 17001MPS CAVOK 27/20 Q1013 NOSIG
ZJSY,2003-11-09 02:00,ZJSY 090200Z 20002MPS CAVOK 28/20 Q1013 NOSIG
ZJSY,2003-11-09 03:00,ZJSY 090300Z 19002MPS CAVOK 29/20 Q1013 NOSIG
ZJSY,2003-11-09 04:00,ZJSY 090400Z 21003MPS CAVOK 30/21 Q1012 NOSIG
ZJSY,2003-11-09 05:00,ZJSY 090500Z 20004MPS 9999 FEW020 SCT260 30/21 Q1011 NOSIG
ZJSY,2003-11-09 06:00,ZJSY 090600Z 20003MPS 9999 FEW020 SCT060 29/21 Q1011 NOSIG
ZJSY,2003-11-09 07:00,ZJSY 090700Z 24003MPS 9999 FEW020 SCT060 28/22 Q1010 NOSIG
ZJSY,2003-11-09 08:00,ZJSY 090800Z 24003MPS 9999 FEW020 SCT060 28/22 Q1010 NOSIG
ZJSY,2003-11-09 09:00,ZJSY 090900Z 24002MPS 9999 SCT020 BKN060 28/22 Q1010 NOSIG
ZJSY,2003-11-09 10:00,ZJSY 091000Z 28002MPS 9999 SCT020 FEW030TCU BKN066 27/21 Q1010 NOSIG
ZJSY,2003-11-09 11:00,ZJSY 091100Z 31002MPS 9999 SCT020 BKN066 27/21 Q1011 NOSIG
ZJSY,2003-11-09 12:00,ZJSY 091200Z 32001MPS 9999 SCT020 BKN066 26/21 Q1011 NOSIG
ZJSY,2003-11-09 13:00,ZJSY 091300Z 34001MPS 9999 SCT020 26/22 Q1012 NOSIG
ZJSY,2003-11-09 14:00,ZJSY 091400Z 34002MPS 9999 SCT020 25/22 Q1012 NOSIG
ZJSY,2003-11-09 15:00,ZJSY 091500Z 36001MPS 9999 FEW020 25/22 Q1013 NOSIG
ZJSY,2003-11-09 16:00,ZJSY 091600Z 34001MPS 9999 FEW020 25/22 Q1013 NOSIG
ZJSY,2003-11-09 17:00,ZJSY 091700Z AUTO 34002MPS //// // ////// 24/22 Q1012 NOSIG
ZJSY,2003-11-09 18:00,ZJSY 091800Z AUTO 33002MPS //// // ////// 23/21 Q1012 NOSIG
ZJSY,2003-11-09 19:00,ZJSY 091900Z AUTO 33002MPS //// // ////// 23/21 Q1011 NOSIG
ZJSY,2003-11-09 20:00,ZJSY 092000Z AUTO 33001MPS //// // ////// 23/21 Q1011 NOSIG
ZJSY,2003-11-09 21:00,ZJSY 092100Z AUTO 33001MPS //// // ////// 23/21 Q1011 NOSIG
ZJSY,2003-11-09 22:00,ZJSY 092200Z 34002MPS CAVOK 23/21 Q1012 NOSIG
ZJSY,2003-11-09 23:00,ZJSY 092300Z 00000MPS CAVOK 22/21 Q1012 NOSIG
ZJSY,2003-11-10 00:00,ZJSY 100000Z 34001MPS CAVOK 24/22 Q1013 NOSIG
ZJSY,2003-11-10 01:00,ZJSY 100100Z 18001MPS CAVOK 28/22 Q1013 NOSIG
ZJSY,2003-11-10 02:00,ZJSY 100200Z 20002MPS 9999 FEW016 29/22 Q1014 NOSIG
ZJSY,2003-11-10 03:00,ZJSY 100300Z 12002MPS 9999 FEW016 31/22 Q1014 NOSIG
ZJSY,2003-11-10 04:00,ZJSY 100400Z 20004MPS 9999 SCT016 31/22 Q1013 NOSIG
ZJSY,2003-11-10 05:00,ZJSY 100500Z 20004MPS 9999 FEW013 SCT016 30/24 Q1012 NOSIG
ZJSY,2003-11-10 06:00,ZJSY 100600Z 22004MPS 9999 SCT013 SCT016 30/24 Q1011 NOSIG
ZJSY,2003-11-10 07:00,ZJSY 100700Z 25002MPS 3000 RA BKN010 FEW016TCU 28/24 Q1011 NOSIG
ZJSY,2003-11-10 08:00,ZJSY 100800Z 34002MPS 9999 SCT010 SCT016 FEW023TCU 26/25 Q1011 NOSIG
ZJSY,2003-11-10 09:00,ZJSY 100900Z 00000MPS 9999 SCT010 SCT016 FEW023TCU 27/24 Q1011 NOSIG
ZJSY,2003-11-10 10:00,ZJSY 101000Z 06003MPS 9999 SCT016 SCT230 27/22 Q1011 NOSIG
ZJSY,2003-11-10 11:00,ZJSY 101100Z 06005MPS 9999 SCT016 SCT230 26/21 Q1012 NOSIG
ZJSY,2003-11-10 12:00,ZJSY 101200Z 08002MPS 9999 SCT016 SCT230 25/21 Q1013 NOSIG
ZJSY,2003-11-10 13:00,ZJSY 101300Z 06005MPS 9999 SCT016 SCT230 26/21 Q1014 NOSIG
ZJSY,2003-11-10 14:00,ZJSY 101400Z 07003MPS 9999 SCT016 SCT230 26/20 Q1014 NOSIG
ZJSY,2003-11-10 15:00,ZJSY 101500Z 05004MPS 9999 SCT016 SCT230 26/20 Q1014 NOSIG
ZJSY,2003-11-10 16:00,ZJSY 101600Z 06004MPS 9999 SCT016 SCT230 26/20 Q1014 NOSIG
ZJSY,2003-11-10 17:00,ZJSY 101700Z 09003MPS 9999 SCT016 SCT230 26/19 Q1014 NOSIG
ZJSY,2003-11-10 18:00,ZJSY 101800Z AUTO 07003MPS //// // ////// 25/19 Q1014 NOSIG
ZJSY,2003-11-10 19:00,ZJSY 101900Z AUTO 05005MPS //// // ////// 26/19 Q1014 NOSIG
ZJSY,2003-11-10 20:00,ZJSY 102000Z AUTO 05005MPS //// // ////// 25/19 Q1014 NOSIG
ZJSY,2003-11-10 21:00,ZJSY 102100Z AUTO 05004MPS //// // ////// 25/19 Q1013 NOSIG
ZJSY,2003-11-10 22:00,ZJSY 102200Z 07003MPS CAVOK 25/18 Q1014 NOSIG
ZJSY,2003-11-10 23:00,ZJSY 102300Z 08003MPS CAVOK 24/18 Q1015 NOSIG
ZJSY,2003-11-11 00:00,ZJSY 110000Z 07004MPS CAVOK 26/18 Q1015 NOSIG
ZJSY,2003-11-11 01:00,ZJSY 110100Z 08006MPS CAVOK 27/18 Q1016 NOSIG
ZJSY,2003-11-11 02:00,ZJSY 110200Z 07007MPS 9999 FEW016 27/17 Q1017 NOSIG
ZJSY,2003-11-11 03:00,ZJSY 110300Z 07008MPS 9999 FEW016 28/18 Q1017 NOSIG
ZJSY,2003-11-11 04:00,ZJSY 110400Z 07007MPS 9999 SCT025 29/17 Q1017 NOSIG
ZJSY,2003-11-11 05:00,ZJSY 110500Z 06006MPS 9999 SCT025 29/17 Q1016 NOSIG
ZJSY,2003-11-11 06:00,ZJSY 110600Z 06006MPS 9999 SCT025 29/18 Q1016 NOSIG
ZJSY,2003-11-11 07:00,ZJSY 110700Z 06007MPS 9999 SCT025 29/17 Q1015 NOSIG
ZJSY,2003-11-11 08:00,ZJSY 110800Z 05005MPS 9999 SCT025 28/17 Q1015 NOSIG
ZJSY,2003-11-11 09:00,ZJSY 110900Z 06005MPS 9999 FEW025 27/17 Q1016 NOSIG
ZJSY,2003-11-11 10:00,ZJSY 111000Z 04005MPS 9999 FEW025 26/17 Q1016 NOSIG
ZJSY,2003-11-11 11:00,ZJSY 111100Z 07003MPS 9999 FEW025 SCT260 24/17 Q1017 NOSIG
ZJSY,2003-11-11 12:00,ZJSY 111200Z 07004MPS 9999 FEW025 SCT260 23/17 Q1018 NOSIG
ZJSY,2003-11-11 13:00,ZJSY 111300Z 01002MPS CAVOK 24/17 Q1018 NOSIG
ZJSY,2003-11-11 14:00,ZJSY 111400Z 01002MPS CAVOK 24/16 Q1019 NOSIG
ZJSY,2003-11-11 15:00,ZJSY 111500Z 33001MPS CAVOK 23/16 Q1019 NOSIG
ZJSY,2003-11-11 16:00,ZJSY 111600Z 09002MPS CAVOK 23/17 Q1019 NOSIG
ZJSY,2003-11-11 17:00,ZJSY 111700Z 07001MPS CAVOK 23/17 Q1018 NOSIG
ZJSY,2003-11-11 18:00,ZJSY 111800Z AUTO 31002MPS //// // ////// 23/17 Q1018 NOSIG
ZJSY,2003-11-11 19:00,ZJSY 111900Z AUTO 19001MPS //// // ////// 23/17 Q1017 NOSIG
ZJSY,2003-11-11 20:00,ZJSY 112000Z AUTO 02001MPS //// // ////// 21/17 Q1017 NOSIG
ZJSY,2003-11-11 21:00,ZJSY 112100Z AUTO 33001MPS //// // ////// 21/17 Q1017 NOSIG
ZJSY,2003-11-11 22:00,ZJSY 112200Z 04001MPS CAVOK 21/17 Q1017 NOSIG
ZJSY,2003-11-11 23:00,ZJSY 112300Z 21001MPS CAVOK 20/17 Q1018 NOSIG
ZJSY,2003-11-12 00:00,ZJSY 120000Z 05001MPS CAVOK 23/18 Q1018 NOSIG
ZJSY,2003-11-12 01:00,ZJSY 120100Z 10002MPS CAVOK 24/17 Q1018 NOSIG
ZJSY,2003-11-12 02:00,ZJSY 120200Z 14001MPS CAVOK 25/17 Q1019 NOSIG
ZJSY,2003-11-12 03:00,ZJSY 120300Z 21003MPS CAVOK 26/18 Q1019 NOSIG
ZJSY,2003-11-12 04:00,ZJSY 120400Z 20003MPS CAVOK 27/18 Q1018 NOSIG
ZJSY,2003-11-12 05:00,ZJSY 120500Z 22004MPS CAVOK 27/18 Q1017 NOSIG
ZJSY,2003-11-12 07:00,ZJSY 120700Z 11004MPS 9999 FEW018 BKN230 27/17 Q1016 NOSIG
ZJSY,2003-11-12 08:00,ZJSY 120800Z 09007MPS 9999 FEW018 SCT230 27/16 Q1016 NOSIG
ZJSY,2003-11-12 09:00,ZJSY 120900Z 07006MPS 9999 FEW018 SCT230 26/16 Q1016 NOSIG
ZJSY,2003-11-12 10:00,ZJSY 121000Z 09005MPS CAVOK 24/16 Q1016 NOSIG
ZJSY,2003-11-12 11:00,ZJSY 121100Z 08007MPS CAVOK 23/16 Q1017 NOSIG
ZJSY,2003-11-12 12:00,ZJSY 121200Z 06005MPS CAVOK 22/16 Q1017 NOSIG
ZJSY,2003-11-12 13:00,ZJSY 121300Z 07003MPS CAVOK 21/16 Q1017 NOSIG
ZJSY,2003-11-12 14:00,ZJSY 121400Z 05002MPS CAVOK 21/16 Q1017 NOSIG
ZJSY,2003-11-12 15:00,ZJSY 121500Z 03002MPS CAVOK 20/16 Q1018 NOSIG
ZJSY,2003-11-12 16:00,ZJSY 121600Z 05003MPS CAVOK 20/16 Q1018 NOSIG
ZJSY,2003-11-12 17:00,ZJSY 121700Z 04001MPS CAVOK 20/16 Q1018 NOSIG
ZJSY,2003-11-12 18:00,ZJSY 121800Z 35002MPS CAVOK 20/16 Q1018 NOSIG
ZJSY,2003-11-12 19:00,ZJSY 121900Z AUTO 01005MPS //// // ////// 22/15 Q1017 NOSIG
ZJSY,2003-11-12 20:00,ZJSY 122000Z AUTO 04002MPS //// // ////// 20/15 Q1016 NOSIG
ZJSY,2003-11-12 21:00,ZJSY 122100Z AUTO 35001MPS //// // ////// 21/15 Q1016 NOSIG
ZJSY,2003-11-12 22:00,ZJSY 122200Z 24001MPS CAVOK 20/16 Q1016 NOSIG
ZJSY,2003-11-12 23:00,ZJSY 122300Z 34001MPS CAVOK 21/16 Q1016 NOSIG
ZJSY,2003-11-13 00:00,ZJSY 130000Z 25002MPS CAVOK 22/16 Q1017 NOSIG
ZJSY,2003-11-13 01:00,ZJSY 130100Z 26003MPS CAVOK 24/17 Q1018 NOSIG
ZJSY,2003-11-13 02:00,ZJSY 130200Z 07004MPS CAVOK 27/17 Q1018 NOSIG
ZJSY,2003-11-13 03:00,ZJSY 130300Z 02003MPS 9999 FEW018 SCT100 27/17 Q1018 NOSIG
ZJSY,2003-11-13 04:00,ZJSY 130400Z 04005MPS 9999 SCT018 29/18 Q1017 NOSIG
ZJSY,2003-11-13 05:00,ZJSY 130500Z 04004MPS 9999 SCT018 SCT260 29/18 Q1016 NOSIG
ZJSY,2003-11-13 06:00,ZJSY 130600Z 06004MPS 9999 SCT018 SCT260 30/18 Q1015 NOSIG
ZJSY,2003-11-13 07:00,ZJSY 130700Z 07006MPS 9999 SCT018 BKN050 28/18 Q1015 NOSIG
ZJSY,2003-11-13 08:00,ZJSY 130800Z 06004MPS 9999 SCT018 OVC050 27/18 Q1015 NOSIG
ZJSY,2003-11-13 09:00,ZJSY 130900Z 06003MPS 9999 SCT018 OVC050 27/19 Q1015 NOSIG
ZJSY,2003-11-13 10:00,ZJSY 131000Z 08003MPS 7000 SCT018 BKN030 25/19 Q1016 NOSIG
ZJSY,2003-11-13 11:00,ZJSY 131100Z 06004MPS 7000 SCT018 BKN030 25/19 Q1016 NOSIG
ZJSY,2003-11-13 12:00,ZJSY 131200Z 03004MPS 8000 SCT018 BKN040 25/18 Q1017 NOSIG
ZJSY,2003-11-13 14:00,ZJSY 131400Z 05003MPS 9000 FEW016 SCT050 25/19 Q1018 NOSIG
ZJSY,2003-11-13 15:00,ZJSY 131500Z 06002MPS 9000 FEW016 SCT050 25/19 Q1017 NOSIG
ZJSY,2003-11-13 16:00,ZJSY 131600Z 35001MPS 9000 SCT016 SCT050 24/19 Q1017 NOSIG
ZJSY,2003-11-13 17:00,ZJSY 131700Z 04002MPS 9999 SCT016 SCT050 25/19 Q1017 NOSIG
ZJSY,2003-11-13 18:00,ZJSY 131800Z AUTO 06002MPS //// // ////// 25/20 Q1016 NOSIG
ZJSY,2003-11-13 19:00,ZJSY 131900Z AUTO 00000MPS //// // ////// 25/20 Q1016 NOSIG
ZJSY,2003-11-13 20:00,ZJSY 132000Z AUTO 00000MPS //// // ////// 25/20 Q1015 NOSIG
ZJSY,2003-11-13 21:00,ZJSY 132100Z AUTO 05004MPS //// // ////// 25/20 Q1015 NOSIG
ZJSY,2003-11-13 22:00,ZJSY 132200Z 05003MPS 9999 SCT018 SCT040 25/20 Q1015 NOSIG
ZJSY,2003-11-13 23:00,ZJSY 132300Z 11001MPS 9999 SCT018 BKN040 24/20 Q1016 NOSIG
ZJSY,2003-11-14 00:00,ZJSY 140000Z 11001MPS 9999 SCT018 BKN040 25/21 Q1016 NOSIG
ZJSY,2003-11-14 01:00,ZJSY 140100Z 09004MPS 9999 SCT018 28/21 Q1017 NOSIG
ZJSY,2003-11-14 02:00,ZJSY 140200Z 07007MPS 9999 BKN018 28/21 Q1017 NOSIG
ZJSY,2003-11-14 03:00,ZJSY 140300Z 08007MPS 9999 BKN018 29/21 Q1017 NOSIG
ZJSY,2003-11-14 04:00,ZJSY 140400Z 10007MPS 9999 BKN018 FEW021TCU 29/21 Q1016 NOSIG
ZJSY,2003-11-14 05:00,ZJSY 140500Z 08007MPS 9999 -SHRA BKN018 SCT021TCU 26/22 Q1015 NOSIG
ZJSY,2003-11-14 06:00,ZJSY 140600Z 09005MPS 9999 BKN018 SCT021TCU 28/21 Q1014 NOSIG
ZJSY,2003-11-14 07:00,ZJSY 140700Z 04005MPS 9999 SCT016 FEW021TCU BKN040 28/21 Q1013 NOSIG
ZJSY,2003-11-14 08:00,ZJSY 140800Z 05005MPS 9999 SCT016 FEW021TCU BKN040 27/20 Q1013 NOSIG
ZJSY,2003-11-14 09:00,ZJSY 140900Z 04004MPS 9999 SCT016 BKN040 27/20 Q1014 NOSIG
ZJSY,2003-11-14 10:00,ZJSY 141000Z 06004MPS 9999 FEW018 BKN043 BKN260 26/20 Q1014 NOSIG
ZJSY,2003-11-14 11:00,ZJSY 141100Z 07004MPS 9999 FEW018 BKN043 BKN260 26/20 Q1014 NOSIG
ZJSY,2003-11-14 12:00,ZJSY 141200Z 08002MPS 9999 BKN043 BKN260 26/21 Q1015 NOSIG
ZJSY,2003-11-14 13:00,ZJSY 141300Z 09004MPS 9999 FEW018 BKN260 26/21 Q1016 NOSIG
ZJSY,2003-11-14 14:00,ZJSY 141400Z 08004MPS 9999 FEW018 BKN260 26/21 Q1016 NOSIG
ZJSY,2003-11-14 15:00,ZJSY 141500Z 09003MPS 9999 SCT018 BKN260 25/21 Q1016 NOSIG
ZJSY,2003-11-14 16:00,ZJSY 141600Z 09003MPS 9999 SCT018 BKN260 25/21 Q1016 NOSIG
ZJSY,2003-11-14 17:00,ZJSY 141700Z 06003MPS 9999 SCT046 BKN260 25/21 Q1015 NOSIG
ZJSY,2003-11-14 18:00,ZJSY 141800Z 05001MPS 9999 SCT046 BKN260 25/20 Q1015 NOSIG
ZJSY,2003-11-14 19:00,ZJSY 141900Z AUTO 06001MPS //// // ////// 25/21 Q1014 NOSIG
ZJSY,2003-11-14 20:00,ZJSY 142000Z AUTO 08002MPS //// // ////// 25/21 Q1014 NOSIG
ZJSY,2003-11-14 21:00,ZJSY 142100Z AUTO 05003MPS //// // ////// 25/20 Q1014 NOSIG
ZJSY,2003-11-14 22:00,ZJSY 142200Z 05002MPS 9999 BKN046 BKN260 25/20 Q1015 NOSIG
ZJSY,2003-11-14 23:00,ZJSY 142300Z 07003MPS CAVOK 24/20 Q1015 NOSIG
ZJSY,2003-11-15 00:00,ZJSY 150000Z 06003MPS CAVOK 25/20 Q1015 NOSIG
ZJSY,2003-11-15 01:00,ZJSY 150100Z 08003MPS CAVOK 26/20 Q1015 NOSIG
ZJSY,2003-11-15 02:00,ZJSY 150200Z 09003MPS CAVOK 27/20 Q1015 NOSIG
ZJSY,2003-11-15 03:00,ZJSY 150300Z 07005MPS CAVOK 29/20 Q1015 NOSIG
ZJSY,2003-11-15 04:00,ZJSY 150400Z 08005MPS 9999 FEW016 SCT260 30/20 Q1014 NOSIG
ZJSY,2003-11-15 05:00,ZJSY 150500Z 10006MPS 9999 FEW013 BKN016 29/19 Q1013 NOSIG
ZJSY,2003-11-15 06:00,ZJSY 150600Z 08005MPS 9999 FEW013 BKN016 30/20 Q1012 NOSIG
ZJSY,2003-11-15 07:00,ZJSY 150700Z 09004MPS 9999 SCT013 BKN016 29/19 Q1011 NOSIG
ZJSY,2003-11-15 08:00,ZJSY 150800Z 11002MPS 9999 SCT013 BKN016 28/21 Q1011 NOSIG
ZJSY,2003-11-15 09:00,ZJSY 150900Z 12002MPS 9999 SCT013 BKN016 27/21 Q1012 NOSIG
ZJSY,2003-11-15 10:00,ZJSY 151000Z 06003MPS 9999 SCT013 BKN016 27/20 Q1012 NOSIG
ZJSY,2003-11-15 11:00,ZJSY 151100Z 02001MPS 9999 SCT013 BKN016 26/21 Q1013 NOSIG
ZJSY,2003-11-15 12:00,ZJSY 151200Z 10001MPS 9999 BKN016 BKN230 25/20 Q1014 NOSIG
ZJSY,2003-11-15 13:00,ZJSY 151300Z 34002MPS 9999 BKN016 BKN230 24/21 Q1014 NOSIG
ZJSY,2003-11-15 14:00,ZJSY 151400Z 00000MPS 9999 BKN016 BKN230 23/21 Q1014 NOSIG
ZJSY,2003-11-15 15:00,ZJSY 151500Z 35001MPS 9999 SCT016 BKN230 23/20 Q1014 NOSIG
ZJSY,2003-11-15 16:00,ZJSY 151600Z 31001MPS 9999 SCT016 BKN230 22/19 Q1013 NOSIG
ZJSY,2003-11-15 17:00,ZJSY 151700Z 10001MPS 9999 SCT016 BKN230 22/18 Q1013 NOSIG
ZJSY,2003-11-15 18:00,ZJSY 151800Z AUTO 33003MPS //// // ////// 20/17 Q1012 NOSIG
ZJSY,2003-11-15 19:00,ZJSY 151900Z AUTO 35001MPS //// // ////// 20/17 Q1012 NOSIG
ZJSY,2003-11-15 20:00,ZJSY 152000Z AUTO 32003MPS //// // ////// 20/15 Q1011 NOSIG
ZJSY,2003-11-15 21:00,ZJSY 152100Z AUTO 01001MPS //// // ////// 19/16 Q1012 NOSIG
ZJSY,2003-11-15 22:00,ZJSY 152200Z 33003MPS 9999 SCT016 BKN230 19/15 Q1012 NOSIG
ZJSY,2003-11-15 23:00,ZJSY 152300Z 00000MPS CAVOK 18/15 Q1012 NOSIG
ZJSY,2003-11-16 00:00,ZJSY 160000Z 35001MPS CAVOK 21/16 Q1013 NOSIG
ZJSY,2003-11-16 01:00,ZJSY 160100Z 14001MPS CAVOK 25/17 Q1013 NOSIG
ZJSY,2003-11-16 02:00,ZJSY 160200Z 19001MPS CAVOK 27/16 Q1014 NOSIG
ZJSY,2003-11-16 03:00,ZJSY 160300Z 22002MPS CAVOK 28/16 Q1014 NOSIG
ZJSY,2003-11-16 04:00,ZJSY 160400Z 23003MPS CAVOK 28/15 Q1012 NOSIG
ZJSY,2003-11-16 05:00,ZJSY 160500Z 24003MPS CAVOK 27/16 Q1012 NOSIG
ZJSY,2003-11-16 06:00,ZJSY 160600Z 24002MPS CAVOK 27/16 Q1011 NOSIG
ZJSY,2003-11-16 07:00,ZJSY 160700Z 25002MPS CAVOK 27/16 Q1010 NOSIG
ZJSY,2003-11-16 08:00,ZJSY 160800Z 26002MPS CAVOK 28/16 Q1009 NOSIG
ZJSY,2003-11-16 09:00,ZJSY 160900Z 22001MPS 9999 SCT040 OVC050 27/17 Q1010 NOSIG
ZJSY,2003-11-16 10:00,ZJSY 161000Z 00000MPS 9999 SCT040 OVC050 27/16 Q1010 NOSIG
ZJSY,2003-11-16 11:00,ZJSY 161100Z 10002MPS 9999 SCT040 OVC050 27/18 Q1010 NOSIG
ZJSY,2003-11-16 12:00,ZJSY 161200Z 34002MPS 9999 SCT030 OVC050 25/20 Q1011 NOSIG
ZJSY,2003-11-16 13:00,ZJSY 161300Z 34001MPS 9999 SCT030 OVC050 25/19 Q1011 NOSIG
ZJSY,2003-11-16 14:00,ZJSY 161400Z 14001MPS 9999 SCT030 OVC050 25/20 Q1011 NOSIG
ZJSY,2003-11-16 15:00,ZJSY 161500Z 34001MPS 9999 SCT030 OVC050 25/19 Q1011 NOSIG
ZJSY,2003-11-16 16:00,ZJSY 161600Z 00000MPS 9999 SCT030 OVC050 25/19 Q1010 NOSIG
ZJSY,2003-11-16 17:00,ZJSY 161700Z 00000MPS 9999 FEW013 OVC040 25/19 Q1010 NOSIG
ZJSY,2003-11-16 18:00,ZJSY 161800Z 23002MPS 9999 FEW013 OVC040 25/20 Q1009 NOSIG
ZJSY,2003-11-16 19:00,ZJSY 161900Z 04001MPS 9999 FEW013 OVC040 25/21 Q1009 NOSIG
ZJSY,2003-11-16 20:00,ZJSY 162000Z AUTO 30001MPS //// // ////// 24/21 Q1009 NOSIG
ZJSY,2003-11-16 21:00,ZJSY 162100Z AUTO 00000MPS //// // ////// 23/21 Q1009 NOSIG
ZJSY,2003-11-16 22:00,ZJSY 162200Z 00000MPS 9999 OVC040 23/21 Q1009 NOSIG
ZJSY,2003-11-16 23:00,ZJSY 162300Z 00000MPS 9999 FEW013 SCT040 OVC060 23/21 Q1009 NOSIG
ZJSY,2003-11-17 00:00,ZJSY 170000Z 00000MPS 9999 SCT013 BKN040 OVC060 23/21 Q1009 NOSIG
ZJSY,2003-11-17 01:00,ZJSY 170100Z 00000MPS 9999 -RA BKN015 OVC046 24/22 Q1010 NOSIG
ZJSY,2003-11-17 02:00,ZJSY 170200Z 08003MPS 7000 -RA BKN015 OVC046 24/21 Q1010 NOSIG
ZJSY,2003-11-17 03:00,ZJSY 170300Z 25002MPS 9999 -RA BKN015 OVC043 23/22 Q1010 NOSIG
ZJSY,2003-11-17 04:00,ZJSY 170400Z 36002MPS 9999 -RA BKN015 OVC043 25/22 Q1009 NOSIG
ZJSY,2003-11-17 05:00,ZJSY 170500Z 04006G11MPS 5000 -RA BKN015 OVC040 27/21 Q1008 NOSIG
ZJSY,2003-11-17 06:00,ZJSY 170600Z 04005MPS 9999 -RA BKN015 OVC043 26/22 Q1007 NOSIG
ZJSY,2003-11-17 07:00,ZJSY 170700Z 06004MPS 6000 -RA BKN015 OVC043 25/22 Q1007 NOSIG
ZJSY,2003-11-17 08:00,ZJSY 170800Z 04006MPS 9999 -RA BKN013 OVC043 25/22 Q1006 NOSIG
ZJSY,2003-11-17 09:00,ZJSY 170900Z 04007MPS 9999 -RA BKN013 OVC043 26/22 Q1005 NOSIG
ZJSY,2003-11-17 10:00,ZJSY 171000Z 04008G14MPS 7000 -RA BKN010 OVC040 26/22 Q1005 NOSIG
ZJSY,2003-11-17 11:00,ZJSY 171100Z 04010G15MPS 5000 RA BKN010 OVC040 25/22 Q1005 NOSIG
ZJSY,2003-11-17 12:00,ZJSY 171200Z 05009G14MPS 5000 RA BKN010 OVC040 26/22 Q1005 NOSIG
ZJSY,2003-11-17 13:00,ZJSY 171300Z 07010MPS 5000 RA BKN010 OVC040 25/22 Q1006 NOSIG
ZJSY,2003-11-17 14:00,ZJSY 171400Z 06011MPS 6000 RA BKN010 OVC040 25/22 Q1006 NOSIG
ZJSY,2003-11-17 15:00,ZJSY 171500Z 07013G18MPS 6000 RA BKN010 OVC040 24/22 Q1006 NOSIG
ZJSY,2003-11-17 16:00,ZJSY 171600Z 06014MPS 5000 RA BKN010 OVC040 25/22 Q1005 NOSIG
ZJSY,2003-11-17 17:00,ZJSY 171700Z AUTO 06016G22MPS //// // ////// 25/22 Q1004 NOSIG
ZJSY,2003-11-17 18:00,ZJSY 171800Z AUTO 07017G22MPS //// // ////// 24/22 Q1002 NOSIG
ZJSY,2003-11-17 19:00,ZJSY 171900Z AUTO 07016G21MPS //// // ////// 24/23 Q1002 NOSIG
ZJSY,2003-11-17 20:00,ZJSY 172000Z AUTO 09014G21MPS //// // ////// 24/23 Q1001 NOSIG
ZJSY,2003-11-17 21:00,ZJSY 172100Z AUTO 09013G19MPS //// // ////// 24/23 Q1001 NOSIG
ZJSY,2003-11-17 22:00,ZJSY 172200Z 10014G20MPS 4000 RA BKN010 OVC040 25/23 Q1000 NOSIG
ZJSY,2003-11-17 23:00,ZJSY 172300Z AUTO 11016G22MPS //// // ////// 25/23 Q1001 NOSIG
ZJSY,2003-11-18 00:00,ZJSY 180000Z 12014G20MPS 2000 +RA BKN010 OVC040 25/23 Q1002 NOSIG
ZJSY,2003-11-18 01:00,ZJSY 180100Z 13016G22MPS 1500 +RA BKN009 OVC033 25/23 Q1003 NOSIG
ZJSY,2003-11-18 02:00,ZJSY 180200Z 14012G17MPS 1500 +RA BKN009 OVC033 25/23 Q1005 NOSIG
ZJSY,2003-11-18 03:00,ZJSY 180300Z 16012G19MPS 1500 +RA BKN009 OVC033 24/23 Q1006 NOSIG
ZJSY,2003-11-18 04:00,ZJSY 180400Z 17009G15MPS 2000 +RA BKN009 OVC033 25/24 Q1006 NOSIG
ZJSY,2003-11-18 05:00,ZJSY 180500Z 16011G16MPS 1800 +RA BKN010 OVC040 25/23 Q1006 NOSIG
ZJSY,2003-11-18 06:00,ZJSY 180600Z 18011G17MPS 1800 +RA BKN010 OVC040 24/23 Q1006 NOSIG
ZJSY,2003-11-18 07:00,ZJSY 180700Z 19013G19MPS 1800 +RA BKN010 OVC040 24/23 Q1006 NOSIG
ZJSY,2003-11-18 08:00,ZJSY 180800Z 20011G16MPS 4000 +RA BKN011 OVC040 25/23 Q1006 NOSIG
ZJSY,2003-11-18 09:00,ZJSY 180900Z 20009MPS 4000 RA BKN011 OVC040 25/23 Q1006 TEMPO +RA
ZJSY,2003-11-18 10:00,ZJSY 181000Z 21009G14MPS 4000 RA SCT008 BKN011 OVC030 25/23 Q1007 NOSIG
ZJSY,2003-11-18 11:00,ZJSY 181100Z 23009MPS 5000 -RA SCT008 BKN011 OVC033 25/23 Q1008 RERA
ZJSY,2003-11-18 12:00,ZJSY 181200Z 23008MPS 4000 -RA SCT008 BKN010 OVC033 25/23 Q1009
ZJSY,2003-11-18 13:00,ZJSY 181300Z 23007MPS 4500 -RA SCT008 BKN010 OVC033 25/23 Q1010
ZJSY,2003-11-18 14:00,ZJSY 181400Z 21005MPS 5000 -RA SCT009 BKN011 OVC033 25/23 Q1010
ZJSY,2003-11-18 15:00,ZJSY 181500Z 22004MPS 6000 -RA SCT010 BKN012 BKN033 25/23 Q1010
ZJSY,2003-11-18 16:00,ZJSY 181600Z 22005MPS 6000 -RA SCT010 SCT012 BKN033 25/23 Q1010 NOSIG
ZJSY,2003-11-18 17:00,ZJSY 181700Z 21005MPS 6000 -RA SCT010 BKN012 BKN033 25/23 Q1010 NOSIG
ZJSY,2003-11-18 18:00,ZJSY 181800Z 20005MPS 6000 -RA SCT010 BKN012 BKN033 25/22 Q1010 NOSIG
ZJSY,2003-11-18 19:00,ZJSY 181900Z 21003MPS 6000 -RA SCT010 BKN012 BKN033 25/23 Q1010 NOSIG
ZJSY,2003-11-18 20:00,ZJSY 182000Z 20002MPS 6000 -RA SCT011 BKN012 BKN033 25/23 Q1010 NOSIG
ZJSY,2003-11-18 21:00,ZJSY 182100Z 21002MPS 8000 -RA FEW011 SCT012 BKN033 25/23 Q1010 NOSIG
ZJSY,2003-11-18 22:00,ZJSY 182200Z 24002MPS 8000 -RA SCT011 SCT013 BKN040 25/23 Q1010 NOSIG
ZJSY,2003-11-18 23:00,ZJSY 182300Z 24002MPS 5000 -RA FEW013 SCT026 OVC040 25/23 Q1011 NOSIG
ZJSY,2003-11-19 00:00,ZJSY 190000Z 23002MPS 5000 -RA FEW013 BKN026 OVC040 25/23 Q1011 NOSIG
ZJSY,2003-11-19 01:00,ZJSY 190100Z 23002MPS 6000 VCSH FEW013 BKN050 26/24 Q1012 NOSIG
ZJSY,2003-11-19 02:00,ZJSY 190200Z 23003MPS 6000 VCSH SCT011 OVC040 27/24 Q1012 NOSIG
ZJSY,2003-11-19 03:00,ZJSY 190300Z 24003MPS 8000 SCT016 BKN050 27/22 Q1012 NOSIG
ZJSY,2003-11-19 04:00,ZJSY 190400Z 25003MPS 8000 SCT016 BKN060 27/23 Q1012 NOSIG
ZJSY,2003-11-19 05:00,ZJSY 190500Z 24002MPS 8000 BKN013 BKN043 27/23 Q1011 NOSIG
ZJSY,2003-11-19 06:00,ZJSY 190600Z 22002MPS 8000 BKN013 BKN043 27/23 Q1010 NOSIG
ZJSY,2003-11-19 07:00,ZJSY 190700Z 20002MPS 8000 BKN013 BKN043 27/23 Q1009 NOSIG
ZJSY,2003-11-19 08:00,ZJSY 190800Z 18001MPS 8000 BKN016 BKN050 27/23 Q1009 NOSIG
ZJSY,2003-11-19 09:00,ZJSY 190900Z 00000MPS 8000 FEW013 BKN050 26/23 Q1009 NOSIG
ZJSY,2003-11-19 10:00,ZJSY 191000Z 00000MPS 8000 FEW013 BKN050 26/23 Q1009 NOSIG
ZJSY,2003-11-19 11:00,ZJSY 191100Z 00000MPS 8000 FEW013 BKN050 26/23 Q1010 NOSIG
ZJSY,2003-11-19 12:00,ZJSY 191200Z 36001MPS 9999 SCT016 BKN050 25/23 Q1010 NOSIG
ZJSY,2003-11-19 13:00,ZJSY 191300Z 36001MPS 9999 SCT016 BKN050 25/23 Q1011 NOSIG
ZJSY,2003-11-19 14:00,ZJSY 191400Z 08003MPS 9999 SCT016 BKN050 25/23 Q1011 NOSIG
ZJSY,2003-11-19 15:00,ZJSY 191500Z 06002MPS 9999 SCT016 BKN050 25/23 Q1011 NOSIG
ZJSY,2003-11-19 16:00,ZJSY 191600Z 06002MPS 9999 SCT016 BKN050 25/23 Q1011 NOSIG
ZJSY,2003-11-19 17:00,ZJSY 191700Z 05001MPS 9999 SCT016 BKN050 25/22 Q1011 NOSIG
ZJSY,2003-11-19 18:00,ZJSY 191800Z 04002MPS 9999 SCT016 BKN050 25/23 Q1011 NOSIG
ZJSY,2003-11-19 19:00,ZJSY 191900Z 00000MPS 9999 SCT016 BKN050 25/23 Q1010 NOSIG
ZJSY,2003-11-19 20:00,ZJSY 192000Z AUTO 00000MPS //// // ////// 24/22 Q1010 NOSIG
ZJSY,2003-11-19 21:00,ZJSY 192100Z 06002MPS 9999 SCT016 BKN050 24/22 Q1010 NOSIG
ZJSY,2003-11-19 22:00,ZJSY 192200Z 01001MPS 9999 SCT016 BKN050 24/22 Q1010 NOSIG
ZJSY,2003-11-19 23:00,ZJSY 192300Z 34002MPS 9999 FEW016 BKN120 23/22 Q1011 NOSIG
ZJSY,2003-11-20 00:00,ZJSY 200000Z 36001MPS 9999 FEW016 BKN120 24/23 Q1011 NOSIG
ZJSY,2003-11-20 01:00,ZJSY 200100Z 09002MPS 9999 FEW016 SCT120 26/23 Q1012 NOSIG
ZJSY,2003-11-20 02:00,ZJSY 200200Z 12002MPS 9999 FEW016 28/22 Q1013 NOSIG
ZJSY,2003-11-20 03:00,ZJSY 200300Z 18002MPS 9999 FEW016 28/23 Q1013 NOSIG
ZJSY,2003-11-20 04:00,ZJSY 200400Z 17003MPS 9999 FEW016 28/22 Q1012 NOSIG
ZJSY,2003-11-20 05:00,ZJSY 200500Z 16003MPS CAVOK 28/23 Q1011 NOSIG
ZJSY,2003-11-20 06:00,ZJSY 200600Z 18003MPS CAVOK 28/22 Q1010 NOSIG
ZJSY,2003-11-20 07:00,ZJSY 200700Z 19003MPS CAVOK 28/23 Q1010 NOSIG
ZJSY,2003-11-20 08:00,ZJSY 200800Z 19002MPS CAVOK 28/22 Q1009 NOSIG
ZJSY,2003-11-20 09:00,ZJSY 200900Z 18002MPS CAVOK 27/22 Q1009 NOSIG
ZJSY,2003-11-20 10:00,ZJSY 201000Z 16002MPS CAVOK 26/22 Q1010 NOSIG
ZJSY,2003-11-20 11:00,ZJSY 201100Z 14001MPS CAVOK 26/23 Q1010 NOSIG
ZJSY,2003-11-20 12:00,ZJSY 201200Z 36001MPS CAVOK 24/22 Q1011 NOSIG
ZJSY,2003-11-20 13:00,ZJSY 201300Z 36001MPS CAVOK 24/22 Q1012 NOSIG
ZJSY,2003-11-20 14:00,ZJSY 201400Z 34002MPS CAVOK 23/21 Q1012 NOSIG
ZJSY,2003-11-20 15:00,ZJSY 201500Z 36001MPS CAVOK 22/21 Q1012 NOSIG
ZJSY,2003-11-20 16:00,ZJSY 201600Z 36001MPS CAVOK 23/21 Q1012 NOSIG
ZJSY,2003-11-20 17:00,ZJSY 201700Z 34002MPS CAVOK 22/20 Q1012 NOSIG
ZJSY,2003-11-20 18:00,ZJSY 201800Z AUTO 34001MPS //// // ////// 22/20 Q1012 NOSIG
ZJSY,2003-11-20 19:00,ZJSY 201900Z AUTO 34002MPS //// // ////// 21/20 Q1011 NOSIG
ZJSY,2003-11-20 20:00,ZJSY 202000Z AUTO 35001MPS //// // ////// 21/20 Q1011 NOSIG
ZJSY,2003-11-20 21:00,ZJSY 202100Z AUTO 34003MPS //// // ////// 21/20 Q1012 NOSIG
ZJSY,2003-11-20 22:00,ZJSY 202200Z AUTO 34003MPS //// // ////// 21/20 Q1013 NOSIG
ZJSY,2003-11-20 23:00,ZJSY 202300Z 35001MPS CAVOK 21/20 Q1013 NOSIG
ZJSY,2003-11-21 00:00,ZJSY 210000Z 36001MPS CAVOK 23/21 Q1015 NOSIG
ZJSY,2003-11-21 01:00,ZJSY 210100Z 06002MPS CAVOK 26/22 Q1015 NOSIG
ZJSY,2003-11-21 02:00,ZJSY 210200Z 10002MPS CAVOK 27/21 Q1016 NOSIG
ZJSY,2003-11-21 03:00,ZJSY 210300Z 20002MPS CAVOK 28/22 Q1016 NOSIG
ZJSY,2003-11-21 04:00,ZJSY 210400Z 22003MPS 9999 FEW016 28/22 Q1015 NOSIG
ZJSY,2003-11-21 05:00,ZJSY 210500Z 21004MPS 9999 FEW016 28/22 Q1014 NOSIG
ZJSY,2003-11-21 06:00,ZJSY 210600Z 19004MPS CAVOK 28/22 Q1014 NOSIG
ZJSY,2003-11-21 07:00,ZJSY 210700Z 18004MPS 9999 SCT016 FEW026TCU 27/22 Q1013 NOSIG
ZJSY,2003-11-21 08:00,ZJSY 210800Z 20003MPS 9999 SCT016 FEW026TCU 27/22 Q1013 NOSIG
ZJSY,2003-11-21 09:00,ZJSY 210900Z 19003MPS 9999 BKN016 FEW026TCU BKN260 27/22 Q1013 NOSIG
ZJSY,2003-11-21 10:00,ZJSY 211000Z 10003MPS 9999 SCT013 SCT016 27/22 Q1014 NOSIG
ZJSY,2003-11-21 11:00,ZJSY 211100Z 03003MPS 9999 SCT013 SCT016 26/22 Q1014 NOSIG
ZJSY,2003-11-21 12:00,ZJSY 211200Z 08002MPS 9999 SCT013 SCT016 25/21 Q1015 NOSIG
ZJSY,2003-11-21 13:00,ZJSY 211300Z 08002MPS 9999 SCT013 25/22 Q1016 NOSIG
ZJSY,2003-11-21 14:00,ZJSY 211400Z 08002MPS 9999 SCT013 25/22 Q1017 NOSIG
ZJSY,2003-11-21 15:00,ZJSY 211500Z 08004MPS 9999 SCT013 25/21 Q1017 NOSIG
ZJSY,2003-11-21 16:00,ZJSY 211600Z 09003MPS 9999 SCT013 24/21 Q1017 NOSIG
ZJSY,2003-11-21 17:00,ZJSY 211700Z AUTO 08002MPS //// // ////// 23/21 Q1017 NOSIG
ZJSY,2003-11-21 18:00,ZJSY 211800Z AUTO 06003MPS //// // ////// 23/20 Q1016 NOSIG
ZJSY,2003-11-21 19:00,ZJSY 211900Z AUTO 08004MPS //// // ////// 23/19 Q1016 NOSIG
ZJSY,2003-11-21 20:00,ZJSY 212000Z AUTO 06006MPS //// // ////// 24/18 Q1016 NOSIG
ZJSY,2003-11-21 21:00,ZJSY 212100Z AUTO 06005MPS //// // ////// 23/18 Q1016 NOSIG
ZJSY,2003-11-21 22:00,ZJSY 212200Z 05007MPS 9999 BKN040 24/18 Q1016 NOSIG
ZJSY,2003-11-21 23:00,ZJSY 212300Z 12001MPS CAVOK 23/18 Q1017 NOSIG
ZJSY,2003-11-22 00:00,ZJSY 220000Z 09003MPS CAVOK 23/18 Q1018 NOSIG
ZJSY,2003-11-22 01:00,ZJSY 220100Z 07006MPS CAVOK 25/18 Q1018 NOSIG
ZJSY,2003-11-22 02:00,ZJSY 220200Z 07007MPS CAVOK 27/18 Q1019 NOSIG
ZJSY,2003-11-22 03:00,ZJSY 220300Z 06007MPS CAVOK 27/17 Q1019 NOSIG
ZJSY,2003-11-22 04:00,ZJSY 220400Z 07007MPS CAVOK 28/17 Q1018 NOSIG
ZJSY,2003-11-22 05:00,ZJSY 220500Z 07005MPS CAVOK 28/18 Q1017 NOSIG
ZJSY,2003-11-22 06:00,ZJSY 220600Z 09005MPS CAVOK 28/17 Q1016 NOSIG
ZJSY,2003-11-22 07:00,ZJSY 220700Z 10005MPS CAVOK 27/17 Q1016 NOSIG
ZJSY,2003-11-22 08:00,ZJSY 220800Z 10004MPS CAVOK 27/17 Q1016 NOSIG
ZJSY,2003-11-22 09:00,ZJSY 220900Z 05004MPS CAVOK 26/17 Q1016 NOSIG
ZJSY,2003-11-22 10:00,ZJSY 221000Z 05003MPS CAVOK 26/17 Q1016 NOSIG
ZJSY,2003-11-22 11:00,ZJSY 221100Z 05002MPS CAVOK 25/17 Q1017 NOSIG
ZJSY,2003-11-22 12:00,ZJSY 221200Z 08003MPS CAVOK 23/17 Q1018 NOSIG
ZJSY,2003-11-22 13:00,ZJSY 221300Z 06002MPS CAVOK 22/17 Q1019 NOSIG
ZJSY,2003-11-22 14:00,ZJSY 221400Z 04002MPS CAVOK 22/17 Q1019 NOSIG
ZJSY,2003-11-22 15:00,ZJSY 221500Z 32001MPS CAVOK 22/17 Q1019 NOSIG
ZJSY,2003-11-22 16:00,ZJSY 221600Z 32001MPS CAVOK 22/17 Q1019 NOSIG
ZJSY,2003-11-22 17:00,ZJSY 221700Z 13001MPS CAVOK 22/17 Q1018 NOSIG
ZJSY,2003-11-22 18:00,ZJSY 221800Z 00000MPS CAVOK 22/17 Q1018 NOSIG
ZJSY,2003-11-22 19:00,ZJSY 221900Z AUTO 34002MPS //// // ////// 20/17 Q1018 NOSIG
ZJSY,2003-11-22 20:00,ZJSY 222000Z AUTO 35001MPS //// // ////// 20/17 Q1018 NOSIG
ZJSY,2003-11-22 21:00,ZJSY 222100Z AUTO 34002MPS //// // ////// 19/17 Q1018 NOSIG
ZJSY,2003-11-22 22:00,ZJSY 222200Z 35001MPS CAVOK 19/17 Q1018 NOSIG
ZJSY,2003-11-22 23:00,ZJSY 222300Z 34002MPS CAVOK 19/17 Q1018 NOSIG
ZJSY,2003-11-23 00:00,ZJSY 230000Z 33001MPS CAVOK 21/18 Q1019 NOSIG
ZJSY,2003-11-23 01:00,ZJSY 230100Z 05003MPS CAVOK 25/18 Q1020 NOSIG
ZJSY,2003-11-23 02:00,ZJSY 230200Z 06006MPS CAVOK 27/18 Q1020 NOSIG
ZJSY,2003-11-23 03:00,ZJSY 230300Z 04006MPS CAVOK 27/18 Q1020 NOSIG
ZJSY,2003-11-23 04:00,ZJSY 230400Z 09006MPS 9999 FEW016 SCT260 28/18 Q1019 NOSIG
ZJSY,2003-11-23 06:00,ZJSY 230600Z 05005MPS 9999 FEW013 SCT016 28/18 Q1017 NOSIG
ZJSY,2003-11-23 07:00,ZJSY 230700Z 06005MPS 9999 FEW016 BKN100 28/18 Q1016 NOSIG
ZJSY,2003-11-23 08:00,ZJSY 230800Z 08006MPS CAVOK 28/19 Q1016 NOSIG
ZJSY,2003-11-23 09:00,ZJSY 230900Z 08005MPS CAVOK 27/19 Q1016 NOSIG
ZJSY,2003-11-23 10:00,ZJSY 231000Z 08003MPS CAVOK 25/19 Q1016 NOSIG
ZJSY,2003-11-23 11:00,ZJSY 231100Z 08005MPS CAVOK 24/19 Q1017 NOSIG
ZJSY,2003-11-23 12:00,ZJSY 231200Z 06004MPS CAVOK 24/18 Q1017 NOSIG
ZJSY,2003-11-23 13:00,ZJSY 231300Z 06003MPS CAVOK 23/18 Q1018 NOSIG
ZJSY,2003-11-23 14:00,ZJSY 231400Z 35001MPS CAVOK 23/18 Q1018 NOSIG
ZJSY,2003-11-23 15:00,ZJSY 231500Z 35002MPS CAVOK 22/19 Q1018 NOSIG
ZJSY,2003-11-23 16:00,ZJSY 231600Z 00000MPS CAVOK 22/19 Q1018 NOSIG
ZJSY,2003-11-23 17:00,ZJSY 231700Z 02001MPS CAVOK 22/19 Q1018 NOSIG
ZJSY,2003-11-23 18:00,ZJSY 231800Z AUTO 34001MPS //// // ////// 22/19 Q1017 NOSIG
ZJSY,2003-11-23 19:00,ZJSY 231900Z AUTO 36001MPS //// // ////// 22/19 Q1017 NOSIG
ZJSY,2003-11-23 20:00,ZJSY 232000Z AUTO 29001MPS //// // ////// 22/19 Q1017 NOSIG
ZJSY,2003-11-23 21:00,ZJSY 232100Z AUTO 30001MPS //// // ////// 22/19 Q1017 NOSIG
ZJSY,2003-11-23 22:00,ZJSY 232200Z 33003MPS CAVOK 22/19 Q1017 NOSIG
ZJSY,2003-11-23 23:00,ZJSY 232300Z 34002MPS CAVOK 21/19 Q1018 NOSIG
ZJSY,2003-11-24 00:00,ZJSY 240000Z 34001MPS CAVOK 22/20 Q1018 NOSIG
ZJSY,2003-11-24 01:00,ZJSY 240100Z 00000MPS CAVOK 26/19 Q1019 NOSIG
ZJSY,2003-11-24 02:00,ZJSY 240200Z 12001MPS 9999 FEW016 SCT120 28/20 Q1019 NOSIG
ZJSY,2003-11-24 03:00,ZJSY 240300Z 07006MPS 9999 FEW016 SCT120 28/19 Q1019 NOSIG
ZJSY,2003-11-24 04:00,ZJSY 240400Z 06007MPS 9999 FEW016 SCT120 29/20 Q1018 NOSIG
ZJSY,2003-11-24 05:00,ZJSY 240500Z 05007MPS 9999 FEW016 SCT120 30/20 Q1017 NOSIG
ZJSY,2003-11-24 06:00,ZJSY 240600Z 05006MPS 9999 SCT016 29/20 Q1016 NOSIG
ZJSY,2003-11-24 07:00,ZJSY 240700Z 07007MPS 9999 SCT016 30/20 Q1015 NOSIG
ZJSY,2003-11-24 08:00,ZJSY 240800Z 07007MPS 9999 FEW016 SCT100 29/20 Q1015 NOSIG
ZJSY,2003-11-24 09:00,ZJSY 240900Z 08006MPS 9999 FEW016 BKN083 28/20 Q1015 NOSIG
ZJSY,2003-11-24 10:00,ZJSY 241000Z 08005MPS 9999 FEW016 BKN100 26/20 Q1016 NOSIG
ZJSY,2003-11-24 11:00,ZJSY 241100Z 06004MPS 9999 FEW016 BKN100 26/20 Q1016 NOSIG
ZJSY,2003-11-24 12:00,ZJSY 241200Z 07004MPS 9999 FEW016 BKN100 25/20 Q1017 NOSIG
ZJSY,2003-11-24 13:00,ZJSY 241300Z 07003MPS 9999 FEW016 BKN100 24/20 Q1017 NOSIG
ZJSY,2003-11-24 14:00,ZJSY 241400Z 08004MPS 9999 FEW016 BKN100 25/20 Q1018 NOSIG
ZJSY,2003-11-24 15:00,ZJSY 241500Z 03001MPS 9999 FEW016 BKN100 25/20 Q1018 NOSIG
ZJSY,2003-11-24 17:00,ZJSY 241700Z 31002MPS 9999 FEW016 SCT100 24/20 Q1018 NOSIG
ZJSY,2003-11-24 18:00,ZJSY 241800Z 34001MPS 9999 FEW016 SCT100 23/20 Q1017 NOSIG
ZJSY,2003-11-24 19:00,ZJSY 241900Z 00000MPS CAVOK 23/19 Q1017 NOSIG
ZJSY,2003-11-24 20:00,ZJSY 242000Z AUTO 36001MPS //// // ////// 22/20 Q1017 NOSIG
ZJSY,2003-11-24 21:00,ZJSY 242100Z AUTO 00000MPS //// // ////// 22/19 Q1017 NOSIG
ZJSY,2003-11-24 22:00,ZJSY 242200Z 00000MPS CAVOK 22/20 Q1017 NOSIG
ZJSY,2003-11-24 23:00,ZJSY 242300Z 34001MPS 9999 FEW015 BKN070 22/20 Q1017 NOSIG
ZJSY,2003-11-25 00:00,ZJSY 250000Z 00000MPS 9999 FEW015 BKN060 23/20 Q1018 NOSIG
ZJSY,2003-11-25 01:00,ZJSY 250100Z 35001MPS 9999 FEW015 BKN050 25/19 Q1019 NOSIG
ZJSY,2003-11-25 02:00,ZJSY 250200Z 06004MPS 9999 FEW016 BKN100 27/19 Q1019 NOSIG
ZJSY,2003-11-25 03:00,ZJSY 250300Z 06005MPS 9999 FEW016 BKN100 27/18 Q1019 NOSIG
ZJSY,2003-11-25 04:00,ZJSY 250400Z 04006MPS 9999 SCT018 BKN100 28/18 Q1018 NOSIG
ZJSY,2003-11-25 05:00,ZJSY 250500Z 06007MPS 9999 SCT018 29/19 Q1017 NOSIG
ZJSY,2003-11-25 06:00,ZJSY 250600Z 04006MPS 9999 FEW018 SCT260 29/19 Q1016 NOSIG
ZJSY,2003-11-25 07:00,ZJSY 250700Z 05004MPS 9999 SCT018 FEW026TCU 29/19 Q1015 NOSIG
ZJSY,2003-11-25 08:00,ZJSY 250800Z 05004MPS 9999 FEW018 29/19 Q1015 NOSIG
ZJSY,2003-11-25 09:00,ZJSY 250900Z 08004MPS 9999 FEW018 SCT110 28/19 Q1015 NOSIG
ZJSY,2003-11-25 10:00,ZJSY 251000Z 08004MPS CAVOK 26/20 Q1015 NOSIG
ZJSY,2003-11-25 11:00,ZJSY 251100Z 08003MPS CAVOK 25/20 Q1015 NOSIG
ZJSY,2003-11-25 12:00,ZJSY 251200Z 08002MPS CAVOK 24/20 Q1016 NOSIG
ZJSY,2003-11-25 13:00,ZJSY 251300Z 08003MPS CAVOK 24/20 Q1016 NOSIG
ZJSY,2003-11-25 14:00,ZJSY 251400Z 08003MPS CAVOK 23/19 Q1016 NOSIG
ZJSY,2003-11-25 15:00,ZJSY 251500Z 08004MPS CAVOK 23/19 Q1017 NOSIG
ZJSY,2003-11-25 16:00,ZJSY 251600Z 07003MPS CAVOK 22/19 Q1017 NOSIG
ZJSY,2003-11-25 17:00,ZJSY 251700Z 05002MPS CAVOK 22/19 Q1017 NOSIG
ZJSY,2003-11-25 18:00,ZJSY 251800Z 09001MPS CAVOK 22/19 Q1017 NOSIG
ZJSY,2003-11-25 19:00,ZJSY 251900Z 34002MPS CAVOK 21/19 Q1016 NOSIG
ZJSY,2003-11-25 20:00,ZJSY 252000Z AUTO 08002MPS //// // ////// 21/19 Q1016 NOSIG
ZJSY,2003-11-25 21:00,ZJSY 252100Z AUTO 07002MPS //// // ////// 22/19 Q1016 NOSIG
ZJSY,2003-11-25 22:00,ZJSY 252200Z 06003MPS CAVOK 22/18 Q1016 NOSIG
ZJSY,2003-11-25 23:00,ZJSY 252300Z 06004MPS CAVOK 23/18 Q1017 NOSIG
ZJSY,2003-11-26 00:00,ZJSY 260000Z 06004MPS CAVOK 24/18 Q1018 NOSIG
ZJSY,2003-11-26 01:00,ZJSY 260100Z 06004MPS CAVOK 25/17 Q1018 NOSIG
ZJSY,2003-11-26 02:00,ZJSY 260200Z 05007MPS CAVOK 27/18 Q1018 NOSIG
ZJSY,2003-11-26 03:00,ZJSY 260300Z 05008MPS CAVOK 28/18 Q1018 NOSIG
ZJSY,2003-11-26 04:00,ZJSY 260400Z 05007MPS CAVOK 29/18 Q1017 NOSIG
ZJSY,2003-11-26 05:00,ZJSY 260500Z 06006MPS CAVOK 29/18 Q1016 NOSIG
ZJSY,2003-11-26 06:00,ZJSY 260600Z 08006MPS CAVOK 29/18 Q1015 NOSIG
ZJSY,2003-11-26 07:00,ZJSY 260700Z 09005MPS CAVOK 29/18 Q1015 NOSIG
ZJSY,2003-11-26 08:00,ZJSY 260800Z 09005MPS CAVOK 29/18 Q1014 NOSIG
ZJSY,2003-11-26 09:00,ZJSY 260900Z 10004MPS 9999 FEW016 SCT260 27/19 Q1014 NOSIG
ZJSY,2003-11-26 10:00,ZJSY 261000Z 06003MPS 9999 FEW016 SCT260 26/19 Q1015 NOSIG
ZJSY,2003-11-26 11:00,ZJSY 261100Z 08005MPS 9999 FEW018 SCT260 25/19 Q1016 NOSIG
ZJSY,2003-11-26 12:00,ZJSY 261200Z 08005MPS 9999 BKN018 SCT260 25/19 Q1016 NOSIG
ZJSY,2003-11-26 13:00,ZJSY 261300Z 09003MPS 9999 SCT018 SCT260 23/19 Q1017 NOSIG
ZJSY,2003-11-26 14:00,ZJSY 261400Z 09003MPS 9999 BKN018 SCT260 23/19 Q1017 NOSIG
ZJSY,2003-11-26 15:00,ZJSY 261500Z 09003MPS 9999 SCT018 SCT260 22/18 Q1017 NOSIG
ZJSY,2003-11-26 16:00,ZJSY 261600Z 07003MPS 9999 SCT018 SCT260 22/18 Q1017 NOSIG
ZJSY,2003-11-26 17:00,ZJSY 261700Z 07003MPS 9999 SCT018 SCT260 21/18 Q1017 NOSIG
ZJSY,2003-11-26 18:00,ZJSY 261800Z AUTO 00000MPS //// // ////// 20/17 Q1017 NOSIG
ZJSY,2003-11-26 19:00,ZJSY 261900Z AUTO 09004MPS //// // ////// 21/16 Q1016 NOSIG
ZJSY,2003-11-26 20:00,ZJSY 262000Z AUTO 35001MPS //// // ////// 19/15 Q1016 NOSIG
ZJSY,2003-11-26 21:00,ZJSY 262100Z AUTO 34002MPS //// // ////// 18/15 Q1016 NOSIG
ZJSY,2003-11-26 22:00,ZJSY 262200Z 34002MPS CAVOK 18/15 Q1016 NOSIG
ZJSY,2003-11-26 23:00,ZJSY 262300Z 34002MPS 8000 NSC 17/15 Q1016 NOSIG
ZJSY,2003-11-27 00:00,ZJSY 270000Z 34002MPS 8000 SKC 18/16 Q1017 NOSIG
ZJSY,2003-11-27 01:00,ZJSY 270100Z 00000MPS 8000 SKC 22/17 Q1018 NOSIG
ZJSY,2003-11-27 02:00,ZJSY 270200Z 21001MPS 8000 SKC 24/16 Q1018 NOSIG
ZJSY,2003-11-27 03:00,ZJSY 270300Z 21002MPS 8000 SKC 25/16 Q1018 NOSIG
ZJSY,2003-11-27 04:00,ZJSY 270400Z 14001MPS 8000 FEW016 27/16 Q1017 NOSIG
ZJSY,2003-11-27 05:00,ZJSY 270500Z 21003MPS 8000 FEW016 26/17 Q1016 NOSIG
ZJSY,2003-11-27 06:00,ZJSY 270600Z 23004MPS 8000 FEW016 26/17 Q1015 NOSIG
ZJSY,2003-11-27 07:00,ZJSY 270700Z 23004MPS 8000 FEW016 26/18 Q1014 NOSIG
ZJSY,2003-11-27 08:00,ZJSY 270800Z 24003MPS 8000 FEW016 26/16 Q1014 NOSIG
ZJSY,2003-11-27 09:00,ZJSY 270900Z 25003MPS 8000 FEW018 26/17 Q1014 NOSIG
ZJSY,2003-11-27 10:00,ZJSY 271000Z 26002MPS 8000 FEW018 24/18 Q1014 NOSIG
ZJSY,2003-11-27 11:00,ZJSY 271100Z 33002MPS 8000 FEW018 23/18 Q1015 NOSIG
ZJSY,2003-11-27 12:00,ZJSY 271200Z 34001MPS 8000 FEW018 22/19 Q1015 NOSIG
ZJSY,2003-11-27 13:00,ZJSY 271300Z 34003MPS 8000 FEW018 SCT120 21/18 Q1016 NOSIG
ZJSY,2003-11-27 14:00,ZJSY 271400Z 36001MPS 8000 FEW018 SCT120 22/15 Q1016 NOSIG
ZJSY,2003-11-27 15:00,ZJSY 271500Z 05002MPS 8000 FEW018 SCT120 21/15 Q1017 NOSIG
ZJSY,2003-11-27 16:00,ZJSY 271600Z 06004MPS 8000 FEW018 SCT120 20/15 Q1017 NOSIG
ZJSY,2003-11-27 17:00,ZJSY 271700Z 04002MPS 8000 FEW018 SCT120 19/15 Q1016 NOSIG
ZJSY,2003-11-27 18:00,ZJSY 271800Z AUTO 33001MPS //// // ////// 19/15 Q1016 NOSIG
ZJSY,2003-11-27 19:00,ZJSY 271900Z AUTO 04002MPS //// // ////// 20/14 Q1015 NOSIG
ZJSY,2003-11-27 20:00,ZJSY 272000Z AUTO 08002MPS //// // ////// 18/14 Q1015 NOSIG
ZJSY,2003-11-27 21:00,ZJSY 272100Z AUTO 03002MPS //// // ////// 18/14 Q1015 NOSIG
ZJSY,2003-11-27 22:00,ZJSY 272200Z 09002MPS 8000 FEW018 18/14 Q1016 NOSIG
ZJSY,2003-11-27 23:00,ZJSY 272300Z 35002MPS 5000 BR FEW018 17/14 Q1016 NOSIG
ZJSY,2003-11-28 00:00,ZJSY 280000Z 33001MPS 5000 BR SKC 19/15 Q1016 NOSIG
ZJSY,2003-11-28 01:00,ZJSY 280100Z 00000MPS 5000 HZ SKC 22/15 Q1017 NOSIG
ZJSY,2003-11-28 02:00,ZJSY 280200Z 30001MPS 5000 HZ SKC 24/15 Q1017 NOSIG
ZJSY,2003-11-28 03:00,ZJSY 280300Z 00000MPS 5000 HZ SKC 26/16 Q1017 NOSIG
ZJSY,2003-11-28 04:00,ZJSY 280400Z 09005MPS 8000 SKC 27/14 Q1016 NOSIG
ZJSY,2003-11-28 05:00,ZJSY 280500Z 10004MPS 8000 SKC 28/16 Q1016 NOSIG
ZJSY,2003-11-28 06:00,ZJSY 280600Z 08003MPS 8000 SKC 28/16 Q1014 NOSIG
ZJSY,2003-11-28 07:00,ZJSY 280700Z 25005MPS 8000 FEW016 27/17 Q1014 NOSIG
ZJSY,2003-11-28 08:00,ZJSY 280800Z 25004MPS 8000 SCT016 26/16 Q1014 NOSIG
ZJSY,2003-11-28 09:00,ZJSY 280900Z 25003MPS 8000 SCT016 26/16 Q1014 NOSIG
ZJSY,2003-11-28 10:00,ZJSY 281000Z 29002MPS 8000 SCT016 BKN040 25/16 Q1015 NOSIG
ZJSY,2003-11-28 11:00,ZJSY 281100Z 32002MPS 8000 SCT016 BKN040 24/17 Q1016 NOSIG
ZJSY,2003-11-28 12:00,ZJSY 281200Z 01001MPS 8000 SCT016 BKN040 22/17 Q1017 NOSIG
ZJSY,2003-11-28 13:00,ZJSY 281300Z 36001MPS 8000 SCT016 BKN040 21/17 Q1017 NOSIG
ZJSY,2003-11-28 14:00,ZJSY 281400Z 04002MPS 8000 SCT016 BKN040 22/15 Q1018 NOSIG
ZJSY,2003-11-28 15:00,ZJSY 281500Z 07003MPS 8000 SCT016 BKN040 21/15 Q1018 NOSIG
ZJSY,2003-11-28 16:00,ZJSY 281600Z 06001MPS 8000 SCT016 BKN040 20/15 Q1018 NOSIG
ZJSY,2003-11-28 17:00,ZJSY 281700Z AUTO 07003MPS //// // ////// 19/15 Q1018 NOSIG
ZJSY,2003-11-28 18:00,ZJSY 281800Z AUTO 04001MPS //// // ////// 18/14 Q1018 NOSIG
ZJSY,2003-11-28 19:00,ZJSY 281900Z AUTO 04002MPS //// // ////// 19/13 Q1017 NOSIG
ZJSY,2003-11-28 20:00,ZJSY 282000Z AUTO 09002MPS //// // ////// 19/13 Q1017 NOSIG
ZJSY,2003-11-28 21:00,ZJSY 282100Z AUTO 06002MPS //// // ////// 19/13 Q1017 NOSIG
ZJSY,2003-11-28 22:00,ZJSY 282200Z 10001MPS 8000 FEW013 18/13 Q1017 NOSIG
ZJSY,2003-11-28 23:00,ZJSY 282300Z 04001MPS 5000 BR SKC 17/14 Q1018 NOSIG
ZJSY,2003-11-29 00:00,ZJSY 290000Z 00000MPS 5000 BR SKC 20/13 Q1018 NOSIG
ZJSY,2003-11-29 01:00,ZJSY 290100Z 00000MPS 7000 SKC 22/14 Q1019 NOSIG
ZJSY,2003-11-29 02:00,ZJSY 290200Z 24002MPS 7000 SKC 23/15 Q1019 NOSIG
ZJSY,2003-11-29 03:00,ZJSY 290300Z 20002MPS 7000 SKC 24/14 Q1019 NOSIG
ZJSY,2003-11-29 04:00,ZJSY 290400Z 21003MPS 7000 SKC 24/16 Q1019 NOSIG
ZJSY,2003-11-29 05:00,ZJSY 290500Z 22003MPS 7000 SKC 25/16 Q1017 NOSIG
ZJSY,2003-11-29 06:00,ZJSY 290600Z 22004MPS 8000 SKC 25/16 Q1017 NOSIG
ZJSY,2003-11-29 07:00,ZJSY 290700Z 19003MPS 8000 SKC 25/16 Q1016 NOSIG
ZJSY,2003-11-29 08:00,ZJSY 290800Z 20003MPS 8000 NSC 24/17 Q1016 NOSIG
ZJSY,2003-11-29 09:00,ZJSY 290900Z 19002MPS 8000 NSC 24/16 Q1016 NOSIG
ZJSY,2003-11-29 10:00,ZJSY 291000Z 21002MPS 8000 NSC 23/16 Q1016 NOSIG
ZJSY,2003-11-29 11:00,ZJSY 291100Z 29001MPS 8000 NSC 21/17 Q1016 NOSIG
ZJSY,2003-11-29 12:00,ZJSY 291200Z 07002MPS 8000 NSC 21/17 Q1017 NOSIG
ZJSY,2003-11-29 13:00,ZJSY 291300Z 07003MPS 8000 SCT011 SCT230 21/16 Q1017 NOSIG
ZJSY,2003-11-29 14:00,ZJSY 291400Z 08003MPS 8000 FEW011 SCT230 19/15 Q1018 NOSIG
ZJSY,2003-11-29 15:00,ZJSY 291500Z 06003MPS 8000 NSC 19/16 Q1018 NOSIG
ZJSY,2003-11-29 16:00,ZJSY 291600Z 07002MPS 8000 NSC 19/16 Q1018 NOSIG
ZJSY,2003-11-29 17:00,ZJSY 291700Z 05002MPS 8000 NSC 19/15 Q1018 NOSIG
ZJSY,2003-11-29 18:00,ZJSY 291800Z 06002MPS 8000 NSC 18/16 Q1017 NOSIG
ZJSY,2003-11-29 19:00,ZJSY 291900Z AUTO 08003MPS //// // ////// 17/15 Q1016 NOSIG
ZJSY,2003-11-29 20:00,ZJSY 292000Z AUTO 07003MPS //// // ////// 17/14 Q1017 NOSIG
ZJSY,2003-11-29 21:00,ZJSY 292100Z AUTO 04002MPS //// // ////// 17/13 Q1017 NOSIG
ZJSY,2003-11-29 22:00,ZJSY 292200Z 07003MPS 6000 NSC 16/13 Q1017 NOSIG
ZJSY,2003-11-29 23:00,ZJSY 292300Z 05004MPS 6000 NSC 17/11 Q1017 NOSIG
ZJSY,2003-11-30 00:00,ZJSY 300000Z 04003MPS 8000 NSC 19/11 Q1018 NOSIG
ZJSY,2003-11-30 01:00,ZJSY 300100Z 07004MPS 8000 NSC 21/11 Q1019 NOSIG
ZJSY,2003-11-30 02:00,ZJSY 300200Z 07005MPS 8000 NSC 23/10 Q1019 NOSIG
ZJSY,2003-11-30 03:00,ZJSY 300300Z 09004MPS 8000 NSC 24/12 Q1018 NOSIG
ZJSY,2003-11-30 04:00,ZJSY 300400Z 12004MPS 8000 NSC 25/12 Q1018 NOSIG
ZJSY,2003-11-30 05:00,ZJSY 300500Z 15003MPS 8000 NSC 25/12 Q1016 NOSIG
ZJSY,2003-11-30 06:00,ZJSY 300600Z 18003MPS 8000 NSC 25/14 Q1015 NOSIG
ZJSY,2003-11-30 07:00,ZJSY 300700Z 18003MPS 8000 NSC 25/14 Q1015 NOSIG
ZJSY,2003-11-30 08:00,ZJSY 300800Z 17002MPS 8000 FEW016 SCT230 24/14 Q1014 NOSIG
ZJSY,2003-11-30 09:00,ZJSY 300900Z 17002MPS 8000 FEW016 SCT230 24/16 Q1015 NOSIG
ZJSY,2003-11-30 10:00,ZJSY 301000Z 08004MPS 7000 FEW016 SCT230 22/15 Q1015 NOSIG
ZJSY,2003-11-30 11:00,ZJSY 301100Z 08004MPS 7000 FEW016 SCT230 21/16 Q1016 NOSIG
ZJSY,2003-11-30 12:00,ZJSY 301200Z 07003MPS 6000 FEW016 SCT230 20/15 Q1016 NOSIG
ZJSY,2003-11-30 13:00,ZJSY 301300Z 07002MPS 8000 NSC 20/15 Q1017 NOSIG
ZJSY,2003-11-30 14:00,ZJSY 301400Z 35001MPS 8000 NSC 19/15 Q1017 NOSIG
ZJSY,2003-11-30 15:00,ZJSY 301500Z 36001MPS 8000 NSC 18/15 Q1017 NOSIG
ZJSY,2003-11-30 16:00,ZJSY 301600Z 36001MPS 8000 NSC 18/14 Q1017 NOSIG
ZJSY,2003-11-30 17:00,ZJSY 301700Z 03001MPS 8000 NSC 17/15 Q1017 NOSIG
ZJSY,2003-11-30 18:00,ZJSY 301800Z AUTO 36002MPS //// // ////// 17/14 Q1016 NOSIG
ZJSY,2003-11-30 19:00,ZJSY 301900Z AUTO 33002MPS //// // ////// 17/15 Q1016 NOSIG
ZJSY,2003-11-30 20:00,ZJSY 302000Z 36001MPS 8000 NSC 17/14 Q1015 NOSIG
ZJSY,2003-11-30 21:00,ZJSY 302100Z AUTO 35001MPS //// // ////// 17/14 Q1016 NOSIG
ZJSY,2003-11-30 22:00,ZJSY 302200Z 33002MPS 6000 SKC 16/14 Q1016 NOSIG
ZJSY,2003-11-30 23:00,ZJSY 302300Z 33001MPS 6000 NSC 17/14 Q1017 NOSIG
ZJSY,2003-12-01 00:00,ZJSY 010000Z 04003MPS 6000 NSC 19/14 Q1017 NOSIG
ZJSY,2003-12-01 01:00,ZJSY 010100Z 03002MPS 8000 SKC 22/14 Q1018 NOSIG
ZJSY,2003-12-01 02:00,ZJSY 010200Z 05003MPS 8000 SKC 24/15 Q1018 NOSIG
ZJSY,2003-12-01 03:00,ZJSY 010300Z 08004MPS 8000 SKC 25/14 Q1018 NOSIG
ZJSY,2003-12-01 04:00,ZJSY 010400Z 09005MPS 8000 SKC 26/15 Q1017 NOSIG
ZJSY,2003-12-01 05:00,ZJSY 010500Z 08004MPS 8000 SKC 26/14 Q1017 NOSIG
ZJSY,2003-12-01 06:00,ZJSY 010600Z 10004MPS 8000 SKC 27/13 Q1015 NOSIG
ZJSY,2003-12-01 07:00,ZJSY 010700Z 09003MPS 8000 FEW016 27/14 Q1015 NOSIG
ZJSY,2003-12-01 08:00,ZJSY 010800Z 10004MPS 9999 FEW016 27/16 Q1015 NOSIG
ZJSY,2003-12-01 09:00,ZJSY 010900Z 10003MPS 9999 FEW016 26/15 Q1015 NOSIG
ZJSY,2003-12-01 10:00,ZJSY 011000Z 06004MPS 8000 FEW016 24/16 Q1016 NOSIG
ZJSY,2003-12-01 11:00,ZJSY 011100Z 07003MPS 8000 SKC 22/17 Q1016 NOSIG
ZJSY,2003-12-01 12:00,ZJSY 011200Z 06004MPS CAVOK 22/17 Q1017 NOSIG
ZJSY,2003-12-01 13:00,ZJSY 011300Z 06004MPS CAVOK 22/17 Q1017 NOSIG
ZJSY,2003-12-01 14:00,ZJSY 011400Z 04003MPS CAVOK 21/16 Q1018 NOSIG
ZJSY,2003-12-01 15:00,ZJSY 011500Z 07004MPS CAVOK 21/16 Q1018 NOSIG
ZJSY,2003-12-01 16:00,ZJSY 011600Z 05003MPS CAVOK 20/16 Q1018 NOSIG
ZJSY,2003-12-01 17:00,ZJSY 011700Z 35001MPS CAVOK 19/16 Q1018 NOSIG
ZJSY,2003-12-01 18:00,ZJSY 011800Z AUTO 34002MPS //// // ////// 18/16 Q1017 NOSIG
ZJSY,2003-12-01 19:00,ZJSY 011900Z AUTO 04001MPS //// // ////// 19/15 Q1017 NOSIG
ZJSY,2003-12-01 20:00,ZJSY 012000Z AUTO 06001MPS //// // ////// 19/15 Q1017 NOSIG
ZJSY,2003-12-01 21:00,ZJSY 012100Z AUTO 00000MPS //// // ////// 18/14 Q1017 NOSIG
ZJSY,2003-12-01 22:00,ZJSY 012200Z AUTO 05004MPS //// // ////// 20/14 Q1017 NOSIG
ZJSY,2003-12-01 23:00,ZJSY 012300Z AUTO 06004MPS //// // ////// 20/14 Q1018 NOSIG
ZJSY,2003-12-02 00:00,ZJSY 020000Z 05005MPS 8000 NSC 21/15 Q1019 NOSIG
ZJSY,2003-12-02 01:00,ZJSY 020100Z 05006MPS 8000 NSC 23/15 Q1019 NOSIG
ZJSY,2003-12-02 02:00,ZJSY 020200Z 05007MPS 8000 NSC 24/14 Q1019 NOSIG
ZJSY,2003-12-02 03:00,ZJSY 020300Z 04007MPS 8000 NSC 25/14 Q1019 NOSIG
ZJSY,2003-12-02 04:00,ZJSY 020400Z 05007MPS 8000 NSC 26/14 Q1018 NOSIG
ZJSY,2003-12-02 05:00,ZJSY 020500Z 08006MPS 8000 NSC 27/14 Q1017 NOSIG
ZJSY,2003-12-02 06:00,ZJSY 020600Z 09005MPS 8000 NSC 27/14 Q1015 NOSIG
ZJSY,2003-12-02 07:00,ZJSY 020700Z 09004MPS 8000 NSC 27/13 Q1015 NOSIG
ZJSY,2003-12-02 08:00,ZJSY 020800Z 09004MPS 8000 NSC 27/14 Q1014 NOSIG
ZJSY,2003-12-02 09:00,ZJSY 020900Z 08005MPS 8000 NSC 26/13 Q1014 NOSIG
ZJSY,2003-12-02 10:00,ZJSY 021000Z 10003MPS 8000 NSC 24/16 Q1015 NOSIG
ZJSY,2003-12-02 11:00,ZJSY 021100Z 06004MPS 8000 NSC 22/16 Q1015 NOSIG
ZJSY,2003-12-02 12:00,ZJSY 021200Z 06003MPS 8000 NSC 21/15 Q1016 NOSIG
ZJSY,2003-12-02 13:00,ZJSY 021300Z 09003MPS 8000 NSC 21/15 Q1017 NOSIG
ZJSY,2003-12-02 14:00,ZJSY 021400Z 07006MPS 8000 SKC 20/14 Q1017 NOSIG
ZJSY,2003-12-02 15:00,ZJSY 021500Z 06005MPS 8000 SKC 20/14 Q1017 NOSIG
ZJSY,2003-12-02 16:00,ZJSY 021600Z 06005MPS 8000 SKC 20/14 Q1017 NOSIG
ZJSY,2003-12-02 17:00,ZJSY 021700Z 04005MPS 8000 SKC 20/13 Q1017 NOSIG
ZJSY,2003-12-02 18:00,ZJSY 021800Z AUTO 05005MPS //// // ////// 21/13 Q1016 NOSIG
ZJSY,2003-12-02 19:00,ZJSY 021900Z AUTO 04006MPS //// // ////// 21/13 Q1016 NOSIG
ZJSY,2003-12-02 20:00,ZJSY 022000Z AUTO 01003MPS //// // ////// 20/13 Q1016 NOSIG
ZJSY,2003-12-02 21:00,ZJSY 022100Z AUTO 32002MPS //// // ////// 20/12 Q1016 NOSIG
ZJSY,2003-12-02 22:00,ZJSY 022200Z 03001MPS 6000 SKC 19/13 Q1016 NOSIG
ZJSY,2003-12-02 23:00,ZJSY 022300Z 36001MPS 8000 SKC 17/13 Q1016 NOSIG
ZJSY,2003-12-03 00:00,ZJSY 030000Z 36002MPS 8000 SKC 17/13 Q1017 NOSIG
ZJSY,2003-12-03 01:00,ZJSY 030100Z 06003MPS CAVOK 22/14 Q1018 NOSIG
ZJSY,2003-12-03 02:00,ZJSY 030200Z 05004MPS CAVOK 24/13 Q1018 NOSIG
ZJSY,2003-12-03 03:00,ZJSY 030300Z 06007MPS CAVOK 25/12 Q1018 NOSIG
ZJSY,2003-12-03 04:00,ZJSY 030400Z 05006MPS CAVOK 26/13 Q1017 NOSIG
ZJSY,2003-12-03 05:00,ZJSY 030500Z 05005MPS CAVOK 26/12 Q1016 NOSIG
ZJSY,2003-12-03 06:00,ZJSY 030600Z 03003MPS CAVOK 27/14 Q1014 NOSIG
ZJSY,2003-12-03 07:00,ZJSY 030700Z 09005MPS CAVOK 27/13 Q1013 NOSIG
ZJSY,2003-12-03 08:00,ZJSY 030800Z 10005MPS CAVOK 26/15 Q1013 NOSIG
ZJSY,2003-12-03 09:00,ZJSY 030900Z 09005MPS CAVOK 25/15 Q1013 NOSIG
ZJSY,2003-12-03 10:00,ZJSY 031000Z 08006MPS CAVOK 23/15 Q1014 NOSIG
ZJSY,2003-12-03 11:00,ZJSY 031100Z 07005MPS CAVOK 22/15 Q1014 NOSIG
ZJSY,2003-12-03 12:00,ZJSY 031200Z 07003MPS CAVOK 21/15 Q1016 NOSIG
ZJSY,2003-12-03 13:00,ZJSY 031300Z 07004MPS CAVOK 21/14 Q1016 NOSIG
ZJSY,2003-12-03 14:00,ZJSY 031400Z 05002MPS CAVOK 20/14 Q1017 NOSIG
ZJSY,2003-12-03 15:00,ZJSY 031500Z 35001MPS CAVOK 19/14 Q1016 NOSIG
ZJSY,2003-12-03 16:00,ZJSY 031600Z 35001MPS CAVOK 19/14 Q1016 NOSIG
ZJSY,2003-12-03 17:00,ZJSY 031700Z 33003MPS CAVOK 18/14 Q1016 NOSIG
ZJSY,2003-12-03 18:00,ZJSY 031800Z 33003MPS CAVOK 17/14 Q1015 NOSIG
ZJSY,2003-12-03 19:00,ZJSY 031900Z 34002MPS CAVOK 18/14 Q1015 NOSIG
ZJSY,2003-12-03 20:00,ZJSY 032000Z AUTO 34002MPS //// // ////// 18/13 Q1014 NOSIG
ZJSY,2003-12-03 21:00,ZJSY 032100Z AUTO 34002MPS //// // ////// 17/13 Q1014 NOSIG
ZJSY,2003-12-03 22:00,ZJSY 032200Z 35002MPS CAVOK 16/13 Q1015 NOSIG
ZJSY,2003-12-03 23:00,ZJSY 032300Z 33003MPS CAVOK 17/13 Q1015 NOSIG
ZJSY,2003-12-04 00:00,ZJSY 040000Z 35002MPS CAVOK 19/14 Q1016 NOSIG
ZJSY,2003-12-04 01:00,ZJSY 040100Z 04005MPS CAVOK 23/15 Q1016 NOSIG
ZJSY,2003-12-04 02:00,ZJSY 040200Z 05005MPS CAVOK 25/15 Q1017 NOSIG
ZJSY,2003-12-04 03:00,ZJSY 040300Z 09004MPS CAVOK 26/16 Q1016 NOSIG
ZJSY,2003-12-04 04:00,ZJSY 040400Z 10004MPS CAVOK 27/16 Q1016 NOSIG
ZJSY,2003-12-04 05:00,ZJSY 040500Z 12004MPS CAVOK 27/15 Q1015 NOSIG
ZJSY,2003-12-04 06:00,ZJSY 040600Z 12004MPS 9999 FEW018 27/16 Q1014 NOSIG
ZJSY,2003-12-04 07:00,ZJSY 040700Z 10004MPS 9999 FEW018 27/17 Q1013 NOSIG
ZJSY,2003-12-04 08:00,ZJSY 040800Z 09006MPS 9999 FEW018 SCT260 27/17 Q1013 NOSIG
ZJSY,2003-12-04 09:00,ZJSY 040900Z 08006MPS 9999 FEW018 SCT260 25/17 Q1013 NOSIG
ZJSY,2003-12-04 10:00,ZJSY 041000Z 08006MPS 9999 FEW018 SCT260 24/17 Q1014 NOSIG
ZJSY,2003-12-04 11:00,ZJSY 041100Z 06003MPS 9999 FEW018 SCT260 23/18 Q1015 NOSIG
ZJSY,2003-12-04 12:00,ZJSY 041200Z 05003MPS 9999 FEW018 SCT260 23/17 Q1015 NOSIG
ZJSY,2003-12-04 13:00,ZJSY 041300Z 05002MPS 9999 FEW018 SCT050 23/17 Q1016 NOSIG
ZJSY,2003-12-04 14:00,ZJSY 041400Z 05002MPS 9999 FEW018 SCT050 23/17 Q1016 NOSIG
ZJSY,2003-12-04 15:00,ZJSY 041500Z 06003MPS 9999 FEW018 SCT050 22/17 Q1016 NOSIG
ZJSY,2003-12-04 16:00,ZJSY 041600Z 07002MPS 9999 FEW018 22/16 Q1016 NOSIG
ZJSY,2003-12-04 17:00,ZJSY 041700Z 35001MPS 9999 FEW018 20/16 Q1015 NOSIG
ZJSY,2003-12-04 18:00,ZJSY 041800Z AUTO 04002MPS //// // ////// 22/17 Q1015 NOSIG
ZJSY,2003-12-04 19:00,ZJSY 041900Z AUTO 05002MPS //// // ////// 22/17 Q1014 NOSIG
ZJSY,2003-12-04 20:00,ZJSY 042000Z AUTO 05002MPS //// // ////// 23/16 Q1014 NOSIG
ZJSY,2003-12-04 21:00,ZJSY 042100Z AUTO 05004MPS //// // ////// 22/16 Q1014 NOSIG
ZJSY,2003-12-04 22:00,ZJSY 042200Z 03003MPS 9999 FEW018 22/16 Q1015 NOSIG
ZJSY,2003-12-04 23:00,ZJSY 042300Z 04003MPS CAVOK 22/17 Q1016 NOSIG
ZJSY,2003-12-05 00:00,ZJSY 050000Z 05004MPS CAVOK 23/17 Q1016 NOSIG
ZJSY,2003-12-05 01:00,ZJSY 050100Z 11001MPS CAVOK 24/18 Q1017 NOSIG
ZJSY,2003-12-05 02:00,ZJSY 050200Z 08004MPS CAVOK 26/18 Q1018 NOSIG
ZJSY,2003-12-05 03:00,ZJSY 050300Z 09005MPS CAVOK 26/19 Q1018 NOSIG
ZJSY,2003-12-05 04:00,ZJSY 050400Z 07006MPS 9999 FEW016 SCT070 27/18 Q1017 NOSIG
ZJSY,2003-12-05 05:00,ZJSY 050500Z 07005MPS 9999 FEW016 SCT070 28/17 Q1015 NOSIG
ZJSY,2003-12-05 06:00,ZJSY 050600Z 10004MPS 9999 FEW016 SCT260 29/19 Q1014 NOSIG
ZJSY,2003-12-05 07:00,ZJSY 050700Z 10005MPS 9999 FEW016 28/19 Q1014 NOSIG
ZJSY,2003-12-05 08:00,ZJSY 050800Z 10004MPS 9999 FEW016 27/19 Q1014 NOSIG
ZJSY,2003-12-05 09:00,ZJSY 050900Z 08006MPS 9999 FEW016 26/19 Q1014 NOSIG
ZJSY,2003-12-05 10:00,ZJSY 051000Z 08006MPS 9999 FEW016 25/19 Q1014 NOSIG
ZJSY,2003-12-05 11:00,ZJSY 051100Z 08004MPS 9999 FEW016 23/19 Q1015 NOSIG
ZJSY,2003-12-05 12:00,ZJSY 051200Z 07003MPS 9999 FEW018 23/19 Q1015 NOSIG
ZJSY,2003-12-05 13:00,ZJSY 051300Z 06005MPS 9999 FEW018 23/19 Q1016 NOSIG
ZJSY,2003-12-05 14:00,ZJSY 051400Z 06004MPS 9999 FEW018 23/18 Q1016 NOSIG
ZJSY,2003-12-05 15:00,ZJSY 051500Z 04003MPS CAVOK 23/18 Q1017 NOSIG
ZJSY,2003-12-05 16:00,ZJSY 051600Z 36002MPS CAVOK 22/18 Q1016 NOSIG
ZJSY,2003-12-05 17:00,ZJSY 051700Z 35001MPS CAVOK 21/18 Q1016 NOSIG
ZJSY,2003-12-05 18:00,ZJSY 051800Z 05002MPS CAVOK 22/17 Q1016 NOSIG
ZJSY,2003-12-05 19:00,ZJSY 051900Z AUTO 06005MPS //// // ////// 23/17 Q1015 NOSIG
ZJSY,2003-12-05 20:00,ZJSY 052000Z AUTO 20001MPS //// // ////// 22/17 Q1014 NOSIG
ZJSY,2003-12-05 21:00,ZJSY 052100Z AUTO 02001MPS //// // ////// 22/16 Q1015 NOSIG
ZJSY,2003-12-05 22:00,ZJSY 052200Z 36001MPS CAVOK 21/16 Q1015 NOSIG
ZJSY,2003-12-05 23:00,ZJSY 052300Z 01001MPS 9999 SCT033 SCT260 22/16 Q1015 NOSIG
ZJSY,2003-12-06 00:00,ZJSY 060000Z 30001MPS 9999 SCT040 22/17 Q1016 NOSIG
ZJSY,2003-12-06 01:00,ZJSY 060100Z 07005MPS CAVOK 26/17 Q1016 NOSIG
ZJSY,2003-12-06 02:00,ZJSY 060200Z 05006MPS 9999 FEW016 27/18 Q1017 NOSIG
ZJSY,2003-12-06 03:00,ZJSY 060300Z 07007MPS 9999 SCT000 BKN100 27/18 Q1017 NOSIG
ZJSY,2003-12-06 04:00,ZJSY 060400Z 09006MPS 9999 SCT000 BKN100 27/19 Q1017 NOSIG
ZJSY,2003-12-06 05:00,ZJSY 060500Z 08005MPS 9999 SCT013 BKN100 27/19 Q1015 NOSIG
ZJSY,2003-12-06 06:00,ZJSY 060600Z 07005MPS 9999 FEW013 BKN100 29/19 Q1014 NOSIG
ZJSY,2003-12-06 07:00,ZJSY 060700Z 09005MPS 9999 SCT013 BKN100 27/20 Q1014 NOSIG
ZJSY,2003-12-06 08:00,ZJSY 060800Z 08006MPS 9999 SCT013 BKN100 26/19 Q1014 NOSIG
ZJSY,2003-12-06 09:00,ZJSY 060900Z 07004MPS CAVOK 26/19 Q1014 NOSIG
ZJSY,2003-12-06 10:00,ZJSY 061000Z 08002MPS CAVOK 25/19 Q1014 NOSIG
ZJSY,2003-12-06 11:00,ZJSY 061100Z 07002MPS CAVOK 25/18 Q1015 NOSIG
ZJSY,2003-12-06 12:00,ZJSY 061200Z 09001MPS CAVOK 24/18 Q1016 NOSIG
ZJSY,2003-12-06 13:00,ZJSY 061300Z 00000MPS CAVOK 24/18 Q1016 NOSIG
ZJSY,2003-12-06 14:00,ZJSY 061400Z 00000MPS CAVOK 23/18 Q1017 NOSIG
ZJSY,2003-12-06 15:00,ZJSY 061500Z 11001MPS CAVOK 22/17 Q1017 NOSIG
ZJSY,2003-12-06 16:00,ZJSY 061600Z 03002MPS CAVOK 22/17 Q1016 NOSIG
ZJSY,2003-12-06 17:00,ZJSY 061700Z 06005MPS CAVOK 24/16 Q1016 NOSIG
ZJSY,2003-12-06 18:00,ZJSY 061800Z 06006MPS CAVOK 24/15 Q1016 NOSIG
ZJSY,2003-12-06 19:00,ZJSY 061900Z AUTO 06006MPS //// // ////// 24/15 Q1015 NOSIG
ZJSY,2003-12-06 20:00,ZJSY 062000Z AUTO 06006MPS //// // ////// 24/14 Q1015 NOSIG
ZJSY,2003-12-06 21:00,ZJSY 062100Z AUTO 06007MPS //// // ////// 24/14 Q1015 NOSIG
ZJSY,2003-12-06 22:00,ZJSY 062200Z 06006MPS CAVOK 24/15 Q1015 NOSIG
ZJSY,2003-12-06 23:00,ZJSY 062300Z 06008MPS CAVOK 24/14 Q1015 NOSIG
ZJSY,2003-12-07 00:00,ZJSY 070000Z 06008MPS CAVOK 24/15 Q1016 NOSIG
ZJSY,2003-12-07 01:00,ZJSY 070100Z 06007MPS CAVOK 25/15 Q1017 NOSIG
ZJSY,2003-12-07 02:00,ZJSY 070200Z 06010MPS CAVOK 27/15 Q1018 NOSIG
ZJSY,2003-12-07 03:00,ZJSY 070300Z 07010G15MPS CAVOK 28/15 Q1018 NOSIG
ZJSY,2003-12-07 04:00,ZJSY 070400Z 06010MPS CAVOK 29/16 Q1017 NOSIG
ZJSY,2003-12-07 05:00,ZJSY 070500Z 07011MPS CAVOK 29/16 Q1016 NOSIG
ZJSY,2003-12-07 06:00,ZJSY 070600Z 07010MPS CAVOK 29/16 Q1015 NOSIG
ZJSY,2003-12-07 07:00,ZJSY 070700Z 07011MPS CAVOK 29/16 Q1014 NOSIG
ZJSY,2003-12-07 08:00,ZJSY 070800Z 08011MPS CAVOK 28/17 Q1014 NOSIG
ZJSY,2003-12-07 09:00,ZJSY 070900Z 08009G14MPS CAVOK 27/17 Q1014 NOSIG
ZJSY,2003-12-07 10:00,ZJSY 071000Z 07010MPS CAVOK 25/17 Q1015 NOSIG
ZJSY,2003-12-07 11:00,ZJSY 071100Z 07006MPS CAVOK 24/17 Q1016 NOSIG
ZJSY,2003-12-07 12:00,ZJSY 071200Z 06006MPS CAVOK 24/17 Q1017 NOSIG
ZJSY,2003-12-07 13:00,ZJSY 071300Z 06006MPS CAVOK 24/17 Q1018 NOSIG
ZJSY,2003-12-07 14:00,ZJSY 071400Z 06005MPS CAVOK 24/17 Q1018 NOSIG
ZJSY,2003-12-07 15:00,ZJSY 071500Z 06004MPS 9999 FEW015 24/18 Q1018 NOSIG
ZJSY,2003-12-07 16:00,ZJSY 071600Z 07005MPS CAVOK 24/18 Q1018 NOSIG
ZJSY,2003-12-07 17:00,ZJSY 071700Z 07005MPS CAVOK 23/18 Q1017 NOSIG
ZJSY,2003-12-07 18:00,ZJSY 071800Z 06006MPS CAVOK 23/18 Q1017 NOSIG
ZJSY,2003-12-07 19:00,ZJSY 071900Z 05007MPS CAVOK 24/18 Q1016 NOSIG
ZJSY,2003-12-07 20:00,ZJSY 072000Z AUTO 07009MPS //// // ////// 24/18 Q1015 NOSIG
ZJSY,2003-12-07 21:00,ZJSY 072100Z AUTO 06007MPS //// // ////// 23/18 Q1016 NOSIG
ZJSY,2003-12-07 22:00,ZJSY 072200Z 06007MPS CAVOK 23/18 Q1016 NOSIG
ZJSY,2003-12-07 23:00,ZJSY 072300Z 07007MPS CAVOK 24/19 Q1016 NOSIG
ZJSY,2003-12-08 00:00,ZJSY 080000Z 07006MPS 9999 FEW015 BKN100 24/19 Q1017 NOSIG
ZJSY,2003-12-08 01:00,ZJSY 080100Z 07008MPS CAVOK 25/19 Q1018 NOSIG
ZJSY,2003-12-08 02:00,ZJSY 080200Z 07008MPS 9999 FEW018 BKN260 27/19 Q1018 NOSIG
ZJSY,2003-12-08 03:00,ZJSY 080300Z 08009MPS 9999 FEW018 SCT260 28/20 Q1018 NOSIG
ZJSY,2003-12-08 04:00,ZJSY 080400Z 08010G15MPS 9999 SCT018 SCT260 27/19 Q1018 NOSIG
ZJSY,2003-12-08 05:00,ZJSY 080500Z 06009MPS 9999 BKN018 BKN260 28/20 Q1017 NOSIG
ZJSY,2003-12-08 06:00,ZJSY 080600Z 08009MPS 9999 SCT018 BKN260 28/20 Q1016 NOSIG
ZJSY,2003-12-08 07:00,ZJSY 080700Z 08009MPS 9999 BKN018 BKN066 27/19 Q1015 NOSIG
ZJSY,2003-12-08 08:00,ZJSY 080800Z 08008MPS 9999 BKN018 BKN100 26/19 Q1015 NOSIG
ZJSY,2003-12-08 09:00,ZJSY 080900Z 07007MPS 9999 SCT018 BKN066 26/19 Q1015 NOSIG
ZJSY,2003-12-08 10:00,ZJSY 081000Z 07008MPS 9999 SCT013 BKN060 25/19 Q1015 NOSIG
ZJSY,2003-12-08 11:00,ZJSY 081100Z 06006MPS 9999 SCT013 BKN060 25/19 Q1016 NOSIG
ZJSY,2003-12-08 12:00,ZJSY 081200Z 08005MPS 9999 SCT011 BKN060 25/19 Q1017 NOSIG
ZJSY,2003-12-08 13:00,ZJSY 081300Z 06006MPS 9999 SCT011 BKN066 25/19 Q1017 NOSIG
ZJSY,2003-12-08 14:00,ZJSY 081400Z 06006MPS 9999 FEW011 BKN066 25/19 Q1017 NOSIG
ZJSY,2003-12-08 15:00,ZJSY 081500Z 07007MPS CAVOK 25/19 Q1017 NOSIG
ZJSY,2003-12-08 16:00,ZJSY 081600Z 07007MPS 9999 FEW011 SCT066 24/19 Q1017 NOSIG
ZJSY,2003-12-08 17:00,ZJSY 081700Z 08006MPS 9999 SCT011 24/19 Q1017 NOSIG
ZJSY,2003-12-08 18:00,ZJSY 081800Z AUTO 08004MPS //// // ////// 24/19 Q1017 NOSIG
ZJSY,2003-12-08 19:00,ZJSY 081900Z AUTO 08006MPS //// // ////// 24/19 Q1016 NOSIG
ZJSY,2003-12-08 20:00,ZJSY 082000Z AUTO 08005MPS //// // ////// 24/19 Q1016 NOSIG
ZJSY,2003-12-08 21:00,ZJSY 082100Z AUTO 07006MPS //// // ////// 24/19 Q1016 NOSIG
ZJSY,2003-12-08 22:00,ZJSY 082200Z 07007MPS 9999 FEW011 SCT230 24/18 Q1016 NOSIG
ZJSY,2003-12-08 23:00,ZJSY 082300Z 07005MPS 9999 FEW011 BKN066 24/18 Q1017 NOSIG
ZJSY,2003-12-09 00:00,ZJSY 090000Z 07008MPS 9999 FEW011 BKN066 24/18 Q1017 NOSIG
ZJSY,2003-12-09 01:00,ZJSY 090100Z 06007MPS 9999 FEW011 BKN100 25/19 Q1018 NOSIG
ZJSY,2003-12-09 02:00,ZJSY 090200Z 07008MPS 9999 FEW011 SCT016 BKN110 26/19 Q1018 NOSIG
ZJSY,2003-12-09 03:00,ZJSY 090300Z 07011G16MPS 9999 SCT011 BKN016 BKN110 27/19 Q1018 NOSIG
ZJSY,2003-12-09 04:00,ZJSY 090400Z 07012MPS 9999 SCT011 BKN110 26/18 Q1018 NOSIG
ZJSY,2003-12-09 05:00,ZJSY 090500Z 06010MPS 9999 SCT012 SCT016 BKN110 27/18 Q1017 NOSIG
ZJSY,2003-12-09 06:00,ZJSY 090600Z 07009MPS 9999 SCT012 SCT016 BKN110 27/19 Q1016 NOSIG
ZJSY,2003-12-09 07:00,ZJSY 090700Z 07008MPS 9999 SCT012 SCT016 BKN110 27/18 Q1016 NOSIG
ZJSY,2003-12-09 08:00,ZJSY 090800Z 07008MPS 9999 SCT012 SCT016 BKN110 26/18 Q1016 NOSIG
ZJSY,2003-12-09 09:00,ZJSY 090900Z 07009MPS 9999 SCT012 SCT016 BKN110 26/18 Q1016 NOSIG
ZJSY,2003-12-09 10:00,ZJSY 091000Z 06005MPS 9999 SCT015 BKN110 25/18 Q1017 NOSIG
ZJSY,2003-12-09 11:00,ZJSY 091100Z 06006MPS 9999 SCT015 BKN110 24/17 Q1017 NOSIG
ZJSY,2003-12-09 12:00,ZJSY 091200Z 07004MPS 9999 SCT015 BKN110 24/17 Q1018 NOSIG
ZJSY,2003-12-09 13:00,ZJSY 091300Z 06004MPS 9999 SCT015 BKN110 24/17 Q1018 NOSIG
ZJSY,2003-12-09 14:00,ZJSY 091400Z 06003MPS 9999 SCT015 BKN110 24/17 Q1019 NOSIG
ZJSY,2003-12-09 15:00,ZJSY 091500Z 09002MPS 9999 SCT015 BKN110 24/18 Q1019 NOSIG
ZJSY,2003-12-09 16:00,ZJSY 091600Z 05005MPS 9999 SCT015 BKN110 24/17 Q1018 NOSIG
ZJSY,2003-12-09 17:00,ZJSY 091700Z 06006MPS 9999 SCT015 BKN110 24/17 Q1018 NOSIG
ZJSY,2003-12-09 18:00,ZJSY 091800Z AUTO 08003MPS //// // ////// 24/17 Q1018 NOSIG
ZJSY,2003-12-09 19:00,ZJSY 091900Z AUTO 04004MPS //// // ////// 24/17 Q1017 NOSIG
ZJSY,2003-12-09 20:00,ZJSY 092000Z AUTO 05005MPS //// // ////// 24/17 Q1017 NOSIG
ZJSY,2003-12-09 21:00,ZJSY 092100Z AUTO 04004MPS //// // ////// 23/17 Q1017 NOSIG
ZJSY,2003-12-09 22:00,ZJSY 092200Z 04003MPS 9999 FEW015 SCT020 BKN110 24/18 Q1017 NOSIG
ZJSY,2003-12-09 23:00,ZJSY 092300Z 06005MPS 9999 FEW015 SCT100 BKN260 24/17 Q1017 NOSIG
ZJSY,2003-12-10 00:00,ZJSY 100000Z 06003MPS 9999 SCT016 BKN260 24/18 Q1018 NOSIG
ZJSY,2003-12-10 01:00,ZJSY 100100Z 08005MPS 9999 FEW016 BKN100 25/18 Q1019 NOSIG
ZJSY,2003-12-10 02:00,ZJSY 100200Z 08009MPS 9999 FEW016 BKN260 25/18 Q1019 NOSIG
ZJSY,2003-12-10 03:00,ZJSY 100300Z 07009MPS 9999 SCT016 27/17 Q1019 NOSIG
ZJSY,2003-12-10 04:00,ZJSY 100400Z 08009MPS 9999 BKN016 26/17 Q1018 NOSIG
ZJSY,2003-12-10 05:00,ZJSY 100500Z 06009MPS 9999 FEW016 27/17 Q1017 NOSIG
ZJSY,2003-12-10 06:00,ZJSY 100600Z 06009MPS 9999 SCT016 27/16 Q1016 NOSIG
ZJSY,2003-12-10 07:00,ZJSY 100700Z 06008MPS 9999 FEW016 28/16 Q1016 NOSIG
ZJSY,2003-12-10 08:00,ZJSY 100800Z 06008MPS CAVOK 27/16 Q1015 NOSIG
ZJSY,2003-12-10 09:00,ZJSY 100900Z 07006MPS CAVOK 26/17 Q1015 NOSIG
ZJSY,2003-12-10 10:00,ZJSY 101000Z 08004MPS CAVOK 25/17 Q1016 NOSIG
ZJSY,2003-12-10 11:00,ZJSY 101100Z 07002MPS CAVOK 24/17 Q1017 NOSIG
ZJSY,2003-12-10 12:00,ZJSY 101200Z 05002MPS CAVOK 23/17 Q1017 NOSIG
ZJSY,2003-12-10 13:00,ZJSY 101300Z 06003MPS CAVOK 23/17 Q1018 NOSIG
ZJSY,2003-12-10 14:00,ZJSY 101400Z 09002MPS CAVOK 22/17 Q1018 NOSIG
ZJSY,2003-12-10 15:00,ZJSY 101500Z 09001MPS CAVOK 22/18 Q1018 NOSIG
ZJSY,2003-12-10 16:00,ZJSY 101600Z 32001MPS CAVOK 22/17 Q1018 NOSIG
ZJSY,2003-12-10 17:00,ZJSY 101700Z 16001MPS CAVOK 22/18 Q1017 NOSIG
ZJSY,2003-12-10 18:00,ZJSY 101800Z AUTO 00000MPS //// // ////// 22/18 Q1017 NOSIG
ZJSY,2003-12-10 19:00,ZJSY 101900Z AUTO 09001MPS //// // ////// 22/17 Q1017 NOSIG
ZJSY,2003-12-10 20:00,ZJSY 102000Z AUTO 32002MPS //// // ////// 21/18 Q1016 NOSIG
ZJSY,2003-12-10 21:00,ZJSY 102100Z AUTO 00000MPS //// // ////// 21/17 Q1016 NOSIG
ZJSY,2003-12-10 22:00,ZJSY 102200Z 00000MPS CAVOK 21/18 Q1016 NOSIG
ZJSY,2003-12-10 23:00,ZJSY 102300Z 10001MPS CAVOK 21/18 Q1017 NOSIG
ZJSY,2003-12-11 00:00,ZJSY 110000Z 02001MPS CAVOK 21/18 Q1017 NOSIG
ZJSY,2003-12-11 01:00,ZJSY 110100Z 07004MPS CAVOK 23/17 Q1018 NOSIG
ZJSY,2003-12-11 02:00,ZJSY 110200Z 06003MPS CAVOK 25/17 Q1018 NOSIG
ZJSY,2003-12-11 03:00,ZJSY 110300Z 09004MPS CAVOK 26/18 Q1018 NOSIG
ZJSY,2003-12-11 04:00,ZJSY 110400Z 11004MPS CAVOK 27/18 Q1017 NOSIG
ZJSY,2003-12-11 05:00,ZJSY 110500Z 15003MPS 9999 FEW016 28/18 Q1016 NOSIG
ZJSY,2003-12-11 06:00,ZJSY 110600Z 20004MPS 9999 SCT013 BKN016 26/19 Q1016 NOSIG
ZJSY,2003-12-11 07:00,ZJSY 110700Z 18002MPS 9999 SCT013 BKN016 26/19 Q1015 NOSIG
ZJSY,2003-12-11 08:00,ZJSY 110800Z 34002MPS 9999 FEW013 BKN016 26/19 Q1015 NOSIG
ZJSY,2003-12-11 09:00,ZJSY 110900Z 27003MPS 9999 SCT013 BKN016 25/19 Q1015 NOSIG
ZJSY,2003-12-11 10:00,ZJSY 111000Z 08004MPS 9999 BKN017 BKN040 24/17 Q1016 NOSIG
ZJSY,2003-12-11 11:00,ZJSY 111100Z 07002MPS 9999 BKN017 BKN040 23/17 Q1017 NOSIG
ZJSY,2003-12-11 12:00,ZJSY 111200Z 08004MPS 9999 BKN017 BKN040 22/17 Q1018 NOSIG
ZJSY,2003-12-11 13:00,ZJSY 111300Z 08004MPS 9999 BKN017 BKN040 22/17 Q1018 NOSIG
ZJSY,2003-12-11 14:00,ZJSY 111400Z 08005MPS 9999 BKN017 BKN040 22/16 Q1019 NOSIG
ZJSY,2003-12-11 15:00,ZJSY 111500Z 08003MPS 9999 BKN017 BKN040 21/16 Q1019 NOSIG
ZJSY,2003-12-11 16:00,ZJSY 111600Z 04002MPS 9999 SCT018 BKN260 20/15 Q1019 NOSIG
ZJSY,2003-12-11 17:00,ZJSY 111700Z 08004MPS 9999 SCT018 BKN260 19/15 Q1019 NOSIG
ZJSY,2003-12-11 18:00,ZJSY 111800Z 04002MPS 9999 SCT018 BKN260 18/14 Q1018 NOSIG
ZJSY,2003-12-11 19:00,ZJSY 111900Z AUTO 06003MPS //// // ////// 18/14 Q1018 NOSIG
ZJSY,2003-12-11 20:00,ZJSY 112000Z AUTO 35001MPS //// // ////// 18/13 Q1018 NOSIG
ZJSY,2003-12-11 21:00,ZJSY 112100Z AUTO 07001MPS //// // ////// 17/13 Q1018 NOSIG
ZJSY,2003-12-11 22:00,ZJSY 112200Z 34002MPS CAVOK 17/14 Q1018 NOSIG
ZJSY,2003-12-11 23:00,ZJSY 112300Z 02001MPS CAVOK 16/14 Q1019 NOSIG
ZJSY,2003-12-12 00:00,ZJSY 120000Z 35001MPS CAVOK 17/14 Q1019 NOSIG
ZJSY,2003-12-12 01:00,ZJSY 120100Z 00000MPS CAVOK 21/14 Q1020 NOSIG
ZJSY,2003-12-12 02:00,ZJSY 120200Z 07002MPS CAVOK 23/14 Q1020 NOSIG
ZJSY,2003-12-12 03:00,ZJSY 120300Z 05001MPS CAVOK 24/14 Q1020 NOSIG
ZJSY,2003-12-12 04:00,ZJSY 120400Z 12004MPS CAVOK 25/14 Q1019 NOSIG
ZJSY,2003-12-12 05:00,ZJSY 120500Z 14004MPS CAVOK 25/14 Q1018 NOSIG
ZJSY,2003-12-12 06:00,ZJSY 120600Z 20003MPS CAVOK 25/15 Q1017 NOSIG
ZJSY,2003-12-12 07:00,ZJSY 120700Z 20003MPS 9999 SCT016 SCT260 25/16 Q1017 NOSIG
ZJSY,2003-12-12 08:00,ZJSY 120800Z 22002MPS 9999 SCT016 SCT260 24/16 Q1016 NOSIG
ZJSY,2003-12-12 09:00,ZJSY 120900Z 24003MPS 9999 SCT016 SCT260 24/16 Q1017 NOSIG
ZJSY,2003-12-12 10:00,ZJSY 121000Z 27003MPS 9999 FEW016 BKN260 22/16 Q1017 NOSIG
ZJSY,2003-12-12 11:00,ZJSY 121100Z 29002MPS 9999 FEW016 BKN260 22/16 Q1018 NOSIG
ZJSY,2003-12-12 12:00,ZJSY 121200Z 36001MPS 9999 FEW016 BKN260 22/16 Q1019 NOSIG
ZJSY,2003-12-12 13:00,ZJSY 121300Z 08004MPS 9999 FEW016 SCT260 20/14 Q1020 NOSIG
ZJSY,2003-12-12 14:00,ZJSY 121400Z 08005MPS CAVOK 19/13 Q1020 NOSIG
ZJSY,2003-12-12 15:00,ZJSY 121500Z 08005MPS CAVOK 19/13 Q1020 NOSIG
ZJSY,2003-12-12 16:00,ZJSY 121600Z 06004MPS CAVOK 18/13 Q1020 NOSIG
ZJSY,2003-12-12 17:00,ZJSY 121700Z 02001MPS CAVOK 18/13 Q1020 NOSIG
ZJSY,2003-12-12 18:00,ZJSY 121800Z AUTO 04001MPS //// // ////// 18/13 Q1019 NOSIG
ZJSY,2003-12-12 19:00,ZJSY 121900Z AUTO 35001MPS //// // ////// 17/14 Q1019 NOSIG
ZJSY,2003-12-12 20:00,ZJSY 122000Z AUTO 00000MPS //// // ////// 18/13 Q1018 NOSIG
ZJSY,2003-12-12 21:00,ZJSY 122100Z AUTO 25001MPS //// // ////// 18/13 Q1019 NOSIG
ZJSY,2003-12-12 22:00,ZJSY 122200Z 06001MPS CAVOK 17/13 Q1019 NOSIG
ZJSY,2003-12-13 00:00,ZJSY 130000Z 33002MPS CAVOK 16/13 Q1020 NOSIG
ZJSY,2003-12-13 01:00,ZJSY 130100Z 13001MPS CAVOK 21/13 Q1021 NOSIG
ZJSY,2003-12-13 02:00,ZJSY 130200Z 03002MPS CAVOK 22/13 Q1021 NOSIG
ZJSY,2003-12-13 03:00,ZJSY 130300Z 04001MPS CAVOK 23/13 Q1021 NOSIG
ZJSY,2003-12-13 04:00,ZJSY 130400Z 04001MPS CAVOK 23/13 Q1021 NOSIG
ZJSY,2003-12-13 05:00,ZJSY 130500Z 22004MPS CAVOK 24/15 Q1019 NOSIG
ZJSY,2003-12-13 06:00,ZJSY 130600Z 25004MPS CAVOK 24/15 Q1018 NOSIG
ZJSY,2003-12-13 07:00,ZJSY 130700Z 21004MPS 9999 FEW018 24/16 Q1017 NOSIG
ZJSY,2003-12-13 08:00,ZJSY 130800Z 21003MPS 9999 SCT018 BKN043 23/16 Q1017 NOSIG
ZJSY,2003-12-13 09:00,ZJSY 130900Z 21002MPS 9999 FEW018 BKN046 23/16 Q1017 NOSIG
ZJSY,2003-12-13 10:00,ZJSY 131000Z 24002MPS 9999 SCT016 BKN046 23/16 Q1017 NOSIG
ZJSY,2003-12-13 11:00,ZJSY 131100Z 22001MPS 9999 SCT016 BKN046 22/16 Q1018 NOSIG
ZJSY,2003-12-13 12:00,ZJSY 131200Z 08004MPS 9999 SCT013 BKN046 21/12 Q1019 NOSIG
ZJSY,2003-12-13 13:00,ZJSY 131300Z 08006MPS 9999 SCT013 BKN046 20/12 Q1020 NOSIG
ZJSY,2003-12-13 14:00,ZJSY 131400Z 09005MPS 9999 SCT013 BKN046 19/12 Q1020 NOSIG
ZJSY,2003-12-13 15:00,ZJSY 131500Z 07006MPS 9999 FEW013 18/12 Q1020 NOSIG
ZJSY,2003-12-13 16:00,ZJSY 131600Z 04006MPS 9999 FEW013 19/11 Q1020 NOSIG
ZJSY,2003-12-13 17:00,ZJSY 131700Z 02005MPS 9999 FEW013 19/11 Q1019 NOSIG
ZJSY,2003-12-13 18:00,ZJSY 131800Z AUTO 36004MPS //// // ////// 20/11 Q1019 NOSIG
ZJSY,2003-12-13 19:00,ZJSY 131900Z AUTO 03002MPS //// // ////// 20/10 Q1018 NOSIG
ZJSY,2003-12-13 20:00,ZJSY 132000Z AUTO 02001MPS //// // ////// 18/11 Q1018 NOSIG
ZJSY,2003-12-13 21:00,ZJSY 132100Z AUTO 05002MPS //// // ////// 18/10 Q1018 NOSIG
ZJSY,2003-12-13 22:00,ZJSY 132200Z 03002MPS CAVOK 18/10 Q1019 NOSIG
ZJSY,2003-12-13 23:00,ZJSY 132300Z 07005MPS CAVOK 18/11 Q1019 NOSIG
ZJSY,2003-12-14 00:00,ZJSY 140000Z 06006MPS CAVOK 18/11 Q1020 NOSIG
ZJSY,2003-12-14 01:00,ZJSY 140100Z 05006MPS CAVOK 20/11 Q1021 NOSIG
ZJSY,2003-12-14 02:00,ZJSY 140200Z 06008MPS CAVOK 22/10 Q1021 NOSIG
ZJSY,2003-12-14 03:00,ZJSY 140300Z 06008MPS CAVOK 23/11 Q1021 NOSIG
ZJSY,2003-12-14 04:00,ZJSY 140400Z 06007G12MPS CAVOK 24/11 Q1020 NOSIG
ZJSY,2003-12-14 05:00,ZJSY 140500Z 08007MPS CAVOK 25/12 Q1019 NOSIG
ZJSY,2003-12-14 06:00,ZJSY 140600Z 06005MPS CAVOK 25/11 Q1018 NOSIG
ZJSY,2003-12-14 07:00,ZJSY 140700Z 08004MPS CAVOK 25/12 Q1017 NOSIG
ZJSY,2003-12-14 08:00,ZJSY 140800Z 11005MPS CAVOK 25/12 Q1016 NOSIG
ZJSY,2003-12-14 09:00,ZJSY 140900Z 09004MPS 7000 FEW016 BKN260 24/13 Q1016 NOSIG
ZJSY,2003-12-14 10:00,ZJSY 141000Z 08005MPS 7000 SCT016 BKN260 22/13 Q1017 NOSIG
ZJSY,2003-12-14 11:00,ZJSY 141100Z 04003MPS 8000 SCT016 BKN260 22/12 Q1018 NOSIG
ZJSY,2003-12-14 12:00,ZJSY 141200Z 08003MPS 8000 SCT016 BKN260 21/12 Q1018 NOSIG
ZJSY,2003-12-14 13:00,ZJSY 141300Z 07004MPS 8000 SCT016 BKN260 21/11 Q1019 NOSIG
ZJSY,2003-12-14 14:00,ZJSY 141400Z 09005MPS 8000 SCT016 BKN260 19/12 Q1020 NOSIG
ZJSY,2003-12-14 15:00,ZJSY 141500Z 06003MPS 9999 SCT016 BKN260 19/12 Q1019 NOSIG
ZJSY,2003-12-14 16:00,ZJSY 141600Z 08003MPS 9999 FEW016 BKN260 18/12 Q1019 NOSIG
ZJSY,2003-12-14 17:00,ZJSY 141700Z 06003MPS CAVOK 17/12 Q1019 NOSIG
ZJSY,2003-12-14 18:00,ZJSY 141800Z 01001MPS CAVOK 16/12 Q1018 NOSIG
ZJSY,2003-12-14 19:00,ZJSY 141900Z AUTO 09003MPS //// // ////// 16/12 Q1018 NOSIG
ZJSY,2003-12-14 20:00,ZJSY 142000Z AUTO 02001MPS //// // ////// 15/11 Q1018 NOSIG
ZJSY,2003-12-14 21:00,ZJSY 142100Z AUTO 12001MPS //// // ////// 14/11 Q1018 NOSIG
ZJSY,2003-12-14 22:00,ZJSY 142200Z 33003MPS CAVOK 14/11 Q1018 NOSIG
ZJSY,2003-12-14 23:00,ZJSY 142300Z 34002MPS CAVOK 15/10 Q1018 NOSIG
ZJSY,2003-12-15 00:00,ZJSY 150000Z 15001MPS 7000 NSC 16/11 Q1019 NOSIG
ZJSY,2003-12-15 01:00,ZJSY 150100Z 07003MPS CAVOK 20/11 Q1019 NOSIG
ZJSY,2003-12-15 02:00,ZJSY 150200Z 04003MPS CAVOK 22/11 Q1019 NOSIG
ZJSY,2003-12-15 03:00,ZJSY 150300Z 07005MPS CAVOK 24/11 Q1019 NOSIG
ZJSY,2003-12-15 04:00,ZJSY 150400Z 08005MPS CAVOK 26/10 Q1018 NOSIG
ZJSY,2003-12-15 05:00,ZJSY 150500Z 09005MPS CAVOK 25/10 Q1017 NOSIG
ZJSY,2003-12-15 06:00,ZJSY 150600Z 09003MPS CAVOK 25/11 Q1016 NOSIG
ZJSY,2003-12-15 07:00,ZJSY 150700Z 10004MPS CAVOK 25/10 Q1015 NOSIG
ZJSY,2003-12-15 08:00,ZJSY 150800Z 10004MPS CAVOK 25/12 Q1015 NOSIG
ZJSY,2003-12-15 09:00,ZJSY 150900Z 10004MPS CAVOK 24/12 Q1015 NOSIG
ZJSY,2003-12-15 10:00,ZJSY 151000Z 10003MPS CAVOK 22/12 Q1016 NOSIG
ZJSY,2003-12-15 11:00,ZJSY 151100Z 04004MPS CAVOK 21/12 Q1017 NOSIG
ZJSY,2003-12-15 12:00,ZJSY 151200Z 07004MPS CAVOK 20/13 Q1018 NOSIG
ZJSY,2003-12-15 13:00,ZJSY 151300Z 36002MPS CAVOK 19/13 Q1018 NOSIG
ZJSY,2003-12-15 14:00,ZJSY 151400Z 06004MPS CAVOK 19/12 Q1018 NOSIG
ZJSY,2003-12-15 15:00,ZJSY 151500Z 02001MPS CAVOK 18/12 Q1018 NOSIG
ZJSY,2003-12-15 16:00,ZJSY 151600Z 07004MPS CAVOK 18/12 Q1018 NOSIG
ZJSY,2003-12-15 17:00,ZJSY 151700Z 36001MPS CAVOK 17/13 Q1018 NOSIG
ZJSY,2003-12-15 18:00,ZJSY 151800Z AUTO 36001MPS //// // ////// 19/12 Q1017 NOSIG
ZJSY,2003-12-15 19:00,ZJSY 151900Z AUTO 08002MPS //// // ////// 18/12 Q1016 NOSIG
ZJSY,2003-12-15 20:00,ZJSY 152000Z AUTO 33003MPS //// // ////// 18/13 Q1016 NOSIG
ZJSY,2003-12-15 21:00,ZJSY 152100Z AUTO 31001MPS //// // ////// 18/13 Q1016 NOSIG
ZJSY,2003-12-15 22:00,ZJSY 152200Z 34001MPS 9999 BKN043 19/13 Q1017 NOSIG
ZJSY,2003-12-15 23:00,ZJSY 152300Z 04003MPS 7000 BKN043 20/12 Q1017 NOSIG
ZJSY,2003-12-16 00:00,ZJSY 160000Z 33002MPS 7000 NSC 19/14 Q1018 NOSIG
ZJSY,2003-12-16 01:00,ZJSY 160100Z 34001MPS 7000 NSC 20/13 Q1019 NOSIG
ZJSY,2003-12-16 02:00,ZJSY 160200Z 07002MPS 7000 NSC 22/13 Q1019 NOSIG
ZJSY,2003-12-16 03:00,ZJSY 160300Z 06002MPS 7000 NSC 24/13 Q1019 NOSIG
ZJSY,2003-12-16 04:00,ZJSY 160400Z 07001MPS 8000 NSC 24/14 Q1018 NOSIG
ZJSY,2003-12-16 05:00,ZJSY 160500Z 10003MPS 8000 NSC 25/14 Q1017 NOSIG
ZJSY,2003-12-16 06:00,ZJSY 160600Z 11004MPS 8000 SCT016 BKN100 24/15 Q1016 NOSIG
ZJSY,2003-12-16 07:00,ZJSY 160700Z 07005MPS 8000 FEW016 BKN100 25/14 Q1015 NOSIG
ZJSY,2003-12-16 08:00,ZJSY 160800Z 07005MPS 8000 FEW016 BKN100 24/14 Q1015 NOSIG
ZJSY,2003-12-16 09:00,ZJSY 160900Z 08004MPS 9999 FEW016 BKN100 23/14 Q1015 NOSIG
ZJSY,2003-12-16 10:00,ZJSY 161000Z 06004MPS 9999 FEW016 BKN100 22/14 Q1015 NOSIG
ZJSY,2003-12-16 11:00,ZJSY 161100Z 08003MPS CAVOK 21/14 Q1016 NOSIG
ZJSY,2003-12-16 12:00,ZJSY 161200Z 07004MPS CAVOK 20/14 Q1017 NOSIG
ZJSY,2003-12-16 13:00,ZJSY 161300Z 04002MPS CAVOK 20/14 Q1017 NOSIG
ZJSY,2003-12-16 14:00,ZJSY 161400Z 07003MPS CAVOK 19/14 Q1017 NOSIG
ZJSY,2003-12-16 15:00,ZJSY 161500Z 34002MPS CAVOK 19/15 Q1017 NOSIG
ZJSY,2003-12-16 17:00,ZJSY 161700Z 34001MPS CAVOK 19/15 Q1017 NOSIG
ZJSY,2003-12-16 18:00,ZJSY 161800Z 07002MPS CAVOK 20/14 Q1016 NOSIG
ZJSY,2003-12-16 19:00,ZJSY 161900Z AUTO 00000MPS //// // ////// 19/15 Q1016 NOSIG
ZJSY,2003-12-16 20:00,ZJSY 162000Z AUTO 00000MPS //// // ////// 20/15 Q1016 NOSIG
ZJSY,2003-12-16 21:00,ZJSY 162100Z AUTO 08003MPS //// // ////// 19/14 Q1016 NOSIG
ZJSY,2003-12-16 22:00,ZJSY 162200Z AUTO 34002MPS //// // ////// 18/14 Q1016 NOSIG
ZJSY,2003-12-16 23:00,ZJSY 162300Z 13001MPS CAVOK 18/14 Q1017 NOSIG
ZJSY,2003-12-17 00:00,ZJSY 170000Z 34001MPS 8000 NSC 18/14 Q1017 NOSIG
ZJSY,2003-12-17 01:00,ZJSY 170100Z 30001MPS 7000 NSC 20/15 Q1018 NOSIG
ZJSY,2003-12-17 02:00,ZJSY 170200Z 06002MPS 8000 NSC 22/14 Q1018 NOSIG
ZJSY,2003-12-17 03:00,ZJSY 170300Z 08003MPS 8000 NSC 24/13 Q1018 NOSIG
ZJSY,2003-12-17 04:00,ZJSY 170400Z 06002MPS 8000 NSC 25/12 Q1017 NOSIG
ZJSY,2003-12-17 05:00,ZJSY 170500Z 16003MPS CAVOK 25/14 Q1016 NOSIG
ZJSY,2003-12-17 06:00,ZJSY 170600Z 20004MPS CAVOK 25/14 Q1015 NOSIG
ZJSY,2003-12-17 07:00,ZJSY 170700Z 19003MPS CAVOK 25/16 Q1015 NOSIG
ZJSY,2003-12-17 08:00,ZJSY 170800Z 20002MPS CAVOK 25/15 Q1015 NOSIG
ZJSY,2003-12-17 09:00,ZJSY 170900Z 20002MPS 9999 FEW016 BKN260 24/15 Q1015 NOSIG
ZJSY,2003-12-17 10:00,ZJSY 171000Z 20002MPS 9999 SCT014 BKN050 24/16 Q1015 NOSIG
ZJSY,2003-12-17 11:00,ZJSY 171100Z 05003MPS 8000 -SHRA SCT014 BKN040 23/16 Q1016 NOSIG
ZJSY,2003-12-17 12:00,ZJSY 171200Z 07002MPS 9999 SCT015 BKN050 22/17 Q1016 NOSIG
ZJSY,2003-12-17 13:00,ZJSY 171300Z 06005MPS 9999 SCT015 BKN050 22/17 Q1017 NOSIG
ZJSY,2003-12-17 14:00,ZJSY 171400Z 06005MPS 9999 SCT015 BKN050 22/17 Q1017 NOSIG
ZJSY,2003-12-17 15:00,ZJSY 171500Z 04005MPS 9999 SCT015 BKN050 22/16 Q1017 NOSIG
ZJSY,2003-12-17 16:00,ZJSY 171600Z 06004MPS 9999 FEW015 BKN050 22/16 Q1017 NOSIG
ZJSY,2003-12-17 17:00,ZJSY 171700Z 00000MPS 9999 FEW015 BKN060 21/16 Q1017 NOSIG
ZJSY,2003-12-17 18:00,ZJSY 171800Z AUTO 34002MPS //// // ////// 20/16 Q1016 NOSIG
ZJSY,2003-12-17 19:00,ZJSY 171900Z AUTO 34002MPS //// // ////// 19/16 Q1016 NOSIG
ZJSY,2003-12-17 20:00,ZJSY 172000Z AUTO 33002MPS //// // ////// 18/16 Q1016 NOSIG
ZJSY,2003-12-17 21:00,ZJSY 172100Z AUTO 03002MPS //// // ////// 19/16 Q1016 NOSIG
ZJSY,2003-12-17 22:00,ZJSY 172200Z 33002MPS CAVOK 18/15 Q1016 NOSIG
ZJSY,2003-12-17 23:00,ZJSY 172300Z 33002MPS CAVOK 18/15 Q1017 NOSIG
ZJSY,2003-12-18 00:00,ZJSY 180000Z 33002MPS CAVOK 19/16 Q1018 NOSIG
ZJSY,2003-12-18 01:00,ZJSY 180100Z 05004MPS CAVOK 23/16 Q1018 NOSIG
ZJSY,2003-12-18 02:00,ZJSY 180200Z 05005MPS CAVOK 25/15 Q1019 NOSIG
ZJSY,2003-12-18 03:00,ZJSY 180300Z 07003MPS CAVOK 26/15 Q1019 NOSIG
ZJSY,2003-12-18 04:00,ZJSY 180400Z 09003MPS CAVOK 27/15 Q1018 NOSIG
ZJSY,2003-12-18 05:00,ZJSY 180500Z 07002MPS CAVOK 27/15 Q1017 NOSIG
ZJSY,2003-12-18 06:00,ZJSY 180600Z 20003MPS 9999 FEW020 SCT260 26/17 Q1016 NOSIG
ZJSY,2003-12-18 07:00,ZJSY 180700Z 19003MPS 9999 FEW020 SCT053 26/19 Q1016 NOSIG
ZJSY,2003-12-18 14:00,ZJSY 181400Z 10003MPS 9999 SCT016 BKN230 22/17 Q1021 NOSIG
ZJSY,2003-12-18 15:00,ZJSY 181500Z 08005MPS 9999 SCT013 BKN230 22/17 Q1021 NOSIG
ZJSY,2003-12-18 16:00,ZJSY 181600Z 07005MPS 9999 SCT013 BKN230 22/15 Q1021 NOSIG
ZJSY,2003-12-18 17:00,ZJSY 181700Z 06004MPS 9999 SCT013 BKN230 22/13 Q1021 NOSIG
ZJSY,2003-12-18 18:00,ZJSY 181800Z 06002MPS 9999 SCT013 BKN230 21/12 Q1021 NOSIG
ZJSY,2003-12-18 19:00,ZJSY 181900Z 07002MPS 9999 FEW013 BKN230 21/11 Q1020 NOSIG
ZJSY,2003-12-18 20:00,ZJSY 182000Z AUTO 04002MPS //// // ////// 20/10 Q1020 NOSIG
ZJSY,2003-12-18 21:00,ZJSY 182100Z AUTO 01002MPS //// // ////// 19/11 Q1020 NOSIG
ZJSY,2003-12-18 22:00,ZJSY 182200Z 06002MPS CAVOK 18/11 Q1021 NOSIG
ZJSY,2003-12-18 23:00,ZJSY 182300Z 08003MPS CAVOK 19/11 Q1021 NOSIG
ZJSY,2003-12-19 00:00,ZJSY 190000Z 08005MPS 4000 HZ NSC 19/10 Q1022 NOSIG
ZJSY,2003-12-19 01:00,ZJSY 190100Z 07006MPS 4000 HZ NSC 19/09 Q1023 NOSIG
ZJSY,2003-12-19 02:00,ZJSY 190200Z 07005MPS 4000 HZ NSC 20/09 Q1024 NOSIG
ZJSY,2003-12-19 03:00,ZJSY 190300Z 08006MPS 4000 HZ NSC 21/07 Q1024 NOSIG
ZJSY,2003-12-19 04:00,ZJSY 190400Z 09005MPS 5000 HZ NSC 22/07 Q1023 NOSIG
ZJSY,2003-12-19 05:00,ZJSY 190500Z 09005MPS 5000 HZ NSC 22/06 Q1022 NOSIG
ZJSY,2003-12-19 06:00,ZJSY 190600Z 08006MPS 5000 HZ NSC 24/06 Q1021 NOSIG
ZJSY,2003-12-19 07:00,ZJSY 190700Z 08005MPS 5000 HZ NSC 23/06 Q1020 NOSIG
ZJSY,2003-12-19 08:00,ZJSY 190800Z 10004MPS 5000 HZ SKC 22/08 Q1020 NOSIG
ZJSY,2003-12-19 09:00,ZJSY 190900Z 11003MPS 5000 HZ SKC 21/09 Q1020 NOSIG
ZJSY,2003-12-19 10:00,ZJSY 191000Z 08007MPS 5000 HZ SKC 19/09 Q1021 NOSIG
ZJSY,2003-12-19 11:00,ZJSY 191100Z 08006MPS 5000 HZ SKC 17/08 Q1022 NOSIG
ZJSY,2003-12-19 12:00,ZJSY 191200Z 06006MPS 5000 HZ SKC 17/08 Q1024 NOSIG
ZJSY,2003-12-19 13:00,ZJSY 191300Z 07006MPS 5000 HZ SKC 16/08 Q1025 NOSIG
ZJSY,2003-12-19 14:00,ZJSY 191400Z 06007MPS 7000 SKC 16/07 Q1025 NOSIG
ZJSY,2003-12-19 15:00,ZJSY 191500Z 07004MPS 7000 SKC 15/06 Q1026 NOSIG
ZJSY,2003-12-19 16:00,ZJSY 191600Z 05001MPS 8000 SKC 15/06 Q1026 NOSIG
ZJSY,2003-12-19 17:00,ZJSY 191700Z 03003MPS 8000 SKC 15/06 Q1026 NOSIG
ZJSY,2003-12-19 18:00,ZJSY 191800Z AUTO 03003MPS //// // ////// 15/06 Q1026 NOSIG
ZJSY,2003-12-19 19:00,ZJSY 191900Z AUTO 03003MPS //// // ////// 15/06 Q1026 NOSIG
ZJSY,2003-12-19 20:00,ZJSY 192000Z AUTO 03003MPS //// // ////// 15/06 Q1026 NOSIG
ZJSY,2003-12-19 21:00,ZJSY 192100Z AUTO 03003MPS //// // ////// 15/06 Q1026 NOSIG
ZJSY,2003-12-19 22:00,ZJSY 192200Z 03003MPS CAVOK 15/05 Q1024 NOSIG
ZJSY,2003-12-19 23:00,ZJSY 192300Z 02003MPS CAVOK 15/05 Q1024 NOSIG
ZJSY,2003-12-20 00:00,ZJSY 200000Z 33002MPS CAVOK 14/07 Q1025 NOSIG
ZJSY,2003-12-20 01:00,ZJSY 200100Z 02002MPS CAVOK 17/05 Q1026 NOSIG
ZJSY,2003-12-20 02:00,ZJSY 200200Z 03003MPS CAVOK 19/06 Q1026 NOSIG
ZJSY,2003-12-20 03:00,ZJSY 200300Z 09002MPS CAVOK 21/06 Q1026 NOSIG
ZJSY,2003-12-20 04:00,ZJSY 200400Z 10003MPS CAVOK 21/07 Q1025 NOSIG
ZJSY,2003-12-20 05:00,ZJSY 200500Z 13002MPS CAVOK 22/07 Q1024 NOSIG
ZJSY,2003-12-20 06:00,ZJSY 200600Z 24003MPS CAVOK 21/08 Q1023 NOSIG
ZJSY,2003-12-20 07:00,ZJSY 200700Z 24004MPS 8000 NSC 21/09 Q1022 NOSIG
ZJSY,2003-12-20 08:00,ZJSY 200800Z 24003MPS 8000 NSC 21/10 Q1021 NOSIG
ZJSY,2003-12-20 09:00,ZJSY 200900Z 23002MPS 8000 NSC 21/09 Q1022 NOSIG
ZJSY,2003-12-20 10:00,ZJSY 201000Z 26001MPS 8000 NSC 19/09 Q1022 NOSIG
ZJSY,2003-12-20 11:00,ZJSY 201100Z 33001MPS 7000 NSC 18/11 Q1022 NOSIG
ZJSY,2003-12-20 12:00,ZJSY 201200Z 04002MPS 7000 NSC 17/10 Q1023 NOSIG
ZJSY,2003-12-20 13:00,ZJSY 201300Z 06004MPS 7000 NSC 17/09 Q1024 NOSIG
ZJSY,2003-12-20 14:00,ZJSY 201400Z 02001MPS 7000 NSC 16/10 Q1024 NOSIG
ZJSY,2003-12-20 15:00,ZJSY 201500Z 00000MPS 7000 NSC 15/10 Q1024 NOSIG
ZJSY,2003-12-20 16:00,ZJSY 201600Z 34001MPS 7000 NSC 14/11 Q1024 NOSIG
ZJSY,2003-12-20 17:00,ZJSY 201700Z 13001MPS 7000 NSC 14/10 Q1024 NOSIG
ZJSY,2003-12-20 18:00,ZJSY 201800Z AUTO 35001MPS //// // ////// 15/11 Q1023 NOSIG
ZJSY,2003-12-20 19:00,ZJSY 201900Z AUTO 34003MPS //// // ////// 16/09 Q1023 NOSIG
ZJSY,2003-12-20 20:00,ZJSY 202000Z AUTO 04001MPS //// // ////// 17/10 Q1022 NOSIG
ZJSY,2003-12-20 21:00,ZJSY 202100Z AUTO 05001MPS //// // ////// 16/09 Q1022 NOSIG
ZJSY,2003-12-20 22:00,ZJSY 202200Z 34001MPS 6000 SCT015 SCT230 16/10 Q1022 NOSIG
ZJSY,2003-12-20 23:00,ZJSY 202300Z 00000MPS 6000 FEW015 BKN230 16/09 Q1023 NOSIG
ZJSY,2003-12-21 00:00,ZJSY 210000Z 35002MPS 6000 FEW016 SCT230 15/11 Q1023 NOSIG
ZJSY,2003-12-21 01:00,ZJSY 210100Z 17001MPS 6000 NSC 18/10 Q1024 NOSIG
ZJSY,2003-12-21 02:00,ZJSY 210200Z 14001MPS 6000 NSC 21/10 Q1024 NOSIG
ZJSY,2003-12-21 03:00,ZJSY 210300Z 20002MPS 6000 NSC 21/11 Q1024 NOSIG
ZJSY,2003-12-21 04:00,ZJSY 210400Z 21003MPS CAVOK 21/11 Q1023 NOSIG
ZJSY,2003-12-21 05:00,ZJSY 210500Z 20002MPS CAVOK 22/12 Q1022 NOSIG
ZJSY,2003-12-21 06:00,ZJSY 210600Z 21003MPS CAVOK 22/12 Q1021 NOSIG
ZJSY,2003-12-21 07:00,ZJSY 210700Z 22002MPS 9999 SCT040 BKN100 22/12 Q1020 NOSIG
ZJSY,2003-12-21 08:00,ZJSY 210800Z 24002MPS 9999 SCT040 BKN100 22/12 Q1019 NOSIG
ZJSY,2003-12-21 09:00,ZJSY 210900Z 24001MPS 9999 BKN040 BKN100 22/12 Q1020 NOSIG
ZJSY,2003-12-21 10:00,ZJSY 211000Z 34001MPS 6000 BKN040 BKN100 21/13 Q1021 NOSIG
ZJSY,2003-12-21 11:00,ZJSY 211100Z 08004MPS 5000 HZ FEW016 BKN040 BKN100 21/12 Q1021 NOSIG
ZJSY,2003-12-21 12:00,ZJSY 211200Z 08004MPS 5000 HZ FEW016 SCT040 BKN100 20/12 Q1022 NOSIG
ZJSY,2003-12-21 13:00,ZJSY 211300Z 06004MPS 5000 HZ FEW016 SCT040 BKN100 20/12 Q1022 NOSIG
ZJSY,2003-12-21 14:00,ZJSY 211400Z 07003MPS 6000 FEW016 SCT040 BKN100 19/12 Q1022 NOSIG
ZJSY,2003-12-21 15:00,ZJSY 211500Z 36001MPS 6000 FEW016 SCT040 BKN100 19/12 Q1022 NOSIG
ZJSY,2003-12-21 16:00,ZJSY 211600Z 04001MPS 7000 NSC 18/12 Q1022 NOSIG
ZJSY,2003-12-21 17:00,ZJSY 211700Z 33001MPS 7000 NSC 16/12 Q1022 NOSIG
ZJSY,2003-12-21 18:00,ZJSY 211800Z 34002MPS 7000 NSC 15/12 Q1021 NOSIG
ZJSY,2003-12-21 19:00,ZJSY 211900Z 00000MPS 7000 NSC 15/12 Q1021 NOSIG
ZJSY,2003-12-21 20:00,ZJSY 212000Z 33002MPS 7000 NSC 15/12 Q1020 NOSIG
ZJSY,2003-12-21 21:00,ZJSY 212100Z 10001MPS 7000 NSC 15/11 Q1020 NOSIG
ZJSY,2003-12-21 22:00,ZJSY 212200Z 33001MPS 7000 NSC 16/12 Q1020 NOSIG
ZJSY,2003-12-21 23:00,ZJSY 212300Z 35001MPS CAVOK 16/12 Q1020 NOSIG
ZJSY,2003-12-22 00:00,ZJSY 220000Z 36002MPS CAVOK 15/12 Q1021 NOSIG
ZJSY,2003-12-22 01:00,ZJSY 220100Z 08001MPS CAVOK 19/12 Q1022 NOSIG
ZJSY,2003-12-22 02:00,ZJSY 220200Z 04001MPS CAVOK 23/10 Q1022 NOSIG
ZJSY,2003-12-22 03:00,ZJSY 220300Z 18001MPS CAVOK 24/11 Q1022 NOSIG
ZJSY,2003-12-22 04:00,ZJSY 220400Z 22002MPS CAVOK 24/12 Q1021 NOSIG
ZJSY,2003-12-22 05:00,ZJSY 220500Z 20003MPS CAVOK 24/12 Q1020 NOSIG
ZJSY,2003-12-22 06:00,ZJSY 220600Z 23003MPS CAVOK 25/13 Q1019 NOSIG
ZJSY,2003-12-22 07:00,ZJSY 220700Z 22004MPS CAVOK 24/14 Q1018 NOSIG
ZJSY,2003-12-22 08:00,ZJSY 220800Z 20003MPS CAVOK 24/14 Q1018 NOSIG
ZJSY,2003-12-22 09:00,ZJSY 220900Z 18003MPS 9999 FEW016 23/15 Q1018 NOSIG
ZJSY,2003-12-22 10:00,ZJSY 221000Z 20002MPS 9999 FEW016 22/15 Q1019 NOSIG
ZJSY,2003-12-22 11:00,ZJSY 221100Z 00000MPS 9999 FEW016 BKN260 21/15 Q1019 NOSIG
ZJSY,2003-12-22 12:00,ZJSY 221200Z 08003MPS 9999 FEW016 BKN260 21/16 Q1019 NOSIG
ZJSY,2003-12-22 13:00,ZJSY 221300Z 06002MPS 9999 FEW016 BKN260 20/15 Q1020 NOSIG
ZJSY,2003-12-22 14:00,ZJSY 221400Z 07002MPS 9999 FEW016 BKN260 20/15 Q1020 NOSIG
ZJSY,2003-12-22 15:00,ZJSY 221500Z 35001MPS CAVOK 19/15 Q1020 NOSIG
ZJSY,2003-12-22 16:00,ZJSY 221600Z 35002MPS CAVOK 18/15 Q1020 NOSIG
ZJSY,2003-12-22 17:00,ZJSY 221700Z 35002MPS CAVOK 18/15 Q1020 NOSIG
ZJSY,2003-12-22 18:00,ZJSY 221800Z 35001MPS CAVOK 17/15 Q1019 NOSIG
ZJSY,2003-12-22 19:00,ZJSY 221900Z 00000MPS CAVOK 17/15 Q1019 NOSIG
ZJSY,2003-12-22 20:00,ZJSY 222000Z AUTO 33003MPS //// // ////// 17/15 Q1018 NOSIG
ZJSY,2003-12-22 21:00,ZJSY 222100Z AUTO 34002MPS //// // ////// 16/14 Q1018 NOSIG
ZJSY,2003-12-22 22:00,ZJSY 222200Z 34002MPS CAVOK 16/14 Q1018 NOSIG
ZJSY,2003-12-22 23:00,ZJSY 222300Z 34002MPS 8000 NSC 16/14 Q1018 NOSIG
ZJSY,2003-12-23 00:00,ZJSY 230000Z 00000MPS 5000 BR SKC 17/14 Q1018 NOSIG
ZJSY,2003-12-23 01:00,ZJSY 230100Z 00000MPS 5000 BR NSC 20/15 Q1019 NOSIG
ZJSY,2003-12-23 02:00,ZJSY 230200Z 12002MPS 8000 NSC 22/14 Q1020 NOSIG
ZJSY,2003-12-23 03:00,ZJSY 230300Z 11003MPS CAVOK 24/15 Q1020 NOSIG
ZJSY,2003-12-23 04:00,ZJSY 230400Z 17003MPS CAVOK 24/16 Q1019 NOSIG
ZJSY,2003-12-23 05:00,ZJSY 230500Z 19003MPS 9999 FEW018 25/15 Q1018 NOSIG
ZJSY,2003-12-23 06:00,ZJSY 230600Z 20003MPS 9999 FEW018 25/15 Q1017 NOSIG
ZJSY,2003-12-23 07:00,ZJSY 230700Z 19003MPS 9999 FEW018 25/16 Q1017 NOSIG
ZJSY,2003-12-23 08:00,ZJSY 230800Z 20002MPS 9999 FEW018 25/16 Q1016 NOSIG
ZJSY,2003-12-23 09:00,ZJSY 230900Z 15002MPS 9999 FEW018 24/17 Q1016 NOSIG
ZJSY,2003-12-23 10:00,ZJSY 231000Z 08005MPS 9999 FEW018 BKN230 23/16 Q1017 NOSIG
ZJSY,2003-12-23 11:00,ZJSY 231100Z 07004MPS 9999 FEW016 SCT230 21/16 Q1017 NOSIG
ZJSY,2003-12-23 12:00,ZJSY 231200Z 08003MPS 9999 FEW013 SCT230 21/17 Q1018 NOSIG
ZJSY,2003-12-23 13:00,ZJSY 231300Z 08003MPS 9999 FEW013 SCT230 21/17 Q1018 NOSIG
ZJSY,2003-12-23 14:00,ZJSY 231400Z 06003MPS 9999 FEW013 SCT230 20/17 Q1018 NOSIG
ZJSY,2003-12-23 15:00,ZJSY 231500Z 06003MPS 9999 FEW013 SCT230 20/16 Q1018 NOSIG
ZJSY,2003-12-23 16:00,ZJSY 231600Z 00000MPS CAVOK 18/15 Q1017 NOSIG
ZJSY,2003-12-23 17:00,ZJSY 231700Z 00000MPS CAVOK 18/15 Q1017 NOSIG
ZJSY,2003-12-23 18:00,ZJSY 231800Z 35002MPS CAVOK 17/15 Q1017 NOSIG
ZJSY,2003-12-23 19:00,ZJSY 231900Z AUTO 34003MPS //// // ////// 17/15 Q1017 NOSIG
ZJSY,2003-12-23 20:00,ZJSY 232000Z AUTO 34002MPS //// // ////// 17/15 Q1016 NOSIG
ZJSY,2003-12-23 21:00,ZJSY 232100Z AUTO 35001MPS //// // ////// 17/15 Q1016 NOSIG
ZJSY,2003-12-23 22:00,ZJSY 232200Z 34002MPS CAVOK 16/15 Q1016 NOSIG
ZJSY,2003-12-23 23:00,ZJSY 232300Z 34003MPS CAVOK 16/14 Q1017 NOSIG
ZJSY,2003-12-24 00:00,ZJSY 240000Z 34002MPS CAVOK 17/15 Q1017 NOSIG
ZJSY,2003-12-24 01:00,ZJSY 240100Z 00000MPS CAVOK 21/17 Q1018 NOSIG
ZJSY,2003-12-24 02:00,ZJSY 240200Z 08002MPS CAVOK 23/16 Q1018 NOSIG
ZJSY,2003-12-24 03:00,ZJSY 240300Z 09002MPS CAVOK 25/16 Q1018 NOSIG
ZJSY,2003-12-24 04:00,ZJSY 240400Z 18003MPS CAVOK 25/16 Q1017 NOSIG
ZJSY,2003-12-24 05:00,ZJSY 240500Z 19004MPS 9999 FEW016 24/16 Q1016 NOSIG
ZJSY,2003-12-24 06:00,ZJSY 240600Z 18003MPS 9999 FEW016 25/16 Q1015 NOSIG
ZJSY,2003-12-24 07:00,ZJSY 240700Z 17003MPS CAVOK 25/17 Q1014 NOSIG
ZJSY,2003-12-24 08:00,ZJSY 240800Z 18003MPS CAVOK 24/17 Q1014 NOSIG
ZJSY,2003-12-24 09:00,ZJSY 240900Z 17002MPS CAVOK 24/17 Q1015 NOSIG
ZJSY,2003-12-24 10:00,ZJSY 241000Z 16002MPS CAVOK 23/17 Q1015 NOSIG
ZJSY,2003-12-24 11:00,ZJSY 241100Z 15002MPS CAVOK 22/18 Q1015 NOSIG
ZJSY,2003-12-24 12:00,ZJSY 241200Z 09003MPS CAVOK 21/17 Q1016 NOSIG
ZJSY,2003-12-24 13:00,ZJSY 241300Z 06003MPS CAVOK 21/17 Q1016 NOSIG
ZJSY,2003-12-24 14:00,ZJSY 241400Z 04002MPS CAVOK 20/17 Q1017 NOSIG
ZJSY,2003-12-24 15:00,ZJSY 241500Z 04002MPS CAVOK 21/17 Q1017 NOSIG
ZJSY,2003-12-24 16:00,ZJSY 241600Z 05002MPS CAVOK 19/16 Q1017 NOSIG
ZJSY,2003-12-24 17:00,ZJSY 241700Z 02002MPS CAVOK 19/16 Q1016 NOSIG
ZJSY,2003-12-24 18:00,ZJSY 241800Z 07001MPS CAVOK 19/16 Q1016 NOSIG
ZJSY,2003-12-24 19:00,ZJSY 241900Z 00000MPS CAVOK 19/16 Q1016 NOSIG
ZJSY,2003-12-24 20:00,ZJSY 242000Z 31001MPS CAVOK 18/15 Q1016 NOSIG
ZJSY,2003-12-24 21:00,ZJSY 242100Z 31002MPS CAVOK 17/15 Q1015 NOSIG
ZJSY,2003-12-24 22:00,ZJSY 242200Z 32001MPS CAVOK 17/15 Q1016 NOSIG
ZJSY,2003-12-24 23:00,ZJSY 242300Z 33003MPS CAVOK 17/15 Q1016 NOSIG
ZJSY,2003-12-25 00:00,ZJSY 250000Z 33002MPS CAVOK 18/15 Q1017 NOSIG
ZJSY,2003-12-25 01:00,ZJSY 250100Z 33001MPS CAVOK 21/17 Q1018 NOSIG
ZJSY,2003-12-25 02:00,ZJSY 250200Z 18001MPS CAVOK 24/16 Q1018 NOSIG
ZJSY,2003-12-25 03:00,ZJSY 250300Z 20002MPS CAVOK 25/17 Q1018 NOSIG
ZJSY,2003-12-25 04:00,ZJSY 250400Z 18003MPS 9999 FEW020 25/17 Q1017 NOSIG
ZJSY,2003-12-25 05:00,ZJSY 250500Z 20003MPS 9999 FEW020 26/17 Q1016 NOSIG
ZJSY,2003-12-25 06:00,ZJSY 250600Z 19003MPS 9999 FEW020 BKN060 24/17 Q1016 NOSIG
ZJSY,2003-12-25 07:00,ZJSY 250700Z 18002MPS 9999 FEW020 BKN060 24/17 Q1015 NOSIG
ZJSY,2003-12-25 08:00,ZJSY 250800Z 20001MPS 9999 FEW020 BKN060 24/18 Q1015 NOSIG
ZJSY,2003-12-25 09:00,ZJSY 250900Z 28002MPS 9999 FEW015 BKN060 24/18 Q1015 NOSIG
ZJSY,2003-12-25 10:00,ZJSY 251000Z 32002MPS 9999 SCT015 SCT040 BKN060 23/17 Q1016 NOSIG
ZJSY,2003-12-25 11:00,ZJSY 251100Z 36001MPS 9999 SCT015 SCT040 BKN060 23/18 Q1016 NOSIG
ZJSY,2003-12-25 12:00,ZJSY 251200Z 07002MPS 9999 SCT015 SCT040 BKN060 23/18 Q1017 NOSIG
ZJSY,2003-12-25 13:00,ZJSY 251300Z 07002MPS 9999 SCT015 SCT040 BKN060 22/18 Q1017 NOSIG
ZJSY,2003-12-25 14:00,ZJSY 251400Z 08002MPS 9999 SCT015 SCT040 BKN060 22/18 Q1017 NOSIG
ZJSY,2003-12-25 15:00,ZJSY 251500Z 08002MPS 9999 SCT016 BKN043 21/18 Q1017 NOSIG
ZJSY,2003-12-25 16:00,ZJSY 251600Z 02001MPS 9999 SCT016 BKN043 21/18 Q1016 NOSIG
ZJSY,2003-12-25 17:00,ZJSY 251700Z 07001MPS 9999 SCT018 BKN260 21/18 Q1016 NOSIG
ZJSY,2003-12-25 18:00,ZJSY 251800Z 00000MPS 9999 SCT018 BKN260 21/18 Q1016 NOSIG
ZJSY,2003-12-25 19:00,ZJSY 251900Z AUTO 00000MPS //// // ////// 20/17 Q1016 NOSIG
ZJSY,2003-12-25 20:00,ZJSY 252000Z AUTO 00000MPS //// // ////// 20/18 Q1016 NOSIG
ZJSY,2003-12-25 21:00,ZJSY 252100Z AUTO 00000MPS //// // ////// 20/18 Q1016 NOSIG
ZJSY,2003-12-25 22:00,ZJSY 252200Z 00000MPS 9999 SCT018 BKN260 20/17 Q1017 NOSIG
ZJSY,2003-12-25 23:00,ZJSY 252300Z 00000MPS 9999 FEW018 BKN043 20/17 Q1017 NOSIG
ZJSY,2003-12-26 00:00,ZJSY 260000Z 00000MPS CAVOK 19/17 Q1018 NOSIG
ZJSY,2003-12-26 01:00,ZJSY 260100Z 00000MPS CAVOK 23/17 Q1019 NOSIG
ZJSY,2003-12-26 02:00,ZJSY 260200Z 03002MPS CAVOK 25/11 Q1019 NOSIG
ZJSY,2003-12-26 03:00,ZJSY 260300Z 02007MPS CAVOK 26/11 Q1018 NOSIG
ZJSY,2003-12-26 04:00,ZJSY 260400Z 04005MPS CAVOK 28/11 Q1018 NOSIG
ZJSY,2003-12-26 05:00,ZJSY 260500Z 04005MPS 9999 FEW016 28/11 Q1017 NOSIG
ZJSY,2003-12-26 06:00,ZJSY 260600Z 07004MPS 9999 SCT016 27/09 Q1016 NOSIG
ZJSY,2003-12-26 07:00,ZJSY 260700Z 06005MPS 9999 FEW016 28/09 Q1016 NOSIG
ZJSY,2003-12-26 08:00,ZJSY 260800Z 04003MPS 6000 FEW016 28/10 Q1016 NOSIG
ZJSY,2003-12-26 09:00,ZJSY 260900Z 22001MPS 6000 SCT016 25/16 Q1017 NOSIG
ZJSY,2003-12-26 10:00,ZJSY 261000Z 34002MPS 6000 NSC 24/15 Q1017 NOSIG
ZJSY,2003-12-26 11:00,ZJSY 261100Z 09003MPS 5000 BR NSC 22/16 Q1018 NOSIG
ZJSY,2003-12-26 12:00,ZJSY 261200Z 07003MPS 5000 BR NSC 22/15 Q1019 NOSIG
ZJSY,2003-12-26 13:00,ZJSY 261300Z 06004MPS 5000 BR NSC 21/14 Q1019 NOSIG
ZJSY,2003-12-26 15:00,ZJSY 261500Z 21001MPS 6000 SKC 19/14 Q1019 NOSIG
ZJSY,2003-12-26 16:00,ZJSY 261600Z 34002MPS 6000 SKC 18/14 Q1019 NOSIG
ZJSY,2003-12-26 17:00,ZJSY 261700Z 00000MPS 6000 SKC 18/13 Q1019 NOSIG
ZJSY,2003-12-26 18:00,ZJSY 261800Z AUTO 31003MPS //// // ////// 16/13 Q1019 NOSIG
ZJSY,2003-12-26 19:00,ZJSY 261900Z AUTO 06004MPS //// // ////// 19/14 Q1019 NOSIG
ZJSY,2003-12-26 20:00,ZJSY 262000Z AUTO 06006G11MPS //// // ////// 20/14 Q1019 NOSIG
ZJSY,2003-12-26 21:00,ZJSY 262100Z AUTO 06005G10MPS //// // ////// 20/12 Q1019 NOSIG
ZJSY,2003-12-26 22:00,ZJSY 262200Z 06006MPS 4000 BR NSC 20/12 Q1020 NOSIG
ZJSY,2003-12-26 23:00,ZJSY 262300Z 06005MPS 4000 HZ NSC 20/11 Q1021 NOSIG
ZJSY,2003-12-27 00:00,ZJSY 270000Z 06007MPS 4000 HZ NSC 19/11 Q1022 NOSIG
ZJSY,2003-12-27 01:00,ZJSY 270100Z 05007MPS 5000 HZ NSC 20/10 Q1022 NOSIG
ZJSY,2003-12-27 02:00,ZJSY 270200Z 04008MPS 5000 HZ NSC 21/11 Q1023 NOSIG
ZJSY,2003-12-27 03:00,ZJSY 270300Z 05008MPS 5000 HZ SKC 23/10 Q1023 NOSIG
ZJSY,2003-12-27 04:00,ZJSY 270400Z 05008MPS 5000 HZ SKC 24/11 Q1022 NOSIG
ZJSY,2003-12-27 05:00,ZJSY 270500Z 06008MPS 5000 HZ SKC 25/10 Q1020 NOSIG
ZJSY,2003-12-27 06:00,ZJSY 270600Z 07009MPS 5000 HZ SKC 26/10 Q1019 NOSIG
ZJSY,2003-12-27 07:00,ZJSY 270700Z 08007MPS 5000 HZ SKC 26/12 Q1019 NOSIG
ZJSY,2003-12-27 08:00,ZJSY 270800Z 08008MPS 5000 HZ SKC 25/12 Q1019 NOSIG
ZJSY,2003-12-27 09:00,ZJSY 270900Z 08006MPS 5000 HZ SKC 24/12 Q1019 NOSIG
ZJSY,2003-12-27 10:00,ZJSY 271000Z 06006MPS 5000 HZ SKC 22/11 Q1020 NOSIG
ZJSY,2003-12-27 11:00,ZJSY 271100Z 06007MPS 5000 HZ SKC 21/12 Q1021 NOSIG
ZJSY,2003-12-27 12:00,ZJSY 271200Z 03005MPS 5000 HZ SKC 21/12 Q1022 NOSIG
ZJSY,2003-12-27 13:00,ZJSY 271300Z 03004MPS 5000 HZ SKC 21/11 Q1022 NOSIG
ZJSY,2003-12-27 14:00,ZJSY 271400Z 35002MPS 5000 HZ SKC 20/11 Q1022 NOSIG
ZJSY,2003-12-27 15:00,ZJSY 271500Z 08001MPS 5000 HZ SKC 19/11 Q1022 NOSIG
ZJSY,2003-12-27 16:00,ZJSY 271600Z 04002MPS 5000 HZ SKC 19/11 Q1022 NOSIG
ZJSY,2003-12-27 17:00,ZJSY 271700Z 03003MPS 5000 HZ SKC 19/12 Q1022 NOSIG
ZJSY,2003-12-27 18:00,ZJSY 271800Z 03001MPS 5000 HZ SKC 19/12 Q1022 NOSIG
ZJSY,2003-12-27 19:00,ZJSY 271900Z 05002MPS 5000 HZ SKC 19/12 Q1021 NOSIG
ZJSY,2003-12-27 20:00,ZJSY 272000Z AUTO 06003MPS //// // ////// 19/12 Q1021 NOSIG
ZJSY,2003-12-27 21:00,ZJSY 272100Z AUTO 05005MPS //// // ////// 19/12 Q1021 NOSIG
ZJSY,2003-12-27 22:00,ZJSY 272200Z 05005MPS CAVOK 19/12 Q1021 NOSIG
ZJSY,2003-12-27 23:00,ZJSY 272300Z 04005MPS CAVOK 19/12 Q1022 NOSIG
ZJSY,2003-12-28 00:00,ZJSY 280000Z 05004MPS 8000 SKC 19/12 Q1023 NOSIG
ZJSY,2003-12-28 01:00,ZJSY 280100Z 06006MPS CAVOK 21/12 Q1023 NOSIG
ZJSY,2003-12-28 02:00,ZJSY 280200Z 05006MPS CAVOK 22/12 Q1024 NOSIG
ZJSY,2003-12-28 03:00,ZJSY 280300Z 07009MPS CAVOK 24/12 Q1024 NOSIG
ZJSY,2003-12-28 04:00,ZJSY 280400Z 06007MPS CAVOK 25/12 Q1023 NOSIG
ZJSY,2003-12-28 05:00,ZJSY 280500Z 07007MPS CAVOK 26/10 Q1021 NOSIG
ZJSY,2003-12-28 06:00,ZJSY 280600Z 08007MPS CAVOK 26/10 Q1020 NOSIG
ZJSY,2003-12-28 07:00,ZJSY 280700Z 08006MPS CAVOK 27/09 Q1019 NOSIG
ZJSY,2003-12-28 08:00,ZJSY 280800Z 10005MPS CAVOK 26/13 Q1019 NOSIG
ZJSY,2003-12-28 09:00,ZJSY 280900Z 09006MPS CAVOK 25/14 Q1020 NOSIG
ZJSY,2003-12-28 10:00,ZJSY 281000Z 08004MPS CAVOK 23/13 Q1020 NOSIG
ZJSY,2003-12-28 11:00,ZJSY 281100Z 06004MPS CAVOK 22/14 Q1021 NOSIG
ZJSY,2003-12-28 12:00,ZJSY 281200Z 07004MPS CAVOK 21/14 Q1021 NOSIG
ZJSY,2003-12-28 13:00,ZJSY 281300Z 06004MPS CAVOK 21/14 Q1022 NOSIG
ZJSY,2003-12-28 14:00,ZJSY 281400Z 34002MPS CAVOK 20/13 Q1022 NOSIG
ZJSY,2003-12-28 15:00,ZJSY 281500Z 27001MPS CAVOK 19/13 Q1022 NOSIG
ZJSY,2003-12-28 16:00,ZJSY 281600Z 33002MPS CAVOK 17/13 Q1021 NOSIG
ZJSY,2003-12-28 17:00,ZJSY 281700Z 36001MPS CAVOK 18/14 Q1021 NOSIG
ZJSY,2003-12-28 18:00,ZJSY 281800Z 10002MPS CAVOK 18/15 Q1021 NOSIG
ZJSY,2003-12-28 19:00,ZJSY 281900Z AUTO 34003MPS //// // ////// 18/15 Q1020 NOSIG
ZJSY,2003-12-28 20:00,ZJSY 282000Z AUTO 30001MPS //// // ////// 19/15 Q1020 NOSIG
ZJSY,2003-12-28 21:00,ZJSY 282100Z AUTO 05002MPS //// // ////// 20/15 Q1020 NOSIG
ZJSY,2003-12-28 22:00,ZJSY 282200Z 02002MPS 9999 FEW017 20/15 Q1021 NOSIG
ZJSY,2003-12-28 23:00,ZJSY 282300Z 06003MPS 7000 SCT011 BKN040 21/16 Q1021 NOSIG
ZJSY,2003-12-29 00:00,ZJSY 290000Z 11001MPS 9999 SCT011 BKN050 21/16 Q1022 NOSIG
ZJSY,2003-12-29 01:00,ZJSY 290100Z 10002MPS 9999 FEW015 OVC050 21/16 Q1022 NOSIG
ZJSY,2003-12-29 02:00,ZJSY 290200Z 10002MPS 9999 -RA SCT015 SCT026 OVC050 21/16 Q1022 NOSIG
ZJSY,2003-12-29 03:00,ZJSY 290300Z 10002MPS 9999 SCT015 SCT033 OVC050 21/16 Q1022 NOSIG
ZJSY,2003-12-29 04:00,ZJSY 290400Z 06006MPS 9999 FEW016 BKN033 BKN100 24/15 Q1022 NOSIG
ZJSY,2003-12-29 05:00,ZJSY 290500Z 05006MPS 9999 FEW016 BKN033 BKN100 24/15 Q1021 NOSIG
ZJSY,2003-12-29 06:00,ZJSY 290600Z 07006MPS 9999 FEW016 BKN033 BKN100 24/16 Q1020 NOSIG
ZJSY,2003-12-29 07:00,ZJSY 290700Z 09005MPS 9999 SCT018 SCT043 BKN100 24/17 Q1019 NOSIG
ZJSY,2003-12-29 08:00,ZJSY 290800Z 07008MPS 9999 SCT018 SCT043 BKN100 23/15 Q1019 NOSIG
ZJSY,2003-12-29 09:00,ZJSY 290900Z 07007MPS 9999 FEW014 BKN043 BKN110 23/15 Q1019 NOSIG
ZJSY,2003-12-29 10:00,ZJSY 291000Z 04004MPS CAVOK 23/15 Q1020 NOSIG
ZJSY,2003-12-29 11:00,ZJSY 291100Z 08002MPS CAVOK 23/15 Q1021 NOSIG
ZJSY,2003-12-29 12:00,ZJSY 291200Z 08002MPS CAVOK 21/16 Q1021 NOSIG
ZJSY,2003-12-29 13:00,ZJSY 291300Z 00000MPS CAVOK 21/17 Q1022 NOSIG
ZJSY,2003-12-29 14:00,ZJSY 291400Z 00000MPS 9999 SCT040 BKN230 22/16 Q1022 NOSIG
ZJSY,2003-12-29 15:00,ZJSY 291500Z 00000MPS 9999 SCT040 BKN230 21/16 Q1022 NOSIG
ZJSY,2003-12-29 16:00,ZJSY 291600Z 00000MPS 9999 SCT040 BKN230 21/16 Q1021 NOSIG
ZJSY,2003-12-29 17:00,ZJSY 291700Z 06001MPS 9999 SCT040 BKN230 21/16 Q1021 NOSIG
ZJSY,2003-12-29 18:00,ZJSY 291800Z AUTO 07002MPS //// // ////// 21/16 Q1020 NOSIG
ZJSY,2003-12-29 19:00,ZJSY 291900Z AUTO 08003MPS //// // ////// 21/16 Q1019 NOSIG
ZJSY,2003-12-29 20:00,ZJSY 292000Z AUTO 07003MPS //// // ////// 22/16 Q1019 NOSIG
ZJSY,2003-12-29 21:00,ZJSY 292100Z AUTO 04002MPS //// // ////// 22/16 Q1019 NOSIG
ZJSY,2003-12-29 22:00,ZJSY 292200Z 07003MPS 9999 SCT040 BKN230 22/16 Q1020 NOSIG
ZJSY,2003-12-29 23:00,ZJSY 292300Z 04003MPS 9999 BKN043 BKN230 22/16 Q1020 NOSIG
ZJSY,2003-12-30 00:00,ZJSY 300000Z 07002MPS 9999 BKN043 BKN230 22/16 Q1020 NOSIG
ZJSY,2003-12-30 01:00,ZJSY 300100Z 07002MPS CAVOK 24/17 Q1021 NOSIG
ZJSY,2003-12-30 02:00,ZJSY 300200Z 05005MPS CAVOK 25/17 Q1021 NOSIG
ZJSY,2003-12-30 03:00,ZJSY 300300Z 05004MPS 9999 FEW016 BKN120 26/17 Q1021 NOSIG
ZJSY,2003-12-30 04:00,ZJSY 300400Z 09004MPS 9999 SCT016 27/17 Q1020 NOSIG
ZJSY,2003-12-30 05:00,ZJSY 300500Z 09005MPS 9999 SCT016 26/18 Q1019 NOSIG
ZJSY,2003-12-30 06:00,ZJSY 300600Z 10005MPS 9999 SCT016 SCT230 26/17 Q1018 NOSIG
ZJSY,2003-12-30 07:00,ZJSY 300700Z 09004MPS 9999 SCT016 SCT230 26/17 Q1017 NOSIG
ZJSY,2003-12-30 08:00,ZJSY 300800Z 08005MPS 9999 SCT016 SCT230 25/18 Q1017 NOSIG
ZJSY,2003-12-30 09:00,ZJSY 300900Z 10004MPS 9999 BKN016 SCT100 25/18 Q1017 NOSIG
ZJSY,2003-12-30 10:00,ZJSY 301000Z 11002MPS 9999 BKN016 SCT100 24/18 Q1018 NOSIG
ZJSY,2003-12-30 11:00,ZJSY 301100Z 08004MPS 9999 BKN016 SCT100 23/18 Q1019 NOSIG
ZJSY,2003-12-30 12:00,ZJSY 301200Z 06003MPS 9999 BKN016 SCT100 23/18 Q1019 NOSIG
ZJSY,2003-12-30 13:00,ZJSY 301300Z 06002MPS 9999 BKN016 22/18 Q1020 NOSIG
ZJSY,2003-12-30 14:00,ZJSY 301400Z 04003MPS 9999 BKN016 22/18 Q1020 NOSIG
ZJSY,2003-12-30 15:00,ZJSY 301500Z 05003MPS 9999 BKN016 22/18 Q1020 NOSIG
ZJSY,2003-12-30 16:00,ZJSY 301600Z 04003MPS 9999 SCT018 22/18 Q1019 NOSIG
ZJSY,2003-12-30 17:00,ZJSY 301700Z 04002MPS 9999 -SHRA BKN016 BKN230 21/18 Q1019 NOSIG
ZJSY,2003-12-30 18:00,ZJSY 301800Z AUTO 02001MPS //// // ////// 21/18 Q1019 NOSIG
ZJSY,2003-12-30 19:00,ZJSY 301900Z AUTO 05001MPS //// // ////// 21/17 Q1018 NOSIG
ZJSY,2003-12-30 20:00,ZJSY 302000Z AUTO 05001MPS //// // ////// 21/18 Q1018 NOSIG
ZJSY,2003-12-30 21:00,ZJSY 302100Z AUTO 04001MPS //// // ////// 21/17 Q1018 NOSIG
ZJSY,2003-12-30 22:00,ZJSY 302200Z 07002MPS 9999 BKN016 BKN043 21/17 Q1018 NOSIG
ZJSY,2003-12-30 23:00,ZJSY 302300Z 08003MPS 9999 BKN040 21/17 Q1019 NOSIG
