station,valid,metar
ZJSY,2006-01-01 00:00,ZJSY 010000Z VRB01MPS 9000 FEW016 21/19 Q1018 NOSIG
ZJSY,2006-01-01 01:00,ZJSY 010100Z VRB01MPS CAVOK 23/20 Q1018 NOSIG
ZJSY,2006-01-01 02:00,ZJSY 010200Z 09002MPS 040V140 CAVOK 25/19 Q1019 NOSIG
ZJSY,2006-01-01 03:00,ZJSY 010300Z 06003MPS 360V110 9999 FEW016 27/19 Q1019 NOSIG
ZJSY,2006-01-01 04:00,ZJSY 010400Z 09005MPS 060V120 9999 FEW016 BKN043 26/19 Q1018 NOSIG
ZJSY,2006-01-01 05:00,ZJSY 010500Z 09005MPS 050V120 9999 FEW016 BKN043 26/19 Q1017 NOSIG
ZJSY,2006-01-01 06:00,ZJSY 010600Z 09005MPS 9999 FEW016 BKN043 26/19 Q1016 NOSIG
ZJSY,2006-01-01 07:00,ZJSY 010700Z 09006MPS 9999 FEW016 26/20 Q1016 NOSIG
ZJSY,2006-01-01 08:00,ZJSY 010800Z 09006MPS 9999 FEW020 SCT053 26/19 Q1015 NOSIG
ZJSY,2006-01-01 09:00,ZJSY 010900Z 08007MPS 9999 FEW020 BKN053 25/18 Q1015 NOSIG
ZJSY,2006-01-01 10:00,ZJSY 011000Z 08006MPS 9999 FEW020 BKN053 24/18 Q1016 NOSIG
ZJSY,2006-01-01 11:00,ZJSY 011100Z 07004MPS 9999 FEW018 BKN043 23/18 Q1016 NOSIG
ZJSY,2006-01-01 12:00,ZJSY 011200Z 06004MPS 010V080 CAVOK 22/18 Q1017 NOSIG
ZJSY,2006-01-01 13:00,ZJSY 011300Z 08004MPS CAVOK 22/18 Q1017 NOSIG
ZJSY,2006-01-01 14:00,ZJSY 011400Z 09003MPS 060V140 CAVOK 21/18 Q1017 NOSIG
ZJSY,2006-01-01 15:00,ZJSY 011500Z 07005MPS CAVOK 21/17 Q1017 NOSIG
ZJSY,2006-01-01 16:00,ZJSY 011600Z 09004MPS 9999 FEW015 21/17 Q1018 NOSIG
ZJSY,2006-01-01 17:00,ZJSY 011700Z 02003MPS 9999 FEW015 23/17 Q1017 NOSIG
ZJSY,2006-01-01 18:00,ZJSY 011800Z 03002MPS 9999 FEW015 23/17 Q1017 NOSIG
ZJSY,2006-01-01 19:00,ZJSY 011900Z VRB01MPS 9999 FEW015 23/17 Q1017 NOSIG
ZJSY,2006-01-01 20:00,ZJSY 012000Z 04001MPS CAVOK 23/17 Q1016 NOSIG
ZJSY,2006-01-01 21:00,ZJSY 012100Z 08001MPS CAVOK 22/17 Q1016 NOSIG
ZJSY,2006-01-01 22:00,ZJSY 012200Z VRB01MPS 9999 FEW018 21/17 Q1016 NOSIG
ZJSY,2006-01-01 23:00,ZJSY 012300Z 10002MPS 9999 FEW018 SCT050 22/17 Q1017 NOSIG
ZJSY,2006-01-02 00:00,ZJSY 020000Z 00000MPS 9999 FEW018 SCT050 21/17 Q1017 NOSIG
ZJSY,2006-01-02 01:00,ZJSY 020100Z 10004MPS CAVOK 24/18 Q1018 NOSIG
ZJSY,2006-01-02 02:00,ZJSY 020200Z 11003MPS 070V130 CAVOK 25/18 Q1018 NOSIG
ZJSY,2006-01-02 03:00,ZJSY 020300Z 11004MPS CAVOK 26/18 Q1018 NOSIG
ZJSY,2006-01-02 04:00,ZJSY 020400Z 10006MPS 9999 FEW018 27/18 Q1017 NOSIG
ZJSY,2006-01-02 05:00,ZJSY 020500Z 08007MPS 9999 FEW018 27/18 Q1016 NOSIG
ZJSY,2006-01-02 06:00,ZJSY 020600Z 08007MPS 9999 SCT020 28/18 Q1015 NOSIG
ZJSY,2006-01-02 07:00,ZJSY 020700Z 06006MPS 040V100 9999 SCT020 27/18 Q1015 NOSIG
ZJSY,2006-01-02 08:00,ZJSY 020800Z 08006MPS 9999 FEW020 27/18 Q1014 NOSIG
ZJSY,2006-01-02 09:00,ZJSY 020900Z 10005MPS 9999 FEW020 26/19 Q1014 NOSIG
ZJSY,2006-01-02 10:00,ZJSY 021000Z 08005MPS 9999 FEW020 25/18 Q1014 NOSIG
ZJSY,2006-01-02 11:00,ZJSY 021100Z 09004MPS 9999 FEW018 23/18 Q1015 NOSIG
ZJSY,2006-01-02 12:00,ZJSY 021200Z 09003MPS 9999 FEW018 23/18 Q1015 NOSIG
ZJSY,2006-01-02 13:00,ZJSY 021300Z 08003MPS 9999 FEW018 SCT066 22/18 Q1016 NOSIG
ZJSY,2006-01-02 14:00,ZJSY 021400Z 07003MPS 9999 BKN066 22/18 Q1015 NOSIG
ZJSY,2006-01-02 15:00,ZJSY 021500Z 08003MPS 9999 BKN066 22/17 Q1015 NOSIG
ZJSY,2006-01-02 16:00,ZJSY 021600Z 07003MPS 9999 SCT066 21/17 Q1015 NOSIG
ZJSY,2006-01-02 17:00,ZJSY 021700Z 08003MPS CAVOK 20/16 Q1015 NOSIG
ZJSY,2006-01-02 18:00,ZJSY 021800Z 06001MPS CAVOK 20/16 Q1014 NOSIG
ZJSY,2006-01-02 19:00,ZJSY 021900Z 08003MPS CAVOK 19/16 Q1014 NOSIG
ZJSY,2006-01-02 20:00,ZJSY 022000Z AUTO 07002MPS //// // ////// 19/15 Q1014 NOSIG
ZJSY,2006-01-02 21:00,ZJSY 022100Z 05003MPS CAVOK 20/14 Q1014 NOSIG
ZJSY,2006-01-02 22:00,ZJSY 022200Z VRB01MPS CAVOK 19/13 Q1014 NOSIG
ZJSY,2006-01-02 23:00,ZJSY 022300Z VRB01MPS CAVOK 21/14 Q1015 NOSIG
ZJSY,2006-01-03 00:00,ZJSY 030000Z 00000MPS CAVOK 18/14 Q1015 NOSIG
ZJSY,2006-01-03 01:00,ZJSY 030100Z 07002MPS 360V120 CAVOK 23/16 Q1016 NOSIG
ZJSY,2006-01-03 02:00,ZJSY 030200Z 08006MPS 8000 NSC 25/17 Q1017 NOSIG
ZJSY,2006-01-03 03:00,ZJSY 030300Z 08007MPS 050V120 8000 NSC 26/17 Q1016 NOSIG
ZJSY,2006-01-03 04:00,ZJSY 030400Z 09006MPS CAVOK 26/17 Q1015 NOSIG
ZJSY,2006-01-03 05:00,ZJSY 030500Z 09006MPS CAVOK 27/17 Q1014 NOSIG
ZJSY,2006-01-03 06:00,ZJSY 030600Z 09006MPS 070V130 CAVOK 28/16 Q1013 NOSIG
ZJSY,2006-01-03 07:00,ZJSY 030700Z 08007MPS CAVOK 28/16 Q1012 NOSIG
ZJSY,2006-01-03 08:00,ZJSY 030800Z 09006MPS 060V130 CAVOK 28/15 Q1011 NOSIG
ZJSY,2006-01-03 09:00,ZJSY 030900Z 10005MPS CAVOK 26/17 Q1012 NOSIG
ZJSY,2006-01-03 10:00,ZJSY 031000Z 09005MPS CAVOK 25/16 Q1012 NOSIG
ZJSY,2006-01-03 11:00,ZJSY 031100Z 10004MPS CAVOK 23/17 Q1012 NOSIG
ZJSY,2006-01-03 12:00,ZJSY 031200Z 08004MPS CAVOK 22/17 Q1013 NOSIG
ZJSY,2006-01-03 13:00,ZJSY 031300Z 06004MPS CAVOK 22/17 Q1013 NOSIG
ZJSY,2006-01-03 14:00,ZJSY 031400Z 08003MPS CAVOK 21/17 Q1013 NOSIG
ZJSY,2006-01-03 15:00,ZJSY 031500Z 08002MPS CAVOK 21/17 Q1013 NOSIG
ZJSY,2006-01-03 16:00,ZJSY 031600Z 06002MPS CAVOK 21/18 Q1013 NOSIG
ZJSY,2006-01-03 17:00,ZJSY 031700Z 05003MPS CAVOK 21/18 Q1013 NOSIG
ZJSY,2006-01-03 18:00,ZJSY 031800Z 06003MPS CAVOK 21/18 Q1012 NOSIG
ZJSY,2006-01-03 19:00,ZJSY 031900Z AUTO 05002MPS //// // ////// 21/18 Q1012 NOSIG
ZJSY,2006-01-03 20:00,ZJSY 032000Z AUTO 09001MPS //// // ////// 21/18 Q1011 NOSIG
ZJSY,2006-01-03 21:00,ZJSY 032100Z 08001MPS CAVOK 20/18 Q1011 NOSIG
ZJSY,2006-01-03 22:00,ZJSY 032200Z 04001MPS CAVOK 20/17 Q1011 NOSIG
ZJSY,2006-01-03 23:00,ZJSY 032300Z 00000MPS 9999 SCT016 20/18 Q1012 NOSIG
ZJSY,2006-01-04 00:00,ZJSY 040000Z 00000MPS 9999 FEW020 BKN050 21/18 Q1012 NOSIG
ZJSY,2006-01-04 01:00,ZJSY 040100Z 08002MPS 060V120 9999 SCT016 24/19 Q1013 NOSIG
ZJSY,2006-01-04 02:00,ZJSY 040200Z 09004MPS 060V120 9999 FEW016 25/19 Q1014 NOSIG
ZJSY,2006-01-04 03:00,ZJSY 040300Z 11003MPS 060V140 9999 SCT016 26/19 Q1014 NOSIG
ZJSY,2006-01-04 04:00,ZJSY 040400Z 14003MPS 100V190 9999 FEW016 27/19 Q1013 NOSIG
ZJSY,2006-01-04 05:00,ZJSY 040500Z 15004MPS 110V180 9999 FEW016 27/20 Q1011 NOSIG
ZJSY,2006-01-04 06:00,ZJSY 040600Z 16004MPS CAVOK 26/20 Q1011 NOSIG
ZJSY,2006-01-04 07:00,ZJSY 040700Z 15004MPS 110V190 CAVOK 26/20 Q1010 NOSIG
ZJSY,2006-01-04 08:00,ZJSY 040800Z 15004MPS 120V180 CAVOK 26/20 Q1010 NOSIG
ZJSY,2006-01-04 09:00,ZJSY 040900Z 14003MPS 100V180 CAVOK 26/20 Q1010 NOSIG
ZJSY,2006-01-04 10:00,ZJSY 041000Z 12002MPS CAVOK 25/19 Q1011 NOSIG
ZJSY,2006-01-04 11:00,ZJSY 041100Z 10003MPS CAVOK 24/19 Q1011 NOSIG
ZJSY,2006-01-04 12:00,ZJSY 041200Z 07003MPS CAVOK 23/19 Q1012 NOSIG
ZJSY,2006-01-04 13:00,ZJSY 041300Z 07004MPS CAVOK 23/19 Q1012 NOSIG
ZJSY,2006-01-04 14:00,ZJSY 041400Z 06003MPS CAVOK 23/19 Q1012 NOSIG
ZJSY,2006-01-04 15:00,ZJSY 041500Z VRB01MPS CAVOK 22/18 Q1012 NOSIG
ZJSY,2006-01-04 16:00,ZJSY 041600Z 00000MPS CAVOK 21/18 Q1012 NOSIG
ZJSY,2006-01-04 17:00,ZJSY 041700Z 07003MPS CAVOK 21/18 Q1012 NOSIG
ZJSY,2006-01-04 18:00,ZJSY 041800Z 07002MPS CAVOK 21/18 Q1012 NOSIG
ZJSY,2006-01-04 19:00,ZJSY 041900Z 06002MPS CAVOK 21/18 Q1012 NOSIG
ZJSY,2006-01-04 21:00,ZJSY 042100Z 06003MPS CAVOK 22/19 Q1012 NOSIG
ZJSY,2006-01-04 22:00,ZJSY 042200Z 07003MPS CAVOK 22/19 Q1013 NOSIG
ZJSY,2006-01-04 23:00,ZJSY 042300Z 07004MPS 9999 FEW015 BKN043 23/19 Q1014 NOSIG
ZJSY,2006-01-05 00:00,ZJSY 050000Z 08003MPS 9999 SCT015 BKN043 23/20 Q1015 NOSIG
ZJSY,2006-01-05 01:00,ZJSY 050100Z 08005MPS 9999 FEW016 SCT060 25/20 Q1015 NOSIG
ZJSY,2006-01-05 02:00,ZJSY 050200Z 06004MPS 040V100 9999 FEW018 26/20 Q1016 NOSIG
ZJSY,2006-01-05 03:00,ZJSY 050300Z 08005MPS 050V120 9999 FEW018 BKN060 26/20 Q1016 NOSIG
ZJSY,2006-01-05 04:00,ZJSY 050400Z 11004MPS 9999 SCT018 26/21 Q1015 NOSIG
ZJSY,2006-01-05 05:00,ZJSY 050500Z 11005MPS 080V140 9999 SCT018 27/21 Q1014 NOSIG
ZJSY,2006-01-05 06:00,ZJSY 050600Z 10005MPS 070V130 9999 BKN018 28/21 Q1013 NOSIG
ZJSY,2006-01-05 07:00,ZJSY 050700Z 10005MPS 070V140 9999 SCT018 SCT053 28/20 Q1012 NOSIG
ZJSY,2006-01-05 08:00,ZJSY 050800Z 12003MPS 080V150 9999 BKN018 SCT053 26/20 Q1012 NOSIG
ZJSY,2006-01-05 09:00,ZJSY 050900Z 09005MPS 9999 BKN013 BKN053 26/20 Q1013 NOSIG
ZJSY,2006-01-05 10:00,ZJSY 051000Z 08005MPS 9999 SCT013 BKN053 25/19 Q1013 NOSIG
ZJSY,2006-01-05 11:00,ZJSY 051100Z 08006MPS 9999 BKN013 BKN053 24/20 Q1014 NOSIG
ZJSY,2006-01-05 12:00,ZJSY 051200Z 09005MPS 9999 SCT013 BKN053 24/19 Q1015 NOSIG
ZJSY,2006-01-05 13:00,ZJSY 051300Z 08005MPS 9999 SCT013 BKN053 24/19 Q1015 NOSIG
ZJSY,2006-01-05 14:00,ZJSY 051400Z 08006MPS 9999 SCT013 OVC066 24/19 Q1016 NOSIG
ZJSY,2006-01-05 15:00,ZJSY 051500Z 08006MPS 9999 SCT013 OVC066 23/19 Q1016 NOSIG
ZJSY,2006-01-05 16:00,ZJSY 051600Z 08006MPS 9999 FEW013 OVC066 23/19 Q1016 NOSIG
ZJSY,2006-01-05 17:00,ZJSY 051700Z 06006MPS 9999 FEW013 OVC066 23/18 Q1016 NOSIG
ZJSY,2006-01-05 18:00,ZJSY 051800Z 06006MPS 9999 FEW013 OVC066 23/18 Q1016 NOSIG
ZJSY,2006-01-05 19:00,ZJSY 051900Z 06006MPS 9999 OVC066 23/17 Q1016 NOSIG
ZJSY,2006-01-05 20:00,ZJSY 052000Z 05006MPS 9999 OVC066 23/17 Q1015 NOSIG
ZJSY,2006-01-05 21:00,ZJSY 052100Z 05007MPS 9999 FEW016 23/17 Q1016 NOSIG
ZJSY,2006-01-05 22:00,ZJSY 052200Z 05007MPS 9999 FEW016 23/17 Q1016 NOSIG
ZJSY,2006-01-05 23:00,ZJSY 052300Z 05007MPS 9999 FEW016 23/16 Q1017 NOSIG
ZJSY,2006-01-06 00:00,ZJSY 060000Z 05006MPS 9999 FEW016 BKN060 23/16 Q1018 NOSIG
ZJSY,2006-01-06 01:00,ZJSY 060100Z 05008MPS CAVOK 23/16 Q1018 NOSIG
ZJSY,2006-01-06 02:00,ZJSY 060200Z 05010MPS CAVOK 25/15 Q1018 NOSIG
ZJSY,2006-01-06 03:00,ZJSY 060300Z 05010MPS CAVOK 25/15 Q1018 NOSIG
ZJSY,2006-01-06 04:00,ZJSY 060400Z AUTO 04016KT 6SM 26/15 A3006 RMK T02600150 IEM_DS3505
ZJSY,2006-01-06 05:00,ZJSY 060500Z 05006MPS 360V090 9999 FEW016 27/15 Q1017 NOSIG
ZJSY,2006-01-06 06:00,ZJSY 060600Z 06007MPS 9999 FEW016 26/14 Q1016 NOSIG
ZJSY,2006-01-06 07:00,ZJSY 060700Z 05006MPS 030V090 CAVOK 26/14 Q1016 NOSIG
ZJSY,2006-01-06 08:00,ZJSY 060800Z 05007MPS 9999 FEW016 25/14 Q1016 NOSIG
ZJSY,2006-01-06 09:00,ZJSY 060900Z 05006MPS 9999 SCT016 24/14 Q1016 NOSIG
ZJSY,2006-01-06 10:00,ZJSY 061000Z 06006MPS 9999 SCT016 22/13 Q1017 NOSIG
ZJSY,2006-01-06 11:00,ZJSY 061100Z 07007MPS 9999 SCT013 BKN053 21/13 Q1018 NOSIG
ZJSY,2006-01-06 12:00,ZJSY 061200Z 07008MPS 9999 SCT013 BKN066 20/12 Q1019 NOSIG
ZJSY,2006-01-06 13:00,ZJSY 061300Z 07006MPS 9999 SCT013 BKN053 19/12 Q1020 NOSIG
ZJSY,2006-01-06 14:00,ZJSY 061400Z 07005MPS 9999 FEW013 BKN060 19/12 Q1020 NOSIG
ZJSY,2006-01-06 15:00,ZJSY 061500Z 08005MPS 9999 FEW013 BKN060 18/11 Q1020 NOSIG
ZJSY,2006-01-06 16:00,ZJSY 061600Z 08006MPS 9999 FEW013 BKN060 18/11 Q1020 NOSIG
ZJSY,2006-01-06 17:00,ZJSY 061700Z 08005MPS 9999 FEW013 BKN060 17/11 Q1020 NOSIG
ZJSY,2006-01-06 18:00,ZJSY 061800Z AUTO 06004MPS //// // ////// 18/11 Q1020 NOSIG
ZJSY,2006-01-06 19:00,ZJSY 061900Z AUTO 07005MPS //// // ////// 18/11 Q1019 NOSIG
ZJSY,2006-01-06 20:00,ZJSY 062000Z AUTO 06004MPS //// // ////// 18/11 Q1019 NOSIG
ZJSY,2006-01-06 21:00,ZJSY 062100Z 06004MPS 9999 FEW013 BKN060 18/11 Q1019 NOSIG
ZJSY,2006-01-06 22:00,ZJSY 062200Z 08004MPS 9999 BKN046 18/11 Q1020 NOSIG
ZJSY,2006-01-06 23:00,ZJSY 062300Z 07004MPS 9999 FEW013 BKN046 18/11 Q1020 NOSIG
ZJSY,2006-01-07 00:00,ZJSY 070000Z 05003MPS 9999 FEW013 BKN053 18/11 Q1021 NOSIG
ZJSY,2006-01-07 01:00,ZJSY 070100Z 06002MPS 9999 BKN053 18/11 Q1022 NOSIG
ZJSY,2006-01-07 02:00,ZJSY 070200Z 08004MPS 9999 BKN053 19/11 Q1022 NOSIG
ZJSY,2006-01-07 03:00,ZJSY 070300Z 05002MPS 9999 BKN053 20/11 Q1023 NOSIG
ZJSY,2006-01-07 04:00,ZJSY 070400Z VRB03MPS 9999 BKN053 21/12 Q1022 NOSIG
ZJSY,2006-01-07 05:00,ZJSY 070500Z VRB04MPS 9999 BKN053 22/11 Q1020 NOSIG
ZJSY,2006-01-07 06:00,ZJSY 070600Z 10004MPS 060V130 9999 FEW016 BKN053 22/12 Q1019 NOSIG
ZJSY,2006-01-07 07:00,ZJSY 070700Z 11003MPS 080V140 9999 SCT016 BKN050 21/12 Q1019 NOSIG
ZJSY,2006-01-07 08:00,ZJSY 070800Z 11002MPS 070V150 9999 SCT016 BKN050 21/12 Q1018 NOSIG
ZJSY,2006-01-07 09:00,ZJSY 070900Z 09004MPS 9999 SCT016 BKN050 20/12 Q1018 NOSIG
ZJSY,2006-01-07 10:00,ZJSY 071000Z 08005MPS 8000 SCT016 BKN050 19/11 Q1019 NOSIG
ZJSY,2006-01-07 11:00,ZJSY 071100Z 08006MPS 8000 SCT016 BKN030 BKN050 18/11 Q1019 NOSIG
ZJSY,2006-01-07 12:00,ZJSY 071200Z 08006MPS 7000 SCT016 SCT030 BKN050 17/11 Q1020 NOSIG
ZJSY,2006-01-07 13:00,ZJSY 071300Z 08006MPS 7000 SCT016 BKN050 17/11 Q1020 NOSIG
ZJSY,2006-01-07 14:00,ZJSY 071400Z 08005MPS 8000 SCT017 BKN050 17/11 Q1021 NOSIG
ZJSY,2006-01-07 15:00,ZJSY 071500Z 07003MPS 8000 SCT017 BKN050 17/11 Q1021 NOSIG
ZJSY,2006-01-07 16:00,ZJSY 071600Z 06005MPS 9000 SCT017 BKN050 17/11 Q1020 NOSIG
ZJSY,2006-01-07 17:00,ZJSY 071700Z 06005MPS 9000 SCT017 BKN050 17/11 Q1020 NOSIG
ZJSY,2006-01-07 18:00,ZJSY 071800Z 05005MPS 9000 FEW018 BKN066 18/11 Q1019 NOSIG
ZJSY,2006-01-07 19:00,ZJSY 071900Z 06003MPS 9000 FEW018 BKN066 18/12 Q1019 NOSIG
ZJSY,2006-01-07 20:00,ZJSY 072000Z AUTO 02004MPS //// // ////// 18/12 Q1018 NOSIG
ZJSY,2006-01-07 21:00,ZJSY 072100Z 02002MPS 350V050 9000 FEW018 BKN066 19/12 Q1018 NOSIG
ZJSY,2006-01-07 22:00,ZJSY 072200Z 01002MPS 330V030 9000 FEW018 BKN066 19/13 Q1018 NOSIG
ZJSY,2006-01-07 23:00,ZJSY 072300Z VRB01MPS 9000 SCT018 BKN053 19/13 Q1018 NOSIG
ZJSY,2006-01-08 00:00,ZJSY 080000Z VRB01MPS 9999 FEW018 BKN040 19/13 Q1019 NOSIG
ZJSY,2006-01-08 01:00,ZJSY 080100Z VRB01MPS 9999 FEW018 BKN040 20/13 Q1020 NOSIG
ZJSY,2006-01-08 02:00,ZJSY 080200Z 00000MPS 9999 BKN040 21/14 Q1020 NOSIG
ZJSY,2006-01-08 03:00,ZJSY 080300Z VRB01MPS 9999 BKN040 22/14 Q1020 NOSIG
ZJSY,2006-01-08 04:00,ZJSY 080400Z VRB02MPS 9999 BKN040 24/14 Q1019 NOSIG
ZJSY,2006-01-08 05:00,ZJSY 080500Z 16003MPS 130V200 9999 BKN040 23/14 Q1018 NOSIG
ZJSY,2006-01-08 06:00,ZJSY 080600Z 22003MPS 9999 BKN050 23/15 Q1017 NOSIG
ZJSY,2006-01-08 07:00,ZJSY 080700Z 23003MPS 9999 BKN050 22/15 Q1016 NOSIG
ZJSY,2006-01-08 08:00,ZJSY 080800Z 23004MPS CAVOK 23/15 Q1016 NOSIG
ZJSY,2006-01-08 09:00,ZJSY 080900Z 24004MPS 210V270 9999 FEW020 23/16 Q1016 NOSIG
ZJSY,2006-01-08 10:00,ZJSY 081000Z 26004MPS 9999 BKN018 22/16 Q1017 NOSIG
ZJSY,2006-01-08 11:00,ZJSY 081100Z 28002MPS 250V020 9999 SCT018 21/15 Q1018 NOSIG
ZJSY,2006-01-08 12:00,ZJSY 081200Z 32002MPS 270V360 9999 BKN016 21/15 Q1019 NOSIG
ZJSY,2006-01-08 13:00,ZJSY 081300Z 07003MPS 9999 SCT016 BKN050 20/14 Q1019 NOSIG
ZJSY,2006-01-08 14:00,ZJSY 081400Z 08003MPS 9999 SCT016 SCT050 19/14 Q1019 NOSIG
ZJSY,2006-01-08 15:00,ZJSY 081500Z 07002MPS 9999 SCT016 BKN050 19/14 Q1019 NOSIG
ZJSY,2006-01-08 16:00,ZJSY 081600Z 07002MPS 9999 FEW016 BKN043 19/14 Q1019 NOSIG
ZJSY,2006-01-08 17:00,ZJSY 081700Z 08002MPS 9999 BKN043 18/14 Q1019 NOSIG
ZJSY,2006-01-08 18:00,ZJSY 081800Z 08003MPS 9999 BKN043 18/14 Q1019 NOSIG
ZJSY,2006-01-08 19:00,ZJSY 081900Z 06003MPS 9999 BKN050 18/13 Q1019 NOSIG
ZJSY,2006-01-08 20:00,ZJSY 082000Z AUTO 07003MPS //// // ////// 18/13 Q1018 NOSIG
ZJSY,2006-01-08 21:00,ZJSY 082100Z 08003MPS 9999 BKN050 18/13 Q1018 NOSIG
ZJSY,2006-01-08 22:00,ZJSY 082200Z 06003MPS 9999 BKN050 18/13 Q1018 NOSIG
ZJSY,2006-01-08 23:00,ZJSY 082300Z 08004MPS 9999 BKN050 17/12 Q1019 NOSIG
ZJSY,2006-01-09 00:00,ZJSY 090000Z 07004MPS 8000 OVC043 17/12 Q1019 NOSIG
ZJSY,2006-01-09 01:00,ZJSY 090100Z 08004MPS 8000 OVC043 18/12 Q1020 NOSIG
ZJSY,2006-01-09 02:00,ZJSY 090200Z 09003MPS 9000 BKN050 19/12 Q1020 NOSIG
ZJSY,2006-01-09 03:00,ZJSY 090300Z 11002MPS 060V150 7000 BKN060 21/13 Q1020 NOSIG
ZJSY,2006-01-09 04:00,ZJSY 090400Z 15003MPS 110V200 7000 FEW016 21/13 Q1020 NOSIG
ZJSY,2006-01-09 05:00,ZJSY 090500Z 20003MPS 150V240 7000 SCT016 BKN053 21/13 Q1018 NOSIG
ZJSY,2006-01-09 06:00,ZJSY 090600Z 20003MPS 170V230 8000 SCT016 BKN046 21/14 Q1018 NOSIG
ZJSY,2006-01-09 07:00,ZJSY 090700Z 20003MPS 170V230 8000 SCT013 BKN040 20/14 Q1017 NOSIG
ZJSY,2006-01-09 08:00,ZJSY 090800Z 19002MPS 150V220 8000 FEW013 BKN040 19/14 Q1017 NOSIG
ZJSY,2006-01-09 09:00,ZJSY 090900Z VRB01MPS 7000 SCT013 BKN040 20/14 Q1017 NOSIG
ZJSY,2006-01-09 10:00,ZJSY 091000Z 10003MPS 070V130 7000 SCT013 OVC040 19/13 Q1017 NOSIG
ZJSY,2006-01-09 11:00,ZJSY 091100Z 10003MPS 7000 SCT013 OVC040 19/13 Q1018 NOSIG
ZJSY,2006-01-09 12:00,ZJSY 091200Z 08004MPS 6000 SCT013 OVC040 18/13 Q1018 NOSIG
ZJSY,2006-01-09 13:00,ZJSY 091300Z 08005MPS 6000 SCT013 OVC040 18/12 Q1019 NOSIG
ZJSY,2006-01-09 14:00,ZJSY 091400Z 08005MPS 6000 SCT013 OVC040 17/12 Q1019 NOSIG
ZJSY,2006-01-09 15:00,ZJSY 091500Z 08004MPS 6000 SCT013 BKN050 17/12 Q1019 NOSIG
ZJSY,2006-01-09 16:00,ZJSY 091600Z 08004MPS 6000 NSC 17/12 Q1019 NOSIG
ZJSY,2006-01-09 17:00,ZJSY 091700Z 05003MPS 6000 NSC 16/12 Q1019 NOSIG
ZJSY,2006-01-09 18:00,ZJSY 091800Z 35001MPS 6000 NSC 15/12 Q1018 NOSIG
ZJSY,2006-01-09 19:00,ZJSY 091900Z AUTO 01001MPS //// // ////// 16/12 Q1017 NOSIG
ZJSY,2006-01-09 20:00,ZJSY 092000Z AUTO 00000MPS //// // ////// 16/13 Q1017 NOSIG
ZJSY,2006-01-09 21:00,ZJSY 092100Z 31001MPS 5000 BR SCT015 BKN043 16/13 Q1017 NOSIG
ZJSY,2006-01-09 22:00,ZJSY 092200Z 00000MPS 6000 BKN046 17/14 Q1017 NOSIG
ZJSY,2006-01-09 23:00,ZJSY 092300Z 00000MPS 6000 BKN046 17/14 Q1017 NOSIG
ZJSY,2006-01-10 00:00,ZJSY 100000Z 11001MPS 6000 OVC046 17/14 Q1018 NOSIG
ZJSY,2006-01-10 01:00,ZJSY 100100Z 08002MPS 6000 SCT033 OVC046 18/13 Q1019 NOSIG
ZJSY,2006-01-10 02:00,ZJSY 100200Z 06003MPS 5000 HZ SCT033 OVC050 19/13 Q1020 NOSIG
ZJSY,2006-01-10 03:00,ZJSY 100300Z 09003MPS 060V120 5000 HZ SCT033 OVC050 19/13 Q1020 NOSIG
ZJSY,2006-01-10 04:00,ZJSY 100400Z 07003MPS 6000 SCT033 OVC050 20/13 Q1019 NOSIG
ZJSY,2006-01-10 05:00,ZJSY 100500Z VRB01MPS 6000 SCT033 OVC050 20/14 Q1018 NOSIG
ZJSY,2006-01-10 06:00,ZJSY 100600Z 16002MPS 120V210 6000 SCT016 SCT033 OVC050 21/14 Q1017 NOSIG
ZJSY,2006-01-10 07:00,ZJSY 100700Z 16002MPS 110V210 7000 FEW016 OVC050 21/14 Q1016 NOSIG
ZJSY,2006-01-10 08:00,ZJSY 100800Z VRB01MPS 7000 SCT016 OVC050 21/14 Q1016 NOSIG
ZJSY,2006-01-10 09:00,ZJSY 100900Z 21002MPS 170V250 7000 SCT016 OVC050 20/14 Q1016 NOSIG
ZJSY,2006-01-10 10:00,ZJSY 101000Z VRB01MPS 7000 FEW016 OVC050 20/14 Q1016 NOSIG
ZJSY,2006-01-10 11:00,ZJSY 101100Z VRB01MPS 7000 FEW016 OVC050 20/15 Q1016 NOSIG
ZJSY,2006-01-10 12:00,ZJSY 101200Z 18001MPS 6000 FEW016 BKN050 20/15 Q1016 NOSIG
ZJSY,2006-01-10 13:00,ZJSY 101300Z 00000MPS 6000 FEW016 BKN050 20/15 Q1017 NOSIG
ZJSY,2006-01-10 14:00,ZJSY 101400Z VRB01MPS 6000 SCT016 BKN050 19/15 Q1017 NOSIG
ZJSY,2006-01-10 15:00,ZJSY 101500Z 08003MPS 6000 SCT016 SCT050 18/14 Q1017 NOSIG
ZJSY,2006-01-10 16:00,ZJSY 101600Z VRB01MPS 8000 SKC 17/14 Q1017 NOSIG
ZJSY,2006-01-10 17:00,ZJSY 101700Z 35001MPS 8000 SKC 17/14 Q1016 NOSIG
ZJSY,2006-01-10 18:00,ZJSY 101800Z AUTO VRB01MPS //// // ////// 16/14 Q1015 NOSIG
ZJSY,2006-01-10 19:00,ZJSY 101900Z AUTO VRB01MPS //// // ////// 17/14 Q1015 NOSIG
ZJSY,2006-01-10 20:00,ZJSY 102000Z AUTO 04002MPS //// // ////// 18/14 Q1014 NOSIG
ZJSY,2006-01-10 21:00,ZJSY 102100Z 06002MPS 8000 SKC 18/14 Q1014 NOSIG
ZJSY,2006-01-10 22:00,ZJSY 102200Z 05003MPS 7000 SKC 18/15 Q1015 NOSIG
ZJSY,2006-01-10 23:00,ZJSY 102300Z 08003MPS 7000 SCT040 BKN060 18/14 Q1015 NOSIG
ZJSY,2006-01-11 00:00,ZJSY 110000Z 08003MPS 5000 BR SCT036 BKN060 18/14 Q1016 NOSIG
ZJSY,2006-01-11 01:00,ZJSY 110100Z 06004MPS 5000 BR SCT036 BKN060 19/14 Q1017 NOSIG
ZJSY,2006-01-11 02:00,ZJSY 110200Z 04003MPS 020V080 6000 SCT036 OVC050 20/13 Q1018 NOSIG
ZJSY,2006-01-11 03:00,ZJSY 110300Z 03002MPS 340V080 7000 BKN056 21/13 Q1018 NOSIG
ZJSY,2006-01-11 04:00,ZJSY 110400Z 05002MPS 360V100 7000 BKN056 23/13 Q1017 NOSIG
ZJSY,2006-01-11 05:00,ZJSY 110500Z 10002MPS 020V150 9999 BKN060 23/13 Q1016 NOSIG
ZJSY,2006-01-11 07:00,ZJSY 110700Z 22002MPS 180V250 9999 FEW016 BKN066 23/15 Q1014 NOSIG
ZJSY,2006-01-11 08:00,ZJSY 110800Z 22002MPS 170V240 9999 FEW016 BKN066 22/14 Q1014 NOSIG
ZJSY,2006-01-11 09:00,ZJSY 110900Z 24002MPS 200V280 9999 FEW016 23/15 Q1014 NOSIG
ZJSY,2006-01-11 10:00,ZJSY 111000Z VRB01MPS 9999 FEW016 22/15 Q1014 NOSIG
ZJSY,2006-01-11 11:00,ZJSY 111100Z 34002MPS 9999 FEW016 20/15 Q1014 NOSIG
ZJSY,2006-01-11 12:00,ZJSY 111200Z 34003MPS 320V050 9999 FEW016 18/14 Q1015 NOSIG
ZJSY,2006-01-11 13:00,ZJSY 111300Z 01002MPS 350V070 9999 FEW016 17/14 Q1015 NOSIG
ZJSY,2006-01-11 14:00,ZJSY 111400Z VRB01MPS 9999 FEW013 16/13 Q1015 NOSIG
ZJSY,2006-01-11 15:00,ZJSY 111500Z 36002MPS CAVOK 17/14 Q1015 NOSIG
ZJSY,2006-01-11 16:00,ZJSY 111600Z 34002MPS CAVOK 15/13 Q1015 NOSIG
ZJSY,2006-01-11 17:00,ZJSY 111700Z 35002MPS CAVOK 15/13 Q1015 NOSIG
ZJSY,2006-01-11 18:00,ZJSY 111800Z AUTO 34002MPS //// // ////// 15/12 Q1014 NOSIG
ZJSY,2006-01-11 19:00,ZJSY 111900Z AUTO 33003MPS //// // ////// 15/12 Q1014 NOSIG
ZJSY,2006-01-11 20:00,ZJSY 112000Z AUTO 33002MPS //// // ////// 15/12 Q1014 NOSIG
ZJSY,2006-01-11 21:00,ZJSY 112100Z 36001MPS CAVOK 15/12 Q1013 NOSIG
ZJSY,2006-01-11 22:00,ZJSY 112200Z 33003MPS CAVOK 14/12 Q1014 NOSIG
ZJSY,2006-01-11 23:00,ZJSY 112300Z 33003MPS CAVOK 14/12 Q1015 NOSIG
ZJSY,2006-01-12 00:00,ZJSY 120000Z 35002MPS CAVOK 14/12 Q1015 NOSIG
ZJSY,2006-01-12 01:00,ZJSY 120100Z VRB01MPS CAVOK 19/14 Q1016 NOSIG
ZJSY,2006-01-12 02:00,ZJSY 120200Z VRB01MPS CAVOK 22/14 Q1017 NOSIG
ZJSY,2006-01-12 03:00,ZJSY 120300Z 19002MPS CAVOK 23/14 Q1016 NOSIG
ZJSY,2006-01-12 04:00,ZJSY 120400Z 21003MPS CAVOK 23/13 Q1016 NOSIG
ZJSY,2006-01-12 05:00,ZJSY 120500Z 20003MPS 170V230 CAVOK 25/15 Q1014 NOSIG
ZJSY,2006-01-12 06:00,ZJSY 120600Z 20003MPS 170V240 CAVOK 25/15 Q1013 NOSIG
ZJSY,2006-01-12 07:00,ZJSY 120700Z 20003MPS 160V230 CAVOK 25/16 Q1012 NOSIG
ZJSY,2006-01-12 08:00,ZJSY 120800Z 22003MPS 180V240 CAVOK 25/15 Q1012 NOSIG
ZJSY,2006-01-12 09:00,ZJSY 120900Z 21002MPS 170V240 CAVOK 25/15 Q1012 NOSIG
ZJSY,2006-01-12 10:00,ZJSY 121000Z 19001MPS CAVOK 24/16 Q1012 NOSIG
ZJSY,2006-01-12 11:00,ZJSY 121100Z 00000MPS CAVOK 22/16 Q1013 NOSIG
ZJSY,2006-01-12 12:00,ZJSY 121200Z 34002MPS CAVOK 20/16 Q1013 NOSIG
ZJSY,2006-01-12 13:00,ZJSY 121300Z 34002MPS 330V030 CAVOK 19/16 Q1013 NOSIG
ZJSY,2006-01-12 14:00,ZJSY 121400Z 35002MPS 310V040 CAVOK 19/15 Q1014 NOSIG
ZJSY,2006-01-12 15:00,ZJSY 121500Z 00000MPS CAVOK 18/15 Q1014 NOSIG
ZJSY,2006-01-12 16:00,ZJSY 121600Z 34003MPS 320V030 CAVOK 17/14 Q1014 NOSIG
ZJSY,2006-01-12 17:00,ZJSY 121700Z 34002MPS CAVOK 17/14 Q1014 NOSIG
ZJSY,2006-01-12 18:00,ZJSY 121800Z 33002MPS CAVOK 16/14 Q1014 NOSIG
ZJSY,2006-01-12 19:00,ZJSY 121900Z 33003MPS 320V030 CAVOK 16/14 Q1013 NOSIG
ZJSY,2006-01-12 20:00,ZJSY 122000Z 34002MPS CAVOK 16/14 Q1013 NOSIG
ZJSY,2006-01-12 21:00,ZJSY 122100Z 34002MPS CAVOK 16/14 Q1013 NOSIG
ZJSY,2006-01-12 22:00,ZJSY 122200Z 33003MPS CAVOK 16/14 Q1013 NOSIG
ZJSY,2006-01-12 23:00,ZJSY 122300Z 34003MPS 9999 FEW013 16/14 Q1014 NOSIG
ZJSY,2006-01-13 00:00,ZJSY 130000Z 00000MPS 9999 SCT016 17/14 Q1015 NOSIG
ZJSY,2006-01-13 01:00,ZJSY 130100Z 00000MPS 9999 BKN020 20/17 Q1015 NOSIG
ZJSY,2006-01-13 02:00,ZJSY 130200Z 00000MPS 9999 FEW016 23/18 Q1016 NOSIG
ZJSY,2006-01-13 03:00,ZJSY 130300Z 17002MPS 120V220 9999 FEW016 26/17 Q1015 NOSIG
ZJSY,2006-01-13 04:00,ZJSY 130400Z 20003MPS 9999 FEW016 26/17 Q1015 NOSIG
ZJSY,2006-01-13 05:00,ZJSY 130500Z 20003MPS 9999 FEW016 26/17 Q1014 NOSIG
ZJSY,2006-01-13 06:00,ZJSY 130600Z 19003MPS 140V220 9999 FEW016 26/17 Q1013 NOSIG
ZJSY,2006-01-13 07:00,ZJSY 130700Z 17003MPS 130V210 9999 FEW016 25/18 Q1013 NOSIG
ZJSY,2006-01-13 08:00,ZJSY 130800Z 18003MPS 150V210 9999 FEW016 25/19 Q1012 NOSIG
ZJSY,2006-01-13 09:00,ZJSY 130900Z 16004MPS 130V190 9999 FEW016 24/19 Q1012 NOSIG
ZJSY,2006-01-13 10:00,ZJSY 131000Z 13003MPS 100V160 9999 FEW016 24/18 Q1013 NOSIG
ZJSY,2006-01-13 11:00,ZJSY 131100Z 10003MPS CAVOK 23/18 Q1013 NOSIG
ZJSY,2006-01-13 12:00,ZJSY 131200Z 07003MPS CAVOK 21/17 Q1014 NOSIG
ZJSY,2006-01-13 13:00,ZJSY 131300Z 06002MPS 020V090 CAVOK 21/17 Q1014 NOSIG
ZJSY,2006-01-13 14:00,ZJSY 131400Z 07002MPS CAVOK 20/17 Q1014 NOSIG
ZJSY,2006-01-13 15:00,ZJSY 131500Z VRB01MPS CAVOK 20/17 Q1014 NOSIG
ZJSY,2006-01-13 16:00,ZJSY 131600Z VRB01MPS CAVOK 20/17 Q1014 NOSIG
ZJSY,2006-01-13 17:00,ZJSY 131700Z 07002MPS 9999 FEW015 20/17 Q1014 NOSIG
ZJSY,2006-01-13 18:00,ZJSY 131800Z AUTO 05001MPS //// // ////// 20/17 Q1014 NOSIG
ZJSY,2006-01-13 19:00,ZJSY 131900Z AUTO 05001MPS //// // ////// 19/16 Q1014 NOSIG
ZJSY,2006-01-13 20:00,ZJSY 132000Z AUTO 36001MPS //// // ////// 18/16 Q1013 NOSIG
ZJSY,2006-01-13 21:00,ZJSY 132100Z 35002MPS CAVOK 17/15 Q1013 NOSIG
ZJSY,2006-01-13 22:00,ZJSY 132200Z 36002MPS 9999 FEW013 17/15 Q1013 NOSIG
ZJSY,2006-01-13 23:00,ZJSY 132300Z 35002MPS 9999 FEW013 17/15 Q1014 NOSIG
ZJSY,2006-01-14 00:00,ZJSY 140000Z 36002MPS 330V030 CAVOK 17/15 Q1014 NOSIG
ZJSY,2006-01-14 01:00,ZJSY 140100Z 33002MPS 320V020 CAVOK 21/17 Q1015 NOSIG
ZJSY,2006-01-14 02:00,ZJSY 140200Z 07003MPS 040V110 CAVOK 24/17 Q1016 NOSIG
ZJSY,2006-01-14 03:00,ZJSY 140300Z 12003MPS 080V140 CAVOK 25/17 Q1016 NOSIG
ZJSY,2006-01-14 04:00,ZJSY 140400Z 16003MPS 100V200 9999 SCT020 25/18 Q1015 NOSIG
ZJSY,2006-01-14 05:00,ZJSY 140500Z 16003MPS 120V200 9999 SCT020 25/18 Q1014 NOSIG
ZJSY,2006-01-14 06:00,ZJSY 140600Z 16004MPS 140V210 CAVOK 26/17 Q1013 NOSIG
ZJSY,2006-01-14 07:00,ZJSY 140700Z 15004MPS 110V180 CAVOK 26/17 Q1012 NOSIG
ZJSY,2006-01-14 08:00,ZJSY 140800Z 15004MPS 120V180 CAVOK 25/17 Q1012 NOSIG
ZJSY,2006-01-14 09:00,ZJSY 140900Z 15004MPS 110V180 CAVOK 25/18 Q1012 NOSIG
ZJSY,2006-01-14 10:00,ZJSY 141000Z 13004MPS CAVOK 24/18 Q1013 NOSIG
ZJSY,2006-01-14 11:00,ZJSY 141100Z 08004MPS CAVOK 22/17 Q1013 NOSIG
ZJSY,2006-01-14 12:00,ZJSY 141200Z 09004MPS CAVOK 21/18 Q1013 NOSIG
ZJSY,2006-01-14 13:00,ZJSY 141300Z 09004MPS CAVOK 21/18 Q1013 NOSIG
ZJSY,2006-01-14 14:00,ZJSY 141400Z 08005MPS CAVOK 20/18 Q1013 NOSIG
ZJSY,2006-01-14 15:00,ZJSY 141500Z 08005MPS CAVOK 20/17 Q1014 NOSIG
ZJSY,2006-01-14 16:00,ZJSY 141600Z 07003MPS CAVOK 20/17 Q1014 NOSIG
ZJSY,2006-01-14 17:00,ZJSY 141700Z 04003MPS CAVOK 20/17 Q1014 NOSIG
ZJSY,2006-01-14 18:00,ZJSY 141800Z 02003MPS CAVOK 20/16 Q1014 NOSIG
ZJSY,2006-01-14 19:00,ZJSY 141900Z 33002MPS CAVOK 18/16 Q1014 NOSIG
ZJSY,2006-01-14 20:00,ZJSY 142000Z VRB01MPS 9999 FEW016 18/15 Q1014 NOSIG
ZJSY,2006-01-14 21:00,ZJSY 142100Z 34002MPS CAVOK 18/15 Q1014 NOSIG
ZJSY,2006-01-14 22:00,ZJSY 142200Z 33002MPS CAVOK 18/15 Q1014 NOSIG
ZJSY,2006-01-14 23:00,ZJSY 142300Z 33002MPS CAVOK 18/15 Q1014 NOSIG
ZJSY,2006-01-15 00:00,ZJSY 150000Z 34002MPS 330V030 CAVOK 19/15 Q1015 NOSIG
ZJSY,2006-01-15 01:00,ZJSY 150100Z VRB01MPS CAVOK 23/17 Q1016 NOSIG
ZJSY,2006-01-15 02:00,ZJSY 150200Z 08003MPS 050V120 CAVOK 24/16 Q1016 NOSIG
ZJSY,2006-01-15 03:00,ZJSY 150300Z 11002MPS 070V140 CAVOK 25/16 Q1016 NOSIG
ZJSY,2006-01-15 04:00,ZJSY 150400Z 17003MPS 150V210 CAVOK 25/17 Q1015 NOSIG
ZJSY,2006-01-15 05:00,ZJSY 150500Z 18003MPS 150V210 CAVOK 26/17 Q1014 NOSIG
ZJSY,2006-01-15 06:00,ZJSY 150600Z 18003MPS 150V220 CAVOK 26/17 Q1013 NOSIG
ZJSY,2006-01-15 07:00,ZJSY 150700Z 16003MPS 110V200 CAVOK 25/18 Q1012 NOSIG
ZJSY,2006-01-15 08:00,ZJSY 150800Z 16003MPS 120V200 CAVOK 25/17 Q1012 NOSIG
ZJSY,2006-01-15 09:00,ZJSY 150900Z 14003MPS 110V170 CAVOK 24/18 Q1013 NOSIG
ZJSY,2006-01-15 10:00,ZJSY 151000Z 14002MPS 110V180 CAVOK 24/18 Q1013 NOSIG
ZJSY,2006-01-15 11:00,ZJSY 151100Z 09003MPS CAVOK 22/17 Q1013 NOSIG
ZJSY,2006-01-15 12:00,ZJSY 151200Z 08004MPS CAVOK 21/17 Q1014 NOSIG
ZJSY,2006-01-15 13:00,ZJSY 151300Z 08003MPS CAVOK 21/17 Q1014 NOSIG
ZJSY,2006-01-15 14:00,ZJSY 151400Z 04003MPS CAVOK 21/17 Q1014 NOSIG
ZJSY,2006-01-15 15:00,ZJSY 151500Z 08003MPS CAVOK 20/16 Q1014 NOSIG
ZJSY,2006-01-15 16:00,ZJSY 151600Z 07002MPS 030V100 CAVOK 19/17 Q1014 NOSIG
ZJSY,2006-01-15 17:00,ZJSY 151700Z 10002MPS CAVOK 19/17 Q1014 NOSIG
ZJSY,2006-01-15 18:00,ZJSY 151800Z 06002MPS CAVOK 19/17 Q1014 NOSIG
ZJSY,2006-01-15 19:00,ZJSY 151900Z 03002MPS 010V070 CAVOK 18/16 Q1014 NOSIG
ZJSY,2006-01-15 20:00,ZJSY 152000Z 36001MPS CAVOK 17/15 Q1013 NOSIG
ZJSY,2006-01-15 21:00,ZJSY 152100Z VRB01MPS CAVOK 16/15 Q1013 NOSIG
ZJSY,2006-01-15 22:00,ZJSY 152200Z 33002MPS CAVOK 16/15 Q1013 NOSIG
ZJSY,2006-01-15 23:00,ZJSY 152300Z 33003MPS CAVOK 16/14 Q1014 NOSIG
ZJSY,2006-01-16 00:00,ZJSY 160000Z 33002MPS 320V030 CAVOK 16/15 Q1015 NOSIG
ZJSY,2006-01-16 01:00,ZJSY 160100Z 35001MPS CAVOK 21/17 Q1016 NOSIG
ZJSY,2006-01-16 02:00,ZJSY 160200Z 05003MPS 010V080 9999 SCT050 24/17 Q1016 NOSIG
ZJSY,2006-01-16 03:00,ZJSY 160300Z 08002MPS 360V150 9999 FEW016 SCT050 25/17 Q1016 NOSIG
ZJSY,2006-01-16 04:00,ZJSY 160400Z 15002MPS 090V190 9999 SCT016 25/17 Q1015 NOSIG
ZJSY,2006-01-16 05:00,ZJSY 160500Z 11003MPS 080V170 9999 FEW016 26/17 Q1014 NOSIG
ZJSY,2006-01-16 06:00,ZJSY 160600Z 16003MPS 130V200 9999 FEW016 SCT050 27/17 Q1012 NOSIG
ZJSY,2006-01-16 07:00,ZJSY 160700Z VRB01MPS 9999 SCT043 BKN060 27/19 Q1011 NOSIG
ZJSY,2006-01-16 08:00,ZJSY 160800Z 16002MPS 100V180 9999 FEW013 BKN060 26/18 Q1011 NOSIG
ZJSY,2006-01-16 09:00,ZJSY 160900Z 16002MPS 120V200 9999 FEW013 BKN050 24/19 Q1011 NOSIG
ZJSY,2006-01-16 10:00,ZJSY 161000Z 00000MPS 9999 FEW013 BKN050 24/18 Q1011 NOSIG
ZJSY,2006-01-16 11:00,ZJSY 161100Z VRB01MPS 9999 SCT013 BKN050 24/20 Q1012 NOSIG
ZJSY,2006-01-16 12:00,ZJSY 161200Z VRB01MPS 9999 SCT013 BKN050 24/20 Q1012 NOSIG
ZJSY,2006-01-16 13:00,ZJSY 161300Z 07002MPS 040V110 9999 SCT013 BKN050 24/19 Q1012 NOSIG
ZJSY,2006-01-16 14:00,ZJSY 161400Z 07002MPS 030V090 9999 SCT013 BKN050 24/19 Q1013 NOSIG
ZJSY,2006-01-16 15:00,ZJSY 161500Z 12003MPS 9999 SCT013 BKN050 23/20 Q1013 NOSIG
ZJSY,2006-01-16 16:00,ZJSY 161600Z 06003MPS 9999 BKN060 23/19 Q1013 NOSIG
ZJSY,2006-01-16 17:00,ZJSY 161700Z 08002MPS 9999 BKN060 23/19 Q1013 NOSIG
ZJSY,2006-01-16 18:00,ZJSY 161800Z 08003MPS 9999 BKN060 23/19 Q1013 NOSIG
ZJSY,2006-01-16 19:00,ZJSY 161900Z 08003MPS 9999 BKN060 22/19 Q1012 NOSIG
ZJSY,2006-01-16 20:00,ZJSY 162000Z 07003MPS 9999 BKN050 22/19 Q1012 NOSIG
ZJSY,2006-01-16 21:00,ZJSY 162100Z VRB01MPS 9999 SCT050 22/19 Q1012 NOSIG
ZJSY,2006-01-16 22:00,ZJSY 162200Z 08002MPS 9999 FEW018 BKN043 22/19 Q1012 NOSIG
ZJSY,2006-01-16 23:00,ZJSY 162300Z 07003MPS 9999 BKN043 22/19 Q1013 NOSIG
ZJSY,2006-01-17 00:00,ZJSY 170000Z VRB01MPS 9999 BKN053 23/20 Q1013 NOSIG
ZJSY,2006-01-17 01:00,ZJSY 170100Z 08003MPS 060V120 6000 FEW013 BKN053 25/20 Q1014 NOSIG
ZJSY,2006-01-17 02:00,ZJSY 170200Z 10003MPS 070V130 8000 FEW016 BKN060 26/21 Q1014 NOSIG
ZJSY,2006-01-17 03:00,ZJSY 170300Z 14003MPS 100V190 9999 SCT016 BKN060 26/21 Q1014 NOSIG
ZJSY,2006-01-17 04:00,ZJSY 170400Z 14003MPS 100V180 9999 SCT018 27/21 Q1013 NOSIG
ZJSY,2006-01-17 05:00,ZJSY 170500Z 17004MPS 9999 SCT018 27/21 Q1013 NOSIG
ZJSY,2006-01-17 06:00,ZJSY 170600Z 16004MPS 120V200 9999 SCT020 27/21 Q1012 NOSIG
ZJSY,2006-01-17 07:00,ZJSY 170700Z 15005MPS 100V190 9999 SCT020 26/21 Q1011 NOSIG
ZJSY,2006-01-17 08:00,ZJSY 170800Z 14004MPS 100V180 9999 FEW020 26/21 Q1010 NOSIG
ZJSY,2006-01-17 09:00,ZJSY 170900Z 12004MPS 090V150 CAVOK 26/21 Q1011 NOSIG
ZJSY,2006-01-17 10:00,ZJSY 171000Z 13003MPS 090V150 CAVOK 25/21 Q1011 NOSIG
ZJSY,2006-01-17 11:00,ZJSY 171100Z 08003MPS CAVOK 24/20 Q1012 NOSIG
ZJSY,2006-01-17 12:00,ZJSY 171200Z 09003MPS CAVOK 24/21 Q1012 NOSIG
ZJSY,2006-01-17 13:00,ZJSY 171300Z 07003MPS CAVOK 23/20 Q1012 NOSIG
ZJSY,2006-01-17 14:00,ZJSY 171400Z 09002MPS CAVOK 23/20 Q1012 NOSIG
ZJSY,2006-01-17 15:00,ZJSY 171500Z 10002MPS CAVOK 23/21 Q1012 NOSIG
ZJSY,2006-01-17 16:00,ZJSY 171600Z 09002MPS CAVOK 23/21 Q1012 NOSIG
ZJSY,2006-01-17 17:00,ZJSY 171700Z 08003MPS CAVOK 22/20 Q1012 NOSIG
ZJSY,2006-01-17 21:00,ZJSY 172100Z 07003MPS CAVOK 23/21 Q1011 NOSIG
ZJSY,2006-01-17 22:00,ZJSY 172200Z 07003MPS CAVOK 23/21 Q1011 NOSIG
ZJSY,2006-01-17 23:00,ZJSY 172300Z 08003MPS CAVOK 23/21 Q1011 NOSIG
ZJSY,2006-01-18 00:00,ZJSY 180000Z 06003MPS 9999 FEW016 BKN060 24/20 Q1012 NOSIG
ZJSY,2006-01-18 01:00,ZJSY 180100Z 09002MPS 060V120 9999 FEW016 BKN050 25/20 Q1013 NOSIG
ZJSY,2006-01-18 02:00,ZJSY 180200Z 10003MPS 060V130 9999 BKN018 26/21 Q1013 NOSIG
ZJSY,2006-01-18 03:00,ZJSY 180300Z 12003MPS 090V160 9999 SCT018 27/20 Q1013 NOSIG
ZJSY,2006-01-18 04:00,ZJSY 180400Z 16003MPS 120V200 9999 SCT018 27/20 Q1012 NOSIG
ZJSY,2006-01-18 05:00,ZJSY 180500Z 15003MPS 120V190 9999 FEW018 27/20 Q1011 NOSIG
ZJSY,2006-01-18 06:00,ZJSY 180600Z 15004MPS 120V200 9999 FEW018 27/21 Q1010 NOSIG
ZJSY,2006-01-18 07:00,ZJSY 180700Z 15003MPS 100V190 9999 FEW018 28/21 Q1009 NOSIG
ZJSY,2006-01-18 08:00,ZJSY 180800Z 14003MPS 100V190 9999 FEW018 27/21 Q1009 NOSIG
ZJSY,2006-01-18 09:00,ZJSY 180900Z 14003MPS 100V180 9999 SCT013 SCT016 26/21 Q1009 NOSIG
ZJSY,2006-01-18 10:00,ZJSY 181000Z 12003MPS 9999 SCT013 BKN016 25/20 Q1009 NOSIG
ZJSY,2006-01-18 11:00,ZJSY 181100Z 12002MPS 9999 SCT013 BKN016 FEW023TCU 25/20 Q1010 NOSIG
ZJSY,2006-01-18 12:00,ZJSY 181200Z 10003MPS 9999 SCT013 BKN040 25/20 Q1010 NOSIG
ZJSY,2006-01-18 13:00,ZJSY 181300Z 08003MPS 9999 SCT013 BKN040 25/21 Q1011 NOSIG
ZJSY,2006-01-18 14:00,ZJSY 181400Z 08003MPS 9999 SCT013 SCT050 24/20 Q1011 NOSIG
ZJSY,2006-01-18 15:00,ZJSY 181500Z AUTO 08006KT 7SM 23/20 A2985 RMK T02300200 IEM_DS3505
ZJSY,2006-01-18 16:00,ZJSY 181600Z 07003MPS 9999 BKN013 24/21 Q1011 NOSIG
ZJSY,2006-01-18 17:00,ZJSY 181700Z VRB01MPS 9999 BKN013 24/20 Q1011 NOSIG
ZJSY,2006-01-18 18:00,ZJSY 181800Z 06002MPS 9999 BKN013 24/20 Q1010 NOSIG
ZJSY,2006-01-18 19:00,ZJSY 181900Z AUTO 04002MPS //// // ////// 23/20 Q1010 NOSIG
ZJSY,2006-01-18 20:00,ZJSY 182000Z AUTO 34001MPS //// // ////// 23/20 Q1010 NOSIG
ZJSY,2006-01-18 21:00,ZJSY 182100Z 02001MPS 9999 BKN013 22/20 Q1009 NOSIG
ZJSY,2006-01-18 23:00,ZJSY 182300Z VRB01MPS 9999 BKN013 22/20 Q1010 NOSIG
ZJSY,2006-01-19 00:00,ZJSY 190000Z 07002MPS 9999 BKN011 23/20 Q1010 NOSIG
ZJSY,2006-01-19 01:00,ZJSY 190100Z 08002MPS 050V120 9999 BKN011 SCT016 24/20 Q1011 NOSIG
ZJSY,2006-01-19 02:00,ZJSY 190200Z 06003MPS 9999 BKN016 BKN053 25/21 Q1011 NOSIG
ZJSY,2006-01-19 03:00,ZJSY 190300Z 11003MPS 080V140 9999 SCT016 BKN050 26/21 Q1011 NOSIG
ZJSY,2006-01-19 05:00,ZJSY 190500Z 15002MPS 9999 SCT016 BKN050 26/21 Q1009 NOSIG
ZJSY,2006-01-19 06:00,ZJSY 190600Z 12003MPS 9999 SCT016 BKN050 27/22 Q1008 NOSIG
ZJSY,2006-01-19 07:00,ZJSY 190700Z 15003MPS 090V200 9999 FEW016 26/22 Q1007 NOSIG
ZJSY,2006-01-19 08:00,ZJSY 190800Z 16002MPS 120V200 9999 BKN017 26/21 Q1007 NOSIG
ZJSY,2006-01-19 09:00,ZJSY 190900Z 14002MPS 100V190 9999 SCT017 BKN026 25/22 Q1007 NOSIG
ZJSY,2006-01-19 10:00,ZJSY 191000Z VRB01MPS 9999 SCT017 BKN026 25/22 Q1007 NOSIG
ZJSY,2006-01-19 11:00,ZJSY 191100Z 12002MPS 9999 SCT014 BKN018 25/22 Q1007 NOSIG
ZJSY,2006-01-19 12:00,ZJSY 191200Z 12002MPS 090V170 9999 FEW018 24/22 Q1008 NOSIG
ZJSY,2006-01-19 13:00,ZJSY 191300Z 06003MPS 9999 SCT016 24/21 Q1008 NOSIG
ZJSY,2006-01-19 14:00,ZJSY 191400Z 06003MPS CAVOK 23/21 Q1009 NOSIG
ZJSY,2006-01-19 15:00,ZJSY 191500Z 07003MPS CAVOK 23/21 Q1009 NOSIG
ZJSY,2006-01-19 16:00,ZJSY 191600Z 07002MPS 9999 SCT014 SCT017 23/21 Q1009 NOSIG
ZJSY,2006-01-19 17:00,ZJSY 191700Z 08003MPS 9999 FEW014 SCT017 23/21 Q1009 NOSIG
ZJSY,2006-01-19 18:00,ZJSY 191800Z 06003MPS 9999 FEW014 SCT016 23/21 Q1009 NOSIG
ZJSY,2006-01-19 19:00,ZJSY 191900Z 07002MPS 9999 FEW014 SCT016 23/20 Q1009 NOSIG
ZJSY,2006-01-19 20:00,ZJSY 192000Z 07002MPS 9999 FEW014 SCT016 23/20 Q1009 NOSIG
ZJSY,2006-01-19 21:00,ZJSY 192100Z 07002MPS 9999 BKN016 24/20 Q1009 NOSIG
ZJSY,2006-01-19 22:00,ZJSY 192200Z 08002MPS 9999 BKN016 23/20 Q1009 NOSIG
ZJSY,2006-01-19 23:00,ZJSY 192300Z 06003MPS 9999 BKN016 24/21 Q1010 NOSIG
ZJSY,2006-01-20 00:00,ZJSY 200000Z 08002MPS 9999 SCT016 SCT060 24/21 Q1010 NOSIG
ZJSY,2006-01-20 01:00,ZJSY 200100Z 07003MPS 9999 SCT016 SCT060 25/21 Q1011 NOSIG
ZJSY,2006-01-20 02:00,ZJSY 200200Z 09003MPS 060V120 9999 BKN018 SCT060 26/21 Q1011 NOSIG
ZJSY,2006-01-20 03:00,ZJSY 200300Z 09003MPS 050V140 9999 BKN018 27/21 Q1011 NOSIG
ZJSY,2006-01-20 04:00,ZJSY 200400Z 11003MPS 090V180 9999 BKN018 28/22 Q1011 NOSIG
ZJSY,2006-01-20 05:00,ZJSY 200500Z 17003MPS 9999 FEW018 27/22 Q1010 NOSIG
ZJSY,2006-01-20 06:00,ZJSY 200600Z 16004MPS 120V200 9999 FEW018 27/22 Q1009 NOSIG
ZJSY,2006-01-20 07:00,ZJSY 200700Z 16004MPS 140V200 9999 FEW018 26/22 Q1008 NOSIG
ZJSY,2006-01-20 08:00,ZJSY 200800Z 17003MPS 140V210 9999 FEW018 26/22 Q1007 NOSIG
ZJSY,2006-01-20 09:00,ZJSY 200900Z 17002MPS 110V200 9999 FEW018 26/22 Q1007 NOSIG
ZJSY,2006-01-20 10:00,ZJSY 201000Z VRB01MPS 9999 FEW018 25/22 Q1008 NOSIG
ZJSY,2006-01-20 11:00,ZJSY 201100Z 16001MPS 9999 FEW016 24/22 Q1009 NOSIG
ZJSY,2006-01-20 12:00,ZJSY 201200Z VRB01MPS 9999 SCT015 24/22 Q1009 NOSIG
ZJSY,2006-01-20 13:00,ZJSY 201300Z 00000MPS 9999 FEW015 24/22 Q1010 NOSIG
ZJSY,2006-01-20 14:00,ZJSY 201400Z 09001MPS 9999 BKN015 24/22 Q1011 NOSIG
ZJSY,2006-01-20 15:00,ZJSY 201500Z 00000MPS 9999 BKN015 24/22 Q1011 NOSIG
ZJSY,2006-01-20 16:00,ZJSY 201600Z 12002MPS 080V160 9999 BKN015 24/21 Q1011 NOSIG
ZJSY,2006-01-20 17:00,ZJSY 201700Z 10002MPS 9999 BKN013 23/21 Q1011 NOSIG
ZJSY,2006-01-20 18:00,ZJSY 201800Z AUTO 09003MPS //// // ////// 23/21 Q1011 NOSIG
ZJSY,2006-01-20 19:00,ZJSY 201900Z AUTO 09003MPS //// // ////// 23/20 Q1011 NOSIG
ZJSY,2006-01-20 20:00,ZJSY 202000Z AUTO 10002MPS //// // ////// 22/20 Q1012 NOSIG
ZJSY,2006-01-20 21:00,ZJSY 202100Z 08003MPS 9999 SCT013 BKN033 22/20 Q1012 NOSIG
ZJSY,2006-01-20 22:00,ZJSY 202200Z VRB01MPS 8000 -RA SCT013 BKN033 22/20 Q1012 NOSIG
ZJSY,2006-01-20 23:00,ZJSY 202300Z VRB01MPS 9999 SCT013 BKN040 21/19 Q1013 RERA NOSIG
ZJSY,2006-01-21 00:00,ZJSY 210000Z 08003MPS 6000 SCT013 OVC040 21/19 Q1014 NOSIG
ZJSY,2006-01-21 01:00,ZJSY 210100Z 07003MPS 6000 SCT013 OVC040 21/18 Q1015 NOSIG
ZJSY,2006-01-21 02:00,ZJSY 210200Z 08004MPS 6000 SCT013 OVC040 21/18 Q1015 NOSIG
ZJSY,2006-01-21 03:00,ZJSY 210300Z 09003MPS 6000 SCT013 OVC040 21/18 Q1016 NOSIG
ZJSY,2006-01-21 04:00,ZJSY 210400Z 08003MPS 7000 SCT013 BKN050 21/18 Q1015 NOSIG
ZJSY,2006-01-21 05:00,ZJSY 210500Z 13002MPS 080V170 7000 SCT011 BKN053 23/18 Q1014 NOSIG
ZJSY,2006-01-21 06:00,ZJSY 210600Z 12003MPS 090V170 7000 SCT011 BKN060 23/18 Q1013 NOSIG
ZJSY,2006-01-21 07:00,ZJSY 210700Z 16002MPS 120V220 7000 SCT011 BKN060 23/19 Q1012 NOSIG
ZJSY,2006-01-21 08:00,ZJSY 210800Z 16002MPS 120V190 9999 SCT011 BKN060 23/18 Q1012 NOSIG
ZJSY,2006-01-21 09:00,ZJSY 210900Z 10002MPS 9999 SCT014 BKN040 22/18 Q1012 NOSIG
ZJSY,2006-01-21 10:00,ZJSY 211000Z 09004MPS 9999 SCT014 BKN040 21/17 Q1012 NOSIG
ZJSY,2006-01-21 11:00,ZJSY 211100Z 08005MPS 9999 BKN016 BKN033 20/16 Q1013 NOSIG
ZJSY,2006-01-21 12:00,ZJSY 211200Z 08005MPS 9999 SCT016 BKN043 20/17 Q1014 NOSIG
ZJSY,2006-01-21 13:00,ZJSY 211300Z 07005MPS 9999 FEW016 BKN043 19/16 Q1014 NOSIG
ZJSY,2006-01-21 14:00,ZJSY 211400Z 08004MPS 9999 FEW016 BKN043 19/16 Q1014 NOSIG
ZJSY,2006-01-21 15:00,ZJSY 211500Z 06003MPS 9999 FEW016 BKN050 19/16 Q1015 NOSIG
ZJSY,2006-01-21 16:00,ZJSY 211600Z 08003MPS 9999 FEW016 BKN050 19/16 Q1015 NOSIG
ZJSY,2006-01-21 17:00,ZJSY 211700Z 09003MPS 9999 FEW016 BKN043 19/16 Q1014 NOSIG
ZJSY,2006-01-21 18:00,ZJSY 211800Z 08005MPS 9999 FEW016 BKN043 18/15 Q1014 NOSIG
ZJSY,2006-01-21 19:00,ZJSY 211900Z AUTO 07003MPS //// // ////// 18/15 Q1013 NOSIG
ZJSY,2006-01-21 20:00,ZJSY 212000Z AUTO 08003MPS //// // ////// 18/15 Q1013 NOSIG
ZJSY,2006-01-21 22:00,ZJSY 212200Z 08004MPS 9999 SCT018 BKN043 18/14 Q1013 NOSIG
ZJSY,2006-01-21 23:00,ZJSY 212300Z 06003MPS 9999 SCT018 BKN043 18/15 Q1014 NOSIG
ZJSY,2006-01-22 00:00,ZJSY 220000Z 08003MPS 9999 SCT018 BKN043 18/15 Q1015 NOSIG
ZJSY,2006-01-22 01:00,ZJSY 220100Z 06003MPS 9999 SCT018 BKN043 19/14 Q1016 NOSIG
ZJSY,2006-01-22 02:00,ZJSY 220200Z 08004MPS CAVOK 21/15 Q1016 NOSIG
ZJSY,2006-01-22 03:00,ZJSY 220300Z 09004MPS 050V130 9999 FEW018 23/16 Q1016 NOSIG
ZJSY,2006-01-22 04:00,ZJSY 220400Z 11004MPS 080V150 9999 FEW018 24/15 Q1015 NOSIG
ZJSY,2006-01-22 05:00,ZJSY 220500Z 16003MPS 110V190 9999 SCT020 24/15 Q1014 NOSIG
ZJSY,2006-01-22 06:00,ZJSY 220600Z 19003MPS 170V230 9999 SCT020 24/16 Q1013 NOSIG
ZJSY,2006-01-22 07:00,ZJSY 220700Z 21003MPS 180V250 9999 SCT020 24/16 Q1012 NOSIG
ZJSY,2006-01-22 08:00,ZJSY 220800Z 24005MPS 9999 SCT020 23/16 Q1012 NOSIG
ZJSY,2006-01-22 09:00,ZJSY 220900Z 24004MPS 9999 SCT020 22/17 Q1013 NOSIG
ZJSY,2006-01-22 10:00,ZJSY 221000Z 25004MPS 9999 BKN020 22/17 Q1013 NOSIG
ZJSY,2006-01-22 11:00,ZJSY 221100Z 26003MPS 9999 BKN020 21/17 Q1013 NOSIG
ZJSY,2006-01-22 12:00,ZJSY 221200Z 30002MPS 280V340 9999 SCT020 21/17 Q1014 NOSIG
ZJSY,2006-01-22 13:00,ZJSY 221300Z 31002MPS 280V350 9999 SCT016 21/17 Q1015 NOSIG
ZJSY,2006-01-22 14:00,ZJSY 221400Z 08004MPS 9999 SCT016 20/16 Q1016 NOSIG
ZJSY,2006-01-22 15:00,ZJSY 221500Z 08004MPS 9999 SCT016 20/15 Q1016 NOSIG
ZJSY,2006-01-22 16:00,ZJSY 221600Z 08005MPS 9999 SCT015 20/15 Q1016 NOSIG
ZJSY,2006-01-22 17:00,ZJSY 221700Z 08003MPS 9999 SCT015 20/15 Q1016 NOSIG
ZJSY,2006-01-22 18:00,ZJSY 221800Z 08004MPS 9999 SCT016 BKN066 19/15 Q1016 NOSIG
ZJSY,2006-01-22 19:00,ZJSY 221900Z 08005MPS 9999 SCT016 BKN066 18/14 Q1015 NOSIG
ZJSY,2006-01-22 20:00,ZJSY 222000Z AUTO 08003MPS //// // ////// 19/14 Q1015 NOSIG
ZJSY,2006-01-22 21:00,ZJSY 222100Z 08002MPS 9999 -SHRA SCT016 OVC050 18/14 Q1016 NOSIG
ZJSY,2006-01-22 22:00,ZJSY 222200Z 08003MPS 9999 SCT016 OVC050 17/15 Q1016 NOSIG
ZJSY,2006-01-22 23:00,ZJSY 222300Z 06002MPS 040V100 9999 SCT016 OVC050 18/14 Q1017 NOSIG
ZJSY,2006-01-23 00:00,ZJSY 230000Z 08003MPS 9999 OVC050 18/13 Q1018 NOSIG
ZJSY,2006-01-23 01:00,ZJSY 230100Z 06004MPS 9999 SCT016 BKN050 19/13 Q1018 NOSIG
ZJSY,2006-01-23 02:00,ZJSY 230200Z 10004MPS 9999 FEW016 BKN050 19/13 Q1019 NOSIG
ZJSY,2006-01-23 03:00,ZJSY 230300Z 09005MPS 9999 FEW016 BKN060 20/13 Q1019 NOSIG
ZJSY,2006-01-23 04:00,ZJSY 230400Z 09005MPS 9999 FEW013 BKN060 20/13 Q1019 NOSIG
ZJSY,2006-01-23 05:00,ZJSY 230500Z 10004MPS 9999 FEW013 SCT053 21/13 Q1018 NOSIG
ZJSY,2006-01-23 06:00,ZJSY 230600Z 11003MPS 9999 BKN053 21/13 Q1017 NOSIG
ZJSY,2006-01-23 07:00,ZJSY 230700Z 10004MPS 9999 FEW013 BKN060 21/13 Q1016 NOSIG
ZJSY,2006-01-23 08:00,ZJSY 230800Z 11004MPS 080V140 9999 BKN060 21/13 Q1016 NOSIG
ZJSY,2006-01-23 09:00,ZJSY 230900Z 08004MPS 9999 SCT013 OVC060 21/12 Q1016 NOSIG
ZJSY,2006-01-23 10:00,ZJSY 231000Z 09005MPS 9999 BKN033 OVC060 20/12 Q1017 NOSIG
ZJSY,2006-01-23 11:00,ZJSY 231100Z 08006MPS 9999 SCT033 OVC060 19/12 Q1017 NOSIG
ZJSY,2006-01-23 12:00,ZJSY 231200Z 08006MPS 9999 SCT013 OVC060 18/11 Q1018 NOSIG
ZJSY,2006-01-23 13:00,ZJSY 231300Z 08006MPS 9999 SCT013 OVC060 18/12 Q1018 NOSIG
ZJSY,2006-01-23 14:00,ZJSY 231400Z 08006MPS 9999 BKN013 OVC060 18/12 Q1018 NOSIG
ZJSY,2006-01-23 15:00,ZJSY 231500Z 07004MPS 9999 SCT013 OVC060 18/11 Q1019 NOSIG
ZJSY,2006-01-23 16:00,ZJSY 231600Z 07003MPS 9999 SCT013 OVC060 18/12 Q1018 NOSIG
ZJSY,2006-01-23 17:00,ZJSY 231700Z 07002MPS 9999 FEW013 OVC060 18/12 Q1018 NOSIG
ZJSY,2006-01-23 18:00,ZJSY 231800Z 08003MPS 9999 FEW013 OVC060 18/11 Q1018 NOSIG
ZJSY,2006-01-23 19:00,ZJSY 231900Z 04002MPS 360V060 9999 FEW013 OVC060 19/12 Q1018 NOSIG
ZJSY,2006-01-23 20:00,ZJSY 232000Z AUTO VRB01MPS //// // ////// 19/12 Q1018 NOSIG
ZJSY,2006-01-23 21:00,ZJSY 232100Z 00000MPS 9999 OVC060 18/12 Q1018 NOSIG
ZJSY,2006-01-23 22:00,ZJSY 232200Z 07003MPS 9999 OVC060 18/11 Q1018 NOSIG
ZJSY,2006-01-23 23:00,ZJSY 232300Z 08002MPS 9999 SCT033 17/11 Q1019 NOSIG
ZJSY,2006-01-24 00:00,ZJSY 240000Z 06002MPS CAVOK 18/11 Q1020 NOSIG
ZJSY,2006-01-24 01:00,ZJSY 240100Z VRB01MPS CAVOK 19/12 Q1020 NOSIG
ZJSY,2006-01-24 02:00,ZJSY 240200Z 05003MPS CAVOK 22/11 Q1021 NOSIG
ZJSY,2006-01-24 03:00,ZJSY 240300Z 06004MPS CAVOK 24/11 Q1021 NOSIG
ZJSY,2006-01-24 04:00,ZJSY 240400Z 32003MPS 270V020 CAVOK 24/12 Q1020 NOSIG
ZJSY,2006-01-24 05:00,ZJSY 240500Z 20004MPS 160V230 9999 FEW018 24/14 Q1019 NOSIG
ZJSY,2006-01-24 06:00,ZJSY 240600Z 20004MPS 160V230 9999 FEW018 24/15 Q1018 NOSIG
ZJSY,2006-01-24 07:00,ZJSY 240700Z 18003MPS 140V220 9999 FEW018 23/14 Q1017 NOSIG
ZJSY,2006-01-24 08:00,ZJSY 240800Z 19003MPS 140V220 9999 FEW018 22/14 Q1017 NOSIG
ZJSY,2006-01-24 09:00,ZJSY 240900Z 22003MPS 170V250 9999 FEW018 22/15 Q1017 NOSIG
ZJSY,2006-01-24 10:00,ZJSY 241000Z 24003MPS 9999 FEW018 22/14 Q1017 NOSIG
ZJSY,2006-01-24 11:00,ZJSY 241100Z 24002MPS 9999 FEW016 21/15 Q1018 NOSIG
ZJSY,2006-01-24 12:00,ZJSY 241200Z 20001MPS 9999 FEW016 21/15 Q1018 NOSIG
ZJSY,2006-01-24 13:00,ZJSY 241300Z 00000MPS 9999 FEW016 21/15 Q1019 NOSIG
ZJSY,2006-01-24 14:00,ZJSY 241400Z 08003MPS 9999 FEW016 20/14 Q1019 NOSIG
ZJSY,2006-01-24 15:00,ZJSY 241500Z 08003MPS CAVOK 19/13 Q1019 NOSIG
ZJSY,2006-01-24 16:00,ZJSY 241600Z 08003MPS CAVOK 17/13 Q1019 NOSIG
ZJSY,2006-01-24 17:00,ZJSY 241700Z 06003MPS CAVOK 19/12 Q1019 NOSIG
ZJSY,2006-01-24 18:00,ZJSY 241800Z AUTO 08004MPS //// // ////// 19/12 Q1019 NOSIG
ZJSY,2006-01-24 19:00,ZJSY 241900Z AUTO 07003MPS //// // ////// 18/12 Q1019 NOSIG
ZJSY,2006-01-24 20:00,ZJSY 242000Z AUTO 08004MPS //// // ////// 18/12 Q1019 NOSIG
ZJSY,2006-01-24 21:00,ZJSY 242100Z 08004MPS 9999 FEW016 18/12 Q1019 NOSIG
ZJSY,2006-01-24 22:00,ZJSY 242200Z 07003MPS 9999 FEW016 18/12 Q1019 NOSIG
ZJSY,2006-01-24 23:00,ZJSY 242300Z 06003MPS 9999 FEW016 BKN053 18/11 Q1020 NOSIG
ZJSY,2006-01-25 00:00,ZJSY 250000Z 09002MPS 050V150 9999 FEW016 18/11 Q1020 NOSIG
ZJSY,2006-01-25 01:00,ZJSY 250100Z 04002MPS CAVOK 20/11 Q1020 NOSIG
ZJSY,2006-01-25 02:00,ZJSY 250200Z 09003MPS 050V160 CAVOK 21/11 Q1021 NOSIG
ZJSY,2006-01-25 03:00,ZJSY 250300Z 11003MPS CAVOK 23/12 Q1021 NOSIG
ZJSY,2006-01-25 04:00,ZJSY 250400Z 16003MPS CAVOK 23/12 Q1020 NOSIG
ZJSY,2006-01-25 05:00,ZJSY 250500Z 20003MPS 140V230 CAVOK 24/12 Q1019 NOSIG
ZJSY,2006-01-25 06:00,ZJSY 250600Z 23004MPS CAVOK 24/13 Q1018 NOSIG
ZJSY,2006-01-25 07:00,ZJSY 250700Z 21004MPS 170V230 CAVOK 24/15 Q1017 NOSIG
ZJSY,2006-01-25 08:00,ZJSY 250800Z 21004MPS 180V250 CAVOK 23/14 Q1018 NOSIG
ZJSY,2006-01-25 09:00,ZJSY 250900Z 21003MPS CAVOK 23/15 Q1018 NOSIG
ZJSY,2006-01-25 10:00,ZJSY 251000Z 22003MPS 180V250 9999 FEW016 22/14 Q1018 NOSIG
ZJSY,2006-01-25 11:00,ZJSY 251100Z 23003MPS 9999 FEW016 21/15 Q1019 NOSIG
ZJSY,2006-01-25 12:00,ZJSY 251200Z 24003MPS 210V270 9999 SCT013 22/15 Q1020 NOSIG
ZJSY,2006-01-25 13:00,ZJSY 251300Z 32002MPS 270V020 9999 FEW013 21/15 Q1020 NOSIG
ZJSY,2006-01-25 14:00,ZJSY 251400Z 34002MPS 9999 SCT013 20/15 Q1021 NOSIG
ZJSY,2006-01-25 15:00,ZJSY 251500Z VRB01MPS 9999 FEW013 21/15 Q1020 NOSIG
ZJSY,2006-01-25 16:00,ZJSY 251600Z VRB01MPS 9999 SCT013 20/16 Q1020 NOSIG
ZJSY,2006-01-25 17:00,ZJSY 251700Z 11001MPS CAVOK 20/16 Q1020 NOSIG
ZJSY,2006-01-25 18:00,ZJSY 251800Z 09002MPS 070V130 CAVOK 20/15 Q1020 NOSIG
ZJSY,2006-01-25 19:00,ZJSY 251900Z AUTO 00000MPS //// // ////// 20/15 Q1019 NOSIG
ZJSY,2006-01-25 20:00,ZJSY 252000Z AUTO 08001MPS //// // ////// 19/13 Q1019 NOSIG
ZJSY,2006-01-25 21:00,ZJSY 252100Z 09001MPS CAVOK 19/14 Q1019 NOSIG
ZJSY,2006-01-25 22:00,ZJSY 252200Z 00000MPS CAVOK 20/15 Q1019 NOSIG
ZJSY,2006-01-25 23:00,ZJSY 252300Z 08001MPS 9999 BKN050 19/14 Q1019 NOSIG
ZJSY,2006-01-26 00:00,ZJSY 260000Z 00000MPS CAVOK 20/14 Q1020 NOSIG
ZJSY,2006-01-26 01:00,ZJSY 260100Z 32002MPS 300V030 CAVOK 21/13 Q1020 NOSIG
ZJSY,2006-01-26 02:00,ZJSY 260200Z 26002MPS 220V300 CAVOK 22/13 Q1021 NOSIG
ZJSY,2006-01-26 03:00,ZJSY 260300Z 24002MPS 200V280 9999 BKN060 23/14 Q1021 NOSIG
ZJSY,2006-01-26 04:00,ZJSY 260400Z 21003MPS 160V250 9999 BKN053 23/13 Q1021 NOSIG
ZJSY,2006-01-26 05:00,ZJSY 260500Z 22004MPS 9999 BKN053 23/14 Q1020 NOSIG
ZJSY,2006-01-26 06:00,ZJSY 260600Z 21004MPS 170V240 9999 BKN050 23/14 Q1019 NOSIG
ZJSY,2006-01-26 07:00,ZJSY 260700Z 21003MPS 180V240 9999 BKN046 22/13 Q1018 NOSIG
ZJSY,2006-01-26 08:00,ZJSY 260800Z 21003MPS 180V240 9999 BKN046 22/13 Q1018 NOSIG
ZJSY,2006-01-26 09:00,ZJSY 260900Z 19002MPS 150V220 8000 NSC 22/14 Q1018 NOSIG
ZJSY,2006-01-26 10:00,ZJSY 261000Z VRB01MPS 8000 NSC 22/14 Q1018 NOSIG
ZJSY,2006-01-26 11:00,ZJSY 261100Z VRB01MPS 8000 NSC 21/13 Q1019 NOSIG
ZJSY,2006-01-26 12:00,ZJSY 261200Z 33002MPS 310V010 8000 NSC 21/14 Q1019 NOSIG
ZJSY,2006-01-26 13:00,ZJSY 261300Z VRB01MPS 8000 NSC 21/14 Q1020 NOSIG
ZJSY,2006-01-26 14:00,ZJSY 261400Z 34002MPS 300V040 CAVOK 21/12 Q1020 NOSIG
ZJSY,2006-01-26 15:00,ZJSY 261500Z 31002MPS 280V030 CAVOK 21/13 Q1020 NOSIG
ZJSY,2006-01-26 16:00,ZJSY 261600Z VRB01MPS 9999 SCT016 21/13 Q1020 NOSIG
ZJSY,2006-01-26 17:00,ZJSY 261700Z 00000MPS 9999 FEW016 20/14 Q1020 NOSIG
ZJSY,2006-01-26 18:00,ZJSY 261800Z VRB01MPS 9999 FEW016 20/14 Q1019 NOSIG
ZJSY,2006-01-26 19:00,ZJSY 261900Z 08002MPS 9999 FEW016 19/12 Q1018 NOSIG
ZJSY,2006-01-26 20:00,ZJSY 262000Z 00000MPS 9999 FEW016 19/14 Q1018 NOSIG
ZJSY,2006-01-26 21:00,ZJSY 262100Z 07002MPS 9999 FEW016 19/12 Q1017 NOSIG
ZJSY,2006-01-26 22:00,ZJSY 262200Z 08003MPS 9999 FEW016 19/11 Q1018 NOSIG
ZJSY,2006-01-26 23:00,ZJSY 262300Z VRB01MPS 9999 FEW016 19/13 Q1018 NOSIG
ZJSY,2006-01-27 00:00,ZJSY 270000Z 02001MPS 6000 NSC 19/13 Q1018 NOSIG
ZJSY,2006-01-27 01:00,ZJSY 270100Z 33002MPS 300V360 6000 NSC 19/13 Q1019 NOSIG
ZJSY,2006-01-27 02:00,ZJSY 270200Z 30002MPS 270V330 6000 NSC 20/13 Q1019 NOSIG
ZJSY,2006-01-27 03:00,ZJSY 270300Z 27002MPS 220V320 7000 NSC 21/13 Q1019 NOSIG
ZJSY,2006-01-27 04:00,ZJSY 270400Z 21002MPS 160V230 7000 SCT016 BKN060 21/13 Q1019 NOSIG
ZJSY,2006-01-27 05:00,ZJSY 270500Z 21002MPS 170V250 7000 SCT016 BKN060 21/13 Q1018 NOSIG
ZJSY,2006-01-27 06:00,ZJSY 270600Z 20002MPS 160V240 7000 BKN060 21/13 Q1017 NOSIG
ZJSY,2006-01-27 07:00,ZJSY 270700Z 20002MPS 160V250 6000 BKN060 21/14 Q1016 NOSIG
ZJSY,2006-01-27 08:00,ZJSY 270800Z 20002MPS 160V260 6000 BKN060 21/14 Q1015 NOSIG
ZJSY,2006-01-27 09:00,ZJSY 270900Z 16002MPS 120V200 8000 OVC053 21/14 Q1015 NOSIG
ZJSY,2006-01-27 10:00,ZJSY 271000Z VRB01MPS 8000 OVC053 20/14 Q1016 NOSIG
ZJSY,2006-01-27 11:00,ZJSY 271100Z VRB01MPS 8000 BKN046 OVC060 20/15 Q1016 NOSIG
ZJSY,2006-01-27 12:00,ZJSY 271200Z 00000MPS 8000 BKN046 OVC060 20/16 Q1017 NOSIG
ZJSY,2006-01-27 13:00,ZJSY 271300Z 10001MPS 6000 BKN053 OVC066 19/16 Q1017 NOSIG
ZJSY,2006-01-27 14:00,ZJSY 271400Z 08002MPS 6000 BKN046 OVC060 19/16 Q1018 NOSIG
ZJSY,2006-01-27 15:00,ZJSY 271500Z 08001MPS 6000 BKN046 OVC060 19/16 Q1018 NOSIG
ZJSY,2006-01-27 16:00,ZJSY 271600Z 08001MPS 6000 BKN053 OVC060 19/16 Q1017 NOSIG
ZJSY,2006-01-27 17:00,ZJSY 271700Z 00000MPS 5000 BR BKN053 OVC060 19/16 Q1017 NOSIG
ZJSY,2006-01-27 18:00,ZJSY 271800Z 08001MPS 5000 BR BKN050 OVC060 19/16 Q1016 NOSIG
ZJSY,2006-01-27 19:00,ZJSY 271900Z 00000MPS 4000 BR BKN050 OVC060 18/17 Q1015 NOSIG
ZJSY,2006-01-27 20:00,ZJSY 272000Z 00000MPS 4000 BR BKN050 OVC060 19/17 Q1015 NOSIG
ZJSY,2006-01-27 21:00,ZJSY 272100Z 00000MPS 4000 BR BKN050 OVC060 19/17 Q1015 NOSIG
ZJSY,2006-01-27 22:00,ZJSY 272200Z VRB01MPS 6000 BKN050 OVC060 18/17 Q1015 NOSIG
ZJSY,2006-01-27 23:00,ZJSY 272300Z 00000MPS 6000 OVC053 19/17 Q1015 NOSIG
ZJSY,2006-01-28 00:00,ZJSY 280000Z 00000MPS 5000 BR OVC053 19/17 Q1016 NOSIG
ZJSY,2006-01-28 01:00,ZJSY 280100Z 00000MPS 5000 BR OVC060 19/17 Q1016 NOSIG
ZJSY,2006-01-28 02:00,ZJSY 280200Z 00000MPS 2500 DZ BR SCT005 OVC030 19/17 Q1017 NOSIG
ZJSY,2006-01-28 03:00,ZJSY 280300Z 00000MPS 4000 BR SCT005 OVC040 20/18 Q1016 REDZ NOSIG
ZJSY,2006-01-28 04:00,ZJSY 280400Z VRB01MPS 5000 BR SCT007 OVC040 20/18 Q1016 NOSIG
ZJSY,2006-01-28 05:00,ZJSY 280500Z 20002MPS 170V230 3000 -RA BR BKN005 OVC040 20/18 Q1015 NOSIG
ZJSY,2006-01-28 06:00,ZJSY 280600Z 23002MPS 200V260 2500 -RA BR BKN004 OVC040 20/19 Q1014 NOSIG
ZJSY,2006-01-28 07:00,ZJSY 280700Z 24002MPS 190V270 2500 -RA BR BKN004 OVC040 21/19 Q1013 NOSIG
ZJSY,2006-01-28 08:00,ZJSY 280800Z 24003MPS 2500 -RA BR BKN003 OVC040 21/19 Q1012 NOSIG
ZJSY,2006-01-28 09:00,ZJSY 280900Z 24002MPS 2500 -RA BR BKN003 OVC033 21/20 Q1013 NOSIG
ZJSY,2006-01-28 10:00,ZJSY 281000Z AUTO 23002KT 2SM 21/20 A2991 RMK T02100200 IEM_DS3505
ZJSY,2006-01-28 11:00,ZJSY 281100Z 00000MPS 2000 -RA BR BKN003 OVC033 21/20 Q1013 NOSIG
ZJSY,2006-01-28 12:00,ZJSY 281200Z 00000MPS 2500 -RA BR BKN008 OVC040 21/19 Q1014 NOSIG
ZJSY,2006-01-28 13:00,ZJSY 281300Z 00000MPS 2500 BR DZ BKN008 OVC040 21/19 Q1014 NOSIG
ZJSY,2006-01-28 14:00,ZJSY 281400Z 00000MPS 2000 DZ BR BKN005 OVC040 21/20 Q1014 NOSIG
ZJSY,2006-01-28 15:00,ZJSY 281500Z 08002MPS 3500 BR SCT010 OVC043 21/19 Q1014 REDZ NOSIG
ZJSY,2006-01-28 16:00,ZJSY 281600Z 08002MPS 3500 BR SCT008 OVC043 20/19 Q1014 NOSIG
ZJSY,2006-01-28 17:00,ZJSY 281700Z 09003MPS 4000 BR SCT010 BKN050 20/18 Q1014 NOSIG
ZJSY,2006-01-28 18:00,ZJSY 281800Z AUTO VRB01MPS //// // ////// 20/18 Q1014 NOSIG
ZJSY,2006-01-28 19:00,ZJSY 281900Z AUTO 06002MPS //// // ////// 20/18 Q1013 NOSIG
ZJSY,2006-01-28 20:00,ZJSY 282000Z AUTO 04001MPS //// // ////// 20/18 Q1013 NOSIG
ZJSY,2006-01-28 21:00,ZJSY 282100Z 00000MPS 5000 BR BKN040 20/18 Q1014 NOSIG
ZJSY,2006-01-28 22:00,ZJSY 282200Z 00000MPS 5000 BR FEW010 BKN040 20/18 Q1014 NOSIG
ZJSY,2006-01-28 23:00,ZJSY 282300Z 00000MPS 5000 BR SCT016 BKN040 20/18 Q1015 NOSIG
ZJSY,2006-01-29 00:00,ZJSY 290000Z 00000MPS 9999 FEW016 BKN066 20/18 Q1015 NOSIG
ZJSY,2006-01-29 01:00,ZJSY 290100Z 00000MPS 3000 DZ SCT010 OVC033 21/19 Q1016 NOSIG
ZJSY,2006-01-29 02:00,ZJSY 290200Z 00000MPS 8000 SCT012 BKN033 22/20 Q1017 REDZ NOSIG
ZJSY,2006-01-29 03:00,ZJSY 290300Z 11002MPS 040V200 9999 SCT018 25/21 Q1017 NOSIG
ZJSY,2006-01-29 04:00,ZJSY 290400Z 20002MPS 180V240 9999 SCT018 24/19 Q1016 NOSIG
ZJSY,2006-01-29 05:00,ZJSY 290500Z 21002MPS 170V250 9999 SCT018 24/20 Q1016 NOSIG
ZJSY,2006-01-29 06:00,ZJSY 290600Z 21002MPS 180V240 9999 SCT018 24/19 Q1015 NOSIG
ZJSY,2006-01-29 07:00,ZJSY 290700Z 23004MPS 9999 BKN018 24/20 Q1014 NOSIG
ZJSY,2006-01-29 08:00,ZJSY 290800Z 26004MPS 9999 SCT014 BKN018 24/20 Q1014 NOSIG
ZJSY,2006-01-29 09:00,ZJSY 290900Z 27002MPS 250V330 9999 SCT014 BKN040 BKN066 24/19 Q1014 NOSIG
ZJSY,2006-01-29 10:00,ZJSY 291000Z 09003MPS 050V150 9999 SCT018 BKN043 24/19 Q1014 NOSIG
ZJSY,2006-01-29 11:00,ZJSY 291100Z 09003MPS 9999 SCT018 BKN043 23/19 Q1014 NOSIG
ZJSY,2006-01-29 12:00,ZJSY 291200Z VRB01MPS 9999 FEW018 BKN050 23/19 Q1015 NOSIG
ZJSY,2006-01-29 13:00,ZJSY 291300Z 10002MPS 9999 BKN050 23/19 Q1015 NOSIG
ZJSY,2006-01-29 14:00,ZJSY 291400Z 09002MPS 9999 BKN050 22/19 Q1016 NOSIG
ZJSY,2006-01-29 15:00,ZJSY 291500Z 07003MPS CAVOK 22/19 Q1015 NOSIG
ZJSY,2006-01-29 16:00,ZJSY 291600Z 00000MPS CAVOK 21/19 Q1016 NOSIG
ZJSY,2006-01-29 17:00,ZJSY 291700Z 03001MPS CAVOK 21/18 Q1016 NOSIG
ZJSY,2006-01-29 18:00,ZJSY 291800Z 00000MPS CAVOK 21/19 Q1016 NOSIG
ZJSY,2006-01-29 19:00,ZJSY 291900Z 00000MPS CAVOK 21/19 Q1015 NOSIG
ZJSY,2006-01-29 20:00,ZJSY 292000Z 10002MPS CAVOK 22/19 Q1015 NOSIG
ZJSY,2006-01-29 21:00,ZJSY 292100Z 00000MPS 9999 SCT053 21/18 Q1015 NOSIG
ZJSY,2006-01-29 22:00,ZJSY 292200Z 08003MPS 9999 BKN040 BKN060 22/19 Q1016 NOSIG
ZJSY,2006-01-29 23:00,ZJSY 292300Z 08002MPS 9999 BKN040 BKN060 22/20 Q1016 NOSIG
ZJSY,2006-01-30 00:00,ZJSY 300000Z 05004MPS 9999 FEW016 BKN046 23/20 Q1017 NOSIG
ZJSY,2006-01-30 01:00,ZJSY 300100Z 06007MPS CAVOK 25/20 Q1017 NOSIG
ZJSY,2006-01-30 02:00,ZJSY 300200Z 10005MPS 060V130 9999 FEW016 26/20 Q1018 NOSIG
ZJSY,2006-01-30 03:00,ZJSY 300300Z 11005MPS 9999 FEW016 26/21 Q1018 NOSIG
ZJSY,2006-01-30 04:00,ZJSY 300400Z 11004MPS 9999 FEW016 27/21 Q1018 NOSIG
ZJSY,2006-01-30 05:00,ZJSY 300500Z 12003MPS 100V160 9999 SCT016 27/21 Q1017 NOSIG
ZJSY,2006-01-30 06:00,ZJSY 300600Z 13004MPS 100V160 9999 BKN016 28/21 Q1016 NOSIG
ZJSY,2006-01-30 07:00,ZJSY 300700Z 10004MPS 070V130 9999 FEW016 28/20 Q1015 NOSIG
ZJSY,2006-01-30 08:00,ZJSY 300800Z 14004MPS 090V170 9999 FEW016 27/21 Q1015 NOSIG
ZJSY,2006-01-30 09:00,ZJSY 300900Z 10005MPS 080V140 9999 FEW016 27/20 Q1016 NOSIG
ZJSY,2006-01-30 10:00,ZJSY 301000Z 08006MPS 9999 FEW016 26/20 Q1016 NOSIG
ZJSY,2006-01-30 11:00,ZJSY 301100Z 08005MPS 9999 SCT016 BKN043 25/20 Q1017 NOSIG
ZJSY,2006-01-30 12:00,ZJSY 301200Z 08005MPS 9999 SCT016 BKN043 24/20 Q1017 NOSIG
ZJSY,2006-01-30 13:00,ZJSY 301300Z 08005MPS 9999 FEW016 BKN043 24/20 Q1018 NOSIG
ZJSY,2006-01-30 14:00,ZJSY 301400Z 08005MPS 9999 FEW016 BKN050 24/20 Q1018 NOSIG
ZJSY,2006-01-30 15:00,ZJSY 301500Z 07006MPS 9999 FEW016 BKN050 24/20 Q1018 NOSIG
ZJSY,2006-01-30 16:00,ZJSY 301600Z 08006MPS 9999 BKN050 24/20 Q1018 NOSIG
ZJSY,2006-01-30 17:00,ZJSY 301700Z 07004MPS 9999 BKN050 23/20 Q1018 NOSIG
ZJSY,2006-01-30 18:00,ZJSY 301800Z 09003MPS 9999 BKN050 23/20 Q1018 NOSIG
ZJSY,2006-01-30 19:00,ZJSY 301900Z 10002MPS 9999 FEW016 23/20 Q1017 NOSIG
ZJSY,2006-01-30 21:00,ZJSY 302100Z 09002MPS 9999 FEW016 23/20 Q1018 NOSIG
ZJSY,2006-01-30 22:00,ZJSY 302200Z 00000MPS 9999 FEW016 23/20 Q1018 NOSIG
ZJSY,2006-01-30 23:00,ZJSY 302300Z 00000MPS 9999 BKN050 23/20 Q1018 NOSIG
ZJSY,2006-01-31 00:00,ZJSY 310000Z AUTO 09002KT 6SM 23/20 A3009 RMK T02300200 IEM_DS3505
ZJSY,2006-01-31 01:00,ZJSY 310100Z AUTO 6SM 25/20 A3012 RMK T02500200 IEM_DS3505
ZJSY,2006-01-31 02:00,ZJSY 310200Z AUTO 09010KT 6SM 26/20 A3012 RMK T02600200 IEM_DS3505
ZJSY,2006-01-31 03:00,ZJSY 310300Z AUTO 09008KT 6SM 26/20 A3012 RMK T02600200 IEM_DS3505
ZJSY,2006-01-31 04:00,ZJSY 310400Z AUTO 10008KT 7SM 28/20 A3009 RMK T02800200 IEM_DS3505
ZJSY,2006-01-31 05:00,ZJSY 310500Z AUTO 16010KT 7SM 27/21 A3006 RMK T02700210 IEM_DS3505
ZJSY,2006-01-31 06:00,ZJSY 310600Z AUTO 15008KT 7SM 27/21 A3003 RMK T02700210 IEM_DS3505
ZJSY,2006-01-31 07:00,ZJSY 310700Z 15004MPS 120V180 9999 FEW016 27/20 Q1016 NOSIG
ZJSY,2006-01-31 08:00,ZJSY 310800Z 15005MPS 120V190 9999 FEW016 26/20 Q1016 NOSIG
ZJSY,2006-01-31 09:00,ZJSY 310900Z AUTO 16008KT 7SM 25/20 A3000 RMK T02500200 IEM_DS3505
ZJSY,2006-01-31 10:00,ZJSY 311000Z AUTO 14004KT 7SM 25/20 A3003 RMK T02500200 IEM_DS3505
ZJSY,2006-01-31 11:00,ZJSY 311100Z AUTO 13004KT 7SM 24/20 A3006 RMK T02400200 IEM_DS3505
ZJSY,2006-01-31 12:00,ZJSY 311200Z 11002MPS 070V130 9999 BKN010 BKN016 24/20 Q1018 NOSIG
ZJSY,2006-01-31 13:00,ZJSY 311300Z AUTO 09004KT 7SM 24/20 A3009 RMK T02400200 IEM_DS3505
ZJSY,2006-01-31 14:00,ZJSY 311400Z AUTO 08004KT 7SM 23/19 A3012 RMK T02300190 IEM_DS3505
ZJSY,2006-01-31 15:00,ZJSY 311500Z AUTO 06006KT 6SM 23/20 A3012 RMK T02300200 IEM_DS3505
ZJSY,2006-01-31 16:00,ZJSY 311600Z AUTO 04006KT 6SM 23/19 A3012 RMK T02300190 IEM_DS3505
ZJSY,2006-01-31 17:00,ZJSY 311700Z AUTO 00000KT 6SM 22/19 A3012 RMK T02200190 IEM_DS3505
ZJSY,2006-01-31 18:00,ZJSY 311800Z AUTO 00000KT 21/18 A3012 RMK T02100180 IEM_DS3505
ZJSY,2006-01-31 19:00,ZJSY 311900Z AUTO 00000KT 20/18 A3009 RMK T02000180 IEM_DS3505
ZJSY,2006-01-31 20:00,ZJSY 312000Z AUTO 32002KT 20/18 A3009 RMK T02000180 IEM_DS3505
ZJSY,2006-01-31 21:00,ZJSY 312100Z AUTO 00000KT 7SM 20/18 A3009 RMK T02000180 IEM_DS3505
ZJSY,2006-01-31 22:00,ZJSY 312200Z AUTO 00000KT 7SM 20/18 A3009 RMK T02000180 IEM_DS3505
ZJSY,2006-01-31 23:00,ZJSY 312300Z AUTO 7SM 19/18 A3012 RMK T01900180 IEM_DS3505
ZJSY,2006-02-01 00:00,ZJSY 010000Z AUTO 35004KT 7SM 20/18 A3012 RMK T02000180 IEM_DS3505
ZJSY,2006-02-01 01:00,ZJSY 010100Z AUTO 34004KT 6SM 23/19 A3015 RMK T02300190 IEM_DS3505
ZJSY,2006-02-01 02:00,ZJSY 010200Z AUTO 7SM 25/19 A3015 RMK T02500190 IEM_DS3505
ZJSY,2006-02-01 03:00,ZJSY 010300Z AUTO 14006KT 7SM 27/20 A3015 RMK T02700200 IEM_DS3505
ZJSY,2006-02-01 04:00,ZJSY 010400Z AUTO 18006KT 7SM 26/20 A3012 RMK T02600200 IEM_DS3505
ZJSY,2006-02-01 05:00,ZJSY 010500Z AUTO 18008KT 7SM 25/21 A3009 RMK T02500210 IEM_DS3505
ZJSY,2006-02-01 06:00,ZJSY 010600Z 18004MPS 140V210 CAVOK 26/20 Q1018 NOSIG
ZJSY,2006-02-01 07:00,ZJSY 010700Z 18004MPS 160V220 CAVOK 26/20 Q1017 NOSIG
ZJSY,2006-02-01 08:00,ZJSY 010800Z 16005MPS CAVOK 26/18 Q1016 NOSIG
ZJSY,2006-02-01 09:00,ZJSY 010900Z AUTO 16008KT 6SM 25/20 A3000 RMK T02500200 IEM_DS3505
ZJSY,2006-02-01 10:00,ZJSY 011000Z AUTO 14006KT 6SM 25/16 A3003 RMK T02500160 IEM_DS3505
ZJSY,2006-02-01 11:00,ZJSY 011100Z 08004MPS 9999 SCT033 24/13 Q1017 NOSIG
ZJSY,2006-02-01 12:00,ZJSY 011200Z 10003MPS 9999 SCT053 24/14 Q1017 NOSIG
ZJSY,2006-02-01 13:00,ZJSY 011300Z AUTO 09004KT 6SM 22/17 A3006 RMK T02200170 IEM_DS3505
ZJSY,2006-02-01 14:00,ZJSY 011400Z 09002MPS CAVOK 22/17 Q1019 NOSIG
ZJSY,2006-02-01 15:00,ZJSY 011500Z AUTO 09008KT 6SM 21/17 A3009 RMK T02100170 IEM_DS3505
ZJSY,2006-02-01 16:00,ZJSY 011600Z AUTO 07004KT 6SM 20/17 A3009 RMK T02000170 IEM_DS3505
ZJSY,2006-02-01 17:00,ZJSY 011700Z AUTO 6SM 20/17 A3009 RMK T02000170 IEM_DS3505
ZJSY,2006-02-01 18:00,ZJSY 011800Z AUTO 6SM 20/16 A3006 RMK T02000160 IEM_DS3505
ZJSY,2006-02-01 19:00,ZJSY 011900Z AUTO 20/16 A3006 RMK T02000160 IEM_DS3505
ZJSY,2006-02-01 20:00,ZJSY 012000Z AUTO 06004KT 19/16 A3006 RMK T01900160 IEM_DS3505
ZJSY,2006-02-01 21:00,ZJSY 012100Z AUTO 6SM 19/15 A3006 RMK T01900150 IEM_DS3505
ZJSY,2006-02-01 22:00,ZJSY 012200Z AUTO 06004KT 6SM 19/16 A3006 RMK T01900160 IEM_DS3505
ZJSY,2006-02-01 23:00,ZJSY 012300Z AUTO 08006KT 6SM 19/16 A3009 RMK T01900160 IEM_DS3505
ZJSY,2006-02-02 00:00,ZJSY 020000Z AUTO 08006KT 6SM 20/16 A3009 RMK T02000160 IEM_DS3505
ZJSY,2006-02-02 01:00,ZJSY 020100Z AUTO 08008KT 6SM 23/17 A3009 RMK T02300170 IEM_DS3505
ZJSY,2006-02-02 02:00,ZJSY 020200Z AUTO 09012KT 6SM 25/17 A3012 RMK T02500170 IEM_DS3505
ZJSY,2006-02-02 03:00,ZJSY 020300Z AUTO 08014KT 6SM 26/17 A3012 RMK T02600170 IEM_DS3505
ZJSY,2006-02-02 04:00,ZJSY 020400Z AUTO 10010KT 6SM 27/17 A3009 RMK T02700170 IEM_DS3505
ZJSY,2006-02-02 05:00,ZJSY 020500Z 10005MPS 060V130 CAVOK 28/17 Q1019 NOSIG
ZJSY,2006-02-02 06:00,ZJSY 020600Z AUTO 10012KT 6SM 28/14 A3006 RMK T02800140 IEM_DS3505
ZJSY,2006-02-02 07:00,ZJSY 020700Z AUTO 10014KT 6SM 27/13 A3003 RMK T02700130 IEM_DS3505
ZJSY,2006-02-02 08:00,ZJSY 020800Z AUTO 12008KT 6SM 27/16 A3003 RMK T02700160 IEM_DS3505
ZJSY,2006-02-02 09:00,ZJSY 020900Z AUTO 11010KT 6SM 26/17 A3003 RMK T02600170 IEM_DS3505
ZJSY,2006-02-02 10:00,ZJSY 021000Z AUTO 10010KT 6SM 24/17 A3003 RMK T02400170 IEM_DS3505
ZJSY,2006-02-02 11:00,ZJSY 021100Z AUTO 08012KT 6SM 23/18 A3006 RMK T02300180 IEM_DS3505
ZJSY,2006-02-02 12:00,ZJSY 021200Z AUTO 08010KT 6SM 22/18 A3006 RMK T02200180 IEM_DS3505
ZJSY,2006-02-02 13:00,ZJSY 021300Z 08004MPS 9999 FEW016 22/18 Q1019 NOSIG
ZJSY,2006-02-02 14:00,ZJSY 021400Z AUTO 07010KT 7SM 22/18 A3009 RMK T02200180 IEM_DS3505
ZJSY,2006-02-02 15:00,ZJSY 021500Z AUTO 07008KT 7SM 22/17 A3009 RMK T02200170 IEM_DS3505
ZJSY,2006-02-02 16:00,ZJSY 021600Z 07004MPS 9999 FEW016 21/18 Q1019 NOSIG
ZJSY,2006-02-02 17:00,ZJSY 021700Z AUTO 08006KT 7SM 21/17 A3009 RMK T02100170 IEM_DS3505
ZJSY,2006-02-02 18:00,ZJSY 021800Z AUTO 08008KT 7SM 21/17 A3009 RMK T02100170 IEM_DS3505
ZJSY,2006-02-02 19:00,ZJSY 021900Z AUTO 08008KT 21/17 A3006 RMK T02100170 IEM_DS3505
ZJSY,2006-02-02 20:00,ZJSY 022000Z AUTO 07010KT 21/17 A3006 RMK T02100170 IEM_DS3505
ZJSY,2006-02-02 21:00,ZJSY 022100Z AUTO 07006KT 6SM 21/17 A3009 RMK T02100170 IEM_DS3505
ZJSY,2006-02-02 22:00,ZJSY 022200Z AUTO 08006KT 6SM 20/17 A3009 RMK T02000170 IEM_DS3505
ZJSY,2006-02-02 23:00,ZJSY 022300Z AUTO 09004KT 6SM 21/17 A3012 RMK T02100170 IEM_DS3505
ZJSY,2006-02-03 00:00,ZJSY 030000Z AUTO 00000KT 6SM 21/17 A3012 RMK T02100170 IEM_DS3505
ZJSY,2006-02-03 01:00,ZJSY 030100Z AUTO 06014KT 6SM 24/16 A3012 RMK T02400160 IEM_DS3505
ZJSY,2006-02-03 02:00,ZJSY 030200Z AUTO 05012KT 6SM 26/16 A3015 RMK T02600160 IEM_DS3505
ZJSY,2006-02-03 03:00,ZJSY 030300Z AUTO 08012KT 6SM 27/15 A3018 RMK T02700150 IEM_DS3505
ZJSY,2006-02-03 04:00,ZJSY 030400Z AUTO 08014KT 7SM 28/16 A3015 RMK T02800160 IEM_DS3505
ZJSY,2006-02-03 05:00,ZJSY 030500Z AUTO 07010KT 7SM 29/16 A3012 RMK T02900160 IEM_DS3505
ZJSY,2006-02-03 06:00,ZJSY 030600Z AUTO 10012KT 7SM 29/17 A3009 RMK T02900170 IEM_DS3505
ZJSY,2006-02-03 07:00,ZJSY 030700Z AUTO 09016KT 7SM 28/17 A3009 RMK T02800170 IEM_DS3505
ZJSY,2006-02-03 08:00,ZJSY 030800Z AUTO 08010KT 7SM 26/17 A3009 RMK T02600170 IEM_DS3505
ZJSY,2006-02-03 09:00,ZJSY 030900Z AUTO 7SM 24/19 A3009 RMK T02400190 IEM_DS3505
ZJSY,2006-02-03 10:00,ZJSY 031000Z AUTO 19004KT 7SM 24/19 A3012 RMK T02400190 IEM_DS3505
ZJSY,2006-02-03 11:00,ZJSY 031100Z AUTO 7SM 24/19 A3015 RMK T02400190 IEM_DS3505
ZJSY,2006-02-03 12:00,ZJSY 031200Z 10002MPS 070V130 9999 SCT013 SCT016 23/18 Q1021 NOSIG
ZJSY,2006-02-03 13:00,ZJSY 031300Z AUTO 7SM 22/18 A3018 RMK T02200180 IEM_DS3505
ZJSY,2006-02-03 14:00,ZJSY 031400Z AUTO 05006KT 7SM 22/18 A3021 RMK T02200180 IEM_DS3505
ZJSY,2006-02-03 15:00,ZJSY 031500Z AUTO 07006KT 7SM 22/18 A3021 RMK T02200180 IEM_DS3505
ZJSY,2006-02-03 16:00,ZJSY 031600Z AUTO 7SM 22/18 A3021 RMK T02200180 IEM_DS3505
ZJSY,2006-02-03 17:00,ZJSY 031700Z AUTO 00000KT 7SM 21/17 A3018 RMK T02100170 IEM_DS3505
ZJSY,2006-02-03 18:00,ZJSY 031800Z AUTO 7SM 19/17 A3018 RMK T01900170 IEM_DS3505
ZJSY,2006-02-03 20:00,ZJSY 032000Z AUTO 06010KT 7SM 22/17 A3015 RMK T02200170 IEM_DS3505
ZJSY,2006-02-03 21:00,ZJSY 032100Z AUTO 07010KT 7SM 22/17 A3018 RMK T02200170 IEM_DS3505
ZJSY,2006-02-03 22:00,ZJSY 032200Z AUTO 07010KT 7SM 22/16 A3018 RMK T02200160 IEM_DS3505
ZJSY,2006-02-03 23:00,ZJSY 032300Z AUTO 08006KT 7SM 21/16 A3018 RMK T02100160 IEM_DS3505
ZJSY,2006-02-04 00:00,ZJSY 040000Z AUTO 06008KT 7SM 22/15 A3021 RMK T02200150 IEM_DS3505
ZJSY,2006-02-04 01:00,ZJSY 040100Z AUTO 07010KT 6SM 23/16 A3021 RMK T02300160 IEM_DS3505
ZJSY,2006-02-04 02:00,ZJSY 040200Z AUTO 07014G25KT 7SM 25/15 A3024 RMK T02500150 IEM_DS3505
ZJSY,2006-02-04 03:00,ZJSY 040300Z AUTO 07016KT 7SM 26/15 A3024 RMK T02600150 IEM_DS3505
ZJSY,2006-02-04 04:00,ZJSY 040400Z AUTO 09016KT 7SM 26/15 A3021 RMK T02600150 IEM_DS3505
ZJSY,2006-02-04 05:00,ZJSY 040500Z AUTO 10014KT 7SM 26/16 A3018 RMK T02600160 IEM_DS3505
ZJSY,2006-02-04 06:00,ZJSY 040600Z AUTO 10014KT 7SM 26/16 A3015 RMK T02600160 IEM_DS3505
ZJSY,2006-02-04 07:00,ZJSY 040700Z AUTO 10016KT 7SM 26/16 A3009 RMK T02600160 IEM_DS3505
ZJSY,2006-02-04 08:00,ZJSY 040800Z AUTO 08017KT 7SM 26/16 A3009 RMK T02600160 IEM_DS3505
ZJSY,2006-02-04 09:00,ZJSY 040900Z AUTO 09017KT 6SM 25/16 A3009 RMK T02500160 IEM_DS3505
ZJSY,2006-02-04 10:00,ZJSY 041000Z AUTO 09016KT 6SM 23/16 A3009 RMK T02300160 IEM_DS3505
ZJSY,2006-02-04 11:00,ZJSY 041100Z AUTO 08014KT 6SM 22/15 A3012 RMK T02200150 IEM_DS3505
ZJSY,2006-02-04 12:00,ZJSY 041200Z 07005MPS CAVOK 21/15 Q1021 NOSIG
ZJSY,2006-02-04 13:00,ZJSY 041300Z AUTO 06008KT 6SM 21/15 A3015 RMK T02100150 IEM_DS3505
ZJSY,2006-02-04 14:00,ZJSY 041400Z AUTO 07008KT 6SM 20/15 A3018 RMK T02000150 IEM_DS3505
ZJSY,2006-02-04 15:00,ZJSY 041500Z AUTO 07006KT 6SM 20/15 A3018 RMK T02000150 IEM_DS3505
ZJSY,2006-02-04 16:00,ZJSY 041600Z AUTO 08006KT 7SM 20/16 A3018 RMK T02000160 IEM_DS3505
ZJSY,2006-02-04 17:00,ZJSY 041700Z AUTO 08006KT 7SM 20/16 A3015 RMK T02000160 IEM_DS3505
ZJSY,2006-02-04 18:00,ZJSY 041800Z AUTO 07010KT 7SM 20/16 A3015 RMK T02000160 IEM_DS3505
ZJSY,2006-02-04 19:00,ZJSY 041900Z AUTO 05010KT 20/16 A3012 RMK T02000160 IEM_DS3505
ZJSY,2006-02-04 20:00,ZJSY 042000Z AUTO 06003MPS //// // ////// 20/16 Q1019 NOSIG
ZJSY,2006-02-04 21:00,ZJSY 042100Z AUTO 07006KT 7SM 19/16 A3009 RMK T01900160 IEM_DS3505
ZJSY,2006-02-04 22:00,ZJSY 042200Z AUTO 09004KT 7SM 20/16 A3009 RMK T02000160 IEM_DS3505
ZJSY,2006-02-04 23:00,ZJSY 042300Z AUTO 06010KT 7SM 21/16 A3012 RMK T02100160 IEM_DS3505
ZJSY,2006-02-05 00:00,ZJSY 050000Z AUTO 07010KT 1 1/2SM 21/17 A3012 RMK T02100170 IEM_DS3505
ZJSY,2006-02-05 01:00,ZJSY 050100Z AUTO 07004KT 5SM 19/18 A3015 RMK T01900180 IEM_DS3505
ZJSY,2006-02-05 02:00,ZJSY 050200Z AUTO 7SM 21/19 A3015 RMK T02100190 IEM_DS3505
ZJSY,2006-02-05 03:00,ZJSY 050300Z AUTO 08014KT 7SM 25/18 A3015 RMK T02500180 IEM_DS3505
ZJSY,2006-02-05 04:00,ZJSY 050400Z AUTO 08017KT 7SM 25/18 A3012 RMK T02500180 IEM_DS3505
ZJSY,2006-02-05 05:00,ZJSY 050500Z AUTO 07017KT 7SM 25/18 A3009 RMK T02500180 IEM_DS3505
ZJSY,2006-02-05 06:00,ZJSY 050600Z AUTO 07016KT 7SM 25/18 A3006 RMK T02500180 IEM_DS3505
ZJSY,2006-02-05 07:00,ZJSY 050700Z AUTO 09014G23KT 7SM 26/17 A3003 RMK T02600170 IEM_DS3505
ZJSY,2006-02-05 08:00,ZJSY 050800Z 08006MPS 040V120 9999 SCT015 SCT018 25/17 Q1017 NOSIG
ZJSY,2006-02-05 09:00,ZJSY 050900Z AUTO 07014KT 7SM 25/18 A3003 RMK T02500180 IEM_DS3505
ZJSY,2006-02-05 10:00,ZJSY 051000Z AUTO 08014KT 7SM 23/17 A3003 RMK T02300170 IEM_DS3505
ZJSY,2006-02-05 11:00,ZJSY 051100Z AUTO 06010KT 7SM 22/17 A3006 RMK T02200170 IEM_DS3505
ZJSY,2006-02-05 12:00,ZJSY 051200Z 06004MPS 9999 FEW015 BKN020 22/17 Q1018 NOSIG
ZJSY,2006-02-05 13:00,ZJSY 051300Z AUTO 08006KT 7SM 21/17 A3009 RMK T02100170 IEM_DS3505
ZJSY,2006-02-05 14:00,ZJSY 051400Z AUTO 07004KT 7SM 21/17 A3009 RMK T02100170 IEM_DS3505
ZJSY,2006-02-05 15:00,ZJSY 051500Z AUTO 06006KT 7SM 21/17 A3009 RMK T02100170 IEM_DS3505
ZJSY,2006-02-05 16:00,ZJSY 051600Z AUTO 08004KT 7SM 20/17 A3009 RMK T02000170 IEM_DS3505
ZJSY,2006-02-05 17:00,ZJSY 051700Z AUTO 09002KT 7SM 20/17 A3006 RMK T02000170 IEM_DS3505
ZJSY,2006-02-05 18:00,ZJSY 051800Z AUTO 08004KT 7SM 19/17 A3006 RMK T01900170 IEM_DS3505
ZJSY,2006-02-05 19:00,ZJSY 051900Z AUTO 11004KT 7SM 19/17 A3003 RMK T01900170 IEM_DS3505
ZJSY,2006-02-05 20:00,ZJSY 052000Z 00000MPS 9999 FEW020 19/16 Q1017 NOSIG
ZJSY,2006-02-05 21:00,ZJSY 052100Z AUTO 6SM 18/15 A3003 RMK T01800150 IEM_DS3505
ZJSY,2006-02-05 22:00,ZJSY 052200Z 12001MPS CAVOK 19/16 Q1017 NOSIG
ZJSY,2006-02-05 23:00,ZJSY 052300Z 05002MPS CAVOK 18/15 Q1017 NOSIG
ZJSY,2006-02-06 00:00,ZJSY 060000Z AUTO 05008KT 6SM 20/16 A3006 RMK T02000160 IEM_DS3505
ZJSY,2006-02-06 01:00,ZJSY 060100Z AUTO 11004KT 6SM 22/17 A3006 RMK T02200170 IEM_DS3505
ZJSY,2006-02-06 02:00,ZJSY 060200Z 11003MPS 070V140 CAVOK 24/17 Q1019 NOSIG
ZJSY,2006-02-06 03:00,ZJSY 060300Z AUTO 08006G16KT 6SM 26/16 A3009 RMK T02600160 IEM_DS3505
ZJSY,2006-02-06 04:00,ZJSY 060400Z AUTO 11008KT 7SM 27/17 A3009 RMK T02700170 IEM_DS3505
ZJSY,2006-02-06 05:00,ZJSY 060500Z AUTO 12010KT 7SM 27/17 A3003 RMK T02700170 IEM_DS3505
ZJSY,2006-02-06 06:00,ZJSY 060600Z AUTO 16008KT 7SM 25/18 A3003 RMK T02500180 IEM_DS3505
ZJSY,2006-02-06 07:00,ZJSY 060700Z AUTO 16006KT 7SM 25/18 A3000 RMK T02500180 IEM_DS3505
ZJSY,2006-02-06 08:00,ZJSY 060800Z AUTO 16008KT 7SM 24/19 A2997 RMK T02400190 IEM_DS3505
ZJSY,2006-02-06 09:00,ZJSY 060900Z AUTO 14004KT 7SM 24/18 A3000 RMK T02400180 IEM_DS3505
ZJSY,2006-02-06 10:00,ZJSY 061000Z AUTO 25006KT 7SM 23/19 A3000 RMK T02300190 IEM_DS3505
ZJSY,2006-02-06 11:00,ZJSY 061100Z AUTO 07006KT 7SM 22/19 A3003 RMK T02200190 IEM_DS3505
ZJSY,2006-02-06 12:00,ZJSY 061200Z 10003MPS 9999 BKN010 BKN050 22/18 Q1017 NOSIG
ZJSY,2006-02-06 13:00,ZJSY 061300Z AUTO 08004KT 7SM 21/19 A3006 RMK T02100190 IEM_DS3505
ZJSY,2006-02-06 14:00,ZJSY 061400Z AUTO 06006KT 6SM 22/19 A3006 RMK T02200190 IEM_DS3505
ZJSY,2006-02-06 15:00,ZJSY 061500Z AUTO 05006KT 6SM 21/18 A3006 RMK T02100180 IEM_DS3505
ZJSY,2006-02-06 16:00,ZJSY 061600Z AUTO 06004KT 7SM 21/18 A3009 RMK T02100180 IEM_DS3505
ZJSY,2006-02-06 17:00,ZJSY 061700Z AUTO 09006KT 7SM 21/17 A3006 RMK T02100170 IEM_DS3505
ZJSY,2006-02-06 18:00,ZJSY 061800Z AUTO 07008KT 7SM 21/17 A3006 RMK T02100170 IEM_DS3505
ZJSY,2006-02-06 19:00,ZJSY 061900Z AUTO 06004KT 20/17 A3006 RMK T02000170 IEM_DS3505
ZJSY,2006-02-06 20:00,ZJSY 062000Z AUTO 19/17 A3006 RMK T01900170 IEM_DS3505
ZJSY,2006-02-06 21:00,ZJSY 062100Z AUTO 00000KT 6SM 19/16 A3006 RMK T01900160 IEM_DS3505
ZJSY,2006-02-06 22:00,ZJSY 062200Z VRB01MPS CAVOK 19/16 Q1018 NOSIG
ZJSY,2006-02-06 23:00,ZJSY 062300Z AUTO 06006KT 6SM 19/15 A3009 RMK T01900150 IEM_DS3505
ZJSY,2006-02-07 00:00,ZJSY 070000Z AUTO 07006KT 6SM 20/15 A3009 RMK T02000150 IEM_DS3505
ZJSY,2006-02-07 01:00,ZJSY 070100Z AUTO 06010KT 6SM 23/15 A3012 RMK T02300150 IEM_DS3505
ZJSY,2006-02-07 02:00,ZJSY 070200Z AUTO 06016KT 6SM 25/15 A3012 RMK T02500150 IEM_DS3505
ZJSY,2006-02-07 03:00,ZJSY 070300Z AUTO 08010KT 6SM 26/14 A3012 RMK T02600140 IEM_DS3505
ZJSY,2006-02-07 04:00,ZJSY 070400Z AUTO 10010KT 7SM 27/14 A3012 RMK T02700140 IEM_DS3505
ZJSY,2006-02-07 05:00,ZJSY 070500Z AUTO 10010KT 7SM 27/15 A3009 RMK T02700150 IEM_DS3505
ZJSY,2006-02-07 06:00,ZJSY 070600Z AUTO 09010KT 7SM 27/15 A3006 RMK T02700150 IEM_DS3505
ZJSY,2006-02-07 07:00,ZJSY 070700Z AUTO 08006KT 7SM 27/15 A3003 RMK T02700150 IEM_DS3505
ZJSY,2006-02-07 08:00,ZJSY 070800Z 10006MPS 9999 FEW016 27/17 Q1017 NOSIG
ZJSY,2006-02-07 09:00,ZJSY 070900Z AUTO 10008KT 7SM 26/16 A3003 RMK T02600160 IEM_DS3505
ZJSY,2006-02-07 10:00,ZJSY 071000Z AUTO 08010KT 7SM 25/16 A3003 RMK T02500160 IEM_DS3505
ZJSY,2006-02-07 11:00,ZJSY 071100Z AUTO 09008KT 7SM 23/16 A3006 RMK T02300160 IEM_DS3505
ZJSY,2006-02-07 12:00,ZJSY 071200Z 07005MPS CAVOK 22/17 Q1019 NOSIG
ZJSY,2006-02-07 13:00,ZJSY 071300Z AUTO 09010KT 6SM 21/17 A3012 RMK T02100170 IEM_DS3505
ZJSY,2006-02-07 14:00,ZJSY 071400Z AUTO 08010KT 6SM 21/16 A3015 RMK T02100160 IEM_DS3505
ZJSY,2006-02-07 15:00,ZJSY 071500Z AUTO 07008KT 6SM 20/16 A3015 RMK T02000160 IEM_DS3505
ZJSY,2006-02-07 16:00,ZJSY 071600Z AUTO 05004KT 6SM 20/16 A3015 RMK T02000160 IEM_DS3505
ZJSY,2006-02-07 17:00,ZJSY 071700Z AUTO 07006KT 6SM 20/15 A3015 RMK T02000150 IEM_DS3505
ZJSY,2006-02-07 18:00,ZJSY 071800Z AUTO 04006KT 6SM 20/15 A3015 RMK T02000150 IEM_DS3505
ZJSY,2006-02-07 19:00,ZJSY 071900Z AUTO 05006KT 6SM 20/15 A3012 RMK T02000150 IEM_DS3505
ZJSY,2006-02-07 20:00,ZJSY 072000Z AUTO 05010KT 22/15 A3012 RMK T02200150 IEM_DS3505
ZJSY,2006-02-07 21:00,ZJSY 072100Z AUTO 05010KT 6SM 22/15 A3012 RMK T02200150 IEM_DS3505
ZJSY,2006-02-07 22:00,ZJSY 072200Z AUTO 05008KT 6SM 22/15 A3012 RMK T02200150 IEM_DS3505
ZJSY,2006-02-07 23:00,ZJSY 072300Z 05004MPS 9999 FEW015 BKN050 22/15 Q1021 NOSIG
ZJSY,2006-02-08 00:00,ZJSY 080000Z AUTO 05010KT 6SM 22/16 A3015 RMK T02200160 IEM_DS3505
ZJSY,2006-02-08 01:00,ZJSY 080100Z AUTO 06010KT 6SM 23/16 A3018 RMK T02300160 IEM_DS3505
ZJSY,2006-02-08 02:00,ZJSY 080200Z AUTO 05010KT 6SM 25/15 A3018 RMK T02500150 IEM_DS3505
ZJSY,2006-02-08 03:00,ZJSY 080300Z AUTO 05008KT 7SM 26/15 A3018 RMK T02600150 IEM_DS3505
ZJSY,2006-02-08 04:00,ZJSY 080400Z 09005MPS 050V140 9999 SCT020 27/16 Q1022 NOSIG
ZJSY,2006-02-08 05:00,ZJSY 080500Z AUTO 09010KT 7SM 28/16 A3015 RMK T02800160 IEM_DS3505
ZJSY,2006-02-08 06:00,ZJSY 080600Z AUTO 09010KT 7SM 28/16 A3012 RMK T02800160 IEM_DS3505
ZJSY,2006-02-08 07:00,ZJSY 080700Z AUTO 11008KT 7SM 27/17 A3009 RMK T02700170 IEM_DS3505
ZJSY,2006-02-08 08:00,ZJSY 080800Z AUTO 10010KT 7SM 27/18 A3009 RMK T02700180 IEM_DS3505
ZJSY,2006-02-08 09:00,ZJSY 080900Z AUTO 09014KT 6SM 26/18 A3009 RMK T02600180 IEM_DS3505
ZJSY,2006-02-08 10:00,ZJSY 081000Z AUTO 09014KT 6SM 24/18 A3012 RMK T02400180 IEM_DS3505
ZJSY,2006-02-08 11:00,ZJSY 081100Z 08005MPS CAVOK 23/18 Q1020 NOSIG
ZJSY,2006-02-08 12:00,ZJSY 081200Z 07004MPS CAVOK 23/18 Q1021 NOSIG
ZJSY,2006-02-08 13:00,ZJSY 081300Z AUTO 06010KT 6SM 23/17 A3018 RMK T02300170 IEM_DS3505
ZJSY,2006-02-08 14:00,ZJSY 081400Z AUTO 06006KT 6SM 23/17 A3018 RMK T02300170 IEM_DS3505
ZJSY,2006-02-08 15:00,ZJSY 081500Z AUTO 07008KT 6SM 22/17 A3018 RMK T02200170 IEM_DS3505
ZJSY,2006-02-08 16:00,ZJSY 081600Z AUTO 06004KT 6SM 23/17 A3021 RMK T02300170 IEM_DS3505
ZJSY,2006-02-08 17:00,ZJSY 081700Z AUTO 06006KT 7SM 22/17 A3018 RMK T02200170 IEM_DS3505
ZJSY,2006-02-08 18:00,ZJSY 081800Z AUTO 07006KT 7SM 22/18 A3015 RMK T02200180 IEM_DS3505
ZJSY,2006-02-08 19:00,ZJSY 081900Z AUTO 06010KT 7SM 23/18 A3015 RMK T02300180 IEM_DS3505
ZJSY,2006-02-08 20:00,ZJSY 082000Z AUTO 07010KT 23/18 A3015 RMK T02300180 IEM_DS3505
ZJSY,2006-02-08 21:00,ZJSY 082100Z AUTO 07014KT 7SM 23/18 A3015 RMK T02300180 IEM_DS3505
ZJSY,2006-02-08 22:00,ZJSY 082200Z AUTO 07010KT 7SM 23/18 A3015 RMK T02300180 IEM_DS3505
ZJSY,2006-02-08 23:00,ZJSY 082300Z 08006MPS 9999 SCT010 BKN043 22/18 Q1022 NOSIG
ZJSY,2006-02-09 00:00,ZJSY 090000Z AUTO 08010KT 4SM 23/18 A3018 RMK T02300180 IEM_DS3505
ZJSY,2006-02-09 01:00,ZJSY 090100Z AUTO 07016KT 7SM 24/18 A3021 RMK T02400180 IEM_DS3505
ZJSY,2006-02-09 02:00,ZJSY 090200Z AUTO 08014KT 7SM 25/19 A3021 RMK T02500190 IEM_DS3505
ZJSY,2006-02-09 03:00,ZJSY 090300Z AUTO 07014KT 7SM 25/19 A3021 RMK T02500190 IEM_DS3505
ZJSY,2006-02-09 04:00,ZJSY 090400Z AUTO 08019KT 7SM 24/18 A3021 RMK T02400180 IEM_DS3505
ZJSY,2006-02-09 05:00,ZJSY 090500Z AUTO 07014KT 7SM 25/19 A3018 RMK T02500190 IEM_DS3505
ZJSY,2006-02-09 06:00,ZJSY 090600Z AUTO 07019KT 7SM 25/18 A3015 RMK T02500180 IEM_DS3505
ZJSY,2006-02-09 07:00,ZJSY 090700Z AUTO 07017KT 7SM 26/18 A3012 RMK T02600180 IEM_DS3505
ZJSY,2006-02-09 08:00,ZJSY 090800Z AUTO 07017KT 7SM 24/18 A3009 RMK T02400180 IEM_DS3505
ZJSY,2006-02-09 10:00,ZJSY 091000Z AUTO 07014KT 7SM 23/18 A3012 RMK T02300180 IEM_DS3505
ZJSY,2006-02-09 11:00,ZJSY 091100Z AUTO 08012KT 7SM 22/18 A3012 RMK T02200180 IEM_DS3505
ZJSY,2006-02-09 12:00,ZJSY 091200Z 06007MPS 9999 BKN010 SCT016 23/18 Q1021 NOSIG
ZJSY,2006-02-09 13:00,ZJSY 091300Z AUTO 09008KT 7SM 22/18 A3015 RMK T02200180 IEM_DS3505
ZJSY,2006-02-09 14:00,ZJSY 091400Z AUTO 08010KT 7SM 22/18 A3018 RMK T02200180 IEM_DS3505
ZJSY,2006-02-09 15:00,ZJSY 091500Z AUTO 08010KT 7SM 22/18 A3018 RMK T02200180 IEM_DS3505
ZJSY,2006-02-09 16:00,ZJSY 091600Z AUTO 08012KT 7SM 22/17 A3015 RMK T02200170 IEM_DS3505
ZJSY,2006-02-09 17:00,ZJSY 091700Z AUTO 08012KT 7SM 22/17 A3015 RMK T02200170 IEM_DS3505
ZJSY,2006-02-09 18:00,ZJSY 091800Z AUTO 07012KT 7SM 22/17 A3015 RMK T02200170 IEM_DS3505
ZJSY,2006-02-09 19:00,ZJSY 091900Z AUTO 09006KT 7SM 21/17 A3012 RMK T02100170 IEM_DS3505
ZJSY,2006-02-09 20:00,ZJSY 092000Z AUTO 07006KT 7SM 21/17 A3012 RMK T02100170 IEM_DS3505
ZJSY,2006-02-09 21:00,ZJSY 092100Z AUTO 08008KT 7SM 21/17 A3012 RMK T02100170 IEM_DS3505
ZJSY,2006-02-09 22:00,ZJSY 092200Z AUTO 07010KT 7SM 21/17 A3012 RMK T02100170 IEM_DS3505
ZJSY,2006-02-09 23:00,ZJSY 092300Z 09003MPS 070V130 9999 FEW014 21/17 Q1020 NOSIG
ZJSY,2006-02-10 00:00,ZJSY 100000Z AUTO 10004KT 7SM 21/17 A3015 RMK T02100170 IEM_DS3505
ZJSY,2006-02-10 01:00,ZJSY 100100Z 07008MPS 9999 FEW016 24/17 Q1021 NOSIG
ZJSY,2006-02-10 02:00,ZJSY 100200Z 07008MPS 9999 FEW016 25/17 Q1021 NOSIG
ZJSY,2006-02-10 03:00,ZJSY 100300Z AUTO 09014KT 7SM 26/17 A3015 RMK T02600170 IEM_DS3505
ZJSY,2006-02-10 04:00,ZJSY 100400Z AUTO 09012KT 7SM 26/17 A3012 RMK T02600170 IEM_DS3505
ZJSY,2006-02-10 05:00,ZJSY 100500Z AUTO 10006KT 7SM 25/17 A3009 RMK T02500170 IEM_DS3505
ZJSY,2006-02-10 06:00,ZJSY 100600Z AUTO 09012KT 7SM 26/17 A3006 RMK T02600170 IEM_DS3505
ZJSY,2006-02-10 07:00,ZJSY 100700Z AUTO 09012KT 7SM 25/17 A3003 RMK T02500170 IEM_DS3505
ZJSY,2006-02-10 08:00,ZJSY 100800Z AUTO 08016KT 7SM 26/17 A3000 RMK T02600170 IEM_DS3505
ZJSY,2006-02-10 09:00,ZJSY 100900Z AUTO 10014KT 7SM 25/17 A3000 RMK T02500170 IEM_DS3505
ZJSY,2006-02-10 10:00,ZJSY 101000Z AUTO 10012KT 7SM 23/17 A3003 RMK T02300170 IEM_DS3505
ZJSY,2006-02-10 11:00,ZJSY 101100Z AUTO 10010KT 7SM 22/17 A3003 RMK T02200170 IEM_DS3505
ZJSY,2006-02-10 12:00,ZJSY 101200Z 08005MPS 9999 BKN050 22/17 Q1018 NOSIG
ZJSY,2006-02-10 13:00,ZJSY 101300Z AUTO 08008KT 7SM 22/17 A3009 RMK T02200170 IEM_DS3505
ZJSY,2006-02-10 14:00,ZJSY 101400Z AUTO 07010KT 7SM 21/16 A3009 RMK T02100160 IEM_DS3505
ZJSY,2006-02-10 15:00,ZJSY 101500Z AUTO 10006KT 7SM 21/17 A3012 RMK T02100170 IEM_DS3505
ZJSY,2006-02-10 16:00,ZJSY 101600Z AUTO 07008KT 6SM 21/16 A3009 RMK T02100160 IEM_DS3505
ZJSY,2006-02-10 17:00,ZJSY 101700Z AUTO 13004KT 6SM 20/16 A3009 RMK T02000160 IEM_DS3505
ZJSY,2006-02-10 18:00,ZJSY 101800Z AUTO 6SM 20/16 A3006 RMK T02000160 IEM_DS3505
ZJSY,2006-02-10 19:00,ZJSY 101900Z AUTO 02002KT 19/15 A3006 RMK T01900150 IEM_DS3505
ZJSY,2006-02-10 20:00,ZJSY 102000Z AUTO 01002KT 18/15 A3003 RMK T01800150 IEM_DS3505
ZJSY,2006-02-10 21:00,ZJSY 102100Z AUTO 36002KT 6SM 17/15 A3003 RMK T01700150 IEM_DS3505
ZJSY,2006-02-10 22:00,ZJSY 102200Z AUTO 6SM 17/15 A3003 RMK T01700150 IEM_DS3505
ZJSY,2006-02-10 23:00,ZJSY 102300Z AUTO 06002KT 6SM 18/15 A3003 RMK T01800150 IEM_DS3505
ZJSY,2006-02-11 00:00,ZJSY 110000Z AUTO 6SM 18/16 A3006 RMK T01800160 IEM_DS3505
ZJSY,2006-02-11 01:00,ZJSY 110100Z AUTO 11004KT 6SM 22/16 A3006 RMK T02200160 IEM_DS3505
ZJSY,2006-02-11 02:00,ZJSY 110200Z AUTO 11006KT 6SM 24/16 A3009 RMK T02400160 IEM_DS3505
ZJSY,2006-02-11 03:00,ZJSY 110300Z AUTO 10010KT 6SM 25/16 A3009 RMK T02500160 IEM_DS3505
ZJSY,2006-02-11 04:00,ZJSY 110400Z AUTO 11010KT 6SM 26/15 A3006 RMK T02600150 IEM_DS3505
ZJSY,2006-02-11 05:00,ZJSY 110500Z AUTO 12008KT 7SM 27/17 A3003 RMK T02700170 IEM_DS3505
ZJSY,2006-02-11 06:00,ZJSY 110600Z AUTO 15010KT 7SM 25/18 A3003 RMK T02500180 IEM_DS3505
ZJSY,2006-02-11 07:00,ZJSY 110700Z 13005MPS 090V160 9999 SCT016 26/18 Q1016 NOSIG
ZJSY,2006-02-11 08:00,ZJSY 110800Z AUTO 11010KT 7SM 25/18 A3000 RMK T02500180 IEM_DS3505
ZJSY,2006-02-11 09:00,ZJSY 110900Z AUTO 09010KT 7SM 25/16 A3000 RMK T02500160 IEM_DS3505
ZJSY,2006-02-11 10:00,ZJSY 111000Z AUTO 07012KT 7SM 24/16 A3003 RMK T02400160 IEM_DS3505
ZJSY,2006-02-11 11:00,ZJSY 111100Z AUTO 09010KT 7SM 23/17 A3003 RMK T02300170 IEM_DS3505
ZJSY,2006-02-11 12:00,ZJSY 111200Z 09005MPS 9999 SCT016 22/17 Q1017 NOSIG
ZJSY,2006-02-11 13:00,ZJSY 111300Z AUTO 08010KT 7SM 22/17 A3006 RMK T02200170 IEM_DS3505
ZJSY,2006-02-11 14:00,ZJSY 111400Z 07005MPS 9999 SCT016 SCT050 22/17 Q1019 NOSIG
ZJSY,2006-02-11 15:00,ZJSY 111500Z AUTO 08008KT 7SM 22/17 A3009 RMK T02200170 IEM_DS3505
ZJSY,2006-02-11 16:00,ZJSY 111600Z AUTO 08008KT 7SM 21/17 A3009 RMK T02100170 IEM_DS3505
ZJSY,2006-02-11 17:00,ZJSY 111700Z AUTO 08006KT 7SM 21/17 A3009 RMK T02100170 IEM_DS3505
ZJSY,2006-02-11 18:00,ZJSY 111800Z AUTO 08006KT 20/16 A3006 RMK T02000160 IEM_DS3505
ZJSY,2006-02-11 19:00,ZJSY 111900Z AUTO 10004KT 19/16 A3003 RMK T01900160 IEM_DS3505
ZJSY,2006-02-11 20:00,ZJSY 112000Z AUTO 07002KT 19/16 A3003 RMK T01900160 IEM_DS3505
ZJSY,2006-02-11 21:00,ZJSY 112100Z AUTO 06004KT 7SM 19/15 A3003 RMK T01900150 IEM_DS3505
ZJSY,2006-02-11 22:00,ZJSY 112200Z AUTO 08004KT 7SM 18/16 A3003 RMK T01800160 IEM_DS3505
ZJSY,2006-02-11 23:00,ZJSY 112300Z AUTO 08004KT 4SM 18/15 A3003 RMK T01800150 IEM_DS3505
ZJSY,2006-02-12 00:00,ZJSY 120000Z AUTO 07004KT 4SM 19/16 A3006 RMK T01900160 IEM_DS3505
ZJSY,2006-02-12 01:00,ZJSY 120100Z AUTO 10004KT 4SM 22/17 A3009 RMK T02200170 IEM_DS3505
ZJSY,2006-02-12 02:00,ZJSY 120200Z AUTO 07010KT 6SM 24/16 A3009 RMK T02400160 IEM_DS3505
ZJSY,2006-02-12 03:00,ZJSY 120300Z AUTO 10010KT 6SM 25/16 A3009 RMK T02500160 IEM_DS3505
ZJSY,2006-02-12 04:00,ZJSY 120400Z AUTO 09008KT 6SM 26/16 A3009 RMK T02600160 IEM_DS3505
ZJSY,2006-02-12 05:00,ZJSY 120500Z AUTO 10010KT 6SM 26/15 A3006 RMK T02600150 IEM_DS3505
ZJSY,2006-02-12 06:00,ZJSY 120600Z AUTO 10010KT 6SM 27/16 A3003 RMK T02700160 IEM_DS3505
ZJSY,2006-02-12 07:00,ZJSY 120700Z AUTO 10010KT 6SM 28/16 A3000 RMK T02800160 IEM_DS3505
ZJSY,2006-02-12 08:00,ZJSY 120800Z AUTO 11010KT 6SM 26/17 A2997 RMK T02600170 IEM_DS3505
ZJSY,2006-02-12 09:00,ZJSY 120900Z AUTO 10010KT 6SM 26/15 A3000 RMK T02600150 IEM_DS3505
ZJSY,2006-02-12 10:00,ZJSY 121000Z AUTO 10010KT 6SM 24/17 A3003 RMK T02400170 IEM_DS3505
ZJSY,2006-02-12 11:00,ZJSY 121100Z AUTO 09010KT 7SM 23/14 A3006 RMK T02300140 IEM_DS3505
ZJSY,2006-02-12 12:00,ZJSY 121200Z 08004MPS 9999 FEW018 SCT036 23/16 Q1018 NOSIG
ZJSY,2006-02-12 13:00,ZJSY 121300Z AUTO 07010KT 7SM 23/16 A3009 RMK T02300160 IEM_DS3505
ZJSY,2006-02-12 14:00,ZJSY 121400Z AUTO 07008KT 7SM 23/15 A3009 RMK T02300150 IEM_DS3505
ZJSY,2006-02-12 15:00,ZJSY 121500Z AUTO 10006KT 7SM 22/16 A3009 RMK T02200160 IEM_DS3505
ZJSY,2006-02-12 16:00,ZJSY 121600Z AUTO 07006KT 7SM 22/16 A3009 RMK T02200160 IEM_DS3505
ZJSY,2006-02-12 17:00,ZJSY 121700Z AUTO 08004KT 7SM 22/16 A3006 RMK T02200160 IEM_DS3505
ZJSY,2006-02-12 18:00,ZJSY 121800Z AUTO 7SM 22/16 A3006 RMK T02200160 IEM_DS3505
ZJSY,2006-02-12 19:00,ZJSY 121900Z 07003MPS 9999 BKN046 22/16 Q1017 NOGIS
ZJSY,2006-02-12 20:00,ZJSY 122000Z AUTO 08004KT 21/16 A3003 RMK T02100160 IEM_DS3505
ZJSY,2006-02-12 21:00,ZJSY 122100Z 10002MPS 9999 BKN043 21/16 Q1017
ZJSY,2006-02-12 22:00,ZJSY 122200Z AUTO 07006KT 7SM 21/16 A3000 RMK T02100160 IEM_DS3505
ZJSY,2006-02-12 23:00,ZJSY 122300Z AUTO 08006KT 7SM 21/16 A3000 RMK T02100160 IEM_DS3505
ZJSY,2006-02-13 00:00,ZJSY 130000Z AUTO 07004KT 7SM 21/17 A3003 RMK T02100170 IEM_DS3505
ZJSY,2006-02-13 01:00,ZJSY 130100Z AUTO 07008KT 7SM 22/17 A3003 RMK T02200170 IEM_DS3505
ZJSY,2006-02-13 03:00,ZJSY 130300Z AUTO 08008KT 6SM 25/16 A3006 RMK T02500160 IEM_DS3505
ZJSY,2006-02-13 04:00,ZJSY 130400Z AUTO 09008KT 6SM 27/17 A3003 RMK T02700170 IEM_DS3505
ZJSY,2006-02-13 05:00,ZJSY 130500Z AUTO 12008KT 7SM 26/17 A3000 RMK T02600170 IEM_DS3505
ZJSY,2006-02-13 06:00,ZJSY 130600Z AUTO 12006KT 7SM 25/18 A2997 RMK T02500180 IEM_DS3505
ZJSY,2006-02-13 07:00,ZJSY 130700Z AUTO 10008KT 7SM 25/18 A2994 RMK T02500180 IEM_DS3505
ZJSY,2006-02-13 08:00,ZJSY 130800Z AUTO 10006KT 7SM 25/18 A2994 RMK T02500180 IEM_DS3505
ZJSY,2006-02-13 10:00,ZJSY 131000Z AUTO 09006KT 7SM 24/18 A2994 RMK T02400180 IEM_DS3505
ZJSY,2006-02-13 11:00,ZJSY 131100Z AUTO 08008KT 7SM 23/18 A2991 RMK T02300180 IEM_DS3505
ZJSY,2006-02-13 12:00,ZJSY 131200Z 07003MPS 9999 FEW066 22/18 Q1014 NOSIG
ZJSY,2006-02-13 13:00,ZJSY 131300Z AUTO 08006KT 6SM 21/18 A2997 RMK T02100180 IEM_DS3505
ZJSY,2006-02-13 14:00,ZJSY 131400Z AUTO 07010KT 6SM 22/18 A2994 RMK T02200180 IEM_DS3505
ZJSY,2006-02-13 15:00,ZJSY 131500Z AUTO 07006KT 6SM 22/18 A2997 RMK T02200180 IEM_DS3505
ZJSY,2006-02-13 16:00,ZJSY 131600Z AUTO 10004KT 6SM 21/18 A2997 RMK T02100180 IEM_DS3505
ZJSY,2006-02-13 17:00,ZJSY 131700Z AUTO 08006KT 6SM 21/18 A2994 RMK T02100180 IEM_DS3505
ZJSY,2006-02-13 18:00,ZJSY 131800Z AUTO 07004KT 21/18 A2994 RMK T02100180 IEM_DS3505
ZJSY,2006-02-13 19:00,ZJSY 131900Z AUTO 01002KT 21/18 A2994 RMK T02100180 IEM_DS3505
ZJSY,2006-02-13 20:00,ZJSY 132000Z AUTO 00000KT 21/18 A2994 RMK T02100180 IEM_DS3505
ZJSY,2006-02-13 21:00,ZJSY 132100Z AUTO 06004KT 7SM 21/18 A2991 RMK T02100180 IEM_DS3505
ZJSY,2006-02-13 22:00,ZJSY 132200Z AUTO 08004KT 7SM 21/18 A2991 RMK T02100180 IEM_DS3505
ZJSY,2006-02-13 23:00,ZJSY 132300Z AUTO 09002KT 7SM 21/18 A2994 RMK T02100180 IEM_DS3505
ZJSY,2006-02-14 00:00,ZJSY 140000Z AUTO 08004KT 7SM 22/19 A2994 RMK T02200190 IEM_DS3505
ZJSY,2006-02-14 01:00,ZJSY 140100Z AUTO 10006KT 7SM 23/19 A2997 RMK T02300190 IEM_DS3505
ZJSY,2006-02-14 02:00,ZJSY 140200Z AUTO 10008KT 6SM 25/19 A2997 RMK T02500190 IEM_DS3505
ZJSY,2006-02-14 03:00,ZJSY 140300Z AUTO 11008KT 7SM 26/19 A2997 RMK T02600190 IEM_DS3505
ZJSY,2006-02-14 04:00,ZJSY 140400Z AUTO 16006KT 7SM 26/19 A2997 RMK T02600190 IEM_DS3505
ZJSY,2006-02-14 05:00,ZJSY 140500Z 16003MPS 120V190 9999 FEW016 26/20 Q1014 NOSIG
ZJSY,2006-02-14 06:00,ZJSY 140600Z 16005MPS 110V200 9999 FEW016 26/19 Q1013 NOSIG
ZJSY,2006-02-14 07:00,ZJSY 140700Z AUTO 16010KT 7SM 25/20 A2988 RMK T02500200 IEM_DS3505
ZJSY,2006-02-14 08:00,ZJSY 140800Z AUTO 16008KT 7SM 25/20 A2985 RMK T02500200 IEM_DS3505
ZJSY,2006-02-14 09:00,ZJSY 140900Z AUTO 15008KT 7SM 25/20 A2985 RMK T02500200 IEM_DS3505
ZJSY,2006-02-14 10:00,ZJSY 141000Z AUTO 14008KT 7SM 24/20 A2985 RMK T02400200 IEM_DS3505
ZJSY,2006-02-14 11:00,ZJSY 141100Z AUTO 12006KT 6SM 23/19 A2988 RMK T02300190 IEM_DS3505
ZJSY,2006-02-14 12:00,ZJSY 141200Z 08005MPS CAVOK 23/18 Q1012 NOSIG
ZJSY,2006-02-14 13:00,ZJSY 141300Z AUTO 08008KT 6SM 22/19 A2991 RMK T02200190 IEM_DS3505
ZJSY,2006-02-14 14:00,ZJSY 141400Z AUTO 08006KT 6SM 22/19 A2991 RMK T02200190 IEM_DS3505
ZJSY,2006-02-14 15:00,ZJSY 141500Z AUTO 10006KT 6SM 22/19 A2991 RMK T02200190 IEM_DS3505
ZJSY,2006-02-14 16:00,ZJSY 141600Z AUTO 07006KT 6SM 21/19 A2991 RMK T02100190 IEM_DS3505
ZJSY,2006-02-14 17:00,ZJSY 141700Z AUTO 07004KT 6SM 21/19 A2991 RMK T02100190 IEM_DS3505
ZJSY,2006-02-14 18:00,ZJSY 141800Z AUTO 08006KT 20/18 A2988 RMK T02000180 IEM_DS3505
ZJSY,2006-02-14 19:00,ZJSY 141900Z AUTO 06004KT RMK IEM_DS3505
ZJSY,2006-02-14 20:00,ZJSY 142000Z AUTO 00000KT RMK IEM_DS3505
ZJSY,2006-02-14 22:00,ZJSY 142200Z AUTO 35002KT 7SM A2988 RMK IEM_DS3505
ZJSY,2006-02-14 23:00,ZJSY 142300Z 36001MPS 9999 SCT016 20/18 Q1013 NOSIG
ZJSY,2006-02-15 00:00,ZJSY 150000Z AUTO 00000KT 6SM 21/18 A2991 RMK T02100180 IEM_DS3505
ZJSY,2006-02-15 01:00,ZJSY 150100Z AUTO 6SM 23/19 A2994 RMK T02300190 IEM_DS3505
ZJSY,2006-02-15 02:00,ZJSY 150200Z AUTO 08004KT 7SM 25/19 A2994 RMK T02500190 IEM_DS3505
ZJSY,2006-02-15 03:00,ZJSY 150300Z AUTO 14004KT 7SM 26/20 A2994 RMK T02600200 IEM_DS3505
ZJSY,2006-02-15 04:00,ZJSY 150400Z AUTO 16006KT 7SM 27/20 A2994 RMK T02700200 IEM_DS3505
ZJSY,2006-02-15 05:00,ZJSY 150500Z AUTO 17006KT 6SM 26/20 A2991 RMK T02600200 IEM_DS3505
ZJSY,2006-02-15 06:00,ZJSY 150600Z AUTO 17006KT 6SM 27/20 A2988 RMK T02700200 IEM_DS3505
ZJSY,2006-02-15 07:00,ZJSY 150700Z AUTO 14004KT 6SM 28/20 A2985 RMK T02800200 IEM_DS3505
ZJSY,2006-02-15 08:00,ZJSY 150800Z AUTO 13004KT 6SM 27/19 A2983 RMK T02700190 IEM_DS3505
ZJSY,2006-02-15 09:00,ZJSY 150900Z AUTO 15004KT 6SM 27/20 A2983 RMK T02700200 IEM_DS3505
ZJSY,2006-02-15 10:00,ZJSY 151000Z AUTO 13004KT 6SM 26/20 A2983 RMK T02600200 IEM_DS3505
ZJSY,2006-02-15 11:00,ZJSY 151100Z AUTO 6SM 25/20 A2985 RMK T02500200 IEM_DS3505
ZJSY,2006-02-15 12:00,ZJSY 151200Z VRB01MPS CAVOK 24/21 Q1011 NOSIG
ZJSY,2006-02-15 13:00,ZJSY 151300Z AUTO 02004KT 6SM 24/20 A2985 RMK T02400200 IEM_DS3505
ZJSY,2006-02-15 14:00,ZJSY 151400Z AUTO 6SM 24/20 A2988 RMK T02400200 IEM_DS3505
ZJSY,2006-02-15 15:00,ZJSY 151500Z AUTO 6SM 23/20 A2988 RMK T02300200 IEM_DS3505
ZJSY,2006-02-15 16:00,ZJSY 151600Z AUTO 34002KT 6SM 22/19 A2988 RMK T02200190 IEM_DS3505
ZJSY,2006-02-15 17:00,ZJSY 151700Z AUTO 6SM 22/20 A2988 RMK T02200200 IEM_DS3505
ZJSY,2006-02-15 18:00,ZJSY 151800Z AUTO 07006KT 6SM 22/19 A2988 RMK T02200190 IEM_DS3505
ZJSY,2006-02-15 19:00,ZJSY 151900Z AUTO 23/20 A2988 RMK T02300200 IEM_DS3505
ZJSY,2006-02-15 20:00,ZJSY 152000Z AUTO 08006KT 24/21 A2985 RMK T02400210 IEM_DS3505
ZJSY,2006-02-15 21:00,ZJSY 152100Z AUTO 05004KT 7SM 24/21 A2988 RMK T02400210 IEM_DS3505
ZJSY,2006-02-15 22:00,ZJSY 152200Z AUTO 02004KT 7SM 24/21 A2988 RMK T02400210 IEM_DS3505
ZJSY,2006-02-15 23:00,ZJSY 152300Z AUTO 09004KT 7SM 25/21 A2991 RMK T02500210 IEM_DS3505
ZJSY,2006-02-16 00:00,ZJSY 160000Z AUTO 08004KT 7SM 25/21 A2994 RMK T02500210 IEM_DS3505
ZJSY,2006-02-16 01:00,ZJSY 160100Z AUTO 08006KT 7SM 26/21 A2994 RMK T02600210 IEM_DS3505
ZJSY,2006-02-16 02:00,ZJSY 160200Z AUTO 07006KT 7SM 27/21 A2997 RMK T02700210 IEM_DS3505
ZJSY,2006-02-16 03:00,ZJSY 160300Z AUTO 11006KT 7SM 27/22 A2997 RMK T02700220 IEM_DS3505
ZJSY,2006-02-16 04:00,ZJSY 160400Z AUTO 12004KT 7SM 28/22 A2997 RMK T02800220 IEM_DS3505
ZJSY,2006-02-16 05:00,ZJSY 160500Z AUTO 11006KT 7SM 29/22 A2994 RMK T02900220 IEM_DS3505
ZJSY,2006-02-16 06:00,ZJSY 160600Z AUTO 13004KT 7SM 29/22 A2991 RMK T02900220 IEM_DS3505
ZJSY,2006-02-16 07:00,ZJSY 160700Z AUTO 16006KT 7SM 29/21 A2988 RMK T02900210 IEM_DS3505
ZJSY,2006-02-16 08:00,ZJSY 160800Z AUTO 16006KT 6SM 28/22 A2985 RMK T02800220 IEM_DS3505
ZJSY,2006-02-16 09:00,ZJSY 160900Z AUTO 15004KT 6SM 27/22 A2985 RMK T02700220 IEM_DS3505
ZJSY,2006-02-16 10:00,ZJSY 161000Z AUTO 14004KT 7SM 27/22 A2988 RMK T02700220 IEM_DS3505
ZJSY,2006-02-16 11:00,ZJSY 161100Z AUTO 14004KT 6SM 26/22 A2988 RMK T02600220 IEM_DS3505
ZJSY,2006-02-16 12:00,ZJSY 161200Z 11002MPS 9999 FEW013 25/22 Q1013 NOSIG
ZJSY,2006-02-16 13:00,ZJSY 161300Z AUTO 07006KT 7SM 25/22 A2991 RMK T02500220 IEM_DS3505
ZJSY,2006-02-16 14:00,ZJSY 161400Z AUTO 09006KT 7SM 25/22 A2994 RMK T02500220 IEM_DS3505
ZJSY,2006-02-16 15:00,ZJSY 161500Z AUTO 10004KT 7SM 25/22 A2994 RMK T02500220 IEM_DS3505
ZJSY,2006-02-16 16:00,ZJSY 161600Z AUTO 10004KT 7SM 25/22 A2997 RMK T02500220 IEM_DS3505
ZJSY,2006-02-16 17:00,ZJSY 161700Z 10003MPS 9999 FEW013 BKN016 25/22 Q1015 NOSIG
ZJSY,2006-02-16 18:00,ZJSY 161800Z AUTO 08006KT 7SM 25/22 A2994 RMK T02500220 IEM_DS3505
ZJSY,2006-02-16 19:00,ZJSY 161900Z 09003MPS 9999 BKN018 BKN030 24/22 Q1014 NOSIG
ZJSY,2006-02-16 20:00,ZJSY 162000Z 08003MPS 9999 BKN018 BKN030 24/22 Q1014 NOSIG
ZJSY,2006-02-16 21:00,ZJSY 162100Z AUTO 10004KT 7SM 24/22 A2994 RMK T02400220 IEM_DS3505
ZJSY,2006-02-16 22:00,ZJSY 162200Z AUTO 08006KT 7SM 25/22 A2994 RMK T02500220 IEM_DS3505
ZJSY,2006-02-16 23:00,ZJSY 162300Z AUTO 09006KT 7SM 25/22 A2997 RMK T02500220 IEM_DS3505
ZJSY,2006-02-17 00:00,ZJSY 170000Z AUTO 08010KT 7SM 25/22 A3000 RMK T02500220 IEM_DS3505
ZJSY,2006-02-17 01:00,ZJSY 170100Z AUTO 08010KT 7SM 25/22 A3003 RMK T02500220 IEM_DS3505
ZJSY,2006-02-17 02:00,ZJSY 170200Z AUTO 09008KT 7SM 26/22 A3003 RMK T02600220 IEM_DS3505
ZJSY,2006-02-17 03:00,ZJSY 170300Z AUTO 08012KT 7SM 28/22 A3003 RMK T02800220 IEM_DS3505
ZJSY,2006-02-17 04:00,ZJSY 170400Z AUTO 08012KT 7SM 28/22 A3003 RMK T02800220 IEM_DS3505
ZJSY,2006-02-17 05:00,ZJSY 170500Z AUTO 08012KT 7SM 29/21 A3000 RMK T02900210 IEM_DS3505
ZJSY,2006-02-17 06:00,ZJSY 170600Z AUTO 08014KT 7SM 29/21 A2997 RMK T02900210 IEM_DS3505
ZJSY,2006-02-17 07:00,ZJSY 170700Z AUTO 09016KT 7SM 29/20 A2994 RMK T02900200 IEM_DS3505
ZJSY,2006-02-17 08:00,ZJSY 170800Z AUTO 09014KT 7SM 27/19 A2994 RMK T02700190 IEM_DS3505
ZJSY,2006-02-17 09:00,ZJSY 170900Z AUTO 09014KT 7SM 27/20 A2994 RMK T02700200 IEM_DS3505
ZJSY,2006-02-17 10:00,ZJSY 171000Z AUTO 08017KT 7SM 26/20 A2994 RMK T02600200 IEM_DS3505
ZJSY,2006-02-17 11:00,ZJSY 171100Z AUTO 07016KT 7SM 25/20 A2994 RMK T02500200 IEM_DS3505
ZJSY,2006-02-17 12:00,ZJSY 171200Z 08006MPS 9999 SCT018 25/20 Q1015 NOSIG
ZJSY,2006-02-17 13:00,ZJSY 171300Z 08006MPS 9999 SCT018 24/20 Q1016 NOSIG
ZJSY,2006-02-17 14:00,ZJSY 171400Z AUTO 08012KT 7SM 24/21 A3003 RMK T02400210 IEM_DS3505
ZJSY,2006-02-17 15:00,ZJSY 171500Z AUTO 08012KT 7SM 24/21 A3003 RMK T02400210 IEM_DS3505
ZJSY,2006-02-17 16:00,ZJSY 171600Z AUTO 08010KT 7SM 23/21 A3003 RMK T02300210 IEM_DS3505
ZJSY,2006-02-17 17:00,ZJSY 171700Z AUTO 08012KT 3SM 23/21 A3003 RMK T02300210 IEM_DS3505
ZJSY,2006-02-17 18:00,ZJSY 171800Z AUTO 08010KT 7SM 23/21 A3003 RMK T02300210 IEM_DS3505
ZJSY,2006-02-17 19:00,ZJSY 171900Z AUTO 06008KT 23/21 A3000 RMK T02300210 IEM_DS3505
ZJSY,2006-02-17 20:00,ZJSY 172000Z AUTO 06003MPS //// // ////// 23/21 Q1016
ZJSY,2006-02-17 21:00,ZJSY 172100Z AUTO 06006KT 7SM 23/21 A3000 RMK T02300210 IEM_DS3505
ZJSY,2006-02-17 22:00,ZJSY 172200Z AUTO 08008KT 7SM 23/21 A3000 RMK T02300210 IEM_DS3505
ZJSY,2006-02-17 23:00,ZJSY 172300Z AUTO 07010KT 7SM 23/21 A3000 RMK T02300210 IEM_DS3505
ZJSY,2006-02-18 00:00,ZJSY 180000Z AUTO 07008KT 7SM 23/21 A3003 RMK T02300210 IEM_DS3505
ZJSY,2006-02-18 01:00,ZJSY 180100Z AUTO 08010KT 7SM 24/21 A3003 RMK T02400210 IEM_DS3505
ZJSY,2006-02-18 02:00,ZJSY 180200Z AUTO 09012KT 7SM 25/21 A3006 RMK T02500210 IEM_DS3505
ZJSY,2006-02-18 03:00,ZJSY 180300Z AUTO 08010KT 7SM 25/21 A3006 RMK T02500210 IEM_DS3505
ZJSY,2006-02-18 04:00,ZJSY 180400Z AUTO 08010KT 7SM 26/20 A3003 RMK T02600200 IEM_DS3505
ZJSY,2006-02-18 05:00,ZJSY 180500Z AUTO 08010KT 7SM 26/20 A3000 RMK T02600200 IEM_DS3505
ZJSY,2006-02-18 06:00,ZJSY 180600Z AUTO 07012KT 7SM 25/21 A2997 RMK T02500210 IEM_DS3505
ZJSY,2006-02-18 07:00,ZJSY 180700Z AUTO 09012KT 7SM 26/21 A2994 RMK T02600210 IEM_DS3505
ZJSY,2006-02-18 08:00,ZJSY 180800Z AUTO 08010KT 7SM 26/21 A2994 RMK T02600210 IEM_DS3505
ZJSY,2006-02-18 09:00,ZJSY 180900Z AUTO 09010KT 7SM 26/20 A2991 RMK T02600200 IEM_DS3505
ZJSY,2006-02-18 10:00,ZJSY 181000Z AUTO 09010KT 7SM 25/20 A2994 RMK T02500200 IEM_DS3505
ZJSY,2006-02-18 11:00,ZJSY 181100Z AUTO 09008KT 7SM 24/20 A2994 RMK T02400200 IEM_DS3505
ZJSY,2006-02-18 12:00,ZJSY 181200Z 07005MPS 9999 FEW016 23/19 Q1015 NOSIG
ZJSY,2006-02-18 13:00,ZJSY 181300Z AUTO 09006KT 7SM 23/18 A2997 RMK T02300180 IEM_DS3505
ZJSY,2006-02-18 14:00,ZJSY 181400Z AUTO 08008KT 6SM 22/18 A3000 RMK T02200180 IEM_DS3505
ZJSY,2006-02-18 15:00,ZJSY 181500Z AUTO 07004KT 7SM 21/18 A3000 RMK T02100180 IEM_DS3505
ZJSY,2006-02-18 16:00,ZJSY 181600Z AUTO 7SM 21/18 A3000 RMK T02100180 IEM_DS3505
ZJSY,2006-02-18 17:00,ZJSY 181700Z AUTO 09006KT 7SM 22/18 A3000 RMK T02200180 IEM_DS3505
ZJSY,2006-02-18 18:00,ZJSY 181800Z AUTO 09004KT 7SM 22/18 A2997 RMK T02200180 IEM_DS3505
ZJSY,2006-02-18 19:00,ZJSY 181900Z AUTO 08006KT 22/17 A2994 RMK T02200170 IEM_DS3505
ZJSY,2006-02-18 20:00,ZJSY 182000Z AUTO 11004KT 21/17 A2994 RMK T02100170 IEM_DS3505
ZJSY,2006-02-18 21:00,ZJSY 182100Z AUTO 6SM 21/17 A2997 RMK T02100170 IEM_DS3505
ZJSY,2006-02-18 22:00,ZJSY 182200Z AUTO 11006KT 7SM 21/17 A2997 RMK T02100170 IEM_DS3505
ZJSY,2006-02-18 23:00,ZJSY 182300Z AUTO 10004KT 7SM 21/17 A3000 RMK T02100170 IEM_DS3505
ZJSY,2006-02-19 00:00,ZJSY 190000Z AUTO 13002KT 7SM 22/18 A3003 RMK T02200180 IEM_DS3505
ZJSY,2006-02-19 01:00,ZJSY 190100Z AUTO 26002KT 7SM 22/17 A3003 RMK T02200170 IEM_DS3505
ZJSY,2006-02-19 02:00,ZJSY 190200Z AUTO 14004KT 7SM 24/18 A3003 RMK T02400180 IEM_DS3505
ZJSY,2006-02-19 03:00,ZJSY 190300Z AUTO 09006KT 7SM 27/18 A3003 RMK T02700180 IEM_DS3505
ZJSY,2006-02-19 04:00,ZJSY 190400Z AUTO 09010KT 7SM 28/18 A3000 RMK T02800180 IEM_DS3505
ZJSY,2006-02-19 05:00,ZJSY 190500Z AUTO 08014KT 7SM 29/18 A2997 RMK T02900180 IEM_DS3505
ZJSY,2006-02-19 06:00,ZJSY 190600Z AUTO 10014KT 7SM 27/18 A2994 RMK T02700180 IEM_DS3505
ZJSY,2006-02-19 07:00,ZJSY 190700Z AUTO 10008KT 7SM 26/19 A2994 RMK T02600190 IEM_DS3505
ZJSY,2006-02-19 08:00,ZJSY 190800Z 09005MPS 060V120 9999 SCT018 26/19 Q1013 NOSIG
ZJSY,2006-02-19 09:00,ZJSY 190900Z AUTO 10008KT 7SM 25/19 A2994 RMK T02500190 IEM_DS3505
ZJSY,2006-02-19 10:00,ZJSY 191000Z AUTO 09012KT 7SM 25/19 A2994 RMK T02500190 IEM_DS3505
ZJSY,2006-02-19 11:00,ZJSY 191100Z AUTO 08010KT 7SM 24/19 A2994 RMK T02400190 IEM_DS3505
ZJSY,2006-02-19 12:00,ZJSY 191200Z 07004MPS 9999 SCT016 FEW026TCU BKN043 24/19 Q1015 NOSIG
ZJSY,2006-02-19 13:00,ZJSY 191300Z AUTO 08010KT 7SM 24/19 A3000 RMK T02400190 IEM_DS3505
ZJSY,2006-02-19 14:00,ZJSY 191400Z AUTO 09004KT 7SM 23/18 A3003 RMK T02300180 IEM_DS3505
ZJSY,2006-02-19 15:00,ZJSY 191500Z AUTO 06008KT 7SM 23/18 A3003 RMK T02300180 IEM_DS3505
ZJSY,2006-02-19 16:00,ZJSY 191600Z AUTO 10006KT 7SM 22/17 A3003 RMK T02200170 IEM_DS3505
ZJSY,2006-02-19 17:00,ZJSY 191700Z AUTO 08004KT 7SM 22/17 A3003 RMK T02200170 IEM_DS3505
ZJSY,2006-02-19 18:00,ZJSY 191800Z AUTO 09006KT 7SM 22/17 A3000 RMK T02200170 IEM_DS3505
ZJSY,2006-02-19 19:00,ZJSY 191900Z AUTO 09006KT 22/17 A3000 RMK T02200170 IEM_DS3505
ZJSY,2006-02-19 20:00,ZJSY 192000Z AUTO 08008KT 21/17 A3000 RMK T02100170 IEM_DS3505
ZJSY,2006-02-19 21:00,ZJSY 192100Z AUTO 03006KT 7SM 22/17 A3000 RMK T02200170 IEM_DS3505
ZJSY,2006-02-19 22:00,ZJSY 192200Z AUTO 04010KT 6SM 22/16 A3000 RMK T02200160 IEM_DS3505
ZJSY,2006-02-19 23:00,ZJSY 192300Z AUTO 11004KT 6SM 21/17 A3003 RMK T02100170 IEM_DS3505
ZJSY,2006-02-20 00:00,ZJSY 200000Z AUTO 06006KT 6SM 23/17 A3003 RMK T02300170 IEM_DS3505
ZJSY,2006-02-20 01:00,ZJSY 200100Z AUTO 06012KT 6SM 25/17 A3006 RMK T02500170 IEM_DS3505
ZJSY,2006-02-20 02:00,ZJSY 200200Z AUTO 06016KT 6SM 26/17 A3006 RMK T02600170 IEM_DS3505
ZJSY,2006-02-20 03:00,ZJSY 200300Z AUTO 06012G21KT 6SM 27/17 A3006 RMK T02700170 IEM_DS3505
ZJSY,2006-02-20 04:00,ZJSY 200400Z AUTO 08012KT 7SM 28/18 A3003 RMK T02800180 IEM_DS3505
ZJSY,2006-02-20 05:00,ZJSY 200500Z 09005MPS 050V130 9999 FEW016 28/17 Q1016 NOSIG
ZJSY,2006-02-20 06:00,ZJSY 200600Z AUTO 10010KT 7SM 29/18 A2997 RMK T02900180 IEM_DS3505
ZJSY,2006-02-20 07:00,ZJSY 200700Z AUTO 08012KT 7SM 29/18 A2997 RMK T02900180 IEM_DS3505
ZJSY,2006-02-20 08:00,ZJSY 200800Z AUTO 09010KT 7SM 27/18 A2994 RMK T02700180 IEM_DS3505
ZJSY,2006-02-20 09:00,ZJSY 200900Z AUTO 09010KT 7SM 26/18 A2994 RMK T02600180 IEM_DS3505
ZJSY,2006-02-20 10:00,ZJSY 201000Z AUTO 08012KT 7SM 25/18 A2997 RMK T02500180 IEM_DS3505
ZJSY,2006-02-20 11:00,ZJSY 201100Z AUTO 08012KT 7SM 24/18 A2997 RMK T02400180 IEM_DS3505
ZJSY,2006-02-20 12:00,ZJSY 201200Z 08005MPS 9999 FEW010 SCT016 BKN040 23/18 Q1016 NOSIG
ZJSY,2006-02-20 13:00,ZJSY 201300Z 08005MPS 9999 SCT016 BKN050 23/18 Q1016 NOSIG
ZJSY,2006-02-20 14:00,ZJSY 201400Z AUTO 09006KT 7SM 23/18 A3003 RMK T02300180 IEM_DS3505
ZJSY,2006-02-20 15:00,ZJSY 201500Z AUTO 10006KT 7SM 22/18 A3003 RMK T02200180 IEM_DS3505
ZJSY,2006-02-20 16:00,ZJSY 201600Z AUTO 08006KT 7SM 22/18 A3000 RMK T02200180 IEM_DS3505
ZJSY,2006-02-20 17:00,ZJSY 201700Z AUTO 08008KT 7SM 22/18 A3000 RMK T02200180 IEM_DS3505
ZJSY,2006-02-20 18:00,ZJSY 201800Z AUTO 08010KT 22/17 A2997 RMK T02200170 IEM_DS3505
ZJSY,2006-02-20 19:00,ZJSY 201900Z AUTO 07010KT 23/17 A2997 RMK T02300170 IEM_DS3505
ZJSY,2006-02-20 20:00,ZJSY 202000Z AUTO 06010KT 23/17 A2994 RMK T02300170 IEM_DS3505
ZJSY,2006-02-20 21:00,ZJSY 202100Z AUTO 06008KT 7SM 23/17 A2994 RMK T02300170 IEM_DS3505
ZJSY,2006-02-20 22:00,ZJSY 202200Z AUTO 07008KT 7SM 22/17 A2994 RMK T02200170 IEM_DS3505
ZJSY,2006-02-20 23:00,ZJSY 202300Z AUTO 06008KT 7SM 22/17 A2997 RMK T02200170 IEM_DS3505
ZJSY,2006-02-21 00:00,ZJSY 210000Z AUTO 06010KT 6SM 23/17 A2997 RMK T02300170 IEM_DS3505
ZJSY,2006-02-21 01:00,ZJSY 210100Z AUTO 07012KT 6SM 25/18 A3000 RMK T02500180 IEM_DS3505
ZJSY,2006-02-21 02:00,ZJSY 210200Z AUTO 07012KT 6SM 26/18 A3000 RMK T02600180 IEM_DS3505
ZJSY,2006-02-21 03:00,ZJSY 210300Z AUTO 08014KT 6SM 27/18 A3000 RMK T02700180 IEM_DS3505
ZJSY,2006-02-21 04:00,ZJSY 210400Z AUTO 08010KT 7SM 28/18 A3000 RMK T02800180 IEM_DS3505
ZJSY,2006-02-21 05:00,ZJSY 210500Z 10006MPS 9999 SCT016 28/18 Q1015 NOSIG
ZJSY,2006-02-21 06:00,ZJSY 210600Z AUTO 08012KT 7SM 29/19 A2994 RMK T02900190 IEM_DS3505
ZJSY,2006-02-21 07:00,ZJSY 210700Z AUTO 08008KT 7SM 29/18 A2991 RMK T02900180 IEM_DS3505
ZJSY,2006-02-21 08:00,ZJSY 210800Z AUTO 07012KT 7SM 27/18 A2988 RMK T02700180 IEM_DS3505
ZJSY,2006-02-21 09:00,ZJSY 210900Z AUTO 07012KT 7SM 27/18 A2988 RMK T02700180 IEM_DS3505
ZJSY,2006-02-21 10:00,ZJSY 211000Z AUTO 08012KT 7SM 26/19 A2991 RMK T02600190 IEM_DS3505
ZJSY,2006-02-21 11:00,ZJSY 211100Z AUTO 08014KT 7SM 24/19 A2991 RMK T02400190 IEM_DS3505
ZJSY,2006-02-21 12:00,ZJSY 211200Z 09005MPS 9999 SCT025 23/19 Q1014 NOSIG
ZJSY,2006-02-21 13:00,ZJSY 211300Z AUTO 08010KT 7SM 23/19 A2997 RMK T02300190 IEM_DS3505
ZJSY,2006-02-21 14:00,ZJSY 211400Z AUTO 08008KT 7SM 22/19 A2997 RMK T02200190 IEM_DS3505
ZJSY,2006-02-21 15:00,ZJSY 211500Z AUTO 07008KT 6SM 22/18 A2997 RMK T02200180 IEM_DS3505
ZJSY,2006-02-21 16:00,ZJSY 211600Z AUTO 07006KT 6SM 22/18 A2997 RMK T02200180 IEM_DS3505
ZJSY,2006-02-21 17:00,ZJSY 211700Z AUTO 08006KT 6SM 21/18 A2997 RMK T02100180 IEM_DS3505
ZJSY,2006-02-21 18:00,ZJSY 211800Z AUTO 03006KT 6SM 22/18 A2997 RMK T02200180 IEM_DS3505
ZJSY,2006-02-21 19:00,ZJSY 211900Z AUTO 08004KT 21/18 A2994 RMK T02100180 IEM_DS3505
ZJSY,2006-02-21 20:00,ZJSY 212000Z AUTO 04004KT 21/18 A2994 RMK T02100180 IEM_DS3505
ZJSY,2006-02-21 21:00,ZJSY 212100Z AUTO 04004KT 7SM 21/18 A2994 RMK T02100180 IEM_DS3505
ZJSY,2006-02-21 22:00,ZJSY 212200Z AUTO 35004KT 7SM 20/17 A2994 RMK T02000170 IEM_DS3505
ZJSY,2006-02-21 23:00,ZJSY 212300Z AUTO 06004KT 6SM 21/17 A2997 RMK T02100170 IEM_DS3505
ZJSY,2006-02-22 00:00,ZJSY 220000Z AUTO 7SM 21/18 A2997 RMK T02100180 IEM_DS3505
ZJSY,2006-02-22 01:00,ZJSY 220100Z AUTO 00000KT 7SM 25/18 A3000 RMK T02500180 IEM_DS3505
ZJSY,2006-02-22 02:00,ZJSY 220200Z AUTO 21004KT 6SM 25/19 A3003 RMK T02500190 IEM_DS3505
ZJSY,2006-02-22 03:00,ZJSY 220300Z AUTO 21006KT 7SM 26/20 A3003 RMK T02600200 IEM_DS3505
ZJSY,2006-02-22 04:00,ZJSY 220400Z AUTO 19006KT 7SM 28/20 A3000 RMK T02800200 IEM_DS3505
ZJSY,2006-02-22 05:00,ZJSY 220500Z AUTO 22010KT 7SM 26/20 A2997 RMK T02600200 IEM_DS3505
ZJSY,2006-02-22 06:00,ZJSY 220600Z AUTO 24008KT 7SM 26/20 A2994 RMK T02600200 IEM_DS3505
ZJSY,2006-02-22 07:00,ZJSY 220700Z AUTO 24004KT 7SM 26/21 A2991 RMK T02600210 IEM_DS3505
ZJSY,2006-02-22 08:00,ZJSY 220800Z AUTO 27006KT 7SM 26/21 A2991 RMK T02600210 IEM_DS3505
ZJSY,2006-02-22 09:00,ZJSY 220900Z AUTO 10008KT 7SM 26/20 A2991 RMK T02600200 IEM_DS3505
ZJSY,2006-02-22 10:00,ZJSY 221000Z AUTO 07010KT 7SM 26/20 A2991 RMK T02600200 IEM_DS3505
ZJSY,2006-02-22 11:00,ZJSY 221100Z AUTO 07010KT 7SM 24/20 A2994 RMK T02400200 IEM_DS3505
ZJSY,2006-02-22 12:00,ZJSY 221200Z 08004MPS 9999 SCT012 BKN016 FEW026CB 24/20 Q1014 NOSIG
ZJSY,2006-02-22 13:00,ZJSY 221300Z AUTO 08004KT 7SM 24/20 A2997 RMK T02400200 IEM_DS3505
ZJSY,2006-02-22 14:00,ZJSY 221400Z AUTO 08006KT 7SM 24/20 A3000 RMK T02400200 IEM_DS3505
ZJSY,2006-02-22 15:00,ZJSY 221500Z AUTO 09006KT 7SM 23/20 A3000 RMK T02300200 IEM_DS3505
ZJSY,2006-02-22 16:00,ZJSY 221600Z AUTO 06004KT 7SM 23/20 A3000 RMK T02300200 IEM_DS3505
ZJSY,2006-02-22 17:00,ZJSY 221700Z AUTO 7SM 23/20 A2997 RMK T02300200 IEM_DS3505
ZJSY,2006-02-22 18:00,ZJSY 221800Z AUTO 09004KT 21/19 A2997 RMK T02100190 IEM_DS3505
ZJSY,2006-02-22 19:00,ZJSY 221900Z AUTO 00000KT 22/19 A2997 RMK T02200190 IEM_DS3505
ZJSY,2006-02-22 20:00,ZJSY 222000Z AUTO 34004KT 21/19 A2994 RMK T02100190 IEM_DS3505
ZJSY,2006-02-22 21:00,ZJSY 222100Z AUTO 33004KT 6SM 20/18 A2994 RMK T02000180 IEM_DS3505
ZJSY,2006-02-22 22:00,ZJSY 222200Z AUTO 34004KT 6SM 20/18 A2994 RMK T02000180 IEM_DS3505
ZJSY,2006-02-22 23:00,ZJSY 222300Z AUTO 34004KT 6SM 20/18 A2997 RMK T02000180 IEM_DS3505
ZJSY,2006-02-23 00:00,ZJSY 230000Z AUTO 34004KT 6SM 21/19 A3000 RMK T02100190 IEM_DS3505
ZJSY,2006-02-23 01:00,ZJSY 230100Z AUTO 22002KT 6SM 23/19 A3000 RMK T02300190 IEM_DS3505
ZJSY,2006-02-23 02:00,ZJSY 230200Z AUTO 21004KT 6SM 25/19 A3003 RMK T02500190 IEM_DS3505
ZJSY,2006-02-23 03:00,ZJSY 230300Z AUTO 18004KT 7SM 27/19 A3003 RMK T02700190 IEM_DS3505
ZJSY,2006-02-23 04:00,ZJSY 230400Z AUTO 11010KT 7SM 29/19 A3000 RMK T02900190 IEM_DS3505
ZJSY,2006-02-23 05:00,ZJSY 230500Z AUTO 11012KT 7SM 29/19 A2997 RMK T02900190 IEM_DS3505
ZJSY,2006-02-23 06:00,ZJSY 230600Z AUTO 10012KT 7SM 29/18 A2994 RMK T02900180 IEM_DS3505
ZJSY,2006-02-23 07:00,ZJSY 230700Z AUTO 10014KT 7SM 29/19 A2991 RMK T02900190 IEM_DS3505
ZJSY,2006-02-23 08:00,ZJSY 230800Z AUTO 09016KT 7SM 28/19 A2988 RMK T02800190 IEM_DS3505
ZJSY,2006-02-23 09:00,ZJSY 230900Z AUTO 09012KT 7SM 27/19 A2988 RMK T02700190 IEM_DS3505
ZJSY,2006-02-23 10:00,ZJSY 231000Z AUTO 09012KT 7SM 26/19 A2991 RMK T02600190 IEM_DS3505
ZJSY,2006-02-23 11:00,ZJSY 231100Z AUTO 07008KT 7SM 25/19 A2991 RMK T02500190 IEM_DS3505
ZJSY,2006-02-23 12:00,ZJSY 231200Z 13002MPS 080V180 9999 SCT013 BKN016 24/19 Q1014 NOSIG
ZJSY,2006-02-23 13:00,ZJSY 231300Z AUTO 11004KT 7SM 24/19 A2997 RMK T02400190 IEM_DS3505
ZJSY,2006-02-23 14:00,ZJSY 231400Z AUTO 11008KT 7SM 23/19 A2997 RMK T02300190 IEM_DS3505
ZJSY,2006-02-23 15:00,ZJSY 231500Z AUTO 10008KT 7SM 23/19 A3000 RMK T02300190 IEM_DS3505
ZJSY,2006-02-23 16:00,ZJSY 231600Z AUTO 08006KT 7SM 23/18 A3000 RMK T02300180 IEM_DS3505
ZJSY,2006-02-23 17:00,ZJSY 231700Z AUTO 08008KT 7SM 23/19 A2997 RMK T02300190 IEM_DS3505
ZJSY,2006-02-23 18:00,ZJSY 231800Z AUTO 08008KT 7SM 23/19 A2997 RMK T02300190 IEM_DS3505
ZJSY,2006-02-23 19:00,ZJSY 231900Z AUTO 05008KT 23/18 A2997 RMK T02300180 IEM_DS3505
ZJSY,2006-02-23 20:00,ZJSY 232000Z AUTO 06004KT 22/18 A2994 RMK T02200180 IEM_DS3505
ZJSY,2006-02-23 21:00,ZJSY 232100Z AUTO 6SM 22/18 A2994 RMK T02200180 IEM_DS3505
ZJSY,2006-02-23 22:00,ZJSY 232200Z AUTO 10004KT 7SM 22/19 A2994 RMK T02200190 IEM_DS3505
ZJSY,2006-02-23 23:00,ZJSY 232300Z AUTO 09004KT 7SM 21/18 A2997 RMK T02100180 IEM_DS3505
ZJSY,2006-02-24 00:00,ZJSY 240000Z AUTO 08002KT 7SM 22/19 A3000 RMK T02200190 IEM_DS3505
ZJSY,2006-02-24 01:00,ZJSY 240100Z AUTO 06010KT 7SM 25/19 A3000 RMK T02500190 IEM_DS3505
ZJSY,2006-02-24 02:00,ZJSY 240200Z AUTO 06014KT 7SM 27/19 A3000 RMK T02700190 IEM_DS3505
ZJSY,2006-02-24 03:00,ZJSY 240300Z 04007MPS 9999 FEW016 28/19 Q1016 NOSIG
ZJSY,2006-02-24 04:00,ZJSY 240400Z AUTO 09012KT 7SM 27/19 A3000 RMK T02700190 IEM_DS3505
ZJSY,2006-02-24 05:00,ZJSY 240500Z AUTO 11012KT 7SM 28/19 A2997 RMK T02800190 IEM_DS3505
ZJSY,2006-02-24 06:00,ZJSY 240600Z AUTO 10014KT 7SM 28/20 A2991 RMK T02800200 IEM_DS3505
ZJSY,2006-02-24 07:00,ZJSY 240700Z 10007MPS 9999 FEW016 28/19 Q1012 NOSIG
ZJSY,2006-02-24 08:00,ZJSY 240800Z AUTO 10014KT 7SM 28/20 A2988 RMK T02800200 IEM_DS3505
ZJSY,2006-02-24 09:00,ZJSY 240900Z AUTO 09016KT 7SM 27/19 A2988 RMK T02700190 IEM_DS3505
ZJSY,2006-02-24 10:00,ZJSY 241000Z AUTO 10014KT 7SM 25/19 A2988 RMK T02500190 IEM_DS3505
ZJSY,2006-02-24 11:00,ZJSY 241100Z AUTO 09012KT 7SM 24/19 A2991 RMK T02400190 IEM_DS3505
ZJSY,2006-02-24 12:00,ZJSY 241200Z 10004MPS 9999 BKN046 23/19 Q1014 NOSIG
ZJSY,2006-02-24 13:00,ZJSY 241300Z 09005MPS 9999 SCT046 23/19 Q1014 NOSIG
ZJSY,2006-02-24 14:00,ZJSY 241400Z AUTO 10006KT 6SM 23/19 A2997 RMK T02300190 IEM_DS3505
ZJSY,2006-02-24 15:00,ZJSY 241500Z AUTO 08008KT 6SM 23/19 A2997 RMK T02300190 IEM_DS3505
ZJSY,2006-02-24 16:00,ZJSY 241600Z AUTO 08008KT 6SM 23/19 A2997 RMK T02300190 IEM_DS3505
ZJSY,2006-02-24 17:00,ZJSY 241700Z AUTO 08006KT 6SM 23/19 A2997 RMK T02300190 IEM_DS3505
ZJSY,2006-02-24 18:00,ZJSY 241800Z AUTO 08008KT 22/19 A2994 RMK T02200190 IEM_DS3505
ZJSY,2006-02-24 19:00,ZJSY 241900Z AUTO 06006KT 23/18 A2994 RMK T02300180 IEM_DS3505
ZJSY,2006-02-24 20:00,ZJSY 242000Z AUTO 08003MPS //// // ////// 22/19 Q1013
ZJSY,2006-02-24 21:00,ZJSY 242100Z AUTO 08006KT 7SM 22/19 A2991 RMK T02200190 IEM_DS3505
ZJSY,2006-02-24 22:00,ZJSY 242200Z AUTO 12004KT 7SM 21/19 A2991 RMK T02100190 IEM_DS3505
ZJSY,2006-02-24 23:00,ZJSY 242300Z AUTO 08006KT 6SM 21/19 A2994 RMK T02100190 IEM_DS3505
ZJSY,2006-02-25 00:00,ZJSY 250000Z AUTO 08006KT 6SM 22/19 A2994 RMK T02200190 IEM_DS3505
ZJSY,2006-02-25 01:00,ZJSY 250100Z AUTO 09008KT 7SM 25/20 A2994 RMK T02500200 IEM_DS3505
ZJSY,2006-02-25 02:00,ZJSY 250200Z AUTO 08012KT 7SM 26/19 A2997 RMK T02600190 IEM_DS3505
ZJSY,2006-02-25 03:00,ZJSY 250300Z AUTO 07012KT 7SM 28/19 A2994 RMK T02800190 IEM_DS3505
ZJSY,2006-02-25 04:00,ZJSY 250400Z AUTO 11008KT 7SM 28/19 A2991 RMK T02800190 IEM_DS3505
ZJSY,2006-02-25 05:00,ZJSY 250500Z AUTO 18008KT 7SM 27/20 A2988 RMK T02700200 IEM_DS3505
ZJSY,2006-02-25 06:00,ZJSY 250600Z AUTO 17008KT 7SM 27/20 A2988 RMK T02700200 IEM_DS3505
ZJSY,2006-02-25 07:00,ZJSY 250700Z AUTO 16008KT 7SM 27/20 A2985 RMK T02700200 IEM_DS3505
ZJSY,2006-02-25 08:00,ZJSY 250800Z AUTO 17008KT 7SM 26/20 A2983 RMK T02600200 IEM_DS3505
ZJSY,2006-02-25 09:00,ZJSY 250900Z AUTO 17008KT 7SM 25/21 A2983 RMK T02500210 IEM_DS3505
ZJSY,2006-02-25 10:00,ZJSY 251000Z AUTO 7SM 24/20 A2983 RMK T02400200 IEM_DS3505
ZJSY,2006-02-25 11:00,ZJSY 251100Z AUTO 18004KT 7SM 24/21 A2985 RMK T02400210 IEM_DS3505
ZJSY,2006-02-25 12:00,ZJSY 251200Z VRB01MPS 9999 SCT016 BKN050 24/21 Q1011 NOSIG
ZJSY,2006-02-25 13:00,ZJSY 251300Z AUTO 7SM 24/21 A2988 RMK T02400210 IEM_DS3505
ZJSY,2006-02-25 14:00,ZJSY 251400Z AUTO 11004KT 7SM 24/20 A2991 RMK T02400200 IEM_DS3505
ZJSY,2006-02-25 15:00,ZJSY 251500Z AUTO 06006KT 7SM 24/20 A2991 RMK T02400200 IEM_DS3505
ZJSY,2006-02-25 16:00,ZJSY 251600Z AUTO 03002KT 7SM 23/20 A2988 RMK T02300200 IEM_DS3505
ZJSY,2006-02-25 17:00,ZJSY 251700Z AUTO 08006KT 7SM 23/20 A2988 RMK T02300200 IEM_DS3505
ZJSY,2006-02-25 18:00,ZJSY 251800Z AUTO 00000KT 7SM 22/19 A2988 RMK T02200190 IEM_DS3505
ZJSY,2006-02-25 19:00,ZJSY 251900Z 02001MPS 9999 FEW013 22/19 Q1011 NOSIG
ZJSY,2006-02-25 20:00,ZJSY 252000Z AUTO 08004KT 6SM 21/19 A2985 RMK T02100190 IEM_DS3505
ZJSY,2006-02-25 21:00,ZJSY 252100Z AUTO 12002KT 7SM 21/19 A2985 RMK T02100190 IEM_DS3505
ZJSY,2006-02-25 22:00,ZJSY 252200Z AUTO 7SM 21/19 A2985 RMK T02100190 IEM_DS3505
ZJSY,2006-02-25 23:00,ZJSY 252300Z AUTO 7SM 22/19 A2988 RMK T02200190 IEM_DS3505
ZJSY,2006-02-26 00:00,ZJSY 260000Z AUTO 00000KT 7SM 22/20 A2991 RMK T02200200 IEM_DS3505
ZJSY,2006-02-26 01:00,ZJSY 260100Z AUTO 06004KT 7SM 24/20 A2994 RMK T02400200 IEM_DS3505
ZJSY,2006-02-26 02:00,ZJSY 260200Z AUTO 12004KT 7SM 25/20 A2997 RMK T02500200 IEM_DS3505
ZJSY,2006-02-26 03:00,ZJSY 260300Z AUTO 7SM 25/21 A2997 RMK T02500210 IEM_DS3505
ZJSY,2006-02-26 04:00,ZJSY 260400Z AUTO 19004KT 7SM 25/21 A2994 RMK T02500210 IEM_DS3505
ZJSY,2006-02-26 05:00,ZJSY 260500Z AUTO 15006KT 7SM 25/20 A2991 RMK T02500200 IEM_DS3505
ZJSY,2006-02-26 06:00,ZJSY 260600Z AUTO 14008KT 7SM 25/21 A2988 RMK T02500210 IEM_DS3505
ZJSY,2006-02-26 07:00,ZJSY 260700Z AUTO 14006KT 7SM 25/20 A2985 RMK T02500200 IEM_DS3505
ZJSY,2006-02-26 08:00,ZJSY 260800Z AUTO 15008KT 7SM 26/20 A2983 RMK T02600200 IEM_DS3505
ZJSY,2006-02-26 09:00,ZJSY 260900Z 14005MPS 9999 SCT018 FEW023TCU 25/20 Q1010 NOSIG
ZJSY,2006-02-26 10:00,ZJSY 261000Z AUTO 11008KT 7SM 25/19 A2985 RMK T02500190 IEM_DS3505
ZJSY,2006-02-26 11:00,ZJSY 261100Z AUTO 10008KT 7SM 24/19 A2985 RMK T02400190 IEM_DS3505
ZJSY,2006-02-26 12:00,ZJSY 261200Z 08005MPS 9999 SCT016 23/19 Q1012 NOSIG
ZJSY,2006-02-26 13:00,ZJSY 261300Z AUTO 08008KT 7SM 22/19 A2991 RMK T02200190 IEM_DS3505
ZJSY,2006-02-26 14:00,ZJSY 261400Z AUTO 08008KT 7SM 22/19 A2991 RMK T02200190 IEM_DS3505
ZJSY,2006-02-26 15:00,ZJSY 261500Z AUTO 08008KT 7SM 22/19 A2991 RMK T02200190 IEM_DS3505
ZJSY,2006-02-26 16:00,ZJSY 261600Z AUTO 08010KT 7SM 22/19 A2991 RMK T02200190 IEM_DS3505
ZJSY,2006-02-26 17:00,ZJSY 261700Z AUTO 08010KT 6SM 22/19 A2991 RMK T02200190 IEM_DS3505
ZJSY,2006-02-26 18:00,ZJSY 261800Z AUTO 09008KT 6SM 22/19 A2988 RMK T02200190 IEM_DS3505
ZJSY,2006-02-26 19:00,ZJSY 261900Z AUTO 08008KT 6SM 22/19 A2988 RMK T02200190 IEM_DS3505
ZJSY,2006-02-26 20:00,ZJSY 262000Z AUTO 08008KT 22/19 A2988 RMK T02200190 IEM_DS3505
ZJSY,2006-02-26 21:00,ZJSY 262100Z AUTO 08008KT 6SM 22/19 A2988 RMK T02200190 IEM_DS3505
ZJSY,2006-02-26 22:00,ZJSY 262200Z 08003MPS 9999 BKN043 23/20 Q1012 NOSIG
ZJSY,2006-02-26 23:00,ZJSY 262300Z 09002MPS 9999 FEW015 BKN043 23/20 Q1013 NOSIG
ZJSY,2006-02-27 00:00,ZJSY 270000Z AUTO 08006KT 7SM 23/20 A2991 RMK T02300200 IEM_DS3505
ZJSY,2006-02-27 01:00,ZJSY 270100Z 10002MPS 9999 FEW016 SCT040 24/20 Q1014 NOSIG
ZJSY,2006-02-27 02:00,ZJSY 270200Z AUTO 11008KT 7SM 25/20 A2994 RMK T02500200 IEM_DS3505
ZJSY,2006-02-27 03:00,ZJSY 270300Z AUTO 12008KT 7SM 27/21 A2994 RMK T02700210 IEM_DS3505
ZJSY,2006-02-27 04:00,ZJSY 270400Z 13004MPS 090V160 9999 SCT017 27/21 Q1013 NOSIG
ZJSY,2006-02-27 05:00,ZJSY 270500Z 14004MPS 110V180 9999 FEW017TCU SCT017 27/21 Q1013 NOSIG
ZJSY,2006-02-27 06:00,ZJSY 270600Z AUTO 14010KT 7SM 27/21 A2988 RMK T02700210 IEM_DS3505
ZJSY,2006-02-27 07:00,ZJSY 270700Z 14004MPS 100V180 9999 SCT015 FEW023TCU 26/22 Q1011 NOSIG
ZJSY,2006-02-27 08:00,ZJSY 270800Z 13004MPS 9999 SCT015 FEW023TCU 26/21 Q1010 NOSIG
ZJSY,2006-02-27 09:00,ZJSY 270900Z 13003MPS 100V170 9999 FEW013 FEW023TCU 26/21 Q1010 NOSIG
ZJSY,2006-02-27 10:00,ZJSY 271000Z 13003MPS 100V160 9999 FEW013 25/21 Q1010 NOSIG
ZJSY,2006-02-27 11:00,ZJSY 271100Z AUTO 12008KT 7SM 24/20 A2983 RMK T02400200 IEM_DS3505
ZJSY,2006-02-27 12:00,ZJSY 271200Z 09004MPS 9999 FEW013 24/20 Q1011 NOSIG
ZJSY,2006-02-27 13:00,ZJSY 271300Z 08004MPS CAVOK 23/20 Q1012 NOSIG
ZJSY,2006-02-27 14:00,ZJSY 271400Z AUTO 08008KT 6SM 23/20 A2988 RMK T02300200 IEM_DS3505
ZJSY,2006-02-27 15:00,ZJSY 271500Z AUTO 06008KT 6SM 23/20 A2988 RMK T02300200 IEM_DS3505
ZJSY,2006-02-27 16:00,ZJSY 271600Z AUTO 08006KT 7SM 23/20 A2988 RMK T02300200 IEM_DS3505
ZJSY,2006-02-27 17:00,ZJSY 271700Z AUTO 08006KT 6SM 23/20 A2988 RMK T02300200 IEM_DS3505
ZJSY,2006-02-27 18:00,ZJSY 271800Z AUTO 07006KT 23/20 A2988 RMK T02300200 IEM_DS3505
ZJSY,2006-02-27 19:00,ZJSY 271900Z AUTO 07004KT 23/20 A2988 RMK T02300200 IEM_DS3505
ZJSY,2006-02-27 20:00,ZJSY 272000Z AUTO 08004KT 23/20 A2988 RMK T02300200 IEM_DS3505
ZJSY,2006-02-27 21:00,ZJSY 272100Z AUTO 09002KT 7SM 23/20 A2988 RMK T02300200 IEM_DS3505
ZJSY,2006-02-27 22:00,ZJSY 272200Z AUTO 05002KT 7SM 24/20 A2988 RMK T02400200 IEM_DS3505
ZJSY,2006-02-27 23:00,ZJSY 272300Z AUTO 08004KT 7SM 23/20 A2988 RMK T02300200 IEM_DS3505
ZJSY,2006-02-28 00:00,ZJSY 280000Z AUTO 07006KT 7SM 24/20 A2991 RMK T02400200 IEM_DS3505
ZJSY,2006-02-28 01:00,ZJSY 280100Z AUTO 08006KT 6SM 26/20 A2991 RMK T02600200 IEM_DS3505
ZJSY,2006-02-28 02:00,ZJSY 280200Z AUTO 08008KT 6SM 27/20 A2991 RMK T02700200 IEM_DS3505
ZJSY,2006-02-28 03:00,ZJSY 280300Z 15002MPS 100V190 9999 SCT016 27/20 Q1014 NOSIG
ZJSY,2006-02-28 04:00,ZJSY 280400Z 18003MPS 150V210 9999 BKN016 27/21 Q1013 NOSIG
ZJSY,2006-02-28 05:00,ZJSY 280500Z 17003MPS 120V200 9999 FEW013 BKN016 BKN060 26/20 Q1013 NOSIG
ZJSY,2006-02-28 06:00,ZJSY 280600Z 18003MPS 140V210 9999 FEW013 SCT016 26/21 Q1012 NOSIG
ZJSY,2006-02-28 07:00,ZJSY 280700Z 15002MPS 110V200 9999 SCT016 26/21 Q1012 NOSIG
ZJSY,2006-02-28 08:00,ZJSY 280800Z 18002MPS 150V210 9999 FEW013 25/20 Q1011 NOSIG
ZJSY,2006-02-28 09:00,ZJSY 280900Z AUTO 19004KT 7SM 25/21 A2985 RMK T02500210 IEM_DS3505
ZJSY,2006-02-28 10:00,ZJSY 281000Z VRB01MPS 9999 FEW015 SCT040 25/21 Q1012 NOSIG
ZJSY,2006-02-28 11:00,ZJSY 281100Z AUTO 7SM 25/21 A2988 RMK T02500210 IEM_DS3505
ZJSY,2006-02-28 12:00,ZJSY 281200Z 08004MPS 9999 -RA SCT013 SCT015 BKN040 24/19 Q1013 NOSIG
ZJSY,2006-02-28 13:00,ZJSY 281300Z AUTO 08006KT 7SM 24/19 A2994 RMK T02400190 IEM_DS3505
ZJSY,2006-02-28 14:00,ZJSY 281400Z AUTO 08010KT 7SM 23/19 A2994 RMK T02300190 IEM_DS3505
ZJSY,2006-02-28 15:00,ZJSY 281500Z AUTO 09010KT 7SM 22/18 A2994 RMK T02200180 IEM_DS3505
ZJSY,2006-02-28 16:00,ZJSY 281600Z AUTO 08010KT 7SM 22/17 A2997 RMK T02200170 IEM_DS3505
ZJSY,2006-02-28 17:00,ZJSY 281700Z 07003MPS 9999 SCT016 SCT060 22/17 Q1015 NOSIG
ZJSY,2006-02-28 18:00,ZJSY 281800Z AUTO 08001MPS //// // ////// 21/18 Q1014
ZJSY,2006-02-28 19:00,ZJSY 281900Z AUTO 08002MPS //// // ////// 20/16 Q1014
ZJSY,2006-02-28 20:00,ZJSY 282000Z AUTO 08004KT 20/16 A2994 RMK T02000160 IEM_DS3505
ZJSY,2006-02-28 21:00,ZJSY 282100Z AUTO 00000KT 5SM 18/16 A2997 RMK T01800160 IEM_DS3505
ZJSY,2006-02-28 22:00,ZJSY 282200Z AUTO 4SM 18/16 A3000 RMK T01800160 IEM_DS3505
ZJSY,2006-02-28 23:00,ZJSY 282300Z AUTO 08006KT 4SM 17/16 A3000 RMK T01700160 IEM_DS3505
ZJSY,2006-03-01 00:00,ZJSY 010000Z AUTO 09006KT 2SM 17/15 A3006 RMK T01700150 IEM_DS3505
ZJSY,2006-03-01 01:00,ZJSY 010100Z 08003MPS 3000 -RA BKN006 OVC040 17/15 Q1018
ZJSY,2006-03-01 02:00,ZJSY 010200Z AUTO 09006KT 2SM 17/15 A3009 RMK T01700150 IEM_DS3505
ZJSY,2006-03-01 03:00,ZJSY 010300Z AUTO 08006KT 7SM 17/15 A3009 RMK T01700150 IEM_DS3505
ZJSY,2006-03-01 04:00,ZJSY 010400Z AUTO 00000KT 7SM 18/15 A3009 RMK T01800150 IEM_DS3505
ZJSY,2006-03-01 05:00,ZJSY 010500Z AUTO 7SM 18/15 A3006 RMK T01800150 IEM_DS3505
ZJSY,2006-03-01 06:00,ZJSY 010600Z AUTO 27004KT 4SM 18/15 A3006 RMK T01800150 IEM_DS3505
ZJSY,2006-03-01 07:00,ZJSY 010700Z 28002MPS 3000 -RA BKN006 OVC033 17/15 Q1017 NOSIG
ZJSY,2006-03-01 08:00,ZJSY 010800Z 00000MPS 4000 -DZ BKN007 OVC033 17/16 Q1017 NOSIG
ZJSY,2006-03-01 09:00,ZJSY 010900Z AUTO 00000KT 1 1/4SM 17/16 A3003 RMK T01700160 IEM_DS3505
ZJSY,2006-03-01 10:00,ZJSY 011000Z AUTO 08004KT 1SM 17/15 A3003 RMK T01700150 IEM_DS3505
ZJSY,2006-03-01 11:00,ZJSY 011100Z AUTO 07006KT 1SM 16/15 A3003 RMK T01600150 IEM_DS3505
ZJSY,2006-03-01 12:00,ZJSY 011200Z 07002MPS 2500 -DZ SCT005 OVC023 16/15 Q1017 REDZ NOSIG
ZJSY,2006-03-01 13:00,ZJSY 011300Z AUTO 06004KT 3SM 17/15 A3006 RMK T01700150 IEM_DS3505
ZJSY,2006-03-01 14:00,ZJSY 011400Z AUTO 08006KT 4SM 16/14 A3009 RMK T01600140 IEM_DS3505
ZJSY,2006-03-01 15:00,ZJSY 011500Z AUTO 06004KT 5SM 17/14 A3009 RMK T01700140 IEM_DS3505
ZJSY,2006-03-01 16:00,ZJSY 011600Z AUTO 06002KT 5SM 17/14 A3009 RMK T01700140 IEM_DS3505
ZJSY,2006-03-01 17:00,ZJSY 011700Z AUTO 08004KT 5SM 16/13 A3009 RMK T01600130 IEM_DS3505
ZJSY,2006-03-01 18:00,ZJSY 011800Z AUTO 08006KT 16/12 A3009 RMK T01600120 IEM_DS3505
ZJSY,2006-03-01 19:00,ZJSY 011900Z AUTO 08010KT 15/13 A3009 RMK T01500130 IEM_DS3505
ZJSY,2006-03-01 20:00,ZJSY 012000Z AUTO 08012KT 14/12 A3009 RMK T01400120 IEM_DS3505
ZJSY,2006-03-01 21:00,ZJSY 012100Z 08005MPS 6000 SCT007 OVC040 14/11 Q1019 NOSIG
ZJSY,2006-03-01 22:00,ZJSY 012200Z AUTO 08006KT 4SM 15/12 A3009 RMK T01500120 IEM_DS3505
ZJSY,2006-03-01 23:00,ZJSY 012300Z AUTO 07006KT 3SM 15/11 A3012 RMK T01500110 IEM_DS3505
ZJSY,2006-03-02 00:00,ZJSY 020000Z AUTO 07006KT 4SM 16/12 A3012 RMK T01600120 IEM_DS3505
ZJSY,2006-03-02 01:00,ZJSY 020100Z 05002MPS 7000 BKN010 OVC050 17/13 Q1021 NOSIG
ZJSY,2006-03-02 02:00,ZJSY 020200Z AUTO 36004KT 7SM 18/13 A3015 RMK T01800130 IEM_DS3505
ZJSY,2006-03-02 03:00,ZJSY 020300Z VRB01MPS 9999 FEW010 BKN050 20/13 Q1021 NOSIG
ZJSY,2006-03-02 04:00,ZJSY 020400Z 30002MPS 9999 SCT010 OVC040 19/14 Q1021 NOSIG
ZJSY,2006-03-02 05:00,ZJSY 020500Z AUTO 30004KT 7SM 19/14 A3012 RMK T01900140 IEM_DS3505
ZJSY,2006-03-02 06:00,ZJSY 020600Z AUTO 24004KT 7SM 19/14 A3009 RMK T01900140 IEM_DS3505
ZJSY,2006-03-02 07:00,ZJSY 020700Z AUTO 24008KT 7SM 19/15 A3006 RMK T01900150 IEM_DS3505
ZJSY,2006-03-02 08:00,ZJSY 020800Z AUTO 24006KT 7SM 20/15 A3003 RMK T02000150 IEM_DS3505
ZJSY,2006-03-02 09:00,ZJSY 020900Z AUTO 23006KT 7SM 19/15 A3000 RMK T01900150 IEM_DS3505
ZJSY,2006-03-02 10:00,ZJSY 021000Z AUTO 24004KT 7SM 19/14 A3000 RMK T01900140 IEM_DS3505
ZJSY,2006-03-02 11:00,ZJSY 021100Z AUTO 24004KT 7SM 19/14 A3003 RMK T01900140 IEM_DS3505
ZJSY,2006-03-02 12:00,ZJSY 021200Z 00000MPS 9999 SCT010 BKN050 19/15 Q1017 NOSIG
ZJSY,2006-03-02 13:00,ZJSY 021300Z AUTO 08006KT 7SM 19/13 A3006 RMK T01900130 IEM_DS3505
ZJSY,2006-03-02 14:00,ZJSY 021400Z AUTO 07006KT 7SM 18/14 A3009 RMK T01800140 IEM_DS3505
ZJSY,2006-03-02 15:00,ZJSY 021500Z 07002MPS 9999 SCT011 BKN046 18/14 Q1018 NOSIG
ZJSY,2006-03-02 16:00,ZJSY 021600Z AUTO 7SM 19/14 A3006 RMK T01900140 IEM_DS3505
ZJSY,2006-03-02 17:00,ZJSY 021700Z AUTO 08006KT 7SM 18/14 A3006 RMK T01800140 IEM_DS3505
ZJSY,2006-03-02 18:00,ZJSY 021800Z AUTO 08006KT 18/14 A3006 RMK T01800140 IEM_DS3505
ZJSY,2006-03-02 19:00,ZJSY 021900Z AUTO 08003MPS //// // ////// 18/13 Q1018 NOSIG
ZJSY,2006-03-02 20:00,ZJSY 022000Z AUTO 08008KT 17/13 A3003 RMK T01700130 IEM_DS3505
ZJSY,2006-03-02 21:00,ZJSY 022100Z AUTO 08006KT 7SM 17/13 A3003 RMK T01700130 IEM_DS3505
ZJSY,2006-03-02 22:00,ZJSY 022200Z AUTO 08008KT 7SM 17/12 A3003 RMK T01700120 IEM_DS3505
ZJSY,2006-03-02 23:00,ZJSY 022300Z AUTO 07006KT 4SM 17/13 A3006 RMK T01700130 IEM_DS3505
ZJSY,2006-03-03 00:00,ZJSY 030000Z AUTO 07006KT 4SM 17/13 A3009 RMK T01700130 IEM_DS3505
ZJSY,2006-03-03 01:00,ZJSY 030100Z AUTO 07006KT 4SM 18/13 A3009 RMK T01800130 IEM_DS3505
ZJSY,2006-03-03 02:00,ZJSY 030200Z AUTO 07006KT 3SM 18/14 A3012 RMK T01800140 IEM_DS3505
ZJSY,2006-03-03 03:00,ZJSY 030300Z AUTO 12004KT 4SM 20/14 A3012 RMK T02000140 IEM_DS3505
ZJSY,2006-03-03 04:00,ZJSY 030400Z AUTO 18004KT 4SM 21/15 A3009 RMK T02100150 IEM_DS3505
ZJSY,2006-03-03 05:00,ZJSY 030500Z AUTO 21004KT 4SM 21/15 A3006 RMK T02100150 IEM_DS3505
ZJSY,2006-03-03 06:00,ZJSY 030600Z AUTO 22004KT 4SM 21/15 A3003 RMK T02100150 IEM_DS3505
ZJSY,2006-03-03 07:00,ZJSY 030700Z AUTO 23004KT 4SM 21/15 A3000 RMK T02100150 IEM_DS3505
ZJSY,2006-03-03 08:00,ZJSY 030800Z AUTO 21004KT 4SM 20/15 A3000 RMK T02000150 IEM_DS3505
ZJSY,2006-03-03 09:00,ZJSY 030900Z AUTO 4SM 20/15 A3000 RMK T02000150 IEM_DS3505
ZJSY,2006-03-03 10:00,ZJSY 031000Z AUTO 4SM 20/15 A3000 RMK T02000150 IEM_DS3505
ZJSY,2006-03-03 11:00,ZJSY 031100Z AUTO 3SM 20/15 A3000 RMK T02000150 IEM_DS3505
ZJSY,2006-03-03 12:00,ZJSY 031200Z 29001MPS 5000 HZ SCT015 BKN040 20/15 Q1016 NOSIG
ZJSY,2006-03-03 13:00,ZJSY 031300Z AUTO 3SM 20/16 A3003 RMK T02000160 IEM_DS3505
ZJSY,2006-03-03 14:00,ZJSY 031400Z AUTO 3SM 20/16 A3003 RMK T02000160 IEM_DS3505
ZJSY,2006-03-03 15:00,ZJSY 031500Z AUTO 05004KT 3SM 20/15 A3006 RMK T02000150 IEM_DS3505
ZJSY,2006-03-03 16:00,ZJSY 031600Z AUTO 06006KT 3SM 20/14 A3006 RMK T02000140 IEM_DS3505
ZJSY,2006-03-03 17:00,ZJSY 031700Z AUTO 06006KT 19/14 A3003 RMK T01900140 IEM_DS3505
ZJSY,2006-03-03 18:00,ZJSY 031800Z AUTO 36002KT 19/14 A3003 RMK T01900140 IEM_DS3505
ZJSY,2006-03-03 19:00,ZJSY 031900Z AUTO 10004KT 19/13 A3000 RMK T01900130 IEM_DS3505
ZJSY,2006-03-03 20:00,ZJSY 032000Z AUTO 06006KT 19/13 A3000 RMK T01900130 IEM_DS3505
ZJSY,2006-03-03 21:00,ZJSY 032100Z AUTO 36002KT 3SM 19/14 A3000 RMK T01900140 IEM_DS3505
ZJSY,2006-03-03 22:00,ZJSY 032200Z AUTO 33004KT 3SM 19/14 A3000 RMK T01900140 IEM_DS3505
ZJSY,2006-03-03 23:00,ZJSY 032300Z AUTO 07004KT 2 1/2SM 19/14 A3000 RMK T01900140 IEM_DS3505
ZJSY,2006-03-04 00:00,ZJSY 040000Z AUTO 3SM 20/15 A3003 RMK T02000150 IEM_DS3505
ZJSY,2006-03-04 01:00,ZJSY 040100Z 05003MPS 6000 SCT030 OVC050 22/15 Q1017 NOSIG
ZJSY,2006-03-04 02:00,ZJSY 040200Z AUTO 09008KT 4SM 23/16 A3006 RMK T02300160 IEM_DS3505
ZJSY,2006-03-04 03:00,ZJSY 040300Z AUTO 07008KT 7SM 23/16 A3006 RMK T02300160 IEM_DS3505
ZJSY,2006-03-04 04:00,ZJSY 040400Z AUTO 10006KT 6SM 25/15 A3003 RMK T02500150 IEM_DS3505
ZJSY,2006-03-04 05:00,ZJSY 040500Z AUTO 12004KT 7SM 25/16 A3000 RMK T02500160 IEM_DS3505
ZJSY,2006-03-04 06:00,ZJSY 040600Z AUTO 15004KT 7SM 25/17 A2997 RMK T02500170 IEM_DS3505
ZJSY,2006-03-04 07:00,ZJSY 040700Z 17002MPS 140V200 9999 FEW016 25/18 Q1015 NOSIG
ZJSY,2006-03-04 08:00,ZJSY 040800Z 18003MPS 140V210 9999 FEW016 24/18 Q1014 NOSIG
ZJSY,2006-03-04 09:00,ZJSY 040900Z AUTO 15004KT 7SM 24/17 A2994 RMK T02400170 IEM_DS3505
ZJSY,2006-03-04 10:00,ZJSY 041000Z AUTO 12006KT 7SM 24/18 A2994 RMK T02400180 IEM_DS3505
ZJSY,2006-03-04 11:00,ZJSY 041100Z AUTO 08010KT 5SM 23/17 A2994 RMK T02300170 IEM_DS3505
ZJSY,2006-03-04 12:00,ZJSY 041200Z 07003MPS CAVOK 22/17 Q1014 NOSIG
ZJSY,2006-03-04 13:00,ZJSY 041300Z AUTO 09004KT 6SM 21/17 A2997 RMK T02100170 IEM_DS3505
ZJSY,2006-03-04 14:00,ZJSY 041400Z AUTO 08006KT 7SM 20/17 A2997 RMK T02000170 IEM_DS3505
ZJSY,2006-03-04 15:00,ZJSY 041500Z AUTO 07006KT 5SM 20/18 A2997 RMK T02000180 IEM_DS3505
ZJSY,2006-03-04 16:00,ZJSY 041600Z AUTO 08004KT 5SM 20/17 A2997 RMK T02000170 IEM_DS3505
ZJSY,2006-03-04 17:00,ZJSY 041700Z AUTO 09004KT 20/17 A2997 RMK T02000170 IEM_DS3505
ZJSY,2006-03-04 18:00,ZJSY 041800Z AUTO 09004KT 20/17 A2997 RMK T02000170 IEM_DS3505
ZJSY,2006-03-04 19:00,ZJSY 041900Z AUTO 07004KT 20/17 A2994 RMK T02000170 IEM_DS3505
ZJSY,2006-03-04 20:00,ZJSY 042000Z AUTO 08006KT 20/17 A2994 RMK T02000170 IEM_DS3505
ZJSY,2006-03-04 21:00,ZJSY 042100Z AUTO 10002KT 5SM 20/16 A2994 RMK T02000160 IEM_DS3505
ZJSY,2006-03-04 22:00,ZJSY 042200Z AUTO 00000KT 5SM 19/16 A2997 RMK T01900160 IEM_DS3505
ZJSY,2006-03-04 23:00,ZJSY 042300Z AUTO 00000KT 4SM 19/17 A3000 RMK T01900170 IEM_DS3505
ZJSY,2006-03-05 00:00,ZJSY 050000Z AUTO 00000KT 3SM 21/17 A3000 RMK T02100170 IEM_DS3505
ZJSY,2006-03-05 01:00,ZJSY 050100Z AUTO 09004KT 4SM 23/17 A3003 RMK T02300170 IEM_DS3505
ZJSY,2006-03-05 02:00,ZJSY 050200Z 09004MPS 8000 BKN066 24/17 Q1017 NOSIG
ZJSY,2006-03-05 03:00,ZJSY 050300Z AUTO 10008KT 5SM 25/18 A3003 RMK T02500180 IEM_DS3505
ZJSY,2006-03-05 04:00,ZJSY 050400Z AUTO 15006KT 7SM 25/18 A3003 RMK T02500180 IEM_DS3505
ZJSY,2006-03-05 05:00,ZJSY 050500Z AUTO 16006KT 7SM 26/18 A3000 RMK T02600180 IEM_DS3505
ZJSY,2006-03-05 06:00,ZJSY 050600Z AUTO 16008KT 7SM 25/19 A2997 RMK T02500190 IEM_DS3505
ZJSY,2006-03-05 07:00,ZJSY 050700Z AUTO 16008KT 7SM 25/18 A2994 RMK T02500180 IEM_DS3505
ZJSY,2006-03-05 08:00,ZJSY 050800Z AUTO 15006KT 7SM 24/19 A2991 RMK T02400190 IEM_DS3505
ZJSY,2006-03-05 09:00,ZJSY 050900Z AUTO 14004KT 7SM 25/19 A2994 RMK T02500190 IEM_DS3505
ZJSY,2006-03-05 10:00,ZJSY 051000Z AUTO 13004KT 7SM 25/17 A2994 RMK T02500170 IEM_DS3505
ZJSY,2006-03-05 11:00,ZJSY 051100Z AUTO 7SM 24/17 A2994 RMK T02400170 IEM_DS3505
ZJSY,2006-03-05 12:00,ZJSY 051200Z VRB01MPS 9999 FEW015 22/17 Q1014 NOSIG
ZJSY,2006-03-05 13:00,ZJSY 051300Z AUTO 7SM 22/18 A2994 RMK T02200180 IEM_DS3505
ZJSY,2006-03-05 14:00,ZJSY 051400Z AUTO 7SM 22/17 A2994 RMK T02200170 IEM_DS3505
ZJSY,2006-03-05 15:00,ZJSY 051500Z AUTO 7SM 20/17 A2997 RMK T02000170 IEM_DS3505
ZJSY,2006-03-05 16:00,ZJSY 051600Z AUTO 00000KT 7SM 20/17 A2997 RMK T02000170 IEM_DS3505
ZJSY,2006-03-05 17:00,ZJSY 051700Z AUTO 03002KT 6SM 20/17 A2994 RMK T02000170 IEM_DS3505
ZJSY,2006-03-05 18:00,ZJSY 051800Z AUTO 06006KT 6SM 20/16 A2994 RMK T02000160 IEM_DS3505
ZJSY,2006-03-05 19:00,ZJSY 051900Z AUTO 10004KT 20/17 A2994 RMK T02000170 IEM_DS3505
ZJSY,2006-03-05 20:00,ZJSY 052000Z AUTO 08006KT 19/17 A2991 RMK T01900170 IEM_DS3505
ZJSY,2006-03-05 21:00,ZJSY 052100Z AUTO 6SM 18/16 A2991 RMK T01800160 IEM_DS3505
ZJSY,2006-03-05 22:00,ZJSY 052200Z AUTO 36002KT 6SM 18/16 A2994 RMK T01800160 IEM_DS3505
ZJSY,2006-03-05 23:00,ZJSY 052300Z AUTO 00000KT 6SM 18/16 A2997 RMK T01800160 IEM_DS3505
ZJSY,2006-03-06 00:00,ZJSY 060000Z AUTO 08002KT 6SM 20/18 A3000 RMK T02000180 IEM_DS3505
ZJSY,2006-03-06 01:00,ZJSY 060100Z AUTO 09004KT 6SM 23/18 A3000 RMK T02300180 IEM_DS3505
ZJSY,2006-03-06 02:00,ZJSY 060200Z 09004MPS 060V120 CAVOK 25/19 Q1016 NOSIG
ZJSY,2006-03-06 03:00,ZJSY 060300Z AUTO 11006KT 6SM 26/19 A3000 RMK T02600190 IEM_DS3505
ZJSY,2006-03-06 04:00,ZJSY 060400Z AUTO 15006KT 6SM 26/19 A2997 RMK T02600190 IEM_DS3505
ZJSY,2006-03-06 05:00,ZJSY 060500Z AUTO 16008KT 6SM 26/19 A2994 RMK T02600190 IEM_DS3505
ZJSY,2006-03-06 06:00,ZJSY 060600Z AUTO 16008KT 6SM 26/19 A2994 RMK T02600190 IEM_DS3505
ZJSY,2006-03-06 07:00,ZJSY 060700Z AUTO 16008KT 6SM 26/19 A2991 RMK T02600190 IEM_DS3505
ZJSY,2006-03-06 08:00,ZJSY 060800Z AUTO 19006KT 6SM 25/20 A2988 RMK T02500200 IEM_DS3505
ZJSY,2006-03-06 09:00,ZJSY 060900Z AUTO 17004KT 6SM 24/20 A2988 RMK T02400200 IEM_DS3505
ZJSY,2006-03-06 10:00,ZJSY 061000Z 19002MPS 140V230 CAVOK 24/20 Q1012 NOSIG
ZJSY,2006-03-06 11:00,ZJSY 061100Z AUTO 00000KT 6SM 23/20 A2988 RMK T02300200 IEM_DS3505
ZJSY,2006-03-06 12:00,ZJSY 061200Z 00000MPS CAVOK 23/20 Q1013 NOSIG
ZJSY,2006-03-06 13:00,ZJSY 061300Z AUTO 00000KT 6SM 22/19 A2994 RMK T02200190 IEM_DS3505
ZJSY,2006-03-06 14:00,ZJSY 061400Z AUTO 33004KT 6SM 22/19 A2994 RMK T02200190 IEM_DS3505
ZJSY,2006-03-06 15:00,ZJSY 061500Z AUTO 00000KT 6SM 22/19 A2997 RMK T02200190 IEM_DS3505
ZJSY,2006-03-06 16:00,ZJSY 061600Z AUTO 33004KT 6SM 21/19 A2994 RMK T02100190 IEM_DS3505
ZJSY,2006-03-06 17:00,ZJSY 061700Z AUTO 20/18 A2994 RMK T02000180 IEM_DS3505
ZJSY,2006-03-06 18:00,ZJSY 061800Z AUTO 34002KT 20/18 A2991 RMK T02000180 IEM_DS3505
ZJSY,2006-03-06 19:00,ZJSY 061900Z AUTO 34004KT 20/18 A2991 RMK T02000180 IEM_DS3505
ZJSY,2006-03-06 20:00,ZJSY 062000Z AUTO 00000KT 20/18 A2991 RMK T02000180 IEM_DS3505
ZJSY,2006-03-06 21:00,ZJSY 062100Z AUTO 35002KT 6SM 20/18 A2991 RMK T02000180 IEM_DS3505
ZJSY,2006-03-06 22:00,ZJSY 062200Z AUTO 00000KT 6SM 19/18 A2991 RMK T01900180 IEM_DS3505
ZJSY,2006-03-06 23:00,ZJSY 062300Z VRB01MPS 6000 NSC 19/18 Q1014 NOSIG
ZJSY,2006-03-07 00:00,ZJSY 070000Z AUTO 35004KT 6SM 20/19 A2994 RMK T02000190 IEM_DS3505
ZJSY,2006-03-07 01:00,ZJSY 070100Z AUTO 08006KT 6SM 23/19 A2997 RMK T02300190 IEM_DS3505
ZJSY,2006-03-07 02:00,ZJSY 070200Z AUTO 10008KT 5SM 25/20 A2997 RMK T02500200 IEM_DS3505
ZJSY,2006-03-07 03:00,ZJSY 070300Z AUTO 16006KT 6SM 26/20 A2997 RMK T02600200 IEM_DS3505
ZJSY,2006-03-07 04:00,ZJSY 070400Z AUTO 18008KT 7SM 25/20 A2997 RMK T02500200 IEM_DS3505
ZJSY,2006-03-07 05:00,ZJSY 070500Z AUTO 16008KT 7SM 26/20 A2994 RMK T02600200 IEM_DS3505
ZJSY,2006-03-07 06:00,ZJSY 070600Z AUTO 16010KT 7SM 25/20 A2991 RMK T02500200 IEM_DS3505
ZJSY,2006-03-07 07:00,ZJSY 070700Z AUTO 16010KT 7SM 25/20 A2988 RMK T02500200 IEM_DS3505
ZJSY,2006-03-07 08:00,ZJSY 070800Z AUTO 16008KT 7SM 25/20 A2985 RMK T02500200 IEM_DS3505
ZJSY,2006-03-07 09:00,ZJSY 070900Z AUTO 15006KT 7SM 25/21 A2985 RMK T02500210 IEM_DS3505
ZJSY,2006-03-07 10:00,ZJSY 071000Z AUTO 15006KT 6SM 24/20 A2988 RMK T02400200 IEM_DS3505
ZJSY,2006-03-07 11:00,ZJSY 071100Z AUTO 14006KT 6SM 24/20 A2988 RMK T02400200 IEM_DS3505
ZJSY,2006-03-07 12:00,ZJSY 071200Z 10002MPS CAVOK 23/20 Q1012 NOSIG
ZJSY,2006-03-07 13:00,ZJSY 071300Z AUTO 09006KT 6SM 23/20 A2991 RMK T02300200 IEM_DS3505
ZJSY,2006-03-07 14:00,ZJSY 071400Z AUTO 09006KT 6SM 23/20 A2994 RMK T02300200 IEM_DS3505
ZJSY,2006-03-07 15:00,ZJSY 071500Z AUTO 09006KT 6SM 23/19 A2994 RMK T02300190 IEM_DS3505
ZJSY,2006-03-07 16:00,ZJSY 071600Z AUTO 08006KT 6SM 22/19 A2994 RMK T02200190 IEM_DS3505
ZJSY,2006-03-07 17:00,ZJSY 071700Z AUTO 07006KT 22/19 A2994 RMK T02200190 IEM_DS3505
ZJSY,2006-03-07 18:00,ZJSY 071800Z AUTO 06006KT 22/19 A2991 RMK T02200190 IEM_DS3505
ZJSY,2006-03-07 19:00,ZJSY 071900Z AUTO 07004KT 21/18 A2991 RMK T02100180 IEM_DS3505
ZJSY,2006-03-07 20:00,ZJSY 072000Z AUTO 07006KT 21/19 A2988 RMK T02100190 IEM_DS3505
ZJSY,2006-03-07 21:00,ZJSY 072100Z AUTO 07006KT 6SM 21/19 A2991 RMK T02100190 IEM_DS3505
ZJSY,2006-03-07 22:00,ZJSY 072200Z AUTO 09008KT 6SM 22/19 A2991 RMK T02200190 IEM_DS3505
ZJSY,2006-03-07 23:00,ZJSY 072300Z 08003MPS 7000 NSC 21/18 Q1014 NOSIG
ZJSY,2006-03-08 00:00,ZJSY 080000Z AUTO 08006KT 4SM 22/19 A2997 RMK T02200190 IEM_DS3505
ZJSY,2006-03-08 01:00,ZJSY 080100Z AUTO 07010KT 5SM 25/20 A3000 RMK T02500200 IEM_DS3505
ZJSY,2006-03-08 02:00,ZJSY 080200Z AUTO 08012KT 6SM 26/20 A3000 RMK T02600200 IEM_DS3505
ZJSY,2006-03-08 03:00,ZJSY 080300Z AUTO 09012KT 7SM 27/20 A3000 RMK T02700200 IEM_DS3505
ZJSY,2006-03-08 04:00,ZJSY 080400Z AUTO 10008KT 7SM 27/20 A2997 RMK T02700200 IEM_DS3505
ZJSY,2006-03-08 05:00,ZJSY 080500Z AUTO 14008KT 7SM 28/20 A2994 RMK T02800200 IEM_DS3505
ZJSY,2006-03-08 06:00,ZJSY 080600Z AUTO 15006KT 7SM 28/20 A2991 RMK T02800200 IEM_DS3505
ZJSY,2006-03-08 07:00,ZJSY 080700Z AUTO 15008KT 6SM 28/21 A2988 RMK T02800210 IEM_DS3505
ZJSY,2006-03-08 08:00,ZJSY 080800Z AUTO 15008KT 6SM 27/20 A2988 RMK T02700200 IEM_DS3505
ZJSY,2006-03-08 09:00,ZJSY 080900Z AUTO 15006KT 6SM 26/20 A2988 RMK T02600200 IEM_DS3505
ZJSY,2006-03-08 10:00,ZJSY 081000Z AUTO 14006KT 6SM 26/20 A2991 RMK T02600200 IEM_DS3505
ZJSY,2006-03-08 11:00,ZJSY 081100Z AUTO 00000KT 6SM 25/21 A2991 RMK T02500210 IEM_DS3505
ZJSY,2006-03-08 12:00,ZJSY 081200Z 00000MPS CAVOK 24/21 Q1013 NOSIG
ZJSY,2006-03-08 13:00,ZJSY 081300Z 06002MPS CAVOK 24/20 Q1014 NOSIG
ZJSY,2006-03-08 14:00,ZJSY 081400Z 09002MPS CAVOK 23/20 Q1015 NOSIG
ZJSY,2006-03-08 15:00,ZJSY 081500Z AUTO 10004KT 6SM 24/20 A2997 RMK T02400200 IEM_DS3505
ZJSY,2006-03-08 16:00,ZJSY 081600Z AUTO 09004KT 6SM 23/20 A3000 RMK T02300200 IEM_DS3505
ZJSY,2006-03-08 17:00,ZJSY 081700Z AUTO 08006KT 6SM 23/20 A3000 RMK T02300200 IEM_DS3505
ZJSY,2006-03-08 18:00,ZJSY 081800Z AUTO 06004KT 6SM 23/20 A3000 RMK T02300200 IEM_DS3505
ZJSY,2006-03-08 19:00,ZJSY 081900Z AUTO 04002KT 6SM 23/21 A2997 RMK T02300210 IEM_DS3505
ZJSY,2006-03-08 20:00,ZJSY 082000Z AUTO 23/20 A2997 RMK T02300200 IEM_DS3505
ZJSY,2006-03-08 21:00,ZJSY 082100Z AUTO 04002KT 7SM 24/20 A2997 RMK T02400200 IEM_DS3505
ZJSY,2006-03-08 22:00,ZJSY 082200Z AUTO 07004KT 7SM 24/20 A3000 RMK T02400200 IEM_DS3505
ZJSY,2006-03-08 23:00,ZJSY 082300Z AUTO 07004KT 4SM 24/21 A3000 RMK T02400210 IEM_DS3505
ZJSY,2006-03-09 00:00,ZJSY 090000Z AUTO 06006KT 4SM 24/21 A3003 RMK T02400210 IEM_DS3505
ZJSY,2006-03-09 01:00,ZJSY 090100Z AUTO 06006KT 5SM 26/20 A3006 RMK T02600200 IEM_DS3505
ZJSY,2006-03-09 02:00,ZJSY 090200Z AUTO 09008KT 5SM 27/20 A3006 RMK T02700200 IEM_DS3505
ZJSY,2006-03-09 03:00,ZJSY 090300Z AUTO 16006KT 7SM 27/21 A3006 RMK T02700210 IEM_DS3505
ZJSY,2006-03-09 04:00,ZJSY 090400Z AUTO 18006KT 7SM 27/21 A3003 RMK T02700210 IEM_DS3505
ZJSY,2006-03-09 05:00,ZJSY 090500Z AUTO 18006KT 7SM 26/21 A3000 RMK T02600210 IEM_DS3505
ZJSY,2006-03-09 06:00,ZJSY 090600Z AUTO 18006KT 7SM 26/22 A2997 RMK T02600220 IEM_DS3505
ZJSY,2006-03-09 07:00,ZJSY 090700Z AUTO 19004KT 7SM 25/21 A2997 RMK T02500210 IEM_DS3505
ZJSY,2006-03-09 08:00,ZJSY 090800Z AUTO 20004KT 7SM 26/22 A2994 RMK T02600220 IEM_DS3505
ZJSY,2006-03-09 09:00,ZJSY 090900Z AUTO 21004KT 7SM 25/21 A2994 RMK T02500210 IEM_DS3505
ZJSY,2006-03-09 10:00,ZJSY 091000Z AUTO 7SM 25/21 A2994 RMK T02500210 IEM_DS3505
ZJSY,2006-03-09 11:00,ZJSY 091100Z AUTO 00000KT 7SM 24/21 A2994 RMK T02400210 IEM_DS3505
ZJSY,2006-03-09 12:00,ZJSY 091200Z 00000MPS 9999 FEW016 24/20 Q1014 NOSIG
ZJSY,2006-03-09 13:00,ZJSY 091300Z AUTO 7SM 24/21 A2997 RMK T02400210 IEM_DS3505
ZJSY,2006-03-09 14:00,ZJSY 091400Z AUTO 00000KT 7SM 23/20 A2997 RMK T02300200 IEM_DS3505
ZJSY,2006-03-09 15:00,ZJSY 091500Z AUTO 7SM 23/20 A2997 RMK T02300200 IEM_DS3505
ZJSY,2006-03-09 16:00,ZJSY 091600Z AUTO 08004KT 7SM 23/20 A2997 RMK T02300200 IEM_DS3505
ZJSY,2006-03-09 17:00,ZJSY 091700Z AUTO 09006KT 7SM 24/21 A2997 RMK T02400210 IEM_DS3505
ZJSY,2006-03-09 18:00,ZJSY 091800Z AUTO 10004KT 7SM 24/21 A2994 RMK T02400210 IEM_DS3505
ZJSY,2006-03-09 19:00,ZJSY 091900Z AUTO 08006KT 24/21 A2994 RMK T02400210 IEM_DS3505
ZJSY,2006-03-09 20:00,ZJSY 092000Z AUTO 09006KT 24/21 A2991 RMK T02400210 IEM_DS3505
ZJSY,2006-03-09 21:00,ZJSY 092100Z AUTO 08006KT 6SM 24/21 A2991 RMK T02400210 IEM_DS3505
ZJSY,2006-03-09 22:00,ZJSY 092200Z AUTO 09004KT 7SM 24/21 A2994 RMK T02400210 IEM_DS3505
ZJSY,2006-03-09 23:00,ZJSY 092300Z AUTO 09006KT 4SM 24/21 A2994 RMK T02400210 IEM_DS3505
ZJSY,2006-03-10 00:00,ZJSY 100000Z AUTO 10004KT 4SM 24/21 A2997 RMK T02400210 IEM_DS3505
ZJSY,2006-03-10 01:00,ZJSY 100100Z AUTO 09008KT 4SM 25/20 A2997 RMK T02500200 IEM_DS3505
ZJSY,2006-03-10 02:00,ZJSY 100200Z AUTO 08008KT 4SM 26/20 A2997 RMK T02600200 IEM_DS3505
ZJSY,2006-03-10 03:00,ZJSY 100300Z AUTO 10008KT 5SM 28/21 A2997 RMK T02800210 IEM_DS3505
ZJSY,2006-03-10 04:00,ZJSY 100400Z AUTO 14006KT 5SM 28/21 A2997 RMK T02800210 IEM_DS3505
ZJSY,2006-03-10 05:00,ZJSY 100500Z AUTO 16008KT 5SM 27/22 A2991 RMK T02700220 IEM_DS3505
ZJSY,2006-03-10 06:00,ZJSY 100600Z AUTO 14010KT 5SM 27/22 A2988 RMK T02700220 IEM_DS3505
ZJSY,2006-03-10 07:00,ZJSY 100700Z AUTO 15010KT 5SM 27/22 A2985 RMK T02700220 IEM_DS3505
ZJSY,2006-03-10 08:00,ZJSY 100800Z AUTO 14010KT 5SM 26/21 A2985 RMK T02600210 IEM_DS3505
ZJSY,2006-03-10 09:00,ZJSY 100900Z AUTO 13008KT 7SM 26/21 A2985 RMK T02600210 IEM_DS3505
ZJSY,2006-03-10 10:00,ZJSY 101000Z AUTO 12008KT 7SM 26/20 A2985 RMK T02600200 IEM_DS3505
ZJSY,2006-03-10 11:00,ZJSY 101100Z AUTO 08010KT 6SM 25/20 A2985 RMK T02500200 IEM_DS3505
ZJSY,2006-03-10 12:00,ZJSY 101200Z 07004MPS CAVOK 24/20 Q1012 NOSIG
ZJSY,2006-03-10 13:00,ZJSY 101300Z AUTO 07006KT 7SM 24/20 A2991 RMK T02400200 IEM_DS3505
ZJSY,2006-03-10 14:00,ZJSY 101400Z AUTO 08008KT 7SM 24/21 A2991 RMK T02400210 IEM_DS3505
ZJSY,2006-03-10 15:00,ZJSY 101500Z AUTO 08008KT 7SM 24/21 A2991 RMK T02400210 IEM_DS3505
ZJSY,2006-03-10 16:00,ZJSY 101600Z AUTO 08006KT 7SM 24/21 A2991 RMK T02400210 IEM_DS3505
ZJSY,2006-03-10 17:00,ZJSY 101700Z AUTO 10006KT 6SM 23/21 A2991 RMK T02300210 IEM_DS3505
ZJSY,2006-03-10 18:00,ZJSY 101800Z AUTO 08006KT 6SM 23/20 A2988 RMK T02300200 IEM_DS3505
ZJSY,2006-03-10 19:00,ZJSY 101900Z AUTO 07006KT 6SM 22/20 A2985 RMK T02200200 IEM_DS3505
ZJSY,2006-03-10 20:00,ZJSY 102000Z AUTO 08004KT 22/20 A2983 RMK T02200200 IEM_DS3505
ZJSY,2006-03-10 21:00,ZJSY 102100Z AUTO 08006KT 23/20 A2983 RMK T02300200 IEM_DS3505
ZJSY,2006-03-10 22:00,ZJSY 102200Z AUTO 07006KT 6SM 23/20 A2985 RMK T02300200 IEM_DS3505
ZJSY,2006-03-10 23:00,ZJSY 102300Z AUTO 08006KT 4SM 22/20 A2985 RMK T02200200 IEM_DS3505
ZJSY,2006-03-11 00:00,ZJSY 110000Z AUTO 08008KT 3SM 24/20 A2988 RMK T02400200 IEM_DS3505
ZJSY,2006-03-11 01:00,ZJSY 110100Z AUTO 07012KT 3SM 25/20 A2988 RMK T02500200 IEM_DS3505
ZJSY,2006-03-11 02:00,ZJSY 110200Z AUTO 09010KT 3SM 27/21 A2991 RMK T02700210 IEM_DS3505
ZJSY,2006-03-11 03:00,ZJSY 110300Z AUTO 09010KT 3SM 27/21 A2988 RMK T02700210 IEM_DS3505
ZJSY,2006-03-11 04:00,ZJSY 110400Z AUTO 09010KT 3SM 28/20 A2988 RMK T02800200 IEM_DS3505
ZJSY,2006-03-11 05:00,ZJSY 110500Z AUTO 13008KT 4SM 29/21 A2983 RMK T02900210 IEM_DS3505
ZJSY,2006-03-11 06:00,ZJSY 110600Z AUTO 14008KT 7SM 28/21 A2980 RMK T02800210 IEM_DS3505
ZJSY,2006-03-11 07:00,ZJSY 110700Z AUTO 14010KT 7SM 28/21 A2977 RMK T02800210 IEM_DS3505
ZJSY,2006-03-11 08:00,ZJSY 110800Z AUTO 14010KT 7SM 27/21 A2977 RMK T02700210 IEM_DS3505
ZJSY,2006-03-11 09:00,ZJSY 110900Z AUTO 13010KT 6SM 26/21 A2977 RMK T02600210 IEM_DS3505
ZJSY,2006-03-11 10:00,ZJSY 111000Z AUTO 12008KT 6SM 26/21 A2977 RMK T02600210 IEM_DS3505
ZJSY,2006-03-11 11:00,ZJSY 111100Z AUTO 12008KT 6SM 25/21 A2977 RMK T02500210 IEM_DS3505
ZJSY,2006-03-11 12:00,ZJSY 111200Z 10004MPS CAVOK 25/21 Q1009 NOSIG
ZJSY,2006-03-11 13:00,ZJSY 111300Z 09003MPS CAVOK 25/21 Q1010 NOSIG
ZJSY,2006-03-11 14:00,ZJSY 111400Z AUTO 08008KT 6SM 24/21 A2983 RMK T02400210 IEM_DS3505
ZJSY,2006-03-11 15:00,ZJSY 111500Z AUTO 07006KT 6SM 24/20 A2983 RMK T02400200 IEM_DS3505
ZJSY,2006-03-11 16:00,ZJSY 111600Z AUTO 06008KT 7SM 25/21 A2983 RMK T02500210 IEM_DS3505
ZJSY,2006-03-11 17:00,ZJSY 111700Z AUTO 05006KT 25/21 A2983 RMK T02500210 IEM_DS3505
ZJSY,2006-03-11 18:00,ZJSY 111800Z AUTO 05002MPS //// // ////// 24/20 Q1009
ZJSY,2006-03-11 20:00,ZJSY 112000Z AUTO 06004KT 24/20 A2974 RMK T02400200 IEM_DS3505
ZJSY,2006-03-11 21:00,ZJSY 112100Z AUTO 06004KT 7SM 23/20 A2974 RMK T02300200 IEM_DS3505
ZJSY,2006-03-11 22:00,ZJSY 112200Z AUTO 7SM 23/20 A2974 RMK T02300200 IEM_DS3505
ZJSY,2006-03-11 23:00,ZJSY 112300Z AUTO 06006KT 4SM 24/20 A2977 RMK T02400200 IEM_DS3505
ZJSY,2006-03-12 00:00,ZJSY 120000Z AUTO 06006KT 4SM 25/21 A2980 RMK T02500210 IEM_DS3505
ZJSY,2006-03-12 01:00,ZJSY 120100Z AUTO 08006KT 4SM 26/21 A2980 RMK T02600210 IEM_DS3505
ZJSY,2006-03-12 02:00,ZJSY 120200Z 10003MPS 9999 SCT015 OVC043 26/21 Q1010 NOSIG
ZJSY,2006-03-12 03:00,ZJSY 120300Z AUTO 11004KT 7SM 27/22 A2983 RMK T02700220 IEM_DS3505
ZJSY,2006-03-12 04:00,ZJSY 120400Z AUTO 15006KT 7SM 28/22 A2980 RMK T02800220 IEM_DS3505
ZJSY,2006-03-12 05:00,ZJSY 120500Z AUTO 15006KT 6SM 28/21 A2980 RMK T02800210 IEM_DS3505
ZJSY,2006-03-12 06:00,ZJSY 120600Z AUTO 15006KT 6SM 28/21 A2977 RMK T02800210 IEM_DS3505
ZJSY,2006-03-12 07:00,ZJSY 120700Z AUTO 16006KT 6SM 28/22 A2974 RMK T02800220 IEM_DS3505
ZJSY,2006-03-12 08:00,ZJSY 120800Z AUTO 15006KT 6SM 27/22 A2974 RMK T02700220 IEM_DS3505
ZJSY,2006-03-12 09:00,ZJSY 120900Z AUTO 15006KT 6SM 27/22 A2974 RMK T02700220 IEM_DS3505
ZJSY,2006-03-12 10:00,ZJSY 121000Z AUTO 14006KT 5SM 26/22 A2974 RMK T02600220 IEM_DS3505
ZJSY,2006-03-12 11:00,ZJSY 121100Z AUTO 11004KT 5SM 26/21 A2974 RMK T02600210 IEM_DS3505
ZJSY,2006-03-12 12:00,ZJSY 121200Z 09003MPS 8000 NSC 26/21 Q1008 NOSIG
ZJSY,2006-03-12 13:00,ZJSY 121300Z 08003MPS CAVOK 25/21 Q1010 NOSIG
ZJSY,2006-03-12 14:00,ZJSY 121400Z AUTO 08006KT 6SM 24/21 A2985 RMK T02400210 IEM_DS3505
ZJSY,2006-03-12 15:00,ZJSY 121500Z AUTO 06008KT 6SM 24/21 A2985 RMK T02400210 IEM_DS3505
ZJSY,2006-03-12 16:00,ZJSY 121600Z AUTO 08004KT 6SM 24/21 A2988 RMK T02400210 IEM_DS3505
ZJSY,2006-03-12 17:00,ZJSY 121700Z AUTO 08004KT 6SM 23/21 A2985 RMK T02300210 IEM_DS3505
ZJSY,2006-03-12 18:00,ZJSY 121800Z AUTO 07006KT 23/21 A2985 RMK T02300210 IEM_DS3505
ZJSY,2006-03-12 19:00,ZJSY 121900Z AUTO 06006KT 24/21 A2985 RMK T02400210 IEM_DS3505
ZJSY,2006-03-12 20:00,ZJSY 122000Z AUTO 10006KT 24/21 A2983 RMK T02400210 IEM_DS3505
ZJSY,2006-03-12 21:00,ZJSY 122100Z AUTO 08010KT 6SM 25/21 A2983 RMK T02500210 IEM_DS3505
ZJSY,2006-03-12 22:00,ZJSY 122200Z AUTO 08010KT 6SM 25/21 A2985 RMK T02500210 IEM_DS3505
ZJSY,2006-03-12 23:00,ZJSY 122300Z AUTO 09010KT 7SM 25/21 A2988 RMK T02500210 IEM_DS3505
ZJSY,2006-03-13 00:00,ZJSY 130000Z AUTO 09012KT 7SM 25/21 A2991 RMK T02500210 IEM_DS3505
ZJSY,2006-03-13 01:00,ZJSY 130100Z AUTO 08012KT 7SM 26/21 A2994 RMK T02600210 IEM_DS3505
ZJSY,2006-03-13 02:00,ZJSY 130200Z AUTO 07017KT 7SM 27/21 A2997 RMK T02700210 IEM_DS3505
ZJSY,2006-03-13 03:00,ZJSY 130300Z 08007MPS 9999 BKN016 28/21 Q1015 NOSIG
ZJSY,2006-03-13 04:00,ZJSY 130400Z AUTO 10014G23KT 7SM 29/20 A2997 RMK T02900200 IEM_DS3505
ZJSY,2006-03-13 05:00,ZJSY 130500Z AUTO 08017KT 7SM 28/20 A2994 RMK T02800200 IEM_DS3505
ZJSY,2006-03-13 06:00,ZJSY 130600Z AUTO 09014KT 7SM 26/21 A2991 RMK T02600210 IEM_DS3505
ZJSY,2006-03-13 07:00,ZJSY 130700Z AUTO 08016KT 7SM 27/20 A2991 RMK T02700200 IEM_DS3505
ZJSY,2006-03-13 08:00,ZJSY 130800Z AUTO 05014KT 7SM 26/18 A2991 RMK T02600180 IEM_DS3505
ZJSY,2006-03-13 09:00,ZJSY 130900Z AUTO 06016KT 7SM 26/17 A2991 RMK T02600170 IEM_DS3505
ZJSY,2006-03-13 10:00,ZJSY 131000Z AUTO 06016KT 7SM 25/16 A2991 RMK T02500160 IEM_DS3505
ZJSY,2006-03-13 11:00,ZJSY 131100Z AUTO 07012KT 7SM 23/15 A2994 RMK T02300150 IEM_DS3505
ZJSY,2006-03-13 12:00,ZJSY 131200Z 07006MPS 9999 SCT015 22/14 Q1015 NOSIG
ZJSY,2006-03-13 13:00,ZJSY 131300Z AUTO 07010KT 7SM 22/14 A3000 RMK T02200140 IEM_DS3505
ZJSY,2006-03-13 14:00,ZJSY 131400Z AUTO 06010KT 6SM 22/14 A3003 RMK T02200140 IEM_DS3505
ZJSY,2006-03-13 15:00,ZJSY 131500Z AUTO 06012KT 6SM 21/14 A3003 RMK T02100140 IEM_DS3505
ZJSY,2006-03-13 16:00,ZJSY 131600Z 07007MPS CAVOK 21/14 Q1017 NOSIG
ZJSY,2006-03-13 17:00,ZJSY 131700Z AUTO 05014KT 7SM 21/14 A3003 RMK T02100140 IEM_DS3505
ZJSY,2006-03-13 18:00,ZJSY 131800Z AUTO 04012KT 7SM 21/14 A3000 RMK T02100140 IEM_DS3505
ZJSY,2006-03-13 19:00,ZJSY 131900Z AUTO 04010KT 7SM 21/14 A3000 RMK T02100140 IEM_DS3505
ZJSY,2006-03-13 20:00,ZJSY 132000Z AUTO 06012KT 21/14 A3000 RMK T02100140 IEM_DS3505
ZJSY,2006-03-13 21:00,ZJSY 132100Z AUTO 04010KT 7SM 22/14 A3000 RMK T02200140 IEM_DS3505
ZJSY,2006-03-13 22:00,ZJSY 132200Z 06004MPS CAVOK 21/14 Q1016 NOSIG
ZJSY,2006-03-13 23:00,ZJSY 132300Z 00000MPS 9999 BKN050 21/14 Q1017 NOSIG
ZJSY,2006-03-14 00:00,ZJSY 140000Z AUTO 00000KT 6SM 21/15 A3006 RMK T02100150 IEM_DS3505
ZJSY,2006-03-14 01:00,ZJSY 140100Z AUTO 07006KT 7SM 24/15 A3009 RMK T02400150 IEM_DS3505
ZJSY,2006-03-14 02:00,ZJSY 140200Z AUTO 06008KT 6SM 24/14 A3009 RMK T02400140 IEM_DS3505
ZJSY,2006-03-14 03:00,ZJSY 140300Z AUTO 07004G16KT 6SM 26/15 A3009 RMK T02600150 IEM_DS3505
ZJSY,2006-03-14 04:00,ZJSY 140400Z AUTO 09010KT 7SM 27/16 A3006 RMK T02700160 IEM_DS3505
ZJSY,2006-03-14 05:00,ZJSY 140500Z AUTO 11010KT 7SM 26/16 A3006 RMK T02600160 IEM_DS3505
ZJSY,2006-03-14 06:00,ZJSY 140600Z AUTO 09008KT 7SM 26/16 A3003 RMK T02600160 IEM_DS3505
ZJSY,2006-03-14 07:00,ZJSY 140700Z AUTO 25010KT 7SM 23/17 A3000 RMK T02300170 IEM_DS3505
ZJSY,2006-03-14 08:00,ZJSY 140800Z AUTO 25010KT 7SM 23/17 A3000 RMK T02300170 IEM_DS3505
ZJSY,2006-03-14 09:00,ZJSY 140900Z AUTO 24008KT 7SM 22/17 A3000 RMK T02200170 IEM_DS3505
ZJSY,2006-03-14 10:00,ZJSY 141000Z AUTO 24008KT 7SM 22/17 A3000 RMK T02200170 IEM_DS3505
ZJSY,2006-03-14 12:00,ZJSY 141200Z 24002MPS 9999 SCT015 BKN030 OVC050 22/17 Q1018 NOSIG
ZJSY,2006-03-14 13:00,ZJSY 141300Z AUTO 24004KT 7SM 22/17 A3006 RMK T02200170 IEM_DS3505
ZJSY,2006-03-14 14:00,ZJSY 141400Z AUTO 06004KT 7SM 22/15 A3009 RMK T02200150 IEM_DS3505
ZJSY,2006-03-14 15:00,ZJSY 141500Z AUTO 07002KT 7SM 21/16 A3009 RMK T02100160 IEM_DS3505
ZJSY,2006-03-14 16:00,ZJSY 141600Z AUTO 00000KT 7SM 21/16 A3009 RMK T02100160 IEM_DS3505
ZJSY,2006-03-14 17:00,ZJSY 141700Z AUTO 00000MPS //// // ////// 21/16 Q1018
ZJSY,2006-03-14 18:00,ZJSY 141800Z AUTO 35002KT 21/17 A3006 RMK T02100170 IEM_DS3505
ZJSY,2006-03-14 19:00,ZJSY 141900Z AUTO 00000KT 21/16 A3003 RMK T02100160 IEM_DS3505
ZJSY,2006-03-14 20:00,ZJSY 142000Z AUTO 00000KT 21/17 A3000 RMK T02100170 IEM_DS3505
ZJSY,2006-03-14 21:00,ZJSY 142100Z AUTO 07002KT 7SM 21/17 A3000 RMK T02100170 IEM_DS3505
ZJSY,2006-03-14 22:00,ZJSY 142200Z AUTO 00000KT 7SM 21/17 A3000 RMK T02100170 IEM_DS3505
ZJSY,2006-03-14 23:00,ZJSY 142300Z AUTO 08006KT 7SM 21/17 A3000 RMK T02100170 IEM_DS3505
ZJSY,2006-03-15 00:00,ZJSY 150000Z AUTO 06004KT 7SM 21/16 A3003 RMK T02100160 IEM_DS3505
ZJSY,2006-03-15 01:00,ZJSY 150100Z VRB01MPS 9999 OVC040 22/17 Q1018 NOSIG
ZJSY,2006-03-15 02:00,ZJSY 150200Z AUTO 7SM 23/17 A3006 RMK T02300170 IEM_DS3505
ZJSY,2006-03-15 03:00,ZJSY 150300Z AUTO 7SM 23/17 A3006 RMK T02300170 IEM_DS3505
ZJSY,2006-03-15 05:00,ZJSY 150500Z AUTO 24006KT 7SM 24/18 A2997 RMK T02400180 IEM_DS3505
ZJSY,2006-03-15 06:00,ZJSY 150600Z AUTO 23006KT 7SM 24/18 A2997 RMK T02400180 IEM_DS3505
ZJSY,2006-03-15 07:00,ZJSY 150700Z AUTO 24006KT 7SM 24/18 A2994 RMK T02400180 IEM_DS3505
ZJSY,2006-03-15 08:00,ZJSY 150800Z AUTO 22006KT 7SM 24/18 A2991 RMK T02400180 IEM_DS3505
ZJSY,2006-03-15 09:00,ZJSY 150900Z AUTO 22006KT 7SM 23/19 A2991 RMK T02300190 IEM_DS3505
ZJSY,2006-03-15 10:00,ZJSY 151000Z AUTO 23004KT 7SM 23/19 A2991 RMK T02300190 IEM_DS3505
ZJSY,2006-03-15 11:00,ZJSY 151100Z AUTO 23004KT 7SM 23/19 A2991 RMK T02300190 IEM_DS3505
ZJSY,2006-03-15 12:00,ZJSY 151200Z VRB01MPS 9999 FEW013 BKN060 23/19 Q1013 NOSIG
ZJSY,2006-03-15 13:00,ZJSY 151300Z AUTO 7SM 23/19 A2994 RMK T02300190 IEM_DS3505
ZJSY,2006-03-15 14:00,ZJSY 151400Z AUTO 00000KT 7SM 22/19 A2994 RMK T02200190 IEM_DS3505
ZJSY,2006-03-15 15:00,ZJSY 151500Z AUTO 00000KT 7SM 23/19 A2994 RMK T02300190 IEM_DS3505
ZJSY,2006-03-15 16:00,ZJSY 151600Z 34001MPS 9999 FEW013 BKN066 22/19 Q1014 NOSIG
ZJSY,2006-03-15 17:00,ZJSY 151700Z AUTO 7SM 22/19 A2994 RMK T02200190 IEM_DS3505
ZJSY,2006-03-15 21:00,ZJSY 152100Z AUTO 09002KT 7SM 22/20 A2988 RMK T02200200 IEM_DS3505
ZJSY,2006-03-15 22:00,ZJSY 152200Z AUTO 00000KT 7SM 22/20 A2988 RMK T02200200 IEM_DS3505
ZJSY,2006-03-15 23:00,ZJSY 152300Z AUTO 34002KT 2 1/2SM 22/20 A2988 RMK T02200200 IEM_DS3505
ZJSY,2006-03-16 00:00,ZJSY 160000Z AUTO 00000KT 2 1/2SM 23/20 A2991 RMK T02300200 IEM_DS3505
ZJSY,2006-03-16 01:00,ZJSY 160100Z AUTO 3SM 24/20 A2991 RMK T02400200 IEM_DS3505
ZJSY,2006-03-16 02:00,ZJSY 160200Z AUTO 7SM 25/21 A2994 RMK T02500210 IEM_DS3505
ZJSY,2006-03-16 03:00,ZJSY 160300Z AUTO 21004KT 3SM 25/21 A2991 RMK T02500210 IEM_DS3505
ZJSY,2006-03-16 04:00,ZJSY 160400Z AUTO 22006KT 3SM 26/21 A2991 RMK T02600210 IEM_DS3505
ZJSY,2006-03-16 05:00,ZJSY 160500Z AUTO 20006KT 4SM 25/21 A2988 RMK T02500210 IEM_DS3505
ZJSY,2006-03-16 06:00,ZJSY 160600Z AUTO 21006KT 4SM 25/21 A2985 RMK T02500210 IEM_DS3505
ZJSY,2006-03-16 07:00,ZJSY 160700Z AUTO 21006KT 7SM 25/21 A2983 RMK T02500210 IEM_DS3505
ZJSY,2006-03-16 08:00,ZJSY 160800Z AUTO 21006KT 7SM 24/21 A2983 RMK T02400210 IEM_DS3505
ZJSY,2006-03-16 09:00,ZJSY 160900Z AUTO 23006KT 3SM 25/21 A2980 RMK T02500210 IEM_DS3505
ZJSY,2006-03-16 10:00,ZJSY 161000Z AUTO 20004KT 3SM 24/21 A2980 RMK T02400210 IEM_DS3505
ZJSY,2006-03-16 11:00,ZJSY 161100Z AUTO 21004KT 3SM 24/21 A2980 RMK T02400210 IEM_DS3505
ZJSY,2006-03-16 12:00,ZJSY 161200Z 22001MPS 5000 BR SCT013 BKN043 23/21 Q1010 NOSIG
ZJSY,2006-03-16 13:00,ZJSY 161300Z AUTO 22002KT 4SM 23/21 A2983 RMK T02300210 IEM_DS3505
ZJSY,2006-03-16 14:00,ZJSY 161400Z AUTO 4SM 24/21 A2985 RMK T02400210 IEM_DS3505
ZJSY,2006-03-16 15:00,ZJSY 161500Z AUTO 36002KT 4SM 24/21 A2985 RMK T02400210 IEM_DS3505
ZJSY,2006-03-16 16:00,ZJSY 161600Z AUTO 05004KT 4SM 24/21 A2985 RMK T02400210 IEM_DS3505
ZJSY,2006-03-16 17:00,ZJSY 161700Z AUTO 07002KT 5SM 23/20 A2985 RMK T02300200 IEM_DS3505
ZJSY,2006-03-16 18:00,ZJSY 161800Z AUTO 08002KT 5SM 23/21 A2985 RMK T02300210 IEM_DS3505
ZJSY,2006-03-16 19:00,ZJSY 161900Z AUTO 08004KT 5SM 23/21 A2985 RMK T02300210 IEM_DS3505
ZJSY,2006-03-16 20:00,ZJSY 162000Z AUTO 06004KT 5SM 23/20 A2983 RMK T02300200 IEM_DS3505
ZJSY,2006-03-16 21:00,ZJSY 162100Z AUTO 00000KT 5SM 23/20 A2983 RMK T02300200 IEM_DS3505
ZJSY,2006-03-16 22:00,ZJSY 162200Z AUTO 35002KT 5SM 23/21 A2983 RMK T02300210 IEM_DS3505
ZJSY,2006-03-16 23:00,ZJSY 162300Z AUTO 00000KT 5SM 23/21 A2983 RMK T02300210 IEM_DS3505
ZJSY,2006-03-17 00:00,ZJSY 170000Z AUTO 6SM 24/21 A2985 RMK T02400210 IEM_DS3505
ZJSY,2006-03-17 01:00,ZJSY 170100Z AUTO 12004KT 6SM 25/21 A2985 RMK T02500210 IEM_DS3505
ZJSY,2006-03-17 02:00,ZJSY 170200Z AUTO 14004KT 7SM 26/21 A2988 RMK T02600210 IEM_DS3505
ZJSY,2006-03-17 03:00,ZJSY 170300Z 16003MPS 9999 FEW016 26/21 Q1012 NOSIG
ZJSY,2006-03-17 04:00,ZJSY 170400Z AUTO 16006KT 7SM 27/22 A2988 RMK T02700220 IEM_DS3505
ZJSY,2006-03-17 05:00,ZJSY 170500Z AUTO 17006KT 7SM 27/21 A2985 RMK T02700210 IEM_DS3505
ZJSY,2006-03-17 06:00,ZJSY 170600Z AUTO 16010KT 6SM 26/22 A2983 RMK T02600220 IEM_DS3505
ZJSY,2006-03-17 07:00,ZJSY 170700Z AUTO 15008KT 6SM 27/21 A2980 RMK T02700210 IEM_DS3505
ZJSY,2006-03-17 08:00,ZJSY 170800Z AUTO 16006KT 7SM 27/21 A2980 RMK T02700210 IEM_DS3505
ZJSY,2006-03-17 09:00,ZJSY 170900Z AUTO 16006KT 7SM 27/22 A2977 RMK T02700220 IEM_DS3505
ZJSY,2006-03-17 10:00,ZJSY 171000Z AUTO 14006KT 7SM 27/21 A2977 RMK T02700210 IEM_DS3505
ZJSY,2006-03-17 11:00,ZJSY 171100Z AUTO 15006KT 6SM 25/21 A2977 RMK T02500210 IEM_DS3505
ZJSY,2006-03-17 12:00,ZJSY 171200Z AUTO 12004KT 6SM 25/21 A2980 RMK T02500210 IEM_DS3505
ZJSY,2006-03-17 13:00,ZJSY 171300Z AUTO 07006KT 7SM 25/21 A2980 RMK T02500210 IEM_DS3505
ZJSY,2006-03-17 14:00,ZJSY 171400Z AUTO 06006KT 7SM 26/21 A2983 RMK T02600210 IEM_DS3505
ZJSY,2006-03-17 15:00,ZJSY 171500Z AUTO 06006KT 7SM 26/21 A2983 RMK T02600210 IEM_DS3505
ZJSY,2006-03-17 16:00,ZJSY 171600Z AUTO 08006KT 7SM 26/21 A2983 RMK T02600210 IEM_DS3505
ZJSY,2006-03-17 17:00,ZJSY 171700Z AUTO 08004KT 25/22 A2983 RMK T02500220 IEM_DS3505
ZJSY,2006-03-17 18:00,ZJSY 171800Z AUTO 08004KT 25/22 A2983 RMK T02500220 IEM_DS3505
ZJSY,2006-03-17 19:00,ZJSY 171900Z AUTO 08004KT 25/22 A2980 RMK T02500220 IEM_DS3505
ZJSY,2006-03-17 20:00,ZJSY 172000Z AUTO 06004KT 25/21 A2980 RMK T02500210 IEM_DS3505
ZJSY,2006-03-17 21:00,ZJSY 172100Z 02001MPS 9999 BKN018 24/21 Q1009
ZJSY,2006-03-17 22:00,ZJSY 172200Z AUTO 7SM 24/21 A2980 RMK T02400210 IEM_DS3505
ZJSY,2006-03-17 23:00,ZJSY 172300Z AUTO 06006KT 7SM 25/21 A2983 RMK T02500210 IEM_DS3505
ZJSY,2006-03-18 00:00,ZJSY 180000Z AUTO 06004KT 7SM 26/22 A2985 RMK T02600220 IEM_DS3505
ZJSY,2006-03-18 01:00,ZJSY 180100Z 10002MPS 070V130 9999 BKN018 27/22 Q1012 NOSIG
ZJSY,2006-03-18 02:00,ZJSY 180200Z AUTO 12006KT 7SM 27/22 A2991 RMK T02700220 IEM_DS3505
ZJSY,2006-03-18 03:00,ZJSY 180300Z AUTO 14006KT 7SM 28/22 A2991 RMK T02800220 IEM_DS3505
ZJSY,2006-03-18 04:00,ZJSY 180400Z AUTO 15006KT 7SM 29/22 A2988 RMK T02900220 IEM_DS3505
ZJSY,2006-03-18 05:00,ZJSY 180500Z AUTO 16008KT 7SM 29/22 A2985 RMK T02900220 IEM_DS3505
ZJSY,2006-03-18 06:00,ZJSY 180600Z AUTO 16010KT 7SM 28/23 A2985 RMK T02800230 IEM_DS3505
ZJSY,2006-03-18 07:00,ZJSY 180700Z AUTO 16008KT 6SM 29/23 A2983 RMK T02900230 IEM_DS3505
ZJSY,2006-03-18 08:00,ZJSY 180800Z AUTO 16008KT 6SM 28/22 A2980 RMK T02800220 IEM_DS3505
ZJSY,2006-03-18 09:00,ZJSY 180900Z 14005MPS 100V180 CAVOK 27/22 Q1009 NOSIG
ZJSY,2006-03-18 10:00,ZJSY 181000Z AUTO 14008KT 6SM 27/22 A2980 RMK T02700220 IEM_DS3505
ZJSY,2006-03-18 11:00,ZJSY 181100Z AUTO 12006KT 6SM 26/21 A2983 RMK T02600210 IEM_DS3505
ZJSY,2006-03-18 12:00,ZJSY 181200Z 12003MPS CAVOK 26/21 Q1010 NOSIG
ZJSY,2006-03-18 13:00,ZJSY 181300Z AUTO 08006KT 6SM 25/21 A2985 RMK T02500210 IEM_DS3505
ZJSY,2006-03-18 14:00,ZJSY 181400Z AUTO 07006KT 6SM 24/20 A2988 RMK T02400200 IEM_DS3505
ZJSY,2006-03-18 15:00,ZJSY 181500Z AUTO 05004KT 6SM 24/20 A2988 RMK T02400200 IEM_DS3505
ZJSY,2006-03-18 16:00,ZJSY 181600Z AUTO 07004KT 6SM 24/20 A2988 RMK T02400200 IEM_DS3505
ZJSY,2006-03-18 17:00,ZJSY 181700Z AUTO 36004KT 23/20 A2988 RMK T02300200 IEM_DS3505
ZJSY,2006-03-18 18:00,ZJSY 181800Z AUTO 00000KT 24/20 A2985 RMK T02400200 IEM_DS3505
ZJSY,2006-03-18 19:00,ZJSY 181900Z AUTO 36002KT 7SM 24/21 A2985 RMK T02400210 IEM_DS3505
ZJSY,2006-03-18 20:00,ZJSY 182000Z AUTO 7SM 24/20 A2985 RMK T02400200 IEM_DS3505
ZJSY,2006-03-18 21:00,ZJSY 182100Z AUTO 00000KT 7SM 23/20 A2985 RMK T02300200 IEM_DS3505
ZJSY,2006-03-18 22:00,ZJSY 182200Z 36001MPS 9999 FEW016 BKN066 23/20 Q1011 NOSIG
ZJSY,2006-03-18 23:00,ZJSY 182300Z AUTO 00000KT 7SM 23/20 A2988 RMK T02300200 IEM_DS3505
ZJSY,2006-03-19 00:00,ZJSY 190000Z AUTO 00000KT 7SM 25/21 A2991 RMK T02500210 IEM_DS3505
ZJSY,2006-03-19 01:00,ZJSY 190100Z AUTO 11004KT 7SM 27/22 A2994 RMK T02700220 IEM_DS3505
ZJSY,2006-03-19 02:00,ZJSY 190200Z AUTO 08008KT 7SM 29/22 A2994 RMK T02900220 IEM_DS3505
ZJSY,2006-03-19 03:00,ZJSY 190300Z AUTO 09006KT 7SM 30/21 A2994 RMK T03000210 IEM_DS3505
ZJSY,2006-03-19 04:00,ZJSY 190400Z 16003MPS 130V200 9999 SCT020 29/22 Q1013 NOSIG
ZJSY,2006-03-19 05:00,ZJSY 190500Z AUTO 16008KT 7SM 29/22 A2991 RMK T02900220 IEM_DS3505
ZJSY,2006-03-19 06:00,ZJSY 190600Z AUTO 16008KT 7SM 30/22 A2988 RMK T03000220 IEM_DS3505
ZJSY,2006-03-19 07:00,ZJSY 190700Z AUTO 16010KT 7SM 29/22 A2985 RMK T02900220 IEM_DS3505
ZJSY,2006-03-19 08:00,ZJSY 190800Z AUTO 15008KT 7SM 28/22 A2983 RMK T02800220 IEM_DS3505
ZJSY,2006-03-19 09:00,ZJSY 190900Z AUTO 15008KT 7SM 28/23 A2983 RMK T02800230 IEM_DS3505
ZJSY,2006-03-19 10:00,ZJSY 191000Z AUTO 14006KT 7SM 28/22 A2985 RMK T02800220 IEM_DS3505
ZJSY,2006-03-19 11:00,ZJSY 191100Z AUTO 12006KT 7SM 26/22 A2985 RMK T02600220 IEM_DS3505
ZJSY,2006-03-19 12:00,ZJSY 191200Z 07004MPS 9999 FEW020 26/22 Q1012 NOSIG
ZJSY,2006-03-19 13:00,ZJSY 191300Z AUTO 08008KT 7SM 25/22 A2991 RMK T02500220 IEM_DS3505
ZJSY,2006-03-19 14:00,ZJSY 191400Z AUTO 08006KT 7SM 25/22 A2991 RMK T02500220 IEM_DS3505
ZJSY,2006-03-19 15:00,ZJSY 191500Z AUTO 09006KT 7SM 25/22 A2991 RMK T02500220 IEM_DS3505
ZJSY,2006-03-19 16:00,ZJSY 191600Z AUTO 09006KT 7SM 25/22 A2991 RMK T02500220 IEM_DS3505
ZJSY,2006-03-19 17:00,ZJSY 191700Z AUTO 08006KT 7SM 25/22 A2991 RMK T02500220 IEM_DS3505
ZJSY,2006-03-19 18:00,ZJSY 191800Z AUTO 08006KT 25/21 A2988 RMK T02500210 IEM_DS3505
ZJSY,2006-03-19 19:00,ZJSY 191900Z AUTO 07006KT 25/21 A2988 RMK T02500210 IEM_DS3505
ZJSY,2006-03-19 20:00,ZJSY 192000Z AUTO 08006KT 24/21 A2988 RMK T02400210 IEM_DS3505
ZJSY,2006-03-19 21:00,ZJSY 192100Z AUTO 06006KT 7SM 24/21 A2988 RMK T02400210 IEM_DS3505
ZJSY,2006-03-19 22:00,ZJSY 192200Z AUTO 05004KT 6SM 24/21 A2988 RMK T02400210 IEM_DS3505
ZJSY,2006-03-19 23:00,ZJSY 192300Z AUTO 06008KT 6SM 24/21 A2988 RMK T02400210 IEM_DS3505
ZJSY,2006-03-20 00:00,ZJSY 200000Z AUTO 10004KT 7SM 25/21 A2991 RMK T02500210 IEM_DS3505
ZJSY,2006-03-20 01:00,ZJSY 200100Z AUTO 09008KT 7SM 27/22 A2994 RMK T02700220 IEM_DS3505
ZJSY,2006-03-20 02:00,ZJSY 200200Z AUTO 10008KT 7SM 28/21 A2994 RMK T02800210 IEM_DS3505
ZJSY,2006-03-20 03:00,ZJSY 200300Z 12003MPS 080V160 9999 BKN016 BKN060 29/21 Q1014 NOSIG
ZJSY,2006-03-20 04:00,ZJSY 200400Z AUTO 12010KT 7SM 29/21 A2991 RMK T02900210 IEM_DS3505
ZJSY,2006-03-20 05:00,ZJSY 200500Z AUTO 13010KT 7SM 29/21 A2988 RMK T02900210 IEM_DS3505
ZJSY,2006-03-20 06:00,ZJSY 200600Z AUTO 13012KT 7SM 29/22 A2985 RMK T02900220 IEM_DS3505
ZJSY,2006-03-20 07:00,ZJSY 200700Z AUTO 14008KT 7SM 29/22 A2983 RMK T02900220 IEM_DS3505
ZJSY,2006-03-20 08:00,ZJSY 200800Z AUTO 14010KT 7SM 28/22 A2983 RMK T02800220 IEM_DS3505
ZJSY,2006-03-20 09:00,ZJSY 200900Z 14004MPS 110V180 9999 FEW016 28/22 Q1010 NOSIG
ZJSY,2006-03-20 10:00,ZJSY 201000Z AUTO 13006KT 7SM 27/21 A2980 RMK T02700210 IEM_DS3505
ZJSY,2006-03-20 11:00,ZJSY 201100Z 12003MPS 100V160 CAVOK 26/22 Q1010 NOSIG
ZJSY,2006-03-20 12:00,ZJSY 201200Z 09003MPS CAVOK 26/21 Q1010 NOSIG
ZJSY,2006-03-20 13:00,ZJSY 201300Z AUTO 08006KT 6SM 25/21 A2985 RMK T02500210 IEM_DS3505
ZJSY,2006-03-20 14:00,ZJSY 201400Z AUTO 07006KT 6SM 25/21 A2985 RMK T02500210 IEM_DS3505
ZJSY,2006-03-20 15:00,ZJSY 201500Z AUTO 06006KT 6SM 24/21 A2988 RMK T02400210 IEM_DS3505
ZJSY,2006-03-20 16:00,ZJSY 201600Z AUTO 06006KT 6SM 25/21 A2985 RMK T02500210 IEM_DS3505
ZJSY,2006-03-20 17:00,ZJSY 201700Z AUTO 07006KT 6SM 24/21 A2985 RMK T02400210 IEM_DS3505
ZJSY,2006-03-20 18:00,ZJSY 201800Z AUTO 07004KT 7SM 24/21 A2983 RMK T02400210 IEM_DS3505
ZJSY,2006-03-20 19:00,ZJSY 201900Z AUTO 06004KT 24/21 A2983 RMK T02400210 IEM_DS3505
ZJSY,2006-03-20 20:00,ZJSY 202000Z AUTO 06004KT 24/21 A2980 RMK T02400210 IEM_DS3505
ZJSY,2006-03-20 21:00,ZJSY 202100Z AUTO 07004KT 2 1/2SM 24/21 A2980 RMK T02400210 IEM_DS3505
ZJSY,2006-03-20 22:00,ZJSY 202200Z AUTO 07004KT 2 1/2SM 24/21 A2983 RMK T02400210 IEM_DS3505
ZJSY,2006-03-20 23:00,ZJSY 202300Z AUTO 10004KT 2 1/2SM 24/22 A2983 RMK T02400220 IEM_DS3505
ZJSY,2006-03-21 00:00,ZJSY 210000Z AUTO 2 1/2SM 25/22 A2985 RMK T02500220 IEM_DS3505
ZJSY,2006-03-21 01:00,ZJSY 210100Z AUTO 12006KT 2 1/2SM 26/22 A2988 RMK T02600220 IEM_DS3505
ZJSY,2006-03-21 02:00,ZJSY 210200Z AUTO 12006KT 2 1/2SM 27/23 A2988 RMK T02700230 IEM_DS3505
ZJSY,2006-03-21 03:00,ZJSY 210300Z AUTO 14006KT 4SM 28/23 A2988 RMK T02800230 IEM_DS3505
ZJSY,2006-03-21 04:00,ZJSY 210400Z AUTO 15006KT 4SM 28/22 A2985 RMK T02800220 IEM_DS3505
ZJSY,2006-03-21 05:00,ZJSY 210500Z AUTO 16006KT 4SM 28/22 A2983 RMK T02800220 IEM_DS3505
ZJSY,2006-03-21 06:00,ZJSY 210600Z AUTO 16006KT 5SM 28/22 A2980 RMK T02800220 IEM_DS3505
ZJSY,2006-03-21 07:00,ZJSY 210700Z AUTO 16006KT 5SM 28/22 A2977 RMK T02800220 IEM_DS3505
ZJSY,2006-03-21 08:00,ZJSY 210800Z AUTO 15006KT 6SM 29/22 A2974 RMK T02900220 IEM_DS3505
ZJSY,2006-03-21 09:00,ZJSY 210900Z AUTO 12004KT 6SM 28/22 A2974 RMK T02800220 IEM_DS3505
ZJSY,2006-03-21 10:00,ZJSY 211000Z AUTO 13006KT 6SM 27/21 A2974 RMK T02700210 IEM_DS3505
ZJSY,2006-03-21 11:00,ZJSY 211100Z AUTO 12004KT 6SM 26/21 A2974 RMK T02600210 IEM_DS3505
ZJSY,2006-03-21 12:00,ZJSY 211200Z 11001MPS CAVOK 26/22 Q1007 NOSIG
ZJSY,2006-03-21 13:00,ZJSY 211300Z AUTO 07006KT 6SM 25/21 A2977 RMK T02500210 IEM_DS3505
ZJSY,2006-03-21 14:00,ZJSY 211400Z AUTO 07006KT 6SM 25/21 A2977 RMK T02500210 IEM_DS3505
ZJSY,2006-03-21 15:00,ZJSY 211500Z AUTO 06006KT 6SM 25/20 A2977 RMK T02500200 IEM_DS3505
ZJSY,2006-03-21 16:00,ZJSY 211600Z AUTO 06006KT 6SM 24/20 A2977 RMK T02400200 IEM_DS3505
ZJSY,2006-03-21 17:00,ZJSY 211700Z AUTO 07004KT 6SM 24/20 A2977 RMK T02400200 IEM_DS3505
ZJSY,2006-03-21 18:00,ZJSY 211800Z AUTO 06006KT 6SM 24/20 A2977 RMK T02400200 IEM_DS3505
ZJSY,2006-03-21 19:00,ZJSY 211900Z AUTO 04004KT 24/20 A2974 RMK T02400200 IEM_DS3505
ZJSY,2006-03-21 20:00,ZJSY 212000Z AUTO 04004KT 24/20 A2974 RMK T02400200 IEM_DS3505
ZJSY,2006-03-21 21:00,ZJSY 212100Z AUTO 06004KT 6SM 24/20 A2974 RMK T02400200 IEM_DS3505
ZJSY,2006-03-21 22:00,ZJSY 212200Z AUTO 06004KT 6SM 23/20 A2974 RMK T02300200 IEM_DS3505
ZJSY,2006-03-21 23:00,ZJSY 212300Z AUTO 06004KT 6SM 23/20 A2977 RMK T02300200 IEM_DS3505
ZJSY,2006-03-22 00:00,ZJSY 220000Z AUTO 07006KT 7SM 25/21 A2980 RMK T02500210 IEM_DS3505
ZJSY,2006-03-22 01:00,ZJSY 220100Z AUTO 07008KT 7SM 27/21 A2983 RMK T02700210 IEM_DS3505
ZJSY,2006-03-22 02:00,ZJSY 220200Z AUTO 10008KT 7SM 28/21 A2983 RMK T02800210 IEM_DS3505
ZJSY,2006-03-22 03:00,ZJSY 220300Z AUTO 13006KT 7SM 28/21 A2983 RMK T02800210 IEM_DS3505
ZJSY,2006-03-22 04:00,ZJSY 220400Z AUTO 12008KT 7SM 29/21 A2983 RMK T02900210 IEM_DS3505
ZJSY,2006-03-22 05:00,ZJSY 220500Z AUTO 13008KT 7SM 28/22 A2980 RMK T02800220 IEM_DS3505
ZJSY,2006-03-22 06:00,ZJSY 220600Z AUTO 11006KT 7SM 27/21 A2977 RMK T02700210 IEM_DS3505
ZJSY,2006-03-22 07:00,ZJSY 220700Z AUTO 12006KT 7SM 27/22 A2974 RMK T02700220 IEM_DS3505
ZJSY,2006-03-22 08:00,ZJSY 220800Z AUTO 11006KT 7SM 27/22 A2971 RMK T02700220 IEM_DS3505
ZJSY,2006-03-22 09:00,ZJSY 220900Z AUTO 11006KT 7SM 28/22 A2971 RMK T02800220 IEM_DS3505
ZJSY,2006-03-22 10:00,ZJSY 221000Z AUTO 13004KT 7SM 27/22 A2971 RMK T02700220 IEM_DS3505
ZJSY,2006-03-22 11:00,ZJSY 221100Z AUTO 12006KT 7SM 26/22 A2974 RMK T02600220 IEM_DS3505
ZJSY,2006-03-22 12:00,ZJSY 221200Z 08004MPS 9999 FEW016 26/22 Q1007 NOSIG
ZJSY,2006-03-22 13:00,ZJSY 221300Z AUTO 08006KT 7SM 26/22 A2974 RMK T02600220 IEM_DS3505
ZJSY,2006-03-22 14:00,ZJSY 221400Z AUTO 07006KT 7SM 25/21 A2977 RMK T02500210 IEM_DS3505
ZJSY,2006-03-22 15:00,ZJSY 221500Z AUTO 07006KT 7SM 26/22 A2977 RMK T02600220 IEM_DS3505
ZJSY,2006-03-22 16:00,ZJSY 221600Z AUTO 06006KT 7SM 25/21 A2977 RMK T02500210 IEM_DS3505
ZJSY,2006-03-22 17:00,ZJSY 221700Z AUTO 07006KT 7SM 25/21 A2974 RMK T02500210 IEM_DS3505
ZJSY,2006-03-22 18:00,ZJSY 221800Z AUTO 07004KT 25/21 A2974 RMK T02500210 IEM_DS3505
ZJSY,2006-03-22 19:00,ZJSY 221900Z AUTO 06004KT 25/21 A2974 RMK T02500210 IEM_DS3505
ZJSY,2006-03-22 20:00,ZJSY 222000Z AUTO 05004KT 25/22 A2971 RMK T02500220 IEM_DS3505
ZJSY,2006-03-22 21:00,ZJSY 222100Z AUTO 06006KT 7SM 25/22 A2971 RMK T02500220 IEM_DS3505
ZJSY,2006-03-22 22:00,ZJSY 222200Z AUTO 08004KT 7SM 25/21 A2974 RMK T02500210 IEM_DS3505
ZJSY,2006-03-22 23:00,ZJSY 222300Z AUTO 06004KT 6SM 25/21 A2974 RMK T02500210 IEM_DS3505
ZJSY,2006-03-23 00:00,ZJSY 230000Z AUTO 06006KT 6SM 26/22 A2977 RMK T02600220 IEM_DS3505
ZJSY,2006-03-23 01:00,ZJSY 230100Z AUTO 07006KT 7SM 27/22 A2980 RMK T02700220 IEM_DS3505
ZJSY,2006-03-23 02:00,ZJSY 230200Z AUTO 10004KT 7SM 27/22 A2980 RMK T02700220 IEM_DS3505
ZJSY,2006-03-23 03:00,ZJSY 230300Z AUTO 12004KT 7SM 28/23 A2980 RMK T02800230 IEM_DS3505
ZJSY,2006-03-23 04:00,ZJSY 230400Z AUTO 15004KT 7SM 27/22 A2980 RMK T02700220 IEM_DS3505
ZJSY,2006-03-23 05:00,ZJSY 230500Z AUTO 13006KT 7SM 28/22 A2977 RMK T02800220 IEM_DS3505
ZJSY,2006-03-23 06:00,ZJSY 230600Z AUTO 15006KT 7SM 29/23 A2974 RMK T02900230 IEM_DS3505
ZJSY,2006-03-23 07:00,ZJSY 230700Z AUTO 15006KT 7SM 28/22 A2971 RMK T02800220 IEM_DS3505
ZJSY,2006-03-23 08:00,ZJSY 230800Z AUTO 13006KT 7SM 28/23 A2971 RMK T02800230 IEM_DS3505
ZJSY,2006-03-23 09:00,ZJSY 230900Z AUTO 15004KT 7SM 28/23 A2968 RMK T02800230 IEM_DS3505
ZJSY,2006-03-23 10:00,ZJSY 231000Z AUTO 10004KT 7SM 27/23 A2968 RMK T02700230 IEM_DS3505
ZJSY,2006-03-23 11:00,ZJSY 231100Z AUTO 11006KT 7SM 27/23 A2971 RMK T02700230 IEM_DS3505
ZJSY,2006-03-23 12:00,ZJSY 231200Z 11002MPS 9999 SCT011 SCT016 27/23 Q1006 NOSIG
ZJSY,2006-03-23 13:00,ZJSY 231300Z AUTO 10004KT 7SM 27/22 A2974 RMK T02700220 IEM_DS3505
ZJSY,2006-03-23 14:00,ZJSY 231400Z AUTO 08004KT 7SM 27/22 A2974 RMK T02700220 IEM_DS3505
ZJSY,2006-03-23 15:00,ZJSY 231500Z AUTO 08004KT 7SM 27/23 A2977 RMK T02700230 IEM_DS3505
ZJSY,2006-03-23 16:00,ZJSY 231600Z AUTO 7SM 27/23 A2977 RMK T02700230 IEM_DS3505
ZJSY,2006-03-23 17:00,ZJSY 231700Z AUTO 12004KT 7SM 26/23 A2974 RMK T02600230 IEM_DS3505
ZJSY,2006-03-23 18:00,ZJSY 231800Z AUTO 11004KT 26/23 A2974 RMK T02600230 IEM_DS3505
ZJSY,2006-03-23 19:00,ZJSY 231900Z AUTO 06004KT 26/23 A2971 RMK T02600230 IEM_DS3505
ZJSY,2006-03-23 20:00,ZJSY 232000Z AUTO 11004KT 26/23 A2971 RMK T02600230 IEM_DS3505
ZJSY,2006-03-23 21:00,ZJSY 232100Z AUTO 12004KT 7SM 26/23 A2971 RMK T02600230 IEM_DS3505
ZJSY,2006-03-23 22:00,ZJSY 232200Z AUTO 10004KT 7SM 26/23 A2974 RMK T02600230 IEM_DS3505
ZJSY,2006-03-23 23:00,ZJSY 232300Z AUTO 12004KT 7SM 26/23 A2977 RMK T02600230 IEM_DS3505
ZJSY,2006-03-24 00:00,ZJSY 240000Z AUTO 12006KT 7SM 27/23 A2980 RMK T02700230 IEM_DS3505
ZJSY,2006-03-24 01:00,ZJSY 240100Z AUTO 11006KT 7SM 27/23 A2983 RMK T02700230 IEM_DS3505
ZJSY,2006-03-24 02:00,ZJSY 240200Z AUTO 13006KT 7SM 28/24 A2983 RMK T02800240 IEM_DS3505
ZJSY,2006-03-24 03:00,ZJSY 240300Z AUTO 12006KT 7SM 28/23 A2983 RMK T02800230 IEM_DS3505
ZJSY,2006-03-24 04:00,ZJSY 240400Z AUTO 14006KT 7SM 28/24 A2983 RMK T02800240 IEM_DS3505
ZJSY,2006-03-24 05:00,ZJSY 240500Z AUTO 15008KT 7SM 28/24 A2980 RMK T02800240 IEM_DS3505
ZJSY,2006-03-24 06:00,ZJSY 240600Z AUTO 7SM 27/23 A2980 RMK T02700230 IEM_DS3505
ZJSY,2006-03-24 07:00,ZJSY 240700Z 14002MPS 100V170 9999 FEW010 SCT016 27/23 Q1008 NOSIG
ZJSY,2006-03-24 08:00,ZJSY 240800Z AUTO 14004KT 7SM 28/23 A2974 RMK T02800230 IEM_DS3505
ZJSY,2006-03-24 09:00,ZJSY 240900Z AUTO 15004KT 7SM 28/23 A2974 RMK T02800230 IEM_DS3505
ZJSY,2006-03-24 10:00,ZJSY 241000Z AUTO 12006KT 7SM 27/23 A2974 RMK T02700230 IEM_DS3505
ZJSY,2006-03-24 11:00,ZJSY 241100Z AUTO 12004KT 7SM 27/23 A2977 RMK T02700230 IEM_DS3505
ZJSY,2006-03-24 12:00,ZJSY 241200Z 12003MPS 9999 FEW011 SCT016 27/23 Q1008 NOSIG
ZJSY,2006-03-24 13:00,ZJSY 241300Z AUTO 11004KT 7SM 27/23 A2980 RMK T02700230 IEM_DS3505
ZJSY,2006-03-24 14:00,ZJSY 241400Z AUTO 11006KT 7SM 26/23 A2983 RMK T02600230 IEM_DS3505
ZJSY,2006-03-24 15:00,ZJSY 241500Z AUTO 11006KT 7SM 26/23 A2983 RMK T02600230 IEM_DS3505
ZJSY,2006-03-24 16:00,ZJSY 241600Z AUTO 07008KT 7SM 26/23 A2983 RMK T02600230 IEM_DS3505
ZJSY,2006-03-24 17:00,ZJSY 241700Z AUTO 08008KT 25/22 A2983 RMK T02500220 IEM_DS3505
ZJSY,2006-03-24 18:00,ZJSY 241800Z AUTO 07008KT 25/22 A2980 RMK T02500220 IEM_DS3505
ZJSY,2006-03-24 19:00,ZJSY 241900Z AUTO 07006KT 25/22 A2980 RMK T02500220 IEM_DS3505
ZJSY,2006-03-24 20:00,ZJSY 242000Z AUTO 08008KT 25/22 A2980 RMK T02500220 IEM_DS3505
ZJSY,2006-03-24 21:00,ZJSY 242100Z AUTO 09006KT 7SM 25/23 A2980 RMK T02500230 IEM_DS3505
ZJSY,2006-03-24 22:00,ZJSY 242200Z AUTO 10004KT 6SM 25/23 A2980 RMK T02500230 IEM_DS3505
ZJSY,2006-03-24 23:00,ZJSY 242300Z AUTO 08006KT 7SM 25/23 A2983 RMK T02500230 IEM_DS3505
ZJSY,2006-03-25 00:00,ZJSY 250000Z AUTO 09004KT 7SM 25/23 A2985 RMK T02500230 IEM_DS3505
ZJSY,2006-03-25 01:00,ZJSY 250100Z AUTO 12004KT 7SM 26/23 A2988 RMK T02600230 IEM_DS3505
ZJSY,2006-03-25 02:00,ZJSY 250200Z 11003MPS 080V140 9999 -SHRA SCT010 BKN013 FEW020CB BKN040 26/23 Q1012 TEMPO 5000 SHRA BKN008
ZJSY,2006-03-25 03:00,ZJSY 250300Z AUTO 11008KT 7SM 25/23 A2988 RMK T02500230 IEM_DS3505
ZJSY,2006-03-25 04:00,ZJSY 250400Z 36002MPS 330V040 2000 TSRA SCT009 BKN012 FEW026CB BKN040 24/23 Q1013 RESHRA TEMPO 1000 BKN007
ZJSY,2006-03-25 05:00,ZJSY 250500Z AUTO 34006KT 2SM 23/22 A2988 RMK T02300220 IEM_DS3505
ZJSY,2006-03-25 06:00,ZJSY 250600Z AUTO 04010KT 7SM 24/21 A2985 RMK T02400210 IEM_DS3505
ZJSY,2006-03-25 07:00,ZJSY 250700Z AUTO 06006KT 7SM 25/21 A2983 RMK T02500210 IEM_DS3505
ZJSY,2006-03-25 08:00,ZJSY 250800Z AUTO 7SM 26/22 A2980 RMK T02600220 IEM_DS3505
ZJSY,2006-03-25 09:00,ZJSY 250900Z AUTO 7SM 27/22 A2980 RMK T02700220 IEM_DS3505
ZJSY,2006-03-25 10:00,ZJSY 251000Z AUTO 08004KT 7SM 27/22 A2980 RMK T02700220 IEM_DS3505
ZJSY,2006-03-25 11:00,ZJSY 251100Z AUTO 10004KT 7SM 26/23 A2980 RMK T02600230 IEM_DS3505
ZJSY,2006-03-25 12:00,ZJSY 251200Z VRB01MPS 9999 FEW016 26/23 Q1009 NOSIG
ZJSY,2006-03-25 13:00,ZJSY 251300Z AUTO 08002KT 7SM 25/23 A2983 RMK T02500230 IEM_DS3505
ZJSY,2006-03-25 14:00,ZJSY 251400Z VRB01MPS 9999 SCT015 25/23 Q1010 NOSIG
ZJSY,2006-03-25 15:00,ZJSY 251500Z AUTO 7SM 25/22 A2985 RMK T02500220 IEM_DS3505
ZJSY,2006-03-25 16:00,ZJSY 251600Z AUTO 7SM 24/22 A2985 RMK T02400220 IEM_DS3505
ZJSY,2006-03-25 17:00,ZJSY 251700Z AUTO 35004KT 7SM 24/22 A2985 RMK T02400220 IEM_DS3505
ZJSY,2006-03-25 18:00,ZJSY 251800Z AUTO 34004KT 24/22 A2983 RMK T02400220 IEM_DS3505
ZJSY,2006-03-25 19:00,ZJSY 251900Z AUTO 34004KT 23/22 A2983 RMK T02300220 IEM_DS3505
ZJSY,2006-03-25 20:00,ZJSY 252000Z AUTO 34002MPS //// // ////// 23/22 Q1010
ZJSY,2006-03-25 21:00,ZJSY 252100Z AUTO 34004KT 7SM 23/21 A2983 RMK T02300210 IEM_DS3505
ZJSY,2006-03-25 22:00,ZJSY 252200Z AUTO 7SM 23/21 A2983 RMK T02300210 IEM_DS3505
ZJSY,2006-03-25 23:00,ZJSY 252300Z AUTO 6SM 23/21 A2983 RMK T02300210 IEM_DS3505
ZJSY,2006-03-26 00:00,ZJSY 260000Z AUTO 7SM 24/22 A2985 RMK T02400220 IEM_DS3505
ZJSY,2006-03-26 01:00,ZJSY 260100Z AUTO 7SM 27/22 A2988 RMK T02700220 IEM_DS3505
ZJSY,2006-03-26 02:00,ZJSY 260200Z AUTO 10002KT 7SM 26/22 A2988 RMK T02600220 IEM_DS3505
ZJSY,2006-03-26 03:00,ZJSY 260300Z AUTO 13004KT 7SM 28/22 A2988 RMK T02800220 IEM_DS3505
ZJSY,2006-03-26 04:00,ZJSY 260400Z AUTO 15004KT 7SM 28/23 A2988 RMK T02800230 IEM_DS3505
ZJSY,2006-03-26 05:00,ZJSY 260500Z AUTO 16004KT 7SM 28/23 A2985 RMK T02800230 IEM_DS3505
ZJSY,2006-03-26 06:00,ZJSY 260600Z AUTO 20004KT 7SM 28/22 A2983 RMK T02800220 IEM_DS3505
ZJSY,2006-03-26 07:00,ZJSY 260700Z AUTO 7SM 29/23 A2980 RMK T02900230 IEM_DS3505
ZJSY,2006-03-26 08:00,ZJSY 260800Z AUTO 18004KT 7SM 28/22 A2977 RMK T02800220 IEM_DS3505
ZJSY,2006-03-26 09:00,ZJSY 260900Z AUTO 23004KT 7SM 28/22 A2977 RMK T02800220 IEM_DS3505
ZJSY,2006-03-26 10:00,ZJSY 261000Z AUTO 18004KT 7SM 27/22 A2977 RMK T02700220 IEM_DS3505
ZJSY,2006-03-26 11:00,ZJSY 261100Z AUTO 6SM 26/22 A2977 RMK T02600220 IEM_DS3505
ZJSY,2006-03-26 12:00,ZJSY 261200Z VRB01MPS CAVOK 26/23 Q1009 NOSIG
ZJSY,2006-03-26 13:00,ZJSY 261300Z AUTO 34004KT 7SM 25/22 A2980 RMK T02500220 IEM_DS3505
ZJSY,2006-03-26 14:00,ZJSY 261400Z AUTO 6SM 25/22 A2983 RMK T02500220 IEM_DS3505
ZJSY,2006-03-26 15:00,ZJSY 261500Z AUTO 34004KT 6SM 25/22 A2983 RMK T02500220 IEM_DS3505
ZJSY,2006-03-26 16:00,ZJSY 261600Z AUTO 00000KT 7SM 25/22 A2983 RMK T02500220 IEM_DS3505
ZJSY,2006-03-26 17:00,ZJSY 261700Z AUTO 34002KT 7SM 25/23 A2983 RMK T02500230 IEM_DS3505
ZJSY,2006-03-26 18:00,ZJSY 261800Z AUTO 36002KT 25/23 A2980 RMK T02500230 IEM_DS3505
ZJSY,2006-03-26 19:00,ZJSY 261900Z AUTO 07002KT 26/23 A2980 RMK T02600230 IEM_DS3505
ZJSY,2006-03-26 20:00,ZJSY 262000Z AUTO 00000KT 25/23 A2977 RMK T02500230 IEM_DS3505
ZJSY,2006-03-26 21:00,ZJSY 262100Z AUTO 00000KT 7SM 26/23 A2977 RMK T02600230 IEM_DS3505
ZJSY,2006-03-26 23:00,ZJSY 262300Z AUTO 34002KT 7SM 26/23 A2983 RMK T02600230 IEM_DS3505
ZJSY,2006-03-27 00:00,ZJSY 270000Z AUTO 7SM 26/23 A2983 RMK T02600230 IEM_DS3505
ZJSY,2006-03-27 01:00,ZJSY 270100Z AUTO 7SM 28/23 A2985 RMK T02800230 IEM_DS3505
ZJSY,2006-03-27 02:00,ZJSY 270200Z AUTO 7SM 28/23 A2985 RMK T02800230 IEM_DS3505
ZJSY,2006-03-27 03:00,ZJSY 270300Z AUTO 7SM 29/23 A2985 RMK T02900230 IEM_DS3505
ZJSY,2006-03-27 04:00,ZJSY 270400Z AUTO 20004KT 7SM 29/23 A2985 RMK T02900230 IEM_DS3505
ZJSY,2006-03-27 05:00,ZJSY 270500Z AUTO 18004KT 7SM 28/23 A2983 RMK T02800230 IEM_DS3505
ZJSY,2006-03-27 06:00,ZJSY 270600Z AUTO 21004KT 7SM 28/23 A2980 RMK T02800230 IEM_DS3505
ZJSY,2006-03-27 07:00,ZJSY 270700Z AUTO 21004KT 7SM 28/24 A2977 RMK T02800240 IEM_DS3505
ZJSY,2006-03-27 08:00,ZJSY 270800Z AUTO 17004KT 7SM 28/23 A2974 RMK T02800230 IEM_DS3505
ZJSY,2006-03-27 09:00,ZJSY 270900Z AUTO 19004KT 7SM 28/23 A2974 RMK T02800230 IEM_DS3505
ZJSY,2006-03-27 10:00,ZJSY 271000Z AUTO 18004KT 7SM 27/23 A2974 RMK T02700230 IEM_DS3505
ZJSY,2006-03-27 11:00,ZJSY 271100Z AUTO 7SM 27/23 A2974 RMK T02700230 IEM_DS3505
ZJSY,2006-03-27 12:00,ZJSY 271200Z 00000MPS 9999 FEW014 BKN017 27/22 Q1008 NOSIG
ZJSY,2006-03-27 13:00,ZJSY 271300Z AUTO 09002KT 7SM 26/23 A2977 RMK T02600230 IEM_DS3505
ZJSY,2006-03-27 14:00,ZJSY 271400Z AUTO 32004KT 7SM 26/23 A2980 RMK T02600230 IEM_DS3505
ZJSY,2006-03-27 15:00,ZJSY 271500Z AUTO 7SM 26/23 A2983 RMK T02600230 IEM_DS3505
ZJSY,2006-03-27 16:00,ZJSY 271600Z AUTO 00000KT 7SM 26/23 A2983 RMK T02600230 IEM_DS3505
ZJSY,2006-03-27 17:00,ZJSY 271700Z AUTO 21002KT 7SM 26/23 A2983 RMK T02600230 IEM_DS3505
ZJSY,2006-03-27 22:00,ZJSY 272200Z AUTO 00000KT 7SM 26/23 A2985 RMK T02600230 IEM_DS3505
ZJSY,2006-03-27 23:00,ZJSY 272300Z AUTO 00000KT 7SM 25/23 A2985 RMK T02500230 IEM_DS3505
ZJSY,2006-03-28 00:00,ZJSY 280000Z AUTO 08002KT 4SM 26/23 A2988 RMK T02600230 IEM_DS3505
ZJSY,2006-03-28 01:00,ZJSY 280100Z AUTO 10004KT 2SM 25/23 A2991 RMK T02500230 IEM_DS3505
ZJSY,2006-03-28 02:00,ZJSY 280200Z AUTO 1 1/2SM 25/23 A2991 RMK T02500230 IEM_DS3505
ZJSY,2006-03-28 03:00,ZJSY 280300Z AUTO 00000KT 2 1/2SM 25/24 A2994 RMK T02500240 IEM_DS3505
ZJSY,2006-03-28 04:00,ZJSY 280400Z AUTO 2 1/2SM 25/23 A2991 RMK T02500230 IEM_DS3505
ZJSY,2006-03-28 05:00,ZJSY 280500Z AUTO 4SM 25/24 A2991 RMK T02500240 IEM_DS3505
ZJSY,2006-03-28 06:00,ZJSY 280600Z AUTO 16004KT 3SM 25/23 A2988 RMK T02500230 IEM_DS3505
ZJSY,2006-03-28 07:00,ZJSY 280700Z AUTO 14004KT 2 1/2SM 25/23 A2985 RMK T02500230 IEM_DS3505
ZJSY,2006-03-28 08:00,ZJSY 280800Z AUTO 2 1/2SM 25/23 A2983 RMK T02500230 IEM_DS3505
ZJSY,2006-03-28 09:00,ZJSY 280900Z AUTO 08006KT 3SM 25/22 A2983 RMK T02500220 IEM_DS3505
ZJSY,2006-03-28 10:00,ZJSY 281000Z AUTO 10006KT 3SM 24/22 A2983 RMK T02400220 IEM_DS3505
ZJSY,2006-03-28 11:00,ZJSY 281100Z AUTO 10006KT 2 1/2SM 24/22 A2983 RMK T02400220 IEM_DS3505
ZJSY,2006-03-28 12:00,ZJSY 281200Z 09005MPS 3000 BR -DZ BKN010 OVC030 23/21 Q1011 NOSIG
ZJSY,2006-03-28 13:00,ZJSY 281300Z AUTO 08010KT 2SM 23/21 A2988 RMK T02300210 IEM_DS3505
ZJSY,2006-03-28 14:00,ZJSY 281400Z AUTO 08010KT 2 1/2SM 22/21 A2991 RMK T02200210 IEM_DS3505
ZJSY,2006-03-28 15:00,ZJSY 281500Z AUTO 08006KT 3SM 23/21 A2991 RMK T02300210 IEM_DS3505
ZJSY,2006-03-28 16:00,ZJSY 281600Z AUTO 07004KT 4SM 23/21 A2991 RMK T02300210 IEM_DS3505
ZJSY,2006-03-28 17:00,ZJSY 281700Z AUTO 07006KT 5SM 23/20 A2991 RMK T02300200 IEM_DS3505
ZJSY,2006-03-28 18:00,ZJSY 281800Z AUTO 05004KT 5SM 23/20 A2991 RMK T02300200 IEM_DS3505
ZJSY,2006-03-28 19:00,ZJSY 281900Z AUTO 06004KT 5SM 24/21 A2988 RMK T02400210 IEM_DS3505
ZJSY,2006-03-28 20:00,ZJSY 282000Z AUTO 09004KT 5SM 23/20 A2988 RMK T02300200 IEM_DS3505
ZJSY,2006-03-28 21:00,ZJSY 282100Z AUTO 4SM 23/21 A2988 RMK T02300210 IEM_DS3505
ZJSY,2006-03-28 22:00,ZJSY 282200Z AUTO 06004KT 4SM 23/21 A2988 RMK T02300210 IEM_DS3505
ZJSY,2006-03-28 23:00,ZJSY 282300Z AUTO 00000KT 4SM 23/21 A2991 RMK T02300210 IEM_DS3505
ZJSY,2006-03-29 00:00,ZJSY 290000Z AUTO 00000KT 7SM 24/21 A2994 RMK T02400210 IEM_DS3505
ZJSY,2006-03-29 01:00,ZJSY 290100Z AUTO 08004KT 7SM 25/21 A2994 RMK T02500210 IEM_DS3505
ZJSY,2006-03-29 02:00,ZJSY 290200Z AUTO 08008KT 7SM 26/21 A2994 RMK T02600210 IEM_DS3505
ZJSY,2006-03-29 03:00,ZJSY 290300Z AUTO 11006KT 7SM 26/21 A2994 RMK T02600210 IEM_DS3505
ZJSY,2006-03-29 04:00,ZJSY 290400Z AUTO 09012KT 7SM 27/21 A2994 RMK T02700210 IEM_DS3505
ZJSY,2006-03-29 05:00,ZJSY 290500Z AUTO 10010KT 7SM 28/22 A2991 RMK T02800220 IEM_DS3505
ZJSY,2006-03-29 06:00,ZJSY 290600Z AUTO 10008KT 7SM 28/21 A2988 RMK T02800210 IEM_DS3505
ZJSY,2006-03-29 07:00,ZJSY 290700Z AUTO 09010KT 7SM 29/21 A2985 RMK T02900210 IEM_DS3505
ZJSY,2006-03-29 08:00,ZJSY 290800Z AUTO 11008KT 7SM 28/21 A2985 RMK T02800210 IEM_DS3505
ZJSY,2006-03-29 09:00,ZJSY 290900Z AUTO 09006KT 7SM 28/21 A2983 RMK T02800210 IEM_DS3505
ZJSY,2006-03-29 10:00,ZJSY 291000Z AUTO 08010KT 7SM 27/21 A2985 RMK T02700210 IEM_DS3505
ZJSY,2006-03-29 11:00,ZJSY 291100Z AUTO 08010KT 6SM 26/21 A2985 RMK T02600210 IEM_DS3505
ZJSY,2006-03-29 12:00,ZJSY 291200Z 09004MPS CAVOK 25/21 Q1012 NOSIG
ZJSY,2006-03-29 13:00,ZJSY 291300Z AUTO 08008KT 6SM 25/21 A2988 RMK T02500210 IEM_DS3505
ZJSY,2006-03-29 14:00,ZJSY 291400Z AUTO 08006KT 7SM 25/21 A2991 RMK T02500210 IEM_DS3505
ZJSY,2006-03-29 15:00,ZJSY 291500Z AUTO 08008KT 7SM 25/21 A2991 RMK T02500210 IEM_DS3505
ZJSY,2006-03-29 16:00,ZJSY 291600Z AUTO 10004KT 7SM 25/21 A2991 RMK T02500210 IEM_DS3505
ZJSY,2006-03-29 17:00,ZJSY 291700Z AUTO 7SM 25/21 A2991 RMK T02500210 IEM_DS3505
ZJSY,2006-03-29 18:00,ZJSY 291800Z AUTO 08004KT 7SM 25/21 A2988 RMK T02500210 IEM_DS3505
ZJSY,2006-03-29 19:00,ZJSY 291900Z AUTO 07006KT 25/22 A2988 RMK T02500220 IEM_DS3505
ZJSY,2006-03-29 20:00,ZJSY 292000Z AUTO 08004KT 24/22 A2988 RMK T02400220 IEM_DS3505
ZJSY,2006-03-29 21:00,ZJSY 292100Z AUTO 06006KT 25/22 A2988 RMK T02500220 IEM_DS3505
ZJSY,2006-03-29 22:00,ZJSY 292200Z AUTO 06004KT 7SM 25/22 A2988 RMK T02500220 IEM_DS3505
ZJSY,2006-03-29 23:00,ZJSY 292300Z AUTO 06006KT 7SM 25/22 A2991 RMK T02500220 IEM_DS3505
ZJSY,2006-03-30 00:00,ZJSY 300000Z AUTO 08004KT 7SM 26/22 A2991 RMK T02600220 IEM_DS3505
ZJSY,2006-03-30 01:00,ZJSY 300100Z AUTO 08006KT 7SM 27/23 A2994 RMK T02700230 IEM_DS3505
ZJSY,2006-03-30 02:00,ZJSY 300200Z AUTO 08012KT 7SM 28/23 A2994 RMK T02800230 IEM_DS3505
ZJSY,2006-03-30 03:00,ZJSY 300300Z AUTO 10008KT 7SM 29/23 A2994 RMK T02900230 IEM_DS3505
ZJSY,2006-03-30 04:00,ZJSY 300400Z AUTO 10006KT 7SM 28/23 A2994 RMK T02800230 IEM_DS3505
ZJSY,2006-03-30 05:00,ZJSY 300500Z AUTO 12004KT 7SM 28/24 A2991 RMK T02800240 IEM_DS3505
ZJSY,2006-03-30 06:00,ZJSY 300600Z AUTO 16006KT 7SM 29/24 A2988 RMK T02900240 IEM_DS3505
ZJSY,2006-03-30 07:00,ZJSY 300700Z AUTO 15006KT 7SM 28/24 A2988 RMK T02800240 IEM_DS3505
ZJSY,2006-03-30 08:00,ZJSY 300800Z AUTO 14004KT 4SM 28/24 A2985 RMK T02800240 IEM_DS3505
ZJSY,2006-03-30 09:00,ZJSY 300900Z AUTO 16004KT 4SM 27/24 A2985 RMK T02700240 IEM_DS3505
ZJSY,2006-03-30 10:00,ZJSY 301000Z AUTO 16006KT 4SM 27/23 A2985 RMK T02700230 IEM_DS3505
ZJSY,2006-03-30 11:00,ZJSY 301100Z AUTO 19004KT 4SM 26/23 A2988 RMK T02600230 IEM_DS3505
ZJSY,2006-03-30 12:00,ZJSY 301200Z 23004MPS 7000 -RA SCT010 SCT016 FEW023CB BKN040 26/24 Q1012 NOSIG
ZJSY,2006-03-30 13:00,ZJSY 301300Z AUTO 29004KT 4SM 25/23 A2991 RMK T02500230 IEM_DS3505
ZJSY,2006-03-30 14:00,ZJSY 301400Z AUTO 29004KT 5SM 25/22 A2991 RMK T02500220 IEM_DS3505
ZJSY,2006-03-30 15:00,ZJSY 301500Z AUTO 05004KT 5SM 26/23 A2994 RMK T02600230 IEM_DS3505
ZJSY,2006-03-30 16:00,ZJSY 301600Z AUTO 05002KT 4SM 25/23 A2991 RMK T02500230 IEM_DS3505
ZJSY,2006-03-30 17:00,ZJSY 301700Z AUTO 07006KT 4SM 25/23 A2991 RMK T02500230 IEM_DS3505
ZJSY,2006-03-30 18:00,ZJSY 301800Z AUTO 08004KT 24/23 A2988 RMK T02400230 IEM_DS3505
ZJSY,2006-03-30 19:00,ZJSY 301900Z AUTO 05004KT 24/22 A2985 RMK T02400220 IEM_DS3505
ZJSY,2006-03-30 20:00,ZJSY 302000Z AUTO 08004KT 24/22 A2985 RMK T02400220 IEM_DS3505
ZJSY,2006-03-30 21:00,ZJSY 302100Z AUTO 08004KT 24/22 A2985 RMK T02400220 IEM_DS3505
ZJSY,2006-03-30 22:00,ZJSY 302200Z AUTO 00000KT 7SM 24/22 A2985 RMK T02400220 IEM_DS3505
ZJSY,2006-03-30 23:00,ZJSY 302300Z AUTO 00000KT 7SM 24/22 A2988 RMK T02400220 IEM_DS3505
ZJSY,2006-03-31 00:00,ZJSY 310000Z AUTO 00000KT 7SM 25/23 A2988 RMK T02500230 IEM_DS3505
ZJSY,2006-03-31 01:00,ZJSY 310100Z AUTO 10004KT 7SM 26/23 A2991 RMK T02600230 IEM_DS3505
ZJSY,2006-03-31 02:00,ZJSY 310200Z AUTO 12006KT 7SM 27/23 A2991 RMK T02700230 IEM_DS3505
ZJSY,2006-03-31 03:00,ZJSY 310300Z AUTO 13006KT 7SM 28/23 A2991 RMK T02800230 IEM_DS3505
ZJSY,2006-03-31 05:00,ZJSY 310500Z AUTO 15006KT 7SM 28/23 A2988 RMK T02800230 IEM_DS3505
ZJSY,2006-03-31 06:00,ZJSY 310600Z AUTO 14008KT 7SM 28/23 A2985 RMK T02800230 IEM_DS3505
ZJSY,2006-03-31 07:00,ZJSY 310700Z 14003MPS 110V190 9999 FEW018 FEW023TCU 29/22 Q1010 NOSIG
ZJSY,2006-03-31 08:00,ZJSY 310800Z 15003MPS 080V190 9999 FEW018 FEW023TCU 28/23 Q1009 NOSIG
ZJSY,2006-03-31 09:00,ZJSY 310900Z 15003MPS 120V200 9999 FEW018 28/23 Q1009 NOSIG
ZJSY,2006-03-31 10:00,ZJSY 311000Z AUTO 13006KT 7SM 27/23 A2980 RMK T02700230 IEM_DS3505
ZJSY,2006-03-31 11:00,ZJSY 311100Z AUTO 13004KT 6SM 26/23 A2980 RMK T02600230 IEM_DS3505
ZJSY,2006-03-31 12:00,ZJSY 311200Z 10003MPS 9999 FEW018 26/23 Q1010 NOSIG
ZJSY,2006-03-31 13:00,ZJSY 311300Z AUTO 08006KT 7SM 26/23 A2983 RMK T02600230 IEM_DS3505
ZJSY,2006-03-31 14:00,ZJSY 311400Z AUTO 08006KT 7SM 25/23 A2985 RMK T02500230 IEM_DS3505
ZJSY,2006-03-31 15:00,ZJSY 311500Z AUTO 08006KT 7SM 26/23 A2988 RMK T02600230 IEM_DS3505
ZJSY,2006-03-31 16:00,ZJSY 311600Z AUTO 09004KT 7SM 26/23 A2985 RMK T02600230 IEM_DS3505
ZJSY,2006-03-31 17:00,ZJSY 311700Z AUTO 11008KT 7SM 26/23 A2985 RMK T02600230 IEM_DS3505
ZJSY,2006-03-31 18:00,ZJSY 311800Z AUTO 12006KT 7SM 26/23 A2985 RMK T02600230 IEM_DS3505
ZJSY,2006-03-31 19:00,ZJSY 311900Z AUTO 12006KT 7SM 26/23 A2983 RMK T02600230 IEM_DS3505
ZJSY,2006-03-31 20:00,ZJSY 312000Z AUTO 12004KT 7SM 26/23 A2983 RMK T02600230 IEM_DS3505
ZJSY,2006-03-31 21:00,ZJSY 312100Z AUTO 10004KT 7SM 26/23 A2983 RMK T02600230 IEM_DS3505
ZJSY,2006-03-31 22:00,ZJSY 312200Z AUTO 10004KT 7SM 26/23 A2983 RMK T02600230 IEM_DS3505
ZJSY,2006-03-31 23:00,ZJSY 312300Z 08003MPS 9999 SCT016 25/23 Q1010 NOSIG
ZJSY,2006-04-01 00:00,ZJSY 010000Z 05002MPS 5000 BR FEW016 27/23 Q1011 NOSIG
ZJSY,2006-04-01 01:00,ZJSY 010100Z AUTO 3SM 28/23 A2988 RMK T02800230 IEM_DS3505
ZJSY,2006-04-01 02:00,ZJSY 010200Z AUTO 12004KT 4SM 28/23 A2988 RMK T02800230 IEM_DS3505
ZJSY,2006-04-01 03:00,ZJSY 010300Z AUTO 4SM 28/23 A2988 RMK T02800230 IEM_DS3505
ZJSY,2006-04-01 04:00,ZJSY 010400Z AUTO 12004KT 4SM 29/24 A2988 RMK T02900240 IEM_DS3505
ZJSY,2006-04-01 05:00,ZJSY 010500Z AUTO 15004KT 5SM 29/23 A2985 RMK T02900230 IEM_DS3505
ZJSY,2006-04-01 06:00,ZJSY 010600Z AUTO 16004KT 5SM 29/24 A2983 RMK T02900240 IEM_DS3505
ZJSY,2006-04-01 07:00,ZJSY 010700Z 17002MPS 120V210 8000 FEW016 29/23 Q1009 NOSIG
ZJSY,2006-04-01 08:00,ZJSY 010800Z AUTO 15004KT 5SM 28/23 A2977 RMK T02800230 IEM_DS3505
ZJSY,2006-04-01 09:00,ZJSY 010900Z AUTO 14004KT 5SM 28/23 A2977 RMK T02800230 IEM_DS3505
ZJSY,2006-04-01 10:00,ZJSY 011000Z AUTO 14004KT 5SM 27/23 A2977 RMK T02700230 IEM_DS3505
ZJSY,2006-04-01 11:00,ZJSY 011100Z AUTO 5SM 27/23 A2977 RMK T02700230 IEM_DS3505
ZJSY,2006-04-01 12:00,ZJSY 011200Z VRB01MPS 8000 NSC 27/23 Q1009 NOSIG
ZJSY,2006-04-01 13:00,ZJSY 011300Z AUTO 10004KT 5SM 27/23 A2983 RMK T02700230 IEM_DS3505
ZJSY,2006-04-01 14:00,ZJSY 011400Z AUTO 11004KT 6SM 27/24 A2985 RMK T02700240 IEM_DS3505
ZJSY,2006-04-01 15:00,ZJSY 011500Z AUTO 08004KT 6SM 27/24 A2988 RMK T02700240 IEM_DS3505
ZJSY,2006-04-01 16:00,ZJSY 011600Z AUTO 08004KT 6SM 27/23 A2988 RMK T02700230 IEM_DS3505
ZJSY,2006-04-01 17:00,ZJSY 011700Z AUTO 11004KT 6SM 26/24 A2985 RMK T02600240 IEM_DS3505
ZJSY,2006-04-01 18:00,ZJSY 011800Z AUTO 08004KT 6SM 26/24 A2983 RMK T02600240 IEM_DS3505
ZJSY,2006-04-01 19:00,ZJSY 011900Z AUTO 09004KT 6SM 26/23 A2983 RMK T02600230 IEM_DS3505
ZJSY,2006-04-01 20:00,ZJSY 012000Z AUTO 26/24 A2980 RMK T02600240 IEM_DS3505
ZJSY,2006-04-01 21:00,ZJSY 012100Z AUTO 11004KT 26/24 A2980 RMK T02600240 IEM_DS3505
ZJSY,2006-04-01 22:00,ZJSY 012200Z AUTO 12002KT 5SM 26/24 A2983 RMK T02600240 IEM_DS3505
ZJSY,2006-04-01 23:00,ZJSY 012300Z AUTO 4SM 26/24 A2983 RMK T02600240 IEM_DS3505
ZJSY,2006-04-02 00:00,ZJSY 020000Z AUTO 11002KT 3SM 26/24 A2985 RMK T02600240 IEM_DS3505
ZJSY,2006-04-02 01:00,ZJSY 020100Z AUTO 11004KT 3SM 27/24 A2991 RMK T02700240 IEM_DS3505
ZJSY,2006-04-02 02:00,ZJSY 020200Z AUTO 12004KT 3SM 27/24 A2991 RMK T02700240 IEM_DS3505
ZJSY,2006-04-02 03:00,ZJSY 020300Z AUTO 16004KT 3SM 28/25 A2991 RMK T02800250 IEM_DS3505
ZJSY,2006-04-02 04:00,ZJSY 020400Z AUTO 16004KT 3SM 28/24 A2991 RMK T02800240 IEM_DS3505
ZJSY,2006-04-02 05:00,ZJSY 020500Z AUTO 15004KT 3SM 28/25 A2988 RMK T02800250 IEM_DS3505
ZJSY,2006-04-02 06:00,ZJSY 020600Z AUTO 14004KT 3SM 28/24 A2985 RMK T02800240 IEM_DS3505
ZJSY,2006-04-02 07:00,ZJSY 020700Z AUTO 15004KT 4SM 28/24 A2983 RMK T02800240 IEM_DS3505
ZJSY,2006-04-02 08:00,ZJSY 020800Z AUTO 13004KT 4SM 28/24 A2983 RMK T02800240 IEM_DS3505
ZJSY,2006-04-02 09:00,ZJSY 020900Z AUTO 11006KT 4SM 28/23 A2980 RMK T02800230 IEM_DS3505
ZJSY,2006-04-02 10:00,ZJSY 021000Z AUTO 12004KT 7SM 28/22 A2980 RMK T02800220 IEM_DS3505
ZJSY,2006-04-02 11:00,ZJSY 021100Z AUTO 7SM 27/22 A2980 RMK T02700220 IEM_DS3505
ZJSY,2006-04-02 12:00,ZJSY 021200Z 11002MPS 080V150 9999 FEW033 27/23 Q1010 NOSIG
ZJSY,2006-04-02 13:00,ZJSY 021300Z AUTO 08006KT 6SM 26/23 A2985 RMK T02600230 IEM_DS3505
ZJSY,2006-04-02 14:00,ZJSY 021400Z AUTO 08006KT 6SM 26/23 A2988 RMK T02600230 IEM_DS3505
ZJSY,2006-04-02 15:00,ZJSY 021500Z AUTO 07006KT 6SM 26/23 A2988 RMK T02600230 IEM_DS3505
ZJSY,2006-04-02 16:00,ZJSY 021600Z AUTO 08004KT 6SM 25/22 A2988 RMK T02500220 IEM_DS3505
ZJSY,2006-04-02 17:00,ZJSY 021700Z AUTO 06006KT 6SM 25/23 A2985 RMK T02500230 IEM_DS3505
ZJSY,2006-04-02 18:00,ZJSY 021800Z AUTO 07006KT 25/22 A2983 RMK T02500220 IEM_DS3505
ZJSY,2006-04-02 19:00,ZJSY 021900Z AUTO 07004KT 25/22 A2983 RMK T02500220 IEM_DS3505
ZJSY,2006-04-02 20:00,ZJSY 022000Z AUTO 09004KT 25/22 A2983 RMK T02500220 IEM_DS3505
ZJSY,2006-04-02 21:00,ZJSY 022100Z AUTO 07004KT 25/22 A2983 RMK T02500220 IEM_DS3505
ZJSY,2006-04-02 22:00,ZJSY 022200Z AUTO 7SM 25/22 A2983 RMK T02500220 IEM_DS3505
ZJSY,2006-04-02 23:00,ZJSY 022300Z AUTO 07004KT 7SM 26/23 A2983 RMK T02600230 IEM_DS3505
ZJSY,2006-04-03 00:00,ZJSY 030000Z AUTO 07004KT 4SM 26/23 A2985 RMK T02600230 IEM_DS3505
ZJSY,2006-04-03 01:00,ZJSY 030100Z AUTO 07004KT 4SM 28/23 A2988 RMK T02800230 IEM_DS3505
ZJSY,2006-04-03 02:00,ZJSY 030200Z AUTO 11004KT 4SM 29/23 A2991 RMK T02900230 IEM_DS3505
ZJSY,2006-04-03 03:00,ZJSY 030300Z AUTO 14006KT 7SM 30/24 A2991 RMK T03000240 IEM_DS3505
ZJSY,2006-04-03 04:00,ZJSY 030400Z 14003MPS 9999 FEW016 29/24 Q1012 NOSIG
ZJSY,2006-04-03 05:00,ZJSY 030500Z AUTO 14004KT 7SM 29/24 A2985 RMK T02900240 IEM_DS3505
ZJSY,2006-04-03 06:00,ZJSY 030600Z AUTO 15004KT 7SM 30/24 A2983 RMK T03000240 IEM_DS3505
ZJSY,2006-04-03 07:00,ZJSY 030700Z AUTO 16004KT 7SM 30/23 A2983 RMK T03000230 IEM_DS3505
ZJSY,2006-04-03 08:00,ZJSY 030800Z AUTO 16004KT 7SM 30/23 A2980 RMK T03000230 IEM_DS3505
ZJSY,2006-04-03 09:00,ZJSY 030900Z AUTO 16004KT 6SM 29/23 A2980 RMK T02900230 IEM_DS3505
ZJSY,2006-04-03 10:00,ZJSY 031000Z AUTO 14004KT 6SM 28/24 A2980 RMK T02800240 IEM_DS3505
ZJSY,2006-04-03 11:00,ZJSY 031100Z AUTO 13004KT 6SM 27/24 A2980 RMK T02700240 IEM_DS3505
ZJSY,2006-04-03 12:00,ZJSY 031200Z AUTO 14006KT 6SM 27/24 A2983 RMK T02700240 IEM_DS3505
ZJSY,2006-04-03 13:00,ZJSY 031300Z AUTO 06004KT 6SM 27/23 A2983 RMK T02700230 IEM_DS3505
ZJSY,2006-04-03 14:00,ZJSY 031400Z AUTO 08006KT 6SM 26/23 A2985 RMK T02600230 IEM_DS3505
ZJSY,2006-04-03 15:00,ZJSY 031500Z AUTO 07004KT 6SM 26/23 A2985 RMK T02600230 IEM_DS3505
ZJSY,2006-04-03 16:00,ZJSY 031600Z AUTO 03004KT 6SM 26/22 A2985 RMK T02600220 IEM_DS3505
ZJSY,2006-04-03 17:00,ZJSY 031700Z AUTO 04002KT 6SM 25/22 A2985 RMK T02500220 IEM_DS3505
ZJSY,2006-04-03 18:00,ZJSY 031800Z AUTO 25/22 A2983 RMK T02500220 IEM_DS3505
ZJSY,2006-04-03 19:00,ZJSY 031900Z AUTO 07002KT 25/22 A2983 RMK T02500220 IEM_DS3505
ZJSY,2006-04-03 20:00,ZJSY 032000Z AUTO 09004KT 24/22 A2983 RMK T02400220 IEM_DS3505
ZJSY,2006-04-03 21:00,ZJSY 032100Z AUTO 07004KT 25/22 A2983 RMK T02500220 IEM_DS3505
ZJSY,2006-04-03 22:00,ZJSY 032200Z AUTO 07006KT 7SM 25/22 A2980 RMK T02500220 IEM_DS3505
ZJSY,2006-04-03 23:00,ZJSY 032300Z AUTO 05004KT 7SM 26/22 A2983 RMK T02600220 IEM_DS3505
ZJSY,2006-04-04 00:00,ZJSY 040000Z AUTO 06004KT 7SM 27/23 A2985 RMK T02700230 IEM_DS3505
ZJSY,2006-04-04 01:00,ZJSY 040100Z AUTO 08004KT 7SM 28/23 A2988 RMK T02800230 IEM_DS3505
ZJSY,2006-04-04 02:00,ZJSY 040200Z AUTO 11006KT 7SM 29/24 A2988 RMK T02900240 IEM_DS3505
ZJSY,2006-04-04 03:00,ZJSY 040300Z AUTO 14006KT 7SM 29/24 A2988 RMK T02900240 IEM_DS3505
ZJSY,2006-04-04 04:00,ZJSY 040400Z AUTO 16004KT 7SM 30/23 A2988 RMK T03000230 IEM_DS3505
ZJSY,2006-04-04 05:00,ZJSY 040500Z AUTO 7SM 29/23 A2985 RMK T02900230 IEM_DS3505
ZJSY,2006-04-04 06:00,ZJSY 040600Z AUTO 20004KT 7SM 30/23 A2983 RMK T03000230 IEM_DS3505
ZJSY,2006-04-04 07:00,ZJSY 040700Z AUTO 15004KT 7SM 29/22 A2980 RMK T02900220 IEM_DS3505
ZJSY,2006-04-04 08:00,ZJSY 040800Z AUTO 14004KT 7SM 29/23 A2977 RMK T02900230 IEM_DS3505
ZJSY,2006-04-04 09:00,ZJSY 040900Z AUTO 17004KT 7SM 29/23 A2977 RMK T02900230 IEM_DS3505
ZJSY,2006-04-04 10:00,ZJSY 041000Z AUTO 13004KT 7SM 28/24 A2977 RMK T02800240 IEM_DS3505
ZJSY,2006-04-04 11:00,ZJSY 041100Z AUTO 11004KT 6SM 27/23 A2977 RMK T02700230 IEM_DS3505
ZJSY,2006-04-04 12:00,ZJSY 041200Z AUTO 6SM 27/23 A2980 RMK T02700230 IEM_DS3505
ZJSY,2006-04-04 13:00,ZJSY 041300Z AUTO 7SM 27/23 A2980 RMK T02700230 IEM_DS3505
ZJSY,2006-04-04 14:00,ZJSY 041400Z VRB01MPS 9999 FEW016 26/23 Q1010 NOSIG
ZJSY,2006-04-04 15:00,ZJSY 041500Z AUTO 7SM 26/23 A2983 RMK T02600230 IEM_DS3505
ZJSY,2006-04-04 16:00,ZJSY 041600Z AUTO 06004KT 7SM 26/23 A2983 RMK T02600230 IEM_DS3505
ZJSY,2006-04-04 17:00,ZJSY 041700Z 34001MPS 9999 BKN011 25/23 Q1010 NOSIG
ZJSY,2006-04-04 18:00,ZJSY 041800Z AUTO 00000KT 6SM 25/23 A2980 RMK T02500230 IEM_DS3505
ZJSY,2006-04-04 19:00,ZJSY 041900Z AUTO 10002KT 25/23 A2977 RMK T02500230 IEM_DS3505
ZJSY,2006-04-04 20:00,ZJSY 042000Z AUTO 06006KT 25/22 A2977 RMK T02500220 IEM_DS3505
ZJSY,2006-04-04 21:00,ZJSY 042100Z AUTO 25/23 A2977 RMK T02500230 IEM_DS3505
ZJSY,2006-04-04 22:00,ZJSY 042200Z AUTO 35002KT 7SM 25/22 A2980 RMK T02500220 IEM_DS3505
ZJSY,2006-04-04 23:00,ZJSY 042300Z AUTO 34004KT 6SM 24/22 A2983 RMK T02400220 IEM_DS3505
ZJSY,2006-04-05 00:00,ZJSY 050000Z AUTO 6SM 27/23 A2983 RMK T02700230 IEM_DS3505
ZJSY,2006-04-05 01:00,ZJSY 050100Z AUTO 11004KT 7SM 28/23 A2985 RMK T02800230 IEM_DS3505
ZJSY,2006-04-05 02:00,ZJSY 050200Z AUTO 11006KT 7SM 29/23 A2985 RMK T02900230 IEM_DS3505
ZJSY,2006-04-05 03:00,ZJSY 050300Z AUTO 7SM 30/24 A2985 RMK T03000240 IEM_DS3505
ZJSY,2006-04-05 04:00,ZJSY 050400Z AUTO 14004KT 7SM 30/24 A2985 RMK T03000240 IEM_DS3505
ZJSY,2006-04-05 05:00,ZJSY 050500Z AUTO 7SM 29/24 A2983 RMK T02900240 IEM_DS3505
ZJSY,2006-04-05 06:00,ZJSY 050600Z AUTO 14004KT 7SM 29/24 A2980 RMK T02900240 IEM_DS3505
ZJSY,2006-04-05 07:00,ZJSY 050700Z AUTO 10004KT 7SM 29/24 A2977 RMK T02900240 IEM_DS3505
ZJSY,2006-04-05 08:00,ZJSY 050800Z AUTO 14004KT 7SM 29/23 A2977 RMK T02900230 IEM_DS3505
ZJSY,2006-04-05 09:00,ZJSY 050900Z 12002MPS 040V170 CAVOK 29/23 Q1008 NOSIG
ZJSY,2006-04-05 10:00,ZJSY 051000Z AUTO 6SM 29/22 A2977 RMK T02900220 IEM_DS3505
ZJSY,2006-04-05 11:00,ZJSY 051100Z AUTO 6SM 28/22 A2977 RMK T02800220 IEM_DS3505
ZJSY,2006-04-05 12:00,ZJSY 051200Z 10002MPS CAVOK 28/22 Q1009 NOSIG
ZJSY,2006-04-05 13:00,ZJSY 051300Z AUTO 06004KT 6SM 27/22 A2980 RMK T02700220 IEM_DS3505
ZJSY,2006-04-05 14:00,ZJSY 051400Z AUTO 7SM 26/21 A2983 RMK T02600210 IEM_DS3505
ZJSY,2006-04-05 15:00,ZJSY 051500Z AUTO 08004KT 7SM 26/21 A2983 RMK T02600210 IEM_DS3505
ZJSY,2006-04-05 16:00,ZJSY 051600Z AUTO 05006KT 7SM 27/22 A2985 RMK T02700220 IEM_DS3505
ZJSY,2006-04-05 17:00,ZJSY 051700Z AUTO 01002KT 7SM 25/22 A2983 RMK T02500220 IEM_DS3505
ZJSY,2006-04-05 18:00,ZJSY 051800Z AUTO 05004KT 26/22 A2983 RMK T02600220 IEM_DS3505
ZJSY,2006-04-05 19:00,ZJSY 051900Z AUTO 32002KT A2980 RMK IEM_DS3505
ZJSY,2006-04-05 20:00,ZJSY 052000Z AUTO 00000KT A2980 RMK IEM_DS3505
ZJSY,2006-04-05 21:00,ZJSY 052100Z AUTO 06004KT A2980 RMK IEM_DS3505
ZJSY,2006-04-05 22:00,ZJSY 052200Z AUTO 09002KT 7SM A2980 RMK IEM_DS3505
ZJSY,2006-04-05 23:00,ZJSY 052300Z AUTO 07004KT 5SM 25/23 A2983 RMK T02500230 IEM_DS3505
ZJSY,2006-04-06 00:00,ZJSY 060000Z AUTO 06004KT 5SM 27/23 A2985 RMK T02700230 IEM_DS3505
ZJSY,2006-04-06 01:00,ZJSY 060100Z AUTO 10006KT 6SM 29/23 A2988 RMK T02900230 IEM_DS3505
ZJSY,2006-04-06 02:00,ZJSY 060200Z AUTO 13004KT 7SM 30/23 A2988 RMK T03000230 IEM_DS3505
ZJSY,2006-04-06 03:00,ZJSY 060300Z AUTO 16006KT 7SM 29/23 A2988 RMK T02900230 IEM_DS3505
ZJSY,2006-04-06 04:00,ZJSY 060400Z AUTO 16006KT 7SM 29/23 A2985 RMK T02900230 IEM_DS3505
ZJSY,2006-04-06 05:00,ZJSY 060500Z AUTO 16008KT 7SM 29/24 A2983 RMK T02900240 IEM_DS3505
ZJSY,2006-04-06 06:00,ZJSY 060600Z AUTO 16008KT 6SM 29/23 A2980 RMK T02900230 IEM_DS3505
ZJSY,2006-04-06 07:00,ZJSY 060700Z AUTO 16006KT 6SM 29/24 A2980 RMK T02900240 IEM_DS3505
ZJSY,2006-04-06 08:00,ZJSY 060800Z AUTO 16006KT 6SM 29/23 A2977 RMK T02900230 IEM_DS3505
ZJSY,2006-04-06 09:00,ZJSY 060900Z AUTO 15006KT 6SM 28/23 A2977 RMK T02800230 IEM_DS3505
ZJSY,2006-04-06 10:00,ZJSY 061000Z AUTO 14006KT 6SM 28/24 A2977 RMK T02800240 IEM_DS3505
ZJSY,2006-04-06 11:00,ZJSY 061100Z AUTO 13004KT 6SM 28/23 A2980 RMK T02800230 IEM_DS3505
ZJSY,2006-04-06 12:00,ZJSY 061200Z AUTO 12004KT 6SM 27/23 A2983 RMK T02700230 IEM_DS3505
ZJSY,2006-04-06 13:00,ZJSY 061300Z AUTO 06006KT 6SM 27/23 A2985 RMK T02700230 IEM_DS3505
ZJSY,2006-04-06 14:00,ZJSY 061400Z AUTO 05006KT 6SM 27/23 A2988 RMK T02700230 IEM_DS3505
ZJSY,2006-04-06 15:00,ZJSY 061500Z AUTO 07006KT 6SM 26/23 A2988 RMK T02600230 IEM_DS3505
ZJSY,2006-04-06 16:00,ZJSY 061600Z AUTO 06008KT 7SM 27/23 A2985 RMK T02700230 IEM_DS3505
ZJSY,2006-04-06 17:00,ZJSY 061700Z 06002MPS 9999 FEW016 26/22 Q1011 NOSIG
ZJSY,2006-04-06 18:00,ZJSY 061800Z AUTO 07006KT 25/22 A2983 RMK T02500220 IEM_DS3505
ZJSY,2006-04-06 19:00,ZJSY 061900Z AUTO 04004KT 27/22 A2983 RMK T02700220 IEM_DS3505
ZJSY,2006-04-06 20:00,ZJSY 062000Z AUTO 06006KT 26/22 A2983 RMK T02600220 IEM_DS3505
ZJSY,2006-04-06 21:00,ZJSY 062100Z AUTO 09002KT 26/22 A2983 RMK T02600220 IEM_DS3505
ZJSY,2006-04-06 22:00,ZJSY 062200Z AUTO 11004KT 7SM 26/22 A2983 RMK T02600220 IEM_DS3505
ZJSY,2006-04-06 23:00,ZJSY 062300Z AUTO 09006KT 7SM 26/23 A2985 RMK T02600230 IEM_DS3505
ZJSY,2006-04-07 00:00,ZJSY 070000Z AUTO 08006KT 7SM 28/23 A2985 RMK T02800230 IEM_DS3505
ZJSY,2006-04-07 03:00,ZJSY 070300Z 13004MPS 090V160 9999 SCT016 FEW026TCU 30/24 Q1013 NOSIG
ZJSY,2006-04-07 04:00,ZJSY 070400Z AUTO 14010KT 7SM 30/24 A2988 RMK T03000240 IEM_DS3505
ZJSY,2006-04-07 05:00,ZJSY 070500Z AUTO 14008KT 7SM 30/24 A2988 RMK T03000240 IEM_DS3505
ZJSY,2006-04-07 06:00,ZJSY 070600Z AUTO 15010KT 7SM 30/24 A2985 RMK T03000240 IEM_DS3505
ZJSY,2006-04-07 07:00,ZJSY 070700Z AUTO 15010KT 7SM 30/24 A2983 RMK T03000240 IEM_DS3505
ZJSY,2006-04-07 08:00,ZJSY 070800Z AUTO 14008KT 6SM 30/24 A2983 RMK T03000240 IEM_DS3505
ZJSY,2006-04-07 09:00,ZJSY 070900Z AUTO 14010KT 7SM 29/24 A2980 RMK T02900240 IEM_DS3505
ZJSY,2006-04-07 10:00,ZJSY 071000Z AUTO 12008KT 7SM 29/23 A2980 RMK T02900230 IEM_DS3505
ZJSY,2006-04-07 11:00,ZJSY 071100Z AUTO 11008KT 7SM 28/23 A2985 RMK T02800230 IEM_DS3505
ZJSY,2006-04-07 12:00,ZJSY 071200Z AUTO 09006KT 7SM 28/23 A2985 RMK T02800230 IEM_DS3505
ZJSY,2006-04-07 13:00,ZJSY 071300Z AUTO 06008KT 7SM 28/24 A2988 RMK T02800240 IEM_DS3505
ZJSY,2006-04-07 14:00,ZJSY 071400Z AUTO 07010KT 6SM 27/24 A2988 RMK T02700240 IEM_DS3505
ZJSY,2006-04-07 15:00,ZJSY 071500Z AUTO 08010KT 7SM 27/23 A2988 RMK T02700230 IEM_DS3505
ZJSY,2006-04-07 16:00,ZJSY 071600Z AUTO 07006KT 7SM 26/23 A2988 RMK T02600230 IEM_DS3505
ZJSY,2006-04-07 17:00,ZJSY 071700Z AUTO 10006KT 7SM 26/23 A2988 RMK T02600230 IEM_DS3505
ZJSY,2006-04-07 18:00,ZJSY 071800Z AUTO 07006KT 26/23 A2985 RMK T02600230 IEM_DS3505
ZJSY,2006-04-07 19:00,ZJSY 071900Z AUTO 07006KT 26/23 A2983 RMK T02600230 IEM_DS3505
ZJSY,2006-04-07 20:00,ZJSY 072000Z AUTO 06006KT 26/23 A2983 RMK T02600230 IEM_DS3505
ZJSY,2006-04-07 21:00,ZJSY 072100Z AUTO 07004KT 26/23 A2983 RMK T02600230 IEM_DS3505
ZJSY,2006-04-07 22:00,ZJSY 072200Z AUTO 08006KT 7SM 26/23 A2983 RMK T02600230 IEM_DS3505
ZJSY,2006-04-07 23:00,ZJSY 072300Z AUTO 07006KT 7SM 26/23 A2983 RMK T02600230 IEM_DS3505
ZJSY,2006-04-08 00:00,ZJSY 080000Z AUTO 08006KT 7SM 27/23 A2985 RMK T02700230 IEM_DS3505
ZJSY,2006-04-08 01:00,ZJSY 080100Z AUTO 07008KT 7SM 29/24 A2985 RMK T02900240 IEM_DS3505
ZJSY,2006-04-08 02:00,ZJSY 080200Z AUTO 10006KT 7SM 29/24 A2988 RMK T02900240 IEM_DS3505
ZJSY,2006-04-08 03:00,ZJSY 080300Z AUTO 09008KT 7SM 29/23 A2988 RMK T02900230 IEM_DS3505
ZJSY,2006-04-08 04:00,ZJSY 080400Z AUTO 12008KT 7SM 29/24 A2988 RMK T02900240 IEM_DS3505
ZJSY,2006-04-08 05:00,ZJSY 080500Z AUTO 09006KT 7SM 28/24 A2985 RMK T02800240 IEM_DS3505
ZJSY,2006-04-08 06:00,ZJSY 080600Z AUTO 04010KT 7SM 26/22 A2985 RMK T02600220 IEM_DS3505
ZJSY,2006-04-08 07:00,ZJSY 080700Z AUTO 05012KT 7SM 27/22 A2980 RMK T02700220 IEM_DS3505
ZJSY,2006-04-08 08:00,ZJSY 080800Z AUTO 10010KT 3SM 25/21 A2980 RMK T02500210 IEM_DS3505
ZJSY,2006-04-08 09:00,ZJSY 080900Z AUTO 09006KT 1 1/4SM 23/21 A2980 RMK T02300210 IEM_DS3505
ZJSY,2006-04-08 10:00,ZJSY 081000Z AUTO 00000KT 2 1/2SM 23/22 A2983 RMK T02300220 IEM_DS3505
ZJSY,2006-04-08 11:00,ZJSY 081100Z AUTO 07010KT 2SM 23/22 A2985 RMK T02300220 IEM_DS3505
ZJSY,2006-04-08 12:00,ZJSY 081200Z AUTO 06008KT 4SM 23/22 A2985 RMK T02300220 IEM_DS3505
ZJSY,2006-04-08 13:00,ZJSY 081300Z AUTO 03006KT 4SM 24/22 A2985 RMK T02400220 IEM_DS3505
ZJSY,2006-04-08 14:00,ZJSY 081400Z AUTO 09010KT 5SM 24/22 A2985 RMK T02400220 IEM_DS3505
ZJSY,2006-04-08 15:00,ZJSY 081500Z AUTO 08006KT 7SM 24/22 A2988 RMK T02400220 IEM_DS3505
ZJSY,2006-04-08 16:00,ZJSY 081600Z AUTO 08004KT 7SM 24/22 A2988 RMK T02400220 IEM_DS3505
ZJSY,2006-04-08 17:00,ZJSY 081700Z AUTO 05004KT 7SM 24/22 A2985 RMK T02400220 IEM_DS3505
ZJSY,2006-04-08 18:00,ZJSY 081800Z 00000MPS 9999 BKN060 24/22 Q1010 NOSIG
ZJSY,2006-04-08 19:00,ZJSY 081900Z AUTO 05001MPS //// // ////// 24/22 Q1009
ZJSY,2006-04-08 20:00,ZJSY 082000Z AUTO 05004KT 25/22 A2977 RMK T02500220 IEM_DS3505
ZJSY,2006-04-08 21:00,ZJSY 082100Z AUTO 05004KT 25/22 A2977 RMK T02500220 IEM_DS3505
ZJSY,2006-04-08 22:00,ZJSY 082200Z AUTO 06004KT 6SM 25/22 A2977 RMK T02500220 IEM_DS3505
ZJSY,2006-04-08 23:00,ZJSY 082300Z AUTO 7SM 25/22 A2980 RMK T02500220 IEM_DS3505
ZJSY,2006-04-09 00:00,ZJSY 090000Z AUTO 07004KT 7SM 26/23 A2983 RMK T02600230 IEM_DS3505
ZJSY,2006-04-09 01:00,ZJSY 090100Z AUTO 08006KT 7SM 27/23 A2983 RMK T02700230 IEM_DS3505
ZJSY,2006-04-09 02:00,ZJSY 090200Z AUTO 09006KT 7SM 29/24 A2985 RMK T02900240 IEM_DS3505
ZJSY,2006-04-09 03:00,ZJSY 090300Z AUTO 13008KT 7SM 29/23 A2985 RMK T02900230 IEM_DS3505
ZJSY,2006-04-09 04:00,ZJSY 090400Z AUTO 14006KT 7SM 29/23 A2985 RMK T02900230 IEM_DS3505
ZJSY,2006-04-09 05:00,ZJSY 090500Z AUTO 15004KT 7SM 29/24 A2985 RMK T02900240 IEM_DS3505
ZJSY,2006-04-09 06:00,ZJSY 090600Z AUTO 15004KT 7SM 29/24 A2983 RMK T02900240 IEM_DS3505
ZJSY,2006-04-09 07:00,ZJSY 090700Z AUTO 15004KT 7SM 29/23 A2980 RMK T02900230 IEM_DS3505
ZJSY,2006-04-09 08:00,ZJSY 090800Z AUTO 15004KT 7SM 29/24 A2977 RMK T02900240 IEM_DS3505
ZJSY,2006-04-09 09:00,ZJSY 090900Z AUTO 13006KT 7SM 28/23 A2977 RMK T02800230 IEM_DS3505
ZJSY,2006-04-09 10:00,ZJSY 091000Z AUTO 14004KT 7SM 28/23 A2977 RMK T02800230 IEM_DS3505
ZJSY,2006-04-09 11:00,ZJSY 091100Z AUTO 13004KT 7SM 27/24 A2977 RMK T02700240 IEM_DS3505
ZJSY,2006-04-09 12:00,ZJSY 091200Z 12002MPS 100V160 9999 FEW016 27/24 Q1009 NOSIG
ZJSY,2006-04-09 13:00,ZJSY 091300Z AUTO 09004KT 7SM 27/23 A2980 RMK T02700230 IEM_DS3505
ZJSY,2006-04-09 14:00,ZJSY 091400Z AUTO 05004KT 7SM 27/24 A2983 RMK T02700240 IEM_DS3505
ZJSY,2006-04-09 15:00,ZJSY 091500Z AUTO 7SM 26/23 A2983 RMK T02600230 IEM_DS3505
ZJSY,2006-04-09 16:00,ZJSY 091600Z AUTO 36002KT 7SM 26/23 A2985 RMK T02600230 IEM_DS3505
ZJSY,2006-04-09 17:00,ZJSY 091700Z AUTO 07004KT 7SM 26/23 A2983 RMK T02600230 IEM_DS3505
ZJSY,2006-04-09 18:00,ZJSY 091800Z AUTO 7SM 26/23 A2980 RMK T02600230 IEM_DS3505
ZJSY,2006-04-09 19:00,ZJSY 091900Z AUTO 36002KT 7SM 25/23 A2977 RMK T02500230 IEM_DS3505
ZJSY,2006-04-09 20:00,ZJSY 092000Z AUTO 01002KT 25/23 A2977 RMK T02500230 IEM_DS3505
ZJSY,2006-04-09 21:00,ZJSY 092100Z AUTO 26/23 A2977 RMK T02600230 IEM_DS3505
ZJSY,2006-04-09 22:00,ZJSY 092200Z AUTO 7SM 26/24 A2980 RMK T02600240 IEM_DS3505
ZJSY,2006-04-09 23:00,ZJSY 092300Z AUTO 36004KT 7SM 26/24 A2980 RMK T02600240 IEM_DS3505
ZJSY,2006-04-10 00:00,ZJSY 100000Z AUTO 34002KT 7SM 27/24 A2983 RMK T02700240 IEM_DS3505
ZJSY,2006-04-10 01:00,ZJSY 100100Z AUTO 11004KT 7SM 28/24 A2985 RMK T02800240 IEM_DS3505
ZJSY,2006-04-10 02:00,ZJSY 100200Z AUTO 7SM 29/25 A2985 RMK T02900250 IEM_DS3505
ZJSY,2006-04-10 03:00,ZJSY 100300Z AUTO 14004KT 7SM 29/25 A2985 RMK T02900250 IEM_DS3505
ZJSY,2006-04-10 04:00,ZJSY 100400Z AUTO 17004KT 7SM 30/25 A2983 RMK T03000250 IEM_DS3505
ZJSY,2006-04-10 05:00,ZJSY 100500Z AUTO 7SM 30/24 A2980 RMK T03000240 IEM_DS3505
ZJSY,2006-04-10 06:00,ZJSY 100600Z AUTO 19004KT 7SM 30/25 A2977 RMK T03000250 IEM_DS3505
ZJSY,2006-04-10 07:00,ZJSY 100700Z AUTO 14004KT 7SM 29/25 A2974 RMK T02900250 IEM_DS3505
ZJSY,2006-04-10 08:00,ZJSY 100800Z AUTO 16006KT 7SM 29/25 A2971 RMK T02900250 IEM_DS3505
ZJSY,2006-04-10 09:00,ZJSY 100900Z AUTO 19006KT 7SM 28/25 A2971 RMK T02800250 IEM_DS3505
ZJSY,2006-04-10 10:00,ZJSY 101000Z AUTO 18004KT 7SM 28/25 A2971 RMK T02800250 IEM_DS3505
ZJSY,2006-04-10 11:00,ZJSY 101100Z AUTO 12002KT 7SM 27/25 A2971 RMK T02700250 IEM_DS3505
ZJSY,2006-04-10 12:00,ZJSY 101200Z AUTO 7SM 27/25 A2974 RMK T02700250 IEM_DS3505
ZJSY,2006-04-10 13:00,ZJSY 101300Z AUTO 07004KT 7SM 27/24 A2977 RMK T02700240 IEM_DS3505
ZJSY,2006-04-10 14:00,ZJSY 101400Z AUTO 7SM 27/24 A2977 RMK T02700240 IEM_DS3505
ZJSY,2006-04-10 15:00,ZJSY 101500Z AUTO 7SM 27/24 A2980 RMK T02700240 IEM_DS3505
ZJSY,2006-04-10 17:00,ZJSY 101700Z AUTO 35004KT 6SM 26/23 A2977 RMK T02600230 IEM_DS3505
ZJSY,2006-04-10 18:00,ZJSY 101800Z AUTO 36002KT 25/23 A2974 RMK T02500230 IEM_DS3505
ZJSY,2006-04-10 19:00,ZJSY 101900Z AUTO 34004KT 6SM 25/23 A2974 RMK T02500230 IEM_DS3505
ZJSY,2006-04-10 20:00,ZJSY 102000Z AUTO 6SM 25/23 A2974 RMK T02500230 IEM_DS3505
ZJSY,2006-04-10 22:00,ZJSY 102200Z AUTO 7SM 26/24 A2974 RMK T02600240 IEM_DS3505
ZJSY,2006-04-10 23:00,ZJSY 102300Z AUTO 06004KT 7SM 27/24 A2977 RMK T02700240 IEM_DS3505
ZJSY,2006-04-11 00:00,ZJSY 110000Z AUTO 07004KT 7SM 28/24 A2977 RMK T02800240 IEM_DS3505
ZJSY,2006-04-11 01:00,ZJSY 110100Z AUTO 10004KT 7SM 28/24 A2980 RMK T02800240 IEM_DS3505
ZJSY,2006-04-11 02:00,ZJSY 110200Z AUTO 14006KT 7SM 29/25 A2980 RMK T02900250 IEM_DS3505
ZJSY,2006-04-11 03:00,ZJSY 110300Z AUTO 13006KT 7SM 29/25 A2980 RMK T02900250 IEM_DS3505
ZJSY,2006-04-11 04:00,ZJSY 110400Z AUTO 14004KT 7SM 29/25 A2980 RMK T02900250 IEM_DS3505
ZJSY,2006-04-11 05:00,ZJSY 110500Z AUTO 16006KT 7SM 29/25 A2977 RMK T02900250 IEM_DS3505
ZJSY,2006-04-11 06:00,ZJSY 110600Z AUTO 16006KT 7SM 29/25 A2974 RMK T02900250 IEM_DS3505
ZJSY,2006-04-11 07:00,ZJSY 110700Z AUTO 15004KT 7SM 29/25 A2971 RMK T02900250 IEM_DS3505
ZJSY,2006-04-11 08:00,ZJSY 110800Z AUTO 15004KT 7SM 29/25 A2971 RMK T02900250 IEM_DS3505
ZJSY,2006-04-11 09:00,ZJSY 110900Z AUTO 14004KT 7SM 29/25 A2968 RMK T02900250 IEM_DS3505
ZJSY,2006-04-11 10:00,ZJSY 111000Z AUTO 14004KT 7SM 28/25 A2968 RMK T02800250 IEM_DS3505
ZJSY,2006-04-11 11:00,ZJSY 111100Z AUTO 12004KT 7SM 28/25 A2968 RMK T02800250 IEM_DS3505
ZJSY,2006-04-11 12:00,ZJSY 111200Z AUTO 09004KT 7SM 28/24 A2971 RMK T02800240 IEM_DS3505
ZJSY,2006-04-11 13:00,ZJSY 111300Z AUTO 10004KT 7SM 28/24 A2974 RMK T02800240 IEM_DS3505
ZJSY,2006-04-11 14:00,ZJSY 111400Z AUTO 08006KT 7SM 27/24 A2974 RMK T02700240 IEM_DS3505
ZJSY,2006-04-11 15:00,ZJSY 111500Z AUTO 08004KT 7SM 27/24 A2977 RMK T02700240 IEM_DS3505
ZJSY,2006-04-11 16:00,ZJSY 111600Z AUTO 07004KT 7SM 27/24 A2974 RMK T02700240 IEM_DS3505
ZJSY,2006-04-11 17:00,ZJSY 111700Z AUTO 10004KT 7SM 27/24 A2974 RMK T02700240 IEM_DS3505
ZJSY,2006-04-11 18:00,ZJSY 111800Z AUTO 07004KT 27/24 A2971 RMK T02700240 IEM_DS3505
ZJSY,2006-04-11 22:00,ZJSY 112200Z AUTO 09004KT 7SM 27/24 A2968 RMK T02700240 IEM_DS3505
ZJSY,2006-04-11 23:00,ZJSY 112300Z AUTO 08004KT 7SM 27/24 A2971 RMK T02700240 IEM_DS3505
ZJSY,2006-04-12 00:00,ZJSY 120000Z AUTO 07004KT 7SM 28/24 A2974 RMK T02800240 IEM_DS3505
ZJSY,2006-04-12 01:00,ZJSY 120100Z AUTO 09004KT 7SM 28/24 A2977 RMK T02800240 IEM_DS3505
ZJSY,2006-04-12 02:00,ZJSY 120200Z AUTO 11004KT 7SM 28/24 A2977 RMK T02800240 IEM_DS3505
ZJSY,2006-04-12 03:00,ZJSY 120300Z AUTO 12004KT 7SM 29/25 A2980 RMK T02900250 IEM_DS3505
ZJSY,2006-04-12 04:00,ZJSY 120400Z AUTO 15004KT 6SM 30/25 A2977 RMK T03000250 IEM_DS3505
ZJSY,2006-04-12 05:00,ZJSY 120500Z AUTO 16004KT 7SM 30/25 A2974 RMK T03000250 IEM_DS3505
ZJSY,2006-04-12 06:00,ZJSY 120600Z AUTO 16006KT 7SM 30/25 A2971 RMK T03000250 IEM_DS3505
ZJSY,2006-04-12 07:00,ZJSY 120700Z AUTO 15004KT 7SM 29/25 A2968 RMK T02900250 IEM_DS3505
ZJSY,2006-04-12 08:00,ZJSY 120800Z AUTO 14006KT 7SM 29/25 A2965 RMK T02900250 IEM_DS3505
ZJSY,2006-04-12 09:00,ZJSY 120900Z AUTO 15004KT 7SM 29/25 A2962 RMK T02900250 IEM_DS3505
ZJSY,2006-04-12 10:00,ZJSY 121000Z AUTO 13004KT 7SM 28/25 A2962 RMK T02800250 IEM_DS3505
ZJSY,2006-04-12 11:00,ZJSY 121100Z AUTO 14004KT 7SM 28/25 A2965 RMK T02800250 IEM_DS3505
ZJSY,2006-04-12 12:00,ZJSY 121200Z AUTO 12004KT 7SM 28/25 A2965 RMK T02800250 IEM_DS3505
ZJSY,2006-04-12 13:00,ZJSY 121300Z AUTO 11004KT 7SM 27/25 A2968 RMK T02700250 IEM_DS3505
ZJSY,2006-04-12 14:00,ZJSY 121400Z AUTO 06004KT 7SM 27/25 A2971 RMK T02700250 IEM_DS3505
ZJSY,2006-04-12 15:00,ZJSY 121500Z AUTO 05006KT 7SM 27/24 A2974 RMK T02700240 IEM_DS3505
ZJSY,2006-04-12 16:00,ZJSY 121600Z AUTO 05006KT 7SM 27/24 A2974 RMK T02700240 IEM_DS3505
ZJSY,2006-04-12 17:00,ZJSY 121700Z AUTO 7SM 27/24 A2974 RMK T02700240 IEM_DS3505
ZJSY,2006-04-12 18:00,ZJSY 121800Z AUTO 06004KT 27/24 A2971 RMK T02700240 IEM_DS3505
ZJSY,2006-04-12 19:00,ZJSY 121900Z AUTO 08004KT 27/24 A2971 RMK T02700240 IEM_DS3505
ZJSY,2006-04-12 21:00,ZJSY 122100Z AUTO 07006KT 7SM 27/24 A2971 RMK T02700240 IEM_DS3505
ZJSY,2006-04-12 22:00,ZJSY 122200Z AUTO 06006KT 7SM 27/24 A2971 RMK T02700240 IEM_DS3505
ZJSY,2006-04-12 23:00,ZJSY 122300Z AUTO 04006KT 7SM 27/24 A2974 RMK T02700240 IEM_DS3505
ZJSY,2006-04-13 00:00,ZJSY 130000Z AUTO 06006KT 7SM 28/24 A2977 RMK T02800240 IEM_DS3505
ZJSY,2006-04-13 01:00,ZJSY 130100Z AUTO 08008KT 7SM 29/24 A2980 RMK T02900240 IEM_DS3505
ZJSY,2006-04-13 02:00,ZJSY 130200Z AUTO 10006KT 7SM 29/24 A2983 RMK T02900240 IEM_DS3505
ZJSY,2006-04-13 03:00,ZJSY 130300Z AUTO 13006KT 7SM 29/24 A2983 RMK T02900240 IEM_DS3505
ZJSY,2006-04-13 04:00,ZJSY 130400Z AUTO 13004KT 7SM 30/25 A2983 RMK T03000250 IEM_DS3505
ZJSY,2006-04-13 05:00,ZJSY 130500Z AUTO 14006KT 7SM 30/24 A2980 RMK T03000240 IEM_DS3505
ZJSY,2006-04-13 06:00,ZJSY 130600Z AUTO 14006KT 7SM 30/25 A2977 RMK T03000250 IEM_DS3505
ZJSY,2006-04-13 07:00,ZJSY 130700Z 15003MPS 110V180 9999 FEW020 30/25 Q1007 NOSIG
ZJSY,2006-04-13 08:00,ZJSY 130800Z AUTO 14006KT 7SM 30/25 A2974 RMK T03000250 IEM_DS3505
ZJSY,2006-04-13 09:00,ZJSY 130900Z AUTO 14008KT 6SM 29/25 A2974 RMK T02900250 IEM_DS3505
ZJSY,2006-04-13 10:00,ZJSY 131000Z AUTO 13006KT 7SM 29/25 A2974 RMK T02900250 IEM_DS3505
ZJSY,2006-04-13 11:00,ZJSY 131100Z 12003MPS 9999 SCT011 28/25 Q1007 NOSIG
ZJSY,2006-04-13 12:00,ZJSY 131200Z AUTO 12006KT 7SM 28/24 A2980 RMK T02800240 IEM_DS3505
ZJSY,2006-04-13 13:00,ZJSY 131300Z AUTO 11006KT 7SM 28/24 A2980 RMK T02800240 IEM_DS3505
ZJSY,2006-04-13 14:00,ZJSY 131400Z AUTO 08006KT 6SM 28/25 A2983 RMK T02800250 IEM_DS3505
ZJSY,2006-04-13 15:00,ZJSY 131500Z AUTO 09006KT 7SM 28/25 A2985 RMK T02800250 IEM_DS3505
ZJSY,2006-04-13 16:00,ZJSY 131600Z AUTO 08006KT 7SM 28/25 A2988 RMK T02800250 IEM_DS3505
ZJSY,2006-04-13 17:00,ZJSY 131700Z AUTO 09004KT 7SM 28/25 A2988 RMK T02800250 IEM_DS3505
ZJSY,2006-04-13 18:00,ZJSY 131800Z AUTO 12006KT 28/25 A2985 RMK T02800250 IEM_DS3505
ZJSY,2006-04-13 19:00,ZJSY 131900Z AUTO 10004KT 28/24 A2985 RMK T02800240 IEM_DS3505
ZJSY,2006-04-13 20:00,ZJSY 132000Z AUTO 08004KT 27/24 A2985 RMK T02700240 IEM_DS3505
ZJSY,2006-04-13 21:00,ZJSY 132100Z AUTO 27/24 A2985 RMK T02700240 IEM_DS3505
ZJSY,2006-04-13 22:00,ZJSY 132200Z AUTO 12004KT 7SM 27/24 A2985 RMK T02700240 IEM_DS3505
ZJSY,2006-04-13 23:00,ZJSY 132300Z AUTO 09004KT 7SM 27/24 A2988 RMK T02700240 IEM_DS3505
ZJSY,2006-04-14 00:00,ZJSY 140000Z AUTO 08006KT 7SM 27/24 A2991 RMK T02700240 IEM_DS3505
ZJSY,2006-04-14 01:00,ZJSY 140100Z AUTO 06004KT 7SM 28/24 A2994 RMK T02800240 IEM_DS3505
ZJSY,2006-04-14 02:00,ZJSY 140200Z AUTO 12006KT 7SM 29/24 A2994 RMK T02900240 IEM_DS3505
ZJSY,2006-04-14 03:00,ZJSY 140300Z AUTO 14006KT 7SM 30/25 A2994 RMK T03000250 IEM_DS3505
ZJSY,2006-04-14 04:00,ZJSY 140400Z AUTO 15006KT 7SM 30/25 A2991 RMK T03000250 IEM_DS3505
ZJSY,2006-04-14 05:00,ZJSY 140500Z AUTO 16006KT 7SM 30/24 A2991 RMK T03000240 IEM_DS3505
ZJSY,2006-04-14 06:00,ZJSY 140600Z AUTO 15006KT 7SM 29/24 A2988 RMK T02900240 IEM_DS3505
ZJSY,2006-04-14 07:00,ZJSY 140700Z AUTO 16006KT 7SM 29/24 A2985 RMK T02900240 IEM_DS3505
ZJSY,2006-04-14 08:00,ZJSY 140800Z AUTO 16006KT 6SM 29/24 A2983 RMK T02900240 IEM_DS3505
ZJSY,2006-04-14 09:00,ZJSY 140900Z AUTO 14006KT 7SM 29/24 A2983 RMK T02900240 IEM_DS3505
ZJSY,2006-04-14 10:00,ZJSY 141000Z AUTO 14006KT 7SM 28/24 A2983 RMK T02800240 IEM_DS3505
ZJSY,2006-04-14 11:00,ZJSY 141100Z AUTO 15004KT 7SM 28/24 A2983 RMK T02800240 IEM_DS3505
ZJSY,2006-04-14 12:00,ZJSY 141200Z 13002MPS 9999 FEW017 27/24 Q1011 NOSIG
ZJSY,2006-04-14 13:00,ZJSY 141300Z AUTO 10002KT 7SM 27/24 A2991 RMK T02700240 IEM_DS3505
ZJSY,2006-04-14 14:00,ZJSY 141400Z 06003MPS 9999 FEW018 27/24 Q1013 NOSIG
ZJSY,2006-04-14 15:00,ZJSY 141500Z AUTO 08006KT 6SM 26/24 A2994 RMK T02600240 IEM_DS3505
ZJSY,2006-04-14 16:00,ZJSY 141600Z AUTO 08006KT 6SM 25/23 A2994 RMK T02500230 IEM_DS3505
ZJSY,2006-04-14 17:00,ZJSY 141700Z AUTO 06006KT 6SM 25/23 A2991 RMK T02500230 IEM_DS3505
ZJSY,2006-04-14 18:00,ZJSY 141800Z AUTO 25/23 A2991 RMK T02500230 IEM_DS3505
ZJSY,2006-04-14 19:00,ZJSY 141900Z AUTO 08002KT 25/23 A2988 RMK T02500230 IEM_DS3505
ZJSY,2006-04-14 20:00,ZJSY 142000Z AUTO 07002KT 25/22 A2988 RMK T02500220 IEM_DS3505
ZJSY,2006-04-14 21:00,ZJSY 142100Z AUTO 09004KT 25/23 A2988 RMK T02500230 IEM_DS3505
ZJSY,2006-04-14 22:00,ZJSY 142200Z AUTO 06004KT 6SM 24/23 A2991 RMK T02400230 IEM_DS3505
ZJSY,2006-04-14 23:00,ZJSY 142300Z AUTO 06002KT 5SM 25/23 A2994 RMK T02500230 IEM_DS3505
ZJSY,2006-04-15 00:00,ZJSY 150000Z AUTO 00000KT 5SM 25/23 A2997 RMK T02500230 IEM_DS3505
ZJSY,2006-04-15 01:00,ZJSY 150100Z AUTO 11004KT 6SM 27/24 A2997 RMK T02700240 IEM_DS3505
ZJSY,2006-04-15 02:00,ZJSY 150200Z AUTO 7SM 27/23 A2997 RMK T02700230 IEM_DS3505
ZJSY,2006-04-15 03:00,ZJSY 150300Z AUTO 7SM 28/23 A2997 RMK T02800230 IEM_DS3505
ZJSY,2006-04-15 04:00,ZJSY 150400Z AUTO 20004KT 7SM 28/23 A2997 RMK T02800230 IEM_DS3505
ZJSY,2006-04-15 05:00,ZJSY 150500Z AUTO 20004KT 7SM 28/23 A2994 RMK T02800230 IEM_DS3505
ZJSY,2006-04-15 06:00,ZJSY 150600Z AUTO 20008KT 7SM 27/22 A2991 RMK T02700220 IEM_DS3505
ZJSY,2006-04-15 07:00,ZJSY 150700Z AUTO 19008KT 7SM 27/22 A2988 RMK T02700220 IEM_DS3505
ZJSY,2006-04-15 08:00,ZJSY 150800Z AUTO 20006KT 7SM 27/22 A2988 RMK T02700220 IEM_DS3505
ZJSY,2006-04-15 09:00,ZJSY 150900Z AUTO 19006KT 7SM 26/21 A2988 RMK T02600210 IEM_DS3505
ZJSY,2006-04-15 10:00,ZJSY 151000Z AUTO 18006KT 7SM 26/21 A2988 RMK T02600210 IEM_DS3505
ZJSY,2006-04-15 11:00,ZJSY 151100Z AUTO 14004KT 7SM 25/21 A2988 RMK T02500210 IEM_DS3505
ZJSY,2006-04-15 12:00,ZJSY 151200Z AUTO 13004KT 7SM 25/21 A2991 RMK T02500210 IEM_DS3505
ZJSY,2006-04-15 13:00,ZJSY 151300Z AUTO 08006KT 7SM 25/21 A2991 RMK T02500210 IEM_DS3505
ZJSY,2006-04-15 14:00,ZJSY 151400Z AUTO 08008KT 7SM 24/20 A2994 RMK T02400200 IEM_DS3505
ZJSY,2006-04-15 15:00,ZJSY 151500Z AUTO 08006KT 7SM 23/20 A2994 RMK T02300200 IEM_DS3505
ZJSY,2006-04-15 16:00,ZJSY 151600Z AUTO 08006KT 7SM 23/20 A2994 RMK T02300200 IEM_DS3505
ZJSY,2006-04-15 17:00,ZJSY 151700Z AUTO 08006KT 7SM 23/19 A2994 RMK T02300190 IEM_DS3505
ZJSY,2006-04-15 18:00,ZJSY 151800Z AUTO 06004KT 23/19 A2991 RMK T02300190 IEM_DS3505
ZJSY,2006-04-15 19:00,ZJSY 151900Z AUTO 09004KT 23/19 A2991 RMK T02300190 IEM_DS3505
ZJSY,2006-04-15 20:00,ZJSY 152000Z AUTO 08006KT 23/19 A2991 RMK T02300190 IEM_DS3505
ZJSY,2006-04-15 21:00,ZJSY 152100Z AUTO 08008KT 7SM 22/19 A2991 RMK T02200190 IEM_DS3505
ZJSY,2006-04-15 23:00,ZJSY 152300Z AUTO 08006KT 7SM 22/19 A2994 RMK T02200190 IEM_DS3505
ZJSY,2006-04-16 00:00,ZJSY 160000Z AUTO 07008KT 7SM 23/19 A2997 RMK T02300190 IEM_DS3505
ZJSY,2006-04-16 01:00,ZJSY 160100Z AUTO 09004KT 7SM 23/19 A2997 RMK T02300190 IEM_DS3505
ZJSY,2006-04-16 02:00,ZJSY 160200Z AUTO 07004KT 7SM 25/20 A2997 RMK T02500200 IEM_DS3505
ZJSY,2006-04-16 03:00,ZJSY 160300Z AUTO 7SM 26/21 A2997 RMK T02600210 IEM_DS3505
ZJSY,2006-04-16 04:00,ZJSY 160400Z AUTO 21006KT 7SM 26/21 A2997 RMK T02600210 IEM_DS3505
ZJSY,2006-04-16 05:00,ZJSY 160500Z AUTO 21008KT 7SM 27/22 A2994 RMK T02700220 IEM_DS3505
ZJSY,2006-04-16 06:00,ZJSY 160600Z AUTO 23008KT 7SM 26/21 A2991 RMK T02600210 IEM_DS3505
ZJSY,2006-04-16 07:00,ZJSY 160700Z AUTO 21010KT 7SM 27/21 A2988 RMK T02700210 IEM_DS3505
ZJSY,2006-04-16 08:00,ZJSY 160800Z AUTO 20010KT 7SM 26/21 A2988 RMK T02600210 IEM_DS3505
ZJSY,2006-04-16 09:00,ZJSY 160900Z AUTO 20008KT 7SM 25/21 A2988 RMK T02500210 IEM_DS3505
ZJSY,2006-04-16 10:00,ZJSY 161000Z AUTO 20008KT 7SM 24/21 A2988 RMK T02400210 IEM_DS3505
ZJSY,2006-04-16 11:00,ZJSY 161100Z AUTO 20004KT 7SM 25/20 A2988 RMK T02500200 IEM_DS3505
ZJSY,2006-04-16 12:00,ZJSY 161200Z AUTO 07008KT 5SM 23/20 A2991 RMK T02300200 IEM_DS3505
ZJSY,2006-04-16 13:00,ZJSY 161300Z AUTO 08006KT 7SM 23/20 A2991 RMK T02300200 IEM_DS3505
ZJSY,2006-04-16 14:00,ZJSY 161400Z 08003MPS 9999 BKN010 OVC040 23/20 Q1014 NOSIG
ZJSY,2006-04-16 15:00,ZJSY 161500Z AUTO 06006KT 7SM 23/20 A2994 RMK T02300200 IEM_DS3505
ZJSY,2006-04-16 16:00,ZJSY 161600Z AUTO 06008KT 7SM 23/20 A2994 RMK T02300200 IEM_DS3505
ZJSY,2006-04-16 17:00,ZJSY 161700Z 07004MPS 9999 SCT015 OVC040 22/19 Q1013 NOSIG
ZJSY,2006-04-16 18:00,ZJSY 161800Z AUTO 07008KT 7SM 22/18 A2991 RMK T02200180 IEM_DS3505
ZJSY,2006-04-16 19:00,ZJSY 161900Z AUTO 06008KT 7SM 23/18 A2991 RMK T02300180 IEM_DS3505
ZJSY,2006-04-16 20:00,ZJSY 162000Z AUTO 06008KT 7SM 23/18 A2991 RMK T02300180 IEM_DS3505
ZJSY,2006-04-16 21:00,ZJSY 162100Z AUTO 05008KT 7SM 23/18 A2988 RMK T02300180 IEM_DS3505
ZJSY,2006-04-16 22:00,ZJSY 162200Z AUTO 04006KT 7SM 23/18 A2991 RMK T02300180 IEM_DS3505
ZJSY,2006-04-16 23:00,ZJSY 162300Z AUTO 01004KT 4SM 23/18 A2991 RMK T02300180 IEM_DS3505
ZJSY,2006-04-17 00:00,ZJSY 170000Z AUTO 4SM 24/19 A2991 RMK T02400190 IEM_DS3505
ZJSY,2006-04-17 01:00,ZJSY 170100Z AUTO 5SM 26/20 A2994 RMK T02600200 IEM_DS3505
ZJSY,2006-04-17 02:00,ZJSY 170200Z AUTO 04006KT 5SM 28/20 A2994 RMK T02800200 IEM_DS3505
ZJSY,2006-04-17 03:00,ZJSY 170300Z AUTO 15004KT 7SM 28/20 A2991 RMK T02800200 IEM_DS3505
ZJSY,2006-04-17 04:00,ZJSY 170400Z AUTO 20006KT 7SM 28/19 A2991 RMK T02800190 IEM_DS3505
ZJSY,2006-04-17 05:00,ZJSY 170500Z AUTO 21008KT 7SM 28/20 A2988 RMK T02800200 IEM_DS3505
ZJSY,2006-04-17 06:00,ZJSY 170600Z AUTO 23006KT 6SM 27/20 A2988 RMK T02700200 IEM_DS3505
ZJSY,2006-04-17 07:00,ZJSY 170700Z AUTO 24008KT 7SM 27/21 A2985 RMK T02700210 IEM_DS3505
ZJSY,2006-04-17 08:00,ZJSY 170800Z AUTO 24006KT 7SM 27/21 A2985 RMK T02700210 IEM_DS3505
ZJSY,2006-04-17 09:00,ZJSY 170900Z AUTO 22006KT 7SM 27/21 A2983 RMK T02700210 IEM_DS3505
ZJSY,2006-04-17 10:00,ZJSY 171000Z AUTO 19004KT 7SM 26/21 A2983 RMK T02600210 IEM_DS3505
ZJSY,2006-04-17 11:00,ZJSY 171100Z AUTO 16004KT 7SM 26/21 A2985 RMK T02600210 IEM_DS3505
ZJSY,2006-04-17 13:00,ZJSY 171300Z AUTO 06004KT 7SM 26/20 A2988 RMK T02600200 IEM_DS3505
ZJSY,2006-04-17 14:00,ZJSY 171400Z AUTO 08004KT 7SM 25/21 A2988 RMK T02500210 IEM_DS3505
ZJSY,2006-04-17 15:00,ZJSY 171500Z AUTO 05004KT 7SM 25/22 A2991 RMK T02500220 IEM_DS3505
ZJSY,2006-04-17 16:00,ZJSY 171600Z AUTO 06006KT 7SM 24/21 A2988 RMK T02400210 IEM_DS3505
ZJSY,2006-04-17 17:00,ZJSY 171700Z AUTO 06004KT 7SM 24/21 A2988 RMK T02400210 IEM_DS3505
ZJSY,2006-04-17 18:00,ZJSY 171800Z AUTO 23/21 A2985 RMK T02300210 IEM_DS3505
ZJSY,2006-04-17 19:00,ZJSY 171900Z AUTO 06002MPS //// // ////// 24/21 Q1011
ZJSY,2006-04-17 20:00,ZJSY 172000Z AUTO 23/20 A2985 RMK T02300200 IEM_DS3505
ZJSY,2006-04-17 21:00,ZJSY 172100Z AUTO 06004KT 7SM 23/20 A2985 RMK T02300200 IEM_DS3505
ZJSY,2006-04-17 22:00,ZJSY 172200Z AUTO 04002KT 7SM 22/20 A2985 RMK T02200200 IEM_DS3505
ZJSY,2006-04-17 23:00,ZJSY 172300Z AUTO 36002KT 6SM 22/20 A2988 RMK T02200200 IEM_DS3505
ZJSY,2006-04-18 00:00,ZJSY 180000Z AUTO 4SM 26/21 A2991 RMK T02600210 IEM_DS3505
ZJSY,2006-04-18 01:00,ZJSY 180100Z AUTO 08008KT 4SM 27/22 A2991 RMK T02700220 IEM_DS3505
ZJSY,2006-04-18 02:00,ZJSY 180200Z AUTO 08008KT 7SM 29/21 A2994 RMK T02900210 IEM_DS3505
ZJSY,2006-04-18 03:00,ZJSY 180300Z AUTO 10006KT 7SM 29/22 A2994 RMK T02900220 IEM_DS3505
ZJSY,2006-04-18 04:00,ZJSY 180400Z AUTO 16008KT 7SM 29/22 A2991 RMK T02900220 IEM_DS3505
ZJSY,2006-04-18 05:00,ZJSY 180500Z AUTO 14008KT 7SM 29/22 A2991 RMK T02900220 IEM_DS3505
ZJSY,2006-04-18 06:00,ZJSY 180600Z AUTO 15010KT 7SM 29/23 A2988 RMK T02900230 IEM_DS3505
ZJSY,2006-04-18 07:00,ZJSY 180700Z AUTO 15008KT 7SM 29/23 A2988 RMK T02900230 IEM_DS3505
ZJSY,2006-04-18 08:00,ZJSY 180800Z AUTO 14010KT 7SM 29/23 A2985 RMK T02900230 IEM_DS3505
ZJSY,2006-04-18 09:00,ZJSY 180900Z AUTO 13008KT 7SM 29/22 A2985 RMK T02900220 IEM_DS3505
ZJSY,2006-04-18 10:00,ZJSY 181000Z AUTO 12008KT 7SM 28/22 A2985 RMK T02800220 IEM_DS3505
ZJSY,2006-04-18 11:00,ZJSY 181100Z AUTO 09008KT 7SM 28/22 A2985 RMK T02800220 IEM_DS3505
ZJSY,2006-04-18 12:00,ZJSY 181200Z AUTO 07008KT 7SM 26/23 A2988 RMK T02600230 IEM_DS3505
ZJSY,2006-04-18 13:00,ZJSY 181300Z AUTO 07006KT 7SM 26/23 A2991 RMK T02600230 IEM_DS3505
ZJSY,2006-04-18 14:00,ZJSY 181400Z AUTO 05008KT 7SM 26/22 A2991 RMK T02600220 IEM_DS3505
ZJSY,2006-04-18 16:00,ZJSY 181600Z AUTO 05004KT 7SM 26/22 A2994 RMK T02600220 IEM_DS3505
ZJSY,2006-04-18 17:00,ZJSY 181700Z AUTO 06006KT 7SM 25/22 A2991 RMK T02500220 IEM_DS3505
ZJSY,2006-04-18 18:00,ZJSY 181800Z AUTO 07004KT 25/22 A2991 RMK T02500220 IEM_DS3505
ZJSY,2006-04-18 19:00,ZJSY 181900Z AUTO 25/21 A2991 RMK T02500210 IEM_DS3505
ZJSY,2006-04-18 20:00,ZJSY 182000Z AUTO 01004KT 25/22 A2991 RMK T02500220 IEM_DS3505
ZJSY,2006-04-18 21:00,ZJSY 182100Z AUTO 35002KT 24/21 A2991 RMK T02400210 IEM_DS3505
ZJSY,2006-04-19 00:00,ZJSY 190000Z AUTO 00000KT 6SM 27/23 A2994 RMK T02700230 IEM_DS3505
ZJSY,2006-04-19 01:00,ZJSY 190100Z AUTO 09004KT 6SM 29/22 A2997 RMK T02900220 IEM_DS3505
ZJSY,2006-04-19 02:00,ZJSY 190200Z AUTO 10006KT 6SM 30/22 A2997 RMK T03000220 IEM_DS3505
ZJSY,2006-04-19 03:00,ZJSY 190300Z AUTO 12008KT 6SM 30/22 A2994 RMK T03000220 IEM_DS3505
ZJSY,2006-04-19 04:00,ZJSY 190400Z AUTO 17008KT 7SM 30/23 A2994 RMK T03000230 IEM_DS3505
ZJSY,2006-04-19 05:00,ZJSY 190500Z AUTO 16008KT 7SM 31/23 A2991 RMK T03100230 IEM_DS3505
ZJSY,2006-04-19 06:00,ZJSY 190600Z AUTO 16010KT 7SM 30/24 A2988 RMK T03000240 IEM_DS3505
ZJSY,2006-04-19 07:00,ZJSY 190700Z AUTO 15008KT 7SM 29/23 A2988 RMK T02900230 IEM_DS3505
ZJSY,2006-04-19 08:00,ZJSY 190800Z AUTO 15006KT 7SM 28/23 A2985 RMK T02800230 IEM_DS3505
ZJSY,2006-04-19 09:00,ZJSY 190900Z AUTO 15008KT 7SM 28/23 A2985 RMK T02800230 IEM_DS3505
ZJSY,2006-04-19 10:00,ZJSY 191000Z AUTO 12006KT 7SM 28/23 A2988 RMK T02800230 IEM_DS3505
ZJSY,2006-04-19 11:00,ZJSY 191100Z AUTO 08008KT 7SM 27/22 A2988 RMK T02700220 IEM_DS3505
ZJSY,2006-04-19 12:00,ZJSY 191200Z AUTO 08008KT 7SM 27/22 A2991 RMK T02700220 IEM_DS3505
ZJSY,2006-04-19 13:00,ZJSY 191300Z AUTO 08004KT 7SM 26/22 A2994 RMK T02600220 IEM_DS3505
ZJSY,2006-04-19 14:00,ZJSY 191400Z AUTO 06004KT 6SM 26/22 A2994 RMK T02600220 IEM_DS3505
ZJSY,2006-04-19 15:00,ZJSY 191500Z AUTO 08004KT 6SM 26/22 A2997 RMK T02600220 IEM_DS3505
ZJSY,2006-04-19 16:00,ZJSY 191600Z AUTO 00000KT 6SM 25/22 A2997 RMK T02500220 IEM_DS3505
ZJSY,2006-04-19 17:00,ZJSY 191700Z AUTO 34004KT 6SM 24/22 A2994 RMK T02400220 IEM_DS3505
ZJSY,2006-04-19 18:00,ZJSY 191800Z AUTO 10002KT 24/22 A2991 RMK T02400220 IEM_DS3505
ZJSY,2006-04-19 19:00,ZJSY 191900Z AUTO 00000KT 24/21 A2991 RMK T02400210 IEM_DS3505
ZJSY,2006-04-19 20:00,ZJSY 192000Z AUTO 00000KT 23/21 A2991 RMK T02300210 IEM_DS3505
ZJSY,2006-04-19 21:00,ZJSY 192100Z AUTO 00000KT 6SM 24/21 A2991 RMK T02400210 IEM_DS3505
ZJSY,2006-04-19 22:00,ZJSY 192200Z AUTO 34004KT 6SM 23/21 A2991 RMK T02300210 IEM_DS3505
ZJSY,2006-04-19 23:00,ZJSY 192300Z AUTO 00000KT 6SM 24/21 A2991 RMK T02400210 IEM_DS3505
ZJSY,2006-04-20 00:00,ZJSY 200000Z AUTO 06004KT 6SM 27/21 A2994 RMK T02700210 IEM_DS3505
ZJSY,2006-04-20 01:00,ZJSY 200100Z AUTO 10006KT 6SM 28/22 A2994 RMK T02800220 IEM_DS3505
ZJSY,2006-04-20 02:00,ZJSY 200200Z AUTO 10006KT 6SM 29/22 A2997 RMK T02900220 IEM_DS3505
ZJSY,2006-04-20 03:00,ZJSY 200300Z AUTO 16006KT 7SM 29/22 A2994 RMK T02900220 IEM_DS3505
ZJSY,2006-04-20 04:00,ZJSY 200400Z AUTO 16006KT 7SM 30/23 A2994 RMK T03000230 IEM_DS3505
ZJSY,2006-04-20 05:00,ZJSY 200500Z AUTO 18006KT 7SM 30/24 A2991 RMK T03000240 IEM_DS3505
ZJSY,2006-04-20 06:00,ZJSY 200600Z AUTO 17008KT 7SM 29/24 A2988 RMK T02900240 IEM_DS3505
ZJSY,2006-04-20 07:00,ZJSY 200700Z AUTO 16008KT 7SM 29/24 A2985 RMK T02900240 IEM_DS3505
ZJSY,2006-04-20 08:00,ZJSY 200800Z AUTO 16006KT 7SM 28/23 A2985 RMK T02800230 IEM_DS3505
ZJSY,2006-04-20 09:00,ZJSY 200900Z AUTO 16008KT 7SM 28/24 A2985 RMK T02800240 IEM_DS3505
ZJSY,2006-04-20 11:00,ZJSY 201100Z AUTO 16004KT 7SM 27/24 A2985 RMK T02700240 IEM_DS3505
ZJSY,2006-04-20 12:00,ZJSY 201200Z VRB01MPS 9999 SCT020 SCT033 27/23 Q1012 NOSIG
ZJSY,2006-04-20 13:00,ZJSY 201300Z AUTO 11002KT 7SM 27/23 A2988 RMK T02700230 IEM_DS3505
ZJSY,2006-04-20 14:00,ZJSY 201400Z AUTO 08006KT 7SM 26/23 A2988 RMK T02600230 IEM_DS3505
ZJSY,2006-04-20 15:00,ZJSY 201500Z AUTO 07006KT 6SM 26/23 A2988 RMK T02600230 IEM_DS3505
ZJSY,2006-04-20 16:00,ZJSY 201600Z AUTO 07004KT 6SM 25/23 A2988 RMK T02500230 IEM_DS3505
ZJSY,2006-04-20 17:00,ZJSY 201700Z AUTO 06006KT 6SM 26/23 A2985 RMK T02600230 IEM_DS3505
ZJSY,2006-04-20 18:00,ZJSY 201800Z AUTO 08004KT 6SM 25/23 A2985 RMK T02500230 IEM_DS3505
ZJSY,2006-04-20 19:00,ZJSY 201900Z AUTO 06004KT 25/22 A2983 RMK T02500220 IEM_DS3505
ZJSY,2006-04-20 20:00,ZJSY 202000Z AUTO 07004KT 25/22 A2983 RMK T02500220 IEM_DS3505
ZJSY,2006-04-20 21:00,ZJSY 202100Z AUTO 07004KT 25/22 A2983 RMK T02500220 IEM_DS3505
ZJSY,2006-04-20 22:00,ZJSY 202200Z AUTO 00000KT 7SM 25/22 A2983 RMK T02500220 IEM_DS3505
ZJSY,2006-04-20 23:00,ZJSY 202300Z AUTO 06004KT 7SM 25/23 A2985 RMK T02500230 IEM_DS3505
ZJSY,2006-04-21 00:00,ZJSY 210000Z AUTO 08006KT 7SM 27/23 A2988 RMK T02700230 IEM_DS3505
ZJSY,2006-04-21 01:00,ZJSY 210100Z AUTO 10004KT 7SM 28/23 A2988 RMK T02800230 IEM_DS3505
ZJSY,2006-04-21 02:00,ZJSY 210200Z AUTO 15006KT 7SM 29/23 A2988 RMK T02900230 IEM_DS3505
ZJSY,2006-04-21 03:00,ZJSY 210300Z AUTO 16006KT 7SM 29/23 A2988 RMK T02900230 IEM_DS3505
ZJSY,2006-04-21 04:00,ZJSY 210400Z AUTO 15008KT 7SM 29/23 A2985 RMK T02900230 IEM_DS3505
ZJSY,2006-04-21 05:00,ZJSY 210500Z AUTO 16008KT 7SM 30/23 A2983 RMK T03000230 IEM_DS3505
ZJSY,2006-04-21 06:00,ZJSY 210600Z AUTO 16008KT 7SM 29/23 A2980 RMK T02900230 IEM_DS3505
ZJSY,2006-04-21 07:00,ZJSY 210700Z AUTO 16008KT 6SM 29/24 A2980 RMK T02900240 IEM_DS3505
ZJSY,2006-04-21 08:00,ZJSY 210800Z AUTO 15006KT 6SM 29/24 A2977 RMK T02900240 IEM_DS3505
ZJSY,2006-04-21 09:00,ZJSY 210900Z 15003MPS 120V190 CAVOK 29/23 Q1008 NOSIG
ZJSY,2006-04-21 10:00,ZJSY 211000Z AUTO 14004KT 6SM 28/23 A2977 RMK T02800230 IEM_DS3505
ZJSY,2006-04-21 12:00,ZJSY 211200Z 13003MPS CAVOK 27/22 Q1009 NOSIG
ZJSY,2006-04-21 13:00,ZJSY 211300Z AUTO 07006KT 6SM 26/23 A2980 RMK T02600230 IEM_DS3505
ZJSY,2006-04-21 14:00,ZJSY 211400Z AUTO 05006KT 6SM 26/22 A2983 RMK T02600220 IEM_DS3505
ZJSY,2006-04-21 15:00,ZJSY 211500Z AUTO 07004KT 6SM 25/21 A2983 RMK T02500210 IEM_DS3505
ZJSY,2006-04-21 16:00,ZJSY 211600Z AUTO 07006KT 6SM 24/21 A2980 RMK T02400210 IEM_DS3505
ZJSY,2006-04-21 17:00,ZJSY 211700Z 05002MPS 010V090 9999 FEW015 25/22 Q1009 NOSIG
ZJSY,2006-04-21 18:00,ZJSY 211800Z AUTO 7SM 25/22 A2977 RMK T02500220 IEM_DS3505
ZJSY,2006-04-21 19:00,ZJSY 211900Z AUTO 24/22 A2977 RMK T02400220 IEM_DS3505
ZJSY,2006-04-21 20:00,ZJSY 212000Z AUTO 24/22 A2977 RMK T02400220 IEM_DS3505
ZJSY,2006-04-21 21:00,ZJSY 212100Z AUTO 7SM 24/22 A2977 RMK T02400220 IEM_DS3505
ZJSY,2006-04-21 22:00,ZJSY 212200Z AUTO 7SM 25/22 A2980 RMK T02500220 IEM_DS3505
ZJSY,2006-04-21 23:00,ZJSY 212300Z AUTO 7SM 25/22 A2980 RMK T02500220 IEM_DS3505
ZJSY,2006-04-22 00:00,ZJSY 220000Z AUTO 7SM 27/23 A2983 RMK T02700230 IEM_DS3505
ZJSY,2006-04-22 03:00,ZJSY 220300Z AUTO 11004KT 7SM 30/23 A2983 RMK T03000230 IEM_DS3505
ZJSY,2006-04-22 04:00,ZJSY 220400Z AUTO 11006KT 7SM 30/23 A2980 RMK T03000230 IEM_DS3505
ZJSY,2006-04-22 05:00,ZJSY 220500Z AUTO 7SM 30/24 A2977 RMK T03000240 IEM_DS3505
ZJSY,2006-04-22 06:00,ZJSY 220600Z AUTO 12004KT 7SM 30/23 A2974 RMK T03000230 IEM_DS3505
ZJSY,2006-04-22 07:00,ZJSY 220700Z AUTO 17004KT 7SM 30/23 A2974 RMK T03000230 IEM_DS3505
ZJSY,2006-04-22 08:00,ZJSY 220800Z AUTO 14004KT 7SM 29/24 A2971 RMK T02900240 IEM_DS3505
ZJSY,2006-04-22 09:00,ZJSY 220900Z AUTO 14006KT 6SM 29/23 A2971 RMK T02900230 IEM_DS3505
ZJSY,2006-04-22 11:00,ZJSY 221100Z AUTO 12004KT 7SM 28/23 A2971 RMK T02800230 IEM_DS3505
ZJSY,2006-04-22 12:00,ZJSY 221200Z AUTO 10004KT 7SM 28/23 A2974 RMK T02800230 IEM_DS3505
ZJSY,2006-04-22 13:00,ZJSY 221300Z AUTO 06006KT 7SM 27/23 A2977 RMK T02700230 IEM_DS3505
ZJSY,2006-04-22 14:00,ZJSY 221400Z AUTO 05006KT 6SM 27/23 A2977 RMK T02700230 IEM_DS3505
ZJSY,2006-04-22 15:00,ZJSY 221500Z AUTO 02004KT 7SM 27/23 A2977 RMK T02700230 IEM_DS3505
ZJSY,2006-04-22 16:00,ZJSY 221600Z AUTO 7SM 26/22 A2977 RMK T02600220 IEM_DS3505
ZJSY,2006-04-22 17:00,ZJSY 221700Z AUTO 7SM 26/23 A2977 RMK T02600230 IEM_DS3505
ZJSY,2006-04-22 18:00,ZJSY 221800Z AUTO 7SM 26/23 A2974 RMK T02600230 IEM_DS3505
ZJSY,2006-04-22 19:00,ZJSY 221900Z AUTO 06004KT 7SM 27/23 A2974 RMK T02700230 IEM_DS3505
ZJSY,2006-04-22 20:00,ZJSY 222000Z AUTO 06004KT 26/24 A2974 RMK T02600240 IEM_DS3505
ZJSY,2006-04-22 21:00,ZJSY 222100Z AUTO 7SM 26/23 A2974 RMK T02600230 IEM_DS3505
ZJSY,2006-04-22 22:00,ZJSY 222200Z AUTO 00000KT 7SM 26/23 A2977 RMK T02600230 IEM_DS3505
ZJSY,2006-04-22 23:00,ZJSY 222300Z AUTO 7SM 26/24 A2977 RMK T02600240 IEM_DS3505
ZJSY,2006-04-23 01:00,ZJSY 230100Z AUTO 11004KT 7SM 29/24 A2983 RMK T02900240 IEM_DS3505
ZJSY,2006-04-23 02:00,ZJSY 230200Z AUTO 11006KT 7SM 30/24 A2983 RMK T03000240 IEM_DS3505
ZJSY,2006-04-23 03:00,ZJSY 230300Z AUTO 16004KT 7SM 30/24 A2983 RMK T03000240 IEM_DS3505
ZJSY,2006-04-23 04:00,ZJSY 230400Z AUTO 17006KT 7SM 30/23 A2983 RMK T03000230 IEM_DS3505
ZJSY,2006-04-23 05:00,ZJSY 230500Z AUTO 15006KT 6SM 31/24 A2980 RMK T03100240 IEM_DS3505
ZJSY,2006-04-23 06:00,ZJSY 230600Z AUTO 16008KT 6SM 30/24 A2977 RMK T03000240 IEM_DS3505
ZJSY,2006-04-23 07:00,ZJSY 230700Z AUTO 16006KT 6SM 30/24 A2974 RMK T03000240 IEM_DS3505
ZJSY,2006-04-23 08:00,ZJSY 230800Z AUTO 14008KT 6SM 30/25 A2974 RMK T03000250 IEM_DS3505
ZJSY,2006-04-23 09:00,ZJSY 230900Z AUTO 15006KT 7SM 29/24 A2974 RMK T02900240 IEM_DS3505
ZJSY,2006-04-23 10:00,ZJSY 231000Z AUTO 14006KT 6SM 29/24 A2971 RMK T02900240 IEM_DS3505
ZJSY,2006-04-23 11:00,ZJSY 231100Z AUTO 13004KT 6SM 28/24 A2974 RMK T02800240 IEM_DS3505
ZJSY,2006-04-23 12:00,ZJSY 231200Z AUTO 11004KT 6SM 28/24 A2977 RMK T02800240 IEM_DS3505
ZJSY,2006-04-23 13:00,ZJSY 231300Z AUTO 08006KT 6SM 27/24 A2977 RMK T02700240 IEM_DS3505
ZJSY,2006-04-23 14:00,ZJSY 231400Z AUTO 08006KT 6SM 27/23 A2980 RMK T02700230 IEM_DS3505
ZJSY,2006-04-23 15:00,ZJSY 231500Z AUTO 07006KT 6SM 26/23 A2980 RMK T02600230 IEM_DS3505
ZJSY,2006-04-23 16:00,ZJSY 231600Z AUTO 07006KT 6SM 26/23 A2980 RMK T02600230 IEM_DS3505
ZJSY,2006-04-23 17:00,ZJSY 231700Z 06003MPS 9999 FEW015 26/23 Q1009 NOSIG
ZJSY,2006-04-23 18:00,ZJSY 231800Z AUTO 06004KT 26/23 A2980 RMK T02600230 IEM_DS3505
ZJSY,2006-04-23 19:00,ZJSY 231900Z AUTO 06006KT 26/22 A2977 RMK T02600220 IEM_DS3505
ZJSY,2006-04-23 20:00,ZJSY 232000Z AUTO 08006KT 26/23 A2977 RMK T02600230 IEM_DS3505
ZJSY,2006-04-23 21:00,ZJSY 232100Z AUTO 06004KT 7SM 26/22 A2980 RMK T02600220 IEM_DS3505
ZJSY,2006-04-23 22:00,ZJSY 232200Z AUTO 06006KT 7SM 26/23 A2980 RMK T02600230 IEM_DS3505
ZJSY,2006-04-23 23:00,ZJSY 232300Z AUTO 08006KT 7SM 26/23 A2983 RMK T02600230 IEM_DS3505
ZJSY,2006-04-24 00:00,ZJSY 240000Z AUTO 06006KT 7SM 28/23 A2985 RMK T02800230 IEM_DS3505
ZJSY,2006-04-24 01:00,ZJSY 240100Z AUTO 10006KT 7SM 29/23 A2985 RMK T02900230 IEM_DS3505
ZJSY,2006-04-24 02:00,ZJSY 240200Z AUTO 13008KT 7SM 30/23 A2988 RMK T03000230 IEM_DS3505
ZJSY,2006-04-24 03:00,ZJSY 240300Z AUTO 14006KT 7SM 30/23 A2988 RMK T03000230 IEM_DS3505
ZJSY,2006-04-24 04:00,ZJSY 240400Z AUTO 14006KT 7SM 31/22 A2985 RMK T03100220 IEM_DS3505
ZJSY,2006-04-24 05:00,ZJSY 240500Z AUTO 15006KT 7SM 30/23 A2985 RMK T03000230 IEM_DS3505
ZJSY,2006-04-24 06:00,ZJSY 240600Z AUTO 16004KT 7SM 30/23 A2983 RMK T03000230 IEM_DS3505
ZJSY,2006-04-24 07:00,ZJSY 240700Z AUTO 7SM 31/23 A2980 RMK T03100230 IEM_DS3505
ZJSY,2006-04-24 08:00,ZJSY 240800Z AUTO 15006KT 7SM 30/23 A2977 RMK T03000230 IEM_DS3505
ZJSY,2006-04-24 09:00,ZJSY 240900Z AUTO 13006KT 7SM 30/23 A2977 RMK T03000230 IEM_DS3505
ZJSY,2006-04-24 10:00,ZJSY 241000Z AUTO 13004KT 6SM 29/24 A2977 RMK T02900240 IEM_DS3505
ZJSY,2006-04-24 12:00,ZJSY 241200Z AUTO 12004KT 6SM 28/23 A2980 RMK T02800230 IEM_DS3505
ZJSY,2006-04-24 13:00,ZJSY 241300Z AUTO 07006KT 7SM 27/23 A2980 RMK T02700230 IEM_DS3505
ZJSY,2006-04-24 14:00,ZJSY 241400Z AUTO 06006KT 7SM 28/23 A2983 RMK T02800230 IEM_DS3505
ZJSY,2006-04-24 15:00,ZJSY 241500Z AUTO 07006KT 7SM 27/23 A2983 RMK T02700230 IEM_DS3505
ZJSY,2006-04-24 16:00,ZJSY 241600Z AUTO 08006KT 6SM 26/23 A2983 RMK T02600230 IEM_DS3505
ZJSY,2006-04-24 17:00,ZJSY 241700Z AUTO 05004KT 6SM 27/23 A2983 RMK T02700230 IEM_DS3505
ZJSY,2006-04-24 18:00,ZJSY 241800Z AUTO 07004KT 6SM 27/23 A2980 RMK T02700230 IEM_DS3505
ZJSY,2006-04-24 20:00,ZJSY 242000Z AUTO 05004KT 6SM 26/23 A2977 RMK T02600230 IEM_DS3505
ZJSY,2006-04-24 21:00,ZJSY 242100Z AUTO 6SM 26/23 A2977 RMK T02600230 IEM_DS3505
ZJSY,2006-04-24 22:00,ZJSY 242200Z 07002MPS 9999 SCT017 26/23 Q1009 NOSIG
ZJSY,2006-04-24 23:00,ZJSY 242300Z AUTO 06002KT 7SM 26/23 A2980 RMK T02600230 IEM_DS3505
ZJSY,2006-04-25 00:00,ZJSY 250000Z AUTO 10004KT 7SM 28/24 A2983 RMK T02800240 IEM_DS3505
ZJSY,2006-04-25 01:00,ZJSY 250100Z AUTO 13006KT 7SM 29/24 A2985 RMK T02900240 IEM_DS3505
ZJSY,2006-04-25 02:00,ZJSY 250200Z AUTO 13006KT 7SM 30/25 A2985 RMK T03000250 IEM_DS3505
ZJSY,2006-04-25 03:00,ZJSY 250300Z AUTO 15006KT 7SM 30/25 A2985 RMK T03000250 IEM_DS3505
ZJSY,2006-04-25 04:00,ZJSY 250400Z AUTO 13006KT 7SM 30/25 A2983 RMK T03000250 IEM_DS3505
ZJSY,2006-04-25 05:00,ZJSY 250500Z AUTO 15006KT 7SM 30/25 A2983 RMK T03000250 IEM_DS3505
ZJSY,2006-04-25 06:00,ZJSY 250600Z AUTO 16006KT 7SM 30/25 A2980 RMK T03000250 IEM_DS3505
ZJSY,2006-04-25 07:00,ZJSY 250700Z AUTO 16006KT 7SM 30/24 A2977 RMK T03000240 IEM_DS3505
ZJSY,2006-04-25 08:00,ZJSY 250800Z AUTO 15006KT 7SM 30/25 A2977 RMK T03000250 IEM_DS3505
ZJSY,2006-04-25 09:00,ZJSY 250900Z AUTO 14006KT 7SM 29/24 A2974 RMK T02900240 IEM_DS3505
ZJSY,2006-04-25 10:00,ZJSY 251000Z AUTO 14006KT 7SM 29/24 A2974 RMK T02900240 IEM_DS3505
ZJSY,2006-04-25 11:00,ZJSY 251100Z AUTO 13006KT 6SM 28/24 A2977 RMK T02800240 IEM_DS3505
ZJSY,2006-04-25 12:00,ZJSY 251200Z AUTO 12004KT 7SM 28/24 A2977 RMK T02800240 IEM_DS3505
ZJSY,2006-04-25 13:00,ZJSY 251300Z AUTO 07006KT 6SM 27/24 A2980 RMK T02700240 IEM_DS3505
ZJSY,2006-04-25 14:00,ZJSY 251400Z 07003MPS CAVOK 27/23 Q1009 NOSIG
ZJSY,2006-04-25 15:00,ZJSY 251500Z 08003MPS CAVOK 27/23 Q1010 NOSIG
ZJSY,2006-04-25 17:00,ZJSY 251700Z AUTO 08004KT 7SM 26/23 A2980 RMK T02600230 IEM_DS3505
ZJSY,2006-04-25 18:00,ZJSY 251800Z AUTO 07004KT 6SM 26/23 A2980 RMK T02600230 IEM_DS3505
ZJSY,2006-04-25 19:00,ZJSY 251900Z AUTO 07002KT 26/23 A2977 RMK T02600230 IEM_DS3505
ZJSY,2006-04-25 20:00,ZJSY 252000Z AUTO 05004KT 26/23 A2977 RMK T02600230 IEM_DS3505
ZJSY,2006-04-25 21:00,ZJSY 252100Z AUTO 06006KT 6SM 26/23 A2977 RMK T02600230 IEM_DS3505
ZJSY,2006-04-25 22:00,ZJSY 252200Z AUTO 08004KT 6SM 26/23 A2977 RMK T02600230 IEM_DS3505
ZJSY,2006-04-25 23:00,ZJSY 252300Z AUTO 05006KT 7SM 27/23 A2980 RMK T02700230 IEM_DS3505
ZJSY,2006-04-26 00:00,ZJSY 260000Z AUTO 08004KT 7SM 28/24 A2983 RMK T02800240 IEM_DS3505
ZJSY,2006-04-26 01:00,ZJSY 260100Z AUTO 12006KT 7SM 29/24 A2983 RMK T02900240 IEM_DS3505
ZJSY,2006-04-26 02:00,ZJSY 260200Z AUTO 16006KT 7SM 29/23 A2985 RMK T02900230 IEM_DS3505
ZJSY,2006-04-26 03:00,ZJSY 260300Z AUTO 13004KT 7SM 30/23 A2985 RMK T03000230 IEM_DS3505
ZJSY,2006-04-26 04:00,ZJSY 260400Z AUTO 16004KT 7SM 30/24 A2983 RMK T03000240 IEM_DS3505
ZJSY,2006-04-26 05:00,ZJSY 260500Z AUTO 14006KT 7SM 30/24 A2980 RMK T03000240 IEM_DS3505
ZJSY,2006-04-26 06:00,ZJSY 260600Z AUTO 18004KT 7SM 30/23 A2977 RMK T03000230 IEM_DS3505
ZJSY,2006-04-26 07:00,ZJSY 260700Z AUTO 17006KT 7SM 30/23 A2974 RMK T03000230 IEM_DS3505
ZJSY,2006-04-26 08:00,ZJSY 260800Z AUTO 12006KT 7SM 30/23 A2974 RMK T03000230 IEM_DS3505
ZJSY,2006-04-26 09:00,ZJSY 260900Z AUTO 15004KT 7SM 30/24 A2971 RMK T03000240 IEM_DS3505
ZJSY,2006-04-26 10:00,ZJSY 261000Z AUTO 12006KT 7SM 29/23 A2971 RMK T02900230 IEM_DS3505
ZJSY,2006-04-26 11:00,ZJSY 261100Z AUTO 13004KT 7SM 28/23 A2974 RMK T02800230 IEM_DS3505
ZJSY,2006-04-26 12:00,ZJSY 261200Z AUTO 13006KT 7SM 28/23 A2977 RMK T02800230 IEM_DS3505
ZJSY,2006-04-26 13:00,ZJSY 261300Z AUTO 06006KT 7SM 28/23 A2980 RMK T02800230 IEM_DS3505
ZJSY,2006-04-26 14:00,ZJSY 261400Z AUTO 07006KT 7SM 27/23 A2980 RMK T02700230 IEM_DS3505
ZJSY,2006-04-26 15:00,ZJSY 261500Z AUTO 6SM 27/22 A2983 RMK T02700220 IEM_DS3505
ZJSY,2006-04-26 16:00,ZJSY 261600Z AUTO 08004KT 6SM 26/22 A2983 RMK T02600220 IEM_DS3505
ZJSY,2006-04-26 17:00,ZJSY 261700Z AUTO 05006KT 6SM 27/23 A2980 RMK T02700230 IEM_DS3505
ZJSY,2006-04-26 18:00,ZJSY 261800Z AUTO 00000KT 6SM 26/23 A2977 RMK T02600230 IEM_DS3505
ZJSY,2006-04-26 19:00,ZJSY 261900Z AUTO 26/23 A2977 RMK T02600230 IEM_DS3505
ZJSY,2006-04-26 20:00,ZJSY 262000Z AUTO 27/23 A2977 RMK T02700230 IEM_DS3505
ZJSY,2006-04-26 21:00,ZJSY 262100Z AUTO 00000KT 7SM 27/24 A2977 RMK T02700240 IEM_DS3505
ZJSY,2006-04-26 22:00,ZJSY 262200Z AUTO 35002KT 7SM 26/24 A2977 RMK T02600240 IEM_DS3505
ZJSY,2006-04-26 23:00,ZJSY 262300Z AUTO 08004KT 7SM 27/24 A2980 RMK T02700240 IEM_DS3505
ZJSY,2006-04-27 00:00,ZJSY 270000Z AUTO 12004KT 7SM 28/24 A2983 RMK T02800240 IEM_DS3505
ZJSY,2006-04-27 01:00,ZJSY 270100Z AUTO 12004KT 7SM 29/24 A2983 RMK T02900240 IEM_DS3505
ZJSY,2006-04-27 03:00,ZJSY 270300Z AUTO 14004KT 7SM 30/24 A2985 RMK T03000240 IEM_DS3505
ZJSY,2006-04-27 04:00,ZJSY 270400Z AUTO 15006KT 7SM 30/24 A2983 RMK T03000240 IEM_DS3505
ZJSY,2006-04-27 05:00,ZJSY 270500Z AUTO 7SM 31/24 A2983 RMK T03100240 IEM_DS3505
ZJSY,2006-04-27 06:00,ZJSY 270600Z AUTO 13004KT 7SM 30/24 A2980 RMK T03000240 IEM_DS3505
ZJSY,2006-04-27 07:00,ZJSY 270700Z AUTO 18004KT 7SM 30/24 A2977 RMK T03000240 IEM_DS3505
ZJSY,2006-04-27 08:00,ZJSY 270800Z AUTO 16004KT 7SM 30/24 A2974 RMK T03000240 IEM_DS3505
ZJSY,2006-04-27 09:00,ZJSY 270900Z AUTO 13004KT 6SM 29/24 A2971 RMK T02900240 IEM_DS3505
ZJSY,2006-04-27 10:00,ZJSY 271000Z AUTO 14004KT 6SM 29/24 A2971 RMK T02900240 IEM_DS3505
ZJSY,2006-04-27 11:00,ZJSY 271100Z AUTO 11004KT 6SM 28/24 A2974 RMK T02800240 IEM_DS3505
ZJSY,2006-04-27 12:00,ZJSY 271200Z AUTO 11004KT 6SM 28/24 A2974 RMK T02800240 IEM_DS3505
ZJSY,2006-04-27 13:00,ZJSY 271300Z AUTO 08006KT 6SM 28/24 A2977 RMK T02800240 IEM_DS3505
ZJSY,2006-04-27 14:00,ZJSY 271400Z AUTO 06006KT 6SM 28/24 A2980 RMK T02800240 IEM_DS3505
ZJSY,2006-04-27 15:00,ZJSY 271500Z AUTO 08004KT 7SM 27/23 A2980 RMK T02700230 IEM_DS3505
ZJSY,2006-04-27 16:00,ZJSY 271600Z AUTO 7SM 27/24 A2980 RMK T02700240 IEM_DS3505
ZJSY,2006-04-27 17:00,ZJSY 271700Z AUTO 07004KT 6SM 27/24 A2980 RMK T02700240 IEM_DS3505
ZJSY,2006-04-27 18:00,ZJSY 271800Z AUTO 07004KT 27/24 A2980 RMK T02700240 IEM_DS3505
ZJSY,2006-04-27 19:00,ZJSY 271900Z AUTO 08004KT 27/24 A2977 RMK T02700240 IEM_DS3505
ZJSY,2006-04-27 20:00,ZJSY 272000Z AUTO 27/24 A2977 RMK T02700240 IEM_DS3505
ZJSY,2006-04-27 21:00,ZJSY 272100Z AUTO 08004KT 7SM 27/24 A2977 RMK T02700240 IEM_DS3505
ZJSY,2006-04-27 23:00,ZJSY 272300Z AUTO 08002KT 7SM 27/24 A2977 RMK T02700240 IEM_DS3505
ZJSY,2006-04-28 00:00,ZJSY 280000Z AUTO 7SM 28/25 A2980 RMK T02800250 IEM_DS3505
ZJSY,2006-04-28 01:00,ZJSY 280100Z AUTO 7SM 30/24 A2983 RMK T03000240 IEM_DS3505
ZJSY,2006-04-28 02:00,ZJSY 280200Z AUTO 14004KT 7SM 30/24 A2983 RMK T03000240 IEM_DS3505
ZJSY,2006-04-28 03:00,ZJSY 280300Z AUTO 10004KT 7SM 30/24 A2983 RMK T03000240 IEM_DS3505
ZJSY,2006-04-28 04:00,ZJSY 280400Z AUTO 7SM 30/24 A2983 RMK T03000240 IEM_DS3505
ZJSY,2006-04-28 05:00,ZJSY 280500Z AUTO 15004KT 7SM 31/24 A2980 RMK T03100240 IEM_DS3505
ZJSY,2006-04-28 06:00,ZJSY 280600Z AUTO 17004KT 6SM 31/24 A2977 RMK T03100240 IEM_DS3505
ZJSY,2006-04-28 07:00,ZJSY 280700Z AUTO 17004KT 6SM 30/24 A2974 RMK T03000240 IEM_DS3505
ZJSY,2006-04-28 08:00,ZJSY 280800Z AUTO 14004KT 6SM 30/24 A2971 RMK T03000240 IEM_DS3505
ZJSY,2006-04-28 09:00,ZJSY 280900Z AUTO 16006KT 6SM 30/24 A2971 RMK T03000240 IEM_DS3505
ZJSY,2006-04-28 10:00,ZJSY 281000Z AUTO 12006KT 6SM 29/24 A2971 RMK T02900240 IEM_DS3505
ZJSY,2006-04-28 11:00,ZJSY 281100Z AUTO 12004KT 7SM 29/24 A2974 RMK T02900240 IEM_DS3505
ZJSY,2006-04-28 12:00,ZJSY 281200Z VRB01MPS 9999 FEW015 29/24 Q1007 NOSIG
ZJSY,2006-04-28 13:00,ZJSY 281300Z 08002MPS 9999 FEW015 28/24 Q1008 NOSIG
ZJSY,2006-04-28 14:00,ZJSY 281400Z AUTO 7SM 28/24 A2980 RMK T02800240 IEM_DS3505
ZJSY,2006-04-28 15:00,ZJSY 281500Z AUTO 07006KT 7SM 28/23 A2983 RMK T02800230 IEM_DS3505
ZJSY,2006-04-28 16:00,ZJSY 281600Z AUTO 7SM 28/23 A2983 RMK T02800230 IEM_DS3505
ZJSY,2006-04-28 17:00,ZJSY 281700Z 33002MPS 9999 BKN015 27/23 Q1009 NOSIG
ZJSY,2006-04-28 18:00,ZJSY 281800Z AUTO 00000KT 7SM 27/24 A2980 RMK T02700240 IEM_DS3505
ZJSY,2006-04-28 19:00,ZJSY 281900Z AUTO 08006KT 7SM 27/23 A2977 RMK T02700230 IEM_DS3505
ZJSY,2006-04-28 21:00,ZJSY 282100Z AUTO 07004KT 7SM 25/23 A2977 RMK T02500230 IEM_DS3505
ZJSY,2006-04-28 22:00,ZJSY 282200Z AUTO 05006KT 7SM 26/24 A2980 RMK T02600240 IEM_DS3505
ZJSY,2006-04-28 23:00,ZJSY 282300Z AUTO 32004KT 7SM 26/23 A2980 RMK T02600230 IEM_DS3505
ZJSY,2006-04-29 00:00,ZJSY 290000Z AUTO 32008KT 1 1/4SM 24/23 A2983 RMK T02400230 IEM_DS3505
ZJSY,2006-04-29 01:00,ZJSY 290100Z AUTO 07008KT 3SM 24/23 A2985 RMK T02400230 IEM_DS3505
ZJSY,2006-04-29 02:00,ZJSY 290200Z AUTO 7SM 24/23 A2985 RMK T02400230 IEM_DS3505
ZJSY,2006-04-29 03:00,ZJSY 290300Z AUTO 06008KT 7SM 25/22 A2985 RMK T02500220 IEM_DS3505
ZJSY,2006-04-29 04:00,ZJSY 290400Z AUTO 06008KT 7SM 26/23 A2983 RMK T02600230 IEM_DS3505
ZJSY,2006-04-29 05:00,ZJSY 290500Z AUTO 10006KT 7SM 27/23 A2980 RMK T02700230 IEM_DS3505
ZJSY,2006-04-29 06:00,ZJSY 290600Z AUTO 08008KT 6SM 29/23 A2980 RMK T02900230 IEM_DS3505
ZJSY,2006-04-29 07:00,ZJSY 290700Z AUTO 14006KT 6SM 30/22 A2980 RMK T03000220 IEM_DS3505
ZJSY,2006-04-29 08:00,ZJSY 290800Z AUTO 17004KT 7SM 29/22 A2977 RMK T02900220 IEM_DS3505
ZJSY,2006-04-29 09:00,ZJSY 290900Z AUTO 20004KT 7SM 28/23 A2977 RMK T02800230 IEM_DS3505
ZJSY,2006-04-29 10:00,ZJSY 291000Z AUTO 21006KT 7SM 27/23 A2977 RMK T02700230 IEM_DS3505
ZJSY,2006-04-29 11:00,ZJSY 291100Z AUTO 23004KT 7SM 27/22 A2980 RMK T02700220 IEM_DS3505
ZJSY,2006-04-29 12:00,ZJSY 291200Z AUTO 24004KT 7SM 27/23 A2983 RMK T02700230 IEM_DS3505
ZJSY,2006-04-29 13:00,ZJSY 291300Z AUTO 7SM 26/23 A2983 RMK T02600230 IEM_DS3505
ZJSY,2006-04-29 14:00,ZJSY 291400Z AUTO 7SM 26/23 A2985 RMK T02600230 IEM_DS3505
ZJSY,2006-04-29 15:00,ZJSY 291500Z AUTO 34002KT 7SM 25/23 A2988 RMK T02500230 IEM_DS3505
ZJSY,2006-04-29 16:00,ZJSY 291600Z AUTO 6SM 25/23 A2985 RMK T02500230 IEM_DS3505
ZJSY,2006-04-29 17:00,ZJSY 291700Z AUTO 33004KT 7SM 24/23 A2983 RMK T02400230 IEM_DS3505
ZJSY,2006-04-29 18:00,ZJSY 291800Z AUTO 34002KT 7SM 24/23 A2983 RMK T02400230 IEM_DS3505
ZJSY,2006-04-29 19:00,ZJSY 291900Z AUTO 00000KT 7SM 25/23 A2983 RMK T02500230 IEM_DS3505
ZJSY,2006-04-29 20:00,ZJSY 292000Z AUTO 25/23 A2983 RMK T02500230 IEM_DS3505
ZJSY,2006-04-29 21:00,ZJSY 292100Z AUTO 33002KT 25/23 A2983 RMK T02500230 IEM_DS3505
ZJSY,2006-04-29 22:00,ZJSY 292200Z AUTO 32002KT 7SM 25/23 A2983 RMK T02500230 IEM_DS3505
ZJSY,2006-04-29 23:00,ZJSY 292300Z AUTO 7SM 26/23 A2983 RMK T02600230 IEM_DS3505
ZJSY,2006-04-30 00:00,ZJSY 300000Z AUTO 07006KT 7SM 27/23 A2985 RMK T02700230 IEM_DS3505
ZJSY,2006-04-30 01:00,ZJSY 300100Z AUTO 09006KT 7SM 28/23 A2985 RMK T02800230 IEM_DS3505
ZJSY,2006-04-30 02:00,ZJSY 300200Z AUTO 16004KT 7SM 29/23 A2988 RMK T02900230 IEM_DS3505
ZJSY,2006-04-30 03:00,ZJSY 300300Z 21003MPS 9999 SCT013 BKN016 28/23 Q1012 NOSIG
ZJSY,2006-04-30 04:00,ZJSY 300400Z AUTO 21006KT 7SM 29/24 A2985 RMK T02900240 IEM_DS3505
ZJSY,2006-04-30 05:00,ZJSY 300500Z AUTO 19006KT 7SM 29/24 A2985 RMK T02900240 IEM_DS3505
ZJSY,2006-04-30 06:00,ZJSY 300600Z 20003MPS 160V230 9999 FEW016 29/24 Q1010 NOSIG
ZJSY,2006-04-30 07:00,ZJSY 300700Z 20002MPS 130V260 9999 FEW016 28/24 Q1009 NOSIG
ZJSY,2006-04-30 08:00,ZJSY 300800Z AUTO 18004KT 7SM 29/25 A2980 RMK T02900250 IEM_DS3505
ZJSY,2006-04-30 09:00,ZJSY 300900Z AUTO 6SM 29/23 A2977 RMK T02900230 IEM_DS3505
ZJSY,2006-04-30 10:00,ZJSY 301000Z AUTO 6SM 29/23 A2980 RMK T02900230 IEM_DS3505
ZJSY,2006-04-30 11:00,ZJSY 301100Z AUTO 00000KT 6SM 28/23 A2980 RMK T02800230 IEM_DS3505
ZJSY,2006-04-30 12:00,ZJSY 301200Z AUTO 6SM 28/23 A2983 RMK T02800230 IEM_DS3505
ZJSY,2006-04-30 13:00,ZJSY 301300Z AUTO 6SM 27/23 A2983 RMK T02700230 IEM_DS3505
ZJSY,2006-04-30 14:00,ZJSY 301400Z AUTO 33004KT 6SM 27/23 A2985 RMK T02700230 IEM_DS3505
ZJSY,2006-04-30 15:00,ZJSY 301500Z AUTO 6SM 26/23 A2985 RMK T02600230 IEM_DS3505
ZJSY,2006-04-30 16:00,ZJSY 301600Z AUTO 6SM 26/23 A2985 RMK T02600230 IEM_DS3505
ZJSY,2006-04-30 17:00,ZJSY 301700Z AUTO 7SM 26/23 A2983 RMK T02600230 IEM_DS3505
ZJSY,2006-04-30 18:00,ZJSY 301800Z AUTO 32002KT 26/23 A2983 RMK T02600230 IEM_DS3505
ZJSY,2006-04-30 19:00,ZJSY 301900Z AUTO 26/23 A2980 RMK T02600230 IEM_DS3505
ZJSY,2006-04-30 20:00,ZJSY 302000Z AUTO 04004KT 27/23 A2980 RMK T02700230 IEM_DS3505
ZJSY,2006-04-30 21:00,ZJSY 302100Z AUTO 05004KT 7SM 27/23 A2980 RMK T02700230 IEM_DS3505
ZJSY,2006-04-30 22:00,ZJSY 302200Z AUTO 00000KT 7SM 26/23 A2983 RMK T02600230 IEM_DS3505
ZJSY,2006-04-30 23:00,ZJSY 302300Z AUTO 06004KT 7SM 27/24 A2983 RMK T02700240 IEM_DS3505
ZJSY,2006-05-01 00:00,ZJSY 010000Z AUTO 08004KT 7SM 28/24 A2985 RMK T02800240 IEM_DS3505
ZJSY,2006-05-01 01:00,ZJSY 010100Z AUTO 7SM 29/25 A2985 RMK T02900250 IEM_DS3505
ZJSY,2006-05-01 02:00,ZJSY 010200Z AUTO 13006KT 7SM 29/25 A2985 RMK T02900250 IEM_DS3505
ZJSY,2006-05-01 03:00,ZJSY 010300Z AUTO 14004KT 7SM 29/25 A2985 RMK T02900250 IEM_DS3505
ZJSY,2006-05-01 04:00,ZJSY 010400Z AUTO 15006KT 7SM 30/25 A2985 RMK T03000250 IEM_DS3505
ZJSY,2006-05-01 05:00,ZJSY 010500Z AUTO 16004KT 7SM 29/25 A2985 RMK T02900250 IEM_DS3505
ZJSY,2006-05-01 06:00,ZJSY 010600Z 18003MPS 130V210 9999 SCT014 SCT018 FEW020TCU 30/25 Q1010 NOSIG
ZJSY,2006-05-01 07:00,ZJSY 010700Z 17003MPS 120V220 9999 FEW014 SCT020 FEW023TCU 30/25 Q1009 NOSIG
ZJSY,2006-05-01 08:00,ZJSY 010800Z AUTO 18006KT 7SM 29/25 A2980 RMK T02900250 IEM_DS3505
ZJSY,2006-05-01 09:00,ZJSY 010900Z AUTO 16004KT 7SM 30/25 A2977 RMK T03000250 IEM_DS3505
ZJSY,2006-05-01 10:00,ZJSY 011000Z AUTO 7SM 29/25 A2977 RMK T02900250 IEM_DS3505
ZJSY,2006-05-01 11:00,ZJSY 011100Z AUTO 7SM 28/25 A2980 RMK T02800250 IEM_DS3505
ZJSY,2006-05-01 12:00,ZJSY 011200Z AUTO 7SM 28/25 A2980 RMK T02800250 IEM_DS3505
ZJSY,2006-05-01 13:00,ZJSY 011300Z AUTO 09002KT 6SM 28/24 A2983 RMK T02800240 IEM_DS3505
ZJSY,2006-05-01 14:00,ZJSY 011400Z AUTO 08002KT 7SM 28/24 A2983 RMK T02800240 IEM_DS3505
ZJSY,2006-05-01 15:00,ZJSY 011500Z AUTO 00000KT 7SM 27/24 A2983 RMK T02700240 IEM_DS3505
ZJSY,2006-05-01 16:00,ZJSY 011600Z AUTO 33004KT 7SM 27/24 A2983 RMK T02700240 IEM_DS3505
ZJSY,2006-05-01 17:00,ZJSY 011700Z AUTO 00000KT 7SM 27/24 A2983 RMK T02700240 IEM_DS3505
ZJSY,2006-05-01 18:00,ZJSY 011800Z AUTO 26/24 A2980 RMK T02600240 IEM_DS3505
ZJSY,2006-05-01 19:00,ZJSY 011900Z AUTO 33004KT 26/24 A2980 RMK T02600240 IEM_DS3505
ZJSY,2006-05-01 20:00,ZJSY 012000Z AUTO 00000KT 26/24 A2980 RMK T02600240 IEM_DS3505
ZJSY,2006-05-01 21:00,ZJSY 012100Z AUTO 00000KT 7SM 26/24 A2980 RMK T02600240 IEM_DS3505
ZJSY,2006-05-01 22:00,ZJSY 012200Z AUTO 00000KT 7SM 26/24 A2980 RMK T02600240 IEM_DS3505
ZJSY,2006-05-01 23:00,ZJSY 012300Z AUTO 7SM 27/25 A2983 RMK T02700250 IEM_DS3505
ZJSY,2006-05-02 00:00,ZJSY 020000Z AUTO 16004KT 7SM 28/25 A2983 RMK T02800250 IEM_DS3505
ZJSY,2006-05-02 01:00,ZJSY 020100Z AUTO 15004KT 7SM 29/25 A2985 RMK T02900250 IEM_DS3505
ZJSY,2006-05-02 02:00,ZJSY 020200Z AUTO 15004KT 7SM 29/25 A2985 RMK T02900250 IEM_DS3505
ZJSY,2006-05-02 03:00,ZJSY 020300Z AUTO 14006KT 7SM 30/26 A2985 RMK T03000260 IEM_DS3505
ZJSY,2006-05-02 04:00,ZJSY 020400Z AUTO 16006KT 7SM 30/25 A2985 RMK T03000250 IEM_DS3505
ZJSY,2006-05-02 05:00,ZJSY 020500Z AUTO 16006KT 7SM 30/25 A2983 RMK T03000250 IEM_DS3505
ZJSY,2006-05-02 06:00,ZJSY 020600Z AUTO 16006KT 7SM 30/25 A2980 RMK T03000250 IEM_DS3505
ZJSY,2006-05-02 07:00,ZJSY 020700Z AUTO 17006KT 7SM 30/25 A2980 RMK T03000250 IEM_DS3505
ZJSY,2006-05-02 08:00,ZJSY 020800Z AUTO 16006KT 7SM 29/25 A2977 RMK T02900250 IEM_DS3505
ZJSY,2006-05-02 09:00,ZJSY 020900Z AUTO 16006KT 7SM 29/25 A2977 RMK T02900250 IEM_DS3505
ZJSY,2006-05-02 10:00,ZJSY 021000Z AUTO 18004KT 7SM 29/25 A2977 RMK T02900250 IEM_DS3505
ZJSY,2006-05-02 11:00,ZJSY 021100Z AUTO 7SM 28/25 A2980 RMK T02800250 IEM_DS3505
ZJSY,2006-05-02 12:00,ZJSY 021200Z AUTO 14004KT 7SM 28/25 A2980 RMK T02800250 IEM_DS3505
ZJSY,2006-05-02 13:00,ZJSY 021300Z AUTO 7SM 28/25 A2983 RMK T02800250 IEM_DS3505
ZJSY,2006-05-02 14:00,ZJSY 021400Z AUTO 09004KT 7SM 28/25 A2983 RMK T02800250 IEM_DS3505
ZJSY,2006-05-02 15:00,ZJSY 021500Z AUTO 12004KT 7SM 28/25 A2985 RMK T02800250 IEM_DS3505
ZJSY,2006-05-02 16:00,ZJSY 021600Z AUTO 13004KT 7SM 28/25 A2985 RMK T02800250 IEM_DS3505
ZJSY,2006-05-02 17:00,ZJSY 021700Z AUTO 7SM 28/25 A2983 RMK T02800250 IEM_DS3505
ZJSY,2006-05-02 18:00,ZJSY 021800Z AUTO 28/25 A2983 RMK T02800250 IEM_DS3505
ZJSY,2006-05-02 19:00,ZJSY 021900Z AUTO VRB01MPS //// // ////// 28/25 Q1009
ZJSY,2006-05-02 20:00,ZJSY 022000Z AUTO 27/25 A2980 RMK T02700250 IEM_DS3505
ZJSY,2006-05-02 21:00,ZJSY 022100Z AUTO 00000KT 7SM 27/25 A2980 RMK T02700250 IEM_DS3505
ZJSY,2006-05-02 22:00,ZJSY 022200Z AUTO 7SM 27/25 A2983 RMK T02700250 IEM_DS3505
ZJSY,2006-05-02 23:00,ZJSY 022300Z AUTO 08006KT 7SM 27/25 A2983 RMK T02700250 IEM_DS3505
ZJSY,2006-05-03 00:00,ZJSY 030000Z AUTO 11004KT 7SM 28/25 A2985 RMK T02800250 IEM_DS3505
ZJSY,2006-05-03 01:00,ZJSY 030100Z AUTO 13006KT 7SM 30/26 A2985 RMK T03000260 IEM_DS3505
ZJSY,2006-05-03 02:00,ZJSY 030200Z AUTO 14008KT 7SM 29/25 A2985 RMK T02900250 IEM_DS3505
ZJSY,2006-05-03 03:00,ZJSY 030300Z AUTO 15006KT 7SM 30/25 A2988 RMK T03000250 IEM_DS3505
ZJSY,2006-05-03 04:00,ZJSY 030400Z AUTO 15006KT 7SM 30/25 A2985 RMK T03000250 IEM_DS3505
ZJSY,2006-05-03 05:00,ZJSY 030500Z AUTO 16008KT 7SM 30/26 A2983 RMK T03000260 IEM_DS3505
ZJSY,2006-05-03 06:00,ZJSY 030600Z AUTO 15008KT 7SM 30/25 A2980 RMK T03000250 IEM_DS3505
ZJSY,2006-05-03 07:00,ZJSY 030700Z AUTO 15008KT 7SM 30/26 A2980 RMK T03000260 IEM_DS3505
ZJSY,2006-05-03 08:00,ZJSY 030800Z AUTO 15008KT 7SM 29/25 A2980 RMK T02900250 IEM_DS3505
ZJSY,2006-05-03 09:00,ZJSY 030900Z AUTO 13006KT 7SM 29/25 A2980 RMK T02900250 IEM_DS3505
ZJSY,2006-05-03 10:00,ZJSY 031000Z AUTO 14006KT 7SM 29/25 A2980 RMK T02900250 IEM_DS3505
ZJSY,2006-05-03 11:00,ZJSY 031100Z AUTO 13006KT 7SM 28/25 A2980 RMK T02800250 IEM_DS3505
ZJSY,2006-05-03 12:00,ZJSY 031200Z AUTO 13006KT 7SM 28/24 A2983 RMK T02800240 IEM_DS3505
ZJSY,2006-05-03 13:00,ZJSY 031300Z AUTO 11004KT 7SM 28/25 A2985 RMK T02800250 IEM_DS3505
ZJSY,2006-05-03 14:00,ZJSY 031400Z AUTO 07004KT 7SM 28/24 A2985 RMK T02800240 IEM_DS3505
ZJSY,2006-05-03 15:00,ZJSY 031500Z AUTO 07006KT 7SM 27/24 A2985 RMK T02700240 IEM_DS3505
ZJSY,2006-05-03 16:00,ZJSY 031600Z AUTO 06006KT 7SM 27/24 A2985 RMK T02700240 IEM_DS3505
ZJSY,2006-05-03 17:00,ZJSY 031700Z AUTO 07004KT 7SM 27/24 A2985 RMK T02700240 IEM_DS3505
ZJSY,2006-05-03 18:00,ZJSY 031800Z AUTO 07006KT 6SM 27/24 A2983 RMK T02700240 IEM_DS3505
ZJSY,2006-05-03 19:00,ZJSY 031900Z AUTO 05006KT 6SM 27/24 A2983 RMK T02700240 IEM_DS3505
ZJSY,2006-05-03 20:00,ZJSY 032000Z AUTO 09004KT 7SM 27/24 A2983 RMK T02700240 IEM_DS3505
ZJSY,2006-05-03 21:00,ZJSY 032100Z AUTO 08004KT 7SM 27/24 A2985 RMK T02700240 IEM_DS3505
ZJSY,2006-05-03 22:00,ZJSY 032200Z AUTO 07004KT 6SM 26/24 A2985 RMK T02600240 IEM_DS3505
ZJSY,2006-05-03 23:00,ZJSY 032300Z AUTO 06004KT 6SM 26/24 A2988 RMK T02600240 IEM_DS3505
ZJSY,2006-05-04 00:00,ZJSY 040000Z AUTO 07008KT 7SM 28/24 A2988 RMK T02800240 IEM_DS3505
ZJSY,2006-05-04 01:00,ZJSY 040100Z AUTO 08006KT 7SM 29/25 A2991 RMK T02900250 IEM_DS3505
ZJSY,2006-05-04 02:00,ZJSY 040200Z AUTO 15006KT 7SM 30/24 A2991 RMK T03000240 IEM_DS3505
ZJSY,2006-05-04 03:00,ZJSY 040300Z AUTO 14006KT 7SM 30/24 A2988 RMK T03000240 IEM_DS3505
ZJSY,2006-05-04 04:00,ZJSY 040400Z 15003MPS 110V190 9999 FEW016 31/23 Q1012 NOSIG
ZJSY,2006-05-04 05:00,ZJSY 040500Z AUTO 15006KT 6SM 31/24 A2988 RMK T03100240 IEM_DS3505
ZJSY,2006-05-04 06:00,ZJSY 040600Z AUTO 15008KT 6SM 31/24 A2985 RMK T03100240 IEM_DS3505
ZJSY,2006-05-04 07:00,ZJSY 040700Z AUTO 15008KT 6SM 31/23 A2983 RMK T03100230 IEM_DS3505
ZJSY,2006-05-04 08:00,ZJSY 040800Z AUTO 15008KT 6SM 30/23 A2983 RMK T03000230 IEM_DS3505
ZJSY,2006-05-04 09:00,ZJSY 040900Z AUTO 14006KT 6SM 30/23 A2980 RMK T03000230 IEM_DS3505
ZJSY,2006-05-04 10:00,ZJSY 041000Z AUTO 15006KT 6SM 30/23 A2980 RMK T03000230 IEM_DS3505
ZJSY,2006-05-04 11:00,ZJSY 041100Z AUTO 15004KT 6SM 29/24 A2983 RMK T02900240 IEM_DS3505
ZJSY,2006-05-04 12:00,ZJSY 041200Z 10002MPS CAVOK 29/24 Q1010 NOSIG
ZJSY,2006-05-04 13:00,ZJSY 041300Z AUTO 06006KT 7SM 28/24 A2985 RMK T02800240 IEM_DS3505
ZJSY,2006-05-04 14:00,ZJSY 041400Z AUTO 09004KT 7SM 28/23 A2985 RMK T02800230 IEM_DS3505
ZJSY,2006-05-04 15:00,ZJSY 041500Z AUTO 08006KT 7SM 27/24 A2985 RMK T02700240 IEM_DS3505
ZJSY,2006-05-04 16:00,ZJSY 041600Z AUTO 08006KT 6SM 27/24 A2985 RMK T02700240 IEM_DS3505
ZJSY,2006-05-04 17:00,ZJSY 041700Z AUTO 06004KT 6SM 27/24 A2985 RMK T02700240 IEM_DS3505
ZJSY,2006-05-04 18:00,ZJSY 041800Z AUTO 07002MPS //// // ////// 27/24 Q1010
ZJSY,2006-05-04 19:00,ZJSY 041900Z AUTO 00000KT 27/24 A2983 RMK T02700240 IEM_DS3505
ZJSY,2006-05-04 20:00,ZJSY 042000Z AUTO 08004KT 27/24 A2983 RMK T02700240 IEM_DS3505
ZJSY,2006-05-04 21:00,ZJSY 042100Z AUTO 6SM 27/24 A2983 RMK T02700240 IEM_DS3505
ZJSY,2006-05-04 22:00,ZJSY 042200Z AUTO 05004KT 7SM 27/24 A2985 RMK T02700240 IEM_DS3505
ZJSY,2006-05-04 23:00,ZJSY 042300Z AUTO 7SM 27/24 A2985 RMK T02700240 IEM_DS3505
ZJSY,2006-05-05 00:00,ZJSY 050000Z AUTO 08004KT 7SM 28/25 A2988 RMK T02800250 IEM_DS3505
ZJSY,2006-05-05 01:00,ZJSY 050100Z AUTO 12006KT 7SM 29/25 A2988 RMK T02900250 IEM_DS3505
ZJSY,2006-05-05 02:00,ZJSY 050200Z AUTO 13006KT 7SM 30/25 A2988 RMK T03000250 IEM_DS3505
ZJSY,2006-05-05 03:00,ZJSY 050300Z AUTO 14006KT 7SM 30/25 A2991 RMK T03000250 IEM_DS3505
ZJSY,2006-05-05 04:00,ZJSY 050400Z AUTO 12004KT 7SM 30/24 A2988 RMK T03000240 IEM_DS3505
ZJSY,2006-05-05 05:00,ZJSY 050500Z AUTO 7SM 30/24 A2988 RMK T03000240 IEM_DS3505
ZJSY,2006-05-05 06:00,ZJSY 050600Z AUTO 13004KT 7SM 30/24 A2985 RMK T03000240 IEM_DS3505
ZJSY,2006-05-05 07:00,ZJSY 050700Z AUTO 11004KT 7SM 30/24 A2983 RMK T03000240 IEM_DS3505
ZJSY,2006-05-05 08:00,ZJSY 050800Z AUTO 12004KT 7SM 30/24 A2983 RMK T03000240 IEM_DS3505
ZJSY,2006-05-05 09:00,ZJSY 050900Z AUTO 11004KT 6SM 30/24 A2980 RMK T03000240 IEM_DS3505
ZJSY,2006-05-05 10:00,ZJSY 051000Z AUTO 11004KT 6SM 29/24 A2980 RMK T02900240 IEM_DS3505
ZJSY,2006-05-05 11:00,ZJSY 051100Z AUTO 12004KT 7SM 29/24 A2983 RMK T02900240 IEM_DS3505
ZJSY,2006-05-05 12:00,ZJSY 051200Z AUTO 12004KT 7SM 29/25 A2983 RMK T02900250 IEM_DS3505
ZJSY,2006-05-05 13:00,ZJSY 051300Z AUTO 08004KT 7SM 28/24 A2985 RMK T02800240 IEM_DS3505
ZJSY,2006-05-05 14:00,ZJSY 051400Z AUTO 06006KT 7SM 28/24 A2985 RMK T02800240 IEM_DS3505
ZJSY,2006-05-05 15:00,ZJSY 051500Z AUTO 07004KT 7SM 28/24 A2985 RMK T02800240 IEM_DS3505
ZJSY,2006-05-05 16:00,ZJSY 051600Z AUTO 10004KT 7SM 28/24 A2985 RMK T02800240 IEM_DS3505
ZJSY,2006-05-05 17:00,ZJSY 051700Z AUTO 11004KT 7SM 28/25 A2983 RMK T02800250 IEM_DS3505
ZJSY,2006-05-05 18:00,ZJSY 051800Z AUTO 12004KT 7SM 28/25 A2983 RMK T02800250 IEM_DS3505
ZJSY,2006-05-05 19:00,ZJSY 051900Z AUTO 28/25 A2980 RMK T02800250 IEM_DS3505
ZJSY,2006-05-05 20:00,ZJSY 052000Z AUTO 13004KT 28/25 A2980 RMK T02800250 IEM_DS3505
ZJSY,2006-05-05 21:00,ZJSY 052100Z AUTO 7SM 28/25 A2980 RMK T02800250 IEM_DS3505
ZJSY,2006-05-05 22:00,ZJSY 052200Z AUTO 16006KT 7SM 28/25 A2980 RMK T02800250 IEM_DS3505
ZJSY,2006-05-05 23:00,ZJSY 052300Z AUTO 13004KT 7SM 28/25 A2983 RMK T02800250 IEM_DS3505
ZJSY,2006-05-06 00:00,ZJSY 060000Z AUTO 14004KT 7SM 29/25 A2983 RMK T02900250 IEM_DS3505
ZJSY,2006-05-06 01:00,ZJSY 060100Z AUTO 15004KT 7SM 29/25 A2985 RMK T02900250 IEM_DS3505
ZJSY,2006-05-06 02:00,ZJSY 060200Z AUTO 12004KT 7SM 30/25 A2985 RMK T03000250 IEM_DS3505
ZJSY,2006-05-06 03:00,ZJSY 060300Z AUTO 15004KT 7SM 30/25 A2985 RMK T03000250 IEM_DS3505
ZJSY,2006-05-06 04:00,ZJSY 060400Z AUTO 14006KT 7SM 30/25 A2983 RMK T03000250 IEM_DS3505
ZJSY,2006-05-06 05:00,ZJSY 060500Z AUTO 17004KT 7SM 30/25 A2983 RMK T03000250 IEM_DS3505
ZJSY,2006-05-06 06:00,ZJSY 060600Z AUTO 15006KT 7SM 30/26 A2980 RMK T03000260 IEM_DS3505
ZJSY,2006-05-06 07:00,ZJSY 060700Z AUTO 16008KT 7SM 30/25 A2977 RMK T03000250 IEM_DS3505
ZJSY,2006-05-06 08:00,ZJSY 060800Z AUTO 15006KT 7SM 30/26 A2977 RMK T03000260 IEM_DS3505
ZJSY,2006-05-06 09:00,ZJSY 060900Z AUTO 15006KT 7SM 30/26 A2974 RMK T03000260 IEM_DS3505
ZJSY,2006-05-06 10:00,ZJSY 061000Z AUTO 15006KT 7SM 29/25 A2974 RMK T02900250 IEM_DS3505
ZJSY,2006-05-06 11:00,ZJSY 061100Z AUTO 14004KT 7SM 29/25 A2977 RMK T02900250 IEM_DS3505
ZJSY,2006-05-06 12:00,ZJSY 061200Z AUTO 14006KT 7SM 29/25 A2977 RMK T02900250 IEM_DS3505
ZJSY,2006-05-06 13:00,ZJSY 061300Z AUTO 13006KT 7SM 29/25 A2980 RMK T02900250 IEM_DS3505
ZJSY,2006-05-06 14:00,ZJSY 061400Z AUTO 12006KT 7SM 28/26 A2980 RMK T02800260 IEM_DS3505
ZJSY,2006-05-06 15:00,ZJSY 061500Z AUTO 12006KT 7SM 28/25 A2983 RMK T02800250 IEM_DS3505
ZJSY,2006-05-06 16:00,ZJSY 061600Z AUTO 12004KT 7SM 28/25 A2983 RMK T02800250 IEM_DS3505
ZJSY,2006-05-06 17:00,ZJSY 061700Z AUTO 13004KT 7SM 28/25 A2983 RMK T02800250 IEM_DS3505
ZJSY,2006-05-06 18:00,ZJSY 061800Z AUTO 7SM 28/25 A2980 RMK T02800250 IEM_DS3505
ZJSY,2006-05-06 19:00,ZJSY 061900Z 13002MPS 100V160 9999 SCT015 28/25 Q1009 NOSIG
ZJSY,2006-05-06 20:00,ZJSY 062000Z AUTO 14004KT 28/26 A2977 RMK T02800260 IEM_DS3505
ZJSY,2006-05-06 21:00,ZJSY 062100Z AUTO 16004KT 7SM 28/26 A2980 RMK T02800260 IEM_DS3505
ZJSY,2006-05-06 22:00,ZJSY 062200Z AUTO 7SM 28/25 A2980 RMK T02800250 IEM_DS3505
ZJSY,2006-05-06 23:00,ZJSY 062300Z AUTO 7SM 28/25 A2983 RMK T02800250 IEM_DS3505
ZJSY,2006-05-07 00:00,ZJSY 070000Z AUTO 13004KT 7SM 29/25 A2983 RMK T02900250 IEM_DS3505
ZJSY,2006-05-07 01:00,ZJSY 070100Z AUTO 16004KT 7SM 30/26 A2985 RMK T03000260 IEM_DS3505
ZJSY,2006-05-07 02:00,ZJSY 070200Z AUTO 15004KT 7SM 30/26 A2985 RMK T03000260 IEM_DS3505
ZJSY,2006-05-07 03:00,ZJSY 070300Z AUTO 14006KT 7SM 30/26 A2985 RMK T03000260 IEM_DS3505
ZJSY,2006-05-07 04:00,ZJSY 070400Z AUTO 15008KT 7SM 30/25 A2983 RMK T03000250 IEM_DS3505
ZJSY,2006-05-07 05:00,ZJSY 070500Z AUTO 14006KT 7SM 31/24 A2983 RMK T03100240 IEM_DS3505
ZJSY,2006-05-07 06:00,ZJSY 070600Z AUTO 15006KT 7SM 31/25 A2980 RMK T03100250 IEM_DS3505
ZJSY,2006-05-07 07:00,ZJSY 070700Z AUTO 15006KT 7SM 31/25 A2977 RMK T03100250 IEM_DS3505
ZJSY,2006-05-07 08:00,ZJSY 070800Z AUTO 14006KT 7SM 30/25 A2977 RMK T03000250 IEM_DS3505
ZJSY,2006-05-07 09:00,ZJSY 070900Z AUTO 13006KT 7SM 30/25 A2974 RMK T03000250 IEM_DS3505
ZJSY,2006-05-07 10:00,ZJSY 071000Z AUTO 12006KT 7SM 29/25 A2974 RMK T02900250 IEM_DS3505
ZJSY,2006-05-07 11:00,ZJSY 071100Z AUTO 12006KT 7SM 29/25 A2977 RMK T02900250 IEM_DS3505
ZJSY,2006-05-07 12:00,ZJSY 071200Z AUTO 12006KT 7SM 28/25 A2977 RMK T02800250 IEM_DS3505
ZJSY,2006-05-07 13:00,ZJSY 071300Z AUTO 11008KT 7SM 29/25 A2980 RMK T02900250 IEM_DS3505
ZJSY,2006-05-07 14:00,ZJSY 071400Z AUTO 10006KT 7SM 28/24 A2983 RMK T02800240 IEM_DS3505
ZJSY,2006-05-07 15:00,ZJSY 071500Z AUTO 07004KT 7SM 28/24 A2985 RMK T02800240 IEM_DS3505
ZJSY,2006-05-07 16:00,ZJSY 071600Z AUTO 07004KT 7SM 28/24 A2985 RMK T02800240 IEM_DS3505
ZJSY,2006-05-07 17:00,ZJSY 071700Z AUTO 7SM 27/24 A2985 RMK T02700240 IEM_DS3505
ZJSY,2006-05-07 18:00,ZJSY 071800Z AUTO 06004KT 7SM 27/24 A2983 RMK T02700240 IEM_DS3505
ZJSY,2006-05-07 19:00,ZJSY 071900Z AUTO 35002KT 7SM 27/24 A2983 RMK T02700240 IEM_DS3505
ZJSY,2006-05-07 20:00,ZJSY 072000Z AUTO 27/24 A2983 RMK T02700240 IEM_DS3505
ZJSY,2006-05-07 21:00,ZJSY 072100Z AUTO 07002KT 7SM 26/24 A2983 RMK T02600240 IEM_DS3505
ZJSY,2006-05-07 22:00,ZJSY 072200Z AUTO 7SM 26/24 A2983 RMK T02600240 IEM_DS3505
ZJSY,2006-05-07 23:00,ZJSY 072300Z AUTO 7SM 27/24 A2983 RMK T02700240 IEM_DS3505
ZJSY,2006-05-08 00:00,ZJSY 080000Z AUTO 09006KT 7SM 29/25 A2983 RMK T02900250 IEM_DS3505
ZJSY,2006-05-08 01:00,ZJSY 080100Z AUTO 14006KT 7SM 30/24 A2985 RMK T03000240 IEM_DS3505
ZJSY,2006-05-08 03:00,ZJSY 080300Z AUTO 16006KT 7SM 31/24 A2985 RMK T03100240 IEM_DS3505
ZJSY,2006-05-08 04:00,ZJSY 080400Z AUTO 17008KT 7SM 31/25 A2985 RMK T03100250 IEM_DS3505
ZJSY,2006-05-08 05:00,ZJSY 080500Z AUTO 16006KT 7SM 30/25 A2985 RMK T03000250 IEM_DS3505
ZJSY,2006-05-08 06:00,ZJSY 080600Z AUTO 16006KT 7SM 30/25 A2983 RMK T03000250 IEM_DS3505
ZJSY,2006-05-08 07:00,ZJSY 080700Z AUTO 16006KT 7SM 30/25 A2983 RMK T03000250 IEM_DS3505
ZJSY,2006-05-08 08:00,ZJSY 080800Z AUTO 16006KT 7SM 30/25 A2980 RMK T03000250 IEM_DS3505
ZJSY,2006-05-08 09:00,ZJSY 080900Z 15003MPS 120V180 9999 FEW016 30/25 Q1008 NOSIG
ZJSY,2006-05-08 10:00,ZJSY 081000Z AUTO 13006KT 7SM 29/25 A2977 RMK T02900250 IEM_DS3505
ZJSY,2006-05-08 11:00,ZJSY 081100Z AUTO 12006KT 6SM 29/24 A2977 RMK T02900240 IEM_DS3505
ZJSY,2006-05-08 12:00,ZJSY 081200Z AUTO 12004KT 6SM 28/24 A2980 RMK T02800240 IEM_DS3505
ZJSY,2006-05-08 13:00,ZJSY 081300Z AUTO 06006KT 6SM 28/24 A2983 RMK T02800240 IEM_DS3505
ZJSY,2006-05-08 14:00,ZJSY 081400Z AUTO 06006KT 6SM 28/24 A2985 RMK T02800240 IEM_DS3505
ZJSY,2006-05-08 15:00,ZJSY 081500Z AUTO 07006KT 6SM 27/24 A2985 RMK T02700240 IEM_DS3505
ZJSY,2006-05-08 16:00,ZJSY 081600Z AUTO 06006KT 6SM 27/24 A2985 RMK T02700240 IEM_DS3505
ZJSY,2006-05-08 17:00,ZJSY 081700Z AUTO 6SM 27/24 A2985 RMK T02700240 IEM_DS3505
ZJSY,2006-05-08 18:00,ZJSY 081800Z AUTO 7SM 27/24 A2983 RMK T02700240 IEM_DS3505
ZJSY,2006-05-08 19:00,ZJSY 081900Z 36001MPS CAVOK 27/24 Q1010 NOSIG
ZJSY,2006-05-08 20:00,ZJSY 082000Z AUTO 26/24 A2980 RMK T02600240 IEM_DS3505
ZJSY,2006-05-08 21:00,ZJSY 082100Z AUTO 33002KT 7SM 26/24 A2980 RMK T02600240 IEM_DS3505
ZJSY,2006-05-08 22:00,ZJSY 082200Z 36001MPS 9999 SCT015 26/24 Q1010 NOSIG
ZJSY,2006-05-09 00:00,ZJSY 090000Z AUTO 7SM 29/25 A2985 RMK T02900250 IEM_DS3505
ZJSY,2006-05-09 01:00,ZJSY 090100Z AUTO 7SM 30/24 A2985 RMK T03000240 IEM_DS3505
ZJSY,2006-05-09 02:00,ZJSY 090200Z AUTO 7SM 30/25 A2988 RMK T03000250 IEM_DS3505
ZJSY,2006-05-09 03:00,ZJSY 090300Z AUTO 7SM 31/25 A2988 RMK T03100250 IEM_DS3505
ZJSY,2006-05-09 04:00,ZJSY 090400Z AUTO 19004KT 7SM 31/25 A2985 RMK T03100250 IEM_DS3505
ZJSY,2006-05-09 05:00,ZJSY 090500Z AUTO 7SM 31/25 A2985 RMK T03100250 IEM_DS3505
ZJSY,2006-05-09 06:00,ZJSY 090600Z AUTO 7SM 31/25 A2980 RMK T03100250 IEM_DS3505
ZJSY,2006-05-09 07:00,ZJSY 090700Z AUTO 13004KT 7SM 31/24 A2977 RMK T03100240 IEM_DS3505
ZJSY,2006-05-09 08:00,ZJSY 090800Z AUTO 15006KT 7SM 31/24 A2977 RMK T03100240 IEM_DS3505
ZJSY,2006-05-09 09:00,ZJSY 090900Z AUTO 16006KT 7SM 30/25 A2974 RMK T03000250 IEM_DS3505
ZJSY,2006-05-09 10:00,ZJSY 091000Z AUTO 14006KT 7SM 30/25 A2974 RMK T03000250 IEM_DS3505
ZJSY,2006-05-09 11:00,ZJSY 091100Z AUTO 14006KT 7SM 29/25 A2974 RMK T02900250 IEM_DS3505
ZJSY,2006-05-09 12:00,ZJSY 091200Z AUTO 13006KT 7SM 29/25 A2974 RMK T02900250 IEM_DS3505
ZJSY,2006-05-09 13:00,ZJSY 091300Z AUTO 14004KT 7SM 28/25 A2977 RMK T02800250 IEM_DS3505
ZJSY,2006-05-09 14:00,ZJSY 091400Z AUTO 13004KT 7SM 28/25 A2980 RMK T02800250 IEM_DS3505
ZJSY,2006-05-09 15:00,ZJSY 091500Z AUTO 12004KT 7SM 28/25 A2983 RMK T02800250 IEM_DS3505
ZJSY,2006-05-09 16:00,ZJSY 091600Z AUTO 13004KT 7SM 28/25 A2983 RMK T02800250 IEM_DS3505
ZJSY,2006-05-09 17:00,ZJSY 091700Z AUTO 12004KT 7SM 28/25 A2980 RMK T02800250 IEM_DS3505
ZJSY,2006-05-09 18:00,ZJSY 091800Z AUTO 10004KT 7SM 28/25 A2980 RMK T02800250 IEM_DS3505
ZJSY,2006-05-09 19:00,ZJSY 091900Z AUTO 28/24 A2980 RMK T02800240 IEM_DS3505
ZJSY,2006-05-09 20:00,ZJSY 092000Z AUTO 06004KT 27/24 A2980 RMK T02700240 IEM_DS3505
ZJSY,2006-05-09 21:00,ZJSY 092100Z AUTO 07004KT 7SM 27/24 A2980 RMK T02700240 IEM_DS3505
ZJSY,2006-05-09 22:00,ZJSY 092200Z AUTO 03004KT 7SM 27/24 A2980 RMK T02700240 IEM_DS3505
ZJSY,2006-05-09 23:00,ZJSY 092300Z AUTO 06004KT 7SM 28/24 A2983 RMK T02800240 IEM_DS3505
ZJSY,2006-05-10 00:00,ZJSY 100000Z AUTO 10004KT 7SM 29/25 A2983 RMK T02900250 IEM_DS3505
ZJSY,2006-05-10 01:00,ZJSY 100100Z 12002MPS 080V160 9999 FEW015 SCT018 30/25 Q1011 NOSIG
ZJSY,2006-05-10 02:00,ZJSY 100200Z 14003MPS 100V170 9999 FEW015 SCT018 30/25 Q1011 NOSIG
ZJSY,2006-05-10 03:00,ZJSY 100300Z AUTO 17006KT 7SM 30/24 A2985 RMK T03000240 IEM_DS3505
ZJSY,2006-05-10 04:00,ZJSY 100400Z AUTO 16006KT 7SM 31/25 A2983 RMK T03100250 IEM_DS3505
ZJSY,2006-05-10 05:00,ZJSY 100500Z AUTO 16008KT 7SM 30/25 A2983 RMK T03000250 IEM_DS3505
ZJSY,2006-05-10 06:00,ZJSY 100600Z AUTO 15008KT 7SM 31/25 A2977 RMK T03100250 IEM_DS3505
ZJSY,2006-05-10 07:00,ZJSY 100700Z AUTO 16006KT 7SM 31/25 A2974 RMK T03100250 IEM_DS3505
ZJSY,2006-05-10 08:00,ZJSY 100800Z AUTO 18006KT 7SM 30/24 A2974 RMK T03000240 IEM_DS3505
ZJSY,2006-05-10 09:00,ZJSY 100900Z AUTO 15004KT 7SM 30/24 A2974 RMK T03000240 IEM_DS3505
ZJSY,2006-05-10 10:00,ZJSY 101000Z AUTO 15004KT 6SM 29/24 A2974 RMK T02900240 IEM_DS3505
ZJSY,2006-05-10 11:00,ZJSY 101100Z AUTO 14004KT 6SM 29/24 A2974 RMK T02900240 IEM_DS3505
ZJSY,2006-05-10 12:00,ZJSY 101200Z 12002MPS CAVOK 28/24 Q1008 NOSIG
ZJSY,2006-05-10 13:00,ZJSY 101300Z 12002MPS CAVOK 28/24 Q1009 NOSIG
ZJSY,2006-05-10 14:00,ZJSY 101400Z 06002MPS CAVOK 28/24 Q1010 NOSIG
ZJSY,2006-05-10 15:00,ZJSY 101500Z AUTO 06006KT 6SM 28/24 A2985 RMK T02800240 IEM_DS3505
ZJSY,2006-05-10 16:00,ZJSY 101600Z AUTO 08006KT 6SM 27/24 A2983 RMK T02700240 IEM_DS3505
ZJSY,2006-05-10 17:00,ZJSY 101700Z AUTO 06004KT 6SM 27/23 A2983 RMK T02700230 IEM_DS3505
ZJSY,2006-05-10 18:00,ZJSY 101800Z AUTO 6SM 26/23 A2983 RMK T02600230 IEM_DS3505
ZJSY,2006-05-10 21:00,ZJSY 102100Z AUTO 6SM 26/23 A2983 RMK T02600230 IEM_DS3505
ZJSY,2006-05-10 22:00,ZJSY 102200Z AUTO 05004KT 6SM 26/23 A2985 RMK T02600230 IEM_DS3505
ZJSY,2006-05-10 23:00,ZJSY 102300Z AUTO 00000KT 6SM 26/23 A2985 RMK T02600230 IEM_DS3505
ZJSY,2006-05-11 00:00,ZJSY 110000Z AUTO 06006KT 6SM 28/23 A2988 RMK T02800230 IEM_DS3505
ZJSY,2006-05-11 01:00,ZJSY 110100Z 10003MPS 070V140 9999 FEW020 30/24 Q1012 NOSIG
ZJSY,2006-05-11 02:00,ZJSY 110200Z 14002MPS 100V190 9999 FEW020 30/24 Q1013 NOSIG
ZJSY,2006-05-11 03:00,ZJSY 110300Z AUTO 16006KT 7SM 30/23 A2991 RMK T03000230 IEM_DS3505
ZJSY,2006-05-11 04:00,ZJSY 110400Z AUTO 16006KT 7SM 31/23 A2988 RMK T03100230 IEM_DS3505
ZJSY,2006-05-11 05:00,ZJSY 110500Z AUTO 16008KT 6SM 31/23 A2988 RMK T03100230 IEM_DS3505
ZJSY,2006-05-11 06:00,ZJSY 110600Z AUTO 15010KT 6SM 31/23 A2985 RMK T03100230 IEM_DS3505
ZJSY,2006-05-11 07:00,ZJSY 110700Z AUTO 15010KT 7SM 31/23 A2983 RMK T03100230 IEM_DS3505
ZJSY,2006-05-11 08:00,ZJSY 110800Z AUTO 14010KT 6SM 31/23 A2980 RMK T03100230 IEM_DS3505
ZJSY,2006-05-11 09:00,ZJSY 110900Z AUTO 14010KT 6SM 30/24 A2980 RMK T03000240 IEM_DS3505
ZJSY,2006-05-11 10:00,ZJSY 111000Z AUTO 13010KT 6SM 30/23 A2980 RMK T03000230 IEM_DS3505
ZJSY,2006-05-11 11:00,ZJSY 111100Z AUTO 11006KT 6SM 29/23 A2983 RMK T02900230 IEM_DS3505
ZJSY,2006-05-11 12:00,ZJSY 111200Z 06003MPS CAVOK 28/23 Q1011 NOSIG
ZJSY,2006-05-11 13:00,ZJSY 111300Z AUTO 05006KT 6SM 28/23 A2985 RMK T02800230 IEM_DS3505
ZJSY,2006-05-11 14:00,ZJSY 111400Z AUTO 06004KT 6SM 27/23 A2988 RMK T02700230 IEM_DS3505
ZJSY,2006-05-11 15:00,ZJSY 111500Z AUTO 07004KT 7SM 27/23 A2991 RMK T02700230 IEM_DS3505
ZJSY,2006-05-11 16:00,ZJSY 111600Z AUTO 06004KT 7SM 27/23 A2991 RMK T02700230 IEM_DS3505
ZJSY,2006-05-11 17:00,ZJSY 111700Z 00000MPS 9999 FEW016 26/23 Q1013 NOSIG
ZJSY,2006-05-11 18:00,ZJSY 111800Z AUTO 03002KT 26/23 A2988 RMK T02600230 IEM_DS3505
ZJSY,2006-05-11 19:00,ZJSY 111900Z AUTO 02004KT 25/22 A2988 RMK T02500220 IEM_DS3505
ZJSY,2006-05-11 20:00,ZJSY 112000Z AUTO 06004KT 26/22 A2985 RMK T02600220 IEM_DS3505
ZJSY,2006-05-11 21:00,ZJSY 112100Z AUTO 7SM 25/22 A2988 RMK T02500220 IEM_DS3505
ZJSY,2006-05-11 22:00,ZJSY 112200Z AUTO 06006KT 6SM 25/22 A2988 RMK T02500220 IEM_DS3505
ZJSY,2006-05-11 23:00,ZJSY 112300Z AUTO 05004KT 6SM 27/22 A2988 RMK T02700220 IEM_DS3505
ZJSY,2006-05-12 00:00,ZJSY 120000Z AUTO 05006KT 6SM 29/22 A2991 RMK T02900220 IEM_DS3505
ZJSY,2006-05-12 01:00,ZJSY 120100Z AUTO 08008KT 6SM 30/22 A2994 RMK T03000220 IEM_DS3505
ZJSY,2006-05-12 02:00,ZJSY 120200Z AUTO 08008KT 7SM 31/23 A2994 RMK T03100230 IEM_DS3505
ZJSY,2006-05-12 03:00,ZJSY 120300Z AUTO 10008KT 7SM 32/22 A2991 RMK T03200220 IEM_DS3505
ZJSY,2006-05-12 04:00,ZJSY 120400Z AUTO 06006KT 7SM 34/20 A2991 RMK T03400200 IEM_DS3505
ZJSY,2006-05-12 05:00,ZJSY 120500Z AUTO 17010KT 7SM 31/24 A2988 RMK T03100240 IEM_DS3505
ZJSY,2006-05-12 06:00,ZJSY 120600Z AUTO 17008KT 7SM 31/23 A2985 RMK T03100230 IEM_DS3505
ZJSY,2006-05-12 07:00,ZJSY 120700Z AUTO 16010KT 7SM 32/23 A2983 RMK T03200230 IEM_DS3505
ZJSY,2006-05-12 08:00,ZJSY 120800Z AUTO 16010KT 7SM 31/24 A2980 RMK T03100240 IEM_DS3505
ZJSY,2006-05-12 09:00,ZJSY 120900Z AUTO 17008KT 7SM 30/24 A2980 RMK T03000240 IEM_DS3505
ZJSY,2006-05-12 10:00,ZJSY 121000Z AUTO 14006KT 7SM 30/24 A2980 RMK T03000240 IEM_DS3505
ZJSY,2006-05-12 11:00,ZJSY 121100Z AUTO 05008KT 7SM 30/23 A2983 RMK T03000230 IEM_DS3505
ZJSY,2006-05-12 12:00,ZJSY 121200Z AUTO 07008KT 7SM 29/24 A2983 RMK T02900240 IEM_DS3505
ZJSY,2006-05-12 13:00,ZJSY 121300Z AUTO 08010KT 7SM 29/24 A2985 RMK T02900240 IEM_DS3505
ZJSY,2006-05-12 14:00,ZJSY 121400Z AUTO 08010KT 7SM 28/24 A2988 RMK T02800240 IEM_DS3505
ZJSY,2006-05-12 15:00,ZJSY 121500Z AUTO 08008KT 7SM 28/24 A2988 RMK T02800240 IEM_DS3505
ZJSY,2006-05-12 16:00,ZJSY 121600Z AUTO 07004KT 7SM 28/23 A2988 RMK T02800230 IEM_DS3505
ZJSY,2006-05-12 17:00,ZJSY 121700Z AUTO 00000KT 27/23 A2985 RMK T02700230 IEM_DS3505
ZJSY,2006-05-12 18:00,ZJSY 121800Z AUTO 36002KT 26/23 A2985 RMK T02600230 IEM_DS3505
ZJSY,2006-05-12 19:00,ZJSY 121900Z AUTO 26/23 A2985 RMK T02600230 IEM_DS3505
ZJSY,2006-05-12 20:00,ZJSY 122000Z AUTO 32004KT 25/23 A2985 RMK T02500230 IEM_DS3505
ZJSY,2006-05-12 21:00,ZJSY 122100Z AUTO 00000KT 6SM 25/23 A2985 RMK T02500230 IEM_DS3505
ZJSY,2006-05-12 22:00,ZJSY 122200Z AUTO 00000KT 6SM 25/22 A2985 RMK T02500220 IEM_DS3505
ZJSY,2006-05-12 23:00,ZJSY 122300Z AUTO 33004KT 6SM 25/23 A2985 RMK T02500230 IEM_DS3505
ZJSY,2006-05-13 00:00,ZJSY 130000Z AUTO 6SM 28/23 A2988 RMK T02800230 IEM_DS3505
ZJSY,2006-05-13 01:00,ZJSY 130100Z AUTO 10004KT 6SM 31/22 A2988 RMK T03100220 IEM_DS3505
ZJSY,2006-05-13 02:00,ZJSY 130200Z AUTO 06008KT 6SM 32/20 A2988 RMK T03200200 IEM_DS3505
ZJSY,2006-05-13 03:00,ZJSY 130300Z AUTO 20006KT 6SM 32/23 A2988 RMK T03200230 IEM_DS3505
ZJSY,2006-05-13 04:00,ZJSY 130400Z AUTO 20008KT 7SM 32/22 A2985 RMK T03200220 IEM_DS3505
ZJSY,2006-05-13 05:00,ZJSY 130500Z AUTO 22010KT 7SM 31/23 A2985 RMK T03100230 IEM_DS3505
ZJSY,2006-05-13 06:00,ZJSY 130600Z AUTO 21008KT 7SM 31/24 A2983 RMK T03100240 IEM_DS3505
ZJSY,2006-05-13 07:00,ZJSY 130700Z AUTO 23010KT 7SM 31/24 A2983 RMK T03100240 IEM_DS3505
ZJSY,2006-05-13 08:00,ZJSY 130800Z AUTO 21008KT 7SM 30/24 A2983 RMK T03000240 IEM_DS3505
ZJSY,2006-05-13 09:00,ZJSY 130900Z AUTO 21008KT 7SM 30/25 A2980 RMK T03000250 IEM_DS3505
ZJSY,2006-05-13 10:00,ZJSY 131000Z AUTO 18004KT 7SM 29/24 A2980 RMK T02900240 IEM_DS3505
ZJSY,2006-05-13 11:00,ZJSY 131100Z AUTO 16004KT 7SM 29/24 A2983 RMK T02900240 IEM_DS3505
ZJSY,2006-05-13 12:00,ZJSY 131200Z AUTO 7SM 29/24 A2985 RMK T02900240 IEM_DS3505
ZJSY,2006-05-13 13:00,ZJSY 131300Z AUTO 34004KT 7SM 28/24 A2988 RMK T02800240 IEM_DS3505
ZJSY,2006-05-13 14:00,ZJSY 131400Z AUTO 28004KT 7SM 27/23 A2988 RMK T02700230 IEM_DS3505
ZJSY,2006-05-13 15:00,ZJSY 131500Z AUTO 01004KT 7SM 28/20 A2991 RMK T02800200 IEM_DS3505
ZJSY,2006-05-13 16:00,ZJSY 131600Z AUTO 33006KT 7SM 27/20 A2988 RMK T02700200 IEM_DS3505
ZJSY,2006-05-13 17:00,ZJSY 131700Z AUTO 34004KT 26/20 A2988 RMK T02600200 IEM_DS3505
ZJSY,2006-05-13 18:00,ZJSY 131800Z AUTO 25/19 A2985 RMK T02500190 IEM_DS3505
ZJSY,2006-05-13 19:00,ZJSY 131900Z AUTO 26004KT 24/19 A2985 RMK T02400190 IEM_DS3505
ZJSY,2006-05-13 20:00,ZJSY 132000Z AUTO 00000KT 24/19 A2985 RMK T02400190 IEM_DS3505
ZJSY,2006-05-13 22:00,ZJSY 132200Z AUTO 32006KT 6SM 23/19 A2985 RMK T02300190 IEM_DS3505
ZJSY,2006-05-13 23:00,ZJSY 132300Z AUTO 32004KT 6SM 24/19 A2985 RMK T02400190 IEM_DS3505
ZJSY,2006-05-14 00:00,ZJSY 140000Z AUTO 6SM 26/19 A2988 RMK T02600190 IEM_DS3505
ZJSY,2006-05-14 01:00,ZJSY 140100Z 34003MPS 300V020 CAVOK 28/19 Q1012 NOSIG
ZJSY,2006-05-14 02:00,ZJSY 140200Z AUTO 6SM 29/19 A2988 RMK T02900190 IEM_DS3505
ZJSY,2006-05-14 03:00,ZJSY 140300Z AUTO 15004KT 6SM 29/19 A2988 RMK T02900190 IEM_DS3505
ZJSY,2006-05-14 04:00,ZJSY 140400Z AUTO 16006KT 6SM 30/19 A2985 RMK T03000190 IEM_DS3505
ZJSY,2006-05-14 05:00,ZJSY 140500Z AUTO 15008KT 7SM 29/21 A2985 RMK T02900210 IEM_DS3505
ZJSY,2006-05-14 06:00,ZJSY 140600Z 15005MPS 120V180 9999 FEW016 29/21 Q1010 NOSIG
ZJSY,2006-05-14 07:00,ZJSY 140700Z AUTO 16008KT 7SM 28/21 A2983 RMK T02800210 IEM_DS3505
ZJSY,2006-05-14 08:00,ZJSY 140800Z AUTO 17006KT 7SM 28/21 A2980 RMK T02800210 IEM_DS3505
ZJSY,2006-05-14 09:00,ZJSY 140900Z AUTO 17006KT 7SM 28/21 A2980 RMK T02800210 IEM_DS3505
ZJSY,2006-05-14 10:00,ZJSY 141000Z AUTO 17004KT 7SM 27/21 A2980 RMK T02700210 IEM_DS3505
ZJSY,2006-05-14 11:00,ZJSY 141100Z AUTO 27006KT 7SM 27/18 A2983 RMK T02700180 IEM_DS3505
ZJSY,2006-05-14 12:00,ZJSY 141200Z AUTO 34004KT 4SM 26/18 A2985 RMK T02600180 IEM_DS3505
ZJSY,2006-05-14 13:00,ZJSY 141300Z VRB01MPS 8000 SCT018 BKN050 26/18 Q1011 NOSIG
ZJSY,2006-05-14 14:00,ZJSY 141400Z AUTO 03006KT 7SM 25/17 A2988 RMK T02500170 IEM_DS3505
ZJSY,2006-05-14 15:00,ZJSY 141500Z AUTO 36004KT 6SM 24/17 A2991 RMK T02400170 IEM_DS3505
ZJSY,2006-05-14 16:00,ZJSY 141600Z AUTO 35006KT 6SM 24/17 A2988 RMK T02400170 IEM_DS3505
ZJSY,2006-05-14 17:00,ZJSY 141700Z AUTO 33006KT 6SM 24/16 A2988 RMK T02400160 IEM_DS3505
ZJSY,2006-05-14 18:00,ZJSY 141800Z AUTO 22/16 A2985 RMK T02200160 IEM_DS3505
ZJSY,2006-05-14 19:00,ZJSY 141900Z AUTO 23/16 A2983 RMK T02300160 IEM_DS3505
ZJSY,2006-05-14 20:00,ZJSY 142000Z AUTO 05004KT 22/15 A2983 RMK T02200150 IEM_DS3505
ZJSY,2006-05-14 21:00,ZJSY 142100Z AUTO 6SM 23/15 A2983 RMK T02300150 IEM_DS3505
ZJSY,2006-05-14 22:00,ZJSY 142200Z AUTO 34004KT 6SM 21/15 A2983 RMK T02100150 IEM_DS3505
ZJSY,2006-05-14 23:00,ZJSY 142300Z AUTO 00000KT 6SM 22/15 A2983 RMK T02200150 IEM_DS3505
ZJSY,2006-05-15 00:00,ZJSY 150000Z AUTO 33004KT 7SM 24/16 A2983 RMK T02400160 IEM_DS3505
ZJSY,2006-05-15 01:00,ZJSY 150100Z AUTO 00000KT 6SM 26/15 A2983 RMK T02600150 IEM_DS3505
ZJSY,2006-05-15 02:00,ZJSY 150200Z AUTO 6SM 27/15 A2983 RMK T02700150 IEM_DS3505
ZJSY,2006-05-15 03:00,ZJSY 150300Z AUTO 17004KT 6SM 27/16 A2980 RMK T02700160 IEM_DS3505
ZJSY,2006-05-15 04:00,ZJSY 150400Z AUTO 22006KT 6SM 28/17 A2980 RMK T02800170 IEM_DS3505
ZJSY,2006-05-15 05:00,ZJSY 150500Z AUTO 21010KT 6SM 28/17 A2977 RMK T02800170 IEM_DS3505
ZJSY,2006-05-15 06:00,ZJSY 150600Z AUTO 23008KT 6SM 29/17 A2977 RMK T02900170 IEM_DS3505
ZJSY,2006-05-15 07:00,ZJSY 150700Z AUTO 24012KT 6SM 29/18 A2974 RMK T02900180 IEM_DS3505
ZJSY,2006-05-15 08:00,ZJSY 150800Z AUTO 23008KT 6SM 29/18 A2971 RMK T02900180 IEM_DS3505
ZJSY,2006-05-15 09:00,ZJSY 150900Z AUTO 21006KT 6SM 29/19 A2971 RMK T02900190 IEM_DS3505
ZJSY,2006-05-15 10:00,ZJSY 151000Z 15002MPS 110V190 9999 FEW015 28/18 Q1006 NOSIG
ZJSY,2006-05-15 11:00,ZJSY 151100Z AUTO 11002KT 7SM 27/19 A2971 RMK T02700190 IEM_DS3505
ZJSY,2006-05-15 12:00,ZJSY 151200Z AUTO 10002KT 7SM 27/19 A2974 RMK T02700190 IEM_DS3505
ZJSY,2006-05-15 13:00,ZJSY 151300Z AUTO 33004KT 7SM 26/19 A2977 RMK T02600190 IEM_DS3505
ZJSY,2006-05-15 14:00,ZJSY 151400Z AUTO 33004KT 7SM 25/19 A2977 RMK T02500190 IEM_DS3505
ZJSY,2006-05-15 15:00,ZJSY 151500Z 35001MPS 9999 SCT020 25/19 Q1009 NOSIG
ZJSY,2006-05-15 16:00,ZJSY 151600Z AUTO 31006KT 7SM 26/18 A2977 RMK T02600180 IEM_DS3505
ZJSY,2006-05-15 17:00,ZJSY 151700Z AUTO 33006KT 25/17 A2974 RMK T02500170 IEM_DS3505
ZJSY,2006-05-15 18:00,ZJSY 151800Z AUTO 30004KT 25/17 A2974 RMK T02500170 IEM_DS3505
ZJSY,2006-05-15 19:00,ZJSY 151900Z AUTO VRB01MPS //// // ////// 24/17 Q1007
ZJSY,2006-05-15 20:00,ZJSY 152000Z AUTO 24/17 A2974 RMK T02400170 IEM_DS3505
ZJSY,2006-05-15 21:00,ZJSY 152100Z AUTO 00000KT 7SM 23/17 A2971 RMK T02300170 IEM_DS3505
ZJSY,2006-05-15 22:00,ZJSY 152200Z AUTO 02002KT 7SM 23/18 A2971 RMK T02300180 IEM_DS3505
ZJSY,2006-05-15 23:00,ZJSY 152300Z AUTO 7SM 24/17 A2971 RMK T02400170 IEM_DS3505
ZJSY,2006-05-16 00:00,ZJSY 160000Z AUTO 32006KT 4SM 27/16 A2974 RMK T02700160 IEM_DS3505
ZJSY,2006-05-16 01:00,ZJSY 160100Z AUTO 25004KT 6SM 29/17 A2974 RMK T02900170 IEM_DS3505
ZJSY,2006-05-16 02:00,ZJSY 160200Z AUTO 16006KT 6SM 30/18 A2974 RMK T03000180 IEM_DS3505
ZJSY,2006-05-16 03:00,ZJSY 160300Z AUTO 16006KT 7SM 30/17 A2974 RMK T03000170 IEM_DS3505
ZJSY,2006-05-16 04:00,ZJSY 160400Z AUTO 18006KT 6SM 30/19 A2971 RMK T03000190 IEM_DS3505
ZJSY,2006-05-16 05:00,ZJSY 160500Z AUTO 18006KT 6SM 30/20 A2971 RMK T03000200 IEM_DS3505
ZJSY,2006-05-16 06:00,ZJSY 160600Z AUTO 18008KT 6SM 32/19 A2968 RMK T03200190 IEM_DS3505
ZJSY,2006-05-16 07:00,ZJSY 160700Z AUTO 6SM 32/20 A2965 RMK T03200200 IEM_DS3505
ZJSY,2006-05-16 08:00,ZJSY 160800Z AUTO 34010KT 7SM 34/18 A2965 RMK T03400180 IEM_DS3505
ZJSY,2006-05-16 09:00,ZJSY 160900Z 33005MPS 300V360 9999 SCT018 SCT030 33/18 Q1004 NOSIG
ZJSY,2006-05-16 10:00,ZJSY 161000Z AUTO 32008KT 7SM 32/18 A2965 RMK T03200180 IEM_DS3505
ZJSY,2006-05-16 11:00,ZJSY 161100Z AUTO 31006KT 7SM 31/19 A2968 RMK T03100190 IEM_DS3505
ZJSY,2006-05-16 12:00,ZJSY 161200Z AUTO 32006KT 7SM 29/19 A2971 RMK T02900190 IEM_DS3505
ZJSY,2006-05-16 13:00,ZJSY 161300Z AUTO 31008KT 7SM 28/18 A2971 RMK T02800180 IEM_DS3505
ZJSY,2006-05-16 14:00,ZJSY 161400Z AUTO 30012KT 7SM 28/18 A2974 RMK T02800180 IEM_DS3505
ZJSY,2006-05-16 15:00,ZJSY 161500Z AUTO 28004KT 7SM 27/18 A2974 RMK T02700180 IEM_DS3505
ZJSY,2006-05-16 16:00,ZJSY 161600Z AUTO 24006KT 7SM 27/17 A2974 RMK T02700170 IEM_DS3505
ZJSY,2006-05-16 17:00,ZJSY 161700Z AUTO 26002MPS //// // ////// 26/16 Q1007
ZJSY,2006-05-16 18:00,ZJSY 161800Z AUTO 27006KT 26/15 A2974 RMK T02600150 IEM_DS3505
ZJSY,2006-05-16 19:00,ZJSY 161900Z AUTO 25/15 A2971 RMK T02500150 IEM_DS3505
ZJSY,2006-05-16 20:00,ZJSY 162000Z AUTO 00000KT 24/16 A2971 RMK T02400160 IEM_DS3505
ZJSY,2006-05-16 21:00,ZJSY 162100Z AUTO 31006KT 6SM 25/15 A2971 RMK T02500150 IEM_DS3505
ZJSY,2006-05-16 22:00,ZJSY 162200Z AUTO 27006KT 6SM 25/15 A2971 RMK T02500150 IEM_DS3505
ZJSY,2006-05-16 23:00,ZJSY 162300Z AUTO 29010KT 6SM 27/15 A2971 RMK T02700150 IEM_DS3505
ZJSY,2006-05-17 00:00,ZJSY 170000Z AUTO 28010KT 6SM 28/15 A2971 RMK T02800150 IEM_DS3505
ZJSY,2006-05-17 01:00,ZJSY 170100Z AUTO 28008KT 6SM 30/13 A2974 RMK T03000130 IEM_DS3505
ZJSY,2006-05-17 02:00,ZJSY 170200Z AUTO 29010KT 6SM 31/15 A2974 RMK T03100150 IEM_DS3505
ZJSY,2006-05-17 03:00,ZJSY 170300Z AUTO 28010KT 6SM 32/15 A2971 RMK T03200150 IEM_DS3505
ZJSY,2006-05-17 04:00,ZJSY 170400Z AUTO 29010KT 6SM 33/15 A2971 RMK T03300150 IEM_DS3505
ZJSY,2006-05-17 05:00,ZJSY 170500Z AUTO 32010G19KT 6SM 35/14 A2968 RMK T03500140 IEM_DS3505
ZJSY,2006-05-17 06:00,ZJSY 170600Z AUTO 24012KT 6SM 32/19 A2965 RMK T03200190 IEM_DS3505
ZJSY,2006-05-17 07:00,ZJSY 170700Z AUTO 24012KT 6SM 33/20 A2962 RMK T03300200 IEM_DS3505
ZJSY,2006-05-17 08:00,ZJSY 170800Z AUTO 24012KT 6SM 33/19 A2962 RMK T03300190 IEM_DS3505
ZJSY,2006-05-17 09:00,ZJSY 170900Z AUTO 31012KT 6SM 35/15 A2959 RMK T03500150 IEM_DS3505
ZJSY,2006-05-17 10:00,ZJSY 171000Z AUTO 32010KT 6SM 33/14 A2962 RMK T03300140 IEM_DS3505
ZJSY,2006-05-17 11:00,ZJSY 171100Z AUTO 29006KT 6SM 31/13 A2965 RMK T03100130 IEM_DS3505
ZJSY,2006-05-17 12:00,ZJSY 171200Z AUTO 28006KT 6SM 30/12 A2968 RMK T03000120 IEM_DS3505
ZJSY,2006-05-17 13:00,ZJSY 171300Z AUTO 6SM 29/13 A2971 RMK T02900130 IEM_DS3505
ZJSY,2006-05-17 14:00,ZJSY 171400Z AUTO 00000KT 6SM 28/13 A2971 RMK T02800130 IEM_DS3505
ZJSY,2006-05-17 15:00,ZJSY 171500Z AUTO 00000KT 6SM 27/14 A2974 RMK T02700140 IEM_DS3505
ZJSY,2006-05-17 16:00,ZJSY 171600Z AUTO 00000KT 6SM 26/15 A2974 RMK T02600150 IEM_DS3505
ZJSY,2006-05-17 17:00,ZJSY 171700Z 00000MPS CAVOK 25/15 Q1007 NOSIG
ZJSY,2006-05-17 18:00,ZJSY 171800Z AUTO 33006KT 6SM 24/16 A2971 RMK T02400160 IEM_DS3505
ZJSY,2006-05-17 19:00,ZJSY 171900Z AUTO 34004KT 23/16 A2971 RMK T02300160 IEM_DS3505
ZJSY,2006-05-17 20:00,ZJSY 172000Z AUTO 34004KT 22/16 A2971 RMK T02200160 IEM_DS3505
ZJSY,2006-05-17 21:00,ZJSY 172100Z AUTO 33004KT 6SM 22/16 A2971 RMK T02200160 IEM_DS3505
ZJSY,2006-05-17 22:00,ZJSY 172200Z AUTO 36002KT 6SM 21/16 A2971 RMK T02100160 IEM_DS3505
ZJSY,2006-05-17 23:00,ZJSY 172300Z AUTO 33004KT 6SM 23/16 A2974 RMK T02300160 IEM_DS3505
ZJSY,2006-05-18 00:00,ZJSY 180000Z AUTO 00000KT 6SM 27/17 A2974 RMK T02700170 IEM_DS3505
ZJSY,2006-05-18 01:00,ZJSY 180100Z AUTO 6SM 29/16 A2977 RMK T02900160 IEM_DS3505
ZJSY,2006-05-18 02:00,ZJSY 180200Z AUTO 18004KT 6SM 31/15 A2974 RMK T03100150 IEM_DS3505
ZJSY,2006-05-18 03:00,ZJSY 180300Z AUTO 19004KT 6SM 31/15 A2974 RMK T03100150 IEM_DS3505
ZJSY,2006-05-18 04:00,ZJSY 180400Z AUTO 18006KT 6SM 30/19 A2974 RMK T03000190 IEM_DS3505
ZJSY,2006-05-18 05:00,ZJSY 180500Z AUTO 21010KT 6SM 30/19 A2971 RMK T03000190 IEM_DS3505
ZJSY,2006-05-18 06:00,ZJSY 180600Z AUTO 23010KT 6SM 30/17 A2971 RMK T03000170 IEM_DS3505
ZJSY,2006-05-18 07:00,ZJSY 180700Z AUTO 22010KT 6SM 30/20 A2968 RMK T03000200 IEM_DS3505
ZJSY,2006-05-18 08:00,ZJSY 180800Z AUTO 23008KT 6SM 30/20 A2968 RMK T03000200 IEM_DS3505
ZJSY,2006-05-18 09:00,ZJSY 180900Z AUTO 22010KT 6SM 29/19 A2968 RMK T02900190 IEM_DS3505
ZJSY,2006-05-18 10:00,ZJSY 181000Z AUTO 23008KT 6SM 29/20 A2968 RMK T02900200 IEM_DS3505
ZJSY,2006-05-18 11:00,ZJSY 181100Z AUTO 24006KT 6SM 28/20 A2968 RMK T02800200 IEM_DS3505
ZJSY,2006-05-18 12:00,ZJSY 181200Z AUTO 26004KT 6SM 27/20 A2971 RMK T02700200 IEM_DS3505
ZJSY,2006-05-18 13:00,ZJSY 181300Z AUTO 6SM 27/20 A2974 RMK T02700200 IEM_DS3505
ZJSY,2006-05-18 14:00,ZJSY 181400Z AUTO 35004KT 6SM 26/20 A2974 RMK T02600200 IEM_DS3505
ZJSY,2006-05-18 15:00,ZJSY 181500Z AUTO 34002KT 7SM 26/21 A2977 RMK T02600210 IEM_DS3505
ZJSY,2006-05-18 16:00,ZJSY 181600Z AUTO 00000KT 7SM 25/21 A2977 RMK T02500210 IEM_DS3505
ZJSY,2006-05-18 17:00,ZJSY 181700Z AUTO 34002KT 7SM 25/21 A2974 RMK T02500210 IEM_DS3505
ZJSY,2006-05-18 18:00,ZJSY 181800Z AUTO 00000KT 7SM 25/21 A2974 RMK T02500210 IEM_DS3505
ZJSY,2006-05-18 19:00,ZJSY 181900Z AUTO 33002KT 7SM 25/21 A2974 RMK T02500210 IEM_DS3505
ZJSY,2006-05-18 20:00,ZJSY 182000Z AUTO 00000KT 25/21 A2974 RMK T02500210 IEM_DS3505
ZJSY,2006-05-18 21:00,ZJSY 182100Z AUTO 00000KT 7SM 25/21 A2974 RMK T02500210 IEM_DS3505
ZJSY,2006-05-18 22:00,ZJSY 182200Z AUTO 35004KT 7SM 25/21 A2974 RMK T02500210 IEM_DS3505
ZJSY,2006-05-18 23:00,ZJSY 182300Z AUTO 34004KT 3SM 25/22 A2977 RMK T02500220 IEM_DS3505
ZJSY,2006-05-19 00:00,ZJSY 190000Z AUTO 2 1/2SM 27/22 A2977 RMK T02700220 IEM_DS3505
ZJSY,2006-05-19 01:00,ZJSY 190100Z AUTO 4SM 29/20 A2980 RMK T02900200 IEM_DS3505
ZJSY,2006-05-19 02:00,ZJSY 190200Z AUTO 6SM 29/20 A2980 RMK T02900200 IEM_DS3505
ZJSY,2006-05-19 03:00,ZJSY 190300Z AUTO 18004KT 6SM 29/21 A2977 RMK T02900210 IEM_DS3505
ZJSY,2006-05-19 04:00,ZJSY 190400Z AUTO 18006KT 6SM 30/21 A2974 RMK T03000210 IEM_DS3505
ZJSY,2006-05-19 05:00,ZJSY 190500Z AUTO 17008KT 7SM 29/23 A2974 RMK T02900230 IEM_DS3505
ZJSY,2006-05-19 06:00,ZJSY 190600Z AUTO 16006KT 7SM 29/23 A2971 RMK T02900230 IEM_DS3505
ZJSY,2006-05-19 07:00,ZJSY 190700Z AUTO 18004KT 6SM 28/23 A2971 RMK T02800230 IEM_DS3505
ZJSY,2006-05-19 08:00,ZJSY 190800Z AUTO 16006KT 7SM 29/22 A2971 RMK T02900220 IEM_DS3505
ZJSY,2006-05-19 09:00,ZJSY 190900Z 16003MPS 130V190 9999 SCT016 29/22 Q1006 NOSIG
ZJSY,2006-05-19 10:00,ZJSY 191000Z AUTO 07010KT 7SM 29/22 A2971 RMK T02900220 IEM_DS3505
ZJSY,2006-05-19 11:00,ZJSY 191100Z AUTO 07010KT 7SM 28/22 A2974 RMK T02800220 IEM_DS3505
ZJSY,2006-05-19 12:00,ZJSY 191200Z AUTO 07012KT 7SM 27/22 A2974 RMK T02700220 IEM_DS3505
ZJSY,2006-05-19 13:00,ZJSY 191300Z AUTO 08010KT 7SM 27/22 A2977 RMK T02700220 IEM_DS3505
ZJSY,2006-05-19 14:00,ZJSY 191400Z AUTO 07010KT 7SM 27/21 A2977 RMK T02700210 IEM_DS3505
ZJSY,2006-05-19 15:00,ZJSY 191500Z AUTO 08008KT 7SM 27/21 A2980 RMK T02700210 IEM_DS3505
ZJSY,2006-05-19 16:00,ZJSY 191600Z AUTO 08008KT 7SM 26/21 A2977 RMK T02600210 IEM_DS3505
ZJSY,2006-05-19 17:00,ZJSY 191700Z AUTO 06008KT 27/21 A2974 RMK T02700210 IEM_DS3505
ZJSY,2006-05-19 18:00,ZJSY 191800Z AUTO 07008KT 27/21 A2974 RMK T02700210 IEM_DS3505
ZJSY,2006-05-19 19:00,ZJSY 191900Z AUTO 07010KT 26/21 A2971 RMK T02600210 IEM_DS3505
ZJSY,2006-05-19 20:00,ZJSY 192000Z AUTO 07008KT 26/20 A2971 RMK T02600200 IEM_DS3505
ZJSY,2006-05-19 21:00,ZJSY 192100Z AUTO 07008KT 5SM 25/22 A2971 RMK T02500220 IEM_DS3505
ZJSY,2006-05-19 22:00,ZJSY 192200Z AUTO 08004KT 3SM 24/22 A2971 RMK T02400220 IEM_DS3505
ZJSY,2006-05-19 23:00,ZJSY 192300Z AUTO 08004KT 3SM 25/22 A2974 RMK T02500220 IEM_DS3505
ZJSY,2006-05-20 00:00,ZJSY 200000Z AUTO 06006KT 3SM 26/22 A2974 RMK T02600220 IEM_DS3505
ZJSY,2006-05-20 01:00,ZJSY 200100Z AUTO 05010KT 4SM 28/22 A2974 RMK T02800220 IEM_DS3505
ZJSY,2006-05-20 02:00,ZJSY 200200Z AUTO 06008KT 5SM 28/21 A2977 RMK T02800210 IEM_DS3505
ZJSY,2006-05-20 03:00,ZJSY 200300Z AUTO 06008KT 4SM 27/23 A2974 RMK T02700230 IEM_DS3505
ZJSY,2006-05-20 04:00,ZJSY 200400Z AUTO 07008KT 4SM 28/23 A2974 RMK T02800230 IEM_DS3505
ZJSY,2006-05-20 05:00,ZJSY 200500Z AUTO 08010KT 4SM 27/23 A2971 RMK T02700230 IEM_DS3505
ZJSY,2006-05-20 06:00,ZJSY 200600Z AUTO 06004KT 4SM 27/24 A2968 RMK T02700240 IEM_DS3505
ZJSY,2006-05-20 07:00,ZJSY 200700Z AUTO 04004KT 4SM 29/22 A2965 RMK T02900220 IEM_DS3505
ZJSY,2006-05-20 08:00,ZJSY 200800Z AUTO 07004KT 7SM 29/22 A2965 RMK T02900220 IEM_DS3505
ZJSY,2006-05-20 09:00,ZJSY 200900Z AUTO 23006KT 7SM 28/23 A2965 RMK T02800230 IEM_DS3505
ZJSY,2006-05-20 10:00,ZJSY 201000Z AUTO 7SM 27/23 A2965 RMK T02700230 IEM_DS3505
ZJSY,2006-05-20 11:00,ZJSY 201100Z AUTO 36004KT 7SM 26/22 A2968 RMK T02600220 IEM_DS3505
ZJSY,2006-05-20 12:00,ZJSY 201200Z AUTO 5SM 25/23 A2971 RMK T02500230 IEM_DS3505
ZJSY,2006-05-20 13:00,ZJSY 201300Z AUTO 00000KT 7SM 24/23 A2974 RMK T02400230 IEM_DS3505
ZJSY,2006-05-20 14:00,ZJSY 201400Z AUTO 00000KT 7SM 25/23 A2974 RMK T02500230 IEM_DS3505
ZJSY,2006-05-20 15:00,ZJSY 201500Z AUTO 00000KT 7SM 25/23 A2974 RMK T02500230 IEM_DS3505
ZJSY,2006-05-20 16:00,ZJSY 201600Z AUTO 00000KT 7SM 25/23 A2974 RMK T02500230 IEM_DS3505
ZJSY,2006-05-20 17:00,ZJSY 201700Z AUTO 02002KT 25/23 A2971 RMK T02500230 IEM_DS3505
ZJSY,2006-05-20 18:00,ZJSY 201800Z AUTO 28002KT 25/23 A2971 RMK T02500230 IEM_DS3505
ZJSY,2006-05-20 19:00,ZJSY 201900Z AUTO 00000KT 25/23 A2968 RMK T02500230 IEM_DS3505
ZJSY,2006-05-20 20:00,ZJSY 202000Z AUTO 00000KT 25/23 A2968 RMK T02500230 IEM_DS3505
ZJSY,2006-05-20 21:00,ZJSY 202100Z AUTO 33004KT 7SM 25/23 A2968 RMK T02500230 IEM_DS3505
ZJSY,2006-05-20 22:00,ZJSY 202200Z AUTO 29002KT 7SM 25/23 A2968 RMK T02500230 IEM_DS3505
ZJSY,2006-05-20 23:00,ZJSY 202300Z AUTO 34002KT 7SM 25/23 A2971 RMK T02500230 IEM_DS3505
ZJSY,2006-05-21 00:00,ZJSY 210000Z AUTO 33002KT 7SM 26/23 A2974 RMK T02600230 IEM_DS3505
ZJSY,2006-05-21 01:00,ZJSY 210100Z AUTO 00000KT 7SM 27/23 A2974 RMK T02700230 IEM_DS3505
ZJSY,2006-05-21 02:00,ZJSY 210200Z AUTO 18004KT 7SM 28/23 A2974 RMK T02800230 IEM_DS3505
ZJSY,2006-05-21 03:00,ZJSY 210300Z AUTO 20006KT 7SM 28/24 A2974 RMK T02800240 IEM_DS3505
ZJSY,2006-05-21 04:00,ZJSY 210400Z AUTO 23006KT 7SM 29/24 A2974 RMK T02900240 IEM_DS3505
ZJSY,2006-05-21 05:00,ZJSY 210500Z AUTO 23008KT 7SM 30/24 A2974 RMK T03000240 IEM_DS3505
ZJSY,2006-05-21 06:00,ZJSY 210600Z AUTO 23010KT 7SM 29/24 A2971 RMK T02900240 IEM_DS3505
ZJSY,2006-05-21 07:00,ZJSY 210700Z AUTO 23010KT 7SM 29/24 A2968 RMK T02900240 IEM_DS3505
ZJSY,2006-05-21 08:00,ZJSY 210800Z AUTO 23006KT 7SM 29/23 A2968 RMK T02900230 IEM_DS3505
ZJSY,2006-05-21 09:00,ZJSY 210900Z AUTO 23006KT 7SM 28/23 A2968 RMK T02800230 IEM_DS3505
ZJSY,2006-05-21 10:00,ZJSY 211000Z AUTO 23006KT 7SM 28/24 A2971 RMK T02800240 IEM_DS3505
ZJSY,2006-05-21 11:00,ZJSY 211100Z AUTO 23006KT 7SM 27/24 A2971 RMK T02700240 IEM_DS3505
ZJSY,2006-05-21 12:00,ZJSY 211200Z AUTO 24004KT 7SM 27/24 A2971 RMK T02700240 IEM_DS3505
ZJSY,2006-05-21 13:00,ZJSY 211300Z AUTO 23004KT 7SM 27/23 A2974 RMK T02700230 IEM_DS3505
ZJSY,2006-05-21 14:00,ZJSY 211400Z AUTO 29004KT 7SM 27/23 A2977 RMK T02700230 IEM_DS3505
ZJSY,2006-05-21 15:00,ZJSY 211500Z AUTO 6SM 27/23 A2980 RMK T02700230 IEM_DS3505
ZJSY,2006-05-21 16:00,ZJSY 211600Z AUTO 6SM 27/23 A2980 RMK T02700230 IEM_DS3505
ZJSY,2006-05-21 17:00,ZJSY 211700Z AUTO 33002KT 6SM 26/23 A2977 RMK T02600230 IEM_DS3505
ZJSY,2006-05-21 18:00,ZJSY 211800Z AUTO 33004KT 25/23 A2977 RMK T02500230 IEM_DS3505
ZJSY,2006-05-21 19:00,ZJSY 211900Z AUTO 25/23 A2974 RMK T02500230 IEM_DS3505
ZJSY,2006-05-21 20:00,ZJSY 212000Z AUTO 35004KT 25/23 A2974 RMK T02500230 IEM_DS3505
ZJSY,2006-05-21 21:00,ZJSY 212100Z AUTO 32002KT 6SM 25/23 A2977 RMK T02500230 IEM_DS3505
ZJSY,2006-05-21 22:00,ZJSY 212200Z AUTO 36002KT 7SM 25/23 A2977 RMK T02500230 IEM_DS3505
ZJSY,2006-05-21 23:00,ZJSY 212300Z AUTO 7SM 25/23 A2977 RMK T02500230 IEM_DS3505
ZJSY,2006-05-22 00:00,ZJSY 220000Z AUTO 00000KT 7SM 28/24 A2980 RMK T02800240 IEM_DS3505
ZJSY,2006-05-22 01:00,ZJSY 220100Z AUTO 7SM 29/24 A2980 RMK T02900240 IEM_DS3505
ZJSY,2006-05-22 02:00,ZJSY 220200Z AUTO 17004KT 7SM 29/23 A2983 RMK T02900230 IEM_DS3505
ZJSY,2006-05-22 03:00,ZJSY 220300Z AUTO 20006KT 7SM 29/24 A2980 RMK T02900240 IEM_DS3505
ZJSY,2006-05-22 04:00,ZJSY 220400Z 20003MPS 160V230 9999 FEW018 30/23 Q1009 NOSIG
ZJSY,2006-05-22 05:00,ZJSY 220500Z AUTO 20008KT 7SM 30/23 A2977 RMK T03000230 IEM_DS3505
ZJSY,2006-05-22 06:00,ZJSY 220600Z AUTO 20004KT 6SM 31/22 A2977 RMK T03100220 IEM_DS3505
ZJSY,2006-05-22 07:00,ZJSY 220700Z AUTO 21006KT 6SM 30/21 A2974 RMK T03000210 IEM_DS3505
ZJSY,2006-05-22 08:00,ZJSY 220800Z AUTO 21006KT 6SM 31/22 A2971 RMK T03100220 IEM_DS3505
ZJSY,2006-05-22 09:00,ZJSY 220900Z AUTO 21004KT 6SM 30/23 A2971 RMK T03000230 IEM_DS3505
ZJSY,2006-05-22 10:00,ZJSY 221000Z AUTO 20004KT 6SM 30/24 A2971 RMK T03000240 IEM_DS3505
ZJSY,2006-05-22 11:00,ZJSY 221100Z AUTO 6SM 29/23 A2974 RMK T02900230 IEM_DS3505
ZJSY,2006-05-22 12:00,ZJSY 221200Z AUTO 11002KT 6SM 29/24 A2977 RMK T02900240 IEM_DS3505
ZJSY,2006-05-22 13:00,ZJSY 221300Z AUTO 11004KT 6SM 29/24 A2977 RMK T02900240 IEM_DS3505
ZJSY,2006-05-22 14:00,ZJSY 221400Z AUTO 08006KT 6SM 28/24 A2980 RMK T02800240 IEM_DS3505
ZJSY,2006-05-22 15:00,ZJSY 221500Z AUTO 08002KT 7SM 28/24 A2980 RMK T02800240 IEM_DS3505
ZJSY,2006-05-22 16:00,ZJSY 221600Z AUTO 08006KT 7SM 28/24 A2980 RMK T02800240 IEM_DS3505
ZJSY,2006-05-22 17:00,ZJSY 221700Z AUTO 08006KT 7SM 28/24 A2980 RMK T02800240 IEM_DS3505
ZJSY,2006-05-22 18:00,ZJSY 221800Z AUTO 07006KT 7SM 28/24 A2977 RMK T02800240 IEM_DS3505
ZJSY,2006-05-22 19:00,ZJSY 221900Z AUTO 07006KT 28/24 A2977 RMK T02800240 IEM_DS3505
ZJSY,2006-05-22 20:00,ZJSY 222000Z AUTO 05006KT 28/24 A2977 RMK T02800240 IEM_DS3505
ZJSY,2006-05-22 21:00,ZJSY 222100Z AUTO 07004KT 7SM 27/24 A2977 RMK T02700240 IEM_DS3505
ZJSY,2006-05-22 22:00,ZJSY 222200Z AUTO 00000KT 7SM 27/24 A2980 RMK T02700240 IEM_DS3505
ZJSY,2006-05-22 23:00,ZJSY 222300Z AUTO 33004KT 7SM 27/25 A2983 RMK T02700250 IEM_DS3505
ZJSY,2006-05-23 00:00,ZJSY 230000Z AUTO 03006KT 5SM 25/24 A2983 RMK T02500240 IEM_DS3505
ZJSY,2006-05-23 01:00,ZJSY 230100Z AUTO 34004KT 7SM 26/24 A2983 RMK T02600240 IEM_DS3505
ZJSY,2006-05-23 02:00,ZJSY 230200Z 05002MPS 9999 FEW015 BKN046 OVC070 28/25 Q1010 NOSIG
ZJSY,2006-05-23 03:00,ZJSY 230300Z AUTO 06004KT 7SM 29/25 A2983 RMK T02900250 IEM_DS3505
ZJSY,2006-05-23 04:00,ZJSY 230400Z AUTO 12004KT 7SM 30/24 A2983 RMK T03000240 IEM_DS3505
ZJSY,2006-05-23 05:00,ZJSY 230500Z AUTO 15006KT 7SM 30/25 A2980 RMK T03000250 IEM_DS3505
ZJSY,2006-05-23 06:00,ZJSY 230600Z AUTO 17006KT 7SM 31/25 A2977 RMK T03100250 IEM_DS3505
ZJSY,2006-05-23 07:00,ZJSY 230700Z AUTO 16008KT 7SM 30/25 A2974 RMK T03000250 IEM_DS3505
ZJSY,2006-05-23 08:00,ZJSY 230800Z AUTO 16006KT 7SM 30/25 A2974 RMK T03000250 IEM_DS3505
ZJSY,2006-05-23 09:00,ZJSY 230900Z AUTO 14006KT 7SM 30/24 A2971 RMK T03000240 IEM_DS3505
ZJSY,2006-05-23 10:00,ZJSY 231000Z AUTO 15008KT 7SM 30/24 A2974 RMK T03000240 IEM_DS3505
ZJSY,2006-05-23 11:00,ZJSY 231100Z AUTO 14006KT 7SM 29/24 A2977 RMK T02900240 IEM_DS3505
ZJSY,2006-05-23 12:00,ZJSY 231200Z AUTO 08006KT 7SM 28/24 A2980 RMK T02800240 IEM_DS3505
ZJSY,2006-05-23 13:00,ZJSY 231300Z AUTO 07006KT 7SM 28/24 A2980 RMK T02800240 IEM_DS3505
ZJSY,2006-05-23 14:00,ZJSY 231400Z AUTO 10004KT 7SM 28/25 A2983 RMK T02800250 IEM_DS3505
ZJSY,2006-05-23 15:00,ZJSY 231500Z AUTO 08008KT 7SM 27/25 A2983 RMK T02700250 IEM_DS3505
ZJSY,2006-05-23 16:00,ZJSY 231600Z AUTO 07006KT 7SM 28/25 A2983 RMK T02800250 IEM_DS3505
ZJSY,2006-05-23 17:00,ZJSY 231700Z AUTO 07006KT 27/25 A2983 RMK T02700250 IEM_DS3505
ZJSY,2006-05-23 18:00,ZJSY 231800Z AUTO 07004KT 27/24 A2980 RMK T02700240 IEM_DS3505
ZJSY,2006-05-23 19:00,ZJSY 231900Z AUTO 26/24 A2980 RMK T02600240 IEM_DS3505
ZJSY,2006-05-23 20:00,ZJSY 232000Z AUTO 13006KT 27/25 A2977 RMK T02700250 IEM_DS3505
ZJSY,2006-05-23 21:00,ZJSY 232100Z AUTO 13006KT 7SM 27/25 A2977 RMK T02700250 IEM_DS3505
ZJSY,2006-05-23 22:00,ZJSY 232200Z 05002MPS 9999 SCT010 27/24 Q1008 NOSIG
ZJSY,2006-05-23 23:00,ZJSY 232300Z AUTO 06004KT 7SM 27/24 A2980 RMK T02700240 IEM_DS3505
ZJSY,2006-05-24 00:00,ZJSY 240000Z AUTO 09004KT 7SM 28/25 A2980 RMK T02800250 IEM_DS3505
ZJSY,2006-05-24 01:00,ZJSY 240100Z AUTO 12006KT 7SM 29/25 A2983 RMK T02900250 IEM_DS3505
ZJSY,2006-05-24 02:00,ZJSY 240200Z AUTO 16006KT 7SM 29/25 A2983 RMK T02900250 IEM_DS3505
ZJSY,2006-05-24 03:00,ZJSY 240300Z AUTO 15006KT 7SM 30/25 A2983 RMK T03000250 IEM_DS3505
ZJSY,2006-05-24 04:00,ZJSY 240400Z AUTO 15006KT 7SM 30/25 A2983 RMK T03000250 IEM_DS3505
ZJSY,2006-05-24 05:00,ZJSY 240500Z AUTO 16006KT 7SM 30/25 A2980 RMK T03000250 IEM_DS3505
ZJSY,2006-05-24 06:00,ZJSY 240600Z AUTO 14006KT 7SM 30/25 A2980 RMK T03000250 IEM_DS3505
ZJSY,2006-05-24 07:00,ZJSY 240700Z AUTO 15006KT 7SM 30/25 A2977 RMK T03000250 IEM_DS3505
ZJSY,2006-05-24 08:00,ZJSY 240800Z AUTO 16006KT 7SM 30/25 A2974 RMK T03000250 IEM_DS3505
ZJSY,2006-05-24 09:00,ZJSY 240900Z AUTO 16006KT 7SM 29/25 A2974 RMK T02900250 IEM_DS3505
ZJSY,2006-05-24 10:00,ZJSY 241000Z AUTO 14008KT 7SM 29/25 A2974 RMK T02900250 IEM_DS3505
ZJSY,2006-05-24 11:00,ZJSY 241100Z AUTO 12008KT 6SM 29/24 A2974 RMK T02900240 IEM_DS3505
ZJSY,2006-05-24 12:00,ZJSY 241200Z AUTO 10006KT 6SM 28/24 A2980 RMK T02800240 IEM_DS3505
ZJSY,2006-05-24 13:00,ZJSY 241300Z 13004MPS 100V160 9999 FEW015 28/25 Q1009 NOSIG
ZJSY,2006-05-24 14:00,ZJSY 241400Z AUTO 12006KT 7SM 28/25 A2983 RMK T02800250 IEM_DS3505
ZJSY,2006-05-24 15:00,ZJSY 241500Z AUTO 11008KT 7SM 28/24 A2983 RMK T02800240 IEM_DS3505
ZJSY,2006-05-24 16:00,ZJSY 241600Z AUTO 12006KT 7SM 28/24 A2983 RMK T02800240 IEM_DS3505
ZJSY,2006-05-24 17:00,ZJSY 241700Z AUTO 10004KT 7SM 28/24 A2983 RMK T02800240 IEM_DS3505
ZJSY,2006-05-24 18:00,ZJSY 241800Z AUTO 13004KT 7SM 28/24 A2983 RMK T02800240 IEM_DS3505
ZJSY,2006-05-24 21:00,ZJSY 242100Z AUTO 14006KT 7SM 27/24 A2977 RMK T02700240 IEM_DS3505
ZJSY,2006-05-24 22:00,ZJSY 242200Z AUTO 12004KT 7SM 27/24 A2980 RMK T02700240 IEM_DS3505
ZJSY,2006-05-24 23:00,ZJSY 242300Z AUTO 07004KT 7SM 27/24 A2983 RMK T02700240 IEM_DS3505
ZJSY,2006-05-25 00:00,ZJSY 250000Z AUTO 08006KT 7SM 28/25 A2983 RMK T02800250 IEM_DS3505
ZJSY,2006-05-25 01:00,ZJSY 250100Z AUTO 13006KT 29/24 A2983 RMK T02900240 IEM_DS3505
ZJSY,2006-05-25 02:00,ZJSY 250200Z AUTO 13006KT 7SM 30/25 A2985 RMK T03000250 IEM_DS3505
ZJSY,2006-05-25 03:00,ZJSY 250300Z AUTO 13008KT 7SM 30/25 A2983 RMK T03000250 IEM_DS3505
ZJSY,2006-05-25 04:00,ZJSY 250400Z AUTO 13006KT 7SM 30/25 A2983 RMK T03000250 IEM_DS3505
ZJSY,2006-05-25 05:00,ZJSY 250500Z AUTO 13006KT 7SM 31/25 A2983 RMK T03100250 IEM_DS3505
ZJSY,2006-05-25 06:00,ZJSY 250600Z AUTO 14006KT 7SM 30/25 A2980 RMK T03000250 IEM_DS3505
ZJSY,2006-05-25 07:00,ZJSY 250700Z AUTO 16006KT 7SM 30/24 A2977 RMK T03000240 IEM_DS3505
ZJSY,2006-05-25 08:00,ZJSY 250800Z AUTO 16006KT 7SM 30/24 A2977 RMK T03000240 IEM_DS3505
ZJSY,2006-05-25 09:00,ZJSY 250900Z AUTO 16006KT 7SM 30/24 A2977 RMK T03000240 IEM_DS3505
ZJSY,2006-05-25 10:00,ZJSY 251000Z AUTO 13004KT 7SM 29/24 A2977 RMK T02900240 IEM_DS3505
ZJSY,2006-05-25 11:00,ZJSY 251100Z AUTO 13004KT 7SM 29/24 A2977 RMK T02900240 IEM_DS3505
ZJSY,2006-05-25 12:00,ZJSY 251200Z AUTO 12006KT 6SM 28/24 A2980 RMK T02800240 IEM_DS3505
ZJSY,2006-05-25 13:00,ZJSY 251300Z AUTO 10004KT 6SM 28/24 A2983 RMK T02800240 IEM_DS3505
ZJSY,2006-05-25 14:00,ZJSY 251400Z AUTO 06006KT 6SM 28/24 A2985 RMK T02800240 IEM_DS3505
ZJSY,2006-05-25 15:00,ZJSY 251500Z AUTO 05004KT 6SM 28/24 A2985 RMK T02800240 IEM_DS3505
ZJSY,2006-05-25 16:00,ZJSY 251600Z AUTO 6SM 27/24 A2985 RMK T02700240 IEM_DS3505
ZJSY,2006-05-25 17:00,ZJSY 251700Z AUTO 08004KT 6SM 26/24 A2985 RMK T02600240 IEM_DS3505
ZJSY,2006-05-25 18:00,ZJSY 251800Z AUTO 06006KT 7SM 27/24 A2983 RMK T02700240 IEM_DS3505
ZJSY,2006-05-25 19:00,ZJSY 251900Z AUTO 11004KT 7SM 27/24 A2983 RMK T02700240 IEM_DS3505
ZJSY,2006-05-25 20:00,ZJSY 252000Z AUTO 07004KT 7SM 26/24 A2983 RMK T02600240 IEM_DS3505
ZJSY,2006-05-25 21:00,ZJSY 252100Z AUTO 05004KT 7SM 27/24 A2983 RMK T02700240 IEM_DS3505
ZJSY,2006-05-25 22:00,ZJSY 252200Z AUTO 7SM 27/24 A2985 RMK T02700240 IEM_DS3505
ZJSY,2006-05-25 23:00,ZJSY 252300Z AUTO 7SM 27/24 A2988 RMK T02700240 IEM_DS3505
ZJSY,2006-05-26 00:00,ZJSY 260000Z AUTO 11004KT 7SM 28/25 A2988 RMK T02800250 IEM_DS3505
ZJSY,2006-05-26 01:00,ZJSY 260100Z AUTO 13006KT 7SM 29/25 A2991 RMK T02900250 IEM_DS3505
ZJSY,2006-05-26 04:00,ZJSY 260400Z AUTO 16006KT 7SM 30/24 A2991 RMK T03000240 IEM_DS3505
ZJSY,2006-05-26 05:00,ZJSY 260500Z AUTO 15004KT 7SM 30/25 A2988 RMK T03000250 IEM_DS3505
ZJSY,2006-05-26 06:00,ZJSY 260600Z AUTO 17004KT 7SM 30/25 A2985 RMK T03000250 IEM_DS3505
ZJSY,2006-05-26 07:00,ZJSY 260700Z AUTO 18004KT 7SM 30/25 A2983 RMK T03000250 IEM_DS3505
ZJSY,2006-05-26 08:00,ZJSY 260800Z 17003MPS 120V210 9999 FEW016 30/25 Q1009 NOSIG
ZJSY,2006-05-26 09:00,ZJSY 260900Z AUTO 16004KT 7SM 30/25 A2980 RMK T03000250 IEM_DS3505
ZJSY,2006-05-26 10:00,ZJSY 261000Z AUTO 15004KT 7SM 29/24 A2980 RMK T02900240 IEM_DS3505
ZJSY,2006-05-26 11:00,ZJSY 261100Z AUTO 7SM 29/24 A2980 RMK T02900240 IEM_DS3505
ZJSY,2006-05-26 12:00,ZJSY 261200Z AUTO 7SM 28/24 A2983 RMK T02800240 IEM_DS3505
ZJSY,2006-05-26 13:00,ZJSY 261300Z AUTO 7SM 28/24 A2983 RMK T02800240 IEM_DS3505
ZJSY,2006-05-26 14:00,ZJSY 261400Z AUTO 7SM 28/25 A2985 RMK T02800250 IEM_DS3505
ZJSY,2006-05-26 15:00,ZJSY 261500Z AUTO 06004KT 7SM 28/24 A2985 RMK T02800240 IEM_DS3505
ZJSY,2006-05-26 16:00,ZJSY 261600Z AUTO 7SM 27/24 A2985 RMK T02700240 IEM_DS3505
ZJSY,2006-05-26 17:00,ZJSY 261700Z AUTO 32002KT 7SM 26/24 A2985 RMK T02600240 IEM_DS3505
ZJSY,2006-05-26 18:00,ZJSY 261800Z AUTO 7SM 26/24 A2983 RMK T02600240 IEM_DS3505
ZJSY,2006-05-26 19:00,ZJSY 261900Z AUTO 34004KT 7SM 26/24 A2983 RMK T02600240 IEM_DS3505
ZJSY,2006-05-26 20:00,ZJSY 262000Z AUTO 34004KT 26/24 A2983 RMK T02600240 IEM_DS3505
ZJSY,2006-05-26 21:00,ZJSY 262100Z AUTO 00000KT 7SM 26/24 A2980 RMK T02600240 IEM_DS3505
ZJSY,2006-05-26 22:00,ZJSY 262200Z AUTO 34004KT 7SM 26/24 A2983 RMK T02600240 IEM_DS3505
ZJSY,2006-05-26 23:00,ZJSY 262300Z AUTO 33004KT 7SM 27/24 A2983 RMK T02700240 IEM_DS3505
ZJSY,2006-05-27 00:00,ZJSY 270000Z AUTO 7SM 29/25 A2985 RMK T02900250 IEM_DS3505
ZJSY,2006-05-27 01:00,ZJSY 270100Z AUTO 15006KT 7SM 29/25 A2985 RMK T02900250 IEM_DS3505
ZJSY,2006-05-27 02:00,ZJSY 270200Z AUTO 14006KT 7SM 30/25 A2985 RMK T03000250 IEM_DS3505
ZJSY,2006-05-27 03:00,ZJSY 270300Z AUTO 16006KT 7SM 30/25 A2985 RMK T03000250 IEM_DS3505
ZJSY,2006-05-27 04:00,ZJSY 270400Z AUTO 16008KT 7SM 31/26 A2985 RMK T03100260 IEM_DS3505
ZJSY,2006-05-27 05:00,ZJSY 270500Z AUTO 17008KT 7SM 30/25 A2985 RMK T03000250 IEM_DS3505
ZJSY,2006-05-27 06:00,ZJSY 270600Z AUTO 18008KT 7SM 30/25 A2983 RMK T03000250 IEM_DS3505
ZJSY,2006-05-27 07:00,ZJSY 270700Z AUTO 17008KT 7SM 30/25 A2980 RMK T03000250 IEM_DS3505
ZJSY,2006-05-27 08:00,ZJSY 270800Z AUTO 18006KT 7SM 30/25 A2977 RMK T03000250 IEM_DS3505
ZJSY,2006-05-27 09:00,ZJSY 270900Z AUTO 7SM 30/24 A2974 RMK T03000240 IEM_DS3505
ZJSY,2006-05-27 10:00,ZJSY 271000Z AUTO 00000KT 7SM 29/25 A2974 RMK T02900250 IEM_DS3505
ZJSY,2006-05-27 11:00,ZJSY 271100Z AUTO 00000KT 7SM 29/25 A2974 RMK T02900250 IEM_DS3505
ZJSY,2006-05-27 12:00,ZJSY 271200Z AUTO 15004KT 7SM 29/25 A2977 RMK T02900250 IEM_DS3505
ZJSY,2006-05-27 13:00,ZJSY 271300Z AUTO 7SM 28/25 A2980 RMK T02800250 IEM_DS3505
ZJSY,2006-05-27 14:00,ZJSY 271400Z AUTO 7SM 28/25 A2983 RMK T02800250 IEM_DS3505
ZJSY,2006-05-27 15:00,ZJSY 271500Z AUTO 13004KT 7SM 28/25 A2985 RMK T02800250 IEM_DS3505
ZJSY,2006-05-27 16:00,ZJSY 271600Z AUTO 15004KT 7SM 28/25 A2985 RMK T02800250 IEM_DS3505
ZJSY,2006-05-27 17:00,ZJSY 271700Z AUTO 16004KT 28/25 A2983 RMK T02800250 IEM_DS3505
ZJSY,2006-05-27 18:00,ZJSY 271800Z AUTO 16004KT 28/25 A2983 RMK T02800250 IEM_DS3505
ZJSY,2006-05-27 19:00,ZJSY 271900Z AUTO 17004KT 28/25 A2980 RMK T02800250 IEM_DS3505
ZJSY,2006-05-27 20:00,ZJSY 272000Z AUTO 15004KT 28/25 A2977 RMK T02800250 IEM_DS3505
ZJSY,2006-05-27 21:00,ZJSY 272100Z AUTO 7SM 28/25 A2977 RMK T02800250 IEM_DS3505
ZJSY,2006-05-27 22:00,ZJSY 272200Z AUTO 7SM 28/24 A2977 RMK T02800240 IEM_DS3505
ZJSY,2006-05-27 23:00,ZJSY 272300Z AUTO 08004KT 7SM 28/25 A2980 RMK T02800250 IEM_DS3505
ZJSY,2006-05-28 00:00,ZJSY 280000Z AUTO 7SM 29/25 A2980 RMK T02900250 IEM_DS3505
ZJSY,2006-05-28 01:00,ZJSY 280100Z AUTO 16004KT 7SM 29/24 A2980 RMK T02900240 IEM_DS3505
ZJSY,2006-05-28 02:00,ZJSY 280200Z 14002MPS 070V180 9999 SCT018 30/25 Q1009 NOSIG
ZJSY,2006-05-28 03:00,ZJSY 280300Z 16002MPS 100V220 9999 SCT018 30/25 Q1009 NOSIG
ZJSY,2006-05-28 04:00,ZJSY 280400Z AUTO 18004KT 7SM 30/25 A2980 RMK T03000250 IEM_DS3505
ZJSY,2006-05-28 05:00,ZJSY 280500Z AUTO 18004KT 7SM 31/26 A2977 RMK T03100260 IEM_DS3505
ZJSY,2006-05-28 06:00,ZJSY 280600Z AUTO 20006KT 7SM 30/26 A2977 RMK T03000260 IEM_DS3505
ZJSY,2006-05-28 07:00,ZJSY 280700Z AUTO 22008KT 7SM 30/26 A2971 RMK T03000260 IEM_DS3505
ZJSY,2006-05-28 08:00,ZJSY 280800Z AUTO 21008KT 7SM 30/25 A2971 RMK T03000250 IEM_DS3505
ZJSY,2006-05-28 09:00,ZJSY 280900Z AUTO 18004KT 7SM 30/25 A2968 RMK T03000250 IEM_DS3505
ZJSY,2006-05-28 10:00,ZJSY 281000Z AUTO 14004KT 7SM 29/25 A2968 RMK T02900250 IEM_DS3505
ZJSY,2006-05-28 12:00,ZJSY 281200Z AUTO 13004KT 7SM 29/25 A2971 RMK T02900250 IEM_DS3505
ZJSY,2006-05-28 13:00,ZJSY 281300Z AUTO 14004KT 7SM 29/25 A2974 RMK T02900250 IEM_DS3505
ZJSY,2006-05-28 14:00,ZJSY 281400Z AUTO 14006KT 7SM 29/25 A2974 RMK T02900250 IEM_DS3505
ZJSY,2006-05-28 15:00,ZJSY 281500Z AUTO 16006KT 7SM 29/25 A2977 RMK T02900250 IEM_DS3505
ZJSY,2006-05-28 16:00,ZJSY 281600Z AUTO 17006KT 7SM 29/25 A2977 RMK T02900250 IEM_DS3505
ZJSY,2006-05-28 17:00,ZJSY 281700Z AUTO 19006KT 7SM 28/25 A2977 RMK T02800250 IEM_DS3505
ZJSY,2006-05-28 18:00,ZJSY 281800Z AUTO 19004KT 28/25 A2974 RMK T02800250 IEM_DS3505
ZJSY,2006-05-28 19:00,ZJSY 281900Z AUTO 20004KT 28/25 A2974 RMK T02800250 IEM_DS3505
ZJSY,2006-05-28 20:00,ZJSY 282000Z AUTO 21004KT 28/25 A2971 RMK T02800250 IEM_DS3505
ZJSY,2006-05-28 21:00,ZJSY 282100Z AUTO 7SM 28/25 A2971 RMK T02800250 IEM_DS3505
ZJSY,2006-05-28 22:00,ZJSY 282200Z AUTO 7SM 28/25 A2971 RMK T02800250 IEM_DS3505
ZJSY,2006-05-28 23:00,ZJSY 282300Z AUTO 17004KT 7SM 28/25 A2971 RMK T02800250 IEM_DS3505
ZJSY,2006-05-29 00:00,ZJSY 290000Z AUTO 14004KT 7SM 29/25 A2974 RMK T02900250 IEM_DS3505
ZJSY,2006-05-29 01:00,ZJSY 290100Z AUTO 15004KT 7SM 29/25 A2974 RMK T02900250 IEM_DS3505
ZJSY,2006-05-29 02:00,ZJSY 290200Z 20002MPS 170V240 9999 BKN018 FEW026TCU 29/25 Q1008 NOSIG
ZJSY,2006-05-29 03:00,ZJSY 290300Z AUTO 21004KT 7SM 29/25 A2974 RMK T02900250 IEM_DS3505
ZJSY,2006-05-29 04:00,ZJSY 290400Z AUTO 7SM 30/26 A2974 RMK T03000260 IEM_DS3505
ZJSY,2006-05-29 05:00,ZJSY 290500Z AUTO 18006KT 7SM 30/25 A2974 RMK T03000250 IEM_DS3505
ZJSY,2006-05-29 06:00,ZJSY 290600Z AUTO 20004KT 7SM 30/25 A2971 RMK T03000250 IEM_DS3505
ZJSY,2006-05-29 07:00,ZJSY 290700Z AUTO 18006KT 7SM 31/26 A2968 RMK T03100260 IEM_DS3505
ZJSY,2006-05-29 08:00,ZJSY 290800Z AUTO 18006KT 7SM 30/26 A2968 RMK T03000260 IEM_DS3505
ZJSY,2006-05-29 09:00,ZJSY 290900Z AUTO 18006KT 7SM 30/25 A2965 RMK T03000250 IEM_DS3505
ZJSY,2006-05-29 10:00,ZJSY 291000Z AUTO 18004KT 7SM 30/26 A2965 RMK T03000260 IEM_DS3505
ZJSY,2006-05-29 11:00,ZJSY 291100Z AUTO 16004KT 7SM 29/25 A2968 RMK T02900250 IEM_DS3505
ZJSY,2006-05-29 12:00,ZJSY 291200Z AUTO 14004KT 7SM 29/25 A2971 RMK T02900250 IEM_DS3505
ZJSY,2006-05-29 13:00,ZJSY 291300Z AUTO 13004KT 7SM 29/25 A2971 RMK T02900250 IEM_DS3505
ZJSY,2006-05-29 14:00,ZJSY 291400Z AUTO 13004KT 7SM 29/26 A2971 RMK T02900260 IEM_DS3505
ZJSY,2006-05-29 15:00,ZJSY 291500Z AUTO 08004KT 7SM 29/24 A2974 RMK T02900240 IEM_DS3505
ZJSY,2006-05-29 16:00,ZJSY 291600Z AUTO 08004KT 7SM 28/24 A2974 RMK T02800240 IEM_DS3505
ZJSY,2006-05-29 17:00,ZJSY 291700Z AUTO 08004KT 28/24 A2974 RMK T02800240 IEM_DS3505
ZJSY,2006-05-29 18:00,ZJSY 291800Z AUTO 28/24 A2971 RMK T02800240 IEM_DS3505
ZJSY,2006-05-29 19:00,ZJSY 291900Z AUTO 18008KT 28/26 A2971 RMK T02800260 IEM_DS3505
ZJSY,2006-05-29 20:00,ZJSY 292000Z AUTO 03008KT 26/23 A2971 RMK T02600230 IEM_DS3505
ZJSY,2006-05-29 21:00,ZJSY 292100Z AUTO 7SM 26/23 A2971 RMK T02600230 IEM_DS3505
ZJSY,2006-05-29 22:00,ZJSY 292200Z AUTO 33004KT 7SM 26/23 A2971 RMK T02600230 IEM_DS3505
ZJSY,2006-05-29 23:00,ZJSY 292300Z AUTO 34004KT 7SM 26/24 A2974 RMK T02600240 IEM_DS3505
ZJSY,2006-05-30 00:00,ZJSY 300000Z AUTO 33004KT 7SM 28/24 A2977 RMK T02800240 IEM_DS3505
ZJSY,2006-05-30 01:00,ZJSY 300100Z AUTO 7SM 29/25 A2977 RMK T02900250 IEM_DS3505
ZJSY,2006-05-30 02:00,ZJSY 300200Z AUTO 6SM 30/24 A2980 RMK T03000240 IEM_DS3505
ZJSY,2006-05-30 03:00,ZJSY 300300Z AUTO 7SM 31/25 A2980 RMK T03100250 IEM_DS3505
ZJSY,2006-05-30 04:00,ZJSY 300400Z AUTO 19004KT 7SM 30/25 A2977 RMK T03000250 IEM_DS3505
ZJSY,2006-05-30 05:00,ZJSY 300500Z AUTO 7SM 30/24 A2977 RMK T03000240 IEM_DS3505
ZJSY,2006-05-30 06:00,ZJSY 300600Z AUTO 19004KT 7SM 31/24 A2974 RMK T03100240 IEM_DS3505
ZJSY,2006-05-30 07:00,ZJSY 300700Z AUTO 18006KT 7SM 31/25 A2971 RMK T03100250 IEM_DS3505
ZJSY,2006-05-30 08:00,ZJSY 300800Z AUTO 16004KT 6SM 30/26 A2971 RMK T03000260 IEM_DS3505
ZJSY,2006-05-30 09:00,ZJSY 300900Z AUTO 14004KT 6SM 30/25 A2971 RMK T03000250 IEM_DS3505
ZJSY,2006-05-30 10:00,ZJSY 301000Z AUTO 16006KT 7SM 29/25 A2971 RMK T02900250 IEM_DS3505
ZJSY,2006-05-30 11:00,ZJSY 301100Z AUTO 14006KT 7SM 29/25 A2971 RMK T02900250 IEM_DS3505
ZJSY,2006-05-30 12:00,ZJSY 301200Z AUTO 13004KT 7SM 29/26 A2971 RMK T02900260 IEM_DS3505
ZJSY,2006-05-30 13:00,ZJSY 301300Z AUTO 14004KT 7SM 29/26 A2974 RMK T02900260 IEM_DS3505
ZJSY,2006-05-30 14:00,ZJSY 301400Z AUTO 16004KT 7SM 29/26 A2977 RMK T02900260 IEM_DS3505
ZJSY,2006-05-30 15:00,ZJSY 301500Z 17002MPS 130V200 9999 FEW016 29/26 Q1009 NOSIG
ZJSY,2006-05-30 16:00,ZJSY 301600Z AUTO 18004KT 7SM 29/26 A2980 RMK T02900260 IEM_DS3505
ZJSY,2006-05-30 17:00,ZJSY 301700Z AUTO 7SM 29/26 A2977 RMK T02900260 IEM_DS3505
ZJSY,2006-05-30 18:00,ZJSY 301800Z AUTO 28/26 A2977 RMK T02800260 IEM_DS3505
ZJSY,2006-05-30 19:00,ZJSY 301900Z AUTO 33004KT 28/26 A2974 RMK T02800260 IEM_DS3505
ZJSY,2006-05-30 20:00,ZJSY 302000Z AUTO 33002KT 27/25 A2974 RMK T02700250 IEM_DS3505
ZJSY,2006-05-30 21:00,ZJSY 302100Z AUTO 35002KT 7SM 27/25 A2974 RMK T02700250 IEM_DS3505
ZJSY,2006-05-30 22:00,ZJSY 302200Z AUTO 35002KT 7SM 26/25 A2974 RMK T02600250 IEM_DS3505
ZJSY,2006-05-30 23:00,ZJSY 302300Z AUTO 08002KT 7SM 28/25 A2977 RMK T02800250 IEM_DS3505
ZJSY,2006-05-31 00:00,ZJSY 310000Z AUTO 09004KT 7SM 29/26 A2977 RMK T02900260 IEM_DS3505
ZJSY,2006-05-31 01:00,ZJSY 310100Z AUTO 13004KT 7SM 29/25 A2980 RMK T02900250 IEM_DS3505
ZJSY,2006-05-31 02:00,ZJSY 310200Z AUTO 15004KT 7SM 30/25 A2980 RMK T03000250 IEM_DS3505
ZJSY,2006-05-31 03:00,ZJSY 310300Z AUTO 16004KT 7SM 30/26 A2980 RMK T03000260 IEM_DS3505
ZJSY,2006-05-31 04:00,ZJSY 310400Z AUTO 16006KT 7SM 30/26 A2980 RMK T03000260 IEM_DS3505
ZJSY,2006-05-31 05:00,ZJSY 310500Z AUTO 16006KT 7SM 31/26 A2980 RMK T03100260 IEM_DS3505
ZJSY,2006-05-31 06:00,ZJSY 310600Z 20003MPS 170V230 9999 SCT020 31/26 Q1008 NOSIG
ZJSY,2006-05-31 07:00,ZJSY 310700Z 18003MPS 140V210 9999 FEW020 30/25 Q1007 NOSIG
ZJSY,2006-05-31 08:00,ZJSY 310800Z AUTO 18006KT 7SM 29/26 A2974 RMK T02900260 IEM_DS3505
ZJSY,2006-05-31 09:00,ZJSY 310900Z AUTO 18004KT 7SM 30/25 A2971 RMK T03000250 IEM_DS3505
ZJSY,2006-05-31 10:00,ZJSY 311000Z AUTO 18004KT 7SM 29/25 A2974 RMK T02900250 IEM_DS3505
ZJSY,2006-05-31 11:00,ZJSY 311100Z AUTO 15004KT 7SM 29/25 A2974 RMK T02900250 IEM_DS3505
ZJSY,2006-05-31 12:00,ZJSY 311200Z VRB01MPS CAVOK 29/25 Q1007 NOSIG
ZJSY,2006-05-31 13:00,ZJSY 311300Z AUTO 11002KT 6SM 29/24 A2977 RMK T02900240 IEM_DS3505
ZJSY,2006-05-31 14:00,ZJSY 311400Z AUTO 00000KT 7SM 28/25 A2980 RMK T02800250 IEM_DS3505
ZJSY,2006-05-31 15:00,ZJSY 311500Z VRB01MPS 9999 SCT015 28/25 Q1009 NOSIG
ZJSY,2006-05-31 16:00,ZJSY 311600Z AUTO 00000KT 7SM 28/25 A2980 RMK T02800250 IEM_DS3505
ZJSY,2006-05-31 17:00,ZJSY 311700Z AUTO 17004KT 7SM 28/26 A2980 RMK T02800260 IEM_DS3505
ZJSY,2006-05-31 18:00,ZJSY 311800Z AUTO 16006KT 29/25 A2977 RMK T02900250 IEM_DS3505
ZJSY,2006-05-31 19:00,ZJSY 311900Z AUTO 16004KT 28/25 A2977 RMK T02800250 IEM_DS3505
ZJSY,2006-05-31 20:00,ZJSY 312000Z AUTO 17004KT 28/25 A2977 RMK T02800250 IEM_DS3505
ZJSY,2006-05-31 21:00,ZJSY 312100Z AUTO 7SM 28/25 A2977 RMK T02800250 IEM_DS3505
ZJSY,2006-05-31 22:00,ZJSY 312200Z AUTO 00000KT 7SM 28/25 A2977 RMK T02800250 IEM_DS3505
ZJSY,2006-05-31 23:00,ZJSY 312300Z AUTO 7SM 28/25 A2977 RMK T02800250 IEM_DS3505
ZJSY,2006-06-01 00:00,ZJSY 010000Z AUTO 7SM 29/25 A2977 RMK T02900250 IEM_DS3505
ZJSY,2006-06-01 01:00,ZJSY 010100Z AUTO 18004KT 7SM 30/26 A2980 RMK T03000260 IEM_DS3505
ZJSY,2006-06-01 02:00,ZJSY 010200Z AUTO 18006KT 7SM 30/26 A2980 RMK T03000260 IEM_DS3505
ZJSY,2006-06-01 03:00,ZJSY 010300Z AUTO 22006KT 7SM 31/26 A2977 RMK T03100260 IEM_DS3505
ZJSY,2006-06-01 04:00,ZJSY 010400Z AUTO 21006KT 7SM 31/26 A2977 RMK T03100260 IEM_DS3505
ZJSY,2006-06-01 05:00,ZJSY 010500Z AUTO 20006KT 7SM 31/26 A2974 RMK T03100260 IEM_DS3505
ZJSY,2006-06-01 06:00,ZJSY 010600Z 20004MPS 170V230 9999 SCT020 31/26 Q1007 NOSIG
ZJSY,2006-06-01 07:00,ZJSY 010700Z 20004MPS 170V230 9999 SCT020 31/25 Q1006 NOSIG
ZJSY,2006-06-01 08:00,ZJSY 010800Z AUTO 19006KT 7SM 31/24 A2968 RMK T03100240 IEM_DS3505
ZJSY,2006-06-01 09:00,ZJSY 010900Z AUTO 20006KT 6SM 31/24 A2968 RMK T03100240 IEM_DS3505
ZJSY,2006-06-01 10:00,ZJSY 011000Z AUTO 20004KT 6SM 31/24 A2968 RMK T03100240 IEM_DS3505
ZJSY,2006-06-01 11:00,ZJSY 011100Z AUTO 6SM 30/24 A2971 RMK T03000240 IEM_DS3505
ZJSY,2006-06-01 12:00,ZJSY 011200Z VRB01MPS CAVOK 29/25 Q1006 NOSIG
ZJSY,2006-06-01 13:00,ZJSY 011300Z AUTO 00000KT 6SM 29/25 A2974 RMK T02900250 IEM_DS3505
ZJSY,2006-06-01 14:00,ZJSY 011400Z AUTO 00000KT 6SM 28/25 A2977 RMK T02800250 IEM_DS3505
ZJSY,2006-06-01 15:00,ZJSY 011500Z AUTO 6SM 28/25 A2977 RMK T02800250 IEM_DS3505
ZJSY,2006-06-01 16:00,ZJSY 011600Z AUTO 33004KT 6SM 28/25 A2977 RMK T02800250 IEM_DS3505
ZJSY,2006-06-01 17:00,ZJSY 011700Z AUTO 7SM 28/25 A2977 RMK T02800250 IEM_DS3505
ZJSY,2006-06-01 18:00,ZJSY 011800Z AUTO 17006KT 7SM 29/26 A2977 RMK T02900260 IEM_DS3505
ZJSY,2006-06-01 19:00,ZJSY 011900Z AUTO 16004KT 7SM 29/26 A2974 RMK T02900260 IEM_DS3505
ZJSY,2006-06-01 20:00,ZJSY 012000Z AUTO 18004KT 29/26 A2974 RMK T02900260 IEM_DS3505
ZJSY,2006-06-01 22:00,ZJSY 012200Z AUTO 00000KT 7SM 29/26 A2974 RMK T02900260 IEM_DS3505
ZJSY,2006-06-01 23:00,ZJSY 012300Z AUTO 7SM 29/26 A2977 RMK T02900260 IEM_DS3505
ZJSY,2006-06-02 00:00,ZJSY 020000Z AUTO 7SM 29/26 A2977 RMK T02900260 IEM_DS3505
ZJSY,2006-06-02 01:00,ZJSY 020100Z AUTO 18004KT 7SM 30/26 A2980 RMK T03000260 IEM_DS3505
ZJSY,2006-06-02 02:00,ZJSY 020200Z AUTO 18004KT 7SM 30/26 A2980 RMK T03000260 IEM_DS3505
ZJSY,2006-06-02 03:00,ZJSY 020300Z AUTO 19004KT 7SM 31/26 A2980 RMK T03100260 IEM_DS3505
ZJSY,2006-06-02 04:00,ZJSY 020400Z 20002MPS 140V270 9999 SCT016 31/26 Q1008 NOSIG
ZJSY,2006-06-02 05:00,ZJSY 020500Z 19002MPS 140V230 9999 SCT016 31/26 Q1008 NOSIG
ZJSY,2006-06-02 06:00,ZJSY 020600Z AUTO 18006KT 7SM 31/26 A2974 RMK T03100260 IEM_DS3505
ZJSY,2006-06-02 07:00,ZJSY 020700Z AUTO 18006KT 7SM 31/26 A2971 RMK T03100260 IEM_DS3505
ZJSY,2006-06-02 08:00,ZJSY 020800Z AUTO 16006KT 7SM 31/26 A2968 RMK T03100260 IEM_DS3505
ZJSY,2006-06-02 09:00,ZJSY 020900Z AUTO 16008KT 7SM 30/26 A2968 RMK T03000260 IEM_DS3505
ZJSY,2006-06-02 10:00,ZJSY 021000Z AUTO 16006KT 7SM 30/26 A2968 RMK T03000260 IEM_DS3505
ZJSY,2006-06-02 11:00,ZJSY 021100Z AUTO 15004KT 7SM 29/26 A2971 RMK T02900260 IEM_DS3505
ZJSY,2006-06-02 12:00,ZJSY 021200Z 12002MPS 090V150 9999 SCT017 29/26 Q1006 NOSIG
ZJSY,2006-06-02 13:00,ZJSY 021300Z AUTO 7SM 29/26 A2974 RMK T02900260 IEM_DS3505
ZJSY,2006-06-02 14:00,ZJSY 021400Z AUTO 08006KT 7SM 28/26 A2974 RMK T02800260 IEM_DS3505
ZJSY,2006-06-02 15:00,ZJSY 021500Z AUTO 06006KT 7SM 29/25 A2977 RMK T02900250 IEM_DS3505
ZJSY,2006-06-02 16:00,ZJSY 021600Z AUTO 10004KT 7SM 29/25 A2980 RMK T02900250 IEM_DS3505
ZJSY,2006-06-02 17:00,ZJSY 021700Z AUTO 14006KT 7SM 29/26 A2977 RMK T02900260 IEM_DS3505
ZJSY,2006-06-02 18:00,ZJSY 021800Z AUTO 14006KT 29/26 A2974 RMK T02900260 IEM_DS3505
ZJSY,2006-06-02 20:00,ZJSY 022000Z AUTO 16004KT 29/26 A2971 RMK T02900260 IEM_DS3505
ZJSY,2006-06-02 21:00,ZJSY 022100Z AUTO 29/26 A2971 RMK T02900260 IEM_DS3505
ZJSY,2006-06-02 22:00,ZJSY 022200Z AUTO 7SM 28/25 A2974 RMK T02800250 IEM_DS3505
ZJSY,2006-06-02 23:00,ZJSY 022300Z AUTO 7SM 29/26 A2974 RMK T02900260 IEM_DS3505
ZJSY,2006-06-03 00:00,ZJSY 030000Z AUTO 00000KT 7SM 29/25 A2977 RMK T02900250 IEM_DS3505
ZJSY,2006-06-03 01:00,ZJSY 030100Z AUTO 07004KT 7SM 29/25 A2977 RMK T02900250 IEM_DS3505
ZJSY,2006-06-03 02:00,ZJSY 030200Z AUTO 7SM 30/26 A2980 RMK T03000260 IEM_DS3505
ZJSY,2006-06-03 03:00,ZJSY 030300Z AUTO 15006KT 7SM 30/26 A2977 RMK T03000260 IEM_DS3505
ZJSY,2006-06-03 04:00,ZJSY 030400Z AUTO 15006KT 7SM 31/26 A2977 RMK T03100260 IEM_DS3505
ZJSY,2006-06-03 05:00,ZJSY 030500Z AUTO 17006KT 7SM 31/26 A2974 RMK T03100260 IEM_DS3505
ZJSY,2006-06-03 06:00,ZJSY 030600Z AUTO 15006KT 7SM 32/26 A2974 RMK T03200260 IEM_DS3505
ZJSY,2006-06-03 07:00,ZJSY 030700Z AUTO 15006KT 7SM 30/26 A2971 RMK T03000260 IEM_DS3505
ZJSY,2006-06-03 08:00,ZJSY 030800Z AUTO 16006KT 7SM 30/26 A2971 RMK T03000260 IEM_DS3505
ZJSY,2006-06-03 09:00,ZJSY 030900Z AUTO 16006KT 7SM 30/26 A2968 RMK T03000260 IEM_DS3505
ZJSY,2006-06-03 10:00,ZJSY 031000Z AUTO 15006KT 7SM 30/26 A2968 RMK T03000260 IEM_DS3505
ZJSY,2006-06-03 11:00,ZJSY 031100Z AUTO 14004KT 7SM 29/26 A2968 RMK T02900260 IEM_DS3505
ZJSY,2006-06-03 12:00,ZJSY 031200Z AUTO 14004KT 7SM 29/26 A2971 RMK T02900260 IEM_DS3505
ZJSY,2006-06-03 13:00,ZJSY 031300Z AUTO 14004KT 7SM 29/27 A2971 RMK T02900270 IEM_DS3505
ZJSY,2006-06-03 14:00,ZJSY 031400Z AUTO 16004KT 7SM 29/26 A2974 RMK T02900260 IEM_DS3505
ZJSY,2006-06-03 15:00,ZJSY 031500Z 16003MPS 120V200 9999 SCT016 FEW023CB 29/26 Q1008 NOSIG
ZJSY,2006-06-03 16:00,ZJSY 031600Z AUTO 17004KT 7SM 29/26 A2977 RMK T02900260 IEM_DS3505
ZJSY,2006-06-03 17:00,ZJSY 031700Z AUTO 29/26 A2974 RMK T02900260 IEM_DS3505
ZJSY,2006-06-03 18:00,ZJSY 031800Z AUTO VRB01MPS //// // ////// 29/26 Q1006
ZJSY,2006-06-03 19:00,ZJSY 031900Z AUTO 29/26 A2971 RMK T02900260 IEM_DS3505
ZJSY,2006-06-03 20:00,ZJSY 032000Z AUTO 15004KT 29/26 A2971 RMK T02900260 IEM_DS3505
ZJSY,2006-06-03 21:00,ZJSY 032100Z AUTO 17004KT 7SM 29/26 A2971 RMK T02900260 IEM_DS3505
ZJSY,2006-06-03 22:00,ZJSY 032200Z AUTO 7SM 29/25 A2974 RMK T02900250 IEM_DS3505
ZJSY,2006-06-03 23:00,ZJSY 032300Z AUTO 16004KT 7SM 29/26 A2974 RMK T02900260 IEM_DS3505
ZJSY,2006-06-04 00:00,ZJSY 040000Z AUTO 7SM 30/26 A2974 RMK T03000260 IEM_DS3505
ZJSY,2006-06-04 01:00,ZJSY 040100Z AUTO 14004KT 7SM 31/26 A2974 RMK T03100260 IEM_DS3505
ZJSY,2006-06-04 02:00,ZJSY 040200Z AUTO 14004KT 7SM 31/26 A2974 RMK T03100260 IEM_DS3505
ZJSY,2006-06-04 03:00,ZJSY 040300Z AUTO 16006KT 7SM 31/26 A2974 RMK T03100260 IEM_DS3505
ZJSY,2006-06-04 04:00,ZJSY 040400Z AUTO 15008KT 7SM 31/26 A2974 RMK T03100260 IEM_DS3505
ZJSY,2006-06-04 05:00,ZJSY 040500Z AUTO 17006KT 7SM 32/27 A2974 RMK T03200270 IEM_DS3505
ZJSY,2006-06-04 06:00,ZJSY 040600Z AUTO 18006KT 7SM 31/26 A2971 RMK T03100260 IEM_DS3505
ZJSY,2006-06-04 07:00,ZJSY 040700Z AUTO 18006KT 7SM 30/26 A2968 RMK T03000260 IEM_DS3505
ZJSY,2006-06-04 08:00,ZJSY 040800Z AUTO 18006KT 7SM 30/26 A2968 RMK T03000260 IEM_DS3505
ZJSY,2006-06-04 09:00,ZJSY 040900Z AUTO 17004KT 7SM 30/26 A2965 RMK T03000260 IEM_DS3505
ZJSY,2006-06-04 10:00,ZJSY 041000Z AUTO 7SM 30/25 A2968 RMK T03000250 IEM_DS3505
ZJSY,2006-06-04 11:00,ZJSY 041100Z AUTO 6SM 29/25 A2968 RMK T02900250 IEM_DS3505
ZJSY,2006-06-04 12:00,ZJSY 041200Z AUTO 6SM 29/25 A2971 RMK T02900250 IEM_DS3505
ZJSY,2006-06-04 13:00,ZJSY 041300Z AUTO 7SM 29/25 A2971 RMK T02900250 IEM_DS3505
ZJSY,2006-06-04 14:00,ZJSY 041400Z AUTO 16004KT 7SM 29/26 A2974 RMK T02900260 IEM_DS3505
ZJSY,2006-06-04 15:00,ZJSY 041500Z AUTO 16004KT 7SM 29/26 A2974 RMK T02900260 IEM_DS3505
ZJSY,2006-06-04 16:00,ZJSY 041600Z AUTO 7SM 29/26 A2974 RMK T02900260 IEM_DS3505
ZJSY,2006-06-04 17:00,ZJSY 041700Z AUTO 16004KT 7SM 29/26 A2974 RMK T02900260 IEM_DS3505
ZJSY,2006-06-04 18:00,ZJSY 041800Z AUTO 18006KT 29/26 A2971 RMK T02900260 IEM_DS3505
ZJSY,2006-06-04 19:00,ZJSY 041900Z AUTO 18003MPS //// // ////// 29/26 Q1006
ZJSY,2006-06-04 20:00,ZJSY 042000Z AUTO 19006KT 29/25 A2968 RMK T02900250 IEM_DS3505
ZJSY,2006-06-04 21:00,ZJSY 042100Z AUTO 18004KT 6SM 29/24 A2971 RMK T02900240 IEM_DS3505
ZJSY,2006-06-04 22:00,ZJSY 042200Z AUTO 19004KT 7SM 29/24 A2971 RMK T02900240 IEM_DS3505
ZJSY,2006-06-04 23:00,ZJSY 042300Z AUTO 18004KT 7SM 29/25 A2974 RMK T02900250 IEM_DS3505
ZJSY,2006-06-05 00:00,ZJSY 050000Z AUTO 7SM 30/25 A2974 RMK T03000250 IEM_DS3505
ZJSY,2006-06-05 01:00,ZJSY 050100Z AUTO 18004KT 7SM 30/25 A2974 RMK T03000250 IEM_DS3505
ZJSY,2006-06-05 02:00,ZJSY 050200Z AUTO 17004KT 7SM 31/26 A2974 RMK T03100260 IEM_DS3505
ZJSY,2006-06-05 03:00,ZJSY 050300Z AUTO 20006KT 7SM 31/26 A2974 RMK T03100260 IEM_DS3505
ZJSY,2006-06-05 04:00,ZJSY 050400Z AUTO 20006KT 7SM 32/26 A2971 RMK T03200260 IEM_DS3505
ZJSY,2006-06-05 05:00,ZJSY 050500Z AUTO 20008KT 7SM 31/26 A2971 RMK T03100260 IEM_DS3505
ZJSY,2006-06-05 06:00,ZJSY 050600Z AUTO 21006KT 7SM 32/26 A2968 RMK T03200260 IEM_DS3505
ZJSY,2006-06-05 07:00,ZJSY 050700Z AUTO 22008KT 7SM 32/26 A2965 RMK T03200260 IEM_DS3505
ZJSY,2006-06-05 08:00,ZJSY 050800Z AUTO 24008KT 7SM 32/24 A2965 RMK T03200240 IEM_DS3505
ZJSY,2006-06-05 09:00,ZJSY 050900Z AUTO 24006KT 6SM 31/25 A2965 RMK T03100250 IEM_DS3505
ZJSY,2006-06-05 10:00,ZJSY 051000Z AUTO 23004KT 6SM 31/24 A2965 RMK T03100240 IEM_DS3505
ZJSY,2006-06-05 11:00,ZJSY 051100Z AUTO 6SM 30/25 A2965 RMK T03000250 IEM_DS3505
ZJSY,2006-06-05 12:00,ZJSY 051200Z AUTO 6SM 30/25 A2968 RMK T03000250 IEM_DS3505
ZJSY,2006-06-05 13:00,ZJSY 051300Z AUTO 11002KT 6SM 29/25 A2968 RMK T02900250 IEM_DS3505
ZJSY,2006-06-05 14:00,ZJSY 051400Z AUTO 6SM 29/26 A2971 RMK T02900260 IEM_DS3505
ZJSY,2006-06-05 15:00,ZJSY 051500Z AUTO 7SM 29/25 A2971 RMK T02900250 IEM_DS3505
ZJSY,2006-06-05 16:00,ZJSY 051600Z AUTO 15006KT 7SM 29/26 A2971 RMK T02900260 IEM_DS3505
ZJSY,2006-06-05 17:00,ZJSY 051700Z AUTO 29/25 A2971 RMK T02900250 IEM_DS3505
ZJSY,2006-06-05 18:00,ZJSY 051800Z AUTO 18004KT 29/25 A2971 RMK T02900250 IEM_DS3505
ZJSY,2006-06-05 19:00,ZJSY 051900Z AUTO VRB01MPS //// // ////// 29/26 Q1005
ZJSY,2006-06-05 20:00,ZJSY 052000Z AUTO 00000KT 29/26 A2968 RMK T02900260 IEM_DS3505
ZJSY,2006-06-05 21:00,ZJSY 052100Z AUTO 7SM 29/26 A2968 RMK T02900260 IEM_DS3505
ZJSY,2006-06-05 22:00,ZJSY 052200Z VRB01MPS 9999 SCT015 BKN040 29/26 Q1006 NOSIG
ZJSY,2006-06-05 23:00,ZJSY 052300Z AUTO 7SM 29/26 A2971 RMK T02900260 IEM_DS3505
ZJSY,2006-06-06 00:00,ZJSY 060000Z AUTO 7SM 30/26 A2971 RMK T03000260 IEM_DS3505
ZJSY,2006-06-06 01:00,ZJSY 060100Z AUTO 7SM 31/26 A2974 RMK T03100260 IEM_DS3505
ZJSY,2006-06-06 02:00,ZJSY 060200Z AUTO 21006KT 7SM 32/26 A2971 RMK T03200260 IEM_DS3505
ZJSY,2006-06-06 03:00,ZJSY 060300Z AUTO 21006KT 7SM 32/26 A2971 RMK T03200260 IEM_DS3505
ZJSY,2006-06-06 04:00,ZJSY 060400Z AUTO 20008KT 7SM 32/26 A2971 RMK T03200260 IEM_DS3505
ZJSY,2006-06-06 05:00,ZJSY 060500Z AUTO 21008KT 7SM 32/26 A2968 RMK T03200260 IEM_DS3505
ZJSY,2006-06-06 06:00,ZJSY 060600Z AUTO 23010KT 7SM 33/25 A2968 RMK T03300250 IEM_DS3505
ZJSY,2006-06-06 07:00,ZJSY 060700Z AUTO 25012KT 6SM 34/23 A2965 RMK T03400230 IEM_DS3505
ZJSY,2006-06-06 08:00,ZJSY 060800Z AUTO 26014KT 6SM 33/23 A2962 RMK T03300230 IEM_DS3505
ZJSY,2006-06-06 09:00,ZJSY 060900Z AUTO 24010KT 6SM 32/24 A2962 RMK T03200240 IEM_DS3505
ZJSY,2006-06-06 10:00,ZJSY 061000Z AUTO 23006KT 6SM 31/25 A2962 RMK T03100250 IEM_DS3505
ZJSY,2006-06-06 11:00,ZJSY 061100Z AUTO 6SM 31/25 A2965 RMK T03100250 IEM_DS3505
ZJSY,2006-06-06 12:00,ZJSY 061200Z AUTO 00000KT 6SM 30/25 A2965 RMK T03000250 IEM_DS3505
ZJSY,2006-06-06 13:00,ZJSY 061300Z AUTO 00000KT 7SM 30/25 A2968 RMK T03000250 IEM_DS3505
ZJSY,2006-06-06 14:00,ZJSY 061400Z AUTO 7SM 28/24 A2968 RMK T02800240 IEM_DS3505
ZJSY,2006-06-06 15:00,ZJSY 061500Z AUTO 00000KT 7SM 28/25 A2971 RMK T02800250 IEM_DS3505
ZJSY,2006-06-06 16:00,ZJSY 061600Z 00000MPS 9999 FEW015 29/26 Q1006 NOSIG
ZJSY,2006-06-06 17:00,ZJSY 061700Z AUTO 00000KT 28/25 A2968 RMK T02800250 IEM_DS3505
ZJSY,2006-06-06 18:00,ZJSY 061800Z AUTO 34002KT 28/25 A2968 RMK T02800250 IEM_DS3505
ZJSY,2006-06-06 19:00,ZJSY 061900Z AUTO 34002MPS //// // ////// 28/25 Q1005
ZJSY,2006-06-06 20:00,ZJSY 062000Z AUTO 29/25 A2965 RMK T02900250 IEM_DS3505
ZJSY,2006-06-06 21:00,ZJSY 062100Z AUTO 19004KT 7SM 29/26 A2965 RMK T02900260 IEM_DS3505
ZJSY,2006-06-06 22:00,ZJSY 062200Z AUTO 20004KT 7SM 29/26 A2968 RMK T02900260 IEM_DS3505
ZJSY,2006-06-06 23:00,ZJSY 062300Z AUTO 20004KT 7SM 29/26 A2968 RMK T02900260 IEM_DS3505
ZJSY,2006-06-07 00:00,ZJSY 070000Z AUTO 7SM 30/26 A2971 RMK T03000260 IEM_DS3505
ZJSY,2006-06-07 01:00,ZJSY 070100Z AUTO 19004KT 7SM 31/26 A2971 RMK T03100260 IEM_DS3505
ZJSY,2006-06-07 02:00,ZJSY 070200Z AUTO 23006KT 7SM 33/26 A2971 RMK T03300260 IEM_DS3505
ZJSY,2006-06-07 03:00,ZJSY 070300Z AUTO 23008KT 7SM 33/25 A2971 RMK T03300250 IEM_DS3505
ZJSY,2006-06-07 04:00,ZJSY 070400Z AUTO 22008KT 7SM 33/25 A2968 RMK T03300250 IEM_DS3505
ZJSY,2006-06-07 05:00,ZJSY 070500Z AUTO 24010KT 7SM 34/24 A2965 RMK T03400240 IEM_DS3505
ZJSY,2006-06-07 06:00,ZJSY 070600Z AUTO 24010KT 7SM 34/24 A2965 RMK T03400240 IEM_DS3505
ZJSY,2006-06-07 07:00,ZJSY 070700Z 22005MPS CAVOK 33/24 Q1003 NOSIG
ZJSY,2006-06-07 08:00,ZJSY 070800Z AUTO 24008KT 6SM 33/24 A2962 RMK T03300240 IEM_DS3505
ZJSY,2006-06-07 09:00,ZJSY 070900Z AUTO 24008KT 6SM 32/24 A2962 RMK T03200240 IEM_DS3505
ZJSY,2006-06-07 10:00,ZJSY 071000Z AUTO 22006KT 6SM 31/25 A2962 RMK T03100250 IEM_DS3505
ZJSY,2006-06-07 11:00,ZJSY 071100Z AUTO 18004KT 6SM 30/25 A2965 RMK T03000250 IEM_DS3505
ZJSY,2006-06-07 12:00,ZJSY 071200Z AUTO 6SM 30/26 A2965 RMK T03000260 IEM_DS3505
ZJSY,2006-06-07 13:00,ZJSY 071300Z AUTO 13004KT 7SM 30/26 A2968 RMK T03000260 IEM_DS3505
ZJSY,2006-06-07 14:00,ZJSY 071400Z AUTO 11002KT 7SM 30/26 A2968 RMK T03000260 IEM_DS3505
ZJSY,2006-06-07 15:00,ZJSY 071500Z AUTO 12004KT 7SM 30/26 A2971 RMK T03000260 IEM_DS3505
ZJSY,2006-06-07 16:00,ZJSY 071600Z AUTO 7SM 29/25 A2971 RMK T02900250 IEM_DS3505
ZJSY,2006-06-07 17:00,ZJSY 071700Z 34002MPS 9999 FEW016 28/26 Q1006 NOSIG
ZJSY,2006-06-07 18:00,ZJSY 071800Z AUTO 35002KT 7SM 28/25 A2968 RMK T02800250 IEM_DS3505
ZJSY,2006-06-07 19:00,ZJSY 071900Z AUTO 7SM 29/26 A2968 RMK T02900260 IEM_DS3505
ZJSY,2006-06-07 20:00,ZJSY 072000Z 00000MPS 9999 FEW016 29/26 Q1004 NOSIG
ZJSY,2006-06-07 21:00,ZJSY 072100Z AUTO 36002KT 7SM 28/26 A2965 RMK T02800260 IEM_DS3505
ZJSY,2006-06-07 22:00,ZJSY 072200Z AUTO 35002KT 7SM 28/26 A2965 RMK T02800260 IEM_DS3505
ZJSY,2006-06-07 23:00,ZJSY 072300Z AUTO 7SM 29/26 A2965 RMK T02900260 IEM_DS3505
ZJSY,2006-06-08 00:00,ZJSY 080000Z AUTO 7SM 31/26 A2968 RMK T03100260 IEM_DS3505
ZJSY,2006-06-08 01:00,ZJSY 080100Z AUTO 19004KT 7SM 31/25 A2968 RMK T03100250 IEM_DS3505
ZJSY,2006-06-08 02:00,ZJSY 080200Z AUTO 22006KT 7SM 32/25 A2968 RMK T03200250 IEM_DS3505
ZJSY,2006-06-08 03:00,ZJSY 080300Z AUTO 23008KT 7SM 32/26 A2968 RMK T03200260 IEM_DS3505
ZJSY,2006-06-08 04:00,ZJSY 080400Z AUTO 25010KT 6SM 33/25 A2965 RMK T03300250 IEM_DS3505
ZJSY,2006-06-08 05:00,ZJSY 080500Z AUTO 25012KT 6SM 33/25 A2965 RMK T03300250 IEM_DS3505
ZJSY,2006-06-08 06:00,ZJSY 080600Z AUTO 25012KT 6SM 33/25 A2962 RMK T03300250 IEM_DS3505
ZJSY,2006-06-08 07:00,ZJSY 080700Z AUTO 24012KT 6SM 33/25 A2962 RMK T03300250 IEM_DS3505
ZJSY,2006-06-08 08:00,ZJSY 080800Z AUTO 24012KT 6SM 33/25 A2959 RMK T03300250 IEM_DS3505
ZJSY,2006-06-08 09:00,ZJSY 080900Z AUTO 24008KT 6SM 32/25 A2959 RMK T03200250 IEM_DS3505
ZJSY,2006-06-08 10:00,ZJSY 081000Z AUTO 25008KT 6SM 31/25 A2959 RMK T03100250 IEM_DS3505
ZJSY,2006-06-08 11:00,ZJSY 081100Z AUTO 21004KT 6SM 30/25 A2959 RMK T03000250 IEM_DS3505
ZJSY,2006-06-08 12:00,ZJSY 081200Z AUTO 6SM 30/25 A2962 RMK T03000250 IEM_DS3505
ZJSY,2006-06-08 13:00,ZJSY 081300Z AUTO 00000KT 6SM 30/25 A2962 RMK T03000250 IEM_DS3505
ZJSY,2006-06-08 14:00,ZJSY 081400Z AUTO 00000KT 6SM 29/25 A2965 RMK T02900250 IEM_DS3505
ZJSY,2006-06-08 16:00,ZJSY 081600Z AUTO 00000KT 6SM 29/25 A2968 RMK T02900250 IEM_DS3505
ZJSY,2006-06-08 17:00,ZJSY 081700Z AUTO 00000KT 6SM 28/26 A2965 RMK T02800260 IEM_DS3505
ZJSY,2006-06-08 18:00,ZJSY 081800Z AUTO 34002KT 28/26 A2962 RMK T02800260 IEM_DS3505
ZJSY,2006-06-08 19:00,ZJSY 081900Z AUTO 34004KT 28/26 A2962 RMK T02800260 IEM_DS3505
ZJSY,2006-06-08 20:00,ZJSY 082000Z AUTO 36002KT 28/25 A2962 RMK T02800250 IEM_DS3505
ZJSY,2006-06-08 21:00,ZJSY 082100Z AUTO 34002KT 7SM 28/25 A2959 RMK T02800250 IEM_DS3505
ZJSY,2006-06-08 22:00,ZJSY 082200Z 33002MPS 9999 BKN013 28/26 Q1002 NOSIG
ZJSY,2006-06-08 23:00,ZJSY 082300Z AUTO 00000KT 6SM 29/26 A2962 RMK T02900260 IEM_DS3505
ZJSY,2006-06-09 00:00,ZJSY 090000Z AUTO 6SM 31/27 A2962 RMK T03100270 IEM_DS3505
ZJSY,2006-06-09 01:00,ZJSY 090100Z AUTO 25008KT 6SM 32/26 A2965 RMK T03200260 IEM_DS3505
ZJSY,2006-06-09 02:00,ZJSY 090200Z 24005MPS 210V280 CAVOK 33/25 Q1004 NOSIG
ZJSY,2006-06-09 03:00,ZJSY 090300Z AUTO 24012KT 6SM 33/25 A2965 RMK T03300250 IEM_DS3505
ZJSY,2006-06-09 04:00,ZJSY 090400Z AUTO 25014KT 7SM 34/25 A2962 RMK T03400250 IEM_DS3505
ZJSY,2006-06-09 05:00,ZJSY 090500Z 25006MPS 210V270 9999 FEW020 33/25 Q1003 NOSIG
ZJSY,2006-06-09 06:00,ZJSY 090600Z AUTO 24014KT 6SM 33/25 A2962 RMK T03300250 IEM_DS3505
ZJSY,2006-06-09 07:00,ZJSY 090700Z AUTO 24014KT 7SM 33/24 A2959 RMK T03300240 IEM_DS3505
ZJSY,2006-06-09 08:00,ZJSY 090800Z AUTO 25012KT 7SM 34/24 A2959 RMK T03400240 IEM_DS3505
ZJSY,2006-06-09 09:00,ZJSY 090900Z AUTO 24010KT 6SM 33/24 A2956 RMK T03300240 IEM_DS3505
ZJSY,2006-06-09 10:00,ZJSY 091000Z AUTO 26008KT 6SM 33/23 A2956 RMK T03300230 IEM_DS3505
ZJSY,2006-06-09 11:00,ZJSY 091100Z AUTO 26008KT 6SM 32/23 A2959 RMK T03200230 IEM_DS3505
ZJSY,2006-06-09 12:00,ZJSY 091200Z AUTO 26004KT 6SM 32/23 A2959 RMK T03200230 IEM_DS3505
ZJSY,2006-06-09 13:00,ZJSY 091300Z AUTO 18004KT 6SM 31/26 A2962 RMK T03100260 IEM_DS3505
ZJSY,2006-06-09 14:00,ZJSY 091400Z AUTO 00000KT 7SM 30/26 A2965 RMK T03000260 IEM_DS3505
ZJSY,2006-06-09 15:00,ZJSY 091500Z AUTO 00000KT 7SM 30/25 A2965 RMK T03000250 IEM_DS3505
ZJSY,2006-06-09 17:00,ZJSY 091700Z AUTO 34004KT 7SM 29/25 A2965 RMK T02900250 IEM_DS3505
ZJSY,2006-06-09 18:00,ZJSY 091800Z AUTO 33004KT 7SM 28/25 A2962 RMK T02800250 IEM_DS3505
ZJSY,2006-06-09 19:00,ZJSY 091900Z AUTO 33004KT 7SM 28/25 A2962 RMK T02800250 IEM_DS3505
ZJSY,2006-06-09 20:00,ZJSY 092000Z AUTO 31002KT 7SM 28/25 A2962 RMK T02800250 IEM_DS3505
ZJSY,2006-06-09 21:00,ZJSY 092100Z AUTO 34002KT 7SM 28/25 A2962 RMK T02800250 IEM_DS3505
ZJSY,2006-06-09 22:00,ZJSY 092200Z AUTO 32002KT 7SM 29/25 A2962 RMK T02900250 IEM_DS3505
ZJSY,2006-06-09 23:00,ZJSY 092300Z 27002MPS 9999 BKN030 SCT015 30/25 Q1004 NOSIG
ZJSY,2006-06-10 00:00,ZJSY 100000Z AUTO 26008KT 7SM 31/25 A2965 RMK T03100250 IEM_DS3505
ZJSY,2006-06-10 01:00,ZJSY 100100Z AUTO 25008KT 7SM 32/25 A2968 RMK T03200250 IEM_DS3505
ZJSY,2006-06-10 02:00,ZJSY 100200Z AUTO 25010KT 7SM 32/25 A2968 RMK T03200250 IEM_DS3505
ZJSY,2006-06-10 03:00,ZJSY 100300Z AUTO 25012KT 7SM 32/25 A2968 RMK T03200250 IEM_DS3505
ZJSY,2006-06-10 04:00,ZJSY 100400Z AUTO 24012KT 7SM 33/25 A2968 RMK T03300250 IEM_DS3505
ZJSY,2006-06-10 05:00,ZJSY 100500Z AUTO 24012KT 7SM 34/25 A2965 RMK T03400250 IEM_DS3505
ZJSY,2006-06-10 06:00,ZJSY 100600Z AUTO 24016KT 7SM 33/25 A2965 RMK T03300250 IEM_DS3505
ZJSY,2006-06-10 07:00,ZJSY 100700Z AUTO 25016KT 7SM 34/25 A2962 RMK T03400250 IEM_DS3505
ZJSY,2006-06-10 08:00,ZJSY 100800Z AUTO 24016KT 7SM 32/25 A2962 RMK T03200250 IEM_DS3505
ZJSY,2006-06-10 09:00,ZJSY 100900Z AUTO 25014KT 7SM 31/25 A2962 RMK T03100250 IEM_DS3505
ZJSY,2006-06-10 10:00,ZJSY 101000Z 24006MPS 9999 FEW020 31/25 Q1003 NOSIG
ZJSY,2006-06-10 11:00,ZJSY 101100Z AUTO 26006KT 7SM 31/25 A2965 RMK T03100250 IEM_DS3505
ZJSY,2006-06-10 12:00,ZJSY 101200Z AUTO 30002KT 6SM 31/24 A2965 RMK T03100240 IEM_DS3505
ZJSY,2006-06-10 13:00,ZJSY 101300Z AUTO 00000KT 6SM 30/24 A2968 RMK T03000240 IEM_DS3505
ZJSY,2006-06-10 14:00,ZJSY 101400Z AUTO 00000KT 6SM 30/25 A2968 RMK T03000250 IEM_DS3505
ZJSY,2006-06-10 15:00,ZJSY 101500Z AUTO 36002KT 6SM 29/24 A2968 RMK T02900240 IEM_DS3505
ZJSY,2006-06-10 16:00,ZJSY 101600Z AUTO 6SM 29/24 A2971 RMK T02900240 IEM_DS3505
ZJSY,2006-06-10 17:00,ZJSY 101700Z AUTO 32002KT 29/24 A2968 RMK T02900240 IEM_DS3505
ZJSY,2006-06-10 18:00,ZJSY 101800Z AUTO 31004KT 29/24 A2968 RMK T02900240 IEM_DS3505
ZJSY,2006-06-10 19:00,ZJSY 101900Z AUTO 14001MPS //// // ////// 30/24 Q1005
ZJSY,2006-06-10 20:00,ZJSY 102000Z AUTO 00000KT 29/25 A2965 RMK T02900250 IEM_DS3505
ZJSY,2006-06-10 21:00,ZJSY 102100Z AUTO 20004KT 7SM 30/26 A2965 RMK T03000260 IEM_DS3505
ZJSY,2006-06-10 22:00,ZJSY 102200Z AUTO 20006KT 7SM 29/27 A2965 RMK T02900270 IEM_DS3505
ZJSY,2006-06-10 23:00,ZJSY 102300Z AUTO 25004KT 7SM 29/26 A2968 RMK T02900260 IEM_DS3505
ZJSY,2006-06-11 00:00,ZJSY 110000Z AUTO 7SM 30/26 A2971 RMK T03000260 IEM_DS3505
ZJSY,2006-06-11 01:00,ZJSY 110100Z AUTO 28004KT 6SM 30/26 A2971 RMK T03000260 IEM_DS3505
ZJSY,2006-06-11 02:00,ZJSY 110200Z AUTO 26006KT 6SM 31/25 A2971 RMK T03100250 IEM_DS3505
ZJSY,2006-06-11 03:00,ZJSY 110300Z AUTO 25008KT 6SM 32/25 A2971 RMK T03200250 IEM_DS3505
ZJSY,2006-06-11 04:00,ZJSY 110400Z AUTO 23006KT 7SM 31/26 A2971 RMK T03100260 IEM_DS3505
ZJSY,2006-06-11 06:00,ZJSY 110600Z AUTO 23008KT 7SM 32/25 A2965 RMK T03200250 IEM_DS3505
ZJSY,2006-06-11 07:00,ZJSY 110700Z AUTO 24010KT 7SM 32/24 A2965 RMK T03200240 IEM_DS3505
ZJSY,2006-06-11 08:00,ZJSY 110800Z AUTO 23006KT 7SM 32/25 A2965 RMK T03200250 IEM_DS3505
ZJSY,2006-06-11 09:00,ZJSY 110900Z AUTO 24008KT 7SM 31/24 A2965 RMK T03100240 IEM_DS3505
ZJSY,2006-06-11 10:00,ZJSY 111000Z AUTO 25006KT 7SM 31/24 A2965 RMK T03100240 IEM_DS3505
ZJSY,2006-06-11 11:00,ZJSY 111100Z AUTO 26002KT 7SM 31/24 A2965 RMK T03100240 IEM_DS3505
ZJSY,2006-06-11 12:00,ZJSY 111200Z 26002MPS 9999 SCT060 30/24 Q1005 NOSIG
ZJSY,2006-06-11 13:00,ZJSY 111300Z AUTO 6SM 30/25 A2971 RMK T03000250 IEM_DS3505
ZJSY,2006-06-11 14:00,ZJSY 111400Z AUTO 6SM 28/23 A2971 RMK T02800230 IEM_DS3505
ZJSY,2006-06-11 15:00,ZJSY 111500Z AUTO 00000KT 6SM 29/24 A2971 RMK T02900240 IEM_DS3505
ZJSY,2006-06-11 16:00,ZJSY 111600Z AUTO 6SM 28/23 A2974 RMK T02800230 IEM_DS3505
ZJSY,2006-06-11 17:00,ZJSY 111700Z AUTO 34004KT 6SM 28/24 A2971 RMK T02800240 IEM_DS3505
ZJSY,2006-06-11 18:00,ZJSY 111800Z AUTO 27/24 A2971 RMK T02700240 IEM_DS3505
ZJSY,2006-06-11 19:00,ZJSY 111900Z AUTO 34004KT 27/24 A2968 RMK T02700240 IEM_DS3505
ZJSY,2006-06-11 20:00,ZJSY 112000Z AUTO 00000KT 28/25 A2968 RMK T02800250 IEM_DS3505
ZJSY,2006-06-11 21:00,ZJSY 112100Z AUTO 6SM 28/25 A2968 RMK T02800250 IEM_DS3505
ZJSY,2006-06-11 22:00,ZJSY 112200Z AUTO 36002KT 7SM 28/25 A2968 RMK T02800250 IEM_DS3505
ZJSY,2006-06-11 23:00,ZJSY 112300Z AUTO 00000KT 7SM 28/26 A2968 RMK T02800260 IEM_DS3505
ZJSY,2006-06-12 00:00,ZJSY 120000Z AUTO 7SM 30/26 A2971 RMK T03000260 IEM_DS3505
ZJSY,2006-06-12 01:00,ZJSY 120100Z AUTO 6SM 30/26 A2971 RMK T03000260 IEM_DS3505
ZJSY,2006-06-12 02:00,ZJSY 120200Z AUTO 16004KT 7SM 32/25 A2971 RMK T03200250 IEM_DS3505
ZJSY,2006-06-12 03:00,ZJSY 120300Z AUTO 7SM 32/26 A2971 RMK T03200260 IEM_DS3505
ZJSY,2006-06-12 04:00,ZJSY 120400Z AUTO 17004KT 7SM 32/27 A2971 RMK T03200270 IEM_DS3505
ZJSY,2006-06-12 05:00,ZJSY 120500Z AUTO 16006KT 7SM 31/26 A2968 RMK T03100260 IEM_DS3505
ZJSY,2006-06-12 06:00,ZJSY 120600Z AUTO 15006KT 7SM 32/27 A2968 RMK T03200270 IEM_DS3505
ZJSY,2006-06-12 07:00,ZJSY 120700Z AUTO 16008KT 7SM 32/27 A2965 RMK T03200270 IEM_DS3505
ZJSY,2006-06-12 08:00,ZJSY 120800Z AUTO 15008KT 7SM 31/27 A2965 RMK T03100270 IEM_DS3505
ZJSY,2006-06-12 09:00,ZJSY 120900Z AUTO 16006KT 7SM 31/27 A2962 RMK T03100270 IEM_DS3505
ZJSY,2006-06-12 10:00,ZJSY 121000Z AUTO 16004KT 7SM 30/27 A2962 RMK T03000270 IEM_DS3505
ZJSY,2006-06-12 11:00,ZJSY 121100Z AUTO 13004KT 7SM 30/26 A2962 RMK T03000260 IEM_DS3505
ZJSY,2006-06-12 12:00,ZJSY 121200Z AUTO 14004KT 7SM 29/27 A2965 RMK T02900270 IEM_DS3505
ZJSY,2006-06-12 13:00,ZJSY 121300Z AUTO 14004KT 7SM 30/27 A2968 RMK T03000270 IEM_DS3505
ZJSY,2006-06-12 14:00,ZJSY 121400Z AUTO 10004KT 7SM 29/26 A2968 RMK T02900260 IEM_DS3505
ZJSY,2006-06-12 15:00,ZJSY 121500Z AUTO 07006KT 7SM 29/26 A2968 RMK T02900260 IEM_DS3505
ZJSY,2006-06-12 16:00,ZJSY 121600Z AUTO 08006KT 7SM 29/26 A2971 RMK T02900260 IEM_DS3505
ZJSY,2006-06-12 17:00,ZJSY 121700Z AUTO 07004KT 29/26 A2971 RMK T02900260 IEM_DS3505
ZJSY,2006-06-12 18:00,ZJSY 121800Z AUTO 08006KT 29/26 A2968 RMK T02900260 IEM_DS3505
ZJSY,2006-06-12 19:00,ZJSY 121900Z AUTO 07006KT 29/26 A2968 RMK T02900260 IEM_DS3505
ZJSY,2006-06-12 20:00,ZJSY 122000Z AUTO 08002MPS //// // ////// 29/26 Q1005
ZJSY,2006-06-12 21:00,ZJSY 122100Z AUTO 13004KT 7SM 29/26 A2968 RMK T02900260 IEM_DS3505
ZJSY,2006-06-12 22:00,ZJSY 122200Z AUTO 17004KT 7SM 29/26 A2968 RMK T02900260 IEM_DS3505
ZJSY,2006-06-12 23:00,ZJSY 122300Z AUTO 7SM 30/26 A2971 RMK T03000260 IEM_DS3505
ZJSY,2006-06-13 00:00,ZJSY 130000Z AUTO 12004KT 7SM 30/26 A2971 RMK T03000260 IEM_DS3505
ZJSY,2006-06-13 01:00,ZJSY 130100Z AUTO 12006KT 7SM 31/26 A2971 RMK T03100260 IEM_DS3505
ZJSY,2006-06-13 02:00,ZJSY 130200Z AUTO 15006KT 7SM 32/26 A2971 RMK T03200260 IEM_DS3505
ZJSY,2006-06-13 03:00,ZJSY 130300Z AUTO 14006KT 7SM 32/26 A2971 RMK T03200260 IEM_DS3505
ZJSY,2006-06-13 04:00,ZJSY 130400Z AUTO 14006KT 7SM 31/26 A2971 RMK T03100260 IEM_DS3505
ZJSY,2006-06-13 05:00,ZJSY 130500Z AUTO 15006KT 7SM 32/27 A2971 RMK T03200270 IEM_DS3505
ZJSY,2006-06-13 06:00,ZJSY 130600Z AUTO 16006KT 7SM 33/26 A2968 RMK T03300260 IEM_DS3505
ZJSY,2006-06-13 07:00,ZJSY 130700Z AUTO 16008KT 7SM 32/26 A2965 RMK T03200260 IEM_DS3505
ZJSY,2006-06-13 08:00,ZJSY 130800Z AUTO 16008KT 7SM 32/27 A2965 RMK T03200270 IEM_DS3505
ZJSY,2006-06-13 09:00,ZJSY 130900Z AUTO 16006KT 7SM 31/27 A2962 RMK T03100270 IEM_DS3505
ZJSY,2006-06-13 10:00,ZJSY 131000Z AUTO 17006KT 7SM 31/27 A2962 RMK T03100270 IEM_DS3505
ZJSY,2006-06-13 11:00,ZJSY 131100Z AUTO 7SM 30/27 A2962 RMK T03000270 IEM_DS3505
ZJSY,2006-06-13 12:00,ZJSY 131200Z AUTO 14004KT 7SM 30/26 A2965 RMK T03000260 IEM_DS3505
ZJSY,2006-06-13 13:00,ZJSY 131300Z AUTO 13004KT 7SM 30/26 A2965 RMK T03000260 IEM_DS3505
ZJSY,2006-06-13 14:00,ZJSY 131400Z AUTO 10004KT 7SM 30/26 A2968 RMK T03000260 IEM_DS3505
ZJSY,2006-06-13 15:00,ZJSY 131500Z AUTO 13006KT 7SM 30/26 A2971 RMK T03000260 IEM_DS3505
ZJSY,2006-06-13 16:00,ZJSY 131600Z AUTO 13006KT 7SM 29/26 A2971 RMK T02900260 IEM_DS3505
ZJSY,2006-06-13 17:00,ZJSY 131700Z AUTO 12006KT 7SM 29/26 A2971 RMK T02900260 IEM_DS3505
ZJSY,2006-06-13 18:00,ZJSY 131800Z AUTO 14006KT 7SM 29/26 A2971 RMK T02900260 IEM_DS3505
ZJSY,2006-06-13 19:00,ZJSY 131900Z AUTO 14006KT 7SM 29/26 A2971 RMK T02900260 IEM_DS3505
ZJSY,2006-06-13 20:00,ZJSY 132000Z AUTO 14004KT 7SM 29/26 A2968 RMK T02900260 IEM_DS3505
ZJSY,2006-06-13 21:00,ZJSY 132100Z AUTO 15004KT 7SM 29/26 A2971 RMK T02900260 IEM_DS3505
ZJSY,2006-06-13 22:00,ZJSY 132200Z AUTO 7SM 29/26 A2971 RMK T02900260 IEM_DS3505
ZJSY,2006-06-13 23:00,ZJSY 132300Z AUTO 17006KT 7SM 29/26 A2971 RMK T02900260 IEM_DS3505
ZJSY,2006-06-14 00:00,ZJSY 140000Z AUTO 12004KT 7SM 30/26 A2974 RMK T03000260 IEM_DS3505
ZJSY,2006-06-14 01:00,ZJSY 140100Z AUTO 11006KT 7SM 31/25 A2974 RMK T03100250 IEM_DS3505
ZJSY,2006-06-14 02:00,ZJSY 140200Z AUTO 13006KT 7SM 32/26 A2974 RMK T03200260 IEM_DS3505
ZJSY,2006-06-14 03:00,ZJSY 140300Z AUTO 14006KT 7SM 32/26 A2971 RMK T03200260 IEM_DS3505
ZJSY,2006-06-14 04:00,ZJSY 140400Z AUTO 13008KT 7SM 32/26 A2971 RMK T03200260 IEM_DS3505
ZJSY,2006-06-14 05:00,ZJSY 140500Z AUTO 14006KT 7SM 32/26 A2971 RMK T03200260 IEM_DS3505
ZJSY,2006-06-14 06:00,ZJSY 140600Z AUTO 15006KT 7SM 31/26 A2968 RMK T03100260 IEM_DS3505
ZJSY,2006-06-14 07:00,ZJSY 140700Z AUTO 16008KT 7SM 31/26 A2968 RMK T03100260 IEM_DS3505
ZJSY,2006-06-14 08:00,ZJSY 140800Z AUTO 15006KT 7SM 32/27 A2965 RMK T03200270 IEM_DS3505
ZJSY,2006-06-14 09:00,ZJSY 140900Z AUTO 16006KT 7SM 31/26 A2965 RMK T03100260 IEM_DS3505
ZJSY,2006-06-14 10:00,ZJSY 141000Z AUTO 16006KT 7SM 30/27 A2965 RMK T03000270 IEM_DS3505
ZJSY,2006-06-14 11:00,ZJSY 141100Z AUTO 16004KT 7SM 30/27 A2968 RMK T03000270 IEM_DS3505
ZJSY,2006-06-14 12:00,ZJSY 141200Z AUTO 15004KT 7SM 30/27 A2968 RMK T03000270 IEM_DS3505
ZJSY,2006-06-14 13:00,ZJSY 141300Z AUTO 13004KT 7SM 30/27 A2968 RMK T03000270 IEM_DS3505
ZJSY,2006-06-14 14:00,ZJSY 141400Z AUTO 10004KT 7SM 30/26 A2971 RMK T03000260 IEM_DS3505
ZJSY,2006-06-14 15:00,ZJSY 141500Z AUTO 06004KT 7SM 29/26 A2971 RMK T02900260 IEM_DS3505
ZJSY,2006-06-14 16:00,ZJSY 141600Z AUTO 06006KT 7SM 29/26 A2968 RMK T02900260 IEM_DS3505
ZJSY,2006-06-14 17:00,ZJSY 141700Z AUTO 07004KT 7SM 29/26 A2968 RMK T02900260 IEM_DS3505
ZJSY,2006-06-14 20:00,ZJSY 142000Z AUTO 29/26 A2971 RMK T02900260 IEM_DS3505
ZJSY,2006-06-14 21:00,ZJSY 142100Z AUTO 08004KT 7SM 28/26 A2971 RMK T02800260 IEM_DS3505
ZJSY,2006-06-14 22:00,ZJSY 142200Z AUTO 01002KT 7SM 28/26 A2971 RMK T02800260 IEM_DS3505
ZJSY,2006-06-14 23:00,ZJSY 142300Z AUTO 36002KT 7SM 28/26 A2971 RMK T02800260 IEM_DS3505
ZJSY,2006-06-15 00:00,ZJSY 150000Z AUTO 04004KT 7SM 30/26 A2971 RMK T03000260 IEM_DS3505
ZJSY,2006-06-15 01:00,ZJSY 150100Z AUTO 13004KT 7SM 31/26 A2971 RMK T03100260 IEM_DS3505
ZJSY,2006-06-15 02:00,ZJSY 150200Z AUTO 15004KT 7SM 31/26 A2974 RMK T03100260 IEM_DS3505
ZJSY,2006-06-15 03:00,ZJSY 150300Z AUTO 16004KT 7SM 32/26 A2971 RMK T03200260 IEM_DS3505
ZJSY,2006-06-15 04:00,ZJSY 150400Z AUTO 7SM 32/25 A2971 RMK T03200250 IEM_DS3505
ZJSY,2006-06-15 05:00,ZJSY 150500Z AUTO 17004KT 7SM 32/26 A2971 RMK T03200260 IEM_DS3505
ZJSY,2006-06-15 06:00,ZJSY 150600Z AUTO 17006KT 7SM 32/26 A2968 RMK T03200260 IEM_DS3505
ZJSY,2006-06-15 07:00,ZJSY 150700Z AUTO 20006KT 6SM 32/26 A2965 RMK T03200260 IEM_DS3505
ZJSY,2006-06-15 08:00,ZJSY 150800Z AUTO 20006KT 6SM 31/26 A2965 RMK T03100260 IEM_DS3505
ZJSY,2006-06-15 09:00,ZJSY 150900Z AUTO 19006KT 7SM 31/26 A2962 RMK T03100260 IEM_DS3505
ZJSY,2006-06-15 10:00,ZJSY 151000Z AUTO 20004KT 7SM 30/26 A2965 RMK T03000260 IEM_DS3505
ZJSY,2006-06-15 11:00,ZJSY 151100Z VRB01MPS 9999 FEW013 30/26 Q1004 NOSIG
ZJSY,2006-06-15 12:00,ZJSY 151200Z AUTO 7SM 30/26 A2965 RMK T03000260 IEM_DS3505
ZJSY,2006-06-15 13:00,ZJSY 151300Z AUTO 7SM 29/26 A2968 RMK T02900260 IEM_DS3505
ZJSY,2006-06-15 14:00,ZJSY 151400Z AUTO 00000KT 7SM 29/26 A2968 RMK T02900260 IEM_DS3505
ZJSY,2006-06-15 15:00,ZJSY 151500Z 34002MPS 9999 FEW013 29/26 Q1005 NOSIG
ZJSY,2006-06-15 16:00,ZJSY 151600Z AUTO 00000KT 6SM 29/26 A2968 RMK T02900260 IEM_DS3505
ZJSY,2006-06-15 17:00,ZJSY 151700Z AUTO 36002KT 6SM 28/26 A2968 RMK T02800260 IEM_DS3505
ZJSY,2006-06-15 18:00,ZJSY 151800Z AUTO 36001MPS //// // ////// 28/26 Q1005
ZJSY,2006-06-15 19:00,ZJSY 151900Z AUTO 28/26 A2968 RMK T02800260 IEM_DS3505
ZJSY,2006-06-15 20:00,ZJSY 152000Z AUTO 35002KT 28/26 A2968 RMK T02800260 IEM_DS3505
ZJSY,2006-06-15 21:00,ZJSY 152100Z AUTO 28/25 A2968 RMK T02800250 IEM_DS3505
ZJSY,2006-06-15 22:00,ZJSY 152200Z AUTO 00000KT 6SM 27/25 A2968 RMK T02700250 IEM_DS3505
ZJSY,2006-06-15 23:00,ZJSY 152300Z AUTO 7SM 28/25 A2968 RMK T02800250 IEM_DS3505
ZJSY,2006-06-16 00:00,ZJSY 160000Z AUTO 00000KT 7SM 30/26 A2971 RMK T03000260 IEM_DS3505
ZJSY,2006-06-16 01:00,ZJSY 160100Z AUTO 7SM 31/26 A2971 RMK T03100260 IEM_DS3505
ZJSY,2006-06-16 02:00,ZJSY 160200Z AUTO 17004KT 7SM 31/26 A2971 RMK T03100260 IEM_DS3505
ZJSY,2006-06-16 03:00,ZJSY 160300Z AUTO 19006KT 7SM 31/26 A2971 RMK T03100260 IEM_DS3505
ZJSY,2006-06-16 04:00,ZJSY 160400Z AUTO 18006KT 7SM 32/26 A2971 RMK T03200260 IEM_DS3505
ZJSY,2006-06-16 05:00,ZJSY 160500Z AUTO 20006KT 7SM 32/26 A2971 RMK T03200260 IEM_DS3505
ZJSY,2006-06-16 06:00,ZJSY 160600Z 19003MPS 150V240 CAVOK 32/26 Q1005 NOSIG
ZJSY,2006-06-16 07:00,ZJSY 160700Z AUTO 19006KT 6SM 32/26 A2968 RMK T03200260 IEM_DS3505
ZJSY,2006-06-16 08:00,ZJSY 160800Z AUTO 20006KT 6SM 31/25 A2965 RMK T03100250 IEM_DS3505
ZJSY,2006-06-16 09:00,ZJSY 160900Z AUTO 18004KT 6SM 31/26 A2965 RMK T03100260 IEM_DS3505
ZJSY,2006-06-16 10:00,ZJSY 161000Z AUTO 16004KT 6SM 31/25 A2965 RMK T03100250 IEM_DS3505
ZJSY,2006-06-16 11:00,ZJSY 161100Z AUTO 6SM 30/25 A2965 RMK T03000250 IEM_DS3505
ZJSY,2006-06-16 12:00,ZJSY 161200Z AUTO 14004KT 6SM 30/26 A2968 RMK T03000260 IEM_DS3505
ZJSY,2006-06-16 13:00,ZJSY 161300Z AUTO 13004KT 6SM 30/26 A2968 RMK T03000260 IEM_DS3505
ZJSY,2006-06-16 14:00,ZJSY 161400Z AUTO 07004KT 7SM 29/25 A2971 RMK T02900250 IEM_DS3505
ZJSY,2006-06-16 15:00,ZJSY 161500Z AUTO 08006KT 6SM 29/25 A2971 RMK T02900250 IEM_DS3505
ZJSY,2006-06-16 16:00,ZJSY 161600Z 06003MPS CAVOK 29/25 Q1006 NOSIG
ZJSY,2006-06-16 17:00,ZJSY 161700Z 06002MPS CAVOK 29/24 Q1006 NOSIG
ZJSY,2006-06-16 18:00,ZJSY 161800Z AUTO 28/24 A2971 RMK T02800240 IEM_DS3505
ZJSY,2006-06-16 19:00,ZJSY 161900Z AUTO 33002KT 28/24 A2968 RMK T02800240 IEM_DS3505
ZJSY,2006-06-16 20:00,ZJSY 162000Z AUTO 33004KT 27/24 A2968 RMK T02700240 IEM_DS3505
ZJSY,2006-06-16 21:00,ZJSY 162100Z AUTO 00000KT 7SM 28/25 A2968 RMK T02800250 IEM_DS3505
ZJSY,2006-06-16 22:00,ZJSY 162200Z AUTO 7SM 28/25 A2968 RMK T02800250 IEM_DS3505
ZJSY,2006-06-16 23:00,ZJSY 162300Z AUTO 08004KT 7SM 29/25 A2971 RMK T02900250 IEM_DS3505
ZJSY,2006-06-17 00:00,ZJSY 170000Z AUTO 07006KT 7SM 30/25 A2971 RMK T03000250 IEM_DS3505
ZJSY,2006-06-17 01:00,ZJSY 170100Z AUTO 10006KT 7SM 32/25 A2974 RMK T03200250 IEM_DS3505
ZJSY,2006-06-17 02:00,ZJSY 170200Z AUTO 16006KT 7SM 31/26 A2974 RMK T03100260 IEM_DS3505
ZJSY,2006-06-17 03:00,ZJSY 170300Z AUTO 16008KT 7SM 31/26 A2974 RMK T03100260 IEM_DS3505
ZJSY,2006-06-17 04:00,ZJSY 170400Z AUTO 16008KT 7SM 32/26 A2971 RMK T03200260 IEM_DS3505
ZJSY,2006-06-17 05:00,ZJSY 170500Z AUTO 15006KT 7SM 32/26 A2971 RMK T03200260 IEM_DS3505
ZJSY,2006-06-17 06:00,ZJSY 170600Z AUTO 16008KT 7SM 31/25 A2968 RMK T03100250 IEM_DS3505
ZJSY,2006-06-17 07:00,ZJSY 170700Z AUTO 16008KT 6SM 32/25 A2965 RMK T03200250 IEM_DS3505
ZJSY,2006-06-17 08:00,ZJSY 170800Z AUTO 16010KT 6SM 32/25 A2965 RMK T03200250 IEM_DS3505
ZJSY,2006-06-17 09:00,ZJSY 170900Z AUTO 15006KT 6SM 32/25 A2965 RMK T03200250 IEM_DS3505
ZJSY,2006-06-17 10:00,ZJSY 171000Z AUTO 14010KT 7SM 31/24 A2965 RMK T03100240 IEM_DS3505
ZJSY,2006-06-17 11:00,ZJSY 171100Z AUTO 13008KT 7SM 30/25 A2968 RMK T03000250 IEM_DS3505
ZJSY,2006-06-17 12:00,ZJSY 171200Z AUTO 12008KT 7SM 30/25 A2971 RMK T03000250 IEM_DS3505
ZJSY,2006-06-17 13:00,ZJSY 171300Z AUTO 11008KT 7SM 30/25 A2971 RMK T03000250 IEM_DS3505
ZJSY,2006-06-17 14:00,ZJSY 171400Z AUTO 09008KT 7SM 30/25 A2974 RMK T03000250 IEM_DS3505
ZJSY,2006-06-17 15:00,ZJSY 171500Z AUTO 07006KT 7SM 29/25 A2974 RMK T02900250 IEM_DS3505
ZJSY,2006-06-17 16:00,ZJSY 171600Z AUTO 07006KT 7SM 29/25 A2974 RMK T02900250 IEM_DS3505
ZJSY,2006-06-17 17:00,ZJSY 171700Z AUTO 06006KT 29/25 A2974 RMK T02900250 IEM_DS3505
ZJSY,2006-06-17 18:00,ZJSY 171800Z AUTO 06006KT 29/25 A2971 RMK T02900250 IEM_DS3505
ZJSY,2006-06-17 19:00,ZJSY 171900Z AUTO 07006KT 28/25 A2971 RMK T02800250 IEM_DS3505
ZJSY,2006-06-17 20:00,ZJSY 172000Z AUTO 05006KT 28/25 A2968 RMK T02800250 IEM_DS3505
ZJSY,2006-06-17 21:00,ZJSY 172100Z AUTO 7SM 27/25 A2971 RMK T02700250 IEM_DS3505
ZJSY,2006-06-17 22:00,ZJSY 172200Z AUTO 36002KT 7SM 27/25 A2971 RMK T02700250 IEM_DS3505
ZJSY,2006-06-17 23:00,ZJSY 172300Z AUTO 07004KT 7SM 28/25 A2974 RMK T02800250 IEM_DS3505
ZJSY,2006-06-18 00:00,ZJSY 180000Z AUTO 09004KT 7SM 28/25 A2974 RMK T02800250 IEM_DS3505
ZJSY,2006-06-18 01:00,ZJSY 180100Z AUTO 10006KT 7SM 30/26 A2974 RMK T03000260 IEM_DS3505
ZJSY,2006-06-18 02:00,ZJSY 180200Z AUTO 14006KT 7SM 31/25 A2977 RMK T03100250 IEM_DS3505
ZJSY,2006-06-18 03:00,ZJSY 180300Z AUTO 15006KT 7SM 31/25 A2974 RMK T03100250 IEM_DS3505
ZJSY,2006-06-18 04:00,ZJSY 180400Z AUTO 15008KT 7SM 31/25 A2974 RMK T03100250 IEM_DS3505
ZJSY,2006-06-18 05:00,ZJSY 180500Z AUTO 16008KT 7SM 32/25 A2971 RMK T03200250 IEM_DS3505
ZJSY,2006-06-18 06:00,ZJSY 180600Z AUTO 15008KT 7SM 32/25 A2971 RMK T03200250 IEM_DS3505
ZJSY,2006-06-18 07:00,ZJSY 180700Z AUTO 15010KT 7SM 31/25 A2971 RMK T03100250 IEM_DS3505
ZJSY,2006-06-18 08:00,ZJSY 180800Z AUTO 14008KT 7SM 31/25 A2971 RMK T03100250 IEM_DS3505
ZJSY,2006-06-18 09:00,ZJSY 180900Z AUTO 13008KT 7SM 31/26 A2971 RMK T03100260 IEM_DS3505
ZJSY,2006-06-18 11:00,ZJSY 181100Z AUTO 08010KT 7SM 30/24 A2974 RMK T03000240 IEM_DS3505
ZJSY,2006-06-18 12:00,ZJSY 181200Z AUTO 09008KT 6SM 29/24 A2974 RMK T02900240 IEM_DS3505
ZJSY,2006-06-18 13:00,ZJSY 181300Z AUTO 09006KT 6SM 29/24 A2974 RMK T02900240 IEM_DS3505
ZJSY,2006-06-18 14:00,ZJSY 181400Z AUTO 09008KT 6SM 28/24 A2977 RMK T02800240 IEM_DS3505
ZJSY,2006-06-18 15:00,ZJSY 181500Z AUTO 05006KT 6SM 28/25 A2977 RMK T02800250 IEM_DS3505
ZJSY,2006-06-18 16:00,ZJSY 181600Z AUTO 06006KT 6SM 28/25 A2980 RMK T02800250 IEM_DS3505
ZJSY,2006-06-18 17:00,ZJSY 181700Z AUTO 07004KT 6SM 28/25 A2977 RMK T02800250 IEM_DS3505
ZJSY,2006-06-18 18:00,ZJSY 181800Z AUTO 06006KT 28/25 A2974 RMK T02800250 IEM_DS3505
ZJSY,2006-06-18 19:00,ZJSY 181900Z AUTO 05006KT 28/24 A2974 RMK T02800240 IEM_DS3505
ZJSY,2006-06-18 20:00,ZJSY 182000Z AUTO 06004KT 27/25 A2974 RMK T02700250 IEM_DS3505
ZJSY,2006-06-18 21:00,ZJSY 182100Z AUTO 06004KT 7SM 27/25 A2974 RMK T02700250 IEM_DS3505
ZJSY,2006-06-18 22:00,ZJSY 182200Z AUTO 06006KT 7SM 27/24 A2974 RMK T02700240 IEM_DS3505
ZJSY,2006-06-18 23:00,ZJSY 182300Z AUTO 06004KT 7SM 27/25 A2977 RMK T02700250 IEM_DS3505
ZJSY,2006-06-19 00:00,ZJSY 190000Z AUTO 06004KT 7SM 28/25 A2977 RMK T02800250 IEM_DS3505
ZJSY,2006-06-19 01:00,ZJSY 190100Z AUTO 10006KT 7SM 30/25 A2980 RMK T03000250 IEM_DS3505
ZJSY,2006-06-19 02:00,ZJSY 190200Z AUTO 16004KT 7SM 30/25 A2980 RMK T03000250 IEM_DS3505
ZJSY,2006-06-19 03:00,ZJSY 190300Z AUTO 15006KT 7SM 32/26 A2980 RMK T03200260 IEM_DS3505
ZJSY,2006-06-19 04:00,ZJSY 190400Z AUTO 16010KT 7SM 31/26 A2980 RMK T03100260 IEM_DS3505
ZJSY,2006-06-19 05:00,ZJSY 190500Z AUTO 15008KT 7SM 32/26 A2980 RMK T03200260 IEM_DS3505
ZJSY,2006-06-19 06:00,ZJSY 190600Z AUTO 16010KT 7SM 32/26 A2977 RMK T03200260 IEM_DS3505
ZJSY,2006-06-19 07:00,ZJSY 190700Z AUTO 15010KT 7SM 32/25 A2974 RMK T03200250 IEM_DS3505
ZJSY,2006-06-19 08:00,ZJSY 190800Z AUTO 15008KT 7SM 31/25 A2971 RMK T03100250 IEM_DS3505
ZJSY,2006-06-19 09:00,ZJSY 190900Z AUTO 15008KT 7SM 30/25 A2974 RMK T03000250 IEM_DS3505
ZJSY,2006-06-19 10:00,ZJSY 191000Z AUTO 13006KT 7SM 30/24 A2974 RMK T03000240 IEM_DS3505
ZJSY,2006-06-19 11:00,ZJSY 191100Z AUTO 09008KT 7SM 30/24 A2974 RMK T03000240 IEM_DS3505
ZJSY,2006-06-19 12:00,ZJSY 191200Z AUTO 08006KT 7SM 29/24 A2977 RMK T02900240 IEM_DS3505
ZJSY,2006-06-19 13:00,ZJSY 191300Z AUTO 06008KT 7SM 29/24 A2977 RMK T02900240 IEM_DS3505
ZJSY,2006-06-19 14:00,ZJSY 191400Z AUTO 06006KT 7SM 29/24 A2980 RMK T02900240 IEM_DS3505
ZJSY,2006-06-19 15:00,ZJSY 191500Z AUTO 07004KT 7SM 28/25 A2980 RMK T02800250 IEM_DS3505
ZJSY,2006-06-19 16:00,ZJSY 191600Z AUTO 06004KT 7SM 28/25 A2980 RMK T02800250 IEM_DS3505
ZJSY,2006-06-19 17:00,ZJSY 191700Z AUTO 05006KT 7SM 28/25 A2980 RMK T02800250 IEM_DS3505
ZJSY,2006-06-19 18:00,ZJSY 191800Z AUTO 06004KT 7SM 28/25 A2980 RMK T02800250 IEM_DS3505
ZJSY,2006-06-19 19:00,ZJSY 191900Z AUTO 06004KT 7SM 28/25 A2977 RMK T02800250 IEM_DS3505
ZJSY,2006-06-19 20:00,ZJSY 192000Z AUTO 06004KT 7SM 27/24 A2977 RMK T02700240 IEM_DS3505
ZJSY,2006-06-19 21:00,ZJSY 192100Z AUTO 05006KT 7SM 28/24 A2977 RMK T02800240 IEM_DS3505
ZJSY,2006-06-19 22:00,ZJSY 192200Z AUTO 09010KT 2 1/2SM 26/24 A2980 RMK T02600240 IEM_DS3505
ZJSY,2006-06-19 23:00,ZJSY 192300Z AUTO 35004KT 7SM 26/24 A2980 RMK T02600240 IEM_DS3505
ZJSY,2006-06-20 00:00,ZJSY 200000Z AUTO 7SM 27/24 A2983 RMK T02700240 IEM_DS3505
ZJSY,2006-06-20 01:00,ZJSY 200100Z AUTO 06006KT 7SM 30/24 A2983 RMK T03000240 IEM_DS3505
ZJSY,2006-06-20 02:00,ZJSY 200200Z AUTO 10006KT 7SM 31/24 A2983 RMK T03100240 IEM_DS3505
ZJSY,2006-06-20 03:00,ZJSY 200300Z AUTO 7SM 32/24 A2983 RMK T03200240 IEM_DS3505
ZJSY,2006-06-20 04:00,ZJSY 200400Z AUTO 16006KT 7SM 32/25 A2980 RMK T03200250 IEM_DS3505
ZJSY,2006-06-20 05:00,ZJSY 200500Z AUTO 17008KT 7SM 32/25 A2977 RMK T03200250 IEM_DS3505
ZJSY,2006-06-20 06:00,ZJSY 200600Z AUTO 16012KT 7SM 31/25 A2977 RMK T03100250 IEM_DS3505
ZJSY,2006-06-20 07:00,ZJSY 200700Z AUTO 15010KT 7SM 32/25 A2974 RMK T03200250 IEM_DS3505
ZJSY,2006-06-20 08:00,ZJSY 200800Z AUTO 14010KT 7SM 30/25 A2971 RMK T03000250 IEM_DS3505
ZJSY,2006-06-20 09:00,ZJSY 200900Z AUTO 13008KT 7SM 30/25 A2974 RMK T03000250 IEM_DS3505
ZJSY,2006-06-20 10:00,ZJSY 201000Z AUTO 07008KT 7SM 30/25 A2974 RMK T03000250 IEM_DS3505
ZJSY,2006-06-20 11:00,ZJSY 201100Z AUTO 09006KT 7SM 29/25 A2974 RMK T02900250 IEM_DS3505
ZJSY,2006-06-20 12:00,ZJSY 201200Z AUTO 05004KT 7SM 29/24 A2977 RMK T02900240 IEM_DS3505
ZJSY,2006-06-20 13:00,ZJSY 201300Z AUTO 00000KT 7SM 29/25 A2980 RMK T02900250 IEM_DS3505
ZJSY,2006-06-20 14:00,ZJSY 201400Z AUTO 34004KT 7SM 28/25 A2980 RMK T02800250 IEM_DS3505
ZJSY,2006-06-20 15:00,ZJSY 201500Z AUTO 7SM 28/24 A2983 RMK T02800240 IEM_DS3505
ZJSY,2006-06-20 16:00,ZJSY 201600Z VRB01MPS 9999 FEW016 FEW023TCU 27/24 Q1010 NOSIG
ZJSY,2006-06-20 17:00,ZJSY 201700Z AUTO 00000KT A2980 RMK IEM_DS3505
ZJSY,2006-06-20 18:00,ZJSY 201800Z AUTO 26/24 A2980 RMK T02600240 IEM_DS3505
ZJSY,2006-06-20 19:00,ZJSY 201900Z AUTO 00000KT A2977 RMK IEM_DS3505
ZJSY,2006-06-20 20:00,ZJSY 202000Z AUTO 33002KT 26/23 A2977 RMK T02600230 IEM_DS3505
ZJSY,2006-06-20 21:00,ZJSY 202100Z AUTO 33002KT 26/23 A2980 RMK T02600230 IEM_DS3505
ZJSY,2006-06-20 22:00,ZJSY 202200Z AUTO 34004KT 6SM 25/23 A2980 RMK T02500230 IEM_DS3505
ZJSY,2006-06-20 23:00,ZJSY 202300Z AUTO 34004KT 6SM 26/24 A2980 RMK T02600240 IEM_DS3505
ZJSY,2006-06-21 00:00,ZJSY 210000Z AUTO 05004KT 6SM 29/23 A2980 RMK T02900230 IEM_DS3505
ZJSY,2006-06-21 01:00,ZJSY 210100Z AUTO 08006KT 6SM 31/23 A2980 RMK T03100230 IEM_DS3505
ZJSY,2006-06-21 02:00,ZJSY 210200Z AUTO 12006KT 7SM 32/23 A2980 RMK T03200230 IEM_DS3505
ZJSY,2006-06-21 03:00,ZJSY 210300Z AUTO 15006KT 7SM 32/24 A2980 RMK T03200240 IEM_DS3505
ZJSY,2006-06-21 04:00,ZJSY 210400Z AUTO 18008KT 7SM 31/25 A2980 RMK T03100250 IEM_DS3505
ZJSY,2006-06-21 05:00,ZJSY 210500Z AUTO 17008KT 7SM 32/24 A2977 RMK T03200240 IEM_DS3505
ZJSY,2006-06-21 06:00,ZJSY 210600Z AUTO 17008KT 7SM 31/25 A2974 RMK T03100250 IEM_DS3505
ZJSY,2006-06-21 07:00,ZJSY 210700Z AUTO 7SM 30/24 A2974 RMK T03000240 IEM_DS3505
ZJSY,2006-06-21 08:00,ZJSY 210800Z 25006MPS 9999 -SHRA FEW012 BKN015 FEW023CB 25/24 Q1007 RETSRA
ZJSY,2006-06-21 09:00,ZJSY 210900Z AUTO 34006KT 7SM 26/24 A2974 RMK T02600240 IEM_DS3505
ZJSY,2006-06-21 10:00,ZJSY 211000Z AUTO 33006KT 7SM 27/23 A2974 RMK T02700230 IEM_DS3505
ZJSY,2006-06-21 11:00,ZJSY 211100Z AUTO 7SM 26/23 A2974 RMK T02600230 IEM_DS3505
ZJSY,2006-06-21 12:00,ZJSY 211200Z AUTO 34006KT 7SM 26/23 A2974 RMK T02600230 IEM_DS3505
ZJSY,2006-06-21 13:00,ZJSY 211300Z AUTO 31004KT 7SM 26/23 A2977 RMK T02600230 IEM_DS3505
ZJSY,2006-06-21 14:00,ZJSY 211400Z AUTO 10004KT 7SM 27/24 A2977 RMK T02700240 IEM_DS3505
ZJSY,2006-06-21 15:00,ZJSY 211500Z AUTO 7SM 26/23 A2980 RMK T02600230 IEM_DS3505
ZJSY,2006-06-21 16:00,ZJSY 211600Z AUTO 33002KT 7SM 26/24 A2977 RMK T02600240 IEM_DS3505
ZJSY,2006-06-21 17:00,ZJSY 211700Z AUTO 00000KT 26/24 A2974 RMK T02600240 IEM_DS3505
ZJSY,2006-06-21 18:00,ZJSY 211800Z AUTO 00000MPS //// // ////// 26/24 Q1007
ZJSY,2006-06-21 19:00,ZJSY 211900Z AUTO 34002KT 26/23 A2974 RMK T02600230 IEM_DS3505
ZJSY,2006-06-21 20:00,ZJSY 212000Z AUTO 05002KT 26/24 A2974 RMK T02600240 IEM_DS3505
ZJSY,2006-06-21 21:00,ZJSY 212100Z AUTO 00000KT 25/24 A2971 RMK T02500240 IEM_DS3505
ZJSY,2006-06-21 22:00,ZJSY 212200Z AUTO 34004KT 7SM 26/23 A2974 RMK T02600230 IEM_DS3505
ZJSY,2006-06-21 23:00,ZJSY 212300Z AUTO 00000KT 7SM 26/24 A2974 RMK T02600240 IEM_DS3505
ZJSY,2006-06-22 00:00,ZJSY 220000Z AUTO 06006KT 7SM 29/25 A2977 RMK T02900250 IEM_DS3505
ZJSY,2006-06-22 01:00,ZJSY 220100Z AUTO 08006KT 7SM 31/25 A2980 RMK T03100250 IEM_DS3505
ZJSY,2006-06-22 02:00,ZJSY 220200Z AUTO 16004KT 7SM 31/25 A2980 RMK T03100250 IEM_DS3505
ZJSY,2006-06-22 03:00,ZJSY 220300Z AUTO 20006KT 7SM 31/26 A2977 RMK T03100260 IEM_DS3505
ZJSY,2006-06-22 04:00,ZJSY 220400Z AUTO 20006KT 7SM 30/25 A2977 RMK T03000250 IEM_DS3505
ZJSY,2006-06-22 05:00,ZJSY 220500Z AUTO 20006KT 7SM 30/25 A2974 RMK T03000250 IEM_DS3505
ZJSY,2006-06-22 06:00,ZJSY 220600Z AUTO 16006KT 7SM 31/26 A2974 RMK T03100260 IEM_DS3505
ZJSY,2006-06-22 07:00,ZJSY 220700Z AUTO 16008KT 7SM 31/25 A2971 RMK T03100250 IEM_DS3505
ZJSY,2006-06-22 08:00,ZJSY 220800Z AUTO 14006KT 7SM 31/25 A2971 RMK T03100250 IEM_DS3505
ZJSY,2006-06-22 09:00,ZJSY 220900Z AUTO 15006KT 7SM 31/25 A2968 RMK T03100250 IEM_DS3505
ZJSY,2006-06-22 10:00,ZJSY 221000Z AUTO 7SM 28/26 A2968 RMK T02800260 IEM_DS3505
ZJSY,2006-06-22 11:00,ZJSY 221100Z AUTO 09006KT 7SM 29/25 A2971 RMK T02900250 IEM_DS3505
ZJSY,2006-06-22 12:00,ZJSY 221200Z AUTO 08006KT 7SM 28/25 A2971 RMK T02800250 IEM_DS3505
ZJSY,2006-06-22 13:00,ZJSY 221300Z AUTO 05006KT 7SM 29/25 A2974 RMK T02900250 IEM_DS3505
ZJSY,2006-06-22 14:00,ZJSY 221400Z AUTO 05006KT 6SM 28/24 A2977 RMK T02800240 IEM_DS3505
ZJSY,2006-06-22 15:00,ZJSY 221500Z 05002MPS 9999 FEW013 28/24 Q1009 NOSIG
ZJSY,2006-06-22 16:00,ZJSY 221600Z AUTO 05004KT 7SM 28/24 A2977 RMK T02800240 IEM_DS3505
ZJSY,2006-06-22 17:00,ZJSY 221700Z 09002MPS 9999 SCT013 27/25 Q1008 NOSIG
ZJSY,2006-06-22 18:00,ZJSY 221800Z AUTO 01002KT 27/24 A2977 RMK T02700240 IEM_DS3505
ZJSY,2006-06-22 19:00,ZJSY 221900Z AUTO 36002KT 27/24 A2977 RMK T02700240 IEM_DS3505
ZJSY,2006-06-22 20:00,ZJSY 222000Z AUTO 00000KT 26/24 A2974 RMK T02600240 IEM_DS3505
ZJSY,2006-06-22 21:00,ZJSY 222100Z AUTO 05004KT 7SM 26/24 A2974 RMK T02600240 IEM_DS3505
ZJSY,2006-06-22 22:00,ZJSY 222200Z AUTO 32004KT 7SM 26/24 A2974 RMK T02600240 IEM_DS3505
ZJSY,2006-06-22 23:00,ZJSY 222300Z AUTO 35004KT 7SM 27/24 A2977 RMK T02700240 IEM_DS3505
ZJSY,2006-06-23 00:00,ZJSY 230000Z AUTO 6SM 30/24 A2977 RMK T03000240 IEM_DS3505
ZJSY,2006-06-23 01:00,ZJSY 230100Z AUTO 09006KT 7SM 30/25 A2980 RMK T03000250 IEM_DS3505
ZJSY,2006-06-23 02:00,ZJSY 230200Z AUTO 15004KT 7SM 30/25 A2980 RMK T03000250 IEM_DS3505
ZJSY,2006-06-23 03:00,ZJSY 230300Z AUTO 18006KT 7SM 31/25 A2980 RMK T03100250 IEM_DS3505
ZJSY,2006-06-23 04:00,ZJSY 230400Z AUTO 16006KT 7SM 31/25 A2980 RMK T03100250 IEM_DS3505
ZJSY,2006-06-23 05:00,ZJSY 230500Z AUTO 18008KT 7SM 31/25 A2980 RMK T03100250 IEM_DS3505
ZJSY,2006-06-23 06:00,ZJSY 230600Z AUTO 14006KT 7SM 30/25 A2977 RMK T03000250 IEM_DS3505
ZJSY,2006-06-23 07:00,ZJSY 230700Z AUTO 15004KT 7SM 30/25 A2974 RMK T03000250 IEM_DS3505
ZJSY,2006-06-23 08:00,ZJSY 230800Z AUTO 12004KT 7SM 31/25 A2971 RMK T03100250 IEM_DS3505
ZJSY,2006-06-23 09:00,ZJSY 230900Z AUTO 16008KT 7SM 30/24 A2971 RMK T03000240 IEM_DS3505
ZJSY,2006-06-23 10:00,ZJSY 231000Z AUTO 16006KT 7SM 30/25 A2971 RMK T03000250 IEM_DS3505
ZJSY,2006-06-23 11:00,ZJSY 231100Z AUTO 14004KT 7SM 30/25 A2974 RMK T03000250 IEM_DS3505
ZJSY,2006-06-23 12:00,ZJSY 231200Z AUTO 13004KT 7SM 30/25 A2974 RMK T03000250 IEM_DS3505
ZJSY,2006-06-23 13:00,ZJSY 231300Z AUTO 06006KT 7SM 29/24 A2977 RMK T02900240 IEM_DS3505
ZJSY,2006-06-23 14:00,ZJSY 231400Z AUTO 7SM 29/25 A2980 RMK T02900250 IEM_DS3505
ZJSY,2006-06-23 15:00,ZJSY 231500Z AUTO 7SM 28/25 A2980 RMK T02800250 IEM_DS3505
ZJSY,2006-06-23 16:00,ZJSY 231600Z AUTO 03002KT 7SM 28/24 A2980 RMK T02800240 IEM_DS3505
ZJSY,2006-06-23 17:00,ZJSY 231700Z AUTO 34004KT 27/24 A2980 RMK T02700240 IEM_DS3505
ZJSY,2006-06-23 18:00,ZJSY 231800Z AUTO 00000KT 27/24 A2977 RMK T02700240 IEM_DS3505
ZJSY,2006-06-23 19:00,ZJSY 231900Z AUTO 00000KT 27/24 A2977 RMK T02700240 IEM_DS3505
ZJSY,2006-06-23 20:00,ZJSY 232000Z AUTO 36002KT 26/24 A2977 RMK T02600240 IEM_DS3505
ZJSY,2006-06-23 21:00,ZJSY 232100Z AUTO 4SM 27/23 A2977 RMK T02700230 IEM_DS3505
ZJSY,2006-06-23 22:00,ZJSY 232200Z AUTO 03006KT 4SM 26/24 A2977 RMK T02600240 IEM_DS3505
ZJSY,2006-06-23 23:00,ZJSY 232300Z AUTO 35004KT 7SM 27/24 A2980 RMK T02700240 IEM_DS3505
ZJSY,2006-06-24 00:00,ZJSY 240000Z AUTO 00000KT 6SM 30/24 A2980 RMK T03000240 IEM_DS3505
ZJSY,2006-06-24 01:00,ZJSY 240100Z AUTO 07006KT 6SM 30/25 A2980 RMK T03000250 IEM_DS3505
ZJSY,2006-06-24 02:00,ZJSY 240200Z AUTO 11004KT 7SM 31/24 A2980 RMK T03100240 IEM_DS3505
ZJSY,2006-06-24 03:00,ZJSY 240300Z AUTO 16006KT 7SM 32/25 A2980 RMK T03200250 IEM_DS3505
ZJSY,2006-06-24 04:00,ZJSY 240400Z AUTO 16006KT 7SM 31/25 A2980 RMK T03100250 IEM_DS3505
ZJSY,2006-06-24 05:00,ZJSY 240500Z AUTO 16008KT 7SM 31/25 A2980 RMK T03100250 IEM_DS3505
ZJSY,2006-06-24 06:00,ZJSY 240600Z AUTO 16010KT 7SM 31/25 A2977 RMK T03100250 IEM_DS3505
ZJSY,2006-06-24 07:00,ZJSY 240700Z AUTO 15008KT 7SM 31/25 A2974 RMK T03100250 IEM_DS3505
ZJSY,2006-06-24 08:00,ZJSY 240800Z AUTO 15008KT 7SM 31/25 A2974 RMK T03100250 IEM_DS3505
ZJSY,2006-06-24 09:00,ZJSY 240900Z AUTO 15006KT 7SM 30/25 A2974 RMK T03000250 IEM_DS3505
ZJSY,2006-06-24 10:00,ZJSY 241000Z AUTO 7SM 30/25 A2971 RMK T03000250 IEM_DS3505
ZJSY,2006-06-24 11:00,ZJSY 241100Z 15002MPS 110V180 9999 SCT016 29/25 Q1007 NOSIG
ZJSY,2006-06-24 12:00,ZJSY 241200Z AUTO 15004KT 7SM 29/25 A2977 RMK T02900250 IEM_DS3505
ZJSY,2006-06-24 13:00,ZJSY 241300Z AUTO 13004KT 7SM 29/25 A2977 RMK T02900250 IEM_DS3505
ZJSY,2006-06-24 14:00,ZJSY 241400Z 06002MPS 9999 SCT016 29/25 Q1009 NOSIG
ZJSY,2006-06-24 15:00,ZJSY 241500Z AUTO 7SM 29/25 A2983 RMK T02900250 IEM_DS3505
ZJSY,2006-06-24 16:00,ZJSY 241600Z AUTO 02004KT 7SM 28/25 A2983 RMK T02800250 IEM_DS3505
ZJSY,2006-06-24 17:00,ZJSY 241700Z AUTO 05004KT 7SM 28/25 A2980 RMK T02800250 IEM_DS3505
ZJSY,2006-06-24 18:00,ZJSY 241800Z AUTO 00000KT 7SM 27/25 A2980 RMK T02700250 IEM_DS3505
ZJSY,2006-06-24 19:00,ZJSY 241900Z AUTO 04002KT 7SM 27/25 A2980 RMK T02700250 IEM_DS3505
ZJSY,2006-06-24 20:00,ZJSY 242000Z AUTO 06004KT 27/25 A2980 RMK T02700250 IEM_DS3505
ZJSY,2006-06-24 21:00,ZJSY 242100Z AUTO 7SM 27/24 A2980 RMK T02700240 IEM_DS3505
ZJSY,2006-06-24 22:00,ZJSY 242200Z AUTO 06002KT 7SM 27/24 A2980 RMK T02700240 IEM_DS3505
ZJSY,2006-06-24 23:00,ZJSY 242300Z AUTO 7SM 28/25 A2980 RMK T02800250 IEM_DS3505
ZJSY,2006-06-25 00:00,ZJSY 250000Z AUTO 07004KT 7SM 30/25 A2980 RMK T03000250 IEM_DS3505
ZJSY,2006-06-25 01:00,ZJSY 250100Z AUTO 12004KT 7SM 30/25 A2980 RMK T03000250 IEM_DS3505
ZJSY,2006-06-25 02:00,ZJSY 250200Z AUTO 12004KT 7SM 31/25 A2980 RMK T03100250 IEM_DS3505
ZJSY,2006-06-25 03:00,ZJSY 250300Z AUTO 16004KT 7SM 31/25 A2980 RMK T03100250 IEM_DS3505
ZJSY,2006-06-25 04:00,ZJSY 250400Z AUTO 18006KT 7SM 31/25 A2980 RMK T03100250 IEM_DS3505
ZJSY,2006-06-25 05:00,ZJSY 250500Z AUTO 18006KT 7SM 31/25 A2980 RMK T03100250 IEM_DS3505
ZJSY,2006-06-25 06:00,ZJSY 250600Z AUTO 17008KT 7SM 31/25 A2977 RMK T03100250 IEM_DS3505
ZJSY,2006-06-25 07:00,ZJSY 250700Z AUTO 19006KT 7SM 31/25 A2977 RMK T03100250 IEM_DS3505
ZJSY,2006-06-25 08:00,ZJSY 250800Z AUTO 17004KT 7SM 30/25 A2974 RMK T03000250 IEM_DS3505
ZJSY,2006-06-25 09:00,ZJSY 250900Z AUTO 16006KT 7SM 31/25 A2971 RMK T03100250 IEM_DS3505
ZJSY,2006-06-25 10:00,ZJSY 251000Z AUTO 16004KT 6SM 30/25 A2971 RMK T03000250 IEM_DS3505
ZJSY,2006-06-25 11:00,ZJSY 251100Z AUTO 14004KT 6SM 30/24 A2974 RMK T03000240 IEM_DS3505
ZJSY,2006-06-25 12:00,ZJSY 251200Z AUTO 14006KT 6SM 29/25 A2974 RMK T02900250 IEM_DS3505
ZJSY,2006-06-25 13:00,ZJSY 251300Z AUTO 08004KT 6SM 29/25 A2980 RMK T02900250 IEM_DS3505
ZJSY,2006-06-25 14:00,ZJSY 251400Z 03002MPS 360V060 CAVOK 29/25 Q1009 NOSIG
ZJSY,2006-06-25 15:00,ZJSY 251500Z AUTO 06006KT 6SM 29/24 A2983 RMK T02900240 IEM_DS3505
ZJSY,2006-06-25 16:00,ZJSY 251600Z AUTO 06004KT 6SM 28/24 A2980 RMK T02800240 IEM_DS3505
ZJSY,2006-06-25 17:00,ZJSY 251700Z AUTO 00000KT 6SM 27/24 A2980 RMK T02700240 IEM_DS3505
ZJSY,2006-06-25 18:00,ZJSY 251800Z AUTO 27/24 A2980 RMK T02700240 IEM_DS3505
ZJSY,2006-06-25 19:00,ZJSY 251900Z AUTO 34002KT 27/24 A2980 RMK T02700240 IEM_DS3505
ZJSY,2006-06-25 20:00,ZJSY 252000Z AUTO 27/24 A2977 RMK T02700240 IEM_DS3505
ZJSY,2006-06-25 21:00,ZJSY 252100Z AUTO 6SM 27/24 A2977 RMK T02700240 IEM_DS3505
ZJSY,2006-06-25 22:00,ZJSY 252200Z AUTO 33004KT 7SM 27/24 A2977 RMK T02700240 IEM_DS3505
ZJSY,2006-06-25 23:00,ZJSY 252300Z AUTO 01002KT 7SM 27/24 A2977 RMK T02700240 IEM_DS3505
ZJSY,2006-06-26 00:00,ZJSY 260000Z AUTO 6SM 29/25 A2977 RMK T02900250 IEM_DS3505
ZJSY,2006-06-26 01:00,ZJSY 260100Z AUTO 7SM 30/25 A2977 RMK T03000250 IEM_DS3505
ZJSY,2006-06-26 02:00,ZJSY 260200Z AUTO 7SM 31/25 A2980 RMK T03100250 IEM_DS3505
ZJSY,2006-06-26 03:00,ZJSY 260300Z AUTO 14006KT 7SM 31/25 A2980 RMK T03100250 IEM_DS3505
ZJSY,2006-06-26 04:00,ZJSY 260400Z AUTO 18006KT 7SM 31/25 A2980 RMK T03100250 IEM_DS3505
ZJSY,2006-06-26 05:00,ZJSY 260500Z AUTO 18006KT 7SM 31/25 A2977 RMK T03100250 IEM_DS3505
ZJSY,2006-06-26 06:00,ZJSY 260600Z AUTO 17006KT 7SM 31/25 A2977 RMK T03100250 IEM_DS3505
ZJSY,2006-06-26 07:00,ZJSY 260700Z AUTO 18006KT 7SM 32/25 A2974 RMK T03200250 IEM_DS3505
ZJSY,2006-06-26 08:00,ZJSY 260800Z AUTO 16006KT 7SM 31/25 A2971 RMK T03100250 IEM_DS3505
ZJSY,2006-06-26 09:00,ZJSY 260900Z AUTO 16004KT 7SM 31/25 A2971 RMK T03100250 IEM_DS3505
ZJSY,2006-06-26 10:00,ZJSY 261000Z AUTO 16004KT 7SM 30/24 A2971 RMK T03000240 IEM_DS3505
ZJSY,2006-06-26 11:00,ZJSY 261100Z AUTO 16004KT 6SM 30/24 A2971 RMK T03000240 IEM_DS3505
ZJSY,2006-06-26 12:00,ZJSY 261200Z AUTO 6SM 30/25 A2974 RMK T03000250 IEM_DS3505
ZJSY,2006-06-26 13:00,ZJSY 261300Z AUTO 6SM 29/24 A2977 RMK T02900240 IEM_DS3505
ZJSY,2006-06-26 14:00,ZJSY 261400Z 00000MPS 9999 FEW013 28/24 Q1008 NOSIG
ZJSY,2006-06-26 15:00,ZJSY 261500Z AUTO 7SM 28/24 A2977 RMK T02800240 IEM_DS3505
ZJSY,2006-06-26 16:00,ZJSY 261600Z AUTO 35002KT 7SM 27/24 A2980 RMK T02700240 IEM_DS3505
ZJSY,2006-06-26 17:00,ZJSY 261700Z AUTO 00000KT 27/24 A2977 RMK T02700240 IEM_DS3505
ZJSY,2006-06-26 18:00,ZJSY 261800Z AUTO 33004KT 27/24 A2977 RMK T02700240 IEM_DS3505
ZJSY,2006-06-26 19:00,ZJSY 261900Z AUTO 34006KT 27/24 A2974 RMK T02700240 IEM_DS3505
ZJSY,2006-06-26 20:00,ZJSY 262000Z AUTO 32004KT 26/24 A2974 RMK T02600240 IEM_DS3505
ZJSY,2006-06-26 21:00,ZJSY 262100Z AUTO 00000KT 7SM 26/23 A2974 RMK T02600230 IEM_DS3505
ZJSY,2006-06-26 22:00,ZJSY 262200Z AUTO 32004KT 7SM 26/24 A2974 RMK T02600240 IEM_DS3505
ZJSY,2006-06-26 23:00,ZJSY 262300Z AUTO 34004KT 7SM 26/24 A2974 RMK T02600240 IEM_DS3505
ZJSY,2006-06-27 00:00,ZJSY 270000Z AUTO 35004KT 6SM 29/24 A2974 RMK T02900240 IEM_DS3505
ZJSY,2006-06-27 01:00,ZJSY 270100Z AUTO 6SM 31/23 A2974 RMK T03100230 IEM_DS3505
ZJSY,2006-06-27 02:00,ZJSY 270200Z AUTO 6SM 31/23 A2974 RMK T03100230 IEM_DS3505
ZJSY,2006-06-27 03:00,ZJSY 270300Z AUTO 20008KT 6SM 31/23 A2974 RMK T03100230 IEM_DS3505
ZJSY,2006-06-27 04:00,ZJSY 270400Z 19003MPS 160V230 CAVOK 31/24 Q1006 NOSIG
ZJSY,2006-06-27 05:00,ZJSY 270500Z AUTO 22008KT 6SM 32/25 A2971 RMK T03200250 IEM_DS3505
ZJSY,2006-06-27 06:00,ZJSY 270600Z AUTO 22010KT 7SM 31/25 A2971 RMK T03100250 IEM_DS3505
ZJSY,2006-06-27 07:00,ZJSY 270700Z AUTO 21006KT 7SM 31/24 A2968 RMK T03100240 IEM_DS3505
ZJSY,2006-06-27 08:00,ZJSY 270800Z AUTO 20004KT 7SM 31/24 A2965 RMK T03100240 IEM_DS3505
ZJSY,2006-06-27 09:00,ZJSY 270900Z AUTO 19004KT 7SM 31/23 A2962 RMK T03100230 IEM_DS3505
ZJSY,2006-06-27 10:00,ZJSY 271000Z AUTO 22004KT 7SM 30/24 A2962 RMK T03000240 IEM_DS3505
ZJSY,2006-06-27 11:00,ZJSY 271100Z AUTO 22004KT 7SM 30/24 A2965 RMK T03000240 IEM_DS3505
ZJSY,2006-06-27 12:00,ZJSY 271200Z AUTO 7SM 29/24 A2968 RMK T02900240 IEM_DS3505
ZJSY,2006-06-27 13:00,ZJSY 271300Z AUTO 35004KT 7SM 29/24 A2968 RMK T02900240 IEM_DS3505
ZJSY,2006-06-27 14:00,ZJSY 271400Z AUTO 34004KT 7SM 28/24 A2971 RMK T02800240 IEM_DS3505
ZJSY,2006-06-27 15:00,ZJSY 271500Z AUTO 32002KT 7SM 28/24 A2971 RMK T02800240 IEM_DS3505
ZJSY,2006-06-27 16:00,ZJSY 271600Z AUTO 7SM 28/24 A2971 RMK T02800240 IEM_DS3505
ZJSY,2006-06-27 17:00,ZJSY 271700Z AUTO 33004KT 7SM 27/24 A2968 RMK T02700240 IEM_DS3505
ZJSY,2006-06-27 18:00,ZJSY 271800Z AUTO 33004KT 27/24 A2965 RMK T02700240 IEM_DS3505
ZJSY,2006-06-27 19:00,ZJSY 271900Z AUTO 27/24 A2965 RMK T02700240 IEM_DS3505
ZJSY,2006-06-27 20:00,ZJSY 272000Z AUTO 32004KT 27/24 A2965 RMK T02700240 IEM_DS3505
ZJSY,2006-06-27 21:00,ZJSY 272100Z AUTO 30004KT 7SM 27/24 A2965 RMK T02700240 IEM_DS3505
ZJSY,2006-06-27 22:00,ZJSY 272200Z AUTO 32004KT 7SM 28/24 A2965 RMK T02800240 IEM_DS3505
ZJSY,2006-06-27 23:00,ZJSY 272300Z AUTO 33004KT 7SM 28/25 A2968 RMK T02800250 IEM_DS3505
ZJSY,2006-06-28 00:00,ZJSY 280000Z AUTO 7SM 27/25 A2968 RMK T02700250 IEM_DS3505
ZJSY,2006-06-28 01:00,ZJSY 280100Z AUTO 00000KT 7SM 27/25 A2968 RMK T02700250 IEM_DS3505
ZJSY,2006-06-28 02:00,ZJSY 280200Z AUTO 30002KT 7SM 27/25 A2971 RMK T02700250 IEM_DS3505
ZJSY,2006-06-28 03:00,ZJSY 280300Z AUTO 28004KT 7SM 28/25 A2968 RMK T02800250 IEM_DS3505
ZJSY,2006-06-28 04:00,ZJSY 280400Z AUTO 7SM 28/25 A2965 RMK T02800250 IEM_DS3505
ZJSY,2006-06-28 05:00,ZJSY 280500Z AUTO 27004KT 7SM 29/24 A2965 RMK T02900240 IEM_DS3505
ZJSY,2006-06-28 06:00,ZJSY 280600Z AUTO 00000KT 7SM 28/25 A2965 RMK T02800250 IEM_DS3505
ZJSY,2006-06-28 07:00,ZJSY 280700Z AUTO 7SM 28/25 A2965 RMK T02800250 IEM_DS3505
ZJSY,2006-06-28 08:00,ZJSY 280800Z AUTO 32004KT 7SM 28/25 A2962 RMK T02800250 IEM_DS3505
ZJSY,2006-06-28 09:00,ZJSY 280900Z AUTO 30006KT 7SM 28/25 A2956 RMK T02800250 IEM_DS3505
ZJSY,2006-06-28 10:00,ZJSY 281000Z AUTO 7SM 28/25 A2959 RMK T02800250 IEM_DS3505
ZJSY,2006-06-28 11:00,ZJSY 281100Z AUTO 7SM 28/25 A2959 RMK T02800250 IEM_DS3505
ZJSY,2006-06-28 12:00,ZJSY 281200Z AUTO 34006KT 7SM 27/25 A2962 RMK T02700250 IEM_DS3505
ZJSY,2006-06-28 13:00,ZJSY 281300Z AUTO 00000KT 7SM 27/25 A2962 RMK T02700250 IEM_DS3505
ZJSY,2006-06-28 14:00,ZJSY 281400Z AUTO 33008KT 7SM 27/25 A2962 RMK T02700250 IEM_DS3505
ZJSY,2006-06-28 15:00,ZJSY 281500Z AUTO 35004KT 7SM 27/25 A2965 RMK T02700250 IEM_DS3505
ZJSY,2006-06-28 16:00,ZJSY 281600Z AUTO 34004KT 7SM 27/25 A2965 RMK T02700250 IEM_DS3505
ZJSY,2006-06-28 17:00,ZJSY 281700Z AUTO 7SM 27/25 A2965 RMK T02700250 IEM_DS3505
ZJSY,2006-06-28 18:00,ZJSY 281800Z AUTO 00000KT 7SM 27/25 A2962 RMK T02700250 IEM_DS3505
ZJSY,2006-06-28 19:00,ZJSY 281900Z AUTO 33006KT 7SM 26/24 A2959 RMK T02600240 IEM_DS3505
ZJSY,2006-06-28 20:00,ZJSY 282000Z AUTO 24010KT 2 1/2SM 23/22 A2962 RMK T02300220 IEM_DS3505
ZJSY,2006-06-28 21:00,ZJSY 282100Z AUTO 34006KT 7SM 25/23 A2962 RMK T02500230 IEM_DS3505
ZJSY,2006-06-28 22:00,ZJSY 282200Z VRB01MPS 9999 SCT012 FEW030CB BKN040 26/24 Q1003 NOSIG
ZJSY,2006-06-28 23:00,ZJSY 282300Z AUTO 33006KT 7SM 26/25 A2962 RMK T02600250 IEM_DS3505
ZJSY,2006-06-29 00:00,ZJSY 290000Z AUTO 34008KT 5SM 26/24 A2962 RMK T02600240 IEM_DS3505
ZJSY,2006-06-29 01:00,ZJSY 290100Z AUTO 2 1/2SM 25/23 A2968 RMK T02500230 IEM_DS3505
ZJSY,2006-06-29 02:00,ZJSY 290200Z AUTO 12004KT 2 1/2SM 24/23 A2968 RMK T02400230 IEM_DS3505
ZJSY,2006-06-29 03:00,ZJSY 290300Z AUTO 36004KT 4SM 24/23 A2968 RMK T02400230 IEM_DS3505
ZJSY,2006-06-29 04:00,ZJSY 290400Z AUTO 08004KT 7SM 25/24 A2968 RMK T02500240 IEM_DS3505
ZJSY,2006-06-29 05:00,ZJSY 290500Z AUTO 7SM 26/24 A2968 RMK T02600240 IEM_DS3505
ZJSY,2006-06-29 06:00,ZJSY 290600Z AUTO 10004KT 7SM 28/25 A2965 RMK T02800250 IEM_DS3505
ZJSY,2006-06-29 07:00,ZJSY 290700Z AUTO 07004KT 7SM 27/25 A2962 RMK T02700250 IEM_DS3505
ZJSY,2006-06-29 08:00,ZJSY 290800Z VRB01MPS 9999 SCT018 FEW030CB BKN043 28/25 Q1003 NOSIG
ZJSY,2006-06-29 09:00,ZJSY 290900Z AUTO 08004KT 7SM 28/25 A2962 RMK T02800250 IEM_DS3505
ZJSY,2006-06-29 10:00,ZJSY 291000Z AUTO 01002KT 3SM 27/25 A2962 RMK T02700250 IEM_DS3505
ZJSY,2006-06-29 11:00,ZJSY 291100Z AUTO 10004KT 7SM 27/25 A2965 RMK T02700250 IEM_DS3505
ZJSY,2006-06-29 12:00,ZJSY 291200Z AUTO 06006KT 3SM 26/25 A2965 RMK T02600250 IEM_DS3505
ZJSY,2006-06-29 13:00,ZJSY 291300Z AUTO 34002KT 7SM 26/24 A2965 RMK T02600240 IEM_DS3505
ZJSY,2006-06-29 14:00,ZJSY 291400Z AUTO 7SM 26/24 A2968 RMK T02600240 IEM_DS3505
ZJSY,2006-06-29 15:00,ZJSY 291500Z AUTO 09004KT 7SM 26/24 A2971 RMK T02600240 IEM_DS3505
ZJSY,2006-06-29 16:00,ZJSY 291600Z AUTO 07004KT 7SM 26/24 A2971 RMK T02600240 IEM_DS3505
ZJSY,2006-06-29 20:00,ZJSY 292000Z AUTO 23016G25KT 1 1/4SM 25/23 A2968 RMK T02500230 IEM_DS3505
ZJSY,2006-06-29 21:00,ZJSY 292100Z AUTO 02004KT 2SM 24/23 A2968 RMK T02400230 IEM_DS3505
ZJSY,2006-06-29 22:00,ZJSY 292200Z 34002MPS 7000 BKN012 OVC030 25/23 Q1005 RETS NOSIG
ZJSY,2006-06-29 23:00,ZJSY 292300Z AUTO 06006KT 7SM 25/24 A2971 RMK T02500240 IEM_DS3505
ZJSY,2006-06-30 00:00,ZJSY 300000Z AUTO 03004KT 7SM 25/23 A2971 RMK T02500230 IEM_DS3505
ZJSY,2006-06-30 01:00,ZJSY 300100Z AUTO 7SM 26/24 A2971 RMK T02600240 IEM_DS3505
ZJSY,2006-06-30 02:00,ZJSY 300200Z AUTO 7SM 28/25 A2971 RMK T02800250 IEM_DS3505
ZJSY,2006-06-30 03:00,ZJSY 300300Z AUTO 08006KT 7SM 28/25 A2971 RMK T02800250 IEM_DS3505
ZJSY,2006-06-30 04:00,ZJSY 300400Z AUTO 08006KT 7SM 29/25 A2971 RMK T02900250 IEM_DS3505
ZJSY,2006-06-30 05:00,ZJSY 300500Z AUTO 10004KT 7SM 31/25 A2971 RMK T03100250 IEM_DS3505
ZJSY,2006-06-30 06:00,ZJSY 300600Z 13002MPS 100V180 9999 SCT020 FEW026TCU 31/25 Q1005 NOSIG
ZJSY,2006-06-30 07:00,ZJSY 300700Z 22003MPS 190V260 9999 SCT020 FEW026TCU 29/23 Q1004 NOSIG
ZJSY,2006-06-30 08:00,ZJSY 300800Z AUTO 16006KT 7SM 28/24 A2965 RMK T02800240 IEM_DS3505
ZJSY,2006-06-30 09:00,ZJSY 300900Z AUTO 04006KT 7SM 26/25 A2965 RMK T02600250 IEM_DS3505
ZJSY,2006-06-30 10:00,ZJSY 301000Z AUTO 7SM 27/24 A2968 RMK T02700240 IEM_DS3505
ZJSY,2006-06-30 11:00,ZJSY 301100Z AUTO 10004KT 7SM 27/24 A2968 RMK T02700240 IEM_DS3505
ZJSY,2006-06-30 12:00,ZJSY 301200Z AUTO 00000KT 7SM 26/24 A2971 RMK T02600240 IEM_DS3505
ZJSY,2006-06-30 13:00,ZJSY 301300Z AUTO 06004KT 7SM 26/24 A2971 RMK T02600240 IEM_DS3505
ZJSY,2006-06-30 14:00,ZJSY 301400Z AUTO 08006KT 7SM 26/25 A2974 RMK T02600250 IEM_DS3505
ZJSY,2006-06-30 15:00,ZJSY 301500Z AUTO 07008KT 7SM 26/24 A2974 RMK T02600240 IEM_DS3505
ZJSY,2006-06-30 16:00,ZJSY 301600Z 06003MPS 9999 -RA SCT015 BKN033 26/24 Q1007 NOSIG
ZJSY,2006-06-30 17:00,ZJSY 301700Z AUTO 06004KT 26/24 A2971 RMK T02600240 IEM_DS3505
ZJSY,2006-06-30 18:00,ZJSY 301800Z AUTO 06004KT 25/24 A2971 RMK T02500240 IEM_DS3505
ZJSY,2006-06-30 19:00,ZJSY 301900Z AUTO 07003MPS //// // ////// 25/24 Q1005
ZJSY,2006-06-30 20:00,ZJSY 302000Z AUTO 08004KT 25/24 A2968 RMK T02500240 IEM_DS3505
ZJSY,2006-06-30 21:00,ZJSY 302100Z AUTO 09004KT 6SM 25/23 A2968 RMK T02500230 IEM_DS3505
ZJSY,2006-06-30 22:00,ZJSY 302200Z AUTO 07006KT 6SM 25/23 A2971 RMK T02500230 IEM_DS3505
ZJSY,2006-06-30 23:00,ZJSY 302300Z AUTO 07006KT 6SM 27/24 A2971 RMK T02700240 IEM_DS3505
ZJSY,2006-07-01 00:00,ZJSY 010000Z AUTO 07006KT 6SM 29/25 A2971 RMK T02900250 IEM_DS3505
ZJSY,2006-07-01 01:00,ZJSY 010100Z AUTO 08010KT 6SM 30/24 A2974 RMK T03000240 IEM_DS3505
ZJSY,2006-07-01 02:00,ZJSY 010200Z AUTO 08010KT 7SM 30/25 A2974 RMK T03000250 IEM_DS3505
ZJSY,2006-07-01 03:00,ZJSY 010300Z AUTO 10006KT 7SM 29/24 A2974 RMK T02900240 IEM_DS3505
ZJSY,2006-07-01 04:00,ZJSY 010400Z AUTO 13004KT 7SM 30/25 A2971 RMK T03000250 IEM_DS3505
ZJSY,2006-07-01 05:00,ZJSY 010500Z AUTO 16004KT 7SM 30/25 A2971 RMK T03000250 IEM_DS3505
ZJSY,2006-07-01 06:00,ZJSY 010600Z 09006MPS 060V130 9999 SCT020 FEW026TCU 32/24 Q1005 NOSIG
ZJSY,2006-07-01 07:00,ZJSY 010700Z 08007MPS 9999 SCT020 32/25 Q1005 NOSIG
ZJSY,2006-07-01 08:00,ZJSY 010800Z AUTO 08014KT 7SM 32/24 A2965 RMK T03200240 IEM_DS3505
ZJSY,2006-07-01 09:00,ZJSY 010900Z AUTO 09014KT 7SM 31/24 A2965 RMK T03100240 IEM_DS3505
ZJSY,2006-07-01 10:00,ZJSY 011000Z AUTO 08014KT 7SM 31/24 A2965 RMK T03100240 IEM_DS3505
ZJSY,2006-07-01 11:00,ZJSY 011100Z AUTO 08012KT 7SM 29/24 A2968 RMK T02900240 IEM_DS3505
ZJSY,2006-07-01 12:00,ZJSY 011200Z AUTO 08010KT 7SM 29/24 A2968 RMK T02900240 IEM_DS3505
ZJSY,2006-07-01 13:00,ZJSY 011300Z AUTO 07010KT 7SM 28/24 A2971 RMK T02800240 IEM_DS3505
ZJSY,2006-07-01 14:00,ZJSY 011400Z AUTO 08012KT 7SM 28/24 A2971 RMK T02800240 IEM_DS3505
ZJSY,2006-07-01 15:00,ZJSY 011500Z AUTO 09008KT 7SM 28/24 A2971 RMK T02800240 IEM_DS3505
ZJSY,2006-07-01 16:00,ZJSY 011600Z AUTO 07008KT 7SM 28/24 A2971 RMK T02800240 IEM_DS3505
ZJSY,2006-07-01 17:00,ZJSY 011700Z AUTO 08008KT 28/24 A2971 RMK T02800240 IEM_DS3505
ZJSY,2006-07-01 18:00,ZJSY 011800Z AUTO 06010KT 27/24 A2968 RMK T02700240 IEM_DS3505
ZJSY,2006-07-01 19:00,ZJSY 011900Z AUTO 06010KT 27/24 A2965 RMK T02700240 IEM_DS3505
ZJSY,2006-07-01 20:00,ZJSY 012000Z AUTO 07008KT 27/24 A2968 RMK T02700240 IEM_DS3505
ZJSY,2006-07-01 21:00,ZJSY 012100Z AUTO 06008KT 7SM 27/24 A2965 RMK T02700240 IEM_DS3505
ZJSY,2006-07-01 22:00,ZJSY 012200Z AUTO 06006KT 7SM 27/24 A2965 RMK T02700240 IEM_DS3505
ZJSY,2006-07-01 23:00,ZJSY 012300Z AUTO 08006KT 7SM 26/24 A2965 RMK T02600240 IEM_DS3505
ZJSY,2006-07-02 00:00,ZJSY 020000Z AUTO 07010KT 7SM 26/24 A2968 RMK T02600240 IEM_DS3505
ZJSY,2006-07-02 01:00,ZJSY 020100Z AUTO 05004KT 7SM 27/24 A2968 RMK T02700240 IEM_DS3505
ZJSY,2006-07-02 02:00,ZJSY 020200Z AUTO 07006KT 7SM 28/25 A2968 RMK T02800250 IEM_DS3505
ZJSY,2006-07-02 03:00,ZJSY 020300Z AUTO 07006KT 7SM 29/25 A2971 RMK T02900250 IEM_DS3505
ZJSY,2006-07-02 04:00,ZJSY 020400Z AUTO 07012KT 7SM 29/25 A2968 RMK T02900250 IEM_DS3505
ZJSY,2006-07-02 05:00,ZJSY 020500Z AUTO 06006KT 7SM 27/25 A2968 RMK T02700250 IEM_DS3505
ZJSY,2006-07-02 06:00,ZJSY 020600Z AUTO 07006KT 7SM 28/24 A2968 RMK T02800240 IEM_DS3505
ZJSY,2006-07-02 07:00,ZJSY 020700Z AUTO 07008KT 7SM 29/25 A2965 RMK T02900250 IEM_DS3505
ZJSY,2006-07-02 08:00,ZJSY 020800Z AUTO 08008KT 7SM 28/25 A2962 RMK T02800250 IEM_DS3505
ZJSY,2006-07-02 09:00,ZJSY 020900Z AUTO 08004KT 7SM 27/24 A2962 RMK T02700240 IEM_DS3505
ZJSY,2006-07-02 10:00,ZJSY 021000Z AUTO 03004KT 7SM 27/25 A2962 RMK T02700250 IEM_DS3505
ZJSY,2006-07-02 11:00,ZJSY 021100Z AUTO 06010KT 7SM 27/23 A2962 RMK T02700230 IEM_DS3505
ZJSY,2006-07-02 12:00,ZJSY 021200Z 08004MPS 9999 BKN050 27/24 Q1004 NOSIG
ZJSY,2006-07-02 13:00,ZJSY 021300Z AUTO 06006KT 7SM 27/24 A2965 RMK T02700240 IEM_DS3505
ZJSY,2006-07-02 14:00,ZJSY 021400Z AUTO 06008KT 7SM 28/24 A2968 RMK T02800240 IEM_DS3505
ZJSY,2006-07-02 15:00,ZJSY 021500Z AUTO 06008KT 7SM 27/24 A2968 RMK T02700240 IEM_DS3505
ZJSY,2006-07-02 16:00,ZJSY 021600Z 09003MPS 080V150 9999 -RA SCT013 FEW026TCU BKN040 27/24 Q1005 NOSIG
ZJSY,2006-07-02 17:00,ZJSY 021700Z AUTO 08008KT 7SM 27/24 A2965 RMK T02700240 IEM_DS3505
ZJSY,2006-07-02 18:00,ZJSY 021800Z AUTO 08006KT 7SM 27/24 A2962 RMK T02700240 IEM_DS3505
ZJSY,2006-07-02 19:00,ZJSY 021900Z AUTO 06006KT 27/24 A2962 RMK T02700240 IEM_DS3505
ZJSY,2006-07-02 20:00,ZJSY 022000Z AUTO 06004KT 27/24 A2959 RMK T02700240 IEM_DS3505
ZJSY,2006-07-02 21:00,ZJSY 022100Z AUTO 05008KT 7SM 27/23 A2959 RMK T02700230 IEM_DS3505
ZJSY,2006-07-02 22:00,ZJSY 022200Z AUTO 05008KT 7SM 27/23 A2959 RMK T02700230 IEM_DS3505
ZJSY,2006-07-02 23:00,ZJSY 022300Z AUTO 07008KT 7SM 27/23 A2962 RMK T02700230 IEM_DS3505
ZJSY,2006-07-03 00:00,ZJSY 030000Z AUTO 05006KT 7SM 26/24 A2962 RMK T02600240 IEM_DS3505
ZJSY,2006-07-03 01:00,ZJSY 030100Z AUTO 33002KT 7SM 26/24 A2962 RMK T02600240 IEM_DS3505
ZJSY,2006-07-03 02:00,ZJSY 030200Z AUTO 04004KT 7SM 27/25 A2962 RMK T02700250 IEM_DS3505
ZJSY,2006-07-03 03:00,ZJSY 030300Z AUTO 05006KT 5SM 27/24 A2962 RMK T02700240 IEM_DS3505
ZJSY,2006-07-03 04:00,ZJSY 030400Z AUTO 03006KT 5SM 27/24 A2962 RMK T02700240 IEM_DS3505
ZJSY,2006-07-03 05:00,ZJSY 030500Z AUTO 06004KT 7SM 27/25 A2959 RMK T02700250 IEM_DS3505
ZJSY,2006-07-03 06:00,ZJSY 030600Z AUTO 00000KT 7SM 27/25 A2956 RMK T02700250 IEM_DS3505
ZJSY,2006-07-03 07:00,ZJSY 030700Z AUTO 23004KT 7SM 27/25 A2956 RMK T02700250 IEM_DS3505
ZJSY,2006-07-03 08:00,ZJSY 030800Z AUTO 24006KT 7SM 28/25 A2953 RMK T02800250 IEM_DS3505
ZJSY,2006-07-03 09:00,ZJSY 030900Z AUTO 20006KT 3SM 26/25 A2953 RMK T02600250 IEM_DS3505
ZJSY,2006-07-03 10:00,ZJSY 031000Z AUTO 28006KT 7SM 26/24 A2953 RMK T02600240 IEM_DS3505
ZJSY,2006-07-03 11:00,ZJSY 031100Z AUTO 3SM 25/23 A2956 RMK T02500230 IEM_DS3505
ZJSY,2006-07-03 12:00,ZJSY 031200Z 28004MPS 250V330 5000 TSRA SCT010 BKN013 FEW026CB OVC033 25/24 Q1001 TEMPO 1500 +TSRA BKN008
ZJSY,2006-07-03 13:00,ZJSY 031300Z AUTO 27008G17KT 1 1/4SM 25/24 A2959 RMK T02500240 IEM_DS3505
ZJSY,2006-07-03 14:00,ZJSY 031400Z AUTO 05006KT 3SM 25/24 A2959 RMK T02500240 IEM_DS3505
ZJSY,2006-07-03 15:00,ZJSY 031500Z AUTO 10004KT 5SM 25/24 A2962 RMK T02500240 IEM_DS3505
ZJSY,2006-07-03 16:00,ZJSY 031600Z 00000MPS 9000 -RA SCT012 BKN014 FEW026CB BKN040 25/24 Q1003 NOSIG
ZJSY,2006-07-03 17:00,ZJSY 031700Z AUTO 21010KT 7SM 27/24 A2959 RMK T02700240 IEM_DS3505
ZJSY,2006-07-03 18:00,ZJSY 031800Z AUTO 20008KT 7SM 27/25 A2956 RMK T02700250 IEM_DS3505
ZJSY,2006-07-03 19:00,ZJSY 031900Z AUTO 19008KT 7SM 26/24 A2956 RMK T02600240 IEM_DS3505
ZJSY,2006-07-03 21:00,ZJSY 032100Z AUTO 2 1/2SM 25/24 A2959 RMK T02500240 IEM_DS3505
ZJSY,2006-07-03 22:00,ZJSY 032200Z AUTO 22010KT 2SM 25/24 A2959 RMK T02500240 IEM_DS3505
ZJSY,2006-07-03 23:00,ZJSY 032300Z AUTO 24014KT 1 1/4SM 25/24 A2962 RMK T02500240 IEM_DS3505
ZJSY,2006-07-04 00:00,ZJSY 040000Z AUTO 00000KT 5SM 24/23 A2962 RMK T02400230 IEM_DS3505
ZJSY,2006-07-04 01:00,ZJSY 040100Z AUTO 33004KT 7SM 25/23 A2962 RMK T02500230 IEM_DS3505
ZJSY,2006-07-04 02:00,ZJSY 040200Z AUTO 00000KT 7SM 26/24 A2962 RMK T02600240 IEM_DS3505
ZJSY,2006-07-04 03:00,ZJSY 040300Z AUTO 00000KT 7SM 28/25 A2962 RMK T02800250 IEM_DS3505
ZJSY,2006-07-04 04:00,ZJSY 040400Z AUTO 18010G19KT 7SM 29/25 A2962 RMK T02900250 IEM_DS3505
ZJSY,2006-07-04 05:00,ZJSY 040500Z AUTO 23010KT 7SM 28/25 A2962 RMK T02800250 IEM_DS3505
ZJSY,2006-07-04 06:00,ZJSY 040600Z AUTO 24008KT 7SM 29/25 A2962 RMK T02900250 IEM_DS3505
ZJSY,2006-07-04 07:00,ZJSY 040700Z AUTO 23006KT 7SM 29/25 A2959 RMK T02900250 IEM_DS3505
ZJSY,2006-07-04 08:00,ZJSY 040800Z AUTO 23004KT 7SM 29/24 A2959 RMK T02900240 IEM_DS3505
ZJSY,2006-07-04 09:00,ZJSY 040900Z AUTO 24004KT 7SM 29/24 A2959 RMK T02900240 IEM_DS3505
ZJSY,2006-07-04 10:00,ZJSY 041000Z AUTO 7SM 29/24 A2959 RMK T02900240 IEM_DS3505
ZJSY,2006-07-04 11:00,ZJSY 041100Z AUTO 00000KT 7SM 28/25 A2959 RMK T02800250 IEM_DS3505
ZJSY,2006-07-04 12:00,ZJSY 041200Z AUTO 00000KT 7SM 27/25 A2962 RMK T02700250 IEM_DS3505
ZJSY,2006-07-04 13:00,ZJSY 041300Z AUTO 36002KT 7SM 27/24 A2965 RMK T02700240 IEM_DS3505
ZJSY,2006-07-04 14:00,ZJSY 041400Z 35002MPS CAVOK 26/24 Q1004 NOSIG
ZJSY,2006-07-04 15:00,ZJSY 041500Z AUTO 7SM 27/25 A2968 RMK T02700250 IEM_DS3505
ZJSY,2006-07-04 16:00,ZJSY 041600Z AUTO 7SM 27/25 A2965 RMK T02700250 IEM_DS3505
ZJSY,2006-07-04 17:00,ZJSY 041700Z AUTO 00000KT 7SM 26/25 A2965 RMK T02600250 IEM_DS3505
ZJSY,2006-07-04 18:00,ZJSY 041800Z AUTO 07002KT 26/25 A2965 RMK T02600250 IEM_DS3505
ZJSY,2006-07-04 19:00,ZJSY 041900Z AUTO 27/25 A2962 RMK T02700250 IEM_DS3505
ZJSY,2006-07-04 20:00,ZJSY 042000Z AUTO 27/25 A2962 RMK T02700250 IEM_DS3505
ZJSY,2006-07-04 21:00,ZJSY 042100Z AUTO 08004KT 7SM 27/25 A2962 RMK T02700250 IEM_DS3505
ZJSY,2006-07-04 22:00,ZJSY 042200Z AUTO 08004KT 7SM 28/25 A2965 RMK T02800250 IEM_DS3505
ZJSY,2006-07-04 23:00,ZJSY 042300Z AUTO 08004KT 7SM 28/26 A2965 RMK T02800260 IEM_DS3505
ZJSY,2006-07-05 00:00,ZJSY 050000Z AUTO 7SM 29/26 A2968 RMK T02900260 IEM_DS3505
ZJSY,2006-07-05 01:00,ZJSY 050100Z AUTO 09004KT 7SM 29/26 A2968 RMK T02900260 IEM_DS3505
ZJSY,2006-07-05 02:00,ZJSY 050200Z AUTO 12004KT 7SM 30/27 A2968 RMK T03000270 IEM_DS3505
ZJSY,2006-07-05 03:00,ZJSY 050300Z AUTO 15004KT 7SM 31/27 A2968 RMK T03100270 IEM_DS3505
ZJSY,2006-07-05 04:00,ZJSY 050400Z AUTO 16004KT 7SM 31/27 A2965 RMK T03100270 IEM_DS3505
ZJSY,2006-07-05 05:00,ZJSY 050500Z AUTO 17006KT 7SM 31/27 A2962 RMK T03100270 IEM_DS3505
ZJSY,2006-07-05 06:00,ZJSY 050600Z AUTO 19006KT 7SM 31/27 A2962 RMK T03100270 IEM_DS3505
ZJSY,2006-07-05 07:00,ZJSY 050700Z AUTO 19006KT 7SM 31/27 A2959 RMK T03100270 IEM_DS3505
ZJSY,2006-07-05 08:00,ZJSY 050800Z AUTO 21006KT 7SM 31/26 A2959 RMK T03100260 IEM_DS3505
ZJSY,2006-07-05 09:00,ZJSY 050900Z AUTO 23006KT 7SM 31/26 A2959 RMK T03100260 IEM_DS3505
ZJSY,2006-07-05 10:00,ZJSY 051000Z AUTO 24006KT 6SM 31/26 A2959 RMK T03100260 IEM_DS3505
ZJSY,2006-07-05 11:00,ZJSY 051100Z 23002MPS CAVOK 30/24 Q1002 NOSIG
ZJSY,2006-07-05 12:00,ZJSY 051200Z AUTO 6SM 30/25 A2962 RMK T03000250 IEM_DS3505
ZJSY,2006-07-05 13:00,ZJSY 051300Z AUTO 34002KT 6SM 28/25 A2965 RMK T02800250 IEM_DS3505
ZJSY,2006-07-05 14:00,ZJSY 051400Z AUTO 32004KT 6SM 28/25 A2968 RMK T02800250 IEM_DS3505
ZJSY,2006-07-05 15:00,ZJSY 051500Z AUTO 00000KT 6SM 28/25 A2968 RMK T02800250 IEM_DS3505
ZJSY,2006-07-05 16:00,ZJSY 051600Z AUTO 34002KT 6SM 28/25 A2968 RMK T02800250 IEM_DS3505
ZJSY,2006-07-05 17:00,ZJSY 051700Z AUTO 00000KT 7SM 28/25 A2965 RMK T02800250 IEM_DS3505
ZJSY,2006-07-05 18:00,ZJSY 051800Z AUTO 16006KT 7SM 29/26 A2965 RMK T02900260 IEM_DS3505
ZJSY,2006-07-05 19:00,ZJSY 051900Z AUTO 16004KT 7SM 29/26 A2962 RMK T02900260 IEM_DS3505
ZJSY,2006-07-05 20:00,ZJSY 052000Z AUTO 00000KT 29/26 A2962 RMK T02900260 IEM_DS3505
ZJSY,2006-07-05 21:00,ZJSY 052100Z AUTO 34004KT 6SM 27/26 A2962 RMK T02700260 IEM_DS3505
ZJSY,2006-07-05 22:00,ZJSY 052200Z AUTO 34002KT 6SM 27/25 A2962 RMK T02700250 IEM_DS3505
ZJSY,2006-07-05 23:00,ZJSY 052300Z AUTO 6SM 28/25 A2965 RMK T02800250 IEM_DS3505
ZJSY,2006-07-06 00:00,ZJSY 060000Z AUTO 00000KT 6SM 31/26 A2965 RMK T03100260 IEM_DS3505
ZJSY,2006-07-06 01:00,ZJSY 060100Z AUTO 6SM 31/26 A2965 RMK T03100260 IEM_DS3505
ZJSY,2006-07-06 02:00,ZJSY 060200Z AUTO 22004KT 6SM 31/26 A2965 RMK T03100260 IEM_DS3505
ZJSY,2006-07-06 03:00,ZJSY 060300Z AUTO 21006KT 6SM 31/26 A2965 RMK T03100260 IEM_DS3505
ZJSY,2006-07-06 04:00,ZJSY 060400Z AUTO 24008KT 6SM 32/25 A2965 RMK T03200250 IEM_DS3505
ZJSY,2006-07-06 05:00,ZJSY 060500Z AUTO 23010KT 6SM 32/25 A2962 RMK T03200250 IEM_DS3505
ZJSY,2006-07-06 06:00,ZJSY 060600Z AUTO 25012KT 6SM 32/25 A2962 RMK T03200250 IEM_DS3505
ZJSY,2006-07-06 07:00,ZJSY 060700Z AUTO 25012KT 6SM 32/26 A2962 RMK T03200260 IEM_DS3505
ZJSY,2006-07-06 08:00,ZJSY 060800Z AUTO 25012KT 6SM 31/25 A2962 RMK T03100250 IEM_DS3505
ZJSY,2006-07-06 09:00,ZJSY 060900Z AUTO 27010KT 6SM 31/25 A2959 RMK T03100250 IEM_DS3505
ZJSY,2006-07-06 10:00,ZJSY 061000Z AUTO 27010KT 6SM 30/25 A2959 RMK T03000250 IEM_DS3505
ZJSY,2006-07-06 11:00,ZJSY 061100Z AUTO 27006KT 6SM 30/25 A2962 RMK T03000250 IEM_DS3505
ZJSY,2006-07-06 12:00,ZJSY 061200Z AUTO 6SM 29/25 A2962 RMK T02900250 IEM_DS3505
ZJSY,2006-07-06 13:00,ZJSY 061300Z AUTO 6SM 29/25 A2962 RMK T02900250 IEM_DS3505
ZJSY,2006-07-06 14:00,ZJSY 061400Z AUTO 7SM 28/25 A2965 RMK T02800250 IEM_DS3505
ZJSY,2006-07-06 15:00,ZJSY 061500Z 34002MPS 9999 FEW013 28/25 Q1005 NOSIG
ZJSY,2006-07-06 16:00,ZJSY 061600Z AUTO 34002KT 6SM 28/25 A2968 RMK T02800250 IEM_DS3505
ZJSY,2006-07-06 17:00,ZJSY 061700Z 34002MPS 9999 SCT015 28/25 Q1004 NOSIG
ZJSY,2006-07-06 18:00,ZJSY 061800Z AUTO 28/25 A2962 RMK T02800250 IEM_DS3505
ZJSY,2006-07-06 19:00,ZJSY 061900Z AUTO 34004KT 27/25 A2962 RMK T02700250 IEM_DS3505
ZJSY,2006-07-06 20:00,ZJSY 062000Z AUTO 34004KT 27/26 A2959 RMK T02700260 IEM_DS3505
ZJSY,2006-07-06 21:00,ZJSY 062100Z AUTO 32002KT 7SM 27/26 A2959 RMK T02700260 IEM_DS3505
ZJSY,2006-07-06 22:00,ZJSY 062200Z AUTO 6SM 27/25 A2959 RMK T02700250 IEM_DS3505
ZJSY,2006-07-06 23:00,ZJSY 062300Z AUTO 6SM 27/25 A2962 RMK T02700250 IEM_DS3505
ZJSY,2006-07-07 00:00,ZJSY 070000Z AUTO 00000KT 6SM 30/26 A2962 RMK T03000260 IEM_DS3505
ZJSY,2006-07-07 01:00,ZJSY 070100Z AUTO 7SM 31/26 A2962 RMK T03100260 IEM_DS3505
ZJSY,2006-07-07 02:00,ZJSY 070200Z AUTO 24006KT 7SM 31/26 A2965 RMK T03100260 IEM_DS3505
ZJSY,2006-07-07 03:00,ZJSY 070300Z AUTO 25012KT 7SM 32/26 A2965 RMK T03200260 IEM_DS3505
ZJSY,2006-07-07 04:00,ZJSY 070400Z AUTO 25014KT 7SM 31/25 A2962 RMK T03100250 IEM_DS3505
ZJSY,2006-07-07 05:00,ZJSY 070500Z AUTO 24012KT 7SM 32/25 A2962 RMK T03200250 IEM_DS3505
ZJSY,2006-07-07 06:00,ZJSY 070600Z AUTO 25010KT 7SM 31/25 A2962 RMK T03100250 IEM_DS3505
ZJSY,2006-07-07 07:00,ZJSY 070700Z AUTO 25010KT 7SM 31/25 A2959 RMK T03100250 IEM_DS3505
ZJSY,2006-07-07 08:00,ZJSY 070800Z AUTO 26010KT 7SM 30/25 A2956 RMK T03000250 IEM_DS3505
ZJSY,2006-07-07 09:00,ZJSY 070900Z AUTO 27008KT 7SM 31/25 A2956 RMK T03100250 IEM_DS3505
ZJSY,2006-07-07 10:00,ZJSY 071000Z AUTO 26010KT 6SM 31/23 A2956 RMK T03100230 IEM_DS3505
ZJSY,2006-07-07 11:00,ZJSY 071100Z AUTO 26008KT 6SM 30/23 A2956 RMK T03000230 IEM_DS3505
ZJSY,2006-07-07 12:00,ZJSY 071200Z AUTO 00000KT 6SM 30/23 A2959 RMK T03000230 IEM_DS3505
ZJSY,2006-07-07 13:00,ZJSY 071300Z AUTO 00000KT 6SM 29/24 A2962 RMK T02900240 IEM_DS3505
ZJSY,2006-07-07 14:00,ZJSY 071400Z AUTO 34004KT 6SM 28/24 A2962 RMK T02800240 IEM_DS3505
ZJSY,2006-07-07 15:00,ZJSY 071500Z AUTO 34002KT 6SM 28/24 A2965 RMK T02800240 IEM_DS3505
ZJSY,2006-07-07 16:00,ZJSY 071600Z AUTO 33004KT 6SM 27/24 A2962 RMK T02700240 IEM_DS3505
ZJSY,2006-07-07 17:00,ZJSY 071700Z AUTO 34002KT 6SM 27/25 A2962 RMK T02700250 IEM_DS3505
ZJSY,2006-07-07 18:00,ZJSY 071800Z AUTO 34006KT 6SM 27/25 A2959 RMK T02700250 IEM_DS3505
ZJSY,2006-07-07 19:00,ZJSY 071900Z AUTO 33004KT 6SM 27/25 A2959 RMK T02700250 IEM_DS3505
ZJSY,2006-07-07 20:00,ZJSY 072000Z AUTO 34004KT 6SM 27/25 A2956 RMK T02700250 IEM_DS3505
ZJSY,2006-07-07 21:00,ZJSY 072100Z AUTO 6SM 27/25 A2956 RMK T02700250 IEM_DS3505
ZJSY,2006-07-07 22:00,ZJSY 072200Z AUTO 35002KT 6SM 27/25 A2956 RMK T02700250 IEM_DS3505
ZJSY,2006-07-07 23:00,ZJSY 072300Z 00000MPS CAVOK 28/25 Q1002 NOSIG
ZJSY,2006-07-08 00:00,ZJSY 080000Z AUTO 00000KT 6SM 30/26 A2959 RMK T03000260 IEM_DS3505
ZJSY,2006-07-08 01:00,ZJSY 080100Z AUTO 25010KT 6SM 31/25 A2959 RMK T03100250 IEM_DS3505
ZJSY,2006-07-08 02:00,ZJSY 080200Z AUTO 25012KT 6SM 31/25 A2959 RMK T03100250 IEM_DS3505
ZJSY,2006-07-08 03:00,ZJSY 080300Z AUTO 24010KT 6SM 32/27 A2959 RMK T03200270 IEM_DS3505
ZJSY,2006-07-08 04:00,ZJSY 080400Z AUTO 26012KT 7SM 33/26 A2959 RMK T03300260 IEM_DS3505
ZJSY,2006-07-08 05:00,ZJSY 080500Z AUTO 24014KT 6SM 32/25 A2959 RMK T03200250 IEM_DS3505
ZJSY,2006-07-08 06:00,ZJSY 080600Z AUTO 24014KT 6SM 32/25 A2959 RMK T03200250 IEM_DS3505
ZJSY,2006-07-08 07:00,ZJSY 080700Z AUTO 25014KT 6SM 32/25 A2956 RMK T03200250 IEM_DS3505
ZJSY,2006-07-08 08:00,ZJSY 080800Z AUTO 25012KT 6SM 32/25 A2953 RMK T03200250 IEM_DS3505
ZJSY,2006-07-08 09:00,ZJSY 080900Z AUTO 26012KT 7SM 32/25 A2953 RMK T03200250 IEM_DS3505
ZJSY,2006-07-08 10:00,ZJSY 081000Z AUTO 26010KT 7SM 31/25 A2953 RMK T03100250 IEM_DS3505
ZJSY,2006-07-08 11:00,ZJSY 081100Z AUTO 26008KT 7SM 30/25 A2953 RMK T03000250 IEM_DS3505
ZJSY,2006-07-08 12:00,ZJSY 081200Z AUTO 22004KT 7SM 30/26 A2956 RMK T03000260 IEM_DS3505
ZJSY,2006-07-08 13:00,ZJSY 081300Z AUTO 00000KT 7SM 30/26 A2959 RMK T03000260 IEM_DS3505
ZJSY,2006-07-08 14:00,ZJSY 081400Z AUTO 35002KT 6SM 29/26 A2959 RMK T02900260 IEM_DS3505
ZJSY,2006-07-08 15:00,ZJSY 081500Z 33002MPS 9999 FEW020 29/25 Q1003 NOSIG
ZJSY,2006-07-08 16:00,ZJSY 081600Z AUTO 32004KT 6SM 29/25 A2962 RMK T02900250 IEM_DS3505
ZJSY,2006-07-08 17:00,ZJSY 081700Z AUTO 00000KT 6SM 29/25 A2959 RMK T02900250 IEM_DS3505
ZJSY,2006-07-08 18:00,ZJSY 081800Z AUTO 32004KT 28/25 A2956 RMK T02800250 IEM_DS3505
ZJSY,2006-07-08 19:00,ZJSY 081900Z AUTO 32002KT 28/25 A2956 RMK T02800250 IEM_DS3505
ZJSY,2006-07-08 20:00,ZJSY 082000Z AUTO 31002KT 29/25 A2956 RMK T02900250 IEM_DS3505
ZJSY,2006-07-08 21:00,ZJSY 082100Z AUTO 29002KT 7SM 29/25 A2953 RMK T02900250 IEM_DS3505
ZJSY,2006-07-08 22:00,ZJSY 082200Z AUTO 27004KT 7SM 29/25 A2956 RMK T02900250 IEM_DS3505
ZJSY,2006-07-08 23:00,ZJSY 082300Z AUTO 26004KT 7SM 30/25 A2956 RMK T03000250 IEM_DS3505
ZJSY,2006-07-09 00:00,ZJSY 090000Z AUTO 26006KT 7SM 30/26 A2956 RMK T03000260 IEM_DS3505
ZJSY,2006-07-09 01:00,ZJSY 090100Z AUTO 24008KT 7SM 30/26 A2959 RMK T03000260 IEM_DS3505
ZJSY,2006-07-09 02:00,ZJSY 090200Z AUTO 25006KT 7SM 31/26 A2959 RMK T03100260 IEM_DS3505
ZJSY,2006-07-09 03:00,ZJSY 090300Z AUTO 25008KT 7SM 32/26 A2959 RMK T03200260 IEM_DS3505
ZJSY,2006-07-09 04:00,ZJSY 090400Z AUTO 24010KT 7SM 31/26 A2959 RMK T03100260 IEM_DS3505
ZJSY,2006-07-09 05:00,ZJSY 090500Z AUTO 24010KT 7SM 32/26 A2959 RMK T03200260 IEM_DS3505
ZJSY,2006-07-09 06:00,ZJSY 090600Z AUTO 25012KT 7SM 32/26 A2956 RMK T03200260 IEM_DS3505
ZJSY,2006-07-09 07:00,ZJSY 090700Z AUTO 25012KT 7SM 32/26 A2953 RMK T03200260 IEM_DS3505
ZJSY,2006-07-09 08:00,ZJSY 090800Z AUTO 24010KT 7SM 32/25 A2953 RMK T03200250 IEM_DS3505
ZJSY,2006-07-09 09:00,ZJSY 090900Z AUTO 24008KT 7SM 31/25 A2950 RMK T03100250 IEM_DS3505
ZJSY,2006-07-09 10:00,ZJSY 091000Z AUTO 24010KT 6SM 31/25 A2950 RMK T03100250 IEM_DS3505
ZJSY,2006-07-09 11:00,ZJSY 091100Z AUTO 24006KT 6SM 31/25 A2950 RMK T03100250 IEM_DS3505
ZJSY,2006-07-09 12:00,ZJSY 091200Z AUTO 24004KT 6SM 30/25 A2953 RMK T03000250 IEM_DS3505
ZJSY,2006-07-09 13:00,ZJSY 091300Z AUTO 6SM 29/25 A2953 RMK T02900250 IEM_DS3505
ZJSY,2006-07-09 14:00,ZJSY 091400Z AUTO 00000KT 6SM 29/25 A2956 RMK T02900250 IEM_DS3505
ZJSY,2006-07-09 15:00,ZJSY 091500Z VRB01MPS CAVOK 29/26 Q1002 NOSIG
ZJSY,2006-07-09 16:00,ZJSY 091600Z AUTO 6SM 29/26 A2959 RMK T02900260 IEM_DS3505
ZJSY,2006-07-09 17:00,ZJSY 091700Z AUTO 34004KT 7SM 29/26 A2959 RMK T02900260 IEM_DS3505
ZJSY,2006-07-09 18:00,ZJSY 091800Z AUTO 33004KT 29/26 A2956 RMK T02900260 IEM_DS3505
ZJSY,2006-07-09 19:00,ZJSY 091900Z AUTO 29/26 A2956 RMK T02900260 IEM_DS3505
ZJSY,2006-07-09 20:00,ZJSY 092000Z AUTO 32002KT 29/26 A2953 RMK T02900260 IEM_DS3505
ZJSY,2006-07-09 21:00,ZJSY 092100Z AUTO 30002KT 29/26 A2956 RMK T02900260 IEM_DS3505
ZJSY,2006-07-09 22:00,ZJSY 092200Z AUTO 26006KT 7SM 29/25 A2956 RMK T02900250 IEM_DS3505
ZJSY,2006-07-09 23:00,ZJSY 092300Z AUTO 28004KT 7SM 29/25 A2956 RMK T02900250 IEM_DS3505
ZJSY,2006-07-10 00:00,ZJSY 100000Z AUTO 27004KT 7SM 30/26 A2959 RMK T03000260 IEM_DS3505
ZJSY,2006-07-10 01:00,ZJSY 100100Z AUTO 26006KT 7SM 30/25 A2959 RMK T03000250 IEM_DS3505
ZJSY,2006-07-10 02:00,ZJSY 100200Z AUTO 26008KT 7SM 32/26 A2959 RMK T03200260 IEM_DS3505
ZJSY,2006-07-10 03:00,ZJSY 100300Z AUTO 25010KT 7SM 31/25 A2959 RMK T03100250 IEM_DS3505
ZJSY,2006-07-10 04:00,ZJSY 100400Z AUTO 24010KT 7SM 31/26 A2959 RMK T03100260 IEM_DS3505
ZJSY,2006-07-10 05:00,ZJSY 100500Z AUTO 25012KT 7SM 32/26 A2959 RMK T03200260 IEM_DS3505
ZJSY,2006-07-10 06:00,ZJSY 100600Z AUTO 24010KT 7SM 32/25 A2959 RMK T03200250 IEM_DS3505
ZJSY,2006-07-10 07:00,ZJSY 100700Z AUTO 25012KT 7SM 31/25 A2956 RMK T03100250 IEM_DS3505
ZJSY,2006-07-10 08:00,ZJSY 100800Z AUTO 25010KT 7SM 32/25 A2956 RMK T03200250 IEM_DS3505
ZJSY,2006-07-10 09:00,ZJSY 100900Z AUTO 28012KT 6SM 32/24 A2953 RMK T03200240 IEM_DS3505
ZJSY,2006-07-10 10:00,ZJSY 101000Z AUTO 26010KT 6SM 32/23 A2953 RMK T03200230 IEM_DS3505
ZJSY,2006-07-10 11:00,ZJSY 101100Z AUTO 24004KT 6SM 30/24 A2956 RMK T03000240 IEM_DS3505
ZJSY,2006-07-10 12:00,ZJSY 101200Z AUTO 24004KT 6SM 30/25 A2956 RMK T03000250 IEM_DS3505
ZJSY,2006-07-10 13:00,ZJSY 101300Z AUTO 6SM 29/24 A2959 RMK T02900240 IEM_DS3505
ZJSY,2006-07-10 14:00,ZJSY 101400Z AUTO 34004KT 6SM 29/25 A2959 RMK T02900250 IEM_DS3505
ZJSY,2006-07-10 15:00,ZJSY 101500Z AUTO 35004KT 6SM 29/25 A2959 RMK T02900250 IEM_DS3505
ZJSY,2006-07-10 16:00,ZJSY 101600Z VRB01MPS CAVOK 29/25 Q1003 NOSIG
ZJSY,2006-07-10 17:00,ZJSY 101700Z AUTO 6SM 29/25 A2959 RMK T02900250 IEM_DS3505
ZJSY,2006-07-10 18:00,ZJSY 101800Z AUTO 00000KT 29/25 A2959 RMK T02900250 IEM_DS3505
ZJSY,2006-07-10 19:00,ZJSY 101900Z AUTO 34002KT 28/25 A2956 RMK T02800250 IEM_DS3505
ZJSY,2006-07-10 20:00,ZJSY 102000Z AUTO 35002KT 28/25 A2956 RMK T02800250 IEM_DS3505
ZJSY,2006-07-10 21:00,ZJSY 102100Z AUTO 35002KT 7SM 28/25 A2956 RMK T02800250 IEM_DS3505
ZJSY,2006-07-10 22:00,ZJSY 102200Z AUTO 34002KT 7SM 28/25 A2956 RMK T02800250 IEM_DS3505
ZJSY,2006-07-10 23:00,ZJSY 102300Z AUTO 7SM 28/26 A2959 RMK T02800260 IEM_DS3505
ZJSY,2006-07-11 00:00,ZJSY 110000Z 00000MPS 9999 FEW018 31/27 Q1002 NOSIG
ZJSY,2006-07-11 01:00,ZJSY 110100Z AUTO 20004KT 7SM 31/27 A2962 RMK T03100270 IEM_DS3505
ZJSY,2006-07-11 02:00,ZJSY 110200Z AUTO 23006KT 7SM 31/26 A2962 RMK T03100260 IEM_DS3505
ZJSY,2006-07-11 03:00,ZJSY 110300Z AUTO 24010KT 7SM 31/25 A2965 RMK T03100250 IEM_DS3505
ZJSY,2006-07-11 04:00,ZJSY 110400Z AUTO 24012KT 6SM 31/25 A2962 RMK T03100250 IEM_DS3505
ZJSY,2006-07-11 05:00,ZJSY 110500Z 26006MPS CAVOK 32/25 Q1003 NOSIG
ZJSY,2006-07-11 06:00,ZJSY 110600Z 26007MPS 220V280 9999 FEW018 31/24 Q1002 NOSIG
ZJSY,2006-07-11 07:00,ZJSY 110700Z 25007MPS 9999 FEW018 SCT060 31/25 Q1002 NOSIG
ZJSY,2006-07-11 08:00,ZJSY 110800Z AUTO 26014KT 7SM 31/24 A2956 RMK T03100240 IEM_DS3505
ZJSY,2006-07-11 09:00,ZJSY 110900Z AUTO 24012KT 7SM 31/25 A2956 RMK T03100250 IEM_DS3505
ZJSY,2006-07-11 10:00,ZJSY 111000Z AUTO 25010KT 7SM 30/24 A2956 RMK T03000240 IEM_DS3505
ZJSY,2006-07-11 11:00,ZJSY 111100Z AUTO 26008KT 6SM 29/24 A2956 RMK T02900240 IEM_DS3505
ZJSY,2006-07-11 12:00,ZJSY 111200Z AUTO 24004KT 6SM 29/24 A2959 RMK T02900240 IEM_DS3505
ZJSY,2006-07-11 13:00,ZJSY 111300Z AUTO 28004KT 6SM 28/24 A2959 RMK T02800240 IEM_DS3505
ZJSY,2006-07-11 14:00,ZJSY 111400Z AUTO 30004KT 6SM 28/24 A2962 RMK T02800240 IEM_DS3505
ZJSY,2006-07-11 15:00,ZJSY 111500Z AUTO 6SM 28/24 A2965 RMK T02800240 IEM_DS3505
ZJSY,2006-07-11 16:00,ZJSY 111600Z AUTO 33004KT 6SM 28/25 A2965 RMK T02800250 IEM_DS3505
ZJSY,2006-07-11 17:00,ZJSY 111700Z AUTO 33004KT 28/24 A2965 RMK T02800240 IEM_DS3505
ZJSY,2006-07-11 18:00,ZJSY 111800Z AUTO 32004KT 29/23 A2962 RMK T02900230 IEM_DS3505
ZJSY,2006-07-11 19:00,ZJSY 111900Z AUTO 29/23 A2962 RMK T02900230 IEM_DS3505
ZJSY,2006-07-11 20:00,ZJSY 112000Z AUTO 26004KT 29/24 A2959 RMK T02900240 IEM_DS3505
ZJSY,2006-07-11 21:00,ZJSY 112100Z AUTO 29004KT 29/25 A2959 RMK T02900250 IEM_DS3505
ZJSY,2006-07-11 22:00,ZJSY 112200Z AUTO 29004KT 6SM 28/25 A2959 RMK T02800250 IEM_DS3505
ZJSY,2006-07-11 23:00,ZJSY 112300Z AUTO 33002KT 6SM 28/25 A2962 RMK T02800250 IEM_DS3505
ZJSY,2006-07-12 00:00,ZJSY 120000Z AUTO 30004KT 6SM 30/25 A2962 RMK T03000250 IEM_DS3505
ZJSY,2006-07-12 01:00,ZJSY 120100Z AUTO 27004KT 6SM 30/25 A2962 RMK T03000250 IEM_DS3505
ZJSY,2006-07-12 02:00,ZJSY 120200Z AUTO 24008KT 7SM 31/26 A2962 RMK T03100260 IEM_DS3505
ZJSY,2006-07-12 03:00,ZJSY 120300Z AUTO 24010KT 7SM 31/25 A2962 RMK T03100250 IEM_DS3505
ZJSY,2006-07-12 04:00,ZJSY 120400Z AUTO 24010KT 7SM 31/25 A2959 RMK T03100250 IEM_DS3505
ZJSY,2006-07-12 05:00,ZJSY 120500Z AUTO 25012KT 7SM 32/24 A2959 RMK T03200240 IEM_DS3505
ZJSY,2006-07-12 06:00,ZJSY 120600Z AUTO 23010KT 7SM 32/25 A2959 RMK T03200250 IEM_DS3505
ZJSY,2006-07-12 07:00,ZJSY 120700Z AUTO 24010KT 7SM 32/26 A2956 RMK T03200260 IEM_DS3505
ZJSY,2006-07-12 08:00,ZJSY 120800Z AUTO 24012KT 7SM 31/24 A2956 RMK T03100240 IEM_DS3505
ZJSY,2006-07-12 09:00,ZJSY 120900Z AUTO 24012KT 7SM 31/24 A2953 RMK T03100240 IEM_DS3505
ZJSY,2006-07-12 10:00,ZJSY 121000Z AUTO 25008KT 7SM 30/24 A2953 RMK T03000240 IEM_DS3505
ZJSY,2006-07-12 11:00,ZJSY 121100Z AUTO 26006KT 6SM 30/24 A2953 RMK T03000240 IEM_DS3505
ZJSY,2006-07-12 12:00,ZJSY 121200Z AUTO 28004KT 6SM 29/24 A2956 RMK T02900240 IEM_DS3505
ZJSY,2006-07-12 13:00,ZJSY 121300Z AUTO 30004KT 6SM 29/24 A2956 RMK T02900240 IEM_DS3505
ZJSY,2006-07-12 14:00,ZJSY 121400Z AUTO 6SM 29/24 A2959 RMK T02900240 IEM_DS3505
ZJSY,2006-07-12 15:00,ZJSY 121500Z AUTO 00000KT 7SM 29/24 A2962 RMK T02900240 IEM_DS3505
ZJSY,2006-07-12 16:00,ZJSY 121600Z AUTO 7SM 28/25 A2962 RMK T02800250 IEM_DS3505
ZJSY,2006-07-12 17:00,ZJSY 121700Z AUTO 34002KT 7SM 28/24 A2959 RMK T02800240 IEM_DS3505
ZJSY,2006-07-12 18:00,ZJSY 121800Z AUTO 34004KT 27/24 A2959 RMK T02700240 IEM_DS3505
ZJSY,2006-07-12 19:00,ZJSY 121900Z AUTO 32004KT 27/24 A2956 RMK T02700240 IEM_DS3505
ZJSY,2006-07-12 20:00,ZJSY 122000Z AUTO 34004KT 27/25 A2956 RMK T02700250 IEM_DS3505
ZJSY,2006-07-12 21:00,ZJSY 122100Z AUTO 34004KT 7SM 28/25 A2956 RMK T02800250 IEM_DS3505
ZJSY,2006-07-12 22:00,ZJSY 122200Z AUTO 35004KT 7SM 27/25 A2956 RMK T02700250 IEM_DS3505
ZJSY,2006-07-12 23:00,ZJSY 122300Z AUTO 32004KT 7SM 28/25 A2956 RMK T02800250 IEM_DS3505
ZJSY,2006-07-13 00:00,ZJSY 130000Z AUTO 29006KT 7SM 30/25 A2956 RMK T03000250 IEM_DS3505
ZJSY,2006-07-13 01:00,ZJSY 130100Z 26004MPS 220V290 CAVOK 31/26 Q1001 NOSIG
ZJSY,2006-07-13 02:00,ZJSY 130200Z 26005MPS 9999 FEW020 32/26 Q1001 NOSIG
ZJSY,2006-07-13 03:00,ZJSY 130300Z AUTO 26014KT 7SM 33/25 A2956 RMK T03300250 IEM_DS3505
ZJSY,2006-07-13 04:00,ZJSY 130400Z AUTO 26016KT 7SM 33/24 A2956 RMK T03300240 IEM_DS3505
ZJSY,2006-07-13 05:00,ZJSY 130500Z AUTO 25017KT 7SM 32/25 A2956 RMK T03200250 IEM_DS3505
ZJSY,2006-07-13 06:00,ZJSY 130600Z AUTO 25016KT 7SM 32/25 A2956 RMK T03200250 IEM_DS3505
ZJSY,2006-07-13 07:00,ZJSY 130700Z AUTO 25014KT 7SM 32/25 A2953 RMK T03200250 IEM_DS3505
ZJSY,2006-07-13 08:00,ZJSY 130800Z AUTO 25012KT 7SM 32/24 A2953 RMK T03200240 IEM_DS3505
ZJSY,2006-07-13 09:00,ZJSY 130900Z 24006MPS 9999 FEW020 31/24 Q0999 NOSIG
ZJSY,2006-07-13 10:00,ZJSY 131000Z AUTO 28010KT 7SM 31/23 A2950 RMK T03100230 IEM_DS3505
ZJSY,2006-07-13 11:00,ZJSY 131100Z AUTO 28008KT 6SM 31/23 A2953 RMK T03100230 IEM_DS3505
ZJSY,2006-07-13 12:00,ZJSY 131200Z AUTO 27006KT 6SM 30/23 A2953 RMK T03000230 IEM_DS3505
ZJSY,2006-07-13 13:00,ZJSY 131300Z AUTO 27006KT 6SM 30/24 A2953 RMK T03000240 IEM_DS3505
ZJSY,2006-07-13 14:00,ZJSY 131400Z AUTO 29004KT 6SM 29/24 A2956 RMK T02900240 IEM_DS3505
ZJSY,2006-07-13 15:00,ZJSY 131500Z AUTO 00000KT 6SM 29/24 A2959 RMK T02900240 IEM_DS3505
ZJSY,2006-07-13 16:00,ZJSY 131600Z AUTO 6SM 28/24 A2959 RMK T02800240 IEM_DS3505
ZJSY,2006-07-13 17:00,ZJSY 131700Z AUTO 33004KT 6SM 28/24 A2956 RMK T02800240 IEM_DS3505
ZJSY,2006-07-13 18:00,ZJSY 131800Z AUTO 26006KT 6SM 29/24 A2953 RMK T02900240 IEM_DS3505
ZJSY,2006-07-13 19:00,ZJSY 131900Z AUTO 27006KT 29/24 A2953 RMK T02900240 IEM_DS3505
ZJSY,2006-07-13 20:00,ZJSY 132000Z AUTO 27006KT 29/26 A2950 RMK T02900260 IEM_DS3505
ZJSY,2006-07-13 21:00,ZJSY 132100Z AUTO 27004KT 7SM 29/26 A2953 RMK T02900260 IEM_DS3505
ZJSY,2006-07-13 22:00,ZJSY 132200Z AUTO 27004KT 7SM 28/26 A2950 RMK T02800260 IEM_DS3505
ZJSY,2006-07-13 23:00,ZJSY 132300Z AUTO 27004KT 7SM 29/25 A2953 RMK T02900250 IEM_DS3505
ZJSY,2006-07-14 00:00,ZJSY 140000Z AUTO 27006KT 7SM 30/26 A2953 RMK T03000260 IEM_DS3505
ZJSY,2006-07-14 01:00,ZJSY 140100Z AUTO 27010KT 7SM 31/25 A2953 RMK T03100250 IEM_DS3505
ZJSY,2006-07-14 02:00,ZJSY 140200Z AUTO 26012KT 7SM 31/25 A2953 RMK T03100250 IEM_DS3505
ZJSY,2006-07-14 03:00,ZJSY 140300Z 25007MPS 210V270 9999 FEW016 32/25 Q1000 NOSIG
ZJSY,2006-07-14 04:00,ZJSY 140400Z AUTO 25016KT 7SM 32/25 A2953 RMK T03200250 IEM_DS3505
ZJSY,2006-07-14 05:00,ZJSY 140500Z AUTO 25016KT 7SM 32/25 A2953 RMK T03200250 IEM_DS3505
ZJSY,2006-07-14 06:00,ZJSY 140600Z 25008MPS 220V280 9999 FEW018 32/26 Q0999 NOSIG
ZJSY,2006-07-14 07:00,ZJSY 140700Z AUTO 25016KT 7SM 32/25 A2950 RMK T03200250 IEM_DS3505
ZJSY,2006-07-14 08:00,ZJSY 140800Z AUTO 25014KT 7SM 32/24 A2950 RMK T03200240 IEM_DS3505
ZJSY,2006-07-14 09:00,ZJSY 140900Z AUTO 26014KT 6SM 32/24 A2947 RMK T03200240 IEM_DS3505
ZJSY,2006-07-14 10:00,ZJSY 141000Z AUTO 26012KT 6SM 31/24 A2947 RMK T03100240 IEM_DS3505
ZJSY,2006-07-14 11:00,ZJSY 141100Z AUTO 26008KT 6SM 30/24 A2947 RMK T03000240 IEM_DS3505
ZJSY,2006-07-14 12:00,ZJSY 141200Z AUTO 25006KT 6SM 30/24 A2950 RMK T03000240 IEM_DS3505
ZJSY,2006-07-14 13:00,ZJSY 141300Z 28002MPS CAVOK 29/25 Q1000 NOSIG
ZJSY,2006-07-14 14:00,ZJSY 141400Z AUTO 6SM 29/24 A2956 RMK T02900240 IEM_DS3505
ZJSY,2006-07-14 15:00,ZJSY 141500Z AUTO 00000KT 6SM 30/24 A2959 RMK T03000240 IEM_DS3505
ZJSY,2006-07-14 16:00,ZJSY 141600Z AUTO 00000KT 6SM 29/25 A2956 RMK T02900250 IEM_DS3505
ZJSY,2006-07-14 17:00,ZJSY 141700Z AUTO 6SM 28/25 A2956 RMK T02800250 IEM_DS3505
ZJSY,2006-07-14 18:00,ZJSY 141800Z AUTO 6SM 28/25 A2956 RMK T02800250 IEM_DS3505
ZJSY,2006-07-14 19:00,ZJSY 141900Z AUTO 31002KT 6SM 28/25 A2953 RMK T02800250 IEM_DS3505
ZJSY,2006-07-14 20:00,ZJSY 142000Z AUTO 30004KT 6SM 28/25 A2950 RMK T02800250 IEM_DS3505
ZJSY,2006-07-14 21:00,ZJSY 142100Z AUTO 30004KT 6SM 29/25 A2953 RMK T02900250 IEM_DS3505
ZJSY,2006-07-14 22:00,ZJSY 142200Z AUTO 25008KT 6SM 29/24 A2953 RMK T02900240 IEM_DS3505
ZJSY,2006-07-14 23:00,ZJSY 142300Z AUTO 25008KT 7SM 29/24 A2956 RMK T02900240 IEM_DS3505
ZJSY,2006-07-15 00:00,ZJSY 150000Z AUTO 26010KT 7SM 29/24 A2956 RMK T02900240 IEM_DS3505
ZJSY,2006-07-15 01:00,ZJSY 150100Z AUTO 27014KT 7SM 30/24 A2956 RMK T03000240 IEM_DS3505
ZJSY,2006-07-15 02:00,ZJSY 150200Z AUTO 26014KT 7SM 31/24 A2956 RMK T03100240 IEM_DS3505
ZJSY,2006-07-15 03:00,ZJSY 150300Z AUTO 25014KT 7SM 32/25 A2956 RMK T03200250 IEM_DS3505
ZJSY,2006-07-15 04:00,ZJSY 150400Z AUTO 25014G23KT 7SM 32/25 A2956 RMK T03200250 IEM_DS3505
ZJSY,2006-07-15 05:00,ZJSY 150500Z AUTO 23012KT 7SM 31/25 A2956 RMK T03100250 IEM_DS3505
ZJSY,2006-07-15 06:00,ZJSY 150600Z AUTO 23010KT 7SM 31/25 A2956 RMK T03100250 IEM_DS3505
ZJSY,2006-07-15 07:00,ZJSY 150700Z AUTO 23010KT 7SM 31/25 A2956 RMK T03100250 IEM_DS3505
ZJSY,2006-07-15 08:00,ZJSY 150800Z AUTO 24010KT 7SM 31/25 A2956 RMK T03100250 IEM_DS3505
ZJSY,2006-07-15 09:00,ZJSY 150900Z AUTO 27008KT 6SM 30/24 A2956 RMK T03000240 IEM_DS3505
ZJSY,2006-07-15 10:00,ZJSY 151000Z AUTO 27008KT 6SM 31/24 A2956 RMK T03100240 IEM_DS3505
ZJSY,2006-07-15 11:00,ZJSY 151100Z AUTO 23004KT 7SM 30/24 A2956 RMK T03000240 IEM_DS3505
ZJSY,2006-07-15 12:00,ZJSY 151200Z 00000MPS CAVOK 29/24 Q1002 NOSIG
ZJSY,2006-07-15 13:00,ZJSY 151300Z AUTO 6SM 29/25 A2959 RMK T02900250 IEM_DS3505
ZJSY,2006-07-15 14:00,ZJSY 151400Z AUTO 34004KT 6SM 28/25 A2959 RMK T02800250 IEM_DS3505
ZJSY,2006-07-15 15:00,ZJSY 151500Z AUTO 6SM 29/25 A2962 RMK T02900250 IEM_DS3505
ZJSY,2006-07-15 16:00,ZJSY 151600Z AUTO 34002KT 6SM 28/25 A2959 RMK T02800250 IEM_DS3505
ZJSY,2006-07-15 17:00,ZJSY 151700Z AUTO 34004KT 6SM 28/25 A2959 RMK T02800250 IEM_DS3505
ZJSY,2006-07-15 18:00,ZJSY 151800Z AUTO 33002KT 6SM 28/25 A2956 RMK T02800250 IEM_DS3505
ZJSY,2006-07-15 19:00,ZJSY 151900Z AUTO 33002KT 6SM 28/25 A2956 RMK T02800250 IEM_DS3505
ZJSY,2006-07-15 20:00,ZJSY 152000Z AUTO 34004KT 6SM 28/25 A2953 RMK T02800250 IEM_DS3505
ZJSY,2006-07-15 21:00,ZJSY 152100Z AUTO 00000KT 6SM 27/25 A2953 RMK T02700250 IEM_DS3505
ZJSY,2006-07-15 22:00,ZJSY 152200Z AUTO 28002KT 7SM 28/24 A2953 RMK T02800240 IEM_DS3505
ZJSY,2006-07-15 23:00,ZJSY 152300Z AUTO 00000KT 7SM 28/25 A2956 RMK T02800250 IEM_DS3505
ZJSY,2006-07-16 00:00,ZJSY 160000Z AUTO 7SM 30/25 A2956 RMK T03000250 IEM_DS3505
ZJSY,2006-07-16 01:00,ZJSY 160100Z AUTO 6SM 31/25 A2959 RMK T03100250 IEM_DS3505
ZJSY,2006-07-16 02:00,ZJSY 160200Z AUTO 24010KT 6SM 31/25 A2959 RMK T03100250 IEM_DS3505
ZJSY,2006-07-16 03:00,ZJSY 160300Z AUTO 23010KT 7SM 31/26 A2959 RMK T03100260 IEM_DS3505
ZJSY,2006-07-16 04:00,ZJSY 160400Z AUTO 23012KT 7SM 30/25 A2959 RMK T03000250 IEM_DS3505
ZJSY,2006-07-16 05:00,ZJSY 160500Z AUTO 24012KT 7SM 31/25 A2959 RMK T03100250 IEM_DS3505
ZJSY,2006-07-16 06:00,ZJSY 160600Z AUTO 24012KT 7SM 31/25 A2959 RMK T03100250 IEM_DS3505
ZJSY,2006-07-16 07:00,ZJSY 160700Z AUTO 24010KT 7SM 31/25 A2956 RMK T03100250 IEM_DS3505
ZJSY,2006-07-16 08:00,ZJSY 160800Z AUTO 26008KT 7SM 31/25 A2956 RMK T03100250 IEM_DS3505
ZJSY,2006-07-16 09:00,ZJSY 160900Z AUTO 27006KT 7SM 31/24 A2953 RMK T03100240 IEM_DS3505
ZJSY,2006-07-16 10:00,ZJSY 161000Z AUTO 29006KT 6SM 31/22 A2953 RMK T03100220 IEM_DS3505
ZJSY,2006-07-16 11:00,ZJSY 161100Z AUTO 23004KT 6SM 30/23 A2953 RMK T03000230 IEM_DS3505
ZJSY,2006-07-16 12:00,ZJSY 161200Z AUTO 00000KT 7SM 29/24 A2956 RMK T02900240 IEM_DS3505
ZJSY,2006-07-16 13:00,ZJSY 161300Z AUTO 7SM 28/24 A2956 RMK T02800240 IEM_DS3505
ZJSY,2006-07-16 14:00,ZJSY 161400Z AUTO 7SM 28/24 A2959 RMK T02800240 IEM_DS3505
ZJSY,2006-07-16 15:00,ZJSY 161500Z 36001MPS 9999 SCT013 28/25 Q1002 NOSIG
ZJSY,2006-07-16 16:00,ZJSY 161600Z AUTO 00000KT 7SM 28/25 A2959 RMK T02800250 IEM_DS3505
ZJSY,2006-07-16 17:00,ZJSY 161700Z AUTO 7SM 28/25 A2959 RMK T02800250 IEM_DS3505
ZJSY,2006-07-16 18:00,ZJSY 161800Z AUTO 00000KT 7SM 28/26 A2956 RMK T02800260 IEM_DS3505
ZJSY,2006-07-16 19:00,ZJSY 161900Z AUTO 00000KT 7SM 29/26 A2956 RMK T02900260 IEM_DS3505
ZJSY,2006-07-16 20:00,ZJSY 162000Z VRB01MPS 9999 FEW015 BKN053 29/26 Q1000 NOSIG
ZJSY,2006-07-16 21:00,ZJSY 162100Z AUTO 08002KT 7SM 29/26 A2953 RMK T02900260 IEM_DS3505
ZJSY,2006-07-16 22:00,ZJSY 162200Z AUTO 7SM 28/26 A2953 RMK T02800260 IEM_DS3505
ZJSY,2006-07-16 23:00,ZJSY 162300Z AUTO 34004KT 7SM 28/26 A2956 RMK T02800260 IEM_DS3505
ZJSY,2006-07-17 00:00,ZJSY 170000Z AUTO 7SM 29/26 A2956 RMK T02900260 IEM_DS3505
ZJSY,2006-07-17 01:00,ZJSY 170100Z AUTO 28006KT 7SM 30/25 A2959 RMK T03000250 IEM_DS3505
ZJSY,2006-07-17 02:00,ZJSY 170200Z AUTO 26006KT 7SM 30/25 A2962 RMK T03000250 IEM_DS3505
ZJSY,2006-07-17 03:00,ZJSY 170300Z AUTO 27008KT 7SM 31/25 A2962 RMK T03100250 IEM_DS3505
ZJSY,2006-07-17 04:00,ZJSY 170400Z AUTO 27012KT 7SM 31/25 A2962 RMK T03100250 IEM_DS3505
ZJSY,2006-07-17 05:00,ZJSY 170500Z AUTO 25012KT 7SM 31/24 A2962 RMK T03100240 IEM_DS3505
ZJSY,2006-07-17 06:00,ZJSY 170600Z AUTO 25010KT 7SM 32/24 A2959 RMK T03200240 IEM_DS3505
ZJSY,2006-07-17 07:00,ZJSY 170700Z AUTO 27014KT 7SM 32/24 A2959 RMK T03200240 IEM_DS3505
ZJSY,2006-07-17 08:00,ZJSY 170800Z AUTO 27012KT 7SM 31/24 A2959 RMK T03100240 IEM_DS3505
ZJSY,2006-07-17 09:00,ZJSY 170900Z AUTO 26008KT 7SM 30/25 A2959 RMK T03000250 IEM_DS3505
ZJSY,2006-07-17 10:00,ZJSY 171000Z AUTO 28004KT 7SM 30/25 A2959 RMK T03000250 IEM_DS3505
ZJSY,2006-07-17 11:00,ZJSY 171100Z VRB01MPS CAVOK 30/24 Q1003 NOSIG
ZJSY,2006-07-17 12:00,ZJSY 171200Z AUTO 6SM 29/24 A2962 RMK T02900240 IEM_DS3505
ZJSY,2006-07-17 13:00,ZJSY 171300Z AUTO 00000KT 6SM 28/24 A2965 RMK T02800240 IEM_DS3505
ZJSY,2006-07-17 14:00,ZJSY 171400Z AUTO 06004KT 6SM 28/24 A2968 RMK T02800240 IEM_DS3505
ZJSY,2006-07-17 15:00,ZJSY 171500Z AUTO 06004KT 7SM 28/24 A2968 RMK T02800240 IEM_DS3505
ZJSY,2006-07-17 16:00,ZJSY 171600Z AUTO 7SM 29/24 A2968 RMK T02900240 IEM_DS3505
ZJSY,2006-07-17 17:00,ZJSY 171700Z AUTO 08002KT 29/25 A2968 RMK T02900250 IEM_DS3505
ZJSY,2006-07-17 18:00,ZJSY 171800Z AUTO 08002KT 29/25 A2965 RMK T02900250 IEM_DS3505
ZJSY,2006-07-17 19:00,ZJSY 171900Z AUTO 29/25 A2965 RMK T02900250 IEM_DS3505
ZJSY,2006-07-17 20:00,ZJSY 172000Z AUTO 08002KT 29/25 A2968 RMK T02900250 IEM_DS3505
ZJSY,2006-07-17 21:00,ZJSY 172100Z 09002MPS 9999 SCT020 29/25 Q1004 NOSIG
ZJSY,2006-07-17 22:00,ZJSY 172200Z AUTO 08002KT 7SM 29/25 A2968 RMK T02900250 IEM_DS3505
ZJSY,2006-07-17 23:00,ZJSY 172300Z AUTO 00000KT 7SM 29/26 A2968 RMK T02900260 IEM_DS3505
ZJSY,2006-07-18 00:00,ZJSY 180000Z VRB01MPS 9999 SCT050 30/26 Q1006 NOSIG
ZJSY,2006-07-18 01:00,ZJSY 180100Z AUTO 7SM 30/26 A2974 RMK T03000260 IEM_DS3505
ZJSY,2006-07-18 02:00,ZJSY 180200Z AUTO 16004KT 6SM 31/25 A2974 RMK T03100250 IEM_DS3505
ZJSY,2006-07-18 03:00,ZJSY 180300Z AUTO 17004KT 6SM 32/25 A2974 RMK T03200250 IEM_DS3505
ZJSY,2006-07-18 04:00,ZJSY 180400Z AUTO 16006KT 7SM 31/25 A2974 RMK T03100250 IEM_DS3505
ZJSY,2006-07-18 05:00,ZJSY 180500Z AUTO 18006KT 7SM 30/26 A2974 RMK T03000260 IEM_DS3505
ZJSY,2006-07-18 06:00,ZJSY 180600Z AUTO 24008KT 7SM 32/24 A2971 RMK T03200240 IEM_DS3505
ZJSY,2006-07-18 07:00,ZJSY 180700Z AUTO 26012KT 7SM 31/23 A2971 RMK T03100230 IEM_DS3505
ZJSY,2006-07-18 08:00,ZJSY 180800Z AUTO 26010KT 7SM 31/23 A2971 RMK T03100230 IEM_DS3505
ZJSY,2006-07-18 09:00,ZJSY 180900Z AUTO 26006KT 6SM 30/23 A2971 RMK T03000230 IEM_DS3505
ZJSY,2006-07-18 10:00,ZJSY 181000Z AUTO 29004KT 7SM 30/22 A2971 RMK T03000220 IEM_DS3505
ZJSY,2006-07-18 11:00,ZJSY 181100Z AUTO 29002KT 7SM 29/22 A2974 RMK T02900220 IEM_DS3505
ZJSY,2006-07-18 12:00,ZJSY 181200Z AUTO 24002KT 7SM 29/22 A2974 RMK T02900220 IEM_DS3505
ZJSY,2006-07-18 13:00,ZJSY 181300Z AUTO 35002KT 7SM 27/23 A2977 RMK T02700230 IEM_DS3505
ZJSY,2006-07-18 14:00,ZJSY 181400Z AUTO 6SM 27/23 A2980 RMK T02700230 IEM_DS3505
ZJSY,2006-07-18 15:00,ZJSY 181500Z AUTO 35004KT 6SM 26/22 A2980 RMK T02600220 IEM_DS3505
ZJSY,2006-07-18 16:00,ZJSY 181600Z AUTO 34004KT 6SM 26/23 A2980 RMK T02600230 IEM_DS3505
ZJSY,2006-07-18 17:00,ZJSY 181700Z 34002MPS 330V030 9999 SCT018 27/22 Q1009 NOSIG
ZJSY,2006-07-18 18:00,ZJSY 181800Z 34002MPS 9999 BKN018 26/23 Q1008 NOSIG
ZJSY,2006-07-18 19:00,ZJSY 181900Z AUTO 33004KT 27/23 A2977 RMK T02700230 IEM_DS3505
ZJSY,2006-07-18 20:00,ZJSY 182000Z AUTO 36002KT 27/23 A2977 RMK T02700230 IEM_DS3505
ZJSY,2006-07-18 21:00,ZJSY 182100Z AUTO 34004KT 7SM 26/23 A2977 RMK T02600230 IEM_DS3505
ZJSY,2006-07-18 22:00,ZJSY 182200Z AUTO 34002KT 7SM 26/23 A2974 RMK T02600230 IEM_DS3505
ZJSY,2006-07-18 23:00,ZJSY 182300Z AUTO 34004KT 6SM 26/23 A2977 RMK T02600230 IEM_DS3505
ZJSY,2006-07-19 00:00,ZJSY 190000Z AUTO 6SM 29/24 A2977 RMK T02900240 IEM_DS3505
ZJSY,2006-07-19 01:00,ZJSY 190100Z AUTO 7SM 31/24 A2980 RMK T03100240 IEM_DS3505
ZJSY,2006-07-19 02:00,ZJSY 190200Z AUTO 7SM 32/23 A2980 RMK T03200230 IEM_DS3505
ZJSY,2006-07-19 03:00,ZJSY 190300Z AUTO 20006KT 7SM 31/24 A2980 RMK T03100240 IEM_DS3505
ZJSY,2006-07-19 04:00,ZJSY 190400Z AUTO 27008KT 7SM 31/22 A2980 RMK T03100220 IEM_DS3505
ZJSY,2006-07-19 05:00,ZJSY 190500Z AUTO 20006KT 7SM 30/25 A2977 RMK T03000250 IEM_DS3505
ZJSY,2006-07-19 06:00,ZJSY 190600Z AUTO 22010KT 7SM 31/24 A2977 RMK T03100240 IEM_DS3505
ZJSY,2006-07-19 07:00,ZJSY 190700Z 24006MPS 9999 FEW020 31/23 Q1007 NOSIG
ZJSY,2006-07-19 08:00,ZJSY 190800Z AUTO 23012KT 6SM 31/24 A2971 RMK T03100240 IEM_DS3505
ZJSY,2006-07-19 09:00,ZJSY 190900Z AUTO 24010KT 6SM 31/24 A2971 RMK T03100240 IEM_DS3505
ZJSY,2006-07-19 10:00,ZJSY 191000Z AUTO 25010KT 6SM 30/23 A2971 RMK T03000230 IEM_DS3505
ZJSY,2006-07-19 11:00,ZJSY 191100Z AUTO 24006KT 6SM 29/23 A2971 RMK T02900230 IEM_DS3505
ZJSY,2006-07-19 12:00,ZJSY 191200Z AUTO 24004KT 6SM 29/23 A2974 RMK T02900230 IEM_DS3505
ZJSY,2006-07-19 13:00,ZJSY 191300Z AUTO 00000KT 6SM 28/24 A2977 RMK T02800240 IEM_DS3505
ZJSY,2006-07-19 14:00,ZJSY 191400Z 33002MPS CAVOK 27/24 Q1008 NOSIG
ZJSY,2006-07-19 15:00,ZJSY 191500Z AUTO 32004KT 6SM 27/23 A2980 RMK T02700230 IEM_DS3505
ZJSY,2006-07-19 16:00,ZJSY 191600Z AUTO 34002KT 6SM 26/24 A2980 RMK T02600240 IEM_DS3505
ZJSY,2006-07-19 17:00,ZJSY 191700Z AUTO 02002KT 26/23 A2980 RMK T02600230 IEM_DS3505
ZJSY,2006-07-19 18:00,ZJSY 191800Z AUTO 29004KT 26/23 A2977 RMK T02600230 IEM_DS3505
ZJSY,2006-07-19 19:00,ZJSY 191900Z AUTO 33004KT 25/23 A2974 RMK T02500230 IEM_DS3505
ZJSY,2006-07-19 20:00,ZJSY 192000Z AUTO 34004KT 26/23 A2971 RMK T02600230 IEM_DS3505
ZJSY,2006-07-19 21:00,ZJSY 192100Z AUTO 31004KT 6SM 25/23 A2971 RMK T02500230 IEM_DS3505
ZJSY,2006-07-19 22:00,ZJSY 192200Z AUTO 00000KT 6SM 25/23 A2971 RMK T02500230 IEM_DS3505
ZJSY,2006-07-19 23:00,ZJSY 192300Z AUTO 34002KT 6SM 26/23 A2971 RMK T02600230 IEM_DS3505
ZJSY,2006-07-20 00:00,ZJSY 200000Z AUTO 6SM 29/24 A2974 RMK T02900240 IEM_DS3505
ZJSY,2006-07-20 01:00,ZJSY 200100Z AUTO 6SM 30/24 A2974 RMK T03000240 IEM_DS3505
ZJSY,2006-07-20 02:00,ZJSY 200200Z AUTO 17004KT 6SM 30/25 A2977 RMK T03000250 IEM_DS3505
ZJSY,2006-07-20 03:00,ZJSY 200300Z AUTO 19006KT 7SM 30/25 A2977 RMK T03000250 IEM_DS3505
ZJSY,2006-07-20 04:00,ZJSY 200400Z AUTO 20008KT 7SM 30/25 A2974 RMK T03000250 IEM_DS3505
ZJSY,2006-07-20 05:00,ZJSY 200500Z AUTO 20006KT 7SM 31/25 A2974 RMK T03100250 IEM_DS3505
ZJSY,2006-07-20 06:00,ZJSY 200600Z AUTO 18006KT 7SM 31/25 A2974 RMK T03100250 IEM_DS3505
ZJSY,2006-07-20 07:00,ZJSY 200700Z AUTO 20006KT 7SM 30/25 A2971 RMK T03000250 IEM_DS3505
ZJSY,2006-07-20 08:00,ZJSY 200800Z AUTO 22006KT 7SM 31/25 A2968 RMK T03100250 IEM_DS3505
ZJSY,2006-07-20 09:00,ZJSY 200900Z AUTO 21006KT 7SM 31/24 A2968 RMK T03100240 IEM_DS3505
ZJSY,2006-07-20 10:00,ZJSY 201000Z AUTO 22004KT 7SM 30/24 A2968 RMK T03000240 IEM_DS3505
ZJSY,2006-07-20 11:00,ZJSY 201100Z AUTO 20004KT 7SM 29/24 A2968 RMK T02900240 IEM_DS3505
ZJSY,2006-07-20 12:00,ZJSY 201200Z AUTO 00000KT 7SM 29/24 A2968 RMK T02900240 IEM_DS3505
ZJSY,2006-07-20 13:00,ZJSY 201300Z AUTO 00000KT 7SM 28/24 A2971 RMK T02800240 IEM_DS3505
ZJSY,2006-07-20 14:00,ZJSY 201400Z 33002MPS CAVOK 27/24 Q1006 NOSIG
ZJSY,2006-07-20 15:00,ZJSY 201500Z AUTO 00000KT 6SM 27/24 A2974 RMK T02700240 IEM_DS3505
ZJSY,2006-07-20 16:00,ZJSY 201600Z AUTO 01002KT 6SM 27/24 A2974 RMK T02700240 IEM_DS3505
ZJSY,2006-07-20 17:00,ZJSY 201700Z AUTO 34004KT 6SM 26/24 A2971 RMK T02600240 IEM_DS3505
ZJSY,2006-07-20 18:00,ZJSY 201800Z AUTO 32004KT 6SM 26/24 A2971 RMK T02600240 IEM_DS3505
ZJSY,2006-07-20 19:00,ZJSY 201900Z AUTO 32002KT 6SM 26/24 A2971 RMK T02600240 IEM_DS3505
ZJSY,2006-07-20 21:00,ZJSY 202100Z AUTO 35004KT 7SM 26/24 A2971 RMK T02600240 IEM_DS3505
ZJSY,2006-07-20 22:00,ZJSY 202200Z AUTO 34004KT 7SM 26/24 A2971 RMK T02600240 IEM_DS3505
ZJSY,2006-07-20 23:00,ZJSY 202300Z AUTO 34004KT 7SM 27/24 A2971 RMK T02700240 IEM_DS3505
ZJSY,2006-07-21 00:00,ZJSY 210000Z AUTO 32004KT 7SM 28/24 A2971 RMK T02800240 IEM_DS3505
ZJSY,2006-07-21 01:00,ZJSY 210100Z AUTO 28004KT 7SM 30/24 A2971 RMK T03000240 IEM_DS3505
ZJSY,2006-07-21 02:00,ZJSY 210200Z AUTO 26008KT 7SM 31/23 A2971 RMK T03100230 IEM_DS3505
ZJSY,2006-07-21 03:00,ZJSY 210300Z AUTO 23008KT 7SM 31/23 A2971 RMK T03100230 IEM_DS3505
ZJSY,2006-07-21 04:00,ZJSY 210400Z AUTO 23008KT 7SM 31/25 A2971 RMK T03100250 IEM_DS3505
ZJSY,2006-07-21 05:00,ZJSY 210500Z AUTO 23008KT 7SM 31/25 A2968 RMK T03100250 IEM_DS3505
ZJSY,2006-07-21 06:00,ZJSY 210600Z AUTO 23008KT 7SM 31/25 A2968 RMK T03100250 IEM_DS3505
ZJSY,2006-07-21 07:00,ZJSY 210700Z AUTO 21008KT 7SM 31/26 A2965 RMK T03100260 IEM_DS3505
ZJSY,2006-07-21 08:00,ZJSY 210800Z AUTO 24010KT 7SM 31/26 A2965 RMK T03100260 IEM_DS3505
ZJSY,2006-07-21 09:00,ZJSY 210900Z AUTO 24006KT 7SM 30/25 A2962 RMK T03000250 IEM_DS3505
ZJSY,2006-07-21 10:00,ZJSY 211000Z AUTO 7SM 30/25 A2965 RMK T03000250 IEM_DS3505
ZJSY,2006-07-21 11:00,ZJSY 211100Z AUTO 6SM 29/24 A2962 RMK T02900240 IEM_DS3505
ZJSY,2006-07-21 12:00,ZJSY 211200Z AUTO 6SM 28/24 A2965 RMK T02800240 IEM_DS3505
ZJSY,2006-07-21 13:00,ZJSY 211300Z VRB01MPS 9999 FEW016 28/24 Q1005 NOSIG
ZJSY,2006-07-21 14:00,ZJSY 211400Z AUTO 36002KT 7SM 27/24 A2971 RMK T02700240 IEM_DS3505
ZJSY,2006-07-21 15:00,ZJSY 211500Z AUTO 35004KT 7SM 28/24 A2974 RMK T02800240 IEM_DS3505
ZJSY,2006-07-21 16:00,ZJSY 211600Z AUTO 35004KT 7SM 27/24 A2971 RMK T02700240 IEM_DS3505
ZJSY,2006-07-21 17:00,ZJSY 211700Z AUTO 35002KT 27/24 A2971 RMK T02700240 IEM_DS3505
ZJSY,2006-07-21 18:00,ZJSY 211800Z AUTO 36002KT 27/24 A2968 RMK T02700240 IEM_DS3505
ZJSY,2006-07-21 19:00,ZJSY 211900Z AUTO 27/24 A2968 RMK T02700240 IEM_DS3505
ZJSY,2006-07-21 20:00,ZJSY 212000Z AUTO 27/24 A2968 RMK T02700240 IEM_DS3505
ZJSY,2006-07-21 21:00,ZJSY 212100Z AUTO 35002KT 7SM 27/24 A2968 RMK T02700240 IEM_DS3505
ZJSY,2006-07-21 22:00,ZJSY 212200Z AUTO 35004KT 7SM 26/24 A2968 RMK T02600240 IEM_DS3505
ZJSY,2006-07-21 23:00,ZJSY 212300Z AUTO 7SM 27/24 A2971 RMK T02700240 IEM_DS3505
ZJSY,2006-07-22 00:00,ZJSY 220000Z AUTO 7SM 29/25 A2971 RMK T02900250 IEM_DS3505
ZJSY,2006-07-22 01:00,ZJSY 220100Z AUTO 7SM 30/25 A2971 RMK T03000250 IEM_DS3505
ZJSY,2006-07-22 02:00,ZJSY 220200Z AUTO 26008KT 7SM 32/23 A2971 RMK T03200230 IEM_DS3505
ZJSY,2006-07-22 03:00,ZJSY 220300Z 22003MPS 9999 FEW020 31/24 Q1006 NOSIG
ZJSY,2006-07-22 04:00,ZJSY 220400Z AUTO 22008KT 7SM 32/23 A2968 RMK T03200230 IEM_DS3505
ZJSY,2006-07-22 05:00,ZJSY 220500Z AUTO 22010KT 6SM 31/25 A2965 RMK T03100250 IEM_DS3505
ZJSY,2006-07-22 06:00,ZJSY 220600Z AUTO 22010KT 6SM 31/26 A2965 RMK T03100260 IEM_DS3505
ZJSY,2006-07-22 07:00,ZJSY 220700Z AUTO 22010KT 6SM 31/25 A2962 RMK T03100250 IEM_DS3505
ZJSY,2006-07-22 08:00,ZJSY 220800Z AUTO 24010KT 7SM 31/26 A2962 RMK T03100260 IEM_DS3505
ZJSY,2006-07-22 09:00,ZJSY 220900Z AUTO 24010KT 7SM 30/25 A2959 RMK T03000250 IEM_DS3505
ZJSY,2006-07-22 10:00,ZJSY 221000Z AUTO 01006KT 7SM 29/23 A2962 RMK T02900230 IEM_DS3505
ZJSY,2006-07-22 11:00,ZJSY 221100Z AUTO 7SM 28/24 A2962 RMK T02800240 IEM_DS3505
ZJSY,2006-07-22 12:00,ZJSY 221200Z AUTO 7SM 28/24 A2962 RMK T02800240 IEM_DS3505
ZJSY,2006-07-22 13:00,ZJSY 221300Z AUTO 7SM 27/24 A2965 RMK T02700240 IEM_DS3505
ZJSY,2006-07-22 14:00,ZJSY 221400Z AUTO 7SM 27/24 A2968 RMK T02700240 IEM_DS3505
ZJSY,2006-07-22 15:00,ZJSY 221500Z AUTO 34002KT 7SM 27/24 A2971 RMK T02700240 IEM_DS3505
ZJSY,2006-07-22 16:00,ZJSY 221600Z AUTO 7SM 27/24 A2971 RMK T02700240 IEM_DS3505
ZJSY,2006-07-22 17:00,ZJSY 221700Z AUTO 7SM 27/24 A2968 RMK T02700240 IEM_DS3505
ZJSY,2006-07-22 18:00,ZJSY 221800Z AUTO 35002KT 7SM 27/24 A2965 RMK T02700240 IEM_DS3505
ZJSY,2006-07-22 19:00,ZJSY 221900Z AUTO 33002KT 7SM 27/24 A2965 RMK T02700240 IEM_DS3505
ZJSY,2006-07-22 20:00,ZJSY 222000Z AUTO 00000KT 7SM 27/24 A2965 RMK T02700240 IEM_DS3505
ZJSY,2006-07-22 21:00,ZJSY 222100Z AUTO 35002KT 7SM 27/24 A2965 RMK T02700240 IEM_DS3505
ZJSY,2006-07-22 22:00,ZJSY 222200Z AUTO 32002KT 7SM 26/24 A2965 RMK T02600240 IEM_DS3505
ZJSY,2006-07-22 23:00,ZJSY 222300Z AUTO 00000KT 7SM 27/24 A2965 RMK T02700240 IEM_DS3505
ZJSY,2006-07-23 00:00,ZJSY 230000Z AUTO 00000KT 6SM 29/24 A2965 RMK T02900240 IEM_DS3505
ZJSY,2006-07-23 01:00,ZJSY 230100Z AUTO 22004KT 6SM 30/25 A2968 RMK T03000250 IEM_DS3505
ZJSY,2006-07-23 02:00,ZJSY 230200Z AUTO 22006KT 6SM 30/24 A2968 RMK T03000240 IEM_DS3505
ZJSY,2006-07-23 03:00,ZJSY 230300Z AUTO 23010KT 7SM 31/24 A2968 RMK T03100240 IEM_DS3505
ZJSY,2006-07-23 04:00,ZJSY 230400Z AUTO 22010KT 7SM 32/25 A2968 RMK T03200250 IEM_DS3505
ZJSY,2006-07-23 05:00,ZJSY 230500Z AUTO 24012KT 7SM 32/25 A2965 RMK T03200250 IEM_DS3505
ZJSY,2006-07-23 06:00,ZJSY 230600Z AUTO 24012KT 7SM 32/26 A2965 RMK T03200260 IEM_DS3505
ZJSY,2006-07-23 07:00,ZJSY 230700Z AUTO 25012KT 7SM 32/26 A2962 RMK T03200260 IEM_DS3505
ZJSY,2006-07-23 08:00,ZJSY 230800Z AUTO 25010KT 7SM 32/26 A2962 RMK T03200260 IEM_DS3505
ZJSY,2006-07-23 09:00,ZJSY 230900Z AUTO 26008KT 7SM 30/25 A2962 RMK T03000250 IEM_DS3505
ZJSY,2006-07-23 10:00,ZJSY 231000Z 34001MPS 9999 SCT017 FEW021CB 30/24 Q1003 NOSIG
ZJSY,2006-07-23 11:00,ZJSY 231100Z AUTO 7SM 30/24 A2962 RMK T03000240 IEM_DS3505
ZJSY,2006-07-23 12:00,ZJSY 231200Z AUTO 35004KT 7SM 29/24 A2965 RMK T02900240 IEM_DS3505
ZJSY,2006-07-23 13:00,ZJSY 231300Z AUTO 34002KT 7SM 28/24 A2965 RMK T02800240 IEM_DS3505
ZJSY,2006-07-23 14:00,ZJSY 231400Z AUTO 32002KT 6SM 28/24 A2968 RMK T02800240 IEM_DS3505
ZJSY,2006-07-23 15:00,ZJSY 231500Z AUTO 6SM 28/24 A2971 RMK T02800240 IEM_DS3505
ZJSY,2006-07-23 16:00,ZJSY 231600Z AUTO 00000KT 6SM 27/24 A2971 RMK T02700240 IEM_DS3505
ZJSY,2006-07-23 17:00,ZJSY 231700Z AUTO 34002KT 6SM 27/24 A2968 RMK T02700240 IEM_DS3505
ZJSY,2006-07-23 18:00,ZJSY 231800Z 00000MPS CAVOK 27/24 Q1005 NOSIG
ZJSY,2006-07-23 19:00,ZJSY 231900Z AUTO 34004KT 6SM 27/24 A2965 RMK T02700240 IEM_DS3505
ZJSY,2006-07-23 20:00,ZJSY 232000Z AUTO 31004KT 7SM 27/25 A2965 RMK T02700250 IEM_DS3505
ZJSY,2006-07-23 21:00,ZJSY 232100Z AUTO 00000KT 7SM 27/25 A2965 RMK T02700250 IEM_DS3505
ZJSY,2006-07-23 22:00,ZJSY 232200Z AUTO 00000KT 7SM 27/25 A2965 RMK T02700250 IEM_DS3505
ZJSY,2006-07-23 23:00,ZJSY 232300Z 00000MPS 9999 SCT016 27/25 Q1005 NOSIG
ZJSY,2006-07-24 00:00,ZJSY 240000Z AUTO 6SM 29/25 A2968 RMK T02900250 IEM_DS3505
ZJSY,2006-07-24 01:00,ZJSY 240100Z AUTO 7SM 30/26 A2968 RMK T03000260 IEM_DS3505
ZJSY,2006-07-24 02:00,ZJSY 240200Z AUTO 29006KT 6SM 32/24 A2965 RMK T03200240 IEM_DS3505
ZJSY,2006-07-24 03:00,ZJSY 240300Z AUTO 22008KT 6SM 32/26 A2968 RMK T03200260 IEM_DS3505
ZJSY,2006-07-24 04:00,ZJSY 240400Z AUTO 25012KT 6SM 32/24 A2968 RMK T03200240 IEM_DS3505
ZJSY,2006-07-24 05:00,ZJSY 240500Z AUTO 24010KT 7SM 32/26 A2965 RMK T03200260 IEM_DS3505
ZJSY,2006-07-24 06:00,ZJSY 240600Z AUTO 24010KT 7SM 32/26 A2962 RMK T03200260 IEM_DS3505
ZJSY,2006-07-24 07:00,ZJSY 240700Z AUTO 24010KT 7SM 31/26 A2962 RMK T03100260 IEM_DS3505
ZJSY,2006-07-24 08:00,ZJSY 240800Z 24004MPS 9999 FEW011 FEW033CB 31/26 Q1002 NOSIG
ZJSY,2006-07-24 09:00,ZJSY 240900Z AUTO 24006KT 7SM 30/26 A2959 RMK T03000260 IEM_DS3505
ZJSY,2006-07-24 10:00,ZJSY 241000Z AUTO 24006KT 7SM 30/26 A2959 RMK T03000260 IEM_DS3505
ZJSY,2006-07-24 11:00,ZJSY 241100Z AUTO 25004KT 7SM 30/25 A2959 RMK T03000250 IEM_DS3505
ZJSY,2006-07-24 12:00,ZJSY 241200Z AUTO 22002KT 7SM 29/25 A2962 RMK T02900250 IEM_DS3505
ZJSY,2006-07-24 13:00,ZJSY 241300Z AUTO 26002KT 7SM 28/26 A2965 RMK T02800260 IEM_DS3505
ZJSY,2006-07-24 14:00,ZJSY 241400Z AUTO 21002KT 7SM 29/26 A2968 RMK T02900260 IEM_DS3505
ZJSY,2006-07-24 15:00,ZJSY 241500Z AUTO 6SM 28/26 A2968 RMK T02800260 IEM_DS3505
ZJSY,2006-07-24 16:00,ZJSY 241600Z AUTO 34002KT 6SM 28/25 A2968 RMK T02800250 IEM_DS3505
ZJSY,2006-07-24 17:00,ZJSY 241700Z AUTO 36002KT 6SM 27/25 A2968 RMK T02700250 IEM_DS3505
ZJSY,2006-07-24 18:00,ZJSY 241800Z 34001MPS CAVOK 27/25 Q1004 NOSIG
ZJSY,2006-07-24 19:00,ZJSY 241900Z 30001MPS CAVOK 27/25 Q1004 NOSIG
ZJSY,2006-07-24 20:00,ZJSY 242000Z AUTO 32002KT 6SM 27/25 A2962 RMK T02700250 IEM_DS3505
ZJSY,2006-07-24 21:00,ZJSY 242100Z AUTO 32004KT 6SM 27/25 A2962 RMK T02700250 IEM_DS3505
ZJSY,2006-07-24 22:00,ZJSY 242200Z AUTO 32002KT 6SM 27/25 A2962 RMK T02700250 IEM_DS3505
ZJSY,2006-07-24 23:00,ZJSY 242300Z AUTO 31004KT 6SM 27/25 A2962 RMK T02700250 IEM_DS3505
ZJSY,2006-07-25 00:00,ZJSY 250000Z AUTO 6SM 30/25 A2965 RMK T03000250 IEM_DS3505
ZJSY,2006-07-25 01:00,ZJSY 250100Z AUTO 28006KT 6SM 31/25 A2965 RMK T03100250 IEM_DS3505
ZJSY,2006-07-25 02:00,ZJSY 250200Z AUTO 24008KT 7SM 31/25 A2965 RMK T03100250 IEM_DS3505
ZJSY,2006-07-25 03:00,ZJSY 250300Z AUTO 23008KT 7SM 31/26 A2965 RMK T03100260 IEM_DS3505
ZJSY,2006-07-25 04:00,ZJSY 250400Z AUTO 23010KT 7SM 32/26 A2965 RMK T03200260 IEM_DS3505
ZJSY,2006-07-25 05:00,ZJSY 250500Z AUTO 23010KT 7SM 31/26 A2965 RMK T03100260 IEM_DS3505
ZJSY,2006-07-25 06:00,ZJSY 250600Z AUTO 22012KT 7SM 31/26 A2962 RMK T03100260 IEM_DS3505
ZJSY,2006-07-25 07:00,ZJSY 250700Z AUTO 24012KT 7SM 31/25 A2959 RMK T03100250 IEM_DS3505
ZJSY,2006-07-25 08:00,ZJSY 250800Z AUTO 25010KT 7SM 31/27 A2956 RMK T03100270 IEM_DS3505
ZJSY,2006-07-25 09:00,ZJSY 250900Z AUTO 25008KT 7SM 30/27 A2956 RMK T03000270 IEM_DS3505
ZJSY,2006-07-25 10:00,ZJSY 251000Z AUTO 26010KT 6SM 29/24 A2959 RMK T02900240 IEM_DS3505
ZJSY,2006-07-25 11:00,ZJSY 251100Z AUTO 6SM 29/25 A2959 RMK T02900250 IEM_DS3505
ZJSY,2006-07-25 12:00,ZJSY 251200Z AUTO 28004KT 7SM 29/24 A2962 RMK T02900240 IEM_DS3505
ZJSY,2006-07-25 13:00,ZJSY 251300Z AUTO 7SM 29/24 A2962 RMK T02900240 IEM_DS3505
ZJSY,2006-07-25 14:00,ZJSY 251400Z AUTO 28004KT 7SM 29/25 A2965 RMK T02900250 IEM_DS3505
ZJSY,2006-07-25 15:00,ZJSY 251500Z AUTO 7SM 29/25 A2965 RMK T02900250 IEM_DS3505
ZJSY,2006-07-25 16:00,ZJSY 251600Z 29002MPS 270V340 9999 FEW018 29/25 Q1004 NOSIG
ZJSY,2006-07-25 17:00,ZJSY 251700Z AUTO 30004KT 28/24 A2965 RMK T02800240 IEM_DS3505
ZJSY,2006-07-25 18:00,ZJSY 251800Z AUTO 00000KT 28/25 A2965 RMK T02800250 IEM_DS3505
ZJSY,2006-07-25 19:00,ZJSY 251900Z AUTO 27004KT 29/25 A2962 RMK T02900250 IEM_DS3505
ZJSY,2006-07-25 20:00,ZJSY 252000Z AUTO 29004KT 29/25 A2962 RMK T02900250 IEM_DS3505
ZJSY,2006-07-25 21:00,ZJSY 252100Z AUTO 27008KT 7SM 28/25 A2962 RMK T02800250 IEM_DS3505
ZJSY,2006-07-25 22:00,ZJSY 252200Z AUTO 26008KT 7SM 28/25 A2962 RMK T02800250 IEM_DS3505
ZJSY,2006-07-25 23:00,ZJSY 252300Z AUTO 28006KT 7SM 29/25 A2965 RMK T02900250 IEM_DS3505
ZJSY,2006-07-26 00:00,ZJSY 260000Z AUTO 26010KT 7SM 30/25 A2965 RMK T03000250 IEM_DS3505
ZJSY,2006-07-26 01:00,ZJSY 260100Z AUTO 26010KT 7SM 30/25 A2965 RMK T03000250 IEM_DS3505
ZJSY,2006-07-26 02:00,ZJSY 260200Z 26007MPS 230V290 9999 FEW018 32/25 Q1005 NOSIG
ZJSY,2006-07-26 03:00,ZJSY 260300Z AUTO 25008KT 7SM 31/25 A2968 RMK T03100250 IEM_DS3505
ZJSY,2006-07-26 04:00,ZJSY 260400Z 24006MPS 9999 SCT018 31/24 Q1004 NOSIG
ZJSY,2006-07-26 05:00,ZJSY 260500Z AUTO 25014KT 7SM 31/24 A2965 RMK T03100240 IEM_DS3505
ZJSY,2006-07-26 06:00,ZJSY 260600Z AUTO 25014KT 7SM 32/25 A2965 RMK T03200250 IEM_DS3505
ZJSY,2006-07-26 07:00,ZJSY 260700Z AUTO 24012KT 7SM 31/25 A2962 RMK T03100250 IEM_DS3505
ZJSY,2006-07-26 08:00,ZJSY 260800Z AUTO 24010KT 7SM 30/25 A2962 RMK T03000250 IEM_DS3505
ZJSY,2006-07-26 09:00,ZJSY 260900Z AUTO 25008KT 7SM 30/24 A2959 RMK T03000240 IEM_DS3505
ZJSY,2006-07-26 10:00,ZJSY 261000Z AUTO 26008KT 7SM 30/24 A2959 RMK T03000240 IEM_DS3505
ZJSY,2006-07-26 11:00,ZJSY 261100Z AUTO 24006KT 7SM 29/24 A2962 RMK T02900240 IEM_DS3505
ZJSY,2006-07-26 12:00,ZJSY 261200Z AUTO 24004KT 7SM 28/25 A2962 RMK T02800250 IEM_DS3505
ZJSY,2006-07-26 13:00,ZJSY 261300Z AUTO 24004KT 7SM 28/25 A2965 RMK T02800250 IEM_DS3505
ZJSY,2006-07-26 14:00,ZJSY 261400Z AUTO 7SM 28/25 A2965 RMK T02800250 IEM_DS3505
ZJSY,2006-07-26 15:00,ZJSY 261500Z AUTO 26006KT 7SM 28/24 A2968 RMK T02800240 IEM_DS3505
ZJSY,2006-07-26 16:00,ZJSY 261600Z AUTO 26006KT 7SM 28/24 A2965 RMK T02800240 IEM_DS3505
ZJSY,2006-07-26 17:00,ZJSY 261700Z AUTO 27004KT 7SM 28/24 A2965 RMK T02800240 IEM_DS3505
ZJSY,2006-07-26 18:00,ZJSY 261800Z AUTO 26004KT 7SM 28/24 A2962 RMK T02800240 IEM_DS3505
ZJSY,2006-07-26 19:00,ZJSY 261900Z AUTO 26006KT 7SM 28/24 A2962 RMK T02800240 IEM_DS3505
ZJSY,2006-07-26 20:00,ZJSY 262000Z AUTO 27006KT 28/24 A2962 RMK T02800240 IEM_DS3505
ZJSY,2006-07-26 21:00,ZJSY 262100Z AUTO 25004KT 7SM 28/24 A2962 RMK T02800240 IEM_DS3505
ZJSY,2006-07-26 22:00,ZJSY 262200Z AUTO 25004KT 7SM 28/24 A2959 RMK T02800240 IEM_DS3505
ZJSY,2006-07-26 23:00,ZJSY 262300Z AUTO 27002KT 7SM 28/25 A2962 RMK T02800250 IEM_DS3505
ZJSY,2006-07-27 00:00,ZJSY 270000Z AUTO 7SM 28/25 A2962 RMK T02800250 IEM_DS3505
ZJSY,2006-07-27 01:00,ZJSY 270100Z AUTO 26008KT 7SM 29/24 A2962 RMK T02900240 IEM_DS3505
ZJSY,2006-07-27 02:00,ZJSY 270200Z AUTO 26012KT 7SM 30/25 A2962 RMK T03000250 IEM_DS3505
ZJSY,2006-07-27 03:00,ZJSY 270300Z AUTO 25012KT 7SM 29/24 A2962 RMK T02900240 IEM_DS3505
ZJSY,2006-07-27 04:00,ZJSY 270400Z AUTO 25008KT 7SM 29/24 A2962 RMK T02900240 IEM_DS3505
ZJSY,2006-07-27 05:00,ZJSY 270500Z AUTO 25012KT 7SM 30/24 A2959 RMK T03000240 IEM_DS3505
ZJSY,2006-07-27 06:00,ZJSY 270600Z AUTO 24012KT 7SM 30/24 A2956 RMK T03000240 IEM_DS3505
ZJSY,2006-07-27 07:00,ZJSY 270700Z AUTO 25012KT 7SM 30/24 A2956 RMK T03000240 IEM_DS3505
ZJSY,2006-07-27 08:00,ZJSY 270800Z 25006MPS 220V280 9999 SCT016 FEW020TCU 29/23 Q1001 NOSIG
ZJSY,2006-07-27 09:00,ZJSY 270900Z AUTO 26012KT 7SM 29/23 A2953 RMK T02900230 IEM_DS3505
ZJSY,2006-07-27 10:00,ZJSY 271000Z AUTO 27006KT 7SM 29/24 A2953 RMK T02900240 IEM_DS3505
ZJSY,2006-07-27 11:00,ZJSY 271100Z AUTO 27006KT 7SM 29/24 A2953 RMK T02900240 IEM_DS3505
ZJSY,2006-07-27 12:00,ZJSY 271200Z AUTO 28006KT 7SM 28/24 A2956 RMK T02800240 IEM_DS3505
ZJSY,2006-07-27 13:00,ZJSY 271300Z AUTO 7SM 28/24 A2956 RMK T02800240 IEM_DS3505
ZJSY,2006-07-27 14:00,ZJSY 271400Z AUTO 00000KT 7SM 28/24 A2959 RMK T02800240 IEM_DS3505
ZJSY,2006-07-27 15:00,ZJSY 271500Z AUTO 00000KT 7SM 27/24 A2959 RMK T02700240 IEM_DS3505
ZJSY,2006-07-27 16:00,ZJSY 271600Z AUTO 7SM 27/24 A2959 RMK T02700240 IEM_DS3505
ZJSY,2006-07-27 17:00,ZJSY 271700Z AUTO 00000KT 7SM 27/24 A2959 RMK T02700240 IEM_DS3505
ZJSY,2006-07-27 18:00,ZJSY 271800Z AUTO 25002KT 27/24 A2956 RMK T02700240 IEM_DS3505
ZJSY,2006-07-27 19:00,ZJSY 271900Z AUTO 24004KT 27/24 A2956 RMK T02700240 IEM_DS3505
ZJSY,2006-07-27 20:00,ZJSY 272000Z AUTO 27002KT 27/24 A2953 RMK T02700240 IEM_DS3505
ZJSY,2006-07-27 21:00,ZJSY 272100Z AUTO 27004KT 7SM 27/24 A2956 RMK T02700240 IEM_DS3505
ZJSY,2006-07-27 22:00,ZJSY 272200Z AUTO 7SM 27/24 A2956 RMK T02700240 IEM_DS3505
ZJSY,2006-07-27 23:00,ZJSY 272300Z AUTO 26004KT 7SM 27/24 A2956 RMK T02700240 IEM_DS3505
ZJSY,2006-07-28 00:00,ZJSY 280000Z AUTO 26006KT 7SM 28/24 A2956 RMK T02800240 IEM_DS3505
ZJSY,2006-07-28 01:00,ZJSY 280100Z AUTO 24006KT 7SM 29/24 A2959 RMK T02900240 IEM_DS3505
ZJSY,2006-07-28 02:00,ZJSY 280200Z AUTO 24008KT 7SM 30/24 A2959 RMK T03000240 IEM_DS3505
ZJSY,2006-07-28 03:00,ZJSY 280300Z AUTO 23008KT 7SM 30/24 A2959 RMK T03000240 IEM_DS3505
ZJSY,2006-07-28 04:00,ZJSY 280400Z AUTO 23010KT 7SM 30/24 A2956 RMK T03000240 IEM_DS3505
ZJSY,2006-07-28 05:00,ZJSY 280500Z AUTO 24012KT 7SM 30/24 A2956 RMK T03000240 IEM_DS3505
ZJSY,2006-07-28 06:00,ZJSY 280600Z AUTO 24012KT 7SM 31/24 A2953 RMK T03100240 IEM_DS3505
ZJSY,2006-07-28 07:00,ZJSY 280700Z AUTO 24010KT 7SM 29/24 A2956 RMK T02900240 IEM_DS3505
ZJSY,2006-07-28 08:00,ZJSY 280800Z AUTO 24006KT 7SM 28/24 A2953 RMK T02800240 IEM_DS3505
ZJSY,2006-07-28 09:00,ZJSY 280900Z AUTO 24006KT 7SM 28/24 A2953 RMK T02800240 IEM_DS3505
ZJSY,2006-07-28 10:00,ZJSY 281000Z AUTO 23004KT 7SM 28/24 A2953 RMK T02800240 IEM_DS3505
ZJSY,2006-07-28 11:00,ZJSY 281100Z AUTO 7SM 28/24 A2953 RMK T02800240 IEM_DS3505
ZJSY,2006-07-28 12:00,ZJSY 281200Z AUTO 7SM 27/24 A2956 RMK T02700240 IEM_DS3505
ZJSY,2006-07-28 13:00,ZJSY 281300Z AUTO 00000KT 7SM 27/24 A2956 RMK T02700240 IEM_DS3505
ZJSY,2006-07-28 14:00,ZJSY 281400Z VRB01MPS 9999 FEW020 27/24 Q1002 NOSIG
ZJSY,2006-07-28 15:00,ZJSY 281500Z AUTO 00000KT 7SM 27/24 A2959 RMK T02700240 IEM_DS3505
ZJSY,2006-07-28 16:00,ZJSY 281600Z AUTO 14002KT 6SM 26/24 A2962 RMK T02600240 IEM_DS3505
ZJSY,2006-07-28 17:00,ZJSY 281700Z AUTO 00000KT 6SM 26/24 A2962 RMK T02600240 IEM_DS3505
ZJSY,2006-07-28 18:00,ZJSY 281800Z AUTO 33004KT 6SM 26/24 A2959 RMK T02600240 IEM_DS3505
ZJSY,2006-07-28 19:00,ZJSY 281900Z AUTO 00000KT 6SM 26/24 A2959 RMK T02600240 IEM_DS3505
ZJSY,2006-07-28 20:00,ZJSY 282000Z AUTO 26/24 A2959 RMK T02600240 IEM_DS3505
ZJSY,2006-07-28 21:00,ZJSY 282100Z AUTO 11002KT 6SM 26/24 A2959 RMK T02600240 IEM_DS3505
ZJSY,2006-07-28 22:00,ZJSY 282200Z AUTO 00000KT 6SM 26/24 A2959 RMK T02600240 IEM_DS3505
ZJSY,2006-07-28 23:00,ZJSY 282300Z AUTO 6SM 26/24 A2962 RMK T02600240 IEM_DS3505
ZJSY,2006-07-29 00:00,ZJSY 290000Z AUTO 7SM 28/24 A2962 RMK T02800240 IEM_DS3505
ZJSY,2006-07-29 01:00,ZJSY 290100Z AUTO 16004KT 7SM 28/24 A2965 RMK T02800240 IEM_DS3505
ZJSY,2006-07-29 02:00,ZJSY 290200Z AUTO 13004KT 7SM 26/23 A2968 RMK T02600230 IEM_DS3505
ZJSY,2006-07-29 03:00,ZJSY 290300Z AUTO 7SM 27/24 A2968 RMK T02700240 IEM_DS3505
ZJSY,2006-07-29 04:00,ZJSY 290400Z AUTO 7SM 28/23 A2968 RMK T02800230 IEM_DS3505
ZJSY,2006-07-29 05:00,ZJSY 290500Z AUTO 21006KT 7SM 30/24 A2965 RMK T03000240 IEM_DS3505
ZJSY,2006-07-29 06:00,ZJSY 290600Z AUTO 15004KT 7SM 30/25 A2965 RMK T03000250 IEM_DS3505
ZJSY,2006-07-29 07:00,ZJSY 290700Z AUTO 17004KT 7SM 30/24 A2962 RMK T03000240 IEM_DS3505
ZJSY,2006-07-29 08:00,ZJSY 290800Z AUTO 20006KT 7SM 30/24 A2962 RMK T03000240 IEM_DS3505
ZJSY,2006-07-29 09:00,ZJSY 290900Z AUTO 20004KT 7SM 30/24 A2962 RMK T03000240 IEM_DS3505
ZJSY,2006-07-29 10:00,ZJSY 291000Z AUTO 18004KT 7SM 28/24 A2962 RMK T02800240 IEM_DS3505
ZJSY,2006-07-29 11:00,ZJSY 291100Z AUTO 7SM 28/24 A2962 RMK T02800240 IEM_DS3505
ZJSY,2006-07-29 12:00,ZJSY 291200Z AUTO 7SM 28/24 A2965 RMK T02800240 IEM_DS3505
ZJSY,2006-07-29 13:00,ZJSY 291300Z AUTO 00000KT 7SM 28/24 A2968 RMK T02800240 IEM_DS3505
ZJSY,2006-07-29 14:00,ZJSY 291400Z AUTO 33002KT 7SM 28/24 A2971 RMK T02800240 IEM_DS3505
ZJSY,2006-07-29 15:00,ZJSY 291500Z VRB01MPS 9999 SCT016 FEW023CB 28/24 Q1006 NOSIG
ZJSY,2006-07-29 16:00,ZJSY 291600Z AUTO 22008KT 1 1/4SM 25/24 A2974 RMK T02500240 IEM_DS3505
ZJSY,2006-07-29 17:00,ZJSY 291700Z AUTO 34006KT 5SM 24/23 A2971 RMK T02400230 IEM_DS3505
ZJSY,2006-07-29 18:00,ZJSY 291800Z AUTO 01002KT 7SM 25/23 A2968 RMK T02500230 IEM_DS3505
ZJSY,2006-07-29 19:00,ZJSY 291900Z 07002MPS 9999 SCT015 BKN060 25/24 Q1005 NOSIG
ZJSY,2006-07-29 20:00,ZJSY 292000Z AUTO 00000KT 25/24 A2968 RMK T02500240 IEM_DS3505
ZJSY,2006-07-29 21:00,ZJSY 292100Z AUTO 00000KT 25/24 A2968 RMK T02500240 IEM_DS3505
ZJSY,2006-07-29 22:00,ZJSY 292200Z AUTO 7SM 26/24 A2968 RMK T02600240 IEM_DS3505
ZJSY,2006-07-29 23:00,ZJSY 292300Z AUTO 7SM 26/24 A2971 RMK T02600240 IEM_DS3505
ZJSY,2006-07-30 00:00,ZJSY 300000Z AUTO 00000KT 7SM 27/24 A2971 RMK T02700240 IEM_DS3505
ZJSY,2006-07-30 01:00,ZJSY 300100Z AUTO 16010KT 3/8SM 25/23 A2974 RMK T02500230 IEM_DS3505
ZJSY,2006-07-30 02:00,ZJSY 300200Z VRB01MPS 9999 -SHRA SCT010 FEW026TCU BKN066 25/24 Q1007 NOSIG
ZJSY,2006-07-30 03:00,ZJSY 300300Z AUTO 02004KT 7SM 27/24 A2974 RMK T02700240 IEM_DS3505
ZJSY,2006-07-30 04:00,ZJSY 300400Z AUTO 7SM 29/25 A2974 RMK T02900250 IEM_DS3505
ZJSY,2006-07-30 05:00,ZJSY 300500Z AUTO 7SM 30/25 A2974 RMK T03000250 IEM_DS3505
ZJSY,2006-07-30 06:00,ZJSY 300600Z AUTO 14004KT 7SM 30/23 A2971 RMK T03000230 IEM_DS3505
ZJSY,2006-07-30 07:00,ZJSY 300700Z AUTO 16006KT 7SM 29/24 A2971 RMK T02900240 IEM_DS3505
ZJSY,2006-07-30 08:00,ZJSY 300800Z AUTO 14004KT 7SM 29/25 A2968 RMK T02900250 IEM_DS3505
ZJSY,2006-07-30 09:00,ZJSY 300900Z AUTO 16004KT 7SM 29/25 A2968 RMK T02900250 IEM_DS3505
ZJSY,2006-07-30 10:00,ZJSY 301000Z AUTO 01004KT 7SM 28/24 A2971 RMK T02800240 IEM_DS3505
ZJSY,2006-07-30 11:00,ZJSY 301100Z AUTO 01004KT 7SM 28/24 A2971 RMK T02800240 IEM_DS3505
ZJSY,2006-07-30 12:00,ZJSY 301200Z AUTO 06008KT 7SM 28/23 A2971 RMK T02800230 IEM_DS3505
ZJSY,2006-07-30 13:00,ZJSY 301300Z AUTO 06006KT 7SM 28/24 A2974 RMK T02800240 IEM_DS3505
ZJSY,2006-07-30 14:00,ZJSY 301400Z AUTO 09004KT 7SM 27/24 A2977 RMK T02700240 IEM_DS3505
ZJSY,2006-07-30 15:00,ZJSY 301500Z AUTO 09004KT 7SM 27/24 A2977 RMK T02700240 IEM_DS3505
ZJSY,2006-07-30 16:00,ZJSY 301600Z AUTO 08004KT 7SM 27/24 A2977 RMK T02700240 IEM_DS3505
ZJSY,2006-07-30 17:00,ZJSY 301700Z AUTO 07006KT 7SM 27/25 A2977 RMK T02700250 IEM_DS3505
ZJSY,2006-07-30 18:00,ZJSY 301800Z 08004MPS 9999 FEW016 27/24 Q1007 NOSIG
ZJSY,2006-07-30 19:00,ZJSY 301900Z AUTO 08008KT 7SM 27/24 A2971 RMK T02700240 IEM_DS3505
ZJSY,2006-07-30 20:00,ZJSY 302000Z AUTO 04004KT 27/24 A2971 RMK T02700240 IEM_DS3505
ZJSY,2006-07-30 21:00,ZJSY 302100Z AUTO 35002KT 7SM 26/24 A2971 RMK T02600240 IEM_DS3505
ZJSY,2006-07-30 22:00,ZJSY 302200Z AUTO 7SM 27/24 A2971 RMK T02700240 IEM_DS3505
ZJSY,2006-07-30 23:00,ZJSY 302300Z AUTO 7SM 26/24 A2974 RMK T02600240 IEM_DS3505
ZJSY,2006-07-31 00:00,ZJSY 310000Z AUTO 7SM 28/25 A2974 RMK T02800250 IEM_DS3505
ZJSY,2006-07-31 01:00,ZJSY 310100Z AUTO 08004KT 7SM 29/25 A2977 RMK T02900250 IEM_DS3505
ZJSY,2006-07-31 02:00,ZJSY 310200Z AUTO 7SM 29/25 A2977 RMK T02900250 IEM_DS3505
ZJSY,2006-07-31 03:00,ZJSY 310300Z AUTO 16004KT 7SM 30/24 A2977 RMK T03000240 IEM_DS3505
ZJSY,2006-07-31 04:00,ZJSY 310400Z 19002MPS 160V240 9999 SCT016 FEW023TCU 31/24 Q1008 NOSIG
ZJSY,2006-07-31 05:00,ZJSY 310500Z AUTO 19006KT 7SM 31/25 A2974 RMK T03100250 IEM_DS3505
ZJSY,2006-07-31 06:00,ZJSY 310600Z 20002MPS 140V250 9999 BKN016 FEW023TCU 30/26 Q1007 NOSIG
ZJSY,2006-07-31 07:00,ZJSY 310700Z 17003MPS 130V210 9999 SCT016 FEW023TCU 30/24 Q1006 NOSIG
ZJSY,2006-07-31 08:00,ZJSY 310800Z AUTO 20004KT 7SM 30/25 A2971 RMK T03000250 IEM_DS3505
ZJSY,2006-07-31 09:00,ZJSY 310900Z AUTO 7SM 29/24 A2968 RMK T02900240 IEM_DS3505
ZJSY,2006-07-31 10:00,ZJSY 311000Z AUTO 7SM 29/24 A2968 RMK T02900240 IEM_DS3505
ZJSY,2006-07-31 11:00,ZJSY 311100Z VRB01MPS 9999 FEW016 28/24 Q1006 NOSIG
ZJSY,2006-07-31 12:00,ZJSY 311200Z AUTO 27002KT 7SM 28/24 A2971 RMK T02800240 IEM_DS3505
ZJSY,2006-07-31 13:00,ZJSY 311300Z AUTO 00000KT 7SM 28/24 A2974 RMK T02800240 IEM_DS3505
ZJSY,2006-07-31 14:00,ZJSY 311400Z AUTO 06004KT 7SM 28/24 A2974 RMK T02800240 IEM_DS3505
ZJSY,2006-07-31 15:00,ZJSY 311500Z AUTO 7SM 27/24 A2977 RMK T02700240 IEM_DS3505
ZJSY,2006-07-31 16:00,ZJSY 311600Z AUTO 00000KT 7SM 27/24 A2974 RMK T02700240 IEM_DS3505
ZJSY,2006-07-31 17:00,ZJSY 311700Z AUTO 7SM 27/24 A2974 RMK T02700240 IEM_DS3505
ZJSY,2006-07-31 18:00,ZJSY 311800Z AUTO 35002KT 7SM 26/24 A2971 RMK T02600240 IEM_DS3505
ZJSY,2006-07-31 19:00,ZJSY 311900Z AUTO 00000KT 26/24 A2971 RMK T02600240 IEM_DS3505
ZJSY,2006-07-31 20:00,ZJSY 312000Z AUTO 36002KT 25/24 A2968 RMK T02500240 IEM_DS3505
ZJSY,2006-07-31 21:00,ZJSY 312100Z AUTO 32002KT 6SM 25/24 A2968 RMK T02500240 IEM_DS3505
ZJSY,2006-07-31 22:00,ZJSY 312200Z AUTO 35002KT 6SM 25/24 A2971 RMK T02500240 IEM_DS3505
ZJSY,2006-07-31 23:00,ZJSY 312300Z AUTO 34002KT 6SM 25/24 A2971 RMK T02500240 IEM_DS3505
ZJSY,2006-08-01 00:00,ZJSY 010000Z AUTO 6SM 27/25 A2971 RMK T02700250 IEM_DS3505
ZJSY,2006-08-01 01:00,ZJSY 010100Z AUTO 00000KT 6SM 29/25 A2974 RMK T02900250 IEM_DS3505
ZJSY,2006-08-01 02:00,ZJSY 010200Z AUTO 21004KT 7SM 29/25 A2974 RMK T02900250 IEM_DS3505
ZJSY,2006-08-01 03:00,ZJSY 010300Z AUTO 21006KT 7SM 29/25 A2974 RMK T02900250 IEM_DS3505
ZJSY,2006-08-01 04:00,ZJSY 010400Z AUTO 21004KT 4SM 28/26 A2971 RMK T02800260 IEM_DS3505
ZJSY,2006-08-01 05:00,ZJSY 010500Z AUTO 35006KT 4SM 27/25 A2971 RMK T02700250 IEM_DS3505
ZJSY,2006-08-01 06:00,ZJSY 010600Z AUTO 7SM 29/25 A2968 RMK T02900250 IEM_DS3505
ZJSY,2006-08-01 07:00,ZJSY 010700Z 23002MPS 200V260 9999 BKN006 SCT016 FEW033CB 28/25 Q1005 RETS NOSIG
ZJSY,2006-08-01 08:00,ZJSY 010800Z AUTO 34006KT 5SM 26/23 A2968 RMK T02600230 IEM_DS3505
ZJSY,2006-08-01 09:00,ZJSY 010900Z AUTO 7SM 28/24 A2965 RMK T02800240 IEM_DS3505
ZJSY,2006-08-01 10:00,ZJSY 011000Z AUTO 7SM 28/24 A2962 RMK T02800240 IEM_DS3505
ZJSY,2006-08-01 11:00,ZJSY 011100Z AUTO 7SM 27/25 A2962 RMK T02700250 IEM_DS3505
ZJSY,2006-08-01 12:00,ZJSY 011200Z 00000MPS 9999 SCT016 27/24 Q1004 NOSIG
ZJSY,2006-08-01 13:00,ZJSY 011300Z AUTO 02004KT 7SM 26/24 A2965 RMK T02600240 IEM_DS3505
ZJSY,2006-08-01 14:00,ZJSY 011400Z AUTO 34004KT 7SM 26/24 A2968 RMK T02600240 IEM_DS3505
ZJSY,2006-08-01 15:00,ZJSY 011500Z AUTO 32004KT 7SM 26/24 A2971 RMK T02600240 IEM_DS3505
ZJSY,2006-08-01 16:00,ZJSY 011600Z AUTO 7SM 26/23 A2968 RMK T02600230 IEM_DS3505
ZJSY,2006-08-01 17:00,ZJSY 011700Z AUTO 7SM 25/23 A2968 RMK T02500230 IEM_DS3505
ZJSY,2006-08-01 18:00,ZJSY 011800Z AUTO 33002KT 7SM 25/23 A2965 RMK T02500230 IEM_DS3505
ZJSY,2006-08-01 19:00,ZJSY 011900Z AUTO 00000KT 7SM 25/23 A2962 RMK T02500230 IEM_DS3505
ZJSY,2006-08-01 20:00,ZJSY 012000Z AUTO 00000KT 7SM 25/23 A2962 RMK T02500230 IEM_DS3505
ZJSY,2006-08-01 21:00,ZJSY 012100Z AUTO 30004KT 7SM 25/22 A2959 RMK T02500220 IEM_DS3505
ZJSY,2006-08-01 22:00,ZJSY 012200Z AUTO 30004KT 7SM 27/21 A2956 RMK T02700210 IEM_DS3505
ZJSY,2006-08-01 23:00,ZJSY 012300Z AUTO 31004KT 7SM 26/22 A2962 RMK T02600220 IEM_DS3505
ZJSY,2006-08-02 00:00,ZJSY 020000Z AUTO 7SM 27/23 A2962 RMK T02700230 IEM_DS3505
ZJSY,2006-08-02 01:00,ZJSY 020100Z 29003MPS 250V330 CAVOK 29/21 Q1003 NOSIG
ZJSY,2006-08-02 02:00,ZJSY 020200Z AUTO 25008KT 6SM 29/24 A2959 RMK T02900240 IEM_DS3505
ZJSY,2006-08-02 03:00,ZJSY 020300Z AUTO 25008KT 6SM 29/24 A2959 RMK T02900240 IEM_DS3505
ZJSY,2006-08-02 04:00,ZJSY 020400Z AUTO 28010KT 7SM 32/23 A2956 RMK T03200230 IEM_DS3505
ZJSY,2006-08-02 05:00,ZJSY 020500Z AUTO 25004KT 7SM 31/25 A2956 RMK T03100250 IEM_DS3505
ZJSY,2006-08-02 06:00,ZJSY 020600Z AUTO 31010KT 7SM 32/22 A2953 RMK T03200220 IEM_DS3505
ZJSY,2006-08-02 07:00,ZJSY 020700Z AUTO 26008KT 7SM 31/25 A2950 RMK T03100250 IEM_DS3505
ZJSY,2006-08-02 08:00,ZJSY 020800Z AUTO 27006KT 7SM 31/25 A2950 RMK T03100250 IEM_DS3505
ZJSY,2006-08-02 09:00,ZJSY 020900Z AUTO 29006KT 7SM 31/23 A2947 RMK T03100230 IEM_DS3505
ZJSY,2006-08-02 10:00,ZJSY 021000Z 29003MPS 9999 BKN040 30/23 Q0999 NOSIG
ZJSY,2006-08-02 11:00,ZJSY 021100Z AUTO 27004KT 7SM 29/23 A2947 RMK T02900230 IEM_DS3505
ZJSY,2006-08-02 12:00,ZJSY 021200Z AUTO 28006KT 7SM 29/24 A2947 RMK T02900240 IEM_DS3505
ZJSY,2006-08-02 13:00,ZJSY 021300Z AUTO 30010KT 7SM 29/24 A2953 RMK T02900240 IEM_DS3505
ZJSY,2006-08-02 14:00,ZJSY 021400Z AUTO 24004KT 7SM 28/24 A2953 RMK T02800240 IEM_DS3505
ZJSY,2006-08-02 15:00,ZJSY 021500Z AUTO 31014G29KT 3SM 26/22 A2956 RMK T02600220 IEM_DS3505
ZJSY,2006-08-02 16:00,ZJSY 021600Z AUTO 7SM 26/23 A2953 RMK T02600230 IEM_DS3505
ZJSY,2006-08-02 17:00,ZJSY 021700Z AUTO 29012KT 5SM 26/23 A2953 RMK T02600230 IEM_DS3505
ZJSY,2006-08-02 18:00,ZJSY 021800Z AUTO 30010KT 7SM 25/22 A2950 RMK T02500220 IEM_DS3505
ZJSY,2006-08-02 19:00,ZJSY 021900Z 30006MPS 9999 SCT010 OVC040 26/22 Q0997 NOSIG
ZJSY,2006-08-02 20:00,ZJSY 022000Z AUTO 29010KT 26/22 A2944 RMK T02600220 IEM_DS3505
ZJSY,2006-08-02 21:00,ZJSY 022100Z AUTO 30012KT 26/22 A2944 RMK T02600220 IEM_DS3505
ZJSY,2006-08-02 22:00,ZJSY 022200Z AUTO 29010KT 7SM 26/22 A2944 RMK T02600220 IEM_DS3505
ZJSY,2006-08-02 23:00,ZJSY 022300Z AUTO 28006KT 7SM 26/22 A2947 RMK T02600220 IEM_DS3505
ZJSY,2006-08-03 00:00,ZJSY 030000Z AUTO 30010KT 5SM 25/22 A2947 RMK T02500220 IEM_DS3505
ZJSY,2006-08-03 01:00,ZJSY 030100Z AUTO 30008KT 7SM 25/23 A2947 RMK T02500230 IEM_DS3505
ZJSY,2006-08-03 02:00,ZJSY 030200Z AUTO 28006KT 4SM 26/23 A2950 RMK T02600230 IEM_DS3505
ZJSY,2006-08-03 03:00,ZJSY 030300Z AUTO 30006KT 4SM 26/24 A2947 RMK T02600240 IEM_DS3505
ZJSY,2006-08-03 04:00,ZJSY 030400Z AUTO 26010KT 7SM 28/25 A2947 RMK T02800250 IEM_DS3505
ZJSY,2006-08-03 05:00,ZJSY 030500Z AUTO 25010KT 7SM 28/25 A2944 RMK T02800250 IEM_DS3505
ZJSY,2006-08-03 06:00,ZJSY 030600Z AUTO 25014G23KT 7SM 29/25 A2944 RMK T02900250 IEM_DS3505
ZJSY,2006-08-03 07:00,ZJSY 030700Z AUTO 25017KT 7SM 29/25 A2941 RMK T02900250 IEM_DS3505
ZJSY,2006-08-03 08:00,ZJSY 030800Z AUTO 25016KT 7SM 29/25 A2938 RMK T02900250 IEM_DS3505
ZJSY,2006-08-03 09:00,ZJSY 030900Z AUTO 26016KT 7SM 29/24 A2938 RMK T02900240 IEM_DS3505
ZJSY,2006-08-03 10:00,ZJSY 031000Z AUTO 28016KT 7SM 30/23 A2941 RMK T03000230 IEM_DS3505
ZJSY,2006-08-03 11:00,ZJSY 031100Z AUTO 30012KT 7SM 29/23 A2944 RMK T02900230 IEM_DS3505
ZJSY,2006-08-03 12:00,ZJSY 031200Z 29004MPS 9000 -SHRA SCT013 26/23 Q0998 NOSIG
ZJSY,2006-08-03 13:00,ZJSY 031300Z AUTO 30008KT 6SM 26/23 A2950 RMK T02600230 IEM_DS3505
ZJSY,2006-08-03 14:00,ZJSY 031400Z AUTO 27006KT 6SM 26/23 A2950 RMK T02600230 IEM_DS3505
ZJSY,2006-08-03 15:00,ZJSY 031500Z AUTO 28012KT 6SM 27/23 A2953 RMK T02700230 IEM_DS3505
ZJSY,2006-08-03 16:00,ZJSY 031600Z AUTO 27006KT 7SM 27/23 A2953 RMK T02700230 IEM_DS3505
ZJSY,2006-08-03 17:00,ZJSY 031700Z AUTO 24006KT 7SM 26/24 A2950 RMK T02600240 IEM_DS3505
ZJSY,2006-08-03 18:00,ZJSY 031800Z AUTO 26008KT 7SM 27/24 A2947 RMK T02700240 IEM_DS3505
ZJSY,2006-08-03 19:00,ZJSY 031900Z AUTO 26008KT 27/24 A2950 RMK T02700240 IEM_DS3505
ZJSY,2006-08-03 20:00,ZJSY 032000Z AUTO 24003MPS //// // ////// 27/24 Q0999
ZJSY,2006-08-03 21:00,ZJSY 032100Z AUTO 24008KT 7SM 26/24 A2950 RMK T02600240 IEM_DS3505
ZJSY,2006-08-03 22:00,ZJSY 032200Z AUTO 26008KT 7SM 26/24 A2950 RMK T02600240 IEM_DS3505
ZJSY,2006-08-03 23:00,ZJSY 032300Z AUTO 00000KT 7SM 27/25 A2950 RMK T02700250 IEM_DS3505
ZJSY,2006-08-04 00:00,ZJSY 040000Z AUTO 26010KT 7SM 28/25 A2953 RMK T02800250 IEM_DS3505
ZJSY,2006-08-04 01:00,ZJSY 040100Z AUTO 25012KT 7SM 29/24 A2956 RMK T02900240 IEM_DS3505
ZJSY,2006-08-04 02:00,ZJSY 040200Z 25005MPS 220V280 9999 FEW013 29/24 Q1002 NOSIG
ZJSY,2006-08-04 03:00,ZJSY 040300Z AUTO 22006KT 7SM 28/24 A2959 RMK T02800240 IEM_DS3505
ZJSY,2006-08-04 04:00,ZJSY 040400Z AUTO 22006KT 7SM 28/25 A2959 RMK T02800250 IEM_DS3505
ZJSY,2006-08-04 05:00,ZJSY 040500Z AUTO 23010KT 7SM 28/24 A2956 RMK T02800240 IEM_DS3505
ZJSY,2006-08-04 06:00,ZJSY 040600Z AUTO 23008KT 7SM 28/24 A2956 RMK T02800240 IEM_DS3505
ZJSY,2006-08-04 07:00,ZJSY 040700Z AUTO 24008KT 7SM 28/25 A2956 RMK T02800250 IEM_DS3505
ZJSY,2006-08-04 08:00,ZJSY 040800Z AUTO 25010KT 7SM 29/25 A2953 RMK T02900250 IEM_DS3505
ZJSY,2006-08-04 09:00,ZJSY 040900Z AUTO 25008KT 6SM 29/24 A2953 RMK T02900240 IEM_DS3505
ZJSY,2006-08-04 10:00,ZJSY 041000Z AUTO 26006KT 7SM 28/24 A2956 RMK T02800240 IEM_DS3505
ZJSY,2006-08-04 11:00,ZJSY 041100Z AUTO 24004KT 7SM 28/24 A2959 RMK T02800240 IEM_DS3505
ZJSY,2006-08-04 12:00,ZJSY 041200Z AUTO 6SM 28/24 A2962 RMK T02800240 IEM_DS3505
ZJSY,2006-08-04 13:00,ZJSY 041300Z AUTO 6SM 27/24 A2962 RMK T02700240 IEM_DS3505
ZJSY,2006-08-04 14:00,ZJSY 041400Z AUTO 00000KT 6SM 27/24 A2965 RMK T02700240 IEM_DS3505
ZJSY,2006-08-04 15:00,ZJSY 041500Z AUTO 6SM 27/24 A2965 RMK T02700240 IEM_DS3505
ZJSY,2006-08-04 16:00,ZJSY 041600Z AUTO 6SM 27/24 A2965 RMK T02700240 IEM_DS3505
ZJSY,2006-08-04 17:00,ZJSY 041700Z AUTO 08004KT 7SM 27/24 A2965 RMK T02700240 IEM_DS3505
ZJSY,2006-08-04 18:00,ZJSY 041800Z AUTO 7SM 27/24 A2962 RMK T02700240 IEM_DS3505
ZJSY,2006-08-04 19:00,ZJSY 041900Z AUTO 34002KT 7SM 27/24 A2962 RMK T02700240 IEM_DS3505
ZJSY,2006-08-04 20:00,ZJSY 042000Z AUTO 7SM 27/24 A2959 RMK T02700240 IEM_DS3505
ZJSY,2006-08-04 21:00,ZJSY 042100Z AUTO 36002KT 6SM 26/24 A2959 RMK T02600240 IEM_DS3505
ZJSY,2006-08-04 22:00,ZJSY 042200Z AUTO 34004KT 6SM 26/24 A2959 RMK T02600240 IEM_DS3505
ZJSY,2006-08-04 23:00,ZJSY 042300Z AUTO 7SM 26/24 A2962 RMK T02600240 IEM_DS3505
ZJSY,2006-08-05 00:00,ZJSY 050000Z AUTO 6SM 28/24 A2962 RMK T02800240 IEM_DS3505
ZJSY,2006-08-05 01:00,ZJSY 050100Z AUTO 7SM 30/25 A2965 RMK T03000250 IEM_DS3505
ZJSY,2006-08-05 02:00,ZJSY 050200Z VRB01MPS 9999 BKN066 30/25 Q1004 NOSIG
ZJSY,2006-08-05 03:00,ZJSY 050300Z AUTO 25004KT 7SM 31/24 A2968 RMK T03100240 IEM_DS3505
ZJSY,2006-08-05 04:00,ZJSY 050400Z AUTO 19006KT 7SM 31/24 A2965 RMK T03100240 IEM_DS3505
ZJSY,2006-08-05 05:00,ZJSY 050500Z AUTO 24006KT 7SM 31/24 A2965 RMK T03100240 IEM_DS3505
ZJSY,2006-08-05 06:00,ZJSY 050600Z 21003MPS 160V250 9999 FEW016 30/24 Q1004 NOSIG
ZJSY,2006-08-05 07:00,ZJSY 050700Z AUTO 20006KT 7SM 30/24 A2962 RMK T03000240 IEM_DS3505
ZJSY,2006-08-05 08:00,ZJSY 050800Z AUTO 23004KT 7SM 30/24 A2962 RMK T03000240 IEM_DS3505
ZJSY,2006-08-05 09:00,ZJSY 050900Z 25003MPS 210V270 CAVOK 30/23 Q1002 NOSIG
ZJSY,2006-08-05 10:00,ZJSY 051000Z AUTO 29006KT 6SM 29/23 A2959 RMK T02900230 IEM_DS3505
ZJSY,2006-08-05 11:00,ZJSY 051100Z AUTO 29006KT 6SM 29/23 A2962 RMK T02900230 IEM_DS3505
ZJSY,2006-08-05 12:00,ZJSY 051200Z AUTO 28004KT 6SM 28/23 A2962 RMK T02800230 IEM_DS3505
ZJSY,2006-08-05 13:00,ZJSY 051300Z AUTO 33004KT 6SM 28/23 A2965 RMK T02800230 IEM_DS3505
ZJSY,2006-08-05 14:00,ZJSY 051400Z AUTO 00000KT 7SM 28/24 A2968 RMK T02800240 IEM_DS3505
ZJSY,2006-08-05 15:00,ZJSY 051500Z AUTO 09002KT 7SM 28/24 A2968 RMK T02800240 IEM_DS3505
ZJSY,2006-08-05 16:00,ZJSY 051600Z AUTO 07004KT 7SM 27/23 A2968 RMK T02700230 IEM_DS3505
ZJSY,2006-08-05 17:00,ZJSY 051700Z AUTO 00000KT 7SM 27/24 A2965 RMK T02700240 IEM_DS3505
ZJSY,2006-08-05 18:00,ZJSY 051800Z AUTO 7SM 28/23 A2965 RMK T02800230 IEM_DS3505
ZJSY,2006-08-05 19:00,ZJSY 051900Z AUTO 00000KT 28/24 A2965 RMK T02800240 IEM_DS3505
ZJSY,2006-08-05 20:00,ZJSY 052000Z AUTO 07004KT 28/24 A2962 RMK T02800240 IEM_DS3505
ZJSY,2006-08-05 21:00,ZJSY 052100Z 05001MPS 9999 FEW016 BKN060 27/24 Q1003 NOSIG
ZJSY,2006-08-05 22:00,ZJSY 052200Z AUTO 08004KT 7SM 27/24 A2965 RMK T02700240 IEM_DS3505
ZJSY,2006-08-05 23:00,ZJSY 052300Z 04002MPS 360V100 9999 SCT050 27/24 Q1004 NOSIG
ZJSY,2006-08-06 00:00,ZJSY 060000Z AUTO 06006KT 6SM 29/24 A2968 RMK T02900240 IEM_DS3505
ZJSY,2006-08-06 01:00,ZJSY 060100Z AUTO 07008KT 6SM 29/24 A2968 RMK T02900240 IEM_DS3505
ZJSY,2006-08-06 02:00,ZJSY 060200Z AUTO 09004KT 7SM 30/25 A2968 RMK T03000250 IEM_DS3505
ZJSY,2006-08-06 03:00,ZJSY 060300Z AUTO 16004KT 7SM 31/25 A2968 RMK T03100250 IEM_DS3505
ZJSY,2006-08-06 04:00,ZJSY 060400Z AUTO 16006KT 7SM 31/25 A2968 RMK T03100250 IEM_DS3505
ZJSY,2006-08-06 05:00,ZJSY 060500Z AUTO 15004KT 7SM 31/25 A2965 RMK T03100250 IEM_DS3505
ZJSY,2006-08-06 06:00,ZJSY 060600Z AUTO 17006KT 7SM 31/26 A2965 RMK T03100260 IEM_DS3505
ZJSY,2006-08-06 07:00,ZJSY 060700Z AUTO 17006KT 7SM 30/25 A2962 RMK T03000250 IEM_DS3505
ZJSY,2006-08-06 08:00,ZJSY 060800Z AUTO 17004KT 7SM 29/26 A2962 RMK T02900260 IEM_DS3505
ZJSY,2006-08-06 09:00,ZJSY 060900Z AUTO 18004KT 7SM 29/26 A2959 RMK T02900260 IEM_DS3505
ZJSY,2006-08-06 10:00,ZJSY 061000Z AUTO 7SM 29/26 A2959 RMK T02900260 IEM_DS3505
ZJSY,2006-08-06 11:00,ZJSY 061100Z AUTO 7SM 28/26 A2962 RMK T02800260 IEM_DS3505
ZJSY,2006-08-06 12:00,ZJSY 061200Z AUTO 11002KT 7SM 28/26 A2962 RMK T02800260 IEM_DS3505
ZJSY,2006-08-06 13:00,ZJSY 061300Z AUTO 12002KT 7SM 28/26 A2965 RMK T02800260 IEM_DS3505
ZJSY,2006-08-06 14:00,ZJSY 061400Z AUTO 7SM 28/26 A2968 RMK T02800260 IEM_DS3505
ZJSY,2006-08-06 15:00,ZJSY 061500Z AUTO 00000KT 7SM 27/25 A2968 RMK T02700250 IEM_DS3505
ZJSY,2006-08-06 16:00,ZJSY 061600Z AUTO 04004KT 7SM 27/24 A2968 RMK T02700240 IEM_DS3505
ZJSY,2006-08-06 17:00,ZJSY 061700Z AUTO 08004KT 7SM 27/24 A2965 RMK T02700240 IEM_DS3505
ZJSY,2006-08-06 18:00,ZJSY 061800Z AUTO 06004KT 27/24 A2965 RMK T02700240 IEM_DS3505
ZJSY,2006-08-06 19:00,ZJSY 061900Z AUTO 27/25 A2962 RMK T02700250 IEM_DS3505
ZJSY,2006-08-06 20:00,ZJSY 062000Z AUTO 06004KT 27/25 A2962 RMK T02700250 IEM_DS3505
ZJSY,2006-08-06 21:00,ZJSY 062100Z AUTO 08004KT 7SM 27/25 A2962 RMK T02700250 IEM_DS3505
ZJSY,2006-08-06 22:00,ZJSY 062200Z AUTO 08004KT 7SM 27/25 A2962 RMK T02700250 IEM_DS3505
ZJSY,2006-08-06 23:00,ZJSY 062300Z AUTO 05004KT 7SM 27/25 A2965 RMK T02700250 IEM_DS3505
ZJSY,2006-08-07 00:00,ZJSY 070000Z AUTO 08006KT 7SM 29/25 A2965 RMK T02900250 IEM_DS3505
ZJSY,2006-08-07 01:00,ZJSY 070100Z 10003MPS 060V140 9999 FEW020 29/25 Q1004 NOSIG
ZJSY,2006-08-07 02:00,ZJSY 070200Z AUTO 15004KT 7SM 29/25 A2965 RMK T02900250 IEM_DS3505
ZJSY,2006-08-07 03:00,ZJSY 070300Z AUTO 17006KT 7SM 30/25 A2968 RMK T03000250 IEM_DS3505
ZJSY,2006-08-07 04:00,ZJSY 070400Z AUTO 16006KT 7SM 30/26 A2965 RMK T03000260 IEM_DS3505
ZJSY,2006-08-07 05:00,ZJSY 070500Z AUTO 16008KT 7SM 30/25 A2965 RMK T03000250 IEM_DS3505
ZJSY,2006-08-07 06:00,ZJSY 070600Z AUTO 19006KT 7SM 31/25 A2962 RMK T03100250 IEM_DS3505
ZJSY,2006-08-07 07:00,ZJSY 070700Z AUTO 20006KT 6SM 31/23 A2959 RMK T03100230 IEM_DS3505
ZJSY,2006-08-07 08:00,ZJSY 070800Z AUTO 17004KT 6SM 30/23 A2959 RMK T03000230 IEM_DS3505
ZJSY,2006-08-07 09:00,ZJSY 070900Z AUTO 6SM 30/22 A2956 RMK T03000220 IEM_DS3505
ZJSY,2006-08-07 10:00,ZJSY 071000Z AUTO 00000KT 6SM 30/23 A2959 RMK T03000230 IEM_DS3505
ZJSY,2006-08-07 11:00,ZJSY 071100Z AUTO 6SM 29/23 A2959 RMK T02900230 IEM_DS3505
ZJSY,2006-08-07 12:00,ZJSY 071200Z AUTO 6SM 29/24 A2959 RMK T02900240 IEM_DS3505
ZJSY,2006-08-07 13:00,ZJSY 071300Z AUTO 35002KT 7SM 28/23 A2962 RMK T02800230 IEM_DS3505
ZJSY,2006-08-07 14:00,ZJSY 071400Z AUTO 7SM 27/23 A2965 RMK T02700230 IEM_DS3505
ZJSY,2006-08-07 15:00,ZJSY 071500Z AUTO 36002KT 7SM 27/24 A2965 RMK T02700240 IEM_DS3505
ZJSY,2006-08-07 16:00,ZJSY 071600Z AUTO 32002KT 7SM 27/24 A2968 RMK T02700240 IEM_DS3505
ZJSY,2006-08-07 17:00,ZJSY 071700Z AUTO 09004KT 7SM 27/24 A2965 RMK T02700240 IEM_DS3505
ZJSY,2006-08-07 18:00,ZJSY 071800Z AUTO 08004KT 7SM 26/24 A2962 RMK T02600240 IEM_DS3505
ZJSY,2006-08-07 19:00,ZJSY 071900Z AUTO 03002KT 27/24 A2962 RMK T02700240 IEM_DS3505
ZJSY,2006-08-07 20:00,ZJSY 072000Z AUTO 00000KT 26/24 A2962 RMK T02600240 IEM_DS3505
ZJSY,2006-08-07 21:00,ZJSY 072100Z AUTO 06006KT 7SM 26/24 A2959 RMK T02600240 IEM_DS3505
ZJSY,2006-08-07 22:00,ZJSY 072200Z AUTO 04004KT 7SM 27/23 A2962 RMK T02700230 IEM_DS3505
ZJSY,2006-08-07 23:00,ZJSY 072300Z AUTO 6SM 27/24 A2959 RMK T02700240 IEM_DS3505
ZJSY,2006-08-08 00:00,ZJSY 080000Z AUTO 08004KT 6SM 29/24 A2962 RMK T02900240 IEM_DS3505
ZJSY,2006-08-08 01:00,ZJSY 080100Z AUTO 06004KT 6SM 30/24 A2962 RMK T03000240 IEM_DS3505
ZJSY,2006-08-08 02:00,ZJSY 080200Z AUTO 12004KT 7SM 31/24 A2962 RMK T03100240 IEM_DS3505
ZJSY,2006-08-08 03:00,ZJSY 080300Z AUTO 20006KT 7SM 31/25 A2965 RMK T03100250 IEM_DS3505
ZJSY,2006-08-08 04:00,ZJSY 080400Z AUTO 20006KT 7SM 31/25 A2965 RMK T03100250 IEM_DS3505
ZJSY,2006-08-08 05:00,ZJSY 080500Z AUTO 20006KT 7SM 31/27 A2962 RMK T03100270 IEM_DS3505
ZJSY,2006-08-08 06:00,ZJSY 080600Z AUTO 19006KT 7SM 30/26 A2962 RMK T03000260 IEM_DS3505
ZJSY,2006-08-08 07:00,ZJSY 080700Z AUTO 18006KT 7SM 30/25 A2959 RMK T03000250 IEM_DS3505
ZJSY,2006-08-08 08:00,ZJSY 080800Z AUTO 19004KT 7SM 30/25 A2959 RMK T03000250 IEM_DS3505
ZJSY,2006-08-08 09:00,ZJSY 080900Z AUTO 00000KT 7SM 29/24 A2959 RMK T02900240 IEM_DS3505
ZJSY,2006-08-08 11:00,ZJSY 081100Z AUTO 12002KT 7SM 28/24 A2962 RMK T02800240 IEM_DS3505
ZJSY,2006-08-08 12:00,ZJSY 081200Z AUTO 06004KT 7SM 28/23 A2962 RMK T02800230 IEM_DS3505
ZJSY,2006-08-08 13:00,ZJSY 081300Z AUTO 7SM 28/23 A2965 RMK T02800230 IEM_DS3505
ZJSY,2006-08-08 14:00,ZJSY 081400Z AUTO 7SM 28/24 A2965 RMK T02800240 IEM_DS3505
ZJSY,2006-08-08 15:00,ZJSY 081500Z AUTO 09004KT 6SM 27/24 A2965 RMK T02700240 IEM_DS3505
ZJSY,2006-08-08 16:00,ZJSY 081600Z AUTO 31002KT 6SM 27/24 A2968 RMK T02700240 IEM_DS3505
ZJSY,2006-08-08 17:00,ZJSY 081700Z AUTO 6SM 27/24 A2968 RMK T02700240 IEM_DS3505
ZJSY,2006-08-08 18:00,ZJSY 081800Z AUTO 33004KT 26/23 A2965 RMK T02600230 IEM_DS3505
ZJSY,2006-08-08 19:00,ZJSY 081900Z AUTO 00000KT 26/24 A2962 RMK T02600240 IEM_DS3505
ZJSY,2006-08-08 20:00,ZJSY 082000Z AUTO 34004KT 26/24 A2962 RMK T02600240 IEM_DS3505
ZJSY,2006-08-08 21:00,ZJSY 082100Z AUTO 32004KT 7SM 26/24 A2962 RMK T02600240 IEM_DS3505
ZJSY,2006-08-08 22:00,ZJSY 082200Z AUTO 30002KT 7SM 26/24 A2962 RMK T02600240 IEM_DS3505
ZJSY,2006-08-08 23:00,ZJSY 082300Z AUTO 32002KT 7SM 27/24 A2962 RMK T02700240 IEM_DS3505
ZJSY,2006-08-09 00:00,ZJSY 090000Z AUTO 7SM 28/25 A2962 RMK T02800250 IEM_DS3505
ZJSY,2006-08-09 01:00,ZJSY 090100Z AUTO 29004KT 7SM 30/24 A2965 RMK T03000240 IEM_DS3505
ZJSY,2006-08-09 02:00,ZJSY 090200Z AUTO 28008KT 7SM 31/24 A2965 RMK T03100240 IEM_DS3505
ZJSY,2006-08-09 03:00,ZJSY 090300Z AUTO 23008KT 7SM 30/25 A2965 RMK T03000250 IEM_DS3505
ZJSY,2006-08-09 04:00,ZJSY 090400Z AUTO 23010KT 7SM 31/25 A2965 RMK T03100250 IEM_DS3505
ZJSY,2006-08-09 05:00,ZJSY 090500Z AUTO 23010KT 7SM 31/26 A2962 RMK T03100260 IEM_DS3505
ZJSY,2006-08-09 06:00,ZJSY 090600Z AUTO 24014KT 7SM 31/26 A2959 RMK T03100260 IEM_DS3505
ZJSY,2006-08-09 07:00,ZJSY 090700Z AUTO 23004KT 7SM 30/25 A2959 RMK T03000250 IEM_DS3505
ZJSY,2006-08-09 08:00,ZJSY 090800Z AUTO 26004KT 7SM 29/26 A2956 RMK T02900260 IEM_DS3505
ZJSY,2006-08-09 09:00,ZJSY 090900Z AUTO 11004KT 6SM 27/25 A2956 RMK T02700250 IEM_DS3505
ZJSY,2006-08-09 10:00,ZJSY 091000Z AUTO 6SM 27/25 A2953 RMK T02700250 IEM_DS3505
ZJSY,2006-08-09 11:00,ZJSY 091100Z AUTO 00000KT 6SM 28/24 A2953 RMK T02800240 IEM_DS3505
ZJSY,2006-08-09 12:00,ZJSY 091200Z AUTO 6SM 27/25 A2959 RMK T02700250 IEM_DS3505
ZJSY,2006-08-09 13:00,ZJSY 091300Z AUTO 6SM 27/24 A2959 RMK T02700240 IEM_DS3505
ZJSY,2006-08-09 14:00,ZJSY 091400Z AUTO 00000KT 6SM 27/24 A2962 RMK T02700240 IEM_DS3505
ZJSY,2006-08-09 15:00,ZJSY 091500Z AUTO 00000KT 6SM 26/24 A2965 RMK T02600240 IEM_DS3505
ZJSY,2006-08-09 16:00,ZJSY 091600Z AUTO 6SM 26/24 A2965 RMK T02600240 IEM_DS3505
ZJSY,2006-08-09 17:00,ZJSY 091700Z AUTO 33004KT 6SM 26/24 A2962 RMK T02600240 IEM_DS3505
ZJSY,2006-08-09 18:00,ZJSY 091800Z AUTO 31004KT 25/24 A2959 RMK T02500240 IEM_DS3505
ZJSY,2006-08-09 19:00,ZJSY 091900Z AUTO 00000KT 25/24 A2959 RMK T02500240 IEM_DS3505
ZJSY,2006-08-09 20:00,ZJSY 092000Z AUTO 33004KT 25/23 A2956 RMK T02500230 IEM_DS3505
ZJSY,2006-08-09 21:00,ZJSY 092100Z AUTO 33002KT 6SM 25/23 A2959 RMK T02500230 IEM_DS3505
ZJSY,2006-08-09 22:00,ZJSY 092200Z AUTO 30002KT 6SM 25/23 A2959 RMK T02500230 IEM_DS3505
ZJSY,2006-08-09 23:00,ZJSY 092300Z AUTO 00000KT 6SM 25/24 A2959 RMK T02500240 IEM_DS3505
ZJSY,2006-08-10 00:00,ZJSY 100000Z AUTO 6SM 27/24 A2962 RMK T02700240 IEM_DS3505
ZJSY,2006-08-10 01:00,ZJSY 100100Z AUTO 31004KT 6SM 29/24 A2959 RMK T02900240 IEM_DS3505
ZJSY,2006-08-10 02:00,ZJSY 100200Z AUTO 27008KT 7SM 30/25 A2962 RMK T03000250 IEM_DS3505
ZJSY,2006-08-10 03:00,ZJSY 100300Z AUTO 26006KT 7SM 31/24 A2962 RMK T03100240 IEM_DS3505
ZJSY,2006-08-10 04:00,ZJSY 100400Z AUTO 23008KT 7SM 29/26 A2962 RMK T02900260 IEM_DS3505
ZJSY,2006-08-10 05:00,ZJSY 100500Z AUTO 26008KT 7SM 30/25 A2959 RMK T03000250 IEM_DS3505
ZJSY,2006-08-10 06:00,ZJSY 100600Z AUTO 25008KT 7SM 30/25 A2956 RMK T03000250 IEM_DS3505
ZJSY,2006-08-10 07:00,ZJSY 100700Z AUTO 25010KT 7SM 31/26 A2953 RMK T03100260 IEM_DS3505
ZJSY,2006-08-10 08:00,ZJSY 100800Z AUTO 25010KT 7SM 30/26 A2953 RMK T03000260 IEM_DS3505
ZJSY,2006-08-10 09:00,ZJSY 100900Z AUTO 27010KT 7SM 30/25 A2953 RMK T03000250 IEM_DS3505
ZJSY,2006-08-10 10:00,ZJSY 101000Z AUTO 29004KT 7SM 29/23 A2953 RMK T02900230 IEM_DS3505
ZJSY,2006-08-10 11:00,ZJSY 101100Z AUTO 30004KT 7SM 28/23 A2953 RMK T02800230 IEM_DS3505
ZJSY,2006-08-10 12:00,ZJSY 101200Z AUTO 7SM 27/24 A2956 RMK T02700240 IEM_DS3505
ZJSY,2006-08-10 13:00,ZJSY 101300Z AUTO 09004KT 6SM 27/24 A2959 RMK T02700240 IEM_DS3505
ZJSY,2006-08-10 14:00,ZJSY 101400Z AUTO 6SM 27/25 A2962 RMK T02700250 IEM_DS3505
ZJSY,2006-08-10 15:00,ZJSY 101500Z AUTO 6SM 27/25 A2962 RMK T02700250 IEM_DS3505
ZJSY,2006-08-10 16:00,ZJSY 101600Z AUTO 34004KT 6SM 26/25 A2962 RMK T02600250 IEM_DS3505
ZJSY,2006-08-10 17:00,ZJSY 101700Z AUTO 6SM 26/25 A2962 RMK T02600250 IEM_DS3505
ZJSY,2006-08-10 18:00,ZJSY 101800Z AUTO 6SM 26/24 A2959 RMK T02600240 IEM_DS3505
ZJSY,2006-08-10 19:00,ZJSY 101900Z AUTO 32002KT 26/24 A2959 RMK T02600240 IEM_DS3505
ZJSY,2006-08-10 20:00,ZJSY 102000Z AUTO 26/24 A2956 RMK T02600240 IEM_DS3505
ZJSY,2006-08-10 21:00,ZJSY 102100Z AUTO 32002KT 7SM 26/24 A2956 RMK T02600240 IEM_DS3505
ZJSY,2006-08-10 22:00,ZJSY 102200Z AUTO 00000KT 7SM 26/24 A2956 RMK T02600240 IEM_DS3505
ZJSY,2006-08-10 23:00,ZJSY 102300Z AUTO 36002KT 7SM 26/24 A2956 RMK T02600240 IEM_DS3505
ZJSY,2006-08-11 00:00,ZJSY 110000Z AUTO 6SM 28/25 A2956 RMK T02800250 IEM_DS3505
ZJSY,2006-08-11 01:00,ZJSY 110100Z AUTO 18004KT 6SM 29/25 A2959 RMK T02900250 IEM_DS3505
ZJSY,2006-08-11 02:00,ZJSY 110200Z AUTO 24008KT 7SM 30/25 A2959 RMK T03000250 IEM_DS3505
ZJSY,2006-08-11 03:00,ZJSY 110300Z AUTO 23006KT 7SM 30/26 A2959 RMK T03000260 IEM_DS3505
ZJSY,2006-08-11 04:00,ZJSY 110400Z AUTO 25010KT 7SM 30/25 A2959 RMK T03000250 IEM_DS3505
ZJSY,2006-08-11 05:00,ZJSY 110500Z AUTO 22008KT 7SM 31/25 A2959 RMK T03100250 IEM_DS3505
ZJSY,2006-08-11 06:00,ZJSY 110600Z AUTO 25006KT 7SM 29/25 A2956 RMK T02900250 IEM_DS3505
ZJSY,2006-08-11 07:00,ZJSY 110700Z AUTO 06004KT 7SM 30/25 A2956 RMK T03000250 IEM_DS3505
ZJSY,2006-08-11 08:00,ZJSY 110800Z AUTO 19004KT 7SM 30/26 A2953 RMK T03000260 IEM_DS3505
ZJSY,2006-08-11 09:00,ZJSY 110900Z AUTO 20004KT 7SM 29/26 A2953 RMK T02900260 IEM_DS3505
ZJSY,2006-08-11 10:00,ZJSY 111000Z AUTO 25004KT 7SM 29/25 A2953 RMK T02900250 IEM_DS3505
ZJSY,2006-08-11 11:00,ZJSY 111100Z AUTO 35002KT 7SM 29/25 A2956 RMK T02900250 IEM_DS3505
ZJSY,2006-08-11 12:00,ZJSY 111200Z AUTO 00000KT 7SM 29/25 A2956 RMK T02900250 IEM_DS3505
ZJSY,2006-08-11 13:00,ZJSY 111300Z AUTO 08006KT 7SM 28/25 A2956 RMK T02800250 IEM_DS3505
ZJSY,2006-08-11 14:00,ZJSY 111400Z AUTO 7SM 28/25 A2959 RMK T02800250 IEM_DS3505
ZJSY,2006-08-11 15:00,ZJSY 111500Z AUTO 31002KT 7SM 27/25 A2962 RMK T02700250 IEM_DS3505
ZJSY,2006-08-11 16:00,ZJSY 111600Z AUTO 34002KT 7SM 27/24 A2962 RMK T02700240 IEM_DS3505
ZJSY,2006-08-11 17:00,ZJSY 111700Z AUTO 7SM 27/25 A2962 RMK T02700250 IEM_DS3505
ZJSY,2006-08-11 18:00,ZJSY 111800Z AUTO 32002KT 27/24 A2959 RMK T02700240 IEM_DS3505
ZJSY,2006-08-11 19:00,ZJSY 111900Z AUTO 00000KT 27/24 A2959 RMK T02700240 IEM_DS3505
ZJSY,2006-08-11 20:00,ZJSY 112000Z AUTO 34002KT 27/25 A2959 RMK T02700250 IEM_DS3505
ZJSY,2006-08-11 21:00,ZJSY 112100Z AUTO 7SM 27/24 A2956 RMK T02700240 IEM_DS3505
ZJSY,2006-08-11 22:00,ZJSY 112200Z AUTO 34002KT 7SM 26/24 A2956 RMK T02600240 IEM_DS3505
ZJSY,2006-08-11 23:00,ZJSY 112300Z AUTO 30004KT 7SM 26/24 A2959 RMK T02600240 IEM_DS3505
ZJSY,2006-08-12 00:00,ZJSY 120000Z AUTO 6SM 27/25 A2959 RMK T02700250 IEM_DS3505
ZJSY,2006-08-12 01:00,ZJSY 120100Z AUTO 00000KT 7SM 29/24 A2962 RMK T02900240 IEM_DS3505
ZJSY,2006-08-12 02:00,ZJSY 120200Z AUTO 11004KT 7SM 31/25 A2962 RMK T03100250 IEM_DS3505
ZJSY,2006-08-12 03:00,ZJSY 120300Z AUTO 10004KT 7SM 30/25 A2962 RMK T03000250 IEM_DS3505
ZJSY,2006-08-12 04:00,ZJSY 120400Z AUTO 14006KT 5SM 31/26 A2962 RMK T03100260 IEM_DS3505
ZJSY,2006-08-12 05:00,ZJSY 120500Z AUTO 15006KT 5SM 30/25 A2962 RMK T03000250 IEM_DS3505
ZJSY,2006-08-12 06:00,ZJSY 120600Z AUTO 16006KT 5SM 31/24 A2959 RMK T03100240 IEM_DS3505
ZJSY,2006-08-12 07:00,ZJSY 120700Z AUTO 18004KT 5SM 30/25 A2956 RMK T03000250 IEM_DS3505
ZJSY,2006-08-12 08:00,ZJSY 120800Z AUTO 5SM 30/25 A2956 RMK T03000250 IEM_DS3505
ZJSY,2006-08-12 09:00,ZJSY 120900Z AUTO 07006KT 7SM 30/25 A2956 RMK T03000250 IEM_DS3505
ZJSY,2006-08-12 10:00,ZJSY 121000Z AUTO 08010KT 7SM 30/25 A2956 RMK T03000250 IEM_DS3505
ZJSY,2006-08-12 11:00,ZJSY 121100Z AUTO 08006KT 7SM 29/24 A2959 RMK T02900240 IEM_DS3505
ZJSY,2006-08-12 12:00,ZJSY 121200Z AUTO 05004KT 6SM 29/25 A2959 RMK T02900250 IEM_DS3505
ZJSY,2006-08-12 13:00,ZJSY 121300Z AUTO 08006KT 6SM 28/25 A2962 RMK T02800250 IEM_DS3505
ZJSY,2006-08-12 14:00,ZJSY 121400Z AUTO 06004KT 6SM 28/25 A2962 RMK T02800250 IEM_DS3505
ZJSY,2006-08-12 15:00,ZJSY 121500Z AUTO 6SM 27/25 A2965 RMK T02700250 IEM_DS3505
ZJSY,2006-08-12 16:00,ZJSY 121600Z AUTO 00000KT 6SM 27/25 A2965 RMK T02700250 IEM_DS3505
ZJSY,2006-08-12 17:00,ZJSY 121700Z AUTO 32004KT 6SM 26/24 A2962 RMK T02600240 IEM_DS3505
ZJSY,2006-08-12 18:00,ZJSY 121800Z AUTO 33004KT 26/24 A2959 RMK T02600240 IEM_DS3505
ZJSY,2006-08-12 19:00,ZJSY 121900Z AUTO 09002KT 26/24 A2959 RMK T02600240 IEM_DS3505
ZJSY,2006-08-12 20:00,ZJSY 122000Z AUTO 33004KT 26/24 A2959 RMK T02600240 IEM_DS3505
ZJSY,2006-08-12 21:00,ZJSY 122100Z AUTO 00000KT 7SM 26/24 A2959 RMK T02600240 IEM_DS3505
ZJSY,2006-08-12 22:00,ZJSY 122200Z AUTO 36002KT 7SM 26/24 A2959 RMK T02600240 IEM_DS3505
ZJSY,2006-08-12 23:00,ZJSY 122300Z AUTO 33004KT 7SM 26/24 A2959 RMK T02600240 IEM_DS3505
ZJSY,2006-08-13 00:00,ZJSY 130000Z AUTO 34004KT 7SM 27/24 A2959 RMK T02700240 IEM_DS3505
ZJSY,2006-08-13 01:00,ZJSY 130100Z AUTO 7SM 28/24 A2962 RMK T02800240 IEM_DS3505
ZJSY,2006-08-13 02:00,ZJSY 130200Z AUTO 00000KT 7SM 28/25 A2962 RMK T02800250 IEM_DS3505
ZJSY,2006-08-13 03:00,ZJSY 130300Z AUTO 7SM 29/25 A2959 RMK T02900250 IEM_DS3505
ZJSY,2006-08-13 04:00,ZJSY 130400Z AUTO 20004KT 7SM 30/25 A2959 RMK T03000250 IEM_DS3505
ZJSY,2006-08-13 05:00,ZJSY 130500Z 22002MPS 180V250 9999 SCT016 FEW023TCU 30/25 Q1002 NOSIG
ZJSY,2006-08-13 06:00,ZJSY 130600Z AUTO 15004KT 7SM 30/26 A2956 RMK T03000260 IEM_DS3505
ZJSY,2006-08-13 07:00,ZJSY 130700Z AUTO 09012KT 7SM 31/25 A2956 RMK T03100250 IEM_DS3505
ZJSY,2006-08-13 08:00,ZJSY 130800Z AUTO 08012KT 7SM 30/25 A2956 RMK T03000250 IEM_DS3505
ZJSY,2006-08-13 09:00,ZJSY 130900Z AUTO 08008KT 7SM 30/25 A2956 RMK T03000250 IEM_DS3505
ZJSY,2006-08-13 10:00,ZJSY 131000Z AUTO 07008KT 7SM 30/24 A2956 RMK T03000240 IEM_DS3505
ZJSY,2006-08-13 11:00,ZJSY 131100Z AUTO 06004KT 7SM 29/24 A2956 RMK T02900240 IEM_DS3505
ZJSY,2006-08-13 12:00,ZJSY 131200Z AUTO 06004KT 7SM 29/24 A2956 RMK T02900240 IEM_DS3505
ZJSY,2006-08-13 13:00,ZJSY 131300Z AUTO 06006KT 7SM 28/25 A2962 RMK T02800250 IEM_DS3505
ZJSY,2006-08-13 14:00,ZJSY 131400Z AUTO 4SM 27/25 A2959 RMK T02700250 IEM_DS3505
ZJSY,2006-08-13 15:00,ZJSY 131500Z AUTO 08006KT 7SM 26/24 A2959 RMK T02600240 IEM_DS3505
ZJSY,2006-08-13 16:00,ZJSY 131600Z AUTO 00000KT 7SM 26/24 A2959 RMK T02600240 IEM_DS3505
ZJSY,2006-08-13 17:00,ZJSY 131700Z AUTO 00000KT 7SM 27/24 A2959 RMK T02700240 IEM_DS3505
ZJSY,2006-08-13 18:00,ZJSY 131800Z AUTO 12008KT 27/25 A2959 RMK T02700250 IEM_DS3505
ZJSY,2006-08-13 19:00,ZJSY 131900Z AUTO 05004KT 26/24 A2959 RMK T02600240 IEM_DS3505
ZJSY,2006-08-13 20:00,ZJSY 132000Z AUTO 03004KT 26/24 A2956 RMK T02600240 IEM_DS3505
ZJSY,2006-08-13 21:00,ZJSY 132100Z AUTO 08004KT 3SM 26/24 A2953 RMK T02600240 IEM_DS3505
ZJSY,2006-08-13 23:00,ZJSY 132300Z AUTO 08004KT 6SM 26/24 A2953 RMK T02600240 IEM_DS3505
ZJSY,2006-08-14 00:00,ZJSY 140000Z AUTO 08006KT 6SM 26/24 A2956 RMK T02600240 IEM_DS3505
ZJSY,2006-08-14 01:00,ZJSY 140100Z AUTO 09004KT 6SM 26/24 A2956 RMK T02600240 IEM_DS3505
ZJSY,2006-08-14 02:00,ZJSY 140200Z AUTO 02004KT 6SM 27/24 A2956 RMK T02700240 IEM_DS3505
ZJSY,2006-08-14 03:00,ZJSY 140300Z AUTO 06008KT 6SM 28/24 A2956 RMK T02800240 IEM_DS3505
ZJSY,2006-08-14 04:00,ZJSY 140400Z AUTO 06010KT 7SM 29/24 A2956 RMK T02900240 IEM_DS3505
ZJSY,2006-08-14 05:00,ZJSY 140500Z AUTO 06012KT 3SM 28/24 A2956 RMK T02800240 IEM_DS3505
ZJSY,2006-08-14 06:00,ZJSY 140600Z AUTO 06010KT 5SM 27/24 A2953 RMK T02700240 IEM_DS3505
ZJSY,2006-08-14 07:00,ZJSY 140700Z AUTO 01004KT 5SM 27/24 A2953 RMK T02700240 IEM_DS3505
ZJSY,2006-08-14 08:00,ZJSY 140800Z AUTO 08008KT 6SM 27/25 A2950 RMK T02700250 IEM_DS3505
ZJSY,2006-08-14 09:00,ZJSY 140900Z AUTO 08006KT 6SM 27/24 A2950 RMK T02700240 IEM_DS3505
ZJSY,2006-08-14 10:00,ZJSY 141000Z AUTO 06004KT 6SM 27/24 A2950 RMK T02700240 IEM_DS3505
ZJSY,2006-08-14 11:00,ZJSY 141100Z AUTO 08008KT 7SM 26/24 A2950 RMK T02600240 IEM_DS3505
ZJSY,2006-08-14 12:00,ZJSY 141200Z AUTO 08008KT 7SM 26/24 A2950 RMK T02600240 IEM_DS3505
ZJSY,2006-08-14 13:00,ZJSY 141300Z AUTO 08008KT 7SM 26/24 A2953 RMK T02600240 IEM_DS3505
ZJSY,2006-08-14 14:00,ZJSY 141400Z AUTO 08006KT 7SM 27/24 A2956 RMK T02700240 IEM_DS3505
ZJSY,2006-08-14 15:00,ZJSY 141500Z AUTO 07006KT 7SM 26/24 A2956 RMK T02600240 IEM_DS3505
ZJSY,2006-08-14 16:00,ZJSY 141600Z AUTO 07006KT 7SM 26/24 A2956 RMK T02600240 IEM_DS3505
ZJSY,2006-08-14 17:00,ZJSY 141700Z 06004MPS CAVOK 26/24 Q1001 NOSIG
ZJSY,2006-08-14 18:00,ZJSY 141800Z AUTO 07012KT 25/23 A2956 RMK T02500230 IEM_DS3505
ZJSY,2006-08-14 19:00,ZJSY 141900Z AUTO 07006KT 26/24 A2953 RMK T02600240 IEM_DS3505
ZJSY,2006-08-14 20:00,ZJSY 142000Z AUTO 07006KT 7SM 26/24 A2950 RMK T02600240 IEM_DS3505
ZJSY,2006-08-14 21:00,ZJSY 142100Z AUTO 07006KT 6SM 26/24 A2953 RMK T02600240 IEM_DS3505
ZJSY,2006-08-14 22:00,ZJSY 142200Z AUTO 07004KT 7SM 26/24 A2953 RMK T02600240 IEM_DS3505
ZJSY,2006-08-14 23:00,ZJSY 142300Z AUTO 09010KT 2SM 25/23 A2956 RMK T02500230 IEM_DS3505
ZJSY,2006-08-15 00:00,ZJSY 150000Z 08005MPS 6000 -RA SCT006 OVC030 25/24 Q1001 RERA NOSIG
ZJSY,2006-08-15 01:00,ZJSY 150100Z AUTO 06010KT 7SM 26/24 A2956 RMK T02600240 IEM_DS3505
ZJSY,2006-08-15 02:00,ZJSY 150200Z AUTO 08008KT 7SM 28/24 A2956 RMK T02800240 IEM_DS3505
ZJSY,2006-08-15 03:00,ZJSY 150300Z AUTO 05010KT 7SM 29/24 A2953 RMK T02900240 IEM_DS3505
ZJSY,2006-08-15 04:00,ZJSY 150400Z AUTO 06012KT 7SM 30/26 A2953 RMK T03000260 IEM_DS3505
ZJSY,2006-08-15 05:00,ZJSY 150500Z AUTO 06012KT 7SM 29/25 A2953 RMK T02900250 IEM_DS3505
ZJSY,2006-08-15 06:00,ZJSY 150600Z AUTO 10008KT 4SM 27/25 A2953 RMK T02700250 IEM_DS3505
ZJSY,2006-08-15 07:00,ZJSY 150700Z AUTO 09008KT 4SM 27/25 A2950 RMK T02700250 IEM_DS3505
ZJSY,2006-08-15 08:00,ZJSY 150800Z AUTO 13004KT 7SM 26/24 A2950 RMK T02600240 IEM_DS3505
ZJSY,2006-08-15 09:00,ZJSY 150900Z AUTO 00000KT 7SM 27/25 A2950 RMK T02700250 IEM_DS3505
ZJSY,2006-08-15 10:00,ZJSY 151000Z AUTO 09012KT 5SM 25/23 A2953 RMK T02500230 IEM_DS3505
ZJSY,2006-08-15 11:00,ZJSY 151100Z AUTO 06006KT 5SM 26/24 A2953 RMK T02600240 IEM_DS3505
ZJSY,2006-08-15 12:00,ZJSY 151200Z AUTO 05010KT 5SM 26/24 A2953 RMK T02600240 IEM_DS3505
ZJSY,2006-08-15 13:00,ZJSY 151300Z AUTO 06008KT 6SM 25/24 A2956 RMK T02500240 IEM_DS3505
ZJSY,2006-08-15 14:00,ZJSY 151400Z AUTO 06008KT 6SM 26/24 A2956 RMK T02600240 IEM_DS3505
ZJSY,2006-08-15 15:00,ZJSY 151500Z AUTO 06008KT 7SM 26/24 A2959 RMK T02600240 IEM_DS3505
ZJSY,2006-08-15 16:00,ZJSY 151600Z AUTO 08008KT 7SM 26/24 A2956 RMK T02600240 IEM_DS3505
ZJSY,2006-08-15 17:00,ZJSY 151700Z AUTO 06008KT 7SM 26/24 A2956 RMK T02600240 IEM_DS3505
ZJSY,2006-08-15 18:00,ZJSY 151800Z AUTO 06006KT 7SM 26/24 A2956 RMK T02600240 IEM_DS3505
ZJSY,2006-08-15 19:00,ZJSY 151900Z AUTO 06006KT 26/24 A2956 RMK T02600240 IEM_DS3505
ZJSY,2006-08-15 20:00,ZJSY 152000Z AUTO 00000KT 26/24 A2953 RMK T02600240 IEM_DS3505
ZJSY,2006-08-15 21:00,ZJSY 152100Z AUTO 35002KT 7SM 26/24 A2956 RMK T02600240 IEM_DS3505
ZJSY,2006-08-15 22:00,ZJSY 152200Z AUTO 00000KT 7SM 26/25 A2956 RMK T02600250 IEM_DS3505
ZJSY,2006-08-15 23:00,ZJSY 152300Z AUTO 03004KT 7SM 26/25 A2956 RMK T02600250 IEM_DS3505
ZJSY,2006-08-16 00:00,ZJSY 160000Z AUTO 34004KT 7SM 26/25 A2959 RMK T02600250 IEM_DS3505
ZJSY,2006-08-16 01:00,ZJSY 160100Z AUTO 06006KT 7SM 28/26 A2962 RMK T02800260 IEM_DS3505
ZJSY,2006-08-16 03:00,ZJSY 160300Z AUTO 08008KT 7SM 27/25 A2962 RMK T02700250 IEM_DS3505
ZJSY,2006-08-16 04:00,ZJSY 160400Z AUTO 07004KT 7SM 28/25 A2962 RMK T02800250 IEM_DS3505
ZJSY,2006-08-16 05:00,ZJSY 160500Z AUTO 00000KT 7SM 29/25 A2962 RMK T02900250 IEM_DS3505
ZJSY,2006-08-16 06:00,ZJSY 160600Z AUTO 7SM 29/25 A2959 RMK T02900250 IEM_DS3505
ZJSY,2006-08-16 07:00,ZJSY 160700Z AUTO 13004KT 7SM 30/26 A2959 RMK T03000260 IEM_DS3505
ZJSY,2006-08-16 08:00,ZJSY 160800Z AUTO 7SM 30/25 A2959 RMK T03000250 IEM_DS3505
ZJSY,2006-08-16 09:00,ZJSY 160900Z AUTO 15004KT 7SM 29/25 A2959 RMK T02900250 IEM_DS3505
ZJSY,2006-08-16 10:00,ZJSY 161000Z AUTO 7SM 29/25 A2959 RMK T02900250 IEM_DS3505
ZJSY,2006-08-16 11:00,ZJSY 161100Z AUTO 7SM 28/25 A2959 RMK T02800250 IEM_DS3505
ZJSY,2006-08-16 12:00,ZJSY 161200Z AUTO 12002KT 7SM 28/25 A2962 RMK T02800250 IEM_DS3505
ZJSY,2006-08-16 13:00,ZJSY 161300Z AUTO 6SM 27/25 A2965 RMK T02700250 IEM_DS3505
ZJSY,2006-08-16 14:00,ZJSY 161400Z AUTO 6SM 27/25 A2968 RMK T02700250 IEM_DS3505
ZJSY,2006-08-16 15:00,ZJSY 161500Z AUTO 6SM 27/25 A2968 RMK T02700250 IEM_DS3505
ZJSY,2006-08-16 16:00,ZJSY 161600Z AUTO 34004KT 6SM 26/25 A2968 RMK T02600250 IEM_DS3505
ZJSY,2006-08-16 17:00,ZJSY 161700Z AUTO 34004KT 6SM 26/25 A2965 RMK T02600250 IEM_DS3505
ZJSY,2006-08-16 18:00,ZJSY 161800Z AUTO 34002KT 6SM 26/24 A2965 RMK T02600240 IEM_DS3505
ZJSY,2006-08-16 19:00,ZJSY 161900Z AUTO 00000KT 26/24 A2965 RMK T02600240 IEM_DS3505
ZJSY,2006-08-16 20:00,ZJSY 162000Z AUTO 00000KT 26/24 A2965 RMK T02600240 IEM_DS3505
ZJSY,2006-08-16 21:00,ZJSY 162100Z AUTO 00000KT 26/24 A2965 RMK T02600240 IEM_DS3505
ZJSY,2006-08-16 22:00,ZJSY 162200Z AUTO 34002KT 7SM 26/24 A2965 RMK T02600240 IEM_DS3505
ZJSY,2006-08-16 23:00,ZJSY 162300Z AUTO 00000KT 7SM 26/24 A2965 RMK T02600240 IEM_DS3505
ZJSY,2006-08-17 00:00,ZJSY 170000Z AUTO 00000KT 7SM 30/26 A2968 RMK T03000260 IEM_DS3505
ZJSY,2006-08-17 01:00,ZJSY 170100Z AUTO 7SM 31/24 A2968 RMK T03100240 IEM_DS3505
ZJSY,2006-08-17 02:00,ZJSY 170200Z AUTO 23006KT 7SM 29/25 A2971 RMK T02900250 IEM_DS3505
ZJSY,2006-08-17 03:00,ZJSY 170300Z AUTO 19004KT 7SM 30/26 A2971 RMK T03000260 IEM_DS3505
ZJSY,2006-08-17 04:00,ZJSY 170400Z AUTO 20006KT 7SM 31/26 A2968 RMK T03100260 IEM_DS3505
ZJSY,2006-08-17 05:00,ZJSY 170500Z AUTO 24008KT 7SM 31/25 A2968 RMK T03100250 IEM_DS3505
ZJSY,2006-08-17 06:00,ZJSY 170600Z AUTO 25010KT 7SM 31/25 A2965 RMK T03100250 IEM_DS3505
ZJSY,2006-08-17 07:00,ZJSY 170700Z AUTO 23010KT 7SM 31/25 A2965 RMK T03100250 IEM_DS3505
ZJSY,2006-08-17 08:00,ZJSY 170800Z AUTO 25010KT 7SM 31/25 A2962 RMK T03100250 IEM_DS3505
ZJSY,2006-08-17 09:00,ZJSY 170900Z AUTO 23008KT 6SM 30/25 A2962 RMK T03000250 IEM_DS3505
ZJSY,2006-08-17 10:00,ZJSY 171000Z AUTO 24006KT 6SM 30/25 A2962 RMK T03000250 IEM_DS3505
ZJSY,2006-08-17 11:00,ZJSY 171100Z AUTO 27004KT 6SM 29/25 A2965 RMK T02900250 IEM_DS3505
ZJSY,2006-08-17 12:00,ZJSY 171200Z AUTO 6SM 29/24 A2965 RMK T02900240 IEM_DS3505
ZJSY,2006-08-17 13:00,ZJSY 171300Z AUTO 00000KT 6SM 29/24 A2968 RMK T02900240 IEM_DS3505
ZJSY,2006-08-17 14:00,ZJSY 171400Z AUTO 00000KT 6SM 28/25 A2968 RMK T02800250 IEM_DS3505
ZJSY,2006-08-17 15:00,ZJSY 171500Z AUTO 6SM 27/24 A2971 RMK T02700240 IEM_DS3505
ZJSY,2006-08-17 16:00,ZJSY 171600Z AUTO 00000KT 6SM 27/24 A2971 RMK T02700240 IEM_DS3505
ZJSY,2006-08-17 17:00,ZJSY 171700Z AUTO 34002KT 6SM 26/23 A2971 RMK T02600230 IEM_DS3505
ZJSY,2006-08-17 18:00,ZJSY 171800Z AUTO 34004KT 26/24 A2971 RMK T02600240 IEM_DS3505
ZJSY,2006-08-17 19:00,ZJSY 171900Z AUTO 34002KT 26/24 A2968 RMK T02600240 IEM_DS3505
ZJSY,2006-08-17 20:00,ZJSY 172000Z AUTO 33004KT 26/24 A2968 RMK T02600240 IEM_DS3505
ZJSY,2006-08-17 21:00,ZJSY 172100Z AUTO 00000KT 6SM 26/24 A2965 RMK T02600240 IEM_DS3505
ZJSY,2006-08-17 22:00,ZJSY 172200Z AUTO 33004KT 7SM 26/24 A2968 RMK T02600240 IEM_DS3505
ZJSY,2006-08-17 23:00,ZJSY 172300Z AUTO 00000KT 7SM 26/24 A2968 RMK T02600240 IEM_DS3505
ZJSY,2006-08-18 00:00,ZJSY 180000Z AUTO 7SM 27/25 A2968 RMK T02700250 IEM_DS3505
ZJSY,2006-08-18 01:00,ZJSY 180100Z AUTO 6SM 30/25 A2971 RMK T03000250 IEM_DS3505
ZJSY,2006-08-18 02:00,ZJSY 180200Z AUTO 7SM 30/25 A2971 RMK T03000250 IEM_DS3505
ZJSY,2006-08-18 03:00,ZJSY 180300Z AUTO 7SM 31/26 A2971 RMK T03100260 IEM_DS3505
ZJSY,2006-08-18 04:00,ZJSY 180400Z AUTO 18004KT 7SM 31/26 A2971 RMK T03100260 IEM_DS3505
ZJSY,2006-08-18 05:00,ZJSY 180500Z AUTO 16004KT 7SM 30/26 A2968 RMK T03000260 IEM_DS3505
ZJSY,2006-08-18 06:00,ZJSY 180600Z AUTO 17006KT 7SM 30/27 A2968 RMK T03000270 IEM_DS3505
ZJSY,2006-08-18 07:00,ZJSY 180700Z AUTO 20004KT 7SM 31/26 A2965 RMK T03100260 IEM_DS3505
ZJSY,2006-08-18 08:00,ZJSY 180800Z AUTO 7SM 30/26 A2962 RMK T03000260 IEM_DS3505
ZJSY,2006-08-18 09:00,ZJSY 180900Z AUTO 7SM 30/26 A2965 RMK T03000260 IEM_DS3505
ZJSY,2006-08-18 10:00,ZJSY 181000Z AUTO 7SM 30/26 A2965 RMK T03000260 IEM_DS3505
ZJSY,2006-08-18 11:00,ZJSY 181100Z AUTO 26002KT 7SM 29/26 A2965 RMK T02900260 IEM_DS3505
ZJSY,2006-08-18 12:00,ZJSY 181200Z AUTO 36002KT 7SM 29/26 A2965 RMK T02900260 IEM_DS3505
ZJSY,2006-08-18 13:00,ZJSY 181300Z AUTO 7SM 29/26 A2968 RMK T02900260 IEM_DS3505
ZJSY,2006-08-18 14:00,ZJSY 181400Z AUTO 00000KT 7SM 28/26 A2971 RMK T02800260 IEM_DS3505
ZJSY,2006-08-18 15:00,ZJSY 181500Z AUTO 6SM 28/26 A2974 RMK T02800260 IEM_DS3505
ZJSY,2006-08-18 16:00,ZJSY 181600Z AUTO 32002KT 6SM 27/25 A2974 RMK T02700250 IEM_DS3505
ZJSY,2006-08-18 17:00,ZJSY 181700Z 36001MPS 9999 SCT016 FEW018TCU 27/26 Q1006 NOSIG
ZJSY,2006-08-18 18:00,ZJSY 181800Z AUTO 32004KT 7SM 27/25 A2971 RMK T02700250 IEM_DS3505
ZJSY,2006-08-18 19:00,ZJSY 181900Z AUTO 34002KT 27/25 A2968 RMK T02700250 IEM_DS3505
ZJSY,2006-08-18 20:00,ZJSY 182000Z AUTO VRB01MPS //// // ////// 27/25 Q1005
ZJSY,2006-08-18 21:00,ZJSY 182100Z AUTO 23010KT 7SM 27/24 A2971 RMK T02700240 IEM_DS3505
ZJSY,2006-08-18 22:00,ZJSY 182200Z AUTO 7SM 26/24 A2971 RMK T02600240 IEM_DS3505
ZJSY,2006-08-18 23:00,ZJSY 182300Z AUTO 33004KT 7SM 26/25 A2971 RMK T02600250 IEM_DS3505
ZJSY,2006-08-19 00:00,ZJSY 190000Z AUTO 33004KT 7SM 28/25 A2971 RMK T02800250 IEM_DS3505
ZJSY,2006-08-19 01:00,ZJSY 190100Z AUTO 7SM 30/26 A2974 RMK T03000260 IEM_DS3505
ZJSY,2006-08-19 02:00,ZJSY 190200Z AUTO 6SM 30/26 A2977 RMK T03000260 IEM_DS3505
ZJSY,2006-08-19 03:00,ZJSY 190300Z AUTO 7SM 31/26 A2974 RMK T03100260 IEM_DS3505
ZJSY,2006-08-19 04:00,ZJSY 190400Z AUTO 23004KT 7SM 31/25 A2974 RMK T03100250 IEM_DS3505
ZJSY,2006-08-19 05:00,ZJSY 190500Z AUTO 23006KT 7SM 30/26 A2971 RMK T03000260 IEM_DS3505
ZJSY,2006-08-19 06:00,ZJSY 190600Z AUTO 24006KT 7SM 30/26 A2971 RMK T03000260 IEM_DS3505
ZJSY,2006-08-19 07:00,ZJSY 190700Z AUTO 23004KT 7SM 30/26 A2968 RMK T03000260 IEM_DS3505
ZJSY,2006-08-19 08:00,ZJSY 190800Z AUTO 7SM 30/26 A2968 RMK T03000260 IEM_DS3505
ZJSY,2006-08-19 09:00,ZJSY 190900Z AUTO 36002KT 7SM 29/26 A2968 RMK T02900260 IEM_DS3505
ZJSY,2006-08-19 10:00,ZJSY 191000Z AUTO 00000KT 7SM 30/26 A2968 RMK T03000260 IEM_DS3505
ZJSY,2006-08-19 11:00,ZJSY 191100Z AUTO 08002KT 7SM 29/26 A2971 RMK T02900260 IEM_DS3505
ZJSY,2006-08-19 12:00,ZJSY 191200Z AUTO 7SM 28/25 A2971 RMK T02800250 IEM_DS3505
ZJSY,2006-08-19 13:00,ZJSY 191300Z AUTO 00000KT 7SM 28/26 A2974 RMK T02800260 IEM_DS3505
ZJSY,2006-08-19 14:00,ZJSY 191400Z AUTO 00000KT 7SM 28/25 A2977 RMK T02800250 IEM_DS3505
ZJSY,2006-08-19 15:00,ZJSY 191500Z AUTO 7SM 27/25 A2974 RMK T02700250 IEM_DS3505
ZJSY,2006-08-19 16:00,ZJSY 191600Z AUTO 00000KT 7SM 27/25 A2974 RMK T02700250 IEM_DS3505
ZJSY,2006-08-19 17:00,ZJSY 191700Z AUTO 34002KT 7SM 27/25 A2974 RMK T02700250 IEM_DS3505
ZJSY,2006-08-19 18:00,ZJSY 191800Z AUTO 33002KT 27/25 A2971 RMK T02700250 IEM_DS3505
ZJSY,2006-08-19 19:00,ZJSY 191900Z AUTO 00000KT 27/25 A2971 RMK T02700250 IEM_DS3505
ZJSY,2006-08-19 20:00,ZJSY 192000Z AUTO 33004KT 27/25 A2968 RMK T02700250 IEM_DS3505
ZJSY,2006-08-19 21:00,ZJSY 192100Z AUTO 32002KT 7SM 27/25 A2968 RMK T02700250 IEM_DS3505
ZJSY,2006-08-19 22:00,ZJSY 192200Z AUTO 30004KT 7SM 27/25 A2968 RMK T02700250 IEM_DS3505
ZJSY,2006-08-19 23:00,ZJSY 192300Z AUTO 29006KT 7SM 28/25 A2971 RMK T02800250 IEM_DS3505
ZJSY,2006-08-20 00:00,ZJSY 200000Z AUTO 29006KT 7SM 29/25 A2971 RMK T02900250 IEM_DS3505
ZJSY,2006-08-20 01:00,ZJSY 200100Z AUTO 27004KT 7SM 29/25 A2974 RMK T02900250 IEM_DS3505
ZJSY,2006-08-20 02:00,ZJSY 200200Z AUTO 26008KT 7SM 30/25 A2974 RMK T03000250 IEM_DS3505
ZJSY,2006-08-20 03:00,ZJSY 200300Z AUTO 26008KT 7SM 30/26 A2974 RMK T03000260 IEM_DS3505
ZJSY,2006-08-20 04:00,ZJSY 200400Z AUTO 24012KT 7SM 30/26 A2971 RMK T03000260 IEM_DS3505
ZJSY,2006-08-20 05:00,ZJSY 200500Z AUTO 25010KT 7SM 31/26 A2968 RMK T03100260 IEM_DS3505
ZJSY,2006-08-20 06:00,ZJSY 200600Z AUTO 25014KT 7SM 30/25 A2968 RMK T03000250 IEM_DS3505
ZJSY,2006-08-20 07:00,ZJSY 200700Z AUTO 25012KT 7SM 29/25 A2965 RMK T02900250 IEM_DS3505
ZJSY,2006-08-20 08:00,ZJSY 200800Z AUTO 26010KT 7SM 30/25 A2965 RMK T03000250 IEM_DS3505
ZJSY,2006-08-20 09:00,ZJSY 200900Z AUTO 27010KT 7SM 30/25 A2965 RMK T03000250 IEM_DS3505
ZJSY,2006-08-20 10:00,ZJSY 201000Z AUTO 27006KT 7SM 29/25 A2968 RMK T02900250 IEM_DS3505
ZJSY,2006-08-20 11:00,ZJSY 201100Z AUTO 27008KT 7SM 29/24 A2968 RMK T02900240 IEM_DS3505
ZJSY,2006-08-20 12:00,ZJSY 201200Z AUTO 29006KT 7SM 29/24 A2971 RMK T02900240 IEM_DS3505
ZJSY,2006-08-20 13:00,ZJSY 201300Z AUTO 7SM 28/24 A2974 RMK T02800240 IEM_DS3505
ZJSY,2006-08-20 14:00,ZJSY 201400Z AUTO 7SM 28/24 A2977 RMK T02800240 IEM_DS3505
ZJSY,2006-08-20 15:00,ZJSY 201500Z AUTO 27004KT 7SM 28/24 A2977 RMK T02800240 IEM_DS3505
ZJSY,2006-08-20 16:00,ZJSY 201600Z AUTO 29004KT 7SM 28/24 A2974 RMK T02800240 IEM_DS3505
ZJSY,2006-08-20 17:00,ZJSY 201700Z AUTO 28006KT 7SM 28/24 A2971 RMK T02800240 IEM_DS3505
ZJSY,2006-08-20 18:00,ZJSY 201800Z AUTO 29006KT 7SM 28/23 A2968 RMK T02800230 IEM_DS3505
ZJSY,2006-08-20 19:00,ZJSY 201900Z AUTO 30004KT 28/23 A2968 RMK T02800230 IEM_DS3505
ZJSY,2006-08-20 20:00,ZJSY 202000Z AUTO 30006KT 28/23 A2968 RMK T02800230 IEM_DS3505
ZJSY,2006-08-20 21:00,ZJSY 202100Z AUTO 30004KT 7SM 28/23 A2968 RMK T02800230 IEM_DS3505
ZJSY,2006-08-20 22:00,ZJSY 202200Z AUTO 28004KT 7SM 27/24 A2968 RMK T02700240 IEM_DS3505
ZJSY,2006-08-20 23:00,ZJSY 202300Z AUTO 29004KT 7SM 27/24 A2968 RMK T02700240 IEM_DS3505
ZJSY,2006-08-21 00:00,ZJSY 210000Z AUTO 29004KT 7SM 29/25 A2968 RMK T02900250 IEM_DS3505
ZJSY,2006-08-21 01:00,ZJSY 210100Z AUTO 28006KT 7SM 29/25 A2971 RMK T02900250 IEM_DS3505
ZJSY,2006-08-21 02:00,ZJSY 210200Z AUTO 26006KT 7SM 30/25 A2971 RMK T03000250 IEM_DS3505
ZJSY,2006-08-21 03:00,ZJSY 210300Z AUTO 24008KT 7SM 30/25 A2971 RMK T03000250 IEM_DS3505
ZJSY,2006-08-21 04:00,ZJSY 210400Z AUTO 23008KT 7SM 31/27 A2968 RMK T03100270 IEM_DS3505
ZJSY,2006-08-21 05:00,ZJSY 210500Z AUTO 24010KT 7SM 31/26 A2968 RMK T03100260 IEM_DS3505
ZJSY,2006-08-21 06:00,ZJSY 210600Z AUTO 24014KT 7SM 31/25 A2965 RMK T03100250 IEM_DS3505
ZJSY,2006-08-21 07:00,ZJSY 210700Z AUTO 25014KT 7SM 31/25 A2962 RMK T03100250 IEM_DS3505
ZJSY,2006-08-21 08:00,ZJSY 210800Z AUTO 25012KT 7SM 31/25 A2959 RMK T03100250 IEM_DS3505
ZJSY,2006-08-21 09:00,ZJSY 210900Z AUTO 26012KT 7SM 31/24 A2962 RMK T03100240 IEM_DS3505
ZJSY,2006-08-21 10:00,ZJSY 211000Z AUTO 27010KT 7SM 30/24 A2962 RMK T03000240 IEM_DS3505
ZJSY,2006-08-21 11:00,ZJSY 211100Z AUTO 26008KT 7SM 29/24 A2965 RMK T02900240 IEM_DS3505
ZJSY,2006-08-21 12:00,ZJSY 211200Z AUTO 27008KT 7SM 29/24 A2965 RMK T02900240 IEM_DS3505
ZJSY,2006-08-21 13:00,ZJSY 211300Z 27002MPS CAVOK 28/24 Q1005 NOSIG
ZJSY,2006-08-21 14:00,ZJSY 211400Z AUTO 6SM 28/24 A2968 RMK T02800240 IEM_DS3505
ZJSY,2006-08-21 15:00,ZJSY 211500Z AUTO 15006KT 4SM 27/24 A2968 RMK T02700240 IEM_DS3505
ZJSY,2006-08-21 16:00,ZJSY 211600Z AUTO 35008KT 7SM 25/23 A2968 RMK T02500230 IEM_DS3505
ZJSY,2006-08-21 17:00,ZJSY 211700Z AUTO 32004KT 4SM 25/24 A2965 RMK T02500240 IEM_DS3505
ZJSY,2006-08-21 18:00,ZJSY 211800Z AUTO 35002KT 4SM 25/24 A2965 RMK T02500240 IEM_DS3505
ZJSY,2006-08-21 19:00,ZJSY 211900Z AUTO 25/24 A2962 RMK T02500240 IEM_DS3505
ZJSY,2006-08-21 20:00,ZJSY 212000Z AUTO 25/24 A2962 RMK T02500240 IEM_DS3505
ZJSY,2006-08-21 21:00,ZJSY 212100Z AUTO 00000KT 7SM 25/24 A2962 RMK T02500240 IEM_DS3505
ZJSY,2006-08-21 22:00,ZJSY 212200Z AUTO 08004KT 7SM 25/24 A2962 RMK T02500240 IEM_DS3505
ZJSY,2006-08-21 23:00,ZJSY 212300Z AUTO 00000KT 7SM 26/24 A2962 RMK T02600240 IEM_DS3505
ZJSY,2006-08-22 00:00,ZJSY 220000Z AUTO 08008KT 7SM 26/24 A2962 RMK T02600240 IEM_DS3505
ZJSY,2006-08-22 01:00,ZJSY 220100Z AUTO 4SM 25/24 A2965 RMK T02500240 IEM_DS3505
ZJSY,2006-08-22 02:00,ZJSY 220200Z AUTO 08006KT 1 1/2SM 25/23 A2965 RMK T02500230 IEM_DS3505
ZJSY,2006-08-22 03:00,ZJSY 220300Z AUTO 00000KT 2SM 25/24 A2965 RMK T02500240 IEM_DS3505
ZJSY,2006-08-22 04:00,ZJSY 220400Z AUTO 04004KT 5SM 25/24 A2965 RMK T02500240 IEM_DS3505
ZJSY,2006-08-22 05:00,ZJSY 220500Z AUTO 08006KT 6SM 25/24 A2962 RMK T02500240 IEM_DS3505
ZJSY,2006-08-22 06:00,ZJSY 220600Z AUTO 08006KT 5SM 26/24 A2959 RMK T02600240 IEM_DS3505
ZJSY,2006-08-22 07:00,ZJSY 220700Z AUTO 09004KT 5SM 26/24 A2959 RMK T02600240 IEM_DS3505
ZJSY,2006-08-22 08:00,ZJSY 220800Z AUTO 08006KT 7SM 27/24 A2956 RMK T02700240 IEM_DS3505
ZJSY,2006-08-22 09:00,ZJSY 220900Z AUTO 05006KT 7SM 27/24 A2956 RMK T02700240 IEM_DS3505
ZJSY,2006-08-22 10:00,ZJSY 221000Z AUTO 23002KT 7SM 26/24 A2956 RMK T02600240 IEM_DS3505
ZJSY,2006-08-22 11:00,ZJSY 221100Z AUTO 28004KT 7SM 26/24 A2959 RMK T02600240 IEM_DS3505
ZJSY,2006-08-22 12:00,ZJSY 221200Z AUTO 03002KT 7SM 26/24 A2962 RMK T02600240 IEM_DS3505
ZJSY,2006-08-22 13:00,ZJSY 221300Z AUTO 08006KT 7SM 26/24 A2962 RMK T02600240 IEM_DS3505
ZJSY,2006-08-22 14:00,ZJSY 221400Z AUTO 7SM 26/24 A2965 RMK T02600240 IEM_DS3505
ZJSY,2006-08-22 15:00,ZJSY 221500Z AUTO 00000KT 7SM 26/24 A2965 RMK T02600240 IEM_DS3505
ZJSY,2006-08-22 16:00,ZJSY 221600Z AUTO 32004KT 7SM 25/24 A2965 RMK T02500240 IEM_DS3505
ZJSY,2006-08-22 17:00,ZJSY 221700Z AUTO 32004KT 7SM 25/24 A2962 RMK T02500240 IEM_DS3505
ZJSY,2006-08-22 18:00,ZJSY 221800Z AUTO 28002KT 7SM 25/24 A2962 RMK T02500240 IEM_DS3505
ZJSY,2006-08-22 21:00,ZJSY 222100Z AUTO 09002KT 7SM 25/23 A2959 RMK T02500230 IEM_DS3505
ZJSY,2006-08-22 22:00,ZJSY 222200Z AUTO 32004KT 7SM 25/23 A2962 RMK T02500230 IEM_DS3505
ZJSY,2006-08-22 23:00,ZJSY 222300Z AUTO 01002KT 7SM 25/23 A2962 RMK T02500230 IEM_DS3505
ZJSY,2006-08-23 00:00,ZJSY 230000Z AUTO 7SM 26/23 A2965 RMK T02600230 IEM_DS3505
ZJSY,2006-08-23 01:00,ZJSY 230100Z AUTO 10002KT 7SM 27/24 A2968 RMK T02700240 IEM_DS3505
ZJSY,2006-08-23 02:00,ZJSY 230200Z AUTO 00000KT 7SM 28/25 A2968 RMK T02800250 IEM_DS3505
ZJSY,2006-08-23 03:00,ZJSY 230300Z AUTO 7SM 29/25 A2968 RMK T02900250 IEM_DS3505
ZJSY,2006-08-23 04:00,ZJSY 230400Z AUTO 7SM 29/25 A2965 RMK T02900250 IEM_DS3505
ZJSY,2006-08-23 05:00,ZJSY 230500Z AUTO 19004KT 4SM 30/24 A2965 RMK T03000240 IEM_DS3505
ZJSY,2006-08-23 06:00,ZJSY 230600Z AUTO 23008KT 4SM 30/25 A2962 RMK T03000250 IEM_DS3505
ZJSY,2006-08-23 07:00,ZJSY 230700Z AUTO 24010KT 4SM 30/24 A2959 RMK T03000240 IEM_DS3505
ZJSY,2006-08-23 08:00,ZJSY 230800Z AUTO 3SM 26/23 A2962 RMK T02600230 IEM_DS3505
ZJSY,2006-08-23 09:00,ZJSY 230900Z AUTO 07004KT 4SM 26/24 A2962 RMK T02600240 IEM_DS3505
ZJSY,2006-08-23 10:00,ZJSY 231000Z AUTO 01004KT 3SM 26/24 A2962 RMK T02600240 IEM_DS3505
ZJSY,2006-08-23 11:00,ZJSY 231100Z AUTO 05002KT 4SM 26/24 A2962 RMK T02600240 IEM_DS3505
ZJSY,2006-08-23 12:00,ZJSY 231200Z AUTO 4SM 26/24 A2965 RMK T02600240 IEM_DS3505
ZJSY,2006-08-23 13:00,ZJSY 231300Z AUTO 4SM 25/24 A2965 RMK T02500240 IEM_DS3505
ZJSY,2006-08-23 14:00,ZJSY 231400Z AUTO 35002KT 4SM 25/24 A2968 RMK T02500240 IEM_DS3505
ZJSY,2006-08-23 15:00,ZJSY 231500Z AUTO 4SM 25/23 A2971 RMK T02500230 IEM_DS3505
ZJSY,2006-08-23 16:00,ZJSY 231600Z AUTO 33004KT 4SM 25/23 A2971 RMK T02500230 IEM_DS3505
ZJSY,2006-08-23 17:00,ZJSY 231700Z AUTO 00000KT 4SM 24/23 A2968 RMK T02400230 IEM_DS3505
ZJSY,2006-08-23 18:00,ZJSY 231800Z AUTO 00000KT 24/23 A2968 RMK T02400230 IEM_DS3505
ZJSY,2006-08-23 19:00,ZJSY 231900Z AUTO 35002KT 24/23 A2965 RMK T02400230 IEM_DS3505
ZJSY,2006-08-23 20:00,ZJSY 232000Z AUTO 02002KT 24/23 A2965 RMK T02400230 IEM_DS3505
ZJSY,2006-08-23 21:00,ZJSY 232100Z AUTO 7SM 24/22 A2965 RMK T02400220 IEM_DS3505
ZJSY,2006-08-23 22:00,ZJSY 232200Z AUTO 00000KT 7SM 24/22 A2968 RMK T02400220 IEM_DS3505
ZJSY,2006-08-23 23:00,ZJSY 232300Z AUTO 00000KT 3SM 24/22 A2968 RMK T02400220 IEM_DS3505
ZJSY,2006-08-24 00:00,ZJSY 240000Z AUTO 00000KT 3SM 26/24 A2968 RMK T02600240 IEM_DS3505
ZJSY,2006-08-24 01:00,ZJSY 240100Z AUTO 00000KT 4SM 29/23 A2971 RMK T02900230 IEM_DS3505
ZJSY,2006-08-24 02:00,ZJSY 240200Z AUTO 28006KT 4SM 29/24 A2971 RMK T02900240 IEM_DS3505
ZJSY,2006-08-24 03:00,ZJSY 240300Z AUTO 00000KT 4SM 31/24 A2971 RMK T03100240 IEM_DS3505
ZJSY,2006-08-24 04:00,ZJSY 240400Z AUTO 18006KT 4SM 29/25 A2971 RMK T02900250 IEM_DS3505
ZJSY,2006-08-24 05:00,ZJSY 240500Z AUTO 21006KT 4SM 30/25 A2968 RMK T03000250 IEM_DS3505
ZJSY,2006-08-24 06:00,ZJSY 240600Z AUTO 22008KT 4SM 30/26 A2968 RMK T03000260 IEM_DS3505
ZJSY,2006-08-24 07:00,ZJSY 240700Z AUTO 22008KT 3SM 30/26 A2968 RMK T03000260 IEM_DS3505
ZJSY,2006-08-24 08:00,ZJSY 240800Z AUTO 25006KT 3SM 28/26 A2965 RMK T02800260 IEM_DS3505
ZJSY,2006-08-24 09:00,ZJSY 240900Z AUTO 28004KT 2SM 28/26 A2965 RMK T02800260 IEM_DS3505
ZJSY,2006-08-24 10:00,ZJSY 241000Z AUTO 25006KT 1 1/2SM 28/26 A2965 RMK T02800260 IEM_DS3505
ZJSY,2006-08-24 11:00,ZJSY 241100Z AUTO 1 1/2SM 28/26 A2968 RMK T02800260 IEM_DS3505
ZJSY,2006-08-24 12:00,ZJSY 241200Z AUTO 28004KT 1 1/2SM 28/26 A2968 RMK T02800260 IEM_DS3505
ZJSY,2006-08-24 13:00,ZJSY 241300Z AUTO 1 1/2SM 27/26 A2971 RMK T02700260 IEM_DS3505
ZJSY,2006-08-24 14:00,ZJSY 241400Z AUTO 04004KT 2SM 28/26 A2971 RMK T02800260 IEM_DS3505
ZJSY,2006-08-24 15:00,ZJSY 241500Z AUTO 2SM 27/26 A2974 RMK T02700260 IEM_DS3505
ZJSY,2006-08-24 16:00,ZJSY 241600Z AUTO 2 1/2SM 27/26 A2974 RMK T02700260 IEM_DS3505
ZJSY,2006-08-24 17:00,ZJSY 241700Z AUTO 34002KT 2 1/2SM 27/25 A2974 RMK T02700250 IEM_DS3505
ZJSY,2006-08-24 18:00,ZJSY 241800Z AUTO 34002KT 27/25 A2974 RMK T02700250 IEM_DS3505
ZJSY,2006-08-24 19:00,ZJSY 241900Z AUTO 36002KT 26/25 A2971 RMK T02600250 IEM_DS3505
ZJSY,2006-08-24 20:00,ZJSY 242000Z AUTO 00000KT 26/25 A2971 RMK T02600250 IEM_DS3505
ZJSY,2006-08-24 21:00,ZJSY 242100Z AUTO 30002KT 3SM 26/25 A2971 RMK T02600250 IEM_DS3505
ZJSY,2006-08-24 22:00,ZJSY 242200Z AUTO 30002KT 3SM 26/25 A2971 RMK T02600250 IEM_DS3505
ZJSY,2006-08-24 23:00,ZJSY 242300Z AUTO 08002KT 2SM 26/25 A2971 RMK T02600250 IEM_DS3505
ZJSY,2006-08-25 00:00,ZJSY 250000Z AUTO 2SM 26/25 A2974 RMK T02600250 IEM_DS3505
ZJSY,2006-08-25 01:00,ZJSY 250100Z AUTO 2SM 27/26 A2977 RMK T02700260 IEM_DS3505
ZJSY,2006-08-25 02:00,ZJSY 250200Z AUTO 1 1/2SM 29/26 A2977 RMK T02900260 IEM_DS3505
ZJSY,2006-08-25 03:00,ZJSY 250300Z AUTO 20006KT 2SM 29/26 A2977 RMK T02900260 IEM_DS3505
ZJSY,2006-08-25 04:00,ZJSY 250400Z AUTO 22006KT 2SM 30/27 A2977 RMK T03000270 IEM_DS3505
ZJSY,2006-08-25 05:00,ZJSY 250500Z AUTO 22008KT 2SM 30/25 A2974 RMK T03000250 IEM_DS3505
ZJSY,2006-08-25 06:00,ZJSY 250600Z AUTO 23006KT 2 1/2SM 31/26 A2974 RMK T03100260 IEM_DS3505
ZJSY,2006-08-25 07:00,ZJSY 250700Z AUTO 22006KT 2 1/2SM 30/26 A2971 RMK T03000260 IEM_DS3505
ZJSY,2006-08-25 08:00,ZJSY 250800Z AUTO 23006KT 2 1/2SM 30/26 A2968 RMK T03000260 IEM_DS3505
ZJSY,2006-08-25 09:00,ZJSY 250900Z AUTO 21004KT 2 1/2SM 29/26 A2968 RMK T02900260 IEM_DS3505
ZJSY,2006-08-25 10:00,ZJSY 251000Z AUTO 2 1/2SM 29/26 A2965 RMK T02900260 IEM_DS3505
ZJSY,2006-08-25 11:00,ZJSY 251100Z AUTO 2 1/2SM 28/25 A2968 RMK T02800250 IEM_DS3505
ZJSY,2006-08-25 12:00,ZJSY 251200Z AUTO 18002KT 2 1/2SM 28/25 A2971 RMK T02800250 IEM_DS3505
ZJSY,2006-08-25 13:00,ZJSY 251300Z AUTO 00000KT 2 1/2SM 28/25 A2974 RMK T02800250 IEM_DS3505
ZJSY,2006-08-25 14:00,ZJSY 251400Z AUTO 00000KT 2SM 27/25 A2974 RMK T02700250 IEM_DS3505
ZJSY,2006-08-25 15:00,ZJSY 251500Z AUTO 35002KT 2SM 27/25 A2977 RMK T02700250 IEM_DS3505
ZJSY,2006-08-25 16:00,ZJSY 251600Z AUTO 00000KT 2SM 27/25 A2977 RMK T02700250 IEM_DS3505
ZJSY,2006-08-25 17:00,ZJSY 251700Z AUTO 34004KT 2SM 27/25 A2977 RMK T02700250 IEM_DS3505
ZJSY,2006-08-25 18:00,ZJSY 251800Z AUTO 02002KT 2SM 27/25 A2974 RMK T02700250 IEM_DS3505
ZJSY,2006-08-25 19:00,ZJSY 251900Z AUTO 00000KT 27/25 A2974 RMK T02700250 IEM_DS3505
ZJSY,2006-08-25 20:00,ZJSY 252000Z AUTO 00000KT 26/25 A2971 RMK T02600250 IEM_DS3505
ZJSY,2006-08-25 21:00,ZJSY 252100Z AUTO 33004KT 26/25 A2971 RMK T02600250 IEM_DS3505
ZJSY,2006-08-25 22:00,ZJSY 252200Z AUTO 34004KT 4SM 26/25 A2971 RMK T02600250 IEM_DS3505
ZJSY,2006-08-25 23:00,ZJSY 252300Z AUTO 33002KT 2 1/2SM 26/24 A2971 RMK T02600240 IEM_DS3505
ZJSY,2006-08-26 00:00,ZJSY 260000Z AUTO 33002KT 2 1/2SM 27/25 A2971 RMK T02700250 IEM_DS3505
ZJSY,2006-08-26 01:00,ZJSY 260100Z AUTO 00000KT 4SM 30/26 A2974 RMK T03000260 IEM_DS3505
ZJSY,2006-08-26 02:00,ZJSY 260200Z AUTO 7SM 31/25 A2974 RMK T03100250 IEM_DS3505
ZJSY,2006-08-26 03:00,ZJSY 260300Z AUTO 15008KT 4SM 27/24 A2977 RMK T02700240 IEM_DS3505
ZJSY,2006-08-26 04:00,ZJSY 260400Z AUTO 7SM 28/26 A2977 RMK T02800260 IEM_DS3505
ZJSY,2006-08-26 05:00,ZJSY 260500Z AUTO 34004KT 7SM 30/26 A2974 RMK T03000260 IEM_DS3505
ZJSY,2006-08-26 06:00,ZJSY 260600Z AUTO 15004KT 7SM 31/25 A2971 RMK T03100250 IEM_DS3505
ZJSY,2006-08-26 07:00,ZJSY 260700Z AUTO 19004KT 7SM 31/26 A2968 RMK T03100260 IEM_DS3505
ZJSY,2006-08-26 08:00,ZJSY 260800Z AUTO 17004KT 7SM 30/26 A2965 RMK T03000260 IEM_DS3505
ZJSY,2006-08-26 09:00,ZJSY 260900Z AUTO 18004KT 7SM 30/26 A2965 RMK T03000260 IEM_DS3505
ZJSY,2006-08-26 10:00,ZJSY 261000Z AUTO 17004KT 7SM 29/26 A2965 RMK T02900260 IEM_DS3505
ZJSY,2006-08-26 11:00,ZJSY 261100Z AUTO 15004KT 7SM 29/25 A2968 RMK T02900250 IEM_DS3505
ZJSY,2006-08-26 12:00,ZJSY 261200Z AUTO 14004KT 7SM 29/25 A2968 RMK T02900250 IEM_DS3505
ZJSY,2006-08-26 13:00,ZJSY 261300Z AUTO 09004KT 7SM 28/25 A2971 RMK T02800250 IEM_DS3505
ZJSY,2006-08-26 14:00,ZJSY 261400Z AUTO 07004KT 7SM 28/25 A2974 RMK T02800250 IEM_DS3505
ZJSY,2006-08-26 15:00,ZJSY 261500Z AUTO 05004KT 7SM 28/25 A2977 RMK T02800250 IEM_DS3505
ZJSY,2006-08-26 16:00,ZJSY 261600Z AUTO 00000KT 6SM 27/25 A2974 RMK T02700250 IEM_DS3505
ZJSY,2006-08-26 17:00,ZJSY 261700Z AUTO 06004KT 7SM 27/25 A2974 RMK T02700250 IEM_DS3505
ZJSY,2006-08-26 18:00,ZJSY 261800Z AUTO 06004KT 7SM 27/24 A2974 RMK T02700240 IEM_DS3505
ZJSY,2006-08-26 19:00,ZJSY 261900Z AUTO 6SM 26/24 A2971 RMK T02600240 IEM_DS3505
ZJSY,2006-08-26 20:00,ZJSY 262000Z AUTO 09002KT 26/25 A2971 RMK T02600250 IEM_DS3505
ZJSY,2006-08-26 21:00,ZJSY 262100Z AUTO 36002KT 26/24 A2971 RMK T02600240 IEM_DS3505
ZJSY,2006-08-26 22:00,ZJSY 262200Z AUTO 00000KT 6SM 26/24 A2974 RMK T02600240 IEM_DS3505
ZJSY,2006-08-26 23:00,ZJSY 262300Z AUTO 34004KT 7SM 26/24 A2974 RMK T02600240 IEM_DS3505
ZJSY,2006-08-27 00:00,ZJSY 270000Z AUTO 7SM 28/25 A2974 RMK T02800250 IEM_DS3505
ZJSY,2006-08-27 01:00,ZJSY 270100Z AUTO 08006KT 6SM 30/25 A2977 RMK T03000250 IEM_DS3505
ZJSY,2006-08-27 02:00,ZJSY 270200Z AUTO 09004KT 6SM 31/24 A2977 RMK T03100240 IEM_DS3505
ZJSY,2006-08-27 03:00,ZJSY 270300Z AUTO 14004KT 7SM 32/26 A2977 RMK T03200260 IEM_DS3505
ZJSY,2006-08-27 04:00,ZJSY 270400Z AUTO 18006KT 7SM 31/26 A2974 RMK T03100260 IEM_DS3505
ZJSY,2006-08-27 05:00,ZJSY 270500Z AUTO 18008KT 7SM 31/26 A2974 RMK T03100260 IEM_DS3505
ZJSY,2006-08-27 06:00,ZJSY 270600Z AUTO 18006KT 7SM 31/26 A2971 RMK T03100260 IEM_DS3505
ZJSY,2006-08-27 07:00,ZJSY 270700Z AUTO 05008KT 7SM 27/23 A2971 RMK T02700230 IEM_DS3505
ZJSY,2006-08-27 08:00,ZJSY 270800Z AUTO 7SM 27/23 A2968 RMK T02700230 IEM_DS3505
ZJSY,2006-08-27 09:00,ZJSY 270900Z AUTO 06004KT 7SM 28/23 A2968 RMK T02800230 IEM_DS3505
ZJSY,2006-08-27 10:00,ZJSY 271000Z AUTO 09002KT 7SM 28/24 A2968 RMK T02800240 IEM_DS3505
ZJSY,2006-08-27 11:00,ZJSY 271100Z AUTO 07002KT 6SM 27/23 A2971 RMK T02700230 IEM_DS3505
ZJSY,2006-08-27 12:00,ZJSY 271200Z AUTO 34002KT 6SM 26/24 A2971 RMK T02600240 IEM_DS3505
ZJSY,2006-08-27 13:00,ZJSY 271300Z AUTO 09002KT 7SM 26/24 A2974 RMK T02600240 IEM_DS3505
ZJSY,2006-08-27 14:00,ZJSY 271400Z AUTO 6SM 27/24 A2977 RMK T02700240 IEM_DS3505
ZJSY,2006-08-27 15:00,ZJSY 271500Z AUTO 6SM 26/24 A2977 RMK T02600240 IEM_DS3505
ZJSY,2006-08-27 16:00,ZJSY 271600Z AUTO 6SM 27/24 A2977 RMK T02700240 IEM_DS3505
ZJSY,2006-08-27 17:00,ZJSY 271700Z AUTO 01004KT 6SM 27/24 A2977 RMK T02700240 IEM_DS3505
ZJSY,2006-08-27 18:00,ZJSY 271800Z AUTO 00000KT 26/23 A2974 RMK T02600230 IEM_DS3505
ZJSY,2006-08-27 19:00,ZJSY 271900Z AUTO 35002KT 25/23 A2974 RMK T02500230 IEM_DS3505
ZJSY,2006-08-27 20:00,ZJSY 272000Z AUTO 25/23 A2971 RMK T02500230 IEM_DS3505
ZJSY,2006-08-27 21:00,ZJSY 272100Z AUTO 35002KT 25/23 A2971 RMK T02500230 IEM_DS3505
ZJSY,2006-08-27 22:00,ZJSY 272200Z AUTO 35004KT 7SM 25/23 A2971 RMK T02500230 IEM_DS3505
ZJSY,2006-08-27 23:00,ZJSY 272300Z AUTO 00000KT 7SM 26/24 A2974 RMK T02600240 IEM_DS3505
ZJSY,2006-08-28 00:00,ZJSY 280000Z AUTO 07004KT 7SM 27/24 A2974 RMK T02700240 IEM_DS3505
ZJSY,2006-08-28 01:00,ZJSY 280100Z AUTO 6SM 30/25 A2977 RMK T03000250 IEM_DS3505
ZJSY,2006-08-28 02:00,ZJSY 280200Z AUTO 10004KT 7SM 30/24 A2977 RMK T03000240 IEM_DS3505
ZJSY,2006-08-28 03:00,ZJSY 280300Z AUTO 19006KT 7SM 31/24 A2977 RMK T03100240 IEM_DS3505
ZJSY,2006-08-28 04:00,ZJSY 280400Z AUTO 20008KT 7SM 30/25 A2977 RMK T03000250 IEM_DS3505
ZJSY,2006-08-28 05:00,ZJSY 280500Z AUTO 25010KT 7SM 29/25 A2974 RMK T02900250 IEM_DS3505
ZJSY,2006-08-28 06:00,ZJSY 280600Z AUTO 32004KT 7SM 28/25 A2974 RMK T02800250 IEM_DS3505
ZJSY,2006-08-28 07:00,ZJSY 280700Z AUTO 26004KT 3SM 24/23 A2974 RMK T02400230 IEM_DS3505
ZJSY,2006-08-28 08:00,ZJSY 280800Z AUTO 36004KT 7SM 27/25 A2971 RMK T02700250 IEM_DS3505
ZJSY,2006-08-28 09:00,ZJSY 280900Z AUTO 33006KT 7SM 27/23 A2971 RMK T02700230 IEM_DS3505
ZJSY,2006-08-28 10:00,ZJSY 281000Z AUTO 30002KT 7SM 27/23 A2971 RMK T02700230 IEM_DS3505
ZJSY,2006-08-28 11:00,ZJSY 281100Z AUTO 07004KT 7SM 26/23 A2971 RMK T02600230 IEM_DS3505
ZJSY,2006-08-28 12:00,ZJSY 281200Z AUTO 36004KT 7SM 26/23 A2971 RMK T02600230 IEM_DS3505
ZJSY,2006-08-28 13:00,ZJSY 281300Z AUTO 00000KT 7SM 26/23 A2974 RMK T02600230 IEM_DS3505
ZJSY,2006-08-28 14:00,ZJSY 281400Z AUTO 7SM 26/23 A2977 RMK T02600230 IEM_DS3505
ZJSY,2006-08-28 15:00,ZJSY 281500Z AUTO 7SM 25/23 A2977 RMK T02500230 IEM_DS3505
ZJSY,2006-08-28 16:00,ZJSY 281600Z AUTO 34004KT 7SM 25/23 A2977 RMK T02500230 IEM_DS3505
ZJSY,2006-08-28 17:00,ZJSY 281700Z AUTO 35002KT 7SM 24/23 A2974 RMK T02400230 IEM_DS3505
ZJSY,2006-08-28 18:00,ZJSY 281800Z AUTO 35004KT 24/23 A2974 RMK T02400230 IEM_DS3505
ZJSY,2006-08-28 19:00,ZJSY 281900Z AUTO 34006KT 24/22 A2974 RMK T02400220 IEM_DS3505
ZJSY,2006-08-28 20:00,ZJSY 282000Z AUTO 33002MPS //// // ////// 24/22 Q1006
ZJSY,2006-08-28 21:00,ZJSY 282100Z AUTO 00000KT 24/23 A2974 RMK T02400230 IEM_DS3505
ZJSY,2006-08-28 22:00,ZJSY 282200Z AUTO 00000KT 24/22 A2974 RMK T02400220 IEM_DS3505
ZJSY,2006-08-28 23:00,ZJSY 282300Z AUTO 05002KT 7SM 26/23 A2974 RMK T02600230 IEM_DS3505
ZJSY,2006-08-29 00:00,ZJSY 290000Z AUTO 10002KT 7SM 26/24 A2977 RMK T02600240 IEM_DS3505
ZJSY,2006-08-29 01:00,ZJSY 290100Z AUTO 05006KT 7SM 26/24 A2977 RMK T02600240 IEM_DS3505
ZJSY,2006-08-29 02:00,ZJSY 290200Z AUTO 06008KT 7SM 27/24 A2977 RMK T02700240 IEM_DS3505
ZJSY,2006-08-29 03:00,ZJSY 290300Z AUTO 13004KT 7SM 27/25 A2980 RMK T02700250 IEM_DS3505
ZJSY,2006-08-29 04:00,ZJSY 290400Z AUTO 09004KT 7SM 29/25 A2980 RMK T02900250 IEM_DS3505
ZJSY,2006-08-29 05:00,ZJSY 290500Z AUTO 15006KT 7SM 29/24 A2977 RMK T02900240 IEM_DS3505
ZJSY,2006-08-29 06:00,ZJSY 290600Z AUTO 14006KT 7SM 30/25 A2974 RMK T03000250 IEM_DS3505
ZJSY,2006-08-29 07:00,ZJSY 290700Z AUTO 14006KT 7SM 29/24 A2974 RMK T02900240 IEM_DS3505
ZJSY,2006-08-29 08:00,ZJSY 290800Z AUTO 12008KT 7SM 30/24 A2971 RMK T03000240 IEM_DS3505
ZJSY,2006-08-29 09:00,ZJSY 290900Z AUTO 11008KT 7SM 30/24 A2971 RMK T03000240 IEM_DS3505
ZJSY,2006-08-29 10:00,ZJSY 291000Z AUTO 09008KT 7SM 29/24 A2974 RMK T02900240 IEM_DS3505
ZJSY,2006-08-29 11:00,ZJSY 291100Z AUTO 09010KT 7SM 28/24 A2974 RMK T02800240 IEM_DS3505
ZJSY,2006-08-29 12:00,ZJSY 291200Z AUTO 07006KT 7SM 27/24 A2977 RMK T02700240 IEM_DS3505
ZJSY,2006-08-29 13:00,ZJSY 291300Z AUTO 07010KT 7SM 26/24 A2980 RMK T02600240 IEM_DS3505
ZJSY,2006-08-29 14:00,ZJSY 291400Z AUTO 07006KT 7SM 26/24 A2980 RMK T02600240 IEM_DS3505
ZJSY,2006-08-29 15:00,ZJSY 291500Z AUTO 08006KT 7SM 26/24 A2983 RMK T02600240 IEM_DS3505
ZJSY,2006-08-29 16:00,ZJSY 291600Z AUTO 08008KT 7SM 27/24 A2983 RMK T02700240 IEM_DS3505
ZJSY,2006-08-29 17:00,ZJSY 291700Z AUTO 07006KT 7SM 26/24 A2983 RMK T02600240 IEM_DS3505
ZJSY,2006-08-29 18:00,ZJSY 291800Z AUTO 06006KT 7SM 26/24 A2980 RMK T02600240 IEM_DS3505
ZJSY,2006-08-29 19:00,ZJSY 291900Z AUTO 08008KT 7SM 26/24 A2980 RMK T02600240 IEM_DS3505
ZJSY,2006-08-29 20:00,ZJSY 292000Z AUTO 07008KT 26/24 A2977 RMK T02600240 IEM_DS3505
ZJSY,2006-08-29 21:00,ZJSY 292100Z AUTO 08006KT 7SM 26/24 A2980 RMK T02600240 IEM_DS3505
ZJSY,2006-08-29 22:00,ZJSY 292200Z AUTO 07006KT 7SM 27/24 A2980 RMK T02700240 IEM_DS3505
ZJSY,2006-08-29 23:00,ZJSY 292300Z AUTO 07006KT 7SM 26/24 A2983 RMK T02600240 IEM_DS3505
ZJSY,2006-08-30 00:00,ZJSY 300000Z AUTO 07008KT 7SM 28/25 A2983 RMK T02800250 IEM_DS3505
ZJSY,2006-08-30 01:00,ZJSY 300100Z 11004MPS 070V140 9999 SCT016 29/24 Q1011 NOSIG
ZJSY,2006-08-30 02:00,ZJSY 300200Z AUTO 12008KT 7SM 29/24 A2985 RMK T02900240 IEM_DS3505
ZJSY,2006-08-30 03:00,ZJSY 300300Z AUTO 12010KT 7SM 30/25 A2985 RMK T03000250 IEM_DS3505
ZJSY,2006-08-30 04:00,ZJSY 300400Z AUTO 13010KT 7SM 31/25 A2985 RMK T03100250 IEM_DS3505
ZJSY,2006-08-30 05:00,ZJSY 300500Z AUTO 14008KT 7SM 31/24 A2983 RMK T03100240 IEM_DS3505
ZJSY,2006-08-30 06:00,ZJSY 300600Z AUTO 13006KT 7SM 31/25 A2983 RMK T03100250 IEM_DS3505
ZJSY,2006-08-30 07:00,ZJSY 300700Z AUTO 14008KT 7SM 30/25 A2980 RMK T03000250 IEM_DS3505
ZJSY,2006-08-30 08:00,ZJSY 300800Z AUTO 14008KT 7SM 30/25 A2980 RMK T03000250 IEM_DS3505
ZJSY,2006-08-30 09:00,ZJSY 300900Z AUTO 13008KT 7SM 30/25 A2977 RMK T03000250 IEM_DS3505
ZJSY,2006-08-30 10:00,ZJSY 301000Z AUTO 13008KT 7SM 29/24 A2977 RMK T02900240 IEM_DS3505
ZJSY,2006-08-30 11:00,ZJSY 301100Z AUTO 13006KT 7SM 29/24 A2980 RMK T02900240 IEM_DS3505
ZJSY,2006-08-30 12:00,ZJSY 301200Z AUTO 09006KT 7SM 28/24 A2980 RMK T02800240 IEM_DS3505
ZJSY,2006-08-30 13:00,ZJSY 301300Z AUTO 06006KT 7SM 27/24 A2983 RMK T02700240 IEM_DS3505
ZJSY,2006-08-30 14:00,ZJSY 301400Z AUTO 06006KT 7SM 27/24 A2983 RMK T02700240 IEM_DS3505
ZJSY,2006-08-30 15:00,ZJSY 301500Z AUTO 06006KT 7SM 27/23 A2983 RMK T02700230 IEM_DS3505
ZJSY,2006-08-30 16:00,ZJSY 301600Z AUTO 06006KT 6SM 27/23 A2983 RMK T02700230 IEM_DS3505
ZJSY,2006-08-30 17:00,ZJSY 301700Z AUTO 07004KT 6SM 26/23 A2983 RMK T02600230 IEM_DS3505
ZJSY,2006-08-30 18:00,ZJSY 301800Z AUTO 07004KT 6SM 25/23 A2980 RMK T02500230 IEM_DS3505
ZJSY,2006-08-30 19:00,ZJSY 301900Z AUTO 06004KT 6SM 26/23 A2980 RMK T02600230 IEM_DS3505
ZJSY,2006-08-30 20:00,ZJSY 302000Z AUTO 08004KT 6SM 26/23 A2980 RMK T02600230 IEM_DS3505
ZJSY,2006-08-30 21:00,ZJSY 302100Z AUTO 06004KT 7SM 26/23 A2980 RMK T02600230 IEM_DS3505
ZJSY,2006-08-30 22:00,ZJSY 302200Z AUTO 7SM 26/24 A2980 RMK T02600240 IEM_DS3505
ZJSY,2006-08-30 23:00,ZJSY 302300Z AUTO 06004KT 7SM 26/23 A2980 RMK T02600230 IEM_DS3505
ZJSY,2006-08-31 00:00,ZJSY 310000Z AUTO 07006KT 7SM 28/24 A2983 RMK T02800240 IEM_DS3505
ZJSY,2006-08-31 01:00,ZJSY 310100Z AUTO 09006KT 7SM 28/24 A2983 RMK T02800240 IEM_DS3505
ZJSY,2006-08-31 02:00,ZJSY 310200Z AUTO 08006KT 7SM 30/25 A2983 RMK T03000250 IEM_DS3505
ZJSY,2006-08-31 03:00,ZJSY 310300Z AUTO 14006KT 7SM 31/25 A2983 RMK T03100250 IEM_DS3505
ZJSY,2006-08-31 04:00,ZJSY 310400Z AUTO 15006KT 7SM 31/25 A2983 RMK T03100250 IEM_DS3505
ZJSY,2006-08-31 05:00,ZJSY 310500Z AUTO 16006KT 7SM 30/25 A2980 RMK T03000250 IEM_DS3505
ZJSY,2006-08-31 06:00,ZJSY 310600Z 16003MPS 110V210 9999 FEW013 SCT016 31/25 Q1009 NOSIG
ZJSY,2006-08-31 07:00,ZJSY 310700Z 19003MPS 140V240 9999 SCT016 30/25 Q1008 NOSIG
ZJSY,2006-08-31 08:00,ZJSY 310800Z AUTO 18006KT 7SM 30/25 A2974 RMK T03000250 IEM_DS3505
ZJSY,2006-08-31 09:00,ZJSY 310900Z AUTO 19004KT 7SM 30/25 A2974 RMK T03000250 IEM_DS3505
ZJSY,2006-08-31 10:00,ZJSY 311000Z AUTO 18004KT 7SM 30/25 A2974 RMK T03000250 IEM_DS3505
ZJSY,2006-08-31 11:00,ZJSY 311100Z AUTO 21004KT 7SM 29/25 A2974 RMK T02900250 IEM_DS3505
ZJSY,2006-08-31 12:00,ZJSY 311200Z AUTO 00000KT 7SM 28/25 A2977 RMK T02800250 IEM_DS3505
ZJSY,2006-08-31 13:00,ZJSY 311300Z AUTO 33002KT 7SM 27/25 A2977 RMK T02700250 IEM_DS3505
ZJSY,2006-08-31 14:00,ZJSY 311400Z AUTO 7SM 27/25 A2980 RMK T02700250 IEM_DS3505
ZJSY,2006-08-31 15:00,ZJSY 311500Z AUTO 7SM 27/25 A2980 RMK T02700250 IEM_DS3505
ZJSY,2006-08-31 16:00,ZJSY 311600Z AUTO 31002KT 7SM 27/25 A2983 RMK T02700250 IEM_DS3505
ZJSY,2006-08-31 17:00,ZJSY 311700Z 00000MPS 9999 FEW014 BKN016 27/25 Q1009 NOSIG
ZJSY,2006-08-31 18:00,ZJSY 311800Z AUTO 7SM 27/25 A2980 RMK T02700250 IEM_DS3505
ZJSY,2006-08-31 19:00,ZJSY 311900Z AUTO 27/25 A2977 RMK T02700250 IEM_DS3505
ZJSY,2006-08-31 20:00,ZJSY 312000Z AUTO 27/25 A2977 RMK T02700250 IEM_DS3505
ZJSY,2006-08-31 21:00,ZJSY 312100Z AUTO 32004KT 27/25 A2977 RMK T02700250 IEM_DS3505
ZJSY,2006-08-31 22:00,ZJSY 312200Z AUTO 7SM 27/25 A2977 RMK T02700250 IEM_DS3505
ZJSY,2006-08-31 23:00,ZJSY 312300Z AUTO 32002KT 7SM 27/25 A2977 RMK T02700250 IEM_DS3505
ZJSY,2006-09-01 00:00,ZJSY 010000Z AUTO 7SM 28/25 A2977 RMK T02800250 IEM_DS3505
ZJSY,2006-09-01 01:00,ZJSY 010100Z AUTO 7SM 30/25 A2980 RMK T03000250 IEM_DS3505
ZJSY,2006-09-01 02:00,ZJSY 010200Z AUTO 7SM 30/25 A2980 RMK T03000250 IEM_DS3505
ZJSY,2006-09-01 03:00,ZJSY 010300Z AUTO 20006KT 7SM 31/26 A2980 RMK T03100260 IEM_DS3505
ZJSY,2006-09-01 04:00,ZJSY 010400Z AUTO 22006KT 7SM 31/26 A2980 RMK T03100260 IEM_DS3505
ZJSY,2006-09-01 05:00,ZJSY 010500Z AUTO 21006KT 7SM 31/26 A2977 RMK T03100260 IEM_DS3505
ZJSY,2006-09-01 06:00,ZJSY 010600Z AUTO 21006KT 7SM 31/26 A2977 RMK T03100260 IEM_DS3505
ZJSY,2006-09-01 07:00,ZJSY 010700Z 23004MPS 180V260 9999 FEW016 31/25 Q1007 NOSIG
ZJSY,2006-09-01 08:00,ZJSY 010800Z AUTO 23008KT 7SM 30/25 A2974 RMK T03000250 IEM_DS3505
ZJSY,2006-09-01 09:00,ZJSY 010900Z AUTO 24008KT 6SM 30/25 A2974 RMK T03000250 IEM_DS3505
ZJSY,2006-09-01 10:00,ZJSY 011000Z AUTO 24008KT 6SM 30/24 A2974 RMK T03000240 IEM_DS3505
ZJSY,2006-09-01 11:00,ZJSY 011100Z AUTO 26006KT 6SM 28/24 A2974 RMK T02800240 IEM_DS3505
ZJSY,2006-09-01 12:00,ZJSY 011200Z AUTO 30004KT 6SM 28/24 A2974 RMK T02800240 IEM_DS3505
ZJSY,2006-09-01 13:00,ZJSY 011300Z AUTO 31004KT 6SM 27/24 A2977 RMK T02700240 IEM_DS3505
ZJSY,2006-09-01 14:00,ZJSY 011400Z AUTO 6SM 26/24 A2980 RMK T02600240 IEM_DS3505
ZJSY,2006-09-01 15:00,ZJSY 011500Z VRB01MPS CAVOK 26/24 Q1009 NOSIG
ZJSY,2006-09-01 16:00,ZJSY 011600Z 33001MPS CAVOK 25/23 Q1009 NOSIG
ZJSY,2006-09-01 17:00,ZJSY 011700Z AUTO 01004KT 6SM 25/23 A2977 RMK T02500230 IEM_DS3505
ZJSY,2006-09-01 18:00,ZJSY 011800Z AUTO 33004KT 25/23 A2977 RMK T02500230 IEM_DS3505
ZJSY,2006-09-01 19:00,ZJSY 011900Z AUTO 33002KT 24/23 A2977 RMK T02400230 IEM_DS3505
ZJSY,2006-09-01 20:00,ZJSY 012000Z AUTO 32002KT 25/23 A2977 RMK T02500230 IEM_DS3505
ZJSY,2006-09-01 21:00,ZJSY 012100Z AUTO 00000KT 25/23 A2977 RMK T02500230 IEM_DS3505
ZJSY,2006-09-01 22:00,ZJSY 012200Z AUTO 33004KT 7SM 25/23 A2977 RMK T02500230 IEM_DS3505
ZJSY,2006-09-01 23:00,ZJSY 012300Z AUTO 32002KT 7SM 25/24 A2977 RMK T02500240 IEM_DS3505
ZJSY,2006-09-02 00:00,ZJSY 020000Z AUTO 7SM 28/25 A2980 RMK T02800250 IEM_DS3505
ZJSY,2006-09-02 01:00,ZJSY 020100Z AUTO 30004KT 7SM 30/25 A2980 RMK T03000250 IEM_DS3505
ZJSY,2006-09-02 02:00,ZJSY 020200Z AUTO 23004KT 7SM 31/26 A2980 RMK T03100260 IEM_DS3505
ZJSY,2006-09-02 03:00,ZJSY 020300Z AUTO 24006KT 7SM 31/26 A2980 RMK T03100260 IEM_DS3505
ZJSY,2006-09-02 04:00,ZJSY 020400Z AUTO 24006KT 7SM 31/25 A2980 RMK T03100250 IEM_DS3505
ZJSY,2006-09-02 05:00,ZJSY 020500Z AUTO 20006KT 7SM 32/25 A2977 RMK T03200250 IEM_DS3505
ZJSY,2006-09-02 06:00,ZJSY 020600Z AUTO 20006KT 7SM 32/26 A2974 RMK T03200260 IEM_DS3505
ZJSY,2006-09-02 07:00,ZJSY 020700Z AUTO 21006KT 7SM 31/26 A2974 RMK T03100260 IEM_DS3505
ZJSY,2006-09-02 08:00,ZJSY 020800Z AUTO 23006KT 7SM 31/26 A2971 RMK T03100260 IEM_DS3505
ZJSY,2006-09-02 09:00,ZJSY 020900Z AUTO 23006KT 6SM 31/26 A2971 RMK T03100260 IEM_DS3505
ZJSY,2006-09-02 10:00,ZJSY 021000Z AUTO 23006KT 6SM 30/25 A2971 RMK T03000250 IEM_DS3505
ZJSY,2006-09-02 11:00,ZJSY 021100Z AUTO 24006KT 6SM 29/25 A2971 RMK T02900250 IEM_DS3505
ZJSY,2006-09-02 12:00,ZJSY 021200Z AUTO 6SM 28/25 A2974 RMK T02800250 IEM_DS3505
ZJSY,2006-09-02 13:00,ZJSY 021300Z AUTO 6SM 28/25 A2977 RMK T02800250 IEM_DS3505
ZJSY,2006-09-02 14:00,ZJSY 021400Z AUTO 6SM 27/25 A2977 RMK T02700250 IEM_DS3505
ZJSY,2006-09-02 15:00,ZJSY 021500Z AUTO 35002KT 6SM 27/25 A2980 RMK T02700250 IEM_DS3505
ZJSY,2006-09-02 16:00,ZJSY 021600Z AUTO 34004KT 6SM 26/25 A2977 RMK T02600250 IEM_DS3505
ZJSY,2006-09-02 17:00,ZJSY 021700Z AUTO 34004KT 6SM 26/24 A2977 RMK T02600240 IEM_DS3505
ZJSY,2006-09-02 18:00,ZJSY 021800Z AUTO 31004KT 6SM 26/24 A2974 RMK T02600240 IEM_DS3505
ZJSY,2006-09-02 19:00,ZJSY 021900Z AUTO 34004KT 26/24 A2974 RMK T02600240 IEM_DS3505
ZJSY,2006-09-02 20:00,ZJSY 022000Z AUTO 00000KT 26/24 A2974 RMK T02600240 IEM_DS3505
ZJSY,2006-09-02 21:00,ZJSY 022100Z AUTO 36002KT 7SM 26/24 A2974 RMK T02600240 IEM_DS3505
ZJSY,2006-09-02 22:00,ZJSY 022200Z AUTO 34004KT 7SM 26/25 A2974 RMK T02600250 IEM_DS3505
ZJSY,2006-09-02 23:00,ZJSY 022300Z AUTO 34004KT 7SM 26/25 A2974 RMK T02600250 IEM_DS3505
ZJSY,2006-09-03 00:00,ZJSY 030000Z AUTO 00000KT 6SM 29/26 A2977 RMK T02900260 IEM_DS3505
ZJSY,2006-09-03 01:00,ZJSY 030100Z AUTO 00000KT 7SM 30/25 A2977 RMK T03000250 IEM_DS3505
ZJSY,2006-09-03 02:00,ZJSY 030200Z AUTO 7SM 31/25 A2977 RMK T03100250 IEM_DS3505
ZJSY,2006-09-03 03:00,ZJSY 030300Z AUTO 18004KT 7SM 31/26 A2977 RMK T03100260 IEM_DS3505
ZJSY,2006-09-03 04:00,ZJSY 030400Z AUTO 17004KT 7SM 31/27 A2977 RMK T03100270 IEM_DS3505
ZJSY,2006-09-03 05:00,ZJSY 030500Z AUTO 18006KT 7SM 31/26 A2974 RMK T03100260 IEM_DS3505
ZJSY,2006-09-03 06:00,ZJSY 030600Z AUTO 19006KT 7SM 31/26 A2971 RMK T03100260 IEM_DS3505
ZJSY,2006-09-03 07:00,ZJSY 030700Z AUTO 19006KT 7SM 31/26 A2968 RMK T03100260 IEM_DS3505
ZJSY,2006-09-03 08:00,ZJSY 030800Z AUTO 21006KT 7SM 31/25 A2968 RMK T03100250 IEM_DS3505
ZJSY,2006-09-03 09:00,ZJSY 030900Z AUTO 21004KT 7SM 31/26 A2968 RMK T03100260 IEM_DS3505
ZJSY,2006-09-03 10:00,ZJSY 031000Z AUTO 18004KT 7SM 30/26 A2968 RMK T03000260 IEM_DS3505
ZJSY,2006-09-03 11:00,ZJSY 031100Z AUTO 7SM 29/25 A2968 RMK T02900250 IEM_DS3505
ZJSY,2006-09-03 12:00,ZJSY 031200Z AUTO 7SM 29/25 A2971 RMK T02900250 IEM_DS3505
ZJSY,2006-09-03 13:00,ZJSY 031300Z AUTO 7SM 29/25 A2971 RMK T02900250 IEM_DS3505
ZJSY,2006-09-03 14:00,ZJSY 031400Z AUTO 7SM 29/25 A2974 RMK T02900250 IEM_DS3505
ZJSY,2006-09-03 15:00,ZJSY 031500Z AUTO 00000KT 7SM 29/25 A2974 RMK T02900250 IEM_DS3505
ZJSY,2006-09-03 16:00,ZJSY 031600Z AUTO 7SM 28/25 A2974 RMK T02800250 IEM_DS3505
ZJSY,2006-09-03 17:00,ZJSY 031700Z AUTO 7SM 28/26 A2974 RMK T02800260 IEM_DS3505
ZJSY,2006-09-03 18:00,ZJSY 031800Z AUTO 29/25 A2974 RMK T02900250 IEM_DS3505
ZJSY,2006-09-03 19:00,ZJSY 031900Z AUTO 28/25 A2971 RMK T02800250 IEM_DS3505
ZJSY,2006-09-03 20:00,ZJSY 032000Z AUTO 27/26 A2971 RMK T02700260 IEM_DS3505
ZJSY,2006-09-03 21:00,ZJSY 032100Z AUTO 00000KT 7SM 27/25 A2971 RMK T02700250 IEM_DS3505
ZJSY,2006-09-03 22:00,ZJSY 032200Z AUTO 7SM 27/25 A2971 RMK T02700250 IEM_DS3505
ZJSY,2006-09-03 23:00,ZJSY 032300Z AUTO 18004KT 7SM 28/25 A2971 RMK T02800250 IEM_DS3505
ZJSY,2006-09-04 00:00,ZJSY 040000Z AUTO 18004KT 7SM 29/25 A2974 RMK T02900250 IEM_DS3505
ZJSY,2006-09-04 01:00,ZJSY 040100Z AUTO 20004KT 7SM 29/25 A2977 RMK T02900250 IEM_DS3505
ZJSY,2006-09-04 02:00,ZJSY 040200Z AUTO 20006KT 7SM 31/25 A2977 RMK T03100250 IEM_DS3505
ZJSY,2006-09-04 03:00,ZJSY 040300Z AUTO 20006KT 7SM 31/26 A2977 RMK T03100260 IEM_DS3505
ZJSY,2006-09-04 04:00,ZJSY 040400Z AUTO 18006KT 7SM 31/26 A2974 RMK T03100260 IEM_DS3505
ZJSY,2006-09-04 05:00,ZJSY 040500Z AUTO 19006KT 7SM 31/26 A2974 RMK T03100260 IEM_DS3505
ZJSY,2006-09-04 06:00,ZJSY 040600Z AUTO 20006KT 7SM 31/25 A2971 RMK T03100250 IEM_DS3505
ZJSY,2006-09-04 07:00,ZJSY 040700Z AUTO 18006KT 7SM 31/26 A2968 RMK T03100260 IEM_DS3505
ZJSY,2006-09-04 08:00,ZJSY 040800Z AUTO 16004KT 7SM 31/26 A2968 RMK T03100260 IEM_DS3505
ZJSY,2006-09-04 09:00,ZJSY 040900Z AUTO 17004KT 7SM 31/26 A2965 RMK T03100260 IEM_DS3505
ZJSY,2006-09-04 10:00,ZJSY 041000Z AUTO 16004KT 7SM 30/25 A2965 RMK T03000250 IEM_DS3505
ZJSY,2006-09-04 11:00,ZJSY 041100Z AUTO 16004KT 7SM 29/25 A2968 RMK T02900250 IEM_DS3505
ZJSY,2006-09-04 12:00,ZJSY 041200Z AUTO 14004KT 7SM 29/25 A2968 RMK T02900250 IEM_DS3505
ZJSY,2006-09-04 13:00,ZJSY 041300Z AUTO 13004KT 7SM 29/25 A2971 RMK T02900250 IEM_DS3505
ZJSY,2006-09-04 14:00,ZJSY 041400Z AUTO 13004KT 7SM 29/25 A2974 RMK T02900250 IEM_DS3505
ZJSY,2006-09-04 15:00,ZJSY 041500Z AUTO 07004KT 7SM 29/25 A2974 RMK T02900250 IEM_DS3505
ZJSY,2006-09-04 16:00,ZJSY 041600Z AUTO 14006KT 7SM 29/25 A2977 RMK T02900250 IEM_DS3505
ZJSY,2006-09-04 17:00,ZJSY 041700Z AUTO 16006KT 7SM 29/26 A2974 RMK T02900260 IEM_DS3505
ZJSY,2006-09-04 18:00,ZJSY 041800Z AUTO 15006KT 29/25 A2974 RMK T02900250 IEM_DS3505
ZJSY,2006-09-04 19:00,ZJSY 041900Z AUTO 00000KT A2971 RMK IEM_DS3505
ZJSY,2006-09-04 20:00,ZJSY 042000Z AUTO 16008KT 29/24 A2971 RMK T02900240 IEM_DS3505
ZJSY,2006-09-04 21:00,ZJSY 042100Z AUTO 15004KT 7SM 29/25 A2971 RMK T02900250 IEM_DS3505
ZJSY,2006-09-04 22:00,ZJSY 042200Z AUTO 15004KT 7SM 28/25 A2971 RMK T02800250 IEM_DS3505
ZJSY,2006-09-04 23:00,ZJSY 042300Z AUTO 13004KT 7SM 28/25 A2974 RMK T02800250 IEM_DS3505
ZJSY,2006-09-05 00:00,ZJSY 050000Z AUTO 7SM 29/25 A2974 RMK T02900250 IEM_DS3505
ZJSY,2006-09-05 01:00,ZJSY 050100Z AUTO 15004KT 7SM 29/25 A2977 RMK T02900250 IEM_DS3505
ZJSY,2006-09-05 02:00,ZJSY 050200Z AUTO 16004KT 7SM 31/25 A2977 RMK T03100250 IEM_DS3505
ZJSY,2006-09-05 03:00,ZJSY 050300Z AUTO 15006KT 7SM 31/25 A2977 RMK T03100250 IEM_DS3505
ZJSY,2006-09-05 04:00,ZJSY 050400Z AUTO 17004KT 7SM 32/26 A2977 RMK T03200260 IEM_DS3505
ZJSY,2006-09-05 05:00,ZJSY 050500Z AUTO 18006KT 7SM 31/25 A2974 RMK T03100250 IEM_DS3505
ZJSY,2006-09-05 06:00,ZJSY 050600Z AUTO 17008KT 7SM 31/26 A2974 RMK T03100260 IEM_DS3505
ZJSY,2006-09-05 07:00,ZJSY 050700Z 18003MPS 140V220 9999 FEW016 31/26 Q1006 NOSIG
ZJSY,2006-09-05 08:00,ZJSY 050800Z AUTO 15006KT 7SM 31/25 A2968 RMK T03100250 IEM_DS3505
ZJSY,2006-09-05 09:00,ZJSY 050900Z AUTO 15004KT 7SM 30/26 A2968 RMK T03000260 IEM_DS3505
ZJSY,2006-09-05 10:00,ZJSY 051000Z AUTO 7SM 30/25 A2968 RMK T03000250 IEM_DS3505
ZJSY,2006-09-05 11:00,ZJSY 051100Z AUTO 14004KT 7SM 29/25 A2971 RMK T02900250 IEM_DS3505
ZJSY,2006-09-05 12:00,ZJSY 051200Z AUTO 13004KT 7SM 29/25 A2971 RMK T02900250 IEM_DS3505
ZJSY,2006-09-05 13:00,ZJSY 051300Z AUTO 09004KT 7SM 29/25 A2974 RMK T02900250 IEM_DS3505
ZJSY,2006-09-05 14:00,ZJSY 051400Z AUTO 09004KT 7SM 28/25 A2977 RMK T02800250 IEM_DS3505
ZJSY,2006-09-05 15:00,ZJSY 051500Z AUTO 06006KT 7SM 29/25 A2980 RMK T02900250 IEM_DS3505
ZJSY,2006-09-05 16:00,ZJSY 051600Z AUTO 08004KT 7SM 29/25 A2980 RMK T02900250 IEM_DS3505
ZJSY,2006-09-05 17:00,ZJSY 051700Z AUTO 12004KT 7SM 28/25 A2977 RMK T02800250 IEM_DS3505
ZJSY,2006-09-05 18:00,ZJSY 051800Z AUTO 09004KT 7SM 28/25 A2977 RMK T02800250 IEM_DS3505
ZJSY,2006-09-05 19:00,ZJSY 051900Z AUTO 07004KT 28/25 A2974 RMK T02800250 IEM_DS3505
ZJSY,2006-09-05 20:00,ZJSY 052000Z AUTO 07004KT 28/24 A2974 RMK T02800240 IEM_DS3505
ZJSY,2006-09-05 21:00,ZJSY 052100Z AUTO 02002KT 27/25 A2974 RMK T02700250 IEM_DS3505
ZJSY,2006-09-05 22:00,ZJSY 052200Z AUTO 7SM 27/24 A2974 RMK T02700240 IEM_DS3505
ZJSY,2006-09-05 23:00,ZJSY 052300Z AUTO 7SM 26/24 A2974 RMK T02600240 IEM_DS3505
ZJSY,2006-09-06 00:00,ZJSY 060000Z AUTO 06004KT 7SM 29/25 A2977 RMK T02900250 IEM_DS3505
ZJSY,2006-09-06 01:00,ZJSY 060100Z AUTO 7SM 30/24 A2980 RMK T03000240 IEM_DS3505
ZJSY,2006-09-06 02:00,ZJSY 060200Z AUTO 16004KT 7SM 31/24 A2980 RMK T03100240 IEM_DS3505
ZJSY,2006-09-06 03:00,ZJSY 060300Z AUTO 17004KT 7SM 31/25 A2980 RMK T03100250 IEM_DS3505
ZJSY,2006-09-06 04:00,ZJSY 060400Z AUTO 19006KT 7SM 31/24 A2977 RMK T03100240 IEM_DS3505
ZJSY,2006-09-06 05:00,ZJSY 060500Z AUTO 18006KT 6SM 31/25 A2974 RMK T03100250 IEM_DS3505
ZJSY,2006-09-06 06:00,ZJSY 060600Z AUTO 17004KT 6SM 32/23 A2971 RMK T03200230 IEM_DS3505
ZJSY,2006-09-06 07:00,ZJSY 060700Z AUTO 18006KT 6SM 31/25 A2971 RMK T03100250 IEM_DS3505
ZJSY,2006-09-06 08:00,ZJSY 060800Z AUTO 16006KT 6SM 31/25 A2971 RMK T03100250 IEM_DS3505
ZJSY,2006-09-06 09:00,ZJSY 060900Z AUTO 15006KT 6SM 30/24 A2968 RMK T03000240 IEM_DS3505
ZJSY,2006-09-06 10:00,ZJSY 061000Z AUTO 15004KT 6SM 30/25 A2968 RMK T03000250 IEM_DS3505
ZJSY,2006-09-06 11:00,ZJSY 061100Z AUTO 6SM 29/25 A2968 RMK T02900250 IEM_DS3505
ZJSY,2006-09-06 12:00,ZJSY 061200Z AUTO 13004KT 6SM 29/25 A2971 RMK T02900250 IEM_DS3505
ZJSY,2006-09-06 13:00,ZJSY 061300Z AUTO 11004KT 6SM 29/25 A2974 RMK T02900250 IEM_DS3505
ZJSY,2006-09-06 14:00,ZJSY 061400Z AUTO 06006KT 7SM 28/25 A2977 RMK T02800250 IEM_DS3505
ZJSY,2006-09-06 15:00,ZJSY 061500Z AUTO 06006KT 7SM 28/25 A2980 RMK T02800250 IEM_DS3505
ZJSY,2006-09-06 16:00,ZJSY 061600Z AUTO 34002KT 6SM 27/25 A2977 RMK T02700250 IEM_DS3505
ZJSY,2006-09-06 17:00,ZJSY 061700Z AUTO 6SM 27/24 A2977 RMK T02700240 IEM_DS3505
ZJSY,2006-09-06 18:00,ZJSY 061800Z AUTO 27/24 A2977 RMK T02700240 IEM_DS3505
ZJSY,2006-09-06 19:00,ZJSY 061900Z AUTO 32002KT 27/24 A2977 RMK T02700240 IEM_DS3505
ZJSY,2006-09-06 20:00,ZJSY 062000Z AUTO 34004KT 26/24 A2974 RMK T02600240 IEM_DS3505
ZJSY,2006-09-06 21:00,ZJSY 062100Z AUTO 7SM 26/24 A2974 RMK T02600240 IEM_DS3505
ZJSY,2006-09-06 22:00,ZJSY 062200Z AUTO 34004KT 7SM 26/24 A2977 RMK T02600240 IEM_DS3505
ZJSY,2006-09-06 23:00,ZJSY 062300Z AUTO 33004KT 6SM 26/24 A2977 RMK T02600240 IEM_DS3505
ZJSY,2006-09-07 00:00,ZJSY 070000Z AUTO 6SM 29/25 A2977 RMK T02900250 IEM_DS3505
ZJSY,2006-09-07 01:00,ZJSY 070100Z AUTO 7SM 31/25 A2980 RMK T03100250 IEM_DS3505
ZJSY,2006-09-07 02:00,ZJSY 070200Z AUTO 21004KT 7SM 31/25 A2980 RMK T03100250 IEM_DS3505
ZJSY,2006-09-07 03:00,ZJSY 070300Z AUTO 19004KT 7SM 31/24 A2980 RMK T03100240 IEM_DS3505
ZJSY,2006-09-07 04:00,ZJSY 070400Z AUTO 19006KT 7SM 31/24 A2977 RMK T03100240 IEM_DS3505
ZJSY,2006-09-07 05:00,ZJSY 070500Z AUTO 19006KT 6SM 31/24 A2974 RMK T03100240 IEM_DS3505
ZJSY,2006-09-07 06:00,ZJSY 070600Z AUTO 20006KT 6SM 31/25 A2971 RMK T03100250 IEM_DS3505
ZJSY,2006-09-07 07:00,ZJSY 070700Z AUTO 18006KT 6SM 31/26 A2971 RMK T03100260 IEM_DS3505
ZJSY,2006-09-07 08:00,ZJSY 070800Z AUTO 19006KT 7SM 31/25 A2968 RMK T03100250 IEM_DS3505
ZJSY,2006-09-07 09:00,ZJSY 070900Z AUTO 18004KT 7SM 30/25 A2968 RMK T03000250 IEM_DS3505
ZJSY,2006-09-07 10:00,ZJSY 071000Z AUTO 19004KT 7SM 30/25 A2968 RMK T03000250 IEM_DS3505
ZJSY,2006-09-07 11:00,ZJSY 071100Z AUTO 7SM 29/25 A2971 RMK T02900250 IEM_DS3505
ZJSY,2006-09-07 12:00,ZJSY 071200Z AUTO 7SM 29/25 A2971 RMK T02900250 IEM_DS3505
ZJSY,2006-09-07 13:00,ZJSY 071300Z AUTO 16004KT 7SM 29/25 A2974 RMK T02900250 IEM_DS3505
ZJSY,2006-09-07 14:00,ZJSY 071400Z AUTO 16004KT 7SM 29/25 A2977 RMK T02900250 IEM_DS3505
ZJSY,2006-09-07 15:00,ZJSY 071500Z AUTO 16004KT 7SM 29/25 A2977 RMK T02900250 IEM_DS3505
ZJSY,2006-09-07 16:00,ZJSY 071600Z AUTO 14004KT 7SM 29/24 A2977 RMK T02900240 IEM_DS3505
ZJSY,2006-09-07 17:00,ZJSY 071700Z AUTO 06004KT 7SM 28/25 A2974 RMK T02800250 IEM_DS3505
ZJSY,2006-09-07 18:00,ZJSY 071800Z AUTO 06004KT 6SM 28/25 A2974 RMK T02800250 IEM_DS3505
ZJSY,2006-09-07 19:00,ZJSY 071900Z AUTO 06004KT 28/24 A2974 RMK T02800240 IEM_DS3505
ZJSY,2006-09-07 20:00,ZJSY 072000Z AUTO 27/25 A2974 RMK T02700250 IEM_DS3505
ZJSY,2006-09-07 21:00,ZJSY 072100Z AUTO 00000KT 7SM 27/24 A2974 RMK T02700240 IEM_DS3505
ZJSY,2006-09-07 22:00,ZJSY 072200Z AUTO 00000KT 7SM 26/24 A2974 RMK T02600240 IEM_DS3505
ZJSY,2006-09-07 23:00,ZJSY 072300Z AUTO 35002KT 7SM 26/24 A2977 RMK T02600240 IEM_DS3505
ZJSY,2006-09-08 00:00,ZJSY 080000Z AUTO 05004KT 6SM 29/24 A2977 RMK T02900240 IEM_DS3505
ZJSY,2006-09-08 01:00,ZJSY 080100Z AUTO 7SM 31/25 A2977 RMK T03100250 IEM_DS3505
ZJSY,2006-09-08 02:00,ZJSY 080200Z AUTO 17004KT 7SM 31/25 A2980 RMK T03100250 IEM_DS3505
ZJSY,2006-09-08 03:00,ZJSY 080300Z AUTO 18006KT 7SM 31/25 A2980 RMK T03100250 IEM_DS3505
ZJSY,2006-09-08 04:00,ZJSY 080400Z AUTO 20006KT 7SM 31/25 A2977 RMK T03100250 IEM_DS3505
ZJSY,2006-09-08 05:00,ZJSY 080500Z 20003MPS 170V240 9999 FEW021 31/25 Q1008 NOSIG
ZJSY,2006-09-08 06:00,ZJSY 080600Z AUTO 19006KT 7SM 31/26 A2974 RMK T03100260 IEM_DS3505
ZJSY,2006-09-08 07:00,ZJSY 080700Z AUTO 19006KT 7SM 31/25 A2974 RMK T03100250 IEM_DS3505
ZJSY,2006-09-08 08:00,ZJSY 080800Z AUTO 19006KT 7SM 31/25 A2971 RMK T03100250 IEM_DS3505
ZJSY,2006-09-08 09:00,ZJSY 080900Z AUTO 19004KT 6SM 31/24 A2968 RMK T03100240 IEM_DS3505
ZJSY,2006-09-08 10:00,ZJSY 081000Z AUTO 7SM 30/25 A2968 RMK T03000250 IEM_DS3505
ZJSY,2006-09-08 11:00,ZJSY 081100Z AUTO 7SM 29/24 A2971 RMK T02900240 IEM_DS3505
ZJSY,2006-09-08 12:00,ZJSY 081200Z AUTO 7SM 29/25 A2974 RMK T02900250 IEM_DS3505
ZJSY,2006-09-08 13:00,ZJSY 081300Z AUTO 7SM 29/25 A2977 RMK T02900250 IEM_DS3505
ZJSY,2006-09-08 14:00,ZJSY 081400Z AUTO 7SM 29/25 A2980 RMK T02900250 IEM_DS3505
ZJSY,2006-09-08 15:00,ZJSY 081500Z AUTO 7SM 28/25 A2980 RMK T02800250 IEM_DS3505
ZJSY,2006-09-08 16:00,ZJSY 081600Z AUTO 7SM 28/25 A2980 RMK T02800250 IEM_DS3505
ZJSY,2006-09-08 17:00,ZJSY 081700Z AUTO 00000KT 7SM 28/25 A2980 RMK T02800250 IEM_DS3505
ZJSY,2006-09-08 18:00,ZJSY 081800Z AUTO 34004KT 27/25 A2980 RMK T02700250 IEM_DS3505
ZJSY,2006-09-08 19:00,ZJSY 081900Z AUTO 27/25 A2977 RMK T02700250 IEM_DS3505
ZJSY,2006-09-08 21:00,ZJSY 082100Z AUTO 33004KT 7SM 27/25 A2977 RMK T02700250 IEM_DS3505
ZJSY,2006-09-08 22:00,ZJSY 082200Z AUTO 7SM 27/25 A2977 RMK T02700250 IEM_DS3505
ZJSY,2006-09-08 23:00,ZJSY 082300Z AUTO 7SM 27/24 A2977 RMK T02700240 IEM_DS3505
ZJSY,2006-09-09 00:00,ZJSY 090000Z AUTO 7SM 28/25 A2977 RMK T02800250 IEM_DS3505
ZJSY,2006-09-09 01:00,ZJSY 090100Z AUTO 7SM 29/24 A2980 RMK T02900240 IEM_DS3505
ZJSY,2006-09-09 02:00,ZJSY 090200Z AUTO 7SM 31/26 A2980 RMK T03100260 IEM_DS3505
ZJSY,2006-09-09 03:00,ZJSY 090300Z AUTO 19006KT 7SM 31/26 A2980 RMK T03100260 IEM_DS3505
ZJSY,2006-09-09 04:00,ZJSY 090400Z AUTO 19006KT 7SM 31/26 A2980 RMK T03100260 IEM_DS3505
ZJSY,2006-09-09 05:00,ZJSY 090500Z AUTO 20006KT 7SM 31/26 A2980 RMK T03100260 IEM_DS3505
ZJSY,2006-09-09 06:00,ZJSY 090600Z AUTO 22008KT 7SM 32/26 A2977 RMK T03200260 IEM_DS3505
ZJSY,2006-09-09 07:00,ZJSY 090700Z AUTO 35014KT 7SM 27/23 A2977 RMK T02700230 IEM_DS3505
ZJSY,2006-09-09 08:00,ZJSY 090800Z AUTO 35004KT 5SM 25/23 A2977 RMK T02500230 IEM_DS3505
ZJSY,2006-09-09 09:00,ZJSY 090900Z AUTO 32004KT 7SM 26/23 A2974 RMK T02600230 IEM_DS3505
ZJSY,2006-09-09 10:00,ZJSY 091000Z 32004MPS 9999 SCT015 27/23 Q1008 NOSIG
ZJSY,2006-09-09 11:00,ZJSY 091100Z AUTO 04010KT 7SM 27/22 A2977 RMK T02700220 IEM_DS3505
ZJSY,2006-09-09 12:00,ZJSY 091200Z AUTO 7SM 26/23 A2977 RMK T02600230 IEM_DS3505
ZJSY,2006-09-09 13:00,ZJSY 091300Z VRB01MPS 9999 SCT015 26/23 Q1008 NOSIG
ZJSY,2006-09-09 14:00,ZJSY 091400Z AUTO 7SM 25/23 A2983 RMK T02500230 IEM_DS3505
ZJSY,2006-09-09 15:00,ZJSY 091500Z AUTO 34004KT 7SM 25/23 A2983 RMK T02500230 IEM_DS3505
ZJSY,2006-09-09 16:00,ZJSY 091600Z AUTO 32006KT 7SM 25/23 A2985 RMK T02500230 IEM_DS3505
ZJSY,2006-09-09 17:00,ZJSY 091700Z AUTO 33004KT 7SM 25/22 A2983 RMK T02500220 IEM_DS3505
ZJSY,2006-09-09 18:00,ZJSY 091800Z AUTO 35004KT 7SM 25/22 A2983 RMK T02500220 IEM_DS3505
ZJSY,2006-09-09 19:00,ZJSY 091900Z AUTO 31004KT 24/22 A2980 RMK T02400220 IEM_DS3505
ZJSY,2006-09-09 20:00,ZJSY 092000Z AUTO 00000KT 25/23 A2980 RMK T02500230 IEM_DS3505
ZJSY,2006-09-09 21:00,ZJSY 092100Z AUTO 04002KT 25/22 A2980 RMK T02500220 IEM_DS3505
ZJSY,2006-09-09 22:00,ZJSY 092200Z AUTO 02002KT 7SM 25/23 A2980 RMK T02500230 IEM_DS3505
ZJSY,2006-09-09 23:00,ZJSY 092300Z AUTO 6SM 25/22 A2980 RMK T02500220 IEM_DS3505
ZJSY,2006-09-10 00:00,ZJSY 100000Z AUTO 00000KT 6SM 26/23 A2983 RMK T02600230 IEM_DS3505
ZJSY,2006-09-10 01:00,ZJSY 100100Z AUTO 7SM 28/23 A2983 RMK T02800230 IEM_DS3505
ZJSY,2006-09-10 02:00,ZJSY 100200Z AUTO 6SM 30/24 A2985 RMK T03000240 IEM_DS3505
ZJSY,2006-09-10 03:00,ZJSY 100300Z AUTO 20004KT 7SM 29/23 A2985 RMK T02900230 IEM_DS3505
ZJSY,2006-09-10 04:00,ZJSY 100400Z AUTO 19004KT 7SM 30/24 A2983 RMK T03000240 IEM_DS3505
ZJSY,2006-09-10 05:00,ZJSY 100500Z AUTO 20006KT 7SM 31/23 A2980 RMK T03100230 IEM_DS3505
ZJSY,2006-09-10 06:00,ZJSY 100600Z AUTO 20006KT 7SM 29/23 A2980 RMK T02900230 IEM_DS3505
ZJSY,2006-09-10 07:00,ZJSY 100700Z AUTO 7SM 27/24 A2980 RMK T02700240 IEM_DS3505
ZJSY,2006-09-10 08:00,ZJSY 100800Z AUTO 18006KT 2 1/2SM 25/23 A2977 RMK T02500230 IEM_DS3505
ZJSY,2006-09-10 09:00,ZJSY 100900Z AUTO 6SM 26/24 A2977 RMK T02600240 IEM_DS3505
ZJSY,2006-09-10 10:00,ZJSY 101000Z AUTO 02002KT 6SM 27/24 A2977 RMK T02700240 IEM_DS3505
ZJSY,2006-09-10 11:00,ZJSY 101100Z AUTO 02002KT 7SM 26/24 A2977 RMK T02600240 IEM_DS3505
ZJSY,2006-09-10 12:00,ZJSY 101200Z AUTO 31002KT 7SM 26/23 A2977 RMK T02600230 IEM_DS3505
ZJSY,2006-09-10 13:00,ZJSY 101300Z AUTO 7SM 25/22 A2980 RMK T02500220 IEM_DS3505
ZJSY,2006-09-10 14:00,ZJSY 101400Z AUTO 7SM 25/22 A2980 RMK T02500220 IEM_DS3505
ZJSY,2006-09-10 15:00,ZJSY 101500Z AUTO 08004KT 7SM 25/22 A2980 RMK T02500220 IEM_DS3505
ZJSY,2006-09-10 16:00,ZJSY 101600Z AUTO 10004KT 7SM 25/21 A2980 RMK T02500210 IEM_DS3505
ZJSY,2006-09-10 17:00,ZJSY 101700Z AUTO 00000KT 7SM 25/22 A2980 RMK T02500220 IEM_DS3505
ZJSY,2006-09-10 18:00,ZJSY 101800Z AUTO 00000KT 7SM 25/22 A2977 RMK T02500220 IEM_DS3505
ZJSY,2006-09-10 19:00,ZJSY 101900Z AUTO 00000KT 24/22 A2977 RMK T02400220 IEM_DS3505
ZJSY,2006-09-10 20:00,ZJSY 102000Z AUTO 00000KT 24/21 A2974 RMK T02400210 IEM_DS3505
ZJSY,2006-09-10 21:00,ZJSY 102100Z AUTO 00000KT 7SM 24/21 A2974 RMK T02400210 IEM_DS3505
ZJSY,2006-09-10 22:00,ZJSY 102200Z AUTO 35002KT 7SM 23/22 A2977 RMK T02300220 IEM_DS3505
ZJSY,2006-09-10 23:00,ZJSY 102300Z AUTO 7SM 24/22 A2977 RMK T02400220 IEM_DS3505
ZJSY,2006-09-11 00:00,ZJSY 110000Z AUTO 00000KT 7SM 24/22 A2980 RMK T02400220 IEM_DS3505
ZJSY,2006-09-11 01:00,ZJSY 110100Z AUTO 00000KT 7SM 26/22 A2980 RMK T02600220 IEM_DS3505
ZJSY,2006-09-11 02:00,ZJSY 110200Z AUTO 00000KT 7SM 27/22 A2980 RMK T02700220 IEM_DS3505
ZJSY,2006-09-11 03:00,ZJSY 110300Z AUTO 7SM 27/21 A2980 RMK T02700210 IEM_DS3505
ZJSY,2006-09-11 04:00,ZJSY 110400Z AUTO 00000KT 7SM 27/21 A2980 RMK T02700210 IEM_DS3505
ZJSY,2006-09-11 05:00,ZJSY 110500Z AUTO 7SM 27/21 A2980 RMK T02700210 IEM_DS3505
ZJSY,2006-09-11 06:00,ZJSY 110600Z AUTO 7SM 28/22 A2977 RMK T02800220 IEM_DS3505
ZJSY,2006-09-11 07:00,ZJSY 110700Z AUTO 7SM 27/21 A2977 RMK T02700210 IEM_DS3505
ZJSY,2006-09-11 08:00,ZJSY 110800Z AUTO 00000KT 7SM 27/21 A2974 RMK T02700210 IEM_DS3505
ZJSY,2006-09-11 09:00,ZJSY 110900Z AUTO 00000KT 7SM 27/22 A2974 RMK T02700220 IEM_DS3505
ZJSY,2006-09-11 10:00,ZJSY 111000Z AUTO 6SM 27/23 A2974 RMK T02700230 IEM_DS3505
ZJSY,2006-09-11 11:00,ZJSY 111100Z AUTO 00000KT 7SM 26/22 A2974 RMK T02600220 IEM_DS3505
ZJSY,2006-09-11 12:00,ZJSY 111200Z AUTO 00000KT 6SM 26/22 A2977 RMK T02600220 IEM_DS3505
ZJSY,2006-09-11 13:00,ZJSY 111300Z AUTO 7SM 25/22 A2977 RMK T02500220 IEM_DS3505
ZJSY,2006-09-11 14:00,ZJSY 111400Z AUTO 34004KT 7SM 25/22 A2980 RMK T02500220 IEM_DS3505
ZJSY,2006-09-11 15:00,ZJSY 111500Z AUTO 33004KT 6SM 24/21 A2980 RMK T02400210 IEM_DS3505
ZJSY,2006-09-11 16:00,ZJSY 111600Z AUTO 34004KT 6SM 23/21 A2980 RMK T02300210 IEM_DS3505
ZJSY,2006-09-11 17:00,ZJSY 111700Z AUTO 32004KT 6SM 23/21 A2980 RMK T02300210 IEM_DS3505
ZJSY,2006-09-11 18:00,ZJSY 111800Z AUTO 31004KT 23/21 A2977 RMK T02300210 IEM_DS3505
ZJSY,2006-09-11 19:00,ZJSY 111900Z AUTO 33002KT 23/21 A2977 RMK T02300210 IEM_DS3505
ZJSY,2006-09-11 20:00,ZJSY 112000Z AUTO 32002KT 23/20 A2977 RMK T02300200 IEM_DS3505
ZJSY,2006-09-11 21:00,ZJSY 112100Z AUTO 00000KT 23/21 A2977 RMK T02300210 IEM_DS3505
ZJSY,2006-09-11 22:00,ZJSY 112200Z AUTO 6SM 23/20 A2977 RMK T02300200 IEM_DS3505
ZJSY,2006-09-11 23:00,ZJSY 112300Z AUTO 00000KT 6SM 23/21 A2977 RMK T02300210 IEM_DS3505
ZJSY,2006-09-12 00:00,ZJSY 120000Z AUTO 6SM 25/21 A2980 RMK T02500210 IEM_DS3505
ZJSY,2006-09-12 01:00,ZJSY 120100Z AUTO 13004KT 6SM 27/21 A2983 RMK T02700210 IEM_DS3505
ZJSY,2006-09-12 02:00,ZJSY 120200Z AUTO 6SM 28/22 A2980 RMK T02800220 IEM_DS3505
ZJSY,2006-09-12 03:00,ZJSY 120300Z AUTO 20004KT 6SM 29/21 A2980 RMK T02900210 IEM_DS3505
ZJSY,2006-09-12 04:00,ZJSY 120400Z AUTO 20006KT 7SM 30/23 A2980 RMK T03000230 IEM_DS3505
ZJSY,2006-09-12 05:00,ZJSY 120500Z AUTO 22008KT 7SM 30/22 A2980 RMK T03000220 IEM_DS3505
ZJSY,2006-09-12 06:00,ZJSY 120600Z AUTO 22006KT 7SM 29/23 A2977 RMK T02900230 IEM_DS3505
ZJSY,2006-09-12 07:00,ZJSY 120700Z AUTO 20006KT 7SM 29/23 A2974 RMK T02900230 IEM_DS3505
ZJSY,2006-09-12 08:00,ZJSY 120800Z AUTO 21004KT 7SM 29/22 A2974 RMK T02900220 IEM_DS3505
ZJSY,2006-09-12 09:00,ZJSY 120900Z AUTO 14004KT 7SM 28/22 A2974 RMK T02800220 IEM_DS3505
ZJSY,2006-09-12 10:00,ZJSY 121000Z AUTO 7SM 28/22 A2977 RMK T02800220 IEM_DS3505
ZJSY,2006-09-12 11:00,ZJSY 121100Z AUTO 10004KT 7SM 28/22 A2977 RMK T02800220 IEM_DS3505
ZJSY,2006-09-12 12:00,ZJSY 121200Z AUTO 05006KT 7SM 27/22 A2980 RMK T02700220 IEM_DS3505
ZJSY,2006-09-12 13:00,ZJSY 121300Z AUTO 05006KT 7SM 27/23 A2983 RMK T02700230 IEM_DS3505
ZJSY,2006-09-12 14:00,ZJSY 121400Z AUTO 35004KT 7SM 26/23 A2983 RMK T02600230 IEM_DS3505
ZJSY,2006-09-12 15:00,ZJSY 121500Z AUTO 7SM 26/23 A2985 RMK T02600230 IEM_DS3505
ZJSY,2006-09-12 16:00,ZJSY 121600Z AUTO 34004KT 7SM 26/23 A2985 RMK T02600230 IEM_DS3505
ZJSY,2006-09-12 17:00,ZJSY 121700Z AUTO 33004KT 7SM 25/23 A2983 RMK T02500230 IEM_DS3505
ZJSY,2006-09-12 18:00,ZJSY 121800Z AUTO 33004KT 25/22 A2983 RMK T02500220 IEM_DS3505
ZJSY,2006-09-12 19:00,ZJSY 121900Z AUTO 03002KT 24/21 A2980 RMK T02400210 IEM_DS3505
ZJSY,2006-09-12 20:00,ZJSY 122000Z AUTO 33002KT 24/21 A2980 RMK T02400210 IEM_DS3505
ZJSY,2006-09-12 21:00,ZJSY 122100Z AUTO 6SM 24/21 A2980 RMK T02400210 IEM_DS3505
ZJSY,2006-09-12 22:00,ZJSY 122200Z AUTO 00000KT 6SM 25/21 A2980 RMK T02500210 IEM_DS3505
ZJSY,2006-09-12 23:00,ZJSY 122300Z AUTO 4SM 24/21 A2983 RMK T02400210 IEM_DS3505
ZJSY,2006-09-13 00:00,ZJSY 130000Z AUTO 34002KT 4SM 24/22 A2983 RMK T02400220 IEM_DS3505
ZJSY,2006-09-13 01:00,ZJSY 130100Z AUTO 00000KT 3SM 27/22 A2985 RMK T02700220 IEM_DS3505
ZJSY,2006-09-13 02:00,ZJSY 130200Z AUTO 3SM 28/22 A2985 RMK T02800220 IEM_DS3505
ZJSY,2006-09-13 03:00,ZJSY 130300Z AUTO 18004KT 4SM 29/21 A2985 RMK T02900210 IEM_DS3505
ZJSY,2006-09-13 04:00,ZJSY 130400Z AUTO 18004KT 4SM 29/22 A2985 RMK T02900220 IEM_DS3505
ZJSY,2006-09-13 05:00,ZJSY 130500Z AUTO 20004KT 4SM 29/22 A2983 RMK T02900220 IEM_DS3505
ZJSY,2006-09-13 06:00,ZJSY 130600Z AUTO 24006KT 4SM 29/22 A2980 RMK T02900220 IEM_DS3505
ZJSY,2006-09-13 07:00,ZJSY 130700Z AUTO 23006KT 4SM 29/21 A2980 RMK T02900210 IEM_DS3505
ZJSY,2006-09-13 08:00,ZJSY 130800Z AUTO 24006KT 5SM 29/22 A2977 RMK T02900220 IEM_DS3505
ZJSY,2006-09-13 09:00,ZJSY 130900Z AUTO 23004KT 5SM 30/22 A2977 RMK T03000220 IEM_DS3505
ZJSY,2006-09-13 10:00,ZJSY 131000Z AUTO 5SM 28/22 A2977 RMK T02800220 IEM_DS3505
ZJSY,2006-09-13 11:00,ZJSY 131100Z AUTO 35002KT 5SM 27/23 A2977 RMK T02700230 IEM_DS3505
ZJSY,2006-09-13 12:00,ZJSY 131200Z AUTO 34004KT 5SM 26/23 A2980 RMK T02600230 IEM_DS3505
ZJSY,2006-09-13 13:00,ZJSY 131300Z AUTO 35004KT 5SM 27/21 A2980 RMK T02700210 IEM_DS3505
ZJSY,2006-09-13 14:00,ZJSY 131400Z AUTO 6SM 26/21 A2983 RMK T02600210 IEM_DS3505
ZJSY,2006-09-13 15:00,ZJSY 131500Z AUTO 00000KT 6SM 26/21 A2983 RMK T02600210 IEM_DS3505
ZJSY,2006-09-13 16:00,ZJSY 131600Z AUTO 32004KT 6SM 25/22 A2983 RMK T02500220 IEM_DS3505
ZJSY,2006-09-13 17:00,ZJSY 131700Z AUTO 35004KT 6SM 24/21 A2983 RMK T02400210 IEM_DS3505
ZJSY,2006-09-13 18:00,ZJSY 131800Z AUTO 00000KT 6SM 24/21 A2983 RMK T02400210 IEM_DS3505
ZJSY,2006-09-13 19:00,ZJSY 131900Z AUTO 33004KT 24/21 A2980 RMK T02400210 IEM_DS3505
ZJSY,2006-09-13 20:00,ZJSY 132000Z AUTO 34004KT 24/21 A2980 RMK T02400210 IEM_DS3505
ZJSY,2006-09-13 21:00,ZJSY 132100Z AUTO 00000KT 6SM 24/21 A2980 RMK T02400210 IEM_DS3505
ZJSY,2006-09-13 22:00,ZJSY 132200Z AUTO 31002KT 6SM 23/21 A2980 RMK T02300210 IEM_DS3505
ZJSY,2006-09-13 23:00,ZJSY 132300Z AUTO 34004KT 6SM 23/21 A2983 RMK T02300210 IEM_DS3505
ZJSY,2006-09-14 00:00,ZJSY 140000Z AUTO 6SM 26/22 A2983 RMK T02600220 IEM_DS3505
ZJSY,2006-09-14 01:00,ZJSY 140100Z AUTO 00000KT 6SM 29/21 A2985 RMK T02900210 IEM_DS3505
ZJSY,2006-09-14 02:00,ZJSY 140200Z AUTO 19004KT 7SM 29/22 A2985 RMK T02900220 IEM_DS3505
ZJSY,2006-09-14 03:00,ZJSY 140300Z AUTO 20006KT 7SM 30/22 A2985 RMK T03000220 IEM_DS3505
ZJSY,2006-09-14 04:00,ZJSY 140400Z AUTO 19006KT 7SM 30/22 A2983 RMK T03000220 IEM_DS3505
ZJSY,2006-09-14 05:00,ZJSY 140500Z AUTO 23008KT 7SM 30/22 A2983 RMK T03000220 IEM_DS3505
ZJSY,2006-09-14 06:00,ZJSY 140600Z AUTO 23008KT 6SM 30/23 A2980 RMK T03000230 IEM_DS3505
ZJSY,2006-09-14 07:00,ZJSY 140700Z AUTO 24008KT 7SM 30/23 A2977 RMK T03000230 IEM_DS3505
ZJSY,2006-09-14 08:00,ZJSY 140800Z AUTO 25008KT 7SM 29/23 A2977 RMK T02900230 IEM_DS3505
ZJSY,2006-09-14 09:00,ZJSY 140900Z AUTO 26006KT 7SM 29/23 A2977 RMK T02900230 IEM_DS3505
ZJSY,2006-09-14 10:00,ZJSY 141000Z AUTO 26008KT 7SM 28/23 A2977 RMK T02800230 IEM_DS3505
ZJSY,2006-09-14 11:00,ZJSY 141100Z AUTO 26006KT 5SM 28/23 A2977 RMK T02800230 IEM_DS3505
ZJSY,2006-09-14 12:00,ZJSY 141200Z AUTO 26004KT 5SM 27/23 A2980 RMK T02700230 IEM_DS3505
ZJSY,2006-09-14 13:00,ZJSY 141300Z AUTO 26004KT 5SM 27/23 A2980 RMK T02700230 IEM_DS3505
ZJSY,2006-09-14 14:00,ZJSY 141400Z AUTO 26004KT 5SM 26/23 A2983 RMK T02600230 IEM_DS3505
ZJSY,2006-09-14 15:00,ZJSY 141500Z AUTO 33004KT 5SM 26/24 A2983 RMK T02600240 IEM_DS3505
ZJSY,2006-09-14 16:00,ZJSY 141600Z AUTO 00000KT 5SM 25/23 A2983 RMK T02500230 IEM_DS3505
ZJSY,2006-09-14 17:00,ZJSY 141700Z AUTO 33004KT 5SM 25/23 A2983 RMK T02500230 IEM_DS3505
ZJSY,2006-09-14 18:00,ZJSY 141800Z AUTO 24/22 A2980 RMK T02400220 IEM_DS3505
ZJSY,2006-09-14 19:00,ZJSY 141900Z AUTO 34002KT 24/22 A2980 RMK T02400220 IEM_DS3505
ZJSY,2006-09-14 20:00,ZJSY 142000Z AUTO 24/22 A2980 RMK T02400220 IEM_DS3505
ZJSY,2006-09-14 21:00,ZJSY 142100Z AUTO 00000KT 5SM 24/22 A2980 RMK T02400220 IEM_DS3505
ZJSY,2006-09-14 22:00,ZJSY 142200Z AUTO 33006KT 5SM 23/21 A2980 RMK T02300210 IEM_DS3505
ZJSY,2006-09-14 23:00,ZJSY 142300Z AUTO 35004KT 5SM 23/21 A2983 RMK T02300210 IEM_DS3505
ZJSY,2006-09-15 00:00,ZJSY 150000Z AUTO 33004KT 5SM 25/22 A2983 RMK T02500220 IEM_DS3505
ZJSY,2006-09-15 01:00,ZJSY 150100Z AUTO 00000KT 5SM 29/22 A2983 RMK T02900220 IEM_DS3505
ZJSY,2006-09-15 02:00,ZJSY 150200Z AUTO 20004KT 7SM 29/21 A2983 RMK T02900210 IEM_DS3505
ZJSY,2006-09-15 03:00,ZJSY 150300Z AUTO 21008KT 6SM 29/23 A2983 RMK T02900230 IEM_DS3505
ZJSY,2006-09-15 04:00,ZJSY 150400Z AUTO 24008KT 6SM 29/22 A2983 RMK T02900220 IEM_DS3505
ZJSY,2006-09-15 05:00,ZJSY 150500Z AUTO 24010KT 7SM 30/23 A2980 RMK T03000230 IEM_DS3505
ZJSY,2006-09-15 06:00,ZJSY 150600Z AUTO 24012KT 7SM 29/24 A2977 RMK T02900240 IEM_DS3505
ZJSY,2006-09-15 07:00,ZJSY 150700Z AUTO 25010KT 7SM 28/24 A2974 RMK T02800240 IEM_DS3505
ZJSY,2006-09-15 08:00,ZJSY 150800Z AUTO 24006KT 7SM 29/24 A2974 RMK T02900240 IEM_DS3505
ZJSY,2006-09-15 09:00,ZJSY 150900Z AUTO 24006KT 6SM 28/25 A2974 RMK T02800250 IEM_DS3505
ZJSY,2006-09-15 10:00,ZJSY 151000Z AUTO 6SM 29/24 A2974 RMK T02900240 IEM_DS3505
ZJSY,2006-09-15 11:00,ZJSY 151100Z AUTO 06004KT 5SM 28/24 A2977 RMK T02800240 IEM_DS3505
ZJSY,2006-09-15 12:00,ZJSY 151200Z AUTO 06006KT 5SM 28/24 A2980 RMK T02800240 IEM_DS3505
ZJSY,2006-09-15 13:00,ZJSY 151300Z AUTO 34002KT 5SM 27/24 A2980 RMK T02700240 IEM_DS3505
ZJSY,2006-09-15 14:00,ZJSY 151400Z AUTO 00000KT 7SM 27/24 A2983 RMK T02700240 IEM_DS3505
ZJSY,2006-09-15 15:00,ZJSY 151500Z AUTO 00000KT 7SM 27/23 A2985 RMK T02700230 IEM_DS3505
ZJSY,2006-09-15 16:00,ZJSY 151600Z AUTO 07006KT 6SM 26/23 A2985 RMK T02600230 IEM_DS3505
ZJSY,2006-09-15 17:00,ZJSY 151700Z AUTO 00000KT 6SM 25/23 A2983 RMK T02500230 IEM_DS3505
ZJSY,2006-09-15 18:00,ZJSY 151800Z AUTO 34002KT 6SM 25/23 A2983 RMK T02500230 IEM_DS3505
ZJSY,2006-09-15 19:00,ZJSY 151900Z AUTO 33002KT 24/23 A2980 RMK T02400230 IEM_DS3505
ZJSY,2006-09-15 20:00,ZJSY 152000Z AUTO 34002KT 24/23 A2980 RMK T02400230 IEM_DS3505
ZJSY,2006-09-15 21:00,ZJSY 152100Z AUTO 00000KT 7SM 24/23 A2980 RMK T02400230 IEM_DS3505
ZJSY,2006-09-15 22:00,ZJSY 152200Z AUTO 33002KT 7SM 24/22 A2983 RMK T02400220 IEM_DS3505
ZJSY,2006-09-15 23:00,ZJSY 152300Z AUTO 7SM 24/23 A2983 RMK T02400230 IEM_DS3505
ZJSY,2006-09-16 00:00,ZJSY 160000Z AUTO 33004KT 7SM 25/23 A2985 RMK T02500230 IEM_DS3505
ZJSY,2006-09-16 01:00,ZJSY 160100Z AUTO 00000KT 7SM 29/24 A2985 RMK T02900240 IEM_DS3505
ZJSY,2006-09-16 02:00,ZJSY 160200Z AUTO 19006KT 7SM 28/23 A2985 RMK T02800230 IEM_DS3505
ZJSY,2006-09-16 03:00,ZJSY 160300Z AUTO 20006KT 7SM 28/23 A2985 RMK T02800230 IEM_DS3505
ZJSY,2006-09-16 04:00,ZJSY 160400Z AUTO 23008KT 7SM 29/23 A2985 RMK T02900230 IEM_DS3505
ZJSY,2006-09-16 05:00,ZJSY 160500Z AUTO 24008KT 7SM 29/24 A2983 RMK T02900240 IEM_DS3505
ZJSY,2006-09-16 06:00,ZJSY 160600Z AUTO 24008KT 7SM 29/23 A2980 RMK T02900230 IEM_DS3505
ZJSY,2006-09-16 07:00,ZJSY 160700Z AUTO 24008KT 7SM 30/24 A2977 RMK T03000240 IEM_DS3505
ZJSY,2006-09-16 08:00,ZJSY 160800Z AUTO 23008KT 7SM 30/23 A2977 RMK T03000230 IEM_DS3505
ZJSY,2006-09-16 09:00,ZJSY 160900Z AUTO 24008KT 6SM 30/25 A2977 RMK T03000250 IEM_DS3505
ZJSY,2006-09-16 10:00,ZJSY 161000Z AUTO 25004KT 7SM 29/25 A2977 RMK T02900250 IEM_DS3505
ZJSY,2006-09-16 11:00,ZJSY 161100Z AUTO 07004KT 7SM 28/25 A2977 RMK T02800250 IEM_DS3505
ZJSY,2006-09-16 12:00,ZJSY 161200Z AUTO 07004KT 7SM 28/24 A2980 RMK T02800240 IEM_DS3505
ZJSY,2006-09-16 13:00,ZJSY 161300Z AUTO 06004KT 7SM 28/23 A2983 RMK T02800230 IEM_DS3505
ZJSY,2006-09-16 14:00,ZJSY 161400Z AUTO 08004KT 7SM 27/24 A2985 RMK T02700240 IEM_DS3505
ZJSY,2006-09-16 15:00,ZJSY 161500Z AUTO 07004KT 7SM 27/24 A2985 RMK T02700240 IEM_DS3505
ZJSY,2006-09-16 16:00,ZJSY 161600Z AUTO 05006KT 7SM 27/24 A2985 RMK T02700240 IEM_DS3505
ZJSY,2006-09-16 17:00,ZJSY 161700Z AUTO 06004KT 7SM 27/24 A2983 RMK T02700240 IEM_DS3505
ZJSY,2006-09-16 18:00,ZJSY 161800Z AUTO 08004KT 26/24 A2983 RMK T02600240 IEM_DS3505
ZJSY,2006-09-16 19:00,ZJSY 161900Z AUTO 05004KT 26/23 A2980 RMK T02600230 IEM_DS3505
ZJSY,2006-09-16 20:00,ZJSY 162000Z AUTO 34004KT 25/23 A2980 RMK T02500230 IEM_DS3505
ZJSY,2006-09-16 21:00,ZJSY 162100Z AUTO 35002KT 7SM 25/23 A2980 RMK T02500230 IEM_DS3505
ZJSY,2006-09-16 22:00,ZJSY 162200Z AUTO 00000KT 7SM 25/23 A2980 RMK T02500230 IEM_DS3505
ZJSY,2006-09-16 23:00,ZJSY 162300Z AUTO 33002KT 7SM 25/24 A2983 RMK T02500240 IEM_DS3505
ZJSY,2006-09-17 00:00,ZJSY 170000Z AUTO 00000KT 7SM 27/24 A2983 RMK T02700240 IEM_DS3505
ZJSY,2006-09-17 01:00,ZJSY 170100Z AUTO 7SM 29/24 A2985 RMK T02900240 IEM_DS3505
ZJSY,2006-09-17 02:00,ZJSY 170200Z AUTO 16004KT 7SM 29/25 A2985 RMK T02900250 IEM_DS3505
ZJSY,2006-09-17 03:00,ZJSY 170300Z AUTO 18006KT 7SM 29/25 A2985 RMK T02900250 IEM_DS3505
ZJSY,2006-09-17 04:00,ZJSY 170400Z AUTO 17006KT 7SM 30/25 A2983 RMK T03000250 IEM_DS3505
ZJSY,2006-09-17 05:00,ZJSY 170500Z AUTO 18006KT 7SM 29/25 A2983 RMK T02900250 IEM_DS3505
ZJSY,2006-09-17 06:00,ZJSY 170600Z AUTO 15004KT 7SM 29/25 A2980 RMK T02900250 IEM_DS3505
ZJSY,2006-09-17 07:00,ZJSY 170700Z AUTO 08004KT 5SM 28/24 A2977 RMK T02800240 IEM_DS3505
ZJSY,2006-09-17 08:00,ZJSY 170800Z AUTO 00000KT 5SM 28/25 A2974 RMK T02800250 IEM_DS3505
ZJSY,2006-09-17 09:00,ZJSY 170900Z AUTO 33004KT 2SM 27/25 A2974 RMK T02700250 IEM_DS3505
ZJSY,2006-09-17 10:00,ZJSY 171000Z AUTO 00000KT 2 1/2SM 26/24 A2977 RMK T02600240 IEM_DS3505
ZJSY,2006-09-17 11:00,ZJSY 171100Z AUTO 35002KT 2 1/2SM 26/25 A2977 RMK T02600250 IEM_DS3505
ZJSY,2006-09-17 12:00,ZJSY 171200Z AUTO 32002KT 2 1/2SM 26/25 A2977 RMK T02600250 IEM_DS3505
ZJSY,2006-09-17 13:00,ZJSY 171300Z AUTO 06004KT 2 1/2SM 27/24 A2980 RMK T02700240 IEM_DS3505
ZJSY,2006-09-17 14:00,ZJSY 171400Z AUTO 06006KT 2 1/2SM 27/23 A2983 RMK T02700230 IEM_DS3505
ZJSY,2006-09-17 15:00,ZJSY 171500Z AUTO 08004KT 2 1/2SM 26/23 A2983 RMK T02600230 IEM_DS3505
ZJSY,2006-09-17 16:00,ZJSY 171600Z AUTO 09006KT 2 1/2SM 26/23 A2983 RMK T02600230 IEM_DS3505
ZJSY,2006-09-17 17:00,ZJSY 171700Z AUTO 06004KT 2 1/2SM 26/23 A2983 RMK T02600230 IEM_DS3505
ZJSY,2006-09-17 18:00,ZJSY 171800Z AUTO 03006KT 26/21 A2980 RMK T02600210 IEM_DS3505
ZJSY,2006-09-17 19:00,ZJSY 171900Z AUTO 00000KT 25/21 A2980 RMK T02500210 IEM_DS3505
ZJSY,2006-09-17 20:00,ZJSY 172000Z AUTO 07004KT 25/22 A2977 RMK T02500220 IEM_DS3505
ZJSY,2006-09-17 21:00,ZJSY 172100Z AUTO 32002KT 2 1/2SM 25/23 A2980 RMK T02500230 IEM_DS3505
ZJSY,2006-09-17 22:00,ZJSY 172200Z AUTO 35004KT 2 1/2SM 25/22 A2983 RMK T02500220 IEM_DS3505
ZJSY,2006-09-17 23:00,ZJSY 172300Z AUTO 31004KT 2 1/2SM 25/22 A2983 RMK T02500220 IEM_DS3505
ZJSY,2006-09-18 00:00,ZJSY 180000Z AUTO 2 1/2SM 25/22 A2985 RMK T02500220 IEM_DS3505
ZJSY,2006-09-18 01:00,ZJSY 180100Z AUTO 28002KT 2 1/2SM 25/23 A2988 RMK T02500230 IEM_DS3505
ZJSY,2006-09-18 02:00,ZJSY 180200Z AUTO 27006KT 2 1/2SM 25/22 A2988 RMK T02500220 IEM_DS3505
ZJSY,2006-09-18 03:00,ZJSY 180300Z AUTO 01004KT 3SM 27/22 A2985 RMK T02700220 IEM_DS3505
ZJSY,2006-09-18 04:00,ZJSY 180400Z AUTO 4SM 28/22 A2985 RMK T02800220 IEM_DS3505
ZJSY,2006-09-18 05:00,ZJSY 180500Z AUTO 10004KT 4SM 29/22 A2983 RMK T02900220 IEM_DS3505
ZJSY,2006-09-18 06:00,ZJSY 180600Z AUTO 10006KT 4SM 30/20 A2980 RMK T03000200 IEM_DS3505
ZJSY,2006-09-18 07:00,ZJSY 180700Z AUTO 10004KT 4SM 29/21 A2977 RMK T02900210 IEM_DS3505
ZJSY,2006-09-18 08:00,ZJSY 180800Z AUTO 07006KT 4SM 28/22 A2977 RMK T02800220 IEM_DS3505
ZJSY,2006-09-18 09:00,ZJSY 180900Z AUTO 07006KT 4SM 28/22 A2977 RMK T02800220 IEM_DS3505
ZJSY,2006-09-18 10:00,ZJSY 181000Z AUTO 08008KT 3SM 28/22 A2977 RMK T02800220 IEM_DS3505
ZJSY,2006-09-18 11:00,ZJSY 181100Z AUTO 07004KT 3SM 27/22 A2977 RMK T02700220 IEM_DS3505
ZJSY,2006-09-18 12:00,ZJSY 181200Z AUTO 07004KT 3SM 27/22 A2980 RMK T02700220 IEM_DS3505
ZJSY,2006-09-18 13:00,ZJSY 181300Z AUTO 01002KT 4SM 26/22 A2983 RMK T02600220 IEM_DS3505
ZJSY,2006-09-18 14:00,ZJSY 181400Z AUTO 4SM 26/22 A2985 RMK T02600220 IEM_DS3505
ZJSY,2006-09-18 15:00,ZJSY 181500Z AUTO 08006KT 4SM 26/22 A2985 RMK T02600220 IEM_DS3505
ZJSY,2006-09-18 16:00,ZJSY 181600Z AUTO 08006KT 6SM 26/22 A2985 RMK T02600220 IEM_DS3505
ZJSY,2006-09-18 17:00,ZJSY 181700Z AUTO 6SM 26/22 A2985 RMK T02600220 IEM_DS3505
ZJSY,2006-09-18 18:00,ZJSY 181800Z AUTO 07002KT 6SM 26/22 A2983 RMK T02600220 IEM_DS3505
ZJSY,2006-09-18 19:00,ZJSY 181900Z AUTO 25/23 A2980 RMK T02500230 IEM_DS3505
ZJSY,2006-09-18 20:00,ZJSY 182000Z AUTO 25/23 A2980 RMK T02500230 IEM_DS3505
ZJSY,2006-09-18 21:00,ZJSY 182100Z AUTO 00000KT 4SM 25/22 A2980 RMK T02500220 IEM_DS3505
ZJSY,2006-09-18 22:00,ZJSY 182200Z AUTO 33004KT 4SM 24/22 A2980 RMK T02400220 IEM_DS3505
ZJSY,2006-09-18 23:00,ZJSY 182300Z AUTO 00000KT 4SM 23/21 A2983 RMK T02300210 IEM_DS3505
ZJSY,2006-09-19 01:00,ZJSY 190100Z AUTO 4SM 28/20 A2988 RMK T02800200 IEM_DS3505
ZJSY,2006-09-19 02:00,ZJSY 190200Z AUTO 6SM 30/18 A2988 RMK T03000180 IEM_DS3505
ZJSY,2006-09-19 03:00,ZJSY 190300Z AUTO 21004KT 6SM 30/21 A2988 RMK T03000210 IEM_DS3505
ZJSY,2006-09-19 04:00,ZJSY 190400Z AUTO 22006KT 6SM 30/22 A2985 RMK T03000220 IEM_DS3505
ZJSY,2006-09-19 05:00,ZJSY 190500Z AUTO 23006KT 6SM 30/21 A2985 RMK T03000210 IEM_DS3505
ZJSY,2006-09-19 06:00,ZJSY 190600Z AUTO 24006KT 6SM 31/20 A2983 RMK T03100200 IEM_DS3505
ZJSY,2006-09-19 07:00,ZJSY 190700Z AUTO 24008KT 6SM 31/18 A2980 RMK T03100180 IEM_DS3505
ZJSY,2006-09-19 08:00,ZJSY 190800Z AUTO 23006KT 6SM 30/21 A2977 RMK T03000210 IEM_DS3505
ZJSY,2006-09-19 09:00,ZJSY 190900Z AUTO 22004KT 6SM 29/22 A2977 RMK T02900220 IEM_DS3505
ZJSY,2006-09-19 10:00,ZJSY 191000Z AUTO 22002KT 6SM 29/22 A2977 RMK T02900220 IEM_DS3505
ZJSY,2006-09-19 11:00,ZJSY 191100Z AUTO 00000KT 6SM 28/22 A2980 RMK T02800220 IEM_DS3505
ZJSY,2006-09-19 12:00,ZJSY 191200Z AUTO 10004KT 7SM 27/22 A2983 RMK T02700220 IEM_DS3505
ZJSY,2006-09-19 13:00,ZJSY 191300Z AUTO 08004KT 7SM 27/22 A2985 RMK T02700220 IEM_DS3505
ZJSY,2006-09-19 14:00,ZJSY 191400Z AUTO 34004KT 7SM 26/23 A2988 RMK T02600230 IEM_DS3505
ZJSY,2006-09-19 15:00,ZJSY 191500Z AUTO 7SM 27/22 A2988 RMK T02700220 IEM_DS3505
ZJSY,2006-09-19 16:00,ZJSY 191600Z AUTO 7SM 27/21 A2988 RMK T02700210 IEM_DS3505
ZJSY,2006-09-19 17:00,ZJSY 191700Z AUTO 36002KT 7SM 26/21 A2985 RMK T02600210 IEM_DS3505
ZJSY,2006-09-19 18:00,ZJSY 191800Z AUTO 36002KT 7SM 26/21 A2985 RMK T02600210 IEM_DS3505
ZJSY,2006-09-19 19:00,ZJSY 191900Z AUTO 04002KT 27/21 A2983 RMK T02700210 IEM_DS3505
ZJSY,2006-09-19 20:00,ZJSY 192000Z AUTO 00000KT 26/21 A2980 RMK T02600210 IEM_DS3505
ZJSY,2006-09-19 21:00,ZJSY 192100Z AUTO 08002KT 6SM 26/21 A2980 RMK T02600210 IEM_DS3505
ZJSY,2006-09-19 22:00,ZJSY 192200Z AUTO 00000KT 7SM 25/22 A2983 RMK T02500220 IEM_DS3505
ZJSY,2006-09-19 23:00,ZJSY 192300Z AUTO 34004KT 3SM 25/22 A2983 RMK T02500220 IEM_DS3505
ZJSY,2006-09-20 00:00,ZJSY 200000Z AUTO 32004KT 3SM 26/23 A2985 RMK T02600230 IEM_DS3505
ZJSY,2006-09-20 01:00,ZJSY 200100Z AUTO 4SM 27/22 A2988 RMK T02700220 IEM_DS3505
ZJSY,2006-09-20 02:00,ZJSY 200200Z AUTO 4SM 29/21 A2988 RMK T02900210 IEM_DS3505
ZJSY,2006-09-20 03:00,ZJSY 200300Z AUTO 31004KT 4SM 31/20 A2988 RMK T03100200 IEM_DS3505
ZJSY,2006-09-20 04:00,ZJSY 200400Z AUTO 20004KT 4SM 31/21 A2985 RMK T03100210 IEM_DS3505
ZJSY,2006-09-20 05:00,ZJSY 200500Z AUTO 22006KT 4SM 31/21 A2985 RMK T03100210 IEM_DS3505
ZJSY,2006-09-20 06:00,ZJSY 200600Z AUTO 22006KT 4SM 30/21 A2983 RMK T03000210 IEM_DS3505
ZJSY,2006-09-20 07:00,ZJSY 200700Z AUTO 22006KT 4SM 31/21 A2980 RMK T03100210 IEM_DS3505
ZJSY,2006-09-20 08:00,ZJSY 200800Z AUTO 23004KT 4SM 30/22 A2977 RMK T03000220 IEM_DS3505
ZJSY,2006-09-20 09:00,ZJSY 200900Z AUTO 23006KT 5SM 30/21 A2977 RMK T03000210 IEM_DS3505
ZJSY,2006-09-20 10:00,ZJSY 201000Z AUTO 24004KT 5SM 29/22 A2980 RMK T02900220 IEM_DS3505
ZJSY,2006-09-20 11:00,ZJSY 201100Z AUTO 26006KT 5SM 28/23 A2980 RMK T02800230 IEM_DS3505
ZJSY,2006-09-20 12:00,ZJSY 201200Z AUTO 5SM 28/23 A2983 RMK T02800230 IEM_DS3505
ZJSY,2006-09-20 13:00,ZJSY 201300Z AUTO 5SM 27/23 A2985 RMK T02700230 IEM_DS3505
ZJSY,2006-09-20 14:00,ZJSY 201400Z AUTO 6SM 27/23 A2985 RMK T02700230 IEM_DS3505
ZJSY,2006-09-20 15:00,ZJSY 201500Z AUTO 4SM 27/23 A2985 RMK T02700230 IEM_DS3505
ZJSY,2006-09-20 16:00,ZJSY 201600Z AUTO 00000KT 4SM 26/23 A2985 RMK T02600230 IEM_DS3505
ZJSY,2006-09-20 17:00,ZJSY 201700Z AUTO 34002KT 4SM 26/23 A2985 RMK T02600230 IEM_DS3505
ZJSY,2006-09-20 18:00,ZJSY 201800Z AUTO 33004KT 4SM 25/23 A2983 RMK T02500230 IEM_DS3505
ZJSY,2006-09-20 22:00,ZJSY 202200Z AUTO 31002KT 4SM 24/22 A2983 RMK T02400220 IEM_DS3505
ZJSY,2006-09-20 23:00,ZJSY 202300Z AUTO 3SM 24/22 A2983 RMK T02400220 IEM_DS3505
ZJSY,2006-09-21 00:00,ZJSY 210000Z AUTO 34004KT 3SM 25/22 A2985 RMK T02500220 IEM_DS3505
ZJSY,2006-09-21 01:00,ZJSY 210100Z AUTO 00000KT 3SM 29/22 A2985 RMK T02900220 IEM_DS3505
ZJSY,2006-09-21 02:00,ZJSY 210200Z AUTO 08004KT 3SM 30/18 A2985 RMK T03000180 IEM_DS3505
ZJSY,2006-09-21 03:00,ZJSY 210300Z AUTO 12004KT 3SM 31/20 A2985 RMK T03100200 IEM_DS3505
ZJSY,2006-09-21 04:00,ZJSY 210400Z AUTO 15004KT 3SM 32/20 A2985 RMK T03200200 IEM_DS3505
ZJSY,2006-09-21 05:00,ZJSY 210500Z AUTO 20006KT 3SM 31/21 A2983 RMK T03100210 IEM_DS3505
ZJSY,2006-09-21 06:00,ZJSY 210600Z AUTO 20008KT 3SM 30/20 A2980 RMK T03000200 IEM_DS3505
ZJSY,2006-09-21 07:00,ZJSY 210700Z AUTO 20006KT 3SM 29/20 A2980 RMK T02900200 IEM_DS3505
ZJSY,2006-09-21 08:00,ZJSY 210800Z AUTO 18004KT 3SM 29/20 A2977 RMK T02900200 IEM_DS3505
ZJSY,2006-09-21 09:00,ZJSY 210900Z AUTO 23002KT 4SM 29/19 A2977 RMK T02900190 IEM_DS3505
ZJSY,2006-09-21 10:00,ZJSY 211000Z AUTO 33004KT 4SM 28/20 A2977 RMK T02800200 IEM_DS3505
ZJSY,2006-09-21 11:00,ZJSY 211100Z AUTO 34004KT 3SM 27/21 A2977 RMK T02700210 IEM_DS3505
ZJSY,2006-09-21 12:00,ZJSY 211200Z 34002MPS 5000 HZ BKN053 26/22 Q1009 NOSIG
ZJSY,2006-09-21 13:00,ZJSY 211300Z AUTO 3SM 26/21 A2983 RMK T02600210 IEM_DS3505
ZJSY,2006-09-21 14:00,ZJSY 211400Z AUTO 3SM 26/21 A2983 RMK T02600210 IEM_DS3505
ZJSY,2006-09-21 15:00,ZJSY 211500Z AUTO 3SM 26/21 A2985 RMK T02600210 IEM_DS3505
ZJSY,2006-09-21 16:00,ZJSY 211600Z AUTO 34004KT 3SM 25/22 A2983 RMK T02500220 IEM_DS3505
ZJSY,2006-09-21 17:00,ZJSY 211700Z AUTO 08004KT 3SM 24/21 A2983 RMK T02400210 IEM_DS3505
ZJSY,2006-09-21 18:00,ZJSY 211800Z AUTO 02004KT 3SM 24/21 A2983 RMK T02400210 IEM_DS3505
ZJSY,2006-09-21 19:00,ZJSY 211900Z AUTO 33006KT 23/21 A2980 RMK T02300210 IEM_DS3505
ZJSY,2006-09-21 20:00,ZJSY 212000Z AUTO 23/19 A2980 RMK T02300190 IEM_DS3505
ZJSY,2006-09-21 21:00,ZJSY 212100Z AUTO 33004KT 3SM 23/20 A2980 RMK T02300200 IEM_DS3505
ZJSY,2006-09-21 22:00,ZJSY 212200Z AUTO 33004KT 3SM 22/20 A2980 RMK T02200200 IEM_DS3505
ZJSY,2006-09-21 23:00,ZJSY 212300Z AUTO 00000KT 3SM 23/19 A2980 RMK T02300190 IEM_DS3505
ZJSY,2006-09-22 00:00,ZJSY 220000Z AUTO 00000KT 3SM 25/21 A2983 RMK T02500210 IEM_DS3505
ZJSY,2006-09-22 01:00,ZJSY 220100Z AUTO 07002KT 3SM 28/19 A2985 RMK T02800190 IEM_DS3505
ZJSY,2006-09-22 02:00,ZJSY 220200Z AUTO 08006KT 3SM 30/20 A2985 RMK T03000200 IEM_DS3505
ZJSY,2006-09-22 03:00,ZJSY 220300Z AUTO 21004KT 3SM 30/20 A2983 RMK T03000200 IEM_DS3505
ZJSY,2006-09-22 04:00,ZJSY 220400Z AUTO 21006KT 3SM 31/20 A2983 RMK T03100200 IEM_DS3505
ZJSY,2006-09-22 05:00,ZJSY 220500Z AUTO 22006KT 3SM 31/20 A2980 RMK T03100200 IEM_DS3505
ZJSY,2006-09-22 06:00,ZJSY 220600Z AUTO 23008KT 3SM 31/21 A2977 RMK T03100210 IEM_DS3505
ZJSY,2006-09-22 07:00,ZJSY 220700Z AUTO 23006KT 3SM 30/21 A2977 RMK T03000210 IEM_DS3505
ZJSY,2006-09-22 08:00,ZJSY 220800Z AUTO 23006KT 4SM 30/21 A2974 RMK T03000210 IEM_DS3505
ZJSY,2006-09-22 09:00,ZJSY 220900Z AUTO 27006KT 4SM 30/21 A2974 RMK T03000210 IEM_DS3505
ZJSY,2006-09-22 10:00,ZJSY 221000Z AUTO 24004KT 4SM 29/21 A2974 RMK T02900210 IEM_DS3505
ZJSY,2006-09-22 11:00,ZJSY 221100Z AUTO 23002KT 4SM 28/21 A2977 RMK T02800210 IEM_DS3505
ZJSY,2006-09-22 12:00,ZJSY 221200Z AUTO 4SM 27/21 A2977 RMK T02700210 IEM_DS3505
ZJSY,2006-09-22 13:00,ZJSY 221300Z AUTO 08006KT 4SM 27/21 A2980 RMK T02700210 IEM_DS3505
ZJSY,2006-09-22 14:00,ZJSY 221400Z AUTO 35004KT 4SM 26/22 A2980 RMK T02600220 IEM_DS3505
ZJSY,2006-09-22 15:00,ZJSY 221500Z AUTO 4SM 26/21 A2983 RMK T02600210 IEM_DS3505
ZJSY,2006-09-22 16:00,ZJSY 221600Z AUTO 00000KT 4SM 25/22 A2980 RMK T02500220 IEM_DS3505
ZJSY,2006-09-22 17:00,ZJSY 221700Z AUTO 33002KT 4SM 25/22 A2980 RMK T02500220 IEM_DS3505
ZJSY,2006-09-22 18:00,ZJSY 221800Z AUTO 33004KT 4SM 25/22 A2977 RMK T02500220 IEM_DS3505
ZJSY,2006-09-22 19:00,ZJSY 221900Z AUTO 35002KT 25/22 A2977 RMK T02500220 IEM_DS3505
ZJSY,2006-09-22 20:00,ZJSY 222000Z AUTO 00000MPS //// // ////// 26/21 Q1008
ZJSY,2006-09-22 21:00,ZJSY 222100Z AUTO 10004KT 2SM 25/21 A2977 RMK T02500210 IEM_DS3505
ZJSY,2006-09-22 22:00,ZJSY 222200Z AUTO 08004KT 2SM 24/22 A2977 RMK T02400220 IEM_DS3505
ZJSY,2006-09-22 23:00,ZJSY 222300Z AUTO 00000KT 2 1/2SM 24/22 A2977 RMK T02400220 IEM_DS3505
ZJSY,2006-09-23 00:00,ZJSY 230000Z AUTO 28002KT 4SM 25/22 A2977 RMK T02500220 IEM_DS3505
ZJSY,2006-09-23 01:00,ZJSY 230100Z AUTO 4SM 26/23 A2980 RMK T02600230 IEM_DS3505
ZJSY,2006-09-23 02:00,ZJSY 230200Z AUTO 23002KT 7SM 27/21 A2980 RMK T02700210 IEM_DS3505
ZJSY,2006-09-23 03:00,ZJSY 230300Z AUTO 7SM 28/21 A2980 RMK T02800210 IEM_DS3505
ZJSY,2006-09-23 04:00,ZJSY 230400Z AUTO 36004KT 4SM 28/23 A2980 RMK T02800230 IEM_DS3505
ZJSY,2006-09-23 05:00,ZJSY 230500Z AUTO 7SM 27/24 A2977 RMK T02700240 IEM_DS3505
ZJSY,2006-09-23 06:00,ZJSY 230600Z AUTO 35004KT 7SM 27/23 A2971 RMK T02700230 IEM_DS3505
ZJSY,2006-09-23 07:00,ZJSY 230700Z AUTO 07006KT 3SM 26/24 A2971 RMK T02600240 IEM_DS3505
ZJSY,2006-09-23 08:00,ZJSY 230800Z AUTO 00000KT 4SM 25/23 A2971 RMK T02500230 IEM_DS3505
ZJSY,2006-09-23 09:00,ZJSY 230900Z AUTO 5SM 25/23 A2968 RMK T02500230 IEM_DS3505
ZJSY,2006-09-23 10:00,ZJSY 231000Z AUTO 25002KT 6SM 25/23 A2968 RMK T02500230 IEM_DS3505
ZJSY,2006-09-23 11:00,ZJSY 231100Z AUTO 30002KT 6SM 25/23 A2968 RMK T02500230 IEM_DS3505
ZJSY,2006-09-23 12:00,ZJSY 231200Z AUTO 00000KT 5SM 25/23 A2971 RMK T02500230 IEM_DS3505
ZJSY,2006-09-23 13:00,ZJSY 231300Z AUTO 00000KT 5SM 25/23 A2974 RMK T02500230 IEM_DS3505
ZJSY,2006-09-23 14:00,ZJSY 231400Z AUTO 5SM 25/23 A2971 RMK T02500230 IEM_DS3505
ZJSY,2006-09-23 15:00,ZJSY 231500Z AUTO 7SM 24/23 A2971 RMK T02400230 IEM_DS3505
ZJSY,2006-09-23 16:00,ZJSY 231600Z AUTO 00000KT 7SM 25/23 A2971 RMK T02500230 IEM_DS3505
ZJSY,2006-09-23 17:00,ZJSY 231700Z AUTO 00000KT 7SM 25/23 A2968 RMK T02500230 IEM_DS3505
ZJSY,2006-09-23 18:00,ZJSY 231800Z AUTO 00000KT 7SM 25/23 A2965 RMK T02500230 IEM_DS3505
ZJSY,2006-09-23 19:00,ZJSY 231900Z AUTO 26002KT 7SM 25/23 A2962 RMK T02500230 IEM_DS3505
ZJSY,2006-09-23 20:00,ZJSY 232000Z AUTO 30004KT 7SM 24/23 A2962 RMK T02400230 IEM_DS3505
ZJSY,2006-09-23 21:00,ZJSY 232100Z AUTO 5SM 24/23 A2962 RMK T02400230 IEM_DS3505
ZJSY,2006-09-23 22:00,ZJSY 232200Z AUTO 00000KT 5SM 24/23 A2962 RMK T02400230 IEM_DS3505
ZJSY,2006-09-23 23:00,ZJSY 232300Z AUTO 00000KT 3SM 24/23 A2959 RMK T02400230 IEM_DS3505
ZJSY,2006-09-24 00:00,ZJSY 240000Z AUTO 29004KT 7SM 25/23 A2962 RMK T02500230 IEM_DS3505
ZJSY,2006-09-24 01:00,ZJSY 240100Z AUTO 5SM 27/24 A2965 RMK T02700240 IEM_DS3505
ZJSY,2006-09-24 02:00,ZJSY 240200Z AUTO 05012KT 7SM 30/25 A2962 RMK T03000250 IEM_DS3505
ZJSY,2006-09-24 03:00,ZJSY 240300Z AUTO 05016KT 7SM 30/23 A2962 RMK T03000230 IEM_DS3505
ZJSY,2006-09-24 04:00,ZJSY 240400Z AUTO 04012KT 7SM 29/23 A2959 RMK T02900230 IEM_DS3505
ZJSY,2006-09-24 05:00,ZJSY 240500Z AUTO 05016KT 7SM 31/24 A2956 RMK T03100240 IEM_DS3505
ZJSY,2006-09-24 06:00,ZJSY 240600Z AUTO 03014G23KT 7SM 29/24 A2953 RMK T02900240 IEM_DS3505
ZJSY,2006-09-24 07:00,ZJSY 240700Z AUTO 05019KT 7SM 31/23 A2950 RMK T03100230 IEM_DS3505
ZJSY,2006-09-24 08:00,ZJSY 240800Z AUTO 04019G31KT 7SM 31/23 A2947 RMK T03100230 IEM_DS3505
ZJSY,2006-09-24 09:00,ZJSY 240900Z AUTO 05014KT 7SM 30/23 A2947 RMK T03000230 IEM_DS3505
ZJSY,2006-09-24 10:00,ZJSY 241000Z AUTO 07014KT 4SM 27/24 A2950 RMK T02700240 IEM_DS3505
ZJSY,2006-09-24 11:00,ZJSY 241100Z AUTO 05014KT 4SM 27/24 A2953 RMK T02700240 IEM_DS3505
ZJSY,2006-09-24 12:00,ZJSY 241200Z AUTO 07012KT 4SM 26/24 A2953 RMK T02600240 IEM_DS3505
ZJSY,2006-09-24 13:00,ZJSY 241300Z AUTO 06021KT 3SM 27/24 A2953 RMK T02700240 IEM_DS3505
ZJSY,2006-09-24 14:00,ZJSY 241400Z AUTO 07019G29KT 2 1/2SM 26/24 A2956 RMK T02600240 IEM_DS3505
ZJSY,2006-09-24 15:00,ZJSY 241500Z AUTO 08017KT 3SM 26/24 A2959 RMK T02600240 IEM_DS3505
ZJSY,2006-09-24 16:00,ZJSY 241600Z AUTO 09019G29KT 3SM 26/24 A2959 RMK T02600240 IEM_DS3505
ZJSY,2006-09-24 17:00,ZJSY 241700Z AUTO 10014G23KT 3SM 26/24 A2962 RMK T02600240 IEM_DS3505
ZJSY,2006-09-24 18:00,ZJSY 241800Z AUTO 11016G27KT 3SM 26/24 A2962 RMK T02600240 IEM_DS3505
ZJSY,2006-09-24 19:00,ZJSY 241900Z AUTO 07010KT 26/23 A2965 RMK T02600230 IEM_DS3505
ZJSY,2006-09-24 20:00,ZJSY 242000Z AUTO 08014KT 25/24 A2962 RMK T02500240 IEM_DS3505
ZJSY,2006-09-24 21:00,ZJSY 242100Z AUTO 08014KT 3SM 26/24 A2965 RMK T02600240 IEM_DS3505
ZJSY,2006-09-24 22:00,ZJSY 242200Z AUTO 07014KT 4SM 25/23 A2965 RMK T02500230 IEM_DS3505
ZJSY,2006-09-24 23:00,ZJSY 242300Z AUTO 07012KT 3SM 26/24 A2968 RMK T02600240 IEM_DS3505
ZJSY,2006-09-25 00:00,ZJSY 250000Z AUTO 09012KT 4SM 27/24 A2971 RMK T02700240 IEM_DS3505
ZJSY,2006-09-25 01:00,ZJSY 250100Z AUTO 08012KT 4SM 28/25 A2971 RMK T02800250 IEM_DS3505
ZJSY,2006-09-25 02:00,ZJSY 250200Z AUTO 09012KT 7SM 29/25 A2974 RMK T02900250 IEM_DS3505
ZJSY,2006-09-25 03:00,ZJSY 250300Z AUTO 09012KT 7SM 30/25 A2974 RMK T03000250 IEM_DS3505
ZJSY,2006-09-25 04:00,ZJSY 250400Z AUTO 09014KT 7SM 30/25 A2971 RMK T03000250 IEM_DS3505
ZJSY,2006-09-25 05:00,ZJSY 250500Z AUTO 09012KT 7SM 30/25 A2971 RMK T03000250 IEM_DS3505
ZJSY,2006-09-25 06:00,ZJSY 250600Z AUTO 09014KT 7SM 30/25 A2968 RMK T03000250 IEM_DS3505
ZJSY,2006-09-25 07:00,ZJSY 250700Z AUTO 10014KT 7SM 30/25 A2968 RMK T03000250 IEM_DS3505
ZJSY,2006-09-25 08:00,ZJSY 250800Z AUTO 08012KT 7SM 29/25 A2965 RMK T02900250 IEM_DS3505
ZJSY,2006-09-25 09:00,ZJSY 250900Z AUTO 11008KT 2 1/2SM 27/25 A2968 RMK T02700250 IEM_DS3505
ZJSY,2006-09-25 10:00,ZJSY 251000Z AUTO 07008KT 7SM 27/25 A2968 RMK T02700250 IEM_DS3505
ZJSY,2006-09-25 11:00,ZJSY 251100Z AUTO 08008KT 7SM 26/24 A2971 RMK T02600240 IEM_DS3505
ZJSY,2006-09-25 12:00,ZJSY 251200Z AUTO 07010KT 7SM 27/24 A2971 RMK T02700240 IEM_DS3505
ZJSY,2006-09-25 13:00,ZJSY 251300Z AUTO 07008KT 7SM 27/24 A2974 RMK T02700240 IEM_DS3505
ZJSY,2006-09-25 14:00,ZJSY 251400Z AUTO 08008KT 7SM 27/24 A2974 RMK T02700240 IEM_DS3505
ZJSY,2006-09-25 15:00,ZJSY 251500Z AUTO 08012KT 7SM 27/24 A2974 RMK T02700240 IEM_DS3505
ZJSY,2006-09-25 16:00,ZJSY 251600Z AUTO 08008KT 7SM 27/24 A2974 RMK T02700240 IEM_DS3505
ZJSY,2006-09-25 17:00,ZJSY 251700Z AUTO 08008KT 7SM 26/24 A2974 RMK T02600240 IEM_DS3505
ZJSY,2006-09-25 18:00,ZJSY 251800Z AUTO 07006KT 7SM 26/24 A2971 RMK T02600240 IEM_DS3505
ZJSY,2006-09-25 19:00,ZJSY 251900Z AUTO 08006KT 26/24 A2971 RMK T02600240 IEM_DS3505
ZJSY,2006-09-25 20:00,ZJSY 252000Z AUTO 05006KT 25/24 A2971 RMK T02500240 IEM_DS3505
ZJSY,2006-09-25 21:00,ZJSY 252100Z AUTO 05004KT 25/24 A2971 RMK T02500240 IEM_DS3505
ZJSY,2006-09-25 22:00,ZJSY 252200Z AUTO 4SM 25/24 A2971 RMK T02500240 IEM_DS3505
ZJSY,2006-09-25 23:00,ZJSY 252300Z AUTO 06006KT 7SM 26/24 A2971 RMK T02600240 IEM_DS3505
ZJSY,2006-09-26 00:00,ZJSY 260000Z AUTO 7SM 26/24 A2974 RMK T02600240 IEM_DS3505
ZJSY,2006-09-26 01:00,ZJSY 260100Z AUTO 09006KT 7SM 28/25 A2974 RMK T02800250 IEM_DS3505
ZJSY,2006-09-26 02:00,ZJSY 260200Z AUTO 09010KT 7SM 28/24 A2977 RMK T02800240 IEM_DS3505
ZJSY,2006-09-26 03:00,ZJSY 260300Z AUTO 08012KT 7SM 29/25 A2977 RMK T02900250 IEM_DS3505
ZJSY,2006-09-26 04:00,ZJSY 260400Z AUTO 07004KT 7SM 27/25 A2974 RMK T02700250 IEM_DS3505
ZJSY,2006-09-26 05:00,ZJSY 260500Z AUTO 08010KT 7SM 28/25 A2974 RMK T02800250 IEM_DS3505
ZJSY,2006-09-26 06:00,ZJSY 260600Z AUTO 07008KT 7SM 29/25 A2971 RMK T02900250 IEM_DS3505
ZJSY,2006-09-26 07:00,ZJSY 260700Z AUTO 08006KT 7SM 29/25 A2968 RMK T02900250 IEM_DS3505
ZJSY,2006-09-26 08:00,ZJSY 260800Z AUTO 05010KT 7SM 28/24 A2968 RMK T02800240 IEM_DS3505
ZJSY,2006-09-26 09:00,ZJSY 260900Z AUTO 03004KT 7SM 28/24 A2968 RMK T02800240 IEM_DS3505
ZJSY,2006-09-26 10:00,ZJSY 261000Z AUTO 08008G17KT 7SM 26/24 A2968 RMK T02600240 IEM_DS3505
ZJSY,2006-09-26 11:00,ZJSY 261100Z AUTO 04004KT 7SM 26/25 A2968 RMK T02600250 IEM_DS3505
ZJSY,2006-09-26 12:00,ZJSY 261200Z AUTO 00000KT 7SM 26/24 A2971 RMK T02600240 IEM_DS3505
ZJSY,2006-09-26 13:00,ZJSY 261300Z AUTO 16002KT 7SM 26/24 A2971 RMK T02600240 IEM_DS3505
ZJSY,2006-09-26 14:00,ZJSY 261400Z AUTO 08002KT 7SM 26/24 A2974 RMK T02600240 IEM_DS3505
ZJSY,2006-09-26 15:00,ZJSY 261500Z AUTO 7SM 26/24 A2974 RMK T02600240 IEM_DS3505
ZJSY,2006-09-26 16:00,ZJSY 261600Z AUTO 07004KT 4SM 26/24 A2974 RMK T02600240 IEM_DS3505
ZJSY,2006-09-26 17:00,ZJSY 261700Z AUTO 36002KT 7SM 25/24 A2974 RMK T02500240 IEM_DS3505
ZJSY,2006-09-26 18:00,ZJSY 261800Z AUTO 06002KT 25/24 A2974 RMK T02500240 IEM_DS3505
ZJSY,2006-09-26 19:00,ZJSY 261900Z AUTO 35002KT 25/24 A2971 RMK T02500240 IEM_DS3505
ZJSY,2006-09-26 20:00,ZJSY 262000Z AUTO 07004KT 26/24 A2971 RMK T02600240 IEM_DS3505
ZJSY,2006-09-26 21:00,ZJSY 262100Z AUTO 06004KT 4SM 25/24 A2971 RMK T02500240 IEM_DS3505
ZJSY,2006-09-26 22:00,ZJSY 262200Z AUTO 4SM 25/24 A2971 RMK T02500240 IEM_DS3505
ZJSY,2006-09-26 23:00,ZJSY 262300Z AUTO 7SM 25/23 A2974 RMK T02500230 IEM_DS3505
ZJSY,2006-09-27 00:00,ZJSY 270000Z AUTO 7SM 26/24 A2974 RMK T02600240 IEM_DS3505
ZJSY,2006-09-27 01:00,ZJSY 270100Z AUTO 03004KT 7SM 26/24 A2977 RMK T02600240 IEM_DS3505
ZJSY,2006-09-27 02:00,ZJSY 270200Z AUTO 7SM 27/25 A2980 RMK T02700250 IEM_DS3505
ZJSY,2006-09-27 03:00,ZJSY 270300Z AUTO 7SM 26/24 A2980 RMK T02600240 IEM_DS3505
ZJSY,2006-09-27 04:00,ZJSY 270400Z AUTO 7SM 28/25 A2977 RMK T02800250 IEM_DS3505
ZJSY,2006-09-27 05:00,ZJSY 270500Z AUTO 22004KT 7SM 28/24 A2974 RMK T02800240 IEM_DS3505
ZJSY,2006-09-27 06:00,ZJSY 270600Z AUTO 23004KT 7SM 28/25 A2971 RMK T02800250 IEM_DS3505
ZJSY,2006-09-27 07:00,ZJSY 270700Z AUTO 19006KT 7SM 27/24 A2971 RMK T02700240 IEM_DS3505
ZJSY,2006-09-27 08:00,ZJSY 270800Z AUTO 7SM 27/24 A2971 RMK T02700240 IEM_DS3505
ZJSY,2006-09-27 09:00,ZJSY 270900Z AUTO 36004KT 7SM 27/24 A2971 RMK T02700240 IEM_DS3505
ZJSY,2006-09-27 10:00,ZJSY 271000Z AUTO 34004KT 7SM 27/25 A2971 RMK T02700250 IEM_DS3505
ZJSY,2006-09-27 11:00,ZJSY 271100Z AUTO 00000KT 7SM 27/25 A2971 RMK T02700250 IEM_DS3505
ZJSY,2006-09-27 12:00,ZJSY 271200Z AUTO 09006KT 7SM 26/24 A2974 RMK T02600240 IEM_DS3505
ZJSY,2006-09-27 13:00,ZJSY 271300Z AUTO 06010KT 7SM 26/23 A2974 RMK T02600230 IEM_DS3505
ZJSY,2006-09-27 14:00,ZJSY 271400Z AUTO 08010KT 7SM 26/23 A2977 RMK T02600230 IEM_DS3505
ZJSY,2006-09-27 15:00,ZJSY 271500Z AUTO 09008KT 7SM 27/23 A2980 RMK T02700230 IEM_DS3505
ZJSY,2006-09-27 16:00,ZJSY 271600Z AUTO 08008KT 7SM 26/23 A2980 RMK T02600230 IEM_DS3505
ZJSY,2006-09-27 17:00,ZJSY 271700Z 08006MPS 9999 FEW013 BKN040 26/23 Q1008 NOSIG
ZJSY,2006-09-27 18:00,ZJSY 271800Z AUTO 07010KT 26/24 A2977 RMK T02600240 IEM_DS3505
ZJSY,2006-09-27 19:00,ZJSY 271900Z AUTO 05008KT 26/24 A2977 RMK T02600240 IEM_DS3505
ZJSY,2006-09-27 20:00,ZJSY 272000Z AUTO 07006MPS //// // ////// 25/24 Q1008
ZJSY,2006-09-27 21:00,ZJSY 272100Z AUTO 7SM 25/23 A2977 RMK T02500230 IEM_DS3505
ZJSY,2006-09-27 22:00,ZJSY 272200Z AUTO 12002KT 7SM 25/24 A2977 RMK T02500240 IEM_DS3505
ZJSY,2006-09-27 23:00,ZJSY 272300Z AUTO 04002KT 7SM 25/24 A2980 RMK T02500240 IEM_DS3505
ZJSY,2006-09-28 00:00,ZJSY 280000Z AUTO 7SM 27/24 A2980 RMK T02700240 IEM_DS3505
ZJSY,2006-09-28 01:00,ZJSY 280100Z AUTO 10004KT 7SM 29/24 A2983 RMK T02900240 IEM_DS3505
ZJSY,2006-09-28 02:00,ZJSY 280200Z AUTO 07010KT 6SM 30/23 A2983 RMK T03000230 IEM_DS3505
ZJSY,2006-09-28 03:00,ZJSY 280300Z AUTO 09010KT 7SM 30/23 A2983 RMK T03000230 IEM_DS3505
ZJSY,2006-09-28 04:00,ZJSY 280400Z AUTO 10010KT 7SM 31/24 A2983 RMK T03100240 IEM_DS3505
ZJSY,2006-09-28 05:00,ZJSY 280500Z AUTO 10008KT 7SM 32/22 A2980 RMK T03200220 IEM_DS3505
ZJSY,2006-09-28 06:00,ZJSY 280600Z AUTO 11010KT 7SM 31/23 A2977 RMK T03100230 IEM_DS3505
ZJSY,2006-09-28 07:00,ZJSY 280700Z AUTO 10012KT 7SM 31/24 A2977 RMK T03100240 IEM_DS3505
ZJSY,2006-09-28 08:00,ZJSY 280800Z AUTO 11008KT 7SM 30/23 A2974 RMK T03000230 IEM_DS3505
ZJSY,2006-09-28 09:00,ZJSY 280900Z AUTO 08010KT 7SM 29/24 A2977 RMK T02900240 IEM_DS3505
ZJSY,2006-09-28 10:00,ZJSY 281000Z AUTO 08010KT 7SM 28/23 A2977 RMK T02800230 IEM_DS3505
ZJSY,2006-09-28 11:00,ZJSY 281100Z AUTO 07006KT 7SM 27/23 A2980 RMK T02700230 IEM_DS3505
ZJSY,2006-09-28 12:00,ZJSY 281200Z AUTO 08008KT 7SM 27/23 A2980 RMK T02700230 IEM_DS3505
ZJSY,2006-09-28 13:00,ZJSY 281300Z AUTO 08010KT 7SM 27/24 A2983 RMK T02700240 IEM_DS3505
ZJSY,2006-09-28 14:00,ZJSY 281400Z AUTO 08006KT 7SM 26/23 A2983 RMK T02600230 IEM_DS3505
ZJSY,2006-09-28 15:00,ZJSY 281500Z AUTO 06004KT 7SM 26/23 A2983 RMK T02600230 IEM_DS3505
ZJSY,2006-09-28 16:00,ZJSY 281600Z AUTO 07004KT 7SM 25/23 A2983 RMK T02500230 IEM_DS3505
ZJSY,2006-09-28 17:00,ZJSY 281700Z AUTO 05002KT 7SM 26/23 A2980 RMK T02600230 IEM_DS3505
ZJSY,2006-09-28 18:00,ZJSY 281800Z AUTO 06004KT 25/22 A2980 RMK T02500220 IEM_DS3505
ZJSY,2006-09-28 19:00,ZJSY 281900Z AUTO 00000KT 24/22 A2980 RMK T02400220 IEM_DS3505
ZJSY,2006-09-28 20:00,ZJSY 282000Z AUTO 07006KT 24/22 A2980 RMK T02400220 IEM_DS3505
ZJSY,2006-09-28 21:00,ZJSY 282100Z AUTO 36002KT 6SM 24/22 A2980 RMK T02400220 IEM_DS3505
ZJSY,2006-09-28 22:00,ZJSY 282200Z AUTO 00000KT 6SM 23/21 A2980 RMK T02300210 IEM_DS3505
ZJSY,2006-09-28 23:00,ZJSY 282300Z 00000MPS CAVOK 23/21 Q1010 NOSIG
ZJSY,2006-09-29 00:00,ZJSY 290000Z AUTO 00000KT 6SM 25/22 A2983 RMK T02500220 IEM_DS3505
ZJSY,2006-09-29 01:00,ZJSY 290100Z AUTO 6SM 28/21 A2985 RMK T02800210 IEM_DS3505
ZJSY,2006-09-29 02:00,ZJSY 290200Z AUTO 05006KT 6SM 29/20 A2985 RMK T02900200 IEM_DS3505
ZJSY,2006-09-29 03:00,ZJSY 290300Z AUTO 6SM 31/21 A2983 RMK T03100210 IEM_DS3505
ZJSY,2006-09-29 04:00,ZJSY 290400Z AUTO 22006KT 6SM 30/21 A2980 RMK T03000210 IEM_DS3505
ZJSY,2006-09-29 05:00,ZJSY 290500Z AUTO 22008KT 7SM 30/21 A2980 RMK T03000210 IEM_DS3505
ZJSY,2006-09-29 06:00,ZJSY 290600Z AUTO 22008KT 7SM 30/21 A2977 RMK T03000210 IEM_DS3505
ZJSY,2006-09-29 07:00,ZJSY 290700Z AUTO 23006KT 7SM 30/23 A2977 RMK T03000230 IEM_DS3505
ZJSY,2006-09-29 08:00,ZJSY 290800Z AUTO 22006KT 7SM 29/21 A2974 RMK T02900210 IEM_DS3505
ZJSY,2006-09-29 09:00,ZJSY 290900Z AUTO 21006KT 7SM 29/21 A2974 RMK T02900210 IEM_DS3505
ZJSY,2006-09-29 10:00,ZJSY 291000Z AUTO 23004KT 7SM 28/21 A2974 RMK T02800210 IEM_DS3505
ZJSY,2006-09-29 11:00,ZJSY 291100Z AUTO 7SM 27/22 A2974 RMK T02700220 IEM_DS3505
ZJSY,2006-09-29 12:00,ZJSY 291200Z AUTO 35002KT 7SM 26/22 A2977 RMK T02600220 IEM_DS3505
ZJSY,2006-09-29 13:00,ZJSY 291300Z AUTO 34004KT 7SM 25/23 A2977 RMK T02500230 IEM_DS3505
ZJSY,2006-09-29 14:00,ZJSY 291400Z AUTO 33004KT 7SM 25/22 A2980 RMK T02500220 IEM_DS3505
ZJSY,2006-09-29 15:00,ZJSY 291500Z AUTO 7SM 25/22 A2980 RMK T02500220 IEM_DS3505
ZJSY,2006-09-29 16:00,ZJSY 291600Z AUTO 35002KT 7SM 25/22 A2977 RMK T02500220 IEM_DS3505
ZJSY,2006-09-29 17:00,ZJSY 291700Z AUTO 7SM 26/21 A2974 RMK T02600210 IEM_DS3505
ZJSY,2006-09-29 18:00,ZJSY 291800Z AUTO 7SM 26/22 A2974 RMK T02600220 IEM_DS3505
ZJSY,2006-09-29 19:00,ZJSY 291900Z AUTO 26002KT 7SM 26/22 A2971 RMK T02600220 IEM_DS3505
ZJSY,2006-09-29 20:00,ZJSY 292000Z AUTO 36002KT 7SM 26/22 A2971 RMK T02600220 IEM_DS3505
ZJSY,2006-09-29 21:00,ZJSY 292100Z AUTO 31002KT 7SM 26/22 A2968 RMK T02600220 IEM_DS3505
ZJSY,2006-09-29 22:00,ZJSY 292200Z AUTO 32002KT 7SM 26/22 A2968 RMK T02600220 IEM_DS3505
ZJSY,2006-09-29 23:00,ZJSY 292300Z AUTO 00000KT 7SM 25/22 A2968 RMK T02500220 IEM_DS3505
ZJSY,2006-09-30 00:00,ZJSY 300000Z AUTO 7SM 27/23 A2968 RMK T02700230 IEM_DS3505
ZJSY,2006-09-30 01:00,ZJSY 300100Z AUTO 03006KT 3SM 25/23 A2974 RMK T02500230 IEM_DS3505
ZJSY,2006-09-30 02:00,ZJSY 300200Z AUTO 5SM 25/21 A2974 RMK T02500210 IEM_DS3505
ZJSY,2006-09-30 03:00,ZJSY 300300Z AUTO 5SM 25/22 A2974 RMK T02500220 IEM_DS3505
ZJSY,2006-09-30 04:00,ZJSY 300400Z AUTO 5SM 26/23 A2971 RMK T02600230 IEM_DS3505
ZJSY,2006-09-30 05:00,ZJSY 300500Z AUTO 33004KT 7SM 27/23 A2968 RMK T02700230 IEM_DS3505
ZJSY,2006-09-30 06:00,ZJSY 300600Z 05004MPS 9999 -RA FEW013 BKN033 26/23 Q1004 NOSIG
ZJSY,2006-09-30 07:00,ZJSY 300700Z 35003MPS 320V030 9999 FEW013 BKN043 29/24 Q1002 NOSIG
ZJSY,2006-09-30 08:00,ZJSY 300800Z AUTO 04010KT 7SM 29/23 A2959 RMK T02900230 IEM_DS3505
ZJSY,2006-09-30 09:00,ZJSY 300900Z AUTO 03008KT 7SM 28/22 A2959 RMK T02800220 IEM_DS3505
ZJSY,2006-09-30 10:00,ZJSY 301000Z AUTO 05010KT 7SM 28/22 A2959 RMK T02800220 IEM_DS3505
ZJSY,2006-09-30 11:00,ZJSY 301100Z 04005MPS 9999 SCT010 BKN040 28/22 Q1002 NOSIG
ZJSY,2006-09-30 12:00,ZJSY 301200Z 05008MPS 8000 -SHRA SCT010 BKN040 BKN070 28/22 Q1003 NOSIG
ZJSY,2006-09-30 13:00,ZJSY 301300Z 03006MPS 8000 -SHRA SCT010 BKN040 BKN070 28/22 Q1003 NOSIG
ZJSY,2006-09-30 14:00,ZJSY 301400Z AUTO 04010KT 5SM 27/21 A2962 RMK T02700210 IEM_DS3505
ZJSY,2006-09-30 15:00,ZJSY 301500Z AUTO 04012G21KT 7SM 28/22 A2962 RMK T02800220 IEM_DS3505
ZJSY,2006-09-30 16:00,ZJSY 301600Z AUTO 05019G39KT 5SM 28/21 A2959 RMK T02800210 IEM_DS3505
ZJSY,2006-09-30 17:00,ZJSY 301700Z AUTO 04012KT 5SM 25/22 A2959 RMK T02500220 IEM_DS3505
ZJSY,2006-09-30 18:00,ZJSY 301800Z AUTO 05017G27KT 5SM 25/22 A2956 RMK T02500220 IEM_DS3505
ZJSY,2006-09-30 19:00,ZJSY 301900Z AUTO 05023G37KT 3SM 27/22 A2956 RMK T02700220 IEM_DS3505
ZJSY,2006-09-30 20:00,ZJSY 302000Z AUTO 05025G35KT 3SM 26/22 A2956 RMK T02600220 IEM_DS3505
ZJSY,2006-09-30 21:00,ZJSY 302100Z AUTO 06017KT 3SM 25/22 A2956 RMK T02500220 IEM_DS3505
ZJSY,2006-09-30 22:00,ZJSY 302200Z AUTO 06017KT 3SM 25/22 A2959 RMK T02500220 IEM_DS3505
ZJSY,2006-09-30 23:00,ZJSY 302300Z AUTO 07023G41KT 1 1/4SM 25/23 A2959 RMK T02500230 IEM_DS3505
ZJSY,2006-10-01 00:00,ZJSY 010000Z AUTO 07021G33KT 7SM 26/23 A2965 RMK T02600230 IEM_DS3505
ZJSY,2006-10-01 01:00,ZJSY 010100Z AUTO 08021KT 7SM 28/24 A2965 RMK T02800240 IEM_DS3505
ZJSY,2006-10-01 02:00,ZJSY 010200Z AUTO 07021G31KT 7SM 28/23 A2965 RMK T02800230 IEM_DS3505
ZJSY,2006-10-01 03:00,ZJSY 010300Z AUTO 08023G33KT 7SM 29/23 A2965 RMK T02900230 IEM_DS3505
ZJSY,2006-10-01 04:00,ZJSY 010400Z AUTO 08021KT 7SM 29/24 A2965 RMK T02900240 IEM_DS3505
ZJSY,2006-10-01 05:00,ZJSY 010500Z AUTO 08021KT 7SM 29/24 A2962 RMK T02900240 IEM_DS3505
ZJSY,2006-10-01 06:00,ZJSY 010600Z 08011G17MPS 9999 FEW010 SCT016 30/23 Q1003 NOSIG
ZJSY,2006-10-01 07:00,ZJSY 010700Z 08011MPS 9999 SCT010 BKN016 29/24 Q1003 NOSIG
ZJSY,2006-10-01 08:00,ZJSY 010800Z 08010G15MPS 9999 SCT010 BKN016 29/24 Q1003 NOSIG
ZJSY,2006-10-01 09:00,ZJSY 010900Z AUTO 07021G33KT 7SM 28/23 A2962 RMK T02800230 IEM_DS3505
ZJSY,2006-10-01 10:00,ZJSY 011000Z AUTO 09014KT 7SM 28/24 A2965 RMK T02800240 IEM_DS3505
ZJSY,2006-10-01 11:00,ZJSY 011100Z AUTO 08012KT 3SM 25/24 A2968 RMK T02500240 IEM_DS3505
ZJSY,2006-10-01 12:00,ZJSY 011200Z AUTO 08012KT 7SM 27/24 A2968 RMK T02700240 IEM_DS3505
ZJSY,2006-10-01 13:00,ZJSY 011300Z AUTO 08014KT 7SM 27/24 A2971 RMK T02700240 IEM_DS3505
ZJSY,2006-10-01 14:00,ZJSY 011400Z AUTO 08014KT 2SM 26/24 A2971 RMK T02600240 IEM_DS3505
ZJSY,2006-10-01 15:00,ZJSY 011500Z AUTO 08012KT 7SM 26/24 A2971 RMK T02600240 IEM_DS3505
ZJSY,2006-10-01 16:00,ZJSY 011600Z AUTO 08012G21KT 4SM 26/24 A2971 RMK T02600240 IEM_DS3505
ZJSY,2006-10-01 17:00,ZJSY 011700Z AUTO 08012KT 7SM 26/24 A2971 RMK T02600240 IEM_DS3505
ZJSY,2006-10-01 18:00,ZJSY 011800Z AUTO 08010KT 26/23 A2968 RMK T02600230 IEM_DS3505
ZJSY,2006-10-01 19:00,ZJSY 011900Z AUTO 07010KT 26/23 A2968 RMK T02600230 IEM_DS3505
ZJSY,2006-10-01 20:00,ZJSY 012000Z AUTO 08010KT 26/24 A2968 RMK T02600240 IEM_DS3505
ZJSY,2006-10-01 21:00,ZJSY 012100Z AUTO 08010KT 7SM 26/23 A2968 RMK T02600230 IEM_DS3505
ZJSY,2006-10-01 22:00,ZJSY 012200Z AUTO 07012KT 7SM 26/23 A2968 RMK T02600230 IEM_DS3505
ZJSY,2006-10-01 23:00,ZJSY 012300Z AUTO 07010KT 4SM 26/23 A2971 RMK T02600230 IEM_DS3505
ZJSY,2006-10-02 00:00,ZJSY 020000Z AUTO 07012KT 7SM 27/24 A2974 RMK T02700240 IEM_DS3505
ZJSY,2006-10-02 01:00,ZJSY 020100Z AUTO 08014KT 7SM 28/24 A2974 RMK T02800240 IEM_DS3505
ZJSY,2006-10-02 02:00,ZJSY 020200Z AUTO 08016KT 7SM 29/24 A2977 RMK T02900240 IEM_DS3505
ZJSY,2006-10-02 03:00,ZJSY 020300Z AUTO 08016KT 7SM 30/24 A2977 RMK T03000240 IEM_DS3505
ZJSY,2006-10-02 04:00,ZJSY 020400Z AUTO 07019KT 7SM 31/24 A2974 RMK T03100240 IEM_DS3505
ZJSY,2006-10-02 05:00,ZJSY 020500Z AUTO 08019KT 7SM 31/24 A2971 RMK T03100240 IEM_DS3505
ZJSY,2006-10-02 06:00,ZJSY 020600Z AUTO 08017KT 7SM 31/24 A2971 RMK T03100240 IEM_DS3505
ZJSY,2006-10-02 07:00,ZJSY 020700Z AUTO 08016KT 7SM 30/24 A2968 RMK T03000240 IEM_DS3505
ZJSY,2006-10-02 08:00,ZJSY 020800Z AUTO 09014KT 7SM 30/24 A2968 RMK T03000240 IEM_DS3505
ZJSY,2006-10-02 09:00,ZJSY 020900Z AUTO 08014KT 7SM 29/24 A2968 RMK T02900240 IEM_DS3505
ZJSY,2006-10-02 10:00,ZJSY 021000Z AUTO 09012KT 7SM 28/23 A2971 RMK T02800230 IEM_DS3505
ZJSY,2006-10-02 11:00,ZJSY 021100Z AUTO 09006KT 7SM 27/24 A2971 RMK T02700240 IEM_DS3505
ZJSY,2006-10-02 12:00,ZJSY 021200Z AUTO 08010KT 7SM 27/24 A2974 RMK T02700240 IEM_DS3505
ZJSY,2006-10-02 13:00,ZJSY 021300Z AUTO 08010KT 7SM 27/24 A2977 RMK T02700240 IEM_DS3505
ZJSY,2006-10-02 14:00,ZJSY 021400Z AUTO 08010KT 7SM 27/23 A2980 RMK T02700230 IEM_DS3505
ZJSY,2006-10-02 15:00,ZJSY 021500Z AUTO 08008KT 7SM 27/23 A2980 RMK T02700230 IEM_DS3505
ZJSY,2006-10-02 16:00,ZJSY 021600Z AUTO 09006KT 7SM 26/24 A2980 RMK T02600240 IEM_DS3505
ZJSY,2006-10-02 17:00,ZJSY 021700Z AUTO 07006KT 7SM 26/24 A2977 RMK T02600240 IEM_DS3505
ZJSY,2006-10-02 18:00,ZJSY 021800Z AUTO 08008KT 7SM 26/24 A2977 RMK T02600240 IEM_DS3505
ZJSY,2006-10-02 19:00,ZJSY 021900Z AUTO 08008KT 7SM 26/24 A2974 RMK T02600240 IEM_DS3505
ZJSY,2006-10-02 20:00,ZJSY 022000Z AUTO 09004KT 7SM 26/24 A2974 RMK T02600240 IEM_DS3505
ZJSY,2006-10-02 21:00,ZJSY 022100Z AUTO 08006KT 7SM 25/24 A2974 RMK T02500240 IEM_DS3505
ZJSY,2006-10-02 22:00,ZJSY 022200Z AUTO 04004KT 7SM 25/24 A2977 RMK T02500240 IEM_DS3505
ZJSY,2006-10-02 23:00,ZJSY 022300Z AUTO 00000KT 4SM 25/24 A2977 RMK T02500240 IEM_DS3505
ZJSY,2006-10-03 00:00,ZJSY 030000Z AUTO 10004KT 4SM 26/24 A2980 RMK T02600240 IEM_DS3505
ZJSY,2006-10-03 01:00,ZJSY 030100Z 11002MPS 080V150 9000 SCT016 BKN050 26/24 Q1010 NOSIG
ZJSY,2006-10-03 02:00,ZJSY 030200Z AUTO 09008KT 6SM 27/24 A2985 RMK T02700240 IEM_DS3505
ZJSY,2006-10-03 03:00,ZJSY 030300Z AUTO 10006KT 5SM 27/24 A2985 RMK T02700240 IEM_DS3505
ZJSY,2006-10-03 04:00,ZJSY 030400Z AUTO 08014KT 5SM 27/23 A2985 RMK T02700230 IEM_DS3505
ZJSY,2006-10-03 05:00,ZJSY 030500Z AUTO 08008KT 5SM 29/24 A2980 RMK T02900240 IEM_DS3505
ZJSY,2006-10-03 06:00,ZJSY 030600Z AUTO 09008KT 5SM 30/23 A2977 RMK T03000230 IEM_DS3505
ZJSY,2006-10-03 07:00,ZJSY 030700Z AUTO 07008KT 5SM 29/24 A2977 RMK T02900240 IEM_DS3505
ZJSY,2006-10-03 08:00,ZJSY 030800Z AUTO 08006KT 5SM 29/23 A2974 RMK T02900230 IEM_DS3505
ZJSY,2006-10-03 09:00,ZJSY 030900Z AUTO 08008KT 5SM 28/24 A2974 RMK T02800240 IEM_DS3505
ZJSY,2006-10-03 10:00,ZJSY 031000Z AUTO 07006KT 5SM 28/24 A2974 RMK T02800240 IEM_DS3505
ZJSY,2006-10-03 11:00,ZJSY 031100Z AUTO 10006KT 7SM 27/24 A2977 RMK T02700240 IEM_DS3505
ZJSY,2006-10-03 12:00,ZJSY 031200Z 08003MPS 9999 FEW016 26/24 Q1009 NOSIG
ZJSY,2006-10-03 13:00,ZJSY 031300Z AUTO 09008KT 7SM 26/24 A2980 RMK T02600240 IEM_DS3505
ZJSY,2006-10-03 14:00,ZJSY 031400Z AUTO 7SM 26/23 A2983 RMK T02600230 IEM_DS3505
ZJSY,2006-10-03 15:00,ZJSY 031500Z AUTO 08002KT 7SM 26/23 A2983 RMK T02600230 IEM_DS3505
ZJSY,2006-10-03 16:00,ZJSY 031600Z AUTO 08004KT 7SM 25/23 A2983 RMK T02500230 IEM_DS3505
ZJSY,2006-10-03 17:00,ZJSY 031700Z AUTO 07004KT 7SM 25/23 A2980 RMK T02500230 IEM_DS3505
ZJSY,2006-10-03 18:00,ZJSY 031800Z AUTO 04002KT 6SM 25/22 A2980 RMK T02500220 IEM_DS3505
ZJSY,2006-10-03 19:00,ZJSY 031900Z AUTO 04004KT 6SM 26/22 A2980 RMK T02600220 IEM_DS3505
ZJSY,2006-10-03 20:00,ZJSY 032000Z AUTO 06004KT 26/22 A2977 RMK T02600220 IEM_DS3505
ZJSY,2006-10-03 21:00,ZJSY 032100Z AUTO 3SM 26/21 A2977 RMK T02600210 IEM_DS3505
ZJSY,2006-10-03 22:00,ZJSY 032200Z AUTO 00000KT 3SM 25/21 A2980 RMK T02500210 IEM_DS3505
ZJSY,2006-10-03 23:00,ZJSY 032300Z AUTO 31002KT 3SM 23/21 A2980 RMK T02300210 IEM_DS3505
ZJSY,2006-10-04 00:00,ZJSY 040000Z AUTO 4SM 25/22 A2985 RMK T02500220 IEM_DS3505
ZJSY,2006-10-04 01:00,ZJSY 040100Z AUTO 4SM 29/22 A2985 RMK T02900220 IEM_DS3505
ZJSY,2006-10-04 02:00,ZJSY 040200Z AUTO 09006KT 4SM 30/22 A2985 RMK T03000220 IEM_DS3505
ZJSY,2006-10-04 03:00,ZJSY 040300Z AUTO 09010KT 4SM 31/21 A2983 RMK T03100210 IEM_DS3505
ZJSY,2006-10-04 04:00,ZJSY 040400Z AUTO 10008KT 4SM 31/20 A2983 RMK T03100200 IEM_DS3505
ZJSY,2006-10-04 05:00,ZJSY 040500Z AUTO 12006KT 4SM 32/21 A2980 RMK T03200210 IEM_DS3505
ZJSY,2006-10-04 06:00,ZJSY 040600Z AUTO 19008KT 4SM 31/23 A2977 RMK T03100230 IEM_DS3505
ZJSY,2006-10-04 07:00,ZJSY 040700Z AUTO 17008KT 4SM 29/23 A2974 RMK T02900230 IEM_DS3505
ZJSY,2006-10-04 08:00,ZJSY 040800Z AUTO 13006KT 4SM 30/23 A2974 RMK T03000230 IEM_DS3505
ZJSY,2006-10-04 09:00,ZJSY 040900Z AUTO 14004KT 4SM 30/21 A2974 RMK T03000210 IEM_DS3505
ZJSY,2006-10-04 10:00,ZJSY 041000Z AUTO 11004KT 4SM 29/22 A2974 RMK T02900220 IEM_DS3505
ZJSY,2006-10-04 11:00,ZJSY 041100Z AUTO 10002KT 4SM 28/21 A2977 RMK T02800210 IEM_DS3505
ZJSY,2006-10-04 12:00,ZJSY 041200Z AUTO 08006KT 4SM 27/22 A2980 RMK T02700220 IEM_DS3505
ZJSY,2006-10-04 13:00,ZJSY 041300Z AUTO 08004KT 4SM 27/22 A2983 RMK T02700220 IEM_DS3505
ZJSY,2006-10-04 14:00,ZJSY 041400Z AUTO 31004KT 4SM 26/23 A2985 RMK T02600230 IEM_DS3505
ZJSY,2006-10-04 15:00,ZJSY 041500Z AUTO 34006KT 3SM 25/23 A2985 RMK T02500230 IEM_DS3505
ZJSY,2006-10-04 16:00,ZJSY 041600Z AUTO 35006KT 2 1/2SM 24/23 A2985 RMK T02400230 IEM_DS3505
ZJSY,2006-10-04 17:00,ZJSY 041700Z AUTO 34006KT 3SM 24/23 A2983 RMK T02400230 IEM_DS3505
ZJSY,2006-10-04 18:00,ZJSY 041800Z AUTO 34002KT 25/23 A2983 RMK T02500230 IEM_DS3505
ZJSY,2006-10-04 19:00,ZJSY 041900Z AUTO 35004KT 25/23 A2980 RMK T02500230 IEM_DS3505
ZJSY,2006-10-04 20:00,ZJSY 042000Z AUTO 32004KT 24/23 A2980 RMK T02400230 IEM_DS3505
ZJSY,2006-10-04 21:00,ZJSY 042100Z AUTO 01002KT 3SM 24/23 A2980 RMK T02400230 IEM_DS3505
ZJSY,2006-10-04 22:00,ZJSY 042200Z AUTO 4SM 24/23 A2980 RMK T02400230 IEM_DS3505
ZJSY,2006-10-04 23:00,ZJSY 042300Z AUTO 3SM 24/23 A2983 RMK T02400230 IEM_DS3505
ZJSY,2006-10-05 00:00,ZJSY 050000Z AUTO 33004KT 2 1/2SM 25/23 A2983 RMK T02500230 IEM_DS3505
ZJSY,2006-10-05 01:00,ZJSY 050100Z AUTO 2 1/2SM 27/23 A2985 RMK T02700230 IEM_DS3505
ZJSY,2006-10-05 02:00,ZJSY 050200Z AUTO 10004KT 3SM 28/24 A2988 RMK T02800240 IEM_DS3505
ZJSY,2006-10-05 03:00,ZJSY 050300Z AUTO 18004KT 3SM 29/24 A2985 RMK T02900240 IEM_DS3505
ZJSY,2006-10-05 04:00,ZJSY 050400Z AUTO 19006KT 3SM 29/24 A2985 RMK T02900240 IEM_DS3505
ZJSY,2006-10-05 05:00,ZJSY 050500Z AUTO 18008KT 3SM 28/24 A2983 RMK T02800240 IEM_DS3505
ZJSY,2006-10-05 06:00,ZJSY 050600Z AUTO 20006KT 2 1/2SM 28/24 A2980 RMK T02800240 IEM_DS3505
ZJSY,2006-10-05 07:00,ZJSY 050700Z AUTO 19004KT 2 1/2SM 28/24 A2977 RMK T02800240 IEM_DS3505
ZJSY,2006-10-05 08:00,ZJSY 050800Z AUTO 2 1/2SM 29/24 A2974 RMK T02900240 IEM_DS3505
ZJSY,2006-10-05 09:00,ZJSY 050900Z AUTO 2 1/2SM 28/24 A2974 RMK T02800240 IEM_DS3505
ZJSY,2006-10-05 10:00,ZJSY 051000Z AUTO 2 1/2SM 28/24 A2974 RMK T02800240 IEM_DS3505
ZJSY,2006-10-05 11:00,ZJSY 051100Z AUTO 2 1/2SM 28/23 A2977 RMK T02800230 IEM_DS3505
ZJSY,2006-10-05 12:00,ZJSY 051200Z AUTO 08008KT 2 1/2SM 27/23 A2980 RMK T02700230 IEM_DS3505
ZJSY,2006-10-05 13:00,ZJSY 051300Z AUTO 07006KT 2 1/2SM 27/23 A2983 RMK T02700230 IEM_DS3505
ZJSY,2006-10-05 14:00,ZJSY 051400Z AUTO 07006KT 2 1/2SM 27/23 A2985 RMK T02700230 IEM_DS3505
ZJSY,2006-10-05 15:00,ZJSY 051500Z AUTO 06004KT 2 1/2SM 27/23 A2985 RMK T02700230 IEM_DS3505
ZJSY,2006-10-05 16:00,ZJSY 051600Z AUTO 06004KT 2 1/2SM 26/23 A2985 RMK T02600230 IEM_DS3505
ZJSY,2006-10-05 17:00,ZJSY 051700Z AUTO 3SM 26/22 A2985 RMK T02600220 IEM_DS3505
ZJSY,2006-10-05 18:00,ZJSY 051800Z VRB01MPS 5000 BR FEW010 25/23 Q1011 NOSIG
ZJSY,2006-10-05 19:00,ZJSY 051900Z AUTO 3SM 25/22 A2983 RMK T02500220 IEM_DS3505
ZJSY,2006-10-05 20:00,ZJSY 052000Z AUTO 07006KT 3SM 25/22 A2983 RMK T02500220 IEM_DS3505
ZJSY,2006-10-05 21:00,ZJSY 052100Z AUTO 00000KT 3SM 24/22 A2983 RMK T02400220 IEM_DS3505
ZJSY,2006-10-05 22:00,ZJSY 052200Z AUTO 31002KT 3SM 24/22 A2983 RMK T02400220 IEM_DS3505
ZJSY,2006-10-05 23:00,ZJSY 052300Z AUTO 00000KT 2 1/2SM 24/22 A2985 RMK T02400220 IEM_DS3505
ZJSY,2006-10-06 00:00,ZJSY 060000Z AUTO 00000KT 2 1/2SM 25/23 A2985 RMK T02500230 IEM_DS3505
ZJSY,2006-10-06 01:00,ZJSY 060100Z AUTO 11004KT 2 1/2SM 27/23 A2988 RMK T02700230 IEM_DS3505
ZJSY,2006-10-06 02:00,ZJSY 060200Z AUTO 08006KT 3SM 28/23 A2988 RMK T02800230 IEM_DS3505
ZJSY,2006-10-06 03:00,ZJSY 060300Z AUTO 13006KT 3SM 29/23 A2988 RMK T02900230 IEM_DS3505
ZJSY,2006-10-06 04:00,ZJSY 060400Z AUTO 17006KT 3SM 29/23 A2985 RMK T02900230 IEM_DS3505
ZJSY,2006-10-06 05:00,ZJSY 060500Z AUTO 16006KT 3SM 29/23 A2983 RMK T02900230 IEM_DS3505
ZJSY,2006-10-06 06:00,ZJSY 060600Z AUTO 16006KT 3SM 29/24 A2980 RMK T02900240 IEM_DS3505
ZJSY,2006-10-06 07:00,ZJSY 060700Z AUTO 16008KT 4SM 29/24 A2980 RMK T02900240 IEM_DS3505
ZJSY,2006-10-06 08:00,ZJSY 060800Z AUTO 14006KT 4SM 29/24 A2977 RMK T02900240 IEM_DS3505
ZJSY,2006-10-06 09:00,ZJSY 060900Z AUTO 14008KT 3SM 28/23 A2977 RMK T02800230 IEM_DS3505
ZJSY,2006-10-06 10:00,ZJSY 061000Z AUTO 14006KT 3SM 28/23 A2977 RMK T02800230 IEM_DS3505
ZJSY,2006-10-06 11:00,ZJSY 061100Z AUTO 10004KT 3SM 27/23 A2980 RMK T02700230 IEM_DS3505
ZJSY,2006-10-06 12:00,ZJSY 061200Z AUTO 08004KT 3SM 26/23 A2983 RMK T02600230 IEM_DS3505
ZJSY,2006-10-06 13:00,ZJSY 061300Z AUTO 08004KT 3SM 26/23 A2985 RMK T02600230 IEM_DS3505
ZJSY,2006-10-06 14:00,ZJSY 061400Z AUTO 07006KT 4SM 26/23 A2985 RMK T02600230 IEM_DS3505
ZJSY,2006-10-06 15:00,ZJSY 061500Z AUTO 06004KT 4SM 26/23 A2988 RMK T02600230 IEM_DS3505
ZJSY,2006-10-06 16:00,ZJSY 061600Z AUTO 06004KT 4SM 26/23 A2988 RMK T02600230 IEM_DS3505
ZJSY,2006-10-06 17:00,ZJSY 061700Z AUTO 06004KT 4SM 26/23 A2985 RMK T02600230 IEM_DS3505
ZJSY,2006-10-06 18:00,ZJSY 061800Z AUTO 07004KT 4SM 25/23 A2985 RMK T02500230 IEM_DS3505
ZJSY,2006-10-06 19:00,ZJSY 061900Z AUTO 09002KT 4SM 25/23 A2983 RMK T02500230 IEM_DS3505
ZJSY,2006-10-06 20:00,ZJSY 062000Z AUTO 08004KT 26/23 A2983 RMK T02600230 IEM_DS3505
ZJSY,2006-10-06 22:00,ZJSY 062200Z AUTO 06004KT 4SM 26/23 A2983 RMK T02600230 IEM_DS3505
ZJSY,2006-10-06 23:00,ZJSY 062300Z AUTO 05004KT 3SM 26/23 A2985 RMK T02600230 IEM_DS3505
ZJSY,2006-10-07 00:00,ZJSY 070000Z AUTO 07004KT 3SM 26/23 A2988 RMK T02600230 IEM_DS3505
ZJSY,2006-10-07 01:00,ZJSY 070100Z AUTO 07006KT 3SM 27/23 A2988 RMK T02700230 IEM_DS3505
ZJSY,2006-10-07 02:00,ZJSY 070200Z AUTO 09004KT 3SM 28/23 A2991 RMK T02800230 IEM_DS3505
ZJSY,2006-10-07 03:00,ZJSY 070300Z AUTO 15004KT 4SM 29/24 A2991 RMK T02900240 IEM_DS3505
ZJSY,2006-10-07 04:00,ZJSY 070400Z AUTO 16006KT 4SM 29/23 A2988 RMK T02900230 IEM_DS3505
ZJSY,2006-10-07 05:00,ZJSY 070500Z AUTO 16006KT 4SM 29/23 A2985 RMK T02900230 IEM_DS3505
ZJSY,2006-10-07 06:00,ZJSY 070600Z AUTO 16006KT 4SM 29/23 A2983 RMK T02900230 IEM_DS3505
ZJSY,2006-10-07 07:00,ZJSY 070700Z AUTO 15006KT 4SM 29/23 A2980 RMK T02900230 IEM_DS3505
ZJSY,2006-10-07 08:00,ZJSY 070800Z AUTO 14006KT 4SM 28/23 A2977 RMK T02800230 IEM_DS3505
ZJSY,2006-10-07 09:00,ZJSY 070900Z AUTO 15006KT 4SM 28/23 A2977 RMK T02800230 IEM_DS3505
ZJSY,2006-10-07 10:00,ZJSY 071000Z AUTO 12006KT 4SM 28/23 A2977 RMK T02800230 IEM_DS3505
ZJSY,2006-10-07 11:00,ZJSY 071100Z AUTO 08006KT 4SM 27/23 A2980 RMK T02700230 IEM_DS3505
ZJSY,2006-10-07 12:00,ZJSY 071200Z AUTO 06006KT 4SM 26/23 A2983 RMK T02600230 IEM_DS3505
ZJSY,2006-10-07 13:00,ZJSY 071300Z AUTO 08004KT 3SM 26/23 A2985 RMK T02600230 IEM_DS3505
ZJSY,2006-10-07 14:00,ZJSY 071400Z AUTO 05004KT 3SM 27/23 A2988 RMK T02700230 IEM_DS3505
ZJSY,2006-10-07 15:00,ZJSY 071500Z AUTO 06002KT 3SM 26/23 A2988 RMK T02600230 IEM_DS3505
ZJSY,2006-10-07 16:00,ZJSY 071600Z AUTO 06004KT 3SM 26/23 A2988 RMK T02600230 IEM_DS3505
ZJSY,2006-10-07 17:00,ZJSY 071700Z AUTO 08006KT 3SM 26/23 A2988 RMK T02600230 IEM_DS3505
ZJSY,2006-10-07 18:00,ZJSY 071800Z AUTO 06002MPS //// // ////// 26/23 Q1012
ZJSY,2006-10-07 19:00,ZJSY 071900Z AUTO 06006KT 26/23 A2985 RMK T02600230 IEM_DS3505
ZJSY,2006-10-07 20:00,ZJSY 072000Z AUTO 07006KT 25/23 A2985 RMK T02500230 IEM_DS3505
ZJSY,2006-10-07 21:00,ZJSY 072100Z AUTO 07006KT 3SM 25/23 A2988 RMK T02500230 IEM_DS3505
ZJSY,2006-10-07 22:00,ZJSY 072200Z AUTO 05006KT 3SM 25/22 A2988 RMK T02500220 IEM_DS3505
ZJSY,2006-10-07 23:00,ZJSY 072300Z AUTO 07004KT 3SM 25/22 A2991 RMK T02500220 IEM_DS3505
ZJSY,2006-10-08 00:00,ZJSY 080000Z AUTO 09004KT 3SM 26/23 A2991 RMK T02600230 IEM_DS3505
ZJSY,2006-10-08 01:00,ZJSY 080100Z AUTO 08006KT 3SM 27/22 A2994 RMK T02700220 IEM_DS3505
ZJSY,2006-10-08 02:00,ZJSY 080200Z AUTO 10008KT 3SM 28/22 A2994 RMK T02800220 IEM_DS3505
ZJSY,2006-10-08 03:00,ZJSY 080300Z AUTO 09008KT 3SM 29/22 A2994 RMK T02900220 IEM_DS3505
ZJSY,2006-10-08 04:00,ZJSY 080400Z AUTO 13006KT 3SM 30/23 A2991 RMK T03000230 IEM_DS3505
ZJSY,2006-10-08 05:00,ZJSY 080500Z AUTO 15008KT 3SM 30/23 A2988 RMK T03000230 IEM_DS3505
ZJSY,2006-10-08 06:00,ZJSY 080600Z AUTO 16010KT 3SM 29/23 A2985 RMK T02900230 IEM_DS3505
ZJSY,2006-10-08 07:00,ZJSY 080700Z AUTO 16008KT 3SM 29/22 A2985 RMK T02900220 IEM_DS3505
ZJSY,2006-10-08 08:00,ZJSY 080800Z AUTO 16006KT 3SM 28/23 A2983 RMK T02800230 IEM_DS3505
ZJSY,2006-10-08 09:00,ZJSY 080900Z AUTO 14006KT 3SM 28/22 A2983 RMK T02800220 IEM_DS3505
ZJSY,2006-10-08 10:00,ZJSY 081000Z AUTO 08006KT 3SM 28/20 A2983 RMK T02800200 IEM_DS3505
ZJSY,2006-10-08 11:00,ZJSY 081100Z AUTO 09006KT 3SM 27/22 A2985 RMK T02700220 IEM_DS3505
ZJSY,2006-10-08 12:00,ZJSY 081200Z AUTO 07004KT 4SM 26/22 A2988 RMK T02600220 IEM_DS3505
ZJSY,2006-10-08 13:00,ZJSY 081300Z AUTO 06004KT 4SM 26/22 A2991 RMK T02600220 IEM_DS3505
ZJSY,2006-10-08 14:00,ZJSY 081400Z AUTO 00000KT 4SM 26/22 A2991 RMK T02600220 IEM_DS3505
ZJSY,2006-10-08 15:00,ZJSY 081500Z AUTO 06004KT 4SM 26/22 A2994 RMK T02600220 IEM_DS3505
ZJSY,2006-10-08 16:00,ZJSY 081600Z AUTO 00000KT 4SM 25/22 A2994 RMK T02500220 IEM_DS3505
ZJSY,2006-10-08 17:00,ZJSY 081700Z AUTO 00000KT 4SM 25/22 A2991 RMK T02500220 IEM_DS3505
ZJSY,2006-10-08 18:00,ZJSY 081800Z AUTO 08004KT 4SM 24/21 A2991 RMK T02400210 IEM_DS3505
ZJSY,2006-10-08 19:00,ZJSY 081900Z AUTO 00000KT 4SM 24/21 A2988 RMK T02400210 IEM_DS3505
ZJSY,2006-10-08 20:00,ZJSY 082000Z AUTO 03004KT 25/21 A2988 RMK T02500210 IEM_DS3505
ZJSY,2006-10-08 21:00,ZJSY 082100Z AUTO 03004KT 3SM 24/21 A2988 RMK T02400210 IEM_DS3505
ZJSY,2006-10-08 22:00,ZJSY 082200Z AUTO 04004KT 3SM 25/21 A2988 RMK T02500210 IEM_DS3505
ZJSY,2006-10-08 23:00,ZJSY 082300Z AUTO 05002KT 3SM 25/21 A2991 RMK T02500210 IEM_DS3505
ZJSY,2006-10-09 00:00,ZJSY 090000Z AUTO 04004KT 3SM 26/21 A2991 RMK T02600210 IEM_DS3505
ZJSY,2006-10-09 01:00,ZJSY 090100Z AUTO 05004KT 3SM 27/22 A2994 RMK T02700220 IEM_DS3505
ZJSY,2006-10-09 02:00,ZJSY 090200Z AUTO 09008KT 2 1/2SM 29/21 A2994 RMK T02900210 IEM_DS3505
ZJSY,2006-10-09 03:00,ZJSY 090300Z AUTO 07006KT 2 1/2SM 30/21 A2994 RMK T03000210 IEM_DS3505
ZJSY,2006-10-09 04:00,ZJSY 090400Z AUTO 11004KT 2 1/2SM 31/21 A2991 RMK T03100210 IEM_DS3505
ZJSY,2006-10-09 05:00,ZJSY 090500Z AUTO 17006KT 2 1/2SM 30/23 A2988 RMK T03000230 IEM_DS3505
ZJSY,2006-10-09 06:00,ZJSY 090600Z AUTO 17006KT 2 1/2SM 30/23 A2988 RMK T03000230 IEM_DS3505
ZJSY,2006-10-09 07:00,ZJSY 090700Z AUTO 16008KT 2 1/2SM 29/23 A2985 RMK T02900230 IEM_DS3505
ZJSY,2006-10-09 08:00,ZJSY 090800Z AUTO 14006KT 2 1/2SM 29/22 A2985 RMK T02900220 IEM_DS3505
ZJSY,2006-10-09 09:00,ZJSY 090900Z AUTO 14006KT 2 1/2SM 29/22 A2985 RMK T02900220 IEM_DS3505
ZJSY,2006-10-09 10:00,ZJSY 091000Z AUTO 09006KT 2 1/2SM 28/22 A2985 RMK T02800220 IEM_DS3505
ZJSY,2006-10-09 11:00,ZJSY 091100Z AUTO 08006KT 2 1/2SM 26/22 A2988 RMK T02600220 IEM_DS3505
ZJSY,2006-10-09 12:00,ZJSY 091200Z AUTO 06006KT 3SM 27/22 A2991 RMK T02700220 IEM_DS3505
ZJSY,2006-10-09 13:00,ZJSY 091300Z AUTO 04004KT 3SM 27/22 A2994 RMK T02700220 IEM_DS3505
ZJSY,2006-10-09 14:00,ZJSY 091400Z AUTO 03002KT 3SM 27/22 A2994 RMK T02700220 IEM_DS3505
ZJSY,2006-10-09 15:00,ZJSY 091500Z AUTO 05002KT 3SM 26/22 A2994 RMK T02600220 IEM_DS3505
ZJSY,2006-10-09 16:00,ZJSY 091600Z 00000MPS 5000 BR NSC 25/22 Q1014 NOSIG
ZJSY,2006-10-09 17:00,ZJSY 091700Z AUTO 00000KT 3SM 24/22 A2994 RMK T02400220 IEM_DS3505
ZJSY,2006-10-09 18:00,ZJSY 091800Z AUTO 35004KT 3SM 24/22 A2994 RMK T02400220 IEM_DS3505
ZJSY,2006-10-09 19:00,ZJSY 091900Z AUTO 23/22 A2991 RMK T02300220 IEM_DS3505
ZJSY,2006-10-09 20:00,ZJSY 092000Z AUTO 35002KT 23/21 A2991 RMK T02300210 IEM_DS3505
ZJSY,2006-10-09 21:00,ZJSY 092100Z AUTO 34004KT 3SM 23/21 A2991 RMK T02300210 IEM_DS3505
ZJSY,2006-10-09 22:00,ZJSY 092200Z AUTO 35002KT 3SM 23/21 A2994 RMK T02300210 IEM_DS3505
ZJSY,2006-10-09 23:00,ZJSY 092300Z AUTO 35002KT 2 1/2SM 23/21 A2994 RMK T02300210 IEM_DS3505
ZJSY,2006-10-10 00:00,ZJSY 100000Z AUTO 36002KT 2 1/2SM 24/22 A2997 RMK T02400220 IEM_DS3505
ZJSY,2006-10-10 01:00,ZJSY 100100Z AUTO 02004KT 3SM 28/22 A2997 RMK T02800220 IEM_DS3505
ZJSY,2006-10-10 02:00,ZJSY 100200Z AUTO 05006KT 4SM 29/22 A2997 RMK T02900220 IEM_DS3505
ZJSY,2006-10-10 03:00,ZJSY 100300Z AUTO 09008KT 4SM 30/22 A2997 RMK T03000220 IEM_DS3505
ZJSY,2006-10-10 04:00,ZJSY 100400Z AUTO 10010KT 4SM 30/22 A2994 RMK T03000220 IEM_DS3505
ZJSY,2006-10-10 05:00,ZJSY 100500Z AUTO 11008KT 4SM 31/21 A2994 RMK T03100210 IEM_DS3505
ZJSY,2006-10-10 06:00,ZJSY 100600Z AUTO 12006KT 4SM 31/22 A2991 RMK T03100220 IEM_DS3505
ZJSY,2006-10-10 07:00,ZJSY 100700Z AUTO 16010KT 4SM 30/24 A2988 RMK T03000240 IEM_DS3505
ZJSY,2006-10-10 08:00,ZJSY 100800Z AUTO 11006KT 4SM 29/24 A2988 RMK T02900240 IEM_DS3505
ZJSY,2006-10-10 09:00,ZJSY 100900Z AUTO 34004KT 2 1/2SM 27/23 A2988 RMK T02700230 IEM_DS3505
ZJSY,2006-10-10 10:00,ZJSY 101000Z AUTO 08006KT 2 1/2SM 28/23 A2988 RMK T02800230 IEM_DS3505
ZJSY,2006-10-10 11:00,ZJSY 101100Z AUTO 07006KT 2 1/2SM 27/23 A2991 RMK T02700230 IEM_DS3505
ZJSY,2006-10-10 12:00,ZJSY 101200Z AUTO 03002KT 2 1/2SM 27/23 A2994 RMK T02700230 IEM_DS3505
ZJSY,2006-10-10 13:00,ZJSY 101300Z AUTO 2 1/2SM 27/23 A2994 RMK T02700230 IEM_DS3505
ZJSY,2006-10-10 14:00,ZJSY 101400Z AUTO 2 1/2SM 26/23 A2997 RMK T02600230 IEM_DS3505
ZJSY,2006-10-10 15:00,ZJSY 101500Z AUTO 34004KT 2 1/2SM 25/23 A3000 RMK T02500230 IEM_DS3505
ZJSY,2006-10-10 16:00,ZJSY 101600Z AUTO 32004KT 2 1/2SM 25/23 A2997 RMK T02500230 IEM_DS3505
ZJSY,2006-10-10 17:00,ZJSY 101700Z AUTO 34004KT 2 1/2SM 25/23 A2997 RMK T02500230 IEM_DS3505
ZJSY,2006-10-10 18:00,ZJSY 101800Z AUTO 00000KT 25/23 A2997 RMK T02500230 IEM_DS3505
ZJSY,2006-10-10 19:00,ZJSY 101900Z AUTO 34004KT 24/22 A2994 RMK T02400220 IEM_DS3505
ZJSY,2006-10-10 20:00,ZJSY 102000Z AUTO 00000KT 24/22 A2994 RMK T02400220 IEM_DS3505
ZJSY,2006-10-10 21:00,ZJSY 102100Z AUTO 34004KT 2 1/2SM 23/22 A2994 RMK T02300220 IEM_DS3505
ZJSY,2006-10-10 22:00,ZJSY 102200Z AUTO 30004KT 2 1/2SM 23/22 A2994 RMK T02300220 IEM_DS3505
ZJSY,2006-10-10 23:00,ZJSY 102300Z AUTO 00000KT 2SM 23/22 A2994 RMK T02300220 IEM_DS3505
ZJSY,2006-10-11 00:00,ZJSY 110000Z AUTO 2SM 25/22 A2997 RMK T02500220 IEM_DS3505
ZJSY,2006-10-11 01:00,ZJSY 110100Z 00000MPS 3000 BR NSC 27/22 Q1016 NOSIG
ZJSY,2006-10-11 02:00,ZJSY 110200Z AUTO 00000KT 4SM 30/22 A3000 RMK T03000220 IEM_DS3505
ZJSY,2006-10-11 03:00,ZJSY 110300Z AUTO 22004KT 4SM 29/22 A3000 RMK T02900220 IEM_DS3505
ZJSY,2006-10-11 04:00,ZJSY 110400Z AUTO 22006KT 4SM 30/23 A2997 RMK T03000230 IEM_DS3505
ZJSY,2006-10-11 05:00,ZJSY 110500Z AUTO 20006KT 3SM 30/23 A2994 RMK T03000230 IEM_DS3505
ZJSY,2006-10-11 06:00,ZJSY 110600Z AUTO 23006KT 3SM 30/23 A2994 RMK T03000230 IEM_DS3505
ZJSY,2006-10-11 07:00,ZJSY 110700Z AUTO 23008KT 3SM 29/23 A2991 RMK T02900230 IEM_DS3505
ZJSY,2006-10-11 08:00,ZJSY 110800Z AUTO 24008KT 4SM 29/24 A2991 RMK T02900240 IEM_DS3505
ZJSY,2006-10-11 09:00,ZJSY 110900Z AUTO 25006KT 4SM 28/23 A2991 RMK T02800230 IEM_DS3505
ZJSY,2006-10-11 10:00,ZJSY 111000Z AUTO 30004KT 4SM 28/23 A2994 RMK T02800230 IEM_DS3505
ZJSY,2006-10-11 11:00,ZJSY 111100Z AUTO 35002KT 3SM 27/23 A2994 RMK T02700230 IEM_DS3505
ZJSY,2006-10-11 12:00,ZJSY 111200Z AUTO 02004KT 3SM 27/23 A2994 RMK T02700230 IEM_DS3505
ZJSY,2006-10-11 13:00,ZJSY 111300Z AUTO 08006KT 3SM 27/23 A2997 RMK T02700230 IEM_DS3505
ZJSY,2006-10-11 14:00,ZJSY 111400Z AUTO 09002KT 3SM 27/23 A2997 RMK T02700230 IEM_DS3505
ZJSY,2006-10-11 15:00,ZJSY 111500Z AUTO 3SM 25/23 A3000 RMK T02500230 IEM_DS3505
ZJSY,2006-10-11 16:00,ZJSY 111600Z VRB01MPS 5000 HZ SKC 25/23 Q1016 NOSIG
ZJSY,2006-10-11 17:00,ZJSY 111700Z AUTO 34004KT 3SM 24/22 A3000 RMK T02400220 IEM_DS3505
ZJSY,2006-10-11 18:00,ZJSY 111800Z AUTO 34002KT 24/22 A2997 RMK T02400220 IEM_DS3505
ZJSY,2006-10-11 19:00,ZJSY 111900Z AUTO 24/22 A2997 RMK T02400220 IEM_DS3505
ZJSY,2006-10-11 20:00,ZJSY 112000Z AUTO 34002KT 24/22 A2994 RMK T02400220 IEM_DS3505
ZJSY,2006-10-11 21:00,ZJSY 112100Z AUTO 00000KT 2 1/2SM 23/21 A2997 RMK T02300210 IEM_DS3505
ZJSY,2006-10-11 22:00,ZJSY 112200Z AUTO 00000KT 2 1/2SM 23/21 A2997 RMK T02300210 IEM_DS3505
ZJSY,2006-10-11 23:00,ZJSY 112300Z AUTO 00000KT 2 1/2SM 23/21 A3000 RMK T02300210 IEM_DS3505
ZJSY,2006-10-12 00:00,ZJSY 120000Z AUTO 34002KT 2 1/2SM 24/22 A3000 RMK T02400220 IEM_DS3505
ZJSY,2006-10-12 01:00,ZJSY 120100Z AUTO 00000KT 4SM 29/22 A3003 RMK T02900220 IEM_DS3505
ZJSY,2006-10-12 02:00,ZJSY 120200Z AUTO 4SM 29/22 A3003 RMK T02900220 IEM_DS3505
ZJSY,2006-10-12 03:00,ZJSY 120300Z AUTO 10008KT 5SM 30/20 A3003 RMK T03000200 IEM_DS3505
ZJSY,2006-10-12 04:00,ZJSY 120400Z AUTO 11006KT 6SM 31/20 A3000 RMK T03100200 IEM_DS3505
ZJSY,2006-10-12 05:00,ZJSY 120500Z AUTO 13006KT 6SM 31/22 A2997 RMK T03100220 IEM_DS3505
ZJSY,2006-10-12 06:00,ZJSY 120600Z AUTO 10004KT 6SM 31/22 A2994 RMK T03100220 IEM_DS3505
ZJSY,2006-10-12 07:00,ZJSY 120700Z AUTO 14006KT 4SM 30/23 A2991 RMK T03000230 IEM_DS3505
ZJSY,2006-10-12 08:00,ZJSY 120800Z AUTO 14006KT 4SM 29/23 A2991 RMK T02900230 IEM_DS3505
ZJSY,2006-10-12 09:00,ZJSY 120900Z AUTO 10008KT 6SM 29/22 A2991 RMK T02900220 IEM_DS3505
ZJSY,2006-10-12 10:00,ZJSY 121000Z AUTO 08010KT 6SM 28/22 A2994 RMK T02800220 IEM_DS3505
ZJSY,2006-10-12 11:00,ZJSY 121100Z AUTO 07006KT 6SM 27/23 A2994 RMK T02700230 IEM_DS3505
ZJSY,2006-10-12 12:00,ZJSY 121200Z AUTO 09002KT 6SM 26/23 A2997 RMK T02600230 IEM_DS3505
ZJSY,2006-10-12 16:00,ZJSY 121600Z AUTO 00000KT 7SM 25/22 A3003 RMK T02500220 IEM_DS3505
ZJSY,2006-10-12 17:00,ZJSY 121700Z AUTO 00000KT 7SM 24/22 A3003 RMK T02400220 IEM_DS3505
ZJSY,2006-10-12 18:00,ZJSY 121800Z AUTO 36002KT 6SM 24/21 A3000 RMK T02400210 IEM_DS3505
ZJSY,2006-10-12 19:00,ZJSY 121900Z AUTO 32004KT 23/21 A3000 RMK T02300210 IEM_DS3505
ZJSY,2006-10-12 20:00,ZJSY 122000Z AUTO 34004KT 23/21 A2997 RMK T02300210 IEM_DS3505
ZJSY,2006-10-12 21:00,ZJSY 122100Z AUTO 35004KT 6SM 22/20 A2997 RMK T02200200 IEM_DS3505
ZJSY,2006-10-12 22:00,ZJSY 122200Z AUTO 34002KT 6SM 22/20 A3000 RMK T02200200 IEM_DS3505
ZJSY,2006-10-12 23:00,ZJSY 122300Z AUTO 33004KT 6SM 22/20 A3000 RMK T02200200 IEM_DS3505
ZJSY,2006-10-13 00:00,ZJSY 130000Z AUTO 00000KT 6SM 24/22 A3003 RMK T02400220 IEM_DS3505
ZJSY,2006-10-13 01:00,ZJSY 130100Z AUTO 00000KT 6SM 28/21 A3003 RMK T02800210 IEM_DS3505
ZJSY,2006-10-13 02:00,ZJSY 130200Z AUTO 6SM 29/21 A3006 RMK T02900210 IEM_DS3505
ZJSY,2006-10-13 03:00,ZJSY 130300Z AUTO 19004KT 6SM 29/20 A3003 RMK T02900200 IEM_DS3505
ZJSY,2006-10-13 04:00,ZJSY 130400Z AUTO 20006KT 6SM 30/19 A3003 RMK T03000190 IEM_DS3505
ZJSY,2006-10-13 05:00,ZJSY 130500Z AUTO 22006KT 4SM 30/21 A3000 RMK T03000210 IEM_DS3505
ZJSY,2006-10-13 06:00,ZJSY 130600Z AUTO 20008KT 4SM 30/22 A2997 RMK T03000220 IEM_DS3505
ZJSY,2006-10-13 07:00,ZJSY 130700Z AUTO 20006KT 4SM 30/23 A2997 RMK T03000230 IEM_DS3505
ZJSY,2006-10-13 08:00,ZJSY 130800Z AUTO 22004KT 4SM 30/23 A2994 RMK T03000230 IEM_DS3505
ZJSY,2006-10-13 09:00,ZJSY 130900Z AUTO 24004KT 7SM 29/23 A2994 RMK T02900230 IEM_DS3505
ZJSY,2006-10-13 10:00,ZJSY 131000Z AUTO 24004KT 7SM 28/22 A2994 RMK T02800220 IEM_DS3505
ZJSY,2006-10-13 11:00,ZJSY 131100Z AUTO 35002KT 7SM 26/22 A2994 RMK T02600220 IEM_DS3505
ZJSY,2006-10-13 12:00,ZJSY 131200Z AUTO 34004KT 7SM 26/23 A2997 RMK T02600230 IEM_DS3505
ZJSY,2006-10-13 13:00,ZJSY 131300Z AUTO 04004KT 7SM 27/22 A3000 RMK T02700220 IEM_DS3505
ZJSY,2006-10-13 14:00,ZJSY 131400Z AUTO 7SM 26/22 A3000 RMK T02600220 IEM_DS3505
ZJSY,2006-10-13 15:00,ZJSY 131500Z AUTO 36004KT 7SM 25/23 A3000 RMK T02500230 IEM_DS3505
ZJSY,2006-10-13 16:00,ZJSY 131600Z AUTO 06004KT 7SM 26/22 A3000 RMK T02600220 IEM_DS3505
ZJSY,2006-10-13 17:00,ZJSY 131700Z AUTO 08004KT 7SM 25/22 A2997 RMK T02500220 IEM_DS3505
ZJSY,2006-10-13 18:00,ZJSY 131800Z AUTO 34002KT 24/22 A2997 RMK T02400220 IEM_DS3505
ZJSY,2006-10-13 19:00,ZJSY 131900Z AUTO 34004KT 23/22 A2994 RMK T02300220 IEM_DS3505
ZJSY,2006-10-13 20:00,ZJSY 132000Z AUTO 31004KT 23/21 A2994 RMK T02300210 IEM_DS3505
ZJSY,2006-10-13 21:00,ZJSY 132100Z AUTO 00000KT 6SM 23/21 A2994 RMK T02300210 IEM_DS3505
ZJSY,2006-10-13 22:00,ZJSY 132200Z AUTO 34004KT 6SM 23/21 A2994 RMK T02300210 IEM_DS3505
ZJSY,2006-10-13 23:00,ZJSY 132300Z AUTO 6SM 23/21 A2997 RMK T02300210 IEM_DS3505
ZJSY,2006-10-14 00:00,ZJSY 140000Z AUTO 00000KT 6SM 25/22 A2997 RMK T02500220 IEM_DS3505
ZJSY,2006-10-14 01:00,ZJSY 140100Z AUTO 5SM 28/22 A3000 RMK T02800220 IEM_DS3505
ZJSY,2006-10-14 02:00,ZJSY 140200Z AUTO 19004KT 6SM 28/22 A3000 RMK T02800220 IEM_DS3505
ZJSY,2006-10-14 03:00,ZJSY 140300Z AUTO 19004KT 6SM 29/22 A3000 RMK T02900220 IEM_DS3505
ZJSY,2006-10-14 04:00,ZJSY 140400Z AUTO 18006KT 7SM 29/23 A2997 RMK T02900230 IEM_DS3505
ZJSY,2006-10-14 05:00,ZJSY 140500Z AUTO 19006KT 7SM 29/23 A2994 RMK T02900230 IEM_DS3505
ZJSY,2006-10-14 06:00,ZJSY 140600Z AUTO 20006KT 7SM 29/23 A2991 RMK T02900230 IEM_DS3505
ZJSY,2006-10-14 07:00,ZJSY 140700Z AUTO 19004KT 7SM 29/23 A2988 RMK T02900230 IEM_DS3505
ZJSY,2006-10-14 08:00,ZJSY 140800Z AUTO 21006KT 6SM 29/23 A2988 RMK T02900230 IEM_DS3505
ZJSY,2006-10-14 09:00,ZJSY 140900Z AUTO 22004KT 6SM 28/23 A2988 RMK T02800230 IEM_DS3505
ZJSY,2006-10-14 10:00,ZJSY 141000Z AUTO 7SM 28/23 A2988 RMK T02800230 IEM_DS3505
ZJSY,2006-10-14 11:00,ZJSY 141100Z AUTO 7SM 27/22 A2988 RMK T02700220 IEM_DS3505
ZJSY,2006-10-14 12:00,ZJSY 141200Z 00000MPS 9999 SCT016 27/23 Q1013 NOSIG
ZJSY,2006-10-14 13:00,ZJSY 141300Z AUTO 00000KT 7SM 27/23 A2994 RMK T02700230 IEM_DS3505
ZJSY,2006-10-14 14:00,ZJSY 141400Z AUTO 08004KT 7SM 27/23 A2994 RMK T02700230 IEM_DS3505
ZJSY,2006-10-14 15:00,ZJSY 141500Z AUTO 08004KT 7SM 26/23 A2994 RMK T02600230 IEM_DS3505
ZJSY,2006-10-14 16:00,ZJSY 141600Z AUTO 08004KT 7SM 25/23 A2994 RMK T02500230 IEM_DS3505
ZJSY,2006-10-14 17:00,ZJSY 141700Z AUTO 09002KT 7SM 25/23 A2991 RMK T02500230 IEM_DS3505
ZJSY,2006-10-14 18:00,ZJSY 141800Z AUTO 32002KT 25/22 A2991 RMK T02500220 IEM_DS3505
ZJSY,2006-10-14 19:00,ZJSY 141900Z AUTO 34004KT 24/22 A2988 RMK T02400220 IEM_DS3505
ZJSY,2006-10-14 20:00,ZJSY 142000Z AUTO 36002KT 24/22 A2991 RMK T02400220 IEM_DS3505
ZJSY,2006-10-14 21:00,ZJSY 142100Z AUTO 35002KT 6SM 23/22 A2988 RMK T02300220 IEM_DS3505
ZJSY,2006-10-14 22:00,ZJSY 142200Z AUTO 33004KT 6SM 23/21 A2991 RMK T02300210 IEM_DS3505
ZJSY,2006-10-14 23:00,ZJSY 142300Z AUTO 35004KT 3SM 23/21 A2994 RMK T02300210 IEM_DS3505
ZJSY,2006-10-15 00:00,ZJSY 150000Z AUTO 00000KT 3SM 25/22 A2994 RMK T02500220 IEM_DS3505
ZJSY,2006-10-15 01:00,ZJSY 150100Z AUTO 3SM 28/22 A2997 RMK T02800220 IEM_DS3505
ZJSY,2006-10-15 02:00,ZJSY 150200Z AUTO 12004KT 3SM 29/22 A2997 RMK T02900220 IEM_DS3505
ZJSY,2006-10-15 03:00,ZJSY 150300Z AUTO 16004KT 3SM 30/23 A2997 RMK T03000230 IEM_DS3505
ZJSY,2006-10-15 04:00,ZJSY 150400Z AUTO 19006KT 3SM 30/22 A2994 RMK T03000220 IEM_DS3505
ZJSY,2006-10-15 05:00,ZJSY 150500Z AUTO 20006KT 3SM 29/23 A2991 RMK T02900230 IEM_DS3505
ZJSY,2006-10-15 06:00,ZJSY 150600Z AUTO 17006KT 3SM 29/22 A2988 RMK T02900220 IEM_DS3505
ZJSY,2006-10-15 07:00,ZJSY 150700Z AUTO 18006KT 3SM 29/23 A2985 RMK T02900230 IEM_DS3505
ZJSY,2006-10-15 08:00,ZJSY 150800Z AUTO 20006KT 3SM 29/23 A2985 RMK T02900230 IEM_DS3505
ZJSY,2006-10-15 09:00,ZJSY 150900Z AUTO 20004KT 4SM 28/23 A2985 RMK T02800230 IEM_DS3505
ZJSY,2006-10-15 10:00,ZJSY 151000Z AUTO 18004KT 4SM 28/23 A2988 RMK T02800230 IEM_DS3505
ZJSY,2006-10-15 11:00,ZJSY 151100Z AUTO 19004KT 4SM 28/23 A2988 RMK T02800230 IEM_DS3505
ZJSY,2006-10-15 12:00,ZJSY 151200Z AUTO 10006KT 4SM 27/23 A2991 RMK T02700230 IEM_DS3505
ZJSY,2006-10-15 13:00,ZJSY 151300Z AUTO 07004KT 5SM 27/23 A2994 RMK T02700230 IEM_DS3505
ZJSY,2006-10-15 14:00,ZJSY 151400Z AUTO 08004KT 5SM 27/23 A2994 RMK T02700230 IEM_DS3505
ZJSY,2006-10-15 15:00,ZJSY 151500Z AUTO 06004KT 5SM 27/23 A2994 RMK T02700230 IEM_DS3505
ZJSY,2006-10-15 16:00,ZJSY 151600Z AUTO 5SM 26/23 A2994 RMK T02600230 IEM_DS3505
ZJSY,2006-10-15 17:00,ZJSY 151700Z AUTO 34004KT 5SM 25/23 A2994 RMK T02500230 IEM_DS3505
ZJSY,2006-10-15 18:00,ZJSY 151800Z AUTO 33004KT 5SM 24/23 A2991 RMK T02400230 IEM_DS3505
ZJSY,2006-10-15 19:00,ZJSY 151900Z AUTO 24/22 A2991 RMK T02400220 IEM_DS3505
ZJSY,2006-10-15 20:00,ZJSY 152000Z AUTO 36002KT 24/22 A2991 RMK T02400220 IEM_DS3505
ZJSY,2006-10-15 21:00,ZJSY 152100Z AUTO 34004KT 4SM 24/22 A2991 RMK T02400220 IEM_DS3505
ZJSY,2006-10-15 22:00,ZJSY 152200Z AUTO 35002KT 4SM 24/21 A2991 RMK T02400210 IEM_DS3505
ZJSY,2006-10-15 23:00,ZJSY 152300Z AUTO 10002KT 3SM 24/22 A2994 RMK T02400220 IEM_DS3505
ZJSY,2006-10-16 00:00,ZJSY 160000Z AUTO 34002KT 3SM 25/22 A2997 RMK T02500220 IEM_DS3505
ZJSY,2006-10-16 01:00,ZJSY 160100Z AUTO 09006KT 3SM 28/23 A2997 RMK T02800230 IEM_DS3505
ZJSY,2006-10-16 02:00,ZJSY 160200Z AUTO 08006KT 3SM 29/23 A3000 RMK T02900230 IEM_DS3505
ZJSY,2006-10-16 03:00,ZJSY 160300Z AUTO 10008KT 4SM 30/22 A3000 RMK T03000220 IEM_DS3505
ZJSY,2006-10-16 04:00,ZJSY 160400Z AUTO 11008KT 5SM 31/22 A2997 RMK T03100220 IEM_DS3505
ZJSY,2006-10-16 05:00,ZJSY 160500Z AUTO 12006KT 5SM 31/22 A2994 RMK T03100220 IEM_DS3505
ZJSY,2006-10-16 06:00,ZJSY 160600Z AUTO 15008KT 5SM 30/23 A2991 RMK T03000230 IEM_DS3505
ZJSY,2006-10-16 07:00,ZJSY 160700Z AUTO 15008KT 5SM 30/23 A2988 RMK T03000230 IEM_DS3505
ZJSY,2006-10-16 08:00,ZJSY 160800Z AUTO 14008KT 5SM 29/24 A2988 RMK T02900240 IEM_DS3505
ZJSY,2006-10-16 09:00,ZJSY 160900Z AUTO 14006KT 4SM 29/24 A2988 RMK T02900240 IEM_DS3505
ZJSY,2006-10-16 10:00,ZJSY 161000Z AUTO 11006KT 4SM 28/23 A2991 RMK T02800230 IEM_DS3505
ZJSY,2006-10-16 11:00,ZJSY 161100Z AUTO 08008KT 4SM 27/23 A2991 RMK T02700230 IEM_DS3505
ZJSY,2006-10-16 12:00,ZJSY 161200Z AUTO 06004KT 4SM 27/23 A2994 RMK T02700230 IEM_DS3505
ZJSY,2006-10-16 13:00,ZJSY 161300Z AUTO 07002KT 4SM 26/23 A2997 RMK T02600230 IEM_DS3505
ZJSY,2006-10-16 14:00,ZJSY 161400Z AUTO 05004KT 4SM 26/23 A2997 RMK T02600230 IEM_DS3505
ZJSY,2006-10-16 15:00,ZJSY 161500Z AUTO 00000KT 4SM 25/22 A2997 RMK T02500220 IEM_DS3505
ZJSY,2006-10-16 16:00,ZJSY 161600Z AUTO 00000KT 4SM 25/22 A2997 RMK T02500220 IEM_DS3505
ZJSY,2006-10-16 17:00,ZJSY 161700Z AUTO 34002KT 4SM 24/22 A2994 RMK T02400220 IEM_DS3505
ZJSY,2006-10-16 18:00,ZJSY 161800Z AUTO 02002KT 4SM 24/22 A2994 RMK T02400220 IEM_DS3505
ZJSY,2006-10-16 19:00,ZJSY 161900Z AUTO 04002KT 4SM 24/22 A2991 RMK T02400220 IEM_DS3505
ZJSY,2006-10-16 21:00,ZJSY 162100Z AUTO 02002KT 4SM 23/22 A2991 RMK T02300220 IEM_DS3505
ZJSY,2006-10-16 22:00,ZJSY 162200Z AUTO 00000KT 4SM 23/21 A2994 RMK T02300210 IEM_DS3505
ZJSY,2006-10-16 23:00,ZJSY 162300Z AUTO 04002KT 4SM 23/21 A2997 RMK T02300210 IEM_DS3505
ZJSY,2006-10-17 00:00,ZJSY 170000Z AUTO 4SM 26/22 A2997 RMK T02600220 IEM_DS3505
ZJSY,2006-10-17 01:00,ZJSY 170100Z AUTO 07006KT 4SM 28/22 A2997 RMK T02800220 IEM_DS3505
ZJSY,2006-10-17 02:00,ZJSY 170200Z AUTO 08006KT 3SM 30/22 A3000 RMK T03000220 IEM_DS3505
ZJSY,2006-10-17 03:00,ZJSY 170300Z AUTO 08006KT 3SM 30/22 A3000 RMK T03000220 IEM_DS3505
ZJSY,2006-10-17 04:00,ZJSY 170400Z AUTO 18006KT 3SM 30/23 A2997 RMK T03000230 IEM_DS3505
ZJSY,2006-10-17 05:00,ZJSY 170500Z AUTO 19006KT 4SM 30/23 A2994 RMK T03000230 IEM_DS3505
ZJSY,2006-10-17 06:00,ZJSY 170600Z AUTO 16008KT 4SM 30/23 A2991 RMK T03000230 IEM_DS3505
ZJSY,2006-10-17 07:00,ZJSY 170700Z AUTO 19006KT 4SM 29/24 A2991 RMK T02900240 IEM_DS3505
ZJSY,2006-10-17 08:00,ZJSY 170800Z AUTO 18008KT 4SM 29/24 A2988 RMK T02900240 IEM_DS3505
ZJSY,2006-10-17 09:00,ZJSY 170900Z AUTO 17006KT 4SM 28/24 A2991 RMK T02800240 IEM_DS3505
ZJSY,2006-10-17 10:00,ZJSY 171000Z AUTO 15004KT 4SM 28/24 A2991 RMK T02800240 IEM_DS3505
ZJSY,2006-10-17 11:00,ZJSY 171100Z AUTO 3SM 27/23 A2991 RMK T02700230 IEM_DS3505
ZJSY,2006-10-17 12:00,ZJSY 171200Z AUTO 08004KT 3SM 26/23 A2994 RMK T02600230 IEM_DS3505
ZJSY,2006-10-17 13:00,ZJSY 171300Z AUTO 08004KT 3SM 26/23 A2994 RMK T02600230 IEM_DS3505
ZJSY,2006-10-17 14:00,ZJSY 171400Z AUTO 35002KT 3SM 26/23 A2997 RMK T02600230 IEM_DS3505
ZJSY,2006-10-17 15:00,ZJSY 171500Z AUTO 3SM 26/23 A2997 RMK T02600230 IEM_DS3505
ZJSY,2006-10-17 16:00,ZJSY 171600Z AUTO 00000KT 3SM 25/23 A2997 RMK T02500230 IEM_DS3505
ZJSY,2006-10-17 17:00,ZJSY 171700Z AUTO 34002KT 3SM 25/23 A2994 RMK T02500230 IEM_DS3505
ZJSY,2006-10-17 18:00,ZJSY 171800Z AUTO 34004KT 3SM 25/22 A2994 RMK T02500220 IEM_DS3505
ZJSY,2006-10-17 19:00,ZJSY 171900Z AUTO 00000KT 24/22 A2991 RMK T02400220 IEM_DS3505
ZJSY,2006-10-17 20:00,ZJSY 172000Z AUTO 00000KT 24/22 A2991 RMK T02400220 IEM_DS3505
ZJSY,2006-10-17 21:00,ZJSY 172100Z AUTO 00000KT 4SM 24/22 A2991 RMK T02400220 IEM_DS3505
ZJSY,2006-10-17 22:00,ZJSY 172200Z AUTO 00000KT 4SM 24/22 A2991 RMK T02400220 IEM_DS3505
ZJSY,2006-10-17 23:00,ZJSY 172300Z AUTO 00000KT 4SM 24/22 A2994 RMK T02400220 IEM_DS3505
ZJSY,2006-10-18 00:00,ZJSY 180000Z AUTO 00000KT 4SM 25/23 A2997 RMK T02500230 IEM_DS3505
ZJSY,2006-10-18 01:00,ZJSY 180100Z AUTO 09006KT 4SM 28/23 A2997 RMK T02800230 IEM_DS3505
ZJSY,2006-10-18 02:00,ZJSY 180200Z AUTO 10008KT 4SM 29/23 A2997 RMK T02900230 IEM_DS3505
ZJSY,2006-10-18 03:00,ZJSY 180300Z AUTO 11006KT 4SM 31/22 A2997 RMK T03100220 IEM_DS3505
ZJSY,2006-10-18 04:00,ZJSY 180400Z AUTO 12006KT 4SM 31/23 A2994 RMK T03100230 IEM_DS3505
ZJSY,2006-10-18 05:00,ZJSY 180500Z AUTO 18008KT 4SM 30/24 A2994 RMK T03000240 IEM_DS3505
ZJSY,2006-10-18 06:00,ZJSY 180600Z AUTO 16006KT 4SM 31/24 A2991 RMK T03100240 IEM_DS3505
ZJSY,2006-10-18 07:00,ZJSY 180700Z AUTO 15008KT 4SM 30/24 A2988 RMK T03000240 IEM_DS3505
ZJSY,2006-10-18 08:00,ZJSY 180800Z AUTO 14010KT 4SM 29/24 A2988 RMK T02900240 IEM_DS3505
ZJSY,2006-10-18 09:00,ZJSY 180900Z AUTO 15008KT 4SM 29/24 A2988 RMK T02900240 IEM_DS3505
ZJSY,2006-10-18 10:00,ZJSY 181000Z AUTO 11006KT 4SM 28/23 A2988 RMK T02800230 IEM_DS3505
ZJSY,2006-10-18 11:00,ZJSY 181100Z AUTO 08008KT 4SM 27/23 A2991 RMK T02700230 IEM_DS3505
ZJSY,2006-10-18 12:00,ZJSY 181200Z AUTO 06004KT 4SM 27/23 A2994 RMK T02700230 IEM_DS3505
ZJSY,2006-10-18 13:00,ZJSY 181300Z AUTO 06006KT 4SM 27/23 A2997 RMK T02700230 IEM_DS3505
ZJSY,2006-10-18 14:00,ZJSY 181400Z AUTO 06006KT 4SM 27/22 A2997 RMK T02700220 IEM_DS3505
ZJSY,2006-10-18 15:00,ZJSY 181500Z AUTO 05006KT 4SM 27/22 A2997 RMK T02700220 IEM_DS3505
ZJSY,2006-10-18 16:00,ZJSY 181600Z AUTO 4SM 25/22 A2997 RMK T02500220 IEM_DS3505
ZJSY,2006-10-18 17:00,ZJSY 181700Z AUTO 05002KT 4SM 25/22 A2997 RMK T02500220 IEM_DS3505
ZJSY,2006-10-18 18:00,ZJSY 181800Z AUTO 02002KT 24/22 A2994 RMK T02400220 IEM_DS3505
ZJSY,2006-10-18 19:00,ZJSY 181900Z AUTO 04004KT 26/21 A2994 RMK T02600210 IEM_DS3505
ZJSY,2006-10-18 20:00,ZJSY 182000Z AUTO 05004KT 25/21 A2991 RMK T02500210 IEM_DS3505
ZJSY,2006-10-18 21:00,ZJSY 182100Z AUTO 06004KT 4SM 25/21 A2994 RMK T02500210 IEM_DS3505
ZJSY,2006-10-18 22:00,ZJSY 182200Z AUTO 4SM 24/21 A2994 RMK T02400210 IEM_DS3505
ZJSY,2006-10-18 23:00,ZJSY 182300Z AUTO 07004KT 4SM 25/21 A2994 RMK T02500210 IEM_DS3505
ZJSY,2006-10-19 00:00,ZJSY 190000Z AUTO 06004KT 4SM 26/22 A2997 RMK T02600220 IEM_DS3505
ZJSY,2006-10-19 01:00,ZJSY 190100Z AUTO 07008KT 4SM 28/22 A2997 RMK T02800220 IEM_DS3505
ZJSY,2006-10-19 02:00,ZJSY 190200Z AUTO 08010KT 7SM 30/22 A3000 RMK T03000220 IEM_DS3505
ZJSY,2006-10-19 03:00,ZJSY 190300Z AUTO 09010KT 7SM 30/22 A3000 RMK T03000220 IEM_DS3505
ZJSY,2006-10-19 04:00,ZJSY 190400Z AUTO 09008KT 7SM 31/22 A2997 RMK T03100220 IEM_DS3505
ZJSY,2006-10-19 05:00,ZJSY 190500Z AUTO 10010KT 7SM 31/22 A2994 RMK T03100220 IEM_DS3505
ZJSY,2006-10-19 06:00,ZJSY 190600Z AUTO 09010KT 7SM 32/22 A2991 RMK T03200220 IEM_DS3505
ZJSY,2006-10-19 07:00,ZJSY 190700Z AUTO 10010KT 7SM 31/23 A2991 RMK T03100230 IEM_DS3505
ZJSY,2006-10-19 08:00,ZJSY 190800Z AUTO 10010KT 7SM 30/22 A2991 RMK T03000220 IEM_DS3505
ZJSY,2006-10-19 09:00,ZJSY 190900Z AUTO 09012KT 7SM 29/22 A2991 RMK T02900220 IEM_DS3505
ZJSY,2006-10-19 10:00,ZJSY 191000Z AUTO 08010KT 7SM 28/22 A2991 RMK T02800220 IEM_DS3505
ZJSY,2006-10-19 11:00,ZJSY 191100Z AUTO 08010KT 7SM 27/22 A2991 RMK T02700220 IEM_DS3505
ZJSY,2006-10-19 12:00,ZJSY 191200Z AUTO 08006KT 7SM 26/23 A2994 RMK T02600230 IEM_DS3505
ZJSY,2006-10-19 13:00,ZJSY 191300Z AUTO 07008KT 7SM 27/22 A2997 RMK T02700220 IEM_DS3505
ZJSY,2006-10-19 14:00,ZJSY 191400Z AUTO 07008KT 7SM 26/22 A3000 RMK T02600220 IEM_DS3505
ZJSY,2006-10-19 15:00,ZJSY 191500Z AUTO 06008KT 7SM 26/22 A3000 RMK T02600220 IEM_DS3505
ZJSY,2006-10-19 16:00,ZJSY 191600Z AUTO 07006KT 7SM 25/21 A3000 RMK T02500210 IEM_DS3505
ZJSY,2006-10-19 17:00,ZJSY 191700Z AUTO 04006KT 7SM 26/21 A2997 RMK T02600210 IEM_DS3505
ZJSY,2006-10-19 18:00,ZJSY 191800Z AUTO 11002KT 7SM 25/21 A2997 RMK T02500210 IEM_DS3505
ZJSY,2006-10-19 19:00,ZJSY 191900Z AUTO 00000KT 24/21 A2997 RMK T02400210 IEM_DS3505
ZJSY,2006-10-19 20:00,ZJSY 192000Z AUTO 36002KT 24/21 A2997 RMK T02400210 IEM_DS3505
ZJSY,2006-10-19 21:00,ZJSY 192100Z AUTO 02004KT 7SM 23/20 A2997 RMK T02300200 IEM_DS3505
ZJSY,2006-10-19 22:00,ZJSY 192200Z AUTO 7SM 23/20 A2997 RMK T02300200 IEM_DS3505
ZJSY,2006-10-19 23:00,ZJSY 192300Z AUTO 00000KT 7SM 24/20 A3000 RMK T02400200 IEM_DS3505
ZJSY,2006-10-20 00:00,ZJSY 200000Z AUTO 00000KT 6SM 26/21 A3003 RMK T02600210 IEM_DS3505
ZJSY,2006-10-20 01:00,ZJSY 200100Z AUTO 6SM 29/21 A3003 RMK T02900210 IEM_DS3505
ZJSY,2006-10-20 02:00,ZJSY 200200Z AUTO 08004KT 6SM 29/21 A3003 RMK T02900210 IEM_DS3505
ZJSY,2006-10-20 03:00,ZJSY 200300Z AUTO 05008KT 7SM 30/21 A3003 RMK T03000210 IEM_DS3505
ZJSY,2006-10-20 04:00,ZJSY 200400Z AUTO 05006KT 7SM 30/22 A3000 RMK T03000220 IEM_DS3505
ZJSY,2006-10-20 05:00,ZJSY 200500Z AUTO 14004KT 7SM 31/21 A2997 RMK T03100210 IEM_DS3505
ZJSY,2006-10-20 06:00,ZJSY 200600Z AUTO 17006KT 7SM 31/23 A2997 RMK T03100230 IEM_DS3505
ZJSY,2006-10-20 07:00,ZJSY 200700Z AUTO 20006KT 7SM 30/23 A2994 RMK T03000230 IEM_DS3505
ZJSY,2006-10-20 08:00,ZJSY 200800Z AUTO 05004KT 7SM 30/23 A2991 RMK T03000230 IEM_DS3505
ZJSY,2006-10-20 09:00,ZJSY 200900Z AUTO 07010KT 7SM 29/22 A2991 RMK T02900220 IEM_DS3505
ZJSY,2006-10-20 10:00,ZJSY 201000Z AUTO 07008KT 7SM 28/22 A2994 RMK T02800220 IEM_DS3505
ZJSY,2006-10-20 11:00,ZJSY 201100Z AUTO 06006KT 7SM 27/22 A2994 RMK T02700220 IEM_DS3505
ZJSY,2006-10-20 12:00,ZJSY 201200Z AUTO 00000KT 7SM 27/22 A2997 RMK T02700220 IEM_DS3505
ZJSY,2006-10-20 13:00,ZJSY 201300Z AUTO 00000KT 6SM 25/22 A2997 RMK T02500220 IEM_DS3505
ZJSY,2006-10-20 14:00,ZJSY 201400Z AUTO 00000KT 6SM 25/22 A2997 RMK T02500220 IEM_DS3505
ZJSY,2006-10-20 15:00,ZJSY 201500Z AUTO 06004KT 6SM 25/21 A3000 RMK T02500210 IEM_DS3505
ZJSY,2006-10-20 16:00,ZJSY 201600Z AUTO 6SM 24/21 A3000 RMK T02400210 IEM_DS3505
ZJSY,2006-10-20 17:00,ZJSY 201700Z AUTO 00000KT 6SM 23/21 A3000 RMK T02300210 IEM_DS3505
ZJSY,2006-10-20 18:00,ZJSY 201800Z AUTO 32004KT 6SM 22/21 A2997 RMK T02200210 IEM_DS3505
ZJSY,2006-10-20 19:00,ZJSY 201900Z AUTO 22/20 A2997 RMK T02200200 IEM_DS3505
ZJSY,2006-10-20 20:00,ZJSY 202000Z AUTO 32002KT 22/20 A2997 RMK T02200200 IEM_DS3505
ZJSY,2006-10-20 21:00,ZJSY 202100Z AUTO 22/20 A2994 RMK T02200200 IEM_DS3505
ZJSY,2006-10-20 22:00,ZJSY 202200Z AUTO 34004KT 21/19 A2997 RMK T02100190 IEM_DS3505
ZJSY,2006-10-20 23:00,ZJSY 202300Z AUTO 34004KT 6SM 21/19 A3000 RMK T02100190 IEM_DS3505
ZJSY,2006-10-21 00:00,ZJSY 210000Z AUTO 6SM 24/21 A3000 RMK T02400210 IEM_DS3505
ZJSY,2006-10-21 01:00,ZJSY 210100Z AUTO 6SM 27/20 A3000 RMK T02700200 IEM_DS3505
ZJSY,2006-10-21 02:00,ZJSY 210200Z AUTO 14004KT 6SM 29/21 A3000 RMK T02900210 IEM_DS3505
ZJSY,2006-10-21 03:00,ZJSY 210300Z AUTO 09010KT 6SM 30/21 A3000 RMK T03000210 IEM_DS3505
ZJSY,2006-10-21 04:00,ZJSY 210400Z AUTO 07010KT 7SM 31/21 A2997 RMK T03100210 IEM_DS3505
ZJSY,2006-10-21 05:00,ZJSY 210500Z AUTO 07006KT 7SM 31/22 A2994 RMK T03100220 IEM_DS3505
ZJSY,2006-10-21 06:00,ZJSY 210600Z AUTO 08008KT 7SM 32/22 A2991 RMK T03200220 IEM_DS3505
ZJSY,2006-10-21 07:00,ZJSY 210700Z AUTO 09008KT 7SM 33/22 A2991 RMK T03300220 IEM_DS3505
ZJSY,2006-10-21 08:00,ZJSY 210800Z AUTO 11010KT 7SM 31/21 A2991 RMK T03100210 IEM_DS3505
ZJSY,2006-10-21 09:00,ZJSY 210900Z AUTO 10008KT 7SM 29/21 A2991 RMK T02900210 IEM_DS3505
ZJSY,2006-10-21 10:00,ZJSY 211000Z AUTO 10010KT 7SM 28/22 A2991 RMK T02800220 IEM_DS3505
ZJSY,2006-10-21 11:00,ZJSY 211100Z AUTO 07008KT 7SM 26/22 A2994 RMK T02600220 IEM_DS3505
ZJSY,2006-10-21 12:00,ZJSY 211200Z AUTO 07006KT 6SM 26/22 A2994 RMK T02600220 IEM_DS3505
ZJSY,2006-10-21 13:00,ZJSY 211300Z AUTO 6SM 26/22 A2997 RMK T02600220 IEM_DS3505
ZJSY,2006-10-21 14:00,ZJSY 211400Z AUTO 6SM 26/22 A2997 RMK T02600220 IEM_DS3505
ZJSY,2006-10-21 15:00,ZJSY 211500Z AUTO 08006KT 6SM 26/22 A2997 RMK T02600220 IEM_DS3505
ZJSY,2006-10-21 16:00,ZJSY 211600Z AUTO 34002KT 6SM 25/22 A2997 RMK T02500220 IEM_DS3505
ZJSY,2006-10-21 17:00,ZJSY 211700Z AUTO 6SM 24/21 A2997 RMK T02400210 IEM_DS3505
ZJSY,2006-10-21 18:00,ZJSY 211800Z AUTO 33004KT 23/21 A2994 RMK T02300210 IEM_DS3505
ZJSY,2006-10-21 19:00,ZJSY 211900Z AUTO 35002KT 22/21 A2994 RMK T02200210 IEM_DS3505
ZJSY,2006-10-21 20:00,ZJSY 212000Z AUTO 34004KT 22/21 A2994 RMK T02200210 IEM_DS3505
ZJSY,2006-10-21 21:00,ZJSY 212100Z AUTO 6SM 21/20 A2994 RMK T02100200 IEM_DS3505
ZJSY,2006-10-21 22:00,ZJSY 212200Z AUTO 6SM 21/19 A2994 RMK T02100190 IEM_DS3505
ZJSY,2006-10-21 23:00,ZJSY 212300Z AUTO 6SM 21/19 A2994 RMK T02100190 IEM_DS3505
ZJSY,2006-10-22 00:00,ZJSY 220000Z AUTO 00000KT 6SM 24/21 A2997 RMK T02400210 IEM_DS3505
ZJSY,2006-10-22 01:00,ZJSY 220100Z AUTO 00000KT 6SM 28/21 A3000 RMK T02800210 IEM_DS3505
ZJSY,2006-10-22 02:00,ZJSY 220200Z AUTO 07006KT 6SM 29/21 A3000 RMK T02900210 IEM_DS3505
ZJSY,2006-10-22 03:00,ZJSY 220300Z AUTO 08004KT 6SM 31/20 A2997 RMK T03100200 IEM_DS3505
ZJSY,2006-10-22 04:00,ZJSY 220400Z AUTO 10006KT 6SM 31/20 A2994 RMK T03100200 IEM_DS3505
ZJSY,2006-10-22 05:00,ZJSY 220500Z AUTO 18008KT 6SM 30/22 A2994 RMK T03000220 IEM_DS3505
ZJSY,2006-10-22 06:00,ZJSY 220600Z AUTO 20006KT 7SM 30/23 A2991 RMK T03000230 IEM_DS3505
ZJSY,2006-10-22 07:00,ZJSY 220700Z AUTO 16006KT 7SM 30/22 A2991 RMK T03000220 IEM_DS3505
ZJSY,2006-10-22 08:00,ZJSY 220800Z AUTO 15006KT 7SM 29/23 A2988 RMK T02900230 IEM_DS3505
ZJSY,2006-10-22 09:00,ZJSY 220900Z AUTO 10006KT 7SM 29/22 A2988 RMK T02900220 IEM_DS3505
ZJSY,2006-10-22 10:00,ZJSY 221000Z AUTO 09008KT 7SM 29/22 A2988 RMK T02900220 IEM_DS3505
ZJSY,2006-10-22 11:00,ZJSY 221100Z AUTO 02004KT 7SM 28/22 A2991 RMK T02800220 IEM_DS3505
ZJSY,2006-10-22 12:00,ZJSY 221200Z AUTO 7SM 27/23 A2991 RMK T02700230 IEM_DS3505
ZJSY,2006-10-22 13:00,ZJSY 221300Z AUTO 7SM 27/23 A2994 RMK T02700230 IEM_DS3505
ZJSY,2006-10-22 14:00,ZJSY 221400Z AUTO 7SM 27/23 A2994 RMK T02700230 IEM_DS3505
ZJSY,2006-10-22 15:00,ZJSY 221500Z AUTO 7SM 27/22 A2994 RMK T02700220 IEM_DS3505
ZJSY,2006-10-22 16:00,ZJSY 221600Z AUTO 03004KT 6SM 27/22 A2994 RMK T02700220 IEM_DS3505
ZJSY,2006-10-22 17:00,ZJSY 221700Z AUTO 00000KT 6SM 26/22 A2994 RMK T02600220 IEM_DS3505
ZJSY,2006-10-22 18:00,ZJSY 221800Z AUTO 00000KT 6SM 25/22 A2991 RMK T02500220 IEM_DS3505
ZJSY,2006-10-22 19:00,ZJSY 221900Z AUTO 34002KT 25/22 A2991 RMK T02500220 IEM_DS3505
ZJSY,2006-10-22 20:00,ZJSY 222000Z AUTO 35002KT 25/22 A2991 RMK T02500220 IEM_DS3505
ZJSY,2006-10-22 21:00,ZJSY 222100Z AUTO 7SM 24/22 A2991 RMK T02400220 IEM_DS3505
ZJSY,2006-10-22 22:00,ZJSY 222200Z AUTO 00000KT 7SM 24/22 A2991 RMK T02400220 IEM_DS3505
ZJSY,2006-10-22 23:00,ZJSY 222300Z AUTO 7SM 25/21 A2994 RMK T02500210 IEM_DS3505
ZJSY,2006-10-23 00:00,ZJSY 230000Z AUTO 7SM 27/21 A2997 RMK T02700210 IEM_DS3505
ZJSY,2006-10-23 01:00,ZJSY 230100Z AUTO 7SM 28/21 A2997 RMK T02800210 IEM_DS3505
ZJSY,2006-10-23 02:00,ZJSY 230200Z AUTO 07008KT 7SM 31/21 A2997 RMK T03100210 IEM_DS3505
ZJSY,2006-10-23 03:00,ZJSY 230300Z AUTO 06010KT 7SM 30/21 A2997 RMK T03000210 IEM_DS3505
ZJSY,2006-10-23 04:00,ZJSY 230400Z AUTO 08010KT 7SM 31/22 A2997 RMK T03100220 IEM_DS3505
ZJSY,2006-10-23 05:00,ZJSY 230500Z AUTO 10010KT 7SM 32/22 A2994 RMK T03200220 IEM_DS3505
ZJSY,2006-10-23 06:00,ZJSY 230600Z AUTO 12006KT 7SM 32/22 A2991 RMK T03200220 IEM_DS3505
ZJSY,2006-10-23 07:00,ZJSY 230700Z AUTO 10008KT 7SM 31/22 A2991 RMK T03100220 IEM_DS3505
ZJSY,2006-10-23 08:00,ZJSY 230800Z AUTO 10010KT 6SM 31/21 A2991 RMK T03100210 IEM_DS3505
ZJSY,2006-10-23 09:00,ZJSY 230900Z AUTO 08012KT 6SM 30/21 A2991 RMK T03000210 IEM_DS3505
ZJSY,2006-10-23 10:00,ZJSY 231000Z AUTO 08010KT 6SM 28/22 A2991 RMK T02800220 IEM_DS3505
ZJSY,2006-10-23 11:00,ZJSY 231100Z AUTO 08010KT 7SM 27/22 A2994 RMK T02700220 IEM_DS3505
ZJSY,2006-10-23 12:00,ZJSY 231200Z AUTO 08008KT 7SM 26/22 A2994 RMK T02600220 IEM_DS3505
ZJSY,2006-10-23 13:00,ZJSY 231300Z AUTO 06008KT 6SM 27/22 A2997 RMK T02700220 IEM_DS3505
ZJSY,2006-10-23 14:00,ZJSY 231400Z AUTO 06006KT 6SM 26/21 A2997 RMK T02600210 IEM_DS3505
ZJSY,2006-10-23 15:00,ZJSY 231500Z AUTO 08006KT 6SM 25/21 A2997 RMK T02500210 IEM_DS3505
ZJSY,2006-10-23 16:00,ZJSY 231600Z AUTO 6SM 24/21 A2997 RMK T02400210 IEM_DS3505
ZJSY,2006-10-23 17:00,ZJSY 231700Z AUTO 6SM 23/21 A2997 RMK T02300210 IEM_DS3505
ZJSY,2006-10-23 18:00,ZJSY 231800Z AUTO 34004KT 22/20 A2997 RMK T02200200 IEM_DS3505
ZJSY,2006-10-23 19:00,ZJSY 231900Z AUTO 34004KT 22/20 A2994 RMK T02200200 IEM_DS3505
ZJSY,2006-10-23 20:00,ZJSY 232000Z AUTO 01002KT 22/19 A2994 RMK T02200190 IEM_DS3505
ZJSY,2006-10-23 21:00,ZJSY 232100Z AUTO 6SM 22/19 A2994 RMK T02200190 IEM_DS3505
ZJSY,2006-10-23 22:00,ZJSY 232200Z AUTO 00000KT 7SM 22/19 A2994 RMK T02200190 IEM_DS3505
ZJSY,2006-10-23 23:00,ZJSY 232300Z AUTO 34004KT 6SM 22/19 A2997 RMK T02200190 IEM_DS3505
ZJSY,2006-10-24 00:00,ZJSY 240000Z AUTO 6SM 24/20 A2997 RMK T02400200 IEM_DS3505
ZJSY,2006-10-24 01:00,ZJSY 240100Z AUTO 06004KT 5SM 28/20 A3000 RMK T02800200 IEM_DS3505
ZJSY,2006-10-24 02:00,ZJSY 240200Z AUTO 07004KT 5SM 29/21 A3003 RMK T02900210 IEM_DS3505
ZJSY,2006-10-24 03:00,ZJSY 240300Z AUTO 10004KT 6SM 30/21 A3000 RMK T03000210 IEM_DS3505
ZJSY,2006-10-24 04:00,ZJSY 240400Z AUTO 09008KT 7SM 32/22 A3000 RMK T03200220 IEM_DS3505
ZJSY,2006-10-24 05:00,ZJSY 240500Z AUTO 10010KT 7SM 32/22 A2997 RMK T03200220 IEM_DS3505
ZJSY,2006-10-24 06:00,ZJSY 240600Z AUTO 09012KT 7SM 32/21 A2994 RMK T03200210 IEM_DS3505
ZJSY,2006-10-24 07:00,ZJSY 240700Z AUTO 09010KT 7SM 32/20 A2994 RMK T03200200 IEM_DS3505
ZJSY,2006-10-24 08:00,ZJSY 240800Z AUTO 09008KT 7SM 31/21 A2994 RMK T03100210 IEM_DS3505
ZJSY,2006-10-24 09:00,ZJSY 240900Z AUTO 11008KT 7SM 30/21 A2994 RMK T03000210 IEM_DS3505
ZJSY,2006-10-24 10:00,ZJSY 241000Z AUTO 10008KT 6SM 29/21 A2994 RMK T02900210 IEM_DS3505
ZJSY,2006-10-24 11:00,ZJSY 241100Z AUTO 08010KT 6SM 27/22 A2997 RMK T02700220 IEM_DS3505
ZJSY,2006-10-24 12:00,ZJSY 241200Z AUTO 06008KT 6SM 27/22 A2997 RMK T02700220 IEM_DS3505
ZJSY,2006-10-24 13:00,ZJSY 241300Z AUTO 05006KT 6SM 27/21 A3000 RMK T02700210 IEM_DS3505
ZJSY,2006-10-24 14:00,ZJSY 241400Z AUTO 05006KT 6SM 27/21 A3000 RMK T02700210 IEM_DS3505
ZJSY,2006-10-24 15:00,ZJSY 241500Z AUTO 06008KT 6SM 27/21 A3000 RMK T02700210 IEM_DS3505
ZJSY,2006-10-24 16:00,ZJSY 241600Z AUTO 09004KT 7SM 25/22 A3000 RMK T02500220 IEM_DS3505
ZJSY,2006-10-24 17:00,ZJSY 241700Z AUTO 06012KT 7SM 25/22 A3000 RMK T02500220 IEM_DS3505
ZJSY,2006-10-24 18:00,ZJSY 241800Z AUTO 06006KT 7SM 24/22 A3000 RMK T02400220 IEM_DS3505
ZJSY,2006-10-24 19:00,ZJSY 241900Z AUTO 00000KT 7SM 24/22 A2997 RMK T02400220 IEM_DS3505
ZJSY,2006-10-24 20:00,ZJSY 242000Z AUTO 32002KT 7SM 23/22 A2997 RMK T02300220 IEM_DS3505
ZJSY,2006-10-24 21:00,ZJSY 242100Z AUTO 05006KT 7SM 24/22 A2997 RMK T02400220 IEM_DS3505
ZJSY,2006-10-24 22:00,ZJSY 242200Z AUTO 07006KT 6SM 24/21 A2997 RMK T02400210 IEM_DS3505
ZJSY,2006-10-24 23:00,ZJSY 242300Z AUTO 05008KT 6SM 25/21 A3000 RMK T02500210 IEM_DS3505
ZJSY,2006-10-25 00:00,ZJSY 250000Z AUTO 00000KT 6SM 26/22 A3000 RMK T02600220 IEM_DS3505
ZJSY,2006-10-25 01:00,ZJSY 250100Z AUTO 05008KT 6SM 28/21 A3003 RMK T02800210 IEM_DS3505
ZJSY,2006-10-25 02:00,ZJSY 250200Z AUTO 06010KT 6SM 30/22 A3003 RMK T03000220 IEM_DS3505
ZJSY,2006-10-25 03:00,ZJSY 250300Z AUTO 05014KT 7SM 31/21 A3000 RMK T03100210 IEM_DS3505
ZJSY,2006-10-25 04:00,ZJSY 250400Z AUTO 08014KT 7SM 32/20 A3000 RMK T03200200 IEM_DS3505
ZJSY,2006-10-25 05:00,ZJSY 250500Z AUTO 06012KT 7SM 31/21 A2997 RMK T03100210 IEM_DS3505
ZJSY,2006-10-25 06:00,ZJSY 250600Z AUTO 07014KT 7SM 32/21 A2994 RMK T03200210 IEM_DS3505
ZJSY,2006-10-25 07:00,ZJSY 250700Z AUTO 07012KT 7SM 33/21 A2991 RMK T03300210 IEM_DS3505
ZJSY,2006-10-25 08:00,ZJSY 250800Z AUTO 08012KT 7SM 31/21 A2991 RMK T03100210 IEM_DS3505
ZJSY,2006-10-25 09:00,ZJSY 250900Z AUTO 09008KT 7SM 30/22 A2994 RMK T03000220 IEM_DS3505
ZJSY,2006-10-25 10:00,ZJSY 251000Z AUTO 09008KT 7SM 29/22 A2994 RMK T02900220 IEM_DS3505
ZJSY,2006-10-25 11:00,ZJSY 251100Z AUTO 07008KT 7SM 28/22 A2994 RMK T02800220 IEM_DS3505
ZJSY,2006-10-25 12:00,ZJSY 251200Z AUTO 07006KT 7SM 27/22 A2997 RMK T02700220 IEM_DS3505
ZJSY,2006-10-25 13:00,ZJSY 251300Z AUTO 07006KT 7SM 27/22 A3000 RMK T02700220 IEM_DS3505
ZJSY,2006-10-25 14:00,ZJSY 251400Z AUTO 05006KT 7SM 25/23 A3000 RMK T02500230 IEM_DS3505
ZJSY,2006-10-25 15:00,ZJSY 251500Z AUTO 12004KT 7SM 25/23 A3000 RMK T02500230 IEM_DS3505
ZJSY,2006-10-25 16:00,ZJSY 251600Z AUTO 7SM 25/23 A3000 RMK T02500230 IEM_DS3505
ZJSY,2006-10-25 17:00,ZJSY 251700Z AUTO 00000KT 7SM 24/22 A2997 RMK T02400220 IEM_DS3505
ZJSY,2006-10-25 18:00,ZJSY 251800Z AUTO 24/22 A2997 RMK T02400220 IEM_DS3505
ZJSY,2006-10-25 19:00,ZJSY 251900Z AUTO 33004KT 23/21 A2994 RMK T02300210 IEM_DS3505
ZJSY,2006-10-25 20:00,ZJSY 252000Z AUTO 34004KT 23/21 A2994 RMK T02300210 IEM_DS3505
ZJSY,2006-10-25 21:00,ZJSY 252100Z AUTO 35002KT 6SM 23/21 A2994 RMK T02300210 IEM_DS3505
ZJSY,2006-10-25 22:00,ZJSY 252200Z AUTO 04004KT 6SM 24/21 A2994 RMK T02400210 IEM_DS3505
ZJSY,2006-10-25 23:00,ZJSY 252300Z AUTO 6SM 23/20 A2997 RMK T02300200 IEM_DS3505
ZJSY,2006-10-26 00:00,ZJSY 260000Z AUTO 6SM 26/21 A3000 RMK T02600210 IEM_DS3505
ZJSY,2006-10-26 01:00,ZJSY 260100Z AUTO 07006KT 6SM 28/20 A3000 RMK T02800200 IEM_DS3505
ZJSY,2006-10-26 02:00,ZJSY 260200Z AUTO 06006KT 4SM 30/20 A3003 RMK T03000200 IEM_DS3505
ZJSY,2006-10-26 03:00,ZJSY 260300Z AUTO 03008KT 4SM 30/21 A3003 RMK T03000210 IEM_DS3505
ZJSY,2006-10-26 04:00,ZJSY 260400Z AUTO 07010KT 4SM 31/21 A3000 RMK T03100210 IEM_DS3505
ZJSY,2006-10-26 05:00,ZJSY 260500Z AUTO 06008KT 4SM 31/20 A2997 RMK T03100200 IEM_DS3505
ZJSY,2006-10-26 06:00,ZJSY 260600Z AUTO 06008KT 4SM 32/21 A2997 RMK T03200210 IEM_DS3505
ZJSY,2006-10-26 07:00,ZJSY 260700Z AUTO 09010KT 4SM 31/22 A2994 RMK T03100220 IEM_DS3505
ZJSY,2006-10-26 08:00,ZJSY 260800Z AUTO 08010KT 4SM 31/22 A2994 RMK T03100220 IEM_DS3505
ZJSY,2006-10-26 09:00,ZJSY 260900Z AUTO 09010KT 4SM 29/22 A2994 RMK T02900220 IEM_DS3505
ZJSY,2006-10-26 11:00,ZJSY 261100Z AUTO 08006KT 3SM 27/21 A2997 RMK T02700210 IEM_DS3505
ZJSY,2006-10-26 12:00,ZJSY 261200Z AUTO 08008KT 3SM 26/21 A3000 RMK T02600210 IEM_DS3505
ZJSY,2006-10-26 13:00,ZJSY 261300Z AUTO 06008KT 3SM 26/20 A3000 RMK T02600200 IEM_DS3505
ZJSY,2006-10-26 14:00,ZJSY 261400Z AUTO 08008KT 3SM 26/20 A3000 RMK T02600200 IEM_DS3505
ZJSY,2006-10-26 16:00,ZJSY 261600Z AUTO 08006KT 3SM 25/20 A3000 RMK T02500200 IEM_DS3505
ZJSY,2006-10-26 18:00,ZJSY 261800Z AUTO 00000KT 3SM 24/19 A2997 RMK T02400190 IEM_DS3505
ZJSY,2006-10-26 19:00,ZJSY 261900Z AUTO 25/19 A2997 RMK T02500190 IEM_DS3505
ZJSY,2006-10-26 20:00,ZJSY 262000Z AUTO 00000KT 23/19 A2994 RMK T02300190 IEM_DS3505
ZJSY,2006-10-26 21:00,ZJSY 262100Z AUTO 00000KT 3SM 23/19 A2997 RMK T02300190 IEM_DS3505
ZJSY,2006-10-26 22:00,ZJSY 262200Z AUTO 00000KT 3SM 23/19 A2997 RMK T02300190 IEM_DS3505
ZJSY,2006-10-26 23:00,ZJSY 262300Z AUTO 35002KT 6SM 22/19 A3000 RMK T02200190 IEM_DS3505
ZJSY,2006-10-27 00:00,ZJSY 270000Z AUTO 6SM 26/19 A3003 RMK T02600190 IEM_DS3505
ZJSY,2006-10-27 01:00,ZJSY 270100Z AUTO 06006KT 6SM 28/19 A3003 RMK T02800190 IEM_DS3505
ZJSY,2006-10-27 02:00,ZJSY 270200Z AUTO 06012KT 5SM 29/20 A3003 RMK T02900200 IEM_DS3505
ZJSY,2006-10-27 03:00,ZJSY 270300Z AUTO 04014KT 4SM 31/20 A3000 RMK T03100200 IEM_DS3505
ZJSY,2006-10-27 04:00,ZJSY 270400Z AUTO 06012KT 4SM 31/19 A3000 RMK T03100190 IEM_DS3505
ZJSY,2006-10-27 06:00,ZJSY 270600Z AUTO 06010KT 4SM 32/20 A2994 RMK T03200200 IEM_DS3505
ZJSY,2006-10-27 07:00,ZJSY 270700Z AUTO 08010KT 5SM 32/21 A2991 RMK T03200210 IEM_DS3505
ZJSY,2006-10-27 08:00,ZJSY 270800Z AUTO 08014KT 5SM 30/21 A2991 RMK T03000210 IEM_DS3505
ZJSY,2006-10-27 09:00,ZJSY 270900Z AUTO 08012KT 5SM 28/22 A2991 RMK T02800220 IEM_DS3505
ZJSY,2006-10-27 10:00,ZJSY 271000Z AUTO 08010KT 5SM 27/22 A2994 RMK T02700220 IEM_DS3505
ZJSY,2006-10-27 11:00,ZJSY 271100Z AUTO 07010KT 5SM 27/21 A2997 RMK T02700210 IEM_DS3505
ZJSY,2006-10-27 12:00,ZJSY 271200Z AUTO 06008KT 5SM 26/20 A2997 RMK T02600200 IEM_DS3505
ZJSY,2006-10-27 13:00,ZJSY 271300Z AUTO 06010KT 5SM 26/20 A3000 RMK T02600200 IEM_DS3505
ZJSY,2006-10-27 14:00,ZJSY 271400Z AUTO 08006KT 5SM 25/20 A3000 RMK T02500200 IEM_DS3505
ZJSY,2006-10-27 15:00,ZJSY 271500Z AUTO 07004KT 5SM 25/20 A3000 RMK T02500200 IEM_DS3505
ZJSY,2006-10-27 16:00,ZJSY 271600Z AUTO 5SM 24/20 A3000 RMK T02400200 IEM_DS3505
ZJSY,2006-10-27 17:00,ZJSY 271700Z AUTO 08004KT 5SM 23/20 A3000 RMK T02300200 IEM_DS3505
ZJSY,2006-10-27 18:00,ZJSY 271800Z AUTO 33004KT 22/20 A2997 RMK T02200200 IEM_DS3505
ZJSY,2006-10-27 19:00,ZJSY 271900Z AUTO 00000KT 22/19 A2994 RMK T02200190 IEM_DS3505
ZJSY,2006-10-27 20:00,ZJSY 272000Z AUTO 21/19 A2994 RMK T02100190 IEM_DS3505
ZJSY,2006-10-27 21:00,ZJSY 272100Z AUTO 34004KT 5SM 20/19 A2994 RMK T02000190 IEM_DS3505
ZJSY,2006-10-27 22:00,ZJSY 272200Z AUTO 32004KT 5SM 20/18 A2994 RMK T02000180 IEM_DS3505
ZJSY,2006-10-27 23:00,ZJSY 272300Z AUTO 33004KT 4SM 20/18 A2997 RMK T02000180 IEM_DS3505
ZJSY,2006-10-28 00:00,ZJSY 280000Z AUTO 00000KT 4SM 23/20 A2997 RMK T02300200 IEM_DS3505
ZJSY,2006-10-28 01:00,ZJSY 280100Z AUTO 4SM 27/19 A3000 RMK T02700190 IEM_DS3505
ZJSY,2006-10-28 02:00,ZJSY 280200Z AUTO 18004KT 4SM 28/19 A3000 RMK T02800190 IEM_DS3505
ZJSY,2006-10-28 03:00,ZJSY 280300Z AUTO 20004KT 4SM 30/20 A2997 RMK T03000200 IEM_DS3505
ZJSY,2006-10-28 04:00,ZJSY 280400Z AUTO 08008KT 5SM 32/19 A2994 RMK T03200190 IEM_DS3505
ZJSY,2006-10-28 05:00,ZJSY 280500Z AUTO 23006KT 5SM 31/21 A2991 RMK T03100210 IEM_DS3505
ZJSY,2006-10-28 06:00,ZJSY 280600Z AUTO 24010KT 7SM 30/21 A2991 RMK T03000210 IEM_DS3505
ZJSY,2006-10-28 07:00,ZJSY 280700Z AUTO 24012KT 7SM 30/21 A2988 RMK T03000210 IEM_DS3505
ZJSY,2006-10-28 08:00,ZJSY 280800Z AUTO 25010KT 7SM 29/21 A2988 RMK T02900210 IEM_DS3505
ZJSY,2006-10-28 09:00,ZJSY 280900Z AUTO 27008KT 7SM 28/20 A2988 RMK T02800200 IEM_DS3505
ZJSY,2006-10-28 10:00,ZJSY 281000Z AUTO 4SM 27/20 A2991 RMK T02700200 IEM_DS3505
ZJSY,2006-10-28 11:00,ZJSY 281100Z AUTO 4SM 27/21 A2991 RMK T02700210 IEM_DS3505
ZJSY,2006-10-28 12:00,ZJSY 281200Z AUTO 4SM 24/21 A2994 RMK T02400210 IEM_DS3505
ZJSY,2006-10-28 13:00,ZJSY 281300Z AUTO 4SM 24/22 A2994 RMK T02400220 IEM_DS3505
ZJSY,2006-10-28 14:00,ZJSY 281400Z AUTO 33002KT 4SM 24/22 A2997 RMK T02400220 IEM_DS3505
ZJSY,2006-10-28 15:00,ZJSY 281500Z AUTO 34004KT 4SM 24/22 A2997 RMK T02400220 IEM_DS3505
ZJSY,2006-10-28 16:00,ZJSY 281600Z AUTO 4SM 23/22 A2997 RMK T02300220 IEM_DS3505
ZJSY,2006-10-28 17:00,ZJSY 281700Z AUTO 34004KT 4SM 23/21 A2994 RMK T02300210 IEM_DS3505
ZJSY,2006-10-28 18:00,ZJSY 281800Z AUTO 22/20 A2994 RMK T02200200 IEM_DS3505
ZJSY,2006-10-28 19:00,ZJSY 281900Z AUTO 00000KT 22/20 A2991 RMK T02200200 IEM_DS3505
ZJSY,2006-10-28 20:00,ZJSY 282000Z AUTO 30004KT 21/19 A2991 RMK T02100190 IEM_DS3505
ZJSY,2006-10-28 21:00,ZJSY 282100Z AUTO 00000KT 4SM 21/19 A2991 RMK T02100190 IEM_DS3505
ZJSY,2006-10-28 23:00,ZJSY 282300Z AUTO 32004KT 4SM 20/18 A2994 RMK T02000180 IEM_DS3505
ZJSY,2006-10-29 00:00,ZJSY 290000Z AUTO 00000KT 3SM 23/20 A2994 RMK T02300200 IEM_DS3505
ZJSY,2006-10-29 01:00,ZJSY 290100Z AUTO 3SM 26/20 A2997 RMK T02600200 IEM_DS3505
ZJSY,2006-10-29 02:00,ZJSY 290200Z AUTO 07008KT 3SM 28/19 A2997 RMK T02800190 IEM_DS3505
ZJSY,2006-10-29 03:00,ZJSY 290300Z AUTO 06012KT 3SM 29/19 A2997 RMK T02900190 IEM_DS3505
ZJSY,2006-10-29 04:00,ZJSY 290400Z AUTO 06012KT 3SM 30/19 A2994 RMK T03000190 IEM_DS3505
ZJSY,2006-10-29 05:00,ZJSY 290500Z AUTO 06012KT 3SM 31/19 A2991 RMK T03100190 IEM_DS3505
ZJSY,2006-10-29 06:00,ZJSY 290600Z AUTO 09006KT 3SM 31/19 A2985 RMK T03100190 IEM_DS3505
ZJSY,2006-10-29 07:00,ZJSY 290700Z AUTO 04004KT 3SM 31/19 A2985 RMK T03100190 IEM_DS3505
ZJSY,2006-10-29 08:00,ZJSY 290800Z AUTO 09006KT 3SM 31/18 A2985 RMK T03100180 IEM_DS3505
ZJSY,2006-10-29 09:00,ZJSY 290900Z AUTO 27010KT 3SM 28/21 A2985 RMK T02800210 IEM_DS3505
ZJSY,2006-10-29 10:00,ZJSY 291000Z AUTO 27006KT 3SM 27/21 A2988 RMK T02700210 IEM_DS3505
ZJSY,2006-10-29 11:00,ZJSY 291100Z AUTO 4SM 27/21 A2988 RMK T02700210 IEM_DS3505
ZJSY,2006-10-29 12:00,ZJSY 291200Z AUTO 4SM 27/21 A2991 RMK T02700210 IEM_DS3505
ZJSY,2006-10-29 13:00,ZJSY 291300Z AUTO 08004KT 4SM 25/22 A2994 RMK T02500220 IEM_DS3505
ZJSY,2006-10-29 14:00,ZJSY 291400Z AUTO 07006KT 4SM 25/21 A2994 RMK T02500210 IEM_DS3505
ZJSY,2006-10-29 15:00,ZJSY 291500Z AUTO 01004KT 4SM 24/21 A2994 RMK T02400210 IEM_DS3505
ZJSY,2006-10-29 16:00,ZJSY 291600Z AUTO 34004KT 4SM 23/21 A2991 RMK T02300210 IEM_DS3505
ZJSY,2006-10-29 17:00,ZJSY 291700Z AUTO 4SM 23/21 A2991 RMK T02300210 IEM_DS3505
ZJSY,2006-10-29 18:00,ZJSY 291800Z AUTO 00000KT 4SM 23/20 A2988 RMK T02300200 IEM_DS3505
ZJSY,2006-10-29 19:00,ZJSY 291900Z AUTO 4SM 23/20 A2988 RMK T02300200 IEM_DS3505
ZJSY,2006-10-29 20:00,ZJSY 292000Z AUTO 34004KT 4SM 22/20 A2988 RMK T02200200 IEM_DS3505
ZJSY,2006-10-29 21:00,ZJSY 292100Z AUTO 00000KT 4SM 22/19 A2988 RMK T02200190 IEM_DS3505
ZJSY,2006-10-29 22:00,ZJSY 292200Z AUTO 4SM 22/18 A2988 RMK T02200180 IEM_DS3505
ZJSY,2006-10-29 23:00,ZJSY 292300Z AUTO 02008KT 4SM 24/18 A2991 RMK T02400180 IEM_DS3505
ZJSY,2006-10-30 00:00,ZJSY 300000Z AUTO 02006G16KT 4SM 26/18 A2994 RMK T02600180 IEM_DS3505
ZJSY,2006-10-30 01:00,ZJSY 300100Z AUTO 05012KT 4SM 28/18 A2994 RMK T02800180 IEM_DS3505
ZJSY,2006-10-30 02:00,ZJSY 300200Z AUTO 05010KT 6SM 30/18 A2997 RMK T03000180 IEM_DS3505
ZJSY,2006-10-30 03:00,ZJSY 300300Z AUTO 05010KT 5SM 30/18 A2994 RMK T03000180 IEM_DS3505
ZJSY,2006-10-30 04:00,ZJSY 300400Z AUTO 05004KT 5SM 31/19 A2994 RMK T03100190 IEM_DS3505
ZJSY,2006-10-30 05:00,ZJSY 300500Z 06004MPS 020V100 8000 SCT018 31/18 Q1013 NOSIG
ZJSY,2006-10-30 06:00,ZJSY 300600Z 07003MPS 020V120 8000 SCT018 32/18 Q1012 NOSIG
ZJSY,2006-10-30 07:00,ZJSY 300700Z AUTO 09010KT 5SM 31/20 A2985 RMK T03100200 IEM_DS3505
ZJSY,2006-10-30 08:00,ZJSY 300800Z 09004MPS 060V120 6000 FEW018 30/21 Q1011 NOSIG
ZJSY,2006-10-30 09:00,ZJSY 300900Z AUTO 09006KT 4SM 29/21 A2985 RMK T02900210 IEM_DS3505
ZJSY,2006-10-30 10:00,ZJSY 301000Z AUTO 25004KT 4SM 28/21 A2988 RMK T02800210 IEM_DS3505
ZJSY,2006-10-30 11:00,ZJSY 301100Z AUTO 3SM 27/21 A2988 RMK T02700210 IEM_DS3505
ZJSY,2006-10-30 12:00,ZJSY 301200Z AUTO 3SM 27/21 A2991 RMK T02700210 IEM_DS3505
ZJSY,2006-10-30 13:00,ZJSY 301300Z AUTO 35002KT 4SM 25/21 A2994 RMK T02500210 IEM_DS3505
ZJSY,2006-10-30 14:00,ZJSY 301400Z AUTO 4SM 25/21 A2994 RMK T02500210 IEM_DS3505
ZJSY,2006-10-30 15:00,ZJSY 301500Z AUTO 36004KT 4SM 25/21 A2994 RMK T02500210 IEM_DS3505
ZJSY,2006-10-30 16:00,ZJSY 301600Z AUTO 34004KT 4SM 24/21 A2994 RMK T02400210 IEM_DS3505
ZJSY,2006-10-30 17:00,ZJSY 301700Z AUTO 32004KT 4SM 23/20 A2991 RMK T02300200 IEM_DS3505
ZJSY,2006-10-30 19:00,ZJSY 301900Z AUTO 35002KT 4SM 22/19 A2991 RMK T02200190 IEM_DS3505
ZJSY,2006-10-30 20:00,ZJSY 302000Z AUTO 22/19 A2991 RMK T02200190 IEM_DS3505
ZJSY,2006-10-30 21:00,ZJSY 302100Z AUTO 4SM 21/19 A2991 RMK T02100190 IEM_DS3505
ZJSY,2006-10-30 22:00,ZJSY 302200Z AUTO 34004KT 4SM 21/19 A2991 RMK T02100190 IEM_DS3505
ZJSY,2006-10-30 23:00,ZJSY 302300Z AUTO 34006KT 4SM 21/18 A2991 RMK T02100180 IEM_DS3505
ZJSY,2006-10-31 00:00,ZJSY 310000Z AUTO 31004KT 3SM 22/19 A2994 RMK T02200190 IEM_DS3505
ZJSY,2006-10-31 01:00,ZJSY 310100Z AUTO 00000KT 3SM 27/20 A2994 RMK T02700200 IEM_DS3505
ZJSY,2006-10-31 03:00,ZJSY 310300Z AUTO 17004KT 3SM 28/19 A2994 RMK T02800190 IEM_DS3505
ZJSY,2006-10-31 04:00,ZJSY 310400Z AUTO 20004KT 3SM 29/18 A2991 RMK T02900180 IEM_DS3505
ZJSY,2006-10-31 05:00,ZJSY 310500Z AUTO 23008KT 3SM 29/19 A2988 RMK T02900190 IEM_DS3505
ZJSY,2006-10-31 06:00,ZJSY 310600Z AUTO 21008KT 3SM 29/21 A2985 RMK T02900210 IEM_DS3505
ZJSY,2006-10-31 07:00,ZJSY 310700Z 23003MPS 200V260 5000 HZ FEW016 29/20 Q1010 NOSIG
ZJSY,2006-10-31 08:00,ZJSY 310800Z 22003MPS 200V260 5000 HZ NSC 29/20 Q1010 NOSIG
ZJSY,2006-10-31 09:00,ZJSY 310900Z AUTO 25004KT 3SM 28/20 A2983 RMK T02800200 IEM_DS3505
ZJSY,2006-10-31 10:00,ZJSY 311000Z AUTO 21002KT 3SM 27/21 A2983 RMK T02700210 IEM_DS3505
ZJSY,2006-10-31 11:00,ZJSY 311100Z 02002MPS 5000 HZ NSC 25/21 Q1011 NOSIG
ZJSY,2006-10-31 12:00,ZJSY 311200Z 34002MPS 330V040 6000 NSC 24/21 Q1013 NOSIG
ZJSY,2006-10-31 13:00,ZJSY 311300Z AUTO 34006KT 4SM 24/21 A2991 RMK T02400210 IEM_DS3505
ZJSY,2006-10-31 14:00,ZJSY 311400Z AUTO 34006KT 4SM 23/21 A2991 RMK T02300210 IEM_DS3505
ZJSY,2006-10-31 15:00,ZJSY 311500Z AUTO 34004KT 4SM 23/20 A2991 RMK T02300200 IEM_DS3505
ZJSY,2006-10-31 16:00,ZJSY 311600Z AUTO 33008KT 4SM 22/19 A2991 RMK T02200190 IEM_DS3505
ZJSY,2006-10-31 17:00,ZJSY 311700Z AUTO 33006KT 4SM 21/18 A2991 RMK T02100180 IEM_DS3505
ZJSY,2006-10-31 18:00,ZJSY 311800Z AUTO 32006KT 4SM 21/18 A2988 RMK T02100180 IEM_DS3505
ZJSY,2006-10-31 19:00,ZJSY 311900Z AUTO 33006KT 4SM 22/17 A2985 RMK T02200170 IEM_DS3505
ZJSY,2006-10-31 20:00,ZJSY 312000Z AUTO 00000KT 4SM 21/15 A2988 RMK T02100150 IEM_DS3505
ZJSY,2006-10-31 21:00,ZJSY 312100Z AUTO 00000KT 4SM 21/15 A2988 RMK T02100150 IEM_DS3505
ZJSY,2006-10-31 22:00,ZJSY 312200Z AUTO 00000KT 4SM 20/19 A2991 RMK T02000190 IEM_DS3505
ZJSY,2006-10-31 23:00,ZJSY 312300Z AUTO 00000KT 3SM 20/17 A2991 RMK T02000170 IEM_DS3505
ZJSY,2006-11-01 00:00,ZJSY 010000Z AUTO 3SM 23/18 A2994 RMK T02300180 IEM_DS3505
ZJSY,2006-11-01 01:00,ZJSY 010100Z AUTO 34004KT 3SM 27/17 A2994 RMK T02700170 IEM_DS3505
ZJSY,2006-11-01 02:00,ZJSY 010200Z AUTO 28004KT 3SM 29/17 A2994 RMK T02900170 IEM_DS3505
ZJSY,2006-11-01 03:00,ZJSY 010300Z AUTO 29004KT 3SM 28/17 A2991 RMK T02800170 IEM_DS3505
ZJSY,2006-11-01 04:00,ZJSY 010400Z AUTO 3SM 28/17 A2988 RMK T02800170 IEM_DS3505
ZJSY,2006-11-01 05:00,ZJSY 010500Z AUTO 3SM 29/17 A2988 RMK T02900170 IEM_DS3505
ZJSY,2006-11-01 06:00,ZJSY 010600Z AUTO 16004KT 3SM 28/18 A2985 RMK T02800180 IEM_DS3505
ZJSY,2006-11-01 07:00,ZJSY 010700Z AUTO 13004KT 3SM 28/17 A2983 RMK T02800170 IEM_DS3505
ZJSY,2006-11-01 08:00,ZJSY 010800Z 13002MPS 100V190 4500 HZ NSC 28/17 Q1010 NOSIG
ZJSY,2006-11-01 09:00,ZJSY 010900Z AUTO 3SM 28/18 A2985 RMK T02800180 IEM_DS3505
ZJSY,2006-11-01 10:00,ZJSY 011000Z AUTO 00000KT 2 1/2SM 27/19 A2985 RMK T02700190 IEM_DS3505
ZJSY,2006-11-01 11:00,ZJSY 011100Z 34002MPS 4000 HZ NSC 24/19 Q1012 NOSIG
ZJSY,2006-11-01 12:00,ZJSY 011200Z VRB01MPS 4000 HZ NSC 23/18 Q1012 NOSIG
ZJSY,2006-11-01 13:00,ZJSY 011300Z AUTO 35002KT 2 1/2SM 23/18 A2991 RMK T02300180 IEM_DS3505
ZJSY,2006-11-01 14:00,ZJSY 011400Z AUTO 2 1/2SM 24/16 A2991 RMK T02400160 IEM_DS3505
ZJSY,2006-11-01 15:00,ZJSY 011500Z AUTO 00000KT 2 1/2SM 23/15 A2991 RMK T02300150 IEM_DS3505
ZJSY,2006-11-01 16:00,ZJSY 011600Z AUTO 35006KT 2 1/2SM 22/15 A2991 RMK T02200150 IEM_DS3505
ZJSY,2006-11-01 17:00,ZJSY 011700Z AUTO 34006KT 2 1/2SM 21/14 A2991 RMK T02100140 IEM_DS3505
ZJSY,2006-11-01 18:00,ZJSY 011800Z AUTO 33004KT 2 1/2SM 22/14 A2988 RMK T02200140 IEM_DS3505
ZJSY,2006-11-01 19:00,ZJSY 011900Z AUTO 00000KT 2 1/2SM 21/15 A2985 RMK T02100150 IEM_DS3505
ZJSY,2006-11-01 20:00,ZJSY 012000Z AUTO 19/15 A2985 RMK T01900150 IEM_DS3505
ZJSY,2006-11-01 21:00,ZJSY 012100Z AUTO 2 1/2SM 19/15 A2988 RMK T01900150 IEM_DS3505
ZJSY,2006-11-01 22:00,ZJSY 012200Z AUTO 35002KT 2 1/2SM 18/15 A2988 RMK T01800150 IEM_DS3505
ZJSY,2006-11-01 23:00,ZJSY 012300Z AUTO 33002KT 2 1/2SM 17/14 A2991 RMK T01700140 IEM_DS3505
ZJSY,2006-11-02 00:00,ZJSY 020000Z AUTO 00000KT 3SM 20/16 A2991 RMK T02000160 IEM_DS3505
ZJSY,2006-11-02 01:00,ZJSY 020100Z AUTO 00000KT 3SM 24/16 A2994 RMK T02400160 IEM_DS3505
ZJSY,2006-11-02 02:00,ZJSY 020200Z AUTO 3SM 27/13 A2997 RMK T02700130 IEM_DS3505
ZJSY,2006-11-02 03:00,ZJSY 020300Z AUTO 12004KT 3SM 28/12 A2997 RMK T02800120 IEM_DS3505
ZJSY,2006-11-02 04:00,ZJSY 020400Z AUTO 19004KT 4SM 28/13 A2994 RMK T02800130 IEM_DS3505
ZJSY,2006-11-02 05:00,ZJSY 020500Z AUTO 18006KT 4SM 28/13 A2991 RMK T02800130 IEM_DS3505
ZJSY,2006-11-02 06:00,ZJSY 020600Z AUTO 18006KT 4SM 28/15 A2988 RMK T02800150 IEM_DS3505
ZJSY,2006-11-02 07:00,ZJSY 020700Z AUTO 19006KT 4SM 28/14 A2985 RMK T02800140 IEM_DS3505
ZJSY,2006-11-02 08:00,ZJSY 020800Z AUTO 21006KT 4SM 28/14 A2985 RMK T02800140 IEM_DS3505
ZJSY,2006-11-02 09:00,ZJSY 020900Z AUTO 20004KT 4SM 27/15 A2988 RMK T02700150 IEM_DS3505
ZJSY,2006-11-02 10:00,ZJSY 021000Z AUTO 00000KT 4SM 26/14 A2988 RMK T02600140 IEM_DS3505
ZJSY,2006-11-02 11:00,ZJSY 021100Z 35001MPS 6000 NSC 23/16 Q1012 NOSIG
ZJSY,2006-11-02 12:00,ZJSY 021200Z 34003MPS 320V020 5000 HZ NSC 22/16 Q1013 NOSIG
ZJSY,2006-11-02 13:00,ZJSY 021300Z AUTO 34004KT 3SM 21/16 A2994 RMK T02100160 IEM_DS3505
ZJSY,2006-11-02 14:00,ZJSY 021400Z AUTO 34006KT 3SM 21/16 A2994 RMK T02100160 IEM_DS3505
ZJSY,2006-11-02 15:00,ZJSY 021500Z AUTO 34006KT 3SM 20/16 A2994 RMK T02000160 IEM_DS3505
ZJSY,2006-11-02 16:00,ZJSY 021600Z AUTO 35004KT 3SM 20/17 A2994 RMK T02000170 IEM_DS3505
ZJSY,2006-11-02 17:00,ZJSY 021700Z AUTO 00000KT 3SM 21/16 A2994 RMK T02100160 IEM_DS3505
ZJSY,2006-11-02 18:00,ZJSY 021800Z AUTO 02004KT 3SM 21/15 A2994 RMK T02100150 IEM_DS3505
ZJSY,2006-11-02 19:00,ZJSY 021900Z AUTO 36002KT 3SM 19/16 A2991 RMK T01900160 IEM_DS3505
ZJSY,2006-11-02 20:00,ZJSY 022000Z AUTO 34004KT 18/15 A2991 RMK T01800150 IEM_DS3505
ZJSY,2006-11-02 21:00,ZJSY 022100Z AUTO 3SM 17/15 A2991 RMK T01700150 IEM_DS3505
ZJSY,2006-11-02 22:00,ZJSY 022200Z AUTO 00000KT 3SM 17/14 A2991 RMK T01700140 IEM_DS3505
ZJSY,2006-11-02 23:00,ZJSY 022300Z AUTO 32004KT 3SM 17/14 A2994 RMK T01700140 IEM_DS3505
ZJSY,2006-11-03 00:00,ZJSY 030000Z AUTO 33004KT 3SM 19/15 A2997 RMK T01900150 IEM_DS3505
ZJSY,2006-11-03 01:00,ZJSY 030100Z AUTO 32004KT 3SM 24/15 A3000 RMK T02400150 IEM_DS3505
ZJSY,2006-11-03 02:00,ZJSY 030200Z AUTO 3SM 27/14 A3000 RMK T02700140 IEM_DS3505
ZJSY,2006-11-03 03:00,ZJSY 030300Z AUTO 18004KT 4SM 27/15 A2997 RMK T02700150 IEM_DS3505
ZJSY,2006-11-03 04:00,ZJSY 030400Z AUTO 20008KT 4SM 28/13 A2994 RMK T02800130 IEM_DS3505
ZJSY,2006-11-03 05:00,ZJSY 030500Z AUTO 20006KT 4SM 28/13 A2991 RMK T02800130 IEM_DS3505
ZJSY,2006-11-03 06:00,ZJSY 030600Z AUTO 22006KT 4SM 29/13 A2991 RMK T02900130 IEM_DS3505
ZJSY,2006-11-03 07:00,ZJSY 030700Z AUTO 20006KT 4SM 28/14 A2988 RMK T02800140 IEM_DS3505
ZJSY,2006-11-03 08:00,ZJSY 030800Z AUTO 24006KT 4SM 28/15 A2985 RMK T02800150 IEM_DS3505
ZJSY,2006-11-03 09:00,ZJSY 030900Z AUTO 23006KT 4SM 27/17 A2988 RMK T02700170 IEM_DS3505
ZJSY,2006-11-03 10:00,ZJSY 031000Z AUTO 00000KT 4SM 26/17 A2988 RMK T02600170 IEM_DS3505
ZJSY,2006-11-03 11:00,ZJSY 031100Z 00000MPS 6000 SKC 24/18 Q1013 NOSIG
ZJSY,2006-11-03 12:00,ZJSY 031200Z VRB01MPS 7000 SKC 23/18 Q1014 NOSIG
ZJSY,2006-11-03 13:00,ZJSY 031300Z AUTO 34006KT 4SM 22/18 A2997 RMK T02200180 IEM_DS3505
ZJSY,2006-11-03 14:00,ZJSY 031400Z AUTO 34004KT 4SM 22/17 A2994 RMK T02200170 IEM_DS3505
ZJSY,2006-11-03 15:00,ZJSY 031500Z AUTO 34006KT 5SM 21/17 A2994 RMK T02100170 IEM_DS3505
ZJSY,2006-11-03 16:00,ZJSY 031600Z AUTO 34006KT 5SM 21/17 A2994 RMK T02100170 IEM_DS3505
ZJSY,2006-11-03 17:00,ZJSY 031700Z AUTO 34006KT 5SM 20/17 A2994 RMK T02000170 IEM_DS3505
ZJSY,2006-11-03 18:00,ZJSY 031800Z AUTO 34006KT 5SM 20/17 A2991 RMK T02000170 IEM_DS3505
ZJSY,2006-11-03 19:00,ZJSY 031900Z AUTO 34006KT 5SM 22/17 A2991 RMK T02200170 IEM_DS3505
ZJSY,2006-11-03 20:00,ZJSY 032000Z AUTO 34004KT 5SM 20/16 A2988 RMK T02000160 IEM_DS3505
ZJSY,2006-11-03 21:00,ZJSY 032100Z AUTO 00000KT 5SM 20/16 A2988 RMK T02000160 IEM_DS3505
ZJSY,2006-11-03 22:00,ZJSY 032200Z AUTO 34004KT 4SM 19/16 A2991 RMK T01900160 IEM_DS3505
ZJSY,2006-11-03 23:00,ZJSY 032300Z AUTO 2 1/2SM 19/16 A2994 RMK T01900160 IEM_DS3505
ZJSY,2006-11-04 00:00,ZJSY 040000Z AUTO 00000KT 3SM 21/17 A2994 RMK T02100170 IEM_DS3505
ZJSY,2006-11-04 01:00,ZJSY 040100Z AUTO 00000KT 3SM 25/16 A2997 RMK T02500160 IEM_DS3505
ZJSY,2006-11-04 02:00,ZJSY 040200Z AUTO 3SM 26/14 A3000 RMK T02600140 IEM_DS3505
ZJSY,2006-11-04 03:00,ZJSY 040300Z AUTO 3SM 26/17 A2997 RMK T02600170 IEM_DS3505
ZJSY,2006-11-04 04:00,ZJSY 040400Z AUTO 19004KT 4SM 27/17 A2994 RMK T02700170 IEM_DS3505
ZJSY,2006-11-04 05:00,ZJSY 040500Z AUTO 20006KT 4SM 28/18 A2994 RMK T02800180 IEM_DS3505
ZJSY,2006-11-04 06:00,ZJSY 040600Z AUTO 21008KT 4SM 28/17 A2991 RMK T02800170 IEM_DS3505
ZJSY,2006-11-04 07:00,ZJSY 040700Z AUTO 21006KT 4SM 28/18 A2988 RMK T02800180 IEM_DS3505
ZJSY,2006-11-04 08:00,ZJSY 040800Z AUTO 24008KT 4SM 28/18 A2988 RMK T02800180 IEM_DS3505
ZJSY,2006-11-04 09:00,ZJSY 040900Z AUTO 24008KT 4SM 27/19 A2988 RMK T02700190 IEM_DS3505
ZJSY,2006-11-04 10:00,ZJSY 041000Z AUTO 25004KT 4SM 26/20 A2991 RMK T02600200 IEM_DS3505
ZJSY,2006-11-04 11:00,ZJSY 041100Z 35001MPS 5000 HZ NSC 25/20 Q1013 NOSIG
ZJSY,2006-11-04 12:00,ZJSY 041200Z 33003MPS 310V020 5000 HZ NSC 24/20 Q1014 NOSIG
ZJSY,2006-11-04 13:00,ZJSY 041300Z AUTO 3SM 24/19 A2994 RMK T02400190 IEM_DS3505
ZJSY,2006-11-04 14:00,ZJSY 041400Z AUTO 34004KT 3SM 22/19 A2994 RMK T02200190 IEM_DS3505
ZJSY,2006-11-04 15:00,ZJSY 041500Z AUTO 01002KT 3SM 22/19 A2994 RMK T02200190 IEM_DS3505
ZJSY,2006-11-04 16:00,ZJSY 041600Z AUTO 34004KT 3SM 21/19 A2994 RMK T02100190 IEM_DS3505
ZJSY,2006-11-04 17:00,ZJSY 041700Z AUTO 34006KT 3SM 21/19 A2994 RMK T02100190 IEM_DS3505
ZJSY,2006-11-04 18:00,ZJSY 041800Z AUTO 34006KT 3SM 21/18 A2991 RMK T02100180 IEM_DS3505
ZJSY,2006-11-04 19:00,ZJSY 041900Z AUTO 34006KT 3SM 21/18 A2991 RMK T02100180 IEM_DS3505
ZJSY,2006-11-04 20:00,ZJSY 042000Z AUTO 36002KT 21/18 A2991 RMK T02100180 IEM_DS3505
ZJSY,2006-11-04 21:00,ZJSY 042100Z AUTO 35004KT 3SM 20/18 A2991 RMK T02000180 IEM_DS3505
ZJSY,2006-11-04 22:00,ZJSY 042200Z AUTO 36004KT 3SM 21/18 A2991 RMK T02100180 IEM_DS3505
ZJSY,2006-11-04 23:00,ZJSY 042300Z AUTO 33004KT 2 1/2SM 21/18 A2994 RMK T02100180 IEM_DS3505
ZJSY,2006-11-05 00:00,ZJSY 050000Z AUTO 2 1/2SM 22/19 A2994 RMK T02200190 IEM_DS3505
ZJSY,2006-11-05 01:00,ZJSY 050100Z AUTO 31004KT 2 1/2SM 27/20 A2997 RMK T02700200 IEM_DS3505
ZJSY,2006-11-05 02:00,ZJSY 050200Z AUTO 2 1/2SM 28/19 A2997 RMK T02800190 IEM_DS3505
ZJSY,2006-11-05 03:00,ZJSY 050300Z AUTO 21006KT 2 1/2SM 29/19 A2994 RMK T02900190 IEM_DS3505
ZJSY,2006-11-05 04:00,ZJSY 050400Z AUTO 19006KT 2 1/2SM 29/19 A2991 RMK T02900190 IEM_DS3505
ZJSY,2006-11-05 05:00,ZJSY 050500Z AUTO 21006KT 2 1/2SM 29/19 A2988 RMK T02900190 IEM_DS3505
ZJSY,2006-11-05 06:00,ZJSY 050600Z AUTO 21008KT 2 1/2SM 29/20 A2985 RMK T02900200 IEM_DS3505
ZJSY,2006-11-05 07:00,ZJSY 050700Z AUTO 20006KT 2 1/2SM 29/19 A2983 RMK T02900190 IEM_DS3505
ZJSY,2006-11-05 08:00,ZJSY 050800Z AUTO 17006KT 2 1/2SM 28/18 A2985 RMK T02800180 IEM_DS3505
ZJSY,2006-11-05 09:00,ZJSY 050900Z AUTO 19004KT 4SM 27/18 A2985 RMK T02700180 IEM_DS3505
ZJSY,2006-11-05 10:00,ZJSY 051000Z AUTO 20002KT 4SM 27/18 A2985 RMK T02700180 IEM_DS3505
ZJSY,2006-11-05 11:00,ZJSY 051100Z AUTO 33004KT 4SM 25/19 A2985 RMK T02500190 IEM_DS3505
ZJSY,2006-11-05 12:00,ZJSY 051200Z VRB01MPS 6000 NSC 24/19 Q1012 NOSIG
ZJSY,2006-11-05 13:00,ZJSY 051300Z AUTO 00000KT 4SM 23/19 A2991 RMK T02300190 IEM_DS3505
ZJSY,2006-11-05 14:00,ZJSY 051400Z AUTO 35004KT 4SM 23/19 A2991 RMK T02300190 IEM_DS3505
ZJSY,2006-11-05 15:00,ZJSY 051500Z AUTO 4SM 23/19 A2994 RMK T02300190 IEM_DS3505
ZJSY,2006-11-05 16:00,ZJSY 051600Z AUTO 09004KT 4SM 23/19 A2994 RMK T02300190 IEM_DS3505
ZJSY,2006-11-05 17:00,ZJSY 051700Z AUTO 34004KT 4SM 22/19 A2991 RMK T02200190 IEM_DS3505
ZJSY,2006-11-05 18:00,ZJSY 051800Z AUTO 07006KT 4SM 22/19 A2991 RMK T02200190 IEM_DS3505
ZJSY,2006-11-05 19:00,ZJSY 051900Z AUTO 36004KT 4SM 22/19 A2991 RMK T02200190 IEM_DS3505
ZJSY,2006-11-05 21:00,ZJSY 052100Z AUTO 35004KT 3SM 21/18 A2991 RMK T02100180 IEM_DS3505
ZJSY,2006-11-05 22:00,ZJSY 052200Z AUTO 34006KT 3SM 20/18 A2991 RMK T02000180 IEM_DS3505
ZJSY,2006-11-05 23:00,ZJSY 052300Z AUTO 00000KT 3SM 20/18 A2994 RMK T02000180 IEM_DS3505
ZJSY,2006-11-06 00:00,ZJSY 060000Z AUTO 34004KT 3SM 22/19 A2997 RMK T02200190 IEM_DS3505
ZJSY,2006-11-06 01:00,ZJSY 060100Z AUTO 4SM 26/19 A2997 RMK T02600190 IEM_DS3505
ZJSY,2006-11-06 02:00,ZJSY 060200Z AUTO 02004KT 4SM 28/16 A2997 RMK T02800160 IEM_DS3505
ZJSY,2006-11-06 03:00,ZJSY 060300Z AUTO 10004KT 4SM 29/15 A2997 RMK T02900150 IEM_DS3505
ZJSY,2006-11-06 04:00,ZJSY 060400Z AUTO 16006KT 4SM 29/17 A2994 RMK T02900170 IEM_DS3505
ZJSY,2006-11-06 05:00,ZJSY 060500Z AUTO 18006KT 6SM 29/18 A2991 RMK T02900180 IEM_DS3505
ZJSY,2006-11-06 06:00,ZJSY 060600Z AUTO 20008KT 6SM 29/18 A2988 RMK T02900180 IEM_DS3505
ZJSY,2006-11-06 07:00,ZJSY 060700Z AUTO 21008KT 6SM 29/19 A2985 RMK T02900190 IEM_DS3505
ZJSY,2006-11-06 08:00,ZJSY 060800Z AUTO 20006KT 6SM 29/21 A2985 RMK T02900210 IEM_DS3505
ZJSY,2006-11-06 09:00,ZJSY 060900Z AUTO 28010KT 4SM 28/21 A2988 RMK T02800210 IEM_DS3505
ZJSY,2006-11-06 10:00,ZJSY 061000Z AUTO 29008KT 4SM 27/20 A2988 RMK T02700200 IEM_DS3505
ZJSY,2006-11-06 11:00,ZJSY 061100Z 31002MPS 280V010 6000 NSC 26/20 Q1013 NOSIG
ZJSY,2006-11-06 12:00,ZJSY 061200Z VRB01MPS 6000 NSC 25/20 Q1014 NOSIG
ZJSY,2006-11-06 13:00,ZJSY 061300Z AUTO 33004KT 4SM 24/20 A2997 RMK T02400200 IEM_DS3505
ZJSY,2006-11-06 14:00,ZJSY 061400Z AUTO 00000KT 4SM 25/19 A3000 RMK T02500190 IEM_DS3505
ZJSY,2006-11-06 15:00,ZJSY 061500Z AUTO 00000KT 4SM 24/19 A3000 RMK T02400190 IEM_DS3505
ZJSY,2006-11-06 16:00,ZJSY 061600Z AUTO 34002KT 4SM 23/19 A2997 RMK T02300190 IEM_DS3505
ZJSY,2006-11-06 17:00,ZJSY 061700Z AUTO 36004KT 4SM 23/18 A2997 RMK T02300180 IEM_DS3505
ZJSY,2006-11-06 18:00,ZJSY 061800Z AUTO 00000KT 4SM 23/17 A2997 RMK T02300170 IEM_DS3505
ZJSY,2006-11-06 19:00,ZJSY 061900Z AUTO 00000KT 4SM 22/17 A2997 RMK T02200170 IEM_DS3505
ZJSY,2006-11-06 20:00,ZJSY 062000Z AUTO 05004KT 23/17 A2994 RMK T02300170 IEM_DS3505
ZJSY,2006-11-06 21:00,ZJSY 062100Z AUTO 00000KT 4SM 22/17 A2994 RMK T02200170 IEM_DS3505
ZJSY,2006-11-06 22:00,ZJSY 062200Z AUTO 4SM 22/17 A2994 RMK T02200170 IEM_DS3505
ZJSY,2006-11-06 23:00,ZJSY 062300Z AUTO 00000KT 4SM 23/15 A2997 RMK T02300150 IEM_DS3505
ZJSY,2006-11-07 00:00,ZJSY 070000Z AUTO 4SM 25/17 A2997 RMK T02500170 IEM_DS3505
ZJSY,2006-11-07 01:00,ZJSY 070100Z AUTO 04004KT 4SM 28/13 A3000 RMK T02800130 IEM_DS3505
ZJSY,2006-11-07 02:00,ZJSY 070200Z AUTO 06012KT 4SM 29/13 A3000 RMK T02900130 IEM_DS3505
ZJSY,2006-11-07 03:00,ZJSY 070300Z AUTO 06014KT 4SM 30/13 A3003 RMK T03000130 IEM_DS3505
ZJSY,2006-11-07 04:00,ZJSY 070400Z AUTO 04012KT 4SM 30/14 A3000 RMK T03000140 IEM_DS3505
ZJSY,2006-11-07 05:00,ZJSY 070500Z AUTO 05012KT 4SM 31/15 A2997 RMK T03100150 IEM_DS3505
ZJSY,2006-11-07 06:00,ZJSY 070600Z AUTO 06010KT 4SM 31/15 A2994 RMK T03100150 IEM_DS3505
ZJSY,2006-11-07 07:00,ZJSY 070700Z AUTO 05010KT 4SM 30/16 A2994 RMK T03000160 IEM_DS3505
ZJSY,2006-11-07 08:00,ZJSY 070800Z AUTO 06008KT 4SM 29/17 A2994 RMK T02900170 IEM_DS3505
ZJSY,2006-11-07 09:00,ZJSY 070900Z AUTO 09010KT 4SM 28/18 A2994 RMK T02800180 IEM_DS3505
ZJSY,2006-11-07 10:00,ZJSY 071000Z AUTO 08010KT 4SM 27/18 A2997 RMK T02700180 IEM_DS3505
ZJSY,2006-11-07 11:00,ZJSY 071100Z 08004MPS 6000 BKN050 26/18 Q1015 NOSIG
ZJSY,2006-11-07 12:00,ZJSY 071200Z 04003MPS 010V090 6000 BKN060 26/18 Q1016 NOSIG
ZJSY,2006-11-07 13:00,ZJSY 071300Z AUTO 07006KT 4SM 26/18 A3000 RMK T02600180 IEM_DS3505
ZJSY,2006-11-07 14:00,ZJSY 071400Z AUTO 08008KT 4SM 25/19 A3000 RMK T02500190 IEM_DS3505
ZJSY,2006-11-07 15:00,ZJSY 071500Z AUTO 00000KT 4SM 24/20 A3000 RMK T02400200 IEM_DS3505
ZJSY,2006-11-07 16:00,ZJSY 071600Z AUTO 4SM 24/19 A3000 RMK T02400190 IEM_DS3505
ZJSY,2006-11-07 17:00,ZJSY 071700Z AUTO 11004KT 4SM 24/20 A3000 RMK T02400200 IEM_DS3505
ZJSY,2006-11-07 18:00,ZJSY 071800Z AUTO 02006KT 4SM 24/20 A3000 RMK T02400200 IEM_DS3505
ZJSY,2006-11-07 19:00,ZJSY 071900Z AUTO 04006KT 25/20 A2997 RMK T02500200 IEM_DS3505
ZJSY,2006-11-07 20:00,ZJSY 072000Z AUTO 06010KT 26/20 A2997 RMK T02600200 IEM_DS3505
ZJSY,2006-11-07 21:00,ZJSY 072100Z AUTO 08006KT 4SM 25/20 A2997 RMK T02500200 IEM_DS3505
ZJSY,2006-11-07 22:00,ZJSY 072200Z AUTO 05008KT 4SM 25/20 A2997 RMK T02500200 IEM_DS3505
ZJSY,2006-11-07 23:00,ZJSY 072300Z AUTO 11002KT 3SM 25/21 A3000 RMK T02500210 IEM_DS3505
ZJSY,2006-11-08 00:00,ZJSY 080000Z AUTO 07008KT 3SM 26/21 A3000 RMK T02600210 IEM_DS3505
ZJSY,2006-11-08 01:00,ZJSY 080100Z AUTO 06012KT 4SM 28/21 A3003 RMK T02800210 IEM_DS3505
ZJSY,2006-11-08 02:00,ZJSY 080200Z AUTO 07014KT 4SM 29/21 A3006 RMK T02900210 IEM_DS3505
ZJSY,2006-11-08 03:00,ZJSY 080300Z AUTO 09010KT 4SM 28/22 A3006 RMK T02800220 IEM_DS3505
ZJSY,2006-11-08 04:00,ZJSY 080400Z AUTO 06010KT 5SM 27/23 A3006 RMK T02700230 IEM_DS3505
ZJSY,2006-11-08 05:00,ZJSY 080500Z AUTO 08014KT 5SM 30/22 A3003 RMK T03000220 IEM_DS3505
ZJSY,2006-11-08 06:00,ZJSY 080600Z AUTO 07014KT 5SM 29/22 A3000 RMK T02900220 IEM_DS3505
ZJSY,2006-11-08 07:00,ZJSY 080700Z AUTO 08014KT 5SM 29/22 A2997 RMK T02900220 IEM_DS3505
ZJSY,2006-11-08 08:00,ZJSY 080800Z AUTO 09012KT 5SM 28/22 A2997 RMK T02800220 IEM_DS3505
ZJSY,2006-11-08 09:00,ZJSY 080900Z AUTO 09012KT 5SM 28/21 A2997 RMK T02800210 IEM_DS3505
ZJSY,2006-11-08 10:00,ZJSY 081000Z AUTO 08010KT 5SM 27/22 A3000 RMK T02700220 IEM_DS3505
ZJSY,2006-11-08 11:00,ZJSY 081100Z 08005MPS 8000 FEW016 26/21 Q1016 NOSIG
ZJSY,2006-11-08 12:00,ZJSY 081200Z 07006MPS 8000 SCT046 26/22 Q1016 NOSIG
ZJSY,2006-11-08 13:00,ZJSY 081300Z AUTO 06012KT 5SM 26/21 A3003 RMK T02600210 IEM_DS3505
ZJSY,2006-11-08 14:00,ZJSY 081400Z AUTO 08008KT 5SM 26/22 A3003 RMK T02600220 IEM_DS3505
ZJSY,2006-11-08 15:00,ZJSY 081500Z AUTO 06008KT 5SM 26/22 A3006 RMK T02600220 IEM_DS3505
ZJSY,2006-11-08 16:00,ZJSY 081600Z AUTO 08006KT 5SM 26/22 A3006 RMK T02600220 IEM_DS3505
ZJSY,2006-11-08 17:00,ZJSY 081700Z AUTO 08006KT 5SM 25/22 A3003 RMK T02500220 IEM_DS3505
ZJSY,2006-11-08 18:00,ZJSY 081800Z AUTO 08006KT 5SM 26/22 A3003 RMK T02600220 IEM_DS3505
ZJSY,2006-11-08 19:00,ZJSY 081900Z AUTO 08006KT 5SM 25/22 A3003 RMK T02500220 IEM_DS3505
ZJSY,2006-11-08 20:00,ZJSY 082000Z AUTO 08004KT 3SM 25/22 A3003 RMK T02500220 IEM_DS3505
ZJSY,2006-11-08 21:00,ZJSY 082100Z AUTO 07006KT 3SM 25/22 A3003 RMK T02500220 IEM_DS3505
ZJSY,2006-11-08 22:00,ZJSY 082200Z AUTO 08006KT 3SM 24/21 A3003 RMK T02400210 IEM_DS3505
ZJSY,2006-11-08 23:00,ZJSY 082300Z AUTO 06010KT 7SM 25/22 A3003 RMK T02500220 IEM_DS3505
ZJSY,2006-11-09 00:00,ZJSY 090000Z AUTO 07010KT 6SM 27/21 A3006 RMK T02700210 IEM_DS3505
ZJSY,2006-11-09 01:00,ZJSY 090100Z AUTO 07014KT 6SM 28/21 A3006 RMK T02800210 IEM_DS3505
ZJSY,2006-11-09 02:00,ZJSY 090200Z AUTO 07014KT 7SM 29/21 A3009 RMK T02900210 IEM_DS3505
ZJSY,2006-11-09 03:00,ZJSY 090300Z AUTO 07014KT 7SM 30/21 A3009 RMK T03000210 IEM_DS3505
ZJSY,2006-11-09 04:00,ZJSY 090400Z AUTO 07010KT 7SM 31/21 A3006 RMK T03100210 IEM_DS3505
ZJSY,2006-11-09 05:00,ZJSY 090500Z AUTO 10012KT 7SM 31/21 A3003 RMK T03100210 IEM_DS3505
ZJSY,2006-11-09 06:00,ZJSY 090600Z AUTO 10012KT 7SM 31/21 A3000 RMK T03100210 IEM_DS3505
ZJSY,2006-11-09 07:00,ZJSY 090700Z AUTO 10014KT 7SM 30/21 A2997 RMK T03000210 IEM_DS3505
ZJSY,2006-11-09 08:00,ZJSY 090800Z AUTO 10010G19KT 7SM 30/21 A2997 RMK T03000210 IEM_DS3505
ZJSY,2006-11-09 09:00,ZJSY 090900Z AUTO 08012KT 7SM 29/21 A2997 RMK T02900210 IEM_DS3505
ZJSY,2006-11-09 10:00,ZJSY 091000Z AUTO 08014KT 6SM 27/21 A3000 RMK T02700210 IEM_DS3505
ZJSY,2006-11-09 11:00,ZJSY 091100Z AUTO 08010KT 6SM 26/22 A3000 RMK T02600220 IEM_DS3505
ZJSY,2006-11-09 12:00,ZJSY 091200Z AUTO 08008KT 6SM 26/22 A3003 RMK T02600220 IEM_DS3505
ZJSY,2006-11-09 13:00,ZJSY 091300Z AUTO 07010KT 6SM 25/21 A3003 RMK T02500210 IEM_DS3505
ZJSY,2006-11-09 14:00,ZJSY 091400Z AUTO 06008KT 6SM 25/21 A3006 RMK T02500210 IEM_DS3505
ZJSY,2006-11-09 15:00,ZJSY 091500Z AUTO 05004KT 6SM 25/21 A3006 RMK T02500210 IEM_DS3505
ZJSY,2006-11-09 16:00,ZJSY 091600Z AUTO 08004KT 6SM 24/21 A3006 RMK T02400210 IEM_DS3505
ZJSY,2006-11-09 17:00,ZJSY 091700Z AUTO 6SM 24/21 A3003 RMK T02400210 IEM_DS3505
ZJSY,2006-11-09 18:00,ZJSY 091800Z AUTO 06004KT 6SM 24/21 A3000 RMK T02400210 IEM_DS3505
ZJSY,2006-11-09 19:00,ZJSY 091900Z AUTO 00000KT 6SM 23/20 A3000 RMK T02300200 IEM_DS3505
ZJSY,2006-11-09 20:00,ZJSY 092000Z AUTO 22/20 A3000 RMK T02200200 IEM_DS3505
ZJSY,2006-11-09 21:00,ZJSY 092100Z AUTO 6SM 22/20 A3000 RMK T02200200 IEM_DS3505
ZJSY,2006-11-09 22:00,ZJSY 092200Z AUTO 6SM 23/21 A3000 RMK T02300210 IEM_DS3505
ZJSY,2006-11-09 23:00,ZJSY 092300Z AUTO 00000KT 6SM 22/20 A3003 RMK T02200200 IEM_DS3505
ZJSY,2006-11-10 00:00,ZJSY 100000Z AUTO 00000KT 5SM 25/21 A3006 RMK T02500210 IEM_DS3505
ZJSY,2006-11-10 01:00,ZJSY 100100Z AUTO 07006KT 5SM 27/20 A3006 RMK T02700200 IEM_DS3505
ZJSY,2006-11-10 02:00,ZJSY 100200Z AUTO 05010KT 6SM 30/19 A3006 RMK T03000190 IEM_DS3505
ZJSY,2006-11-10 03:00,ZJSY 100300Z AUTO 07008KT 6SM 31/19 A3006 RMK T03100190 IEM_DS3505
ZJSY,2006-11-10 04:00,ZJSY 100400Z 12004MPS 100V180 9999 FEW016 32/20 Q1017 NOSIG
ZJSY,2006-11-10 05:00,ZJSY 100500Z AUTO 17008KT 7SM 30/22 A3000 RMK T03000220 IEM_DS3505
ZJSY,2006-11-10 06:00,ZJSY 100600Z AUTO 16008KT 7SM 29/23 A2997 RMK T02900230 IEM_DS3505
ZJSY,2006-11-10 07:00,ZJSY 100700Z AUTO 15008KT 7SM 29/21 A2997 RMK T02900210 IEM_DS3505
ZJSY,2006-11-10 08:00,ZJSY 100800Z AUTO 15006KT 7SM 29/22 A2997 RMK T02900220 IEM_DS3505
ZJSY,2006-11-10 09:00,ZJSY 100900Z AUTO 13006KT 7SM 28/22 A2997 RMK T02800220 IEM_DS3505
ZJSY,2006-11-10 10:00,ZJSY 101000Z AUTO 08008KT 7SM 27/21 A2997 RMK T02700210 IEM_DS3505
ZJSY,2006-11-10 11:00,ZJSY 101100Z AUTO 07008KT 7SM 26/21 A3000 RMK T02600210 IEM_DS3505
ZJSY,2006-11-10 12:00,ZJSY 101200Z AUTO 08008KT 7SM 26/22 A3000 RMK T02600220 IEM_DS3505
ZJSY,2006-11-10 13:00,ZJSY 101300Z AUTO 08006KT 7SM 26/21 A3003 RMK T02600210 IEM_DS3505
ZJSY,2006-11-10 14:00,ZJSY 101400Z AUTO 09006KT 7SM 25/21 A3003 RMK T02500210 IEM_DS3505
ZJSY,2006-11-10 15:00,ZJSY 101500Z AUTO 10002KT 7SM 24/21 A3003 RMK T02400210 IEM_DS3505
ZJSY,2006-11-10 16:00,ZJSY 101600Z AUTO 00000KT 6SM 24/21 A3003 RMK T02400210 IEM_DS3505
ZJSY,2006-11-10 17:00,ZJSY 101700Z AUTO 08004KT 6SM 23/21 A3003 RMK T02300210 IEM_DS3505
ZJSY,2006-11-10 18:00,ZJSY 101800Z AUTO 35002KT 6SM 22/20 A3000 RMK T02200200 IEM_DS3505
ZJSY,2006-11-10 19:00,ZJSY 101900Z AUTO 00000KT 6SM 22/20 A3000 RMK T02200200 IEM_DS3505
ZJSY,2006-11-10 20:00,ZJSY 102000Z AUTO 32002KT 21/20 A2997 RMK T02100200 IEM_DS3505
ZJSY,2006-11-10 21:00,ZJSY 102100Z AUTO 33004KT 6SM 21/20 A2997 RMK T02100200 IEM_DS3505
ZJSY,2006-11-10 22:00,ZJSY 102200Z AUTO 35002KT 6SM 20/19 A3000 RMK T02000190 IEM_DS3505
ZJSY,2006-11-10 23:00,ZJSY 102300Z AUTO 6SM 20/19 A3003 RMK T02000190 IEM_DS3505
ZJSY,2006-11-11 00:00,ZJSY 110000Z AUTO 6SM 22/20 A3003 RMK T02200200 IEM_DS3505
ZJSY,2006-11-11 01:00,ZJSY 110100Z AUTO 00000KT 6SM 26/21 A3003 RMK T02600210 IEM_DS3505
ZJSY,2006-11-11 02:00,ZJSY 110200Z AUTO 6SM 28/20 A3006 RMK T02800200 IEM_DS3505
ZJSY,2006-11-11 03:00,ZJSY 110300Z AUTO 20004KT 6SM 29/18 A3003 RMK T02900180 IEM_DS3505
ZJSY,2006-11-11 04:00,ZJSY 110400Z AUTO 22006KT 6SM 30/19 A3000 RMK T03000190 IEM_DS3505
ZJSY,2006-11-11 05:00,ZJSY 110500Z AUTO 21008KT 6SM 29/21 A2997 RMK T02900210 IEM_DS3505
ZJSY,2006-11-11 06:00,ZJSY 110600Z AUTO 21006KT 7SM 29/20 A2997 RMK T02900200 IEM_DS3505
ZJSY,2006-11-11 07:00,ZJSY 110700Z AUTO 22006KT 7SM 29/21 A2994 RMK T02900210 IEM_DS3505
ZJSY,2006-11-11 08:00,ZJSY 110800Z AUTO 21006KT 7SM 29/20 A2994 RMK T02900200 IEM_DS3505
ZJSY,2006-11-11 09:00,ZJSY 110900Z AUTO 21004KT 7SM 28/20 A2994 RMK T02800200 IEM_DS3505
ZJSY,2006-11-11 10:00,ZJSY 111000Z AUTO 22002KT 6SM 27/20 A2997 RMK T02700200 IEM_DS3505
ZJSY,2006-11-11 11:00,ZJSY 111100Z 00000MPS CAVOK 27/20 Q1015 NOSIG
ZJSY,2006-11-11 12:00,ZJSY 111200Z 33002MPS 320V040 9999 SCT016 25/20 Q1016 NOSIG
ZJSY,2006-11-11 13:00,ZJSY 111300Z AUTO 34004KT 7SM 25/20 A3000 RMK T02500200 IEM_DS3505
ZJSY,2006-11-11 14:00,ZJSY 111400Z AUTO 34004KT 7SM 24/20 A3000 RMK T02400200 IEM_DS3505
ZJSY,2006-11-11 15:00,ZJSY 111500Z AUTO 7SM 24/20 A3000 RMK T02400200 IEM_DS3505
ZJSY,2006-11-11 16:00,ZJSY 111600Z AUTO 6SM 23/20 A3000 RMK T02300200 IEM_DS3505
ZJSY,2006-11-11 17:00,ZJSY 111700Z AUTO 07006KT 6SM 24/18 A3000 RMK T02400180 IEM_DS3505
ZJSY,2006-11-11 18:00,ZJSY 111800Z AUTO 6SM 23/18 A2997 RMK T02300180 IEM_DS3505
ZJSY,2006-11-11 19:00,ZJSY 111900Z AUTO 23/18 A2994 RMK T02300180 IEM_DS3505
ZJSY,2006-11-11 20:00,ZJSY 112000Z AUTO 32002KT 21/18 A2994 RMK T02100180 IEM_DS3505
ZJSY,2006-11-11 21:00,ZJSY 112100Z AUTO 6SM 21/17 A2994 RMK T02100170 IEM_DS3505
ZJSY,2006-11-11 22:00,ZJSY 112200Z AUTO 6SM 21/17 A2997 RMK T02100170 IEM_DS3505
ZJSY,2006-11-11 23:00,ZJSY 112300Z AUTO 35002KT 3SM 20/17 A3000 RMK T02000170 IEM_DS3505
ZJSY,2006-11-12 00:00,ZJSY 120000Z AUTO 2 1/2SM 22/18 A3000 RMK T02200180 IEM_DS3505
ZJSY,2006-11-12 01:00,ZJSY 120100Z AUTO 00000KT 2 1/2SM 26/19 A3003 RMK T02600190 IEM_DS3505
ZJSY,2006-11-12 02:00,ZJSY 120200Z AUTO 3SM 28/19 A3003 RMK T02800190 IEM_DS3505
ZJSY,2006-11-12 03:00,ZJSY 120300Z AUTO 07012KT 3SM 29/18 A3000 RMK T02900180 IEM_DS3505
ZJSY,2006-11-12 04:00,ZJSY 120400Z AUTO 06006KT 3SM 29/19 A3000 RMK T02900190 IEM_DS3505
ZJSY,2006-11-12 05:00,ZJSY 120500Z AUTO 10010KT 3SM 28/20 A2997 RMK T02800200 IEM_DS3505
ZJSY,2006-11-12 06:00,ZJSY 120600Z AUTO 09016KT 3SM 26/20 A2994 RMK T02600200 IEM_DS3505
ZJSY,2006-11-12 07:00,ZJSY 120700Z AUTO 09008KT 3SM 26/20 A2994 RMK T02600200 IEM_DS3505
ZJSY,2006-11-12 08:00,ZJSY 120800Z AUTO 06008KT 3SM 27/20 A2991 RMK T02700200 IEM_DS3505
ZJSY,2006-11-12 09:00,ZJSY 120900Z AUTO 06006KT 3SM 27/20 A2991 RMK T02700200 IEM_DS3505
ZJSY,2006-11-12 10:00,ZJSY 121000Z AUTO 08008KT 3SM 26/20 A2994 RMK T02600200 IEM_DS3505
ZJSY,2006-11-12 11:00,ZJSY 121100Z 06003MPS 5000 HZ SCT016 25/19 Q1015 NOSIG
ZJSY,2006-11-12 12:00,ZJSY 121200Z 05003MPS 5000 HZ SCT016 25/19 Q1015 NOSIG
ZJSY,2006-11-12 13:00,ZJSY 121300Z AUTO 06014KT 3SM 25/18 A3000 RMK T02500180 IEM_DS3505
ZJSY,2006-11-12 14:00,ZJSY 121400Z AUTO 06006KT 3SM 24/19 A3000 RMK T02400190 IEM_DS3505
ZJSY,2006-11-12 15:00,ZJSY 121500Z AUTO 3SM 24/18 A2997 RMK T02400180 IEM_DS3505
ZJSY,2006-11-12 16:00,ZJSY 121600Z AUTO 04008KT 3SM 24/18 A2997 RMK T02400180 IEM_DS3505
ZJSY,2006-11-12 17:00,ZJSY 121700Z AUTO 00000KT 3SM 22/18 A2997 RMK T02200180 IEM_DS3505
ZJSY,2006-11-12 18:00,ZJSY 121800Z AUTO 07006KT 3SM 23/18 A2997 RMK T02300180 IEM_DS3505
ZJSY,2006-11-12 19:00,ZJSY 121900Z AUTO 04006KT 3SM 22/17 A2994 RMK T02200170 IEM_DS3505
ZJSY,2006-11-12 20:00,ZJSY 122000Z AUTO 4SM 22/16 A2991 RMK T02200160 IEM_DS3505
ZJSY,2006-11-12 21:00,ZJSY 122100Z AUTO 00000KT 4SM 21/16 A2991 RMK T02100160 IEM_DS3505
ZJSY,2006-11-12 22:00,ZJSY 122200Z AUTO 33002KT 4SM 20/16 A2991 RMK T02000160 IEM_DS3505
ZJSY,2006-11-12 23:00,ZJSY 122300Z AUTO 00000KT 3SM 19/16 A2994 RMK T01900160 IEM_DS3505
ZJSY,2006-11-13 00:00,ZJSY 130000Z AUTO 3SM 21/17 A2994 RMK T02100170 IEM_DS3505
ZJSY,2006-11-13 01:00,ZJSY 130100Z AUTO 3SM 24/18 A2997 RMK T02400180 IEM_DS3505
ZJSY,2006-11-13 02:00,ZJSY 130200Z AUTO 3SM 26/16 A2997 RMK T02600160 IEM_DS3505
ZJSY,2006-11-13 03:00,ZJSY 130300Z AUTO 3SM 27/16 A2997 RMK T02700160 IEM_DS3505
ZJSY,2006-11-13 04:00,ZJSY 130400Z AUTO 04008KT 4SM 28/19 A2994 RMK T02800190 IEM_DS3505
ZJSY,2006-11-13 05:00,ZJSY 130500Z AUTO 03012KT 4SM 29/19 A2991 RMK T02900190 IEM_DS3505
ZJSY,2006-11-13 06:00,ZJSY 130600Z AUTO 05012KT 4SM 30/19 A2988 RMK T03000190 IEM_DS3505
ZJSY,2006-11-13 07:00,ZJSY 130700Z AUTO 06010KT 5SM 29/19 A2985 RMK T02900190 IEM_DS3505
ZJSY,2006-11-13 08:00,ZJSY 130800Z AUTO 07008KT 5SM 29/20 A2985 RMK T02900200 IEM_DS3505
ZJSY,2006-11-13 09:00,ZJSY 130900Z AUTO 06008KT 5SM 29/19 A2985 RMK T02900190 IEM_DS3505
ZJSY,2006-11-13 10:00,ZJSY 131000Z AUTO 08006KT 5SM 28/20 A2985 RMK T02800200 IEM_DS3505
ZJSY,2006-11-13 11:00,ZJSY 131100Z AUTO 08004KT 5SM 27/21 A2988 RMK T02700210 IEM_DS3505
ZJSY,2006-11-13 12:00,ZJSY 131200Z AUTO 00000KT 5SM 27/21 A2991 RMK T02700210 IEM_DS3505
ZJSY,2006-11-13 13:00,ZJSY 131300Z AUTO 00000KT 5SM 26/20 A2994 RMK T02600200 IEM_DS3505
ZJSY,2006-11-13 14:00,ZJSY 131400Z AUTO 5SM 25/21 A2994 RMK T02500210 IEM_DS3505
ZJSY,2006-11-13 15:00,ZJSY 131500Z AUTO 07006KT 5SM 25/21 A2994 RMK T02500210 IEM_DS3505
ZJSY,2006-11-13 16:00,ZJSY 131600Z AUTO 5SM 24/21 A2994 RMK T02400210 IEM_DS3505
ZJSY,2006-11-13 17:00,ZJSY 131700Z AUTO 33004KT 5SM 24/20 A2994 RMK T02400200 IEM_DS3505
ZJSY,2006-11-13 18:00,ZJSY 131800Z AUTO 07006KT 5SM 24/21 A2991 RMK T02400210 IEM_DS3505
ZJSY,2006-11-13 19:00,ZJSY 131900Z AUTO 5SM 23/21 A2991 RMK T02300210 IEM_DS3505
ZJSY,2006-11-13 20:00,ZJSY 132000Z AUTO 33002KT 23/21 A2988 RMK T02300210 IEM_DS3505
ZJSY,2006-11-13 21:00,ZJSY 132100Z AUTO VRB01MPS //// // ////// 23/21 Q1012
ZJSY,2006-11-13 22:00,ZJSY 132200Z AUTO 30002KT 4SM 22/20 A2991 RMK T02200200 IEM_DS3505
ZJSY,2006-11-13 23:00,ZJSY 132300Z AUTO 13004KT 5SM 22/20 A2994 RMK T02200200 IEM_DS3505
ZJSY,2006-11-14 00:00,ZJSY 140000Z AUTO 00000KT 5SM 23/21 A2994 RMK T02300210 IEM_DS3505
ZJSY,2006-11-14 01:00,ZJSY 140100Z AUTO 12004KT 5SM 25/22 A2997 RMK T02500220 IEM_DS3505
ZJSY,2006-11-14 02:00,ZJSY 140200Z AUTO 30004KT 7SM 28/22 A2997 RMK T02800220 IEM_DS3505
ZJSY,2006-11-14 03:00,ZJSY 140300Z AUTO 19006KT 7SM 28/22 A2997 RMK T02800220 IEM_DS3505
ZJSY,2006-11-14 04:00,ZJSY 140400Z AUTO 20006KT 7SM 28/23 A2994 RMK T02800230 IEM_DS3505
ZJSY,2006-11-14 05:00,ZJSY 140500Z AUTO 21004KT 7SM 29/21 A2991 RMK T02900210 IEM_DS3505
ZJSY,2006-11-14 06:00,ZJSY 140600Z AUTO 22006KT 7SM 29/22 A2988 RMK T02900220 IEM_DS3505
ZJSY,2006-11-14 07:00,ZJSY 140700Z 19003MPS 160V220 9999 FEW018 BKN040 30/22 Q1012 NOSIG
ZJSY,2006-11-14 08:00,ZJSY 140800Z AUTO 24006KT 7SM 29/22 A2985 RMK T02900220 IEM_DS3505
ZJSY,2006-11-14 09:00,ZJSY 140900Z AUTO 26006KT 7SM 28/22 A2988 RMK T02800220 IEM_DS3505
ZJSY,2006-11-14 10:00,ZJSY 141000Z AUTO 00000KT 7SM 27/23 A2988 RMK T02700230 IEM_DS3505
ZJSY,2006-11-14 11:00,ZJSY 141100Z 00000MPS 9999 BKN050 27/23 Q1013 NOSIG
ZJSY,2006-11-14 12:00,ZJSY 141200Z VRB01MPS 9999 FEW013 BKN050 27/23 Q1014 NOSIG
ZJSY,2006-11-14 13:00,ZJSY 141300Z AUTO 00000KT 7SM 27/22 A2994 RMK T02700220 IEM_DS3505
ZJSY,2006-11-14 14:00,ZJSY 141400Z AUTO 08006KT 7SM 26/22 A2997 RMK T02600220 IEM_DS3505
ZJSY,2006-11-14 15:00,ZJSY 141500Z AUTO 04004KT 6SM 26/21 A2997 RMK T02600210 IEM_DS3505
ZJSY,2006-11-14 16:00,ZJSY 141600Z AUTO 6SM 25/21 A2994 RMK T02500210 IEM_DS3505
ZJSY,2006-11-14 17:00,ZJSY 141700Z AUTO 12004KT 6SM 25/21 A2994 RMK T02500210 IEM_DS3505
ZJSY,2006-11-14 18:00,ZJSY 141800Z VRB01MPS CAVOK 25/21 Q1014 NOSIG
ZJSY,2006-11-14 19:00,ZJSY 141900Z AUTO 31004KT 6SM 24/21 A2994 RMK T02400210 IEM_DS3505
ZJSY,2006-11-14 20:00,ZJSY 142000Z AUTO 32004KT 7SM 23/21 A2991 RMK T02300210 IEM_DS3505
ZJSY,2006-11-14 21:00,ZJSY 142100Z AUTO 00000KT 7SM 23/21 A2991 RMK T02300210 IEM_DS3505
ZJSY,2006-11-14 22:00,ZJSY 142200Z AUTO 00000KT 7SM 23/20 A2994 RMK T02300200 IEM_DS3505
ZJSY,2006-11-14 23:00,ZJSY 142300Z AUTO 7SM 23/20 A2997 RMK T02300200 IEM_DS3505
ZJSY,2006-11-15 00:00,ZJSY 150000Z AUTO 00000KT 7SM 24/21 A2997 RMK T02400210 IEM_DS3505
ZJSY,2006-11-15 01:00,ZJSY 150100Z AUTO 04006KT 6SM 29/22 A3000 RMK T02900220 IEM_DS3505
ZJSY,2006-11-15 02:00,ZJSY 150200Z AUTO 06016KT 7SM 30/22 A3000 RMK T03000220 IEM_DS3505
ZJSY,2006-11-15 03:00,ZJSY 150300Z AUTO 08016KT 7SM 31/22 A2997 RMK T03100220 IEM_DS3505
ZJSY,2006-11-15 04:00,ZJSY 150400Z AUTO 10010KT 7SM 32/22 A2997 RMK T03200220 IEM_DS3505
ZJSY,2006-11-15 05:00,ZJSY 150500Z AUTO 09012KT 7SM 31/22 A2994 RMK T03100220 IEM_DS3505
ZJSY,2006-11-15 06:00,ZJSY 150600Z AUTO 08014KT 7SM 31/21 A2991 RMK T03100210 IEM_DS3505
ZJSY,2006-11-15 07:00,ZJSY 150700Z AUTO 10010KT 7SM 30/22 A2988 RMK T03000220 IEM_DS3505
ZJSY,2006-11-15 08:00,ZJSY 150800Z AUTO 09012KT 7SM 29/22 A2988 RMK T02900220 IEM_DS3505
ZJSY,2006-11-15 09:00,ZJSY 150900Z AUTO 09014KT 7SM 28/22 A2988 RMK T02800220 IEM_DS3505
ZJSY,2006-11-15 10:00,ZJSY 151000Z AUTO 08010KT 7SM 27/22 A2991 RMK T02700220 IEM_DS3505
ZJSY,2006-11-15 11:00,ZJSY 151100Z AUTO 08010KT 7SM 26/22 A2994 RMK T02600220 IEM_DS3505
ZJSY,2006-11-15 12:00,ZJSY 151200Z AUTO 08008KT 6SM 26/22 A2994 RMK T02600220 IEM_DS3505
ZJSY,2006-11-15 13:00,ZJSY 151300Z AUTO 06006KT 6SM 26/22 A2997 RMK T02600220 IEM_DS3505
ZJSY,2006-11-15 14:00,ZJSY 151400Z AUTO 07006KT 6SM 26/22 A2997 RMK T02600220 IEM_DS3505
ZJSY,2006-11-15 15:00,ZJSY 151500Z 10002MPS 9999 FEW016 25/22 Q1015 NOSIG
ZJSY,2006-11-15 16:00,ZJSY 151600Z AUTO 08006KT 7SM 25/23 A2997 RMK T02500230 IEM_DS3505
ZJSY,2006-11-15 17:00,ZJSY 151700Z AUTO 08004KT 7SM 25/22 A2997 RMK T02500220 IEM_DS3505
ZJSY,2006-11-15 18:00,ZJSY 151800Z AUTO 06004KT 6SM 25/22 A2994 RMK T02500220 IEM_DS3505
ZJSY,2006-11-15 19:00,ZJSY 151900Z AUTO 07004KT 6SM 24/22 A2991 RMK T02400220 IEM_DS3505
ZJSY,2006-11-15 20:00,ZJSY 152000Z AUTO 00000KT 6SM 24/22 A2991 RMK T02400220 IEM_DS3505
ZJSY,2006-11-15 21:00,ZJSY 152100Z AUTO 01002KT 6SM 23/22 A2991 RMK T02300220 IEM_DS3505
ZJSY,2006-11-15 22:00,ZJSY 152200Z AUTO 33004KT 6SM 23/21 A2991 RMK T02300210 IEM_DS3505
ZJSY,2006-11-15 23:00,ZJSY 152300Z 35001MPS 9999 FEW016 23/21 Q1014 NOSIG
ZJSY,2006-11-16 00:00,ZJSY 160000Z AUTO 00000KT 6SM 25/22 A2994 RMK T02500220 IEM_DS3505
ZJSY,2006-11-16 01:00,ZJSY 160100Z AUTO 11004KT 7SM 27/23 A2997 RMK T02700230 IEM_DS3505
ZJSY,2006-11-16 02:00,ZJSY 160200Z AUTO 10006KT 7SM 27/23 A2997 RMK T02700230 IEM_DS3505
ZJSY,2006-11-16 03:00,ZJSY 160300Z AUTO 07006KT 7SM 28/23 A2997 RMK T02800230 IEM_DS3505
ZJSY,2006-11-16 04:00,ZJSY 160400Z AUTO 16006KT 7SM 28/23 A2994 RMK T02800230 IEM_DS3505
ZJSY,2006-11-16 05:00,ZJSY 160500Z AUTO 15006KT 7SM 29/23 A2991 RMK T02900230 IEM_DS3505
ZJSY,2006-11-16 06:00,ZJSY 160600Z AUTO 09008KT 7SM 28/23 A2988 RMK T02800230 IEM_DS3505
ZJSY,2006-11-16 07:00,ZJSY 160700Z AUTO 09008KT 7SM 28/22 A2988 RMK T02800220 IEM_DS3505
ZJSY,2006-11-16 08:00,ZJSY 160800Z AUTO 14006KT 7SM 29/23 A2988 RMK T02900230 IEM_DS3505
ZJSY,2006-11-16 09:00,ZJSY 160900Z AUTO 15004KT 7SM 28/23 A2988 RMK T02800230 IEM_DS3505
ZJSY,2006-11-16 10:00,ZJSY 161000Z AUTO 09004KT 7SM 27/23 A2988 RMK T02700230 IEM_DS3505
ZJSY,2006-11-16 11:00,ZJSY 161100Z 07004MPS 9999 FEW011 BKN018 FEW026TCU 26/23 Q1013 NOSIG
ZJSY,2006-11-16 12:00,ZJSY 161200Z 08003MPS 9999 SCT018 26/23 Q1014 NOSIG
ZJSY,2006-11-16 13:00,ZJSY 161300Z AUTO 06004KT 7SM 25/23 A2994 RMK T02500230 IEM_DS3505
ZJSY,2006-11-16 14:00,ZJSY 161400Z AUTO 08002KT 6SM 25/22 A2997 RMK T02500220 IEM_DS3505
ZJSY,2006-11-16 15:00,ZJSY 161500Z AUTO 34002KT 6SM 24/22 A2994 RMK T02400220 IEM_DS3505
ZJSY,2006-11-16 16:00,ZJSY 161600Z AUTO 01002KT 6SM 23/22 A2994 RMK T02300220 IEM_DS3505
ZJSY,2006-11-16 17:00,ZJSY 161700Z AUTO 6SM 23/21 A2991 RMK T02300210 IEM_DS3505
ZJSY,2006-11-16 18:00,ZJSY 161800Z AUTO 00000KT 6SM 23/21 A2991 RMK T02300210 IEM_DS3505
ZJSY,2006-11-16 19:00,ZJSY 161900Z AUTO 08002KT 6SM 23/21 A2991 RMK T02300210 IEM_DS3505
ZJSY,2006-11-16 20:00,ZJSY 162000Z AUTO 35002MPS //// // ////// 22/20 Q1012
ZJSY,2006-11-16 21:00,ZJSY 162100Z AUTO 01002KT 6SM 22/20 A2988 RMK T02200200 IEM_DS3505
ZJSY,2006-11-16 22:00,ZJSY 162200Z AUTO 34004KT 6SM 22/20 A2988 RMK T02200200 IEM_DS3505
ZJSY,2006-11-16 23:00,ZJSY 162300Z AUTO 36002KT 6SM 21/20 A2991 RMK T02100200 IEM_DS3505
ZJSY,2006-11-17 00:00,ZJSY 170000Z AUTO 00000KT 6SM 24/22 A2994 RMK T02400220 IEM_DS3505
ZJSY,2006-11-17 01:00,ZJSY 170100Z AUTO 08006KT 6SM 27/22 A2994 RMK T02700220 IEM_DS3505
ZJSY,2006-11-17 02:00,ZJSY 170200Z AUTO 08010KT 7SM 28/22 A2997 RMK T02800220 IEM_DS3505
ZJSY,2006-11-17 03:00,ZJSY 170300Z AUTO 10008KT 7SM 28/22 A2997 RMK T02800220 IEM_DS3505
ZJSY,2006-11-17 04:00,ZJSY 170400Z AUTO 15006KT 7SM 28/22 A2994 RMK T02800220 IEM_DS3505
ZJSY,2006-11-17 05:00,ZJSY 170500Z AUTO 16006KT 7SM 29/23 A2991 RMK T02900230 IEM_DS3505
ZJSY,2006-11-17 06:00,ZJSY 170600Z AUTO 16008KT 7SM 29/23 A2988 RMK T02900230 IEM_DS3505
ZJSY,2006-11-17 07:00,ZJSY 170700Z AUTO 16008KT 7SM 29/23 A2985 RMK T02900230 IEM_DS3505
ZJSY,2006-11-17 08:00,ZJSY 170800Z AUTO 15006KT 7SM 29/22 A2985 RMK T02900220 IEM_DS3505
ZJSY,2006-11-17 09:00,ZJSY 170900Z AUTO 14008KT 7SM 28/22 A2985 RMK T02800220 IEM_DS3505
ZJSY,2006-11-17 10:00,ZJSY 171000Z AUTO 14006KT 6SM 27/23 A2988 RMK T02700230 IEM_DS3505
ZJSY,2006-11-17 11:00,ZJSY 171100Z 09003MPS CAVOK 26/21 Q1012 NOSIG
ZJSY,2006-11-17 12:00,ZJSY 171200Z 09002MPS CAVOK 25/22 Q1013 NOSIG
ZJSY,2006-11-17 13:00,ZJSY 171300Z AUTO 07006KT 7SM 24/22 A2994 RMK T02400220 IEM_DS3505
ZJSY,2006-11-17 14:00,ZJSY 171400Z AUTO 00000KT 6SM 24/21 A2994 RMK T02400210 IEM_DS3505
ZJSY,2006-11-17 15:00,ZJSY 171500Z AUTO 07004KT 6SM 24/21 A2994 RMK T02400210 IEM_DS3505
ZJSY,2006-11-17 16:00,ZJSY 171600Z VRB01MPS CAVOK 23/21 Q1014 NOSIG
ZJSY,2006-11-17 17:00,ZJSY 171700Z AUTO 00000KT 6SM 23/21 A2991 RMK T02300210 IEM_DS3505
ZJSY,2006-11-17 18:00,ZJSY 171800Z AUTO 6SM 23/21 A2991 RMK T02300210 IEM_DS3505
ZJSY,2006-11-17 19:00,ZJSY 171900Z AUTO 10002KT 6SM 23/21 A2988 RMK T02300210 IEM_DS3505
ZJSY,2006-11-17 20:00,ZJSY 172000Z AUTO 07004KT 23/21 A2988 RMK T02300210 IEM_DS3505
ZJSY,2006-11-17 21:00,ZJSY 172100Z AUTO 6SM 23/20 A2988 RMK T02300200 IEM_DS3505
ZJSY,2006-11-17 22:00,ZJSY 172200Z AUTO 6SM 22/20 A2988 RMK T02200200 IEM_DS3505
ZJSY,2006-11-17 23:00,ZJSY 172300Z AUTO 00000KT 6SM 23/21 A2991 RMK T02300210 IEM_DS3505
ZJSY,2006-11-18 00:00,ZJSY 180000Z AUTO 00000KT 6SM 25/22 A2994 RMK T02500220 IEM_DS3505
ZJSY,2006-11-18 01:00,ZJSY 180100Z AUTO 08006KT 6SM 28/22 A2994 RMK T02800220 IEM_DS3505
ZJSY,2006-11-18 02:00,ZJSY 180200Z AUTO 10006KT 6SM 29/22 A2997 RMK T02900220 IEM_DS3505
ZJSY,2006-11-18 03:00,ZJSY 180300Z AUTO 15004KT 6SM 29/23 A2994 RMK T02900230 IEM_DS3505
ZJSY,2006-11-18 04:00,ZJSY 180400Z AUTO 19006KT 6SM 29/23 A2994 RMK T02900230 IEM_DS3505
ZJSY,2006-11-18 05:00,ZJSY 180500Z AUTO 16006KT 6SM 29/23 A2988 RMK T02900230 IEM_DS3505
ZJSY,2006-11-18 06:00,ZJSY 180600Z AUTO 16008KT 6SM 29/23 A2985 RMK T02900230 IEM_DS3505
ZJSY,2006-11-18 07:00,ZJSY 180700Z AUTO 16008KT 6SM 29/23 A2985 RMK T02900230 IEM_DS3505
ZJSY,2006-11-18 08:00,ZJSY 180800Z AUTO 16008KT 7SM 28/23 A2985 RMK T02800230 IEM_DS3505
ZJSY,2006-11-18 09:00,ZJSY 180900Z AUTO 16006KT 7SM 28/23 A2985 RMK T02800230 IEM_DS3505
ZJSY,2006-11-18 10:00,ZJSY 181000Z AUTO 15004KT 7SM 27/23 A2985 RMK T02700230 IEM_DS3505
ZJSY,2006-11-18 11:00,ZJSY 181100Z 14002MPS 100V180 9999 FEW040 26/23 Q1012 NOSIG
ZJSY,2006-11-18 12:00,ZJSY 181200Z 08002MPS 9999 FEW040 26/22 Q1013 NOSIG
ZJSY,2006-11-18 13:00,ZJSY 181300Z AUTO 08006KT 7SM 25/23 A2991 RMK T02500230 IEM_DS3505
ZJSY,2006-11-18 14:00,ZJSY 181400Z AUTO 06004KT 7SM 25/22 A2991 RMK T02500220 IEM_DS3505
ZJSY,2006-11-18 15:00,ZJSY 181500Z AUTO 10002KT 7SM 25/22 A2991 RMK T02500220 IEM_DS3505
ZJSY,2006-11-18 16:00,ZJSY 181600Z AUTO 05004KT 7SM 24/22 A2991 RMK T02400220 IEM_DS3505
ZJSY,2006-11-18 17:00,ZJSY 181700Z AUTO 00000KT 7SM 24/21 A2991 RMK T02400210 IEM_DS3505
ZJSY,2006-11-18 18:00,ZJSY 181800Z AUTO 34004KT 7SM 23/21 A2988 RMK T02300210 IEM_DS3505
ZJSY,2006-11-18 19:00,ZJSY 181900Z AUTO 00000KT 7SM 23/21 A2988 RMK T02300210 IEM_DS3505
ZJSY,2006-11-18 20:00,ZJSY 182000Z AUTO 36002KT 22/20 A2988 RMK T02200200 IEM_DS3505
ZJSY,2006-11-18 21:00,ZJSY 182100Z AUTO 00000KT 6SM 22/20 A2988 RMK T02200200 IEM_DS3505
ZJSY,2006-11-18 22:00,ZJSY 182200Z AUTO 35004KT 6SM 22/20 A2988 RMK T02200200 IEM_DS3505
ZJSY,2006-11-18 23:00,ZJSY 182300Z AUTO 36002KT 6SM 22/20 A2991 RMK T02200200 IEM_DS3505
ZJSY,2006-11-19 00:00,ZJSY 190000Z AUTO 00000KT 6SM 24/22 A2994 RMK T02400220 IEM_DS3505
ZJSY,2006-11-19 01:00,ZJSY 190100Z AUTO 07008KT 6SM 28/22 A2994 RMK T02800220 IEM_DS3505
ZJSY,2006-11-19 02:00,ZJSY 190200Z AUTO 09010KT 7SM 29/21 A2997 RMK T02900210 IEM_DS3505
ZJSY,2006-11-19 03:00,ZJSY 190300Z AUTO 08008KT 7SM 30/21 A2994 RMK T03000210 IEM_DS3505
ZJSY,2006-11-19 04:00,ZJSY 190400Z AUTO 10008KT 7SM 31/21 A2994 RMK T03100210 IEM_DS3505
ZJSY,2006-11-19 05:00,ZJSY 190500Z AUTO 17006KT 7SM 30/23 A2991 RMK T03000230 IEM_DS3505
ZJSY,2006-11-19 06:00,ZJSY 190600Z AUTO 15008KT 7SM 30/23 A2988 RMK T03000230 IEM_DS3505
ZJSY,2006-11-19 07:00,ZJSY 190700Z AUTO 15010KT 7SM 30/23 A2985 RMK T03000230 IEM_DS3505
ZJSY,2006-11-19 08:00,ZJSY 190800Z AUTO 14008KT 7SM 29/23 A2985 RMK T02900230 IEM_DS3505
ZJSY,2006-11-19 09:00,ZJSY 190900Z AUTO 13006KT 6SM 29/22 A2985 RMK T02900220 IEM_DS3505
ZJSY,2006-11-19 10:00,ZJSY 191000Z AUTO 08012KT 6SM 27/21 A2988 RMK T02700210 IEM_DS3505
ZJSY,2006-11-19 11:00,ZJSY 191100Z AUTO 08010KT 6SM 26/22 A2991 RMK T02600220 IEM_DS3505
ZJSY,2006-11-19 12:00,ZJSY 191200Z 08004MPS CAVOK 25/22 Q1013 NOSIG
ZJSY,2006-11-19 13:00,ZJSY 191300Z AUTO 08006KT 6SM 25/22 A2994 RMK T02500220 IEM_DS3505
ZJSY,2006-11-19 14:00,ZJSY 191400Z AUTO 09004KT 6SM 25/22 A2994 RMK T02500220 IEM_DS3505
ZJSY,2006-11-19 15:00,ZJSY 191500Z AUTO 07004KT 6SM 25/22 A2994 RMK T02500220 IEM_DS3505
ZJSY,2006-11-19 16:00,ZJSY 191600Z AUTO 08004KT 6SM 24/21 A2991 RMK T02400210 IEM_DS3505
ZJSY,2006-11-19 17:00,ZJSY 191700Z AUTO 07006KT 6SM 24/21 A2991 RMK T02400210 IEM_DS3505
ZJSY,2006-11-19 18:00,ZJSY 191800Z AUTO 07006KT 6SM 24/21 A2988 RMK T02400210 IEM_DS3505
ZJSY,2006-11-19 19:00,ZJSY 191900Z AUTO 09004KT 6SM 24/21 A2988 RMK T02400210 IEM_DS3505
ZJSY,2006-11-19 20:00,ZJSY 192000Z AUTO 06006KT 6SM 24/21 A2985 RMK T02400210 IEM_DS3505
ZJSY,2006-11-19 21:00,ZJSY 192100Z AUTO 08004KT 6SM 23/21 A2988 RMK T02300210 IEM_DS3505
ZJSY,2006-11-19 22:00,ZJSY 192200Z AUTO 06006KT 6SM 24/21 A2988 RMK T02400210 IEM_DS3505
ZJSY,2006-11-19 23:00,ZJSY 192300Z AUTO 07004KT 6SM 24/21 A2988 RMK T02400210 IEM_DS3505
ZJSY,2006-11-20 00:00,ZJSY 200000Z AUTO 06008KT 6SM 26/21 A2991 RMK T02600210 IEM_DS3505
ZJSY,2006-11-20 01:00,ZJSY 200100Z AUTO 07010KT 6SM 28/21 A2991 RMK T02800210 IEM_DS3505
ZJSY,2006-11-20 02:00,ZJSY 200200Z AUTO 08010KT 6SM 30/22 A2994 RMK T03000220 IEM_DS3505
ZJSY,2006-11-20 03:00,ZJSY 200300Z AUTO 09008KT 7SM 29/22 A2994 RMK T02900220 IEM_DS3505
ZJSY,2006-11-20 04:00,ZJSY 200400Z AUTO 14008KT 7SM 30/23 A2991 RMK T03000230 IEM_DS3505
ZJSY,2006-11-20 05:00,ZJSY 200500Z AUTO 15008KT 7SM 30/23 A2988 RMK T03000230 IEM_DS3505
ZJSY,2006-11-20 06:00,ZJSY 200600Z AUTO 15006KT 7SM 30/23 A2985 RMK T03000230 IEM_DS3505
ZJSY,2006-11-20 07:00,ZJSY 200700Z AUTO 14010KT 7SM 29/22 A2985 RMK T02900220 IEM_DS3505
ZJSY,2006-11-20 08:00,ZJSY 200800Z AUTO 14006KT 7SM 28/23 A2983 RMK T02800230 IEM_DS3505
ZJSY,2006-11-20 09:00,ZJSY 200900Z 15003MPS 120V200 9999 FEW018 28/23 Q1011 NOSIG
ZJSY,2006-11-20 10:00,ZJSY 201000Z AUTO 14006KT 7SM 27/23 A2985 RMK T02700230 IEM_DS3505
ZJSY,2006-11-20 11:00,ZJSY 201100Z AUTO 10006KT 6SM 27/22 A2985 RMK T02700220 IEM_DS3505
ZJSY,2006-11-20 12:00,ZJSY 201200Z 08004MPS CAVOK 26/23 Q1012 NOSIG
ZJSY,2006-11-20 13:00,ZJSY 201300Z AUTO 09006KT 6SM 26/23 A2991 RMK T02600230 IEM_DS3505
ZJSY,2006-11-20 14:00,ZJSY 201400Z AUTO 06004KT 6SM 25/23 A2991 RMK T02500230 IEM_DS3505
ZJSY,2006-11-20 15:00,ZJSY 201500Z AUTO 08004KT 6SM 25/23 A2991 RMK T02500230 IEM_DS3505
ZJSY,2006-11-20 16:00,ZJSY 201600Z AUTO 08006KT 6SM 25/23 A2988 RMK T02500230 IEM_DS3505
ZJSY,2006-11-20 17:00,ZJSY 201700Z AUTO 08006KT 6SM 24/22 A2988 RMK T02400220 IEM_DS3505
ZJSY,2006-11-20 18:00,ZJSY 201800Z AUTO 07004KT 6SM 24/22 A2988 RMK T02400220 IEM_DS3505
ZJSY,2006-11-20 19:00,ZJSY 201900Z AUTO 08004KT 6SM 25/22 A2985 RMK T02500220 IEM_DS3505
ZJSY,2006-11-20 20:00,ZJSY 202000Z AUTO 07004KT 24/22 A2983 RMK T02400220 IEM_DS3505
ZJSY,2006-11-20 21:00,ZJSY 202100Z AUTO 08004KT 6SM 25/22 A2983 RMK T02500220 IEM_DS3505
ZJSY,2006-11-20 22:00,ZJSY 202200Z AUTO 06006KT 7SM 25/22 A2983 RMK T02500220 IEM_DS3505
ZJSY,2006-11-20 23:00,ZJSY 202300Z AUTO 7SM 25/22 A2985 RMK T02500220 IEM_DS3505
ZJSY,2006-11-21 00:00,ZJSY 210000Z AUTO 07006KT 7SM 26/23 A2985 RMK T02600230 IEM_DS3505
ZJSY,2006-11-21 01:00,ZJSY 210100Z AUTO 06006KT 7SM 26/23 A2988 RMK T02600230 IEM_DS3505
ZJSY,2006-11-21 02:00,ZJSY 210200Z AUTO 12006KT 7SM 28/23 A2988 RMK T02800230 IEM_DS3505
ZJSY,2006-11-21 03:00,ZJSY 210300Z AUTO 14008KT 7SM 29/23 A2988 RMK T02900230 IEM_DS3505
ZJSY,2006-11-21 04:00,ZJSY 210400Z AUTO 15008KT 7SM 29/24 A2983 RMK T02900240 IEM_DS3505
ZJSY,2006-11-21 05:00,ZJSY 210500Z AUTO 14008KT 7SM 29/23 A2983 RMK T02900230 IEM_DS3505
ZJSY,2006-11-21 06:00,ZJSY 210600Z AUTO 16006KT 7SM 29/23 A2980 RMK T02900230 IEM_DS3505
ZJSY,2006-11-21 07:00,ZJSY 210700Z AUTO 18006KT 7SM 29/23 A2977 RMK T02900230 IEM_DS3505
ZJSY,2006-11-21 08:00,ZJSY 210800Z AUTO 17006KT 7SM 28/23 A2974 RMK T02800230 IEM_DS3505
ZJSY,2006-11-21 09:00,ZJSY 210900Z AUTO 16004KT 7SM 27/23 A2977 RMK T02700230 IEM_DS3505
ZJSY,2006-11-21 10:00,ZJSY 211000Z AUTO 17004KT 7SM 27/23 A2977 RMK T02700230 IEM_DS3505
ZJSY,2006-11-21 11:00,ZJSY 211100Z VRB01MPS 9999 SCT016 27/23 Q1009 NOSIG
ZJSY,2006-11-21 12:00,ZJSY 211200Z 08002MPS 9999 SCT016 26/23 Q1009 NOSIG
ZJSY,2006-11-21 13:00,ZJSY 211300Z AUTO 06006KT 7SM 26/23 A2980 RMK T02600230 IEM_DS3505
ZJSY,2006-11-21 14:00,ZJSY 211400Z AUTO 07004KT 7SM 26/23 A2983 RMK T02600230 IEM_DS3505
ZJSY,2006-11-21 15:00,ZJSY 211500Z AUTO 05006KT 7SM 26/22 A2980 RMK T02600220 IEM_DS3505
ZJSY,2006-11-21 16:00,ZJSY 211600Z AUTO 08004KT 7SM 25/22 A2980 RMK T02500220 IEM_DS3505
ZJSY,2006-11-21 17:00,ZJSY 211700Z AUTO 09004KT 7SM 25/23 A2980 RMK T02500230 IEM_DS3505
ZJSY,2006-11-21 18:00,ZJSY 211800Z AUTO 34002KT 7SM 25/23 A2980 RMK T02500230 IEM_DS3505
ZJSY,2006-11-21 19:00,ZJSY 211900Z AUTO 36002KT 7SM 25/23 A2977 RMK T02500230 IEM_DS3505
ZJSY,2006-11-21 20:00,ZJSY 212000Z AUTO 25/22 A2977 RMK T02500220 IEM_DS3505
ZJSY,2006-11-21 21:00,ZJSY 212100Z AUTO 34004KT 7SM 24/22 A2977 RMK T02400220 IEM_DS3505
ZJSY,2006-11-21 22:00,ZJSY 212200Z AUTO 33004KT 7SM 24/22 A2980 RMK T02400220 IEM_DS3505
ZJSY,2006-11-21 23:00,ZJSY 212300Z AUTO 08004KT 7SM 24/22 A2980 RMK T02400220 IEM_DS3505
ZJSY,2006-11-22 00:00,ZJSY 220000Z AUTO 7SM 26/23 A2985 RMK T02600230 IEM_DS3505
ZJSY,2006-11-22 01:00,ZJSY 220100Z AUTO 06002KT 7SM 27/22 A2985 RMK T02700220 IEM_DS3505
ZJSY,2006-11-22 02:00,ZJSY 220200Z AUTO 04004KT 7SM 27/23 A2985 RMK T02700230 IEM_DS3505
ZJSY,2006-11-22 03:00,ZJSY 220300Z AUTO 14004KT 7SM 29/23 A2985 RMK T02900230 IEM_DS3505
ZJSY,2006-11-22 04:00,ZJSY 220400Z AUTO 14006KT 7SM 29/24 A2985 RMK T02900240 IEM_DS3505
ZJSY,2006-11-22 05:00,ZJSY 220500Z AUTO 16006KT 7SM 29/24 A2983 RMK T02900240 IEM_DS3505
ZJSY,2006-11-22 06:00,ZJSY 220600Z AUTO 16008KT 7SM 29/24 A2980 RMK T02900240 IEM_DS3505
ZJSY,2006-11-22 07:00,ZJSY 220700Z AUTO 18006KT 7SM 29/23 A2980 RMK T02900230 IEM_DS3505
ZJSY,2006-11-22 08:00,ZJSY 220800Z AUTO 18004KT 7SM 29/24 A2980 RMK T02900240 IEM_DS3505
ZJSY,2006-11-22 09:00,ZJSY 220900Z AUTO 19004KT 7SM 28/24 A2980 RMK T02800240 IEM_DS3505
ZJSY,2006-11-22 10:00,ZJSY 221000Z AUTO 18004KT 7SM 27/24 A2980 RMK T02700240 IEM_DS3505
ZJSY,2006-11-22 11:00,ZJSY 221100Z VRB01MPS 9999 FEW015 SCT018 27/24 Q1010 NOSIG
ZJSY,2006-11-22 12:00,ZJSY 221200Z VRB01MPS 9999 FEW015 SCT018 27/24 Q1010 NOSIG
ZJSY,2006-11-22 13:00,ZJSY 221300Z AUTO 10004KT 7SM 27/24 A2985 RMK T02700240 IEM_DS3505
ZJSY,2006-11-22 14:00,ZJSY 221400Z AUTO 08006KT 7SM 26/23 A2985 RMK T02600230 IEM_DS3505
ZJSY,2006-11-22 15:00,ZJSY 221500Z AUTO 08012KT 7SM 26/23 A2985 RMK T02600230 IEM_DS3505
ZJSY,2006-11-22 16:00,ZJSY 221600Z AUTO 09006KT 6SM 24/22 A2985 RMK T02400220 IEM_DS3505
ZJSY,2006-11-22 17:00,ZJSY 221700Z AUTO 06004KT 6SM 24/22 A2985 RMK T02400220 IEM_DS3505
ZJSY,2006-11-22 18:00,ZJSY 221800Z AUTO 08006KT 6SM 24/22 A2985 RMK T02400220 IEM_DS3505
ZJSY,2006-11-22 19:00,ZJSY 221900Z AUTO 07008KT 6SM 24/22 A2985 RMK T02400220 IEM_DS3505
ZJSY,2006-11-22 20:00,ZJSY 222000Z AUTO 06006KT 6SM 24/21 A2983 RMK T02400210 IEM_DS3505
ZJSY,2006-11-22 21:00,ZJSY 222100Z AUTO 07002KT 6SM 23/21 A2985 RMK T02300210 IEM_DS3505
ZJSY,2006-11-22 22:00,ZJSY 222200Z AUTO 00000KT 6SM 24/21 A2985 RMK T02400210 IEM_DS3505
ZJSY,2006-11-22 23:00,ZJSY 222300Z AUTO 08006KT 7SM 24/21 A2988 RMK T02400210 IEM_DS3505
ZJSY,2006-11-23 00:00,ZJSY 230000Z AUTO 07006KT 7SM 24/22 A2988 RMK T02400220 IEM_DS3505
ZJSY,2006-11-23 01:00,ZJSY 230100Z AUTO 07006KT 7SM 26/22 A2991 RMK T02600220 IEM_DS3505
ZJSY,2006-11-23 02:00,ZJSY 230200Z AUTO 10006KT 7SM 27/22 A2994 RMK T02700220 IEM_DS3505
ZJSY,2006-11-23 03:00,ZJSY 230300Z AUTO 09006KT 7SM 27/22 A2994 RMK T02700220 IEM_DS3505
ZJSY,2006-11-23 04:00,ZJSY 230400Z AUTO 09008KT 7SM 28/23 A2991 RMK T02800230 IEM_DS3505
ZJSY,2006-11-23 05:00,ZJSY 230500Z AUTO 09010KT 7SM 29/22 A2988 RMK T02900220 IEM_DS3505
ZJSY,2006-11-23 06:00,ZJSY 230600Z AUTO 13008KT 7SM 30/22 A2985 RMK T03000220 IEM_DS3505
ZJSY,2006-11-23 07:00,ZJSY 230700Z AUTO 13006KT 7SM 30/21 A2985 RMK T03000210 IEM_DS3505
ZJSY,2006-11-23 08:00,ZJSY 230800Z AUTO 14008KT 7SM 29/23 A2983 RMK T02900230 IEM_DS3505
ZJSY,2006-11-23 09:00,ZJSY 230900Z AUTO 13006KT 7SM 28/23 A2985 RMK T02800230 IEM_DS3505
ZJSY,2006-11-23 10:00,ZJSY 231000Z AUTO 12006KT 6SM 27/22 A2985 RMK T02700220 IEM_DS3505
ZJSY,2006-11-23 11:00,ZJSY 231100Z AUTO 10004KT 6SM 26/22 A2988 RMK T02600220 IEM_DS3505
ZJSY,2006-11-23 12:00,ZJSY 231200Z 07003MPS CAVOK 25/23 Q1013 NOSIG
ZJSY,2006-11-23 13:00,ZJSY 231300Z AUTO 07006KT 6SM 25/22 A2991 RMK T02500220 IEM_DS3505
ZJSY,2006-11-23 14:00,ZJSY 231400Z AUTO 05006KT 7SM 25/22 A2994 RMK T02500220 IEM_DS3505
ZJSY,2006-11-23 15:00,ZJSY 231500Z AUTO 7SM 25/22 A2994 RMK T02500220 IEM_DS3505
ZJSY,2006-11-23 16:00,ZJSY 231600Z AUTO 06006KT 6SM 25/22 A2994 RMK T02500220 IEM_DS3505
ZJSY,2006-11-23 17:00,ZJSY 231700Z AUTO 07004KT 6SM 24/22 A2991 RMK T02400220 IEM_DS3505
ZJSY,2006-11-23 18:00,ZJSY 231800Z AUTO 09004KT 6SM 24/22 A2991 RMK T02400220 IEM_DS3505
ZJSY,2006-11-23 19:00,ZJSY 231900Z AUTO 10002KT 6SM 24/22 A2991 RMK T02400220 IEM_DS3505
ZJSY,2006-11-23 20:00,ZJSY 232000Z AUTO 08004KT 24/22 A2988 RMK T02400220 IEM_DS3505
ZJSY,2006-11-23 21:00,ZJSY 232100Z AUTO 03004KT 6SM 24/22 A2988 RMK T02400220 IEM_DS3505
ZJSY,2006-11-23 22:00,ZJSY 232200Z AUTO 35002KT 6SM 23/21 A2991 RMK T02300210 IEM_DS3505
ZJSY,2006-11-23 23:00,ZJSY 232300Z 00000MPS 9999 FEW018 23/21 Q1013 NOSIG
ZJSY,2006-11-24 00:00,ZJSY 240000Z 07003MPS CAVOK 25/22 Q1013 NOSIG
ZJSY,2006-11-24 01:00,ZJSY 240100Z AUTO 08008KT 6SM 28/22 A2994 RMK T02800220 IEM_DS3505
ZJSY,2006-11-24 02:00,ZJSY 240200Z AUTO 10008KT 7SM 29/22 A2994 RMK T02900220 IEM_DS3505
ZJSY,2006-11-24 03:00,ZJSY 240300Z AUTO 12006KT 7SM 30/22 A2994 RMK T03000220 IEM_DS3505
ZJSY,2006-11-24 04:00,ZJSY 240400Z AUTO 11008KT 7SM 30/23 A2994 RMK T03000230 IEM_DS3505
ZJSY,2006-11-24 05:00,ZJSY 240500Z AUTO 14008KT 7SM 29/23 A2991 RMK T02900230 IEM_DS3505
ZJSY,2006-11-24 06:00,ZJSY 240600Z AUTO 15008KT 7SM 29/23 A2988 RMK T02900230 IEM_DS3505
ZJSY,2006-11-24 07:00,ZJSY 240700Z AUTO 14008KT 7SM 29/22 A2988 RMK T02900220 IEM_DS3505
ZJSY,2006-11-24 08:00,ZJSY 240800Z AUTO 14008KT 7SM 28/22 A2988 RMK T02800220 IEM_DS3505
ZJSY,2006-11-24 09:00,ZJSY 240900Z AUTO 15008KT 7SM 28/21 A2988 RMK T02800210 IEM_DS3505
ZJSY,2006-11-24 10:00,ZJSY 241000Z AUTO 14006KT 6SM 28/22 A2988 RMK T02800220 IEM_DS3505
ZJSY,2006-11-24 11:00,ZJSY 241100Z 09003MPS CAVOK 27/21 Q1013 NOSIG
ZJSY,2006-11-24 12:00,ZJSY 241200Z 07003MPS CAVOK 26/22 Q1013 NOSIG
ZJSY,2006-11-24 13:00,ZJSY 241300Z AUTO 06006KT 6SM 26/22 A2991 RMK T02600220 IEM_DS3505
ZJSY,2006-11-24 14:00,ZJSY 241400Z AUTO 09004KT 6SM 25/22 A2994 RMK T02500220 IEM_DS3505
ZJSY,2006-11-24 15:00,ZJSY 241500Z AUTO 04004KT 6SM 25/21 A2994 RMK T02500210 IEM_DS3505
ZJSY,2006-11-24 16:00,ZJSY 241600Z AUTO 08006KT 6SM 24/21 A2991 RMK T02400210 IEM_DS3505
ZJSY,2006-11-24 17:00,ZJSY 241700Z AUTO 06004KT 6SM 24/21 A2991 RMK T02400210 IEM_DS3505
ZJSY,2006-11-24 18:00,ZJSY 241800Z AUTO 02002KT 6SM 23/21 A2991 RMK T02300210 IEM_DS3505
ZJSY,2006-11-24 19:00,ZJSY 241900Z AUTO 34004KT 6SM 23/20 A2988 RMK T02300200 IEM_DS3505
ZJSY,2006-11-24 20:00,ZJSY 242000Z AUTO 34002KT 6SM 23/21 A2988 RMK T02300210 IEM_DS3505
ZJSY,2006-11-24 21:00,ZJSY 242100Z AUTO 35002KT 6SM 23/21 A2988 RMK T02300210 IEM_DS3505
ZJSY,2006-11-24 22:00,ZJSY 242200Z AUTO 34004KT 6SM 23/20 A2988 RMK T02300200 IEM_DS3505
ZJSY,2006-11-24 23:00,ZJSY 242300Z AUTO 02002KT 6SM 22/20 A2991 RMK T02200200 IEM_DS3505
ZJSY,2006-11-25 00:00,ZJSY 250000Z AUTO 00000KT 6SM 25/22 A2991 RMK T02500220 IEM_DS3505
ZJSY,2006-11-25 01:00,ZJSY 250100Z AUTO 07008KT 6SM 28/22 A2994 RMK T02800220 IEM_DS3505
ZJSY,2006-11-25 02:00,ZJSY 250200Z AUTO 09006KT 7SM 29/23 A2994 RMK T02900230 IEM_DS3505
ZJSY,2006-11-25 03:00,ZJSY 250300Z AUTO 16006KT 7SM 29/23 A2994 RMK T02900230 IEM_DS3505
ZJSY,2006-11-25 04:00,ZJSY 250400Z AUTO 16006KT 7SM 29/23 A2991 RMK T02900230 IEM_DS3505
ZJSY,2006-11-25 05:00,ZJSY 250500Z AUTO 16010KT 7SM 29/23 A2988 RMK T02900230 IEM_DS3505
ZJSY,2006-11-25 06:00,ZJSY 250600Z AUTO 16008KT 7SM 28/24 A2985 RMK T02800240 IEM_DS3505
ZJSY,2006-11-25 07:00,ZJSY 250700Z AUTO 16008KT 7SM 29/24 A2985 RMK T02900240 IEM_DS3505
ZJSY,2006-11-25 08:00,ZJSY 250800Z AUTO 17006KT 7SM 28/23 A2983 RMK T02800230 IEM_DS3505
ZJSY,2006-11-25 09:00,ZJSY 250900Z AUTO 15004KT 7SM 28/23 A2983 RMK T02800230 IEM_DS3505
ZJSY,2006-11-25 10:00,ZJSY 251000Z AUTO 15004KT 7SM 27/23 A2985 RMK T02700230 IEM_DS3505
ZJSY,2006-11-25 11:00,ZJSY 251100Z VRB01MPS 9999 FEW020 26/23 Q1011 NOSIG
ZJSY,2006-11-25 12:00,ZJSY 251200Z 08002MPS 060V140 9999 FEW020 26/23 Q1011 NOSIG
ZJSY,2006-11-25 13:00,ZJSY 251300Z AUTO 07006KT 6SM 25/23 A2985 RMK T02500230 IEM_DS3505
ZJSY,2006-11-25 14:00,ZJSY 251400Z AUTO 06006KT 6SM 25/22 A2988 RMK T02500220 IEM_DS3505
ZJSY,2006-11-25 15:00,ZJSY 251500Z AUTO 08004KT 6SM 24/22 A2985 RMK T02400220 IEM_DS3505
ZJSY,2006-11-25 16:00,ZJSY 251600Z AUTO 05006KT 6SM 25/22 A2985 RMK T02500220 IEM_DS3505
ZJSY,2006-11-25 17:00,ZJSY 251700Z AUTO 06004KT 6SM 24/22 A2985 RMK T02400220 IEM_DS3505
ZJSY,2006-11-25 18:00,ZJSY 251800Z AUTO 00000KT 6SM 23/21 A2985 RMK T02300210 IEM_DS3505
ZJSY,2006-11-25 19:00,ZJSY 251900Z AUTO 00000KT 6SM 23/21 A2983 RMK T02300210 IEM_DS3505
ZJSY,2006-11-25 20:00,ZJSY 252000Z AUTO 01002KT 6SM 23/21 A2983 RMK T02300210 IEM_DS3505
ZJSY,2006-11-25 21:00,ZJSY 252100Z AUTO 35002KT 6SM 22/21 A2983 RMK T02200210 IEM_DS3505
ZJSY,2006-11-25 22:00,ZJSY 252200Z AUTO 00000KT 6SM 22/21 A2983 RMK T02200210 IEM_DS3505
ZJSY,2006-11-25 23:00,ZJSY 252300Z AUTO 00000KT 7SM 22/21 A2985 RMK T02200210 IEM_DS3505
ZJSY,2006-11-26 00:00,ZJSY 260000Z AUTO 00000KT 7SM 24/22 A2985 RMK T02400220 IEM_DS3505
ZJSY,2006-11-26 01:00,ZJSY 260100Z AUTO 08006KT 7SM 27/22 A2988 RMK T02700220 IEM_DS3505
ZJSY,2006-11-26 02:00,ZJSY 260200Z AUTO 7SM 28/22 A2988 RMK T02800220 IEM_DS3505
ZJSY,2006-11-26 03:00,ZJSY 260300Z AUTO 14004KT 7SM 29/22 A2985 RMK T02900220 IEM_DS3505
ZJSY,2006-11-26 04:00,ZJSY 260400Z AUTO 15004KT 6SM 29/23 A2985 RMK T02900230 IEM_DS3505
ZJSY,2006-11-26 05:00,ZJSY 260500Z AUTO 18004KT 6SM 29/23 A2983 RMK T02900230 IEM_DS3505
ZJSY,2006-11-26 06:00,ZJSY 260600Z AUTO 19004KT 7SM 29/23 A2980 RMK T02900230 IEM_DS3505
ZJSY,2006-11-26 07:00,ZJSY 260700Z AUTO 20004KT 7SM 28/23 A2977 RMK T02800230 IEM_DS3505
ZJSY,2006-11-26 08:00,ZJSY 260800Z AUTO 19004KT 6SM 28/22 A2977 RMK T02800220 IEM_DS3505
ZJSY,2006-11-26 09:00,ZJSY 260900Z AUTO 16004KT 7SM 28/22 A2977 RMK T02800220 IEM_DS3505
ZJSY,2006-11-26 10:00,ZJSY 261000Z AUTO 7SM 27/23 A2977 RMK T02700230 IEM_DS3505
ZJSY,2006-11-26 11:00,ZJSY 261100Z VRB01MPS 9999 FEW016 26/23 Q1009 NOSIG
ZJSY,2006-11-26 12:00,ZJSY 261200Z 06002MPS 9999 FEW016 26/22 Q1009 NOSIG
ZJSY,2006-11-26 13:00,ZJSY 261300Z AUTO 00000KT 7SM 25/22 A2983 RMK T02500220 IEM_DS3505
ZJSY,2006-11-26 14:00,ZJSY 261400Z VRB01MPS CAVOK 24/22 Q1010 NOSIG
ZJSY,2006-11-26 15:00,ZJSY 261500Z AUTO 6SM 24/22 A2985 RMK T02400220 IEM_DS3505
ZJSY,2006-11-26 16:00,ZJSY 261600Z AUTO 00000KT 6SM 23/21 A2983 RMK T02300210 IEM_DS3505
ZJSY,2006-11-26 17:00,ZJSY 261700Z AUTO 00000KT 6SM 23/21 A2983 RMK T02300210 IEM_DS3505
ZJSY,2006-11-26 18:00,ZJSY 261800Z AUTO 00000KT 6SM 24/22 A2983 RMK T02400220 IEM_DS3505
ZJSY,2006-11-26 19:00,ZJSY 261900Z AUTO 36002KT 7SM 24/22 A2980 RMK T02400220 IEM_DS3505
ZJSY,2006-11-26 20:00,ZJSY 262000Z AUTO 7SM 24/22 A2980 RMK T02400220 IEM_DS3505
ZJSY,2006-11-26 21:00,ZJSY 262100Z AUTO 34004KT 7SM 24/22 A2980 RMK T02400220 IEM_DS3505
ZJSY,2006-11-26 22:00,ZJSY 262200Z AUTO 36002KT 7SM 24/22 A2980 RMK T02400220 IEM_DS3505
ZJSY,2006-11-26 23:00,ZJSY 262300Z AUTO 34004KT 7SM 23/21 A2983 RMK T02300210 IEM_DS3505
ZJSY,2006-11-27 00:00,ZJSY 270000Z AUTO 7SM 25/23 A2985 RMK T02500230 IEM_DS3505
ZJSY,2006-11-27 01:00,ZJSY 270100Z AUTO 7SM 28/23 A2985 RMK T02800230 IEM_DS3505
ZJSY,2006-11-27 02:00,ZJSY 270200Z AUTO 7SM 28/23 A2988 RMK T02800230 IEM_DS3505
ZJSY,2006-11-27 03:00,ZJSY 270300Z AUTO 17004KT 7SM 29/22 A2985 RMK T02900220 IEM_DS3505
ZJSY,2006-11-27 04:00,ZJSY 270400Z AUTO 7SM 29/23 A2985 RMK T02900230 IEM_DS3505
ZJSY,2006-11-27 05:00,ZJSY 270500Z AUTO 17004KT 7SM 29/22 A2983 RMK T02900220 IEM_DS3505
ZJSY,2006-11-27 06:00,ZJSY 270600Z AUTO 18004KT 7SM 29/23 A2980 RMK T02900230 IEM_DS3505
ZJSY,2006-11-27 07:00,ZJSY 270700Z AUTO 16004KT 7SM 29/23 A2980 RMK T02900230 IEM_DS3505
ZJSY,2006-11-27 08:00,ZJSY 270800Z AUTO 17004KT 7SM 29/23 A2980 RMK T02900230 IEM_DS3505
ZJSY,2006-11-27 09:00,ZJSY 270900Z AUTO 17004KT 7SM 28/23 A2980 RMK T02800230 IEM_DS3505
ZJSY,2006-11-27 10:00,ZJSY 271000Z AUTO 7SM 27/23 A2983 RMK T02700230 IEM_DS3505
ZJSY,2006-11-27 11:00,ZJSY 271100Z VRB01MPS 9999 FEW016 27/23 Q1010 NOSIG
ZJSY,2006-11-27 12:00,ZJSY 271200Z 11002MPS 9999 FEW016 26/23 Q1011 NOSIG
ZJSY,2006-11-27 13:00,ZJSY 271300Z AUTO 06006KT 7SM 26/23 A2988 RMK T02600230 IEM_DS3505
ZJSY,2006-11-27 14:00,ZJSY 271400Z AUTO 06004KT 7SM 25/22 A2988 RMK T02500220 IEM_DS3505
ZJSY,2006-11-27 15:00,ZJSY 271500Z AUTO 00000KT 7SM 25/22 A2988 RMK T02500220 IEM_DS3505
ZJSY,2006-11-27 16:00,ZJSY 271600Z AUTO 7SM 24/22 A2988 RMK T02400220 IEM_DS3505
ZJSY,2006-11-27 17:00,ZJSY 271700Z AUTO 7SM 24/22 A2988 RMK T02400220 IEM_DS3505
ZJSY,2006-11-27 18:00,ZJSY 271800Z AUTO 34004KT 7SM 24/22 A2985 RMK T02400220 IEM_DS3505
ZJSY,2006-11-27 19:00,ZJSY 271900Z AUTO 34004KT 7SM 24/22 A2985 RMK T02400220 IEM_DS3505
ZJSY,2006-11-27 20:00,ZJSY 272000Z AUTO 00000KT 23/22 A2985 RMK T02300220 IEM_DS3505
ZJSY,2006-11-27 21:00,ZJSY 272100Z AUTO 00000MPS //// // ////// 23/22 Q1011
ZJSY,2006-11-27 22:00,ZJSY 272200Z AUTO 00000KT 7SM 23/22 A2985 RMK T02300220 IEM_DS3505
ZJSY,2006-11-27 23:00,ZJSY 272300Z AUTO 36002KT 7SM 24/22 A2988 RMK T02400220 IEM_DS3505
ZJSY,2006-11-28 00:00,ZJSY 280000Z AUTO 7SM 25/22 A2988 RMK T02500220 IEM_DS3505
ZJSY,2006-11-28 01:00,ZJSY 280100Z AUTO 06006KT 6SM 28/23 A2991 RMK T02800230 IEM_DS3505
ZJSY,2006-11-28 02:00,ZJSY 280200Z AUTO 10006KT 7SM 29/22 A2991 RMK T02900220 IEM_DS3505
ZJSY,2006-11-28 03:00,ZJSY 280300Z AUTO 14006KT 7SM 29/23 A2991 RMK T02900230 IEM_DS3505
ZJSY,2006-11-28 04:00,ZJSY 280400Z AUTO 16006KT 7SM 28/23 A2988 RMK T02800230 IEM_DS3505
ZJSY,2006-11-28 05:00,ZJSY 280500Z AUTO 15008KT 7SM 28/23 A2988 RMK T02800230 IEM_DS3505
ZJSY,2006-11-28 06:00,ZJSY 280600Z AUTO 14010KT 7SM 29/23 A2985 RMK T02900230 IEM_DS3505
ZJSY,2006-11-28 07:00,ZJSY 280700Z AUTO 15008KT 7SM 28/23 A2983 RMK T02800230 IEM_DS3505
ZJSY,2006-11-28 08:00,ZJSY 280800Z AUTO 14008KT 7SM 28/23 A2985 RMK T02800230 IEM_DS3505
ZJSY,2006-11-28 09:00,ZJSY 280900Z AUTO 14008KT 7SM 28/23 A2985 RMK T02800230 IEM_DS3505
ZJSY,2006-11-28 10:00,ZJSY 281000Z AUTO 14006KT 7SM 27/23 A2988 RMK T02700230 IEM_DS3505
ZJSY,2006-11-28 11:00,ZJSY 281100Z 09003MPS 9999 SCT016 27/22 Q1012 NOSIG
ZJSY,2006-11-28 12:00,ZJSY 281200Z 06004MPS 9999 SCT016 26/23 Q1013 NOSIG
ZJSY,2006-11-28 13:00,ZJSY 281300Z AUTO 06006KT 7SM 26/22 A2991 RMK T02600220 IEM_DS3505
ZJSY,2006-11-28 14:00,ZJSY 281400Z AUTO 06004KT 7SM 26/22 A2994 RMK T02600220 IEM_DS3505
ZJSY,2006-11-28 15:00,ZJSY 281500Z AUTO 08004KT 7SM 25/22 A2994 RMK T02500220 IEM_DS3505
ZJSY,2006-11-28 16:00,ZJSY 281600Z 08002MPS CAVOK 25/22 Q1014 NOSIG
ZJSY,2006-11-28 17:00,ZJSY 281700Z AUTO 08006KT 6SM 24/22 A2991 RMK T02400220 IEM_DS3505
ZJSY,2006-11-28 18:00,ZJSY 281800Z AUTO 07006KT 6SM 24/22 A2991 RMK T02400220 IEM_DS3505
ZJSY,2006-11-28 19:00,ZJSY 281900Z AUTO 05006KT 6SM 25/22 A2991 RMK T02500220 IEM_DS3505
ZJSY,2006-11-28 20:00,ZJSY 282000Z AUTO 00000KT 24/21 A2991 RMK T02400210 IEM_DS3505
ZJSY,2006-11-28 21:00,ZJSY 282100Z AUTO 00000KT 6SM 24/21 A2991 RMK T02400210 IEM_DS3505
ZJSY,2006-11-28 22:00,ZJSY 282200Z AUTO 35002KT 6SM 24/21 A2994 RMK T02400210 IEM_DS3505
ZJSY,2006-11-28 23:00,ZJSY 282300Z 00000MPS 9999 BKN053 25/22 Q1014 NOSIG
ZJSY,2006-11-29 00:00,ZJSY 290000Z AUTO 12002KT 7SM 25/22 A2997 RMK T02500220 IEM_DS3505
ZJSY,2006-11-29 01:00,ZJSY 290100Z AUTO 08006KT 6SM 28/22 A2997 RMK T02800220 IEM_DS3505
ZJSY,2006-11-29 02:00,ZJSY 290200Z AUTO 07008KT 7SM 29/22 A3000 RMK T02900220 IEM_DS3505
ZJSY,2006-11-29 03:00,ZJSY 290300Z AUTO 13006KT 7SM 29/22 A2997 RMK T02900220 IEM_DS3505
ZJSY,2006-11-29 04:00,ZJSY 290400Z AUTO 16006KT 7SM 30/22 A2997 RMK T03000220 IEM_DS3505
ZJSY,2006-11-29 05:00,ZJSY 290500Z AUTO 16008KT 7SM 29/23 A2991 RMK T02900230 IEM_DS3505
ZJSY,2006-11-29 06:00,ZJSY 290600Z AUTO 16008KT 7SM 28/23 A2988 RMK T02800230 IEM_DS3505
ZJSY,2006-11-29 07:00,ZJSY 290700Z AUTO 18006KT 7SM 28/23 A2988 RMK T02800230 IEM_DS3505
ZJSY,2006-11-29 08:00,ZJSY 290800Z AUTO 17004KT 7SM 28/23 A2985 RMK T02800230 IEM_DS3505
ZJSY,2006-11-29 09:00,ZJSY 290900Z AUTO 18004KT 7SM 27/23 A2988 RMK T02700230 IEM_DS3505
ZJSY,2006-11-29 10:00,ZJSY 291000Z AUTO 16004KT 7SM 27/23 A2988 RMK T02700230 IEM_DS3505
ZJSY,2006-11-29 11:00,ZJSY 291100Z 15002MPS 110V210 9999 BKN018 BKN043 27/23 Q1013 NOSIG
ZJSY,2006-11-29 12:00,ZJSY 291200Z 06002MPS 030V100 9999 BKN018 FEW026TCU 26/23 Q1013 NOSIG
ZJSY,2006-11-29 13:00,ZJSY 291300Z AUTO 7SM 26/23 A2994 RMK T02600230 IEM_DS3505
ZJSY,2006-11-29 14:00,ZJSY 291400Z AUTO 36004KT 3SM 24/23 A2994 RMK T02400230 IEM_DS3505
ZJSY,2006-11-29 15:00,ZJSY 291500Z AUTO 7SM 24/23 A2997 RMK T02400230 IEM_DS3505
ZJSY,2006-11-29 16:00,ZJSY 291600Z AUTO 08006KT 7SM 24/22 A2994 RMK T02400220 IEM_DS3505
ZJSY,2006-11-29 17:00,ZJSY 291700Z 35001MPS 9999 SCT018 BKN043 24/22 Q1014 NOSIG
ZJSY,2006-11-29 19:00,ZJSY 291900Z AUTO 08006KT 7SM 24/22 A2991 RMK T02400220 IEM_DS3505
ZJSY,2006-11-29 20:00,ZJSY 292000Z AUTO 07010KT 23/22 A2991 RMK T02300220 IEM_DS3505
ZJSY,2006-11-29 21:00,ZJSY 292100Z AUTO 07004KT 2SM 23/22 A2991 RMK T02300220 IEM_DS3505
ZJSY,2006-11-29 22:00,ZJSY 292200Z AUTO 2SM 23/22 A2991 RMK T02300220 IEM_DS3505
ZJSY,2006-11-29 23:00,ZJSY 292300Z AUTO 11002KT 7SM 23/22 A2994 RMK T02300220 IEM_DS3505
ZJSY,2006-11-30 00:00,ZJSY 300000Z AUTO 10002KT 7SM 24/22 A2994 RMK T02400220 IEM_DS3505
ZJSY,2006-11-30 01:00,ZJSY 300100Z AUTO 10002KT 7SM 25/22 A2997 RMK T02500220 IEM_DS3505
ZJSY,2006-11-30 02:00,ZJSY 300200Z AUTO 11004KT 7SM 27/23 A2997 RMK T02700230 IEM_DS3505
ZJSY,2006-11-30 03:00,ZJSY 300300Z AUTO 07012KT 7SM 29/22 A2994 RMK T02900220 IEM_DS3505
ZJSY,2006-11-30 04:00,ZJSY 300400Z AUTO 07014KT 7SM 30/22 A2991 RMK T03000220 IEM_DS3505
ZJSY,2006-11-30 05:00,ZJSY 300500Z AUTO 06012KT 7SM 30/22 A2991 RMK T03000220 IEM_DS3505
ZJSY,2006-11-30 06:00,ZJSY 300600Z AUTO 08012KT 7SM 29/22 A2988 RMK T02900220 IEM_DS3505
ZJSY,2006-11-30 07:00,ZJSY 300700Z 08007MPS 9999 SCT016 29/21 Q1011 NOSIG
ZJSY,2006-11-30 08:00,ZJSY 300800Z 08008MPS 9999 FEW016 28/21 Q1011 NOSIG
ZJSY,2006-11-30 09:00,ZJSY 300900Z AUTO 08014KT 7SM 28/21 A2985 RMK T02800210 IEM_DS3505
ZJSY,2006-11-30 10:00,ZJSY 301000Z AUTO 08012KT 7SM 26/21 A2988 RMK T02600210 IEM_DS3505
ZJSY,2006-11-30 11:00,ZJSY 301100Z 07004MPS 9999 FEW018 25/21 Q1013 NOSIG
ZJSY,2006-11-30 12:00,ZJSY 301200Z 07004MPS CAVOK 25/21 Q1013 NOSIG
ZJSY,2006-11-30 13:00,ZJSY 301300Z AUTO 09004KT 6SM 25/21 A2994 RMK T02500210 IEM_DS3505
ZJSY,2006-11-30 14:00,ZJSY 301400Z AUTO 00000KT 6SM 24/21 A2994 RMK T02400210 IEM_DS3505
ZJSY,2006-11-30 15:00,ZJSY 301500Z AUTO 07006KT 6SM 25/21 A2994 RMK T02500210 IEM_DS3505
ZJSY,2006-11-30 16:00,ZJSY 301600Z AUTO 09004KT 7SM 25/21 A2994 RMK T02500210 IEM_DS3505
ZJSY,2006-11-30 17:00,ZJSY 301700Z AUTO 08006KT 7SM 25/21 A2994 RMK T02500210 IEM_DS3505
ZJSY,2006-11-30 18:00,ZJSY 301800Z AUTO 11004KT 7SM 24/22 A2991 RMK T02400220 IEM_DS3505
ZJSY,2006-11-30 19:00,ZJSY 301900Z AUTO 10004KT 7SM 24/21 A2991 RMK T02400210 IEM_DS3505
ZJSY,2006-11-30 20:00,ZJSY 302000Z AUTO 08006KT 7SM 24/22 A2988 RMK T02400220 IEM_DS3505
ZJSY,2006-11-30 21:00,ZJSY 302100Z AUTO 08008KT 7SM 24/22 A2991 RMK T02400220 IEM_DS3505
ZJSY,2006-11-30 22:00,ZJSY 302200Z AUTO 10004KT 7SM 24/22 A2991 RMK T02400220 IEM_DS3505
ZJSY,2006-11-30 23:00,ZJSY 302300Z AUTO 08004KT 7SM 24/22 A2991 RMK T02400220 IEM_DS3505
ZJSY,2006-12-01 00:00,ZJSY 010000Z AUTO 08006KT 7SM 25/22 A2994 RMK T02500220 IEM_DS3505
ZJSY,2006-12-01 01:00,ZJSY 010100Z AUTO 08006KT 7SM 26/22 A2997 RMK T02600220 IEM_DS3505
ZJSY,2006-12-01 02:00,ZJSY 010200Z AUTO 08012KT 7SM 26/21 A2997 RMK T02600210 IEM_DS3505
ZJSY,2006-12-01 03:00,ZJSY 010300Z AUTO 06012KT 7SM 27/21 A2994 RMK T02700210 IEM_DS3505
ZJSY,2006-12-01 04:00,ZJSY 010400Z AUTO 07014KT 7SM 28/21 A2994 RMK T02800210 IEM_DS3505
ZJSY,2006-12-01 05:00,ZJSY 010500Z AUTO 08012KT 7SM 28/21 A2991 RMK T02800210 IEM_DS3505
ZJSY,2006-12-01 06:00,ZJSY 010600Z AUTO 09014KT 7SM 27/20 A2988 RMK T02700200 IEM_DS3505
ZJSY,2006-12-01 07:00,ZJSY 010700Z 07007MPS 050V110 9999 SCT016 BKN050 29/21 Q1011 NOSIG
ZJSY,2006-12-01 08:00,ZJSY 010800Z 09006MPS 9999 SCT016 27/20 Q1011 NOSIG
ZJSY,2006-12-01 09:00,ZJSY 010900Z AUTO 08014KT 7SM 26/20 A2985 RMK T02600200 IEM_DS3505
ZJSY,2006-12-01 10:00,ZJSY 011000Z AUTO 07014KT 7SM 25/20 A2988 RMK T02500200 IEM_DS3505
ZJSY,2006-12-01 11:00,ZJSY 011100Z AUTO 09010KT 7SM 25/20 A2991 RMK T02500200 IEM_DS3505
ZJSY,2006-12-01 12:00,ZJSY 011200Z 08005MPS 9999 FEW016 BKN066 24/20 Q1014 NOSIG
ZJSY,2006-12-01 13:00,ZJSY 011300Z AUTO 07006KT 7SM 24/20 A2994 RMK T02400200 IEM_DS3505
ZJSY,2006-12-01 14:00,ZJSY 011400Z AUTO 06008KT 7SM 25/19 A2997 RMK T02500190 IEM_DS3505
ZJSY,2006-12-01 15:00,ZJSY 011500Z AUTO 05012KT 7SM 25/19 A2994 RMK T02500190 IEM_DS3505
ZJSY,2006-12-01 16:00,ZJSY 011600Z AUTO 05012KT 7SM 25/19 A2994 RMK T02500190 IEM_DS3505
ZJSY,2006-12-01 17:00,ZJSY 011700Z AUTO 05012KT 7SM 25/19 A2994 RMK T02500190 IEM_DS3505
ZJSY,2006-12-01 18:00,ZJSY 011800Z AUTO 05012KT 7SM 25/19 A2991 RMK T02500190 IEM_DS3505
ZJSY,2006-12-01 19:00,ZJSY 011900Z AUTO 05006KT 7SM 24/19 A2991 RMK T02400190 IEM_DS3505
ZJSY,2006-12-01 20:00,ZJSY 012000Z AUTO 10006KT 24/19 A2988 RMK T02400190 IEM_DS3505
ZJSY,2006-12-01 21:00,ZJSY 012100Z AUTO 10004KT 7SM 24/19 A2991 RMK T02400190 IEM_DS3505
ZJSY,2006-12-01 22:00,ZJSY 012200Z AUTO 08004KT 7SM 24/19 A2991 RMK T02400190 IEM_DS3505
ZJSY,2006-12-01 23:00,ZJSY 012300Z AUTO 10006KT 7SM 23/19 A2994 RMK T02300190 IEM_DS3505
ZJSY,2006-12-02 00:00,ZJSY 020000Z AUTO 09006KT 7SM 24/19 A2997 RMK T02400190 IEM_DS3505
ZJSY,2006-12-02 01:00,ZJSY 020100Z AUTO 06008KT 7SM 25/19 A2997 RMK T02500190 IEM_DS3505
ZJSY,2006-12-02 02:00,ZJSY 020200Z AUTO 05014KT 7SM 26/19 A3000 RMK T02600190 IEM_DS3505
ZJSY,2006-12-02 03:00,ZJSY 020300Z AUTO 04014KT 7SM 27/19 A3000 RMK T02700190 IEM_DS3505
ZJSY,2006-12-02 04:00,ZJSY 020400Z AUTO 05012KT 7SM 27/19 A2997 RMK T02700190 IEM_DS3505
ZJSY,2006-12-02 05:00,ZJSY 020500Z AUTO 05016KT 7SM 28/19 A2994 RMK T02800190 IEM_DS3505
ZJSY,2006-12-02 06:00,ZJSY 020600Z AUTO 06014KT 7SM 27/18 A2991 RMK T02700180 IEM_DS3505
ZJSY,2006-12-02 07:00,ZJSY 020700Z AUTO 07012KT 7SM 26/19 A2991 RMK T02600190 IEM_DS3505
ZJSY,2006-12-02 08:00,ZJSY 020800Z AUTO 05010KT 4SM 26/18 A2991 RMK T02600180 IEM_DS3505
ZJSY,2006-12-02 09:00,ZJSY 020900Z AUTO 05010KT 4SM 25/18 A2991 RMK T02500180 IEM_DS3505
ZJSY,2006-12-02 10:00,ZJSY 021000Z AUTO 07006KT 4SM 24/19 A2994 RMK T02400190 IEM_DS3505
ZJSY,2006-12-02 11:00,ZJSY 021100Z 09004MPS 6000 FEW016 SCT033 BKN050 24/18 Q1014 NOSIG
ZJSY,2006-12-02 12:00,ZJSY 021200Z 09005MPS 6000 FEW016 SCT033 BKN050 23/17 Q1015 NOSIG
ZJSY,2006-12-02 13:00,ZJSY 021300Z AUTO 06006KT 6SM 23/17 A3000 RMK T02300170 IEM_DS3505
ZJSY,2006-12-02 14:00,ZJSY 021400Z AUTO 07006KT 6SM 22/17 A3000 RMK T02200170 IEM_DS3505
ZJSY,2006-12-02 15:00,ZJSY 021500Z AUTO 05008KT 6SM 22/17 A3000 RMK T02200170 IEM_DS3505
ZJSY,2006-12-02 16:00,ZJSY 021600Z AUTO 04006KT 6SM 22/17 A3000 RMK T02200170 IEM_DS3505
ZJSY,2006-12-02 17:00,ZJSY 021700Z AUTO 07006KT 6SM 22/16 A3000 RMK T02200160 IEM_DS3505
ZJSY,2006-12-02 18:00,ZJSY 021800Z AUTO 36004KT 6SM 22/16 A2997 RMK T02200160 IEM_DS3505
ZJSY,2006-12-02 19:00,ZJSY 021900Z AUTO 6SM 21/16 A2997 RMK T02100160 IEM_DS3505
ZJSY,2006-12-02 20:00,ZJSY 022000Z VRB02MPS CAVOK 19/17 Q1014 NOSIG
ZJSY,2006-12-02 21:00,ZJSY 022100Z AUTO 00000KT 6SM 20/17 A2997 RMK T02000170 IEM_DS3505
ZJSY,2006-12-02 22:00,ZJSY 022200Z AUTO 33006KT 6SM 19/17 A2997 RMK T01900170 IEM_DS3505
ZJSY,2006-12-02 23:00,ZJSY 022300Z AUTO 6SM 20/17 A3000 RMK T02000170 IEM_DS3505
ZJSY,2006-12-03 00:00,ZJSY 030000Z AUTO 6SM 22/17 A3003 RMK T02200170 IEM_DS3505
ZJSY,2006-12-03 01:00,ZJSY 030100Z AUTO 05008KT 6SM 25/17 A3006 RMK T02500170 IEM_DS3505
ZJSY,2006-12-03 02:00,ZJSY 030200Z AUTO 06012KT 6SM 26/17 A3006 RMK T02600170 IEM_DS3505
ZJSY,2006-12-03 03:00,ZJSY 030300Z AUTO 07008KT 6SM 28/17 A3003 RMK T02800170 IEM_DS3505
ZJSY,2006-12-03 04:00,ZJSY 030400Z AUTO 06012KT 6SM 28/17 A3003 RMK T02800170 IEM_DS3505
ZJSY,2006-12-03 05:00,ZJSY 030500Z AUTO 05012KT 6SM 29/17 A3000 RMK T02900170 IEM_DS3505
ZJSY,2006-12-03 06:00,ZJSY 030600Z AUTO 06017KT 7SM 29/17 A2997 RMK T02900170 IEM_DS3505
ZJSY,2006-12-03 07:00,ZJSY 030700Z AUTO 06016KT 6SM 29/17 A2997 RMK T02900170 IEM_DS3505
ZJSY,2006-12-03 08:00,ZJSY 030800Z AUTO 05012KT 6SM 28/17 A2997 RMK T02800170 IEM_DS3505
ZJSY,2006-12-03 09:00,ZJSY 030900Z AUTO 07010KT 7SM 27/17 A2997 RMK T02700170 IEM_DS3505
ZJSY,2006-12-03 10:00,ZJSY 031000Z AUTO 04004KT 6SM 26/17 A3000 RMK T02600170 IEM_DS3505
ZJSY,2006-12-03 11:00,ZJSY 031100Z 05004MPS CAVOK 25/17 Q1017 NOSIG
ZJSY,2006-12-03 12:00,ZJSY 031200Z 06004MPS CAVOK 24/17 Q1017 NOSIG
ZJSY,2006-12-03 13:00,ZJSY 031300Z AUTO 08004KT 6SM 23/18 A3006 RMK T02300180 IEM_DS3505
ZJSY,2006-12-03 14:00,ZJSY 031400Z AUTO 04004KT 6SM 22/18 A3006 RMK T02200180 IEM_DS3505
ZJSY,2006-12-03 15:00,ZJSY 031500Z AUTO 6SM 22/18 A3006 RMK T02200180 IEM_DS3505
ZJSY,2006-12-03 16:00,ZJSY 031600Z AUTO 36004KT 6SM 21/18 A3006 RMK T02100180 IEM_DS3505
ZJSY,2006-12-03 17:00,ZJSY 031700Z AUTO 00000KT 6SM 22/18 A3006 RMK T02200180 IEM_DS3505
ZJSY,2006-12-03 18:00,ZJSY 031800Z AUTO 00000KT 6SM 22/18 A3006 RMK T02200180 IEM_DS3505
ZJSY,2006-12-03 19:00,ZJSY 031900Z AUTO 02004KT 6SM 22/18 A3003 RMK T02200180 IEM_DS3505
ZJSY,2006-12-03 20:00,ZJSY 032000Z AUTO 35002KT 22/17 A3003 RMK T02200170 IEM_DS3505
ZJSY,2006-12-03 21:00,ZJSY 032100Z AUTO 00000KT 6SM 22/17 A3003 RMK T02200170 IEM_DS3505
ZJSY,2006-12-03 22:00,ZJSY 032200Z AUTO 00000KT 6SM 21/17 A3003 RMK T02100170 IEM_DS3505
ZJSY,2006-12-03 23:00,ZJSY 032300Z AUTO 00000KT 5SM 21/17 A3006 RMK T02100170 IEM_DS3505
ZJSY,2006-12-04 00:00,ZJSY 040000Z AUTO 7SM 21/18 A3009 RMK T02100180 IEM_DS3505
ZJSY,2006-12-04 01:00,ZJSY 040100Z AUTO 06004KT 7SM 23/18 A3012 RMK T02300180 IEM_DS3505
ZJSY,2006-12-04 02:00,ZJSY 040200Z AUTO 04006KT 7SM 25/17 A3012 RMK T02500170 IEM_DS3505
ZJSY,2006-12-04 03:00,ZJSY 040300Z AUTO 05008KT 7SM 25/17 A3009 RMK T02500170 IEM_DS3505
ZJSY,2006-12-04 04:00,ZJSY 040400Z AUTO 04010KT 7SM 26/17 A3009 RMK T02600170 IEM_DS3505
ZJSY,2006-12-04 05:00,ZJSY 040500Z AUTO 05012KT 7SM 26/17 A3006 RMK T02600170 IEM_DS3505
ZJSY,2006-12-04 06:00,ZJSY 040600Z AUTO 05012KT 7SM 26/18 A3003 RMK T02600180 IEM_DS3505
ZJSY,2006-12-04 07:00,ZJSY 040700Z AUTO 06012KT 7SM 26/18 A3000 RMK T02600180 IEM_DS3505
ZJSY,2006-12-04 08:00,ZJSY 040800Z AUTO 06010KT 7SM 25/18 A3000 RMK T02500180 IEM_DS3505
ZJSY,2006-12-04 09:00,ZJSY 040900Z AUTO 05008KT 7SM 25/18 A3000 RMK T02500180 IEM_DS3505
ZJSY,2006-12-04 10:00,ZJSY 041000Z AUTO 06006KT 7SM 25/18 A3003 RMK T02500180 IEM_DS3505
ZJSY,2006-12-04 11:00,ZJSY 041100Z AUTO 07010KT 7SM 24/18 A3003 RMK T02400180 IEM_DS3505
ZJSY,2006-12-04 12:00,ZJSY 041200Z AUTO 05012KT 7SM 24/18 A3006 RMK T02400180 IEM_DS3505
ZJSY,2006-12-04 13:00,ZJSY 041300Z AUTO 06008KT 7SM 25/18 A3009 RMK T02500180 IEM_DS3505
ZJSY,2006-12-04 14:00,ZJSY 041400Z AUTO 05010KT 7SM 25/18 A3009 RMK T02500180 IEM_DS3505
ZJSY,2006-12-04 15:00,ZJSY 041500Z AUTO 05008KT 6SM 24/18 A3006 RMK T02400180 IEM_DS3505
ZJSY,2006-12-04 16:00,ZJSY 041600Z AUTO 05008KT 6SM 24/18 A3006 RMK T02400180 IEM_DS3505
ZJSY,2006-12-04 17:00,ZJSY 041700Z AUTO 04006KT 6SM 23/18 A3006 RMK T02300180 IEM_DS3505
ZJSY,2006-12-04 18:00,ZJSY 041800Z AUTO 06008KT 6SM 24/18 A3003 RMK T02400180 IEM_DS3505
ZJSY,2006-12-04 19:00,ZJSY 041900Z AUTO 05004KT 23/18 A3003 RMK T02300180 IEM_DS3505
ZJSY,2006-12-04 20:00,ZJSY 042000Z AUTO 06008KT 24/18 A3003 RMK T02400180 IEM_DS3505
ZJSY,2006-12-04 21:00,ZJSY 042100Z AUTO 04010KT 6SM 24/18 A3000 RMK T02400180 IEM_DS3505
ZJSY,2006-12-04 22:00,ZJSY 042200Z AUTO 04008KT 6SM 24/18 A3003 RMK T02400180 IEM_DS3505
ZJSY,2006-12-04 23:00,ZJSY 042300Z AUTO 06004KT 6SM 23/18 A3003 RMK T02300180 IEM_DS3505
ZJSY,2006-12-05 00:00,ZJSY 050000Z AUTO 6SM 24/19 A3006 RMK T02400190 IEM_DS3505
ZJSY,2006-12-05 01:00,ZJSY 050100Z AUTO 05008KT 7SM 27/19 A3006 RMK T02700190 IEM_DS3505
ZJSY,2006-12-05 02:00,ZJSY 050200Z AUTO 06014G25KT 7SM 28/19 A3009 RMK T02800190 IEM_DS3505
ZJSY,2006-12-05 03:00,ZJSY 050300Z AUTO 05016KT 7SM 28/19 A3009 RMK T02800190 IEM_DS3505
ZJSY,2006-12-05 04:00,ZJSY 050400Z AUTO 04012KT 7SM 29/19 A3006 RMK T02900190 IEM_DS3505
ZJSY,2006-12-05 05:00,ZJSY 050500Z AUTO 07014KT 7SM 29/19 A3006 RMK T02900190 IEM_DS3505
ZJSY,2006-12-05 06:00,ZJSY 050600Z AUTO 07016KT 7SM 29/19 A3003 RMK T02900190 IEM_DS3505
ZJSY,2006-12-05 07:00,ZJSY 050700Z AUTO 08016KT 7SM 29/19 A3000 RMK T02900190 IEM_DS3505
ZJSY,2006-12-05 08:00,ZJSY 050800Z AUTO 07014KT 7SM 28/19 A3000 RMK T02800190 IEM_DS3505
ZJSY,2006-12-05 09:00,ZJSY 050900Z AUTO 06014KT 7SM 27/19 A3000 RMK T02700190 IEM_DS3505
ZJSY,2006-12-05 10:00,ZJSY 051000Z AUTO 08010KT 7SM 26/19 A3000 RMK T02600190 IEM_DS3505
ZJSY,2006-12-05 11:00,ZJSY 051100Z AUTO 06010KT 7SM 26/19 A3003 RMK T02600190 IEM_DS3505
ZJSY,2006-12-05 12:00,ZJSY 051200Z AUTO 05008KT 7SM 25/19 A3003 RMK T02500190 IEM_DS3505
ZJSY,2006-12-05 13:00,ZJSY 051300Z AUTO 08004KT 7SM 24/19 A3003 RMK T02400190 IEM_DS3505
ZJSY,2006-12-05 14:00,ZJSY 051400Z AUTO 08006KT 6SM 23/19 A3003 RMK T02300190 IEM_DS3505
ZJSY,2006-12-05 15:00,ZJSY 051500Z AUTO 05008KT 6SM 24/19 A3003 RMK T02400190 IEM_DS3505
ZJSY,2006-12-05 16:00,ZJSY 051600Z AUTO 05012KT 6SM 25/19 A3003 RMK T02500190 IEM_DS3505
ZJSY,2006-12-05 17:00,ZJSY 051700Z AUTO 06008KT 6SM 24/19 A3003 RMK T02400190 IEM_DS3505
ZJSY,2006-12-05 18:00,ZJSY 051800Z AUTO 07006KT 6SM 24/19 A3000 RMK T02400190 IEM_DS3505
ZJSY,2006-12-05 19:00,ZJSY 051900Z AUTO 7SM 24/19 A3000 RMK T02400190 IEM_DS3505
ZJSY,2006-12-05 20:00,ZJSY 052000Z AUTO 08006KT 7SM 23/19 A2997 RMK T02300190 IEM_DS3505
ZJSY,2006-12-05 21:00,ZJSY 052100Z AUTO 05004KT 7SM 24/19 A2997 RMK T02400190 IEM_DS3505
ZJSY,2006-12-05 22:00,ZJSY 052200Z AUTO 11002KT 7SM 23/19 A3000 RMK T02300190 IEM_DS3505
ZJSY,2006-12-05 23:00,ZJSY 052300Z AUTO 06012KT 7SM 24/20 A3000 RMK T02400200 IEM_DS3505
ZJSY,2006-12-06 00:00,ZJSY 060000Z AUTO 06008KT 7SM 25/19 A3003 RMK T02500190 IEM_DS3505
ZJSY,2006-12-06 01:00,ZJSY 060100Z AUTO 06017KT 7SM 26/19 A3003 RMK T02600190 IEM_DS3505
ZJSY,2006-12-06 02:00,ZJSY 060200Z AUTO 07017KT 7SM 28/20 A3003 RMK T02800200 IEM_DS3505
ZJSY,2006-12-06 03:00,ZJSY 060300Z AUTO 07016KT 7SM 28/20 A3003 RMK T02800200 IEM_DS3505
ZJSY,2006-12-06 04:00,ZJSY 060400Z AUTO 05014KT 7SM 28/20 A3000 RMK T02800200 IEM_DS3505
ZJSY,2006-12-06 05:00,ZJSY 060500Z AUTO 07012KT 7SM 29/20 A2997 RMK T02900200 IEM_DS3505
ZJSY,2006-12-06 06:00,ZJSY 060600Z AUTO 08012KT 7SM 29/20 A2994 RMK T02900200 IEM_DS3505
ZJSY,2006-12-06 07:00,ZJSY 060700Z AUTO 08014KT 6SM 29/20 A2994 RMK T02900200 IEM_DS3505
ZJSY,2006-12-06 08:00,ZJSY 060800Z AUTO 09014KT 6SM 29/20 A2991 RMK T02900200 IEM_DS3505
ZJSY,2006-12-06 09:00,ZJSY 060900Z AUTO 09012KT 6SM 28/20 A2991 RMK T02800200 IEM_DS3505
ZJSY,2006-12-06 10:00,ZJSY 061000Z AUTO 08010KT 6SM 26/21 A2994 RMK T02600210 IEM_DS3505
ZJSY,2006-12-06 11:00,ZJSY 061100Z AUTO 08010KT 6SM 25/21 A2994 RMK T02500210 IEM_DS3505
ZJSY,2006-12-06 13:00,ZJSY 061300Z AUTO 6SM 24/20 A2997 RMK T02400200 IEM_DS3505
ZJSY,2006-12-06 14:00,ZJSY 061400Z AUTO 09004KT 6SM 24/20 A3000 RMK T02400200 IEM_DS3505
ZJSY,2006-12-06 15:00,ZJSY 061500Z AUTO 10002KT 6SM 23/20 A3000 RMK T02300200 IEM_DS3505
ZJSY,2006-12-06 16:00,ZJSY 061600Z AUTO 00000KT 6SM 23/20 A3000 RMK T02300200 IEM_DS3505
ZJSY,2006-12-06 17:00,ZJSY 061700Z AUTO 05002KT 6SM 23/20 A2997 RMK T02300200 IEM_DS3505
ZJSY,2006-12-06 18:00,ZJSY 061800Z AUTO 00000KT 6SM 22/20 A2997 RMK T02200200 IEM_DS3505
ZJSY,2006-12-06 19:00,ZJSY 061900Z AUTO 00000KT 6SM 22/20 A2997 RMK T02200200 IEM_DS3505
ZJSY,2006-12-06 20:00,ZJSY 062000Z AUTO 34002KT 22/20 A2994 RMK T02200200 IEM_DS3505
ZJSY,2006-12-06 21:00,ZJSY 062100Z AUTO 03004KT 6SM 22/20 A2994 RMK T02200200 IEM_DS3505
ZJSY,2006-12-06 22:00,ZJSY 062200Z AUTO 02004KT 6SM 22/20 A2994 RMK T02200200 IEM_DS3505
ZJSY,2006-12-06 23:00,ZJSY 062300Z AUTO 00000KT 6SM 22/20 A2997 RMK T02200200 IEM_DS3505
ZJSY,2006-12-07 00:00,ZJSY 070000Z AUTO 10002KT 6SM 24/21 A3000 RMK T02400210 IEM_DS3505
ZJSY,2006-12-07 01:00,ZJSY 070100Z AUTO 6SM 27/22 A3000 RMK T02700220 IEM_DS3505
ZJSY,2006-12-07 02:00,ZJSY 070200Z AUTO 09010KT 6SM 29/21 A3000 RMK T02900210 IEM_DS3505
ZJSY,2006-12-07 03:00,ZJSY 070300Z AUTO 10010KT 7SM 29/21 A3000 RMK T02900210 IEM_DS3505
ZJSY,2006-12-07 04:00,ZJSY 070400Z AUTO 11010KT 7SM 30/21 A3000 RMK T03000210 IEM_DS3505
ZJSY,2006-12-07 05:00,ZJSY 070500Z AUTO 10010KT 7SM 30/22 A2994 RMK T03000220 IEM_DS3505
ZJSY,2006-12-07 06:00,ZJSY 070600Z AUTO 09010KT 7SM 30/21 A2991 RMK T03000210 IEM_DS3505
ZJSY,2006-12-07 07:00,ZJSY 070700Z AUTO 09012KT 7SM 30/21 A2991 RMK T03000210 IEM_DS3505
ZJSY,2006-12-07 08:00,ZJSY 070800Z AUTO 09012KT 7SM 29/22 A2991 RMK T02900220 IEM_DS3505
ZJSY,2006-12-07 10:00,ZJSY 071000Z AUTO 09008KT 7SM 27/22 A2991 RMK T02700220 IEM_DS3505
ZJSY,2006-12-07 11:00,ZJSY 071100Z 08005MPS 9999 SCT016 26/22 Q1014 NOSIG
ZJSY,2006-12-07 12:00,ZJSY 071200Z 06004MPS 9999 SCT016 26/22 Q1015 NOSIG
ZJSY,2006-12-07 13:00,ZJSY 071300Z AUTO 08010KT 7SM 26/22 A2997 RMK T02600220 IEM_DS3505
ZJSY,2006-12-07 14:00,ZJSY 071400Z AUTO 09008KT 7SM 26/22 A3000 RMK T02600220 IEM_DS3505
ZJSY,2006-12-07 15:00,ZJSY 071500Z AUTO 08008KT 6SM 25/22 A3000 RMK T02500220 IEM_DS3505
ZJSY,2006-12-07 16:00,ZJSY 071600Z AUTO 6SM 25/22 A3000 RMK T02500220 IEM_DS3505
ZJSY,2006-12-07 17:00,ZJSY 071700Z AUTO 08004KT 6SM 24/21 A3000 RMK T02400210 IEM_DS3505
ZJSY,2006-12-07 18:00,ZJSY 071800Z AUTO 08006KT 6SM 24/21 A2997 RMK T02400210 IEM_DS3505
ZJSY,2006-12-07 19:00,ZJSY 071900Z AUTO 06006KT 24/21 A2997 RMK T02400210 IEM_DS3505
ZJSY,2006-12-07 20:00,ZJSY 072000Z AUTO 06006KT 24/21 A2994 RMK T02400210 IEM_DS3505
ZJSY,2006-12-07 21:00,ZJSY 072100Z AUTO 07006KT 6SM 24/21 A2994 RMK T02400210 IEM_DS3505
ZJSY,2006-12-07 22:00,ZJSY 072200Z AUTO 00000KT 6SM 22/20 A2997 RMK T02200200 IEM_DS3505
ZJSY,2006-12-07 23:00,ZJSY 072300Z AUTO 06006KT 6SM 23/21 A2997 RMK T02300210 IEM_DS3505
ZJSY,2006-12-08 00:00,ZJSY 080000Z AUTO 06006KT 6SM 25/21 A3000 RMK T02500210 IEM_DS3505
ZJSY,2006-12-08 01:00,ZJSY 080100Z AUTO 10004KT 6SM 27/22 A3003 RMK T02700220 IEM_DS3505
ZJSY,2006-12-08 02:00,ZJSY 080200Z AUTO 10006KT 6SM 28/21 A3003 RMK T02800210 IEM_DS3505
ZJSY,2006-12-08 03:00,ZJSY 080300Z AUTO 07008KT 7SM 30/20 A3000 RMK T03000200 IEM_DS3505
ZJSY,2006-12-08 04:00,ZJSY 080400Z AUTO 04008KT 7SM 30/20 A3000 RMK T03000200 IEM_DS3505
ZJSY,2006-12-08 05:00,ZJSY 080500Z AUTO 03008KT 7SM 32/18 A2994 RMK T03200180 IEM_DS3505
ZJSY,2006-12-08 06:00,ZJSY 080600Z AUTO 09010KT 7SM 32/17 A2991 RMK T03200170 IEM_DS3505
ZJSY,2006-12-08 07:00,ZJSY 080700Z AUTO 7SM 30/22 A2991 RMK T03000220 IEM_DS3505
ZJSY,2006-12-08 08:00,ZJSY 080800Z AUTO 10008KT 7SM 30/21 A2991 RMK T03000210 IEM_DS3505
ZJSY,2006-12-08 09:00,ZJSY 080900Z AUTO 08010KT 7SM 28/22 A2991 RMK T02800220 IEM_DS3505
ZJSY,2006-12-08 10:00,ZJSY 081000Z AUTO 07010KT 7SM 27/22 A2994 RMK T02700220 IEM_DS3505
ZJSY,2006-12-08 11:00,ZJSY 081100Z AUTO 09008KT 7SM 26/21 A2997 RMK T02600210 IEM_DS3505
ZJSY,2006-12-08 12:00,ZJSY 081200Z 07004MPS 9999 SCT018 25/21 Q1016 NOSIG
ZJSY,2006-12-08 13:00,ZJSY 081300Z AUTO 07006KT 7SM 25/19 A3003 RMK T02500190 IEM_DS3505
ZJSY,2006-12-08 14:00,ZJSY 081400Z AUTO 02008KT 7SM 25/20 A3003 RMK T02500200 IEM_DS3505
ZJSY,2006-12-08 15:00,ZJSY 081500Z AUTO 6SM 25/19 A3003 RMK T02500190 IEM_DS3505
ZJSY,2006-12-08 16:00,ZJSY 081600Z AUTO 6SM 23/19 A3003 RMK T02300190 IEM_DS3505
ZJSY,2006-12-08 17:00,ZJSY 081700Z AUTO 00000KT 6SM 23/19 A3000 RMK T02300190 IEM_DS3505
ZJSY,2006-12-08 18:00,ZJSY 081800Z AUTO 7SM 22/19 A3000 RMK T02200190 IEM_DS3505
ZJSY,2006-12-08 19:00,ZJSY 081900Z AUTO 7SM 22/19 A3000 RMK T02200190 IEM_DS3505
ZJSY,2006-12-08 20:00,ZJSY 082000Z 34001MPS 9999 FEW016 21/19 Q1015 NOSIG
ZJSY,2006-12-08 21:00,ZJSY 082100Z AUTO 00000KT 7SM 21/19 A3000 RMK T02100190 IEM_DS3505
ZJSY,2006-12-08 22:00,ZJSY 082200Z AUTO 34004KT 7SM 21/19 A3000 RMK T02100190 IEM_DS3505
ZJSY,2006-12-08 23:00,ZJSY 082300Z AUTO 00000KT 7SM 21/19 A3000 RMK T02100190 IEM_DS3505
ZJSY,2006-12-09 00:00,ZJSY 090000Z AUTO 35004KT 7SM 22/20 A3003 RMK T02200200 IEM_DS3505
ZJSY,2006-12-09 01:00,ZJSY 090100Z AUTO 7SM 24/20 A3006 RMK T02400200 IEM_DS3505
ZJSY,2006-12-09 02:00,ZJSY 090200Z AUTO 09004KT 7SM 26/21 A3009 RMK T02600210 IEM_DS3505
ZJSY,2006-12-09 03:00,ZJSY 090300Z AUTO 04012KT 7SM 28/19 A3006 RMK T02800190 IEM_DS3505
ZJSY,2006-12-09 04:00,ZJSY 090400Z AUTO 05016G25KT 7SM 27/18 A3006 RMK T02700180 IEM_DS3505
ZJSY,2006-12-09 05:00,ZJSY 090500Z AUTO 04014KT 7SM 28/18 A3003 RMK T02800180 IEM_DS3505
ZJSY,2006-12-09 06:00,ZJSY 090600Z AUTO 05012KT 7SM 28/18 A3000 RMK T02800180 IEM_DS3505
ZJSY,2006-12-09 07:00,ZJSY 090700Z AUTO 07014KT 7SM 29/18 A2997 RMK T02900180 IEM_DS3505
ZJSY,2006-12-09 08:00,ZJSY 090800Z AUTO 07014KT 7SM 29/18 A2994 RMK T02900180 IEM_DS3505
ZJSY,2006-12-09 09:00,ZJSY 090900Z AUTO 08012KT 7SM 28/19 A2997 RMK T02800190 IEM_DS3505
ZJSY,2006-12-09 10:00,ZJSY 091000Z AUTO 07008KT 6SM 26/19 A3000 RMK T02600190 IEM_DS3505
ZJSY,2006-12-09 11:00,ZJSY 091100Z AUTO 08008KT 6SM 25/19 A3000 RMK T02500190 IEM_DS3505
ZJSY,2006-12-09 12:00,ZJSY 091200Z AUTO 07010KT 6SM 25/19 A3003 RMK T02500190 IEM_DS3505
ZJSY,2006-12-09 13:00,ZJSY 091300Z AUTO 06008KT 6SM 25/19 A3006 RMK T02500190 IEM_DS3505
ZJSY,2006-12-09 14:00,ZJSY 091400Z AUTO 06006KT 6SM 25/18 A3006 RMK T02500180 IEM_DS3505
ZJSY,2006-12-09 15:00,ZJSY 091500Z AUTO 05006KT 6SM 24/19 A3006 RMK T02400190 IEM_DS3505
ZJSY,2006-12-09 16:00,ZJSY 091600Z AUTO 05004KT 6SM 24/18 A3006 RMK T02400180 IEM_DS3505
ZJSY,2006-12-09 17:00,ZJSY 091700Z AUTO 03004KT 6SM 24/18 A3006 RMK T02400180 IEM_DS3505
ZJSY,2006-12-09 18:00,ZJSY 091800Z AUTO 03006KT 6SM 24/19 A3003 RMK T02400190 IEM_DS3505
ZJSY,2006-12-09 19:00,ZJSY 091900Z AUTO 05008KT 6SM 24/19 A3003 RMK T02400190 IEM_DS3505
ZJSY,2006-12-09 20:00,ZJSY 092000Z AUTO 05008KT 24/19 A3000 RMK T02400190 IEM_DS3505
ZJSY,2006-12-09 21:00,ZJSY 092100Z AUTO 05008KT 6SM 24/18 A3000 RMK T02400180 IEM_DS3505
ZJSY,2006-12-09 22:00,ZJSY 092200Z AUTO 07006KT 6SM 23/18 A3003 RMK T02300180 IEM_DS3505
ZJSY,2006-12-09 23:00,ZJSY 092300Z AUTO 01004KT 6SM 22/18 A3006 RMK T02200180 IEM_DS3505
ZJSY,2006-12-10 00:00,ZJSY 100000Z AUTO 08006KT 6SM 23/18 A3006 RMK T02300180 IEM_DS3505
ZJSY,2006-12-10 01:00,ZJSY 100100Z AUTO 06006KT 6SM 26/18 A3009 RMK T02600180 IEM_DS3505
ZJSY,2006-12-10 02:00,ZJSY 100200Z AUTO 06014KT 6SM 27/18 A3009 RMK T02700180 IEM_DS3505
ZJSY,2006-12-10 03:00,ZJSY 100300Z AUTO 06014KT 7SM 27/18 A3006 RMK T02700180 IEM_DS3505
ZJSY,2006-12-10 04:00,ZJSY 100400Z AUTO 06016KT 6SM 29/18 A3006 RMK T02900180 IEM_DS3505
ZJSY,2006-12-10 05:00,ZJSY 100500Z AUTO 04010KT 6SM 29/18 A3000 RMK T02900180 IEM_DS3505
ZJSY,2006-12-10 06:00,ZJSY 100600Z AUTO 09012KT 6SM 29/19 A2997 RMK T02900190 IEM_DS3505
ZJSY,2006-12-10 07:00,ZJSY 100700Z AUTO 09014KT 6SM 29/19 A2994 RMK T02900190 IEM_DS3505
ZJSY,2006-12-10 08:00,ZJSY 100800Z AUTO 09014KT 6SM 28/18 A2994 RMK T02800180 IEM_DS3505
ZJSY,2006-12-10 09:00,ZJSY 100900Z AUTO 08014KT 7SM 26/18 A2994 RMK T02600180 IEM_DS3505
ZJSY,2006-12-10 10:00,ZJSY 101000Z AUTO 08012KT 7SM 25/18 A2997 RMK T02500180 IEM_DS3505
ZJSY,2006-12-10 11:00,ZJSY 101100Z AUTO 07010KT 7SM 24/18 A3000 RMK T02400180 IEM_DS3505
ZJSY,2006-12-10 12:00,ZJSY 101200Z AUTO 07014KT 7SM 24/17 A3000 RMK T02400170 IEM_DS3505
ZJSY,2006-12-10 13:00,ZJSY 101300Z AUTO 06010KT 6SM 23/17 A3003 RMK T02300170 IEM_DS3505
ZJSY,2006-12-10 14:00,ZJSY 101400Z AUTO 04006KT 6SM 23/17 A3006 RMK T02300170 IEM_DS3505
ZJSY,2006-12-10 15:00,ZJSY 101500Z AUTO 06008KT 6SM 23/17 A3003 RMK T02300170 IEM_DS3505
ZJSY,2006-12-10 16:00,ZJSY 101600Z AUTO 06012KT 6SM 23/17 A3003 RMK T02300170 IEM_DS3505
ZJSY,2006-12-10 17:00,ZJSY 101700Z AUTO 05012KT 6SM 23/17 A3003 RMK T02300170 IEM_DS3505
ZJSY,2006-12-10 18:00,ZJSY 101800Z AUTO 04014KT 6SM 23/17 A3000 RMK T02300170 IEM_DS3505
ZJSY,2006-12-10 19:00,ZJSY 101900Z AUTO 05012KT 23/17 A3000 RMK T02300170 IEM_DS3505
ZJSY,2006-12-10 20:00,ZJSY 102000Z AUTO 05005MPS //// // ////// 23/17 Q1015
ZJSY,2006-12-10 21:00,ZJSY 102100Z AUTO 6SM 23/17 A3000 RMK T02300170 IEM_DS3505
ZJSY,2006-12-10 22:00,ZJSY 102200Z AUTO 00000KT 6SM 22/17 A3000 RMK T02200170 IEM_DS3505
ZJSY,2006-12-10 23:00,ZJSY 102300Z AUTO 05004KT 6SM 21/17 A3000 RMK T02100170 IEM_DS3505
ZJSY,2006-12-11 00:00,ZJSY 110000Z AUTO 6SM 22/18 A3000 RMK T02200180 IEM_DS3505
ZJSY,2006-12-11 01:00,ZJSY 110100Z AUTO 06006KT 6SM 25/18 A3003 RMK T02500180 IEM_DS3505
ZJSY,2006-12-11 02:00,ZJSY 110200Z AUTO 06014KT 6SM 27/18 A3003 RMK T02700180 IEM_DS3505
ZJSY,2006-12-11 03:00,ZJSY 110300Z AUTO 06014KT 6SM 28/18 A3003 RMK T02800180 IEM_DS3505
ZJSY,2006-12-11 04:00,ZJSY 110400Z AUTO 05010KT 7SM 29/18 A3000 RMK T02900180 IEM_DS3505
ZJSY,2006-12-11 05:00,ZJSY 110500Z AUTO 07010KT 7SM 29/18 A2997 RMK T02900180 IEM_DS3505
ZJSY,2006-12-11 06:00,ZJSY 110600Z AUTO 11010KT 7SM 29/18 A2991 RMK T02900180 IEM_DS3505
ZJSY,2006-12-11 07:00,ZJSY 110700Z AUTO 10010KT 7SM 29/19 A2991 RMK T02900190 IEM_DS3505
ZJSY,2006-12-11 08:00,ZJSY 110800Z AUTO 09010KT 7SM 28/19 A2991 RMK T02800190 IEM_DS3505
ZJSY,2006-12-11 09:00,ZJSY 110900Z AUTO 08010KT 7SM 26/19 A2994 RMK T02600190 IEM_DS3505
ZJSY,2006-12-11 10:00,ZJSY 111000Z AUTO 08008KT 7SM 26/19 A2994 RMK T02600190 IEM_DS3505
ZJSY,2006-12-11 11:00,ZJSY 111100Z AUTO 08008KT 7SM 25/19 A2997 RMK T02500190 IEM_DS3505
ZJSY,2006-12-11 12:00,ZJSY 111200Z AUTO 07008KT 7SM 24/19 A3000 RMK T02400190 IEM_DS3505
ZJSY,2006-12-11 13:00,ZJSY 111300Z AUTO 7SM 24/19 A3000 RMK T02400190 IEM_DS3505
ZJSY,2006-12-11 14:00,ZJSY 111400Z AUTO 07006KT 7SM 23/19 A3000 RMK T02300190 IEM_DS3505
ZJSY,2006-12-11 15:00,ZJSY 111500Z AUTO 08004KT 7SM 21/18 A3000 RMK T02100180 IEM_DS3505
ZJSY,2006-12-11 16:00,ZJSY 111600Z AUTO 35004KT 7SM 21/18 A3000 RMK T02100180 IEM_DS3505
ZJSY,2006-12-11 17:00,ZJSY 111700Z AUTO 00000KT 6SM 20/18 A3000 RMK T02000180 IEM_DS3505
ZJSY,2006-12-11 18:00,ZJSY 111800Z AUTO 33004KT 6SM 19/17 A2997 RMK T01900170 IEM_DS3505
ZJSY,2006-12-11 19:00,ZJSY 111900Z AUTO 36004KT 6SM 19/17 A2997 RMK T01900170 IEM_DS3505
ZJSY,2006-12-11 20:00,ZJSY 112000Z AUTO 34004KT 6SM 19/17 A2997 RMK T01900170 IEM_DS3505
ZJSY,2006-12-11 21:00,ZJSY 112100Z AUTO 32002KT 6SM 18/16 A2997 RMK T01800160 IEM_DS3505
ZJSY,2006-12-11 22:00,ZJSY 112200Z AUTO 33006KT 6SM 18/16 A2994 RMK T01800160 IEM_DS3505
ZJSY,2006-12-11 23:00,ZJSY 112300Z AUTO 00000KT 6SM 18/16 A2994 RMK T01800160 IEM_DS3505
ZJSY,2006-12-12 00:00,ZJSY 120000Z 32002MPS 310V030 CAVOK 20/17 Q1015 NOSIG
ZJSY,2006-12-12 01:00,ZJSY 120100Z AUTO 6SM 23/18 A3000 RMK T02300180 IEM_DS3505
ZJSY,2006-12-12 02:00,ZJSY 120200Z AUTO 6SM 26/17 A3000 RMK T02600170 IEM_DS3505
ZJSY,2006-12-12 03:00,ZJSY 120300Z AUTO 06004KT 6SM 29/16 A2997 RMK T02900160 IEM_DS3505
ZJSY,2006-12-12 04:00,ZJSY 120400Z AUTO 08006KT 6SM 29/17 A2997 RMK T02900170 IEM_DS3505
ZJSY,2006-12-12 05:00,ZJSY 120500Z AUTO 21008KT 6SM 29/18 A2994 RMK T02900180 IEM_DS3505
ZJSY,2006-12-12 06:00,ZJSY 120600Z AUTO 24008KT 6SM 28/18 A2991 RMK T02800180 IEM_DS3505
ZJSY,2006-12-12 07:00,ZJSY 120700Z AUTO 22008KT 7SM 27/20 A2991 RMK T02700200 IEM_DS3505
ZJSY,2006-12-12 08:00,ZJSY 120800Z AUTO 21006KT 7SM 27/20 A2991 RMK T02700200 IEM_DS3505
ZJSY,2006-12-12 09:00,ZJSY 120900Z AUTO 21006KT 7SM 26/20 A2991 RMK T02600200 IEM_DS3505
ZJSY,2006-12-12 10:00,ZJSY 121000Z AUTO 21004KT 7SM 25/21 A2994 RMK T02500210 IEM_DS3505
ZJSY,2006-12-12 11:00,ZJSY 121100Z 00000MPS 9999 FEW016 SCT050 25/20 Q1014 NOSIG
ZJSY,2006-12-12 12:00,ZJSY 121200Z 34002MPS 9999 SCT016 SCT053 24/21 Q1015 NOSIG
ZJSY,2006-12-12 13:00,ZJSY 121300Z AUTO 7SM 25/21 A2997 RMK T02500210 IEM_DS3505
ZJSY,2006-12-12 14:00,ZJSY 121400Z AUTO 7SM 24/21 A2997 RMK T02400210 IEM_DS3505
ZJSY,2006-12-12 15:00,ZJSY 121500Z AUTO 05004KT 7SM 25/20 A2997 RMK T02500200 IEM_DS3505
ZJSY,2006-12-12 16:00,ZJSY 121600Z AUTO 7SM 24/21 A2997 RMK T02400210 IEM_DS3505
ZJSY,2006-12-12 17:00,ZJSY 121700Z AUTO 33004KT 7SM 24/21 A2994 RMK T02400210 IEM_DS3505
ZJSY,2006-12-12 19:00,ZJSY 121900Z AUTO 08006KT 7SM 24/20 A2991 RMK T02400200 IEM_DS3505
ZJSY,2006-12-12 20:00,ZJSY 122000Z 07001MPS 9999 SCT016 SCT053 24/20 Q1013 NOSIG
ZJSY,2006-12-12 21:00,ZJSY 122100Z AUTO 36002KT 7SM 23/20 A2991 RMK T02300200 IEM_DS3505
ZJSY,2006-12-12 22:00,ZJSY 122200Z AUTO 00000KT 7SM 23/20 A2991 RMK T02300200 IEM_DS3505
ZJSY,2006-12-12 23:00,ZJSY 122300Z AUTO 00000KT 7SM 23/20 A2991 RMK T02300200 IEM_DS3505
ZJSY,2006-12-13 00:00,ZJSY 130000Z AUTO 09002KT 7SM 24/20 A2994 RMK T02400200 IEM_DS3505
ZJSY,2006-12-13 01:00,ZJSY 130100Z AUTO 7SM 24/20 A2994 RMK T02400200 IEM_DS3505
ZJSY,2006-12-13 02:00,ZJSY 130200Z AUTO 27004KT 7SM 26/19 A2994 RMK T02600190 IEM_DS3505
ZJSY,2006-12-13 03:00,ZJSY 130300Z AUTO 7SM 27/19 A2994 RMK T02700190 IEM_DS3505
ZJSY,2006-12-13 04:00,ZJSY 130400Z AUTO 16004KT 7SM 28/20 A2991 RMK T02800200 IEM_DS3505
ZJSY,2006-12-13 05:00,ZJSY 130500Z AUTO 17004KT 7SM 28/21 A2985 RMK T02800210 IEM_DS3505
ZJSY,2006-12-13 06:00,ZJSY 130600Z AUTO 20006KT 7SM 29/21 A2985 RMK T02900210 IEM_DS3505
ZJSY,2006-12-13 07:00,ZJSY 130700Z AUTO 19004KT 7SM 27/20 A2983 RMK T02700200 IEM_DS3505
ZJSY,2006-12-13 08:00,ZJSY 130800Z AUTO 29006KT 7SM 29/19 A2983 RMK T02900190 IEM_DS3505
ZJSY,2006-12-13 09:00,ZJSY 130900Z AUTO 36006KT 7SM 28/18 A2983 RMK T02800180 IEM_DS3505
ZJSY,2006-12-13 10:00,ZJSY 131000Z AUTO 34006KT 7SM 26/18 A2985 RMK T02600180 IEM_DS3505
ZJSY,2006-12-13 11:00,ZJSY 131100Z AUTO 32006KT 7SM 26/18 A2985 RMK T02600180 IEM_DS3505
ZJSY,2006-12-13 12:00,ZJSY 131200Z AUTO 27004KT 7SM 25/18 A2988 RMK T02500180 IEM_DS3505
ZJSY,2006-12-13 13:00,ZJSY 131300Z AUTO 32006KT 7SM 24/18 A2991 RMK T02400180 IEM_DS3505
ZJSY,2006-12-13 14:00,ZJSY 131400Z 32002MPS 280V040 9999 BKN040 24/17 Q1013 NOSIG
ZJSY,2006-12-13 15:00,ZJSY 131500Z AUTO 28006KT 7SM 23/18 A2991 RMK T02300180 IEM_DS3505
ZJSY,2006-12-13 16:00,ZJSY 131600Z AUTO 7SM 23/18 A2991 RMK T02300180 IEM_DS3505
ZJSY,2006-12-13 17:00,ZJSY 131700Z AUTO 00000KT 4SM 21/19 A2988 RMK T02100190 IEM_DS3505
ZJSY,2006-12-13 18:00,ZJSY 131800Z AUTO 5SM 21/19 A2988 RMK T02100190 IEM_DS3505
ZJSY,2006-12-13 19:00,ZJSY 131900Z AUTO 00000KT 21/19 A2988 RMK T02100190 IEM_DS3505
ZJSY,2006-12-13 20:00,ZJSY 132000Z AUTO 00000KT 21/19 A2988 RMK T02100190 IEM_DS3505
ZJSY,2006-12-13 21:00,ZJSY 132100Z AUTO 7SM 22/20 A2988 RMK T02200200 IEM_DS3505
ZJSY,2006-12-13 22:00,ZJSY 132200Z AUTO 28002KT 7SM 20/19 A2988 RMK T02000190 IEM_DS3505
ZJSY,2006-12-13 23:00,ZJSY 132300Z AUTO 33006KT 7SM 20/18 A2991 RMK T02000180 IEM_DS3505
ZJSY,2006-12-14 00:00,ZJSY 140000Z AUTO 7SM 20/18 A2994 RMK T02000180 IEM_DS3505
ZJSY,2006-12-14 01:00,ZJSY 140100Z AUTO 7SM 22/18 A2997 RMK T02200180 IEM_DS3505
ZJSY,2006-12-14 02:00,ZJSY 140200Z AUTO 7SM 25/18 A2997 RMK T02500180 IEM_DS3505
ZJSY,2006-12-14 03:00,ZJSY 140300Z AUTO 6SM 27/19 A2997 RMK T02700190 IEM_DS3505
ZJSY,2006-12-14 04:00,ZJSY 140400Z AUTO 18006KT 6SM 27/18 A2994 RMK T02700180 IEM_DS3505
ZJSY,2006-12-14 05:00,ZJSY 140500Z AUTO 17008KT 7SM 27/19 A2991 RMK T02700190 IEM_DS3505
ZJSY,2006-12-14 06:00,ZJSY 140600Z AUTO 16006KT 7SM 26/19 A2991 RMK T02600190 IEM_DS3505
ZJSY,2006-12-14 07:00,ZJSY 140700Z AUTO 16006KT 7SM 25/19 A2991 RMK T02500190 IEM_DS3505
ZJSY,2006-12-14 08:00,ZJSY 140800Z AUTO 16004KT 7SM 25/20 A2991 RMK T02500200 IEM_DS3505
ZJSY,2006-12-14 09:00,ZJSY 140900Z AUTO 16006KT 7SM 24/20 A2991 RMK T02400200 IEM_DS3505
ZJSY,2006-12-14 10:00,ZJSY 141000Z AUTO 15004KT 7SM 25/19 A2991 RMK T02500190 IEM_DS3505
ZJSY,2006-12-14 11:00,ZJSY 141100Z 35002MPS 320V020 9999 SCT013 BKN016 BKN040 24/20 Q1014 NOSIG
ZJSY,2006-12-14 12:00,ZJSY 141200Z 34002MPS 330V030 9999 SCT013 BKN016 BKN040 23/20 Q1014 NOSIG
ZJSY,2006-12-14 13:00,ZJSY 141300Z AUTO 36004KT 7SM 24/19 A2997 RMK T02400190 IEM_DS3505
ZJSY,2006-12-14 14:00,ZJSY 141400Z AUTO 7SM 23/19 A3000 RMK T02300190 IEM_DS3505
ZJSY,2006-12-14 15:00,ZJSY 141500Z AUTO 7SM 23/19 A3000 RMK T02300190 IEM_DS3505
ZJSY,2006-12-14 16:00,ZJSY 141600Z AUTO 08006KT 7SM 23/18 A3000 RMK T02300180 IEM_DS3505
ZJSY,2006-12-14 17:00,ZJSY 141700Z AUTO 08004KT 7SM 22/18 A2997 RMK T02200180 IEM_DS3505
ZJSY,2006-12-14 18:00,ZJSY 141800Z AUTO 07004KT 7SM 22/18 A2997 RMK T02200180 IEM_DS3505
ZJSY,2006-12-14 19:00,ZJSY 141900Z AUTO 7SM 22/18 A2994 RMK T02200180 IEM_DS3505
ZJSY,2006-12-14 21:00,ZJSY 142100Z AUTO 00000KT 7SM 22/18 A2994 RMK T02200180 IEM_DS3505
ZJSY,2006-12-14 22:00,ZJSY 142200Z AUTO 08002KT 7SM 22/17 A2994 RMK T02200170 IEM_DS3505
ZJSY,2006-12-14 23:00,ZJSY 142300Z AUTO 00000KT 7SM 22/18 A2997 RMK T02200180 IEM_DS3505
ZJSY,2006-12-15 00:00,ZJSY 150000Z AUTO 30006KT 7SM 22/19 A3000 RMK T02200190 IEM_DS3505
ZJSY,2006-12-15 01:00,ZJSY 150100Z AUTO 29004KT 7SM 24/19 A3003 RMK T02400190 IEM_DS3505
ZJSY,2006-12-15 02:00,ZJSY 150200Z AUTO 26004KT 7SM 24/19 A3006 RMK T02400190 IEM_DS3505
ZJSY,2006-12-15 03:00,ZJSY 150300Z AUTO 21004KT 7SM 26/19 A3003 RMK T02600190 IEM_DS3505
ZJSY,2006-12-15 04:00,ZJSY 150400Z AUTO 21008KT 7SM 25/19 A3003 RMK T02500190 IEM_DS3505
ZJSY,2006-12-15 05:00,ZJSY 150500Z AUTO 23008KT 7SM 26/19 A3000 RMK T02600190 IEM_DS3505
ZJSY,2006-12-15 06:00,ZJSY 150600Z AUTO 23006KT 7SM 25/20 A2997 RMK T02500200 IEM_DS3505
ZJSY,2006-12-15 07:00,ZJSY 150700Z AUTO 22006KT 7SM 25/20 A2994 RMK T02500200 IEM_DS3505
ZJSY,2006-12-15 08:00,ZJSY 150800Z AUTO 21006KT 7SM 25/20 A2994 RMK T02500200 IEM_DS3505
ZJSY,2006-12-15 09:00,ZJSY 150900Z AUTO 20004KT 7SM 24/20 A2994 RMK T02400200 IEM_DS3505
ZJSY,2006-12-15 10:00,ZJSY 151000Z AUTO 19004KT 7SM 24/20 A2997 RMK T02400200 IEM_DS3505
ZJSY,2006-12-15 11:00,ZJSY 151100Z AUTO 7SM 24/20 A3000 RMK T02400200 IEM_DS3505
ZJSY,2006-12-15 12:00,ZJSY 151200Z 12002MPS 090V160 9999 BKN016 BKN050 24/19 Q1017 NOSIG
ZJSY,2006-12-15 13:00,ZJSY 151300Z AUTO 7SM 24/19 A3006 RMK T02400190 IEM_DS3505
ZJSY,2006-12-15 14:00,ZJSY 151400Z AUTO 7SM 24/20 A3006 RMK T02400200 IEM_DS3505
ZJSY,2006-12-15 15:00,ZJSY 151500Z AUTO 04004KT 7SM 24/19 A3006 RMK T02400190 IEM_DS3505
ZJSY,2006-12-15 16:00,ZJSY 151600Z AUTO 07006KT 7SM 23/19 A3009 RMK T02300190 IEM_DS3505
ZJSY,2006-12-15 17:00,ZJSY 151700Z AUTO 08002KT 7SM 21/19 A3009 RMK T02100190 IEM_DS3505
ZJSY,2006-12-15 18:00,ZJSY 151800Z AUTO 07004KT 7SM 21/18 A3006 RMK T02100180 IEM_DS3505
ZJSY,2006-12-15 19:00,ZJSY 151900Z AUTO 03002KT 7SM 21/18 A3006 RMK T02100180 IEM_DS3505
ZJSY,2006-12-15 20:00,ZJSY 152000Z AUTO 00000KT 20/18 A3006 RMK T02000180 IEM_DS3505
ZJSY,2006-12-15 22:00,ZJSY 152200Z AUTO 00000KT 7SM 19/18 A3006 RMK T01900180 IEM_DS3505
ZJSY,2006-12-15 23:00,ZJSY 152300Z AUTO 00000KT 7SM 19/18 A3009 RMK T01900180 IEM_DS3505
ZJSY,2006-12-16 00:00,ZJSY 160000Z AUTO 00000KT 7SM 20/18 A3012 RMK T02000180 IEM_DS3505
ZJSY,2006-12-16 01:00,ZJSY 160100Z AUTO 00000KT 7SM 22/18 A3015 RMK T02200180 IEM_DS3505
ZJSY,2006-12-16 02:00,ZJSY 160200Z AUTO 6SM 25/17 A3015 RMK T02500170 IEM_DS3505
ZJSY,2006-12-16 03:00,ZJSY 160300Z AUTO 6SM 25/18 A3015 RMK T02500180 IEM_DS3505
ZJSY,2006-12-16 04:00,ZJSY 160400Z AUTO 20006KT 6SM 26/18 A3012 RMK T02600180 IEM_DS3505
ZJSY,2006-12-16 05:00,ZJSY 160500Z AUTO 20006KT 6SM 26/18 A3009 RMK T02600180 IEM_DS3505
ZJSY,2006-12-16 06:00,ZJSY 160600Z AUTO 21006KT 7SM 26/18 A3006 RMK T02600180 IEM_DS3505
ZJSY,2006-12-16 07:00,ZJSY 160700Z AUTO 23006KT 7SM 27/17 A3006 RMK T02700170 IEM_DS3505
ZJSY,2006-12-16 08:00,ZJSY 160800Z AUTO 24006KT 7SM 26/17 A3003 RMK T02600170 IEM_DS3505
ZJSY,2006-12-16 09:00,ZJSY 160900Z AUTO 24006KT 7SM 26/17 A3006 RMK T02600170 IEM_DS3505
ZJSY,2006-12-16 10:00,ZJSY 161000Z AUTO 27006KT 7SM 24/17 A3009 RMK T02400170 IEM_DS3505
ZJSY,2006-12-16 11:00,ZJSY 161100Z 05002MPS 340V080 9999 SCT018 23/14 Q1020 NOSIG
ZJSY,2006-12-16 12:00,ZJSY 161200Z 07005MPS 9999 SCT018 22/13 Q1021 NOSIG
ZJSY,2006-12-16 13:00,ZJSY 161300Z AUTO 05006KT 7SM 22/12 A3018 RMK T02200120 IEM_DS3505
ZJSY,2006-12-16 14:00,ZJSY 161400Z AUTO 06010KT 7SM 21/09 A3021 RMK T02100090 IEM_DS3505
ZJSY,2006-12-16 15:00,ZJSY 161500Z AUTO 08010KT 7SM 20/08 A3021 RMK T02000080 IEM_DS3505
ZJSY,2006-12-16 16:00,ZJSY 161600Z AUTO 05008KT 7SM 20/06 A3021 RMK T02000060 IEM_DS3505
ZJSY,2006-12-16 17:00,ZJSY 161700Z AUTO 04006KT 6SM 20/05 A3018 RMK T02000050 IEM_DS3505
ZJSY,2006-12-16 18:00,ZJSY 161800Z AUTO 06006KT 6SM 19/05 A3018 RMK T01900050 IEM_DS3505
ZJSY,2006-12-16 19:00,ZJSY 161900Z AUTO 07008KT 6SM 19/06 A3015 RMK T01900060 IEM_DS3505
ZJSY,2006-12-16 20:00,ZJSY 162000Z AUTO 05006KT 6SM 19/06 A3015 RMK T01900060 IEM_DS3505
ZJSY,2006-12-16 21:00,ZJSY 162100Z AUTO 06006KT 6SM 18/06 A3015 RMK T01800060 IEM_DS3505
ZJSY,2006-12-16 22:00,ZJSY 162200Z AUTO 06008KT 6SM 18/06 A3015 RMK T01800060 IEM_DS3505
ZJSY,2006-12-16 23:00,ZJSY 162300Z AUTO 08010KT 6SM 18/07 A3018 RMK T01800070 IEM_DS3505
ZJSY,2006-12-17 00:00,ZJSY 170000Z 06004MPS CAVOK 19/08 Q1023 NOSIG
ZJSY,2006-12-17 01:00,ZJSY 170100Z AUTO 06010KT 6SM 21/08 A3024 RMK T02100080 IEM_DS3505
ZJSY,2006-12-17 02:00,ZJSY 170200Z AUTO 06014KT 6SM 22/08 A3024 RMK T02200080 IEM_DS3505
ZJSY,2006-12-17 03:00,ZJSY 170300Z AUTO 05017KT 6SM 24/09 A3021 RMK T02400090 IEM_DS3505
ZJSY,2006-12-17 04:00,ZJSY 170400Z AUTO 05016KT 6SM 25/10 A3018 RMK T02500100 IEM_DS3505
ZJSY,2006-12-17 05:00,ZJSY 170500Z AUTO 07012KT 6SM 25/11 A3015 RMK T02500110 IEM_DS3505
ZJSY,2006-12-17 06:00,ZJSY 170600Z AUTO 07014KT 7SM 25/11 A3012 RMK T02500110 IEM_DS3505
ZJSY,2006-12-17 07:00,ZJSY 170700Z AUTO 06012KT 7SM 25/11 A3009 RMK T02500110 IEM_DS3505
ZJSY,2006-12-17 08:00,ZJSY 170800Z AUTO 09014KT 6SM 23/11 A3009 RMK T02300110 IEM_DS3505
ZJSY,2006-12-17 09:00,ZJSY 170900Z AUTO 09014KT 6SM 22/11 A3009 RMK T02200110 IEM_DS3505
ZJSY,2006-12-17 10:00,ZJSY 171000Z AUTO 08014KT 6SM 20/10 A3009 RMK T02000100 IEM_DS3505
ZJSY,2006-12-17 11:00,ZJSY 171100Z AUTO 08014KT 6SM 19/10 A3012 RMK T01900100 IEM_DS3505
ZJSY,2006-12-17 12:00,ZJSY 171200Z 07006MPS CAVOK 19/10 Q1021 NOSIG
ZJSY,2006-12-17 13:00,ZJSY 171300Z AUTO 03014KT 6SM 19/09 A3018 RMK T01900090 IEM_DS3505
ZJSY,2006-12-17 14:00,ZJSY 171400Z AUTO 01008KT 6SM 19/09 A3018 RMK T01900090 IEM_DS3505
ZJSY,2006-12-17 15:00,ZJSY 171500Z AUTO 01006KT 6SM 18/09 A3021 RMK T01800090 IEM_DS3505
ZJSY,2006-12-17 16:00,ZJSY 171600Z AUTO 03006KT 6SM 18/09 A3018 RMK T01800090 IEM_DS3505
ZJSY,2006-12-17 17:00,ZJSY 171700Z AUTO 04006KT 6SM 18/09 A3018 RMK T01800090 IEM_DS3505
ZJSY,2006-12-17 18:00,ZJSY 171800Z AUTO 03008KT 6SM 18/09 A3015 RMK T01800090 IEM_DS3505
ZJSY,2006-12-17 19:00,ZJSY 171900Z AUTO 02008KT 6SM 18/09 A3015 RMK T01800090 IEM_DS3505
ZJSY,2006-12-17 20:00,ZJSY 172000Z AUTO 03006KT 6SM 18/09 A3015 RMK T01800090 IEM_DS3505
ZJSY,2006-12-17 21:00,ZJSY 172100Z 02002MPS CAVOK 18/10 Q1021 NOSIG
ZJSY,2006-12-17 22:00,ZJSY 172200Z AUTO 04008KT 6SM 18/10 A3012 RMK T01800100 IEM_DS3505
ZJSY,2006-12-17 23:00,ZJSY 172300Z AUTO 07006KT 6SM 17/10 A3015 RMK T01700100 IEM_DS3505
ZJSY,2006-12-18 00:00,ZJSY 180000Z AUTO 05004KT 6SM 19/11 A3018 RMK T01900110 IEM_DS3505
ZJSY,2006-12-18 01:00,ZJSY 180100Z AUTO 07010KT 6SM 22/11 A3018 RMK T02200110 IEM_DS3505
ZJSY,2006-12-18 02:00,ZJSY 180200Z AUTO 06016G25KT 6SM 23/11 A3018 RMK T02300110 IEM_DS3505
ZJSY,2006-12-18 03:00,ZJSY 180300Z AUTO 05016KT 6SM 25/11 A3018 RMK T02500110 IEM_DS3505
ZJSY,2006-12-18 04:00,ZJSY 180400Z AUTO 05016KT 6SM 26/12 A3015 RMK T02600120 IEM_DS3505
ZJSY,2006-12-18 05:00,ZJSY 180500Z AUTO 05012KT 6SM 26/12 A3012 RMK T02600120 IEM_DS3505
ZJSY,2006-12-18 06:00,ZJSY 180600Z AUTO 05012KT 6SM 26/12 A3009 RMK T02600120 IEM_DS3505
ZJSY,2006-12-18 07:00,ZJSY 180700Z AUTO 05010KT 7SM 26/12 A3006 RMK T02600120 IEM_DS3505
ZJSY,2006-12-18 08:00,ZJSY 180800Z AUTO 06010KT 7SM 25/12 A3006 RMK T02500120 IEM_DS3505
ZJSY,2006-12-18 09:00,ZJSY 180900Z AUTO 04010KT 7SM 24/12 A3006 RMK T02400120 IEM_DS3505
ZJSY,2006-12-18 10:00,ZJSY 181000Z AUTO 07010KT 7SM 23/13 A3009 RMK T02300130 IEM_DS3505
ZJSY,2006-12-18 11:00,ZJSY 181100Z AUTO 09008KT 7SM 22/13 A3009 RMK T02200130 IEM_DS3505
ZJSY,2006-12-18 12:00,ZJSY 181200Z AUTO 00000KT 7SM 22/13 A3012 RMK T02200130 IEM_DS3505
ZJSY,2006-12-18 13:00,ZJSY 181300Z AUTO 08006KT 7SM 21/13 A3012 RMK T02100130 IEM_DS3505
ZJSY,2006-12-18 14:00,ZJSY 181400Z AUTO 02004KT 7SM 22/13 A3015 RMK T02200130 IEM_DS3505
ZJSY,2006-12-18 15:00,ZJSY 181500Z AUTO 06006KT 7SM 21/13 A3015 RMK T02100130 IEM_DS3505
ZJSY,2006-12-18 16:00,ZJSY 181600Z AUTO 07008KT 7SM 21/13 A3015 RMK T02100130 IEM_DS3505
ZJSY,2006-12-18 17:00,ZJSY 181700Z AUTO 00000KT 7SM 20/14 A3012 RMK T02000140 IEM_DS3505
ZJSY,2006-12-18 18:00,ZJSY 181800Z AUTO 7SM 20/14 A3012 RMK T02000140 IEM_DS3505
ZJSY,2006-12-18 19:00,ZJSY 181900Z AUTO 07006KT 7SM 20/14 A3012 RMK T02000140 IEM_DS3505
ZJSY,2006-12-18 20:00,ZJSY 182000Z 04003MPS 9999 FEW016 SCT070 20/13 Q1019 NOSIG
ZJSY,2006-12-18 21:00,ZJSY 182100Z AUTO 09004KT 7SM 20/13 A3009 RMK T02000130 IEM_DS3505
ZJSY,2006-12-18 22:00,ZJSY 182200Z 09004MPS 9999 FEW016 20/13 Q1020 NOSIG
ZJSY,2006-12-18 23:00,ZJSY 182300Z AUTO 07008KT 7SM 20/13 A3012 RMK T02000130 IEM_DS3505
ZJSY,2006-12-19 00:00,ZJSY 190000Z AUTO 07008KT 7SM 21/13 A3012 RMK T02100130 IEM_DS3505
ZJSY,2006-12-19 01:00,ZJSY 190100Z AUTO 07010KT 6SM 22/13 A3015 RMK T02200130 IEM_DS3505
ZJSY,2006-12-19 02:00,ZJSY 190200Z AUTO 07012KT 6SM 22/13 A3018 RMK T02200130 IEM_DS3505
ZJSY,2006-12-19 03:00,ZJSY 190300Z AUTO 07014KT 7SM 23/12 A3018 RMK T02300120 IEM_DS3505
ZJSY,2006-12-19 04:00,ZJSY 190400Z AUTO 07014KT 7SM 24/12 A3015 RMK T02400120 IEM_DS3505
ZJSY,2006-12-19 05:00,ZJSY 190500Z AUTO 06014KT 7SM 25/12 A3012 RMK T02500120 IEM_DS3505
ZJSY,2006-12-19 06:00,ZJSY 190600Z AUTO 06014KT 7SM 25/12 A3009 RMK T02500120 IEM_DS3505
ZJSY,2006-12-19 07:00,ZJSY 190700Z AUTO 06012KT 7SM 26/13 A3009 RMK T02600130 IEM_DS3505
ZJSY,2006-12-19 08:00,ZJSY 190800Z AUTO 05014KT 6SM 25/12 A3009 RMK T02500120 IEM_DS3505
ZJSY,2006-12-19 09:00,ZJSY 190900Z AUTO 06012KT 6SM 24/12 A3009 RMK T02400120 IEM_DS3505
ZJSY,2006-12-19 10:00,ZJSY 191000Z AUTO 06010KT 7SM 23/12 A3012 RMK T02300120 IEM_DS3505
ZJSY,2006-12-19 11:00,ZJSY 191100Z 06005MPS 9999 SCT016 BKN043 22/11 Q1021 NOSIG
ZJSY,2006-12-19 12:00,ZJSY 191200Z 08006MPS 9999 FEW016 BKN043 21/13 Q1022 NOSIG
ZJSY,2006-12-19 13:00,ZJSY 191300Z AUTO 08010KT 7SM 20/13 A3018 RMK T02000130 IEM_DS3505
ZJSY,2006-12-19 14:00,ZJSY 191400Z AUTO 06010KT 7SM 21/13 A3018 RMK T02100130 IEM_DS3505
ZJSY,2006-12-19 15:00,ZJSY 191500Z AUTO 04008KT 7SM 21/12 A3018 RMK T02100120 IEM_DS3505
ZJSY,2006-12-19 16:00,ZJSY 191600Z AUTO 03006KT 7SM 20/11 A3018 RMK T02000110 IEM_DS3505
ZJSY,2006-12-19 17:00,ZJSY 191700Z AUTO 11004KT 7SM 20/09 A3018 RMK T02000090 IEM_DS3505
ZJSY,2006-12-19 18:00,ZJSY 191800Z AUTO 08006KT 7SM 18/07 A3018 RMK T01800070 IEM_DS3505
ZJSY,2006-12-19 19:00,ZJSY 191900Z AUTO 36004KT 18/08 A3015 RMK T01800080 IEM_DS3505
ZJSY,2006-12-19 20:00,ZJSY 192000Z AUTO 17/07 A3015 RMK T01700070 IEM_DS3505
ZJSY,2006-12-19 21:00,ZJSY 192100Z AUTO 34004KT 7SM 15/09 A3015 RMK T01500090 IEM_DS3505
ZJSY,2006-12-19 22:00,ZJSY 192200Z AUTO 00000KT 7SM 14/09 A3015 RMK T01400090 IEM_DS3505
ZJSY,2006-12-19 23:00,ZJSY 192300Z AUTO 6SM 14/09 A3015 RMK T01400090 IEM_DS3505
ZJSY,2006-12-20 00:00,ZJSY 200000Z AUTO 00000KT 6SM 15/09 A3018 RMK T01500090 IEM_DS3505
ZJSY,2006-12-20 01:00,ZJSY 200100Z AUTO 6SM 20/08 A3021 RMK T02000080 IEM_DS3505
ZJSY,2006-12-20 02:00,ZJSY 200200Z AUTO 6SM 22/08 A3021 RMK T02200080 IEM_DS3505
ZJSY,2006-12-20 03:00,ZJSY 200300Z AUTO 6SM 24/09 A3021 RMK T02400090 IEM_DS3505
ZJSY,2006-12-20 04:00,ZJSY 200400Z 21003MPS 180V250 CAVOK 24/10 Q1022 NOSIG
ZJSY,2006-12-20 05:00,ZJSY 200500Z AUTO 21008KT 6SM 24/12 A3012 RMK T02400120 IEM_DS3505
ZJSY,2006-12-20 06:00,ZJSY 200600Z AUTO 22008KT 6SM 24/13 A3009 RMK T02400130 IEM_DS3505
ZJSY,2006-12-20 07:00,ZJSY 200700Z AUTO 21006KT 6SM 25/12 A3009 RMK T02500120 IEM_DS3505
ZJSY,2006-12-20 08:00,ZJSY 200800Z AUTO 19006KT 6SM 23/14 A3009 RMK T02300140 IEM_DS3505
ZJSY,2006-12-20 09:00,ZJSY 200900Z AUTO 18006KT 6SM 23/13 A3009 RMK T02300130 IEM_DS3505
ZJSY,2006-12-20 10:00,ZJSY 201000Z AUTO 16004KT 6SM 22/14 A3012 RMK T02200140 IEM_DS3505
ZJSY,2006-12-20 11:00,ZJSY 201100Z AUTO 11006KT 6SM 21/15 A3012 RMK T02100150 IEM_DS3505
ZJSY,2006-12-20 12:00,ZJSY 201200Z AUTO 07004KT 6SM 20/14 A3015 RMK T02000140 IEM_DS3505
ZJSY,2006-12-20 13:00,ZJSY 201300Z AUTO 07008KT 7SM 20/13 A3018 RMK T02000130 IEM_DS3505
ZJSY,2006-12-20 14:00,ZJSY 201400Z AUTO 07010KT 7SM 19/11 A3018 RMK T01900110 IEM_DS3505
ZJSY,2006-12-20 15:00,ZJSY 201500Z AUTO 06006KT 7SM 19/10 A3018 RMK T01900100 IEM_DS3505
ZJSY,2006-12-20 16:00,ZJSY 201600Z AUTO 06004KT 7SM 17/10 A3018 RMK T01700100 IEM_DS3505
ZJSY,2006-12-20 17:00,ZJSY 201700Z AUTO 07006KT 6SM 16/09 A3018 RMK T01600090 IEM_DS3505
ZJSY,2006-12-20 18:00,ZJSY 201800Z AUTO 6SM 16/08 A3018 RMK T01600080 IEM_DS3505
ZJSY,2006-12-20 19:00,ZJSY 201900Z AUTO 6SM 14/09 A3015 RMK T01400090 IEM_DS3505
ZJSY,2006-12-20 20:00,ZJSY 202000Z AUTO 35002KT 6SM 12/08 A3015 RMK T01200080 IEM_DS3505
ZJSY,2006-12-20 21:00,ZJSY 202100Z AUTO 35004KT 6SM 12/08 A3015 RMK T01200080 IEM_DS3505
ZJSY,2006-12-20 22:00,ZJSY 202200Z AUTO 35004KT 6SM 11/08 A3015 RMK T01100080 IEM_DS3505
ZJSY,2006-12-20 23:00,ZJSY 202300Z AUTO 34004KT 6SM 11/08 A3015 RMK T01100080 IEM_DS3505
ZJSY,2006-12-21 00:00,ZJSY 210000Z AUTO 6SM 13/09 A3018 RMK T01300090 IEM_DS3505
ZJSY,2006-12-21 01:00,ZJSY 210100Z AUTO 6SM 18/10 A3021 RMK T01800100 IEM_DS3505
ZJSY,2006-12-21 02:00,ZJSY 210200Z AUTO 6SM 21/07 A3021 RMK T02100070 IEM_DS3505
ZJSY,2006-12-21 03:00,ZJSY 210300Z AUTO 18004KT 6SM 22/08 A3021 RMK T02200080 IEM_DS3505
ZJSY,2006-12-21 04:00,ZJSY 210400Z AUTO 21006KT 6SM 23/08 A3015 RMK T02300080 IEM_DS3505
ZJSY,2006-12-21 05:00,ZJSY 210500Z AUTO 21006KT 6SM 24/07 A3012 RMK T02400070 IEM_DS3505
ZJSY,2006-12-21 06:00,ZJSY 210600Z AUTO 24006KT 6SM 24/09 A3009 RMK T02400090 IEM_DS3505
ZJSY,2006-12-21 07:00,ZJSY 210700Z AUTO 20008KT 6SM 24/10 A3006 RMK T02400100 IEM_DS3505
ZJSY,2006-12-21 08:00,ZJSY 210800Z AUTO 21006KT 6SM 23/10 A3006 RMK T02300100 IEM_DS3505
ZJSY,2006-12-21 09:00,ZJSY 210900Z AUTO 20006KT 6SM 22/11 A3006 RMK T02200110 IEM_DS3505
ZJSY,2006-12-21 10:00,ZJSY 211000Z AUTO 6SM 22/11 A3009 RMK T02200110 IEM_DS3505
ZJSY,2006-12-21 11:00,ZJSY 211100Z 34002MPS CAVOK 19/12 Q1019 NOSIG
ZJSY,2006-12-21 12:00,ZJSY 211200Z 00000MPS CAVOK 18/12 Q1020 NOSIG
ZJSY,2006-12-21 13:00,ZJSY 211300Z AUTO 6SM 17/11 A3012 RMK T01700110 IEM_DS3505
ZJSY,2006-12-21 14:00,ZJSY 211400Z AUTO 06004KT 6SM 17/08 A3012 RMK T01700080 IEM_DS3505
ZJSY,2006-12-21 15:00,ZJSY 211500Z AUTO 06004KT 6SM 15/09 A3015 RMK T01500090 IEM_DS3505
ZJSY,2006-12-21 16:00,ZJSY 211600Z AUTO 08006KT 6SM 15/08 A3015 RMK T01500080 IEM_DS3505
ZJSY,2006-12-21 17:00,ZJSY 211700Z AUTO 02004KT 6SM 14/08 A3012 RMK T01400080 IEM_DS3505
ZJSY,2006-12-21 18:00,ZJSY 211800Z AUTO 36004KT 6SM 13/08 A3012 RMK T01300080 IEM_DS3505
ZJSY,2006-12-21 19:00,ZJSY 211900Z AUTO 34008KT 6SM 13/08 A3009 RMK T01300080 IEM_DS3505
ZJSY,2006-12-21 20:00,ZJSY 212000Z AUTO 15/08 A3009 RMK T01500080 IEM_DS3505
ZJSY,2006-12-21 21:00,ZJSY 212100Z AUTO 00000KT 6SM 16/08 A3009 RMK T01600080 IEM_DS3505
ZJSY,2006-12-21 22:00,ZJSY 212200Z AUTO 36004KT 6SM 15/08 A3009 RMK T01500080 IEM_DS3505
ZJSY,2006-12-21 23:00,ZJSY 212300Z AUTO 35004KT 6SM 15/08 A3009 RMK T01500080 IEM_DS3505
ZJSY,2006-12-22 00:00,ZJSY 220000Z AUTO 01004KT 6SM 16/10 A3012 RMK T01600100 IEM_DS3505
ZJSY,2006-12-22 01:00,ZJSY 220100Z AUTO 35004KT 6SM 19/10 A3015 RMK T01900100 IEM_DS3505
ZJSY,2006-12-22 02:00,ZJSY 220200Z AUTO 36004KT 6SM 21/09 A3015 RMK T02100090 IEM_DS3505
ZJSY,2006-12-22 03:00,ZJSY 220300Z AUTO 36004KT 6SM 23/09 A3015 RMK T02300090 IEM_DS3505
ZJSY,2006-12-22 04:00,ZJSY 220400Z AUTO 07008KT 6SM 25/08 A3009 RMK T02500080 IEM_DS3505
ZJSY,2006-12-22 05:00,ZJSY 220500Z AUTO 05014KT 6SM 25/08 A3009 RMK T02500080 IEM_DS3505
ZJSY,2006-12-22 07:00,ZJSY 220700Z AUTO 6SM 26/07 A3003 RMK T02600070 IEM_DS3505
ZJSY,2006-12-22 08:00,ZJSY 220800Z AUTO 08008KT 6SM 25/07 A3003 RMK T02500070 IEM_DS3505
ZJSY,2006-12-22 09:00,ZJSY 220900Z AUTO 20006KT 6SM 23/12 A3003 RMK T02300120 IEM_DS3505
ZJSY,2006-12-22 10:00,ZJSY 221000Z AUTO 27006KT 6SM 22/11 A3003 RMK T02200110 IEM_DS3505
ZJSY,2006-12-22 11:00,ZJSY 221100Z VRB01MPS CAVOK 21/11 Q1018 NOSIG
ZJSY,2006-12-22 12:00,ZJSY 221200Z 34002MPS CAVOK 18/12 Q1018
ZJSY,2006-12-22 13:00,ZJSY 221300Z AUTO 07006KT 6SM 18/12 A3009 RMK T01800120 IEM_DS3505
ZJSY,2006-12-22 14:00,ZJSY 221400Z AUTO 35004KT 6SM 17/12 A3009 RMK T01700120 IEM_DS3505
ZJSY,2006-12-22 15:00,ZJSY 221500Z AUTO 32004KT 7SM 18/12 A3009 RMK T01800120 IEM_DS3505
ZJSY,2006-12-22 16:00,ZJSY 221600Z AUTO 7SM 19/12 A3006 RMK T01900120 IEM_DS3505
ZJSY,2006-12-22 17:00,ZJSY 221700Z AUTO 00000KT 6SM 18/11 A3006 RMK T01800110 IEM_DS3505
ZJSY,2006-12-22 18:00,ZJSY 221800Z AUTO 00000KT 6SM 17/11 A3003 RMK T01700110 IEM_DS3505
ZJSY,2006-12-22 19:00,ZJSY 221900Z AUTO 34004KT 6SM 16/12 A3003 RMK T01600120 IEM_DS3505
ZJSY,2006-12-22 20:00,ZJSY 222000Z AUTO 29002KT 16/12 A3000 RMK T01600120 IEM_DS3505
ZJSY,2006-12-22 21:00,ZJSY 222100Z AUTO 00000KT 7SM 16/12 A3000 RMK T01600120 IEM_DS3505
ZJSY,2006-12-22 22:00,ZJSY 222200Z AUTO 00000KT 7SM 16/12 A3000 RMK T01600120 IEM_DS3505
ZJSY,2006-12-22 23:00,ZJSY 222300Z AUTO 34002KT 7SM 16/12 A3003 RMK T01600120 IEM_DS3505
ZJSY,2006-12-23 00:00,ZJSY 230000Z AUTO 33004KT 7SM 18/12 A3003 RMK T01800120 IEM_DS3505
ZJSY,2006-12-23 01:00,ZJSY 230100Z AUTO 7SM 20/12 A3006 RMK T02000120 IEM_DS3505
ZJSY,2006-12-23 02:00,ZJSY 230200Z AUTO 7SM 23/11 A3006 RMK T02300110 IEM_DS3505
ZJSY,2006-12-23 03:00,ZJSY 230300Z AUTO 16004KT 6SM 23/12 A3006 RMK T02300120 IEM_DS3505
ZJSY,2006-12-23 04:00,ZJSY 230400Z AUTO 15004KT 6SM 24/12 A3003 RMK T02400120 IEM_DS3505
ZJSY,2006-12-23 05:00,ZJSY 230500Z AUTO 07006KT 7SM 25/13 A3000 RMK T02500130 IEM_DS3505
ZJSY,2006-12-23 06:00,ZJSY 230600Z AUTO 23006KT 7SM 25/14 A2997 RMK T02500140 IEM_DS3505
ZJSY,2006-12-23 07:00,ZJSY 230700Z AUTO 24006KT 7SM 24/15 A2997 RMK T02400150 IEM_DS3505
ZJSY,2006-12-23 08:00,ZJSY 230800Z AUTO 24004KT 7SM 23/14 A2997 RMK T02300140 IEM_DS3505
ZJSY,2006-12-23 09:00,ZJSY 230900Z AUTO 27004KT 7SM 23/14 A2997 RMK T02300140 IEM_DS3505
ZJSY,2006-12-23 10:00,ZJSY 231000Z AUTO 30004KT 7SM 23/15 A2997 RMK T02300150 IEM_DS3505
ZJSY,2006-12-23 11:00,ZJSY 231100Z VRB01MPS 9999 FEW015 BKN070 22/14 Q1016 NOSIG
ZJSY,2006-12-23 12:00,ZJSY 231200Z 03001MPS 9999 BKN070 22/14 Q1017 NOSIG
ZJSY,2006-12-23 13:00,ZJSY 231300Z AUTO 7SM 22/15 A3003 RMK T02200150 IEM_DS3505
ZJSY,2006-12-23 14:00,ZJSY 231400Z AUTO 08006KT 7SM 21/15 A3006 RMK T02100150 IEM_DS3505
ZJSY,2006-12-23 15:00,ZJSY 231500Z AUTO 7SM 21/16 A3003 RMK T02100160 IEM_DS3505
ZJSY,2006-12-23 16:00,ZJSY 231600Z AUTO 35004KT 7SM 21/15 A3003 RMK T02100150 IEM_DS3505
ZJSY,2006-12-23 17:00,ZJSY 231700Z AUTO 35004KT 7SM 21/15 A3003 RMK T02100150 IEM_DS3505
ZJSY,2006-12-23 19:00,ZJSY 231900Z AUTO 36002KT 7SM 21/14 A2997 RMK T02100140 IEM_DS3505
ZJSY,2006-12-23 20:00,ZJSY 232000Z AUTO 7SM 20/15 A2997 RMK T02000150 IEM_DS3505
ZJSY,2006-12-23 21:00,ZJSY 232100Z AUTO 7SM 20/15 A2997 RMK T02000150 IEM_DS3505
ZJSY,2006-12-23 22:00,ZJSY 232200Z AUTO 00000KT 7SM 20/15 A2997 RMK T02000150 IEM_DS3505
ZJSY,2006-12-23 23:00,ZJSY 232300Z AUTO 00000KT 7SM 20/16 A3000 RMK T02000160 IEM_DS3505
ZJSY,2006-12-24 00:00,ZJSY 240000Z AUTO 34004KT 3SM 20/16 A3000 RMK T02000160 IEM_DS3505
ZJSY,2006-12-24 01:00,ZJSY 240100Z AUTO 00000KT 5SM 22/14 A3003 RMK T02200140 IEM_DS3505
ZJSY,2006-12-24 02:00,ZJSY 240200Z AUTO 7SM 24/14 A3003 RMK T02400140 IEM_DS3505
ZJSY,2006-12-24 03:00,ZJSY 240300Z AUTO 28004KT 7SM 25/13 A3003 RMK T02500130 IEM_DS3505
ZJSY,2006-12-24 04:00,ZJSY 240400Z AUTO 20006KT 7SM 25/14 A3000 RMK T02500140 IEM_DS3505
ZJSY,2006-12-24 05:00,ZJSY 240500Z AUTO 21006KT 7SM 25/15 A2997 RMK T02500150 IEM_DS3505
ZJSY,2006-12-24 06:00,ZJSY 240600Z AUTO 24008KT 7SM 25/16 A2994 RMK T02500160 IEM_DS3505
ZJSY,2006-12-24 07:00,ZJSY 240700Z AUTO 21006KT 7SM 25/16 A2994 RMK T02500160 IEM_DS3505
ZJSY,2006-12-24 08:00,ZJSY 240800Z AUTO 22004KT 7SM 24/16 A2994 RMK T02400160 IEM_DS3505
ZJSY,2006-12-24 09:00,ZJSY 240900Z AUTO 23004KT 7SM 24/16 A2994 RMK T02400160 IEM_DS3505
ZJSY,2006-12-24 10:00,ZJSY 241000Z AUTO 24004KT 7SM 23/16 A2994 RMK T02300160 IEM_DS3505
ZJSY,2006-12-24 11:00,ZJSY 241100Z AUTO 01002KT 7SM 23/16 A2997 RMK T02300160 IEM_DS3505
ZJSY,2006-12-24 12:00,ZJSY 241200Z AUTO 7SM 23/17 A2997 RMK T02300170 IEM_DS3505
ZJSY,2006-12-24 13:00,ZJSY 241300Z AUTO 7SM 22/17 A3000 RMK T02200170 IEM_DS3505
ZJSY,2006-12-24 14:00,ZJSY 241400Z AUTO 7SM 22/17 A3000 RMK T02200170 IEM_DS3505
ZJSY,2006-12-24 15:00,ZJSY 241500Z AUTO 09004KT 7SM 22/16 A3000 RMK T02200160 IEM_DS3505
ZJSY,2006-12-24 16:00,ZJSY 241600Z AUTO 09004KT 7SM 22/15 A3000 RMK T02200150 IEM_DS3505
ZJSY,2006-12-24 17:00,ZJSY 241700Z AUTO 36004KT 7SM 21/17 A2997 RMK T02100170 IEM_DS3505
ZJSY,2006-12-24 18:00,ZJSY 241800Z AUTO 7SM 21/16 A2997 RMK T02100160 IEM_DS3505
ZJSY,2006-12-24 20:00,ZJSY 242000Z AUTO 00000KT 20/16 A2994 RMK T02000160 IEM_DS3505
ZJSY,2006-12-24 21:00,ZJSY 242100Z AUTO 7SM 19/15 A2997 RMK T01900150 IEM_DS3505
ZJSY,2006-12-24 22:00,ZJSY 242200Z AUTO 34002KT 7SM 19/15 A2997 RMK T01900150 IEM_DS3505
ZJSY,2006-12-24 23:00,ZJSY 242300Z AUTO 06004KT 7SM 20/14 A3000 RMK T02000140 IEM_DS3505
ZJSY,2006-12-25 00:00,ZJSY 250000Z AUTO 7SM 20/14 A3000 RMK T02000140 IEM_DS3505
ZJSY,2006-12-25 01:00,ZJSY 250100Z AUTO 01004KT 7SM 23/13 A3003 RMK T02300130 IEM_DS3505
ZJSY,2006-12-25 02:00,ZJSY 250200Z AUTO 06010KT 7SM 24/13 A3003 RMK T02400130 IEM_DS3505
ZJSY,2006-12-25 03:00,ZJSY 250300Z AUTO 05010KT 7SM 25/12 A3003 RMK T02500120 IEM_DS3505
ZJSY,2006-12-25 04:00,ZJSY 250400Z AUTO 09010KT 7SM 26/13 A3000 RMK T02600130 IEM_DS3505
ZJSY,2006-12-25 05:00,ZJSY 250500Z AUTO 08010KT 7SM 26/14 A2997 RMK T02600140 IEM_DS3505
ZJSY,2006-12-25 06:00,ZJSY 250600Z AUTO 08012KT 7SM 27/14 A2991 RMK T02700140 IEM_DS3505
ZJSY,2006-12-25 07:00,ZJSY 250700Z AUTO 07014KT 6SM 27/15 A2991 RMK T02700150 IEM_DS3505
ZJSY,2006-12-25 08:00,ZJSY 250800Z AUTO 10010KT 7SM 25/15 A2988 RMK T02500150 IEM_DS3505
ZJSY,2006-12-25 09:00,ZJSY 250900Z AUTO 08008KT 7SM 25/16 A2991 RMK T02500160 IEM_DS3505
ZJSY,2006-12-25 10:00,ZJSY 251000Z AUTO 09008KT 7SM 24/16 A2991 RMK T02400160 IEM_DS3505
ZJSY,2006-12-25 11:00,ZJSY 251100Z 08003MPS 9999 BKN050 23/16 Q1013 NOSIG
ZJSY,2006-12-25 12:00,ZJSY 251200Z 08003MPS 9999 BKN050 22/16 Q1014 NOSIG
ZJSY,2006-12-25 13:00,ZJSY 251300Z AUTO 08006KT 7SM 21/16 A2994 RMK T02100160 IEM_DS3505
ZJSY,2006-12-25 14:00,ZJSY 251400Z AUTO 06008KT 7SM 22/16 A2994 RMK T02200160 IEM_DS3505
ZJSY,2006-12-25 15:00,ZJSY 251500Z AUTO 09004KT 7SM 21/16 A2994 RMK T02100160 IEM_DS3505
ZJSY,2006-12-25 16:00,ZJSY 251600Z AUTO 07008KT 7SM 22/16 A2994 RMK T02200160 IEM_DS3505
ZJSY,2006-12-25 17:00,ZJSY 251700Z AUTO 06006KT 7SM 22/16 A2994 RMK T02200160 IEM_DS3505
ZJSY,2006-12-25 18:00,ZJSY 251800Z AUTO 06008KT 7SM 22/16 A2994 RMK T02200160 IEM_DS3505
ZJSY,2006-12-25 19:00,ZJSY 251900Z AUTO 06008KT 7SM 22/16 A2994 RMK T02200160 IEM_DS3505
ZJSY,2006-12-25 20:00,ZJSY 252000Z 06004MPS 9999 SCT050 22/16 Q1014 NOSIG
ZJSY,2006-12-25 21:00,ZJSY 252100Z AUTO 07006KT 7SM 21/17 A2994 RMK T02100170 IEM_DS3505
ZJSY,2006-12-25 22:00,ZJSY 252200Z AUTO 06010KT 7SM 22/17 A2994 RMK T02200170 IEM_DS3505
ZJSY,2006-12-25 23:00,ZJSY 252300Z AUTO 07008KT 7SM 21/17 A2994 RMK T02100170 IEM_DS3505
ZJSY,2006-12-26 00:00,ZJSY 260000Z AUTO 08006KT 6SM 22/17 A2997 RMK T02200170 IEM_DS3505
ZJSY,2006-12-26 01:00,ZJSY 260100Z AUTO 07010KT 6SM 24/17 A3000 RMK T02400170 IEM_DS3505
ZJSY,2006-12-26 02:00,ZJSY 260200Z AUTO 07014KT 5SM 26/18 A3000 RMK T02600180 IEM_DS3505
ZJSY,2006-12-26 03:00,ZJSY 260300Z AUTO 09014KT 6SM 25/18 A3000 RMK T02500180 IEM_DS3505
ZJSY,2006-12-26 04:00,ZJSY 260400Z AUTO 09014KT 7SM 26/17 A2997 RMK T02600170 IEM_DS3505
ZJSY,2006-12-26 05:00,ZJSY 260500Z AUTO 07014KT 7SM 28/18 A2994 RMK T02800180 IEM_DS3505
ZJSY,2006-12-26 06:00,ZJSY 260600Z AUTO 11014KT 7SM 26/18 A2991 RMK T02600180 IEM_DS3505
ZJSY,2006-12-26 07:00,ZJSY 260700Z AUTO 09014KT 7SM 27/16 A2991 RMK T02700160 IEM_DS3505
ZJSY,2006-12-26 08:00,ZJSY 260800Z AUTO 10012KT 7SM 26/17 A2991 RMK T02600170 IEM_DS3505
ZJSY,2006-12-26 09:00,ZJSY 260900Z AUTO 09014KT 6SM 25/16 A2991 RMK T02500160 IEM_DS3505
ZJSY,2006-12-26 10:00,ZJSY 261000Z AUTO 09010KT 6SM 24/17 A2994 RMK T02400170 IEM_DS3505
ZJSY,2006-12-26 11:00,ZJSY 261100Z 08005MPS CAVOK 23/17 Q1015 NOSIG
ZJSY,2006-12-26 12:00,ZJSY 261200Z 08004MPS CAVOK 22/16 Q1015 NOSIG
ZJSY,2006-12-26 13:00,ZJSY 261300Z AUTO 08006KT 6SM 22/16 A3000 RMK T02200160 IEM_DS3505
ZJSY,2006-12-26 14:00,ZJSY 261400Z AUTO 10004KT 6SM 23/17 A3000 RMK T02300170 IEM_DS3505
ZJSY,2006-12-26 15:00,ZJSY 261500Z AUTO 08004KT 7SM 22/17 A3000 RMK T02200170 IEM_DS3505
ZJSY,2006-12-26 16:00,ZJSY 261600Z 07003MPS 9999 BKN050 22/17 Q1016 NOSIG
ZJSY,2006-12-26 17:00,ZJSY 261700Z AUTO 08006KT 6SM 21/16 A2997 RMK T02100160 IEM_DS3505
ZJSY,2006-12-26 18:00,ZJSY 261800Z 10002MPS CAVOK 21/17 Q1015 NOSIG
ZJSY,2006-12-26 19:00,ZJSY 261900Z AUTO 07006KT 6SM 20/17 A2997 RMK T02000170 IEM_DS3505
ZJSY,2006-12-26 20:00,ZJSY 262000Z 07003MPS CAVOK 20/17 Q1014 NOSIG
ZJSY,2006-12-26 22:00,ZJSY 262200Z AUTO 08008KT 6SM 20/17 A2997 RMK T02000170 IEM_DS3505
ZJSY,2006-12-26 23:00,ZJSY 262300Z AUTO 09004KT 6SM 20/16 A2997 RMK T02000160 IEM_DS3505
ZJSY,2006-12-27 00:00,ZJSY 270000Z AUTO 08006KT 6SM 21/17 A3000 RMK T02100170 IEM_DS3505
ZJSY,2006-12-27 01:00,ZJSY 270100Z AUTO 07014KT 6SM 24/17 A3003 RMK T02400170 IEM_DS3505
ZJSY,2006-12-27 02:00,ZJSY 270200Z AUTO 08016KT 7SM 25/17 A3003 RMK T02500170 IEM_DS3505
ZJSY,2006-12-27 03:00,ZJSY 270300Z AUTO 08016KT 7SM 26/17 A3000 RMK T02600170 IEM_DS3505
ZJSY,2006-12-27 04:00,ZJSY 270400Z AUTO 09012KT 7SM 27/17 A3000 RMK T02700170 IEM_DS3505
ZJSY,2006-12-27 05:00,ZJSY 270500Z AUTO 09012KT 7SM 27/17 A2997 RMK T02700170 IEM_DS3505
ZJSY,2006-12-27 06:00,ZJSY 270600Z AUTO 10012KT 7SM 27/17 A2994 RMK T02700170 IEM_DS3505
ZJSY,2006-12-27 07:00,ZJSY 270700Z AUTO 09012KT 7SM 26/16 A2991 RMK T02600160 IEM_DS3505
ZJSY,2006-12-27 08:00,ZJSY 270800Z AUTO 09012KT 7SM 25/16 A2991 RMK T02500160 IEM_DS3505
ZJSY,2006-12-27 09:00,ZJSY 270900Z AUTO 08012KT 7SM 25/16 A2991 RMK T02500160 IEM_DS3505
ZJSY,2006-12-27 10:00,ZJSY 271000Z AUTO 08012KT 7SM 24/16 A2994 RMK T02400160 IEM_DS3505
ZJSY,2006-12-27 11:00,ZJSY 271100Z 09003MPS 060V120 9999 FEW016 BKN050 23/17 Q1015 NOSIG
ZJSY,2006-12-27 12:00,ZJSY 271200Z 08004MPS 9999 BKN050 23/17 Q1016 NOSIG
ZJSY,2006-12-27 13:00,ZJSY 271300Z AUTO 08006KT 7SM 23/16 A3000 RMK T02300160 IEM_DS3505
ZJSY,2006-12-27 14:00,ZJSY 271400Z AUTO 08006KT 7SM 22/16 A3003 RMK T02200160 IEM_DS3505
ZJSY,2006-12-27 15:00,ZJSY 271500Z AUTO 08004KT 6SM 22/16 A3003 RMK T02200160 IEM_DS3505
ZJSY,2006-12-27 16:00,ZJSY 271600Z AUTO 08006KT 6SM 22/16 A3000 RMK T02200160 IEM_DS3505
ZJSY,2006-12-27 17:00,ZJSY 271700Z AUTO 09002KT 6SM 22/16 A3000 RMK T02200160 IEM_DS3505
ZJSY,2006-12-27 18:00,ZJSY 271800Z AUTO 06006KT 6SM 22/16 A3000 RMK T02200160 IEM_DS3505
ZJSY,2006-12-27 19:00,ZJSY 271900Z AUTO 08006KT 6SM 22/16 A3000 RMK T02200160 IEM_DS3505
ZJSY,2006-12-27 20:00,ZJSY 272000Z AUTO 06008KT 6SM 22/16 A3000 RMK T02200160 IEM_DS3505
ZJSY,2006-12-27 21:00,ZJSY 272100Z AUTO 06008KT 6SM 22/15 A3000 RMK T02200150 IEM_DS3505
ZJSY,2006-12-27 23:00,ZJSY 272300Z AUTO 07016KT 6SM 22/15 A3003 RMK T02200150 IEM_DS3505
ZJSY,2006-12-28 00:00,ZJSY 280000Z AUTO 06014KT 7SM 23/15 A3006 RMK T02300150 IEM_DS3505
ZJSY,2006-12-28 01:00,ZJSY 280100Z AUTO 07016KT 7SM 23/14 A3009 RMK T02300140 IEM_DS3505
ZJSY,2006-12-28 02:00,ZJSY 280200Z AUTO 07017KT 7SM 24/13 A3009 RMK T02400130 IEM_DS3505
ZJSY,2006-12-28 03:00,ZJSY 280300Z AUTO 06017KT 5SM 26/13 A3009 RMK T02600130 IEM_DS3505
ZJSY,2006-12-28 04:00,ZJSY 280400Z AUTO 06014KT 4SM 25/13 A3006 RMK T02500130 IEM_DS3505
ZJSY,2006-12-28 05:00,ZJSY 280500Z AUTO 08014KT 4SM 26/13 A3003 RMK T02600130 IEM_DS3505
ZJSY,2006-12-28 06:00,ZJSY 280600Z AUTO 08014KT 4SM 26/13 A3000 RMK T02600130 IEM_DS3505
ZJSY,2006-12-28 07:00,ZJSY 280700Z AUTO 10012KT 4SM 25/14 A3000 RMK T02500140 IEM_DS3505
ZJSY,2006-12-28 08:00,ZJSY 280800Z AUTO 10010KT 4SM 25/14 A3000 RMK T02500140 IEM_DS3505
ZJSY,2006-12-28 09:00,ZJSY 280900Z AUTO 09010KT 5SM 25/13 A3000 RMK T02500130 IEM_DS3505
ZJSY,2006-12-28 10:00,ZJSY 281000Z AUTO 08010KT 5SM 24/13 A3003 RMK T02400130 IEM_DS3505
ZJSY,2006-12-28 11:00,ZJSY 281100Z 09003MPS 8000 BKN060 22/13 Q1018 NOSIG
ZJSY,2006-12-28 12:00,ZJSY 281200Z 07004MPS 8000 BKN060 21/13 Q1019 NOSIG
ZJSY,2006-12-28 13:00,ZJSY 281300Z AUTO 08010KT 5SM 20/14 A3009 RMK T02000140 IEM_DS3505
ZJSY,2006-12-28 14:00,ZJSY 281400Z AUTO 04006KT 5SM 20/13 A3012 RMK T02000130 IEM_DS3505
ZJSY,2006-12-28 15:00,ZJSY 281500Z AUTO 02004KT 5SM 20/12 A3012 RMK T02000120 IEM_DS3505
ZJSY,2006-12-28 16:00,ZJSY 281600Z AUTO 02006KT 5SM 20/12 A3009 RMK T02000120 IEM_DS3505
ZJSY,2006-12-28 17:00,ZJSY 281700Z AUTO 5SM 19/12 A3009 RMK T01900120 IEM_DS3505
ZJSY,2006-12-28 18:00,ZJSY 281800Z AUTO 34004KT 5SM 15/12 A3009 RMK T01500120 IEM_DS3505
ZJSY,2006-12-28 19:00,ZJSY 281900Z AUTO 34006KT 5SM 15/13 A3006 RMK T01500130 IEM_DS3505
ZJSY,2006-12-28 20:00,ZJSY 282000Z AUTO 34006KT 16/12 A3006 RMK T01600120 IEM_DS3505
ZJSY,2006-12-28 21:00,ZJSY 282100Z AUTO 36004KT 5SM 17/12 A3009 RMK T01700120 IEM_DS3505
ZJSY,2006-12-28 22:00,ZJSY 282200Z AUTO 36002KT 5SM 16/12 A3009 RMK T01600120 IEM_DS3505
ZJSY,2006-12-28 23:00,ZJSY 282300Z AUTO 2 1/2SM 16/12 A3012 RMK T01600120 IEM_DS3505
ZJSY,2006-12-29 00:00,ZJSY 290000Z VRB01MPS 6000 SKC 16/12 Q1020 NOSIG
ZJSY,2006-12-29 01:00,ZJSY 290100Z AUTO 4SM 21/12 A3015 RMK T02100120 IEM_DS3505
ZJSY,2006-12-29 02:00,ZJSY 290200Z AUTO 05010KT 6SM 24/12 A3015 RMK T02400120 IEM_DS3505
ZJSY,2006-12-29 03:00,ZJSY 290300Z AUTO 05014KT 6SM 25/13 A3015 RMK T02500130 IEM_DS3505
ZJSY,2006-12-29 04:00,ZJSY 290400Z AUTO 06012KT 6SM 26/13 A3012 RMK T02600130 IEM_DS3505
ZJSY,2006-12-29 05:00,ZJSY 290500Z AUTO 05014KT 5SM 27/14 A3006 RMK T02700140 IEM_DS3505
ZJSY,2006-12-29 06:00,ZJSY 290600Z AUTO 03012KT 5SM 27/14 A3003 RMK T02700140 IEM_DS3505
ZJSY,2006-12-29 07:00,ZJSY 290700Z AUTO 06010KT 5SM 28/14 A3000 RMK T02800140 IEM_DS3505
ZJSY,2006-12-29 08:00,ZJSY 290800Z AUTO 08014KT 5SM 26/15 A3000 RMK T02600150 IEM_DS3505
ZJSY,2006-12-29 09:00,ZJSY 290900Z AUTO 08016KT 5SM 24/15 A3000 RMK T02400150 IEM_DS3505
ZJSY,2006-12-29 10:00,ZJSY 291000Z AUTO 06010KT 4SM 23/15 A3003 RMK T02300150 IEM_DS3505
ZJSY,2006-12-29 11:00,ZJSY 291100Z AUTO 08010KT 4SM 22/15 A3006 RMK T02200150 IEM_DS3505
ZJSY,2006-12-29 12:00,ZJSY 291200Z AUTO 06012KT 4SM 22/14 A3009 RMK T02200140 IEM_DS3505
ZJSY,2006-12-29 13:00,ZJSY 291300Z AUTO 06006KT 4SM 21/14 A3009 RMK T02100140 IEM_DS3505
ZJSY,2006-12-29 14:00,ZJSY 291400Z AUTO 04004KT 4SM 21/14 A3009 RMK T02100140 IEM_DS3505
ZJSY,2006-12-29 15:00,ZJSY 291500Z AUTO 05012KT 4SM 22/15 A3009 RMK T02200150 IEM_DS3505
ZJSY,2006-12-29 16:00,ZJSY 291600Z AUTO 05008KT 4SM 22/15 A3009 RMK T02200150 IEM_DS3505
ZJSY,2006-12-29 18:00,ZJSY 291800Z AUTO 05010KT 4SM 22/15 A3006 RMK T02200150 IEM_DS3505
ZJSY,2006-12-29 19:00,ZJSY 291900Z AUTO 06008KT 4SM 22/15 A3003 RMK T02200150 IEM_DS3505
ZJSY,2006-12-29 20:00,ZJSY 292000Z AUTO 4SM 21/15 A3003 RMK T02100150 IEM_DS3505
ZJSY,2006-12-29 21:00,ZJSY 292100Z AUTO 4SM 19/15 A3003 RMK T01900150 IEM_DS3505
ZJSY,2006-12-29 22:00,ZJSY 292200Z AUTO 29002KT 4SM 20/15 A3003 RMK T02000150 IEM_DS3505
ZJSY,2006-12-29 23:00,ZJSY 292300Z AUTO 11004KT 4SM 20/15 A3006 RMK T02000150 IEM_DS3505
ZJSY,2006-12-30 00:00,ZJSY 300000Z AUTO 05006KT 4SM 21/15 A3009 RMK T02100150 IEM_DS3505
ZJSY,2006-12-30 01:00,ZJSY 300100Z AUTO 05006KT 4SM 24/16 A3009 RMK T02400160 IEM_DS3505
ZJSY,2006-12-30 02:00,ZJSY 300200Z AUTO 05014KT 6SM 26/16 A3009 RMK T02600160 IEM_DS3505
ZJSY,2006-12-30 03:00,ZJSY 300300Z AUTO 05014KT 6SM 26/15 A3009 RMK T02600150 IEM_DS3505
ZJSY,2006-12-30 04:00,ZJSY 300400Z AUTO 05012KT 6SM 27/16 A3006 RMK T02700160 IEM_DS3505
ZJSY,2006-12-30 05:00,ZJSY 300500Z AUTO 07014KT 6SM 28/16 A3000 RMK T02800160 IEM_DS3505
ZJSY,2006-12-30 06:00,ZJSY 300600Z AUTO 08014KT 6SM 28/16 A2997 RMK T02800160 IEM_DS3505
ZJSY,2006-12-30 07:00,ZJSY 300700Z AUTO 09016KT 6SM 27/16 A2997 RMK T02700160 IEM_DS3505
ZJSY,2006-12-30 08:00,ZJSY 300800Z AUTO 08016KT 6SM 26/17 A2997 RMK T02600170 IEM_DS3505
ZJSY,2006-12-30 09:00,ZJSY 300900Z AUTO 08014KT 6SM 25/17 A2997 RMK T02500170 IEM_DS3505
ZJSY,2006-12-30 10:00,ZJSY 301000Z AUTO 06012KT 6SM 24/16 A3000 RMK T02400160 IEM_DS3505
ZJSY,2006-12-30 11:00,ZJSY 301100Z 06004MPS CAVOK 23/16 Q1016 NOSIG
ZJSY,2006-12-30 12:00,ZJSY 301200Z 05004MPS CAVOK 23/16 Q1017 NOSIG
ZJSY,2006-12-30 13:00,ZJSY 301300Z AUTO 06010KT 6SM 23/16 A3006 RMK T02300160 IEM_DS3505
ZJSY,2006-12-30 14:00,ZJSY 301400Z AUTO 04006KT 6SM 23/16 A3006 RMK T02300160 IEM_DS3505
ZJSY,2006-12-30 15:00,ZJSY 301500Z AUTO 03006KT 6SM 23/16 A3006 RMK T02300160 IEM_DS3505
ZJSY,2006-12-30 21:00,ZJSY 302100Z AUTO 04010KT 6SM 23/15 A3000 RMK T02300150 IEM_DS3505
ZJSY,2006-12-30 22:00,ZJSY 302200Z AUTO 06008KT 6SM 23/15 A3000 RMK T02300150 IEM_DS3505
ZJSY,2006-12-30 23:00,ZJSY 302300Z AUTO 05006KT 6SM 22/15 A3003 RMK T02200150 IEM_DS3505
