station,valid,metar
ZJSY,2002-11-18 14:00,ZJSY 181400Z 06004MPS 9999 FEW017 SCT100 25/20 Q1015 NOSIG
ZJSY,2002-11-18 15:00,ZJSY 181500Z 08005MPS 9999 SCT017 25/20 Q1015 NOSIG
ZJSY,2002-11-18 16:00,ZJSY 181600Z 08006MPS 9999 SCT017 25/21 Q1015 NOSIG
ZJSY,2002-11-18 17:00,ZJSY 181700Z AUTO 07005MPS //// // ////// 26/21 Q1015 NOSIG
ZJSY,2002-11-18 18:00,ZJSY 181800Z AUTO 06006MPS //// // ////// 25/20 Q1014 NOSIG
ZJSY,2002-11-18 19:00,ZJSY 181900Z AUTO 05005MPS //// // ////// 25/20 Q1013 NOSIG
ZJSY,2002-11-18 20:00,ZJSY 182000Z AUTO 06003MPS //// // ////// 25/20 Q1013 NOSIG
ZJSY,2002-11-18 21:00,ZJSY 182100Z AUTO 07005MPS //// // ////// 26/20 Q1013 NOSIG
ZJSY,2002-11-18 22:00,ZJSY 182200Z 07004MPS 9999 SCT017 26/20 Q1013 NOSIG
ZJSY,2002-11-18 23:00,ZJSY 182300Z 08007MPS 7000 -SHRA SCT011 SCT017 BKN040 24/21 Q1014 NOSIG
ZJSY,2002-11-19 00:00,ZJSY 190000Z 09002MPS 9000 FEW011 SCT017 BKN050 24/22 Q1014 NOSIG
ZJSY,2002-11-19 01:00,ZJSY 190100Z 08004MPS 9000 VCSH SCT011 BKN050 25/22 Q1015 NOSIG
ZJSY,2002-11-19 02:00,ZJSY 190200Z 09005MPS 9999 SCT011 BKN053 26/22 Q1015 NOSIG
ZJSY,2002-11-19 03:00,ZJSY 190300Z 08005MPS 9999 SCT011 BKN060 28/22 Q1015 NOSIG
ZJSY,2002-11-19 04:00,ZJSY 190400Z 07008MPS 9999 SCT011 BKN066 28/21 Q1014 NOSIG
ZJSY,2002-11-19 05:00,ZJSY 190500Z 07006MPS 9999 FEW011 SCT100 30/22 Q1013 NOSIG
ZJSY,2002-11-19 06:00,ZJSY 190600Z 07007MPS 9999 SCT011 BKN100 26/22 Q1012 NOSIG
ZJSY,2002-11-19 07:00,ZJSY 190700Z 08005MPS 8000 -SHRA BKN010 SCT017 BKN066 27/22 Q1012 NOSIG
ZJSY,2002-11-19 08:00,ZJSY 190800Z 07006MPS 8000 -SHRA SCT010 BKN066 25/22 Q1012 NOSIG
ZJSY,2002-11-19 09:00,ZJSY 190900Z 07004MPS 8000 VCSH BKN010 BKN066 25/22 Q1012 NOSIG
ZJSY,2002-11-19 10:00,ZJSY 191000Z 07005MPS 5000 RA BKN010 OVC040 25/22 Q1012 TEMPO 3000 SHRA
ZJSY,2002-11-19 11:00,ZJSY 191100Z 08004MPS 9999 FEW017 BKN050 24/22 Q1013 NOSIG
ZJSY,2002-11-19 12:00,ZJSY 191200Z 08004MPS 9999 FEW017 BKN040 24/22 Q1013 NOSIG
ZJSY,2002-11-19 13:00,ZJSY 191300Z 07004MPS CAVOK 25/21 Q1014 NOSIG
ZJSY,2002-11-19 14:00,ZJSY 191400Z 08003MPS 5000 -RA SCT016 OVC033 25/22 Q1014 NOSIG
ZJSY,2002-11-19 15:00,ZJSY 191500Z 10002MPS 6000 -RA SCT017 OVC040 24/22 Q1015 RERA NOSIG
ZJSY,2002-11-19 16:00,ZJSY 191600Z 07004MPS 6000 -RA SCT017 OVC033 24/22 Q1014 NOSIG
ZJSY,2002-11-19 17:00,ZJSY 191700Z AUTO 07004MPS //// // ////// 24/22 Q1014 NOSIG
ZJSY,2002-11-19 18:00,ZJSY 191800Z AUTO 07004MPS //// // ////// 24/22 Q1013 NOSIG
ZJSY,2002-11-19 19:00,ZJSY 191900Z AUTO 06003MPS //// // ////// 24/22 Q1013 NOSIG
ZJSY,2002-11-19 20:00,ZJSY 192000Z AUTO 06003MPS //// // ////// 24/22 Q1013 NOSIG
ZJSY,2002-11-19 21:00,ZJSY 192100Z AUTO 07005MPS //// // ////// 25/22 Q1013 NOSIG
ZJSY,2002-11-19 22:00,ZJSY 192200Z 07004MPS 8000 -RA BKN033 SCT100 24/22 Q1013 NOSIG
ZJSY,2002-11-19 23:00,ZJSY 192300Z 07004MPS 9999 FEW017 SCT030 BKN100 25/22 Q1014 NOSIG
ZJSY,2002-11-20 00:00,ZJSY 200000Z 07004MPS 9999 FEW017 SCT026 25/22 Q1014 NOSIG
ZJSY,2002-11-20 01:00,ZJSY 200100Z 08006MPS 9999 SCT017 26/22 Q1014 NOSIG
ZJSY,2002-11-20 02:00,ZJSY 200200Z 08007MPS 9999 FEW018 27/22 Q1015 NOSIG
ZJSY,2002-11-20 03:00,ZJSY 200300Z 08007MPS 9999 SCT018 29/23 Q1015 NOSIG
ZJSY,2002-11-20 04:00,ZJSY 200400Z 08006MPS 9999 SCT016 FEW018TCU 28/22 Q1014 NOSIG
ZJSY,2002-11-20 05:00,ZJSY 200500Z 07006MPS 9999 SCT016 FEW018TCU 29/22 Q1014 NOSIG
ZJSY,2002-11-20 06:00,ZJSY 200600Z 05005MPS 9999 SCT016 FEW018TCU 29/22 Q1013 NOSIG
ZJSY,2002-11-20 07:00,ZJSY 200700Z 09006MPS 9999 SCT016 FEW017TCU 30/22 Q1012 NOSIG
ZJSY,2002-11-20 08:00,ZJSY 200800Z 09006MPS 9999 SCT016 29/22 Q1012 NOSIG
ZJSY,2002-11-20 09:00,ZJSY 200900Z 09006MPS 9999 SCT016 28/22 Q1012 NOSIG
ZJSY,2002-11-20 10:00,ZJSY 201000Z 09004MPS 9999 FEW016 SCT230 27/22 Q1013 NOSIG
ZJSY,2002-11-20 11:00,ZJSY 201100Z 09003MPS CAVOK 26/22 Q1014 NOSIG
ZJSY,2002-11-20 12:00,ZJSY 201200Z 09005MPS CAVOK 26/21 Q1014 NOSIG
ZJSY,2002-11-20 13:00,ZJSY 201300Z 10004MPS CAVOK 25/21 Q1015 NOSIG
ZJSY,2002-11-20 14:00,ZJSY 201400Z 08004MPS CAVOK 25/21 Q1016 NOSIG
ZJSY,2002-11-20 15:00,ZJSY 201500Z 05003MPS CAVOK 25/21 Q1016 NOSIG
ZJSY,2002-11-20 16:00,ZJSY 201600Z 05003MPS CAVOK 24/21 Q1016 NOSIG
ZJSY,2002-11-20 17:00,ZJSY 201700Z 10002MPS CAVOK 24/21 Q1015 NOSIG
ZJSY,2002-11-20 18:00,ZJSY 201800Z AUTO 09002MPS //// // ////// 23/20 Q1015 NOSIG
ZJSY,2002-11-20 19:00,ZJSY 201900Z AUTO 06003MPS //// // ////// 23/20 Q1014 NOSIG
ZJSY,2002-11-20 20:00,ZJSY 202000Z AUTO 07003MPS //// // ////// 23/20 Q1014 NOSIG
ZJSY,2002-11-20 21:00,ZJSY 202100Z AUTO 04002MPS //// // ////// 23/20 Q1014 NOSIG
ZJSY,2002-11-20 22:00,ZJSY 202200Z 01001MPS CAVOK 22/20 Q1014 NOSIG
ZJSY,2002-11-20 23:00,ZJSY 202300Z 09002MPS CAVOK 22/20 Q1015 NOSIG
ZJSY,2002-11-21 00:00,ZJSY 210000Z 05003MPS CAVOK 24/20 Q1015 NOSIG
ZJSY,2002-11-21 01:00,ZJSY 210100Z 07003MPS CAVOK 26/20 Q1016 NOSIG
ZJSY,2002-11-21 02:00,ZJSY 210200Z 05006MPS CAVOK 28/20 Q1016 NOSIG
ZJSY,2002-11-21 03:00,ZJSY 210300Z 05006MPS 9999 FEW016 29/19 Q1016 NOSIG
ZJSY,2002-11-21 04:00,ZJSY 210400Z 05005MPS 9999 SCT016 FEW025TCU 29/19 Q1015 NOSIG
ZJSY,2002-11-21 05:00,ZJSY 210500Z 06005MPS 9999 SCT020 30/20 Q1014 NOSIG
ZJSY,2002-11-21 06:00,ZJSY 210600Z 06005MPS 9999 FEW020 30/20 Q1013 NOSIG
ZJSY,2002-11-21 07:00,ZJSY 210700Z 06005MPS 9999 FEW020 30/19 Q1013 NOSIG
ZJSY,2002-11-21 08:00,ZJSY 210800Z 05005MPS 9999 SCT021 29/19 Q1013 NOSIG
ZJSY,2002-11-21 09:00,ZJSY 210900Z 08004MPS 9999 FEW021 SCT100 28/19 Q1013 NOSIG
ZJSY,2002-11-21 10:00,ZJSY 211000Z 07004MPS CAVOK 27/19 Q1014 NOSIG
ZJSY,2002-11-21 11:00,ZJSY 211100Z 06003MPS CAVOK 26/19 Q1014 NOSIG
ZJSY,2002-11-21 12:00,ZJSY 211200Z 07003MPS CAVOK 25/19 Q1015 NOSIG
ZJSY,2002-11-21 13:00,ZJSY 211300Z 08003MPS CAVOK 24/19 Q1016 NOSIG
ZJSY,2002-11-21 14:00,ZJSY 211400Z 08004MPS CAVOK 24/19 Q1016 NOSIG
ZJSY,2002-11-21 16:00,ZJSY 211600Z 00000MPS CAVOK 24/19 Q1015 NOSIG
ZJSY,2002-11-21 17:00,ZJSY 211700Z AUTO 32001MPS //// // ////// 22/20 Q1015 NOSIG
ZJSY,2002-11-21 18:00,ZJSY 211800Z AUTO 00000MPS //// // ////// 22/19 Q1014 NOSIG
ZJSY,2002-11-21 19:00,ZJSY 211900Z AUTO 33002MPS //// // ////// 21/19 Q1014 NOSIG
ZJSY,2002-11-21 20:00,ZJSY 212000Z AUTO 35002MPS //// // ////// 20/18 Q1014 NOSIG
ZJSY,2002-11-21 21:00,ZJSY 212100Z AUTO 36001MPS //// // ////// 20/18 Q1014 NOSIG
ZJSY,2002-11-21 22:00,ZJSY 212200Z 00000MPS CAVOK 20/18 Q1014 NOSIG
ZJSY,2002-11-21 23:00,ZJSY 212300Z 36001MPS CAVOK 20/18 Q1015 NOSIG
ZJSY,2002-11-22 00:00,ZJSY 220000Z 32001MPS CAVOK 21/19 Q1015 NOSIG
ZJSY,2002-11-22 01:00,ZJSY 220100Z 14001MPS CAVOK 25/18 Q1016 NOSIG
ZJSY,2002-11-22 02:00,ZJSY 220200Z 15001MPS CAVOK 26/18 Q1016 NOSIG
ZJSY,2002-11-22 03:00,ZJSY 220300Z 15001MPS CAVOK 27/19 Q1016 NOSIG
ZJSY,2002-11-22 04:00,ZJSY 220400Z 21003MPS CAVOK 28/19 Q1015 NOSIG
ZJSY,2002-11-22 05:00,ZJSY 220500Z 24004MPS 9999 FEW017 28/19 Q1014 NOSIG
ZJSY,2002-11-22 06:00,ZJSY 220600Z 23004MPS 9999 FEW017 28/20 Q1013 NOSIG
ZJSY,2002-11-22 07:00,ZJSY 220700Z 24004MPS 9999 BKN040 27/20 Q1013 NOSIG
ZJSY,2002-11-22 08:00,ZJSY 220800Z 22004MPS 9999 FEW017 BKN030 27/20 Q1013 NOSIG
ZJSY,2002-11-22 09:00,ZJSY 220900Z 23003MPS 9999 FEW023 BKN040 27/20 Q1013 NOSIG
ZJSY,2002-11-22 10:00,ZJSY 221000Z 23003MPS 9999 SCT016 BKN040 26/20 Q1013 NOSIG
ZJSY,2002-11-22 11:00,ZJSY 221100Z 21002MPS 9999 SCT016 BKN040 26/20 Q1014 NOSIG
ZJSY,2002-11-22 12:00,ZJSY 221200Z 27003MPS 9999 SCT016 BKN040 25/21 Q1014 NOSIG
ZJSY,2002-11-22 13:00,ZJSY 221300Z 35001MPS 9999 SCT016 BKN050 24/21 Q1015 NOSIG
ZJSY,2002-11-22 14:00,ZJSY 221400Z 08004MPS 9999 SCT013 BKN040 24/19 Q1015 NOSIG
ZJSY,2002-11-22 15:00,ZJSY 221500Z 07003MPS 9999 FEW013 BKN040 24/19 Q1015 NOSIG
ZJSY,2002-11-22 16:00,ZJSY 221600Z 01001MPS 9999 FEW013 BKN040 24/18 Q1015 NOSIG
ZJSY,2002-11-22 17:00,ZJSY 221700Z AUTO 00000MPS //// // ////// 23/20 Q1015 NOSIG
ZJSY,2002-11-22 18:00,ZJSY 221800Z AUTO 34002MPS //// // ////// 22/20 Q1015 NOSIG
ZJSY,2002-11-22 19:00,ZJSY 221900Z AUTO 33002MPS //// // ////// 23/20 Q1014 NOSIG
ZJSY,2002-11-22 20:00,ZJSY 222000Z AUTO 32002MPS //// // ////// 23/20 Q1014 NOSIG
ZJSY,2002-11-22 21:00,ZJSY 222100Z AUTO 00000MPS //// // ////// 22/20 Q1014 NOSIG
ZJSY,2002-11-22 22:00,ZJSY 222200Z 10001MPS 9999 FEW013 BKN040 22/20 Q1014 NOSIG
ZJSY,2002-11-22 23:00,ZJSY 222300Z 34001MPS 9999 FEW015 BKN060 22/20 Q1014 NOSIG
ZJSY,2002-11-23 00:00,ZJSY 230000Z 33002MPS CAVOK 22/20 Q1015 NOSIG
ZJSY,2002-11-23 01:00,ZJSY 230100Z 34001MPS CAVOK 25/21 Q1016 NOSIG
ZJSY,2002-11-23 02:00,ZJSY 230200Z 12002MPS CAVOK 26/19 Q1016 NOSIG
ZJSY,2002-11-23 03:00,ZJSY 230300Z 10003MPS CAVOK 27/19 Q1015 NOSIG
ZJSY,2002-11-23 04:00,ZJSY 230400Z 12003MPS CAVOK 28/19 Q1014 NOSIG
ZJSY,2002-11-23 05:00,ZJSY 230500Z 19004MPS 9999 FEW020 28/19 Q1013 NOSIG
ZJSY,2002-11-23 06:00,ZJSY 230600Z 22003MPS 9999 FEW020 28/20 Q1012 NOSIG
ZJSY,2002-11-23 07:00,ZJSY 230700Z 22003MPS 9999 FEW020 28/21 Q1012 NOSIG
ZJSY,2002-11-23 08:00,ZJSY 230800Z 21004MPS 9999 FEW013 SCT020 27/20 Q1011 NOSIG
ZJSY,2002-11-23 09:00,ZJSY 230900Z 22002MPS 9999 FEW013 BKN020 26/20 Q1011 NOSIG
ZJSY,2002-11-23 10:00,ZJSY 231000Z 15001MPS 9999 FEW015 BKN020 26/21 Q1012 NOSIG
ZJSY,2002-11-23 11:00,ZJSY 231100Z 10003MPS 9999 BKN017 25/20 Q1012 NOSIG
ZJSY,2002-11-23 12:00,ZJSY 231200Z 07002MPS 9999 BKN017 24/20 Q1013 NOSIG
ZJSY,2002-11-23 13:00,ZJSY 231300Z 08002MPS 9999 BKN017 24/21 Q1014 NOSIG
ZJSY,2002-11-23 14:00,ZJSY 231400Z 06002MPS 6000 SCT017 SCT040 25/20 Q1014 NOSIG
ZJSY,2002-11-23 15:00,ZJSY 231500Z 08003MPS 6000 BKN040 24/20 Q1015 NOSIG
ZJSY,2002-11-23 16:00,ZJSY 231600Z 34001MPS 7000 BKN040 24/20 Q1014 NOSIG
ZJSY,2002-11-23 17:00,ZJSY 231700Z 36001MPS CAVOK 24/20 Q1014 NOSIG
ZJSY,2002-11-23 18:00,ZJSY 231800Z 00000MPS CAVOK 23/20 Q1014 NOSIG
ZJSY,2002-11-23 19:00,ZJSY 231900Z AUTO 00000MPS //// // ////// 23/20 Q1014 NOSIG
ZJSY,2002-11-23 20:00,ZJSY 232000Z AUTO 00000MPS //// // ////// 23/20 Q1014 NOSIG
ZJSY,2002-11-23 21:00,ZJSY 232100Z AUTO 36001MPS //// // ////// 22/19 Q1014 NOSIG
ZJSY,2002-11-23 22:00,ZJSY 232200Z 00000MPS 5000 BR NSC 22/19 Q1014 NOSIG
ZJSY,2002-11-23 23:00,ZJSY 232300Z 07001MPS 5000 BR NSC 22/20 Q1015 NOSIG
ZJSY,2002-11-24 00:00,ZJSY 240000Z 02001MPS 5000 BR NSC 23/20 Q1015 NOSIG
ZJSY,2002-11-24 01:00,ZJSY 240100Z 10002MPS 5000 HZ SKC 25/20 Q1016 NOSIG
ZJSY,2002-11-24 02:00,ZJSY 240200Z 07004MPS 5000 HZ SKC 27/19 Q1016 NOSIG
ZJSY,2002-11-24 03:00,ZJSY 240300Z 08004MPS 8000 SKC 28/18 Q1016 NOSIG
ZJSY,2002-11-24 04:00,ZJSY 240400Z 10004MPS 8000 SKC 29/18 Q1015 NOSIG
ZJSY,2002-11-24 05:00,ZJSY 240500Z 12004MPS 9999 SCT017 29/18 Q1014 NOSIG
ZJSY,2002-11-24 06:00,ZJSY 240600Z 14003MPS 9999 FEW017 BKN050 27/20 Q1013 NOSIG
ZJSY,2002-11-24 07:00,ZJSY 240700Z 08004MPS 9999 -RA FEW030 BKN040 24/21 Q1013 NOSIG
ZJSY,2002-11-24 08:00,ZJSY 240800Z 06005MPS 8000 -RA FEW011 BKN040 24/21 Q1013 NOSIG
ZJSY,2002-11-24 09:00,ZJSY 240900Z 04003MPS 5000 -RA SCT010 BKN030 23/21 Q1013 NOSIG
ZJSY,2002-11-24 10:00,ZJSY 241000Z 04004MPS 5000 -RA SCT010 BKN026 OVC040 23/21 Q1013 NOSIG
ZJSY,2002-11-24 11:00,ZJSY 241100Z 05004MPS 9999 BKN033 OVC040 23/20 Q1014 NOSIG
ZJSY,2002-11-24 12:00,ZJSY 241200Z 05003MPS 9999 BKN033 OVC040 23/20 Q1015 NOSIG
ZJSY,2002-11-24 13:00,ZJSY 241300Z 07004MPS 9999 SCT033 OVC040 23/20 Q1016 NOSIG
ZJSY,2002-11-24 14:00,ZJSY 241400Z 05003MPS 9999 SCT033 OVC040 23/19 Q1016 NOSIG
ZJSY,2002-11-24 15:00,ZJSY 241500Z 07004MPS 9999 SCT033 OVC040 23/19 Q1016 NOSIG
ZJSY,2002-11-24 16:00,ZJSY 241600Z 06002MPS 9999 SCT040 BKN050 22/19 Q1016 NOSIG
ZJSY,2002-11-24 17:00,ZJSY 241700Z 08004MPS 9999 SCT036 BKN050 22/18 Q1016 NOSIG
ZJSY,2002-11-24 18:00,ZJSY 241800Z AUTO 08003MPS //// // ////// 21/18 Q1015 NOSIG
ZJSY,2002-11-24 19:00,ZJSY 241900Z AUTO 04002MPS //// // ////// 22/18 Q1015 NOSIG
ZJSY,2002-11-24 20:00,ZJSY 242000Z AUTO 01002MPS //// // ////// 21/18 Q1015 NOSIG
ZJSY,2002-11-24 21:00,ZJSY 242100Z AUTO 00000MPS //// // ////// 22/18 Q1015 NOSIG
ZJSY,2002-11-24 22:00,ZJSY 242200Z 07001MPS 9999 FEW020 BKN100 21/17 Q1016 NOSIG
ZJSY,2002-11-24 23:00,ZJSY 242300Z 04003MPS 9999 FEW020 BKN100 22/17 Q1016 NOSIG
ZJSY,2002-11-25 00:00,ZJSY 250000Z 04002MPS 9999 SCT033 BKN100 22/17 Q1017 NOSIG
ZJSY,2002-11-25 01:00,ZJSY 250100Z 05003MPS 9999 SCT033 BKN100 23/17 Q1017 NOSIG
ZJSY,2002-11-25 02:00,ZJSY 250200Z 04002MPS 9999 SCT033 BKN100 23/17 Q1018 NOSIG
ZJSY,2002-11-25 03:00,ZJSY 250300Z 07002MPS 9999 SCT033 BKN100 24/17 Q1018 NOSIG
ZJSY,2002-11-25 04:00,ZJSY 250400Z 08004MPS 9999 SCT033 BKN100 25/18 Q1017 NOSIG
ZJSY,2002-11-25 05:00,ZJSY 250500Z 06005MPS 9999 FEW033 BKN100 26/18 Q1016 NOSIG
ZJSY,2002-11-25 06:00,ZJSY 250600Z 08006MPS CAVOK 27/17 Q1015 NOSIG
ZJSY,2002-11-25 07:00,ZJSY 250700Z 10004MPS CAVOK 27/18 Q1014 NOSIG
ZJSY,2002-11-25 08:00,ZJSY 250800Z 09005MPS 9999 SCT033 BKN100 26/17 Q1014 NOSIG
ZJSY,2002-11-25 09:00,ZJSY 250900Z 08006MPS 9999 SCT033 BKN100 25/17 Q1014 NOSIG
ZJSY,2002-11-25 10:00,ZJSY 251000Z 08004MPS 8000 BKN040 BKN100 24/17 Q1015 NOSIG
ZJSY,2002-11-25 11:00,ZJSY 251100Z 07005MPS 8000 BKN040 BKN100 24/16 Q1016 NOSIG
ZJSY,2002-11-25 12:00,ZJSY 251200Z 06005MPS 8000 BKN040 BKN100 23/16 Q1017 NOSIG
ZJSY,2002-11-25 13:00,ZJSY 251300Z 09004MPS 8000 BKN040 BKN100 23/16 Q1018 NOSIG
ZJSY,2002-11-25 14:00,ZJSY 251400Z 06004MPS 8000 FEW017 BKN040 22/15 Q1018 NOSIG
ZJSY,2002-11-25 15:00,ZJSY 251500Z 01001MPS 9999 SCT040 22/15 Q1018 NOSIG
ZJSY,2002-11-25 16:00,ZJSY 251600Z 04002MPS 9999 SCT040 21/15 Q1018 NOSIG
ZJSY,2002-11-25 17:00,ZJSY 251700Z AUTO 10001MPS //// // ////// 21/15 Q1018 NOSIG
ZJSY,2002-11-25 18:00,ZJSY 251800Z AUTO 36001MPS //// // ////// 19/16 Q1018 NOSIG
ZJSY,2002-11-25 19:00,ZJSY 251900Z AUTO 06003MPS //// // ////// 20/15 Q1017 NOSIG
ZJSY,2002-11-25 20:00,ZJSY 252000Z AUTO 32001MPS //// // ////// 19/15 Q1017 NOSIG
ZJSY,2002-11-25 21:00,ZJSY 252100Z AUTO 07001MPS //// // ////// 20/16 Q1017 NOSIG
ZJSY,2002-11-25 22:00,ZJSY 252200Z 00000MPS 9999 BKN016 BKN040 21/15 Q1018 NOSIG
ZJSY,2002-11-25 23:00,ZJSY 252300Z 00000MPS 9999 FEW017 BKN033 BKN050 21/16 Q1018 NOSIG
ZJSY,2002-11-26 00:00,ZJSY 260000Z 00000MPS 9999 BKN033 BKN050 22/15 Q1019 NOSIG
ZJSY,2002-11-26 01:00,ZJSY 260100Z 10003MPS CAVOK 22/16 Q1020 NOSIG
ZJSY,2002-11-26 02:00,ZJSY 260200Z 05004MPS CAVOK 26/15 Q1020 NOSIG
ZJSY,2002-11-26 03:00,ZJSY 260300Z 06004MPS CAVOK 26/16 Q1020 NOSIG
ZJSY,2002-11-26 04:00,ZJSY 260400Z 07003MPS 6000 NSC 27/17 Q1019 NOSIG
ZJSY,2002-11-26 05:00,ZJSY 260500Z 09006MPS 6000 NSC 27/16 Q1018 NOSIG
ZJSY,2002-11-26 06:00,ZJSY 260600Z 07005MPS 6000 NSC 28/16 Q1017 NOSIG
ZJSY,2002-11-26 07:00,ZJSY 260700Z 06005MPS 6000 FEW025 SCT100 27/16 Q1016 NOSIG
ZJSY,2002-11-26 08:00,ZJSY 260800Z 08006MPS 6000 SCT040 SCT100 26/17 Q1016 NOSIG
ZJSY,2002-11-26 09:00,ZJSY 260900Z 07004MPS 6000 NSC 25/17 Q1016 NOSIG
ZJSY,2002-11-26 10:00,ZJSY 261000Z 07003MPS 6000 NSC 24/17 Q1017 NOSIG
ZJSY,2002-11-26 11:00,ZJSY 261100Z 08004MPS 6000 NSC 23/17 Q1018 NOSIG
ZJSY,2002-11-26 12:00,ZJSY 261200Z 05003MPS 6000 NSC 22/17 Q1019 NOSIG
ZJSY,2002-11-26 13:00,ZJSY 261300Z 05003MPS 6000 NSC 23/17 Q1019 NOSIG
ZJSY,2002-11-26 14:00,ZJSY 261400Z 05006MPS 6000 NSC 23/16 Q1020 NOSIG
ZJSY,2002-11-26 15:00,ZJSY 261500Z 06006MPS 8000 NSC 23/16 Q1019 NOSIG
ZJSY,2002-11-26 16:00,ZJSY 261600Z 04005MPS 8000 NSC 23/17 Q1019 NOSIG
ZJSY,2002-11-26 17:00,ZJSY 261700Z AUTO 06003MPS //// // ////// 22/17 Q1019 NOSIG
ZJSY,2002-11-26 20:00,ZJSY 262000Z AUTO 06003MPS //// // ////// 23/17 Q1018 NOSIG
ZJSY,2002-11-26 21:00,ZJSY 262100Z AUTO 06006MPS //// // ////// 23/17 Q1018 NOSIG
ZJSY,2002-11-26 22:00,ZJSY 262200Z 08005MPS 9999 SCT040 BKN100 23/17 Q1018 NOSIG
ZJSY,2002-11-26 23:00,ZJSY 262300Z 06008MPS 9999 SCT040 BKN100 23/17 Q1018 NOSIG
ZJSY,2002-11-27 00:00,ZJSY 270000Z 07007MPS CAVOK 24/17 Q1018 NOSIG
ZJSY,2002-11-27 01:00,ZJSY 270100Z 06007MPS CAVOK 25/17 Q1019 NOSIG
ZJSY,2002-11-27 02:00,ZJSY 270200Z 07009MPS CAVOK 26/17 Q1019 NOSIG
ZJSY,2002-11-27 03:00,ZJSY 270300Z 08009MPS CAVOK 27/17 Q1019 NOSIG
ZJSY,2002-11-27 04:00,ZJSY 270400Z 09007MPS CAVOK 28/17 Q1018 NOSIG
ZJSY,2002-11-27 05:00,ZJSY 270500Z 07007MPS CAVOK 29/17 Q1017 NOSIG
ZJSY,2002-11-27 06:00,ZJSY 270600Z 10005MPS CAVOK 28/17 Q1016 NOSIG
ZJSY,2002-11-27 07:00,ZJSY 270700Z 09004MPS CAVOK 29/18 Q1015 NOSIG
ZJSY,2002-11-27 08:00,ZJSY 270800Z 09005MPS CAVOK 28/19 Q1015 NOSIG
ZJSY,2002-11-27 09:00,ZJSY 270900Z 09005MPS CAVOK 27/19 Q1015 NOSIG
ZJSY,2002-11-27 10:00,ZJSY 271000Z 07005MPS CAVOK 25/18 Q1016 NOSIG
ZJSY,2002-11-27 11:00,ZJSY 271100Z 06002MPS CAVOK 24/18 Q1017 NOSIG
ZJSY,2002-11-27 12:00,ZJSY 271200Z 03001MPS CAVOK 24/18 Q1017 NOSIG
ZJSY,2002-11-27 13:00,ZJSY 271300Z 03001MPS CAVOK 22/18 Q1018 NOSIG
ZJSY,2002-11-27 14:00,ZJSY 271400Z 35001MPS CAVOK 22/18 Q1018 NOSIG
ZJSY,2002-11-27 15:00,ZJSY 271500Z 34002MPS CAVOK 21/18 Q1018 NOSIG
ZJSY,2002-11-27 17:00,ZJSY 271700Z 34003MPS CAVOK 21/18 Q1017 NOSIG
ZJSY,2002-11-27 18:00,ZJSY 271800Z AUTO 32002MPS //// // ////// 20/18 Q1016 NOSIG
ZJSY,2002-11-27 19:00,ZJSY 271900Z AUTO 33002MPS //// // ////// 21/18 Q1016 NOSIG
ZJSY,2002-11-27 20:00,ZJSY 272000Z AUTO 34003MPS //// // ////// 21/18 Q1015 NOSIG
ZJSY,2002-11-27 21:00,ZJSY 272100Z AUTO 33001MPS //// // ////// 20/18 Q1015 NOSIG
ZJSY,2002-11-27 22:00,ZJSY 272200Z 33001MPS CAVOK 20/18 Q1016 NOSIG
ZJSY,2002-11-27 23:00,ZJSY 272300Z 33002MPS 9999 SCT030 BKN050 21/18 Q1016 NOSIG
ZJSY,2002-11-28 00:00,ZJSY 280000Z 08001MPS 9999 FEW030 BKN040 22/20 Q1017 NOSIG
ZJSY,2002-11-28 01:00,ZJSY 280100Z 06002MPS 9999 SCT033 SCT100 24/20 Q1018 NOSIG
ZJSY,2002-11-28 02:00,ZJSY 280200Z 07003MPS 9999 SCT030 BKN043 25/20 Q1019 NOSIG
ZJSY,2002-11-28 03:00,ZJSY 280300Z 06005MPS 9999 FEW030 BKN050 26/21 Q1018 NOSIG
ZJSY,2002-11-28 04:00,ZJSY 280400Z 06004MPS CAVOK 27/20 Q1018 NOSIG
ZJSY,2002-11-28 05:00,ZJSY 280500Z 10003MPS 9999 FEW020 28/21 Q1016 NOSIG
ZJSY,2002-11-28 06:00,ZJSY 280600Z 13002MPS 9999 FEW021TCU 29/21 Q1015 NOSIG
ZJSY,2002-11-28 07:00,ZJSY 280700Z 18003MPS 9999 FEW021TCU 28/21 Q1014 NOSIG
ZJSY,2002-11-28 08:00,ZJSY 280800Z 17003MPS 9999 FEW020 FEW021TCU 28/21 Q1014 NOSIG
ZJSY,2002-11-28 09:00,ZJSY 280900Z 15002MPS CAVOK 27/22 Q1014 NOSIG
ZJSY,2002-11-28 10:00,ZJSY 281000Z 13003MPS CAVOK 26/21 Q1015 NOSIG
ZJSY,2002-11-28 11:00,ZJSY 281100Z 06003MPS 9999 SCT013 SCT230 25/20 Q1015 NOSIG
ZJSY,2002-11-28 12:00,ZJSY 281200Z 08003MPS 9999 FEW013 SCT230 25/21 Q1016 NOSIG
ZJSY,2002-11-28 13:00,ZJSY 281300Z 36001MPS CAVOK 24/21 Q1016 NOSIG
ZJSY,2002-11-28 14:00,ZJSY 281400Z 35001MPS CAVOK 24/20 Q1017 NOSIG
ZJSY,2002-11-28 15:00,ZJSY 281500Z 34001MPS CAVOK 23/20 Q1016 NOSIG
ZJSY,2002-11-28 16:00,ZJSY 281600Z 33002MPS CAVOK 22/20 Q1017 NOSIG
ZJSY,2002-11-28 17:00,ZJSY 281700Z 33002MPS CAVOK 22/20 Q1016 NOSIG
ZJSY,2002-11-28 18:00,ZJSY 281800Z AUTO 34002MPS //// // ////// 22/20 Q1016 NOSIG
ZJSY,2002-11-28 19:00,ZJSY 281900Z AUTO 02001MPS //// // ////// 23/20 Q1015 NOSIG
ZJSY,2002-11-28 20:00,ZJSY 282000Z AUTO 33001MPS //// // ////// 23/20 Q1015 NOSIG
ZJSY,2002-11-28 21:00,ZJSY 282100Z AUTO 33001MPS //// // ////// 23/20 Q1015 NOSIG
ZJSY,2002-11-28 22:00,ZJSY 282200Z 34001MPS CAVOK 23/20 Q1015 NOSIG
ZJSY,2002-11-28 23:00,ZJSY 282300Z 36001MPS CAVOK 22/20 Q1016 NOSIG
ZJSY,2002-11-29 00:00,ZJSY 290000Z 35001MPS CAVOK 23/20 Q1016 NOSIG
ZJSY,2002-11-29 01:00,ZJSY 290100Z 34001MPS CAVOK 26/20 Q1017 NOSIG
ZJSY,2002-11-29 02:00,ZJSY 290200Z 09003MPS CAVOK 28/20 Q1017 NOSIG
ZJSY,2002-11-29 03:00,ZJSY 290300Z 09004MPS CAVOK 29/21 Q1017 NOSIG
ZJSY,2002-11-29 04:00,ZJSY 290400Z 11003MPS CAVOK 30/21 Q1016 NOSIG
ZJSY,2002-11-29 05:00,ZJSY 290500Z 19003MPS 9999 SCT016 BKN100 29/21 Q1015 NOSIG
ZJSY,2002-11-29 06:01,ZJSY 290601Z 21002MPS 9999 FEW016 BKN100 28/22 Q1014 NOSIG
ZJSY,2002-11-29 07:00,ZJSY 290700Z 24004MPS 9999 SCT016 SCT100 28/22 Q1014 NOSIG
ZJSY,2002-11-29 08:00,ZJSY 290800Z 20002MPS 9999 FEW013 SCT230 28/22 Q1013 NOSIG
ZJSY,2002-11-29 09:00,ZJSY 290900Z 12003MPS 9999 FEW013 SCT230 27/22 Q1014 NOSIG
ZJSY,2002-11-29 10:00,ZJSY 291000Z 08003MPS 9999 FEW016 SCT100 26/22 Q1014 NOSIG
ZJSY,2002-11-29 11:00,ZJSY 291100Z 08004MPS 9999 SCT016 SCT100 25/22 Q1014 NOSIG
ZJSY,2002-11-29 12:00,ZJSY 291200Z 07003MPS 9999 SCT016 SCT100 25/21 Q1015 NOSIG
ZJSY,2002-11-29 13:00,ZJSY 291300Z 07002MPS 9999 FEW016 SCT050 25/22 Q1016 NOSIG
ZJSY,2002-11-29 14:00,ZJSY 291400Z 07003MPS CAVOK 26/21 Q1016 NOSIG
ZJSY,2002-11-29 15:00,ZJSY 291500Z 07002MPS 9999 FEW020 SCT050 25/22 Q1016 NOSIG
ZJSY,2002-11-29 16:00,ZJSY 291600Z 03001MPS CAVOK 25/21 Q1016 NOSIG
ZJSY,2002-11-29 17:00,ZJSY 291700Z AUTO 11001MPS //// // ////// 25/22 Q1015 NOSIG
ZJSY,2002-11-29 18:00,ZJSY 291800Z AUTO 01001MPS //// // ////// 25/22 Q1015 NOSIG
ZJSY,2002-11-29 19:00,ZJSY 291900Z AUTO 11001MPS //// // ////// 25/22 Q1014 NOSIG
ZJSY,2002-11-29 20:00,ZJSY 292000Z AUTO 07002MPS //// // ////// 24/22 Q1014 NOSIG
ZJSY,2002-11-29 21:00,ZJSY 292100Z AUTO 35001MPS //// // ////// 24/22 Q1014 NOSIG
ZJSY,2002-11-29 22:00,ZJSY 292200Z 00000MPS 9999 FEW020 SCT050 BKN100 24/22 Q1014 NOSIG
ZJSY,2002-11-29 23:00,ZJSY 292300Z 00000MPS CAVOK 24/22 Q1015 NOSIG
ZJSY,2002-11-30 00:00,ZJSY 300000Z 09001MPS CAVOK 25/22 Q1015 NOSIG
ZJSY,2002-11-30 01:00,ZJSY 300100Z 08002MPS CAVOK 26/22 Q1016 NOSIG
ZJSY,2002-11-30 02:00,ZJSY 300200Z 10003MPS 9999 FEW017 BKN033 27/22 Q1017 NOSIG
ZJSY,2002-11-30 03:00,ZJSY 300300Z 14002MPS 9999 FEW017 FEW018TCU BKN033 28/22 Q1016 NOSIG
ZJSY,2002-11-30 04:00,ZJSY 300400Z 14002MPS 9999 BKN017 SCT230 29/22 Q1015 NOSIG
ZJSY,2002-11-30 05:00,ZJSY 300500Z 17003MPS 9999 FEW020 BKN040 27/22 Q1014 NOSIG
ZJSY,2002-11-30 06:00,ZJSY 300600Z 16002MPS 9999 BKN018 SCT040 28/22 Q1013 NOSIG
ZJSY,2002-11-30 07:00,ZJSY 300700Z 15003MPS 9999 SCT017 28/22 Q1012 NOSIG
ZJSY,2002-11-30 08:00,ZJSY 300800Z 15003MPS 9999 FEW016 FEW017TCU 28/22 Q1012 NOSIG
ZJSY,2002-11-30 09:00,ZJSY 300900Z 14003MPS 9999 FEW019 FEW020TCU SCT100 27/22 Q1012 NOSIG
ZJSY,2002-11-30 10:00,ZJSY 301000Z 14002MPS 9999 SCT016 SCT100 26/23 Q1013 NOSIG
ZJSY,2002-11-30 11:00,ZJSY 301100Z 13002MPS 9999 FEW016 SCT100 26/23 Q1013 NOSIG
ZJSY,2002-11-30 12:00,ZJSY 301200Z 06002MPS 9999 FEW016 SCT100 25/22 Q1014 NOSIG
ZJSY,2002-11-30 13:00,ZJSY 301300Z 06002MPS 9999 FEW016 SCT100 25/22 Q1014 NOSIG
ZJSY,2002-11-30 14:00,ZJSY 301400Z 01001MPS 9999 FEW016 SCT100 25/22 Q1015 NOSIG
ZJSY,2002-11-30 15:00,ZJSY 301500Z 35001MPS 9999 FEW016 SCT100 24/22 Q1015 NOSIG
ZJSY,2002-11-30 16:00,ZJSY 301600Z 09002MPS 9999 FEW016 SCT100 25/22 Q1015 NOSIG
ZJSY,2002-11-30 17:00,ZJSY 301700Z 06001MPS 9999 FEW016 SCT100 24/22 Q1014 NOSIG
ZJSY,2002-11-30 18:00,ZJSY 301800Z AUTO 00000MPS //// // ////// 24/22 Q1014 NOSIG
ZJSY,2002-11-30 19:00,ZJSY 301900Z AUTO 33001MPS //// // ////// 24/22 Q1013 NOSIG
ZJSY,2002-11-30 20:00,ZJSY 302000Z AUTO 32001MPS //// // ////// 24/22 Q1013 NOSIG
ZJSY,2002-11-30 21:00,ZJSY 302100Z AUTO 00000MPS //// // ////// 24/22 Q1013 NOSIG
ZJSY,2002-11-30 22:00,ZJSY 302200Z 00000MPS 9999 FEW016 SCT100 24/22 Q1013 NOSIG
ZJSY,2002-11-30 23:00,ZJSY 302300Z 00000MPS CAVOK 24/22 Q1014 NOSIG
ZJSY,2002-12-01 00:00,ZJSY 010000Z 35001MPS 9999 SCT046 BKN100 24/22 Q1014 NOSIG
ZJSY,2002-12-01 01:00,ZJSY 010100Z 20001MPS 9999 SCT040 BKN100 25/22 Q1015 NOSIG
ZJSY,2002-12-01 02:00,ZJSY 010200Z 16001MPS 9999 SCT040 BKN100 26/21 Q1015 NOSIG
ZJSY,2002-12-01 03:00,ZJSY 010300Z 36001MPS 9999 SCT040 BKN100 28/22 Q1015 NOSIG
ZJSY,2002-12-01 04:00,ZJSY 010400Z 19002MPS 9999 FEW016 SCT040 BKN100 28/22 Q1014 NOSIG
ZJSY,2002-12-01 05:00,ZJSY 010500Z 17003MPS 9999 SCT020 29/21 Q1013 NOSIG
ZJSY,2002-12-01 06:00,ZJSY 010600Z 18003MPS 9999 SCT020 28/21 Q1012 NOSIG
ZJSY,2002-12-01 07:00,ZJSY 010700Z 16003MPS 9999 SCT020 FEW023TCU 28/21 Q1011 NOSIG
ZJSY,2002-12-01 08:00,ZJSY 010800Z 16004MPS 9999 FEW020 SCT100 28/22 Q1011 NOSIG
ZJSY,2002-12-01 09:00,ZJSY 010900Z 14003MPS 9999 FEW020 SCT050 BKN100 27/22 Q1011 NOSIG
ZJSY,2002-12-01 10:00,ZJSY 011000Z 12002MPS 9999 FEW020 BKN100 26/22 Q1012 NOSIG
ZJSY,2002-12-01 11:00,ZJSY 011100Z 08003MPS CAVOK 25/22 Q1012 NOSIG
ZJSY,2002-12-01 12:00,ZJSY 011200Z 09002MPS CAVOK 25/22 Q1013 NOSIG
ZJSY,2002-12-01 13:00,ZJSY 011300Z 06002MPS CAVOK 24/21 Q1013 NOSIG
ZJSY,2002-12-01 14:00,ZJSY 011400Z 01001MPS CAVOK 23/21 Q1014 NOSIG
ZJSY,2002-12-01 15:00,ZJSY 011500Z 34002MPS CAVOK 23/21 Q1014 NOSIG
ZJSY,2002-12-01 16:00,ZJSY 011600Z 04001MPS CAVOK 23/21 Q1014 NOSIG
ZJSY,2002-12-01 17:00,ZJSY 011700Z 00000MPS CAVOK 23/21 Q1014 NOSIG
ZJSY,2002-12-01 18:00,ZJSY 011800Z AUTO 02001MPS //// // ////// 22/20 Q1013 NOSIG
ZJSY,2002-12-01 19:00,ZJSY 011900Z AUTO 36001MPS //// // ////// 22/20 Q1013 NOSIG
ZJSY,2002-12-01 20:00,ZJSY 012000Z AUTO 35001MPS //// // ////// 22/20 Q1013 NOSIG
ZJSY,2002-12-01 21:00,ZJSY 012100Z AUTO 36001MPS //// // ////// 22/20 Q1013 NOSIG
ZJSY,2002-12-01 22:00,ZJSY 012200Z 02001MPS CAVOK 22/20 Q1013 NOSIG
ZJSY,2002-12-01 23:00,ZJSY 012300Z 34001MPS CAVOK 22/20 Q1014 NOSIG
ZJSY,2002-12-02 00:00,ZJSY 020000Z 07001MPS CAVOK 25/22 Q1015 NOSIG
ZJSY,2002-12-02 01:00,ZJSY 020100Z 08003MPS CAVOK 27/22 Q1015 NOSIG
ZJSY,2002-12-02 02:00,ZJSY 020200Z 10004MPS 9999 SCT020 28/22 Q1016 NOSIG
ZJSY,2002-12-02 03:00,ZJSY 020300Z 09004MPS 9999 FEW011 SCT020 28/22 Q1016 NOSIG
ZJSY,2002-12-02 04:00,ZJSY 020400Z 10003MPS 9999 SCT020 FEW022TCU 28/22 Q1015 NOSIG
ZJSY,2002-12-02 05:00,ZJSY 020500Z 16003MPS 9999 SCT020 FEW022TCU 29/23 Q1014 NOSIG
ZJSY,2002-12-02 06:00,ZJSY 020600Z 16004MPS 9999 FEW020 28/22 Q1013 NOSIG
ZJSY,2002-12-02 07:00,ZJSY 020700Z 16004MPS 9999 FEW016 FEW020TCU 28/23 Q1012 NOSIG
ZJSY,2002-12-02 08:00,ZJSY 020800Z 15004MPS 9999 SCT020 28/22 Q1012 NOSIG
ZJSY,2002-12-02 09:00,ZJSY 020900Z 15003MPS 9999 FEW011 SCT020 27/23 Q1012 NOSIG
ZJSY,2002-12-02 10:00,ZJSY 021000Z 14003MPS 9999 FEW011 SCT230 26/22 Q1013 NOSIG
ZJSY,2002-12-02 11:00,ZJSY 021100Z 10002MPS 9999 SCT011 SCT230 26/21 Q1013 NOSIG
ZJSY,2002-12-02 12:00,ZJSY 021200Z 08003MPS 9999 SCT011 SCT230 26/21 Q1014 NOSIG
ZJSY,2002-12-02 13:00,ZJSY 021300Z 10002MPS 9999 FEW011 SCT230 25/22 Q1015 NOSIG
ZJSY,2002-12-02 14:00,ZJSY 021400Z 09002MPS 9999 SCT011 SCT230 25/21 Q1015 NOSIG
ZJSY,2002-12-02 15:00,ZJSY 021500Z 08002MPS 9999 SCT011 SCT230 25/22 Q1015 NOSIG
ZJSY,2002-12-02 16:00,ZJSY 021600Z 04001MPS 9999 FEW011 SCT230 24/21 Q1015 NOSIG
ZJSY,2002-12-02 17:00,ZJSY 021700Z 08001MPS 9999 FEW011 SCT230 24/21 Q1015 NOSIG
ZJSY,2002-12-02 18:00,ZJSY 021800Z AUTO 04002MPS //// // ////// 24/21 Q1014 NOSIG
ZJSY,2002-12-02 19:00,ZJSY 021900Z AUTO 07002MPS //// // ////// 24/21 Q1014 NOSIG
ZJSY,2002-12-02 20:00,ZJSY 022000Z AUTO 07001MPS //// // ////// 24/21 Q1014 NOSIG
ZJSY,2002-12-02 21:00,ZJSY 022100Z AUTO 35001MPS //// // ////// 23/21 Q1014 NOSIG
ZJSY,2002-12-02 22:00,ZJSY 022200Z 00000MPS 9999 SCT011 SCT016 24/21 Q1014 NOSIG
ZJSY,2002-12-02 23:00,ZJSY 022300Z 34001MPS 9999 FEW016 BKN230 24/21 Q1015 NOSIG
ZJSY,2002-12-03 00:00,ZJSY 030000Z 04003MPS CAVOK 25/21 Q1015 NOSIG
ZJSY,2002-12-03 01:00,ZJSY 030100Z 06003MPS CAVOK 27/21 Q1016 NOSIG
ZJSY,2002-12-03 02:00,ZJSY 030200Z 08004MPS CAVOK 28/20 Q1016 NOSIG
ZJSY,2002-12-03 03:00,ZJSY 030300Z 10004MPS 9999 FEW016 BKN230 29/21 Q1016 NOSIG
ZJSY,2002-12-03 04:00,ZJSY 030400Z 10004MPS 9999 FEW016 SCT230 30/21 Q1016 NOSIG
ZJSY,2002-12-03 05:00,ZJSY 030500Z 10004MPS 9999 FEW016 SCT230 30/20 Q1015 NOSIG
ZJSY,2002-12-03 06:00,ZJSY 030600Z 12004MPS 9999 FEW016 SCT230 30/21 Q1013 NOSIG
ZJSY,2002-12-03 07:00,ZJSY 030700Z 12004MPS 9999 FEW016 SCT230 30/21 Q1013 NOSIG
ZJSY,2002-12-03 08:00,ZJSY 030800Z 11004MPS 9999 FEW016 SCT230 29/21 Q1012 NOSIG
ZJSY,2002-12-03 09:00,ZJSY 030900Z 10004MPS 9999 FEW016 BKN230 28/21 Q1012 NOSIG
ZJSY,2002-12-03 10:00,ZJSY 031000Z 08004MPS CAVOK 27/20 Q1013 NOSIG
ZJSY,2002-12-03 11:00,ZJSY 031100Z 09004MPS 9999 FEW020 BKN230 26/21 Q1014 NOSIG
ZJSY,2002-12-03 12:00,ZJSY 031200Z 10001MPS 9999 FEW020 BKN230 25/21 Q1015 NOSIG
ZJSY,2002-12-03 13:00,ZJSY 031300Z 06002MPS 9999 SCT020 SCT230 25/21 Q1015 NOSIG
ZJSY,2002-12-03 14:00,ZJSY 031400Z 08003MPS 9999 SCT020 SCT230 25/21 Q1016 NOSIG
ZJSY,2002-12-03 15:00,ZJSY 031500Z 09002MPS 9999 BKN016 SCT230 25/22 Q1016 NOSIG
ZJSY,2002-12-03 16:00,ZJSY 031600Z 04002MPS 9999 BKN016 SCT230 24/21 Q1016 NOSIG
ZJSY,2002-12-03 17:00,ZJSY 031700Z 08001MPS 9999 SCT016 SCT050 25/22 Q1015 NOSIG
ZJSY,2002-12-03 18:00,ZJSY 031800Z 04001MPS 9999 SCT016 SCT050 25/21 Q1015 NOSIG
ZJSY,2002-12-03 19:00,ZJSY 031900Z AUTO 04002MPS //// // ////// 25/21 Q1014 NOSIG
ZJSY,2002-12-03 20:00,ZJSY 032000Z AUTO 36001MPS //// // ////// 24/21 Q1014 NOSIG
ZJSY,2002-12-03 21:00,ZJSY 032100Z AUTO 36001MPS //// // ////// 23/20 Q1013 NOSIG
ZJSY,2002-12-03 22:00,ZJSY 032200Z 00000MPS CAVOK 23/20 Q1014 NOSIG
ZJSY,2002-12-03 23:00,ZJSY 032300Z 34002MPS CAVOK 22/20 Q1014 NOSIG
ZJSY,2002-12-04 00:00,ZJSY 040000Z 34001MPS CAVOK 23/21 Q1015 NOSIG
ZJSY,2002-12-04 01:00,ZJSY 040100Z 13001MPS CAVOK 26/21 Q1016 NOSIG
ZJSY,2002-12-04 02:00,ZJSY 040200Z 09003MPS CAVOK 28/21 Q1017 NOSIG
ZJSY,2002-12-04 03:00,ZJSY 040300Z 12004MPS 9999 FEW019 29/22 Q1016 NOSIG
ZJSY,2002-12-04 04:00,ZJSY 040400Z 19003MPS 9999 FEW019 29/22 Q1016 NOSIG
ZJSY,2002-12-04 05:00,ZJSY 040500Z 18003MPS 9999 FEW019 29/23 Q1015 NOSIG
ZJSY,2002-12-04 06:00,ZJSY 040600Z 16004MPS 9999 FEW018 29/23 Q1014 NOSIG
ZJSY,2002-12-04 07:00,ZJSY 040700Z 17004MPS 9999 SCT018 SCT100 27/23 Q1013 NOSIG
ZJSY,2002-12-04 08:00,ZJSY 040800Z 14003MPS 9999 SCT023 FEW025TCU SCT100 27/23 Q1013 NOSIG
ZJSY,2002-12-04 09:00,ZJSY 040900Z 15003MPS 9999 FEW020 27/23 Q1013 NOSIG
ZJSY,2002-12-04 10:00,ZJSY 041000Z 15002MPS 9999 FEW020 26/23 Q1013 NOSIG
ZJSY,2002-12-04 11:00,ZJSY 041100Z 11002MPS 9999 FEW020 SCT060 26/22 Q1013 NOSIG
ZJSY,2002-12-04 12:00,ZJSY 041200Z 09004MPS CAVOK 25/22 Q1014 NOSIG
ZJSY,2002-12-04 13:00,ZJSY 041300Z 07004MPS CAVOK 25/22 Q1015 NOSIG
ZJSY,2002-12-04 14:00,ZJSY 041400Z 05002MPS 9999 FEW020 SCT230 25/22 Q1015 NOSIG
ZJSY,2002-12-04 15:00,ZJSY 041500Z 06002MPS 9999 FEW020 SCT230 24/21 Q1015 NOSIG
ZJSY,2002-12-04 16:00,ZJSY 041600Z 03001MPS 9999 FEW020 SCT230 24/21 Q1015 NOSIG
ZJSY,2002-12-04 17:00,ZJSY 041700Z 02001MPS 9999 FEW020 SCT230 23/21 Q1014 NOSIG
ZJSY,2002-12-04 18:00,ZJSY 041800Z AUTO 36001MPS //// // ////// 23/21 Q1014 NOSIG
ZJSY,2002-12-04 19:00,ZJSY 041900Z AUTO 03001MPS //// // ////// 22/20 Q1013 NOSIG
ZJSY,2002-12-04 20:00,ZJSY 042000Z AUTO 36001MPS //// // ////// 22/20 Q1013 NOSIG
ZJSY,2002-12-04 21:00,ZJSY 042100Z AUTO 04001MPS //// // ////// 22/20 Q1013 NOSIG
ZJSY,2002-12-04 22:00,ZJSY 042200Z 35001MPS CAVOK 22/20 Q1013 NOSIG
ZJSY,2002-12-04 23:00,ZJSY 042300Z 36001MPS CAVOK 22/20 Q1014 NOSIG
ZJSY,2002-12-05 00:00,ZJSY 050000Z 35001MPS CAVOK 23/21 Q1015 NOSIG
ZJSY,2002-12-05 01:00,ZJSY 050100Z 06003MPS CAVOK 27/22 Q1015 NOSIG
ZJSY,2002-12-05 02:00,ZJSY 050200Z 12002MPS CAVOK 28/21 Q1016 NOSIG
ZJSY,2002-12-05 03:00,ZJSY 050300Z 14002MPS 9999 FEW016 29/21 Q1015 NOSIG
ZJSY,2002-12-05 04:00,ZJSY 050400Z 16002MPS 9999 FEW016 30/22 Q1015 NOSIG
ZJSY,2002-12-05 05:00,ZJSY 050500Z 18003MPS CAVOK 29/21 Q1014 NOSIG
ZJSY,2002-12-05 06:00,ZJSY 050600Z 17004MPS CAVOK 28/22 Q1013 NOSIG
ZJSY,2002-12-05 07:00,ZJSY 050700Z 15003MPS CAVOK 28/22 Q1012 NOSIG
ZJSY,2002-12-05 08:00,ZJSY 050800Z 16004MPS CAVOK 28/23 Q1012 NOSIG
ZJSY,2002-12-05 09:00,ZJSY 050900Z 14004MPS CAVOK 27/22 Q1012 NOSIG
ZJSY,2002-12-05 10:00,ZJSY 051000Z 14003MPS 9999 FEW016 27/23 Q1013 NOSIG
ZJSY,2002-12-05 11:00,ZJSY 051100Z 12003MPS CAVOK 26/22 Q1013 NOSIG
ZJSY,2002-12-05 12:00,ZJSY 051200Z 06003MPS CAVOK 25/22 Q1014 NOSIG
ZJSY,2002-12-05 13:00,ZJSY 051300Z 08003MPS CAVOK 25/22 Q1014 NOSIG
ZJSY,2002-12-05 14:00,ZJSY 051400Z 10003MPS CAVOK 25/22 Q1015 NOSIG
ZJSY,2002-12-05 15:00,ZJSY 051500Z 08002MPS CAVOK 24/22 Q1015 NOSIG
ZJSY,2002-12-05 16:00,ZJSY 051600Z 06002MPS CAVOK 24/21 Q1015 NOSIG
ZJSY,2002-12-05 17:00,ZJSY 051700Z 05002MPS CAVOK 24/21 Q1015 NOSIG
ZJSY,2002-12-05 18:00,ZJSY 051800Z AUTO 09002MPS //// // ////// 23/21 Q1014 NOSIG
ZJSY,2002-12-05 19:00,ZJSY 051900Z AUTO 04002MPS //// // ////// 23/21 Q1014 NOSIG
ZJSY,2002-12-05 20:00,ZJSY 052000Z AUTO 06001MPS //// // ////// 23/21 Q1013 NOSIG
ZJSY,2002-12-05 21:00,ZJSY 052100Z AUTO 04002MPS //// // ////// 22/20 Q1013 NOSIG
ZJSY,2002-12-05 22:00,ZJSY 052200Z 03002MPS CAVOK 22/20 Q1013 NOSIG
ZJSY,2002-12-05 23:00,ZJSY 052300Z 01001MPS CAVOK 22/20 Q1014 NOSIG
ZJSY,2002-12-06 00:00,ZJSY 060000Z 05001MPS CAVOK 24/22 Q1014 NOSIG
ZJSY,2002-12-06 01:00,ZJSY 060100Z 08002MPS CAVOK 27/22 Q1015 NOSIG
ZJSY,2002-12-06 02:00,ZJSY 060200Z 10003MPS CAVOK 28/21 Q1015 NOSIG
ZJSY,2002-12-06 03:00,ZJSY 060300Z 11002MPS 9999 FEW021 29/21 Q1015 NOSIG
ZJSY,2002-12-06 04:00,ZJSY 060400Z 16003MPS 9999 FEW021 29/22 Q1014 NOSIG
ZJSY,2002-12-06 05:00,ZJSY 060500Z 16004MPS 9999 FEW021 28/22 Q1014 NOSIG
ZJSY,2002-12-06 06:00,ZJSY 060600Z 16004MPS 9999 FEW021 29/22 Q1012 NOSIG
ZJSY,2002-12-06 07:00,ZJSY 060700Z 16003MPS 9999 FEW021 28/22 Q1012 NOSIG
ZJSY,2002-12-06 08:00,ZJSY 060800Z 15003MPS 9999 FEW021 28/22 Q1012 NOSIG
ZJSY,2002-12-06 09:00,ZJSY 060900Z 15003MPS 9999 FEW021 28/22 Q1012 NOSIG
ZJSY,2002-12-06 10:00,ZJSY 061000Z 14003MPS CAVOK 27/23 Q1012 NOSIG
ZJSY,2002-12-06 11:00,ZJSY 061100Z 11003MPS CAVOK 26/22 Q1013 NOSIG
ZJSY,2002-12-06 12:00,ZJSY 061200Z 06003MPS CAVOK 25/22 Q1013 NOSIG
ZJSY,2002-12-06 13:00,ZJSY 061300Z 04002MPS CAVOK 25/22 Q1014 NOSIG
ZJSY,2002-12-06 14:00,ZJSY 061400Z 08002MPS CAVOK 25/22 Q1014 NOSIG
ZJSY,2002-12-06 15:00,ZJSY 061500Z 02001MPS CAVOK 24/21 Q1014 NOSIG
ZJSY,2002-12-06 16:00,ZJSY 061600Z 00000MPS CAVOK 24/21 Q1014 NOSIG
ZJSY,2002-12-06 17:00,ZJSY 061700Z 06001MPS 9999 FEW013 24/22 Q1014 NOSIG
ZJSY,2002-12-06 18:00,ZJSY 061800Z AUTO 02001MPS //// // ////// 23/21 Q1013 NOSIG
ZJSY,2002-12-06 19:00,ZJSY 061900Z AUTO 36001MPS //// // ////// 23/21 Q1013 NOSIG
ZJSY,2002-12-06 20:00,ZJSY 062000Z AUTO 36001MPS //// // ////// 23/21 Q1013 NOSIG
ZJSY,2002-12-06 21:00,ZJSY 062100Z AUTO 03001MPS //// // ////// 23/22 Q1013 NOSIG
ZJSY,2002-12-06 22:00,ZJSY 062200Z 01001MPS CAVOK 23/21 Q1013 NOSIG
ZJSY,2002-12-06 23:00,ZJSY 062300Z 35001MPS 9999 FEW013 23/21 Q1013 NOSIG
ZJSY,2002-12-07 00:00,ZJSY 070000Z 34002MPS 9999 SCT013 SCT016 24/22 Q1014 NOSIG
ZJSY,2002-12-07 01:00,ZJSY 070100Z 08003MPS CAVOK 27/23 Q1015 NOSIG
ZJSY,2002-12-07 02:00,ZJSY 070200Z 10003MPS 9999 SCT020 29/23 Q1015 NOSIG
ZJSY,2002-12-07 03:00,ZJSY 070300Z 13003MPS 9999 SCT020 29/23 Q1015 NOSIG
ZJSY,2002-12-07 04:00,ZJSY 070400Z 16003MPS 9999 FEW020 29/23 Q1015 NOSIG
ZJSY,2002-12-07 05:00,ZJSY 070500Z 15003MPS 9999 FEW020 29/23 Q1014 NOSIG
ZJSY,2002-12-07 06:00,ZJSY 070600Z 16004MPS 9999 FEW020 29/23 Q1013 NOSIG
ZJSY,2002-12-07 07:00,ZJSY 070700Z 16004MPS 9999 FEW020 28/23 Q1012 NOSIG
ZJSY,2002-12-07 08:00,ZJSY 070800Z 15003MPS 9999 FEW017 28/23 Q1012 NOSIG
ZJSY,2002-12-07 09:00,ZJSY 070900Z 16003MPS CAVOK 28/24 Q1012 NOSIG
ZJSY,2002-12-07 10:00,ZJSY 071000Z 15002MPS CAVOK 27/23 Q1012 NOSIG
ZJSY,2002-12-07 11:00,ZJSY 071100Z 13002MPS CAVOK 26/23 Q1013 NOSIG
ZJSY,2002-12-07 12:00,ZJSY 071200Z 06002MPS CAVOK 26/23 Q1013 NOSIG
ZJSY,2002-12-07 13:00,ZJSY 071300Z 06002MPS CAVOK 25/22 Q1014 NOSIG
ZJSY,2002-12-07 14:00,ZJSY 071400Z 03001MPS CAVOK 25/22 Q1015 NOSIG
ZJSY,2002-12-07 15:00,ZJSY 071500Z 06002MPS CAVOK 25/22 Q1014 NOSIG
ZJSY,2002-12-07 16:00,ZJSY 071600Z 00000MPS CAVOK 24/22 Q1014 NOSIG
ZJSY,2002-12-07 17:00,ZJSY 071700Z 04001MPS CAVOK 24/22 Q1014 NOSIG
ZJSY,2002-12-07 18:00,ZJSY 071800Z AUTO 07002MPS //// // ////// 23/21 Q1014 NOSIG
ZJSY,2002-12-07 19:00,ZJSY 071900Z AUTO 04002MPS //// // ////// 23/21 Q1014 NOSIG
ZJSY,2002-12-07 20:00,ZJSY 072000Z AUTO 00000MPS //// // ////// 23/21 Q1014 NOSIG
ZJSY,2002-12-07 21:00,ZJSY 072100Z AUTO 00000MPS //// // ////// 22/20 Q1014 NOSIG
ZJSY,2002-12-07 22:00,ZJSY 072200Z 36001MPS CAVOK 22/20 Q1014 NOSIG
ZJSY,2002-12-07 23:00,ZJSY 072300Z 35002MPS 9999 FEW017 BKN230 22/20 Q1015 NOSIG
ZJSY,2002-12-08 00:00,ZJSY 080000Z 34001MPS 9999 FEW017 BKN230 23/21 Q1016 NOSIG
ZJSY,2002-12-08 01:00,ZJSY 080100Z 33002MPS 9999 FEW017 SCT230 26/22 Q1017 NOSIG
ZJSY,2002-12-08 02:00,ZJSY 080200Z 05003MPS 9999 SCT020 SCT230 28/22 Q1017 NOSIG
ZJSY,2002-12-08 03:00,ZJSY 080300Z 10003MPS 9999 SCT020 FEW023TCU SCT230 30/23 Q1017 NOSIG
ZJSY,2002-12-08 04:00,ZJSY 080400Z 11004MPS 9999 BKN020 FEW023TCU SCT230 29/22 Q1016 NOSIG
ZJSY,2002-12-08 05:00,ZJSY 080500Z 11005MPS 9999 BKN020 FEW023TCU SCT230 30/22 Q1015 NOSIG
ZJSY,2002-12-08 06:00,ZJSY 080600Z 10005MPS 9999 BKN020 FEW023TCU SCT230 29/21 Q1015 NOSIG
ZJSY,2002-12-08 07:00,ZJSY 080700Z 09007MPS 9999 BKN018 FEW023TCU 27/21 Q1015 NOSIG
ZJSY,2002-12-08 08:00,ZJSY 080800Z 07007MPS 9999 SCT018 FEW023TCU SCT100 27/20 Q1015 NOSIG
ZJSY,2002-12-08 09:00,ZJSY 080900Z 08004MPS 9999 SCT018 SCT100 26/20 Q1015 NOSIG
ZJSY,2002-12-08 10:00,ZJSY 081000Z 07006MPS 9999 SCT018 BKN100 25/18 Q1016 NOSIG
ZJSY,2002-12-08 11:00,ZJSY 081100Z 07005MPS 9999 SCT018 BKN100 24/17 Q1016 NOSIG
ZJSY,2002-12-08 12:00,ZJSY 081200Z 07004MPS 9999 SCT018 SCT100 23/17 Q1017 NOSIG
ZJSY,2002-12-08 13:00,ZJSY 081300Z 08005MPS 9999 SCT018 SCT100 23/16 Q1018 NOSIG
ZJSY,2002-12-08 14:00,ZJSY 081400Z 08006MPS 9999 SCT018 BKN100 22/15 Q1018 NOSIG
ZJSY,2002-12-08 15:00,ZJSY 081500Z 07005MPS 9999 SCT018 BKN100 22/15 Q1019 NOSIG
ZJSY,2002-12-08 16:00,ZJSY 081600Z 06004MPS 9999 FEW018 BKN100 22/15 Q1019 NOSIG
ZJSY,2002-12-08 17:00,ZJSY 081700Z 06002MPS 9999 FEW018 BKN100 21/14 Q1019 NOSIG
ZJSY,2002-12-08 18:00,ZJSY 081800Z AUTO 06002MPS //// // ////// 21/15 Q1019 NOSIG
ZJSY,2002-12-08 19:00,ZJSY 081900Z AUTO 00000MPS //// // ////// 21/15 Q1019 NOSIG
ZJSY,2002-12-08 20:00,ZJSY 082000Z AUTO 35001MPS //// // ////// 21/15 Q1019 NOSIG
ZJSY,2002-12-08 21:00,ZJSY 082100Z AUTO 00000MPS //// // ////// 20/15 Q1019 NOSIG
ZJSY,2002-12-08 22:00,ZJSY 082200Z 06001MPS 9999 FEW018 BKN100 20/15 Q1019 NOSIG
ZJSY,2002-12-08 23:00,ZJSY 082300Z 05001MPS 9999 FEW018 SCT050 BKN100 20/15 Q1020 NOSIG
ZJSY,2002-12-09 00:00,ZJSY 090000Z 04002MPS 9999 FEW015 SCT050 BKN100 20/15 Q1021 NOSIG
ZJSY,2002-12-09 01:00,ZJSY 090100Z 06002MPS CAVOK 21/14 Q1022 NOSIG
ZJSY,2002-12-09 02:00,ZJSY 090200Z 02002MPS CAVOK 23/15 Q1022 NOSIG
ZJSY,2002-12-09 03:00,ZJSY 090300Z 09003MPS CAVOK 24/14 Q1022 NOSIG
ZJSY,2002-12-09 04:00,ZJSY 090400Z 09004MPS CAVOK 25/15 Q1021 NOSIG
ZJSY,2002-12-09 05:00,ZJSY 090500Z 08006MPS 9999 FEW016 BKN130 25/14 Q1020 NOSIG
ZJSY,2002-12-09 06:00,ZJSY 090600Z 36004MPS 9999 SCT016 BKN130 25/15 Q1020 NOSIG
ZJSY,2002-12-09 07:00,ZJSY 090700Z 08003MPS 9999 SCT016 BKN130 24/14 Q1019 NOSIG
ZJSY,2002-12-09 08:00,ZJSY 090800Z 07006MPS 9999 FEW016 SCT050 BKN100 23/14 Q1019 NOSIG
ZJSY,2002-12-09 09:00,ZJSY 090900Z 08004MPS 9999 FEW016 BKN040 22/14 Q1019 NOSIG
ZJSY,2002-12-09 10:00,ZJSY 091000Z 07005MPS 9999 FEW016 BKN040 21/13 Q1020 NOSIG
ZJSY,2002-12-09 11:00,ZJSY 091100Z 07004MPS 9999 FEW020 BKN046 21/13 Q1020 NOSIG
ZJSY,2002-12-09 12:00,ZJSY 091200Z 08004MPS 9999 FEW020 BKN046 21/13 Q1021 NOSIG
ZJSY,2002-12-09 13:00,ZJSY 091300Z 08003MPS 9999 FEW020 BKN046 20/13 Q1021 NOSIG
ZJSY,2002-12-09 14:00,ZJSY 091400Z 06004MPS 9999 FEW020 BKN050 21/13 Q1021 NOSIG
ZJSY,2002-12-09 15:00,ZJSY 091500Z 06004MPS 9999 FEW020 BKN050 21/13 Q1021 NOSIG
ZJSY,2002-12-09 16:00,ZJSY 091600Z 03002MPS 9999 FEW020 BKN050 21/13 Q1021 NOSIG
ZJSY,2002-12-09 17:00,ZJSY 091700Z 06001MPS 9999 FEW020 BKN050 20/14 Q1020 NOSIG
ZJSY,2002-12-09 18:00,ZJSY 091800Z AUTO 00000MPS //// // ////// 20/15 Q1020 NOSIG
ZJSY,2002-12-09 19:00,ZJSY 091900Z AUTO 02002MPS //// // ////// 21/14 Q1019 NOSIG
ZJSY,2002-12-09 20:00,ZJSY 092000Z AUTO 06004MPS //// // ////// 21/14 Q1019 NOSIG
ZJSY,2002-12-09 21:00,ZJSY 092100Z AUTO 06004MPS //// // ////// 21/14 Q1018 NOSIG
ZJSY,2002-12-09 22:00,ZJSY 092200Z 05004MPS CAVOK 21/15 Q1018 NOSIG
ZJSY,2002-12-09 23:00,ZJSY 092300Z 04006MPS CAVOK 22/15 Q1019 NOSIG
ZJSY,2002-12-10 00:00,ZJSY 100000Z 02002MPS CAVOK 22/15 Q1019 NOSIG
ZJSY,2002-12-10 01:00,ZJSY 100100Z 21001MPS CAVOK 24/15 Q1020 NOSIG
ZJSY,2002-12-10 02:00,ZJSY 100200Z 30002MPS CAVOK 25/16 Q1020 NOSIG
ZJSY,2002-12-10 03:00,ZJSY 100300Z 06005MPS 9999 FEW020 BKN053 25/16 Q1020 NOSIG
ZJSY,2002-12-10 04:00,ZJSY 100400Z 05006MPS 9999 FEW020 BKN053 25/16 Q1020 NOSIG
ZJSY,2002-12-10 05:00,ZJSY 100500Z 04005MPS 9999 FEW020 BKN053 26/16 Q1019 NOSIG
ZJSY,2002-12-10 06:00,ZJSY 100600Z 05005MPS CAVOK 26/17 Q1018 NOSIG
ZJSY,2002-12-10 07:00,ZJSY 100700Z 04003MPS CAVOK 26/16 Q1017 NOSIG
ZJSY,2002-12-10 08:00,ZJSY 100800Z 07003MPS 9999 BKN043 BKN060 26/16 Q1017 NOSIG
ZJSY,2002-12-10 09:00,ZJSY 100900Z 08004MPS CAVOK 25/17 Q1017 NOSIG
ZJSY,2002-12-10 10:00,ZJSY 101000Z 10002MPS 9999 SCT033 BKN050 24/17 Q1018 NOSIG
ZJSY,2002-12-10 11:00,ZJSY 101100Z 07003MPS 9999 SCT030 BKN050 23/17 Q1018 NOSIG
ZJSY,2002-12-10 12:00,ZJSY 101200Z 06002MPS 9999 SCT030 BKN050 23/16 Q1019 NOSIG
ZJSY,2002-12-10 13:00,ZJSY 101300Z 06003MPS CAVOK 23/16 Q1019 NOSIG
ZJSY,2002-12-10 14:00,ZJSY 101400Z 08001MPS CAVOK 22/17 Q1019 NOSIG
ZJSY,2002-12-10 15:00,ZJSY 101500Z 00000MPS CAVOK 22/17 Q1019 NOSIG
ZJSY,2002-12-10 16:00,ZJSY 101600Z 13001MPS CAVOK 22/17 Q1019 NOSIG
ZJSY,2002-12-10 17:00,ZJSY 101700Z 07004MPS CAVOK 23/17 Q1019 NOSIG
ZJSY,2002-12-10 18:00,ZJSY 101800Z 08003MPS CAVOK 22/17 Q1018 NOSIG
ZJSY,2002-12-10 19:00,ZJSY 101900Z AUTO 07004MPS //// // ////// 22/17 Q1018 NOSIG
ZJSY,2002-12-10 20:00,ZJSY 102000Z AUTO 04002MPS //// // ////// 22/17 Q1017 NOSIG
ZJSY,2002-12-10 21:00,ZJSY 102100Z AUTO 06002MPS //// // ////// 23/17 Q1018 NOSIG
ZJSY,2002-12-10 22:00,ZJSY 102200Z 15001MPS CAVOK 22/18 Q1018 NOSIG
ZJSY,2002-12-10 23:00,ZJSY 102300Z 06003MPS CAVOK 23/18 Q1018 NOSIG
ZJSY,2002-12-11 00:00,ZJSY 110000Z 05004MPS CAVOK 23/18 Q1019 NOSIG
ZJSY,2002-12-11 01:00,ZJSY 110100Z 07004MPS CAVOK 24/18 Q1020 NOSIG
ZJSY,2002-12-11 02:00,ZJSY 110200Z 06008MPS CAVOK 26/19 Q1020 NOSIG
ZJSY,2002-12-11 03:00,ZJSY 110300Z 09006MPS CAVOK 27/19 Q1019 NOSIG
ZJSY,2002-12-11 04:00,ZJSY 110400Z 09005MPS 9999 FEW016 SCT100 27/18 Q1019 NOSIG
ZJSY,2002-12-11 05:00,ZJSY 110500Z 11004MPS 9999 FEW016 SCT100 29/19 Q1018 NOSIG
ZJSY,2002-12-11 06:00,ZJSY 110600Z 14003MPS 9999 FEW016 BKN100 26/19 Q1018 NOSIG
ZJSY,2002-12-11 07:00,ZJSY 110700Z 09005MPS 9999 FEW016 SCT043 BKN100 26/19 Q1017 NOSIG
ZJSY,2002-12-11 08:00,ZJSY 110800Z 07005MPS 9999 FEW016 SCT043 BKN100 26/19 Q1017 NOSIG
ZJSY,2002-12-11 09:00,ZJSY 110900Z 08005MPS 9999 FEW016 SCT043 BKN100 26/19 Q1017 NOSIG
ZJSY,2002-12-11 10:00,ZJSY 111000Z 07004MPS 9999 SCT043 OVC100 25/19 Q1018 NOSIG
ZJSY,2002-12-11 11:00,ZJSY 111100Z 09002MPS 9999 SCT043 BKN100 24/19 Q1019 NOSIG
ZJSY,2002-12-11 12:00,ZJSY 111200Z 06002MPS 9999 -RA SCT016 BKN040 BKN100 24/19 Q1020 NOSIG
ZJSY,2002-12-11 13:00,ZJSY 111300Z 01002MPS 9999 -RA SCT016 BKN040 BKN100 23/20 Q1021 NOSIG
ZJSY,2002-12-11 14:00,ZJSY 111400Z 01002MPS 9999 BKN043 BKN100 23/20 Q1021 NOSIG
ZJSY,2002-12-11 15:00,ZJSY 111500Z 35002MPS 9999 -RA BKN040 BKN100 22/20 Q1021 NOSIG
ZJSY,2002-12-11 16:00,ZJSY 111600Z 36001MPS 9999 -RA BKN040 BKN100 22/20 Q1021 NOSIG
ZJSY,2002-12-11 17:00,ZJSY 111700Z 32002MPS 9999 -RA BKN040 BKN100 21/20 Q1021 NOSIG
ZJSY,2002-12-11 19:00,ZJSY 111900Z AUTO 33001MPS //// // ////// 22/19 Q1019 NOSIG
ZJSY,2002-12-11 20:00,ZJSY 112000Z AUTO 00000MPS //// // ////// 21/19 Q1019 NOSIG
ZJSY,2002-12-11 21:00,ZJSY 112100Z AUTO 07001MPS //// // ////// 21/19 Q1020 NOSIG
ZJSY,2002-12-11 22:00,ZJSY 112200Z 11001MPS 9999 SCT043 BKN120 21/19 Q1020 NOSIG
ZJSY,2002-12-11 23:00,ZJSY 112300Z 00000MPS 9999 BKN040 BKN100 21/19 Q1021 NOSIG
ZJSY,2002-12-12 00:00,ZJSY 120000Z 07003MPS 9999 BKN043 BKN100 20/18 Q1022 NOSIG
ZJSY,2002-12-12 01:00,ZJSY 120100Z 08003MPS CAVOK 21/18 Q1023 NOSIG
ZJSY,2002-12-12 02:00,ZJSY 120200Z 08004MPS CAVOK 22/18 Q1023 NOSIG
ZJSY,2002-12-12 03:00,ZJSY 120300Z 09004MPS CAVOK 22/17 Q1023 NOSIG
ZJSY,2002-12-12 04:00,ZJSY 120400Z 09004MPS CAVOK 23/18 Q1023 NOSIG
ZJSY,2002-12-12 05:00,ZJSY 120500Z 10004MPS CAVOK 25/18 Q1021 NOSIG
ZJSY,2002-12-12 06:00,ZJSY 120600Z 10004MPS CAVOK 26/18 Q1021 NOSIG
ZJSY,2002-12-12 07:00,ZJSY 120700Z 10005MPS 9999 SCT043 BKN060 24/17 Q1020 NOSIG
ZJSY,2002-12-12 08:00,ZJSY 120800Z 08006MPS 9999 SCT043 BKN060 23/17 Q1021 NOSIG
ZJSY,2002-12-12 09:00,ZJSY 120900Z 07005MPS 9999 SCT043 BKN060 23/17 Q1021 NOSIG
ZJSY,2002-12-12 10:00,ZJSY 121000Z 08005MPS 9999 SCT040 OVC060 22/17 Q1021 NOSIG
ZJSY,2002-12-12 11:00,ZJSY 121100Z 07004MPS 9999 FEW013 SCT040 OVC050 22/16 Q1022 NOSIG
ZJSY,2002-12-12 12:00,ZJSY 121200Z 06005MPS 9999 FEW013 BKN040 OVC050 22/17 Q1023 NOSIG
ZJSY,2002-12-12 13:00,ZJSY 121300Z 05004MPS 9999 SCT013 SCT040 BKN050 22/16 Q1023 NOSIG
ZJSY,2002-12-12 14:00,ZJSY 121400Z 05004MPS 9999 FEW013 BKN060 22/15 Q1024 NOSIG
ZJSY,2002-12-12 15:00,ZJSY 121500Z 05004MPS CAVOK 22/15 Q1023 NOSIG
ZJSY,2002-12-12 16:00,ZJSY 121600Z 05005MPS CAVOK 21/15 Q1023 NOSIG
ZJSY,2002-12-12 17:00,ZJSY 121700Z 04005MPS CAVOK 21/15 Q1023 NOSIG
ZJSY,2002-12-12 18:00,ZJSY 121800Z AUTO 05006MPS //// // ////// 22/15 Q1023 NOSIG
ZJSY,2002-12-12 19:00,ZJSY 121900Z AUTO 05005MPS //// // ////// 22/15 Q1022 NOSIG
ZJSY,2002-12-12 20:00,ZJSY 122000Z AUTO 05005MPS //// // ////// 23/15 Q1021 NOSIG
ZJSY,2002-12-12 21:00,ZJSY 122100Z AUTO 05005MPS //// // ////// 23/15 Q1021 NOSIG
ZJSY,2002-12-12 22:00,ZJSY 122200Z 05006MPS CAVOK 23/15 Q1021 NOSIG
ZJSY,2002-12-12 23:00,ZJSY 122300Z 07005MPS CAVOK 22/15 Q1022 NOSIG
ZJSY,2002-12-13 00:00,ZJSY 130000Z 05005MPS CAVOK 23/15 Q1022 NOSIG
ZJSY,2002-12-13 01:00,ZJSY 130100Z 05005MPS CAVOK 23/15 Q1023 NOSIG
ZJSY,2002-12-13 02:00,ZJSY 130200Z 06006MPS CAVOK 25/16 Q1023 NOSIG
ZJSY,2002-12-13 03:00,ZJSY 130300Z 05007MPS CAVOK 26/16 Q1023 NOSIG
ZJSY,2002-12-13 04:00,ZJSY 130400Z 05006MPS CAVOK 27/16 Q1023 NOSIG
ZJSY,2002-12-13 05:00,ZJSY 130500Z 06007MPS CAVOK 27/17 Q1022 NOSIG
ZJSY,2002-12-13 06:00,ZJSY 130600Z 08006MPS 9999 FEW033 BKN100 26/16 Q1021 NOSIG
ZJSY,2002-12-13 07:00,ZJSY 130700Z 06007MPS 9999 SCT033 BKN100 25/17 Q1020 NOSIG
ZJSY,2002-12-13 08:00,ZJSY 130800Z 07006MPS 9999 SCT033 BKN100 25/17 Q1020 NOSIG
ZJSY,2002-12-13 09:00,ZJSY 130900Z 07008MPS 9999 SCT040 BKN100 25/16 Q1020 NOSIG
ZJSY,2002-12-13 10:00,ZJSY 131000Z 07006MPS CAVOK 23/16 Q1021 NOSIG
ZJSY,2002-12-13 11:00,ZJSY 131100Z 07004MPS 9999 FEW016 BKN100 23/17 Q1022 NOSIG
ZJSY,2002-12-13 12:00,ZJSY 131200Z 07005MPS 9999 FEW016 BKN100 22/16 Q1023 NOSIG
ZJSY,2002-12-13 13:00,ZJSY 131300Z 05006MPS CAVOK 23/16 Q1023 NOSIG
ZJSY,2002-12-13 14:00,ZJSY 131400Z 06007MPS CAVOK 23/16 Q1023 NOSIG
ZJSY,2002-12-13 15:00,ZJSY 131500Z 06006MPS CAVOK 23/16 Q1023 NOSIG
ZJSY,2002-12-13 16:00,ZJSY 131600Z 04005MPS CAVOK 23/16 Q1022 NOSIG
ZJSY,2002-12-13 17:00,ZJSY 131700Z 04005MPS CAVOK 23/16 Q1022 NOSIG
ZJSY,2002-12-13 18:00,ZJSY 131800Z AUTO 06005MPS //// // ////// 23/15 Q1021 NOSIG
ZJSY,2002-12-13 19:00,ZJSY 131900Z AUTO 06006MPS //// // ////// 23/15 Q1020 NOSIG
ZJSY,2002-12-13 20:00,ZJSY 132000Z AUTO 06005MPS //// // ////// 23/15 Q1020 NOSIG
ZJSY,2002-12-13 21:00,ZJSY 132100Z AUTO 05002MPS //// // ////// 23/15 Q1020 NOSIG
ZJSY,2002-12-13 22:00,ZJSY 132200Z 05005MPS CAVOK 24/16 Q1020 NOSIG
ZJSY,2002-12-13 23:00,ZJSY 132300Z 06005MPS 9999 SCT043 BKN070 24/16 Q1021 NOSIG
ZJSY,2002-12-14 00:00,ZJSY 140000Z 06005MPS CAVOK 24/17 Q1021 NOSIG
ZJSY,2002-12-14 01:00,ZJSY 140100Z 05005MPS CAVOK 26/17 Q1022 NOSIG
ZJSY,2002-12-14 02:00,ZJSY 140200Z 06004MPS CAVOK 26/17 Q1022 NOSIG
ZJSY,2002-12-14 03:00,ZJSY 140300Z 08007MPS 9999 FEW015 SCT120 28/18 Q1022 NOSIG
ZJSY,2002-12-14 04:00,ZJSY 140400Z 08008MPS 9999 FEW015 SCT120 28/18 Q1021 NOSIG
ZJSY,2002-12-14 05:00,ZJSY 140500Z 10007MPS 9999 FEW015 BKN120 26/19 Q1020 NOSIG
ZJSY,2002-12-14 06:00,ZJSY 140600Z 09007MPS 9999 FEW016 BKN120 27/19 Q1019 NOSIG
ZJSY,2002-12-14 07:00,ZJSY 140700Z 10006MPS 9999 FEW016 BKN120 27/19 Q1018 NOSIG
ZJSY,2002-12-14 08:00,ZJSY 140800Z 08007MPS CAVOK 27/19 Q1018 NOSIG
ZJSY,2002-12-14 09:00,ZJSY 140900Z 08006MPS CAVOK 26/19 Q1018 NOSIG
ZJSY,2002-12-14 10:00,ZJSY 141000Z 07007MPS CAVOK 25/19 Q1018 NOSIG
ZJSY,2002-12-14 11:00,ZJSY 141100Z 06005MPS CAVOK 24/19 Q1019 NOSIG
ZJSY,2002-12-14 12:00,ZJSY 141200Z 06007MPS CAVOK 24/19 Q1019 NOSIG
ZJSY,2002-12-14 13:00,ZJSY 141300Z 06006MPS CAVOK 24/19 Q1020 NOSIG
ZJSY,2002-12-14 14:00,ZJSY 141400Z 07007MPS CAVOK 24/18 Q1020 NOSIG
ZJSY,2002-12-14 15:00,ZJSY 141500Z 07005MPS 9999 SCT043 BKN110 24/18 Q1020 NOSIG
ZJSY,2002-12-14 16:00,ZJSY 141600Z 07005MPS 9999 SCT043 BKN110 24/18 Q1020 NOSIG
ZJSY,2002-12-14 17:00,ZJSY 141700Z 08002MPS 9999 SCT043 BKN110 23/18 Q1020 NOSIG
ZJSY,2002-12-14 18:00,ZJSY 141800Z AUTO 08004MPS //// // ////// 23/18 Q1019 NOSIG
ZJSY,2002-12-14 19:00,ZJSY 141900Z AUTO 08004MPS //// // ////// 23/19 Q1019 NOSIG
ZJSY,2002-12-14 20:00,ZJSY 142000Z AUTO 05003MPS //// // ////// 24/18 Q1019 NOSIG
ZJSY,2002-12-14 21:00,ZJSY 142100Z AUTO 03004MPS //// // ////// 23/19 Q1018 NOSIG
ZJSY,2002-12-14 22:00,ZJSY 142200Z 06005MPS 9999 SCT043 BKN110 23/19 Q1018 NOSIG
ZJSY,2002-12-14 23:00,ZJSY 142300Z 05002MPS 6000 -RA SCT016 BKN040 BKN050 22/19 Q1020 NOSIG
ZJSY,2002-12-15 00:00,ZJSY 150000Z 06003MPS 6000 -RA SCT015 BKN033 BKN050 22/20 Q1020 NOSIG
ZJSY,2002-12-15 01:00,ZJSY 150100Z 03003MPS 9999 BKN040 BKN060 22/19 Q1021 NOSIG
ZJSY,2002-12-15 02:00,ZJSY 150200Z 08002MPS 9999 SCT040 BKN060 23/21 Q1021 NOSIG
ZJSY,2002-12-15 03:00,ZJSY 150300Z 06005MPS CAVOK 25/19 Q1021 NOSIG
ZJSY,2002-12-15 04:00,ZJSY 150400Z 08007MPS 9999 FEW020 BKN100 27/20 Q1020 NOSIG
ZJSY,2002-12-15 05:00,ZJSY 150500Z 10005MPS 9999 SCT020 BKN100 27/19 Q1018 NOSIG
ZJSY,2002-12-15 06:00,ZJSY 150600Z 09005MPS 9999 SCT020 BKN100 28/19 Q1017 NOSIG
ZJSY,2002-12-15 07:00,ZJSY 150700Z 10006MPS 9999 SCT020 BKN110 27/19 Q1017 NOSIG
ZJSY,2002-12-15 08:00,ZJSY 150800Z 08007MPS 9999 SCT040 BKN110 27/20 Q1017 NOSIG
ZJSY,2002-12-15 09:00,ZJSY 150900Z 10004MPS CAVOK 26/20 Q1017 NOSIG
ZJSY,2002-12-15 10:00,ZJSY 151000Z 08005MPS CAVOK 25/20 Q1017 NOSIG
ZJSY,2002-12-15 11:00,ZJSY 151100Z 09005MPS CAVOK 24/20 Q1018 NOSIG
ZJSY,2002-12-15 12:00,ZJSY 151200Z 08005MPS CAVOK 24/20 Q1019 NOSIG
ZJSY,2002-12-15 13:00,ZJSY 151300Z 06003MPS CAVOK 24/20 Q1019 NOSIG
ZJSY,2002-12-15 14:00,ZJSY 151400Z 09003MPS CAVOK 23/19 Q1019 NOSIG
ZJSY,2002-12-15 15:00,ZJSY 151500Z 03003MPS CAVOK 24/19 Q1019 NOSIG
ZJSY,2002-12-15 16:00,ZJSY 151600Z 04002MPS CAVOK 24/18 Q1019 NOSIG
ZJSY,2002-12-15 17:00,ZJSY 151700Z 05002MPS CAVOK 23/18 Q1018 NOSIG
ZJSY,2002-12-15 18:00,ZJSY 151800Z AUTO 00000MPS //// // ////// 23/18 Q1018 NOSIG
ZJSY,2002-12-15 19:00,ZJSY 151900Z AUTO 12001MPS //// // ////// 23/19 Q1017 NOSIG
ZJSY,2002-12-15 20:00,ZJSY 152000Z AUTO 07002MPS //// // ////// 23/19 Q1017 NOSIG
ZJSY,2002-12-15 21:00,ZJSY 152100Z AUTO 05002MPS //// // ////// 24/19 Q1017 NOSIG
ZJSY,2002-12-15 22:00,ZJSY 152200Z 06003MPS 9999 BKN040 24/19 Q1017 NOSIG
ZJSY,2002-12-15 23:00,ZJSY 152300Z 09001MPS 9999 BKN040 23/19 Q1018 NOSIG
ZJSY,2002-12-16 00:00,ZJSY 160000Z 04002MPS CAVOK 24/19 Q1018 NOSIG
ZJSY,2002-12-16 01:00,ZJSY 160100Z 05002MPS CAVOK 25/19 Q1019 NOSIG
ZJSY,2002-12-16 02:00,ZJSY 160200Z 08006MPS CAVOK 26/19 Q1020 NOSIG
ZJSY,2002-12-16 03:00,ZJSY 160300Z 06006MPS CAVOK 27/19 Q1020 NOSIG
ZJSY,2002-12-16 04:00,ZJSY 160400Z 06007MPS CAVOK 27/18 Q1019 NOSIG
ZJSY,2002-12-16 05:00,ZJSY 160500Z 10006MPS CAVOK 28/19 Q1018 NOSIG
ZJSY,2002-12-16 06:00,ZJSY 160600Z 10005MPS 9999 FEW016 SCT100 27/19 Q1017 NOSIG
ZJSY,2002-12-16 07:00,ZJSY 160700Z 09006MPS 9999 SCT018 SCT100 27/19 Q1016 NOSIG
ZJSY,2002-12-16 08:00,ZJSY 160800Z 08007MPS 9999 SCT018 SCT100 27/19 Q1016 NOSIG
ZJSY,2002-12-16 09:00,ZJSY 160900Z 09005MPS 9999 FEW018 BKN100 26/20 Q1015 NOSIG
ZJSY,2002-12-16 10:00,ZJSY 161000Z 08006MPS 9999 FEW014 SCT033 BKN100 25/20 Q1016 NOSIG
ZJSY,2002-12-16 11:00,ZJSY 161100Z 08007MPS 9999 FEW014 BKN033 BKN100 25/19 Q1016 NOSIG
ZJSY,2002-12-16 12:00,ZJSY 161200Z 09004MPS CAVOK 24/20 Q1017 NOSIG
ZJSY,2002-12-16 13:00,ZJSY 161300Z 06004MPS CAVOK 24/19 Q1018 NOSIG
ZJSY,2002-12-16 14:00,ZJSY 161400Z 06005MPS CAVOK 24/19 Q1018 NOSIG
ZJSY,2002-12-16 15:00,ZJSY 161500Z 09003MPS CAVOK 24/19 Q1018 NOSIG
ZJSY,2002-12-16 16:00,ZJSY 161600Z 09002MPS CAVOK 23/19 Q1017 NOSIG
ZJSY,2002-12-16 17:00,ZJSY 161700Z 07003MPS 9999 FEW012 23/19 Q1017 NOSIG
ZJSY,2002-12-16 18:00,ZJSY 161800Z AUTO 07002MPS //// // ////// 22/19 Q1017 NOSIG
ZJSY,2002-12-16 19:00,ZJSY 161900Z AUTO 07002MPS //// // ////// 22/19 Q1017 NOSIG
ZJSY,2002-12-16 20:00,ZJSY 162000Z AUTO 07002MPS //// // ////// 23/19 Q1016 NOSIG
ZJSY,2002-12-16 21:00,ZJSY 162100Z AUTO 04004MPS //// // ////// 23/19 Q1016 NOSIG
ZJSY,2002-12-16 22:00,ZJSY 162200Z 06004MPS CAVOK 23/19 Q1015 NOSIG
ZJSY,2002-12-16 23:00,ZJSY 162300Z 09001MPS CAVOK 23/19 Q1016 NOSIG
ZJSY,2002-12-17 00:00,ZJSY 170000Z 09002MPS CAVOK 24/19 Q1017 NOSIG
ZJSY,2002-12-17 01:00,ZJSY 170100Z 10002MPS CAVOK 25/20 Q1018 NOSIG
ZJSY,2002-12-17 02:00,ZJSY 170200Z 08007MPS CAVOK 27/20 Q1018 NOSIG
ZJSY,2002-12-17 03:00,ZJSY 170300Z 08006MPS CAVOK 28/19 Q1017 NOSIG
ZJSY,2002-12-17 04:00,ZJSY 170400Z 07006MPS 9999 FEW016 BKN120 28/19 Q1017 NOSIG
ZJSY,2002-12-17 05:00,ZJSY 170500Z 09005MPS 9999 FEW016 BKN120 30/19 Q1016 NOSIG
ZJSY,2002-12-17 06:00,ZJSY 170600Z 10005MPS 9999 FEW016 BKN120 29/18 Q1014 NOSIG
ZJSY,2002-12-17 07:00,ZJSY 170700Z 09005MPS 9999 FEW016 BKN120 29/19 Q1014 NOSIG
ZJSY,2002-12-17 08:00,ZJSY 170800Z 10005MPS CAVOK 27/20 Q1013 NOSIG
ZJSY,2002-12-17 09:00,ZJSY 170900Z 09005MPS CAVOK 27/20 Q1014 NOSIG
ZJSY,2002-12-17 10:00,ZJSY 171000Z 08006MPS CAVOK 25/20 Q1014 NOSIG
ZJSY,2002-12-17 11:00,ZJSY 171100Z 08004MPS CAVOK 24/20 Q1015 NOSIG
ZJSY,2002-12-17 13:00,ZJSY 171300Z 06004MPS CAVOK 24/19 Q1016 NOSIG
ZJSY,2002-12-17 14:00,ZJSY 171400Z 06003MPS CAVOK 23/19 Q1016 NOSIG
ZJSY,2002-12-17 15:00,ZJSY 171500Z 05003MPS CAVOK 23/19 Q1016 NOSIG
ZJSY,2002-12-17 16:00,ZJSY 171600Z 05003MPS CAVOK 23/19 Q1016 NOSIG
ZJSY,2002-12-17 17:00,ZJSY 171700Z 07003MPS CAVOK 22/19 Q1015 NOSIG
ZJSY,2002-12-17 18:00,ZJSY 171800Z AUTO 06002MPS //// // ////// 22/18 Q1015 NOSIG
ZJSY,2002-12-17 19:00,ZJSY 171900Z AUTO 08003MPS //// // ////// 22/18 Q1014 NOSIG
ZJSY,2002-12-17 20:00,ZJSY 172000Z AUTO 04002MPS //// // ////// 23/19 Q1014 NOSIG
ZJSY,2002-12-17 21:00,ZJSY 172100Z AUTO 06001MPS //// // ////// 22/19 Q1014 NOSIG
ZJSY,2002-12-17 22:00,ZJSY 172200Z 33001MPS CAVOK 22/19 Q1014 NOSIG
ZJSY,2002-12-17 23:00,ZJSY 172300Z 02001MPS CAVOK 22/19 Q1014 NOSIG
ZJSY,2002-12-18 00:00,ZJSY 180000Z 04002MPS CAVOK 23/20 Q1014 NOSIG
ZJSY,2002-12-18 01:00,ZJSY 180100Z 07004MPS CAVOK 26/20 Q1015 NOSIG
ZJSY,2002-12-18 02:00,ZJSY 180200Z 07005MPS CAVOK 27/21 Q1015 NOSIG
ZJSY,2002-12-18 03:00,ZJSY 180300Z 11002MPS 9999 FEW016 28/21 Q1015 NOSIG
ZJSY,2002-12-18 04:00,ZJSY 180400Z 18003MPS 9999 FEW016 28/22 Q1014 NOSIG
ZJSY,2002-12-18 05:00,ZJSY 180500Z 18004MPS 9999 FEW016 28/21 Q1013 NOSIG
ZJSY,2002-12-18 06:00,ZJSY 180600Z 17003MPS 9999 FEW016 28/22 Q1012 NOSIG
ZJSY,2002-12-18 07:00,ZJSY 180700Z 18003MPS CAVOK 27/21 Q1011 NOSIG
ZJSY,2002-12-18 08:00,ZJSY 180800Z 19003MPS CAVOK 27/22 Q1011 NOSIG
ZJSY,2002-12-18 09:00,ZJSY 180900Z 15002MPS CAVOK 26/22 Q1011 NOSIG
ZJSY,2002-12-18 10:00,ZJSY 181000Z 16002MPS CAVOK 25/22 Q1012 NOSIG
ZJSY,2002-12-18 11:00,ZJSY 181100Z 14001MPS CAVOK 25/22 Q1012 NOSIG
ZJSY,2002-12-18 12:00,ZJSY 181200Z 13002MPS CAVOK 25/22 Q1013 NOSIG
ZJSY,2002-12-18 13:00,ZJSY 181300Z 08002MPS CAVOK 24/21 Q1013 NOSIG
ZJSY,2002-12-18 14:00,ZJSY 181400Z 35002MPS CAVOK 23/21 Q1013 NOSIG
ZJSY,2002-12-18 15:00,ZJSY 181500Z 04002MPS CAVOK 24/21 Q1013 NOSIG
ZJSY,2002-12-18 16:00,ZJSY 181600Z 06002MPS CAVOK 23/20 Q1013 NOSIG
ZJSY,2002-12-18 17:00,ZJSY 181700Z 00000MPS CAVOK 22/20 Q1013 NOSIG
ZJSY,2002-12-18 18:00,ZJSY 181800Z AUTO 03002MPS //// // ////// 22/20 Q1012 NOSIG
ZJSY,2002-12-18 19:00,ZJSY 181900Z AUTO 33002MPS //// // ////// 21/19 Q1012 NOSIG
ZJSY,2002-12-18 20:00,ZJSY 182000Z AUTO 36001MPS //// // ////// 21/19 Q1012 NOSIG
ZJSY,2002-12-18 21:00,ZJSY 182100Z AUTO 34002MPS //// // ////// 21/19 Q1012 NOSIG
ZJSY,2002-12-18 22:00,ZJSY 182200Z 35002MPS CAVOK 21/19 Q1012 NOSIG
ZJSY,2002-12-18 23:00,ZJSY 182300Z 34002MPS CAVOK 21/19 Q1012 NOSIG
ZJSY,2002-12-19 00:00,ZJSY 190000Z 33001MPS CAVOK 22/20 Q1013 NOSIG
ZJSY,2002-12-19 01:00,ZJSY 190100Z 06003MPS CAVOK 25/21 Q1013 NOSIG
ZJSY,2002-12-19 02:00,ZJSY 190200Z 08003MPS 9999 FEW020 28/21 Q1014 NOSIG
ZJSY,2002-12-19 03:00,ZJSY 190300Z 10003MPS 9999 SCT020 28/21 Q1013 NOSIG
ZJSY,2002-12-19 04:00,ZJSY 190400Z 16003MPS 9999 SCT020 28/21 Q1012 NOSIG
ZJSY,2002-12-19 05:00,ZJSY 190500Z 16003MPS 9999 SCT020 28/21 Q1012 NOSIG
ZJSY,2002-12-19 06:00,ZJSY 190600Z 17004MPS 9999 FEW020 28/22 Q1011 NOSIG
ZJSY,2002-12-19 07:00,ZJSY 190700Z 16004MPS 9999 FEW020TCU FEW020 27/23 Q1010 NOSIG
ZJSY,2002-12-19 08:00,ZJSY 190800Z 16004MPS 9999 FEW018 27/22 Q1010 NOSIG
ZJSY,2002-12-19 09:00,ZJSY 190900Z 15003MPS 9999 FEW018 27/22 Q1010 NOSIG
ZJSY,2002-12-19 10:00,ZJSY 191000Z 14002MPS CAVOK 26/22 Q1010 NOSIG
ZJSY,2002-12-19 11:00,ZJSY 191100Z 13002MPS CAVOK 25/22 Q1010 NOSIG
ZJSY,2002-12-19 12:00,ZJSY 191200Z 08003MPS CAVOK 25/22 Q1011 NOSIG
ZJSY,2002-12-19 13:00,ZJSY 191300Z 08004MPS CAVOK 24/21 Q1011 NOSIG
ZJSY,2002-12-19 14:00,ZJSY 191400Z 08003MPS CAVOK 24/21 Q1011 NOSIG
ZJSY,2002-12-19 15:00,ZJSY 191500Z 07003MPS CAVOK 24/21 Q1011 NOSIG
ZJSY,2002-12-19 16:00,ZJSY 191600Z 07003MPS CAVOK 24/22 Q1011 NOSIG
ZJSY,2002-12-19 17:00,ZJSY 191700Z 06002MPS CAVOK 23/21 Q1010 NOSIG
ZJSY,2002-12-19 18:00,ZJSY 191800Z AUTO 07002MPS //// // ////// 23/21 Q1010 NOSIG
ZJSY,2002-12-19 19:00,ZJSY 191900Z AUTO 05002MPS //// // ////// 23/21 Q1010 NOSIG
ZJSY,2002-12-19 20:00,ZJSY 192000Z AUTO 06003MPS //// // ////// 23/21 Q1009 NOSIG
ZJSY,2002-12-19 21:00,ZJSY 192100Z AUTO 04002MPS //// // ////// 24/21 Q1009 NOSIG
ZJSY,2002-12-19 22:00,ZJSY 192200Z 06002MPS CAVOK 23/21 Q1009 NOSIG
ZJSY,2002-12-19 23:00,ZJSY 192300Z 08002MPS CAVOK 23/21 Q1009 NOSIG
ZJSY,2002-12-20 00:00,ZJSY 200000Z 06001MPS 9999 FEW016 SCT120 BKN230 24/22 Q1009 NOSIG
ZJSY,2002-12-20 01:00,ZJSY 200100Z 09002MPS CAVOK 26/22 Q1010 NOSIG
ZJSY,2002-12-20 02:00,ZJSY 200200Z 10003MPS 9999 BKN016 SCT120 27/22 Q1011 NOSIG
ZJSY,2002-12-20 03:00,ZJSY 200300Z 14003MPS 9999 SCT012 SCT016 BKN040 26/23 Q1011 NOSIG
ZJSY,2002-12-20 04:00,ZJSY 200400Z 13003MPS 9999 SCT012 SCT016 BKN040 27/23 Q1010 NOSIG
ZJSY,2002-12-20 05:00,ZJSY 200500Z 13003MPS 9999 SCT012 SCT016 BKN040 27/22 Q1009 NOSIG
ZJSY,2002-12-20 06:00,ZJSY 200600Z 12002MPS 9999 SCT010 BKN016 BKN040 26/23 Q1008 NOSIG
ZJSY,2002-12-20 07:00,ZJSY 200700Z 14002MPS 9999 -TS FEW010 SCT016 FEW023CB BKN040 26/23 Q1007 NOSIG
ZJSY,2002-12-20 08:00,ZJSY 200800Z 32002MPS 5000 -TS FEW010 SCT016 FEW023CB BKN040 21/20 Q1007 RERA
ZJSY,2002-12-20 09:00,ZJSY 200900Z 25002MPS 8000 FEW010 BKN040 25/23 Q1008 RETS
ZJSY,2002-12-20 10:00,ZJSY 201000Z 00000MPS 9999 FEW015 SCT230 23/21 Q1008 NOSIG
ZJSY,2002-12-20 11:00,ZJSY 201100Z 09001MPS CAVOK 22/21 Q1008 NOSIG
ZJSY,2002-12-20 12:00,ZJSY 201200Z 00000MPS CAVOK 22/21 Q1009 NOSIG
ZJSY,2002-12-20 13:00,ZJSY 201300Z 35001MPS CAVOK 22/20 Q1009 NOSIG
ZJSY,2002-12-20 14:00,ZJSY 201400Z 35002MPS CAVOK 22/20 Q1010 NOSIG
ZJSY,2002-12-20 15:00,ZJSY 201500Z 00000MPS 9999 FEW013 SCT120 22/20 Q1010 NOSIG
ZJSY,2002-12-20 16:00,ZJSY 201600Z 36001MPS 9999 FEW013 SCT120 23/21 Q1010 NOSIG
ZJSY,2002-12-20 17:00,ZJSY 201700Z 01001MPS 6000 -SHRA SCT013 BKN040 23/21 Q1010 NOSIG
ZJSY,2002-12-20 17:02,ZJSY 201702Z 36001MPS 6000 -SHRA SCT013 BKN040 23/21 Q1010 NOSIG
ZJSY,2002-12-20 18:00,ZJSY 201800Z AUTO 34001MPS //// // ////// 23/21 Q1010 NOSIG
ZJSY,2002-12-20 19:00,ZJSY 201900Z AUTO 03001MPS //// // ////// 23/21 Q1009 NOSIG
ZJSY,2002-12-20 20:00,ZJSY 202000Z AUTO 00000MPS //// // ////// 23/21 Q1009 NOSIG
ZJSY,2002-12-20 21:00,ZJSY 202100Z AUTO 06002MPS //// // ////// 23/21 Q1009 NOSIG
ZJSY,2002-12-20 22:00,ZJSY 202200Z 07003MPS 9999 FEW015 BKN040 23/21 Q1009 NOSIG
ZJSY,2002-12-20 23:00,ZJSY 202300Z 08003MPS 9999 FEW015 BKN040 23/21 Q1010 NOSIG
ZJSY,2002-12-21 00:00,ZJSY 210000Z 05002MPS 9999 FEW012 SCT033 BKN060 23/21 Q1011 NOSIG
ZJSY,2002-12-21 01:00,ZJSY 210100Z 10002MPS 9999 SCT033 OVC060 23/21 Q1011 NOSIG
ZJSY,2002-12-21 02:00,ZJSY 210200Z 10002MPS 9999 SCT033 BKN060 23/21 Q1012 NOSIG
ZJSY,2002-12-21 03:00,ZJSY 210300Z 10003MPS 9999 SCT033 BKN060 24/21 Q1012 NOSIG
ZJSY,2002-12-21 04:00,ZJSY 210400Z 09004MPS 9999 FEW013 BKN040 BKN060 25/21 Q1012 NOSIG
ZJSY,2002-12-21 05:00,ZJSY 210500Z 08005MPS 9999 FEW013 BKN040 BKN060 26/21 Q1011 NOSIG
ZJSY,2002-12-21 06:00,ZJSY 210600Z 09005MPS 9999 FEW015 SCT040 BKN060 26/21 Q1010 NOSIG
ZJSY,2002-12-21 07:00,ZJSY 210700Z 09004MPS 9999 FEW015 SCT040 BKN060 26/21 Q1010 NOSIG
ZJSY,2002-12-21 08:00,ZJSY 210800Z 06003MPS 9999 FEW015 SCT040 BKN060 26/21 Q1010 NOSIG
ZJSY,2002-12-21 09:00,ZJSY 210900Z 05004MPS 9999 FEW015 BKN040 25/21 Q1010 NOSIG
ZJSY,2002-12-21 10:00,ZJSY 211000Z 06003MPS 9999 FEW015 BKN040 25/21 Q1010 NOSIG
ZJSY,2002-12-21 12:00,ZJSY 211200Z 07002MPS 9999 FEW016 SCT033 BKN050 24/20 Q1012 NOSIG
ZJSY,2002-12-21 13:00,ZJSY 211300Z 08003MPS 9999 FEW016 SCT033 BKN050 24/20 Q1013 NOSIG
ZJSY,2002-12-21 14:00,ZJSY 211400Z 06004MPS 9999 FEW016 SCT033 BKN050 24/20 Q1013 NOSIG
ZJSY,2002-12-21 15:00,ZJSY 211500Z 04005MPS 9999 SCT033 BKN050 23/20 Q1013 NOSIG
ZJSY,2002-12-21 16:00,ZJSY 211600Z 07003MPS 9999 SCT033 BKN050 23/20 Q1013 NOSIG
ZJSY,2002-12-21 17:00,ZJSY 211700Z 06003MPS 9999 FEW016 SCT050 BKN100 24/20 Q1012 NOSIG
ZJSY,2002-12-21 18:00,ZJSY 211800Z 07004MPS CAVOK 23/20 Q1012 NOSIG
ZJSY,2002-12-21 19:00,ZJSY 211900Z 11001MPS CAVOK 23/20 Q1012 NOSIG
ZJSY,2002-12-21 20:00,ZJSY 212000Z 08002MPS CAVOK 23/20 Q1012 NOSIG
ZJSY,2002-12-21 21:00,ZJSY 212100Z 32002MPS CAVOK 22/20 Q1012 NOSIG
ZJSY,2002-12-21 22:00,ZJSY 212200Z 36001MPS CAVOK 22/20 Q1012 NOSIG
ZJSY,2002-12-21 23:00,ZJSY 212300Z 06001MPS 9999 BKN040 BKN120 22/20 Q1012 NOSIG
ZJSY,2002-12-22 00:00,ZJSY 220000Z 35001MPS CAVOK 22/20 Q1013 NOSIG
ZJSY,2002-12-22 01:00,ZJSY 220100Z 10001MPS CAVOK 25/20 Q1014 NOSIG
ZJSY,2002-12-22 02:00,ZJSY 220200Z 06004MPS CAVOK 26/19 Q1014 NOSIG
ZJSY,2002-12-22 03:00,ZJSY 220300Z 07006MPS CAVOK 27/19 Q1014 NOSIG
ZJSY,2002-12-22 04:00,ZJSY 220400Z 07005MPS CAVOK 28/18 Q1014 NOSIG
ZJSY,2002-12-22 05:00,ZJSY 220500Z 07005MPS CAVOK 28/18 Q1013 NOSIG
ZJSY,2002-12-22 06:00,ZJSY 220600Z 06004MPS 9999 FEW018 BKN230 28/18 Q1012 NOSIG
ZJSY,2002-12-22 07:00,ZJSY 220700Z 07003MPS 9999 FEW018 BKN060 27/19 Q1012 NOSIG
ZJSY,2002-12-22 08:00,ZJSY 220800Z 01003MPS 9999 SCT018 BKN043 BKN230 26/20 Q1012 NOSIG
ZJSY,2002-12-22 09:00,ZJSY 220900Z 08004MPS 9999 FEW018 BKN043 BKN120 25/19 Q1012 NOSIG
ZJSY,2002-12-22 10:00,ZJSY 221000Z 08004MPS 9999 FEW018 SCT043 BKN120 25/19 Q1013 NOSIG
ZJSY,2002-12-22 11:00,ZJSY 221100Z 06004MPS 9999 SCT016 SCT043 BKN120 24/19 Q1014 NOSIG
ZJSY,2002-12-22 12:00,ZJSY 221200Z 04003MPS 9999 SCT016 SCT043 BKN120 24/18 Q1014 NOSIG
ZJSY,2002-12-22 13:00,ZJSY 221300Z 06001MPS 9999 SCT016 BKN120 24/18 Q1015 NOSIG
ZJSY,2002-12-22 14:00,ZJSY 221400Z 08003MPS 9999 SCT016 SCT043 BKN120 22/18 Q1015 NOSIG
ZJSY,2002-12-22 15:00,ZJSY 221500Z 05001MPS 9999 SCT043 BKN120 22/19 Q1015 NOSIG
ZJSY,2002-12-22 16:00,ZJSY 221600Z 10002MPS 9999 FEW046 BKN120 22/18 Q1015 NOSIG
ZJSY,2002-12-22 17:00,ZJSY 221700Z 07003MPS CAVOK 22/18 Q1015 NOSIG
ZJSY,2002-12-22 18:00,ZJSY 221800Z AUTO 36001MPS //// // ////// 22/18 Q1015 NOSIG
ZJSY,2002-12-22 19:00,ZJSY 221900Z AUTO 33001MPS //// // ////// 21/18 Q1014 NOSIG
ZJSY,2002-12-22 20:00,ZJSY 222000Z AUTO 33002MPS //// // ////// 20/18 Q1014 NOSIG
ZJSY,2002-12-22 21:00,ZJSY 222100Z AUTO 34002MPS //// // ////// 20/18 Q1014 NOSIG
ZJSY,2002-12-22 22:00,ZJSY 222200Z 36001MPS CAVOK 21/18 Q1015 NOSIG
ZJSY,2002-12-22 23:00,ZJSY 222300Z 33002MPS CAVOK 21/18 Q1015 NOSIG
ZJSY,2002-12-23 00:00,ZJSY 230000Z 32002MPS 9999 FEW015 BKN110 21/18 Q1016 NOSIG
ZJSY,2002-12-23 01:00,ZJSY 230100Z 12001MPS 9999 FEW016 BKN120 24/19 Q1017 NOSIG
ZJSY,2002-12-23 02:00,ZJSY 230200Z 06003MPS CAVOK 26/18 Q1017 NOSIG
ZJSY,2002-12-23 03:00,ZJSY 230300Z 07006MPS CAVOK 27/18 Q1017 NOSIG
ZJSY,2002-12-23 04:00,ZJSY 230400Z 08005MPS 9999 FEW016 SCT260 28/18 Q1016 NOSIG
ZJSY,2002-12-23 05:00,ZJSY 230500Z 09006MPS 9999 FEW016 SCT260 28/19 Q1015 NOSIG
ZJSY,2002-12-23 06:00,ZJSY 230600Z 09006MPS 9999 FEW016 SCT260 28/18 Q1014 NOSIG
ZJSY,2002-12-23 07:00,ZJSY 230700Z 09006MPS 9999 FEW016 SCT260 27/19 Q1013 NOSIG
ZJSY,2002-12-23 08:00,ZJSY 230800Z 09006MPS 9999 SCT016 BKN260 26/19 Q1013 NOSIG
ZJSY,2002-12-23 09:00,ZJSY 230900Z 08007MPS 9999 BKN016 BKN230 25/18 Q1013 NOSIG
ZJSY,2002-12-23 10:00,ZJSY 231000Z 07007MPS 9999 SCT016 BKN230 24/18 Q1014 NOSIG
ZJSY,2002-12-23 11:00,ZJSY 231100Z 05004MPS 9999 SCT016 BKN230 24/18 Q1015 NOSIG
ZJSY,2002-12-23 12:00,ZJSY 231200Z 07004MPS 9999 SCT016 BKN230 23/18 Q1015 NOSIG
ZJSY,2002-12-23 13:00,ZJSY 231300Z 06004MPS 9999 FEW016 SCT230 23/18 Q1016 NOSIG
ZJSY,2002-12-23 14:00,ZJSY 231400Z 05005MPS 9999 FEW016 SCT230 23/17 Q1016 NOSIG
ZJSY,2002-12-23 15:00,ZJSY 231500Z 07005MPS 9999 FEW016 SCT230 22/17 Q1015 NOSIG
ZJSY,2002-12-23 16:00,ZJSY 231600Z 03002MPS 9999 FEW016 SCT230 22/17 Q1016 NOSIG
ZJSY,2002-12-23 17:00,ZJSY 231700Z 09003MPS 9999 FEW016 SCT230 21/17 Q1016 NOSIG
ZJSY,2002-12-23 18:00,ZJSY 231800Z 07003MPS 9999 FEW016 SCT230 20/17 Q1015 NOSIG
ZJSY,2002-12-23 19:00,ZJSY 231900Z 06004MPS 9999 FEW016 SCT230 21/17 Q1015 NOSIG
ZJSY,2002-12-23 20:00,ZJSY 232000Z 05003MPS CAVOK 21/16 Q1015 NOSIG
ZJSY,2002-12-23 21:00,ZJSY 232100Z 03002MPS CAVOK 21/16 Q1015 NOSIG
ZJSY,2002-12-23 22:00,ZJSY 232200Z 02003MPS CAVOK 21/15 Q1015 NOSIG
ZJSY,2002-12-23 23:00,ZJSY 232300Z 05005MPS CAVOK 21/16 Q1016 NOSIG
ZJSY,2002-12-24 00:00,ZJSY 240000Z 05005MPS CAVOK 22/16 Q1017 NOSIG
ZJSY,2002-12-24 01:00,ZJSY 240100Z 05006MPS CAVOK 23/16 Q1017 NOSIG
ZJSY,2002-12-24 02:00,ZJSY 240200Z 06006MPS CAVOK 25/16 Q1017 NOSIG
ZJSY,2002-12-24 03:00,ZJSY 240300Z 06007MPS CAVOK 26/16 Q1017 NOSIG
ZJSY,2002-12-24 04:00,ZJSY 240400Z 08005MPS CAVOK 28/17 Q1016 NOSIG
ZJSY,2002-12-24 05:00,ZJSY 240500Z 09004MPS CAVOK 27/17 Q1015 NOSIG
ZJSY,2002-12-24 06:00,ZJSY 240600Z 10005MPS CAVOK 26/18 Q1015 NOSIG
ZJSY,2002-12-24 07:00,ZJSY 240700Z 09006MPS CAVOK 26/18 Q1014 NOSIG
ZJSY,2002-12-24 08:00,ZJSY 240800Z 09006MPS CAVOK 25/18 Q1014 NOSIG
ZJSY,2002-12-24 09:00,ZJSY 240900Z 08007MPS CAVOK 25/17 Q1014 NOSIG
ZJSY,2002-12-24 10:00,ZJSY 241000Z 08006MPS CAVOK 24/17 Q1015 NOSIG
ZJSY,2002-12-24 11:00,ZJSY 241100Z 07004MPS CAVOK 23/17 Q1015 NOSIG
ZJSY,2002-12-24 12:00,ZJSY 241200Z 08005MPS 9999 BKN046 BKN230 23/17 Q1016 NOSIG
ZJSY,2002-12-24 13:00,ZJSY 241300Z 08004MPS 9999 BKN040 BKN230 23/17 Q1016 NOSIG
ZJSY,2002-12-24 14:00,ZJSY 241400Z 08005MPS 9999 BKN040 BKN230 22/17 Q1016 NOSIG
ZJSY,2002-12-24 15:00,ZJSY 241500Z 06004MPS CAVOK 22/17 Q1016 NOSIG
ZJSY,2002-12-24 16:00,ZJSY 241600Z 06003MPS CAVOK 22/17 Q1016 NOSIG
ZJSY,2002-12-24 17:00,ZJSY 241700Z AUTO 05005MPS //// // ////// 22/17 Q1016 NOSIG
ZJSY,2002-12-24 18:00,ZJSY 241800Z AUTO 05005MPS //// // ////// 22/17 Q1015 NOSIG
ZJSY,2002-12-24 19:00,ZJSY 241900Z 05004MPS CAVOK 22/16 Q1015 NOSIG
ZJSY,2002-12-24 20:00,ZJSY 242000Z AUTO 07004MPS //// // ////// 22/17 Q1014 NOSIG
ZJSY,2002-12-24 21:00,ZJSY 242100Z 06005MPS CAVOK 22/17 Q1015 NOSIG
ZJSY,2002-12-24 22:00,ZJSY 242200Z 05005MPS CAVOK 22/17 Q1015 NOSIG
ZJSY,2002-12-24 23:00,ZJSY 242300Z 02004MPS CAVOK 22/17 Q1016 NOSIG
ZJSY,2002-12-25 00:00,ZJSY 250000Z 07005MPS CAVOK 23/17 Q1016 NOSIG
ZJSY,2002-12-25 01:00,ZJSY 250100Z 05005MPS CAVOK 23/17 Q1017 NOSIG
ZJSY,2002-12-25 02:00,ZJSY 250200Z 06007MPS CAVOK 24/18 Q1017 NOSIG
ZJSY,2002-12-25 03:00,ZJSY 250300Z 07008MPS CAVOK 26/18 Q1017 NOSIG
ZJSY,2002-12-25 04:00,ZJSY 250400Z 08006MPS CAVOK 27/18 Q1016 NOSIG
ZJSY,2002-12-25 05:00,ZJSY 250500Z 08007MPS 9999 SCT016 BKN100 27/18 Q1015 NOSIG
ZJSY,2002-12-25 06:00,ZJSY 250600Z 08007MPS 9999 FEW016 BKN100 27/18 Q1014 NOSIG
ZJSY,2002-12-25 07:00,ZJSY 250700Z 07007MPS CAVOK 25/18 Q1014 NOSIG
ZJSY,2002-12-25 08:00,ZJSY 250800Z 06006MPS 9999 SCT040 BKN100 25/18 Q1014 NOSIG
ZJSY,2002-12-25 09:00,ZJSY 250900Z 07007MPS 9999 SCT040 OVC053 24/17 Q1014 NOSIG
ZJSY,2002-12-25 10:00,ZJSY 251000Z 07007MPS 9999 FEW016 SCT040 OVC053 23/17 Q1015 NOSIG
ZJSY,2002-12-25 11:00,ZJSY 251100Z 06007MPS 9999 FEW016 SCT040 OVC053 23/17 Q1016 NOSIG
ZJSY,2002-12-25 12:00,ZJSY 251200Z 07008MPS 9999 SCT040 OVC053 23/17 Q1016 NOSIG
ZJSY,2002-12-25 13:00,ZJSY 251300Z 07009MPS 9999 SCT040 OVC053 23/17 Q1016 NOSIG
ZJSY,2002-12-25 14:00,ZJSY 251400Z 08009MPS 9999 FEW015 BKN050 23/17 Q1016 NOSIG
ZJSY,2002-12-25 15:00,ZJSY 251500Z 06007G12MPS 9999 FEW015 SCT050 22/17 Q1016 NOSIG
ZJSY,2002-12-25 16:00,ZJSY 251600Z 07007MPS 9999 FEW015 SCT050 22/17 Q1016 NOSIG
ZJSY,2002-12-25 17:00,ZJSY 251700Z 07009MPS 9999 FEW015 SCT050 22/16 Q1015 NOSIG
ZJSY,2002-12-25 18:00,ZJSY 251800Z AUTO 07009MPS //// // ////// 22/16 Q1015 NOSIG
ZJSY,2002-12-25 19:00,ZJSY 251900Z AUTO 06009MPS //// // ////// 22/15 Q1014 NOSIG
ZJSY,2002-12-25 20:00,ZJSY 252000Z AUTO 07008MPS //// // ////// 22/15 Q1014 NOSIG
ZJSY,2002-12-25 21:00,ZJSY 252100Z AUTO 06008MPS //// // ////// 22/15 Q1014 NOSIG
ZJSY,2002-12-25 22:00,ZJSY 252200Z 06007MPS 9999 FEW015 BKN050 22/15 Q1014 NOSIG
ZJSY,2002-12-25 23:00,ZJSY 252300Z 06008MPS 9999 FEW015 BKN050 22/15 Q1015 NOSIG
ZJSY,2002-12-26 00:00,ZJSY 260000Z 07008MPS CAVOK 22/16 Q1016 NOSIG
ZJSY,2002-12-26 01:00,ZJSY 260100Z 06010MPS CAVOK 23/16 Q1016 NOSIG
ZJSY,2002-12-26 02:00,ZJSY 260200Z 07011MPS CAVOK 25/16 Q1015 NOSIG
ZJSY,2002-12-26 03:00,ZJSY 260300Z 07010MPS CAVOK 26/16 Q1015 NOSIG
ZJSY,2002-12-26 04:00,ZJSY 260400Z 08011G16MPS CAVOK 26/17 Q1015 NOSIG
ZJSY,2002-12-26 05:00,ZJSY 260500Z 08010MPS CAVOK 26/17 Q1014 NOSIG
ZJSY,2002-12-26 06:00,ZJSY 260600Z 07010MPS CAVOK 26/17 Q1013 NOSIG
ZJSY,2002-12-26 07:00,ZJSY 260700Z 08009MPS CAVOK 27/17 Q1013 NOSIG
ZJSY,2002-12-26 08:00,ZJSY 260800Z 07010MPS CAVOK 25/17 Q1012 NOSIG
ZJSY,2002-12-26 09:00,ZJSY 260900Z 07007MPS CAVOK 25/17 Q1013 NOSIG
ZJSY,2002-12-26 10:00,ZJSY 261000Z 08006MPS 9999 FEW016 BKN033 24/17 Q1013 NOSIG
ZJSY,2002-12-26 11:00,ZJSY 261100Z 06006MPS 9999 FEW016 BKN033 23/16 Q1014 NOSIG
ZJSY,2002-12-26 12:00,ZJSY 261200Z 06008MPS 9999 FEW016 BKN033 22/15 Q1014 NOSIG
ZJSY,2002-12-26 13:00,ZJSY 261300Z 06008MPS 9999 SCT040 SCT110 22/14 Q1014 NOSIG
ZJSY,2002-12-26 14:00,ZJSY 261400Z 05007MPS 9999 FEW016 SCT040 22/13 Q1015 NOSIG
ZJSY,2002-12-26 15:00,ZJSY 261500Z 07005MPS 9999 FEW016 SCT040 BKN110 21/13 Q1015 NOSIG
ZJSY,2002-12-26 16:00,ZJSY 261600Z 04002MPS 9999 FEW018 SCT040 BKN110 21/13 Q1015 NOSIG
ZJSY,2002-12-26 17:00,ZJSY 261700Z 30003MPS 9999 FEW018 SCT040 BKN110 20/13 Q1016 NOSIG
ZJSY,2002-12-26 21:00,ZJSY 262100Z AUTO 35004MPS //// // ////// 18/11 Q1016 NOSIG
ZJSY,2002-12-26 22:00,ZJSY 262200Z 35003MPS 9999 BKN016 BKN040 18/11 Q1017 NOSIG
ZJSY,2002-12-26 23:00,ZJSY 262300Z 35003MPS 9999 SCT016 BKN040 17/11 Q1018 NOSIG
ZJSY,2002-12-27 00:00,ZJSY 270000Z 34003MPS 9999 OVC040 17/11 Q1018 NOSIG
ZJSY,2002-12-27 01:00,ZJSY 270100Z 02001MPS 9999 OVC040 18/11 Q1020 NOSIG
ZJSY,2002-12-27 02:00,ZJSY 270200Z 34001MPS 9999 OVC040 19/12 Q1020 NOSIG
ZJSY,2002-12-27 03:00,ZJSY 270300Z 08003MPS 9999 OVC040 18/13 Q1020 NOSIG
ZJSY,2002-12-27 04:00,ZJSY 270400Z 34002MPS 9999 BKN040 BKN053 19/13 Q1019 NOSIG
ZJSY,2002-12-27 05:00,ZJSY 270500Z 04002MPS 9999 BKN040 OVC053 20/13 Q1018 NOSIG
ZJSY,2002-12-27 06:00,ZJSY 270600Z 08003MPS 9999 BKN040 OVC053 20/13 Q1017 NOSIG
ZJSY,2002-12-27 07:00,ZJSY 270700Z 04001MPS 9999 BKN040 OVC053 20/14 Q1016 NOSIG
ZJSY,2002-12-27 08:00,ZJSY 270800Z 29001MPS 9999 BKN040 OVC053 19/15 Q1016 NOSIG
ZJSY,2002-12-27 09:00,ZJSY 270900Z 00000MPS 9999 BKN040 OVC053 20/15 Q1017 NOSIG
ZJSY,2002-12-27 10:00,ZJSY 271000Z 08004MPS 9999 BKN040 OVC060 19/12 Q1017 NOSIG
ZJSY,2002-12-27 11:00,ZJSY 271100Z 09003MPS 9999 BKN040 OVC060 18/12 Q1017 NOSIG
ZJSY,2002-12-27 12:00,ZJSY 271200Z 06003MPS 9999 BKN040 OVC060 18/12 Q1018 NOSIG
ZJSY,2002-12-27 13:00,ZJSY 271300Z 06001MPS 9999 SCT040 BKN060 18/12 Q1018 NOSIG
ZJSY,2002-12-27 14:00,ZJSY 271400Z 08003MPS CAVOK 17/12 Q1019 NOSIG
ZJSY,2002-12-27 15:00,ZJSY 271500Z 07004MPS 9999 SCT040 BKN060 17/12 Q1019 NOSIG
ZJSY,2002-12-27 16:00,ZJSY 271600Z 08004MPS 9999 SCT040 BKN060 17/12 Q1019 NOSIG
ZJSY,2002-12-27 17:00,ZJSY 271700Z 07003MPS 9999 SCT040 BKN060 17/12 Q1018 NOSIG
ZJSY,2002-12-27 18:00,ZJSY 271800Z 07003MPS 9999 SCT040 BKN060 17/12 Q1018 NOSIG
ZJSY,2002-12-27 19:00,ZJSY 271900Z 06001MPS 9999 SCT040 BKN060 17/13 Q1017 NOSIG
ZJSY,2002-12-27 20:00,ZJSY 272000Z 00000MPS 9999 SCT040 BKN060 17/14 Q1017 NOSIG
ZJSY,2002-12-27 21:00,ZJSY 272100Z AUTO 09002MPS //// // ////// 17/12 Q1017 NOSIG
ZJSY,2002-12-27 22:00,ZJSY 272200Z 01002MPS 9999 SCT040 BKN060 17/14 Q1016 NOSIG
ZJSY,2002-12-27 23:00,ZJSY 272300Z 05001MPS CAVOK 19/13 Q1017 NOSIG
ZJSY,2002-12-28 00:00,ZJSY 280000Z 00000MPS CAVOK 19/14 Q1017 NOSIG
ZJSY,2002-12-28 01:00,ZJSY 280100Z 27002MPS CAVOK 20/14 Q1019 NOSIG
ZJSY,2002-12-28 02:00,ZJSY 280200Z 00000MPS CAVOK 21/14 Q1019 NOSIG
ZJSY,2002-12-28 03:00,ZJSY 280300Z 06002MPS CAVOK 23/14 Q1019 NOSIG
ZJSY,2002-12-28 04:00,ZJSY 280400Z 06004MPS CAVOK 23/14 Q1018 NOSIG
ZJSY,2002-12-28 05:00,ZJSY 280500Z 06003MPS CAVOK 23/14 Q1017 NOSIG
ZJSY,2002-12-28 06:00,ZJSY 280600Z 05005MPS CAVOK 24/14 Q1016 NOSIG
ZJSY,2002-12-28 07:00,ZJSY 280700Z 05004MPS CAVOK 24/14 Q1015 NOSIG
ZJSY,2002-12-28 08:00,ZJSY 280800Z 07004MPS CAVOK 24/14 Q1015 NOSIG
ZJSY,2002-12-28 09:00,ZJSY 280900Z 06004MPS CAVOK 24/15 Q1015 NOSIG
ZJSY,2002-12-28 10:00,ZJSY 281000Z 07003MPS CAVOK 22/15 Q1016 NOSIG
ZJSY,2002-12-28 11:00,ZJSY 281100Z 10002MPS CAVOK 21/15 Q1017 NOSIG
ZJSY,2002-12-28 12:00,ZJSY 281200Z 07004MPS CAVOK 19/15 Q1017 NOSIG
ZJSY,2002-12-28 13:00,ZJSY 281300Z 06004MPS CAVOK 19/15 Q1018 NOSIG
ZJSY,2002-12-28 14:00,ZJSY 281400Z 06002MPS CAVOK 18/14 Q1019 NOSIG
ZJSY,2002-12-28 15:00,ZJSY 281500Z 09002MPS CAVOK 18/14 Q1018 NOSIG
ZJSY,2002-12-28 16:00,ZJSY 281600Z 35002MPS CAVOK 17/15 Q1018 NOSIG
ZJSY,2002-12-28 18:00,ZJSY 281800Z AUTO 30001MPS //// // ////// 17/14 Q1018 NOSIG
ZJSY,2002-12-28 19:00,ZJSY 281900Z AUTO 00000MPS //// // ////// 18/15 Q1017 NOSIG
ZJSY,2002-12-28 20:00,ZJSY 282000Z AUTO 00000MPS //// // ////// 18/15 Q1017 NOSIG
ZJSY,2002-12-28 21:00,ZJSY 282100Z AUTO 28002MPS //// // ////// 19/15 Q1017 NOSIG
ZJSY,2002-12-28 22:00,ZJSY 282200Z 34001MPS CAVOK 19/15 Q1017 NOSIG
ZJSY,2002-12-28 23:00,ZJSY 282300Z 33002MPS CAVOK 18/15 Q1018 NOSIG
ZJSY,2002-12-29 00:00,ZJSY 290000Z 00000MPS CAVOK 19/16 Q1018 NOSIG
ZJSY,2002-12-29 01:00,ZJSY 290100Z 26001MPS 9999 SCT043 BKN060 21/16 Q1019 NOSIG
ZJSY,2002-12-29 02:00,ZJSY 290200Z 00000MPS 9999 SCT043 BKN060 21/16 Q1020 NOSIG
ZJSY,2002-12-29 03:00,ZJSY 290300Z 02002MPS 9999 SCT043 BKN060 23/16 Q1020 NOSIG
ZJSY,2002-12-29 04:00,ZJSY 290400Z 07005MPS 9999 SCT043 BKN060 24/16 Q1019 NOSIG
ZJSY,2002-12-29 05:00,ZJSY 290500Z 07006MPS CAVOK 25/16 Q1017 NOSIG
ZJSY,2002-12-29 06:00,ZJSY 290600Z 08007MPS CAVOK 26/16 Q1016 NOSIG
ZJSY,2002-12-29 07:00,ZJSY 290700Z 07007MPS 9999 SCT016 BKN050 25/16 Q1016 NOSIG
ZJSY,2002-12-29 08:00,ZJSY 290800Z 09005MPS 9999 SCT026 OVC050 24/17 Q1016 NOSIG
ZJSY,2002-12-29 09:00,ZJSY 290900Z 09005MPS 9999 SCT026 OVC050 24/17 Q1017 NOSIG
ZJSY,2002-12-29 10:00,ZJSY 291000Z 09004MPS 9999 FEW016 BKN060 23/17 Q1017 NOSIG
ZJSY,2002-12-29 11:00,ZJSY 291100Z 07006MPS CAVOK 22/16 Q1017 NOSIG
ZJSY,2002-12-29 12:00,ZJSY 291200Z 07004MPS CAVOK 22/16 Q1017 NOSIG
ZJSY,2002-12-29 13:00,ZJSY 291300Z 06003MPS CAVOK 21/16 Q1018 NOSIG
ZJSY,2002-12-29 14:00,ZJSY 291400Z 10001MPS CAVOK 21/16 Q1018 NOSIG
ZJSY,2002-12-29 15:00,ZJSY 291500Z 00000MPS CAVOK 20/16 Q1019 NOSIG
ZJSY,2002-12-29 16:00,ZJSY 291600Z 12001MPS CAVOK 20/16 Q1018 NOSIG
ZJSY,2002-12-29 17:00,ZJSY 291700Z 00000MPS CAVOK 19/16 Q1018 NOSIG
ZJSY,2002-12-29 18:00,ZJSY 291800Z AUTO 00000MPS //// // ////// 20/16 Q1018 NOSIG
ZJSY,2002-12-29 19:00,ZJSY 291900Z AUTO 25001MPS //// // ////// 20/16 Q1017 NOSIG
ZJSY,2002-12-29 20:00,ZJSY 292000Z AUTO 35002MPS //// // ////// 19/17 Q1017 NOSIG
ZJSY,2002-12-29 21:00,ZJSY 292100Z 29001MPS CAVOK 20/17 Q1017 NOSIG
ZJSY,2002-12-29 22:00,ZJSY 292200Z 03001MPS 9999 FEW015 SCT230 19/17 Q1017 NOSIG
ZJSY,2002-12-29 23:00,ZJSY 292300Z 35002MPS CAVOK 19/16 Q1018 NOSIG
ZJSY,2002-12-30 00:00,ZJSY 300000Z 07002MPS CAVOK 18/16 Q1018 NOSIG
ZJSY,2002-12-30 01:00,ZJSY 300100Z 13001MPS CAVOK 22/17 Q1019 NOSIG
ZJSY,2002-12-30 02:00,ZJSY 300200Z 10004MPS CAVOK 24/17 Q1019 NOSIG
ZJSY,2002-12-30 03:00,ZJSY 300300Z 10005MPS CAVOK 25/17 Q1018 NOSIG
ZJSY,2002-12-30 04:00,ZJSY 300400Z 10005MPS CAVOK 26/18 Q1018 NOSIG
ZJSY,2002-12-30 05:00,ZJSY 300500Z 11004MPS 9999 FEW016 26/17 Q1017 NOSIG
ZJSY,2002-12-30 06:00,ZJSY 300600Z 10005MPS 9999 FEW016 25/18 Q1016 NOSIG
ZJSY,2002-12-30 07:00,ZJSY 300700Z 11004MPS 9999 FEW016 SCT230 25/17 Q1015 NOSIG
ZJSY,2002-12-30 08:00,ZJSY 300800Z 13004MPS 9999 FEW016 BKN060 24/18 Q1015 NOSIG
ZJSY,2002-12-30 09:00,ZJSY 300900Z 12004MPS 9999 SCT016 SCT230 24/18 Q1015 NOSIG
ZJSY,2002-12-30 10:00,ZJSY 301000Z 11004MPS 9999 FEW016 SCT260 23/17 Q1016 NOSIG
ZJSY,2002-12-30 11:00,ZJSY 301100Z 07004MPS 9999 FEW016 BKN260 22/18 Q1016 NOSIG
ZJSY,2002-12-30 12:00,ZJSY 301200Z 05002MPS 9999 FEW016 BKN260 22/17 Q1017 NOSIG
ZJSY,2002-12-30 13:00,ZJSY 301300Z 07002MPS 9999 FEW016 BKN260 21/17 Q1017 NOSIG
ZJSY,2002-12-30 14:00,ZJSY 301400Z 11002MPS CAVOK 21/17 Q1018 NOSIG
ZJSY,2002-12-30 15:00,ZJSY 301500Z 06003MPS CAVOK 20/17 Q1018 NOSIG
ZJSY,2002-12-30 16:00,ZJSY 301600Z 02002MPS CAVOK 21/17 Q1018 NOSIG
ZJSY,2002-12-30 17:00,ZJSY 301700Z 00000MPS CAVOK 20/17 Q1018 NOSIG
ZJSY,2002-12-30 18:00,ZJSY 301800Z AUTO 33002MPS //// // ////// 19/16 Q1018 NOSIG
ZJSY,2002-12-30 19:00,ZJSY 301900Z AUTO 36001MPS //// // ////// 19/17 Q1017 NOSIG
ZJSY,2002-12-30 20:00,ZJSY 302000Z AUTO 33001MPS //// // ////// 19/17 Q1017 NOSIG
ZJSY,2002-12-30 21:00,ZJSY 302100Z AUTO 01001MPS //// // ////// 19/17 Q1017 NOSIG
ZJSY,2002-12-30 22:00,ZJSY 302200Z 02001MPS CAVOK 19/17 Q1017 NOSIG
ZJSY,2002-12-30 23:00,ZJSY 302300Z 34002MPS CAVOK 19/17 Q1017 NOSIG
